2010/08/09 15:59
MYEG 091559Z AUTO 11007KT 10SM CLR 28/23 A2999 RMK AO2 

2010/08/09 15:59
MYEG 091559Z AUTO 11007KT 10SM CLR 28/23 A2999 RMK AO2

2010/08/09 15:45
KBAX 091545Z AUTO 22005KT 7SM CLR 23/21 A2992 RMK AO2

2010/08/09 15:45
KBAX 091545Z AUTO 22005KT 7SM CLR 23/21 A2992 RMK AO2

2010/08/09 15:45
KBAX 091545Z AUTO 22005KT 7SM CLR 23/21 A2992 RMK AO2

2010/08/09 15:45
KBAX 091545Z AUTO 22005KT 7SM CLR 23/21 A2992 RMK AO2

2010/08/09 15:55
KFDW 091555Z AUTO 08004KT 10SM CLR 32/20 A3006 RMK AO1

2010/08/09 15:55
KFDW 091555Z AUTO 08004KT 10SM CLR 32/20 A3006 RMK AO1

2010/08/09 15:45
K2G4 091545Z AUTO 00000KT 10SM CLR 25/13 A3016 RMK AO1

2010/08/09 15:45
KCGS 091545Z AUTO 27003KT 10SM CLR 33/20 A3003 RMK AO1

2010/08/09 15:45
KFME 091545Z AUTO 24005KT 10SM CLR 29/21 A3005 RMK AO1

2010/08/09 15:45
CYFC 091545Z AUTO 18009KT 5SM -RA BR OVC014 20/19 A2991 RMK SLP129 DENSITY ALT 600FT RVR MISG

2010/08/09 15:45
K2G4 091545Z AUTO 00000KT 10SM CLR 25/13 A3016 RMK AO1

2010/08/09 15:45
KFME 091545Z AUTO 24005KT 10SM CLR 29/21 A3005 RMK AO1

2010/08/09 15:45
KCGS 091545Z AUTO 27003KT 10SM CLR 33/20 A3003 RMK AO1

2010/08/09 15:45
K2G4 091545Z AUTO 00000KT 10SM CLR 25/13 A3016 RMK AO1

2010/08/09 15:45
KCGS 091545Z AUTO 27003KT 10SM CLR 33/20 A3003 RMK AO1

2010/08/09 15:45
CYFC 091545Z AUTO 18009KT 5SM -RA BR OVC014 20/19 A2991 RMK SLP129 DENSITY ALT 600FT RVR MISG

2010/08/09 15:45
KFME 091545Z AUTO 24005KT 10SM CLR 29/21 A3005 RMK AO1

2010/08/09 15:45
CYUA 091545Z AUTO 10005KT 9SM FEW007 SCT010 BKN055 08/ A2978

2010/08/09 15:55
KQSA 091555Z 08008G13KT 9999 FEW100 BKN150 28/17 A2985 RMK SLP276 WND DATA ESTMD ALSTG/SLP ESTMD

2010/08/09 15:45
KUKI 091545Z AUTO 15004KT 10SM SCT004 14/12 A2990 RMK AO2

2010/08/09 15:45
K2G4 091545Z AUTO 00000KT 10SM CLR 25/13 A3016 RMK AO1

2010/08/09 15:45
KCGS 091545Z AUTO 27003KT 10SM CLR 33/20 A3003 RMK AO1

2010/08/09 15:45
KFME 091545Z AUTO 24005KT 10SM CLR 29/21 A3005 RMK AO1

2010/08/09 15:45
KUES 091545Z 20010KT 10SM SCT013 23/19 A2995

2010/08/09 15:46
CWOB 091546Z AUTO ///// 1/8SM CLR 04/ A2969

2010/08/09 15:46
KNUW 091546Z 22010KT 6SM BR BKN006 OVC020 14/11 A2996 RMK AO2 $ 

2010/08/09 15:45
PABE 091545Z 16013KT 10SM -RA BKN022 BKN030 OVC040 10/09 A2934 RMK AO2 RAE20B38 P0000

2010/08/09 15:45
PAMC 091545Z 10004KT 4SM -RA BR FEW005 BKN010 OVC018 12/11 A2949 RMK AO2 P0001

2010/08/09 15:47
KEVB 091547Z 13012KT 10SM BKN014 31/26 A2996

2010/08/09 15:46
KGLR 091546Z AUTO VRB04KT 6SM BR SCT010 OVC032 23/21 A2992 RMK AO2

2010/08/09 15:45
KBBG 091545Z 00000KT 10SM BKN250 32/23 A3002

2010/08/09 15:55
KCCA 091555Z AUTO 00000KT 9SM CLR 33/25 A2999 RMK AO2

2010/08/09 15:45
KMWC 091545Z 22009KT 10SM SCT050 24/20 A2993

2010/08/09 15:45
KORG 091545Z AUTO 24004KT 10SM SCT026 SCT032 32/24 A2999 RMK AO2

2010/08/09 15:45
KRCR 091545Z AUTO 00000KT 7SM CLR 29/21 A3000 RMK AO2

2010/08/09 15:45
KSFY 091545Z AUTO 00000KT 10SM SCT080 BKN100 24/22 A2994 RMK AO2

2010/08/09 15:47
KSUA 091547Z 08010KT 7SM SCT025 BKN045 28/24 A2996

2010/08/09 15:50
KVQQ 091550Z 04009KT 7SM BKN030 31/25 A2997

2010/08/09 15:45
CWWA 091545Z AUTO 00000KT 15/13 RMK AO1 T01510131

2010/08/09 15:45
KSFY 091545Z AUTO 00000KT 10SM SCT080 BKN100 24/22 A2994 RMK AO2

2010/08/09 15:46
KNUW 091546Z 22010KT 6SM BR BKN006 OVC020 14/11 A2996 RMK AO2 $

2010/08/09 15:45
K2G4 091545Z AUTO 00000KT 10SM CLR 25/13 A3016 RMK AO1

2010/08/09 15:45
KCGS 091545Z AUTO 27003KT 10SM CLR 33/20 A3003 RMK AO1

2010/08/09 15:45
KUES 091545Z 20010KT 10SM SCT013 23/19 A2995

2010/08/09 15:45
KBBG 091545Z 00000KT 10SM BKN250 32/23 A3002

2010/08/09 15:55
KCCA 091555Z AUTO 00000KT 9SM CLR 33/25 A2999 RMK AO2

2010/08/09 15:45
KMWC 091545Z 22009KT 10SM SCT050 24/20 A2993

2010/08/09 15:45
KORG 091545Z AUTO 24004KT 10SM SCT026 SCT032 32/24 A2999 RMK AO2

2010/08/09 15:45
KRCR 091545Z AUTO 00000KT 7SM CLR 29/21 A3000 RMK AO2

2010/08/09 15:47
KSUA 091547Z 08010KT 7SM SCT025 BKN045 28/24 A2996

2010/08/09 15:50
KVQQ 091550Z 04009KT 7SM BKN030 31/25 A2997

2010/08/09 15:45
KUKI 091545Z AUTO 15004KT 10SM SCT004 14/12 A2990 RMK AO2

2010/08/09 15:47
KEVB 091547Z 13012KT 10SM BKN014 31/26 A2996

2010/08/09 15:46
KGLR 091546Z AUTO VRB04KT 6SM BR SCT010 OVC032 23/21 A2992 RMK AO2

2010/08/09 15:45
PABE 091545Z 16013KT 10SM -RA BKN022 BKN030 OVC040 10/09 A2934 RMK AO2 RAE20B38 P0000

2010/08/09 15:45
PAMC 091545Z 10004KT 4SM -RA BR FEW005 BKN010 OVC018 12/11 A2949 RMK AO2 P0001

2010/08/09 15:50
EEKA 091550Z 19008KT 140V230 9999 SCT016CB BKN052 20/17 Q1011

2010/08/09 15:47
CYFS 091547Z 33010KT 12SM OVC008 RMK SF8 BR BLN DSAPRD 900 FT CIG RAG

2010/08/09 15:46
KNUW 091546Z 22010KT 6SM BR BKN006 OVC020 14/11 A2996

2010/08/09 15:47
CYOY 091547Z AUTO 21007KT 180V260 9SM BKN010 BKN033 OVC038 OVC088 22/17 A2988

2010/08/09 15:45
KUKI 091545Z AUTO 15004KT 10SM SCT004 14/12 A2990

2010/08/09 15:46
CWOB 091546Z AUTO ///// 1/8SM CLR 04/ A2969

2010/08/09 15:45
CYFC 091545Z AUTO 18009KT 5SM -RA BR OVC014 20/19 A2991 RMK SLP129 DENSITY ALT 600FT RVR MISG

2010/08/09 15:45
CYUA 091545Z AUTO 10005KT 9SM FEW007 SCT010 BKN055 08/ A2978

2010/08/09 15:48
KSUU 091548Z AUTO 24016KT 10SM BKN008 15/12 A2989 RMK AO2 SLP122 RVRNO $

2010/08/09 15:45
K1H2 091545Z AUTO 18004KT 10SM CLR 32/24 A2997 RMK AO2 T03180244

2010/08/09 15:45
K3LF 091545Z AUTO 19006KT 7SM CLR 30/25 A2997 RMK AO2

2010/08/09 15:45
K3T5 091545Z AUTO 21004KT 10SM SCT023 SCT031 31/25 A2997 RMK AO2 T03110249

2010/08/09 15:45
KAJG 091545Z AUTO 22004KT 10SM CLR 30/24 A2999 RMK AO2 T03000244

2010/08/09 15:45
KAQO 091545Z AUTO 18006KT CLR 32/21 A3002 RMK AO2 PWINO

2010/08/09 15:47
KASW 091547Z AUTO 10004KT 7SM CLR 28/21 A3000 RMK AO2 T02800205

2010/08/09 15:45
KAXH 091545Z AUTO 00000KT 10SM SCT025 BKN033 BKN050 31/25 A2998 RMK AO2 T03060250

2010/08/09 15:45
KBKS 091545Z AUTO 17007KT 10SM SCT025 32/24 A2993 RMK AO1 T03230242

2010/08/09 15:46
KBPC 091546Z AUTO 25004KT 10SM CLR 31/17 A2995 RMK AO2

2010/08/09 15:45
KC75 091545Z AUTO 10004KT 10SM CLR 27/24 A2991 RMK AO2 T02660241

2010/08/09 15:45
KCPT 091545Z AUTO 21007KT 10SM CLR 31/23 A2998 RMK AO2

2010/08/09 15:45
KCUL 091545Z AUTO 00000KT 10SM CLR 32/23 A2998 RMK AO2 T03160225 PWINO

2010/08/09 15:45
KCVB 091545Z AUTO 21005KT 10SM SCT026 29/22 A3000 RMK AO2 T02920216

2010/08/09 15:45
KDKB 091545Z AUTO 18004KT 10SM SCT060 24/21 A2995 RMK AO2 T02430207

2010/08/09 15:45
KDKR 091545Z AUTO 22007KT 10SM BKN021 32/32 A3002 RMK AO2

2010/08/09 15:45
KDZB 091545Z AUTO 22004KT 7SM CLR 32/20 A2998 RMK AO2 T03160196

2010/08/09 15:45
KERV 091545Z AUTO 20006KT 10SM CLR 29/19 A3003 RMK AO2 T02850194

2010/08/09 15:46
KFWS 091546Z 20007KT 20SM SKC 33/23 A2997

2010/08/09 15:45
KGNC 091545Z AUTO 18005KT 10SM OVC100 27/19 A3005 RMK AO2 T02700194

2010/08/09 15:45
KGWB 091545Z AUTO 00000KT 10SM CLR 28/18 A3000 RMK AO2

2010/08/09 15:45
KHHF 091545Z AUTO 22005KT 10SM CLR 33/17 A2992 RMK AO2 T03280173

2010/08/09 15:46
KHQZ 091546Z AUTO 21006KT 10SM CLR 32/22 A2996 RMK AO2

2010/08/09 15:45
KINJ 091545Z AUTO 18007KT 10SM CLR 31/23 A2997 RMK AO2 T03140228

2010/08/09 15:45
PADL 091545Z 18012KT 5SM -RA BR SCT005 OVC014 10/09 A2950 RMK SCT V BKN FIRST

2010/08/09 15:47
PAER 091547Z 02010KT 11SM BKN070 09/08 A2953 RMK EPO

2010/08/09 15:45
KJAS 091545Z AUTO 25003KT 10SM CLR 32/24 A3002 RMK AO2 T03210235

2010/08/09 15:45
KJSO 091545Z AUTO 23006KT 10SM CLR 30/23 A3003 RMK AO2 T03000230

2010/08/09 15:45
KMHR 091545Z 18005KT 10SM FEW008 15/12 A2989

2010/08/09 15:47
KPSN 091547Z AUTO 21008KT 31/24 A3001 RMK AO2 PWINO

2010/08/09 16:00
SBFN 091600Z 10007KT 9999 BKN017 29/24 Q1014

2010/08/09 15:45
PABE 091545Z 16013KT 10SM -RA BKN022 BKN030 OVC040 10/09 A2934

2010/08/09 15:45
PAMC 091545Z 10004KT 4SM -RA BR FEW005 BKN010 OVC018 12/11 A2949

2010/08/09 15:47
KCQT 091547Z AUTO 00000KT 5SM HZ OVC009 18/13 A2993 RMK AO2 SLP132 T01830133 TSNO $ 

2010/08/09 15:48
CZCP 091548Z AUTO 07014KT 1SM CLR 06/ A2982

2010/08/09 15:48
CYUS 091548Z AUTO ///// 9SM CLR 16/ A2992

2010/08/09 15:48
CYQQ 091548Z 31005KT 20SM -SHRA SCT040 BKN110 RMK SC3AC4

2010/08/09 15:48
KJDN 091548Z AUTO VRB04KT 27/10 A2990 RMK AO2 SLP105 T02670100 PWINO TSNO 

2010/08/09 15:50
MSLP 091550Z 13002KT 9999 FEW027 BKN300 31/23 Q1012 A2989

2010/08/09 15:50
MSSS 091550Z 34003KT 9999 FEW020 BKN300 26/23 Q1016 A3002

2010/08/09 15:48
PACE 091548Z 00000KT 10SM BKN080 BKN100 10/08 A2959

2010/08/09 15:49
PALP 091549Z 05020G26KT 11/2SM BR OVC003 02/01 A2980

2010/08/09 15:45
PAPT 091545Z 12007KT 10SM FEW006 SCT015 OVC040 09/09 A2959 RMK NOSPECI

2010/08/09 15:45
KJVL 091545Z 24008KT 10SM SCT009 27/22 A2993

2010/08/09 15:50
KLZU 091550Z 11004KT 7SM SCT050 32/22 A3009

2010/08/09 15:47
KCQT 091547Z AUTO 00000KT 5SM HZ OVC009 18/13 A2993 RMK AO2 SLP132 T01830133 TSNO $

2010/08/09 15:48
KJDN 091548Z AUTO VRB04KT 27/10 A2990 RMK AO2 SLP105 T02670100 PWINO TSNO

2010/08/09 15:48
KSUU 091548Z AUTO 24016KT 10SM BKN008 15/12 A2989 RMK AO2 SLP122 RVRNO $

2010/08/09 15:45
K1H2 091545Z AUTO 18004KT 10SM CLR 32/24 A2997 RMK AO2 T03180244

2010/08/09 15:45
K3LF 091545Z AUTO 19006KT 7SM CLR 30/25 A2997 RMK AO2

2010/08/09 15:45
K3T5 091545Z AUTO 21004KT 10SM SCT023 SCT031 31/25 A2997 RMK AO2 T03110249

2010/08/09 15:45
KAJG 091545Z AUTO 22004KT 10SM CLR 30/24 A2999 RMK AO2 T03000244

2010/08/09 15:45
KAQO 091545Z AUTO 18006KT CLR 32/21 A3002 RMK AO2 PWINO

2010/08/09 15:47
KASW 091547Z AUTO 10004KT 7SM CLR 28/21 A3000 RMK AO2 T02800205

2010/08/09 15:45
KAXH 091545Z AUTO 00000KT 10SM SCT025 BKN033 BKN050 31/25 A2998 RMK AO2 T03060250

2010/08/09 15:45
KBKS 091545Z AUTO 17007KT 10SM SCT025 32/24 A2993 RMK AO1 T03230242

2010/08/09 15:46
KBPC 091546Z AUTO 25004KT 10SM CLR 31/17 A2995 RMK AO2

2010/08/09 15:45
KC75 091545Z AUTO 10004KT 10SM CLR 27/24 A2991 RMK AO2 T02660241

2010/08/09 15:45
KCPT 091545Z AUTO 21007KT 10SM CLR 31/23 A2998 RMK AO2

2010/08/09 15:45
KCVB 091545Z AUTO 21005KT 10SM SCT026 29/22 A3000 RMK AO2 T02920216

2010/08/09 15:45
KDKB 091545Z AUTO 18004KT 10SM SCT060 24/21 A2995 RMK AO2 T02430207

2010/08/09 15:45
KDKR 091545Z AUTO 22007KT 10SM BKN021 32/32 A3002 RMK AO2

2010/08/09 15:45
KDZB 091545Z AUTO 22004KT 7SM CLR 32/20 A2998 RMK AO2 T03160196

2010/08/09 15:45
KERV 091545Z AUTO 20006KT 10SM CLR 29/19 A3003 RMK AO2 T02850194

2010/08/09 15:46
KFWS 091546Z 20007KT 20SM SKC 33/23 A2997

2010/08/09 15:45
KGNC 091545Z AUTO 18005KT 10SM OVC100 27/19 A3005 RMK AO2 T02700194

2010/08/09 15:45
KGWB 091545Z AUTO 00000KT 10SM CLR 28/18 A3000 RMK AO2

2010/08/09 15:45
KHHF 091545Z AUTO 22005KT 10SM CLR 33/17 A2992 RMK AO2 T03280173

2010/08/09 15:46
KHQZ 091546Z AUTO 21006KT 10SM CLR 32/22 A2996 RMK AO2

2010/08/09 15:45
KINJ 091545Z AUTO 18007KT 10SM CLR 31/23 A2997 RMK AO2 T03140228

2010/08/09 15:45
PADL 091545Z 18012KT 5SM -RA BR SCT005 OVC014 10/09 A2950 RMK SCT V BKN FIRST

2010/08/09 15:47
PAER 091547Z 02010KT 11SM BKN070 09/08 A2953 RMK EPO

2010/08/09 15:45
KJAS 091545Z AUTO 25003KT 10SM CLR 32/24 A3002 RMK AO2 T03210235

2010/08/09 15:45
KJSO 091545Z AUTO 23006KT 10SM CLR 30/23 A3003 RMK AO2 T03000230

2010/08/09 15:48
PACE 091548Z 00000KT 10SM BKN080 BKN100 10/08 A2959

2010/08/09 15:49
PALP 091549Z 05020G26KT 11/2SM BR OVC003 02/01 A2980

2010/08/09 15:45
PAPT 091545Z 12007KT 10SM FEW006 SCT015 OVC040 09/09 A2959 RMK NOSPECI

2010/08/09 15:45
KJVL 091545Z 24008KT 10SM SCT009 27/22 A2993

2010/08/09 15:50
KLZU 091550Z 11004KT 7SM SCT050 32/22 A3009

2010/08/09 15:45
KCUL 091545Z AUTO 00000KT 10SM CLR 32/23 A2998 RMK AO2 T03160225 PWINO

2010/08/09 15:47
KPSN 091547Z AUTO 21008KT 31/24 A3001 RMK AO2 PWINO

2010/08/09 15:47
KCQT 091547Z AUTO 00000KT 5SM HZ OVC009 18/13 A2993 RMK AO2 SLP132 T01830133 TSNO $

2010/08/09 15:48
KJDN 091548Z AUTO VRB04KT 27/10 A2990 RMK AO2 SLP105 T02670100 PWINO TSNO

2010/08/09 15:45
KMHR 091545Z 18005KT 10SM FEW008 15/12 A2989

2010/08/09 15:48
CYQQ 091548Z 31005KT 20SM -SHRA SCT040 BKN110 RMK SC3AC4

2010/08/09 15:48
KVBG 091548Z 06003KT 6SM -DZ BR SCT004 BKN006 OVC010 13/13 A2996 RMK AO2 DZB25 P0000 $ 

2010/08/09 15:45
MMHO 091545Z 00000KT 10SM SKC 31/23 A2983 RMK HZY

2010/08/09 15:48
PASY 091548Z AUTO 29005KT 1SM BR VV001 09/08 A2983 RMK AO2 TSNO PNO $ 

2010/08/09 15:48
KNGP 091548Z 13007KT 10SM SCT023 BKN028 BKN036 31/24 A2994 RMK AO2 VISNO $ 

2010/08/09 15:48
KIGM 091548Z AUTO 08007KT 10SM CLR 28/M04 A3003 RMK AO2 SLP096 T02781044 TSNO 

2010/08/09 15:50
EETU 091550Z 18008KT 9999 FEW040 SCT051CB BKN150 24/16 Q1014

2010/08/09 15:49
CZCP 091549Z AUTO 08014KT 1SM CLR 06/ A2982

2010/08/09 15:49
KFVE 091549Z AUTO 24003KT 9SM BKN016 OVC022 20/16 A2988 RMK AO2

2010/08/09 15:47
KBVI 091547Z 27005KT 10SM SCT200 28/18 A3008

2010/08/09 15:45
KCWC 091545Z AUTO 22011KT 10SM CLR 33/21 A2993 RMK AO2 T03330206

2010/08/09 15:45
KDNV 091545Z AUTO 25005KT 7SM BKN045 28/22 A2996 RMK AO2 T02770219

2010/08/09 15:47
KDUX 091547Z AUTO 22003KT 10SM SCT110 29/15 A3001 RMK AO2 T02910153

2010/08/09 15:50
KEBG 091550Z AUTO 19009KT 10SM SCT022 BKN027 BKN032 32/25 A2993 RMK AO2 T03200248

2010/08/09 15:45
KECU 091545Z AUTO 15010KT 10SM OVC015 27/22 A3010 RMK AO2

2010/08/09 15:45
KENL 091545Z AUTO 21005KT 10SM CLR 32/24 A2997 RMK AO2 T03160244

2010/08/09 15:47
KFEP 091547Z AUTO 23006KT 10SM CLR 26/23 A2997 RMK AO2 T02640225

2010/08/09 15:45
KFWC 091545Z AUTO 00000KT 10SM CLR 31/25 A2997 RMK AO2

2010/08/09 15:45
KGBG 091545Z AUTO 00000KT 10SM CLR 26/22 A2992 RMK AO2

2010/08/09 15:45
KGOP 091545Z AUTO 21008KT 10SM CLR 31/23 A3000 RMK AO2

2010/08/09 15:45
KGTU 091545Z 19010G15KT 10SM CLR 32/19 A3002

2010/08/09 15:45
KGVT 091545Z AUTO 21007KT 10SM CLR 33/20 A2997 RMK AO2

2010/08/09 15:47
KGYH 091547Z 24003KT 10SM SCT065 32/22 A3009

2010/08/09 15:45
KHSB 091545Z AUTO 30004KT 10SM CLR 32/21 A2998 RMK AO2

2010/08/09 15:45
KIGQ 091545Z AUTO 19003KT 5SM -RA SCT033 26/21 A2996 RMK AO2

2010/08/09 15:45
KIJX 091545Z AUTO 02003KT 7SM CLR 29/24 A2996 RMK AO2 T02900237

2010/08/09 15:45
KIKK 091545Z AUTO 24005KT 5SM HZ SCT046 29/23 A2995 RMK AO2

2010/08/09 15:45
KJDD 091545Z AUTO RMK AO2 PWINO TSNO

2010/08/09 15:46
KJOT 091546Z AUTO 00000KT 7SM CLR 26/22 A2994 RMK AO2

2010/08/09 15:45
KJXI 091545Z AUTO 19007KT 10SM CLR 31/24 A3000 RMK AO2

2010/08/09 15:45
KLNC 091545Z AUTO 19006KT 10SM CLR 32/24 A2996 RMK AO2 T03150237

2010/08/09 15:45
KLOT 091545Z AUTO 19003KT 7SM CLR 25/23 A2995 RMK AO2 T02540226

2010/08/09 15:45
KLUD 091545Z AUTO 19009KT 10SM CLR 32/21 A2996 RMK AO2 T03160211

2010/08/09 15:47
KM30 091547Z AUTO 00000KT 10SM SCT045 32/23 A2998 RMK AO2

2010/08/09 15:45
KMDD 091545Z AUTO 19008KT 10SM CLR 31/20 A3002 RMK AO2 T03050198

2010/08/09 15:45
KMMU 091545Z 24010G16KT 6SM HZ SCT050 32/19 A3001

2010/08/09 15:45
KOXI 091545Z AUTO 21003KT 7SM SCT110 27/20 A2997 RMK AO1 T02700202

2010/08/09 15:45
KPEQ 091545Z AUTO 25003KT 10SM CLR 28/19 A2999 RMK AO2 T02770187

2010/08/09 15:45
KPEZ 091545Z AUTO 15008KT 10SM BKN030 32/21 A2999 RMK AO2 T03170209

2010/08/09 15:48
KPKV 091548Z AUTO 19004KT 10SM CLR 31/22 A2997 RMK AO2 T03080224

2010/08/09 15:45
KPNT 091545Z AUTO 21004KT 7SM CLR 29/22 A2994 RMK AO2

2010/08/09 15:45
KPRG 091545Z AUTO 22006KT 10SM CLR 31/23 A2999 RMK AO2 T03120231

2010/08/09 15:45
KRPJ 091545Z AUTO 22004KT 10SM SCT060 BKN070 24/22 A2996 RMK AO2 T02420217

2010/08/09 15:45
KRSV 091545Z AUTO 00000KT 10SM CLR 31/24 A3000 RMK AO2 T03130237

2010/08/09 15:48
KASG 091548Z 22008KT 10SM SCT250 32/23 A3002

2010/08/09 15:55
KGGE 091555Z AUTO 05010KT 10SM SCT022 SCT032 30/25 A3003 RMK AO2 LTG DSNT E

2010/08/09 15:47
KSEE 091547Z 00000KT 6SM BR OVC008 16/12 A2994

2010/08/09 15:50
PALV 091550Z 27005KT 10SM -RA OVC008 11/11 A2961 RMK EST PASS CLSD NOSPECI

2010/08/09 15:50
PASP 091550Z 00000KT 20SM FEW025 06/06 A2967 RMK EST PASS OPEN NO SPECI

2010/08/09 15:50
EYKA 091550Z 13004KT 090V180 CAVOK 22/17 Q1016

2010/08/09 15:50
EYPA 091550Z 24005KT 190V310 9999 FEW026 21/15 Q1014

2010/08/09 16:00
SBSV 091600Z 11008KT 9999 FEW017 26/18 Q1018

2010/08/09 15:50
EETN 091550Z 19010KT 130V220 9999 FEW040 BKN075 22/16 Q1012 NOSIG

2010/08/09 15:50
YAMB 091550Z AUTO 16005KT 5000NDV // SCT077 13/13 Q1021

2010/08/09 15:50
ETNG 091550Z 25005KT 9999 FEW040 SCT260 22/12 Q1016 NOSIG

2010/08/09 15:45
PADL 091545Z 18012KT 5SM -RA BR SCT005 OVC014 10/09 A2950

2010/08/09 15:45
K1H2 091545Z AUTO 18004KT 10SM CLR 32/24 A2997

2010/08/09 15:45
KC75 091545Z AUTO 10004KT 10SM CLR 27/24 A2991

2010/08/09 15:45
KDKB 091545Z AUTO 18004KT 10SM SCT060 24/21 A2995

2010/08/09 15:50
EETN 091550Z 19010KT 130V220 9999 FEW040 BKN075 22/16 Q1012 NOSIG

2010/08/09 15:50
EYPA 091550Z 24005KT 190V310 9999 FEW026 21/15 Q1014

2010/08/09 15:45
LMML 091545Z 32006KT 260V360 CAVOK 29/15 Q1015 NOSIG 

2010/08/09 15:50
EYKA 091550Z 13004KT 090V180 CAVOK 22/17 Q1016

2010/08/09 15:50
YAMB 091550Z AUTO 16005KT 5000NDV // SCT077 13/13 Q1021

2010/08/09 15:48
KIGM 091548Z AUTO 08007KT 10SM CLR 28/M04 A3003

2010/08/09 15:48
KJDN 091548Z AUTO VRB04KT 27/10 A2990

2010/08/09 15:48
KNGP 091548Z 13007KT 10SM SCT023 BKN028 BKN036 31/24 A2994

2010/08/09 15:45
LMML 091545Z 32006KT 260V360 CAVOK 29/15 Q1015 NOSIG

2010/08/09 16:00
LPLA 091600Z 05009KT 030V090 9999 FEW027 BKN045 25/18 Q1023

2010/08/09 16:00
LPLA 091600Z 05009KT 030V090 9999 FEW027 BKN045 25/18 Q1023

2010/08/09 15:50
MSLP 091550Z 13002KT 9999 FEW027 BKN300 31/23 Q1012 A2989

2010/08/09 15:50
MSSS 091550Z 34003KT 9999 FEW020 BKN300 26/23 Q1016 A3002

2010/08/09 15:50
OAMS 091550Z 23010KT 9999 BKN160 36/02 Q1003 BLU BLU

2010/08/09 15:50
MSSS 091550Z 34003KT 9999 FEW020 BKN300 26/23 Q1016 A3002

2010/08/09 15:50
KQEN 091550Z AUTO 27005KT 3SM BR FEW001 19/17 A3046 RMK A02

2010/08/09 15:50
KQES 091550Z AUTO 36005KT 7SM FEW085 26/20 A2985 RMK A02

2010/08/09 15:50
KQEY 091550Z AUTO 16002KT 7SM CLR 25/23 A2961 RMK A02

2010/08/09 16:00
KQEV 091600Z AUTO 36001KT 7SM SCT049 BKN055 BKN085 26/22 A2980 RMK A02

2010/08/09 15:45
PADL 091545Z 18012KT 5SM -RA BR SCT005 OVC014 10/09 A2950

2010/08/09 15:51
KSAN 091551Z 35003KT 10SM OVC015 18/13 A2994 RMK AO2 SLP139 T01780133 

2010/08/09 15:48
KATW 091548Z 00000KT 10SM SCT020 SCT100 26/21 A2990

2010/08/09 15:50
KBOW 091550Z 10005KT 9SM BKN023 29/24 A2996

2010/08/09 15:50
KBYH 091550Z 00000KT 8SM BKN250 33/26 A2998

2010/08/09 15:47
KCHD 091547Z 00000KT 40SM SCT180 31/11 A2989

2010/08/09 15:47
KGEU 091547Z 35005KT 20SM SCT120 32/13 A2989

2010/08/09 15:46
KGLE 091546Z AUTO 19010G15KT 10SM CLR 34/23 A2996 RMK AO2

2010/08/09 15:55
KMNZ 091555Z AUTO 22006KT 10SM CLR 32/22 A2999 RMK AO2

2010/08/09 15:55
KPYX 091555Z AUTO 19007KT 10SM CLR 32/16 A2996 RMK AO2

2010/08/09 15:45
KRAS 091545Z AUTO 15004KT 10SM CLR 31/26 A2998 RMK AO2

2010/08/09 15:45
KRPH 091545Z AUTO 20007KT 10SM SCT070 32/22 A2994 RMK AO2 T03220218

2010/08/09 15:45
KRYW 091545Z AUTO 17006KT 7SM CLR 30/20 A3002 RMK AO2

2010/08/09 15:47
KRYY 091547Z 13004KT 7SM FEW040 SCT150 31/23 A3008

2010/08/09 15:45
KSAR 091545Z AUTO 14004KT 7SM CLR 32/27 A2996 RMK AO2

2010/08/09 15:45
KSLO 091545Z AUTO 00000KT 10SM CLR 32/24 A2997 RMK AO2 T03170235

2010/08/09 15:46
KSNK 091546Z AUTO 19010KT 10SM CLR 31/21 A3002 RMK AO2 T03060212

2010/08/09 15:45
KSWW 091545Z AUTO 19011KT 10SM SCT070 31/21 A3003 RMK AO1 T03130206

2010/08/09 15:45
KT65 091545Z AUTO 16008KT 5SM HZ SCT024 SCT029 32/25 A2992 RMK AO2 T03160249

2010/08/09 15:45
KT82 091545Z AUTO 19009KT 10SM CLR 29/19 A3004 RMK AO1 T02870188

2010/08/09 15:45
KTAZ 091545Z AUTO 21003KT 10SM CLR 32/25 A2994 RMK AO2

2010/08/09 15:45
KUVA 091545Z AUTO 15008KT 10SM CLR 31/23 A2998 RMK AO2 T03110229

2010/08/09 15:46
KXBP 091546Z AUTO 21007KT 10SM CLR 32/22 A2996 RMK AO2 T03210221

2010/08/09 15:50
KADS 091550Z 19007G12KT 13SM SKC 32/23 A2996

2010/08/09 15:50
KALN 091550Z 00000KT 07SM FEW060 SCT200 31/25 A2996

2010/08/09 15:45
KARM 091545Z AUTO 00000KT 10SM SCT031 34/25 A2998 RMK AO2 T03420245

2010/08/09 15:45
KBYY 091545Z AUTO 17004KT 10SM BKN028 BKN033 33/26 A2997 RMK AO2 T03310262

2010/08/09 15:45
KTIP 091545Z AUTO 20006KT 7SM CLR 29/25 A2997 RMK AO2 T02860245

2010/08/09 15:45
KTYQ 091545Z AUTO 21006KT 10SM CLR 30/22 A3000 RMK AO2

2010/08/09 15:48
KVBG 091548Z 06003KT 6SM -DZ BR SCT004 BKN006 OVC010 13/13 A2996 RMK AO2 DZB25 P0000 $

2010/08/09 15:48
KNGP 091548Z 13007KT 10SM SCT023 BKN028 BKN036 31/24 A2994 RMK AO2 VISNO $

2010/08/09 15:50
KBYH 091550Z 00000KT 8SM BKN250 33/26 A2998

2010/08/09 15:48
KEHA 091548Z AUTO 30003KT 28/18 RMK AO1 PK WND 08 000 T02780178

2010/08/09 15:49
PAMO 091549Z AUTO 13016KT 1/2SM RA FG OVC001 09/09 A2929 RMK AO2 TSNO P0001 $

2010/08/09 15:49
PAPM 091549Z AUTO 18022G30KT 2 1/2SM BR SCT009 BKN014 OVC075 09/09 A2936 RMK AO2 TSNO OVC V BKN RAE06 P0001 PK WND 17030/1542 $

2010/08/09 15:50
KOLM 091550Z 22006KT 10SM SCT009 BKN025 OVC030 14/12 A2998 RMK AO2

2010/08/09 15:50
KPHL 091550Z 22006KT 7SM FEW038 SCT250 31/21 A3002 RMK AO2

2010/08/09 15:50
KPLN 091550Z AUTO 13005KT 7SM -RA BKN019 21/21 A2990 RMK AO2 RAB10 P0031

2010/08/09 15:50
CBBC 091550Z AUTO 00000KT 9SM FEW005 SCT008 OVC050 OVC065 A3001

2010/08/09 15:48
KIGM 091548Z AUTO 08007KT 10SM CLR 28/M04 A3003 RMK AO2 SLP096 T02781044 TSNO

2010/08/09 15:45
MMDO 091545Z 00000KT 14SM BKN080 OVC200 21/17 A3022 RMK 8/057 HZY

2010/08/09 15:45
MMMZ 091545Z 06004KT 15SM FEW025 BKN080 OVC220 26/22 A2985 RMK 8/463 DSNT CB NW

2010/08/09 15:50
MMSD 091550Z 01003KT 12SM SKC 34/17 A2985 RMK CI

2010/08/09 15:48
MMSL 091548Z 00000KT 12SM FEW200 32/21 A2986 RMK 8/005

2010/08/09 15:45
MMTJ 091545Z 12005KT 5SM BKN016 16/13 A2995 RMK 8/500 HZY

2010/08/09 15:48
KVBG 091548Z 06003KT 6SM -DZ BR SCT004 BKN006 OVC010 13/13 A2996 RMK AO2 DZB25 P0000 $

2010/08/09 15:48
KNGP 091548Z 13007KT 10SM SCT023 BKN028 BKN036 31/24 A2994 RMK AO2 VISNO $

2010/08/09 15:50
EYSA 091550Z 22006KT 9999 FEW037 22/15 Q1016

2010/08/09 15:47
KBVI 091547Z 27005KT 10SM SCT200 28/18 A3008

2010/08/09 15:45
KCWC 091545Z AUTO 22011KT 10SM CLR 33/21 A2993 RMK AO2 T03330206

2010/08/09 15:45
KDNV 091545Z AUTO 25005KT 7SM BKN045 28/22 A2996 RMK AO2 T02770219

2010/08/09 15:47
KDUX 091547Z AUTO 22003KT 10SM SCT110 29/15 A3001 RMK AO2 T02910153

2010/08/09 15:50
KEBG 091550Z AUTO 19009KT 10SM SCT022 BKN027 BKN032 32/25 A2993 RMK AO2 T03200248

2010/08/09 15:45
KECU 091545Z AUTO 15010KT 10SM OVC015 27/22 A3010 RMK AO2

2010/08/09 15:45
KENL 091545Z AUTO 21005KT 10SM CLR 32/24 A2997 RMK AO2 T03160244

2010/08/09 15:47
KFEP 091547Z AUTO 23006KT 10SM CLR 26/23 A2997 RMK AO2 T02640225

2010/08/09 15:45
KFWC 091545Z AUTO 00000KT 10SM CLR 31/25 A2997 RMK AO2

2010/08/09 15:45
KGBG 091545Z AUTO 00000KT 10SM CLR 26/22 A2992 RMK AO2

2010/08/09 15:45
KGOP 091545Z AUTO 21008KT 10SM CLR 31/23 A3000 RMK AO2

2010/08/09 15:45
KGTU 091545Z 19010G15KT 10SM CLR 32/19 A3002

2010/08/09 15:45
KGVT 091545Z AUTO 21007KT 10SM CLR 33/20 A2997 RMK AO2

2010/08/09 15:47
KGYH 091547Z 24003KT 10SM SCT065 32/22 A3009

2010/08/09 15:45
KHSB 091545Z AUTO 30004KT 10SM CLR 32/21 A2998 RMK AO2

2010/08/09 15:45
KIGQ 091545Z AUTO 19003KT 5SM -RA SCT033 26/21 A2996 RMK AO2

2010/08/09 15:45
KIJX 091545Z AUTO 02003KT 7SM CLR 29/24 A2996 RMK AO2 T02900237

2010/08/09 15:45
KIKK 091545Z AUTO 24005KT 5SM HZ SCT046 29/23 A2995 RMK AO2

2010/08/09 15:45
KJDD 091545Z AUTO RMK AO2 PWINO TSNO

2010/08/09 15:46
KJOT 091546Z AUTO 00000KT 7SM CLR 26/22 A2994 RMK AO2

2010/08/09 15:45
KJXI 091545Z AUTO 19007KT 10SM CLR 31/24 A3000 RMK AO2

2010/08/09 15:45
KLNC 091545Z AUTO 19006KT 10SM CLR 32/24 A2996 RMK AO2 T03150237

2010/08/09 15:45
KLOT 091545Z AUTO 19003KT 7SM CLR 25/23 A2995 RMK AO2 T02540226

2010/08/09 15:45
KLUD 091545Z AUTO 19009KT 10SM CLR 32/21 A2996 RMK AO2 T03160211

2010/08/09 15:47
KM30 091547Z AUTO 00000KT 10SM SCT045 32/23 A2998 RMK AO2

2010/08/09 15:45
KMDD 091545Z AUTO 19008KT 10SM CLR 31/20 A3002 RMK AO2 T03050198

2010/08/09 15:45
KMMU 091545Z 24010G16KT 6SM HZ SCT050 32/19 A3001

2010/08/09 15:45
KOXI 091545Z AUTO 21003KT 7SM SCT110 27/20 A2997 RMK AO1 T02700202

2010/08/09 15:45
KPEQ 091545Z AUTO 25003KT 10SM CLR 28/19 A2999 RMK AO2 T02770187

2010/08/09 15:45
KPEZ 091545Z AUTO 15008KT 10SM BKN030 32/21 A2999 RMK AO2 T03170209

2010/08/09 15:48
KPKV 091548Z AUTO 19004KT 10SM CLR 31/22 A2997 RMK AO2 T03080224

2010/08/09 15:45
KPNT 091545Z AUTO 21004KT 7SM CLR 29/22 A2994 RMK AO2

2010/08/09 15:45
KPRG 091545Z AUTO 22006KT 10SM CLR 31/23 A2999 RMK AO2 T03120231

2010/08/09 15:45
KRPJ 091545Z AUTO 22004KT 10SM SCT060 BKN070 24/22 A2996 RMK AO2 T02420217

2010/08/09 15:45
KRSV 091545Z AUTO 00000KT 10SM CLR 31/24 A3000 RMK AO2 T03130237

2010/08/09 15:48
KASG 091548Z 22008KT 10SM SCT250 32/23 A3002

2010/08/09 15:55
KGGE 091555Z AUTO 05010KT 10SM SCT022 SCT032 30/25 A3003 RMK AO2 LTG DSNT E

2010/08/09 15:47
KSEE 091547Z 00000KT 6SM BR OVC008 16/12 A2994

2010/08/09 15:50
PALV 091550Z 27005KT 10SM -RA OVC008 11/11 A2961 RMK EST PASS CLSD NOSPECI

2010/08/09 15:50
PASP 091550Z 00000KT 20SM FEW025 06/06 A2967 RMK EST PASS OPEN NO SPECI

2010/08/09 15:48
KATW 091548Z 00000KT 10SM SCT020 SCT100 26/21 A2990

2010/08/09 15:50
KBOW 091550Z 10005KT 9SM BKN023 29/24 A2996

2010/08/09 15:47
KCHD 091547Z 00000KT 40SM SCT180 31/11 A2989

2010/08/09 15:47
KGEU 091547Z 35005KT 20SM SCT120 32/13 A2989

2010/08/09 15:46
KGLE 091546Z AUTO 19010G15KT 10SM CLR 34/23 A2996 RMK AO2

2010/08/09 15:55
KMNZ 091555Z AUTO 22006KT 10SM CLR 32/22 A2999 RMK AO2

2010/08/09 15:55
KPYX 091555Z AUTO 19007KT 10SM CLR 32/16 A2996 RMK AO2

2010/08/09 15:45
KRAS 091545Z AUTO 15004KT 10SM CLR 31/26 A2998 RMK AO2

2010/08/09 15:45
KRPH 091545Z AUTO 20007KT 10SM SCT070 32/22 A2994 RMK AO2 T03220218

2010/08/09 15:45
KRYW 091545Z AUTO 17006KT 7SM CLR 30/20 A3002 RMK AO2

2010/08/09 15:47
KRYY 091547Z 13004KT 7SM FEW040 SCT150 31/23 A3008

2010/08/09 15:45
KSAR 091545Z AUTO 14004KT 7SM CLR 32/27 A2996 RMK AO2

2010/08/09 15:45
KSLO 091545Z AUTO 00000KT 10SM CLR 32/24 A2997 RMK AO2 T03170235

2010/08/09 15:46
KSNK 091546Z AUTO 19010KT 10SM CLR 31/21 A3002 RMK AO2 T03060212

2010/08/09 15:45
KSWW 091545Z AUTO 19011KT 10SM SCT070 31/21 A3003 RMK AO1 T03130206

2010/08/09 15:45
KT65 091545Z AUTO 16008KT 5SM HZ SCT024 SCT029 32/25 A2992 RMK AO2 T03160249

2010/08/09 15:48
KIGM 091548Z AUTO 08007KT 10SM CLR 28/M04 A3003 RMK AO2 SLP096 T02781044 TSNO

2010/08/09 15:45
KT82 091545Z AUTO 19009KT 10SM CLR 29/19 A3004 RMK AO1 T02870188

2010/08/09 15:45
KTAZ 091545Z AUTO 21003KT 10SM CLR 32/25 A2994 RMK AO2

2010/08/09 15:45
KUVA 091545Z AUTO 15008KT 10SM CLR 31/23 A2998 RMK AO2 T03110229

2010/08/09 15:46
KXBP 091546Z AUTO 21007KT 10SM CLR 32/22 A2996 RMK AO2 T03210221

2010/08/09 15:50
KADS 091550Z 19007G12KT 13SM SKC 32/23 A2996

2010/08/09 15:50
KALN 091550Z 00000KT 07SM FEW060 SCT200 31/25 A2996

2010/08/09 15:45
KARM 091545Z AUTO 00000KT 10SM SCT031 34/25 A2998 RMK AO2 T03420245

2010/08/09 15:45
KBYY 091545Z AUTO 17004KT 10SM BKN028 BKN033 33/26 A2997 RMK AO2 T03310262

2010/08/09 15:45
KTIP 091545Z AUTO 20006KT 7SM CLR 29/25 A2997 RMK AO2 T02860245

2010/08/09 15:45
KTYQ 091545Z AUTO 21006KT 10SM CLR 30/22 A3000 RMK AO2

2010/08/09 15:49
KFVE 091549Z AUTO 24003KT 9SM BKN016 OVC022 20/16 A2988 RMK AO2

2010/08/09 15:49
PAMO 091549Z AUTO 13016KT 1/2SM RA FG OVC001 09/09 A2929 RMK AO2 TSNO P0001 $

2010/08/09 15:49
PAPM 091549Z AUTO 18022G30KT 2 1/2SM BR SCT009 BKN014 OVC075 09/09 A2936 RMK AO2 TSNO OVC V BKN RAE06 P0001 PK WND 17030/1542 $

2010/08/09 15:50
KOLM 091550Z 22006KT 10SM SCT009 BKN025 OVC030 14/12 A2998 RMK AO2

2010/08/09 15:50
KPHL 091550Z 22006KT 7SM FEW038 SCT250 31/21 A3002 RMK AO2

2010/08/09 15:50
KPLN 091550Z AUTO 13005KT 7SM -RA BKN019 21/21 A2990 RMK AO2 RAB10 P0031

2010/08/09 15:50
EYVI 091550Z VRB02KT 9999 SCT040CB OVC110 19/16 Q1017 NOSIG

2010/08/09 15:51
EKVG 091551Z 12012KT 9999 FEW012 BKN020 13/10 Q1009 RMK/RWY 13-31 CLOSED DUE WIP NOTAM E0050/10 WIND 850FT 13020KT

2010/08/09 15:45
LMML 091545Z 32006KT 260V360 CAVOK 29/15 Q1015 NOSIG

2010/08/09 15:49
KFVE 091549Z AUTO 24003KT 9SM BKN016 OVC022 20/16 A2988

2010/08/09 15:47
KGYH 091547Z 24003KT 10SM SCT065 32/22 A3009

2010/08/09 16:00
BKPR 091600Z 02009KT 9999 FEW050 26/14 Q1016 NOSIG RMK BLU

2010/08/09 15:50
EYVI 091550Z VRB02KT 9999 SCT040CB OVC110 19/16 Q1017 NOSIG

2010/08/09 15:50
LLBG 091550Z 32008KT 9999 SCT026 29/23 Q1006 NOSIG

2010/08/09 15:50
LLOV 091550Z 35010KT CAVOK 35/14 Q1006

2010/08/09 15:50
LLET 091550Z 01016G26KT CAVOK 40/14 Q1001

2010/08/09 15:50
LLHA 091550Z 31008KT 9999 SCT026 29/22 Q1006

2010/08/09 15:50
LLIB 091550Z 32012KT CAVOK 31/19 Q1006

2010/08/09 15:50
LLSD 091550Z 32010KT 9999 SCT026 28/23 Q1006

2010/08/09 16:00
OSDI 091600Z 22015KT CAVOK 38/04 Q1005

2010/08/09 16:00
OSAP 091600Z 27015KT CAVOK 33/15 Q1004

2010/08/09 16:00
OSLK 091600Z 23006KT 9999 SCT030 29/22 Q1005

2010/08/09 15:50
EYSA 091550Z 22006KT 9999 FEW037 22/15 Q1016

2010/08/09 15:51
EKVG 091551Z 12012KT 9999 FEW012 BKN020 13/10 Q1009 RMK/RWY 13-31 CLOSED DUE WIP NOTAM E0050/10 WIND 850FT 13020KT

2010/08/09 15:51
CYKJ 091551Z AUTO 10007KT 5SM -RA OVC005 16/15 A2975 RMK SLP086 DENSITY ALT 2300FT

2010/08/09 15:49
KFVE 091549Z AUTO 24003KT 9SM BKN016 OVC022 20/16 A2988

2010/08/09 15:51
CYOY 091551Z AUTO 22007KT 180V260 9SM SCT010 BKN033 BKN038 BKN088 22/17 A2988

2010/08/09 15:55
MSSA 091555Z 00000KT CAVOK 27/20 Q1016

2010/08/09 15:55
MSSS 091555Z 34003KT 9999 FEW020 BKN300 26/23 Q1016

2010/08/09 15:55
MSSM 091555Z 36002KT CAVOK 28/25 Q1011

2010/08/09 15:55
MSLU 091555Z 00000KT CAVOK 30/24 Q1011

2010/08/09 15:55
MSLP 091555Z 13002KT 9999 FEW027 BKN300 31/23 Q1012

2010/08/09 15:51
KSMX 091551Z 00000KT 8SM OVC006 12/11 A2996 RMK AO2 SLP148 T01220106 

2010/08/09 15:51
KP59 091551Z AUTO 36013KT 23/21 A2985 RMK AO2 SLP101 T02330211 PWINO TSNO 

2010/08/09 15:51
KBVE 091551Z AUTO 00000KT 7SM -RA FEW090 28/26 A2999 RMK AO2 RAB1453 PRESRR SLP156 P0000 T02830256 TSNO 

2010/08/09 15:51
KSNT 091551Z AUTO 29004KT 10/08 A3013 RMK AO2 SLP122 P0001 T01000083 PWINO TSNO 

2010/08/09 15:51
KCON 091551Z AUTO 29007G15KT 230V320 10SM CLR 31/16 A2994 RMK AO2 SLP138 T03110161 

2010/08/09 15:51
KORF 091551Z 09004KT 10SM FEW025 29/21 A3005 RMK AO2 SLP174 T02940206 

2010/08/09 15:45
MMEP 091545Z 00000KT 12SM BKN120 OVC250 24/17 A3010 RMK 8/077

2010/08/09 15:48
MMGL 091548Z 04003KT 6SM BKN020TCU BKN300 22/18 A3018 RMK 8/208 SC-AC

2010/08/09 15:50
MMIA 091550Z 00000KT 8SM SCT220 25/20 A2997 RMK 8/004

2010/08/09 15:46
MMSP 091546Z 00000KT 12SM SCT020 24/15 A3027 RMK 8/100 AC

2010/08/09 15:51
KBAZ 091551Z AUTO 21006KT 7SM FEW030 31/21 A2998 RMK AO2 SLP143 T03110211

2010/08/09 15:51
KEKN 091551Z AUTO 00000KT 7SM CLR 26/19 A3012 RMK AO2 SLP188 T02610194 TSNO

2010/08/09 15:47
KGYR 091547Z VRB03KT 20SM FEW100 SCT150 35/12 A2988

2010/08/09 15:51
KHDO 091551Z AUTO 22004KT 10SM FEW028 30/22 A3001 RMK AO2 SLP144 T03000217

2010/08/09 15:51
KRDU 091551Z 11005KT 9SM FEW040 32/21 A3006 RMK AO2 SLP173 T03170211

2010/08/09 15:47
KTOA 091547Z VRB04KT 4SM BR OVC012 18/14 A2994

2010/08/09 15:51
KTZR 091551Z 17006KT 7SM SKC 27/20 A3003

2010/08/09 15:48
KVCV 091548Z 14005KT 10SM SKC 23/M06 A2997

2010/08/09 15:51
PAAP 091551Z 00000KT 1SM BR BKN000 OVC002 12/11 A2999 RMK NO SPECI

2010/08/09 15:48
PATW 091548Z 18007KT 10SM BCFG SCT000 OVC025 07/06 A2969 RMK BCGF ALQDS EPO NOSPECI

2010/08/09 15:48
PAJZ 091548Z AUTO 18010KT 1SM BR BKN003 OVC009 11/10 A2954 RMK AO2 PWINO TSNO CIG 001V005 P0001 $

2010/08/09 15:47
CYFS 091547Z 33010KT 12SM OVC008 RMK SF8 BR BLN DSAPRD 900 FT CIG RAG

2010/08/09 15:47
CYOY 091547Z AUTO 21007KT 180V260 9SM BKN010 BKN033 OVC038 OVC088 22/17 A2988

2010/08/09 15:48
CYQQ 091548Z 31005KT 20SM -SHRA SCT040 BKN110 RMK SC3AC4

2010/08/09 15:48
CYUS 091548Z AUTO ///// 9SM CLR 16/ A2992

2010/08/09 15:49
KFCS 091549Z AUTO 00000KT 1/2SM HZ OVC170 21/14 A3017 RMK AO2 SLP142

2010/08/09 15:50
KFCS 091550Z AUTO 00000KT 1 1/4SM HZ OVC170 21/14 A3017 RMK AO2 SLP142

2010/08/09 15:51
KFCS 091551Z AUTO 00000KT 3SM HZ OVC170 21/14 A3017 RMK AO2 SLP142

2010/08/09 15:48
KNGP 091548Z 13007KT 10SM SCT023 BKN028 BKN036 31/24 A2994 RMK AO2 VISNO $

2010/08/09 15:46
KNUW 091546Z 22010KT 6SM BR BKN006 OVC020 14/11 A2996 RMK AO2 $

2010/08/09 15:48
KVBG 091548Z COR 06003KT 6SM -DZ BR SCT004 BKN006 OVC010 13/13 A2996 RMK AO2 DZB25 P0000

2010/08/09 15:48
KVBG 091548Z 06003KT 6SM -DZ BR SCT004 BKN006 OVC010 13/13 A2996 RMK AO2 DZB25 P0000 $

2010/08/09 15:48
LIYW 091548Z AUTO 26005KT 9999 -DZ CLR 29/17 A2996 RMK AO2 DZE1528B1548 SLP143

2010/08/09 15:48
PASY 091548Z AUTO 29005KT 1SM BR VV001 09/08 A2983 RMK AO2 TSNO PNO $

2010/08/09 15:48
RODN 091548Z 18015G23KT 9999 SCT019 BKN028 BKN037 28/25 A2973 RMK AO2A PK WND 17030/1500 RAB1513E1527 BKN028 V SCT CIG 019 RWY23 SLP067

2010/08/09 15:50
LSZH 091550Z 35005KT 300V030 9999 FEW048 25/13 Q1016 NOSIG

2010/08/09 15:50
LSGG 091550Z 24007KT 200V290 9999 FEW060 29/12 Q1015 NOSIG

2010/08/09 15:50
LSZB 091550Z 31004KT 9999 FEW055 27/13 Q1016 NOSIG

2010/08/09 16:00
SBAR 091600Z 15012KT 9999 SCT018 27/21 Q1018

2010/08/09 16:00
SPIM 091600Z 21004KT 6000 OVC013 16/12 Q1018 NOSIG RMK PP000

2010/08/09 15:50
LSMS 091550Z 25015KT 9999 FEW100 27/11 Q1014

2010/08/09 16:00
MPTO 091600Z 00000KT 9999 FEW009 SCT016 BKN080 28/24 Q1013 NOSIG RWY DAMP REDZ

2010/08/09 15:51
KGDP 091551Z AUTO 24015KT 10SM CLR 23/16 A3018 RMK AO2 SLP142 T02330156 TSNO 

2010/08/09 16:00
SBPS 091600Z 12012KT 9999 SCT020 24/18 Q1018

2010/08/09 15:51
KCAK 091551Z VRB05KT 10SM SCT250 28/18 A3004 RMK AO2 SLP163 T02780178 

2010/08/09 15:51
KDAG 091551Z AUTO 26005KT 10SM CLR 26/M02 A2992 RMK AO2 SLP107 T02561017 TSNO 

2010/08/09 16:00
SBSL 091600Z 12004KT 9999 BKN020 31/23 Q1013

2010/08/09 15:50
KPHL 091550Z 22006KT 7SM FEW038 SCT250 31/21 A3002

2010/08/09 15:51
KCRP 091551Z 14007KT 070V300 10SM SCT036 SCT043 33/24 A2995 RMK AO2 SLP140 T03330239 

2010/08/09 15:51
KJCT 091551Z AUTO 17009KT 130V220 10SM CLR 31/19 A3001 RMK AO2 SLP120 T03060194 TSNO 

2010/08/09 15:51
KABE 091551Z VRB04KT 9SM CLR 29/21 A3002 RMK AO2 SLP163 T02940206 

2010/08/09 15:51
KNYC 091551Z AUTO VRB05KT 10SM CLR 31/19 A3003 RMK AO2 SLP160 T03110194 TSNO 

2010/08/09 15:45
LMML 091545Z 32006KT 260V360 CAVOK 29/15 Q1015 NOSIG 

2010/08/09 15:50
LSMS 091550Z 25015KT 9999 FEW100 27/11 Q1014

2010/08/09 15:50
LSZH 091550Z 35005KT 300V030 9999 FEW048 25/13 Q1016 NOSIG

2010/08/09 15:50
LSGG 091550Z 24007KT 200V290 9999 FEW060 29/12 Q1015 NOSIG

2010/08/09 15:50
LSZB 091550Z 31004KT 9999 FEW055 27/13 Q1016 NOSIG

2010/08/09 15:50
KOLM 091550Z 22006KT 10SM SCT009 BKN025 OVC030 14/12 A2998

2010/08/09 15:50
KOLM 091550Z 22006KT 10SM SCT009 BKN025 OVC030 14/12 A2998

2010/08/09 15:50
KPHL 091550Z 22006KT 7SM FEW038 SCT250 31/21 A3002

2010/08/09 15:50
EGYP 091550Z 28030G41KT 9999 FEW025 SCT090 BKN250 07/M00 Q0994 BLU NOSIG

2010/08/09 15:50
OAKB 091550Z 13007KT 9999 SCT080 BKN110 25/17 Q1012 NOSIG RMK BLU BLU 

2010/08/09 15:50
EDDF 091550Z 20005KT 9999 FEW040 BKN070 23/12 Q1016 NOSIG

2010/08/09 15:50
EDDH 091550Z 32006KT 9999 FEW011 BKN030 BKN130 17/15 Q1016 NOSIG

2010/08/09 15:50
EDDK 091550Z 20006KT 9999 SCT040 SCT280 22/12 Q1016 NOSIG

2010/08/09 15:50
EDDL 091550Z 29001KT 9999 FEW040 BKN280 22/13 Q1016 NOSIG

2010/08/09 15:50
EDDM 091550Z 02004KT CAVOK 23/12 Q1017 NOSIG

2010/08/09 15:50
EDDN 091550Z 29002KT 9999 FEW035 BKN080 22/13 Q1017 NOSIG

2010/08/09 15:50
EDDS 091550Z 36005KT CAVOK 23/11 Q1017 NOSIG

2010/08/09 15:50
EDDT 091550Z 30005KT 9999 -SHRA SCT035CB 23/16 Q1015 NOSIG

2010/08/09 15:50
EDDV 091550Z 28007KT 9999 FEW036 SCT060 BKN130 21/12 Q1016 NOSIG

2010/08/09 15:50
KPLN 091550Z AUTO 13005KT 7SM -RA BKN019 21/21 A2990

2010/08/09 15:50
KOLM 091550Z 22006KT 10SM SCT009 BKN025 OVC030 14/12 A2998

2010/08/09 15:51
KATT 091551Z AUTO VRB04KT 10SM CLR 31/22 A2999 RMK AO2 SLP140 T03110217 

2010/08/09 15:49
KFCS 091549Z AUTO 00000KT 1/2SM HZ OVC170 21/14 A3017 RMK AO2 SLP142

2010/08/09 15:50
KFCS 091550Z AUTO 00000KT 1 1/4SM HZ OVC170 21/14 A3017 RMK AO2 SLP142

2010/08/09 15:51
KFCS 091551Z AUTO 00000KT 3SM HZ OVC170 21/14 A3017 RMK AO2 SLP142

2010/08/09 15:48
KNGP 091548Z 13007KT 10SM SCT023 BKN028 BKN036 31/24 A2994 RMK AO2 VISNO $

2010/08/09 15:50
KPHL 091550Z 22006KT 7SM FEW038 SCT250 31/21 A3002 RMK AO2

2010/08/09 15:50
EDDB 091550Z 35003KT 9999 -SHRA SCT035CB SCT050 20/17 Q1015 TEMPO SHRA

2010/08/09 15:50
EDDC 091550Z 27006KT 9999 FEW046 BKN100 21/15 Q1016 NOSIG

2010/08/09 15:50
EDDE 091550Z 27006KT 9999 FEW042 SCT062 BKN120 20/13 Q1017 NOSIG

2010/08/09 15:50
EDDG 091550Z 23005KT 9999 SCT037 BKN250 21/13 Q1016 NOSIG

2010/08/09 15:50
EDDP 091550Z 29005KT 9999 FEW020 SCT060 BKN100 20/15 Q1016 NOSIG

2010/08/09 15:50
EDDR 091550Z 33004KT CAVOK 22/08 Q1017 NOSIG

2010/08/09 15:50
EDDW 091550Z 24005KT 9999 FEW030 BKN075 20/12 Q1016 NOSIG

2010/08/09 15:51
KHSE 091551Z AUTO VRB03KT 10SM FEW006 27/24 A3005 RMK AO2 RAE03 SLP176 P0000 T02720244 TSNO 

2010/08/09 15:55
KQFS 091555Z AUTO 14004G10KT 9999 FEW040 BKN047 27/22 A2983 RMK AO2 SLP097 T02700219 $

2010/08/09 15:55
KQHT 091555Z VRB03KT 9999 SCT150 26/06 A2984 RMK AO2A SLP067

2010/08/09 15:55
KQTU 091555Z 31005KT 9999 CLR 42/02 A2956 RMK991

2010/08/09 15:55
KQW3 091555Z AUTO RMK AO2 SLPNO

2010/08/09 16:00
OKBK 091600Z 15009KT 7000 NSC 40/07 Q0996 NOSIG

2010/08/09 16:00
ZMUB 091600Z 00000MPS CAVOK 11/00 Q1008 NOSIG RMK QFE649.8 48

2010/08/09 15:52
KREO 091552Z AUTO 00000KT 20/11 A2995 RMK AO2 SLP110 T02000111 PWINO TSNO 

2010/08/09 15:52
KSDB 091552Z AUTO 22003KT 10SM CLR 19/02 A3005 RMK AO2 SLP129 T01940022 TSNO 

2010/08/09 15:52
KN60 091552Z AUTO 17003KT 24/19 A2985 RMK AO1 SLP098 T02440189 

2010/08/09 15:47
K1F0 091547Z AUTO 22008KT 10SM CLR 33/22 A2992 RMK AO2

2010/08/09 15:58
K36U 091558Z AUTO 18009KT 10SM CLR 19/08 A3013 RMK AO2

2010/08/09 15:51
KACT 091551Z 16012KT 10SM CLR 33/23 A2997 RMK AO2 SLP138 T03280228 $

2010/08/09 15:51
KAHN 091551Z VRB03KT 6SM HZ CLR 32/21 A3008 RMK AO2 SLP175 T03220211

2010/08/09 15:51
KAID 091551Z 19004KT 10SM CLR 29/21 A3000

2010/08/09 15:51
KALB 091551Z 30009KT 10SM FEW055 SCT110 30/18 A2998 RMK AO2 SLP150 T03000178

2010/08/09 15:51
KASH 091551Z 28009KT 10SM FEW090 32/18 A2996 RMK AO2 T03160177 SLP145

2010/08/09 15:51
KAVX 091551Z AUTO VRB03KT 10SM OVC001 13/12 A2995 RMK AO2 SLP137 T01280117 TSNO

2010/08/09 15:51
KBDL 091551Z VRB04KT 9SM FEW100 31/17 A2998 RMK AO2 SLP149 T03060172

2010/08/09 15:51
KBGD 091551Z AUTO 24004KT 10SM CLR 31/16 A2999 RMK AO2 SLP102 T03060156

2010/08/09 15:51
KBKW 091551Z AUTO 26003KT 4SM HZ CLR 27/18 A3015 RMK AO2 SLP171 T02670183

2010/08/09 15:51
KCLE 091551Z 24006KT 10SM BKN250 28/19 A3002 RMK AO2 SLP157 T02830189

2010/08/09 15:51
KCMH 091551Z 18006KT 9SM BKN200 28/19 A3002 RMK AO2 SLP159 T02830189

2010/08/09 15:51
KCSG 091551Z 09007KT 9SM CLR 33/21 A3002 RMK AO2 SLP158 T03330206

2010/08/09 15:51
KDAW 091551Z AUTO VRB06KT 10SM FEW047 31/17 A2993 RMK AO2 SLP131 T03060167

2010/08/09 15:50
KDUA 091550Z AUTO 23006KT 10SM CLR 34/22 A2995 RMK AO2

2010/08/09 15:52
KDUC 091552Z AUTO 21010G14KT 10SM CLR 32/22 A2993 RMK AO2

2010/08/09 15:51
KELP 091551Z 22003KT 10SM FEW150 27/14 A3007 RMK AO2 SLP110 T02720144

2010/08/09 15:51
KERI 091551Z 21008KT 8SM SCT100 29/18 A2999 RMK AO2 SLP150 T02890178

2010/08/09 15:51
KEWR 091551Z 23007KT 9SM FEW050 SCT250 33/18 A3000 RMK AO2 SLP159 HAZE ALOFT T03330183

2010/08/09 15:50
KGTR 091550Z 00000KT 10SM SKC 32/24 A2999

2010/08/09 15:51
KHTS 091551Z 20004KT 7SM CLR 28/21 A3005 RMK AO2 SLP168 T02830211

2010/08/09 15:51
KILG 091551Z 17008KT 9SM CLR 29/23 A3002 RMK AO2 SLP165 T02940233 $

2010/08/09 15:48
KIZA 091548Z AUTO 00000KT 10SM OVC004 12/10 A2995 RMK AO2

2010/08/09 15:51
KJFK 091551Z 20010KT 7SM FEW040 SCT250 28/21 A3002 RMK AO2 SLP167 T02830211

2010/08/09 15:49
KL35 091549Z AUTO 00000KT 10SM CLR 15/M06 A3016 RMK AO2

2010/08/09 15:51
KLGA 091551Z 22010KT 10SM FEW060 32/19 A3000 RMK AO2 SLP158 T03220189

2010/08/09 15:51
KLGU 091551Z AUTO 19009KT 10SM SCT090 24/08 A3003 RMK AO2 SLP116 T02390078

2010/08/09 15:50
KLRU 091550Z AUTO 00000KT 10SM CLR 24/14 A3012 RMK AO2

2010/08/09 15:51
KMDW 091551Z 13004KT 8SM FEW034 SCT050 BKN150 BKN200 26/21 A2995 RMK AO2 SLP129 T02610211 PNO

2010/08/09 15:51
KMPV 091551Z AUTO VRB03KT 10SM FEW036 SCT046 26/18 A3001 RMK AO2 SLP158 T02610178

2010/08/09 15:51
KMYL 091551Z AUTO 00000KT 10SM SCT090 BKN110 15/09 A2998 RMK AO2 SLP116 T01500094

2010/08/09 15:50
KOLV 091550Z 00000KT 5SM HZ SCT250 34/28 A3001

2010/08/09 15:50
KONM 091550Z AUTO 07004KT 10SM CLR 25/14 A3013 RMK AO2 T02510140

2010/08/09 15:50
KONP 091550Z AUTO 36007KT 10SM OVC020 13/10 A3004 RMK AO1

2010/08/09 15:51
KORD 091551Z 17005KT 9SM SCT150 BKN200 BKN250 26/22 A2995 RMK AO2 SLP136 T02560217

2010/08/09 15:51
KOXR 091551Z 00000KT 10SM OVC010 16/13 A2993 RMK AO2 SLP134 T01560128

2010/08/09 15:51
KPHX 091551Z 00000KT 10SM FEW150 33/02 A2987 RMK AO2 SLP094 T03330017 $

2010/08/09 15:51
KPIT 091551Z 15004KT 10SM FEW140 SCT250 29/15 A3004 RMK AO2 SLP172 T02890150

2010/08/09 15:51
KPVD 091551Z VRB05KT 10SM FEW035 SCT110 SCT300 31/20 A2999 RMK AO2 SLP154 T03060200

2010/08/09 15:51
KPWM 091551Z 25007KT 10SM SCT046 30/18 A2992 RMK AO2 SLP132 T03000178

2010/08/09 15:51
KROW 091551Z 33004KT 10SM FEW120 24/18 A3005 RMK AO2 SLP110 T02440178

2010/08/09 15:51
KSJT 091551Z 15010KT 10SM CLR 32/22 A2999 RMK AO2 SLP126 T03220217

2010/08/09 15:51
KSLK 091551Z AUTO 23008KT 10SM SCT021 BKN029 BKN033 24/19 A2999 RMK AO2 SLP145 T02390189

2010/08/09 15:51
KSMO 091551Z 00000KT 8SM OVC011 17/13 A2993 RMK AO2 SLP136 T01670128

2010/08/09 15:51
KSTL 091551Z 00000KT 9SM FEW060 SCT120 BKN200 BKN250 32/24 A2996 RMK AO2 SLP129 T03220244

2010/08/09 15:51
KTEB 091551Z 21010G14KT 10SM FEW048 32/19 A2999 RMK AO2 SLP154 T03170189

2010/08/09 15:51
KASX 091551Z AUTO 26003KT 10SM SCT012 25/22 A2992 RMK AO2

2010/08/09 15:51
KUAO 091551Z AUTO 00000KT 10SM OVC028 15/10 A3001 RMK AO2

2010/08/09 15:51
PAKT 091551Z 13006KT 5SM BR SCT004 OVC011 13/12 A3001 RMK AO2 SCT004 V BKN VIS E 3 HARBOR WND 12005KT

2010/08/09 15:51
KVNY 091551Z 00000KT 10SM CLR 18/13 A2992 RMK AO2 SLP126 T01780128

2010/08/09 15:51
KYNG 091551Z 20006KT 10SM FEW150 BKN250 28/16 A3004 RMK AO2 SLP163 T02830161

2010/08/09 15:48
PABN 091548Z 36006KT 20SM BKN060 BKN090 09/04 A2969 RMK MIN 8.0 NOSPECI

2010/08/09 15:50
PAEL 091550Z 00000KT 5SM PRFG FEW002 OVC023 11/11 A2994 RMK NOSPECI

2010/08/09 15:52
KGLS 091552Z 17006KT 10SM SCT028 32/24 A2999 RMK AO2 SLP155 T03220244

2010/08/09 15:55
KGLY 091555Z AUTO 22005KT 9SM CLR 32/26 A2994 RMK AO2

2010/08/09 15:50
KGPM 091550Z 16007KT 10SM SKC 32/23 A2998

2010/08/09 15:52
KHRL 091552Z 16008KT 10SM BKN020 33/24 A2991 RMK AO2 SLP129 T03280239

2010/08/09 15:55
KLZZ 091555Z AUTO 20005KT 10SM CLR 32/22 A2999 RMK AO2

2010/08/09 15:55
KMAO 091555Z AUTO 06006KT 7SM CLR 31/23 A3003 RMK AO2

2010/08/09 15:55
KPAN 091555Z AUTO 11004KT 10SM CLR 23/11 A3017 RMK AO1

2010/08/09 15:50
KSAW 091550Z 27004KT 10SM SCT021 BKN026 BKN033 27/20 A2987

2010/08/09 15:50
KTIX 091550Z VRB04KT 5SM BR BKN010 29/24 A2995

2010/08/09 16:00
LQSA 091600Z 31006KT 260V010 9999 FEW050 27/16 Q1017 NOSIG

2010/08/09 15:50
BGJN 091550Z 36003KT 9999 BKN150 11/02 Q1007 RMK 6AC 

2010/08/09 15:50
BGKK 091550Z 23013KT 9999 FEW080 SCT220 12/M00 Q1009

2010/08/09 15:50
BGBW 091550Z 02002KT 9999 FEW015 BKN070 13/09 Q1008 RMK 1ST 7AC 

2010/08/09 15:50
EDDF 091550Z 20005KT 9999 FEW040 BKN070 23/12 Q1016 NOSIG

2010/08/09 15:50
EDDH 091550Z 32006KT 9999 FEW011 BKN030 BKN130 17/15 Q1016 NOSIG

2010/08/09 15:50
EDDK 091550Z 20006KT 9999 SCT040 SCT280 22/12 Q1016 NOSIG

2010/08/09 15:50
EDDL 091550Z 29001KT 9999 FEW040 BKN280 22/13 Q1016 NOSIG

2010/08/09 15:50
EDDM 091550Z 02004KT CAVOK 23/12 Q1017 NOSIG

2010/08/09 15:50
EDDN 091550Z 29002KT 9999 FEW035 BKN080 22/13 Q1017 NOSIG

2010/08/09 15:50
EDDS 091550Z 36005KT CAVOK 23/11 Q1017 NOSIG

2010/08/09 15:50
EDDT 091550Z 30005KT 9999 -SHRA SCT035CB 23/16 Q1015 NOSIG

2010/08/09 15:50
EDDV 091550Z 28007KT 9999 FEW036 SCT060 BKN130 21/12 Q1016 NOSIG

2010/08/09 15:50
BGBW 091550Z 02002KT 9999 FEW015 BKN070 13/09 Q1008 RMK 1ST 7AC 

2010/08/09 15:50
ESGG 091550Z 25010KT 9999 SCT015 BKN025 17/14 Q1011

2010/08/09 15:50
ESGJ 091550Z 23010KT 9999 FEW018 BKN020 17/14 Q1010

2010/08/09 15:50
ESGP 091550Z 26011KT 9999 BKN019 OVC028 18/14 Q1011

2010/08/09 15:50
ESGT 091550Z 23010KT 9999 SCT015 FEW020CB SCT024 18/16 Q1010

2010/08/09 15:50
ESMK 091550Z 29010KT 9999 FEW031 SCT040 19/12 Q1013

2010/08/09 15:50
ESMQ 091550Z 25011KT 9999 FEW018 SCT029 BKN054 19/15 Q1012

2010/08/09 15:50
ESMS 091550Z 26010KT 9999 FEW038 SCT042 BKN048 19/11 Q1014

2010/08/09 15:50
ESMT 091550Z 26010KT 9999 SCT024 BKN030 17/14 Q1013

2010/08/09 15:50
ESMX 091550Z 26007KT 230V290 9999 FEW007 SCT008 BKN011 16/14 Q1012

2010/08/09 15:50
ESTA 091550Z 25012KT 9999 SCT022 OVC039 18/13 Q1013

2010/08/09 15:50
ESTL 091550Z AUTO 28013KT 9999NDV FEW030/// OVC040/// 18/13 Q1013

2010/08/09 15:50
EDDB 091550Z 35003KT 9999 -SHRA SCT035CB SCT050 20/17 Q1015 TEMPO SHRA

2010/08/09 15:50
EDDC 091550Z 27006KT 9999 FEW046 BKN100 21/15 Q1016 NOSIG

2010/08/09 15:50
EDDE 091550Z 27006KT 9999 FEW042 SCT062 BKN120 20/13 Q1017 NOSIG

2010/08/09 15:50
EDDG 091550Z 23005KT 9999 SCT037 BKN250 21/13 Q1016 NOSIG

2010/08/09 15:50
EDDP 091550Z 29005KT 9999 FEW020 SCT060 BKN100 20/15 Q1016 NOSIG

2010/08/09 15:50
EDDR 091550Z 33004KT CAVOK 22/08 Q1017 NOSIG

2010/08/09 15:50
EDDW 091550Z 24005KT 9999 FEW030 BKN075 20/12 Q1016 NOSIG

2010/08/09 15:51
KSAN 091551Z 35003KT 10SM OVC015 18/13 A2994 RMK AO2 SLP139 T01780133

2010/08/09 15:48
KEHA 091548Z AUTO 30003KT 28/18 RMK AO1 PK WND 08 000 T02780178

2010/08/09 15:51
KCON 091551Z AUTO 29007G15KT 230V320 10SM CLR 31/16 A2994 RMK AO2 SLP138 T03110161

2010/08/09 15:51
KORF 091551Z 09004KT 10SM FEW025 29/21 A3005 RMK AO2 SLP174 T02940206

2010/08/09 15:51
KSMX 091551Z 00000KT 8SM OVC006 12/11 A2996 RMK AO2 SLP148 T01220106

2010/08/09 15:51
KP59 091551Z AUTO 36013KT 23/21 A2985 RMK AO2 SLP101 T02330211 PWINO TSNO

2010/08/09 15:51
KSNT 091551Z AUTO 29004KT 10/08 A3013 RMK AO2 SLP122 P0001 T01000083 PWINO TSNO

2010/08/09 15:51
KBVE 091551Z AUTO 00000KT 7SM -RA FEW090 28/26 A2999 RMK AO2 RAB1453 PRESRR SLP156 P0000 T02830256 TSNO

2010/08/09 15:51
KGDP 091551Z AUTO 24015KT 10SM CLR 23/16 A3018 RMK AO2 SLP142 T02330156 TSNO

2010/08/09 15:51
KCAK 091551Z VRB05KT 10SM SCT250 28/18 A3004 RMK AO2 SLP163 T02780178

2010/08/09 15:51
KDAG 091551Z AUTO 26005KT 10SM CLR 26/M02 A2992 RMK AO2 SLP107 T02561017 TSNO

2010/08/09 15:51
KCRP 091551Z 14007KT 070V300 10SM SCT036 SCT043 33/24 A2995 RMK AO2 SLP140 T03330239

2010/08/09 15:51
KABE 091551Z VRB04KT 9SM CLR 29/21 A3002 RMK AO2 SLP163 T02940206

2010/08/09 15:51
KNYC 091551Z AUTO VRB05KT 10SM CLR 31/19 A3003 RMK AO2 SLP160 T03110194 TSNO

2010/08/09 15:51
KJCT 091551Z AUTO 17009KT 130V220 10SM CLR 31/19 A3001 RMK AO2 SLP120 T03060194 TSNO

2010/08/09 15:51
KATT 091551Z AUTO VRB04KT 10SM CLR 31/22 A2999 RMK AO2 SLP140 T03110217

2010/08/09 15:51
KHSE 091551Z AUTO VRB03KT 10SM FEW006 27/24 A3005 RMK AO2 RAE03 SLP176 P0000 T02720244 TSNO

2010/08/09 15:52
KREO 091552Z AUTO 00000KT 20/11 A2995 RMK AO2 SLP110 T02000111 PWINO TSNO

2010/08/09 15:52
KSDB 091552Z AUTO 22003KT 10SM CLR 19/02 A3005 RMK AO2 SLP129 T01940022 TSNO

2010/08/09 15:52
KN60 091552Z AUTO 17003KT 24/19 A2985 RMK AO1 SLP098 T02440189

2010/08/09 15:50
BGGH 091550Z 20011KT 9999 FEW009 BKN060 13/09 Q1008

2010/08/09 15:50
EKVD 091550Z 31008KT 9999 BKN034 18/09 Q1015

2010/08/09 15:50
EKOD 091550Z 27010KT 9999 SCT048 18/09 Q1014

2010/08/09 15:49
KFCS 091549Z AUTO 00000KT 1/2SM HZ OVC170 21/14 A3017 RMK AO2 SLP142

2010/08/09 15:50
KFCS 091550Z AUTO 00000KT 1 1/4SM HZ OVC170 21/14 A3017 RMK AO2 SLP142

2010/08/09 15:51
KFCS 091551Z AUTO 00000KT 3SM HZ OVC170 21/14 A3017 RMK AO2 SLP142

2010/08/09 15:48
KNGP 091548Z 13007KT 10SM SCT023 BKN028 BKN036 31/24 A2994 RMK AO2 VISNO $

2010/08/09 15:46
KNUW 091546Z 22010KT 6SM BR BKN006 OVC020 14/11 A2996 RMK AO2 $

2010/08/09 15:48
KVBG 091548Z COR 06003KT 6SM -DZ BR SCT004 BKN006 OVC010 13/13 A2996 RMK AO2 DZB25 P0000

2010/08/09 15:48
KVBG 091548Z 06003KT 6SM -DZ BR SCT004 BKN006 OVC010 13/13 A2996 RMK AO2 DZB25 P0000 $

2010/08/09 15:48
PASY 091548Z AUTO 29005KT 1SM BR VV001 09/08 A2983 RMK AO2 TSNO PNO $

2010/08/09 15:51
KSAN 091551Z 35003KT 10SM OVC015 18/13 A2994 RMK AO2 SLP139 T01780133

2010/08/09 15:48
KEHA 091548Z AUTO 30003KT 28/18 RMK AO1 PK WND 08 000 T02780178

2010/08/09 15:51
KEKN 091551Z AUTO 00000KT 7SM CLR 26/19 A3012 RMK AO2 SLP188 T02610194 TSNO

2010/08/09 15:51
KCON 091551Z AUTO 29007G15KT 230V320 10SM CLR 31/16 A2994 RMK AO2 SLP138 T03110161

2010/08/09 15:51
KSMX 091551Z 00000KT 8SM OVC006 12/11 A2996 RMK AO2 SLP148 T01220106

2010/08/09 15:51
KORF 091551Z 09004KT 10SM FEW025 29/21 A3005 RMK AO2 SLP174 T02940206

2010/08/09 15:51
KP59 091551Z AUTO 36013KT 23/21 A2985 RMK AO2 SLP101 T02330211 PWINO TSNO

2010/08/09 15:51
KSNT 091551Z AUTO 29004KT 10/08 A3013 RMK AO2 SLP122 P0001 T01000083 PWINO TSNO

2010/08/09 15:51
KBVE 091551Z AUTO 00000KT 7SM -RA FEW090 28/26 A2999 RMK AO2 RAB1453 PRESRR SLP156 P0000 T02830256 TSNO

2010/08/09 15:51
KGDP 091551Z AUTO 24015KT 10SM CLR 23/16 A3018 RMK AO2 SLP142 T02330156 TSNO

2010/08/09 15:51
KCAK 091551Z VRB05KT 10SM SCT250 28/18 A3004 RMK AO2 SLP163 T02780178

2010/08/09 15:51
KCRP 091551Z 14007KT 070V300 10SM SCT036 SCT043 33/24 A2995 RMK AO2 SLP140 T03330239

2010/08/09 15:51
KABE 091551Z VRB04KT 9SM CLR 29/21 A3002 RMK AO2 SLP163 T02940206

2010/08/09 15:51
KNYC 091551Z AUTO VRB05KT 10SM CLR 31/19 A3003 RMK AO2 SLP160 T03110194 TSNO

2010/08/09 15:51
KAID 091551Z 19004KT 10SM CLR 29/21 A3000

2010/08/09 15:51
KALB 091551Z 30009KT 10SM FEW055 SCT110 30/18 A2998 RMK AO2 SLP150 T03000178

2010/08/09 15:51
KBDL 091551Z VRB04KT 9SM FEW100 31/17 A2998 RMK AO2 SLP149 T03060172

2010/08/09 15:51
KBKW 091551Z AUTO 26003KT 4SM HZ CLR 27/18 A3015 RMK AO2 SLP171 T02670183

2010/08/09 15:51
KELP 091551Z 22003KT 10SM FEW150 27/14 A3007 RMK AO2 SLP110 T02720144

2010/08/09 15:51
KHTS 091551Z 20004KT 7SM CLR 28/21 A3005 RMK AO2 SLP168 T02830211

2010/08/09 15:48
KIZA 091548Z AUTO 00000KT 10SM OVC004 12/10 A2995 RMK AO2

2010/08/09 15:51
KMYL 091551Z AUTO 00000KT 10SM SCT090 BKN110 15/09 A2998 RMK AO2 SLP116 T01500094

2010/08/09 15:51
KOXR 091551Z 00000KT 10SM OVC010 16/13 A2993 RMK AO2 SLP134 T01560128

2010/08/09 15:51
KPVD 091551Z VRB05KT 10SM FEW035 SCT110 SCT300 31/20 A2999 RMK AO2 SLP154 T03060200

2010/08/09 15:51
KROW 091551Z 33004KT 10SM FEW120 24/18 A3005 RMK AO2 SLP110 T02440178

2010/08/09 15:51
KTEB 091551Z 21010G14KT 10SM FEW048 32/19 A2999 RMK AO2 SLP154 T03170189

2010/08/09 15:51
KYNG 091551Z 20006KT 10SM FEW150 BKN250 28/16 A3004 RMK AO2 SLP163 T02830161

2010/08/09 15:55
KLZZ 091555Z AUTO 20005KT 10SM CLR 32/22 A2999 RMK AO2

2010/08/09 15:51
KATT 091551Z AUTO VRB04KT 10SM CLR 31/22 A2999 RMK AO2 SLP140 T03110217

2010/08/09 15:51
KHSE 091551Z AUTO VRB03KT 10SM FEW006 27/24 A3005 RMK AO2 RAE03 SLP176 P0000 T02720244 TSNO

2010/08/09 15:52
KREO 091552Z AUTO 00000KT 20/11 A2995 RMK AO2 SLP110 T02000111 PWINO TSNO

2010/08/09 15:52
KSDB 091552Z AUTO 22003KT 10SM CLR 19/02 A3005 RMK AO2 SLP129 T01940022 TSNO

2010/08/09 15:52
KN60 091552Z AUTO 17003KT 24/19 A2985 RMK AO1 SLP098 T02440189

2010/08/09 15:51
KBAZ 091551Z AUTO 21006KT 7SM FEW030 31/21 A2998 RMK AO2 SLP143 T03110211

2010/08/09 15:47
KGYR 091547Z VRB03KT 20SM FEW100 SCT150 35/12 A2988

2010/08/09 15:51
KHDO 091551Z AUTO 22004KT 10SM FEW028 30/22 A3001 RMK AO2 SLP144 T03000217

2010/08/09 15:51
KRDU 091551Z 11005KT 9SM FEW040 32/21 A3006 RMK AO2 SLP173 T03170211

2010/08/09 15:47
KTOA 091547Z VRB04KT 4SM BR OVC012 18/14 A2994

2010/08/09 15:51
KTZR 091551Z 17006KT 7SM SKC 27/20 A3003

2010/08/09 15:48
KVCV 091548Z 14005KT 10SM SKC 23/M06 A2997

2010/08/09 15:51
PAAP 091551Z 00000KT 1SM BR BKN000 OVC002 12/11 A2999 RMK NO SPECI

2010/08/09 15:48
PATW 091548Z 18007KT 10SM BCFG SCT000 OVC025 07/06 A2969 RMK BCGF ALQDS EPO NOSPECI

2010/08/09 15:51
KDAG 091551Z AUTO 26005KT 10SM CLR 26/M02 A2992 RMK AO2 SLP107 T02561017 TSNO

2010/08/09 15:51
KJCT 091551Z AUTO 17009KT 130V220 10SM CLR 31/19 A3001 RMK AO2 SLP120 T03060194 TSNO

2010/08/09 15:47
K1F0 091547Z AUTO 22008KT 10SM CLR 33/22 A2992 RMK AO2

2010/08/09 15:58
K36U 091558Z AUTO 18009KT 10SM CLR 19/08 A3013 RMK AO2

2010/08/09 15:51
KACT 091551Z 16012KT 10SM CLR 33/23 A2997 RMK AO2 SLP138 T03280228 $

2010/08/09 15:51
KAHN 091551Z VRB03KT 6SM HZ CLR 32/21 A3008 RMK AO2 SLP175 T03220211

2010/08/09 15:51
KASH 091551Z 28009KT 10SM FEW090 32/18 A2996 RMK AO2 T03160177 SLP145

2010/08/09 15:51
KAVX 091551Z AUTO VRB03KT 10SM OVC001 13/12 A2995 RMK AO2 SLP137 T01280117 TSNO

2010/08/09 15:51
KBGD 091551Z AUTO 24004KT 10SM CLR 31/16 A2999 RMK AO2 SLP102 T03060156

2010/08/09 15:51
KCLE 091551Z 24006KT 10SM BKN250 28/19 A3002 RMK AO2 SLP157 T02830189

2010/08/09 15:51
KCMH 091551Z 18006KT 9SM BKN200 28/19 A3002 RMK AO2 SLP159 T02830189

2010/08/09 15:51
KCSG 091551Z 09007KT 9SM CLR 33/21 A3002 RMK AO2 SLP158 T03330206

2010/08/09 15:51
KDAW 091551Z AUTO VRB06KT 10SM FEW047 31/17 A2993 RMK AO2 SLP131 T03060167

2010/08/09 15:50
KDUA 091550Z AUTO 23006KT 10SM CLR 34/22 A2995 RMK AO2

2010/08/09 15:52
KDUC 091552Z AUTO 21010G14KT 10SM CLR 32/22 A2993 RMK AO2

2010/08/09 15:51
KERI 091551Z 21008KT 8SM SCT100 29/18 A2999 RMK AO2 SLP150 T02890178

2010/08/09 15:51
KEWR 091551Z 23007KT 9SM FEW050 SCT250 33/18 A3000 RMK AO2 SLP159 HAZE ALOFT T03330183

2010/08/09 15:50
KGTR 091550Z 00000KT 10SM SKC 32/24 A2999

2010/08/09 15:51
KILG 091551Z 17008KT 9SM CLR 29/23 A3002 RMK AO2 SLP165 T02940233 $

2010/08/09 15:51
KJFK 091551Z 20010KT 7SM FEW040 SCT250 28/21 A3002 RMK AO2 SLP167 T02830211

2010/08/09 15:49
KL35 091549Z AUTO 00000KT 10SM CLR 15/M06 A3016 RMK AO2

2010/08/09 15:51
KLGA 091551Z 22010KT 10SM FEW060 32/19 A3000 RMK AO2 SLP158 T03220189

2010/08/09 15:51
KLGU 091551Z AUTO 19009KT 10SM SCT090 24/08 A3003 RMK AO2 SLP116 T02390078

2010/08/09 15:50
KLRU 091550Z AUTO 00000KT 10SM CLR 24/14 A3012 RMK AO2

2010/08/09 15:51
KMDW 091551Z 13004KT 8SM FEW034 SCT050 BKN150 BKN200 26/21 A2995 RMK AO2 SLP129 T02610211 PNO

2010/08/09 15:51
KMPV 091551Z AUTO VRB03KT 10SM FEW036 SCT046 26/18 A3001 RMK AO2 SLP158 T02610178

2010/08/09 15:50
KOLV 091550Z 00000KT 5SM HZ SCT250 34/28 A3001

2010/08/09 15:50
KONM 091550Z AUTO 07004KT 10SM CLR 25/14 A3013 RMK AO2 T02510140

2010/08/09 15:50
KONP 091550Z AUTO 36007KT 10SM OVC020 13/10 A3004 RMK AO1

2010/08/09 15:51
KORD 091551Z 17005KT 9SM SCT150 BKN200 BKN250 26/22 A2995 RMK AO2 SLP136 T02560217

2010/08/09 15:51
KPHX 091551Z 00000KT 10SM FEW150 33/02 A2987 RMK AO2 SLP094 T03330017 $

2010/08/09 15:51
KPIT 091551Z 15004KT 10SM FEW140 SCT250 29/15 A3004 RMK AO2 SLP172 T02890150

2010/08/09 15:51
KPWM 091551Z 25007KT 10SM SCT046 30/18 A2992 RMK AO2 SLP132 T03000178

2010/08/09 15:51
KSJT 091551Z 15010KT 10SM CLR 32/22 A2999 RMK AO2 SLP126 T03220217

2010/08/09 15:51
KSLK 091551Z AUTO 23008KT 10SM SCT021 BKN029 BKN033 24/19 A2999 RMK AO2 SLP145 T02390189

2010/08/09 15:51
KSMO 091551Z 00000KT 8SM OVC011 17/13 A2993 RMK AO2 SLP136 T01670128

2010/08/09 15:51
KSTL 091551Z 00000KT 9SM FEW060 SCT120 BKN200 BKN250 32/24 A2996 RMK AO2 SLP129 T03220244

2010/08/09 15:51
KVNY 091551Z 00000KT 10SM CLR 18/13 A2992 RMK AO2 SLP126 T01780128

2010/08/09 15:48
PABN 091548Z 36006KT 20SM BKN060 BKN090 09/04 A2969 RMK MIN 8.0 NOSPECI

2010/08/09 15:50
EKGF 091550Z 18021KT CAVOK 17/15 Q1013

2010/08/09 15:50
EKHN 091550Z AUTO VRB05KT 9999NDV NCD 18/14 Q1017

2010/08/09 15:50
EKHR 091550Z AUTO 25009KT 220V280 9999NDV NCD 17/11 Q1015

2010/08/09 15:50
EKCH 091550Z 28010KT 240V310 9999 FEW040 SCT250 20/11 Q1014 NOSIG

2010/08/09 15:50
EKBI 091550Z 27009KT 230V300 9999 FEW025 BKN045 18/11 Q1015

2010/08/09 15:50
EKYT 091550Z 26014KT 9999 BKN034 18/10 Q1012

2010/08/09 15:50
EKRK 091550Z AUTO 28012KT 9999NDV SCT043/// 19/11 Q1014

2010/08/09 15:50
EKAH 091550Z AUTO 28010KT 9999NDV BKN039/// 18/09 Q1014

2010/08/09 15:50
EKEB 091550Z AUTO 26011KT 230V290 9999NDV BKN031/// 18/11 Q1015

2010/08/09 15:50
EKRN 091550Z AUTO 27010KT 9999NDV NCD 19/14 Q1015

2010/08/09 15:50
EGYP 091550Z 28030G41KT 9999 FEW025 SCT090 BKN250 07/M00 Q0994 BLU NOSIG

2010/08/09 15:50
EFHK 091550Z 18013KT 9999 FEW030CB SCT070 23/16 Q1011 TEMPO 7000 -SHRA

2010/08/09 15:50
EFJY 091550Z 21012KT 180V250 9999 FEW035TCU SCT045CB BKN090 21/15 Q1009

2010/08/09 15:50
EFKU 091550Z AUTO 17008KT CAVOK 23/17 Q1009

2010/08/09 15:50
EFOU 091550Z 29007KT 250V320 9999 FEW005 BKN016 20/19 Q1007

2010/08/09 15:50
EFRO 091550Z AUTO 36014KT 9999NDV BKN008 BKN010 14/13 Q1008

2010/08/09 15:50
EFTP 091550Z 19005KT 150V230 9999 BKN030 BKN060 21/16 Q1009

2010/08/09 15:50
EFTU 091550Z AUTO 18005KT 140V220 9999 BKN010 BKN017 OVC022 19/17 Q1008 RESHRA

2010/08/09 15:50
EFVA 091550Z 23003KT 9999 SCT010 SCT019 BKN023 20/18 Q1008

2010/08/09 15:50
BGGH 091550Z 20011KT 9999 FEW009 BKN060 13/09 Q1008

2010/08/09 16:00
SVBC 091600Z 18004KT 9999 BKN010 30/23 Q1015

2010/08/09 15:50
EKKA 091550Z 28012KT 250V310 9999 FEW031 BKN040 17/10 Q1014

2010/08/09 15:50
EKSP 091550Z 28008KT 9999 FEW040 SCT220 18/10 Q1015

2010/08/09 16:00
SBCF 091600Z 33002KT CAVOK 25/06 Q1021

2010/08/09 15:50
OAKB 091550Z 13007KT 9999 SCT080 BKN110 25/17 Q1012 NOSIG RMK BLU BLU 

2010/08/09 15:50
LLBG 091550Z 32008KT 9999 SCT026 29/23 Q1006 NOSIG

2010/08/09 15:50
LLET 091550Z 01016G26KT CAVOK 40/14 Q1001

2010/08/09 15:50
LLOV 091550Z 35010KT CAVOK 35/14 Q1006

2010/08/09 15:48
PASY 091548Z AUTO 29005KT 1SM BR VV001 09/08 A2983

2010/08/09 15:50
PAEL 091550Z 00000KT 5SM PRFG FEW002 OVC023 11/11 A2994 RMK NOSPECI

2010/08/09 15:52
KGLS 091552Z 17006KT 10SM SCT028 32/24 A2999 RMK AO2 SLP155 T03220244

2010/08/09 15:55
KGLY 091555Z AUTO 22005KT 9SM CLR 32/26 A2994 RMK AO2

2010/08/09 15:50
KGPM 091550Z 16007KT 10SM SKC 32/23 A2998

2010/08/09 15:52
KHRL 091552Z 16008KT 10SM BKN020 33/24 A2991 RMK AO2 SLP129 T03280239

2010/08/09 15:55
KMAO 091555Z AUTO 06006KT 7SM CLR 31/23 A3003 RMK AO2

2010/08/09 15:55
KPAN 091555Z AUTO 11004KT 10SM CLR 23/11 A3017 RMK AO1

2010/08/09 15:50
KSAW 091550Z 27004KT 10SM SCT021 BKN026 BKN033 27/20 A2987

2010/08/09 15:50
KTIX 091550Z VRB04KT 5SM BR BKN010 29/24 A2995

2010/08/09 15:48
PAJZ 091548Z AUTO 18010KT 1SM BR BKN003 OVC009 11/10 A2954 RMK AO2 PWINO TSNO CIG 001V005 P0001 $

2010/08/09 15:51
KASX 091551Z AUTO 26003KT 10SM SCT012 25/22 A2992 RMK AO2

2010/08/09 15:51
KUAO 091551Z AUTO 00000KT 10SM OVC028 15/10 A3001 RMK AO2

2010/08/09 15:51
PAKT 091551Z 13006KT 5SM BR SCT004 OVC011 13/12 A3001 RMK AO2 SCT004 V BKN VIS E 3 HARBOR WND 12005KT

2010/08/09 15:50
EDDB 091550Z 35003KT 9999 -SHRA SCT035CB SCT050 20/17 Q1015 TEMPO SHRA

2010/08/09 15:50
EDDC 091550Z 27006KT 9999 FEW046 BKN100 21/15 Q1016 NOSIG

2010/08/09 15:50
EDDG 091550Z 23005KT 9999 SCT037 BKN250 21/13 Q1016 NOSIG

2010/08/09 15:50
EDDP 091550Z 29005KT 9999 FEW020 SCT060 BKN100 20/15 Q1016 NOSIG

2010/08/09 15:50
EDDR 091550Z 33004KT CAVOK 22/08 Q1017 NOSIG

2010/08/09 15:50
EDDT 091550Z 30005KT 9999 -SHRA SCT035CB 23/16 Q1015 NOSIG

2010/08/09 15:50
EDDV 091550Z 28007KT 9999 FEW036 SCT060 BKN130 21/12 Q1016 NOSIG

2010/08/09 15:50
EDDW 091550Z 24005KT 9999 FEW030 BKN075 20/12 Q1016 NOSIG

2010/08/09 15:50
EYSA 091550Z 22006KT 9999 FEW037 22/15 Q1016

2010/08/09 15:51
CYAH 091551Z 28007KT 7SM BKN008 OVC033 RMK SF7SC1

2010/08/09 15:45
MMMZ 091545Z 06004KT 15SM FEW025 BKN080 OVC220 26/22 A2985 RMK 8/463 DSNT CB NW

2010/08/09 15:45
MMDO 091545Z 00000KT 14SM BKN080 OVC200 21/17 A3022 RMK 8/057 HZY

2010/08/09 15:50
MMSD 091550Z 01003KT 12SM SKC 34/17 A2985 RMK CI

2010/08/09 15:45
MMTJ 091545Z 12005KT 5SM BKN016 16/13 A2995 RMK 8/500 HZY

2010/08/09 15:48
RODN 091548Z 18015G23KT 9999 SCT019 BKN028 BKN037 28/25 A2973 RMK AO2A PK WND 17030/1500 RAB1513E1527 BKN028 V SCT CIG 019 RWY23 SLP067

2010/08/09 15:45
KMMU 091545Z 24010G16KT 6SM HZ SCT050 32/19 A3001

2010/08/09 15:48
LIYW 091548Z AUTO 26005KT 9999 -DZ CLR 29/17 A2996 RMK AO2 DZE1528B1548 SLP143

2010/08/09 15:48
RODN 091548Z 18015G23KT 9999 SCT019 BKN028 BKN037 28/25 A2973 RMK AO2A PK WND 17030/1500 RAB1513E1527 BKN028 V SCT CIG 019 RWY23 SLP067

2010/08/09 15:46
KGLE 091546Z AUTO 19010G15KT 10SM CLR 34/23 A2996

2010/08/09 15:45
KDNV 091545Z AUTO 25005KT 7SM BKN045 28/22 A2996

2010/08/09 15:45
KENL 091545Z AUTO 21005KT 10SM CLR 32/24 A2997

2010/08/09 15:47
KFEP 091547Z AUTO 23006KT 10SM CLR 26/23 A2997

2010/08/09 15:45
KFWC 091545Z AUTO 00000KT 10SM CLR 31/25 A2997

2010/08/09 15:45
KGBG 091545Z AUTO 00000KT 10SM CLR 26/22 A2992

2010/08/09 15:45
KHSB 091545Z AUTO 30004KT 10SM CLR 32/21 A2998

2010/08/09 15:45
KIGQ 091545Z AUTO 19003KT 5SM -RA SCT033 26/21 A2996

2010/08/09 15:45
KIJX 091545Z AUTO 02003KT 7SM CLR 29/24 A2996

2010/08/09 15:45
KIKK 091545Z AUTO 24005KT 5SM HZ SCT046 29/23 A2995

2010/08/09 15:46
KJOT 091546Z AUTO 00000KT 7SM CLR 26/22 A2994

2010/08/09 15:45
KLOT 091545Z AUTO 19003KT 7SM CLR 25/23 A2995

2010/08/09 15:45
KPNT 091545Z AUTO 21004KT 7SM CLR 29/22 A2994

2010/08/09 15:45
KPRG 091545Z AUTO 22006KT 10SM CLR 31/23 A2999

2010/08/09 15:45
KSAR 091545Z AUTO 14004KT 7SM CLR 32/27 A2996

2010/08/09 15:45
KSLO 091545Z AUTO 00000KT 10SM CLR 32/24 A2997

2010/08/09 15:45
KTAZ 091545Z AUTO 21003KT 10SM CLR 32/25 A2994

2010/08/09 15:45
KTIP 091545Z AUTO 20006KT 7SM CLR 29/25 A2997

2010/08/09 15:50
BGJN 091550Z 36003KT 9999 BKN150 11/02 Q1007 RMK 6AC 

2010/08/09 15:50
BGKK 091550Z 23013KT 9999 FEW080 SCT220 12/M00 Q1009

2010/08/09 15:50
BGGH 091550Z 20011KT 9999 FEW009 BKN060 13/09 Q1008

2010/08/09 16:00
LQSA 091600Z 31006KT 260V010 9999 FEW050 27/16 Q1017 NOSIG

2010/08/09 15:50
EKCH 091550Z 28010KT 240V310 9999 FEW040 SCT250 20/11 Q1014 NOSIG

2010/08/09 15:50
EKBI 091550Z 27009KT 230V300 9999 FEW025 BKN045 18/11 Q1015

2010/08/09 15:50
EKYT 091550Z 26014KT 9999 BKN034 18/10 Q1012

2010/08/09 15:50
EKRK 091550Z AUTO 28012KT 9999NDV SCT043/// 19/11 Q1014

2010/08/09 15:50
EKAH 091550Z AUTO 28010KT 9999NDV BKN039/// 18/09 Q1014

2010/08/09 15:50
EKEB 091550Z AUTO 26011KT 230V290 9999NDV BKN031/// 18/11 Q1015

2010/08/09 15:50
EKRN 091550Z AUTO 27010KT 9999NDV NCD 19/14 Q1015

2010/08/09 15:50
BGBW 091550Z 02002KT 9999 FEW015 BKN070 13/09 Q1008 RMK 1ST 7AC 

2010/08/09 15:50
ESGG 091550Z 25010KT 9999 SCT015 BKN025 17/14 Q1011

2010/08/09 15:50
ESGJ 091550Z 23010KT 9999 FEW018 BKN020 17/14 Q1010

2010/08/09 15:50
ESGP 091550Z 26011KT 9999 BKN019 OVC028 18/14 Q1011

2010/08/09 15:50
ESGT 091550Z 23010KT 9999 SCT015 FEW020CB SCT024 18/16 Q1010

2010/08/09 15:50
ESMK 091550Z 29010KT 9999 FEW031 SCT040 19/12 Q1013

2010/08/09 15:50
ESMQ 091550Z 25011KT 9999 FEW018 SCT029 BKN054 19/15 Q1012

2010/08/09 15:50
ESMS 091550Z 26010KT 9999 FEW038 SCT042 BKN048 19/11 Q1014

2010/08/09 15:50
ESMT 091550Z 26010KT 9999 SCT024 BKN030 17/14 Q1013

2010/08/09 15:50
ESMX 091550Z 26007KT 230V290 9999 FEW007 SCT008 BKN011 16/14 Q1012

2010/08/09 15:50
ESTA 091550Z 25012KT 9999 SCT022 OVC039 18/13 Q1013

2010/08/09 15:50
ESTL 091550Z AUTO 28013KT 9999NDV FEW030/// OVC040/// 18/13 Q1013

2010/08/09 15:50
EKKA 091550Z 28012KT 250V310 9999 FEW031 BKN040 17/10 Q1014

2010/08/09 15:50
EKSP 091550Z 28008KT 9999 FEW040 SCT220 18/10 Q1015

2010/08/09 15:50
EKVD 091550Z 31008KT 9999 BKN034 18/09 Q1015

2010/08/09 15:50
EKOD 091550Z 27010KT 9999 SCT048 18/09 Q1014

2010/08/09 15:50
EFHK 091550Z 18013KT 9999 FEW030CB SCT070 23/16 Q1011 TEMPO 7000 -SHRA

2010/08/09 15:50
EFJY 091550Z 21012KT 180V250 9999 FEW035TCU SCT045CB BKN090 21/15 Q1009

2010/08/09 15:50
EFKU 091550Z AUTO 17008KT CAVOK 23/17 Q1009

2010/08/09 15:50
EFOU 091550Z 29007KT 250V320 9999 FEW005 BKN016 20/19 Q1007

2010/08/09 15:50
EFRO 091550Z AUTO 36014KT 9999NDV BKN008 BKN010 14/13 Q1008

2010/08/09 15:50
EFTP 091550Z 19005KT 150V230 9999 BKN030 BKN060 21/16 Q1009

2010/08/09 15:50
EFTU 091550Z AUTO 18005KT 140V220 9999 BKN010 BKN017 OVC022 19/17 Q1008 RESHRA

2010/08/09 15:50
EFVA 091550Z 23003KT 9999 SCT010 SCT019 BKN023 20/18 Q1008

2010/08/09 15:50
EGBB 091550Z 20010KT 170V230 9999 SCT029 21/13 Q1012

2010/08/09 15:50
EGCC 091550Z 19012KT 9999 FEW028 BKN035 18/15 Q1010

2010/08/09 15:50
EGKK 091550Z 22012KT CAVOK 22/12 Q1014

2010/08/09 15:50
EGLL 091550Z 22013KT 190V250 9999 FEW049 24/10 Q1013

2010/08/09 15:50
EGPF 091550Z 25012KT 9999 FEW030 18/10 Q1007

2010/08/09 15:50
EGPH 091550Z 25012KT 9999 FEW010 FEW020TCU 17/13 Q1006

2010/08/09 15:50
EGPK 091550Z 24012KT 9999 SCT020 17/11 Q1008

2010/08/09 15:50
EGSS 091550Z 21013KT CAVOK 24/10 Q1013

2010/08/09 15:50
EKGF 091550Z 18021KT CAVOK 17/15 Q1013

2010/08/09 15:50
EKHN 091550Z AUTO VRB05KT 9999NDV NCD 18/14 Q1017

2010/08/09 15:50
EKHR 091550Z AUTO 25009KT 220V280 9999NDV NCD 17/11 Q1015

2010/08/09 15:45
KBYY 091545Z AUTO 17004KT 10SM BKN028 BKN033 33/26 A2997

2010/08/09 15:52
KNHK 091552Z 10008KT 7SM FEW020 SCT250 29/24 A3004 RMK AO2 SLP171 T02940239 

2010/08/09 15:52
KBLU 091552Z AUTO VRB04KT 10SM CLR 18/07 A3009 RMK AO2 SLP105 T01830072 TSNO 

2010/08/09 15:52
KNRB 091552Z 05011KT 10SM FEW018 BKN030 BKN065 32/25 A2998 RMK AO2 RAB36E47 SLP151 P0000 T03170250 

2010/08/09 15:52
KABI 091552Z 21010KT 10SM SCT080 31/22 A3000 RMK AO2 SLP129 T03110222 

2010/08/09 15:50
LSGS 091550Z 25015KT 9999 FEW100 27/11 Q1014

2010/08/09 15:50
LSZG 091550Z VRB02KT 9999 FEW050 26/13 Q1016 NOSIG

2010/08/09 15:50
LSZR 091550Z 27003KT 200V330 CAVOK 24/13 Q1016 NOSIG RMK M

2010/08/09 15:50
LSZS 091550Z 23017KT 9999 FEW090 19/10 Q1020

2010/08/09 15:48
KEHA 091548Z AUTO 30003KT 28/18

2010/08/09 15:45
KLNC 091545Z AUTO 19006KT 10SM CLR 32/24 A2996

2010/08/09 15:50
EDDB 091550Z 35003KT 9999 -SHRA SCT035CB SCT050 20/17 Q1015 TEMPO SHRA

2010/08/09 15:50
EDDC 091550Z 27006KT 9999 FEW046 BKN100 21/15 Q1016 NOSIG

2010/08/09 15:50
EDDE 091550Z 27006KT 9999 FEW042 SCT062 BKN120 20/13 Q1017 NOSIG

2010/08/09 15:50
EDDF 091550Z 20005KT 9999 FEW040 BKN070 23/12 Q1016 NOSIG

2010/08/09 15:50
EDDG 091550Z 23005KT 9999 SCT037 BKN250 21/13 Q1016 NOSIG

2010/08/09 15:50
EDDH 091550Z 32006KT 9999 FEW011 BKN030 BKN130 17/15 Q1016 NOSIG

2010/08/09 15:50
EDDK 091550Z 20006KT 9999 SCT040 SCT280 22/12 Q1016 NOSIG

2010/08/09 15:50
EDDL 091550Z 29001KT 9999 FEW040 BKN280 22/13 Q1016 NOSIG

2010/08/09 15:50
EDDM 091550Z 02004KT CAVOK 23/12 Q1017 NOSIG

2010/08/09 15:50
EDDN 091550Z 29002KT 9999 FEW035 BKN080 22/13 Q1017 NOSIG

2010/08/09 15:50
EDDP 091550Z 29005KT 9999 FEW020 SCT060 BKN100 20/15 Q1016 NOSIG

2010/08/09 15:50
EDDR 091550Z 33004KT CAVOK 22/08 Q1017 NOSIG

2010/08/09 15:50
EDDS 091550Z 36005KT CAVOK 23/11 Q1017 NOSIG

2010/08/09 15:50
EDDT 091550Z 30005KT 9999 -SHRA SCT035CB 23/16 Q1015 NOSIG

2010/08/09 15:50
EDDV 091550Z 28007KT 9999 FEW036 SCT060 BKN130 21/12 Q1016 NOSIG

2010/08/09 15:50
EDDW 091550Z 24005KT 9999 FEW030 BKN075 20/12 Q1016 NOSIG

2010/08/09 15:50
EKAH 091550Z AUTO 28010KT 9999NDV BKN039/// 18/09 Q1014

2010/08/09 15:50
EKBI 091550Z 27009KT 230V300 9999 FEW025 BKN045 18/11 Q1015

2010/08/09 15:50
EKCH 091550Z 28010KT 240V310 9999 FEW040 SCT250 20/11 Q1014 NOSIG

2010/08/09 15:50
EKKA 091550Z 28012KT 250V310 9999 FEW031 BKN040 17/10 Q1014

2010/08/09 15:50
EKRK 091550Z AUTO 28012KT 9999NDV SCT043/// 19/11 Q1014

2010/08/09 15:50
EKSP 091550Z 28008KT 9999 FEW040 SCT220 18/10 Q1015

2010/08/09 15:51
EKVG 091551Z 12012KT 9999 FEW012 BKN020 13/10 Q1009 RMK/RWY 13-31 CLOSED DUE WIP NOTAM E0050/10 WIND 850FT 13020KT

2010/08/09 15:50
ETNG 091550Z 25005KT 9999 FEW040 SCT260 22/12 Q1016 NOSIG

2010/08/09 15:55
ETOR 091555Z VRB01KT 9999 SCT035 SCT065 25/12 A3012 RMK BLU

2010/08/09 15:50
LSGG 091550Z 24007KT 200V290 9999 FEW060 29/12 Q1015 NOSIG

2010/08/09 15:50
LSZB 091550Z 31004KT 9999 FEW055 27/13 Q1016 NOSIG

2010/08/09 15:50
LSZH 091550Z 35005KT 300V030 9999 FEW048 25/13 Q1016 NOSIG

2010/08/09 15:45
KMMU 091545Z 24010G16KT 6SM HZ SCT050 32/19 A3001

2010/08/09 15:50
LXGB 091550Z 08007KT CAVOK 26/21 Q1014 NOSIG

2010/08/09 15:50
EDDB 091550Z 35003KT 9999 -SHRA SCT035CB SCT050 20/17 Q1015 TEMPO SHRA

2010/08/09 15:50
EDDC 091550Z 27006KT 9999 FEW046 BKN100 21/15 Q1016 NOSIG

2010/08/09 15:50
EDDE 091550Z 27006KT 9999 FEW042 SCT062 BKN120 20/13 Q1017 NOSIG

2010/08/09 15:50
EDDF 091550Z 20005KT 9999 FEW040 BKN070 23/12 Q1016 NOSIG

2010/08/09 15:50
EDDG 091550Z 23005KT 9999 SCT037 BKN250 21/13 Q1016 NOSIG

2010/08/09 15:50
EDDH 091550Z 32006KT 9999 FEW011 BKN030 BKN130 17/15 Q1016 NOSIG

2010/08/09 15:50
EDDK 091550Z 20006KT 9999 SCT040 SCT280 22/12 Q1016 NOSIG

2010/08/09 15:50
EDDL 091550Z 29001KT 9999 FEW040 BKN280 22/13 Q1016 NOSIG

2010/08/09 15:50
EDDM 091550Z 02004KT CAVOK 23/12 Q1017 NOSIG

2010/08/09 15:50
EDDN 091550Z 29002KT 9999 FEW035 BKN080 22/13 Q1017 NOSIG

2010/08/09 15:50
EDDP 091550Z 29005KT 9999 FEW020 SCT060 BKN100 20/15 Q1016 NOSIG

2010/08/09 15:50
EDDR 091550Z 33004KT CAVOK 22/08 Q1017 NOSIG

2010/08/09 15:50
EDDS 091550Z 36005KT CAVOK 23/11 Q1017 NOSIG

2010/08/09 15:50
EDDT 091550Z 30005KT 9999 -SHRA SCT035CB 23/16 Q1015 NOSIG

2010/08/09 15:50
EDDV 091550Z 28007KT 9999 FEW036 SCT060 BKN130 21/12 Q1016 NOSIG

2010/08/09 15:50
EDDW 091550Z 24005KT 9999 FEW030 BKN075 20/12 Q1016 NOSIG

2010/08/09 15:50
EKAH 091550Z AUTO 28010KT 9999NDV BKN039/// 18/09 Q1014

2010/08/09 15:50
EKBI 091550Z 27009KT 230V300 9999 FEW025 BKN045 18/11 Q1015

2010/08/09 15:50
EKCH 091550Z 28010KT 240V310 9999 FEW040 SCT250 20/11 Q1014 NOSIG

2010/08/09 15:50
EKKA 091550Z 28012KT 250V310 9999 FEW031 BKN040 17/10 Q1014

2010/08/09 15:50
EKSP 091550Z 28008KT 9999 FEW040 SCT220 18/10 Q1015

2010/08/09 15:51
EKVG 091551Z 12012KT 9999 FEW012 BKN020 13/10 Q1009 RMK/RWY 13-31 CLOSED DUE WIP NOTAM E0050/10 WIND 850FT 13020KT

2010/08/09 15:50
ETNG 091550Z 25005KT 9999 FEW040 SCT260 22/12 Q1016 NOSIG

2010/08/09 15:55
ETOR 091555Z VRB01KT 9999 SCT035 SCT065 25/12 A3012 RMK BLU

2010/08/09 16:00
LQSA 091600Z 31006KT 260V010 9999 FEW050 27/16 Q1017 NOSIG

2010/08/09 15:50
LSGG 091550Z 24007KT 200V290 9999 FEW060 29/12 Q1015 NOSIG

2010/08/09 15:50
LSZB 091550Z 31004KT 9999 FEW055 27/13 Q1016 NOSIG

2010/08/09 15:50
LSZH 091550Z 35005KT 300V030 9999 FEW048 25/13 Q1016 NOSIG

2010/08/09 15:52
KP69 091552Z AUTO 00000KT 18/14 A2988 RMK AO2 SLP101 T01830139 PWINO TSNO 

2010/08/09 15:45
KIKK 091545Z AUTO 24005KT 5SM HZ SCT046 29/23 A2995

2010/08/09 15:52
CYRV 091552Z AUTO 00000KT 9SM -RA SCT010 OVC031 OVC063 OVC079 16/15 A2986

2010/08/09 15:52
K9V9 091552Z AUTO 09004KT 26/21 A2992 RMK AO2 SLP118 T02610211 PWINO TSNO 

2010/08/09 15:55
KRDR 091555Z AUTO 00000KT 10SM CLR 30/19 A2985 RMK AO2 SLP118 T03030189 $

2010/08/09 15:50
MSLP 091550Z 13002KT 9999 FEW027 BKN300 31/23 Q1012 A2989

2010/08/09 15:55
MSLP 091555Z 13002KT 9999 FEW027 BKN300 31/23 Q1012

2010/08/09 16:00
SPIM 091600Z 21004KT 6000 OVC013 16/12 Q1018 NOSIG RMK PP000

2010/08/09 16:00
SBAR 091600Z 15012KT 9999 SCT018 27/21 Q1018

2010/08/09 16:00
SBFN 091600Z 10007KT 9999 BKN017 29/24 Q1014

2010/08/09 16:00
SBPA 091600Z 25002KT 9999 SCT030 14/09 Q1026

2010/08/09 16:00
SBSL 091600Z 12004KT 9999 BKN020 31/23 Q1013

2010/08/09 16:00
SBSV 091600Z 11008KT 9999 FEW017 26/18 Q1018

2010/08/09 16:00
SPIM 091600Z 21004KT 6000 OVC013 16/12 Q1018 NOSIG RMK PP000

2010/08/09 15:50
HLLM 091550Z 01009KT 8000 FEW020 28/18 Q1016

2010/08/09 15:50
BGBW 091550Z 02002KT 9999 FEW015 BKN070 13/09 Q1008 RMK 1ST 7AC

2010/08/09 15:50
BGJN 091550Z 36003KT 9999 BKN150 11/02 Q1007 RMK 6AC

2010/08/09 15:50
BGKK 091550Z 23013KT 9999 FEW080 SCT220 12/M00 Q1009

2010/08/09 15:55
KBLV 091555Z AUTO VRB03KT 10SM CLR 31/26 A2996 RMK AO2 SLP140 T03140260

2010/08/09 15:50
KBYH 091550Z 00000KT 8SM BKN250 33/26 A2998

2010/08/09 15:55
KLRF 091555Z AUTO 00000KT 10SM CLR 33/25 A2997 RMK AO2 SLP148 T03270253

2010/08/09 15:55
KRDR 091555Z AUTO 00000KT 10SM CLR 30/19 A2985 RMK AO2 SLP118 T03030189 $

2010/08/09 15:51
KSAN 091551Z 35003KT 10SM OVC015 18/13 A2994 RMK AO2 SLP139 T01780133

2010/08/09 15:50
LLBG 091550Z 32008KT 9999 SCT026 29/23 Q1006 NOSIG

2010/08/09 15:50
LLET 091550Z 01016G26KT CAVOK 40/14 Q1001

2010/08/09 15:50
LLOV 091550Z 35010KT CAVOK 35/14 Q1006

2010/08/09 16:00
MPTO 091600Z 00000KT 9999 FEW009 SCT016 BKN080 28/24 Q1013 NOSIG RWY DAMP REDZ

2010/08/09 15:55
MSAC 091555Z 13004KT 9999 FEW037 BKN300 29/24 Q1011

2010/08/09 15:55
MSLP 091555Z 13002KT 9999 FEW027 BKN300 31/23 Q1012

2010/08/09 15:55
MSSA 091555Z 00000KT CAVOK 27/20 Q1016

2010/08/09 15:55
MSSM 091555Z 36002KT CAVOK 28/25 Q1011

2010/08/09 15:55
MSSS 091555Z 34003KT 9999 FEW020 BKN300 26/23 Q1016

2010/08/09 15:50
OAFZ 091550Z AUTO 22007KT //// ////// 31/02 Q1011

2010/08/09 15:50
OAKB 091550Z 13007KT 9999 SCT080 BKN110 25/17 Q1012 NOSIG RMK BLU BLU

2010/08/09 15:50
OAUZ 091550Z AUTO 24003KT ////// 35/07 Q1003

2010/08/09 16:00
OKBK 091600Z 15009KT 7000 NSC 40/07 Q0996 NOSIG

2010/08/09 16:00
OSAP 091600Z 27015KT CAVOK 33/15 Q1004

2010/08/09 16:00
OSDI 091600Z 22015KT CAVOK 38/04 Q1005

2010/08/09 16:00
OSLK 091600Z 23006KT 9999 SCT030 29/22 Q1005

2010/08/09 15:51
KVCT 091551Z 17007KT 10SM FEW031 33/24 A2997 RMK AO2 SLP147 T03280239 PNO $ 

2010/08/09 15:53
KCTY 091553Z AUTO 04008KT 32/24 A2996 RMK AO2 SLP145 T03170244 PWINO TSNO 

2010/08/09 15:53
KMSY 091553Z 33011KT 10SM SCT020 BKN250 32/26 A2997 RMK AO2 SLP153 T03220261 

2010/08/09 15:53
KMWT 091553Z AUTO 00000KT 10SM CLR 32/23 A2998 RMK AO2 SLP137 T03220233 TSNO 

2010/08/09 15:53
KSAV 091553Z 03012G17KT 10SM FEW030 SCT250 33/21 A3001 RMK AO2 SLP160 T03280211 

2010/08/09 15:53
KTLH 091553Z 05010G16KT 10SM FEW050 32/21 A2998 RMK AO2 SLP149 T03220206 

2010/08/09 15:53
KOQT 091553Z AUTO 26005KT 10SM CLR 31/23 A3008 RMK AO2 SLP166 T03110228 TSNO 

2010/08/09 16:00
FAJS 091600Z 21014KT CAVOK 11/M10 Q1025 NOSIG

2010/08/09 15:53
KSDM 091553Z 00000KT 10SM BKN011 16/12 A2993 RMK AO2 SLP134 T01610122 

2010/08/09 15:53
KHTL 091553Z AUTO 25006KT 9SM CLR 24/22 A2991 RMK AO2 SLP122 T02440217 

2010/08/09 15:50
KHJH 091550Z AUTO 09003KT 10SM CLR 31/23 A2987 RMK AO2 T03120228

2010/08/09 15:52
KHUT 091552Z 22008KT 10SM CLR 35/20 A2992 RMK AO2 SLP101 T03500200

2010/08/09 15:52
KIAD 091552Z VRB04KT 9SM BKN250 31/21 A3003 RMK AO2 SLP165 T03060206

2010/08/09 15:50
KIBM 091550Z AUTO 25010KT 10SM CLR 25/14 A3009 RMK AO2 T02500139

2010/08/09 15:50
KIDP 091550Z AUTO 16004KT 10SM CLR 32/22 A2993 RMK AO2

2010/08/09 15:52
KIEN 091552Z AUTO 17007KT 10SM CLR 29/18 A2997 RMK AO2 SLP116 T02940183

2010/08/09 15:52
KIJD 091552Z AUTO 27005KT 10SM CLR 30/19 A3000 RMK AO2 SLP155 T03000189

2010/08/09 15:52
KIOW 091552Z AUTO 00000KT 10SM FEW060 26/22 A2993 RMK AO2 SLP128 T02610217

2010/08/09 15:52
KISN 091552Z 04003KT 10SM CLR 23/15 A2986 RMK AO2 SLP102 T02330150

2010/08/09 15:47
KIWA 091547Z 17005KT 45SM SCT120 32/12 A2991

2010/08/09 15:51
KJSV 091551Z AUTO 21005KT 10SM CLR 32/22 A2997 RMK AO2

2010/08/09 15:54
KJWG 091554Z AUTO 21009KT 10SM CLR 33/23 A2993 RMK AO2

2010/08/09 15:50
KJYR 091550Z AUTO 00000KT 10SM FEW014 29/23 A2989 RMK AO2

2010/08/09 15:50
KLAM 091550Z AUTO 06003KT 10SM CLR 20/12 A3028 RMK AO2

2010/08/09 15:50
KLCG 091550Z AUTO 36003KT 5SM BR OVC005 23/22 A2991 RMK AO2 T02310219

2010/08/09 15:50
KLHM 091550Z AUTO 17007KT 10SM CLR 19/12 A2987 RMK AO1 T01850119

2010/08/09 15:52
KLWC 091552Z AUTO 22005KT 10SM CLR 33/23 A2990 RMK AO2 SLP114 T03330233

2010/08/09 15:50
KLXN 091550Z AUTO 05005KT 10SM CLR 27/22 A2994 RMK AO2 T02730216

2010/08/09 15:52
KMDH 091552Z VRB03KT 10SM CLR 34/24 A2996 RMK AO2 SLP142 T03440244

2010/08/09 15:52
KMEB 091552Z AUTO 10003KT 10SM CLR 31/22 A3005 RMK AO2 SLP171 T03110217

2010/08/09 15:45
KMER 091545Z 32007KT 10SM SKC 21/14 A2988

2010/08/09 15:52
KMFD 091552Z 23007KT 9SM CLR 28/17 A3004 RMK AO2 SLP162 T02830172

2010/08/09 15:52
KMHK 091552Z 21008KT 10SM CLR 34/21 A2987 RMK AO2 SLP100 T03390211

2010/08/09 15:55
KUDG 091555Z 04006KT 10SM CLR 31/23 A3006 RMK AO1

2010/08/09 15:52
KUGN 091552Z 17007KT 10SM BR BKN004 24/22 A2994 RMK AO2 SLP126 T02440217

2010/08/09 15:52
KVTN 091552Z AUTO 00000KT 10SM FEW005 26/21 A2997 RMK AO2 SLP128 T02560211

2010/08/09 15:48
KWWR 091548Z AUTO 17008KT 10SM CLR 34/19 A2995 RMK AO2 T03380193

2010/08/09 15:50
KXFL 091550Z 04008KT 10SM BKN019 BKN025 29/26 A2997

2010/08/09 15:52
KMKE 091552Z 21010KT 10SM SCT012 BKN160 BKN240 26/23 A2992 RMK AO2 SLP126 T02560228

2010/08/09 15:50
KMLE 091550Z AUTO 26005KT 10SM CLR 28/22 A2986 RMK AO2 T02830223

2010/08/09 15:52
KMLI 091552Z 00000KT 10SM CLR 25/22 A2992 RMK AO2 RAE22 SLP127 P0001 T02500222

2010/08/09 15:49
KMMH 091549Z AUTO 00000KT 10SM CLR 14/02 A3018 RMK AO1

2010/08/09 15:52
KMWH 091552Z AUTO 00000KT 10SM CLR 21/12 A2983 RMK AO2 SLP095 T02060122 TSNO

2010/08/09 15:55
KOAJ 091555Z AUTO 07007KT 10SM CLR 31/23 A3005 RMK AO1

2010/08/09 15:50
KOGA 091550Z AUTO 07004KT 10SM CLR 29/18 A2999 RMK AO2 LTG DSNT S T02850176

2010/08/09 15:50
KOJA 091550Z AUTO 20009G15KT 10SM CLR 32/21 A2993 RMK AO2

2010/08/09 15:52
KOKB 091552Z AUTO 00000KT 9SM OVC017 18/13 A2992 RMK AO2 SLP131 T01830133

2010/08/09 15:52
KOKC 091552Z 17012KT 10SM FEW250 32/22 A2993 RMK AO2 SLP114 T03220217 $

2010/08/09 15:51
KOKM 091551Z AUTO 19011G15KT 10SM CLR 34/24 A2995 RMK AO1

2010/08/09 15:52
KOMA 091552Z 17006KT 10SM SCT140 SCT250 30/24 A2985 RMK AO2 SLP097 T03000239

2010/08/09 15:50
KONL 091550Z AUTO 04006KT 7SM OVC001 22/22 A2992 RMK AO2 T02210219

2010/08/09 15:52
KORE 091552Z AUTO 29010KT 10SM FEW048 29/17 A2999 RMK AO2 SLP152 T02940167

2010/08/09 15:50
KORS 091550Z AUTO 00000KT 9SM OVC015 15/13 A2993 RMK AO2

2010/08/09 15:52
KOUN 091552Z AUTO 21013KT 10SM CLR 34/22 A2994 RMK AO2

2010/08/09 15:50
KPLU 091550Z AUTO 23004KT 3SM BR OVC005 13/13 A2996 RMK AO2

2010/08/09 15:52
KPPF 091552Z AUTO VRB03KT 10SM CLR 33/23 A2995 RMK AO2 SLP130 T03280233

2010/08/09 15:50
KPTS 091550Z AUTO 19008KT 10SM CLR 33/22 A2995 RMK AO2 T03320220

2010/08/09 15:48
KPVJ 091548Z AUTO 21011KT 10SM CLR 35/23 A2994 RMK AO2

2010/08/09 15:52
KPWK 091552Z 15005KT 10SM FEW009 26/23 A2996 RMK AO2 SLP141 T02560228

2010/08/09 15:52
KPYM 091552Z AUTO 21009G15KT 10SM CLR 31/21 A2998 RMK AO2 SLP152 T03060206

2010/08/09 15:52
KRAP 091552Z 17008KT 10SM CLR 28/17 A2996 RMK AO2 SLP115 T02780172

2010/08/09 15:48
K4O4 091548Z AUTO 22005KT 10SM CLR 32/22 A2998 RMK AO2

2010/08/09 15:51
KADH 091551Z AUTO 20011G15KT 10SM CLR 33/19 A2995 RMK AO2

2010/08/09 15:50
KAFK 091550Z AUTO 16008KT 10SM CLR 31/24 A2987 RMK AO2 T03110238

2010/08/09 15:52
KAFN 091552Z AUTO 25007KT 10SM FEW090 27/16 A3001 RMK AO2 SLP160 T02720161

2010/08/09 15:45
KALM 091545Z AUTO 28003KT 10SM BKN120 24/14 A3009 RMK AO2

2010/08/09 15:52
KALS 091552Z AUTO 00000KT 10SM BKN100 19/10 A3029 RMK AO2 SLP160 T01940100 $

2010/08/09 15:50
KANW 091550Z AUTO 34005KT 10SM CLR 24/21 A2996 RMK AO2 T02360213

2010/08/09 15:52
KAQW 091552Z AUTO VRB05KT 10SM FEW045 28/18 A2999 RMK AO2 SLP151 T02830183

2010/08/09 15:52
KARR 091552Z AUTO 00000KT 9SM SCT065 24/22 A2996 RMK AO2 RAB16E30 SLP139 P0000 T02440222

2010/08/09 15:52
KATL 091552Z 00000KT 9SM FEW040 32/22 A3007 RMK AO2 SLP170 T03170217

2010/08/09 15:50
KATS 091550Z AUTO 17006KT 10SM CLR 26/16 A3004 RMK AO2

2010/08/09 15:50
KAUH 091550Z AUTO 05004KT 10SM CLR 27/21 A2990 RMK AO2 T02700205

2010/08/09 15:50
KAUN 091550Z AUTO 00000KT 10SM CLR 23/11 A2991 RMK AO1

2010/08/09 15:50
KAXS 091550Z AUTO 19007KT 10SM CLR 32/21 A2992 RMK AO2 T03150208

2010/08/09 15:50
KAXX 091550Z AUTO 00000KT 10SM OVC100 13/11 A3036 RMK AO2

2010/08/09 15:52
KBDR 091552Z 21009KT 9SM CLR 28/21 A3000 RMK AO2 SLP159 T02780206

2010/08/09 15:50
KBIE 091550Z AUTO 29004KT 10SM CLR 30/22 A2986 RMK AO2 T03030220

2010/08/09 15:52
KBIS 091552Z 20008KT 10SM CLR 29/19 A2988 RMK AO2 SLP105 T02890194

2010/08/09 15:52
KBLF 091552Z AUTO VRB04KT 10SM CLR 28/16 A3018 RMK AO2 SLP175 T02780156

2010/08/09 15:52
KBLH 091552Z AUTO 04003KT 10SM CLR 31/06 A2983 RMK AO2 SLP093 T03110061

2010/08/09 15:52
KBML 091552Z AUTO VRB03KT 10SM SCT033 24/17 A2997 RMK AO2 SLP145 T02440167

2010/08/09 15:50
KBTA 091550Z AUTO 22004KT 10SM SCT010 28/23 A2987 RMK AO2 T02780234

2010/08/09 15:50
KBVN 091550Z AUTO 05005KT 10SM CLR 25/21 A2992 RMK AO2 T02520213

2010/08/09 15:45
KBVS 091545Z AUTO 19005KT 8SM OVC007 14/13 A2997 RMK A01 P000

2010/08/09 15:52
KCFV 091552Z AUTO VRB05KT 10SM CLR 34/23 A2994 RMK AO2 SLP127 T03390233

2010/08/09 15:50
KCHK 091550Z AUTO 20012KT 10SM CLR 33/23 A2992 RMK AO2

2010/08/09 15:47
KCIC 091547Z 00000KT 40SM SKC A2989

2010/08/09 15:52
KCID 091552Z 16003KT 10SM FEW100 26/21 A2992 RMK AO2 RAE01 SLP123 P0000 T02610211

2010/08/09 15:52
KCKV 091552Z AUTO 29006KT 10SM CLR 32/23 A3000 RMK AO2 SLP152 T03170233

2010/08/09 15:50
KCLK 091550Z AUTO 18008KT 10SM CLR 31/17 A2992 RMK AO2

2010/08/09 15:52
KCLT 091552Z 22005KT 9SM FEW030 SCT250 32/22 A3007 RMK AO2 SLP172 T03220217

2010/08/09 15:52
KCNU 091552Z AUTO 18008G15KT 10SM CLR 33/23 A2995 RMK AO2 SLP128 T03330228

2010/08/09 15:50
KCQB 091550Z AUTO 22007KT 10SM SCT095 33/23 A2994 RMK AO2 TSNO

2010/08/09 15:52
KCQX 091552Z AUTO 21007G14KT 10SM FEW007 SCT012 28/23 A3002 RMK AO2 SLP165 T02830228

2010/08/09 15:50
KCUH 091550Z AUTO 20006KT 10SM CLR 34/22 A2993 RMK AO2

2010/08/09 15:52
KCVG 091552Z 22005KT 9SM SCT250 31/18 A3003 RMK AO2 SLP158 T03110178

2010/08/09 15:52
KDCA 091552Z 16008KT 8SM FEW050 SCT250 31/21 A3003 RMK AO2 SLP169 T03110206

2010/08/09 15:52
KDDC 091552Z AUTO 31003KT 10SM CLR 31/18 A2994 RMK AO2 SLP097 T03110178

2010/08/09 15:52
KDPA 091552Z 18003KT 8SM FEW075 26/22 A2995 RMK AO2 SLP134 T02560222

2010/08/09 15:52
KDVN 091552Z AUTO 32006KT 10SM CLR 24/22 A2993 RMK AO2 PK WND 33032/1500 RAE25B41E52 SLP128 P0002 T02440217

2010/08/09 15:50
KDVO 091550Z AUTO 00000KT 10SM OVC006 13/12 A2994 RMK AO2

2010/08/09 15:52
KEST 091552Z AUTO 18006KT 10SM BKN017 OVC021 26/22 A2994 RMK AO2 SLP128 T02560222

2010/08/09 15:50
KFET 091550Z AUTO 30004KT 10SM BKN007 26/23 A2988 RMK AO2 T02620228

2010/08/09 15:52
KFIT 091552Z AUTO 26006G14KT 10SM FEW085 31/17 A2998 RMK AO2 SLP149 T03060172

2010/08/09 15:52
KGCM 091552Z AUTO 18007KT 10SM CLR 32/23 A2997 RMK AO2

2010/08/09 15:51
KGMJ 091551Z AUTO 20003KT 10SM CLR 34/21 A2998 RMK AO2

2010/08/09 15:45
KGYY 091545Z 14006KT 7SM SCT033 BKN095 OVC110 26/22 A2995

2010/08/09 15:50
KHDE 091550Z AUTO 09007KT 10SM CLR 27/20 A2993 RMK AO2 T02700204

2010/08/09 15:52
KHIE 091552Z AUTO 25007KT 10SM FEW032 SCT042 25/18 A2998 RMK AO2 SLP147 T02500178

2010/08/09 15:51
KRKR 091551Z AUTO 22006KT 10SM CLR 37/26 A2996 RMK AO2

2010/08/09 15:52
KSGF 091552Z 27003KT 10SM CLR 32/23 A2999 RMK AO2 SLP139 T03220228

2010/08/09 15:53
KSNL 091553Z AUTO 19009KT 10SM CLR 34/22 A2995 RMK AO2

2010/08/09 15:55
KSOP 091555Z AUTO 05005KT 10SM CLR 32/22 A3005 RMK AO1

2010/08/09 15:52
KSPI 091552Z 00000KT 10SM CLR 30/24 A2995 RMK AO2 SLP136 T03000239

2010/08/09 15:52
KSPS 091552Z 22013G22KT 10SM FEW070 34/21 A2991 RMK AO2 PK WND 22026/1456 SLP112 P0004 T03390206

2010/08/09 15:50
KSRE 091550Z AUTO 20010KT 10SM CLR 33/21 A2995 RMK AO2

2010/08/09 15:52
KSUX 091552Z 05004KT 10SM OVC009 26/22 A2988 RMK AO2 SLP110 T02560222

2010/08/09 15:45
KSVC 091545Z AUTO 04003KT 10SM CLR 24/10 A3018 RMK AO2

2010/08/09 15:52
KTAN 091552Z AUTO 22005KT 10SM SCT100 29/22 A2996 RMK AO2 SLP146 T02940222

2010/08/09 15:54
KTMK 091554Z AUTO 00000KT 10SM OVC023 15/12 A3001 RMK AO2

2010/08/09 15:52
KTOL 091552Z 23006KT 8SM CLR 28/19 A2998 RMK AO2 SLP148 T02830194

2010/08/09 15:53
KTQH 091553Z AUTO 20005KT 10SM CLR 35/23 A2998 RMK AO2

2010/08/09 15:52
KTRM 091552Z AUTO 34003KT 10SM CLR 29/06 A2978 RMK AO2 SLP088 T02890061

2010/08/09 15:52
PAAP 091552Z COR 00000KT 1SM BR BKN000 OVC002 12/11 A2999 RMK BR BKN000 NO SPECI

2010/08/09 15:53
KABR 091553Z AUTO 19008KT 10SM CLR 29/19 A2991 RMK AO2 SLP121 T02890189

2010/08/09 15:53
KACV 091553Z AUTO 31003KT 7SM FEW002 OVC009 12/11 A2994 RMK AO2 SLP145 T01170111

2010/08/09 15:53
KAEX 091553Z 32004KT 10SM CLR 33/24 A2997 RMK AO2 SLP149 T03280239

2010/08/09 15:53
KAGS 091553Z 00000KT 7SM CLR 32/24 A3003 RMK AO2 SLP165 T03170239

2010/08/09 15:53
KALI 091553Z AUTO 16008KT 10SM BKN028 32/24 A2995 RMK AO2 SLP138 T03170244

2010/08/09 15:53
KALW 091553Z 21007KT 10SM CLR 23/07 A2987 RMK AO2 SLP108 T02280072

2010/08/09 15:53
KAMA 091553Z 21006KT 10SM CLR 30/16 A3003 RMK AO2 SLP105 T03000161

2010/08/09 15:53
KAMW 091553Z AUTO 15008KT 10SM FEW090 27/23 A2991 RMK AO2 SLP119 T02720228

2010/08/09 15:53
KANB 091553Z AUTO VRB04KT 9SM CLR 32/23 A3004 RMK AO2 SLP159 T03220233

2010/08/09 15:50
KANE 091550Z 02004KT 12SM SKC 28/23 A2992

2010/08/09 15:53
KAOO 091553Z AUTO 00000KT 10SM CLR 28/14 A3008 RMK AO2 SLP176 T02780144

2010/08/09 15:53
KARA 091553Z 31005KT 10SM SCT025 32/26 A2999 RMK AO2 SLP154 T03170256

2010/08/09 15:53
KASD 091553Z AUTO 01008KT 10SM CLR 32/26 A2997 RMK AO2 SLP148 T03220256

2010/08/09 15:53
KASX 091553Z AUTO 00000KT 10SM FEW012 26/22 A2992 RMK AO2 SLP129 T02560222

2010/08/09 15:53
KATY 091553Z AUTO 14004KT 10SM CLR 28/18 A2994 RMK AO2 SLP126 T02780178

2010/08/09 15:53
KAUS 091553Z 21007KT 10SM FEW026 32/22 A2998 RMK AO2 SLP140 T03170217

2010/08/09 15:53
KAWM 091553Z AUTO 00000KT 10SM FEW090 32/26 A2997 RMK AO2 SLP141 T03220256

2010/08/09 15:53
KAXN 091553Z AUTO 00000KT 10SM CLR 28/17 A2996 RMK AO2 SLP136 T02830172

2010/08/09 15:53
KAZO 091553Z 18007KT 3SM RA BR BKN023 BKN049 OVC065 23/22 A3000 RMK AO2 RAB20 SLP152 P0006 T02280217

2010/08/09 15:53
KBDE 091553Z AUTO 00000KT 10SM CLR 26/21 A2988 RMK AO2 SLP115 T02610206

2010/08/09 15:53
KBEH 091553Z AUTO 16006KT 10SM FEW045 OVC090 23/22 A2997 RMK AO2 TSE1459B18E33RAE36 SLP143 P0010 T02330217

2010/08/09 15:53
KBFD 091553Z AUTO VRB04KT 10SM CLR 24/16 A3009 RMK AO2 SLP174 T02440156

2010/08/09 15:53
KBFI 091553Z 22003KT 10SM OVC014 16/12 A2997 RMK AO2 SLP147 T01560117

2010/08/09 15:53
KBFM 091553Z 04007KT 10SM SCT017 31/24 A2999 RMK AO2 SLP156 T03060244

2010/08/09 15:53
KBHM 091553Z 11004KT 10SM FEW040 33/22 A3004 RMK AO2 SLP162 T03330217

2010/08/09 15:53
KBIV 091553Z AUTO 23004KT 10SM -RA FEW001 25/22 A2996 RMK AO2 SLP142 P0000 T02500222

2010/08/09 15:53
KBKE 091553Z AUTO 00000KT 10SM FEW100 20/08 A2993 RMK AO2 SLP112 T02000078

2010/08/09 15:53
KBLI 091553Z 17007KT 10SM FEW007 SCT046 15/12 A2994 RMK AO2 SLP144 T01500122

2010/08/09 15:53
KBMQ 091553Z AUTO 20007KT 10SM CLR 30/19 A3002 RMK AO2 SLP145 T03000194 $

2010/08/09 15:53
KBNA 091553Z 00000KT 10SM SCT036 BKN200 33/24 A3002 RMK AO2 SLP156 T03330239

2010/08/09 15:53
KBPK 091553Z AUTO 22003KT 8SM CLR 31/25 A3000 RMK AO2 SLP145 T03110250

2010/08/09 15:53
KBPT 091553Z 00000KT 10SM FEW028 32/25 A2998 RMK AO2 SLP152 T03170250

2010/08/09 15:53
KBRD 091553Z AUTO 27004KT 10SM CLR 27/18 A2993 RMK AO2 SLP130 T02720178

2010/08/09 15:53
KESF 091553Z AUTO 28006KT 10SM CLR 33/24 A2998 RMK AO2 SLP151 T03280239

2010/08/09 15:53
KFCM 091553Z 35005KT 10SM CLR 30/21 A2991 RMK AO2 SLP121 T03000211

2010/08/09 15:53
KFFC 091553Z AUTO 00000KT 9SM CLR 33/22 A3007 RMK AO2 SLP173 T03280217

2010/08/09 15:53
KFHR 091553Z AUTO 00000KT 10SM FEW011 SCT021 15/12 A2996 RMK AO2 SLP144 T01500117

2010/08/09 15:53
KFMN 091553Z 00000KT 10SM CLR 24/11 A3018 RMK AO2 SLP155 T02440106

2010/08/09 15:53
KFSM 091553Z 21003KT 10SM CLR 34/22 A2996 RMK AO2 SLP137 T03390222

2010/08/09 15:53
KFTY 091553Z 00000KT 7SM FEW037 32/22 A3006 RMK AO2 SLP168 T03170222

2010/08/09 15:53
KFYV 091553Z 21005KT 10SM CLR 32/22 A3001 RMK AO2 SLP144 T03170222

2010/08/09 15:53
KGEG 091553Z 18003KT 10SM FEW080 SCT200 19/09 A2988 RMK AO2 SLP103 T01890094

2010/08/09 15:53
KGFK 091553Z 21004KT 10SM CLR 29/20 A2984 RMK AO2 SLP100 T02940200

2010/08/09 15:53
KGLH 091553Z 28004KT 10SM CLR 34/24 A2996 RMK AO2 SLP150 T03390239

2010/08/09 15:53
KGLR 091553Z AUTO 00000KT 6SM BR FEW010 OVC032 23/21 A2992 RMK AO2 SLP124 T02280211

2010/08/09 15:53
KGMU 091553Z 27005KT 10SM FEW036 31/21 A3010 RMK AO2 SLP178 T03110211

2010/08/09 15:53
KGPT 091553Z AUTO 03009KT 10SM FEW080 34/25 A2997 RMK AO2 SLP148 T03390250

2010/08/09 15:53
KGRB 091553Z 24005KT 10SM CLR 28/22 A2987 RMK AO2 SLP112 T02830222

2010/08/09 15:53
KGRI 091553Z VRB05KT 10SM CLR 27/20 A2991 RMK AO2 SLP109 T02720200

2010/08/09 15:53
KGRR 091553Z 25004KT 10SM FEW032 BKN100 OVC160 24/22 A2996 RMK AO2 RAB1459E53 SLP138 P0001 T02390222

2010/08/09 15:53
KGSH 091553Z AUTO 15008KT 8SM CLR A2999 RMK AO2 LTG DSNT N SLPNO PWINO FZRANO $

2010/08/09 15:53
KGSP 091553Z VRB03KT 10SM CLR 31/22 A3008 RMK AO2 SLP170 T03110217

2010/08/09 15:53
KGUP 091553Z AUTO 00000KT 10SM CLR 21/13 A3026 RMK AO2 SLP102 T02060133

2010/08/09 15:53
KGVL 091553Z AUTO 14003KT 10SM FEW100 30/21 A3012 RMK AO2 SLP181 T03000211

2010/08/09 15:53
KGWO 091553Z AUTO VRB03KT 10SM CLR 34/25 A2998 RMK AO2 SLP148 T03390250

2010/08/09 15:53
KHBG 091553Z AUTO 03004KT 10SM FEW019 32/25 A2999 RMK AO2 SLP152 T03170250 $

2010/08/09 15:53
KHEI 091553Z AUTO 17009KT 10SM CLR 28/18 A2991 RMK AO2 SLP102 T02780183

2010/08/09 15:53
KHGR 091553Z 00000KT 9SM CLR 32/15 A3002 RMK AO2 SLP165 T03220150

2010/08/09 15:53
KHIB 091553Z AUTO 00000KT 10SM BKN003 23/22 A2992 RMK AO2 CIG 002V006 SLP128 T02280217

2010/08/09 15:53
KHIO 091553Z 32006KT 10SM OVC026 14/09 A3000 RMK AO2 SLP157 T01390089

2010/08/09 15:53
KHJO 091553Z AUTO 00000KT 10SM CLR 20/13 A2989 RMK AO2 SLP120 T02000128

2010/08/09 15:53
KHKA 091553Z AUTO 28004KT 6SM HZ CLR 32/25 A2998 RMK AO2 SLP150 T03170250

2010/08/09 15:53
KHKS 091553Z VRB03KT 10SM CLR 32/26 A3000 RMK AO2 SLP149 T03220256

2010/08/09 15:53
KHKY 091553Z VRB04KT 8SM SCT030 BKN065 29/22 A3009 RMK AO2 SLP165 T02940217

2010/08/09 15:53
KHOT 091553Z AUTO VRB03KT 10SM CLR 34/23 A2999 RMK AO2 SLP145 T03390233

2010/08/09 15:53
KHOU 091553Z 22007KT 10SM SCT032 32/23 A2997 RMK AO2 SLP154 T03220233

2010/08/09 15:53
KBTL 091553Z 25004KT 9SM -TSRA BKN060 23/21 A2999 RMK AO2 TSB52RAE09B52 SLP150 P0000 T02330211

2010/08/09 15:51
KBVE 091551Z AUTO 00000KT 7SM -RA FEW090 28/26 A2999 RMK AO2 RAB1453 PRESRR SLP156 P0000 T02830256 TSNO

2010/08/09 15:53
KBWG 091553Z AUTO VRB05KT 10SM CLR 32/23 A3001 RMK AO2 SLP155 T03220228

2010/08/09 15:51
KCAK 091551Z VRB05KT 10SM SCT250 28/18 A3004 RMK AO2 SLP163 T02780178

2010/08/09 15:53
KCCR 091553Z 23007KT 10SM OVC011 15/11 A2992 RMK AO2 SLP117 T01500111

2010/08/09 15:55
KCDN 091555Z AUTO 10004KT 10SM CLR 33/25 A3005 RMK A02 P000

2010/08/09 15:53
KCHO 091553Z 00000KT 9SM CLR 31/21 A3004 RMK AO2 SLP165 T03110211

2010/08/09 15:55
KCKI 091555Z AUTO 03005KT 10SM CLR 31/21 A3003 RMK AO2

2010/08/09 15:53
KCLL 091553Z 20007KT 10SM FEW031 32/23 A2999 RMK AO2 SLP148 T03170228

2010/08/09 15:53
KLLQ 091553Z AUTO 31005KT 10SM CLR 33/24 A2998 RMK AO2 SLP147 T03330244

2010/08/09 15:53
KLOL 091553Z AUTO 17003KT 10SM CLR 24/06 A2998 RMK AO2 SLP107 T02390061

2010/08/09 15:53
KLSE 091553Z 18004KT 10SM OVC019 27/22 A2991 RMK AO2 SLP118 T02670222

2010/08/09 15:53
KLVJ 091553Z AUTO 00000KT 10SM FEW032 32/24 A2999 RMK AO2 SLP155 T03170239

2010/08/09 15:53
KMCB 091553Z AUTO 32005KT 10SM SCT025 32/24 A3000 RMK AO2 SLP151 T03170239

2010/08/09 15:53
KMEM 091553Z VRB05KT 10SM FEW150 BKN250 33/25 A2998 RMK AO2 SLP148 T03330250

2010/08/09 15:55
KMEZ 091555Z AUTO 26004KT 10SM CLR 33/22 A3001 RMK AO2

2010/08/09 15:53
KMFE 091553Z 15008KT 10SM 32/24 A2993 RMK AO2 SLP133 T03170244 $

2010/08/09 15:53
KMFR 091553Z 34003KT 10SM CLR 18/11 A2994 RMK AO2 SLP128 T01830106

2010/08/09 15:53
KMHE 091553Z AUTO 06003KT 10SM CLR 27/22 A2991 RMK AO2 SLP119 T02670217 TSNO

2010/08/09 15:53
KMIC 091553Z 34003KT 10SM CLR 29/21 A2990 RMK AO2 SLP119 T02940211

2010/08/09 15:53
KMIW 091553Z AUTO 13008KT 10SM OVC080 26/22 A2992 RMK AO2 SLP121 T02560222

2010/08/09 15:53
KMKL 091553Z VRB04KT 10SM CLR 31/26 A3000 RMK AO2 SLP152 T03060256

2010/08/09 15:53
KMLP 091553Z AUTO VRB03KT 10SM CLR 14/06 A3003 RMK AO2 SLP081 T01390061 TSNO

2010/08/09 15:53
KMMV 091553Z AUTO 36004KT 10SM OVC018 14/11 A3001 RMK AO2 SLP162 T01390106

2010/08/09 15:53
KMOD 091553Z 34007KT 10SM CLR 18/12 A2989 RMK AO2 SLP119 T01830122

2010/08/09 15:53
KMRB 091553Z 00000KT 8SM CLR 31/16 A3002 RMK AO2 SLP161 T03110161

2010/08/09 15:53
KMSL 091553Z AUTO VRB03KT 10SM CLR 32/24 A3003 RMK AO2 SLP160 T03220239

2010/08/09 15:53
KMSP 091553Z VRB04KT 10SM FEW150 31/21 A2991 RMK AO2 SLP121 T03060211

2010/08/09 15:53
KMSY 091553Z 33011KT 10SM SCT020 BKN250 32/26 A2997 RMK AO2 SLP153 T03220261

2010/08/09 15:53
KMYV 091553Z AUTO 18004KT 10SM CLR 17/12 A2988 RMK AO2 SLP122 T01670117

2010/08/09 15:53
KNEW 091553Z 34010KT 10SM CLR 32/26 A2998 RMK AO2 SLP145 T03220261

2010/08/09 15:53
KOAK 091553Z 26003KT 10SM OVC012 16/12 A2993 RMK AO2 SLP136 T01560117

2010/08/09 15:53
KODX 091553Z AUTO 05003KT 10SM CLR 26/21 A2992 RMK AO2 SLP120 T02610211

2010/08/09 15:53
KOMK 091553Z AUTO 35008G16KT 10SM CLR 22/09 A2982 RMK AO2 SLP092 T02220089

2010/08/09 15:51
KORF 091551Z 09004KT 10SM FEW025 29/21 A3005 RMK AO2 SLP174 T02940206

2010/08/09 15:53
KOSH 091553Z 00000KT 10SM OVC014 24/21 A2991 RMK AO2 SLP114 T02390206

2010/08/09 15:53
KOVS 091553Z AUTO 23008KT 10SM FEW020 28/22 A2992 RMK AO2 SLP127 T02780217

2010/08/09 15:53
KOXB 091553Z AUTO 13007KT 10SM CLR 27/24 A3006 RMK AO2 SLP178 T02670239

2010/08/09 15:53
KPAH 091553Z 23004KT 10SM BKN043 32/23 A2997 RMK AO2 SLP143 T03220233 $

2010/08/09 15:53
KPBF 091553Z AUTO 00000KT 10SM CLR 33/24 A2997 RMK AO2 SLP145 T03330244

2010/08/09 15:53
KPDK 091553Z 13004KT 10SM CLR 32/20 A3008 RMK AO2 SLP163 T03220200

2010/08/09 15:53
KPDT 091553Z 10SM CLR 19/06 A2988 RMK AO2 SLP101 T01890056 $

2010/08/09 15:53
KPDX 091553Z 32005KT 10SM OVC025 15/10 A3000 RMK AO2 SLP157 T01500100

2010/08/09 15:53
KPIL 091553Z AUTO 14011KT 10SM FEW028 34/25 A2993 RMK AO2 SLP134 T03440250

2010/08/09 15:53
KPIR 091553Z AUTO 11004KT 10SM CLR 26/21 A2991 RMK AO2 SLP114 T02610206

2010/08/09 15:53
KPKD 091553Z AUTO 26004KT 10SM CLR 28/18 A2993 RMK AO2 SLP127 T02780178

2010/08/09 15:53
KPQL 091553Z 05007KT 10SM CLR 32/24 A2998 RMK AO2 SLP153 T03170244

2010/08/09 15:53
KPRB 091553Z AUTO 00000KT 10SM OVC005 14/12 A2995 RMK AO2 SLP139 T01390117 TSNO $

2010/08/09 15:53
KPSC 091553Z 27003KT 10SM CLR 21/12 A2984 RMK AO2 SLP102 T02060117

2010/08/09 15:55
KPSO 091555Z AUTO 25003KT 10SM OVC065 18/12 A3032 RMK AO2

2010/08/09 15:53
KPSX 091553Z AUTO 23007G18KT 10SM CLR 32/25 A2997 RMK AO2 SLP148 T03220250

2010/08/09 15:53
KPUW 091553Z AUTO 00000KT 10SM CLR 19/08 A2991 RMK AO2 SLP118 T01940078

2010/08/09 15:53
KRAC 091553Z AUTO 19006KT 10SM FEW010 26/23 A2995 RMK AO2 SLP135 T02560228

2010/08/09 15:53
KRBG 091553Z AUTO 36006KT 10SM OVC012 15/12 A2999 RMK AO2 SLP153 T01500117

2010/08/09 15:53
KRDD 091553Z 00000KT 10SM CLR 22/13 A2987 RMK AO2 SLP109 T02220128

2010/08/09 15:53
KCLM 091553Z AUTO 31007KT 10SM FEW006 14/12 A2997 RMK AO2 SLP148 T01390117

2010/08/09 15:53
KCMI 091553Z 22004KT 9SM CLR 30/23 A2998 RMK AO2 SLP144 T03000233

2010/08/09 15:53
KCMX 091553Z AUTO 28009KT 10SM 25/21 A2989 RMK AO2 SLP116 T02500206 $

2010/08/09 15:53
KCNM 091553Z AUTO 00000KT 10SM CLR 24/19 A3003 RMK AO2 SLP114 T02390194

2010/08/09 15:53
KCOT 091553Z AUTO VRB05KT 10SM CLR 31/22 A2996 RMK AO2 SLP135 T03110222

2010/08/09 15:51
KCRP 091551Z 14007KT 070V300 10SM SCT036 SCT043 33/24 A2995 RMK AO2 SLP140 T03330239

2010/08/09 15:53
KCSV 091553Z AUTO 22005KT 10SM FEW033 30/21 A3012 RMK AO2 SLP171 T03000211

2010/08/09 15:53
KCXO 091553Z 19003KT 10SM FEW029 SCT035 32/24 A2999 RMK AO2 SLP150 T03170244

2010/08/09 15:51
KDAG 091551Z AUTO 26005KT 10SM CLR 26/M02 A2992 RMK AO2 SLP107 T02561017 TSNO

2010/08/09 15:53
KDBQ 091553Z 26013KT 10SM OVC010 24/22 A2996 RMK AO2 SLP139 T02440222

2010/08/09 15:53
KDCU 091553Z AUTO 00000KT 8SM CLR 33/23 A3002 RMK AO2 SLP157 T03330228

2010/08/09 15:53
KDEW 091553Z AUTO 15006KT 10SM CLR 18/12 A2989 RMK AO2 SLP113 T01830122

2010/08/09 15:53
KDHT 091553Z AUTO 08003KT 10SM CLR 28/16 A3004 RMK AO2 SLP108 T02830161

2010/08/09 15:53
KDLS 091553Z AUTO 32014KT 10SM CLR 21/09 A2987 RMK AO2 SLP113 T02060089

2010/08/09 15:53
KDMN 091553Z AUTO 00000KT 10SM CLR 26/13 A3010 RMK AO2 SLP110 T02610133

2010/08/09 15:53
KDNL 091553Z AUTO 09005KT 10SM SCT036 32/21 A3005 RMK AO2 SLP170 T03220206 $

2010/08/09 15:53
KDRT 091553Z AUTO 13011KT 10SM OVC020 28/22 A2995 RMK AO2 SLP124 T02830222

2010/08/09 15:53
KDWH 091553Z 31003KT 10SM 31/25 A2998 RMK AO2 SLP151 T03110250

2010/08/09 15:55
KDYB 091555Z AUTO 03006KT 10SM CLR 31/22 A3002 RMK AO1

2010/08/09 15:53
KEET 091553Z AUTO VRB04KT 9SM FEW030 31/23 A3003 RMK AO2 SLP159 T03110233

2010/08/09 15:53
KELN 091553Z AUTO 31021G25KT 10SM CLR 20/10 A2985 RMK AO2 PK WND 31027/1527 SLP099 T02000100

2010/08/09 15:53
KENW 091553Z 19010KT 10SM SCT007 25/22 A2994 RMK AO2 SLP135 T02500222

2010/08/09 15:53
KEPH 091553Z AUTO 35003KT 10SM CLR 21/11 A2982 RMK AO2 SLP091 T02060106

2010/08/09 15:53
KEQY 091553Z AUTO 23004KT 9SM FEW038 32/22 A3006 RMK AO2 SLP174 T03170222

2010/08/09 15:53
KHQM 091553Z AUTO 24006KT 7SM OVC006 13/12 A2999 RMK AO2 SLP159 T01330117

2010/08/09 15:53
KHRI 091553Z AUTO 22011KT 10SM CLR 21/07 A2986 RMK AO2 SLP105 T02060067

2010/08/09 15:53
KHRO 091553Z AUTO VRB04KT 10SM FEW100 32/22 A3003 RMK AO2 SLP148 T03220217

2010/08/09 15:53
KHSI 091553Z AUTO 09006KT 10SM CLR 26/22 A2992 RMK AO2 SLP110 T02610222

2010/08/09 15:53
KHSV 091553Z 25004KT 10SM SCT037TCU BKN043 BKN110 32/22 A3002 RMK AO2 SLP155 TCU OHD AND NE T03220222

2010/08/09 15:53
KHYR 091553Z AUTO 00000KT 10SM CLR 28/22 A2994 RMK AO2 SLP130 T02780222

2010/08/09 15:53
KIAH 091553Z 25003KT 10SM FEW028 SCT038 BKN065 32/24 A2998 RMK AO2 SLP151 T03220244

2010/08/09 15:53
KICR 091553Z AUTO 00000KT 10SM CLR 27/20 A2994 RMK AO2 SLP120 T02720200 TSNO

2010/08/09 15:53
KILM 091553Z AUTO 10006KT 10SM FEW033 SCT042 SCT085 29/23 A3003 RMK AO2 SLP170 T02940233 TSNO

2010/08/09 15:50
KISM 091550Z 14006KT 10SM BKN016 BKN065 28/25 A2997

2010/08/09 15:53
KJBR 091553Z AUTO 28005KT 10SM CLR 33/24 A2997 RMK AO2 SLP145 T03280244

2010/08/09 15:51
KJCT 091551Z AUTO 17009KT 130V220 10SM CLR 31/19 A3001 RMK AO2 SLP120 T03060194 TSNO

2010/08/09 15:55
KJZI 091555Z AUTO 05009KT 10SM FEW026 31/31 A3001 RMK A02 P000

2010/08/09 15:50
KLAL 091550Z 05008KT 8SM BKN015 32/25 A2994

2010/08/09 15:50
KLBE 091550Z 24005KT 15SM SCT250 27/17 A3008

2010/08/09 15:53
KLBX 091553Z AUTO 26003KT 10SM FEW034 33/24 A2998 RMK AO2 SLP150 T03280244

2010/08/09 15:53
KLCH 091553Z 28005KT 10SM CLR 33/24 A2998 RMK AO2 SLP160 T03280239

2010/08/09 15:53
KLFK 091553Z AUTO 28003KT 10SM SCT028 32/24 A2999 RMK AO2 SLP151 T03220239

2010/08/09 15:53
KLFT 091553Z 34008KT 10SM FEW026 33/24 A2998 RMK AO2 SLP153 T03280244

2010/08/09 15:53
KLIT 091553Z VRB03KT 10SM BKN250 34/24 A2997 RMK AO2 SLP146 T03440244

2010/08/09 15:55
KLKR 091555Z AUTO 00000KT 8SM CLR 32/24 A3006 RMK AO2

2010/08/09 15:53
KCQC 091553Z AUTO 31012KT 10SM CLR 22/11 A3024 RMK AO2 SLP137 T02170111 TSNO 

2010/08/09 15:53
KTCS 091553Z AUTO VRB03KT 10SM CLR 24/14 A3013 RMK AO2 SLP124 T02440144 TSNO 

2010/08/09 15:53
KUAO 091553Z AUTO VRB03KT 10SM OVC028 15/10 A3001 RMK AO2 SLP160 T01500100

2010/08/09 15:53
KUTS 091553Z AUTO 28007KT 10SM SCT029 BKN033 31/23 A3000 RMK AO2 SLP153 T03060233

2010/08/09 15:53
KVCB 091553Z AUTO 23003KT 10SM CLR 18/12 A2989 RMK AO2 SLP120 T01830122

2010/08/09 15:53
KVPC 091553Z AUTO VRB05KT 9SM CLR 31/24 A3006 RMK AO2 SLP165 T03110239

2010/08/09 15:53
KVPZ 091553Z AUTO 21004KT 6SM HZ FEW090 26/22 A2998 RMK AO2 SLP145 T02610217

2010/08/09 15:53
KVUO 091553Z AUTO 31005KT 10SM OVC029 16/10 A2999 RMK AO2 SLP157 T01560100

2010/08/09 15:53
KWVI 091553Z AUTO 00000KT 10SM OVC006 13/12 A2995 RMK AO2 SLP142 T01330117

2010/08/09 15:53
KXNA 091553Z 20004KT 10SM CLR 32/22 A3001 RMK AO2 SLP144 T03220217

2010/08/09 15:53
KYKM 091553Z 36006KT 10SM CLR 21/09 A2985 RMK AO2 SLP103 T02060089

2010/08/09 15:53
KRHI 091553Z AUTO 31006KT 10SM FEW018 28/22 A2994 RMK AO2 SLP129 T02780222

2010/08/09 15:53
KRKP 091553Z AUTO VRB05KT 10SM BKN026 32/25 A2995 RMK AO2 SLP143 T03220250

2010/08/09 15:53
KRMG 091553Z AUTO 22004KT 10SM CLR 32/23 A3004 RMK AO2 SLP160 T03220228

2010/08/09 15:53
KRNT 091553Z 16007KT 6SM BR OVC012 14/13 A2997 RMK AO2 SLP152 T01440133

2010/08/09 15:53
KRUE 091553Z AUTO 19003KT 10SM CLR 33/24 A2997 RMK AO2 SLP140 T03330244

2010/08/09 15:53
KRWF 091553Z AUTO 01006KT 10SM CLR 29/22 A2991 RMK AO2 SLP120 T02940217

2010/08/09 15:53
KRWI 091553Z AUTO VRB03KT 10SM 32/21 A3005 RMK AO2 SLP173 T03170206

2010/08/09 15:53
KSAF 091553Z 00000KT 10SM CLR 23/13 A3021 RMK AO2 SLP124 T02330128

2010/08/09 15:51
KSAN 091551Z 35003KT 10SM OVC015 18/13 A2994 RMK AO2 SLP139 T01780133

2010/08/09 15:53
KSAT 091553Z 21007KT 10SM FEW031 29/22 A3000 RMK AO2 SLP141 T02940217

2010/08/09 15:53
KSBM 091553Z AUTO 27008KT 10SM OVC019 26/22 A2991 RMK AO2 SLP125 T02560217

2010/08/09 15:53
KSDL 091553Z 29003KT 10SM CLR 32/03 A2991 RMK AO2 SLP098 T03220033

2010/08/09 15:53
KSEA 091553Z 20007KT 10SM BKN005 OVC010 14/12 A2998 RMK AO2 SLP157 T01390117

2010/08/09 15:53
KSFF 091553Z 00000KT 10SM CLR 21/11 A2988 RMK AO2 SLP104 T02060111

2010/08/09 15:53
KSHN 091553Z AUTO 24007KT 7SM OVC006 14/12 A2996 RMK AO2 SLP147 T01390117

2010/08/09 15:53
KSIY 091553Z AUTO 03006KT 10SM 20/06 A2995 RMK AO2 SLP130 T02000056

2010/08/09 15:53
KSJC 091553Z 12009KT 10SM FEW007 SCT010 BKN013 16/11 A2992 RMK AO2 SLP131 T01560106

2010/08/09 15:53
KSMF 091553Z 18006KT 10SM CLR 16/12 A2988 RMK AO2 SLP116 T01610122

2010/08/09 15:53
KSNS 091553Z 00000KT 10SM OVC011 14/11 A2995 RMK AO2 SLP150 T01390111

2010/08/09 15:53
KSPB 091553Z AUTO 24004KT 10SM OVC023 14/10 A2999 RMK AO2 SLP156 T01440100

2010/08/09 15:53
KSPW 091553Z AUTO 15007KT 10SM OVC013 24/22 A2992 RMK AO2 SLP125 T02440222

2010/08/09 15:53
KSSF 091553Z 17007KT 10SM CLR 31/21 A2998 RMK AO2 SLP138 T03110211

2010/08/09 15:53
KSTC 091553Z 01003KT 9SM BKN009 27/24 A2993 RMK AO2 CIG 005V011 SLP135 T02720239 $

2010/08/09 15:53
KSTP 091553Z 35003KT 10SM CLR 29/22 A2991 RMK AO2 SLP120 T02940222

2010/08/09 15:53
KTCC 091553Z AUTO 19007KT 10SM CLR 28/16 A3002 RMK AO2 SLP099 T02830156

2010/08/09 15:53
KTCL 091553Z 09004KT 9SM CLR 33/23 A3000 RMK AO2 SLP156 T03330233

2010/08/09 15:53
KTIW 091553Z 21004KT 10SM SCT007 OVC012 13/12 A2998 RMK AO2 SLP151 T01330117

2010/08/09 15:53
KTOI 091553Z 08005KT 10SM CLR 33/24 A3002 RMK AO2 SLP160 T03280239

2010/08/09 15:53
KTTD 091553Z 31004KT 10SM OVC027 16/11 A2998 RMK AO2 SLP153 T01560106

2010/08/09 15:53
KTUS 091553Z VRB03KT 10SM CLR 29/17 A3000 RMK AO2 SLP109 T02940167

2010/08/09 15:53
KTVC 091553Z 20005KT 5SM HZ BKN014 27/23 A2986 RMK AO2 SLP108 T02670228

2010/08/09 15:53
KTVL 091553Z AUTO 00000KT 10SM CLR 14/08 A3012 RMK AO2 SLP157 T01390083

2010/08/09 15:53
KTVR 091553Z AUTO 00000KT 10SM CLR 34/24 A2997 RMK AO2 SLP155 T03390239

2010/08/09 15:52
PATA 091552Z 00000KT 10SM -RA BKN046 OVC060 14/11 A2954 RMK AO2 RAB47 SLP003 P0000 T01390106

2010/08/09 15:52
PAUO 091552Z 36004KT 15SM VCFG BKN010 BKN030 OVC080 12/11 A2966 RMK VCFG E S W NOSPECI

2010/08/09 16:00
SBRB 091600Z 17006KT 7000 NSC 37/16 Q1016 

2010/08/09 15:50
PAWR 091550Z 09010G20KT 1SM -RA BR VV007 12/11 A2980 RMK SLP091 NOSPECI

2010/08/09 15:53
PHJR 091553Z AUTO VRB05KT 10SM FEW037 BKN047 25/17 A3008 RMK AO2 SLP191 T02500172 TSNO

2010/08/09 15:50
EGHD 091550Z 21010KT 0400 FG VV/// 17/17 Q1015

2010/08/09 15:50
EGHE 091550Z 23015KT 9999 -DZ SCT004 BKN011 18/17 Q1015

2010/08/09 15:50
EGHK 091550Z 24012KT 9999 FEW008 SCT012 20/16 Q1014

2010/08/09 15:50
EGHQ 091550Z 26015KT 9999 SCT006 BKN018 17/16 Q1015

2010/08/09 15:50
EGJA 091550Z 24010KT 9999 FEW010 18/14 Q1017

2010/08/09 15:50
EGJB 091550Z 24011KT 210V270 9999 BKN036 18/15 Q1017

2010/08/09 15:50
EGJJ 091550Z 26007KT 210V320 9999 FEW015 19/15 Q1017 NOSIG

2010/08/09 15:50
EGTE 091550Z 18010KT 9999 FEW012 BKN017 20/17 Q1014

2010/08/09 15:50
EGTG 091550Z 20011KT 9999 BKN010 18/16 Q1013

2010/08/09 15:50
EGBB 091550Z 20010KT 170V230 9999 SCT029 21/13 Q1012

2010/08/09 15:50
EGCC 091550Z 19012KT 9999 FEW028 BKN035 18/15 Q1010

2010/08/09 15:50
EGKK 091550Z 22012KT CAVOK 22/12 Q1014

2010/08/09 15:50
EGLL 091550Z 22013KT 190V250 9999 FEW049 24/10 Q1013

2010/08/09 15:50
EGPF 091550Z 25012KT 9999 FEW030 18/10 Q1007

2010/08/09 15:50
EGPH 091550Z 25012KT 9999 FEW010 FEW020TCU 17/13 Q1006

2010/08/09 15:50
EGPK 091550Z 24012KT 9999 SCT020 17/11 Q1008

2010/08/09 15:50
EGSS 091550Z 21013KT CAVOK 24/10 Q1013

2010/08/09 15:53
PTKR 091553Z 16008KT 9SM -SHRA BKN016TCU OVC180 26/25 A2986 RMK SHRAB37 TCU ALQDS AND OHD SLP111 T02610246

2010/08/09 16:00
FAJS 091600Z 21014KT CAVOK 11/M10 Q1025 NOSIG

2010/08/09 15:50
ESKN 091550Z 17006KT 150V210 9999 VCSH SCT031CB 21/17 Q1007

2010/08/09 15:50
ESOE 091550Z 21006KT 9999 FEW009 BKN030 20/18 Q1007 RERA

2010/08/09 15:50
ESOK 091550Z 32004KT 290V350 9999 FEW007 SCT065 18/16 Q1008

2010/08/09 15:50
ESOW 091550Z 23005KT 9999 DZ FEW015 BKN091 18/17 Q1007

2010/08/09 15:50
ESSA 091550Z 22008KT 9999 SCT020 21/17 Q1007 NOSIG

2010/08/09 15:50
ESSB 091550Z 22008KT 9999 FEW026 SCT031 21/17 Q1007

2010/08/09 15:50
ESSD 091550Z 28003KT 9999 FEW015 SCT040 19/16 Q1007

2010/08/09 15:50
ESSP 091550Z 24010KT 9999 -RA FEW012 SCT055CB 19/17 Q1008

2010/08/09 15:50
ESSV 091550Z 22013KT 9999 BKN014 19/16 Q1009

2010/08/09 15:50
LSGS 091550Z 25015KT 9999 FEW100 27/11 Q1014

2010/08/09 15:50
LSZG 091550Z VRB02KT 9999 FEW050 26/13 Q1016 NOSIG

2010/08/09 15:50
LSZR 091550Z 27003KT 200V330 CAVOK 24/13 Q1016 NOSIG RMK M

2010/08/09 15:50
LSZS 091550Z 23017KT 9999 FEW090 19/10 Q1020

2010/08/09 15:53
KRIL 091553Z AUTO 00000KT 10SM -RA FEW044 OVC085 17/11 A3022 RMK AO2 SLP172 P0001 T01670111 TSNO 

2010/08/09 15:53
K6R6 091553Z AUTO 09009KT 28/22 A2998 RMK AO2 SLP114 T02780222 PWINO TSNO 

2010/08/09 16:00
LQMO 091600Z 25006KT 9999 FEW045 35/10 Q1010

2010/08/09 15:53
KMSN 091553Z VRB04KT 10SM FEW016 SCT100 25/21 A2992 RMK AO2 SLP127 T02500211 

2010/08/09 15:52
KCZZ 091552Z AUTO 00000KT 22/M06 A2992 RMK AO2 SLP103 T02171061 PWINO TSNO 

2010/08/09 15:53
KOFK 091553Z AUTO 00000KT 10SM OVC010 24/21 A2993 RMK AO2 CIG 007V012

2010/08/09 15:50
ESDF 091550Z 26006KT 9999 SCT027 BKN030 18/14 Q1013

2010/08/09 15:50
ESPA 091550Z 36005KT 330V040 9999 BKN017 17/15 Q1009

2010/08/09 15:50
ESSL 091550Z 25008KT 220V290 9999 -RA FEW009 SCT012 BKN015 18/17 Q1008 REUP REDZ

2010/08/09 15:50
EGHH 091550Z 24013KT 9999 BKN018 19/14 Q1015

2010/08/09 15:50
EGKA 091550Z 23018KT 9999 FEW042 19/14 Q1015

2010/08/09 15:50
EGKB 091550Z 22013KT 180V250 9999 FEW045 22/11 Q1014 

2010/08/09 15:50
EGLF 091550Z 23013KT 9999 SCT038 22/14 Q1014

2010/08/09 15:50
EGMC 091550Z 20011KT CAVOK 23/11 Q1013

2010/08/09 15:50
EGMD 091550Z 22018KT 9999 FEW020 19/14 Q1015

2010/08/09 15:50
EGMH 091550Z 22013KT 9999 FEW031 22/13 Q1014 

2010/08/09 15:50
EGTC 091550Z 21014KT 9999 VCSH FEW048 22/11 Q1012

2010/08/09 15:50
ESNG 091550Z 02005KT 340V070 9999 OVC020 15/11 Q1012

2010/08/09 15:50
ESNK 091550Z 35005KT 9999 -DZ FEW006 BKN017 17/16 Q1008

2010/08/09 15:50
ESNN 091550Z 32005KT 9999 FEW011 BKN020 17/16 Q1007 RERA REDZ

2010/08/09 15:50
ESNO 091550Z 02003KT 320V060 9999 BKN004 17/16 Q1008

2010/08/09 15:50
ESNQ 091550Z 03010KT 9999 FEW025 SCT030 BKN045 15/10 Q1013

2010/08/09 15:50
ESNU 091550Z 03006KT 010V070 9999 FEW010 SCT015 OVC036 18/15 Q1008

2010/08/09 15:50
ESNZ 091550Z 04005KT 010V070 9999 -RA SCT020 17/14 Q1009 REDZ

2010/08/09 15:50
ESUT 091550Z AUTO 15006KT 120V180 9999NDV FEW070/// OVC092/// 20/12 Q1010

2010/08/09 15:53
KRNM 091553Z 31003KT 10SM FEW001 17/10 A2992 RMK AO2 SLP124 T01720100 

2010/08/09 16:00
MWCR 091600Z 18005KT 9999 FEW018 32/25 Q1015 NOSIG

2010/08/09 16:00
MWCB 091600Z 11006KT 9999 FEW016 32/26 Q1015

2010/08/09 15:53
KFAR 091553Z 20004KT 10SM CLR 28/18 A2989 RMK AO2 SLP118 T02780183 $ 

2010/08/09 15:51
PAKT 091551Z 13006KT 5SM BR SCT004 OVC011 13/12 A3001

2010/08/09 15:50
EFHA 091550Z AUTO 16003KT CAVOK 20/17 Q1010

2010/08/09 15:50
EFHF 091550Z 19011KT 150V220 9999 SCT031 BKN070 22/17 Q1011

2010/08/09 15:50
EFKA 091550Z AUTO 24003KT CAVOK 22/19 Q1008

2010/08/09 15:50
EFKK 091550Z AUTO 35003KT 9999 ////// 20/18 Q1008

2010/08/09 15:50
EFMA 091550Z 18009KT 9999 FEW012 BKN055 19/17 Q1007

2010/08/09 15:50
EFPO 091550Z AUTO VRB02KT 9999 FEW031 SCT046 BKN065 BKN090 20/18 Q1008

2010/08/09 15:50
EFSI 091550Z AUTO 15005KT 110V210 3700 +SHRA SCT001 BKN008 OVC029 18/18 Q1008

2010/08/09 15:50
LXGB 091550Z 08007KT CAVOK 26/21 Q1014 NOSIG

2010/08/09 15:50
ESGL 091550Z AUTO 24011KT 9999NDV -SHRA FEW005/// SCT007/// BKN012/// 18/// Q1009

2010/08/09 15:50
ESGR 091550Z AUTO 23008KT 7000NDV FEW007/// SCT014/// BKN020/// 17/17 Q1008

2010/08/09 15:50
ESNL 091550Z AUTO 04005KT 010V090 9999NDV FEW020/// BKN037/// 18/14 Q1010

2010/08/09 15:50
ESNX 091550Z AUTO 36007KT 330V040 9999NDV BKN021/// OVC029/// 16/12 Q1011

2010/08/09 15:50
ESNY 091550Z AUTO 01003KT 6000 BR BKN001 OVC004 17/17 Q1006

2010/08/09 15:45
MMCE 091545Z 10010KT 7SM SCT010 SCT200 29/26 A2989 RMK 8/105

2010/08/09 15:49
MMCZ 091549Z 17006KT 8SM SCT015TCU SCT250 29/24 A2996 RMK 8/206

2010/08/09 15:47
MMMD 091547Z 15008KT 7SM SCT020 SCT300 32/26 A2992 RMK 8/101

2010/08/09 15:50
MMMT 091550Z 24008KT 12SM BKN012 BKN200 30/25 A2987 RMK 8/101

2010/08/09 15:53
MMTP 091553Z 12007KT 10SM SCT015 BKN250 30/24 A2990 RMK 8/106

2010/08/09 15:53
KDAB 091553Z 08009KT 10SM SCT020 SCT028 BKN070 31/24 A2995 RMK AO2 SLP141 T03060244 

2010/08/09 15:53
KMCN 091553Z 08006KT 8SM CLR 33/22 A3004 RMK AO2 SLP167 T03280222 

2010/08/09 15:53
KTYS 091553Z 22008KT 9SM CLR 31/22 A3006 RMK AO2 SLP164 T03110222 

2010/08/09 15:53
KTUP 091553Z 00000KT 10SM SCT024 32/25 A3000 RMK AO2 SLP152 T03220250 

2010/08/09 15:53
KTRI 091553Z VRB04KT 10SM FEW065 SCT150 31/19 A3010 RMK AO2 SLP174 T03060194 

2010/08/09 15:54
PGUM 091554Z 00000KT 10SM OVC060 24/24 A2991 RMK AO2 SLP120 T02440244 

2010/08/09 15:53
KCUT 091553Z AUTO VRB05KT 10SM BKN065 BKN090 BKN110 22/12 A3011 RMK AO2 RAB21E36 SLP125 P0000 T02170122 TSNO 

2010/08/09 15:53
KBNO 091553Z AUTO 00000KT 10SM SCT110 19/07 A2997 RMK AO2 SLP110 T01890067 TSNO 

2010/08/09 15:53
KNUI 091553Z AUTO 00000KT 10SM CLR 29/23 A3004 RMK AO2 SLP170 T02940228 

2010/08/09 15:53
KBTR 091553Z 32004KT 10SM SCT030 33/25 A2998 RMK AO2 SLP149 T03280250 

2010/08/09 15:53
KCHA 091553Z VRB06KT 10SM FEW030 SCT100 32/23 A3005 RMK AO2 SLP164 T03170228 

2010/08/09 15:53
KMGM 091553Z 09009KT 10SM FEW035 33/23 A3000 RMK AO2 SLP157 T03280233 $ 

2010/08/09 15:53
KELY 091553Z AUTO 00000KT 10SM CLR 20/01 A3014 RMK AO2 SLP110 T02000006 

2010/08/09 15:53
KLXV 091553Z AUTO 20003KT 10SM FEW100 13/07 A3042 RMK AO2 SLP128 T01330072 TSNO 

2010/08/09 15:53
KDNK 091553Z AUTO 23004KT 10SM CLR 32/22 A2999 RMK AO2 SLP152 T03170222 PNO $ 

2010/08/09 15:53
CYRV 091553Z AUTO 00000KT 9SM -RA FEW010 OVC024 OVC063 OVC079 16/15 A2986

2010/08/09 15:50
EGGP 091550Z 23013KT 9999 FEW020 21/12 Q1010

2010/08/09 15:50
EGHI 091550Z 23013KT 200V260 9999 SCT025 SCT031 19/12 Q1015 

2010/08/09 15:50
EGNT 091550Z 24010KT 190V270 9999 SCT045 21/10 Q1007

2010/08/09 15:50
EGNV 091550Z 18011KT 3500 -RA HZ FEW013 BKN017 18/16 Q1009

2010/08/09 16:00
LQMO 091600Z 25006KT 9999 FEW045 35/10 Q1010

2010/08/09 15:50
EFHA 091550Z AUTO 16003KT CAVOK 20/17 Q1010

2010/08/09 15:50
EFHF 091550Z 19011KT 150V220 9999 SCT031 BKN070 22/17 Q1011

2010/08/09 15:50
EFKA 091550Z AUTO 24003KT CAVOK 22/19 Q1008

2010/08/09 15:50
EFKK 091550Z AUTO 35003KT 9999 ////// 20/18 Q1008

2010/08/09 15:50
EFMA 091550Z 18009KT 9999 FEW012 BKN055 19/17 Q1007

2010/08/09 15:50
EFPO 091550Z AUTO VRB02KT 9999 FEW031 SCT046 BKN065 BKN090 20/18 Q1008

2010/08/09 15:50
EFSI 091550Z AUTO 15005KT 110V210 3700 +SHRA SCT001 BKN008 OVC029 18/18 Q1008

2010/08/09 15:50
EGHD 091550Z 21010KT 0400 FG VV/// 17/17 Q1015

2010/08/09 15:50
EGHE 091550Z 23015KT 9999 -DZ SCT004 BKN011 18/17 Q1015

2010/08/09 15:50
EGHK 091550Z 24012KT 9999 FEW008 SCT012 20/16 Q1014

2010/08/09 15:50
EGHQ 091550Z 26015KT 9999 SCT006 BKN018 17/16 Q1015

2010/08/09 15:50
EGJA 091550Z 24010KT 9999 FEW010 18/14 Q1017

2010/08/09 15:50
EGJB 091550Z 24011KT 210V270 9999 BKN036 18/15 Q1017

2010/08/09 15:50
EGJJ 091550Z 26007KT 210V320 9999 FEW015 19/15 Q1017 NOSIG

2010/08/09 15:50
EGTE 091550Z 18010KT 9999 FEW012 BKN017 20/17 Q1014

2010/08/09 15:50
EGTG 091550Z 20011KT 9999 BKN010 18/16 Q1013

2010/08/09 15:50
ESNG 091550Z 02005KT 340V070 9999 OVC020 15/11 Q1012

2010/08/09 15:50
ESNK 091550Z 35005KT 9999 -DZ FEW006 BKN017 17/16 Q1008

2010/08/09 15:50
ESNN 091550Z 32005KT 9999 FEW011 BKN020 17/16 Q1007 RERA REDZ

2010/08/09 15:50
ESNO 091550Z 02003KT 320V060 9999 BKN004 17/16 Q1008

2010/08/09 15:50
ESNQ 091550Z 03010KT 9999 FEW025 SCT030 BKN045 15/10 Q1013

2010/08/09 15:50
ESNU 091550Z 03006KT 010V070 9999 FEW010 SCT015 OVC036 18/15 Q1008

2010/08/09 15:50
ESNZ 091550Z 04005KT 010V070 9999 -RA SCT020 17/14 Q1009 REDZ

2010/08/09 15:50
ESUT 091550Z AUTO 15006KT 120V180 9999NDV FEW070/// OVC092/// 20/12 Q1010

2010/08/09 15:54
KBTV 091554Z 22003KT 10SM -RA BKN050 OVC060 25/19 A2995 RMK AO2 RAB47 SLP139 P0000 T02500189 

2010/08/09 15:50
ESDF 091550Z 26006KT 9999 SCT027 BKN030 18/14 Q1013

2010/08/09 15:50
ESPA 091550Z 36005KT 330V040 9999 BKN017 17/15 Q1009

2010/08/09 15:50
ESSL 091550Z 25008KT 220V290 9999 -RA FEW009 SCT012 BKN015 18/17 Q1008 REUP REDZ

2010/08/09 15:53
KSGR 091553Z VRB03KT 10SM BKN031 32/24 A2998 RMK AO2 SLP158 T03220239 

2010/08/09 15:50
EGAA 091550Z 25016KT 9999 -SHRA FEW037 BKN049 16/11 Q1009

2010/08/09 15:50
EGAC 091550Z 24011KT 9999 SCT028 18/09 Q1008

2010/08/09 15:50
EGFF 091550Z 26011KT 9999 SCT003 BKN010 18/17 Q1013

2010/08/09 15:50
EGGW 091550Z 24009KT CAVOK 24/10 Q1013

2010/08/09 15:50
EGLC 091550Z 23012KT 190V260 CAVOK 23/08 Q1013

2010/08/09 15:50
EGNM 091550Z 24010KT 180V280 9999 -SHRA SCT010 BKN015 17/15 Q1010

2010/08/09 15:50
EGNX 091550Z 20016KT 9999 BKN032 21/12 Q1011

2010/08/09 15:50
EGPD 091550Z 18013KT 9999 SCT021 17/11 Q1006 TEMPO SHRA

2010/08/09 15:50
ESGL 091550Z AUTO 24011KT 9999NDV -SHRA FEW005/// SCT007/// BKN012/// 18/// Q1009

2010/08/09 15:50
ESGR 091550Z AUTO 23008KT 7000NDV FEW007/// SCT014/// BKN020/// 17/17 Q1008

2010/08/09 15:50
ESNL 091550Z AUTO 04005KT 010V090 9999NDV FEW020/// BKN037/// 18/14 Q1010

2010/08/09 15:50
ESNX 091550Z AUTO 36007KT 330V040 9999NDV BKN021/// OVC029/// 16/12 Q1011

2010/08/09 15:50
ESNY 091550Z AUTO 01003KT 6000 BR BKN001 OVC004 17/17 Q1006

2010/08/09 15:50
EGHH 091550Z 24013KT 9999 BKN018 19/14 Q1015

2010/08/09 15:50
EGKA 091550Z 23018KT 9999 FEW042 19/14 Q1015

2010/08/09 15:50
EGKB 091550Z 22013KT 180V250 9999 FEW045 22/11 Q1014 

2010/08/09 15:50
EGLF 091550Z 23013KT 9999 SCT038 22/14 Q1014

2010/08/09 15:50
EGMC 091550Z 20011KT CAVOK 23/11 Q1013

2010/08/09 15:50
EGMD 091550Z 22018KT 9999 FEW020 19/14 Q1015

2010/08/09 15:50
EGMH 091550Z 22013KT 9999 FEW031 22/13 Q1014 

2010/08/09 15:50
EGTC 091550Z 21014KT 9999 VCSH FEW048 22/11 Q1012

2010/08/09 15:50
ESKN 091550Z 17006KT 150V210 9999 VCSH SCT031CB 21/17 Q1007

2010/08/09 15:50
ESOE 091550Z 21006KT 9999 FEW009 BKN030 20/18 Q1007 RERA

2010/08/09 15:50
ESOK 091550Z 32004KT 290V350 9999 FEW007 SCT065 18/16 Q1008

2010/08/09 15:50
ESOW 091550Z 23005KT 9999 DZ FEW015 BKN091 18/17 Q1007

2010/08/09 15:50
ESSA 091550Z 22008KT 9999 SCT020 21/17 Q1007 NOSIG

2010/08/09 15:50
ESSB 091550Z 22008KT 9999 FEW026 SCT031 21/17 Q1007

2010/08/09 15:50
ESSD 091550Z 28003KT 9999 FEW015 SCT040 19/16 Q1007

2010/08/09 15:50
ESSP 091550Z 24010KT 9999 -RA FEW012 SCT055CB 19/17 Q1008

2010/08/09 15:50
ESSV 091550Z 22013KT 9999 BKN014 19/16 Q1009

2010/08/09 15:53
K40J 091553Z AUTO 05006KT 31/23 A2997 RMK AO2 SLP147 T03110233 PWINO TSNO 

2010/08/09 15:54
KJAN 091554Z 34005KT 10SM CLR 33/24 A2999 RMK AO2 SLP149 T03330244 

2010/08/09 15:53
KNIP 091553Z 05010KT 10SM BKN034TCU 31/24 A2997 RMK AO2 SLP145 TCU E-S T03110244 

2010/08/09 15:53
KLAX 091553Z 28004KT 7SM OVC014 17/13 A2993 RMK AO2 SLP135 T01720128 $ 

2010/08/09 15:53
KRQE 091553Z AUTO 00000KT 10SM CLR 21/11 A3028 RMK AO2 SLP139 T02110111 TSNO 

2010/08/09 15:53
KOVE 091553Z AUTO 22003KT 10SM CLR 18/12 A2990 RMK AO2 SLP125 T01830122 TSNO $ 

2010/08/09 15:51
PAKT 091551Z 13006KT 5SM BR SCT004 OVC011 13/12 A3001

2010/08/09 15:53
KP92 091553Z AUTO VRB04KT 31/26 A2998 RMK AO2 SLP151 T03110261 PWINO TSNO 

2010/08/09 15:55
KQCQ 091555Z 32010KT 9999 CLR 43/M02 A2947 RMK SLP977

2010/08/09 15:55
KQLD 091555Z AUTO VRB03KT 9999 SCT095 OVC120 17/12 A3022 RMK AO2 LTG DSNT SE SLP136 T01660123

2010/08/09 15:55
KQWM 091555Z 32007KT 9999 FEW160 SCT230 45/01 A2945 RMK SLP960 QNH997

2010/08/09 15:54
CWCA 091554Z 21005KT 12SM -RA OVC070 RMK AC8

2010/08/09 15:50
EETN 091550Z 19010KT 130V220 9999 FEW040 BKN075 22/16 Q1012 NOSIG

2010/08/09 15:50
EETU 091550Z 18008KT 9999 FEW040 SCT051CB BKN150 24/16 Q1014

2010/08/09 15:50
EFHK 091550Z 18013KT 9999 FEW030CB SCT070 23/16 Q1011 TEMPO 7000 -SHRA

2010/08/09 15:50
EVLA 091550Z AUTO 22011KT 9999 SCT017 BKN024 20/16 Q1014

2010/08/09 15:50
EVRA 091550Z 19007KT 160V230 9999 BKN044 BKN070 23/15 Q1014 NOSIG

2010/08/09 15:50
EYKA 091550Z 13004KT 090V180 CAVOK 22/17 Q1016

2010/08/09 15:50
EYPA 091550Z 24005KT 190V310 9999 FEW026 21/15 Q1014

2010/08/09 15:50
EYVI 091550Z VRB02KT 9999 SCT040CB OVC110 19/16 Q1017 NOSIG

2010/08/09 15:50
EDAC 091550Z 35006KT 310V030 CAVOK 22/14 Q1016

2010/08/09 15:50
EDAH 091550Z 02006KT 350V060 CAVOK 22/14 Q1015

2010/08/09 15:50
EDGS 091550Z 25004KT 9999 SCT034 SCT056 18/13 Q1018

2010/08/09 15:50
EDHL 091550Z 30004KT 270V330 9999 BKN035 17/17 Q1016

2010/08/09 15:50
EDLN 091550Z VRB03KT 9999 SCT046 22/13 Q1016

2010/08/09 15:50
EDLP 091550Z VRB02KT CAVOK 20/11 Q1017

2010/08/09 15:50
EDLW 091550Z 27005KT 230V300 CAVOK 21/13 Q1017

2010/08/09 15:50
EDMA 091550Z 02004KT 330V070 9999 FEW048 23/12 Q1017

2010/08/09 15:50
EDNY 091550Z VRB03KT 9999 FEW050 25/12 Q1016

2010/08/09 15:50
EDQM 091550Z 30006KT 270V340 9999 SCT035 BKN080 19/11 Q1018

2010/08/09 15:50
EDRZ 091550Z 19004KT 160V220 CAVOK 25/11 Q1017

2010/08/09 15:50
EDSB 091550Z 32004KT 270V010 CAVOK 25/13 Q1016

2010/08/09 15:50
EDXW 091550Z 29008KT CAVOK 18/10 Q1015

2010/08/09 15:50
EDHI 091550Z 33005KT 300V010 9999 BKN030 18/16 Q1016

2010/08/09 15:50
EDMO 091550Z 35004KT 280V040 CAVOK 23/11 Q1017

2010/08/09 15:50
EDOP 091550Z 28008KT 9999 FEW030 BKN052 21/14 Q1015

2010/08/09 15:50
EDVE 091550Z 27007KT 230V300 9999 FEW030 BKN080 21/13 Q1016

2010/08/09 15:51
KSAD 091551Z AUTO 00000KT 10SM CLR 28/13 A3001 RMK AO2 SLP109 T02780133 TSNO 

2010/08/09 15:50
ENAL 091550Z 06006KT 9999 SCT013 BKN021 15/13 Q1010

2010/08/09 15:50
ENCN 091550Z 23008KT 200V270 9999 FEW045 22/14 Q1009

2010/08/09 15:50
ENHD 091550Z 26005KT 9999 FEW020 BKN040 16/11 Q1012

2010/08/09 15:50
ENRY 091550Z 25006KT 210V280 9999 FEW040TCU BKN120 23/13 Q1008

2010/08/09 15:50
ENSB 091550Z 24013KT 9999 FEW012 SCT030 BKN120 10/03 Q1002 

2010/08/09 15:50
ENTC 091550Z 01015KT 9999 FEW018 SCT030 11/08 Q1014 NOSIG

2010/08/09 15:50
ENTO 091550Z 20008KT 160V230 9999 FEW040TCU 22/15 Q1008

2010/08/09 15:50
ENNO 091550Z 15004KT 110V200 9999 SCT050 24/14 Q1007

2010/08/09 15:50
ENOV 091550Z VRB04KT 9999 FEW015 BKN019 16/13 Q1010 

2010/08/09 15:50
ENSN 091550Z 17006KT 9999 VCSH SCT035TCU 23/14 Q1008

2010/08/09 15:50
ENSR 091550Z 01007KT 9999 FEW010 SCT015 BKN030 12/08 Q1015

2010/08/09 15:50
ENSS 091550Z 04011KT 1000 FG VV002 09/08 Q1016 

2010/08/09 15:50
ENAN 091550Z 03019KT 9999 FEW012 BKN025 11/09 Q1014 NOSIG

2010/08/09 15:50
ENBR 091550Z 26003KT 220V030 9999 FEW009 BKN013 14/11 Q1011 BECMG FEW010 BKN025 

2010/08/09 15:50
ENBO 091550Z 01009KT 340V060 9999 FEW015 FEW040TCU 15/11 Q1011 NOSIG

2010/08/09 15:50
ENDU 091550Z 36006KT 320V040 9999 FEW025 SCT035 16/10 Q1013

2010/08/09 15:50
ENOL 091550Z 35009KT 9999 FEW014 16/13 Q1009 NOSIG

2010/08/09 15:50
ENVA 091550Z 25008KT 9999 FEW030TCU 18/14 Q1009 NOSIG 

2010/08/09 15:50
ENZV 091550Z 30005KT 260V330 9999 FEW017 BKN034 16/10 Q1012 NOSIG

2010/08/09 15:50
ENGC 091550Z 23007KT 180V250 9999 FEW020 BKN035 13/11 Q1010

2010/08/09 15:50
ENHE 091550Z 05021KT 9999 OVC016 11/09 Q1013

2010/08/09 15:50
ENOA 091550Z 17005KT 9999 BKN040 15/10 Q1011

2010/08/09 15:50
ENMS 091550Z 33009KT 9999 FEW040TCU 19/13 Q1009 

2010/08/09 15:50
ENRM 091550Z 01006KT 330V060 9999 BKN010 13/11 Q1011

2010/08/09 15:50
ENRS 091550Z 01018KT CAVOK 12/08 Q1013

2010/08/09 15:50
ENSK 091550Z 05008KT 9999 FEW015 SCT025 14/09 Q1013

2010/08/09 15:50
ENSO 091550Z 33002KT 9999 SCT015 BKN020 16/12 Q1011

2010/08/09 15:50
ENST 091550Z 36007KT CAVOK 17/12 Q1011

2010/08/09 15:50
ENVD 091550Z 06011KT 9999 BKN006 OVC010 11/09 Q1015

2010/08/09 15:50
ENAT 091550Z 30009KT 9999 FEW025 BKN045 14/10 Q1015 

2010/08/09 15:50
ENBL 091550Z 28006KT 9999 SCT010 BKN017 15/12 Q1010

2010/08/09 15:50
ENEV 091550Z 35010KT 320V030 9999 FEW030 14/09 Q1012 

2010/08/09 15:50
ENFL 091550Z 24004KT 9999 FEW006 SCT011 BKN025 15/13 Q1010

2010/08/09 15:50
ENKB 091550Z 01010KT 9999 FEW017 16/13 Q1009

2010/08/09 15:50
ENKR 091550Z 05010KT 9999 -RA OVC005 10/09 Q1015 

2010/08/09 15:50
ENML 091550Z 24008KT 9999 FEW015 21/14 Q1009

2010/08/09 15:50
ENNA 091550Z 35012KT 9999 SCT012 BKN020 11/08 Q1016 

2010/08/09 15:50
ENBN 091550Z 34003KT 9999 BKN011 14/11 Q1011

2010/08/09 15:50
ENFG 091550Z 25004KT 9999 FEW020TCU SCT030 BKN090 19/09 Q1010

2010/08/09 15:50
ENHF 091550Z 03011KT 9999 BKN022 10/06 Q1016 

2010/08/09 15:50
ENRA 091550Z 35006KT 9999 FEW040 21/13 Q1009

2010/08/09 15:50
ENSH 091550Z 02014KT 9999 FEW025 14/09 Q1012

2010/08/09 15:50
EDFE 091550Z 08001KT 9999 FEW040 SCT065 23/13 Q1016

2010/08/09 15:50
EDFH 091550Z 29006KT 260V360 9999 SCT048 21/09 Q1017

2010/08/09 15:50
EDFM 091550Z VRB03KT 9999 FEW045 SCT070 26/13 Q1016

2010/08/09 15:50
EDLV 091550Z 16006KT 080V250 CAVOK 21/14 Q1016

2010/08/09 15:50
EDTL 091550Z 36005KT 310V030 CAVOK 24/12 Q1016

2010/08/09 15:50
EDVK 091550Z 27004KT 140V310 9999 FEW043 BKN070 21/10 Q1017

2010/08/09 15:50
ENBS 091550Z 03011KT 0100 FG +DZ VV001 08/07 Q1016

2010/08/09 15:50
ENHV 091550Z 02008KT 9999 BKN018 10/07 Q1016

2010/08/09 15:50
ENMH 091550Z 08007KT 9999 BKN011 09/07 Q1017

2010/08/09 15:50
ENNK 091550Z 24010KT 9999 FEW080 19/13 Q1012 

2010/08/09 15:50
ENNM 091550Z 36007KT CAVOK 17/11 Q1010

2010/08/09 15:54
KMQE 091554Z AUTO 23008KT 31/19 A2999 RMK AO1 SLP159 T03060189 

2010/08/09 15:54
K1V4 091554Z AUTO 26/17 A2995 RMK AO2 SLP131 T02560172 PWINO TSNO 

2010/08/09 15:54
KROC 091554Z 22010KT 8SM BKN150 BKN250 27/20 A2997 RMK AO2 SLP146 T02720200 

2010/08/09 15:54
KCOU 091554Z 00000KT 10SM CLR 31/24 A2998 RMK AO2 SLP140 T03060244 

2010/08/09 15:50
OAKN 091550Z 26006KT 8000 DU FEW180 36/02 Q1004 BLU NOSIG RMK A2964 DA6700

2010/08/09 16:00
OYHD 091600Z 36010KT 6000 BKN030 34/31 Q1000

2010/08/09 15:50
EDAC 091550Z 35006KT 310V030 CAVOK 22/14 Q1016

2010/08/09 15:50
EDAH 091550Z 02006KT 350V060 CAVOK 22/14 Q1015

2010/08/09 15:50
EDFH 091550Z 29006KT 260V360 9999 SCT048 21/09 Q1017

2010/08/09 15:50
EDHL 091550Z 30004KT 270V330 9999 BKN035 17/17 Q1016

2010/08/09 15:50
EDLN 091550Z VRB03KT 9999 SCT046 22/13 Q1016

2010/08/09 15:50
EDLP 091550Z VRB02KT CAVOK 20/11 Q1017

2010/08/09 15:50
EDLW 091550Z 27005KT 230V300 CAVOK 21/13 Q1017

2010/08/09 15:50
EDMA 091550Z 02004KT 330V070 9999 FEW048 23/12 Q1017

2010/08/09 15:50
EDMO 091550Z 35004KT 280V040 CAVOK 23/11 Q1017

2010/08/09 15:50
EDNY 091550Z VRB03KT 9999 FEW050 25/12 Q1016

2010/08/09 15:50
EDQM 091550Z 30006KT 270V340 9999 SCT035 BKN080 19/11 Q1018

2010/08/09 15:50
EDSB 091550Z 32004KT 270V010 CAVOK 25/13 Q1016

2010/08/09 15:50
EDTL 091550Z 36005KT 310V030 CAVOK 24/12 Q1016

2010/08/09 15:50
EDVK 091550Z 27004KT 140V310 9999 FEW043 BKN070 21/10 Q1017

2010/08/09 15:50
EDXW 091550Z 29008KT CAVOK 18/10 Q1015

2010/08/09 15:50
EGAA 091550Z 25016KT 9999 -SHRA FEW037 BKN049 16/11 Q1009

2010/08/09 15:50
EGAC 091550Z 24011KT 9999 SCT028 18/09 Q1008

2010/08/09 15:50
EGFF 091550Z 26011KT 9999 SCT003 BKN010 18/17 Q1013

2010/08/09 15:50
EGGW 091550Z 24009KT CAVOK 24/10 Q1013

2010/08/09 15:50
EGHD 091550Z 21010KT 0400 FG VV/// 17/17 Q1015

2010/08/09 15:50
EGHE 091550Z 23015KT 9999 -DZ SCT004 BKN011 18/17 Q1015

2010/08/09 15:50
EGHH 091550Z 24013KT 9999 BKN018 19/14 Q1015

2010/08/09 15:50
EGJJ 091550Z 26007KT 210V320 9999 FEW015 19/15 Q1017 NOSIG

2010/08/09 15:50
EGKB 091550Z 22013KT 180V250 9999 FEW045 22/11 Q1014

2010/08/09 15:50
EGLC 091550Z 23012KT 190V260 CAVOK 23/08 Q1013

2010/08/09 15:50
EGNM 091550Z 24010KT 180V280 9999 -SHRA SCT010 BKN015 17/15 Q1010

2010/08/09 15:50
EGNX 091550Z 20016KT 9999 BKN032 21/12 Q1011

2010/08/09 15:50
EGPD 091550Z 18013KT 9999 SCT021 17/11 Q1006 TEMPO SHRA

2010/08/09 15:50
EGTC 091550Z 21014KT 9999 VCSH FEW048 22/11 Q1012

2010/08/09 16:00
LQMO 091600Z 25006KT 9999 FEW045 35/10 Q1010

2010/08/09 15:54
KROA 091554Z 18003KT 8SM CLR 29/21 A3009 RMK AO2 SLP176 T02890206 

2010/08/09 15:50
KPMV 091550Z AUTO 29005KT 10SM CLR 28/23 A2987 RMK AO2 T02750233

2010/08/09 15:53
KAAF 091553Z AUTO 09007KT 10SM CLR 32/24 A2996 RMK AO2 SLP145 T03220239

2010/08/09 15:53
KABY 091553Z 03010G16KT 10SM FEW040 33/22 A3003 RMK AO2 SLP165 T03330222

2010/08/09 15:53
KACK 091553Z 23010KT 10SM CLR 25/22 A3002 RMK AO2 SLP166 T02500222

2010/08/09 15:53
KADG 091553Z AUTO 27006KT 9SM CLR 28/20 A2999 RMK AO2 SLP152 T02780200

2010/08/09 15:53
KAFW 091553Z 18012KT 10SM FEW050 34/22 A2995 RMK AO2 SLP120 T03440222 $

2010/08/09 15:53
KAGC 091553Z 00000KT 10SM CLR 29/15 A3005 RMK AO2 SLP170 T02890150

2010/08/09 15:53
KAIA 091553Z AUTO 21008KT 10SM CLR 30/13 A3001 RMK AO2 SLP113 T03000133 $

2010/08/09 15:53
KAKO 091553Z AUTO 23003KT 10SM CLR 24/13 A3009 RMK AO2 SLP125 T02440133 TSNO

2010/08/09 15:53
KAMG 091553Z AUTO VRB06KT 10SM CLR 32/22 A3001 RMK AO2 SLP159 T03220217

2010/08/09 15:53
KAOH 091553Z AUTO 24006KT 9SM CLR 29/20 A3002 RMK AO2 SLP158 T02940200

2010/08/09 15:53
KAPA 091553Z VRB03KT 10SM SCT110 22/12 A3017 RMK AO2 SLP146 T02220117

2010/08/09 15:53
KAPF 091553Z 12006KT 10SM BKN070 31/25 A2994 RMK AO2 LTG DSNT W SLP136 T03110250

2010/08/09 15:53
KARB 091553Z 25006KT 9SM CLR 27/20 A2996 RMK AO2 SLP140 T02670200

2010/08/09 15:53
KASE 091553Z 35006KT 10SM BKN062 17/08 A3029 RMK AO2 SLP147 T01670083

2010/08/09 15:53
KAUG 091553Z AUTO VRB05KT 10SM FEW030 SCT041 26/18 A2994 RMK AO2 SLP136 T02610183

2010/08/09 15:53
KBAF 091553Z 18006KT 10SM SCT090 32/17 A2998 RMK AO2 SLP146 T03170167

2010/08/09 15:53
KBBW 091553Z AUTO 02006KT 10SM CLR 26/21 A2994 RMK AO2 SLP115 T02560211

2010/08/09 15:53
KBCE 091553Z AUTO 00000KT 10SM CLR 17/08 A3029 RMK AO2 SLP155 T01670078

2010/08/09 15:53
KBFF 091553Z AUTO 17005KT 10SM CLR 28/14 A3001 RMK AO2 SLP112 T02780144

2010/08/09 15:53
KBGM 091553Z VRB05KT 10SM CLR 28/15 A3006 RMK AO2 SLP167 T02780150

2010/08/09 15:53
KBGR 091553Z 27008KT 10SM FEW025 BKN035 26/18 A2992 RMK AO2 SLP129 T02610183

2010/08/09 15:53
KBHK 091553Z AUTO 00000KT 10SM CLR 26/10 A2992 RMK AO2 SLP106 T02560100

2010/08/09 15:53
KBIL 091553Z 20005KT 10SM FEW110 22/12 A2996 RMK AO2 SLP116 T02170117

2010/08/09 15:53
KBKL 091553Z 29004KT 6SM HZ CLR 29/19 A2998 RMK AO2 SLP147 T02940194

2010/08/09 15:53
KBKV 091553Z AUTO 08008KT 10SM SCT024 31/24 A2995 RMK AO2 SLP139 T03110244

2010/08/09 15:53
KBMG 091553Z 25008KT 10SM CLR 29/21 A3000 RMK AO2 SLP152 T02940211

2010/08/09 15:53
KBOI 091553Z 29005KT 10SM CLR 24/11 A2988 RMK AO2 SLP089 T02390106

2010/08/09 15:53
KBPI 091553Z AUTO 14005KT 10SM CLR 18/06 A3019 RMK AO2 SLP139 T01780061 TSNO

2010/08/09 15:53
KBRL 091553Z AUTO 20009KT 10SM CLR 25/23 A2993 RMK AO2 RAE06 SLP128 P0000 T02500233

2010/08/09 15:53
KBRO 091553Z 20008KT 10SM FEW027 SCT036 BKN060 32/25 A2993 RMK AO2 RAE1457 SLP133 P0000 T03220250

2010/08/09 15:53
KBTM 091553Z AUTO 21003KT 10SM FEW070 OVC090 12/08 A3004 RMK AO2 RAB28E37 SLP137 P0000 T01220078

2010/08/09 15:53
KBUR 091553Z 13003KT 6SM HZ CLR 17/12 A2992 RMK AO2 SLP123 T01670122

2010/08/09 15:53
KBVO 091553Z AUTO 19005KT 10SM CLR 35/23 A2993 RMK AO2 SLP122 T03500233

2010/08/09 15:53
KBVY 091553Z 24012KT 10SM FEW100 31/17 A2994 RMK AO2 SLP134 T03060172

2010/08/09 15:53
KBYG 091553Z AUTO VRB04KT 10SM CLR 24/09 A3003 RMK AO2 SLP107 T02390089

2010/08/09 15:53
KBYI 091553Z AUTO 19011KT 10SM FEW100 21/10 A2996 RMK AO2 SLP105 T02060100

2010/08/09 15:53
KCAG 091553Z AUTO 21003KT 6SM -RA BR SCT035 SCT065 OVC080 13/12 A3025 RMK AO2 RAB16 SLP195 P0008 T01330117

2010/08/09 15:53
KCDC 091553Z AUTO 00000KT 10SM CLR 18/14 A3015 RMK AO2 SLP152 T01830139

2010/08/09 15:53
KCDR 091553Z AUTO 17016KT 10SM CLR 32/16 A2994 RMK AO2 SLP106 T03220156

2010/08/09 15:53
KCDS 091553Z AUTO 25008KT 10SM CLR 31/20 A2996 RMK AO2 SLP114 T03060200

2010/08/09 15:53
KCDW 091553Z VRB05KT 9SM CLR 32/18 A3001 RMK AO2 SLP165 T03220183 $

2010/08/09 15:53
KCEW 091553Z AUTO 09007KT 050V120 10SM FEW025 32/26 A2999 RMK AO2 SLP152 T03170256

2010/08/09 15:53
KCEZ 091553Z AUTO 00000KT 10SM CLR 23/12 A3021 RMK AO2 SLP149 T02330117

2010/08/09 15:53
KHAO 091553Z AUTO VRB04KT 9SM FEW055 32/20 A3003 RMK AO2 SLP162 T03170200

2010/08/09 15:53
KHBR 091553Z AUTO 21014KT 10SM CLR 33/19 A2993 RMK AO2 SLP110 T03330194

2010/08/09 15:53
KHFD 091553Z 26007KT 10SM CLR 32/18 A2997 RMK AO2 SLP149 T03170178

2010/08/09 15:53
KHHR 091553Z 00000KT 6SM HZ OVC013 18/13 A2993 RMK AO2 SLP135 T01780133 $

2010/08/09 15:53
KHLC 091553Z AUTO 06008KT 10SM CLR 31/21 A2992 RMK AO2 SLP101 T03060206

2010/08/09 15:53
KHLG 091553Z 16003KT 8SM CLR 29/16 A3005 RMK AO2 SLP170 T02890156

2010/08/09 15:53
KHLN 091553Z 10003KT 10SM BKN100 17/08 A2997 RMK AO2 SLP137 T01670083

2010/08/09 15:53
KHUF 091553Z 24004KT 8SM CLR 31/21 A2998 RMK AO2 SLP148 T03060211

2010/08/09 15:53
KHUL 091553Z AUTO 24008KT 10SM FEW010 BKN019 OVC025 21/19 A2988 RMK AO2 SLP118 T02110189

2010/08/09 15:53
KHVN 091553Z 21007G14KT 9SM CLR 28/21 A3000 RMK AO2 SLP158 T02830211

2010/08/09 15:53
KSWO 091553Z 16005KT 10SM CLR 34/22 A2991 RMK AO2 SLP114 T03440217

2010/08/09 15:50
KSZT 091550Z AUTO 00000KT 10SM CLR 18/15 A2989 RMK AO2

2010/08/09 15:53
KTDZ 091553Z AUTO 26007KT 8SM CLR 29/19 A3000 RMK AO2 SLP151 T02940189

2010/08/09 15:50
KTEX 091550Z AUTO 00000KT 10SM SCT050 OVC055 15/11 A3041 RMK AO2

2010/08/09 15:53
KTHV 091553Z AUTO 00000KT 8SM CLR 30/21 A3002 RMK AO2 SLP164 T03000211

2010/08/09 15:50
KTIF 091550Z AUTO 00000KT 10SM CLR 24/21 A2998 RMK AO2 T02410208

2010/08/09 15:53
KTKI 091553Z 21006KT 10SM CLR 32/23 A2995 RMK AO2 SLP135 T03170233

2010/08/09 15:53
KTMB 091553Z 17005KT 7SM -RA SCT007 BKN027 BKN060 27/24 A2996 RMK AO2 RAE09B53 SLP146 P0001 T02720239

2010/08/09 15:53
KTOP 091553Z 21007KT 10SM CLR 35/22 A2989 RMK AO2 SLP107 T03500222

2010/08/09 15:53
KTOR 091553Z AUTO VRB03KT 10SM CLR 25/14 A3002 RMK AO2 SLP112 T02500139

2010/08/09 15:53
KTPA 091553Z 07007KT 7SM SCT022 29/23 A2994 RMK AO2 SLP137 T02940233

2010/08/09 15:53
KTRL 091553Z AUTO 21009KT 180V250 10SM CLR 33/20 A2997 RMK AO2 SLP140 T03280200

2010/08/09 15:53
KTTN 091553Z 28006KT 9SM CLR 32/18 A3002 RMK AO2 SLP157 T03220183

2010/08/09 15:53
KTUL 091553Z 19008KT 10SM CLR 34/22 A2993 RMK AO2 SLP123 T03390217

2010/08/09 15:53
KTWF 091553Z VRB03KT 10SM CLR 23/11 A2994 RMK AO2 SLP080 T02330106

2010/08/09 15:53
KTXK 091553Z 29004KT 10SM CLR 33/23 A2998 RMK AO2 SLP144 T03280228

2010/08/09 15:53
KTYR 091553Z 21004KT 10SM CLR 32/22 A3000 RMK AO2 SLP152 T03170222

2010/08/09 15:53
KUNO 091553Z AUTO VRB05KT 10SM CLR 33/22 A3002 RMK AO2 SLP146 T03330222

2010/08/09 15:53
KUUU 091553Z AUTO 20010G16KT 10SM CLR 27/22 A3001 RMK AO2 SLP158 T02720217

2010/08/09 15:53
KVEL 091553Z AUTO VRB04KT 10SM FEW070 BKN110 17/11 A3016 RMK AO2 LTG DSNT SE RAB29E39 SLP160 P0000 T01670106

2010/08/09 15:53
KVGT 091553Z 11007KT 10SM CLR 27/09 A2995 RMK AO2 SLP109 T02670094

2010/08/09 15:53
KVIH 091553Z AUTO 23005KT 10SM CLR 32/25 A2997 RMK AO2 SLP134 T03220250

2010/08/09 15:53
KVLD 091553Z 04011KT 10SM SCT040 32/22 A2999 RMK AO2 SLP161 T03220222

2010/08/09 15:53
KVRB 091553Z 12008KT 10SM SCT017 BKN043 OVC065 30/24 A2995 RMK AO2 SLP139 T03000244

2010/08/09 15:53
KWRL 091553Z AUTO 00000KT 10SM CLR 23/08 A2998 RMK AO2 SLP108 T02330078

2010/08/09 15:53
KWST 091553Z AUTO 22008KT 9SM CLR 28/21 A3001 RMK AO2 SLP161 T02780211

2010/08/09 15:53
KYIP 091553Z AUTO VRB06KT 9SM CLR 28/21 A2997 RMK AO2 SLP140 T02830206 TSNO

2010/08/09 15:53
KZZV 091553Z AUTO 21007KT 10SM CLR 29/18 A3004 RMK AO2 SLP165 T02890178

2010/08/09 15:53
KMTJ 091553Z AUTO 00000KT 10SM BKN090 19/13 A3022 RMK AO2 RAB11E21 SLP161 P0000 T01940133

2010/08/09 15:53
KMTO 091553Z AUTO VRB05KT 10SM CLR 31/24 A2998 RMK AO2 SLP144 T03110239 $

2010/08/09 15:53
KMVY 091553Z 23010KT 10SM FEW007 29/23 A3001 RMK AO2 SLP162 T02890228

2010/08/09 15:53
KMWL 091553Z AUTO 20006KT 10SM CLR 33/22 A2995 RMK AO2 SLP124 T03330222

2010/08/09 15:53
KMYF 091553Z 28004KT 10SM OVC011 17/13 A2993 RMK AO2 SLP133 T01670133

2010/08/09 15:53
KODO 091553Z AUTO 18009KT 10SM CLR 29/19 A3002 RMK AO2 SLP118 T02940194

2010/08/09 15:53
KOGB 091553Z AUTO 04006KT 10SM FEW032 32/22 A3004 RMK AO2 SLP169 T03220222

2010/08/09 15:53
KLAW 091553Z AUTO 20008KT 10SM CLR 33/21 A2992 RMK AO2 SLP114 T03330206

2010/08/09 15:53
KLBB 091553Z 21010KT 10SM FEW150 SCT200 29/18 A3005 RMK AO2 SLP117 T02940178

2010/08/09 15:53
KLBF 091553Z AUTO 00000KT 10SM CLR 24/22 A2998 RMK AO2 SLP125 T02440217

2010/08/09 15:53
KLEB 091553Z 00000KT 10SM SCT045 BKN070 29/17 A2995 RMK AO2 SLP129 T02940167

2010/08/09 15:53
KLEE 091553Z 08005KT 2SM -RA FEW005 SCT027 SCT090 28/26 A2995 RMK AO2 RAB15 SLP141 P0010 T02830256

2010/08/09 15:53
KLGB 091553Z 00000KT 6SM HZ OVC014 17/13 A2993 RMK AO2 SLP134 T01720128

2010/08/09 15:53
KLHQ 091553Z AUTO 22006KT 8SM CLR 28/19 A3004 RMK AO2 SLP165 T02830194

2010/08/09 15:53
KLHX 091553Z AUTO 31006KT 10SM CLR 26/17 A3005 RMK AO2 SLP108 T02610167 $

2010/08/09 15:53
KLMT 091553Z 00000KT 10SM FEW050 SCT100 17/09 A2999 RMK AO2 SLP116 T01670094

2010/08/09 15:53
KLNS 091553Z 33003KT 8SM FEW034 30/21 A3002 RMK AO2 SLP162 T03000206

2010/08/09 15:53
KLOU 091553Z 17003KT 10SM CLR 31/21 A3002 RMK AO2 SLP158 T03110211

2010/08/09 15:53
KLOZ 091553Z AUTO VRB06KT 10SM CLR 30/22 A3007 RMK AO2 SLP169 T03000222

2010/08/09 15:53
KLPR 091553Z AUTO 22008KT 10SM CLR 30/20 A3001 RMK AO2 SLP154 T03000200

2010/08/09 15:53
KLUK 091553Z 19006KT 8SM CLR 30/21 A3002 RMK AO2 SLP162 T03000211

2010/08/09 15:53
KPOU 091553Z 27005KT 9SM CLR 31/17 A2999 RMK AO2 SLP150 T03060172

2010/08/09 15:53
KPRC 091553Z 00000KT 10SM CLR 23/09 A3014 RMK AO2 SLP126 T02280094

2010/08/09 15:53
KPSP 091553Z 00000KT 10SM CLR 28/08 A2981 RMK AO2 SLP092 T02780078

2010/08/09 15:53
KPTK 091553Z 28009KT 9SM SCT130 OVC160 26/20 A2996 RMK AO2 SLP136 T02610200

2010/08/09 15:50
KPTT 091550Z AUTO 21008KT 10SM CLR 34/17 A2993 RMK AO2

2010/08/09 15:53
KPUB 091553Z 00000KT 10SM CLR 24/14 A3009 RMK AO2 SLP122 T02440144 $

2010/08/09 15:53
KPUC 091553Z AUTO 00000KT 10SM CLR 19/09 A3018 RMK AO2 SLP169 T01890089

2010/08/09 15:53
KPWA 091553Z 19010KT 10SM CLR 33/21 A2993 RMK AO2 SLP113 T03280211

2010/08/09 15:53
KRAL 091553Z 00000KT 5SM HZ CLR 17/13 A2992 RMK AO2 SLP120 T01720128

2010/08/09 15:53
KRBD 091553Z VRB06KT 10SM CLR 32/23 A2996 RMK AO2 SLP134 T03220228

2010/08/09 15:53
KRIW 091553Z AUTO 11004KT 10SM CLR 22/06 A3008 RMK AO2 SLP115 T02170056

2010/08/09 15:53
KRME 091553Z 23009KT 10SM CLR 28/19 A2999 RMK AO2 SLP151 T02780189

2010/08/09 15:53
KRSL 091553Z AUTO 19005KT 10SM CLR 32/21 A2989 RMK AO2 SLP096 T03170206

2010/08/09 15:53
KRSW 091553Z 11008KT 10SM FEW047 OVC060 30/23 A2993 RMK AO2 SLP133 T03000233

2010/08/09 15:53
KRVS 091553Z 21008KT 10SM CLR 35/22 A2993 RMK AO2 SLP135 T03500222

2010/08/09 15:53
KRWL 091553Z AUTO 22013G19KT 10SM CLR 23/06 A3020 RMK AO2 SLP124 T02280056 PNO $

2010/08/09 15:53
KRXE 091553Z AUTO 00000KT 10SM CLR 19/12 A3004 RMK AO2 SLP136 T01890117

2010/08/09 15:53
KSAC 091553Z 22007KT 10SM CLR 17/12 A2989 RMK AO2 SLP121 T01670122

2010/08/09 15:53
KSBA 091553Z 14006KT 1SM R07/2600VP6000FT BR BKN002 14/13 A2993 RMK AO2 SLP134 T01440133

2010/08/09 15:53
KSEG 091553Z AUTO 00000KT 9SM CLR 31/17 A3003 RMK AO2 SLP166 T03060172

2010/08/09 15:49
KSEZ 091549Z AUTO 00000KT 10SM SCT090 25/09 A3014 RMK AO2 T02520087

2010/08/09 15:53
KSHR 091553Z AUTO 00000KT 10SM CLR 28/08 A2995 RMK AO2 SLP100 T02780078

2010/08/09 15:53
KSLC 091553Z 18019G26KT 10SM FEW075 SCT140 SCT200 24/08 A3002 RMK AO2 PK WND 16026/1549 SLP111 CB DSNT NW T02440083

2010/08/09 15:53
KSLN 091553Z 21009KT 10SM CLR 34/21 A2988 RMK AO2 SLP098 T03440206

2010/08/09 15:53
KSMQ 091553Z AUTO VRB04KT 10SM FEW048 31/21 A3000 RMK AO2 SLP156 T03110206 $

2010/08/09 15:53
KSNA 091553Z 30003KT 5SM HZ OVC013 18/13 A2992 RMK AO2 SLP132 T01830128

2010/08/09 15:53
KSNY 091553Z AUTO VRB03KT 10SM CLR 30/12 A3006 RMK AO2 SLP118 T03000117

2010/08/09 15:50
KSOW 091550Z AUTO 19003KT 10SM BKN100 20/11 A3028 RMK AO2

2010/08/09 15:53
KSPG 091553Z 10009KT 10SM CLR 29/25 A2993 RMK AO2 SLP133 T02940250

2010/08/09 15:53
KSRQ 091553Z 10009KT 10SM SCT019 OVC023 28/24 A2993 RMK AO2 SLP134 T02830239

2010/08/09 15:53
KOGD 091553Z AUTO 13008KT 10SM CLR 23/09 A3004 RMK AO2 SLP112 T02280089

2010/08/09 15:53
KOJC 091553Z 20006KT 10SM FEW085 32/24 A2992 RMK AO2 SLP118 T03170239

2010/08/09 15:53
KOLF 091553Z AUTO 00000KT 10SM CLR 26/14 A2987 RMK AO2 SLP103 T02560144

2010/08/09 15:53
KONO 091553Z AUTO 23004KT 10SM CLR 22/10 A2987 RMK AO2 SLP100 T02170100

2010/08/09 15:53
KONT 091553Z 00000KT 4SM HZ CLR 18/12 A2992 RMK AO2 SLP124 T01780122

2010/08/09 15:53
KOPF 091553Z 15011KT 10SM FEW024 SCT038 BKN048 28/24 A2995 RMK AO2 SLP144 T02830239

2010/08/09 15:53
KORL 091553Z 11008KT 10SM FEW021 SCT035 SCT055 30/25 A2994 RMK AO2 SLP142 T03000250

2010/08/09 15:53
KOSU 091553Z 24005KT 8SM CLR 29/19 A3002 RMK AO2 SLP158 T02890194 $

2010/08/09 15:53
KOTM 091553Z AUTO 15008KT 10SM CLR 27/23 A2991 RMK AO2 LTG DSNT S SLP119 T02670228

2010/08/09 15:53
KOWD 091553Z 25008KT 10SM CLR 32/18 A2996 RMK AO2 SLP146 T03170183

2010/08/09 15:53
KPBG 091553Z AUTO 15008KT 10SM FEW046 25/19 A2993 RMK AO2 SLP135 T02500194

2010/08/09 15:53
KPBI 091553Z 15008KT 10SM SCT022 SCT055 BKN080 30/24 A2995 RMK AO2 SLP140 CB DSNT ALQDS T02970238

2010/08/09 15:53
KPEO 091553Z AUTO 19005KT 10SM CLR 28/19 A3002 RMK AO2 SLP156 T02780189

2010/08/09 15:53
KPGA 091553Z AUTO 36003KT 10SM CLR 23/12 A3010 RMK AO2 SLP135 T02280117

2010/08/09 15:53
KPGD 091553Z AUTO 11007KT 10SM SCT023 SCT041 29/23 A2996 RMK AO2 SLP145 T02940233 TSNO

2010/08/09 15:53
KPHD 091553Z AUTO 22006KT 10SM CLR 28/17 A3004 RMK AO2 SLP167 T02830172

2010/08/09 15:53
KPIE 091553Z 08006KT 10SM FEW019 29/24 A2994 RMK AO2 SLP137 T02940244

2010/08/09 15:53
KPIH 091553Z 20009KT 10SM SCT095 21/09 A3002 RMK AO2 RAB44E49 SLP113 P0000 T02110094

2010/08/09 15:53
KPKB 091553Z 00000KT 9SM CLR 29/17 A3007 RMK AO2 SLP174 T02890172

2010/08/09 15:53
KPMD 091553Z 03003KT 10SM CLR 23/01 A2996 RMK AO2 SLP118 T02280011

2010/08/09 15:53
KPMP 091553Z 14011KT 10SM FEW016 SCT042 SCT080 29/24 A2995 RMK AO2 RAB11E36 SLP144 P0000 T02940239

2010/08/09 15:50
KPNA 091550Z AUTO 11005KT 10SM SCT090 18/04 A3019 RMK AO2 T01770043

2010/08/09 15:53
KPNC 091553Z AUTO VRB04KT 10SM CLR 33/22 A2991 RMK AO2 SLP111 T03330217

2010/08/09 15:53
KPNS 091553Z 09005KT 10SM CLR 31/24 A2998 RMK AO2 SLP151 T03110244

2010/08/09 15:53
KPOF 091553Z AUTO 00000KT 9SM CLR 33/26 A2996 RMK AO2 SLP139 T03280261

2010/08/09 15:53
KHVR 091553Z AUTO 00000KT 10SM CLR 23/11 A2990 RMK AO2 SLP107 T02280106

2010/08/09 15:53
KHWO 091553Z 12013KT 10SM FEW026 31/23 A2996 RMK AO2 SLP146 T03060233

2010/08/09 15:53
KHZY 091553Z AUTO 20004KT 10SM FEW090 28/19 A3002 RMK AO2 SLP158 T02780189

2010/08/09 15:53
KIAG 091553Z 22011KT 10SM BKN070 BKN110 OVC140 27/20 A2996 RMK AO2 SLP139 T02670200

2010/08/09 15:53
KICT 091553Z VRB06KT 10SM SCT150 SCT200 SCT250 35/21 A2992 RMK AO2 SLP112 T03500206

2010/08/09 15:53
KIDA 091553Z 00000KT 10SM SCT090 BKN150 20/12 A3004 RMK AO2 SLP128 T02000122

2010/08/09 15:53
KIML 091553Z AUTO 00000KT 10SM CLR 24/19 A3000 RMK AO2 LTG DSNT S RAE24 SLP124 P0000 T02390194

2010/08/09 15:53
KIPL 091553Z AUTO 29003KT 10SM CLR 29/12 A2979 RMK AO2 SLP088 T02890122

2010/08/09 15:53
KITR 091553Z AUTO 10005KT 10SM CLR 27/16 A3004 RMK AO2 SLP112 T02720161

2010/08/09 15:53
KIWI 091553Z AUTO 31004KT 10SM SCT030 27/20 A2994 RMK AO2 SLP136 T02670200

2010/08/09 15:53
KIXD 091553Z 17003KT 10SM CLR 29/23 A2993 RMK AO2 SLP122 T02940233

2010/08/09 15:53
KJEF 091553Z 00000KT 10SM SCT075 32/25 A2996 RMK AO2 SLP128 T03170250 $

2010/08/09 15:53
KJER 091553Z AUTO 06004KT 10SM CLR 22/09 A2995 RMK AO2 SLP101 T02170094

2010/08/09 15:53
KJKL 091553Z AUTO 13003KT 10SM CLR 29/18 A3008 RMK AO2 SLP169 T02890178

2010/08/09 15:53
KJLN 091553Z 21006KT 10SM CLR 32/23 A2997 RMK AO2 SLP137 T03170233 $

2010/08/09 15:53
KLAA 091553Z AUTO VRB03KT 10SM CLR 26/16 A2999 RMK AO2 SLP098 T02610156

2010/08/09 15:53
KLAN 091553Z 22007KT 10SM -RA FEW011 SCT055 OVC120 23/21 A2996 RMK AO2 SLP140 P0000 T02330211

2010/08/09 15:53
KLAR 091553Z AUTO 12004KT 10SM SCT110 18/08 A3024 RMK AO2 SLP134 T01780078

2010/08/09 15:53
KCGI 091553Z VRB03KT 10SM CLR 32/26 A2996 RMK AO2 SLP142 T03220256

2010/08/09 15:53
KCKB 091553Z VRB03KT 7SM CLR 28/19 A3006 RMK AO2 SLP164 T02830194

2010/08/09 15:53
KCNO 091553Z 00000KT 4SM HZ CLR 18/13 A2994 RMK AO2 SLP133 T01780128

2010/08/09 15:53
KCNY 091553Z AUTO 29003KT 10SM CLR 24/10 A3011 RMK AO2 SLP139 T02390100

2010/08/09 15:53
KCPR 091553Z 21015KT 10SM CLR 26/04 A3007 RMK AO2 SLP108 T02610044

2010/08/09 15:53
KCPS 091553Z VRB03KT 10SM HZ CLR 32/24 A2995 RMK AO2 SLP138 T03220244

2010/08/09 15:53
KCRE 091553Z 10007KT 10SM BKN036 31/25 A3003 RMK AO2 SLP169 T03060250

2010/08/09 15:53
KCRG 091553Z 06011G17KT 10SM BKN020 BKN080 30/24 A2997 RMK AO2 SLP150 T03000244

2010/08/09 15:53
KCRQ 091553Z 00000KT 10SM OVC013 18/12 A2992 RMK AO2 SLP130 T01780122

2010/08/09 15:53
KCRS 091553Z AUTO 20010KT 10SM CLR 32/22 A2997 RMK AO2 SLP142 T03170222

2010/08/09 15:53
KCSM 091553Z 18013KT 10SM CLR 33/18 A2995 RMK AO2 SLP110 T03330183

2010/08/09 15:53
KCUB 091553Z AUTO 00000KT 10SM CLR 32/21 A3004 RMK AO2 SLP170 T03220211

2010/08/09 15:53
KCYS 091553Z 22008KT 10SM FEW031 OVC090 20/12 A3019 RMK AO2 SLP136 T02000122

2010/08/09 15:53
KDAL 091553Z 22008KT 10SM CLR 32/23 A2995 RMK AO2 SLP133 T03220228

2010/08/09 15:53
KDAN 091553Z AUTO VRB03KT 8SM CLR 32/20 A3006 RMK AO2 SLP166 T03220200

2010/08/09 15:53
KDEN 091553Z 28006KT 10SM SCT100 BKN140 23/13 A3013 RMK AO2 SLP123 T02330133

2010/08/09 15:53
KDEQ 091553Z AUTO 00000KT 10SM CLR 32/23 A2996 RMK AO2 SLP137 T03170233

2010/08/09 15:53
KDET 091553Z 24007KT 8SM CLR 27/20 A2995 RMK AO2 SLP139 T02720200

2010/08/09 15:53
KDFI 091553Z AUTO 24004KT 8SM CLR 28/19 A3000 RMK AO2 SLP152 T02780189

2010/08/09 15:53
KDFW 091553Z 19008KT 10SM CLR 32/22 A2995 RMK AO2 SLP131 T03220222

2010/08/09 15:53
KDGW 091553Z AUTO 32005KT 10SM CLR 27/07 A3006 RMK AO2 SLP109 T02670067

2010/08/09 15:53
KDHN 091553Z 08007KT 10SM FEW032 32/24 A3004 RMK AO2 SLP167 T03170239

2010/08/09 15:53
KFST 091553Z AUTO 14008KT 10SM CLR 28/20 A3002 RMK AO2 SLP112 T02830200

2010/08/09 15:53
KFTW 091553Z VRB05KT 10SM CLR 32/22 A2994 RMK AO2 SLP128 T03220222

2010/08/09 15:53
KFUL 091553Z 30003KT 6SM HZ OVC013 17/12 A2992 RMK AO2 SLP131 T01670122

2010/08/09 15:53
KFVE 091553Z AUTO 24006KT 10SM BKN016 OVC022 21/16 A2988 RMK AO2 SLP114 T02060161

2010/08/09 15:53
KFWN 091553Z AUTO 19007KT 10SM CLR 31/18 A3002 RMK AO2 SLP160 T03110183

2010/08/09 15:53
KFXE 091553Z 13010KT 10SM SCT030 SCT100 29/23 A2995 RMK AO2 SLP143 T02940233

2010/08/09 15:53
KGAG 091553Z AUTO 20012KT 10SM CLR 32/19 A2994 RMK AO2 SLP102 T03220194

2010/08/09 15:53
KGCC 091553Z AUTO 25007KT 10SM CLR 24/10 A2998 RMK AO2 SLP109 T02440100

2010/08/09 15:53
KGEY 091553Z AUTO VRB03KT 10SM CLR 24/07 A2996 RMK AO2 SLP104 T02440072

2010/08/09 15:53
KGEZ 091553Z AUTO 21007KT 9SM CLR 29/21 A2999 RMK AO2 SLP150 T02940206

2010/08/09 15:53
KGFL 091553Z AUTO 17011G16KT 10SM SCT055 29/18 A2996 RMK AO2 SLP140 T02890183

2010/08/09 15:53
KGGG 091553Z VRB05KT 10SM CLR 32/23 A2999 RMK AO2 SLP147 T03170228

2010/08/09 15:53
KGGW 091553Z AUTO 00000KT 10SM CLR 25/13 A2988 RMK AO2 SLP105 T02500133 TSNO

2010/08/09 15:53
KGIF 091553Z AUTO 12006KT 10SM FEW019 BKN036 OVC050 29/24 A2996 RMK AO2 SLP143 T02940239 TSNO

2010/08/09 15:53
KGJT 091553Z 12008KT 10SM SCT100 24/09 A3014 RMK AO2 SLP136 T02440089

2010/08/09 15:53
KGKJ 091553Z AUTO 21006KT 10SM CLR 27/17 A3005 RMK AO2 SLP164 T02670167

2010/08/09 15:53
KGKY 091553Z 21006KT 10SM CLR 32/23 A2996 RMK AO2 SLP133 T03170228

2010/08/09 15:53
KGLD 091553Z AUTO 06011KT 10SM CLR 31/13 A3000 RMK AO2 SLP108 T03110133

2010/08/09 15:53
KGNV 091553Z 06009G14KT 10SM FEW027 SCT036 SCT046 32/24 A2996 RMK AO2 SLP141 T03170244

2010/08/09 15:53
KGOK 091553Z AUTO 21007KT 10SM CLR 34/21 A2991 RMK AO2 SLP115 T03390211

2010/08/09 15:53
KGTF 091553Z 21004KT 10SM CLR 22/08 A2992 RMK AO2 SLP098 T02220078

2010/08/09 15:53
KGUY 091553Z AUTO 29003KT 10SM CLR 31/16 A2995 RMK AO2 SLP084 T03110161

2010/08/09 15:53
KGZH 091553Z AUTO 06006KT 10SM FEW026 31/24 A3001 RMK AO2 SLP157 P0001 T03060244

2010/08/09 15:53
KSSI 091553Z AUTO 03011G18KT 10SM FEW021 BKN031 BKN037 31/25 A2999 RMK AO2 SLP156 T03110250

2010/08/09 15:53
KSTJ 091553Z 17010KT 10SM CLR 31/23 A2989 RMK AO2 SLP111 T03060233

2010/08/09 15:53
KSTS 091553Z 00000KT 3SM BR OVC003 12/11 A2992 RMK AO2 SLP125 T01220111

2010/08/09 15:53
KLVK 091553Z 29005KT 10SM OVC012 16/12 A2991 RMK AO2 SLP125 T01610122 $

2010/08/09 15:53
KLVM 091553Z AUTO 32006KT 10SM CLR 18/11 A2999 RMK AO2 RAB03E14 SLP124 P0001 T01830106

2010/08/09 15:53
KLVS 091553Z AUTO 33003KT 10SM BKN110 23/11 A3022 RMK AO2 SLP115 T02280106

2010/08/09 15:53
KLWD 091553Z AUTO 19005KT 10SM CLR 24/23 A2991 RMK AO2 LTG DSNT SW RAB15E31 SLP118 P0001 T02440228

2010/08/09 15:53
KLWV 091553Z AUTO 19004KT 6SM HZ CLR 32/23 A2997 RMK AO2 SLP143 T03170228

2010/08/09 15:53
KLXT 091553Z AUTO 10004KT 10SM SCT080 31/23 A2995 RMK AO2 SLP127 T03110233

2010/08/09 15:53
KMAE 091553Z AUTO 30007KT 10SM CLR 21/12 A2988 RMK AO2 SLP116 T02060122

2010/08/09 15:53
KMAF 091553Z 17013KT 10SM CLR 30/19 A3001 RMK AO2 SLP114 T03000194

2010/08/09 15:53
KMAI 091553Z AUTO VRB06KT 10SM FEW036 33/23 A2998 RMK AO2 SLP150 T03330228

2010/08/09 15:53
KMBS 091553Z 23008KT 7SM CLR 25/22 A2992 RMK AO2 SLP129 T02500217

2010/08/09 15:53
KMCE 091553Z AUTO 31006KT 10SM CLR 19/12 A2988 RMK AO2 SLP117 T01890122

2010/08/09 15:53
KMCI 091553Z 16006KT 10SM SCT034 SCT250 33/24 A2992 RMK AO2 SLP117 T03280239

2010/08/09 15:53
KMCK 091553Z AUTO 02013KT 10SM CLR 29/22 A2995 RMK AO2 SLP112 T02890217

2010/08/09 15:53
KMCO 091553Z 12006KT 10SM SCT016 BKN045 BKN250 29/24 A2994 RMK AO2 RAE08 SLP138 P0000 T02940244

2010/08/09 15:53
KMCW 091553Z AUTO 22004KT 10SM CLR 27/22 A2995 RMK AO2 SLP130 T02670222

2010/08/09 15:53
KMGW 091553Z 00000KT 10SM CLR 28/16 A3007 RMK AO2 SLP172 T02830161

2010/08/09 15:53
KMGY 091553Z AUTO 19007KT 10SM CLR 29/19 A3003 RMK AO2 SLP160 T02890194

2010/08/09 15:53
KMHT 091553Z 22005KT 10SM FEW050 30/18 A2993 RMK AO2 SLP143 T03000178

2010/08/09 15:53
KMIA 091553Z 17006KT 10SM -RA FEW008 BKN018CB BKN040 OVC130 26/23 A2996 RMK AO2 SLP147 CB SE-SW-NW MOV NW P0037 T02610233

2010/08/09 15:53
KMIE 091553Z 23003KT 9SM CLR 29/21 A3001 RMK AO2 SLP150 T02890206

2010/08/09 15:53
KMKO 091553Z AUTO 21008KT 10SM CLR 33/22 A2996 RMK AO2 SLP136 T03330222

2010/08/09 15:53
KMLB 091553Z 09009KT 10SM SCT017 SCT046 29/24 A2995 RMK AO2 SLP140 T02940244

2010/08/09 15:53
KMLC 091553Z AUTO 24012KT 10SM CLR 33/22 A2996 RMK AO2 SLP135 T03330217

2010/08/09 15:53
KMLS 091553Z AUTO 29006KT 10SM CLR 26/10 A2989 RMK AO2 SLP100 T02560100

2010/08/09 15:53
KMLT 091553Z AUTO 00000KT 10SM FEW018 SCT035 23/19 A2991 RMK AO2 SLP133 T02330189

2010/08/09 15:53
KMLU 091553Z 32004KT 10SM CLR 34/25 A2998 RMK AO2 SLP151 T03390250

2010/08/09 15:53
KMMK 091553Z AUTO 25005KT CLR 31/19 A2999 RMK AO2 SLP154 T03060194 $

2010/08/09 15:53
KMNN 091553Z AUTO 21005KT 10SM CLR 28/20 A3003 RMK AO2 SLP163 T02780200

2010/08/09 15:53
KMSO 091553Z 18003KT 10SM FEW110 17/09 A2993 RMK AO2 SLP119 T01720094

2010/08/09 15:53
KMSS 091553Z AUTO VRB03KT 10SM SCT019 BKN026 25/21 A2994 RMK AO2 SLP138 T02500206

2010/08/09 15:53
KMTH 091553Z AUTO 20005KT 10SM BKN050 BKN080 26/24 A2997 RMK AO2 RAE1458 SLP148 P0000 T02560239

2010/08/09 15:53
KDKK 091553Z AUTO 25008G16KT 10SM FEW095 29/18 A2999 RMK AO2 SLP149 T02890178

2010/08/09 15:53
KDLN 091553Z AUTO 00000KT 10SM CLR 18/10 A3002 RMK AO2 SLP122 T01830100

2010/08/09 15:53
KDMO 091553Z AUTO 00000KT 10SM CLR 33/24 A2997 RMK AO2 SLP136 T03280244

2010/08/09 15:53
KDRO 091553Z AUTO 00000KT 10SM CLR 21/12 A3025 RMK AO2 SLP154 T02110117

2010/08/09 15:53
KDTN 091553Z 23003KT 10SM CLR 32/23 A2998 RMK AO2 SLP148 T03170233

2010/08/09 15:53
KDTO 091553Z 21006KT 10SM CLR 33/22 A2994 RMK AO2 SLP128 T03330222

2010/08/09 15:53
KDTS 091553Z AUTO 09009KT 10SM CLR 32/25 A2997 RMK AO2 SLP147 T03170250

2010/08/09 15:53
KDTW 091553Z 25009KT 7SM FEW080 BKN130 BKN220 27/21 A2996 RMK AO2 SLP142 T02670206

2010/08/09 15:53
KDVT 091553Z 00000KT 10SM CLR 32/03 A2989 RMK AO2 SLP095 T03170028

2010/08/09 15:53
PAKT 091553Z 13007KT 5SM BR SCT004 OVC011 13/12 A3001 RMK AO2 SLP164 SCT004 V BKN VIS E 3 HARBOR WND 12005KT T01280117

2010/08/09 15:53
PAKV 091553Z AUTO 00000KT 4SM BR OVC006 12/11 A2945 RMK AO2 RAB09E34 SLP976 P0000 T01170111 TSNO

2010/08/09 15:53
PAKW 091553Z AUTO 00000KT 10SM SCT009 BKN034 13/11 A2998 RMK AO2 SLP153 T01330111 TSNO

2010/08/09 15:53
PALH 091553Z 35006KT 10SM BKN070 OVC085 14/11 A2964 RMK AO2 SLP037 T01390111

2010/08/09 15:53
PAMC 091553Z 12004KT 4SM -RA BR FEW005 BKN010 OVC018 12/11 A2949 RMK AO2 SLP991 P0001 T01170106

2010/08/09 15:53
PAMR 091553Z 00000KT 10SM SCT050 OVC070 13/10 A2962 RMK AO2 SLP031 T01330100

2010/08/09 15:53
PANC 091553Z 33006KT 10SM FEW008 SCT065 BKN090 BKN200 13/12 A2963 RMK AO2 SLP033 T01280117

2010/08/09 15:53
PANN 091553Z AUTO 20003KT 10SM SCT065 15/07 A2955 RMK AO2 SLP010 T01500072 TSNO

2010/08/09 15:53
PANT 091553Z 14004KT 1 1/2SM BR BKN005 OVC008 13/12 A3001 RMK AO2 CIG 002V006 SLP163 P0001 T01330117

2010/08/09 15:53
PAOM 091553Z 12009KT 10SM FEW013 SCT024 OVC031 12/10 A2929 RMK AO2 SLP919 T01220100

2010/08/09 15:53
PAOR 091553Z AUTO VRB03KT 10SM SCT070 OVC095 11/09 A2969 RMK AO2 RAE47 SLP054 P0002 T01060094 TSNO

2010/08/09 15:53
PAOT 091553Z 07013KT 10SM FEW080 SCT110 BKN150 15/10 A2942 RMK AO2 SLP961 T01500100

2010/08/09 15:53
PAPB 091553Z AUTO 22012KT 3/4SM BR VV001 08/08 A2924 RMK AO2 SLP891 T00780078 TSNO

2010/08/09 15:53
PASC 091553Z 06021G28KT 3/4SM R05/4000V5500FT BR OVC003 03/03 A2976 RMK AO2 PK WND 06030/1457 SLP078 T00280028

2010/08/09 15:53
PASI 091553Z 00000KT 10SM FEW004 BKN034 OVC040 13/12 A2996 RMK AO2 SLP144 MTNS OBSCD SW-N T01280117

2010/08/09 15:53
PASN 091553Z 24012KT 9SM OVC003 08/08 A2919 RMK AO2 SLP886 T00830083

2010/08/09 15:53
PASO 091553Z AUTO 19006KT 10SM CLR 13/11 A2960 RMK AO2 SLP023 T01330106 TSNO

2010/08/09 15:53
PATK 091553Z 03004KT 10SM -RA FEW034 OVC060 11/10 A2967 RMK AO2 RAE24B49 SLP050 P0001 T01110100

2010/08/09 15:53
PATO 091553Z AUTO 11015G27KT 3SM -RA BR BKN021 OVC028 12/10 A2973 RMK AO2 PK WND 11028/1513 SLP068 P0002 T01170100 TSNO

2010/08/09 15:53
PAVL 091553Z AUTO 05013KT 9SM -RA BKN085 12/09 A2946 RMK AO2 SLP977 P0000 T01220089 TSNO

2010/08/09 15:53
PAWD 091553Z AUTO A2970 RMK AO2 SLP059 PWINO FZRANO TSNO $

2010/08/09 15:53
PAYA 091553Z 10003KT 6SM BR FEW007 BKN015 OVC023 13/11 A2993 RMK AO2 RAB37E53 SLP134 BAY TWR WND 120MMKT P0000 T01280111

2010/08/09 15:54
KAAO 091554Z AUTO 21007KT 10SM CLR 34/20 A2992 RMK AO2 SLP112 T03440200

2010/08/09 15:50
KAEG 091550Z 00000KT 10SM FEW200 22/12 A3020

2010/08/09 15:55
KAEG 091555Z AUTO 00000KT 10SM CLR 22/12 A3020 RMK AO1

2010/08/09 15:55
KAIK 091555Z AUTO 02005KT 10SM CLR 31/26 A3008 RMK AO2 PNO

2010/08/09 15:55
KAIZ 091555Z AUTO 23008KT 10SM CLR 32/24 A2998 RMK AO1

2010/08/09 15:54
KAKH 091554Z AUTO 00000KT 10SM CLR 32/21 A3007 RMK AO2 SLP174 T03170211

2010/08/09 15:54
KAKR 091554Z AUTO 23008KT 200V280 10SM CLR 29/17 A3003 RMK AO2 SLP159 T02890172

2010/08/09 15:54
KALO 091554Z AUTO 19006KT 10SM FEW070 26/23 A2991 RMK AO2 SLP120 T02560233

2010/08/09 15:54
KAPC 091554Z 24003KT 10SM OVC006 13/12 A2992 RMK AO2 SLP124 T01330117

2010/08/09 15:55
KARG 091555Z AUTO 19004KT 10SM CLR 32/25 A2997 RMK AO1

2010/08/09 15:55
KAUO 091555Z AUTO 10008KT 10SM SCT037 33/23 A3004 RMK AO1

2010/08/09 15:54
KAUW 091554Z AUTO 29007KT 6SM HZ BKN016 26/23 A2991 RMK AO2 SLP124 T02610228

2010/08/09 15:54
KAVL 091554Z 00000KT 10SM CLR 28/19 A3015 RMK AO2 SLP179 T02830194

2010/08/09 15:55
KAWO 091555Z AUTO 00000KT 10SM 15/13 A2998 RMK AO1

2010/08/09 15:55
KBBP 091555Z AUTO 10003KT 10SM CLR 32/22 A3003 RMK AO2

2010/08/09 15:54
KBFL 091554Z 00000KT 10SM CLR 22/12 A2989 RMK AO2 SLP115 T02220122

2010/08/09 15:55
KBHB 091555Z AUTO 17008KT 5SM OVC004 21/19 A2993 RMK AO1

2010/08/09 15:55
KBID 091555Z AUTO 23012KT 10SM FEW006 26/23 A3001 RMK AO1

2010/08/09 15:55
KBKX 091555Z AUTO 09007KT 10SM CLR 28/21 A2995 RMK AO1

2010/08/09 15:55
KBLM 091555Z AUTO 25007KT 10SM CLR 31/19 A3005 RMK AO1

2010/08/09 15:55
KBNL 091555Z AUTO 06006KT 10SM CLR 32/22 A3004 RMK AO2

2010/08/09 15:53
KDXR 091553Z 26006KT 8SM FEW050 31/18 A3002 RMK AO2 SLP159 T03060178

2010/08/09 15:53
KECP 091553Z 06008KT 10SM FEW030 32/24 A2997 RMK AO2 SLP157 T03220244

2010/08/09 15:53
KELD 091553Z AUTO 33005KT 10SM CLR 33/24 A2998 RMK AO2 SLP146 T03280244

2010/08/09 15:53
KELM 091553Z 27006KT 10SM CLR 28/17 A3002 RMK AO2 SLP159 T02830167

2010/08/09 15:53
KEMP 091553Z AUTO 20009KT 10SM CLR 33/21 A2992 RMK AO2 SLP117 T03330206

2010/08/09 15:47
KEMT 091547Z VRB04KT 4SM BR BKN013 A2993

2010/08/09 15:53
KEWB 091553Z 22008G18KT 8SM SCT015 BKN095 29/21 A2999 RMK AO2 SLP153 T02940211

2010/08/09 15:53
KEYE 091553Z AUTO 23005KT 10SM CLR 30/20 A3000 RMK AO2 SLP150 T03000200

2010/08/09 15:53
KEYW 091553Z 22009KT 10SM -RA FEW047 BKN075 28/23 A2996 RMK AO2 RAB34 SLP145 P0000 T02830233

2010/08/09 15:53
KFAT 091553Z 24003KT 10SM CLR 21/13 A2988 RMK AO2 SLP115 T02060128

2010/08/09 15:53
KFAY 091553Z AUTO VRB03KT 10SM CLR 33/20 A3003 RMK AO2 SLP164 T03280200

2010/08/09 15:53
KFDR 091553Z AUTO 19012KT 10SM 34/19 A2989 RMK AO2 SLP099 T03390194

2010/08/09 15:53
KFDY 091553Z AUTO 26007KT 7SM CLR 29/19 A3000 RMK AO2 SLP149 T02890194

2010/08/09 15:53
KFFT 091553Z AUTO 19004KT 9SM CLR 31/21 A3003 RMK AO2 SLP158 T03060206

2010/08/09 15:53
KFLD 091553Z AUTO 23004KT 10SM BKN016 OVC022 25/21 A2992 RMK AO2 SLP125 T02500211

2010/08/09 15:53
KFLL 091553Z 14014KT 10SM SCT023 BKN033 BKN085 29/24 A2995 RMK AO2 SLP140 T02890244

2010/08/09 15:53
KFLO 091553Z 06007KT 10SM CLR 31/23 A3004 RMK AO2 SLP168 T03110228

2010/08/09 15:53
KFMY 091553Z 10007KT 10SM SCT024 BKN039 BKN060 30/24 A2992 RMK AO2 LTG DSNT S SLP134 T03000239

2010/08/09 15:53
KFNB 091553Z AUTO 14010KT 10SM CLR 31/24 A2987 RMK AO2 SLP101 T03110244

2010/08/09 15:53
KFNT 091553Z 20004KT 8SM -RA CLR 25/21 A2995 RMK AO2 RAB02 SLP136 P0001 T02500211

2010/08/09 15:53
KFOE 091553Z 20007KT 10SM CLR 34/22 A2991 RMK AO2 SLP112 T03440217

2010/08/09 15:53
KFOK 091553Z 21009KT 9SM CLR 27/21 A3003 RMK AO2 SLP167 T02720211

2010/08/09 15:53
KFPR 091553Z 13005KT 10SM SCT018 BKN030 BKN100 29/24 A2995 RMK AO2 SLP141 T02890239

2010/08/09 15:53
KFRG 091553Z 21006KT 9SM CLR 29/22 A3001 RMK AO2 SLP162 T02890217

2010/08/09 15:53
PAAQ 091553Z 35010KT 10SM OVC095 13/09 A2965 RMK AO2 SLP034 T01330094

2010/08/09 15:53
PABE 091553Z 16013KT 10SM -RA BKN022 OVC030 10/09 A2934 RMK AO2 RAE20B38 SLP937 P0000 T01000089

2010/08/09 15:53
PABI 091553Z 19015G24KT 10SM FEW090 BKN110 BKN180 14/05 A2962 RMK AO2 RAE29 SLP030 P0000 T01390050

2010/08/09 15:53
PABR 091553Z 07021G26KT 10SM OVC005 02/01 A2989 RMK AO2 PK WND 07029/1533 CIG 004V010 SLP121 T00170011

2010/08/09 15:53
PABT 091553Z 00000KT 10SM -RA BKN045 OVC055 13/09 A2958 RMK AO2 RAB1458E11B34 SLP021 P0000 T01280094

2010/08/09 15:53
PACD 091553Z 24015KT 10SM BKN033 11/08 A2951 RMK AO2 SLP994 T01110078

2010/08/09 15:53
PACV 091553Z 12006G14KT 8SM SCT010 BKN042 OVC050 12/11 A2982 RMK AO2 RAE32 SLP098 P0000 T01220106

2010/08/09 15:53
PADE 091553Z AUTO 08015KT 10SM FEW085 13/11 A2937 RMK AO2 RAE37 SLP946 P0000 T01280106 TSNO

2010/08/09 15:53
PAEG 091553Z AUTO 00000KT 10SM SCT080 12/09 A2962 RMK AO2 SLP029 T01220094 TSNO

2010/08/09 15:53
PAEN 091553Z 05003KT 10SM BKN060 OVC075 13/12 A2961 RMK AO2 SLP029 T01330117

2010/08/09 15:53
PAFA 091553Z 00000KT 10SM FEW055 BKN075 OVC090 14/11 A2956 RMK AO2 RAE27 SLP011 P0000 T01440106

2010/08/09 15:53
PAGK 091553Z 17011G19KT 10SM FEW055 SCT080 SCT110 BKN140 BKN180 10/07 A2971 RMK AO2 SLP061 T01000072

2010/08/09 15:53
PAGY 091553Z AUTO 21009KT 10SM OVC050 13/10 A2993 RMK AO2 SLP135 T01330100 TSNO

2010/08/09 15:53
PAHO 091553Z 26003KT 10SM SCT050 BKN200 13/10 A2961 RMK AO2 SLP026 T01330100

2010/08/09 15:53
PAIL 091553Z 12008KT 10SM BKN028 BKN070 12/09 A2955 RMK AO2 SLP008 T01170094

2010/08/09 15:53
PAJN 091553Z 07006KT 10SM FEW006 SCT015 OVC030 12/11 A2997 RMK AO2 DZB38E51 SLP147 MTNS MSTLY OBSCD ALQDS THN SPTS IOVC PRESENT WX VCSH NW-N P0000 T01220111

2010/08/09 15:54
KGED 091554Z AUTO 15003KT 10SM CLR 32/17 A3004 RMK AO2 SLP173 T03170167

2010/08/09 15:55
KGPZ 091555Z AUTO 00000KT 10SM CLR 26/21 A2993 RMK AO1

2010/08/09 15:55
KGUC 091555Z AUTO 00000KT 10SM BKN085 16/03 A3033 RMK AO1

2010/08/09 15:55
KGXY 091555Z AUTO 33007KT 10SM SCT100 BKN120 21/16 A3012 RMK AO1

2010/08/09 15:55
KHDN 091555Z 30008KT 10SM SCT075 OVC085 16/07 A3026 RMK AO1

2010/08/09 15:54
KBOS 091554Z 24008KT 10SM FEW060 SCT120 31/19 A2996 RMK AO2 SLP143 T03060189

2010/08/09 15:55
KBTP 091555Z AUTO 00000KT 10SM CLR 28/17 A3006 RMK AO1 57003

2010/08/09 15:54
KBUF 091554Z 24011KT 10SM BKN070 OVC140 27/19 A2998 RMK AO2 SLP149 T02670189

2010/08/09 15:54
KBUY 091554Z AUTO 00000KT 10SM FEW038 31/21 A3005 RMK AO2 SLP169 T03110206

2010/08/09 15:55
KBVX 091555Z AUTO 00000KT 10SM BKN075 33/25 A2999 RMK AO1

2010/08/09 15:55
KBWD 091555Z AUTO 18007KT 10SM CLR 32/22 A2999 RMK AO2

2010/08/09 15:54
KBWI 091554Z 18006KT 9SM FEW043 SCT180 BKN250 31/20 A3002 RMK AO2 SLP162 T03110200

2010/08/09 15:54
KCEU 091554Z AUTO VRB04KT 10SM CLR 32/23 A3009 RMK AO2 SLP176 T03170228

2010/08/09 15:55
KCGC 091555Z AUTO 06007KT 10SM FEW025 32/26 A2993 RMK

2010/08/09 15:55
KCGZ 091555Z AUTO 00000KT 10SM CLR 32/08 A2991 RMK AO1

2010/08/09 15:55
KCIU 091555Z AUTO 20011G14KT 10SM BKN023 BKN065 BKN070 24/18 A2991 RMK AO1

2010/08/09 15:55
KCOD 091555Z 00000KT 10SM CLR 24/09 A3002 RMK AO1

2010/08/09 15:55
KCOE 091555Z AUTO 16003KT 10SM CLR 19/13 A2989 RMK AO1

2010/08/09 15:54
KCOS 091554Z AUTO 27003KT 10SM CLR 22/14 A3020 RMK AO2 SLP149 T02170139 TSNO

2010/08/09 15:55
KCQW 091555Z AUTO 10004KT 5SM HZ CLR 31/23 A3005 RMK AO2

2010/08/09 15:54
KCRW 091554Z 29003KT 6SM HZ CLR 28/21 A3006 RMK AO2 SLP168 T02830206

2010/08/09 15:55
KCVN 091555Z 20011KT 10SM CLR 27/16 A3009 RMK AO1

2010/08/09 15:55
KCVO 091555Z AUTO 30006KT 10SM OVC015 14/11 A3001 RMK AO1

2010/08/09 15:55
KCWI 091555Z 31008KT 10SM FEW029 24/22 A2995 RMK AO1

2010/08/09 15:54
KDDH 091554Z AUTO 21005KT 10SM CLR 28/18 A3000 RMK AO2 SLP151 T02780183

2010/08/09 15:54
KDEC 091554Z 20004KT 10SM CLR 31/23 A2997 RMK AO2 SLP140 T03060233

2010/08/09 15:54
KDSM 091554Z 16011G18KT 10SM FEW019 SCT130 SCT200 BKN250 28/23 A2989 RMK AO2 SLP112 CB DSNT NE MOV E ACC NE T02830228

2010/08/09 15:54
KDSV 091554Z AUTO 13003KT 10SM CLR 28/20 A3000 RMK AO2 SLP162 T02780200

2010/08/09 15:55
KDVL 091555Z AUTO 20008KT 10SM CLR 27/18 A2985 RMK AO1

2010/08/09 15:54
KDYL 091554Z AUTO VRB05KT 10SM CLR 30/19 A3003 RMK AO2 SLP161 T03000189 TSNO $

2010/08/09 15:55
KDYR 091555Z AUTO 18004KT 10SM FEW080 BKN100 31/24 A2999 RMK AO1

2010/08/09 15:55
KE80 091555Z AUTO 25003KT 10SM CLR 24/13 A3016 RMK AO2 T02410131

2010/08/09 15:55
KEAR 091555Z AUTO 10007KT 10SM CLR 26/22 A2995 RMK AO1

2010/08/09 15:54
KECG 091554Z 10004KT 10SM CLR 29/22 A3004 RMK AO2 SLP173 T02940217

2010/08/09 15:55
KEEN 091555Z AUTO 21008KT 170V230 10SM SCT044 BKN050 29/18 A2997 RMK AO1

2010/08/09 15:55
KEHR 091555Z AUTO 00000KT 10SM CLR 33/22 A2998 RMK AO1

2010/08/09 15:55
KENV 091555Z AUTO 06011KT 10SM BKN100 22/08 A3000 RMK AO1

2010/08/09 15:55
KESC 091555Z AUTO 00000KT 5SM SCT022 BKN028 27/21 A2987 RMK AO1

2010/08/09 15:54
KEUG 091554Z 01008KT 7SM OVC009 14/11 A3001 RMK AO2 SLP159 T01390111

2010/08/09 15:55
KEUL 091555Z AUTO 03003KT 10SM CLR 22/08 A2989 RMK AO1

2010/08/09 15:54
KEVV 091554Z 00000KT 10SM CLR 34/21 A2999 RMK AO2 SLP149 T03390206

2010/08/09 15:55
KEWK 091555Z AUTO 21009KT 10SM CLR 34/20 A2990 RMK AO1

2010/08/09 15:54
KEWN 091554Z 04006KT 10SM CLR 31/22 A3005 RMK AO2 SLP175 T03110217

2010/08/09 15:55
KFAM 091555Z AUTO 00000KT 10SM CLR 32/26 A3000 RMK AO1

2010/08/09 15:54
KFIG 091554Z AUTO VRB03KT 10SM FEW090 27/16 A3008 RMK AO2 SLP178 T02720156

2010/08/09 15:55
KFKL 091555Z AUTO 18003KT 10SM CLR 27/17 A3008 RMK AO1 54000

2010/08/09 15:55
KFLP 091555Z AUTO 17003KT 10SM CLR 32/24 A2999 RMK AO1

2010/08/09 15:55
KFNL 091555Z AUTO 28006KT 10SM BKN100 23/14 A3013 RMK AO1

2010/08/09 15:55
KFOD 091555Z AUTO 14006KT 10SM CLR 26/24 A2991 RMK AO1

2010/08/09 15:55
KFRM 091555Z 19007KT 10SM BKN024 27/22 A2995 RMK AO1

2010/08/09 15:54
KFZY 091554Z AUTO 26007KT 9SM CLR 28/20 A2997 RMK AO2 SLP145 T02830200

2010/08/09 15:55
KGAD 091555Z AUTO 19005KT 8SM CLR 32/23 A3003 RMK AO1

2010/08/09 15:55
KGAI 091555Z 25003KT 10SM CLR 29/21 A3005 RMK AO1

2010/08/09 15:55
KGBD 091555Z AUTO 25007KT 10SM CLR 34/19 A2992 RMK AO1

2010/08/09 15:54
KGCK 091554Z VRB05KT 10SM CLR 32/16 A2995 RMK AO2 SLP097 T03220161

2010/08/09 15:54
KGCN 091554Z 20006KT 10SM CLR 19/08 A3025 RMK AO2 SLP155 T01940083

2010/08/09 15:55
KGDV 091555Z AUTO 01006KT 10SM CLR 24/12 A2988 RMK AO1

2010/08/09 15:50
LOWW 091550Z 36008KT 9999 FEW055 22/14 Q1017 NOSIG

2010/08/09 15:50
LOWL 091550Z 32005KT 9999 FEW048 24/12 Q1017 NOSIG

2010/08/09 15:50
LOWS 091550Z VRB03KT 9999 FEW045 23/09 Q1017 NOSIG

2010/08/09 15:50
LOWI 091550Z 10009KT 050V130 9999 FEW080 24/12 Q1015 NOSIG

2010/08/09 15:50
LOWG 091550Z 17005KT 120V200 9999 FEW040 24/13 Q1017 NOSIG

2010/08/09 15:50
LOWK 091550Z VRB05KT 9999 FEW045 25/14 Q1016 NOSIG

2010/08/09 15:50
LOXZ 091550Z 05009KT 30KM FEW035CU 23/15 Q1018 NOSIG RMK FEW

2010/08/09 15:52
KBLU 091552Z AUTO VRB04KT 10SM CLR 18/07 A3009 RMK AO2 SLP105 T01830072 TSNO

2010/08/09 15:52
KABI 091552Z 21010KT 10SM SCT080 31/22 A3000 RMK AO2 SLP129 T03110222

2010/08/09 15:52
KP69 091552Z AUTO 00000KT 18/14 A2988 RMK AO2 SLP101 T01830139 PWINO TSNO

2010/08/09 15:52
K9V9 091552Z AUTO 09004KT 26/21 A2992 RMK AO2 SLP118 T02610211 PWINO TSNO

2010/08/09 15:51
KVCT 091551Z 17007KT 10SM FEW031 33/24 A2997 RMK AO2 SLP147 T03280239 PNO $

2010/08/09 15:53
KCTY 091553Z AUTO 04008KT 32/24 A2996 RMK AO2 SLP145 T03170244 PWINO TSNO

2010/08/09 15:53
KSAV 091553Z 03012G17KT 10SM FEW030 SCT250 33/21 A3001 RMK AO2 SLP160 T03280211

2010/08/09 15:53
KMSY 091553Z 33011KT 10SM SCT020 BKN250 32/26 A2997 RMK AO2 SLP153 T03220261

2010/08/09 15:53
KMWT 091553Z AUTO 00000KT 10SM CLR 32/23 A2998 RMK AO2 SLP137 T03220233 TSNO

2010/08/09 15:53
KOQT 091553Z AUTO 26005KT 10SM CLR 31/23 A3008 RMK AO2 SLP166 T03110228 TSNO

2010/08/09 15:53
KTLH 091553Z 05010G16KT 10SM FEW050 32/21 A2998 RMK AO2 SLP149 T03220206

2010/08/09 15:53
KSDM 091553Z 00000KT 10SM BKN011 16/12 A2993 RMK AO2 SLP134 T01610122

2010/08/09 15:53
KTCS 091553Z AUTO VRB03KT 10SM CLR 24/14 A3013 RMK AO2 SLP124 T02440144 TSNO

2010/08/09 15:53
KHTL 091553Z AUTO 25006KT 9SM CLR 24/22 A2991 RMK AO2 SLP122 T02440217

2010/08/09 15:53
KCQC 091553Z AUTO 31012KT 10SM CLR 22/11 A3024 RMK AO2 SLP137 T02170111 TSNO

2010/08/09 15:53
K6R6 091553Z AUTO 09009KT 28/22 A2998 RMK AO2 SLP114 T02780222 PWINO TSNO

2010/08/09 15:53
KMSN 091553Z VRB04KT 10SM FEW016 SCT100 25/21 A2992 RMK AO2 SLP127 T02500211

2010/08/09 15:53
KRIL 091553Z AUTO 00000KT 10SM -RA FEW044 OVC085 17/11 A3022 RMK AO2 SLP172 P0001 T01670111 TSNO

2010/08/09 15:52
KCZZ 091552Z AUTO 00000KT 22/M06 A2992 RMK AO2 SLP103 T02171061 PWINO TSNO

2010/08/09 15:53
KFAR 091553Z 20004KT 10SM CLR 28/18 A2989 RMK AO2 SLP118 T02780183 $

2010/08/09 15:53
KRNM 091553Z 31003KT 10SM FEW001 17/10 A2992 RMK AO2 SLP124 T01720100

2010/08/09 15:53
KBTR 091553Z 32004KT 10SM SCT030 33/25 A2998 RMK AO2 SLP149 T03280250

2010/08/09 15:53
KMCN 091553Z 08006KT 8SM CLR 33/22 A3004 RMK AO2 SLP167 T03280222

2010/08/09 15:53
KDAB 091553Z 08009KT 10SM SCT020 SCT028 BKN070 31/24 A2995 RMK AO2 SLP141 T03060244

2010/08/09 15:53
KTYS 091553Z 22008KT 9SM CLR 31/22 A3006 RMK AO2 SLP164 T03110222

2010/08/09 15:53
KTUP 091553Z 00000KT 10SM SCT024 32/25 A3000 RMK AO2 SLP152 T03220250

2010/08/09 15:53
KTRI 091553Z VRB04KT 10SM FEW065 SCT150 31/19 A3010 RMK AO2 SLP174 T03060194

2010/08/09 15:54
PGUM 091554Z 00000KT 10SM OVC060 24/24 A2991 RMK AO2 SLP120 T02440244

2010/08/09 15:53
KCUT 091553Z AUTO VRB05KT 10SM BKN065 BKN090 BKN110 22/12 A3011 RMK AO2 RAB21E36 SLP125 P0000 T02170122 TSNO

2010/08/09 15:53
KMGM 091553Z 09009KT 10SM FEW035 33/23 A3000 RMK AO2 SLP157 T03280233 $

2010/08/09 15:53
KDNK 091553Z AUTO 23004KT 10SM CLR 32/22 A2999 RMK AO2 SLP152 T03170222 PNO $

2010/08/09 15:53
KBNO 091553Z AUTO 00000KT 10SM SCT110 19/07 A2997 RMK AO2 SLP110 T01890067 TSNO

2010/08/09 15:53
KCHA 091553Z VRB06KT 10SM FEW030 SCT100 32/23 A3005 RMK AO2 SLP164 T03170228

2010/08/09 15:53
KLXV 091553Z AUTO 20003KT 10SM FEW100 13/07 A3042 RMK AO2 SLP128 T01330072 TSNO

2010/08/09 15:53
KELY 091553Z AUTO 00000KT 10SM CLR 20/01 A3014 RMK AO2 SLP110 T02000006

2010/08/09 15:53
K40J 091553Z AUTO 05006KT 31/23 A2997 RMK AO2 SLP147 T03110233 PWINO TSNO

2010/08/09 15:53
KSGR 091553Z VRB03KT 10SM BKN031 32/24 A2998 RMK AO2 SLP158 T03220239

2010/08/09 15:54
KBTV 091554Z 22003KT 10SM -RA BKN050 OVC060 25/19 A2995 RMK AO2 RAB47 SLP139 P0000 T02500189

2010/08/09 15:54
KJAN 091554Z 34005KT 10SM CLR 33/24 A2999 RMK AO2 SLP149 T03330244

2010/08/09 15:53
KLAX 091553Z 28004KT 7SM OVC014 17/13 A2993 RMK AO2 SLP135 T01720128 $

2010/08/09 16:00
SBMO 091600Z 17004KT 9999 SCT018 BKN100 24/19 Q1017

2010/08/09 15:50
ENAL 091550Z 06006KT 9999 SCT013 BKN021 15/13 Q1010

2010/08/09 15:50
ENCN 091550Z 23008KT 200V270 9999 FEW045 22/14 Q1009

2010/08/09 15:50
ENHD 091550Z 26005KT 9999 FEW020 BKN040 16/11 Q1012

2010/08/09 15:50
ENRY 091550Z 25006KT 210V280 9999 FEW040TCU BKN120 23/13 Q1008

2010/08/09 15:50
ENSB 091550Z 24013KT 9999 FEW012 SCT030 BKN120 10/03 Q1002 

2010/08/09 15:50
ENTC 091550Z 01015KT 9999 FEW018 SCT030 11/08 Q1014 NOSIG

2010/08/09 15:50
ENTO 091550Z 20008KT 160V230 9999 FEW040TCU 22/15 Q1008

2010/08/09 15:50
EGBE 091550Z 22015KT 9999 SCT029 SCT032 21/14 Q1012

2010/08/09 15:50
EGBJ 091550Z 21011KT 190V250 9999 BKN018 20/15 Q1012

2010/08/09 15:50
EGCN 091550Z 23008KT 7000 FEW030 BKN042 21/15 Q1011

2010/08/09 15:50
EGSC 091550Z 20011KT 150V260 CAVOK 25/08 Q1012

2010/08/09 15:50
EGSH 091550Z 21013KT 9999 SCT046 24/11 Q1012

2010/08/09 15:50
EGVN 091550Z 23008KT 9999 FEW024 BKN030 BKN090 20/15 Q1013 BECMG BKN020

2010/08/09 16:00
SBFZ 091600Z 13014KT CAVOK 31/18 Q1013

2010/08/09 15:50
ENNO 091550Z 15004KT 110V200 9999 SCT050 24/14 Q1007

2010/08/09 15:50
ENOV 091550Z VRB04KT 9999 FEW015 BKN019 16/13 Q1010 

2010/08/09 15:50
ENSN 091550Z 17006KT 9999 VCSH SCT035TCU 23/14 Q1008

2010/08/09 15:50
ENSR 091550Z 01007KT 9999 FEW010 SCT015 BKN030 12/08 Q1015

2010/08/09 15:50
ENSS 091550Z 04011KT 1000 FG VV002 09/08 Q1016 

2010/08/09 15:50
EBAW 091550Z VRB03KT CAVOK 23/09 Q1016 NOSIG

2010/08/09 15:50
EBBR 091550Z VRB02KT CAVOK 22/10 Q1016 NOSIG

2010/08/09 15:50
EBCI 091550Z VRB03KT 9999 FEW040 23/09 Q1016 NOSIG

2010/08/09 15:50
EBLG 091550Z 29005KT 260V330 9999 FEW045 21/09 Q1016 NOSIG

2010/08/09 15:50
EBOS 091550Z 30006KT 260V320 CAVOK 19/15 Q1016 NOSIG

2010/08/09 15:50
ELLX 091550Z 26005KT 210V300 9999 FEW030 SCT050 22/10 Q1017 NOSIG

2010/08/09 15:53
KRQE 091553Z AUTO 00000KT 10SM CLR 21/11 A3028 RMK AO2 SLP139 T02110111 TSNO

2010/08/09 15:53
KOVE 091553Z AUTO 22003KT 10SM CLR 18/12 A2990 RMK AO2 SLP125 T01830122 TSNO $

2010/08/09 15:53
KP92 091553Z AUTO VRB04KT 31/26 A2998 RMK AO2 SLP151 T03110261 PWINO TSNO

2010/08/09 15:51
KSAD 091551Z AUTO 00000KT 10SM CLR 28/13 A3001 RMK AO2 SLP109 T02780133 TSNO

2010/08/09 15:54
K1V4 091554Z AUTO 26/17 A2995 RMK AO2 SLP131 T02560172 PWINO TSNO

2010/08/09 15:54
KMQE 091554Z AUTO 23008KT 31/19 A2999 RMK AO1 SLP159 T03060189

2010/08/09 15:54
KCOU 091554Z 00000KT 10SM CLR 31/24 A2998 RMK AO2 SLP140 T03060244

2010/08/09 15:54
KROC 091554Z 22010KT 8SM BKN150 BKN250 27/20 A2997 RMK AO2 SLP146 T02720200

2010/08/09 15:54
KROA 091554Z 18003KT 8SM CLR 29/21 A3009 RMK AO2 SLP176 T02890206

2010/08/09 15:50
ENGC 091550Z 23007KT 180V250 9999 FEW020 BKN035 13/11 Q1010

2010/08/09 15:50
ENHE 091550Z 05021KT 9999 OVC016 11/09 Q1013

2010/08/09 15:50
ENOA 091550Z 17005KT 9999 BKN040 15/10 Q1011

2010/08/09 15:52
KALS 091552Z AUTO 00000KT 10SM BKN100 19/10 A3029 RMK AO2 SLP160 T01940100 $

2010/08/09 15:52
KBDR 091552Z 21009KT 9SM CLR 28/21 A3000 RMK AO2 SLP159 T02780206

2010/08/09 15:52
KCID 091552Z 16003KT 10SM FEW100 26/21 A2992 RMK AO2 RAE01 SLP123 P0000 T02610211

2010/08/09 15:52
KCNU 091552Z AUTO 18008G15KT 10SM CLR 33/23 A2995 RMK AO2 SLP128 T03330228

2010/08/09 15:52
KMFD 091552Z 23007KT 9SM CLR 28/17 A3004 RMK AO2 SLP162 T02830172

2010/08/09 15:52
KMHK 091552Z 21008KT 10SM CLR 34/21 A2987 RMK AO2 SLP100 T03390211

2010/08/09 15:52
KVTN 091552Z AUTO 00000KT 10SM FEW005 26/21 A2997 RMK AO2 SLP128 T02560211

2010/08/09 15:50
KPTS 091550Z AUTO 19008KT 10SM CLR 33/22 A2995 RMK AO2 T03320220

2010/08/09 15:52
KSPS 091552Z 22013G22KT 10SM FEW070 34/21 A2991 RMK AO2 PK WND 22026/1456 SLP112 P0004 T03390206

2010/08/09 15:52
KTOL 091552Z 23006KT 8SM CLR 28/19 A2998 RMK AO2 SLP148 T02830194

2010/08/09 15:52
KBLU 091552Z AUTO VRB04KT 10SM CLR 18/07 A3009 RMK AO2 SLP105 T01830072 TSNO

2010/08/09 15:52
KABI 091552Z 21010KT 10SM SCT080 31/22 A3000 RMK AO2 SLP129 T03110222

2010/08/09 15:52
KP69 091552Z AUTO 00000KT 18/14 A2988 RMK AO2 SLP101 T01830139 PWINO TSNO

2010/08/09 15:52
K9V9 091552Z AUTO 09004KT 26/21 A2992 RMK AO2 SLP118 T02610211 PWINO TSNO

2010/08/09 15:53
KFMN 091553Z 00000KT 10SM CLR 24/11 A3018 RMK AO2 SLP155 T02440106

2010/08/09 15:53
KGEG 091553Z 18003KT 10SM FEW080 SCT200 19/09 A2988 RMK AO2 SLP103 T01890094

2010/08/09 15:53
KGRR 091553Z 25004KT 10SM FEW032 BKN100 OVC160 24/22 A2996 RMK AO2 RAB1459E53 SLP138 P0001 T02390222

2010/08/09 15:51
KBVE 091551Z AUTO 00000KT 7SM -RA FEW090 28/26 A2999 RMK AO2 RAB1453 PRESRR SLP156 P0000 T02830256 TSNO

2010/08/09 15:51
KCAK 091551Z VRB05KT 10SM SCT250 28/18 A3004 RMK AO2 SLP163 T02780178

2010/08/09 15:53
KCLL 091553Z 20007KT 10SM FEW031 32/23 A2999 RMK AO2 SLP148 T03170228

2010/08/09 15:51
KCRP 091551Z 14007KT 070V300 10SM SCT036 SCT043 33/24 A2995 RMK AO2 SLP140 T03330239

2010/08/09 15:53
KDBQ 091553Z 26013KT 10SM OVC010 24/22 A2996 RMK AO2 SLP139 T02440222

2010/08/09 15:53
KDMN 091553Z AUTO 00000KT 10SM CLR 26/13 A3010 RMK AO2 SLP110 T02610133

2010/08/09 15:53
KDRT 091553Z AUTO 13011KT 10SM OVC020 28/22 A2995 RMK AO2 SLP124 T02830222

2010/08/09 15:53
KHSI 091553Z AUTO 09006KT 10SM CLR 26/22 A2992 RMK AO2 SLP110 T02610222

2010/08/09 15:53
KHSV 091553Z 25004KT 10SM SCT037TCU BKN043 BKN110 32/22 A3002 RMK AO2 SLP155 TCU OHD AND NE T03220222

2010/08/09 15:50
KISM 091550Z 14006KT 10SM BKN016 BKN065 28/25 A2997

2010/08/09 15:53
KJBR 091553Z AUTO 28005KT 10SM CLR 33/24 A2997 RMK AO2 SLP145 T03280244

2010/08/09 15:53
KLIT 091553Z VRB03KT 10SM BKN250 34/24 A2997 RMK AO2 SLP146 T03440244

2010/08/09 15:53
KODX 091553Z AUTO 05003KT 10SM CLR 26/21 A2992 RMK AO2 SLP120 T02610211

2010/08/09 15:51
KORF 091551Z 09004KT 10SM FEW025 29/21 A3005 RMK AO2 SLP174 T02940206

2010/08/09 15:53
KPDX 091553Z 32005KT 10SM OVC025 15/10 A3000 RMK AO2 SLP157 T01500100

2010/08/09 15:53
KYKM 091553Z 36006KT 10SM CLR 21/09 A2985 RMK AO2 SLP103 T02060089

2010/08/09 15:53
KRMG 091553Z AUTO 22004KT 10SM CLR 32/23 A3004 RMK AO2 SLP160 T03220228

2010/08/09 15:51
KSAN 091551Z 35003KT 10SM OVC015 18/13 A2994 RMK AO2 SLP139 T01780133

2010/08/09 15:53
KSAT 091553Z 21007KT 10SM FEW031 29/22 A3000 RMK AO2 SLP141 T02940217

2010/08/09 15:53
KSEA 091553Z 20007KT 10SM BKN005 OVC010 14/12 A2998 RMK AO2 SLP157 T01390117

2010/08/09 15:53
KSTC 091553Z 01003KT 9SM BKN009 27/24 A2993 RMK AO2 CIG 005V011 SLP135 T02720239 $

2010/08/09 15:53
KTUS 091553Z VRB03KT 10SM CLR 29/17 A3000 RMK AO2 SLP109 T02940167

2010/08/09 15:51
KSAN 091551Z 35003KT 10SM OVC015 18/13 A2994 RMK AO2 SLP139 T01780133

2010/08/09 15:51
KVCT 091551Z 17007KT 10SM FEW031 33/24 A2997 RMK AO2 SLP147 T03280239 PNO $

2010/08/09 15:53
KCTY 091553Z AUTO 04008KT 32/24 A2996 RMK AO2 SLP145 T03170244 PWINO TSNO

2010/08/09 15:53
PHTO 091553Z 12005KT 10SM RA SCT027 BKN049 OVC055 21/19 A3009 RMK AO2 RAB45 SLP188 P0000 T02060189 $

2010/08/09 16:00
MROC 091600Z 00000KT 9999 FEW040 BKN120 25/21 A3005 NOSIG

2010/08/09 15:53
PHKO 091553Z VRB03KT 10SM CLR 22/18 A3000 RMK AO2 SLP160 T02220178 PNO $

2010/08/09 15:53
PHLI 091553Z 07010KT 10SM FEW023 OVC044 24/21 A3010 RMK AO2 RAB02E14 SLP190 P0000 T02390206

2010/08/09 15:53
KSAV 091553Z 03012G17KT 10SM FEW030 SCT250 33/21 A3001 RMK AO2 SLP160 T03280211

2010/08/09 15:53
KMWT 091553Z AUTO 00000KT 10SM CLR 32/23 A2998 RMK AO2 SLP137 T03220233 TSNO

2010/08/09 15:53
KOQT 091553Z AUTO 26005KT 10SM CLR 31/23 A3008 RMK AO2 SLP166 T03110228 TSNO

2010/08/09 15:53
KTLH 091553Z 05010G16KT 10SM FEW050 32/21 A2998 RMK AO2 SLP149 T03220206

2010/08/09 15:53
KSDM 091553Z 00000KT 10SM BKN011 16/12 A2993 RMK AO2 SLP134 T01610122

2010/08/09 15:53
KTCS 091553Z AUTO VRB03KT 10SM CLR 24/14 A3013 RMK AO2 SLP124 T02440144 TSNO

2010/08/09 15:53
KHTL 091553Z AUTO 25006KT 9SM CLR 24/22 A2991 RMK AO2 SLP122 T02440217

2010/08/09 15:53
KCQC 091553Z AUTO 31012KT 10SM CLR 22/11 A3024 RMK AO2 SLP137 T02170111 TSNO

2010/08/09 15:53
K6R6 091553Z AUTO 09009KT 28/22 A2998 RMK AO2 SLP114 T02780222 PWINO TSNO

2010/08/09 15:53
KMSN 091553Z VRB04KT 10SM FEW016 SCT100 25/21 A2992 RMK AO2 SLP127 T02500211

2010/08/09 15:52
KCZZ 091552Z AUTO 00000KT 22/M06 A2992 RMK AO2 SLP103 T02171061 PWINO TSNO

2010/08/09 15:53
KFAR 091553Z 20004KT 10SM CLR 28/18 A2989 RMK AO2 SLP118 T02780183 $

2010/08/09 15:53
KRNM 091553Z 31003KT 10SM FEW001 17/10 A2992 RMK AO2 SLP124 T01720100

2010/08/09 15:53
KNUI 091553Z AUTO 00000KT 10SM CLR 29/23 A3004 RMK AO2 SLP170 T02940228

2010/08/09 15:53
KBTR 091553Z 32004KT 10SM SCT030 33/25 A2998 RMK AO2 SLP149 T03280250

2010/08/09 15:53
KMCN 091553Z 08006KT 8SM CLR 33/22 A3004 RMK AO2 SLP167 T03280222

2010/08/09 15:53
KDAB 091553Z 08009KT 10SM SCT020 SCT028 BKN070 31/24 A2995 RMK AO2 SLP141 T03060244

2010/08/09 15:53
KTYS 091553Z 22008KT 9SM CLR 31/22 A3006 RMK AO2 SLP164 T03110222

2010/08/09 15:53
KTUP 091553Z 00000KT 10SM SCT024 32/25 A3000 RMK AO2 SLP152 T03220250

2010/08/09 15:53
KTRI 091553Z VRB04KT 10SM FEW065 SCT150 31/19 A3010 RMK AO2 SLP174 T03060194

2010/08/09 15:53
KCUT 091553Z AUTO VRB05KT 10SM BKN065 BKN090 BKN110 22/12 A3011 RMK AO2 RAB21E36 SLP125 P0000 T02170122 TSNO

2010/08/09 15:53
KCHA 091553Z VRB06KT 10SM FEW030 SCT100 32/23 A3005 RMK AO2 SLP164 T03170228

2010/08/09 15:53
KBNO 091553Z AUTO 00000KT 10SM SCT110 19/07 A2997 RMK AO2 SLP110 T01890067 TSNO

2010/08/09 15:53
KMGM 091553Z 09009KT 10SM FEW035 33/23 A3000 RMK AO2 SLP157 T03280233 $

2010/08/09 15:53
KLXV 091553Z AUTO 20003KT 10SM FEW100 13/07 A3042 RMK AO2 SLP128 T01330072 TSNO

2010/08/09 15:53
KELY 091553Z AUTO 00000KT 10SM CLR 20/01 A3014 RMK AO2 SLP110 T02000006

2010/08/09 15:53
KAAF 091553Z AUTO 09007KT 10SM CLR 32/24 A2996 RMK AO2 SLP145 T03220239

2010/08/09 15:53
KBFF 091553Z AUTO 17005KT 10SM CLR 28/14 A3001 RMK AO2 SLP112 T02780144

2010/08/09 15:53
KBIL 091553Z 20005KT 10SM FEW110 22/12 A2996 RMK AO2 SLP116 T02170117

2010/08/09 15:53
KCDR 091553Z AUTO 17016KT 10SM CLR 32/16 A2994 RMK AO2 SLP106 T03220156

2010/08/09 15:53
KCNY 091553Z AUTO 29003KT 10SM CLR 24/10 A3011 RMK AO2 SLP139 T02390100

2010/08/09 15:53
KCRQ 091553Z 00000KT 10SM OVC013 18/12 A2992 RMK AO2 SLP130 T01780122

2010/08/09 15:53
KDAL 091553Z 22008KT 10SM CLR 32/23 A2995 RMK AO2 SLP133 T03220228

2010/08/09 15:53
K40J 091553Z AUTO 05006KT 31/23 A2997 RMK AO2 SLP147 T03110233 PWINO TSNO

2010/08/09 15:54
KBTV 091554Z 22003KT 10SM -RA BKN050 OVC060 25/19 A2995 RMK AO2 RAB47 SLP139 P0000 T02500189

2010/08/09 15:54
KJAN 091554Z 34005KT 10SM CLR 33/24 A2999 RMK AO2 SLP149 T03330244

2010/08/09 15:53
KGCC 091553Z AUTO 25007KT 10SM CLR 24/10 A2998 RMK AO2 SLP109 T02440100

2010/08/09 15:53
KHLC 091553Z AUTO 06008KT 10SM CLR 31/21 A2992 RMK AO2 SLP101 T03060206

2010/08/09 15:53
KPGA 091553Z AUTO 36003KT 10SM CLR 23/12 A3010 RMK AO2 SLP135 T02280117

2010/08/09 15:53
KPOF 091553Z AUTO 00000KT 9SM CLR 33/26 A2996 RMK AO2 SLP139 T03280261

2010/08/09 15:53
KHVR 091553Z AUTO 00000KT 10SM CLR 23/11 A2990 RMK AO2 SLP107 T02280106

2010/08/09 15:53
KLAR 091553Z AUTO 12004KT 10SM SCT110 18/08 A3024 RMK AO2 SLP134 T01780078

2010/08/09 15:53
KLAW 091553Z AUTO 20008KT 10SM CLR 33/21 A2992 RMK AO2 SLP114 T03330206

2010/08/09 15:53
KLBF 091553Z AUTO 00000KT 10SM CLR 24/22 A2998 RMK AO2 SLP125 T02440217

2010/08/09 15:53
KLEB 091553Z 00000KT 10SM SCT045 BKN070 29/17 A2995 RMK AO2 SLP129 T02940167

2010/08/09 15:53
KLEE 091553Z 08005KT 2SM -RA FEW005 SCT027 SCT090 28/26 A2995 RMK AO2 RAB15 SLP141 P0010 T02830256

2010/08/09 15:53
KLGB 091553Z 00000KT 6SM HZ OVC014 17/13 A2993 RMK AO2 SLP134 T01720128

2010/08/09 15:53
KLHQ 091553Z AUTO 22006KT 8SM CLR 28/19 A3004 RMK AO2 SLP165 T02830194

2010/08/09 15:53
KLHX 091553Z AUTO 31006KT 10SM CLR 26/17 A3005 RMK AO2 SLP108 T02610167 $

2010/08/09 15:53
KLMT 091553Z 00000KT 10SM FEW050 SCT100 17/09 A2999 RMK AO2 SLP116 T01670094

2010/08/09 15:53
KLNS 091553Z 33003KT 8SM FEW034 30/21 A3002 RMK AO2 SLP162 T03000206

2010/08/09 15:53
KLOU 091553Z 17003KT 10SM CLR 31/21 A3002 RMK AO2 SLP158 T03110211

2010/08/09 15:53
KLOZ 091553Z AUTO VRB06KT 10SM CLR 30/22 A3007 RMK AO2 SLP169 T03000222

2010/08/09 15:53
KLPR 091553Z AUTO 22008KT 10SM CLR 30/20 A3001 RMK AO2 SLP154 T03000200

2010/08/09 15:53
KLUK 091553Z 19006KT 8SM CLR 30/21 A3002 RMK AO2 SLP162 T03000211

2010/08/09 15:53
KOVE 091553Z AUTO 22003KT 10SM CLR 18/12 A2990 RMK AO2 SLP125 T01830122 TSNO $

2010/08/09 15:53
KPOU 091553Z 27005KT 9SM CLR 31/17 A2999 RMK AO2 SLP150 T03060172

2010/08/09 15:53
KPRC 091553Z 00000KT 10SM CLR 23/09 A3014 RMK AO2 SLP126 T02280094

2010/08/09 15:53
KPSP 091553Z 00000KT 10SM CLR 28/08 A2981 RMK AO2 SLP092 T02780078

2010/08/09 15:53
KPTK 091553Z 28009KT 9SM SCT130 OVC160 26/20 A2996 RMK AO2 SLP136 T02610200

2010/08/09 15:50
KPTT 091550Z AUTO 21008KT 10SM CLR 34/17 A2993 RMK AO2

2010/08/09 15:53
KPUB 091553Z 00000KT 10SM CLR 24/14 A3009 RMK AO2 SLP122 T02440144 $

2010/08/09 15:53
KPUC 091553Z AUTO 00000KT 10SM CLR 19/09 A3018 RMK AO2 SLP169 T01890089

2010/08/09 15:53
KPWA 091553Z 19010KT 10SM CLR 33/21 A2993 RMK AO2 SLP113 T03280211

2010/08/09 15:53
KRAL 091553Z 00000KT 5SM HZ CLR 17/13 A2992 RMK AO2 SLP120 T01720128

2010/08/09 15:53
KRBD 091553Z VRB06KT 10SM CLR 32/23 A2996 RMK AO2 SLP134 T03220228

2010/08/09 15:53
KRME 091553Z 23009KT 10SM CLR 28/19 A2999 RMK AO2 SLP151 T02780189

2010/08/09 15:53
KRSL 091553Z AUTO 19005KT 10SM CLR 32/21 A2989 RMK AO2 SLP096 T03170206

2010/08/09 15:53
KRSW 091553Z 11008KT 10SM FEW047 OVC060 30/23 A2993 RMK AO2 SLP133 T03000233

2010/08/09 15:53
KRVS 091553Z 21008KT 10SM CLR 35/22 A2993 RMK AO2 SLP135 T03500222

2010/08/09 15:53
KRWL 091553Z AUTO 22013G19KT 10SM CLR 23/06 A3020 RMK AO2 SLP124 T02280056 PNO $

2010/08/09 15:53
KRXE 091553Z AUTO 00000KT 10SM CLR 19/12 A3004 RMK AO2 SLP136 T01890117

2010/08/09 15:53
KSAC 091553Z 22007KT 10SM CLR 17/12 A2989 RMK AO2 SLP121 T01670122

2010/08/09 15:53
KSBA 091553Z 14006KT 1SM R07/2600VP6000FT BR BKN002 14/13 A2993 RMK AO2 SLP134 T01440133

2010/08/09 15:53
KSEG 091553Z AUTO 00000KT 9SM CLR 31/17 A3003 RMK AO2 SLP166 T03060172

2010/08/09 15:49
KSEZ 091549Z AUTO 00000KT 10SM SCT090 25/09 A3014 RMK AO2 T02520087

2010/08/09 15:53
KSHR 091553Z AUTO 00000KT 10SM CLR 28/08 A2995 RMK AO2 SLP100 T02780078

2010/08/09 15:53
KSLC 091553Z 18019G26KT 10SM FEW075 SCT140 SCT200 24/08 A3002 RMK AO2 PK WND 16026/1549 SLP111 CB DSNT NW T02440083

2010/08/09 15:53
KSLN 091553Z 21009KT 10SM CLR 34/21 A2988 RMK AO2 SLP098 T03440206

2010/08/09 15:53
KSMQ 091553Z AUTO VRB04KT 10SM FEW048 31/21 A3000 RMK AO2 SLP156 T03110206 $

2010/08/09 15:53
KSNA 091553Z 30003KT 5SM HZ OVC013 18/13 A2992 RMK AO2 SLP132 T01830128

2010/08/09 15:53
KSNY 091553Z AUTO VRB03KT 10SM CLR 30/12 A3006 RMK AO2 SLP118 T03000117

2010/08/09 15:53
KSPG 091553Z 10009KT 10SM CLR 29/25 A2993 RMK AO2 SLP133 T02940250

2010/08/09 15:53
KSRQ 091553Z 10009KT 10SM SCT019 OVC023 28/24 A2993 RMK AO2 SLP134 T02830239

2010/08/09 15:53
KSSI 091553Z AUTO 03011G18KT 10SM FEW021 BKN031 BKN037 31/25 A2999 RMK AO2 SLP156 T03110250

2010/08/09 15:55
KAIZ 091555Z AUTO 23008KT 10SM CLR 32/24 A2998 RMK AO1

2010/08/09 15:54
KAKH 091554Z AUTO 00000KT 10SM CLR 32/21 A3007 RMK AO2 SLP174 T03170211

2010/08/09 15:54
KAKR 091554Z AUTO 23008KT 200V280 10SM CLR 29/17 A3003 RMK AO2 SLP159 T02890172

2010/08/09 15:54
KALO 091554Z AUTO 19006KT 10SM FEW070 26/23 A2991 RMK AO2 SLP120 T02560233

2010/08/09 15:54
KAPC 091554Z 24003KT 10SM OVC006 13/12 A2992 RMK AO2 SLP124 T01330117

2010/08/09 15:55
KARG 091555Z AUTO 19004KT 10SM CLR 32/25 A2997 RMK AO1

2010/08/09 15:55
KAUO 091555Z AUTO 10008KT 10SM SCT037 33/23 A3004 RMK AO1

2010/08/09 15:54
KAUW 091554Z AUTO 29007KT 6SM HZ BKN016 26/23 A2991 RMK AO2 SLP124 T02610228

2010/08/09 15:54
KAVL 091554Z 00000KT 10SM CLR 28/19 A3015 RMK AO2 SLP179 T02830194

2010/08/09 15:55
KAWO 091555Z AUTO 00000KT 10SM 15/13 A2998 RMK AO1

2010/08/09 15:55
KBBP 091555Z AUTO 10003KT 10SM CLR 32/22 A3003 RMK AO2

2010/08/09 15:54
KBFL 091554Z 00000KT 10SM CLR 22/12 A2989 RMK AO2 SLP115 T02220122

2010/08/09 15:55
KBHB 091555Z AUTO 17008KT 5SM OVC004 21/19 A2993 RMK AO1

2010/08/09 15:55
KBID 091555Z AUTO 23012KT 10SM FEW006 26/23 A3001 RMK AO1

2010/08/09 15:55
KBKX 091555Z AUTO 09007KT 10SM CLR 28/21 A2995 RMK AO1

2010/08/09 15:55
KBLM 091555Z AUTO 25007KT 10SM CLR 31/19 A3005 RMK AO1

2010/08/09 15:55
KBNL 091555Z AUTO 06006KT 10SM CLR 32/22 A3004 RMK AO2

2010/08/09 15:54
KBOS 091554Z 24008KT 10SM FEW060 SCT120 31/19 A2996 RMK AO2 SLP143 T03060189

2010/08/09 15:55
KBTP 091555Z AUTO 00000KT 10SM CLR 28/17 A3006 RMK AO1 57003

2010/08/09 15:54
KBUY 091554Z AUTO 00000KT 10SM FEW038 31/21 A3005 RMK AO2 SLP169 T03110206

2010/08/09 15:55
KBVX 091555Z AUTO 00000KT 10SM BKN075 33/25 A2999 RMK AO1

2010/08/09 15:55
KBWD 091555Z AUTO 18007KT 10SM CLR 32/22 A2999 RMK AO2

2010/08/09 15:54
KBWI 091554Z 18006KT 9SM FEW043 SCT180 BKN250 31/20 A3002 RMK AO2 SLP162 T03110200

2010/08/09 15:54
KCEU 091554Z AUTO VRB04KT 10SM CLR 32/23 A3009 RMK AO2 SLP176 T03170228

2010/08/09 15:55
KCGC 091555Z AUTO 06007KT 10SM FEW025 32/26 A2993 RMK

2010/08/09 15:55
KCGZ 091555Z AUTO 00000KT 10SM CLR 32/08 A2991 RMK AO1

2010/08/09 15:55
KCIU 091555Z AUTO 20011G14KT 10SM BKN023 BKN065 BKN070 24/18 A2991 RMK AO1

2010/08/09 15:55
KCOD 091555Z 00000KT 10SM CLR 24/09 A3002 RMK AO1

2010/08/09 15:55
KCOE 091555Z AUTO 16003KT 10SM CLR 19/13 A2989 RMK AO1

2010/08/09 15:55
KCQW 091555Z AUTO 10004KT 5SM HZ CLR 31/23 A3005 RMK AO2

2010/08/09 15:55
KCVN 091555Z 20011KT 10SM CLR 27/16 A3009 RMK AO1

2010/08/09 15:55
KCVO 091555Z AUTO 30006KT 10SM OVC015 14/11 A3001 RMK AO1

2010/08/09 15:55
KCWI 091555Z 31008KT 10SM FEW029 24/22 A2995 RMK AO1

2010/08/09 15:54
KDDH 091554Z AUTO 21005KT 10SM CLR 28/18 A3000 RMK AO2 SLP151 T02780183

2010/08/09 15:54
KDEC 091554Z 20004KT 10SM CLR 31/23 A2997 RMK AO2 SLP140 T03060233

2010/08/09 15:54
KDSV 091554Z AUTO 13003KT 10SM CLR 28/20 A3000 RMK AO2 SLP162 T02780200

2010/08/09 15:54
KDYL 091554Z AUTO VRB05KT 10SM CLR 30/19 A3003 RMK AO2 SLP161 T03000189 TSNO $

2010/08/09 15:55
KDYR 091555Z AUTO 18004KT 10SM FEW080 BKN100 31/24 A2999 RMK AO1

2010/08/09 15:55
KE80 091555Z AUTO 25003KT 10SM CLR 24/13 A3016 RMK AO2 T02410131

2010/08/09 15:55
KEEN 091555Z AUTO 21008KT 170V230 10SM SCT044 BKN050 29/18 A2997 RMK AO1

2010/08/09 15:55
KEHR 091555Z AUTO 00000KT 10SM CLR 33/22 A2998 RMK AO1

2010/08/09 15:55
KENV 091555Z AUTO 06011KT 10SM BKN100 22/08 A3000 RMK AO1

2010/08/09 15:55
KESC 091555Z AUTO 00000KT 5SM SCT022 BKN028 27/21 A2987 RMK AO1

2010/08/09 15:54
KEUG 091554Z 01008KT 7SM OVC009 14/11 A3001 RMK AO2 SLP159 T01390111

2010/08/09 15:55
KEUL 091555Z AUTO 03003KT 10SM CLR 22/08 A2989 RMK AO1

2010/08/09 15:54
KEVV 091554Z 00000KT 10SM CLR 34/21 A2999 RMK AO2 SLP149 T03390206

2010/08/09 15:55
KEWK 091555Z AUTO 21009KT 10SM CLR 34/20 A2990 RMK AO1

2010/08/09 15:54
KEWN 091554Z 04006KT 10SM CLR 31/22 A3005 RMK AO2 SLP175 T03110217

2010/08/09 15:55
KFAM 091555Z AUTO 00000KT 10SM CLR 32/26 A3000 RMK AO1

2010/08/09 15:54
KFIG 091554Z AUTO VRB03KT 10SM FEW090 27/16 A3008 RMK AO2 SLP178 T02720156

2010/08/09 15:55
KFKL 091555Z AUTO 18003KT 10SM CLR 27/17 A3008 RMK AO1 54000

2010/08/09 15:55
KFLP 091555Z AUTO 17003KT 10SM CLR 32/24 A2999 RMK AO1

2010/08/09 15:55
KFNL 091555Z AUTO 28006KT 10SM BKN100 23/14 A3013 RMK AO1

2010/08/09 15:55
KFOD 091555Z AUTO 14006KT 10SM CLR 26/24 A2991 RMK AO1

2010/08/09 15:55
KFRM 091555Z 19007KT 10SM BKN024 27/22 A2995 RMK AO1

2010/08/09 15:55
KGAD 091555Z AUTO 19005KT 8SM CLR 32/23 A3003 RMK AO1

2010/08/09 15:55
KGAI 091555Z 25003KT 10SM CLR 29/21 A3005 RMK AO1

2010/08/09 15:55
KGBD 091555Z AUTO 25007KT 10SM CLR 34/19 A2992 RMK AO1

2010/08/09 15:54
KGCK 091554Z VRB05KT 10SM CLR 32/16 A2995 RMK AO2 SLP097 T03220161

2010/08/09 15:54
KGCN 091554Z 20006KT 10SM CLR 19/08 A3025 RMK AO2 SLP155 T01940083

2010/08/09 15:55
KGDV 091555Z AUTO 01006KT 10SM CLR 24/12 A2988 RMK AO1

2010/08/09 15:54
KGED 091554Z AUTO 15003KT 10SM CLR 32/17 A3004 RMK AO2 SLP173 T03170167

2010/08/09 15:55
KGUC 091555Z AUTO 00000KT 10SM BKN085 16/03 A3033 RMK AO1

2010/08/09 15:55
KGXY 091555Z AUTO 33007KT 10SM SCT100 BKN120 21/16 A3012 RMK AO1

2010/08/09 15:55
KHDN 091555Z 30008KT 10SM SCT075 OVC085 16/07 A3026 RMK AO1

2010/08/09 15:50
ENAN 091550Z 03019KT 9999 FEW012 BKN025 11/09 Q1014 NOSIG

2010/08/09 15:50
ENBR 091550Z 26003KT 220V030 9999 FEW009 BKN013 14/11 Q1011 BECMG FEW010 BKN025 

2010/08/09 15:50
ENBO 091550Z 01009KT 340V060 9999 FEW015 FEW040TCU 15/11 Q1011 NOSIG

2010/08/09 15:50
ENDU 091550Z 36006KT 320V040 9999 FEW025 SCT035 16/10 Q1013

2010/08/09 15:50
ENOL 091550Z 35009KT 9999 FEW014 16/13 Q1009 NOSIG

2010/08/09 15:50
ENVA 091550Z 25008KT 9999 FEW030TCU 18/14 Q1009 NOSIG 

2010/08/09 15:50
ENZV 091550Z 30005KT 260V330 9999 FEW017 BKN034 16/10 Q1012 NOSIG

2010/08/09 15:53
KEPH 091553Z AUTO 35003KT 10SM CLR 21/11 A2982 RMK AO2 SLP091 T02060106

2010/08/09 15:53
KEQY 091553Z AUTO 23004KT 9SM FEW038 32/22 A3006 RMK AO2 SLP174 T03170222

2010/08/09 15:53
KHQM 091553Z AUTO 24006KT 7SM OVC006 13/12 A2999 RMK AO2 SLP159 T01330117

2010/08/09 15:53
KHRI 091553Z AUTO 22011KT 10SM CLR 21/07 A2986 RMK AO2 SLP105 T02060067

2010/08/09 15:53
KHRO 091553Z AUTO VRB04KT 10SM FEW100 32/22 A3003 RMK AO2 SLP148 T03220217

2010/08/09 15:53
KHYR 091553Z AUTO 00000KT 10SM CLR 28/22 A2994 RMK AO2 SLP130 T02780222

2010/08/09 15:53
KIAH 091553Z 25003KT 10SM FEW028 SCT038 BKN065 32/24 A2998 RMK AO2 SLP151 T03220244

2010/08/09 15:53
KICR 091553Z AUTO 00000KT 10SM CLR 27/20 A2994 RMK AO2 SLP120 T02720200 TSNO

2010/08/09 15:53
KILM 091553Z AUTO 10006KT 10SM FEW033 SCT042 SCT085 29/23 A3003 RMK AO2 SLP170 T02940233 TSNO

2010/08/09 15:51
KJCT 091551Z AUTO 17009KT 130V220 10SM CLR 31/19 A3001 RMK AO2 SLP120 T03060194 TSNO

2010/08/09 15:55
KJZI 091555Z AUTO 05009KT 10SM FEW026 31/31 A3001 RMK A02 P000

2010/08/09 15:50
KLAL 091550Z 05008KT 8SM BKN015 32/25 A2994

2010/08/09 15:50
KLBE 091550Z 24005KT 15SM SCT250 27/17 A3008

2010/08/09 15:53
KLBX 091553Z AUTO 26003KT 10SM FEW034 33/24 A2998 RMK AO2 SLP150 T03280244

2010/08/09 15:53
KLCH 091553Z 28005KT 10SM CLR 33/24 A2998 RMK AO2 SLP160 T03280239

2010/08/09 15:53
KLFK 091553Z AUTO 28003KT 10SM SCT028 32/24 A2999 RMK AO2 SLP151 T03220239

2010/08/09 15:53
KLFT 091553Z 34008KT 10SM FEW026 33/24 A2998 RMK AO2 SLP153 T03280244

2010/08/09 15:55
KLKR 091555Z AUTO 00000KT 8SM CLR 32/24 A3006 RMK AO2

2010/08/09 15:53
KLLQ 091553Z AUTO 31005KT 10SM CLR 33/24 A2998 RMK AO2 SLP147 T03330244

2010/08/09 15:53
KLOL 091553Z AUTO 17003KT 10SM CLR 24/06 A2998 RMK AO2 SLP107 T02390061

2010/08/09 15:53
KLSE 091553Z 18004KT 10SM OVC019 27/22 A2991 RMK AO2 SLP118 T02670222

2010/08/09 15:53
KLVJ 091553Z AUTO 00000KT 10SM FEW032 32/24 A2999 RMK AO2 SLP155 T03170239

2010/08/09 15:53
KMCB 091553Z AUTO 32005KT 10SM SCT025 32/24 A3000 RMK AO2 SLP151 T03170239

2010/08/09 15:53
KMEM 091553Z VRB05KT 10SM FEW150 BKN250 33/25 A2998 RMK AO2 SLP148 T03330250

2010/08/09 15:55
KMEZ 091555Z AUTO 26004KT 10SM CLR 33/22 A3001 RMK AO2

2010/08/09 15:53
KMFE 091553Z 15008KT 10SM 32/24 A2993 RMK AO2 SLP133 T03170244 $

2010/08/09 15:53
KMFR 091553Z 34003KT 10SM CLR 18/11 A2994 RMK AO2 SLP128 T01830106

2010/08/09 15:53
KMHE 091553Z AUTO 06003KT 10SM CLR 27/22 A2991 RMK AO2 SLP119 T02670217 TSNO

2010/08/09 15:53
KMIC 091553Z 34003KT 10SM CLR 29/21 A2990 RMK AO2 SLP119 T02940211

2010/08/09 15:53
KMIW 091553Z AUTO 13008KT 10SM OVC080 26/22 A2992 RMK AO2 SLP121 T02560222

2010/08/09 15:53
KMKL 091553Z VRB04KT 10SM CLR 31/26 A3000 RMK AO2 SLP152 T03060256

2010/08/09 15:53
KMLP 091553Z AUTO VRB03KT 10SM CLR 14/06 A3003 RMK AO2 SLP081 T01390061 TSNO

2010/08/09 15:53
KMMV 091553Z AUTO 36004KT 10SM OVC018 14/11 A3001 RMK AO2 SLP162 T01390106

2010/08/09 15:53
KMOD 091553Z 34007KT 10SM CLR 18/12 A2989 RMK AO2 SLP119 T01830122

2010/08/09 15:53
KMRB 091553Z 00000KT 8SM CLR 31/16 A3002 RMK AO2 SLP161 T03110161

2010/08/09 15:53
KMSL 091553Z AUTO VRB03KT 10SM CLR 32/24 A3003 RMK AO2 SLP160 T03220239

2010/08/09 15:53
KMSP 091553Z VRB04KT 10SM FEW150 31/21 A2991 RMK AO2 SLP121 T03060211

2010/08/09 15:53
KMSY 091553Z 33011KT 10SM SCT020 BKN250 32/26 A2997 RMK AO2 SLP153 T03220261

2010/08/09 15:53
KMYV 091553Z AUTO 18004KT 10SM CLR 17/12 A2988 RMK AO2 SLP122 T01670117

2010/08/09 15:53
KNEW 091553Z 34010KT 10SM CLR 32/26 A2998 RMK AO2 SLP145 T03220261

2010/08/09 15:53
KOAK 091553Z 26003KT 10SM OVC012 16/12 A2993 RMK AO2 SLP136 T01560117

2010/08/09 15:53
KOMK 091553Z AUTO 35008G16KT 10SM CLR 22/09 A2982 RMK AO2 SLP092 T02220089

2010/08/09 15:53
KOSH 091553Z 00000KT 10SM OVC014 24/21 A2991 RMK AO2 SLP114 T02390206

2010/08/09 15:53
KOVS 091553Z AUTO 23008KT 10SM FEW020 28/22 A2992 RMK AO2 SLP127 T02780217

2010/08/09 15:53
KOXB 091553Z AUTO 13007KT 10SM CLR 27/24 A3006 RMK AO2 SLP178 T02670239

2010/08/09 15:53
KPAH 091553Z 23004KT 10SM BKN043 32/23 A2997 RMK AO2 SLP143 T03220233 $

2010/08/09 15:48
K4O4 091548Z AUTO 22005KT 10SM CLR 32/22 A2998 RMK AO2

2010/08/09 15:51
KADH 091551Z AUTO 20011G15KT 10SM CLR 33/19 A2995 RMK AO2

2010/08/09 15:50
KAFK 091550Z AUTO 16008KT 10SM CLR 31/24 A2987 RMK AO2 T03110238

2010/08/09 15:52
KAFN 091552Z AUTO 25007KT 10SM FEW090 27/16 A3001 RMK AO2 SLP160 T02720161

2010/08/09 15:45
KALM 091545Z AUTO 28003KT 10SM BKN120 24/14 A3009 RMK AO2

2010/08/09 15:50
KANW 091550Z AUTO 34005KT 10SM CLR 24/21 A2996 RMK AO2 T02360213

2010/08/09 15:52
KAQW 091552Z AUTO VRB05KT 10SM FEW045 28/18 A2999 RMK AO2 SLP151 T02830183

2010/08/09 15:52
KARR 091552Z AUTO 00000KT 9SM SCT065 24/22 A2996 RMK AO2 RAB16E30 SLP139 P0000 T02440222

2010/08/09 15:52
KATL 091552Z 00000KT 9SM FEW040 32/22 A3007 RMK AO2 SLP170 T03170217

2010/08/09 15:50
KATS 091550Z AUTO 17006KT 10SM CLR 26/16 A3004 RMK AO2

2010/08/09 15:50
KAUH 091550Z AUTO 05004KT 10SM CLR 27/21 A2990 RMK AO2 T02700205

2010/08/09 15:50
KAUN 091550Z AUTO 00000KT 10SM CLR 23/11 A2991 RMK AO1

2010/08/09 15:50
KAXS 091550Z AUTO 19007KT 10SM CLR 32/21 A2992 RMK AO2 T03150208

2010/08/09 15:50
KAXX 091550Z AUTO 00000KT 10SM OVC100 13/11 A3036 RMK AO2

2010/08/09 15:50
KBIE 091550Z AUTO 29004KT 10SM CLR 30/22 A2986 RMK AO2 T03030220

2010/08/09 15:52
KBIS 091552Z 20008KT 10SM CLR 29/19 A2988 RMK AO2 SLP105 T02890194

2010/08/09 15:52
KBLF 091552Z AUTO VRB04KT 10SM CLR 28/16 A3018 RMK AO2 SLP175 T02780156

2010/08/09 15:52
KBLH 091552Z AUTO 04003KT 10SM CLR 31/06 A2983 RMK AO2 SLP093 T03110061

2010/08/09 15:52
KBML 091552Z AUTO VRB03KT 10SM SCT033 24/17 A2997 RMK AO2 SLP145 T02440167

2010/08/09 15:50
KBTA 091550Z AUTO 22004KT 10SM SCT010 28/23 A2987 RMK AO2 T02780234

2010/08/09 15:50
KBVN 091550Z AUTO 05005KT 10SM CLR 25/21 A2992 RMK AO2 T02520213

2010/08/09 15:45
KBVS 091545Z AUTO 19005KT 8SM OVC007 14/13 A2997 RMK A01 P000

2010/08/09 15:52
KCFV 091552Z AUTO VRB05KT 10SM CLR 34/23 A2994 RMK AO2 SLP127 T03390233

2010/08/09 15:50
KCHK 091550Z AUTO 20012KT 10SM CLR 33/23 A2992 RMK AO2

2010/08/09 15:47
KCIC 091547Z 00000KT 40SM SKC A2989

2010/08/09 15:52
KCKV 091552Z AUTO 29006KT 10SM CLR 32/23 A3000 RMK AO2 SLP152 T03170233

2010/08/09 15:50
KCLK 091550Z AUTO 18008KT 10SM CLR 31/17 A2992 RMK AO2

2010/08/09 15:52
KCLT 091552Z 22005KT 9SM FEW030 SCT250 32/22 A3007 RMK AO2 SLP172 T03220217

2010/08/09 15:50
KCQB 091550Z AUTO 22007KT 10SM SCT095 33/23 A2994 RMK AO2 TSNO

2010/08/09 15:52
KCQX 091552Z AUTO 21007G14KT 10SM FEW007 SCT012 28/23 A3002 RMK AO2 SLP165 T02830228

2010/08/09 15:50
KCUH 091550Z AUTO 20006KT 10SM CLR 34/22 A2993 RMK AO2

2010/08/09 15:52
KCVG 091552Z 22005KT 9SM SCT250 31/18 A3003 RMK AO2 SLP158 T03110178

2010/08/09 15:52
KDCA 091552Z 16008KT 8SM FEW050 SCT250 31/21 A3003 RMK AO2 SLP169 T03110206

2010/08/09 15:52
KDDC 091552Z AUTO 31003KT 10SM CLR 31/18 A2994 RMK AO2 SLP097 T03110178

2010/08/09 15:52
KDPA 091552Z 18003KT 8SM FEW075 26/22 A2995 RMK AO2 SLP134 T02560222

2010/08/09 15:52
KDVN 091552Z AUTO 32006KT 10SM CLR 24/22 A2993 RMK AO2 PK WND 33032/1500 RAE25B41E52 SLP128 P0002 T02440217

2010/08/09 15:50
KDVO 091550Z AUTO 00000KT 10SM OVC006 13/12 A2994 RMK AO2

2010/08/09 15:52
KEST 091552Z AUTO 18006KT 10SM BKN017 OVC021 26/22 A2994 RMK AO2 SLP128 T02560222

2010/08/09 15:50
KFET 091550Z AUTO 30004KT 10SM BKN007 26/23 A2988 RMK AO2 T02620228

2010/08/09 15:52
KFIT 091552Z AUTO 26006G14KT 10SM FEW085 31/17 A2998 RMK AO2 SLP149 T03060172

2010/08/09 15:52
KGCM 091552Z AUTO 18007KT 10SM CLR 32/23 A2997 RMK AO2

2010/08/09 15:51
KGMJ 091551Z AUTO 20003KT 10SM CLR 34/21 A2998 RMK AO2

2010/08/09 15:45
KGYY 091545Z 14006KT 7SM SCT033 BKN095 OVC110 26/22 A2995

2010/08/09 15:50
KHDE 091550Z AUTO 09007KT 10SM CLR 27/20 A2993 RMK AO2 T02700204

2010/08/09 15:52
KHIE 091552Z AUTO 25007KT 10SM FEW032 SCT042 25/18 A2998 RMK AO2 SLP147 T02500178

2010/08/09 15:50
KHJH 091550Z AUTO 09003KT 10SM CLR 31/23 A2987 RMK AO2 T03120228

2010/08/09 15:52
KHUT 091552Z 22008KT 10SM CLR 35/20 A2992 RMK AO2 SLP101 T03500200

2010/08/09 15:52
KIAD 091552Z VRB04KT 9SM BKN250 31/21 A3003 RMK AO2 SLP165 T03060206

2010/08/09 15:50
KIBM 091550Z AUTO 25010KT 10SM CLR 25/14 A3009 RMK AO2 T02500139

2010/08/09 15:50
KIDP 091550Z AUTO 16004KT 10SM CLR 32/22 A2993 RMK AO2

2010/08/09 15:53
KBVY 091553Z 24012KT 10SM FEW100 31/17 A2994 RMK AO2 SLP134 T03060172

2010/08/09 15:53
KBYG 091553Z AUTO VRB04KT 10SM CLR 24/09 A3003 RMK AO2 SLP107 T02390089

2010/08/09 15:53
KBYI 091553Z AUTO 19011KT 10SM FEW100 21/10 A2996 RMK AO2 SLP105 T02060100

2010/08/09 15:53
KCAG 091553Z AUTO 21003KT 6SM -RA BR SCT035 SCT065 OVC080 13/12 A3025 RMK AO2 RAB16 SLP195 P0008 T01330117

2010/08/09 15:53
KCDC 091553Z AUTO 00000KT 10SM CLR 18/14 A3015 RMK AO2 SLP152 T01830139

2010/08/09 15:53
KCDS 091553Z AUTO 25008KT 10SM CLR 31/20 A2996 RMK AO2 SLP114 T03060200

2010/08/09 15:53
KCDW 091553Z VRB05KT 9SM CLR 32/18 A3001 RMK AO2 SLP165 T03220183 $

2010/08/09 15:53
KCEW 091553Z AUTO 09007KT 050V120 10SM FEW025 32/26 A2999 RMK AO2 SLP152 T03170256

2010/08/09 15:53
KCEZ 091553Z AUTO 00000KT 10SM CLR 23/12 A3021 RMK AO2 SLP149 T02330117

2010/08/09 15:53
KCGI 091553Z VRB03KT 10SM CLR 32/26 A2996 RMK AO2 SLP142 T03220256

2010/08/09 15:53
KCKB 091553Z VRB03KT 7SM CLR 28/19 A3006 RMK AO2 SLP164 T02830194

2010/08/09 15:53
KCNO 091553Z 00000KT 4SM HZ CLR 18/13 A2994 RMK AO2 SLP133 T01780128

2010/08/09 15:53
KCPR 091553Z 21015KT 10SM CLR 26/04 A3007 RMK AO2 SLP108 T02610044

2010/08/09 15:53
KCPS 091553Z VRB03KT 10SM HZ CLR 32/24 A2995 RMK AO2 SLP138 T03220244

2010/08/09 15:53
KCRE 091553Z 10007KT 10SM BKN036 31/25 A3003 RMK AO2 SLP169 T03060250

2010/08/09 15:53
KCRG 091553Z 06011G17KT 10SM BKN020 BKN080 30/24 A2997 RMK AO2 SLP150 T03000244

2010/08/09 15:53
KCRS 091553Z AUTO 20010KT 10SM CLR 32/22 A2997 RMK AO2 SLP142 T03170222

2010/08/09 15:53
KCSM 091553Z 18013KT 10SM CLR 33/18 A2995 RMK AO2 SLP110 T03330183

2010/08/09 15:53
KCUB 091553Z AUTO 00000KT 10SM CLR 32/21 A3004 RMK AO2 SLP170 T03220211

2010/08/09 15:53
KCYS 091553Z 22008KT 10SM FEW031 OVC090 20/12 A3019 RMK AO2 SLP136 T02000122

2010/08/09 15:53
KDAN 091553Z AUTO VRB03KT 8SM CLR 32/20 A3006 RMK AO2 SLP166 T03220200

2010/08/09 15:53
KDEN 091553Z 28006KT 10SM SCT100 BKN140 23/13 A3013 RMK AO2 SLP123 T02330133

2010/08/09 15:53
KDEQ 091553Z AUTO 00000KT 10SM CLR 32/23 A2996 RMK AO2 SLP137 T03170233

2010/08/09 15:53
KDET 091553Z 24007KT 8SM CLR 27/20 A2995 RMK AO2 SLP139 T02720200

2010/08/09 15:53
KDFI 091553Z AUTO 24004KT 8SM CLR 28/19 A3000 RMK AO2 SLP152 T02780189

2010/08/09 15:53
KDFW 091553Z 19008KT 10SM CLR 32/22 A2995 RMK AO2 SLP131 T03220222

2010/08/09 15:53
KDGW 091553Z AUTO 32005KT 10SM CLR 27/07 A3006 RMK AO2 SLP109 T02670067

2010/08/09 15:53
KDHN 091553Z 08007KT 10SM FEW032 32/24 A3004 RMK AO2 SLP167 T03170239

2010/08/09 15:53
KSGR 091553Z VRB03KT 10SM BKN031 32/24 A2998 RMK AO2 SLP158 T03220239

2010/08/09 15:53
KFST 091553Z AUTO 14008KT 10SM CLR 28/20 A3002 RMK AO2 SLP112 T02830200

2010/08/09 15:53
KFTW 091553Z VRB05KT 10SM CLR 32/22 A2994 RMK AO2 SLP128 T03220222

2010/08/09 15:53
KFUL 091553Z 30003KT 6SM HZ OVC013 17/12 A2992 RMK AO2 SLP131 T01670122

2010/08/09 15:53
KFVE 091553Z AUTO 24006KT 10SM BKN016 OVC022 21/16 A2988 RMK AO2 SLP114 T02060161

2010/08/09 15:53
KFWN 091553Z AUTO 19007KT 10SM CLR 31/18 A3002 RMK AO2 SLP160 T03110183

2010/08/09 15:53
KFXE 091553Z 13010KT 10SM SCT030 SCT100 29/23 A2995 RMK AO2 SLP143 T02940233

2010/08/09 15:53
KGAG 091553Z AUTO 20012KT 10SM CLR 32/19 A2994 RMK AO2 SLP102 T03220194

2010/08/09 15:53
KGEY 091553Z AUTO VRB03KT 10SM CLR 24/07 A2996 RMK AO2 SLP104 T02440072

2010/08/09 15:53
KGEZ 091553Z AUTO 21007KT 9SM CLR 29/21 A2999 RMK AO2 SLP150 T02940206

2010/08/09 15:53
KGFL 091553Z AUTO 17011G16KT 10SM SCT055 29/18 A2996 RMK AO2 SLP140 T02890183

2010/08/09 15:53
KGGG 091553Z VRB05KT 10SM CLR 32/23 A2999 RMK AO2 SLP147 T03170228

2010/08/09 15:53
KGGW 091553Z AUTO 00000KT 10SM CLR 25/13 A2988 RMK AO2 SLP105 T02500133 TSNO

2010/08/09 15:53
KGIF 091553Z AUTO 12006KT 10SM FEW019 BKN036 OVC050 29/24 A2996 RMK AO2 SLP143 T02940239 TSNO

2010/08/09 15:53
KGJT 091553Z 12008KT 10SM SCT100 24/09 A3014 RMK AO2 SLP136 T02440089

2010/08/09 15:53
KGKJ 091553Z AUTO 21006KT 10SM CLR 27/17 A3005 RMK AO2 SLP164 T02670167

2010/08/09 15:52
KNRB 091552Z 05011KT 10SM FEW018 BKN030 BKN065 32/25 A2998 RMK AO2 RAB36E47 SLP151 P0000 T03170250

2010/08/09 15:52
KNHK 091552Z 10008KT 7SM FEW020 SCT250 29/24 A3004 RMK AO2 SLP171 T02940239

2010/08/09 15:52
KNFW 091552Z 18008G14KT 10SM CLR 34/22 A2998 RMK AO2 SLP137 T03390217 $

2010/08/09 15:55
KRDR 091555Z AUTO 00000KT 10SM CLR 30/19 A2985 RMK AO2 SLP118 T03030189 $

2010/08/09 15:55
KBLV 091555Z AUTO VRB03KT 10SM CLR 31/26 A2996 RMK AO2 SLP140 T03140260

2010/08/09 15:50
KBYH 091550Z 00000KT 8SM BKN250 33/26 A2998

2010/08/09 15:55
KLRF 091555Z AUTO 00000KT 10SM CLR 33/25 A2997 RMK AO2 SLP148 T03270253

2010/08/09 15:55
KRDR 091555Z AUTO 00000KT 10SM CLR 30/19 A2985 RMK AO2 SLP118 T03030189 $

2010/08/09 15:53
PHNL 091553Z 07010KT 10SM FEW034 25/16 A3007 RMK AO2 SLP181 T02500161

2010/08/09 15:53
KDNK 091553Z AUTO 23004KT 10SM CLR 32/22 A2999 RMK AO2 SLP152 T03170222 PNO $

2010/08/09 15:53
KIAG 091553Z 22011KT 10SM BKN070 BKN110 OVC140 27/20 A2996 RMK AO2 SLP139 T02670200

2010/08/09 15:53
KNIP 091553Z 05010KT 10SM BKN034TCU 31/24 A2997 RMK AO2 SLP145 TCU E-S T03110244

2010/08/09 15:53
KDTS 091553Z AUTO 09009KT 10SM CLR 32/25 A2997 RMK AO2 SLP147 T03170250

2010/08/09 15:53
KNQX 091553Z 19007KT 10SM -RA FEW026CB SCT075 BKN100 OVC200 28/24 A2996 RMK AO2 SLP143 CB E MOV SW T1 SET P0002 T02780239 $

2010/08/09 15:53
PABI 091553Z 19015G24KT 10SM FEW090 BKN110 BKN180 14/05 A2962 RMK AO2 RAE29 SLP030 P0000 T01390050

2010/08/09 15:54
KECG 091554Z 10004KT 10SM CLR 29/22 A3004 RMK AO2 SLP173 T02940217

2010/08/09 15:54
KFZY 091554Z AUTO 26007KT 9SM CLR 28/20 A2997 RMK AO2 SLP145 T02830200

2010/08/09 15:50
EGBB 091550Z 20010KT 170V230 9999 SCT029 21/13 Q1012

2010/08/09 15:50
EGCC 091550Z 19012KT 9999 FEW028 BKN035 18/15 Q1010

2010/08/09 15:50
EGGP 091550Z 23013KT 9999 FEW020 21/12 Q1010

2010/08/09 15:50
EGHI 091550Z 23013KT 200V260 9999 SCT025 SCT031 19/12 Q1015

2010/08/09 15:50
EGJA 091550Z 24010KT 9999 FEW010 18/14 Q1017

2010/08/09 15:50
EGJB 091550Z 24011KT 210V270 9999 BKN036 18/15 Q1017

2010/08/09 15:50
EGKA 091550Z 23018KT 9999 FEW042 19/14 Q1015

2010/08/09 15:50
EGKK 091550Z 22012KT CAVOK 22/12 Q1014

2010/08/09 15:50
EGLF 091550Z 23013KT 9999 SCT038 22/14 Q1014

2010/08/09 15:50
EGLL 091550Z 22013KT 190V250 9999 FEW049 24/10 Q1013

2010/08/09 15:50
EGMC 091550Z 20011KT CAVOK 23/11 Q1013

2010/08/09 15:50
EGMD 091550Z 22018KT 9999 FEW020 19/14 Q1015

2010/08/09 15:50
EGMH 091550Z 22013KT 9999 FEW031 22/13 Q1014

2010/08/09 15:50
EGNT 091550Z 24010KT 190V270 9999 SCT045 21/10 Q1007

2010/08/09 15:50
EGNV 091550Z 18011KT 3500 -RA HZ FEW013 BKN017 18/16 Q1009

2010/08/09 15:50
EGPF 091550Z 25012KT 9999 FEW030 18/10 Q1007

2010/08/09 15:50
EGPH 091550Z 25012KT 9999 FEW010 FEW020TCU 17/13 Q1006

2010/08/09 15:50
EGPK 091550Z 24012KT 9999 SCT020 17/11 Q1008

2010/08/09 15:50
EGSS 091550Z 21013KT CAVOK 24/10 Q1013

2010/08/09 15:50
EGTE 091550Z 18010KT 9999 FEW012 BKN017 20/17 Q1014

2010/08/09 15:50
EGTG 091550Z 20011KT 9999 BKN010 18/16 Q1013

2010/08/09 15:50
EKEB 091550Z AUTO 26011KT 230V290 9999NDV BKN031/// 18/11 Q1015

2010/08/09 15:50
EKOD 091550Z 27010KT 9999 SCT048 18/09 Q1014

2010/08/09 15:50
EKRK 091550Z AUTO 28012KT 9999NDV SCT043/// 19/11 Q1014

2010/08/09 15:50
EKRN 091550Z AUTO 27010KT 9999NDV NCD 19/14 Q1015

2010/08/09 15:50
EKVD 091550Z 31008KT 9999 BKN034 18/09 Q1015

2010/08/09 15:50
EKYT 091550Z 26014KT 9999 BKN034 18/10 Q1012

2010/08/09 15:50
LXGB 091550Z 08007KT CAVOK 26/21 Q1014 NOSIG

2010/08/09 16:00
MROC 091600Z 00000KT 9999 FEW040 BKN120 25/21 A3005 NOSIG

2010/08/09 15:50
ENAT 091550Z 30009KT 9999 FEW025 BKN045 14/10 Q1015 

2010/08/09 15:50
ENBL 091550Z 28006KT 9999 SCT010 BKN017 15/12 Q1010

2010/08/09 15:50
ENEV 091550Z 35010KT 320V030 9999 FEW030 14/09 Q1012 

2010/08/09 15:50
ENFL 091550Z 24004KT 9999 FEW006 SCT011 BKN025 15/13 Q1010

2010/08/09 15:50
ENKB 091550Z 01010KT 9999 FEW017 16/13 Q1009

2010/08/09 15:50
ENKR 091550Z 05010KT 9999 -RA OVC005 10/09 Q1015 

2010/08/09 15:50
ENML 091550Z 24008KT 9999 FEW015 21/14 Q1009

2010/08/09 15:50
ENNA 091550Z 35012KT 9999 SCT012 BKN020 11/08 Q1016 

2010/08/09 16:00
MROC 091600Z 00000KT 9999 FEW040 BKN120 25/21 A3005 NOSIG

2010/08/09 15:53
KEWB 091553Z 22008G18KT 8SM SCT015 BKN095 29/21 A2999 RMK AO2 SLP153 T02940211

2010/08/09 15:53
KEYE 091553Z AUTO 23005KT 10SM CLR 30/20 A3000 RMK AO2 SLP150 T03000200

2010/08/09 15:53
KEYW 091553Z 22009KT 10SM -RA FEW047 BKN075 28/23 A2996 RMK AO2 RAB34 SLP145 P0000 T02830233

2010/08/09 15:53
KFAY 091553Z AUTO VRB03KT 10SM CLR 33/20 A3003 RMK AO2 SLP164 T03280200

2010/08/09 15:53
KFDR 091553Z AUTO 19012KT 10SM 34/19 A2989 RMK AO2 SLP099 T03390194

2010/08/09 15:53
KFDY 091553Z AUTO 26007KT 7SM CLR 29/19 A3000 RMK AO2 SLP149 T02890194

2010/08/09 15:53
KFFT 091553Z AUTO 19004KT 9SM CLR 31/21 A3003 RMK AO2 SLP158 T03060206

2010/08/09 15:53
KFLD 091553Z AUTO 23004KT 10SM BKN016 OVC022 25/21 A2992 RMK AO2 SLP125 T02500211

2010/08/09 15:53
KFLL 091553Z 14014KT 10SM SCT023 BKN033 BKN085 29/24 A2995 RMK AO2 SLP140 T02890244

2010/08/09 15:53
KFLO 091553Z 06007KT 10SM CLR 31/23 A3004 RMK AO2 SLP168 T03110228

2010/08/09 15:53
KFMY 091553Z 10007KT 10SM SCT024 BKN039 BKN060 30/24 A2992 RMK AO2 LTG DSNT S SLP134 T03000239

2010/08/09 15:53
KFOE 091553Z 20007KT 10SM CLR 34/22 A2991 RMK AO2 SLP112 T03440217

2010/08/09 15:53
KFOK 091553Z 21009KT 9SM CLR 27/21 A3003 RMK AO2 SLP167 T02720211

2010/08/09 15:53
KFPR 091553Z 13005KT 10SM SCT018 BKN030 BKN100 29/24 A2995 RMK AO2 SLP141 T02890239

2010/08/09 15:53
KFRG 091553Z 21006KT 9SM CLR 29/22 A3001 RMK AO2 SLP162 T02890217

2010/08/09 15:54
PHMK 091554Z 08005KT 10SM CLR 22/14 A3008 RMK AO2 SLP187 T02170144

2010/08/09 15:53
PAAQ 091553Z 35010KT 10SM OVC095 13/09 A2965 RMK AO2 SLP034 T01330094

2010/08/09 15:53
PABR 091553Z 07021G26KT 10SM OVC005 02/01 A2989 RMK AO2 PK WND 07029/1533 CIG 004V010 SLP121 T00170011

2010/08/09 15:53
PACV 091553Z 12006G14KT 8SM SCT010 BKN042 OVC050 12/11 A2982 RMK AO2 RAE32 SLP098 P0000 T01220106

2010/08/09 15:53
PADE 091553Z AUTO 08015KT 10SM FEW085 13/11 A2937 RMK AO2 RAE37 SLP946 P0000 T01280106 TSNO

2010/08/09 15:53
PAEG 091553Z AUTO 00000KT 10SM SCT080 12/09 A2962 RMK AO2 SLP029 T01220094 TSNO

2010/08/09 15:53
PAEN 091553Z 05003KT 10SM BKN060 OVC075 13/12 A2961 RMK AO2 SLP029 T01330117

2010/08/09 15:53
PAGK 091553Z 17011G19KT 10SM FEW055 SCT080 SCT110 BKN140 BKN180 10/07 A2971 RMK AO2 SLP061 T01000072

2010/08/09 15:53
PAGY 091553Z AUTO 21009KT 10SM OVC050 13/10 A2993 RMK AO2 SLP135 T01330100 TSNO

2010/08/09 15:53
PAIL 091553Z 12008KT 10SM BKN028 BKN070 12/09 A2955 RMK AO2 SLP008 T01170094

2010/08/09 15:53
PAKT 091553Z 13007KT 5SM BR SCT004 OVC011 13/12 A3001 RMK AO2 SLP164 SCT004 V BKN VIS E 3 HARBOR WND 12005KT T01280117

2010/08/09 15:53
PAKV 091553Z AUTO 00000KT 4SM BR OVC006 12/11 A2945 RMK AO2 RAB09E34 SLP976 P0000 T01170111 TSNO

2010/08/09 15:53
PAKW 091553Z AUTO 00000KT 10SM SCT009 BKN034 13/11 A2998 RMK AO2 SLP153 T01330111 TSNO

2010/08/09 15:53
PALH 091553Z 35006KT 10SM BKN070 OVC085 14/11 A2964 RMK AO2 SLP037 T01390111

2010/08/09 15:53
PAMR 091553Z 00000KT 10SM SCT050 OVC070 13/10 A2962 RMK AO2 SLP031 T01330100

2010/08/09 15:53
PAPB 091553Z AUTO 22012KT 3/4SM BR VV001 08/08 A2924 RMK AO2 SLP891 T00780078 TSNO

2010/08/09 15:53
PASC 091553Z 06021G28KT 3/4SM R05/4000V5500FT BR OVC003 03/03 A2976 RMK AO2 PK WND 06030/1457 SLP078 T00280028

2010/08/09 15:53
PASI 091553Z 00000KT 10SM FEW004 BKN034 OVC040 13/12 A2996 RMK AO2 SLP144 MTNS OBSCD SW-N T01280117

2010/08/09 15:53
PASO 091553Z AUTO 19006KT 10SM CLR 13/11 A2960 RMK AO2 SLP023 T01330106 TSNO

2010/08/09 15:53
PATO 091553Z AUTO 11015G27KT 3SM -RA BR BKN021 OVC028 12/10 A2973 RMK AO2 PK WND 11028/1513 SLP068 P0002 T01170100 TSNO

2010/08/09 15:53
PAVL 091553Z AUTO 05013KT 9SM -RA BKN085 12/09 A2946 RMK AO2 SLP977 P0000 T01220089 TSNO

2010/08/09 15:53
PAWD 091553Z AUTO A2970 RMK AO2 SLP059 PWINO FZRANO TSNO $

2010/08/09 15:54
KAAO 091554Z AUTO 21007KT 10SM CLR 34/20 A2992 RMK AO2 SLP112 T03440200

2010/08/09 15:50
KAEG 091550Z 00000KT 10SM FEW200 22/12 A3020

2010/08/09 15:55
KAEG 091555Z AUTO 00000KT 10SM CLR 22/12 A3020 RMK AO1

2010/08/09 15:55
KAIK 091555Z AUTO 02005KT 10SM CLR 31/26 A3008 RMK AO2 PNO

2010/08/09 15:50
BGGH 091550Z 20011KT 9999 FEW009 BKN060 13/09 Q1008

2010/08/09 15:50
EFKU 091550Z AUTO 17008KT CAVOK 23/17 Q1009

2010/08/09 15:50
EFOU 091550Z 29007KT 250V320 9999 FEW005 BKN016 20/19 Q1007

2010/08/09 15:50
EGMH 091550Z 22013KT 9999 FEW031 22/13 Q1014

2010/08/09 15:53
KBAF 091553Z 18006KT 10SM SCT090 32/17 A2998 RMK AO2 SLP146 T03170167

2010/08/09 15:53
KBUR 091553Z 13003KT 6SM HZ CLR 17/12 A2992 RMK AO2 SLP123 T01670122

2010/08/09 15:55
KCEF 091555Z AUTO 20006KT 10SM BKN090 30/19 A2998 RMK AO2 DZB1530E1540 SLP151 P0000 T03020194

2010/08/09 15:55
KGRF 091555Z 17005KT 10SM FEW011 BKN018 OVC045 14/11 A2997 RMK AO2A FEW V SCT SLP151 T01420112

2010/08/09 15:55
KHMN 091555Z AUTO 22003KT 10SM CLR 26/15 A3008 RMK AO2 SLP103 T02550148 $

2010/08/09 15:55
KHST 091555Z 13004KT 3SM RA BR BKN012 OVC024 25/24 A2997 RMK AO2A BKN V OVC SLP150 P0015 T02510240

2010/08/09 15:55
KIAB 091555Z AUTO 18006KT 10SM CLR 34/20 A2993 RMK AO2 SLP118 T03400204 $

2010/08/09 15:56
KNSI 091556Z 34006KT 6SM BR OVC008 14/13 A2993 RMK AO2 SLP131 T014440128 TSNO

2010/08/09 15:55
KOFF 091555Z AUTO 26006KT 10SM CLR 29/24 A2986 RMK AO2 SLP094 T02850237 $

2010/08/09 15:55
KSUU 091555Z AUTO 25018KT 10SM BKN008 16/12 A2988 RMK AO2 SLP120 T01570118 RVRNO $

2010/08/09 15:53
KTOI 091553Z 08005KT 10SM CLR 33/24 A3002 RMK AO2 SLP160 T03280239

2010/08/09 15:55
KVPS 091555Z 10009KT 10SM FEW030 32/25 A2998 RMK AO2A SLP151 T03180248 $

2010/08/09 16:00
MWCR 091600Z 18005KT 9999 FEW018 32/25 Q1015 NOSIG

2010/08/09 15:50
OAUZ 091550Z AUTO 24003KT //// ////// 35/07 Q1003

2010/08/09 15:53
PHJR 091553Z AUTO VRB05KT 10SM FEW037 BKN047 25/17 A3008 RMK AO2 SLP191 T02500172 TSNO

2010/08/09 15:50
EGBB 091550Z 20010KT 170V230 9999 SCT029 21/13 Q1012

2010/08/09 15:50
EGCC 091550Z 19012KT 9999 FEW028 BKN035 18/15 Q1010

2010/08/09 15:50
EGGP 091550Z 23013KT 9999 FEW020 21/12 Q1010

2010/08/09 15:50
EGHD 091550Z 21010KT 0400 FG VV/// 17/17 Q1015

2010/08/09 15:50
EGHE 091550Z 23015KT 9999 -DZ SCT004 BKN011 18/17 Q1015

2010/08/09 15:50
EGHH 091550Z 24013KT 9999 BKN018 19/14 Q1015

2010/08/09 15:50
EGHI 091550Z 23013KT 200V260 9999 SCT025 SCT031 19/12 Q1015

2010/08/09 15:50
EGJA 091550Z 24010KT 9999 FEW010 18/14 Q1017

2010/08/09 15:50
EGJB 091550Z 24011KT 210V270 9999 BKN036 18/15 Q1017

2010/08/09 15:50
EGJJ 091550Z 26007KT 210V320 9999 FEW015 19/15 Q1017 NOSIG

2010/08/09 15:50
EGKA 091550Z 23018KT 9999 FEW042 19/14 Q1015

2010/08/09 15:50
EGKB 091550Z 22013KT 180V250 9999 FEW045 22/11 Q1014

2010/08/09 15:50
EGKK 091550Z 22012KT CAVOK 22/12 Q1014

2010/08/09 15:50
EGLF 091550Z 23013KT 9999 SCT038 22/14 Q1014

2010/08/09 15:50
EGLL 091550Z 22013KT 190V250 9999 FEW049 24/10 Q1013

2010/08/09 15:50
EGMC 091550Z 20011KT CAVOK 23/11 Q1013

2010/08/09 15:50
EGMD 091550Z 22018KT 9999 FEW020 19/14 Q1015

2010/08/09 15:50
EGMH 091550Z 22013KT 9999 FEW031 22/13 Q1014

2010/08/09 15:50
EGNT 091550Z 24010KT 190V270 9999 SCT045 21/10 Q1007

2010/08/09 15:50
EGNV 091550Z 18011KT 3500 -RA HZ FEW013 BKN017 18/16 Q1009

2010/08/09 15:50
EGPD 091550Z 18013KT 9999 SCT021 17/11 Q1006 TEMPO SHRA

2010/08/09 15:50
EGPF 091550Z 25012KT 9999 FEW030 18/10 Q1007

2010/08/09 15:50
EGPH 091550Z 25012KT 9999 FEW010 FEW020TCU 17/13 Q1006

2010/08/09 15:50
EGPK 091550Z 24012KT 9999 SCT020 17/11 Q1008

2010/08/09 15:50
EGSS 091550Z 21013KT CAVOK 24/10 Q1013

2010/08/09 15:50
EGTC 091550Z 21014KT 9999 VCSH FEW048 22/11 Q1012

2010/08/09 15:50
EGTE 091550Z 18010KT 9999 FEW012 BKN017 20/17 Q1014

2010/08/09 15:50
EGTG 091550Z 20011KT 9999 BKN010 18/16 Q1013

2010/08/09 16:00
LEMO 091600Z 32004KT 270V050 CAVOK 41/15 Q1012 NOSIG

2010/08/09 15:50
ENMS 091550Z 33009KT 9999 FEW040TCU 19/13 Q1009 

2010/08/09 15:50
ENRM 091550Z 01006KT 330V060 9999 BKN010 13/11 Q1011

2010/08/09 15:50
ENRS 091550Z 01018KT CAVOK 12/08 Q1013

2010/08/09 15:50
ENSK 091550Z 05008KT 9999 FEW015 SCT025 14/09 Q1013

2010/08/09 15:50
ENSO 091550Z 33002KT 9999 SCT015 BKN020 16/12 Q1011

2010/08/09 15:50
ENST 091550Z 36007KT CAVOK 17/12 Q1011

2010/08/09 15:50
ENVD 091550Z 06011KT 9999 BKN006 OVC010 11/09 Q1015

2010/08/09 15:53
PTKR 091553Z 16008KT 9SM -SHRA BKN016TCU OVC180 26/25 A2986 RMK SHRAB37 TCU ALQDS AND OHD SLP111 T02610246

2010/08/09 15:54
PGUM 091554Z 00000KT 10SM OVC060 24/24 A2991 RMK AO2 SLP120 T02440244

2010/08/09 15:54
PGSN 091554Z 18007KT 6SM -RA BR SCT016 BKN030 BKN050 26/24 A2989 RMK AO2 RAB10E34B54 SLP119 P0000 T02610239

2010/08/09 15:53
KTQH 091553Z AUTO 20005KT 10SM CLR 35/23 A2998 RMK AO2

2010/08/09 15:52
KTRM 091552Z AUTO 34003KT 10SM CLR 29/06 A2978 RMK AO2 SLP088 T02890061

2010/08/09 15:52
PAAP 091552Z COR 00000KT 1SM BR BKN000 OVC002 12/11 A2999 RMK BR BKN000 NO SPECI

2010/08/09 15:53
KABR 091553Z AUTO 19008KT 10SM CLR 29/19 A2991 RMK AO2 SLP121 T02890189

2010/08/09 15:53
KACV 091553Z AUTO 31003KT 7SM FEW002 OVC009 12/11 A2994 RMK AO2 SLP145 T01170111

2010/08/09 15:53
KAEX 091553Z 32004KT 10SM CLR 33/24 A2997 RMK AO2 SLP149 T03280239

2010/08/09 15:53
KAGS 091553Z 00000KT 7SM CLR 32/24 A3003 RMK AO2 SLP165 T03170239

2010/08/09 15:53
KALI 091553Z AUTO 16008KT 10SM BKN028 32/24 A2995 RMK AO2 SLP138 T03170244

2010/08/09 15:53
KALW 091553Z 21007KT 10SM CLR 23/07 A2987 RMK AO2 SLP108 T02280072

2010/08/09 15:53
KAMA 091553Z 21006KT 10SM CLR 30/16 A3003 RMK AO2 SLP105 T03000161

2010/08/09 15:53
KAMW 091553Z AUTO 15008KT 10SM FEW090 27/23 A2991 RMK AO2 SLP119 T02720228

2010/08/09 15:53
KANB 091553Z AUTO VRB04KT 9SM CLR 32/23 A3004 RMK AO2 SLP159 T03220233

2010/08/09 15:50
KANE 091550Z 02004KT 12SM SKC 28/23 A2992

2010/08/09 15:53
KAOO 091553Z AUTO 00000KT 10SM CLR 28/14 A3008 RMK AO2 SLP176 T02780144

2010/08/09 15:53
KARA 091553Z 31005KT 10SM SCT025 32/26 A2999 RMK AO2 SLP154 T03170256

2010/08/09 15:53
KASD 091553Z AUTO 01008KT 10SM CLR 32/26 A2997 RMK AO2 SLP148 T03220256

2010/08/09 15:53
KASX 091553Z AUTO 00000KT 10SM FEW012 26/22 A2992 RMK AO2 SLP129 T02560222

2010/08/09 15:53
KATY 091553Z AUTO 14004KT 10SM CLR 28/18 A2994 RMK AO2 SLP126 T02780178

2010/08/09 15:53
KAUS 091553Z 21007KT 10SM FEW026 32/22 A2998 RMK AO2 SLP140 T03170217

2010/08/09 15:53
KAWM 091553Z AUTO 00000KT 10SM FEW090 32/26 A2997 RMK AO2 SLP141 T03220256

2010/08/09 15:53
KAXN 091553Z AUTO 00000KT 10SM CLR 28/17 A2996 RMK AO2 SLP136 T02830172

2010/08/09 15:53
KAZO 091553Z 18007KT 3SM RA BR BKN023 BKN049 OVC065 23/22 A3000 RMK AO2 RAB20 SLP152 P0006 T02280217

2010/08/09 15:53
KBDE 091553Z AUTO 00000KT 10SM CLR 26/21 A2988 RMK AO2 SLP115 T02610206

2010/08/09 15:53
KBEH 091553Z AUTO 16006KT 10SM FEW045 OVC090 23/22 A2997 RMK AO2 TSE1459B18E33RAE36 SLP143 P0010 T02330217

2010/08/09 15:53
KBFD 091553Z AUTO VRB04KT 10SM CLR 24/16 A3009 RMK AO2 SLP174 T02440156

2010/08/09 15:53
KBFI 091553Z 22003KT 10SM OVC014 16/12 A2997 RMK AO2 SLP147 T01560117

2010/08/09 15:53
KBFM 091553Z 04007KT 10SM SCT017 31/24 A2999 RMK AO2 SLP156 T03060244

2010/08/09 15:53
KBHM 091553Z 11004KT 10SM FEW040 33/22 A3004 RMK AO2 SLP162 T03330217

2010/08/09 15:53
KBIV 091553Z AUTO 23004KT 10SM -RA FEW001 25/22 A2996 RMK AO2 SLP142 P0000 T02500222

2010/08/09 15:53
KBKE 091553Z AUTO 00000KT 10SM FEW100 20/08 A2993 RMK AO2 SLP112 T02000078

2010/08/09 15:53
KBLI 091553Z 17007KT 10SM FEW007 SCT046 15/12 A2994 RMK AO2 SLP144 T01500122

2010/08/09 15:53
KBMQ 091553Z AUTO 20007KT 10SM CLR 30/19 A3002 RMK AO2 SLP145 T03000194 $

2010/08/09 15:53
KBNA 091553Z 00000KT 10SM SCT036 BKN200 33/24 A3002 RMK AO2 SLP156 T03330239

2010/08/09 15:53
KBPK 091553Z AUTO 22003KT 8SM CLR 31/25 A3000 RMK AO2 SLP145 T03110250

2010/08/09 15:53
KBPT 091553Z 00000KT 10SM FEW028 32/25 A2998 RMK AO2 SLP152 T03170250

2010/08/09 15:53
KBRD 091553Z AUTO 27004KT 10SM CLR 27/18 A2993 RMK AO2 SLP130 T02720178

2010/08/09 15:53
KESF 091553Z AUTO 28006KT 10SM CLR 33/24 A2998 RMK AO2 SLP151 T03280239

2010/08/09 15:53
KFCM 091553Z 35005KT 10SM CLR 30/21 A2991 RMK AO2 SLP121 T03000211

2010/08/09 15:53
KFFC 091553Z AUTO 00000KT 9SM CLR 33/22 A3007 RMK AO2 SLP173 T03280217

2010/08/09 15:53
KFHR 091553Z AUTO 00000KT 10SM FEW011 SCT021 15/12 A2996 RMK AO2 SLP144 T01500117

2010/08/09 15:53
KFSM 091553Z 21003KT 10SM CLR 34/22 A2996 RMK AO2 SLP137 T03390222

2010/08/09 15:53
KFTY 091553Z 00000KT 7SM FEW037 32/22 A3006 RMK AO2 SLP168 T03170222

2010/08/09 15:53
KFYV 091553Z 21005KT 10SM CLR 32/22 A3001 RMK AO2 SLP144 T03170222

2010/08/09 15:53
KGFK 091553Z 21004KT 10SM CLR 29/20 A2984 RMK AO2 SLP100 T02940200

2010/08/09 15:53
KGLH 091553Z 28004KT 10SM CLR 34/24 A2996 RMK AO2 SLP150 T03390239

2010/08/09 15:50
BGBW 091550Z 02002KT 9999 FEW015 BKN070 13/09 Q1008 RMK 1ST 7AC 

2010/08/09 15:50
BGGH 091550Z 20011KT 9999 FEW009 BKN060 13/09 Q1008

2010/08/09 15:50
BGJN 091550Z 36003KT 9999 BKN150 11/02 Q1007 RMK 6AC 

2010/08/09 15:50
BGKK 091550Z 23013KT 9999 FEW080 SCT220 12/M00 Q1009

2010/08/09 15:50
BGCO 091550Z 01031G46KT 1300SE 9999N BLSA SCT001 11/00 Q1008

2010/08/09 15:50
BGSS 091550Z 14004KT 9999 FEW007 OVC011 11/09 Q1008

2010/08/09 15:50
BGAA 091550Z 26005KT 9999 BKN120 10/06 Q1007

2010/08/09 15:50
BGUQ 091550Z 08010KT 9999 FEW200 12/02 Q1006

2010/08/09 15:50
BGMQ 091550Z VRB04KT 9999 SCT008 BKN012 BKN032 11/10 Q1008

2010/08/09 15:50
BGUK 091550Z AUTO 34015KT 0450NDV FG ///000/// 06/06 Q1008 RMK /// 

2010/08/09 15:50
BGQQ 091550Z 25003KT 9999 SKC 07/02 Q1013

2010/08/09 15:50
BGPT 091550Z AUTO 28005KT 250V310 //// OVC180/// 09/09 Q1008

2010/08/09 15:53
KGKY 091553Z 21006KT 10SM CLR 32/23 A2996 RMK AO2 SLP133 T03170228

2010/08/09 15:53
KGLD 091553Z AUTO 06011KT 10SM CLR 31/13 A3000 RMK AO2 SLP108 T03110133

2010/08/09 15:53
KGNV 091553Z 06009G14KT 10SM FEW027 SCT036 SCT046 32/24 A2996 RMK AO2 SLP141 T03170244

2010/08/09 15:53
KGOK 091553Z AUTO 21007KT 10SM CLR 34/21 A2991 RMK AO2 SLP115 T03390211

2010/08/09 15:53
KGTF 091553Z 21004KT 10SM CLR 22/08 A2992 RMK AO2 SLP098 T02220078

2010/08/09 15:53
KGUY 091553Z AUTO 29003KT 10SM CLR 31/16 A2995 RMK AO2 SLP084 T03110161

2010/08/09 15:53
KGZH 091553Z AUTO 06006KT 10SM FEW026 31/24 A3001 RMK AO2 SLP157 P0001 T03060244

2010/08/09 15:53
KHAO 091553Z AUTO VRB04KT 9SM FEW055 32/20 A3003 RMK AO2 SLP162 T03170200

2010/08/09 15:53
KHBR 091553Z AUTO 21014KT 10SM CLR 33/19 A2993 RMK AO2 SLP110 T03330194

2010/08/09 15:53
KHFD 091553Z 26007KT 10SM CLR 32/18 A2997 RMK AO2 SLP149 T03170178

2010/08/09 15:53
KHHR 091553Z 00000KT 6SM HZ OVC013 18/13 A2993 RMK AO2 SLP135 T01780133 $

2010/08/09 15:53
KHLG 091553Z 16003KT 8SM CLR 29/16 A3005 RMK AO2 SLP170 T02890156

2010/08/09 15:53
KHLN 091553Z 10003KT 10SM BKN100 17/08 A2997 RMK AO2 SLP137 T01670083

2010/08/09 15:53
KHUF 091553Z 24004KT 8SM CLR 31/21 A2998 RMK AO2 SLP148 T03060211

2010/08/09 15:53
KHUL 091553Z AUTO 24008KT 10SM FEW010 BKN019 OVC025 21/19 A2988 RMK AO2 SLP118 T02110189

2010/08/09 15:53
KHVN 091553Z 21007G14KT 9SM CLR 28/21 A3000 RMK AO2 SLP158 T02830211

2010/08/09 15:53
KSWO 091553Z 16005KT 10SM CLR 34/22 A2991 RMK AO2 SLP114 T03440217

2010/08/09 15:50
KSZT 091550Z AUTO 00000KT 10SM CLR 18/15 A2989 RMK AO2

2010/08/09 15:53
KTDZ 091553Z AUTO 26007KT 8SM CLR 29/19 A3000 RMK AO2 SLP151 T02940189

2010/08/09 15:50
KTEX 091550Z AUTO 00000KT 10SM SCT050 OVC055 15/11 A3041 RMK AO2

2010/08/09 15:53
KTHV 091553Z AUTO 00000KT 8SM CLR 30/21 A3002 RMK AO2 SLP164 T03000211

2010/08/09 15:50
KTIF 091550Z AUTO 00000KT 10SM CLR 24/21 A2998 RMK AO2 T02410208

2010/08/09 15:53
KTKI 091553Z 21006KT 10SM CLR 32/23 A2995 RMK AO2 SLP135 T03170233

2010/08/09 15:53
KTMB 091553Z 17005KT 7SM -RA SCT007 BKN027 BKN060 27/24 A2996 RMK AO2 RAE09B53 SLP146 P0001 T02720239

2010/08/09 15:53
KTOP 091553Z 21007KT 10SM CLR 35/22 A2989 RMK AO2 SLP107 T03500222

2010/08/09 15:53
KTOR 091553Z AUTO VRB03KT 10SM CLR 25/14 A3002 RMK AO2 SLP112 T02500139

2010/08/09 15:53
KTPA 091553Z 07007KT 7SM SCT022 29/23 A2994 RMK AO2 SLP137 T02940233

2010/08/09 15:53
KTRL 091553Z AUTO 21009KT 180V250 10SM CLR 33/20 A2997 RMK AO2 SLP140 T03280200

2010/08/09 15:53
KTTN 091553Z 28006KT 9SM CLR 32/18 A3002 RMK AO2 SLP157 T03220183

2010/08/09 15:53
KTUL 091553Z 19008KT 10SM CLR 34/22 A2993 RMK AO2 SLP123 T03390217

2010/08/09 15:53
KTWF 091553Z VRB03KT 10SM CLR 23/11 A2994 RMK AO2 SLP080 T02330106

2010/08/09 15:53
KTXK 091553Z 29004KT 10SM CLR 33/23 A2998 RMK AO2 SLP144 T03280228

2010/08/09 15:53
KTYR 091553Z 21004KT 10SM CLR 32/22 A3000 RMK AO2 SLP152 T03170222

2010/08/09 15:53
KUNO 091553Z AUTO VRB05KT 10SM CLR 33/22 A3002 RMK AO2 SLP146 T03330222

2010/08/09 15:53
KUUU 091553Z AUTO 20010G16KT 10SM CLR 27/22 A3001 RMK AO2 SLP158 T02720217

2010/08/09 15:53
KVEL 091553Z AUTO VRB04KT 10SM FEW070 BKN110 17/11 A3016 RMK AO2 LTG DSNT SE RAB29E39 SLP160 P0000 T01670106

2010/08/09 15:53
KVGT 091553Z 11007KT 10SM CLR 27/09 A2995 RMK AO2 SLP109 T02670094

2010/08/09 15:53
KVIH 091553Z AUTO 23005KT 10SM CLR 32/25 A2997 RMK AO2 SLP134 T03220250

2010/08/09 15:53
KVLD 091553Z 04011KT 10SM SCT040 32/22 A2999 RMK AO2 SLP161 T03220222

2010/08/09 15:53
KVRB 091553Z 12008KT 10SM SCT017 BKN043 OVC065 30/24 A2995 RMK AO2 SLP139 T03000244

2010/08/09 15:53
KWRL 091553Z AUTO 00000KT 10SM CLR 23/08 A2998 RMK AO2 SLP108 T02330078

2010/08/09 15:53
KWST 091553Z AUTO 22008KT 9SM CLR 28/21 A3001 RMK AO2 SLP161 T02780211

2010/08/09 15:53
KYIP 091553Z AUTO VRB06KT 9SM CLR 28/21 A2997 RMK AO2 SLP140 T02830206 TSNO

2010/08/09 15:53
KZZV 091553Z AUTO 21007KT 10SM CLR 29/18 A3004 RMK AO2 SLP165 T02890178

2010/08/09 15:52
KIEN 091552Z AUTO 17007KT 10SM CLR 29/18 A2997 RMK AO2 SLP116 T02940183

2010/08/09 15:52
KIJD 091552Z AUTO 27005KT 10SM CLR 30/19 A3000 RMK AO2 SLP155 T03000189

2010/08/09 15:52
KIOW 091552Z AUTO 00000KT 10SM FEW060 26/22 A2993 RMK AO2 SLP128 T02610217

2010/08/09 15:52
KISN 091552Z 04003KT 10SM CLR 23/15 A2986 RMK AO2 SLP102 T02330150

2010/08/09 15:47
KIWA 091547Z 17005KT 45SM SCT120 32/12 A2991

2010/08/09 15:51
KJSV 091551Z AUTO 21005KT 10SM CLR 32/22 A2997 RMK AO2

2010/08/09 15:54
KJWG 091554Z AUTO 21009KT 10SM CLR 33/23 A2993 RMK AO2

2010/08/09 15:50
KJYR 091550Z AUTO 00000KT 10SM FEW014 29/23 A2989 RMK AO2

2010/08/09 15:50
KLAM 091550Z AUTO 06003KT 10SM CLR 20/12 A3028 RMK AO2

2010/08/09 15:50
KLCG 091550Z AUTO 36003KT 5SM BR OVC005 23/22 A2991 RMK AO2 T02310219

2010/08/09 15:50
KLHM 091550Z AUTO 17007KT 10SM CLR 19/12 A2987 RMK AO1 T01850119

2010/08/09 15:52
KLWC 091552Z AUTO 22005KT 10SM CLR 33/23 A2990 RMK AO2 SLP114 T03330233

2010/08/09 15:50
KLXN 091550Z AUTO 05005KT 10SM CLR 27/22 A2994 RMK AO2 T02730216

2010/08/09 15:52
KMDH 091552Z VRB03KT 10SM CLR 34/24 A2996 RMK AO2 SLP142 T03440244

2010/08/09 15:52
KMEB 091552Z AUTO 10003KT 10SM CLR 31/22 A3005 RMK AO2 SLP171 T03110217

2010/08/09 15:45
KMER 091545Z 32007KT 10SM SKC 21/14 A2988

2010/08/09 15:55
KUDG 091555Z 04006KT 10SM CLR 31/23 A3006 RMK AO1

2010/08/09 15:52
KUGN 091552Z 17007KT 10SM BR BKN004 24/22 A2994 RMK AO2 SLP126 T02440217

2010/08/09 15:48
KWWR 091548Z AUTO 17008KT 10SM CLR 34/19 A2995 RMK AO2 T03380193

2010/08/09 15:50
KXFL 091550Z 04008KT 10SM BKN019 BKN025 29/26 A2997

2010/08/09 15:52
KMKE 091552Z 21010KT 10SM SCT012 BKN160 BKN240 26/23 A2992 RMK AO2 SLP126 T02560228

2010/08/09 15:50
KMLE 091550Z AUTO 26005KT 10SM CLR 28/22 A2986 RMK AO2 T02830223

2010/08/09 15:52
KMLI 091552Z 00000KT 10SM CLR 25/22 A2992 RMK AO2 RAE22 SLP127 P0001 T02500222

2010/08/09 15:49
KMMH 091549Z AUTO 00000KT 10SM CLR 14/02 A3018 RMK AO1

2010/08/09 15:52
KMWH 091552Z AUTO 00000KT 10SM CLR 21/12 A2983 RMK AO2 SLP095 T02060122 TSNO

2010/08/09 15:55
KOAJ 091555Z AUTO 07007KT 10SM CLR 31/23 A3005 RMK AO1

2010/08/09 15:50
KOGA 091550Z AUTO 07004KT 10SM CLR 29/18 A2999 RMK AO2 LTG DSNT S T02850176

2010/08/09 15:50
KOJA 091550Z AUTO 20009G15KT 10SM CLR 32/21 A2993 RMK AO2

2010/08/09 15:52
KOKB 091552Z AUTO 00000KT 9SM OVC017 18/13 A2992 RMK AO2 SLP131 T01830133

2010/08/09 15:52
KOKC 091552Z 17012KT 10SM FEW250 32/22 A2993 RMK AO2 SLP114 T03220217 $

2010/08/09 15:51
KOKM 091551Z AUTO 19011G15KT 10SM CLR 34/24 A2995 RMK AO1

2010/08/09 15:52
KOMA 091552Z 17006KT 10SM SCT140 SCT250 30/24 A2985 RMK AO2 SLP097 T03000239

2010/08/09 15:50
KONL 091550Z AUTO 04006KT 7SM OVC001 22/22 A2992 RMK AO2 T02210219

2010/08/09 15:52
KORE 091552Z AUTO 29010KT 10SM FEW048 29/17 A2999 RMK AO2 SLP152 T02940167

2010/08/09 15:50
KORS 091550Z AUTO 00000KT 9SM OVC015 15/13 A2993 RMK AO2

2010/08/09 15:52
KOUN 091552Z AUTO 21013KT 10SM CLR 34/22 A2994 RMK AO2

2010/08/09 15:50
KPLU 091550Z AUTO 23004KT 3SM BR OVC005 13/13 A2996 RMK AO2

2010/08/09 15:52
KPPF 091552Z AUTO VRB03KT 10SM CLR 33/23 A2995 RMK AO2 SLP130 T03280233

2010/08/09 15:48
KPVJ 091548Z AUTO 21011KT 10SM CLR 35/23 A2994 RMK AO2

2010/08/09 15:52
KPWK 091552Z 15005KT 10SM FEW009 26/23 A2996 RMK AO2 SLP141 T02560228

2010/08/09 15:52
KPYM 091552Z AUTO 21009G15KT 10SM CLR 31/21 A2998 RMK AO2 SLP152 T03060206

2010/08/09 15:52
KRAP 091552Z 17008KT 10SM CLR 28/17 A2996 RMK AO2 SLP115 T02780172

2010/08/09 15:51
KRKR 091551Z AUTO 22006KT 10SM CLR 37/26 A2996 RMK AO2

2010/08/09 15:52
KSGF 091552Z 27003KT 10SM CLR 32/23 A2999 RMK AO2 SLP139 T03220228

2010/08/09 15:53
KSNL 091553Z AUTO 19009KT 10SM CLR 34/22 A2995 RMK AO2

2010/08/09 15:55
KSOP 091555Z AUTO 05005KT 10SM CLR 32/22 A3005 RMK AO1

2010/08/09 15:52
KSPI 091552Z 00000KT 10SM CLR 30/24 A2995 RMK AO2 SLP136 T03000239

2010/08/09 15:50
KSRE 091550Z AUTO 20010KT 10SM CLR 33/21 A2995 RMK AO2

2010/08/09 15:52
KSUX 091552Z 05004KT 10SM OVC009 26/22 A2988 RMK AO2 SLP110 T02560222

2010/08/09 15:45
KSVC 091545Z AUTO 04003KT 10SM CLR 24/10 A3018 RMK AO2

2010/08/09 15:52
KTAN 091552Z AUTO 22005KT 10SM SCT100 29/22 A2996 RMK AO2 SLP146 T02940222

2010/08/09 15:54
KTMK 091554Z AUTO 00000KT 10SM OVC023 15/12 A3001 RMK AO2

2010/08/09 15:53
KMTJ 091553Z AUTO 00000KT 10SM BKN090 19/13 A3022 RMK AO2 RAB11E21 SLP161 P0000 T01940133

2010/08/09 15:53
KMTO 091553Z AUTO VRB05KT 10SM CLR 31/24 A2998 RMK AO2 SLP144 T03110239 $

2010/08/09 15:53
KMVY 091553Z 23010KT 10SM FEW007 29/23 A3001 RMK AO2 SLP162 T02890228

2010/08/09 15:53
KMWL 091553Z AUTO 20006KT 10SM CLR 33/22 A2995 RMK AO2 SLP124 T03330222

2010/08/09 15:53
KMYF 091553Z 28004KT 10SM OVC011 17/13 A2993 RMK AO2 SLP133 T01670133

2010/08/09 15:53
KODO 091553Z AUTO 18009KT 10SM CLR 29/19 A3002 RMK AO2 SLP118 T02940194

2010/08/09 15:53
KOGB 091553Z AUTO 04006KT 10SM FEW032 32/22 A3004 RMK AO2 SLP169 T03220222

2010/08/09 15:53
KOGD 091553Z AUTO 13008KT 10SM CLR 23/09 A3004 RMK AO2 SLP112 T02280089

2010/08/09 15:53
KOJC 091553Z 20006KT 10SM FEW085 32/24 A2992 RMK AO2 SLP118 T03170239

2010/08/09 15:53
KOLF 091553Z AUTO 00000KT 10SM CLR 26/14 A2987 RMK AO2 SLP103 T02560144

2010/08/09 15:53
KONO 091553Z AUTO 23004KT 10SM CLR 22/10 A2987 RMK AO2 SLP100 T02170100

2010/08/09 15:53
KONT 091553Z 00000KT 4SM HZ CLR 18/12 A2992 RMK AO2 SLP124 T01780122

2010/08/09 15:53
KOPF 091553Z 15011KT 10SM FEW024 SCT038 BKN048 28/24 A2995 RMK AO2 SLP144 T02830239

2010/08/09 15:53
KORL 091553Z 11008KT 10SM FEW021 SCT035 SCT055 30/25 A2994 RMK AO2 SLP142 T03000250

2010/08/09 15:53
KOSU 091553Z 24005KT 8SM CLR 29/19 A3002 RMK AO2 SLP158 T02890194 $

2010/08/09 15:53
KOTM 091553Z AUTO 15008KT 10SM CLR 27/23 A2991 RMK AO2 LTG DSNT S SLP119 T02670228

2010/08/09 15:53
KOWD 091553Z 25008KT 10SM CLR 32/18 A2996 RMK AO2 SLP146 T03170183

2010/08/09 15:53
KPBG 091553Z AUTO 15008KT 10SM FEW046 25/19 A2993 RMK AO2 SLP135 T02500194

2010/08/09 15:53
KPBI 091553Z 15008KT 10SM SCT022 SCT055 BKN080 30/24 A2995 RMK AO2 SLP140 CB DSNT ALQDS T02970238

2010/08/09 15:53
KPEO 091553Z AUTO 19005KT 10SM CLR 28/19 A3002 RMK AO2 SLP156 T02780189

2010/08/09 15:53
KPGD 091553Z AUTO 11007KT 10SM SCT023 SCT041 29/23 A2996 RMK AO2 SLP145 T02940233 TSNO

2010/08/09 15:53
KPHD 091553Z AUTO 22006KT 10SM CLR 28/17 A3004 RMK AO2 SLP167 T02830172

2010/08/09 15:53
KPIE 091553Z 08006KT 10SM FEW019 29/24 A2994 RMK AO2 SLP137 T02940244

2010/08/09 15:53
KPIH 091553Z 20009KT 10SM SCT095 21/09 A3002 RMK AO2 RAB44E49 SLP113 P0000 T02110094

2010/08/09 15:53
KPKB 091553Z 00000KT 9SM CLR 29/17 A3007 RMK AO2 SLP174 T02890172

2010/08/09 15:53
KPMD 091553Z 03003KT 10SM CLR 23/01 A2996 RMK AO2 SLP118 T02280011

2010/08/09 15:53
KPMP 091553Z 14011KT 10SM FEW016 SCT042 SCT080 29/24 A2995 RMK AO2 RAB11E36 SLP144 P0000 T02940239

2010/08/09 15:50
KPNA 091550Z AUTO 11005KT 10SM SCT090 18/04 A3019 RMK AO2 T01770043

2010/08/09 15:53
KPNC 091553Z AUTO VRB04KT 10SM CLR 33/22 A2991 RMK AO2 SLP111 T03330217

2010/08/09 15:53
KPNS 091553Z 09005KT 10SM CLR 31/24 A2998 RMK AO2 SLP151 T03110244

2010/08/09 15:53
KHWO 091553Z 12013KT 10SM FEW026 31/23 A2996 RMK AO2 SLP146 T03060233

2010/08/09 15:53
KHZY 091553Z AUTO 20004KT 10SM FEW090 28/19 A3002 RMK AO2 SLP158 T02780189

2010/08/09 15:53
KICT 091553Z VRB06KT 10SM SCT150 SCT200 SCT250 35/21 A2992 RMK AO2 SLP112 T03500206

2010/08/09 15:53
KIDA 091553Z 00000KT 10SM SCT090 BKN150 20/12 A3004 RMK AO2 SLP128 T02000122

2010/08/09 15:53
KIML 091553Z AUTO 00000KT 10SM CLR 24/19 A3000 RMK AO2 LTG DSNT S RAE24 SLP124 P0000 T02390194

2010/08/09 15:53
KIPL 091553Z AUTO 29003KT 10SM CLR 29/12 A2979 RMK AO2 SLP088 T02890122

2010/08/09 15:53
KITR 091553Z AUTO 10005KT 10SM CLR 27/16 A3004 RMK AO2 SLP112 T02720161

2010/08/09 15:53
KIWI 091553Z AUTO 31004KT 10SM SCT030 27/20 A2994 RMK AO2 SLP136 T02670200

2010/08/09 15:53
KIXD 091553Z 17003KT 10SM CLR 29/23 A2993 RMK AO2 SLP122 T02940233

2010/08/09 15:53
KJEF 091553Z 00000KT 10SM SCT075 32/25 A2996 RMK AO2 SLP128 T03170250 $

2010/08/09 15:53
KJER 091553Z AUTO 06004KT 10SM CLR 22/09 A2995 RMK AO2 SLP101 T02170094

2010/08/09 15:53
KJKL 091553Z AUTO 13003KT 10SM CLR 29/18 A3008 RMK AO2 SLP169 T02890178

2010/08/09 15:53
KLAA 091553Z AUTO VRB03KT 10SM CLR 26/16 A2999 RMK AO2 SLP098 T02610156

2010/08/09 15:50
ENBN 091550Z 34003KT 9999 BKN011 14/11 Q1011

2010/08/09 15:50
ENFG 091550Z 25004KT 9999 FEW020TCU SCT030 BKN090 19/09 Q1010

2010/08/09 15:50
ENHF 091550Z 03011KT 9999 BKN022 10/06 Q1016 

2010/08/09 15:50
ENRA 091550Z 35006KT 9999 FEW040 21/13 Q1009

2010/08/09 15:50
ENSH 091550Z 02014KT 9999 FEW025 14/09 Q1012

2010/08/09 15:50
ENBS 091550Z 03011KT 0100 FG +DZ VV001 08/07 Q1016

2010/08/09 15:50
ENHV 091550Z 02008KT 9999 BKN018 10/07 Q1016

2010/08/09 15:50
ENMH 091550Z 08007KT 9999 BKN011 09/07 Q1017

2010/08/09 15:50
ENNK 091550Z 24010KT 9999 FEW080 19/13 Q1012 

2010/08/09 15:50
ENNM 091550Z 36007KT CAVOK 17/11 Q1010

2010/08/09 16:00
MDPP 091600Z 08013KT 9999 SCT022 32/26 Q1016

2010/08/09 16:00
MDST 091600Z 11009KT 9999 BKN022 30/24 Q1015

2010/08/09 16:00
MDCY 091600Z 03010KT 8000 -RA BKN018 28/26 Q1017

2010/08/09 16:00
MDPC 091600Z 07010KT 9999 SCT025 SCT300 31/25 Q1013 NOSIG MDJB 091600Z 03006KT 9999 FEW018TCU SCT020 SCT300 31/24 Q1014 TCU/N

2010/08/09 16:00
MDLR 091600Z 07010KT 9999 SCT025 32/25 Q1015

2010/08/09 16:00
MDBH 091600Z 13005KT 9999 FEW019CB FEW022 BKN300 33/26 Q1015 CB/SE

2010/08/09 16:00
MDSD 091600Z 14006KT 9999 SCT025 SCT300 32/23 Q1014

2010/08/09 16:00
LEJR 091600Z 25009KT 210V290 CAVOK 39/10 Q1012

2010/08/09 15:53
KTOI 091553Z 08005KT 10SM CLR 33/24 A3002 RMK AO2 SLP160 T03280239

2010/08/09 15:53
KTTD 091553Z 31004KT 10SM OVC027 16/11 A2998 RMK AO2 SLP153 T01560106

2010/08/09 15:53
KTVC 091553Z 20005KT 5SM HZ BKN014 27/23 A2986 RMK AO2 SLP108 T02670228

2010/08/09 15:53
KTVL 091553Z AUTO 00000KT 10SM CLR 14/08 A3012 RMK AO2 SLP157 T01390083

2010/08/09 15:53
KTVR 091553Z AUTO 00000KT 10SM CLR 34/24 A2997 RMK AO2 SLP155 T03390239

2010/08/09 15:52
PATA 091552Z 00000KT 10SM -RA BKN046 OVC060 14/11 A2954 RMK AO2 RAB47 SLP003 P0000 T01390106

2010/08/09 15:52
PAUO 091552Z 36004KT 15SM VCFG BKN010 BKN030 OVC080 12/11 A2966 RMK VCFG E S W NOSPECI

2010/08/09 15:50
PAWR 091550Z 09010G20KT 1SM -RA BR VV007 12/11 A2980 RMK SLP091 NOSPECI

2010/08/09 15:53
PHJR 091553Z AUTO VRB05KT 10SM FEW037 BKN047 25/17 A3008 RMK AO2 SLP191 T02500172 TSNO

2010/08/09 15:53
PHJR 091553Z AUTO VRB05KT 10SM FEW037 BKN047 25/17 A3008 RMK AO2 SLP191 T02500172 TSNO

2010/08/09 15:53
KMSY 091553Z 33011KT 10SM SCT020 BKN250 32/26 A2997 RMK AO2 SLP153 T03220261

2010/08/09 15:53
KRIL 091553Z AUTO 00000KT 10SM -RA FEW044 OVC085 17/11 A3022 RMK AO2 SLP172 P0001 T01670111 TSNO

2010/08/09 15:50
KPMV 091550Z AUTO 29005KT 10SM CLR 28/23 A2987 RMK AO2 T02750233

2010/08/09 15:53
KABY 091553Z 03010G16KT 10SM FEW040 33/22 A3003 RMK AO2 SLP165 T03330222

2010/08/09 15:53
KACK 091553Z 23010KT 10SM CLR 25/22 A3002 RMK AO2 SLP166 T02500222

2010/08/09 15:53
KADG 091553Z AUTO 27006KT 9SM CLR 28/20 A2999 RMK AO2 SLP152 T02780200

2010/08/09 15:53
KAFW 091553Z 18012KT 10SM FEW050 34/22 A2995 RMK AO2 SLP120 T03440222 $

2010/08/09 15:53
KAGC 091553Z 00000KT 10SM CLR 29/15 A3005 RMK AO2 SLP170 T02890150

2010/08/09 15:53
KAIA 091553Z AUTO 21008KT 10SM CLR 30/13 A3001 RMK AO2 SLP113 T03000133 $

2010/08/09 15:53
KAKO 091553Z AUTO 23003KT 10SM CLR 24/13 A3009 RMK AO2 SLP125 T02440133 TSNO

2010/08/09 15:53
KAMG 091553Z AUTO VRB06KT 10SM CLR 32/22 A3001 RMK AO2 SLP159 T03220217

2010/08/09 15:53
KAOH 091553Z AUTO 24006KT 9SM CLR 29/20 A3002 RMK AO2 SLP158 T02940200

2010/08/09 15:53
KAPA 091553Z VRB03KT 10SM SCT110 22/12 A3017 RMK AO2 SLP146 T02220117

2010/08/09 15:53
KAPF 091553Z 12006KT 10SM BKN070 31/25 A2994 RMK AO2 LTG DSNT W SLP136 T03110250

2010/08/09 15:53
KARB 091553Z 25006KT 9SM CLR 27/20 A2996 RMK AO2 SLP140 T02670200

2010/08/09 15:53
KASE 091553Z 35006KT 10SM BKN062 17/08 A3029 RMK AO2 SLP147 T01670083

2010/08/09 15:53
KAUG 091553Z AUTO VRB05KT 10SM FEW030 SCT041 26/18 A2994 RMK AO2 SLP136 T02610183

2010/08/09 15:53
KBAF 091553Z 18006KT 10SM SCT090 32/17 A2998 RMK AO2 SLP146 T03170167

2010/08/09 15:53
KBBW 091553Z AUTO 02006KT 10SM CLR 26/21 A2994 RMK AO2 SLP115 T02560211

2010/08/09 15:53
KBCE 091553Z AUTO 00000KT 10SM CLR 17/08 A3029 RMK AO2 SLP155 T01670078

2010/08/09 15:53
KBGM 091553Z VRB05KT 10SM CLR 28/15 A3006 RMK AO2 SLP167 T02780150

2010/08/09 15:53
KBGR 091553Z 27008KT 10SM FEW025 BKN035 26/18 A2992 RMK AO2 SLP129 T02610183

2010/08/09 15:53
KBHK 091553Z AUTO 00000KT 10SM CLR 26/10 A2992 RMK AO2 SLP106 T02560100

2010/08/09 15:53
KBKL 091553Z 29004KT 6SM HZ CLR 29/19 A2998 RMK AO2 SLP147 T02940194

2010/08/09 15:53
KBKV 091553Z AUTO 08008KT 10SM SCT024 31/24 A2995 RMK AO2 SLP139 T03110244

2010/08/09 15:53
KBMG 091553Z 25008KT 10SM CLR 29/21 A3000 RMK AO2 SLP152 T02940211

2010/08/09 15:53
KBOI 091553Z 29005KT 10SM CLR 24/11 A2988 RMK AO2 SLP089 T02390106

2010/08/09 15:53
KBPI 091553Z AUTO 14005KT 10SM CLR 18/06 A3019 RMK AO2 SLP139 T01780061 TSNO

2010/08/09 15:53
KBRL 091553Z AUTO 20009KT 10SM CLR 25/23 A2993 RMK AO2 RAE06 SLP128 P0000 T02500233

2010/08/09 15:53
KBRO 091553Z 20008KT 10SM FEW027 SCT036 BKN060 32/25 A2993 RMK AO2 RAE1457 SLP133 P0000 T03220250

2010/08/09 15:53
KBTM 091553Z AUTO 21003KT 10SM FEW070 OVC090 12/08 A3004 RMK AO2 RAB28E37 SLP137 P0000 T01220078

2010/08/09 15:53
KBUR 091553Z 13003KT 6SM HZ CLR 17/12 A2992 RMK AO2 SLP123 T01670122

2010/08/09 15:53
KBVO 091553Z AUTO 19005KT 10SM CLR 35/23 A2993 RMK AO2 SLP122 T03500233

2010/08/09 15:53
KPBF 091553Z AUTO 00000KT 10SM CLR 33/24 A2997 RMK AO2 SLP145 T03330244

2010/08/09 15:53
KPDK 091553Z 13004KT 10SM CLR 32/20 A3008 RMK AO2 SLP163 T03220200

2010/08/09 15:53
KPDT 091553Z 10SM CLR 19/06 A2988 RMK AO2 SLP101 T01890056 $

2010/08/09 15:53
KPIL 091553Z AUTO 14011KT 10SM FEW028 34/25 A2993 RMK AO2 SLP134 T03440250

2010/08/09 15:53
KPIR 091553Z AUTO 11004KT 10SM CLR 26/21 A2991 RMK AO2 SLP114 T02610206

2010/08/09 15:53
KPKD 091553Z AUTO 26004KT 10SM CLR 28/18 A2993 RMK AO2 SLP127 T02780178

2010/08/09 15:53
KPQL 091553Z 05007KT 10SM CLR 32/24 A2998 RMK AO2 SLP153 T03170244

2010/08/09 15:53
KPRB 091553Z AUTO 00000KT 10SM OVC005 14/12 A2995 RMK AO2 SLP139 T01390117 TSNO $

2010/08/09 15:53
KPSC 091553Z 27003KT 10SM CLR 21/12 A2984 RMK AO2 SLP102 T02060117

2010/08/09 15:55
KPSO 091555Z AUTO 25003KT 10SM OVC065 18/12 A3032 RMK AO2

2010/08/09 15:53
KPSX 091553Z AUTO 23007G18KT 10SM CLR 32/25 A2997 RMK AO2 SLP148 T03220250

2010/08/09 15:53
KPUW 091553Z AUTO 00000KT 10SM CLR 19/08 A2991 RMK AO2 SLP118 T01940078

2010/08/09 15:53
KRAC 091553Z AUTO 19006KT 10SM FEW010 26/23 A2995 RMK AO2 SLP135 T02560228

2010/08/09 15:53
KRBG 091553Z AUTO 36006KT 10SM OVC012 15/12 A2999 RMK AO2 SLP153 T01500117

2010/08/09 15:53
KRDD 091553Z 00000KT 10SM CLR 22/13 A2987 RMK AO2 SLP109 T02220128

2010/08/09 15:53
KUAO 091553Z AUTO VRB03KT 10SM OVC028 15/10 A3001 RMK AO2 SLP160 T01500100

2010/08/09 15:53
KUTS 091553Z AUTO 28007KT 10SM SCT029 BKN033 31/23 A3000 RMK AO2 SLP153 T03060233

2010/08/09 15:53
KVCB 091553Z AUTO 23003KT 10SM CLR 18/12 A2989 RMK AO2 SLP120 T01830122

2010/08/09 15:53
KVPC 091553Z AUTO VRB05KT 9SM CLR 31/24 A3006 RMK AO2 SLP165 T03110239

2010/08/09 15:53
KVPZ 091553Z AUTO 21004KT 6SM HZ FEW090 26/22 A2998 RMK AO2 SLP145 T02610217

2010/08/09 15:53
KVUO 091553Z AUTO 31005KT 10SM OVC029 16/10 A2999 RMK AO2 SLP157 T01560100

2010/08/09 15:53
KWVI 091553Z AUTO 00000KT 10SM OVC006 13/12 A2995 RMK AO2 SLP142 T01330117

2010/08/09 15:53
KXNA 091553Z 20004KT 10SM CLR 32/22 A3001 RMK AO2 SLP144 T03220217

2010/08/09 15:53
KRHI 091553Z AUTO 31006KT 10SM FEW018 28/22 A2994 RMK AO2 SLP129 T02780222

2010/08/09 15:53
KRKP 091553Z AUTO VRB05KT 10SM BKN026 32/25 A2995 RMK AO2 SLP143 T03220250

2010/08/09 15:53
KRNT 091553Z 16007KT 6SM BR OVC012 14/13 A2997 RMK AO2 SLP152 T01440133

2010/08/09 15:53
KRUE 091553Z AUTO 19003KT 10SM CLR 33/24 A2997 RMK AO2 SLP140 T03330244

2010/08/09 15:53
KRWF 091553Z AUTO 01006KT 10SM CLR 29/22 A2991 RMK AO2 SLP120 T02940217

2010/08/09 15:53
KRWI 091553Z AUTO VRB03KT 10SM 32/21 A3005 RMK AO2 SLP173 T03170206

2010/08/09 15:53
KSAF 091553Z 00000KT 10SM CLR 23/13 A3021 RMK AO2 SLP124 T02330128

2010/08/09 15:53
KSBM 091553Z AUTO 27008KT 10SM OVC019 26/22 A2991 RMK AO2 SLP125 T02560217

2010/08/09 15:53
KSDL 091553Z 29003KT 10SM CLR 32/03 A2991 RMK AO2 SLP098 T03220033

2010/08/09 15:53
KSFF 091553Z 00000KT 10SM CLR 21/11 A2988 RMK AO2 SLP104 T02060111

2010/08/09 15:53
KSHN 091553Z AUTO 24007KT 7SM OVC006 14/12 A2996 RMK AO2 SLP147 T01390117

2010/08/09 15:53
KSIY 091553Z AUTO 03006KT 10SM 20/06 A2995 RMK AO2 SLP130 T02000056

2010/08/09 15:53
KSJC 091553Z 12009KT 10SM FEW007 SCT010 BKN013 16/11 A2992 RMK AO2 SLP131 T01560106

2010/08/09 15:53
KSMF 091553Z 18006KT 10SM CLR 16/12 A2988 RMK AO2 SLP116 T01610122

2010/08/09 15:53
KSNS 091553Z 00000KT 10SM OVC011 14/11 A2995 RMK AO2 SLP150 T01390111

2010/08/09 15:53
KSPB 091553Z AUTO 24004KT 10SM OVC023 14/10 A2999 RMK AO2 SLP156 T01440100

2010/08/09 15:53
KSPW 091553Z AUTO 15007KT 10SM OVC013 24/22 A2992 RMK AO2 SLP125 T02440222

2010/08/09 15:53
KSSF 091553Z 17007KT 10SM CLR 31/21 A2998 RMK AO2 SLP138 T03110211

2010/08/09 15:53
KSTP 091553Z 35003KT 10SM CLR 29/22 A2991 RMK AO2 SLP120 T02940222

2010/08/09 15:53
KTCC 091553Z AUTO 19007KT 10SM CLR 28/16 A3002 RMK AO2 SLP099 T02830156

2010/08/09 15:53
KTCL 091553Z 09004KT 9SM CLR 33/23 A3000 RMK AO2 SLP156 T03330233

2010/08/09 15:53
KTIW 091553Z 21004KT 10SM SCT007 OVC012 13/12 A2998 RMK AO2 SLP151 T01330117

2010/08/09 15:53
KSTJ 091553Z 17010KT 10SM CLR 31/23 A2989 RMK AO2 SLP111 T03060233

2010/08/09 15:53
KSTS 091553Z 00000KT 3SM BR OVC003 12/11 A2992 RMK AO2 SLP125 T01220111

2010/08/09 15:53
KLVK 091553Z 29005KT 10SM OVC012 16/12 A2991 RMK AO2 SLP125 T01610122 $

2010/08/09 15:53
KLVM 091553Z AUTO 32006KT 10SM CLR 18/11 A2999 RMK AO2 RAB03E14 SLP124 P0001 T01830106

2010/08/09 15:53
KLVS 091553Z AUTO 33003KT 10SM BKN110 23/11 A3022 RMK AO2 SLP115 T02280106

2010/08/09 15:53
KLWV 091553Z AUTO 19004KT 6SM HZ CLR 32/23 A2997 RMK AO2 SLP143 T03170228

2010/08/09 15:53
KLXT 091553Z AUTO 10004KT 10SM SCT080 31/23 A2995 RMK AO2 SLP127 T03110233

2010/08/09 15:53
KMAE 091553Z AUTO 30007KT 10SM CLR 21/12 A2988 RMK AO2 SLP116 T02060122

2010/08/09 15:53
KMAF 091553Z 17013KT 10SM CLR 30/19 A3001 RMK AO2 SLP114 T03000194

2010/08/09 15:53
KMAI 091553Z AUTO VRB06KT 10SM FEW036 33/23 A2998 RMK AO2 SLP150 T03330228

2010/08/09 15:53
KMBS 091553Z 23008KT 7SM CLR 25/22 A2992 RMK AO2 SLP129 T02500217

2010/08/09 15:53
KMCE 091553Z AUTO 31006KT 10SM CLR 19/12 A2988 RMK AO2 SLP117 T01890122

2010/08/09 15:53
KMCI 091553Z 16006KT 10SM SCT034 SCT250 33/24 A2992 RMK AO2 SLP117 T03280239

2010/08/09 15:53
KMCK 091553Z AUTO 02013KT 10SM CLR 29/22 A2995 RMK AO2 SLP112 T02890217

2010/08/09 15:53
KMCO 091553Z 12006KT 10SM SCT016 BKN045 BKN250 29/24 A2994 RMK AO2 RAE08 SLP138 P0000 T02940244

2010/08/09 15:53
KMCW 091553Z AUTO 22004KT 10SM CLR 27/22 A2995 RMK AO2 SLP130 T02670222

2010/08/09 15:53
KMGW 091553Z 00000KT 10SM CLR 28/16 A3007 RMK AO2 SLP172 T02830161

2010/08/09 15:53
KMGY 091553Z AUTO 19007KT 10SM CLR 29/19 A3003 RMK AO2 SLP160 T02890194

2010/08/09 15:53
KMHT 091553Z 22005KT 10SM FEW050 30/18 A2993 RMK AO2 SLP143 T03000178

2010/08/09 15:53
KMIA 091553Z 17006KT 10SM -RA FEW008 BKN018CB BKN040 OVC130 26/23 A2996 RMK AO2 SLP147 CB SE-SW-NW MOV NW P0037 T02610233

2010/08/09 15:53
KMIE 091553Z 23003KT 9SM CLR 29/21 A3001 RMK AO2 SLP150 T02890206

2010/08/09 15:53
KMKO 091553Z AUTO 21008KT 10SM CLR 33/22 A2996 RMK AO2 SLP136 T03330222

2010/08/09 15:53
KMLB 091553Z 09009KT 10SM SCT017 SCT046 29/24 A2995 RMK AO2 SLP140 T02940244

2010/08/09 15:53
KMLC 091553Z AUTO 24012KT 10SM CLR 33/22 A2996 RMK AO2 SLP135 T03330217

2010/08/09 15:53
KMLS 091553Z AUTO 29006KT 10SM CLR 26/10 A2989 RMK AO2 SLP100 T02560100

2010/08/09 15:53
KMLT 091553Z AUTO 00000KT 10SM FEW018 SCT035 23/19 A2991 RMK AO2 SLP133 T02330189

2010/08/09 15:53
KMMK 091553Z AUTO 25005KT CLR 31/19 A2999 RMK AO2 SLP154 T03060194 $

2010/08/09 15:53
KMNN 091553Z AUTO 21005KT 10SM CLR 28/20 A3003 RMK AO2 SLP163 T02780200

2010/08/09 15:53
KMSO 091553Z 18003KT 10SM FEW110 17/09 A2993 RMK AO2 SLP119 T01720094

2010/08/09 15:53
KMSS 091553Z AUTO VRB03KT 10SM SCT019 BKN026 25/21 A2994 RMK AO2 SLP138 T02500206

2010/08/09 15:53
KMTH 091553Z AUTO 20005KT 10SM BKN050 BKN080 26/24 A2997 RMK AO2 RAE1458 SLP148 P0000 T02560239

2010/08/09 15:53
KDKK 091553Z AUTO 25008G16KT 10SM FEW095 29/18 A2999 RMK AO2 SLP149 T02890178

2010/08/09 15:53
KDLN 091553Z AUTO 00000KT 10SM CLR 18/10 A3002 RMK AO2 SLP122 T01830100

2010/08/09 15:53
KDMO 091553Z AUTO 00000KT 10SM CLR 33/24 A2997 RMK AO2 SLP136 T03280244

2010/08/09 15:53
KDRO 091553Z AUTO 00000KT 10SM CLR 21/12 A3025 RMK AO2 SLP154 T02110117

2010/08/09 15:53
KDTN 091553Z 23003KT 10SM CLR 32/23 A2998 RMK AO2 SLP148 T03170233

2010/08/09 15:53
KDTO 091553Z 21006KT 10SM CLR 33/22 A2994 RMK AO2 SLP128 T03330222

2010/08/09 15:53
KDTW 091553Z 25009KT 7SM FEW080 BKN130 BKN220 27/21 A2996 RMK AO2 SLP142 T02670206

2010/08/09 15:53
KDVT 091553Z 00000KT 10SM CLR 32/03 A2989 RMK AO2 SLP095 T03170028

2010/08/09 15:53
KDXR 091553Z 26006KT 8SM FEW050 31/18 A3002 RMK AO2 SLP159 T03060178

2010/08/09 15:53
KECP 091553Z 06008KT 10SM FEW030 32/24 A2997 RMK AO2 SLP157 T03220244

2010/08/09 15:53
KELD 091553Z AUTO 33005KT 10SM CLR 33/24 A2998 RMK AO2 SLP146 T03280244

2010/08/09 15:53
KELM 091553Z 27006KT 10SM CLR 28/17 A3002 RMK AO2 SLP159 T02830167

2010/08/09 15:47
KEMT 091547Z VRB04KT 4SM BR BKN013 A2993

2010/08/09 15:53
KJLN 091553Z 21006KT 10SM CLR 32/23 A2997 RMK AO2 SLP137 T03170233 $

2010/08/09 15:53
KLAN 091553Z 22007KT 10SM -RA FEW011 SCT055 OVC120 23/21 A2996 RMK AO2 SLP140 P0000 T02330211

2010/08/09 15:53
KLBB 091553Z 21010KT 10SM FEW150 SCT200 29/18 A3005 RMK AO2 SLP117 T02940178

2010/08/09 15:53
KLAX 091553Z 28004KT 7SM OVC014 17/13 A2993 RMK AO2 SLP135 T01720128 $

2010/08/09 15:53
KRQE 091553Z AUTO 00000KT 10SM CLR 21/11 A3028 RMK AO2 SLP139 T02110111 TSNO

2010/08/09 15:53
KRIW 091553Z AUTO 11004KT 10SM CLR 22/06 A3008 RMK AO2 SLP115 T02170056

2010/08/09 15:50
KSOW 091550Z AUTO 19003KT 10SM BKN100 20/11 A3028 RMK AO2

2010/08/09 15:53
KLWD 091553Z AUTO 19005KT 10SM CLR 24/23 A2991 RMK AO2 LTG DSNT SW RAB15E31 SLP118 P0001 T02440228

2010/08/09 15:53
KMLU 091553Z 32004KT 10SM CLR 34/25 A2998 RMK AO2 SLP151 T03390250

2010/08/09 15:53
KEMP 091553Z AUTO 20009KT 10SM CLR 33/21 A2992 RMK AO2 SLP117 T03330206

2010/08/09 15:53
KFAT 091553Z 24003KT 10SM CLR 21/13 A2988 RMK AO2 SLP115 T02060128

2010/08/09 15:53
KFNB 091553Z AUTO 14010KT 10SM CLR 31/24 A2987 RMK AO2 SLP101 T03110244

2010/08/09 15:53
KFNT 091553Z 20004KT 8SM -RA CLR 25/21 A2995 RMK AO2 RAB02 SLP136 P0001 T02500211

2010/08/09 15:53
KP92 091553Z AUTO VRB04KT 31/26 A2998 RMK AO2 SLP151 T03110261 PWINO TSNO

2010/08/09 15:54
PHOG 091554Z 05011KT 10SM CLR 24/17 A3007 RMK AO2 SLP187 T02390172

2010/08/09 15:53
PABE 091553Z 16013KT 10SM -RA BKN022 OVC030 10/09 A2934 RMK AO2 RAE20B38 SLP937 P0000 T01000089

2010/08/09 15:53
PABT 091553Z 00000KT 10SM -RA BKN045 OVC055 13/09 A2958 RMK AO2 RAB1458E11B34 SLP021 P0000 T01280094

2010/08/09 15:53
PACD 091553Z 24015KT 10SM BKN033 11/08 A2951 RMK AO2 SLP994 T01110078

2010/08/09 15:53
PAFA 091553Z 00000KT 10SM FEW055 BKN075 OVC090 14/11 A2956 RMK AO2 RAE27 SLP011 P0000 T01440106

2010/08/09 15:53
PAHO 091553Z 26003KT 10SM SCT050 BKN200 13/10 A2961 RMK AO2 SLP026 T01330100

2010/08/09 15:53
PAJN 091553Z 07006KT 10SM FEW006 SCT015 OVC030 12/11 A2997 RMK AO2 DZB38E51 SLP147 MTNS MSTLY OBSCD ALQDS THN SPTS IOVC PRESENT WX VCSH NW-N P0000 T01220111

2010/08/09 15:53
PAMC 091553Z 12004KT 4SM -RA BR FEW005 BKN010 OVC018 12/11 A2949 RMK AO2 SLP991 P0001 T01170106

2010/08/09 15:53
PANC 091553Z 33006KT 10SM FEW008 SCT065 BKN090 BKN200 13/12 A2963 RMK AO2 SLP033 T01280117

2010/08/09 15:53
PANN 091553Z AUTO 20003KT 10SM SCT065 15/07 A2955 RMK AO2 SLP010 T01500072 TSNO

2010/08/09 15:53
PANT 091553Z 14004KT 1 1/2SM BR BKN005 OVC008 13/12 A3001 RMK AO2 CIG 002V006 SLP163 P0001 T01330117

2010/08/09 15:53
PAOM 091553Z 12009KT 10SM FEW013 SCT024 OVC031 12/10 A2929 RMK AO2 SLP919 T01220100

2010/08/09 15:53
PAOR 091553Z AUTO VRB03KT 10SM SCT070 OVC095 11/09 A2969 RMK AO2 RAE47 SLP054 P0002 T01060094 TSNO

2010/08/09 15:53
PAOT 091553Z 07013KT 10SM FEW080 SCT110 BKN150 15/10 A2942 RMK AO2 SLP961 T01500100

2010/08/09 15:53
PASN 091553Z 24012KT 9SM OVC003 08/08 A2919 RMK AO2 SLP886 T00830083

2010/08/09 15:53
PATK 091553Z 03004KT 10SM -RA FEW034 OVC060 11/10 A2967 RMK AO2 RAE24B49 SLP050 P0001 T01110100

2010/08/09 15:53
PAYA 091553Z 10003KT 6SM BR FEW007 BKN015 OVC023 13/11 A2993 RMK AO2 RAB37E53 SLP134 BAY TWR WND 120MMKT P0000 T01280111

2010/08/09 15:51
KSAD 091551Z AUTO 00000KT 10SM CLR 28/13 A3001 RMK AO2 SLP109 T02780133 TSNO

2010/08/09 15:54
K1V4 091554Z AUTO 26/17 A2995 RMK AO2 SLP131 T02560172 PWINO TSNO

2010/08/09 15:54
KMQE 091554Z AUTO 23008KT 31/19 A2999 RMK AO1 SLP159 T03060189

2010/08/09 15:54
KCOU 091554Z 00000KT 10SM CLR 31/24 A2998 RMK AO2 SLP140 T03060244

2010/08/09 15:54
KROC 091554Z 22010KT 8SM BKN150 BKN250 27/20 A2997 RMK AO2 SLP146 T02720200

2010/08/09 15:54
KBUF 091554Z 24011KT 10SM BKN070 OVC140 27/19 A2998 RMK AO2 SLP149 T02670189

2010/08/09 15:54
KCOS 091554Z AUTO 27003KT 10SM CLR 22/14 A3020 RMK AO2 SLP149 T02170139 TSNO

2010/08/09 15:54
KCRW 091554Z 29003KT 6SM HZ CLR 28/21 A3006 RMK AO2 SLP168 T02830206

2010/08/09 15:53
KGLR 091553Z AUTO 00000KT 6SM BR FEW010 OVC032 23/21 A2992 RMK AO2 SLP124 T02280211

2010/08/09 15:53
KGMU 091553Z 27005KT 10SM FEW036 31/21 A3010 RMK AO2 SLP178 T03110211

2010/08/09 15:53
KGPT 091553Z AUTO 03009KT 10SM FEW080 34/25 A2997 RMK AO2 SLP148 T03390250

2010/08/09 15:53
KGRB 091553Z 24005KT 10SM CLR 28/22 A2987 RMK AO2 SLP112 T02830222

2010/08/09 15:53
KGRI 091553Z VRB05KT 10SM CLR 27/20 A2991 RMK AO2 SLP109 T02720200

2010/08/09 15:53
KGSH 091553Z AUTO 15008KT 8SM CLR A2999 RMK AO2 LTG DSNT N SLPNO PWINO FZRANO $

2010/08/09 15:53
KGSP 091553Z VRB03KT 10SM CLR 31/22 A3008 RMK AO2 SLP170 T03110217

2010/08/09 15:53
KGUP 091553Z AUTO 00000KT 10SM CLR 21/13 A3026 RMK AO2 SLP102 T02060133

2010/08/09 15:53
KGVL 091553Z AUTO 14003KT 10SM FEW100 30/21 A3012 RMK AO2 SLP181 T03000211

2010/08/09 15:53
KGWO 091553Z AUTO VRB03KT 10SM CLR 34/25 A2998 RMK AO2 SLP148 T03390250

2010/08/09 15:53
KHBG 091553Z AUTO 03004KT 10SM FEW019 32/25 A2999 RMK AO2 SLP152 T03170250 $

2010/08/09 15:53
KHEI 091553Z AUTO 17009KT 10SM CLR 28/18 A2991 RMK AO2 SLP102 T02780183

2010/08/09 15:53
KHGR 091553Z 00000KT 9SM CLR 32/15 A3002 RMK AO2 SLP165 T03220150

2010/08/09 15:53
KHIB 091553Z AUTO 00000KT 10SM BKN003 23/22 A2992 RMK AO2 CIG 002V006 SLP128 T02280217

2010/08/09 15:53
KHIO 091553Z 32006KT 10SM OVC026 14/09 A3000 RMK AO2 SLP157 T01390089

2010/08/09 15:53
KHJO 091553Z AUTO 00000KT 10SM CLR 20/13 A2989 RMK AO2 SLP120 T02000128

2010/08/09 15:53
KHKA 091553Z AUTO 28004KT 6SM HZ CLR 32/25 A2998 RMK AO2 SLP150 T03170250

2010/08/09 15:53
KHKS 091553Z VRB03KT 10SM CLR 32/26 A3000 RMK AO2 SLP149 T03220256

2010/08/09 15:53
KHKY 091553Z VRB04KT 8SM SCT030 BKN065 29/22 A3009 RMK AO2 SLP165 T02940217

2010/08/09 15:53
KHOT 091553Z AUTO VRB03KT 10SM CLR 34/23 A2999 RMK AO2 SLP145 T03390233

2010/08/09 15:53
KHOU 091553Z 22007KT 10SM SCT032 32/23 A2997 RMK AO2 SLP154 T03220233

2010/08/09 15:53
KBTL 091553Z 25004KT 9SM -TSRA BKN060 23/21 A2999 RMK AO2 TSB52RAE09B52 SLP150 P0000 T02330211

2010/08/09 15:53
KBWG 091553Z AUTO VRB05KT 10SM CLR 32/23 A3001 RMK AO2 SLP155 T03220228

2010/08/09 15:53
KCCR 091553Z 23007KT 10SM OVC011 15/11 A2992 RMK AO2 SLP117 T01500111

2010/08/09 15:55
KCDN 091555Z AUTO 10004KT 10SM CLR 33/25 A3005 RMK A02 P000

2010/08/09 15:53
KCHO 091553Z 00000KT 9SM CLR 31/21 A3004 RMK AO2 SLP165 T03110211

2010/08/09 15:55
KCKI 091555Z AUTO 03005KT 10SM CLR 31/21 A3003 RMK AO2

2010/08/09 15:53
KCLM 091553Z AUTO 31007KT 10SM FEW006 14/12 A2997 RMK AO2 SLP148 T01390117

2010/08/09 15:53
KCMI 091553Z 22004KT 9SM CLR 30/23 A2998 RMK AO2 SLP144 T03000233

2010/08/09 15:53
KCMX 091553Z AUTO 28009KT 10SM 25/21 A2989 RMK AO2 SLP116 T02500206 $

2010/08/09 15:53
KCNM 091553Z AUTO 00000KT 10SM CLR 24/19 A3003 RMK AO2 SLP114 T02390194

2010/08/09 15:53
KCOT 091553Z AUTO VRB05KT 10SM CLR 31/22 A2996 RMK AO2 SLP135 T03110222

2010/08/09 15:53
KCSV 091553Z AUTO 22005KT 10SM FEW033 30/21 A3012 RMK AO2 SLP171 T03000211

2010/08/09 15:53
KCXO 091553Z 19003KT 10SM FEW029 SCT035 32/24 A2999 RMK AO2 SLP150 T03170244

2010/08/09 15:51
KDAG 091551Z AUTO 26005KT 10SM CLR 26/M02 A2992 RMK AO2 SLP107 T02561017 TSNO

2010/08/09 15:53
KDCU 091553Z AUTO 00000KT 8SM CLR 33/23 A3002 RMK AO2 SLP157 T03330228

2010/08/09 15:53
KDEW 091553Z AUTO 15006KT 10SM CLR 18/12 A2989 RMK AO2 SLP113 T01830122

2010/08/09 15:53
KDHT 091553Z AUTO 08003KT 10SM CLR 28/16 A3004 RMK AO2 SLP108 T02830161

2010/08/09 15:53
KDLS 091553Z AUTO 32014KT 10SM CLR 21/09 A2987 RMK AO2 SLP113 T02060089

2010/08/09 15:53
KDNL 091553Z AUTO 09005KT 10SM SCT036 32/21 A3005 RMK AO2 SLP170 T03220206 $

2010/08/09 15:53
KDWH 091553Z 31003KT 10SM 31/25 A2998 RMK AO2 SLP151 T03110250

2010/08/09 15:55
KDYB 091555Z AUTO 03006KT 10SM CLR 31/22 A3002 RMK AO1

2010/08/09 15:53
KEET 091553Z AUTO VRB04KT 9SM FEW030 31/23 A3003 RMK AO2 SLP159 T03110233

2010/08/09 15:53
KELN 091553Z AUTO 31021G25KT 10SM CLR 20/10 A2985 RMK AO2 PK WND 31027/1527 SLP099 T02000100

2010/08/09 15:53
KENW 091553Z 19010KT 10SM SCT007 25/22 A2994 RMK AO2 SLP135 T02500222

2010/08/09 15:53
KOFK 091553Z AUTO 00000KT 10SM OVC010 24/21 A2993 RMK AO2 CIG 007V012

2010/08/09 15:54
KDSM 091554Z 16011G18KT 10SM FEW019 SCT130 SCT200 BKN250 28/23 A2989 RMK AO2 SLP112 CB DSNT NE MOV E ACC NE T02830228

2010/08/09 15:55
KDVL 091555Z AUTO 20008KT 10SM CLR 27/18 A2985 RMK AO1

2010/08/09 15:55
KEAR 091555Z AUTO 10007KT 10SM CLR 26/22 A2995 RMK AO1

2010/08/09 15:55
KGPZ 091555Z AUTO 00000KT 10SM CLR 26/21 A2993 RMK AO1

2010/08/09 15:54
KROA 091554Z 18003KT 8SM CLR 29/21 A3009 RMK AO2 SLP176 T02890206

2010/08/09 15:50
EFJO 091550Z 19012KT 160V240 CAVOK 28/14 Q1010

2010/08/09 15:50
EFLP 091550Z 22006KT 180V270 9999 FEW033 SCT050 24/16 Q1012

2010/08/09 15:50
EFMI 091550Z AUTO 20008KT 150V240 9999 FEW042 SCT065 BKN080 24/16 Q1010

2010/08/09 15:50
EFSA 091550Z AUTO 18008KT 130V220 CAVOK 24/16 Q1011

2010/08/09 15:50
EFUT 091550Z AUTO 19009KT 150V220 9999 FEW032 23/16 Q1012

2010/08/09 15:50
EFVR 091550Z AUTO 20007KT 130V270 CAVOK 26/15 Q1010

2010/08/09 15:54
KRSP 091554Z AUTO 33005KT 7SM CLR 28/16 A3009 RMK AO2 SLP176 T02830156 $ 

2010/08/09 15:54
KRIC 091554Z 00000KT 10SM SCT055 SCT250 32/19 A3004 RMK AO2 SLP176 T03220194 

2010/08/09 15:54
KAVP 091554Z AUTO 31007KT 10SM CLR 31/14 A3003 RMK AO2 SLP157 T03060139 TSNO 

2010/08/09 15:54
KDMH 091554Z AUTO 33/21 A3001 RMK AO2 SLP163 T03280211 PWINO TSNO 

2010/08/09 15:50
OAKB 091550Z 13007KT 9999 SCT080 BKN110 25/17 Q1012 NOSIG RMK BLU BLU

2010/08/09 15:50
EDDF 091550Z 20005KT 9999 FEW040 BKN070 23/12 Q1016 NOSIG

2010/08/09 15:50
EDDH 091550Z 32006KT 9999 FEW011 BKN030 BKN130 17/15 Q1016 NOSIG

2010/08/09 15:50
EDDK 091550Z 20006KT 9999 SCT040 SCT280 22/12 Q1016 NOSIG

2010/08/09 15:50
EDDL 091550Z 29001KT 9999 FEW040 BKN280 22/13 Q1016 NOSIG

2010/08/09 15:50
EDDM 091550Z 02004KT CAVOK 23/12 Q1017 NOSIG

2010/08/09 15:50
EDDN 091550Z 29002KT 9999 FEW035 BKN080 22/13 Q1017 NOSIG

2010/08/09 15:50
EDDS 091550Z 36005KT CAVOK 23/11 Q1017 NOSIG

2010/08/09 15:50
EDDW 091550Z 24005KT 9999 FEW030 BKN075 20/12 Q1016 NOSIG

2010/08/09 15:50
EDFE 091550Z 08001KT 9999 FEW040 SCT065 23/13 Q1016

2010/08/09 15:50
EDFM 091550Z VRB03KT 9999 FEW045 SCT070 26/13 Q1016

2010/08/09 15:50
EDHI 091550Z 33005KT 300V010 9999 BKN030 18/16 Q1016

2010/08/09 15:50
EDHL 091550Z 30004KT 270V330 9999 BKN035 17/17 Q1016

2010/08/09 15:50
EDLN 091550Z VRB03KT 9999 SCT046 22/13 Q1016

2010/08/09 15:50
EDLP 091550Z VRB02KT CAVOK 20/11 Q1017

2010/08/09 15:50
EDLW 091550Z 27005KT 230V300 CAVOK 21/13 Q1017

2010/08/09 15:50
EDMA 091550Z 02004KT 330V070 9999 FEW048 23/12 Q1017

2010/08/09 15:50
EDMO 091550Z 35004KT 280V040 CAVOK 23/11 Q1017

2010/08/09 15:50
EDQM 091550Z 30006KT 270V340 9999 SCT035 BKN080 19/11 Q1018

2010/08/09 15:50
EDVE 091550Z 27007KT 230V300 9999 FEW030 BKN080 21/13 Q1016

2010/08/09 15:50
EDNY 091550Z VRB03KT 9999 FEW050 25/12 Q1016

2010/08/09 15:50
EDVK 091550Z 27004KT 140V310 9999 FEW043 BKN070 21/10 Q1017

2010/08/09 15:50
EDXW 091550Z 29008KT CAVOK 18/10 Q1015

2010/08/09 15:50
EKAH 091550Z AUTO 28010KT 9999NDV BKN039/// 18/09 Q1014

2010/08/09 15:50
EKBI 091550Z 27009KT 230V300 9999 FEW025 BKN045 18/11 Q1015

2010/08/09 15:50
EKCH 091550Z 28010KT 240V310 9999 FEW040 SCT250 20/11 Q1014 NOSIG

2010/08/09 15:50
EKEB 091550Z AUTO 26011KT 230V290 9999NDV BKN031/// 18/11 Q1015

2010/08/09 15:50
EKKA 091550Z 28012KT 250V310 9999 FEW031 BKN040 17/10 Q1014

2010/08/09 15:50
EKOD 091550Z 27010KT 9999 SCT048 18/09 Q1014

2010/08/09 15:50
EKRK 091550Z AUTO 28012KT 9999NDV SCT043/// 19/11 Q1014

2010/08/09 15:50
EKRN 091550Z AUTO 27010KT 9999NDV NCD 19/14 Q1015

2010/08/09 15:50
EKSP 091550Z 28008KT 9999 FEW040 SCT220 18/10 Q1015

2010/08/09 15:50
EKVD 091550Z 31008KT 9999 BKN034 18/09 Q1015

2010/08/09 15:51
EKVG 091551Z 12012KT 9999 FEW012 BKN020 13/10 Q1009 RMK/RWY 13-31 CLOSED DUE WIP NOTAM E0050/10 WIND 850FT 13020KT

2010/08/09 15:50
EKYT 091550Z 26014KT 9999 BKN034 18/10 Q1012

2010/08/09 15:50
EETN 091550Z 19010KT 130V220 9999 FEW040 BKN075 22/16 Q1012 NOSIG

2010/08/09 15:50
EFHF 091550Z 19011KT 150V220 9999 SCT031 BKN070 22/17 Q1011

2010/08/09 15:50
EFHK 091550Z 18013KT 9999 FEW030CB SCT070 23/16 Q1011 TEMPO 7000 -SHRA

2010/08/09 15:50
EFJY 091550Z 21012KT 180V250 9999 FEW035TCU SCT045CB BKN090 21/15 Q1009

2010/08/09 15:50
EFKK 091550Z AUTO 35003KT 9999 ////// 20/18 Q1008

2010/08/09 15:50
EFKU 091550Z AUTO 17008KT CAVOK 23/17 Q1009

2010/08/09 15:50
EFMA 091550Z 18009KT 9999 FEW012 BKN055 19/17 Q1007

2010/08/09 15:50
EFOU 091550Z 29007KT 250V320 9999 FEW005 BKN016 20/19 Q1007

2010/08/09 15:50
EFPO 091550Z AUTO VRB02KT 9999 FEW031 SCT046 BKN065 BKN090 20/18 Q1008

2010/08/09 15:50
EFRO 091550Z AUTO 36014KT 9999NDV BKN008 BKN010 14/13 Q1008

2010/08/09 15:50
EFTP 091550Z 19005KT 150V230 9999 BKN030 BKN060 21/16 Q1009

2010/08/09 15:50
EFTU 091550Z AUTO 18005KT 140V220 9999 BKN010 BKN017 OVC022 19/17 Q1008 RESHRA

2010/08/09 15:50
EFVA 091550Z 23003KT 9999 SCT010 SCT019 BKN023 20/18 Q1008

2010/08/09 15:50
ENBO 091550Z 01009KT 340V060 9999 FEW015 FEW040TCU 15/11 Q1011 NOSIG

2010/08/09 15:50
ENBR 091550Z 26003KT 220V030 9999 FEW009 BKN013 14/11 Q1011 BECMG FEW010 BKN025

2010/08/09 15:50
ENCN 091550Z 23008KT 200V270 9999 FEW045 22/14 Q1009

2010/08/09 15:50
ENHD 091550Z 26005KT 9999 FEW020 BKN040 16/11 Q1012

2010/08/09 15:50
ENKR 091550Z 05010KT 9999 -RA OVC005 10/09 Q1015

2010/08/09 15:50
ENSB 091550Z 24013KT 9999 FEW012 SCT030 BKN120 10/03 Q1002

2010/08/09 15:50
ENTC 091550Z 01015KT 9999 FEW018 SCT030 11/08 Q1014 NOSIG

2010/08/09 15:50
ENVA 091550Z 25008KT 9999 FEW030TCU 18/14 Q1009 NOSIG

2010/08/09 15:50
ENZV 091550Z 30005KT 260V330 9999 FEW017 BKN034 16/10 Q1012 NOSIG

2010/08/09 15:50
EVRA 091550Z 19007KT 160V230 9999 BKN044 BKN070 23/15 Q1014 NOSIG

2010/08/09 15:50
EYVI 091550Z VRB02KT 9999 SCT040CB OVC110 19/16 Q1017 NOSIG

2010/08/09 15:50
LXGB 091550Z 08007KT CAVOK 26/21 Q1014 NOSIG

2010/08/09 15:49
MMCZ 091549Z 17006KT 8SM SCT015TCU SCT250 29/24 A2996 RMK 8/206

2010/08/09 15:47
MMMD 091547Z 15008KT 7SM SCT020 SCT300 32/26 A2992 RMK 8/101

2010/08/09 15:53
MMTP 091553Z 12007KT 10SM SCT015 BKN250 30/24 A2990 RMK 8/106

2010/08/09 15:50
ENAL 091550Z 06006KT 9999 SCT013 BKN021 15/13 Q1010

2010/08/09 15:50
ENAN 091550Z 03019KT 9999 FEW012 BKN025 11/09 Q1014 NOSIG

2010/08/09 15:50
ENAT 091550Z 30009KT 9999 FEW025 BKN045 14/10 Q1015

2010/08/09 15:50
ENBL 091550Z 28006KT 9999 SCT010 BKN017 15/12 Q1010

2010/08/09 15:50
ENBN 091550Z 34003KT 9999 BKN011 14/11 Q1011

2010/08/09 15:50
ENDU 091550Z 36006KT 320V040 9999 FEW025 SCT035 16/10 Q1013

2010/08/09 15:50
ENEV 091550Z 35010KT 320V030 9999 FEW030 14/09 Q1012

2010/08/09 15:50
ENFG 091550Z 25004KT 9999 FEW020TCU SCT030 BKN090 19/09 Q1010

2010/08/09 15:50
ENFL 091550Z 24004KT 9999 FEW006 SCT011 BKN025 15/13 Q1010

2010/08/09 15:50
ENGC 091550Z 23007KT 180V250 9999 FEW020 BKN035 13/11 Q1010

2010/08/09 15:50
ENHF 091550Z 03011KT 9999 BKN022 10/06 Q1016

2010/08/09 15:50
ENHV 091550Z 02008KT 9999 BKN018 10/07 Q1016

2010/08/09 15:50
ENKB 091550Z 01010KT 9999 FEW017 16/13 Q1009

2010/08/09 15:50
ENMH 091550Z 08007KT 9999 BKN011 09/07 Q1017

2010/08/09 15:45
MMCE 091545Z 10010KT 7SM SCT010 SCT200 29/26 A2989 RMK 8/105

2010/08/09 15:50
MMMT 091550Z 24008KT 12SM BKN012 BKN200 30/25 A2987 RMK 8/101

2010/08/09 15:50
ENML 091550Z 24008KT 9999 FEW015 21/14 Q1009

2010/08/09 15:50
ENMS 091550Z 33009KT 9999 FEW040TCU 19/13 Q1009

2010/08/09 15:50
ENNA 091550Z 35012KT 9999 SCT012 BKN020 11/08 Q1016

2010/08/09 15:50
ENNK 091550Z 24010KT 9999 FEW080 19/13 Q1012

2010/08/09 15:50
ENNM 091550Z 36007KT CAVOK 17/11 Q1010

2010/08/09 15:50
ENNO 091550Z 15004KT 110V200 9999 SCT050 24/14 Q1007

2010/08/09 15:50
ENOA 091550Z 17005KT 9999 BKN040 15/10 Q1011

2010/08/09 15:50
ENOL 091550Z 35009KT 9999 FEW014 16/13 Q1009 NOSIG

2010/08/09 15:50
ENOV 091550Z VRB04KT 9999 FEW015 BKN019 16/13 Q1010

2010/08/09 15:50
ENRA 091550Z 35006KT 9999 FEW040 21/13 Q1009

2010/08/09 15:50
ENRM 091550Z 01006KT 330V060 9999 BKN010 13/11 Q1011

2010/08/09 15:50
ENRS 091550Z 01018KT CAVOK 12/08 Q1013

2010/08/09 15:50
ENRY 091550Z 25006KT 210V280 9999 FEW040TCU BKN120 23/13 Q1008

2010/08/09 15:50
ENSH 091550Z 02014KT 9999 FEW025 14/09 Q1012

2010/08/09 15:50
ENSK 091550Z 05008KT 9999 FEW015 SCT025 14/09 Q1013

2010/08/09 15:50
ENSN 091550Z 17006KT 9999 VCSH SCT035TCU 23/14 Q1008

2010/08/09 15:50
ENSO 091550Z 33002KT 9999 SCT015 BKN020 16/12 Q1011

2010/08/09 15:50
ENSR 091550Z 01007KT 9999 FEW010 SCT015 BKN030 12/08 Q1015

2010/08/09 15:50
ENST 091550Z 36007KT CAVOK 17/12 Q1011

2010/08/09 15:50
ENTO 091550Z 20008KT 160V230 9999 FEW040TCU 22/15 Q1008

2010/08/09 15:50
ENVD 091550Z 06011KT 9999 BKN006 OVC010 11/09 Q1015

2010/08/09 15:50
LSGG 091550Z 24007KT 200V290 9999 FEW060 29/12 Q1015 NOSIG

2010/08/09 15:50
LSGS 091550Z 25015KT 9999 FEW100 27/11 Q1014

2010/08/09 15:50
LSZB 091550Z 31004KT 9999 FEW055 27/13 Q1016 NOSIG

2010/08/09 15:50
LSZG 091550Z VRB02KT 9999 FEW050 26/13 Q1016 NOSIG

2010/08/09 15:50
LSZH 091550Z 35005KT 300V030 9999 FEW048 25/13 Q1016 NOSIG

2010/08/09 15:50
LSZR 091550Z 27003KT 200V330 CAVOK 24/13 Q1016 NOSIG RMK M

2010/08/09 15:50
LSZS 091550Z 23017KT 9999 FEW090 19/10 Q1020

2010/08/09 15:50
EGAA 091550Z 25016KT 9999 -SHRA FEW037 BKN049 16/11 Q1009

2010/08/09 15:50
EGBB 091550Z 20010KT 170V230 9999 SCT029 21/13 Q1012

2010/08/09 15:50
EGCC 091550Z 19012KT 9999 FEW028 BKN035 18/15 Q1010

2010/08/09 15:50
EGFF 091550Z 26011KT 9999 SCT003 BKN010 18/17 Q1013

2010/08/09 15:50
EGGP 091550Z 23013KT 9999 FEW020 21/12 Q1010

2010/08/09 15:50
EGGW 091550Z 24009KT CAVOK 24/10 Q1013

2010/08/09 15:50
EGHD 091550Z 21010KT 0400 FG VV/// 17/17 Q1015

2010/08/09 15:50
EGHH 091550Z 24013KT 9999 BKN018 19/14 Q1015

2010/08/09 15:50
EGHI 091550Z 23013KT 200V260 9999 SCT025 SCT031 19/12 Q1015

2010/08/09 15:50
EGJB 091550Z 24011KT 210V270 9999 BKN036 18/15 Q1017

2010/08/09 15:50
EGJJ 091550Z 26007KT 210V320 9999 FEW015 19/15 Q1017 NOSIG

2010/08/09 15:50
EGKA 091550Z 23018KT 9999 FEW042 19/14 Q1015

2010/08/09 15:50
EGKB 091550Z 22013KT 180V250 9999 FEW045 22/11 Q1014

2010/08/09 15:50
EGKK 091550Z 22012KT CAVOK 22/12 Q1014

2010/08/09 15:50
EGLF 091550Z 23013KT 9999 SCT038 22/14 Q1014

2010/08/09 15:50
EGLL 091550Z 22013KT 190V250 9999 FEW049 24/10 Q1013

2010/08/09 15:50
EGMC 091550Z 20011KT CAVOK 23/11 Q1013

2010/08/09 15:50
EGMD 091550Z 22018KT 9999 FEW020 19/14 Q1015

2010/08/09 15:50
EGAC 091550Z 24011KT 9999 SCT028 18/09 Q1008

2010/08/09 15:50
EGGP 091550Z 23013KT 9999 FEW020 21/12 Q1010

2010/08/09 15:50
EGGW 091550Z 24009KT CAVOK 24/10 Q1013

2010/08/09 15:50
EGHE 091550Z 23015KT 9999 -DZ SCT004 BKN011 18/17 Q1015

2010/08/09 15:50
EGJA 091550Z 24010KT 9999 FEW010 18/14 Q1017

2010/08/09 15:50
EGLC 091550Z 23012KT 190V260 CAVOK 23/08 Q1013

2010/08/09 15:50
EGNT 091550Z 24010KT 190V270 9999 SCT045 21/10 Q1007

2010/08/09 15:50
EGNM 091550Z 24010KT 180V280 9999 -SHRA SCT010 BKN015 17/15 Q1010

2010/08/09 15:50
EGNT 091550Z 24010KT 190V270 9999 SCT045 21/10 Q1007

2010/08/09 15:50
EGNV 091550Z 18011KT 3500 -RA HZ FEW013 BKN017 18/16 Q1009

2010/08/09 15:50
EGNX 091550Z 20016KT 9999 BKN032 21/12 Q1011

2010/08/09 15:50
EGPB 091550Z 10011KT 9999 SCT010 BKN015 15/12 Q1008 TEMPO BKN010

2010/08/09 15:50
EGPD 091550Z 18013KT 9999 SCT021 17/11 Q1006 TEMPO SHRA

2010/08/09 15:50
EGPF 091550Z 25012KT 9999 FEW030 18/10 Q1007

2010/08/09 15:50
EGPH 091550Z 25012KT 9999 FEW010 FEW020TCU 17/13 Q1006

2010/08/09 15:50
EGPK 091550Z 24012KT 9999 SCT020 17/11 Q1008

2010/08/09 15:50
EGTE 091550Z 18010KT 9999 FEW012 BKN017 20/17 Q1014

2010/08/09 15:50
EGTG 091550Z 20011KT 9999 BKN010 18/16 Q1013

2010/08/09 15:50
ESDF 091550Z 26006KT 9999 SCT027 BKN030 18/14 Q1013

2010/08/09 15:50
ESGG 091550Z 25010KT 9999 SCT015 BKN025 17/14 Q1011

2010/08/09 15:50
ESGJ 091550Z 23010KT 9999 FEW018 BKN020 17/14 Q1010

2010/08/09 15:50
ESGP 091550Z 26011KT 9999 BKN019 OVC028 18/14 Q1011

2010/08/09 15:50
ESKN 091550Z 17006KT 150V210 9999 VCSH SCT031CB 21/17 Q1007

2010/08/09 15:50
ESMK 091550Z 29010KT 9999 FEW031 SCT040 19/12 Q1013

2010/08/09 15:50
ESMS 091550Z 26010KT 9999 FEW038 SCT042 BKN048 19/11 Q1014

2010/08/09 15:50
ESMX 091550Z 26007KT 230V290 9999 FEW007 SCT008 BKN011 16/14 Q1012

2010/08/09 15:50
ESNN 091550Z 32005KT 9999 FEW011 BKN020 17/16 Q1007 RERA REDZ

2010/08/09 15:50
ESNO 091550Z 02003KT 320V060 9999 BKN004 17/16 Q1008

2010/08/09 15:50
ESNQ 091550Z 03010KT 9999 FEW025 SCT030 BKN045 15/10 Q1013

2010/08/09 15:50
ESNU 091550Z 03006KT 010V070 9999 FEW010 SCT015 OVC036 18/15 Q1008

2010/08/09 15:50
ESOK 091550Z 32004KT 290V350 9999 FEW007 SCT065 18/16 Q1008

2010/08/09 15:50
ESOW 091550Z 23005KT 9999 DZ FEW015 BKN091 18/17 Q1007

2010/08/09 15:50
ESPA 091550Z 36005KT 330V040 9999 BKN017 17/15 Q1009

2010/08/09 15:50
ESSA 091550Z 22008KT 9999 SCT020 21/17 Q1007 NOSIG

2010/08/09 15:50
ESSB 091550Z 22008KT 9999 FEW026 SCT031 21/17 Q1007

2010/08/09 15:50
ESSD 091550Z 28003KT 9999 FEW015 SCT040 19/16 Q1007

2010/08/09 15:50
ESSP 091550Z 24010KT 9999 -RA FEW012 SCT055CB 19/17 Q1008

2010/08/09 15:50
ESSV 091550Z 22013KT 9999 BKN014 19/16 Q1009

2010/08/09 15:50
EGPF 091550Z 25012KT 9999 FEW030 18/10 Q1007

2010/08/09 15:50
EGSS 091550Z 21013KT CAVOK 24/10 Q1013

2010/08/09 15:50
EGTC 091550Z 21014KT 9999 VCSH FEW048 22/11 Q1012

2010/08/09 15:50
EBAW 091550Z VRB03KT CAVOK 23/09 Q1016 NOSIG

2010/08/09 15:50
EBBR 091550Z VRB02KT CAVOK 22/10 Q1016 NOSIG

2010/08/09 15:50
EBCI 091550Z VRB03KT 9999 FEW040 23/09 Q1016 NOSIG

2010/08/09 15:50
EBLG 091550Z 29005KT 260V330 9999 FEW045 21/09 Q1016 NOSIG

2010/08/09 15:50
EBOS 091550Z 30006KT 260V320 CAVOK 19/15 Q1016 NOSIG

2010/08/09 15:50
EDAC 091550Z 35006KT 310V030 CAVOK 22/14 Q1016

2010/08/09 15:50
EDAH 091550Z 02006KT 350V060 CAVOK 22/14 Q1015

2010/08/09 15:50
EDFH 091550Z 29006KT 260V360 9999 SCT048 21/09 Q1017

2010/08/09 15:50
EDHI 091550Z 33005KT 300V010 9999 BKN030 18/16 Q1016

2010/08/09 15:50
EDHL 091550Z 30004KT 270V330 9999 BKN035 17/17 Q1016

2010/08/09 15:50
EDLN 091550Z VRB03KT 9999 SCT046 22/13 Q1016

2010/08/09 15:50
EDLP 091550Z VRB02KT CAVOK 20/11 Q1017

2010/08/09 15:50
EDLW 091550Z 27005KT 230V300 CAVOK 21/13 Q1017

2010/08/09 15:50
EDMA 091550Z 02004KT 330V070 9999 FEW048 23/12 Q1017

2010/08/09 15:50
EDMO 091550Z 35004KT 280V040 CAVOK 23/11 Q1017

2010/08/09 15:50
EDNY 091550Z VRB03KT 9999 FEW050 25/12 Q1016

2010/08/09 15:50
EDOP 091550Z 28008KT 9999 FEW030 BKN052 21/14 Q1015

2010/08/09 15:50
EDQM 091550Z 30006KT 270V340 9999 SCT035 BKN080 19/11 Q1018

2010/08/09 15:50
EDSB 091550Z 32004KT 270V010 CAVOK 25/13 Q1016

2010/08/09 15:50
EDTL 091550Z 36005KT 310V030 CAVOK 24/12 Q1016

2010/08/09 15:50
EDVE 091550Z 27007KT 230V300 9999 FEW030 BKN080 21/13 Q1016

2010/08/09 15:50
EDVK 091550Z 27004KT 140V310 9999 FEW043 BKN070 21/10 Q1017

2010/08/09 15:50
EDXW 091550Z 29008KT CAVOK 18/10 Q1015

2010/08/09 15:50
EGJJ 091550Z 26007KT 210V320 9999 FEW015 19/15 Q1017 NOSIG

2010/08/09 15:50
EKEB 091550Z AUTO 26011KT 230V290 9999NDV BKN031/// 18/11 Q1015

2010/08/09 15:50
EKOD 091550Z 27010KT 9999 SCT048 18/09 Q1014

2010/08/09 15:50
EKRN 091550Z AUTO 27010KT 9999NDV NCD 19/14 Q1015

2010/08/09 15:50
EKVD 091550Z 31008KT 9999 BKN034 18/09 Q1015

2010/08/09 15:50
EKYT 091550Z 26014KT 9999 BKN034 18/10 Q1012

2010/08/09 15:50
ELLX 091550Z 26005KT 210V300 9999 FEW030 SCT050 22/10 Q1017 NOSIG

2010/08/09 15:48
K4O4 091548Z AUTO 22005KT 10SM CLR 32/22 A2998 RMK AO2

2010/08/09 15:54
KNFG 091554Z 08003KT 7SM SCT017 17/13 A2993 RMK AO2 SLP133 T01720128 $ 

2010/08/09 15:54
KGSO 091554Z 19004KT 9SM FEW045 31/20 A3008 RMK AO2 SLP172 T03110200 

2010/08/09 15:54
KACY 091554Z 23004KT 10SM CLR 31/19 A3004 RMK AO2 SLP171 P0001 T03110189 

2010/08/09 15:54
KBKB 091554Z AUTO VRB04KT 10SM CLR 33/24 A2997 RMK AO2 SLP171 T03280239 $ 

2010/08/09 15:54
KMTP 091554Z AUTO 19007KT 27/21 A3002 RMK AO2 SLP165 T02720211 PWINO TSNO 

2010/08/09 15:54
KNKT 091554Z 14008KT 10SM SCT014 SCT032 BKN043 27/24 A3006 RMK AO2 RAB23E33 SLP174 P0000 T02670239 

2010/08/09 15:54
KNAK 091554Z AUTO 13011KT 6SM HZ CLR 27/23 A3002 RMK AO2 SLP169 T02720233 TSNO 

2010/08/09 15:50
EGBE 091550Z 22015KT 9999 SCT029 SCT032 21/14 Q1012

2010/08/09 15:50
EGBJ 091550Z 21011KT 190V250 9999 BKN018 20/15 Q1012

2010/08/09 15:50
EGCN 091550Z 23008KT 7000 FEW030 BKN042 21/15 Q1011

2010/08/09 15:50
EGSC 091550Z 20011KT 150V260 CAVOK 25/08 Q1012

2010/08/09 15:50
EGSH 091550Z 21013KT 9999 SCT046 24/11 Q1012

2010/08/09 15:50
EGVN 091550Z 23008KT 9999 FEW024 BKN030 BKN090 20/15 Q1013 BECMG BKN020

2010/08/09 15:55
OPSK 091555Z 00000KT 2000 HZ SCT040 SCT100 30/28 Q999 RH 89

2010/08/09 15:50
LOWW 091550Z 36008KT 9999 FEW055 22/14 Q1017 NOSIG

2010/08/09 15:50
LOWL 091550Z 32005KT 9999 FEW048 24/12 Q1017 NOSIG

2010/08/09 15:50
LOWS 091550Z VRB03KT 9999 FEW045 23/09 Q1017 NOSIG

2010/08/09 15:50
LOWI 091550Z 10009KT 050V130 9999 FEW080 24/12 Q1015 NOSIG

2010/08/09 15:50
LOWG 091550Z 17005KT 120V200 9999 FEW040 24/13 Q1017 NOSIG

2010/08/09 15:50
LOWK 091550Z VRB05KT 9999 FEW045 25/14 Q1016 NOSIG

2010/08/09 16:00
OPPS 091600Z NE-06KTS 2000 BR FEW040 BKN100 29/26 Q1002.5

2010/08/09 16:00
OPKC 091600Z 31004KT 6000 FEW020 SCT025 BKN100 27/25 Q1001 NOSIG

2010/08/09 15:50
EBAW 091550Z VRB03KT CAVOK 23/09 Q1016 NOSIG

2010/08/09 15:50
EBBR 091550Z VRB02KT CAVOK 22/10 Q1016 NOSIG

2010/08/09 15:50
EBCI 091550Z VRB03KT 9999 FEW040 23/09 Q1016 NOSIG

2010/08/09 15:50
EBLG 091550Z 29005KT 260V330 9999 FEW045 21/09 Q1016 NOSIG

2010/08/09 15:50
EBOS 091550Z 30006KT 260V320 CAVOK 19/15 Q1016 NOSIG

2010/08/09 15:50
ELLX 091550Z 26005KT 210V300 9999 FEW030 SCT050 22/10 Q1017 NOSIG

2010/08/09 15:50
LOXZ 091550Z 05009KT 30KM FEW035CU 23/15 Q1018 NOSIG RMK FEW

2010/08/09 16:00
GVAC 091600Z 06009KT 9999 SCT014 29/19 Q1013 NOSIG

2010/08/09 16:00
NIUE 091600Z AUTO 17002KT //// ////// 20/// Q1018

2010/08/09 15:50
EBAW 091550Z VRB03KT CAVOK 23/09 Q1016 NOSIG

2010/08/09 15:50
EBBR 091550Z VRB02KT CAVOK 22/10 Q1016 NOSIG

2010/08/09 15:50
EBLG 091550Z 29005KT 260V330 9999 FEW045 21/09 Q1016 NOSIG

2010/08/09 15:50
EBOS 091550Z 30006KT 260V320 CAVOK 19/15 Q1016 NOSIG

2010/08/09 15:50
EDHI 091550Z 33005KT 300V010 9999 BKN030 18/16 Q1016

2010/08/09 15:50
EDOP 091550Z 28008KT 9999 FEW030 BKN052 21/14 Q1015

2010/08/09 15:50
EDVE 091550Z 27007KT 230V300 9999 FEW030 BKN080 21/13 Q1016

2010/08/09 15:50
EGBE 091550Z 22015KT 9999 SCT029 SCT032 21/14 Q1012

2010/08/09 15:50
EGBJ 091550Z 21011KT 190V250 9999 BKN018 20/15 Q1012

2010/08/09 15:50
EGSC 091550Z 20011KT 150V260 CAVOK 25/08 Q1012

2010/08/09 15:50
EGSH 091550Z 21013KT 9999 SCT046 24/11 Q1012

2010/08/09 15:50
EGVN 091550Z 23008KT 9999 FEW024 BKN030 BKN090 20/15 Q1013 BECMG BKN020

2010/08/09 15:50
ELLX 091550Z 26005KT 210V300 9999 FEW030 SCT050 22/10 Q1017 NOSIG

2010/08/09 15:50
ENAL 091550Z 06006KT 9999 SCT013 BKN021 15/13 Q1010

2010/08/09 15:50
ENHD 091550Z 26005KT 9999 FEW020 BKN040 16/11 Q1012

2010/08/09 15:50
ENNO 091550Z 15004KT 110V200 9999 SCT050 24/14 Q1007

2010/08/09 15:50
ENOV 091550Z VRB04KT 9999 FEW015 BKN019 16/13 Q1010

2010/08/09 15:50
ENRY 091550Z 25006KT 210V280 9999 FEW040TCU BKN120 23/13 Q1008

2010/08/09 15:50
ENSB 091550Z 24013KT 9999 FEW012 SCT030 BKN120 10/03 Q1002

2010/08/09 15:50
ENSR 091550Z 01007KT 9999 FEW010 SCT015 BKN030 12/08 Q1015

2010/08/09 15:50
ENSS 091550Z 04011KT 1000 FG VV002 09/08 Q1016

2010/08/09 15:50
ENTC 091550Z 01015KT 9999 FEW018 SCT030 11/08 Q1014 NOSIG

2010/08/09 15:50
ENTO 091550Z 20008KT 160V230 9999 FEW040TCU 22/15 Q1008

2010/08/09 15:50
LOWG 091550Z 17005KT 120V200 9999 FEW040 24/13 Q1017 NOSIG

2010/08/09 15:50
LOWI 091550Z 10009KT 050V130 9999 FEW080 24/12 Q1015 NOSIG

2010/08/09 15:50
LOWK 091550Z VRB05KT 9999 FEW045 25/14 Q1016 NOSIG

2010/08/09 15:50
LOWL 091550Z 32005KT 9999 FEW048 24/12 Q1017 NOSIG

2010/08/09 15:50
LOWS 091550Z VRB03KT 9999 FEW045 23/09 Q1017 NOSIG

2010/08/09 15:50
LOWW 091550Z 36008KT 9999 FEW055 22/14 Q1017 NOSIG

2010/08/09 15:54
KCAR 091554Z AUTO 24006KT 10SM SCT017 OVC023 21/17 A2988 RMK AO2 SLP119 T02110172 

2010/08/09 15:50
HLLM 091550Z 01009KT 8000 FEW020 28/18 Q1016 

2010/08/09 15:45
MMCE 091545Z 10010KT 7SM SCT010 SCT200 29/26 A2989 RMK 8/105

2010/08/09 15:49
MMCZ 091549Z 17006KT 8SM SCT015TCU SCT250 29/24 A2996 RMK 8/206

2010/08/09 15:45
MMDO 091545Z 00000KT 14SM BKN080 OVC200 21/17 A3022 RMK 8/057 HZY

2010/08/09 15:45
MMEP 091545Z 00000KT 12SM BKN120 OVC250 24/17 A3010 RMK 8/077

2010/08/09 15:48
MMGL 091548Z 04003KT 6SM BKN020TCU BKN300 22/18 A3018 RMK 8/208 SC-AC

2010/08/09 15:50
MMIA 091550Z 00000KT 8SM SCT220 25/20 A2997 RMK 8/004

2010/08/09 15:47
MMMD 091547Z 15008KT 7SM SCT020 SCT300 32/26 A2992 RMK 8/101

2010/08/09 15:50
MMMT 091550Z 24008KT 12SM BKN012 BKN200 30/25 A2987 RMK 8/101

2010/08/09 15:45
MMMZ 091545Z 06004KT 15SM FEW025 BKN080 OVC220 26/22 A2985 RMK 8/463 DSNT CB NW

2010/08/09 15:53
MMOX 091553Z 21003KT 7SM SCT020 SCT100 BKN200 22/18 A3016 RMK 8/138

2010/08/09 15:50
MMSD 091550Z 01003KT 12SM SKC 34/17 A2985 RMK CI

2010/08/09 15:46
MMSP 091546Z 00000KT 12SM SCT020 24/15 A3027 RMK 8/100 AC

2010/08/09 15:45
MMTJ 091545Z 12005KT 5SM BKN016 16/13 A2995 RMK 8/500 HZY

2010/08/09 15:53
MMTP 091553Z 12007KT 10SM SCT015 BKN250 30/24 A2990 RMK 8/106

2010/08/09 16:00
MPTO 091600Z 00000KT 9999 FEW009 SCT016 BKN080 28/24 Q1013 NOSIG RWY DAMP REDZ

2010/08/09 15:55
MSSS 091555Z 34003KT 9999 FEW020 BKN300 26/23 Q1016

2010/08/09 15:55
PGUA 091555Z AUTO 15004KT 10SM BKN075 24/24 A2991 RMK AO2 CLDS LWR RWY24L SLP111 T02440244 VISNO RWY24L $

2010/08/09 15:53
PHJR 091553Z AUTO VRB05KT 10SM FEW037 BKN047 25/17 A3008 RMK AO2 SLP191 T02500172 TSNO

2010/08/09 15:55
KBAD 091555Z AUTO 00000KT 10SM CLR 33/24 A2998 RMK AO2 SLP153 T03290237

2010/08/09 15:55
KBKF 091555Z 25007KT 70SM FEW080 SCT140 23/13 A3015 RMK SLP145

2010/08/09 15:55
KCBM 091555Z AUTO 26003KT 10SM CLR 33/25 A2999 RMK AO2 SLP155 T03300252 $

2010/08/09 15:55
KDAA 091555Z AUTO VRB05KT 10SM CLR 32/21 A3003 RMK AO2 SLP171 T03200207

2010/08/09 15:53
KDTS 091553Z AUTO 09009KT 10SM CLR 32/25 A2997 RMK AO2 SLP147 T03170250

2010/08/09 15:55
KDYS 091555Z AUTO 19008KT 10SM SCT080 32/22 A2999 RMK AO2 SLP127 T03180221 $

2010/08/09 15:55
KGSB 091555Z AUTO VRB06KT 10SM FEW032 31/22 A3003 RMK AO2 SLP169

2010/08/09 15:55
KLSF 091555Z AUTO 07004KT 10SM FEW037 32/24 A3001 RMK AO2 SLP162 T03240235 PNO $

2010/08/09 15:55
KMGE 091555Z 08003KT 10SM SCT035 BKN150 31/22 A3008 RMK AO2A SLP174 T03130220 $

2010/08/09 15:55
KMUI 091555Z AUTO VRB03KT 10SM CLR 29/21 A3002 RMK AO2 SLP165 T02920210 $

2010/08/09 15:55
KRIV 091555Z AUTO 00000KT 10SM CLR 19/13 A2993 RMK AO2 SLP132 T01940127

2010/08/09 15:55
KWRI 091555Z AUTO 23007KT 10SM FEW170 31/20 A3000 RMK AO2 SLP160 T03120197 $

2010/08/09 15:50
OAKN 091550Z 26006KT 8000 DU FEW180 36/02 Q1004 BLU NOSIG RMK A2964 DA6700

2010/08/09 15:55
PGUA 091555Z AUTO 15004KT 10SM BKN075 24/24 A2991 RMK AO2 CLDS LWR RWY24L SLP111 T02440244 VISNO RWY24L $

2010/08/09 15:53
TIST 091553Z 16010G17KT 10SM CLR 30/25 A2999 RMK AO2 RAE1456 SLP155 P0000 T03000250

2010/08/09 15:53
TISX 091553Z 09011KT 6SM -RA BR SCT018 BKN060 26/23 A2999 RMK AO2 SLP153 P0003 T02560233 $

2010/08/09 15:55
KBAD 091555Z AUTO 00000KT 10SM CLR 33/24 A2998 RMK AO2 SLP153 T03290237

2010/08/09 15:55
KBKF 091555Z 25007KT 70SM FEW080 SCT140 23/13 A3015 RMK SLP145

2010/08/09 15:55
KBLV 091555Z AUTO VRB03KT 10SM CLR 31/26 A2996 RMK AO2 SLP140 T03140260

2010/08/09 15:50
KBYH 091550Z 00000KT 8SM BKN250 33/26 A2998

2010/08/09 15:55
KCBM 091555Z AUTO 26003KT 10SM CLR 33/25 A2999 RMK AO2 SLP155 T03300252 $

2010/08/09 15:55
KCEF 091555Z AUTO 20006KT 10SM BKN090 30/19 A2998 RMK AO2 DZB1530E1540 SLP151 P0000 T03020194

2010/08/09 15:55
KDAA 091555Z AUTO VRB05KT 10SM CLR 32/21 A3003 RMK AO2 SLP171 T03200207

2010/08/09 15:55
KGRF 091555Z 17005KT 10SM FEW011 BKN018 OVC045 14/11 A2997 RMK AO2A FEW V SCT SLP151 T01420112

2010/08/09 15:55
KGSB 091555Z AUTO VRB06KT 10SM FEW032 31/22 A3003 RMK AO2 SLP169

2010/08/09 15:55
KHMN 091555Z AUTO 22003KT 10SM CLR 26/15 A3008 RMK AO2 SLP103 T02550148 $

2010/08/09 15:55
KHST 091555Z 13004KT 3SM RA BR BKN012 OVC024 25/24 A2997 RMK AO2A BKN V OVC SLP150 P0015 T02510240

2010/08/09 15:55
KIAB 091555Z AUTO 18006KT 10SM CLR 34/20 A2993 RMK AO2 SLP118 T03400204 $

2010/08/09 15:47
KIWA 091547Z 17005KT 45SM SCT120 32/12 A2991

2010/08/09 15:55
KLRF 091555Z AUTO 00000KT 10SM CLR 33/25 A2997 RMK AO2 SLP148 T03270253

2010/08/09 15:55
KLSF 091555Z AUTO 07004KT 10SM FEW037 32/24 A3001 RMK AO2 SLP162 T03240235 PNO $

2010/08/09 15:55
KMGE 091555Z 08003KT 10SM SCT035 BKN150 31/22 A3008 RMK AO2A SLP174 T03130220 $

2010/08/09 15:55
KMUI 091555Z AUTO VRB03KT 10SM CLR 29/21 A3002 RMK AO2 SLP165 T02920210 $

2010/08/09 15:54
K12N 091554Z AUTO 23004KT 30/19 A3003 RMK AO2 SLP158 T03000194 PWINO TSNO 

2010/08/09 15:53
KOFK 091553Z AUTO 00000KT 10SM OVC010 24/21 A2993

2010/08/09 15:50
EBCI 091550Z VRB03KT 9999 FEW040 23/09 Q1016 NOSIG

2010/08/09 15:55
EGUL 091555Z AUTO 21011KT 9999 CLR 25/09 A2987 RMK AO2 SLP117 T02480091

2010/08/09 15:55
EHEH 091555Z AUTO 24004KT 9999NDV FEW072 23/12 Q1016 BLU BLU NOSIG

2010/08/09 15:50
ENAN 091550Z 03019KT 9999 FEW012 BKN025 11/09 Q1014 NOSIG

2010/08/09 15:50
ENAT 091550Z 30009KT 9999 FEW025 BKN045 14/10 Q1015

2010/08/09 15:50
ENBL 091550Z 28006KT 9999 SCT010 BKN017 15/12 Q1010

2010/08/09 15:50
ENBN 091550Z 34003KT 9999 BKN011 14/11 Q1011

2010/08/09 15:50
ENBO 091550Z 01009KT 340V060 9999 FEW015 FEW040TCU 15/11 Q1011 NOSIG

2010/08/09 15:50
ENBR 091550Z 26003KT 220V030 9999 FEW009 BKN013 14/11 Q1011 BECMG FEW010 BKN025

2010/08/09 15:50
ENCN 091550Z 23008KT 200V270 9999 FEW045 22/14 Q1009

2010/08/09 15:50
ENDU 091550Z 36006KT 320V040 9999 FEW025 SCT035 16/10 Q1013

2010/08/09 15:50
ENEV 091550Z 35010KT 320V030 9999 FEW030 14/09 Q1012

2010/08/09 15:50
ENFL 091550Z 24004KT 9999 FEW006 SCT011 BKN025 15/13 Q1010

2010/08/09 15:50
ENKB 091550Z 01010KT 9999 FEW017 16/13 Q1009

2010/08/09 15:50
ENKR 091550Z 05010KT 9999 -RA OVC005 10/09 Q1015

2010/08/09 15:50
ENMH 091550Z 08007KT 9999 BKN011 09/07 Q1017

2010/08/09 15:50
ENML 091550Z 24008KT 9999 FEW015 21/14 Q1009

2010/08/09 15:50
ENNA 091550Z 35012KT 9999 SCT012 BKN020 11/08 Q1016

2010/08/09 15:50
ENNM 091550Z 36007KT CAVOK 17/11 Q1010

2010/08/09 15:50
ENOL 091550Z 35009KT 9999 FEW014 16/13 Q1009 NOSIG

2010/08/09 15:50
ENSH 091550Z 02014KT 9999 FEW025 14/09 Q1012

2010/08/09 15:50
ENSN 091550Z 17006KT 9999 VCSH SCT035TCU 23/14 Q1008

2010/08/09 15:50
ENVA 091550Z 25008KT 9999 FEW030TCU 18/14 Q1009 NOSIG

2010/08/09 15:50
ENZV 091550Z 30005KT 260V330 9999 FEW017 BKN034 16/10 Q1012 NOSIG

2010/08/09 15:55
ETEB 091555Z AUTO VRB04KT 9999 BKN041 BKN050 22/13 A3006 RMK AO2 SLP167 T02160126

2010/08/09 15:54
KFWA 091554Z 28004KT 9SM FEW150 BKN250 28/21 A3001 RMK AO2 SLP155 T02830211 

2010/08/09 15:55
ETAD 091555Z AUTO 23008KT 9999 SCT060 23/09 A3003 RMK AO2 SLP163 T02270086 $

2010/08/09 15:55
KAFF 091555Z AUTO 00000KT 10SM CLR 20/12 A3022 RMK AO2 SLP137 T01980122

2010/08/09 15:55
KDOV 091555Z AUTO 21003KT 10SM CLR 30/23 A3003 RMK AO2 RAB1521E1531 SLP171 P0000 T03010231

2010/08/09 15:55
KFAF 091555Z AUTO 25004KT 10SM CLR 29/29 A3005 RMK AO2 SLP176 T02910288 $

2010/08/09 15:55
KFFO 091555Z 22005KT 10SM SCT250 29/20 A3002 RMK AO2A SLP160

2010/08/09 15:55
KFHU 091555Z VRB04KT 50SM FEW050 25/17 A3013 RMK SLP133

2010/08/09 15:55
KGUS 091555Z 20006KT 10SM FEW048 29/23 A2999 RMK AO2A SLP152 T02910227

2010/08/09 15:55
KLHW 091555Z AUTO 05007KT 10SM CLR 32/22 A3000 RMK AO2 SLP159 T03220222

2010/08/09 15:55
KMTC 091555Z 26010KT 7SM SCT055 BKN170 OVC210 28/20 A2995 RMK SLP144

2010/08/09 15:55
KOZR 091555Z AUTO 07011KT 10SM CLR 33/26 A3000 RMK AO2 SLP156 T03270257

2010/08/09 15:55
KTIK 091555Z 20011KT 10SM CLR 32/22 A2994 RMK AO2A SLP120 T03210215

2010/08/09 16:00
MDPC 091600Z 07010KT 9999 SCT025 SCT300 31/25 Q1013 NOSIG

2010/08/09 16:00
MDPP 091600Z 08013KT 9999 SCT022 32/26 Q1016

2010/08/09 16:00
MDSD 091600Z 14006KT 9999 SCT025 SCT300 32/23 Q1014

2010/08/09 16:00
MDST 091600Z 11009KT 9999 BKN022 30/24 Q1015

2010/08/09 15:53
PABI 091553Z 19015G24KT 10SM FEW090 BKN110 BKN180 14/05 A2962 RMK AO2 RAE29 SLP030 P0000 T01390050

2010/08/09 15:53
PASC 091553Z 06021G28KT 3/4SM R05/4000V5500FT BR OVC003 03/03 A2976 RMK AO2 PK WND 06030/1457 SLP078 T00280028

2010/08/09 15:55
RODN 091555Z 17018G26KT 9999 FEW016 BKN022 BKN027 28/26 A2973 RMK AO2A PK WND 17030/1500 RAB1513E1527 CIG 020V025 SLP066 P0000 T02770256

2010/08/09 15:55
KBAD 091555Z AUTO 00000KT 10SM CLR 33/24 A2998 RMK AO2 SLP153 T03290237

2010/08/09 15:53
KBRO 091553Z 20008KT 10SM FEW027 SCT036 BKN060 32/25 A2993 RMK AO2 RAE1457 SLP133 P0000 T03220250

2010/08/09 15:55
KDOV 091555Z AUTO 21003KT 10SM CLR 30/23 A3003 RMK AO2 RAB1521E1531 SLP171 P0000 T03010231

2010/08/09 15:53
KFLL 091553Z 14014KT 10SM SCT023 BKN033 BKN085 29/24 A2995 RMK AO2 SLP140 T02890244

2010/08/09 15:55
KGSB 091555Z AUTO VRB06KT 10SM FEW032 31/22 A3003 RMK AO2 SLP169

2010/08/09 15:55
KHST 091555Z 13004KT 3SM RA BR BKN012 OVC024 25/24 A2997 RMK AO2A BKN V OVC SLP150 P0015 T02510240

2010/08/09 15:51
KJFK 091551Z 20010KT 7SM FEW040 SCT250 28/21 A3002 RMK AO2 SLP167 T02830211

2010/08/09 15:53
KMCO 091553Z 12006KT 10SM SCT016 BKN045 BKN250 29/24 A2994 RMK AO2 RAE08 SLP138 P0000 T02940244

2010/08/09 15:55
KOFF 091555Z AUTO 26006KT 10SM CLR 29/24 A2986 RMK AO2 SLP094 T02850237 $

2010/08/09 15:53
KPBI 091553Z 15008KT 10SM SCT022 SCT055 BKN080 30/24 A2995 RMK AO2 SLP140 CB DSNT ALQDS T02970238

2010/08/09 15:55
KVPS 091555Z 10009KT 10SM FEW030 32/25 A2998 RMK AO2A SLP151 T03180248 $

2010/08/09 15:55
KWRI 091555Z AUTO 23007KT 10SM FEW170 31/20 A3000 RMK AO2 SLP160 T03120197 $

2010/08/09 16:00
MDSD 091600Z 14006KT 9999 SCT025 SCT300 32/23 Q1014

2010/08/09 16:00
MWCR 091600Z 18005KT 9999 FEW018 32/25 Q1015 NOSIG

2010/08/09 16:00
SPIM 091600Z 21004KT 6000 OVC013 16/12 Q1018 NOSIG RMK PP000

2010/08/09 15:53
TIST 091553Z 16010G17KT 10SM CLR 30/25 A2999 RMK AO2 RAE1456 SLP155 P0000 T03000250

2010/08/09 15:53
TISX 091553Z 09011KT 6SM -RA BR SCT018 BKN060 26/23 A2999 RMK AO2 SLP153 P0003 T02560233 $

2010/08/09 15:55
KDRA 091555Z AUTO 00000KT 10SM CLR 26/06 A2999 RMK AO2 SLP111 T02560056 TSNO 

2010/08/09 15:53
KRTN 091553Z AUTO 00000KT 10SM CLR 26/12 A3017 RMK AO2 SLP107 T02610122 TSNO 

2010/08/09 16:00
MYNN 091600Z 17005KT 9999 FEW020 SCT038 BKN080 31/22 A2998

2010/08/09 15:55
KQA4 091555Z AUTO 01015G23KT 7000 HZ CLR 33/M02 A2973 RMK AO2 SLP970 T03301021

2010/08/09 15:55
KQCJ 091555Z AUTO VRB01KT 9SM FEW085 OVC100 18/16 A3015 RMK AO2 SLP117 T01810161

2010/08/09 15:55
KQDD 091555Z AUTO VRB01KT 9000 -SHRA CLR 28/13 A2985 RMK AO2 LTG DSNT SE SLP108

2010/08/09 15:55
KQDX 091555Z AUTO 29005KT 9000 36/M01 A2961 RMK AO2 SLP944 T03641008 $

2010/08/09 15:55
KQGX 091555Z 01009KT 9999 CLR 37/24 A2944 RMK AO2A SLP969 T03700236 $

2010/08/09 15:55
KQHY 091555Z AUTO VRB04KT 12SM CLR 31/24 A3000 RMK AO2 SLP158 T03110243

2010/08/09 15:55
KQMG 091555Z AUTO VRB05KT 10SM CLR 26/14 A3011 RMK AO2 SLP132 T02600137

2010/08/09 15:55
KQRH 091555Z AUTO 00000KT 9999 SCT200 33/24 A2956 RMK AO2 SLP008

2010/08/09 15:55
KQSL 091555Z 32009KT 9999 CLR 43/03 A2956 RMK SLP995 Q1001MB

2010/08/09 15:55
KQSR 091555Z 35003KT 9000 -RA FEW020 BKN040 OVC080 17/15 A3008 RMK AO2A LTG DSNT N SLP099 WND DATA/ALSTG ESTMD

2010/08/09 15:55
KQTX 091555Z 32004KT 9999 FU FEW000 40/M04 A2957 RMK VIS NW 8000 FU FEW000 SLP987

2010/08/09 15:55
KQTZ 091555Z 32005KT 8000 DU HZ CLR 41/06 A2950 RMK SLP985 QNH999MB WND DATA ESTMD ALSTG/SLP ESTMD

2010/08/09 15:55
KQVF 091555Z AUTO 16005KT 10SM BKN070 24/20 A2997 RMK AO2 SLP147 T02440201

2010/08/09 15:54
KRFD 091554Z 22005KT 10SM FEW010 SCT050 BKN150 BKN250 26/21 A2996 RMK AO2 SLP139 T02560206 

2010/08/09 15:54
KMWN 091554Z 28023KT 0SM FG VV000 11/11 RMK 

2010/08/09 16:00
FAVV 091600Z AUTO 22009KT //// // ////// 11/M11 Q1023

2010/08/09 16:00
FAJB 091600Z AUTO 23007G17KT //// // ////// 11/M11 Q1025

2010/08/09 16:00
FAGC 091600Z AUTO 20009KT //// // ////// 12/M12 Q1024

2010/08/09 15:55
EGUN 091555Z AUTO 22015G18KT 9999 CLR 25/09 A2988 RMK AO2 SLP108 T02500093

2010/08/09 15:50
ENBS 091550Z 03011KT 0100 FG +DZ VV001 08/07 Q1016

2010/08/09 15:50
ENFG 091550Z 25004KT 9999 FEW020TCU SCT030 BKN090 19/09 Q1010

2010/08/09 15:50
ENGC 091550Z 23007KT 180V250 9999 FEW020 BKN035 13/11 Q1010

2010/08/09 15:50
ENHE 091550Z 05021KT 9999 OVC016 11/09 Q1013

2010/08/09 15:50
ENHF 091550Z 03011KT 9999 BKN022 10/06 Q1016

2010/08/09 15:50
ENHV 091550Z 02008KT 9999 BKN018 10/07 Q1016

2010/08/09 15:50
ENMS 091550Z 33009KT 9999 FEW040TCU 19/13 Q1009

2010/08/09 15:50
ENNK 091550Z 24010KT 9999 FEW080 19/13 Q1012

2010/08/09 15:50
ENOA 091550Z 17005KT 9999 BKN040 15/10 Q1011

2010/08/09 15:50
ENRA 091550Z 35006KT 9999 FEW040 21/13 Q1009

2010/08/09 15:50
ENRM 091550Z 01006KT 330V060 9999 BKN010 13/11 Q1011

2010/08/09 15:50
ENRS 091550Z 01018KT CAVOK 12/08 Q1013

2010/08/09 15:50
ENSK 091550Z 05008KT 9999 FEW015 SCT025 14/09 Q1013

2010/08/09 15:50
ENSO 091550Z 33002KT 9999 SCT015 BKN020 16/12 Q1011

2010/08/09 15:50
ENST 091550Z 36007KT CAVOK 17/12 Q1011

2010/08/09 15:50
ENVD 091550Z 06011KT 9999 BKN006 OVC010 11/09 Q1015

2010/08/09 15:55
ETAD 091555Z AUTO 23008KT 9999 SCT060 23/09 A3003 RMK AO2 SLP163 T02270086 $

2010/08/09 15:55
ETAR 091555Z AUTO 00000KT 9999 SCT070 23/12 A3002 RMK AO2 SLP162 T02330123 $

2010/08/09 15:55
ETOU 091555Z AUTO 22004KT 9999 SCT075 23/13 A3002 RMK AO2 SLP165 T02300130

2010/08/09 16:00
GVAC 091600Z 06009KT 9999 SCT014 29/19 Q1013 NOSIG

2010/08/09 16:00
LEJR 091600Z 25009KT 210V290 CAVOK 39/10 Q1012

2010/08/09 16:00
LEMO 091600Z 32004KT 270V050 CAVOK 41/15 Q1012 NOSIG

2010/08/09 15:50
LIME 091550Z 17004KT 130V220 9999 FEW040 28/16 Q1015

2010/08/09 15:50
LIRF 091550Z 26011KT CAVOK 27/21 Q1015 NOSIG

2010/08/09 15:50
BGCO 091550Z 01031G46KT 1300SE 9999N BLSA SCT001 11/00 Q1008

2010/08/09 15:55
KADW 091555Z AUTO 25006KT 10SM CLR 31/21 A3004 RMK AO2 SLP172 T03130209 $

2010/08/09 15:55
KBAB 091555Z AUTO 00000KT 10SM CLR 18/12 A2988 RMK AO2 SLP118 T01810124 $

2010/08/09 15:55
KFBG 091555Z 09005KT 7SM FEW030 FEW150 32/21 A3004 RMK AO2A SLP170 WND DATA ESTMD ALSTG/SLP ESTMD

2010/08/09 15:55
KMUO 091555Z AUTO 00000KT 10SM BKN140 OVC170 24/09 A2990 RMK AO2 SLP094 T02370087

2010/08/09 15:52
KNFW 091552Z 18008G14KT 10SM CLR 34/22 A2998 RMK AO2 SLP137 T03390217 $

2010/08/09 15:52
KNHK 091552Z 10008KT 7SM FEW020 SCT250 29/24 A3004 RMK AO2 SLP171 T02940239

2010/08/09 15:53
KNIP 091553Z 05010KT 10SM BKN034TCU 31/24 A2997 RMK AO2 SLP145 TCU E-S T03110244

2010/08/09 15:53
KNQX 091553Z 19007KT 10SM -RA FEW026CB SCT075 BKN100 OVC200 28/24 A2996 RMK AO2 SLP143 CB E MOV SW T1 SET P0002 T02780239 $

2010/08/09 15:52
KNRB 091552Z 05011KT 10SM FEW018 BKN030 BKN065 32/25 A2998 RMK AO2 RAB36E47 SLP151 P0000 T03170250

2010/08/09 15:55
KRND 091555Z AUTO VRB06KT 10SM FEW032 30/22 A2999 RMK AO2 SLP146 T03030219 $

2010/08/09 15:55
KXMR 091555Z AUTO 15008KT 10SM CLR 30/25 A2994 RMK AO2 SLP140 T03040249

2010/08/09 16:00
LEMO 091600Z 32004KT 270V050 CAVOK 41/15 Q1012 NOSIG

2010/08/09 16:00
MROC 091600Z 00000KT 9999 FEW040 BKN120 25/21 A3005 NOSIG

2010/08/09 15:55
PAEI 091555Z AUTO 00000KT 10SM -RA OVC070 12/10 A2958 RMK AO2 RAB1551DZE1457 SLP016 P0000 T01210099 $

2010/08/09 15:55
KADW 091555Z AUTO 25006KT 10SM CLR 31/21 A3004 RMK AO2 SLP172 T03130209 $

2010/08/09 15:55
KAFF 091555Z AUTO 00000KT 10SM CLR 20/12 A3022 RMK AO2 SLP137 T01980122

2010/08/09 15:55
KBAB 091555Z AUTO 00000KT 10SM CLR 18/12 A2988 RMK AO2 SLP118 T01810124 $

2010/08/09 15:55
KDOV 091555Z AUTO 21003KT 10SM CLR 30/23 A3003 RMK AO2 RAB1521E1531 SLP171 P0000 T03010231

2010/08/09 15:55
KDYS 091555Z AUTO 19008KT 10SM SCT080 32/22 A2999 RMK AO2 SLP127 T03180221 $

2010/08/09 15:55
KFAF 091555Z AUTO 25004KT 10SM CLR 29/29 A3005 RMK AO2 SLP176 T02910288 $

2010/08/09 15:55
KFBG 091555Z 09005KT 7SM FEW030 FEW150 32/21 A3004 RMK AO2A SLP170 WND DATA ESTMD ALSTG/SLP ESTMD

2010/08/09 15:55
KFCS 091555Z AUTO 00000KT 10SM FEW130 OVC170 21/14 A3017 RMK AO2 SLP142 T02110140

2010/08/09 15:55
KFFO 091555Z 22005KT 10SM SCT250 29/20 A3002 RMK AO2A SLP160

2010/08/09 15:55
KFHU 091555Z VRB04KT 50SM FEW050 25/17 A3013 RMK SLP133

2010/08/09 15:55
KGUS 091555Z 20006KT 10SM FEW048 29/23 A2999 RMK AO2A SLP152 T02910227

2010/08/09 15:55
KHFF 091555Z AUTO VRB03KT 10SM FEW035 32/21 A3006 RMK AO2 SLP176 T03190214 $

2010/08/09 15:55
KLHW 091555Z AUTO 05007KT 10SM CLR 32/22 A3000 RMK AO2 SLP159 T03220222

2010/08/09 15:55
KMTC 091555Z 26010KT 7SM SCT055 BKN170 OVC210 28/20 A2995 RMK SLP144

2010/08/09 15:55
KMUO 091555Z AUTO 00000KT 10SM BKN140 OVC170 24/09 A2990 RMK AO2 SLP094 T02370087

2010/08/09 15:52
KNFW 091552Z 18008G14KT 10SM CLR 34/22 A2998 RMK AO2 SLP137 T03390217 $

2010/08/09 15:55
KGTB 091555Z AUTO 26008KT 10SM CLR 27/20 A2996 RMK AO2 SLP143 T02660198

2010/08/09 15:52
KNHK 091552Z 10008KT 7SM FEW020 SCT250 29/24 A3004 RMK AO2 SLP171 T02940239

2010/08/09 15:53
KNIP 091553Z 05010KT 10SM BKN034TCU 31/24 A2997 RMK AO2 SLP145 TCU E-S T03110244

2010/08/09 15:53
KNQX 091553Z 19007KT 10SM -RA FEW026CB SCT075 BKN100 OVC200 28/24 A2996 RMK AO2 SLP143 CB E MOV SW T1 SET P0002 T02780239 $

2010/08/09 15:52
KNRB 091552Z 05011KT 10SM FEW018 BKN030 BKN065 32/25 A2998 RMK AO2 RAB36E47 SLP151 P0000 T03170250

2010/08/09 15:56
KNSI 091556Z 34006KT 6SM BR OVC008 14/13 A2993 RMK AO2 SLP131 T014440128 TSNO

2010/08/09 15:55
KOFF 091555Z AUTO 26006KT 10SM CLR 29/24 A2986 RMK AO2 SLP094 T02850237 $

2010/08/09 15:55
KOZR 091555Z AUTO 07011KT 10SM CLR 33/26 A3000 RMK AO2 SLP156 T03270257

2010/08/09 15:55
KRIV 091555Z AUTO 00000KT 10SM CLR 19/13 A2993 RMK AO2 SLP132 T01940127

2010/08/09 15:55
KRND 091555Z AUTO VRB06KT 10SM FEW032 30/22 A2999 RMK AO2 SLP146 T03030219 $

2010/08/09 15:55
KSSC 091555Z 05005KT 10SM CLR 32/23 A3003 RMK AO2A SLP168 T03200230 $

2010/08/09 15:55
KSUU 091555Z AUTO 25018KT 10SM BKN008 16/12 A2988 RMK AO2 SLP120 T01570118 RVRNO $

2010/08/09 15:55
KTIK 091555Z 20011KT 10SM CLR 32/22 A2994 RMK AO2A SLP120 T03210215

2010/08/09 15:55
KVPS 091555Z 10009KT 10SM FEW030 32/25 A2998 RMK AO2A SLP151 T03180248 $

2010/08/09 15:55
KWRI 091555Z AUTO 23007KT 10SM FEW170 31/20 A3000 RMK AO2 SLP160 T03120197 $

2010/08/09 15:56
KCHS 091556Z 05011KT 10SM FEW100 32/23 A3001 RMK AO2 SLP163 T03170228 

2010/08/09 15:55
KHEF 091555Z AUTO 19008KT 10SM 31/22 A3003 RMK AO1

2010/08/09 15:55
KHEZ 091555Z AUTO 33003KT 10SM CLR 32/23 A3000 RMK AO1

2010/08/09 15:55
KHNB 091555Z AUTO 20005KT 10SM CLR 32/22 A3000 RMK AO1

2010/08/09 15:54
KHWD 091554Z 24004KT 10SM OVC012 15/12 A2992 RMK AO2 SLP142 T01500117

2010/08/09 15:55
KHYI 091555Z AUTO 00000KT 10SM SCT031 31/23 A2999 RMK AO1

2010/08/09 15:55
KHYS 091555Z AUTO 06008KT 10SM CLR 33/20 A2992 RMK AO1

2010/08/09 15:55
KHYW 091555Z AUTO 04008KT 7SM CLR 31/25 A3004 RMK AO2

2010/08/09 15:55
KILE 091555Z AUTO 17011KT 10SM CLR 32/22 A2998 RMK AO1

2010/08/09 15:54
KILN 091554Z AUTO 15008KT 9SM CLR 29/20 A3005 RMK AO2 SLP162 T02890200

2010/08/09 15:54
KIMT 091554Z AUTO 35003KT 10SM FEW017 28/22 A2988 RMK AO2 SLP114 T02780222

2010/08/09 15:54
KIND 091554Z 23009KT 10SM SCT160 BKN250 32/21 A2999 RMK AO2 SLP146 T03170206

2010/08/09 15:54
KINT 091554Z 24006KT 10SM CLR 31/19 A3008 RMK AO2 SLP173 T03060194

2010/08/09 15:54
KIPT 091554Z VRB04KT 10SM CLR 27/17 A3002 RMK AO2 SLP164 T02720167

2010/08/09 15:54
KISW 091554Z AUTO 24003KT 8SM OVC004 24/22 A2994 RMK AO2 SLP132 T02390222 TSNO

2010/08/09 15:55
KIWD 091555Z AUTO 28006KT 10SM OVC008 23/21 A2991 RMK AO1

2010/08/09 15:54
KIZG 091554Z AUTO VRB05KT 10SM CLR 29/17 A2993 RMK AO2 SLP134 T02940167

2010/08/09 15:55
KJHW 091555Z AUTO 21006KT 10SM CLR 26/18 A3004 RMK AO1 54000

2010/08/09 15:54
KJST 091554Z AUTO 28005KT 10SM CLR 25/13 A3012 RMK AO2 SLP183 T02500128

2010/08/09 15:55
KKLS 091555Z AUTO 25004KT 10SM OVC025 14/11 A2999 RMK AO1

2010/08/09 15:54
KLAF 091554Z 23004KT 8SM CLR 31/23 A2998 RMK AO2 SLP145 T03060228

2010/08/09 15:55
KLBL 091555Z 21005KT 10SM CLR 31/17 A2997 RMK AO1

2010/08/09 15:54
KLBT 091554Z AUTO 07007KT 10SM CLR 32/21 A3004 RMK AO2 SLP170 T03170211

2010/08/09 15:55
KLCI 091555Z AUTO 29008KT 10SM FEW047 29/17 A2994 RMK AO1

2010/08/09 15:55
KLEW 091555Z 26006KT 10SM FEW042 SCT048 27/17 A2995 RMK AO1

2010/08/09 15:54
KLEX 091554Z VRB05KT 10SM CLR 32/18 A3004 RMK AO2 SLP160 T03170183

2010/08/09 15:55
KLGD 091555Z AUTO 00000KT 10SM OVC110 16/06 A2990 RMK AO1

2010/08/09 15:54
KLNK 091554Z 35005KT 10SM CLR 31/23 A2987 RMK AO2 SLP099 T03060228

2010/08/09 15:55
KLPC 091555Z AUTO 00000KT 10SM OVC007 14/12 A2995 RMK AO1 PNO

2010/08/09 15:54
KLWM 091554Z 24009KT 10SM CLR 31/18 A2996 RMK AO2 SLP145 T03110178

2010/08/09 15:54
KLWT 091554Z AUTO 15003KT 10SM CLR 19/10 A2996 RMK AO2 SLP114 T01940100

2010/08/09 15:54
KLYH 091554Z AUTO 20005KT 10SM FEW031 29/22 A3008 RMK AO2 SLP175 T02940217 TSNO

2010/08/09 15:55
KMBL 091555Z AUTO 27013G18KT 10SM FEW120 27/19 A2989 RMK AO1

2010/08/09 15:54
KMFI 091554Z AUTO 33007KT 5SM BR OVC005 25/23 A2993 RMK AO2 CIG 005V009 SLP129 T02500233

2010/08/09 15:54
KMGJ 091554Z AUTO 26003KT 10SM CLR 31/17 A3000 RMK AO2 SLP157 T03060172

2010/08/09 15:54
KMIV 091554Z AUTO 18003KT 10SM 32/21 A3002 RMK AO2 SLP163 T03170206 PWINO $

2010/08/09 15:55
KMJX 091555Z AUTO 28006KT 10SM FEW047 33/20 RMK AO1

2010/08/09 15:54
KMKC 091554Z 12007KT 10SM CLR 32/23 A2990 RMK AO2 SLP115 T03220233

2010/08/09 15:55
KMKT 091555Z AUTO 00000KT 10SM BKN120 27/23 A2992 RMK AO1

2010/08/09 15:55
KMML 091555Z AUTO 03005KT 10SM CLR 27/22 A2993 RMK AO1

2010/08/09 15:55
KMNI 091555Z AUTO 36008KT 10SM CLR 31/26 A3003 RMK AO2

2010/08/09 15:55
KMNM 091555Z AUTO 33004KT 8SM SCT021 BKN037 28/23 A2986 RMK AO1

2010/08/09 15:54
KMOT 091554Z 18009KT 10SM CLR 26/18 A2984 RMK AO2 SLP094 T02610178

2010/08/09 15:55
KMRF 091555Z AUTO 13005KT 10SM CLR A3015 RMK AO1

2010/08/09 15:54
KMRY 091554Z 19003KT 10SM OVC007 13/11 A2996 RMK AO2 SLP156 T01280106

2010/08/09 15:55
KMSV 091555Z AUTO 31008KT 10SM CLR 28/16 A3006 RMK AO1

2010/08/09 15:55
KMTW 091555Z 24008KT 10SM CLR 27/21 A2989 RMK AO1

2010/08/09 15:54
KMVL 091554Z AUTO 00000KT 10SM FEW041 BKN050 OVC060 26/19 A2997 RMK AO2 SLP146 T02610189

2010/08/09 15:55
KMVN 091555Z AUTO 21006KT 10SM CLR 33/24 A2997 RMK AO1

2010/08/09 15:54
KOFP 091554Z AUTO 00000KT 10SM CLR 33/19 A3006 RMK AO2 SLP175 T03280189

2010/08/09 15:55
KOKK 091555Z AUTO 20006KT 8SM SCT046 30/21 A2999 RMK AO1 52003

2010/08/09 15:54
KOLM 091554Z 22005KT 10SM SCT009 BKN014 OVC030 14/12 A2998 RMK AO2 SLP153 T01390117

2010/08/09 15:54
KOLS 091554Z AUTO 00000KT 10SM CLR 26/17 A3008 RMK AO2 SLP117 T02560172

2010/08/09 15:55
KVBT 091555Z AUTO 22007KT 10SM CLR 33/22 A2999 RMK AO1

2010/08/09 15:55
KVIS 091555Z AUTO 18003KT 10SM CLR 19/14 A2989 RMK AO1

2010/08/09 15:54
KVSF 091554Z AUTO 22005KT 10SM SCT048 BKN060 BKN075 28/17 A2997 RMK AO2 SLP146 T02780172

2010/08/09 15:54
KVTA 091554Z AUTO 21005KT 10SM CLR 28/18 A3002 RMK AO2 SLP160 T02830183

2010/08/09 15:54
KWLD 091554Z AUTO 20008KT 10SM CLR 33/22 A2994 RMK AO2 SLP122 T03280222

2010/08/09 15:55
KWVL 091555Z AUTO 28007KT 10SM SCT029 BKN038 25/19 A2990 RMK AO1

2010/08/09 15:55
KX40 091555Z AUTO 06007KT 10SM SCT024 SCT030 SCT038 32/25 A2995 RMK AO2 T03240251

2010/08/09 15:55
KYKN 091555Z AUTO 12005KT 10SM BKN012 24/22 A2991 RMK AO1

2010/08/09 15:45
KCGF 091545Z 24008KT 10SM BKN150 32/18 A3001

2010/08/09 15:53
KEGE 091553Z 25006KT 10SM OVC090 17/08 A3026

2010/08/09 15:51
KESN 091551Z 00000KT 6SM HZ SCT040 31/24 A3007

2010/08/09 15:50
KHSA 091550Z 02006KT 10SM SCT050 BKN070 32/26 A2997

2010/08/09 15:55
KISO 091555Z 02006KT 7SM CLR 31/22 A3005

2010/08/09 15:54
KMHV 091554Z VRB03KT 40SM SKC 23/03 A2996

2010/08/09 15:50
KOCF 091550Z 03006KT 10SM BKN033 31/26 A2995

2010/08/09 15:47
KPAO 091547Z VRB05KT 25SM OVC014 A2992

2010/08/09 15:50
KRHV 091550Z 10009KT 10SM SCT015 17/12 A2992

2010/08/09 15:53
KSBD 091553Z 00000KT 7SM SKC 17/11 A2993

2010/08/09 15:54
KONZ 091554Z AUTO 24006KT 7SM CLR 28/21 A2996 RMK AO2

2010/08/09 15:53
KTEW 091553Z AUTO 26004KT 10SM CLR 23/20 A2996 RMK AO2

2010/08/09 15:50
KCVH 091550Z AUTO 00000KT 10SM OVC009 14/12 A2995 RMK AO1

2010/08/09 15:56
KDVP 091556Z AUTO 14004KT 10SM CLR 28/21 A2996 RMK AO2 T02800206

2010/08/09 15:54
KDYT 091554Z AUTO 08005KT 10SM SCT006 22/19 A2991 RMK AO2

2010/08/09 15:59
KFSO 091559Z AUTO 23003KT 10SM SCT050 BKN055 OVC065 24/21 A2994 RMK AO2

2010/08/09 15:54
KFBL 091554Z AUTO 34003KT 10SM CLR 28/23 A2993 RMK AO2

2010/08/09 15:58
KLYV 091558Z AUTO 00000KT 10SM SCT014 26/21 A2992 RMK AO2

2010/08/09 15:55
KEFK 091555Z AUTO 25004KT 10SM BKN034 BKN039 OVC060 22/17 A2997 RMK AO2

2010/08/09 15:54
KRRT 091554Z AUTO 09004KT 10SM CLR 24/20 A2988 RMK AO2 TSNO

2010/08/09 15:54
KTOB 091554Z AUTO 24006KT 10SM SCT017 27/23 A2994 RMK AO2

2010/08/09 15:53
KLXL 091553Z AUTO 00000KT 10SM CLR 27/18 A2993 RMK AO2

2010/08/09 15:52
KEVM 091552Z AUTO 00000KT 10SM SCT004 22/20 A2990 RMK AO1

2010/08/09 15:53
KELO 091553Z AUTO 00000KT 10SM CLR 24/19 A2991 RMK AO2

2010/08/09 15:54
KROX 091554Z AUTO 11004KT 10SM CLR 28/23 A2986 RMK AO2

2010/08/09 15:54
KSYN 091554Z AUTO 00000KT 10SM CLR 29/23 A2991 RMK AO2 T02850230

2010/08/09 15:56
KVVV 091556Z AUTO 00000KT 10SM CLR 27/21 A2993 RMK AO2

2010/08/09 16:00
KFKA 091600Z AUTO 27005KT 10SM BKN018 BKN110 27/22 A2996 RMK AO2 T02730224

2010/08/09 15:54
KROS 091554Z AUTO 00000KT 10SM OVC003 24/23 A2993 RMK AO2 T02360230

2010/08/09 15:52
KHCD 091552Z AUTO 00000KT 10SM SCT120 27/21 A2993 RMK AO2 T02700207 TSNO

2010/08/09 15:53
KSGS 091553Z AUTO 01003KT 10SM CLR 29/21 A2991 RMK AO2 T02930212

2010/08/09 15:51
KMJQ 091551Z AUTO 17006KT 10SM BKN020 26/22 A2994 RMK AO2

2010/08/09 15:54
KHCO 091554Z AUTO 13006KT 10SM CLR 29/19 A2986 RMK AO2

2010/08/09 15:53
KLVN 091553Z AUTO 00000KT 10SM CLR 28/22 A2992 RMK AO2

2010/08/09 15:53
KPEX 091553Z AUTO 01004KT 10SM CLR 28/21 A2994 RMK AO2 T02790209

2010/08/09 15:55
KJMR 091555Z AUTO 00000KT 10SM OVC004 23/22 A2995 RMK AO2

2010/08/09 15:54
KJKJ 091554Z AUTO 21006KT 10SM CLR 27/21 A2990 RMK AO2

2010/08/09 15:54
KMVE 091554Z AUTO 07003KT 10SM CLR 28/24 A2991 RMK AO2

2010/08/09 15:53
KTKC 091553Z AUTO 03004KT 10SM CLR 26/22 A2992 RMK AO2 T02640221

2010/08/09 15:53
KGYL 091553Z AUTO 00000KT 10SM CLR 27/21 A2992 RMK AO2 T02710210

2010/08/09 15:54
KDXX 091554Z AUTO 00000KT 10SM CLR 27/23 A2991 RMK AO2

2010/08/09 15:51
KHZX 091551Z AUTO 00000KT 10SM CLR 27/21 A2993 RMK AO2

2010/08/09 15:52
KCDD 091552Z AUTO 00000KT 10SM SCT070 26/23 A2992 RMK AO2

2010/08/09 15:54
KSAZ 091554Z AUTO 00000KT 10SM CLR 28/18 A2994 RMK AO2

2010/08/09 15:50
KONA 091550Z AUTO 00000KT 10SM OVC015 26/21 A2991 RMK AO2

2010/08/09 15:53
KFOZ 091553Z AUTO 00000KT 10SM CLR 27/21 A2992 RMK AO2

2010/08/09 15:53
KAQP 091553Z AUTO 00000KT 10SM CLR 27/23 A2992 RMK AO2

2010/08/09 15:54
KETH 091554Z AUTO 00000KT 10SM CLR 28/19 A2995 RMK AO2

2010/08/09 15:53
KOVL 091553Z AUTO 05003KT 10SM CLR 27/20 A2991 RMK AO2 T02670201

2010/08/09 15:52
KLJF 091552Z AUTO 00000KT 10SM CLR 29/24 A2992 RMK AO2

2010/08/09 15:55
KOLU 091555Z AUTO 8SM CLR 28/22 A2991 RMK AO1

2010/08/09 15:54
KORH 091554Z 26010KT 10SM CLR 29/16 A3002 RMK AO2 SLP159 T02890161

2010/08/09 15:55
KOTG 091555Z AUTO 17005KT 10SM OVC015 25/18 A2996 RMK AO1

2010/08/09 15:55
KOTH 091555Z 35010KT 10SM OVC023 13/11 A3004 RMK AO1

2010/08/09 15:45
KOXC 091545Z 23006KT 7SM SCT040 29/19 A3004

2010/08/09 15:54
KPHF 091554Z 07005KT 9SM CLR 31/22 A3005 RMK AO2 SLP175 T03060217

2010/08/09 15:54
KPHL 091554Z 24007KT 7SM FEW038 SCT250 31/21 A3002 RMK AO2 SLP164 T03060211

2010/08/09 15:54
KPIA 091554Z 05003KT 5SM HZ CLR 27/23 A2992 RMK AO2 RAB22E39 SLP126 P0000 T02670228

2010/08/09 15:55
KPIB 091555Z AUTO 06005KT 10SM SCT023 31/24 A3001 RMK AO1

2010/08/09 15:54
KPLN 091554Z AUTO 13006KT 10SM -RA SCT021 BKN065 22/21 A2990 RMK AO2 RAB10 SLP122 P0031 T02170211

2010/08/09 15:54
KPNE 091554Z 26005KT 10SM CLR 32/21 A3003 RMK AO2 SLP167 T03170211

2010/08/09 15:55
KPQI 091555Z AUTO 26007KT 10SM BKN019 OVC023 20/17 A2986 RMK AO1

2010/08/09 15:55
KPRX 091555Z 24011KT 10SM CLR 33/22 A2996 RMK AO1

2010/08/09 15:54
KPSF 091554Z AUTO 30007KT 10SM FEW044 28/17 A3002 RMK AO2 SLP135 T02830172

2010/08/09 15:55
KPTN 091555Z AUTO 34006KT 10SM CLR 32/17 A3001 RMK AO1

2010/08/09 15:55
KPTV 091555Z AUTO 21005KT 10SM CLR 22/12 A2990 RMK AO1

2010/08/09 15:54
KPTW 091554Z AUTO 19007KT 8SM FEW040 32/20 A3003 RMK AO2 SLP165 T03170200

2010/08/09 15:55
KPVC 091555Z 22014G20KT 10SM CLR 27/22 A2999 RMK AO1

2010/08/09 15:55
KPWG 091555Z AUTO 21010KT 10SM CLR 32/22 A2998 RMK AO1

2010/08/09 15:55
KPWT 091555Z AUTO 23005KT 10SM BKN006 OVC019 14/11 A3000 RMK AO1

2010/08/09 15:54
KRBL 091554Z AUTO VRB03KT 10SM CLR 22/13 A2988 RMK AO2 SLP116 T02170128

2010/08/09 15:54
KRDG 091554Z 00000KT 10SM CLR 31/19 A3001 RMK AO2 SLP162 T03060194

2010/08/09 15:55
KRKD 091555Z AUTO 19005KT 9SM BKN010 23/21 A2993 RMK AO1

2010/08/09 15:54
KRKS 091554Z AUTO 00000KT 10SM FEW110 21/04 A3018 RMK AO2 SLP137 T02060039

2010/08/09 15:54
KROC 091554Z 22010KT 8SM BKN150 BKN250 27/20 A2997 RMK AO2 SLP146 T02720200

2010/08/09 15:54
KRST 091554Z 25004KT 10SM OVC016 26/22 A2995 RMK AO2 SLP133 T02610222

2010/08/09 15:55
KRUT 091555Z 23005KT 10SM SCT041 BKN050 BKN070 27/18 A2998 RMK AO1

2010/08/09 15:54
KSBY 091554Z 25004KT 10SM CLR 31/18 A3004 RMK AO2 SLP176 T03060183

2010/08/09 15:55
KSDY 091555Z AUTO 00000KT 10SM CLR 22/16 A2988 RMK AO1

2010/08/09 15:54
KSET 091554Z AUTO 00000KT 8SM CLR 31/24 A2994 RMK AO2 SLP132 T03110244

2010/08/09 15:55
KSFM 091555Z 28008KT 3SM FEW046 31/18 A2994 RMK AO1

2010/08/09 15:55
KSFZ 091555Z 23004KT 10SM FEW032 29/21 A2998 RMK AO1

2010/08/09 15:55
KSGT 091555Z 31004KT CLR 32/26 A2997 RMK AO1

2010/08/09 15:55
KSGU 091555Z AUTO 12003KT 10SM CLR 21/12 A3004 RMK AO1

2010/08/09 15:54
KSJN 091554Z AUTO 00000KT 10SM OVC100 21/12 A3021 RMK AO2 SLP148 T02060122

2010/08/09 15:55
KSKX 091555Z AUTO 24003KT 10SM SCT120 20/09 A3027 RMK AO1

2010/08/09 15:55
KSLG 091555Z AUTO 18005KT 10SM CLR 33/22 A3001 RMK AO1

2010/08/09 15:55
KSMN 091555Z AUTO 35003KT 10SM BKN120 18/09 A3000 RMK AO1

2010/08/09 15:55
KSPA 091555Z AUTO 27003KT 10SM CLR 31/26 A3007 RMK AO2

2010/08/09 15:55
KSPL 091555Z AUTO 12006KT CLR 32/27 A2993 RMK AO2 PWINO PNO

2010/08/09 15:55
KSQI 091555Z AUTO 27003KT 10SM BKN100 25/22 A2996 RMK AO1

2010/08/09 15:55
KSUE 091555Z AUTO 32006KT 10SM CLR 27/23 A2991 RMK AO1

2010/08/09 15:54
KSUS 091554Z 00000KT 10SM BKN150 32/25 A2994 RMK AO2 SLP126 T03170250

2010/08/09 15:54
KSYR 091554Z 29007KT 10SM SCT200 29/19 A2997 RMK AO2 SLP141 T02940189

2010/08/09 15:54
KTAD 091554Z AUTO 01003KT 10SM CLR 23/13 A3015 RMK AO2 SLP128 T02330128

2010/08/09 15:55
KTPL 091555Z 20010KT 10SM CLR 32/23 A2999 RMK AO1

2010/08/09 15:54
KTQE 091554Z AUTO 29003KT 10SM OVC013 27/24 A2986 RMK AO2 SLP098 T02720244

2010/08/09 15:55
KTSP 091555Z AUTO 00000KT 10SM CLR 20/03 A3003 RMK AO2

2010/08/09 15:55
KTVF 091555Z AUTO 16007KT 10SM CLR 28/20 A2986 RMK AO1

2010/08/09 15:56
KUCP 091556Z AUTO VRB04KT 10SM CLR 29/18 A3005 RMK AO2 T02880177 SLP183

2010/08/09 15:54
KUIN 091554Z AUTO 17004KT 10SM CLR 26/22 A2996 RMK AO2 SLP136 T02560217

2010/08/09 15:54
KUZA 091554Z AUTO 32003KT 7SM BKN033 32/22 A3008 RMK AO2 SLP169 T03170217

2010/08/09 15:54
KVAY 091554Z AUTO VRB04KT 10SM CLR 31/19 A3001 RMK AO2 SLP163 T03110189

2010/08/09 15:56
KXVG 091556Z AUTO 00000KT 10SM CLR 27/21 A2991 RMK AO2

2010/08/09 15:54
KORB 091554Z AUTO 00000KT 10SM CLR 24/19 A2989 RMK AO2

2010/08/09 15:51
KMZH 091551Z AUTO 00000KT 10SM SCT011 26/22 A2991 RMK AO2

2010/08/09 15:53
KBFW 091553Z AUTO 20005KT 10SM CLR 27/20 A2989 RMK AO2

2010/08/09 15:49
KVWU 091549Z AUTO 28003KT 10SM CLR 27/21 A2989 RMK AO2

2010/08/09 15:50
KAEL 091550Z AUTO 00000KT 10SM CLR 27/22 A2993 RMK AO2

2010/08/09 15:54
KOWA 091554Z AUTO 25004KT 10SM BKN014 26/23 A2992 RMK AO2

2010/08/09 15:53
K29G 091553Z AUTO 22004KT 10SM CLR 27/17 A3004 RMK AO2 T02710169 PWINO

2010/08/09 15:53
KMRT 091553Z AUTO 21005KT 7SM CLR 28/20 A3006 RMK AO2 T02750204

2010/08/09 15:54
KIKW 091554Z AUTO 22004KT 10SM SCT034 SCT055 BKN100 25/21 A2989 RMK AO2 T02530206

2010/08/09 15:46
PAEC 091546Z 00000KT 1/4SM -RA FG VV003 09/09 A2970 RMK NOSPECI

2010/08/09 15:54
PAHN 091554Z AUTO 09004KT 10SM BKN010 OVC016 13/11 A2995 RMK AO2 SLP143 T01280106 TSNO

2010/08/09 15:50
PAJV 091550Z 21006KT 10SM SCT040 BKN080 OVC110 10/08 A2965 RMK 4////0096 NOSPECI

2010/08/09 15:54
PAKN 091554Z 21011KT 10SM OVC023 11/09 A2951 RMK AO2 SLP991 T01110094

2010/08/09 15:50
BGSF 091550Z 25004KT 210V300 9999 SCT029 BKN050 14/09 Q1008

2010/08/09 16:00
RPLC 091600Z VRB03G22KT 9999 FEW036 BKN100 OVC270 25/24 Q1010 A2985 RMK NOSIG 

2010/08/09 16:00
MGGT 091600Z 36010KT 9999 SCT017 OVC200 24/18 Q1025 A30.27 PACAYA EN ACTIVIDAD NOSIG

2010/08/09 15:50
LSZA 091550Z 17005KT 140V200 9999 FEW050 28/16 Q1015 NOSIG

2010/08/09 15:51
MMRX 091551Z 17015KT 8SM BKN025 32/26 A2993 RMK 8/500 HZY

2010/08/09 15:49
MMCV 091549Z 18010KT 8SM SCT020 31/23 A2995 RMK 8/500 HZY

2010/08/09 15:55
PTTP 091555Z 05008KT 15SM -SHRA BKN018TCU OVC300 27/25 A2985 RMK SHRAB45 TCU ALQDS SLP108 T02690250

2010/08/09 15:50
BGSF 091550Z 25004KT 210V300 9999 SCT029 BKN050 14/09 Q1008

2010/08/09 15:50
LIEA 091550Z 30003KT 240V340 CAVOK 25/17 Q1017

2010/08/09 15:45
LIEE 091545Z 07010KT CAVOK 28/19 Q1015 NOSIG

2010/08/09 15:50
LIEO 091550Z 07005KT CAVOK 27/19 Q1016

2010/08/09 15:50
LIME 091550Z 17004KT 130V220 9999 FEW040 28/16 Q1015

2010/08/09 15:50
LIMF 091550Z 06004KT 9999 FEW030 28/16 1014

2010/08/09 15:50
LIMJ 091550Z VRB01KT 9999 FEW020 26/21 Q1016

2010/08/09 15:50
LIML 091550Z 16004KT 9999 FEW030 29/15 Q1014 NOSIG

2010/08/09 15:45
LIRA 091545Z 27009KT 220V330 9999 FEW020 31/14 Q1015

2010/08/09 15:50
LIRF 091550Z 26011KT CAVOK 27/21 Q1015 NOSIG

2010/08/09 15:50
LIRN 091550Z 30008KT CAVOK 28/17 Q1014

2010/08/09 15:45
LIRP 091545Z 25007KT 210V340 9999 FEW020 SCT030 26/21 Q1015 NOSIG

2010/08/09 15:50
LIRQ 091550Z 25009KT 210V280 9999 FEW030 29/17 Q1015

2010/08/09 15:50
OAKN 091550Z 26006KT 8000 DU FEW180 36/02 Q1004 BLU NOSIG RMK A2964 DA6700

2010/08/09 15:50
LIBD 091550Z 03007KT 340V070 CAVOK 28/16 Q1014

2010/08/09 15:45
LIBR 091545Z 33017KT CAVOK 27/22 Q1014 NOSIG

2010/08/09 15:50
LICC 091550Z 06015KT CAVOK 29/21 Q1013

2010/08/09 15:50
LICJ 091550Z 04010KT CAVOK 27/20 Q1016

2010/08/09 15:50
LIPB 091550Z 15009KT 9999 FEW060 31/15 Q1013

2010/08/09 15:50
LIPE 091550Z 09003KT 020V140 9999 SCT050 29/18 Q1013

2010/08/09 15:45
LIPH 091545Z 20005KT 9999 FEW020 28/20 Q1014

2010/08/09 15:50
LIPK 091550Z 24009KT 9999 FEW050 29/15 Q1013

2010/08/09 15:50
LIPQ 091550Z 21005KT CAVOK 27/18 Q1014

2010/08/09 15:45
LIPR 091545Z 09007KT CAVOK 27/21 Q1014

2010/08/09 15:45
LIPX 091545Z 15004KT 9999 FEW040 30/16 Q1014

2010/08/09 15:50
LIPZ 091550Z 17006KT CAVOK 28/19 Q1014

2010/08/09 16:00
MGGT 091600Z 36010KT 9999 SCT017 OVC200 24/18 Q1025 A30.27 PACAYA EN ACTIVIDAD NOSIG

2010/08/09 16:00
MGGT 091600Z 36010KT 9999 SCT017 OVC200 24/18 Q1025 A30.27 PACAYA EN ACTIVIDAD NOSIG

2010/08/09 16:00
SBBE 091600Z 14006KT 9999 SCT025 32/23 Q1012

2010/08/09 16:00
FAVV 091600Z AUTO 22009KT //// // ////// 11/M11 Q1023

2010/08/09 16:00
FAJB 091600Z AUTO 23007G17KT //// // ////// 11/M11 Q1025

2010/08/09 16:00
FAGC 091600Z AUTO 20009KT //// // ////// 12/M12 Q1024

2010/08/09 16:00
SBCY 091600Z 21004KT CAVOK 35/10 Q1015

2010/08/09 16:00
SVMI 091600Z 02003KT 9999 FEW016 BKN100 32/26 Q1013 NOSIG

2010/08/09 15:50
EFET 091550Z AUTO 04009KT 020V090 9999 BKN028 BKN070 14/09 Q1013

2010/08/09 15:50
EFIV 091550Z 02013KT 8000 -RA BKN008 OVC020 11/11 Q1013

2010/08/09 15:50
EFKE 091550Z 36010KT 9999 BKN015 17/14 Q1008

2010/08/09 15:50
EFKI 091550Z AUTO 24007KT 210V270 //// FEW033 SCT050 24/18 Q1008

2010/08/09 15:50
EFKT 091550Z AUTO 02009G19KT 330V080 9999 OVC015 14/11 Q1011

2010/08/09 15:56
KSDF 091556Z 17003KT 7SM FEW100 SCT150 SCT200 32/21 A3001 RMK AO2 SLP155 T03220206 

2010/08/09 15:54
KAKQ 091554Z AUTO 00000KT 10SM CLR 30/22 A3006 RMK AO2 SLP176 T03000217 TSNO 

2010/08/09 15:56
KJAX 091556Z 06014KT 10SM SCT032 32/23 A2997 RMK AO2 SLP149 T03220233 

2010/08/09 15:50
EGDM 091550Z 23013KT 9999 BKN020 BKN050 19/14 Q1014 WHT BECMG BKN014 GRN

2010/08/09 15:50
EGOS 091550Z 28012KT 9999 SCT022 20/15 Q1010 WHT BECMG FEW025 BLU

2010/08/09 15:50
EGOV 091550Z 21011KT 9999 FEW004 SCT050 17/15 Q1010 BLU NOSIG

2010/08/09 15:50
EGQK 091550Z 24005KT 9999 -SHRA FEW015 SCT030 15/14 Q1005 BLU TEMPO 7000 SHRA SCT022 WHT

2010/08/09 15:50
EGQL 091550Z 24009KT 9999 -SHRA FEW018 BKN050 16/15 Q1006 BLU

2010/08/09 15:50
EGQS 091550Z 27011KT 9999 6000SE SHRA FEW010 SCT019 BKN040 14/13 Q1005 WHT BECMG 9999 NSW FEW020 BLU

2010/08/09 15:50
EGVN 091550Z 23008KT 9999 FEW024 BKN030 BKN090 20/15 Q1013 BLU BECMG BKN020 WHT

2010/08/09 15:50
EGVP 091550Z 23012KT 9999 SCT023 BKN030 20/13 Q1014 WHT NOSIG

2010/08/09 15:50
EGWU 091550Z 24012KT CAVOK 24/09 Q1013 BLU NOSIG

2010/08/09 15:50
EGXC 091550Z 22015KT CAVOK 24/11 Q1010 BLU NOSIG

2010/08/09 15:50
EGXD 091550Z 20012KT 9999 FEW020 SCT036 BKN050 20/14 Q1009 BLU TEMPO 7000 -RA BKN020 WHT

2010/08/09 15:50
EGXE 091550Z 23006KT 9999 FEW012 BKN018 17/17 Q1009 WHT TEMPO SCT025 BLU

2010/08/09 15:50
EGXG 091550Z 20012KT 9999 FEW024 BKN028 20/14 Q1009 BLU

2010/08/09 15:50
EGXJ 091550Z 24009KT CAVOK 20/15 Q1011 BLU NOSIG

2010/08/09 15:50
EGXU 091550Z 17009KT 8000 -RA BKN025 BKN040 19/16 Q1009 BLU TEMPO 6000 RA BKN020 WHT

2010/08/09 15:50
EGXW 091550Z 26014KT 9999 FEW040 BKN044 22/13 Q1010 BLU NOSIG

2010/08/09 15:50
EGYD 091550Z 22021KT 9999 -RA SCT045 SCT070 BKN090 22/13 Q1011 BLU NOSIG

2010/08/09 15:50
EGYM 091550Z 22013KT 9999 FEW045 24/08 Q1011 BLU NOSIG

2010/08/09 15:50
BGSF 091550Z 25004KT 210V300 9999 SCT029 BKN050 14/09 Q1008

2010/08/09 15:55
BGTL 091555Z AUTO 27005KT 9999 CLR 04/03 A2989 RMK AO2 SLP126 T00440027

2010/08/09 15:55
ETAR 091555Z AUTO 00000KT 9999 SCT070 23/12 A3002 RMK AO2 SLP162 T02330123 $

2010/08/09 15:55
ETOU 091555Z AUTO 22004KT 9999 SCT075 23/13 A3002 RMK AO2 SLP165 T02300130

2010/08/09 15:55
KDLF 091555Z AUTO 12009KT 10SM OVC019 28/22 A2997 RMK AO2 SLP133 T02830225

2010/08/09 15:55
KFCS 091555Z AUTO 00000KT 10SM FEW130 OVC170 21/14 A3017 RMK AO2 SLP142 T02110140

2010/08/09 15:55
KGBN 091555Z 04004KT 12SM CLR 32/07 A2987 RMK SLP096

2010/08/09 15:55
KGTB 091555Z AUTO 26008KT 10SM CLR 27/20 A2996 RMK AO2 SLP143 T02660198

2010/08/09 15:55
KHIF 091555Z AUTO 16009KT 10SM CLR 23/09 A3006 RMK AO2 SLP073 T02260089

2010/08/09 15:55
KLTS 091555Z AUTO 20009KT 10SM CLR 33/20 A2991 RMK AO2 SLP108 T03350196 $

2010/08/09 15:55
KLUF 091555Z 06004KT 10SM CLR 32/11 A2988 RMK AO2A SLP088 T03160110 $

2010/08/09 15:55
KPOB 091555Z AUTO 00000KT 10SM CLR 31/25 A3004 RMK AO2 SLP171 T03130249 $

2010/08/09 15:55
KSKA 091555Z AUTO 22006KT 10SM FEW075 17/10 A2988 RMK AO2 SLP107 T01740102

2010/08/09 15:55
KSSC 091555Z 05005KT 10SM CLR 32/23 A3003 RMK AO2A SLP168 T03200230 $

2010/08/09 15:55
PAFB 091555Z VRB03KT 13SM FEW050 BKN070 OVC090 14/10 A2957 RMK SLP012

2010/08/09 15:55
PHHI 091555Z AUTO 00000KT 10SM BKN034 BKN042 21/18 A3009 RMK AO2 DZB1509E1520 SLP179 P0000 T02140183 $

2010/08/09 16:00
FDMS 091600Z 15010G20KT 9999 SCT035 17/13 Q1019 NOSIG

2010/08/09 15:56
KSHV 091556Z 26007KT 10SM FEW300 33/23 A2998 RMK AO2 SLP146 T03330233 

2010/08/09 15:55
KMBG 091555Z AUTO 14012KT 10SM CLR 27/20 A2989 RMK AO2 SLP109 T02720200 TSNO 

2010/08/09 15:54
KWAL 091554Z 15004KT 10SM FEW020 SCT250 29/17 A3006 RMK AO2 SLP174 T02940172 

2010/08/09 15:55
KNBG 091555Z VRB06KT 10SM SCT025 BKN250 33/24 A2998 RMK AO2 SLP150 T2 SET T03280239 $ 

2010/08/09 15:55
KPHP 091555Z AUTO 15007KT 10SM CLR 29/19 A2993 RMK AO2 SLP112 T02890189 TSNO 

2010/08/09 15:55
KHON 091555Z AUTO 09003KT 10SM CLR 27/21 A2991 RMK AO2 SLP120 T02720206 TSNO 

2010/08/09 15:55
KANJ 091555Z AUTO VRB04KT 10SM FEW014 BKN065 24/20 A2989 RMK AO2 SLP118 T02440200 

2010/08/09 15:55
KINL 091555Z AUTO 08003KT 10SM CLR 25/19 A2989 RMK AO2 SLP121 T02500194 

2010/08/09 15:55
KPOE 091555Z AUTO 31005KT 10SM CLR 31/22 A2999 RMK AO2 SLP156 T03110222 

2010/08/09 15:55
KAST 091555Z AUTO 25004KT 7SM SCT011 BKN015 OVC028 14/12 A3000 RMK AO2 RAE01 CIG 009 RWY 08 SLP159 P0000 T01390122 

2010/08/09 15:56
TJSJ 091556Z 09015G22KT 10SM FEW024 SCT046 SCT085 31/24 A2998 RMK AO2 RAB24E33 SLP151 VCSH SE-S P0000 T03110244 

2010/08/09 15:55
CYRV 091555Z AUTO 18002KT 7SM -RA OVC014 OVC063 OVC079 16/15 A2986

2010/08/09 15:55
KAAT 091555Z AUTO 00000KT 10SM CLR 19/05 A3001 RMK AO2 SLP117 T01890050 TSNO 

2010/08/09 15:50
EGNS 091550Z 21009KT 9999 FEW020 BKN040 16/13 Q1009 NOSIG

2010/08/09 15:50
BGSF 091550Z 25004KT 210V300 9999 SCT029 BKN050 14/09 Q1008

2010/08/09 15:50
LIBD 091550Z 03007KT 340V070 CAVOK 28/16 Q1014

2010/08/09 15:45
LIBR 091545Z 33017KT CAVOK 27/22 Q1014 NOSIG

2010/08/09 15:50
LICC 091550Z 06015KT CAVOK 29/21 Q1013

2010/08/09 15:50
LICJ 091550Z 04010KT CAVOK 27/20 Q1016

2010/08/09 15:50
LIPB 091550Z 15009KT 9999 FEW060 31/15 Q1013

2010/08/09 15:50
LIPE 091550Z 09003KT 020V140 9999 SCT050 29/18 Q1013

2010/08/09 15:45
LIPH 091545Z 20005KT 9999 FEW020 28/20 Q1014

2010/08/09 15:50
LIPK 091550Z 24009KT 9999 FEW050 29/15 Q1013

2010/08/09 15:50
LIPQ 091550Z 21005KT CAVOK 27/18 Q1014

2010/08/09 15:45
LIPR 091545Z 09007KT CAVOK 27/21 Q1014

2010/08/09 15:45
LIPX 091545Z 15004KT 9999 FEW040 30/16 Q1014

2010/08/09 15:50
LIPZ 091550Z 17006KT CAVOK 28/19 Q1014

2010/08/09 15:50
EFJO 091550Z 19012KT 160V240 CAVOK 28/14 Q1010

2010/08/09 15:50
EFLP 091550Z 22006KT 180V270 9999 FEW033 SCT050 24/16 Q1012

2010/08/09 15:50
EFMI 091550Z AUTO 20008KT 150V240 9999 FEW042 SCT065 BKN080 24/16 Q1010

2010/08/09 15:50
EFSA 091550Z AUTO 18008KT 130V220 CAVOK 24/16 Q1011

2010/08/09 15:50
EFUT 091550Z AUTO 19009KT 150V220 9999 FEW032 23/16 Q1012

2010/08/09 15:50
EFVR 091550Z AUTO 20007KT 130V270 CAVOK 26/15 Q1010

2010/08/09 15:55
EHDL 091555Z AUTO 23007KT 9999NDV BKN071 21/13 Q1016 BLU

2010/08/09 15:55
EHEH 091555Z AUTO 24004KT 9999NDV FEW072 23/12 Q1016 BLU BLU NOSIG

2010/08/09 15:55
EHGR 091555Z AUTO 25002KT 9999NDV BKN380 23/10 Q1015 BLU

2010/08/09 15:55
EHLW 091555Z AUTO 26007KT 9999NDV NCD 20/13 Q1015 BLU

2010/08/09 15:55
EHVK 091555Z AUTO 20004KT 9999NDV FEW062 BKN070 21/13 Q1016 BLU

2010/08/09 15:55
EHVL 091555Z AUTO 23014KT 9999NDV FEW290 20/15 Q1015 BLU

2010/08/09 15:55
EHWO 091555Z AUTO 21003KT 9999NDV FEW093 BKN230 23/11 Q1015 BLU

2010/08/09 15:50
LSZA 091550Z 17005KT 140V200 9999 FEW050 28/16 Q1015 NOSIG

2010/08/09 16:00
RPLC 091600Z VRB03G22KT 9999 FEW036 BKN100 OVC270 25/24 Q1010 A2985 RMK NOSIG

2010/08/09 15:50
LIEA 091550Z 30003KT 240V340 CAVOK 25/17 Q1017

2010/08/09 15:45
LIEE 091545Z 07010KT CAVOK 28/19 Q1015 NOSIG

2010/08/09 15:50
LIEO 091550Z 07005KT CAVOK 27/19 Q1016

2010/08/09 15:50
LIME 091550Z 17004KT 130V220 9999 FEW040 28/16 Q1015

2010/08/09 15:50
LIMF 091550Z 06004KT 9999 FEW030 28/16 1014

2010/08/09 15:50
LIMJ 091550Z VRB01KT 9999 FEW020 26/21 Q1016

2010/08/09 15:50
LIML 091550Z 16004KT 9999 FEW030 29/15 Q1014 NOSIG

2010/08/09 15:45
LIRA 091545Z 27009KT 220V330 9999 FEW020 31/14 Q1015

2010/08/09 15:50
LIRF 091550Z 26011KT CAVOK 27/21 Q1015 NOSIG

2010/08/09 15:50
LIRN 091550Z 30008KT CAVOK 28/17 Q1014

2010/08/09 15:45
LIRP 091545Z 25007KT 210V340 9999 FEW020 SCT030 26/21 Q1015 NOSIG

2010/08/09 15:50
LIRQ 091550Z 25009KT 210V280 9999 FEW030 29/17 Q1015

2010/08/09 15:50
EFET 091550Z AUTO 04009KT 020V090 9999 BKN028 BKN070 14/09 Q1013

2010/08/09 15:50
EFIV 091550Z 02013KT 8000 -RA BKN008 OVC020 11/11 Q1013

2010/08/09 15:50
EFKE 091550Z 36010KT 9999 BKN015 17/14 Q1008

2010/08/09 15:50
EFKI 091550Z AUTO 24007KT 210V270 //// FEW033 SCT050 24/18 Q1008

2010/08/09 15:50
EFKT 091550Z AUTO 02009G19KT 330V080 9999 OVC015 14/11 Q1011

2010/08/09 15:48
KIZA 091548Z AUTO 00000KT 10SM OVC004 12/10 A2995

2010/08/09 15:56
KNJK 091556Z 00000KT 10SM CLR 30/09 A2979 RMK AO2 SLP104 T03000089 

2010/08/09 15:45
KGYY 091545Z 14006KT 7SM SCT033 BKN095 OVC110 26/22 A2995

2010/08/09 15:47
KIWA 091547Z 17005KT 45SM SCT120 32/12 A2991

2010/08/09 15:54
CWCA 091554Z 21005KT 12SM -RA OVC070 RMK AC8

2010/08/09 15:51
CYAH 091551Z 28007KT 7SM BKN008 OVC033 RMK SF7SC1

2010/08/09 15:51
CYKJ 091551Z AUTO 10007KT 5SM -RA OVC005 16/15 A2975 RMK SLP086 DENSITY ALT 2300FT

2010/08/09 15:51
CYOY 091551Z AUTO 22007KT 180V260 9SM SCT010 BKN033 BKN038 BKN088 22/17 A2988

2010/08/09 15:52
CYRV 091552Z AUTO 00000KT 9SM -RA SCT010 OVC031 OVC063 OVC079 16/15 A2986

2010/08/09 15:53
CYRV 091553Z AUTO 00000KT 9SM -RA FEW010 OVC024 OVC063 OVC079 16/15 A2986

2010/08/09 15:54
ETAD 091554Z AUTO 23009KT 9999 SCT060 23/09 A3003 RMK AO2 SLP163 $

2010/08/09 15:51
PAEI 091551Z AUTO 00000KT 10SM -RA OVC070 12/10 A2958 RMK AO2 RAB1551DZE1457 SLP016 $

2010/08/09 15:55
KADW 091555Z AUTO 25006KT 10SM CLR 31/21 A3004 RMK AO2 SLP172 T03130209 $

2010/08/09 15:54
KBOS 091554Z 24008KT 10SM FEW060 SCT120 31/19 A2996 RMK AO2 SLP143 T03060189

2010/08/09 15:53
KDAB 091553Z 08009KT 10SM SCT020 SCT028 BKN070 31/24 A2995 RMK AO2 SLP141 T03060244

2010/08/09 15:55
KMCF 091555Z AUTO 06007KT 10SM BKN017 29/26 A2994 RMK AO2 CIG 016V021 BKN V SCT SLP140 T02950262

2010/08/09 15:52
KNHK 091552Z 10008KT 7SM FEW020 SCT250 29/24 A3004 RMK AO2 SLP171 T02940239

2010/08/09 15:53
KNIP 091553Z 05010KT 10SM BKN034TCU 31/24 A2997 RMK AO2 SLP145 TCU E-S T03110244

2010/08/09 15:53
KNQX 091553Z 19007KT 10SM -RA FEW026CB SCT075 BKN100 OVC200 28/24 A2996 RMK AO2 SLP143 CB E MOV SW T1 SET P0002 T02780239 $

2010/08/09 15:52
KNRB 091552Z 05011KT 10SM FEW018 BKN030 BKN065 32/25 A2998 RMK AO2 RAB36E47 SLP151 P0000 T03170250

2010/08/09 15:55
KPAM 091555Z AUTO 07007KT 10SM CLR 32/25 A2996 RMK AO2 SLP149 T03200246 $

2010/08/09 15:54
KPHL 091554Z 24007KT 7SM FEW038 SCT250 31/21 A3002 RMK AO2 SLP164 T03060211

2010/08/09 15:55
KPOB 091555Z AUTO 00000KT 10SM CLR 31/25 A3004 RMK AO2 SLP171 T03130249 $

2010/08/09 15:53
KSAV 091553Z 03012G17KT 10SM FEW030 SCT250 33/21 A3001 RMK AO2 SLP160 T03280211

2010/08/09 15:55
KSSC 091555Z 05005KT 10SM CLR 32/23 A3003 RMK AO2A SLP168 T03200230 $

2010/08/09 15:54
KSYR 091554Z 29007KT 10SM SCT200 29/19 A2997 RMK AO2 SLP141 T02940189

2010/08/09 15:55
KVAD 091555Z AUTO 05012KT 10SM CLR 32/23 A3000 RMK AO2 SLP157 T03190230 $

2010/08/09 16:00
MYNN 091600Z 17005KT 9999 FEW020 SCT038 BKN080 31/22 A2998

2010/08/09 15:54
KFWA 091554Z 28004KT 9SM FEW150 BKN250 28/21 A3001 RMK AO2 SLP155 T02830211 

2010/08/09 15:54
CYMU 091554Z 21005KT 6SM BR FEW004 BKN006 RMK SF2SC6 VIS NE 1

2010/08/09 15:55
KVBG 091555Z 04004KT 6SM -DZ BR SCT004 BKN006 OVC010 14/12 A2996 RMK AO2 DZB25 SLP136 P0000 T01390122 $ 

2010/08/09 15:53
KGNT 091553Z AUTO 36004KT 19/14 A3026 RMK AO2 SLP165 T01940139 PWINO TSNO 

2010/08/09 15:50
EGAA 091550Z 25016KT 9999 -SHRA FEW037 BKN049 16/11 Q1009

2010/08/09 15:50
EGAC 091550Z 24011KT 9999 SCT028 18/09 Q1008

2010/08/09 15:50
EGBE 091550Z 22015KT 9999 SCT029 SCT032 21/14 Q1012

2010/08/09 15:50
EGBJ 091550Z 21011KT 190V250 9999 BKN018 20/15 Q1012

2010/08/09 15:50
EGFF 091550Z 26011KT 9999 SCT003 BKN010 18/17 Q1013

2010/08/09 15:50
EGGW 091550Z 24009KT CAVOK 24/10 Q1013

2010/08/09 15:50
EGLC 091550Z 23012KT 190V260 CAVOK 23/08 Q1013

2010/08/09 15:50
EGNM 091550Z 24010KT 180V280 9999 -SHRA SCT010 BKN015 17/15 Q1010

2010/08/09 15:50
EGNS 091550Z 21009KT 9999 FEW020 BKN040 16/13 Q1009 NOSIG

2010/08/09 15:50
EGNX 091550Z 20016KT 9999 BKN032 21/12 Q1011

2010/08/09 15:50
EGQK 091550Z 24005KT 9999 -SHRA FEW015 SCT030 15/14 Q1005 BLU TEMPO 7000 SHRA SCT022 WHT

2010/08/09 15:50
EGQL 091550Z 24009KT 9999 -SHRA FEW018 BKN050 16/15 Q1006 BLU

2010/08/09 15:50
EGSC 091550Z 20011KT 150V260 CAVOK 25/08 Q1012

2010/08/09 15:50
EGSH 091550Z 21013KT 9999 SCT046 24/11 Q1012

2010/08/09 15:55
EGUL 091555Z AUTO 21011KT 9999 CLR 25/09 A2987 RMK AO2 SLP117 T02480091

2010/08/09 15:55
EGUN 091555Z AUTO 22015G18KT 9999 CLR 25/09 A2988 RMK AO2 SLP108 T02500093

2010/08/09 15:50
EGVN 091550Z 23008KT 9999 FEW024 BKN030 BKN090 20/15 Q1013 BECMG BKN020

2010/08/09 15:50
EGXD 091550Z 20012KT 9999 FEW020 SCT036 BKN050 20/14 Q1009 BLU TEMPO 7000 -RA BKN020 WHT

2010/08/09 15:50
EGXE 091550Z 23006KT 9999 FEW012 BKN018 17/17 Q1009 WHT TEMPO SCT025 BLU

2010/08/09 15:50
EGXG 091550Z 20012KT 9999 FEW024 BKN028 20/14 Q1009 BLU

2010/08/09 15:50
EGYD 091550Z 22021KT 9999 -RA SCT045 SCT070 BKN090 22/13 Q1011 BLU NOSIG

2010/08/09 15:50
EGYM 091550Z 22013KT 9999 FEW045 24/08 Q1011 BLU NOSIG

2010/08/09 15:50
EGNS 091550Z 21009KT 9999 FEW020 BKN040 16/13 Q1009 NOSIG

2010/08/09 15:50
EGXD 091550Z 20012KT 9999 FEW020 SCT036 BKN050 20/14 Q1009 BLU TEMPO 7000 -RA BKN020 WHT

2010/08/09 15:56
ETIC 091556Z AUTO 20004KT 9999 CLR 21/19 A3004 RMK AO2 SLP163 T02090193

2010/08/09 15:50
LIBD 091550Z 03007KT 340V070 CAVOK 28/16 Q1014

2010/08/09 15:45
LIBR 091545Z 33017KT CAVOK 27/22 Q1014 NOSIG

2010/08/09 15:50
LICC 091550Z 06015KT CAVOK 29/21 Q1013

2010/08/09 15:50
LICJ 091550Z 04010KT CAVOK 27/20 Q1016

2010/08/09 15:50
LIEA 091550Z 30003KT 240V340 CAVOK 25/17 Q1017

2010/08/09 15:45
LIEE 091545Z 07010KT CAVOK 28/19 Q1015 NOSIG

2010/08/09 15:50
LIEO 091550Z 07005KT CAVOK 27/19 Q1016

2010/08/09 15:50
LIMF 091550Z 06004KT 9999 FEW030 28/16 1014

2010/08/09 15:50
LIMJ 091550Z VRB01KT 9999 FEW020 26/21 Q1016

2010/08/09 15:50
LIML 091550Z 16004KT 9999 FEW030 29/15 Q1014 NOSIG

2010/08/09 15:50
LIPB 091550Z 15009KT 9999 FEW060 31/15 Q1013

2010/08/09 15:50
LIPE 091550Z 09003KT 020V140 9999 SCT050 29/18 Q1013

2010/08/09 15:45
LIPH 091545Z 20005KT 9999 FEW020 28/20 Q1014

2010/08/09 15:50
LIPK 091550Z 24009KT 9999 FEW050 29/15 Q1013

2010/08/09 15:50
LIPQ 091550Z 21005KT CAVOK 27/18 Q1014

2010/08/09 15:45
LIPR 091545Z 09007KT CAVOK 27/21 Q1014

2010/08/09 15:45
LIPX 091545Z 15004KT 9999 FEW040 30/16 Q1014

2010/08/09 15:50
LIPZ 091550Z 17006KT CAVOK 28/19 Q1014

2010/08/09 15:45
LIRA 091545Z 27009KT 220V330 9999 FEW020 31/14 Q1015

2010/08/09 15:50
LIRN 091550Z 30008KT CAVOK 28/17 Q1014

2010/08/09 15:45
LIRP 091545Z 25007KT 210V340 9999 FEW020 SCT030 26/21 Q1015 NOSIG

2010/08/09 15:50
LIRQ 091550Z 25009KT 210V280 9999 FEW030 29/17 Q1015

2010/08/09 15:55
LIYW 091555Z AUTO 24004KT 9999 -DZ CLR 28/17 A2996 RMK AO2 DZE1528B1548 SLP143 P0000 T02840172

2010/08/09 15:50
LSZA 091550Z 17005KT 140V200 9999 FEW050 28/16 Q1015 NOSIG

2010/08/09 15:50
EGDM 091550Z 23013KT 9999 BKN020 BKN050 19/14 Q1014 WHT BECMG BKN014 GRN

2010/08/09 15:50
EGOS 091550Z 28012KT 9999 SCT022 20/15 Q1010 WHT BECMG FEW025 BLU

2010/08/09 15:50
EGOV 091550Z 21011KT 9999 FEW004 SCT050 17/15 Q1010 BLU NOSIG

2010/08/09 15:50
EGQK 091550Z 24005KT 9999 -SHRA FEW015 SCT030 15/14 Q1005 BLU TEMPO 7000 SHRA SCT022 WHT

2010/08/09 15:50
EGQL 091550Z 24009KT 9999 -SHRA FEW018 BKN050 16/15 Q1006 BLU

2010/08/09 15:50
EGQS 091550Z 27011KT 9999 6000SE SHRA FEW010 SCT019 BKN040 14/13 Q1005 WHT BECMG 9999 NSW FEW020 BLU

2010/08/09 15:50
EGVN 091550Z 23008KT 9999 FEW024 BKN030 BKN090 20/15 Q1013 BLU BECMG BKN020 WHT

2010/08/09 15:50
EGVP 091550Z 23012KT 9999 SCT023 BKN030 20/13 Q1014 WHT NOSIG

2010/08/09 15:50
EGWU 091550Z 24012KT CAVOK 24/09 Q1013 BLU NOSIG

2010/08/09 15:50
EGXC 091550Z 22015KT CAVOK 24/11 Q1010 BLU NOSIG

2010/08/09 15:50
EGXE 091550Z 23006KT 9999 FEW012 BKN018 17/17 Q1009 WHT TEMPO SCT025 BLU

2010/08/09 15:50
EGXG 091550Z 20012KT 9999 FEW024 BKN028 20/14 Q1009 BLU

2010/08/09 15:50
EGXJ 091550Z 24009KT CAVOK 20/15 Q1011 BLU NOSIG

2010/08/09 15:50
EGXU 091550Z 17009KT 8000 -RA BKN025 BKN040 19/16 Q1009 BLU TEMPO 6000 RA BKN020 WHT

2010/08/09 15:50
EGXW 091550Z 26014KT 9999 FEW040 BKN044 22/13 Q1010 BLU NOSIG

2010/08/09 15:50
EGYD 091550Z 22021KT 9999 -RA SCT045 SCT070 BKN090 22/13 Q1011 BLU NOSIG

2010/08/09 15:50
EGYM 091550Z 22013KT 9999 FEW045 24/08 Q1011 BLU NOSIG

2010/08/09 15:55
EHDL 091555Z AUTO 23007KT 9999NDV BKN071 21/13 Q1016 BLU

2010/08/09 15:55
EHGR 091555Z AUTO 25002KT 9999NDV BKN380 23/10 Q1015 BLU

2010/08/09 15:55
EHVK 091555Z AUTO 20004KT 9999NDV FEW062 BKN070 21/13 Q1016 BLU

2010/08/09 15:50
EFKI 091550Z AUTO 24007KT 210V270 //// FEW033 SCT050 24/18 Q1008

2010/08/09 15:55
KFMH 091555Z AUTO 24010KT 9SM BKN013 27/22 A3001 RMK AO2

2010/08/09 15:55
KFRI 091555Z AUTO 20005KT 10SM CLR 34/22 A2987 RMK AO2 SLP095 T03360217

2010/08/09 15:55
KFSI 091555Z AUTO 20008KT 10SM CLR 33/21 A2992 RMK AO2 SLP105 T03280212

2010/08/09 15:55
KMCF 091555Z AUTO 06007KT 10SM BKN017 29/26 A2994 RMK AO2 CIG 016V021 BKN V SCT SLP140 T02950262

2010/08/09 15:55
KMIB 091555Z AUTO 20007KT 10SM CLR 23/18 A2983 RMK AO2 SLP098 T02250183

2010/08/09 15:55
KMMT 091555Z 09007KT 10SM FEW030 32/23 A3004 RMK SLP171

2010/08/09 15:55
KPAM 091555Z AUTO 07007KT 10SM CLR 32/25 A2996 RMK AO2 SLP149 T03200246 $

2010/08/09 15:55
KSLI 091555Z 00000KT 6SM HZ OVC013 17/14 A2993 RMK AO2A SLP137 T01670138

2010/08/09 15:55
KTCM 091555Z AUTO 17004KT 10SM SCT009 OVC025 14/12 A2998 RMK AO2 SLP154 T01370119

2010/08/09 15:55
KVAD 091555Z AUTO 05012KT 10SM CLR 32/23 A3000 RMK AO2 SLP157 T03190230 $

2010/08/09 15:55
KVOK 091555Z 31006KT 10SM SCT018 27/23 A2992 RMK AO2A SCT V BKN SLP127

2010/08/09 15:55
KWRB 091555Z 05008KT 10SM FEW020 33/24 A3003 RMK SLP162

2010/08/09 16:00
MGGT 091600Z 36010KT 9999 SCT017 OVC200 24/18 Q1025 A30/27 PACAYA EN ACTIVIDAD NOSIG

2010/08/09 15:55
MHSC 091555Z AUTO 00000KT 9999 FEW190 26/21 A3001 RMK AO2 SLP123 T02600215 $

2010/08/09 16:00
MYNN 091600Z 17005KT 9999 FEW020 SCT038 BKN080 31/22 A2998

2010/08/09 15:55
PAED 091555Z AUTO 34009KT 10SM OVC070 12/10 A2962 RMK AO2 SLP033 T01240100

2010/08/09 15:50
TJBQ 091550Z 06013G17KT 10SM FEW020 31/25 A2998

2010/08/09 15:56
KGNR 091556Z AUTO VRB04KT 21/17 A2994 RMK AO1 SLP136 T02060172 

2010/08/09 15:56
KP28 091556Z AUTO 16006KT 33/19 A2989 RMK AO2 SLP101 T03330194 PWINO TSNO 

2010/08/09 15:56
KCAE 091556Z 08007KT 9SM FEW039 33/22 A3003 RMK AO2 SLP164 T03280222 

2010/08/09 15:56
KCDJ 091556Z AUTO 15010G17KT 28/22 A2993 RMK AO2 SLP117 T02780222 PWINO TSNO 

2010/08/09 15:56
KNQI 091556Z 14008KT 10SM BKN041 35/24 A2994 RMK AO2 SLP135 T03500244 

2010/08/09 15:56
KNTU 091556Z 10006KT 10SM FEW030 BKN200 29/22 A3004 RMK AO2 SLP176 T02890217 $ 

2010/08/09 15:56
KNGP 091556Z 13007KT 10SM SCT023 BKN028 BKN039 31/24 A2995 RMK AO2 SLP140 T03100242 VISNO $ 

2010/08/09 15:56
KNFE 091556Z AUTO 08005KT 1 3/4SM HZ CLR 31/21 A3005 RMK AO2 SLP176 T03110206 $ 

2010/08/09 15:56
KNCA 091556Z 08004KT 10SM SCT030 BKN080 32/24 A3004 RMK AO2 SLP173 T03170239 $ 

2010/08/09 15:56
PHBK 091556Z AUTO 00000KT 10SM CLR 23/16 A3007 RMK AO2 SLP184 T02280156 TSNO $ 

2010/08/09 15:55
KDLH 091555Z 32003KT 10SM FEW005 26/21 A2993 RMK AO2 SLP129 T02610211

2010/08/09 15:55
KEAT 091555Z AUTO 32007KT 10SM CLR 21/10 A2983 RMK AO2 SLP095 T02060100

2010/08/09 15:55
KEDC 091555Z AUTO 19007KT 10SM CLR 30/22 A2999 RMK AO1

2010/08/09 15:55
KEIK 091555Z AUTO 36004KT 10SM BKN110 23/13 A3013 RMK AO2

2010/08/09 15:55
KEOE 091555Z AUTO 00000KT 10SM SCT036 32/22 A3008 RMK AO2

2010/08/09 15:55
KFMH 091555Z AUTO 24010KT 9SM BKN013 27/22 A3001 RMK AO2

2010/08/09 15:55
KGPI 091555Z 00000KT 10SM CLR 18/10 A2991 RMK AO2 SLP117 T01830100

2010/08/09 15:55
KHVS 091555Z AUTO 08006KT 7SM CLR 32/23 A3006 RMK AO2

2010/08/09 15:55
KIFP 091555Z AUTO 00000KT 10SM CLR 27/10 A2987 RMK AO2

2010/08/09 15:55
KIRK 091555Z AUTO 13005KT 10SM CLR 23/21 A2994 RMK AO2 TSE1459B02E17B19E34 SLP132 P0001 T02330211

2010/08/09 15:55
KLIC 091555Z AUTO 14008KT 10SM CLR 24/14 A3014 RMK AO2 SLP126 T02440139

2010/08/09 15:55
KLLJ 091555Z AUTO 00000KT 10SM BKN090 16/11 A3004 RMK AO2 SLP115 T01610111

2010/08/09 15:55
KLQK 091555Z AUTO 20005KT 10SM CLR 32/21 A3009 RMK AO2 T03200212 PNO

2010/08/09 15:55
KLRF 091555Z AUTO 00000KT 10SM CLR 33/25 A2997 RMK AO2 SLP148 T03270253

2010/08/09 15:56
PAAK 091556Z AUTO 27018G23KT 1 3/4SM OVC003 08/06 A2960 RMK AO1 PNO

2010/08/09 15:56
PACM 091556Z AUTO 14011G15KT 6SM +RA BR BKN015 BKN028 OVC085 10/08 A2923 RMK AO2 TSNO T01000083 BKN V SCT P0000 SLP894 $

2010/08/09 15:56
PAHP 091556Z AUTO 10014KT 5SM FEW005 BKN012 OVC027 09/08 A2918 RMK AO1 PNO TSNO

2010/08/09 15:55
PGUA 091555Z AUTO 15004KT 10SM BKN075 24/24 A2991 RMK AO2 CLDS LWR RWY24L SLP111 T02440244 VISNO RWY24L $

2010/08/09 15:56
K1M4 091556Z AUTO 20006KT 10SM FEW033 33/24 A3005 RMK AO2 T03330238 SLP169

2010/08/09 15:56
KAND 091556Z AUTO VRB04KT 10SM CLR 32/21 A3007 RMK AO2 SLP170 T03170206

2010/08/09 15:56
KCEC 091556Z AUTO 31003KT 5SM BR OVC006 13/12 A2996 RMK AO2 SLP144 T01280117

2010/08/09 15:56
KDIK 091556Z AUTO 32007G15KT 10SM FEW120 24/13 A2990 RMK AO2 PK WND 29026/1532 LTG DSNT NE TSB37E52 SLP108 T02440128

2010/08/09 15:56
KDUG 091556Z AUTO 00000KT 10SM CLR 24/18 A3010 RMK AO2 SLP123 T02390183

2010/08/09 15:56
KDUJ 091556Z AUTO 00000KT 10SM CLR 27/16 A3008 RMK AO2 SLP172 T02670156

2010/08/09 15:56
KEAU 091556Z 34006KT 8SM OVC011 27/23 A2990 RMK AO2 SLP117 T02720233

2010/08/09 15:56
KEKO 091556Z AUTO 21011G17KT 10SM SCT100 23/03 A3003 RMK AO2 SLP109 T02280028

2010/08/09 15:55
KFAF 091555Z AUTO 25004KT 10SM CLR 29/29 A3005 RMK AO2 SLP176 T02910288 $

2010/08/09 15:55
KFBG 091555Z 09005KT 7SM FEW030 FEW150 32/21 A3004 RMK AO2A SLP170 WND DATA ESTMD ALSTG/SLP ESTMD

2010/08/09 15:56
KGRD 091556Z AUTO 00000KT 10SM CLR 32/22 A3008 RMK AO2 SLP176 T03170222

2010/08/09 15:55
KGTB 091555Z AUTO 26008KT 10SM CLR 27/20 A2996 RMK AO2 SLP143 T02660198

2010/08/09 15:55
KGUS 091555Z 20006KT 10SM FEW048 29/23 A2999 RMK AO2A SLP152 T02910227

2010/08/09 15:55
KHFF 091555Z AUTO VRB03KT 10SM FEW035 32/21 A3006 RMK AO2 SLP176 T03190214 $

2010/08/09 15:56
KIGX 091556Z AUTO 00000KT 10SM CLR 32/19 A3006 RMK AO2 SLP173 T03220194 $

2010/08/09 15:56
KJMS 091556Z AUTO 21005KT 10SM CLR 29/21 A2989 RMK AO2 SLP112 T02890206

2010/08/09 15:56
KLNR 091556Z AUTO 30006KT 10SM SCT018 27/21 A2993 RMK AO2 SLP124 T02670211

2010/08/09 15:56
KM19 091556Z AUTO 24004KT 10SM CLR A2998 RMK AO2 SLPNO $

2010/08/09 15:56
KMOB 091556Z 05007KT 10SM FEW035 SCT200 32/24 A3000 RMK AO2 SLP156 T03170239

2010/08/09 15:56
KMQY 091556Z 00000KT 10SM SCT040 SCT046 BKN060 36/24 A3002 RMK AO2 T03550244 SLP154 $

2010/08/09 15:56
KMRH 091556Z AUTO 35005KT 10SM BKN018 OVC027 28/24 A3005 RMK AO2 SLP176 T02780239 TSNO

2010/08/09 15:53
KNQX 091553Z 19007KT 10SM -RA FEW026CB SCT075 BKN100 OVC200 28/24 A2996 RMK AO2 SLP143 CB E MOV SW T1 SET P0002 T02780239 $

2010/08/09 15:52
KNRB 091552Z 05011KT 10SM FEW018 BKN030 BKN065 32/25 A2998 RMK AO2 RAB36E47 SLP151 P0000 T03170250

2010/08/09 15:56
KOFK 091556Z AUTO 00000KT 10SM OVC010 24/21 A2993 RMK AO2 CIG 007V012 SLP124 T02390206

2010/08/09 15:55
KOZR 091555Z AUTO 07011KT 10SM CLR 33/26 A3000 RMK AO2 SLP156 T03270257

2010/08/09 15:56
KRDM 091556Z VRB04KT 10SM CLR 18/08 A2995 RMK AO2 SLP118 T01780078

2010/08/09 15:56
KSFO 091556Z 18006KT 10SM FEW010 OVC015 16/11 A2992 RMK AO2 SLP133 BINOVC T01560106

2010/08/09 15:56
KSLE 091556Z 34006KT 10SM FEW017 OVC022 15/09 A2999 RMK AO2 SLP155 T01500094

2010/08/09 15:56
KSRC 091556Z AUTO VRB03KT CLR 34/26 A2998 RMK AO2 TSNO T03380255 SLP152 $

2010/08/09 15:55
KSSC 091555Z 05005KT 10SM CLR 32/23 A3003 RMK AO2A SLP168 T03200230 $

2010/08/09 15:56
KUKI 091556Z AUTO VRB03KT 10SM FEW004 14/12 A2990 RMK AO2 SLP119 T01390117

2010/08/09 15:56
KFPK 091556Z AUTO 23003KT 10SM -RA SCT008 BKN042 OVC120 22/21 A2996 RMK AO2

2010/08/09 15:55
KCVX 091555Z AUTO 06004KT 7SM SCT012 OVC021 24/21 A2989 RMK AO2

2010/08/09 15:54
KMOP 091554Z AUTO 22006KT 10SM CLR 25/23 A2990 RMK AO2

2010/08/09 15:54
KFKS 091554Z AUTO 27003KT 7SM SCT036 SCT046 BKN055 26/21 A2987 RMK AO2

2010/08/09 15:54
KCAD 091554Z AUTO 25007KT 10SM CLR 25/21 A2991 RMK AO2

2010/08/09 15:55
KMGN 091555Z AUTO 07008KT 10SM SCT009 OVC020 23/21 A2989 RMK AO2

2010/08/09 15:55
KSLH 091555Z AUTO 16006KT 5SM -RA SCT022 BKN032 OVC050 21/20 A2990 RMK AO2

2010/08/09 15:55
KSJX 091555Z AUTO 09007KT 7SM BKN005 22/21 A2989 RMK AO2

2010/08/09 15:55
KHAI 091555Z AUTO 35003G16KT 10SM RA SCT024 SCT030 BKN042 23/21 A3000 RMK AO2

2010/08/09 15:56
KLWA 091556Z AUTO 18005KT 10SM -RA SCT045 SCT050 SCT120 23/22 A2997 RMK AO2

2010/08/09 15:57
KDRM 091557Z AUTO 17004KT 10SM SCT065 23/20 A2992 RMK AO2

2010/08/09 15:54
KVLL 091554Z AUTO 24006KT 10SM SCT070 28/18 A2998 RMK AO2

2010/08/09 15:55
KGOV 091555Z AUTO 00000KT 4SM BR OVC008 24/22 A2991 RMK AO2

2010/08/09 15:54
KPZQ 091554Z AUTO 16005KT 3SM RA SCT011 SCT021 OVC090 20/19 A2993 RMK AO2

2010/08/09 15:55
KCFS 091555Z AUTO 21003KT 5SM BR SCT060 SCT070 SCT080 24/22 A2992 RMK AO2

2010/08/09 15:54
KHYX 091554Z AUTO 24005KT 10SM SCT120 25/20 A2990 RMK AO2

2010/08/09 15:55
KOZW 091555Z AUTO 22005KT 10SM CLR 26/20 A2996 RMK AO2

2010/08/09 15:55
KRNP 091555Z AUTO 21005KT 10SM SCT013 SCT120 24/21 A2994 RMK AO2

2010/08/09 15:55
KDUH 091555Z AUTO 26004KT 10SM CLR 28/18 A2998 RMK AO2

2010/08/09 15:55
KISQ 091555Z AUTO 10004KT 10SM OVC010 25/21 A2987 RMK AO2

2010/08/09 15:55
KJYM 091555Z AUTO 00000KT 10SM CLR 27/19 A2999 RMK AO2

2010/08/09 16:05
KBAX 091605Z AUTO 23009KT 5SM HZ CLR 23/21 A2992 RMK AO2

2010/08/09 15:55
KIRS 091555Z AUTO 17005KT 10SM CLR 26/21 A2999 RMK AO2

2010/08/09 15:54
KAMN 091554Z AUTO 21009KT 10SM CLR 24/21 A2992 RMK AO2

2010/08/09 15:55
KACB 091555Z AUTO 00000KT 5SM HZ BKN017 BKN029 BKN037 28/23 A2986 RMK AO2

2010/08/09 15:55
KRQB 091555Z AUTO 21004KT 10SM SCT085 26/21 A2991 RMK AO2

2010/08/09 15:55
KERY 091555Z AUTO 14006KT 10SM OVC036 24/21 A2990 RMK AO2

2010/08/09 15:55
KOEB 091555Z AUTO 28004KT 10SM CLR 26/21 A3000 RMK AO2

2010/08/09 15:57
K4I3 091557Z AUTO 23004KT 10SM CLR 28/19 A3005 RMK AO2

2010/08/09 15:55
KAUM 091555Z AUTO 27005KT 10SM CLR 27/22 A2993 RMK AO2

2010/08/09 15:55
KFFX 091555Z AUTO 20009KT 10SM SCT008 BKN100 OVC120 25/22 A2992 RMK AO2

2010/08/09 15:54
KCNB 091554Z AUTO 35003KT 10SM CLR 27/21 A2993 RMK AO2 T02710211

2010/08/09 15:55
KCKN 091555Z AUTO 19007KT 10SM CLR 27/20 A2987 RMK AO2

2010/08/09 16:03
KCFE 091603Z AUTO 01003KT 10SM CLR 29/23 A2994 RMK AO2 T02850230

2010/08/09 15:57
KCQM 091557Z AUTO 00000KT 10SM CLR 24/20 A2992 RMK AO2

2010/08/09 15:55
KDTL 091555Z AUTO 27005KT 10SM CLR 26/16 A2995 RMK AO2

2010/08/09 15:55
KBDH 091555Z AUTO 00000KT 10SM CLR 28/21 A2993 RMK AO2

2010/08/09 15:55
KCBG 091555Z AUTO 00000KT 10SM SCT010 27/23 A2992 RMK AO2

2010/08/09 15:57
KADC 091557Z AUTO 30004KT 10SM CLR 27/16 A2993 RMK AO2

2010/08/09 15:55
KHAF 091555Z AUTO 20005KT 2 1/2SM BR OVC009 12/11 A2995 RMK AO2

2010/08/09 15:55
KCKC 091555Z AUTO 28005KT 10SM CLR 26/17 A2992 RMK AO2

2010/08/09 15:55
KJYG 091555Z AUTO 00000KT 10SM CLR 28/26 A2993 RMK AO2

2010/08/09 15:56
KCOQ 091556Z AUTO 26003KT 10SM CLR 24/21 A2993 RMK AO2

2010/08/09 15:58
KACQ 091558Z AUTO 25006KT 10SM SCT016 SCT120 27/22 A2995 RMK AO2

2010/08/09 15:55
KRGK 091555Z AUTO 00000KT 10SM CLR 29/22 A2990 RMK AO2

2010/08/09 15:54
KFSE 091554Z AUTO 23005KT 10SM CLR 26/18 A2989 RMK AO2

2010/08/09 15:55
KY70 091555Z AUTO 20005KT 10SM -DZ SCT036 SCT047 SCT075 23/22 A2993 RMK AO2 T02340219

2010/08/09 15:50
KUKT 091550Z AUTO 26006KT 10SM CLR 30/19 A3004 RMK AO1

2010/08/09 15:55
KLRO 091555Z AUTO 00000KT 9SM SCT028 29/24 A3001 RMK AO2

2010/08/09 15:55
KLUX 091555Z AUTO 00000KT 10SM SCT037 31/26 A3007 RMK AO2

2010/08/09 15:53
KLXV 091553Z AUTO 20003KT 10SM FEW100 13/07 A3042 RMK AO2 SLP128 T01330072 TSNO

2010/08/09 15:55
KMKG 091555Z 18012KT 10SM FEW008 SCT055 BKN110 24/23 A2991 RMK AO2 RAB15E44 SLP123 P0001 T02440228

2010/08/09 15:55
KMKS 091555Z AUTO 06006KT 10SM CLR 32/22 A3002 RMK AO2 TSNO

2010/08/09 15:53
KMSN 091553Z VRB04KT 10SM FEW016 SCT100 25/21 A2992 RMK AO2 SLP127 T02500211

2010/08/09 15:53
KMWT 091553Z AUTO 00000KT 10SM CLR 32/23 A2998 RMK AO2 SLP137 T03220233 TSNO

2010/08/09 15:55
KNQA 091555Z COR 00000KT 10SM SCT100 BKN250 33/27 A2998 RMK

2010/08/09 15:55
KO22 091555Z AUTO 00000KT 10SM CLR 23/08 A2993 RMK AO1

2010/08/09 15:53
KOVE 091553Z AUTO 22003KT 10SM CLR 18/12 A2990 RMK AO2 SLP125 T01830122 TSNO $

2010/08/09 15:55
KRBW 091555Z AUTO 06008KT 10SM CLR 31/22 A3003 RMK AO2

2010/08/09 15:55
KRCE 091555Z AUTO 19011G17KT 10SM CLR 33/22 A2994 RMK AO2

2010/08/09 15:53
KRIL 091553Z AUTO 00000KT 10SM -RA FEW044 OVC085 17/11 A3022 RMK AO2 SLP172 P0001 T01670111 TSNO

2010/08/09 15:55
KRNO 091555Z 00000KT 10SM CLR 19/06 A3003 RMK AO2 SLP123 T01890056

2010/08/09 15:54
KROA 091554Z 18003KT 8SM CLR 29/21 A3009 RMK AO2 SLP176 T02890206

2010/08/09 15:53
KSAV 091553Z 03012G17KT 10SM FEW030 SCT250 33/21 A3001 RMK AO2 SLP160 T03280211

2010/08/09 15:55
KSCK 091555Z 34006KT 10SM CLR 18/12 A2989 RMK AO2 SLP120 T01780122

2010/08/09 15:53
KSGR 091553Z VRB03KT 10SM BKN031 32/24 A2998 RMK AO2 SLP158 T03220239

2010/08/09 15:55
KSMS 091555Z AUTO 11004KT 5SM HZ CLR 31/24 A3005 RMK AO2

2010/08/09 15:53
KTLH 091553Z 05010G16KT 10SM FEW050 32/21 A2998 RMK AO2 SLP149 T03220206

2010/08/09 15:55
KTME 091555Z AUTO 00000KT 10SM FEW033 32/27 A2999 RMK AO2

2010/08/09 15:53
KTRI 091553Z VRB04KT 10SM FEW065 SCT150 31/19 A3010 RMK AO2 SLP174 T03060194

2010/08/09 15:53
KTYS 091553Z 22008KT 9SM CLR 31/22 A3006 RMK AO2 SLP164 T03110222

2010/08/09 15:55
KUTA 091555Z AUTO 00000KT 10SM CLR 32/24 A2998 RMK AO2

2010/08/09 16:00
KVTP 091600Z AUTO 27004KT 10SM OVC085 14/07 A3046 RMK AO2

2010/08/09 15:50
KWYS 091550Z AUTO 00000KT 10SM BKN100 13/10 A3015 RMK AO2

2010/08/09 15:53
KLAX 091553Z 28004KT 7SM OVC014 17/13 A2993 RMK AO2 SLP135 T01720128 $

2010/08/09 15:55
K0A9 091555Z AUTO VRB05KT 10SM FEW041 31/20 A3010 RMK

2010/08/09 15:56
K20V 091556Z AUTO 00000KT 10SM BKN080 OVC120 16/05 A3029 RMK AO2

2010/08/09 15:53
K4BM 091553Z AUTO 22004KT 7SM -DZ 08/07 A3055 RMK AO2

2010/08/09 15:52
K5SM 091552Z AUTO 23003KT 10SM 09/06 A3051 RMK AO2

2010/08/09 15:54
K7BM 091554Z AUTO 12005KT 10SM OVC090 16/10 A3043 RMK AO2

2010/08/09 15:52
KABI 091552Z 21010KT 10SM SCT080 31/22 A3000 RMK AO2 SLP129 T03110222

2010/08/09 15:55
KARW 091555Z AUTO 05012KT 7SM CLR 32/21 A3001 RMK AO2

2010/08/09 15:55
KBDN 091555Z AUTO 00000KT 10SM CLR 17/09 A2998 RMK AO2

2010/08/09 15:58
KBDU 091558Z AUTO 05003KT 10SM -RA SCT025 BKN070 OVC110 23/15 A3014 RMK AO2

2010/08/09 15:49
KBJC 091549Z 34006KT 40SM FEW080 BKN110 BKN140 24/09 A3016

2010/08/09 15:56
KBMI 091556Z 22004KT 10SM CLR 28/23 A2997 RMK AO2 T02830227 SLP132 $

2010/08/09 15:56
KBOK 091556Z AUTO 00000KT 7SM SCT003 12/12 A2995 RMK AO2 T01160116 SLP144

2010/08/09 15:53
KBTR 091553Z 32004KT 10SM SCT030 33/25 A2998 RMK AO2 SLP149 T03280250

2010/08/09 15:54
KBTV 091554Z 22003KT 10SM -RA BKN050 OVC060 25/19 A2995 RMK AO2 RAB47 SLP139 P0000 T02500189

2010/08/09 15:57
KCCU 091557Z AUTO 15006KT 10SM SCT037 OVC080 13/06 A3057 RMK AO2

2010/08/09 15:55
KCEF 091555Z AUTO 20006KT 10SM BKN090 30/19 A2998 RMK AO2 DZB1530E1540 SLP151 P0000 T03020194

2010/08/09 15:53
KCHA 091553Z VRB06KT 10SM FEW030 SCT100 32/23 A3005 RMK AO2 SLP164 T03170228

2010/08/09 15:55
KCMA 091555Z 00000KT 7SM OVC006 16/13 A2993 RMK AO2 SLP144 T01560128

2010/08/09 15:55
KCNK 091555Z AUTO 00000KT 10SM CLR 32/21 A2988 RMK AO2 SLP098 T03170206

2010/08/09 16:02
KCPW 091602Z AUTO 22006KT 7SM OVC002 08/07 A3057 RMK AO2

2010/08/09 15:53
KDAB 091553Z 08009KT 10SM SCT020 SCT028 BKN070 31/24 A2995 RMK AO2 SLP141 T03060244

2010/08/09 15:55
KDCM 091555Z AUTO 00000KT 7SM CLR 31/27 A3007 RMK AO2

2010/08/09 15:54
KCDA 091554Z AUTO 22004KT 10SM SCT038 SCT045 BKN060 25/16 A2999 RMK AO2

2010/08/09 15:53
KPQN 091553Z AUTO 14004KT 10SM CLR 28/22 A2994 RMK AO2

2010/08/09 15:54
KFGN 091554Z AUTO 16003KT 10SM CLR 23/20 A2987 RMK AO2

2010/08/09 15:53
KPNM 091553Z AUTO 00000KT 7SM OVC005 25/24 A2993 RMK AO2

2010/08/09 15:53
KPWC 091553Z AUTO 21003KT 10SM CLR 26/19 A2994 RMK AO2

2010/08/09 15:53
KFFM 091553Z AUTO 25003KT 10SM CLR 27/19 A2990 RMK AO2

2010/08/09 15:52
KGDB 091552Z AUTO 02003KT 10SM CLR 28/22 A2993 RMK AO2 T02790215

2010/08/09 15:53
KAIT 091553Z AUTO 00000KT 10SM CLR 28/23 A2992 RMK AO2

2010/08/09 15:53
KGHW 091553Z AUTO 09003KT 10SM CLR 29/16 A2997 RMK AO2

2010/08/09 15:53
KMWM 091553Z AUTO 00000KT 10SM CLR 27/22 A2992 RMK AO2

2010/08/09 15:54
KULM 091554Z AUTO 00000KT 10SM CLR 27/22 A2991 RMK AO2

2010/08/09 15:53
KBBB 091553Z AUTO 09003KT 10SM CLR 29/20 A2996 RMK AO2

2010/08/09 15:53
KTWM 091553Z AUTO 16006KT 10SM SCT100 23/19 A2990 RMK AO2

2010/08/09 15:55
KMGG 091555Z AUTO 00000KT 10SM CLR 29/24 A2993 RMK AO2 T02860239

2010/08/09 15:49
KMOX 091549Z AUTO 00000KT 10SM CLR 28/19 A2989 RMK AO2

2010/08/09 15:56
PASM 091556Z AUTO 14012G19KT 4SM BKN004 OVC012 09/08 A2930 RMK AO1 PNO

2010/08/09 15:56
PASX 091556Z AUTO 00000KT 10SM OVC065 12/10 A2962 RMK AO1 PNO

2010/08/09 15:56
PATG 091556Z AUTO 18019KT 2SM OVC004 10/09 A2942 RMK AO1 PNO

2010/08/09 15:56
PAUN 091556Z AUTO 11007KT 8SM SCT048 BKN060 OVC075 12/09 A2936 RMK AO1 PNO

2010/08/09 15:56
PAVD 091556Z 09003KT 1 1/2SM SCT001 BKN020 OVC030 10/08 A2982 RMK AO1 1547Z WEA

2010/08/09 15:56
PAWG 091556Z 13003KT 4SM SCT000 BKN020 OVC040 12/11 A3000 RMK AO1 WEA

2010/08/09 15:56
PAWN 091556Z AUTO 02009KT 10SM OVC085 12/08 A2949 RMK AO1 PNO

2010/08/09 15:56
PAWS 091556Z AUTO 06005KT 10SM OVC070 13/09 A2963 RMK AO1 PNO

2010/08/09 15:56
PAZK 091556Z AUTO 10SM CLR RMK AO1 PNO

2010/08/09 15:56
PAAK 091556Z AUTO 27018G23KT 1 3/4SM OVC003 08/06 A2960 RMK AO1 PNO

2010/08/09 15:56
PABL 091556Z AUTO 10009KT 10SM OVC090 12/10 A2941 RMK AO1 PNO

2010/08/09 15:56
PABV 091556Z AUTO 00000KT 10SM OVC080 12/09 A2963 RMK AO1 PNO

2010/08/09 15:56
PACM 091556Z AUTO 14011G15KT 6SM +RA BR BKN015 BKN028 OVC085 10/08 A2923 RMK AO2 TSNO T01000083 BKN V SCT P0000 SLP894 $

2010/08/09 15:56
PADK 091556Z 29018KT 6SM BKN028 OVC035 10/07 A2968 RMK AO1 PNO

2010/08/09 15:50
PADT 091550Z 02005KT 20SM BKN020 BKN060 09/08 A2972 RMK MNM08 NOSPECI

2010/08/09 15:56
PAEM 091556Z AUTO 12011KT 10SM SCT009 OVC016 10/07 A2925 RMK AO1 PNO

2010/08/09 15:56
PAFE 091556Z AUTO 16003KT 10SM FEW008 SCT016 OVC030 12/10 A3002 RMK AO1 PNO

2010/08/09 15:56
PAFM 091556Z AUTO 08004KT 10SM SCT049 BKN070 OVC110 12/07 A2951 RMK AO1 PNO

2010/08/09 15:56
PAGL 091556Z AUTO 15014KT 10SM SCT023 BKN032 OVC042 13/09 A2937 RMK AO1 PNO

2010/08/09 15:56
PAGM 091556Z AUTO 04014KT 1SM OVC002 09/07 A2925 RMK AO1

2010/08/09 15:56
PAGS 091556Z AUTO 00000KT 10SM OVC030 12/12 A2996 RMK AO1 PNO

2010/08/09 15:56
PAHP 091556Z AUTO 10014KT 5SM FEW005 BKN012 OVC027 09/08 A2918 RMK AO1 PNO TSNO

2010/08/09 15:56
PAHY 091556Z AUTO 00000KT 10SM SCT034 OVC055 13/11 A3000 RMK AO1 PNO

2010/08/09 15:56
PAII 091556Z AUTO 12004KT 7SM OVC025 10/09 A2957 RMK AO1 PNO

2010/08/09 15:56
PAIN 091556Z AUTO 18004KT 10SM OVC048 11/07 A2962 RMK AO1 PNO

2010/08/09 15:56
PAJC 091556Z AUTO 22009G14KT 10SM SCT018 OVC029 13/07 A2954 RMK AO1 PNO

2010/08/09 15:56
PAKK 091556Z AUTO 08005KT 9SM OVC018 12/10 A2934 RMK AO1 PNO

2010/08/09 15:56
PAKP 091556Z AUTO 03005KT 1/2SM OVC003 07/06 A2960 RMK AO1

2010/08/09 15:50
PALR 091550Z 05012KT 10SM FEW030 SCT090 BKN120 10/05 A2969 RMK ACSL S-SW

2010/08/09 15:56
PAMD 091556Z AUTO 11007KT 1/4SM BKN003 OVC021 12/11 A2976 RMK AO1 PNO

2010/08/09 15:56
PAMH 091556Z RMK AO1 PNO

2010/08/09 15:56
PAMM 091556Z AUTO 00000KT 10SM BKN028 OVC032 13/10 A3004 RMK AO1 PNO

2010/08/09 15:56
PAMY 091556Z 15008KT 10SM FEW027 OVC050 08/07 A2916 RMK AO1

2010/08/09 15:56
PANI 091556Z AUTO 11004KT 10SM FEW011 BKN060 OVC080 12/10 A2940 RMK AO1 PNO

2010/08/09 15:56
PANV 091556Z AUTO 18004KT 1 3/4SM SCT006 OVC011 10/09 A2939 RMK AO1 PNO

2010/08/09 15:56
PAOU 091556Z AUTO 00000KT 7SM OVC019 11/08 A2953 RMK AO2 PWINO TSNO T01110083 SLP002 $

2010/08/09 15:56
PAPG 091556Z 00000KT 4SM SCT004 BKN014 OVC032 11/11 A3000 RMK AO1 WEA

2010/08/09 15:56
PAPH 091556Z AUTO 00000KT 9SM FEW029 OVC039 11/09 A2953 RMK AO1 PNO

2010/08/09 15:56
PAPN 091556Z AUTO 14005KT 7SM OVC034 11/10 A2954 RMK AO2 PWINO TSNO T01050100 SLP005

2010/08/09 15:56
PARC 091556Z AUTO 05009KT 10SM CLR 08/03 A2968 RMK AO1 PNO

2010/08/09 15:56
PASA 091556Z AUTO 06011KT 1/2SM OVC004 10/08 A2924 RMK AO1 PNO

2010/08/09 15:56
PASD 091556Z 18010KT 6SM BKN015 OVC022 11/08 A2960 RMK AO1 WEA

2010/08/09 15:56
PASH 091556Z AUTO 07009KT 10SM OVC070 14/11 A2939 RMK AO1 PNO

2010/08/09 15:56
PASK 091556Z AUTO 07014G19KT 10SM SCT048 OVC055 13/10 A2944 RMK AO1 PNO

2010/08/09 15:56
PASL 091556Z AUTO 13003KT 3SM OVC010 11/09 A2949 RMK AO1 PNO

2010/08/09 15:55
PALU 091555Z AUTO 06018KT 3SM 08/08 A2960 RMK AO1 T00830078

2010/08/09 15:55
PAIM 091555Z AUTO 04008KT 020V080 10SM SCT090 13/09 A2950 RMK AO1 8 T01280095

2010/08/09 15:55
PATL 091555Z AUTO 22004KT 5SM OVC008 11/11 A2949 RMK AO1 T01060106

2010/08/09 15:55
PAEH 091555Z AUTO 17015G34KT 140V200 3SM OVC005 09/08 RMK AO1 0 T00890078

2010/08/09 15:55
PASV 091555Z AUTO 00000KT 10SM SCT025 OVC041 10/08 A2950 RMK AO1 T01000084

2010/08/09 15:54
KDMH 091554Z AUTO 33/21 A3001 RMK AO2 SLP163 T03280211 PWINO TSNO

2010/08/09 15:54
KRIC 091554Z 00000KT 10SM SCT055 SCT250 32/19 A3004 RMK AO2 SLP176 T03220194

2010/08/09 15:54
KAVP 091554Z AUTO 31007KT 10SM CLR 31/14 A3003 RMK AO2 SLP157 T03060139 TSNO

2010/08/09 15:54
KNAK 091554Z AUTO 13011KT 6SM HZ CLR 27/23 A3002 RMK AO2 SLP169 T02720233 TSNO

2010/08/09 15:54
KACY 091554Z 23004KT 10SM CLR 31/19 A3004 RMK AO2 SLP171 P0001 T03110189

2010/08/09 15:54
KGSO 091554Z 19004KT 9SM FEW045 31/20 A3008 RMK AO2 SLP172 T03110200

2010/08/09 15:54
KMTP 091554Z AUTO 19007KT 27/21 A3002 RMK AO2 SLP165 T02720211 PWINO TSNO

2010/08/09 15:54
KBKB 091554Z AUTO VRB04KT 10SM CLR 33/24 A2997 RMK AO2 SLP171 T03280239 $

2010/08/09 15:54
KCAR 091554Z AUTO 24006KT 10SM SCT017 OVC023 21/17 A2988 RMK AO2 SLP119 T02110172

2010/08/09 15:54
K12N 091554Z AUTO 23004KT 30/19 A3003 RMK AO2 SLP158 T03000194 PWINO TSNO

2010/08/09 15:54
KFWA 091554Z 28004KT 9SM FEW150 BKN250 28/21 A3001 RMK AO2 SLP155 T02830211

2010/08/09 15:54
KONZ 091554Z AUTO 24006KT 7SM CLR 28/21 A2996 RMK AO2

2010/08/09 15:53
KTEW 091553Z AUTO 26004KT 10SM CLR 23/20 A2996 RMK AO2

2010/08/09 15:50
KCVH 091550Z AUTO 00000KT 10SM OVC009 14/12 A2995 RMK AO1

2010/08/09 15:56
KDVP 091556Z AUTO 14004KT 10SM CLR 28/21 A2996 RMK AO2 T02800206

2010/08/09 15:54
KDYT 091554Z AUTO 08005KT 10SM SCT006 22/19 A2991 RMK AO2

2010/08/09 15:59
KFSO 091559Z AUTO 23003KT 10SM SCT050 BKN055 OVC065 24/21 A2994 RMK AO2

2010/08/09 15:54
KFBL 091554Z AUTO 34003KT 10SM CLR 28/23 A2993 RMK AO2

2010/08/09 15:58
KLYV 091558Z AUTO 00000KT 10SM SCT014 26/21 A2992 RMK AO2

2010/08/09 15:55
KEFK 091555Z AUTO 25004KT 10SM BKN034 BKN039 OVC060 22/17 A2997 RMK AO2

2010/08/09 15:54
KRRT 091554Z AUTO 09004KT 10SM CLR 24/20 A2988 RMK AO2 TSNO

2010/08/09 15:54
KTOB 091554Z AUTO 24006KT 10SM SCT017 27/23 A2994 RMK AO2

2010/08/09 15:53
KLXL 091553Z AUTO 00000KT 10SM CLR 27/18 A2993 RMK AO2

2010/08/09 15:52
KEVM 091552Z AUTO 00000KT 10SM SCT004 22/20 A2990 RMK AO1

2010/08/09 15:53
KELO 091553Z AUTO 00000KT 10SM CLR 24/19 A2991 RMK AO2

2010/08/09 15:54
KROX 091554Z AUTO 11004KT 10SM CLR 28/23 A2986 RMK AO2

2010/08/09 15:54
KSYN 091554Z AUTO 00000KT 10SM CLR 29/23 A2991 RMK AO2 T02850230

2010/08/09 15:56
KVVV 091556Z AUTO 00000KT 10SM CLR 27/21 A2993 RMK AO2

2010/08/09 15:54
KROS 091554Z AUTO 00000KT 10SM OVC003 24/23 A2993 RMK AO2 T02360230

2010/08/09 15:52
KHCD 091552Z AUTO 00000KT 10SM SCT120 27/21 A2993 RMK AO2 T02700207 TSNO

2010/08/09 15:53
KSGS 091553Z AUTO 01003KT 10SM CLR 29/21 A2991 RMK AO2 T02930212

2010/08/09 15:51
KMJQ 091551Z AUTO 17006KT 10SM BKN020 26/22 A2994 RMK AO2

2010/08/09 15:54
KHCO 091554Z AUTO 13006KT 10SM CLR 29/19 A2986 RMK AO2

2010/08/09 15:53
KLVN 091553Z AUTO 00000KT 10SM CLR 28/22 A2992 RMK AO2

2010/08/09 15:53
KPEX 091553Z AUTO 01004KT 10SM CLR 28/21 A2994 RMK AO2 T02790209

2010/08/09 15:55
KJMR 091555Z AUTO 00000KT 10SM OVC004 23/22 A2995 RMK AO2

2010/08/09 15:54
KJKJ 091554Z AUTO 21006KT 10SM CLR 27/21 A2990 RMK AO2

2010/08/09 15:54
KMVE 091554Z AUTO 07003KT 10SM CLR 28/24 A2991 RMK AO2

2010/08/09 15:53
KTKC 091553Z AUTO 03004KT 10SM CLR 26/22 A2992 RMK AO2 T02640221

2010/08/09 15:53
KGYL 091553Z AUTO 00000KT 10SM CLR 27/21 A2992 RMK AO2 T02710210

2010/08/09 15:54
KDXX 091554Z AUTO 00000KT 10SM CLR 27/23 A2991 RMK AO2

2010/08/09 15:51
KHZX 091551Z AUTO 00000KT 10SM CLR 27/21 A2993 RMK AO2

2010/08/09 15:52
KCDD 091552Z AUTO 00000KT 10SM SCT070 26/23 A2992 RMK AO2

2010/08/09 15:54
KSAZ 091554Z AUTO 00000KT 10SM CLR 28/18 A2994 RMK AO2

2010/08/09 15:50
KONA 091550Z AUTO 00000KT 10SM OVC015 26/21 A2991 RMK AO2

2010/08/09 15:53
KFOZ 091553Z AUTO 00000KT 10SM CLR 27/21 A2992 RMK AO2

2010/08/09 15:53
KAQP 091553Z AUTO 00000KT 10SM CLR 27/23 A2992 RMK AO2

2010/08/09 15:54
KETH 091554Z AUTO 00000KT 10SM CLR 28/19 A2995 RMK AO2

2010/08/09 16:00
KFKA 091600Z AUTO 27005KT 10SM BKN018 BKN110 27/22 A2996 RMK AO2 T02730224

2010/08/09 15:54
KVLL 091554Z AUTO 24006KT 10SM SCT070 28/18 A2998 RMK AO2

2010/08/09 15:55
KGOV 091555Z AUTO 00000KT 4SM BR OVC008 24/22 A2991 RMK AO2

2010/08/09 15:54
KPZQ 091554Z AUTO 16005KT 3SM RA SCT011 SCT021 OVC090 20/19 A2993 RMK AO2

2010/08/09 15:55
KCFS 091555Z AUTO 21003KT 5SM BR SCT060 SCT070 SCT080 24/22 A2992 RMK AO2

2010/08/09 15:54
KHYX 091554Z AUTO 24005KT 10SM SCT120 25/20 A2990 RMK AO2

2010/08/09 15:55
KOZW 091555Z AUTO 22005KT 10SM CLR 26/20 A2996 RMK AO2

2010/08/09 15:55
KRNP 091555Z AUTO 21005KT 10SM SCT013 SCT120 24/21 A2994 RMK AO2

2010/08/09 15:55
KDUH 091555Z AUTO 26004KT 10SM CLR 28/18 A2998 RMK AO2

2010/08/09 15:55
KISQ 091555Z AUTO 10004KT 10SM OVC010 25/21 A2987 RMK AO2

2010/08/09 15:55
KJYM 091555Z AUTO 00000KT 10SM CLR 27/19 A2999 RMK AO2

2010/08/09 15:55
KIRS 091555Z AUTO 17005KT 10SM CLR 26/21 A2999 RMK AO2

2010/08/09 15:54
KAMN 091554Z AUTO 21009KT 10SM CLR 24/21 A2992 RMK AO2

2010/08/09 15:55
KACB 091555Z AUTO 00000KT 5SM HZ BKN017 BKN029 BKN037 28/23 A2986 RMK AO2

2010/08/09 15:55
KRQB 091555Z AUTO 21004KT 10SM SCT085 26/21 A2991 RMK AO2

2010/08/09 15:55
KERY 091555Z AUTO 14006KT 10SM OVC036 24/21 A2990 RMK AO2

2010/08/09 15:55
KOEB 091555Z AUTO 28004KT 10SM CLR 26/21 A3000 RMK AO2

2010/08/09 15:57
K4I3 091557Z AUTO 23004KT 10SM CLR 28/19 A3005 RMK AO2

2010/08/09 15:55
KAUM 091555Z AUTO 27005KT 10SM CLR 27/22 A2993 RMK AO2

2010/08/09 15:55
KFFX 091555Z AUTO 20009KT 10SM SCT008 BKN100 OVC120 25/22 A2992 RMK AO2

2010/08/09 15:54
KCNB 091554Z AUTO 35003KT 10SM CLR 27/21 A2993 RMK AO2 T02710211

2010/08/09 15:55
KCKN 091555Z AUTO 19007KT 10SM CLR 27/20 A2987 RMK AO2

2010/08/09 15:57
KCQM 091557Z AUTO 00000KT 10SM CLR 24/20 A2992 RMK AO2

2010/08/09 15:55
KDTL 091555Z AUTO 27005KT 10SM CLR 26/16 A2995 RMK AO2

2010/08/09 15:55
KBDH 091555Z AUTO 00000KT 10SM CLR 28/21 A2993 RMK AO2

2010/08/09 15:55
KCBG 091555Z AUTO 00000KT 10SM SCT010 27/23 A2992 RMK AO2

2010/08/09 15:57
KADC 091557Z AUTO 30004KT 10SM CLR 27/16 A2993 RMK AO2

2010/08/09 15:55
KHAF 091555Z AUTO 20005KT 2 1/2SM BR OVC009 12/11 A2995 RMK AO2

2010/08/09 15:55
KCKC 091555Z AUTO 28005KT 10SM CLR 26/17 A2992 RMK AO2

2010/08/09 15:55
KJYG 091555Z AUTO 00000KT 10SM CLR 28/26 A2993 RMK AO2

2010/08/09 15:56
KCOQ 091556Z AUTO 26003KT 10SM CLR 24/21 A2993 RMK AO2

2010/08/09 15:58
KACQ 091558Z AUTO 25006KT 10SM SCT016 SCT120 27/22 A2995 RMK AO2

2010/08/09 15:55
KRGK 091555Z AUTO 00000KT 10SM CLR 29/22 A2990 RMK AO2

2010/08/09 15:54
KFSE 091554Z AUTO 23005KT 10SM CLR 26/18 A2989 RMK AO2

2010/08/09 15:55
KY70 091555Z AUTO 20005KT 10SM -DZ SCT036 SCT047 SCT075 23/22 A2993 RMK AO2 T02340219

2010/08/09 15:50
KUKT 091550Z AUTO 26006KT 10SM CLR 30/19 A3004 RMK AO1

2010/08/09 15:54
KCDA 091554Z AUTO 22004KT 10SM SCT038 SCT045 BKN060 25/16 A2999 RMK AO2

2010/08/09 15:53
KPQN 091553Z AUTO 14004KT 10SM CLR 28/22 A2994 RMK AO2

2010/08/09 15:54
KFGN 091554Z AUTO 16003KT 10SM CLR 23/20 A2987 RMK AO2

2010/08/09 15:53
KPNM 091553Z AUTO 00000KT 7SM OVC005 25/24 A2993 RMK AO2

2010/08/09 15:53
KPWC 091553Z AUTO 21003KT 10SM CLR 26/19 A2994 RMK AO2

2010/08/09 15:53
KFFM 091553Z AUTO 25003KT 10SM CLR 27/19 A2990 RMK AO2

2010/08/09 15:52
KGDB 091552Z AUTO 02003KT 10SM CLR 28/22 A2993 RMK AO2 T02790215

2010/08/09 15:53
KAIT 091553Z AUTO 00000KT 10SM CLR 28/23 A2992 RMK AO2

2010/08/09 15:53
KGHW 091553Z AUTO 09003KT 10SM CLR 29/16 A2997 RMK AO2

2010/08/09 15:53
KMWM 091553Z AUTO 00000KT 10SM CLR 27/22 A2992 RMK AO2

2010/08/09 15:54
KULM 091554Z AUTO 00000KT 10SM CLR 27/22 A2991 RMK AO2

2010/08/09 15:53
KBBB 091553Z AUTO 09003KT 10SM CLR 29/20 A2996 RMK AO2

2010/08/09 15:53
KTWM 091553Z AUTO 16006KT 10SM SCT100 23/19 A2990 RMK AO2

2010/08/09 15:55
KMGG 091555Z AUTO 00000KT 10SM CLR 29/24 A2993 RMK AO2 T02860239

2010/08/09 15:49
KMOX 091549Z AUTO 00000KT 10SM CLR 28/19 A2989 RMK AO2

2010/08/09 15:56
KCDJ 091556Z AUTO 15010G17KT 28/22 A2993 RMK AO2 SLP117 T02780222 PWINO TSNO

2010/08/09 16:05
KBAX 091605Z AUTO 23009KT 5SM HZ CLR 23/21 A2992 RMK AO2

2010/08/09 16:03
KCFE 091603Z AUTO 01003KT 10SM CLR 29/23 A2994 RMK AO2 T02850230

2010/08/09 15:53
KOVL 091553Z AUTO 05003KT 10SM CLR 27/20 A2991 RMK AO2 T02670201

2010/08/09 15:52
KLJF 091552Z AUTO 00000KT 10SM CLR 29/24 A2992 RMK AO2

2010/08/09 15:56
KXVG 091556Z AUTO 00000KT 10SM CLR 27/21 A2991 RMK AO2

2010/08/09 15:54
KORB 091554Z AUTO 00000KT 10SM CLR 24/19 A2989 RMK AO2

2010/08/09 15:51
KMZH 091551Z AUTO 00000KT 10SM SCT011 26/22 A2991 RMK AO2

2010/08/09 15:53
KBFW 091553Z AUTO 20005KT 10SM CLR 27/20 A2989 RMK AO2

2010/08/09 15:49
KVWU 091549Z AUTO 28003KT 10SM CLR 27/21 A2989 RMK AO2

2010/08/09 15:50
KAEL 091550Z AUTO 00000KT 10SM CLR 27/22 A2993 RMK AO2

2010/08/09 15:54
KOWA 091554Z AUTO 25004KT 10SM BKN014 26/23 A2992 RMK AO2

2010/08/09 15:53
K29G 091553Z AUTO 22004KT 10SM CLR 27/17 A3004 RMK AO2 T02710169 PWINO

2010/08/09 15:53
KMRT 091553Z AUTO 21005KT 7SM CLR 28/20 A3006 RMK AO2 T02750204

2010/08/09 15:54
KIKW 091554Z AUTO 22004KT 10SM SCT034 SCT055 BKN100 25/21 A2989 RMK AO2 T02530206

2010/08/09 15:53
KRTN 091553Z AUTO 00000KT 10SM CLR 26/12 A3017 RMK AO2 SLP107 T02610122 TSNO

2010/08/09 15:55
KDRA 091555Z AUTO 00000KT 10SM CLR 26/06 A2999 RMK AO2 SLP111 T02560056 TSNO

2010/08/09 15:54
KMWN 091554Z 28023KT 0SM FG VV000 11/11 RMK

2010/08/09 15:54
KRFD 091554Z 22005KT 10SM FEW010 SCT050 BKN150 BKN250 26/21 A2996 RMK AO2 SLP139 T02560206

2010/08/09 15:56
KCHS 091556Z 05011KT 10SM FEW100 32/23 A3001 RMK AO2 SLP163 T03170228

2010/08/09 15:54
KAKQ 091554Z AUTO 00000KT 10SM CLR 30/22 A3006 RMK AO2 SLP176 T03000217 TSNO

2010/08/09 15:56
KSDF 091556Z 17003KT 7SM FEW100 SCT150 SCT200 32/21 A3001 RMK AO2 SLP155 T03220206

2010/08/09 15:56
KJAX 091556Z 06014KT 10SM SCT032 32/23 A2997 RMK AO2 SLP149 T03220233

2010/08/09 15:56
KSHV 091556Z 26007KT 10SM FEW300 33/23 A2998 RMK AO2 SLP146 T03330233

2010/08/09 15:55
KMBG 091555Z AUTO 14012KT 10SM CLR 27/20 A2989 RMK AO2 SLP109 T02720200 TSNO

2010/08/09 15:55
KPHP 091555Z AUTO 15007KT 10SM CLR 29/19 A2993 RMK AO2 SLP112 T02890189 TSNO

2010/08/09 15:55
KINL 091555Z AUTO 08003KT 10SM CLR 25/19 A2989 RMK AO2 SLP121 T02500194

2010/08/09 15:55
KANJ 091555Z AUTO VRB04KT 10SM FEW014 BKN065 24/20 A2989 RMK AO2 SLP118 T02440200

2010/08/09 15:55
KHON 091555Z AUTO 09003KT 10SM CLR 27/21 A2991 RMK AO2 SLP120 T02720206 TSNO

2010/08/09 15:55
KPOE 091555Z AUTO 31005KT 10SM CLR 31/22 A2999 RMK AO2 SLP156 T03110222

2010/08/09 15:56
TJSJ 091556Z 09015G22KT 10SM FEW024 SCT046 SCT085 31/24 A2998 RMK AO2 RAB24E33 SLP151 VCSH SE-S P0000 T03110244

2010/08/09 15:55
KAST 091555Z AUTO 25004KT 7SM SCT011 BKN015 OVC028 14/12 A3000 RMK AO2 RAE01 CIG 009 RWY 08 SLP159 P0000 T01390122

2010/08/09 15:55
KAAT 091555Z AUTO 00000KT 10SM CLR 19/05 A3001 RMK AO2 SLP117 T01890050 TSNO

2010/08/09 15:53
KGNT 091553Z AUTO 36004KT 19/14 A3026 RMK AO2 SLP165 T01940139 PWINO TSNO

2010/08/09 15:55
KVBG 091555Z 04004KT 6SM -DZ BR SCT004 BKN006 OVC010 14/12 A2996 RMK AO2 DZB25 SLP136 P0000 T01390122 $

2010/08/09 15:56
KFPK 091556Z AUTO 23003KT 10SM -RA SCT008 BKN042 OVC120 22/21 A2996 RMK AO2

2010/08/09 15:55
KCVX 091555Z AUTO 06004KT 7SM SCT012 OVC021 24/21 A2989 RMK AO2

2010/08/09 15:54
KMOP 091554Z AUTO 22006KT 10SM CLR 25/23 A2990 RMK AO2

2010/08/09 15:54
KFKS 091554Z AUTO 27003KT 7SM SCT036 SCT046 BKN055 26/21 A2987 RMK AO2

2010/08/09 15:54
KCAD 091554Z AUTO 25007KT 10SM CLR 25/21 A2991 RMK AO2

2010/08/09 15:55
KMGN 091555Z AUTO 07008KT 10SM SCT009 OVC020 23/21 A2989 RMK AO2

2010/08/09 15:55
KSLH 091555Z AUTO 16006KT 5SM -RA SCT022 BKN032 OVC050 21/20 A2990 RMK AO2

2010/08/09 15:55
KSJX 091555Z AUTO 09007KT 7SM BKN005 22/21 A2989 RMK AO2

2010/08/09 15:55
KHAI 091555Z AUTO 35003G16KT 10SM RA SCT024 SCT030 BKN042 23/21 A3000 RMK AO2

2010/08/09 15:56
KLWA 091556Z AUTO 18005KT 10SM -RA SCT045 SCT050 SCT120 23/22 A2997 RMK AO2

2010/08/09 15:57
KDRM 091557Z AUTO 17004KT 10SM SCT065 23/20 A2992 RMK AO2

2010/08/09 15:56
KCAE 091556Z 08007KT 9SM FEW039 33/22 A3003 RMK AO2 SLP164 T03280222

2010/08/09 15:56
KGNR 091556Z AUTO VRB04KT 21/17 A2994 RMK AO1 SLP136 T02060172

2010/08/09 15:56
KP28 091556Z AUTO 16006KT 33/19 A2989 RMK AO2 SLP101 T03330194 PWINO TSNO

2010/08/09 15:56
KNGP 091556Z 13007KT 10SM SCT023 BKN028 BKN039 31/24 A2995 RMK AO2 SLP140 T03100242 VISNO $

2010/08/09 15:56
KNTU 091556Z 10006KT 10SM FEW030 BKN200 29/22 A3004 RMK AO2 SLP176 T02890217 $

2010/08/09 15:56
KNFE 091556Z AUTO 08005KT 1 3/4SM HZ CLR 31/21 A3005 RMK AO2 SLP176 T03110206 $

2010/08/09 15:55
PALU 091555Z AUTO 06018KT 3SM 08/08 A2960 RMK AO1 T00830078

2010/08/09 15:55
PAIM 091555Z AUTO 04008KT 020V080 10SM SCT090 13/09 A2950 RMK AO1 8 T01280095

2010/08/09 15:55
PATL 091555Z AUTO 22004KT 5SM OVC008 11/11 A2949 RMK AO1 T01060106

2010/08/09 15:55
PAEH 091555Z AUTO 17015G34KT 140V200 3SM OVC005 09/08 RMK AO1 0 T00890078

2010/08/09 15:55
PASV 091555Z AUTO 00000KT 10SM SCT025 OVC041 10/08 A2950 RMK AO1 T01000084

2010/08/09 15:54
KWAL 091554Z 15004KT 10SM FEW020 SCT250 29/17 A3006 RMK AO2 SLP174 T02940172

2010/08/09 15:54
KFWA 091554Z 28004KT 9SM FEW150 BKN250 28/21 A3001 RMK AO2 SLP155 T02830211

2010/08/09 15:55
PTTP 091555Z 05008KT 15SM -SHRA BKN018TCU OVC300 27/25 A2985 RMK SHRAB45 TCU ALQDS SLP108 T02690250

2010/08/09 15:54
KOLM 091554Z 22005KT 10SM SCT009 BKN014 OVC030 14/12 A2998 RMK AO2 SLP153 T01390117

2010/08/09 15:54
KOLS 091554Z AUTO 00000KT 10SM CLR 26/17 A3008 RMK AO2 SLP117 T02560172

2010/08/09 15:55
KOLU 091555Z AUTO 8SM CLR 28/22 A2991 RMK AO1

2010/08/09 15:55
KOTG 091555Z AUTO 17005KT 10SM OVC015 25/18 A2996 RMK AO1

2010/08/09 15:55
KOTH 091555Z 35010KT 10SM OVC023 13/11 A3004 RMK AO1

2010/08/09 15:45
KOXC 091545Z 23006KT 7SM SCT040 29/19 A3004

2010/08/09 15:54
KPHF 091554Z 07005KT 9SM CLR 31/22 A3005 RMK AO2 SLP175 T03060217

2010/08/09 15:54
KPHL 091554Z 24007KT 7SM FEW038 SCT250 31/21 A3002 RMK AO2 SLP164 T03060211

2010/08/09 15:55
KPIB 091555Z AUTO 06005KT 10SM SCT023 31/24 A3001 RMK AO1

2010/08/09 15:54
KPLN 091554Z AUTO 13006KT 10SM -RA SCT021 BKN065 22/21 A2990 RMK AO2 RAB10 SLP122 P0031 T02170211

2010/08/09 15:54
KPNE 091554Z 26005KT 10SM CLR 32/21 A3003 RMK AO2 SLP167 T03170211

2010/08/09 15:55
KPQI 091555Z AUTO 26007KT 10SM BKN019 OVC023 20/17 A2986 RMK AO1

2010/08/09 15:55
KPRX 091555Z 24011KT 10SM CLR 33/22 A2996 RMK AO1

2010/08/09 15:54
KPSF 091554Z AUTO 30007KT 10SM FEW044 28/17 A3002 RMK AO2 SLP135 T02830172

2010/08/09 15:55
KPTN 091555Z AUTO 34006KT 10SM CLR 32/17 A3001 RMK AO1

2010/08/09 15:55
KPTV 091555Z AUTO 21005KT 10SM CLR 22/12 A2990 RMK AO1

2010/08/09 15:54
KPTW 091554Z AUTO 19007KT 8SM FEW040 32/20 A3003 RMK AO2 SLP165 T03170200

2010/08/09 15:55
KPVC 091555Z 22014G20KT 10SM CLR 27/22 A2999 RMK AO1

2010/08/09 15:55
KPWG 091555Z AUTO 21010KT 10SM CLR 32/22 A2998 RMK AO1

2010/08/09 15:55
KPWT 091555Z AUTO 23005KT 10SM BKN006 OVC019 14/11 A3000 RMK AO1

2010/08/09 15:54
KRBL 091554Z AUTO VRB03KT 10SM CLR 22/13 A2988 RMK AO2 SLP116 T02170128

2010/08/09 15:54
KRDG 091554Z 00000KT 10SM CLR 31/19 A3001 RMK AO2 SLP162 T03060194

2010/08/09 15:55
KRKD 091555Z AUTO 19005KT 9SM BKN010 23/21 A2993 RMK AO1

2010/08/09 15:54
KRKS 091554Z AUTO 00000KT 10SM FEW110 21/04 A3018 RMK AO2 SLP137 T02060039

2010/08/09 15:54
KRST 091554Z 25004KT 10SM OVC016 26/22 A2995 RMK AO2 SLP133 T02610222

2010/08/09 15:55
KRUT 091555Z 23005KT 10SM SCT041 BKN050 BKN070 27/18 A2998 RMK AO1

2010/08/09 15:54
KSBY 091554Z 25004KT 10SM CLR 31/18 A3004 RMK AO2 SLP176 T03060183

2010/08/09 15:55
KSDY 091555Z AUTO 00000KT 10SM CLR 22/16 A2988 RMK AO1

2010/08/09 15:54
KSET 091554Z AUTO 00000KT 8SM CLR 31/24 A2994 RMK AO2 SLP132 T03110244

2010/08/09 15:55
KSFM 091555Z 28008KT 3SM FEW046 31/18 A2994 RMK AO1

2010/08/09 15:55
KSFZ 091555Z 23004KT 10SM FEW032 29/21 A2998 RMK AO1

2010/08/09 15:55
KSGT 091555Z 31004KT CLR 32/26 A2997 RMK AO1

2010/08/09 15:55
KSGU 091555Z AUTO 12003KT 10SM CLR 21/12 A3004 RMK AO1

2010/08/09 15:54
KSJN 091554Z AUTO 00000KT 10SM OVC100 21/12 A3021 RMK AO2 SLP148 T02060122

2010/08/09 15:55
KSKX 091555Z AUTO 24003KT 10SM SCT120 20/09 A3027 RMK AO1

2010/08/09 15:55
KSLG 091555Z AUTO 18005KT 10SM CLR 33/22 A3001 RMK AO1

2010/08/09 15:55
KSMN 091555Z AUTO 35003KT 10SM BKN120 18/09 A3000 RMK AO1

2010/08/09 15:55
KSPA 091555Z AUTO 27003KT 10SM CLR 31/26 A3007 RMK AO2

2010/08/09 15:55
KSPL 091555Z AUTO 12006KT CLR 32/27 A2993 RMK AO2 PWINO PNO

2010/08/09 15:55
KSQI 091555Z AUTO 27003KT 10SM BKN100 25/22 A2996 RMK AO1

2010/08/09 15:55
KSUE 091555Z AUTO 32006KT 10SM CLR 27/23 A2991 RMK AO1

2010/08/09 15:54
KTAD 091554Z AUTO 01003KT 10SM CLR 23/13 A3015 RMK AO2 SLP128 T02330128

2010/08/09 15:55
KTPL 091555Z 20010KT 10SM CLR 32/23 A2999 RMK AO1

2010/08/09 15:54
KTQE 091554Z AUTO 29003KT 10SM OVC013 27/24 A2986 RMK AO2 SLP098 T02720244

2010/08/09 15:55
KTSP 091555Z AUTO 00000KT 10SM CLR 20/03 A3003 RMK AO2

2010/08/09 15:55
KTVF 091555Z AUTO 16007KT 10SM CLR 28/20 A2986 RMK AO1

2010/08/09 15:56
KUCP 091556Z AUTO VRB04KT 10SM CLR 29/18 A3005 RMK AO2 T02880177 SLP183

2010/08/09 15:54
KUIN 091554Z AUTO 17004KT 10SM CLR 26/22 A2996 RMK AO2 SLP136 T02560217

2010/08/09 15:54
KUZA 091554Z AUTO 32003KT 7SM BKN033 32/22 A3008 RMK AO2 SLP169 T03170217

2010/08/09 15:54
KVAY 091554Z AUTO VRB04KT 10SM CLR 31/19 A3001 RMK AO2 SLP163 T03110189

2010/08/09 15:55
KVBT 091555Z AUTO 22007KT 10SM CLR 33/22 A2999 RMK AO1

2010/08/09 15:55
KVIS 091555Z AUTO 18003KT 10SM CLR 19/14 A2989 RMK AO1

2010/08/09 15:54
KVSF 091554Z AUTO 22005KT 10SM SCT048 BKN060 BKN075 28/17 A2997 RMK AO2 SLP146 T02780172

2010/08/09 15:53
KBAF 091553Z 18006KT 10SM SCT090 32/17 A2998 RMK AO2 SLP146 T03170167

2010/08/09 15:53
KBUR 091553Z 13003KT 6SM HZ CLR 17/12 A2992 RMK AO2 SLP123 T01670122

2010/08/09 15:53
KTOI 091553Z 08005KT 10SM CLR 33/24 A3002 RMK AO2 SLP160 T03280239

2010/08/09 15:53
PHJR 091553Z AUTO VRB05KT 10SM FEW037 BKN047 25/17 A3008 RMK AO2 SLP191 T02500172 TSNO

2010/08/09 15:55
KHEF 091555Z AUTO 19008KT 10SM 31/22 A3003 RMK AO1

2010/08/09 15:55
KHEZ 091555Z AUTO 33003KT 10SM CLR 32/23 A3000 RMK AO1

2010/08/09 15:55
KHNB 091555Z AUTO 20005KT 10SM CLR 32/22 A3000 RMK AO1

2010/08/09 15:54
KHWD 091554Z 24004KT 10SM OVC012 15/12 A2992 RMK AO2 SLP142 T01500117

2010/08/09 15:55
KHYI 091555Z AUTO 00000KT 10SM SCT031 31/23 A2999 RMK AO1

2010/08/09 15:55
KHYS 091555Z AUTO 06008KT 10SM CLR 33/20 A2992 RMK AO1

2010/08/09 15:55
KHYW 091555Z AUTO 04008KT 7SM CLR 31/25 A3004 RMK AO2

2010/08/09 15:55
KILE 091555Z AUTO 17011KT 10SM CLR 32/22 A2998 RMK AO1

2010/08/09 15:54
KILN 091554Z AUTO 15008KT 9SM CLR 29/20 A3005 RMK AO2 SLP162 T02890200

2010/08/09 15:54
KIMT 091554Z AUTO 35003KT 10SM FEW017 28/22 A2988 RMK AO2 SLP114 T02780222

2010/08/09 15:54
KIND 091554Z 23009KT 10SM SCT160 BKN250 32/21 A2999 RMK AO2 SLP146 T03170206

2010/08/09 15:54
KINT 091554Z 24006KT 10SM CLR 31/19 A3008 RMK AO2 SLP173 T03060194

2010/08/09 15:54
KIPT 091554Z VRB04KT 10SM CLR 27/17 A3002 RMK AO2 SLP164 T02720167

2010/08/09 15:54
KISW 091554Z AUTO 24003KT 8SM OVC004 24/22 A2994 RMK AO2 SLP132 T02390222 TSNO

2010/08/09 15:55
KIWD 091555Z AUTO 28006KT 10SM OVC008 23/21 A2991 RMK AO1

2010/08/09 15:54
KIZG 091554Z AUTO VRB05KT 10SM CLR 29/17 A2993 RMK AO2 SLP134 T02940167

2010/08/09 15:55
KJHW 091555Z AUTO 21006KT 10SM CLR 26/18 A3004 RMK AO1 54000

2010/08/09 15:54
KJST 091554Z AUTO 28005KT 10SM CLR 25/13 A3012 RMK AO2 SLP183 T02500128

2010/08/09 15:55
KKLS 091555Z AUTO 25004KT 10SM OVC025 14/11 A2999 RMK AO1

2010/08/09 15:54
KLAF 091554Z 23004KT 8SM CLR 31/23 A2998 RMK AO2 SLP145 T03060228

2010/08/09 15:55
KLBL 091555Z 21005KT 10SM CLR 31/17 A2997 RMK AO1

2010/08/09 15:54
KLBT 091554Z AUTO 07007KT 10SM CLR 32/21 A3004 RMK AO2 SLP170 T03170211

2010/08/09 15:55
KLCI 091555Z AUTO 29008KT 10SM FEW047 29/17 A2994 RMK AO1

2010/08/09 15:55
KLEW 091555Z 26006KT 10SM FEW042 SCT048 27/17 A2995 RMK AO1

2010/08/09 15:55
KLGD 091555Z AUTO 00000KT 10SM OVC110 16/06 A2990 RMK AO1

2010/08/09 15:54
KLNK 091554Z 35005KT 10SM CLR 31/23 A2987 RMK AO2 SLP099 T03060228

2010/08/09 15:55
KLPC 091555Z AUTO 00000KT 10SM OVC007 14/12 A2995 RMK AO1 PNO

2010/08/09 15:54
KLWM 091554Z 24009KT 10SM CLR 31/18 A2996 RMK AO2 SLP145 T03110178

2010/08/09 15:54
KLWT 091554Z AUTO 15003KT 10SM CLR 19/10 A2996 RMK AO2 SLP114 T01940100

2010/08/09 15:55
KMBL 091555Z AUTO 27013G18KT 10SM FEW120 27/19 A2989 RMK AO1

2010/08/09 15:54
KMFI 091554Z AUTO 33007KT 5SM BR OVC005 25/23 A2993 RMK AO2 CIG 005V009 SLP129 T02500233

2010/08/09 15:54
KMGJ 091554Z AUTO 26003KT 10SM CLR 31/17 A3000 RMK AO2 SLP157 T03060172

2010/08/09 15:54
KMIV 091554Z AUTO 18003KT 10SM 32/21 A3002 RMK AO2 SLP163 T03170206 PWINO $

2010/08/09 15:55
KMJX 091555Z AUTO 28006KT 10SM FEW047 33/20 RMK AO1

2010/08/09 15:54
KMKC 091554Z 12007KT 10SM CLR 32/23 A2990 RMK AO2 SLP115 T03220233

2010/08/09 15:55
KMKT 091555Z AUTO 00000KT 10SM BKN120 27/23 A2992 RMK AO1

2010/08/09 15:55
KMML 091555Z AUTO 03005KT 10SM CLR 27/22 A2993 RMK AO1

2010/08/09 15:55
KMNI 091555Z AUTO 36008KT 10SM CLR 31/26 A3003 RMK AO2

2010/08/09 15:55
KMNM 091555Z AUTO 33004KT 8SM SCT021 BKN037 28/23 A2986 RMK AO1

2010/08/09 15:54
KMOT 091554Z 18009KT 10SM CLR 26/18 A2984 RMK AO2 SLP094 T02610178

2010/08/09 15:55
KMRF 091555Z AUTO 13005KT 10SM CLR A3015 RMK AO1

2010/08/09 15:54
KMRY 091554Z 19003KT 10SM OVC007 13/11 A2996 RMK AO2 SLP156 T01280106

2010/08/09 15:55
KMSV 091555Z AUTO 31008KT 10SM CLR 28/16 A3006 RMK AO1

2010/08/09 15:55
KMTW 091555Z 24008KT 10SM CLR 27/21 A2989 RMK AO1

2010/08/09 15:54
KMVL 091554Z AUTO 00000KT 10SM FEW041 BKN050 OVC060 26/19 A2997 RMK AO2 SLP146 T02610189

2010/08/09 15:55
KMVN 091555Z AUTO 21006KT 10SM CLR 33/24 A2997 RMK AO1

2010/08/09 15:54
KOFP 091554Z AUTO 00000KT 10SM CLR 33/19 A3006 RMK AO2 SLP175 T03280189

2010/08/09 15:55
KOKK 091555Z AUTO 20006KT 8SM SCT046 30/21 A2999 RMK AO1 52003

2010/08/09 15:55
KCEF 091555Z AUTO 20006KT 10SM BKN090 30/19 A2998 RMK AO2 DZB1530E1540 SLP151 P0000 T03020194

2010/08/09 15:55
KGRF 091555Z 17005KT 10SM FEW011 BKN018 OVC045 14/11 A2997 RMK AO2A FEW V SCT SLP151 T01420112

2010/08/09 15:55
KHMN 091555Z AUTO 22003KT 10SM CLR 26/15 A3008 RMK AO2 SLP103 T02550148 $

2010/08/09 15:55
KHST 091555Z 13004KT 3SM RA BR BKN012 OVC024 25/24 A2997 RMK AO2A BKN V OVC SLP150 P0015 T02510240

2010/08/09 15:55
KIAB 091555Z AUTO 18006KT 10SM CLR 34/20 A2993 RMK AO2 SLP118 T03400204 $

2010/08/09 15:56
KNSI 091556Z 34006KT 6SM BR OVC008 14/13 A2993 RMK AO2 SLP131 T014440128 TSNO

2010/08/09 15:55
KOFF 091555Z AUTO 26006KT 10SM CLR 29/24 A2986 RMK AO2 SLP094 T02850237 $

2010/08/09 15:55
KSUU 091555Z AUTO 25018KT 10SM BKN008 16/12 A2988 RMK AO2 SLP120 T01570118 RVRNO $

2010/08/09 15:55
KVPS 091555Z 10009KT 10SM FEW030 32/25 A2998 RMK AO2A SLP151 T03180248 $

2010/08/09 15:54
KRSP 091554Z AUTO 33005KT 7SM CLR 28/16 A3009 RMK AO2 SLP176 T02830156 $

2010/08/09 15:54
KNFG 091554Z 08003KT 7SM SCT017 17/13 A2993 RMK AO2 SLP133 T01720128 $

2010/08/09 15:54
KNKT 091554Z 14008KT 10SM SCT014 SCT032 BKN043 27/24 A3006 RMK AO2 RAB23E33 SLP174 P0000 T02670239

2010/08/09 15:54
KBKB 091554Z AUTO VRB04KT 10SM CLR 33/24 A2997 RMK AO2 SLP171 T03280239 $

2010/08/09 15:55
KBAD 091555Z AUTO 00000KT 10SM CLR 33/24 A2998 RMK AO2 SLP153 T03290237

2010/08/09 15:55
KBKF 091555Z 25007KT 70SM FEW080 SCT140 23/13 A3015 RMK SLP145

2010/08/09 15:55
KCBM 091555Z AUTO 26003KT 10SM CLR 33/25 A2999 RMK AO2 SLP155 T03300252 $

2010/08/09 15:55
KDAA 091555Z AUTO VRB05KT 10SM CLR 32/21 A3003 RMK AO2 SLP171 T03200207

2010/08/09 15:53
KDTS 091553Z AUTO 09009KT 10SM CLR 32/25 A2997 RMK AO2 SLP147 T03170250

2010/08/09 15:55
KDYS 091555Z AUTO 19008KT 10SM SCT080 32/22 A2999 RMK AO2 SLP127 T03180221 $

2010/08/09 15:55
KGSB 091555Z AUTO VRB06KT 10SM FEW032 31/22 A3003 RMK AO2 SLP169

2010/08/09 15:55
KLSF 091555Z AUTO 07004KT 10SM FEW037 32/24 A3001 RMK AO2 SLP162 T03240235 PNO $

2010/08/09 15:55
KMGE 091555Z 08003KT 10SM SCT035 BKN150 31/22 A3008 RMK AO2A SLP174 T03130220 $

2010/08/09 15:55
KMUI 091555Z AUTO VRB03KT 10SM CLR 29/21 A3002 RMK AO2 SLP165 T02920210 $

2010/08/09 15:55
KRIV 091555Z AUTO 00000KT 10SM CLR 19/13 A2993 RMK AO2 SLP132 T01940127

2010/08/09 15:55
KWRI 091555Z AUTO 23007KT 10SM FEW170 31/20 A3000 RMK AO2 SLP160 T03120197 $

2010/08/09 15:55
PGUA 091555Z AUTO 15004KT 10SM BKN075 24/24 A2991 RMK AO2 CLDS LWR RWY24L SLP111 T02440244 VISNO RWY24L $

2010/08/09 15:55
KBAD 091555Z AUTO 00000KT 10SM CLR 33/24 A2998 RMK AO2 SLP153 T03290237

2010/08/09 15:55
KBKF 091555Z 25007KT 70SM FEW080 SCT140 23/13 A3015 RMK SLP145

2010/08/09 15:55
KBLV 091555Z AUTO VRB03KT 10SM CLR 31/26 A2996 RMK AO2 SLP140 T03140260

2010/08/09 15:50
KBYH 091550Z 00000KT 8SM BKN250 33/26 A2998

2010/08/09 15:55
KCBM 091555Z AUTO 26003KT 10SM CLR 33/25 A2999 RMK AO2 SLP155 T03300252 $

2010/08/09 15:55
KCEF 091555Z AUTO 20006KT 10SM BKN090 30/19 A2998 RMK AO2 DZB1530E1540 SLP151 P0000 T03020194

2010/08/09 15:55
KDAA 091555Z AUTO VRB05KT 10SM CLR 32/21 A3003 RMK AO2 SLP171 T03200207

2010/08/09 15:55
KGRF 091555Z 17005KT 10SM FEW011 BKN018 OVC045 14/11 A2997 RMK AO2A FEW V SCT SLP151 T01420112

2010/08/09 15:55
KGSB 091555Z AUTO VRB06KT 10SM FEW032 31/22 A3003 RMK AO2 SLP169

2010/08/09 15:55
KHMN 091555Z AUTO 22003KT 10SM CLR 26/15 A3008 RMK AO2 SLP103 T02550148 $

2010/08/09 15:55
KHST 091555Z 13004KT 3SM RA BR BKN012 OVC024 25/24 A2997 RMK AO2A BKN V OVC SLP150 P0015 T02510240

2010/08/09 15:55
KIAB 091555Z AUTO 18006KT 10SM CLR 34/20 A2993 RMK AO2 SLP118 T03400204 $

2010/08/09 15:55
KLRF 091555Z AUTO 00000KT 10SM CLR 33/25 A2997 RMK AO2 SLP148 T03270253

2010/08/09 15:55
KLSF 091555Z AUTO 07004KT 10SM FEW037 32/24 A3001 RMK AO2 SLP162 T03240235 PNO $

2010/08/09 15:55
KMGE 091555Z 08003KT 10SM SCT035 BKN150 31/22 A3008 RMK AO2A SLP174 T03130220 $

2010/08/09 15:55
KMUI 091555Z AUTO VRB03KT 10SM CLR 29/21 A3002 RMK AO2 SLP165 T02920210 $

2010/08/09 15:51
PAEI 091551Z AUTO 00000KT 10SM -RA OVC070 12/10 A2958

2010/08/09 15:51
PAEI 091551Z AUTO 00000KT 10SM -RA OVC070 12/10 A2958 RMK AO2 RAB1551DZE1457 SLP016 $

2010/08/09 15:55
KBAD 091555Z AUTO 00000KT 10SM CLR 33/24 A2998 RMK AO2 SLP153 T03290237

2010/08/09 15:55
KDOV 091555Z AUTO 21003KT 10SM CLR 30/23 A3003 RMK AO2 RAB1521E1531 SLP171 P0000 T03010231

2010/08/09 15:55
KGSB 091555Z AUTO VRB06KT 10SM FEW032 31/22 A3003 RMK AO2 SLP169

2010/08/09 15:55
KHST 091555Z 13004KT 3SM RA BR BKN012 OVC024 25/24 A2997 RMK AO2A BKN V OVC SLP150 P0015 T02510240

2010/08/09 15:55
KOFF 091555Z AUTO 26006KT 10SM CLR 29/24 A2986 RMK AO2 SLP094 T02850237 $

2010/08/09 15:55
KVPS 091555Z 10009KT 10SM FEW030 32/25 A2998 RMK AO2A SLP151 T03180248 $

2010/08/09 15:55
KWRI 091555Z AUTO 23007KT 10SM FEW170 31/20 A3000 RMK AO2 SLP160 T03120197 $

2010/08/09 15:55
KAFF 091555Z AUTO 00000KT 10SM CLR 20/12 A3022 RMK AO2 SLP137 T01980122

2010/08/09 15:55
KDOV 091555Z AUTO 21003KT 10SM CLR 30/23 A3003 RMK AO2 RAB1521E1531 SLP171 P0000 T03010231

2010/08/09 15:55
KFAF 091555Z AUTO 25004KT 10SM CLR 29/29 A3005 RMK AO2 SLP176 T02910288 $

2010/08/09 15:55
KFFO 091555Z 22005KT 10SM SCT250 29/20 A3002 RMK AO2A SLP160

2010/08/09 15:55
KFHU 091555Z VRB04KT 50SM FEW050 25/17 A3013 RMK SLP133

2010/08/09 15:55
KGUS 091555Z 20006KT 10SM FEW048 29/23 A2999 RMK AO2A SLP152 T02910227

2010/08/09 15:55
KLHW 091555Z AUTO 05007KT 10SM CLR 32/22 A3000 RMK AO2 SLP159 T03220222

2010/08/09 15:55
KMTC 091555Z 26010KT 7SM SCT055 BKN170 OVC210 28/20 A2995 RMK SLP144

2010/08/09 15:55
KOZR 091555Z AUTO 07011KT 10SM CLR 33/26 A3000 RMK AO2 SLP156 T03270257

2010/08/09 15:55
KTIK 091555Z 20011KT 10SM CLR 32/22 A2994 RMK AO2A SLP120 T03210215

2010/08/09 15:53
PABI 091553Z 19015G24KT 10SM FEW090 BKN110 BKN180 14/05 A2962 RMK AO2 RAE29 SLP030 P0000 T01390050

2010/08/09 15:55
KADW 091555Z AUTO 25006KT 10SM CLR 31/21 A3004 RMK AO2 SLP172 T03130209 $

2010/08/09 15:55
KAFF 091555Z AUTO 00000KT 10SM CLR 20/12 A3022 RMK AO2 SLP137 T01980122

2010/08/09 15:55
KBAB 091555Z AUTO 00000KT 10SM CLR 18/12 A2988 RMK AO2 SLP118 T01810124 $

2010/08/09 15:55
KDOV 091555Z AUTO 21003KT 10SM CLR 30/23 A3003 RMK AO2 RAB1521E1531 SLP171 P0000 T03010231

2010/08/09 15:55
KDYS 091555Z AUTO 19008KT 10SM SCT080 32/22 A2999 RMK AO2 SLP127 T03180221 $

2010/08/09 15:55
KFAF 091555Z AUTO 25004KT 10SM CLR 29/29 A3005 RMK AO2 SLP176 T02910288 $

2010/08/09 15:55
KFBG 091555Z 09005KT 7SM FEW030 FEW150 32/21 A3004 RMK AO2A SLP170 WND DATA ESTMD ALSTG/SLP ESTMD

2010/08/09 15:55
KFCS 091555Z AUTO 00000KT 10SM FEW130 OVC170 21/14 A3017 RMK AO2 SLP142 T02110140

2010/08/09 15:55
KFFO 091555Z 22005KT 10SM SCT250 29/20 A3002 RMK AO2A SLP160

2010/08/09 15:55
KFHU 091555Z VRB04KT 50SM FEW050 25/17 A3013 RMK SLP133

2010/08/09 15:55
KGUS 091555Z 20006KT 10SM FEW048 29/23 A2999 RMK AO2A SLP152 T02910227

2010/08/09 15:55
KLHW 091555Z AUTO 05007KT 10SM CLR 32/22 A3000 RMK AO2 SLP159 T03220222

2010/08/09 15:55
KMTC 091555Z 26010KT 7SM SCT055 BKN170 OVC210 28/20 A2995 RMK SLP144

2010/08/09 15:55
KMUO 091555Z AUTO 00000KT 10SM BKN140 OVC170 24/09 A2990 RMK AO2 SLP094 T02370087

2010/08/09 15:52
KNFW 091552Z 18008G14KT 10SM CLR 34/22 A2998 RMK AO2 SLP137 T03390217 $

2010/08/09 15:55
KADW 091555Z AUTO 25006KT 10SM CLR 31/21 A3004 RMK AO2 SLP172 T03130209 $

2010/08/09 15:55
KBAB 091555Z AUTO 00000KT 10SM CLR 18/12 A2988 RMK AO2 SLP118 T01810124 $

2010/08/09 15:55
KFBG 091555Z 09005KT 7SM FEW030 FEW150 32/21 A3004 RMK AO2A SLP170 WND DATA ESTMD ALSTG/SLP ESTMD

2010/08/09 15:55
KMUO 091555Z AUTO 00000KT 10SM BKN140 OVC170 24/09 A2990 RMK AO2 SLP094 T02370087

2010/08/09 15:52
KNFW 091552Z 18008G14KT 10SM CLR 34/22 A2998 RMK AO2 SLP137 T03390217 $

2010/08/09 15:52
KNHK 091552Z 10008KT 7SM FEW020 SCT250 29/24 A3004 RMK AO2 SLP171 T02940239

2010/08/09 15:53
KNIP 091553Z 05010KT 10SM BKN034TCU 31/24 A2997 RMK AO2 SLP145 TCU E-S T03110244

2010/08/09 15:53
KNQX 091553Z 19007KT 10SM -RA FEW026CB SCT075 BKN100 OVC200 28/24 A2996 RMK AO2 SLP143 CB E MOV SW T1 SET P0002 T02780239 $

2010/08/09 15:52
KNRB 091552Z 05011KT 10SM FEW018 BKN030 BKN065 32/25 A2998 RMK AO2 RAB36E47 SLP151 P0000 T03170250

2010/08/09 15:52
KNZY 091552Z 00000KT 10SM BKN017 20/13 A2992 RMK AO2 SLP132 T02000128 $

2010/08/09 15:52
KNRB 091552Z 05011KT 10SM FEW018 BKN030 BKN065 32/25 A2998 RMK AO2 RAB36E47 SLP151 P0000 T03170250

2010/08/09 15:55
KPAM 091555Z AUTO 07007KT 10SM CLR 32/25 A2996 RMK AO2 SLP149 T03200246 $

2010/08/09 15:55
KPOB 091555Z AUTO 00000KT 10SM CLR 31/25 A3004 RMK AO2 SLP171 T03130249 $

2010/08/09 15:55
KSSC 091555Z 05005KT 10SM CLR 32/23 A3003 RMK AO2A SLP168 T03200230 $

2010/08/09 15:55
KVAD 091555Z AUTO 05012KT 10SM CLR 32/23 A3000 RMK AO2 SLP157 T03190230 $

2010/08/09 15:55
PGUA 091555Z AUTO 15004KT 10SM BKN075 24/24 A2991 RMK AO2 CLDS LWR RWY24L SLP111 T02440244 VISNO RWY24L $

2010/08/09 15:55
KFAF 091555Z AUTO 25004KT 10SM CLR 29/29 A3005 RMK AO2 SLP176 T02910288 $

2010/08/09 15:55
KFBG 091555Z 09005KT 7SM FEW030 FEW150 32/21 A3004 RMK AO2A SLP170 WND DATA ESTMD ALSTG/SLP ESTMD

2010/08/09 15:55
KGTB 091555Z AUTO 26008KT 10SM CLR 27/20 A2996 RMK AO2 SLP143 T02660198

2010/08/09 15:55
KGUS 091555Z 20006KT 10SM FEW048 29/23 A2999 RMK AO2A SLP152 T02910227

2010/08/09 15:53
KNQX 091553Z 19007KT 10SM -RA FEW026CB SCT075 BKN100 OVC200 28/24 A2996 RMK AO2 SLP143 CB E MOV SW T1 SET P0002 T02780239 $

2010/08/09 15:52
KNRB 091552Z 05011KT 10SM FEW018 BKN030 BKN065 32/25 A2998 RMK AO2 RAB36E47 SLP151 P0000 T03170250

2010/08/09 15:55
KOZR 091555Z AUTO 07011KT 10SM CLR 33/26 A3000 RMK AO2 SLP156 T03270257

2010/08/09 15:55
KSSC 091555Z 05005KT 10SM CLR 32/23 A3003 RMK AO2A SLP168 T03200230 $

2010/08/09 15:55
KVBG 091555Z 04004KT 6SM -DZ BR SCT004 BKN006 OVC010 14/12 A2996 RMK AO2 DZB25 SLP136 P0000 T01390122 $

2010/08/09 15:55
KFRI 091555Z AUTO 20005KT 10SM CLR 34/22 A2987 RMK AO2 SLP095 T03360217

2010/08/09 15:55
KFSI 091555Z AUTO 20008KT 10SM CLR 33/21 A2992 RMK AO2 SLP105 T03280212

2010/08/09 15:55
KMCF 091555Z AUTO 06007KT 10SM BKN017 29/26 A2994 RMK AO2 CIG 016V021 BKN V SCT SLP140 T02950262

2010/08/09 15:55
KMIB 091555Z AUTO 20007KT 10SM CLR 23/18 A2983 RMK AO2 SLP098 T02250183

2010/08/09 15:55
KMMT 091555Z 09007KT 10SM FEW030 32/23 A3004 RMK SLP171

2010/08/09 15:55
KPAM 091555Z AUTO 07007KT 10SM CLR 32/25 A2996 RMK AO2 SLP149 T03200246 $

2010/08/09 15:55
KSLI 091555Z 00000KT 6SM HZ OVC013 17/14 A2993 RMK AO2A SLP137 T01670138

2010/08/09 15:55
KTCM 091555Z AUTO 17004KT 10SM SCT009 OVC025 14/12 A2998 RMK AO2 SLP154 T01370119

2010/08/09 15:55
KVAD 091555Z AUTO 05012KT 10SM CLR 32/23 A3000 RMK AO2 SLP157 T03190230 $

2010/08/09 15:55
KVOK 091555Z 31006KT 10SM SCT018 27/23 A2992 RMK AO2A SCT V BKN SLP127

2010/08/09 15:55
KWRB 091555Z 05008KT 10SM FEW020 33/24 A3003 RMK SLP162

2010/08/09 15:55
MHSC 091555Z AUTO 00000KT 9999 FEW190 26/21 A3001 RMK AO2 SLP123 T02600215 $

2010/08/09 15:55
PAED 091555Z AUTO 34009KT 10SM OVC070 12/10 A2962 RMK AO2 SLP033 T01240100

2010/08/09 15:56
PMDY 091556Z AUTO 07008KT 10SM FEW024 26/22 A3021 RMK AO2 TSNO T02550216 SLP538

2010/08/09 15:56
KPRN 091556Z AUTO 08006KT 10SM CLR 33/24 A3001 RMK AO2 SLP155 T03280239 $

2010/08/09 15:56
KNXX 091556Z 25004KT 10SM FEW045 31/18 A3004 RMK AO2 SLP175 T03060178 $

2010/08/09 15:56
KNQI 091556Z 14008KT 10SM BKN041 35/24 A2994 RMK AO2 SLP135 T03500244

2010/08/09 15:56
PHBK 091556Z AUTO 00000KT 10SM CLR 23/16 A3007 RMK AO2 SLP184 T02280156 TSNO $

2010/08/09 15:56
KNCA 091556Z 08004KT 10SM SCT030 BKN080 32/24 A3004 RMK AO2 SLP173 T03170239 $

2010/08/09 15:56
KNGP 091556Z 13007KT 10SM SCT023 BKN028 BKN039 31/24 A2995 RMK AO2 SLP140 T03100242 VISNO $

2010/08/09 15:56
KNTU 091556Z 10006KT 10SM FEW030 BKN200 29/22 A3004 RMK AO2 SLP176 T02890217 $

2010/08/09 15:55
PALU 091555Z AUTO 06018KT 3SM 08/08 A2960 RMK AO1 T00830078

2010/08/09 15:55
PAIM 091555Z AUTO 04008KT 020V080 10SM SCT090 13/09 A2950 RMK AO1 8 T01280095

2010/08/09 15:55
PATL 091555Z AUTO 22004KT 5SM OVC008 11/11 A2949 RMK AO1 T01060106

2010/08/09 15:55
PAEH 091555Z AUTO 17015G34KT 140V200 3SM OVC005 09/08 RMK AO1 0 T00890078

2010/08/09 15:55
PASV 091555Z AUTO 00000KT 10SM SCT025 OVC041 10/08 A2950 RMK AO1 T01000084

2010/08/09 15:55
KBDN 091555Z AUTO 00000KT 10SM CLR 17/09 A2998 RMK AO2

2010/08/09 15:58
KBDU 091558Z AUTO 05003KT 10SM -RA SCT025 BKN070 OVC110 23/15 A3014 RMK AO2

2010/08/09 15:49
KBJC 091549Z 34006KT 40SM FEW080 BKN110 BKN140 24/09 A3016

2010/08/09 15:56
KBMI 091556Z 22004KT 10SM CLR 28/23 A2997 RMK AO2 T02830227 SLP132 $

2010/08/09 15:56
KBOK 091556Z AUTO 00000KT 7SM SCT003 12/12 A2995 RMK AO2 T01160116 SLP144

2010/08/09 15:57
KCCU 091557Z AUTO 15006KT 10SM SCT037 OVC080 13/06 A3057 RMK AO2

2010/08/09 15:55
KCMA 091555Z 00000KT 7SM OVC006 16/13 A2993 RMK AO2 SLP144 T01560128

2010/08/09 15:55
KDCM 091555Z AUTO 00000KT 7SM CLR 31/27 A3007 RMK AO2

2010/08/09 15:55
KEAT 091555Z AUTO 32007KT 10SM CLR 21/10 A2983 RMK AO2 SLP095 T02060100

2010/08/09 15:55
KEDC 091555Z AUTO 19007KT 10SM CLR 30/22 A2999 RMK AO1

2010/08/09 15:55
KEIK 091555Z AUTO 36004KT 10SM BKN110 23/13 A3013 RMK AO2

2010/08/09 15:55
KEOE 091555Z AUTO 00000KT 10SM SCT036 32/22 A3008 RMK AO2

2010/08/09 15:55
KFMH 091555Z AUTO 24010KT 9SM BKN013 27/22 A3001 RMK AO2

2010/08/09 15:55
KHVS 091555Z AUTO 08006KT 7SM CLR 32/23 A3006 RMK AO2

2010/08/09 15:55
KIFP 091555Z AUTO 00000KT 10SM CLR 27/10 A2987 RMK AO2

2010/08/09 15:55
KLLJ 091555Z AUTO 00000KT 10SM BKN090 16/11 A3004 RMK AO2 SLP115 T01610111

2010/08/09 15:55
KLQK 091555Z AUTO 20005KT 10SM CLR 32/21 A3009 RMK AO2 T03200212 PNO

2010/08/09 15:54
KBOS 091554Z 24008KT 10SM FEW060 SCT120 31/19 A2996 RMK AO2 SLP143 T03060189

2010/08/09 15:54
KPHL 091554Z 24007KT 7SM FEW038 SCT250 31/21 A3002 RMK AO2 SLP164 T03060211

2010/08/09 15:56
PAAK 091556Z AUTO 27018G23KT 1 3/4SM OVC003 08/06 A2960 RMK AO1 PNO

2010/08/09 15:56
PACM 091556Z AUTO 14011G15KT 6SM +RA BR BKN015 BKN028 OVC085 10/08 A2923 RMK AO2 TSNO T01000083 BKN V SCT P0000 SLP894 $

2010/08/09 15:56
PAHP 091556Z AUTO 10014KT 5SM FEW005 BKN012 OVC027 09/08 A2918 RMK AO1 PNO TSNO

2010/08/09 15:56
K1M4 091556Z AUTO 20006KT 10SM FEW033 33/24 A3005 RMK AO2 T03330238 SLP169

2010/08/09 15:56
KAND 091556Z AUTO VRB04KT 10SM CLR 32/21 A3007 RMK AO2 SLP170 T03170206

2010/08/09 15:56
KCEC 091556Z AUTO 31003KT 5SM BR OVC006 13/12 A2996 RMK AO2 SLP144 T01280117

2010/08/09 15:56
KDIK 091556Z AUTO 32007G15KT 10SM FEW120 24/13 A2990 RMK AO2 PK WND 29026/1532 LTG DSNT NE TSB37E52 SLP108 T02440128

2010/08/09 15:56
KDUG 091556Z AUTO 00000KT 10SM CLR 24/18 A3010 RMK AO2 SLP123 T02390183

2010/08/09 15:56
KDUJ 091556Z AUTO 00000KT 10SM CLR 27/16 A3008 RMK AO2 SLP172 T02670156

2010/08/09 15:56
KEAU 091556Z 34006KT 8SM OVC011 27/23 A2990 RMK AO2 SLP117 T02720233

2010/08/09 15:56
KEKO 091556Z AUTO 21011G17KT 10SM SCT100 23/03 A3003 RMK AO2 SLP109 T02280028

2010/08/09 15:56
KGRD 091556Z AUTO 00000KT 10SM CLR 32/22 A3008 RMK AO2 SLP176 T03170222

2010/08/09 15:55
KHFF 091555Z AUTO VRB03KT 10SM FEW035 32/21 A3006 RMK AO2 SLP176 T03190214 $

2010/08/09 15:56
KIGX 091556Z AUTO 00000KT 10SM CLR 32/19 A3006 RMK AO2 SLP173 T03220194 $

2010/08/09 15:56
KJMS 091556Z AUTO 21005KT 10SM CLR 29/21 A2989 RMK AO2 SLP112 T02890206

2010/08/09 15:56
KLNR 091556Z AUTO 30006KT 10SM SCT018 27/21 A2993 RMK AO2 SLP124 T02670211

2010/08/09 15:56
KM19 091556Z AUTO 24004KT 10SM CLR A2998 RMK AO2 SLPNO $

2010/08/09 15:56
KMQY 091556Z 00000KT 10SM SCT040 SCT046 BKN060 36/24 A3002 RMK AO2 T03550244 SLP154 $

2010/08/09 15:56
KMRH 091556Z AUTO 35005KT 10SM BKN018 OVC027 28/24 A3005 RMK AO2 SLP176 T02780239 TSNO

2010/08/09 15:56
KRDM 091556Z VRB04KT 10SM CLR 18/08 A2995 RMK AO2 SLP118 T01780078

2010/08/09 15:56
KSLE 091556Z 34006KT 10SM FEW017 OVC022 15/09 A2999 RMK AO2 SLP155 T01500094

2010/08/09 15:56
KSRC 091556Z AUTO VRB03KT CLR 34/26 A2998 RMK AO2 TSNO T03380255 SLP152 $

2010/08/09 15:56
KUKI 091556Z AUTO VRB03KT 10SM FEW004 14/12 A2990 RMK AO2 SLP119 T01390117

2010/08/09 15:55
KFMH 091555Z AUTO 24010KT 9SM BKN013 27/22 A3001 RMK AO2

2010/08/09 15:50
TJBQ 091550Z 06013G17KT 10SM FEW020 31/25 A2998

2010/08/09 15:56
PASM 091556Z AUTO 14012G19KT 4SM BKN004 OVC012 09/08 A2930 RMK AO1 PNO

2010/08/09 15:56
PASX 091556Z AUTO 00000KT 10SM OVC065 12/10 A2962 RMK AO1 PNO

2010/08/09 15:56
PATG 091556Z AUTO 18019KT 2SM OVC004 10/09 A2942 RMK AO1 PNO

2010/08/09 15:55
KRND 091555Z AUTO VRB06KT 10SM FEW032 30/22 A2999 RMK AO2 SLP146 T03030219 $

2010/08/09 15:55
KXMR 091555Z AUTO 15008KT 10SM CLR 30/25 A2994 RMK AO2 SLP140 T03040249

2010/08/09 15:55
PAEI 091555Z AUTO 00000KT 10SM -RA OVC070 12/10 A2958 RMK AO2 RAB1551DZE1457 SLP016 P0000 T01210099 $

2010/08/09 15:55
KGTB 091555Z AUTO 26008KT 10SM CLR 27/20 A2996 RMK AO2 SLP143 T02660198

2010/08/09 15:52
KNHK 091552Z 10008KT 7SM FEW020 SCT250 29/24 A3004 RMK AO2 SLP171 T02940239

2010/08/09 15:53
KNIP 091553Z 05010KT 10SM BKN034TCU 31/24 A2997 RMK AO2 SLP145 TCU E-S T03110244

2010/08/09 15:53
KNQX 091553Z 19007KT 10SM -RA FEW026CB SCT075 BKN100 OVC200 28/24 A2996 RMK AO2 SLP143 CB E MOV SW T1 SET P0002 T02780239 $

2010/08/09 15:52
KNRB 091552Z 05011KT 10SM FEW018 BKN030 BKN065 32/25 A2998 RMK AO2 RAB36E47 SLP151 P0000 T03170250

2010/08/09 15:56
KNSI 091556Z 34006KT 6SM BR OVC008 14/13 A2993 RMK AO2 SLP131 T014440128 TSNO

2010/08/09 15:55
KOFF 091555Z AUTO 26006KT 10SM CLR 29/24 A2986 RMK AO2 SLP094 T02850237 $

2010/08/09 15:55
KOZR 091555Z AUTO 07011KT 10SM CLR 33/26 A3000 RMK AO2 SLP156 T03270257

2010/08/09 15:55
KRIV 091555Z AUTO 00000KT 10SM CLR 19/13 A2993 RMK AO2 SLP132 T01940127

2010/08/09 15:55
KRND 091555Z AUTO VRB06KT 10SM FEW032 30/22 A2999 RMK AO2 SLP146 T03030219 $

2010/08/09 15:55
KSSC 091555Z 05005KT 10SM CLR 32/23 A3003 RMK AO2A SLP168 T03200230 $

2010/08/09 15:55
KSUU 091555Z AUTO 25018KT 10SM BKN008 16/12 A2988 RMK AO2 SLP120 T01570118 RVRNO $

2010/08/09 15:55
KTIK 091555Z 20011KT 10SM CLR 32/22 A2994 RMK AO2A SLP120 T03210215

2010/08/09 15:55
KVPS 091555Z 10009KT 10SM FEW030 32/25 A2998 RMK AO2A SLP151 T03180248 $

2010/08/09 15:55
KWRI 091555Z AUTO 23007KT 10SM FEW170 31/20 A3000 RMK AO2 SLP160 T03120197 $

2010/08/09 15:55
KDLF 091555Z AUTO 12009KT 10SM OVC019 28/22 A2997 RMK AO2 SLP133 T02830225

2010/08/09 15:55
KFCS 091555Z AUTO 00000KT 10SM FEW130 OVC170 21/14 A3017 RMK AO2 SLP142 T02110140

2010/08/09 15:55
KGBN 091555Z 04004KT 12SM CLR 32/07 A2987 RMK SLP096

2010/08/09 15:55
KGTB 091555Z AUTO 26008KT 10SM CLR 27/20 A2996 RMK AO2 SLP143 T02660198

2010/08/09 15:55
KHIF 091555Z AUTO 16009KT 10SM CLR 23/09 A3006 RMK AO2 SLP073 T02260089

2010/08/09 15:55
KLTS 091555Z AUTO 20009KT 10SM CLR 33/20 A2991 RMK AO2 SLP108 T03350196 $

2010/08/09 15:55
KLUF 091555Z 06004KT 10SM CLR 32/11 A2988 RMK AO2A SLP088 T03160110 $

2010/08/09 15:55
KPOB 091555Z AUTO 00000KT 10SM CLR 31/25 A3004 RMK AO2 SLP171 T03130249 $

2010/08/09 15:55
KSKA 091555Z AUTO 22006KT 10SM FEW075 17/10 A2988 RMK AO2 SLP107 T01740102

2010/08/09 15:55
KSSC 091555Z 05005KT 10SM CLR 32/23 A3003 RMK AO2A SLP168 T03200230 $

2010/08/09 15:55
PAFB 091555Z VRB03KT 13SM FEW050 BKN070 OVC090 14/10 A2957 RMK SLP012

2010/08/09 15:55
PHHI 091555Z AUTO 00000KT 10SM BKN034 BKN042 21/18 A3009 RMK AO2 DZB1509E1520 SLP179 P0000 T02140183 $

2010/08/09 15:55
KCEF 091555Z AUTO 20006KT 10SM BKN090 30/19 A2998 RMK AO2 DZB1530E1540 SLP151 P0000 T03020194

2010/08/09 15:55
KLRF 091555Z AUTO 00000KT 10SM CLR 33/25 A2997 RMK AO2 SLP148 T03270253

2010/08/09 15:55
KNKX 091555Z VRB03KT 10SM OVC010 17/13 A2993 RMK AO2 SLP130 T01720128

2010/08/09 15:55
KNBG 091555Z VRB06KT 10SM SCT025 BKN250 33/24 A2998 RMK AO2 SLP150 T2 SET T03280239 $

2010/08/09 15:55
KPOE 091555Z AUTO 31005KT 10SM CLR 31/22 A2999 RMK AO2 SLP156 T03110222

2010/08/09 15:56
KNJK 091556Z 00000KT 10SM CLR 30/09 A2979 RMK AO2 SLP104 T03000089

2010/08/09 15:55
KADW 091555Z AUTO 25006KT 10SM CLR 31/21 A3004 RMK AO2 SLP172 T03130209 $

2010/08/09 15:55
KMCF 091555Z AUTO 06007KT 10SM BKN017 29/26 A2994 RMK AO2 CIG 016V021 BKN V SCT SLP140 T02950262

2010/08/09 15:52
KNHK 091552Z 10008KT 7SM FEW020 SCT250 29/24 A3004 RMK AO2 SLP171 T02940239

2010/08/09 15:53
KNIP 091553Z 05010KT 10SM BKN034TCU 31/24 A2997 RMK AO2 SLP145 TCU E-S T03110244

2010/08/09 15:53
KNQX 091553Z 19007KT 10SM -RA FEW026CB SCT075 BKN100 OVC200 28/24 A2996 RMK AO2 SLP143 CB E MOV SW T1 SET P0002 T02780239 $

2010/08/09 16:02
KCPW 091602Z AUTO 22006KT 7SM OVC002 08/07 A3057 RMK AO2

2010/08/09 15:54
KDMH 091554Z AUTO 33/21 A3001 RMK AO2 SLP163 T03280211 PWINO TSNO

2010/08/09 15:54
KRIC 091554Z 00000KT 10SM SCT055 SCT250 32/19 A3004 RMK AO2 SLP176 T03220194

2010/08/09 15:54
KAVP 091554Z AUTO 31007KT 10SM CLR 31/14 A3003 RMK AO2 SLP157 T03060139 TSNO

2010/08/09 15:54
KLEX 091554Z VRB05KT 10SM CLR 32/18 A3004 RMK AO2 SLP160 T03170183

2010/08/09 15:54
KLYH 091554Z AUTO 20005KT 10SM FEW031 29/22 A3008 RMK AO2 SLP175 T02940217 TSNO

2010/08/09 15:54
KORH 091554Z 26010KT 10SM CLR 29/16 A3002 RMK AO2 SLP159 T02890161

2010/08/09 15:54
KPIA 091554Z 05003KT 5SM HZ CLR 27/23 A2992 RMK AO2 RAB22E39 SLP126 P0000 T02670228

2010/08/09 15:54
KNAK 091554Z AUTO 13011KT 6SM HZ CLR 27/23 A3002 RMK AO2 SLP169 T02720233 TSNO

2010/08/09 15:54
KROC 091554Z 22010KT 8SM BKN150 BKN250 27/20 A2997 RMK AO2 SLP146 T02720200

2010/08/09 15:54
KSUS 091554Z 00000KT 10SM BKN150 32/25 A2994 RMK AO2 SLP126 T03170250

2010/08/09 15:54
KSYR 091554Z 29007KT 10SM SCT200 29/19 A2997 RMK AO2 SLP141 T02940189

2010/08/09 15:54
KACY 091554Z 23004KT 10SM CLR 31/19 A3004 RMK AO2 SLP171 P0001 T03110189

2010/08/09 15:54
KGSO 091554Z 19004KT 9SM FEW045 31/20 A3008 RMK AO2 SLP172 T03110200

2010/08/09 15:54
KMTP 091554Z AUTO 19007KT 27/21 A3002 RMK AO2 SLP165 T02720211 PWINO TSNO

2010/08/09 15:54
KCAR 091554Z AUTO 24006KT 10SM SCT017 OVC023 21/17 A2988 RMK AO2 SLP119 T02110172

2010/08/09 15:54
K12N 091554Z AUTO 23004KT 30/19 A3003 RMK AO2 SLP158 T03000194 PWINO TSNO

2010/08/09 15:51
KESN 091551Z 00000KT 6SM HZ SCT040 31/24 A3007

2010/08/09 15:54
KFWA 091554Z 28004KT 9SM FEW150 BKN250 28/21 A3001 RMK AO2 SLP155 T02830211

2010/08/09 15:55
KDRA 091555Z AUTO 00000KT 10SM CLR 26/06 A2999 RMK AO2 SLP111 T02560056 TSNO

2010/08/09 15:54
KMWN 091554Z 28023KT 0SM FG VV000 11/11 RMK

2010/08/09 15:54
KRFD 091554Z 22005KT 10SM FEW010 SCT050 BKN150 BKN250 26/21 A2996 RMK AO2 SLP139 T02560206

2010/08/09 15:56
KCHS 091556Z 05011KT 10SM FEW100 32/23 A3001 RMK AO2 SLP163 T03170228

2010/08/09 15:54
KAKQ 091554Z AUTO 00000KT 10SM CLR 30/22 A3006 RMK AO2 SLP176 T03000217 TSNO

2010/08/09 15:56
KJAX 091556Z 06014KT 10SM SCT032 32/23 A2997 RMK AO2 SLP149 T03220233

2010/08/09 15:53
KLXV 091553Z AUTO 20003KT 10SM FEW100 13/07 A3042 RMK AO2 SLP128 T01330072 TSNO

2010/08/09 15:55
KMKG 091555Z 18012KT 10SM FEW008 SCT055 BKN110 24/23 A2991 RMK AO2 RAB15E44 SLP123 P0001 T02440228

2010/08/09 15:53
KMSN 091553Z VRB04KT 10SM FEW016 SCT100 25/21 A2992 RMK AO2 SLP127 T02500211

2010/08/09 15:53
KMWT 091553Z AUTO 00000KT 10SM CLR 32/23 A2998 RMK AO2 SLP137 T03220233 TSNO

2010/08/09 15:55
KRNO 091555Z 00000KT 10SM CLR 19/06 A3003 RMK AO2 SLP123 T01890056

2010/08/09 15:54
KROA 091554Z 18003KT 8SM CLR 29/21 A3009 RMK AO2 SLP176 T02890206

2010/08/09 15:53
KSAV 091553Z 03012G17KT 10SM FEW030 SCT250 33/21 A3001 RMK AO2 SLP160 T03280211

2010/08/09 15:55
KSCK 091555Z 34006KT 10SM CLR 18/12 A2989 RMK AO2 SLP120 T01780122

2010/08/09 15:55
KSMS 091555Z AUTO 11004KT 5SM HZ CLR 31/24 A3005 RMK AO2

2010/08/09 15:53
KTLH 091553Z 05010G16KT 10SM FEW050 32/21 A2998 RMK AO2 SLP149 T03220206

2010/08/09 15:53
KTRI 091553Z VRB04KT 10SM FEW065 SCT150 31/19 A3010 RMK AO2 SLP174 T03060194

2010/08/09 15:53
KTYS 091553Z 22008KT 9SM CLR 31/22 A3006 RMK AO2 SLP164 T03110222

2010/08/09 15:53
KLAX 091553Z 28004KT 7SM OVC014 17/13 A2993 RMK AO2 SLP135 T01720128 $

2010/08/09 15:53
K4BM 091553Z AUTO 22004KT 7SM -DZ 08/07 A3055 RMK AO2

2010/08/09 15:52
KABI 091552Z 21010KT 10SM SCT080 31/22 A3000 RMK AO2 SLP129 T03110222

2010/08/09 15:53
KBTR 091553Z 32004KT 10SM SCT030 33/25 A2998 RMK AO2 SLP149 T03280250

2010/08/09 15:54
KBTV 091554Z 22003KT 10SM -RA BKN050 OVC060 25/19 A2995 RMK AO2 RAB47 SLP139 P0000 T02500189

2010/08/09 15:53
KCHA 091553Z VRB06KT 10SM FEW030 SCT100 32/23 A3005 RMK AO2 SLP164 T03170228

2010/08/09 15:55
KCNK 091555Z AUTO 00000KT 10SM CLR 32/21 A2988 RMK AO2 SLP098 T03170206

2010/08/09 15:53
KDAB 091553Z 08009KT 10SM SCT020 SCT028 BKN070 31/24 A2995 RMK AO2 SLP141 T03060244

2010/08/09 15:55
KDLH 091555Z 32003KT 10SM FEW005 26/21 A2993 RMK AO2 SLP129 T02610211

2010/08/09 15:54
KWAL 091554Z 15004KT 10SM FEW020 SCT250 29/17 A3006 RMK AO2 SLP174 T02940172

2010/08/09 15:54
KFWA 091554Z 28004KT 9SM FEW150 BKN250 28/21 A3001 RMK AO2 SLP155 T02830211

2010/08/09 15:56
PAUN 091556Z AUTO 11007KT 8SM SCT048 BKN060 OVC075 12/09 A2936 RMK AO1 PNO

2010/08/09 15:56
PAVD 091556Z 09003KT 1 1/2SM SCT001 BKN020 OVC030 10/08 A2982 RMK AO1 1547Z WEA

2010/08/09 15:56
PAWG 091556Z 13003KT 4SM SCT000 BKN020 OVC040 12/11 A3000 RMK AO1 WEA

2010/08/09 15:56
PAWN 091556Z AUTO 02009KT 10SM OVC085 12/08 A2949 RMK AO1 PNO

2010/08/09 15:56
PAWS 091556Z AUTO 06005KT 10SM OVC070 13/09 A2963 RMK AO1 PNO

2010/08/09 15:56
PAZK 091556Z AUTO 10SM CLR RMK AO1 PNO

2010/08/09 15:56
PAAK 091556Z AUTO 27018G23KT 1 3/4SM OVC003 08/06 A2960 RMK AO1 PNO

2010/08/09 15:56
PABL 091556Z AUTO 10009KT 10SM OVC090 12/10 A2941 RMK AO1 PNO

2010/08/09 15:56
PABV 091556Z AUTO 00000KT 10SM OVC080 12/09 A2963 RMK AO1 PNO

2010/08/09 15:56
PACM 091556Z AUTO 14011G15KT 6SM +RA BR BKN015 BKN028 OVC085 10/08 A2923 RMK AO2 TSNO T01000083 BKN V SCT P0000 SLP894 $

2010/08/09 15:50
PADT 091550Z 02005KT 20SM BKN020 BKN060 09/08 A2972 RMK MNM08 NOSPECI

2010/08/09 15:56
PAEM 091556Z AUTO 12011KT 10SM SCT009 OVC016 10/07 A2925 RMK AO1 PNO

2010/08/09 15:56
PAFE 091556Z AUTO 16003KT 10SM FEW008 SCT016 OVC030 12/10 A3002 RMK AO1 PNO

2010/08/09 15:56
PAFM 091556Z AUTO 08004KT 10SM SCT049 BKN070 OVC110 12/07 A2951 RMK AO1 PNO

2010/08/09 15:56
PAGL 091556Z AUTO 15014KT 10SM SCT023 BKN032 OVC042 13/09 A2937 RMK AO1 PNO

2010/08/09 15:56
PAGM 091556Z AUTO 04014KT 1SM OVC002 09/07 A2925 RMK AO1

2010/08/09 15:56
PAGS 091556Z AUTO 00000KT 10SM OVC030 12/12 A2996 RMK AO1 PNO

2010/08/09 15:56
PAHP 091556Z AUTO 10014KT 5SM FEW005 BKN012 OVC027 09/08 A2918 RMK AO1 PNO TSNO

2010/08/09 15:56
PAHY 091556Z AUTO 00000KT 10SM SCT034 OVC055 13/11 A3000 RMK AO1 PNO

2010/08/09 15:56
PAII 091556Z AUTO 12004KT 7SM OVC025 10/09 A2957 RMK AO1 PNO

2010/08/09 15:56
PAIN 091556Z AUTO 18004KT 10SM OVC048 11/07 A2962 RMK AO1 PNO

2010/08/09 15:56
PAJC 091556Z AUTO 22009G14KT 10SM SCT018 OVC029 13/07 A2954 RMK AO1 PNO

2010/08/09 15:56
PAKK 091556Z AUTO 08005KT 9SM OVC018 12/10 A2934 RMK AO1 PNO

2010/08/09 15:56
PAKP 091556Z AUTO 03005KT 1/2SM OVC003 07/06 A2960 RMK AO1

2010/08/09 15:50
PALR 091550Z 05012KT 10SM FEW030 SCT090 BKN120 10/05 A2969 RMK ACSL S-SW

2010/08/09 15:56
PAMD 091556Z AUTO 11007KT 1/4SM BKN003 OVC021 12/11 A2976 RMK AO1 PNO

2010/08/09 15:56
PAMH 091556Z RMK AO1 PNO

2010/08/09 15:56
PAMM 091556Z AUTO 00000KT 10SM BKN028 OVC032 13/10 A3004 RMK AO1 PNO

2010/08/09 15:56
PAMY 091556Z 15008KT 10SM FEW027 OVC050 08/07 A2916 RMK AO1

2010/08/09 15:56
PANI 091556Z AUTO 11004KT 10SM FEW011 BKN060 OVC080 12/10 A2940 RMK AO1 PNO

2010/08/09 15:56
PANV 091556Z AUTO 18004KT 1 3/4SM SCT006 OVC011 10/09 A2939 RMK AO1 PNO

2010/08/09 15:56
PAOU 091556Z AUTO 00000KT 7SM OVC019 11/08 A2953 RMK AO2 PWINO TSNO T01110083 SLP002 $

2010/08/09 15:56
PAPG 091556Z 00000KT 4SM SCT004 BKN014 OVC032 11/11 A3000 RMK AO1 WEA

2010/08/09 15:56
PAPH 091556Z AUTO 00000KT 9SM FEW029 OVC039 11/09 A2953 RMK AO1 PNO

2010/08/09 15:56
PARC 091556Z AUTO 05009KT 10SM CLR 08/03 A2968 RMK AO1 PNO

2010/08/09 15:56
PASA 091556Z AUTO 06011KT 1/2SM OVC004 10/08 A2924 RMK AO1 PNO

2010/08/09 15:56
PASD 091556Z 18010KT 6SM BKN015 OVC022 11/08 A2960 RMK AO1 WEA

2010/08/09 15:56
PASH 091556Z AUTO 07009KT 10SM OVC070 14/11 A2939 RMK AO1 PNO

2010/08/09 15:56
PASK 091556Z AUTO 07014G19KT 10SM SCT048 OVC055 13/10 A2944 RMK AO1 PNO

2010/08/09 15:56
PASL 091556Z AUTO 13003KT 3SM OVC010 11/09 A2949 RMK AO1 PNO

2010/08/09 15:56
KNFE 091556Z AUTO 08005KT 1 3/4SM HZ CLR 31/21 A3005 RMK AO2 SLP176 T03110206 $

2010/08/09 16:00
KVTP 091600Z AUTO 27004KT 10SM OVC085 14/07 A3046 RMK AO2

2010/08/09 15:54
KVTA 091554Z AUTO 21005KT 10SM CLR 28/18 A3002 RMK AO2 SLP160 T02830183

2010/08/09 15:54
KWLD 091554Z AUTO 20008KT 10SM CLR 33/22 A2994 RMK AO2 SLP122 T03280222

2010/08/09 15:55
KWVL 091555Z AUTO 28007KT 10SM SCT029 BKN038 25/19 A2990 RMK AO1

2010/08/09 15:55
KX40 091555Z AUTO 06007KT 10SM SCT024 SCT030 SCT038 32/25 A2995 RMK AO2 T03240251

2010/08/09 15:55
KYKN 091555Z AUTO 12005KT 10SM BKN012 24/22 A2991 RMK AO1

2010/08/09 15:53
TIST 091553Z 16010G17KT 10SM CLR 30/25 A2999 RMK AO2 RAE1456 SLP155 P0000 T03000250

2010/08/09 15:53
TISX 091553Z 09011KT 6SM -RA BR SCT018 BKN060 26/23 A2999 RMK AO2 SLP153 P0003 T02560233 $

2010/08/09 15:47
KIWA 091547Z 17005KT 45SM SCT120 32/12 A2991

2010/08/09 15:45
KCGF 091545Z 24008KT 10SM BKN150 32/18 A3001

2010/08/09 15:53
KEGE 091553Z 25006KT 10SM OVC090 17/08 A3026

2010/08/09 15:50
KHSA 091550Z 02006KT 10SM SCT050 BKN070 32/26 A2997

2010/08/09 15:55
KISO 091555Z 02006KT 7SM CLR 31/22 A3005

2010/08/09 15:54
KMHV 091554Z VRB03KT 40SM SKC 23/03 A2996

2010/08/09 15:50
KOCF 091550Z 03006KT 10SM BKN033 31/26 A2995

2010/08/09 15:47
KPAO 091547Z VRB05KT 25SM OVC014 A2992

2010/08/09 15:50
KRHV 091550Z 10009KT 10SM SCT015 17/12 A2992

2010/08/09 15:53
KSBD 091553Z 00000KT 7SM SKC 17/11 A2993

2010/08/09 15:53
KBRO 091553Z 20008KT 10SM FEW027 SCT036 BKN060 32/25 A2993 RMK AO2 RAE1457 SLP133 P0000 T03220250

2010/08/09 15:53
KFLL 091553Z 14014KT 10SM SCT023 BKN033 BKN085 29/24 A2995 RMK AO2 SLP140 T02890244

2010/08/09 15:51
KJFK 091551Z 20010KT 7SM FEW040 SCT250 28/21 A3002 RMK AO2 SLP167 T02830211

2010/08/09 15:53
KMCO 091553Z 12006KT 10SM SCT016 BKN045 BKN250 29/24 A2994 RMK AO2 RAE08 SLP138 P0000 T02940244

2010/08/09 15:53
KPBI 091553Z 15008KT 10SM SCT022 SCT055 BKN080 30/24 A2995 RMK AO2 SLP140 CB DSNT ALQDS T02970238

2010/08/09 15:53
TIST 091553Z 16010G17KT 10SM CLR 30/25 A2999 RMK AO2 RAE1456 SLP155 P0000 T03000250

2010/08/09 15:53
TISX 091553Z 09011KT 6SM -RA BR SCT018 BKN060 26/23 A2999 RMK AO2 SLP153 P0003 T02560233 $

2010/08/09 15:53
PASC 091553Z 06021G28KT 3/4SM R05/4000V5500FT BR OVC003 03/03 A2976 RMK AO2 PK WND 06030/1457 SLP078 T00280028

2010/08/09 15:53
KRTN 091553Z AUTO 00000KT 10SM CLR 26/12 A3017 RMK AO2 SLP107 T02610122 TSNO

2010/08/09 15:46
PAEC 091546Z 00000KT 1/4SM -RA FG VV003 09/09 A2970 RMK NOSPECI

2010/08/09 15:54
PAHN 091554Z AUTO 09004KT 10SM BKN010 OVC016 13/11 A2995 RMK AO2 SLP143 T01280106 TSNO

2010/08/09 15:50
PAJV 091550Z 21006KT 10SM SCT040 BKN080 OVC110 10/08 A2965 RMK 4////0096 NOSPECI

2010/08/09 15:54
PAKN 091554Z 21011KT 10SM OVC023 11/09 A2951 RMK AO2 SLP991 T01110094

2010/08/09 15:55
KHFF 091555Z AUTO VRB03KT 10SM FEW035 32/21 A3006 RMK AO2 SLP176 T03190214 $

2010/08/09 15:56
KSDF 091556Z 17003KT 7SM FEW100 SCT150 SCT200 32/21 A3001 RMK AO2 SLP155 T03220206

2010/08/09 15:55
KLRO 091555Z AUTO 00000KT 9SM SCT028 29/24 A3001 RMK AO2

2010/08/09 15:55
KLUX 091555Z AUTO 00000KT 10SM SCT037 31/26 A3007 RMK AO2

2010/08/09 15:55
KMKS 091555Z AUTO 06006KT 10SM CLR 32/22 A3002 RMK AO2 TSNO

2010/08/09 15:55
KNQA 091555Z COR 00000KT 10SM SCT100 BKN250 33/27 A2998 RMK

2010/08/09 15:55
KO22 091555Z AUTO 00000KT 10SM CLR 23/08 A2993 RMK AO1

2010/08/09 15:53
KOVE 091553Z AUTO 22003KT 10SM CLR 18/12 A2990 RMK AO2 SLP125 T01830122 TSNO $

2010/08/09 15:55
KRBW 091555Z AUTO 06008KT 10SM CLR 31/22 A3003 RMK AO2

2010/08/09 15:55
KRCE 091555Z AUTO 19011G17KT 10SM CLR 33/22 A2994 RMK AO2

2010/08/09 15:53
KRIL 091553Z AUTO 00000KT 10SM -RA FEW044 OVC085 17/11 A3022 RMK AO2 SLP172 P0001 T01670111 TSNO

2010/08/09 15:53
KSGR 091553Z VRB03KT 10SM BKN031 32/24 A2998 RMK AO2 SLP158 T03220239

2010/08/09 15:55
KTME 091555Z AUTO 00000KT 10SM FEW033 32/27 A2999 RMK AO2

2010/08/09 15:55
KUTA 091555Z AUTO 00000KT 10SM CLR 32/24 A2998 RMK AO2

2010/08/09 15:50
KWYS 091550Z AUTO 00000KT 10SM BKN100 13/10 A3015 RMK AO2

2010/08/09 15:55
K0A9 091555Z AUTO VRB05KT 10SM FEW041 31/20 A3010 RMK

2010/08/09 15:56
K20V 091556Z AUTO 00000KT 10SM BKN080 OVC120 16/05 A3029 RMK AO2

2010/08/09 15:52
K5SM 091552Z AUTO 23003KT 10SM 09/06 A3051 RMK AO2

2010/08/09 15:54
K7BM 091554Z AUTO 12005KT 10SM OVC090 16/10 A3043 RMK AO2

2010/08/09 15:55
KARW 091555Z AUTO 05012KT 7SM CLR 32/21 A3001 RMK AO2

2010/08/09 15:55
KGPI 091555Z 00000KT 10SM CLR 18/10 A2991 RMK AO2 SLP117 T01830100

2010/08/09 15:55
KIRK 091555Z AUTO 13005KT 10SM CLR 23/21 A2994 RMK AO2 TSE1459B02E17B19E34 SLP132 P0001 T02330211

2010/08/09 15:55
KLIC 091555Z AUTO 14008KT 10SM CLR 24/14 A3014 RMK AO2 SLP126 T02440139

2010/08/09 15:56
KSHV 091556Z 26007KT 10SM FEW300 33/23 A2998 RMK AO2 SLP146 T03330233

2010/08/09 15:55
KMBG 091555Z AUTO 14012KT 10SM CLR 27/20 A2989 RMK AO2 SLP109 T02720200 TSNO

2010/08/09 15:55
KPHP 091555Z AUTO 15007KT 10SM CLR 29/19 A2993 RMK AO2 SLP112 T02890189 TSNO

2010/08/09 15:55
KINL 091555Z AUTO 08003KT 10SM CLR 25/19 A2989 RMK AO2 SLP121 T02500194

2010/08/09 15:55
KANJ 091555Z AUTO VRB04KT 10SM FEW014 BKN065 24/20 A2989 RMK AO2 SLP118 T02440200

2010/08/09 15:55
KHON 091555Z AUTO 09003KT 10SM CLR 27/21 A2991 RMK AO2 SLP120 T02720206 TSNO

2010/08/09 15:56
TJSJ 091556Z 09015G22KT 10SM FEW024 SCT046 SCT085 31/24 A2998 RMK AO2 RAB24E33 SLP151 VCSH SE-S P0000 T03110244

2010/08/09 15:55
KAST 091555Z AUTO 25004KT 7SM SCT011 BKN015 OVC028 14/12 A3000 RMK AO2 RAE01 CIG 009 RWY 08 SLP159 P0000 T01390122

2010/08/09 15:55
KAAT 091555Z AUTO 00000KT 10SM CLR 19/05 A3001 RMK AO2 SLP117 T01890050 TSNO

2010/08/09 15:53
KDAB 091553Z 08009KT 10SM SCT020 SCT028 BKN070 31/24 A2995 RMK AO2 SLP141 T03060244

2010/08/09 15:53
KSAV 091553Z 03012G17KT 10SM FEW030 SCT250 33/21 A3001 RMK AO2 SLP160 T03280211

2010/08/09 15:54
KSYR 091554Z 29007KT 10SM SCT200 29/19 A2997 RMK AO2 SLP141 T02940189

2010/08/09 15:56
KMOB 091556Z 05007KT 10SM FEW035 SCT200 32/24 A3000 RMK AO2 SLP156 T03170239

2010/08/09 15:56
KOFK 091556Z AUTO 00000KT 10SM OVC010 24/21 A2993 RMK AO2 CIG 007V012 SLP124 T02390206

2010/08/09 15:56
KSFO 091556Z 18006KT 10SM FEW010 OVC015 16/11 A2992 RMK AO2 SLP133 BINOVC T01560106

2010/08/09 15:53
KGNT 091553Z AUTO 36004KT 19/14 A3026 RMK AO2 SLP165 T01940139 PWINO TSNO

2010/08/09 15:56
KCDJ 091556Z AUTO 15010G17KT 28/22 A2993 RMK AO2 SLP117 T02780222 PWINO TSNO

2010/08/09 15:56
KCAE 091556Z 08007KT 9SM FEW039 33/22 A3003 RMK AO2 SLP164 T03280222

2010/08/09 15:56
KGNR 091556Z AUTO VRB04KT 21/17 A2994 RMK AO1 SLP136 T02060172

2010/08/09 15:56
PADK 091556Z 29018KT 6SM BKN028 OVC035 10/07 A2968 RMK AO1 PNO

2010/08/09 15:56
KP28 091556Z AUTO 16006KT 33/19 A2989 RMK AO2 SLP101 T03330194 PWINO TSNO

2010/08/09 15:56
KNUQ 091556Z AUTO 10006KT 10SM OVC016 16/11 A2993 RMK AO2 SLP137 T01610111 TSNO 

2010/08/09 15:56
KINS 091556Z 00000KT 10SM CLR 22/09 A2999 RMK AO2 SLP110 T02220089 $ 

2010/08/09 15:56
KNPA 091556Z 07007KT 10SM FEW035 SCT280 32/25 A2997 RMK AO2 SLP150 T03170250 

2010/08/09 15:50
OAKN 091550Z 26006KT 8000 DU FEW180 36/02 Q1004 BLU NOSIG RMK A2964 DA6700

2010/08/09 16:00
OPKC 091600Z 31004KT 6000 FEW020 SCT025 BKN100 27/25 Q1001 NOSIG

2010/08/09 16:00
OPPS 091600Z NE-06KTS 2000 BR FEW040 BKN100 29/26 Q1002.5

2010/08/09 15:55
OPSK 091555Z 00000KT 2000 HZ SCT040 SCT100 30/28 Q999 RH 89

2010/08/09 15:50
EBAW 091550Z VRB03KT CAVOK 23/09 Q1016 NOSIG

2010/08/09 15:50
EBBR 091550Z VRB02KT CAVOK 22/10 Q1016 NOSIG

2010/08/09 15:50
EBCI 091550Z VRB03KT 9999 FEW040 23/09 Q1016 NOSIG

2010/08/09 15:50
EBLG 091550Z 29005KT 260V330 9999 FEW045 21/09 Q1016 NOSIG

2010/08/09 15:50
EBOS 091550Z 30006KT 260V320 CAVOK 19/15 Q1016 NOSIG

2010/08/09 15:50
ELLX 091550Z 26005KT 210V300 9999 FEW030 SCT050 22/10 Q1017 NOSIG

2010/08/09 15:58
YPEA 091558Z AUTO 08008KT 9999NDV // NCD 09/02 Q1024

2010/08/09 15:50
LOWG 091550Z 17005KT 120V200 9999 FEW040 24/13 Q1017 NOSIG

2010/08/09 15:50
LOWI 091550Z 10009KT 050V130 9999 FEW080 24/12 Q1015 NOSIG

2010/08/09 15:50
LOWK 091550Z VRB05KT 9999 FEW045 25/14 Q1016 NOSIG

2010/08/09 15:50
LOWL 091550Z 32005KT 9999 FEW048 24/12 Q1017 NOSIG

2010/08/09 15:50
LOWS 091550Z VRB03KT 9999 FEW045 23/09 Q1017 NOSIG

2010/08/09 15:50
LOWW 091550Z 36008KT 9999 FEW055 22/14 Q1017 NOSIG

2010/08/09 15:50
EFIV 091550Z 02013KT 8000 -RA BKN008 OVC020 11/11 Q1013

2010/08/09 15:50
EFKE 091550Z 36010KT 9999 BKN015 17/14 Q1008

2010/08/09 15:58
YPEA 091558Z AUTO 08008KT 9999NDV // NCD 09/02 Q1024

2010/08/09 15:50
LIBD 091550Z 03007KT 340V070 CAVOK 28/16 Q1014

2010/08/09 15:50
LICC 091550Z 06015KT CAVOK 29/21 Q1013

2010/08/09 15:50
LICJ 091550Z 04010KT CAVOK 27/20 Q1016

2010/08/09 15:50
LIEA 091550Z 30003KT 240V340 CAVOK 25/17 Q1017

2010/08/09 15:50
LIEO 091550Z 07005KT CAVOK 27/19 Q1016

2010/08/09 15:50
LIMC 091550Z 23006KT 180V280 9999 FEW030 28/17 Q1015 NOSIG

2010/08/09 15:50
LIME 091550Z 17004KT 130V220 9999 FEW040 28/16 Q1015

2010/08/09 15:50
LIMF 091550Z 06004KT 9999 FEW030 28/16 1014

2010/08/09 15:50
LIMJ 091550Z VRB01KT 9999 FEW020 26/21 Q1016

2010/08/09 15:50
LIML 091550Z 16004KT 9999 FEW030 29/15 Q1014 NOSIG

2010/08/09 15:45
LIBR 091545Z 33017KT CAVOK 27/22 Q1014 NOSIG

2010/08/09 15:45
LIEE 091545Z 07010KT CAVOK 28/19 Q1015 NOSIG

2010/08/09 15:50
LIMC 091550Z 23006KT 180V280 9999 FEW030 28/17 Q1015 NOSIG

2010/08/09 15:50
LIPB 091550Z 15009KT 9999 FEW060 31/15 Q1013

2010/08/09 15:50
LIPE 091550Z 09003KT 020V140 9999 SCT050 29/18 Q1013

2010/08/09 15:50
LIPK 091550Z 24009KT 9999 FEW050 29/15 Q1013

2010/08/09 15:50
LIPQ 091550Z 21005KT CAVOK 27/18 Q1014

2010/08/09 15:50
LIPZ 091550Z 17006KT CAVOK 28/19 Q1014

2010/08/09 15:50
LIRF 091550Z 26011KT CAVOK 27/21 Q1015 NOSIG

2010/08/09 15:50
LIRQ 091550Z 25009KT 210V280 9999 FEW030 29/17 Q1015

2010/08/09 15:45
LIPH 091545Z 20005KT 9999 FEW020 28/20 Q1014

2010/08/09 15:45
LIPR 091545Z 09007KT CAVOK 27/21 Q1014

2010/08/09 15:45
LIPX 091545Z 15004KT 9999 FEW040 30/16 Q1014

2010/08/09 15:45
LIRA 091545Z 27009KT 220V330 9999 FEW020 31/14 Q1015

2010/08/09 15:45
LIRP 091545Z 25007KT 210V340 9999 FEW020 SCT030 26/21 Q1015 NOSIG

2010/08/09 15:45
LIPX 091545Z 15004KT 9999 FEW040 30/16 Q1014

2010/08/09 15:48
MMGL 091548Z 04003KT 6SM BKN020TCU BKN300 22/18 A3018 RMK 8/208 SC-AC

2010/08/09 15:46
MMSP 091546Z 00000KT 12SM SCT020 24/15 A3027 RMK 8/100 AC

2010/08/09 15:48
MMGL 091548Z 04003KT 6SM BKN020TCU BKN300 22/18 A3018 RMK 8/208 SC-AC

2010/08/09 15:55
EHDL 091555Z AUTO 23007KT 9999NDV BKN071 21/13 Q1016 BLU

2010/08/09 15:55
EHEH 091555Z AUTO 24004KT 9999NDV FEW072 23/12 Q1016 BLU BLU NOSIG

2010/08/09 15:55
EHGR 091555Z AUTO 25002KT 9999NDV BKN380 23/10 Q1015 BLU

2010/08/09 15:55
EHLW 091555Z AUTO 26007KT 9999NDV NCD 20/13 Q1015 BLU

2010/08/09 15:55
EHVK 091555Z AUTO 20004KT 9999NDV FEW062 BKN070 21/13 Q1016 BLU

2010/08/09 15:55
EHVL 091555Z AUTO 23014KT 9999NDV FEW290 20/15 Q1015 BLU

2010/08/09 15:55
EHWO 091555Z AUTO 21003KT 9999NDV FEW093 BKN230 23/11 Q1015 BLU

2010/08/09 15:50
LSZA 091550Z 17005KT 140V200 9999 FEW050 28/16 Q1015 NOSIG

2010/08/09 15:50
EGCC 091550Z 19012KT 9999 FEW028 BKN035 18/15 Q1010 BECMG 26010KT

2010/08/09 15:50
EGLL 091550Z 22013KT 190V250 9999 FEW049 24/10 Q1013 NOSIG

2010/08/09 15:50
EGNS 091550Z 21009KT 9999 FEW020 BKN040 16/13 Q1009 NOSIG

2010/08/09 15:50
EGSH 091550Z 21013KT 9999 SCT046 24/11 Q1012

2010/08/09 15:50
EGOS 091550Z 28012KT 9999 SCT022 20/15 Q1010 WHT BECMG FEW025 BLU

2010/08/09 15:50
EGOV 091550Z 21011KT 9999 FEW004 SCT050 17/15 Q1010 BLU NOSIG

2010/08/09 15:50
EGQK 091550Z 24005KT 9999 -SHRA FEW015 SCT030 15/14 Q1005 BLU TEMPO 7000 SHRA SCT022 WHT

2010/08/09 15:50
EGQL 091550Z 24009KT 9999 -SHRA FEW018 BKN050 16/15 Q1006 BLU

2010/08/09 15:50
EGQS 091550Z 27011KT 9999 6000SE SHRA FEW010 SCT019 BKN040 14/13 Q1005 WHT BECMG 9999 NSW FEW020 BLU

2010/08/09 15:50
EGSC 091550Z 20011KT 150V260 CAVOK 25/08 Q1012

2010/08/09 15:50
EGBE 091550Z 22015KT 9999 SCT029 SCT032 21/14 Q1012

2010/08/09 15:50
EGBJ 091550Z 21011KT 190V250 9999 BKN018 20/15 Q1012

2010/08/09 15:50
EGDM 091550Z 23013KT 9999 BKN020 BKN050 19/14 Q1014 WHT BECMG BKN014 GRN

2010/08/09 15:54
ETAD 091554Z AUTO 23009KT 9999 SCT060 23/09 A3003 RMK AO2 SLP163 $

2010/08/09 15:45
MMEP 091545Z 00000KT 12SM BKN120 OVC250 24/17 A3010 RMK 8/077

2010/08/09 16:00
MDSD 091600Z 14006KT 9999 SCT025 SCT300 32/23 Q1014

2010/08/09 16:00
MGGT 091600Z 36010KT 9999 SCT017 OVC200 24/18 Q1025 A30/27 PACAYA EN ACTIVIDAD NOSIG

2010/08/09 16:00
MHLC 091600Z 36004KT 9999 SCT024TCU BKN250 31/25 Q1013 A2991 NOSIG

2010/08/09 15:49
MMCV 091549Z 18010KT 8SM SCT020 31/23 A2995 RMK 8/500 HZY

2010/08/09 15:51
MMRX 091551Z 17015KT 8SM BKN025 32/26 A2993 RMK 8/500 HZY

2010/08/09 16:00
MROC 091600Z 00000KT 9999 FEW040 BKN120 25/21 A3005 NOSIG

2010/08/09 16:00
MYNN 091600Z 17005KT 9999 FEW020 SCT038 BKN080 31/22 A2998

2010/08/09 15:55
PACZ 091555Z 15008KT 2SM BR -DZ BKN008 09/07 A2919 RMK RAE19DZB19 WR// SLPNO BWC LOW

2010/08/09 15:55
PAED 091555Z AUTO 34009KT 10SM OVC070 12/10 A2962 RMK AO2 SLP033 T01240100

2010/08/09 15:55
PAEI 091555Z AUTO 00000KT 10SM -RA OVC070 12/10 A2958 RMK AO2 RAB1551DZE1457 SLP016 P0000 T01210099 $

2010/08/09 15:55
PAFB 091555Z VRB03KT 13SM FEW050 BKN070 OVC090 14/10 A2957 RMK SLP012

2010/08/09 15:55
PATC 091555Z 01016KT 10SM BKN090 13/11 A2932 RMK SLPNO BWC LOW

2010/08/09 15:55
PHHI 091555Z AUTO 00000KT 10SM BKN034 BKN042 21/18 A3009 RMK AO2 DZB1509E1520 SLP179 P0000 T02140183 $

2010/08/09 15:55
RJTY 091555Z AUTO 20008KT 9999 BKN050 OVC060 24/23 A3005 RMK AO2 SLP169 T02430228

2010/08/09 15:55
RODN 091555Z 17018G26KT 9999 FEW016 BKN022 BKN027 28/26 A2973 RMK AO2A PK WND 17030/1500 RAB1513E1527 CIG 020V025 SLP066 P0000 T02770256

2010/08/09 16:00
SVMG 091600Z 14006KT 9999 SCT010CB BKN080 32/21 Q1013 NOSIG

2010/08/09 16:00
SVMI 091600Z 02003KT 9999 FEW016 BKN100 32/26 Q1013 NOSIG

2010/08/09 15:56
KWMC 091556Z AUTO 16006KT 10SM CLR 23/06 A2998 RMK AO2 SLP104 T02280056 

2010/08/09 15:56
KGNA 091556Z AUTO 26005KT 19/17 A2986 RMK AO2 SLP108 T01940167 PWINO TSNO 

2010/08/09 15:56
KLWS 091556Z 00000KT 10SM CLR 21/11 A2986 RMK AO2 SLP102 T02060106 

2010/08/09 15:56
KNFL 091556Z VRB06KT 10SM FEW220 24/06 A2998 RMK AO2 SLP125 T02390056 

2010/08/09 15:56
KSXT 091556Z AUTO 35005KT M1/4SM -RA FG VV001 12/12 A3000 RMK AO2 RAE14B31 SLP127 P0000 T01220117 TSNO 

2010/08/09 15:56
KFSD 091556Z 07004KT 10SM CLR 27/22 A2991 RMK AO2 SLP120 SCT ABV 120 T02670217 $ 

2010/08/09 15:56
KD07 091556Z AUTO 17014KT 28/19 A2993 RMK AO2 SLP114 T02830189 PWINO TSNO 

2010/08/09 15:56
KFLG 091556Z 20005KT 10SM FEW090 18/08 A3029 RMK AO2 SLP165 T01830083 

2010/08/09 15:56
KNYG 091556Z 17009KT 8SM FEW200 SCT250 30/22 A3003 RMK AO2 SLP170 T03000222 $ 

2010/08/09 15:56
KNBT 091556Z AUTO 08005KT 8SM CLR 27/24 A3005 RMK AO2 RAE53 SLP180 P0002 T02720244 TSNO 

2010/08/09 15:56
K8D3 091556Z AUTO 16003KT 29/20 A2991 RMK AO2 SLP110 T02890200 PWINO TSNO 

2010/08/09 15:57
CYKJ 091557Z AUTO 10005KT 6SM -RA OVC005 16/15 A2975 RMK SLP086 DENSITY ALT 2300FT

2010/08/09 15:56
KP53 091556Z AUTO 02006KT 25/22 A2986 RMK AO2 SLP109 T02500222 PWINO TSNO 

2010/08/09 15:56
KAQV 091556Z AUTO 00000KT 10SM CLR 32/23 A2998 RMK AO2 SLP148 T03220228 $ 

2010/08/09 15:56
PASY 091556Z AUTO 29006KT 1SM BR VV001 09/08 A2984 RMK AO2 SLP103 T00890083 TSNO PNO $ 

2010/08/09 15:53
KLND 091553Z AUTO VRB05KT 10SM CLR 23/06 A3006 RMK AO2 SLP108 T02280061 

2010/08/09 15:50
VECC 091550Z 19005KT 2800 HZ FEW020 31/27 Q1001 NOSIG

2010/08/09 15:56
KNLC 091556Z 34007KT 10SM CLR 21/12 A2989 RMK AO2 SLP119 RH/58 T02110122 

2010/08/09 15:56
KSPD 091556Z AUTO 35007KT 27/16 A3003 RMK AO2 SLP098 T02720161 PWINO TSNO 

2010/08/09 15:50
LIEA 091550Z 30003KT 240V340 CAVOK 25/17 Q1017

2010/08/09 15:45
LIEE 091545Z 07010KT CAVOK 28/19 Q1015 NOSIG

2010/08/09 15:50
LIEO 091550Z 07005KT CAVOK 27/19 Q1016

2010/08/09 15:50
LIMF 091550Z 06004KT 9999 FEW030 28/16 1014

2010/08/09 15:50
LIMJ 091550Z VRB01KT 9999 FEW020 26/21 Q1016

2010/08/09 15:50
LIML 091550Z 16004KT 9999 FEW030 29/15 Q1014 NOSIG

2010/08/09 15:45
LIRA 091545Z 27009KT 220V330 9999 FEW020 31/14 Q1015

2010/08/09 15:50
LIRF 091550Z 26011KT CAVOK 27/21 Q1015 NOSIG

2010/08/09 15:50
LIRN 091550Z 30008KT CAVOK 28/17 Q1014

2010/08/09 15:45
LIRP 091545Z 25007KT 210V340 9999 FEW020 SCT030 26/21 Q1015 NOSIG

2010/08/09 15:50
LIRQ 091550Z 25009KT 210V280 9999 FEW030 29/17 Q1015

2010/08/09 15:56
K9L2 091556Z AUTO 00000KT 10SM CLR 22/M02 A2994 RMK AO2 SLP121 T02221022 $ 

2010/08/09 15:57
KNXF 091557Z AUTO 27005KT 8SM OVC017 18/12 A2992 RMK AO2 SLP218 T01830122 TSNO 

2010/08/09 16:00
GVBA 091600Z 04010KT 9999 FEW015 30/19 Q1013 NOSIG

2010/08/09 15:50
EGWU 091550Z 24012KT CAVOK 24/09 Q1013 NOSIG

2010/08/09 16:00
SVMI 091600Z 02003KT 9999 FEW016 BKN100 32/26 Q1013 NOSIG

2010/08/09 15:55
CYUB 091555Z 21005KT 15SM BKN005 BKN220 RMK SC7CI0

2010/08/09 15:50
BGBW 091550Z 02002KT 9999 FEW015 BKN070 13/09 Q1008 RMK 1ST 7AC

2010/08/09 15:50
BGCO 091550Z 01031G46KT 1300SE 9999N BLSA SCT001 11/00 Q1008

2010/08/09 15:50
BGGH 091550Z 20011KT 9999 FEW009 BKN060 13/09 Q1008

2010/08/09 15:50
BGJN 091550Z 36003KT 9999 BKN150 11/02 Q1007 RMK 6AC

2010/08/09 15:50
BGKK 091550Z 23013KT 9999 FEW080 SCT220 12/M00 Q1009

2010/08/09 15:50
BGSF 091550Z 25004KT 210V300 9999 SCT029 BKN050 14/09 Q1008

2010/08/09 15:55
BGTL 091555Z AUTO 27005KT 9999 CLR 04/03 A2989 RMK AO2 SLP126 T00440027

2010/08/09 15:55
KQAQ 091555Z 33005KT 6000 DU HZ FEW015 43/08 A2953 RMK DU FEW015 SLP994 PA +487 DA +3710

2010/08/09 15:55
KQAR 091555Z AUTO 31006KT 7SM CLR 37/00 A2953 RMK AO2 SLP940 T03720004 $

2010/08/09 15:55
KQBL 091555Z AUTO VRB04KT 10SM CLR 33/24 A3000 RMK AO2 SLP159 T03250243

2010/08/09 15:55
KQC3 091555Z AUTO 05012G25KT 9999 -SHRA SCT100 BKN130 18/16 A3010 RMK AO2 PK WND 06028/1521 SLP106 T01830157 PNO $

2010/08/09 15:55
KQIU 091555Z AUTO 00000KT 4800 -RA BR FEW085 BKN100 18/15 A3011 RMK AO2 SLP116

2010/08/09 15:55
KQON 091555Z AUTO 34002KT 5000 FEW044 SCT055 40/05 A2958 RMK AO2 SLP998 T04000048

2010/08/09 15:55
KQQR 091555Z AUTO 17003KT 9999 BKN048 28/20 A2982 RMK AO2 SLP032 T02770196 $

2010/08/09 15:56
KGFA 091556Z AUTO 24003KT 10SM CLR 22/08 A2990 RMK AO2 SLP122 T02220083 

2010/08/09 15:56
K2WX 091556Z AUTO 17014KT 28/16 A2985 RMK AO1 SLP078 T02780161 

2010/08/09 15:55
KBIX 091555Z 03009KT 10SM SCT028 33/25 A2997 RMK AO2A SLP149 WND DATA ESTMD ALSTG/SLP ESTMD

2010/08/09 15:55
KCOF 091555Z 12007KT 10SM CLR 29/25 A2995 RMK AO2A SLP144 T02900245

2010/08/09 15:55
KEND 091555Z 16010KT 10SM SCT200 34/20 A2991 RMK AO2A SLP109 T03400204

2010/08/09 15:55
KLSV 091555Z AUTO 09007KT 10SM CLR 28/10 A2993 RMK AO2 SLP122 T02790096

2010/08/09 15:55
KMXF 091555Z AUTO 10006KT 10SM CLR 34/23 A3000 RMK AO2 SLP158 T03410230

2010/08/09 15:55
KNUC 091555Z 00000KT 10SM BKN014 19/11 A2995 RMK SLP140 T01920112

2010/08/09 15:52
KNZY 091552Z 00000KT 10SM BKN017 20/13 A2992 RMK AO2 SLP132 T02000128 $

2010/08/09 15:55
KPSM 091555Z 26012G17KT 10SM FEW050 BKN200 31/19 A2992 RMK AO2A SLP134 T03080193

2010/08/09 15:55
KSKF 091555Z 18006KT 10SM SCT020 31/23 A2999 RMK AO2A SLP144 T03050230 $

2010/08/09 15:55
KSZL 091555Z 11006KT 10SM SCT090 BKN200 32/24 A2995 RMK AO2A SLP133 T03230245 PNO $

2010/08/09 15:55
KVBG 091555Z 04004KT 6SM -DZ BR SCT004 BKN006 OVC010 14/12 A2996 RMK AO2 DZB25 SLP136 P0000 T01390122

2010/08/09 16:00
MHLC 091600Z 36004KT 9999 SCT024TCU BKN250 31/25 Q1013 A2991 NOSIG

2010/08/09 16:00
MHLM 091600Z 18008KT 9999 FEW028 BKN250 31/26 Q1013 A2991 NOSIG

2010/08/09 16:00
MHRO 091600Z 10012KT 9999 FEW022TCU BKN250 31/25 Q1013 A2991 NOSIG

2010/08/09 16:00
MHTG 091600Z 36005KT 9999 SCT026 BKN250 26/20 Q1019 A3009 NOSIG

2010/08/09 15:56
MUGM 091556Z 12015KT 9999 SCT025 OVC250 31/24 A2996 RMK SLP146 T03110244

2010/08/09 15:56
PMDY 091556Z AUTO 07008KT 10SM FEW024 26/22 A3021 RMK AO2 TSNO T02550216 SLP538

2010/08/09 15:53
KLOR 091553Z AUTO 07006KT 10SM FEW032 33/23 A2999 RMK AO2 P1e T03280233 TSNO PNO $ 

2010/08/09 15:53
KHEY 091553Z AUTO VRB05KT 10SM CLR 33/24 A2999 RMK AO2 SLP042 T03280239 $ 

2010/08/09 15:55
KBIX 091555Z 03009KT 10SM SCT028 33/25 A2997 RMK AO2A SLP149 WND DATA ESTMD ALSTG/SLP ESTMD

2010/08/09 15:55
KCOF 091555Z 12007KT 10SM CLR 29/25 A2995 RMK AO2A SLP144 T02900245

2010/08/09 15:55
KDLF 091555Z AUTO 12009KT 10SM OVC019 28/22 A2997 RMK AO2 SLP133 T02830225

2010/08/09 15:50
KEFD 091550Z 23003KT 10SM BKN020 32/24 A2999

2010/08/09 15:55
KEND 091555Z 16010KT 10SM SCT200 34/20 A2991 RMK AO2A SLP109 T03400204

2010/08/09 15:55
KFMH 091555Z AUTO 24010KT 9SM BKN013 27/22 A3001 RMK AO2

2010/08/09 15:55
KFRI 091555Z AUTO 20005KT 10SM CLR 34/22 A2987 RMK AO2 SLP095 T03360217

2010/08/09 15:55
KFSI 091555Z AUTO 20008KT 10SM CLR 33/21 A2992 RMK AO2 SLP105 T03280212

2010/08/09 15:55
KGBN 091555Z 04004KT 12SM CLR 32/07 A2987 RMK SLP096

2010/08/09 15:55
KHIF 091555Z AUTO 16009KT 10SM CLR 23/09 A3006 RMK AO2 SLP073 T02260089

2010/08/09 15:55
KLSV 091555Z AUTO 09007KT 10SM CLR 28/10 A2993 RMK AO2 SLP122 T02790096

2010/08/09 15:55
KLTS 091555Z AUTO 20009KT 10SM CLR 33/20 A2991 RMK AO2 SLP108 T03350196 $

2010/08/09 15:55
KLUF 091555Z 06004KT 10SM CLR 32/11 A2988 RMK AO2A SLP088 T03160110 $

2010/08/09 15:55
KMCF 091555Z AUTO 06007KT 10SM BKN017 29/26 A2994 RMK AO2 CIG 016V021 BKN V SCT SLP140 T02950262

2010/08/09 15:55
KMIB 091555Z AUTO 20007KT 10SM CLR 23/18 A2983 RMK AO2 SLP098 T02250183

2010/08/09 15:55
KMMT 091555Z 09007KT 10SM FEW030 32/23 A3004 RMK SLP171

2010/08/09 15:55
KMXF 091555Z AUTO 10006KT 10SM CLR 34/23 A3000 RMK AO2 SLP158 T03410230

2010/08/09 15:54
KNKT 091554Z 14008KT 10SM SCT014 SCT032 BKN043 27/24 A3006 RMK AO2 RAB23E33 SLP174 P0000 T02670239

2010/08/09 15:56
KNTU 091556Z 10006KT 10SM FEW030 BKN200 29/22 A3004 RMK AO2 SLP176 T02890217 $

2010/08/09 15:55
KNUC 091555Z 00000KT 10SM BKN014 19/11 A2995 RMK SLP140 T01920112

2010/08/09 15:52
KNZY 091552Z 00000KT 10SM BKN017 20/13 A2992 RMK AO2 SLP132 T02000128 $

2010/08/09 15:55
KPAM 091555Z AUTO 07007KT 10SM CLR 32/25 A2996 RMK AO2 SLP149 T03200246 $

2010/08/09 15:55
KPOB 091555Z AUTO 00000KT 10SM CLR 31/25 A3004 RMK AO2 SLP171 T03130249 $

2010/08/09 15:55
KPSM 091555Z 26012G17KT 10SM FEW050 BKN200 31/19 A2992 RMK AO2A SLP134 T03080193

2010/08/09 15:55
KSKA 091555Z AUTO 22006KT 10SM FEW075 17/10 A2988 RMK AO2 SLP107 T01740102

2010/08/09 15:55
KSKF 091555Z 18006KT 10SM SCT020 31/23 A2999 RMK AO2A SLP144 T03050230 $

2010/08/09 15:55
KSLI 091555Z 00000KT 6SM HZ OVC013 17/14 A2993 RMK AO2A SLP137 T01670138

2010/08/09 15:55
KSZL 091555Z 11006KT 10SM SCT090 BKN200 32/24 A2995 RMK AO2A SLP133 T03230245 PNO $

2010/08/09 15:55
KTCM 091555Z AUTO 17004KT 10SM SCT009 OVC025 14/12 A2998 RMK AO2 SLP154 T01370119

2010/08/09 15:55
KVAD 091555Z AUTO 05012KT 10SM CLR 32/23 A3000 RMK AO2 SLP157 T03190230 $

2010/08/09 15:55
KVBG 091555Z 04004KT 6SM -DZ BR SCT004 BKN006 OVC010 14/12 A2996 RMK AO2 DZB25 SLP136 P0000 T01390122

2010/08/09 15:55
KVOK 091555Z 31006KT 10SM SCT018 27/23 A2992 RMK AO2A SCT V BKN SLP127

2010/08/09 15:55
KWRB 091555Z 05008KT 10SM FEW020 33/24 A3003 RMK SLP162

2010/08/09 15:55
KNBG 091555Z VRB06KT 10SM SCT025 BKN250 33/24 A2998 RMK AO2 SLP150 T2 SET T03280239 $

2010/08/09 15:56
KNCA 091556Z 08004KT 10SM SCT030 BKN080 32/24 A3004 RMK AO2 SLP173 T03170239 $

2010/08/09 15:54
KNFG 091554Z 08003KT 7SM SCT017 17/13 A2993 RMK AO2 SLP133 T01720128 $

2010/08/09 15:56
KNGP 091556Z 13007KT 10SM SCT023 BKN028 BKN039 31/24 A2995 RMK AO2 SLP140 T03100242 VISNO $

2010/08/09 15:56
KNJK 091556Z 00000KT 10SM CLR 30/09 A2979 RMK AO2 SLP104 T03000089

2010/08/09 15:54
KNKT 091554Z 14008KT 10SM SCT014 SCT032 BKN043 27/24 A3006 RMK AO2 RAB23E33 SLP174 P0000 T02670239

2010/08/09 15:55
KNKX 091555Z VRB03KT 10SM OVC010 17/13 A2993 RMK AO2 SLP130 T01720128

2010/08/09 15:56
KNQI 091556Z 14008KT 10SM BKN041 35/24 A2994 RMK AO2 SLP135 T03500244

2010/08/09 15:56
KNTU 091556Z 10006KT 10SM FEW030 BKN200 29/22 A3004 RMK AO2 SLP176 T02890217 $

2010/08/09 15:56
KNXX 091556Z 25004KT 10SM FEW045 31/18 A3004 RMK AO2 SLP175 T03060178 $

2010/08/09 15:55
KPOE 091555Z AUTO 31005KT 10SM CLR 31/22 A2999 RMK AO2 SLP156 T03110222

2010/08/09 15:56
KSGH 091556Z 19004KT 5SM HZ CLR 29/23 A3005 RMK AO2 T02880227 SLP166 $

2010/08/09 15:55
KVBG 091555Z 04004KT 6SM -DZ BR SCT004 BKN006 OVC010 14/12 A2996 RMK AO2 DZB25 SLP136 P0000 T01390122 $

2010/08/09 15:56
KWJF 091556Z 00000KT 10SM CLR 22/03 A2994 RMK AO2 SLP125 T02220028

2010/08/09 15:56
PASY 091556Z AUTO 29006KT 1SM BR VV001 09/08 A2984 RMK AO2 SLP103 T00890083 TSNO PNO $

2010/08/09 15:56
PHBK 091556Z AUTO 00000KT 10SM CLR 23/16 A3007 RMK AO2 SLP184 T02280156 TSNO $

2010/08/09 15:56
TJSJ 091556Z 09015G22KT 10SM FEW024 SCT046 SCT085 31/24 A2998 RMK AO2 RAB24E33 SLP151 VCSH SE-S P0000 T03110244

2010/08/09 15:56
KNXP 091556Z 34004KT 7SM CLR 26/M02 A2999 RMK AO2 SLP118 T02561022 $ 

2010/08/09 15:52
KMLF 091552Z AUTO 20012KT 10SM CLR 19/11 A3010 RMK AO2 SLP138 T01890106 TSNO 

2010/08/09 15:50
EDLN 091550Z VRB03KT 9999 SCT046 22/13 Q1016 RMK ATIS W

2010/08/09 15:50
EDLP 091550Z VRB02KT CAVOK 20/11 Q1017 RMK RWY24 TRL60 OK ATIS C

2010/08/09 15:50
EDXW 091550Z 29008KT CAVOK 18/10 Q1015 RMK ATIS INFO T

2010/08/09 15:55
EHAM 091555Z 25005KT 210V290 9999 FEW040 21/13 Q1015 NOSIG

2010/08/09 15:55
EHBK 091555Z AUTO 25006KT 200V340 9999NDV NSC 22/09 Q1016 NOSIG

2010/08/09 15:55
EHDL 091555Z AUTO 23007KT 9999NDV BKN071 21/13 Q1016 BLU

2010/08/09 15:55
EHEH 091555Z AUTO 24004KT 9999NDV FEW072 23/12 Q1016 BLU BLU NOSIG

2010/08/09 15:55
EHGG 091555Z AUTO 25007KT 220V290 9999NDV FEW037 21/12 Q1015 NOSIG

2010/08/09 15:55
EHGR 091555Z AUTO 25002KT 9999NDV BKN380 23/10 Q1015 BLU

2010/08/09 15:55
EHLW 091555Z AUTO 26007KT 9999NDV NCD 20/13 Q1015 BLU

2010/08/09 15:55
EHRD 091555Z VRB05KT 9999 FEW042 22/13 Q1015 NOSIG

2010/08/09 15:55
EHVK 091555Z AUTO 20004KT 9999NDV FEW062 BKN070 21/13 Q1016 BLU

2010/08/09 15:55
EHVL 091555Z AUTO 23014KT 9999NDV FEW290 20/15 Q1015 BLU

2010/08/09 15:55
EHWO 091555Z AUTO 21003KT 9999NDV FEW093 BKN230 23/11 Q1015 BLU

2010/08/09 15:55
ETAD 091555Z AUTO 23008KT 9999 SCT060 23/09 A3003 RMK AO2 SLP163 T02270086 $

2010/08/09 15:55
ETAR 091555Z AUTO 00000KT 9999 SCT070 23/12 A3002 RMK AO2 SLP162 T02330123 $

2010/08/09 15:55
ETEB 091555Z AUTO VRB04KT 9999 BKN041 BKN050 22/13 A3006 RMK AO2 SLP167 T02160126

2010/08/09 15:56
ETIC 091556Z AUTO 20004KT 9999 CLR 21/19 A3004 RMK AO2 SLP163 T02090193

2010/08/09 15:55
ETIK 091555Z 33004KT 9999 FEW048 BKN070 21/13 A3005 RMK AO2A SLP167 T02130133 $

2010/08/09 15:55
ETOU 091555Z AUTO 22004KT 9999 SCT075 23/13 A3002 RMK AO2 SLP165 T02300130

2010/08/09 15:50
LSZA 091550Z 17005KT 140V200 9999 FEW050 28/16 Q1015 NOSIG

2010/08/09 15:55
KCAO 091555Z AUTO 35005KT 10SM CLR 28/14 A3008 RMK AO2 SLP104 T02830144 TSNO 

2010/08/09 15:53
KPBI 091553Z COR 14011KT 10SM SCT022 SCT055 BKN080 30/24 A2995 RMK AO2 SLP140 CB DSNT ALQDS T02970238

2010/08/09 15:56
KSBP 091556Z 00000KT 8SM OVC009 14/12 A2995 RMK AO2 SLP142 T01390117 $

2010/08/09 15:53
KSFB 091553Z 10006KT 10SM FEW022 BKN046 OVC080 30/25 A2994

2010/08/09 15:56
KSGH 091556Z 19004KT 5SM HZ CLR 29/23 A3005 RMK AO2 T02880227 SLP166 $

2010/08/09 15:58
KSGJ 091558Z 07012KT 10SM FEW014 31/26 A2997 RMK AO2 SLP149 T03110261

2010/08/09 15:55
KSME 091555Z AUTO 00000KT 10SM 31/23 A3004 RMK AO2

2010/08/09 15:56
KTPH 091556Z AUTO 17004KT 10SM CLR 21/01 A3010 RMK AO2 SLP123 T02060011

2010/08/09 15:53
KUNI 091553Z AUTO 18003KT 10SM CLR 31/13 A3004 RMK AO2

2010/08/09 15:56
KWJF 091556Z 00000KT 10SM CLR 22/03 A2994 RMK AO2 SLP125 T02220028

2010/08/09 15:55
KY51 091555Z AUTO 24006KT 10SM BKN016 BKN021 26/22 A2995 RMK AO1 T02550219

2010/08/09 15:55
KY63 091555Z AUTO 23003KT 10SM CLR 28/19 A2993 RMK AO2 T02770192

2010/08/09 15:56
TJSJ 091556Z 09015G22KT 10SM FEW024 SCT046 SCT085 31/24 A2998 RMK AO2 RAB24E33 SLP151 VCSH SE-S P0000 T03110244

2010/08/09 15:56
PAFS 091556Z AUTO 00000KT 8SM -RA OVC043 11/09 A2952 RMK AO2 TSNO T01050088 RAE02B21E31B47 P0000 SLP004 $

2010/08/09 15:56
PAGN 091556Z AUTO 00000KT OVC027 RMK AO2 PWINO TSNO SLPNO $

2010/08/09 15:56
PAHC 091556Z AUTO 00000KT 10SM FEW021 SCT038 OVC045 11/10 A2939 RMK AO2 TSNO T01050100 RAE41 P0003 SLP955 $

2010/08/09 15:56
PAIG 091556Z AUTO 20006KT 10SM OVC015 11/10 A2954 RMK AO2 PWINO TSNO T01110100 SLP006 $

2010/08/09 15:57
PAKU 091557Z 06024KT 1/4SM FG VV001 02/02 A2979

2010/08/09 15:56
PAMO 091556Z AUTO 13017KT 1/2SM RA FG OVC001 09/09 A2929 RMK AO2 TSNO T00940094 P0001 SLP917 $

2010/08/09 15:50
PAMX 091550Z 20006KT 12SM -RA SCT038 BKN045 OVC060 10/09 A2986 RMK NOSPECI

2010/08/09 15:56
PAOO 091556Z AUTO 14015KT 1 1/2SM -RA BR BKN007 OVC012 09/09 A2920 RMK AO2 TSNO T00940094 CIG 004V010 RAB14 P0000 SLP887 $

2010/08/09 15:56
PAPM 091556Z AUTO 18024G30KT 3SM BR BKN009 BKN013 OVC090 09/09 A2936 RMK AO2 TSNO T00940088 CIG 006V010 RAE06 P0001 PK WND 17030/1542 SLP942 $

2010/08/09 15:56
PARS 091556Z AUTO 11006KT 6SM -RA BR BKN010 OVC015 11/10 A2936 RMK AO2 TSNO T01050100 CIG 007V011 P0000 SLP947 $

2010/08/09 15:56
PARY 091556Z AUTO 06009KT 10SM BKN033 OVC040 11/09 A2948 RMK AO2 PWINO TSNO T01050094 SLP987

2010/08/09 15:56
PATQ 091556Z AUTO 07017KT 10SM OVC007 01/00 A2982 RMK AO2 TSNO T00110000 SLP103 $

2010/08/09 15:56
KSDF 091556Z 17003KT 7SM FEW100 SCT150 SCT200 32/21 A3001 RMK AO2 SLP155 T03220206

2010/08/09 15:53
K04W 091553Z AUTO 00000KT 10SM OVC005 25/24 A2994 RMK AO2 T02490235

2010/08/09 15:56
K14Y 091556Z AUTO 00000KT 10SM CLR 28/18 A2995 RMK AO2 T02770176

2010/08/09 15:55
K21D 091555Z AUTO 36005KT 10SM CLR 28/22 A2992 RMK AO2

2010/08/09 15:56
KART 091556Z AUTO 26009KT 10SM FEW022 SCT075 27/20 A2995 RMK AO2 SLP136 T02670200

2010/08/09 15:56
KBED 091556Z 23007KT 10SM FEW100 SCT200 31/18 A2995 RMK AO2 SLP150 T03110178

2010/08/09 15:54
KBJI 091554Z AUTO 26004KT 10SM CLR 27/18 A2991 RMK AO2

2010/08/09 15:56
KBJJ 091556Z AUTO VRB05KT 9SM CLR 28/20 A3004 RMK AO2 SLP164 T02830200

2010/08/09 15:55
KBUU 091555Z AUTO 21008KT 10SM CLR 24/22 A2994 RMK AO2 T02440216

2010/08/09 15:56
KBZN 091556Z 00000KT 10SM OVC100 17/11 A3000 RMK AO2 SLP131 T01720111

2010/08/09 15:54
KC29 091554Z AUTO 28004KT 10SM SCT110 26/21 A2993 RMK AO2 T02640213

2010/08/09 15:56
KCTB 091556Z AUTO 21007KT 10SM CLR 22/07 A2992 RMK AO2 SLP104 T02220072 PWINO

2010/08/09 15:56
KCXY 091556Z 07004KT 8SM CLR 30/19 A3001 RMK AO2 SLP162 T03000194

2010/08/09 15:53
KD39 091553Z AUTO 31003KT 10SM CLR 29/19 A2995 RMK AO2 T02890189

2010/08/09 15:56
KDAY 091556Z 22007KT 9SM FEW090 SCT250 30/18 A3004 RMK AO2 SLP162 T03000178

2010/08/09 15:55
KDVK 091555Z AUTO 20005KT 10SM CLR 32/20 A3004 RMK AO1

2010/08/09 15:56
KEED 091556Z AUTO 00000KT 10SM CLR 28/M01 A2988 RMK AO2 SLP085 T02831011 TSNO

2010/08/09 15:56
KELZ 091556Z AUTO 24005KT 10SM CLR 25/17 A3010 RMK AO2 SLP178 T02500172

2010/08/09 15:54
KEZS 091554Z AUTO 00000KT 10SM SCT014 BKN023 27/24 A2989 RMK AO2 T02700237

2010/08/09 15:56
KGON 091556Z 21007KT 6SM HZ CLR 27/21 A3000 RMK AO2 SLP159 T02720211

2010/08/09 15:55
KHFJ 091555Z AUTO 22006KT 10SM CLR 32/24 A2997 RMK AO1

2010/08/09 15:56
KHND 091556Z 00000KT 10SM CLR 26/08 A2998 RMK AO2 T02610077 SLP104

2010/08/09 15:56
KHPN 091556Z VRB03KT 10SM CLR 31/18 A3001 RMK AO2 SLP154 T03060178

2010/08/09 15:56
KHWV 091556Z AUTO 21008KT 8SM CLR 28/22 A3002 RMK AO2 SLP164 T02780222

2010/08/09 15:56
KHYA 091556Z 22017G21KT 10SM CLR 29/20 A2999 RMK AO2 SLP157 T02890200

2010/08/09 15:56
KINW 091556Z AUTO VRB06KT 10SM CLR 21/15 A3016 RMK AO2 PK WND 21062/1505 SLP146 T02110150

2010/08/09 15:56
KISP 091556Z 18007KT 10SM FEW020 29/21 A3000 RMK AO2 SLP157 T02890206

2010/08/09 15:56
KITH 091556Z 26004KT 10SM SCT090 29/18 A3004 RMK AO2 T02880183 SLP164

2010/08/09 15:56
KJXN 091556Z VRB04KT 1/4SM HZ CLR 24/20 A2998 RMK AO2 SLP144 T02440200

2010/08/09 15:56
KLAS 091556Z 00000KT 10SM CLR 27/09 A2992 RMK AO2 SLP107 T02720089

2010/08/09 15:55
KLCK 091555Z 20008KT 10SM CLR 30/20 A3002 RMK AO2 T02950199

2010/08/09 15:56
KLRD 091556Z 17011KT 10SM -RA CLR 33/23 A2997 RMK AO2 T03270227 RAB22 P0000 SLP135

2010/08/09 15:56
KMDT 091556Z 00000KT 8SM BKN250 30/21 A3001 RMK AO2 SLP159 T03000211

2010/08/09 15:45
KMYR 091545Z 09011KT 10SM FEW015 SCT025 31/25 A3007

2010/08/09 15:56
KOWB 091556Z VRB03KT 10SM CLR 33/23 A3000 RMK AO2 T03270233 SLP153

2010/08/09 15:54
KRIC 091554Z 00000KT 10SM SCT055 SCT250 32/19 A3004 RMK AO2 SLP176 T03220194

2010/08/09 15:56
KJAX 091556Z 06014KT 10SM SCT032 32/23 A2997 RMK AO2 SLP149 T03220233

2010/08/09 15:55
K1A6 091555Z AUTO 00000KT A3007 RMK AO2 PWINO

2010/08/09 15:55
K1P1 091555Z AUTO 30010G15KT 10SM SCT050 BKN055 29/17 A2995 RMK AO2 T02930172

2010/08/09 15:53
K29G 091553Z AUTO 22004KT 10SM CLR 27/17 A3004 RMK AO2 T02710169 PWINO

2010/08/09 15:55
K46D 091555Z AUTO 20008KT 10SM CLR 30/19 A2988 RMK AO2

2010/08/09 15:57
K4I3 091557Z AUTO 23004KT 10SM CLR 28/19 A3005 RMK AO2

2010/08/09 15:55
KACB 091555Z AUTO 00000KT 5SM HZ BKN017 BKN029 BKN037 28/23 A2986 RMK AO2

2010/08/09 15:58
KACQ 091558Z AUTO 25006KT 10SM SCT016 SCT120 27/22 A2995 RMK AO2

2010/08/09 15:57
KADC 091557Z AUTO 30004KT 10SM CLR 27/16 A2993 RMK AO2

2010/08/09 15:50
KAEL 091550Z AUTO 00000KT 10SM CLR 27/22 A2993 RMK AO2

2010/08/09 15:55
KAIG 091555Z AUTO 29005KT 7SM CLR 27/22 A2991 RMK AO2

2010/08/09 15:53
KAIT 091553Z AUTO 00000KT 10SM CLR 28/23 A2992 RMK AO2

2010/08/09 15:56
KAJO 091556Z AUTO VRB03KT 6SM HZ CLR 18/14 A2993 RMK AO2 T01770138 SLP129 $

2010/08/09 15:54
KAMN 091554Z AUTO 21009KT 10SM CLR 24/21 A2992 RMK AO2

2010/08/09 15:53
KAQP 091553Z AUTO 00000KT 10SM CLR 27/23 A2992 RMK AO2

2010/08/09 15:55
KAUM 091555Z AUTO 27005KT 10SM CLR 27/22 A2993 RMK AO2

2010/08/09 15:54
KAVP 091554Z AUTO 31007KT 10SM CLR 31/14 A3003 RMK AO2 SLP157 T03060139 TSNO

2010/08/09 16:05
KBAX 091605Z AUTO 23009KT 5SM HZ CLR 23/21 A2992 RMK AO2

2010/08/09 15:53
KBBB 091553Z AUTO 09003KT 10SM CLR 29/20 A2996 RMK AO2

2010/08/09 15:55
KBBF 091555Z AUTO 16007KT 10SM FEW023 31/27 A2995 RMK A01

2010/08/09 15:55
KBDH 091555Z AUTO 00000KT 10SM CLR 28/21 A2993 RMK AO2

2010/08/09 15:53
KBFW 091553Z AUTO 20005KT 10SM CLR 27/20 A2989 RMK AO2

2010/08/09 15:55
KBKN 091555Z AUTO 21006KT 10SM CLR 35/20 A2990 RMK AO2

2010/08/09 15:55
KBQX 091555Z AUTO 15005KT 10SM CLR 30/26 A2997 RMK A01

2010/08/09 15:50
KBWP 091550Z AUTO 20003KT 10SM CLR 28/18 A2992 RMK AO1 T02750175

2010/08/09 15:54
KCAD 091554Z AUTO 25007KT 10SM CLR 25/21 A2991 RMK AO2

2010/08/09 15:56
KCAE 091556Z 08007KT 9SM FEW039 33/22 A3003 RMK AO2 SLP164 T03280222

2010/08/09 15:55
KCBG 091555Z AUTO 00000KT 10SM SCT010 27/23 A2992 RMK AO2

2010/08/09 15:54
KCDA 091554Z AUTO 22004KT 10SM SCT038 SCT045 BKN060 25/16 A2999 RMK AO2

2010/08/09 15:52
KCDD 091552Z AUTO 00000KT 10SM SCT070 26/23 A2992 RMK AO2

2010/08/09 16:03
KCFE 091603Z AUTO 01003KT 10SM CLR 29/23 A2994 RMK AO2 T02850230

2010/08/09 15:55
KCFS 091555Z AUTO 21003KT 5SM BR SCT060 SCT070 SCT080 24/22 A2992 RMK AO2

2010/08/09 15:56
KCHS 091556Z 05011KT 10SM FEW100 32/23 A3001 RMK AO2 SLP163 T03170228

2010/08/09 15:55
KCKC 091555Z AUTO 28005KT 10SM CLR 26/17 A2992 RMK AO2

2010/08/09 15:55
KCKN 091555Z AUTO 19007KT 10SM CLR 27/20 A2987 RMK AO2

2010/08/09 15:55
KOZW 091555Z AUTO 22005KT 10SM CLR 26/20 A2996 RMK AO2

2010/08/09 15:53
KPEX 091553Z AUTO 01004KT 10SM CLR 28/21 A2994 RMK AO2 T02790209

2010/08/09 15:53
KPNM 091553Z AUTO 00000KT 7SM OVC005 25/24 A2993 RMK AO2

2010/08/09 15:53
KPQN 091553Z AUTO 14004KT 10SM CLR 28/22 A2994 RMK AO2

2010/08/09 15:52
KPVB 091552Z AUTO 25010KT 10SM OVC012 24/21 A2995 RMK AO1 T02440214

2010/08/09 15:55
KPVF 091555Z AUTO 00000KT 10SM CLR 23/11 A2996 RMK AO1

2010/08/09 15:53
KPWC 091553Z AUTO 21003KT 10SM CLR 26/19 A2994 RMK AO2

2010/08/09 15:54
KPZQ 091554Z AUTO 16005KT 3SM RA SCT011 SCT021 OVC090 20/19 A2993 RMK AO2

2010/08/09 15:54
KRFD 091554Z 22005KT 10SM FEW010 SCT050 BKN150 BKN250 26/21 A2996 RMK AO2 SLP139 T02560206

2010/08/09 15:55
KRGK 091555Z AUTO 00000KT 10SM CLR 29/22 A2990 RMK AO2

2010/08/09 15:55
KRNP 091555Z AUTO 21005KT 10SM SCT013 SCT120 24/21 A2994 RMK AO2

2010/08/09 15:54
KROS 091554Z AUTO 00000KT 10SM OVC003 24/23 A2993 RMK AO2 T02360230

2010/08/09 15:54
KROX 091554Z AUTO 11004KT 10SM CLR 28/23 A2986 RMK AO2

2010/08/09 15:55
KRQB 091555Z AUTO 21004KT 10SM SCT085 26/21 A2991 RMK AO2

2010/08/09 15:54
KRRT 091554Z AUTO 09004KT 10SM CLR 24/20 A2988 RMK AO2 TSNO

2010/08/09 15:53
KRZN 091553Z AUTO 28003KT 10SM BKN005 25/22 A2994 RMK AO2 T02450221

2010/08/09 15:54
KSAZ 091554Z AUTO 00000KT 10SM CLR 28/18 A2994 RMK AO2

2010/08/09 15:53
KSBA 091553Z COR 14006KT 3SM R07/2600VP6000FT BR BKN005 14/13 A2993 RMK AO2 SLP134 T01440133

2010/08/09 15:55
KSCF 091555Z AUTO 33010KT 10SM CLR 31/25 A2993 RMK A01

2010/08/09 15:53
KSGS 091553Z AUTO 01003KT 10SM CLR 29/21 A2991 RMK AO2 T02930212

2010/08/09 15:56
KSHV 091556Z 26007KT 10SM FEW300 33/23 A2998 RMK AO2 SLP146 T03330233

2010/08/09 15:55
KSJX 091555Z AUTO 09007KT 7SM BKN005 22/21 A2989 RMK AO2

2010/08/09 15:55
KSLH 091555Z AUTO 16006KT 5SM -RA SCT022 BKN032 OVC050 21/20 A2990 RMK AO2

2010/08/09 15:55
KSPR 091555Z AUTO 32009KT 10SM 32/25 A2998 RMK A01

2010/08/09 15:55
KSRR 091555Z AUTO 29006KT 10SM SCT110 18/14 A3027 RMK AO2

2010/08/09 15:54
KSYN 091554Z AUTO 00000KT 10SM CLR 29/23 A2991 RMK AO2 T02850230

2010/08/09 15:53
KTEW 091553Z AUTO 26004KT 10SM CLR 23/20 A2996 RMK AO2

2010/08/09 15:53
KTKC 091553Z AUTO 03004KT 10SM CLR 26/22 A2992 RMK AO2 T02640221

2010/08/09 15:56
KCOQ 091556Z AUTO 26003KT 10SM CLR 24/21 A2993 RMK AO2

2010/08/09 15:57
KCQM 091557Z AUTO 00000KT 10SM CLR 24/20 A2992 RMK AO2

2010/08/09 15:55
KCRH 091555Z AUTO 00000KT 10SM CLR 33/25 A3000 RMK A01

2010/08/09 15:50
KCVH 091550Z AUTO 00000KT 10SM OVC009 14/12 A2995 RMK AO1

2010/08/09 15:55
KCVX 091555Z AUTO 06004KT 7SM SCT012 OVC021 24/21 A2989 RMK AO2

2010/08/09 15:50
KCWF 091550Z 30003KT 10SM SCT055 32/24 A2999

2010/08/09 15:56
KDIJ 091556Z AUTO VRB03KT 10SM CLR 20/08 A3013 RMK AO2 T02000077 SLP122 $

2010/08/09 15:55
KDLL 091555Z AUTO 26007KT 10SM BKN014 BKN022 26/21 A2993 RMK AO2 T02550212

2010/08/09 15:55
KDLP 091555Z AUTO 01014KT 10SM SCT110 30/25 A2998 RMK A01

2010/08/09 15:57
KDRM 091557Z AUTO 17004KT 10SM SCT065 23/20 A2992 RMK AO2

2010/08/09 15:55
KDTL 091555Z AUTO 27005KT 10SM CLR 26/16 A2995 RMK AO2

2010/08/09 15:55
KDUH 091555Z AUTO 26004KT 10SM CLR 28/18 A2998 RMK AO2

2010/08/09 15:56
KDVP 091556Z AUTO 14004KT 10SM CLR 28/21 A2996 RMK AO2 T02800206

2010/08/09 15:54
KDXX 091554Z AUTO 00000KT 10SM CLR 27/23 A2991 RMK AO2

2010/08/09 15:54
KDYT 091554Z AUTO 08005KT 10SM SCT006 22/19 A2991 RMK AO2

2010/08/09 16:00
KEDU 091600Z AUTO 00000KT 10SM CLR 17/13 A2988 RMK AO1

2010/08/09 15:55
KEFK 091555Z AUTO 25004KT 10SM BKN034 BKN039 OVC060 22/17 A2997 RMK AO2

2010/08/09 15:51
KEGV 091551Z AUTO 31009KT 10SM SCT018 26/22 A2993 RMK AO2 T02620218

2010/08/09 15:55
KEHC 091555Z AUTO 00000KT 10SM CLR 31/24 A3000 RMK A01

2010/08/09 15:55
KEIR 091555Z AUTO 28007KT 10SM CLR 31/24 A2999 RMK A01

2010/08/09 15:55
KEKM 091555Z 00000KT 10SM BKN043 BKN120 26/20 A2999 RMK AO2

2010/08/09 15:56
KEKQ 091556Z AUTO 00000KT 10SM CLR 33/25 A3006 RMK AO2 T03270250 RAB46E54 P0000 SLP173

2010/08/09 15:53
KELO 091553Z AUTO 00000KT 10SM CLR 24/19 A2991 RMK AO2

2010/08/09 15:55
KEMK 091555Z AUTO 15003KT 10SM FEW023 FEW035 31/26 A2999 RMK A01

2010/08/09 15:55
KERY 091555Z AUTO 14006KT 10SM OVC036 24/21 A2990 RMK AO2

2010/08/09 15:52
KETB 091552Z AUTO 24009KT 10SM BKN020 OVC110 26/21 A2992 RMK AO2 T02610209

2010/08/09 15:55
KCLI 091555Z AUTO 00000KT 10SM BKN020 28/22 A2989 RMK AO2

2010/08/09 15:55
KCMB 091555Z AUTO 30005KT 10SM FEW026 FEW033 32/25 A2999 RMK A01

2010/08/09 15:55
KCMY 091555Z AUTO 00000KT 10SM BKN020 27/22 A2992 RMK AO2 T02700218

2010/08/09 15:54
KCNB 091554Z AUTO 35003KT 10SM CLR 27/21 A2993 RMK AO2 T02710211

2010/08/09 15:53
KGHW 091553Z AUTO 09003KT 10SM CLR 29/16 A2997 RMK AO2

2010/08/09 15:52
KGLW 091552Z AUTO 21003KT 10SM CLR 32/23 A3001 RMK AO2 T03200229

2010/08/09 15:55
KGOV 091555Z AUTO 00000KT 4SM BR OVC008 24/22 A2991 RMK AO2

2010/08/09 15:54
KGSO 091554Z 19004KT 9SM FEW045 31/20 A3008 RMK AO2 SLP172 T03110200

2010/08/09 15:55
KGUL 091555Z AUTO 10SM FEW026 31/25 A2999 RMK A01

2010/08/09 15:53
KGYL 091553Z AUTO 00000KT 10SM CLR 27/21 A2992 RMK AO2 T02710210

2010/08/09 15:55
KHAF 091555Z AUTO 20005KT 2 1/2SM BR OVC009 12/11 A2995 RMK AO2

2010/08/09 15:55
KHAI 091555Z AUTO 35003G16KT 10SM RA SCT024 SCT030 BKN042 23/21 A3000 RMK AO2

2010/08/09 15:52
KHCD 091552Z AUTO 00000KT 10SM SCT120 27/21 A2993 RMK AO2 T02700207 TSNO

2010/08/09 15:54
KHCO 091554Z AUTO 13006KT 10SM CLR 29/19 A2986 RMK AO2

2010/08/09 15:50
KHQI 091550Z AUTO 08003KT 10SM 32/26 A2999 RMK A01

2010/08/09 15:55
KHTO 091555Z 20014KT 7SM SKC 27/23 A3003

2010/08/09 15:50
KHXD 091550Z 36010KT 10SM SCT050 30/25 A3001

2010/08/09 15:54
KHYX 091554Z AUTO 24005KT 10SM SCT120 25/20 A2990 RMK AO2

2010/08/09 15:51
KHZX 091551Z AUTO 00000KT 10SM CLR 27/21 A2993 RMK AO2

2010/08/09 15:54
KIKW 091554Z AUTO 22004KT 10SM SCT034 SCT055 BKN100 25/21 A2989 RMK AO2 T02530206

2010/08/09 15:55
KIPN 091555Z AUTO VRB06G12KT 10SM FEW060 FEW085 SCT120 29/24 A2998 RMK A01

2010/08/09 15:55
KIRS 091555Z AUTO 17005KT 10SM CLR 26/21 A2999 RMK AO2

2010/08/09 15:55
KISQ 091555Z AUTO 10004KT 10SM OVC010 25/21 A2987 RMK AO2

2010/08/09 15:54
KJKJ 091554Z AUTO 21006KT 10SM CLR 27/21 A2990 RMK AO2

2010/08/09 15:55
KJMR 091555Z AUTO 00000KT 10SM OVC004 23/22 A2995 RMK AO2

2010/08/09 15:55
KJYG 091555Z AUTO 00000KT 10SM CLR 28/26 A2993 RMK AO2

2010/08/09 15:55
KJYM 091555Z AUTO 00000KT 10SM CLR 27/19 A2999 RMK AO2

2010/08/09 15:52
KLJF 091552Z AUTO 00000KT 10SM CLR 29/24 A2992 RMK AO2

2010/08/09 15:55
KLNL 091555Z AUTO 31004KT 10SM SCT020 BKN026 BKN031 25/20 A2994 RMK AO2 T02540198

2010/08/09 15:53
KLVN 091553Z AUTO 00000KT 10SM CLR 28/22 A2992 RMK AO2

2010/08/09 15:56
KLWA 091556Z AUTO 18005KT 10SM -RA SCT045 SCT050 SCT120 23/22 A2997 RMK AO2

2010/08/09 15:53
KLXL 091553Z AUTO 00000KT 10SM CLR 27/18 A2993 RMK AO2

2010/08/09 15:58
KLYV 091558Z AUTO 00000KT 10SM SCT014 26/21 A2992 RMK AO2

2010/08/09 15:56
KM89 091556Z AUTO 23003KT 9SM CLR 34/26 A2996 RMK AO2 T03440255 SLP158 $

2010/08/09 15:55
KMDJ 091555Z AUTO 34016KT 10SM FEW023 SCT033 BKN044 31/26 A2998 RMK A01

2010/08/09 15:55
KMGG 091555Z AUTO 00000KT 10SM CLR 29/24 A2993 RMK AO2 T02860239

2010/08/09 15:55
KMGN 091555Z AUTO 07008KT 10SM SCT009 OVC020 23/21 A2989 RMK AO2

2010/08/09 15:55
KMHR 091555Z AUTO 18004KT 10SM CLR 15/12 A2990 RMK AO1

2010/08/09 15:55
KMIU 091555Z AUTO 17009KT 10SM FEW021 30/26 A2995 RMK A01

2010/08/09 15:51
KMJQ 091551Z AUTO 17006KT 10SM BKN020 26/22 A2994 RMK AO2

2010/08/09 15:54
KMOP 091554Z AUTO 22006KT 10SM CLR 25/23 A2990 RMK AO2

2010/08/09 15:49
KMOX 091549Z AUTO 00000KT 10SM CLR 28/19 A2989 RMK AO2

2010/08/09 15:53
KMRT 091553Z AUTO 21005KT 7SM CLR 28/20 A3006 RMK AO2 T02750204

2010/08/09 15:50
KMTN 091550Z 13008KT 10SM SCT200 30/25 A3003

2010/08/09 15:54
KMVE 091554Z AUTO 07003KT 10SM CLR 28/24 A2991 RMK AO2

2010/08/09 15:53
KMWM 091553Z AUTO 00000KT 10SM CLR 27/22 A2992 RMK AO2

2010/08/09 15:55
KMZG 091555Z AUTO 00000KT 10SM CLR 31/25 A2995 RMK A01

2010/08/09 15:51
KMZH 091551Z AUTO 00000KT 10SM SCT011 26/22 A2991 RMK AO2

2010/08/09 15:56
KNTU 091556Z 10006KT 10SM FEW030 BKN200 29/22 A3004 RMK AO2 SLP176 T02890217 $

2010/08/09 15:55
KOEB 091555Z AUTO 28004KT 10SM CLR 26/21 A3000 RMK AO2

2010/08/09 15:50
KONA 091550Z AUTO 00000KT 10SM OVC015 26/21 A2991 RMK AO2

2010/08/09 15:54
KONZ 091554Z AUTO 24006KT 7SM CLR 28/21 A2996 RMK AO2

2010/08/09 15:54
KORB 091554Z AUTO 00000KT 10SM CLR 24/19 A2989 RMK AO2

2010/08/09 15:53
KOVL 091553Z AUTO 05003KT 10SM CLR 27/20 A2991 RMK AO2 T02670201

2010/08/09 15:54
KOWA 091554Z AUTO 25004KT 10SM BKN014 26/23 A2992 RMK AO2

2010/08/09 15:54
KETH 091554Z AUTO 00000KT 10SM CLR 28/19 A2995 RMK AO2

2010/08/09 15:52
KEVM 091552Z AUTO 00000KT 10SM SCT004 22/20 A2990 RMK AO1

2010/08/09 15:54
KFBL 091554Z AUTO 34003KT 10SM CLR 28/23 A2993 RMK AO2

2010/08/09 15:53
KFFM 091553Z AUTO 25003KT 10SM CLR 27/19 A2990 RMK AO2

2010/08/09 15:55
KFFX 091555Z AUTO 20009KT 10SM SCT008 BKN100 OVC120 25/22 A2992 RMK AO2

2010/08/09 15:54
KFGN 091554Z AUTO 16003KT 10SM CLR 23/20 A2987 RMK AO2

2010/08/09 15:54
KFKS 091554Z AUTO 27003KT 7SM SCT036 SCT046 BKN055 26/21 A2987 RMK AO2

2010/08/09 15:53
KFOZ 091553Z AUTO 00000KT 10SM CLR 27/21 A2992 RMK AO2

2010/08/09 15:56
KFPK 091556Z AUTO 23003KT 10SM -RA SCT008 BKN042 OVC120 22/21 A2996 RMK AO2

2010/08/09 15:54
KFSE 091554Z AUTO 23005KT 10SM CLR 26/18 A2989 RMK AO2

2010/08/09 15:59
KFSO 091559Z AUTO 23003KT 10SM SCT050 BKN055 OVC065 24/21 A2994 RMK AO2

2010/08/09 15:54
KFWA 091554Z 28004KT 9SM FEW150 BKN250 28/21 A3001 RMK AO2 SLP155 T02830211

2010/08/09 15:55
KGBK 091555Z AUTO 00000KT 10SM CLR 33/25 A3000 RMK A01

2010/08/09 15:52
KGDB 091552Z AUTO 02003KT 10SM CLR 28/22 A2993 RMK AO2 T02790215

2010/08/09 15:50
PAFK 091550Z 15007KT 10SM SCT030 OVC060 13/07 A2957 RMK EST PASS MRGL NOSPECI

2010/08/09 15:51
PFYU 091551Z 01010KT 10SM FEW050 BKN080 11/ A2959

2010/08/09 15:54
KTOB 091554Z AUTO 24006KT 10SM SCT017 27/23 A2994 RMK AO2

2010/08/09 15:53
KTWM 091553Z AUTO 16006KT 10SM SCT100 23/19 A2990 RMK AO2

2010/08/09 15:50
KUKT 091550Z AUTO 26006KT 10SM CLR 30/19 A3004 RMK AO1

2010/08/09 15:54
KULM 091554Z AUTO 00000KT 10SM CLR 27/22 A2991 RMK AO2

2010/08/09 15:55
KVAF 091555Z AUTO 15006KT 10SM CLR 32/25 A2994 RMK A01

2010/08/09 15:55
KVBS 091555Z AUTO 00000KT 10SM CLR 31/24 A2998 RMK A01

2010/08/09 15:53
KVES 091553Z AUTO 25004KT 10SM CLR 29/20 A3002 RMK AO2 T02870203

2010/08/09 15:54
KVLL 091554Z AUTO 24006KT 10SM SCT070 28/18 A2998 RMK AO2

2010/08/09 15:56
KVVV 091556Z AUTO 00000KT 10SM CLR 27/21 A2993 RMK AO2

2010/08/09 15:49
KVWU 091549Z AUTO 28003KT 10SM CLR 27/21 A2989 RMK AO2

2010/08/09 15:56
KXVG 091556Z AUTO 00000KT 10SM CLR 27/21 A2991 RMK AO2

2010/08/09 15:55
KY70 091555Z AUTO 20005KT 10SM -DZ SCT036 SCT047 SCT075 23/22 A2993 RMK AO2 T02340219

2010/08/09 15:56
PAGN 091556Z AUTO 00000KT OVC027 RMK AO2 PWINO TSNO SLPNO $

2010/08/09 15:56
PATQ 091556Z AUTO 07017KT 10SM OVC007 01/00 A2982 RMK AO2 TSNO T00110000 SLP103 $

2010/08/09 15:58
YPEA 091558Z AUTO 08008KT 9999NDV // NCD 09/02 Q1024

2010/08/09 15:56
KMHS 091556Z AUTO 00000KT 10SM CLR 18/09 A2997 RMK AO2 PK WND 33029/1528 SLP138 T01780094 TSNO 

2010/08/09 15:57
KNJM 091557Z AUTO 12006KT 10SM CLR 28/25 A3005 RMK AO2 SLP179 T02830250 

2010/08/09 15:58
CYZE 091558Z AUTO VRB04KT 9SM BKN018 24/19 A2991 RMK DENSITY ALT 1800FT

2010/08/09 16:00
GLRB 091600Z 23008KT 9999 BKN016 27/24 Q1012 NOSIG

2010/08/09 16:00
OYSY 091600Z 26003KT 9999 SCT039 BKN059 37/11 Q1002

2010/08/09 16:00
OYRN 091600Z 20006KT 9999 FEW034CB 29/20 Q1000

2010/08/09 16:00
LWOH 091600Z 17002KT 9999 FEW050 27/14 Q1014

2010/08/09 15:55
EHAM 091555Z 25005KT 210V290 9999 FEW040 21/13 Q1015 NOSIG

2010/08/09 15:55
EHBK 091555Z AUTO 25006KT 200V340 9999NDV NSC 22/09 Q1016 NOSIG

2010/08/09 15:55
EHGG 091555Z AUTO 25007KT 220V290 9999NDV FEW037 21/12 Q1015 NOSIG

2010/08/09 15:55
EHRD 091555Z VRB05KT 9999 FEW042 22/13 Q1015 NOSIG

2010/08/09 15:50
LSMA 091550Z AUTO 04007KT 010V070 9999NDV FEW061 25/14 Q1016 RMK BLU

2010/08/09 15:50
LSMM 091550Z AUTO 26007KT 9999NDV NCD 25/14 Q1016 RMK BLU

2010/08/09 15:55
EHEH 091555Z AUTO 24004KT 9999NDV FEW072 23/12 Q1016 BLU BLU NOSIG

2010/08/09 15:55
EHKD 091555Z AUTO 21008KT 9999NDV FEW180/// 20/14 Q1015 BLU BLU NOSIG

2010/08/09 15:50
EDHL 091550Z 30004KT 270V330 9999 BKN035 17/17 Q1016 RMK W

2010/08/09 15:50
EDLN 091550Z VRB03KT 9999 SCT046 22/13 Q1016 RMK ATIS W

2010/08/09 15:50
EDLP 091550Z VRB02KT CAVOK 20/11 Q1017 RMK RWY24 TRL60 OK ATIS C

2010/08/09 15:50
EDLW 091550Z 27005KT 230V300 CAVOK 21/13 Q1017 RMK ATISZ

2010/08/09 15:50
EDNY 091550Z VRB03KT 9999 FEW050 25/12 Q1016 RMK ATIS Y

2010/08/09 15:50
EDXW 091550Z 29008KT CAVOK 18/10 Q1015 RMK ATIS INFO T

2010/08/09 15:55
EHAM 091555Z 25005KT 210V290 9999 FEW040 21/13 Q1015 NOSIG

2010/08/09 15:55
EHBK 091555Z AUTO 25006KT 200V340 9999NDV NSC 22/09 Q1016 NOSIG

2010/08/09 15:55
EHGG 091555Z AUTO 25007KT 220V290 9999NDV FEW037 21/12 Q1015 NOSIG

2010/08/09 15:55
EHKD 091555Z AUTO 21008KT 9999NDV FEW180/// 20/14 Q1015 BLU BLU NOSIG

2010/08/09 15:55
EHLW 091555Z AUTO 26007KT 9999NDV NCD 20/13 Q1015 BLU

2010/08/09 15:55
EHRD 091555Z VRB05KT 9999 FEW042 22/13 Q1015 NOSIG

2010/08/09 15:55
EHVL 091555Z AUTO 23014KT 9999NDV FEW290 20/15 Q1015 BLU

2010/08/09 15:55
EHWO 091555Z AUTO 21003KT 9999NDV FEW093 BKN230 23/11 Q1015 BLU

2010/08/09 15:55
ETIK 091555Z 33004KT 9999 FEW048 BKN070 21/13 A3005 RMK AO2A SLP167 T02130133 $

2010/08/09 15:50
LGBL 091550Z 10010KT CAVOK 32/19 Q1009 NOSIG BLU

2010/08/09 15:50
LGLR 091550Z 07009KT 9999 FEW035 33/15 Q1010 NOSIG BLU

2010/08/09 15:50
LGPZ 091550Z 24014KT 9999 FEW020TCU 28/21 Q1010 NOSIG BLU

2010/08/09 15:50
LGRX 091550Z 24005KT CAVOK 30/21 Q1008 NOSIG BLU

2010/08/09 15:50
LGSR 091550Z 33015KT CAVOK 30/21 Q1006 NOSIG BLU

2010/08/09 15:50
LGSY 091550Z 30010KT CAVOK 29/22 Q1007 NOSIG BLU

2010/08/09 15:50
LOXT 091550Z 06006KT 40KM FEW030CU SCT110AC 22/15 Q1016 RMK SCT

2010/08/09 16:00
LWOH 091600Z 17002KT 9999 FEW050 27/14 Q1014

2010/08/09 16:00
FIMP 091600Z 09010G20KT 9999 FEW010 BKN015 21/18 Q1024

2010/08/09 15:54
KWAL 091554Z 15004KT 10SM FEW020 SCT250 29/17 A3006 RMK AO2 SLP174 T02940172 

2010/08/09 16:00
SBBE 091600Z 14006KT 9999 SCT025 32/23 Q1012

2010/08/09 16:00
SBCF 091600Z 33002KT CAVOK 25/06 Q1021

2010/08/09 16:00
SBCY 091600Z 21004KT CAVOK 35/10 Q1015

2010/08/09 16:00
SBFZ 091600Z 13014KT CAVOK 31/18 Q1013

2010/08/09 16:00
SBMO 091600Z 17004KT 9999 SCT018 BKN100 24/19 Q1017

2010/08/09 16:00
SBRB 091600Z 17006KT 7000 NSC 37/16 Q1016

2010/08/09 16:00
SVBC 091600Z 18004KT 9999 BKN010 30/23 Q1015

2010/08/09 16:00
SVMG 091600Z 14006KT 9999 SCT010CB BKN080 32/21 Q1013 NOSIG

2010/08/09 16:00
SVMI 091600Z 02003KT 9999 FEW016 BKN100 32/26 Q1013 NOSIG

2010/08/09 15:54
PGSN 091554Z 18007KT 6SM -RA BR SCT016 BKN030 BKN050 26/24 A2989 RMK AO2 RAB10E34B54 SLP119 P0000 T02610239

2010/08/09 15:55
PGUA 091555Z AUTO 15004KT 10SM BKN075 24/24 A2991 RMK AO2 CLDS LWR RWY24L SLP111 T02440244 VISNO RWY24L $

2010/08/09 15:54
PGUM 091554Z 00000KT 10SM OVC060 24/24 A2991 RMK AO2 SLP120 T02440244

2010/08/09 15:56
PHBK 091556Z AUTO 00000KT 10SM CLR 23/16 A3007 RMK AO2 SLP184 T02280156 TSNO $

2010/08/09 15:55
PHHI 091555Z AUTO 00000KT 10SM BKN034 BKN042 21/18 A3009 RMK AO2 DZB1509E1520 SLP179 P0000 T02140183 $

2010/08/09 15:53
PHJR 091553Z AUTO VRB05KT 10SM FEW037 BKN047 25/17 A3008 RMK AO2 SLP191 T02500172 TSNO

2010/08/09 15:53
PHKO 091553Z VRB03KT 10SM CLR 22/18 A3000 RMK AO2 SLP160 T02220178 PNO $

2010/08/09 15:54
PHMK 091554Z 08005KT 10SM CLR 22/14 A3008 RMK AO2 SLP187 T02170144

2010/08/09 15:53
PHNL 091553Z 07010KT 10SM FEW034 25/16 A3007 RMK AO2 SLP181 T02500161

2010/08/09 15:54
PHOG 091554Z 05011KT 10SM CLR 24/17 A3007 RMK AO2 SLP187 T02390172

2010/08/09 15:53
PHTO 091553Z 12005KT 10SM RA SCT027 BKN049 OVC055 21/19 A3009 RMK AO2 RAB45 SLP188 P0000 T02060189 $

2010/08/09 15:55
RJTY 091555Z AUTO 20008KT 9999 BKN050 OVC060 24/23 A3005 RMK AO2 SLP169 T02430228

2010/08/09 15:55
RODN 091555Z 17018G26KT 9999 FEW016 BKN022 BKN027 28/26 A2973 RMK AO2A PK WND 17030/1500 RAB1513E1527 CIG 020V025 SLP066 P0000 T02770256

2010/08/09 15:56
KSMP 091556Z AUTO VRB05KT M1/4SM FG BKN001 OVC006 09/09 A2998 RMK AO2 SLP147 T00890089 TSNO $ 

2010/08/09 16:00
ORSU 091600Z 30008KT 9999 FEW045 34/03 Q1007 

2010/08/09 16:00
MHAM 091600Z 04002KT 9999 FEW015 BKN250 30/26

2010/08/09 16:00
MHTR 091600Z 17002KT 9999 FEW026 BKN250 32/25 HZ

2010/08/09 16:00
MHTE 091600Z 35004KT 9999 SCT024TCU SCT080 28/23 Q1012 TCU N NNE SW HZ

2010/08/09 16:00
MHYR 091600Z 18004KT 9999 SCT023TCU 27/22 TCU TD HZ

2010/08/09 16:00
MHCA 091600Z 17004KT 9999 SCT025TCU BKN080 28/21 TCU TD

2010/08/09 16:00
MHSR 091600Z 02002KT 9999 FEW009 SCT025 BKN250 25/19 HZ

2010/08/09 16:00
MHNO 091600Z 01004KT 9999 FEW040 SCT250 27/// HZ

2010/08/09 16:00
MHLE 091600Z 03005KT 9999 SCT024 BKN200 22/16 Q1024

2010/08/09 16:00
MHCH 091600Z 36002KT 9999 SCT032TCU SCT250 32/25 FEW100 TCU S HZ

2010/08/09 15:50
K3A6 091550Z AUTO 36001KT 21/09 A2991 RMK AO1 SLP145 T02100095 

2010/08/09 15:53
KUIL 091553Z AUTO 25003KT 9SM OVC002 12/12 A2998 RMK AO2 SLP151 T01220117 TSNO $ 

2010/08/09 15:58
CWZZ 091558Z AUTO ///// 1/8SM CLR 07/ A2960

2010/08/09 15:58
CWOB 091558Z AUTO ///// 0SM CLR 04/ A2969

2010/08/09 16:00
SBGL 091600Z 24020KT 9999 SCT020 26/16 Q1020

2010/08/09 16:00
SBFL 091600Z 16011KT 9999 FEW025 20/08 Q1022

2010/08/09 16:00
HAAB 091600Z 25008KT 7000 FEW023 BKN025CB BKN080 18/14 Q1022 R/M DIS RAIN

2010/08/09 15:56
KHLR 091556Z AUTO 16009KT 10SM CLR 33/21 A2999 RMK AO2 SLP143 T03330211 $ 

2010/08/09 15:53
KLOR 091553Z AUTO 07`6KT 10SM FEW032 33/23 A2999 RMK AO2 SLP152 T03280233 TSNO PNO $ 

2010/08/09 15:50
KHMS 091550Z 31010KT 15SM FEW250 23/10 A2981 RMK SLP093 T02260101 RSNK 15.7/20009KT 

2010/08/09 15:50
VECC 091550Z 19005KT 2800 HZ FEW020 31/27 Q1001 NOSIG

2010/08/09 15:50
VGEG 091550Z 00000KT 6000 LT SCT016 FEW028CB BKN090 29/26 Q1001 TEMPO TSRA

2010/08/09 15:50
VGZR 091550Z 09003KT 3000 HZ SCT012 BKN100 31/27 Q1001 TEMPO S/VIS 2500M

2010/08/09 15:57
PAGH 091557Z AUTO 12015G20KT 10SM -RA BKN080 BKN090 14/11 A2951 RMK AO2 SLP019 P0000 T01390111

2010/08/09 15:57
PAIW 091557Z AUTO 08010KT 10SM BKN110 13/12 A2935 RMK AO2 SLPNO T01330117

2010/08/09 15:56
PAMB 091556Z AUTO 20012KT 3SM BR OVC006 10/10 A2945 RMK AO2 PWINO TSNO T01000100 CIG 004V010 SLP975 $

2010/08/09 15:56
PAOH 091556Z AUTO 00000KT 10SM OVC029 13/13 A2997 RMK AO2 TSNO T01330127 SLP149 $

2010/08/09 15:57
PAVA 091557Z AUTO 13014KT 10SM OVC007 10/09 A2924 RMK AO2 RAB30E44 SLP903 P0000 T01000089

2010/08/09 15:56
PAWI 091556Z 06018G23KT 10SM OVC009 03/01 A2980 RMK ASOS VIA PHONE

2010/08/09 15:56
PPIZ 091556Z AUTO 07024G32KT 10SM BKN010 BKN015 03/01 A2969 RMK AO2 TSNO T00270011 PK WND 07032/1556 SLP057 $

2010/08/09 15:55
KBIX 091555Z 03009KT 10SM SCT028 33/25 A2997 RMK AO2A SLP149 WND DATA ESTMD ALSTG/SLP ESTMD

2010/08/09 15:55
KBVU 091555Z AUTO 00000KT 10SM CLR 26/09 A2997 RMK AO2

2010/08/09 15:55
KCMR 091555Z AUTO 14011KT 10SM SCT090 20/08 A3026 RMK AO1

2010/08/09 15:50
KEFD 091550Z 23003KT 10SM BKN020 32/24 A2999

2010/08/09 15:55
KLUF 091555Z 06004KT 10SM CLR 32/11 A2988 RMK AO2A SLP088 T03160110 $

2010/08/09 15:55
KMAN 091555Z AUTO 00000KT 10SM CLR 23/08 A2987 RMK AO1

2010/08/09 15:55
KMCF 091555Z AUTO 06007KT 10SM BKN017 29/26 A2994 RMK AO2 CIG 016V021 BKN V SCT SLP140 T02950262

2010/08/09 15:58
KMEI 091558Z 09005KT 10SM CLR 32/24 A3000 RMK AO2 SLP153 T03220244

2010/08/09 15:55
KMMT 091555Z 09007KT 10SM FEW030 32/23 A3004 RMK SLP171

2010/08/09 15:55
KMXF 091555Z AUTO 10006KT 10SM CLR 34/23 A3000 RMK AO2 SLP158 T03410230

2010/08/09 15:55
KPAM 091555Z AUTO 07007KT 10SM CLR 32/25 A2996 RMK AO2 SLP149 T03200246 $

2010/08/09 15:55
KPSM 091555Z 26012G17KT 10SM FEW050 BKN200 31/19 A2992 RMK AO2A SLP134 T03080193

2010/08/09 15:55
KRCM 091555Z AUTO 03004KT 10SM SCT120 31/24 A2994 RMK AO2

2010/08/09 15:55
KSNC 091555Z AUTO 20007G14KT 360V010 10SM CLR 27/24 A3002 RMK AO2

2010/08/09 15:53
KSUN 091553Z 29006KT 30SM SCT090 BKN120 17/09 A3005

2010/08/09 15:55
KVAD 091555Z AUTO 05012KT 10SM CLR 32/23 A3000 RMK AO2 SLP157 T03190230 $

2010/08/09 15:55
KWRB 091555Z 05008KT 10SM FEW020 33/24 A3003 RMK SLP162

2010/08/09 15:56
KY50 091556Z AUTO 23008KT 10SM OVC020 26/23 A2991 RMK AO2 T02550227 RAB43E53 P0000 SLP121

2010/08/09 15:50
EGDM 091550Z 23013KT 9999 BKN020 BKN050 19/14 Q1014 WHT BECMG BKN014 GRN

2010/08/09 15:50
EGNC 091550Z 25015KT 9999 SCT030 18/14 Q1008

2010/08/09 15:50
EGNH 091550Z 25007KT 220V290 9999 FEW010 SCT022 18/15 Q1010

2010/08/09 15:50
EGNJ 091550Z 25009KT 9999 BKN045 23/14 Q1010

2010/08/09 15:50
EGOS 091550Z 28012KT 9999 SCT022 20/15 Q1010 WHT BECMG FEW025 BLU

2010/08/09 15:50
EGOV 091550Z 21011KT 9999 FEW004 SCT050 17/15 Q1010 BLU NOSIG

2010/08/09 15:50
EGPA 091550Z 14009KT 9999 -RADZ SCT006 SCT010 BKN030 15/14 Q1006

2010/08/09 15:50
EGPC 091550Z 14010KT 9999 FEW008 SCT048 15/15 Q1005

2010/08/09 15:50
EGPE 091550Z 26006KT 9999 FEW015 FEW020CB SCT038 18/12 Q1005

2010/08/09 15:50
EGPL 091550Z AUTO 21010KT 9999NDV FEW017/// 16/11 Q1005

2010/08/09 15:50
EGPM 091550Z 13013KT 9999 FEW020 BKN028 14/11 Q1009

2010/08/09 15:50
EGPO 091550Z 21013KT 9999 FEW026 SCT030 17/11 Q1005

2010/08/09 15:50
EGQS 091550Z 27011KT 9999 6000SE SHRA FEW010 SCT019 BKN040 14/13 Q1005 WHT BECMG 9999 NSW FEW020 BLU

2010/08/09 15:55
EGVA 091555Z AUTO 22016G21KT 9999 OVC021 20/15 A2991 RMK AO2 SLP131 T01950152 $

2010/08/09 15:50
EGVN 091550Z 23008KT 9999 FEW024 BKN030 BKN090 20/15 Q1013 BLU BECMG BKN020 WHT

2010/08/09 15:50
EGVP 091550Z 23012KT 9999 SCT023 BKN030 20/13 Q1014 WHT NOSIG

2010/08/09 15:50
EGWU 091550Z 24012KT CAVOK 24/09 Q1013 BLU NOSIG

2010/08/09 15:50
EGXC 091550Z 22015KT CAVOK 24/11 Q1010 BLU NOSIG

2010/08/09 15:50
EGXJ 091550Z 24009KT CAVOK 20/15 Q1011 BLU NOSIG

2010/08/09 15:50
EGXU 091550Z 17009KT 8000 -RA BKN025 BKN040 19/16 Q1009 BLU TEMPO 6000 RA BKN020 WHT

2010/08/09 15:50
EGXW 091550Z 26014KT 9999 FEW040 BKN044 22/13 Q1010 BLU NOSIG

2010/08/09 15:56
KINS 091556Z 00000KT 10SM CLR 22/09 A2999 RMK AO2 SLP110 T02220089 $

2010/08/09 15:56
KNUQ 091556Z AUTO 10006KT 10SM OVC016 16/11 A2993 RMK AO2 SLP137 T01610111 TSNO

2010/08/09 15:56
KGNA 091556Z AUTO 26005KT 19/17 A2986 RMK AO2 SLP108 T01940167 PWINO TSNO

2010/08/09 15:56
KWMC 091556Z AUTO 16006KT 10SM CLR 23/06 A2998 RMK AO2 SLP104 T02280056

2010/08/09 15:56
KD07 091556Z AUTO 17014KT 28/19 A2993 RMK AO2 SLP114 T02830189 PWINO TSNO

2010/08/09 15:56
KFLG 091556Z 20005KT 10SM FEW090 18/08 A3029 RMK AO2 SLP165 T01830083

2010/08/09 15:56
KFSD 091556Z 07004KT 10SM CLR 27/22 A2991 RMK AO2 SLP120 SCT ABV 120 T02670217 $

2010/08/09 15:56
KSXT 091556Z AUTO 35005KT M1/4SM -RA FG VV001 12/12 A3000 RMK AO2 RAE14B31 SLP127 P0000 T01220117 TSNO

2010/08/09 15:56
K8D3 091556Z AUTO 16003KT 29/20 A2991 RMK AO2 SLP110 T02890200 PWINO TSNO

2010/08/09 15:56
KAQV 091556Z AUTO 00000KT 10SM CLR 32/23 A2998 RMK AO2 SLP148 T03220228 $

2010/08/09 15:56
KNBT 091556Z AUTO 08005KT 8SM CLR 27/24 A3005 RMK AO2 RAE53 SLP180 P0002 T02720244 TSNO

2010/08/09 15:56
KLWS 091556Z 00000KT 10SM CLR 21/11 A2986 RMK AO2 SLP102 T02060106

2010/08/09 15:56
KP53 091556Z AUTO 02006KT 25/22 A2986 RMK AO2 SLP109 T02500222 PWINO TSNO

2010/08/09 15:56
KSPD 091556Z AUTO 35007KT 27/16 A3003 RMK AO2 SLP098 T02720161 PWINO TSNO

2010/08/09 15:56
K9L2 091556Z AUTO 00000KT 10SM CLR 22/M02 A2994 RMK AO2 SLP121 T02221022 $

2010/08/09 15:56
KNRS 091556Z 00000KT 10SM OVC017 17/13 A2994 RMK AO2 SLP137 T01720133

2010/08/09 15:56
KGFA 091556Z AUTO 24003KT 10SM CLR 22/08 A2990 RMK AO2 SLP122 T02220083

2010/08/09 15:56
K2WX 091556Z AUTO 17014KT 28/16 A2985 RMK AO1 SLP078 T02780161

2010/08/09 15:56
KNXP 091556Z 34004KT 7SM CLR 26/M02 A2999 RMK AO2 SLP118 T02561022 $

2010/08/09 15:55
KCAO 091555Z AUTO 35005KT 10SM CLR 28/14 A3008 RMK AO2 SLP104 T02830144 TSNO

2010/08/09 15:56
KMHS 091556Z AUTO 00000KT 10SM CLR 18/09 A2997 RMK AO2 PK WND 33029/1528 SLP138 T01780094 TSNO

2010/08/09 15:50
K3A6 091550Z AUTO 36001KT 21/09 A2991 RMK AO1 SLP145 T02100095

2010/08/09 15:50
KHMS 091550Z 31010KT 15SM FEW250 23/10 A2981 RMK SLP093 T02260101 RSNK 15.7/20009KT

2010/08/09 15:53
KLND 091553Z AUTO VRB05KT 10SM CLR 23/06 A3006 RMK AO2 SLP108 T02280061

2010/08/09 15:53
KLOR 091553Z AUTO 07006KT 10SM FEW032 33/23 A2999 RMK AO2 P1e T03280233 TSNO PNO $

2010/08/09 15:52
KMLF 091552Z AUTO 20012KT 10SM CLR 19/11 A3010 RMK AO2 SLP138 T01890106 TSNO

2010/08/09 15:54
KWAL 091554Z 15004KT 10SM FEW020 SCT250 29/17 A3006 RMK AO2 SLP174 T02940172

2010/08/09 15:56
KSMP 091556Z AUTO VRB05KT M1/4SM FG BKN001 OVC006 09/09 A2998 RMK AO2 SLP147 T00890089 TSNO $

2010/08/09 15:53
KUIL 091553Z AUTO 25003KT 9SM OVC002 12/12 A2998 RMK AO2 SLP151 T01220117 TSNO $

2010/08/09 15:53
KLOR 091553Z AUTO 07`6KT 10SM FEW032 33/23 A2999 RMK AO2 SLP152 T03280233 TSNO PNO $

2010/08/09 15:56
KINS 091556Z 00000KT 10SM CLR 22/09 A2999 RMK AO2 SLP110 T02220089 $

2010/08/09 15:56
KNDZ 091556Z AUTO 12011KT 10SM FEW025 33/23 A2999 RMK AO2 SLP138 T03330233 PWINO $

2010/08/09 15:56
K79J 091556Z 11010KT 10SM FEW028 33/24 A2999 RMK AO2 SLP150 T03330239 PNO $

2010/08/09 15:56
KNBC 091556Z 04008KT 7SM FEW030 SCT200 32/22 A3001 RMK AO2 SLP163 T03170222

2010/08/09 15:56
KNUQ 091556Z AUTO 10006KT 10SM OVC016 16/11 A2993 RMK AO2 SLP137 T01610111 TSNO

2010/08/09 15:56
KNPA 091556Z 07007KT 10SM FEW035 SCT280 32/25 A2997 RMK AO2 SLP150 T03170250

2010/08/09 15:56
KNFL 091556Z VRB06KT 10SM FEW220 24/06 A2998 RMK AO2 SLP125 T02390056

2010/08/09 15:56
KAQV 091556Z AUTO 00000KT 10SM CLR 32/23 A2998 RMK AO2 SLP148 T03220228 $

2010/08/09 15:56
KNID 091556Z 00000KT 10SM CLR 24/03 A2993 RMK AO2 SLP115 T02440028 $

2010/08/09 15:56
KNBT 091556Z AUTO 08005KT 8SM CLR 27/24 A3005 RMK AO2 RAE53 SLP180 P0002 T02720244 TSNO

2010/08/09 15:56
KNYG 091556Z 17009KT 8SM FEW200 SCT250 30/22 A3003 RMK AO2 SLP170 T03000222 $

2010/08/09 15:56
KNLC 091556Z 34007KT 10SM CLR 21/12 A2989 RMK AO2 SLP119 RH/58 T02110122

2010/08/09 15:56
K9L2 091556Z AUTO 00000KT 10SM CLR 22/M02 A2994 RMK AO2 SLP121 T02221022 $

2010/08/09 15:57
KNXF 091557Z AUTO 27005KT 8SM OVC017 18/12 A2992 RMK AO2 SLP218 T01830122 TSNO

2010/08/09 15:56
KNRS 091556Z 00000KT 10SM OVC017 17/13 A2994 RMK AO2 SLP137 T01720133

2010/08/09 15:56
KNMM 091556Z 10005KT 10SM FEW030 31/23 A3000 RMK AO2 SLP166 T03110228 $

2010/08/09 15:55
KBIX 091555Z 03009KT 10SM SCT028 33/25 A2997 RMK AO2A SLP149 WND DATA ESTMD ALSTG/SLP ESTMD

2010/08/09 15:55
KCOF 091555Z 12007KT 10SM CLR 29/25 A2995 RMK AO2A SLP144 T02900245

2010/08/09 15:55
KEND 091555Z 16010KT 10SM SCT200 34/20 A2991 RMK AO2A SLP109 T03400204

2010/08/09 15:55
KLSV 091555Z AUTO 09007KT 10SM CLR 28/10 A2993 RMK AO2 SLP122 T02790096

2010/08/09 15:55
KMXF 091555Z AUTO 10006KT 10SM CLR 34/23 A3000 RMK AO2 SLP158 T03410230

2010/08/09 15:52
KNZY 091552Z 00000KT 10SM BKN017 20/13 A2992 RMK AO2 SLP132 T02000128 $

2010/08/09 15:55
KPSM 091555Z 26012G17KT 10SM FEW050 BKN200 31/19 A2992 RMK AO2A SLP134 T03080193

2010/08/09 15:55
KSKF 091555Z 18006KT 10SM SCT020 31/23 A2999 RMK AO2A SLP144 T03050230 $

2010/08/09 15:55
KSZL 091555Z 11006KT 10SM SCT090 BKN200 32/24 A2995 RMK AO2A SLP133 T03230245 PNO $

2010/08/09 15:55
KVBG 091555Z 04004KT 6SM -DZ BR SCT004 BKN006 OVC010 14/12 A2996 RMK AO2 DZB25 SLP136 P0000 T01390122

2010/08/09 15:56
PMDY 091556Z AUTO 07008KT 10SM FEW024 26/22 A3021 RMK AO2 TSNO T02550216 SLP538

2010/08/09 15:55
KBIX 091555Z 03009KT 10SM SCT028 33/25 A2997 RMK AO2A SLP149 WND DATA ESTMD ALSTG/SLP ESTMD

2010/08/09 15:55
KCOF 091555Z 12007KT 10SM CLR 29/25 A2995 RMK AO2A SLP144 T02900245

2010/08/09 15:55
KDLF 091555Z AUTO 12009KT 10SM OVC019 28/22 A2997 RMK AO2 SLP133 T02830225

2010/08/09 15:55
KEND 091555Z 16010KT 10SM SCT200 34/20 A2991 RMK AO2A SLP109 T03400204

2010/08/09 15:55
KFRI 091555Z AUTO 20005KT 10SM CLR 34/22 A2987 RMK AO2 SLP095 T03360217

2010/08/09 15:55
KFSI 091555Z AUTO 20008KT 10SM CLR 33/21 A2992 RMK AO2 SLP105 T03280212

2010/08/09 15:55
KGBN 091555Z 04004KT 12SM CLR 32/07 A2987 RMK SLP096

2010/08/09 15:55
KHIF 091555Z AUTO 16009KT 10SM CLR 23/09 A3006 RMK AO2 SLP073 T02260089

2010/08/09 15:55
KLSV 091555Z AUTO 09007KT 10SM CLR 28/10 A2993 RMK AO2 SLP122 T02790096

2010/08/09 15:55
KLTS 091555Z AUTO 20009KT 10SM CLR 33/20 A2991 RMK AO2 SLP108 T03350196 $

2010/08/09 15:55
KLUF 091555Z 06004KT 10SM CLR 32/11 A2988 RMK AO2A SLP088 T03160110 $

2010/08/09 15:55
KMCF 091555Z AUTO 06007KT 10SM BKN017 29/26 A2994 RMK AO2 CIG 016V021 BKN V SCT SLP140 T02950262

2010/08/09 15:55
KMIB 091555Z AUTO 20007KT 10SM CLR 23/18 A2983 RMK AO2 SLP098 T02250183

2010/08/09 15:55
KMMT 091555Z 09007KT 10SM FEW030 32/23 A3004 RMK SLP171

2010/08/09 15:55
KMXF 091555Z AUTO 10006KT 10SM CLR 34/23 A3000 RMK AO2 SLP158 T03410230

2010/08/09 15:55
KNBG 091555Z VRB06KT 10SM SCT025 BKN250 33/24 A2998 RMK AO2 SLP150 T2 SET T03280239 $

2010/08/09 15:56
KHPN 091556Z VRB03KT 10SM CLR 31/18 A3001 RMK AO2 SLP154 T03060178

2010/08/09 15:56
KHWV 091556Z AUTO 21008KT 8SM CLR 28/22 A3002 RMK AO2 SLP164 T02780222

2010/08/09 15:56
KHYA 091556Z 22017G21KT 10SM CLR 29/20 A2999 RMK AO2 SLP157 T02890200

2010/08/09 15:56
KISP 091556Z 18007KT 10SM FEW020 29/21 A3000 RMK AO2 SLP157 T02890206

2010/08/09 15:56
KITH 091556Z 26004KT 10SM SCT090 29/18 A3004 RMK AO2 T02880183 SLP164

2010/08/09 15:56
KJXN 091556Z VRB04KT 1/4SM HZ CLR 24/20 A2998 RMK AO2 SLP144 T02440200

2010/08/09 15:56
KLAS 091556Z 00000KT 10SM CLR 27/09 A2992 RMK AO2 SLP107 T02720089

2010/08/09 15:55
KLCK 091555Z 20008KT 10SM CLR 30/20 A3002 RMK AO2 T02950199

2010/08/09 15:56
KLRD 091556Z 17011KT 10SM -RA CLR 33/23 A2997 RMK AO2 T03270227 RAB22 P0000 SLP135

2010/08/09 15:56
KMDT 091556Z 00000KT 8SM BKN250 30/21 A3001 RMK AO2 SLP159 T03000211

2010/08/09 15:45
KMYR 091545Z 09011KT 10SM FEW015 SCT025 31/25 A3007

2010/08/09 15:56
KOWB 091556Z VRB03KT 10SM CLR 33/23 A3000 RMK AO2 T03270233 SLP153

2010/08/09 15:56
KNSE 091556Z VRB03KT 8SM SCT025 32/24 A2999 RMK AO2 SLP138 T03170239 $

2010/08/09 15:56
KGFA 091556Z AUTO 24003KT 10SM CLR 22/08 A2990 RMK AO2 SLP122 T02220083

2010/08/09 15:55
KNUC 091555Z 00000KT 10SM BKN014 19/11 A2995 RMK SLP140 T01920112

2010/08/09 15:50
KEFD 091550Z 23003KT 10SM BKN020 32/24 A2999

2010/08/09 15:55
KFMH 091555Z AUTO 24010KT 9SM BKN013 27/22 A3001 RMK AO2

2010/08/09 15:56
KSGH 091556Z 19004KT 5SM HZ CLR 29/23 A3005 RMK AO2 T02880227 SLP166 $

2010/08/09 15:56
KWJF 091556Z 00000KT 10SM CLR 22/03 A2994 RMK AO2 SLP125 T02220028

2010/08/09 15:55
KNUC 091555Z 00000KT 10SM BKN014 19/11 A2995 RMK SLP140 T01920112

2010/08/09 15:55
K1A6 091555Z AUTO 00000KT A3007 RMK AO2 PWINO

2010/08/09 15:55
K1P1 091555Z AUTO 30010G15KT 10SM SCT050 BKN055 29/17 A2995 RMK AO2 T02930172

2010/08/09 15:55
K46D 091555Z AUTO 20008KT 10SM CLR 30/19 A2988 RMK AO2

2010/08/09 15:57
K4I3 091557Z AUTO 23004KT 10SM CLR 28/19 A3005 RMK AO2

2010/08/09 15:55
KACB 091555Z AUTO 00000KT 5SM HZ BKN017 BKN029 BKN037 28/23 A2986 RMK AO2

2010/08/09 15:58
KACQ 091558Z AUTO 25006KT 10SM SCT016 SCT120 27/22 A2995 RMK AO2

2010/08/09 15:57
KADC 091557Z AUTO 30004KT 10SM CLR 27/16 A2993 RMK AO2

2010/08/09 15:50
KAEL 091550Z AUTO 00000KT 10SM CLR 27/22 A2993 RMK AO2

2010/08/09 15:55
KAIG 091555Z AUTO 29005KT 7SM CLR 27/22 A2991 RMK AO2

2010/08/09 15:53
KAIT 091553Z AUTO 00000KT 10SM CLR 28/23 A2992 RMK AO2

2010/08/09 15:56
KAJO 091556Z AUTO VRB03KT 6SM HZ CLR 18/14 A2993 RMK AO2 T01770138 SLP129 $

2010/08/09 15:54
KAMN 091554Z AUTO 21009KT 10SM CLR 24/21 A2992 RMK AO2

2010/08/09 15:53
KAQP 091553Z AUTO 00000KT 10SM CLR 27/23 A2992 RMK AO2

2010/08/09 15:55
KAUM 091555Z AUTO 27005KT 10SM CLR 27/22 A2993 RMK AO2

2010/08/09 16:05
KBAX 091605Z AUTO 23009KT 5SM HZ CLR 23/21 A2992 RMK AO2

2010/08/09 15:53
KBBB 091553Z AUTO 09003KT 10SM CLR 29/20 A2996 RMK AO2

2010/08/09 15:55
KBBF 091555Z AUTO 16007KT 10SM FEW023 31/27 A2995 RMK A01

2010/08/09 15:55
KBDH 091555Z AUTO 00000KT 10SM CLR 28/21 A2993 RMK AO2

2010/08/09 15:53
KBFW 091553Z AUTO 20005KT 10SM CLR 27/20 A2989 RMK AO2

2010/08/09 15:55
KBKN 091555Z AUTO 21006KT 10SM CLR 35/20 A2990 RMK AO2

2010/08/09 15:55
KBQX 091555Z AUTO 15005KT 10SM CLR 30/26 A2997 RMK A01

2010/08/09 15:50
KBWP 091550Z AUTO 20003KT 10SM CLR 28/18 A2992 RMK AO1 T02750175

2010/08/09 15:54
KCAD 091554Z AUTO 25007KT 10SM CLR 25/21 A2991 RMK AO2

2010/08/09 15:55
KCBG 091555Z AUTO 00000KT 10SM SCT010 27/23 A2992 RMK AO2

2010/08/09 15:54
KCDA 091554Z AUTO 22004KT 10SM SCT038 SCT045 BKN060 25/16 A2999 RMK AO2

2010/08/09 15:52
KCDD 091552Z AUTO 00000KT 10SM SCT070 26/23 A2992 RMK AO2

2010/08/09 16:03
KCFE 091603Z AUTO 01003KT 10SM CLR 29/23 A2994 RMK AO2 T02850230

2010/08/09 15:55
KCFS 091555Z AUTO 21003KT 5SM BR SCT060 SCT070 SCT080 24/22 A2992 RMK AO2

2010/08/09 15:55
KCKC 091555Z AUTO 28005KT 10SM CLR 26/17 A2992 RMK AO2

2010/08/09 15:55
KCKN 091555Z AUTO 19007KT 10SM CLR 27/20 A2987 RMK AO2

2010/08/09 15:55
KCMB 091555Z AUTO 30005KT 10SM FEW026 FEW033 32/25 A2999 RMK A01

2010/08/09 15:55
KCMY 091555Z AUTO 00000KT 10SM BKN020 27/22 A2992 RMK AO2 T02700218

2010/08/09 15:54
KCNB 091554Z AUTO 35003KT 10SM CLR 27/21 A2993 RMK AO2 T02710211

2010/08/09 15:53
KGHW 091553Z AUTO 09003KT 10SM CLR 29/16 A2997 RMK AO2

2010/08/09 15:56
K79J 091556Z 11010KT 10SM FEW028 33/24 A2999 RMK AO2 SLP150 T03330239 PNO $

2010/08/09 15:53
KLOR 091553Z AUTO 07006KT 10SM FEW032 33/23 A2999 RMK AO2 P1e T03280233 TSNO PNO $

2010/08/09 15:53
KHEY 091553Z AUTO VRB05KT 10SM CLR 33/24 A2999 RMK AO2 SLP042 T03280239 $

2010/08/09 15:56
K79J 091556Z 11010KT 10SM FEW028 33/24 A2999 RMK AO2 SLP150 T03330239 PNO $

2010/08/09 15:53
KLOR 091553Z AUTO 07`6KT 10SM FEW032 33/23 A2999 RMK AO2 SLP152 T03280233 TSNO PNO $

2010/08/09 15:54
PGSN 091554Z 18007KT 6SM -RA BR SCT016 BKN030 BKN050 26/24 A2989 RMK AO2 RAB10E34B54 SLP119 P0000 T02610239

2010/08/09 15:54
PGUM 091554Z 00000KT 10SM OVC060 24/24 A2991 RMK AO2 SLP120 T02440244

2010/08/09 15:53
KPBI 091553Z COR 14011KT 10SM SCT022 SCT055 BKN080 30/24 A2995 RMK AO2 SLP140 CB DSNT ALQDS T02970238

2010/08/09 15:56
KSBP 091556Z 00000KT 8SM OVC009 14/12 A2995 RMK AO2 SLP142 T01390117 $

2010/08/09 15:53
KSFB 091553Z 10006KT 10SM FEW022 BKN046 OVC080 30/25 A2994

2010/08/09 15:56
KSGH 091556Z 19004KT 5SM HZ CLR 29/23 A3005 RMK AO2 T02880227 SLP166 $

2010/08/09 15:58
KSGJ 091558Z 07012KT 10SM FEW014 31/26 A2997 RMK AO2 SLP149 T03110261

2010/08/09 15:55
KSME 091555Z AUTO 00000KT 10SM 31/23 A3004 RMK AO2

2010/08/09 15:56
KTPH 091556Z AUTO 17004KT 10SM CLR 21/01 A3010 RMK AO2 SLP123 T02060011

2010/08/09 15:53
KUNI 091553Z AUTO 18003KT 10SM CLR 31/13 A3004 RMK AO2

2010/08/09 15:56
KWJF 091556Z 00000KT 10SM CLR 22/03 A2994 RMK AO2 SLP125 T02220028

2010/08/09 15:55
KY51 091555Z AUTO 24006KT 10SM BKN016 BKN021 26/22 A2995 RMK AO1 T02550219

2010/08/09 15:55
KY63 091555Z AUTO 23003KT 10SM CLR 28/19 A2993 RMK AO2 T02770192

2010/08/09 15:56
PAFS 091556Z AUTO 00000KT 8SM -RA OVC043 11/09 A2952 RMK AO2 TSNO T01050088 RAE02B21E31B47 P0000 SLP004 $

2010/08/09 15:56
PAGN 091556Z AUTO 00000KT OVC027 RMK AO2 PWINO TSNO SLPNO $

2010/08/09 15:56
PAHC 091556Z AUTO 00000KT 10SM FEW021 SCT038 OVC045 11/10 A2939 RMK AO2 TSNO T01050100 RAE41 P0003 SLP955 $

2010/08/09 15:56
PAIG 091556Z AUTO 20006KT 10SM OVC015 11/10 A2954 RMK AO2 PWINO TSNO T01110100 SLP006 $

2010/08/09 15:57
PAKU 091557Z 06024KT 1/4SM FG VV001 02/02 A2979

2010/08/09 15:56
PAMO 091556Z AUTO 13017KT 1/2SM RA FG OVC001 09/09 A2929 RMK AO2 TSNO T00940094 P0001 SLP917 $

2010/08/09 15:50
PAMX 091550Z 20006KT 12SM -RA SCT038 BKN045 OVC060 10/09 A2986 RMK NOSPECI

2010/08/09 15:56
PAOO 091556Z AUTO 14015KT 1 1/2SM -RA BR BKN007 OVC012 09/09 A2920 RMK AO2 TSNO T00940094 CIG 004V010 RAB14 P0000 SLP887 $

2010/08/09 15:56
PAPM 091556Z AUTO 18024G30KT 3SM BR BKN009 BKN013 OVC090 09/09 A2936 RMK AO2 TSNO T00940088 CIG 006V010 RAE06 P0001 PK WND 17030/1542 SLP942 $

2010/08/09 15:56
PARS 091556Z AUTO 11006KT 6SM -RA BR BKN010 OVC015 11/10 A2936 RMK AO2 TSNO T01050100 CIG 007V011 P0000 SLP947 $

2010/08/09 15:56
PARY 091556Z AUTO 06009KT 10SM BKN033 OVC040 11/09 A2948 RMK AO2 PWINO TSNO T01050094 SLP987

2010/08/09 15:56
PATQ 091556Z AUTO 07017KT 10SM OVC007 01/00 A2982 RMK AO2 TSNO T00110000 SLP103 $

2010/08/09 15:56
KSDF 091556Z 17003KT 7SM FEW100 SCT150 SCT200 32/21 A3001 RMK AO2 SLP155 T03220206

2010/08/09 15:53
K04W 091553Z AUTO 00000KT 10SM OVC005 25/24 A2994 RMK AO2 T02490235

2010/08/09 15:56
K14Y 091556Z AUTO 00000KT 10SM CLR 28/18 A2995 RMK AO2 T02770176

2010/08/09 15:55
K21D 091555Z AUTO 36005KT 10SM CLR 28/22 A2992 RMK AO2

2010/08/09 15:56
KART 091556Z AUTO 26009KT 10SM FEW022 SCT075 27/20 A2995 RMK AO2 SLP136 T02670200

2010/08/09 15:56
KBED 091556Z 23007KT 10SM FEW100 SCT200 31/18 A2995 RMK AO2 SLP150 T03110178

2010/08/09 15:54
KBJI 091554Z AUTO 26004KT 10SM CLR 27/18 A2991 RMK AO2

2010/08/09 15:56
KBJJ 091556Z AUTO VRB05KT 9SM CLR 28/20 A3004 RMK AO2 SLP164 T02830200

2010/08/09 15:55
KBUU 091555Z AUTO 21008KT 10SM CLR 24/22 A2994 RMK AO2 T02440216

2010/08/09 15:54
KC29 091554Z AUTO 28004KT 10SM SCT110 26/21 A2993 RMK AO2 T02640213

2010/08/09 15:56
KCTB 091556Z AUTO 21007KT 10SM CLR 22/07 A2992 RMK AO2 SLP104 T02220072 PWINO

2010/08/09 15:56
KCXY 091556Z 07004KT 8SM CLR 30/19 A3001 RMK AO2 SLP162 T03000194

2010/08/09 15:53
KD39 091553Z AUTO 31003KT 10SM CLR 29/19 A2995 RMK AO2 T02890189

2010/08/09 15:56
KDAY 091556Z 22007KT 9SM FEW090 SCT250 30/18 A3004 RMK AO2 SLP162 T03000178

2010/08/09 15:56
KEED 091556Z AUTO 00000KT 10SM CLR 28/M01 A2988 RMK AO2 SLP085 T02831011 TSNO

2010/08/09 15:56
KELZ 091556Z AUTO 24005KT 10SM CLR 25/17 A3010 RMK AO2 SLP178 T02500172

2010/08/09 15:54
KEZS 091554Z AUTO 00000KT 10SM SCT014 BKN023 27/24 A2989 RMK AO2 T02700237

2010/08/09 15:56
KGON 091556Z 21007KT 6SM HZ CLR 27/21 A3000 RMK AO2 SLP159 T02720211

2010/08/09 15:55
KHFJ 091555Z AUTO 22006KT 10SM CLR 32/24 A2997 RMK AO1

2010/08/09 15:56
KHND 091556Z 00000KT 10SM CLR 26/08 A2998 RMK AO2 T02610077 SLP104

2010/08/09 15:56
KNCA 091556Z 08004KT 10SM SCT030 BKN080 32/24 A3004 RMK AO2 SLP173 T03170239 $

2010/08/09 15:54
KNFG 091554Z 08003KT 7SM SCT017 17/13 A2993 RMK AO2 SLP133 T01720128 $

2010/08/09 15:56
KNGP 091556Z 13007KT 10SM SCT023 BKN028 BKN039 31/24 A2995 RMK AO2 SLP140 T03100242 VISNO $

2010/08/09 15:56
KNJK 091556Z 00000KT 10SM CLR 30/09 A2979 RMK AO2 SLP104 T03000089

2010/08/09 15:54
KNKT 091554Z 14008KT 10SM SCT014 SCT032 BKN043 27/24 A3006 RMK AO2 RAB23E33 SLP174 P0000 T02670239

2010/08/09 15:55
KNKX 091555Z VRB03KT 10SM OVC010 17/13 A2993 RMK AO2 SLP130 T01720128

2010/08/09 15:56
KNQI 091556Z 14008KT 10SM BKN041 35/24 A2994 RMK AO2 SLP135 T03500244

2010/08/09 15:56
KNTU 091556Z 10006KT 10SM FEW030 BKN200 29/22 A3004 RMK AO2 SLP176 T02890217 $

2010/08/09 15:56
KNXX 091556Z 25004KT 10SM FEW045 31/18 A3004 RMK AO2 SLP175 T03060178 $

2010/08/09 15:55
KPOE 091555Z AUTO 31005KT 10SM CLR 31/22 A2999 RMK AO2 SLP156 T03110222

2010/08/09 15:55
KVBG 091555Z 04004KT 6SM -DZ BR SCT004 BKN006 OVC010 14/12 A2996 RMK AO2 DZB25 SLP136 P0000 T01390122 $

2010/08/09 15:56
PASY 091556Z AUTO 29006KT 1SM BR VV001 09/08 A2984 RMK AO2 SLP103 T00890083 TSNO PNO $

2010/08/09 15:56
PHBK 091556Z AUTO 00000KT 10SM CLR 23/16 A3007 RMK AO2 SLP184 T02280156 TSNO $

2010/08/09 15:54
KNKT 091554Z 14008KT 10SM SCT014 SCT032 BKN043 27/24 A3006 RMK AO2 RAB23E33 SLP174 P0000 T02670239

2010/08/09 15:56
KNTU 091556Z 10006KT 10SM FEW030 BKN200 29/22 A3004 RMK AO2 SLP176 T02890217 $

2010/08/09 15:52
KNZY 091552Z 00000KT 10SM BKN017 20/13 A2992 RMK AO2 SLP132 T02000128 $

2010/08/09 15:55
KPAM 091555Z AUTO 07007KT 10SM CLR 32/25 A2996 RMK AO2 SLP149 T03200246 $

2010/08/09 15:55
KPOB 091555Z AUTO 00000KT 10SM CLR 31/25 A3004 RMK AO2 SLP171 T03130249 $

2010/08/09 15:55
KPSM 091555Z 26012G17KT 10SM FEW050 BKN200 31/19 A2992 RMK AO2A SLP134 T03080193

2010/08/09 15:55
KSKA 091555Z AUTO 22006KT 10SM FEW075 17/10 A2988 RMK AO2 SLP107 T01740102

2010/08/09 15:55
KSKF 091555Z 18006KT 10SM SCT020 31/23 A2999 RMK AO2A SLP144 T03050230 $

2010/08/09 15:55
KSLI 091555Z 00000KT 6SM HZ OVC013 17/14 A2993 RMK AO2A SLP137 T01670138

2010/08/09 15:55
KSZL 091555Z 11006KT 10SM SCT090 BKN200 32/24 A2995 RMK AO2A SLP133 T03230245 PNO $

2010/08/09 15:55
KTCM 091555Z AUTO 17004KT 10SM SCT009 OVC025 14/12 A2998 RMK AO2 SLP154 T01370119

2010/08/09 15:55
KVAD 091555Z AUTO 05012KT 10SM CLR 32/23 A3000 RMK AO2 SLP157 T03190230 $

2010/08/09 15:55
KVBG 091555Z 04004KT 6SM -DZ BR SCT004 BKN006 OVC010 14/12 A2996 RMK AO2 DZB25 SLP136 P0000 T01390122

2010/08/09 15:55
KVOK 091555Z 31006KT 10SM SCT018 27/23 A2992 RMK AO2A SCT V BKN SLP127

2010/08/09 15:55
KWRB 091555Z 05008KT 10SM FEW020 33/24 A3003 RMK SLP162

2010/08/09 15:55
KMHR 091555Z AUTO 18004KT 10SM CLR 15/12 A2990 RMK AO1

2010/08/09 15:53
KMRT 091553Z AUTO 21005KT 7SM CLR 28/20 A3006 RMK AO2 T02750204

2010/08/09 15:56
KNTU 091556Z 10006KT 10SM FEW030 BKN200 29/22 A3004 RMK AO2 SLP176 T02890217 $

2010/08/09 15:55
KGBK 091555Z AUTO 00000KT 10SM CLR 33/25 A3000 RMK A01

2010/08/09 15:56
KNXP 091556Z 34004KT 7SM CLR 26/M02 A2999 RMK AO2 SLP118 T02561022 $

2010/08/09 15:57
KNJM 091557Z AUTO 12006KT 10SM CLR 28/25 A3005 RMK AO2 SLP179 T02830250

2010/08/09 15:55
PGUA 091555Z AUTO 15004KT 10SM BKN075 24/24 A2991 RMK AO2 CLDS LWR RWY24L SLP111 T02440244 VISNO RWY24L $

2010/08/09 15:56
PHBK 091556Z AUTO 00000KT 10SM CLR 23/16 A3007 RMK AO2 SLP184 T02280156 TSNO $

2010/08/09 15:55
PHHI 091555Z AUTO 00000KT 10SM BKN034 BKN042 21/18 A3009 RMK AO2 DZB1509E1520 SLP179 P0000 T02140183 $

2010/08/09 15:53
PHNL 091553Z 07010KT 10SM FEW034 25/16 A3007 RMK AO2 SLP181 T02500161

2010/08/09 15:56
KHLR 091556Z AUTO 16009KT 10SM CLR 33/21 A2999 RMK AO2 SLP143 T03330211 $

2010/08/09 15:55
KBIX 091555Z 03009KT 10SM SCT028 33/25 A2997 RMK AO2A SLP149 WND DATA ESTMD ALSTG/SLP ESTMD

2010/08/09 15:55
KLUF 091555Z 06004KT 10SM CLR 32/11 A2988 RMK AO2A SLP088 T03160110 $

2010/08/09 15:55
KMCF 091555Z AUTO 06007KT 10SM BKN017 29/26 A2994 RMK AO2 CIG 016V021 BKN V SCT SLP140 T02950262

2010/08/09 15:55
KMMT 091555Z 09007KT 10SM FEW030 32/23 A3004 RMK SLP171

2010/08/09 15:55
KMXF 091555Z AUTO 10006KT 10SM CLR 34/23 A3000 RMK AO2 SLP158 T03410230

2010/08/09 15:55
KPAM 091555Z AUTO 07007KT 10SM CLR 32/25 A2996 RMK AO2 SLP149 T03200246 $

2010/08/09 15:55
KPSM 091555Z 26012G17KT 10SM FEW050 BKN200 31/19 A2992 RMK AO2A SLP134 T03080193

2010/08/09 15:55
KVAD 091555Z AUTO 05012KT 10SM CLR 32/23 A3000 RMK AO2 SLP157 T03190230 $

2010/08/09 15:55
KWRB 091555Z 05008KT 10SM FEW020 33/24 A3003 RMK SLP162

2010/08/09 15:53
KLND 091553Z AUTO VRB05KT 10SM CLR 23/06 A3006 RMK AO2 SLP108 T02280061

2010/08/09 15:52
KMLF 091552Z AUTO 20012KT 10SM CLR 19/11 A3010 RMK AO2 SLP138 T01890106 TSNO

2010/08/09 15:54
KWAL 091554Z 15004KT 10SM FEW020 SCT250 29/17 A3006 RMK AO2 SLP174 T02940172

2010/08/09 15:56
KSMP 091556Z AUTO VRB05KT M1/4SM FG BKN001 OVC006 09/09 A2998 RMK AO2 SLP147 T00890089 TSNO $

2010/08/09 15:53
KUIL 091553Z AUTO 25003KT 9SM OVC002 12/12 A2998 RMK AO2 SLP151 T01220117 TSNO $

2010/08/09 15:54
KVLL 091554Z AUTO 24006KT 10SM SCT070 28/18 A2998 RMK AO2

2010/08/09 15:56
KVVV 091556Z AUTO 00000KT 10SM CLR 27/21 A2993 RMK AO2

2010/08/09 15:49
KVWU 091549Z AUTO 28003KT 10SM CLR 27/21 A2989 RMK AO2

2010/08/09 15:56
KXVG 091556Z AUTO 00000KT 10SM CLR 27/21 A2991 RMK AO2

2010/08/09 15:55
KY70 091555Z AUTO 20005KT 10SM -DZ SCT036 SCT047 SCT075 23/22 A2993 RMK AO2 T02340219

2010/08/09 15:56
PAGN 091556Z AUTO 00000KT OVC027 RMK AO2 PWINO TSNO SLPNO $

2010/08/09 15:56
PATQ 091556Z AUTO 07017KT 10SM OVC007 01/00 A2982 RMK AO2 TSNO T00110000 SLP103 $

2010/08/09 15:53
PHJR 091553Z AUTO VRB05KT 10SM FEW037 BKN047 25/17 A3008 RMK AO2 SLP191 T02500172 TSNO

2010/08/09 15:54
PHMK 091554Z 08005KT 10SM CLR 22/14 A3008 RMK AO2 SLP187 T02170144

2010/08/09 15:57
PAIW 091557Z AUTO 08010KT 10SM BKN110 13/12 A2935 RMK AO2 SLPNO T01330117

2010/08/09 15:56
PAMB 091556Z AUTO 20012KT 3SM BR OVC006 10/10 A2945 RMK AO2 PWINO TSNO T01000100 CIG 004V010 SLP975 $

2010/08/09 15:56
PAOH 091556Z AUTO 00000KT 10SM OVC029 13/13 A2997 RMK AO2 TSNO T01330127 SLP149 $

2010/08/09 15:56
PAWI 091556Z 06018G23KT 10SM OVC009 03/01 A2980 RMK ASOS VIA PHONE

2010/08/09 15:56
PPIZ 091556Z AUTO 07024G32KT 10SM BKN010 BKN015 03/01 A2969 RMK AO2 TSNO T00270011 PK WND 07032/1556 SLP057 $

2010/08/09 15:55
KBVU 091555Z AUTO 00000KT 10SM CLR 26/09 A2997 RMK AO2

2010/08/09 15:55
KCMR 091555Z AUTO 14011KT 10SM SCT090 20/08 A3026 RMK AO1

2010/08/09 15:50
KEFD 091550Z 23003KT 10SM BKN020 32/24 A2999

2010/08/09 15:55
KMAN 091555Z AUTO 00000KT 10SM CLR 23/08 A2987 RMK AO1

2010/08/09 15:58
KMEI 091558Z 09005KT 10SM CLR 32/24 A3000 RMK AO2 SLP153 T03220244

2010/08/09 15:55
KRCM 091555Z AUTO 03004KT 10SM SCT120 31/24 A2994 RMK AO2

2010/08/09 15:53
KSUN 091553Z 29006KT 30SM SCT090 BKN120 17/09 A3005

2010/08/09 15:56
KY50 091556Z AUTO 23008KT 10SM OVC020 26/23 A2991 RMK AO2 T02550227 RAB43E53 P0000 SLP121

2010/08/09 15:53
KRZN 091553Z AUTO 28003KT 10SM BKN005 25/22 A2994 RMK AO2 T02450221

2010/08/09 15:54
KSAZ 091554Z AUTO 00000KT 10SM CLR 28/18 A2994 RMK AO2

2010/08/09 15:53
KSBA 091553Z COR 14006KT 3SM R07/2600VP6000FT BR BKN005 14/13 A2993 RMK AO2 SLP134 T01440133

2010/08/09 15:53
KSGS 091553Z AUTO 01003KT 10SM CLR 29/21 A2991 RMK AO2 T02930212

2010/08/09 15:55
KSJX 091555Z AUTO 09007KT 7SM BKN005 22/21 A2989 RMK AO2

2010/08/09 15:55
KSLH 091555Z AUTO 16006KT 5SM -RA SCT022 BKN032 OVC050 21/20 A2990 RMK AO2

2010/08/09 15:55
KSPR 091555Z AUTO 32009KT 10SM 32/25 A2998 RMK A01

2010/08/09 15:55
KSRR 091555Z AUTO 29006KT 10SM SCT110 18/14 A3027 RMK AO2

2010/08/09 15:53
KTEW 091553Z AUTO 26004KT 10SM CLR 23/20 A2996 RMK AO2

2010/08/09 15:56
KCOQ 091556Z AUTO 26003KT 10SM CLR 24/21 A2993 RMK AO2

2010/08/09 15:57
KCQM 091557Z AUTO 00000KT 10SM CLR 24/20 A2992 RMK AO2

2010/08/09 15:55
KCRH 091555Z AUTO 00000KT 10SM CLR 33/25 A3000 RMK A01

2010/08/09 15:50
KCVH 091550Z AUTO 00000KT 10SM OVC009 14/12 A2995 RMK AO1

2010/08/09 15:55
KCVX 091555Z AUTO 06004KT 7SM SCT012 OVC021 24/21 A2989 RMK AO2

2010/08/09 15:50
KCWF 091550Z 30003KT 10SM SCT055 32/24 A2999

2010/08/09 15:56
KDIJ 091556Z AUTO VRB03KT 10SM CLR 20/08 A3013 RMK AO2 T02000077 SLP122 $

2010/08/09 15:55
KDLL 091555Z AUTO 26007KT 10SM BKN014 BKN022 26/21 A2993 RMK AO2 T02550212

2010/08/09 15:55
KDLP 091555Z AUTO 01014KT 10SM SCT110 30/25 A2998 RMK A01

2010/08/09 15:57
KDRM 091557Z AUTO 17004KT 10SM SCT065 23/20 A2992 RMK AO2

2010/08/09 15:55
KDTL 091555Z AUTO 27005KT 10SM CLR 26/16 A2995 RMK AO2

2010/08/09 15:55
KDUH 091555Z AUTO 26004KT 10SM CLR 28/18 A2998 RMK AO2

2010/08/09 15:56
KDVP 091556Z AUTO 14004KT 10SM CLR 28/21 A2996 RMK AO2 T02800206

2010/08/09 15:54
KDXX 091554Z AUTO 00000KT 10SM CLR 27/23 A2991 RMK AO2

2010/08/09 15:54
KDYT 091554Z AUTO 08005KT 10SM SCT006 22/19 A2991 RMK AO2

2010/08/09 15:55
KEFK 091555Z AUTO 25004KT 10SM BKN034 BKN039 OVC060 22/17 A2997 RMK AO2

2010/08/09 15:51
KEGV 091551Z AUTO 31009KT 10SM SCT018 26/22 A2993 RMK AO2 T02620218

2010/08/09 15:55
KEHC 091555Z AUTO 00000KT 10SM CLR 31/24 A3000 RMK A01

2010/08/09 15:55
KEIR 091555Z AUTO 28007KT 10SM CLR 31/24 A2999 RMK A01

2010/08/09 15:55
KEKM 091555Z 00000KT 10SM BKN043 BKN120 26/20 A2999 RMK AO2

2010/08/09 15:56
KEKQ 091556Z AUTO 00000KT 10SM CLR 33/25 A3006 RMK AO2 T03270250 RAB46E54 P0000 SLP173

2010/08/09 15:53
KELO 091553Z AUTO 00000KT 10SM CLR 24/19 A2991 RMK AO2

2010/08/09 15:55
KEMK 091555Z AUTO 15003KT 10SM FEW023 FEW035 31/26 A2999 RMK A01

2010/08/09 15:55
KERY 091555Z AUTO 14006KT 10SM OVC036 24/21 A2990 RMK AO2

2010/08/09 15:52
KETB 091552Z AUTO 24009KT 10SM BKN020 OVC110 26/21 A2992 RMK AO2 T02610209

2010/08/09 15:54
KETH 091554Z AUTO 00000KT 10SM CLR 28/19 A2995 RMK AO2

2010/08/09 15:52
KEVM 091552Z AUTO 00000KT 10SM SCT004 22/20 A2990 RMK AO1

2010/08/09 15:54
KFBL 091554Z AUTO 34003KT 10SM CLR 28/23 A2993 RMK AO2

2010/08/09 15:53
KFFM 091553Z AUTO 25003KT 10SM CLR 27/19 A2990 RMK AO2

2010/08/09 15:55
KFFX 091555Z AUTO 20009KT 10SM SCT008 BKN100 OVC120 25/22 A2992 RMK AO2

2010/08/09 15:54
KFGN 091554Z AUTO 16003KT 10SM CLR 23/20 A2987 RMK AO2

2010/08/09 15:54
KFKS 091554Z AUTO 27003KT 7SM SCT036 SCT046 BKN055 26/21 A2987 RMK AO2

2010/08/09 15:53
KFOZ 091553Z AUTO 00000KT 10SM CLR 27/21 A2992 RMK AO2

2010/08/09 15:56
KFPK 091556Z AUTO 23003KT 10SM -RA SCT008 BKN042 OVC120 22/21 A2996 RMK AO2

2010/08/09 15:54
KFSE 091554Z AUTO 23005KT 10SM CLR 26/18 A2989 RMK AO2

2010/08/09 15:59
KFSO 091559Z AUTO 23003KT 10SM SCT050 BKN055 OVC065 24/21 A2994 RMK AO2

2010/08/09 15:52
KGDB 091552Z AUTO 02003KT 10SM CLR 28/22 A2993 RMK AO2 T02790215

2010/08/09 15:50
PAFK 091550Z 15007KT 10SM SCT030 OVC060 13/07 A2957 RMK EST PASS MRGL NOSPECI

2010/08/09 15:51
PFYU 091551Z 01010KT 10SM FEW050 BKN080 11/ A2959

2010/08/09 15:54
KTOB 091554Z AUTO 24006KT 10SM SCT017 27/23 A2994 RMK AO2

2010/08/09 15:53
KTWM 091553Z AUTO 16006KT 10SM SCT100 23/19 A2990 RMK AO2

2010/08/09 15:50
KUKT 091550Z AUTO 26006KT 10SM CLR 30/19 A3004 RMK AO1

2010/08/09 15:54
KULM 091554Z AUTO 00000KT 10SM CLR 27/22 A2991 RMK AO2

2010/08/09 15:55
KVAF 091555Z AUTO 15006KT 10SM CLR 32/25 A2994 RMK A01

2010/08/09 15:55
KVBS 091555Z AUTO 00000KT 10SM CLR 31/24 A2998 RMK A01

2010/08/09 15:53
KVES 091553Z AUTO 25004KT 10SM CLR 29/20 A3002 RMK AO2 T02870203

2010/08/09 15:56
TJSJ 091556Z 09015G22KT 10SM FEW024 SCT046 SCT085 31/24 A2998 RMK AO2 RAB24E33 SLP151 VCSH SE-S P0000 T03110244

2010/08/09 15:56
KBZN 091556Z 00000KT 10SM OVC100 17/11 A3000 RMK AO2 SLP131 T01720111

2010/08/09 15:55
KDVK 091555Z AUTO 20005KT 10SM CLR 32/20 A3004 RMK AO1

2010/08/09 15:56
KINW 091556Z AUTO VRB06KT 10SM CLR 21/15 A3016 RMK AO2 PK WND 21062/1505 SLP146 T02110150

2010/08/09 15:56
KGNA 091556Z AUTO 26005KT 19/17 A2986 RMK AO2 SLP108 T01940167 PWINO TSNO

2010/08/09 15:56
KWMC 091556Z AUTO 16006KT 10SM CLR 23/06 A2998 RMK AO2 SLP104 T02280056

2010/08/09 15:56
KD07 091556Z AUTO 17014KT 28/19 A2993 RMK AO2 SLP114 T02830189 PWINO TSNO

2010/08/09 15:56
KFLG 091556Z 20005KT 10SM FEW090 18/08 A3029 RMK AO2 SLP165 T01830083

2010/08/09 15:56
KFSD 091556Z 07004KT 10SM CLR 27/22 A2991 RMK AO2 SLP120 SCT ABV 120 T02670217 $

2010/08/09 15:56
KSXT 091556Z AUTO 35005KT M1/4SM -RA FG VV001 12/12 A3000 RMK AO2 RAE14B31 SLP127 P0000 T01220117 TSNO

2010/08/09 15:56
K8D3 091556Z AUTO 16003KT 29/20 A2991 RMK AO2 SLP110 T02890200 PWINO TSNO

2010/08/09 15:56
KLWS 091556Z 00000KT 10SM CLR 21/11 A2986 RMK AO2 SLP102 T02060106

2010/08/09 15:56
KP53 091556Z AUTO 02006KT 25/22 A2986 RMK AO2 SLP109 T02500222 PWINO TSNO

2010/08/09 15:56
KSPD 091556Z AUTO 35007KT 27/16 A3003 RMK AO2 SLP098 T02720161 PWINO TSNO

2010/08/09 15:56
K2WX 091556Z AUTO 17014KT 28/16 A2985 RMK AO1 SLP078 T02780161

2010/08/09 15:56
TJSJ 091556Z 09015G22KT 10SM FEW024 SCT046 SCT085 31/24 A2998 RMK AO2 RAB24E33 SLP151 VCSH SE-S P0000 T03110244

2010/08/09 15:54
KRIC 091554Z 00000KT 10SM SCT055 SCT250 32/19 A3004 RMK AO2 SLP176 T03220194

2010/08/09 15:56
KJAX 091556Z 06014KT 10SM SCT032 32/23 A2997 RMK AO2 SLP149 T03220233

2010/08/09 15:53
K29G 091553Z AUTO 22004KT 10SM CLR 27/17 A3004 RMK AO2 T02710169 PWINO

2010/08/09 15:54
KAVP 091554Z AUTO 31007KT 10SM CLR 31/14 A3003 RMK AO2 SLP157 T03060139 TSNO

2010/08/09 15:56
KCAE 091556Z 08007KT 9SM FEW039 33/22 A3003 RMK AO2 SLP164 T03280222

2010/08/09 15:56
KCHS 091556Z 05011KT 10SM FEW100 32/23 A3001 RMK AO2 SLP163 T03170228

2010/08/09 15:55
KCLI 091555Z AUTO 00000KT 10SM BKN020 28/22 A2989 RMK AO2

2010/08/09 15:54
KGSO 091554Z 19004KT 9SM FEW045 31/20 A3008 RMK AO2 SLP172 T03110200

2010/08/09 15:54
KIKW 091554Z AUTO 22004KT 10SM SCT034 SCT055 BKN100 25/21 A2989 RMK AO2 T02530206

2010/08/09 15:58
KLYV 091558Z AUTO 00000KT 10SM SCT014 26/21 A2992 RMK AO2

2010/08/09 15:54
KPZQ 091554Z AUTO 16005KT 3SM RA SCT011 SCT021 OVC090 20/19 A2993 RMK AO2

2010/08/09 15:54
KRFD 091554Z 22005KT 10SM FEW010 SCT050 BKN150 BKN250 26/21 A2996 RMK AO2 SLP139 T02560206

2010/08/09 15:54
KROS 091554Z AUTO 00000KT 10SM OVC003 24/23 A2993 RMK AO2 T02360230

2010/08/09 15:55
KSCF 091555Z AUTO 33010KT 10SM CLR 31/25 A2993 RMK A01

2010/08/09 15:56
KSHV 091556Z 26007KT 10SM FEW300 33/23 A2998 RMK AO2 SLP146 T03330233

2010/08/09 15:54
KSYN 091554Z AUTO 00000KT 10SM CLR 29/23 A2991 RMK AO2 T02850230

2010/08/09 15:53
KTKC 091553Z AUTO 03004KT 10SM CLR 26/22 A2992 RMK AO2 T02640221

2010/08/09 15:54
KFWA 091554Z 28004KT 9SM FEW150 BKN250 28/21 A3001 RMK AO2 SLP155 T02830211

2010/08/09 15:55
KCAO 091555Z AUTO 35005KT 10SM CLR 28/14 A3008 RMK AO2 SLP104 T02830144 TSNO

2010/08/09 15:56
KMHS 091556Z AUTO 00000KT 10SM CLR 18/09 A2997 RMK AO2 PK WND 33029/1528 SLP138 T01780094 TSNO

2010/08/09 15:53
PHKO 091553Z VRB03KT 10SM CLR 22/18 A3000 RMK AO2 SLP160 T02220178 PNO $

2010/08/09 15:54
PHOG 091554Z 05011KT 10SM CLR 24/17 A3007 RMK AO2 SLP187 T02390172

2010/08/09 15:53
PHTO 091553Z 12005KT 10SM RA SCT027 BKN049 OVC055 21/19 A3009 RMK AO2 RAB45 SLP188 P0000 T02060189 $

2010/08/09 15:50
K3A6 091550Z AUTO 36001KT 21/09 A2991 RMK AO1 SLP145 T02100095

2010/08/09 15:50
KHMS 091550Z 31010KT 15SM FEW250 23/10 A2981 RMK SLP093 T02260101 RSNK 15.7/20009KT

2010/08/09 15:55
KSNC 091555Z AUTO 20007G14KT 360V010 10SM CLR 27/24 A3002 RMK AO2

2010/08/09 15:52
KGLW 091552Z AUTO 21003KT 10SM CLR 32/23 A3001 RMK AO2 T03200229

2010/08/09 15:55
KGOV 091555Z AUTO 00000KT 4SM BR OVC008 24/22 A2991 RMK AO2

2010/08/09 15:55
KGUL 091555Z AUTO 10SM FEW026 31/25 A2999 RMK A01

2010/08/09 15:53
KGYL 091553Z AUTO 00000KT 10SM CLR 27/21 A2992 RMK AO2 T02710210

2010/08/09 15:55
KHAF 091555Z AUTO 20005KT 2 1/2SM BR OVC009 12/11 A2995 RMK AO2

2010/08/09 15:55
KHAI 091555Z AUTO 35003G16KT 10SM RA SCT024 SCT030 BKN042 23/21 A3000 RMK AO2

2010/08/09 15:52
KHCD 091552Z AUTO 00000KT 10SM SCT120 27/21 A2993 RMK AO2 T02700207 TSNO

2010/08/09 15:54
KHCO 091554Z AUTO 13006KT 10SM CLR 29/19 A2986 RMK AO2

2010/08/09 15:50
KHQI 091550Z AUTO 08003KT 10SM 32/26 A2999 RMK A01

2010/08/09 15:55
KHTO 091555Z 20014KT 7SM SKC 27/23 A3003

2010/08/09 15:50
KHXD 091550Z 36010KT 10SM SCT050 30/25 A3001

2010/08/09 15:54
KHYX 091554Z AUTO 24005KT 10SM SCT120 25/20 A2990 RMK AO2

2010/08/09 15:51
KHZX 091551Z AUTO 00000KT 10SM CLR 27/21 A2993 RMK AO2

2010/08/09 15:55
KIPN 091555Z AUTO VRB06G12KT 10SM FEW060 FEW085 SCT120 29/24 A2998 RMK A01

2010/08/09 15:55
KIRS 091555Z AUTO 17005KT 10SM CLR 26/21 A2999 RMK AO2

2010/08/09 15:55
KISQ 091555Z AUTO 10004KT 10SM OVC010 25/21 A2987 RMK AO2

2010/08/09 15:54
KJKJ 091554Z AUTO 21006KT 10SM CLR 27/21 A2990 RMK AO2

2010/08/09 15:55
KJMR 091555Z AUTO 00000KT 10SM OVC004 23/22 A2995 RMK AO2

2010/08/09 15:55
KJYG 091555Z AUTO 00000KT 10SM CLR 28/26 A2993 RMK AO2

2010/08/09 15:55
KJYM 091555Z AUTO 00000KT 10SM CLR 27/19 A2999 RMK AO2

2010/08/09 15:52
KLJF 091552Z AUTO 00000KT 10SM CLR 29/24 A2992 RMK AO2

2010/08/09 15:55
KLNL 091555Z AUTO 31004KT 10SM SCT020 BKN026 BKN031 25/20 A2994 RMK AO2 T02540198

2010/08/09 15:53
KLVN 091553Z AUTO 00000KT 10SM CLR 28/22 A2992 RMK AO2

2010/08/09 15:56
KLWA 091556Z AUTO 18005KT 10SM -RA SCT045 SCT050 SCT120 23/22 A2997 RMK AO2

2010/08/09 15:53
KLXL 091553Z AUTO 00000KT 10SM CLR 27/18 A2993 RMK AO2

2010/08/09 15:56
KM89 091556Z AUTO 23003KT 9SM CLR 34/26 A2996 RMK AO2 T03440255 SLP158 $

2010/08/09 15:55
KMDJ 091555Z AUTO 34016KT 10SM FEW023 SCT033 BKN044 31/26 A2998 RMK A01

2010/08/09 15:55
KMGG 091555Z AUTO 00000KT 10SM CLR 29/24 A2993 RMK AO2 T02860239

2010/08/09 15:55
KMGN 091555Z AUTO 07008KT 10SM SCT009 OVC020 23/21 A2989 RMK AO2

2010/08/09 15:55
KMIU 091555Z AUTO 17009KT 10SM FEW021 30/26 A2995 RMK A01

2010/08/09 15:51
KMJQ 091551Z AUTO 17006KT 10SM BKN020 26/22 A2994 RMK AO2

2010/08/09 15:54
KMOP 091554Z AUTO 22006KT 10SM CLR 25/23 A2990 RMK AO2

2010/08/09 15:49
KMOX 091549Z AUTO 00000KT 10SM CLR 28/19 A2989 RMK AO2

2010/08/09 15:50
KMTN 091550Z 13008KT 10SM SCT200 30/25 A3003

2010/08/09 15:54
KMVE 091554Z AUTO 07003KT 10SM CLR 28/24 A2991 RMK AO2

2010/08/09 15:53
KMWM 091553Z AUTO 00000KT 10SM CLR 27/22 A2992 RMK AO2

2010/08/09 15:55
KMZG 091555Z AUTO 00000KT 10SM CLR 31/25 A2995 RMK A01

2010/08/09 15:51
KMZH 091551Z AUTO 00000KT 10SM SCT011 26/22 A2991 RMK AO2

2010/08/09 15:55
KOEB 091555Z AUTO 28004KT 10SM CLR 26/21 A3000 RMK AO2

2010/08/09 15:50
KONA 091550Z AUTO 00000KT 10SM OVC015 26/21 A2991 RMK AO2

2010/08/09 15:54
KONZ 091554Z AUTO 24006KT 7SM CLR 28/21 A2996 RMK AO2

2010/08/09 15:54
KORB 091554Z AUTO 00000KT 10SM CLR 24/19 A2989 RMK AO2

2010/08/09 15:53
KOVL 091553Z AUTO 05003KT 10SM CLR 27/20 A2991 RMK AO2 T02670201

2010/08/09 15:54
KOWA 091554Z AUTO 25004KT 10SM BKN014 26/23 A2992 RMK AO2

2010/08/09 15:55
KOZW 091555Z AUTO 22005KT 10SM CLR 26/20 A2996 RMK AO2

2010/08/09 15:53
KPEX 091553Z AUTO 01004KT 10SM CLR 28/21 A2994 RMK AO2 T02790209

2010/08/09 15:53
KPNM 091553Z AUTO 00000KT 7SM OVC005 25/24 A2993 RMK AO2

2010/08/09 15:53
KPQN 091553Z AUTO 14004KT 10SM CLR 28/22 A2994 RMK AO2

2010/08/09 15:52
KPVB 091552Z AUTO 25010KT 10SM OVC012 24/21 A2995 RMK AO1 T02440214

2010/08/09 15:55
KPVF 091555Z AUTO 00000KT 10SM CLR 23/11 A2996 RMK AO1

2010/08/09 15:53
KPWC 091553Z AUTO 21003KT 10SM CLR 26/19 A2994 RMK AO2

2010/08/09 15:55
KRGK 091555Z AUTO 00000KT 10SM CLR 29/22 A2990 RMK AO2

2010/08/09 15:55
KRNP 091555Z AUTO 21005KT 10SM SCT013 SCT120 24/21 A2994 RMK AO2

2010/08/09 15:54
KROX 091554Z AUTO 11004KT 10SM CLR 28/23 A2986 RMK AO2

2010/08/09 15:55
KRQB 091555Z AUTO 21004KT 10SM SCT085 26/21 A2991 RMK AO2

2010/08/09 15:54
KRRT 091554Z AUTO 09004KT 10SM CLR 24/20 A2988 RMK AO2 TSNO

2010/08/09 15:50
EDHL 091550Z 30004KT 270V330 9999 BKN035 17/17 Q1016 RMK W

2010/08/09 15:50
EDLN 091550Z VRB03KT 9999 SCT046 22/13 Q1016 RMK ATIS W

2010/08/09 15:50
EDLP 091550Z VRB02KT CAVOK 20/11 Q1017 RMK RWY24 TRL60 OK ATIS C

2010/08/09 15:50
EDLW 091550Z 27005KT 230V300 CAVOK 21/13 Q1017 RMK ATISZ

2010/08/09 15:50
EDNY 091550Z VRB03KT 9999 FEW050 25/12 Q1016 RMK ATIS Y

2010/08/09 15:50
EDXW 091550Z 29008KT CAVOK 18/10 Q1015 RMK ATIS INFO T

2010/08/09 15:50
LGPZ 091550Z 24014KT 9999 FEW020TCU 28/21 Q1010 NOSIG BLU

2010/08/09 15:50
LGRX 091550Z 24005KT CAVOK 30/21 Q1008 NOSIG BLU

2010/08/09 15:50
LGSR 091550Z 33015KT CAVOK 30/21 Q1006 NOSIG BLU

2010/08/09 15:50
LIMC 091550Z 23006KT 180V280 9999 FEW030 28/17 Q1015 NOSIG METAR LIME 091550Z 17004KT 130V220 9999 FEW040 28/16 Q1015

2010/08/09 15:50
LIMC 091550Z 23006KT 180V280 9999 FEW030 28/17 Q1015 NOSIG METAR LIME 091550Z 17004KT 130V220 9999 FEW040 28/16 Q1015

2010/08/09 15:49
MMCV 091549Z 18010KT 8SM SCT020 31/23 A2995 RMK 8/500 HZY

2010/08/09 15:51
MMRX 091551Z 17015KT 8SM BKN025 32/26 A2993 RMK 8/500 HZY

2010/08/09 15:50
HLLT 091550Z HLLT 36009KT 320V020 CAVOK 29/15 Q1015

2010/08/09 15:50
EGAE 091550Z 26009KT 9999 VCSH FEW013 SCT024CB 15/12 Q1007

2010/08/09 15:51
KP58 091551Z AUTO 22006KT 26/22 A2989 RMK AO2 SLP111 T02560217 PWINO TSNO 

2010/08/09 15:50
EGDL 091550Z 21011KT 9999 -DZ SCT016 BKN100 18/15 Q1014 NOSIG

2010/08/09 16:00
SBCG 091600Z 08006KT CAVOK 30/06 Q1019 

2010/08/09 15:55
EHAM 091555Z 25005KT 210V290 9999 FEW040 21/13 Q1015 NOSIG

2010/08/09 15:55
EHBK 091555Z AUTO 25006KT 200V340 9999NDV NSC 22/09 Q1016 NOSIG

2010/08/09 15:55
EHGG 091555Z AUTO 25007KT 220V290 9999NDV FEW037 21/12 Q1015 NOSIG

2010/08/09 15:55
EHKD 091555Z AUTO 21008KT 9999NDV FEW180/// 20/14 Q1015 BLU BLU NOSIG

2010/08/09 15:55
EHRD 091555Z VRB05KT 9999 FEW042 22/13 Q1015 NOSIG

2010/08/09 15:57
KNJM 091557Z AUTO 12006KT 10SM CLR 28/25 A3005 RMK AO2 SLP179 T02830250 

2010/08/09 15:55
EHAK 091555Z AUTO 20020KT 160V270 9999NDV FEW008/// SCT010/// BKN012/// 17/15 Q1012

2010/08/09 15:55
EHDV 091555Z AUTO 18016KT 9999NDV FEW006/// 18/16 Q1012

2010/08/09 15:55
EHFD 091555Z AUTO 20024KT 9999NDV FEW016/// 17/13 Q1014

2010/08/09 15:55
EHFZ 091555Z AUTO 19023KT 9999NDV ///////// 17/15 Q1014

2010/08/09 15:55
EHJA 091555Z AUTO 17016KT 9999NDV 18/14 Q1013

2010/08/09 15:55
EHKV 091555Z AUTO 20017KT 9999NDV 18/15 Q1014

2010/08/09 15:55
EHMA 091555Z AUTO 27007KT 9999NDV ///////// 19/11 Q1015

2010/08/09 15:55
EHMG 091555Z AUTO 22018KT 9999NDV 18/14 Q1015

2010/08/09 15:55
EHPG 091555Z AUTO 18011KT 9999NDV 18/15 Q1014

2010/08/09 15:55
EHQE 091555Z AUTO 21016KT 9999NDV ///////// 18/15 Q1015

2010/08/09 15:59
KAPN 091559Z 14004KT 5SM -RA BR FEW007 BKN034 OVC060 21/19 A2994 RMK AO2 P0007 

2010/08/09 16:00
GVNP 091600Z 09007KT 9999 BKN020 27/21 Q1013 NOSIG

2010/08/09 15:50
EGPA 091550Z 14009KT 9999 -RADZ SCT006 SCT010 BKN030 15/14 Q1006

2010/08/09 15:50
EGPC 091550Z 14010KT 9999 FEW008 SCT048 15/15 Q1005

2010/08/09 15:50
EGPL 091550Z AUTO 21010KT 9999NDV FEW017/// 16/11 Q1005

2010/08/09 15:50
EGPM 091550Z 13013KT 9999 FEW020 BKN028 14/11 Q1009

2010/08/09 15:50
EGPO 091550Z 21013KT 9999 FEW026 SCT030 17/11 Q1005

2010/08/09 16:00
FOOL 091600Z VRB03KT 8000 -DZ SCT006 SCT010 OVC033 24/23 Q1013 NOSIG

2010/08/09 15:50
EGNC 091550Z 25015KT 9999 SCT030 18/14 Q1008

2010/08/09 15:50
EGNH 091550Z 25007KT 220V290 9999 FEW010 SCT022 18/15 Q1010

2010/08/09 15:50
EGNJ 091550Z 25009KT 9999 BKN045 23/14 Q1010

2010/08/09 15:50
EGNR 091550Z 26014KT 9999 SCT025 22/13 Q1010

2010/08/09 15:50
EGPE 091550Z 26006KT 9999 FEW015 FEW020CB SCT038 18/12 Q1005

2010/08/09 15:50
EGPI 091550Z 24008KT 9999 FEW020 15/12 Q1008

2010/08/09 16:00
OPKC 091600Z 31004KT 6000 FEW020 SCT025 BKN100 27/25 Q1001 NOSIG

2010/08/09 16:00
OPPS 091600Z NE-06KTS 2000 BR FEW040 BKN100 29/26 Q1002.5

2010/08/09 15:55
OPSK 091555Z 00000KT 2000 HZ SCT040 SCT100 30/28 Q999 RH 89

2010/08/09 16:00
UBBB 091600Z 20008KT CAVOK 32/18 Q1008 NOSIG RMK R88CLRD70

2010/08/09 16:00
SBFI 091600Z 17004KT CAVOK 19/11 Q1020 

2010/08/09 15:56
KABH 091556Z AUTO 14005KT 10SM CLR 22/12 A3018 RMK AO2 SLP137 T02220122 $ 

2010/08/09 16:00
YSWG 091600Z AUTO 09011KT 9999NDV // SCT031 BKN066 OVC100 11/06 Q1016

2010/08/09 15:45
KMYR 091545Z 09011KT 10SM FEW015 SCT025 31/25 A3007

2010/08/09 16:00
GQNN 091600Z 27009KT 240V300 CAVOK 31/19 Q1010 NOSIG

2010/08/09 15:53
KRYT 091553Z AUTO VRB04KT 10SM CLR 32/16 A3002 RMK AO2 SLP150 T03170161 $ 

2010/08/09 15:50
ESSA 091550Z 22008KT 9999 SCT020 21/17 Q1007 NOSIG

2010/08/09 16:00
UBBB 091600Z 20008KT CAVOK 32/18 Q1008 NOSIG RMK R88CLRD70

2010/08/09 15:45
KMYR 091545Z 09011KT 10SM FEW015 SCT025 31/25 A3007

2010/08/09 16:00
LZKC 091600Z 25007KT 170V280 9999 FEW041CB BKN051 SCT200 23/16 Q1016

2010/08/09 16:00
LZLU 091600Z 21004KT 160V250 9999 FEW043TCU FEW043 BKN100 21/17 Q1016

2010/08/09 16:00
LZPE 091600Z VRB02KT 9999 FEW044 23/12 Q1016

2010/08/09 15:57
KHIF 091557Z AUTO 16008KT 10SM -DZ CLR 23/09 A3006 RMK AO2 DZB1557 SLP072

2010/08/09 15:58
KHIF 091558Z AUTO 17009KT 10SM CLR 23/09 A3006 RMK AO2 DZB1557E1558 SLP072

2010/08/09 15:58
KMCF 091558Z AUTO 07009KT 10SM SCT018 30/26 A2994 RMK AO2 SCT V BKN SLP139

2010/08/09 15:50
KQEI 091550Z AUTO 00000KT 6SM BR FEW007 23/21 A2998 RMK A02

2010/08/09 15:50
KQEJ 091550Z AUTO 33001KT 5SM BR CLR 23/21 A2997 RMK A02

2010/08/09 15:50
KQEP 091550Z AUTO 17002KT 5SM BR BKN055 25/22 A2988 RMK A02

2010/08/09 15:50
KQEQ 091550Z AUTO 05003KT 7SM BKN060 24/22 A2981 RMK A02

2010/08/09 15:50
KQER 091550Z AUTO 08001KT 2SM BR FEW065 SCT080 23/21 A2993 RMK A02

2010/08/09 15:50
KQEW 091550Z AUTO 29003KT 7SM CLR 25/22 A2986 RMK A02

2010/08/09 15:50
KQEX 091550Z AUTO 19003KT 7SM FEW024 SCT050 SCT090 28/22 A2978 RMK A02

2010/08/09 15:50
KQFB 091550Z AUTO 18005KT 7SM BKN017 27/23 A2996 RMK A02

2010/08/09 15:50
KQFU 091550Z AUTO 21003KT 6SM BR CLR 25/22 A2992 RMK A02

2010/08/09 15:50
KQFW 091550Z AUTO 27001KT 7SM CLR 24/21 A2994 RMK A02

2010/08/09 15:55
KQD9 091555Z VRB02KT 9999 FEW030 SCT050 BKN180 25/22 A2982 RMK SLP039 WND DATA ESTMD ALSTG/SLP ESTMD

2010/08/09 15:55
KQGV 091555Z 15012KT 8000 HZ SCT120 BKN180 43/14 A2946 RMK SLP965

2010/08/09 15:55
KQHA 091555Z 25003KT 9999 FEW027 BKN046 BKN250 32/24 A2994 RMK AO2A SLP137 T03200236

2010/08/09 15:55
KQSB 091555Z AUTO 21006KT 9000 34/04 A2973 RMK AO2 SLP967 T03400039 $

2010/08/09 15:55
KQXR 091555Z AUTO 33004KT 9000 CLR 44/M02 A2942 RMK AO2 SLP961 T04391018 $

2010/08/09 16:00
KQEN 091600Z AUTO 25009KT 2SM BR FEW001 19/17 A3046 RMK A02

2010/08/09 16:00
KQEY 091600Z AUTO 16002KT 7SM CLR 25/23 A2961 RMK A02

2010/08/09 15:58
CWOB 091558Z AUTO ///// 0SM CLR 04/ A2969

2010/08/09 15:58
CWZZ 091558Z AUTO ///// 1/8SM CLR 07/ A2960

2010/08/09 15:57
CYKJ 091557Z AUTO 10005KT 6SM -RA OVC005 16/15 A2975 RMK SLP086 DENSITY ALT 2300FT

2010/08/09 15:55
CYRV 091555Z AUTO 18002KT 7SM -RA OVC014 OVC063 OVC079 16/15 A2986

2010/08/09 15:55
CYUB 091555Z 21005KT 15SM BKN005 BKN220 RMK SC7CI0

2010/08/09 15:58
CYZE 091558Z AUTO VRB04KT 9SM BKN018 24/19 A2991 RMK DENSITY ALT 1800FT

2010/08/09 15:57
KHIF 091557Z AUTO 16008KT 10SM -DZ CLR 23/09 A3006 RMK AO2 DZB1557 SLP072

2010/08/09 15:58
KHIF 091558Z AUTO 17009KT 10SM CLR 23/09 A3006 RMK AO2 DZB1557E1558 SLP072

2010/08/09 15:58
KMCF 091558Z AUTO 07009KT 10SM SCT018 30/26 A2994 RMK AO2 SCT V BKN SLP139

2010/08/09 15:58
KSUU 091558Z AUTO 25018KT 10SM SCT008 16/12 A2988 RMK AO2 SLP120 RVRNO $

2010/08/09 15:58
YPEA 091558Z AUTO 08008KT 9999NDV // NCD 09/02 Q1024

2010/08/09 15:58
KMCF 091558Z AUTO 07009KT 10SM SCT018 30/26 A2994 RMK AO2 SCT V BKN SLP139

2010/08/09 15:49
KBJC 091549Z 34006KT 40SM FEW080 BKN110 BKN140 24/09 A3016

2010/08/09 15:50
ENSG 091550Z VRB04KT 9999 SCT045 19/13 Q1009

2010/08/09 16:00
LWSK 091600Z 01013KT 9999 FEW050 30/14 Q1013 NOSIG

2010/08/09 16:00
HAAB 091600Z 25008KT 7000 FEW023 BKN025CB BKN080 18/14 Q1022 R/M DIS RAIN

2010/08/09 15:50
ENEK 091550Z 20018KT 9999 SCT010 17/14 Q1010 W16/S3

2010/08/09 15:55
KCVS 091555Z 24012KT 10SM CLR 26/20 A3008 RMK AO2A SLP136 T02640195 $

2010/08/09 15:55
KDMA 091555Z AUTO 16005KT 10SM CLR 30/17 A2999 RMK AO2 SLP088 T02950168 VISNO RWY12 CHINO RWY12 $

2010/08/09 15:55
KEDW 091555Z 01004KT 85SM CLR 21/M00 A2994 RMK AO2A SLP100 T02061002

2010/08/09 15:55
KFTK 091555Z 13003KT 10SM FEW040 SCT100 BKN250 32/23 A3001 RMK SLP148 T02970229 52014 $

2010/08/09 15:55
KHOP 091555Z AUTO 25007KT 10SM CLR 33/24 A3001 RMK AO2 SLP155 T03290236

2010/08/09 15:55
KLFI 091555Z 07007KT 10SM FEW015 SCT180 29/23 A3005 RMK AO2A SLP177 T02910234

2010/08/09 15:56
KNYG 091556Z 17009KT 8SM FEW200 SCT250 30/22 A3003 RMK AO2 SLP170 T03000222 $

2010/08/09 15:55
KTBN 091555Z 26004KT 10SM CLR 32/22 A2999 RMK AO2A SLP130 T03180222 $

2010/08/09 15:55
KTTS 091555Z 10007KT 060V140 10SM SCT018 SCT090 BKN210 30/26 A2995 RMK MDT CU W SLP142 3CU /3/ 2AC 1CI /4/

2010/08/09 16:00
MHAM 091600Z 04002KT 9999 FEW015 BKN250 30/26

2010/08/09 16:00
MHCA 091600Z 17004KT 9999 SCT025TCU BKN080 28/21 TCU TD

2010/08/09 16:00
MHCH 091600Z 36002KT 9999 SCT032TCU SCT250 32/25 FEW100 TCU S HZ

2010/08/09 16:00
MHLE 091600Z 03005KT 9999 SCT024 BKN200 22/16 Q1024

2010/08/09 16:00
MHNO 091600Z 01004KT 9999 FEW040 SCT250 27/// HZ

2010/08/09 16:00
MHSR 091600Z 02002KT 9999 FEW009 SCT025 BKN250 25/19 HZ

2010/08/09 16:00
MHTE 091600Z 35004KT 9999 SCT024TCU SCT080 28/23 Q1012 TCU N NNE SW HZ

2010/08/09 16:00
MHYR 091600Z 18004KT 9999 SCT023TCU 27/22 TCU TD HZ

2010/08/09 16:00
ORER 091600Z 28009KT CAVOK 40/M01 Q1002

2010/08/09 16:00
ORSU 091600Z 30008KT 9999 FEW045 34/03 Q1007

2010/08/09 15:59
NSTU 091559Z 10014KT 10SM SCT017 BKN040 27/25 A2994 RMK SLP139 T02720247

2010/08/09 15:50
ENLK 091550Z 03012KT 9999 FEW015 SCT020 13/09 Q1013

2010/08/09 16:00
MBPV 091600Z 13011KT 9999 SCT015 SCT060 32/25 A3000  

2010/08/09 16:00
MYGF 091600Z 19007KT 9999 VCSH FEW015CB BKN100 26/25 A3000 RMK CB/VCSH W/N RE55  

2010/08/09 15:55
TXKF 091555Z 18010KT 9999 FEW020 BKN300 29/24 Q1022  

2010/08/09 15:57
CYCX 091557Z 17005KT 3SM -SHRA BR FEW008 BKN020 OVC040 RMK SF1ST6SC2

2010/08/09 15:53
KLOR 091553Z AUTO 07006KT 10SM FEW032 33/23 A2999 RMK AO2 SLP152 T03280233 TSNO PNO $ 

2010/08/09 16:00
SLLP 091600Z 23005KT 9999 NSC 12/M13 Q1040

2010/08/09 16:00
SLVR 091600Z 17013G23KT 8000 NSC 23/06 Q1020

2010/08/09 16:00
SLCB 091600Z 00000KT 9999 SKC 21/03 Q1027

2010/08/09 15:54
KNFG 091554Z 08003KT 7SM SCT017 17/13 A2993 RMK AO2 SLP133 T01720128 $

2010/08/09 15:56
KNGP 091556Z 13007KT 10SM SCT023 BKN028 BKN039 31/24 A2995 RMK AO2 SLP140 T03100242 VISNO $

2010/08/09 15:56
KNID 091556Z 00000KT 10SM CLR 24/03 A2993 RMK AO2 SLP115 T02440028 $

2010/08/09 15:55
KNKX 091555Z VRB03KT 10SM OVC010 17/13 A2993 RMK AO2 SLP130 T01720128

2010/08/09 15:56
KNLC 091556Z 34007KT 10SM CLR 21/12 A2989 RMK AO2 SLP119 RH/58 T02110122

2010/08/09 15:56
KNMM 091556Z 10005KT 10SM FEW030 31/23 A3000 RMK AO2 SLP166 T03110228 $

2010/08/09 15:56
KNPA 091556Z 07007KT 10SM FEW035 SCT280 32/25 A2997 RMK AO2 SLP150 T03170250

2010/08/09 15:56
KNQI 091556Z 14008KT 10SM BKN041 35/24 A2994 RMK AO2 SLP135 T03500244

2010/08/09 15:56
KNXX 091556Z 25004KT 10SM FEW045 31/18 A3004 RMK AO2 SLP175 T03060178 $

2010/08/09 15:56
KNYG 091556Z 17009KT 8SM FEW200 SCT250 30/22 A3003 RMK AO2 SLP170 T03000222 $

2010/08/09 15:52
KNZY 091552Z 00000KT 10SM BKN017 20/13 A2992 RMK AO2 SLP132 T02000128 $

2010/08/09 15:55
KPOE 091555Z AUTO 31005KT 10SM CLR 31/22 A2999 RMK AO2 SLP156 T03110222

2010/08/09 15:56
KSGH 091556Z 19004KT 5SM HZ CLR 29/23 A3005 RMK AO2 T02880227 SLP166 $

2010/08/09 15:55
KTBN 091555Z 26004KT 10SM CLR 32/22 A2999 RMK AO2A SLP130 T03180222 $

2010/08/09 15:55
KTTS 091555Z 10007KT 060V140 10SM SCT018 SCT090 BKN210 30/26 A2995 RMK MDT CU W SLP142 3CU /3/ 2AC 1CI /4/

2010/08/09 15:55
KVBG 091555Z 04004KT 6SM -DZ BR SCT004 BKN006 OVC010 14/12 A2996 RMK AO2 DZB25 SLP136 P0000 T01390122 $

2010/08/09 15:56
K79J 091556Z 11010KT 10SM FEW028 33/24 A2999 RMK AO2 SLP150 T03330239 PNO $

2010/08/09 15:56
K79J 091556Z 11010KT 10SM FEW028 33/24 A2999 RMK AO2 SLP150 T03330239 PNO $

2010/08/09 15:55
KCVS 091555Z 24012KT 10SM CLR 26/20 A3008 RMK AO2A SLP136 T02640195 $

2010/08/09 15:55
KDMA 091555Z AUTO 16005KT 10SM CLR 30/17 A2999 RMK AO2 SLP088 T02950168 VISNO RWY12 CHINO RWY12 $

2010/08/09 15:55
KEDW 091555Z 01004KT 85SM CLR 21/M00 A2994 RMK AO2A SLP100 T02061002

2010/08/09 15:55
KFTK 091555Z 13003KT 10SM FEW040 SCT100 BKN250 32/23 A3001 RMK SLP148 T02970229 52014 $

2010/08/09 15:56
KHLR 091556Z AUTO 16009KT 10SM CLR 33/21 A2999 RMK AO2 SLP143 T03330211 $

2010/08/09 15:55
KHOP 091555Z AUTO 25007KT 10SM CLR 33/24 A3001 RMK AO2 SLP155 T03290236

2010/08/09 15:55
KLFI 091555Z 07007KT 10SM FEW015 SCT180 29/23 A3005 RMK AO2A SLP177 T02910234

2010/08/09 15:56
KNBC 091556Z 04008KT 7SM FEW030 SCT200 32/22 A3001 RMK AO2 SLP163 T03170222

2010/08/09 15:55
KNBG 091555Z VRB06KT 10SM SCT025 BKN250 33/24 A2998 RMK AO2 SLP150 T2 SET T03280239 $

2010/08/09 15:56
KNCA 091556Z 08004KT 10SM SCT030 BKN080 32/24 A3004 RMK AO2 SLP173 T03170239 $

2010/08/09 15:56
KNJK 091556Z 00000KT 10SM CLR 30/09 A2979 RMK AO2 SLP104 T03000089

2010/08/09 15:56
KNRS 091556Z 00000KT 10SM OVC017 17/13 A2994 RMK AO2 SLP137 T01720133

2010/08/09 15:56
KNUQ 091556Z AUTO 10006KT 10SM OVC016 16/11 A2993 RMK AO2 SLP137 T01610111 TSNO

2010/08/09 15:56
PPIZ 091556Z AUTO 07024G32KT 10SM BKN010 BKN015 03/01 A2969 RMK AO2 TSNO T00270011 PK WND 07032/1556 SLP057 $

2010/08/09 16:00
GOOY 091600Z 30006KT 260V340 9999 SCT013 BKN230 29/22 Q1011 NOSIG

2010/08/09 16:00
VHHH 091600Z 15007KT 120V220 9999 FEW012 30/25 Q1005 NOSIG

2010/08/09 16:00
LDSB 091600Z 29011KT CAVOK 28/10 Q1014 WS ALL RWY

2010/08/09 16:00
SBBR 091600Z 11007KT CAVOK 29/M03 Q1023 

2010/08/09 16:00
SBGR 091600Z 18007KT 7000 FEW013 BKN019 17/13 Q1024

2010/08/09 15:55
KLUM 091555Z AUTO 31004KT 5SM HZ OVC009 26/23 A2992 RMK AO2

2010/08/09 15:55
KMDZ 091555Z AUTO 27006KT 10SM SCT016 27/23 A2993 RMK AO2

2010/08/09 15:55
KMRJ 091555Z AUTO 24006KT 10SM OVC013 26/22 A2994 RMK AO2 T02600217

2010/08/09 15:55
KMWO 091555Z AUTO 25003KT 10SM CLR 32/20 A3003 RMK AO2

2010/08/09 15:55
KOEO 091555Z AUTO 35005KT 10SM CLR 27/23 A2994 RMK AO2

2010/08/09 15:53
KPAE 091553Z 00000KT 10SM OVC005 14/13 A2997

2010/08/09 15:55
KPBH 091555Z AUTO 00000KT 10SM SCT014 27/23 A2994 RMK AO2

2010/08/09 15:55
KPCZ 091555Z AUTO 25003KT 10SM SCT017 28/22 A2990 RMK AO2 T02790215

2010/08/09 15:52
KPDC 091552Z AUTO 22005KT 10SM CLR 28/23 A2991 RMK AO2 T02780227

2010/08/09 15:55
KRCX 091555Z AUTO 28004KT 10SM SCT007 26/23 A2995 RMK AO2 T02620230

2010/08/09 15:56
KRNH 091556Z AUTO 01003KT 7SM BKN007 26/23 A2994 RMK AO2 T02550227

2010/08/09 15:55
KRRL 091555Z AUTO 27003KT 10SM SCT017 SCT024 27/23 A2993 RMK AO2 T02680226

2010/08/09 15:55
KSTE 091555Z AUTO 00000KT 5SM HZ OVC008 25/22 A2992 RMK AO2

2010/08/09 15:55
KSUW 091555Z AUTO 22004KT 10SM BKN009 24/22 A2989 RMK AO2

2010/08/09 15:55
KTKV 091555Z AUTO 31003KT 10SM BKN017 BKN026 BKN034 27/22 A2993 RMK AO2 T02650217

2010/08/09 15:55
KLDM 091555Z AUTO 23010G15KT 10SM OVC075 25/22 A2991 RMK AO2

2010/08/09 15:55
KPHN 091555Z AUTO 21005KT 7SM SCT050 SCT070 27/20 A2994 RMK AO2

2010/08/09 15:55
KRMY 091555Z AUTO 00000KT 10SM SCT065 26/21 A2997 RMK AO2

2010/08/09 15:56
KOSC 091556Z AUTO 36010KT 7SM BKN014 BKN028 BKN043 24/22 A2991 RMK AO2

2010/08/09 15:54
KTTF 091554Z AUTO 27006KT 10SM CLR 29/21 A2996 RMK AO2

2010/08/09 15:55
KMCD 091555Z AUTO 14003KT 10SM SCT007 SCT043 BKN050 22/19 A2991 RMK AO2

2010/08/09 16:01
PADM 091601Z AUTO 15015G18KT 10SM -RA OVC017 10/08 A2937 RMK AO2 TSNO T01000083 P0001 SLP935 $

2010/08/09 15:58
PADU 091558Z 23010KT 5SM -RA BR BKN017 OVC027 10/08 A2950 RMK AO2 SLP994 MH P0001 T01000083

2010/08/09 15:58
PAGA 091558Z AUTO 12008KT 10SM OVC060 12/11 A2945 RMK AO2 RAB44E56 SLPNO T01220111

2010/08/09 15:56
PAJZ 091556Z AUTO 18012KT 2SM BR BKN003 OVC007 11/10 A2954 RMK AO2 PWINO TSNO T01050100 CIG 001V006 P0001 SLP991 $

2010/08/09 15:56
PAKI 091556Z AUTO 18020KT 3SM +RA BR BKN011 OVC015 09/09 A2923 RMK AO2 TSNO T00880088 CIG 008V012 P0000 SLP899 $

2010/08/09 15:56
PALG 091556Z AUTO 08003KT 10SM SCT075 11/10 A2938 RMK AO2 TSNO T01050100 RAE30 P0002 SLP951 $

2010/08/09 15:47
PALJ 091547Z 00000KT 30SM SCT060 BKN100 13/11 A2951 RMK FIRST EST PASS OPEN NOSPECI

2010/08/09 15:58
PATE 091558Z AUTO 05014KT 10SM -RA OVC070 12/11 A2931 RMK AO2 SLP937 P0003 T01220111

2010/08/09 15:55
KUNU 091555Z AUTO 21010KT 10SM SCT014 SCT049 26/21 A2994 RMK AO2 T02550206

2010/08/09 15:55
KVTI 091555Z AUTO 00000KT 10SM -RA SCT030 SCT060 SCT085 23/23 A2993 RMK AO2

2010/08/09 15:55
K4M9 091555Z AUTO 31006KT 9SM CLR 32/27 A2997 RMK AO2

2010/08/09 15:53
KARV 091553Z AUTO 00000KT 10SM SCT015 27/22 A2994 RMK AO2 T02650217

2010/08/09 15:55
KAWG 091555Z AUTO 00000KT 10SM SCT080 26/21 A2992 RMK AO2

2010/08/09 15:55
KAXA 091555Z AUTO 14005KT 10SM SCT015 27/23 A2992 RMK AO2

2010/08/09 15:55
KBNW 091555Z AUTO 15008KT 10SM CLR 28/23 A2990 RMK AO2

2010/08/09 15:55
KCAV 091555Z AUTO 14007KT 10SM SCT055 28/22 A2992 RMK AO2

2010/08/09 15:55
KCBF 091555Z AUTO 22003KT 10SM CLR 30/23 A2986 RMK AO2

2010/08/09 15:55
KCKP 091555Z AUTO 15005KT 10SM OVC013 25/23 A2990 RMK AO2

2010/08/09 15:55
KCNC 091555Z AUTO 16005KT 10SM CLR 26/22 A2990 RMK AO2

2010/08/09 15:51
KCSG 091551Z COR 09007KT 9SM FEW045 33/21 A3002 RMK AO2 SLP158 T03330206

2010/08/09 15:55
KCSQ 091555Z AUTO 17013G16KT 10SM SCT012 27/25 A2990 RMK AO2

2010/08/09 15:55
KDEH 091555Z AUTO 29004KT 7SM SCT014 27/21 A2996 RMK AO2

2010/08/09 15:55
KDNS 091555Z AUTO 20005KT 10SM CLR 28/23 A2990 RMK AO2

2010/08/09 15:55
KEBS 091555Z AUTO 15008KT 10SM SCT055 26/21 A2991 RMK AO2

2010/08/09 15:55
KEFT 091555Z AUTO 24012KT 10SM SCT018 BKN100 27/21 A2993 RMK AO2 T02700210

2010/08/09 15:55
KEOK 091555Z AUTO 08004KT 10SM CLR 24/21 A2994 RMK AO2

2010/08/09 15:55
KFFL 091555Z AUTO 14006KT 10SM CLR 25/23 A2991 RMK AO2

2010/08/09 15:56
KFSD 091556Z 07004KT 10SM CLR 27/22 A2991 RMK AO2 SLP120 SCT ABV 120 T02670217 $

2010/08/09 15:55
KFSW 091555Z AUTO 16006KT 10SM CLR 25/22 A2994 RMK AO2

2010/08/09 15:55
KFXY 091555Z AUTO 19004KT 10SM CLR 26/22 A2993 RMK AO2

2010/08/09 15:55
KGGI 091555Z AUTO 13009KT 10SM CLR 27/22 A2992 RMK AO2

2010/08/09 15:55
KHNR 091555Z AUTO 16007KT 10SM CLR 28/23 A2990 RMK AO2

2010/08/09 15:55
KI75 091555Z AUTO 17009KT 10SM CLR 25/21 A2990 RMK AO2

2010/08/09 15:55
KICL 091555Z AUTO 17009KT 7SM CLR 30/23 A2987 RMK AO2

2010/08/09 15:56
KIIB 091556Z AUTO 18009KT 10SM BKN075 OVC095 23/22 A2993 RMK AO1

2010/08/09 15:55
KIKV 091555Z AUTO 17009KT 10SM CLR 28/23 A2989 RMK AO2

2010/08/09 15:53
KLND 091553Z AUTO VRB05KT 10SM CLR 23/06 A3006 RMK AO2 SLP108 T02280061

2010/08/09 15:55
KLRJ 091555Z AUTO 13003KT 10SM OVC008 25/22 A2990 RMK AO2

2010/08/09 15:55
KMCJ 091555Z AUTO 00000KT 10SM SCT031 SCT039 33/23 A2996 RMK AO1

2010/08/09 15:55
KMPZ 091555Z AUTO 12004KT 10SM CLR 25/21 A2992 RMK AO2

2010/08/09 15:55
KMUT 091555Z AUTO 00000KT 10SM SCT110 27/23 A2990 RMK AO2

2010/08/09 15:55
KMXO 091555Z AUTO 24008KT 10SM CLR 26/23 A2993 RMK AO2

2010/08/09 15:55
KOOA 091555Z AUTO 13008KT 10SM SCT120 27/23 A2991 RMK AO2

2010/08/09 15:55
KORC 091555Z AUTO 09004KT 10SM OVC006 25/24 A2991 RMK AO2

2010/08/09 15:55
KPEA 091555Z AUTO 10SM CLR A2991 RMK AO2

2010/08/09 15:55
KRDK 091555Z AUTO 21010KT 10SM CLR 32/25 A2985 RMK AO2

2010/08/09 15:58
KRPD 091558Z AUTO RMK AO2 PWINO

2010/08/09 15:55
KSDA 091555Z AUTO 17010KT 10SM CLR 32/26 A2986 RMK AO2

2010/08/09 15:55
KTNU 091555Z AUTO 17009KT 10SM CLR 28/22 A2991 RMK AO2

2010/08/09 15:50
KTRK 091550Z 00000KT 3/4SM FG OVC001 07/07 A3012 NO SPECI

2010/08/09 15:55
KTVK 091555Z AUTO 5SM -RA FEW004 FEW047 23/21 A2992 RMK AO2

2010/08/09 15:59
KHRL 091559Z 16009KT 10SM SCT028 33/24 A2991 RMK AO2

2010/08/09 15:59
KHIB 091559Z AUTO 00000KT 10SM SCT005 23/22 A2992 RMK AO2

2010/08/09 15:59
KUGN 091559Z 16007KT 10SM BR OVC007 26/23 A2994 RMK AO2 CIG 006V010

2010/08/09 16:00
SBLO 091600Z 09002KT CAVOK 26/10 Q1020

2010/08/09 16:00
SBSP 091600Z 21006KT 9999 BKN010 15/12 Q1024

2010/08/09 16:00
SBGL 091600Z 24020KT 9999 SCT020 26/16 Q1020

2010/08/09 16:00
SBBR 091600Z 11007KT CAVOK 29/M03 Q1023 

2010/08/09 16:00
SBFI 091600Z 17004KT CAVOK 19/11 Q1020 

2010/08/09 16:00
SBCB 091600Z 26023KT 9999 SCT010 25/17 Q1018

2010/08/09 16:00
SBRJ 091600Z 19010KT 9999 FEW025 25/17 Q1019

2010/08/09 15:56
K79J 091556Z 11010KT 10SM FEW028 33/24 A2999 RMK AO2 SLP150 T03330239 PNO $

2010/08/09 15:56
K79J 091556Z 11010KT 10SM FEW028 33/24 A2999 RMK AO2 SLP150 T03330239 PNO $

2010/08/09 15:56
KHLR 091556Z AUTO 16009KT 10SM CLR 33/21 A2999 RMK AO2 SLP143 T03330211 $

2010/08/09 15:55
KHUA 091555Z VRB03KT 7SM SCT060 BKN080 33/24 A3004 RMK AO2A SLP160 T03290240 $

2010/08/09 15:56
KNBC 091556Z 04008KT 7SM FEW030 SCT200 32/22 A3001 RMK AO2 SLP163 T03170222

2010/08/09 15:56
KNFL 091556Z VRB06KT 10SM FEW220 24/06 A2998 RMK AO2 SLP125 T02390056

2010/08/09 15:56
KNID 091556Z 00000KT 10SM CLR 24/03 A2993 RMK AO2 SLP115 T02440028 $

2010/08/09 15:56
KNLC 091556Z 34007KT 10SM CLR 21/12 A2989 RMK AO2 SLP119 RH/58 T02110122

2010/08/09 15:56
KNMM 091556Z 10005KT 10SM FEW030 31/23 A3000 RMK AO2 SLP166 T03110228 $

2010/08/09 15:56
KNPA 091556Z 07007KT 10SM FEW035 SCT280 32/25 A2997 RMK AO2 SLP150 T03170250

2010/08/09 15:56
KNRS 091556Z 00000KT 10SM OVC017 17/13 A2994 RMK AO2 SLP137 T01720133

2010/08/09 15:56
KNSE 091556Z VRB03KT 8SM SCT025 32/24 A2999 RMK AO2 SLP138 T03170239 $

2010/08/09 15:56
KNUQ 091556Z AUTO 10006KT 10SM OVC016 16/11 A2993 RMK AO2 SLP137 T01610111 TSNO

2010/08/09 15:56
KNXP 091556Z 34004KT 7SM CLR 26/M02 A2999 RMK AO2 SLP118 T02561022 $

2010/08/09 15:52
KNZY 091552Z 00000KT 10SM BKN017 20/13 A2992 RMK AO2 SLP132 T02000128 $

2010/08/09 15:55
KRCA 091555Z 18013KT 10SM SCT150 28/17 A2996 RMK AO2A SLP115 T02800172

2010/08/09 16:00
SBCG 091600Z 08006KT CAVOK 30/06 Q1019 

2010/08/09 16:00
SBPL 091600Z 14008KT 9999 SCT025 29/16 Q1018

2010/08/09 16:00
SBRF 091600Z 18014KT 8000 -RA SCT007 BKN010 BKN070 24/22 Q1016

2010/08/09 16:00
SBMN 091600Z 17003KT 9999 FEW017 30/24 Q1014

2010/08/09 16:00
SBCJ 091600Z 13007KT 9999 FEW030 31/11 Q1017

2010/08/09 16:00
SBGO 091600Z 17004KT 9999 FEW022 32/07 Q1019 

2010/08/09 15:56
KBIH 091556Z AUTO 00000KT 10SM CLR 21/02 A3002 RMK AO2 SLP118 T02110017 TSNO 

2010/08/09 16:00
SBPP 091600Z 35005KT CAVOK 27/16 Q1020

2010/08/09 15:59
KAPN 091559Z 14004KT 5SM -RA BR FEW007 BKN034 OVC060 21/19 A2994

2010/08/09 15:50
LGZA 091550Z 14006KT CAVOK 30/21 Q1009

2010/08/09 15:50
HLLT 091550Z HLLT 36009KT 320V020 CAVOK 29/15 Q1015

2010/08/09 15:50
LGLM 091550Z 34006KT CAVOK 31/18 Q1008

2010/08/09 16:00
UTTT 091600Z 03002MPS CAVOK 31/04 Q1005 R08R/CLRD70 TEMPO 03005G10MPS

2010/08/09 15:50
LGAL 091550Z 24008KT 9999 FEW025 33/20 Q1008

2010/08/09 15:50
LGKF 091550Z 32016KT 9999 FEW020 29/18 Q1009

2010/08/09 15:50
LGKP 091550Z 32025KT 9999 FEW012 29/25 Q1004

2010/08/09 15:50
LGKZ 091550Z 00000KT 9999 SCT070 30/13 Q1013

2010/08/09 15:50
LGMK 091550Z 36019KT CAVOK 28/19 Q1007

2010/08/09 15:50
LGPA 091550Z 01020KT CAVOK 30/21 Q1007

2010/08/09 15:50
LGSO 091550Z 01015KT CAVOK 29/21 Q1008

2010/08/09 15:50
HLLT 091550Z HLLT 36009KT 320V020 CAVOK 29/15 Q1015

2010/08/09 16:00
DIAP 091600Z 24010KT 8000 SCT011 BKN080 28/22 Q1013 NOSIG

2010/08/09 16:00
UBBL 091600Z 16005KT 9999 BKN100 28/22 Q1009 NOSIG RMK G/O SC07

2010/08/09 15:50
LGAD 091550Z 32006KT CAVOK 30/20 Q1010

2010/08/09 15:50
LGAV 091550Z 04014KT 9999 FEW030 31/19 Q1008 RMK FEW070

2010/08/09 15:50
LGIR 091550Z 31013KT 9999 FEW020 29/24 Q1007

2010/08/09 15:50
LGKL 091550Z 13006KT 9999 FEW030 31/18 Q1008

2010/08/09 15:50
LGKO 091550Z 31013KT CAVOK 30/21 Q1005

2010/08/09 15:50
LGKR 091550Z 30012KT 9999 FEW025 33/17 Q1009

2010/08/09 15:50
LGRP 091550Z 24014KT CAVOK 30/24 Q1004

2010/08/09 15:50
LGSA 091550Z 29006KT 9999 FEW025 SCT070 30/21 Q1009

2010/08/09 15:50
LGSM 091550Z 35009KT 300V060 CAVOK 35/20 Q1004

2010/08/09 15:50
LGTS 091550Z 27008KT 9999 FEW030 32/20 Q1009 NOSIG

2010/08/09 16:00
LDSP 091600Z 29012KT 250V330 CAVOK 32/11 Q1013 NOSIG 

2010/08/09 16:00
LDPL 091600Z 27008KT CAVOK 28/17 Q1014 NOSIG 

2010/08/09 16:00
LDDU 091600Z 28009KT 250V320 CAVOK 26/16 Q1013 NOSIG 

2010/08/09 16:00
LDZA 091600Z 08005KT 020V140 9999 FEW040 26/16 Q1016 NOSIG 

2010/08/09 16:00
LDZD 091600Z 29009KT 270V330 9999 FEW050 28/12 Q1014 

2010/08/09 16:00
LDRI 091600Z 34005KT 300V010 9999 FEW050 29/14 Q1014

2010/08/09 16:00
LDOS 091600Z VRB08KT 9999 FEW040 27/16 Q1016

2010/08/09 16:00
LUKK 091600Z 31009KT 9999 SCT050 27/19 Q1012 08CLRD65 NOSIG

2010/08/09 15:50
LGHI 091550Z 02011KT 330V070 CAVOK 31/21 Q1006

2010/08/09 16:00
LUBL 091600Z 33005KT 9999 SCT050 25/18 Q1013 RWY33

2010/08/09 16:00
LBSF 091600Z 01003MPS 340V040 9999 FEW060 28/17 Q1015 NOSIG

2010/08/09 16:00
LBWN 091600Z 34005MPS 310V010 CAVOK 29/22 Q1010 NOSIG

2010/08/09 16:00
LBBG 091600Z 35006MPS CAVOK 30/21 Q1010 NOSIG

2010/08/09 16:00
LBPD 091600Z VRB01MPS 9999 FEW050 SCT090 31/18 Q1011 NOSIG

2010/08/09 16:00
LBGO 091600Z VRB01MPS CAVOK 29/19 Q1012 NOSIG

2010/08/09 15:50
LGEL 091550Z 36008KT 9999 FEW030 35/17 Q1007

2010/08/09 15:50
LGKV 091550Z 26006KT 9999 FEW030TCU SCT100 32/20 Q1009

2010/08/09 15:50
LGMT 091550Z /////KT CAVOK 35/21 Q1006

2010/08/09 15:50
LGPZ 091550Z 24014KT 9999 FEW020TCU 28/21 Q1010 NOSIG

2010/08/09 15:50
LGRX 091550Z 24005KT CAVOK 30/21 Q1008 NOSIG

2010/08/09 15:50
LGSR 091550Z 33015KT CAVOK 30/21 Q1006 NOSIG

2010/08/09 15:59
KNGU 091559Z 05005KT 7SM FEW030 BKN250 30/23 A3006 RMK AO2 SLP180 T03000228 

2010/08/09 15:59
KAPN 091559Z 14004KT 5SM -RA BR FEW007 BKN034 OVC060 21/19 A2994

2010/08/09 16:00
LZNI 091600Z 25005KT 120V290 9999 FEW045CB FEW045 24/15 Q1016

2010/08/09 16:00
TBPB 091600Z 16010KT 9999 FEW014CB SCT016 BKN260 30/25 Q1015 NOSIG

2010/08/09 15:59
KAPN 091559Z 14004KT 5SM -RA BR FEW007 BKN034 OVC060 21/19 A2994

2010/08/09 15:55
EBBL 091555Z 27005KT 9999 FEW038 SCT060 24/11 Q1016 BLU

2010/08/09 15:55
EBFN 091555Z 30004KT 9999 FEW050 BKN220 20/15 Q1015 BLU

2010/08/09 15:55
EBFS 091555Z 29006KT 9999 FEW070 BKN250 22/09 Q1017 BLU

2010/08/09 15:50
EGAE 091550Z 26009KT 9999 VCSH FEW013 SCT024CB 15/12 Q1007

2010/08/09 15:50
EGDL 091550Z 21011KT 9999 -DZ SCT016 BKN100 18/15 Q1014 NOSIG

2010/08/09 15:50
EGNC 091550Z 25015KT 9999 SCT030 18/14 Q1008

2010/08/09 15:50
EGNH 091550Z 25007KT 220V290 9999 FEW010 SCT022 18/15 Q1010

2010/08/09 15:50
EGNJ 091550Z 25009KT 9999 BKN045 23/14 Q1010

2010/08/09 15:50
EGPA 091550Z 14009KT 9999 -RADZ SCT006 SCT010 BKN030 15/14 Q1006

2010/08/09 15:50
EGPC 091550Z 14010KT 9999 FEW008 SCT048 15/15 Q1005

2010/08/09 15:50
EGPE 091550Z 26006KT 9999 FEW015 FEW020CB SCT038 18/12 Q1005

2010/08/09 15:50
EGPL 091550Z AUTO 21010KT 9999NDV FEW017/// 16/11 Q1005

2010/08/09 15:50
EGPM 091550Z 13013KT 9999 FEW020 BKN028 14/11 Q1009

2010/08/09 15:50
EGPO 091550Z 21013KT 9999 FEW026 SCT030 17/11 Q1005

2010/08/09 15:55
EGVA 091555Z AUTO 22016G21KT 9999 OVC021 20/15 A2991 RMK AO2 SLP131 T01950152 $

2010/08/09 15:50
ENEK 091550Z 20018KT 9999 SCT010 17/14 Q1010 W16/S3

2010/08/09 15:50
ENSG 091550Z VRB04KT 9999 SCT045 19/13 Q1009

2010/08/09 15:50
LGAD 091550Z 32006KT CAVOK 30/20 Q1010

2010/08/09 15:50
LGEL 091550Z 36008KT 9999 FEW030 35/17 Q1007

2010/08/09 15:50
LGIR 091550Z 31013KT 9999 FEW020 29/24 Q1007

2010/08/09 15:50
LGKL 091550Z 13006KT 9999 FEW030 31/18 Q1008

2010/08/09 15:50
LGKO 091550Z 31013KT CAVOK 30/21 Q1005

2010/08/09 15:50
LGKR 091550Z 30012KT 9999 FEW025 33/17 Q1009

2010/08/09 15:50
LGKV 091550Z 26006KT 9999 FEW030TCU SCT100 32/20 Q1009

2010/08/09 15:50
LGRP 091550Z 24014KT CAVOK 30/24 Q1004

2010/08/09 15:50
LGSA 091550Z 29006KT 9999 FEW025 SCT070 30/21 Q1009

2010/08/09 15:50
LGSM 091550Z 35009KT 300V060 CAVOK 35/20 Q1004

2010/08/09 15:50
LGTS 091550Z 27008KT 9999 FEW030 32/20 Q1009 NOSIG

2010/08/09 16:00
LWSK 091600Z 01013KT 9999 FEW050 30/14 Q1013 NOSIG

2010/08/09 15:59
CBBC 091559Z AUTO 00000KT 9SM SCT010 BKN017 OVC050 OVC065 A3001

2010/08/09 15:59
CZCP 091559Z AUTO 07015KT 1 1/8SM CLR 06/ A2983

2010/08/09 15:56
KMEH 091556Z AUTO 00000KT 10SM FEW090 17/06 A2995 RMK AO2 SLP125 T01670061 TSNO 

2010/08/09 16:00
NWWW 091600Z AUTO VRB03KT 9999NDV NCD 17/12 Q1023

2010/08/09 15:55
TXKF 091555Z 18010KT 9999 FEW020 BKN300 29/24 Q1022 

2010/08/09 15:54
KACY 091554Z 23004KT 10SM CLR 31/19 A3004 RMK AO2 SLP171 P0001 T03110189

2010/08/09 15:55
KBIX 091555Z 03009KT 10SM SCT028 33/25 A2997 RMK AO2A SLP149 WND DATA ESTMD ALSTG/SLP ESTMD

2010/08/09 15:56
KCHS 091556Z 05011KT 10SM FEW100 32/23 A3001 RMK AO2 SLP163 T03170228

2010/08/09 15:55
KCOF 091555Z 12007KT 10SM CLR 29/25 A2995 RMK AO2A SLP144 T02900245

2010/08/09 15:55
KLFI 091555Z 07007KT 10SM FEW015 SCT180 29/23 A3005 RMK AO2A SLP177 T02910234

2010/08/09 15:56
KNBC 091556Z 04008KT 7SM FEW030 SCT200 32/22 A3001 RMK AO2 SLP163 T03170222

2010/08/09 15:55
KNBG 091555Z VRB06KT 10SM SCT025 BKN250 33/24 A2998 RMK AO2 SLP150 T2 SET T03280239 $

2010/08/09 15:56
KNCA 091556Z 08004KT 10SM SCT030 BKN080 32/24 A3004 RMK AO2 SLP173 T03170239 $

2010/08/09 15:56
KNGP 091556Z 13007KT 10SM SCT023 BKN028 BKN039 31/24 A2995 RMK AO2 SLP140 T03100242 VISNO $

2010/08/09 15:57
KNJM 091557Z AUTO 12006KT 10SM CLR 28/25 A3005 RMK AO2 SLP179 T02830250

2010/08/09 15:54
KNKT 091554Z 14008KT 10SM SCT014 SCT032 BKN043 27/24 A3006 RMK AO2 RAB23E33 SLP174 P0000 T02670239

2010/08/09 15:56
KNPA 091556Z 07007KT 10SM FEW035 SCT280 32/25 A2997 RMK AO2 SLP150 T03170250

2010/08/09 15:56
KNTU 091556Z 10006KT 10SM FEW030 BKN200 29/22 A3004 RMK AO2 SLP176 T02890217 $

2010/08/09 15:53
KPBI 091553Z COR 14011KT 10SM SCT022 SCT055 BKN080 30/24 A2995 RMK AO2 SLP140 CB DSNT ALQDS T02970238

2010/08/09 15:56
MUGM 091556Z 12015KT 9999 SCT025 OVC250 31/24 A2996 RMK SLP146 T03110244

2010/08/09 16:00
MYGF 091600Z 19007KT 9999 VCSH FEW015CB BKN100 26/25 A3000 RMK CB/VCSH W/N RE55

2010/08/09 16:00
OEDF 091600Z 07009KT 6000 SKC 37/19 Q0996 NOSIG

2010/08/09 16:00
OEDR 091600Z 09006KT 4000 HZ NSC 37/26 Q0995 NOSIG

2010/08/09 16:00
OEMA 091600Z 02006KT 9000 SCT045 SCT100 43/M03 Q1003 NOSIG

2010/08/09 16:00
OERK 091600Z 04010KT 8000 SKC 40/02 Q1003 NOSIG

2010/08/09 16:00
OERY 091600Z 06011KT CAVOK 41/03 Q1003 NOSIG

2010/08/09 16:00
NWWM 091600Z AUTO 10007KT 060V130 9999NDV BKN047/// 20/15 Q1023

2010/08/09 16:00
NWWL 091600Z AUTO 12013KT 090V150 9999NDV SCT026/// OVC036/// 22/17 Q1021

2010/08/09 16:00
NWWU 091600Z AUTO 10018KT 9999NDV BKN029/// OVC043/// 23/18 Q1021

2010/08/09 16:00
SBKP 091600Z 17004KT 7000 NSC 26/10 Q1021

2010/08/09 16:00
SBPK 091600Z 21012KT CAVOK 16/06 Q1025

2010/08/09 15:55
OAHR 091555Z AUTO /////KT //// // ////// 32/M03 Q1008

2010/08/09 16:00
KLEE 091600Z 08005KT 10SM -RA FEW007 BKN080 28/26 A2995 RMK AO2 P0000

2010/08/09 15:58
KMCF 091558Z AUTO 07009KT 10SM SCT018 30/26 A2994 RMK AO2 SCT V BKN SLP139

2010/08/09 16:00
KFPR 091600Z 11010KT 090V150 10SM BKN020 BKN028 30/25 A2995 RMK AO2

2010/08/09 15:50
KCWA 091550Z 30007KT 7SM BKN010 BKN016 26/24 A2992

2010/08/09 15:55
KDMA 091555Z AUTO 16005KT 10SM CLR 30/17 A2999 RMK AO2 SLP088 T02950168 VISNO RWY12 CHINO RWY12 $

2010/08/09 15:55
KHUA 091555Z VRB03KT 7SM SCT060 BKN080 33/24 A3004

2010/08/09 15:55
KLFI 091555Z 07007KT 10SM FEW015 SCT180 29/23 A3005 RMK AO2A SLP177 T02910234

2010/08/09 15:55
KNBG 091555Z VRB06KT 10SM SCT025 BKN250 33/24 A2998 RMK AO2 SLP150 T2 SET T03280239 $

2010/08/09 15:56
KNCA 091556Z 08004KT 10SM SCT030 BKN080 32/24 A3004 RMK AO2 SLP173 T03170239 $

2010/08/09 15:54
KNFG 091554Z 08003KT 7SM SCT017 17/13 A2993 RMK AO2 SLP133 T01720128 $

2010/08/09 15:56
KNMM 091556Z 10005KT 10SM FEW030 31/23 A3000 RMK AO2 SLP166 T03110228 $

2010/08/09 15:56
KNXX 091556Z 25004KT 10SM FEW045 31/18 A3004 RMK AO2 SLP175 T03060178 $

2010/08/09 15:55
KTTS 091555Z 10007KT 060V140 10SM SCT018 SCT090 BKN210 30/26 A2995 RMK MDT CU W SLP142 3CU /3/ 2AC 1CI /4/

2010/08/09 15:55
KADM 091555Z 20009KT 10SM SKC 34/24 A2993

2010/08/09 16:00
KRHP 091600Z AUTO 00000KT CLR 30/22 A3012 RMK AO2 PWINO

2010/08/09 16:00
TUPJ 091600Z 13013KT 9999 VCSH SCT018TCU BKN220 31/24 A3001

2010/08/09 15:51
KP58 091551Z AUTO 22006KT 26/22 A2989 RMK AO2 SLP111 T02560217 PWINO TSNO

2010/08/09 15:53
KLOR 091553Z AUTO 07006KT 10SM FEW032 33/23 A2999 RMK AO2 SLP152 T03280233 TSNO PNO $

2010/08/09 15:56
KBIH 091556Z AUTO 00000KT 10SM CLR 21/02 A3002 RMK AO2 SLP118 T02110017 TSNO

2010/08/09 15:56
KMEH 091556Z AUTO 00000KT 10SM FEW090 17/06 A2995 RMK AO2 SLP125 T01670061 TSNO

2010/08/09 15:59
KAPN 091559Z 14004KT 5SM -RA BR FEW007 BKN034 OVC060 21/19 A2994 RMK AO2 P0007

2010/08/09 15:55
KLDM 091555Z AUTO 23010G15KT 10SM OVC075 25/22 A2991 RMK AO2

2010/08/09 15:55
KPHN 091555Z AUTO 21005KT 7SM SCT050 SCT070 27/20 A2994 RMK AO2

2010/08/09 15:55
KRMY 091555Z AUTO 00000KT 10SM SCT065 26/21 A2997 RMK AO2

2010/08/09 15:56
KOSC 091556Z AUTO 36010KT 7SM BKN014 BKN028 BKN043 24/22 A2991 RMK AO2

2010/08/09 15:54
KTTF 091554Z AUTO 27006KT 10SM CLR 29/21 A2996 RMK AO2

2010/08/09 15:55
KMCD 091555Z AUTO 14003KT 10SM SCT007 SCT043 BKN050 22/19 A2991 RMK AO2

2010/08/09 16:00
SBGR 091600Z 18007KT 7000 FEW013 BKN019 17/13 Q1024

2010/08/09 16:00
SBSN 091600Z 08008KT 9999 FEW023 31/24 Q1013

2010/08/09 16:00
SBTT 091600Z 20005KT 8000 NSC 30/23 Q1016

2010/08/09 16:00
SBNF 091600Z 09003KT 9999 BKN035 18/12 Q1022

2010/08/09 16:00
SBKP 091600Z 17004KT 7000 NSC 26/10 Q1021

2010/08/09 16:00
SBEG 091600Z 35004KT 9999 SCT020 32/22 Q1013

2010/08/09 16:00
SBCZ 091600Z 00000KT CAVOK 32/21 Q1017

2010/08/09 16:00
SBCT 091600Z 07008KT 9999 SCT007 OVC009 13/10 Q1023

2010/08/09 16:00
SBPK 091600Z 21012KT CAVOK 16/06 Q1025

2010/08/09 16:00
SBUG 091600Z 09010KT 9999 FEW030 16/06 Q1024 

2010/08/09 16:00
SBPB 091600Z 03012KT 9999 FEW020 32/21 Q1012

2010/08/09 15:50
LTAC 091550Z 02016KT 9999 FEW040 33/06 Q1010 NOSIG

2010/08/09 15:50
LTAF 091550Z /////KT 9999 FEW035 30/21 Q1005 NOSIG

2010/08/09 15:50
LTAI 091550Z 13003KT 080V170 9999 SCT030 30/23 Q1004 NOSIG

2010/08/09 15:50
LTBA 091550Z 35016KT 9999 SCT035 29/22 Q1008 NOSIG

2010/08/09 15:50
LTBJ 091550Z 35019KT CAVOK 33/20 Q1005 NOSIG

2010/08/09 15:50
LTBS 091550Z 20007KT 9999 FEW030 29/24 Q1004 NOSIG

2010/08/09 16:00
SBPV 091600Z 19006KT 4000 FU NSC 34/17 Q1014

2010/08/09 16:00
SBMQ 091600Z 00000KT 9999 SCT025 35/25 Q1013

2010/08/09 15:50
EGWU 091550Z 24012KT CAVOK 24/09 Q1013 NOSIG

2010/08/09 15:57
KNJM 091557Z AUTO 12006KT 10SM CLR 28/25 A3005 RMK AO2 SLP179 T02830250

2010/08/09 15:56
KABH 091556Z AUTO 14005KT 10SM CLR 22/12 A3018 RMK AO2 SLP137 T02220122 $

2010/08/09 15:53
KLOR 091553Z AUTO 07006KT 10SM FEW032 33/23 A2999 RMK AO2 SLP152 T03280233 TSNO PNO $

2010/08/09 15:56
K79J 091556Z 11010KT 10SM FEW028 33/24 A2999 RMK AO2 SLP150 T03330239 PNO $

2010/08/09 16:00
UTTT 091600Z 03002MPS CAVOK 31/04 Q1005 R08R/CLRD70 TEMPO 03005G10MPS

2010/08/09 15:58
K0J4 091558Z AUTO 09006KT 10SM CLR 33/24 RMK AO2 SLPNO T03280244 $

2010/08/09 15:53
KRYT 091553Z AUTO VRB04KT 10SM CLR 32/16 A3002 RMK AO2 SLP150 T03170161 $

2010/08/09 15:55
KCVS 091555Z 24012KT 10SM CLR 26/20 A3008 RMK AO2A SLP136 T02640195 $

2010/08/09 15:55
KDMA 091555Z AUTO 16005KT 10SM CLR 30/17 A2999 RMK AO2 SLP088 T02950168 VISNO RWY12 CHINO RWY12 $

2010/08/09 15:55
KEDW 091555Z 01004KT 85SM CLR 21/M00 A2994 RMK AO2A SLP100 T02061002

2010/08/09 15:55
KFTK 091555Z 13003KT 10SM FEW040 SCT100 BKN250 32/23 A3001 RMK SLP148 T02970229 52014 $

2010/08/09 15:55
KHOP 091555Z AUTO 25007KT 10SM CLR 33/24 A3001 RMK AO2 SLP155 T03290236

2010/08/09 15:55
KLFI 091555Z 07007KT 10SM FEW015 SCT180 29/23 A3005 RMK AO2A SLP177 T02910234

2010/08/09 15:56
KNYG 091556Z 17009KT 8SM FEW200 SCT250 30/22 A3003 RMK AO2 SLP170 T03000222 $

2010/08/09 15:55
KTBN 091555Z 26004KT 10SM CLR 32/22 A2999 RMK AO2A SLP130 T03180222 $

2010/08/09 15:54
KNFG 091554Z 08003KT 7SM SCT017 17/13 A2993 RMK AO2 SLP133 T01720128 $

2010/08/09 15:56
KNGP 091556Z 13007KT 10SM SCT023 BKN028 BKN039 31/24 A2995 RMK AO2 SLP140 T03100242 VISNO $

2010/08/09 15:56
KNID 091556Z 00000KT 10SM CLR 24/03 A2993 RMK AO2 SLP115 T02440028 $

2010/08/09 15:55
KNKX 091555Z VRB03KT 10SM OVC010 17/13 A2993 RMK AO2 SLP130 T01720128

2010/08/09 15:56
KNLC 091556Z 34007KT 10SM CLR 21/12 A2989 RMK AO2 SLP119 RH/58 T02110122

2010/08/09 15:56
KNMM 091556Z 10005KT 10SM FEW030 31/23 A3000 RMK AO2 SLP166 T03110228 $

2010/08/09 15:56
KNPA 091556Z 07007KT 10SM FEW035 SCT280 32/25 A2997 RMK AO2 SLP150 T03170250

2010/08/09 15:56
KNQI 091556Z 14008KT 10SM BKN041 35/24 A2994 RMK AO2 SLP135 T03500244

2010/08/09 15:56
KNXX 091556Z 25004KT 10SM FEW045 31/18 A3004 RMK AO2 SLP175 T03060178 $

2010/08/09 15:56
KNYG 091556Z 17009KT 8SM FEW200 SCT250 30/22 A3003 RMK AO2 SLP170 T03000222 $

2010/08/09 15:52
KNZY 091552Z 00000KT 10SM BKN017 20/13 A2992 RMK AO2 SLP132 T02000128 $

2010/08/09 15:55
KPOE 091555Z AUTO 31005KT 10SM CLR 31/22 A2999 RMK AO2 SLP156 T03110222

2010/08/09 15:55
KTBN 091555Z 26004KT 10SM CLR 32/22 A2999 RMK AO2A SLP130 T03180222 $

2010/08/09 15:55
KVBG 091555Z 04004KT 6SM -DZ BR SCT004 BKN006 OVC010 14/12 A2996 RMK AO2 DZB25 SLP136 P0000 T01390122 $

2010/08/09 15:56
K79J 091556Z 11010KT 10SM FEW028 33/24 A2999 RMK AO2 SLP150 T03330239 PNO $

2010/08/09 15:56
K79J 091556Z 11010KT 10SM FEW028 33/24 A2999 RMK AO2 SLP150 T03330239 PNO $

2010/08/09 15:55
KCVS 091555Z 24012KT 10SM CLR 26/20 A3008 RMK AO2A SLP136 T02640195 $

2010/08/09 15:55
KDMA 091555Z AUTO 16005KT 10SM CLR 30/17 A2999 RMK AO2 SLP088 T02950168 VISNO RWY12 CHINO RWY12 $

2010/08/09 15:55
KEDW 091555Z 01004KT 85SM CLR 21/M00 A2994 RMK AO2A SLP100 T02061002

2010/08/09 15:55
KFTK 091555Z 13003KT 10SM FEW040 SCT100 BKN250 32/23 A3001 RMK SLP148 T02970229 52014 $

2010/08/09 15:56
KHLR 091556Z AUTO 16009KT 10SM CLR 33/21 A2999 RMK AO2 SLP143 T03330211 $

2010/08/09 15:55
KHOP 091555Z AUTO 25007KT 10SM CLR 33/24 A3001 RMK AO2 SLP155 T03290236

2010/08/09 15:55
KLFI 091555Z 07007KT 10SM FEW015 SCT180 29/23 A3005 RMK AO2A SLP177 T02910234

2010/08/09 15:56
KNBC 091556Z 04008KT 7SM FEW030 SCT200 32/22 A3001 RMK AO2 SLP163 T03170222

2010/08/09 15:55
KNBG 091555Z VRB06KT 10SM SCT025 BKN250 33/24 A2998 RMK AO2 SLP150 T2 SET T03280239 $

2010/08/09 15:56
KNCA 091556Z 08004KT 10SM SCT030 BKN080 32/24 A3004 RMK AO2 SLP173 T03170239 $

2010/08/09 15:56
KNJK 091556Z 00000KT 10SM CLR 30/09 A2979 RMK AO2 SLP104 T03000089

2010/08/09 15:56
KNRS 091556Z 00000KT 10SM OVC017 17/13 A2994 RMK AO2 SLP137 T01720133

2010/08/09 15:56
KNUQ 091556Z AUTO 10006KT 10SM OVC016 16/11 A2993 RMK AO2 SLP137 T01610111 TSNO

2010/08/09 15:56
K79J 091556Z 11010KT 10SM FEW028 33/24 A2999 RMK AO2 SLP150 T03330239 PNO $

2010/08/09 15:56
K79J 091556Z 11010KT 10SM FEW028 33/24 A2999 RMK AO2 SLP150 T03330239 PNO $

2010/08/09 15:56
KHLR 091556Z AUTO 16009KT 10SM CLR 33/21 A2999 RMK AO2 SLP143 T03330211 $

2010/08/09 16:01
PADM 091601Z AUTO 15015G18KT 10SM -RA OVC017 10/08 A2937 RMK AO2 TSNO T01000083 P0001 SLP935 $

2010/08/09 15:50
LSMA 091550Z AUTO 04007KT 010V070 9999NDV FEW061 25/14 Q1016 RMK BLU

2010/08/09 15:50
LSMM 091550Z AUTO 26007KT 9999NDV NCD 25/14 Q1016 RMK BLU

2010/08/09 15:57
KHIF 091557Z AUTO 16008KT 10SM -DZ CLR 23/09 A3006 RMK AO2 DZB1557 SLP072

2010/08/09 15:58
KHIF 091558Z AUTO 17009KT 10SM CLR 23/09 A3006 RMK AO2 DZB1557E1558 SLP072

2010/08/09 15:58
KMCF 091558Z AUTO 07009KT 10SM SCT018 30/26 A2994 RMK AO2 SCT V BKN SLP139

2010/08/09 15:58
KSUU 091558Z AUTO 25018KT 10SM SCT008 16/12 A2988 RMK AO2 SLP120 RVRNO $

2010/08/09 15:58
KMCF 091558Z AUTO 07009KT 10SM SCT018 30/26 A2994 RMK AO2 SCT V BKN SLP139

2010/08/09 15:50
LTAD 091550Z 33013KT CAVOK 34/08 Q1009 NOSIG RMK RWY29 31014KT

2010/08/09 15:50
LTAG 091550Z 20009KT CAVOK 31/20 Q1005 NOSIG

2010/08/09 15:50
LTAH 091550Z 17004KT 100V220 9999 TS FEW025CB BKN035 28/10 Q1012 RMK RWY13 VRB03KT

2010/08/09 15:50
LTAJ 091550Z 27012KT CAVOK 34/13 Q1005 NOSIG

2010/08/09 15:50
LTAN 091550Z 36008KT CAVOK 35/01 Q1010 NOSIG RMK RWY19 04006KT

2010/08/09 15:50
LTAN 091550Z 36008KT CAVOK 35/01 Q1010 NOSIG

2010/08/09 15:50
LTAP 091550Z 03018KT CAVOK 30/14 Q1007 NOSIG RMK RWY23 03019KT

2010/08/09 15:50
LTAT 091550Z 06003KT CAVOK 35/M04 Q1006 TEMPO FM1700 26012KT RMK RWY03 04003KT

2010/08/09 15:50
LTAU 091550Z 36007KT CAVOK 32/02 Q1010 NOSIG RMK RWY07 31010KT

2010/08/09 15:50
LTAU 091550Z 36007KT CAVOK 32/02 Q1010 NOSIG

2010/08/09 15:50
LTBF 091550Z 35010KT 9999 FEW035 31/21 Q1007 NOSIG RMK RWY18 36011KT

2010/08/09 15:50
LTBG 091550Z 02013KT CAVOK 29/23 Q1008 NOSIG RMK RWY18 03013KT

2010/08/09 15:50
LTBI 091550Z 30010KT 9999 BKN035 29/19 Q1011 TEMPO -TSRA RMK RWY09 31011KT

2010/08/09 15:50
LTBL 091550Z 29009KT CAVOK 33/22 Q1005 NOSIG RMK RWY17 31008KT

2010/08/09 15:50
LTBQ 091550Z 01007KT 9999 SCT030 SCT100 31/23 Q1007 NOSIG RMK RWY09 01008KT 340V050

2010/08/09 15:50
LTCC 091550Z 18008KT CAVOK 35/00 Q1005 NOSIG RMK RWY16 18009KT

2010/08/09 15:50
LTCC 091550Z 18008KT CAVOK 35/00 Q1005 NOSIG

2010/08/09 15:50
LTCE 091550Z 20004KT 160V230 9999 SCT030 27/M01 Q1015 NOSIG RMK RWY08R 20006KT RWY26R /////KT RWY08L 20007KT

2010/08/09 15:50
LTCE 091550Z 20004KT 160V230 9999 SCT030 27/M01 Q1015 NOSIG

2010/08/09 15:50
LTCG 091550Z 32004KT 280V350 9999 SCT035 29/23 Q1006 NOSIG

2010/08/09 15:50
LTCI 091550Z VRB02KT 9999 FEW040 25/07 Q1015 NOSIG

2010/08/09 15:50
LTFE 091550Z 23005KT 180V310 CAVOK 32/22 Q1004 NOSIG

2010/08/09 15:59
KAPN 091559Z 14004KT 5SM -RA BR FEW007 BKN034 OVC060 21/19 A2994 RMK AO2 P0007

2010/08/09 16:00
PHTO 091600Z VRB03KT 10SM -RA SCT027 BKN043 BKN055 BKN140 20/19 A3009 RMK AO2 P0001 $

2010/08/09 15:51
KP58 091551Z AUTO 22006KT 26/22 A2989 RMK AO2 SLP111 T02560217 PWINO TSNO

2010/08/09 15:56
KBIH 091556Z AUTO 00000KT 10SM CLR 21/02 A3002 RMK AO2 SLP118 T02110017 TSNO

2010/08/09 15:56
KMEH 091556Z AUTO 00000KT 10SM FEW090 17/06 A2995 RMK AO2 SLP125 T01670061 TSNO

2010/08/09 15:55
KHUA 091555Z VRB03KT 7SM SCT060 BKN080 33/24 A3004 RMK AO2A SLP160 T03290240 $

2010/08/09 15:56
KNBC 091556Z 04008KT 7SM FEW030 SCT200 32/22 A3001 RMK AO2 SLP163 T03170222

2010/08/09 15:56
KNFL 091556Z VRB06KT 10SM FEW220 24/06 A2998 RMK AO2 SLP125 T02390056

2010/08/09 15:56
KNID 091556Z 00000KT 10SM CLR 24/03 A2993 RMK AO2 SLP115 T02440028 $

2010/08/09 15:56
KNLC 091556Z 34007KT 10SM CLR 21/12 A2989 RMK AO2 SLP119 RH/58 T02110122

2010/08/09 15:56
KNMM 091556Z 10005KT 10SM FEW030 31/23 A3000 RMK AO2 SLP166 T03110228 $

2010/08/09 15:56
KNPA 091556Z 07007KT 10SM FEW035 SCT280 32/25 A2997 RMK AO2 SLP150 T03170250

2010/08/09 15:56
KNRS 091556Z 00000KT 10SM OVC017 17/13 A2994 RMK AO2 SLP137 T01720133

2010/08/09 15:56
KNUQ 091556Z AUTO 10006KT 10SM OVC016 16/11 A2993 RMK AO2 SLP137 T01610111 TSNO

2010/08/09 15:56
KNXP 091556Z 34004KT 7SM CLR 26/M02 A2999 RMK AO2 SLP118 T02561022 $

2010/08/09 15:52
KNZY 091552Z 00000KT 10SM BKN017 20/13 A2992 RMK AO2 SLP132 T02000128 $

2010/08/09 15:55
KRCA 091555Z 18013KT 10SM SCT150 28/17 A2996 RMK AO2A SLP115 T02800172

2010/08/09 15:59
KNGU 091559Z 05005KT 7SM FEW030 BKN250 30/23 A3006 RMK AO2 SLP180 T03000228

2010/08/09 15:55
KBIX 091555Z 03009KT 10SM SCT028 33/25 A2997 RMK AO2A SLP149 WND DATA ESTMD ALSTG/SLP ESTMD

2010/08/09 15:55
KCOF 091555Z 12007KT 10SM CLR 29/25 A2995 RMK AO2A SLP144 T02900245

2010/08/09 15:55
KLFI 091555Z 07007KT 10SM FEW015 SCT180 29/23 A3005 RMK AO2A SLP177 T02910234

2010/08/09 15:56
KNBC 091556Z 04008KT 7SM FEW030 SCT200 32/22 A3001 RMK AO2 SLP163 T03170222

2010/08/09 15:55
KNBG 091555Z VRB06KT 10SM SCT025 BKN250 33/24 A2998 RMK AO2 SLP150 T2 SET T03280239 $

2010/08/09 15:56
KNCA 091556Z 08004KT 10SM SCT030 BKN080 32/24 A3004 RMK AO2 SLP173 T03170239 $

2010/08/09 15:56
KNGP 091556Z 13007KT 10SM SCT023 BKN028 BKN039 31/24 A2995 RMK AO2 SLP140 T03100242 VISNO $

2010/08/09 15:57
KNJM 091557Z AUTO 12006KT 10SM CLR 28/25 A3005 RMK AO2 SLP179 T02830250

2010/08/09 15:54
KNKT 091554Z 14008KT 10SM SCT014 SCT032 BKN043 27/24 A3006 RMK AO2 RAB23E33 SLP174 P0000 T02670239

2010/08/09 15:56
KNPA 091556Z 07007KT 10SM FEW035 SCT280 32/25 A2997 RMK AO2 SLP150 T03170250

2010/08/09 15:56
KNTU 091556Z 10006KT 10SM FEW030 BKN200 29/22 A3004 RMK AO2 SLP176 T02890217 $

2010/08/09 15:55
KDMA 091555Z AUTO 16005KT 10SM CLR 30/17 A2999 RMK AO2 SLP088 T02950168 VISNO RWY12 CHINO RWY12 $

2010/08/09 15:55
KHUA 091555Z VRB03KT 7SM SCT060 BKN080 33/24 A3004

2010/08/09 15:55
KLFI 091555Z 07007KT 10SM FEW015 SCT180 29/23 A3005 RMK AO2A SLP177 T02910234

2010/08/09 15:55
KNBG 091555Z VRB06KT 10SM SCT025 BKN250 33/24 A2998 RMK AO2 SLP150 T2 SET T03280239 $

2010/08/09 15:56
KNCA 091556Z 08004KT 10SM SCT030 BKN080 32/24 A3004 RMK AO2 SLP173 T03170239 $

2010/08/09 15:54
KNFG 091554Z 08003KT 7SM SCT017 17/13 A2993 RMK AO2 SLP133 T01720128 $

2010/08/09 15:56
KNMM 091556Z 10005KT 10SM FEW030 31/23 A3000 RMK AO2 SLP166 T03110228 $

2010/08/09 15:56
KNXX 091556Z 25004KT 10SM FEW045 31/18 A3004 RMK AO2 SLP175 T03060178 $

2010/08/09 16:00
SBVT 091600Z 00000KT CAVOK 34/21 Q1016

2010/08/09 16:00
SBJP 091600Z 17014KT 9999 SCT012 BKN018 BKN070 24/23 Q1016 

2010/08/09 15:55
KLUM 091555Z AUTO 31004KT 5SM HZ OVC009 26/23 A2992 RMK AO2

2010/08/09 15:55
KMDZ 091555Z AUTO 27006KT 10SM SCT016 27/23 A2993 RMK AO2

2010/08/09 15:55
KMRJ 091555Z AUTO 24006KT 10SM OVC013 26/22 A2994 RMK AO2 T02600217

2010/08/09 15:55
KMWO 091555Z AUTO 25003KT 10SM CLR 32/20 A3003 RMK AO2

2010/08/09 15:55
KOEO 091555Z AUTO 35005KT 10SM CLR 27/23 A2994 RMK AO2

2010/08/09 15:53
KPAE 091553Z 00000KT 10SM OVC005 14/13 A2997

2010/08/09 15:55
KPBH 091555Z AUTO 00000KT 10SM SCT014 27/23 A2994 RMK AO2

2010/08/09 15:55
KPCZ 091555Z AUTO 25003KT 10SM SCT017 28/22 A2990 RMK AO2 T02790215

2010/08/09 15:52
KPDC 091552Z AUTO 22005KT 10SM CLR 28/23 A2991 RMK AO2 T02780227

2010/08/09 15:55
KRCX 091555Z AUTO 28004KT 10SM SCT007 26/23 A2995 RMK AO2 T02620230

2010/08/09 15:56
KRNH 091556Z AUTO 01003KT 7SM BKN007 26/23 A2994 RMK AO2 T02550227

2010/08/09 15:55
KRRL 091555Z AUTO 27003KT 10SM SCT017 SCT024 27/23 A2993 RMK AO2 T02680226

2010/08/09 15:55
KSTE 091555Z AUTO 00000KT 5SM HZ OVC008 25/22 A2992 RMK AO2

2010/08/09 15:55
KSUW 091555Z AUTO 22004KT 10SM BKN009 24/22 A2989 RMK AO2

2010/08/09 15:55
KTTS 091555Z 10007KT 060V140 10SM SCT018 SCT090 BKN210 30/26 A2995 RMK MDT CU W SLP142 3CU /3/ 2AC 1CI /4/

2010/08/09 15:58
PADU 091558Z 23010KT 5SM -RA BR BKN017 OVC027 10/08 A2950 RMK AO2 SLP994 MH P0001 T01000083

2010/08/09 15:58
PAGA 091558Z AUTO 12008KT 10SM OVC060 12/11 A2945 RMK AO2 RAB44E56 SLPNO T01220111

2010/08/09 15:56
PAJZ 091556Z AUTO 18012KT 2SM BR BKN003 OVC007 11/10 A2954 RMK AO2 PWINO TSNO T01050100 CIG 001V006 P0001 SLP991 $

2010/08/09 15:56
PAKI 091556Z AUTO 18020KT 3SM +RA BR BKN011 OVC015 09/09 A2923 RMK AO2 TSNO T00880088 CIG 008V012 P0000 SLP899 $

2010/08/09 15:56
PALG 091556Z AUTO 08003KT 10SM SCT075 11/10 A2938 RMK AO2 TSNO T01050100 RAE30 P0002 SLP951 $

2010/08/09 15:47
PALJ 091547Z 00000KT 30SM SCT060 BKN100 13/11 A2951 RMK FIRST EST PASS OPEN NOSPECI

2010/08/09 15:58
PATE 091558Z AUTO 05014KT 10SM -RA OVC070 12/11 A2931 RMK AO2 SLP937 P0003 T01220111

2010/08/09 15:56
KSGH 091556Z 19004KT 5SM HZ CLR 29/23 A3005 RMK AO2 T02880227 SLP166 $

2010/08/09 15:55
KTTS 091555Z 10007KT 060V140 10SM SCT018 SCT090 BKN210 30/26 A2995 RMK MDT CU W SLP142 3CU /3/ 2AC 1CI /4/

2010/08/09 15:56
PPIZ 091556Z AUTO 07024G32KT 10SM BKN010 BKN015 03/01 A2969 RMK AO2 TSNO T00270011 PK WND 07032/1556 SLP057 $

2010/08/09 15:55
KUNU 091555Z AUTO 21010KT 10SM SCT014 SCT049 26/21 A2994 RMK AO2 T02550206

2010/08/09 15:55
K4M9 091555Z AUTO 31006KT 9SM CLR 32/27 A2997 RMK AO2

2010/08/09 15:53
KARV 091553Z AUTO 00000KT 10SM SCT015 27/22 A2994 RMK AO2 T02650217

2010/08/09 15:55
KAWG 091555Z AUTO 00000KT 10SM SCT080 26/21 A2992 RMK AO2

2010/08/09 15:55
KAXA 091555Z AUTO 14005KT 10SM SCT015 27/23 A2992 RMK AO2

2010/08/09 15:55
KBNW 091555Z AUTO 15008KT 10SM CLR 28/23 A2990 RMK AO2

2010/08/09 15:55
KCAV 091555Z AUTO 14007KT 10SM SCT055 28/22 A2992 RMK AO2

2010/08/09 15:55
KCBF 091555Z AUTO 22003KT 10SM CLR 30/23 A2986 RMK AO2

2010/08/09 15:55
KCNC 091555Z AUTO 16005KT 10SM CLR 26/22 A2990 RMK AO2

2010/08/09 15:51
KCSG 091551Z COR 09007KT 9SM FEW045 33/21 A3002 RMK AO2 SLP158 T03330206

2010/08/09 15:55
KCSQ 091555Z AUTO 17013G16KT 10SM SCT012 27/25 A2990 RMK AO2

2010/08/09 15:55
KDEH 091555Z AUTO 29004KT 7SM SCT014 27/21 A2996 RMK AO2

2010/08/09 15:55
KDNS 091555Z AUTO 20005KT 10SM CLR 28/23 A2990 RMK AO2

2010/08/09 15:55
KEBS 091555Z AUTO 15008KT 10SM SCT055 26/21 A2991 RMK AO2

2010/08/09 15:55
KEFT 091555Z AUTO 24012KT 10SM SCT018 BKN100 27/21 A2993 RMK AO2 T02700210

2010/08/09 15:55
KEOK 091555Z AUTO 08004KT 10SM CLR 24/21 A2994 RMK AO2

2010/08/09 15:55
KFFL 091555Z AUTO 14006KT 10SM CLR 25/23 A2991 RMK AO2

2010/08/09 15:55
KFSW 091555Z AUTO 16006KT 10SM CLR 25/22 A2994 RMK AO2

2010/08/09 15:55
KFXY 091555Z AUTO 19004KT 10SM CLR 26/22 A2993 RMK AO2

2010/08/09 15:55
KGGI 091555Z AUTO 13009KT 10SM CLR 27/22 A2992 RMK AO2

2010/08/09 15:55
KHNR 091555Z AUTO 16007KT 10SM CLR 28/23 A2990 RMK AO2

2010/08/09 15:55
KICL 091555Z AUTO 17009KT 7SM CLR 30/23 A2987 RMK AO2

2010/08/09 15:56
KIIB 091556Z AUTO 18009KT 10SM BKN075 OVC095 23/22 A2993 RMK AO1

2010/08/09 15:55
KIKV 091555Z AUTO 17009KT 10SM CLR 28/23 A2989 RMK AO2

2010/08/09 15:55
KLRJ 091555Z AUTO 13003KT 10SM OVC008 25/22 A2990 RMK AO2

2010/08/09 15:59
KHRL 091559Z 16009KT 10SM SCT028 33/24 A2991 RMK AO2

2010/08/09 15:59
KHIB 091559Z AUTO 00000KT 10SM SCT005 23/22 A2992 RMK AO2

2010/08/09 15:59
KUGN 091559Z 16007KT 10SM BR OVC007 26/23 A2994 RMK AO2 CIG 006V010

2010/08/09 16:00
KLEE 091600Z 08005KT 10SM -RA FEW007 BKN080 28/26 A2995 RMK AO2 P0000

2010/08/09 16:00
KFPR 091600Z 11010KT 090V150 10SM BKN020 BKN028 30/25 A2995 RMK AO2

2010/08/09 15:55
EBBL 091555Z 27005KT 9999 FEW038 SCT060 24/11 Q1016 BLU

2010/08/09 15:55
EBFN 091555Z 30004KT 9999 FEW050 BKN220 20/15 Q1015 BLU

2010/08/09 15:55
EBFS 091555Z 29006KT 9999 FEW070 BKN250 22/09 Q1017 BLU

2010/08/09 15:55
KTKV 091555Z AUTO 31003KT 10SM BKN017 BKN026 BKN034 27/22 A2993 RMK AO2 T02650217

2010/08/09 15:56
PHNY 091556Z AUTO 04008KT 10SM CLR 18/17 A3012 RMK AO2 TSNO T01830166 SLP180 $

2010/08/09 15:55
KVTI 091555Z AUTO 00000KT 10SM -RA SCT030 SCT060 SCT085 23/23 A2993 RMK AO2

2010/08/09 15:55
KCKP 091555Z AUTO 15005KT 10SM OVC013 25/23 A2990 RMK AO2

2010/08/09 15:56
KFSD 091556Z 07004KT 10SM CLR 27/22 A2991 RMK AO2 SLP120 SCT ABV 120 T02670217 $

2010/08/09 15:53
KLND 091553Z AUTO VRB05KT 10SM CLR 23/06 A3006 RMK AO2 SLP108 T02280061

2010/08/09 15:54
KACY 091554Z 23004KT 10SM CLR 31/19 A3004 RMK AO2 SLP171 P0001 T03110189

2010/08/09 15:56
KCHS 091556Z 05011KT 10SM FEW100 32/23 A3001 RMK AO2 SLP163 T03170228

2010/08/09 15:55
KMCJ 091555Z AUTO 00000KT 10SM SCT031 SCT039 33/23 A2996 RMK AO1

2010/08/09 15:55
KMPZ 091555Z AUTO 12004KT 10SM CLR 25/21 A2992 RMK AO2

2010/08/09 15:55
KMUT 091555Z AUTO 00000KT 10SM SCT110 27/23 A2990 RMK AO2

2010/08/09 15:55
KMXO 091555Z AUTO 24008KT 10SM CLR 26/23 A2993 RMK AO2

2010/08/09 15:55
KOOA 091555Z AUTO 13008KT 10SM SCT120 27/23 A2991 RMK AO2

2010/08/09 15:55
KORC 091555Z AUTO 09004KT 10SM OVC006 25/24 A2991 RMK AO2

2010/08/09 15:55
KPEA 091555Z AUTO 10SM CLR A2991 RMK AO2

2010/08/09 15:55
KRDK 091555Z AUTO 21010KT 10SM CLR 32/25 A2985 RMK AO2

2010/08/09 15:58
KRPD 091558Z AUTO RMK AO2 PWINO

2010/08/09 15:55
KSDA 091555Z AUTO 17010KT 10SM CLR 32/26 A2986 RMK AO2

2010/08/09 15:55
KTNU 091555Z AUTO 17009KT 10SM CLR 28/22 A2991 RMK AO2

2010/08/09 15:50
KTRK 091550Z 00000KT 3/4SM FG OVC001 07/07 A3012 NO SPECI

2010/08/09 15:55
KTVK 091555Z AUTO 5SM -RA FEW004 FEW047 23/21 A2992 RMK AO2

2010/08/09 15:56
KNSE 091556Z VRB03KT 8SM SCT025 32/24 A2999 RMK AO2 SLP138 T03170239 $

2010/08/09 15:53
KPBI 091553Z COR 14011KT 10SM SCT022 SCT055 BKN080 30/24 A2995 RMK AO2 SLP140 CB DSNT ALQDS T02970238

2010/08/09 15:50
KCWA 091550Z 30007KT 7SM BKN010 BKN016 26/24 A2992

2010/08/09 15:55
KTTS 091555Z 10007KT 060V140 10SM SCT018 SCT090 BKN210 30/26 A2995 RMK MDT CU W SLP142 3CU /3/ 2AC 1CI /4/

2010/08/09 15:55
KADM 091555Z 20009KT 10SM SKC 34/24 A2993

2010/08/09 16:00
KRHP 091600Z AUTO 00000KT CLR 30/22 A3012 RMK AO2 PWINO

2010/08/09 15:50
EEKA 091550Z 19008KT 140V230 9999 SCT016CB BKN052 20/17 Q1011

2010/08/09 15:50
EETU 091550Z 18008KT 9999 FEW040 SCT051CB BKN150 24/16 Q1014

2010/08/09 15:55
EHAM 091555Z 25005KT 210V290 9999 FEW040 21/13 Q1015 NOSIG

2010/08/09 15:55
EHBK 091555Z AUTO 25006KT 200V340 9999NDV NSC 22/09 Q1016 NOSIG

2010/08/09 15:55
EHGG 091555Z AUTO 25007KT 220V290 9999NDV FEW037 21/12 Q1015 NOSIG

2010/08/09 15:55
EHRD 091555Z VRB05KT 9999 FEW042 22/13 Q1015 NOSIG

2010/08/09 15:50
LGKP 091550Z 32025KT 9999 FEW012 29/25 Q1004

2010/08/09 15:50
LGKZ 091550Z 00000KT 9999 SCT070 30/13 Q1013

2010/08/09 15:50
LGMK 091550Z 36019KT CAVOK 28/19 Q1007

2010/08/09 15:50
LGPZ 091550Z 24014KT 9999 FEW020TCU 28/21 Q1010 NOSIG

2010/08/09 15:50
LGRX 091550Z 24005KT CAVOK 30/21 Q1008 NOSIG

2010/08/09 15:50
LGZA 091550Z 14006KT CAVOK 30/21 Q1009

2010/08/09 15:50
LGAD 091550Z 32006KT CAVOK 30/20 Q1010

2010/08/09 15:50
LGAL 091550Z 24008KT 9999 FEW025 33/20 Q1008

2010/08/09 15:50
LGAV 091550Z 04014KT 9999 FEW030 31/19 Q1008 RMK FEW070

2010/08/09 15:50
LGEL 091550Z 36008KT 9999 FEW030 35/17 Q1007

2010/08/09 15:50
LGIR 091550Z 31013KT 9999 FEW020 29/24 Q1007

2010/08/09 15:50
LGKF 091550Z 32016KT 9999 FEW020 29/18 Q1009

2010/08/09 15:50
LGKL 091550Z 13006KT 9999 FEW030 31/18 Q1008

2010/08/09 15:50
LGKO 091550Z 31013KT CAVOK 30/21 Q1005

2010/08/09 15:50
LGKR 091550Z 30012KT 9999 FEW025 33/17 Q1009

2010/08/09 15:50
LGKV 091550Z 26006KT 9999 FEW030TCU SCT100 32/20 Q1009

2010/08/09 15:50
LGLM 091550Z 34006KT CAVOK 31/18 Q1008

2010/08/09 15:50
LGMT 091550Z /////KT CAVOK 35/21 Q1006

2010/08/09 15:50
LGRP 091550Z 24014KT CAVOK 30/24 Q1004

2010/08/09 15:50
LGSA 091550Z 29006KT 9999 FEW025 SCT070 30/21 Q1009

2010/08/09 15:50
LGSM 091550Z 35009KT 300V060 CAVOK 35/20 Q1004

2010/08/09 15:50
LGSR 091550Z 33015KT CAVOK 30/21 Q1006 NOSIG

2010/08/09 15:50
LGTS 091550Z 27008KT 9999 FEW030 32/20 Q1009 NOSIG

2010/08/09 15:50
LCEN 091550Z 15008KT 9999 FEW025 32/20 Q1004 NOSIG

2010/08/09 15:50
ENEK 091550Z 20018KT 9999 SCT010 17/14 Q1010 W16/S3

2010/08/09 15:50
ENLK 091550Z 03012KT 9999 FEW015 SCT020 13/09 Q1013

2010/08/09 15:50
ENSG 091550Z VRB04KT 9999 SCT045 19/13 Q1009

2010/08/09 15:50
EGDL 091550Z 21011KT 9999 -DZ SCT016 BKN100 18/15 Q1014 WHT NOSIG

2010/08/09 15:50
EGDR 091550Z 25010KT 9999 SCT006 SCT008 BKN012 18/17 Q1014 YLO1

2010/08/09 15:50
EGDY 091550Z 20015KT 9999 FEW010 SCT020 19/16 Q1014 WHT NOSIG

2010/08/09 15:50
EGOM 091550Z AUTO 25016KT 9999NDV // BKN013/// SCT060/// 16/13 Q1008

2010/08/09 15:50
EGOP 091550Z AUTO 26014KT 2500NDV BR SCT003/// SCT023/// 17/16 Q1012

2010/08/09 15:50
EGUB 091550Z 23014KT 9999 -RA FEW015 BKN035 BKN045 21/14 Q1013 BLU BECMG BKN020 WHT

2010/08/09 15:50
EGUW 091550Z 24010KT 9999 FEW048 23/09 Q1012 BLU NOSIG

2010/08/09 15:50
EGVO 091550Z 20013KT 9999 FEW032 SCT035 21/13 Q1014 BLU NOSIG

2010/08/09 15:50
EGXT 091550Z 24014KT 9999 BKN045 BKN100 23/10 Q1011 BLU NOSIG

2010/08/09 15:50
EGXX 091550Z AUTO 21015KT 9999NDV // FEW050/// 24/11 Q1010

2010/08/09 15:56
KABQ 091556Z 28003KT 10SM FEW060 SCT140 23/13 A3017 RMK AO2 SLP132 T02280133 $ 

2010/08/09 15:50
EGNH 091550Z 25007KT 220V290 9999 FEW010 SCT022 18/15 Q1010

2010/08/09 15:50
EGNJ 091550Z 25009KT 9999 BKN045 23/14 Q1010

2010/08/09 15:50
EGPA 091550Z 14009KT 9999 -RADZ SCT006 SCT010 BKN030 15/14 Q1006

2010/08/09 15:50
EGPC 091550Z 14010KT 9999 FEW008 SCT048 15/15 Q1005

2010/08/09 15:50
EGAE 091550Z 26009KT 9999 VCSH FEW013 SCT024CB 15/12 Q1007

2010/08/09 15:50
EGDL 091550Z 21011KT 9999 -DZ SCT016 BKN100 18/15 Q1014 NOSIG

2010/08/09 15:50
EGNC 091550Z 25015KT 9999 SCT030 18/14 Q1008

2010/08/09 15:50
EGPC 091550Z 14010KT 9999 FEW008 SCT048 15/15 Q1005

2010/08/09 15:50
EGPE 091550Z 26006KT 9999 FEW015 FEW020CB SCT038 18/12 Q1005

2010/08/09 15:50
EGPL 091550Z AUTO 21010KT 9999NDV FEW017/// 16/11 Q1005

2010/08/09 15:50
EGPM 091550Z 13013KT 9999 FEW020 BKN028 14/11 Q1009

2010/08/09 15:50
EGPO 091550Z 21013KT 9999 FEW026 SCT030 17/11 Q1005

2010/08/09 15:59
KHRL 091559Z 16009KT 10SM SCT028 33/24 A2991

2010/08/09 16:00
KNEL 091600Z AUTO VRB04KT 9SM CLR 32/16 A3002 RMK AO2 SLP163 T03170161 $ 

2010/08/09 15:50
EDJA 091550Z VRB03KT 9999 FEW055 22/11 Q1017

2010/08/09 15:59
KHRL 091559Z 16009KT 10SM SCT028 33/24 A2991

2010/08/09 15:59
KHIB 091559Z AUTO 00000KT 10SM SCT005 23/22 A2992

2010/08/09 16:00
LZPP 091600Z 16007KT 140V200 9999 FEW033 22/16 Q1016

2010/08/09 16:00
LZSL 091600Z 25006KT 9999 FEW046 BKN100 24/09 Q1016

2010/08/09 16:00
LZZI 091600Z 00000KT 9999 FEW040 23/13 Q1016

2010/08/09 16:00
LZIB 091600Z 10006KT 080V140 9999 -TSRA FEW018CB SCT032 BKN048 18/15 Q1017

2010/08/09 16:00
LZKZ 091600Z 36008KT 9999 FEW040CB FEW040 SCT100 20/14 Q1016 TEMPO TS

2010/08/09 16:00
LZTT 091600Z 00000KT 9999 VCTS -SHRA FEW006 FEW040CB BKN080 16/14 Q1019 TEMPO TSRA

2010/08/09 15:50
LGKF 091550Z 32016KT 9999 FEW020 29/18 Q1009

2010/08/09 15:50
LGKP 091550Z 32025KT 9999 FEW012 29/25 Q1004

2010/08/09 15:50
LGKZ 091550Z 00000KT 9999 SCT070 30/13 Q1013

2010/08/09 15:50
LGMK 091550Z 36019KT CAVOK 28/19 Q1007

2010/08/09 15:50
LGPA 091550Z 01020KT CAVOK 30/21 Q1007

2010/08/09 15:50
LGSO 091550Z 01015KT CAVOK 29/21 Q1008

2010/08/09 15:50
HLLT 091550Z HLLT 36009KT 320V020 CAVOK 29/15 Q1015

2010/08/09 16:00
UBBL 091600Z 16005KT 9999 BKN100 28/22 Q1009 NOSIG RMK G/O SC07

2010/08/09 15:50
LGAD 091550Z 32006KT CAVOK 30/20 Q1010

2010/08/09 15:50
LGAV 091550Z 04014KT 9999 FEW030 31/19 Q1008 RMK FEW070

2010/08/09 15:50
LGIR 091550Z 31013KT 9999 FEW020 29/24 Q1007

2010/08/09 15:50
LGKL 091550Z 13006KT 9999 FEW030 31/18 Q1008

2010/08/09 15:50
LGKO 091550Z 31013KT CAVOK 30/21 Q1005

2010/08/09 15:50
LGKR 091550Z 30012KT 9999 FEW025 33/17 Q1009

2010/08/09 15:50
LGRP 091550Z 24014KT CAVOK 30/24 Q1004

2010/08/09 15:50
LGSA 091550Z 29006KT 9999 FEW025 SCT070 30/21 Q1009

2010/08/09 15:50
LGSM 091550Z 35009KT 300V060 CAVOK 35/20 Q1004

2010/08/09 15:50
LGTS 091550Z 27008KT 9999 FEW030 32/20 Q1009 NOSIG

2010/08/09 16:00
OJAI 091600Z 31010KT CAVOK 32/17 Q1008 NOSIG

2010/08/09 16:00
OJAM 091600Z 31006KT 5000 HZ NSC 31/15 Q1009 NOSIG

2010/08/09 16:00
OJAI 091600Z 31010KT CAVOK 32/17 Q1008 NOSIG

2010/08/09 16:00
OJAM 091600Z 31006KT 5000 HZ NSC 31/15 Q1009 NOSIG

2010/08/09 16:00
LHBP 091600Z 30005KT 260V330 9999 FEW048 25/13 Q1016 NOSIG

2010/08/09 16:00
YPWR 091600Z AUTO 23005KT 9999NDV // SCT009 BKN041 OVC049 08/08 Q1013

2010/08/09 16:00
YAMB 091600Z AUTO 16003KT 1000NDV // SCT082 13/13 Q1021

2010/08/09 16:00
GMFF 091600Z 34004KT 9999 SCT033 FEW040CB BKN100 41/07 Q1013 NOSIG

2010/08/09 16:00
GMFK 091600Z 20004KT 9999 SCT033 38/08 Q1019

2010/08/09 16:00
GMFM 091600Z 29006KT 9999 FEW026 FEW040CB 42/10 Q1014

2010/08/09 16:00
GMMC 091600Z 34006KT 6000 NSC 34/19 Q1010

2010/08/09 16:00
GMMH 091600Z 30012KT CAVOK 23/18 Q1012

2010/08/09 16:00
GMML 091600Z 31005KT CAVOK 30/18 Q1012

2010/08/09 16:00
GMMW 091600Z 04010KT CAVOK 30/19 Q1013

2010/08/09 16:00
GMMZ 091600Z 32017KT 8000 FEW040 FEW050CB 32/09 Q1021 RETS

2010/08/09 16:00
GMTA 091600Z 36006KT 9999 FEW020 26/22 Q1015

2010/08/09 16:00
GMFF 091600Z 34004KT 9999 SCT033 FEW040CB BKN100 41/07 Q1013 NOSIG

2010/08/09 16:00
GMME 091600Z 33010KT 8000 NSC 33/20 Q1011 NOSIG

2010/08/09 16:00
GMMN 091600Z 33011KT 300V360 CAVOK 37/19 Q1012 NOSIG

2010/08/09 16:00
GMMX 091600Z VRB03KT 6000 SCT033 FEW040CB SCT100 42/11 Q1014 NOSIG

2010/08/09 16:00
GMTT 091600Z 06021KT 9999 FEW016 SCT200 31/19 Q1011 NOSIG

2010/08/09 16:00
DTTB 091600Z 07012KT CAVOK 29/12 Q1016

2010/08/09 16:00
DTTD 091600Z 07006KT CAVOK 34/11 Q1015

2010/08/09 16:00
DTTK 091600Z 06004KT CAVOK 34/05 Q1014

2010/08/09 16:00
DTTL 091600Z 01006KT CAVOK 28/18 Q1016

2010/08/09 16:00
DTTN 091600Z 06012KT 9999 FEW020 SCT200 36/11 Q1014

2010/08/09 16:00
DTTR 091600Z 36012KT 9999 FEW026 40/06 Q1013

2010/08/09 15:57
PHNG 091557Z AUTO VRB03G14KT 10SM CLR 25/18 A3009 RMK AO2 SLP183 T02500178 $ 

2010/08/09 15:56
MUGM 091556Z 12015KT 9999 SCT025 OVC250 31/24 A2996 RMK SLP146 T03110244

2010/08/09 16:00
MYGF 091600Z 19007KT 9999 VCSH FEW015CB BKN100 26/25 A3000 RMK CB/VCSH W/N RE55

2010/08/09 15:59
NSTU 091559Z 10014KT 10SM SCT017 BKN040 27/25 A2994 RMK SLP139 T02720247

2010/08/09 16:00
NTAA 091600Z AUTO 09003KT 030V100 9999NDV FEW056/// 21/16 Q1018

2010/08/09 16:00
NWWW 091600Z AUTO VRB03KT 9999NDV NCD 17/12 Q1023

2010/08/09 15:55
PACZ 091555Z 15008KT 2SM BR -DZ OVC008 09/07 A2919 RMK RAE19DZE19 SLPNO WR// SLPNO BWC LOW COR1600Z

2010/08/09 15:55
PAEH 091555Z AUTO 17015G34KT 140V200 3SM OVC005 09/08 RMK AO1 0 T00890078

2010/08/09 15:58
PAGA 091558Z AUTO 12008KT 10SM OVC060 12/11 A2945 RMK AO2 RAB44E56 SLPNO T01220111

2010/08/09 15:55
PAIM 091555Z AUTO 04008KT 020V080 10SM SCT090 13/09 A2950 RMK AO1 8 T01280095

2010/08/09 15:55
PALU 091555Z AUTO 06018KT 3SM 08/08 A2960 RMK AO1 T00830078

2010/08/09 15:56
PASY 091556Z AUTO 29006KT 1SM BR VV001 09/08 A2984 RMK AO2 SLP103 T00890083 TSNO PNO $

2010/08/09 15:55
PATL 091555Z AUTO 22004KT 5SM OVC008 11/11 A2949 RMK AO1 T01060106

2010/08/09 16:00
PKWA 091600Z AUTO 07011KT 10SM BKN018 BKN028 28/23 A2984 RMK AO2 T02750231

2010/08/09 15:55
RKSO 091555Z 07006KT 9999 BKN080 25/25 A2978 RMK AO2A SLP085 T0254 $

2010/08/09 16:00
SOCA 091600Z 11005KT 060V170 9999 SCT016 32/22 Q1013 NOSIG

2010/08/09 16:00
TBPB 091600Z 16010KT 9999 FEW014CB SCT016 BKN260 30/25 Q1015 NOSIG

2010/08/09 15:55
TXKF 091555Z 18010KT 9999 FEW020 BKN300 29/24 Q1022

2010/08/09 16:00
VHHH 091600Z 15007KT 120V220 9999 FEW012 30/25 Q1005 NOSIG

2010/08/09 15:55
KQPV 091555Z AUTO 36004KT 9000 CLR 42/06 A2955 RMK AO2 SLP000 T04220057

2010/08/09 15:55
KQRY 091555Z AUTO 18004KT 9000 RA FEW037 BKN065 16/15 A3013 RMK AO2 SLP111 P0012 T01630151 $

2010/08/09 15:55
KQTI 091555Z AUTO 26007KT 9999 CLR 40/04 A2961 RMK AO2 SLP000 T03950035

2010/08/09 15:55
KQTO 091555Z 32009KT 8000 DU CLR 42/05 A2950 RMK SLP986

2010/08/09 15:55
KQXF 091555Z AUTO 32007G13KT 9999 CLR 41/M03 A2950 RMK AO2 SLP977 T04081032 $

2010/08/09 16:10
KQEV 091610Z AUTO 12001KT 7SM SCT049 BKN075 26/23 A2980 RMK A02

2010/08/09 16:00
DNMM 091600Z 26003KT 9999 BKN011 27/24 Q1013 NOSIG

2010/08/09 16:00
HAAB 091600Z 25008KT 7000 FEW023 BKN025CB BKN080 18/14 Q1022 R/M DIS RAIN

2010/08/09 16:00
GOOY 091600Z 30006KT 260V340 9999 SCT013 BKN230 29/22 Q1011 NOSIG

2010/08/09 16:00
UBBN 091600Z 11018KT 9999 SCT050CB BKN100 31/09 Q1008 R14R/CLRD60 NOSIG RMK G/O QFE682

2010/08/09 16:00
SCEL 091600Z VRB02KT CAVOK 14/01 Q1016 NOSIG

2010/08/09 16:00
SCIE 091600Z 21010KT CAVOK 12/01 Q1019

2010/08/09 16:00
SCTC 091600Z 20006KT 150V250 CAVOK 11/04 Q1022

2010/08/09 16:00
SCVD 091600Z 00000KT 9999 SCT026 08/07 Q1024 RMK HR92

2010/08/09 16:00
SCJO 091600Z 18007KT 9999 BKN015 10/08 Q1025

2010/08/09 16:00
SCTE 091600Z 19005KT 9999 BKN014 11/08 Q1026 NOSIG

2010/08/09 16:00
SCMK 091600Z 20004KT 150V240 9999 BKN022 09/06 Q1024

2010/08/09 16:00
SCFT 091600Z 30004KT 240V340 9999 BKN040 10/04 Q1024

2010/08/09 16:00
SCAP 091600Z 23006KT 9999 BKN036 09/08 Q1029

2010/08/09 16:00
SCAS 091600Z 24014KT 9999 SCT023 SCT200 09/05 Q1024

2010/08/09 16:00
SCCY 091600Z 27008KT CAVOK 10/M03 Q1021

2010/08/09 16:00
SCBA 091600Z 31022KT 9999 FEW020 SCT030 BKN200 05/M01 Q1019

2010/08/09 16:00
SCCC 091600Z 26020G31KT CAVOK 11/M06 Q1017

2010/08/09 16:00
SCHR 091600Z 21012KT 9999 FEW040 08/M02 Q1018

2010/08/09 16:00
SCNT 091600Z 29021KT 9999 BKN015 07/00 Q1009 RMK -SHRA

2010/08/09 16:00
SCCI 091600Z 27030KT 9999 SCT013 02/00 Q1002 NOSIG

2010/08/09 16:00
SCFM 091600Z 25023KT 9999 SCT015 BKN030 03/M01 Q1002

2010/08/09 16:00
SCGZ 091600Z 26024KT 2000 -SHSN BKN013 BKN033 M00/M00 Q0993

2010/08/09 16:00
SCRM 091600Z 12033KT 1500 BLSN OVC004 M10/M11 Q0964 NOSIG

2010/08/09 15:50
EGXZ 091550Z AUTO 20014KT 9999NDV FEW030/// SCT037/// 20/15 Q1009

2010/08/09 16:00
SGAS 091600Z 17006KT CAVOK 17/09 Q1021

2010/08/09 16:00
SGES 091600Z 14004KT CAVOK 20/13 Q1019

2010/08/09 16:00
SBBR 091600Z 11007KT CAVOK 29/M03 Q1023

2010/08/09 16:00
SBCB 091600Z 26023KT 9999 SCT010 25/17 Q1018

2010/08/09 16:00
SBCG 091600Z 08006KT CAVOK 30/06 Q1019

2010/08/09 16:00
SBCT 091600Z 07008KT 9999 SCT007 OVC009 13/10 Q1023

2010/08/09 16:00
SBCZ 091600Z 00000KT CAVOK 32/21 Q1017

2010/08/09 16:00
SBEG 091600Z 35004KT 9999 SCT020 32/22 Q1013

2010/08/09 16:00
SBFI 091600Z 17004KT CAVOK 19/11 Q1020

2010/08/09 16:00
SBFL 091600Z 16011KT 9999 FEW025 20/08 Q1022

2010/08/09 16:00
SBGL 091600Z 24020KT 9999 SCT020 26/16 Q1020

2010/08/09 16:00
SBGO 091600Z 17004KT 9999 FEW022 32/07 Q1019

2010/08/09 16:00
SBGR 091600Z 18007KT 7000 FEW013 BKN019 17/13 Q1024

2010/08/09 16:00
SBKP 091600Z 17004KT 7000 NSC 26/10 Q1021

2010/08/09 16:00
SBLO 091600Z 09002KT CAVOK 26/10 Q1020

2010/08/09 16:00
SBMN 091600Z 17003KT 9999 FEW017 30/24 Q1014

2010/08/09 16:00
SBMQ 091600Z 00000KT 9999 SCT025 35/25 Q1013

2010/08/09 16:00
SBPB 091600Z 03012KT 9999 FEW020 32/21 Q1012

2010/08/09 16:00
SBPK 091600Z 21012KT CAVOK 16/06 Q1025

2010/08/09 16:00
SBPL 091600Z 14008KT 9999 SCT025 29/16 Q1018

2010/08/09 16:00
SBPP 091600Z 35005KT CAVOK 27/16 Q1020

2010/08/09 16:00
SBPV 091600Z 19006KT 4000 FU NSC 34/17 Q1014

2010/08/09 16:00
SBRF 091600Z 18014KT 8000 -RA SCT007 BKN010 BKN070 24/22 Q1016

2010/08/09 16:00
SBRJ 091600Z 19010KT 9999 FEW025 25/17 Q1019

2010/08/09 16:00
SBSN 091600Z 08008KT 9999 FEW023 31/24 Q1013

2010/08/09 16:00
SBSP 091600Z 21006KT 9999 BKN010 15/12 Q1024

2010/08/09 16:00
SBTT 091600Z 20005KT 8000 NSC 30/23 Q1016

2010/08/09 16:00
SBUG 091600Z 09010KT 9999 FEW030 16/06 Q1024

2010/08/09 16:00
SLCB 091600Z 00000KT 9999 SKC 21/03 Q1027

2010/08/09 16:00
SLLP 091600Z 23005KT 9999 NSC 12/M13 Q1040

2010/08/09 16:00
SLVR 091600Z 17013G23KT 8000 NSC 23/06 Q1020

2010/08/09 16:00
SOCA 091600Z 11005KT 060V170 9999 SCT016 32/22 Q1013 NOSIG

2010/08/09 16:00
OMAA 091600Z 36009KT CAVOK 36/24 Q0996 A2941 NOSIG

2010/08/09 16:00
OMAD 091600Z 36009KT CAVOK 35/27 Q0996 A2942

2010/08/09 16:00
OMAL 091600Z VRB01KT CAVOK 42/12 Q0998 A2949

2010/08/09 16:00
OMDB 091600Z 02005G15KT 350V050 CAVOK 40/12 Q0996 NOSIG

2010/08/09 16:00
OMDW 091600Z 01008KT CAVOK 36/18 Q0997 NOSIG

2010/08/09 16:00
OMFJ 091600Z 08004KT 240V140 CAVOK 32/25 Q0998 A2947

2010/08/09 16:00
OMRK 091600Z 00000KT CAVOK 38/20 Q0996 A2941

2010/08/09 16:00
OMSJ 091600Z 06003KT 020V100 CAVOK 37/16 Q0997

2010/08/09 16:01
CYYL 091601Z AUTO 14009KT 9SM -RA OVC040 16/09 A2986 RMK SLP120 DENSITY ALT 1600FT

2010/08/09 16:00
SCAR 091600Z 21006KT 9999 BKN023 16/08 Q1018

2010/08/09 16:00
SCDA 091600Z 31004KT 8000 BKN020 15/08 Q1019

2010/08/09 16:00
SCCF 091600Z 00000KT CAVOK 22/M12 Q1026

2010/08/09 16:00
SCFA 091600Z 30004KT 9999 FEW020 BKN200 17/08 Q1018 NOSIG

2010/08/09 16:00
SCIP 091600Z 03005KT 9999 SCT013 SCT025 17/14 Q1024 TEMPO 6000 -SHRA BKN015

2010/08/09 16:00
SCAT 091600Z 34012KT 9999 OVC023 13/06 Q1020

2010/08/09 16:00
SCSE 091600Z 30004KT 9999 BKN017 14/09 Q1019 NEFO PLAYA 2600FT

2010/08/09 16:00
SCER 091600Z 03004KT 3000 BR SCT008 10/08 Q1017 

2010/08/09 16:00
SCVM 091600Z 30008KT 9000 SCT160 12/09 Q1017

2010/08/09 16:00
SCRD 091600Z 34007KT CAVOK 13/08 Q1017

2010/08/09 16:00
SCSN 091600Z 04003KT CAVOK 13/05 Q1017

2010/08/09 16:00
SCEL 091600Z VRB02KT CAVOK 14/01 Q1016 NOSIG

2010/08/09 16:00
SCTB 091600Z 21002KT CAVOK 17/02 Q1016

2010/08/09 16:00
SCRG 091600Z 00000KT CAVOK 15/04 Q1016

2010/08/09 16:00
SCIC 091600Z 19004KT 5000 HZ FEW007 BKN200 06/03 Q1016

2010/08/09 16:00
SCCH 091600Z 21006KT CAVOK 10/03 Q1018

2010/08/09 16:00
SCIE 091600Z 21010KT CAVOK 12/01 Q1019

2010/08/09 16:00
SCGE 091600Z 18012KT CAVOK 10/05 Q1020

2010/08/09 16:00
WSSS 091600Z 13006KT 100V160 9999 FEW020 BKN300 29/26 Q1010 NOSIG

2010/08/09 15:50
EGDL 091550Z 21011KT 9999 -DZ SCT016 BKN100 18/15 Q1014 WHT NOSIG

2010/08/09 15:50
EGUW 091550Z 24010KT 9999 FEW048 23/09 Q1012 BLU NOSIG

2010/08/09 15:50
ENLK 091550Z 03012KT 9999 FEW015 SCT020 13/09 Q1013

2010/08/09 16:00
LBBG 091600Z 35006MPS CAVOK 30/21 Q1010 NOSIG

2010/08/09 16:00
LBGO 091600Z VRB01MPS CAVOK 29/19 Q1012 NOSIG

2010/08/09 16:00
LBPD 091600Z VRB01MPS 9999 FEW050 SCT090 31/18 Q1011 NOSIG

2010/08/09 16:00
LBSF 091600Z 01003MPS 340V040 9999 FEW060 28/17 Q1015 NOSIG

2010/08/09 16:00
LBWN 091600Z 34005MPS 310V010 CAVOK 29/22 Q1010 NOSIG

2010/08/09 16:00
LDDU 091600Z 28009KT 250V320 CAVOK 26/16 Q1013 NOSIG

2010/08/09 16:00
LDPL 091600Z 27008KT CAVOK 28/17 Q1014 NOSIG

2010/08/09 16:00
LDRI 091600Z 34005KT 300V010 9999 FEW050 29/14 Q1014

2010/08/09 16:00
LDSP 091600Z 29012KT 250V330 CAVOK 32/11 Q1013 NOSIG

2010/08/09 16:00
LDZA 091600Z 08005KT 020V140 9999 FEW040 26/16 Q1016 NOSIG

2010/08/09 16:00
LDZD 091600Z 29009KT 270V330 9999 FEW050 28/12 Q1014

2010/08/09 15:50
LGAL 091550Z 24008KT 9999 FEW025 33/20 Q1008

2010/08/09 15:50
LGHI 091550Z 02011KT 330V070 CAVOK 31/21 Q1006

2010/08/09 15:50
LGKF 091550Z 32016KT 9999 FEW020 29/18 Q1009

2010/08/09 15:50
LGKP 091550Z 32025KT 9999 FEW012 29/25 Q1004

2010/08/09 15:50
LGKZ 091550Z 00000KT 9999 SCT070 30/13 Q1013

2010/08/09 15:50
LGLM 091550Z 34006KT CAVOK 31/18 Q1008

2010/08/09 15:50
LGMK 091550Z 36019KT CAVOK 28/19 Q1007

2010/08/09 15:50
LGMT 091550Z /////KT CAVOK 35/21 Q1006

2010/08/09 15:50
LGSO 091550Z 01015KT CAVOK 29/21 Q1008

2010/08/09 15:50
LGZA 091550Z 14006KT CAVOK 30/21 Q1009

2010/08/09 16:00
LHBP 091600Z 30005KT 260V330 9999 FEW048 25/13 Q1016 NOSIG

2010/08/09 16:00
LZIB 091600Z 10006KT 080V140 9999 -TSRA FEW018CB SCT032 BKN048 18/15 Q1017

2010/08/09 16:00
LZTT 091600Z 00000KT 9999 VCTS -SHRA FEW006 FEW040CB BKN080 16/14 Q1019 TEMPO TSRA

2010/08/09 15:55
KEGI 091555Z 08007KT 10SM SCT030 32/25 A2998 RMK AO2A SLP152 T03220246 $

2010/08/09 15:55
KGRK 091555Z 17009KT 7SM FEW040 34/21 A2997 RMK SLP123

2010/08/09 15:55
KHRT 091555Z 08010KT 10SM FEW030 FEW250 32/25 A2996 RMK AO2A SLP148 T03150254 $

2010/08/09 15:55
KSVN 091555Z 07011G18KT 12SM 32/22 A3001 RMK AO2A SLP160

2010/08/09 16:00
MPDA 091600Z 09004KT 9999 SCT012 BKN300 29/24 Q1012

2010/08/09 16:00
MYGF 091600Z 19007KT 9999 VCSH FEW015CB BKN100 26/25 A3000 RMK CB/VCSH W/N RE55

2010/08/09 15:59
NSTU 091559Z 10014KT 10SM SCT017 BKN040 27/25 A2994 RMK SLP139 T02720247

2010/08/09 16:00
NTAA 091600Z AUTO 09003KT 030V100 9999NDV FEW056/// 21/16 Q1018

2010/08/09 15:55
OAHR 091555Z AUTO /////KT //// // ////// 32/M03 Q1008

2010/08/09 16:00
OEDR 091600Z 09006KT 4000 HZ NSC 37/26 Q0995 NOSIG

2010/08/09 16:00
OEMA 091600Z 02006KT 9000 SCT045 SCT100 43/M03 Q1003 NOSIG

2010/08/09 16:00
OERK 091600Z 04010KT 8000 SKC 40/02 Q1003 NOSIG

2010/08/09 16:00
OERY 091600Z 06011KT CAVOK 41/03 Q1003 NOSIG

2010/08/09 16:00
OJAI 091600Z 31010KT CAVOK 32/17 Q1008 NOSIG

2010/08/09 16:00
OJAM 091600Z 31006KT 5000 HZ NSC 31/15 Q1009 NOSIG

2010/08/09 15:58
PAGA 091558Z AUTO 12008KT 10SM OVC060 12/11 A2945 RMK AO2 RAB44E56 SLPNO T01220111

2010/08/09 16:00
RJSM 091600Z VRB02KT 4000 BR FEW001 SCT003 BKN/// 23/22 Q1014 RMK 2ST001 3ST003 A2995 VIS SE-SW 2000M

2010/08/09 16:00
SBCB 091600Z 26023KT 9999 SCT010 25/17 Q1018

2010/08/09 16:00
TBPB 091600Z 16010KT 9999 FEW014CB SCT016 BKN260 30/25 Q1015 NOSIG

2010/08/09 15:50
TJMZ 091550Z 31005KT 10SM BKN030 31/28 A2998 VCSH NE

2010/08/09 16:00
TUPJ 091600Z 13013KT 9999 VCSH SCT018TCU BKN220 31/24 A3001

2010/08/09 15:55
TXKF 091555Z 18010KT 9999 FEW020 BKN300 29/24 Q1022

2010/08/09 16:00
PAMC 091600Z 11004KT 10SM -RA BR BKN007 OVC012 12/11 A2950 RMK AO2 P0000

2010/08/09 16:01
KFHR 091601Z AUTO 00000KT 10SM BKN018 BKN023 15/12 A2996 RMK AO2

2010/08/09 15:56
PAVC 091556Z AUTO 21017G32KT 4SM BR 10/08 A2957 RMK AO2 PWINO TSNO T01000083 PK WND 22032/1526 SLP013 $

2010/08/09 16:00
K3A1 091600Z AUTO 11004KT 10SM CLR 33/27 A3006 RMK AO2 T03280266 TSNO

2010/08/09 16:02
K47A 091602Z AUTO 00000KT 7SM CLR 31/21 A3009 RMK AO2 LTG DSNT NE AND SW

2010/08/09 15:58
K4A9 091558Z AUTO 24004KT 10SM SCT037 SCT042 33/23 A3004 RMK AO2 T03280228

2010/08/09 16:00
K4R4 091600Z AUTO 08006KT 10SM CLR 33/25 A2998 RMK AO2 T03310252

2010/08/09 15:58
K8A0 091558Z AUTO 20005KT 10SM CLR 33/21 A3004 RMK AO2

2010/08/09 16:00
KAFP 091600Z AUTO 00000KT 10SM CLR 32/21 A3004 RMK AO2 T03150206

2010/08/09 16:00
KALX 091600Z AUTO 12003KT 10SM CLR 33/25 A3004 RMK AO1

2010/08/09 16:00
KASJ 091600Z AUTO 00000KT 10SM CLR 29/22 A3005 RMK AO2

2010/08/09 16:00
KAVC 091600Z AUTO 00000KT 10SM SCT037 32/21 A3011 RMK AO2

2010/08/09 16:00
KBCB 091600Z AUTO 33004KT 10SM SCT029 29/24 A3016 RMK AO2 PWINO

2010/08/09 16:00
KBIJ 091600Z AUTO 08007KT 10SM SCT037 32/24 A3000 RMK AO2

2010/08/09 15:59
KCJR 091559Z AUTO 21007KT 191V251 10SM CLR 31/22 A3003 RMK AO2

2010/08/09 16:00
KCPK 091600Z AUTO 10006KT 5SM RA SCT032 32/22 A3005 RMK AO2

2010/08/09 16:00
KDPL 091600Z AUTO 09006KT 10SM SCT031 32/21 A3005 RMK AO2

2010/08/09 15:59
KEDE 091559Z AUTO 18007KT 10SM SCT032 SCT110 31/23 A3001 RMK AO2

2010/08/09 16:00
KFQD 091600Z AUTO 00000KT 10SM CLR 31/22 A3009 RMK AO2

2010/08/09 16:01
KFYJ 091601Z AUTO 14004KT 10SM CLR 32/22 A3006 RMK AO1

2010/08/09 16:00
KGEV 091600Z AUTO 28005KT 10SM SCT030 SCT038 BKN044 27/16 A3020 RMK AO2

2010/08/09 16:00
KHBI 091600Z AUTO 00000KT 10SM CLR 31/20 A3009 RMK AO2

2010/08/09 15:59
KHRJ 091559Z AUTO 10004KT 10SM CLR 31/22 A3005 RMK AO2

2010/08/09 15:59
KJNX 091559Z AUTO 02003KT 10SM SCT031 31/21 A3004 RMK AO2

2010/08/09 15:55
KLDM 091555Z AUTO 23010G15KT 10SM OVC075 25/22 A2991 RMK AO2

2010/08/09 16:00
KLWB 091600Z AUTO 00000KT 7SM CLR 27/19 A3015 RMK AO2

2010/08/09 15:55
KMCD 091555Z AUTO 14003KT 10SM SCT007 SCT043 BKN050 22/19 A2991 RMK AO2

2010/08/09 16:01
KMFV 091601Z AUTO 05003KT 10SM CLR 32/23 A3005 RMK AO2

2010/08/09 16:00
KONX 091600Z AUTO 06006KT 10SM CLR 29/23 A3006 RMK AO2

2010/08/09 15:56
KOSC 091556Z AUTO 36010KT 7SM BKN014 BKN028 BKN043 24/22 A2991 RMK AO2

2010/08/09 16:00
KPGV 091600Z AUTO 14003KT 10SM CLR 30/21 A3005 RMK AO2

2010/08/09 15:55
KPHN 091555Z AUTO 21005KT 7SM SCT050 SCT070 27/20 A2994 RMK AO2

2010/08/09 16:01
KPTB 091601Z AUTO 16005KT 10SM BKN041 BKN055 33/ A3004 RMK AO2

2010/08/09 15:55
KRMY 091555Z AUTO 00000KT 10SM SCT065 26/21 A2997 RMK AO2

2010/08/09 16:00
KRUQ 091600Z AUTO 00000KT 10SM CLR 31/20 A3007 RMK AO2

2010/08/09 16:01
KTDF 091601Z AUTO 00000KT 31/21 A3007 RMK AO1

2010/08/09 15:54
KTTF 091554Z AUTO 27006KT 10SM CLR 29/21 A2996 RMK AO2

2010/08/09 16:00
KUKF 091600Z AUTO 22005KT 7SM CLR 33/23 A3011 RMK AO1

2010/08/09 16:00
KUNV 091600Z AUTO 00000KT 10SM CLR 28/16 A3007 RMK AO2 T02800164

2010/08/09 15:55
KVVG 091555Z AUTO 03008KT 31/25 A2994 RMK AO2

2010/08/09 15:50
LCRA 091550Z 25012KT CAVOK 29/24 Q1004

2010/08/09 15:54
PTRO 091554Z 21008KT 8SM SHRA BKN015CB OVC280 24/23 A2989 RMK CB VC ALQDS 

2010/08/09 15:55
PKMR 091555Z 08005KT 14SM SCT014TCU BKN045 OVC110 27/25 A2980 RMK SHRAB20E40 TCU ALQDS SLP093 T02710246 

2010/08/09 16:00
GLRB 091600Z 23008KT 9999 BKN016 27/24 Q1012 NOSIG

2010/08/09 15:55
EHEH 091555Z AUTO 24004KT 9999NDV FEW072 23/12 Q1016 BLU BLU NOSIG

2010/08/09 15:55
EHKD 091555Z AUTO 21008KT 9999NDV FEW180/// 20/14 Q1015 BLU BLU NOSIG

2010/08/09 16:00
SBFL 091600Z 16011KT 9999 FEW025 20/08 Q1022

2010/08/09 16:00
SAZS 091600Z 00000KT 9999 SCT010 SCT026 02/M01 Q1024

2010/08/09 16:00
GBYD 091600Z 27007KT 9999 BKN012 31/23 Q1011

2010/08/09 15:50
EGNC 091550Z 25015KT 9999 SCT030 18/14 Q1008

2010/08/09 15:50
EGNH 091550Z 25007KT 220V290 9999 FEW010 SCT022 18/15 Q1010

2010/08/09 15:50
EGNJ 091550Z 25009KT 9999 BKN045 23/14 Q1010

2010/08/09 15:50
EGNR 091550Z 26014KT 9999 SCT025 22/13 Q1010

2010/08/09 15:50
EGPE 091550Z 26006KT 9999 FEW015 FEW020CB SCT038 18/12 Q1005

2010/08/09 16:00
SVMC 091600Z 34003KT 9999 FEW010 CB BKN013 32/26 Q1013

2010/08/09 16:00
SVJC 091600Z 10006KT 9999 SCT040 32/23 Q1011

2010/08/09 16:00
SVSA 091600Z 15011KT 9999 FEW020 SCT300 33/21 Q1015

2010/08/09 16:00
SVCR 091600Z 00000KT 9999 SCT030 34/24 Q1011

2010/08/09 16:00
SVVG 091600Z 00000KT 9999 SCT010 XX/XX Q1013

2010/08/09 16:00
SVSZ 091600Z 00000KT 9999 BKN010 XX/XX Q1012

2010/08/09 16:00
SVPM 091600Z 21010KT 9999 SCT065 XX/XX Q1017

2010/08/09 16:00
SVLF 091600Z 00000KT 9999 SCT025 XX/XX Q1012

2010/08/09 15:50
EGPA 091550Z 14009KT 9999 -RADZ SCT006 SCT010 BKN030 15/14 Q1006

2010/08/09 15:50
EGPC 091550Z 14010KT 9999 FEW008 SCT048 15/15 Q1005

2010/08/09 15:50
EGPL 091550Z AUTO 21010KT 9999NDV FEW017/// 16/11 Q1005

2010/08/09 15:50
EGPM 091550Z 13013KT 9999 FEW020 BKN028 14/11 Q1009

2010/08/09 15:50
EGPO 091550Z 21013KT 9999 FEW026 SCT030 17/11 Q1005

2010/08/09 16:00
MZBZ 091600Z 12005KT 9999 BKN024 BKN280 31/27 A2992 Q1013 CBTOP-S NOSIG

2010/08/09 16:00
SBTE 091600Z 11008KT 9999 FEW030 35/20 Q1012

2010/08/09 15:50
EGVN 091550Z 23008KT 9999 FEW024 BKN030 BKN090 20/15 Q1013 BECMG BKN020

2010/08/09 15:50
EGWU 091550Z 24012KT CAVOK 24/09 Q1013 NOSIG

2010/08/09 15:55
EHAK 091555Z AUTO 20020KT 160V270 9999NDV FEW008/// SCT010/// BKN012/// 17/15 Q1012

2010/08/09 15:55
EHDV 091555Z AUTO 18016KT 9999NDV FEW006/// 18/16 Q1012

2010/08/09 15:55
EHFD 091555Z AUTO 20024KT 9999NDV FEW016/// 17/13 Q1014

2010/08/09 15:55
EHFZ 091555Z AUTO 19023KT 9999NDV ///////// 17/15 Q1014

2010/08/09 15:55
EHJA 091555Z AUTO 17016KT 9999NDV 18/14 Q1013

2010/08/09 15:55
EHKV 091555Z AUTO 20017KT 9999NDV 18/15 Q1014

2010/08/09 15:55
EHMA 091555Z AUTO 27007KT 9999NDV ///////// 19/11 Q1015

2010/08/09 15:55
EHMG 091555Z AUTO 22018KT 9999NDV 18/14 Q1015

2010/08/09 15:55
EHPG 091555Z AUTO 18011KT 9999NDV 18/15 Q1014

2010/08/09 15:55
EHQE 091555Z AUTO 21016KT 9999NDV ///////// 18/15 Q1015

2010/08/09 16:00
FOOL 091600Z VRB03KT 8000 -DZ SCT006 SCT010 OVC033 24/23 Q1013 NOSIG

2010/08/09 16:00
SVCB 091600Z 00000KT 9999 SCT040 28/24 Q1014

2010/08/09 16:00
SVPR 091600Z 18010KT 9999 SCT050 XX/XX Q1016

2010/08/09 16:00
SVST 091600Z 18006KT 9999 SCT015 XX/XX Q1016

2010/08/09 16:00
OPKC 091600Z 31004KT 6000 FEW020 SCT025 BKN100 27/25 Q1001 NOSIG

2010/08/09 16:00
OPPS 091600Z NE-06KTS 2000 BR FEW040 BKN100 29/26 Q1002.5

2010/08/09 15:55
OPSK 091555Z 00000KT 2000 HZ SCT040 SCT100 30/28 Q999 RH 89

2010/08/09 15:50
EGPI 091550Z 24008KT 9999 FEW020 15/12 Q1008

2010/08/09 16:00
HAAB 091600Z 25008KT 7000 FEW023 BKN025CB BKN080 18/14 Q1022 R/M DIS RAIN

2010/08/09 15:50
EGAE 091550Z 26009KT 9999 VCSH FEW013 SCT024CB 15/12 Q1007

2010/08/09 15:50
EGDL 091550Z 21011KT 9999 -DZ SCT016 BKN100 18/15 Q1014 NOSIG

2010/08/09 15:50
EGDL 091550Z 21011KT 9999 -DZ SCT016 BKN100 18/15 Q1014 NOSIG

2010/08/09 15:50
EGDM 091550Z 23013KT 9999 BKN020 BKN050 19/14 Q1014 BECMG BKN014

2010/08/09 15:50
EGOV 091550Z 21011KT 9999 FEW004 SCT050 17/15 Q1010 NOSIG

2010/08/09 15:50
EGXC 091550Z 22015KT CAVOK 24/11 Q1010 NOSIG

2010/08/09 15:50
EGYD 091550Z 22021KT 9999 -RA SCT045 SCT070 BKN090 22/13 Q1011 NOSIG

2010/08/09 16:00
MROC 091600Z 00000KT 9999 FEW040 BKN120 25/21 A3005 NOSIG

2010/08/09 16:00
MRPV 091600Z 07010KT 9999 FEW040 SCT100 BKN250 24/18 A3002 NOSIG

2010/08/09 16:00
MRLB 091600Z 00000KT 9999 FEW020 BKN120 29/24 A2988

2010/08/09 16:00
MRLM 091600Z 00000KT 9999 FEW025 BKN130 29/24 A2992 RMK RA DST NE

2010/08/09 16:00
UBBB 091600Z 20008KT CAVOK 32/18 Q1008 NOSIG RMK R88CLRD70

2010/08/09 16:00
KFPR 091600Z 11010KT 090V150 10SM BKN020 BKN028 30/25 A2995

2010/08/09 16:00
TFFR 091600Z 12005KT 080V170 9999 SCT018 SCT053 28/25 Q1014 TEMPO 4000 SHRA

2010/08/09 16:00
UBBG 091600Z 10002KT 9999 SCT100 29/12 Q1009 NOSIG RMK R12L/CLRD70 

2010/08/09 15:50
EGPU 091550Z AUTO 25014KT 9999NDV // FEW015/// 16/12 Q1006

2010/08/09 16:00
UKBB 091600Z 25005MPS 220V290 9999 FEW033CB 31/15 Q1013 RETS 88290095 NOSIG

2010/08/09 16:00
UKHH 091600Z 10002MPS CAVOK 35/10 Q1013 080///65 NOSIG

2010/08/09 16:00
UKOO 091600Z VRB02MPS CAVOK 33/18 Q1011 16090070 NOSIG

2010/08/09 16:00
UKDE 091600Z 05003MPS CAVOK 36/13 Q1011 02CLRD70 NOSIG

2010/08/09 16:00
UKDD 091600Z 07003MPS CAVOK 32/12 Q1012 08090070 NOSIG

2010/08/09 16:00
UKFF 091600Z 07004MPS CAVOK 33/10 Q1010 01010070 NOSIG

2010/08/09 16:00
UKLL 091600Z 09004MPS 9999 BKN033 24/17 Q1016 13090070 NOSIG

2010/08/09 16:00
UKCC 091600Z VRB02MPS CAVOK 34/08 Q1012 08090070 NOSIG

2010/08/09 16:00
UKDR 091600Z 13002MPS 9999 FEW033 35/10 Q1011 1809//70 NOSIG

2010/08/09 16:00
MZBZ 091600Z 12005KT 9999 BKN024 BKN280 31/27 A2992 CBTOP-S NOSIG

2010/08/09 16:00
FLLS 091600Z 11006KT CAVOK 21/09 Q1021

2010/08/09 15:50
EGDX 091550Z AUTO 26013KT 9999NDV // FEW005/// BKN011/// BKN060/// 18/17 Q1013 RERA

2010/08/09 16:00
FMMI 091600Z 11005KT 080V150 9999 FEW016 BKN020 14/14 Q1025 NOSIG

2010/08/09 15:50
ETUO 091550Z AUTO 24003KT 9999NDV // SCT041/// BKN070/// 22/12 Q1016

2010/08/09 16:00
GGOV 091600Z 23013KT 9999 SCT015TCU SCT020CB 31/24 Q1011 TEMPO TS

2010/08/09 15:55
EBBL 091555Z 27005KT 9999 FEW038 SCT060 24/11 Q1016 BLU

2010/08/09 15:55
EBFN 091555Z 30004KT 9999 FEW050 BKN220 20/15 Q1015 BLU

2010/08/09 15:55
EBFS 091555Z 29006KT 9999 FEW070 BKN250 22/09 Q1017 BLU

2010/08/09 15:50
EDHL 091550Z 30004KT 270V330 9999 BKN035 17/17 Q1016 RMK W

2010/08/09 15:50
EDLW 091550Z 27005KT 230V300 CAVOK 21/13 Q1017 RMK ATISZ

2010/08/09 15:50
EDNY 091550Z VRB03KT 9999 FEW050 25/12 Q1016 RMK ATIS Y

2010/08/09 15:55
EHKD 091555Z AUTO 21008KT 9999NDV FEW180/// 20/14 Q1015 BLU BLU NOSIG

2010/08/09 16:02
CYOY 091602Z AUTO 22007KT 170V250 9SM BKN013 BKN038 BKN070 22/17 A2989

2010/08/09 16:00
SAZS 091600Z 00000KT 9999 SCT010 SCT026 02/M01 Q1024

2010/08/09 16:00
SBJP 091600Z 17014KT 9999 SCT012 BKN018 BKN070 24/23 Q1016

2010/08/09 16:00
SBMA 091600Z 16005KT 9999 FEW035 39/21 Q1013

2010/08/09 16:00
SBTE 091600Z 11008KT 9999 FEW030 35/20 Q1012

2010/08/09 16:00
SBVT 091600Z 00000KT CAVOK 34/21 Q1016

2010/08/09 16:00
SCAP 091600Z 23006KT 9999 BKN036 09/08 Q1029

2010/08/09 16:00
SCAR 091600Z 21006KT 9999 BKN023 16/08 Q1018

2010/08/09 16:00
SCAS 091600Z 24014KT 9999 SCT023 SCT200 09/05 Q1024

2010/08/09 16:00
SCBA 091600Z 31022KT 9999 FEW020 SCT030 BKN200 05/M01 Q1019

2010/08/09 16:00
SCCH 091600Z 21006KT CAVOK 10/03 Q1018

2010/08/09 16:00
SCCI 091600Z 27030KT 9999 SCT013 02/00 Q1002 NOSIG

2010/08/09 16:00
SCDA 091600Z 31004KT 8000 BKN020 15/08 Q1019

2010/08/09 16:00
SCEL 091600Z VRB02KT CAVOK 14/01 Q1016 NOSIG

2010/08/09 16:00
SCFA 091600Z 30004KT 9999 FEW020 BKN200 17/08 Q1018 NOSIG

2010/08/09 16:00
SCGE 091600Z 18012KT CAVOK 10/05 Q1020

2010/08/09 16:00
SCGZ 091600Z 26024KT 2000 -SHSN BKN013 BKN033 M00/M00 Q0993

2010/08/09 16:00
SCIE 091600Z 21010KT CAVOK 12/01 Q1019

2010/08/09 16:00
SCNT 091600Z 29021KT 9999 BKN015 07/00 Q1009 RMK -SHRA

2010/08/09 16:00
SCRD 091600Z 34007KT CAVOK 13/08 Q1017

2010/08/09 16:00
SCSE 091600Z 30004KT 9999 BKN017 14/09 Q1019 NEFO PLAYA 2600FT

2010/08/09 16:00
SCTB 091600Z 21002KT CAVOK 17/02 Q1016

2010/08/09 16:00
SCTE 091600Z 19005KT 9999 BKN014 11/08 Q1026 NOSIG

2010/08/09 16:00
SGAS 091600Z 17006KT CAVOK 17/09 Q1021

2010/08/09 16:00
SGES 091600Z 14004KT CAVOK 20/13 Q1019

2010/08/09 16:00
SVCR 091600Z 00000KT 9999 SCT030 34/24 Q1011

2010/08/09 16:00
SVJC 091600Z 10006KT 9999 SCT040 32/23 Q1011

2010/08/09 16:00
SVLF 091600Z 00000KT 9999 SCT025 XX/XX Q1012

2010/08/09 16:00
SVMC 091600Z 34003KT 9999 FEW010 CB BKN013 32/26 Q1013

2010/08/09 16:00
SVSA 091600Z 15011KT 9999 FEW020 SCT300 33/21 Q1015

2010/08/09 16:00
ORBI 091600Z 31004KT CAVOK 41/10 Q0999 NOSIG

2010/08/09 15:56
KNUW 091556Z 21007KT 6SM BR BKN006 OVC020 14/11 A2996 RMK AO2 SLP149 T01360114 $ 

2010/08/09 16:00
FLLS 091600Z 11006KT CAVOK 21/09 Q1021

2010/08/09 16:00
TKPK 091600Z 07009KT 9999 FEW019 BKN046 29/25 Q1015

2010/08/09 16:00
SCAR 091600Z 21006KT 9999 BKN023 16/08 Q1018

2010/08/09 16:00
SCDA 091600Z 31004KT 8000 BKN020 15/08 Q1019

2010/08/09 16:00
SCFA 091600Z 30004KT 9999 FEW020 BKN200 17/08 Q1018 NOSIG

2010/08/09 16:00
SCCF 091600Z 00000KT CAVOK 22/M12 Q1026

2010/08/09 16:00
SCAT 091600Z 34012KT 9999 OVC023 13/06 Q1020

2010/08/09 16:00
SCIP 091600Z 03005KT 9999 SCT013 SCT025 17/14 Q1024 TEMPO 6000 -SHRA BKN015

2010/08/09 16:00
SCSE 091600Z 30004KT 9999 BKN017 14/09 Q1019 NEFO PLAYA 2600FT

2010/08/09 16:00
SCEL 091600Z VRB02KT CAVOK 14/01 Q1016 NOSIG

2010/08/09 16:00
SCIE 091600Z 21010KT CAVOK 12/01 Q1019

2010/08/09 16:00
SCTC 091600Z 20006KT 150V250 CAVOK 11/04 Q1022

2010/08/09 16:00
SCJO 091600Z 18007KT 9999 BKN015 10/08 Q1025

2010/08/09 16:00
SCTE 091600Z 19005KT 9999 BKN014 11/08 Q1026 NOSIG

2010/08/09 16:00
SCBA 091600Z 31022KT 9999 FEW020 SCT030 BKN200 05/M01 Q1019

2010/08/09 16:00
SCCI 091600Z 27030KT 9999 SCT013 02/00 Q1002 NOSIG

2010/08/09 16:00
SCNT 091600Z 29021KT 9999 BKN015 07/00 Q1009 RMK -SHRA

2010/08/09 15:45
LHDC 091545Z 27005KT 9999 FEW023CB SCT200 25/16 Q1016 NOSIG

2010/08/09 15:45
LHKE 091545Z 31004MPS 9999 FEW040TCU 24/16 Q1016 NOSIG RMK BLU

2010/08/09 15:45
LHPA 091545Z 23002MPS 9999 FEW040 22/15 Q1018 NOSIG RMK BLU

2010/08/09 15:45
LHPP 091545Z 04005KT CAVOK 23/16 Q1018

2010/08/09 15:45
LHPR 091545Z 29002KT 9999 FEW040 24/14 Q1018

2010/08/09 15:45
LHSM 091545Z 00000KT 9999 FEW034 24/16 Q1018 NOSIG

2010/08/09 15:45
LHSN 091545Z 32001MPS CAVOK 23/15 Q1016 NOSIG RMK BLU

2010/08/09 15:45
LHUD 091545Z 33009KT 9999 FEW040TCU BKN083 24/18 Q1017

2010/08/09 16:01
PAKF 091601Z AUTO 20019G27KT 10SM FEW012 SCT024 BKN060 11/08 A2949 RMK AO2 PK WND 19029/1547

2010/08/09 16:01
PAIK 091601Z AUTO 10007KT 10SM SCT065 14/09 A2948 RMK AO2 SLP021 T01390094

2010/08/09 15:45
CWSK 091545Z AUTO 32001KT 16/15 RMK AO1 T01600151

2010/08/09 16:00
UTFN 091600Z 32001MPS 9999 SCT050CB BKN100 28/16 Q1005 R28/CLRD70 NOSIG

2010/08/09 16:00
SBOI 091600Z 10005KT 9999 BKN037 34/22 Q1013

2010/08/09 15:55
PKMR 091555Z 08005KT 14SM SCT014TCU BKN045 OVC110 27/25 A2980 RMK SHRAB20E40 TCU ALQDS SLP093 T02710246

2010/08/09 15:54
PTRO 091554Z 21008KT 8SM SHRA BKN015CB OVC280 24/23 A2989 RMK CB VC ALQDS

2010/08/09 15:56
KABQ 091556Z 28003KT 10SM FEW060 SCT140 23/13 A3017 RMK AO2 SLP132 T02280133 $

2010/08/09 16:00
KNEL 091600Z AUTO VRB04KT 9SM CLR 32/16 A3002 RMK AO2 SLP163 T03170161 $

2010/08/09 15:58
PAGA 091558Z AUTO 12008KT 10SM OVC060 12/11 A2945 RMK AO2 RAB44E56 SLPNO T01220111

2010/08/09 15:50
TJMZ 091550Z 31005KT 10SM BKN030 31/28 A2998 VCSH NE

2010/08/09 16:00
K3A1 091600Z AUTO 11004KT 10SM CLR 33/27 A3006 RMK AO2 T03280266 TSNO

2010/08/09 15:58
K4A9 091558Z AUTO 24004KT 10SM SCT037 SCT042 33/23 A3004 RMK AO2 T03280228

2010/08/09 16:00
K4R4 091600Z AUTO 08006KT 10SM CLR 33/25 A2998 RMK AO2 T03310252

2010/08/09 15:58
K8A0 091558Z AUTO 20005KT 10SM CLR 33/21 A3004 RMK AO2

2010/08/09 16:00
KAFP 091600Z AUTO 00000KT 10SM CLR 32/21 A3004 RMK AO2 T03150206

2010/08/09 16:00
KALX 091600Z AUTO 12003KT 10SM CLR 33/25 A3004 RMK AO1

2010/08/09 16:00
KASJ 091600Z AUTO 00000KT 10SM CLR 29/22 A3005 RMK AO2

2010/08/09 16:00
KAVC 091600Z AUTO 00000KT 10SM SCT037 32/21 A3011 RMK AO2

2010/08/09 16:00
KBCB 091600Z AUTO 33004KT 10SM SCT029 29/24 A3016 RMK AO2 PWINO

2010/08/09 16:00
KBIJ 091600Z AUTO 08007KT 10SM SCT037 32/24 A3000 RMK AO2

2010/08/09 15:59
KCJR 091559Z AUTO 21007KT 191V251 10SM CLR 31/22 A3003 RMK AO2

2010/08/09 16:00
KCPK 091600Z AUTO 10006KT 5SM RA SCT032 32/22 A3005 RMK AO2

2010/08/09 16:00
KDPL 091600Z AUTO 09006KT 10SM SCT031 32/21 A3005 RMK AO2

2010/08/09 15:59
KEDE 091559Z AUTO 18007KT 10SM SCT032 SCT110 31/23 A3001 RMK AO2

2010/08/09 16:00
KFQD 091600Z AUTO 00000KT 10SM CLR 31/22 A3009 RMK AO2

2010/08/09 16:00
KGEV 091600Z AUTO 28005KT 10SM SCT030 SCT038 BKN044 27/16 A3020 RMK AO2

2010/08/09 16:00
KHBI 091600Z AUTO 00000KT 10SM CLR 31/20 A3009 RMK AO2

2010/08/09 15:59
KHRJ 091559Z AUTO 10004KT 10SM CLR 31/22 A3005 RMK AO2

2010/08/09 15:55
KLDM 091555Z AUTO 23010G15KT 10SM OVC075 25/22 A2991 RMK AO2

2010/08/09 16:00
KLWB 091600Z AUTO 00000KT 7SM CLR 27/19 A3015 RMK AO2

2010/08/09 15:55
KMCD 091555Z AUTO 14003KT 10SM SCT007 SCT043 BKN050 22/19 A2991 RMK AO2

2010/08/09 16:00
KONX 091600Z AUTO 06006KT 10SM CLR 29/23 A3006 RMK AO2

2010/08/09 15:56
KOSC 091556Z AUTO 36010KT 7SM BKN014 BKN028 BKN043 24/22 A2991 RMK AO2

2010/08/09 16:00
KPGV 091600Z AUTO 14003KT 10SM CLR 30/21 A3005 RMK AO2

2010/08/09 15:55
KPHN 091555Z AUTO 21005KT 7SM SCT050 SCT070 27/20 A2994 RMK AO2

2010/08/09 15:55
KRMY 091555Z AUTO 00000KT 10SM SCT065 26/21 A2997 RMK AO2

2010/08/09 16:00
KRUQ 091600Z AUTO 00000KT 10SM CLR 31/20 A3007 RMK AO2

2010/08/09 15:54
KTTF 091554Z AUTO 27006KT 10SM CLR 29/21 A2996 RMK AO2

2010/08/09 16:00
KUKF 091600Z AUTO 22005KT 7SM CLR 33/23 A3011 RMK AO1

2010/08/09 16:00
KUNV 091600Z AUTO 00000KT 10SM CLR 28/16 A3007 RMK AO2 T02800164

2010/08/09 15:55
KVVG 091555Z AUTO 03008KT 31/25 A2994 RMK AO2

2010/08/09 16:00
K1A5 091600Z AUTO 00000KT 10SM CLR 29/19 A3014 RMK AO2 T02900192

2010/08/09 16:00
K3J7 091600Z AUTO 11003KT 10SM CLR 32/21 A3004 RMK AO2 T03200213

2010/08/09 16:00
KUXL 091600Z AUTO 29005KT 10SM SCT030 33/25 A2999 RMK AO2

2010/08/09 15:58
KACP 091558Z AUTO 27004KT 10SM CLR 33/24 A2998 RMK AO2

2010/08/09 16:00
KBQK 091600Z AUTO 06007KT 7SM SCT023 BKN034 OVC075 29/26 A3000 RMK AO1 LTG DSNT SE T02910259 PNO

2010/08/09 16:00
KCCO 091600Z AUTO 00000KT 10SM CLR 31/24 A3007 RMK AO1

2010/08/09 16:00
KCDH 091600Z AUTO 30005KT 10SM CLR 33/23 A2997 RMK AO2

2010/08/09 15:55
KCLS 091555Z AUTO 00000KT 10SM OVC016 14/12 A3000 RMK AO2

2010/08/09 16:00
KCPC 091600Z AUTO 08005KT 10SM CLR 31/23 A3004 RMK AO2 T03110226

2010/08/09 16:00
KCTJ 091600Z AUTO 00000KT 10SM SCT060 SCT070 32/23 A3008 RMK AO2 T03150233

2010/08/09 15:58
KDNN 091558Z AUTO 19004KT 10SM CLR 31/23 A3005 RMK AO2

2010/08/09 16:00
KDRI 091600Z AUTO 25006KT 10SM CLR 32/25 A3001 RMK AO2

2010/08/09 15:55
KEMV 091555Z AUTO 06004KT 10SM CLR 31/22 A3005 RMK AO2

2010/08/09 16:00
KEYF 091600Z AUTO 00000KT 10SM CLR 32/22 A3004 RMK AO2 T03170216

2010/08/09 16:00
KF24 091600Z AUTO 00000KT 10SM CLR 33/23 A3001 RMK AO2 T03320227

2010/08/09 16:00
KFFA 091600Z AUTO 07006KT 030V100 10SM CLR 28/24 A3005 RMK AO2 T02820237

2010/08/09 16:00
KFKN 091600Z AUTO 00000KT 10SM SCT032 32/24 A3005 RMK AO1

2010/08/09 16:00
KFVX 091600Z AUTO 16005KT 10SM CLR 32/25 A3002 RMK AO2

2010/08/09 16:00
KGAO 091600Z AUTO 32009KT 10SM SCT025 SCT035 33/26 A2997 RMK AO2 LTG DSNT SE

2010/08/09 15:55
KGHG 091555Z AUTO 25006KT 10SM FEW033 FEW100 31/21 A2998 RMK AO2

2010/08/09 16:00
KGWW 091600Z AUTO 00000KT 10SM CLR 31/21 A3004 RMK AO2 T03090214

2010/08/09 16:00
KHDC 091600Z AUTO 33004KT 10SM SCT060 BKN110 35/28 A2999 RMK AO2

2010/08/09 16:00
KHNZ 091600Z AUTO 19003KT 10SM SCT039 SCT050 SCT070 31/19 A3006 RMK AO2 T03100193

2010/08/09 15:58
KHOE 091558Z AUTO 05004KT 10SM SCT043 32/22 A3000 RMK AO2 T03200222

2010/08/09 16:00
KHSP 091600Z AUTO 25003KT CLR 23/19 A3025 RMK AO2 PWINO TSNO

2010/08/09 16:00
KHWY 091600Z AUTO 19009KT 10SM CLR 32/20 A3002 RMK AO2

2010/08/09 16:00
KI16 091600Z AUTO 00000KT 10SM CLR 28/21 A3006 RMK AO2

2010/08/09 16:00
KIER 091600Z AUTO 34005KT 10SM CLR 35/26 A2998 RMK AO2 PWINO

2010/08/09 16:00
KIPJ 091600Z AUTO 23007KT 10SM SCT035 32/21 A3008 RMK AO2 T03190214

2010/08/09 16:00
KIXA 091600Z AUTO 00000KT 10SM CLR 31/21 A3004 RMK AO2 T03120208

2010/08/09 16:00
KJES 091600Z AUTO 07011G14KT 10SM CLR 33/25 A3000 RMK AO2 T03280249

2010/08/09 16:00
KJGG 091600Z AUTO 00000KT 10SM CLR 32/21 A3006 RMK AO1

2010/08/09 16:00
KJKA 091600Z AUTO 09005KT 10SM CLR 34/26 A2998 RMK AO2 LTG DSNT SE T03350264

2010/08/09 16:02
K47A 091602Z AUTO 00000KT 7SM CLR 31/21 A3009 RMK AO2 LTG DSNT NE AND SW

2010/08/09 16:01
KFYJ 091601Z AUTO 14004KT 10SM CLR 32/22 A3006 RMK AO1

2010/08/09 16:01
KMFV 091601Z AUTO 05003KT 10SM CLR 32/23 A3005 RMK AO2

2010/08/09 16:01
KPTB 091601Z AUTO 16005KT 10SM BKN041 BKN055 33/ A3004 RMK AO2

2010/08/09 16:01
KTDF 091601Z AUTO 00000KT 31/21 A3007 RMK AO1

2010/08/09 16:01
PAIK 091601Z AUTO 10007KT 10SM SCT065 14/09 A2948 RMK AO2 SLP021 T01390094

2010/08/09 16:02
KBGE 091602Z AUTO 08009KT 10SM SCT037 33/21 A3000 RMK AO2

2010/08/09 16:01
KCWV 091601Z AUTO 02008G16KT 10SM SCT034 33/25 A3001 RMK AO2 T03340253

2010/08/09 16:01
KEXX 091601Z AUTO 00000KT 10SM CLR 30/22 A3006 RMK AO2

2010/08/09 16:15
KFDW 091615Z AUTO 10006KT 10SM CLR 32/20 A3006 RMK AO1

2010/08/09 16:02
KHLX 091602Z AUTO 00000KT 10SM CLR 29/22 A3017 RMK AO2

2010/08/09 15:55
PTKK 091555Z VRB04KT 15SM SCT014CB BKN120 OVC280 25/24 A2983 RMK CB ALQDS SLP105 T02480235 

2010/08/09 16:01
KFHR 091601Z AUTO 00000KT 10SM BKN018 BKN023 15/12 A2996 RMK AO2

2010/08/09 16:00
SPHO 091600Z VRB04KT CAVOK 19/05 Q1029 RMK PP000

2010/08/09 16:00
SPHY 091600Z 34004KT 9000 FU SKC 10/00 Q1026 RMK PP000

2010/08/09 16:00
SPME 091600Z 29005KT CAVOK 26/21 Q1014 RMK BIRD HAZARD RWY 32/14 TRZ SC PP000

2010/08/09 16:00
SPTU 091600Z 14004KT CAVOK 31/24 Q1017 RMK PP000

2010/08/09 16:00
SPYL 091600Z /////KT CAVOK 23/16 Q1016 RMK BIRD HAZARD RWY 35 PP000

2010/08/09 15:50
ENEK 091550Z 20018KT 9999 SCT010 17/14 Q1010 W16/S3

2010/08/09 15:56
KABQ 091556Z 28003KT 10SM FEW060 SCT140 23/13 A3017 RMK AO2 SLP132 T02280133 $

2010/08/09 15:59
KJNX 091559Z AUTO 02003KT 10SM SCT031 31/21 A3004 RMK AO2

2010/08/09 15:58
KDBN 091558Z AUTO 08006KT 10SM CLR 32/22 A3002 RMK AO1

2010/08/09 16:00
SPHI 091600Z 21009KT CAVOK 21/15 Q1018 RMK PP000

2010/08/09 16:00
SPIM 091600Z 21004KT 6000 OVC013 16/12 Q1018 NOSIG RMK PP000

2010/08/09 16:00
SPQT 091600Z /////KT 7000 FEW020 BKN100 29/23 Q1016 NOSIG RMK BIRD HAZARD RWY 06/24 PP000

2010/08/09 16:00
SPQU 091600Z 26006KT 230V310 CAVOK 19/M12 Q1028 NOSIG RMK PP000

2010/08/09 16:00
SPRU 091600Z 18009KT 8000 SKC 17/13 Q1017 RMK BIRD HAZARD RWY20 PP000

2010/08/09 16:00
SPSO 091600Z 25006KT 4000 BR FEW010 BKN014 18/13 Q1019 RMK BIRD HAZARD RWY 22/04W PP000

2010/08/09 16:00
SPTN 091600Z 19003KT 140V290 CAVOK 16/08 Q1015 RMK PP000

2010/08/09 16:00
SPZO 091600Z VRB02KT 9999 SKC 16/M17 Q1035 NOSIG RMK PP000

2010/08/09 16:00
KNEL 091600Z AUTO VRB04KT 9SM CLR 32/16 A3002 RMK AO2 SLP163 T03170161 $

2010/08/09 15:55
KGRK 091555Z 17009KT 7SM FEW040 34/21 A2997 RMK SLP123

2010/08/09 15:55
KHRT 091555Z 08010KT 10SM FEW030 FEW250 32/25 A2996 RMK AO2A SLP148 T03150254 $

2010/08/09 15:55
KSVN 091555Z 07011G18KT 12SM 32/22 A3001 RMK AO2A SLP160

2010/08/09 16:00
PAMC 091600Z 11004KT 10SM -RA BR BKN007 OVC012 12/11 A2950 RMK AO2 P0000

2010/08/09 15:55
KNYL 091555Z 02003KT 10SM FEW080 31/02 A2980 RMK AO2 SLP089 T03110017

2010/08/09 15:56
KNUW 091556Z 21007KT 6SM BR BKN006 OVC020 14/11 A2996 RMK AO2 SLP149 T01360114 $

2010/08/09 16:00
YPWR 091600Z AUTO 23005KT 9999NDV // SCT009 BKN041 OVC049 08/08 Q1013

2010/08/09 15:50
EGDR 091550Z 25010KT 9999 SCT006 SCT008 BKN012 18/17 Q1014 YLO1

2010/08/09 15:50
EGDX 091550Z AUTO 26013KT 9999NDV // FEW005/// BKN011/// BKN060/// 18/17 Q1013 RERA

2010/08/09 15:50
EGDY 091550Z 20015KT 9999 FEW010 SCT020 19/16 Q1014 WHT NOSIG

2010/08/09 15:50
EGOM 091550Z AUTO 25016KT 9999NDV // BKN013/// SCT060/// 16/13 Q1008

2010/08/09 15:50
EGOP 091550Z AUTO 26014KT 2500NDV BR SCT003/// SCT023/// 17/16 Q1012

2010/08/09 15:50
EGPU 091550Z AUTO 25014KT 9999NDV // FEW015/// 16/12 Q1006

2010/08/09 15:50
EGUB 091550Z 23014KT 9999 -RA FEW015 BKN035 BKN045 21/14 Q1013 BLU BECMG BKN020 WHT

2010/08/09 15:50
EGVO 091550Z 20013KT 9999 FEW032 SCT035 21/13 Q1014 BLU NOSIG

2010/08/09 15:50
EGXT 091550Z 24014KT 9999 BKN045 BKN100 23/10 Q1011 BLU NOSIG

2010/08/09 15:58
EGXU 091558Z 17008KT 4500 -RA BKN022 OVC030 19/16 Q1009 GRN BECMG 9999 NSW BKN030 BLU

2010/08/09 15:50
EGXX 091550Z AUTO 21015KT 9999NDV // FEW050/// 24/11 Q1010

2010/08/09 15:50
EGXZ 091550Z AUTO 20014KT 9999NDV FEW030/// SCT037/// 20/15 Q1009

2010/08/09 16:00
EPGD 091600Z 05004KT 360V100 9999 FEW036 FEW045TCU 21/16 Q1015

2010/08/09 16:00
EPKK 091600Z 26003KT 9999 -SHRA FEW023 SCT040TCU 17/16 Q1017

2010/08/09 16:00
EPKT 091600Z 14004KT 100V210 9999 VCTS -SHRA SCT050CB 16/14 Q1016 RESHRA

2010/08/09 16:00
EPPO 091600Z 34006KT 9999 TS FEW015 SCT036CB 20/17 Q1015

2010/08/09 16:00
EPRZ 091600Z 07003KT 360V090 9999 FEW040CB 24/17 Q1015

2010/08/09 16:00
EPWA 091600Z 14004KT 100V190 CAVOK 25/15 Q1015 NOSIG

2010/08/09 16:00
EPWR 091600Z 29004KT 9999 BKN050TCU 25/15 Q1016

2010/08/09 15:50
ETUO 091550Z AUTO 24003KT 9999NDV // SCT041/// BKN070/// 22/12 Q1016

2010/08/09 16:00
LYBE 091600Z 04006KT CAVOK 27/14 Q1016 NOSIG

2010/08/09 16:00
LYNI 091600Z 32013KT CAVOK 26/15 Q1015 NOSIG

2010/08/09 16:00
LYTV 091600Z 17003KT 070V220 CAVOK 30/16 Q1012 NOSIG

2010/08/09 15:50
LGAD 091550Z 32006KT CAVOK 30/20 Q1010

2010/08/09 15:50
LGAV 091550Z 04014KT 9999 FEW030 31/19 Q1008 RMK FEW070

2010/08/09 15:50
LGIR 091550Z 31013KT 9999 FEW020 29/24 Q1007

2010/08/09 15:50
LGKL 091550Z 13006KT 9999 FEW030 31/18 Q1008

2010/08/09 15:50
LGKO 091550Z 31013KT CAVOK 30/21 Q1005

2010/08/09 15:50
LGKR 091550Z 30012KT 9999 FEW025 33/17 Q1009

2010/08/09 15:50
LGRP 091550Z 24014KT CAVOK 30/24 Q1004

2010/08/09 15:50
LGSA 091550Z 29006KT 9999 FEW025 SCT070 30/21 Q1009

2010/08/09 15:50
LGSM 091550Z 35009KT 300V060 CAVOK 35/20 Q1004

2010/08/09 15:50
LGTS 091550Z 27008KT 9999 FEW030 32/20 Q1009 NOSIG

2010/08/09 15:50
ENSG 091550Z VRB04KT 9999 SCT045 19/13 Q1009

2010/08/09 15:59
KNGU 091559Z 05005KT 7SM FEW030 BKN250 30/23 A3006 RMK AO2 SLP180 T03000228

2010/08/09 16:00
MRLB 091600Z 00000KT 9999 FEW020 BKN120 29/24 A2988

2010/08/09 16:00
MRLM 091600Z 00000KT 9999 FEW025 BKN130 29/24 A2992 RMK RA DST NE

2010/08/09 16:00
MRPV 091600Z 07010KT 9999 FEW040 SCT100 BKN250 24/18 A3002 NOSIG

2010/08/09 15:58
MUCF 091558Z 00000KT 9999 FEW020 BKN120 31/22 Q1015

2010/08/09 15:57
MUCL 091557Z VRB02KT 9000 FEW015TCU BKN060 28/27 Q1016

2010/08/09 15:50
MUCM 091550Z 11006KT 050V150 9000 FEW020 BKN090 30/23 Q1015

2010/08/09 15:50
MUCU 091550Z 19006KT 160V220 9999 FEW020 30/23 Q1016

2010/08/09 15:55
MUHA 091555Z 02003KT 7000 -RA SCT005 BKN066 26/24 Q1015

2010/08/09 15:50
MUHG 091550Z 08010KT 050V120 9999 FEW030 BKN100 31/24 Q1014

2010/08/09 15:53
MUVR 091553Z 02006KT 330V060 7000 -RA SCT018 OVC060 25/23 Q1016

2010/08/09 16:00
MYGF 091600Z 19007KT 9999 VCSH FEW015CB BKN100 26/25 A3000 RMK CB/VCSH W/N RE55 /

2010/08/09 16:00
MZBZ 091600Z 12005KT 9999 BKN024 BKN280 31/27 A2992 Q1013 CBTOP-S NOSIG

2010/08/09 16:00
SCAP 091600Z 23006KT 9999 BKN036 09/08 Q1029

2010/08/09 16:00
SCAS 091600Z 24014KT 9999 SCT023 SCT200 09/05 Q1024

2010/08/09 16:00
SCGE 091600Z 18012KT CAVOK 10/05 Q1020

2010/08/09 16:00
SCGZ 091600Z 26024KT 2000 -SHSN BKN013 BKN033 M00/M00 Q0993

2010/08/09 16:00
SCNT 091600Z 29021KT 9999 BKN015 07/00 Q1009 RMK -SHRA

2010/08/09 16:00
SCRD 091600Z 34007KT CAVOK 13/08 Q1017

2010/08/09 16:00
SCSE 091600Z 30004KT 9999 BKN017 14/09 Q1019 NEFO PLAYA 2600FT

2010/08/09 16:00
SCTB 091600Z 21002KT CAVOK 17/02 Q1016

2010/08/09 16:00
SVJC 091600Z 10006KT 9999 SCT040 32/23 Q1011

2010/08/09 16:00
TFFR 091600Z 12005KT 080V170 9999 SCT018 SCT053 28/25 Q1014 TEMPO 4000 SHRA

2010/08/09 16:00
WSSS 091600Z 13006KT 100V160 9999 FEW020 BKN300 29/26 Q1010 NOSIG

2010/08/09 16:00
MGHT 091600Z 00000KT 9999 FEW018 BKN200 22/16 QFE 818.3

2010/08/09 16:00
MGPB 091600Z 36006KT 9999 SCT020 SCT200 31/25 Q1012 A29.88

2010/08/09 16:00
MGGT 091600Z 36010KT 9999 SCT017 OVC200 24/18 Q1025 A30.27 PACAYA EN ACTIVIDAD NOSIG

2010/08/09 16:00
MGSJ 091600Z 14008KT 9999 SCT018 BKN200 30/26 Q1013 A29.91

2010/08/09 16:00
MGRT 091600Z 18005KT CAVOK 30/23 Q1014 A29.94 BKN200 SANTA MARIA EN ACTIVIDAD

2010/08/09 16:00
MGQZ 091600Z 00000KT CAVOK 19/13 QFE 768.6 BKN200

2010/08/09 16:00
MGCB 091600Z 09006KT 9999 SCT020 OVC200 26/21 QFE 870.9

2010/08/09 16:00
MGZA 091600Z 00000KT 9999 FEW016 OVC200 29/24

2010/08/09 16:00
MGES 091600Z 03004KT 9999 SCT018 BKN200 27/19 QFE 911.4

2010/08/09 16:00
MGMT 091600Z 11004KT CAVOK 32/24 QFE 1008.0 OVC200

2010/08/09 16:00
MGTU 091600Z 36004KT CAVOK 30/24 FEW200

2010/08/09 15:50
EDJA 091550Z VRB03KT 9999 FEW055 22/11 Q1017

2010/08/09 15:50
LCRA 091550Z 25012KT CAVOK 29/24 Q1004

2010/08/09 15:48
MMTM 091548Z 27005KT 7SM SCT010 BKN080 BKN200 27/23 A2992 RMK 8/172 HZY

2010/08/09 15:45
MMZH 091545Z 17004KT 10SM SCT120 BKN250 31/24 A2984 RMK 8/032 HZY

2010/08/09 16:00
DIAP 091600Z 24010KT 8000 SCT011 BKN080 28/22 Q1013 NOSIG

2010/08/09 16:00
SBPP 091600Z 35005KT CAVOK 27/16 Q1020

2010/08/09 16:00
UBBL 091600Z 16005KT 9999 BKN100 28/22 Q1009 NOSIG RMK G/O SC07

2010/08/09 16:00
MNRS 091600Z 00000KT 9999 FEW015CB BKN070 27/26 Q1012 CB/4C

2010/08/09 16:00
MNJG 091600Z 00000KT 1000 DZ BKN016 23/19 Q1013

2010/08/09 16:00
MNJU 091600Z 06004KT 9999 FEW020 SCT080 29/25 Q1012 REDZ

2010/08/09 16:00
MNCH 091600Z 00000KT 9999 FEW025 SCT300 30/24 Q1012 METAR MNBL 091600Z 08004KT 5000 TSRA SCT016CB SCT070 27/26 Q1013 CB/N/NE/W/NW

2010/08/09 15:50
EGDL 091550Z 21011KT 9999 -DZ SCT016 BKN100 18/15 Q1014 WHT NOSIG

2010/08/09 15:50
EGDM 091550Z 23013KT 9999 BKN020 BKN050 19/14 Q1014 BECMG BKN014

2010/08/09 15:50
EGDR 091550Z 25010KT 9999 SCT006 SCT008 BKN012 18/17 Q1014 YLO1

2010/08/09 15:50
EGDY 091550Z 20015KT 9999 FEW010 SCT020 19/16 Q1014 WHT NOSIG

2010/08/09 15:50
EGOV 091550Z 21011KT 9999 FEW004 SCT050 17/15 Q1010 NOSIG

2010/08/09 15:50
EGPU 091550Z AUTO 25014KT 9999NDV // FEW015/// 16/12 Q1006

2010/08/09 15:46
MMCB 091546Z 00000KT 5SM SCT008TCU BKN080 BKN200 25/19 A3011 RMK 8/278 HZY

2010/08/09 15:45
MMPA 091545Z 27007KT 4SM SCT015 BKN020 OVC250 31/25 A2994 RMK 8/808 HZY

2010/08/09 15:48
MMPB 091548Z 00000KT 10SM SCT020 BKN100 OVC220 20/14 A3033 RMK 8/177 HZY

2010/08/09 15:45
MMPS 091545Z 00000KT 10SM SCT200 27/22 A3000 RMK 8/001 HZY

2010/08/09 15:45
MMQT 091545Z 12010KT 5SM BKN020 BKN250 21/12 A3024 RMK 8/502 HZY

2010/08/09 16:00
LYBE 091600Z 04006KT CAVOK 27/14 Q1016 NOSIG

2010/08/09 16:00
LYBT 091600Z 33005KT 300V010 CAVOK 27/14 Q1016 NOSIG

2010/08/09 16:00
LYKV 091600Z 04005KT 9999 BKN047 26/16 Q1016 NOSIG

2010/08/09 16:00
LYNI 091600Z 32013KT CAVOK 26/15 Q1015 NOSIG

2010/08/09 16:00
LYPG 091600Z 19004KT 140V220 9999 FEW040 33/12 Q1011 NOSIG

2010/08/09 16:00
LYTV 091600Z 17003KT 070V220 CAVOK 30/16 Q1012 NOSIG

2010/08/09 16:00
LYUZ 091600Z 06004KT 030V090 9999 BKN020 19/13 Q1020

2010/08/09 16:00
LYVR 091600Z VRB04KT 9999 FEW040 27/16 Q1016

2010/08/09 16:00
BIAR 091600Z 34013KT CAVOK 15/10 Q1011

2010/08/09 16:00
BIEG 091600Z 35006KT 9999 FEW040 20/10 Q1010

2010/08/09 16:00
BIKF 091600Z 30009KT 9999 BKN006 12/08 Q1013

2010/08/09 16:00
BIRK 091600Z 28005KT 9999 SCT008 BKN024 12/10 Q1013

2010/08/09 16:00
LKKV 091600Z 27004KT 9999 FEW030 18/12 Q1018

2010/08/09 16:00
LKMT 091600Z VRB02KT 9999 FEW035CB 18/16 Q1016 RETS NOSIG

2010/08/09 16:00
LKPR 091600Z 26007KT 9999 FEW043 21/12 Q1017 NOSIG

2010/08/09 16:00
LKTB 091600Z 32007KT 280V350 9999 FEW044 SCT100 23/12 Q1016 NOSIG

2010/08/09 16:00
LEAS 091600Z 05006KT 010V100 9999 FEW015 SCT019 21/17 Q1020 NOSIG

2010/08/09 16:00
LEBB 091600Z 35008KT 310V020 9999 SCT035 BKN055 24/18 Q1020 NOSIG

2010/08/09 16:00
LECO 091600Z 36010KT 330V030 CAVOK 24/17 Q1018

2010/08/09 16:00
LEGE 091600Z 10011KT 7000 3000NW -SHRA TS FEW018 SCT030CB 23/20 Q1016

2010/08/09 16:00
LEST 091600Z 03008KT 330V080 CAVOK 27/15 Q1018 NOSIG

2010/08/09 16:00
LEZG 091600Z 30012KT 9999 FEW040 32/17 Q1015

2010/08/09 16:00
LESO 091600Z VRB04KT 9999 FEW026 BKN055 22/17 Q1020

2010/08/09 16:00
LEVT 091600Z 02008KT 340V060 9999 FEW020 SCT030 22/15 Q1020

2010/08/09 16:00
LERS 091600Z 22007KT 170V250 9999 FEW025TCU 29/16 Q1014

2010/08/09 16:00
LEMH 091600Z 17005KT 110V210 CAVOK 28/15 Q1016

2010/08/09 16:00
LEAM 091600Z 23008KT 9999 FEW010 27/23 Q1014

2010/08/09 16:00
LEGR 091600Z VRB02KT 9999 FEW090 37/09 Q1016

2010/08/09 16:00
LERL 091600Z 17003KT 120V250 9999 SCT060TCU 32/11 Q1018

2010/08/09 16:00
TBPB 091600Z 16010KT 9999 FEW014CB SCT016 BKN260 30/25 Q1015 NOSIG

2010/08/09 16:00
LCLK 091600Z 21013KT 9999 FEW050 29/26 Q1004 NOSIG

2010/08/09 16:00
LCPH 091600Z 29012KT 9999 FEW015 29/25 Q1005

2010/08/09 16:00
OPST 091600Z 36004KT 4000 FU FEW040 SCT110 31/23 Q1002 RH63

2010/08/09 16:00
YPXM 091600Z AUTO 09007KT 9999NDV // BKN013 24/21 Q////

2010/08/09 16:00
LEMD 091600Z 24006KT 190V300 9999 FEW050 35/10 Q1017 NOSIG

2010/08/09 16:00
LEBL 091600Z 19009KT 170V230 9999 FEW025TCU 28/21 Q1014 NOSIG

2010/08/09 16:00
LEPA 091600Z 25013KT CAVOK 29/20 Q1015 NOSIG

2010/08/09 16:00
LEZL 091600Z 01007KT CAVOK 40/09 Q1012 NOSIG

2010/08/09 16:00
LEMG 091600Z 14009KT 110V170 CAVOK 29/19 Q1015 NOSIG

2010/08/09 16:00
LEVC 091600Z 11012KT 080V150 9999 FEW045 32/18 Q1013 NOSIG

2010/08/09 16:00
LEAL 091600Z 09007KT CAVOK 30/21 Q1015 NOSIG

2010/08/09 16:00
LEIB 091600Z 08007KT 050V130 CAVOK 28/21 Q1015 NOSIG

2010/08/09 16:00
LELC 091600Z 06006KT 030V120 CAVOK 29/15 Q1014 NOSIG

2010/08/09 16:00
LEVX 091600Z VRB04KT CAVOK 31/15 Q1017

2010/08/09 16:00
EIDW 091600Z 26014KT 210V280 9999 FEW028 17/08 Q1010 NOSIG

2010/08/09 16:00
EINN 091600Z 26013KT 230V290 9999 SCT028 18/11 Q1011 NOSIG

2010/08/09 16:00
EICK 091600Z 31012KT 9999 SCT036 19/08 Q1011 NOSIG

2010/08/09 16:00
EIKN 091600Z 25015KT 9999 FEW018CB SCT020 15/10 Q1010 NOSIG

2010/08/09 16:00
GCLP 091600Z 04010KT 9999 FEW024 BKN027 25/19 Q1013 NOSIG

2010/08/09 16:00
GCXO 091600Z 31007KT 280V010 9000 FEW003 BKN008 21/17 Q1016 NOSIG

2010/08/09 16:00
GCTS 091600Z 11008KT 080V140 9999 OVC025 24/18 Q1014 NOSIG

2010/08/09 16:00
GCRR 091600Z 20007KT 150V230 9999 FEW022 28/21 Q1012

2010/08/09 16:00
GCFV 091600Z 15008KT 8000 FEW020 24/21 Q1012

2010/08/09 16:00
YPXM 091600Z AUTO 09007KT 9999NDV // BKN013 24/21 Q////

2010/08/09 16:00
YSTW 091600Z AUTO 01005KT 9999NDV // SCT055 BKN085 OVC100 13/08 Q1018

2010/08/09 16:00
YSWG 091600Z AUTO 09011KT 9999NDV // SCT031 BKN066 OVC100 11/06 Q1016

2010/08/09 16:00
YTEF 091600Z AUTO 13012KT //// // ////// 11/M06 Q1021

2010/08/09 16:00
YTNK 091600Z AUTO 19011KT 9999NDV // NCD 14/M02 Q1016

2010/08/09 16:00
YTRE 091600Z AUTO 03006KT //// // ////// 17/12 Q1019

2010/08/09 16:00
YWGT 091600Z AUTO 18006KT //// // ////// 08/06 Q1017

2010/08/09 16:00
YWHA 091600Z AUTO 23006KT 9999NDV // SCT098 08/08 Q1013

2010/08/09 16:00
YWLM 091600Z AUTO 05004KT 9999NDV // ////// 13/11 Q1018

2010/08/09 16:00
LEAB 091600Z 35003KT 280V040 CAVOK 32/10 Q1018 NOSIG

2010/08/09 16:00
LEBZ 091600Z 08003KT 030V140 CAVOK 37/15 Q1014

2010/08/09 16:00
LELN 091600Z 26015KT 230V300 CAVOK 31/M01 Q1018

2010/08/09 16:00
LESA 091600Z 26005KT 230V330 8000 FEW035 33/16 Q1019

2010/08/09 16:00
LETO 091600Z 18003KT 100V220 9999 FEW050 33/12 Q1017 NOSIG

2010/08/09 16:00
LEVD 091600Z 30013G25KT 250V330 9999 FEW035 31/07 Q1018

2010/08/09 16:00
UGTB 091600Z 08012KT 9999 SCT066 SCT100 31/12 Q1013 NOSIG RMK 13CLRD80

2010/08/09 16:00
UGKO 091600Z 27006KT 9999 SCT050 SCT100 29/22 Q1008 NOSIG

2010/08/09 16:00
UGSB 091600Z 00000KT 9999 FEW023 BKN070 30/24 Q1006 NNOSIG

2010/08/09 16:00
LEBA 091600Z 00000KT 9999 SCT060 39/10 Q1012

2010/08/09 16:00
LEDA 091600Z 25007KT 230V290 9999 FEW020 34/15 Q1015

2010/08/09 16:00
LEJR 091600Z 25009KT 210V290 CAVOK 39/10 Q1012

2010/08/09 16:00
LELL 091600Z 11009KT 060V150 9999 FEW012 28/18 Q1014

2010/08/09 16:00
LEPP 091600Z 33015KT 300V360 9999 SCT024 22/16 Q1019

2010/08/09 16:00
LEXJ 091600Z 04006KT 010V090 9999 SCT025 BKN035 21/17 Q1020

2010/08/09 16:00
GCHI 091600Z 01007KT 340V050 9999 SCT022 24/18 Q1014

2010/08/09 16:00
GCLA 091600Z 02005KT 340V080 9999 FEW015 BKN020 23/18 Q1014

2010/08/09 16:00
GEML 091600Z 06004KT 010V120 9999 FEW008 28/23 Q1014

2010/08/09 16:00
YSDU 091600Z AUTO 12009KT 9999NDV // SCT032 BKN039 OVC045 10/09 Q1016

2010/08/09 16:00
YSDU 091600Z AUTO 12009KT 9999NDV // SCT032 BKN039 OVC045 10/09 Q1016

2010/08/09 15:50
EGAE 091550Z 26009KT 9999 VCSH FEW013 SCT024CB 15/12 Q1007

2010/08/09 15:50
EGDL 091550Z 21011KT 9999 -DZ SCT016 BKN100 18/15 Q1014 WHT NOSIG

2010/08/09 15:50
EGDR 091550Z 25010KT 9999 SCT006 SCT008 BKN012 18/17 Q1014 YLO1

2010/08/09 15:50
EGDX 091550Z AUTO 26013KT 9999NDV // FEW005/// BKN011/// BKN060/// 18/17 Q1013 RERA

2010/08/09 15:50
EGDY 091550Z 20015KT 9999 FEW010 SCT020 19/16 Q1014 WHT NOSIG

2010/08/09 15:50
EGOM 091550Z AUTO 25016KT 9999NDV // BKN013/// SCT060/// 16/13 Q1008

2010/08/09 15:50
EGOP 091550Z AUTO 26014KT 2500NDV BR SCT003/// SCT023/// 17/16 Q1012

2010/08/09 15:50
EGPU 091550Z AUTO 25014KT 9999NDV // FEW015/// 16/12 Q1006

2010/08/09 15:50
EGUB 091550Z 23014KT 9999 -RA FEW015 BKN035 BKN045 21/14 Q1013 BLU BECMG BKN020 WHT

2010/08/09 15:50
EGUW 091550Z 24010KT 9999 FEW048 23/09 Q1012 BLU NOSIG

2010/08/09 15:50
EGVO 091550Z 20013KT 9999 FEW032 SCT035 21/13 Q1014 BLU NOSIG

2010/08/09 15:50
EGXT 091550Z 24014KT 9999 BKN045 BKN100 23/10 Q1011 BLU NOSIG

2010/08/09 15:58
EGXU 091558Z 17008KT 4500 -RA BKN022 OVC030 19/16 Q1009 GRN BECMG 9999 NSW BKN030 BLU

2010/08/09 15:50
EGXX 091550Z AUTO 21015KT 9999NDV // FEW050/// 24/11 Q1010

2010/08/09 15:50
EGXZ 091550Z AUTO 20014KT 9999NDV FEW030/// SCT037/// 20/15 Q1009

2010/08/09 15:55
KQA7 091555Z AUTO 18002KT 8000 DU HZ BKN150 33/M01 A2979 RMK AO2A SLP971 T03341013 $

2010/08/09 15:55
KQAE 091555Z 36006KT 6000 DU HZ CLR 42/09 A2953 RMK SLP997

2010/08/09 15:55
KQDM 091555Z AUTO VRB04KT 8SM -TSRA OVC100 18/18 A3013 RMK AO2 SLP091 P0000 T01780176 PWINO $

2010/08/09 15:55
KQPD 091555Z AUTO 25003KT 9000 34/01 A2959 RMK AO2 SLP923 T03380005 $

2010/08/09 15:55
KQQS 091555Z AUTO 24001KT 9999 FEW055 BKN110 21/15 A3008 RMK AO2 SLP075 T02060147

2010/08/09 15:55
KQSD 091555Z 21005KT 9999 SCT040 BKN080 OVC120 29/03 A2992 RMK AO2A SLP004

2010/08/09 15:55
KQXJ 091555Z 32008KT 8000 DU HZ FEW045 FEW200 43/00 A2946 RMK SLP976 PA+447 DA+3688

2010/08/09 15:55
KQYU 091555Z AUTO 05015G22KT 9999 CLR 30/M03 A2984 RMK AO2 SLP021 T03031030

2010/08/09 16:00
FBSK 091600Z 21008KT CAVOK 18/02 Q1023 NOSIG

2010/08/09 15:50
EGUY 091550Z 21015KT CAVOK 24/08 Q1012 BLU

2010/08/09 16:00
PAMC 091600Z 11004KT 10SM -RA BR BKN007 OVC012 12/11 A2950

2010/08/09 16:00
AYMO 091600Z AUTO 12004KT //// // ////// 26/25 Q1009

2010/08/09 16:00
AYPY 091600Z 00000KT 9999 FEW030 26/24 Q1007 RMKS. HAZE

2010/08/09 16:00
EICK 091600Z 31012KT 9999 SCT036 19/08 Q1011 NOSIG

2010/08/09 16:00
EIDW 091600Z 26014KT 210V280 9999 FEW028 17/08 Q1010 NOSIG

2010/08/09 16:00
EINN 091600Z 26013KT 230V290 9999 SCT028 18/11 Q1011 NOSIG

2010/08/09 16:00
LFKS 091600Z AUTO 11004KT 060V140 9999NDV NSC 26/19 Q1016

2010/08/09 16:00
LFMI 091600Z AUTO 20013KT 9999NDV NSC 26/20 Q1014

2010/08/09 16:00
LFMO 091600Z AUTO 21007KT 150V250 9999NDV NSC 32/16 Q1013

2010/08/09 16:00
LFOA 091600Z AUTO 30007KT 260V340 9999NDV NSC 28/08 Q1015

2010/08/09 16:00
LFOC 091600Z AUTO 28007KT 230V300 9999NDV NSC 27/08 Q1015

2010/08/09 16:00
LFOE 091600Z AUTO 36007KT 320V030 9999NDV NSC 25/13 Q1016

2010/08/09 16:00
LFYR 091600Z AUTO VRB04KT //// // ///////// 29/08 Q1015

2010/08/09 15:45
LHDC 091545Z 27005KT 9999 FEW023CB SCT200 25/16 Q1016 NOSIG

2010/08/09 15:45
LHKE 091545Z 31004MPS 9999 FEW040TCU 24/16 Q1016 NOSIG RMK BLU

2010/08/09 15:45
LHPA 091545Z 23002MPS 9999 FEW040 22/15 Q1018 NOSIG RMK BLU

2010/08/09 15:45
LHPP 091545Z 04005KT CAVOK 23/16 Q1018

2010/08/09 15:45
LHSN 091545Z 32001MPS CAVOK 23/15 Q1016 NOSIG RMK BLU

2010/08/09 15:45
LHUD 091545Z 33009KT 9999 FEW040TCU BKN083 24/18 Q1017

2010/08/09 16:00
LKCV 091600Z VRB02KT 9999 FEW037 SCT110 22/15 Q1016 NOSIG RMK BLU+ BLU+

2010/08/09 16:00
LKKV 091600Z 27004KT 9999 FEW030 18/12 Q1018

2010/08/09 16:00
LKMT 091600Z VRB02KT 9999 FEW035CB 18/16 Q1016 RETS NOSIG

2010/08/09 16:00
LKNA 091600Z 01005KT 340V060 9999 FEW042 SCT090 21/13 Q1017 NOSIG RMK BLU+ BLU+

2010/08/09 16:00
LKPD 091600Z 27004KT 9999 FEW033 BKN100 21/14 Q1016 NOSIG RMK BLU BLU

2010/08/09 16:00
LKPO 091600Z 30004KT 260V360 9999 FEW040 22/15 Q1016 NOSIG RMK BLU+ BLU+

2010/08/09 16:00
LKPR 091600Z 26007KT 9999 FEW043 21/12 Q1017 NOSIG

2010/08/09 16:00
LKTB 091600Z 32007KT 280V350 9999 FEW044 SCT100 23/12 Q1016 NOSIG

2010/08/09 16:00
LQBK 091600Z 10004KT 9999 FEW040 27/17 Q1015 NOSIG

2010/08/09 16:00
LYPG 091600Z 19004KT 140V220 9999 FEW040 33/12 Q1011 NOSIG

2010/08/09 15:46
MMCB 091546Z 00000KT 5SM SCT008TCU BKN080 BKN200 25/19 A3011 RMK 8/278 HZY

2010/08/09 15:48
MMPB 091548Z 00000KT 10SM SCT020 BKN100 OVC220 20/14 A3033 RMK 8/177 HZY

2010/08/09 15:45
MMPS 091545Z 00000KT 10SM SCT200 27/22 A3000 RMK 8/001 HZY

2010/08/09 15:45
MMQT 091545Z 12010KT 5SM BKN020 BKN250 21/12 A3024 RMK 8/502 HZY

2010/08/09 15:48
MMTM 091548Z 27005KT 7SM SCT010 BKN080 BKN200 27/23 A2992 RMK 8/172 HZY

2010/08/09 15:45
MMZH 091545Z 17004KT 10SM SCT120 BKN250 31/24 A2984 RMK 8/032 HZY

2010/08/09 16:00
MRLB 091600Z 00000KT 9999 FEW020 BKN120 29/24 A2988

2010/08/09 16:00
MRLM 091600Z 00000KT 9999 FEW025 BKN130 29/24 A2992 RMK RA DST NE

2010/08/09 16:00
MRPV 091600Z 07010KT 9999 FEW040 SCT100 BKN250 24/18 A3002 NOSIG

2010/08/09 15:55
MUHA 091555Z 02003KT 7000 -RA SCT005 BKN066 26/24 Q1015

2010/08/09 16:00
MYGF 091600Z 19007KT 9999 VCSH FEW015CB BKN100 26/25 A3000 RMK CB/VCSH W/N RE55 /

2010/08/09 16:00
MZBZ 091600Z 12005KT 9999 BKN024 BKN280 31/27 A2992 Q1013 CBTOP-S NOSIG

2010/08/09 15:55
PTKK 091555Z VRB04KT 15SM SCT014CB BKN120 OVC280 25/24 A2983 RMK CB ALQDS SLP105 T02480235

2010/08/09 15:54
PTRO 091554Z 21008KT 8SM SHRA BKN015CB OVC280 24/23 A2989 RMK CB VC ALQDS

2010/08/09 16:00
RJTT 091600Z 18008KT 9999 FEW012 SCT060 26/23 Q1015 RMK 1CU012 3SC060 A2999

2010/08/09 16:00
RKSS 091600Z 36001KT CAVOK 26/22 Q1009 NOSIG

2010/08/09 16:00
TFFR 091600Z 12005KT 080V170 9999 SCT018 SCT053 28/25 Q1014 TEMPO 4000 SHRA

2010/08/09 16:00
TKPK 091600Z 07009KT 9999 FEW019 BKN046 29/25 Q1015

2010/08/09 16:00
SUMU 091600Z 27008KT CAVOK 16/05 Q1025 NOSIG

2010/08/09 16:00
SUAA 091600Z 28006KT CAVOK 14/07 Q1025

2010/08/09 16:00
SULS 091600Z 26009KT CAVOK 16/04 Q1025

2010/08/09 16:00
SUSO 091600Z 10010KT CAVOK 16/03 Q1025

2010/08/09 16:00
SUCA 091600Z 29009KT CAVOK 16/06 Q1024

2010/08/09 16:00
SUME 091600Z 09003KT CAVOK 17/08 Q1025

2010/08/09 16:00
SUAG 091600Z 11006KT CAVOK 16/03 Q1024

2010/08/09 16:00
EIKN 091600Z 25015KT 9999 FEW018CB SCT020 15/10 Q1010 NOSIG

2010/08/09 16:00
LEAM 091600Z 23008KT 9999 FEW010 27/23 Q1014

2010/08/09 16:00
LEAS 091600Z 05006KT 010V100 9999 FEW015 SCT019 21/17 Q1020 NOSIG

2010/08/09 16:00
LEBB 091600Z 35008KT 310V020 9999 SCT035 BKN055 24/18 Q1020 NOSIG

2010/08/09 16:00
LECO 091600Z 36010KT 330V030 CAVOK 24/17 Q1018

2010/08/09 16:00
LEGE 091600Z 10011KT 7000 3000NW -SHRA TS FEW018 SCT030CB 23/20 Q1016

2010/08/09 16:00
LEGR 091600Z VRB02KT 9999 FEW090 37/09 Q1016

2010/08/09 16:00
LELN 091600Z 26015KT 230V300 CAVOK 31/M01 Q1018

2010/08/09 16:00
LEMH 091600Z 17005KT 110V210 CAVOK 28/15 Q1016

2010/08/09 16:00
LERS 091600Z 22007KT 170V250 9999 FEW025TCU 29/16 Q1014

2010/08/09 16:00
LESO 091600Z VRB04KT 9999 FEW026 BKN055 22/17 Q1020

2010/08/09 16:00
LEST 091600Z 03008KT 330V080 CAVOK 27/15 Q1018 NOSIG

2010/08/09 16:00
LEVD 091600Z 30013G25KT 250V330 9999 FEW035 31/07 Q1018

2010/08/09 16:00
LEVT 091600Z 02008KT 340V060 9999 FEW020 SCT030 22/15 Q1020

2010/08/09 16:00
LEZG 091600Z 30012KT 9999 FEW040 32/17 Q1015

2010/08/09 16:00
LFBC 091600Z AUTO 27009KT 240V300 9999NDV SCT031 BKN038 22/14 Q1019

2010/08/09 16:00
LFBF 091600Z AUTO 27010KT 230V300 9999NDV // FEW032 OVC042 24/17 Q1018

2010/08/09 16:00
LFBG 091600Z AUTO 25013KT 9999NDV SCT041 BKN047 25/15 Q1017

2010/08/09 16:00
LFBM 091600Z AUTO 31010KT 270V340 9999NDV BKN046 25/14 Q1018

2010/08/09 16:00
LFPV 091600Z AUTO VRB03KT 9999NDV NSC 26/11 Q1016

2010/08/09 16:00
LFQI 091600Z AUTO 30005KT 270V340 9999NDV NSC 24/11 Q1015

2010/08/09 16:00
LFSD 091600Z AUTO 19004KT 9999NDV NSC 26/10 Q1016

2010/08/09 16:00
LFSF 091600Z AUTO VRB03KT 9999NDV NSC 25/09 Q1016

2010/08/09 16:00
LFSI 091600Z AUTO VRB03KT 9999NDV NSC 27/10 Q1016

2010/08/09 16:00
LFSO 091600Z AUTO VRB02KT 9999NDV NSC 24/10 Q1017

2010/08/09 16:00
LFSR 091600Z AUTO VRB03KT 9999NDV NSC 25/12 Q1016

2010/08/09 16:00
LFSX 091600Z AUTO VRB03KT 9999NDV NSC 25/10 Q1016

2010/08/09 16:00
FASI 091600Z AUTO 20005KT //// // ////// 12/M11 Q1025

2010/08/09 16:00
FBSK 091600Z 21008KT CAVOK 18/02 Q1023 NOSIG

2010/08/09 16:03
KAST 091603Z AUTO 27004KT 4SM -RA BR BKN009 OVC015 14/12 A3000 RMK AO2 VIS 2 RWY 08 RAB03 CIG 007V011 P0000 

2010/08/09 16:02
KOPF 091602Z 17007G15KT 2 1/2SM +RA BR FEW004 BKN038 BKN048 26/24 A2996 RMK AO2 RAB1556 P0018

2010/08/09 16:00
PAKI 091600Z AUTO 18019KT 1 3/4SM +RA BR BKN011 OVC016 09/09 A2923 RMK AO2 TSNO BKN V OVC P0000 $

2010/08/09 16:03
KAZO 091603Z 18006KT 1 3/4SM +RA BR BKN021 BKN049 OVC065 23/22 A3000 RMK AO2 P0006

2010/08/09 16:03
KSTC 091603Z 02003KT 10SM FEW009 28/24 A2993 RMK AO2 $

2010/08/09 16:00
KTMA 091600Z AUTO 07008KT 030V090 10SM CLR 31/20 A3001 RMK AO2 T03100204

2010/08/09 16:00
KTPF 091600Z AUTO 09007KT 10SM SCT019 SCT025 30/26 A2994 RMK AO2

2010/08/09 15:56
KVDF 091556Z AUTO 11005KT 10SM SCT017 SCT025 BKN080 32/26 A2994 RMK AO2

2010/08/09 15:58
KVUJ 091558Z AUTO 36004KT 10SM SCT080 33/23 A3004 RMK AO2

2010/08/09 15:55
KWDG 091555Z 17006KT 10SM FEW200 35/20 A2990

2010/08/09 15:45
PAHV 091545Z 17012G18KT 35SM BKN040 BKN120 12/06 A2964 RMK EPM

2010/08/09 15:56
PANW 091556Z AUTO 20012KT 3SM BR OVC003 10/09 A2952 RMK AO2 PWINO TSNO T01000088 CIG 001V005 P0002 SLP975 $

2010/08/09 15:58
KMWA 091558Z 21005KT 10SM SCT050 BKN150 34/23 A2998

2010/08/09 16:00
K1A5 091600Z AUTO 00000KT 10SM CLR 29/19 A3014 RMK AO2 T02900192

2010/08/09 16:00
K3J7 091600Z AUTO 11003KT 10SM CLR 32/21 A3004 RMK AO2 T03200213

2010/08/09 16:00
KUXL 091600Z AUTO 29005KT 10SM SCT030 33/25 A2999 RMK AO2

2010/08/09 15:58
KACP 091558Z AUTO 27004KT 10SM CLR 33/24 A2998 RMK AO2

2010/08/09 16:02
KBGE 091602Z AUTO 08009KT 10SM SCT037 33/21 A3000 RMK AO2

2010/08/09 16:00
KBQK 091600Z AUTO 06007KT 7SM SCT023 BKN034 OVC075 29/26 A3000 RMK AO1 LTG DSNT SE T02910259 PNO

2010/08/09 16:00
KCCO 091600Z AUTO 00000KT 10SM CLR 31/24 A3007 RMK AO1

2010/08/09 16:00
KCDH 091600Z AUTO 30005KT 10SM CLR 33/23 A2997 RMK AO2

2010/08/09 15:55
KCLS 091555Z AUTO 00000KT 10SM OVC016 14/12 A3000 RMK AO2

2010/08/09 16:00
KCPC 091600Z AUTO 08005KT 10SM CLR 31/23 A3004 RMK AO2 T03110226

2010/08/09 16:00
KCTJ 091600Z AUTO 00000KT 10SM SCT060 SCT070 32/23 A3008 RMK AO2 T03150233

2010/08/09 16:01
KCWV 091601Z AUTO 02008G16KT 10SM SCT034 33/25 A3001 RMK AO2 T03340253

2010/08/09 15:58
KDBN 091558Z AUTO 08006KT 10SM CLR 32/22 A3002 RMK AO1

2010/08/09 15:58
KDNN 091558Z AUTO 19004KT 10SM CLR 31/23 A3005 RMK AO2

2010/08/09 16:00
KDRI 091600Z AUTO 25006KT 10SM CLR 32/25 A3001 RMK AO2

2010/08/09 15:55
KEMV 091555Z AUTO 06004KT 10SM CLR 31/22 A3005 RMK AO2

2010/08/09 16:01
KEXX 091601Z AUTO 00000KT 10SM CLR 30/22 A3006 RMK AO2

2010/08/09 16:00
KEYF 091600Z AUTO 00000KT 10SM CLR 32/22 A3004 RMK AO2 T03170216

2010/08/09 16:00
KF24 091600Z AUTO 00000KT 10SM CLR 33/23 A3001 RMK AO2 T03320227

2010/08/09 16:15
KFDW 091615Z AUTO 10006KT 10SM CLR 32/20 A3006 RMK AO1

2010/08/09 16:00
KFFA 091600Z AUTO 07006KT 030V100 10SM CLR 28/24 A3005 RMK AO2 T02820237

2010/08/09 16:00
KFKN 091600Z AUTO 00000KT 10SM SCT032 32/24 A3005 RMK AO1

2010/08/09 16:00
KFVX 091600Z AUTO 16005KT 10SM CLR 32/25 A3002 RMK AO2

2010/08/09 16:00
KGAO 091600Z AUTO 32009KT 10SM SCT025 SCT035 33/26 A2997 RMK AO2 LTG DSNT SE

2010/08/09 15:55
KGHG 091555Z AUTO 25006KT 10SM FEW033 FEW100 31/21 A2998 RMK AO2

2010/08/09 16:00
KGWW 091600Z AUTO 00000KT 10SM CLR 31/21 A3004 RMK AO2 T03090214

2010/08/09 16:00
KHDC 091600Z AUTO 33004KT 10SM SCT060 BKN110 35/28 A2999 RMK AO2

2010/08/09 16:02
KHLX 091602Z AUTO 00000KT 10SM CLR 29/22 A3017 RMK AO2

2010/08/09 16:00
KHNZ 091600Z AUTO 19003KT 10SM SCT039 SCT050 SCT070 31/19 A3006 RMK AO2 T03100193

2010/08/09 15:58
KHOE 091558Z AUTO 05004KT 10SM SCT043 32/22 A3000 RMK AO2 T03200222

2010/08/09 16:00
KHSP 091600Z AUTO 25003KT CLR 23/19 A3025 RMK AO2 PWINO TSNO

2010/08/09 16:00
KHWY 091600Z AUTO 19009KT 10SM CLR 32/20 A3002 RMK AO2

2010/08/09 16:00
KI16 091600Z AUTO 00000KT 10SM CLR 28/21 A3006 RMK AO2

2010/08/09 16:00
KIER 091600Z AUTO 34005KT 10SM CLR 35/26 A2998 RMK AO2 PWINO

2010/08/09 16:00
KIPJ 091600Z AUTO 23007KT 10SM SCT035 32/21 A3008 RMK AO2 T03190214

2010/08/09 16:00
KIXA 091600Z AUTO 00000KT 10SM CLR 31/21 A3004 RMK AO2 T03120208

2010/08/09 16:00
KJES 091600Z AUTO 07011G14KT 10SM CLR 33/25 A3000 RMK AO2 T03280249

2010/08/09 16:00
KJGG 091600Z AUTO 00000KT 10SM CLR 32/21 A3006 RMK AO1

2010/08/09 16:00
KJKA 091600Z AUTO 09005KT 10SM CLR 34/26 A2998 RMK AO2 LTG DSNT SE T03350264

2010/08/09 15:55
KJQF 091555Z 00000KT 7SM CLR 34/19 A3006

2010/08/09 16:00
KJYO 091600Z AUTO 31003KT 7SM CLR 32/19 A3003 RMK AO2

2010/08/09 16:00
KLDJ 091600Z AUTO 25005KT 7SM SCT050 32/18 A3001 RMK AO2 T03220176

2010/08/09 16:00
KLHZ 091600Z AUTO 00000KT 10SM CLR 31/22 A3007 RMK AO2 T03100219

2010/08/09 16:00
KLKU 091600Z AUTO 19004KT 10SM CLR 31/21 A3004 RMK AO2

2010/08/09 16:00
KLNP 091600Z AUTO 24007KT 10SM BKN050 28/19 A3017 RMK AO1

2010/08/09 16:00
KMGR 091600Z AUTO 04008KT 017V087 10SM SCT038 33/21 A3001 RMK AO2

2010/08/09 16:00
KMQI 091600Z AUTO 06008KT 10SM SCT016 SCT022 SCT095 28/26 A3005 RMK AO2

2010/08/09 16:01
KMRN 091601Z AUTO 23004KT 10SM CLR 30/22 A3014 RMK AO2

2010/08/09 16:02
KMWK 091602Z AUTO 20003KT 10SM CLR 29/22 A3009 RMK AO2

2010/08/09 15:50
KOMN 091550Z 10010G15KT 10SM SCT018 31/25 A2996

2010/08/09 15:57
KPVU 091557Z 12010KT 15SM FEW090 FEW120 23/11 A3009

2010/08/09 16:00
KSIF 091600Z AUTO 24004KT 10SM CLR 31/21 A3006 RMK AO2 T03110214

2010/08/09 16:00
KSUT 091600Z AUTO 12010KT 10SM SCT018 28/23 A3004 RMK AO2

2010/08/09 16:00
KSVH 091600Z AUTO 00000KT 7SM CLR 30/23 A3007 RMK AO2 T02950231

2010/08/09 16:00
MGTK 091600Z 09004KT 9999 SCT016 31/25 Q1014 A29.94

2010/08/09 16:00
MGHT 091600Z 00000KT 9999 FEW018 BKN200 22/16 QFE 818.3

2010/08/09 16:00
MGPB 091600Z 36006KT 9999 SCT020 SCT200 31/25 Q1012 A29.88

2010/08/09 16:00
MGGT 091600Z 36010KT 9999 SCT017 OVC200 24/18 Q1025 A30.27 PACAY A EN ACTIVIDAD NOSIG

2010/08/09 16:00
MGSJ 091600Z 14008KT 9999 SCT018 BKN200 30/26 Q1013 A29.91

2010/08/09 16:00
MGRT 091600Z 18005KT CAVOK 30/23 Q1014 A29.94 BKN200 SANTA MARIA EN ACTIVIDAD

2010/08/09 16:00
MGQZ 091600Z 00000KT CAVOK 19/13 QFE 768.6 BKN200

2010/08/09 16:00
MGCB 091600Z 09006KT 9999 SCT020 OVC200 26/21 QFE 870.9

2010/08/09 16:00
MGZA 091600Z 00000KT 9999 FEW016 OVC200 29/24

2010/08/09 16:00
MGES 091600Z 03004KT 9999 SCT018 BKN200 27/19 QFE 911.4

2010/08/09 16:00
MGMT 091600Z 11004KT CAVOK 32/24 QFE 1008.0 OVC200

2010/08/09 16:00
MGTU 091600Z 36004KT CAVOK 30/24 FEW200

2010/08/09 16:00
LEAB 091600Z 35003KT 280V040 CAVOK 32/10 Q1018 NOSIG

2010/08/09 16:00
LEAL 091600Z 09007KT CAVOK 30/21 Q1015 NOSIG

2010/08/09 16:00
LEBA 091600Z 00000KT 9999 SCT060 39/10 Q1012

2010/08/09 16:00
LEBL 091600Z 19009KT 170V230 9999 FEW025TCU 28/21 Q1014 NOSIG

2010/08/09 16:00
LEBZ 091600Z 08003KT 030V140 CAVOK 37/15 Q1014

2010/08/09 16:00
LEIB 091600Z 08007KT 050V130 CAVOK 28/21 Q1015 NOSIG

2010/08/09 16:00
LELC 091600Z 06006KT 030V120 CAVOK 29/15 Q1014 NOSIG

2010/08/09 16:00
LEMD 091600Z 24006KT 190V300 9999 FEW050 35/10 Q1017 NOSIG

2010/08/09 16:00
LEMG 091600Z 14009KT 110V170 CAVOK 29/19 Q1015 NOSIG

2010/08/09 16:00
LEPA 091600Z 25013KT CAVOK 29/20 Q1015 NOSIG

2010/08/09 16:00
LEPP 091600Z 33015KT 300V360 9999 SCT024 22/16 Q1019

2010/08/09 16:00
LESA 091600Z 26005KT 230V330 8000 FEW035 33/16 Q1019

2010/08/09 16:00
LETO 091600Z 18003KT 100V220 9999 FEW050 33/12 Q1017 NOSIG

2010/08/09 16:00
LEVC 091600Z 11012KT 080V150 9999 FEW045 32/18 Q1013 NOSIG

2010/08/09 16:00
LEVX 091600Z VRB04KT CAVOK 31/15 Q1017

2010/08/09 16:00
LEXJ 091600Z 04006KT 010V090 9999 SCT025 BKN035 21/17 Q1020

2010/08/09 16:00
LEZL 091600Z 01007KT CAVOK 40/09 Q1012 NOSIG

2010/08/09 16:00
LFBI 091600Z 28007KT 240V320 CAVOK 28/12 Q1016 NOSIG

2010/08/09 16:00
LFBO 091600Z 28012KT 9999 SCT033 BKN040 25/16 Q1018 NOSIG

2010/08/09 16:00
LFBP 091600Z 22005KT 190V270 9999 BKN031 21/18 Q1019 NOSIG

2010/08/09 16:00
LFKB 091600Z VRB03KT 9999 FEW025 BKN200 26/20 Q1015 NOSIG

2010/08/09 16:00
LFLX 091600Z AUTO 21003KT 180V240 9999NDV NSC 28/09 Q1015

2010/08/09 16:00
LFML 091600Z 19012KT 9999 FEW016 SCT140 27/19 Q1014 NOSIG

2010/08/09 16:00
LFMN 091600Z 12003KT 090V160 9999 FEW020 SCT038 BKN053 25/20 Q1016 NOSIG

2010/08/09 16:00
LFPG 091600Z 16003KT 090V230 CAVOK 26/10 Q1015 NOSIG

2010/08/09 16:00
LFPO 091600Z 29006KT 240V360 CAVOK 27/10 Q1015 NOSIG

2010/08/09 16:00
LFQQ 091600Z 27006KT 230V310 CAVOK 24/12 Q1015 NOSIG

2010/08/09 16:00
LFRB 091600Z 23011KT 200V260 9999 OVC007 17/15 Q1018

2010/08/09 15:50
LGEL 091550Z 36008KT 9999 FEW030 35/17 Q1007

2010/08/09 15:50
LGKV 091550Z 26006KT 9999 FEW030TCU SCT100 32/20 Q1009

2010/08/09 15:50
LGMT 091550Z /////KT CAVOK 35/21 Q1006

2010/08/09 15:50
LGPZ 091550Z 24014KT 9999 FEW020TCU 28/21 Q1010 NOSIG

2010/08/09 15:50
LGRX 091550Z 24005KT CAVOK 30/21 Q1008 NOSIG

2010/08/09 15:50
LGSR 091550Z 33015KT CAVOK 30/21 Q1006 NOSIG

2010/08/09 16:00
LFBL 091600Z 25005KT 210V290 CAVOK 24/14 Q1018 NOSIG

2010/08/09 16:00
LFBP 091600Z 22005KT 190V270 9999 BKN031 21/18 Q1019 NOSIG

2010/08/09 16:00
LFBT 091600Z 28005KT 260V330 8000 SCT006 BKN015 18/16 Q1020 NOSIG

2010/08/09 15:52
LFBZ 091552Z 28007KT 240V310 9999 SCT018 BKN039 23/17 Q1020 NOSIG

2010/08/09 16:00
LFCR 091600Z AUTO 25010KT 9999NDV FEW047 24/16 Q1018

2010/08/09 16:00
LFJL 091600Z AUTO 30004KT 240V360 9999NDV NSC 24/07 Q1016

2010/08/09 16:00
LFKB 091600Z VRB03KT 9999 FEW025 BKN200 26/20 Q1015 NOSIG

2010/08/09 16:00
LFKC 091600Z 05008KT 360V100 9999 FEW018 SCT250 27/19 Q1015 NOSIG

2010/08/09 16:00
LFKF 091600Z 22007KT 180V250 9999 FEW080 SCT170 BKN260 27/13 Q1015 NOSIG

2010/08/09 16:00
LFKJ 091600Z 28004KT 9999 FEW023 SCT150 BKN220 26/17 Q1016 NOSIG

2010/08/09 16:00
LFLB 091600Z 35005KT 310V020 9999 FEW066 29/17 Q1015 NOSIG

2010/08/09 16:00
LFLC 091600Z 03006KT 360V060 9999 FEW060 28/15 Q1015 NOSIG

2010/08/09 16:00
LFLL 091600Z 36007KT 330V040 CAVOK 29/12 Q1015 NOSIG

2010/08/09 16:00
LFLS 091600Z 33006KT 300V360 9999 FEW060 30/10 Q1015 NOSIG

2010/08/09 16:00
LFLY 091600Z AUTO 01006KT 340V050 9999NDV NSC 30/12 Q1015

2010/08/09 16:00
LFMN 091600Z 12003KT 090V160 9999 FEW020 SCT038 BKN053 25/20 Q1016 NOSIG

2010/08/09 16:00
LFMP 091600Z 20006KT 130V230 9999 FEW050 FEW060CB BKN150 28/16 Q1015 NOSIG

2010/08/09 16:00
LFMT 091600Z 18009KT CAVOK 25/20 Q1014 NOSIG

2010/08/09 16:00
LFOB 091600Z 28008KT 250V320 CAVOK 25/10 Q1015 NOSIG

2010/08/09 16:00
LFOH 091600Z AUTO 35006KT 320V020 9999NDV NSC 20/10 Q1017

2010/08/09 16:00
LFOP 091600Z 29009KT 260V330 CAVOK 25/13 Q1016 NOSIG

2010/08/09 16:00
LFPB 091600Z 33003KT 250V020 CAVOK 26/11 Q1015 NOSIG

2010/08/09 16:00
LFRB 091600Z 23011KT 200V260 9999 OVC007 17/15 Q1018

2010/08/09 16:00
LFRS 091600Z 25010KT 220V310 CAVOK 26/12 Q1016 NOSIG

2010/08/09 16:00
LFSL 091600Z AUTO 25007KT 220V280 9999NDV NSC 23/14 Q1018

2010/08/09 16:00
LFSN 091600Z 01005KT 340V040 CAVOK 24/10 Q1016 NOSIG

2010/08/09 16:00
LATI 091600Z 35010KT CAVOK 28/23 Q1012 NOSIG

2010/08/09 16:00
LFBL 091600Z 25005KT 210V290 CAVOK 24/14 Q1018 NOSIG

2010/08/09 16:00
LFBT 091600Z 28005KT 260V330 8000 SCT006 BKN015 18/16 Q1020 NOSIG

2010/08/09 15:52
LFBZ 091552Z 28007KT 240V310 9999 SCT018 BKN039 23/17 Q1020 NOSIG

2010/08/09 16:00
LFCR 091600Z AUTO 25010KT 9999NDV FEW047 24/16 Q1018

2010/08/09 16:00
LFJL 091600Z AUTO 30004KT 240V360 9999NDV NSC 24/07 Q1016

2010/08/09 16:00
LFKC 091600Z 05008KT 360V100 9999 FEW018 SCT250 27/19 Q1015 NOSIG

2010/08/09 16:00
LFKF 091600Z 22007KT 180V250 9999 FEW080 SCT170 BKN260 27/13 Q1015 NOSIG

2010/08/09 16:00
LFKJ 091600Z 28004KT 9999 FEW023 SCT150 BKN220 26/17 Q1016 NOSIG

2010/08/09 16:00
LFLB 091600Z 35005KT 310V020 9999 FEW066 29/17 Q1015 NOSIG

2010/08/09 16:00
LFLC 091600Z 03006KT 360V060 9999 FEW060 28/15 Q1015 NOSIG

2010/08/09 16:00
LFLL 091600Z 36007KT 330V040 CAVOK 29/12 Q1015 NOSIG

2010/08/09 16:00
LFLS 091600Z 33006KT 300V360 9999 FEW060 30/10 Q1015 NOSIG

2010/08/09 16:00
LFLY 091600Z AUTO 01006KT 340V050 9999NDV NSC 30/12 Q1015

2010/08/09 16:00
LFMP 091600Z 20006KT 130V230 9999 FEW050 FEW060CB BKN150 28/16 Q1015 NOSIG

2010/08/09 16:00
LFMT 091600Z 18009KT CAVOK 25/20 Q1014 NOSIG

2010/08/09 16:00
LFOB 091600Z 28008KT 250V320 CAVOK 25/10 Q1015 NOSIG

2010/08/09 16:00
LFOH 091600Z AUTO 35006KT 320V020 9999NDV NSC 20/10 Q1017

2010/08/09 16:00
LFOP 091600Z 29009KT 260V330 CAVOK 25/13 Q1016 NOSIG

2010/08/09 16:00
LFPB 091600Z 33003KT 250V020 CAVOK 26/11 Q1015 NOSIG

2010/08/09 16:00
LFRS 091600Z 25010KT 220V310 CAVOK 26/12 Q1016 NOSIG

2010/08/09 16:00
LFSL 091600Z AUTO 25007KT 220V280 9999NDV NSC 23/14 Q1018

2010/08/09 16:00
LRBS 091600Z VRB02KT CAVOK 31/19 Q1012 NOSIG

2010/08/09 16:00
LRCK 091600Z 02008KT 360V060 CAVOK 32/19 Q1011 NOSIG

2010/08/09 16:00
LROP 091600Z 36004KT 340V040 CAVOK 31/19 Q1012 880///95 NOSIG

2010/08/09 16:00
LRSB 091600Z VRB02KT 9999 BKN037 24/18 Q1016

2010/08/09 16:00
LRTR 091600Z 32005KT CAVOK 27/16 Q1015 NOSIG

2010/08/09 15:50
ETUO 091550Z AUTO 24003KT 9999NDV // SCT041/// BKN070/// 22/12 Q1016

2010/08/09 16:00
LFBC 091600Z AUTO 27009KT 240V300 9999NDV SCT031 BKN038 22/14 Q1019

2010/08/09 16:00
LFBF 091600Z AUTO 27010KT 230V300 9999NDV // FEW032 OVC042 24/17 Q1018

2010/08/09 16:00
LFBG 091600Z AUTO 25013KT 9999NDV SCT041 BKN047 25/15 Q1017

2010/08/09 16:00
LFBI 091600Z 28007KT 240V320 CAVOK 28/12 Q1016 NOSIG

2010/08/09 16:00
LFBM 091600Z AUTO 31010KT 270V340 9999NDV BKN046 25/14 Q1018

2010/08/09 16:00
LFBO 091600Z 28012KT 9999 SCT033 BKN040 25/16 Q1018 NOSIG

2010/08/09 16:00
LFKS 091600Z AUTO 11004KT 060V140 9999NDV NSC 26/19 Q1016

2010/08/09 16:00
LFLX 091600Z AUTO 21003KT 180V240 9999NDV NSC 28/09 Q1015

2010/08/09 16:00
LFMI 091600Z AUTO 20013KT 9999NDV NSC 26/20 Q1014

2010/08/09 16:00
LFML 091600Z 19012KT 9999 FEW016 SCT140 27/19 Q1014 NOSIG

2010/08/09 16:00
LFMO 091600Z AUTO 21007KT 150V250 9999NDV NSC 32/16 Q1013

2010/08/09 16:00
LFOA 091600Z AUTO 30007KT 260V340 9999NDV NSC 28/08 Q1015

2010/08/09 16:00
LFOC 091600Z AUTO 28007KT 230V300 9999NDV NSC 27/08 Q1015

2010/08/09 16:00
LFOE 091600Z AUTO 36007KT 320V030 9999NDV NSC 25/13 Q1016

2010/08/09 16:00
LFPG 091600Z 16003KT 090V230 CAVOK 26/10 Q1015 NOSIG

2010/08/09 16:00
LFPO 091600Z 29006KT 240V360 CAVOK 27/10 Q1015 NOSIG

2010/08/09 16:00
LFPV 091600Z AUTO VRB03KT 9999NDV NSC 26/11 Q1016

2010/08/09 16:00
LFQI 091600Z AUTO 30005KT 270V340 9999NDV NSC 24/11 Q1015

2010/08/09 16:00
LFQQ 091600Z 27006KT 230V310 CAVOK 24/12 Q1015 NOSIG

2010/08/09 16:00
LFSD 091600Z AUTO 19004KT 9999NDV NSC 26/10 Q1016

2010/08/09 16:00
LFSF 091600Z AUTO VRB03KT 9999NDV NSC 25/09 Q1016

2010/08/09 16:00
LFSI 091600Z AUTO VRB03KT 9999NDV NSC 27/10 Q1016

2010/08/09 16:00
LFSO 091600Z AUTO VRB02KT 9999NDV NSC 24/10 Q1017

2010/08/09 16:00
LFSR 091600Z AUTO VRB03KT 9999NDV NSC 25/12 Q1016

2010/08/09 16:00
LFSX 091600Z AUTO VRB03KT 9999NDV NSC 25/10 Q1016

2010/08/09 16:00
LFYR 091600Z AUTO VRB04KT //// // ///////// 29/08 Q1015

2010/08/09 16:00
SBTF 091600Z 30003KT 9999 SCT020 BKN100 31/25 Q1014

2010/08/09 15:50
LGKF 091550Z 32016KT 9999 FEW020 29/18 Q1009

2010/08/09 15:50
LGKP 091550Z 32025KT 9999 FEW012 29/25 Q1004

2010/08/09 15:50
LGKZ 091550Z 00000KT 9999 SCT070 30/13 Q1013

2010/08/09 15:50
LGMK 091550Z 36019KT CAVOK 28/19 Q1007

2010/08/09 15:50
LGPA 091550Z 01020KT CAVOK 30/21 Q1007

2010/08/09 15:50
LGSO 091550Z 01015KT CAVOK 29/21 Q1008

2010/08/09 16:00
SBSJ 091600Z 24016KT CAVOK 20/13 Q1023

2010/08/09 15:50
LGLM 091550Z 34006KT CAVOK 31/18 Q1008

2010/08/09 15:50
LGAL 091550Z 24008KT 9999 FEW025 33/20 Q1008

2010/08/09 16:00
YPXM 091600Z AUTO 09007KT 9999NDV // BKN013 24/21 Q////

2010/08/09 16:00
LBSF 091600Z 01003MPS 340V040 9999 FEW060 28/17 Q1015 NOSIG

2010/08/09 16:00
LBWN 091600Z 34005MPS 310V010 CAVOK 29/22 Q1010 NOSIG

2010/08/09 16:00
LBBG 091600Z 35006MPS CAVOK 30/21 Q1010 NOSIG

2010/08/09 16:00
LBPD 091600Z VRB01MPS 9999 FEW050 SCT090 31/18 Q1011 NOSIG

2010/08/09 16:00
LBGO 091600Z VRB01MPS CAVOK 29/19 Q1012 NOSIG

2010/08/09 16:00
SAWE 091600Z 27033KT 9999 FEW011 03/M02 Q0997

2010/08/09 16:04
CYFC 091604Z AUTO 18010KT 6SM -RA BR OVC014 20/19 A2990 RMK SLP128 DENSITY ALT 600FT RVR MISG

2010/08/09 16:00
UTTT 091600Z 03002MPS CAVOK 31/04 Q1005 R08R/CLRD70 TEMPO 03005G10MPS

2010/08/09 15:50
LGHI 091550Z 02011KT 330V070 CAVOK 31/21 Q1006

2010/08/09 16:00
MNRS 091600Z 00000KT 9999 FEW015CB BKN070 27/26 Q1012 CB/4C

2010/08/09 16:00
MNJG 091600Z 00000KT 1000 DZ BKN016 23/19 Q1013

2010/08/09 16:00
MNJU 091600Z 06004KT 9999 FEW020 SCT080 29/25 Q1012 REDZ

2010/08/09 16:00
MNCH 091600Z 00000KT 9999 FEW025 SCT300 30/24 Q1012 MNBL 091600Z 08004KT 5000 TSRA SCT016CB SCT070 27/26 Q1013 CB/N/NE/W/NW

2010/08/09 16:00
SAVC 091600Z 27025G35KT CAVOK 15/M00 Q1015

2010/08/09 16:00
LUKK 091600Z 31009KT 9999 SCT050 27/19 Q1012 08CLRD65 NOSIG

2010/08/09 16:00
LUBL 091600Z 33005KT 9999 SCT050 25/18 Q1013 RWY33

2010/08/09 15:50
LGZA 091550Z 14006KT CAVOK 30/21 Q1009

2010/08/09 16:00
MPMG 091600Z 00000KT 9999 SCT015CB BKN090 29/24 Q1014 RWY DAMP NOSIG

2010/08/09 16:00
MPCH 091600Z 00000KT 9999 FEW020 SCT100 BKN300 Q1014

2010/08/09 16:00
MPDA 091600Z 09004KT 9999 SCT012 BKN300 29/24 Q1012

2010/08/09 16:00
MPHO 091600Z 00000KT 9999 FEW010 SCT018TCU BKN090 Q1014

2010/08/09 15:50
ENLK 091550Z 03012KT 9999 FEW015 SCT020 13/09 Q1013

2010/08/09 16:00
SASJ 091600Z 07010KT 8000 NSC 16/02 Q1022

2010/08/09 16:00
YSDU 091600Z AUTO 12009KT 9999NDV // SCT032 BKN039 OVC045 10/09 Q1016

2010/08/09 16:00
SAAR 091600Z 05007KT 8000 NSC 15/04 Q1025

2010/08/09 16:00
SACO 091600Z 05013KT CAVOK 16/02 Q1026

2010/08/09 16:00
SAEZ 091600Z VRB01KT CAVOK 17/07 Q1025

2010/08/09 16:00
SAME 091600Z 14002KT CAVOK 14/M06 Q1022

2010/08/09 16:00
SANT 091600Z 09005KT 6000 BKN200 16/04 Q1023

2010/08/09 16:00
SARE 091600Z 14013KT 9999 FEW025 SCT200 17/06 Q1024

2010/08/09 16:00
SARF 091600Z 16011KT 9999 FEW018 17/09 Q1023

2010/08/09 16:00
SARI 091600Z 00000KT CAVOK 19/14 Q1022

2010/08/09 16:00
SARP 091600Z 09007KT 9999 FEW020 SCT200 17/09 Q1022

2010/08/09 16:00
SASA 091600Z 07004KT CAVOK 15/02 Q1023

2010/08/09 16:00
SASJ 091600Z 07010KT 8000 NSC 16/02 Q1022

2010/08/09 16:00
SAVC 091600Z 27025G35KT CAVOK 15/M00 Q1015

2010/08/09 16:00
SAWE 091600Z 27033KT 9999 FEW011 03/M02 Q0997

2010/08/09 16:00
SAWG 091600Z 23032G46KT 9999 FEW030 08/00 Q1004

2010/08/09 16:00
SAZM 091600Z 29006KT CAVOK 15/02 Q1024

2010/08/09 16:00
SAZN 091600Z 27005KT CAVOK 10/M00 Q1024

2010/08/09 16:00
SAZS 091600Z 00000KT 9999 SCT010 SCT026 02/M01 Q1024

2010/08/09 16:00
YAMB 091600Z AUTO 16003KT 1000NDV // SCT082 13/13 Q1021

2010/08/09 16:03
KCQT 091603Z AUTO 00000KT 5SM HZ OVC011 18/13 A2992 RMK AO2 TSNO $ 

2010/08/09 16:00
OIAW 091600Z 18004KT CAVOK 42/12 Q0995 A2941

2010/08/09 16:00
OIFM 091600Z 04004KT 9999 FEW040 30/M01 Q1015 A2998

2010/08/09 16:00
OIKB 091600Z 10006KT CAVOK 33/27 Q0996 A2944

2010/08/09 16:00
OIKK 091600Z 35006KT CAVOK 27/M01 Q1015 A2997

2010/08/09 16:00
OIMM 091600Z 36010KT CAVOK 30/M01 Q1013 A2992

2010/08/09 16:00
OISS 091600Z 09004KT CAVOK 32/M09 Q1011 A2988

2010/08/09 16:00
OITT 091600Z 05018KT 9999 FEW040TCU FEW045CB 30/08 Q1014 A2995

2010/08/09 15:51
MMRX 091551Z 17015KT 8SM BKN025 32/26 A2993 RMK 8/500 HZY

2010/08/09 15:49
MMCV 091549Z 18010KT 8SM SCT020 31/23 A2995 RMK 8/500 HZY

2010/08/09 15:48
MMGL 091548Z 04003KT 6SM BKN020TCU BKN300 22/18 A3018 RMK 8/208 SC-AC

2010/08/09 15:46
MMSP 091546Z 00000KT 12SM SCT020 24/15 A3027 RMK 8/100 AC

2010/08/09 15:45
MMMZ 091545Z 06004KT 15SM FEW025 BKN080 OVC220 26/22 A2985 RMK 8/463 DSNT CB NW

2010/08/09 15:45
MMHO 091545Z 00000KT 10SM SKC 31/23 A2983 RMK HZY

2010/08/09 15:48
MMTM 091548Z 27005KT 7SM SCT010 BKN080 BKN200 27/23 A2992 RMK 8/172 HZY

2010/08/09 16:00
OEDF 091600Z 07009KT 6000 SKC 37/19 Q0996 NOSIG

2010/08/09 16:00
OEDR 091600Z 09006KT 4000 HZ NSC 37/26 Q0995 NOSIG

2010/08/09 16:00
OEMA 091600Z 02006KT 9000 SCT045 SCT100 43/M03 Q1003 NOSIG

2010/08/09 16:00
OERK 091600Z 04010KT 8000 SKC 40/02 Q1003 NOSIG

2010/08/09 16:00
OERY 091600Z 06011KT CAVOK 41/03 Q1003 NOSIG

2010/08/09 16:00
LHBP 091600Z 30005KT 260V330 9999 FEW048 25/13 Q1016 NOSIG

2010/08/09 16:00
SBCP 091600Z 16006KT CAVOK 33/15 Q1015

2010/08/09 16:00
FBFT 091600Z 15003KT CAVOK 25/11 Q1020

2010/08/09 16:00
FBKE 091600Z 16006KT CAVOK 26/03 Q1019

2010/08/09 16:00
FBMN 091600Z 18008KT CAVOK 27/01 Q1020

2010/08/09 16:00
FBSK 091600Z 21008KT CAVOK 18/02 Q1023 NOSIG

2010/08/09 16:00
FYGB 091600Z AUTO 13006KT //// // ////// 18/M05 Q1026

2010/08/09 16:00
FYGF 091600Z AUTO 13009KT //// // ////// 26/M04 Q1022

2010/08/09 16:00
FYKT 091600Z AUTO 12005KT //// // ////// 17/M09 Q1028

2010/08/09 16:00
FYLZ 091600Z 19017G28KT 160V220 //// VV/// 20/01 Q1021 

2010/08/09 16:00
FYML 091600Z AUTO 15006KT //// // ////// ///// Q1029

2010/08/09 16:00
FYOA 091600Z AUTO 10006KT //// // ////// 30/M04 Q1017

2010/08/09 16:00
FYOJ 091600Z AUTO 11007KT //// // ////// 28/M05 Q1018

2010/08/09 16:00
FYOW 091600Z AUTO 11009KT //// // ////// 26/M07 Q1021

2010/08/09 16:00
FYWB 091600Z 27006KT 4200 VV/// 21/08 Q1013 

2010/08/09 16:00
FYWH 091600Z AUTO 12011KT //// // ////// 18/M06 Q1027

2010/08/09 16:00
FYWW 091600Z 11007KT CAVOK 17/M10 Q1025

2010/08/09 16:00
FABL 091600Z 22013KT CAVOK 08/M12 Q1026 NOSIG

2010/08/09 16:00
FACT 091600Z 15005KT 9999 SCT036 11/08 Q1033 NOSIG

2010/08/09 16:00
FAEL 091600Z 24018KT 9999 FEW025 14/00 Q1024

2010/08/09 16:00
FAGG 091600Z 28014KT 9999 BKN050 10/07 Q1030

2010/08/09 16:00
FAJS 091600Z 21014KT CAVOK 11/M10 Q1025 NOSIG

2010/08/09 16:00
FAKN 091600Z 12008KT 8000 NSC 21/09 Q1019 NOSIG

2010/08/09 16:00
FALA 091600Z 21010KT 180V240 CAVOK 13/M10 Q1025 NOSIG

2010/08/09 16:00
FALE 091600Z 30005KT 7000 TSRA BKN020 FEW030CB OVC045 13/09 Q1022 TEMPO 5000

2010/08/09 16:00
FAMM 091600Z 19011KT CAVOK 14/M12 Q1025 NOSIG

2010/08/09 16:00
FAPE 091600Z 24031G44KT 5000 SHRA OVC036 09/08 Q1026 BECMG 7000

2010/08/09 16:00
FAPN 091600Z AUTO 22006KT //// // ////// 18/M11 Q1022

2010/08/09 16:00
FAPP 091600Z 22007KT 8000 NSC 23/M00 Q1020 NOSIG

2010/08/09 16:00
FAUP 091600Z 16010KT CAVOK 12/M08 Q1029 NOSIG

2010/08/09 16:03
YSDU 091603Z AUTO 11009KT 9999NDV // SCT034 BKN041 OVC051 10/09 Q1016

2010/08/09 15:50
HLLB 091550Z 33022KT 9999 SCT020 27/18 Q1013

2010/08/09 16:00
RJAA 091600Z 15005KT 9999 FEW020 SCT140 23/22 Q1016 NOSIG

2010/08/09 16:00
RJBB 091600Z 16009KT 9999 FEW001 SCT040 27/24 Q1013 NOSIG

2010/08/09 16:00
RJCC 091600Z 16004KT 1600 BR SCT001 BKN002 21/20 Q1015

2010/08/09 16:00
RJFS 091600Z VRB06KT 9999 FEW035 SCT060 BKN170 27/24 Q1010

2010/08/09 16:00
RJFF 091600Z 15009KT 9999 FEW030 SCT130 BKN150 26/23 Q1010

2010/08/09 16:00
RJFR 091600Z 11007KT 9999 FEW010 BKN180 27/24 Q1011

2010/08/09 16:00
RJGG 091600Z 12010KT 9999 VCSH FEW008 SCT040 BKN100 26/25 Q1014 NOSIG

2010/08/09 16:00
RJOH 091600Z 17008KT 9999 FEW020 SCT050 BKN080 29/23 Q1011

2010/08/09 16:00
RJTT 091600Z 18008KT 9999 FEW012 SCT060 26/23 Q1015

2010/08/09 16:00
ROAH 091600Z 18025KT 9999 -RA SCT015 BKN025 BKN050 28/26 Q1006

2010/08/09 16:00
RJAH 091600Z 21004KT 9999 FEW020 BKN150 25/24 Q1015

2010/08/09 16:03
YSDU 091603Z AUTO 11009KT 9999NDV // SCT034 BKN041 OVC051 10/09 Q1016

2010/08/09 16:00
ZBAA 091600Z 09001MPS 2000 BR SKC 26/24 Q1006 NOSIG

2010/08/09 16:00
ZBSJ 091600Z 00000MPS 1500 BR NSC 26/24 Q1006 NOSIG

2010/08/09 16:00
ZBTJ 091600Z 03001MPS 2500 BR NSC 26/24 Q1006 NOSIG

2010/08/09 16:00
ZBYN 091600Z 09002MPS 060V120 3000 -RA BR BKN040 24/20 Q1009 NOSIG

2010/08/09 16:00
ZGGG 091600Z 14002MPS 9999 FEW046 30/26 Q1006 NOSIG

2010/08/09 16:00
ZSHC 091600Z 07002MPS CAVOK 28/25 Q1004

2010/08/09 16:00
ZSPD 091600Z 05005MPS 360V070 9999 BKN011 28/26 Q1003 NOSIG

2010/08/09 16:00
ZSSS 091600Z 07002MPS 040V100 9999 SCT020 29/26 Q1003 NOSIG

2010/08/09 16:00
ZWSH 091600Z 07002MPS CAVOK 29/08 Q1009 NOSIG

2010/08/09 16:00
ZWWW 091600Z 28004MPS 250V340 CAVOK 27/08 Q1008 NOSIG

2010/08/09 16:00
ZYTL 091600Z VRB01MPS 6000 BKN040 24/22 Q1007 NOSIG

2010/08/09 16:00
ZYTX 091600Z 10001MPS 9999 OVC030 22/21 Q1007 NOSIG

2010/08/09 16:00
LFBA 091600Z AUTO 30007KT 280V340 9999NDV BKN036 OVC043 23/16 Q1018

2010/08/09 16:00
LFBE 091600Z AUTO 26007KT 9999NDV BKN028 OVC033 22/17 Q1018

2010/08/09 16:00
LFGJ 091600Z AUTO 28006KT 240V310 9999NDV NSC 27/09 Q1016

2010/08/09 16:00
LFJR 091600Z AUTO 27006KT 240V340 9999NDV NSC 29/10 Q1015

2010/08/09 16:00
LFMD 091600Z AUTO 16004KT 130V190 9999NDV FEW017 OVC032 25/20 Q1015

2010/08/09 16:00
LFMH 091600Z 33007KT 290V010 9999 FEW043 28/12 Q1016 TEMPO SHRA

2010/08/09 16:00
LFOT 091600Z AUTO VRB03KT 9999NDV NSC 29/09 Q1015

2010/08/09 16:00
LFPN 091600Z 22006KT 100V270 CAVOK 27/10 Q1015 NOSIG

2010/08/09 16:00
LFRC 091600Z AUTO 22012KT 180V250 9999NDV NSC 21/11 Q1017

2010/08/09 16:00
LFRG 091600Z AUTO 34006KT 300V020 9999NDV NSC 20/12 Q1017

2010/08/09 16:00
LFRK 091600Z 36005KT 290V050 CAVOK 22/12 Q1016 NOSIG

2010/08/09 16:00
WMBA 091600Z 00000KT 9999 FEW032 SCT140 BKN280 26/25 Q1009

2010/08/09 16:00
WMKA 091600Z 01003KT 9999 FEW030 SCT150 BKN280 27/25 Q1009

2010/08/09 16:00
WMKB 091600Z 20002KT 9000 FEW025 SCT140 BKN270 29/27 Q1008 NOSIG

2010/08/09 16:00
WMKC 091600Z 00000KT 9999 FEW017CB SCT140 BKN220 28/26 Q1009

2010/08/09 16:00
WMKD 091600Z 21004KT 9999 FEW025 SCT160 BKN280 27/25 Q1009 NOSIG

2010/08/09 16:00
WMKI 091600Z 06002KT 9999 FEW027 SCT140 BKN280 26/23 Q1010

2010/08/09 16:00
WMKL 091600Z 03003KT 9999 FEW028 BKN280 27/26 Q1009

2010/08/09 16:00
WMKM 091600Z 02003KT 9999 FEW030 SCT140 BKN280 26/25 Q1010

2010/08/09 16:00
WMKN 091600Z 21003KT 9999 SCT024 OVC220 28/26 Q1009

2010/08/09 16:00
UGTB 091600Z 08012KT 9999 SCT066 SCT100 31/12 Q1013 NOSIG RMK 13CLRD80

2010/08/09 16:00
UGKO 091600Z 27006KT 9999 SCT050 SCT100 29/22 Q1008 NOSIG

2010/08/09 16:00
UGSB 091600Z 00000KT 9999 FEW023 BKN070 30/24 Q1006 NNOSIG

2010/08/09 16:00
LFLL 091600Z 36007KT 330V040 CAVOK 29/12 Q1015 NOSIG

2010/08/09 16:00
LFMN 091600Z 12003KT 090V160 9999 FEW020 SCT038 BKN053 25/20 Q1016 NOSIG

2010/08/09 16:00
LFPG 091600Z 16003KT 090V230 CAVOK 26/10 Q1015 NOSIG

2010/08/09 16:00
LFPO 091600Z 29006KT 240V360 CAVOK 27/10 Q1015 NOSIG

2010/08/09 16:00
LFQQ 091600Z 27006KT 230V310 CAVOK 24/12 Q1015 NOSIG

2010/08/09 16:00
LFRB 091600Z 23011KT 200V260 9999 OVC007 17/15 Q1018

2010/08/09 16:00
LFRS 091600Z 25010KT 220V310 CAVOK 26/12 Q1016 NOSIG

2010/08/09 16:00
LFMI 091600Z AUTO 20013KT 9999NDV NSC 26/20 Q1014

2010/08/09 16:00
LFMK 091600Z AUTO 28014KT 250V310 9999NDV OVC052 27/16 Q1017

2010/08/09 16:00
LFRD 091600Z AUTO 35007KT 320V030 9999NDV NSC 22/11 Q1017

2010/08/09 16:00
LFRN 091600Z AUTO 33008KT 270V010 9999NDV NSC 26/09 Q1016

2010/08/09 16:00
LFRO 091600Z AUTO 26011KT 9999NDV BKN032 OVC041 19/16 Q1017

2010/08/09 16:00
LFRZ 091600Z AUTO 28013KT 250V310 9999NDV NSC 23/11 Q1017

2010/08/09 16:00
LFSB 091600Z 33004KT 250V020 CAVOK 26/11 Q1016 NOSIG

2010/08/09 16:00
LFST 091600Z 02004KT 340V070 9999 FEW053 25/12 Q1016 NOSIG

2010/08/09 16:00
LFTH 091600Z 16007KT 8000 SCT010 BKN016 25/21 Q1015 NOSIG

2010/08/09 16:00
LEAS 091600Z 05006KT 010V100 9999 FEW015 SCT019 21/17 Q1020 NOSIG

2010/08/09 16:00
LEBB 091600Z 35008KT 310V020 9999 SCT035 BKN055 24/18 Q1020 NOSIG

2010/08/09 16:00
LECO 091600Z 36010KT 330V030 CAVOK 24/17 Q1018

2010/08/09 16:00
LEGE 091600Z 10011KT 7000 3000NW -SHRA TS FEW018 SCT030CB 23/20 Q1016

2010/08/09 16:00
LEST 091600Z 03008KT 330V080 CAVOK 27/15 Q1018 NOSIG

2010/08/09 16:00
LEZG 091600Z 30012KT 9999 FEW040 32/17 Q1015

2010/08/09 16:00
LESO 091600Z VRB04KT 9999 FEW026 BKN055 22/17 Q1020

2010/08/09 16:00
LEVT 091600Z 02008KT 340V060 9999 FEW020 SCT030 22/15 Q1020

2010/08/09 16:00
LERS 091600Z 22007KT 170V250 9999 FEW025TCU 29/16 Q1014

2010/08/09 16:00
LEMH 091600Z 17005KT 110V210 CAVOK 28/15 Q1016

2010/08/09 16:00
LEAM 091600Z 23008KT 9999 FEW010 27/23 Q1014

2010/08/09 16:00
LEGR 091600Z VRB02KT 9999 FEW090 37/09 Q1016

2010/08/09 16:00
LERL 091600Z 17003KT 120V250 9999 SCT060TCU 32/11 Q1018

2010/08/09 16:00
LFAQ 091600Z AUTO 27003KT 220V310 9999NDV NSC 24/11 Q1016

2010/08/09 16:00
LFBU 091600Z AUTO 26011KT 220V290 9999NDV FEW040 26/13 Q1017

2010/08/09 16:00
LFLN 091600Z AUTO VRB04KT 9999NDV NSC 27/14 Q1016

2010/08/09 16:00
LFPM 091600Z AUTO VRB02KT 9999NDV NSC 27/10 Q1015

2010/08/09 16:00
LFRH 091600Z 27017KT CAVOK 20/14 Q1018

2010/08/09 16:00
LFRQ 091600Z AUTO 26009KT 210V300 9999NDV BKN013 OVC029 18/15 Q1018

2010/08/09 16:00
LFRT 091600Z AUTO 05008KT 9999NDV FEW047 19/13 Q1017

2010/08/09 16:00
LFSD 091600Z AUTO 19004KT 9999NDV NSC 26/10 Q1016

2010/08/09 16:00
LFTW 091600Z AUTO 19007KT 150V220 9999NDV NSC 29/18 Q1014

2010/08/09 16:00
RKSI 091600Z 06004KT 9999 SCT040 BKN120 27/22 Q1009 NOSIG

2010/08/09 16:00
RKSS 091600Z 36001KT CAVOK 26/22 Q1009 NOSIG 

2010/08/09 16:00
RKPC 091600Z 14008KT 100V190 7000 BKN030 BKN110 29/24 Q1007 TEMPO SHRA 

2010/08/09 16:00
RKJB 091600Z AUTO 13006KT3000NDV ///082 ///088 27/24 Q1009 

2010/08/09 16:00
RKNY 091600Z AUTO 20003KT3000NDV NCD 23/21 Q1008 

2010/08/09 16:00
LFBH 091600Z AUTO 29018KT 9999NDV NSC 21/13 Q1018

2010/08/09 16:00
LFBI 091600Z 28007KT 240V320 CAVOK 28/12 Q1016 NOSIG

2010/08/09 16:00
LFBL 091600Z 25005KT 210V290 CAVOK 24/14 Q1018 NOSIG

2010/08/09 16:00
LFBO 091600Z 28012KT 9999 SCT033 BKN040 25/16 Q1018 NOSIG

2010/08/09 16:00
LFBP 091600Z 22005KT 190V270 9999 BKN031 21/18 Q1019 NOSIG

2010/08/09 16:00
LFBT 091600Z 28005KT 260V330 8000 SCT006 BKN015 18/16 Q1020 NOSIG

2010/08/09 15:52
LFBZ 091552Z 28007KT 240V310 9999 SCT018 BKN039 23/17 Q1020 NOSIG

2010/08/09 16:00
LFLB 091600Z 35005KT 310V020 9999 FEW066 29/17 Q1015 NOSIG

2010/08/09 16:00
LFLX 091600Z AUTO 21003KT 180V240 9999NDV NSC 28/09 Q1015

2010/08/09 16:00
LFML 091600Z 19012KT 9999 FEW016 SCT140 27/19 Q1014 NOSIG

2010/08/09 16:00
YSDU 091600Z AUTO 12009KT 9999NDV // SCT032 BKN039 OVC045 10/09 Q1016

2010/08/09 16:00
UKBB 091600Z 25005MPS 220V290 9999 FEW033CB 31/15 Q1013 RETS 88290095 NOSIG

2010/08/09 16:00
UKHH 091600Z 10002MPS CAVOK 35/10 Q1013 080///65 NOSIG

2010/08/09 16:00
UKOO 091600Z VRB02MPS CAVOK 33/18 Q1011 16090070 NOSIG

2010/08/09 16:00
UKDE 091600Z 05003MPS CAVOK 36/13 Q1011 02CLRD70 NOSIG

2010/08/09 16:00
UKDD 091600Z 07003MPS CAVOK 32/12 Q1012 08090070 NOSIG

2010/08/09 16:00
UKFF 091600Z 07004MPS CAVOK 33/10 Q1010 01010070 NOSIG

2010/08/09 16:00
UKLL 091600Z 09004MPS 9999 BKN033 24/17 Q1016 13090070 NOSIG

2010/08/09 16:00
UKCC 091600Z VRB02MPS CAVOK 34/08 Q1012 08090070 NOSIG

2010/08/09 16:00
UKDR 091600Z 13002MPS 9999 FEW033 35/10 Q1011 1809//70 NOSIG

2010/08/09 16:00
LATI 091600Z 35010KT CAVOK 28/23 Q1012 NOSIG

2010/08/09 16:00
LFKB 091600Z VRB03KT 9999 FEW025 BKN200 26/20 Q1015 NOSIG

2010/08/09 16:00
LFKC 091600Z 05008KT 360V100 9999 FEW018 SCT250 27/19 Q1015 NOSIG

2010/08/09 16:00
LFKF 091600Z 22007KT 180V250 9999 FEW080 SCT170 BKN260 27/13 Q1015 NOSIG

2010/08/09 16:00
LFKJ 091600Z 28004KT 9999 FEW023 SCT150 BKN220 26/17 Q1016 NOSIG

2010/08/09 16:00
LFLC 091600Z 03006KT 360V060 9999 FEW060 28/15 Q1015 NOSIG

2010/08/09 16:00
LFMP 091600Z 20006KT 130V230 9999 FEW050 FEW060CB BKN150 28/16 Q1015 NOSIG

2010/08/09 16:00
LFMV 091600Z AUTO VRB04KT 9999NDV NSC 32/16 Q1013

2010/08/09 16:00
LFSL 091600Z AUTO 25007KT 220V280 9999NDV NSC 23/14 Q1018

2010/08/09 16:00
LFCR 091600Z AUTO 25010KT 9999NDV FEW047 24/16 Q1018

2010/08/09 16:00
LFJL 091600Z AUTO 30004KT 240V360 9999NDV NSC 24/07 Q1016

2010/08/09 16:00
LFLP 091600Z AUTO 22010KT 9999NDV NSC 28/10 Q1016

2010/08/09 16:00
LFLS 091600Z 33006KT 300V360 9999 FEW060 30/10 Q1015 NOSIG

2010/08/09 16:00
LFLY 091600Z AUTO 01006KT 340V050 9999NDV NSC 30/12 Q1015

2010/08/09 16:00
LFMT 091600Z 18009KT CAVOK 25/20 Q1014 NOSIG

2010/08/09 16:00
LFMU 091600Z AUTO 17012KT 9999NDV NSC 27/17 Q1014

2010/08/09 16:00
LFOB 091600Z 28008KT 250V320 CAVOK 25/10 Q1015 NOSIG

2010/08/09 16:00
LFOH 091600Z AUTO 35006KT 320V020 9999NDV NSC 20/10 Q1017

2010/08/09 16:00
LFOK 091600Z AUTO 00000KT 9999NDV NSC 26/09 Q1016

2010/08/09 16:00
LFOP 091600Z 29009KT 260V330 CAVOK 25/13 Q1016 NOSIG

2010/08/09 16:00
LFPB 091600Z 33003KT 250V020 CAVOK 26/11 Q1015 NOSIG

2010/08/09 16:00
LFSN 091600Z 01005KT 340V040 CAVOK 24/10 Q1016 NOSIG

2010/08/09 16:00
LRBS 091600Z VRB02KT CAVOK 31/19 Q1012 NOSIG

2010/08/09 16:00
LRCK 091600Z 02008KT 360V060 CAVOK 32/19 Q1011 NOSIG

2010/08/09 16:00
LROP 091600Z 36004KT 340V040 CAVOK 31/19 Q1012 880///95 NOSIG

2010/08/09 16:00
LRSB 091600Z VRB02KT 9999 BKN037 24/18 Q1016

2010/08/09 16:00
LRTR 091600Z 32005KT CAVOK 27/16 Q1015 NOSIG

2010/08/09 16:03
KAST 091603Z AUTO 27004KT 4SM -RA BR BKN009 OVC015 14/12 A3000

2010/08/09 16:00
ZGKL 091600Z 29001MPS 4000 BR SKC 28/26 Q1005 NOSIG

2010/08/09 16:00
ZGNN 091600Z VRB01MPS 9999 FEW023 28/25 Q1005 NOSIG

2010/08/09 16:00
ZGOW 091600Z 00000MPS CAVOK 28/25 Q1006 NOSIG

2010/08/09 16:00
ZGSZ 091600Z VRB01MPS CAVOK 29/24 Q1005 NOSIG

2010/08/09 16:00
ZLXY 091600Z 05006MPS 5000 HZ OVC080 29/22 Q1004 NOSIG

2010/08/09 16:00
ZMUB 091600Z 00000MPS CAVOK 11/00 Q1008 NOSIG RMK QFE649.8 48

2010/08/09 16:00
ZPPP 091600Z 18003MPS 9999 FEW026 21/16 Q1017 NOSIG

2010/08/09 16:00
ZSAM 091600Z 26002MPS CAVOK 30/22 Q1005 NOSIG

2010/08/09 16:00
ZSFZ 091600Z 24002MPS 210V270 CAVOK 29/21 Q1004 NOSIG

2010/08/09 16:00
ZSNB 091600Z 34002MPS 9999 FEW026 28/25 Q1002 NOSIG

2010/08/09 16:00
ZSQD 091600Z 15004MPS 9999 FEW015 26/23 Q1006 NOSIG

2010/08/09 16:00
ZUUU 091600Z 33001MPS 4000 BR SCT030 28/24 Q1004 NOSIG

2010/08/09 15:50
EGXP 091550Z 23016KT 9999 BKN042 22/13 Q1010 BLU

2010/08/09 16:00
BIKF 091600Z 30009KT 9999 BKN006 12/08 Q1013

2010/08/09 16:00
LUKK 091600Z 31009KT 9999 SCT050 27/19 Q1012 08CLRD65 NOSIG

2010/08/09 16:00
UHHH 091600Z METAR 06002MPS 9999 FEW033CB OVC100 21/21 Q1008 NOSIG

2010/08/09 16:00
UKBB 091600Z 25005MPS 220V290 9999 FEW033CB 31/15 Q1013 RETS 88290095 NOSIG

2010/08/09 16:00
UKFF 091600Z 07004MPS CAVOK 33/10 Q1010 01010070 NOSIG

2010/08/09 16:00
UKLL 091600Z 09004MPS 9999 BKN033 24/17 Q1016 13090070 NOSIG

2010/08/09 16:00
UKOO 091600Z VRB02MPS CAVOK 33/18 Q1011 16090070 NOSIG

2010/08/09 16:00
UTTT 091600Z 03002MPS CAVOK 31/04 Q1005 R08R/CLRD70 TEMPO 03005G10MPS

2010/08/09 15:56
KHLR 091556Z AUTO 16009KT 10SM CLR 33/21 A2999 RMK AO2 SLP143 T03330211 $

2010/08/09 15:59
NSTU 091559Z 10014KT 10SM SCT017 BKN040 27/25 A2994 RMK SLP139 T02720247

2010/08/09 15:56
PHNY 091556Z AUTO 04008KT 10SM CLR 18/17 A3012 RMK AO2 TSNO T01830166 SLP180 $

2010/08/09 15:55
PTKK 091555Z VRB04KT 15SM SCT014CB BKN120 OVC280 25/24 A2983 RMK CB ALQDS SLP105 T02480235

2010/08/09 16:00
RJSM 091600Z VRB02KT 4000 BR FEW001 SCT003 BKN/// 23/22 Q1014 RMK 2ST001 3ST003 A2995 VIS SE-SW 2000M

2010/08/09 16:00
RJTT 091600Z 18008KT 9999 FEW012 SCT060 26/23 Q1015 RMK 1CU012 3SC060 A2999

2010/08/09 15:55
KEGI 091555Z 08007KT 10SM SCT030 32/25 A2998 RMK AO2A SLP152 T03220246 $

2010/08/09 16:00
KNEL 091600Z AUTO VRB04KT 9SM CLR 32/16 A3002 RMK AO2 SLP163 T03170161 $

2010/08/09 15:56
KNFL 091556Z VRB06KT 10SM FEW220 24/06 A2998 RMK AO2 SLP125 T02390056

2010/08/09 15:59
KNGU 091559Z 05005KT 7SM FEW030 BKN250 30/23 A3006 RMK AO2 SLP180 T03000228

2010/08/09 15:56
KNSE 091556Z VRB03KT 8SM SCT025 32/24 A2999 RMK AO2 SLP138 T03170239 $

2010/08/09 15:56
KNUW 091556Z 21007KT 6SM BR BKN006 OVC020 14/11 A2996 RMK AO2 SLP149 T01360114 $

2010/08/09 15:56
KNXP 091556Z 34004KT 7SM CLR 26/M02 A2999 RMK AO2 SLP118 T02561022 $

2010/08/09 15:55
KNYL 091555Z 02003KT 10SM FEW080 31/02 A2980 RMK AO2 SLP089 T03110017

2010/08/09 15:56
KOSC 091556Z AUTO 36010KT 7SM BKN014 BKN028 BKN043 24/22 A2991 RMK AO2

2010/08/09 15:55
KRCA 091555Z 18013KT 10SM SCT150 28/17 A2996 RMK AO2A SLP115 T02800172

2010/08/09 16:00
SBBR 091600Z 11007KT CAVOK 29/M03 Q1023

2010/08/09 15:55
KGRK 091555Z 17009KT 7SM FEW040 34/21 A2997 RMK SLP123

2010/08/09 15:55
KHRT 091555Z 08010KT 10SM FEW030 FEW250 32/25 A2996 RMK AO2A SLP148 T03150254 $

2010/08/09 15:57
KNJM 091557Z AUTO 12006KT 10SM CLR 28/25 A3005 RMK AO2 SLP179 T02830250

2010/08/09 15:57
KNJM 091557Z AUTO 12006KT 10SM CLR 28/25 A3005 RMK AO2 SLP179 T02830250

2010/08/09 15:55
KSVN 091555Z 07011G18KT 12SM 32/22 A3001 RMK AO2A SLP160

2010/08/09 16:00
SLCO 091600Z 15005KT 6000 SKC 33/21 Q1016

2010/08/09 16:00
SLRY 091600Z 16012KT 5000 FU SKC 28/16 Q1020

2010/08/09 16:00
SLRQ 091600Z 12006KT 8000 29/20 Q1019

2010/08/09 16:00
SLOR 091600Z 34005KT 9999 SKC 14/M09 Q1038

2010/08/09 16:00
SLRI 091600Z 17008KT 5000 FU SKC 33/19 Q1016

2010/08/09 16:00
SLJO 091600Z 14007KT 7000 SKC 29/16 Q1018

2010/08/09 16:00
SLMG 091600Z 16008KT 7000 SKC 29/15 Q1019

2010/08/09 16:00
SLSA 091600Z 14008KT 6000 SKC 29/12 Q1017

2010/08/09 16:00
SLSU 091600Z 04006KT 9999 FEW017 14/08 Q1031

2010/08/09 16:00
SLPO 091600Z 24005KT 9999 SKC 14/M08 Q1040

2010/08/09 16:00
SLVM 091600Z 00000KT 9999 SKC 22/17 Q1021

2010/08/09 16:00
SLTJ 091600Z 19007KT 9999 NSC 15/05 Q1024

2010/08/09 16:00
SLYA 091600Z 00000KT 9999 SKC 20/10 Q1026

2010/08/09 16:00
SLET 091600Z 17015G25KT 9999 NSC 23/06 Q1021

2010/08/09 16:00
SLCP 091600Z 18010KT 9999 SKC 24/11 Q1021

2010/08/09 16:00
SLSI 091600Z 18010KT 9999 SKC 26/13 Q1020

2010/08/09 16:00
SLJE 091600Z 19004KT 8000 SKC 28/12 Q1022

2010/08/09 16:00
SLRB 091600Z 00000KT 7000 SKC 23/15 Q1022

2010/08/09 16:00
SLPS 091600Z 26008KT 7000 SKC 26/09 Q1017

2010/08/09 16:00
SLCA 091600Z 00000KT 9999 SKC 18/06 Q1024

2010/08/09 16:03
KAST 091603Z AUTO 27004KT 4SM -RA BR BKN009 OVC015 14/12 A3000

2010/08/09 16:00
TDPD 091600Z 10011KT 9999 SCT019 SCT270 30/23 Q1015

2010/08/09 16:00
OIAA 091600Z 18004KT CAVOK 39/17 Q0996

2010/08/09 16:00
OIBK 091600Z 29004KT 7000 NSC 34/27 Q0996 A2944

2010/08/09 16:00
OICC 091600Z 09004KT 9999 SCT045 32/M06 Q1011 A2987 863.3

2010/08/09 16:00
OIGG 091600Z 00000KT CAVOK 28/22 Q1008 A2978

2010/08/09 16:00
OIIE 091600Z 05006KT CAVOK 33/M01 Q1010 A2984

2010/08/09 16:00
OITR 091600Z 33004KT 9999 FEW035CB SCT040 31/12 Q1011 A2988

2010/08/09 16:00
OIYY 091600Z 04004KT CAVOK 32/M05 Q1012 A2991

2010/08/09 15:59
KDOV 091559Z AUTO 00000KT 10SM -RA CLR 30/23 A3003 RMK AO2 RAB1559 SLP169

2010/08/09 15:59
KHST 091559Z 15006KT 1 3/4SM +RA BR SCT002 OVC016 25/24 A2998 RMK AO2A VIS 1 RWY23 SLP153

2010/08/09 15:57
CYCX 091557Z 17005KT 3SM -SHRA BR FEW008 BKN020 OVC040 RMK SF1ST6SC2

2010/08/09 16:02
CYOY 091602Z AUTO 22007KT 170V250 9SM BKN013 BKN038 BKN070 22/17 A2989

2010/08/09 16:01
CYYL 091601Z AUTO 14009KT 9SM -RA OVC040 16/09 A2986 RMK SLP120 DENSITY ALT 1600FT

2010/08/09 16:02
ETAR 091602Z AUTO VRB03KT 9999 -DZ BKN070 23/12 A3002 RMK AO2 DZB1602 SLP161 $

2010/08/09 16:00
ETHS 091600Z 27007KT 9999 SCT030 BKN060 BKN240 20/12 Q1016 BLU FCST CANCEL

2010/08/09 15:59
KDOV 091559Z AUTO 00000KT 10SM -RA CLR 30/23 A3003 RMK AO2 RAB1559 SLP169

2010/08/09 15:59
KHST 091559Z 15006KT 1 3/4SM +RA BR SCT002 OVC016 25/24 A2998 RMK AO2A VIS 1 RWY23 SLP153

2010/08/09 16:03
KTCM 091603Z AUTO 21004KT 10SM BKN009 OVC026 14/12 A2998 RMK AO2 BKN V SCT SLP155

2010/08/09 16:02
LIYW 091602Z AUTO 20004KT 9999 CLR 28/17 A2996 RMK AO2 DZE1602 SLP143

2010/08/09 16:01
PAEI 091601Z AUTO 00000KT 10SM OVC070 12/10 A2958 RMK AO2 RAE1601 SLP016 $

2010/08/09 16:00
YPXM 091600Z AUTO 09007KT 9999NDV // BKN013 24/21 Q////

2010/08/09 16:00
YSDU 091600Z AUTO 12009KT 9999NDV // SCT032 BKN039 OVC045 10/09 Q1016

2010/08/09 15:59
KDOV 091559Z AUTO 00000KT 10SM -RA CLR 30/23 A3003 RMK AO2 RAB1559 SLP169

2010/08/09 15:59
KHST 091559Z 15006KT 1 3/4SM +RA BR SCT002 OVC016 25/24 A2998 RMK AO2A VIS 1 RWY23 SLP153

2010/08/09 16:00
OIBB 091600Z 21004KT 7000 SKC 35/29 Q0996 A2942

2010/08/09 16:00
OINZ 091600Z 00000KT CAVOK 29/23 Q1008 A2979

2010/08/09 16:00
LPFR 091600Z 14004KT CAVOK 31/17 Q1013

2010/08/09 16:00
LPMA 091600Z 21008KT 9999 FEW013 25/19 Q1014 RS17004KT 0520007KT 2323004KT

2010/08/09 16:00
LPPR 091600Z 32008KT 290V350 CAVOK 31/12 Q1015

2010/08/09 16:00
LPPS 091600Z 01010KT 9999 SCT015 SCT030 24/18 Q1014

2010/08/09 16:00
LPPT 091600Z 22004KT 170V320 CAVOK 39/12 Q1014 NOSIG

2010/08/09 16:00
ZBHH 091600Z 06003MPS CAVOK 15/08 Q1012 NOSIG

2010/08/09 16:00
ZGHA 091600Z 00000MPS 4000 BR SKC 30/29 Q1003 NOSIG

2010/08/09 16:00
ZHCC 091600Z 32002MPS 280V030 4000 BR SCT040 25/25 Q1005 NOSIG

2010/08/09 16:00
ZHHH 091600Z 11003MPS 3500 BR SKC 30/29 Q1003 NOSIG

2010/08/09 16:00
ZJHK 091600Z 12001MPS CAVOK 26/24 Q1004 NOSIG

2010/08/09 16:00
ZJSY 091600Z VRB01MPS 9999 FEW016 27/24 Q1005 NOSIG

2010/08/09 16:00
ZLLL 091600Z 35002MPS CAVOK 17/14 Q1015 NOSIG

2010/08/09 16:00
ZSNJ 091600Z 07005MPS CAVOK 28/24 Q1004 NOSIG

2010/08/09 16:00
ZSOF 091600Z 00000MPS 8000 SKC 27/23 Q1004 NOSIG

2010/08/09 16:00
ZUCK 091600Z 36002MPS CAVOK 32/21 Q1003 NOSIG

2010/08/09 16:00
ZYCC 091600Z 18003MPS 9999 FEW030 18/17 Q1007 NOSIG

2010/08/09 16:00
ZYHB 091600Z 22003MPS CAVOK 15/15 Q1006 NOSIG

2010/08/09 16:00
TDCF 091600Z 32003KT 9999 -SHRA BKN020 FEW///CB 30/24 Q1015

2010/08/09 16:00
WBGR 091600Z 29003KT 9999 FEW014 BKN150 28/25 Q1010

2010/08/09 16:00
WBGS 091600Z 12003KT 9999 -RA SCT018 BKN150 23/22 Q1011

2010/08/09 16:00
WBGY 091600Z 14002KT 9999 SCT022 BKN150 24/22 Q1010

2010/08/09 16:00
WBKL 091600Z 30001KT 9999 FEW012 SCT140 OVC290 27/26 Q1010

2010/08/09 16:00
WBKS 091600Z 19001KT 9999 FEW015 SCT050 BKN270 26/24 Q1010

2010/08/09 16:00
WBKT 091600Z 13003KT 9999 FEW016 SCT140 BKN280 28/25 Q1010

2010/08/09 16:00
WBKW 091600Z 02001KT 9999 FEW017 BKN140 24/23 Q1011

2010/08/09 16:00
LFBA 091600Z AUTO 30007KT 280V340 9999NDV BKN036 OVC043 23/16 Q1018

2010/08/09 16:00
LFBE 091600Z AUTO 26007KT 9999NDV BKN028 OVC033 22/17 Q1018

2010/08/09 16:00
LFGJ 091600Z AUTO 28006KT 240V310 9999NDV NSC 27/09 Q1016

2010/08/09 16:00
LFLN 091600Z AUTO VRB04KT 9999NDV NSC 27/14 Q1016

2010/08/09 16:00
LFMC 091600Z 10012KT 060V130 9999 FEW060 SCT200 29/20 Q1014

2010/08/09 16:00
LFMD 091600Z AUTO 16004KT 130V190 9999NDV FEW017 OVC032 25/20 Q1015

2010/08/09 16:00
LFMH 091600Z 33007KT 290V010 9999 FEW043 28/12 Q1016 TEMPO SHRA

2010/08/09 16:00
LFMK 091600Z AUTO 28014KT 250V310 9999NDV OVC052 27/16 Q1017

2010/08/09 16:00
LFMU 091600Z AUTO 17012KT 9999NDV NSC 27/17 Q1014

2010/08/09 16:00
LFOT 091600Z AUTO VRB03KT 9999NDV NSC 29/09 Q1015

2010/08/09 16:00
LFPM 091600Z AUTO VRB02KT 9999NDV NSC 27/10 Q1015

2010/08/09 16:00
LFPN 091600Z 22006KT 100V270 CAVOK 27/10 Q1015 NOSIG

2010/08/09 16:00
LFRC 091600Z AUTO 22012KT 180V250 9999NDV NSC 21/11 Q1017

2010/08/09 16:00
LFRD 091600Z AUTO 35007KT 320V030 9999NDV NSC 22/11 Q1017

2010/08/09 16:00
LFRH 091600Z 27017KT CAVOK 20/14 Q1018

2010/08/09 16:00
LFRJ 091600Z AUTO 22012KT 9999NDV OVC010/// 18/15 Q1018

2010/08/09 16:00
LFRK 091600Z 36005KT 290V050 CAVOK 22/12 Q1016 NOSIG

2010/08/09 16:00
LFRN 091600Z AUTO 33008KT 270V010 9999NDV NSC 26/09 Q1016

2010/08/09 16:00
LFRO 091600Z AUTO 26011KT 9999NDV BKN032 OVC041 19/16 Q1017

2010/08/09 16:00
LFRQ 091600Z AUTO 26009KT 210V300 9999NDV BKN013 OVC029 18/15 Q1018

2010/08/09 16:00
LFRT 091600Z AUTO 05008KT 9999NDV FEW047 19/13 Q1017

2010/08/09 16:00
LFRZ 091600Z AUTO 28013KT 250V310 9999NDV NSC 23/11 Q1017

2010/08/09 16:00
LFSB 091600Z 33004KT 250V020 CAVOK 26/11 Q1016 NOSIG

2010/08/09 16:00
LFSN 091600Z 01005KT 340V040 CAVOK 24/10 Q1016 NOSIG

2010/08/09 16:00
LFST 091600Z 02004KT 340V070 9999 FEW053 25/12 Q1016 NOSIG

2010/08/09 16:00
LFTH 091600Z 16007KT 8000 SCT010 BKN016 25/21 Q1015 NOSIG

2010/08/09 16:00
LFTW 091600Z AUTO 19007KT 150V220 9999NDV NSC 29/18 Q1014

2010/08/09 16:00
LFBA 091600Z AUTO 30007KT 280V340 9999NDV BKN036 OVC043 23/16 Q1018

2010/08/09 16:00
LFBE 091600Z AUTO 26007KT 9999NDV BKN028 OVC033 22/17 Q1018

2010/08/09 16:00
LFGJ 091600Z AUTO 28006KT 240V310 9999NDV NSC 27/09 Q1016

2010/08/09 16:00
LFLN 091600Z AUTO VRB04KT 9999NDV NSC 27/14 Q1016

2010/08/09 16:00
LFMC 091600Z 10012KT 060V130 9999 FEW060 SCT200 29/20 Q1014

2010/08/09 16:00
LFMD 091600Z AUTO 16004KT 130V190 9999NDV FEW017 OVC032 25/20 Q1015

2010/08/09 16:00
LFMH 091600Z 33007KT 290V010 9999 FEW043 28/12 Q1016 TEMPO SHRA

2010/08/09 16:00
LFMK 091600Z AUTO 28014KT 250V310 9999NDV OVC052 27/16 Q1017

2010/08/09 16:00
LFMU 091600Z AUTO 17012KT 9999NDV NSC 27/17 Q1014

2010/08/09 16:00
LFOT 091600Z AUTO VRB03KT 9999NDV NSC 29/09 Q1015

2010/08/09 16:00
LFPM 091600Z AUTO VRB02KT 9999NDV NSC 27/10 Q1015

2010/08/09 16:00
LFPN 091600Z 22006KT 100V270 CAVOK 27/10 Q1015 NOSIG

2010/08/09 16:00
LFRC 091600Z AUTO 22012KT 180V250 9999NDV NSC 21/11 Q1017

2010/08/09 16:00
LFRD 091600Z AUTO 35007KT 320V030 9999NDV NSC 22/11 Q1017

2010/08/09 16:00
LFRH 091600Z 27017KT CAVOK 20/14 Q1018

2010/08/09 16:00
LFRJ 091600Z AUTO 22012KT 9999NDV OVC010/// 18/15 Q1018

2010/08/09 16:00
LFRK 091600Z 36005KT 290V050 CAVOK 22/12 Q1016 NOSIG

2010/08/09 16:00
LFRL 091600Z 22008KT 170V250 6000 -DZ BKN005 OVC010 17/16 Q1018

2010/08/09 16:00
LFRN 091600Z AUTO 33008KT 270V010 9999NDV NSC 26/09 Q1016

2010/08/09 16:00
LFRO 091600Z AUTO 26011KT 9999NDV BKN032 OVC041 19/16 Q1017

2010/08/09 16:00
LFRQ 091600Z AUTO 26009KT 210V300 9999NDV BKN013 OVC029 18/15 Q1018

2010/08/09 16:00
LFRT 091600Z AUTO 05008KT 9999NDV FEW047 19/13 Q1017

2010/08/09 16:00
LFRZ 091600Z AUTO 28013KT 250V310 9999NDV NSC 23/11 Q1017

2010/08/09 16:00
LFSB 091600Z 33004KT 250V020 CAVOK 26/11 Q1016 NOSIG

2010/08/09 16:00
LFST 091600Z 02004KT 340V070 9999 FEW053 25/12 Q1016 NOSIG

2010/08/09 16:00
LFTH 091600Z 16007KT 8000 SCT010 BKN016 25/21 Q1015 NOSIG

2010/08/09 16:00
LFTW 091600Z AUTO 19007KT 150V220 9999NDV NSC 29/18 Q1014

2010/08/09 16:00
BIAR 091600Z 34013KT CAVOK 15/10 Q1011

2010/08/09 16:00
BIEG 091600Z 35006KT 9999 FEW040 20/10 Q1010

2010/08/09 16:00
BIKF 091600Z 30009KT 9999 BKN006 12/08 Q1013

2010/08/09 16:00
BIRK 091600Z 28005KT 9999 SCT008 BKN024 12/10 Q1013

2010/08/09 15:55
KDPG 091555Z 18015G22KT 50SM FEW100 SCT130 SCT160 24/06 A3010 RMK SLP144 T02420064

2010/08/09 16:00
KNEL 091600Z AUTO VRB04KT 9SM CLR 32/16 A3002 RMK AO2 SLP163 T03170161 $

2010/08/09 15:56
KNUW 091556Z 21007KT 6SM BR BKN006 OVC020 14/11 A2996 RMK AO2 SLP149 T01360114 $

2010/08/09 15:55
KNYL 091555Z 02003KT 10SM FEW080 31/02 A2980 RMK AO2 SLP089 T03110017

2010/08/09 16:00
LKKV 091600Z 27004KT 9999 FEW030 18/12 Q1018

2010/08/09 16:00
LQBK 091600Z 10004KT 9999 FEW040 27/17 Q1015 NOSIG

2010/08/09 16:00
MGGT 091600Z 36010KT 9999 SCT017 OVC200 24/18 Q1025 A30/27 PACAY A EN ACTIVIDAD NOSIG

2010/08/09 16:00
MGHT 091600Z 00000KT 9999 FEW018 BKN200 22/16 QFE 818/3

2010/08/09 16:00
MGPB 091600Z 36006KT 9999 SCT020 SCT200 31/25 Q1012 A29/88

2010/08/09 16:00
MGQZ 091600Z 00000KT CAVOK 19/13 QFE 768/6 BKN200

2010/08/09 16:00
MGSJ 091600Z 14008KT 9999 SCT018 BKN200 30/26 Q1013 A29/91

2010/08/09 16:00
MGZA 091600Z 00000KT 9999 FEW016 OVC200 29/24

2010/08/09 16:00
MNBL 091600Z 08004KT 5000 TSRA SCT016CB SCT070 27/26 Q1013 CB/N/NE/W/NW

2010/08/09 16:00
MNCH 091600Z 00000KT 9999 FEW025 SCT300 30/24 Q1012

2010/08/09 16:00
MNJG 091600Z 00000KT 1000 DZ BKN016 23/19 Q1013

2010/08/09 16:00
MNJU 091600Z 06004KT 9999 FEW020 SCT080 29/25 Q1012 REDZ

2010/08/09 16:00
MNRS 091600Z 00000KT 9999 FEW015CB BKN070 27/26 Q1012 CB/4C

2010/08/09 16:00
OIKB 091600Z 10006KT CAVOK 33/27 Q0996 A2944

2010/08/09 16:00
OIKK 091600Z 35006KT CAVOK 27/M01 Q1015 A2997

2010/08/09 16:00
ORBI 091600Z 31004KT CAVOK 41/10 Q0999 NOSIG

2010/08/09 16:00
TAPA 091600Z 07009KT 9999 SCT016 SCT035 27/25 Q1015

2010/08/09 16:00
TKPK 091600Z 07009KT 9999 FEW019 BKN046 29/25 Q1015

2010/08/09 16:00
OIAG 091600Z 00000KT 9999 FEW040 40/13 Q0997 A2946

2010/08/09 16:00
OIAM 091600Z 21006KT CAVOK 37/23 Q0995 A2941

2010/08/09 16:00
OICI 091600Z 28008KT CAVOK 32/M05 Q1011 A2985 862.0

2010/08/09 16:00
OIKQ 091600Z 00000KT 7000 NSC 33/28 Q0996 A2943

2010/08/09 16:00
OINN 091600Z 11004KT 9999 FEW030 30/23 Q1007 A2975

2010/08/09 16:00
OINR 091600Z VRB02KT 9999 FEW025 30/24 Q1007 A2975

2010/08/09 16:00
OISL 091600Z 00000KT CAVOK 37/M02 Q1002 A2960

2010/08/09 16:00
OISY 091600Z 06008KT CAVOK 30/02 Q1017 A3004

2010/08/09 15:56
KABQ 091556Z 28003KT 10SM FEW060 SCT140 23/13 A3017 RMK AO2 SLP132 T02280133 $

2010/08/09 16:00
K0R3 091600Z AUTO 31008KT SCT022 SCT030 BKN040 32/27 A2998 RMK AO2 PWINO

2010/08/09 16:01
K3I2 091601Z AUTO 19003KT 10SM CLR 30/20 A3006 RMK AO2

2010/08/09 15:58
KEZF 091558Z AUTO 20007KT 10SM CLR 33/24 A3002 RMK AO2 T03280243

2010/08/09 16:01
KHQU 091601Z AUTO 00000KT 10SM CLR 31/21 A3009 RMK AO1

2010/08/09 16:01
KIDI 091601Z AUTO 24004KT 10SM CLR 27/16 A3008 RMK AO2

2010/08/09 16:00
KJFZ 091600Z AUTO VRB05KT 10SM CLR 28/21 A3015 RMK

2010/08/09 16:00
KLOM 091600Z AUTO 27005KT 10SM SCT044 30/19 A3002 RMK AO1 T02970194

2010/08/09 16:00
KMKJ 091600Z AUTO 27005KT 10SM SCT038 28/11 A3021 RMK AO1

2010/08/09 16:03
KMLJ 091603Z AUTO 05003KT 10SM CLR 32/24 A3004 RMK AO2

2010/08/09 16:00
KMTV 091600Z AUTO 00000KT 10SM CLR 31/23 A3009 RMK AO2

2010/08/09 16:00
KOKV 091600Z AUTO 00000KT 10SM SCT050 SCT085 32/20 A3003 RMK AO2 T03220197

2010/08/09 16:00
KOMH 091600Z AUTO 20006KT 10SM CLR 32/23 A3005 RMK AO2 T03230225

2010/08/09 16:00
KOPN 091600Z AUTO 08005KT 10SM SCT045 33/24 A3006 RMK AO1

2010/08/09 16:00
KPCM 091600Z AUTO 11004KT 10SM SCT018 BKN029 OVC060 30/25 A2996 RMK AO2

2010/08/09 16:00
KPSK 091600Z AUTO 00000KT 10SM CLR 30/17 A3015 RMK AO2

2010/08/09 16:00
KRCZ 091600Z AUTO 00000KT 10SM CLR 31/22 A3004 RMK AO2 T03080223

2010/08/09 16:00
KRMN 091600Z AUTO 24004KT 10SM CLR 31/23 A3007 RMK AO2

2010/08/09 16:00
KSFQ 091600Z AUTO 09004KT 10SM SCT033 31/24 A3005 RMK AO2

2010/08/09 16:00
KSHD 091600Z AUTO 23004KT 10SM CLR 32/22 A3007 RMK AO2

2010/08/09 16:00
KTBR 091600Z AUTO 08009KT 10SM SCT033 32/22 A3002 RMK AO2 T03200224

2010/08/09 16:05
KTTA 091605Z AUTO 00000KT 10SM CLR 32/22 A3005 RMK AO2

2010/08/09 16:00
KTVI 091600Z AUTO 09011G15KT 10SM CLR 34/21 A3000 RMK AO2 T03360208

2010/08/09 16:00
KVDI 091600Z AUTO 06008KT 10SM SCT033 33/23 A3002 RMK AO2

2010/08/09 16:00
KVJI 091600Z AUTO 00000KT 10SM SCT055 29/21 A3014 RMK AO2 TSNO

2010/08/09 16:00
KW45 091600Z AUTO 22005KT 10SM CLR 31/22 A3005 RMK AO2 T03050223

2010/08/09 16:00
KW99 091600Z AUTO 00000KT 10SM CLR 31/14 A3005 RMK AO2

2010/08/09 16:00
KWDR 091600Z AUTO 00000KT 10SM SCT100 32/21 A3012 RMK AO1

2010/08/09 16:00
KXLL 091600Z AUTO 24007KT 7SM CLR 31/21 A3003 RMK AO2 T03100212

2010/08/09 16:00
KXSA 091600Z AUTO 00000KT 10SM SCT044 BKN090 OVC110 31/20 A3004 RMK AO2

2010/08/09 16:00
KAYS 091600Z AUTO 08012G17KT 10SM SCT080 A3000 RMK AO1

2010/08/09 15:55
KHRT 091555Z 08010KT 10SM FEW030 FEW250 32/25 A2996 RMK AO2A SLP148 T03150254 $

2010/08/09 15:55
KLGC 091555Z AUTO 04003KT 10SM FEW049 32/22 A3004 RMK AO1

2010/08/09 16:00
KMDQ 091600Z AUTO 00000KT 10SM BKN029 32/25 A3003 RMK AO2 T03170248

2010/08/09 15:56
KNSE 091556Z VRB03KT 8SM SCT025 32/24 A2999 RMK AO2 SLP138 T03170239 $

2010/08/09 16:01
KOBE 091601Z AUTO 15005KT 7SM -DZ SCT025 BKN037 OVC049 27/23 A2996 RMK AO2

2010/08/09 16:04
KTNB 091604Z AUTO 28009KT 10SM SCT039 SCT045 27/18 A3021 RMK AO2

2010/08/09 16:00
KW22 091600Z AUTO 00000KT 9SM CLR 28/20 A3010 RMK AO2

2010/08/09 16:04
KJXN 091604Z 30005KT 10SM CLR 24/21 A2998 RMK AO2

2010/08/09 16:04
KSJC 091604Z 12011KT 10SM FEW007 SCT013 16/11 A2992 RMK AO2

2010/08/09 16:03
PAMO 091603Z AUTO 13016KT 1SM RA BR OVC001 09/09 A2929 RMK AO2 TSNO CIG 001V005 P0000 $

2010/08/09 16:00
NWWW 091600Z AUTO VRB03KT 9999NDV NCD 17/12 Q1023

2010/08/09 16:03
KAST 091603Z AUTO 27004KT 4SM -RA BR BKN009 OVC015 14/12 A3000 RMK AO2 VIS 2 RWY 08 RAB03 CIG 007V011 P0000

2010/08/09 16:03
KCQT 091603Z AUTO 00000KT 5SM HZ OVC011 18/13 A2992 RMK AO2 TSNO $

2010/08/09 16:00
SVBM 091600Z 07012KT 9999 SCT016 BKN300 29/19 Q1016

2010/08/09 16:00
SVGU 091600Z 20010KT 9999 SCT020 30/23 Q1014

2010/08/09 16:00
SVSP 091600Z 24006KT 9000 HZ BKN040 XX/XX Q1015

2010/08/09 15:49
MMCZ 091549Z 17006KT 8SM SCT015TCU SCT250 29/24 A2996 RMK 8/206

2010/08/09 15:47
MMMD 091547Z 15008KT 7SM SCT020 SCT300 32/26 A2992 RMK 8/101

2010/08/09 15:53
MMTP 091553Z 12007KT 10SM SCT015 BKN250 30/24 A2990 RMK 8/106

2010/08/09 16:00
SGAS 091600Z 17006KT CAVOK 17/09 Q1021

2010/08/09 16:00
SGES 091600Z 14004KT CAVOK 20/13 Q1019

2010/08/09 16:01
PAEI 091601Z AUTO 00000KT 10SM OVC070 12/10 A2958

2010/08/09 15:55
PWAK 091555Z 07013KT 10SM SCT021 27/24 A3002 RMK AO2A 

2010/08/09 15:55
PTKK 091555Z VRB04KT 15SM SCT014CB BKN120 OVC280 25/24 A2983 RMK CB ALQDS SLP105 T02480235

2010/08/09 15:55
PTKK 091555Z VRB04KT 15SM SCT014CB BKN120 OVC280 25/24 A2983 RMK CB ALQDS SLP105 T02480235

2010/08/09 16:00
FOOL 091600Z VRB03KT 8000 -DZ SCT006 SCT010 OVC033 24/23 Q1013 NOSIG

2010/08/09 16:00
SAZM 091600Z 29006KT CAVOK 15/02 Q1024

2010/08/09 16:00
RPLL 091600Z 08006KT 9999 SCT023 BKN300 27/24 Q1009 NOSIG RMK A2980

2010/08/09 16:00
RPVM 091600Z 00000KT 9999 FEW020 BKN300 27/26 Q1011 A2987

2010/08/09 16:00
SAWG 091600Z 23032G46KT 9999 FEW030 08/00 Q1004

2010/08/09 16:00
FALA 091600Z 21010KT 180V240 CAVOK 13/M10 Q1025 NOSIG

2010/08/09 16:00
FBFT 091600Z 15003KT CAVOK 25/11 Q1020

2010/08/09 16:00
FBKE 091600Z 16006KT CAVOK 26/03 Q1019

2010/08/09 16:00
FBMN 091600Z 18008KT CAVOK 27/01 Q1020

2010/08/09 16:00
FBSK 091600Z 21008KT CAVOK 18/02 Q1023 NOSIG

2010/08/09 16:00
FDMS 091600Z 15010G20KT 9999 SCT035 17/13 Q1019 NOSIG

2010/08/09 16:00
FYWB 091600Z 27006KT 4200 VV/// 21/08 Q1013

2010/08/09 16:00
FYWH 091600Z AUTO 12011KT //// // ////// 18/M06 Q1027

2010/08/09 16:00
SACO 091600Z 05013KT CAVOK 16/02 Q1026

2010/08/09 16:00
SARE 091600Z 14013KT 9999 FEW025 SCT200 17/06 Q1024

2010/08/09 16:00
UBBN 091600Z 11018KT 9999 SCT050CB BKN100 31/09 Q1008 R14R/CLRD60 NOSIG RMK G/O QFE682

2010/08/09 15:59
KNGU 091559Z 05005KT 7SM FEW030 BKN250 30/23 A3006 RMK AO2 SLP180 T03000228

2010/08/09 15:55
KGRK 091555Z 17009KT 7SM FEW040 34/21 A2997 RMK SLP123

2010/08/09 15:55
KHRT 091555Z 08010KT 10SM FEW030 FEW250 32/25 A2996 RMK AO2A SLP148 T03150254 $

2010/08/09 15:57
KNJM 091557Z AUTO 12006KT 10SM CLR 28/25 A3005 RMK AO2 SLP179 T02830250

2010/08/09 15:57
KNJM 091557Z AUTO 12006KT 10SM CLR 28/25 A3005 RMK AO2 SLP179 T02830250

2010/08/09 15:55
KSVN 091555Z 07011G18KT 12SM 32/22 A3001 RMK AO2A SLP160

2010/08/09 15:56
KHLR 091556Z AUTO 16009KT 10SM CLR 33/21 A2999 RMK AO2 SLP143 T03330211 $

2010/08/09 16:00
KNEL 091600Z AUTO VRB04KT 9SM CLR 32/16 A3002 RMK AO2 SLP163 T03170161 $

2010/08/09 15:56
KNFL 091556Z VRB06KT 10SM FEW220 24/06 A2998 RMK AO2 SLP125 T02390056

2010/08/09 15:59
KNGU 091559Z 05005KT 7SM FEW030 BKN250 30/23 A3006 RMK AO2 SLP180 T03000228

2010/08/09 15:56
KNUW 091556Z 21007KT 6SM BR BKN006 OVC020 14/11 A2996 RMK AO2 SLP149 T01360114 $

2010/08/09 15:56
KNXP 091556Z 34004KT 7SM CLR 26/M02 A2999 RMK AO2 SLP118 T02561022 $

2010/08/09 15:55
KNYL 091555Z 02003KT 10SM FEW080 31/02 A2980 RMK AO2 SLP089 T03110017

2010/08/09 15:55
KRCA 091555Z 18013KT 10SM SCT150 28/17 A2996 RMK AO2A SLP115 T02800172

2010/08/09 15:55
KHRT 091555Z 08010KT 10SM FEW030 FEW250 32/25 A2996 RMK AO2A SLP148 T03150254 $

2010/08/09 15:55
KDPG 091555Z 18015G22KT 50SM FEW100 SCT130 SCT160 24/06 A3010 RMK SLP144 T02420064

2010/08/09 16:00
KNEL 091600Z AUTO VRB04KT 9SM CLR 32/16 A3002 RMK AO2 SLP163 T03170161 $

2010/08/09 15:56
KNUW 091556Z 21007KT 6SM BR BKN006 OVC020 14/11 A2996 RMK AO2 SLP149 T01360114 $

2010/08/09 15:55
KNYL 091555Z 02003KT 10SM FEW080 31/02 A2980 RMK AO2 SLP089 T03110017

2010/08/09 16:00
SAEZ 091600Z VRB01KT CAVOK 17/07 Q1025

2010/08/09 15:59
KDOV 091559Z AUTO 00000KT 10SM -RA CLR 30/23 A3003 RMK AO2 RAB1559 SLP169

2010/08/09 15:59
KHST 091559Z 15006KT 1 3/4SM +RA BR SCT002 OVC016 25/24 A2998 RMK AO2A VIS 1 RWY23 SLP153

2010/08/09 16:03
KTCM 091603Z AUTO 21004KT 10SM BKN009 OVC026 14/12 A2998 RMK AO2 BKN V SCT SLP155

2010/08/09 16:01
PAEI 091601Z AUTO 00000KT 10SM OVC070 12/10 A2958 RMK AO2 RAE1601 SLP016 $

2010/08/09 16:00
SAME 091600Z 14002KT CAVOK 14/M06 Q1022

2010/08/09 15:55
KJQF 091555Z 00000KT 7SM CLR 34/19 A3006

2010/08/09 15:56
PHNY 091556Z AUTO 04008KT 10SM CLR 18/17 A3012 RMK AO2 TSNO T01830166 SLP180 $

2010/08/09 15:56
KABQ 091556Z 28003KT 10SM FEW060 SCT140 23/13 A3017 RMK AO2 SLP132 T02280133 $

2010/08/09 16:00
KAYS 091600Z AUTO 08012G17KT 10SM SCT080 A3000 RMK AO1

2010/08/09 16:00
KJYO 091600Z AUTO 31003KT 7SM CLR 32/19 A3003 RMK AO2

2010/08/09 16:00
KLDJ 091600Z AUTO 25005KT 7SM SCT050 32/18 A3001 RMK AO2 T03220176

2010/08/09 16:00
KLHZ 091600Z AUTO 00000KT 10SM CLR 31/22 A3007 RMK AO2 T03100219

2010/08/09 16:00
KLKU 091600Z AUTO 19004KT 10SM CLR 31/21 A3004 RMK AO2

2010/08/09 16:00
KLNP 091600Z AUTO 24007KT 10SM BKN050 28/19 A3017 RMK AO1

2010/08/09 16:00
KMGR 091600Z AUTO 04008KT 017V087 10SM SCT038 33/21 A3001 RMK AO2

2010/08/09 16:00
KMQI 091600Z AUTO 06008KT 10SM SCT016 SCT022 SCT095 28/26 A3005 RMK AO2

2010/08/09 15:50
KOMN 091550Z 10010G15KT 10SM SCT018 31/25 A2996

2010/08/09 15:57
KPVU 091557Z 12010KT 15SM FEW090 FEW120 23/11 A3009

2010/08/09 16:00
KSIF 091600Z AUTO 24004KT 10SM CLR 31/21 A3006 RMK AO2 T03110214

2010/08/09 16:00
KSUT 091600Z AUTO 12010KT 10SM SCT018 28/23 A3004 RMK AO2

2010/08/09 16:00
KSVH 091600Z AUTO 00000KT 7SM CLR 30/23 A3007 RMK AO2 T02950231

2010/08/09 16:00
KTMA 091600Z AUTO 07008KT 030V090 10SM CLR 31/20 A3001 RMK AO2 T03100204

2010/08/09 16:00
KTPF 091600Z AUTO 09007KT 10SM SCT019 SCT025 30/26 A2994 RMK AO2

2010/08/09 15:56
KVDF 091556Z AUTO 11005KT 10SM SCT017 SCT025 BKN080 32/26 A2994 RMK AO2

2010/08/09 15:58
KVUJ 091558Z AUTO 36004KT 10SM SCT080 33/23 A3004 RMK AO2

2010/08/09 15:55
KWDG 091555Z 17006KT 10SM FEW200 35/20 A2990

2010/08/09 15:45
PAHV 091545Z 17012G18KT 35SM BKN040 BKN120 12/06 A2964 RMK EPM

2010/08/09 15:56
PANW 091556Z AUTO 20012KT 3SM BR OVC003 10/09 A2952 RMK AO2 PWINO TSNO T01000088 CIG 001V005 P0002 SLP975 $

2010/08/09 15:58
KMWA 091558Z 21005KT 10SM SCT050 BKN150 34/23 A2998

2010/08/09 15:56
KNSE 091556Z VRB03KT 8SM SCT025 32/24 A2999 RMK AO2 SLP138 T03170239 $

2010/08/09 15:56
KOSC 091556Z AUTO 36010KT 7SM BKN014 BKN028 BKN043 24/22 A2991 RMK AO2

2010/08/09 16:00
K0R3 091600Z AUTO 31008KT SCT022 SCT030 BKN040 32/27 A2998 RMK AO2 PWINO

2010/08/09 15:58
KEZF 091558Z AUTO 20007KT 10SM CLR 33/24 A3002 RMK AO2 T03280243

2010/08/09 16:00
KJFZ 091600Z AUTO VRB05KT 10SM CLR 28/21 A3015 RMK

2010/08/09 16:00
KLOM 091600Z AUTO 27005KT 10SM SCT044 30/19 A3002 RMK AO1 T02970194

2010/08/09 16:00
KMKJ 091600Z AUTO 27005KT 10SM SCT038 28/11 A3021 RMK AO1

2010/08/09 16:00
KMTV 091600Z AUTO 00000KT 10SM CLR 31/23 A3009 RMK AO2

2010/08/09 16:00
KOKV 091600Z AUTO 00000KT 10SM SCT050 SCT085 32/20 A3003 RMK AO2 T03220197

2010/08/09 16:00
KOMH 091600Z AUTO 20006KT 10SM CLR 32/23 A3005 RMK AO2 T03230225

2010/08/09 16:00
KOPN 091600Z AUTO 08005KT 10SM SCT045 33/24 A3006 RMK AO1

2010/08/09 16:00
KPCM 091600Z AUTO 11004KT 10SM SCT018 BKN029 OVC060 30/25 A2996 RMK AO2

2010/08/09 16:00
KPSK 091600Z AUTO 00000KT 10SM CLR 30/17 A3015 RMK AO2

2010/08/09 16:00
KRCZ 091600Z AUTO 00000KT 10SM CLR 31/22 A3004 RMK AO2 T03080223

2010/08/09 16:00
KRMN 091600Z AUTO 24004KT 10SM CLR 31/23 A3007 RMK AO2

2010/08/09 16:00
KSFQ 091600Z AUTO 09004KT 10SM SCT033 31/24 A3005 RMK AO2

2010/08/09 16:00
KSHD 091600Z AUTO 23004KT 10SM CLR 32/22 A3007 RMK AO2

2010/08/09 16:00
KTBR 091600Z AUTO 08009KT 10SM SCT033 32/22 A3002 RMK AO2 T03200224

2010/08/09 16:00
KTVI 091600Z AUTO 09011G15KT 10SM CLR 34/21 A3000 RMK AO2 T03360208

2010/08/09 16:00
KVDI 091600Z AUTO 06008KT 10SM SCT033 33/23 A3002 RMK AO2

2010/08/09 16:00
KVJI 091600Z AUTO 00000KT 10SM SCT055 29/21 A3014 RMK AO2 TSNO

2010/08/09 16:00
KW45 091600Z AUTO 22005KT 10SM CLR 31/22 A3005 RMK AO2 T03050223

2010/08/09 16:00
KW99 091600Z AUTO 00000KT 10SM CLR 31/14 A3005 RMK AO2

2010/08/09 16:00
KWDR 091600Z AUTO 00000KT 10SM SCT100 32/21 A3012 RMK AO1

2010/08/09 16:00
KXLL 091600Z AUTO 24007KT 7SM CLR 31/21 A3003 RMK AO2 T03100212

2010/08/09 16:00
KXSA 091600Z AUTO 00000KT 10SM SCT044 BKN090 OVC110 31/20 A3004 RMK AO2

2010/08/09 15:55
KLGC 091555Z AUTO 04003KT 10SM FEW049 32/22 A3004 RMK AO1

2010/08/09 16:00
KMDQ 091600Z AUTO 00000KT 10SM BKN029 32/25 A3003 RMK AO2 T03170248

2010/08/09 15:56
KNSE 091556Z VRB03KT 8SM SCT025 32/24 A2999 RMK AO2 SLP138 T03170239 $

2010/08/09 16:00
KW22 091600Z AUTO 00000KT 9SM CLR 28/20 A3010 RMK AO2

2010/08/09 16:00
FLLS 091600Z 11006KT CAVOK 21/09 Q1021

2010/08/09 16:00
FQBR 091600Z 11007KT 9999 FEW030 23/20 Q1015

2010/08/09 16:00
FQMA 091600Z 16014KT 120V200 9999 FEW020 22/16 Q1017 NOSIG

2010/08/09 16:00
FVHA 091600Z 08001KT 8000 SKC 21/06 Q1023 NOSIG

2010/08/09 16:01
KMRN 091601Z AUTO 23004KT 10SM CLR 30/22 A3014 RMK AO2

2010/08/09 16:02
KMWK 091602Z AUTO 20003KT 10SM CLR 29/22 A3009 RMK AO2

2010/08/09 16:01
K3I2 091601Z AUTO 19003KT 10SM CLR 30/20 A3006 RMK AO2

2010/08/09 16:01
KHQU 091601Z AUTO 00000KT 10SM CLR 31/21 A3009 RMK AO1

2010/08/09 16:01
KIDI 091601Z AUTO 24004KT 10SM CLR 27/16 A3008 RMK AO2

2010/08/09 16:03
KMLJ 091603Z AUTO 05003KT 10SM CLR 32/24 A3004 RMK AO2

2010/08/09 16:05
KTTA 091605Z AUTO 00000KT 10SM CLR 32/22 A3005 RMK AO2

2010/08/09 16:01
KOBE 091601Z AUTO 15005KT 7SM -DZ SCT025 BKN037 OVC049 27/23 A2996 RMK AO2

2010/08/09 16:04
KTNB 091604Z AUTO 28009KT 10SM SCT039 SCT045 27/18 A3021 RMK AO2

2010/08/09 16:00
DIAP 091600Z 24010KT 8000 SCT011 BKN080 28/22 Q1013 NOSIG

2010/08/09 16:00
DNMM 091600Z 26003KT 9999 BKN011 27/24 Q1013 NOSIG

2010/08/09 16:00
DXXX 091600Z 20005KT 8000 SCT012 BKN086 27/23 Q1012 NOSIG

2010/08/09 16:03
KSTC 091603Z 02003KT 10SM FEW009 28/24 A2993 RMK AO2 $

2010/08/09 16:03
KAST 091603Z AUTO 27004KT 4SM -RA BR BKN009 OVC015 14/12 A3000 RMK AO2 VIS 2 RWY 08 RAB03 CIG 007V011 P0000

2010/08/09 16:03
KCQT 091603Z AUTO 00000KT 5SM HZ OVC011 18/13 A2992 RMK AO2 TSNO $

2010/08/09 16:02
KOPF 091602Z 17007G15KT 2 1/2SM +RA BR FEW004 BKN038 BKN048 26/24 A2996 RMK AO2 RAB1556 P0018

2010/08/09 16:00
PAKI 091600Z AUTO 18019KT 1 3/4SM +RA BR BKN011 OVC016 09/09 A2923 RMK AO2 TSNO BKN V OVC P0000 $

2010/08/09 16:03
KAZO 091603Z 18006KT 1 3/4SM +RA BR BKN021 BKN049 OVC065 23/22 A3000 RMK AO2 P0006

2010/08/09 16:04
KJXN 091604Z 30005KT 10SM CLR 24/21 A2998 RMK AO2

2010/08/09 16:04
KSJC 091604Z 12011KT 10SM FEW007 SCT013 16/11 A2992 RMK AO2

2010/08/09 16:03
PAMO 091603Z AUTO 13016KT 1SM RA BR OVC001 09/09 A2929 RMK AO2 TSNO CIG 001V005 P0000 $

2010/08/09 15:50
EGPU 091550Z AUTO 25014KT 9999NDV // FEW015/// 16/12 Q1006

2010/08/09 16:00
GMFF 091600Z 34004KT 9999 SCT033 FEW040CB BKN100 41/07 Q1013 NOSIG

2010/08/09 16:00
GMME 091600Z 33010KT 8000 NSC 33/20 Q1011 NOSIG

2010/08/09 16:00
GMMN 091600Z 33011KT 300V360 CAVOK 37/19 Q1012 NOSIG

2010/08/09 16:00
GMMX 091600Z VRB03KT 6000 SCT033 FEW040CB SCT100 42/11 Q1014 NOSIG

2010/08/09 16:00
GMTT 091600Z 06021KT 9999 FEW016 SCT200 31/19 Q1011 NOSIG

2010/08/09 15:50
HLLB 091550Z 33022KT 9999 SCT020 27/18 Q1013

2010/08/09 15:50
HLLT 091550Z HLLT 36009KT 320V020 CAVOK 29/15 Q1015

2010/08/09 16:00
HAAB 091600Z 25008KT 7000 FEW023 BKN025CB BKN080 18/14 Q1022 R/M DIS RAIN

2010/08/09 16:00
LKKV 091600Z 27004KT 9999 FEW030 18/12 Q1018

2010/08/09 16:00
LKMT 091600Z VRB02KT 9999 FEW035CB 18/16 Q1016 RETS NOSIG

2010/08/09 16:00
LKPR 091600Z 26007KT 9999 FEW043 21/12 Q1017 NOSIG

2010/08/09 16:00
LKTB 091600Z 32007KT 280V350 9999 FEW044 SCT100 23/12 Q1016 NOSIG

2010/08/09 16:03
YSDU 091603Z AUTO 11009KT 9999NDV // SCT034 BKN041 OVC051 10/09 Q1016

2010/08/09 16:00
GMFF 091600Z 34004KT 9999 SCT033 FEW040CB BKN100 41/07 Q1013 NOSIG

2010/08/09 16:00
GMFK 091600Z 20004KT 9999 SCT033 38/08 Q1019

2010/08/09 16:00
GMFM 091600Z 29006KT 9999 FEW026 FEW040CB 42/10 Q1014

2010/08/09 16:00
GMMC 091600Z 34006KT 6000 NSC 34/19 Q1010

2010/08/09 16:00
GMMH 091600Z 30012KT CAVOK 23/18 Q1012

2010/08/09 16:00
GMML 091600Z 31005KT CAVOK 30/18 Q1012

2010/08/09 16:00
GMMW 091600Z 04010KT CAVOK 30/19 Q1013

2010/08/09 16:00
GMMZ 091600Z 32017KT 8000 FEW040 FEW050CB 32/09 Q1021 RETS

2010/08/09 16:00
GMTA 091600Z 36006KT 9999 FEW020 26/22 Q1015

2010/08/09 16:00
UBBG 091600Z 10002KT 9999 SCT100 29/12 Q1009 NOSIG RMK R12L/CLRD70 

2010/08/09 16:00
GCFV 091600Z 15008KT 8000 FEW020 24/21 Q1012

2010/08/09 16:00
GCHI 091600Z 01007KT 340V050 9999 SCT022 24/18 Q1014

2010/08/09 16:00
GCLA 091600Z 02005KT 340V080 9999 FEW015 BKN020 23/18 Q1014

2010/08/09 16:00
GCLP 091600Z 04010KT 9999 FEW024 BKN027 25/19 Q1013 NOSIG

2010/08/09 16:00
GCRR 091600Z 20007KT 150V230 9999 FEW022 28/21 Q1012

2010/08/09 16:00
GCTS 091600Z 11008KT 080V140 9999 OVC025 24/18 Q1014 NOSIG

2010/08/09 16:00
GCXO 091600Z 31007KT 280V010 9000 FEW003 BKN008 21/17 Q1016 NOSIG

2010/08/09 16:00
GEML 091600Z 06004KT 010V120 9999 FEW008 28/23 Q1014

2010/08/09 16:00
GMFF 091600Z 34004KT 9999 SCT033 FEW040CB BKN100 41/07 Q1013 NOSIG

2010/08/09 16:00
GMME 091600Z 33010KT 8000 NSC 33/20 Q1011 NOSIG

2010/08/09 16:00
GMMN 091600Z 33011KT 300V360 CAVOK 37/19 Q1012 NOSIG

2010/08/09 16:00
GMMX 091600Z VRB03KT 6000 SCT033 FEW040CB SCT100 42/11 Q1014 NOSIG

2010/08/09 16:00
GMTA 091600Z 36006KT 9999 FEW020 26/22 Q1015

2010/08/09 16:00
GMTT 091600Z 06021KT 9999 FEW016 SCT200 31/19 Q1011 NOSIG

2010/08/09 16:00
WSSS 091600Z 13006KT 100V160 9999 FEW020 BKN300 29/26 Q1010 NOSIG

2010/08/09 16:00
GBYD 091600Z 27007KT 9999 BKN012 31/23 Q1011

2010/08/09 16:00
GOOY 091600Z 30006KT 260V340 9999 SCT013 BKN230 29/22 Q1011 NOSIG

2010/08/09 16:00
UKBB 091600Z 25005MPS 220V290 9999 FEW033CB 31/15 Q1013 RETS 88290095 NOSIG

2010/08/09 16:00
UKHH 091600Z 10002MPS CAVOK 35/10 Q1013 080///65 NOSIG

2010/08/09 16:00
UKOO 091600Z VRB02MPS CAVOK 33/18 Q1011 16090070 NOSIG

2010/08/09 16:00
UKDE 091600Z 05003MPS CAVOK 36/13 Q1011 02CLRD70 NOSIG

2010/08/09 16:00
UKDD 091600Z 07003MPS CAVOK 32/12 Q1012 08090070 NOSIG

2010/08/09 16:00
UKFF 091600Z 07004MPS CAVOK 33/10 Q1010 01010070 NOSIG

2010/08/09 16:00
UKLL 091600Z 09004MPS 9999 BKN033 24/17 Q1016 13090070 NOSIG

2010/08/09 16:00
UKCC 091600Z VRB02MPS CAVOK 34/08 Q1012 08090070 NOSIG

2010/08/09 16:00
UKDR 091600Z 13002MPS 9999 FEW033 35/10 Q1011 1809//70 NOSIG

2010/08/09 16:00
SBRP 091600Z 20006KT CAVOK 32/09 Q1019

2010/08/09 16:00
TVSV 091600Z 12008KT 9999 SCT022 SCT038 31/25 Q1015 TCU-N

2010/08/09 15:53
PABR 091553Z 07021G26KT 10SM OVC005 02/01 A2989

2010/08/09 15:53
PACD 091553Z 24015KT 10SM BKN033 11/08 A2951

2010/08/09 15:55
PAED 091555Z AUTO 34009KT 10SM OVC070 12/10 A2962

2010/08/09 15:55
PAEI 091555Z AUTO 00000KT 10SM -RA OVC070 12/10 A2958

2010/08/09 15:53
PAEN 091553Z 05003KT 10SM BKN060 OVC075 13/12 A2961

2010/08/09 15:53
PAFA 091553Z 00000KT 10SM FEW055 BKN075 OVC090 14/11 A2956

2010/08/09 15:56
PAFS 091556Z AUTO 00000KT 8SM -RA OVC043 11/09 A2952

2010/08/09 15:53
PAJN 091553Z 07006KT 10SM FEW006 SCT015 OVC030 12/11 A2997

2010/08/09 15:54
PAKN 091554Z 21011KT 10SM OVC023 11/09 A2951

2010/08/09 15:53
PAKT 091553Z 13007KT 5SM BR SCT004 OVC011 13/12 A3001

2010/08/09 15:53
PANC 091553Z 33006KT 10SM FEW008 SCT065 BKN090 BKN200 13/12 A2963

2010/08/09 15:53
PAOM 091553Z 12009KT 10SM FEW013 SCT024 OVC031 12/10 A2929

2010/08/09 15:53
PAOR 091553Z AUTO VRB03KT 10SM SCT070 OVC095 11/09 A2969

2010/08/09 15:53
PAOT 091553Z 07013KT 10SM FEW080 SCT110 BKN150 15/10 A2942

2010/08/09 15:56
PARY 091556Z AUTO 06009KT 10SM BKN033 OVC040 11/09 A2948

2010/08/09 15:53
PASC 091553Z 06021G28KT 3/4SM R05/4000V5500FT BR OVC003 03/03 A2976

2010/08/09 15:53
PASI 091553Z 00000KT 10SM FEW004 BKN034 OVC040 13/12 A2996

2010/08/09 15:56
PATQ 091556Z AUTO 07017KT 10SM OVC007 01/00 A2982

2010/08/09 15:56
PAVD 091556Z 09003KT 1 1/2SM SCT001 BKN020 OVC030 10/08 A2982

2010/08/09 15:56
PAWG 091556Z 13003KT 4SM SCT000 BKN020 OVC040 12/11 A3000

2010/08/09 15:51
PFYU 091551Z 01010KT 10SM FEW050 BKN080 11/ A2959

2010/08/09 16:00
OJAI 091600Z 31010KT CAVOK 32/17 Q1008 NOSIG

2010/08/09 16:00
OJAM 091600Z 31006KT 5000 HZ NSC 31/15 Q1009 NOSIG

2010/08/09 16:00
GQNN 091600Z 27009KT 240V300 CAVOK 31/19 Q1010 NOSIG

2010/08/09 16:00
OEDF 091600Z 07009KT 6000 SKC 37/19 Q0996 NOSIG

2010/08/09 16:00
OEDR 091600Z 09006KT 4000 HZ NSC 37/26 Q0995 NOSIG

2010/08/09 16:00
OEMA 091600Z 02006KT 9000 SCT045 SCT100 43/M03 Q1003 NOSIG

2010/08/09 16:00
OERK 091600Z 04010KT 8000 SKC 40/02 Q1003 NOSIG

2010/08/09 16:00
OIAA 091600Z 18004KT CAVOK 39/17 Q0996

2010/08/09 16:00
OIAW 091600Z 18004KT CAVOK 42/12 Q0995 A2941

2010/08/09 16:00
OIBB 091600Z 21004KT 7000 SKC 35/29 Q0996 A2942

2010/08/09 16:00
OIBK 091600Z 29004KT 7000 NSC 34/27 Q0996 A2944

2010/08/09 16:00
OICC 091600Z 09004KT 9999 SCT045 32/M06 Q1011 A2987 863.3

2010/08/09 16:00
OIFM 091600Z 04004KT 9999 FEW040 30/M01 Q1015 A2998

2010/08/09 16:00
OIGG 091600Z 00000KT CAVOK 28/22 Q1008 A2978

2010/08/09 16:00
OIKB 091600Z 10006KT CAVOK 33/27 Q0996 A2944

2010/08/09 16:00
OIKK 091600Z 35006KT CAVOK 27/M01 Q1015 A2997

2010/08/09 16:00
OIMM 091600Z 36010KT CAVOK 30/M01 Q1013 A2992

2010/08/09 16:00
OINZ 091600Z 00000KT CAVOK 29/23 Q1008 A2979

2010/08/09 16:00
OISS 091600Z 09004KT CAVOK 32/M09 Q1011 A2988

2010/08/09 16:00
OITR 091600Z 33004KT 9999 FEW035CB SCT040 31/12 Q1011 A2988

2010/08/09 16:00
OITT 091600Z 05018KT 9999 FEW040TCU FEW045CB 30/08 Q1014 A2995

2010/08/09 16:00
OIYY 091600Z 04004KT CAVOK 32/M05 Q1012 A2991

2010/08/09 16:00
OKBK 091600Z 15009KT 7000 NSC 40/07 Q0996 NOSIG

2010/08/09 16:00
ORBI 091600Z 31004KT CAVOK 41/10 Q0999 NOSIG

2010/08/09 16:00
OSAP 091600Z 27015KT CAVOK 33/15 Q1004

2010/08/09 16:00
OSDI 091600Z 22015KT CAVOK 38/04 Q1005

2010/08/09 16:00
OSLK 091600Z 23006KT 9999 SCT030 29/22 Q1005

2010/08/09 16:00
OMAA 091600Z 36009KT CAVOK 36/24 Q0996 A2941 NOSIG

2010/08/09 16:00
OMAL 091600Z VRB01KT CAVOK 42/12 Q0998 A2949

2010/08/09 16:00
OMDB 091600Z 02005G15KT 350V050 CAVOK 40/12 Q0996 NOSIG

2010/08/09 16:00
OMFJ 091600Z 08004KT 240V140 CAVOK 32/25 Q0998 A2947

2010/08/09 16:00
OMRK 091600Z 00000KT CAVOK 38/20 Q0996 A2941

2010/08/09 16:00
OMSJ 091600Z 06003KT 020V100 CAVOK 37/16 Q0997

2010/08/09 16:00
OYAA 091600Z 12005KT 7000 FEW040CB 33/17 Q1000

2010/08/09 16:00
OYHD 091600Z 36010KT 6000 BKN030 34/31 Q1000

2010/08/09 16:00
OYSN 091600Z 28008KT 9999 BKN030 22/12 Q1020

2010/08/09 16:00
OYTZ 091600Z 28006KT 9999 SCT030 28/14 Q1007

2010/08/09 16:04
CYFC 091604Z AUTO 18010KT 6SM -RA BR OVC014 20/19 A2990 RMK SLP128 DENSITY ALT 600FT RVR MISG

2010/08/09 16:00
OMAD 091600Z 36009KT CAVOK 35/27 Q0996 A2942

2010/08/09 16:00
SLCA 091600Z 00000KT 9999 SKC 18/06 Q1024

2010/08/09 16:00
SLCO 091600Z 15005KT 6000 SKC 33/21 Q1016

2010/08/09 16:00
SLCP 091600Z 18010KT 9999 SKC 24/11 Q1021

2010/08/09 16:00
SLJE 091600Z 19004KT 8000 SKC 28/12 Q1022

2010/08/09 16:00
SLJO 091600Z 14007KT 7000 SKC 29/16 Q1018

2010/08/09 16:00
SLMG 091600Z 16008KT 7000 SKC 29/15 Q1019

2010/08/09 16:00
SLOR 091600Z 34005KT 9999 SKC 14/M09 Q1038

2010/08/09 16:00
SLPO 091600Z 24005KT 9999 SKC 14/M08 Q1040

2010/08/09 16:00
SLPS 091600Z 26008KT 7000 SKC 26/09 Q1017

2010/08/09 16:00
SLRB 091600Z 00000KT 7000 SKC 23/15 Q1022

2010/08/09 16:00
SLRI 091600Z 17008KT 5000 FU SKC 33/19 Q1016

2010/08/09 16:00
SLRQ 091600Z 12006KT 8000 29/20 Q1019

2010/08/09 16:00
SLRY 091600Z 16012KT 5000 FU SKC 28/16 Q1020

2010/08/09 16:00
SLSA 091600Z 14008KT 6000 SKC 29/12 Q1017

2010/08/09 16:00
SLSI 091600Z 18010KT 9999 SKC 26/13 Q1020

2010/08/09 16:00
SLSU 091600Z 04006KT 9999 FEW017 14/08 Q1031

2010/08/09 16:00
SLVM 091600Z 00000KT 9999 SKC 22/17 Q1021

2010/08/09 16:00
SLYA 091600Z 00000KT 9999 SKC 20/10 Q1026

2010/08/09 16:00
SBAR 091600Z 15012KT 9999 SCT018 27/21 Q1018

2010/08/09 16:00
SBCJ 091600Z 13007KT 9999 FEW030 31/11 Q1017

2010/08/09 16:00
SBCT 091600Z 07008KT 9999 SCT007 OVC009 13/10 Q1023

2010/08/09 16:00
SBCY 091600Z 21004KT CAVOK 35/10 Q1015

2010/08/09 16:00
SBCZ 091600Z 00000KT CAVOK 32/21 Q1017

2010/08/09 16:00
SBFL 091600Z 16011KT 9999 FEW025 20/08 Q1022

2010/08/09 16:00
SBFN 091600Z 10007KT 9999 BKN017 29/24 Q1014

2010/08/09 16:00
SBGO 091600Z 17004KT 9999 FEW022 32/07 Q1019

2010/08/09 16:00
SBBE 091600Z 14006KT 9999 SCT025 32/23 Q1012

2010/08/09 16:00
SBBR 091600Z 11007KT CAVOK 29/M03 Q1023

2010/08/09 16:00
SBCF 091600Z 33002KT CAVOK 25/06 Q1021

2010/08/09 16:00
SBCG 091600Z 08006KT CAVOK 30/06 Q1019

2010/08/09 16:00
SBEG 091600Z 35004KT 9999 SCT020 32/22 Q1013

2010/08/09 16:00
SBFI 091600Z 17004KT CAVOK 19/11 Q1020

2010/08/09 16:00
SBFZ 091600Z 13014KT CAVOK 31/18 Q1013

2010/08/09 16:00
SBGL 091600Z 24020KT 9999 SCT020 26/16 Q1020

2010/08/09 16:00
SBGR 091600Z 18007KT 7000 FEW013 BKN019 17/13 Q1024

2010/08/09 16:00
SBKP 091600Z 17004KT 7000 NSC 26/10 Q1021

2010/08/09 16:00
SBPA 091600Z 25002KT 9999 SCT030 14/09 Q1026

2010/08/09 16:00
SBPS 091600Z 12012KT 9999 SCT020 24/18 Q1018

2010/08/09 16:00
SBRF 091600Z 18014KT 8000 -RA SCT007 BKN010 BKN070 24/22 Q1016

2010/08/09 16:00
SBSL 091600Z 12004KT 9999 BKN020 31/23 Q1013

2010/08/09 16:00
SBSN 091600Z 08008KT 9999 FEW023 31/24 Q1013

2010/08/09 16:00
SBSV 091600Z 11008KT 9999 FEW017 26/18 Q1018

2010/08/09 16:00
SBTT 091600Z 20005KT 8000 NSC 30/23 Q1016

2010/08/09 16:00
SBLO 091600Z 09002KT CAVOK 26/10 Q1020

2010/08/09 16:00
SBMA 091600Z 16005KT 9999 FEW035 39/21 Q1013

2010/08/09 16:00
SBMN 091600Z 17003KT 9999 FEW017 30/24 Q1014

2010/08/09 16:00
SBMO 091600Z 17004KT 9999 SCT018 BKN100 24/19 Q1017

2010/08/09 16:00
SBMQ 091600Z 00000KT 9999 SCT025 35/25 Q1013

2010/08/09 16:00
SBPK 091600Z 21012KT CAVOK 16/06 Q1025

2010/08/09 16:00
SBPP 091600Z 35005KT CAVOK 27/16 Q1020

2010/08/09 16:00
SBPV 091600Z 19006KT 4000 FU NSC 34/17 Q1014

2010/08/09 16:00
SBRB 091600Z 17006KT 7000 NSC 37/16 Q1016

2010/08/09 16:00
SBRJ 091600Z 19010KT 9999 FEW025 25/17 Q1019

2010/08/09 16:00
SBSP 091600Z 21006KT 9999 BKN010 15/12 Q1024

2010/08/09 16:00
SBTE 091600Z 11008KT 9999 FEW030 35/20 Q1012

2010/08/09 16:00
SBUG 091600Z 09010KT 9999 FEW030 16/06 Q1024

2010/08/09 16:00
SBVT 091600Z 00000KT CAVOK 34/21 Q1016

2010/08/09 15:53
PABI 091553Z 19015G24KT 10SM FEW090 BKN110 BKN180 14/05 A2962

2010/08/09 15:55
PACZ 091555Z 15008KT 2SM BR -DZ OVC008 09/07 A2919

2010/08/09 15:55
PACZ 091555Z 15008KT 2SM BR -DZ BKN008 09/07 A2919

2010/08/09 15:56
PADK 091556Z 29018KT 6SM BKN028 OVC035 10/07 A2968

2010/08/09 15:55
PAEH 091555Z AUTO 17015G34KT 140V200 3SM OVC005 09/08

2010/08/09 15:55
PAFB 091555Z VRB03KT 13SM FEW050 BKN070 OVC090 14/10 A2957

2010/08/09 15:58
PAGA 091558Z AUTO 12008KT 10SM OVC060 12/11 A2945

2010/08/09 15:55
PAIM 091555Z AUTO 04008KT 020V080 10SM SCT090 13/09 A2950

2010/08/09 15:55
PALU 091555Z AUTO 06018KT 3SM 08/08 A2960

2010/08/09 15:55
PASV 091555Z AUTO 00000KT 10SM SCT025 OVC041 10/08 A2950

2010/08/09 15:56
PASY 091556Z AUTO 29006KT 1SM BR VV001 09/08 A2984

2010/08/09 15:55
PATC 091555Z 01016KT 10SM BKN090 13/11 A2932

2010/08/09 15:55
PATL 091555Z AUTO 22004KT 5SM OVC008 11/11 A2949

2010/08/09 16:00
SASJ 091600Z 07010KT 8000 NSC 16/02 Q1022

2010/08/09 16:00
SAVC 091600Z 27025G35KT CAVOK 15/M00 Q1015

2010/08/09 16:00
SAWE 091600Z 27033KT 9999 FEW011 03/M02 Q0997

2010/08/09 16:00
SBSJ 091600Z 24016KT CAVOK 20/13 Q1023

2010/08/09 16:00
SBTF 091600Z 30003KT 9999 SCT020 BKN100 31/25 Q1014

2010/08/09 16:00
SLCO 091600Z 15005KT 6000 SKC 33/21 Q1016

2010/08/09 16:00
SLPO 091600Z 24005KT 9999 SKC 14/M08 Q1040

2010/08/09 16:00
SLRY 091600Z 16012KT 5000 FU SKC 28/16 Q1020

2010/08/09 16:00
SLSA 091600Z 14008KT 6000 SKC 29/12 Q1017

2010/08/09 16:00
SLSU 091600Z 04006KT 9999 FEW017 14/08 Q1031

2010/08/09 16:00
SPHI 091600Z 21009KT CAVOK 21/15 Q1018 RMK PP000

2010/08/09 16:00
SPQT 091600Z /////KT 7000 FEW020 BKN100 29/23 Q1016 NOSIG RMK BIRD HAZARD RWY 06/24 PP000

2010/08/09 16:00
SPQU 091600Z 26006KT 230V310 CAVOK 19/M12 Q1028 NOSIG RMK PP000

2010/08/09 16:00
SPRU 091600Z 18009KT 8000 SKC 17/13 Q1017 RMK BIRD HAZARD RWY20 PP000

2010/08/09 16:00
SPSO 091600Z 25006KT 4000 BR FEW010 BKN014 18/13 Q1019 RMK BIRD HAZARD RWY 22/04W PP000

2010/08/09 16:00
SPTN 091600Z 19003KT 140V290 CAVOK 16/08 Q1015 RMK PP000

2010/08/09 16:00
SPZO 091600Z VRB02KT 9999 SKC 16/M17 Q1035 NOSIG RMK PP000

2010/08/09 16:00
SUAA 091600Z 28006KT CAVOK 14/07 Q1025

2010/08/09 16:00
SUAG 091600Z 11006KT CAVOK 16/03 Q1024

2010/08/09 16:00
SUCA 091600Z 29009KT CAVOK 16/06 Q1024

2010/08/09 16:00
SULS 091600Z 26009KT CAVOK 16/04 Q1025

2010/08/09 16:00
SUMU 091600Z 27008KT CAVOK 16/05 Q1025 NOSIG

2010/08/09 16:00
SUSO 091600Z 10010KT CAVOK 16/03 Q1025

2010/08/09 16:00
SVCB 091600Z 00000KT 9999 SCT040 28/24 Q1014

2010/08/09 16:00
SVPR 091600Z 18010KT 9999 SCT050 XX/XX Q1016

2010/08/09 16:00
SVST 091600Z 18006KT 9999 SCT015 XX/XX Q1016

2010/08/09 16:00
SBJP 091600Z 17014KT 9999 SCT012 BKN018 BKN070 24/23 Q1016

2010/08/09 16:00
SBPB 091600Z 03012KT 9999 FEW020 32/21 Q1012

2010/08/09 16:00
SBPL 091600Z 14008KT 9999 SCT025 29/16 Q1018

2010/08/09 16:00
SBTF 091600Z 30003KT 9999 SCT020 BKN100 31/25 Q1014

2010/08/09 16:00
MBPV 091600Z 13011KT 9999 SCT015 SCT060 32/25 A3000

2010/08/09 15:50
MUCM 091550Z 11006KT 050V150 9000 FEW020 BKN090 30/23 Q1015

2010/08/09 15:50
MUCU 091550Z 19006KT 160V220 9999 FEW020 30/23 Q1016

2010/08/09 15:55
MUHA 091555Z 02003KT 7000 -RA SCT005 BKN066 26/24 Q1015

2010/08/09 15:53
MUVR 091553Z 02006KT 330V060 7000 -RA SCT018 OVC060 25/23 Q1016

2010/08/09 16:00
MWCB 091600Z 11006KT 9999 FEW016 32/26 Q1015

2010/08/09 16:00
MWCR 091600Z 18005KT 9999 FEW018 32/25 Q1015 NOSIG

2010/08/09 15:59
MYEG 091559Z AUTO 11007KT 10SM CLR 28/23 A2999 RMK AO2

2010/08/09 16:00
MYGF 091600Z 19007KT 9999 VCSH FEW015CB BKN100 26/25 A3000 RMK CB/VCSH W/N RE55 /

2010/08/09 16:00
MYGF 091600Z 19007KT 9999 VCSH FEW015CB BKN100 26/25 A3000 RMK CB/VCSH W/N RE55

2010/08/09 16:00
MYNN 091600Z 17005KT 9999 FEW020 SCT038 BKN080 31/22 A2998

2010/08/09 16:00
MDLR 091600Z 07010KT 9999 SCT025 32/25 Q1015

2010/08/09 16:00
MDPC 091600Z 07010KT 9999 SCT025 SCT300 31/25 Q1013 NOSIG

2010/08/09 16:00
MDPC 091600Z 07010KT 9999 SCT025 SCT300 31/25 Q1013 NOSIG MDJB 091600Z 03006KT 9999 FEW018TCU SCT020 SCT300 31/24 Q1014 TCU/N

2010/08/09 16:00
MDPP 091600Z 08013KT 9999 SCT022 32/26 Q1016

2010/08/09 16:00
MDSD 091600Z 14006KT 9999 SCT025 SCT300 32/23 Q1014

2010/08/09 16:00
MDST 091600Z 11009KT 9999 BKN022 30/24 Q1015

2010/08/09 16:00
TAPA 091600Z 07009KT 9999 SCT016 SCT035 27/25 Q1015

2010/08/09 15:53
TIST 091553Z 16010G17KT 10SM CLR 30/25 A2999 RMK AO2 RAE1456 SLP155 P0000 T03000250

2010/08/09 15:53
TISX 091553Z 09011KT 6SM -RA BR SCT018 BKN060 26/23 A2999 RMK AO2 SLP153 P0003 T02560233 $

2010/08/09 15:50
TJBQ 091550Z 06013G17KT 10SM FEW020 31/25 A2998

2010/08/09 15:50
TJMZ 091550Z 31005KT 10SM BKN030 31/28 A2998 VCSH NE

2010/08/09 15:56
TJSJ 091556Z 09015G22KT 10SM FEW024 SCT046 SCT085 31/24 A2998 RMK AO2 RAB24E33 SLP151 VCSH SE-S P0000 T03110244

2010/08/09 16:00
TKPK 091600Z 07009KT 9999 FEW019 BKN046 29/25 Q1015

2010/08/09 16:00
TUPJ 091600Z 13013KT 9999 VCSH SCT018TCU BKN220 31/24 A3001

2010/08/09 16:00
TBPB 091600Z 16010KT 9999 FEW014CB SCT016 BKN260 30/25 Q1015 NOSIG

2010/08/09 16:00
TFFR 091600Z 12005KT 080V170 9999 SCT018 SCT053 28/25 Q1014 TEMPO 4000 SHRA

2010/08/09 16:00
MGPB 091600Z 36006KT 9999 SCT020 SCT200 31/25 Q1012 A29/88

2010/08/09 16:00
MGPB 091600Z 36006KT 9999 SCT020 SCT200 31/25 Q1012 A29.88

2010/08/09 16:00
MGSJ 091600Z 14008KT 9999 SCT018 BKN200 30/26 Q1013 A29/91

2010/08/09 16:00
MGSJ 091600Z 14008KT 9999 SCT018 BKN200 30/26 Q1013 A29.91

2010/08/09 16:00
MHLC 091600Z 36004KT 9999 SCT024TCU BKN250 31/25 Q1013 A2991 NOSIG

2010/08/09 16:00
MHLM 091600Z 18008KT 9999 FEW028 BKN250 31/26 Q1013 A2991 NOSIG

2010/08/09 16:00
MHTG 091600Z 36005KT 9999 SCT026 BKN250 26/20 Q1019 A3009 NOSIG

2010/08/09 16:00
MPCH 091600Z 00000KT 9999 FEW020 SCT100 BKN300 Q1014

2010/08/09 16:00
MPDA 091600Z 09004KT 9999 SCT012 BKN300 29/24 Q1012

2010/08/09 16:00
MPMG 091600Z 00000KT 9999 SCT015CB BKN090 29/24 Q1014 RWY DAMP NOSIG

2010/08/09 16:00
MPTO 091600Z 00000KT 9999 FEW009 SCT016 BKN080 28/24 Q1013 NOSIG RWY DAMP REDZ

2010/08/09 16:00
MRLB 091600Z 00000KT 9999 FEW020 BKN120 29/24 A2988

2010/08/09 16:00
MRLM 091600Z 00000KT 9999 FEW025 BKN130 29/24 A2992 RMK RA DST NE

2010/08/09 16:00
MROC 091600Z 00000KT 9999 FEW040 BKN120 25/21 A3005 NOSIG

2010/08/09 16:00
MRPV 091600Z 07010KT 9999 FEW040 SCT100 BKN250 24/18 A3002 NOSIG

2010/08/09 15:55
MSLP 091555Z 13002KT 9999 FEW027 BKN300 31/23 Q1012

2010/08/09 15:50
MSLP 091550Z 13002KT 9999 FEW027 BKN300 31/23 Q1012 A2989

2010/08/09 15:55
MSSS 091555Z 34003KT 9999 FEW020 BKN300 26/23 Q1016

2010/08/09 15:50
MSSS 091550Z 34003KT 9999 FEW020 BKN300 26/23 Q1016 A3002

2010/08/09 16:00
MZBZ 091600Z 12005KT 9999 BKN024 BKN280 31/27 A2992 CBTOP-S NOSIG

2010/08/09 16:00
MZBZ 091600Z 12005KT 9999 BKN024 BKN280 31/27 A2992 Q1013 CBTOP-S NOSIG

2010/08/09 15:57
MUCL 091557Z VRB02KT 9000 FEW015TCU BKN060 28/27 Q1016

2010/08/09 15:50
MUCM 091550Z 11006KT 050V150 9000 FEW020 BKN090 30/23 Q1015

2010/08/09 15:50
MUCU 091550Z 19006KT 160V220 9999 FEW020 30/23 Q1016

2010/08/09 15:56
MUGM 091556Z 12015KT 9999 SCT025 OVC250 31/24 A2996 RMK SLP146 T03110244

2010/08/09 15:55
MUHA 091555Z 02003KT 7000 -RA SCT005 BKN066 26/24 Q1015

2010/08/09 15:55
MUMZ 091555Z 03006KT 9000 SCT025 30/23 Q1015

2010/08/09 15:53
MUVR 091553Z 02006KT 330V060 7000 -RA SCT018 OVC060 25/23 Q1016

2010/08/09 15:53
TIST 091553Z 16010G17KT 10SM CLR 30/25 A2999

2010/08/09 15:53
TISX 091553Z 09011KT 6SM -RA BR SCT018 BKN060 26/23 A2999

2010/08/09 15:50
TJBQ 091550Z 06013G17KT 10SM FEW020 31/25 A2998

2010/08/09 15:50
TJMZ 091550Z 31005KT 10SM BKN030 31/28 A2998 VCSH NE

2010/08/09 15:56
TJSJ 091556Z 09015G22KT 10SM FEW024 SCT046 SCT085 31/24 A2998

2010/08/09 16:00
MGGT 091600Z 36010KT 9999 SCT017 OVC200 24/18 Q1025 A30/27 PACAY A EN ACTIVIDAD NOSIG

2010/08/09 16:00
MGGT 091600Z 36010KT 9999 SCT017 OVC200 24/18 Q1025 A30.27 PACAY A EN ACTIVIDAD NOSIG

2010/08/09 16:00
MGGT 091600Z 36010KT 9999 SCT017 OVC200 24/18 Q1025 A30/27 PACAYA EN ACTIVIDAD NOSIG

2010/08/09 16:00
MGGT 091600Z 36010KT 9999 SCT017 OVC200 24/18 Q1025 A30.27 PACAYA EN ACTIVIDAD NOSIG

2010/08/09 16:00
MGHT 091600Z 00000KT 9999 FEW018 BKN200 22/16 QFE 818/3

2010/08/09 16:00
MGHT 091600Z 00000KT 9999 FEW018 BKN200 22/16 QFE 818.3

2010/08/09 16:00
MHAM 091600Z 04002KT 9999 FEW015 BKN250 30/26

2010/08/09 16:00
MHCA 091600Z 17004KT 9999 SCT025TCU BKN080 28/21 TCU TD

2010/08/09 16:00
MHCH 091600Z 36002KT 9999 SCT032TCU SCT250 32/25 FEW100 TCU S HZ

2010/08/09 16:00
MHLE 091600Z 03005KT 9999 SCT024 BKN200 22/16 Q1024

2010/08/09 16:00
MHNO 091600Z 01004KT 9999 FEW040 SCT250 27/// HZ

2010/08/09 16:00
MHRO 091600Z 10012KT 9999 FEW022TCU BKN250 31/25 Q1013 A2991 NOSIG

2010/08/09 16:00
MHSR 091600Z 02002KT 9999 FEW009 SCT025 BKN250 25/19 HZ

2010/08/09 16:00
MHTE 091600Z 35004KT 9999 SCT024TCU SCT080 28/23 Q1012 TCU N NNE SW HZ

2010/08/09 16:00
MHYR 091600Z 18004KT 9999 SCT023TCU 27/22 TCU TD HZ

2010/08/09 15:55
MSAC 091555Z 13004KT 9999 FEW037 BKN300 29/24 Q1011

2010/08/09 15:53
PHJR 091553Z AUTO VRB05KT 10SM FEW037 BKN047 25/17 A3008

2010/08/09 15:53
PHKO 091553Z VRB03KT 10SM CLR 22/18 A3000

2010/08/09 15:53
PHLI 091553Z 07010KT 10SM FEW023 OVC044 24/21 A3010

2010/08/09 15:53
PHNL 091553Z 07010KT 10SM FEW034 25/16 A3007

2010/08/09 15:54
PHOG 091554Z 05011KT 10SM CLR 24/17 A3007

2010/08/09 16:00
PHTO 091600Z VRB03KT 10SM -RA SCT027 BKN043 BKN055 BKN140 20/19 A3009

2010/08/09 15:53
PHTO 091553Z 12005KT 10SM RA SCT027 BKN049 OVC055 21/19 A3009

2010/08/09 16:00
ZBAA 091600Z 09001MPS 2000 BR SKC 26/24 Q1006 NOSIG

2010/08/09 16:00
ZBTJ 091600Z 03001MPS 2500 BR NSC 26/24 Q1006 NOSIG

2010/08/09 16:00
ZBYN 091600Z 09002MPS 060V120 3000 -RA BR BKN040 24/20 Q1009 NOSIG

2010/08/09 16:00
ZGGG 091600Z 14002MPS 9999 FEW046 30/26 Q1006 NOSIG

2010/08/09 16:00
ZGNN 091600Z VRB01MPS 9999 FEW023 28/25 Q1005 NOSIG

2010/08/09 16:00
ZGSZ 091600Z VRB01MPS CAVOK 29/24 Q1005 NOSIG

2010/08/09 16:00
ZHHH 091600Z 11003MPS 3500 BR SKC 30/29 Q1003 NOSIG

2010/08/09 16:00
ZLLL 091600Z 35002MPS CAVOK 17/14 Q1015 NOSIG

2010/08/09 16:00
ZMUB 091600Z 00000MPS CAVOK 11/00 Q1008 NOSIG RMK QFE649.8 48

2010/08/09 16:00
ZPPP 091600Z 18003MPS 9999 FEW026 21/16 Q1017 NOSIG

2010/08/09 16:00
ZSAM 091600Z 26002MPS CAVOK 30/22 Q1005 NOSIG

2010/08/09 16:00
ZSHC 091600Z 07002MPS CAVOK 28/25 Q1004

2010/08/09 16:00
ZSNJ 091600Z 07005MPS CAVOK 28/24 Q1004 NOSIG

2010/08/09 16:00
ZSOF 091600Z 00000MPS 8000 SKC 27/23 Q1004 NOSIG

2010/08/09 16:00
ZSPD 091600Z 05005MPS 360V070 9999 BKN011 28/26 Q1003 NOSIG

2010/08/09 16:00
ZSSS 091600Z 07002MPS 040V100 9999 SCT020 29/26 Q1003 NOSIG

2010/08/09 16:00
ZUCK 091600Z 36002MPS CAVOK 32/21 Q1003 NOSIG

2010/08/09 16:00
ZUUU 091600Z 33001MPS 4000 BR SCT030 28/24 Q1004 NOSIG

2010/08/09 16:00
ZWWW 091600Z 28004MPS 250V340 CAVOK 27/08 Q1008 NOSIG

2010/08/09 16:00
ZYHB 091600Z 22003MPS CAVOK 15/15 Q1006 NOSIG

2010/08/09 16:00
ZYTL 091600Z VRB01MPS 6000 BKN040 24/22 Q1007 NOSIG

2010/08/09 16:00
EPGD 091600Z 05004KT 360V100 9999 FEW036 FEW045TCU 21/16 Q1015

2010/08/09 16:00
EPKK 091600Z 26003KT 9999 -SHRA FEW023 SCT040TCU 17/16 Q1017

2010/08/09 16:00
EPKT 091600Z 14004KT 100V210 9999 VCTS -SHRA SCT050CB 16/14 Q1016 RESHRA

2010/08/09 16:00
EPPO 091600Z 34006KT 9999 TS FEW015 SCT036CB 20/17 Q1015

2010/08/09 16:00
EPRZ 091600Z 07003KT 360V090 9999 FEW040CB 24/17 Q1015

2010/08/09 16:00
EPWA 091600Z 14004KT 100V190 CAVOK 25/15 Q1015 NOSIG

2010/08/09 16:00
UKBB 091600Z 25005MPS 220V290 9999 FEW033CB 31/15 Q1013 RETS 88290095 NOSIG

2010/08/09 16:00
UKLL 091600Z 09004MPS 9999 BKN033 24/17 Q1016 13090070 NOSIG

2010/08/09 16:00
UKOO 091600Z VRB02MPS CAVOK 33/18 Q1011 16090070 NOSIG

2010/08/09 16:00
LBBG 091600Z 35006MPS CAVOK 30/21 Q1010 NOSIG

2010/08/09 16:00
LBPD 091600Z VRB01MPS 9999 FEW050 SCT090 31/18 Q1011 NOSIG

2010/08/09 16:00
LBSF 091600Z 01003MPS 340V040 9999 FEW060 28/17 Q1015 NOSIG

2010/08/09 16:00
LBWN 091600Z 34005MPS 310V010 CAVOK 29/22 Q1010 NOSIG

2010/08/09 16:00
LHBP 091600Z 30005KT 260V330 9999 FEW048 25/13 Q1016 NOSIG

2010/08/09 16:00
LRBS 091600Z VRB02KT CAVOK 31/19 Q1012 NOSIG

2010/08/09 16:00
LRCK 091600Z 02008KT 360V060 CAVOK 32/19 Q1011 NOSIG

2010/08/09 16:00
LROP 091600Z 36004KT 340V040 CAVOK 31/19 Q1012 880///95 NOSIG

2010/08/09 16:00
LRTR 091600Z 32005KT CAVOK 27/16 Q1015 NOSIG

2010/08/09 16:00
UDYZ 091600Z 04006MPS 9999 FEW100 32/08 Q1008 09010070 NOSIG

2010/08/09 16:00
UDSG 091600Z 06009MPS 9999 FEW050 24/11 Q1015 02CLRD70 NOSIG

2010/08/09 16:00
OEJN 091600Z 28004KT CAVOK 34/27 Q1000 NOSIG

2010/08/09 16:00
OYSN 091600Z 28008KT 9999 BKN030 22/12 Q1020

2010/08/09 16:00
OMAA 091600Z 36009KT CAVOK 36/24 Q0996 A2941 NOSIG

2010/08/09 16:00
OMAD 091600Z 36009KT CAVOK -5/27 Q0996 A2942

2010/08/09 16:00
OMAL 091600Z VRB01KT CAVOK 42/12 Q0998 A2949

2010/08/09 16:00
OMDB 091600Z 02005G15KT 350V050 CAVOK 40/12 Q0996 NOSIG

2010/08/09 16:00
OMDW 091600Z 01008KT CAVOK 36/18 Q0997 NOSIG

2010/08/09 16:00
OMRK 091600Z 00000KT CAVOK 38/20 Q0996 A2941

2010/08/09 16:00
OMSJ 091600Z 06003KT 020V100 CAVOK 37/16 Q0997

2010/08/09 16:00
UAAA 091600Z 18003MPS 9999 SCT050CB BKN100 24/07 Q1009 88CLRD65 TEMPO TS

2010/08/09 16:00
UACC 091600Z 02004MPS 7000 BKN060 13/05 Q1013 040/0070 NOSIG RMK QFE728/0971

2010/08/09 16:00
UAKK 091600Z 02006MPS CAVOK 16/07 Q1011 050///70 NOSIG RMK QFE711/0948

2010/08/09 16:00
UARR 091600Z 01003MPS CAVOK 30/04 Q1015 04CLRD70 NOSIG RMK QFE757/1010

2010/08/09 16:00
UATE 091600Z 08005MPS 9999 SCT060CB BKN183 34/03 Q1009 120///70 NOSIG RMK QFE755/1007

2010/08/09 16:00
UATG 091600Z 23002MPS 9999 FEW033CB SCT133 33/09 Q1011 14CLRD70 NOSIG RMK QFE760/1013 

2010/08/09 16:00
UATT 091600Z 05007MPS 8000 FU SKC 29/07 Q1015 31CLRD70 NOSIG RMK QFE741/0988

2010/08/09 16:00
UAUU 091600Z 05004MPS 020V080 CAVOK 21/03 Q1018 33CLRD70 NOSIG RMK QFE748/0998

2010/08/09 16:00
OIKR 091600Z 36012KT CAVOK 29/04 Q1014 A2995

2010/08/09 16:00
OING 091600Z 22008KT CAVOK 29/18 Q1009 A2980

2010/08/09 16:00
OIZB 091600Z 31014KT CAVOK 37/04 Q0999 A2952

2010/08/09 16:00
OIZI 091600Z 35014KT CAVOK 40/M02 Q1000 A2954

2010/08/09 16:00
OOMS 091600Z 07005KT 8000 NSC 31/27 Q0997 NOSIG

2010/08/09 15:50
OOSA 091550Z AUTO 18005KT 26/22 Q1003

2010/08/09 16:00
UTDD 091600Z 05003MPS 9999 FEW066 FEW190 29/05 Q1005 09CLRD70 NOSIG RMK QFE686/0915

2010/08/09 16:00
UTDL 091600Z 24005MPS 9999 OVC140 30/10 Q1005 NOSIG RMK QFE716 8809//70

2010/08/09 16:00
UTAA 091600Z 33003MPS 9999 FEW230 33/07 Q1006 NOSIG

2010/08/09 16:00
UTAM 091600Z 32003MPS 6300 SKC 32/09 Q1005 NOSIG

2010/08/09 16:00
UTAT 091600Z 30004MPS P5000 FEW200 31/14 Q1008 NOSIG

2010/08/09 16:00
OIAA 091600Z 18004KT CAVOK 39/17 Q0996

2010/08/09 16:00
OIBK 091600Z 29004KT 70???P0?? ????J

2010/08/09 16:00
OICC 091600Z 09004KT 9999 SCT045 32/M06 Q1011 A2987 863.3

2010/08/09 16:00
OIGG 091600Z 00000KT CAVOK 28/22 Q1008 A2978

2010/08/09 16:00
OIIE 091600Z 05006KT CAVOK 33/M01 Q1010 A2984

2010/08/09 16:00
OITR 091600Z 33004KT 9999 FEW035CB SCT040 31/12 Q1011 A2988

2010/08/09 16:00
OIYY 091600Z 04004KT CAVOK 32/M05 Q1012 A2991

2010/08/09 16:02
LIYW 091602Z AUTO 20004KT 9999 CLR 28/17 A2996 RMK AO2 DZE1602 SLP143

2010/08/09 15:54
PGSN 091554Z 18007KT 6SM -RA BR SCT016 BKN030 BKN050 26/24 A2989

2010/08/09 15:55
PGUA 091555Z AUTO 15004KT 10SM BKN075 24/24 A2991

2010/08/09 15:54
PGUM 091554Z 00000KT 10SM OVC060 24/24 A2991

2010/08/09 16:00
PKWA 091600Z AUTO 07011KT 10SM BKN018 BKN028 28/23 A2984

2010/08/09 16:00
LATI 091600Z 35010KT CAVOK 28/23 Q1012 NOSIG

2010/08/09 16:00
LDDU 091600Z 28009KT 250V320 CAVOK 26/16 Q1013 NOSIG

2010/08/09 16:00
LDOS 091600Z VRB08KT 9999 FEW040 27/16 Q1016

2010/08/09 16:00
LDPL 091600Z 27008KT CAVOK 28/17 Q1014 NOSIG

2010/08/09 16:00
LDRI 091600Z 34005KT 300V010 9999 FEW050 29/14 Q1014

2010/08/09 16:00
LDSP 091600Z 29012KT 250V330 CAVOK 32/11 Q1013 NOSIG

2010/08/09 16:00
LDZA 091600Z 08005KT 020V140 9999 FEW040 26/16 Q1016 NOSIG

2010/08/09 16:00
LDZD 091600Z 29009KT 270V330 9999 FEW050 28/12 Q1014

2010/08/09 16:00
LKMT 091600Z VRB02KT 9999 FEW035CB 18/16 Q1016 RETS NOSIG

2010/08/09 16:00
LKPR 091600Z 26007KT 9999 FEW043 21/12 Q1017 NOSIG

2010/08/09 16:00
LKTB 091600Z 32007KT 280V350 9999 FEW044 SCT100 23/12 Q1016 NOSIG

2010/08/09 16:00
LQSA 091600Z 31006KT 260V010 9999 FEW050 27/16 Q1017 NOSIG

2010/08/09 16:00
LWOH 091600Z 17002KT 9999 FEW050 27/14 Q1014

2010/08/09 16:00
LWSK 091600Z 01013KT 9999 FEW050 30/14 Q1013 NOSIG

2010/08/09 16:00
LYBE 091600Z 04006KT CAVOK 27/14 Q1016 NOSIG

2010/08/09 16:00
LYNI 091600Z 32013KT CAVOK 26/15 Q1015 NOSIG

2010/08/09 16:00
LYPG 091600Z 19004KT 140V220 9999 FEW040 33/12 Q1011 NOSIG

2010/08/09 16:00
LYTV 091600Z 17003KT 070V220 CAVOK 30/16 Q1012 NOSIG

2010/08/09 16:00
LZIB 091600Z 10006KT 080V140 9999 -TSRA FEW018CB SCT032 BKN048 18/15 Q1017

2010/08/09 16:00
LZKZ 091600Z 36008KT 9999 FEW040CB FEW040 SCT100 20/14 Q1016 TEMPO TS

2010/08/09 16:00
LZTT 091600Z 00000KT 9999 VCTS -SHRA FEW006 FEW040CB BKN080 16/14 Q1019 TEMPO TSRA

2010/08/09 16:00
LPFR 091600Z 14004KT CAVOK 31/17 Q1013

2010/08/09 16:00
LPPR 091600Z 32008KT 290V350 CAVOK 31/12 Q1015

2010/08/09 16:00
LPPS 091600Z 01010KT 9999 SCT015 SCT030 24/18 Q1014

2010/08/09 16:00
LPPT 091600Z 22004KT 170V320 CAVOK 39/12 Q1014 NOSIG

2010/08/09 15:59
KDOV 091559Z AUTO 00000KT 10SM -RA CLR 30/23 A3003

2010/08/09 16:00
LFBD 091600Z 27010KT 9999 FEW026 BKN040 22/14 Q1018 NOSIG

2010/08/09 16:00
LFBH 091600Z AUTO 29018KT 9999NDV NSC 21/13 Q1018

2010/08/09 16:00
LFBI 091600Z 28007KT 240V320 CAVOK 28/12 Q1016 NOSIG

2010/08/09 16:00
LFBO 091600Z 28012KT 9999 SCT033 BKN040 25/16 Q1018 NOSIG

2010/08/09 16:00
LFBP 091600Z 22005KT 190V270 9999 BKN031 21/18 Q1019 NOSIG

2010/08/09 16:00
LFBT 091600Z 28005KT 260V330 8000 SCT006 BKN015 18/16 Q1020 NOSIG

2010/08/09 16:00
LFGJ 091600Z AUTO 28006KT 240V310 9999NDV NSC 27/09 Q1016

2010/08/09 16:00
LFKB 091600Z VRB03KT 9999 FEW025 BKN200 26/20 Q1015 NOSIG

2010/08/09 16:00
LFKC 091600Z 05008KT 360V100 9999 FEW018 SCT250 27/19 Q1015 NOSIG

2010/08/09 16:00
LFKJ 091600Z 28004KT 9999 FEW023 SCT150 BKN220 26/17 Q1016 NOSIG

2010/08/09 16:00
LFLB 091600Z 35005KT 310V020 9999 FEW066 29/17 Q1015 NOSIG

2010/08/09 16:00
LFLC 091600Z 03006KT 360V060 9999 FEW060 28/15 Q1015 NOSIG

2010/08/09 16:00
LFLL 091600Z 36007KT 330V040 CAVOK 29/12 Q1015 NOSIG

2010/08/09 16:00
LFLS 091600Z 33006KT 300V360 9999 FEW060 30/10 Q1015 NOSIG

2010/08/09 16:00
LFLY 091600Z AUTO 01006KT 340V050 9999NDV NSC 30/12 Q1015

2010/08/09 16:00
LFMD 091600Z AUTO 16004KT 130V190 9999NDV FEW017 OVC032 25/20 Q1015

2010/08/09 16:00
LFMH 091600Z 33007KT 290V010 9999 FEW043 28/12 Q1016 TEMPO SHRA

2010/08/09 16:02
ETAR 091602Z AUTO VRB03KT 9999 -DZ BKN070 23/12 A3002 RMK AO2 DZB1602 SLP161 $

2010/08/09 15:52
LFBZ 091552Z 28007KT 240V310 9999 SCT018 BKN039 23/17 Q1020 NOSIG

2010/08/09 16:00
LFML 091600Z 19012KT 9999 FEW016 SCT140 27/19 Q1014 NOSIG

2010/08/09 16:00
LFMN 091600Z 12003KT 090V160 9999 FEW020 SCT038 BKN053 25/20 Q1016 NOSIG

2010/08/09 16:00
LFMP 091600Z 20006KT 130V230 9999 FEW050 FEW060CB BKN150 28/16 Q1015 NOSIG

2010/08/09 16:00
LFMT 091600Z 18009KT CAVOK 25/20 Q1014 NOSIG

2010/08/09 16:00
LFOB 091600Z 28008KT 250V320 CAVOK 25/10 Q1015 NOSIG

2010/08/09 16:00
LFOH 091600Z AUTO 35006KT 320V020 9999NDV NSC 20/10 Q1017

2010/08/09 16:00
LFOT 091600Z AUTO VRB03KT 9999NDV NSC 29/09 Q1015

2010/08/09 16:00
LFPB 091600Z 33003KT 250V020 CAVOK 26/11 Q1015 NOSIG

2010/08/09 16:00
LFPG 091600Z 16003KT 090V230 CAVOK 26/10 Q1015 NOSIG

2010/08/09 16:00
LFPN 091600Z 22006KT 100V270 CAVOK 27/10 Q1015 NOSIG

2010/08/09 16:00
LFPO 091600Z 29006KT 240V360 CAVOK 27/10 Q1015 NOSIG

2010/08/09 16:00
LFQQ 091600Z 27006KT 230V310 CAVOK 24/12 Q1015 NOSIG

2010/08/09 16:00
LFRB 091600Z 23011KT 200V260 9999 OVC007 17/15 Q1018

2010/08/09 16:00
LFRC 091600Z AUTO 22012KT 180V250 9999NDV NSC 21/11 Q1017

2010/08/09 16:00
LFRD 091600Z AUTO 35007KT 320V030 9999NDV NSC 22/11 Q1017

2010/08/09 16:00
LFRK 091600Z 36005KT 290V050 CAVOK 22/12 Q1016 NOSIG

2010/08/09 16:00
LFRN 091600Z AUTO 33008KT 270V010 9999NDV NSC 26/09 Q1016

2010/08/09 16:00
LFRO 091600Z AUTO 26011KT 9999NDV BKN032 OVC041 19/16 Q1017

2010/08/09 16:00
LFRQ 091600Z AUTO 26009KT 210V300 9999NDV BKN013 OVC029 18/15 Q1018

2010/08/09 16:00
LFRS 091600Z 25010KT 220V310 CAVOK 26/12 Q1016 NOSIG

2010/08/09 16:00
LFRT 091600Z AUTO 05008KT 9999NDV FEW047 19/13 Q1017

2010/08/09 16:00
LFRZ 091600Z AUTO 28013KT 250V310 9999NDV NSC 23/11 Q1017

2010/08/09 16:00
LFSB 091600Z 33004KT 250V020 CAVOK 26/11 Q1016 NOSIG

2010/08/09 16:00
LFSF 091600Z AUTO VRB03KT 9999NDV NSC 25/09 Q1016

2010/08/09 16:00
LFSN 091600Z 01005KT 340V040 CAVOK 24/10 Q1016 NOSIG

2010/08/09 16:00
LFSR 091600Z AUTO VRB03KT 9999NDV NSC 25/12 Q1016

2010/08/09 16:00
LFST 091600Z 02004KT 340V070 9999 FEW053 25/12 Q1016 NOSIG

2010/08/09 16:00
LFTW 091600Z AUTO 19007KT 150V220 9999NDV NSC 29/18 Q1014

2010/08/09 15:54
PGSN 091554Z 18007KT 6SM -RA BR SCT016 BKN030 BKN050 26/24 A2989

2010/08/09 15:54
PGUM 091554Z 00000KT 10SM OVC060 24/24 A2991

2010/08/09 15:55
PKMR 091555Z 08005KT 14SM SCT014TCU BKN045 OVC110 27/25 A2980

2010/08/09 16:00
PKWA 091600Z AUTO 07011KT 10SM BKN018 BKN028 28/23 A2984

2010/08/09 15:55
PTKK 091555Z VRB04KT 15SM SCT014CB BKN120 OVC280 25/24 A2983

2010/08/09 15:53
PTKR 091553Z 16008KT 9SM -SHRA BKN016TCU OVC180 26/25 A2986

2010/08/09 15:54
PTRO 091554Z 21008KT 8SM SHRA BKN015CB OVC280 24/23 A2989

2010/08/09 15:55
PTTP 091555Z 05008KT 15SM -SHRA BKN018TCU OVC300 27/25 A2985

2010/08/09 16:00
LFBA 091600Z AUTO 30007KT 280V340 9999NDV BKN036 OVC043 23/16 Q1018

2010/08/09 16:00
LFBC 091600Z AUTO 27009KT 240V300 9999NDV SCT031 BKN038 22/14 Q1019

2010/08/09 16:00
LFBL 091600Z 25005KT 210V290 CAVOK 24/14 Q1018 NOSIG

2010/08/09 16:00
LFBM 091600Z AUTO 31010KT 270V340 9999NDV BKN046 25/14 Q1018

2010/08/09 16:00
LFKF 091600Z 22007KT 180V250 9999 FEW080 SCT170 BKN260 27/13 Q1015 NOSIG

2010/08/09 16:00
LFOE 091600Z AUTO 36007KT 320V030 9999NDV NSC 25/13 Q1016

2010/08/09 16:00
LFOP 091600Z 29009KT 260V330 CAVOK 25/13 Q1016 NOSIG

2010/08/09 16:00
LFPB 091600Z 33003KT 250V020 CAVOK 26/11 Q1015 NOSIG

2010/08/09 16:00
LFPG 091600Z 16003KT 090V230 CAVOK 26/10 Q1015 NOSIG

2010/08/09 16:00
LFPV 091600Z AUTO VRB03KT 9999NDV NSC 26/11 Q1016

2010/08/09 16:00
LFQQ 091600Z 27006KT 230V310 CAVOK 24/12 Q1015 NOSIG

2010/08/09 16:00
LFRH 091600Z 27017KT CAVOK 20/14 Q1018

2010/08/09 16:00
LFSD 091600Z AUTO 19004KT 9999NDV NSC 26/10 Q1016

2010/08/09 16:00
LFSI 091600Z AUTO VRB03KT 9999NDV NSC 27/10 Q1016

2010/08/09 16:00
LFSL 091600Z AUTO 25007KT 220V280 9999NDV NSC 23/14 Q1018

2010/08/09 16:00
LFSO 091600Z AUTO VRB02KT 9999NDV NSC 24/10 Q1017

2010/08/09 16:00
LFSX 091600Z AUTO VRB03KT 9999NDV NSC 25/10 Q1016

2010/08/09 16:00
LFTH 091600Z 16007KT 8000 SCT010 BKN016 25/21 Q1015 NOSIG

2010/08/09 16:00
FMMI 091600Z 11005KT 080V150 9999 FEW016 BKN020 14/14 Q1025 NOSIG

2010/08/09 16:00
EICK 091600Z 31012KT 9999 SCT036 19/08 Q1011 NOSIG

2010/08/09 16:00
EIDW 091600Z 26014KT 210V280 9999 FEW028 17/08 Q1010 NOSIG

2010/08/09 16:00
EIKN 091600Z 25015KT 9999 FEW018CB SCT020 15/10 Q1010 NOSIG

2010/08/09 16:00
EINN 091600Z 26013KT 230V290 9999 SCT028 18/11 Q1011 NOSIG

2010/08/09 15:55
KQAQ 091555Z 33005KT 6000 DU HZ FEW015 43/08 A2953 RMK DU FEW015 SLP994 PA +487 DA +3710

2010/08/09 15:55
KQPD 091555Z AUTO 25003KT 9000 34/01 A2959 RMK AO2 SLP923 T03380005 $

2010/08/09 15:55
KQSL 091555Z 32009KT 9999 CLR 43/03 A2956 RMK SLP995 Q1001MB

2010/08/09 15:55
KQTI 091555Z AUTO 26007KT 9999 CLR 40/04 A2961 RMK AO2 SLP000 T03950035

2010/08/09 15:55
KQAE 091555Z 36006KT 6000 DU HZ CLR 42/09 A2953 RMK SLP997

2010/08/09 15:55
KQMG 091555Z AUTO VRB05KT 10SM CLR 26/14 A3011 RMK AO2 SLP132 T02600137

2010/08/09 15:55
KQTO 091555Z 32009KT 8000 DU CLR 42/05 A2950 RMK SLP986

2010/08/09 15:55
KQTU 091555Z 31005KT 9999 CLR 42/02 A2956 RMK991

2010/08/09 15:55
KQTX 091555Z 32004KT 9999 FU FEW000 40/M04 A2957 RMK VIS NW 8000 FU FEW000 SLP987

2010/08/09 15:55
KQTZ 091555Z 32005KT 8000 DU HZ CLR 41/06 A2950 RMK SLP985 QNH999MB WND DATA ESTMD ALSTG/SLP ESTMD

2010/08/09 15:55
KQXJ 091555Z 32008KT 8000 DU HZ FEW045 FEW200 43/00 A2946 RMK SLP976 PA+447 DA+3688

2010/08/09 16:00
ORBI 091600Z 31004KT CAVOK 41/10 Q0999 NOSIG

2010/08/09 16:00
ORER 091600Z 28009KT CAVOK 40/M01 Q1002

2010/08/09 16:00
RJFR 091600Z 11007KT 9999 FEW010 BKN180 27/24 Q1011

2010/08/09 16:00
RJAA 091600Z 15005KT 9999 FEW020 SCT140 23/22 Q1016 NOSIG

2010/08/09 16:00
RJAH 091600Z 21004KT 9999 FEW020 BKN150 25/24 Q1015

2010/08/09 16:00
RJCC 091600Z 16004KT 1600 BR SCT001 BKN002 21/20 Q1015

2010/08/09 16:00
RJTT 091600Z 18008KT 9999 FEW012 SCT060 26/23 Q1015

2010/08/09 16:00
RJTT 091600Z 18008KT 9999 FEW012 SCT060 26/23 Q1015 RMK 1CU012 3SC060 A2999

2010/08/09 15:55
RODN 091555Z 17018G26KT 9999 FEW016 BKN022 BKN027 28/26 A2973 RMK AO2A PK WND 17030/1500 RAB1513E1527 CIG 020V025 SLP066 P0000 T02770256

2010/08/09 16:00
RKNY 091600Z AUTO 20003KT3000NDV NCD 23/21 Q1008

2010/08/09 16:00
RKPC 091600Z 14008KT 100V190 7000 BKN030 BKN110 29/24 Q1007 TEMPO SHRA

2010/08/09 16:00
RKSI 091600Z 06004KT 9999 SCT040 BKN120 27/22 Q1009 NOSIG

2010/08/09 16:00
RKSS 091600Z 36001KT CAVOK 26/22 Q1009 NOSIG

2010/08/09 15:55
RJTY 091555Z AUTO 20008KT 9999 BKN050 OVC060 24/23 A3005 RMK AO2 SLP169 T02430228

2010/08/09 16:00
LCLK 091600Z 21013KT 9999 FEW050 29/26 Q1004 NOSIG

2010/08/09 16:00
LCPH 091600Z 29012KT 9999 FEW015 29/25 Q1005

2010/08/09 16:02
KOPF 091602Z 17007G15KT 2 1/2SM +RA BR FEW004 BKN038 BKN048 26/24 A2996

2010/08/09 15:56
KABQ 091556Z 28003KT 10SM FEW060 SCT140 23/13 A3017

2010/08/09 15:52
KATL 091552Z 00000KT 9SM FEW040 32/22 A3007

2010/08/09 15:53
KBGR 091553Z 27008KT 10SM FEW025 BKN035 26/18 A2992

2010/08/09 15:53
KBHM 091553Z 11004KT 10SM FEW040 33/22 A3004

2010/08/09 15:53
KBNA 091553Z 00000KT 10SM SCT036 BKN200 33/24 A3002

2010/08/09 15:54
KBOS 091554Z 24008KT 10SM FEW060 SCT120 31/19 A2996

2010/08/09 15:54
KBWI 091554Z 18006KT 9SM FEW043 SCT180 BKN250 31/20 A3002

2010/08/09 15:56
KCHS 091556Z 05011KT 10SM FEW100 32/23 A3001

2010/08/09 15:51
KCLE 091551Z 24006KT 10SM BKN250 28/19 A3002

2010/08/09 15:52
KCLT 091552Z 22005KT 9SM FEW030 SCT250 32/22 A3007

2010/08/09 15:52
KCVG 091552Z 22005KT 9SM SCT250 31/18 A3003

2010/08/09 15:53
KDEN 091553Z 28006KT 10SM SCT100 BKN140 23/13 A3013

2010/08/09 15:53
KDFW 091553Z 19008KT 10SM CLR 32/22 A2995

2010/08/09 15:53
KDTW 091553Z 25009KT 7SM FEW080 BKN130 BKN220 27/21 A2996

2010/08/09 15:51
KEWR 091551Z 23007KT 9SM FEW050 SCT250 33/18 A3000

2010/08/09 15:53
KFLL 091553Z 14014KT 10SM SCT023 BKN033 BKN085 29/24 A2995

2010/08/09 15:52
KIAD 091552Z VRB04KT 9SM BKN250 31/21 A3003

2010/08/09 15:53
KIAH 091553Z 25003KT 10SM FEW028 SCT038 BKN065 32/24 A2998

2010/08/09 15:54
KIND 091554Z 23009KT 10SM SCT160 BKN250 32/21 A2999

2010/08/09 15:56
KJAX 091556Z 06014KT 10SM SCT032 32/23 A2997

2010/08/09 15:51
KJFK 091551Z 20010KT 7SM FEW040 SCT250 28/21 A3002

2010/08/09 15:56
KLAS 091556Z 00000KT 10SM CLR 27/09 A2992

2010/08/09 15:53
KLAX 091553Z 28004KT 7SM OVC014 17/13 A2993

2010/08/09 15:51
KLGA 091551Z 22010KT 10SM FEW060 32/19 A3000

2010/08/09 15:53
KLIT 091553Z VRB03KT 10SM BKN250 34/24 A2997

2010/08/09 15:53
KLOU 091553Z 17003KT 10SM CLR 31/21 A3002

2010/08/09 15:53
KMCI 091553Z 16006KT 10SM SCT034 SCT250 33/24 A2992

2010/08/09 15:53
KMCO 091553Z 12006KT 10SM SCT016 BKN045 BKN250 29/24 A2994

2010/08/09 15:53
KMEM 091553Z VRB05KT 10SM FEW150 BKN250 33/25 A2998

2010/08/09 15:53
KMIA 091553Z 17006KT 10SM -RA FEW008 BKN018CB BKN040 OVC130 26/23 A2996

2010/08/09 15:53
KMSP 091553Z VRB04KT 10SM FEW150 31/21 A2991

2010/08/09 15:50
BGBW 091550Z 02002KT 9999 FEW015 BKN070 13/09 Q1008 RMK 1ST 7AC

2010/08/09 15:50
BGCO 091550Z 01031G46KT 1300SE 9999N BLSA SCT001 11/00 Q1008

2010/08/09 15:50
BGGH 091550Z 20011KT 9999 FEW009 BKN060 13/09 Q1008

2010/08/09 15:50
BGJN 091550Z 36003KT 9999 BKN150 11/02 Q1007 RMK 6AC

2010/08/09 15:50
BGKK 091550Z 23013KT 9999 FEW080 SCT220 12/M00 Q1009

2010/08/09 15:50
BGSF 091550Z 25004KT 210V300 9999 SCT029 BKN050 14/09 Q1008

2010/08/09 15:55
BGTL 091555Z AUTO 27005KT 9999 CLR 04/03 A2989 RMK AO2 SLP126 T00440027

2010/08/09 16:00
BIAR 091600Z 34013KT CAVOK 15/10 Q1011

2010/08/09 16:00
BIEG 091600Z 35006KT 9999 FEW040 20/10 Q1010

2010/08/09 16:00
BIKF 091600Z 30009KT 9999 BKN006 12/08 Q1013

2010/08/09 16:00
BIRK 091600Z 28005KT 9999 SCT008 BKN024 12/10 Q1013

2010/08/09 16:00
GVAC 091600Z 06009KT 9999 SCT014 29/19 Q1013 NOSIG

2010/08/09 16:00
LPLA 091600Z 05009KT 030V090 9999 FEW027 BKN045 25/18 Q1023

2010/08/09 15:55
TXKF 091555Z 18010KT 9999 FEW020 BKN300 29/24 Q1022

2010/08/09 16:00
AYPY 091600Z 00000KT 9999 FEW030 26/24 Q1007 RMKS. HAZE

2010/08/09 15:54
PGSN 091554Z 18007KT 6SM -RA BR SCT016 BKN030 BKN050 26/24 A2989 RMK AO2 RAB10E34B54 SLP119 P0000 T02610239

2010/08/09 15:55
PGUA 091555Z AUTO 15004KT 10SM BKN075 24/24 A2991 RMK AO2 CLDS LWR RWY24L SLP111 T02440244 VISNO RWY24L $

2010/08/09 15:54
PGUM 091554Z 00000KT 10SM OVC060 24/24 A2991 RMK AO2 SLP120 T02440244

2010/08/09 15:53
PHJR 091553Z AUTO VRB05KT 10SM FEW037 BKN047 25/17 A3008 RMK AO2 SLP191 T02500172 TSNO

2010/08/09 15:54
PHMK 091554Z 08005KT 10SM CLR 22/14 A3008 RMK AO2 SLP187 T02170144

2010/08/09 15:55
PKMR 091555Z 08005KT 14SM SCT014TCU BKN045 OVC110 27/25 A2980 RMK SHRAB20E40 TCU ALQDS SLP093 T02710246

2010/08/09 16:00
PKWA 091600Z AUTO 07011KT 10SM BKN018 BKN028 28/23 A2984 RMK AO2 T02750231

2010/08/09 15:56
PMDY 091556Z AUTO 07008KT 10SM FEW024 26/22 A3021 RMK AO2 TSNO T02550216 SLP538

2010/08/09 15:55
PTKK 091555Z VRB04KT 15SM SCT014CB BKN120 OVC280 25/24 A2983 RMK CB ALQDS SLP105 T02480235

2010/08/09 15:53
PTKR 091553Z 16008KT 9SM -SHRA BKN016TCU OVC180 26/25 A2986 RMK SHRAB37 TCU ALQDS AND OHD SLP111 T02610246

2010/08/09 15:54
PTRO 091554Z 21008KT 8SM SHRA BKN015CB OVC280 24/23 A2989 RMK CB VC ALQDS

2010/08/09 15:55
PTTP 091555Z 05008KT 15SM -SHRA BKN018TCU OVC300 27/25 A2985 RMK SHRAB45 TCU ALQDS SLP108 T02690250

2010/08/09 16:00
LPFR 091600Z 14004KT CAVOK 31/17 Q1013

2010/08/09 16:00
LPLA 091600Z 05009KT 030V090 9999 FEW027 BKN045 25/18 Q1023

2010/08/09 16:00
LPMA 091600Z 21008KT 9999 FEW013 25/19 Q1014 RS17004KT 0520007KT 2323004KT

2010/08/09 16:00
LPPR 091600Z 32008KT 290V350 CAVOK 31/12 Q1015

2010/08/09 16:00
LPPS 091600Z 01010KT 9999 SCT015 SCT030 24/18 Q1014

2010/08/09 16:00
LPPT 091600Z 22004KT 170V320 CAVOK 39/12 Q1014 NOSIG

2010/08/09 16:00
RPLC 091600Z VRB03G22KT 9999 FEW036 BKN100 OVC270 25/24 Q1010 A2985 RMK NOSIG

2010/08/09 16:00
LPAZ 091600Z 06011KT 020V080 9999 FEW018 BKN038 24/17 Q1020

2010/08/09 16:00
LPHR 091600Z 04009KT 360V070 9999 FEW016 27/13 Q1022

2010/08/09 16:00
LPLA 091600Z 05009KT 030V090 9999 FEW027 BKN045 25/18 Q1023

2010/08/09 16:00
LPPD 091600Z 03010KT 350V070 9999 FEW022 BKN040 24/13 Q1020

2010/08/09 16:03
KAZO 091603Z 18006KT 1 3/4SM +RA BR BKN021 BKN049 OVC065 23/22 A3000

2010/08/09 16:00
UBBB 091600Z 20008KT CAVOK 32/18 Q1008 NOSIG RMK R88CLRD70

2010/08/09 16:00
UBBG 091600Z 10002KT 9999 SCT100 29/12 Q1009 NOSIG RMK R12L/CLRD70

2010/08/09 16:00
UTTT 091600Z 03002MPS CAVOK 31/04 Q1005 R08R/CLRD70 TEMPO 03005G10MPS

2010/08/09 16:00
SOCA 091600Z 11005KT 060V170 9999 SCT016 32/22 Q1013 NOSIG

2010/08/09 16:00
SPIM 091600Z 21004KT 6000 OVC013 16/12 Q1018 NOSIG RMK PP000

2010/08/09 16:00
SPQT 091600Z /////KT 7000 FEW020 BKN100 29/23 Q1016 NOSIG RMK BIRD HAZARD RWY 06/24 PP000

2010/08/09 16:00
SPQU 091600Z 26006KT 230V310 CAVOK 19/M12 Q1028 NOSIG RMK PP000

2010/08/09 16:00
SPSO 091600Z 25006KT 4000 BR FEW010 BKN014 18/13 Q1019 RMK BIRD HAZARD RWY 22/04W PP000

2010/08/09 16:00
SPTN 091600Z 19003KT 140V290 CAVOK 16/08 Q1015 RMK PP000

2010/08/09 16:00
SPZO 091600Z VRB02KT 9999 SKC 16/M17 Q1035 NOSIG RMK PP000

2010/08/09 16:00
SVBC 091600Z 18004KT 9999 BKN010 30/23 Q1015

2010/08/09 16:00
SVMC 091600Z 34003KT 9999 FEW010 CB BKN013 32/26 Q1013

2010/08/09 16:00
SVMG 091600Z 14006KT 9999 SCT010CB BKN080 32/21 Q1013 NOSIG

2010/08/09 16:00
SVMI 091600Z 02003KT 9999 FEW016 BKN100 32/26 Q1013 NOSIG

2010/08/09 15:53
KMSY 091553Z 33011KT 10SM SCT020 BKN250 32/26 A2997

2010/08/09 15:53
KOAK 091553Z 26003KT 10SM OVC012 16/12 A2993

2010/08/09 15:52
KOKC 091552Z 17012KT 10SM FEW250 32/22 A2993

2010/08/09 15:53
KONT 091553Z 00000KT 4SM HZ CLR 18/12 A2992

2010/08/09 15:51
KORD 091551Z 17005KT 9SM SCT150 BKN200 BKN250 26/22 A2995

2010/08/09 15:51
KORF 091551Z 09004KT 10SM FEW025 29/21 A3005

2010/08/09 15:53
KPBI 091553Z COR 14011KT 10SM SCT022 SCT055 BKN080 30/24 A2995

2010/08/09 15:53
KPBI 091553Z 15008KT 10SM SCT022 SCT055 BKN080 30/24 A2995

2010/08/09 15:54
KPHF 091554Z 07005KT 9SM CLR 31/22 A3005

2010/08/09 15:54
KPHL 091554Z 24007KT 7SM FEW038 SCT250 31/21 A3002

2010/08/09 15:51
KPHX 091551Z 00000KT 10SM FEW150 33/02 A2987

2010/08/09 15:51
KPIT 091551Z 15004KT 10SM FEW140 SCT250 29/15 A3004

2010/08/09 15:51
KRDU 091551Z 11005KT 9SM FEW040 32/21 A3006

2010/08/09 15:51
KSAN 091551Z 35003KT 10SM OVC015 18/13 A2994

2010/08/09 15:53
KSEA 091553Z 20007KT 10SM BKN005 OVC010 14/12 A2998

2010/08/09 15:56
KSFO 091556Z 18006KT 10SM FEW010 OVC015 16/11 A2992

2010/08/09 15:51
KSTL 091551Z 00000KT 9SM FEW060 SCT120 BKN200 BKN250 32/24 A2996

2010/08/09 15:51
KTEB 091551Z 21010G14KT 10SM FEW048 32/19 A2999

2010/08/09 15:53
KTPA 091553Z 07007KT 7SM SCT022 29/23 A2994

2010/08/09 16:00
SCAR 091600Z 21006KT 9999 BKN023 16/08 Q1018

2010/08/09 16:00
SCBA 091600Z 31022KT 9999 FEW020 SCT030 BKN200 05/M01 Q1019

2010/08/09 16:00
SCCF 091600Z 00000KT CAVOK 22/M12 Q1026

2010/08/09 16:00
SCCH 091600Z 21006KT CAVOK 10/03 Q1018

2010/08/09 16:00
SCCI 091600Z 27030KT 9999 SCT013 02/00 Q1002 NOSIG

2010/08/09 16:00
SCDA 091600Z 31004KT 8000 BKN020 15/08 Q1019

2010/08/09 16:00
SCEL 091600Z VRB02KT CAVOK 14/01 Q1016 NOSIG

2010/08/09 16:00
SCFA 091600Z 30004KT 9999 FEW020 BKN200 17/08 Q1018 NOSIG

2010/08/09 16:00
SCGE 091600Z 18012KT CAVOK 10/05 Q1020

2010/08/09 16:00
SCIE 091600Z 21010KT CAVOK 12/01 Q1019

2010/08/09 16:00
SCIP 091600Z 03005KT 9999 SCT013 SCT025 17/14 Q1024 TEMPO 6000 -SHRA BKN015

2010/08/09 16:00
SCTE 091600Z 19005KT 9999 BKN014 11/08 Q1026 NOSIG

2010/08/09 16:00
SGAS 091600Z 17006KT CAVOK 17/09 Q1021

2010/08/09 16:00
SGES 091600Z 14004KT CAVOK 20/13 Q1019

2010/08/09 16:00
SLCB 091600Z 00000KT 9999 SKC 21/03 Q1027

2010/08/09 16:00
SLLP 091600Z 23005KT 9999 NSC 12/M13 Q1040

2010/08/09 16:00
SLTJ 091600Z 19007KT 9999 NSC 15/05 Q1024

2010/08/09 16:00
SLVR 091600Z 17013G23KT 8000 NSC 23/06 Q1020

2010/08/09 16:00
SUAA 091600Z 28006KT CAVOK 14/07 Q1025

2010/08/09 16:00
SUCA 091600Z 29009KT CAVOK 16/06 Q1024

2010/08/09 16:00
SULS 091600Z 26009KT CAVOK 16/04 Q1025

2010/08/09 16:00
SUMU 091600Z 27008KT CAVOK 16/05 Q1025 NOSIG

2010/08/09 16:00
SUSO 091600Z 10010KT CAVOK 16/03 Q1025

2010/08/09 16:00
SCSE 091600Z 30004KT 9999 BKN017 14/09 Q1019 NEFO PLAYA 2600FT

2010/08/09 16:00
SCTC 091600Z 20006KT 150V250 CAVOK 11/04 Q1022

2010/08/09 16:00
SCVD 091600Z 00000KT 9999 SCT026 08/07 Q1024 RMK HR92

2010/08/09 16:00
SUAG 091600Z 11006KT CAVOK 16/03 Q1024

2010/08/09 16:00
OERY 091600Z 06011KT CAVOK 41/03 Q1003 NOSIG

2010/08/09 16:00
LEAL 091600Z 09007KT CAVOK 30/21 Q1015 NOSIG

2010/08/09 16:00
LEAM 091600Z 23008KT 9999 FEW010 27/23 Q1014

2010/08/09 16:00
LEAS 091600Z 05006KT 010V100 9999 FEW015 SCT019 21/17 Q1020 NOSIG

2010/08/09 16:00
LEBB 091600Z 35008KT 310V020 9999 SCT035 BKN055 24/18 Q1020 NOSIG

2010/08/09 16:00
LEBL 091600Z 19009KT 170V230 9999 FEW025TCU 28/21 Q1014 NOSIG

2010/08/09 16:00
LECO 091600Z 36010KT 330V030 CAVOK 24/17 Q1018

2010/08/09 16:00
LEGE 091600Z 10011KT 7000 3000NW -SHRA TS FEW018 SCT030CB 23/20 Q1016

2010/08/09 16:00
LEGR 091600Z VRB02KT 9999 FEW090 37/09 Q1016

2010/08/09 16:00
LEIB 091600Z 08007KT 050V130 CAVOK 28/21 Q1015 NOSIG

2010/08/09 16:00
LEJR 091600Z 25009KT 210V290 CAVOK 39/10 Q1012

2010/08/09 16:00
LELC 091600Z 06006KT 030V120 CAVOK 29/15 Q1014 NOSIG

2010/08/09 16:00
LELL 091600Z 11009KT 060V150 9999 FEW012 28/18 Q1014

2010/08/09 16:00
LEMD 091600Z 24006KT 190V300 9999 FEW050 35/10 Q1017 NOSIG

2010/08/09 16:00
LEMG 091600Z 14009KT 110V170 CAVOK 29/19 Q1015 NOSIG

2010/08/09 16:00
LEMH 091600Z 17005KT 110V210 CAVOK 28/15 Q1016

2010/08/09 16:00
LEPA 091600Z 25013KT CAVOK 29/20 Q1015 NOSIG

2010/08/09 16:00
LEPP 091600Z 33015KT 300V360 9999 SCT024 22/16 Q1019

2010/08/09 16:00
LERS 091600Z 22007KT 170V250 9999 FEW025TCU 29/16 Q1014

2010/08/09 16:00
LESO 091600Z VRB04KT 9999 FEW026 BKN055 22/17 Q1020

2010/08/09 16:00
LEST 091600Z 03008KT 330V080 CAVOK 27/15 Q1018 NOSIG

2010/08/09 16:00
LETO 091600Z 18003KT 100V220 9999 FEW050 33/12 Q1017 NOSIG

2010/08/09 16:00
LEVC 091600Z 11012KT 080V150 9999 FEW045 32/18 Q1013 NOSIG

2010/08/09 16:00
LEVD 091600Z 30013G25KT 250V330 9999 FEW035 31/07 Q1018

2010/08/09 16:00
LEVT 091600Z 02008KT 340V060 9999 FEW020 SCT030 22/15 Q1020

2010/08/09 16:00
LEVX 091600Z VRB04KT CAVOK 31/15 Q1017

2010/08/09 16:00
LEXJ 091600Z 04006KT 010V090 9999 SCT025 BKN035 21/17 Q1020

2010/08/09 16:00
LEZG 091600Z 30012KT 9999 FEW040 32/17 Q1015

2010/08/09 16:00
LEZL 091600Z 01007KT CAVOK 40/09 Q1012 NOSIG

2010/08/09 16:00
DTMB 091600Z 04007KT CAVOK 29/15 Q1016 NOSIG

2010/08/09 16:00
DTTA 091600Z 03006KT 360V070 9999 FEW033 31/13 Q1015 NOSIG

2010/08/09 16:00
DTTB 091600Z 07012KT CAVOK 29/12 Q1016

2010/08/09 16:00
DTTD 091600Z 07006KT CAVOK 34/11 Q1015

2010/08/09 16:00
DTTG 091600Z 10008KT CAVOK 31/09 Q1014 NOSIG

2010/08/09 16:00
DTTJ 091600Z 10010KT CAVOK 29/21 Q1014 NOSIG

2010/08/09 16:00
DTTK 091600Z 06004KT CAVOK 34/05 Q1014

2010/08/09 16:00
DTTL 091600Z 01006KT CAVOK 28/18 Q1016

2010/08/09 16:00
DTTN 091600Z 06012KT 9999 FEW020 SCT200 36/11 Q1014

2010/08/09 16:00
DTTR 091600Z 36012KT 9999 FEW026 40/06 Q1013

2010/08/09 16:00
DTTR 091600Z 36012KT 9999 FEW026 40/06 Q1013 RMK SIROCCO

2010/08/09 16:00
DTTX 091600Z 10008KT CAVOK 29/19 Q1015 NOSIG

2010/08/09 16:00
DTTZ 091600Z 08010KT CAVOK 36/19 Q1012 NOSIG

2010/08/09 16:00
UKBB 091600Z 25005MPS 220V290 9999 FEW033CB 31/15 Q1013 RETS 88290095 NOSIG

2010/08/09 16:00
UKCC 091600Z VRB02MPS CAVOK 34/08 Q1012 08090070 NOSIG

2010/08/09 16:00
UKDD 091600Z 07003MPS CAVOK 32/12 Q1012 08090070 NOSIG

2010/08/09 16:00
UKDE 091600Z 05003MPS CAVOK 36/13 Q1011 02CLRD70 NOSIG

2010/08/09 16:00
UKDR 091600Z 13002MPS 9999 FEW033 35/10 Q1011 1809//70 NOSIG

2010/08/09 16:00
UKFF 091600Z 07004MPS CAVOK 33/10 Q1010 01010070 NOSIG

2010/08/09 16:00
UKHH 091600Z 10002MPS CAVOK 35/10 Q1013 080///65 NOSIG

2010/08/09 16:00
UKLL 091600Z 09004MPS 9999 BKN033 24/17 Q1016 13090070 NOSIG

2010/08/09 16:00
UKOO 091600Z VRB02MPS CAVOK 33/18 Q1011 16090070 NOSIG

2010/08/09 16:00
SVPM 091600Z 21010KT 9999 SCT065 XX/XX Q1017

2010/08/09 16:00
SVSA 091600Z 15011KT 9999 FEW020 SCT300 33/21 Q1015

2010/08/09 16:00
SVSZ 091600Z 00000KT 9999 BKN010 XX/XX Q1012

2010/08/09 15:50
EDAH 091550Z 02006KT 350V060 CAVOK 22/14 Q1015

2010/08/09 15:50
EDDS 091550Z 36005KT CAVOK 23/11 Q1017 NOSIG

2010/08/09 15:50
EDMA 091550Z 02004KT 330V070 9999 FEW048 23/12 Q1017

2010/08/09 15:50
EGPK 091550Z 24012KT 9999 SCT020 17/11 Q1008

2010/08/09 15:55
EGUL 091555Z AUTO 21011KT 9999 CLR 25/09 A2987 RMK AO2 SLP117 T02480091

2010/08/09 15:55
EGUN 091555Z AUTO 22015G18KT 9999 CLR 25/09 A2988 RMK AO2 SLP108 T02500093

2010/08/09 15:55
EGVA 091555Z AUTO 22016G21KT 9999 OVC021 20/15 A2991 RMK AO2 SLP131 T01950152 $

2010/08/09 15:55
ETAD 091555Z AUTO 23008KT 9999 SCT060 23/09 A3003 RMK AO2 SLP163 T02270086 $

2010/08/09 15:55
ETAR 091555Z AUTO 00000KT 9999 SCT070 23/12 A3002 RMK AO2 SLP162 T02330123 $

2010/08/09 15:55
KQHT 091555Z VRB03KT 9999 SCT150 26/06 A2984 RMK AO2A SLP067

2010/08/09 16:00
LEMO 091600Z 32004KT 270V050 CAVOK 41/15 Q1012 NOSIG

2010/08/09 15:50
LIRN 091550Z 30008KT CAVOK 28/17 Q1014

2010/08/09 15:55
LIYW 091555Z AUTO 24004KT 9999 -DZ CLR 28/17 A2996 RMK AO2 DZE1528B1548 SLP143 P0000 T02840172

2010/08/09 16:00
LPLA 091600Z 05009KT 030V090 9999 FEW027 BKN045 25/18 Q1023

2010/08/09 15:50
LTAC 091550Z 02016KT 9999 FEW040 33/06 Q1010 NOSIG

2010/08/09 15:50
LTAG 091550Z 20009KT CAVOK 31/20 Q1005 NOSIG

2010/08/09 15:56
PHBK 091556Z AUTO 00000KT 10SM CLR 23/16 A3007 RMK AO2 SLP184 T02280156 TSNO $

2010/08/09 15:55
PHHI 091555Z AUTO 00000KT 10SM BKN034 BKN042 21/18 A3009 RMK AO2 DZB1509E1520 SLP179 P0000 T02140183 $

2010/08/09 16:00
PKWA 091600Z AUTO 07011KT 10SM BKN018 BKN028 28/23 A2984 RMK AO2 T02750231

2010/08/09 15:56
PMDY 091556Z AUTO 07008KT 10SM FEW024 26/22 A3021 RMK AO2 TSNO T02550216 SLP538

2010/08/09 15:55
RJTY 091555Z AUTO 20008KT 9999 BKN050 OVC060 24/23 A3005 RMK AO2 SLP169 T02430228

2010/08/09 15:55
RKSO 091555Z 07006KT 9999 BKN080 25/25 A2978 RMK AO2A SLP085 T0254 $

2010/08/09 15:55
RODN 091555Z 17018G26KT 9999 FEW016 BKN022 BKN027 28/26 A2973 RMK AO2A PK WND 17030/1500 RAB1513E1527 CIG 020V025 SLP066 P0000 T02770256

2010/08/09 15:57
PHNG 091557Z AUTO VRB03G14KT 10SM CLR 25/18 A3009 RMK AO2 SLP183 T02500178 $

2010/08/09 16:00
AYMO 091600Z AUTO 12004KT //// // ////// 26/25 Q1009

2010/08/09 15:50
BGAA 091550Z 26005KT 9999 BKN120 10/06 Q1007

2010/08/09 15:50
BGMQ 091550Z VRB04KT 9999 SCT008 BKN012 BKN032 11/10 Q1008

2010/08/09 15:50
BGQQ 091550Z 25003KT 9999 SKC 07/02 Q1013

2010/08/09 15:50
BGSS 091550Z 14004KT 9999 FEW007 OVC011 11/09 Q1008

2010/08/09 15:50
BGUK 091550Z AUTO 34015KT 0450NDV FG ///000/// 06/06 Q1008 RMK ///

2010/08/09 15:50
BGUQ 091550Z 08010KT 9999 FEW200 12/02 Q1006

2010/08/09 16:00
BKPR 091600Z 02009KT 9999 FEW050 26/14 Q1016 NOSIG RMK BLU

2010/08/09 16:00
DTKA 091600Z 01006KT 330V040 CAVOK 29/22 Q1016 NOSIG

2010/08/09 16:00
DTTF 091600Z 15006KT CAVOK 35/09 Q1012 NOSIG

2010/08/09 15:50
EDAC 091550Z 35006KT 310V030 CAVOK 22/14 Q1016

2010/08/09 15:50
EDDE 091550Z 27006KT 9999 FEW042 SCT062 BKN120 20/13 Q1017 NOSIG

2010/08/09 15:50
EDFH 091550Z 29006KT 260V360 9999 SCT048 21/09 Q1017

2010/08/09 15:50
EDGS 091550Z 25004KT 9999 SCT034 SCT056 18/13 Q1018

2010/08/09 15:50
EDLV 091550Z 16006KT 080V250 CAVOK 21/14 Q1016

2010/08/09 15:50
EDOP 091550Z 28008KT 9999 FEW030 BKN052 21/14 Q1015

2010/08/09 15:50
EDRZ 091550Z 19004KT 160V220 CAVOK 25/11 Q1017

2010/08/09 15:50
EDSB 091550Z 32004KT 270V010 CAVOK 25/13 Q1016

2010/08/09 15:50
EDTL 091550Z 36005KT 310V030 CAVOK 24/12 Q1016

2010/08/09 15:50
EEKA 091550Z 19008KT 140V230 9999 SCT016CB BKN052 20/17 Q1011

2010/08/09 15:50
EETU 091550Z 18008KT 9999 FEW040 SCT051CB BKN150 24/16 Q1014

2010/08/09 15:50
EFET 091550Z AUTO 04009KT 020V090 9999 BKN028 BKN070 14/09 Q1013

2010/08/09 15:50
EFHA 091550Z AUTO 16003KT CAVOK 20/17 Q1010

2010/08/09 15:50
EFJO 091550Z 19012KT 160V240 CAVOK 28/14 Q1010

2010/08/09 15:50
EFKA 091550Z AUTO 24003KT CAVOK 22/19 Q1008

2010/08/09 15:50
EFKI 091550Z AUTO 24007KT 210V270 //// FEW033 SCT050 24/18 Q1008

2010/08/09 15:50
EFKT 091550Z AUTO 02009G19KT 330V080 9999 OVC015 14/11 Q1011

2010/08/09 15:50
EFLP 091550Z 22006KT 180V270 9999 FEW033 SCT050 24/16 Q1012

2010/08/09 15:50
EFMI 091550Z AUTO 20008KT 150V240 9999 FEW042 SCT065 BKN080 24/16 Q1010

2010/08/09 15:50
EFSA 091550Z AUTO 18008KT 130V220 CAVOK 24/16 Q1011

2010/08/09 15:50
EFSI 091550Z AUTO 15005KT 110V210 3700 +SHRA SCT001 BKN008 OVC029 18/18 Q1008

2010/08/09 15:50
EFUT 091550Z AUTO 19009KT 150V220 9999 FEW032 23/16 Q1012

2010/08/09 15:50
EFVR 091550Z AUTO 20007KT 130V270 CAVOK 26/15 Q1010

2010/08/09 15:50
EGCN 091550Z 23008KT 7000 FEW030 BKN042 21/15 Q1011

2010/08/09 15:50
EGDX 091550Z AUTO 26013KT 9999NDV // FEW005/// BKN011/// BKN060/// 18/17 Q1013 RERA

2010/08/09 15:50
EGHK 091550Z 24012KT 9999 FEW008 SCT012 20/16 Q1014

2010/08/09 15:50
EGMH 091550Z 22013KT 9999 FEW031 22/13 Q1014

2010/08/09 15:50
EGNR 091550Z 26014KT 9999 SCT025 22/13 Q1010

2010/08/09 15:50
EGOM 091550Z AUTO 25016KT 9999NDV // BKN013/// SCT060/// 16/13 Q1008

2010/08/09 15:50
EGOP 091550Z AUTO 26014KT 2500NDV BR SCT003/// SCT023/// 17/16 Q1012

2010/08/09 15:50
EGPI 091550Z 24008KT 9999 FEW020 15/12 Q1008

2010/08/09 15:50
EGTG 091550Z 20011KT 9999 BKN010 18/16 Q1013

2010/08/09 15:50
EGUB 091550Z 23014KT 9999 -RA FEW015 BKN035 BKN045 21/14 Q1013 BLU BECMG BKN020 WHT

2010/08/09 15:50
EGUW 091550Z 24010KT 9999 FEW048 23/09 Q1012 BLU NOSIG

2010/08/09 15:50
EGUY 091550Z 21015KT CAVOK 24/08 Q1012 BLU

2010/08/09 15:50
EGVN 091550Z 23008KT 9999 FEW024 BKN030 BKN090 20/15 Q1013 BLU BECMG BKN020 WHT

2010/08/09 15:50
EGVN 091550Z 23008KT 9999 FEW024 BKN030 BKN090 20/15 Q1013 BECMG BKN020

2010/08/09 15:50
EGVO 091550Z 20013KT 9999 FEW032 SCT035 21/13 Q1014 BLU NOSIG

2010/08/09 15:50
EGVP 091550Z 23012KT 9999 SCT023 BKN030 20/13 Q1014 WHT NOSIG

2010/08/09 15:50
EGWU 091550Z 24012KT CAVOK 24/09 Q1013 NOSIG

2010/08/09 15:50
EGWU 091550Z 24012KT CAVOK 24/09 Q1013 BLU NOSIG

2010/08/09 15:50
EGXC 091550Z 22015KT CAVOK 24/11 Q1010 NOSIG

2010/08/09 15:50
EGXC 091550Z 22015KT CAVOK 24/11 Q1010 BLU NOSIG

2010/08/09 16:00
LJCE 091600Z AUTO 08006KT 040V120 9999NDV FEW037/// 25/17 Q1016

2010/08/09 16:00
LKCV 091600Z VRB02KT 9999 FEW037 SCT110 22/15 Q1016 NOSIG

2010/08/09 16:00
LKKB 091600Z 29004KT 260V330 CAVOK 22/13 Q1016 NOSIG

2010/08/09 16:00
LKLN 091600Z AUTO VRB03KT CAVOK 22/14 Q1017

2010/08/09 16:00
LKNA 091600Z 01005KT 340V060 9999 FEW042 SCT090 21/13 Q1017 NOSIG

2010/08/09 16:00
LKPD 091600Z 27004KT 9999 FEW033 BKN100 21/14 Q1016 NOSIG

2010/08/09 16:00
LKPO 091600Z 30004KT 260V360 9999 FEW040 22/15 Q1016 NOSIG

2010/08/09 15:50
HLLB 091550Z 33022KT 9999 SCT020 27/18 Q1013

2010/08/09 15:50
HLLB 091550Z 33022KT 9999 SCT020 27/18 Q1013

2010/08/09 16:00
LJLJ 091600Z 12007KT 9999 FEW040 24/16 Q1016 NOSIG

2010/08/09 16:00
LJMB 091600Z 18004KT 100V230 9999 FEW030 23/15 Q1017

2010/08/09 16:00
LJPZ 091600Z 27004KT 220V300 CAVOK 28/16 Q1014

2010/08/09 16:00
LRBC 091600Z 02006KT 350V050 CAVOK 26/20 Q1014

2010/08/09 16:00
LRCV 091600Z 30006KT 270V340 CAVOK 29/18 Q1013

2010/08/09 16:00
LRIA 091600Z 34006KT CAVOK 26/20 Q1014

2010/08/09 16:00
LRSV 091600Z 33003KT CAVOK 22/19 Q1016

2010/08/09 16:00
LRTC 091600Z AUTO 34010KT 9999 NCD 30/21 Q1010

2010/08/09 16:00
LRAR 091600Z 36004KT 310V070 9999 FEW049 27/16 Q1016

2010/08/09 16:00
LRBM 091600Z 30006KT 260V350 9999 FEW036 FEW040TCU 25/17 Q1015

2010/08/09 16:00
LRCL 091600Z 30006KT 9999 FEW050 23/17 Q1016

2010/08/09 16:00
LROD 091600Z 32006KT 290V350 CAVOK 25/16 Q1016

2010/08/09 16:00
LRSM 091600Z 27004KT 220V360 9999 FEW046 26/16 Q1016

2010/08/09 16:00
LRTM 091600Z 23004KT 9999 FEW036 26/19 Q1015

2010/08/09 16:00
LEMD 091600Z 24006KT 190V300 9999 FEW050 35/10 Q1017 NOSIG

2010/08/09 16:00
LEBL 091600Z 19009KT 170V230 9999 FEW025TCU 28/21 Q1014 NOSIG

2010/08/09 16:00
LEPA 091600Z 25013KT CAVOK 29/20 Q1015 NOSIG

2010/08/09 16:00
LEZL 091600Z 01007KT CAVOK 40/09 Q1012 NOSIG

2010/08/09 16:00
LEMG 091600Z 14009KT 110V170 CAVOK 29/19 Q1015 NOSIG

2010/08/09 16:00
LEVC 091600Z 11012KT 080V150 9999 FEW045 32/18 Q1013 NOSIG

2010/08/09 16:00
LEAL 091600Z 09007KT CAVOK 30/21 Q1015 NOSIG

2010/08/09 16:00
LEIB 091600Z 08007KT 050V130 CAVOK 28/21 Q1015 NOSIG

2010/08/09 16:00
LELC 091600Z 06006KT 030V120 CAVOK 29/15 Q1014 NOSIG

2010/08/09 16:00
LEVX 091600Z VRB04KT CAVOK 31/15 Q1017

2010/08/09 15:50
ESNS 091550Z 02003KT 7000 -RA SCT015 BKN020 17/16 Q1009 REDZ

2010/08/09 16:00
GCLP 091600Z 04010KT 9999 FEW024 BKN027 25/19 Q1013 NOSIG

2010/08/09 16:00
GCXO 091600Z 31007KT 280V010 9000 FEW003 BKN008 21/17 Q1016 NOSIG

2010/08/09 16:00
GCTS 091600Z 11008KT 080V140 9999 OVC025 24/18 Q1014 NOSIG

2010/08/09 16:00
GCRR 091600Z 20007KT 150V230 9999 FEW022 28/21 Q1012

2010/08/09 16:00
GCFV 091600Z 15008KT 8000 FEW020 24/21 Q1012

2010/08/09 15:51
KABE 091551Z VRB04KT 9SM CLR 29/21 A3002

2010/08/09 15:53
KAGC 091553Z 00000KT 10SM CLR 29/15 A3005

2010/08/09 15:54
KAKR 091554Z AUTO 23008KT 200V280 10SM CLR 29/17 A3003

2010/08/09 15:51
KALB 091551Z 30009KT 10SM FEW055 SCT110 30/18 A2998

2010/08/09 15:56
KART 091556Z AUTO 26009KT 10SM FEW022 SCT075 27/20 A2995

2010/08/09 15:54
KAVP 091554Z AUTO 31007KT 10SM CLR 31/14 A3003

2010/08/09 15:53
KBAF 091553Z 18006KT 10SM SCT090 32/17 A2998

2010/08/09 15:51
KBDL 091551Z VRB04KT 9SM FEW100 31/17 A2998

2010/08/09 15:52
KBDR 091552Z 21009KT 9SM CLR 28/21 A3000

2010/08/09 15:56
KBED 091556Z 23007KT 10SM FEW100 SCT200 31/18 A2995

2010/08/09 15:54
KBTV 091554Z 22003KT 10SM -RA BKN050 OVC060 25/19 A2995

2010/08/09 15:54
KBUF 091554Z 24011KT 10SM BKN070 OVC140 27/19 A2998

2010/08/09 15:53
KBVY 091553Z 24012KT 10SM FEW100 31/17 A2994

2010/08/09 15:56
KCAE 091556Z 08007KT 9SM FEW039 33/22 A3003

2010/08/09 15:51
KCAK 091551Z VRB05KT 10SM SCT250 28/18 A3004

2010/08/09 15:55
KCEF 091555Z AUTO 20006KT 10SM BKN090 30/19 A2998

2010/08/09 15:51
KCMH 091551Z 18006KT 9SM BKN200 28/19 A3002

2010/08/09 15:53
KCRQ 091553Z 00000KT 10SM OVC013 18/12 A2992

2010/08/09 15:54
KCRW 091554Z 29003KT 6SM HZ CLR 28/21 A3006

2010/08/09 15:56
KDAY 091556Z 22007KT 9SM FEW090 SCT250 30/18 A3004

2010/08/09 15:55
KDOV 091555Z AUTO 21003KT 10SM CLR 30/23 A3003

2010/08/09 15:51
KERI 091551Z 21008KT 8SM SCT100 29/18 A2999

2010/08/09 15:53
KEWB 091553Z 22008G18KT 8SM SCT015 BKN095 29/21 A2999

2010/08/09 15:53
KFVE 091553Z AUTO 24006KT 10SM BKN016 OVC022 21/16 A2988

2010/08/09 15:56
KGON 091556Z 21007KT 6SM HZ CLR 27/21 A3000

2010/08/09 15:54
KGSO 091554Z 19004KT 9SM FEW045 31/20 A3008

2010/08/09 15:53
KGSP 091553Z VRB03KT 10SM CLR 31/22 A3008

2010/08/09 15:56
KHPN 091556Z VRB03KT 10SM CLR 31/18 A3001

2010/08/09 15:51
KHTS 091551Z 20004KT 7SM CLR 28/21 A3005

2010/08/09 15:53
KHUL 091553Z AUTO 24008KT 10SM FEW010 BKN019 OVC025 21/19 A2988

2010/08/09 15:53
KHVN 091553Z 21007G14KT 9SM CLR 28/21 A3000

2010/08/09 15:50
EGXD 091550Z 20012KT 9999 FEW020 SCT036 BKN050 20/14 Q1009 BLU TEMPO 7000 -RA BKN020 WHT

2010/08/09 15:50
EGXE 091550Z 23006KT 9999 FEW012 BKN018 17/17 Q1009 WHT TEMPO SCT025 BLU

2010/08/09 15:50
EGXG 091550Z 20012KT 9999 FEW024 BKN028 20/14 Q1009 BLU

2010/08/09 15:50
EGXJ 091550Z 24009KT CAVOK 20/15 Q1011 BLU NOSIG

2010/08/09 15:50
EGXT 091550Z 24014KT 9999 BKN045 BKN100 23/10 Q1011 BLU NOSIG

2010/08/09 15:58
EGXU 091558Z 17008KT 4500 -RA BKN022 OVC030 19/16 Q1009 GRN BECMG 9999 NSW BKN030 BLU

2010/08/09 15:50
EGXU 091550Z 17009KT 8000 -RA BKN025 BKN040 19/16 Q1009 BLU TEMPO 6000 RA BKN020 WHT

2010/08/09 15:50
EGXW 091550Z 26014KT 9999 FEW040 BKN044 22/13 Q1010 BLU NOSIG

2010/08/09 15:50
EGXX 091550Z AUTO 21015KT 9999NDV // FEW050/// 24/11 Q1010

2010/08/09 15:50
EGXZ 091550Z AUTO 20014KT 9999NDV FEW030/// SCT037/// 20/15 Q1009

2010/08/09 15:50
EGYD 091550Z 22021KT 9999 -RA SCT045 SCT070 BKN090 22/13 Q1011 NOSIG

2010/08/09 15:50
EGYD 091550Z 22021KT 9999 -RA SCT045 SCT070 BKN090 22/13 Q1011 BLU NOSIG

2010/08/09 15:50
EGYM 091550Z 22013KT 9999 FEW045 24/08 Q1011 BLU NOSIG

2010/08/09 15:50
EKGF 091550Z 18021KT CAVOK 17/15 Q1013

2010/08/09 15:50
ENBS 091550Z 03011KT 0100 FG +DZ VV001 08/07 Q1016

2010/08/09 15:50
ENHE 091550Z 05021KT 9999 OVC016 11/09 Q1013

2010/08/09 15:50
ENSS 091550Z 04011KT 1000 FG VV002 09/08 Q1016

2010/08/09 16:00
EPWR 091600Z 29004KT 9999 BKN050TCU 25/15 Q1016

2010/08/09 15:50
ESGR 091550Z AUTO 23008KT 7000NDV FEW007/// SCT014/// BKN020/// 17/17 Q1008

2010/08/09 15:50
ESGT 091550Z 23010KT 9999 SCT015 FEW020CB SCT024 18/16 Q1010

2010/08/09 15:50
ESMQ 091550Z 25011KT 9999 FEW018 SCT029 BKN054 19/15 Q1012

2010/08/09 15:50
ESMT 091550Z 26010KT 9999 SCT024 BKN030 17/14 Q1013

2010/08/09 15:50
ESNG 091550Z 02005KT 340V070 9999 OVC020 15/11 Q1012

2010/08/09 15:50
ESNK 091550Z 35005KT 9999 -DZ FEW006 BKN017 17/16 Q1008

2010/08/09 15:50
ESNL 091550Z AUTO 04005KT 010V090 9999NDV FEW020/// BKN037/// 18/14 Q1010

2010/08/09 15:50
ESNX 091550Z AUTO 36007KT 330V040 9999NDV BKN021/// OVC029/// 16/12 Q1011

2010/08/09 15:50
ESNY 091550Z AUTO 01003KT 6000 BR BKN001 OVC004 17/17 Q1006

2010/08/09 15:50
ESOE 091550Z 21006KT 9999 FEW009 BKN030 20/18 Q1007 RERA

2010/08/09 15:50
ESSL 091550Z 25008KT 220V290 9999 -RA FEW009 SCT012 BKN015 18/17 Q1008 REUP REDZ

2010/08/09 15:50
ESTA 091550Z 25012KT 9999 SCT022 OVC039 18/13 Q1013

2010/08/09 15:50
ESTL 091550Z AUTO 28013KT 9999NDV FEW030/// OVC040/// 18/13 Q1013

2010/08/09 15:50
ESUT 091550Z AUTO 15006KT 120V180 9999NDV FEW070/// OVC092/// 20/12 Q1010

2010/08/09 15:55
ETOU 091555Z AUTO 22004KT 9999 SCT075 23/13 A3002 RMK AO2 SLP165 T02300130

2010/08/09 15:50
ETUO 091550Z AUTO 24003KT 9999NDV // SCT041/// BKN070/// 22/12 Q1016

2010/08/09 15:50
EVLA 091550Z AUTO 22011KT 9999 SCT017 BKN024 20/16 Q1014

2010/08/09 15:50
EVVA 091550Z AUTO 21011KT 9999 BKN019 BKN027 OVC035 19/17 Q1012

2010/08/09 15:50
EYKA 091550Z 13004KT 090V180 CAVOK 22/17 Q1016

2010/08/09 15:50
EYPA 091550Z 24005KT 190V310 9999 FEW026 21/15 Q1014

2010/08/09 16:00
FAGC 091600Z AUTO 20009KT //// // ////// 12/M12 Q1024

2010/08/09 16:00
FAJB 091600Z AUTO 23007G17KT //// // ////// 11/M11 Q1025

2010/08/09 16:00
FAMM 091600Z 19011KT CAVOK 14/M12 Q1025 NOSIG

2010/08/09 16:00
FAPP 091600Z 22007KT 8000 NSC 23/M00 Q1020 NOSIG

2010/08/09 16:00
FASI 091600Z AUTO 20005KT //// // ////// 12/M11 Q1025

2010/08/09 16:00
FAVV 091600Z AUTO 22009KT //// // ////// 11/M11 Q1023

2010/08/09 16:00
FYML 091600Z AUTO 15006KT //// // ////// ///// Q1029

2010/08/09 16:00
FYOA 091600Z AUTO 10006KT //// // ////// 30/M04 Q1017

2010/08/09 16:00
FYOJ 091600Z AUTO 11007KT //// // ////// 28/M05 Q1018

2010/08/09 16:00
FYOW 091600Z AUTO 11009KT //// // ////// 26/M07 Q1021

2010/08/09 16:00
FYWW 091600Z 11007KT CAVOK 17/M10 Q1025

2010/08/09 16:00
GMAD 091600Z 26012KT 6000 NSC 31/19 Q1011 NOSIG

2010/08/09 16:00
GMFM 091600Z 29006KT 9999 FEW026 FEW040CB 42/10 Q1014

2010/08/09 16:00
GMMC 091600Z 34006KT 6000 NSC 34/19 Q1010

2010/08/09 16:00
GMML 091600Z 31005KT CAVOK 30/18 Q1012

2010/08/09 16:00
GMMW 091600Z 04010KT CAVOK 30/19 Q1013

2010/08/09 16:00
GMMZ 091600Z 32017KT 8000 FEW040 FEW050CB 32/09 Q1021 RETS

2010/08/09 15:50
HLLM 091550Z 01009KT 8000 FEW020 28/18 Q1016

2010/08/09 15:55
KEGI 091555Z 08007KT 10SM SCT030 32/25 A2998 RMK AO2A SLP152 T03220246 $

2010/08/09 15:51
KESN 091551Z 00000KT 6SM HZ SCT040 31/24 A3007

2010/08/09 16:00
LBGO 091600Z VRB01MPS CAVOK 29/19 Q1012 NOSIG

2010/08/09 16:00
LDSB 091600Z 29011KT CAVOK 28/10 Q1014 WS ALL RWY

2010/08/09 16:00
LEAB 091600Z 35003KT 280V040 CAVOK 32/10 Q1018 NOSIG

2010/08/09 16:00
LEBA 091600Z 00000KT 9999 SCT060 39/10 Q1012

2010/08/09 16:00
LEBZ 091600Z 08003KT 030V140 CAVOK 37/15 Q1014

2010/08/09 16:00
LELN 091600Z 26015KT 230V300 CAVOK 31/M01 Q1018

2010/08/09 16:00
LESA 091600Z 26005KT 230V330 8000 FEW035 33/16 Q1019

2010/08/09 16:00
LETO 091600Z 18003KT 100V220 9999 FEW050 33/12 Q1017 NOSIG

2010/08/09 16:00
LFBE 091600Z AUTO 26007KT 9999NDV BKN028 OVC033 22/17 Q1018

2010/08/09 16:00
LFBG 091600Z AUTO 25013KT 9999NDV SCT041 BKN047 25/15 Q1017

2010/08/09 16:00
LFCR 091600Z AUTO 25010KT 9999NDV FEW047 24/16 Q1018

2010/08/09 16:00
LFJL 091600Z AUTO 30004KT 240V360 9999NDV NSC 24/07 Q1016

2010/08/09 16:00
LFLX 091600Z AUTO 21003KT 180V240 9999NDV NSC 28/09 Q1015

2010/08/09 16:00
LFMI 091600Z AUTO 20013KT 9999NDV NSC 26/20 Q1014

2010/08/09 16:00
LFMK 091600Z AUTO 28014KT 250V310 9999NDV OVC052 27/16 Q1017

2010/08/09 16:00
LFMO 091600Z AUTO 21007KT 150V250 9999NDV NSC 32/16 Q1013

2010/08/09 16:00
LFMU 091600Z AUTO 17012KT 9999NDV NSC 27/17 Q1014

2010/08/09 16:00
LFMV 091600Z AUTO VRB04KT 9999NDV NSC 32/16 Q1013

2010/08/09 16:00
LFOA 091600Z AUTO 30007KT 260V340 9999NDV NSC 28/08 Q1015

2010/08/09 16:00
LFOK 091600Z AUTO 00000KT 9999NDV NSC 26/09 Q1016

2010/08/09 16:00
LFQI 091600Z AUTO 30005KT 270V340 9999NDV NSC 24/11 Q1015

2010/08/09 15:50
LGHI 091550Z 02011KT 330V070 CAVOK 31/21 Q1006

2010/08/09 15:50
LGPA 091550Z 01020KT CAVOK 30/21 Q1007

2010/08/09 15:50
LGSO 091550Z 01015KT CAVOK 29/21 Q1008

2010/08/09 16:00
LKCV 091600Z VRB02KT 9999 FEW037 SCT110 22/15 Q1016 NOSIG RMK BLU+ BLU+

2010/08/09 16:00
LKKV 091600Z 27004KT 9999 FEW030 18/12 Q1018

2010/08/09 16:00
LKNA 091600Z 01005KT 340V060 9999 FEW042 SCT090 21/13 Q1017 NOSIG RMK BLU+ BLU+

2010/08/09 16:00
LKPD 091600Z 27004KT 9999 FEW033 BKN100 21/14 Q1016 NOSIG RMK BLU BLU

2010/08/09 16:00
LKPO 091600Z 30004KT 260V360 9999 FEW040 22/15 Q1016 NOSIG RMK BLU+ BLU+

2010/08/09 15:50
LLIB 091550Z 32012KT CAVOK 31/19 Q1006

2010/08/09 15:50
LLSD 091550Z 32010KT 9999 SCT026 28/23 Q1006

2010/08/09 15:50
LOXT 091550Z 06006KT 40KM FEW030CU SCT110AC 22/15 Q1016 RMK SCT

2010/08/09 15:50
LOXZ 091550Z 05009KT 30KM FEW035CU 23/15 Q1018 NOSIG RMK FEW

2010/08/09 16:00
LQBK 091600Z 10004KT 9999 FEW040 27/17 Q1015 NOSIG

2010/08/09 16:00
LQMO 091600Z 25006KT 9999 FEW045 35/10 Q1010

2010/08/09 15:50
LTAB 091550Z 32011KT CAVOK 35/04 Q1009 NOSIG RMK RWY06 VRB07KT

2010/08/09 15:50
LTAE 091550Z 33015KT 9999 FEW040 SCT200 34/09 Q1009 NOSIG RMK RWY21 33014KT

2010/08/09 15:50
LTAZ 091550Z 35009KT CAVOK 34/02 Q1009

2010/08/09 15:50
LTBR 091550Z 35009KT 9999 SCT035 31/22 Q1008 NOSIG RMK RWY07 33008KT

2010/08/09 15:50
LTBR 091550Z 35009KT 9999 SCT035 31/22 Q1008 NOSIG

2010/08/09 15:50
LTBU 091550Z 01018KT 9999 FEW035 29/19 Q1009 RMK RWY23 36014KT

2010/08/09 15:50
LTBU 091550Z 01018KT 9999 FEW035 29/19 Q1009

2010/08/09 15:50
LTCF 091550Z 06014KT CAVOK 23/09 Q1018

2010/08/09 15:50
LTFH 091550Z 32006KT 9999 SCT027 28/26 Q1006 NOSIG

2010/08/09 15:50
LTFJ 091550Z 35010KT 9999 FEW035 29/23 Q1008 NOSIG

2010/08/09 16:00
LZKC 091600Z 25007KT 170V280 9999 FEW041CB BKN051 SCT200 23/16 Q1016

2010/08/09 16:00
LZLU 091600Z 21004KT 160V250 9999 FEW043TCU FEW043 BKN100 21/17 Q1016

2010/08/09 16:00
LZNI 091600Z 25005KT 120V290 9999 FEW045CB FEW045 24/15 Q1016

2010/08/09 16:00
LZPE 091600Z VRB02KT 9999 FEW044 23/12 Q1016

2010/08/09 16:00
LZPP 091600Z 16007KT 140V200 9999 FEW033 22/16 Q1016

2010/08/09 16:00
LZSL 091600Z 25006KT 9999 FEW046 BKN100 24/09 Q1016

2010/08/09 16:00
LZZI 091600Z 00000KT 9999 FEW040 23/13 Q1016

2010/08/09 16:00
UHHH 091600Z 06002MPS 9999 FEW033CB OVC100 21/21 Q1008 NOSIG

2010/08/09 16:00
MGTK 091600Z 09004KT 9999 SCT016 31/25 Q1014 A29.94

2010/08/09 16:00
MHTR 091600Z 17002KT 9999 FEW026 BKN250 32/25 HZ

2010/08/09 15:50
MMIA 091550Z 00000KT 8SM SCT220 25/20 A2997 RMK 8/004

2010/08/09 16:00
MMIT 091600Z RTD 36003KT 6SM HZ OVC180 29/27 A2977 RMK 8/006

2010/08/09 15:53
MMOX 091553Z 21003KT 7SM SCT020 SCT100 BKN200 22/18 A3016 RMK 8/138

2010/08/09 16:00
MMTB 091600Z RTD VRB02KT 7SM SCT008 OVC010 25/22 A2989 RMK 8/6//

2010/08/09 16:00
MNBL 091600Z 08004KT 5000 TSRA SCT016CB SCT070 27/26 Q1013 CB/N/NE/W/NW

2010/08/09 16:00
MNCH 091600Z 00000KT 9999 FEW025 SCT300 30/24 Q1012

2010/08/09 16:00
MNCH 091600Z 00000KT 9999 FEW025 SCT300 30/24 Q1012 MNBL 091600Z 08004KT 5000 TSRA SCT016CB SCT070 27/26 Q1013 CB/N/NE/W/NW

2010/08/09 16:00
MNCH 091600Z 00000KT 9999 FEW025 SCT300 30/24 Q1012 METAR MNBL 091600Z 08004KT 5000 TSRA SCT016CB SCT070 27/26 Q1013 CB/N/NE/W/NW

2010/08/09 16:00
MNJG 091600Z 00000KT 1000 DZ BKN016 23/19 Q1013

2010/08/09 16:00
MNJU 091600Z 06004KT 9999 FEW020 SCT080 29/25 Q1012 REDZ

2010/08/09 16:00
MNRS 091600Z 00000KT 9999 FEW015CB BKN070 27/26 Q1012 CB/4C

2010/08/09 15:55
MSLU 091555Z 00000KT CAVOK 30/24 Q1011

2010/08/09 15:55
MSSA 091555Z 00000KT CAVOK 27/20 Q1016

2010/08/09 15:55
MSSM 091555Z 36002KT CAVOK 28/25 Q1011

2010/08/09 15:53
KIAG 091553Z 22011KT 10SM BKN070 BKN110 OVC140 27/20 A2996

2010/08/09 15:51
KILG 091551Z 17008KT 9SM CLR 29/23 A3002

2010/08/09 15:53
KILM 091553Z AUTO 10006KT 10SM FEW033 SCT042 SCT085 29/23 A3003

2010/08/09 15:54
KINT 091554Z 24006KT 10SM CLR 31/19 A3008

2010/08/09 15:55
KLSV 091555Z AUTO 09007KT 10SM CLR 28/10 A2993

2010/08/09 15:53
KLUK 091553Z 19006KT 8SM CLR 30/21 A3002

2010/08/09 15:54
KLWM 091554Z 24009KT 10SM CLR 31/18 A2996

2010/08/09 15:56
KMDT 091556Z 00000KT 8SM BKN250 30/21 A3001

2010/08/09 15:53
KMSS 091553Z AUTO VRB03KT 10SM SCT019 BKN026 25/21 A2994

2010/08/09 15:54
KORH 091554Z 26010KT 10SM CLR 29/16 A3002

2010/08/09 15:55
KPQI 091555Z AUTO 26007KT 10SM BKN019 OVC023 20/17 A2986

2010/08/09 15:55
KPSM 091555Z 26012G17KT 10SM FEW050 BKN200 31/19 A2992

2010/08/09 15:51
KPVD 091551Z VRB05KT 10SM FEW035 SCT110 SCT300 31/20 A2999

2010/08/09 15:51
KPWM 091551Z 25007KT 10SM SCT046 30/18 A2992

2010/08/09 15:54
KRIC 091554Z 00000KT 10SM SCT055 SCT250 32/19 A3004

2010/08/09 15:54
KROC 091554Z 22010KT 8SM BKN150 BKN250 27/20 A2997

2010/08/09 15:54
KSYR 091554Z 29007KT 10SM SCT200 29/19 A2997

2010/08/09 15:55
KWRI 091555Z AUTO 23007KT 10SM FEW170 31/20 A3000

2010/08/09 15:58
MUCF 091558Z 00000KT 9999 FEW020 BKN120 31/22 Q1015

2010/08/09 15:50
MUHG 091550Z 08010KT 050V120 9999 FEW030 BKN100 31/24 Q1014

2010/08/09 15:55
OAHR 091555Z AUTO /////KT //// // ////// 32/M03 Q1008

2010/08/09 16:00
OIIE 091600Z 05006KT CAVOK 33/M01 Q1010 A2984

2010/08/09 16:00
OYDM 091600Z 30003KT 9999 FEW030 19/12 Q////

2010/08/09 16:00
OYRN 091600Z 20006KT 9999 FEW034CB 29/20 Q1000

2010/08/09 16:00
OYSQ 091600Z 18020G30KT 8000 FEW018 29/24 Q1006

2010/08/09 16:00
OYSY 091600Z 26003KT 9999 SCT039 BKN059 37/11 Q1002

2010/08/09 16:00
RJBB 091600Z 16009KT 9999 FEW001 SCT040 27/24 Q1013 NOSIG

2010/08/09 16:00
RJFS 091600Z VRB06KT 9999 FEW035 SCT060 BKN170 27/24 Q1010

2010/08/09 16:00
RJGG 091600Z 12010KT 9999 VCSH FEW008 SCT040 BKN100 26/25 Q1014 NOSIG

2010/08/09 16:00
SCJO 091600Z 18007KT 9999 BKN015 10/08 Q1025

2010/08/09 16:00
SLET 091600Z 17015G25KT 9999 NSC 23/06 Q1021

2010/08/09 16:00
SUME 091600Z 09003KT CAVOK 17/08 Q1025

2010/08/09 16:00
SVVG 091600Z 00000KT 9999 SCT010 XX/XX Q1013

2010/08/09 16:00
UBBN 091600Z 11018KT 9999 SCT050CB BKN100 31/09 Q1008 R14R/CLRD60 NOSIG RMK G/O QFE682

2010/08/09 16:00
WBGB 091600Z 08002KT 9999 FEW016 SCT150 BKN300 25/24 Q1010

2010/08/09 16:00
WBGR 091600Z 29003KT 9999 FEW014 BKN150 28/25 Q1010

2010/08/09 16:00
WBGS 091600Z 12003KT 9999 -RA SCT018 BKN150 23/22 Q1011

2010/08/09 16:00
WBGY 091600Z 14002KT 9999 SCT022 BKN150 24/22 Q1010

2010/08/09 16:00
WBKL 091600Z 30001KT 9999 FEW012 SCT140 OVC290 27/26 Q1010

2010/08/09 16:00
WBKS 091600Z 19001KT 9999 FEW015 SCT050 BKN270 26/24 Q1010

2010/08/09 16:00
WBKT 091600Z 13003KT 9999 FEW016 SCT140 BKN280 28/25 Q1010

2010/08/09 16:00
WBKW 091600Z 02001KT 9999 FEW017 BKN140 24/23 Q1011

2010/08/09 16:00
WMAU 091600Z 19006KT 9999 FEW010 BKN140 BKN270 26/25 Q//// QFF1009

2010/08/09 16:00
WMBA 091600Z 00000KT 9999 FEW032 SCT140 BKN280 26/25 Q1009

2010/08/09 16:00
WMKA 091600Z 01003KT 9999 FEW030 SCT150 BKN280 27/25 Q1009

2010/08/09 16:00
WMKB 091600Z 20002KT 9000 FEW025 SCT140 BKN270 29/27 Q1008 NOSIG

2010/08/09 16:00
WMKC 091600Z 00000KT 9999 FEW017CB SCT140 BKN220 28/26 Q1009

2010/08/09 16:00
WMKD 091600Z 21004KT 9999 FEW025 SCT160 BKN280 27/25 Q1009 NOSIG

2010/08/09 16:00
WMKI 091600Z 06002KT 9999 FEW027 SCT140 BKN280 26/23 Q1010

2010/08/09 16:00
WMKL 091600Z 03003KT 9999 FEW028 BKN280 27/26 Q1009

2010/08/09 16:00
WMKM 091600Z 02003KT 9999 FEW030 SCT140 BKN280 26/25 Q1010

2010/08/09 16:00
WMKN 091600Z 21003KT 9999 SCT024 OVC220 28/26 Q1009

2010/08/09 16:00
YSTW 091600Z AUTO 01005KT 9999NDV // SCT055 BKN085 OVC100 13/08 Q1018

2010/08/09 16:00
YSWG 091600Z AUTO 09011KT 9999NDV // SCT031 BKN066 OVC100 11/06 Q1016

2010/08/09 16:00
YTEF 091600Z AUTO 13012KT //// // ////// 11/M06 Q1021

2010/08/09 16:00
YTNK 091600Z AUTO 19011KT 9999NDV // NCD 14/M02 Q1016

2010/08/09 16:00
YTRE 091600Z AUTO 03006KT //// // ////// 17/12 Q1019

2010/08/09 16:00
YWGT 091600Z AUTO 18006KT //// // ////// 08/06 Q1017

2010/08/09 16:00
YWHA 091600Z AUTO 23006KT 9999NDV // SCT098 08/08 Q1013

2010/08/09 16:00
YWLM 091600Z AUTO 05004KT 9999NDV // ////// 13/11 Q1018

2010/08/09 16:00
ZBHH 091600Z 06003MPS CAVOK 15/08 Q1012 NOSIG

2010/08/09 16:00
ZBSJ 091600Z 00000MPS 1500 BR NSC 26/24 Q1006 NOSIG

2010/08/09 16:00
ZGHA 091600Z 00000MPS 4000 BR SKC 30/29 Q1003 NOSIG

2010/08/09 16:00
ZGKL 091600Z 29001MPS 4000 BR SKC 28/26 Q1005 NOSIG

2010/08/09 16:00
ZGOW 091600Z 00000MPS CAVOK 28/25 Q1006 NOSIG

2010/08/09 16:00
ZJHK 091600Z 12001MPS CAVOK 26/24 Q1004 NOSIG

2010/08/09 16:00
ZLXY 091600Z 05006MPS 5000 HZ OVC080 29/22 Q1004 NOSIG

2010/08/09 16:00
ZSQD 091600Z 15004MPS 9999 FEW015 26/23 Q1006 NOSIG

2010/08/09 16:00
ZWSH 091600Z 07002MPS CAVOK 29/08 Q1009 NOSIG

2010/08/09 16:00
ZYCC 091600Z 18003MPS 9999 FEW030 18/17 Q1007 NOSIG

2010/08/09 16:00
ZYTX 091600Z 10001MPS 9999 OVC030 22/21 Q1007 NOSIG

2010/08/09 15:50
EGHK 091550Z 24012KT 9999 FEW008 SCT012 20/16 Q1014 TEMPO BKN008

2010/08/09 15:50
LLSD 091550Z 31009KT 9999 SCT026 28/23 Q1006

2010/08/09 15:45
LHDC 091545Z 27005KT 9999 FEW023CB SCT200 25/16 Q1016 NOSIG

2010/08/09 15:45
LHKE 091545Z 31004MPS 9999 FEW040TCU 24/16 Q1016 NOSIG RMK BLU

2010/08/09 15:45
LHPP 091545Z 04005KT CAVOK 23/16 Q1018

2010/08/09 15:45
LHSN 091545Z 32001MPS CAVOK 23/15 Q1016 NOSIG RMK BLU

2010/08/09 15:45
LHUD 091545Z 33009KT 9999 FEW040TCU BKN083 24/18 Q1017

2010/08/09 15:53
KAMA 091553Z 21006KT 10SM CLR 30/16 A3003

2010/08/09 15:53
KAUS 091553Z 21007KT 10SM FEW026 32/22 A2998

2010/08/09 15:53
KBPT 091553Z 00000KT 10SM FEW028 32/25 A2998

2010/08/09 16:00
KBQK 091600Z AUTO 06007KT 7SM SCT023 BKN034 OVC075 29/26 A3000

2010/08/09 15:53
KBRO 091553Z 20008KT 10SM FEW027 SCT036 BKN060 32/25 A2993

2010/08/09 15:53
KBTR 091553Z 32004KT 10SM SCT030 33/25 A2998

2010/08/09 15:53
KCHA 091553Z VRB06KT 10SM FEW030 SCT100 32/23 A3005

2010/08/09 15:51
KCRP 091551Z 14007KT 070V300 10SM SCT036 SCT043 33/24 A2995

2010/08/09 15:53
KDAL 091553Z 22008KT 10SM CLR 32/23 A2995

2010/08/09 15:53
KDRT 091553Z AUTO 13011KT 10SM OVC020 28/22 A2995

2010/08/09 15:51
KELP 091551Z 22003KT 10SM FEW150 27/14 A3007

2010/08/09 15:53
KEYW 091553Z 22009KT 10SM -RA FEW047 BKN075 28/23 A2996

2010/08/09 15:53
KFPR 091553Z 13005KT 10SM SCT018 BKN030 BKN100 29/24 A2995

2010/08/09 15:53
KFTW 091553Z VRB05KT 10SM CLR 32/22 A2994

2010/08/09 15:53
KFTY 091553Z 00000KT 7SM FEW037 32/22 A3006

2010/08/09 15:53
KFXE 091553Z 13010KT 10SM SCT030 SCT100 29/23 A2995

2010/08/09 15:52
KGLS 091552Z 17006KT 10SM SCT028 32/24 A2999

2010/08/09 15:53
KGPT 091553Z AUTO 03009KT 10SM FEW080 34/25 A2997

2010/08/09 15:53
KHOU 091553Z 22007KT 10SM SCT032 32/23 A2997

2010/08/09 15:52
KHRL 091552Z 16008KT 10SM BKN020 33/24 A2991

2010/08/09 15:53
KHSV 091553Z 25004KT 10SM SCT037TCU BKN043 BKN110 32/22 A3002

2010/08/09 15:53
KLCH 091553Z 28005KT 10SM CLR 33/24 A2998

2010/08/09 15:56
KLRD 091556Z 17011KT 10SM -RA CLR 33/23 A2997

2010/08/09 15:53
KMAF 091553Z 17013KT 10SM CLR 30/19 A3001

2010/08/09 15:53
KMFE 091553Z 15008KT 10SM 32/24 A2993

2010/08/09 15:53
KMGM 091553Z 09009KT 10SM FEW035 33/23 A3000

2010/08/09 15:56
KMOB 091556Z 05007KT 10SM FEW035 SCT200 32/24 A3000

2010/08/09 15:53
KNEW 091553Z 34010KT 10SM CLR 32/26 A2998

2010/08/09 15:53
KOPF 091553Z 15011KT 10SM FEW024 SCT038 BKN048 28/24 A2995

2010/08/09 15:53
KPDK 091553Z 13004KT 10SM CLR 32/20 A3008

2010/08/09 15:53
KPIE 091553Z 08006KT 10SM FEW019 29/24 A2994

2010/08/09 15:53
KPNS 091553Z 09005KT 10SM CLR 31/24 A2998

2010/08/09 15:53
KRSW 091553Z 11008KT 10SM FEW047 OVC060 30/23 A2993

2010/08/09 15:53
KSAT 091553Z 21007KT 10SM FEW031 29/22 A3000

2010/08/09 15:53
KSAV 091553Z 03012G17KT 10SM FEW030 SCT250 33/21 A3001

2010/08/09 15:56
KSHV 091556Z 26007KT 10SM FEW300 33/23 A2998

2010/08/09 15:53
KSSI 091553Z AUTO 03011G18KT 10SM FEW021 BKN031 BKN037 31/25 A2999

2010/08/09 15:53
KTMB 091553Z 17005KT 7SM -RA SCT007 BKN027 BKN060 27/24 A2996

2010/08/09 15:53
KTUL 091553Z 19008KT 10SM CLR 34/22 A2993

2010/08/09 15:53
KTYS 091553Z 22008KT 9SM CLR 31/22 A3006

2010/08/09 16:03
KSTC 091603Z 02003KT 10SM FEW009 28/24 A2993

2010/08/09 16:00
OIFS 091600Z 09006KT 9999 FEW035 22/M03 Q1019 A3012 795.7

2010/08/09 16:00
OIIP 091600Z 00000KT CAVOK 30/01 Q1012

2010/08/09 16:00
OIMB 091600Z 05014KT CAVOK 29/09 Q1013 A2992

2010/08/09 16:00
OIMS 091600Z 05012KT 9999 FEW035 33/01 Q1012 A2989

2010/08/09 16:00
OIMT 091600Z 33008KT CAVOK 36/M02 Q1005 A2970 923.9

2010/08/09 16:00
OIZJ 091600Z 09014KT 8000 NSC 32/27 Q0998 A2947

2010/08/09 15:55
ETIH 091555Z AUTO 00000KT 9999 SCT060 BKN080 21/17 A3006 RMK AO2 SLP170 T02140172 $

2010/08/09 16:00
LECV 091600Z 32007KT 9999 FEW045 34/16 Q1020

2010/08/09 16:00
LEGT 091600Z VRB03KT 9999 FEW050 34/13 Q1017

2010/08/09 16:00
LELO 091600Z 32006KT 260V020 9999 FEW030 26/15 Q1018

2010/08/09 16:00
LERI 091600Z 08010KT CAVOK 35/21 Q1014 NOSIG

2010/08/09 16:00
LERT 091600Z 28006KT CAVOK 33/17 Q1013 NOSIG

2010/08/09 16:00
LFBY 091600Z AUTO 30007KT 240V340 9999 // FEW033 OVC056 24/16 Q1019

2010/08/09 16:00
LFLV 091600Z 02005KT 9999 FEW050 27/13 Q1016

2010/08/09 16:00
LFQB 091600Z VRB03KT CAVOK 27/09 Q1015

2010/08/09 16:00
LFQG 091600Z 29006KT CAVOK 28/09 Q1015

2010/08/09 16:00
LFRL 091600Z 22008KT 170V250 6000 -DZ BKN005 OVC010 17/16 Q1018

2010/08/09 16:00
LJLJ 091600Z 12007KT 9999 FEW040 24/16 Q1016 NOSIG

2010/08/09 16:00
LJMB 091600Z 18004KT 100V230 9999 FEW030 23/15 Q1017

2010/08/09 16:00
LJPZ 091600Z 27004KT 220V300 CAVOK 28/16 Q1014

2010/08/09 16:00
LPFR 091600Z 14004KT CAVOK 31/17 Q1013

2010/08/09 16:00
LPPR 091600Z 32008KT 290V350 CAVOK 31/12 Q1015

2010/08/09 16:00
LPPS 091600Z 01010KT 9999 SCT015 SCT030 24/18 Q1014

2010/08/09 16:00
LPPT 091600Z 22004KT 170V320 CAVOK 39/12 Q1014 NOSIG

2010/08/09 16:00
LRAR 091600Z 36004KT 310V070 9999 FEW049 27/16 Q1016

2010/08/09 16:00
LRBC 091600Z 02006KT 350V050 CAVOK 26/20 Q1014

2010/08/09 16:00
LRBM 091600Z 30006KT 260V350 9999 FEW036 FEW040TCU 25/17 Q1015

2010/08/09 16:00
LRCV 091600Z 30006KT 270V340 CAVOK 29/18 Q1013

2010/08/09 16:00
LRIA 091600Z 34006KT CAVOK 26/20 Q1014

2010/08/09 16:00
LROD 091600Z 32006KT 290V350 CAVOK 25/16 Q1016

2010/08/09 16:00
LRSM 091600Z 27004KT 220V360 9999 FEW046 26/16 Q1016

2010/08/09 16:00
LRSV 091600Z 33003KT CAVOK 22/19 Q1016

2010/08/09 16:00
LRTC 091600Z AUTO 34010KT 9999 NCD 30/21 Q1010

2010/08/09 16:00
LRTM 091600Z 23004KT 9999 FEW036 26/19 Q1015

2010/08/09 15:59
KNGU 091559Z 05005KT 7SM FEW030 BKN250 30/23 A3006 RMK AO2 SLP180 T03000228

2010/08/09 15:57
KNJM 091557Z AUTO 12006KT 10SM CLR 28/25 A3005 RMK AO2 SLP179 T02830250

2010/08/09 16:00
MPHO 091600Z 00000KT 9999 FEW010 SCT018TCU BKN090 Q1014

2010/08/09 16:00
MYGF 091600Z 19007KT 9999 VCSH FEW015CB BKN100 26/25 A3000 RMK CB/VCSH W/N RE55 /

2010/08/09 16:00
SAZS 091600Z 00000KT 9999 SCT010 SCT026 02/M01 Q1024

2010/08/09 16:00
SCAR 091600Z 21006KT 9999 BKN023 16/08 Q1018

2010/08/09 16:00
SCBA 091600Z 31022KT 9999 FEW020 SCT030 BKN200 05/M01 Q1019

2010/08/09 16:00
SCDA 091600Z 31004KT 8000 BKN020 15/08 Q1019

2010/08/09 16:00
SCEL 091600Z VRB02KT CAVOK 14/01 Q1016 NOSIG

2010/08/09 16:00
SCFA 091600Z 30004KT 9999 FEW020 BKN200 17/08 Q1018 NOSIG

2010/08/09 16:00
SCIE 091600Z 21010KT CAVOK 12/01 Q1019

2010/08/09 16:00
SCTE 091600Z 19005KT 9999 BKN014 11/08 Q1026 NOSIG

2010/08/09 16:00
SPHI 091600Z 21009KT CAVOK 21/15 Q1018 RMK PP000

2010/08/09 16:00
SPQU 091600Z 26006KT 230V310 CAVOK 19/M12 Q1028 NOSIG RMK PP000

2010/08/09 16:00
SPRU 091600Z 18009KT 8000 SKC 17/13 Q1017 RMK BIRD HAZARD RWY20 PP000

2010/08/09 16:00
SPSO 091600Z 25006KT 4000 BR FEW010 BKN014 18/13 Q1019 RMK BIRD HAZARD RWY 22/04W PP000

2010/08/09 16:00
TBPB 091600Z 16010KT 9999 FEW014CB SCT016 BKN260 30/25 Q1015 NOSIG

2010/08/09 16:00
TFFR 091600Z 12005KT 080V170 9999 SCT018 SCT053 28/25 Q1014 TEMPO 4000 SHRA

2010/08/09 15:55
TXKF 091555Z 18010KT 9999 FEW020 BKN300 29/24 Q1022

2010/08/09 15:55
KQAY 091555Z AUTO 16007KT 8000 CLR 38/19 A2944 RMK AO2 SLP964 T03810191 $

2010/08/09 15:55
KQDP 091555Z AUTO RMK AO2 SLPNO $

2010/08/09 15:53
KAZO 091553Z 18007KT 3SM RA BR BKN023 BKN049 OVC065 23/22 A3000

2010/08/09 15:53
KBDE 091553Z AUTO 00000KT 10SM CLR 26/21 A2988

2010/08/09 15:53
KBTL 091553Z 25004KT 9SM -TSRA BKN060 23/21 A2999

2010/08/09 15:53
KBTM 091553Z AUTO 21003KT 10SM FEW070 OVC090 12/08 A3004

2010/08/09 15:55
KCIU 091555Z AUTO 20011G14KT 10SM BKN023 BKN065 BKN070 24/18 A2991

2010/08/09 15:53
KCMX 091553Z AUTO 28009KT 10SM 25/21 A2989

2010/08/09 15:54
KCOS 091554Z AUTO 27003KT 10SM CLR 22/14 A3020

2010/08/09 15:53
KCPR 091553Z 21015KT 10SM CLR 26/04 A3007

2010/08/09 15:53
KDET 091553Z 24007KT 8SM CLR 27/20 A2995

2010/08/09 15:55
KDLH 091555Z 32003KT 10SM FEW005 26/21 A2993

2010/08/09 15:54
KDSM 091554Z 16011G18KT 10SM FEW019 SCT130 SCT200 BKN250 28/23 A2989

2010/08/09 15:53
KELO 091553Z AUTO 00000KT 10SM CLR 24/19 A2991

2010/08/09 15:53
KFAR 091553Z 20004KT 10SM CLR 28/18 A2989

2010/08/09 15:53
KFNT 091553Z 20004KT 8SM -RA CLR 25/21 A2995

2010/08/09 15:53
KGFK 091553Z 21004KT 10SM CLR 29/20 A2984

2010/08/09 15:53
KGRB 091553Z 24005KT 10SM CLR 28/22 A2987

2010/08/09 15:53
KGRR 091553Z 25004KT 10SM FEW032 BKN100 OVC160 24/22 A2996

2010/08/09 15:53
KICT 091553Z VRB06KT 10SM SCT150 SCT200 SCT250 35/21 A2992

2010/08/09 15:55
KINL 091555Z AUTO 08003KT 10SM CLR 25/19 A2989

2010/08/09 15:52
KISN 091552Z 04003KT 10SM CLR 23/15 A2986

2010/08/09 15:54
KLEX 091554Z VRB05KT 10SM CLR 32/18 A3004

2010/08/09 15:53
KMBS 091553Z 23008KT 7SM CLR 25/22 A2992

2010/08/09 15:51
KMDW 091551Z 13004KT 8SM FEW034 SCT050 BKN150 BKN200 26/21 A2995

2010/08/09 15:54
KMKC 091554Z 12007KT 10SM CLR 32/23 A2990

2010/08/09 15:52
KMKE 091552Z 21010KT 10SM SCT012 BKN160 BKN240 26/23 A2992

2010/08/09 15:52
KMLI 091552Z 00000KT 10SM CLR 25/22 A2992

2010/08/09 15:54
KMOT 091554Z 18009KT 10SM CLR 26/18 A2984

2010/08/09 15:58
KMWA 091558Z 21005KT 10SM SCT050 BKN150 34/23 A2998

2010/08/09 15:52
KOMA 091552Z 17006KT 10SM SCT140 SCT250 30/24 A2985

2010/08/09 15:55
KPHN 091555Z AUTO 21005KT 7SM SCT050 SCT070 27/20 A2994

2010/08/09 15:54
KPIA 091554Z 05003KT 5SM HZ CLR 27/23 A2992

2010/08/09 15:53
KPTK 091553Z 28009KT 9SM SCT130 OVC160 26/20 A2996

2010/08/09 15:53
KPUB 091553Z 00000KT 10SM CLR 24/14 A3009

2010/08/09 15:50
KSAW 091550Z 27004KT 10SM SCT021 BKN026 BKN033 27/20 A2987

2010/08/09 15:56
KSDF 091556Z 17003KT 7SM FEW100 SCT150 SCT200 32/21 A3001

2010/08/09 15:52
KSGF 091552Z 27003KT 10SM CLR 32/23 A2999

2010/08/09 15:53
KSTP 091553Z 35003KT 10SM CLR 29/22 A2991

2010/08/09 15:54
KSUS 091554Z 00000KT 10SM BKN150 32/25 A2994

2010/08/09 15:52
KTOL 091552Z 23006KT 8SM CLR 28/19 A2998

2010/08/09 16:03
KAZO 091603Z 18006KT 1 3/4SM +RA BR BKN021 BKN049 OVC065 23/22 A3000

2010/08/09 16:03
KSTC 091603Z 02003KT 10SM FEW009 28/24 A2993

2010/08/09 15:53
KBFI 091553Z 22003KT 10SM OVC014 16/12 A2997

2010/08/09 15:53
KBIL 091553Z 20005KT 10SM FEW110 22/12 A2996

2010/08/09 15:53
KBKE 091553Z AUTO 00000KT 10SM FEW100 20/08 A2993

2010/08/09 15:53
KBLI 091553Z 17007KT 10SM FEW007 SCT046 15/12 A2994

2010/08/09 15:53
KBOI 091553Z 29005KT 10SM CLR 24/11 A2988

2010/08/09 15:53
KCLM 091553Z AUTO 31007KT 10SM FEW006 14/12 A2997

2010/08/09 15:56
KCTB 091556Z AUTO 21007KT 10SM CLR 22/07 A2992

2010/08/09 15:56
KDUG 091556Z AUTO 00000KT 10SM CLR 24/18 A3010

2010/08/09 15:53
KFAT 091553Z 24003KT 10SM CLR 21/13 A2988

2010/08/09 15:55
KGDV 091555Z AUTO 01006KT 10SM CLR 24/12 A2988

2010/08/09 15:53
KGEG 091553Z 18003KT 10SM FEW080 SCT200 19/09 A2988

2010/08/09 15:53
KGGW 091553Z AUTO 00000KT 10SM CLR 25/13 A2988

2010/08/09 15:53
KGLH 091553Z 28004KT 10SM CLR 34/24 A2996

2010/08/09 15:55
KGPI 091555Z 00000KT 10SM CLR 18/10 A2991

2010/08/09 15:53
KGTF 091553Z 21004KT 10SM CLR 22/08 A2992

2010/08/09 15:53
KGWO 091553Z AUTO VRB03KT 10SM CLR 34/25 A2998

2010/08/09 15:53
KHLN 091553Z 10003KT 10SM BKN100 17/08 A2997

2010/08/09 15:53
KHQM 091553Z AUTO 24006KT 7SM OVC006 13/12 A2999

2010/08/09 15:53
KHVR 091553Z AUTO 00000KT 10SM CLR 23/11 A2990

2010/08/09 15:53
KIPL 091553Z AUTO 29003KT 10SM CLR 29/12 A2979

2010/08/09 15:53
KLBB 091553Z 21010KT 10SM FEW150 SCT200 29/18 A3005

2010/08/09 15:53
KMSO 091553Z 18003KT 10SM FEW110 17/09 A2993

2010/08/09 15:52
KMWH 091552Z AUTO 00000KT 10SM CLR 21/12 A2983

2010/08/09 15:53
KOLF 091553Z AUTO 00000KT 10SM CLR 26/14 A2987

2010/08/09 15:54
KOLM 091554Z 22005KT 10SM SCT009 BKN014 OVC030 14/12 A2998

2010/08/09 15:54
KOLS 091554Z AUTO 00000KT 10SM CLR 26/17 A3008

2010/08/09 15:50
KOLV 091550Z 00000KT 5SM HZ SCT250 34/28 A3001

2010/08/09 15:53
KPAE 091553Z 00000KT 10SM OVC005 14/13 A2997

2010/08/09 15:53
KPDX 091553Z 32005KT 10SM OVC025 15/10 A3000

2010/08/09 15:53
KPMD 091553Z 03003KT 10SM CLR 23/01 A2996

2010/08/09 15:55
KRNO 091555Z 00000KT 10SM CLR 19/06 A3003

2010/08/09 15:53
KRNT 091553Z 16007KT 6SM BR OVC012 14/13 A2997

2010/08/09 16:00
OIBL 091600Z 10006KT 6000 NSC 37/22 Q0996 A2944

2010/08/09 16:00
OIIK 091600Z 00000KT CAVOK 30/10 Q1013 A2993

2010/08/09 16:00
OIMC 091600Z 34004KT CAVOK 31/13 Q1006 A2973

2010/08/09 16:00
OIMD 091600Z 04014KT CAVOK 31/02 Q1007 A2974

2010/08/09 16:00
OIMQ 091600Z 06006KT CAVOK 32/M01 Q1011 A2985

2010/08/09 16:00
OITM 091600Z 07010KT 9999 FEW040 31/10 Q1011 A2988

2010/08/09 16:00
VTBS 091600Z 28006KT 3000 TSRA SCT015CB SCT030 BKN110 24/23 Q1007 RERA TS OVER AD TEMPO FM1625 5000 TSRA

2010/08/09 16:00
VTBD 091600Z 20006KT 8000 -RA FEW018CB SCT035 BKN110 25/23 Q1006 CB SE-S NOSIG

2010/08/09 16:00
VTCC 091600Z 34004KT 9999 BKN035 SCT110 27/23 Q1007 A2975

2010/08/09 16:00
VTBU 091600Z 24006KT 9999 FEW020CB SCT120 BKN300 30/27 Q1006 A2973 CB NW LTG

2010/08/09 16:00
VTSS 091600Z 00000KT 9999 SCT020 SCT120 BKN300 24/22 Q1009 A2982

2010/08/09 16:00
VTSP 091600Z 25006KT 7000 SCT018 BKN120 BKN300 28/24 Q1009 A2981

2010/08/09 16:00
VVTS 091600Z 21008KT 9999 FEW017 SCT040 26/24 Q1007 NOSIG

2010/08/09 16:00
VVNB 091600Z 05003KT 5000 NSC 27/26 Q1004 NOSIG

2010/08/09 16:00
VVDN 091600Z 22003KT 8000 FEW010 SCT060 25/24 Q1006 NOSIG

2010/08/09 16:00
VVPB 091600Z VRB03KT 9999 FEW017 SCT060 26/24 Q1005 NOSIG

2010/08/09 15:53
KSAC 091553Z 22007KT 10SM CLR 17/12 A2989

2010/08/09 15:55
KSCK 091555Z 34006KT 10SM CLR 18/12 A2989

2010/08/09 15:53
KSDM 091553Z 00000KT 10SM BKN011 16/12 A2993

2010/08/09 15:53
KSFF 091553Z 00000KT 10SM CLR 21/11 A2988

2010/08/09 15:53
KSJC 091553Z 12009KT 10SM FEW007 SCT010 BKN013 16/11 A2992

2010/08/09 15:53
KSLC 091553Z 18019G26KT 10SM FEW075 SCT140 SCT200 24/08 A3002

2010/08/09 15:53
KSMF 091553Z 18006KT 10SM CLR 16/12 A2988

2010/08/09 15:53
KTIW 091553Z 21004KT 10SM SCT007 OVC012 13/12 A2998

2010/08/09 15:53
KTUS 091553Z VRB03KT 10SM CLR 29/17 A3000

2010/08/09 15:56
KNUW 091556Z 21007KT 6SM BR BKN006 OVC020 14/11 A2996

2010/08/09 15:54
KSBN 091554Z COR 00000KT 10SM BKN044 BKN085 26/21 A2999 RMK AO2 SLP150 T02560206 

2010/08/09 15:54
KACY 091554Z 23004KT 10SM CLR 31/19 A3004

2010/08/09 15:53
KAUG 091553Z AUTO VRB05KT 10SM FEW030 SCT041 26/18 A2994

2010/08/09 15:54
KAVL 091554Z 00000KT 10SM CLR 28/19 A3015

2010/08/09 15:53
KBGM 091553Z VRB05KT 10SM CLR 28/15 A3006

2010/08/09 15:51
KBKW 091551Z AUTO 26003KT 4SM HZ CLR 27/18 A3015

2010/08/09 15:51
KCON 091551Z AUTO 29007G15KT 230V320 10SM CLR 31/16 A2994

2010/08/09 15:52
KDCA 091552Z 16008KT 8SM FEW050 SCT250 31/21 A3003

2010/08/09 15:51
KEKN 091551Z AUTO 00000KT 7SM CLR 26/19 A3012

2010/08/09 15:51
KESN 091551Z 00000KT 6SM HZ SCT040 31/24 A3007

2010/08/09 15:53
KGFL 091553Z AUTO 17011G16KT 10SM SCT055 29/18 A2996

2010/08/09 15:53
KGSP 091553Z VRB03KT 10SM CLR 31/22 A3008

2010/08/09 16:00
KIPJ 091600Z AUTO 23007KT 10SM SCT035 32/21 A3008

2010/08/09 15:54
KIPT 091554Z VRB04KT 10SM CLR 27/17 A3002

2010/08/09 15:54
KLYH 091554Z AUTO 20005KT 10SM FEW031 29/22 A3008

2010/08/09 15:53
KMHT 091553Z 22005KT 10SM FEW050 30/18 A2993

2010/08/09 15:51
KMPV 091551Z AUTO VRB03KT 10SM FEW036 SCT046 26/18 A3001

2010/08/09 15:54
KMWN 091554Z 28023KT 0SM FG VV000 11/11 RMK

2010/08/09 15:51
KNYC 091551Z AUTO VRB05KT 10SM CLR 31/19 A3003

2010/08/09 15:54
KPNE 091554Z 26005KT 10SM CLR 32/21 A3003

2010/08/09 15:54
KROA 091554Z 18003KT 8SM CLR 29/21 A3009

2010/08/09 15:53
KSMQ 091553Z AUTO VRB04KT 10SM FEW048 31/21 A3000

2010/08/09 15:54
KWAL 091554Z 15004KT 10SM FEW020 SCT250 29/17 A3006

2010/08/09 16:03
KCQT 091603Z AUTO 00000KT 5SM HZ OVC011 18/13 A2992

2010/08/09 16:00
RJAA 091600Z 15005KT 9999 FEW020 SCT140 23/22 Q1016 NOSIG

2010/08/09 16:00
RJBB 091600Z 16009KT 9999 FEW001 SCT040 27/24 Q1013 NOSIG

2010/08/09 16:00
RJTT 091600Z 18008KT 9999 FEW012 SCT060 26/23 Q1015

2010/08/09 16:00
RJGG 091600Z 12010KT 9999 VCSH FEW008 SCT040 BKN100 26/25 Q1014 NOSIG

2010/08/09 16:00
RJAA 091600Z 15005KT 9999 FEW020 SCT140 23/22 Q1016 NOSIG

2010/08/09 16:00
RJBB 091600Z 16009KT 9999 FEW001 SCT040 27/24 Q1013 NOSIG

2010/08/09 16:00
RJTT 091600Z 18008KT 9999 FEW012 SCT060 26/23 Q1015

2010/08/09 16:00
ROAH 091600Z 18025KT 9999 -RA SCT015 BKN025 BKN050 28/26 Q1006

2010/08/09 16:00
RJGG 091600Z 12010KT 9999 VCSH FEW008 SCT040 BKN100 26/25 Q1014 NOSIG

2010/08/09 16:00
RJAA 091600Z 15005KT 9999 FEW020 SCT140 23/22 Q1016 NOSIG

2010/08/09 16:00
RJBB 091600Z 16009KT 9999 FEW001 SCT040 27/24 Q1013 NOSIG

2010/08/09 16:00
RJTT 091600Z 18008KT 9999 FEW012 SCT060 26/23 Q1015

2010/08/09 16:00
RJFF 091600Z 15009KT 9999 FEW030 SCT130 BKN150 26/23 Q1010

2010/08/09 16:00
RJGG 091600Z 12010KT 9999 VCSH FEW008 SCT040 BKN100 26/25 Q1014 NOSIG

2010/08/09 16:00
RJFR 091600Z 11007KT 9999 FEW010 BKN180 27/24 Q1011

2010/08/09 15:53
KAAF 091553Z AUTO 09007KT 10SM CLR 32/24 A2996

2010/08/09 15:53
KABR 091553Z AUTO 19008KT 10SM CLR 29/19 A2991

2010/08/09 15:51
KACT 091551Z 16012KT 10SM CLR 33/23 A2997

2010/08/09 15:53
KAGS 091553Z 00000KT 7SM CLR 32/24 A3003

2010/08/09 15:51
KAHN 091551Z VRB03KT 6SM HZ CLR 32/21 A3008

2010/08/09 15:53
KALI 091553Z AUTO 16008KT 10SM BKN028 32/24 A2995

2010/08/09 15:53
KAUS 091553Z 21007KT 10SM FEW026 32/22 A2998

2010/08/09 15:51
KBVE 091551Z AUTO 00000KT 7SM -RA FEW090 28/26 A2999

2010/08/09 15:55
KCAO 091555Z AUTO 35005KT 10SM CLR 28/14 A3008

2010/08/09 15:53
KCDS 091553Z AUTO 25008KT 10SM CLR 31/20 A2996

2010/08/09 15:53
KCLL 091553Z 20007KT 10SM FEW031 32/23 A2999

2010/08/09 15:53
KCNM 091553Z AUTO 00000KT 10SM CLR 24/19 A3003

2010/08/09 15:53
KCOT 091553Z AUTO VRB05KT 10SM CLR 31/22 A2996

2010/08/09 15:51
KCSG 091551Z COR 09007KT 9SM FEW045 33/21 A3002

2010/08/09 15:51
KCSG 091551Z 09007KT 9SM CLR 33/21 A3002

2010/08/09 15:53
KCTY 091553Z AUTO 04008KT 32/24 A2996

2010/08/09 15:53
KDAB 091553Z 08009KT 10SM SCT020 SCT028 BKN070 31/24 A2995

2010/08/09 15:53
KDHT 091553Z AUTO 08003KT 10SM CLR 28/16 A3004

2010/08/09 15:53
KECP 091553Z 06008KT 10SM FEW030 32/24 A2997

2010/08/09 15:53
KELD 091553Z AUTO 33005KT 10SM CLR 33/24 A2998

2010/08/09 15:51
KELP 091551Z 22003KT 10SM FEW150 27/14 A3007

2010/08/09 15:53
KESF 091553Z AUTO 28006KT 10SM CLR 33/24 A2998

2010/08/09 15:53
KFSM 091553Z 21003KT 10SM CLR 34/22 A2996

2010/08/09 15:53
KFYV 091553Z 21005KT 10SM CLR 32/22 A3001

2010/08/09 15:53
KGAG 091553Z AUTO 20012KT 10SM CLR 32/19 A2994

2010/08/09 15:51
KGDP 091551Z AUTO 24015KT 10SM CLR 23/16 A3018

2010/08/09 15:53
KHBR 091553Z AUTO 21014KT 10SM CLR 33/19 A2993

2010/08/09 15:51
KHDO 091551Z AUTO 22004KT 10SM FEW028 30/22 A3001

2010/08/09 15:53
KHOT 091553Z AUTO VRB03KT 10SM CLR 34/23 A2999

2010/08/09 15:53
KHRO 091553Z AUTO VRB04KT 10SM FEW100 32/22 A3003

2010/08/09 15:54
KIPT 091554Z VRB04KT 10SM CLR 27/17 A3002

2010/08/09 15:54
KJAN 091554Z 34005KT 10SM CLR 33/24 A2999

2010/08/09 16:03
KSTC 091603Z 02003KT 10SM FEW009 28/24 A2993

2010/08/09 15:53
KJBR 091553Z AUTO 28005KT 10SM CLR 33/24 A2997

2010/08/09 15:51
KJCT 091551Z AUTO 17009KT 130V220 10SM CLR 31/19 A3001

2010/08/09 15:55
KJQF 091555Z 00000KT 7SM CLR 34/19 A3006

2010/08/09 15:53
KLFK 091553Z AUTO 28003KT 10SM SCT028 32/24 A2999

2010/08/09 15:53
KLFT 091553Z 34008KT 10SM FEW026 33/24 A2998

2010/08/09 15:53
KMCN 091553Z 08006KT 8SM CLR 33/22 A3004

2010/08/09 15:58
KMEI 091558Z 09005KT 10SM CLR 32/24 A3000

2010/08/09 15:53
KMLC 091553Z AUTO 24012KT 10SM CLR 33/22 A2996

2010/08/09 15:53
KMLU 091553Z 32004KT 10SM CLR 34/25 A2998

2010/08/09 15:53
KMWL 091553Z AUTO 20006KT 10SM CLR 33/22 A2995

2010/08/09 15:53
KPBF 091553Z AUTO 00000KT 10SM CLR 33/24 A2997

2010/08/09 15:53
KPNC 091553Z AUTO VRB04KT 10SM CLR 33/22 A2991

2010/08/09 15:53
KPSX 091553Z AUTO 23007G18KT 10SM CLR 32/25 A2997

2010/08/09 15:53
KPWA 091553Z 19010KT 10SM CLR 33/21 A2993

2010/08/09 15:53
KRMG 091553Z AUTO 22004KT 10SM CLR 32/23 A3004

2010/08/09 15:53
KRSL 091553Z AUTO 19005KT 10SM CLR 32/21 A2989

2010/08/09 15:56
KSHV 091556Z 26007KT 10SM FEW300 33/23 A2998

2010/08/09 15:52
KSPS 091552Z 22013G22KT 10SM FEW070 34/21 A2991

2010/08/09 15:53
KTLH 091553Z 05010G16KT 10SM FEW050 32/21 A2998

2010/08/09 15:53
KTOP 091553Z 21007KT 10SM CLR 35/22 A2989

2010/08/09 15:53
KTRI 091553Z VRB04KT 10SM FEW065 SCT150 31/19 A3010

2010/08/09 15:53
KTUP 091553Z 00000KT 10SM SCT024 32/25 A3000

2010/08/09 15:51
KVCT 091551Z 17007KT 10SM FEW031 33/24 A2997

2010/08/09 15:53
KVGT 091553Z 11007KT 10SM CLR 27/09 A2995

2010/08/09 15:58
KVUJ 091558Z AUTO 36004KT 10SM SCT080 33/23 A3004

2010/08/09 15:55
KWRB 091555Z 05008KT 10SM FEW020 33/24 A3003

2010/08/09 16:05
K2G4 091605Z AUTO 34003KT 10SM CLR 25/13 A3015 RMK AO1

2010/08/09 16:05
K2W6 091605Z AUTO 22003KT 10SM CLR 30/18 A3005 RMK AO1

2010/08/09 16:00
RJFF 091600Z 15009KT 9999 FEW030 SCT130 BKN150 26/23 Q1010

2010/08/09 16:00
RJCC 091600Z 16004KT 1600 BR SCT001 BKN002 21/20 Q1015

2010/08/09 15:53
KAIA 091553Z AUTO 21008KT 10SM CLR 30/13 A3001

2010/08/09 15:51
KAID 091551Z 19004KT 10SM CLR 29/21 A3000

2010/08/09 15:54
KALO 091554Z AUTO 19006KT 10SM FEW070 26/23 A2991

2010/08/09 15:52
KALS 091552Z AUTO 00000KT 10SM BKN100 19/10 A3029

2010/08/09 15:50
KANW 091550Z AUTO 34005KT 10SM CLR 24/21 A2996

2010/08/09 15:53
KBBW 091553Z AUTO 02006KT 10SM CLR 26/21 A2994

2010/08/09 15:53
KBFF 091553Z AUTO 17005KT 10SM CLR 28/14 A3001

2010/08/09 15:50
KBIE 091550Z AUTO 29004KT 10SM CLR 30/22 A2986

2010/08/09 15:52
KBIS 091552Z 20008KT 10SM CLR 29/19 A2988

2010/08/09 15:53
KBPI 091553Z AUTO 14005KT 10SM CLR 18/06 A3019

2010/08/09 15:53
KBRL 091553Z AUTO 20009KT 10SM CLR 25/23 A2993

2010/08/09 15:53
KCAG 091553Z AUTO 21003KT 6SM -RA BR SCT035 SCT065 OVC080 13/12 A3025

2010/08/09 15:53
KCGI 091553Z VRB03KT 10SM CLR 32/26 A2996

2010/08/09 15:52
KCID 091552Z 16003KT 10SM FEW100 26/21 A2992

2010/08/09 15:55
KCNK 091555Z AUTO 00000KT 10SM CLR 32/21 A2988

2010/08/09 15:52
KCNU 091552Z AUTO 18008G15KT 10SM CLR 33/23 A2995

2010/08/09 15:54
KCOU 091554Z 00000KT 10SM CLR 31/24 A2998

2010/08/09 15:53
KCYS 091553Z 22008KT 10SM FEW031 OVC090 20/12 A3019

2010/08/09 15:53
KDBQ 091553Z 26013KT 10SM OVC010 24/22 A2996

2010/08/09 15:52
KDDC 091552Z AUTO 31003KT 10SM CLR 31/18 A2994

2010/08/09 15:55
KDVL 091555Z AUTO 20008KT 10SM CLR 27/18 A2985

2010/08/09 15:55
KEAR 091555Z AUTO 10007KT 10SM CLR 26/22 A2995

2010/08/09 15:54
KEVV 091554Z 00000KT 10SM CLR 34/21 A2999

2010/08/09 15:53
KFNB 091553Z AUTO 14010KT 10SM CLR 31/24 A2987

2010/08/09 15:56
KFSD 091556Z 07004KT 10SM CLR 27/22 A2991

2010/08/09 15:54
KFWA 091554Z 28004KT 9SM FEW150 BKN250 28/21 A3001

2010/08/09 15:53
KGCC 091553Z AUTO 25007KT 10SM CLR 24/10 A2998

2010/08/09 15:54
KGCK 091554Z VRB05KT 10SM CLR 32/16 A2995

2010/08/09 15:53
KGJT 091553Z 12008KT 10SM SCT100 24/09 A3014

2010/08/09 15:53
KGLD 091553Z AUTO 06011KT 10SM CLR 31/13 A3000

2010/08/09 15:55
KGPZ 091555Z AUTO 00000KT 10SM CLR 26/21 A2993

2010/08/09 15:53
KGRI 091553Z VRB05KT 10SM CLR 27/20 A2991

2010/08/09 15:55
KHON 091555Z AUTO 09003KT 10SM CLR 27/21 A2991

2010/08/09 15:53
KHSI 091553Z AUTO 09006KT 10SM CLR 26/22 A2992

2010/08/09 15:53
KHTL 091553Z AUTO 25006KT 9SM CLR 24/22 A2991

2010/08/09 15:53
KIML 091553Z AUTO 00000KT 10SM CLR 24/19 A3000

2010/08/09 15:55
KIRK 091555Z AUTO 13005KT 10SM CLR 23/21 A2994

2010/08/09 15:53
KJKL 091553Z AUTO 13003KT 10SM CLR 29/18 A3008

2010/08/09 15:53
KJLN 091553Z 21006KT 10SM CLR 32/23 A2997

2010/08/09 15:59
KJNX 091559Z AUTO 02003KT 10SM SCT031 31/21 A3004

2010/08/09 15:53
KLAN 091553Z 22007KT 10SM -RA FEW011 SCT055 OVC120 23/21 A2996

2010/08/09 15:53
KLBF 091553Z AUTO 00000KT 10SM CLR 24/22 A2998

2010/08/09 15:54
KLNK 091554Z 35005KT 10SM CLR 31/23 A2987

2010/08/09 15:53
KLXV 091553Z AUTO 20003KT 10SM FEW100 13/07 A3042

2010/08/09 15:53
KMCK 091553Z AUTO 02013KT 10SM CLR 29/22 A2995

2010/08/09 15:53
KMCW 091553Z AUTO 22004KT 10SM CLR 27/22 A2995

2010/08/09 15:52
KMFD 091552Z 23007KT 9SM CLR 28/17 A3004

2010/08/09 15:52
KMHK 091552Z 21008KT 10SM CLR 34/21 A2987

2010/08/09 15:55
KMKG 091555Z 18012KT 10SM FEW008 SCT055 BKN110 24/23 A2991

2010/08/09 15:53
KMSN 091553Z VRB04KT 10SM FEW016 SCT100 25/21 A2992

2010/08/09 15:53
KODX 091553Z AUTO 05003KT 10SM CLR 26/21 A2992

2010/08/09 15:50
KONL 091550Z AUTO 04006KT 7SM OVC001 22/22 A2992

2010/08/09 15:53
KOTM 091553Z AUTO 15008KT 10SM CLR 27/23 A2991

2010/08/09 15:53
KPAH 091553Z 23004KT 10SM BKN043 32/23 A2997

2010/08/09 15:53
KPKD 091553Z AUTO 26004KT 10SM CLR 28/18 A2993

2010/08/09 15:52
KRAP 091552Z 17008KT 10SM CLR 28/17 A2996

2010/08/09 15:54
KRFD 091554Z 22005KT 10SM FEW010 SCT050 BKN150 BKN250 26/21 A2996

2010/08/09 15:53
KRIW 091553Z AUTO 11004KT 10SM CLR 22/06 A3008

2010/08/09 15:54
KRST 091554Z 25004KT 10SM OVC016 26/22 A2995

2010/08/09 15:53
KSHR 091553Z AUTO 00000KT 10SM CLR 28/08 A2995

2010/08/09 15:53
KSLN 091553Z 21009KT 10SM CLR 34/21 A2988

2010/08/09 15:52
KSPI 091552Z 00000KT 10SM CLR 30/24 A2995

2010/08/09 15:53
KSTC 091553Z 01003KT 9SM BKN009 27/24 A2993

2010/08/09 15:52
KSUX 091552Z 05004KT 10SM OVC009 26/22 A2988

2010/08/09 15:53
KTCS 091553Z AUTO VRB03KT 10SM CLR 24/14 A3013

2010/08/09 16:01
KTDF 091601Z AUTO 00000KT 31/21 A3007

2010/08/09 15:55
KUDG 091555Z 04006KT 10SM CLR 31/23 A3006

2010/08/09 15:54
KUIN 091554Z AUTO 17004KT 10SM CLR 26/22 A2996

2010/08/09 15:53
KVIH 091553Z AUTO 23005KT 10SM CLR 32/25 A2997

2010/08/09 15:52
KVTN 091552Z AUTO 00000KT 10SM FEW005 26/21 A2997

2010/08/09 15:51
KYNG 091551Z 20006KT 10SM FEW150 BKN250 28/16 A3004

2010/08/09 15:53
KLND 091553Z AUTO VRB05KT 10SM CLR 23/06 A3006

2010/08/09 15:55
KAST 091555Z AUTO 25004KT 7SM SCT011 BKN015 OVC028 14/12 A3000

2010/08/09 15:54
KBFL 091554Z 00000KT 10SM CLR 22/12 A2989

2010/08/09 15:52
KBLU 091552Z AUTO VRB04KT 10SM CLR 18/07 A3009

2010/08/09 15:56
KBZN 091556Z 00000KT 10SM OVC100 17/11 A3000

2010/08/09 15:53
KCNY 091553Z AUTO 29003KT 10SM CLR 24/10 A3011

2010/08/09 15:52
KCZZ 091552Z AUTO 00000KT 22/M06 A2992

2010/08/09 15:55
KDRA 091555Z AUTO 00000KT 10SM CLR 26/06 A2999

2010/08/09 15:53
KELY 091553Z AUTO 00000KT 10SM CLR 20/01 A3014

2010/08/09 15:54
KEUG 091554Z 01008KT 7SM OVC009 14/11 A3001

2010/08/09 15:56
KFLG 091556Z 20005KT 10SM FEW090 18/08 A3029

2010/08/09 15:50
KHMS 091550Z 31010KT 15SM FEW250 23/10 A2981

2010/08/09 15:56
KINW 091556Z AUTO VRB06KT 10SM CLR 21/15 A3016

2010/08/09 15:59
KJNX 091559Z AUTO 02003KT 10SM SCT031 31/21 A3004

2010/08/09 15:53
KLGB 091553Z 00000KT 6SM HZ OVC014 17/13 A2993

2010/08/09 15:56
KLWS 091556Z 00000KT 10SM CLR 21/11 A2986

2010/08/09 15:53
KMFR 091553Z 34003KT 10SM CLR 18/11 A2994

2010/08/09 15:56
KMHS 091556Z AUTO 00000KT 10SM CLR 18/09 A2997

2010/08/09 15:56
KNUQ 091556Z AUTO 10006KT 10SM OVC016 16/11 A2993

2010/08/09 15:54
KOLM 091554Z 22005KT 10SM SCT009 BKN014 OVC030 14/12 A2998

2010/08/09 15:53
KPDT 091553Z 10SM CLR 19/06 A2988

2010/08/09 15:53
KPGA 091553Z AUTO 36003KT 10SM CLR 23/12 A3010

2010/08/09 15:53
KPIH 091553Z 20009KT 10SM SCT095 21/09 A3002

2010/08/09 15:53
KPUC 091553Z AUTO 00000KT 10SM CLR 19/09 A3018

2010/08/09 15:54
KRBL 091554Z AUTO VRB03KT 10SM CLR 22/13 A2988

2010/08/09 15:53
KRDD 091553Z 00000KT 10SM CLR 22/13 A2987

2010/08/09 15:52
KSDB 091552Z AUTO 22003KT 10SM CLR 19/02 A3005

2010/08/09 15:53
KSHN 091553Z AUTO 24007KT 7SM OVC006 14/12 A2996

2010/08/09 15:54
KSJN 091554Z AUTO 00000KT 10SM OVC100 21/12 A3021

2010/08/09 15:53
KSLC 091553Z 18019G26KT 10SM FEW075 SCT140 SCT200 24/08 A3002

2010/08/09 15:56
KBIH 091556Z AUTO 00000KT 10SM CLR 21/02 A3002

2010/08/09 15:56
KMEH 091556Z AUTO 00000KT 10SM FEW090 17/06 A2995

2010/08/09 15:52
KMLF 091552Z AUTO 20012KT 10SM CLR 19/11 A3010

2010/08/09 15:56
KSMP 091556Z AUTO VRB05KT M1/4SM FG BKN001 OVC006 09/09 A2998

2010/08/09 15:53
KUIL 091553Z AUTO 25003KT 9SM OVC002 12/12 A2998

2010/08/09 15:51
KSMX 091551Z 00000KT 8SM OVC006 12/11 A2996

2010/08/09 15:50
KSOW 091550Z AUTO 19003KT 10SM BKN100 20/11 A3028

2010/08/09 15:50
KTRK 091550Z 00000KT 3/4SM FG OVC001 07/07 A3012 NO SPECI

2010/08/09 15:56
KWMC 091556Z AUTO 16006KT 10SM CLR 23/06 A2998

2010/08/09 15:53
KYKM 091553Z 36006KT 10SM CLR 21/09 A2985

2010/08/09 16:03
KCGE 091603Z AUTO 25004KT 10SM CLR 30/24 A3005 RMK AO1

2010/08/09 16:05
KCGS 091605Z AUTO 28003KT 10SM CLR 32/20 A3002 RMK AO1

2010/08/09 16:06
KCBE 091606Z AUTO 00000KT 10SM CLR 30/18 A3007 RMK AO1

2010/08/09 15:51
KABE 091551Z VRB04KT 9SM CLR 29/21 A3002

2010/08/09 15:53
KACK 091553Z 23010KT 10SM CLR 25/22 A3002

2010/08/09 15:54
KACY 091554Z 23004KT 10SM CLR 31/19 A3004

2010/08/09 15:53
KAGC 091553Z 00000KT 10SM CLR 29/15 A3005

2010/08/09 15:53
KAGS 091553Z 00000KT 7SM CLR 32/24 A3003

2010/08/09 15:54
KAKR 091554Z AUTO 23008KT 200V280 10SM CLR 29/17 A3003

2010/08/09 15:51
KALB 091551Z 30009KT 10SM FEW055 SCT110 30/18 A2998

2010/08/09 15:56
KAND 091556Z AUTO VRB04KT 10SM CLR 32/21 A3007

2010/08/09 15:53
KAOO 091553Z AUTO 00000KT 10SM CLR 28/14 A3008

2010/08/09 15:56
KART 091556Z AUTO 26009KT 10SM FEW022 SCT075 27/20 A2995

2010/08/09 15:54
KAVL 091554Z 00000KT 10SM CLR 28/19 A3015

2010/08/09 15:54
KAVP 091554Z AUTO 31007KT 10SM CLR 31/14 A3003

2010/08/09 15:53
KBAF 091553Z 18006KT 10SM SCT090 32/17 A2998

2010/08/09 15:51
KBDL 091551Z VRB04KT 9SM FEW100 31/17 A2998

2010/08/09 15:52
KBDR 091552Z 21009KT 9SM CLR 28/21 A3000

2010/08/09 15:56
KBED 091556Z 23007KT 10SM FEW100 SCT200 31/18 A2995

2010/08/09 15:53
KBFD 091553Z AUTO VRB04KT 10SM CLR 24/16 A3009

2010/08/09 15:53
KBGM 091553Z VRB05KT 10SM CLR 28/15 A3006

2010/08/09 15:53
KBGR 091553Z 27008KT 10SM FEW025 BKN035 26/18 A2992

2010/08/09 15:53
KBKL 091553Z 29004KT 6SM HZ CLR 29/19 A2998

2010/08/09 15:51
KBKW 091551Z AUTO 26003KT 4SM HZ CLR 27/18 A3015

2010/08/09 15:54
KBOS 091554Z 24008KT 10SM FEW060 SCT120 31/19 A2996

2010/08/09 15:54
KBTV 091554Z 22003KT 10SM -RA BKN050 OVC060 25/19 A2995

2010/08/09 15:54
KBUF 091554Z 24011KT 10SM BKN070 OVC140 27/19 A2998

2010/08/09 15:53
KBVY 091553Z 24012KT 10SM FEW100 31/17 A2994

2010/08/09 15:54
KBWI 091554Z 18006KT 9SM FEW043 SCT180 BKN250 31/20 A3002

2010/08/09 15:56
KCAE 091556Z 08007KT 9SM FEW039 33/22 A3003

2010/08/09 15:51
KCAK 091551Z VRB05KT 10SM SCT250 28/18 A3004

2010/08/09 15:54
KCAR 091554Z AUTO 24006KT 10SM SCT017 OVC023 21/17 A2988

2010/08/09 15:55
KCEF 091555Z AUTO 20006KT 10SM BKN090 30/19 A2998

2010/08/09 15:53
KCHO 091553Z 00000KT 9SM CLR 31/21 A3004

2010/08/09 15:56
KCHS 091556Z 05011KT 10SM FEW100 32/23 A3001

2010/08/09 15:53
KCKB 091553Z VRB03KT 7SM CLR 28/19 A3006

2010/08/09 15:51
KCLE 091551Z 24006KT 10SM BKN250 28/19 A3002

2010/08/09 15:52
KCLT 091552Z 22005KT 9SM FEW030 SCT250 32/22 A3007

2010/08/09 15:51
KCMH 091551Z 18006KT 9SM BKN200 28/19 A3002

2010/08/09 15:54
KCRW 091554Z 29003KT 6SM HZ CLR 28/21 A3006

2010/08/09 15:52
KCVG 091552Z 22005KT 9SM SCT250 31/18 A3003

2010/08/09 15:53
KDAN 091553Z AUTO VRB03KT 8SM CLR 32/20 A3006

2010/08/09 15:56
KDAY 091556Z 22007KT 9SM FEW090 SCT250 30/18 A3004

2010/08/09 15:52
KDCA 091552Z 16008KT 8SM FEW050 SCT250 31/21 A3003

2010/08/09 15:56
KDUJ 091556Z AUTO 00000KT 10SM CLR 27/16 A3008

2010/08/09 15:54
KECG 091554Z 10004KT 10SM CLR 29/22 A3004

2010/08/09 15:51
KEKN 091551Z AUTO 00000KT 7SM CLR 26/19 A3012

2010/08/09 15:53
KELM 091553Z 27006KT 10SM CLR 28/17 A3002

2010/08/09 15:51
KERI 091551Z 21008KT 8SM SCT100 29/18 A2999

2010/08/09 15:53
KEWB 091553Z 22008G18KT 8SM SCT015 BKN095 29/21 A2999

2010/08/09 15:54
KEWN 091554Z 04006KT 10SM CLR 31/22 A3005

2010/08/09 15:51
KEWR 091551Z 23007KT 9SM FEW050 SCT250 33/18 A3000

2010/08/09 15:53
KFAY 091553Z AUTO VRB03KT 10SM CLR 33/20 A3003

2010/08/09 15:53
KFLO 091553Z 06007KT 10SM CLR 31/23 A3004

2010/08/09 15:53
KFRG 091553Z 21006KT 9SM CLR 29/22 A3001

2010/08/09 15:53
KFVE 091553Z AUTO 24006KT 10SM BKN016 OVC022 21/16 A2988

2010/08/09 15:53
KGFL 091553Z AUTO 17011G16KT 10SM SCT055 29/18 A2996

2010/08/09 15:56
KGON 091556Z 21007KT 6SM HZ CLR 27/21 A3000

2010/08/09 15:54
KGSO 091554Z 19004KT 9SM FEW045 31/20 A3008

2010/08/09 15:53
KGSP 091553Z VRB03KT 10SM CLR 31/22 A3008

2010/08/09 15:53
KHFD 091553Z 26007KT 10SM CLR 32/18 A2997

2010/08/09 15:53
KHKY 091553Z VRB04KT 8SM SCT030 BKN065 29/22 A3009

2010/08/09 15:56
KHPN 091556Z VRB03KT 10SM CLR 31/18 A3001

2010/08/09 15:51
KHTS 091551Z 20004KT 7SM CLR 28/21 A3005

2010/08/09 15:53
KHVN 091553Z 21007G14KT 9SM CLR 28/21 A3000

2010/08/09 15:56
KHYA 091556Z 22017G21KT 10SM CLR 29/20 A2999

2010/08/09 15:52
KIAD 091552Z VRB04KT 9SM BKN250 31/21 A3003

2010/08/09 15:53
KIAG 091553Z 22011KT 10SM BKN070 BKN110 OVC140 27/20 A2996

2010/08/09 15:51
KILG 091551Z 17008KT 9SM CLR 29/23 A3002

2010/08/09 15:59
KRYN 091559Z 00000KT 10SM CLR 29/17 A2998

2010/08/09 16:00
LQBK 091600Z 10004KT 9999 FEW040 27/17 Q1015 NOSIG

2010/08/09 16:00
GGOV 091600Z 23013KT 9999 SCT015TCU SCT020CB 31/24 Q1011 TEMPO TS

2010/08/09 16:00
FLLS 091600Z 11006KT CAVOK 21/09 Q1021

2010/08/09 16:00
FMMI 091600Z 11005KT 080V150 9999 FEW016 BKN020 14/14 Q1025 NOSIG

2010/08/09 16:00
OPST 091600Z 36004KT 4000 FU FEW040 SCT110 31/23 Q1002 RH63

2010/08/09 15:45
LHDC 091545Z 27005KT 9999 FEW023CB SCT200 25/16 Q1016 NOSIG

2010/08/09 15:45
LHKE 091545Z 31004MPS 9999 FEW040TCU 24/16 Q1016 NOSIG RMK BLU

2010/08/09 15:45
LHPA 091545Z 23002MPS 9999 FEW040 22/15 Q1018 NOSIG RMK BLU

2010/08/09 15:45
LHPP 091545Z 04005KT CAVOK 23/16 Q1018

2010/08/09 15:45
LHPR 091545Z 29002KT 9999 FEW040 24/14 Q1018

2010/08/09 15:45
LHSM 091545Z 00000KT 9999 FEW034 24/16 Q1018 NOSIG

2010/08/09 15:45
LHSN 091545Z 32001MPS CAVOK 23/15 Q1016 NOSIG RMK BLU

2010/08/09 15:45
LHUD 091545Z 33009KT 9999 FEW040TCU BKN083 24/18 Q1017

2010/08/09 15:53
KILM 091553Z AUTO 10006KT 10SM FEW033 SCT042 SCT085 29/23 A3003

2010/08/09 15:54
KINT 091554Z 24006KT 10SM CLR 31/19 A3008

2010/08/09 15:54
KIPT 091554Z VRB04KT 10SM CLR 27/17 A3002

2010/08/09 15:56
KISP 091556Z 18007KT 10SM FEW020 29/21 A3000

2010/08/09 15:51
KJFK 091551Z 20010KT 7SM FEW040 SCT250 28/21 A3002

2010/08/09 15:54
KJST 091554Z AUTO 28005KT 10SM CLR 25/13 A3012

2010/08/09 15:50
KLBE 091550Z 24005KT 15SM SCT250 27/17 A3008

2010/08/09 15:55
KLCK 091555Z 20008KT 10SM CLR 30/20 A3002

2010/08/09 15:53
KLEB 091553Z 00000KT 10SM SCT045 BKN070 29/17 A2995

2010/08/09 15:51
KLGA 091551Z 22010KT 10SM FEW060 32/19 A3000

2010/08/09 15:53
KLUK 091553Z 19006KT 8SM CLR 30/21 A3002

2010/08/09 15:54
KLWM 091554Z 24009KT 10SM CLR 31/18 A2996

2010/08/09 15:54
KLYH 091554Z AUTO 20005KT 10SM FEW031 29/22 A3008

2010/08/09 15:56
KMDT 091556Z 00000KT 8SM BKN250 30/21 A3001

2010/08/09 15:52
KMFD 091552Z 23007KT 9SM CLR 28/17 A3004

2010/08/09 15:53
KMGW 091553Z 00000KT 10SM CLR 28/16 A3007

2010/08/09 15:53
KMHT 091553Z 22005KT 10SM FEW050 30/18 A2993

2010/08/09 15:54
KMIV 091554Z AUTO 18003KT 10SM 32/21 A3002

2010/08/09 15:53
KMRB 091553Z 00000KT 8SM CLR 31/16 A3002

2010/08/09 15:53
KMSS 091553Z AUTO VRB03KT 10SM SCT019 BKN026 25/21 A2994

2010/08/09 15:50
KMTN 091550Z 13008KT 10SM SCT200 30/25 A3003

2010/08/09 15:54
KNKT 091554Z 14008KT 10SM SCT014 SCT032 BKN043 27/24 A3006

2010/08/09 15:51
KORF 091551Z 09004KT 10SM FEW025 29/21 A3005

2010/08/09 15:54
KORH 091554Z 26010KT 10SM CLR 29/16 A3002

2010/08/09 15:54
KPHF 091554Z 07005KT 9SM CLR 31/22 A3005

2010/08/09 15:54
KPHL 091554Z 24007KT 7SM FEW038 SCT250 31/21 A3002

2010/08/09 15:51
KPIT 091551Z 15004KT 10SM FEW140 SCT250 29/15 A3004

2010/08/09 15:53
KPKB 091553Z 00000KT 9SM CLR 29/17 A3007

2010/08/09 15:53
KPOU 091553Z 27005KT 9SM CLR 31/17 A2999

2010/08/09 15:55
KPQI 091555Z AUTO 26007KT 10SM BKN019 OVC023 20/17 A2986

2010/08/09 15:55
KPSM 091555Z 26012G17KT 10SM FEW050 BKN200 31/19 A2992

2010/08/09 15:51
KPVD 091551Z VRB05KT 10SM FEW035 SCT110 SCT300 31/20 A2999

2010/08/09 16:00
UTFN 091600Z 32001MPS 9999 SCT050CB BKN100 28/16 Q1005 R28/CLRD70 NOSIG

2010/08/09 16:00
SCAR 091600Z 21006KT 9999 BKN023 16/08 Q1018

2010/08/09 16:00
SCDA 091600Z 31004KT 8000 BKN020 15/08 Q1019

2010/08/09 16:00
SCFA 091600Z 30004KT 9999 FEW020 BKN200 17/08 Q1018 NOSIG

2010/08/09 16:00
SCCF 091600Z 00000KT CAVOK 22/M12 Q1026

2010/08/09 16:00
SCAT 091600Z 34012KT 9999 OVC023 13/06 Q1020

2010/08/09 16:00
SCIP 091600Z 03005KT 9999 SCT013 SCT025 17/14 Q1024 TEMPO 6000 -SHRA BKN015

2010/08/09 16:00
SCSE 091600Z 30004KT 9999 BKN017 14/09 Q1019 NEFO PLAYA 2600FT

2010/08/09 16:00
SCEL 091600Z VRB02KT CAVOK 14/01 Q1016 NOSIG

2010/08/09 16:00
SCIE 091600Z 21010KT CAVOK 12/01 Q1019

2010/08/09 16:00
SCTC 091600Z 20006KT 150V250 CAVOK 11/04 Q1022

2010/08/09 16:00
SCJO 091600Z 18007KT 9999 BKN015 10/08 Q1025

2010/08/09 16:00
SCTE 091600Z 19005KT 9999 BKN014 11/08 Q1026 NOSIG

2010/08/09 16:00
SCBA 091600Z 31022KT 9999 FEW020 SCT030 BKN200 05/M01 Q1019

2010/08/09 16:00
SCCI 091600Z 27030KT 9999 SCT013 02/00 Q1002 NOSIG

2010/08/09 16:00
SCNT 091600Z 29021KT 9999 BKN015 07/00 Q1009 RMK -SHRA

2010/08/09 15:50
EGDY 091550Z 20015KT 9999 FEW010 SCT020 19/16 Q1014 NOSIG

2010/08/09 15:50
EGUB 091550Z 23014KT 9999 -RA FEW015 BKN035 BKN045 21/14 Q1013 BECMG BKN020

2010/08/09 15:50
EGXT 091550Z 24014KT 9999 BKN045 BKN100 23/10 Q1011 NOSIG

2010/08/09 16:00
EIDW 091600Z 26014KT 210V280 9999 FEW028 17/08 Q1010 NOSIG

2010/08/09 16:00
EINN 091600Z 26013KT 230V290 9999 SCT028 18/11 Q1011 NOSIG

2010/08/09 16:00
EICK 091600Z 31012KT 9999 SCT036 19/08 Q1011 NOSIG

2010/08/09 16:00
EIKN 091600Z 25015KT 9999 FEW018CB SCT020 15/10 Q1010 NOSIG

2010/08/09 16:06
KFDK 091606Z AUTO 20004KT 10SM CLR 34/16 A3002 RMK AO2

2010/08/09 16:06
KW29 091606Z AUTO 17006KT 10SM CLR 30/23 A3002 RMK AO1

2010/08/09 16:04
KDMW 091604Z AUTO 24003KT 7SM CLR 31/19 A3004 RMK AO2

2010/08/09 16:00
LCLK 091600Z 21013KT 9999 FEW050 29/26 Q1004 NOSIG

2010/08/09 16:00
LCPH 091600Z 29012KT 9999 FEW015 29/25 Q1005

2010/08/09 16:06
KFME 091606Z AUTO 21006KT 10SM CLR 30/20 A3004 RMK AO1

2010/08/09 15:51
KPWM 091551Z 25007KT 10SM SCT046 30/18 A2992

2010/08/09 15:54
KRDG 091554Z 00000KT 10SM CLR 31/19 A3001

2010/08/09 15:51
KRDU 091551Z 11005KT 9SM FEW040 32/21 A3006

2010/08/09 15:54
KRIC 091554Z 00000KT 10SM SCT055 SCT250 32/19 A3004

2010/08/09 15:54
KROA 091554Z 18003KT 8SM CLR 29/21 A3009

2010/08/09 15:54
KROC 091554Z 22010KT 8SM BKN150 BKN250 27/20 A2997

2010/08/09 15:53
KRWI 091553Z AUTO VRB03KT 10SM 32/21 A3005

2010/08/09 15:53
KSAV 091553Z 03012G17KT 10SM FEW030 SCT250 33/21 A3001

2010/08/09 15:54
KSBY 091554Z 25004KT 10SM CLR 31/18 A3004

2010/08/09 15:51
KSLK 091551Z AUTO 23008KT 10SM SCT021 BKN029 BKN033 24/19 A2999

2010/08/09 15:54
KSYR 091554Z 29007KT 10SM SCT200 29/19 A2997

2010/08/09 15:51
KTEB 091551Z 21010G14KT 10SM FEW048 32/19 A2999

2010/08/09 15:52
KTOL 091552Z 23006KT 8SM CLR 28/19 A2998

2010/08/09 15:53
KTTN 091553Z 28006KT 9SM CLR 32/18 A3002

2010/08/09 15:55
KWRI 091555Z AUTO 23007KT 10SM FEW170 31/20 A3000

2010/08/09 15:51
KYNG 091551Z 20006KT 10SM FEW150 BKN250 28/16 A3004

2010/08/09 15:53
KZZV 091553Z AUTO 21007KT 10SM CLR 29/18 A3004

2010/08/09 16:00
SAWH 091600Z 29020G28KT 2500 SN OVC012 M00/M02 Q0994

2010/08/09 16:00
OIHH 091600Z 07006KT 9999 FEW040 28/M08 Q1015 A2999

2010/08/09 15:55
EHSA 091555Z AUTO 23009G10KT 9999 18/16 Q1015 W19/S3

2010/08/09 15:55
EHJR 091555Z AUTO 19020G22KT //// 17/15 Q1014 W17/S3

2010/08/09 15:55
EHSC 091555Z AUTO 12008G09KT 9999 19/13 Q1015 W///S3

2010/08/09 16:00
UKLI 091600Z 00000MPS 9999 VCTS SCT023CB BKN033 23/18 Q1015 28090070 TEMPO VRB12MPS 3100 -TSRA

2010/08/09 16:00
UKON 091600Z 14001MPS CAVOK 35/16 Q1010 05090075 NOSIG

2010/08/09 16:00
UKCM 091600Z 07003MPS 040V110 CAVOK 34/11 Q1010 02010065 NOSIG

2010/08/09 16:00
UKCW 091600Z 08004MPS CAVOK 35/07 Q1012 0909//70 NOSIG

2010/08/09 16:00
UKLU 091600Z 18001MPS 9999 FEW033CB SCT033 26/16 Q1015 10090070 NOSIG

2010/08/09 16:00
UKKK 091600Z 23009G15MPS 7000 -TSRA SCT008 BKN030CB 29/13 Q1015 26CLRD70 TEMPO VRB12G17MPS 2000 TSRAGR BKN020CB

2010/08/09 16:00
UKKM 091600Z 04004MPS 020V090 9999 TS FEW034CB BKN100 30/20 Q1014

2010/08/09 16:00
UKLN 091600Z VRB02MPS CAVOK 24/17 Q1015 3309//70 TEMPO VRB12MPS -TSRA BKN030CB

2010/08/09 16:00
TDPD 091600Z 10011KT 9999 SCT019 SCT270 30/23 Q1015

2010/08/09 16:00
TDCF 091600Z 32003KT 9999 -SHRA BKN020 FEW///CB 30/24 Q1015

2010/08/09 16:00
FOOT 091600Z 22005KT 7000 SCT010 OVC023 24/22 Q////

2010/08/09 16:00
FOON 091600Z 32004KT 9999 OVC016 24/20 Q1015

2010/08/09 16:00
FOOG 091600Z /////KT 9999 SCT006 OVC023 25/21 Q1014

2010/08/09 16:00
LEBG 091600Z 05012KT 020V090 CAVOK 25/14 Q1020

2010/08/09 16:00
LEHC 091600Z 29012KT 260V320 9999 FEW035 SCT050 BKN080 32/10 Q1016

2010/08/09 16:00
UAFM 091600Z 20002MPS CAVOK 27/07 Q1009 NOSIG

2010/08/09 16:00
OMAA 091600Z 36009KT CAVOK 36/24 Q0996 A2941 NOSIG

2010/08/09 16:00
OMAD 091600Z 36009KT CAVOK 35/27 Q0996 A2942

2010/08/09 16:00
OMAL 091600Z VRB01KT CAVOK 42/12 Q0998 A2949

2010/08/09 16:00
OMDB 091600Z 02005G15KT 350V050 CAVOK 40/12 Q0996 NOSIG

2010/08/09 16:00
OMDW 091600Z 01008KT CAVOK 36/18 Q0997 NOSIG

2010/08/09 16:00
OMFJ 091600Z 08004KT 240V140 CAVOK 32/25 Q0998 A2947

2010/08/09 16:00
OMRK 091600Z 00000KT CAVOK 38/20 Q0996 A2941

2010/08/09 16:00
OMSJ 091600Z 06003KT 020V100 CAVOK 37/16 Q0997

2010/08/09 16:00
OOMS 091600Z 07005KT 8000 NSC 31/27 Q0997 NOSIG

2010/08/09 16:00
OOSA 091600Z AUTO 18005KT 26/22 Q1003

2010/08/09 16:00
FMMI 091600Z 11005KT 080V150 9999 FEW016 BKN020 14/14 Q1025 NOSIG

2010/08/09 16:00
FMNM 091600Z 30006KT CAVOK 24/19 Q1016

2010/08/09 16:00
FMMT 091600Z 00000KT 9999 FEW017 SCT033 22/20 Q1021

2010/08/09 16:00
FMSD 091600Z 06019KT 9999 FEW017 21/19 Q1018

2010/08/09 16:00
FMNM 091600Z 30006KT CAVOK 24/19 Q1016

2010/08/09 16:00
FMMT 091600Z 00000KT 9999 FEW017 SCT033 22/20 Q1021

2010/08/09 16:00
FMSD 091600Z 06019KT 9999 FEW017 21/19 Q1018

2010/08/09 16:00
UTAA 091600Z VRB02MPS 9999 FEW230 31/08 Q1008 NOSIG

2010/08/09 16:00
TTPP 091600Z ///10KT 8000 -SHRA FEW010CB BKN018 BKN300 30/24 Q1014 NOSIG CB-W'S NW

2010/08/09 16:00
TTCP 091600Z 14008KT 9999 SCT010CB BKN280 31/25 Q1015 NOSIG CB-NE TO SE JP-NE TO SE SW

2010/08/09 15:55
LIMU 091555Z 21009KT 9999 FEW013 25/21 Q1018 RMK BKN QUK 2 QUL 1 S VIS MAR 30 KM VIS MIN 9999

2010/08/09 15:55
LIMY 091555Z /////KT 9999 FEW020TCU SCT025 25/14 Q1016 RMK BKN VAL FOSCHIA VIS MIN 9999W

2010/08/09 15:55
LIVD 091555Z 00000KT 9999 FEW030 24/07 Q1018 RMK FEW VIS MIN 9999

2010/08/09 15:55
LIVE 091555Z 21004KT CAVOK 19/07 Q1018 RMK SKC VIS MIN 9999

2010/08/09 15:55
LIVO 091555Z 04001KT 9999 SCT030 23/16 Q1016 RMK SCT VIS MIN 9999

2010/08/09 15:55
LIVR 091555Z 14012KT 9999 BKN015 15/13 Q1023 RMK BKN MON CLD SCT VIS MIN 9999

2010/08/09 15:55
LIVT 091555Z 23002KT CAVOK 26/19 Q1014 RMK SKC QUK 1 QUL 0 VIS MAR 20 KM VIS MIN 9999

2010/08/09 15:50
LIMG 091550Z 04005KT 9999 BKN030 26/19 Q1015 RMK VIS MIN 9999

2010/08/09 15:55
LIMN 091555Z 26006KT 200V300 CAVOK 27/17 Q1014 RMK FEW FEW200 VIS MIN 9999 BLU

2010/08/09 15:50
LIMP 091550Z VRB03KT 9999 FEW030 29/17 Q1014 RMK VIS MIN 9999

2010/08/09 15:55
LIMS 091555Z 09003KT 9999 FEW040 29/18 Q1014 RMK SCT VIS MIN 9999 WIND THR30 08005KT BLU

2010/08/09 15:55
LIPA 091555Z 26004KT 9999 FEW040 28/19 Q1014 RMK FEW VIS MIN 9999 A2996 BLU

2010/08/09 15:50
LIPB 091550Z 15009KT 9999 FEW060 31/15 Q1013 RMK MON LIB VIS MIN 9999

2010/08/09 15:55
LIPC 091555Z 13008KT CAVOK 28/19 Q1014 RMK SKC VIS MIN 9999 WIND THR12 12008KT BLU

2010/08/09 15:55
LIPF 091555Z 00000KT 9999 FEW040 29/20 Q1014 RMK FEW VIS MIN 9999

2010/08/09 15:45
LIPH 091545Z 20005KT 9999 FEW020 28/20 Q1014 RMK FEW VIS MIN 9999 WIND THR07 /////KT BLU

2010/08/09 15:55
LIPL 091555Z 21003KT 9999 FEW040 31/20 Q1014 RMK FEW VIS MIN 9999 BLK BLU

2010/08/09 15:50
LIPO 091550Z 25004KT 200V280 9999 FEW040 29/17 Q1014 RMK VIS MIN 9999

2010/08/09 15:50
LIPQ 091550Z 21005KT CAVOK 27/18 Q1014

2010/08/09 15:45
LIPR 091545Z 09007KT CAVOK 27/21 Q1014 RMK SKC VIS MIN 9999 WIND THR31 10006KT BLU

2010/08/09 15:55
LIPS 091555Z 18006KT 9999 FEW030 29/17 Q1014 RMK FEW VIS MIN 9999 BLU

2010/08/09 15:45
LIPX 091545Z 15004KT 9999 FEW040 30/16 Q1014 RMK FEW VIS MIN 9999 BLU

2010/08/09 15:50
LIPY 091550Z 03007KT CAVOK 26/19 Q1014 RMK VIS MIN 9999

2010/08/09 15:55
LIVC 091555Z 00000KT 1200 BR BKN000 13/11 Q1025 RMK BKN MON INC VAL INVIS VIS MIN 1200

2010/08/09 16:03
YSDU 091603Z AUTO 11009KT 9999NDV // SCT034 BKN041 OVC051 10/09 Q1016

2010/08/09 15:50
LIBF 091550Z 32011KT CAVOK FEW030 32/09 Q1013 RMK VIS MIN 9999

2010/08/09 15:50
LIEA 091550Z 30003KT 240V340 CAVOK 25/17 Q1017 RMK VIS MIN 9999

2010/08/09 15:55
LIED 091555Z 32013KT CAVOK 32/03 Q1015 RMK BKN BKN080 SCT090 VIS MIN 9999 BLU

2010/08/09 15:50
LIEO 091550Z 07005KT CAVOK 27/19 Q1016 RMK VIS MIN 9999

2010/08/09 15:50
LIMA 091550Z 04003KT 9999 SCT035 29/14 Q1014 RMK VIS MIN 9999

2010/08/09 15:50
LIQN 091550Z 33007KT 9999 FEW040 30/15 Q1016 RMK VIS MIN 9999

2010/08/09 15:55
LIQW 091555Z 13002KT 9999 FEW030 27/20 Q1016 RMK FEW VIS MIN 9999 BLU

2010/08/09 15:55
LIRE 091555Z 28010KT CAVOK 27/24 Q1015 RMK SKC VIS MIN 9999 WIND THR31 27012KT BLU

2010/08/09 15:55
LIRG 091555Z 24010KT 9999 FEW035 32/16 Q1015 RMK FEW MON NE LIB NC VIS MIN 9999 BLU

2010/08/09 15:55
LIRH 091555Z 31005KT 9999 FEW045 33/15 Q1015 RMK FEW MON LIB NC VIS MIN 9999 WIND THR16 32010KT BLU

2010/08/09 15:50
LIRI 091550Z 22005KT CAVOK 29/18 Q1015 RMK VIS MIN 9999

2010/08/09 15:55
LIRL 091555Z 23007KT 9999 FEW040 30/16 Q1015 RMK FEW MON LIB NC VIS MIN 9999 BLU

2010/08/09 15:55
LIRM 091555Z 25011KT 9999 FEW030 31/27 Q1016 RMK FEW VIS MIN 9999 WIND THR06 25012KT BLU

2010/08/09 15:55
LIRS 091555Z 22008KT 9999 FEW025 30/09 Q1015 RMK BKN SCT200 VIS MIN 9999 WIND THR21 /////KT BLU

2010/08/09 15:50
LIRU 091550Z 25010KT CAVOK 33/17 Q1014 RMK VIS MIN 9999

2010/08/09 15:55
LIRX 091555Z 36003KT CAVOK 26/16 Q1016 RMK SCT SCT200 VIS MIN 9999N VIS MAR 18 KM

2010/08/09 15:50
LIRZ 091550Z 30009KT 260V330 9999 FEW035 31/13 Q1014 RMK VIS MIN 9999

2010/08/09 15:52
KABI 091552Z 21010KT 10SM SCT080 31/22 A3000

2010/08/09 15:56
KABQ 091556Z 28003KT 10SM FEW060 SCT140 23/13 A3017

2010/08/09 15:53
KABY 091553Z 03010G16KT 10SM FEW040 33/22 A3003

2010/08/09 15:51
KACT 091551Z 16012KT 10SM CLR 33/23 A2997

2010/08/09 15:53
KAEX 091553Z 32004KT 10SM CLR 33/24 A2997

2010/08/09 15:53
KAFW 091553Z 18012KT 10SM FEW050 34/22 A2995

2010/08/09 15:51
KAHN 091551Z VRB03KT 6SM HZ CLR 32/21 A3008

2010/08/09 15:53
KALI 091553Z AUTO 16008KT 10SM BKN028 32/24 A2995

2010/08/09 15:53
KAMA 091553Z 21006KT 10SM CLR 30/16 A3003

2010/08/09 15:53
KANB 091553Z AUTO VRB04KT 9SM CLR 32/23 A3004

2010/08/09 15:53
KAPF 091553Z 12006KT 10SM BKN070 31/25 A2994

2010/08/09 15:52
KATL 091552Z 00000KT 9SM FEW040 32/22 A3007

2010/08/09 15:53
KAUS 091553Z 21007KT 10SM FEW026 32/22 A2998

2010/08/09 15:53
KBFM 091553Z 04007KT 10SM SCT017 31/24 A2999

2010/08/09 15:53
KBHM 091553Z 11004KT 10SM FEW040 33/22 A3004

2010/08/09 15:53
KBNA 091553Z 00000KT 10SM SCT036 BKN200 33/24 A3002

2010/08/09 15:53
KBPT 091553Z 00000KT 10SM FEW028 32/25 A2998

2010/08/09 16:00
KBQK 091600Z AUTO 06007KT 7SM SCT023 BKN034 OVC075 29/26 A3000

2010/08/09 15:53
KBRO 091553Z 20008KT 10SM FEW027 SCT036 BKN060 32/25 A2993

2010/08/09 15:53
KBTR 091553Z 32004KT 10SM SCT030 33/25 A2998

2010/08/09 15:53
KCEW 091553Z AUTO 09007KT 050V120 10SM FEW025 32/26 A2999

2010/08/09 15:53
KCHA 091553Z VRB06KT 10SM FEW030 SCT100 32/23 A3005

2010/08/09 15:53
KCLL 091553Z 20007KT 10SM FEW031 32/23 A2999

2010/08/09 15:53
KCNM 091553Z AUTO 00000KT 10SM CLR 24/19 A3003

2010/08/09 15:51
KCRP 091551Z 14007KT 070V300 10SM SCT036 SCT043 33/24 A2995

2010/08/09 15:51
KCSG 091551Z COR 09007KT 9SM FEW045 33/21 A3002

2010/08/09 15:51
KCSG 091551Z 09007KT 9SM CLR 33/21 A3002

2010/08/09 15:53
KCSV 091553Z AUTO 22005KT 10SM FEW033 30/21 A3012

2010/08/09 15:53
KDAB 091553Z 08009KT 10SM SCT020 SCT028 BKN070 31/24 A2995

2010/08/09 15:53
KDAL 091553Z 22008KT 10SM CLR 32/23 A2995

2010/08/09 15:53
KDFW 091553Z 19008KT 10SM CLR 32/22 A2995

2010/08/09 15:53
KDHN 091553Z 08007KT 10SM FEW032 32/24 A3004

2010/08/09 15:55
KDLF 091555Z AUTO 12009KT 10SM OVC019 28/22 A2997

2010/08/09 15:53
KDMN 091553Z AUTO 00000KT 10SM CLR 26/13 A3010

2010/08/09 15:51
KELP 091551Z 22003KT 10SM FEW150 27/14 A3007

2010/08/09 15:53
KESF 091553Z AUTO 28006KT 10SM CLR 33/24 A2998

2010/08/09 15:53
KEYW 091553Z 22009KT 10SM -RA FEW047 BKN075 28/23 A2996

2010/08/09 15:53
KFLL 091553Z 14014KT 10SM SCT023 BKN033 BKN085 29/24 A2995

2010/08/09 15:53
KFSM 091553Z 21003KT 10SM CLR 34/22 A2996

2010/08/09 15:53
KFTW 091553Z VRB05KT 10SM CLR 32/22 A2994

2010/08/09 15:53
KFTY 091553Z 00000KT 7SM FEW037 32/22 A3006

2010/08/09 15:53
KGGG 091553Z VRB05KT 10SM CLR 32/23 A2999

2010/08/09 15:52
KGLS 091552Z 17006KT 10SM SCT028 32/24 A2999

2010/08/09 15:53
KGNV 091553Z 06009G14KT 10SM FEW027 SCT036 SCT046 32/24 A2996

2010/08/09 15:53
KGPT 091553Z AUTO 03009KT 10SM FEW080 34/25 A2997

2010/08/09 15:53
KGUP 091553Z AUTO 00000KT 10SM CLR 21/13 A3026

2010/08/09 15:53
KGWO 091553Z AUTO VRB03KT 10SM CLR 34/25 A2998

2010/08/09 15:53
KHOT 091553Z AUTO VRB03KT 10SM CLR 34/23 A2999

2010/08/09 15:53
KHOU 091553Z 22007KT 10SM SCT032 32/23 A2997

2010/08/09 15:52
KHRL 091552Z 16008KT 10SM BKN020 33/24 A2991

2010/08/09 15:53
KHRO 091553Z AUTO VRB04KT 10SM FEW100 32/22 A3003

2010/08/09 15:53
KHSV 091553Z 25004KT 10SM SCT037TCU BKN043 BKN110 32/22 A3002

2010/08/09 15:53
KIAH 091553Z 25003KT 10SM FEW028 SCT038 BKN065 32/24 A2998

2010/08/09 15:54
KJAN 091554Z 34005KT 10SM CLR 33/24 A2999

2010/08/09 15:56
KJAX 091556Z 06014KT 10SM SCT032 32/23 A2997

2010/08/09 15:53
KJBR 091553Z AUTO 28005KT 10SM CLR 33/24 A2997

2010/08/09 15:53
KLBB 091553Z 21010KT 10SM FEW150 SCT200 29/18 A3005

2010/08/09 15:53
KLCH 091553Z 28005KT 10SM CLR 33/24 A2998

2010/08/09 15:53
KLFT 091553Z 34008KT 10SM FEW026 33/24 A2998

2010/08/09 15:53
KLIT 091553Z VRB03KT 10SM BKN250 34/24 A2997

2010/08/09 15:56
KLRD 091556Z 17011KT 10SM -RA CLR 33/23 A2997

2010/08/09 15:50
KLRU 091550Z AUTO 00000KT 10SM CLR 24/14 A3012

2010/08/09 15:53
KMAF 091553Z 17013KT 10SM CLR 30/19 A3001

2010/08/09 15:53
KMCN 091553Z 08006KT 8SM CLR 33/22 A3004

2010/08/09 16:04
KSJC 091604Z 12011KT 10SM FEW007 SCT013 16/11 A2992

2010/08/09 15:53
KMCO 091553Z 12006KT 10SM SCT016 BKN045 BKN250 29/24 A2994

2010/08/09 15:58
KMEI 091558Z 09005KT 10SM CLR 32/24 A3000

2010/08/09 15:53
KMEM 091553Z VRB05KT 10SM FEW150 BKN250 33/25 A2998

2010/08/09 15:53
KMFE 091553Z 15008KT 10SM 32/24 A2993

2010/08/09 15:53
KMGM 091553Z 09009KT 10SM FEW035 33/23 A3000

2010/08/09 15:53
KMIA 091553Z 17006KT 10SM -RA FEW008 BKN018CB BKN040 OVC130 26/23 A2996

2010/08/09 15:53
KMKL 091553Z VRB04KT 10SM CLR 31/26 A3000

2010/08/09 15:53
KMLB 091553Z 09009KT 10SM SCT017 SCT046 29/24 A2995

2010/08/09 15:53
KMLC 091553Z AUTO 24012KT 10SM CLR 33/22 A2996

2010/08/09 15:53
KMLU 091553Z 32004KT 10SM CLR 34/25 A2998

2010/08/09 15:56
KMOB 091556Z 05007KT 10SM FEW035 SCT200 32/24 A3000

2010/08/09 15:53
KMSL 091553Z AUTO VRB03KT 10SM CLR 32/24 A3003

2010/08/09 15:53
KMSY 091553Z 33011KT 10SM SCT020 BKN250 32/26 A2997

2010/08/09 15:53
KNEW 091553Z 34010KT 10SM CLR 32/26 A2998

2010/08/09 15:56
KNGP 091556Z 13007KT 10SM SCT023 BKN028 BKN039 31/24 A2995

2010/08/09 15:52
KOKC 091552Z 17012KT 10SM FEW250 32/22 A2993

2010/08/09 15:53
KPBI 091553Z COR 14011KT 10SM SCT022 SCT055 BKN080 30/24 A2995

2010/08/09 15:53
KPBI 091553Z 15008KT 10SM SCT022 SCT055 BKN080 30/24 A2995

2010/08/09 15:53
KPDK 091553Z 13004KT 10SM CLR 32/20 A3008

2010/08/09 15:53
KPIE 091553Z 08006KT 10SM FEW019 29/24 A2994

2010/08/09 15:53
KPNS 091553Z 09005KT 10SM CLR 31/24 A2998

2010/08/09 15:51
KROW 091551Z 33004KT 10SM FEW120 24/18 A3005

2010/08/09 15:53
KRSW 091553Z 11008KT 10SM FEW047 OVC060 30/23 A2993

2010/08/09 15:53
KSAT 091553Z 21007KT 10SM FEW031 29/22 A3000

2010/08/09 15:53
KSFB 091553Z 10006KT 10SM FEW022 BKN046 OVC080 30/25 A2994

2010/08/09 15:56
KSHV 091556Z 26007KT 10SM FEW300 33/23 A2998

2010/08/09 15:51
KSJT 091551Z 15010KT 10SM CLR 32/22 A2999

2010/08/09 15:53
KSRQ 091553Z 10009KT 10SM SCT019 OVC023 28/24 A2993

2010/08/09 15:53
KSSI 091553Z AUTO 03011G18KT 10SM FEW021 BKN031 BKN037 31/25 A2999

2010/08/09 15:53
KTCC 091553Z AUTO 19007KT 10SM CLR 28/16 A3002

2010/08/09 15:53
KTCL 091553Z 09004KT 9SM CLR 33/23 A3000

2010/08/09 16:03
CYRA 091603Z 00000KT 5SM -RA FU OVC012 RMK SC8

2010/08/09 16:06
CYPR 091606Z AUTO 12003KT 9SM SCT004 OVC017 13/12 A3001 RMK SLP165 WND MISG

2010/08/09 15:53
KTCS 091553Z AUTO VRB03KT 10SM CLR 24/14 A3013

2010/08/09 15:53
KTLH 091553Z 05010G16KT 10SM FEW050 32/21 A2998

2010/08/09 15:53
KTPA 091553Z 07007KT 7SM SCT022 29/23 A2994

2010/08/09 15:53
KTRI 091553Z VRB04KT 10SM FEW065 SCT150 31/19 A3010

2010/08/09 15:53
KTUL 091553Z 19008KT 10SM CLR 34/22 A2993

2010/08/09 15:53
KTUP 091553Z 00000KT 10SM SCT024 32/25 A3000

2010/08/09 15:53
KTXK 091553Z 29004KT 10SM CLR 33/23 A2998

2010/08/09 15:53
KTYR 091553Z 21004KT 10SM CLR 32/22 A3000

2010/08/09 15:53
KTYS 091553Z 22008KT 9SM CLR 31/22 A3006

2010/08/09 15:51
KVCT 091551Z 17007KT 10SM FEW031 33/24 A2997

2010/08/09 15:53
KVLD 091553Z 04011KT 10SM SCT040 32/22 A2999

2010/08/09 15:53
KVRB 091553Z 12008KT 10SM SCT017 BKN043 OVC065 30/24 A2995

2010/08/09 15:53
TIST 091553Z 16010G17KT 10SM CLR 30/25 A2999

2010/08/09 15:53
TISX 091553Z 09011KT 6SM -RA BR SCT018 BKN060 26/23 A2999

2010/08/09 15:50
TJBQ 091550Z 06013G17KT 10SM FEW020 31/25 A2998

2010/08/09 15:50
TJMZ 091550Z 31005KT 10SM BKN030 31/28 A2998 VCSH NE

2010/08/09 15:56
TJSJ 091556Z 09015G22KT 10SM FEW024 SCT046 SCT085 31/24 A2998

2010/08/09 16:00
TKPK 091600Z 07009KT 9999 FEW019 BKN046 29/25 Q1015

2010/08/09 15:53
KABR 091553Z AUTO 19008KT 10SM CLR 29/19 A2991

2010/08/09 15:50
KALN 091550Z 00000KT 07SM FEW060 SCT200 31/25 A2996

2010/08/09 15:54
KALO 091554Z AUTO 19006KT 10SM FEW070 26/23 A2991

2010/08/09 15:53
KASE 091553Z 35006KT 10SM BKN062 17/08 A3029

2010/08/09 15:53
KATY 091553Z AUTO 14004KT 10SM CLR 28/18 A2994

2010/08/09 15:53
KAXN 091553Z AUTO 00000KT 10SM CLR 28/17 A2996

2010/08/09 15:53
KAZO 091553Z 18007KT 3SM RA BR BKN023 BKN049 OVC065 23/22 A3000

2010/08/09 15:53
KBDE 091553Z AUTO 00000KT 10SM CLR 26/21 A2988

2010/08/09 15:53
KBFF 091553Z AUTO 17005KT 10SM CLR 28/14 A3001

2010/08/09 15:52
KBIS 091552Z 20008KT 10SM CLR 29/19 A2988

2010/08/09 15:55
KBKF 091555Z 25007KT 70SM FEW080 SCT140 23/13 A3015

2010/08/09 15:53
KBRL 091553Z AUTO 20009KT 10SM CLR 25/23 A2993

2010/08/09 15:53
KBTL 091553Z 25004KT 9SM -TSRA BKN060 23/21 A2999

2010/08/09 15:53
KCGI 091553Z VRB03KT 10SM CLR 32/26 A2996

2010/08/09 15:52
KCID 091552Z 16003KT 10SM FEW100 26/21 A2992

2010/08/09 15:55
KCIU 091555Z AUTO 20011G14KT 10SM BKN023 BKN065 BKN070 24/18 A2991

2010/08/09 15:53
KCMI 091553Z 22004KT 9SM CLR 30/23 A2998

2010/08/09 15:53
KCMX 091553Z AUTO 28009KT 10SM 25/21 A2989

2010/08/09 15:54
KCOS 091554Z AUTO 27003KT 10SM CLR 22/14 A3020

2010/08/09 15:54
KCOU 091554Z 00000KT 10SM CLR 31/24 A2998

2010/08/09 15:53
KCPR 091553Z 21015KT 10SM CLR 26/04 A3007

2010/08/09 15:53
KCYS 091553Z 22008KT 10SM FEW031 OVC090 20/12 A3019

2010/08/09 15:52
KDDC 091552Z AUTO 31003KT 10SM CLR 31/18 A2994

2010/08/09 15:54
KDEC 091554Z 20004KT 10SM CLR 31/23 A2997

2010/08/09 15:53
KDEN 091553Z 28006KT 10SM SCT100 BKN140 23/13 A3013

2010/08/09 15:53
KDET 091553Z 24007KT 8SM CLR 27/20 A2995

2010/08/09 15:55
KDLH 091555Z 32003KT 10SM FEW005 26/21 A2993

2010/08/09 15:54
KDSM 091554Z 16011G18KT 10SM FEW019 SCT130 SCT200 BKN250 28/23 A2989

2010/08/09 15:53
KDTW 091553Z 25009KT 7SM FEW080 BKN130 BKN220 27/21 A2996

2010/08/09 15:56
KEAU 091556Z 34006KT 8SM OVC011 27/23 A2990

2010/08/09 15:53
KEGE 091553Z 25006KT 10SM OVC090 17/08 A3026

2010/08/09 16:00
CYWH 091600Z 22003KT 15SM FEW005 BKN018 BKN060 14/11 A2995 RMK SF1SC6SC1 SLP142

2010/08/09 16:00
CWRF 091600Z AUTO ///// 17/ A2975

2010/08/09 16:00
CWVD 091600Z AUTO ///// 07/ A2985 RMK SLP139

2010/08/09 16:00
CYBW 091600Z 01003KT 30SM FEW040 FEW120 SCT220 16/10 A2986 RMK CU1AC2CI1 SLP113

2010/08/09 16:00
CYCY 091600Z 07003KT 25SM SCT013 SCT070 09/05 A2995 RMK SF2AC0 SLP143

2010/08/09 16:00
CYED 091600Z AUTO 00000KT 9SM BKN081 19/11 A2981 RMK SLP096

2010/08/09 16:00
CYEK 091600Z 05006KT 15SM OVC063 11/10 A3002 RMK ST7 SLP166

2010/08/09 16:00
CYIO 091600Z 32002KT 30SM FEW025 FEW076 OVC250 09/05 A2992 RMK SC2AC1CS3 SLP137

2010/08/09 16:00
CYLJ 091600Z 25004KT 15SM FEW250 21/15 A2979 RMK CI1 SLP092

2010/08/09 16:00
CYLT 091600Z 31008KT 5SM -SN OVC008 M01/M02 A3000 RMK SF8 SLP164

2010/08/09 16:00
CYMJ 091600Z 00000KT 10SM FEW120 21/16 A2988 RMK AC1 SLP120

2010/08/09 16:00
CYOD 091600Z 20003KT 15SM FEW090 BKN250 19/14 A2980 RMK AC2CI0 SLP095

2010/08/09 16:00
CYPE 091600Z 24008KT 15SM FEW080 FEW250 17/07 A2976 RMK AC1CI2 SLP082

2010/08/09 16:00
CYQV 091600Z AUTO 28008KT 9SM CLR 22/17 A2981 RMK SLP098

2010/08/09 16:00
CYSF 091600Z AUTO 07006KT 3SM HZ OVC034 16/14 A2976 RMK SLP086 DENSITY ALT 1200FT

2010/08/09 16:00
CYSM 091600Z 00000KT 15SM FEW010 SCT110 OVC220 17/15 A2972 RMK SF1AC2CS4 SLP069

2010/08/09 16:00
CYSR 091600Z 15010KT 15SM FEW020 SCT050 BKN090 BKN120 09/07 A2986 RMK ST1SC2AS3AC1 SLP147

2010/08/09 16:00
CYTH 091600Z 11008G15KT 15SM SCT060 BKN230 20/10 A2990 RMK SC3CI2 SLP130

2010/08/09 16:00
CYUB 091600Z 21006KT 15SM BKN005 BKN210 08/06 A2980 RMK SC7CI0 SLP092

2010/08/09 16:00
CYUS 091600Z AUTO ///// 9SM CLR 16/ A2992 RMK SLP137

2010/08/09 16:00
CYUX 091600Z 02010KT 15SM FEW270 09/05 A2991 RMK CI1 SLP129

2010/08/09 16:00
CYVT 091600Z 00000KT 15SM SCT005 BKN012 BKN080 BKN220 19/17 A2974 RMK SF3SC2AC1CI1 SLP077

2010/08/09 16:00
CYXH 091600Z 21004KT 30SM FEW080 FEW270 21/13 A2985 RMK AC1CI0 SLP105

2010/08/09 16:00
CYZU 091600Z 00000KT 15SM FEW110 SCT250 16/12 A2982 RMK AC1CI1 SLP103

2010/08/09 16:00
CWHN 091600Z AUTO 23002KT 9SM CLR 21/13 A2979 RMK SLP092

2010/08/09 16:00
CYBK 091600Z 10002KT 20SM FEW030 15/10 A3000 RMK SC1 SLP159

2010/08/09 16:00
CYBR 091600Z 19006KT 15SM BKN150 BKN250 25/19 A2983 RMK AC6CI2 SLP099

2010/08/09 16:00
CYBU 091600Z AUTO 27005KT 220V310 9SM FEW017 21/17 A2978 RMK SLP086 DENSITY ALT 2300FT

2010/08/09 16:00
CYDN 091600Z AUTO VRB02KT 9SM CLR 28/16 A2978 RMK SLP085 DENSITY ALT 2800FT

2010/08/09 16:00
CYEN 091600Z 01012KT 15SM FEW140 SCT260 26/16 A2984 RMK AC1CI0 SLP102

2010/08/09 16:00
CYET 091600Z AUTO 36002KT 9SM BKN080 14/11 A2982 RMK SLP101

2010/08/09 16:00
CYGX 091600Z 36005KT 15SM SCT080 SCT200 18/09 A2995 RMK AS2CI0 SLP146

2010/08/09 16:00
CYKJ 091600Z AUTO 11006KT 6SM -RA OVC005 16/15 A2975 RMK SLP086 DENSITY ALT 2300FT

2010/08/09 16:00
CYLL 091600Z 20004KT 15SM FEW300 20/14 A2983 RMK CI2 SLP104

2010/08/09 16:00
CYNE 091600Z AUTO 09005KT 060V150 9SM FEW036 FEW047 FEW069 FEW079 23/16 A2983 RMK SLP107

2010/08/09 16:00
CYOJ 091600Z 12002KT 15SM FEW022 FEW200 17/11 A2970 RMK CF1CI0 SLP066

2010/08/09 16:00
CYPA 091600Z 22003KT 15SM FEW020 22/17 A2979 RMK CU1 TR CU SLP090

2010/08/09 16:00
CYPG 091600Z 15007KT 12SM FEW160 28/15 A2982 RMK AC1 SLP099

2010/08/09 16:00
CYPY 091600Z AUTO 32004KT 290V030 9SM CLR 19/14 A2972 RMK SLP069

2010/08/09 16:00
CYQF 091600Z 00000KT 15SM FEW100 FEW260 16/12 A2984 RMK AC1CI1 SLP111

2010/08/09 16:00
CYQL 091600Z 27010KT 40SM FEW050 SCT250 21/12 A2985 RMK CU1CI1 SLP104

2010/08/09 16:00
CYQR 091600Z 33005KT 15SM FEW110 21/17 A2986 RMK AC1 SLP115

2010/08/09 16:00
CYQW 091600Z AUTO 24003KT 9SM CLR 20/14 A2985 RMK SLP111 DENSITY ALT 2800FT

2010/08/09 16:00
CYVC 091600Z 22003KT 15SM FEW008 FEW020 SCT100 20/17 A2975 RMK SF2SC1AC2 SLP077

2010/08/09 16:00
CYXD 091600Z AUTO 00000KT 9SM SCT079 19/11 A2980 RMK SLP089

2010/08/09 16:00
CYYL 091600Z AUTO 14010KT 9SM OVC040 16/09 A2986 RMK SLP120 DENSITY ALT 1600FT MAX WND 15017KT AT 1502Z

2010/08/09 16:00
CYYN 091600Z AUTO 26002KT 9SM CLR 20/14 A2989 RMK SLP114

2010/08/09 16:00
CYZH 091600Z AUTO 28006KT 270V330 9SM CLR 18/09 A2980 RMK SLP097

2010/08/09 16:00
CYAW 091600Z 18011G16KT 15SM FEW100 BKN250 21/17 A3006 RMK AC1CI2 DA+975FT SLP180

2010/08/09 16:00
CYBG 091600Z 28009KT 20SM FEW040 SCT250 25/15 A2985 RMK CU2CI1 MDT CU SLP108

2010/08/09 16:00
CYEG 091600Z 00000KT 15SM FEW090 FEW160 BKN260 13/12 A2982 RMK AC1AC1CI1 TR AC SLP100

2010/08/09 16:00
CYFB 091600Z 27005KT 30SM -RA SCT023 BKN044 OVC060 12/09 A2979 RMK SC3SC3SC2 SLP090

2010/08/09 16:00
CYFC 091600Z AUTO 18009KT 5SM -RA BR OVC014 20/19 A2991 RMK SLP128 DENSITY ALT 600FT PCPN 0.5MM PAST HR RVR MISG

2010/08/09 16:00
CYGL 091600Z 28011KT 8SM -DZ OVC004 09/09 A2979 RMK ST8 CIG HIER SE CIG VRB 3-5 SLP095

2010/08/09 16:00
CYHZ 091600Z 18016G22KT 15SM FEW200 BKN300 24/14 A3005 RMK CC1CI2 SLP176

2010/08/09 16:00
CYJT 091600Z 23012G20KT 15SM SCT050 BKN100 OVC220 21/17 A2998 RMK SC3AC3CI1 SLP153

2010/08/09 16:00
CYMX 091600Z 21006KT 12SM BKN015 23/18 A2993 RMK CF6 SLP136

2010/08/09 16:00
CYOW 091600Z 24002KT 15SM FEW020 SCT050 SCT240 24/20 A2994 RMK CU2SC2CI0 SLP139

2010/08/09 16:00
CYQB 091600Z 24008KT 10SM BKN018 BKN033 21/19 A2990 RMK SC6SC1 CU ASOCTD SLP125

2010/08/09 16:00
CYQG 091600Z 23009KT 6SM HZ FEW050 BKN260 27/20 A2996 RMK SC2CS6 CC ASOCTD SLP143

2010/08/09 16:00
CYQM 091600Z 19010G15KT 15SM -SHRA SCT015 BKN030 BKN070 OVC100 20/18 A2996 RMK SC4SC2AC1AC2 PCPN VRY LGT SLP145

2010/08/09 16:00
CYQQ 091600Z 31006KT 20SM -SHRA SCT040 BKN080 14/10 A2997 RMK SC3AC4 SLP148

2010/08/09 16:00
CYQX 091600Z 20012G18KT 20SM FEW025 FEW095 SCT180 BKN260 22/15 A3001 RMK SC1AC1AS2CS3 SLP163

2010/08/09 16:00
CYQY 091600Z 20017G25KT 15SM FEW036 SCT180 OVC240 24/12 A3006 RMK CF1AC2CI4 SLP180

2010/08/09 16:00
CYTR 091600Z 20011KT 6SM HZ BKN085 25/17 A2993 RMK AC7 SLP135

2010/08/09 16:00
CYUL 091600Z 27004KT 10SM FEW008 BKN014 OVC030 22/20 A2993 RMK SF2SF3SC2 SLP136

2010/08/09 16:00
CYVR 091600Z 13004KT 15SM BKN016 OVC035 15/11 A2994 RMK SC6SC2 SLP140

2010/08/09 16:00
CYWG 091600Z 16008KT 15SM FEW260 28/20 A2982 RMK CI1 SLP097

2010/08/09 16:00
CYXX 091600Z 27003KT 10SM FEW015 BKN035 BKN150 15/10 A2995 RMK SF2SC4AC1 SLP142

2010/08/09 16:00
CYYC 091600Z 06002KT 40SM FEW038 FEW110 FEW220 18/09 A2986 RMK CU1AC1CI0 ACSL SW SLP112

2010/08/09 16:00
CYYJ 091600Z 13004KT 15SM FEW018 SCT070 BKN220 16/13 A2995 RMK SC1AC3CS4 SLP141

2010/08/09 16:00
CYYQ 091600Z 07011KT 15SM FEW025 FEW210 14/11 A2998 RMK SC1CI1 SLP154

2010/08/09 16:00
CYYR 091600Z 26015G20KT 15SM SCT028 BKN068 BKN110 21/12 A2961 RMK SC3AC3AC1 CU ASOCTD SLP027

2010/08/09 16:00
CYYT 091600Z 24016G22KT 15SM SCT038 BKN160 BKN230 22/14 A3013 RMK SC3AC2CI1 SLP205

2010/08/09 16:00
CYYZ 091600Z 23009KT 10SM BKN078 BKN140 27/22 A2993 RMK AC6AC1 SLP134

2010/08/09 16:00
CYZF 091600Z 15006KT 15SM FEW015 SCT030 BKN210 19/15 A2968 RMK CF1SC2CI0 SLP056

2010/08/09 16:00
CYZV 091600Z 21014KT 30SM FEW060 FEW120 19/16 A2975 RMK CU1AC1 SLP074

2010/08/09 16:00
CYZX 091600Z 20009KT 15SM FEW040 OVC100 25/15 A2999 RMK CU1AC8 WNDY HILL 19009G17KT SLP155

2010/08/09 16:00
CYAY 091600Z AUTO 23020G27KT 9SM FEW032 BKN051 22/15 A2979 RMK SLP089 DENSITY ALT 1000FT MAX WND 24030KT AT 1534Z

2010/08/09 16:00
CYCX 091600Z 17008KT 3SM -SHRA BR FEW008 BKN020 OVC040 19/19 A2992 RMK SF1ST6SC2 DA+993FT SLP130

2010/08/09 16:00
CYDF 091600Z 24015G25KT 15SM SCT035 SCT065 BKN110 24/15 A2993 RMK SC3SC1AC2 SLP136

2010/08/09 16:00
CYDP 091600Z 08010KT 15SM BKN028 BKN085 15/10 A2955 RMK SC5AC2 SLP007

2010/08/09 16:00
CYGW 091600Z 26010KT 3SM BR OVC006 11/10 A2976 RMK SC8 SLP078

2010/08/09 16:00
CYHH 091600Z 27010KT 10SM -SHRA BKN008 OVC012 13/12 A2983 RMK SC6SC2 SLP111

2010/08/09 16:00
CYLU 091600Z 36007KT 10SM BKN020 BKN080 13/11 A2957 RMK SC5AS2 SLP015

2010/08/09 16:00
CYSJ 091600Z 21012KT 12SM -SHRA SCT015 OVC073 18/15 A2997 RMK SC3AC5 SLP151

2010/08/09 16:00
CYTQ 091600Z 02010KT 15SM BKN012 BKN050 08/07 A2968 RMK SC7SC1 SLP054

2010/08/09 16:00
CYYG 091600Z 19010KT 15SM -SHRA OVC082 20/16 A3000 RMK AC8 PCPN VRY LGT SLP159

2010/08/09 16:00
CWEU 091600Z 27012KT 40SM FEW020 FEW025 FEW075 02/M00 A3002 RMK SF1SC1AC1 SLP169

2010/08/09 16:00
CWFD 091600Z AUTO 36019G25KT 0SM 06/ RMK ALTM MISG

2010/08/09 16:00
CWKP 091600Z AUTO 09007KT 07/ A2977 RMK SLP106

2010/08/09 16:00
CWRH 091600Z AUTO ///// 04/ A2974 RMK SLP097

2010/08/09 16:00
CWSA 091600Z AUTO 14010KT 9SM -RA FEW092 20/18 A3012 RMK SLP199

2010/08/09 16:00
CWTU 091600Z AUTO 16027KT 10/ A2957 RMK SLP029

2010/08/09 16:00
CWXR 091600Z AUTO 00000KT 07/ A2982 RMK SLP107

2010/08/09 16:00
CWYM 091600Z AUTO 05023G31KT 06/ RMK ALTM MISG SLP110

2010/08/09 16:00
CYPD 091600Z AUTO 18009KT 160V240 9SM FEW086 23/13 A3006 RMK SLP181 DENSITY ALT 1200FT MAX WND 21018KT AT 1505Z

2010/08/09 16:00
CZFM 091600Z 17003KT 10SM SCT015 BKN020 11/09 A2979 RMK SC2SC4 SLP091

2010/08/09 16:00
CZFN 091600Z 26005KT 30SM FEW013 SCT040 BKN100 18/12 A2975 RMK SC1SC2AC3 SLP079

2010/08/09 16:00
CZPC 091600Z AUTO 25013KT 9SM CLR 19/10 A2988 RMK SLP106

2010/08/09 16:00
CZUM 091600Z AUTO 28012KT 9SM BKN029 BKN075 15/10 A2962 RMK SLP040

2010/08/09 16:00
CYAZ 091600Z 24003KT 2SM BR SCT002 OVC005 13/12 A2997 RMK SF2ST6 VIS VRB 1-3 SLP148

2010/08/09 16:00
CYBL 091600Z 29003KT 30SM -SHRA FEW015 SCT080 BKN140 OVC250 14/10 A2997 RMK SF1AC3AC2CI1 SLP148

2010/08/09 16:00
CYBV 091600Z 19005KT 15SM FEW040 FEW280 SCT300 25/20 A2983 RMK SC2CC1CI1 SLP103

2010/08/09 16:00
CYCP 091600Z 00000KT 1 1/2SM -RA BR SCT008 BKN015 OVC055 12/12 A2990 RMK FG2ST2ST3SC2 VIS N-E 4 SLP131

2010/08/09 16:00
CYCQ 091600Z 22005KT 35SM FEW040 FEW200 16/07 A2977 RMK CU1CI0 SLP089

2010/08/09 16:00
CYDB 091600Z 13004KT 25SM FEW055 FEW080 BKN110 BKN240 09/04 A2975 RMK SC1AC2AC2CS2 ACSL SLP092

2010/08/09 16:00
CYDC 091600Z 00000KT 15SM OVC055 13/08 A2991 RMK SC7 SLP122

2010/08/09 16:00
CYDQ 091600Z AUTO 26011G19KT 9SM CLR 17/05 A2976 RMK SLP085 DENSITY ALT 3000FT MAX WND 26019KT AT 1551Z

2010/08/09 16:00
CYEV 091600Z 18004KT 15SM FEW008 SCT015 SCT220 09/09 A2980 RMK SF2SC1CI0 SLP095

2010/08/09 16:00
CYFO 091600Z 11006KT 15SM OVC009 18/17 A2977 RMK SC8 SLP084

2010/08/09 16:00
CYHE 091600Z AUTO 30007KT 260V320 9SM OVC024 OVC052 OVC059 OVC079 17/14 A2991 RMK SLP130

2010/08/09 16:00
CYIV 091600Z 09002KT 15SM FEW050 FEW100 BKN250 21/12 A2989 RMK SC1AC0CI0 SLP128

2010/08/09 16:00
CYKY 091600Z 00000KT 12SM FEW250 18/16 A2987 RMK CI0 SLP118

2010/08/09 16:00
CYPR 091600Z AUTO 00000KT BKN004 OVC017 12/11 A3001 RMK SLP165

2010/08/09 16:00
CYQD 091600Z 16007KT 15SM -RA FEW007 BKN040 OVC090 19/18 A2978 RMK SF1SC6AS2 SLP088

2010/08/09 16:00
CYQZ 091600Z AUTO 14003KT 9SM FEW009 BKN061 OVC073 12/10 A2993 RMK SLP145 DENSITY ALT 1800FT

2010/08/09 16:00
CYRV 091600Z AUTO 00000KT 6SM -RA BKN014 BKN063 BKN079 16/15 A2986 RMK SLP112

2010/08/09 16:00
CYUA 091600Z AUTO 10006KT 9SM SCT007 BKN056 08/ A2977 RMK SLP086

2010/08/09 16:00
CYXC 091600Z 13002KT 25SM FEW015 FEW050 SCT080 BKN120 BKN260 16/12 A2992 RMK SF1CU1AC3AC1CI2 TR SF SLP126

2010/08/09 16:00
CYXE 091600Z 24007KT 15SM SKC 20/17 A2983 RMK HZ SLP106

2010/08/09 16:00
CYXQ 091600Z 00000KT 30SM -RA FEW045 BKN075 OVC140 08/06 A2972 RMK SC2AC4AS2 PCPN VRY LGT CLIMAT 20.0/7.0/1.0 MM SLP078

2010/08/09 16:00
CYXS 091600Z AUTO 20007KT 170V230 9SM OVC071 13/09 A2989 RMK SLP136 DENSITY ALT 2500FT

2010/08/09 16:00
CYZP 091600Z AUTO 25007KT 9SM -RA BKN030 OVC035 14/12 A3002 RMK SLP167

2010/08/09 16:00
CYZT 091600Z 25006KT 20SM FEW025 FEW084 BKN140 15/10 A3002 RMK SC1AC1AC3 SLP164

2010/08/09 16:00
CYBB 091600Z 26003KT 15SM FEW100 BKN220 17/06 A2995 RMK AC1CI2 SLP144

2010/08/09 16:00
CYCB 091600Z 04010KT 15SM FEW005 15/12 A2981 RMK SF1 TR SF FU SLP096

2010/08/09 16:00
CYCO 091600Z 05003KT 2SM -DZ BR OVC005 09/09 A2980 RMK FG2ST6 BLN EST SLP093

2010/08/09 16:00
CYFS 091600Z 34009KT 15SM OVC008 17/16 A2964 RMK SF8 CIG RAG SLP040

2010/08/09 16:00
CYGH 091600Z 00000KT 25SM BKN070 BKN075 13/11 A2978 RMK AS6AC1 SLP089

2010/08/09 16:00
CYGT 091600Z 33010KT 15SM FEW020 16/05 A2991 RMK SC1 SC DISTANT SE SLP133

2010/08/09 16:00
CYHK 091600Z 20008KT 15SM FEW100 SCT110 13/09 A2991 RMK AC1AS2 SLP133

2010/08/09 16:00
CYHY 091600Z 18007KT 15SM FEW070 SCT230 18/12 A2967 RMK AC1CI0 SLP050

2010/08/09 16:00
CYJF 091600Z 05004KT 8SM -RA FEW008 BKN030 BKN080 OVC120 15/14 A2969 RMK SF1SC4AC2AS1 SLP056

2010/08/09 16:00
CYKD 091600Z 16005KT 10SM -DZ OVC010 10/08 A2979 RMK SC8 SLP089

2010/08/09 16:00
CYLC 091600Z 05002KT 15SM -SHRA SCT015 OVC020 14/08 A2976 RMK CU3SC4 WIND DIRECTION ESTIMATED SLP082

2010/08/09 16:00
CYOA 091600Z 08009KT 3SM FU FEW080 17/12 A2978 RMK AC2 SLP098

2010/08/09 16:00
CYRT 091600Z 00000KT 15SM BKN070 15/11 A3003 RMK AC6 SLP172

2010/08/09 16:00
CYTE 091600Z 01006KT 15SM FEW040 BKN120 16/09 A2982 RMK SC2AC4 SLP101

2010/08/09 16:00
CYUT 091600Z 32007KT 45SM SKC 19/05 A2994 RMK SLP140

2010/08/09 16:00
CYVM 091600Z 04009KT 1 1/2SM -DZ BR OVC003 05/05 A2992 RMK FG6ST2 SLP131

2010/08/09 16:00
CYWJ 091600Z 29005KT 40SM FEW010 SCT015 BKN080 BKN120 14/11 A2971 RMK ST1SC2AC2AC1 SLP066

2010/08/09 16:00
CYZS 091600Z 00000KT 15SM FEW030 FEW090 FEW210 20/05 A2991 RMK SC1AC2CI1 SLP133

2010/08/09 16:00
CYBC 091600Z AUTO 23019KT 9SM CLR 20/16 A2977 RMK SLP084

2010/08/09 16:00
CYBN 091600Z AUTO 23005KT 9SM FEW068 28/20 A2991 RMK SLP128

2010/08/09 16:00
CYEL 091600Z 09002KT 10SM FEW015 SCT150 BKN220 25/18 A2993 RMK CU1AC2CC2 WNDS ESTD/ SLP135

2010/08/09 16:00
CYFR 091600Z 24004KT 15SM FEW020 FEW090 FEW140 BKN270 18/15 A2969 RMK CF1AC1AC1CI2 210V270 SLP059

2010/08/09 16:00
CYGK 091600Z 17009KT 10SM SCT070 BKN180 24/21 A2995 RMK CU3AC2 SLP141

2010/08/09 16:00
CYHM 091600Z 22008KT 15SM SCT080 BKN160 OVC220 26/22 A2996 RMK AC3AS4CI1 SLP144

2010/08/09 16:00
CYKF 091600Z AUTO 19005KT 7SM CLR 25/21 A2996 RMK SLP140 DENSITY ALT 2400FT

2010/08/09 16:00
CYKL 091600Z AUTO 29008KT 9SM SCT029 OVC040 OVC061 OVC076 13/08 A2957 RMK SLP026

2010/08/09 16:00
CYKZ 091600Z 22005KT 10SM SCT068 BKN100 OVC230 28/21 A2993 RMK AC3AC2CI2 HZ SLP133

2010/08/09 16:00
CYLD 091600Z 21007KT 15SM FEW230 25/13 A2992 RMK CI1 SLP133

2010/08/09 16:00
CYOO 091600Z AUTO 19005KT 120V210 8SM SCT041 25/20 A2993 RMK SLP135 DENSITY ALT 1700FT

2010/08/09 16:00
CYPL 091600Z 36002KT 15SM FEW240 24/15 A2988 RMK CI0 SLP120

2010/08/09 16:00
CYQA 091600Z AUTO VRB03KT 7SM OVC014 24/21 A2993 RMK SLP135 DENSITY ALT 2100FT

2010/08/09 16:00
CYQK 091600Z 00000KT 15SM FEW015 SCT240 24/19 A2990 RMK CF1CI1 SLP124

2010/08/09 16:00
CYRB 091600Z 06013G18KT 6SM -RA VCFG FEW008 BKN028 OVC080 07/07 A2984 RMK SF2SC4AS2 SLP111

2010/08/09 16:00
CYSB 091600Z 15006KT 15SM BKN150 23/17 A2994 RMK AC4 SLP139

2010/08/09 16:00
CYSC 091600Z AUTO 26005KT 9SM FEW017 BKN025 OVC033 21/18 A2994 RMK DENSITY ALT 1600FT

2010/08/09 16:00
CYSN 091600Z 22004KT 8SM BKN075 OVC110 27/21 A2994 RMK AC6AC2 SLP137

2010/08/09 16:00
CYSP 091600Z 23008KT 15SM FEW050 FEW120 FEW250 24/15 A2989 RMK SC1AC1CI0 SLP123

2010/08/09 16:00
CYVO 091600Z 34003KT 15SM FEW040 FEW250 SCT290 24/14 A2992 RMK CF1CC1CI1 SLP134

2010/08/09 16:00
CYVQ 091600Z 00000KT 30SM FEW040 BKN090 BKN250 16/13 A2976 RMK SC2AC3CI2 SLP080

2010/08/09 16:00
CYXL 091600Z 29003KT 15SM FEW230 24/18 A2989 RMK CI1 SLP122

2010/08/09 16:00
CYXU 091600Z 23007KT 12SM FEW070 BKN100 BKN200 27/21 A2996 RMK AC2AC3CI1 SLP142

2010/08/09 16:00
CYXZ 091600Z 27003KT 240V310 15SM BKN025 BKN040 OVC090 23/15 A2990 RMK SC5SC2AC1 TR AC SLP127

2010/08/09 16:00
CYYB 091600Z 16005KT 7SM FEW020 FEW100 BKN200 23/19 A2994 RMK CU1AC2CI3 TR CU SLP140

2010/08/09 16:00
CYYH 091600Z 17009KT 15SM FEW090 FEW250 16/08 A2991 RMK AC1CI1 SLP130

2010/08/09 16:00
CYYU 091600Z 28003KT 15SM BKN100 BKN120 22/15 A2989 RMK AC5AS2 SLP125

2010/08/09 16:00
CYAD 091600Z 30008KT 5SM -DZ BKN007 OVC012 10/10 A2976 RMK SF6ST2 SLP088

2010/08/09 16:00
CYAH 091600Z 28006KT 10SM BKN010 OVC033 11/10 A2972 RMK SF6SC2 SLP075

2010/08/09 16:00
CYAS 091600Z 02023G32KT 2SM BR OVC003 07/06 A2972 RMK FG5ST3 VIS S 4 CIG ESTD DUE STG WND SLP071

2010/08/09 16:00
CYBX 091600Z 21015KT 1 3/4SM BR OVC002 16/15 A2978 RMK FG3SF5 SLP087

2010/08/09 16:00
CYGV 091600Z AUTO 24014KT 9SM CLR 19/14 A2976 RMK SLP078

2010/08/09 16:00
CYHA 091600Z 36005KT 15SM MIFG FEW002 SCT007 OVC015 06/05 A2977 RMK SF2SF2SC3 U2A U/S SLP085

2010/08/09 16:00
CYIK 091600Z 36004KT 15SM FEW017 FEW060 FEW130 FEW200 FEW250 13/06 A2985 RMK CU1SC1AS1CI1CS1 SLP112

2010/08/09 16:00
CYKG 091600Z 36013G20KT 15SM BKN015 09/07 A2978 RMK SC6 SLP093

2010/08/09 16:00
CYKQ 091600Z 26004KT 15SM FEW025 20/14 A2983 RMK CU2 SLP103

2010/08/09 16:00
CYLA 091600Z 01015G21KT 15SM OVC005 07/05 A2970 RMK ST8 BLN EST SLP058

2010/08/09 16:00
CYMH 091600Z 21017G29KT 15SM -RA BKN015 BKN077 OVC220 19/15 A2973 RMK CU5AC2CI2 SLP068

2010/08/09 16:00
CYMT 091600Z 25009G15KT 15SM BKN030 20/13 A2987 RMK CU5 SLP120

2010/08/09 16:00
CYMU 091600Z 19005KT 6SM BR FEW004 BKN006 10/10 A2971 RMK SF2SC6 SLP064

2010/08/09 16:00
CYNM 091600Z AUTO 28006KT 250V320 9SM CLR 24/11 A2986 RMK PCPN 0.5MM PAST HR SLP115

2010/08/09 16:00
CYOY 091600Z AUTO 22006KT 150V250 9SM SCT013 SCT033 SCT038 SCT070 21/17 A2989 RMK SLP122

2010/08/09 16:00
CYPH 091600Z 04011KT 15SM BKN024 BKN230 15/09 A2975 RMK SC6CI1 SLP076

2010/08/09 16:00
CYQI 091600Z 18015G23KT 15SM FEW025 BKN150 OVC250 22/17 A3003 RMK CU1AC5CI0 TR CU SLP170

2010/08/09 16:00
CYSK 091600Z 01010KT 15SM FEW005 12/09 A2976 RMK SF1 SLP079

2010/08/09 16:00
CYSL 091600Z 30004KT 15SM OVC035 20/16 A2989 RMK SC8 SLP123

2010/08/09 16:00
CYUY 091600Z 20002KT 15SM FEW160 BKN220 25/12 A2991 RMK AS1CI2 SLP131

2010/08/09 16:00
CYWK 091600Z 24010G15KT 12SM -SHRA BKN020 OVC032 13/10 A2969 RMK CU6SC2 SLP064

2010/08/09 16:00
CYZG 091600Z 00000KT 15SM FEW011 OVC060 09/07 A2985 RMK CF2SC6 SLP121

2010/08/09 16:00
CWAE 091600Z 18005KT 15SM FEW016 OVC040 14/12 A2993 RMK SC2SC6 WND ESTD SLP132

2010/08/09 16:00
CWCA 091600Z 21003KT 12SM -RA OVC070 14/13 A2966 RMK AC8 SLP044

2010/08/09 16:00
CWCL 091600Z AUTO 35003KT 4SM RA OVC013 09/08 A2995 RMK SLP145

2010/08/09 16:00
CWDL 091600Z 00000KT 15SM FEW015 FEW050 SCT070 09/06 A2995 RMK SF1CU1AC1 SLP148

2010/08/09 16:00
CWIL 091600Z AUTO 19013KT 16/ A2985 RMK SLP114

2010/08/09 16:00
CWKM 091600Z AUTO 10014KT 08/ A2976 RMK SLP085

2010/08/09 16:00
CWKW 091600Z AUTO 01006G16KT 09/ A2963 RMK SLP052

2010/08/09 16:00
CWLI 091600Z AUTO 24008KT 08/ A2981 RMK SLP105

2010/08/09 16:00
CWLX 091600Z AUTO 06008KT 16/ A2985 RMK SLP117

2010/08/09 16:00
CWLY 091600Z AUTO 18010KT 9SM FEW077 FEW088 FEW097 18/12 A2985 RMK SLP108

2010/08/09 16:00
CWOB 091600Z AUTO ///// 0SM CLR 04/ A2969 RMK SLP090

2010/08/09 16:00
CWPX 091600Z AUTO ///// 13/ A2981 RMK SLP109

2010/08/09 16:00
CWRX 091600Z AUTO 02002KT 15/ A2987

2010/08/09 16:00
CWSW 091600Z 04004KT 20SM FEW046 BKN250 14/10 A2994 RMK CU1CI2 SLP136

2010/08/09 16:00
CWUP 091600Z AUTO 02006KT 03/ A2989 RMK SLP146

2010/08/09 16:00
CWUW 091600Z AUTO ///// 9SM CLR 12/ A2986 RMK SLP138

2010/08/09 16:00
CWVH 091600Z AUTO 18005KT 07/ A2978 RMK SLP100

2010/08/09 16:00
CWYK 091600Z AUTO ///// 10/ A2954 RMK SLP022

2010/08/09 16:00
CWZZ 091600Z AUTO ///// 1/8SM CLR 07/ A2960 RMK SLP042

2010/08/09 16:00
CZBF 091600Z 15007KT 150V210 10SM FEW010 SCT030 BKN100 23/22 A2986 RMK SF1SC2AC3 SLP111

2010/08/09 16:00
CZCP 091600Z AUTO 08014KT 1 1/8SM CLR 06/ A2983 RMK SLP108

2010/08/09 16:00
CZST 091600Z 00000KT 15SM FEW012 SCT057 BKN065 OVC100 13/11 A3001 RMK SC2SC2SC2AC2 SLP162

2010/08/09 16:00
CBBC 091600Z AUTO 00000KT 9SM BKN008 BKN017 OVC050 OVC065 A3001

2010/08/09 16:00
CYBD 091600Z 27003KT 15SM FEW020 FEW060TCU BKN075TCU BKN120 15/12 A2999 RMK SC1TCU2TCU2AC2 SLP155

2010/08/09 16:00
CYCD 091600Z 00000KT 30SM FEW012 BKN045 OVC240 16/12 A2995 RMK SF1SC6CI2 SLP142

2010/08/09 16:00
CYDA 091600Z 01006KT 20SM FEW060 BKN100 BKN240 11/09 A2971 RMK SC1AS4CI1 SLP072

2010/08/09 16:00
CYGE 091600Z 00000KT 30SM SCT030 BKN080 BKN130 17/13 A2988 RMK SC3AC2AC2 SLP119

2010/08/09 16:00
CYKA 091600Z 29002KT 40SM BKN082 BKN220 19/12 A2986 RMK AC6CI2 SLP107

2010/08/09 16:00
CYLW 091600Z AUTO 18007KT OVC076 19/09 A2985 RMK SLP106 DENSITY ALT 2200FT WX MISG VIS MISG ICG MISG

2010/08/09 16:00
CYMA 091600Z 10003KT 20SM BCFG FEW045 SCT090 BKN230 12/09 A2977 RMK SC1AS2CI2 SLP092

2010/08/09 16:00
CYOC 091600Z 02008KT 30SM FEW005 FEW032 FEW210 11/07 A2971 RMK SF1SC1CI0 SLP072

2010/08/09 16:00
CYPW 091600Z 28007KT 25SM -SHRA FEW012 FEW040 FEW060 OVC080 14/11 A2996 RMK SF1SC1SC2AC6 SLP147

2010/08/09 16:00
CYQH 091600Z 30005KT 20SM SCT035 BKN050 14/09 A2982 RMK SC3SC1 FU NW-NE SLP108

2010/08/09 16:00
CYQU 091600Z 25010G15KT 25SM FEW035 FEW090 BKN250 16/06 A2980 RMK CU1AC2CI2 SLP095

2010/08/09 16:00
CYWL 091600Z 18002KT 12SM -RA FEW006 OVC050 09/09 A2995 RMK SF1SC7 SLP145

2010/08/09 16:00
CYXJ 091600Z 25014KT 15SM FEW100 FEW220 15/06 A2975 RMK AC1CI1 SLP083

2010/08/09 16:00
CYXT 091600Z 22002KT 20SM FEW012 FEW036 BKN061 BKN085 13/10 A3002 RMK CF2CU1SC4AC2 SLP168

2010/08/09 16:00
CYXY 091600Z 15012KT 40SM FEW030 FEW170 BKN250 11/06 A2983 RMK CU1AC2CI2 SLP117

2010/08/09 16:00
CYYD 091600Z 27004KT 25SM FEW030 BKN060 13/08 A2994 RMK CU2SC3 SLP143

2010/08/09 16:00
CYYF 091600Z 00000KT 15SM FEW080 BKN110 BKN240 21/10 A2985 RMK CU2AC2CI1 SLP104

2010/08/09 16:00
CYZW 091600Z 12003KT 30SM FEW170 BKN250 12/06 A2989 RMK AC1CI1 SLP133

2010/08/09 16:00
CYZY 091600Z AUTO 15009KT 9SM FEW061 14/07 A2984 RMK SLP114 DENSITY ALT 2700FT

2010/08/09 16:00
CZFA 091600Z 00000KT 30SM FEW080 BKN240 10/06 A2982 RMK AC1CI1 SLP113

2010/08/09 16:00
CZMT 091600Z 29004KT 10SM OVC008 14/13 A3002 RMK SC8 SLP166

2010/08/09 16:00
CYAM 091600Z 12009KT 15SM FEW020 SCT060 BKN078 BKN180 25/20 A2990 RMK CF2SC2AC2AC1 TR AC HIER LYR SLP125

2010/08/09 16:00
CYFT 091600Z 22007KT 15SM BKN030 OVC070 17/11 A2958 RMK SC6AS2 SLP018

2010/08/09 16:00
CYGP 091600Z 23014KT 15SM SCT035 SCT150 24/16 A2980 RMK CU3AS1 SLP092

2010/08/09 16:00
CYGR 091600Z 21013G22KT 20SM FEW020 BKN120 OVC230 20/16 A2996 RMK CU1AC6CI1 SLP144

2010/08/09 16:00
CYHD 091600Z AUTO 28002KT 9SM CLR 22/18 A2989 RMK PCPN 0.5MM PAST HR SLP124

2010/08/09 16:00
CYHU 091600Z AUTO 24009KT 210V270 9SM BKN012 OVC019 23/22 A2992 RMK SLP133 DENSITY ALT 1000FT RVR MISG

2010/08/09 16:00
CYKO 091600Z 35008KT 15SM FEW022 FEW220 13/08 A2984 RMK CU1CI2 SLP105

2010/08/09 16:00
CYMO 091600Z AUTO 24003KT 9SM CLR 23/12 A2983 RMK SLP101

2010/08/09 16:00
CYNA 091600Z AUTO 23010KT 9SM CLR 20/15 A2979 RMK SLP088

2010/08/09 16:00
CYND 091600Z 14004KT 15SM FEW025 FEW050 25/19 A2993 RMK CU2SC1 SLP135

2010/08/09 16:00
CYPQ 091600Z AUTO ///// 7SM FEW040 FEW046 SCT069 SCT083 26/23 A2992 RMK SLP131

2010/08/09 16:00
CYQT 091600Z 33003KT 20SM FEW020 25/18 A2986 RMK SC1 SLP114

2010/08/09 16:00
CYRJ 091600Z 13004KT 20SM BKN030 BKN140 23/16 A2985 RMK CU6AC1 SLP109

2010/08/09 16:00
CYRL 091600Z 17002KT 15SM FEW012 23/20 A2988 RMK CU2 SLP119

2010/08/09 16:00
CYTS 091600Z 27004KT 15SM FEW040 SCT160 26/14 A2989 RMK SC2AC2 SLP122

2010/08/09 16:00
CYTZ 091600Z AUTO 21011KT 9SM FEW086 23/20 A2992 RMK SLP134 DENSITY ALT 1200FT RVR MISG

2010/08/09 16:00
CYVP 091600Z 33012G20KT 15SM BKN026 BKN062 BKN100 13/08 A2960 RMK SC6SC1AC1 SLP026

2010/08/09 16:00
CYVV 091600Z 24003KT 4SM -SHRA BR FEW010 OVC017 25/22 A2992 RMK SF2SC6 SLP131

2010/08/09 16:00
CYWA 091600Z AUTO 06004KT 9SM CLR 22/19 A2993 RMK SLP138

2010/08/09 16:00
CYXR 091600Z AUTO 20005KT 060V220 9SM CLR 26/15 A2990 RMK SLP117

2010/08/09 16:00
CYYY 091600Z 26013KT 15SM FEW028 SCT280 25/17 A2980 RMK CU1CI1 SLP092

2010/08/09 16:00
CYZE 091600Z AUTO VRB04KT 9SM BKN018 24/20 A2991 RMK DENSITY ALT 1800FT

2010/08/09 16:00
CYZR 091600Z AUTO 23004KT 200V310 8SM FEW056 27/20 A2993 RMK SLP134 DENSITY ALT 2000FT

2010/08/09 15:53
KELO 091553Z AUTO 00000KT 10SM CLR 24/19 A2991

2010/08/09 15:54
KEVV 091554Z 00000KT 10SM CLR 34/21 A2999

2010/08/09 15:53
KFAR 091553Z 20004KT 10SM CLR 28/18 A2989

2010/08/09 15:53
KFNT 091553Z 20004KT 8SM -RA CLR 25/21 A2995

2010/08/09 15:56
KFSD 091556Z 07004KT 10SM CLR 27/22 A2991

2010/08/09 15:54
KFWA 091554Z 28004KT 9SM FEW150 BKN250 28/21 A3001

2010/08/09 15:54
KGCK 091554Z VRB05KT 10SM CLR 32/16 A2995

2010/08/09 15:53
KGFK 091553Z 21004KT 10SM CLR 29/20 A2984

2010/08/09 15:53
KGJT 091553Z 12008KT 10SM SCT100 24/09 A3014

2010/08/09 15:53
KGRB 091553Z 24005KT 10SM CLR 28/22 A2987

2010/08/09 15:53
KGRI 091553Z VRB05KT 10SM CLR 27/20 A2991

2010/08/09 15:53
KGRR 091553Z 25004KT 10SM FEW032 BKN100 OVC160 24/22 A2996

2010/08/09 15:53
KHIB 091553Z AUTO 00000KT 10SM BKN003 23/22 A2992

2010/08/09 15:55
KHON 091555Z AUTO 09003KT 10SM CLR 27/21 A2991

2010/08/09 15:53
KHUF 091553Z 24004KT 8SM CLR 31/21 A2998

2010/08/09 15:52
KHUT 091552Z 22008KT 10SM CLR 35/20 A2992

2010/08/09 15:53
KICT 091553Z VRB06KT 10SM SCT150 SCT200 SCT250 35/21 A2992

2010/08/09 15:54
KIND 091554Z 23009KT 10SM SCT160 BKN250 32/21 A2999

2010/08/09 15:55
KINL 091555Z AUTO 08003KT 10SM CLR 25/19 A2989

2010/08/09 15:55
KIRK 091555Z AUTO 13005KT 10SM CLR 23/21 A2994

2010/08/09 15:53
KJLN 091553Z 21006KT 10SM CLR 32/23 A2997

2010/08/09 15:56
KJMS 091556Z AUTO 21005KT 10SM CLR 29/21 A2989

2010/08/09 15:56
KJXN 091556Z VRB04KT 1/4SM HZ CLR 24/20 A2998

2010/08/09 15:53
KLAN 091553Z 22007KT 10SM -RA FEW011 SCT055 OVC120 23/21 A2996

2010/08/09 15:53
KLAR 091553Z AUTO 12004KT 10SM SCT110 18/08 A3024

2010/08/09 15:53
KLBF 091553Z AUTO 00000KT 10SM CLR 24/22 A2998

2010/08/09 15:55
KLBL 091555Z 21005KT 10SM CLR 31/17 A2997

2010/08/09 15:54
KLEX 091554Z VRB05KT 10SM CLR 32/18 A3004

2010/08/09 15:54
KLNK 091554Z 35005KT 10SM CLR 31/23 A2987

2010/08/09 15:53
KLOU 091553Z 17003KT 10SM CLR 31/21 A3002

2010/08/09 15:53
KLOZ 091553Z AUTO VRB06KT 10SM CLR 30/22 A3007

2010/08/09 15:53
KLSE 091553Z 18004KT 10SM OVC019 27/22 A2991

2010/08/09 15:53
KMBS 091553Z 23008KT 7SM CLR 25/22 A2992

2010/08/09 15:53
KMCI 091553Z 16006KT 10SM SCT034 SCT250 33/24 A2992

2010/08/09 15:51
KMDW 091551Z 13004KT 8SM FEW034 SCT050 BKN150 BKN200 26/21 A2995

2010/08/09 15:52
KMHK 091552Z 21008KT 10SM CLR 34/21 A2987

2010/08/09 15:54
KMKC 091554Z 12007KT 10SM CLR 32/23 A2990

2010/08/09 15:52
KMKE 091552Z 21010KT 10SM SCT012 BKN160 BKN240 26/23 A2992

2010/08/09 15:55
KMKG 091555Z 18012KT 10SM FEW008 SCT055 BKN110 24/23 A2991

2010/08/09 15:52
KMLI 091552Z 00000KT 10SM CLR 25/22 A2992

2010/08/09 15:54
KMOT 091554Z 18009KT 10SM CLR 26/18 A2984

2010/08/09 15:53
KMSN 091553Z VRB04KT 10SM FEW016 SCT100 25/21 A2992

2010/08/09 15:53
KMSP 091553Z VRB04KT 10SM FEW150 31/21 A2991

2010/08/09 15:55
KOFF 091555Z AUTO 26006KT 10SM CLR 29/24 A2986

2010/08/09 15:52
KOMA 091552Z 17006KT 10SM SCT140 SCT250 30/24 A2985

2010/08/09 15:51
KORD 091551Z 17005KT 9SM SCT150 BKN200 BKN250 26/22 A2995

2010/08/09 15:53
KOSH 091553Z 00000KT 10SM OVC014 24/21 A2991

2010/08/09 15:53
KOTM 091553Z AUTO 15008KT 10SM CLR 27/23 A2991

2010/08/09 15:56
KOWB 091556Z VRB03KT 10SM CLR 33/23 A3000

2010/08/09 15:53
KPAH 091553Z 23004KT 10SM BKN043 32/23 A2997

2010/08/09 15:54
KPIA 091554Z 05003KT 5SM HZ CLR 27/23 A2992

2010/08/09 15:53
KPIR 091553Z AUTO 11004KT 10SM CLR 26/21 A2991

2010/08/09 15:54
KPLN 091554Z AUTO 13006KT 10SM -RA SCT021 BKN065 22/21 A2990

2010/08/09 15:53
KPTK 091553Z 28009KT 9SM SCT130 OVC160 26/20 A2996

2010/08/09 15:53
KPUB 091553Z 00000KT 10SM CLR 24/14 A3009

2010/08/09 15:52
KRAP 091552Z 17008KT 10SM CLR 28/17 A2996

2010/08/09 15:54
KRFD 091554Z 22005KT 10SM FEW010 SCT050 BKN150 BKN250 26/21 A2996

2010/08/09 15:54
KRKS 091554Z AUTO 00000KT 10SM FEW110 21/04 A3018

2010/08/09 15:54
KRST 091554Z 25004KT 10SM OVC016 26/22 A2995

2010/08/09 15:50
KSAW 091550Z 27004KT 10SM SCT021 BKN026 BKN033 27/20 A2987

2010/08/09 15:56
KSDF 091556Z 17003KT 7SM FEW100 SCT150 SCT200 32/21 A3001

2010/08/09 15:53
KSDM 091553Z 00000KT 10SM BKN011 16/12 A2993

2010/08/09 15:52
KSGF 091552Z 27003KT 10SM CLR 32/23 A2999

2010/08/09 15:53
KSLN 091553Z 21009KT 10SM CLR 34/21 A2988

2010/08/09 15:52
KSPI 091552Z 00000KT 10SM CLR 30/24 A2995

2010/08/09 15:53
KSTC 091553Z 01003KT 9SM BKN009 27/24 A2993

2010/08/09 15:53
KSTJ 091553Z 17010KT 10SM CLR 31/23 A2989

2010/08/09 15:51
KSTL 091551Z 00000KT 9SM FEW060 SCT120 BKN200 BKN250 32/24 A2996

2010/08/09 15:53
KSTP 091553Z 35003KT 10SM CLR 29/22 A2991

2010/08/09 15:54
KSUS 091554Z 00000KT 10SM BKN150 32/25 A2994

2010/08/09 15:52
KSUX 091552Z 05004KT 10SM OVC009 26/22 A2988

2010/08/09 15:53
KTVC 091553Z 20005KT 5SM HZ BKN014 27/23 A2986

2010/08/09 15:54
KUIN 091554Z AUTO 17004KT 10SM CLR 26/22 A2996

2010/08/09 15:53
KWRL 091553Z AUTO 00000KT 10SM CLR 23/08 A2998

2010/08/09 15:53
KYIP 091553Z AUTO VRB06KT 9SM CLR 28/21 A2997

2010/08/09 16:04
KJXN 091604Z 30005KT 10SM CLR 24/21 A2998

2010/08/09 16:04
KSJC 091604Z 12011KT 10SM FEW007 SCT013 16/11 A2992

2010/08/09 15:53
KACV 091553Z AUTO 31003KT 7SM FEW002 OVC009 12/11 A2994

2010/08/09 15:53
KALW 091553Z 21007KT 10SM CLR 23/07 A2987

2010/08/09 15:53
KBFI 091553Z 22003KT 10SM OVC014 16/12 A2997

2010/08/09 15:54
KBFL 091554Z 00000KT 10SM CLR 22/12 A2989

2010/08/09 15:53
KBIL 091553Z 20005KT 10SM FEW110 22/12 A2996

2010/08/09 15:53
KBKE 091553Z AUTO 00000KT 10SM FEW100 20/08 A2993

2010/08/09 15:53
KBLI 091553Z 17007KT 10SM FEW007 SCT046 15/12 A2994

2010/08/09 15:53
KBOI 091553Z 29005KT 10SM CLR 24/11 A2988

2010/08/09 15:53
KBTM 091553Z AUTO 21003KT 10SM FEW070 OVC090 12/08 A3004

2010/08/09 15:53
KBUR 091553Z 13003KT 6SM HZ CLR 17/12 A2992

2010/08/09 15:53
KBYI 091553Z AUTO 19011KT 10SM FEW100 21/10 A2996

2010/08/09 15:56
KBZN 091556Z 00000KT 10SM OVC100 17/11 A3000

2010/08/09 15:53
KCDC 091553Z AUTO 00000KT 10SM CLR 18/14 A3015

2010/08/09 15:56
KCEC 091556Z AUTO 31003KT 5SM BR OVC006 13/12 A2996

2010/08/09 15:53
KCLM 091553Z AUTO 31007KT 10SM FEW006 14/12 A2997

2010/08/09 15:56
KCTB 091556Z AUTO 21007KT 10SM CLR 22/07 A2992

2010/08/09 15:56
KEKO 091556Z AUTO 21011G17KT 10SM SCT100 23/03 A3003

2010/08/09 15:54
KEUG 091554Z 01008KT 7SM OVC009 14/11 A3001

2010/08/09 15:53
KFAT 091553Z 24003KT 10SM CLR 21/13 A2988

2010/08/09 15:56
KFLG 091556Z 20005KT 10SM FEW090 18/08 A3029

2010/08/09 15:54
KGCN 091554Z 20006KT 10SM CLR 19/08 A3025

2010/08/09 15:53
KGEG 091553Z 18003KT 10SM FEW080 SCT200 19/09 A2988

2010/08/09 15:53
KGGW 091553Z AUTO 00000KT 10SM CLR 25/13 A2988

2010/08/09 15:53
KGTF 091553Z 21004KT 10SM CLR 22/08 A2992

2010/08/09 15:53
KHLN 091553Z 10003KT 10SM BKN100 17/08 A2997

2010/08/09 15:53
KHQM 091553Z AUTO 24006KT 7SM OVC006 13/12 A2999

2010/08/09 15:53
KIDA 091553Z 00000KT 10SM SCT090 BKN150 20/12 A3004

2010/08/09 15:56
KLAS 091556Z 00000KT 10SM CLR 27/09 A2992

2010/08/09 15:53
KLAX 091553Z 28004KT 7SM OVC014 17/13 A2993

2010/08/09 15:53
KLGB 091553Z 00000KT 6SM HZ OVC014 17/13 A2993

2010/08/09 15:53
KLMT 091553Z 00000KT 10SM FEW050 SCT100 17/09 A2999

2010/08/09 15:53
KLVM 091553Z AUTO 32006KT 10SM CLR 18/11 A2999

2010/08/09 15:53
KMFR 091553Z 34003KT 10SM CLR 18/11 A2994

2010/08/09 15:53
KMLS 091553Z AUTO 29006KT 10SM CLR 26/10 A2989

2010/08/09 15:54
KMRY 091554Z 19003KT 10SM OVC007 13/11 A2996

2010/08/09 15:53
KMSO 091553Z 18003KT 10SM FEW110 17/09 A2993

2010/08/09 15:53
KMYV 091553Z AUTO 18004KT 10SM CLR 17/12 A2988

2010/08/09 15:53
KOAK 091553Z 26003KT 10SM OVC012 16/12 A2993

2010/08/09 15:53
KOGD 091553Z AUTO 13008KT 10SM CLR 23/09 A3004

2010/08/09 15:54
KOLM 091554Z 22005KT 10SM SCT009 BKN014 OVC030 14/12 A2998

2010/08/09 15:53
KONT 091553Z 00000KT 4SM HZ CLR 18/12 A2992

2010/08/09 15:55
KOTH 091555Z 35010KT 10SM OVC023 13/11 A3004

2010/08/09 15:53
KPAE 091553Z 00000KT 10SM OVC005 14/13 A2997

2010/08/09 15:53
KPDX 091553Z 32005KT 10SM OVC025 15/10 A3000

2010/08/09 15:51
KPHX 091551Z 00000KT 10SM FEW150 33/02 A2987

2010/08/09 15:53
KPIH 091553Z 20009KT 10SM SCT095 21/09 A3002

2010/08/09 15:53
KPMD 091553Z 03003KT 10SM CLR 23/01 A2996

2010/08/09 15:53
KPRB 091553Z AUTO 00000KT 10SM OVC005 14/12 A2995

2010/08/09 15:53
KPRC 091553Z 00000KT 10SM CLR 23/09 A3014

2010/08/09 15:53
KPSP 091553Z 00000KT 10SM CLR 28/08 A2981

2010/08/09 15:54
KRBL 091554Z AUTO VRB03KT 10SM CLR 22/13 A2988

2010/08/09 15:53
KRDD 091553Z 00000KT 10SM CLR 22/13 A2987

2010/08/09 15:56
KRDM 091556Z VRB04KT 10SM CLR 18/08 A2995

2010/08/09 15:55
KRNO 091555Z 00000KT 10SM CLR 19/06 A3003

2010/08/09 15:53
KRNT 091553Z 16007KT 6SM BR OVC012 14/13 A2997

2010/08/09 15:53
KSAC 091553Z 22007KT 10SM CLR 17/12 A2989

2010/08/09 15:51
KSAN 091551Z 35003KT 10SM OVC015 18/13 A2994

2010/08/09 15:53
KSBA 091553Z COR 14006KT 3SM R07/2600VP6000FT BR BKN005 14/13 A2993

2010/08/09 15:53
KSBA 091553Z 14006KT 1SM R07/2600VP6000FT BR BKN002 14/13 A2993

2010/08/09 15:53
KSBD 091553Z 00000KT 7SM SKC 17/11 A2993

2010/08/09 15:56
KSBP 091556Z 00000KT 8SM OVC009 14/12 A2995

2010/08/09 15:55
KSCK 091555Z 34006KT 10SM CLR 18/12 A2989

2010/08/09 15:53
KSEA 091553Z 20007KT 10SM BKN005 OVC010 14/12 A2998

2010/08/09 15:53
KSFF 091553Z 00000KT 10SM CLR 21/11 A2988

2010/08/09 15:56
KSFO 091556Z 18006KT 10SM FEW010 OVC015 16/11 A2992

2010/08/09 16:00
TGPY 091600Z 13007KT 9999 SCT012CB BKN250 30/26 Q1014 CB-SE S SW WSW JP-SE S SW

2010/08/09 15:53
KSHR 091553Z AUTO 00000KT 10SM CLR 28/08 A2995

2010/08/09 15:53
KSJC 091553Z 12009KT 10SM FEW007 SCT010 BKN013 16/11 A2992

2010/08/09 15:53
KSLC 091553Z 18019G26KT 10SM FEW075 SCT140 SCT200 24/08 A3002

2010/08/09 15:53
KSMF 091553Z 18006KT 10SM CLR 16/12 A2988

2010/08/09 15:51
KSMX 091551Z 00000KT 8SM OVC006 12/11 A2996

2010/08/09 15:53
KSNA 091553Z 30003KT 5SM HZ OVC013 18/13 A2992

2010/08/09 15:53
KSNS 091553Z 00000KT 10SM OVC011 14/11 A2995

2010/08/09 15:53
KTIW 091553Z 21004KT 10SM SCT007 OVC012 13/12 A2998

2010/08/09 15:53
KTUS 091553Z VRB03KT 10SM CLR 29/17 A3000

2010/08/09 15:53
KTVL 091553Z AUTO 00000KT 10SM CLR 14/08 A3012

2010/08/09 15:53
KTWF 091553Z VRB03KT 10SM CLR 23/11 A2994

2010/08/09 15:56
KUKI 091556Z AUTO VRB03KT 10SM FEW004 14/12 A2990

2010/08/09 15:53
KYKM 091553Z 36006KT 10SM CLR 21/09 A2985

2010/08/09 15:53
PABR 091553Z 07021G26KT 10SM OVC005 02/01 A2989

2010/08/09 15:53
PABT 091553Z 00000KT 10SM -RA BKN045 OVC055 13/09 A2958

2010/08/09 15:53
PACV 091553Z 12006G14KT 8SM SCT010 BKN042 OVC050 12/11 A2982

2010/08/09 15:58
PADU 091558Z 23010KT 5SM -RA BR BKN017 OVC027 10/08 A2950

2010/08/09 15:53
PAEN 091553Z 05003KT 10SM BKN060 OVC075 13/12 A2961

2010/08/09 15:58
PAGA 091558Z AUTO 12008KT 10SM OVC060 12/11 A2945

2010/08/09 15:53
PAGK 091553Z 17011G19KT 10SM FEW055 SCT080 SCT110 BKN140 BKN180 10/07 A2971

2010/08/09 15:53
PAGY 091553Z AUTO 21009KT 10SM OVC050 13/10 A2993

2010/08/09 15:53
PAIL 091553Z 12008KT 10SM BKN028 BKN070 12/09 A2955

2010/08/09 15:54
PAKN 091554Z 21011KT 10SM OVC023 11/09 A2951

2010/08/09 15:53
PAKT 091553Z 13007KT 5SM BR SCT004 OVC011 13/12 A3001

2010/08/09 15:53
PASC 091553Z 06021G28KT 3/4SM R05/4000V5500FT BR OVC003 03/03 A2976

2010/08/09 15:53
PASI 091553Z 00000KT 10SM FEW004 BKN034 OVC040 13/12 A2996

2010/08/09 15:52
PATA 091552Z 00000KT 10SM -RA BKN046 OVC060 14/11 A2954

2010/08/09 15:56
PAUN 091556Z AUTO 11007KT 8SM SCT048 BKN060 OVC075 12/09 A2936

2010/08/09 15:56
PAVD 091556Z 09003KT 1 1/2SM SCT001 BKN020 OVC030 10/08 A2982

2010/08/09 15:54
PHMK 091554Z 08005KT 10SM CLR 22/14 A3008

2010/08/09 15:56
PMDY 091556Z AUTO 07008KT 10SM FEW024 26/22 A3021

2010/08/09 16:00
FMEE 091600Z 13015KT 9999 FEW026 20/17 Q1023 NOSIG

2010/08/09 16:00
FBFT 091600Z 15003KT CAVOK 25/11 Q1020

2010/08/09 16:00
FBKE 091600Z 16006KT CAVOK 26/03 Q1019

2010/08/09 16:00
FBMN 091600Z 18008KT CAVOK 27/01 Q1020

2010/08/09 16:00
FBSK 091600Z 21008KT CAVOK 18/02 Q1023 NOSIG

2010/08/09 16:00
CYMA 091600Z CCA 10003KT 20SM FEW045 SCT090 BKN230 12/09 A2977 RMK SC1AS2CI2 SLP092

2010/08/09 15:56
KALK 091556Z AUTO 08004KT 10SM CLR 25/16 A3014 RMK AO2 SLP113 T02500161 

2010/08/09 16:00
NZAA 091600Z 18004KT CAVOK 07/04 Q1021 NOSIG

2010/08/09 16:00
NZCH 091600Z 26002KT 9999 SCT045 01/M02 Q1023 NOSIG 

2010/08/09 16:00
HRYR 091600Z 13004KT 9999 SCT030 26/11 Q1017 NOSIG

2010/08/09 16:00
HRZA 091600Z 18004KT 9999 FEW023CB SCT026 BKN100 24/11 Q1020 NOSIG

2010/08/09 16:00
HRYG 091600Z 01006KT 9000 FEW023CB SCT025 BKN100 23/13 Q1018 NOSIG

2010/08/09 16:00
SLLP 091600Z 23005KT 9999 NSC 12/M13 Q1040

2010/08/09 16:00
SLVR 091600Z 17013G23KT 8000 NSC 23/06 Q1020

2010/08/09 16:00
SLCB 091600Z 00000KT 9999 SKC 21/03 Q1027

2010/08/09 16:00
SLTJ 091600Z 19007KT 9999 NSC 15/05 Q1024

2010/08/09 16:00
SEQU 091600Z 11010G25KT 9999 FEW040 18/M01 Q1029 RMK A3039 NOSIG

2010/08/09 16:00
SEGU 091600Z 23007KT 200V270 9999 BKN023 BKN100 26/19 Q1013 NOSIG

2010/08/09 16:00
SEMT 091600Z 19009KT 9999 OVC016 25/20 Q1014

2010/08/09 16:00
SELT 091600Z 17007KT 9999 SCT040 16/04 Q1033

2010/08/09 16:00
LPFL 091600Z VRB03KT 9999 FEW020 25/18 Q1023

2010/08/09 16:00
VTBS 091600Z 28006KT 3000 TSRA SCT015CB SCT030 BKN110 24/23 Q1007 RERA TS OVER AD TEMPO FM1625 5000 TSRA

2010/08/09 16:00
VTBD 091600Z 20006KT 8000 -RA FEW018CB SCT035 BKN110 25/23 Q1006 CB SE-S NOSIG

2010/08/09 16:00
VTCC 091600Z 34004KT 9999 BKN035 SCT110 27/23 Q1007 A2975

2010/08/09 16:00
VTBU 091600Z 24006KT 9999 FEW020CB SCT120 BKN300 30/27 Q1006 A2973 CB NW LTG

2010/08/09 16:00
VTSS 091600Z 00000KT 9999 SCT020 SCT120 BKN300 24/22 Q1009 A2982

2010/08/09 16:00
VTSP 091600Z 25006KT 7000 SCT018 BKN120 BKN300 28/24 Q1009 A2981

2010/08/09 16:00
VVTS 091600Z 21008KT 9999 FEW017 SCT040 26/24 Q1007 NOSIG

2010/08/09 16:00
VVNB 091600Z 05003KT 5000 NSC 27/26 Q1004 NOSIG

2010/08/09 16:00
VVDN 091600Z 22003KT 8000 FEW010 SCT060 25/24 Q1006 NOSIG

2010/08/09 16:00
VVPB 091600Z VRB03KT 9999 FEW017 SCT060 26/24 Q1005 NOSIG

2010/08/09 16:00
LFOJ 091600Z 23006KT 170V280 CAVOK 28/07 Q1015

2010/08/09 15:50
LIEA 091550Z 30003KT 240V340 CAVOK 25/17 Q1017 RMK VIS MIN 9999

2010/08/09 15:55
LIED 091555Z 32013KT CAVOK 32/03 Q1015 RMK BKN BKN080 SCT090 VIS MIN 9999 BLU

2010/08/09 15:50
LIEO 091550Z 07005KT CAVOK 27/19 Q1016 RMK VIS MIN 9999

2010/08/09 15:55
LIRG 091555Z 24010KT 9999 FEW035 32/16 Q1015 RMK FEW MON NE LIB NC VIS MIN 9999 BLU

2010/08/09 15:55
LIRL 091555Z 23007KT 9999 FEW040 30/16 Q1015 RMK FEW MON LIB NC VIS MIN 9999 BLU

2010/08/09 15:55
LIRM 091555Z 25011KT 9999 FEW030 31/27 Q1016 RMK FEW VIS MIN 9999 WIND THR06 25012KT BLU

2010/08/09 15:55
LIRS 091555Z 22008KT 9999 FEW025 30/09 Q1015 RMK BKN SCT200 VIS MIN 9999 WIND THR21 /////KT BLU

2010/08/09 15:50
LIRU 091550Z 25010KT CAVOK 33/17 Q1014 RMK VIS MIN 9999

2010/08/09 15:55
LIRX 091555Z 36003KT CAVOK 26/16 Q1016 RMK SCT SCT200 VIS MIN 9999N VIS MAR 18 KM

2010/08/09 16:00
LKKV 091600Z 27004KT 9999 FEW030 18/12 Q1018 RMK REG QNH 1012

2010/08/09 16:00
LKMT 091600Z VRB02KT 9999 FEW035CB 18/16 Q1016 RETS NOSIG RMK REG QNH 1012

2010/08/09 16:00
LKPR 091600Z 26007KT 9999 FEW043 21/12 Q1017 NOSIG RMK REG QNH 1012

2010/08/09 16:00
LKTB 091600Z 32007KT 280V350 9999 FEW044 SCT100 23/12 Q1016 NOSIG RMK REG QNH 1012

2010/08/09 16:00
LPAZ 091600Z 06011KT 020V080 9999 FEW018 BKN038 24/17 Q1020

2010/08/09 16:00
LPHR 091600Z 04009KT 360V070 9999 FEW016 27/13 Q1022

2010/08/09 16:00
LPPD 091600Z 03010KT 350V070 9999 FEW022 BKN040 24/13 Q1020

2010/08/09 16:00
LRCL 091600Z 30006KT 9999 FEW050 23/17 Q1016

2010/08/09 16:07
LEGE 091607Z 09008KT 040V130 7000 FEW018 SCT030CB 23/19 Q1016 RETS RERA

2010/08/09 16:15
KCCA 091615Z AUTO 00000KT 8SM CLR 33/25 A2999 RMK AO2

2010/08/09 15:55
KGZL 091555Z AUTO 24005KT 10SM 34/22 A2996 RMK AO2 PWINO

2010/08/09 16:04
KOCW 091604Z AUTO 07005KT 10SM CLR 30/22 A3005 RMK AO2

2010/08/09 16:00
UGTB 091600Z 08012KT 9999 SCT066 SCT100 31/12 Q1013 NOSIG RMK 13CLRD80

2010/08/09 16:00
UGKO 091600Z 27006KT 9999 SCT050 SCT100 29/22 Q1008 NOSIG

2010/08/09 16:00
UGSB 091600Z 00000KT 9999 FEW023 BKN070 30/24 Q1006 NNOSIG

2010/08/09 16:00
NZAA 091600Z 18004KT CAVOK 07/04 Q1021 NOSIG

2010/08/09 16:00
NZCH 091600Z 26002KT 9999 SCT045 01/M02 Q1023 NOSIG 

2010/08/09 15:51
KABE 091551Z VRB04KT 9SM CLR 29/21 A3002

2010/08/09 15:51
KALB 091551Z 30009KT 10SM FEW055 SCT110 30/18 A2998

2010/08/09 15:56
KART 091556Z AUTO 26009KT 10SM FEW022 SCT075 27/20 A2995

2010/08/09 15:54
KAVP 091554Z AUTO 31007KT 10SM CLR 31/14 A3003

2010/08/09 15:51
KBDL 091551Z VRB04KT 9SM FEW100 31/17 A2998

2010/08/09 15:52
KBDR 091552Z 21009KT 9SM CLR 28/21 A3000

2010/08/09 15:54
KBTV 091554Z 22003KT 10SM -RA BKN050 OVC060 25/19 A2995

2010/08/09 15:54
KBUF 091554Z 24011KT 10SM BKN070 OVC140 27/19 A2998

2010/08/09 15:56
KCAE 091556Z 08007KT 9SM FEW039 33/22 A3003

2010/08/09 15:51
KCAK 091551Z VRB05KT 10SM SCT250 28/18 A3004

2010/08/09 15:51
KCMH 091551Z 18006KT 9SM BKN200 28/19 A3002

2010/08/09 15:53
KCRQ 091553Z 00000KT 10SM OVC013 18/12 A2992

2010/08/09 15:54
KCRW 091554Z 29003KT 6SM HZ CLR 28/21 A3006

2010/08/09 15:56
KDAY 091556Z 22007KT 9SM FEW090 SCT250 30/18 A3004

2010/08/09 15:51
KERI 091551Z 21008KT 8SM SCT100 29/18 A2999

2010/08/09 15:54
KGSO 091554Z 19004KT 9SM FEW045 31/20 A3008

2010/08/09 15:53
KGSP 091553Z VRB03KT 10SM CLR 31/22 A3008

2010/08/09 15:51
KHTS 091551Z 20004KT 7SM CLR 28/21 A3005

2010/08/09 15:53
KHUL 091553Z AUTO 24008KT 10SM FEW010 BKN019 OVC025 21/19 A2988

2010/08/09 15:53
KIAG 091553Z 22011KT 10SM BKN070 BKN110 OVC140 27/20 A2996

2010/08/09 15:51
KILG 091551Z 17008KT 9SM CLR 29/23 A3002

2010/08/09 15:53
KILM 091553Z AUTO 10006KT 10SM FEW033 SCT042 SCT085 29/23 A3003

2010/08/09 15:53
KMSS 091553Z AUTO VRB03KT 10SM SCT019 BKN026 25/21 A2994

2010/08/09 15:54
KORH 091554Z 26010KT 10SM CLR 29/16 A3002

2010/08/09 15:51
KPVD 091551Z VRB05KT 10SM FEW035 SCT110 SCT300 31/20 A2999

2010/08/09 15:51
KPWM 091551Z 25007KT 10SM SCT046 30/18 A2992

2010/08/09 15:54
KRIC 091554Z 00000KT 10SM SCT055 SCT250 32/19 A3004

2010/08/09 15:54
KROC 091554Z 22010KT 8SM BKN150 BKN250 27/20 A2997

2010/08/09 15:54
KSYR 091554Z 29007KT 10SM SCT200 29/19 A2997

2010/08/09 15:54
KSBN 091554Z COR 00000KT 10SM BKN044 BKN085 26/21 A2999 RMK AO2 SLP150 T02560206

2010/08/09 16:00
SBBV 091600Z 27004KT 9999 SCT015 BKN080 30/22 Q1015

2010/08/09 15:56
KALK 091556Z AUTO 08004KT 10SM CLR 25/16 A3014 RMK AO2 SLP113 T02500161

2010/08/09 16:05
K2G4 091605Z AUTO 34003KT 10SM CLR 25/13 A3015 RMK AO1

2010/08/09 16:05
K2W6 091605Z AUTO 22003KT 10SM CLR 30/18 A3005 RMK AO1

2010/08/09 16:05
KCGS 091605Z AUTO 28003KT 10SM CLR 32/20 A3002 RMK AO1

2010/08/09 16:03
KCGE 091603Z AUTO 25004KT 10SM CLR 30/24 A3005 RMK AO1

2010/08/09 16:06
KCBE 091606Z AUTO 00000KT 10SM CLR 30/18 A3007 RMK AO1

2010/08/09 16:06
KW29 091606Z AUTO 17006KT 10SM CLR 30/23 A3002 RMK AO1

2010/08/09 16:06
KFDK 091606Z AUTO 20004KT 10SM CLR 34/16 A3002 RMK AO2

2010/08/09 16:04
KDMW 091604Z AUTO 24003KT 7SM CLR 31/19 A3004 RMK AO2

2010/08/09 16:06
KFME 091606Z AUTO 21006KT 10SM CLR 30/20 A3004 RMK AO1

2010/08/09 16:00
LRBS 091600Z VRB02KT CAVOK 31/19 Q1012 NOSIG

2010/08/09 16:00
LRCK 091600Z 02008KT 360V060 CAVOK 32/19 Q1011 NOSIG

2010/08/09 16:00
LROP 091600Z 36004KT 340V040 CAVOK 31/19 Q1012 880///95 NOSIG

2010/08/09 16:00
LRSB 091600Z VRB02KT 9999 BKN037 24/18 Q1016

2010/08/09 16:00
LRTR 091600Z 32005KT CAVOK 27/16 Q1015 NOSIG

2010/08/09 15:50
PTYA 091550Z 19005KT 12SM SCT016 SCT030 BKN130 OVC300 26/23 A2985 RMK SLP110 T02630233

2010/08/09 16:00
CXLB 091600Z AUTO 23012KT 19/15 RMK AO1 PK WND 20022/1517 SLP173 T01920150 58019

2010/08/09 16:00
CXPC 091600Z AUTO 17003KT 25/21 RMK AO1 SLP113 T02520210 50001

2010/08/09 16:00
CXTD 091600Z AUTO 19014G28KT 23/13 RMK AO1 PK WND 18028/1559 SLP176 T02340129 58019

2010/08/09 16:00
CXTO 091600Z AUTO 27/22 RMK AO1 SLP135 T02670221 58002

2010/08/09 16:00
CXVN 091600Z AUTO 23006KT 27/21 RMK AO1 SLP125 T02700212 50000

2010/08/09 16:00
CXWB 091600Z AUTO 28006KT 19/10 RMK AO1 SLP153 T01880104 56004

2010/08/09 16:00
CXZV 091600Z AUTO 24004KT 19/16 RMK AO1 SLP071 T01890159 58013

2010/08/09 16:05
UMGG 091605Z 20012G18MPS 9999 SCT040CB BKN100 35/14 Q1013 R10/CLRD// TEMPO 5000 TSRA

2010/08/09 16:00
HRYR 091600Z 13004KT 9999 SCT030 26/11 Q1017 NOSIG

2010/08/09 16:00
SARF 091600Z 16011KT 9999 FEW018 17/09 Q1023

2010/08/09 16:00
CTRA 091600Z AUTO 16003KT 23/20 RMK AO1 1008 SLP119 T02340198 50004

2010/08/09 16:00
CXZC 091600Z AUTO 26003KT 23/12 RMK AO1 SLP101 T02330124 56005

2010/08/09 16:00
SARP 091600Z 09007KT 9999 FEW020 SCT200 17/09 Q1022

2010/08/09 16:00
SARI 091600Z 00000KT CAVOK 19/14 Q1022

2010/08/09 16:00
LFBA 091600Z AUTO 30007KT 280V340 9999NDV BKN036 OVC043 23/16 Q1018

2010/08/09 16:00
LFBE 091600Z AUTO 26007KT 9999NDV BKN028 OVC033 22/17 Q1018

2010/08/09 16:00
LFGJ 091600Z AUTO 28006KT 240V310 9999NDV NSC 27/09 Q1016

2010/08/09 16:00
LFJR 091600Z AUTO 27006KT 240V340 9999NDV NSC 29/10 Q1015

2010/08/09 16:00
LFMD 091600Z AUTO 16004KT 130V190 9999NDV FEW017 OVC032 25/20 Q1015

2010/08/09 16:00
LFMH 091600Z 33007KT 290V010 9999 FEW043 28/12 Q1016 TEMPO SHRA

2010/08/09 16:00
LFOT 091600Z AUTO VRB03KT 9999NDV NSC 29/09 Q1015

2010/08/09 16:00
LFPN 091600Z 22006KT 100V270 CAVOK 27/10 Q1015 NOSIG

2010/08/09 16:00
LFRC 091600Z AUTO 22012KT 180V250 9999NDV NSC 21/11 Q1017

2010/08/09 16:00
LFRG 091600Z AUTO 34006KT 300V020 9999NDV NSC 20/12 Q1017

2010/08/09 16:00
LFRK 091600Z 36005KT 290V050 CAVOK 22/12 Q1016 NOSIG

2010/08/09 15:59
KNGU 091559Z 05005KT 7SM FEW030 BKN250 30/23 A3006 RMK AO2 SLP180 T03000228

2010/08/09 15:57
KNJM 091557Z AUTO 12006KT 10SM CLR 28/25 A3005 RMK AO2 SLP179 T02830250

2010/08/09 16:00
MPHO 091600Z 00000KT 9999 FEW010 SCT018TCU BKN090 Q1014

2010/08/09 15:55
PWAK 091555Z 07013KT 10SM SCT021 27/24 A3002 RMK AO2A

2010/08/09 16:00
CWBE 091600Z AUTO 09002KT 20/17 RMK AO1 SLP142 T01970171 58002

2010/08/09 16:00
CWWB 091600Z AUTO 27003KT 26/20 RMK AO1 SLP132 T02610203 58002

2010/08/09 16:00
CWWB 091600Z AUTO 27003KT 26/20 RMK AO1 SLP132 T02610203 58002

2010/08/09 16:00
LFLL 091600Z 36007KT 330V040 CAVOK 29/12 Q1015 NOSIG

2010/08/09 16:00
LFMN 091600Z 12003KT 090V160 9999 FEW020 SCT038 BKN053 25/20 Q1016 NOSIG

2010/08/09 16:00
LFPG 091600Z 16003KT 090V230 CAVOK 26/10 Q1015 NOSIG

2010/08/09 16:00
LFPO 091600Z 29006KT 240V360 CAVOK 27/10 Q1015 NOSIG

2010/08/09 16:00
LFQQ 091600Z 27006KT 230V310 CAVOK 24/12 Q1015 NOSIG

2010/08/09 16:00
LFRB 091600Z 23011KT 200V260 9999 OVC007 17/15 Q1018

2010/08/09 16:00
LFRS 091600Z 25010KT 220V310 CAVOK 26/12 Q1016 NOSIG

2010/08/09 16:00
CWYJ 091600Z AUTO 09002KT 16/14 RMK AO1 T01620135

2010/08/09 16:00
CWYL 091600Z AUTO 23008KT 11/10 RMK AO1 T01080098 50020

2010/08/09 16:00
CWZO 091600Z AUTO 16003KT RMK AO1 

2010/08/09 16:00
CWZS 091600Z AUTO 23005KT 24/16 RMK AO1 SLP093 T02410155 58012

2010/08/09 16:00
CXKE 091600Z AUTO 25002KT 24/19 RMK AO1 SLP133 T02350185 58005

2010/08/09 16:00
CWMT 091600Z AUTO 20/ RMK AO1 SLP038 T0197 53009

2010/08/09 16:00
CWJO 091600Z AUTO 30008KT 24/15 RMK AO1 SLP109 T02430149 58008

2010/08/09 16:00
CWJW 091600Z AUTO 15003KT 12/10 RMK AO1 SLP112 T01210100 56002

2010/08/09 16:00
CWKH 091600Z AUTO 15/ RMK AO1 T0154

2010/08/09 16:00
CWKX 091600Z AUTO 22005KT 09/06 RMK AO1 SLP161 T00860061 50004

2010/08/09 16:00
CWLC 091600Z AUTO 13007KT 11/ RMK AO1 T0113

2010/08/09 16:00
CWLM 091600Z AUTO 21002KT 13/11 RMK AO1 T01330114

2010/08/09 16:00
CWMM 091600Z AUTO 21002KT 15/12 RMK AO1 SLP143 T01480120 52002

2010/08/09 16:00
CWMM 091600Z AUTO 21002KT 15/12 RMK AO1 SLP143 T01480120 52002

2010/08/09 16:00
CWMM 091600Z AUTO 21002KT 15/12 RMK AO1 SLP143 T01480120 52002

2010/08/09 16:00
LFAQ 091600Z AUTO 27003KT 220V310 9999NDV NSC 24/11 Q1016

2010/08/09 16:00
LFBU 091600Z AUTO 26011KT 220V290 9999NDV FEW040 26/13 Q1017

2010/08/09 16:00
LFLN 091600Z AUTO VRB04KT 9999NDV NSC 27/14 Q1016

2010/08/09 16:00
LFPM 091600Z AUTO VRB02KT 9999NDV NSC 27/10 Q1015

2010/08/09 16:00
LFRH 091600Z 27017KT CAVOK 20/14 Q1018

2010/08/09 16:00
LFRQ 091600Z AUTO 26009KT 210V300 9999NDV BKN013 OVC029 18/15 Q1018

2010/08/09 16:00
LFRT 091600Z AUTO 05008KT 9999NDV FEW047 19/13 Q1017

2010/08/09 16:00
LFSD 091600Z AUTO 19004KT 9999NDV NSC 26/10 Q1016

2010/08/09 16:00
LFTW 091600Z AUTO 19007KT 150V220 9999NDV NSC 29/18 Q1014

2010/08/09 16:00
FMNM 091600Z 30006KT CAVOK 24/19 Q1016

2010/08/09 16:00
FOOG 091600Z /////KT 9999 SCT006 OVC023 25/21 Q1014

2010/08/09 16:00
FOON 091600Z 32004KT 9999 OVC016 24/20 Q1015

2010/08/09 16:00
OEJN 091600Z 28004KT CAVOK 34/27 Q1000 NOSIG

2010/08/09 16:00
OIBK 091600Z 29004KT 70 P0 J

2010/08/09 16:00
OIHH 091600Z 07006KT 9999 FEW040 28/M08 Q1015 A2999

2010/08/09 15:56
KALK 091556Z AUTO 08004KT 10SM CLR 25/16 A3014 RMK AO2 SLP113 T02500161

2010/08/09 15:59
KRYN 091559Z 00000KT 10SM CLR 29/17 A2998

2010/08/09 15:55
KGZL 091555Z AUTO 24005KT 10SM 34/22 A2996 RMK AO2 PWINO

2010/08/09 16:00
CWAQ 091600Z AUTO 36006KT 25/11 RMK AO1 T02470107

2010/08/09 16:00
CWBO 091600Z AUTO 20006KT 18/14 RMK AO1 SLP103 T01790142 50001

2010/08/09 16:00
CWBS 091600Z AUTO 21009KT 23/ RMK AO1 T0225

2010/08/09 16:00
CWBT 091600Z AUTO 24005KT 16/15 RMK AO1 SLP082 T01580148 58002

2010/08/09 16:00
CWBZ 091600Z AUTO 28006KT 25/21 RMK AO1 SLP132 T02480211 58003

2010/08/09 16:00
CWDJ 091600Z AUTO 33005KT 21/16 RMK AO1 SLP113 T02140159 51010

2010/08/09 16:00
CWDK 091600Z AUTO 17003KT 19/10 RMK AO1 SLP109 T01910102 50005

2010/08/09 16:00
CXBK 091600Z AUTO 32006KT 22/15 RMK AO1 SLP100 T02170151 51010

2010/08/09 16:00
CXBK 091600Z AUTO 32006KT 22/15 RMK AO1 SLP100 T02170151 51010

2010/08/09 16:00
CXCH 091600Z AUTO 22/14 RMK AO1 T02240143

2010/08/09 16:00
CXHF 091600Z AUTO 24/17 RMK AO1 T02420170

2010/08/09 16:00
CXMI 091600Z AUTO 15016KT 17/16 RMK AO1 PK WND 16017/1551 SLP175 T01700160 58020

2010/08/09 16:00
CXMY 091600Z AUTO 23/14 RMK AO1 T02280140

2010/08/09 16:00
CXOX 091600Z AUTO 21003KT 20/17 RMK AO1 SLP075 T02020170 53006

2010/08/09 16:00
CXSH 091600Z AUTO 17005KT 23/19 RMK AO1 SLP121 T02270189 58005

2010/08/09 16:00
CXSR 091600Z AUTO 25007KT 13/05 RMK AO1 SLP080 T01290054 53006

2010/08/09 16:00
CXSR 091600Z AUTO 25007KT 13/05 RMK AO1 SLP080 T01290054 53006

2010/08/09 16:00
CXSR 091600Z AUTO 25007KT 13/05 RMK AO1 SLP080 T01290054 53006

2010/08/09 16:00
CWTA 091600Z AUTO 25002KT 22/20 RMK AO1 SLP137 T02200195 58003

2010/08/09 16:00
CWUS 091600Z AUTO 04003KT 22/09 RMK AO1 SLP104 T02210092 58003

2010/08/09 16:00
CWUX 091600Z AUTO 29007KT 26/16 RMK AO1 SLP104 T02560159 58008

2010/08/09 16:00
CWVF 091600Z AUTO 34010KT 17/ RMK AO1 T0166

2010/08/09 16:00
CWVU 091600Z AUTO 17012KT 18/16 RMK AO1 PK WND 16020/1502 SLP162 T01770161 56008

2010/08/09 16:00
CWVV 091600Z AUTO 24001KT 17/12 RMK AO1 SLP140 T01650122 50002

2010/08/09 16:00
CWWA 091600Z AUTO 00000KT 15/13 RMK AO1 SLP136 T01500128 55000

2010/08/09 16:00
CWWK 091600Z AUTO 19001KT 15/12 RMK AO1 SLP148 T01520123 50003

2010/08/09 16:00
CWUS 091600Z AUTO 04003KT 22/09 RMK AO1 SLP104 T02210092 58003

2010/08/09 16:00
CWUX 091600Z AUTO 29007KT 26/16 RMK AO1 SLP104 T02560159 58008

2010/08/09 16:00
CWVF 091600Z AUTO 34010KT 17/ RMK AO1 T0166

2010/08/09 16:00
CWVU 091600Z AUTO 17012KT 18/16 RMK AO1 PK WND 16020/1502 SLP162 T01770161 56008

2010/08/09 16:00
CWVV 091600Z AUTO 24001KT 17/12 RMK AO1 SLP140 T01650122 50002

2010/08/09 16:00
CWWA 091600Z AUTO 00000KT 15/13 RMK AO1 SLP136 T01500128 55000

2010/08/09 16:00
CWWK 091600Z AUTO 19001KT 15/12 RMK AO1 SLP148 T01520123 50003

2010/08/09 16:00
UAAA 091600Z 18003MPS 9999 SCT050CB BKN100 24/07 Q1009 88CLRD65 TEMPO TS

2010/08/09 16:00
UACC 091600Z 02004MPS 7000 BKN060 13/05 Q1013 040/0070 NOSIG RMK QFE728/0971

2010/08/09 16:00
UAKK 091600Z 02006MPS CAVOK 16/07 Q1011 050///70 NOSIG RMK QFE711/0948

2010/08/09 16:00
UARR 091600Z 01003MPS CAVOK 30/04 Q1015 04CLRD70 NOSIG RMK QFE757/1010

2010/08/09 16:00
UATE 091600Z 08005MPS 9999 SCT060CB BKN183 34/03 Q1009 120///70 NOSIG RMK QFE755/1007

2010/08/09 16:00
UATG 091600Z 23002MPS 9999 FEW033CB SCT133 33/09 Q1011 14CLRD70 NOSIG RMK QFE760/1013

2010/08/09 16:00
UATT 091600Z 05007MPS 8000 FU SKC 29/07 Q1015 31CLRD70 NOSIG RMK QFE741/0988

2010/08/09 16:00
UAUU 091600Z 05004MPS 020V080 CAVOK 21/03 Q1018 33CLRD70 NOSIG RMK QFE748/0998

2010/08/09 16:00
UTDD 091600Z 05003MPS 9999 FEW066 FEW190 29/05 Q1005 09CLRD70 NOSIG RMK QFE686/0915

2010/08/09 16:00
YPXM 091600Z AUTO 09007KT 9999NDV // BKN013 24/21 Q////

2010/08/09 16:00
CERM 091600Z AUTO 17002KT 23/16 RMK AO1 SLP109 T02280159 58010

2010/08/09 16:00
CWBK 091600Z AUTO 20011G17KT 23/15 RMK AO1 PK WND 20018/1537 SLP155 T02270146 58023

2010/08/09 16:00
CZSP 091600Z AUTO 18008KT 20/15 RMK AO1 PK WND 18017/1507 SLP150 T02020151 57011

2010/08/09 16:00
CZSP 091600Z AUTO 18008KT 20/15 RMK AO1 PK WND 18017/1507 SLP150 T02020151 57011

2010/08/09 16:00
CZSP 091600Z AUTO 18008KT 20/15 RMK AO1 PK WND 18017/1507 SLP150 T02020151 57011

2010/08/09 16:00
MNMG 091600Z 08004KT 9999 FEW022 SCT300 30/23 Q1011 A2988

2010/08/09 16:00
CWEL 091600Z AUTO 31012KT 16/13 RMK AO1 SLP130 T01590133 53004

2010/08/09 16:00
CWEZ 091600Z AUTO 21007KT 13/11 RMK AO1 SLP142 T01300110 53003

2010/08/09 16:00
CWFF 091600Z AUTO 25006KT 21/15 RMK AO1 SLP096 T02110154 51011

2010/08/09 16:00
CWFJ 091600Z AUTO 25002KT 21/10 RMK AO1 T02090097

2010/08/09 16:00
CWFQ 091600Z AUTO 28004KT 23/19 RMK AO1 T02260192

2010/08/09 16:00
CWGB 091600Z AUTO 29012KT 16/12 RMK AO1 SLP140 T01610120 53004

2010/08/09 16:00
CWGT 091600Z AUTO 30010KT 15/11 RMK AO1 SLP139 T01530111 53003

2010/08/09 16:00
CWGW 091600Z AUTO 03002KT 14/11 RMK AO1 SLP127 T01430114 58006

2010/08/09 16:00
CWGY 091600Z AUTO 17007KT 20/14 RMK AO1 SLP117 T01960143 51006

2010/08/09 16:00
CWHL 091600Z AUTO 15002KT 11/ RMK AO1 6PAST HR 3003 SLP158 P0002 T0114 50024

2010/08/09 16:00
CWHM 091600Z AUTO 21008KT 23/20 RMK AO1 T02320203

2010/08/09 16:00
CWHQ 091600Z AUTO 22003KT 23/19 RMK AO1 T02290193

2010/08/09 16:00
CWHT 091600Z AUTO 09003KT 07/04 RMK AO1 SLP108 T00720041 53000

2010/08/09 16:00
CWHV 091600Z AUTO 23003KT 21/18 RMK AO1 SLP129 T02130178 58005

2010/08/09 16:00
CWIP 091600Z AUTO 20011G17KT 22/ RMK AO1 PK WND 19018/1545 T0223

2010/08/09 16:00
CWIS 091600Z AUTO 24005KT 20/16 RMK AO1 SLP124 T02000157 58006

2010/08/09 16:00
CWJC 091600Z AUTO 18/09 RMK AO1 17 1004 SLP138 T01760092

2010/08/09 16:00
CWJH 091600Z AUTO 13002KT 16/13 RMK AO1 0000 SLP087 T01550131 50007

2010/08/09 16:00
CWGY 091600Z AUTO 17007KT 20/14 RMK AO1 SLP117 T01960143 51006

2010/08/09 16:00
CWHL 091600Z AUTO 15002KT 11/ RMK AO1 6PAST HR 3003 SLP158 P0002 T0114 50024

2010/08/09 16:00
CWHM 091600Z AUTO 21008KT 23/20 RMK AO1 T02320203

2010/08/09 16:00
CWHQ 091600Z AUTO 22003KT 23/19 RMK AO1 T02290193

2010/08/09 16:00
CWHT 091600Z AUTO 09003KT 07/04 RMK AO1 SLP108 T00720041 53000

2010/08/09 16:00
CWHV 091600Z AUTO 23003KT 21/18 RMK AO1 SLP129 T02130178 58005

2010/08/09 16:00
CWIP 091600Z AUTO 20011G17KT 22/ RMK AO1 PK WND 19018/1545 T0223

2010/08/09 16:00
CWIS 091600Z AUTO 24005KT 20/16 RMK AO1 SLP124 T02000157 58006

2010/08/09 16:00
CWJC 091600Z AUTO 18/09 RMK AO1 17 1004 SLP138 T01760092

2010/08/09 16:00
CWJH 091600Z AUTO 13002KT 16/13 RMK AO1 0000 SLP087 T01550131 50007

2010/08/09 16:00
CWGY 091600Z AUTO 17007KT 20/14 RMK AO1 SLP117 T01960143 51006

2010/08/09 16:00
CWHL 091600Z AUTO 15002KT 11/ RMK AO1 6PAST HR 3003 SLP158 P0002 T0114 50024

2010/08/09 16:00
CWHM 091600Z AUTO 21008KT 23/20 RMK AO1 T02320203

2010/08/09 16:00
CWHQ 091600Z AUTO 22003KT 23/19 RMK AO1 T02290193

2010/08/09 16:00
CWHT 091600Z AUTO 09003KT 07/04 RMK AO1 SLP108 T00720041 53000

2010/08/09 16:00
CWHV 091600Z AUTO 23003KT 21/18 RMK AO1 SLP129 T02130178 58005

2010/08/09 16:00
CWIP 091600Z AUTO 20011G17KT 22/ RMK AO1 PK WND 19018/1545 T0223

2010/08/09 16:00
CWIS 091600Z AUTO 24005KT 20/16 RMK AO1 SLP124 T02000157 58006

2010/08/09 16:00
CWJC 091600Z AUTO 18/09 RMK AO1 17 1004 SLP138 T01760092

2010/08/09 16:00
CWJH 091600Z AUTO 13002KT 16/13 RMK AO1 0000 SLP087 T01550131 50007

2010/08/09 16:00
CWJH 091600Z AUTO 13002KT 16/13 RMK AO1 0000 SLP087 T01550131 50007

2010/08/09 16:00
CWJH 091600Z AUTO 13002KT 16/13 RMK AO1 0000 SLP087 T01550131 50007

2010/08/09 16:00
CWJH 091600Z AUTO 13002KT 16/13 RMK AO1 0000 SLP087 T01550131 50007

2010/08/09 16:00
CWDM 091600Z AUTO 21014KT 15/12 RMK AO1 PK WND 20020/1521 SLP085 T01450119 58011

2010/08/09 16:00
CWEP 091600Z AUTO 21012G17KT 20/18 RMK AO1 PK WND 21017/1545 SLP159 T02000177 58012

2010/08/09 16:00
CWER 091600Z AUTO 21019KT RMK AO1 PK WND 22022/1527

2010/08/09 16:00
CWNH 091600Z AUTO 23008G17KT 22/17 RMK AO1 PK WND 24017/1548 SLP103 T02200173 58006

2010/08/09 16:00
CWNH 091600Z AUTO 23008G17KT 22/17 RMK AO1 PK WND 24017/1548 SLP103 T02200173 58006

2010/08/09 16:00
CWBV 091600Z AUTO 18006KT 19/17 RMK AO1 SLP191 T01860169 58015

2010/08/09 16:00
CWRN 091600Z AUTO 19017KT 22/13 RMK AO1 PK WND 20022/1549 SLP185 T02240127 58017

2010/08/09 16:00
CWPK 091600Z AUTO 29003KT 22/ RMK AO1 SLP128 T0220 58008

2010/08/09 16:00
CWNM 091600Z AUTO 20/18 RMK AO1 SLP109 T02000179 58003

2010/08/09 16:00
CWNQ 091600Z AUTO 26006KT 23/20 RMK AO1 SLP125 T02270198 58004

2010/08/09 16:00
CWOC 091600Z AUTO 22005KT 18/16 RMK AO1 SLP109 T01770162 58008

2010/08/09 16:00
CWPE 091600Z AUTO 19010KT 14/14 RMK AO1 6PAST HR 8011 SLP147 P0002 T01430136 50006

2010/08/09 16:00
CWPF 091600Z AUTO 19002KT 14/13 RMK AO1 SLP133 T01430128 53001

2010/08/09 16:00
CWPR 091600Z AUTO 15001KT 13/ RMK AO1 SLP125 T0132 58008

2010/08/09 16:00
CWPZ 091600Z AUTO 29009KT 13/07 RMK AO1 SLP140 T01290066 51004

2010/08/09 16:00
CWNM 091600Z AUTO 20/18 RMK AO1 SLP109 T02000179 58003

2010/08/09 16:00
CWNQ 091600Z AUTO 26006KT 23/20 RMK AO1 SLP125 T02270198 58004

2010/08/09 16:00
CWOC 091600Z AUTO 22005KT 18/16 RMK AO1 SLP109 T01770162 58008

2010/08/09 16:00
CWPE 091600Z AUTO 19010KT 14/14 RMK AO1 6PAST HR 8011 SLP147 P0002 T01430136 50006

2010/08/09 16:00
CWPF 091600Z AUTO 19002KT 14/13 RMK AO1 SLP133 T01430128 53001

2010/08/09 16:00
CWPR 091600Z AUTO 15001KT 13/ RMK AO1 SLP125 T0132 58008

2010/08/09 16:00
CWPZ 091600Z AUTO 29009KT 13/07 RMK AO1 SLP140 T01290066 51004

2010/08/09 16:00
CWDC 091600Z AUTO 08003KT 17/16 RMK AO1 9PAST HR 3010 SLP076 P0004 T01650160 50023

2010/08/09 16:00
CWEH 091600Z AUTO 23006KT 21/09 RMK AO1 SLP121 T02100086 51005

2010/08/09 16:00
CWKO 091600Z AUTO 34004KT 22/11 RMK AO1 SLP123 T02220106 51011

2010/08/09 16:00
CWOY 091600Z AUTO 29005KT 20/15 RMK AO1 SLP107 T02010147 51014

2010/08/09 16:00
CWKO 091600Z AUTO 34004KT 22/11 RMK AO1 SLP123 T02220106 51011

2010/08/09 16:00
CWOY 091600Z AUTO 29005KT 20/15 RMK AO1 SLP107 T02010147 51014

2010/08/09 16:00
CWCT 091600Z AUTO 17007KT 18/13 RMK AO1 SLP112 T01810134 50006

2010/08/09 16:00
CWCT 091600Z AUTO 17007KT 18/13 RMK AO1 SLP112 T01810134 50006

2010/08/09 16:00
CWEK 091600Z AUTO 14004KT 11/ RMK AO1 3002 SLP162 T0107 50008

2010/08/09 16:00
CWLP 091600Z AUTO 28012KT 12/11 RMK AO1 PK WND 28017/1504 SLP164 T01230110 51002

2010/08/09 16:00
CWZG 091600Z AUTO 24005KT 15/08 RMK AO1 SLP113 T01490078 58009

2010/08/09 16:00
CWVT 091600Z AUTO 14002KT 19/17 RMK AO1 3011 SLP088 T01890171 50007

2010/08/09 16:00
CWZW 091600Z AUTO 16006KT 11/06 RMK AO1 SLP133 T01140058 53001

2010/08/09 16:00
CWVT 091600Z AUTO 14002KT 19/17 RMK AO1 3011 SLP088 T01890171 50007

2010/08/09 16:00
CWZW 091600Z AUTO 16006KT 11/06 RMK AO1 SLP133 T01140058 53001

2010/08/09 16:00
OOMS 091600Z 07005KT 8000 NSC 31/27 Q0997 NOSIG

2010/08/09 16:00
OOSA 091600Z AUTO 18005KT 26/22 Q1003

2010/08/09 16:00
SBSJ 091600Z 24016KT CAVOK 20/13 Q1023

2010/08/09 16:00
CWQH 091600Z AUTO 26008KT 23/19 RMK AO1 T02270191

2010/08/09 16:00
CWQK 091600Z AUTO 27017KT RMK AO1 PK WND 27019/1516

2010/08/09 16:00
CWRJ 091600Z AUTO 27003KT 20/17 RMK AO1 SLP107 T02010169 51009

2010/08/09 16:00
CWRT 091600Z AUTO 34003KT 18/13 RMK AO1 T01800125

2010/08/09 16:00
CWSD 091600Z AUTO 21010KT 20/17 RMK AO1 SLP146 T02000174 57013

2010/08/09 16:00
CWSK 091600Z AUTO 32001KT 16/15 RMK AO1 2002 SLP128 T01590151 50003

2010/08/09 16:00
CWSL 091600Z AUTO 24001KT 18/13 RMK AO1 SLP109 T01770133 58001

2010/08/09 16:00
CWSP 091600Z AUTO 30010KT 12/12 RMK AO1 SLP140 T01170115 50000

2010/08/09 16:00
CWST 091600Z AUTO 24013G19KT 25/20 RMK AO1 PK WND 24020/1530 T02500196 50010

2010/08/09 16:00
CWST 091600Z AUTO 24013G19KT 25/20 RMK AO1 PK WND 24020/1530 T02500196 50010

2010/08/09 15:50
OOSA 091550Z AUTO 18005KT 26/22 Q1003

2010/08/09 16:00
CWBU 091600Z AUTO 30006KT 21/17 RMK AO1 SLP084 T02110170 52010

2010/08/09 16:05
K2G4 091605Z AUTO 34003KT 10SM CLR 25/13 A3015 RMK AO1

2010/08/09 16:05
K2W6 091605Z AUTO 22003KT 10SM CLR 30/18 A3005 RMK AO1

2010/08/09 16:05
KCGS 091605Z AUTO 28003KT 10SM CLR 32/20 A3002 RMK AO1

2010/08/09 16:15
KCCA 091615Z AUTO 00000KT 8SM CLR 33/25 A2999 RMK AO2

2010/08/09 16:04
KOCW 091604Z AUTO 07005KT 10SM CLR 30/22 A3005 RMK AO2

2010/08/09 16:06
KW29 091606Z AUTO 17006KT 10SM CLR 30/23 A3002 RMK AO1

2010/08/09 16:06
KFDK 091606Z AUTO 20004KT 10SM CLR 34/16 A3002 RMK AO2

2010/08/09 16:06
KCBE 091606Z AUTO 00000KT 10SM CLR 30/18 A3007 RMK AO1

2010/08/09 16:00
OMAD 091600Z 36009KT CAVOK -5/27 Q0996 A2942

2010/08/09 15:54
KSBN 091554Z COR 00000KT 10SM BKN044 BKN085 26/21 A2999 RMK AO2 SLP150 T02560206

2010/08/09 16:00
TVSV 091600Z 12008KT 9999 SCT022 SCT038 31/25 Q1015 TCU-N

2010/08/09 16:00
SBRP 091600Z 20006KT CAVOK 32/09 Q1019

2010/08/09 16:00
RKSI 091600Z 06004KT 9999 SCT040 BKN120 27/22 Q1009 NOSIG

2010/08/09 16:00
RKSS 091600Z 36001KT CAVOK 26/22 Q1009 NOSIG 

2010/08/09 16:00
RKPC 091600Z 14008KT 100V190 7000 BKN030 BKN110 29/24 Q1007 TEMPO SHRA 

2010/08/09 16:00
RKJB 091600Z AUTO 13006KT3000NDV ///082 ///088 27/24 Q1009 

2010/08/09 16:00
RKNY 091600Z AUTO 20003KT3000NDV NCD 23/21 Q1008 

2010/08/09 16:00
CYAW 091600Z 18011G16KT 15SM FEW100 BKN250 21/17 A3006 RMK AC1CI2 DA+975FT SLP180

2010/08/09 16:00
CYBG 091600Z 28009KT 20SM FEW040 SCT250 25/15 A2985 RMK CU2CI1 MDT CU SLP108

2010/08/09 16:00
CYDQ 091600Z AUTO 26011G19KT 9SM CLR 17/05 A2976 RMK SLP085 DENSITY ALT 3000FT MAX WND 26019KT AT 1551Z

2010/08/09 16:00
CYEG 091600Z 00000KT 15SM FEW090 FEW160 BKN260 13/12 A2982 RMK AC1AC1CI1 TR AC SLP100

2010/08/09 16:00
CYFB 091600Z 27005KT 30SM -RA SCT023 BKN044 OVC060 12/09 A2979 RMK SC3SC3SC2 SLP090

2010/08/09 16:00
CYFC 091600Z AUTO 18009KT 5SM -RA BR OVC014 20/19 A2991 RMK SLP128 DENSITY ALT 600FT PCPN 0.5MM PAST HR RVR MISG

2010/08/09 16:00
CYFT 091600Z 22007KT 15SM BKN030 OVC070 17/11 A2958 RMK SC6AS2 SLP018

2010/08/09 16:00
CYGL 091600Z 28011KT 8SM -DZ OVC004 09/09 A2979 RMK ST8 CIG HIER SE CIG VRB 3-5 SLP095

2010/08/09 16:00
CYHZ 091600Z 18016G22KT 15SM FEW200 BKN300 24/14 A3005 RMK CC1CI2 SLP176

2010/08/09 16:00
CYJT 091600Z 23012G20KT 15SM SCT050 BKN100 OVC220 21/17 A2998 RMK SC3AC3CI1 SLP153

2010/08/09 16:00
CYKL 091600Z AUTO 29008KT 9SM SCT029 OVC040 OVC061 OVC076 13/08 A2957 RMK SLP026

2010/08/09 16:00
CYMH 091600Z 21017G29KT 15SM -RA BKN015 BKN077 OVC220 19/15 A2973 RMK CU5AC2CI2 SLP068

2010/08/09 16:00
CYMX 091600Z 21006KT 12SM BKN015 23/18 A2993 RMK CF6 SLP136

2010/08/09 16:00
CYOW 091600Z 24002KT 15SM FEW020 SCT050 SCT240 24/20 A2994 RMK CU2SC2CI0 SLP139

2010/08/09 16:00
CYPL 091600Z 36002KT 15SM FEW240 24/15 A2988 RMK CI0 SLP120

2010/08/09 16:00
CYQB 091600Z 24008KT 10SM BKN018 BKN033 21/19 A2990 RMK SC6SC1 CU ASOCTD SLP125

2010/08/09 16:00
CYQG 091600Z 23009KT 6SM HZ FEW050 BKN260 27/20 A2996 RMK SC2CS6 CC ASOCTD SLP143

2010/08/09 16:00
CYQM 091600Z 19010G15KT 15SM -SHRA SCT015 BKN030 BKN070 OVC100 20/18 A2996 RMK SC4SC2AC1AC2 PCPN VRY LGT SLP145

2010/08/09 16:00
CYQQ 091600Z 31006KT 20SM -SHRA SCT040 BKN080 14/10 A2997 RMK SC3AC4 SLP148

2010/08/09 16:00
CYQX 091600Z 20012G18KT 20SM FEW025 FEW095 SCT180 BKN260 22/15 A3001 RMK SC1AC1AS2CS3 SLP163

2010/08/09 16:00
CYQY 091600Z 20017G25KT 15SM FEW036 SCT180 OVC240 24/12 A3006 RMK CF1AC2CI4 SLP180

2010/08/09 16:00
CYRB 091600Z 06013G18KT 6SM -RA VCFG FEW008 BKN028 OVC080 07/07 A2984 RMK SF2SC4AS2 SLP111

2010/08/09 16:00
CYSJ 091600Z 21012KT 12SM -SHRA SCT015 OVC073 18/15 A2997 RMK SC3AC5 SLP151

2010/08/09 16:00
CYTE 091600Z 01006KT 15SM FEW040 BKN120 16/09 A2982 RMK SC2AC4 SLP101

2010/08/09 16:00
CYTR 091600Z 20011KT 6SM HZ BKN085 25/17 A2993 RMK AC7 SLP135

2010/08/09 16:00
CYUL 091600Z 27004KT 10SM FEW008 BKN014 OVC030 22/20 A2993 RMK SF2SF3SC2 SLP136

2010/08/09 16:00
CYUY 091600Z 20002KT 15SM FEW160 BKN220 25/12 A2991 RMK AS1CI2 SLP131

2010/08/09 16:00
CYVP 091600Z 33012G20KT 15SM BKN026 BKN062 BKN100 13/08 A2960 RMK SC6SC1AC1 SLP026

2010/08/09 16:00
CYVR 091600Z 13004KT 15SM BKN016 OVC035 15/11 A2994 RMK SC6SC2 SLP140

2010/08/09 16:00
CYWG 091600Z 16008KT 15SM FEW260 28/20 A2982 RMK CI1 SLP097

2010/08/09 16:00
CYWK 091600Z 24010G15KT 12SM -SHRA BKN020 OVC032 13/10 A2969 RMK CU6SC2 SLP064

2010/08/09 16:00
CYXU 091600Z 23007KT 12SM FEW070 BKN100 BKN200 27/21 A2996 RMK AC2AC3CI1 SLP142

2010/08/09 16:00
CYXX 091600Z 27003KT 10SM FEW015 BKN035 BKN150 15/10 A2995 RMK SF2SC4AC1 SLP142

2010/08/09 16:00
CYXY 091600Z 15012KT 40SM FEW030 FEW170 BKN250 11/06 A2983 RMK CU1AC2CI2 SLP117

2010/08/09 16:00
CYYC 091600Z 06002KT 40SM FEW038 FEW110 FEW220 18/09 A2986 RMK CU1AC1CI0 ACSL SW SLP112

2010/08/09 16:00
CYYJ 091600Z 13004KT 15SM FEW018 SCT070 BKN220 16/13 A2995 RMK SC1AC3CS4 SLP141

2010/08/09 16:00
CYYQ 091600Z 07011KT 15SM FEW025 FEW210 14/11 A2998 RMK SC1CI1 SLP154

2010/08/09 16:00
CYYR 091600Z 26015G20KT 15SM SCT028 BKN068 BKN110 21/12 A2961 RMK SC3AC3AC1 CU ASOCTD SLP027

2010/08/09 16:00
CYYT 091600Z 24016G22KT 15SM SCT038 BKN160 BKN230 22/14 A3013 RMK SC3AC2CI1 SLP205

2010/08/09 16:00
CYYZ 091600Z 23009KT 10SM BKN078 BKN140 27/22 A2993 RMK AC6AC1 SLP134

2010/08/09 16:00
CYZF 091600Z 15006KT 15SM FEW015 SCT030 BKN210 19/15 A2968 RMK CF1SC2CI0 SLP056

2010/08/09 16:00
CYZV 091600Z 21014KT 30SM FEW060 FEW120 19/16 A2975 RMK CU1AC1 SLP074

2010/08/09 16:00
CYZX 091600Z 20009KT 15SM FEW040 OVC100 25/15 A2999 RMK CU1AC8 WNDY HILL 19009G17KT SLP155

2010/08/09 16:00
CYZY 091600Z AUTO 15009KT 9SM FEW061 14/07 A2984 RMK SLP114 DENSITY ALT 2700FT

2010/08/09 16:00
CZBF 091600Z 15007KT 150V210 10SM FEW010 SCT030 BKN100 23/22 A2986 RMK SF1SC2AC3 SLP111

2010/08/09 16:00
LRAR 091600Z 36004KT 310V070 9999 FEW049 27/16 Q1016

2010/08/09 16:00
LRTC 091600Z AUTO 34010KT 9999 NCD 30/21 Q1010

2010/08/09 16:00
LRTM 091600Z 23004KT 9999 FEW036 26/19 Q1015

2010/08/09 16:00
UKKK 091600Z 23009G15MPS 7000 -TSRA SCT008 BKN030CB 29/13 Q1015 26CLRD70 TEMPO VRB12G17MPS 2000 TSRAGR BKN020CB

2010/08/09 16:00
LPAZ 091600Z 06011KT 020V080 9999 FEW018 BKN038 24/17 Q1020

2010/08/09 16:00
LPPD 091600Z 03010KT 350V070 9999 FEW022 BKN040 24/13 Q1020

2010/08/09 16:00
LJLJ 091600Z 12007KT 9999 FEW040 24/16 Q1016 NOSIG

2010/08/09 16:00
LJMB 091600Z 18004KT 100V230 9999 FEW030 23/15 Q1017

2010/08/09 16:00
LJPZ 091600Z 27004KT 220V300 CAVOK 28/16 Q1014

2010/08/09 16:00
LKMT 091600Z VRB02KT 9999 FEW035CB 18/16 Q1016 RETS NOSIG RMK REG QNH 1012

2010/08/09 16:00
LKPR 091600Z 26007KT 9999 FEW043 21/12 Q1017 NOSIG RMK REG QNH 1012

2010/08/09 16:00
LKTB 091600Z 32007KT 280V350 9999 FEW044 SCT100 23/12 Q1016 NOSIG RMK REG QNH 1012

2010/08/09 16:00
LFVP 091600Z 22013KT CAVOK 21/16 Q1020 NOSIG

2010/08/09 16:00
LFLV 091600Z 02005KT 9999 FEW050 27/13 Q1016

2010/08/09 16:00
LFQB 091600Z VRB03KT CAVOK 27/09 Q1015

2010/08/09 16:00
FMEE 091600Z 13015KT 9999 FEW026 20/17 Q1023 NOSIG

2010/08/09 16:00
FMMT 091600Z 00000KT 9999 FEW017 SCT033 22/20 Q1021

2010/08/09 15:50
LIEA 091550Z 30003KT 240V340 CAVOK 25/17 Q1017 RMK VIS MIN 9999

2010/08/09 15:50
LIEO 091550Z 07005KT CAVOK 27/19 Q1016 RMK VIS MIN 9999

2010/08/09 15:50
LIMG 091550Z 04005KT 9999 BKN030 26/19 Q1015 RMK VIS MIN 9999

2010/08/09 15:50
LIPB 091550Z 15009KT 9999 FEW060 31/15 Q1013 RMK MON LIB VIS MIN 9999

2010/08/09 15:50
LIPO 091550Z 25004KT 200V280 9999 FEW040 29/17 Q1014 RMK VIS MIN 9999

2010/08/09 15:50
LIPY 091550Z 03007KT CAVOK 26/19 Q1014 RMK VIS MIN 9999

2010/08/09 15:50
LIRZ 091550Z 30009KT 260V330 9999 FEW035 31/13 Q1014 RMK VIS MIN 9999

2010/08/09 15:45
LIPH 091545Z 20005KT 9999 FEW020 28/20 Q1014 RMK FEW VIS MIN 9999 WIND THR07 /////KT BLU

2010/08/09 15:45
LIPR 091545Z 09007KT CAVOK 27/21 Q1014 RMK SKC VIS MIN 9999 WIND THR31 10006KT BLU

2010/08/09 15:45
LIPX 091545Z 15004KT 9999 FEW040 30/16 Q1014 RMK FEW VIS MIN 9999 BLU

2010/08/09 16:06
CYNE 091606Z AUTO 10003KT 060V140 9SM -RA FEW039 FEW047 FEW079 22/16 A2983

2010/08/09 15:55
LIED 091555Z 32013KT CAVOK 32/03 Q1015 RMK BKN BKN080 SCT090 VIS MIN 9999 BLU

2010/08/09 15:55
LIMN 091555Z 26006KT 200V300 CAVOK 27/17 Q1014 RMK FEW FEW200 VIS MIN 9999 BLU

2010/08/09 15:55
LIMS 091555Z 09003KT 9999 FEW040 29/18 Q1014 RMK SCT VIS MIN 9999 WIND THR30 08005KT BLU

2010/08/09 15:55
LIMU 091555Z 21009KT 9999 FEW013 25/21 Q1018 RMK BKN QUK 2 QUL 1 S VIS MAR 30 KM VIS MIN 9999

2010/08/09 15:55
LIMY 091555Z /////KT 9999 FEW020TCU SCT025 25/14 Q1016 RMK BKN VAL FOSCHIA VIS MIN 9999W

2010/08/09 15:55
LIPA 091555Z 26004KT 9999 FEW040 28/19 Q1014 RMK FEW VIS MIN 9999 A2996 BLU

2010/08/09 15:55
LIPC 091555Z 13008KT CAVOK 28/19 Q1014 RMK SKC VIS MIN 9999 WIND THR12 12008KT BLU

2010/08/09 15:55
LIPF 091555Z 00000KT 9999 FEW040 29/20 Q1014 RMK FEW VIS MIN 9999

2010/08/09 15:55
LIPL 091555Z 21003KT 9999 FEW040 31/20 Q1014 RMK FEW VIS MIN 9999 BLK BLU

2010/08/09 15:55
LIPS 091555Z 18006KT 9999 FEW030 29/17 Q1014 RMK FEW VIS MIN 9999 BLU

2010/08/09 15:45
LIPX 091545Z 15004KT 9999 FEW040 30/16 Q1014 RMK FEW VIS MIN 9999 BLU

2010/08/09 15:50
LIQN 091550Z 33007KT 9999 FEW040 30/15 Q1016 RMK VIS MIN 9999

2010/08/09 15:55
LIQW 091555Z 13002KT 9999 FEW030 27/20 Q1016 RMK FEW VIS MIN 9999 BLU

2010/08/09 15:55
LIRE 091555Z 28010KT CAVOK 27/24 Q1015 RMK SKC VIS MIN 9999 WIND THR31 27012KT BLU

2010/08/09 15:55
LIRG 091555Z 24010KT 9999 FEW035 32/16 Q1015 RMK FEW MON NE LIB NC VIS MIN 9999 BLU

2010/08/09 15:55
LIRH 091555Z 31005KT 9999 FEW045 33/15 Q1015 RMK FEW MON LIB NC VIS MIN 9999 WIND THR16 32010KT BLU

2010/08/09 15:55
LIRL 091555Z 23007KT 9999 FEW040 30/16 Q1015 RMK FEW MON LIB NC VIS MIN 9999 BLU

2010/08/09 15:55
LIRS 091555Z 22008KT 9999 FEW025 30/09 Q1015 RMK BKN SCT200 VIS MIN 9999 WIND THR21 /////KT BLU

2010/08/09 15:50
LIRU 091550Z 25010KT CAVOK 33/17 Q1014 RMK VIS MIN 9999

2010/08/09 15:55
LIRX 091555Z 36003KT CAVOK 26/16 Q1016 RMK SCT SCT200 VIS MIN 9999N VIS MAR 18 KM

2010/08/09 15:50
LIRZ 091550Z 30009KT 260V330 9999 FEW035 31/13 Q1014 RMK VIS MIN 9999

2010/08/09 15:55
LIVC 091555Z 00000KT 1200 BR BKN000 13/11 Q1025 RMK BKN MON INC VAL INVIS VIS MIN 1200

2010/08/09 15:55
LIVD 091555Z 00000KT 9999 FEW030 24/07 Q1018 RMK FEW VIS MIN 9999

2010/08/09 15:55
LIVE 091555Z 21004KT CAVOK 19/07 Q1018 RMK SKC VIS MIN 9999

2010/08/09 15:55
LIVO 091555Z 04001KT 9999 SCT030 23/16 Q1016 RMK SCT VIS MIN 9999

2010/08/09 15:55
LIVR 091555Z 14012KT 9999 BKN015 15/13 Q1023 RMK BKN MON CLD SCT VIS MIN 9999

2010/08/09 15:55
LIVT 091555Z 23002KT CAVOK 26/19 Q1014 RMK SKC QUK 1 QUL 0 VIS MAR 20 KM VIS MIN 9999

2010/08/09 15:50
PTYA 091550Z 19005KT 12SM SCT016 SCT030 BKN130 OVC300 26/23 A2985 RMK SLP110 T02630233

2010/08/09 15:55
PWAK 091555Z 07013KT 10SM SCT021 27/24 A3002 RMK AO2A

2010/08/09 16:07
LEGE 091607Z 09008KT 040V130 7000 FEW018 SCT030CB 23/19 Q1016 RETS RERA

2010/08/09 16:00
LPAZ 091600Z 06011KT 020V080 9999 FEW018 BKN038 24/17 Q1020

2010/08/09 16:00
LPFL 091600Z VRB03KT 9999 FEW020 25/18 Q1023

2010/08/09 16:00
LPHR 091600Z 04009KT 360V070 9999 FEW016 27/13 Q1022

2010/08/09 16:00
LPPD 091600Z 03010KT 350V070 9999 FEW022 BKN040 24/13 Q1020

2010/08/09 16:00
RPLL 091600Z 08006KT 9999 SCT023 BKN300 27/24 Q1009 NOSIG RMK A2980

2010/08/09 16:00
RPVM 091600Z 00000KT 9999 FEW020 BKN300 27/26 Q1011 A2987

2010/08/09 16:00
UAAA 091600Z 18003MPS 9999 SCT050CB BKN100 24/07 Q1009 88CLRD65 TEMPO TS

2010/08/09 16:00
UACC 091600Z 02004MPS 7000 BKN060 13/05 Q1013 040/0070 NOSIG RMK QFE728/0971

2010/08/09 16:00
UAFM 091600Z 20002MPS CAVOK 27/07 Q1009 NOSIG

2010/08/09 16:00
UARR 091600Z 01003MPS CAVOK 30/04 Q1015 04CLRD70 NOSIG RMK QFE757/1010

2010/08/09 16:00
UATE 091600Z 08005MPS 9999 SCT060CB BKN183 34/03 Q1009 120///70 NOSIG RMK QFE755/1007

2010/08/09 16:00
UATG 091600Z 23002MPS 9999 FEW033CB SCT133 33/09 Q1011 14CLRD70 NOSIG RMK QFE760/1013

2010/08/09 16:00
UATT 091600Z 05007MPS 8000 FU SKC 29/07 Q1015 31CLRD70 NOSIG RMK QFE741/0988

2010/08/09 16:00
UTAA 091600Z 33003MPS 9999 FEW230 33/07 Q1006 NOSIG

2010/08/09 16:00
UTAT 091600Z 30004MPS P5000 FEW200 31/14 Q1008 NOSIG

2010/08/09 16:00
UTDD 091600Z 05003MPS 9999 FEW066 FEW190 29/05 Q1005 09CLRD70 NOSIG RMK QFE686/0915

2010/08/09 16:00
UTDL 091600Z 24005MPS 9999 OVC140 30/10 Q1005 NOSIG RMK QFE716 8809//70

2010/08/09 16:00
UTAA 091600Z VRB02MPS 9999 FEW230 31/08 Q1008 NOSIG

2010/08/09 16:00
UTAM 091600Z 32003MPS 6300 SKC 32/09 Q1005 NOSIG

2010/08/09 16:00
SEGU 091600Z 23007KT 200V270 9999 BKN023 BKN100 26/19 Q1013 NOSIG

2010/08/09 16:00
SEQU 091600Z 11010G25KT 9999 FEW040 18/M01 Q1029 RMK A3039 NOSIG

2010/08/09 16:00
SEMT 091600Z 19009KT 9999 OVC016 25/20 Q1014

2010/08/09 16:00
SELT 091600Z 17007KT 9999 SCT040 16/04 Q1033

2010/08/09 15:50
ESNS 091550Z 02003KT 7000 -RA SCT015 BKN020 17/16 Q1009 REDZ

2010/08/09 15:50
EGDY 091550Z 20015KT 9999 FEW010 SCT020 19/16 Q1014 NOSIG

2010/08/09 16:00
UKCW 091600Z 08004MPS CAVOK 35/07 Q1012 0909//70 NOSIG

2010/08/09 16:00
UKKK 091600Z 23009G15MPS 7000 -TSRA SCT008 BKN030CB 29/13 Q1015 26CLRD70 TEMPO VRB12G17MPS 2000 TSRAGR BKN020CB

2010/08/09 16:00
UKKM 091600Z 04004MPS 020V090 9999 TS FEW034CB BKN100 30/20 Q1014

2010/08/09 16:00
UKLI 091600Z 00000MPS 9999 VCTS SCT023CB BKN033 23/18 Q1015 28090070 TEMPO VRB12MPS 3100 -TSRA

2010/08/09 16:00
UKLN 091600Z VRB02MPS CAVOK 24/17 Q1015 3309//70 TEMPO VRB12MPS -TSRA BKN030CB

2010/08/09 16:00
UKLU 091600Z 18001MPS 9999 FEW033CB SCT033 26/16 Q1015 10090070 NOSIG

2010/08/09 16:00
UKON 091600Z 14001MPS CAVOK 35/16 Q1010 05090075 NOSIG

2010/08/09 16:00
SVPR 091600Z 18010KT 9999 SCT050 XX/XX Q1016

2010/08/09 16:00
SVSP 091600Z 24006KT 9000 HZ BKN040 XX/XX Q1015

2010/08/09 16:00
SVST 091600Z 18006KT 9999 SCT015 XX/XX Q1016

2010/08/09 16:00
LERT 091600Z 28006KT CAVOK 33/17 Q1013 NOSIG

2010/08/09 15:55
PWAK 091555Z 07013KT 10SM SCT021 27/24 A3002 RMK AO2A

2010/08/09 16:00
CWAE 091600Z 18005KT 15SM FEW016 OVC040 14/12 A2993 RMK SC2SC6 WND ESTD SLP132

2010/08/09 16:00
CWCA 091600Z 21003KT 12SM -RA OVC070 14/13 A2966 RMK AC8 SLP044

2010/08/09 16:00
CWCL 091600Z AUTO 35003KT 4SM RA OVC013 09/08 A2995 RMK SLP145

2010/08/09 16:00
CWDL 091600Z 00000KT 15SM FEW015 FEW050 SCT070 09/06 A2995 RMK SF1CU1AC1 SLP148

2010/08/09 16:00
CWEU 091600Z 27012KT 40SM FEW020 FEW025 FEW075 02/M00 A3002 RMK SF1SC1AC1 SLP169

2010/08/09 16:00
CWFD 091600Z AUTO 36019G25KT 0SM 06/ RMK ALTM MISG

2010/08/09 16:00
CWHN 091600Z AUTO 23002KT 9SM CLR 21/13 A2979 RMK SLP092

2010/08/09 16:00
CWIL 091600Z AUTO 19013KT 16/ A2985 RMK SLP114

2010/08/09 16:00
CWKM 091600Z AUTO 10014KT 08/ A2976 RMK SLP085

2010/08/09 16:00
CWKW 091600Z AUTO 01006G16KT 09/ A2963 RMK SLP052

2010/08/09 16:00
CWLI 091600Z AUTO 24008KT 08/ A2981 RMK SLP105

2010/08/09 16:00
CWLX 091600Z AUTO 06008KT 16/ A2985 RMK SLP117

2010/08/09 16:00
CWLY 091600Z AUTO 18010KT 9SM FEW077 FEW088 FEW097 18/12 A2985 RMK SLP108

2010/08/09 16:00
CWOB 091600Z AUTO ///// 0SM CLR 04/ A2969 RMK SLP090

2010/08/09 16:00
CWRH 091600Z AUTO ///// 04/ A2974 RMK SLP097

2010/08/09 16:00
CWRX 091600Z AUTO 02002KT 15/ A2987

2010/08/09 16:00
CWSA 091600Z AUTO 14010KT 9SM -RA FEW092 20/18 A3012 RMK SLP199

2010/08/09 16:00
CWSW 091600Z 04004KT 20SM FEW046 BKN250 14/10 A2994 RMK CU1CI2 SLP136

2010/08/09 16:00
CWTU 091600Z AUTO 16027KT 10/ A2957 RMK SLP029

2010/08/09 16:00
CWUP 091600Z AUTO 02006KT 03/ A2989 RMK SLP146

2010/08/09 16:00
CWUW 091600Z AUTO ///// 9SM CLR 12/ A2986 RMK SLP138

2010/08/09 16:00
CWVD 091600Z AUTO ///// 07/ A2985 RMK SLP139

2010/08/09 16:00
CWVH 091600Z AUTO 18005KT 07/ A2978 RMK SLP100

2010/08/09 16:00
CWXR 091600Z AUTO 00000KT 07/ A2982 RMK SLP107

2010/08/09 16:00
CWYK 091600Z AUTO ///// 10/ A2954 RMK SLP022

2010/08/09 16:00
CWYM 091600Z AUTO 05023G31KT 06/ RMK ALTM MISG SLP110

2010/08/09 16:00
CWZZ 091600Z AUTO ///// 1/8SM CLR 07/ A2960 RMK SLP042

2010/08/09 16:00
CYAH 091600Z 28006KT 10SM BKN010 OVC033 11/10 A2972 RMK SF6SC2 SLP075

2010/08/09 16:00
CYAM 091600Z 12009KT 15SM FEW020 SCT060 BKN078 BKN180 25/20 A2990 RMK CF2SC2AC2AC1 TR AC HIER LYR SLP125

2010/08/09 16:00
CYAS 091600Z 02023G32KT 2SM BR OVC003 07/06 A2972 RMK FG5ST3 VIS S 4 CIG ESTD DUE STG WND SLP071

2010/08/09 16:00
CYAY 091600Z AUTO 23020G27KT 9SM FEW032 BKN051 22/15 A2979 RMK SLP089 DENSITY ALT 1000FT MAX WND 24030KT AT 1534Z

2010/08/09 16:00
CYAZ 091600Z 24003KT 2SM BR SCT002 OVC005 13/12 A2997 RMK SF2ST6 VIS VRB 1-3 SLP148

2010/08/09 16:00
CYBB 091600Z 26003KT 15SM FEW100 BKN220 17/06 A2995 RMK AC1CI2 SLP144

2010/08/09 16:00
CYBC 091600Z AUTO 23019KT 9SM CLR 20/16 A2977 RMK SLP084

2010/08/09 16:00
CYBD 091600Z 27003KT 15SM FEW020 FEW060TCU BKN075TCU BKN120 15/12 A2999 RMK SC1TCU2TCU2AC2 SLP155

2010/08/09 16:00
CYBK 091600Z 10002KT 20SM FEW030 15/10 A3000 RMK SC1 SLP159

2010/08/09 16:00
CYBL 091600Z 29003KT 30SM -SHRA FEW015 SCT080 BKN140 OVC250 14/10 A2997 RMK SF1AC3AC2CI1 SLP148

2010/08/09 16:00
CYBN 091600Z AUTO 23005KT 9SM FEW068 28/20 A2991 RMK SLP128

2010/08/09 16:00
CYBR 091600Z 19006KT 15SM BKN150 BKN250 25/19 A2983 RMK AC6CI2 SLP099

2010/08/09 16:00
CYBU 091600Z AUTO 27005KT 220V310 9SM FEW017 21/17 A2978 RMK SLP086 DENSITY ALT 2300FT

2010/08/09 16:00
CYBV 091600Z 19005KT 15SM FEW040 FEW280 SCT300 25/20 A2983 RMK SC2CC1CI1 SLP103

2010/08/09 16:00
CYBW 091600Z 01003KT 30SM FEW040 FEW120 SCT220 16/10 A2986 RMK CU1AC2CI1 SLP113

2010/08/09 16:00
CYBX 091600Z 21015KT 1 3/4SM BR OVC002 16/15 A2978 RMK FG3SF5 SLP087

2010/08/09 16:00
CYCB 091600Z 04010KT 15SM FEW005 15/12 A2981 RMK SF1 TR SF FU SLP096

2010/08/09 16:00
CYCD 091600Z 00000KT 30SM FEW012 BKN045 OVC240 16/12 A2995 RMK SF1SC6CI2 SLP142

2010/08/09 16:00
CYCO 091600Z 05003KT 2SM -DZ BR OVC005 09/09 A2980 RMK FG2ST6 BLN EST SLP093

2010/08/09 16:00
CYCP 091600Z 00000KT 1 1/2SM -RA BR SCT008 BKN015 OVC055 12/12 A2990 RMK FG2ST2ST3SC2 VIS N-E 4 SLP131

2010/08/09 16:00
CYCQ 091600Z 22005KT 35SM FEW040 FEW200 16/07 A2977 RMK CU1CI0 SLP089

2010/08/09 16:00
CYCX 091600Z 17008KT 3SM -SHRA BR FEW008 BKN020 OVC040 19/19 A2992 RMK SF1ST6SC2 DA+993FT SLP130

2010/08/09 16:00
CYCY 091600Z 07003KT 25SM SCT013 SCT070 09/05 A2995 RMK SF2AC0 SLP143

2010/08/09 16:00
CYDA 091600Z 01006KT 20SM FEW060 BKN100 BKN240 11/09 A2971 RMK SC1AS4CI1 SLP072

2010/08/09 16:00
CYDB 091600Z 13004KT 25SM FEW055 FEW080 BKN110 BKN240 09/04 A2975 RMK SC1AC2AC2CS2 ACSL SLP092

2010/08/09 16:00
CYDC 091600Z 00000KT 15SM OVC055 13/08 A2991 RMK SC7 SLP122

2010/08/09 16:00
CYDF 091600Z 24015G25KT 15SM SCT035 SCT065 BKN110 24/15 A2993 RMK SC3SC1AC2 SLP136

2010/08/09 16:00
CYDN 091600Z AUTO VRB02KT 9SM CLR 28/16 A2978 RMK SLP085 DENSITY ALT 2800FT

2010/08/09 16:00
CYDP 091600Z 08010KT 15SM BKN028 BKN085 15/10 A2955 RMK SC5AC2 SLP007

2010/08/09 16:00
CYED 091600Z AUTO 00000KT 9SM BKN081 19/11 A2981 RMK SLP096

2010/08/09 16:00
CYEK 091600Z 05006KT 15SM OVC063 11/10 A3002 RMK ST7 SLP166

2010/08/09 16:00
CYEL 091600Z 09002KT 10SM FEW015 SCT150 BKN220 25/18 A2993 RMK CU1AC2CC2 WNDS ESTD/ SLP135

2010/08/09 16:00
CYEN 091600Z 01012KT 15SM FEW140 SCT260 26/16 A2984 RMK AC1CI0 SLP102

2010/08/09 16:00
CYET 091600Z AUTO 36002KT 9SM BKN080 14/11 A2982 RMK SLP101

2010/08/09 16:00
CYEV 091600Z 18004KT 15SM FEW008 SCT015 SCT220 09/09 A2980 RMK SF2SC1CI0 SLP095

2010/08/09 16:00
CYFO 091600Z 11006KT 15SM OVC009 18/17 A2977 RMK SC8 SLP084

2010/08/09 16:00
CYFR 091600Z 24004KT 15SM FEW020 FEW090 FEW140 BKN270 18/15 A2969 RMK CF1AC1AC1CI2 210V270 SLP059

2010/08/09 16:00
CYFS 091600Z 34009KT 15SM OVC008 17/16 A2964 RMK SF8 CIG RAG SLP040

2010/08/09 16:00
CYGE 091600Z 00000KT 30SM SCT030 BKN080 BKN130 17/13 A2988 RMK SC3AC2AC2 SLP119

2010/08/09 16:00
CYGH 091600Z 00000KT 25SM BKN070 BKN075 13/11 A2978 RMK AS6AC1 SLP089

2010/08/09 16:00
CYGK 091600Z 17009KT 10SM SCT070 BKN180 24/21 A2995 RMK CU3AC2 SLP141

2010/08/09 16:00
CYGP 091600Z 23014KT 15SM SCT035 SCT150 24/16 A2980 RMK CU3AS1 SLP092

2010/08/09 16:00
CYGR 091600Z 21013G22KT 20SM FEW020 BKN120 OVC230 20/16 A2996 RMK CU1AC6CI1 SLP144

2010/08/09 16:00
CYGT 091600Z 33010KT 15SM FEW020 16/05 A2991 RMK SC1 SC DISTANT SE SLP133

2010/08/09 16:00
CYGV 091600Z AUTO 24014KT 9SM CLR 19/14 A2976 RMK SLP078

2010/08/09 16:00
CYGW 091600Z 26010KT 3SM BR OVC006 11/10 A2976 RMK SC8 SLP078

2010/08/09 16:00
CYGX 091600Z 36005KT 15SM SCT080 SCT200 18/09 A2995 RMK AS2CI0 SLP146

2010/08/09 16:00
CYHA 091600Z 36005KT 15SM MIFG FEW002 SCT007 OVC015 06/05 A2977 RMK SF2SF2SC3 U2A U/S SLP085

2010/08/09 16:00
CYHD 091600Z AUTO 28002KT 9SM CLR 22/18 A2989 RMK PCPN 0.5MM PAST HR SLP124

2010/08/09 16:00
CYHE 091600Z AUTO 30007KT 260V320 9SM OVC024 OVC052 OVC059 OVC079 17/14 A2991 RMK SLP130

2010/08/09 16:00
CYHH 091600Z 27010KT 10SM -SHRA BKN008 OVC012 13/12 A2983 RMK SC6SC2 SLP111

2010/08/09 16:00
CYHK 091600Z 20008KT 15SM FEW100 SCT110 13/09 A2991 RMK AC1AS2 SLP133

2010/08/09 16:00
CYHM 091600Z 22008KT 15SM SCT080 BKN160 OVC220 26/22 A2996 RMK AC3AS4CI1 SLP144

2010/08/09 16:00
CYHU 091600Z AUTO 24009KT 210V270 9SM BKN012 OVC019 23/22 A2992 RMK SLP133 DENSITY ALT 1000FT RVR MISG

2010/08/09 16:00
CYHY 091600Z 18007KT 15SM FEW070 SCT230 18/12 A2967 RMK AC1CI0 SLP050

2010/08/09 16:00
CYIK 091600Z 36004KT 15SM FEW017 FEW060 FEW130 FEW200 FEW250 13/06 A2985 RMK CU1SC1AS1CI1CS1 SLP112

2010/08/09 16:00
CYIO 091600Z 32002KT 30SM FEW025 FEW076 OVC250 09/05 A2992 RMK SC2AC1CS3 SLP137

2010/08/09 16:00
CYIV 091600Z 09002KT 15SM FEW050 FEW100 BKN250 21/12 A2989 RMK SC1AC0CI0 SLP128

2010/08/09 16:00
CYJF 091600Z 05004KT 8SM -RA FEW008 BKN030 BKN080 OVC120 15/14 A2969 RMK SF1SC4AC2AS1 SLP056

2010/08/09 16:00
CYKA 091600Z 29002KT 40SM BKN082 BKN220 19/12 A2986 RMK AC6CI2 SLP107

2010/08/09 16:00
CYKD 091600Z 16005KT 10SM -DZ OVC010 10/08 A2979 RMK SC8 SLP089

2010/08/09 16:00
CYKF 091600Z AUTO 19005KT 7SM CLR 25/21 A2996 RMK SLP140 DENSITY ALT 2400FT

2010/08/09 16:00
CYKG 091600Z 36013G20KT 15SM BKN015 09/07 A2978 RMK SC6 SLP093

2010/08/09 16:00
CYKJ 091600Z AUTO 11006KT 6SM -RA OVC005 16/15 A2975 RMK SLP086 DENSITY ALT 2300FT

2010/08/09 16:00
CYKO 091600Z 35008KT 15SM FEW022 FEW220 13/08 A2984 RMK CU1CI2 SLP105

2010/08/09 16:00
CYKQ 091600Z 26004KT 15SM FEW025 20/14 A2983 RMK CU2 SLP103

2010/08/09 16:00
CYKY 091600Z 00000KT 12SM FEW250 18/16 A2987 RMK CI0 SLP118

2010/08/09 16:00
CYKZ 091600Z 22005KT 10SM SCT068 BKN100 OVC230 28/21 A2993 RMK AC3AC2CI2 HZ SLP133

2010/08/09 16:00
CYLD 091600Z 21007KT 15SM FEW230 25/13 A2992 RMK CI1 SLP133

2010/08/09 16:00
CYLJ 091600Z 25004KT 15SM FEW250 21/15 A2979 RMK CI1 SLP092

2010/08/09 16:00
CYLL 091600Z 20004KT 15SM FEW300 20/14 A2983 RMK CI2 SLP104

2010/08/09 16:00
CYLT 091600Z 31008KT 5SM -SN OVC008 M01/M02 A3000 RMK SF8 SLP164

2010/08/09 16:00
CYLU 091600Z 36007KT 10SM BKN020 BKN080 13/11 A2957 RMK SC5AS2 SLP015

2010/08/09 16:00
CYLW 091600Z AUTO 18007KT OVC076 19/09 A2985 RMK SLP106 DENSITY ALT 2200FT WX MISG VIS MISG ICG MISG

2010/08/09 16:00
CYMA 091600Z 10003KT 20SM BCFG FEW045 SCT090 BKN230 12/09 A2977 RMK SC1AS2CI2 SLP092

2010/08/09 16:00
CYMJ 091600Z 00000KT 10SM FEW120 21/16 A2988 RMK AC1 SLP120

2010/08/09 16:00
CYMO 091600Z AUTO 24003KT 9SM CLR 23/12 A2983 RMK SLP101

2010/08/09 16:00
CYMT 091600Z 25009G15KT 15SM BKN030 20/13 A2987 RMK CU5 SLP120

2010/08/09 16:00
CYMU 091600Z 19005KT 6SM BR FEW004 BKN006 10/10 A2971 RMK SF2SC6 SLP064

2010/08/09 16:00
CYNA 091600Z AUTO 23010KT 9SM CLR 20/15 A2979 RMK SLP088

2010/08/09 16:00
CYND 091600Z 14004KT 15SM FEW025 FEW050 25/19 A2993 RMK CU2SC1 SLP135

2010/08/09 16:00
CYNE 091600Z AUTO 09005KT 060V150 9SM FEW036 FEW047 FEW069 FEW079 23/16 A2983 RMK SLP107

2010/08/09 16:00
CYNM 091600Z AUTO 28006KT 250V320 9SM CLR 24/11 A2986 RMK PCPN 0.5MM PAST HR SLP115

2010/08/09 16:00
CYOA 091600Z 08009KT 3SM FU FEW080 17/12 A2978 RMK AC2 SLP098

2010/08/09 16:00
CYOC 091600Z 02008KT 30SM FEW005 FEW032 FEW210 11/07 A2971 RMK SF1SC1CI0 SLP072

2010/08/09 16:00
CYOD 091600Z 20003KT 15SM FEW090 BKN250 19/14 A2980 RMK AC2CI0 SLP095

2010/08/09 16:00
CYOJ 091600Z 12002KT 15SM FEW022 FEW200 17/11 A2970 RMK CF1CI0 SLP066

2010/08/09 16:00
CYOY 091600Z AUTO 22006KT 150V250 9SM SCT013 SCT033 SCT038 SCT070 21/17 A2989 RMK SLP122

2010/08/09 16:00
CYPA 091600Z 22003KT 15SM FEW020 22/17 A2979 RMK CU1 TR CU SLP090

2010/08/09 16:00
CYPE 091600Z 24008KT 15SM FEW080 FEW250 17/07 A2976 RMK AC1CI2 SLP082

2010/08/09 16:00
CYPG 091600Z 15007KT 12SM FEW160 28/15 A2982 RMK AC1 SLP099

2010/08/09 16:00
CYPH 091600Z 04011KT 15SM BKN024 BKN230 15/09 A2975 RMK SC6CI1 SLP076

2010/08/09 16:00
CYPQ 091600Z AUTO ///// 7SM FEW040 FEW046 SCT069 SCT083 26/23 A2992 RMK SLP131

2010/08/09 16:00
CYPR 091600Z AUTO 00000KT BKN004 OVC017 12/11 A3001 RMK SLP165

2010/08/09 16:00
CYPW 091600Z 28007KT 25SM -SHRA FEW012 FEW040 FEW060 OVC080 14/11 A2996 RMK SF1SC1SC2AC6 SLP147

2010/08/09 16:00
CYPY 091600Z AUTO 32004KT 290V030 9SM CLR 19/14 A2972 RMK SLP069

2010/08/09 16:00
CYQA 091600Z AUTO VRB03KT 7SM OVC014 24/21 A2993 RMK SLP135 DENSITY ALT 2100FT

2010/08/09 16:00
CYQD 091600Z 16007KT 15SM -RA FEW007 BKN040 OVC090 19/18 A2978 RMK SF1SC6AS2 SLP088

2010/08/09 16:00
CYQF 091600Z 00000KT 15SM FEW100 FEW260 16/12 A2984 RMK AC1CI1 SLP111

2010/08/09 16:00
CYQH 091600Z 30005KT 20SM SCT035 BKN050 14/09 A2982 RMK SC3SC1 FU NW-NE SLP108

2010/08/09 16:00
CYQI 091600Z 18015G23KT 15SM FEW025 BKN150 OVC250 22/17 A3003 RMK CU1AC5CI0 TR CU SLP170

2010/08/09 16:00
CYQK 091600Z 00000KT 15SM FEW015 SCT240 24/19 A2990 RMK CF1CI1 SLP124

2010/08/09 16:00
CYQL 091600Z 27010KT 40SM FEW050 SCT250 21/12 A2985 RMK CU1CI1 SLP104

2010/08/09 16:00
CYQR 091600Z 33005KT 15SM FEW110 21/17 A2986 RMK AC1 SLP115

2010/08/09 16:00
CYQT 091600Z 33003KT 20SM FEW020 25/18 A2986 RMK SC1 SLP114

2010/08/09 16:00
CYQU 091600Z 25010G15KT 25SM FEW035 FEW090 BKN250 16/06 A2980 RMK CU1AC2CI2 SLP095

2010/08/09 16:00
CYQV 091600Z AUTO 28008KT 9SM CLR 22/17 A2981 RMK SLP098

2010/08/09 16:00
CYQW 091600Z AUTO 24003KT 9SM CLR 20/14 A2985 RMK SLP111 DENSITY ALT 2800FT

2010/08/09 16:00
CYQZ 091600Z AUTO 14003KT 9SM FEW009 BKN061 OVC073 12/10 A2993 RMK SLP145 DENSITY ALT 1800FT

2010/08/09 16:00
CYRJ 091600Z 13004KT 20SM BKN030 BKN140 23/16 A2985 RMK CU6AC1 SLP109

2010/08/09 16:00
CYRL 091600Z 17002KT 15SM FEW012 23/20 A2988 RMK CU2 SLP119

2010/08/09 16:00
CYRT 091600Z 00000KT 15SM BKN070 15/11 A3003 RMK AC6 SLP172

2010/08/09 16:00
CYRV 091600Z AUTO 00000KT 6SM -RA BKN014 BKN063 BKN079 16/15 A2986 RMK SLP112

2010/08/09 16:00
CYSB 091600Z 15006KT 15SM BKN150 23/17 A2994 RMK AC4 SLP139

2010/08/09 16:00
CYSC 091600Z AUTO 26005KT 9SM FEW017 BKN025 OVC033 21/18 A2994 RMK DENSITY ALT 1600FT

2010/08/09 16:00
CYSF 091600Z AUTO 07006KT 3SM HZ OVC034 16/14 A2976 RMK SLP086 DENSITY ALT 1200FT

2010/08/09 16:00
CYSK 091600Z 01010KT 15SM FEW005 12/09 A2976 RMK SF1 SLP079

2010/08/09 16:00
CYSL 091600Z 30004KT 15SM OVC035 20/16 A2989 RMK SC8 SLP123

2010/08/09 16:00
CYSM 091600Z 00000KT 15SM FEW010 SCT110 OVC220 17/15 A2972 RMK SF1AC2CS4 SLP069

2010/08/09 16:00
CYSN 091600Z 22004KT 8SM BKN075 OVC110 27/21 A2994 RMK AC6AC2 SLP137

2010/08/09 16:00
CYSR 091600Z 15010KT 15SM FEW020 SCT050 BKN090 BKN120 09/07 A2986 RMK ST1SC2AS3AC1 SLP147

2010/08/09 16:00
CYTH 091600Z 11008G15KT 15SM SCT060 BKN230 20/10 A2990 RMK SC3CI2 SLP130

2010/08/09 16:00
CYTQ 091600Z 02010KT 15SM BKN012 BKN050 08/07 A2968 RMK SC7SC1 SLP054

2010/08/09 16:00
CYTS 091600Z 27004KT 15SM FEW040 SCT160 26/14 A2989 RMK SC2AC2 SLP122

2010/08/09 16:00
CYTZ 091600Z AUTO 21011KT 9SM FEW086 23/20 A2992 RMK SLP134 DENSITY ALT 1200FT RVR MISG

2010/08/09 16:00
CYUA 091600Z AUTO 10006KT 9SM SCT007 BKN056 08/ A2977 RMK SLP086

2010/08/09 16:00
CYUB 091600Z 21006KT 15SM BKN005 BKN210 08/06 A2980 RMK SC7CI0 SLP092

2010/08/09 16:00
CYUS 091600Z AUTO ///// 9SM CLR 16/ A2992 RMK SLP137

2010/08/09 16:00
CYUT 091600Z 32007KT 45SM SKC 19/05 A2994 RMK SLP140

2010/08/09 16:00
CYUX 091600Z 02010KT 15SM FEW270 09/05 A2991 RMK CI1 SLP129

2010/08/09 16:00
CYVC 091600Z 22003KT 15SM FEW008 FEW020 SCT100 20/17 A2975 RMK SF2SC1AC2 SLP077

2010/08/09 16:00
CYVM 091600Z 04009KT 1 1/2SM -DZ BR OVC003 05/05 A2992 RMK FG6ST2 SLP131

2010/08/09 16:00
CYVO 091600Z 34003KT 15SM FEW040 FEW250 SCT290 24/14 A2992 RMK CF1CC1CI1 SLP134

2010/08/09 16:00
CYVQ 091600Z 00000KT 30SM FEW040 BKN090 BKN250 16/13 A2976 RMK SC2AC3CI2 SLP080

2010/08/09 16:00
CYVT 091600Z 00000KT 15SM SCT005 BKN012 BKN080 BKN220 19/17 A2974 RMK SF3SC2AC1CI1 SLP077

2010/08/09 16:00
CYVV 091600Z 24003KT 4SM -SHRA BR FEW010 OVC017 25/22 A2992 RMK SF2SC6 SLP131

2010/08/09 16:00
CYWA 091600Z AUTO 06004KT 9SM CLR 22/19 A2993 RMK SLP138

2010/08/09 16:00
CYWH 091600Z 22003KT 15SM FEW005 BKN018 BKN060 14/11 A2995 RMK SF1SC6SC1 SLP142

2010/08/09 16:00
CYWJ 091600Z 29005KT 40SM FEW010 SCT015 BKN080 BKN120 14/11 A2971 RMK ST1SC2AC2AC1 SLP066

2010/08/09 16:00
CYWL 091600Z 18002KT 12SM -RA FEW006 OVC050 09/09 A2995 RMK SF1SC7 SLP145

2010/08/09 16:00
CYXC 091600Z 13002KT 25SM FEW015 FEW050 SCT080 BKN120 BKN260 16/12 A2992 RMK SF1CU1AC3AC1CI2 TR SF SLP126

2010/08/09 16:00
CYXD 091600Z AUTO 00000KT 9SM SCT079 19/11 A2980 RMK SLP089

2010/08/09 16:00
CYXE 091600Z 24007KT 15SM SKC 20/17 A2983 RMK HZ SLP106

2010/08/09 16:00
CYXH 091600Z 21004KT 30SM FEW080 FEW270 21/13 A2985 RMK AC1CI0 SLP105

2010/08/09 16:00
CYXJ 091600Z 25014KT 15SM FEW100 FEW220 15/06 A2975 RMK AC1CI1 SLP083

2010/08/09 16:00
CYXL 091600Z 29003KT 15SM FEW230 24/18 A2989 RMK CI1 SLP122

2010/08/09 16:00
CYXQ 091600Z 00000KT 30SM -RA FEW045 BKN075 OVC140 08/06 A2972 RMK SC2AC4AS2 PCPN VRY LGT CLIMAT 20.0/7.0/1.0 MM SLP078

2010/08/09 16:00
CYXR 091600Z AUTO 20005KT 060V220 9SM CLR 26/15 A2990 RMK SLP117

2010/08/09 16:00
CYXS 091600Z AUTO 20007KT 170V230 9SM OVC071 13/09 A2989 RMK SLP136 DENSITY ALT 2500FT

2010/08/09 16:00
CYXT 091600Z 22002KT 20SM FEW012 FEW036 BKN061 BKN085 13/10 A3002 RMK CF2CU1SC4AC2 SLP168

2010/08/09 16:00
CYXZ 091600Z 27003KT 240V310 15SM BKN025 BKN040 OVC090 23/15 A2990 RMK SC5SC2AC1 TR AC SLP127

2010/08/09 16:00
CYYB 091600Z 16005KT 7SM FEW020 FEW100 BKN200 23/19 A2994 RMK CU1AC2CI3 TR CU SLP140

2010/08/09 16:00
CYYD 091600Z 27004KT 25SM FEW030 BKN060 13/08 A2994 RMK CU2SC3 SLP143

2010/08/09 16:00
CYYF 091600Z 00000KT 15SM FEW080 BKN110 BKN240 21/10 A2985 RMK CU2AC2CI1 SLP104

2010/08/09 16:00
CYYG 091600Z 19010KT 15SM -SHRA OVC082 20/16 A3000 RMK AC8 PCPN VRY LGT SLP159

2010/08/09 16:00
CYYH 091600Z 17009KT 15SM FEW090 FEW250 16/08 A2991 RMK AC1CI1 SLP130

2010/08/09 16:00
CYYL 091600Z AUTO 14010KT 9SM OVC040 16/09 A2986 RMK SLP120 DENSITY ALT 1600FT MAX WND 15017KT AT 1502Z

2010/08/09 16:00
CYYN 091600Z AUTO 26002KT 9SM CLR 20/14 A2989 RMK SLP114

2010/08/09 16:00
CYYU 091600Z 28003KT 15SM BKN100 BKN120 22/15 A2989 RMK AC5AS2 SLP125

2010/08/09 16:00
CYYY 091600Z 26013KT 15SM FEW028 SCT280 25/17 A2980 RMK CU1CI1 SLP092

2010/08/09 16:00
CYZE 091600Z AUTO VRB04KT 9SM BKN018 24/20 A2991 RMK DENSITY ALT 1800FT

2010/08/09 16:00
CYZG 091600Z 00000KT 15SM FEW011 OVC060 09/07 A2985 RMK CF2SC6 SLP121

2010/08/09 16:00
CYZH 091600Z AUTO 28006KT 270V330 9SM CLR 18/09 A2980 RMK SLP097

2010/08/09 16:00
CYZP 091600Z AUTO 25007KT 9SM -RA BKN030 OVC035 14/12 A3002 RMK SLP167

2010/08/09 16:00
CYZR 091600Z AUTO 23004KT 200V310 8SM FEW056 27/20 A2993 RMK SLP134 DENSITY ALT 2000FT

2010/08/09 16:00
CYZS 091600Z 00000KT 15SM FEW030 FEW090 FEW210 20/05 A2991 RMK SC1AC2CI1 SLP133

2010/08/09 16:00
CYZT 091600Z 25006KT 20SM FEW025 FEW084 BKN140 15/10 A3002 RMK SC1AC1AC3 SLP164

2010/08/09 16:00
CYZU 091600Z 00000KT 15SM FEW110 SCT250 16/12 A2982 RMK AC1CI1 SLP103

2010/08/09 16:00
CYZW 091600Z 12003KT 30SM FEW170 BKN250 12/06 A2989 RMK AC1CI1 SLP133

2010/08/09 16:00
CZCP 091600Z AUTO 08014KT 1 1/8SM CLR 06/ A2983 RMK SLP108

2010/08/09 16:00
CZFA 091600Z 00000KT 30SM FEW080 BKN240 10/06 A2982 RMK AC1CI1 SLP113

2010/08/09 16:00
CZFM 091600Z 17003KT 10SM SCT015 BKN020 11/09 A2979 RMK SC2SC4 SLP091

2010/08/09 16:00
CZFN 091600Z 26005KT 30SM FEW013 SCT040 BKN100 18/12 A2975 RMK SC1SC2AC3 SLP079

2010/08/09 16:00
CZPC 091600Z AUTO 25013KT 9SM CLR 19/10 A2988 RMK SLP106

2010/08/09 16:00
CZST 091600Z 00000KT 15SM FEW012 SCT057 BKN065 OVC100 13/11 A3001 RMK SC2SC2SC2AC2 SLP162

2010/08/09 16:00
CZUM 091600Z AUTO 28012KT 9SM BKN029 BKN075 15/10 A2962 RMK SLP040

2010/08/09 15:50
EGUB 091550Z 23014KT 9999 -RA FEW015 BKN035 BKN045 21/14 Q1013 BECMG BKN020

2010/08/09 15:50
EGXT 091550Z 24014KT 9999 BKN045 BKN100 23/10 Q1011 NOSIG

2010/08/09 16:00
FMSD 091600Z 06019KT 9999 FEW017 21/19 Q1018

2010/08/09 16:00
FOOT 091600Z 22005KT 7000 SCT010 OVC023 24/22 Q////

2010/08/09 16:06
KCBE 091606Z AUTO 00000KT 10SM CLR 30/18 A3007 RMK AO1

2010/08/09 16:06
KFME 091606Z AUTO 21006KT 10SM CLR 30/20 A3004 RMK AO1

2010/08/09 16:00
LEGT 091600Z VRB03KT 9999 FEW050 34/13 Q1017

2010/08/09 16:00
LERI 091600Z 08010KT CAVOK 35/21 Q1014 NOSIG

2010/08/09 16:00
LFOJ 091600Z 23006KT 170V280 CAVOK 28/07 Q1015

2010/08/09 15:50
LIMP 091550Z VRB03KT 9999 FEW030 29/17 Q1014 RMK VIS MIN 9999

2010/08/09 15:55
LIRM 091555Z 25011KT 9999 FEW030 31/27 Q1016 RMK FEW VIS MIN 9999 WIND THR06 25012KT BLU

2010/08/09 16:00
LKCV 091600Z VRB02KT 9999 FEW037 SCT110 22/15 Q1016 NOSIG

2010/08/09 16:00
LKKB 091600Z 29004KT 260V330 CAVOK 22/13 Q1016 NOSIG

2010/08/09 16:00
LKKV 091600Z 27004KT 9999 FEW030 18/12 Q1018 RMK REG QNH 1012

2010/08/09 16:00
LKLN 091600Z AUTO VRB03KT CAVOK 22/14 Q1017

2010/08/09 16:00
LKNA 091600Z 01005KT 340V060 9999 FEW042 SCT090 21/13 Q1017 NOSIG

2010/08/09 16:00
LKPD 091600Z 27004KT 9999 FEW033 BKN100 21/14 Q1016 NOSIG

2010/08/09 16:00
LKPO 091600Z 30004KT 260V360 9999 FEW040 22/15 Q1016 NOSIG

2010/08/09 16:00
TRPG 091600Z 10012KT 9999 FEW020 BKN040 27/24 Q1016

2010/08/09 16:00
UDYZ 091600Z 04006MPS 9999 FEW100 32/08 Q1008 09010070 NOSIG

2010/08/09 16:00
CYMA 091600Z CCA 10003KT 20SM FEW045 SCT090 BKN230 12/09 A2977 RMK SC1AS2CI2 SLP092

2010/08/09 15:56
KNUW 091556Z 21007KT 6SM BR BKN006 OVC020 14/11 A2996 RMK AO2 SLP149 T01360114 $

2010/08/09 15:55
KNYL 091555Z 02003KT 10SM FEW080 31/02 A2980 RMK AO2 SLP089 T03110017

2010/08/09 16:00
LKKV 091600Z 27004KT 9999 FEW030 18/12 Q1018 RMK REG QNH 1012

2010/08/09 15:59
MYEG 091559Z AUTO 11007KT 10SM CLR 28/23 A2999 RMK AO2

2010/08/09 16:00
OIAW 091600Z 18004KT CAVOK 42/12 Q0995 A2941

2010/08/09 16:00
OIFM 091600Z 04004KT 9999 FEW040 30/M01 Q1015 A2998

2010/08/09 16:00
OIMM 091600Z 36010KT CAVOK 30/M01 Q1013 A2992

2010/08/09 16:00
OISS 091600Z 09004KT CAVOK 32/M09 Q1011 A2988

2010/08/09 16:00
OITT 091600Z 05018KT 9999 FEW040TCU FEW045CB 30/08 Q1014 A2995

2010/08/09 15:57
PHNG 091557Z AUTO VRB03G14KT 10SM CLR 25/18 A3009 RMK AO2 SLP183 T02500178 $

2010/08/09 15:55
PWAK 091555Z 07013KT 10SM SCT021 27/24 A3002 RMK AO2A

2010/08/09 15:58
ROTM 091558Z 18018G27KT 8000 -RA BKN008 OVC040 27/25 A2974 RMK PK WND 17032/29 SLP056 WND WRNG XWND ADV P0000 T02720250

2010/08/09 16:00
TDCF 091600Z 32003KT 9999 -SHRA BKN020 FEW///CB 30/24 Q1015

2010/08/09 16:00
TDPD 091600Z 10011KT 9999 SCT019 SCT270 30/23 Q1015

2010/08/09 16:00
TVSV 091600Z 12008KT 9999 SCT022 SCT038 31/25 Q1015/ TCU-N

2010/08/09 16:00
UACC 091600Z 02004MPS 7000 BKN060 13/05 Q1013 040/0070 NOSIG RMK QFE728/0971

2010/08/09 16:00
UAFM 091600Z 20002MPS CAVOK 27/07 Q1009 NOSIG

2010/08/09 16:00
UATT 091600Z 05007MPS 8000 FU SKC 29/07 Q1015 31CLRD70 NOSIG RMK QFE741/0988

2010/08/09 16:00
ZBHH 091600Z 06003MPS CAVOK 15/08 Q1012 NOSIG

2010/08/09 16:00
ZHHH 091600Z 11003MPS 3500 BR SKC 30/29 Q1003 NOSIG

2010/08/09 16:00
ZSNJ 091600Z 07005MPS CAVOK 28/24 Q1004 NOSIG

2010/08/09 16:00
ZUCK 091600Z 36002MPS CAVOK 32/21 Q1003 NOSIG

2010/08/09 16:00
ZWSH 091600Z 07002MPS CAVOK 29/08 Q1009 NOSIG

2010/08/09 16:00
GQPP 091600Z 31014KT CAVOK 25/19 Q1012 NOSIG

2010/08/09 16:00
UAFO 091600Z 14004MPS 9999 SCT050CB BKN100 26/18 Q1013 NOSIG RMK QFEM681

2010/08/09 15:50
LIMG 091550Z 04005KT 9999 BKN030 26/19 Q1015 RMK VIS MIN 9999

2010/08/09 15:55
LIMN 091555Z 26006KT 200V300 CAVOK 27/17 Q1014 RMK FEW FEW200 VIS MIN 9999 BLU

2010/08/09 15:50
LIMP 091550Z VRB03KT 9999 FEW030 29/17 Q1014 RMK VIS MIN 9999

2010/08/09 15:55
LIMS 091555Z 09003KT 9999 FEW040 29/18 Q1014 RMK SCT VIS MIN 9999 WIND THR30 08005KT BLU

2010/08/09 15:55
LIPA 091555Z 26004KT 9999 FEW040 28/19 Q1014 RMK FEW VIS MIN 9999 A2996 BLU

2010/08/09 15:50
LIPB 091550Z 15009KT 9999 FEW060 31/15 Q1013 RMK MON LIB VIS MIN 9999

2010/08/09 15:55
LIPC 091555Z 13008KT CAVOK 28/19 Q1014 RMK SKC VIS MIN 9999 WIND THR12 12008KT BLU

2010/08/09 15:55
LIPF 091555Z 00000KT 9999 FEW040 29/20 Q1014 RMK FEW VIS MIN 9999

2010/08/09 15:45
LIPH 091545Z 20005KT 9999 FEW020 28/20 Q1014 RMK FEW VIS MIN 9999 WIND THR07 /////KT BLU

2010/08/09 15:55
LIPL 091555Z 21003KT 9999 FEW040 31/20 Q1014 RMK FEW VIS MIN 9999 BLK BLU

2010/08/09 15:50
LIPO 091550Z 25004KT 200V280 9999 FEW040 29/17 Q1014 RMK VIS MIN 9999

2010/08/09 15:50
LIPQ 091550Z 21005KT CAVOK 27/18 Q1014

2010/08/09 15:45
LIPR 091545Z 09007KT CAVOK 27/21 Q1014 RMK SKC VIS MIN 9999 WIND THR31 10006KT BLU

2010/08/09 15:55
LIPS 091555Z 18006KT 9999 FEW030 29/17 Q1014 RMK FEW VIS MIN 9999 BLU

2010/08/09 15:45
LIPX 091545Z 15004KT 9999 FEW040 30/16 Q1014 RMK FEW VIS MIN 9999 BLU

2010/08/09 15:50
LIPY 091550Z 03007KT CAVOK 26/19 Q1014 RMK VIS MIN 9999

2010/08/09 15:55
LIVC 091555Z 00000KT 1200 BR BKN000 13/11 Q1025 RMK BKN MON INC VAL INVIS VIS MIN 1200

2010/08/09 15:55
LIRV 091555Z 25013KT 9999 FEW030 28/12 Q1016 RMK FEW MON E SE LIB NC VIS MIN 9999 BLU

2010/08/09 15:55
LIMU 091555Z 21009KT 9999 FEW013 25/21 Q1018 RMK BKN QUK 2 QUL 1 S VIS MAR 30 KM VIS MIN 9999

2010/08/09 15:55
LIMY 091555Z /////KT 9999 FEW020TCU SCT025 25/14 Q1016 RMK BKN VAL FOSCHIA VIS MIN 9999W

2010/08/09 15:55
LIVD 091555Z 00000KT 9999 FEW030 24/07 Q1018 RMK FEW VIS MIN 9999

2010/08/09 15:55
LIVE 091555Z 21004KT CAVOK 19/07 Q1018 RMK SKC VIS MIN 9999

2010/08/09 15:55
LIVO 091555Z 04001KT 9999 SCT030 23/16 Q1016 RMK SCT VIS MIN 9999

2010/08/09 15:55
LIVR 091555Z 14012KT 9999 BKN015 15/13 Q1023 RMK BKN MON CLD SCT VIS MIN 9999

2010/08/09 15:55
LIVT 091555Z 23002KT CAVOK 26/19 Q1014 RMK SKC QUK 1 QUL 0 VIS MAR 20 KM VIS MIN 9999

2010/08/09 16:05
UMGG 091605Z 20012G18MPS 9999 SCT040CB BKN100 35/14 Q1013 R10/CLRD// TEMPO 5000 TSRA

2010/08/09 15:50
LIBF 091550Z 32011KT CAVOK FEW030 32/09 Q1013 RMK VIS MIN 9999

2010/08/09 15:50
LIEA 091550Z 30003KT 240V340 CAVOK 25/17 Q1017 RMK VIS MIN 9999

2010/08/09 15:55
LIED 091555Z 32013KT CAVOK 32/03 Q1015 RMK BKN BKN080 SCT090 VIS MIN 9999 BLU

2010/08/09 15:50
LIEO 091550Z 07005KT CAVOK 27/19 Q1016 RMK VIS MIN 9999

2010/08/09 15:50
LIMA 091550Z 04003KT 9999 SCT035 29/14 Q1014 RMK VIS MIN 9999

2010/08/09 15:50
LIQN 091550Z 33007KT 9999 FEW040 30/15 Q1016 RMK VIS MIN 9999

2010/08/09 15:55
LIQW 091555Z 13002KT 9999 FEW030 27/20 Q1016 RMK FEW VIS MIN 9999 BLU

2010/08/09 15:55
LIRE 091555Z 28010KT CAVOK 27/24 Q1015 RMK SKC VIS MIN 9999 WIND THR31 27012KT BLU

2010/08/09 15:55
LIRG 091555Z 24010KT 9999 FEW035 32/16 Q1015 RMK FEW MON NE LIB NC VIS MIN 9999 BLU

2010/08/09 15:55
LIRH 091555Z 31005KT 9999 FEW045 33/15 Q1015 RMK FEW MON LIB NC VIS MIN 9999 WIND THR16 32010KT BLU

2010/08/09 15:50
LIRI 091550Z 22005KT CAVOK 29/18 Q1015 RMK VIS MIN 9999

2010/08/09 15:55
LIRL 091555Z 23007KT 9999 FEW040 30/16 Q1015 RMK FEW MON LIB NC VIS MIN 9999 BLU

2010/08/09 15:55
LIRM 091555Z 25011KT 9999 FEW030 31/27 Q1016 RMK FEW VIS MIN 9999 WIND THR06 25012KT BLU

2010/08/09 15:55
LIRS 091555Z 22008KT 9999 FEW025 30/09 Q1015 RMK BKN SCT200 VIS MIN 9999 WIND THR21 /////KT BLU

2010/08/09 15:50
LIRU 091550Z 25010KT CAVOK 33/17 Q1014 RMK VIS MIN 9999

2010/08/09 15:55
LIRX 091555Z 36003KT CAVOK 26/16 Q1016 RMK SCT SCT200 VIS MIN 9999N VIS MAR 18 KM

2010/08/09 15:50
LIRZ 091550Z 30009KT 260V330 9999 FEW035 31/13 Q1014 RMK VIS MIN 9999

2010/08/09 16:00
UMGG 091600Z 24009G12MPS 9999 BKN033CB BKN100 32/16 Q1014 R10/CLRD// NOSIG

2010/08/09 16:00
UMII 091600Z 31003G06MPS P6000 FEW040CB SCT100 28/15 Q1015 R23/CLRD// NOSIG

2010/08/09 16:00
UMMG 091600Z 13002MPS CAVOK 22/16 Q1016

2010/08/09 16:00
UMMM 091600Z 32002MPS 9999 BKN013 OVC100 20/18 Q1016 R30/290050 NOSIG RMK QFE743

2010/08/09 16:00
UMMS 091600Z 35002MPS 9999 FEW043CB BKN116 21/19 Q1016 R31/290060 NOSIG

2010/08/09 15:55
LIBA 091555Z 10005KT 9999 FEW030 31/18 Q1013 RMK FEW VIS MIN 9999 WIND THR29 11005KT BLU

2010/08/09 15:50
LIBC 091550Z 18006KT CAVOK 30/15 Q1013 RMK VIS MIN 9999

2010/08/09 15:50
LIBD 091550Z 03007KT 340V070 CAVOK 28/16 Q1014 RMK VIS MIN 9999

2010/08/09 15:50
LIBG 091550Z 36014KT 330V030 CAVOK 32/09 Q1012 RMK VIS MIN 9999

2010/08/09 15:55
LIBN 091555Z 36015KT CAVOK 30/09 Q1012 RMK SKC VIS MIN 9999 WIND THR14 35015KT BLU

2010/08/09 15:50
LIBP 091550Z 02004KT 9999 FEW080 27/17 Q1014 RMK VIS MIN 9999

2010/08/09 15:45
LIBR 091545Z 33017KT CAVOK 27/22 Q1014 NOSIG RMK SKC VIS MIN 9999 WIND THR13 WIND THR31 31015KT BLU

2010/08/09 15:55
LIBV 091555Z 02015KT CAVOK 29/13 Q1013 RMK SKC VIS MIN 9999 WIND THR14 01012KT BLU

2010/08/09 15:50
LICA 091550Z 26013KT 9999 FEW020 27/20 Q1014 RMK VIS MIN 9999

2010/08/09 15:50
LICC 091550Z 06015KT CAVOK 29/21 Q1013 RMK VIS MIN 9999

2010/08/09 15:50
LICD 091550Z 35008KT CAVOK 26/19 Q1015 RMK VIS MIN 9999

2010/08/09 15:55
LICG 091555Z 36008KT CAVOK 25/23 Q1017 RMK SKC VIS MIN 9999 WIND THR08 ///06KT WIND THR21 36005KT BLU

2010/08/09 15:50
LICJ 091550Z 04010KT CAVOK 27/20 Q1016 RMK VIS MIN 9999

2010/08/09 15:50
LICR 091550Z 36014KT 9999 FEW030 28/18 Q1015 RMK VIS MIN 9999

2010/08/09 15:55
LICT 091555Z 32010KT CAVOK 28/21 Q1016 RMK FEW FEW080 VIS MIN 9999 WIND THR13 32009KT BLU

2010/08/09 15:55
LICZ 091555Z 08012KT CAVOK 31/21 Q1013 RMK SKC VIS MIN 9999 WIND THR28 /////KT BLU

2010/08/09 16:00
FBSK 091600Z 21008KT CAVOK 18/02 Q1023 NOSIG

2010/08/09 16:00
FBFT 091600Z 15003KT CAVOK 25/11 Q1020

2010/08/09 16:00
FBMN 091600Z 18008KT CAVOK 27/01 Q1020

2010/08/09 16:00
FBKE 091600Z 16006KT CAVOK 26/03 Q1019

2010/08/09 16:00
VTUU 091600Z 13002KT 9000 SCT022 BKN110 OVC300 26/25 A1005 A2969 NOSIG

2010/08/09 16:00
LPFR 091600Z 14004KT CAVOK 31/17 Q1013

2010/08/09 16:00
LPMA 091600Z 21008KT 9999 FEW013 25/19 Q1014 RS17004KT 0520007KT 2323004KT

2010/08/09 16:00
LPPR 091600Z 32008KT 290V350 CAVOK 31/12 Q1015

2010/08/09 16:00
LPPS 091600Z 01010KT 9999 SCT015 SCT030 24/18 Q1014

2010/08/09 16:00
LPPT 091600Z 22004KT 170V320 CAVOK 39/12 Q1014 NOSIG

2010/08/09 15:50
HLLB 091550Z 33022KT 9999 SCT020 27/18 Q1013

2010/08/09 16:00
OIII 091600Z 09006KT 9999 FEW040 SCT100 33/02 Q1013 A2992 878.2

2010/08/09 16:00
DAAG 091600Z 33009KT 9999 FEW030 SCT100 31/15 Q1014

2010/08/09 16:00
DAAT 091600Z 36020KT 340V140 9999 TS FEW040CB SCT053 26/13 Q1020

2010/08/09 16:00
DABB 091600Z 03013KT CAVOK 28/18 Q1015

2010/08/09 16:00
DABC 091600Z 03008KT CAVOK 34/05 Q1019

2010/08/09 16:00
DABS 091600Z 36010KT CAVOK 33/06 Q1020

2010/08/09 16:00
DAON 091600Z 02010KT 9999 FEW026 32/19 Q1014

2010/08/09 16:00
DAOO 091600Z 36014KT CAVOK 28/22 Q1013

2010/08/09 16:00
DAUH 091600Z 04010KT CAVOK 42/12 Q1011

2010/08/09 16:00
DAUZ 091600Z 06012KT 9999 SCT040 38/05 Q1014

2010/08/09 15:55
LIBA 091555Z 10005KT 9999 FEW030 31/18 Q1013 RMK FEW VIS MIN 9999 WIND THR29 11005KT BLU

2010/08/09 15:50
LIBC 091550Z 18006KT CAVOK 30/15 Q1013 RMK VIS MIN 9999

2010/08/09 15:50
LIBD 091550Z 03007KT 340V070 CAVOK 28/16 Q1014 RMK VIS MIN 9999

2010/08/09 15:50
LIBG 091550Z 36014KT 330V030 CAVOK 32/09 Q1012 RMK VIS MIN 9999

2010/08/09 15:55
LIBN 091555Z 36015KT CAVOK 30/09 Q1012 RMK SKC VIS MIN 9999 WIND THR14 35015KT BLU

2010/08/09 15:50
LIBP 091550Z 02004KT 9999 FEW080 27/17 Q1014 RMK VIS MIN 9999

2010/08/09 15:45
LIBR 091545Z 33017KT CAVOK 27/22 Q1014 NOSIG RMK SKC VIS MIN 9999 WIND THR13 WIND THR31 31015KT BLU

2010/08/09 15:55
LIBV 091555Z 02015KT CAVOK 29/13 Q1013 RMK SKC VIS MIN 9999 WIND THR14 01012KT BLU

2010/08/09 15:50
LICA 091550Z 26013KT 9999 FEW020 27/20 Q1014 RMK VIS MIN 9999

2010/08/09 15:50
LICC 091550Z 06015KT CAVOK 29/21 Q1013 RMK VIS MIN 9999

2010/08/09 15:50
LICD 091550Z 35008KT CAVOK 26/19 Q1015 RMK VIS MIN 9999

2010/08/09 15:55
LICG 091555Z 36008KT CAVOK 25/23 Q1017 RMK SKC VIS MIN 9999 WIND THR08 ///06KT WIND THR21 36005KT BLU

2010/08/09 15:50
LICJ 091550Z 04010KT CAVOK 27/20 Q1016 RMK VIS MIN 9999

2010/08/09 15:50
LICR 091550Z 36014KT 9999 FEW030 28/18 Q1015 RMK VIS MIN 9999

2010/08/09 15:55
LICT 091555Z 32010KT CAVOK 28/21 Q1016 RMK FEW FEW080 VIS MIN 9999 WIND THR13 32009KT BLU

2010/08/09 15:55
LICZ 091555Z 08012KT CAVOK 31/21 Q1013 RMK SKC VIS MIN 9999 WIND THR28 /////KT BLU

2010/08/09 15:50
LIBF 091550Z 32011KT CAVOK FEW030 32/09 Q1013 RMK VIS MIN 9999

2010/08/09 15:50
LIEA 091550Z 30003KT 240V340 CAVOK 25/17 Q1017 RMK VIS MIN 9999

2010/08/09 15:55
LIED 091555Z 32013KT CAVOK 32/03 Q1015 RMK BKN BKN080 SCT090 VIS MIN 9999 BLU

2010/08/09 15:50
LIEO 091550Z 07005KT CAVOK 27/19 Q1016 RMK VIS MIN 9999

2010/08/09 15:50
LIMA 091550Z 04003KT 9999 SCT035 29/14 Q1014 RMK VIS MIN 9999

2010/08/09 15:50
LIQN 091550Z 33007KT 9999 FEW040 30/15 Q1016 RMK VIS MIN 9999

2010/08/09 15:55
LIQW 091555Z 13002KT 9999 FEW030 27/20 Q1016 RMK FEW VIS MIN 9999 BLU

2010/08/09 15:55
LIRE 091555Z 28010KT CAVOK 27/24 Q1015 RMK SKC VIS MIN 9999 WIND THR31 27012KT BLU

2010/08/09 15:55
LIRG 091555Z 24010KT 9999 FEW035 32/16 Q1015 RMK FEW MON NE LIB NC VIS MIN 9999 BLU

2010/08/09 15:55
LIRH 091555Z 31005KT 9999 FEW045 33/15 Q1015 RMK FEW MON LIB NC VIS MIN 9999 WIND THR16 32010KT BLU

2010/08/09 15:50
LIRI 091550Z 22005KT CAVOK 29/18 Q1015 RMK VIS MIN 9999

2010/08/09 15:55
LIRL 091555Z 23007KT 9999 FEW040 30/16 Q1015 RMK FEW MON LIB NC VIS MIN 9999 BLU

2010/08/09 15:55
LIRM 091555Z 25011KT 9999 FEW030 31/27 Q1016 RMK FEW VIS MIN 9999 WIND THR06 25012KT BLU

2010/08/09 15:55
LIRS 091555Z 22008KT 9999 FEW025 30/09 Q1015 RMK BKN SCT200 VIS MIN 9999 WIND THR21 /////KT BLU

2010/08/09 15:50
LIRU 091550Z 25010KT CAVOK 33/17 Q1014 RMK VIS MIN 9999

2010/08/09 15:55
LIRX 091555Z 36003KT CAVOK 26/16 Q1016 RMK SCT SCT200 VIS MIN 9999N VIS MAR 18 KM

2010/08/09 15:50
LIRZ 091550Z 30009KT 260V330 9999 FEW035

2010/08/09 16:00
LEBG 091600Z 05012KT 020V090 CAVOK 25/14 Q1020

2010/08/09 15:50
LIMG 091550Z 04005KT 9999 BKN030 26/19 Q1015 RMK VIS MIN 9999

2010/08/09 15:55
LIMS 091555Z 09003KT 9999 FEW040 29/18 Q1014 RMK SCT VIS MIN 9999 WIND THR30 08005KT BLU

2010/08/09 15:55
LIMU 091555Z 21009KT 9999 FEW013 25/21 Q1018 RMK BKN QUK 2 QUL 1 S VIS MAR 30 KM VIS MIN 9999

2010/08/09 15:55
LIPA 091555Z 26004KT 9999 FEW040 28/19 Q1014 RMK FEW VIS MIN 9999 A2996 BLU

2010/08/09 15:50
LIPB 091550Z 15009KT 9999 FEW060 31/15 Q1013 RMK MON LIB VIS MIN 9999

2010/08/09 15:55
LIPF 091555Z 00000KT 9999 FEW040 29/20 Q1014 RMK FEW VIS MIN 9999

2010/08/09 15:45
LIPH 091545Z 20005KT 9999 FEW020 28/20 Q1014 RMK FEW VIS MIN 9999 WIND THR07 /////KT BLU

2010/08/09 15:55
LIPS 091555Z 18006KT 9999 FEW030 29/17 Q1014 RMK FEW VIS MIN 9999 BLU

2010/08/09 15:45
LIPX 091545Z 15004KT 9999 FEW040 30/16 Q1014 RMK FEW VIS MIN 9999 BLU

2010/08/09 15:50
LIPY 091550Z 03007KT CAVOK 26/19 Q1014 RMK VIS MIN 9999

2010/08/09 15:55
LIVC 091555Z 00000KT 1200 BR BKN000 13/11 Q1025 RMK BKN MON INC VAL INVIS VIS MIN 1200

2010/08/09 15:55
LIVT 091555Z 23002KT CAVOK 26/19 Q1014 RMK SKC QUK 1 QUL 0 VIS MAR 20 KM VIS MIN 9999

2010/08/09 15:55
LIMN 091555Z 26006KT 200V300 CAVOK 27/17 Q1014 RMK FEW FEW200 VIS MIN 9999 BLU

2010/08/09 15:55
LIMY 091555Z /////KT 9999 FEW020TCU SCT025 25/14 Q1016 RMK BKN VAL FOSCHIA VIS MIN 9999W

2010/08/09 15:55
LIPC 091555Z 13008KT CAVOK 28/19 Q1014 RMK SKC VIS MIN 9999 WIND THR12 12008KT BLU

2010/08/09 15:55
LIPL 091555Z 21003KT 9999 FEW040 31/20 Q1014 RMK FEW VIS MIN 9999 BLK BLU

2010/08/09 15:45
LIPR 091545Z 09007KT CAVOK 27/21 Q1014 RMK SKC VIS MIN 9999 WIND THR31 10006KT BLU

2010/08/09 15:50
LIQN 091550Z 33007KT 9999 FEW040 30/15 Q1016 RMK VIS MIN 9999

2010/08/09 15:55
LIQW 091555Z 13002KT 9999 FEW030 27/20 Q1016 RMK FEW VIS MIN 9999 BLU

2010/08/09 15:55
LIRE 091555Z 28010KT CAVOK 27/24 Q1015 RMK SKC VIS MIN 9999 WIND THR31 27012KT BLU

2010/08/09 15:55
LIRH 091555Z 31005KT 9999 FEW045 33/15 Q1015 RMK FEW MON LIB NC VIS MIN 9999 WIND THR16 32010KT BLU

2010/08/09 15:50
LIRZ 091550Z 30009KT 260V330 9999 FEW035 31/13 Q1014 RMK VIS MIN 9999

2010/08/09 15:55
LIVD 091555Z 00000KT 9999 FEW030 24/07 Q1018 RMK FEW VIS MIN 9999

2010/08/09 15:55
LIVE 091555Z 21004KT CAVOK 19/07 Q1018 RMK SKC VIS MIN 9999

2010/08/09 16:00
AYPY 091600Z 00000KT 9999 FEW030 26/24 Q1007 RMKS/ HAZE

2010/08/09 15:55
KDPG 091555Z 18015G22KT 50SM FEW100 SCT130 SCT160 24/06 A3010 RMK SLP144 T02420064

2010/08/09 16:00
MGGT 091600Z 36010KT 9999 SCT017 OVC200 24/18 Q1025 A30/27 PACAY A EN ACTIVIDAD NOSIG

2010/08/09 16:00
MGSJ 091600Z 14008KT 9999 SCT018 BKN200 30/26 Q1013 A29/91

2010/08/09 15:45
MMHO 091545Z 00000KT 10SM SKC 31/23 A2983 RMK HZY

2010/08/09 15:57
PHNG 091557Z AUTO VRB03G14KT 10SM CLR 25/18 A3009 RMK AO2 SLP183 T02500178 $

2010/08/09 15:50
PTYA 091550Z 19005KT 12SM SCT016 SCT030 BKN130 OVC300 26/23 A2985 RMK SLP110 T02630233

2010/08/09 15:55
PWAK 091555Z 07013KT 10SM SCT021 27/24 A3002 RMK AO2A

2010/08/09 16:00
RJAA 091600Z 15005KT 9999 FEW020 SCT140 23/22 Q1016 NOSIG RMK 1CU020 3AC140 A3000

2010/08/09 16:00
RJCC 091600Z 16004KT 1600 BR SCT001 BKN002 21/20 Q1015 RMK 4ST001 7ST002 A2997

2010/08/09 16:00
RJFF 091600Z 15009KT 9999 FEW030 SCT130 BKN150 26/23 Q1010 RMK 1CU030 3AC130 5AC150 A2984

2010/08/09 16:00
ROAH 091600Z 18025KT 9999 -RA SCT015 BKN025 BKN050 28/26 Q1006 RMK 3CU015 5CU025 6SC050 A2971

2010/08/09 16:00
SVBM 091600Z 07012KT 9999 SCT016 BKN300 29/19 Q1016

2010/08/09 16:00
TAPA 091600Z 07009KT 9999 SCT016 SCT035 27/25 Q1015

2010/08/09 16:00
TTCP 091600Z 14008KT 9999 SCT010CB BKN280 31/25 Q1015 NOSIG CB-NE TO SE/JP-NE TO SE/SW

2010/08/09 16:00
TTPP 091600Z ///10KT 8000 -SHRA FEW010CB BKN018 BKN300 30/24 Q1014 NOSIG CB-W/S/NW

2010/08/09 16:00
TVSV 091600Z 12008KT 9999 SCT022 SCT038 31/25 Q1015/ TCU-N

2010/08/09 16:00
ZGGG 091600Z 14002MPS 9999 FEW046 30/26 Q1006 NOSIG

2010/08/09 16:00
DAAD 091600Z 00000KT 9999 FEW033 SCT100 39/21 Q1017

2010/08/09 16:00
DAAE 091600Z 09006KT CAVOK 29/21 Q1014

2010/08/09 16:00
DAAJ 091600Z 35012KT CAVOK 37/// Q1015

2010/08/09 16:00
DAAP 091600Z 04012KT CAVOK 38/12 Q1012

2010/08/09 16:00
DAAS 091600Z 10006KT CAVOK 33/04 Q1020

2010/08/09 16:00
DAAV 091600Z 32006KT CAVOK 31/21 Q1013

2010/08/09 16:00
DAAY 091600Z 21008KT 9999 SCT033 SCT233 38/11 Q1021

2010/08/09 16:00
DABT 091600Z 04012KT CAVOK 35/06 Q1019

2010/08/09 16:00
DAFH 091600Z 09016KT CAVOK 37/18 Q1017

2010/08/09 16:00
DAMH 091600Z 08010KT 9999 SCT040 42/20 Q1011

2010/08/09 16:00
DAOR 091600Z 18006KT 8000 FEW033 41/08 Q1017

2010/08/09 16:00
DAOV 091600Z 36010KT CAVOK 39/23 Q1016

2010/08/09 16:00
DATF 091600Z 06016KT CAVOK 39/07 Q1013

2010/08/09 16:00
DAUA 091600Z 03018KT 8000 NSC 46/// Q1009

2010/08/09 16:00
DAUB 091600Z 14004KT CAVOK 38/16 Q1012

2010/08/09 16:00
DAUE 091600Z 09012KT CAVOK 43/13 Q1015

2010/08/09 16:00
DAUG 091600Z 07010KT CAVOK 38/15 Q1015

2010/08/09 16:00
DAUK 091600Z 02008KT CAVOK 38/16 Q1013

2010/08/09 16:00
DAUO 091600Z /////KT CAVOK 38/14 Q1012

2010/08/09 16:00
DAUT 091600Z 05011KT 9000 NSC 44/// Q1010

2010/08/09 16:00
DAUU 091600Z 34012KT CAVOK 42/19 Q1011

2010/08/09 16:00
SACO 091600Z 05013KT CAVOK 16/02 Q1026

2010/08/09 16:00
SAEZ 091600Z VRB01KT CAVOK 17/07 Q1025

2010/08/09 16:00
SAME 091600Z 14002KT CAVOK 14/M06 Q1022

2010/08/09 16:00
SARE 091600Z 14013KT 9999 FEW025 SCT200 17/06 Q1024

2010/08/09 16:00
SARI 091600Z 00000KT CAVOK 19/14 Q1022

2010/08/09 16:00
SAWG 091600Z 23032G46KT 9999 FEW030 08/00 Q1004

2010/08/09 16:00
SAZM 091600Z 29006KT CAVOK 15/02 Q1024

2010/08/09 16:00
SBRP 091600Z 20006KT CAVOK 32/09 Q1019

2010/08/09 16:00
SEGU 091600Z 23007KT 200V270 9999 BKN023 BKN100 26/19 Q1013 NOSIG

2010/08/09 16:00
SELT 091600Z 17007KT 9999 SCT040 16/04 Q1033

2010/08/09 16:00
SEMT 091600Z 19009KT 9999 OVC016 25/20 Q1014

2010/08/09 16:00
SEQU 091600Z 11010G25KT 9999 FEW040 18/M01 Q1029 RMK A3039 NOSIG

2010/08/09 16:00
SLCA 091600Z 00000KT 9999 SKC 18/06 Q1024

2010/08/09 16:00
SLCP 091600Z 18010KT 9999 SKC 24/11 Q1021

2010/08/09 16:00
SLET 091600Z 17015G25KT 9999 NSC 23/06 Q1021

2010/08/09 16:00
SLJE 091600Z 19004KT 8000 SKC 28/12 Q1022

2010/08/09 16:00
SLJO 091600Z 14007KT 7000 SKC 29/16 Q1018

2010/08/09 16:00
SLMG 091600Z 16008KT 7000 SKC 29/15 Q1019

2010/08/09 16:00
SLOR 091600Z 34005KT 9999 SKC 14/M09 Q1038

2010/08/09 16:00
SLPS 091600Z 26008KT 7000 SKC 26/09 Q1017

2010/08/09 16:00
SLRB 091600Z 00000KT 7000 SKC 23/15 Q1022

2010/08/09 16:00
SLRI 091600Z 17008KT 5000 FU SKC 33/19 Q1016

2010/08/09 16:00
SLRQ 091600Z 12006KT 8000 29/20 Q1019

2010/08/09 16:00
SLSI 091600Z 18010KT 9999 SKC 26/13 Q1020

2010/08/09 16:00
SLTJ 091600Z 19007KT 9999 NSC 15/05 Q1024

2010/08/09 16:00
SLVM 091600Z 00000KT 9999 SKC 22/17 Q1021

2010/08/09 16:00
SLYA 091600Z 00000KT 9999 SKC 20/10 Q1026

2010/08/09 16:00
SVBM 091600Z 07012KT 9999 SCT016 BKN300 29/19 Q1016

2010/08/09 16:00
SVGU 091600Z 20010KT 9999 SCT020 30/23 Q1014

2010/08/09 16:00
SVSP 091600Z 24006KT 9000 HZ BKN040 XX/XX Q1015

2010/08/09 15:55
KQAJ 091555Z 32004KT 9999 CLR 42/04 A2960 RMK SLP005 WND DATA ESTMD ALSTG/SLP ESTMD

2010/08/09 15:55
KQLE 091555Z 22009KT 9000 DU SCT150 BKN250 37/M01 A2963 RMK SLP953 T03681014 PA3212 DA6402

2010/08/09 15:55
KQVE 091555Z AUTO 18511G17KT 9999 BKN080 29/20 A2980 RMK AO2 LTG DSNT N SLP026

2010/08/09 16:00
WBKK 091600Z 10005KT 9999 FEW014 SCT140 BKN270 27/25 Q1011 NOSIG

2010/08/09 16:00
WMKJ 091600Z 04001KT 9999 FEW022 BKN300 26/24 Q1010

2010/08/09 16:00
WMKK 091600Z 11002KT 9999 FEW030 SCT140 BKN280 27/25 Q1009 NOSIG

2010/08/09 16:00
WMKP 091600Z 30001KT 9000 FEW025 SCT140 BKN270 28/27 Q1008 NOSIG

2010/08/09 16:00
WMSA 091600Z 00000KT 9999 FEW027 BKN280 28/25 Q1009

2010/08/09 16:06
CWCL 091606Z AUTO 36003KT 2 1/2SM RA OVC013 09/08 A2995

2010/08/09 15:55
LIBA 091555Z 10005KT 9999 FEW030 31/18 Q1013 RMK FEW VIS MIN 9999 WIND THR29 11005KT BLU

2010/08/09 15:50
LIBC 091550Z 18006KT CAVOK 30/15 Q1013 RMK VIS MIN 9999

2010/08/09 15:50
LIBD 091550Z 03007KT 340V070 CAVOK 28/16 Q1014 RMK VIS MIN 9999

2010/08/09 15:50
LIBG 091550Z 36014KT 330V030 CAVOK 32/09 Q1012 RMK VIS MIN 9999

2010/08/09 15:55
LIBN 091555Z 36015KT CAVOK 30/09 Q1012 RMK SKC VIS MIN 9999 WIND THR14 35015KT BLU

2010/08/09 15:50
LIBP 091550Z 02004KT 9999 FEW080 27/17 Q1014 RMK VIS MIN 9999

2010/08/09 15:55
LIBV 091555Z 02015KT CAVOK 29/13 Q1013 RMK SKC VIS MIN 9999 WIND THR14 01012KT BLU

2010/08/09 15:50
LICA 091550Z 26013KT 9999 FEW020 27/20 Q1014 RMK VIS MIN 9999

2010/08/09 15:50
LICC 091550Z 06015KT CAVOK 29/21 Q1013 RMK VIS MIN 9999

2010/08/09 15:50
LICD 091550Z 35008KT CAVOK 26/19 Q1015 RMK VIS MIN 9999

2010/08/09 15:55
LICG 091555Z 36008KT CAVOK 25/23 Q1017 RMK SKC VIS MIN 9999 WIND THR08 ///06KT WIND THR21 36005KT BLU

2010/08/09 15:50
LICJ 091550Z 04010KT CAVOK 27/20 Q1016 RMK VIS MIN 9999

2010/08/09 15:50
LICR 091550Z 36014KT 9999 FEW030 28/18 Q1015 RMK VIS MIN 9999

2010/08/09 15:55
LICT 091555Z 32010KT CAVOK 28/21 Q1016 RMK FEW FEW080 VIS MIN 9999 WIND THR13 32009KT BLU

2010/08/09 15:55
LICZ 091555Z 08012KT CAVOK 31/21 Q1013 RMK SKC VIS MIN 9999 WIND THR28 /////KT BLU

2010/08/09 15:55
LIRV 091555Z 25013KT 9999 FEW030 28/12 Q1016 RMK FEW MON E SE LIB NC VIS MIN 9999 BLU

2010/08/09 15:55
LIVO 091555Z 04001KT 9999 SCT030 23/16 Q1016 RMK SCT VIS MIN 9999

2010/08/09 15:55
LIVR 091555Z 14012KT 9999 BKN015 15/13 Q1023 RMK BKN MON CLD SCT VIS MIN 9999

2010/08/09 16:00
LPFL 091600Z VRB03KT 9999 FEW020 25/18 Q1023

2010/08/09 16:00
YBAS 091600Z AUTO 28007KT 9999NDV // NCD 04/M03 Q1019

2010/08/09 16:00
YBBN 091600Z 05011KT 9999 FEW022 SCT240 18/14 Q1020 INTER 1600/1900 4000 SHRA BKN012

2010/08/09 16:00
YBCS 091600Z 19002KT 9999 FEW008 SCT040 BKN055 23/20 Q1014

2010/08/09 16:00
YBTL 091600Z AUTO 05006KT 9999NDV // SCT020 SCT057 OVC075 23/21 Q1015

2010/08/09 16:00
YMML 091600Z 30006KT CAVOK 05/03 Q1018 NOSIG

2010/08/09 16:00
YPAD 091600Z 20008KT CAVOK 09/07 Q1013 NOSIG

2010/08/09 16:00
YPCC 091600Z AUTO 11005KT 9999NDV // NCD 26/21 Q1012

2010/08/09 16:00
YPDN 091600Z 18003KT CAVOK 22/17 Q1012

2010/08/09 16:00
YPKU 091600Z AUTO 16006KT 9999NDV // NCD 25/M01 Q1014

2010/08/09 16:00
YPLM 091600Z AUTO 21002KT 9999NDV // NCD 14/08 Q1017

2010/08/09 16:00
YPPH 091600Z 07007KT CAVOK 06/02 Q1024 NOSIG

2010/08/09 16:00
YPTN 091600Z AUTO 16007KT 9999NDV // NCD 24/M00 Q1012

2010/08/09 16:00
YPXM 091600Z AUTO 09007KT 9999NDV // BKN013 24/21 Q////

2010/08/09 16:00
YSSY 091600Z 19005KT CAVOK 11/10 Q1019 NOSIG

2010/08/09 16:00
YBAS 091600Z AUTO 28007KT 9999NDV // NCD 04/M03 Q1019

2010/08/09 16:00
YBBN 091600Z 05011KT 9999 FEW022 SCT240 18/14 Q1020 INTER 1600/1900 4000 SHRA BKN012

2010/08/09 16:00
YBCS 091600Z 19002KT 9999 FEW008 SCT040 BKN055 23/20 Q1014

2010/08/09 16:00
YBTL 091600Z AUTO 05006KT 9999NDV // SCT020 SCT057 OVC075 23/21 Q1015

2010/08/09 16:00
YMML 091600Z 30006KT CAVOK 05/03 Q1018 NOSIG

2010/08/09 16:00
YPAD 091600Z 20008KT CAVOK 09/07 Q1013 NOSIG

2010/08/09 16:00
YPCC 091600Z AUTO 11005KT 9999NDV // NCD 26/21 Q1012

2010/08/09 16:00
YPDN 091600Z 18003KT CAVOK 22/17 Q1012

2010/08/09 16:00
YPKU 091600Z AUTO 16006KT 9999NDV // NCD 25/M01 Q1014

2010/08/09 16:00
YPLM 091600Z AUTO 21002KT 9999NDV // NCD 14/08 Q1017

2010/08/09 16:00
YPPH 091600Z 07007KT CAVOK 06/02 Q1024 NOSIG

2010/08/09 16:00
YPTN 091600Z AUTO 16007KT 9999NDV // NCD 24/M00 Q1012

2010/08/09 16:00
YPXM 091600Z AUTO 09007KT 9999NDV // BKN013 24/21 Q////

2010/08/09 16:00
YSSY 091600Z 19005KT CAVOK 11/10 Q1019 NOSIG

2010/08/09 16:03
K0F2 091603Z AUTO 19010KT 10SM CLR 33/22 A2995 RMK AO2 T03280223

2010/08/09 16:03
K11R 091603Z AUTO 21004KT 10SM CLR 31/23 A2999 RMK AO2

2010/08/09 16:05
K1H2 091605Z AUTO 17006KT 10SM CLR 33/25 A2996 RMK AO2 T03250248

2010/08/09 16:05
K3LF 091605Z AUTO 17006KT 7SM CLR 31/25 A2996 RMK AO2

2010/08/09 16:05
K3T5 091605Z AUTO 22005KT 10SM SCT029 SCT035 32/25 A2997 RMK AO2 T03180248

2010/08/09 16:02
KAAA 091602Z AUTO 00000KT 7SM CLR 29/22 A2993 RMK AO2 T02850224

2010/08/09 16:02
KAPY 091602Z AUTO 17010G14KT 10SM CLR 31/22 A2993 RMK AO2 T03140215

2010/08/09 16:05
KAQO 091605Z AUTO 18008KT CLR 32/20 A3002 RMK AO2 PWINO

2010/08/09 16:04
KARM 091604Z AUTO 00000KT 10SM SCT033 SCT039 SCT049 35/24 A2998 RMK AO2 T03460238

2010/08/09 16:07
KASW 091607Z AUTO 10003KT 7SM CLR 29/20 A3000 RMK AO2 T02890201

2010/08/09 16:05
KBBD 091605Z AUTO 20010KT 10SM CLR 32/20 A3001 RMK

2010/08/09 16:05
KERV 091605Z AUTO 17004KT 10SM SCT031 29/20 A3003 RMK AO2 T02900201

2010/08/09 16:02
KF05 091602Z AUTO 22012KT 35/16 A2991 RMK AO2 T03480157

2010/08/09 16:04
KFOA 091604Z AUTO 00000KT 10SM CLR 34/26 A2997 RMK AO2

2010/08/09 16:02
KGDJ 091602Z AUTO 18005KT 10SM CLR 34/22 A2997 RMK AO2 T03390220

2010/08/09 16:03
KGLE 091603Z AUTO 18008KT 10SM CLR 34/22 A2996 RMK AO2

2010/08/09 16:05
KGNC 091605Z AUTO 16007KT 140V200 10SM OVC100 28/19 A3006 RMK AO2 T02830191

2010/08/09 16:05
KGWB 091605Z AUTO 25003KT 7SM SCT047 28/18 A3001 RMK AO2

2010/08/09 16:04
KGYB 091604Z AUTO 21006KT 10SM SCT025 30/23 A3003 RMK AO2 T03030230

2010/08/09 16:04
KGYI 091604Z AUTO 22009G17KT 10SM CLR 34/21 A2996 RMK AO2 T03370214

2010/08/09 16:06
KHQZ 091606Z AUTO 19005KT 10SM CLR 32/22 A2996 RMK AO2

2010/08/09 16:04
KJOT 091604Z AUTO 00000KT 7SM CLR 26/21 A2994 RMK AO2

2010/08/09 16:05
KORG 091605Z AUTO 32004KT 10SM SCT032 32/25 A2999 RMK AO2

2010/08/09 16:05
KOXI 091605Z AUTO 17004KT 7SM CLR 27/21 A2996 RMK AO1 T02740206

2010/08/09 16:00
KOZA 091600Z AUTO 19010KT 10SM BKN024 OVC034 29/22 A3005 RMK AO2 T02930215

2010/08/09 16:04
KPPQ 091604Z AUTO 00000KT 7SM CLR 29/24 A2996 RMK AO2

2010/08/09 16:07
KPSN 091607Z AUTO 19007KT 32/24 A3001 RMK AO2 PWINO

2010/08/09 16:01
KPVW 091601Z AUTO 22012G17KT 10SM CLR 28/19 A3004 RMK AO2

2010/08/09 16:13
KPYX 091613Z AUTO 17007KT 10SM CLR 33/16 A2997 RMK AO2

2010/08/09 16:03
KRBO 091603Z AUTO 12008KT 10SM BKN031 OVC039 34/24 A2995 RMK AO2

2010/08/09 16:05
KRCR 091605Z AUTO 12003KT 7SM CLR 29/21 A3000 RMK AO2

2010/08/09 16:05
KSFY 091605Z AUTO 28004KT 10SM SCT070 SCT090 SCT110 26/22 A2994 RMK AO2

2010/08/09 16:04
KTFP 091604Z AUTO 14009G14KT 10SM SCT024 SCT031 SCT041 33/24 A2995 RMK AO2

2010/08/09 16:05
KAJG 091605Z AUTO 23003KT 10SM CLR 31/24 A2997 RMK AO2 T03070238

2010/08/09 16:05
KAXH 091605Z AUTO 00000KT 10SM SCT025 SCT033 32/25 A2998 RMK AO2 T03190247

2010/08/09 16:00
KBKD 091600Z AUTO 23007G16KT 10SM CLR 34/22 A2996 RMK AO2 T03350220

2010/08/09 16:05
KBKS 091605Z AUTO 17006KT 10SM SCT025 SCT032 32/24 A2993 RMK AO1 T03240240

2010/08/09 16:06
KBPC 091606Z AUTO 27005KT 10SM CLR 31/17 A2996 RMK AO2

2010/08/09 16:03
KBPG 091603Z AUTO 15009KT 10SM CLR 30/18 A3003 RMK AO1 T02950179

2010/08/09 15:55
KBXK 091555Z AUTO 00000KT 10SM FEW120 30/07 A2989 RMK AO1

2010/08/09 16:05
KBYY 091605Z AUTO 16003KT 10SM SCT030 33/26 A2997 RMK AO2 T03320262

2010/08/09 16:03
KC09 091603Z AUTO 00000KT 7SM CLR 26/22 A2995 RMK AO2

2010/08/09 16:05
KC75 091605Z AUTO 26003KT 10SM CLR 28/22 A2993 RMK AO2 T02770219

2010/08/09 16:00
KCIR 091600Z AUTO 21003KT 10SM CLR 32/24 A2997 RMK AO2 LTG DSNT SE

2010/08/09 15:55
KCNW 091555Z 17008KT 10SM SKC 33/22 A2997

2010/08/09 16:05
KCUL 091605Z AUTO 00000KT 7SM CLR 32/23 A2997 RMK AO2 T03200226 PWINO

2010/08/09 16:05
KCVB 091605Z AUTO 12006KT 10SM BKN029 31/21 A3000 RMK AO2 T03110214

2010/08/09 16:05
KCWC 091605Z AUTO 23012G17KT 10SM CLR 34/20 A2993 RMK AO2 T03400203

2010/08/09 16:05
KDKB 091605Z AUTO 22003KT 10SM BKN060 BKN070 25/21 A2996 RMK AO2 T02450206

2010/08/09 16:05
KDKR 091605Z AUTO 22007KT 10SM SCT023 32/32 A3002 RMK AO2

2010/08/09 16:05
KDNV 091605Z AUTO 24005KT 7SM SCT042 SCT049 28/22 A2996 RMK AO2 T02810224

2010/08/09 16:07
KDUX 091607Z AUTO 24005KT 10SM SCT100 30/15 A3002 RMK AO2 T02970148

2010/08/09 16:05
KDZB 091605Z AUTO 18005KT 7SM CLR 32/20 A2998 RMK AO2 T03150195

2010/08/09 16:04
KE38 091604Z AUTO 15003KT 10SM CLR 27/19 A3017 RMK AO2 T02680185

2010/08/09 16:10
KEBG 091610Z AUTO 18009KT 10SM SCT024 SCT030 33/24 A2993 RMK AO2 T03320243

2010/08/09 16:05
KECU 091605Z AUTO 15010KT 10SM BKN017 27/22 A3011 RMK AO2

2010/08/09 16:05
KENL 091605Z AUTO 21004KT 10SM CLR 32/25 A2997 RMK AO2 T03150246

2010/08/09 16:05
KFEP 091605Z AUTO 24009KT 10SM CLR 27/22 A2996 RMK AO2 T02650219

2010/08/09 16:05
KFWC 091605Z AUTO 17003KT 10SM CLR 32/26 A2997 RMK AO2

2010/08/09 16:05
KGBG 091605Z AUTO 00000KT 10SM CLR 26/21 A2993 RMK AO2

2010/08/09 16:05
KGOP 091605Z AUTO 20010KT 10SM CLR 32/23 A3000 RMK AO2

2010/08/09 16:05
KGVT 091605Z AUTO 19009KT 10SM CLR 34/20 A2997 RMK AO2

2010/08/09 16:05
KHHF 091605Z AUTO 27005KT 10SM CLR 33/17 A2993 RMK AO2 T03320174

2010/08/09 16:03
KHRX 091603Z AUTO 21016G19KT 10SM CLR 30/15 A3006 RMK AO2 T02960152

2010/08/09 16:05
KHSB 091605Z AUTO 28005KT 10SM CLR 32/21 A2997 RMK AO2

2010/08/09 16:05
KIGQ 091605Z AUTO 17004KT 5SM HZ CLR 27/21 A2995 RMK AO2

2010/08/09 16:05
KINJ 091605Z AUTO 15005KT 10SM CLR 32/23 A2997 RMK AO2 T03170227

2010/08/09 16:05
KJAS 091605Z AUTO 24006KT 10SM CLR 33/23 A3001 RMK AO2 T03260232

2010/08/09 16:05
KJDD 091605Z AUTO RMK AO2 PWINO TSNO

2010/08/09 16:05
KJSO 091605Z AUTO 22005KT 10SM CLR 31/23 A3003 RMK AO2 T03070225

2010/08/09 16:04
KJWY 091604Z AUTO 21007KT 10SM 32/23 A2996 RMK AO2 T03170225

2010/08/09 16:05
KJXI 091605Z AUTO 16004KT 10SM CLR 32/25 A3000 RMK AO2

2010/08/09 16:04
KLBR 091604Z AUTO 25006KT 10SM CLR 33/21 A2997 RMK AO2 T03260206

2010/08/09 16:02
KLHB 091602Z AUTO 19008KT 10SM CLR 32/22 A2999 RMK AO2 T03190224

2010/08/09 16:05
KLNC 091605Z AUTO 19004KT 10SM CLR 33/24 A2996 RMK AO2 T03250237

2010/08/09 16:05
KOLY 091605Z AUTO 00000KT 10SM CLR 33/23 A2997 RMK AO2

2010/08/09 16:05
KPNT 091605Z AUTO 21005KT 7SM CLR 29/23 A2994 RMK AO2

2010/08/09 16:05
KPRG 091605Z AUTO 22006KT 10SM CLR 31/22 A2998 RMK AO2 T03150229

2010/08/09 16:05
KRPJ 091605Z AUTO 25004KT 10SM CLR 25/22 A2996 RMK AO2 T02510217

2010/08/09 16:05
KRSV 091605Z AUTO 18003KT 10SM CLR 32/24 A2999 RMK AO2 T03170237

2010/08/09 16:06
KBIV 091606Z AUTO 21003KT 2 1/2SM RA BKN001 25/22 A2996 RMK AO2 P0004

2010/08/09 16:06
KDVT 091606Z 00000KT 1 3/4SM HZ CLR 32/01 A2989 RMK AO2

2010/08/09 16:06
KMFI 091606Z AUTO 33007KT 5SM BR OVC009 25/23 A2993 RMK AO2 CIG 005V012

2010/08/09 16:06
KSBA 091606Z 14006KT 3SM BR OVC005 15/13 A2993 RMK AO2

2010/08/09 16:06
KSLK 091606Z AUTO 22007KT 9SM FEW019 BKN040 OVC060 24/19 A2998 RMK AO2

2010/08/09 16:06
KSPW 091606Z AUTO 15007KT 10SM OVC015 25/22 A2992 RMK AO2

2010/08/09 16:00
TFFR 091600Z 12005KT 080V170 9999 SCT018 SCT053 28/25 Q1014 TEMPO 4000 SHRA

2010/08/09 16:00
SKBQ 091600Z 11006KT 9999 BKN015 31/26 A2992

2010/08/09 16:00
YSDU 091600Z AUTO 12009KT 9999NDV // SCT032 BKN039 OVC045 10/09 Q1016

2010/08/09 16:05
SBRJ 091605Z 19011G24KT 9999 FEW025 25/18 Q1019

2010/08/09 16:00
SPJL 091600Z 03009KT 340V100 CAVOK 13/M10 Q1041 RMK PP000

2010/08/09 15:50
HLLT 091550Z HLLT 36009KT 320V020 CAVOK 29/15 Q1015

2010/08/09 16:00
DNMM 091600Z 26003KT 9999 BKN011 27/24 Q1013 NOSIG

2010/08/09 16:00
FASI 091600Z AUTO 20005KT //// // ////// 12/M11 Q1025

2010/08/09 16:00
FIMP 091600Z 09010G20KT 9999 FEW010 BKN015 21/18 Q1024

2010/08/09 16:00
DGAA 091600Z 27010KT 9999 FEW012 SCT016 BKN100 28/23 Q1012 NOSIG

2010/08/09 16:00
LKCV 091600Z VRB02KT 9999 FEW037 SCT110 22/15 Q1016 NOSIG

2010/08/09 16:00
LKKB 091600Z 29004KT 260V330 CAVOK 22/13 Q1016 NOSIG

2010/08/09 16:00
LKLN 091600Z AUTO VRB03KT CAVOK 22/14 Q1017

2010/08/09 16:00
LKNA 091600Z 01005KT 340V060 9999 FEW042 SCT090 21/13 Q1017 NOSIG

2010/08/09 16:00
LKPD 091600Z 27004KT 9999 FEW033 BKN100 21/14 Q1016 NOSIG

2010/08/09 16:00
LKPO 091600Z 30004KT 260V360 9999 FEW040 22/15 Q1016 NOSIG

2010/08/09 16:00
LEMD 091600Z 24006KT 190V300 9999 FEW050 35/10 Q1017 NOSIG

2010/08/09 16:00
LEBL 091600Z 19009KT 170V230 9999 FEW025TCU 28/21 Q1014 NOSIG

2010/08/09 16:00
LEPA 091600Z 25013KT CAVOK 29/20 Q1015 NOSIG

2010/08/09 16:00
LEZL 091600Z 01007KT CAVOK 40/09 Q1012 NOSIG

2010/08/09 16:00
LEMG 091600Z 14009KT 110V170 CAVOK 29/19 Q1015 NOSIG

2010/08/09 16:00
LEVC 091600Z 11012KT 080V150 9999 FEW045 32/18 Q1013 NOSIG

2010/08/09 16:00
LEAL 091600Z 09007KT CAVOK 30/21 Q1015 NOSIG

2010/08/09 16:00
LEIB 091600Z 08007KT 050V130 CAVOK 28/21 Q1015 NOSIG

2010/08/09 16:00
LELC 091600Z 06006KT 030V120 CAVOK 29/15 Q1014 NOSIG

2010/08/09 16:00
LEVX 091600Z VRB04KT CAVOK 31/15 Q1017

2010/08/09 16:00
SKBO 091600Z 22006KT 9999 BKN020 SCT080 17/11 A3039 NOSIG

2010/08/09 16:00
SKBQ 091600Z 11006KT 9999 BKN015 31/26 A2992

2010/08/09 16:00
SKCL 091600Z VRB02KT 9999 SCT020 27/19 A3005

2010/08/09 16:00
SKCG 091600Z 25008KT 9999 FEW012 BKN200 31/25 A2990

2010/08/09 16:00
SKCC 091600Z 36004KT 9999 SCT023 32/20 A2998

2010/08/09 16:00
SKLT 091600Z 18003KT 6000 BKN030 29/24 A3001 RMK APCLO

2010/08/09 16:00
SKRG 091600Z 00000KT 9999 SCT017TCU SCT200 19/14 A3033 REDZ

2010/08/09 16:00
SKSP 091600Z 09013KT 9999 SCT015TCU SCT080 29/26 A2987 REDZ

2010/08/09 16:00
SKBG 091600Z 30004KT 9999 SCT015 SCT070 24/20 A3008 REDZ

2010/08/09 16:00
SKPE 091600Z 27005KT 9999 SCT016TCU 23/18 A3016

2010/08/09 16:03
YSDU 091603Z AUTO 11009KT 9999NDV // SCT034 BKN041 OVC051 10/09 Q1016

2010/08/09 16:00
LEAB 091600Z 35003KT 280V040 CAVOK 32/10 Q1018 NOSIG

2010/08/09 16:00
LEBZ 091600Z 08003KT 030V140 CAVOK 37/15 Q1014

2010/08/09 16:00
LELN 091600Z 26015KT 230V300 CAVOK 31/M01 Q1018

2010/08/09 16:00
LESA 091600Z 26005KT 230V330 8000 FEW035 33/16 Q1019

2010/08/09 16:00
LETO 091600Z 18003KT 100V220 9999 FEW050 33/12 Q1017 NOSIG

2010/08/09 16:00
LEVD 091600Z 30013G25KT 250V330 9999 FEW035 31/07 Q1018

2010/08/09 16:00
SMJP 091600Z 17004KT 9999 SCT030 FEW035CB 31/23 Q1014 NOSIG

2010/08/09 16:00
LRAR 091600Z 36004KT 310V070 9999 FEW049 27/16 Q1016

2010/08/09 16:00
LRBM 091600Z 30006KT 260V350 9999 FEW036 FEW040TCU 25/17 Q1015

2010/08/09 16:00
LRCL 091600Z 30006KT 9999 FEW050 23/17 Q1016

2010/08/09 16:00
LROD 091600Z 32006KT 290V350 CAVOK 25/16 Q1016

2010/08/09 16:00
LRSM 091600Z 27004KT 220V360 9999 FEW046 26/16 Q1016

2010/08/09 16:00
LRTM 091600Z 23004KT 9999 FEW036 26/19 Q1015

2010/08/09 16:00
LRBC 091600Z 02006KT 350V050 CAVOK 26/20 Q1014

2010/08/09 16:00
LRCV 091600Z 30006KT 270V340 CAVOK 29/18 Q1013

2010/08/09 16:00
LRIA 091600Z 34006KT CAVOK 26/20 Q1014

2010/08/09 16:00
LRSV 091600Z 33003KT CAVOK 22/19 Q1016

2010/08/09 16:00
LRTC 091600Z AUTO 34010KT 9999 NCD 30/21 Q1010

2010/08/09 16:00
FYGB 091600Z AUTO 13006KT //// // ////// 18/M05 Q1026

2010/08/09 16:00
FYGF 091600Z AUTO 13009KT //// // ////// 26/M04 Q1022

2010/08/09 16:00
FYKT 091600Z AUTO 12005KT //// // ////// 17/M09 Q1028

2010/08/09 16:00
FYLZ 091600Z 19017G28KT 160V220 //// VV/// 20/01 Q1021 

2010/08/09 16:00
FYML 091600Z AUTO 15006KT //// // ////// ///// Q1029

2010/08/09 16:00
FYOA 091600Z AUTO 10006KT //// // ////// 30/M04 Q1017

2010/08/09 16:00
FYOJ 091600Z AUTO 11007KT //// // ////// 28/M05 Q1018

2010/08/09 16:00
FYOW 091600Z AUTO 11009KT //// // ////// 26/M07 Q1021

2010/08/09 16:00
FYWB 091600Z 27006KT 4200 VV/// 21/08 Q1013 

2010/08/09 16:00
FYWH 091600Z AUTO 12011KT //// // ////// 18/M06 Q1027

2010/08/09 16:00
FYWW 091600Z 11007KT CAVOK 17/M10 Q1025

2010/08/09 16:00
FABL 091600Z 22013KT CAVOK 08/M12 Q1026 NOSIG

2010/08/09 16:00
FACT 091600Z 15005KT 9999 SCT036 11/08 Q1033 NOSIG

2010/08/09 16:00
FAEL 091600Z 24018KT 9999 FEW025 14/00 Q1024

2010/08/09 16:00
FAGG 091600Z 28014KT 9999 BKN050 10/07 Q1030

2010/08/09 16:00
FAJS 091600Z 21014KT CAVOK 11/M10 Q1025 NOSIG

2010/08/09 16:00
FAKN 091600Z 12008KT 8000 NSC 21/09 Q1019 NOSIG

2010/08/09 16:00
FALA 091600Z 21010KT 180V240 CAVOK 13/M10 Q1025 NOSIG

2010/08/09 16:00
FALE 091600Z 30005KT 7000 TSRA BKN020 FEW030CB OVC045 13/09 Q1022 TEMPO 5000

2010/08/09 16:00
FAMM 091600Z 19011KT CAVOK 14/M12 Q1025 NOSIG

2010/08/09 16:00
FAPE 091600Z 24031G44KT 5000 SHRA OVC036 09/08 Q1026 BECMG 7000

2010/08/09 16:00
FAPN 091600Z AUTO 22006KT //// // ////// 18/M11 Q1022

2010/08/09 16:00
FAPP 091600Z 22007KT 8000 NSC 23/M00 Q1020 NOSIG

2010/08/09 16:00
FAUP 091600Z 16010KT CAVOK 12/M08 Q1029 NOSIG

2010/08/09 16:00
ZBAA 091600Z 09001MPS 2000 BR SKC 26/24 Q1006 NOSIG

2010/08/09 16:00
ZBSJ 091600Z 00000MPS 1500 BR NSC 26/24 Q1006 NOSIG

2010/08/09 16:00
ZBTJ 091600Z 03001MPS 2500 BR NSC 26/24 Q1006 NOSIG

2010/08/09 16:00
ZBYN 091600Z 09002MPS 060V120 3000 -RA BR BKN040 24/20 Q1009 NOSIG

2010/08/09 16:00
ZGGG 091600Z 14002MPS 9999 FEW046 30/26 Q1006 NOSIG

2010/08/09 16:00
ZSHC 091600Z 07002MPS CAVOK 28/25 Q1004

2010/08/09 16:00
ZSPD 091600Z 05005MPS 360V070 9999 BKN011 28/26 Q1003 NOSIG

2010/08/09 16:00
ZSSS 091600Z 07002MPS 040V100 9999 SCT020 29/26 Q1003 NOSIG

2010/08/09 16:00
ZWSH 091600Z 07002MPS CAVOK 29/08 Q1009 NOSIG

2010/08/09 16:00
ZWWW 091600Z 28004MPS 250V340 CAVOK 27/08 Q1008 NOSIG

2010/08/09 16:00
ZYTL 091600Z VRB01MPS 6000 BKN040 24/22 Q1007 NOSIG

2010/08/09 16:00
ZYTX 091600Z 10001MPS 9999 OVC030 22/21 Q1007 NOSIG

2010/08/09 15:55
PWAK 091555Z 07013KT 10SM SCT021 27/24 A3002

2010/08/09 15:50
PTYA 091550Z 19005KT 12SM SCT016 SCT030 BKN130 OVC300 26/23 A2985

2010/08/09 15:55
PWAK 091555Z 07013KT 10SM SCT021 27/24 A3002

2010/08/09 16:05
UMGG 091605Z 20012G18MPS 9999 SCT040CB BKN100 35/14 Q1013 R10/CLRD// TEMPO 5000 TSRA

2010/08/09 15:55
KLGC 091555Z AUTO 04003KT 10SM FEW049 32/22 A3004

2010/08/09 16:06
KFDK 091606Z AUTO 20004KT 10SM CLR 34/16 A3002

2010/08/09 16:00
KWDR 091600Z AUTO 00000KT 10SM SCT100 32/21 A3012

2010/08/09 15:55
KLGC 091555Z AUTO 04003KT 10SM FEW049 32/22 A3004

2010/08/09 16:00
KOPN 091600Z AUTO 08005KT 10SM SCT045 33/24 A3006

2010/08/09 16:00
UOII 091600Z 32005MPS CAVOK 10/07 Q1008 NOSIG RMK QFE753 30////60

2010/08/09 16:00
UOOO 091600Z 35004G05MPS 9999 BKN015 07/06 Q1009 NOSIG RMK QFE742 010///60

2010/08/09 16:00
USCM 091600Z VRB02MPS 6000 SCT200 22/09 Q1020 NOSIG 01090065 RMK QFE726

2010/08/09 16:00
UIAA 091600Z VRB01MPS 9999 SKC 10/10 Q1007 NOSIG RMK QFE697 29190060

2010/08/09 16:00
UIBB 091600Z 22002MPS 5000 SCT040CB BKN100 15/14 Q1003 NOSIG RMK QFE710/0946 30190055

2010/08/09 16:00
UIII 091600Z 10002MPS 070V140 CAVOK 09/07 Q1004 NOSIG RMK QFE711/0948 12CLRD60

2010/08/09 16:00
UIUU 091600Z 28003MPS 9999 SKC 12/06 Q1005 NOSIG RMK QFE710/0947

2010/08/09 16:00
WBKK 091600Z 10005KT 9999 FEW014 SCT140 BKN270 27/25 Q1011 NOSIG

2010/08/09 16:00
WMKJ 091600Z 04001KT 9999 FEW022 BKN300 26/24 Q1010

2010/08/09 16:00
WMKK 091600Z 11002KT 9999 FEW030 SCT140 BKN280 27/25 Q1009 NOSIG

2010/08/09 16:00
WMKP 091600Z 30001KT 9000 FEW025 SCT140 BKN270 28/27 Q1008 NOSIG

2010/08/09 16:00
WMSA 091600Z 00000KT 9999 FEW027 BKN280 28/25 Q1009

2010/08/09 16:06
KCBE 091606Z AUTO 00000KT 10SM CLR 30/18 A3007

2010/08/09 16:00
KAYS 091600Z AUTO 08012G17KT 10SM SCT080 A3000

2010/08/09 15:54
KSBN 091554Z COR 00000KT 10SM BKN044 BKN085 26/21 A2999

2010/08/09 16:00
SABE 091600Z 36007KT 3000 HZ NSC 14/09 Q1026

2010/08/09 16:00
UEEE 091600Z 00000MPS CAVOK 11/10 Q1009 NOSIG RMK QFE748 2309//60

2010/08/09 16:00
UELL 091600Z 00000MPS 9999 BKN200 14/10 Q1012 NOSIG RMK QFE684 08CLRD70

2010/08/09 16:00
UERP 091600Z 34002MPS P4000 OVC031 09/07 Q1003 NOSIG RMK QFE709 17190260

2010/08/09 16:00
UERR 091600Z VRB01MPS 9999 BKN021CB OVC040 12/12 Q1004 NOSIG RMK QFE722 24290350

2010/08/09 16:07
UEST 091607Z 18002MPS 9999 SCT018 OVC046 12/09 Q1007 NOSIG RMK QFE754

2010/08/09 16:00
UHHH 091600Z 06002MPS 9999 FEW033CB OVC100 21/21 Q1008 NOSIG RMK QFE749/0999 23090060

2010/08/09 16:00
UHMM 091600Z 00000MPS 9999 FEW200 03/03 Q1012 RMK QFE744 88010070

2010/08/09 16:00
UHNN 091600Z 36003MPS 9999 SKC 13/12 Q1015 RMK QFE756

2010/08/09 16:00
UHPP 091600Z 35003MPS 9999 NSC 10/07 Q1013 NOSIG RMK QFE756/1008 SC070

2010/08/09 16:00
UHSS 091600Z 36002MPS 2200 -SHRA BR SCT006 OVC015CB 18/18 Q1015 RMK MT OBSC QFE760/1013

2010/08/09 16:00
UHWW 091600Z 18005MPS 9999 BKN013 OVC033CB 24/M11 Q1009 NOSIG RMK QFE756/1008 75CLRD70

2010/08/09 16:00
UUYH 091600Z 20002MPS CAVOK 21/18 Q1014 NOSIG RMK QFE 749 18CLRD60

2010/08/09 16:00
UUYS 091600Z 23003MPS CAVOK 17/11 Q1011 NOSIG RMK QFE752 14CLRD60

2010/08/09 16:00
UUYY 091600Z 21003MPS 9000 OVC200 27/21 Q1016 NOSIG 19CLRD61 RMK QFE753/1004

2010/08/09 16:00
ULAA 091600Z VRB01MPS 2200 FU NSC 29/23 Q1009 TEMPO 1000 BR RMK QFE755/1007 SC070

2010/08/09 16:00
ULMM 091600Z 03004G08MPS 9000 -SHRA OVC009CB 10/09 Q1011 NOSIG RMK QFE751 32290250

2010/08/09 16:00
ULOO 091600Z 22003MPS P6000 SCT039 OVC200 24/17 Q1015 NOSIG RMK QFE757

2010/08/09 16:00
ULWW 091600Z 15002MPS 2700 HZ SCT/// 29/21 Q1016 NOSIG RMK QFE751 15CLRD60

2010/08/09 16:00
UMKK 091600Z 04002MPS 010V090 6000 BKN016CB OVC200 21/18 Q1015 R24/CLRD60 TEMPO 2000 TSRA RMK QFE760/1013

2010/08/09 16:00
UUOB 091600Z VRB01MPS CAVOK 34/11 Q1014 NOSIG RMK SC065

2010/08/09 16:00
UUOO 091600Z 08002MPS CAVOK 34/06 Q1014 NOSIG RMK 13090070

2010/08/09 16:00
UWGG 091600Z VRB01G07MPS 2800 FU BKN230 33/14 Q1018 NOSIG 36090070 RMK QFE757

2010/08/09 15:50
HLLB 091550Z 33022KT 9999 SCT020 27/18 Q1013

2010/08/09 16:00
ULLI 091600Z 32003MPS 300V360 CAVOK 25/18 Q1013 NOSIG

2010/08/09 16:00
UUDD 091600Z 11005MPS 0900 R14R/0900N R14L/1000N FU VV010 32/13 Q1016 TEMPO 0500

2010/08/09 16:00
UUEE 091600Z 18002MPS 140V210 4300 FU SKC 33/11 Q1016 NOSIG

2010/08/09 16:00
UUWW 091600Z VRB02MPS 4600 HZ BKN200 33/12 Q1016 24000070 NOSIG

2010/08/09 16:00
URKA 091600Z 03004MPS CAVOK 31/22 Q1007 NOSIG RMK 065

2010/08/09 16:00
URKK 091600Z 05004MPS CAVOK 33/10 Q1006 NOSIG RMK QFE751 SC070

2010/08/09 16:00
URKM 091600Z 11004MPS CAVOK 35/11 Q1007 RMK QFE737

2010/08/09 16:00
URML 091600Z 09006MPS 9999 SCT100 29/25 Q1009 NOSIG RMK QFE757 / 07

2010/08/09 16:00
URMM 091600Z 14005MPS 9999 SKC 32/11 Q1009 NOSIG RMK / SC070

2010/08/09 16:00
URMN 091600Z 16001MPS 9999 SKC 32/11 Q1010 NOSIG RMK / QFE721 SC07

2010/08/09 16:00
URMT 091600Z 08005MPS CAVOK 31/04 Q1010 NOSIG RMK QFE718 SC07

2010/08/09 16:00
URRR 091600Z 04004MPS CAVOK 34/07 Q1010 NOSIG RMK SC070

2010/08/09 16:00
URSS 091600Z 32003MPS 290V350 9999 FEW100 31/21 Q1005 NOSIG RMK / QFE752 06CLRD70

2010/08/09 16:00
URWA 091600Z 15002MPS CAVOK 33/14 Q1011 NOSIG RMK SC07

2010/08/09 16:00
URWW 091600Z 09003MPS CAVOK 34/08 Q1013 NOSIG RMK SC070

2010/08/09 16:00
UNAA 091600Z 00000MPS 9999 FEW033CB BKN100 16/14 Q1005 NOSIG RMK QFE731 200///65

2010/08/09 16:00
UNBB 091600Z 04004MPS CAVOK 14/10 Q1007 NOSIG RMK QFE733

2010/08/09 16:00
UNEE 091600Z 31003MPS CAVOK 11/10 Q1007 NOSIG RMK QFE733 23CLRD60

2010/08/09 16:00
UNKL 091600Z VRB02MPS 9999 SCT040CB BKN083 OVC240 11/09 Q1005 NOSIG RMK QFE729 29////60

2010/08/09 16:00
UNNT 091600Z VRB02MPS CAVOK 13/10 Q1009 NOSIG RMK QFE746/0995 07090070

2010/08/09 16:00
UNOO 091600Z 35005MPS 9999 BKN026 14/10 Q1014 NOSIG 25CLRD06 RMK QFE753

2010/08/09 16:00
UNWW 091600Z 35001MPS 9999 BKN026CB BKN130 13/12 Q1007 NOSIG RMK QFE728 19CLRD70

2010/08/09 16:00
USTR 091600Z 33002MPS CAVOK 14/08 Q1020 NOSIG RMK QFE756/1008 30CLRD65 21CLRD65

2010/08/09 16:00
USHH 091600Z 00000MPS CAVOK 11/07 Q1019 NOSIG RMK QFE761 SC06

2010/08/09 16:00
CWAE 091600Z 18005KT 15SM FEW016 OVC040 14/12 A2993 RMK SC2SC6 WND ESTD SLP132

2010/08/09 16:00
CYBR 091600Z 19006KT 15SM BKN150 BKN250 25/19 A2983 RMK AC6CI2 SLP099

2010/08/09 16:00
DAAE 091600Z 09006KT CAVOK 29/21 Q1014

2010/08/09 16:00
DAAJ 091600Z 35012KT CAVOK 37/// Q1015

2010/08/09 16:00
DAAP 091600Z 04012KT CAVOK 38/12 Q1012

2010/08/09 16:00
DAAV 091600Z 32006KT CAVOK 31/21 Q1013

2010/08/09 16:00
DAAY 091600Z 21008KT 9999 SCT033 SCT233 38/11 Q1021

2010/08/09 16:00
DABT 091600Z 04012KT CAVOK 35/06 Q1019

2010/08/09 16:00
DAOR 091600Z 18006KT 8000 FEW033 41/08 Q1017

2010/08/09 16:00
DAUA 091600Z 03018KT 8000 NSC 46/// Q1009

2010/08/09 16:00
DAUB 091600Z 14004KT CAVOK 38/16 Q1012

2010/08/09 16:00
DAUE 091600Z 09012KT CAVOK 43/13 Q1015

2010/08/09 16:00
DAUG 091600Z 07010KT CAVOK 38/15 Q1015

2010/08/09 16:00
DAUK 091600Z 02008KT CAVOK 38/16 Q1013

2010/08/09 16:00
DAUO 091600Z /////KT CAVOK 38/14 Q1012

2010/08/09 16:00
DAUT 091600Z 05011KT 9000 NSC 44/// Q1010

2010/08/09 16:00
DAUU 091600Z 34012KT CAVOK 42/19 Q1011

2010/08/09 16:00
MNMG 091600Z 08004KT 9999 FEW022 SCT300 30/23 Q1011 A2988

2010/08/09 16:00
OIII 091600Z 09006KT 9999 FEW040 SCT100 33/02 Q1013 A2992 878/2

2010/08/09 16:00
TGPY 091600Z 13007KT 9999 SCT012CB BKN250 30/26 Q1014 CB-SE/S/SW/WSW/ JP-SE/S/SW

2010/08/09 16:00
TTCP 091600Z 14008KT 9999 SCT010CB BKN280 31/25 Q1015 NOSIG CB-NE TO SE/JP-NE TO SE/SW

2010/08/09 16:00
TTPP 091600Z ///10KT 8000 -SHRA FEW010CB BKN018 BKN300 30/24 Q1014 NOSIG CB-W/S/NW

2010/08/09 16:00
WMKK 091600Z 11002KT 9999 FEW030 SCT140 BKN280 27/25 Q1009 NOSIG

2010/08/09 16:00
WMKP 091600Z 30001KT 9000 FEW025 SCT140 BKN270 28/27 Q1008 NOSIG

2010/08/09 16:00
WMSA 091600Z 00000KT 9999 FEW027 BKN280 28/25 Q1009

2010/08/09 15:50
MASA 091550Z VRB02KT CAVOK 30/18 Q1009

2010/08/09 16:00
OIYY 091600Z 04004KT CAVOK 32/M05 Q1012 A2991

2010/08/09 16:00
UWUU 091600Z 35003MPS 310V010 CAVOK 26/07 Q1018 82010060 NOSIG RMK QFE753/1004

2010/08/09 16:00
USCC 091600Z 00000MPS 2400 HZ SCT070 BKN200 19/08 Q1020 NOSIG RMK QFE744 09000070

2010/08/09 16:00
USDD 091600Z 22003MPS CAVOK 14/09 Q1016 NOSIG RMK QFE757/1010

2010/08/09 16:00
USMU 091600Z 33003MPS CAVOK 08/06 Q1015 NOSIG RMK QFE755 27CLRD60

2010/08/09 16:00
USNN 091600Z 33002MPS P6000 OVC066 12/09 Q1015 NOSIG RMK QFE757 SC065

2010/08/09 16:00
USRK 091600Z 30004MPS 6000 SCT050 BKN200 11/06 Q1016 NOSIG RMK QFE756 350///60

2010/08/09 16:00
USRR 091600Z 31003MPS 7000 BKN049 12/08 Q1018 NOSIG RMK QFE758 25////60

2010/08/09 16:00
USSS 091600Z 10003MPS 5000 FU SCT036 OVC200 18/10 Q1020 NOSIG RMK QFE744 260///70

2010/08/09 16:00
USPP 091600Z 13002MPS CAVOK 22/13 Q1019 NOSIG 21090060 RMK QFE753/1004

2010/08/09 16:00
UWKD 091600Z 17002MPS CAVOK 31/11 Q1019 NOSIG RMK QFE755/1007 11CLRD70

2010/08/09 16:00
UWKE 091600Z 00000MPS CAVOK 30/11 Q1019 NOSIG RMK QFE747/0996 04090070

2010/08/09 16:00
UWKS 091600Z VRB01MPS CAVOK 31/12 Q1020 NOSIG RMK QFE750 SC0.60

2010/08/09 16:00
UWLL 091600Z 02004MPS CAVOK 28/11 Q1019 NOSIG RMK QFE752/1003 SC065

2010/08/09 16:00
UWLW 091600Z 36002MPS 8000 FEW200 30/18 Q1019 NOSIG 02CLRD60 RMK QFE758

2010/08/09 16:00
UWOR 091600Z 06005MPS CAVOK 26/04 Q1019 07CLRD65 NOSIG RMK QFE739/0985

2010/08/09 16:00
UWOO 091600Z 08004MPS 5000 HZ 28/11 Q1016 08CLRD65 NOSIG RMK QFE751/1002

2010/08/09 16:00
UWPP 091600Z 09003MPS CAVOK 23/19 Q1018 NOSIG RMK QFE748 11090060

2010/08/09 16:00
UWSS 091600Z VRB02MPS CAVOK 32/14 Q1017 NOSIG RMK QFE751 120///60

2010/08/09 16:00
UWWW 091600Z 05004MPS CAVOK 29/02 Q1018 NOSIG RMK QFE751/1001 05CLRD60 15//99//

2010/08/09 15:55
LIRV 091555Z 25013KT 9999 FEW030 28/12 Q1016 RMK FEW MON E SE LIB NC VIS MIN 9999 BLU

2010/08/09 15:54
KSBN 091554Z COR 00000KT 10SM BKN044 BKN085 26/21 A2999

2010/08/09 16:00
GABS 091600Z 19004KT 150V210 9999 SCT025 FEW026TCU 28/23 Q1013 NOSIG

2010/08/09 16:00
GGOV 091600Z 23013KT 9999 SCT015TCU SCT020CB 31/24 Q1011 TEMPO TS

2010/08/09 16:00
GOOY 091600Z 30006KT 260V340 9999 SCT013 BKN230 29/22 Q1011 NOSIG

2010/08/09 16:00
DIAP 091600Z 24010KT 8000 SCT011 BKN080 28/22 Q1013 NOSIG

2010/08/09 16:00
GQNN 091600Z 27009KT 240V300 CAVOK 31/19 Q1010 NOSIG

2010/08/09 16:00
GQPP 091600Z 31014KT CAVOK 25/19 Q1012 NOSIG

2010/08/09 16:00
GUCY 091600Z 29008KT 9999 BKN015 SCT110 28/25 Q1011 NSG

2010/08/09 16:00
GVAC 091600Z 06009KT 9999 SCT014 29/19 Q1013 NOSIG

2010/08/09 16:00
GBYD 091600Z 27007KT 9999 BKN012 31/23 Q1011

2010/08/09 16:00
GLRB 091600Z 23008KT 9999 BKN016 27/24 Q1012 NOSIG

2010/08/09 16:00
EICK 091600Z 31012KT 9999 SCT036 19/08 Q1011 NOSIG

2010/08/09 16:00
EIDW 091600Z 26014KT 210V280 9999 FEW028 17/08 Q1010 NOSIG

2010/08/09 16:00
EIKN 091600Z 25015KT 9999 FEW018CB SCT020 15/10 Q1010 NOSIG

2010/08/09 16:00
EINN 091600Z 26013KT 230V290 9999 SCT028 18/11 Q1011 NOSIG

2010/08/09 16:00
BIAR 091600Z 34013KT CAVOK 15/10 Q1011

2010/08/09 16:00
BIEG 091600Z 35006KT 9999 FEW040 20/10 Q1010

2010/08/09 16:00
BIKF 091600Z 30009KT 9999 BKN006 12/08 Q1013

2010/08/09 16:00
BIRK 091600Z 28005KT 9999 SCT008 BKN024 12/10 Q1013

2010/08/09 16:00
SYCJ 091600Z 01006KT 9000 VCSH BKN019 SCT040 29/25 Q1014 JP E-SE AND SSW TEMPO 9000 SHRA

2010/08/09 16:00
GABS 091600Z 19004KT 150V210 9999 SCT025 FEW026TCU 28/23 Q1013 NOSIG

2010/08/09 16:00
GGOV 091600Z 23013KT 9999 SCT015TCU SCT020CB 31/24 Q1011 TEMPO TS

2010/08/09 16:00
GOOY 091600Z 30006KT 260V340 9999 SCT013 BKN230 29/22 Q1011 NOSIG

2010/08/09 16:00
DIAP 091600Z 24010KT 8000 SCT011 BKN080 28/22 Q1013 NOSIG

2010/08/09 16:00
GQNN 091600Z 27009KT 240V300 CAVOK 31/19 Q1010 NOSIG

2010/08/09 16:00
GQPP 091600Z 31014KT CAVOK 25/19 Q1012 NOSIG

2010/08/09 16:00
GUCY 091600Z 29008KT 9999 BKN015 SCT110 28/25 Q1011 NSG

2010/08/09 16:00
GVAC 091600Z 06009KT 9999 SCT014 29/19 Q1013 NOSIG

2010/08/09 16:00
GBYD 091600Z 27007KT 9999 BKN012 31/23 Q1011

2010/08/09 16:00
GLRB 091600Z 23008KT 9999 BKN016 27/24 Q1012 NOSIG

2010/08/09 16:00
UAAA 091600Z 18003MPS 9999 SCT050CB BKN100 24/07 Q1009 88CLRD65 TEMPO TS

2010/08/09 16:00
UACC 091600Z 02004MPS 7000 BKN060 13/05 Q1013 040/0070 NOSIG RMK QFE728/0971

2010/08/09 16:00
UAFM 091600Z 20002MPS CAVOK 27/07 Q1009 NOSIG

2010/08/09 16:00
UATE 091600Z 08005MPS 9999 SCT060CB BKN183 34/03 Q1009 120///70 NOSIG RMK QFE755/1007

2010/08/09 16:00
UATT 091600Z 05007MPS 8000 FU SKC 29/07 Q1015 31CLRD70 NOSIG RMK QFE741/0988

2010/08/09 16:00
UKKK 091600Z 23009G15MPS 7000 -TSRA SCT008 BKN030CB 29/13 Q1015 26CLRD70 TEMPO VRB12G17MPS 2000 TSRAGR BKN020CB

2010/08/09 16:00
ULLI 091600Z 32003MPS 300V360 CAVOK 25/18 Q1013 NOSIG

2010/08/09 16:00
UMGG 091600Z 24009G12MPS 9999 BKN033CB BKN100 32/16 Q1014 R10/D NOSIG

2010/08/09 16:00
UMII 091600Z 31003G06MPS P6000 FEW040CB SCT100 28/15 Q1015 R23/D NOSIG

2010/08/09 16:00
UMMM 091600Z 32002MPS 9999 BKN013 OVC100 20/18 Q1016 R30/290050 NOSIG RMK QFE743

2010/08/09 16:00
UMMS 091600Z 35002MPS 9999 FEW043CB BKN116 21/19 Q1016 R31/290060 NOSIG

2010/08/09 16:00
UTAA 091600Z VRB02MPS 9999 FEW230 31/08 Q1008 NOSIG

2010/08/09 16:00
UTAA 091600Z 33003MPS 9999 FEW230 33/07 Q1006 NOSIG

2010/08/09 16:00
UTDD 091600Z 05003MPS 9999 FEW066 FEW190 29/05 Q1005 09CLRD70 NOSIG RMK QFE686/0915

2010/08/09 16:00
UUDD 091600Z 11005MPS 0900 R14R/0900N R14L/1000N FU VV010 32/13 Q1016 TEMPO 0500

2010/08/09 16:00
UUEE 091600Z 18002MPS 140V210 4300 FU SKC 33/11 Q1016 NOSIG

2010/08/09 16:00
UUWW 091600Z VRB02MPS 4600 HZ BKN200 33/12 Q1016 24000070 NOSIG

2010/08/09 16:00
VTBD 091600Z 20006KT 8000 -RA FEW018CB SCT035 BKN110 25/23 Q1006 CB SE-S NOSIG

2010/08/09 16:00
LEVS 091600Z VRB03KT 9999 FEW050 35/11 Q1018

2010/08/09 16:01
CYUA 091601Z AUTO 10006KT 9SM BKN007 BKN056 08/ A2977

2010/08/09 16:00
UELL 091600Z 00000MPS 9999 BKN200 14/10 Q1012 NOSIG RMK QFE684 08CLRD70

2010/08/09 16:00
UHHH 091600Z 06002MPS 9999 FEW033CB OVC100 21/21 Q1008 NOSIG RMK QFE749/0999 23090060

2010/08/09 16:00
UHMM 091600Z 00000MPS 9999 FEW200 03/03 Q1012 RMK QFE744 88010070

2010/08/09 16:00
UHNN 091600Z 36003MPS 9999 SKC 13/12 Q1015 RMK QFE756

2010/08/09 16:00
UHPP 091600Z 35003MPS 9999 NSC 10/07 Q1013 NOSIG RMK QFE756/1008 SC070

2010/08/09 16:00
UHSS 091600Z 36002MPS 2200 -SHRA BR SCT006 OVC015CB 18/18 Q1015 RMK MT OBSC QFE760/1013

2010/08/09 16:00
UHWW 091600Z 18005MPS 9999 BKN013 OVC033CB 24/M11 Q1009 NOSIG RMK QFE756/1008 75CLRD70

2010/08/09 16:00
UIAA 091600Z VRB01MPS 9999 SKC 10/10 Q1007 NOSIG RMK QFE697 29190060

2010/08/09 16:00
UIII 091600Z 10002MPS 070V140 CAVOK 09/07 Q1004 NOSIG RMK QFE711/0948 12CLRD60

2010/08/09 16:00
ULWW 091600Z 15002MPS 2700 HZ SCT/// 29/21 Q1016 NOSIG RMK QFE751 15CLRD60

2010/08/09 16:00
UMKK 091600Z 04002MPS 010V090 6000 BKN016CB OVC200 21/18 Q1015 R24/60D TEMPO 2000 TSRA RMK QFE760/1013

2010/08/09 16:00
URKA 091600Z 03004MPS CAVOK 31/22 Q1007 NOSIG RMK 065

2010/08/09 16:00
URMM 091600Z 14005MPS 9999 SKC 32/11 Q1009 NOSIG RMK / SC070

2010/08/09 16:00
URSS 091600Z 32003MPS 290V350 9999 FEW100 31/21 Q1005 NOSIG RMK / QFE752 06CLRD70

2010/08/09 16:00
UWGG 091600Z VRB01G07MPS 2800 FU BKN230 33/14 Q1018 NOSIG 36090070 RMK QFE757

2010/08/09 16:00
UWKD 091600Z 17002MPS CAVOK 31/11 Q1019 NOSIG RMK QFE755/1007 11CLRD70

2010/08/09 16:00
UWOO 091600Z 08004MPS 5000 HZ 28/11 Q1016 08CLRD65 NOSIG RMK QFE751/1002

2010/08/09 16:00
UWPP 091600Z 09003MPS CAVOK 23/19 Q1018 NOSIG RMK QFE748 11090060

