2010/08/09 22:59
MYEG 092259Z AUTO 10004KT 10SM SCT060 SCT095 25/22 A2995 RMK AO2 LTG DSNT W 

2010/08/09 22:59
MYEG 092259Z AUTO 10004KT 10SM SCT060 SCT095 25/22 A2995 RMK AO2 LTG DSNT W

2010/08/09 22:45
KBAX 092245Z AUTO 22010KT 10SM SCT110 25/21 A2990 RMK AO2

2010/08/09 22:45
KBAX 092245Z AUTO 22010KT 10SM SCT110 25/21 A2990 RMK AO2

2010/08/09 22:50
KQEV 092250Z AUTO 14003KT 7SM BKN004 BKN049 26/23 A2981 RMK A02

2010/08/09 22:45
KBAX 092245Z AUTO 22010KT 10SM SCT110 25/21 A2990 RMK AO2

2010/08/09 22:55
KFDW 092255Z AUTO 09004KT 10SM CLR 33/18 A3000 RMK AO1

2010/08/09 22:45
KBAX 092245Z AUTO 22010KT 10SM SCT110 25/21 A2990 RMK AO2

2010/08/09 22:55
KFDW 092255Z AUTO 09004KT 10SM CLR 33/18 A3000 RMK AO1

2010/08/09 22:45
CYZP 092245Z AUTO 26008KT 5SM -RA BR BKN023 OVC029 15/14 A3004 RMK SLP173

2010/08/09 22:47
KSUA 092247Z 13012G20KT 10SM SCT050 30/23 A2991

2010/08/09 22:45
PAER 092245Z 00000KT 11SM OVC070 14/08 A2954 RMK EPO

2010/08/09 22:45
CWCL 092245Z AUTO 11003KT 9SM OVC027 13/09 A2995

2010/08/09 22:45
KBTR 092245Z 21008KT 7SM -RA FEW006 SCT039 BKN110 26/24 A2992 RMK AO2 TSE45RAB2158 CB DSNT S-SW MOVG SW TS MOVD SW P0005 

2010/08/09 22:46
CWOB 092246Z AUTO ///// 0SM CLR 04/ A2973

2010/08/09 22:45
KBTR 092245Z 21008KT 7SM -RA FEW006 SCT039 BKN110 26/24 A2992 RMK AO2 TSE45RAB2158 CB DSNT S-SW MOVG SW TS MOVD SW P0005

2010/08/09 22:55
KCCA 092255Z AUTO 00000KT 10SM CLR 37/23 A2989 RMK AO2

2010/08/09 22:45
KCGF 092245Z 31008KT 5SM HZFT BKN060 OVC100 30/20 2997

2010/08/09 22:45
KMER 092245Z 26005KT 10SM SKC 34/13 A2982

2010/08/09 22:45
KLVM 092245Z AUTO 25006KT 10SM VCTS SCT027 OVC090 18/13 A2998 RMK AO2 WSHFT 2140 LTG DSNT ALQDS TSE17B39RAE38 P0011

2010/08/09 22:45
KMVL 092245Z AUTO 00000KT 1 1/2SM VCTS -RA BR BKN011 BKN048 OVC055 22/21 A2991 RMK AO2 LTG DSNT E AND S TSB15RAB18 P0040

2010/08/09 22:45
KSNY 092245Z AUTO 29011KT 10SM -TSRA BKN031 22/18 A3002 RMK AO2 PK WND 22033/2222 WSHFT 2225 LTG DSNT NE-S RAB14 P0003

2010/08/09 22:45
KSYR 092245Z 31008KT 2SM RA BR BKN023 OVC065 22/21 A2997 RMK AO2 P0017

2010/08/09 22:45
CWWA 092245Z AUTO 18002KT 18/13 RMK AO1 T01770129

2010/08/09 22:47
KSUA 092247Z 13012G20KT 10SM SCT050 30/23 A2991

2010/08/09 22:45
PAER 092245Z 00000KT 11SM OVC070 14/08 A2954 RMK EPO

2010/08/09 22:55
KCCA 092255Z AUTO 00000KT 10SM CLR 37/23 A2989 RMK AO2

2010/08/09 22:45
KCGF 092245Z 31008KT 5SM HZFT BKN060 OVC100 30/20 2997

2010/08/09 22:45
KMER 092245Z 26005KT 10SM SKC 34/13 A2982

2010/08/09 22:45
KSYR 092245Z 31008KT 2SM RA BR BKN023 OVC065 22/21 A2997 RMK AO2 P0017

2010/08/09 22:45
KBTR 092245Z 21008KT 7SM -RA FEW006 SCT039 BKN110 26/24 A2992 RMK AO2 TSE45RAB2158 CB DSNT S-SW MOVG SW TS MOVD SW P0005

2010/08/09 22:45
KLVM 092245Z AUTO 25006KT 10SM VCTS SCT027 OVC090 18/13 A2998 RMK AO2 WSHFT 2140 LTG DSNT ALQDS TSE17B39RAE38 P0011

2010/08/09 22:45
KMVL 092245Z AUTO 00000KT 1 1/2SM VCTS -RA BR BKN011 BKN048 OVC055 22/21 A2991 RMK AO2 LTG DSNT E AND S TSB15RAB18 P0040

2010/08/09 22:45
KSNY 092245Z AUTO 29011KT 10SM -TSRA BKN031 22/18 A3002 RMK AO2 PK WND 22033/2222 WSHFT 2225 LTG DSNT NE-S RAB14 P0003

2010/08/09 22:45
CWCL 092245Z AUTO 11003KT 9SM OVC027 13/09 A2995

2010/08/09 22:46
CWOB 092246Z AUTO ///// 0SM CLR 04/ A2973

2010/08/09 22:45
CYZP 092245Z AUTO 26008KT 5SM -RA BR BKN023 OVC029 15/14 A3004 RMK SLP173

2010/08/09 22:45
RJTY 092245Z AUTO 00000KT 4000 -RA BR BKN008 OVC014 25/23 A3007 RMK AO2 RAB2244 SLP176

2010/08/09 22:45
KBTR 092245Z 21008KT 7SM -RA FEW006 SCT039 BKN110 26/24 A2992

2010/08/09 22:45
KBTR 092245Z 21008KT 7SM -RA FEW006 SCT039 BKN110 26/24 A2992

2010/08/09 22:45
KBTR 092245Z 21008KT 7SM -RA FEW006 SCT039 BKN110 26/24 A2992

2010/08/09 22:47
CWFD 092247Z AUTO 36024KT 5/8SM 05/

2010/08/09 22:48
CYAY 092248Z AUTO 23016KT 9SM BKN018 OVC086 18/16 A2976 RMK SLP079 DENSITY ALT 600FT MAX WND 23030KT AT 2221Z

2010/08/09 23:00
HAAB 092300Z 27006KT 9/9 BKN025 15/12 Q1024

2010/08/09 23:00
HAAB 092300Z 27006KT 9/9 BKN025 15/12 Q1024

2010/08/09 22:45
KENL 092245Z AUTO 07004KT 10SM SCT050 33/26 A2990 RMK AO2 T03270264

2010/08/09 22:45
KFEP 092245Z AUTO 00000KT OVC090 30/23 A2995 RMK AO2 T03000230 PWINO

2010/08/09 22:45
KFOA 092245Z AUTO 10004KT 10SM CLR 35/27 A2991 RMK AO2 T03540274

2010/08/09 22:45
KFWC 092245Z AUTO 13005KT 10SM CLR /26 A2990 RMK AO2

2010/08/09 22:45
KGBG 092245Z AUTO 00000KT 10SM CLR 31/25 A2991 RMK AO2

2010/08/09 22:45
KGOP 092245Z AUTO 16007KT 10SM CLR 37/19 A2989 RMK AO2

2010/08/09 22:45
KHHF 092245Z AUTO 19010G17KT 160V220 10SM CLR 38/15 A2985 RMK AO2 T03750146

2010/08/09 22:45
KHSB 092245Z AUTO 09004KT 10SM CLR 34/20 A2990 RMK AO2

2010/08/09 22:45
KINJ 092245Z AUTO 16010KT 10SM SCT070 37/19 A2986 RMK AO2 T03670186

2010/08/09 22:45
KJAS 092245Z AUTO 17004KT 10SM SCT065 BKN080 36/21 A2992 RMK AO2 T03640214

2010/08/09 22:45
KJDD 092245Z AUTO 20004KT 10SM CLR 36/18 A2989 RMK AO2

2010/08/09 22:45
KJOT 092245Z AUTO 00000KT 10SM SCT085 32/23 A2991 RMK AO2

2010/08/09 22:45
KJSO 092245Z AUTO 17006KT 10SM CLR 35/20 A2992 RMK AO2 T03500202

2010/08/09 22:45
KJXI 092245Z AUTO 15006KT 10SM CLR 36/23 A2991 RMK AO2

2010/08/09 22:45
KLNC 092245Z AUTO 14009G14KT 10SM CLR 36/20 A2986 RMK AO2 T03640197

2010/08/09 22:45
KLUD 092245Z AUTO 16008KT 10SM CLR 37/17 A2987 RMK AO2 T03660169

2010/08/09 22:45
KPNT 092245Z AUTO 06007KT 10SM CLR 33/22 A2992 RMK AO2

2010/08/09 22:45
KPRG 092245Z AUTO 16004KT 10SM CLR 31/25 A2993 RMK AO2 T03170254

2010/08/09 22:45
KRPJ 092245Z AUTO 00000KT 10SM SCT075 29/23 A2993 RMK AO2 T02900232

2010/08/09 22:45
KRSV 092245Z AUTO 00000KT 10SM CLR 33/26 A2993 RMK AO2 T03270263

2010/08/09 22:46
KRYN 092246Z 35005KT 10SM CLR 36/13 A2988

2010/08/09 22:45
K1H2 092245Z AUTO 15004KT 7SM CLR 34/26 A2991 RMK AO2 T03390258

2010/08/09 22:45
K3LF 092245Z AUTO 17005KT 10SM CLR 32/26 A2991 RMK AO2

2010/08/09 22:45
K3T5 092245Z AUTO 15005KT 10SM CLR 35/21 A2986 RMK AO2 T03540213

2010/08/09 22:45
KAQO 092245Z AUTO 14011G16KT FEW080 37/18 A2988 RMK AO2 PWINO

2010/08/09 22:47
KASW 092247Z AUTO 00000KT 7SM BKN027 BKN037 OVC110 30/24 A2995 RMK AO2 T02960237

2010/08/09 22:45
KERV 092245Z AUTO 15012G15KT 110V170 10SM SCT070 36/17 A2990 RMK AO2 T03590167

2010/08/09 22:45
KGNC 092245Z AUTO 36007KT 10SM CLR 28/18 A2998 RMK AO2 T02810178

2010/08/09 22:45
KGWB 092245Z AUTO 00000KT 7SM SCT090 BKN110 28/22 A2994 RMK AO2

2010/08/09 22:45
KGYB 092245Z AUTO 15009KT 10SM SCT060 SCT075 36/20 A2990 RMK AO2 T03550199

2010/08/09 22:46
KHQZ 092246Z AUTO 16008KT 10SM CLR 36/19 A2986 RMK AO2

2010/08/09 22:45
KORG 092245Z AUTO 18008KT 10SM CLR 34/26 A2992 RMK AO2

2010/08/09 22:45
KOXI 092245Z AUTO 25004KT 10SM OVC090 30/23 A2992 RMK AO1 T02980230

2010/08/09 22:47
KPSN 092247Z AUTO 18005KT 36/20 A2990 RMK AO2 PWINO

2010/08/09 22:45
KRCR 092245Z AUTO 21004KT 7SM BKN080 OVC100 31/25 A2993 RMK AO2

2010/08/09 22:45
KSFY 092245Z AUTO 20005KT 10SM CLR 30/23 A2991 RMK AO2

2010/08/09 22:45
KAJG 092245Z AUTO 34003KT 10SM CLR 33/25 A2991 RMK AO2 T03260253

2010/08/09 22:45
KAXH 092245Z AUTO 14006KT 10SM CLR 34/24 A2989 RMK AO2 T03380241

2010/08/09 22:45
KBKS 092245Z AUTO 12012G16KT 10SM SCT040 SCT055 34/25 A2983 RMK AO1 T03410247

2010/08/09 22:46
KBPC 092246Z AUTO 18009KT 10SM CLR 36/15 A2987 RMK AO2

2010/08/09 22:45
KBYY 092245Z AUTO 13010KT 10SM SCT034 34/26 A2989 RMK AO2 T03350259

2010/08/09 22:45
KC75 092245Z AUTO 05003KT 10SM BKN100 31/25 A2992 RMK AO2 T03080250

2010/08/09 22:45
KCPT 092245Z AUTO 13013G16KT 10SM CLR 36/21 A2988 RMK AO2

2010/08/09 22:45
KCUL 092245Z AUTO 05003KT 10SM CLR 34/22 A2990 RMK AO2 T03420215 PWINO

2010/08/09 22:45
KCVB 092245Z AUTO 15012G15KT 10SM SCT060 36/18 A2987 RMK AO2 T03580179

2010/08/09 22:45
KCWC 092245Z AUTO 17014KT 10SM CLR 38/19 A2985 RMK AO2 T03780185

2010/08/09 22:45
KDKB 092245Z AUTO 23007KT 10SM SCT026 BKN080 29/22 A2993 RMK AO2 T02870224

2010/08/09 22:45
KDKR 092245Z AUTO 25005KT 10SM CLR 37/31 A2990 RMK AO2

2010/08/09 22:45
KDNV 092245Z AUTO 22008KT 10SM SCT041 SCT050 BKN060 31/23 A2990 RMK AO2 T03120233

2010/08/09 22:47
KDUX 092247Z AUTO 16010G18KT 10SM SCT085 SCT110 34/14 A2994 RMK AO2 T03410135

2010/08/09 22:45
KDZB 092245Z AUTO 17009KT 7SM CLR 36/16 A2985 RMK AO2 T03590160

2010/08/09 22:50
KEBG 092250Z AUTO 10010KT 7SM -RA SCT080 BKN090 33/26 A2983 RMK AO2 LTG DSNT N T03330260

2010/08/09 22:45
KECU 092245Z AUTO 14012KT 10SM CLR 36/17 A2998 RMK AO2

2010/08/09 22:46
KLEB 092246Z 16006KT 10SM VCTS -RA SCT018 BKN070 OVC080 21/17 A2989 RMK AO2 PK WND 23029/2230 WSHFT 2226 LTG DSNT N AND W P0036

2010/08/09 22:46
KPOF 092246Z AUTO 15004KT 10SM CLR 34/26 A2988 RMK AO2 LTG DSNT W AND NW TSB25E40

2010/08/09 22:46
PAOT 092246Z 09015KT 10SM -RA FEW012 OVC049 14/13 A2944 RMK AO2 P0000

2010/08/09 22:45
KBTR 092245Z 21008KT 7SM -RA FEW006 SCT039 BKN110 26/24 A2992 RMK AO2 TSE45RAB2158 CB DSNT S-SW MOVG SW TS MOVD SW P0005

2010/08/09 22:47
KMVL 092247Z AUTO 36003KT 3SM VCTS -RA BR SCT009 BKN044 OVC055 22/21 A2991 RMK AO2 LTG DSNT E AND S TSB15RAB18 P0040

2010/08/09 22:47
KSLK 092247Z AUTO 35004KT 7SM -RA BKN030 18/16 A2995 RMK AO2 LTG DSNT NE-SE TSE32 P0023

2010/08/09 22:47
KTAD 092247Z AUTO 34007KT 3SM -TSRA BR BKN031 OVC060 17/16 A3018 RMK AO2 LTG DSNT NW-E TSE06B22 P0032

2010/08/09 22:47
KTPA 092247Z 09005KT 6SM -RA SCT020TCU BKN050 BKN250 28/25 A2987 RMK AO2 TSE47RAE12B32 TCU N AND S P0005

2010/08/09 22:45
RJTY 092245Z AUTO 00000KT 4000 -RA BR BKN008 OVC014 25/23 A3007 RMK AO2 RAB2244 SLP176

2010/08/09 22:45
KSYR 092245Z 31008KT 2SM RA BR BKN023 OVC065 22/21 A2997

2010/08/09 22:45
RJTY 092245Z AUTO 00000KT 4000 -RA BR BKN008 OVC014 25/23 A3007 RMK AO2 RAB2244 SLP176

2010/08/09 22:47
KCQT 092247Z AUTO VRB03KT 10SM CLR 23/13 A2988 RMK AO2 SLP117 T02330133 TSNO $ 

2010/08/09 22:45
KSYR 092245Z 31008KT 2SM RA BR BKN023 OVC065 22/21 A2997

2010/08/09 22:45
KLVM 092245Z AUTO 25006KT 10SM VCTS SCT027 OVC090 18/13 A2998

2010/08/09 22:45
KSYR 092245Z 31008KT 2SM RA BR BKN023 OVC065 22/21 A2997

2010/08/09 22:48
CYUS 092248Z AUTO ///// 9SM CLR 20/ A2993

2010/08/09 22:50
NSTU 092250Z 10016KT 12SM SCT023 29/25 A2999 RMK SLP154 T02900250

2010/08/09 22:48
KJDN 092248Z AUTO 09006KT 34/06 A2978 RMK AO2 SLP065 T03390056 PWINO TSNO 

2010/08/09 22:47
KCQT 092247Z AUTO VRB03KT 10SM CLR 23/13 A2988 RMK AO2 SLP117 T02330133 TSNO $

2010/08/09 22:48
KJDN 092248Z AUTO 09006KT 34/06 A2978 RMK AO2 SLP065 T03390056 PWINO TSNO

2010/08/09 23:00
MGGT 092300Z 18006KT 9999 FEW018 BKN200 20/19 Q1023 A3021 CB E TCU NW RERA VOL.DE PACAYA EN ACTIVIDAD

2010/08/09 22:47
PABE 092247Z 16020G25KT 5SM -RA BR BKN009 OVC016 10/09 A2939 RMK AO2 PK WND 17029/2219 RAE00B18 P0000

2010/08/09 22:48
KUNO 092248Z AUTO 11008KT 10SM CLR 36/22 A2992 RMK AO2 LTG DSNT E AND SE AND NW TSB26E42

2010/08/09 23:00
MGGT 092300Z 18006KT 9999 FEW018 BKN200 20/19 Q1023 A3021 CB E TCU NW RERA VOL.DE PACAYA EN ACTIVIDAD

2010/08/09 22:47
PATW 092247Z 16005KT 5SM BCFG SCT000 OVC020 11/09 A2970 RMK BCGF ALQDS EPC NOSPECI

2010/08/09 22:45
KOXC 092245Z 22007G14KT 8SM SCT110 28/19 A2997

2010/08/09 22:47
KVCV 092247Z 16013G20KT 10SM SKC 33/M04 A2990

2010/08/09 22:45
K1H2 092245Z AUTO 15004KT 7SM CLR 34/26 A2991 RMK AO2 T03390258

2010/08/09 22:45
K3LF 092245Z AUTO 17005KT 10SM CLR 32/26 A2991 RMK AO2

2010/08/09 22:45
K3T5 092245Z AUTO 15005KT 10SM CLR 35/21 A2986 RMK AO2 T03540213

2010/08/09 22:45
KAQO 092245Z AUTO 14011G16KT FEW080 37/18 A2988 RMK AO2 PWINO

2010/08/09 22:47
KASW 092247Z AUTO 00000KT 7SM BKN027 BKN037 OVC110 30/24 A2995 RMK AO2 T02960237

2010/08/09 22:45
KERV 092245Z AUTO 15012G15KT 110V170 10SM SCT070 36/17 A2990 RMK AO2 T03590167

2010/08/09 22:45
KGNC 092245Z AUTO 36007KT 10SM CLR 28/18 A2998 RMK AO2 T02810178

2010/08/09 22:45
KGWB 092245Z AUTO 00000KT 7SM SCT090 BKN110 28/22 A2994 RMK AO2

2010/08/09 22:45
KGYB 092245Z AUTO 15009KT 10SM SCT060 SCT075 36/20 A2990 RMK AO2 T03550199

2010/08/09 22:46
KHQZ 092246Z AUTO 16008KT 10SM CLR 36/19 A2986 RMK AO2

2010/08/09 22:45
KORG 092245Z AUTO 18008KT 10SM CLR 34/26 A2992 RMK AO2

2010/08/09 22:45
KOXI 092245Z AUTO 25004KT 10SM OVC090 30/23 A2992 RMK AO1 T02980230

2010/08/09 22:45
KRCR 092245Z AUTO 21004KT 7SM BKN080 OVC100 31/25 A2993 RMK AO2

2010/08/09 22:45
KAJG 092245Z AUTO 34003KT 10SM CLR 33/25 A2991 RMK AO2 T03260253

2010/08/09 22:45
KAXH 092245Z AUTO 14006KT 10SM CLR 34/24 A2989 RMK AO2 T03380241

2010/08/09 22:45
KBKS 092245Z AUTO 12012G16KT 10SM SCT040 SCT055 34/25 A2983 RMK AO1 T03410247

2010/08/09 22:46
KBPC 092246Z AUTO 18009KT 10SM CLR 36/15 A2987 RMK AO2

2010/08/09 22:45
KBYY 092245Z AUTO 13010KT 10SM SCT034 34/26 A2989 RMK AO2 T03350259

2010/08/09 22:45
KC75 092245Z AUTO 05003KT 10SM BKN100 31/25 A2992 RMK AO2 T03080250

2010/08/09 22:45
KCPT 092245Z AUTO 13013G16KT 10SM CLR 36/21 A2988 RMK AO2

2010/08/09 22:45
KCVB 092245Z AUTO 15012G15KT 10SM SCT060 36/18 A2987 RMK AO2 T03580179

2010/08/09 22:45
KCWC 092245Z AUTO 17014KT 10SM CLR 38/19 A2985 RMK AO2 T03780185

2010/08/09 22:45
KDKB 092245Z AUTO 23007KT 10SM SCT026 BKN080 29/22 A2993 RMK AO2 T02870224

2010/08/09 22:45
KDKR 092245Z AUTO 25005KT 10SM CLR 37/31 A2990 RMK AO2

2010/08/09 22:45
KDNV 092245Z AUTO 22008KT 10SM SCT041 SCT050 BKN060 31/23 A2990 RMK AO2 T03120233

2010/08/09 22:47
KDUX 092247Z AUTO 16010G18KT 10SM SCT085 SCT110 34/14 A2994 RMK AO2 T03410135

2010/08/09 22:45
KDZB 092245Z AUTO 17009KT 7SM CLR 36/16 A2985 RMK AO2 T03590160

2010/08/09 22:50
KEBG 092250Z AUTO 10010KT 7SM -RA SCT080 BKN090 33/26 A2983 RMK AO2 LTG DSNT N T03330260

2010/08/09 22:45
KECU 092245Z AUTO 14012KT 10SM CLR 36/17 A2998 RMK AO2

2010/08/09 22:45
KENL 092245Z AUTO 07004KT 10SM SCT050 33/26 A2990 RMK AO2 T03270264

2010/08/09 22:45
KFEP 092245Z AUTO 00000KT OVC090 30/23 A2995 RMK AO2 T03000230 PWINO

2010/08/09 22:45
KFOA 092245Z AUTO 10004KT 10SM CLR 35/27 A2991 RMK AO2 T03540274

2010/08/09 22:45
KFWC 092245Z AUTO 13005KT 10SM CLR /26 A2990 RMK AO2

2010/08/09 22:45
KGBG 092245Z AUTO 00000KT 10SM CLR 31/25 A2991 RMK AO2

2010/08/09 22:45
KGOP 092245Z AUTO 16007KT 10SM CLR 37/19 A2989 RMK AO2

2010/08/09 22:45
KHHF 092245Z AUTO 19010G17KT 160V220 10SM CLR 38/15 A2985 RMK AO2 T03750146

2010/08/09 22:45
KHSB 092245Z AUTO 09004KT 10SM CLR 34/20 A2990 RMK AO2

2010/08/09 22:45
KINJ 092245Z AUTO 16010KT 10SM SCT070 37/19 A2986 RMK AO2 T03670186

2010/08/09 22:45
KJAS 092245Z AUTO 17004KT 10SM SCT065 BKN080 36/21 A2992 RMK AO2 T03640214

2010/08/09 22:45
KJDD 092245Z AUTO 20004KT 10SM CLR 36/18 A2989 RMK AO2

2010/08/09 22:45
KJOT 092245Z AUTO 00000KT 10SM SCT085 32/23 A2991 RMK AO2

2010/08/09 22:45
KJSO 092245Z AUTO 17006KT 10SM CLR 35/20 A2992 RMK AO2 T03500202

2010/08/09 22:45
KJXI 092245Z AUTO 15006KT 10SM CLR 36/23 A2991 RMK AO2

2010/08/09 22:45
KLNC 092245Z AUTO 14009G14KT 10SM CLR 36/20 A2986 RMK AO2 T03640197

2010/08/09 22:45
KLUD 092245Z AUTO 16008KT 10SM CLR 37/17 A2987 RMK AO2 T03660169

2010/08/09 22:45
KPNT 092245Z AUTO 06007KT 10SM CLR 33/22 A2992 RMK AO2

2010/08/09 22:45
KPRG 092245Z AUTO 16004KT 10SM CLR 31/25 A2993 RMK AO2 T03170254

2010/08/09 22:45
KRPJ 092245Z AUTO 00000KT 10SM SCT075 29/23 A2993 RMK AO2 T02900232

2010/08/09 22:45
KRSV 092245Z AUTO 00000KT 10SM CLR 33/26 A2993 RMK AO2 T03270263

2010/08/09 22:46
KRYN 092246Z 35005KT 10SM CLR 36/13 A2988

2010/08/09 22:47
PATW 092247Z 16005KT 5SM BCFG SCT000 OVC020 11/09 A2970 RMK BCGF ALQDS EPC NOSPECI

2010/08/09 22:47
KPSN 092247Z AUTO 18005KT 36/20 A2990 RMK AO2 PWINO

2010/08/09 22:45
KSFY 092245Z AUTO 20005KT 10SM CLR 30/23 A2991 RMK AO2

2010/08/09 22:45
KCUL 092245Z AUTO 05003KT 10SM CLR 34/22 A2990 RMK AO2 T03420215 PWINO

2010/08/09 22:47
KCQT 092247Z AUTO VRB03KT 10SM CLR 23/13 A2988 RMK AO2 SLP117 T02330133 TSNO $

2010/08/09 22:48
KJDN 092248Z AUTO 09006KT 34/06 A2978 RMK AO2 SLP065 T03390056 PWINO TSNO

2010/08/09 22:45
KOXC 092245Z 22007G14KT 8SM SCT110 28/19 A2997

2010/08/09 22:47
KVCV 092247Z 16013G20KT 10SM SKC 33/M04 A2990

2010/08/09 22:46
KLEB 092246Z 16006KT 10SM VCTS -RA SCT018 BKN070 OVC080 21/17 A2989 RMK AO2 PK WND 23029/2230 WSHFT 2226 LTG DSNT N AND W P0036

2010/08/09 22:47
KMVL 092247Z AUTO 36003KT 3SM VCTS -RA BR SCT009 BKN044 OVC055 22/21 A2991 RMK AO2 LTG DSNT E AND S TSB15RAB18 P0040

2010/08/09 22:47
KSLK 092247Z AUTO 35004KT 7SM -RA BKN030 18/16 A2995 RMK AO2 LTG DSNT NE-SE TSE32 P0023

2010/08/09 22:47
KTAD 092247Z AUTO 34007KT 3SM -TSRA BR BKN031 OVC060 17/16 A3018 RMK AO2 LTG DSNT NW-E TSE06B22 P0032

2010/08/09 22:47
KTPA 092247Z 09005KT 6SM -RA SCT020TCU BKN050 BKN250 28/25 A2987 RMK AO2 TSE47RAE12B32 TCU N AND S P0005

2010/08/09 22:48
KUNO 092248Z AUTO 11008KT 10SM CLR 36/22 A2992 RMK AO2 LTG DSNT E AND SE AND NW TSB26E42

2010/08/09 22:46
KPOF 092246Z AUTO 15004KT 10SM CLR 34/26 A2988 RMK AO2 LTG DSNT W AND NW TSB25E40

2010/08/09 22:46
PAOT 092246Z 09015KT 10SM -RA FEW012 OVC049 14/13 A2944 RMK AO2 P0000

2010/08/09 22:45
KBTR 092245Z 21008KT 7SM -RA FEW006 SCT039 BKN110 26/24 A2992 RMK AO2 TSE45RAB2158 CB DSNT S-SW MOVG SW TS MOVD SW P0005

2010/08/09 22:47
PABE 092247Z 16020G25KT 5SM -RA BR BKN009 OVC016 10/09 A2939 RMK AO2 PK WND 17029/2219 RAE00B18 P0000

2010/08/09 22:46
PAOT 092246Z 09015KT 10SM -RA FEW012 OVC049 14/13 A2944

2010/08/09 22:48
KIGM 092248Z AUTO 24015G25KT 10SM CLR 34/M04 A2996 RMK AO2 PK WND 24029/2159 SLP075 T03391039 TSNO 

2010/08/09 22:47
KTPA 092247Z 09005KT 6SM -RA SCT020TCU BKN050 BKN250 28/25 A2987

2010/08/09 22:46
KLEB 092246Z 16006KT 10SM VCTS -RA SCT018 BKN070 OVC080 21/17 A2989

2010/08/09 22:47
KSLK 092247Z AUTO 35004KT 7SM -RA BKN030 18/16 A2995

2010/08/09 22:48
K2W6 092248Z AUTO 16007KT 10SM CLR 28/20 A2999 RMK AO1

2010/08/09 22:50
KCGS 092250Z AUTO 20005KT 10SM SCT055 34/20 A2995 RMK AO1

2010/08/09 22:45
K2G4 092245Z AUTO 25006KT 10SM CLR 26/15 A3010 RMK AO1

2010/08/09 22:47
KCGE 092247Z AUTO 18005KT 10SM CLR 30/24 A2999 RMK AO1

2010/08/09 22:49
KCBE 092249Z AUTO 01003KT 10SM CLR 33/17 A2997 RMK AO1

2010/08/09 22:47
KTPA 092247Z 09005KT 6SM -RA SCT020TCU BKN050 BKN250 28/25 A2987

2010/08/09 22:46
KPOF 092246Z AUTO 15004KT 10SM CLR 34/26 A2988

2010/08/09 22:46
PAOT 092246Z 09015KT 10SM -RA FEW012 OVC049 14/13 A2944

2010/08/09 22:49
KW29 092249Z AUTO 17007KT 10SM CLR 30/18 A2996 RMK AO1

2010/08/09 22:49
KDMW 092249Z AUTO 18006KT 10SM CLR 33/20 A2998 RMK AO2

2010/08/09 22:49
KFDK 092249Z AUTO 17008KT 130V200 10SM CLR 32/19 A2996 RMK AO2

2010/08/09 22:51
KFME 092251Z AUTO 00000KT 10SM CLR 27/21 A2997 RMK AO1

2010/08/09 22:50
CYZP 092250Z AUTO 25007KT 6SM -RA BR OVC023 15/14 A3004 RMK SLP173

2010/08/09 22:48
KBUF 092248Z 35011KT 2SM -RA BR FEW015 BKN045 OVC060 23/22 A2996 RMK AO2 P0000

2010/08/09 22:47
PAMB 092247Z AUTO 20017KT 6SM BR BKN009 OVC013 11/11 A2952 RMK AO2 PWINO TSNO CIG 006V012 $

2010/08/09 22:48
PAMO 092248Z AUTO 14016G24KT 3SM RA BR BKN006 OVC010 10/10 A2933 RMK AO2 TSNO CIG 003V009 P0002 $

2010/08/09 22:49
KDAW 092249Z AUTO 00000KT 10SM FEW110 25/18 A2988 RMK AO2 LTG DSNT E TSB2153E43

2010/08/09 22:47
KEVB 092247Z 11010G20KT 10SM SCT020 30/25 A2992

2010/08/09 22:49
KFVE 092249Z AUTO 00000KT 7SM -RA SCT031 BKN070 OVC100 19/17 A2982 RMK AO2 TSB01E19RAB2155 P0016

2010/08/09 22:49
KGEY 092249Z AUTO 17010KT 10SM VCTS CLR 33/04 A2978 RMK AO2 LTG DSNT SW TSB43

2010/08/09 22:49
KHLN 092249Z 29007KT 10SM BKN100 21/09 A2986 RMK AO2 PK WND 31028/2212 WSHFT 2150 TSE08B15E43

2010/08/09 22:49
KIAG 092249Z 00000KT 1 1/4SM -RA BR FEW008 BKN017 BKN060 OVC130 23/22 A2995 RMK AO2 P0006

2010/08/09 22:49
PAWR 092249Z 08009G20KT 2SM -RA BR OVC010 13/12 A2981 RMK SLP095 NOSPECI

2010/08/09 22:45
KIGQ 092245Z AUTO 23006KT 10SM SCT110 31/21 A2991 RMK AO2

2010/08/09 22:45
KIJX 092245Z AUTO 18006KT 10SM CLR 34/26 A2989 RMK AO2 T03350258

2010/08/09 22:45
KIKK 092245Z AUTO 00000KT 10SM SCT095 34/22 A2991 RMK AO2

2010/08/09 22:47
KM30 092247Z AUTO 19003KT 10SM CLR 34/22 A2989 RMK AO2

2010/08/09 22:45
KMDD 092245Z AUTO 15009G15KT 10SM SCT070 35/15 A2993 RMK AO2 LTG DSNT SW AND W T03450154

2010/08/09 22:48
KMHV 092248Z 15009KT 40SM SKC 32/04 A2990

2010/08/09 22:45
KPEQ 092245Z AUTO 15016G20KT 10SM CLR 33/15 A2993 RMK AO2 LTG DSNT NE THRU S T03280145

2010/08/09 22:45
KPEZ 092245Z AUTO 11007KT 10SM CLR 37/16 A2986 RMK AO2 T03660157

2010/08/09 22:48
KPKV 092248Z AUTO 13013G17KT 10SM CLR 33/24 A2988 RMK AO2 T03250237

2010/08/09 22:45
KRAS 092245Z AUTO 11012G15KT 10SM CLR 32/27 A2990 RMK AO2

2010/08/09 22:45
KRBO 092245Z AUTO 11012G18KT 10SM CLR 35/25 A2985 RMK AO2 T03470248

2010/08/09 22:45
KRPH 092245Z AUTO 11006KT 070V140 10SM CLR 37/17 A2983 RMK AO2 T03710169

2010/08/09 22:45
KRYW 092245Z AUTO 14007KT 7SM CLR 35/17 A2990 RMK AO2

2010/08/09 22:45
KSAR 092245Z AUTO 00000KT 7SM CLR 36/24 A2990 RMK AO2

2010/08/09 22:45
KSLO 092245Z AUTO 13003KT 10SM CLR 34/24 A2991 RMK AO2 T03360238

2010/08/09 22:46
KSNK 092246Z AUTO 17008KT 10SM CLR 35/17 A2992 RMK AO2 LTG DSNT W AND NW T03480167

2010/08/09 22:50
PALV 092250Z 00000KT 20SM OVC015 14/13 A2962 RMK EST PASS CLSD NOSPECI

2010/08/09 22:45
PAML 092245Z 03003KT 6SM BR FEW010 FEW030 OVC070 15/12 A2960 RMK NOSPECI

2010/08/09 22:46
K5C1 092246Z AUTO 14008KT 10SM CLR 35/17 A2990 RMK AO1

2010/08/09 22:45
KCWA 092245Z 33007KT 10SM SKC 30/19 A2993

2010/08/09 22:45
KGYY 092245Z 23007KT 12SM SCT110 SCT250 31/21 A2990

2010/08/09 22:45
KJVL 092245Z 32003KT 10SM FEW028 31/21 A2991

2010/08/09 22:45
KSWW 092245Z AUTO 13005KT 10SM SCT085 36/15 A2992 RMK AO1 LTG DSNT NW T03620149

2010/08/09 22:45
KT65 092245Z AUTO 14012G17KT 10SM SCT046 SCT050 35/23 A2982 RMK AO2 LTG DSNT N T03520229

2010/08/09 22:45
KT82 092245Z AUTO 15010KT 10SM CLR 34/16 A2992 RMK AO1 T03430155

2010/08/09 22:45
KTAZ 092245Z AUTO 20006KT 10SM CLR 36/26 A2989 RMK AO2

2010/08/09 22:45
KTFP 092245Z AUTO 11015G19KT 10SM CLR 33/25 A2987 RMK AO2 T03330249

2010/08/09 22:45
KTIP 092245Z AUTO 17005KT 10SM SCT042 SCT060 BKN080 33/27 A2993 RMK AO2 T03250272

2010/08/09 22:45
KTYQ 092245Z AUTO 24004KT 10SM CLR 32/23 A2995 RMK AO2

2010/08/09 22:45
KUVA 092245Z AUTO 12014G18KT 10SM SCT075 37/17 A2985 RMK AO2 T03660167

2010/08/09 22:46
KXBP 092246Z AUTO 15007KT 10SM SCT075 36/18 A2986 RMK AO2 T03640180

2010/08/09 22:50
MSLP 092250Z 00000KT 9999 FEW023 FEW040CB BKN170 29/25 Q1009 A2980 CB W TIL E

2010/08/09 22:50
PKMJ 092250Z 06018KT 15SM FEW015 SCT050 BKN120 OVC300 30/25 A2989 

2010/08/09 22:50
EYKA 092250Z AUTO 00000KT 9999NDV NCD 16/16 Q1016

2010/08/09 22:50
EETN 092250Z 19006KT 9999 FEW016 BKN045 18/16 Q1012

2010/08/09 22:50
EYVI 092250Z 16002KT 0150 R20/0325N FG NSC 15/15 Q1016 NOSIG

2010/08/09 22:45
KCZK 092245Z 24020KT 10SM FEW050 OVC120 21/11 RMK SLP158 NO SPECI CLD HGT AND VIS VISUALLY ESTMD 

2010/08/09 22:49
KFDK 092249Z AUTO 17008KT 130V200 10SM CLR 32/19 A2996

2010/08/09 23:00
GVAC 092300Z 06005KT 9999 SCT014 25/18 Q1015 NOSIG

2010/08/09 22:48
CYBW 092248Z 34011G16KT 20SM TS FEW035 BKN045CB BKN120 BKN250 RMK CU2CB2AC1CI1

2010/08/09 22:50
EETN 092250Z 19006KT 9999 FEW016 BKN045 18/16 Q1012

2010/08/09 22:45
LMML 092245Z VRB03KT CAVOK 23/14 Q1015 NOSIG 

2010/08/09 22:45
LMML 092245Z VRB03KT CAVOK 23/14 Q1015 NOSIG 

2010/08/09 22:50
EYKA 092250Z AUTO 00000KT 9999NDV NCD 16/16 Q1016

2010/08/09 22:45
K1H2 092245Z AUTO 15004KT 7SM CLR 34/26 A2991

2010/08/09 22:45
KC75 092245Z AUTO 05003KT 10SM BKN100 31/25 A2992

2010/08/09 22:45
KDKB 092245Z AUTO 23007KT 10SM SCT026 BKN080 29/22 A2993

2010/08/09 22:45
KDNV 092245Z AUTO 22008KT 10SM SCT041 SCT050 BKN060 31/23 A2990

2010/08/09 22:45
KENL 092245Z AUTO 07004KT 10SM SCT050 33/26 A2990

2010/08/09 22:45
KFEP 092245Z AUTO 00000KT OVC090 30/23 A2995

2010/08/09 22:45
KFOA 092245Z AUTO 10004KT 10SM CLR 35/27 A2991

2010/08/09 22:45
KFWC 092245Z AUTO 13005KT 10SM CLR /26 A2990

2010/08/09 22:45
KGBG 092245Z AUTO 00000KT 10SM CLR 31/25 A2991

2010/08/09 22:45
KHSB 092245Z AUTO 09004KT 10SM CLR 34/20 A2990

2010/08/09 22:45
KJOT 092245Z AUTO 00000KT 10SM SCT085 32/23 A2991

2010/08/09 22:45
KPNT 092245Z AUTO 06007KT 10SM CLR 33/22 A2992

2010/08/09 22:45
KPRG 092245Z AUTO 16004KT 10SM CLR 31/25 A2993

2010/08/09 22:45
KBYY 092245Z AUTO 13010KT 10SM SCT034 34/26 A2989

2010/08/09 22:49
KCBE 092249Z AUTO 01003KT 10SM CLR 33/17 A2997

2010/08/09 22:45
KLNC 092245Z AUTO 14009G14KT 10SM CLR 36/20 A2986

2010/08/09 22:48
KIGM 092248Z AUTO 24015G25KT 10SM CLR 34/M04 A2996

2010/08/09 22:48
KJDN 092248Z AUTO 09006KT 34/06 A2978

2010/08/09 22:50
OAKB 092250Z VRB03KT CAVOK 22/15 Q1012 NOSIG RMK BLU BLU

2010/08/09 22:50
KQEN 092250Z AUTO 23009KT 7SM SCT001 21/19 A3047 RMK A02

2010/08/09 22:50
KQES 092250Z AUTO 19003KT 7SM -DZ OVC040 26/23 A2985 RMK A02

2010/08/09 22:50
KQEY 092250Z AUTO 12005KT 7SM -SHRA FEW004 BKN035 25/22 A2963 RMK A02

2010/08/09 23:00
KQEV 092300Z AUTO 11004KT 7SM BKN004 BKN055 26/23 A2981 RMK A02

2010/08/09 22:50
CWFD 092250Z AUTO 36023G28KT 1/4SM 05/

2010/08/09 22:47
PABE 092247Z 16020G25KT 5SM -RA BR BKN009 OVC016 10/09 A2939

2010/08/09 23:00
NIUE 092300Z 17010KT 50KM BKN018 26/23 Q1018

2010/08/09 22:49
CYYC 092249Z 12009KT 40SM TS SCT060CB BKN120 BKN220 22/ RMK CB3AC3CI1 SH SW-N

2010/08/09 22:49
PABI 092249Z 19013G20KT 10SM FEW070 BKN100 BKN180 20/05 A2960 RMK AO2 WSHFT 2229

2010/08/09 22:49
PAHO 092249Z 29005KT 10SM SCT020 BKN038 OVC060 15/11 A2969 RMK AO2

2010/08/09 22:50
KRNT 092250Z 17005KT 10SM OVC031 19/12 A2996 RMK AO2

2010/08/09 22:48
KASG 092248Z 20007KT 10SM FEW060 SCT250 35/20 A2993

2010/08/09 22:47
KTIX 092247Z 11010KT 7SM SCT030 28/23 A2991

2010/08/09 22:50
KCWF 092250Z 16011KT 10SM SKC 34/24 A2992

2010/08/09 22:50
KEGE 092250Z 24015KT 10SM BKN075 23/07 A3020

2010/08/09 22:47
KGEU 092247Z VRB05KT 20SM FEW120 SCT150 39/08 A2980

2010/08/09 22:47
KGYR 092247Z VRB05KT 20SM FEW120 SCT150 42/09 A2978

2010/08/09 22:50
KONM 092250Z AUTO 00000KT 10SM CLR 32/08 A3003 RMK AO2 T03190078

2010/08/09 22:47
KWHP 092247Z 15007KT 15SM SKC 29/

2010/08/09 22:48
KIGM 092248Z AUTO 24015G25KT 10SM CLR 34/M04 A2996 RMK AO2 PK WND 24029/2159 SLP075 T03391039 TSNO

2010/08/09 22:45
K2G4 092245Z AUTO 25006KT 10SM CLR 26/15 A3010 RMK AO1

2010/08/09 22:50
KCGS 092250Z AUTO 20005KT 10SM SCT055 34/20 A2995 RMK AO1

2010/08/09 22:48
K2W6 092248Z AUTO 16007KT 10SM CLR 28/20 A2999 RMK AO1

2010/08/09 22:49
KCBE 092249Z AUTO 01003KT 10SM CLR 33/17 A2997 RMK AO1

2010/08/09 22:47
KCGE 092247Z AUTO 18005KT 10SM CLR 30/24 A2999 RMK AO1

2010/08/09 22:49
KW29 092249Z AUTO 17007KT 10SM CLR 30/18 A2996 RMK AO1

2010/08/09 22:49
KDMW 092249Z AUTO 18006KT 10SM CLR 33/20 A2998 RMK AO2

2010/08/09 22:51
KFME 092251Z AUTO 00000KT 10SM CLR 27/21 A2997 RMK AO1

2010/08/09 22:49
KFDK 092249Z AUTO 17008KT 130V200 10SM CLR 32/19 A2996 RMK AO2

2010/08/09 22:45
KCZK 092245Z 24020KT 10SM FEW050 OVC120 21/11 RMK SLP158 NO SPECI CLD HGT AND VIS VISUALLY ESTMD

2010/08/09 22:49
KFDK 092249Z AUTO 17008KT 130V200 10SM CLR 32/19 A2996

2010/08/09 22:50
MSLP 092250Z 00000KT 9999 FEW023 FEW040CB BKN170 29/25 Q1009 A2980 CB W TIL E

2010/08/09 22:50
MSSS 092250Z 15004KT 9999 FEW017 SCT040CB BKN170 28/24 Q1013 A2994 CB ALQDS

2010/08/09 23:00
LQMO 092300Z VRB02KT CAVOK 22/14 Q1013

2010/08/09 23:00
MPTO 092300Z 20006KT 9999 SCT018 BKN300 29/24 Q1009 NOSIG

2010/08/09 22:50
OAKB 092250Z VRB03KT CAVOK 22/15 Q1012 NOSIG RMK BLU BLU

2010/08/09 22:50
EYSA 092250Z 19005KT CAVOK 17/15 Q1016

2010/08/09 22:50
PKMJ 092250Z 06018KT 15SM FEW015 SCT050 BKN120 OVC300 30/25 A2989

2010/08/09 22:49
KIAG 092249Z 00000KT 1 1/4SM -RA BR FEW008 BKN017 BKN060 OVC130 23/22 A2995 RMK AO2 P0006

2010/08/09 22:49
PABI 092249Z 19013G20KT 10SM FEW070 BKN100 BKN180 20/05 A2960 RMK AO2 WSHFT 2229

2010/08/09 22:48
KIGM 092248Z AUTO 24015G25KT 10SM CLR 34/M04 A2996 RMK AO2 PK WND 24029/2159 SLP075 T03391039 TSNO

2010/08/09 22:49
KCBE 092249Z AUTO 01003KT 10SM CLR 33/17 A2997 RMK AO1

2010/08/09 22:45
KCZK 092245Z 24020KT 10SM FEW050 OVC120 21/11 RMK SLP158 NO SPECI CLD HGT AND VIS VISUALLY ESTMD

2010/08/09 22:48
KBUF 092248Z 35011KT 2SM -RA BR FEW015 BKN045 OVC060 23/22 A2996 RMK AO2 P0000

2010/08/09 22:49
PAHO 092249Z 29005KT 10SM SCT020 BKN038 OVC060 15/11 A2969 RMK AO2

2010/08/09 22:47
PAMB 092247Z AUTO 20017KT 6SM BR BKN009 OVC013 11/11 A2952 RMK AO2 PWINO TSNO CIG 006V012 $

2010/08/09 22:48
PAMO 092248Z AUTO 14016G24KT 3SM RA BR BKN006 OVC010 10/10 A2933 RMK AO2 TSNO CIG 003V009 P0002 $

2010/08/09 22:49
KDAW 092249Z AUTO 00000KT 10SM FEW110 25/18 A2988 RMK AO2 LTG DSNT E TSB2153E43

2010/08/09 22:47
KEVB 092247Z 11010G20KT 10SM SCT020 30/25 A2992

2010/08/09 22:49
KFVE 092249Z AUTO 00000KT 7SM -RA SCT031 BKN070 OVC100 19/17 A2982 RMK AO2 TSB01E19RAB2155 P0016

2010/08/09 22:49
KGEY 092249Z AUTO 17010KT 10SM VCTS CLR 33/04 A2978 RMK AO2 LTG DSNT SW TSB43

2010/08/09 22:49
KHLN 092249Z 29007KT 10SM BKN100 21/09 A2986 RMK AO2 PK WND 31028/2212 WSHFT 2150 TSE08B15E43

2010/08/09 22:50
KRNT 092250Z 17005KT 10SM OVC031 19/12 A2996 RMK AO2

2010/08/09 22:49
PAWR 092249Z 08009G20KT 2SM -RA BR OVC010 13/12 A2981 RMK SLP095 NOSPECI

2010/08/09 22:45
KIGQ 092245Z AUTO 23006KT 10SM SCT110 31/21 A2991 RMK AO2

2010/08/09 22:45
KIJX 092245Z AUTO 18006KT 10SM CLR 34/26 A2989 RMK AO2 T03350258

2010/08/09 22:45
KIKK 092245Z AUTO 00000KT 10SM SCT095 34/22 A2991 RMK AO2

2010/08/09 22:47
KM30 092247Z AUTO 19003KT 10SM CLR 34/22 A2989 RMK AO2

2010/08/09 22:45
KMDD 092245Z AUTO 15009G15KT 10SM SCT070 35/15 A2993 RMK AO2 LTG DSNT SW AND W T03450154

2010/08/09 22:48
KMHV 092248Z 15009KT 40SM SKC 32/04 A2990

2010/08/09 22:45
KPEQ 092245Z AUTO 15016G20KT 10SM CLR 33/15 A2993 RMK AO2 LTG DSNT NE THRU S T03280145

2010/08/09 22:45
KPEZ 092245Z AUTO 11007KT 10SM CLR 37/16 A2986 RMK AO2 T03660157

2010/08/09 22:48
KPKV 092248Z AUTO 13013G17KT 10SM CLR 33/24 A2988 RMK AO2 T03250237

2010/08/09 22:45
KRAS 092245Z AUTO 11012G15KT 10SM CLR 32/27 A2990 RMK AO2

2010/08/09 22:45
KRBO 092245Z AUTO 11012G18KT 10SM CLR 35/25 A2985 RMK AO2 T03470248

2010/08/09 22:45
KRPH 092245Z AUTO 11006KT 070V140 10SM CLR 37/17 A2983 RMK AO2 T03710169

2010/08/09 22:45
KRYW 092245Z AUTO 14007KT 7SM CLR 35/17 A2990 RMK AO2

2010/08/09 22:45
KSAR 092245Z AUTO 00000KT 7SM CLR 36/24 A2990 RMK AO2

2010/08/09 22:45
KSLO 092245Z AUTO 13003KT 10SM CLR 34/24 A2991 RMK AO2 T03360238

2010/08/09 22:46
KSNK 092246Z AUTO 17008KT 10SM CLR 35/17 A2992 RMK AO2 LTG DSNT W AND NW T03480167

2010/08/09 22:45
K2G4 092245Z AUTO 25006KT 10SM CLR 26/15 A3010 RMK AO1

2010/08/09 22:50
KCGS 092250Z AUTO 20005KT 10SM SCT055 34/20 A2995 RMK AO1

2010/08/09 22:48
K2W6 092248Z AUTO 16007KT 10SM CLR 28/20 A2999 RMK AO1

2010/08/09 22:49
KW29 092249Z AUTO 17007KT 10SM CLR 30/18 A2996 RMK AO1

2010/08/09 22:49
KFDK 092249Z AUTO 17008KT 130V200 10SM CLR 32/19 A2996 RMK AO2

2010/08/09 22:50
PALV 092250Z 00000KT 20SM OVC015 14/13 A2962 RMK EST PASS CLSD NOSPECI

2010/08/09 22:45
PAML 092245Z 03003KT 6SM BR FEW010 FEW030 OVC070 15/12 A2960 RMK NOSPECI

2010/08/09 22:46
K5C1 092246Z AUTO 14008KT 10SM CLR 35/17 A2990 RMK AO1

2010/08/09 22:45
KCWA 092245Z 33007KT 10SM SKC 30/19 A2993

2010/08/09 22:45
KGYY 092245Z 23007KT 12SM SCT110 SCT250 31/21 A2990

2010/08/09 22:45
KJVL 092245Z 32003KT 10SM FEW028 31/21 A2991

2010/08/09 22:45
KSWW 092245Z AUTO 13005KT 10SM SCT085 36/15 A2992 RMK AO1 LTG DSNT NW T03620149

2010/08/09 22:45
KT65 092245Z AUTO 14012G17KT 10SM SCT046 SCT050 35/23 A2982 RMK AO2 LTG DSNT N T03520229

2010/08/09 22:45
KT82 092245Z AUTO 15010KT 10SM CLR 34/16 A2992 RMK AO1 T03430155

2010/08/09 22:45
KTAZ 092245Z AUTO 20006KT 10SM CLR 36/26 A2989 RMK AO2

2010/08/09 22:45
KTFP 092245Z AUTO 11015G19KT 10SM CLR 33/25 A2987 RMK AO2 T03330249

2010/08/09 22:45
KTIP 092245Z AUTO 17005KT 10SM SCT042 SCT060 BKN080 33/27 A2993 RMK AO2 T03250272

2010/08/09 22:45
KTYQ 092245Z AUTO 24004KT 10SM CLR 32/23 A2995 RMK AO2

2010/08/09 22:45
KUVA 092245Z AUTO 12014G18KT 10SM SCT075 37/17 A2985 RMK AO2 T03660167

2010/08/09 22:46
KXBP 092246Z AUTO 15007KT 10SM SCT075 36/18 A2986 RMK AO2 T03640180

2010/08/09 22:45
PHJH 092245Z 07017G25KT 15SM FEW040 29/15 A3008

2010/08/09 22:48
KASG 092248Z 20007KT 10SM FEW060 SCT250 35/20 A2993

2010/08/09 22:47
KTIX 092247Z 11010KT 7SM SCT030 28/23 A2991

2010/08/09 22:50
KCWF 092250Z 16011KT 10SM SKC 34/24 A2992

2010/08/09 22:50
KEGE 092250Z 24015KT 10SM BKN075 23/07 A3020

2010/08/09 22:47
KGEU 092247Z VRB05KT 20SM FEW120 SCT150 39/08 A2980

2010/08/09 22:47
KGYR 092247Z VRB05KT 20SM FEW120 SCT150 42/09 A2978

2010/08/09 22:50
KONM 092250Z AUTO 00000KT 10SM CLR 32/08 A3003 RMK AO2 T03190078

2010/08/09 22:47
KWHP 092247Z 15007KT 15SM SKC 29/

2010/08/09 22:49
CYYC 092249Z 12009KT 40SM TS SCT060CB BKN120 BKN220 22/ RMK CB3AC3CI1 SH SW-N

2010/08/09 22:49
MMMX 092249Z 02016KT 7SM VCTSRA BKN020CB BKN090 BKN200 19/15 A3020 NOSIG RMK 60775 8/963 TS-LTGICCG-PCPN VC-W-NW TSE32 -RAE31 HZY

2010/08/09 22:45
LMML 092245Z VRB03KT CAVOK 23/14 Q1015 NOSIG

2010/08/09 22:45
PHJH 092245Z 07017G25KT 15SM FEW040 29/15 A3008

2010/08/09 22:50
MSSA 092250Z 10002KT 9999 FEW033 FEW037CB 29/22 Q1012 CB SH N-NE-E SSE/ CB Y TS SW-W

2010/08/09 22:50
MSSS 092250Z 15004KT 9999 FEW017 SCT040CB BKN170 28/24 Q1013 CB ALRRED.

2010/08/09 22:50
MSSM 092250Z 03002KT 9999 SCT033 FEW037CB BKN170 28/24 Q1008 CB N-NE/E

2010/08/09 22:50
MSLU 092250Z 13006KT 9999 -DZ SCT033 FEW037CB BKN200 26/24 Q//// TS Y SH N/NW

2010/08/09 22:50
MSLP 092250Z 00000KT 9999 FEW023 FEW040CB BKN170 29/25 Q1009 CB W TIL E

2010/08/09 22:48
KBUF 092248Z 35011KT 2SM -RA BR FEW015 BKN045 OVC060 23/22 A2996

2010/08/09 22:49
KCBE 092249Z AUTO 01003KT 10SM CLR 33/17 A2997 RMK AO1

2010/08/09 23:00
SBSL 092300Z 04008KT 9999 FEW020 26/23 Q1013

2010/08/09 22:49
KFVE 092249Z AUTO 00000KT 7SM -RA SCT031 BKN070 OVC100 19/17 A2982

2010/08/09 22:49
KIAG 092249Z 00000KT 1 1/4SM -RA BR FEW008 BKN017 BKN060 OVC130 23/22 A2995

2010/08/09 22:49
KHLN 092249Z 29007KT 10SM BKN100 21/09 A2986

2010/08/09 22:45
KCZK 092245Z 24020KT 10SM FEW050 OVC120 21/11

2010/08/09 22:48
KBUF 092248Z 35011KT 2SM -RA BR FEW015 BKN045 OVC060 23/22 A2996

2010/08/09 22:50
LLBG 092250Z 18002KT 9999 FEW021 SCT025 27/22 Q1006 NOSIG

2010/08/09 22:50
LLOV 092250Z 28006KT CAVOK 24/19 Q1008

2010/08/09 22:50
EYVI 092250Z 16002KT 0150 R20/0325N FG NSC 15/15 Q1016 NOSIG

2010/08/09 23:00
LQMO 092300Z VRB02KT CAVOK 22/14 Q1013

2010/08/09 22:50
EYSA 092250Z 19005KT CAVOK 17/15 Q1016

2010/08/09 23:00
OSDI 092300Z 20012KT CAVOK 24/18 Q1007

2010/08/09 23:00
OSAP 092300Z 28012KT CAVOK 26/18 Q1005

2010/08/09 23:00
OSLK 092300Z 13004KT CAVOK 24/22 Q1006

2010/08/09 22:49
KFVE 092249Z AUTO 00000KT 7SM -RA SCT031 BKN070 OVC100 19/17 A2982

2010/08/09 22:49
KIAG 092249Z 00000KT 1 1/4SM -RA BR FEW008 BKN017 BKN060 OVC130 23/22 A2995

2010/08/09 22:51
KSAN 092251Z 32009KT 10SM CLR 22/14 A2990 RMK AO2 SLP126 T02170139 

2010/08/09 23:00
OKBK 092300Z 34006KT 8000 NSC 37/09 Q0996 NOSIG

2010/08/09 22:49
KHLN 092249Z 29007KT 10SM BKN100 21/09 A2986

2010/08/09 22:55
KBLV 092255Z AUTO 12003KT 10SM CLR 35/24 A2989 RMK AO2 SLP117 T03510245

2010/08/09 22:50
KEFD 092250Z 16008KT 10SM SCT055 34/25 A2991

2010/08/09 22:55
KBLV 092255Z AUTO 12003KT 10SM CLR 35/24 A2989 RMK AO2 SLP117 T03510245

2010/08/09 22:50
LLBG 092250Z 18002KT 9999 FEW021 SCT025 27/22 Q1006 NOSIG

2010/08/09 22:50
LLOV 092250Z 28006KT CAVOK 24/19 Q1008

2010/08/09 23:00
LPLA 092300Z 05008KT 9999 FEW022 21/17 Q1023

2010/08/09 23:00
MGGT 092300Z 18006KT 9999 FEW018 BKN200 20/19 Q1023 A3021 CB E TCU NW RERA VOL/DE PACAYA EN ACTIVIDAD

2010/08/09 23:00
MPTO 092300Z 20006KT 9999 SCT018 BKN300 29/24 Q1009 NOSIG

2010/08/09 22:50
MSLP 092250Z 00000KT 9999 FEW023 FEW040CB BKN170 29/25 Q1009 A2980 CB W TIL E

2010/08/09 22:50
MSSS 092250Z 15004KT 9999 FEW017 SCT040CB BKN170 28/24 Q1013 A2994 CB ALQDS

2010/08/09 22:50
NSTU 092250Z 10016KT 12SM SCT023 29/25 A2999 RMK SLP154 T02900250

2010/08/09 22:50
OAKB 092250Z VRB03KT CAVOK 22/15 Q1012 NOSIG RMK BLU BLU

2010/08/09 22:50
OAMS 092250Z 22010KT 9999 SCT160 BKN190 32/M00 Q1005 BLU BLU

2010/08/09 23:00
OSAP 092300Z 28012KT CAVOK 26/18 Q1005

2010/08/09 23:00
OSDI 092300Z 20012KT CAVOK 24/18 Q1007

2010/08/09 23:00
OSLK 092300Z 13004KT CAVOK 24/22 Q1006

2010/08/09 22:48
KBUF 092248Z 35011KT 2SM -RA BR FEW015 BKN045 OVC060 23/22 A2996

2010/08/09 22:45
KCZK 092245Z 24020KT 10SM FEW050 OVC120 21/11

2010/08/09 22:45
KSYR 092245Z 31008KT 2SM RA BR BKN023 OVC065 22/21 A2997 RMK AO2 P0017

2010/08/09 22:50
CYZU 092250Z 34007KT 15SM BKN045CB BKN120 BKN250 RETS RMK CB5AC1CI0

2010/08/09 22:51
KBVE 092251Z AUTO 30006KT CLR 28/25 A2994 RMK AO2 SLP136 T02780250 TSNO $ 

2010/08/09 22:51
KCAK 092251Z 24005KT 7SM SCT065 BKN130 BKN180 28/19 A2998 RMK AO2 SLP144 T02830189 

2010/08/09 22:51
KSNT 092251Z AUTO VRB05KT 13/11 A3009 RMK AO2 SLP123 P0002 T01330106 PWINO TSNO 

2010/08/09 22:51
KGDP 092251Z AUTO 24015KT 10SM CLR 32/12 A3012 RMK AO2 SLP110 T03170117 TSNO 

2010/08/09 22:51
KCRP 092251Z 12012G19KT 10SM FEW030 33/24 A2986 RMK AO2 SLP109 CB DSNT SW T03330244 

2010/08/09 22:51
KJCT 092251Z AUTO 13011KT 10SM BKN090 37/17 A2988 RMK AO2 SLP074 T03670167 TSNO 

2010/08/09 22:51
KARA 092251Z 12012G19KT 10SM -TSRA FEW011 SCT046 SCT090 26/23 A2994 RMK AO2 PK WND 09034/2215 RAB29 P0002

2010/08/09 22:51
KLLQ 092251Z AUTO 00000KT 10SM CLR 36/24 A2991 RMK AO2 TSB28E45

2010/08/09 22:45
K2G4 092245Z AUTO 25006KT 10SM CLR 26/15 A3010 RMK AO1

2010/08/09 22:48
K2W6 092248Z AUTO 16007KT 10SM CLR 28/20 A2999 RMK AO1

2010/08/09 22:50
KAEG 092250Z 00000KT 10SM SCT100 SCT120 29/07 A3011

2010/08/09 22:51
KAHN 092251Z 00000KT 4SM BR BKN100 25/23 A3000 RMK AO2 RAE30 SLP152 P0015 T02500233

2010/08/09 22:50
KANE 092250Z 09005KT 12SM SKC 32/21 A2991

2010/08/09 22:51
KBAZ 092251Z AUTO 13009KT 10SM CLR 36/20 A2985 RMK AO2 SLP096 T03610200

2010/08/09 22:49
KCBE 092249Z AUTO 01003KT 10SM CLR 33/17 A2997 RMK AO1

2010/08/09 22:47
KCGE 092247Z AUTO 18005KT 10SM CLR 30/24 A2999 RMK AO1

2010/08/09 22:50
KCGS 092250Z AUTO 20005KT 10SM SCT055 34/20 A2995 RMK AO1

2010/08/09 22:47
KCHD 092247Z VRB06KT 40SM SCT120 38/10 A2979

2010/08/09 22:51
KCSG 092251Z 15007KT 10SM FEW075 34/18 A2993 RMK AO2 SLP130 T03440178

2010/08/09 22:49
KFDK 092249Z AUTO 17008KT 130V200 10SM CLR 32/19 A2996 RMK AO2

2010/08/09 22:49
KDMW 092249Z AUTO 18006KT 10SM CLR 33/20 A2998 RMK AO2

2010/08/09 22:51
KEKN 092251Z AUTO 00000KT 10SM CLR 28/18 A3006 RMK AO2 SLP168 T02780183 TSNO

2010/08/09 22:51
KELP 092251Z 25005G16KT 10SM FEW100 34/08 A2996 RMK AO2 SLP066 T03440083

2010/08/09 22:51
KFME 092251Z AUTO 00000KT 10SM CLR 27/21 A2997 RMK AO1

2010/08/09 22:51
KHDO 092251Z AUTO 12012KT 10SM FEW070 36/19 A2987 RMK AO2 SLP097 T03610194

2010/08/09 22:51
KMDW 092251Z 25010KT 10SM FEW040 SCT100 SCT250 30/22 A2990 RMK AO2 SLP115 T03000217 PNO

2010/08/09 22:51
KORD 092251Z 24007KT 10SM FEW035 SCT100 SCT250 31/23 A2990 RMK AO2 SLP121 T03060228

2010/08/09 22:47
KPAO 092247Z 33011KT 30SM SKC A2988

2010/08/09 22:51
KPHX 092251Z 00000KT 10SM FEW120 SCT150 39/08 A2977 RMK AO2 SLP060 CB DSNT E AND SE T03890083 $

2010/08/09 22:51
KRDU 092251Z 19007KT 8SM FEW065 BKN250 32/20 A2999 RMK AO2 SLP150 T03170200

2010/08/09 22:51
KROW 092251Z 23010KT 10SM CLR 32/15 A2996 RMK AO2 SLP078 T03170150

2010/08/09 22:47
KRYY 092247Z 17004KT 10SM SCT060 33/21 A2997

2010/08/09 22:49
KW29 092249Z AUTO 17007KT 10SM CLR 30/18 A2996 RMK AO1

2010/08/09 23:00
SPIM 092300Z 18009KT 8000 SCT014 15/12 Q1016 NOSIG RMK PP000

2010/08/09 23:00
LQSA 092300Z 00000KT 9999 FEW045 16/14 Q1019

2010/08/09 22:50
LSZH 092250Z VRB01KT 9999 FEW054 16/14 Q1018 NOSIG

2010/08/09 22:50
LSGG 092250Z VRB01KT 9999 BKN085 19/13 Q1017 NOSIG

2010/08/09 22:51
KDAG 092251Z AUTO 06010G16KT 10SM CLR 37/M06 A2980 RMK AO2 SLP062 T03721056 TSNO 

2010/08/09 22:51
KABE 092251Z 22009KT 10SM CLR 31/20 A2993 RMK AO2 SLP133 T03110200 

2010/08/09 22:51
KP59 092251Z AUTO 35010KT 23/21 A2989 RMK AO2 SLP114 T02330206 PWINO TSNO 

2010/08/09 22:51
KATT 092251Z AUTO 17007KT 10SM CLR 36/18 A2986 RMK AO2 SLP096 T03610178 $ 

2010/08/09 22:51
KNYC 092251Z AUTO 15008KT 120V190 10SM CLR 29/18 A2995 RMK AO2 SLP131 T02940183 TSNO 

2010/08/09 22:51
KCON 092251Z AUTO 31005KT 9SM CLR 29/17 A2988 RMK AO2 SLP115 T02890172 

2010/08/09 22:49
PABI 092249Z 19013G20KT 10SM FEW070 BKN100 BKN180 20/05 A2960

2010/08/09 22:50
ETNG 092250Z 16005KT CAVOK 17/12 Q1016

2010/08/09 22:53
PTKR 092253Z 00000KT 15SM FEW017 SCT120 OVC300 27/25 A2986 RMK SLP113 T02720250

2010/08/09 22:51
KHSE 092251Z AUTO 20007KT 10SM SCT041 OVC050 25/25 A3002 RMK AO2 RAE2152 SLP164 T02500250 TSNO 

2010/08/09 22:51
KORF 092251Z 12005KT 10SM CLR 29/19 A2998 RMK AO2 SLP152 T02940194 $ 

2010/08/09 22:50
KRNT 092250Z 17005KT 10SM OVC031 19/12 A2996

2010/08/09 23:00
FAJS 092300Z 20014KT CAVOK 02/M11 Q1029 NOSIG

2010/08/09 22:50
EETU 092250Z AUTO 15005KT 9999NDV OVC150/// 17/16 Q1014

2010/08/09 23:00
BKPR 092300Z VRB03KT CAVOK 17/13 Q1018 NOSIG RMK BLU

2010/08/09 22:50
LSZH 092250Z VRB01KT 9999 FEW054 16/14 Q1018 NOSIG

2010/08/09 22:50
LSGG 092250Z VRB01KT 9999 BKN085 19/13 Q1017 NOSIG

2010/08/09 22:50
KRNT 092250Z 17005KT 10SM OVC031 19/12 A2996

2010/08/09 22:51
KSMX 092251Z 31010KT 10SM FEW015 18/11 A2992 RMK AO2 SLP134 T01830111 

2010/08/09 23:00
LQSA 092300Z 00000KT 9999 FEW045 16/14 Q1019

2010/08/09 22:49
PAHO 092249Z 29005KT 10SM SCT020 BKN038 OVC060 15/11 A2969

2010/08/09 22:47
CWFD 092247Z AUTO 36024KT 5/8SM 05/

2010/08/09 22:50
CWFD 092250Z AUTO 36023G28KT 1/4SM 05/

2010/08/09 22:48
CYAY 092248Z AUTO 23016KT 9SM BKN018 OVC086 18/16 A2976 RMK SLP079 DENSITY ALT 600FT MAX WND 23030KT AT 2221Z

2010/08/09 22:48
CYBW 092248Z 34011G16KT 20SM TS FEW035 BKN045CB BKN120 BKN250 RMK CU2CB2AC1CI1

2010/08/09 22:48
CYUS 092248Z AUTO ///// 9SM CLR 20/ A2993

2010/08/09 22:49
CYYC 092249Z 12009KT 40SM TS SCT060CB BKN120 BKN220 22/ RMK CB3AC3CI1 SH SW-N

2010/08/09 22:50
CYZP 092250Z AUTO 25007KT 6SM -RA BR OVC023 15/14 A3004 RMK SLP173

2010/08/09 22:50
CYZU 092250Z 34007KT 15SM BKN045CB BKN120 BKN250 RETS RMK CB5AC1CI0

2010/08/09 22:49
PABI 092249Z 19013G20KT 10SM FEW070 BKN100 BKN180 20/05 A2960 RMK AO2 WSHFT 2229

2010/08/09 22:49
RJCB 092249Z VRB01KT 5000 BR FEW004 BKN005 21/20 Q1015 RMK 2ST004 7ST005 A2999

2010/08/09 22:48
RJCK 092248Z 32007KT 310V010 0300 R17/0600V1400U FG VV001 20/19 Q1015 RMK A2998

2010/08/09 22:46
RJTY 092246Z AUTO 00000KT 3200 -RA BR BKN008 OVC014 25/23 A3007 RMK AO2 RAB2244 SLP176

2010/08/09 22:47
RJTY 092247Z AUTO 00000KT 3200 -RA BR BKN010 OVC016 25/24 A3007 RMK AO2 RAB2244 SLP177

2010/08/09 22:49
RJTY 092249Z AUTO 00000KT 2800 -RA BR BKN010 OVC016 25/24 A3007 RMK AO2 RAB2244 SLP177

2010/08/09 22:50
RJTY 092250Z AUTO 00000KT 2800 -RA BR BKN009 OVC016 24/24 A3007 RMK AO2 RAB2244 SLP177

2010/08/09 22:51
RKJK 092251Z AUTO 07006KT 9999 FEW008 SCT085 26/26 A2978 RMK AO2 RAB2239E2240DZB2240E2251 SLP087 $

2010/08/09 22:48
RKSO 092248Z 16009KT 3200 -RA FEW009 OVC030 26/26 A2979 RMK AO2A RAB2159E2211B2235DZB2151E2159B2231E2235 SLP090 $

2010/08/09 22:55
KQFS 092255Z AUTO 08006G12KT 9999 FEW005 SCT038 BKN045 BKN110 26/24 A2985 RMK AO2 SLP104 T02590239 $

2010/08/09 22:55
KQW3 092255Z AUTO RMK AO2 SLPNO

2010/08/09 22:50
EGYP 092250Z 28014KT 9999 FEW018 01/M02 Q0997 BLU

2010/08/09 22:50
EDDB 092250Z 26004KT CAVOK 17/15 Q1016 NOSIG

2010/08/09 22:50
EDDC 092250Z 25003KT CAVOK 17/13 Q1017

2010/08/09 22:50
EDDE 092250Z 18002KT CAVOK 15/13 Q1018

2010/08/09 22:50
EDDG 092250Z 11002KT 9999 MIFG NSC 14/13 Q1016 NOSIG

2010/08/09 22:50
EDDP 092250Z VRB02KT CAVOK 17/15 Q1017 NOSIG

2010/08/09 22:50
EDDR 092250Z 10003KT CAVOK 16/11 Q1017

2010/08/09 22:50
EDDW 092250Z 16004KT CAVOK 16/13 Q1016

2010/08/09 22:50
EDDF 092250Z 05003KT CAVOK 15/13 Q1017 NOSIG

2010/08/09 22:50
EDDH 092250Z 07002KT CAVOK 16/14 Q1016 NOSIG

2010/08/09 22:50
EDDK 092250Z 10005KT CAVOK 14/12 Q1016 NOSIG

2010/08/09 22:50
EDDL 092250Z 12003KT CAVOK 15/13 Q1016 NOSIG

2010/08/09 22:50
EDDM 092250Z 08003KT 9999 MIFG NSC 14/13 Q1018 NOSIG

2010/08/09 22:50
EDDN 092250Z 15001KT CAVOK 14/14 Q1018

2010/08/09 22:50
EDDS 092250Z VRB01KT CAVOK 16/12 Q1018

2010/08/09 22:50
EDDT 092250Z 29002KT CAVOK 18/15 Q1016

2010/08/09 22:50
EDDV 092250Z 16004KT CAVOK 17/13 Q1016

2010/08/09 22:52
CYDC 092252Z 27006KT 15SM -SHRA BKN050 OVC080 RMK SC5AC3

2010/08/09 22:52
CYDC 092252Z CCA 27006KT 15SM -SHRA BKN050 OVC080 RMK SC5AC3 TCU EMBD

2010/08/09 22:50
VECC 092250Z 00000KT 2000 HZ FEW020 29/26 Q1001 NOSIG

2010/08/09 22:50
LXGB 092250Z 08004KT CAVOK 26/17 Q1016

2010/08/09 22:52
CYCX 092252Z 33002KT 8SM BKN042 BKN250 RMK SC5CI2

2010/08/09 22:53
CYYR 092253Z 28009KT 15SM -SHRA FEW046 SCT068 BKN098 BKN250 RMK CU2AC2AC1CI0

2010/08/09 22:52
KSDB 092252Z AUTO 15013G20KT 10SM CLR 26/M04 A3004 RMK AO2 SLP118 T02561039 TSNO 

2010/08/09 22:52
KABI 092252Z 18011KT 10SM CLR 37/17 A2989 RMK AO2 SLP088 T03670167 

2010/08/09 22:52
KNHK 092252Z 14005KT 10SM SCT250 30/22 A2997 RMK AO2 SLP150 T03000222 $ 

2010/08/09 23:00
SGAS 092300Z 19008KT CAVOK 15/09 Q1019

2010/08/09 23:00
SGES 092300Z 21004KT CAVOK 17/13 Q1018

2010/08/09 22:47
K1F0 092247Z AUTO 16005KT 10SM SCT070 SCT080 37/20 A2984 RMK AO2 LTG DSNT NW

2010/08/09 22:59
K36U 092259Z AUTO 23015G23KT 10SM CLR 27/M02 A3006 RMK AO2

2010/08/09 22:48
K4O4 092248Z AUTO 15007KT 10SM CLR 36/20 A2989 RMK AO2

2010/08/09 22:51
KACT 092251Z 17010G15KT 10SM CLR 38/19 A2985 RMK AO2 SLP099 T03780189 $

2010/08/09 22:51
KADH 092251Z AUTO 17008KT 10SM CLR 36/14 A2987 RMK AO2

2010/08/09 22:50
KAFK 092250Z AUTO 00000KT 10SM CLR 34/25 A2984 RMK AO2 T03350251

2010/08/09 22:51
KALB 092251Z 25006KT 10SM FEW050 SCT110 BKN120 BKN250 29/18 A2989 RMK AO2 SLP118 T02940178

2010/08/09 22:45
KALM 092245Z AUTO 28008KT 10SM CLR 33/09 A2998 RMK AO2

2010/08/09 22:50
KANW 092250Z AUTO 09008KT 1/2SM HZ VV005 32/16 A2991 RMK AO2 T03190158

2010/08/09 22:51
KASH 092251Z VRB04KT 10SM FEW070 32/17 A2987 RMK AO2 T03220172 SLP117

2010/08/09 22:50
KATS 092250Z AUTO 17003KT 10SM CLR 32/12 A2996 RMK AO2

2010/08/09 22:45
KATW 092245Z VRB05KT 10SM SCT030 30/23 A2990

2010/08/09 22:50
KAUH 092250Z AUTO 08003KT 10SM CLR 33/23 A2987 RMK AO2 T03250226

2010/08/09 22:50
KAUN 092250Z AUTO 24008KT 10SM CLR 29/11 A2989 RMK AO1

2010/08/09 22:51
KAVX 092251Z AUTO VRB05KT 10SM CLR 18/12 A2993 RMK AO2 SLP124 T01780122 TSNO

2010/08/09 22:50
KAXS 092250Z AUTO 18009KT 10SM CLR 34/21 A2984 RMK AO2 T03390205

2010/08/09 22:50
KAXX 092250Z AUTO 19012KT 10SM BKN060 BKN075 20/11 A3029 RMK AO2

2010/08/09 22:51
KBDL 092251Z 19012KT 5SM HZ FEW070 BKN085 BKN200 31/21 A2989 RMK AO2 SLP120 T03060206

2010/08/09 22:51
KBGD 092251Z AUTO 20010G19KT 10SM CLR 35/14 A2991 RMK AO2 SLP076 T03500139

2010/08/09 22:50
KBIE 092250Z AUTO 00000KT 10SM CLR 36/23 A2982 RMK AO2 T03600228

2010/08/09 22:51
KBKW 092251Z AUTO 23004KT 7SM CLR 28/17 A3009 RMK AO2 SLP153 T02830167

2010/08/09 22:50
KBTA 092250Z AUTO 02005KT 10SM SCT019 SCT025 31/25 A2986 RMK AO2 T03130248

2010/08/09 22:50
KBVN 092250Z AUTO 11004KT 10SM CLR 31/24 A2989 RMK AO2 T03100235

2010/08/09 22:45
KBVS 092245Z AUTO 00000KT 5SM BKN008 BKN050 BKN090 16/15 A2998 RMK A01 P000

2010/08/09 22:50
KCHK 092250Z AUTO 15010G14KT 10SM CLR 36/22 A2984 RMK AO2

2010/08/09 22:51
KCLE 092251Z 23004KT 9SM FEW110 BKN150 OVC250 29/19 A2997 RMK AO2 SLP141 T02890194

2010/08/09 22:50
KCLK 092250Z AUTO 17013G16KT 10SM SCT095 37/11 A2983 RMK AO2

2010/08/09 22:51
KCMH 092251Z 21005KT 10SM FEW055 BKN140 BKN200 31/18 A2995 RMK AO2 SLP136 T03060178

2010/08/09 22:50
KCQB 092250Z AUTO 16007KT 10SM CLR 38/20 A2985 RMK AO2 TSNO

2010/08/09 22:50
KCUH 092250Z AUTO 20010KT 10SM CLR 38/20 A2984 RMK AO2

2010/08/09 22:51
KDAW 092251Z AUTO 00000KT 10SM FEW110 25/18 A2988 RMK AO2 LTG DSNT E TSB2153E43 SLP113 T02500183

2010/08/09 22:50
KDUA 092250Z AUTO 16008G16KT 10SM CLR 38/18 A2986 RMK AO2

2010/08/09 22:52
KDUC 092252Z AUTO 12012KT 10SM CLR 33/21 A2986 RMK AO2 LTG DSNT E

2010/08/09 22:50
KDVO 092250Z AUTO 35011KT 10SM 25/14 A2987 RMK AO2

2010/08/09 22:50
KEFD 092250Z 16008KT 10SM SCT055 34/25 A2991

2010/08/09 22:51
KERI 092251Z 23003KT 6SM HZ SCT090 27/18 A2996 RMK AO2 SLP139 T02720178

2010/08/09 22:51
KEWR 092251Z 17009G14KT 10SM BKN070 BKN120 BKN250 31/19 A2991 RMK AO2 SLP127 T03110189 $

2010/08/09 22:50
KFET 092250Z AUTO 36005KT 10SM CLR 30/25 A2986 RMK AO2 T03040253

2010/08/09 22:50
KGCD 092250Z AUTO 31013G21KT 10SM CLR 29/04 A2985 RMK AO2 T02900036

2010/08/09 22:52
KGCM 092252Z AUTO 18009KT 10SM CLR 36/21 A2989 RMK AO2

2010/08/09 22:52
KGLS 092252Z 15011KT 10SM CLR 33/23 A2992 RMK AO2 SLP130 T03280228

2010/08/09 22:55
KGLY 092255Z AUTO 00000KT 9SM CLR 35/26 A2988 RMK AO2

2010/08/09 22:51
KGMJ 092251Z AUTO 16009KT 10SM CLR 37/19 A2988 RMK AO2

2010/08/09 22:50
KHDE 092250Z AUTO 08006KT 10SM CLR 32/23 A2989 RMK AO2 T03160229

2010/08/09 22:50
KHJH 092250Z AUTO 05004KT 10SM CLR 36/24 A2982 RMK AO2 T03580240

2010/08/09 22:52
KHRL 092252Z 14015KT 10SM CLR 34/24 A2983 RMK AO2 SLP101 T03440239

2010/08/09 22:51
KHTS 092251Z 00000KT 10SM CLR 31/19 A2998 RMK AO2 SLP142 T03060189

2010/08/09 22:50
KIBM 092250Z AUTO 16007KT 10SM SCT022 SCT095 BKN120 23/18 A3002 RMK AO2 LTG DSNT N P0001 T02300179

2010/08/09 22:50
KIDP 092250Z AUTO 17009KT 10SM CLR 35/21 A2986 RMK AO2

2010/08/09 22:51
KILG 092251Z 17013KT 10SM CLR 28/19 A2996 RMK AO2 SLP144 T02830194

2010/08/09 22:50
KISM 092250Z 17006KT 10SM FEW027 SCT035 BKN042 27/24 A2991

2010/08/09 22:48
KIZA 092248Z AUTO 28011KT 10SM CLR 27/11 A2987 RMK AO2

2010/08/09 22:51
KJFK 092251Z 19020G25KT 10SM FEW140 BKN250 27/19 A2994 RMK AO2 SLP138 T02670194

2010/08/09 22:51
KJSV 092251Z AUTO 18003KT 10SM CLR 36/19 A2987 RMK AO2

2010/08/09 22:49
KL35 092249Z AUTO 27007G14KT 10SM CLR 24/M06 A3015 RMK AO2

2010/08/09 22:51
KLGA 092251Z 18009G15KT 10SM FEW050 BKN250 30/17 A2991 RMK AO2 SLP130 T03000167

2010/08/09 22:51
KLGU 092251Z AUTO 02010KT 10SM FEW095 25/09 A2999 RMK AO2 WSHFT 2138 LTG DSNT SE SLP105 T02500094

2010/08/09 22:50
KLRU 092250Z AUTO 32007KT 10SM SCT090 33/07 A3003 RMK AO2

2010/08/09 22:55
KLZZ 092255Z AUTO 14006G15KT 10SM CLR 37/17 A2987 RMK AO2

2010/08/09 22:51
KMPV 092251Z AUTO 16005KT 5SM VCTS BR SCT050 21/20 A2995 RMK AO2 LTG DSNT NE AND SE AND SW TSE26B50RAE21 SLP138 P0002 T02110200

2010/08/09 22:51
KMYL 092251Z AUTO 31008G16KT 10SM -RA FEW075 SCT090 21/06 A2993 RMK AO2 RAB44 SLP099 P0000 T02110061

2010/08/09 22:50
KMYR 092250Z 18007KT 10SM BKN070 29/24 A3003

2010/08/09 22:50
KOJA 092250Z AUTO 16010G16KT 10SM CLR 37/18 A2984 RMK AO2

2010/08/09 22:51
KOKM 092251Z AUTO 16010KT 10SM CLR 39/22 A2986 RMK AO1

2010/08/09 22:50
KONP 092250Z AUTO 35012KT 10SM BKN007 16/12 A3006 RMK AO1

2010/08/09 22:50
KORS 092250Z AUTO 10SM OVC018 15/14 A2995 RMK AO2

2010/08/09 22:51
KOXR 092251Z AUTO 24007KT 10SM CLR 19/13 A2990 RMK AO2 SLP123 T01890128 TSNO

2010/08/09 22:55
KPAN 092255Z AUTO 24006KT 10SM FEW095 29/05 A3012 RMK AO1

2010/08/09 22:51
KPIT 092251Z 24004KT 9SM SCT150 OVC250 30/16 A2998 RMK AO2 SLP152 T03000156

2010/08/09 22:50
KPLU 092250Z AUTO 00000KT 10SM OVC025 18/13 A2997 RMK AO2

2010/08/09 22:50
PASP 092250Z 24008KT 20SM FEW040 BKN060 18/12 A2963 RMK EST PASS OPEN NO SPECI

2010/08/09 22:50
KPTS 092250Z AUTO 19007KT 10SM CLR 36/18 A2987 RMK AO2 T03600183

2010/08/09 22:51
KPVD 092251Z 21007KT 8SM FEW170 SCT220 SCT300 28/21 A2992 RMK AO2 SLP132 T02780206

2010/08/09 22:51
KPWM 092251Z 00000KT 10SM SCT070 BKN090 BKN110 27/19 A2986 RMK AO2 SLP110 T02670189

2010/08/09 22:51
KSJT 092251Z 18009KT 10SM SCT090 38/16 A2987 RMK AO2 SLP084 T03830161

2010/08/09 22:51
KSLK 092251Z AUTO 34003KT 7SM -RA BKN028 18/17 A2995 RMK AO2 LTG DSNT NE AND E TSE32 SLP136 P0023 T01830167

2010/08/09 22:51
KSMO 092251Z 25007KT 10SM CLR 19/13 A2990 RMK AO2 SLP124 T01890128

2010/08/09 22:50
KSRE 092250Z AUTO 15007KT 10SM CLR 36/19 A2987 RMK AO2

2010/08/09 22:51
KSTL 092251Z 00000KT 10SM FEW060 BKN250 36/23 A2989 RMK AO2 SLP107 TCU DSNT E AND DSNT S T03610228

2010/08/09 22:51
KTEB 092251Z 18009KT 10SM FEW070 30/17 A2990 RMK AO2 SLP125 T03000172

2010/08/09 22:51
KVNY 092251Z 14009KT 10SM CLR 28/09 A2987 RMK AO2 SLP105 T02780094

2010/08/09 22:48
KWWR 092248Z AUTO 15008KT 10SM CLR 36/16 A2987 RMK AO2 T03640159

2010/08/09 22:51
KYNG 092251Z 21005KT 10SM FEW050 BKN110 OVC200 28/17 A2998 RMK AO2 SLP145 T02830172

2010/08/09 22:52
KAFN 092252Z AUTO 20005KT 10SM CLR 28/17 A2993 RMK AO2 SLP132 T02830167

2010/08/09 22:52
KAQW 092252Z AUTO 11004KT 9SM FEW110 27/21 A2991 RMK AO2 SLP124 T02670211

2010/08/09 22:52
KARR 092252Z 25005KT 10SM OVC080 29/23 A2993 RMK AO2 SLP127 T02940233

2010/08/09 22:52
KATL 092252Z 12006KT 10SM FEW065 SCT250 33/18 A2998 RMK AO2 SLP140 T03330183

2010/08/09 22:53
KBCT 092253Z AUTO 16010KT 10SM CLR 29/24 A2990

2010/08/09 22:52
KBIS 092252Z 15017KT 10SM CLR 34/15 A2982 RMK AO2 SLP084 T03440150

2010/08/09 22:52
KBLF 092252Z AUTO 26005KT 10SM CLR 29/16 A3012 RMK AO2 SLP159 T02940161

2010/08/09 22:52
KBLH 092252Z AUTO 18014G17KT 10SM CLR 41/M01 A2972 RMK AO2 SLP057 T04061006

2010/08/09 22:52
KBML 092252Z AUTO 00000KT 10SM VCTS SCT043 25/19 A2990 RMK AO2 LTG DSNT SW-NW TSB47 SLP120 T02500194

2010/08/09 22:47
KBVI 092247Z 29005KT 10SM BKN110 30/20 A3002

2010/08/09 22:52
KCFV 092252Z AUTO 19011KT 10SM CLR 37/20 A2986 RMK AO2 SLP102 T03720200

2010/08/09 22:52
KCID 092252Z 12008KT 10SM SCT075 29/24 A2991 RMK AO2 SLP120 T02890239

2010/08/09 22:52
KCKV 092252Z AUTO 21006KT 10SM CLR 32/24 A2991 RMK AO2 SLP123 T03170239

2010/08/09 22:51
KART 092251Z AUTO 24010KT 2 1/2SM -RA BR FEW014 BKN024 BKN055 23/22 A2992 RMK AO2 P0010

2010/08/09 22:51
KIML 092251Z AUTO 11010KT 10SM CLR 33/19 A2991 RMK AO2 LTG DSNT N AND NW TSB01E45

2010/08/09 22:51
PAIK 092251Z AUTO 10009G16KT 7SM RA FEW005 BKN011 OVC025 14/13 A2949 RMK AO2 RAB23 P0001

2010/08/09 22:49
PAJZ 092249Z AUTO 18014KT 10SM SCT009 BKN017 OVC050 12/11 A2962 RMK AO2 PWINO TSNO $

2010/08/09 22:51
KSAN 092251Z 32009KT 10SM CLR 22/14 A2990 RMK AO2 SLP126 T02170139

2010/08/09 22:51
KCRP 092251Z 12012G19KT 10SM FEW030 33/24 A2986 RMK AO2 SLP109 CB DSNT SW T03330244

2010/08/09 22:51
KGDP 092251Z AUTO 24015KT 10SM CLR 32/12 A3012 RMK AO2 SLP110 T03170117 TSNO

2010/08/09 22:51
KBVE 092251Z AUTO 30006KT CLR 28/25 A2994 RMK AO2 SLP136 T02780250 TSNO $

2010/08/09 22:51
KCAK 092251Z 24005KT 7SM SCT065 BKN130 BKN180 28/19 A2998 RMK AO2 SLP144 T02830189

2010/08/09 22:51
KJCT 092251Z AUTO 13011KT 10SM BKN090 37/17 A2988 RMK AO2 SLP074 T03670167 TSNO

2010/08/09 22:51
KSNT 092251Z AUTO VRB05KT 13/11 A3009 RMK AO2 SLP123 P0002 T01330106 PWINO TSNO

2010/08/09 22:51
KDAG 092251Z AUTO 06010G16KT 10SM CLR 37/M06 A2980 RMK AO2 SLP062 T03721056 TSNO

2010/08/09 22:51
KNYC 092251Z AUTO 15008KT 120V190 10SM CLR 29/18 A2995 RMK AO2 SLP131 T02940183 TSNO

2010/08/09 22:51
KCON 092251Z AUTO 31005KT 9SM CLR 29/17 A2988 RMK AO2 SLP115 T02890172

2010/08/09 22:51
KABE 092251Z 22009KT 10SM CLR 31/20 A2993 RMK AO2 SLP133 T03110200

2010/08/09 22:51
KATT 092251Z AUTO 17007KT 10SM CLR 36/18 A2986 RMK AO2 SLP096 T03610178 $

2010/08/09 22:51
KP59 092251Z AUTO 35010KT 23/21 A2989 RMK AO2 SLP114 T02330206 PWINO TSNO

2010/08/09 22:51
KHSE 092251Z AUTO 20007KT 10SM SCT041 OVC050 25/25 A3002 RMK AO2 RAE2152 SLP164 T02500250 TSNO

2010/08/09 22:51
KORF 092251Z 12005KT 10SM CLR 29/19 A2998 RMK AO2 SLP152 T02940194 $

2010/08/09 22:51
KSMX 092251Z 31010KT 10SM FEW015 18/11 A2992 RMK AO2 SLP134 T01830111

2010/08/09 22:52
KSDB 092252Z AUTO 15013G20KT 10SM CLR 26/M04 A3004 RMK AO2 SLP118 T02561039 TSNO

2010/08/09 22:52
KABI 092252Z 18011KT 10SM CLR 37/17 A2989 RMK AO2 SLP088 T03670167

2010/08/09 22:52
KCLT 092252Z 17005KT 10SM FEW065 BKN250 31/21 A3000 RMK AO2 SLP149 T03110206

2010/08/09 22:52
KCNU 092252Z AUTO 21010KT 10SM CLR 37/21 A2987 RMK AO2 SLP101 T03670206

2010/08/09 22:52
KCQX 092252Z AUTO 22007KT 7SM CLR 24/23 A2994 RMK AO2 SLP139 T02440228

2010/08/09 22:52
KCVG 092252Z 22004KT 8SM FEW065 SCT160 SCT250 33/19 A2996 RMK AO2 SLP132 T03330189

2010/08/09 22:52
KDCA 092252Z 18011KT 8SM FEW055 SCT250 32/21 A2995 RMK AO2 SLP141 T03170211

2010/08/09 22:52
KDDC 092252Z AUTO 17014G20KT 10SM CLR 34/16 A2985 RMK AO2 PK WND 11026/2154 WSHFT 2237 LTG DSNT SW AND W TSE2159RAE11 SLP069 P0000 T03390161

2010/08/09 22:52
KDPA 092252Z 21008KT 10SM CLR 29/24 A2992 RMK AO2 SLP123 T02940239

2010/08/09 22:52
KDVN 092252Z AUTO 10008KT 10SM CLR 29/23 A2993 RMK AO2 SLP128 T02940228

2010/08/09 22:47
KEMT 092247Z 19010KT 13SM SKC A2987

2010/08/09 22:52
KEST 092252Z AUTO 11007KT 10SM BKN038 28/24 A2992 RMK AO2 SLP121 T02830239

2010/08/09 22:52
KFIT 092252Z AUTO 23004KT 10SM CLR 31/17 A2990 RMK AO2 SLP122 T03110172

2010/08/09 22:50
KGTU 092250Z 18011G14KT 10SM FEW050 37/17 A2988

2010/08/09 22:52
KHIE 092252Z AUTO 22005KT 9SM VCTS -RA BKN039 23/19 A2991 RMK AO2 LTG DSNT W-NE TSB32RAB36 SLP125 P0000 T02280189

2010/08/09 22:52
KHUT 092252Z 16011G17KT 10SM FEW090 38/19 A2984 RMK AO2 SLP076 T03830194

2010/08/09 22:52
KIAD 092252Z 19008KT 8SM BKN250 32/21 A2995 RMK AO2 SLP138 T03170211

2010/08/09 22:52
KIJD 092252Z AUTO 21006KT 7SM CLR 29/21 A2993 RMK AO2 SLP134 T02890211

2010/08/09 22:52
KIOW 092252Z AUTO 10008KT 10SM FEW021 30/25 A2991 RMK AO2 SLP121 T03000250

2010/08/09 22:52
KISN 092252Z 06003KT 10SM CLR 32/15 A2980 RMK AO2 SLP077 T03220150

2010/08/09 22:52
KLWC 092252Z AUTO 20010KT 10SM CLR 38/23 A2984 RMK AO2 SLP093 T03780228

2010/08/09 22:52
KMDH 092252Z AUTO 15003KT 10SM FEW085 34/23 A2989 RMK AO2 SLP117 T03440233 TSNO

2010/08/09 22:52
KMEB 092252Z AUTO 16003KT 10SM CLR 31/22 A2999 RMK AO2 SLP151 T03110217

2010/08/09 22:52
KMHK 092252Z 16010KT 10SM FEW080 38/19 A2981 RMK AO2 SLP080 T03830194

2010/08/09 22:52
KMKE 092252Z 13006KT 8SM FEW038 SCT050 28/22 A2989 RMK AO2 SLP117 T02830222

2010/08/09 22:52
KMLI 092252Z 12006KT 10SM CLR 30/23 A2991 RMK AO2 SLP125 T03000233

2010/08/09 22:52
KMWH 092252Z 19013KT 10SM CLR 29/09 A2974 RMK AO2 SLP063 T02940094

2010/08/09 22:52
KOKB 092252Z AUTO 25010G16KT 10SM CLR 22/14 A2988 RMK AO2 SLP119 T02220139

2010/08/09 22:52
KOKC 092252Z 16011G18KT 10SM FEW070 SCT250 37/19 A2986 RMK AO2 SLP091 CB DSNT S MOVG N T03670194 $

2010/08/09 22:50
KOLV 092250Z 22005KT 9SM SCT150 BKN250 32/27 A2995

2010/08/09 22:52
KOMA 092252Z 35008KT 10SM SCT035 SCT160 33/27 A2983 RMK AO2 SLP092 T03330267

2010/08/09 22:52
KORE 092252Z AUTO 21005KT 10SM FEW085 29/17 A2990 RMK AO2 SLP123 T02940172

2010/08/09 22:52
KPPF 092252Z AUTO 20007KT 10SM CLR 37/21 A2987 RMK AO2 SLP103 T03670206

2010/08/09 22:52
KPWK 092252Z 29007KT 10SM OVC090 31/22 A2992 RMK AO2 SLP125 T03110222

2010/08/09 22:52
KPYM 092252Z AUTO 22009KT 10SM CLR 29/19 A2991 RMK AO2 SLP128 T02890189

2010/08/09 22:52
KSGF 092252Z AUTO 21007KT 10SM CLR 35/22 A2991 RMK AO2 SLP111 T03500217

2010/08/09 22:52
KSPI 092252Z 17004KT 10SM CLR 34/26 A2989 RMK AO2 SLP116 T03390261

2010/08/09 22:52
KSPS 092252Z 18016KT 10SM SCT075 SCT095 36/19 A2983 RMK AO2 TSB03E24 SLP084 P0004 T03610189

2010/08/09 22:52
KSUX 092252Z 09007KT 10SM OVC028 29/24 A2987 RMK AO2 SLP106 T02890244

2010/08/09 22:52
KTAN 092252Z AUTO 20007KT 10SM CLR 27/21 A2990 RMK AO2 SLP122 T02720211

2010/08/09 22:52
KTRM 092252Z AUTO 15010KT 10SM CLR 38/06 A2968 RMK AO2 SLP063 T03780056

2010/08/09 22:52
KUGN 092252Z 24004KT 10SM FEW040 30/22 A2990 RMK AO2 SLP110 T03000217

2010/08/09 22:52
KVTN 092252Z AUTO 16007KT 10SM CLR 34/15 A2990 RMK AO2 SLP098 T03390150

2010/08/09 22:50
KWDG 092250Z 16013G20KT 10SM FEW130 39/19 A2982

2010/08/09 23:00
LQBK 092300Z 00000KT CAVOK 17/16 Q1017 NOSIG

2010/08/09 22:50
EDDF 092250Z 05003KT CAVOK 15/13 Q1017 NOSIG

2010/08/09 22:50
EDDH 092250Z 07002KT CAVOK 16/14 Q1016 NOSIG

2010/08/09 22:50
EDDK 092250Z 10005KT CAVOK 14/12 Q1016 NOSIG

2010/08/09 22:50
EDDL 092250Z 12003KT CAVOK 15/13 Q1016 NOSIG

2010/08/09 22:50
EDDM 092250Z 08003KT 9999 MIFG NSC 14/13 Q1018 NOSIG

2010/08/09 22:50
EDDN 092250Z 15001KT CAVOK 14/14 Q1018

2010/08/09 22:50
EDDS 092250Z VRB01KT CAVOK 16/12 Q1018

2010/08/09 22:50
EDDT 092250Z 29002KT CAVOK 18/15 Q1016

2010/08/09 22:50
EDDV 092250Z 16004KT CAVOK 17/13 Q1016

2010/08/09 22:49
PABI 092249Z 19013G20KT 10SM FEW070 BKN100 BKN180 20/05 A2960 RMK AO2 WSHFT 2229

2010/08/09 22:52
KBML 092252Z AUTO 00000KT 10SM VCTS SCT043 25/19 A2990 RMK AO2 LTG DSNT SW-NW TSB47 SLP120 T02500194

2010/08/09 22:47
KBVI 092247Z 29005KT 10SM BKN110 30/20 A3002

2010/08/09 22:52
KCFV 092252Z AUTO 19011KT 10SM CLR 37/20 A2986 RMK AO2 SLP102 T03720200

2010/08/09 22:52
KCKV 092252Z AUTO 21006KT 10SM CLR 32/24 A2991 RMK AO2 SLP123 T03170239

2010/08/09 22:52
KCLT 092252Z 17005KT 10SM FEW065 BKN250 31/21 A3000 RMK AO2 SLP149 T03110206

2010/08/09 22:52
KCQX 092252Z AUTO 22007KT 7SM CLR 24/23 A2994 RMK AO2 SLP139 T02440228

2010/08/09 22:52
KCVG 092252Z 22004KT 8SM FEW065 SCT160 SCT250 33/19 A2996 RMK AO2 SLP132 T03330189

2010/08/09 22:52
KDCA 092252Z 18011KT 8SM FEW055 SCT250 32/21 A2995 RMK AO2 SLP141 T03170211

2010/08/09 22:52
KDDC 092252Z AUTO 17014G20KT 10SM CLR 34/16 A2985 RMK AO2 PK WND 11026/2154 WSHFT 2237 LTG DSNT SW AND W TSE2159RAE11 SLP069 P0000 T03390161

2010/08/09 22:52
KDPA 092252Z 21008KT 10SM CLR 29/24 A2992 RMK AO2 SLP123 T02940239

2010/08/09 22:52
KDVN 092252Z AUTO 10008KT 10SM CLR 29/23 A2993 RMK AO2 SLP128 T02940228

2010/08/09 22:47
KEMT 092247Z 19010KT 13SM SKC A2987

2010/08/09 22:52
KEST 092252Z AUTO 11007KT 10SM BKN038 28/24 A2992 RMK AO2 SLP121 T02830239

2010/08/09 22:52
KFIT 092252Z AUTO 23004KT 10SM CLR 31/17 A2990 RMK AO2 SLP122 T03110172

2010/08/09 22:50
KGTU 092250Z 18011G14KT 10SM FEW050 37/17 A2988

2010/08/09 22:52
KHIE 092252Z AUTO 22005KT 9SM VCTS -RA BKN039 23/19 A2991 RMK AO2 LTG DSNT W-NE TSB32RAB36 SLP125 P0000 T02280189

2010/08/09 22:52
KHUT 092252Z 16011G17KT 10SM FEW090 38/19 A2984 RMK AO2 SLP076 T03830194

2010/08/09 22:52
KIAD 092252Z 19008KT 8SM BKN250 32/21 A2995 RMK AO2 SLP138 T03170211

2010/08/09 22:52
KIJD 092252Z AUTO 21006KT 7SM CLR 29/21 A2993 RMK AO2 SLP134 T02890211

2010/08/09 22:52
KIOW 092252Z AUTO 10008KT 10SM FEW021 30/25 A2991 RMK AO2 SLP121 T03000250

2010/08/09 22:52
KISN 092252Z 06003KT 10SM CLR 32/15 A2980 RMK AO2 SLP077 T03220150

2010/08/09 22:52
KLWC 092252Z AUTO 20010KT 10SM CLR 38/23 A2984 RMK AO2 SLP093 T03780228

2010/08/09 22:52
KMDH 092252Z AUTO 15003KT 10SM FEW085 34/23 A2989 RMK AO2 SLP117 T03440233 TSNO

2010/08/09 22:52
KMEB 092252Z AUTO 16003KT 10SM CLR 31/22 A2999 RMK AO2 SLP151 T03110217

2010/08/09 22:52
KMKE 092252Z 13006KT 8SM FEW038 SCT050 28/22 A2989 RMK AO2 SLP117 T02830222

2010/08/09 22:52
KMLI 092252Z 12006KT 10SM CLR 30/23 A2991 RMK AO2 SLP125 T03000233

2010/08/09 22:52
KMWH 092252Z 19013KT 10SM CLR 29/09 A2974 RMK AO2 SLP063 T02940094

2010/08/09 22:52
KOKB 092252Z AUTO 25010G16KT 10SM CLR 22/14 A2988 RMK AO2 SLP119 T02220139

2010/08/09 22:52
KOKC 092252Z 16011G18KT 10SM FEW070 SCT250 37/19 A2986 RMK AO2 SLP091 CB DSNT S MOVG N T03670194 $

2010/08/09 22:50
KOLV 092250Z 22005KT 9SM SCT150 BKN250 32/27 A2995

2010/08/09 22:52
KOMA 092252Z 35008KT 10SM SCT035 SCT160 33/27 A2983 RMK AO2 SLP092 T03330267

2010/08/09 22:52
KORE 092252Z AUTO 21005KT 10SM FEW085 29/17 A2990 RMK AO2 SLP123 T02940172

2010/08/09 22:52
KPPF 092252Z AUTO 20007KT 10SM CLR 37/21 A2987 RMK AO2 SLP103 T03670206

2010/08/09 22:52
KPWK 092252Z 29007KT 10SM OVC090 31/22 A2992 RMK AO2 SLP125 T03110222

2010/08/09 22:52
KPYM 092252Z AUTO 22009KT 10SM CLR 29/19 A2991 RMK AO2 SLP128 T02890189

2010/08/09 22:52
KSGF 092252Z AUTO 21007KT 10SM CLR 35/22 A2991 RMK AO2 SLP111 T03500217

2010/08/09 22:52
KSPI 092252Z 17004KT 10SM CLR 34/26 A2989 RMK AO2 SLP116 T03390261

2010/08/09 22:52
KSUX 092252Z 09007KT 10SM OVC028 29/24 A2987 RMK AO2 SLP106 T02890244

2010/08/09 22:52
KTAN 092252Z AUTO 20007KT 10SM CLR 27/21 A2990 RMK AO2 SLP122 T02720211

2010/08/09 22:52
KTRM 092252Z AUTO 15010KT 10SM CLR 38/06 A2968 RMK AO2 SLP063 T03780056

2010/08/09 22:52
KUGN 092252Z 24004KT 10SM FEW040 30/22 A2990 RMK AO2 SLP110 T03000217

2010/08/09 22:50
KWDG 092250Z 16013G20KT 10SM FEW130 39/19 A2982

2010/08/09 22:50
BGBW 092250Z AUTO 07003KT 9999NDV -RA SCT004/// BKN007/// OVC013/// 09/08 Q1008

2010/08/09 22:50
BGJN 092250Z AUTO 16005KT 9999NDV SCT026/// BKN110/// 13/04 Q1009

2010/08/09 22:52
PTRO 092252Z 00000KT 14SM SCT016TCU BKN120 BKN300 26/25 A2989 RMK TCU VC ALQDS 

2010/08/09 22:53
PTKR 092253Z 00000KT 15SM FEW017 SCT120 OVC300 27/25 A2986 RMK SLP113 T02720250

2010/08/09 22:51
KARA 092251Z 12012G19KT 10SM -TSRA FEW011 SCT046 SCT090 26/23 A2994 RMK AO2 PK WND 09034/2215 RAB29 P0002

2010/08/09 22:51
KLLQ 092251Z AUTO 00000KT 10SM CLR 36/24 A2991 RMK AO2 TSB28E45

2010/08/09 22:51
KART 092251Z AUTO 24010KT 2 1/2SM -RA BR FEW014 BKN024 BKN055 23/22 A2992 RMK AO2 P0010

2010/08/09 22:51
KIML 092251Z AUTO 11010KT 10SM CLR 33/19 A2991 RMK AO2 LTG DSNT N AND NW TSB01E45

2010/08/09 22:51
PAIK 092251Z AUTO 10009G16KT 7SM RA FEW005 BKN011 OVC025 14/13 A2949 RMK AO2 RAB23 P0001

2010/08/09 22:49
PAJZ 092249Z AUTO 18014KT 10SM SCT009 BKN017 OVC050 12/11 A2962 RMK AO2 PWINO TSNO $

2010/08/09 23:00
FAJS 092300Z 20014KT CAVOK 02/M11 Q1029 NOSIG

2010/08/09 22:50
EDDB 092250Z 26004KT CAVOK 17/15 Q1016 NOSIG

2010/08/09 22:50
EDDC 092250Z 25003KT CAVOK 17/13 Q1017

2010/08/09 22:50
EDDE 092250Z 18002KT CAVOK 15/13 Q1018

2010/08/09 22:50
EDDG 092250Z 11002KT 9999 MIFG NSC 14/13 Q1016 NOSIG

2010/08/09 22:50
EDDP 092250Z VRB02KT CAVOK 17/15 Q1017 NOSIG

2010/08/09 22:50
EDDR 092250Z 10003KT CAVOK 16/11 Q1017

2010/08/09 22:50
EDDW 092250Z 16004KT CAVOK 16/13 Q1016

2010/08/09 22:50
EKKA 092250Z 19006KT 160V220 9999 FEW030 SCT060 12/11 Q1014

2010/08/09 22:50
EKSP 092250Z 17003KT CAVOK 10/09 Q1015 RMK FEW055 SCT250

2010/08/09 22:55
KBLV 092255Z AUTO 12003KT 10SM CLR 35/24 A2989 RMK AO2 SLP117 T03510245

2010/08/09 22:55
KBLV 092255Z AUTO 12003KT 10SM CLR 35/24 A2989 RMK AO2 SLP117 T03510245

2010/08/09 22:52
KNHK 092252Z 14005KT 10SM SCT250 30/22 A2997 RMK AO2 SLP150 T03000222 $

2010/08/09 23:00
SGAS 092300Z 19008KT CAVOK 15/09 Q1019

2010/08/09 23:00
SGES 092300Z 21004KT CAVOK 17/13 Q1018

2010/08/09 22:50
KDVO 092250Z AUTO 35011KT 10SM 25/14 A2987 RMK AO2

2010/08/09 22:50
KEFD 092250Z 16008KT 10SM SCT055 34/25 A2991

2010/08/09 22:51
KERI 092251Z 23003KT 6SM HZ SCT090 27/18 A2996 RMK AO2 SLP139 T02720178

2010/08/09 22:51
KEWR 092251Z 17009G14KT 10SM BKN070 BKN120 BKN250 31/19 A2991 RMK AO2 SLP127 T03110189 $

2010/08/09 22:50
KFET 092250Z AUTO 36005KT 10SM CLR 30/25 A2986 RMK AO2 T03040253

2010/08/09 22:50
KGCD 092250Z AUTO 31013G21KT 10SM CLR 29/04 A2985 RMK AO2 T02900036

2010/08/09 22:52
KGCM 092252Z AUTO 18009KT 10SM CLR 36/21 A2989 RMK AO2

2010/08/09 22:52
KGLS 092252Z 15011KT 10SM CLR 33/23 A2992 RMK AO2 SLP130 T03280228

2010/08/09 22:55
KGLY 092255Z AUTO 00000KT 9SM CLR 35/26 A2988 RMK AO2

2010/08/09 22:51
KGMJ 092251Z AUTO 16009KT 10SM CLR 37/19 A2988 RMK AO2

2010/08/09 22:50
KHDE 092250Z AUTO 08006KT 10SM CLR 32/23 A2989 RMK AO2 T03160229

2010/08/09 22:50
KHJH 092250Z AUTO 05004KT 10SM CLR 36/24 A2982 RMK AO2 T03580240

2010/08/09 22:52
KHRL 092252Z 14015KT 10SM CLR 34/24 A2983 RMK AO2 SLP101 T03440239

2010/08/09 22:50
KIBM 092250Z AUTO 16007KT 10SM SCT022 SCT095 BKN120 23/18 A3002 RMK AO2 LTG DSNT N P0001 T02300179

2010/08/09 22:50
KIDP 092250Z AUTO 17009KT 10SM CLR 35/21 A2986 RMK AO2

2010/08/09 22:51
KILG 092251Z 17013KT 10SM CLR 28/19 A2996 RMK AO2 SLP144 T02830194

2010/08/09 22:51
KJFK 092251Z 19020G25KT 10SM FEW140 BKN250 27/19 A2994 RMK AO2 SLP138 T02670194

2010/08/09 22:51
KJSV 092251Z AUTO 18003KT 10SM CLR 36/19 A2987 RMK AO2

2010/08/09 22:49
KL35 092249Z AUTO 27007G14KT 10SM CLR 24/M06 A3015 RMK AO2

2010/08/09 22:51
KLGA 092251Z 18009G15KT 10SM FEW050 BKN250 30/17 A2991 RMK AO2 SLP130 T03000167

2010/08/09 22:51
KLGU 092251Z AUTO 02010KT 10SM FEW095 25/09 A2999 RMK AO2 WSHFT 2138 LTG DSNT SE SLP105 T02500094

2010/08/09 22:50
KLRU 092250Z AUTO 32007KT 10SM SCT090 33/07 A3003 RMK AO2

2010/08/09 22:51
KMPV 092251Z AUTO 16005KT 5SM VCTS BR SCT050 21/20 A2995 RMK AO2 LTG DSNT NE AND SE AND SW TSE26B50RAE21 SLP138 P0002 T02110200

2010/08/09 22:50
KMYR 092250Z 18007KT 10SM BKN070 29/24 A3003

2010/08/09 22:50
KOJA 092250Z AUTO 16010G16KT 10SM CLR 37/18 A2984 RMK AO2

2010/08/09 22:51
KOKM 092251Z AUTO 16010KT 10SM CLR 39/22 A2986 RMK AO1

2010/08/09 22:50
KONP 092250Z AUTO 35012KT 10SM BKN007 16/12 A3006 RMK AO1

2010/08/09 22:50
KORS 092250Z AUTO 10SM OVC018 15/14 A2995 RMK AO2

2010/08/09 22:55
KPAN 092255Z AUTO 24006KT 10SM FEW095 29/05 A3012 RMK AO1

2010/08/09 22:51
KPIT 092251Z 24004KT 9SM SCT150 OVC250 30/16 A2998 RMK AO2 SLP152 T03000156

2010/08/09 22:50
KPLU 092250Z AUTO 00000KT 10SM OVC025 18/13 A2997 RMK AO2

2010/08/09 22:50
PASP 092250Z 24008KT 20SM FEW040 BKN060 18/12 A2963 RMK EST PASS OPEN NO SPECI

2010/08/09 22:51
KPWM 092251Z 00000KT 10SM SCT070 BKN090 BKN110 27/19 A2986 RMK AO2 SLP110 T02670189

2010/08/09 22:51
KSJT 092251Z 18009KT 10SM SCT090 38/16 A2987 RMK AO2 SLP084 T03830161

2010/08/09 22:51
KSLK 092251Z AUTO 34003KT 7SM -RA BKN028 18/17 A2995 RMK AO2 LTG DSNT NE AND E TSE32 SLP136 P0023 T01830167

2010/08/09 22:51
KSMO 092251Z 25007KT 10SM CLR 19/13 A2990 RMK AO2 SLP124 T01890128

2010/08/09 22:50
KSRE 092250Z AUTO 15007KT 10SM CLR 36/19 A2987 RMK AO2

2010/08/09 22:51
KSTL 092251Z 00000KT 10SM FEW060 BKN250 36/23 A2989 RMK AO2 SLP107 TCU DSNT E AND DSNT S T03610228

2010/08/09 22:51
KVNY 092251Z 14009KT 10SM CLR 28/09 A2987 RMK AO2 SLP105 T02780094

2010/08/09 22:48
KWWR 092248Z AUTO 15008KT 10SM CLR 36/16 A2987 RMK AO2 T03640159

2010/08/09 22:52
KAFN 092252Z AUTO 20005KT 10SM CLR 28/17 A2993 RMK AO2 SLP132 T02830167

2010/08/09 22:52
KAQW 092252Z AUTO 11004KT 9SM FEW110 27/21 A2991 RMK AO2 SLP124 T02670211

2010/08/09 22:52
KARR 092252Z 25005KT 10SM OVC080 29/23 A2993 RMK AO2 SLP127 T02940233

2010/08/09 22:52
KATL 092252Z 12006KT 10SM FEW065 SCT250 33/18 A2998 RMK AO2 SLP140 T03330183

2010/08/09 22:53
KBCT 092253Z AUTO 16010KT 10SM CLR 29/24 A2990

2010/08/09 22:52
KBIS 092252Z 15017KT 10SM CLR 34/15 A2982 RMK AO2 SLP084 T03440150

2010/08/09 22:52
KBLF 092252Z AUTO 26005KT 10SM CLR 29/16 A3012 RMK AO2 SLP159 T02940161

2010/08/09 22:52
KBLH 092252Z AUTO 18014G17KT 10SM CLR 41/M01 A2972 RMK AO2 SLP057 T04061006

2010/08/09 22:51
KSAN 092251Z 32009KT 10SM CLR 22/14 A2990 RMK AO2 SLP126 T02170139

2010/08/09 22:49
KCBE 092249Z AUTO 01003KT 10SM CLR 33/17 A2997 RMK AO1

2010/08/09 22:51
KEKN 092251Z AUTO 00000KT 10SM CLR 28/18 A3006 RMK AO2 SLP168 T02780183 TSNO

2010/08/09 22:51
KELP 092251Z 25005G16KT 10SM FEW100 34/08 A2996 RMK AO2 SLP066 T03440083

2010/08/09 22:51
KROW 092251Z 23010KT 10SM CLR 32/15 A2996 RMK AO2 SLP078 T03170150

2010/08/09 22:51
KCRP 092251Z 12012G19KT 10SM FEW030 33/24 A2986 RMK AO2 SLP109 CB DSNT SW T03330244

2010/08/09 22:51
KGDP 092251Z AUTO 24015KT 10SM CLR 32/12 A3012 RMK AO2 SLP110 T03170117 TSNO

2010/08/09 22:51
KBVE 092251Z AUTO 30006KT CLR 28/25 A2994 RMK AO2 SLP136 T02780250 TSNO $

2010/08/09 22:51
KCAK 092251Z 24005KT 7SM SCT065 BKN130 BKN180 28/19 A2998 RMK AO2 SLP144 T02830189

2010/08/09 22:51
KSNT 092251Z AUTO VRB05KT 13/11 A3009 RMK AO2 SLP123 P0002 T01330106 PWINO TSNO

2010/08/09 22:51
KNYC 092251Z AUTO 15008KT 120V190 10SM CLR 29/18 A2995 RMK AO2 SLP131 T02940183 TSNO

2010/08/09 22:51
KCON 092251Z AUTO 31005KT 9SM CLR 29/17 A2988 RMK AO2 SLP115 T02890172

2010/08/09 22:51
KABE 092251Z 22009KT 10SM CLR 31/20 A2993 RMK AO2 SLP133 T03110200

2010/08/09 22:51
KATT 092251Z AUTO 17007KT 10SM CLR 36/18 A2986 RMK AO2 SLP096 T03610178 $

2010/08/09 22:51
KP59 092251Z AUTO 35010KT 23/21 A2989 RMK AO2 SLP114 T02330206 PWINO TSNO

2010/08/09 22:51
KHSE 092251Z AUTO 20007KT 10SM SCT041 OVC050 25/25 A3002 RMK AO2 RAE2152 SLP164 T02500250 TSNO

2010/08/09 22:51
KORF 092251Z 12005KT 10SM CLR 29/19 A2998 RMK AO2 SLP152 T02940194 $

2010/08/09 22:51
KALB 092251Z 25006KT 10SM FEW050 SCT110 BKN120 BKN250 29/18 A2989 RMK AO2 SLP118 T02940178

2010/08/09 22:51
KBDL 092251Z 19012KT 5SM HZ FEW070 BKN085 BKN200 31/21 A2989 RMK AO2 SLP120 T03060206

2010/08/09 22:51
KBKW 092251Z AUTO 23004KT 7SM CLR 28/17 A3009 RMK AO2 SLP153 T02830167

2010/08/09 22:51
KHTS 092251Z 00000KT 10SM CLR 31/19 A2998 RMK AO2 SLP142 T03060189

2010/08/09 22:50
KISM 092250Z 17006KT 10SM FEW027 SCT035 BKN042 27/24 A2991

2010/08/09 22:48
KIZA 092248Z AUTO 28011KT 10SM CLR 27/11 A2987 RMK AO2

2010/08/09 22:55
KLZZ 092255Z AUTO 14006G15KT 10SM CLR 37/17 A2987 RMK AO2

2010/08/09 22:51
KMYL 092251Z AUTO 31008G16KT 10SM -RA FEW075 SCT090 21/06 A2993 RMK AO2 RAB44 SLP099 P0000 T02110061

2010/08/09 22:51
KOXR 092251Z AUTO 24007KT 10SM CLR 19/13 A2990 RMK AO2 SLP123 T01890128 TSNO

2010/08/09 22:50
KPTS 092250Z AUTO 19007KT 10SM CLR 36/18 A2987 RMK AO2 T03600183

2010/08/09 22:51
KPVD 092251Z 21007KT 8SM FEW170 SCT220 SCT300 28/21 A2992 RMK AO2 SLP132 T02780206

2010/08/09 22:51
KTEB 092251Z 18009KT 10SM FEW070 30/17 A2990 RMK AO2 SLP125 T03000172

2010/08/09 22:51
KYNG 092251Z 21005KT 10SM FEW050 BKN110 OVC200 28/17 A2998 RMK AO2 SLP145 T02830172

2010/08/09 22:51
KSMX 092251Z 31010KT 10SM FEW015 18/11 A2992 RMK AO2 SLP134 T01830111

2010/08/09 22:52
KCID 092252Z 12008KT 10SM SCT075 29/24 A2991 RMK AO2 SLP120 T02890239

2010/08/09 22:52
KCNU 092252Z AUTO 21010KT 10SM CLR 37/21 A2987 RMK AO2 SLP101 T03670206

2010/08/09 22:52
KMHK 092252Z 16010KT 10SM FEW080 38/19 A2981 RMK AO2 SLP080 T03830194

2010/08/09 22:52
KSPS 092252Z 18016KT 10SM SCT075 SCT095 36/19 A2983 RMK AO2 TSB03E24 SLP084 P0004 T03610189

2010/08/09 22:52
KVTN 092252Z AUTO 16007KT 10SM CLR 34/15 A2990 RMK AO2 SLP098 T03390150

2010/08/09 22:52
KSDB 092252Z AUTO 15013G20KT 10SM CLR 26/M04 A3004 RMK AO2 SLP118 T02561039 TSNO

2010/08/09 22:52
KABI 092252Z 18011KT 10SM CLR 37/17 A2989 RMK AO2 SLP088 T03670167

2010/08/09 22:50
KEFD 092250Z 16008KT 10SM SCT055 34/25 A2991

2010/08/09 22:45
K2G4 092245Z AUTO 25006KT 10SM CLR 26/15 A3010 RMK AO1

2010/08/09 22:48
K2W6 092248Z AUTO 16007KT 10SM CLR 28/20 A2999 RMK AO1

2010/08/09 22:50
KAEG 092250Z 00000KT 10SM SCT100 SCT120 29/07 A3011

2010/08/09 22:51
KAHN 092251Z 00000KT 4SM BR BKN100 25/23 A3000 RMK AO2 RAE30 SLP152 P0015 T02500233

2010/08/09 22:50
KANE 092250Z 09005KT 12SM SKC 32/21 A2991

2010/08/09 22:51
KBAZ 092251Z AUTO 13009KT 10SM CLR 36/20 A2985 RMK AO2 SLP096 T03610200

2010/08/09 22:50
KCGS 092250Z AUTO 20005KT 10SM SCT055 34/20 A2995 RMK AO1

2010/08/09 22:47
KCHD 092247Z VRB06KT 40SM SCT120 38/10 A2979

2010/08/09 22:51
KCSG 092251Z 15007KT 10SM FEW075 34/18 A2993 RMK AO2 SLP130 T03440178

2010/08/09 22:49
KFDK 092249Z AUTO 17008KT 130V200 10SM CLR 32/19 A2996 RMK AO2

2010/08/09 22:51
KHDO 092251Z AUTO 12012KT 10SM FEW070 36/19 A2987 RMK AO2 SLP097 T03610194

2010/08/09 22:51
KMDW 092251Z 25010KT 10SM FEW040 SCT100 SCT250 30/22 A2990 RMK AO2 SLP115 T03000217 PNO

2010/08/09 22:51
KORD 092251Z 24007KT 10SM FEW035 SCT100 SCT250 31/23 A2990 RMK AO2 SLP121 T03060228

2010/08/09 22:47
KPAO 092247Z 33011KT 30SM SKC A2988

2010/08/09 22:51
KPHX 092251Z 00000KT 10SM FEW120 SCT150 39/08 A2977 RMK AO2 SLP060 CB DSNT E AND SE T03890083 $

2010/08/09 22:51
KRDU 092251Z 19007KT 8SM FEW065 BKN250 32/20 A2999 RMK AO2 SLP150 T03170200

2010/08/09 22:47
KRYY 092247Z 17004KT 10SM SCT060 33/21 A2997

2010/08/09 22:49
KW29 092249Z AUTO 17007KT 10SM CLR 30/18 A2996 RMK AO1

2010/08/09 22:51
KJCT 092251Z AUTO 13011KT 10SM BKN090 37/17 A2988 RMK AO2 SLP074 T03670167 TSNO

2010/08/09 22:51
KDAG 092251Z AUTO 06010G16KT 10SM CLR 37/M06 A2980 RMK AO2 SLP062 T03721056 TSNO

2010/08/09 22:47
K1F0 092247Z AUTO 16005KT 10SM SCT070 SCT080 37/20 A2984 RMK AO2 LTG DSNT NW

2010/08/09 22:59
K36U 092259Z AUTO 23015G23KT 10SM CLR 27/M02 A3006 RMK AO2

2010/08/09 22:48
K4O4 092248Z AUTO 15007KT 10SM CLR 36/20 A2989 RMK AO2

2010/08/09 22:51
KACT 092251Z 17010G15KT 10SM CLR 38/19 A2985 RMK AO2 SLP099 T03780189 $

2010/08/09 22:51
KADH 092251Z AUTO 17008KT 10SM CLR 36/14 A2987 RMK AO2

2010/08/09 22:50
KAFK 092250Z AUTO 00000KT 10SM CLR 34/25 A2984 RMK AO2 T03350251

2010/08/09 22:45
KALM 092245Z AUTO 28008KT 10SM CLR 33/09 A2998 RMK AO2

2010/08/09 22:50
KANW 092250Z AUTO 09008KT 1/2SM HZ VV005 32/16 A2991 RMK AO2 T03190158

2010/08/09 22:51
KASH 092251Z VRB04KT 10SM FEW070 32/17 A2987 RMK AO2 T03220172 SLP117

2010/08/09 22:50
KATS 092250Z AUTO 17003KT 10SM CLR 32/12 A2996 RMK AO2

2010/08/09 22:45
KATW 092245Z VRB05KT 10SM SCT030 30/23 A2990

2010/08/09 22:50
KAUH 092250Z AUTO 08003KT 10SM CLR 33/23 A2987 RMK AO2 T03250226

2010/08/09 22:50
KAUN 092250Z AUTO 24008KT 10SM CLR 29/11 A2989 RMK AO1

2010/08/09 22:51
KAVX 092251Z AUTO VRB05KT 10SM CLR 18/12 A2993 RMK AO2 SLP124 T01780122 TSNO

2010/08/09 22:50
KAXS 092250Z AUTO 18009KT 10SM CLR 34/21 A2984 RMK AO2 T03390205

2010/08/09 22:50
KAXX 092250Z AUTO 19012KT 10SM BKN060 BKN075 20/11 A3029 RMK AO2

2010/08/09 22:51
KBGD 092251Z AUTO 20010G19KT 10SM CLR 35/14 A2991 RMK AO2 SLP076 T03500139

2010/08/09 22:50
KBIE 092250Z AUTO 00000KT 10SM CLR 36/23 A2982 RMK AO2 T03600228

2010/08/09 22:50
KBTA 092250Z AUTO 02005KT 10SM SCT019 SCT025 31/25 A2986 RMK AO2 T03130248

2010/08/09 22:50
KBVN 092250Z AUTO 11004KT 10SM CLR 31/24 A2989 RMK AO2 T03100235

2010/08/09 22:45
KBVS 092245Z AUTO 00000KT 5SM BKN008 BKN050 BKN090 16/15 A2998 RMK A01 P000

2010/08/09 22:50
KCHK 092250Z AUTO 15010G14KT 10SM CLR 36/22 A2984 RMK AO2

2010/08/09 22:51
KCLE 092251Z 23004KT 9SM FEW110 BKN150 OVC250 29/19 A2997 RMK AO2 SLP141 T02890194

2010/08/09 22:50
KCLK 092250Z AUTO 17013G16KT 10SM SCT095 37/11 A2983 RMK AO2

2010/08/09 22:51
KCMH 092251Z 21005KT 10SM FEW055 BKN140 BKN200 31/18 A2995 RMK AO2 SLP136 T03060178

2010/08/09 22:50
KCQB 092250Z AUTO 16007KT 10SM CLR 38/20 A2985 RMK AO2 TSNO

2010/08/09 22:50
KCUH 092250Z AUTO 20010KT 10SM CLR 38/20 A2984 RMK AO2

2010/08/09 22:51
KDAW 092251Z AUTO 00000KT 10SM FEW110 25/18 A2988 RMK AO2 LTG DSNT E TSB2153E43 SLP113 T02500183

2010/08/09 22:50
KDUA 092250Z AUTO 16008G16KT 10SM CLR 38/18 A2986 RMK AO2

2010/08/09 22:52
KDUC 092252Z AUTO 12012KT 10SM CLR 33/21 A2986 RMK AO2 LTG DSNT E

2010/08/09 22:50
EKVD 092250Z AUTO 17003KT //// ///////// 12/10 Q1015

2010/08/09 22:50
EKHN 092250Z AUTO 19018KT 9999NDV NCD 18/14 Q1015

2010/08/09 22:50
EKHR 092250Z AUTO 18013KT 9999NDV BKN060/// 18/13 Q1014

2010/08/09 22:50
EKCH 092250Z 22004KT CAVOK 13/11 Q1015 NOSIG

2010/08/09 22:50
EKBI 092250Z 14002KT CAVOK 11/11 Q1015

2010/08/09 22:50
EKYT 092250Z 22011KT 9999 FEW035 15/13 Q1013

2010/08/09 22:50
EKRK 092250Z AUTO 22002KT 9999NDV SCT043/// 12/10 Q1015

2010/08/09 22:50
EKAH 092250Z AUTO 23003KT 9999NDV BKN043/// 14/11 Q1015

2010/08/09 22:50
EKEB 092250Z AUTO 17006KT 9999NDV BKN069/// 13/11 Q1014

2010/08/09 22:50
EKRN 092250Z AUTO 34001KT 9999NDV SCT200/// 14/14 Q1016

2010/08/09 22:50
LLBG 092250Z 18002KT 9999 FEW021 SCT025 27/22 Q1006 NOSIG

2010/08/09 22:50
LLOV 092250Z 28006KT CAVOK 24/19 Q1008

2010/08/09 22:50
OAKB 092250Z VRB03KT CAVOK 22/15 Q1012 NOSIG RMK BLU BLU

2010/08/09 22:50
EDDB 092250Z 26004KT CAVOK 17/15 Q1016 NOSIG

2010/08/09 22:50
EDDC 092250Z 25003KT CAVOK 17/13 Q1017

2010/08/09 22:50
EDDG 092250Z 11002KT 9999 MIFG NSC 14/13 Q1016 NOSIG

2010/08/09 22:50
EDDP 092250Z VRB02KT CAVOK 17/15 Q1017 NOSIG

2010/08/09 22:50
EDDR 092250Z 10003KT CAVOK 16/11 Q1017

2010/08/09 22:50
EDDT 092250Z 29002KT CAVOK 18/15 Q1016

2010/08/09 22:50
EDDV 092250Z 16004KT CAVOK 17/13 Q1016

2010/08/09 22:50
EDDW 092250Z 16004KT CAVOK 16/13 Q1016

2010/08/09 22:53
CYYR 092253Z 28009KT 15SM -SHRA FEW046 SCT068 BKN098 BKN250 RMK CU2AC2AC1CI0

2010/08/09 22:50
EYSA 092250Z 19005KT CAVOK 17/15 Q1016

2010/08/09 22:50
LXGB 092250Z 08004KT CAVOK 26/17 Q1016

2010/08/09 22:48
RJCK 092248Z 32007KT 310V010 0300 R17/0600V1400U FG VV001 20/19 Q1015 RMK A2998

2010/08/09 22:49
RJCB 092249Z VRB01KT 5000 BR FEW004 BKN005 21/20 Q1015 RMK 2ST004 7ST005 A2999

2010/08/09 22:47
RJTY 092247Z AUTO 00000KT 3200 -RA BR BKN010 OVC016 25/24 A3007 RMK AO2 RAB2244 SLP177

2010/08/09 22:46
RJTY 092246Z AUTO 00000KT 3200 -RA BR BKN008 OVC014 25/23 A3007 RMK AO2 RAB2244 SLP176

2010/08/09 22:50
RJTY 092250Z AUTO 00000KT 2800 -RA BR BKN009 OVC016 24/24 A3007 RMK AO2 RAB2244 SLP177

2010/08/09 22:49
RJTY 092249Z AUTO 00000KT 2800 -RA BR BKN010 OVC016 25/24 A3007 RMK AO2 RAB2244 SLP177

2010/08/09 22:48
RKSO 092248Z 16009KT 3200 -RA FEW009 OVC030 26/26 A2979 RMK AO2A RAB2159E2211B2235DZB2151E2159B2231E2235 SLP090 $

2010/08/09 22:51
RKJK 092251Z AUTO 07006KT 9999 FEW008 SCT085 26/26 A2978 RMK AO2 RAB2239E2240DZB2240E2251 SLP087 $

2010/08/09 22:50
RJTY 092250Z AUTO 00000KT 2800 -RA BR BKN009 OVC016 24/24 A3007 RMK AO2 RAB2244 SLP177

2010/08/09 22:47
RJTY 092247Z AUTO 00000KT 3200 -RA BR BKN010 OVC016 25/24 A3007 RMK AO2 RAB2244 SLP177

2010/08/09 22:49
RJTY 092249Z AUTO 00000KT 2800 -RA BR BKN010 OVC016 25/24 A3007 RMK AO2 RAB2244 SLP177

2010/08/09 22:46
RJTY 092246Z AUTO 00000KT 3200 -RA BR BKN008 OVC014 25/23 A3007 RMK AO2 RAB2244 SLP176

2010/08/09 22:52
KP69 092252Z AUTO VRB03KT 27/17 A2976 RMK AO2 SLP057 T02720167 PWINO TSNO 

2010/08/09 22:52
KREO 092252Z AUTO 25009G15KT 29/03 A2986 RMK AO2 SLP071 T02890033 PWINO TSNO 

2010/08/09 22:52
KN60 092252Z AUTO 08003KT 29/21 A2981 RMK AO1 SLP085 T02940206 

2010/08/09 22:45
KIGQ 092245Z AUTO 23006KT 10SM SCT110 31/21 A2991

2010/08/09 22:45
KIJX 092245Z AUTO 18006KT 10SM CLR 34/26 A2989

2010/08/09 22:45
KIKK 092245Z AUTO 00000KT 10SM SCT095 34/22 A2991

2010/08/09 22:45
KSAR 092245Z AUTO 00000KT 7SM CLR 36/24 A2990

2010/08/09 22:45
KSLO 092245Z AUTO 13003KT 10SM CLR 34/24 A2991

2010/08/09 22:45
KTAZ 092245Z AUTO 20006KT 10SM CLR 36/26 A2989

2010/08/09 22:45
KTIP 092245Z AUTO 17005KT 10SM SCT042 SCT060 BKN080 33/27 A2993

2010/08/09 22:52
KNRB 092252Z 11009KT 10SM FEW025TCU SCT040 BKN150 BKN250 30/23 A2994 RMK AO2 SLP137 TCU N T2 SET T03000233 

2010/08/09 22:52
KBLU 092252Z AUTO 22005KT 10SM CLR 21/07 A3009 RMK AO2 SLP102 T02110067 TSNO 

2010/08/09 22:50
BGBW 092250Z AUTO 07003KT 9999NDV -RA SCT004/// BKN007/// OVC013/// 09/08 Q1008

2010/08/09 22:50
BGJN 092250Z AUTO 16005KT 9999NDV SCT026/// BKN110/// 13/04 Q1009

2010/08/09 22:50
EKCH 092250Z 22004KT CAVOK 13/11 Q1015 NOSIG

2010/08/09 22:50
EKBI 092250Z 14002KT CAVOK 11/11 Q1015

2010/08/09 22:50
EKYT 092250Z 22011KT 9999 FEW035 15/13 Q1013

2010/08/09 22:50
EKRK 092250Z AUTO 22002KT 9999NDV SCT043/// 12/10 Q1015

2010/08/09 22:50
EKAH 092250Z AUTO 23003KT 9999NDV BKN043/// 14/11 Q1015

2010/08/09 22:50
EKEB 092250Z AUTO 17006KT 9999NDV BKN069/// 13/11 Q1014

2010/08/09 22:50
EKRN 092250Z AUTO 34001KT 9999NDV SCT200/// 14/14 Q1016

2010/08/09 23:00
GVNP 092300Z 04005KT 9999 FEW019 25/21 Q1015 NOSIG

2010/08/09 22:50
EKVD 092250Z AUTO 17003KT //// ///////// 12/10 Q1015

2010/08/09 22:50
EKKA 092250Z 19006KT 160V220 9999 FEW030 SCT060 12/11 Q1014

2010/08/09 22:50
EKSP 092250Z 17003KT CAVOK 10/09 Q1015 RMK FEW055 SCT250

2010/08/09 22:45
KGYY 092245Z 23007KT 12SM SCT110 SCT250 31/21 A2990

2010/08/09 22:45
KIKK 092245Z AUTO 00000KT 10SM SCT095 34/22 A2991

2010/08/09 22:52
KCZZ 092252Z AUTO 23011KT 29/03 A2988 RMK AO2 SLP091 T02890028 PWINO TSNO 

2010/08/09 22:50
EDDB 092250Z 26004KT CAVOK 17/15 Q1016 NOSIG

2010/08/09 22:50
EDDC 092250Z 25003KT CAVOK 17/13 Q1017

2010/08/09 22:50
EDDE 092250Z 18002KT CAVOK 15/13 Q1018

2010/08/09 22:50
EDDF 092250Z 05003KT CAVOK 15/13 Q1017 NOSIG

2010/08/09 22:50
EDDG 092250Z 11002KT 9999 MIFG NSC 14/13 Q1016 NOSIG

2010/08/09 22:50
EDDH 092250Z 07002KT CAVOK 16/14 Q1016 NOSIG

2010/08/09 22:50
EDDK 092250Z 10005KT CAVOK 14/12 Q1016 NOSIG

2010/08/09 22:50
EDDL 092250Z 12003KT CAVOK 15/13 Q1016 NOSIG

2010/08/09 22:50
EDDM 092250Z 08003KT 9999 MIFG NSC 14/13 Q1018 NOSIG

2010/08/09 22:50
EDDN 092250Z 15001KT CAVOK 14/14 Q1018

2010/08/09 22:50
EDDP 092250Z VRB02KT CAVOK 17/15 Q1017 NOSIG

2010/08/09 22:50
EDDR 092250Z 10003KT CAVOK 16/11 Q1017

2010/08/09 22:50
EDDS 092250Z VRB01KT CAVOK 16/12 Q1018

2010/08/09 22:50
EDDT 092250Z 29002KT CAVOK 18/15 Q1016

2010/08/09 22:50
EDDV 092250Z 16004KT CAVOK 17/13 Q1016

2010/08/09 22:50
EDDW 092250Z 16004KT CAVOK 16/13 Q1016

2010/08/09 22:50
EKCH 092250Z 22004KT CAVOK 13/11 Q1015 NOSIG

2010/08/09 22:50
EKEB 092250Z AUTO 17006KT 9999NDV BKN069/// 13/11 Q1014

2010/08/09 22:50
EKSP 092250Z 17003KT CAVOK 10/09 Q1015 RMK FEW055 SCT250

2010/08/09 22:50
EKVD 092250Z AUTO 17003KT //// ///////// 12/10 Q1015

2010/08/09 22:50
EKYT 092250Z 22011KT 9999 FEW035 15/13 Q1013

2010/08/09 22:50
ETNG 092250Z 16005KT CAVOK 17/12 Q1016

2010/08/09 23:00
GVAC 092300Z 06005KT 9999 SCT014 25/18 Q1015 NOSIG

2010/08/09 22:45
LMML 092245Z VRB03KT CAVOK 23/14 Q1015 NOSIG

2010/08/09 23:00
LPLA 092300Z 05008KT 9999 FEW022 21/17 Q1023

2010/08/09 23:00
LQBK 092300Z 00000KT CAVOK 17/16 Q1017 NOSIG

2010/08/09 23:00
LQMO 092300Z VRB02KT CAVOK 22/14 Q1013

2010/08/09 23:00
LQSA 092300Z 00000KT 9999 FEW045 16/14 Q1019

2010/08/09 22:50
LSGG 092250Z VRB01KT 9999 BKN085 19/13 Q1017 NOSIG

2010/08/09 22:50
LSZH 092250Z VRB01KT 9999 FEW054 16/14 Q1018 NOSIG

2010/08/09 23:00
MGGT 092300Z 18006KT 9999 FEW018 BKN200 20/19 Q1023 A3021 CB E TCU NW RERA VOL/DE PACAYA EN ACTIVIDAD

2010/08/09 22:49
MMMX 092249Z 02016KT 7SM VCTSRA BKN020CB BKN090 BKN200 19/15 A3020 NOSIG RMK 60775 8/963 TS-LTGICCG-PCPN VC-W-NW TSE32 -RAE31 HZY

2010/08/09 23:00
MPTO 092300Z 20006KT 9999 SCT018 BKN300 29/24 Q1009 NOSIG

2010/08/09 22:50
MSSS 092250Z 15004KT 9999 FEW017 SCT040CB BKN170 28/24 Q1013 A2994 CB ALQDS

2010/08/09 22:50
NSTU 092250Z 10016KT 12SM SCT023 29/25 A2999 RMK SLP154 T02900250

2010/08/09 22:50
PKMJ 092250Z 06018KT 15SM FEW015 SCT050 BKN120 OVC300 30/25 A2989

2010/08/09 22:45
PHJH 092245Z 07017G25KT 15SM FEW040 29/15 A3008

2010/08/09 22:52
K9V9 092252Z AUTO 13009KT 30/22 A2988 RMK AO2 SLP103 T03000222 PWINO TSNO 

2010/08/09 22:50
NSTU 092250Z 10016KT 12SM SCT023 29/25 A2999 RMK SLP154 T02900250

2010/08/09 22:50
PKMJ 092250Z 06018KT 15SM FEW015 SCT050 BKN120 OVC300 30/25 A2989

2010/08/09 23:00
ZMUB 092300Z 26002MPS 9999 SCT100 10/01 Q1007 NOSIG RMK QFE649.2 55

2010/08/09 22:53
KLND 092253Z AUTO 20014G18KT 10SM CLR 29/02 A2994 RMK AO2 PK WND 19026/2241 WSHFT 2140 SLP065 T02940022 

2010/08/09 22:53
KNIP 092253Z 11012KT 10SM SCT030 SCT130 BKN250 31/23 A2993 RMK AO2 SLP130 T2 SET T03060233 

2010/08/09 22:53
KP92 092253Z AUTO 01007KT 340V050 24/23 A2997 RMK AO2 PRESFR SLP148 T02440233 PWINO TSNO 

2010/08/09 22:53
KCQC 092253Z AUTO 16010KT 10SM FEW075 BKN090 24/11 A3018 RMK AO2 WSHFT 2208 SLP122 T02390111 TSNO 

2010/08/09 22:53
KSGR 092253Z 15015G21KT 10SM CLR 33/24 A2988 RMK AO2 SLP124 T03330239 

2010/08/09 22:53
KCTY 092253Z AUTO 06004KT 32/25 A2989 RMK AO2 SLP121 T03170250 PWINO TSNO 

2010/08/09 22:53
KDAB 092253Z 09009G14KT 10SM FEW023 SCT250 29/24 A2991 RMK AO2 SLP129 TCU DSNT W T02890239 

2010/08/09 22:53
KLAX 092253Z 26011KT 10SM CLR 19/12 A2990 RMK AO2 SLP124 T01940122 $ 

2010/08/09 22:51
KVCT 092251Z 12012KT 10SM CLR 34/24 A2987 RMK AO2 SLP112 T03440244 

2010/08/09 22:53
KTUP 092253Z 20007KT 10SM TS CLR 29/24 A2995 RMK AO2 TSB30 SLP136 T02940239 

2010/08/09 22:53
KMGM 092253Z 18005KT 10SM CLR 35/20 A2992 RMK AO2 SLP126 T03500200 

2010/08/09 22:53
KCHA 092253Z 15004KT 10SM FEW060 BKN095 BKN120 BKN250 34/22 A2995 RMK AO2 SLP134 CB DSNT NW T03390217 $ 

2010/08/09 22:53
K6R6 092253Z AUTO 10006KT 31/19 A2990 RMK AO2 SLP087 T03110194 PWINO TSNO 

2010/08/09 22:53
KBTR 092253Z 24004KT 8SM -RA FEW006 SCT039 BKN110 25/24 A2993 RMK AO2 TSE45RAB2158 SLP133 CB DSNT S-SW MOVG SW TS MOVD SW P0005 T02500244 

2010/08/09 22:53
KMCN 092253Z 04007KT 8SM CLR 34/21 A2995 RMK AO2 SLP135 T03390206 

2010/08/09 22:53
KTYS 092253Z 09004KT 10SM FEW060 34/21 A2996 RMK AO2 SLP132 T03390206 

2010/08/09 22:53
KTRI 092253Z 00000KT 10SM FEW050 SCT065 SCT250 33/17 A3001 RMK AO2 SLP143 T03330167 

2010/08/09 22:50
BGBW 092250Z AUTO 07003KT 9999NDV -RA SCT004/// BKN007/// OVC013/// 09/08 Q1008

2010/08/09 22:50
BGJN 092250Z AUTO 16005KT 9999NDV SCT026/// BKN110/// 13/04 Q1009

2010/08/09 22:55
KCEF 092255Z AUTO 18006KT 10SM FEW120 31/18 A2989 RMK AO2 CLDS LWR RWY05 SLP121 T03140179 PWINO $

2010/08/09 22:55
KGRF 092255Z AUTO VRB04KT 10SM BKN024 OVC029 18/12 A2997 RMK AO2 SLP150 T01840125

2010/08/09 22:55
KHMN 092255Z 29007KT 10SM CLR 33/11 A2997 RMK AO2A SLP063 T03320108 $

2010/08/09 22:55
KLRF 092255Z AUTO 09006KT 10SM CLR 36/26 A2988 RMK AO2 SLP116 T03590264

2010/08/09 22:52
KNHK 092252Z 14005KT 10SM SCT250 30/22 A2997 RMK AO2 SLP150 T03000222 $

2010/08/09 22:56
KNSI 092256Z 04004KT 7SM FEW011 18/12 A2991 RMK AO2 SLP124 T01790122 TSNO

2010/08/09 22:55
KRDR 092255Z AUTO 19010KT 10SM CLR 35/18 A2983 RMK AO2 SLP113 T03500181 $

2010/08/09 22:51
KSAN 092251Z 32009KT 10SM CLR 22/14 A2990 RMK AO2 SLP126 T02170139

2010/08/09 23:00
LQBK 092300Z 00000KT CAVOK 17/16 Q1017 NOSIG

2010/08/09 22:50
MSAC 092250Z 12002KT 9999 FEW033 FEW037CB BKN300 30/24 Q1009 CB SH AL N

2010/08/09 22:50
MSSA 092250Z 10002KT 9999 FEW033 FEW037CB 29/22 Q1012 CB SH N-NE-E SSE/ CB Y TS SW-W

2010/08/09 22:50
MSSM 092250Z 03002KT 9999 SCT033 FEW037CB BKN170 28/24 Q1008 CB N-NE/E

2010/08/09 22:50
OAFZ 092250Z AUTO 21001KT //// ////// 24/10 Q1013

2010/08/09 22:50
OAUZ 092250Z AUTO VRB02KT //// ////// 31/04 Q1004

2010/08/09 23:00
OKBK 092300Z 34006KT 8000 NSC 37/09 Q0996 NOSIG

2010/08/09 22:53
KOVE 092253Z AUTO 14007KT 10SM CLR 31/13 A2982 RMK AO2 SLP099 T03110128 TSNO $ 

2010/08/09 22:53
KELY 092253Z AUTO VRB04G17KT 10SM SCT110 26/M03 A3009 RMK AO2 SLP094 T02611028 

2010/08/09 22:53
KBNO 092253Z AUTO 12015G18KT 10SM BKN090 26/07 A2988 RMK AO2 RAE04 SLP081 P0000 T02560067 TSNO 

2010/08/09 22:50
KPMV 092250Z AUTO 00000KT 10SM CLR 35/23 A2985 RMK AO2 T03450228

2010/08/09 22:53
KAEX 092253Z AUTO 09005KT 10SM CLR 37/21 A2988 RMK AO2 SLP120 T03720211 TSNO

2010/08/09 22:53
KALI 092253Z AUTO 14015G22KT 10SM CLR 34/23 A2984 RMK AO2 SLP100 T03390233

2010/08/09 22:52
KALS 092252Z AUTO VRB04KT 10SM FEW110 26/ A3019 RMK AO2 LTG DSNT SE SLPNO T0256 $

2010/08/09 22:53
KARA 092253Z 12011G19KT 10SM TS FEW011 SCT090 26/23 A2994 RMK AO2 PK WND 09034/2215 RAB29E52 SLP138 P0002 T02610233

2010/08/09 22:53
KASD 092253Z AUTO 00000KT 10SM CLR 28/25 A2993 RMK AO2 SLP135 T02780250

2010/08/09 22:53
KAUS 092253Z 15011KT 10SM FEW070 37/19 A2985 RMK AO2 SLP096 T03670189

2010/08/09 22:51
KBBG 092251Z 17006KT 10SM FEW050 SCT150 35/22 A2994

2010/08/09 22:52
KBDR 092252Z 23008KT 10SM CLR 28/19 A2993 RMK AO2 SLP135 T02780189

2010/08/09 22:53
KBFM 092253Z VRB05KT 10SM CLR 31/24 A2994 RMK AO2 SLP138 T03110244

2010/08/09 22:53
KBMQ 092253Z AUTO 14009G14KT 10SM CLR 36/17 A2990 RMK AO2 SLP103 T03560167 $

2010/08/09 22:53
KBPT 092253Z 19010KT 10SM CLR 33/24 A2990 RMK AO2 SLP126 T03330244

2010/08/09 22:53
KBRO 092253Z AUTO 13014G19KT 10SM FEW031 34/24 A2985 RMK AO2 SLP108 T03390244 TSNO

2010/08/09 22:53
KCLL 092253Z 15011KT 10SM CLR 37/20 A2986 RMK AO2 SLP104 T03670200

2010/08/09 22:53
KCOT 092253Z AUTO 13011KT 10SM SCT070 37/18 A2982 RMK AO2 SLP089 T03670183

2010/08/09 22:53
KCXO 092253Z 14008KT 10SM CLR 36/22 A2988 RMK AO2 SLP114 T03560217

2010/08/09 22:53
KDRT 092253Z AUTO 14014G17KT 10SM CLR 37/18 A2981 RMK AO2 SLP074 T03720183

2010/08/09 22:53
KDWH 092253Z 14009KT 10SM FEW060 34/23 A2988 RMK AO2 SLP114 T03390233

2010/08/09 22:50
KEKM 092250Z 29006KT 10SM SKC 30/20 A2994 RMK AO2

2010/08/09 22:53
KESF 092253Z AUTO 09012G22KT 10SM VCTS FEW065 BKN090 31/23 A2992 RMK AO2 LTG DSNT ALQDS TSB27 SLP130 T03110228

2010/08/09 22:53
KGPT 092253Z 17004KT 10SM CLR 31/24 A2992 RMK AO2 SLP130 T03110244

2010/08/09 22:53
KHBG 092253Z AUTO 20012G22KT 10SM FEW050 SCT065 BKN100 32/24 A2993 RMK AO2 LTG DSNT SW SLP132 T03170239

2010/08/09 22:53
KHOU 092253Z 18008KT 10SM SCT055 34/23 A2988 RMK AO2 SLP123 T03390228

2010/08/09 22:53
KIAH 092253Z 14013KT 10SM FEW055 SCT250 34/24 A2989 RMK AO2 SLP119 T03390244

2010/08/09 22:52
KIEN 092252Z AUTO 07009KT 10SM VCTS OVC085 22/18 A2997 RMK AO2 LTG DSNT E AND SE TSE00B40RAB02E32 SLP128 P0006 T02170178

2010/08/09 22:55
KJWG 092255Z AUTO 20011G16KT 10SM CLR 38/21 A2985 RMK AO2

2010/08/09 22:50
KJYR 092250Z AUTO 07005KT 10SM 33/26 A2986 RMK AO2

2010/08/09 22:50
KLAM 092250Z AUTO 33004KT 10SM BKN065 BKN090 OVC120 20/13 A3022 RMK AO2

2010/08/09 22:50
KLCG 092250Z AUTO 04004KT 7SM SCT010 OVC016 26/24 A2990 RMK AO2 T02630241

2010/08/09 22:53
KLBX 092253Z AUTO 15009KT 10SM CLR 33/25 A2990 RMK AO2 SLP125 T03280250

2010/08/09 22:53
KLCH 092253Z 18007KT 10SM FEW050 32/26 A2991 RMK AO2 LTG DSNT NW SLP137 T03220256

2010/08/09 22:53
KLFK 092253Z AUTO 21007KT 10SM SCT070 38/19 A2988 RMK AO2 SLP114 T03780194

2010/08/09 22:53
KLFT 092253Z 13006G15KT 10SM FEW060 28/23 A2995 RMK AO2 SLP141 T02780233

2010/08/09 22:50
KLHM 092250Z AUTO 25006KT 10SM CLR 32/11 A2980 RMK AO1 T03170112

2010/08/09 22:53
KLVJ 092253Z AUTO 15009KT 10SM CLR 34/23 A2991 RMK AO2 SLP128 T03390233

2010/08/09 22:50
KLXN 092250Z AUTO 09008KT 10SM CLR 33/21 A2990 RMK AO2 T03260206

2010/08/09 22:53
KMCB 092253Z AUTO 18004KT 7SM CLR 25/23 A2995 RMK AO2 SLP138 T02500233

2010/08/09 22:52
KMFD 092252Z 19008KT 8SM CLR 29/17 A2999 RMK AO2 SLP144 T02940167

2010/08/09 22:50
KMLE 092250Z AUTO 00000KT 7SM BKN034 BKN041 33/25 A2983 RMK AO2 T03250252

2010/08/09 22:49
KMMH 092249Z AUTO 28012G19KT 10SM CLR 23/M00 A3013 RMK AO1

2010/08/09 22:53
KMSY 092253Z 31006KT 10SM FEW020 BKN180 OVC250 26/24 A2995 RMK AO2 RAB09E53 SLP144 P0000 T02610244

2010/08/09 22:55
KMWC 092255Z 32006KT 10SM SCT033 28/20 A2991

2010/08/09 22:53
KNEW 092253Z 29010KT 10SM CLR 28/25 A2994 RMK AO2 SLP132 T02830250

2010/08/09 22:55
KOAJ 092255Z AUTO 18009KT 10SM SCT033 SCT050 30/24 A3001 RMK AO1

2010/08/09 22:50
KOGA 092250Z AUTO 16009KT 10SM VCTS SCT110 33/14 A2992 RMK AO2 LTG DSNT S T03280143

2010/08/09 22:50
KONL 092250Z AUTO 07005KT 10SM CLR 29/22 A2990 RMK AO2 T02900222

2010/08/09 22:52
KOUN 092252Z AUTO 16009G14KT 10SM CLR 38/19 A2986 RMK AO2

2010/08/09 22:53
KPIL 092253Z AUTO 11013KT 10SM CLR 33/26 A2986 RMK AO2 SLP111 T03330261

2010/08/09 22:50
KPNA 092250Z AUTO 22019G26KT 10SM SCT120 24/M08 A3011 RMK AO2 T02431083

2010/08/09 22:53
KPQL 092253Z 00000KT 10SM CLR 30/26 A2993 RMK AO2 SLP136 T03000256

2010/08/09 22:53
KPSX 092253Z AUTO 19016KT 10SM CLR 34/26 A2988 RMK AO2 SLP118 T03390256

2010/08/09 22:50
KPTT 092250Z AUTO 17012G17KT 10SM CLR 37/15 A2985 RMK AO2

2010/08/09 22:47
KPVJ 092247Z AUTO 22003KT 10SM CLR 32/22 A2987 RMK AO2 LTG DSNT S THRU NW

2010/08/09 22:52
KRAP 092252Z 15015G23KT 10SM CLR 22/14 A2993 RMK AO2 PK WND 23028/2222 LTG DSNT NE-SE TSB09E32RAE39 SLP115 P0000 T02220139

2010/08/09 22:53
KRKP 092253Z AUTO 12014KT 10SM CLR 33/26 A2987 RMK AO2 SLP115 T03280256

2010/08/09 22:49
KSEZ 092249Z AUTO 00000KT 10SM SCT085 SCT120 30/08 A3008 RMK AO2 T02960083

2010/08/09 22:53
KSNL 092253Z AUTO 17008KT 10SM CLR 38/20 A2988 RMK AO2

2010/08/09 22:55
KSOP 092255Z AUTO 20005KT 10SM CLR 33/20 A2998 RMK AO1

2010/08/09 22:50
KSOW 092250Z AUTO 26007KT 10SM SCT080 25/08 A3022 RMK AO2

2010/08/09 22:53
KSSF 092253Z 13008G20KT 10SM FEW065 37/18 A2984 RMK AO2 SLP091 T03670183

2010/08/09 22:45
KSVC 092245Z AUTO 32013G17KT 10SM CLR 30/07 A3010 RMK AO2

2010/08/09 22:50
KSZT 092250Z AUTO 24008KT 10SM SCT070 27/13 A2978 RMK AO2

2010/08/09 22:50
KTEX 092250Z AUTO 25009G20KT 10SM BKN090 21/03 A3036 RMK AO2

2010/08/09 22:50
KTIF 092250Z AUTO 13007KT 10SM CLR 32/13 A2993 RMK AO2 T03180129

2010/08/09 22:52
KTMK 092252Z AUTO 30009KT 10SM OVC029 17/14 A3003 RMK AO2

2010/08/09 22:52
KTOL 092252Z 19003KT 6SM HZ SCT050 BKN075 29/21 A2992 RMK AO2 SLP126 T02890211

2010/08/09 22:53
KTQH 092253Z AUTO 14005KT 10SM CLR 36/22 A2989 RMK AO2

2010/08/09 22:55
KUDG 092255Z 14004KT 10SM CLR 31/22 A3001 RMK AO1

2010/08/09 22:53
KUTS 092253Z AUTO 18007KT 10SM CLR 37/21 A2987 RMK AO2 SLP109 T03670206

2010/08/09 22:53
PAKU 092253Z 07026KT 7SM OVC006 05/04 A2975

2010/08/09 22:54
PALP 092254Z 06018KT 7SM OVC004 04/02 A2976

2010/08/09 22:52
PATA 092252Z 10006KT 10SM SCT015 OVC050 15/12 A2958 RMK AO2 SLP017 T01500122 $

2010/08/09 22:53
PHJR 092253Z 05008G16KT 360V100 10SM BKN050 29/15 A3009 RMK AO2 SLP197 T02940150

2010/08/09 22:53
KBKE 092253Z AUTO 14014G19KT 10SM BKN100 24/09 A2983 RMK AO2 LTG DSNT E AND SE SLP084 T02390089

2010/08/09 22:53
KBKV 092253Z AUTO 03004KT 10SM FEW080 29/25 A2988 RMK AO2 LTG DSNT S SLP115 T02890250

2010/08/09 22:53
KBLI 092253Z 17006KT 10SM FEW006 BKN017 OVC035 16/13 A2997 RMK AO2 RAB04E31 SLP153 P0001 T01560133

2010/08/09 22:53
KBMG 092253Z 25004KT 10SM CLR 32/23 A2994 RMK AO2 SLP128 T03220228

2010/08/09 22:53
KBNA 092253Z 15008KT 10SM TS SCT060CB BKN090 BKN180 OVC250 28/22 A2995 RMK AO2 TSB40RAB05E16 SLP134 OCNL LTGCGCA SE TS SE MOV SE P0000 T02830222

2010/08/09 22:53
KBOI 092253Z 30005KT 10SM CLR 31/06 A2980 RMK AO2 SLP058 T03110061

2010/08/09 22:55
KBOW 092255Z AUTO 13007KT 9SM CLR 30/23 A2988 RMK AO2 LTG DSNT E

2010/08/09 22:53
KBPI 092253Z AUTO 25019G24KT 10SM FEW110 24/M02 A3012 RMK AO2 PK WND 24028/2205 SLP105 T02391017 TSNO

2010/08/09 22:53
KBPK 092253Z AUTO 19004KT 9SM CLR 34/26 A2990 RMK AO2 SLP113 T03390256

2010/08/09 22:53
KBRD 092253Z AUTO 17004KT 10SM CLR 31/18 A2993 RMK AO2 SLP128 T03110183

2010/08/09 22:53
KBRL 092253Z AUTO 12005KT 10SM CLR 32/26 A2989 RMK AO2 SLP115 T03220256

2010/08/09 22:53
KBTL 092253Z 23006KT 9SM SCT022 28/23 A2995 RMK AO2 SLP133 T02780228

2010/08/09 22:53
KBTM 092253Z AUTO 20012KT 10SM SCT100 23/06 A2996 RMK AO2 SLP101 T02280056

2010/08/09 22:53
KBUR 092253Z 17009KT 10SM CLR 26/11 A2987 RMK AO2 SLP102 T02610106

2010/08/09 22:51
KBVE 092251Z AUTO 30006KT CLR 28/25 A2994 RMK AO2 SLP136 T02780250 TSNO $

2010/08/09 22:53
KBVO 092253Z 17006KT 10SM CLR 37/22 A2985 RMK AO2 SLP094 T03670217

2010/08/09 22:53
KBVY 092253Z 26007KT 10SM FEW070 BKN110 31/17 A2986 RMK AO2 SLP104 T03110167

2010/08/09 22:53
KHIO 092253Z 12003KT 10SM BKN042 19/11 A2998 RMK AO2 SLP151 T01940111

2010/08/09 22:53
KHJO 092253Z AUTO 33005KT 10SM CLR 33/13 A2980 RMK AO2 SLP090 T03280128

2010/08/09 22:53
KHKA 092253Z AUTO 21006KT 7SM BKN050 35/24 A2989 RMK AO2 SLP120 T03500244

2010/08/09 22:53
KHKS 092253Z 13011G17KT 10SM TS CLR 29/23 A2993 RMK AO2 LTG DSNT NE-S TSE04B06 SLP127 T02890228

2010/08/09 22:53
KHKY 092253Z VRB03KT 10SM CLR 32/20 A3001 RMK AO2 SLP138 T03170200

2010/08/09 22:53
KHLC 092253Z AUTO 09012G18KT 10SM VCTS CLR 35/18 A2983 RMK AO2 LTG DSNT E TSB2156 SLP071 T03500178

2010/08/09 22:53
KHLG 092253Z 24004KT 10SM CLR 29/17 A3000 RMK AO2 SLP152 T02890172

2010/08/09 22:53
KHLN 092253Z VRB04KT 10SM BKN100 22/09 A2986 RMK AO2 PK WND 31028/2212 WSHFT 2150 TSE08B15E43 SLP102 T02170094

2010/08/09 22:53
KHOT 092253Z AUTO 18005KT 10SM CLR 37/21 A2990 RMK AO2 SLP115 T03670211

2010/08/09 22:53
KHQM 092253Z AUTO 23009KT 10SM OVC011 14/12 A3001 RMK AO2 RAB09E25 SLP165 P0000 T01440117

2010/08/09 22:53
KHRI 092253Z AUTO 26013G22KT 10SM CLR 32/03 A2973 RMK AO2 SLP061 T03170033

2010/08/09 22:53
KHRO 092253Z AUTO 16005KT 10SM CLR 34/22 A2994 RMK AO2 SLP119 T03390217

2010/08/09 22:51
KHSA 092251Z 00000KT 7SM SCT010 BKN022 27/27 A2993

2010/08/09 22:53
KHSI 092253Z AUTO 07008KT 10SM CLR 32/24 A2987 RMK AO2 SLP092 T03220244

2010/08/09 22:53
KHSV 092253Z 32005KT 10SM OVC130 31/23 A2996 RMK AO2 SLP135 T03110233

2010/08/09 22:53
KHUF 092253Z 20004KT 10SM CLR 33/23 A2993 RMK AO2 SLP128 T03280228

2010/08/09 22:53
KHUL 092253Z AUTO 23005KT 10SM CLR 23/17 A2981 RMK AO2 SLP093 T02280172

2010/08/09 22:53
KHVR 092253Z AUTO 08009KT 10SM CLR 32/08 A2977 RMK AO2 SLP063 T03220083

2010/08/09 22:53
KHWO 092253Z 17009KT 10SM BKN065 29/23 A2989 RMK AO2 SLP123 T02890228 $

2010/08/09 22:53
KHYR 092253Z AUTO 00000KT 10SM CLR 31/20 A2994 RMK AO2 SLP132 T03110200

2010/08/09 22:53
KICR 092253Z AUTO 13009KT 10SM CLR 33/19 A2988 RMK AO2 SLP101 T03280194 TSNO

2010/08/09 22:53
KICT 092253Z 16014KT 10SM FEW070 SCT250 37/20 A2984 RMK AO2 SLP084 T03720200

2010/08/09 22:53
KIDA 092253Z 22011G17KT 10SM SCT045 BKN100 23/08 A3002 RMK AO2 PK WND 23026/2204 SLP124 T02330083

2010/08/09 22:53
KILM 092253Z AUTO 19010KT 10SM FEW025 SCT110 28/23 A3001 RMK AO2 SLP162 T02830228 TSNO

2010/08/09 22:53
KCPS 092253Z 00000KT 10SM HZ CLR 33/27 A2989 RMK AO2 SLP115 T03280267

2010/08/09 22:51
KCRP 092251Z 12012G19KT 10SM FEW030 33/24 A2986 RMK AO2 SLP109 CB DSNT SW T03330244

2010/08/09 22:53
KCRQ 092253Z VRB05KT 10SM CLR 22/14 A2989 RMK AO2 SLP118 T02170139

2010/08/09 22:53
KCSV 092253Z AUTO VRB03KT 9SM CLR 28/23 A3005 RMK AO2 SLP151 T02830228

2010/08/09 22:51
KDAG 092251Z AUTO 06010G16KT 10SM CLR 37/M06 A2980 RMK AO2 SLP062 T03721056 TSNO

2010/08/09 22:53
KDAN 092253Z AUTO 20004KT 8SM FEW090 32/21 A2999 RMK AO2 SLP144 T03220206

2010/08/09 22:53
KDBQ 092253Z 16003KT 10SM FEW080 29/23 A2994 RMK AO2 SLP130 T02940233

2010/08/09 22:53
KDCU 092253Z AUTO 30008KT 10SM CLR 31/22 A2996 RMK AO2 SLP137 T03060222

2010/08/09 22:53
KDEW 092253Z AUTO 19007G16KT 10SM FEW080 27/07 A2978 RMK AO2 SLP076 T02670067

2010/08/09 22:53
KDHT 092253Z AUTO 19011KT 10SM FEW080 33/14 A2996 RMK AO2 SLP082 T03330139

2010/08/09 22:53
KDLN 092253Z AUTO 18012G22KT 10SM BKN050 BKN080 14/11 A3000 RMK AO2 WSHFT 2145 RAB36E52 SLP127 P0001 T01440106

2010/08/09 22:53
KDLS 092253Z AUTO 32021G28KT 10SM CLR 26/08 A2982 RMK AO2 PK WND 32028/2251 SLP095 T02560083 $

2010/08/09 22:53
KDMN 092253Z AUTO 24010G16KT 10SM CLR 33/07 A2999 RMK AO2 PK WND 25026/2239 SLP075 T03330072

2010/08/09 22:53
KDMO 092253Z AUTO 22008KT 10SM CLR 35/24 A2989 RMK AO2 SLP112 T03500239

2010/08/09 22:53
KDNL 092253Z AUTO 12005KT 10SM CLR 33/20 A2998 RMK AO2 SLP144 T03280200

2010/08/09 22:53
KDVT 092253Z 00000KT 10SM CLR 36/10 A2981 RMK AO2 SLP066 T03610100

2010/08/09 22:55
KDYB 092255Z AUTO 12003KT 10SM SCT029 SCT033 SCT060 30/24 A2997 RMK AO1

2010/08/09 22:53
KEET 092253Z AUTO 00000KT 10SM CLR 34/21 A2993 RMK AO2 SLP127 T03390211

2010/08/09 22:53
KBIL 092253Z 28013KT 10SM FEW029 BKN100 BKN120 20/14 A2988 RMK AO2 WSHFT 2156 TSE31RAE22 SLP095 OCNL LTG DSNT N-E SHRA DSNT SW-E CB DSNT N-E P0008 T02000139

2010/08/09 22:53
KBIV 092253Z AUTO 25008KT 9SM CLR 28/21 A2993 RMK AO2 SLP129 T02830211

2010/08/09 22:53
KFLD 092253Z AUTO 28003KT 10SM CLR 29/22 A2990 RMK AO2 SLP121 T02940222

2010/08/09 22:53
KFLL 092253Z 15009KT 10SM SCT027 BKN060 29/23 A2988 RMK AO2 SLP117 T02890233

2010/08/09 22:53
KFMN 092253Z 27008G14KT 240V300 10SM CLR 30/05 A3010 RMK AO2 SLP124 T03000050

2010/08/09 22:53
KFMY 092253Z 00000KT 10SM FEW090 26/24 A2986 RMK AO2 LTG DSNT W AND NW SLP114 T02610244

2010/08/09 22:53
KFNB 092253Z AUTO 18006KT 10SM CLR 37/24 A2980 RMK AO2 SLP078 T03720244

2010/08/09 22:53
KFOE 092253Z 20012KT 10SM CLR 37/20 A2985 RMK AO2 SLP091 T03720200

2010/08/09 22:53
KFPR 092253Z 13014KT 10SM FEW090 29/23 A2990 RMK AO2 SLP125 T02890228

2010/08/09 22:53
KFSM 092253Z 00000KT 10SM CLR 37/21 A2985 RMK AO2 SLP101 T03720206

2010/08/09 22:53
KFST 092253Z AUTO 18009KT 10SM -RA FEW110 22/19 A2999 RMK AO2 LTG DSNT SW TSE12B16E53 SLP112 P0004 T02220194

2010/08/09 22:53
KFTY 092253Z 12004KT 7SM CLR 34/19 A2997 RMK AO2 SLP136 T03440189

2010/08/09 22:53
KFUL 092253Z 21008KT 190V250 10SM CLR 24/13 A2987 RMK AO2 SLP113 T02390128

2010/08/09 22:53
KFVE 092253Z AUTO 29007KT 5SM -RA BKN039 BKN060 OVC100 19/17 A2982 RMK AO2 TSB01E19RAB2155 SLP094 P0016 T01940167

2010/08/09 22:53
KFYV 092253Z 21006KT 10SM CLR 35/19 A2992 RMK AO2 SLP114 T03500189

2010/08/09 22:53
KGAG 092253Z AUTO 18011KT 10SM FEW090 37/17 A2985 RMK AO2 SLP073 T03670172

2010/08/09 22:53
KGEG 092253Z 24013G17KT 10SM FEW075 SCT140 BKN200 27/06 A2979 RMK AO2 WSHFT 2157 SLP074 T02720056

2010/08/09 22:53
KGEY 092253Z AUTO 17008KT 10SM VCTS CLR 33/04 A2978 RMK AO2 TSB43 SLP038 T03280044

2010/08/09 22:53
KGEZ 092253Z AUTO 24005KT 10SM CLR 33/21 A2992 RMK AO2 SLP123 T03280206

2010/08/09 22:53
KGFK 092253Z 20009KT 10SM FEW250 34/20 A2983 RMK AO2 SLP096 T03390200

2010/08/09 22:53
KGFL 092253Z AUTO 24005KT 10SM CLR 29/18 A2987 RMK AO2 LTG DSNT NE SLP111 T02890183

2010/08/09 22:53
KGGW 092253Z AUTO 13005KT 10SM CLR 32/09 A2978 RMK AO2 SLP073 T03170089 TSNO

2010/08/09 22:53
KGLD 092253Z AUTO 18009KT 10SM CLR 34/16 A2992 RMK AO2 LTG DSNT NE AND E SLP078 T03390161

2010/08/09 22:53
KGLH 092253Z 09003KT 10SM CLR 36/24 A2988 RMK AO2 LTG DSNT S RAE13 SLP123 P0001 T03610244

2010/08/09 22:53
KGMU 092253Z 14006KT 10SM CLR 32/18 A3001 RMK AO2 SLP149 T03220183

2010/08/09 22:53
KGRB 092253Z 17005KT 10SM CLR 31/24 A2988 RMK AO2 SLP114 T03060239

2010/08/09 22:53
KGRI 092253Z 13008KT 10SM CLR 33/22 A2988 RMK AO2 SLP097 T03280217

2010/08/09 22:53
KGRR 092253Z 22005KT 10SM BKN032 28/23 A2992 RMK AO2 SLP125 T02830228

2010/08/09 22:53
KGSH 092253Z AUTO 27006KT 8SM CLR 29/23 A2994 RMK AO2 SLP133 T02940233

2010/08/09 22:53
KGSP 092253Z 16008KT 10SM CLR 31/22 A2999 RMK AO2 SLP142 T03060222

2010/08/09 22:53
KGTF 092253Z 25018G27KT 10SM FEW100 27/05 A2981 RMK AO2 PK WND 26027/2251 LTG DSNT NW SLP065 T02670050

2010/08/09 22:53
KGUP 092253Z AUTO 30007KT 10SM CLR 26/06 A3019 RMK AO2 SLP063 T02610061

2010/08/09 22:53
KGUY 092253Z AUTO 18015G21KT 10SM CLR 38/13 A2986 RMK AO2 SLP055 T03780128

2010/08/09 22:53
KGVL 092253Z AUTO 14004KT 10SM CLR 32/21 A3003 RMK AO2 SLP150 T03170211

2010/08/09 22:53
KGWO 092253Z AUTO 14004KT 10SM CLR 29/24 A2992 RMK AO2 SLP130 T02940244

2010/08/09 22:53
KHAO 092253Z AUTO 25004KT 9SM CLR 33/19 A2995 RMK AO2 SLP135 T03330194

2010/08/09 22:53
KHEI 092253Z AUTO 14013G22KT 10SM CLR 33/15 A2983 RMK AO2 PK WND 14026/2159 SLP079 T03280150

2010/08/09 22:53
KHFD 092253Z 20010G15KT 7SM CLR 31/20 A2989 RMK AO2 SLP123 T03060200

2010/08/09 22:53
KHGR 092253Z AUTO 17010KT 9SM FEW080 33/17 A2994 RMK AO2 SLP139 T03330172 TSNO

2010/08/09 22:53
KHHR 092253Z 24009KT 10SM CLR 22/13 A2989 RMK AO2 SLP122 T02170128

2010/08/09 22:53
KHIB 092253Z AUTO 24003KT 10SM CLR 31/19 A2993 RMK AO2 SLP132 T03110194

2010/08/09 22:53
KELN 092253Z AUTO 31022G33KT 10SM CLR 23/10 A2981 RMK AO2 PK WND 31036/2213 SLP084 T02330100

2010/08/09 22:53
KEMP 092253Z AUTO 15010KT 10SM CLR 36/20 A2986 RMK AO2 SLP096 T03610200

2010/08/09 22:53
KENW 092253Z 32005KT 10SM CLR 30/23 A2991 RMK AO2 SLP123 T03000228

2010/08/09 22:53
KEPH 092253Z AUTO 24007G16KT 10SM CLR 29/07 A2973 RMK AO2 SLP056 T02940072

2010/08/09 22:53
KEQY 092253Z AUTO 18003KT 10SM FEW100 31/22 A2999 RMK AO2 SLP152 T03110222

2010/08/09 22:53
KEWB 092253Z 22012KT 10SM CLR 27/20 A2992 RMK AO2 SLP129 T02670200

2010/08/09 22:53
KEYE 092253Z AUTO VRB03KT 10SM CLR 33/20 A2993 RMK AO2 SLP128 T03280200

2010/08/09 22:53
KEYW 092253Z 27006KT 10SM FEW070 27/24 A2988 RMK AO2 SLP119 T02670239

2010/08/09 22:53
KFAT 092253Z VRB04KT 10SM FEW080 34/10 A2980 RMK AO2 SLP088 FEW CU DSNT N NE E-SE T03390100

2010/08/09 22:53
KFAY 092253Z AUTO 11007KT 10SM CLR 33/18 A2997 RMK AO2 SLP143 T03280183

2010/08/09 22:53
KFCM 092253Z 12008KT 10SM CLR 33/19 A2990 RMK AO2 SLP119 T03280194

2010/08/09 22:53
KFFC 092253Z AUTO 13005KT 8SM CLR 32/22 A2997 RMK AO2 SLP142 T03220222

2010/08/09 22:53
KFFT 092253Z AUTO 30003KT 10SM CLR 33/20 A2995 RMK AO2 SLP132 T03330200

2010/08/09 22:53
KFHR 092253Z AUTO 00000KT 10SM SCT042 BKN065 OVC090 15/13 A2998 RMK AO2 SLP153 T01500128

2010/08/09 22:53
KBWG 092253Z AUTO 11005KT 10SM CLR 34/23 A2992 RMK AO2 SLP125 T03440228

2010/08/09 22:53
KBYI 092253Z AUTO 06004KT 10SM SCT110 26/10 A2994 RMK AO2 SLP092 T02560100

2010/08/09 22:51
KCAK 092251Z 24005KT 7SM SCT065 BKN130 BKN180 28/19 A2998 RMK AO2 SLP144 T02830189

2010/08/09 22:53
KCCR 092253Z 28012KT 10SM CLR 27/12 A2984 RMK AO2 SLP092 T02670117

2010/08/09 22:53
KCDC 092253Z AUTO 24014G20KT 10SM CLR 27/M01 A3011 RMK AO2 SLP128 T02671006

2010/08/09 22:55
KCDN 092255Z AUTO 12005KT 10SM CLR 33/24 A2999 RMK A02 P000

2010/08/09 22:53
KCGI 092253Z AUTO 19004KT 10SM CLR 33/26 A2989 RMK AO2 SLP117 T03330256 TSNO

2010/08/09 22:53
KCHO 092253Z 22010G16KT 180V270 9SM CLR 32/20 A2997 RMK AO2 SLP141 T03220200

2010/08/09 22:55
KCKI 092255Z AUTO 00000KT 10SM CLR 28/25 A2998 RMK AO2

2010/08/09 22:53
KCLM 092253Z AUTO 00000KT 10SM SCT011 OVC026 16/13 A2998 RMK AO2 SLP151 T01560128

2010/08/09 22:53
KCMI 092253Z 00000KT 10SM CLR 33/26 A2992 RMK AO2 SLP125 T03280256

2010/08/09 22:53
KCMX 092253Z AUTO 29010KT 10SM CLR 27/17 A2991 RMK AO2 SLP123 T02720167

2010/08/09 22:53
KCNM 092253Z AUTO 11008KT 10SM SCT090 33/16 A2993 RMK AO2 SLP074 T03280161

2010/08/09 22:53
KCNO 092253Z 26011KT 10SM CLR 29/11 A2987 RMK AO2 SLP109 T02940106

2010/08/09 22:53
KCNY 092253Z AUTO 25010G17KT 10SM FEW120 30/01 A3000 RMK AO2 SLP101 T03000011 $

2010/08/09 22:52
KABI 092252Z 18011KT 10SM CLR 37/17 A2989 RMK AO2 SLP088 T03670167

2010/08/09 22:53
KABR 092253Z AUTO 14008KT 10SM CLR 33/18 A2987 RMK AO2 SLP106 T03330178

2010/08/09 22:53
KACK 092253Z 21010KT 6SM BR SCT004 23/22 A2995 RMK AO2 SLP141 T02280217

2010/08/09 22:53
KACV 092253Z AUTO 31007KT 10SM OVC005 13/11 A2994 RMK AO2 SLP145 T01330106

2010/08/09 22:53
KAGS 092253Z 11005KT 10SM CLR 32/22 A2995 RMK AO2 SLP140 T03220222

2010/08/09 22:50
KALN 092250Z 14005KT 10SM BKN200 34/27 A2990

2010/08/09 22:53
KALW 092253Z 24010G15KT 200V270 10SM CLR 30/06 A2977 RMK AO2 SLP073 T03000056

2010/08/09 22:53
KAMA 092253Z 19016KT 10SM SCT070 33/15 A2996 RMK AO2 SLP086 CB DSNT SE AND S MOV N TCU DSNT W T03280150

2010/08/09 22:53
KAMW 092253Z AUTO 00000KT 10SM SCT041 OVC049 29/24 A2991 RMK AO2 SLP116 T02890244

2010/08/09 22:53
KANB 092253Z AUTO 10005KT 10SM CLR 34/21 A2995 RMK AO2 SLP129 T03440206

2010/08/09 22:53
KAOH 092253Z AUTO 21005KT 9SM FEW120 29/22 A2995 RMK AO2 SLP135 T02940217

2010/08/09 22:53
KAOO 092253Z AUTO 27004KT 10SM CLR 29/18 A3000 RMK AO2 SLP148 T02890183

2010/08/09 22:53
KAPF 092253Z 08004KT 10SM CLR 27/24 A2987 RMK AO2 SLP112 T02720244

2010/08/09 22:53
KASX 092253Z AUTO 29004KT 10SM CLR 30/21 A2992 RMK AO2 SLP128 T03000211

2010/08/09 22:53
KATY 092253Z AUTO 10009KT 10SM CLR 31/17 A2992 RMK AO2 SLP120 T03060167

2010/08/09 22:53
KAUG 092253Z AUTO 18003KT 10SM BKN090 26/19 A2987 RMK AO2 SLP112 T02610194

2010/08/09 22:53
KAWM 092253Z AUTO 19006KT 10SM CLR 29/26 A2991 RMK AO2 SLP122 T02890256

2010/08/09 22:53
KAXN 092253Z AUTO 09004KT 10SM CLR 31/17 A2994 RMK AO2 SLP134 T03060172

2010/08/09 22:53
KAZO 092253Z 24003KT 8SM FEW026 SCT034 28/22 A2993 RMK AO2 SLP130 T02780222

2010/08/09 22:53
KBAF 092253Z 21006KT 10SM CLR 32/16 A2989 RMK AO2 SLP118 T03170156

2010/08/09 22:53
KBCE 092253Z AUTO VRB05G14KT 10SM CLR 22/M05 A3026 RMK AO2 WSHFT 2154 SLP137 T02171050

2010/08/09 22:53
KBDE 092253Z AUTO 00000KT 10SM CLR 32/21 A2987 RMK AO2 SLP112 T03170206

2010/08/09 22:53
KBEH 092253Z AUTO 00000KT 10SM CLR 28/21 A2992 RMK AO2 SLP127 T02830211

2010/08/09 22:53
KBFD 092253Z AUTO 00000KT 10SM FEW110 26/17 A3004 RMK AO2 SLP158 T02560167

2010/08/09 22:53
KBFF 092253Z AUTO 29005KT 10SM CLR 31/13 A2995 RMK AO2 SLP090 T03060133

2010/08/09 22:53
KBFI 092253Z VRB05KT 10SM -RA BKN020 OVC033 19/13 A2996 RMK AO2 RAB37 SLP146 P0000 T01890128

2010/08/09 22:53
KBGR 092253Z 19008KT 10SM FEW065 BKN080 BKN200 26/19 A2985 RMK AO2 SLP104 T02560194

2010/08/09 22:53
KBHK 092253Z AUTO 17009KT 10SM FEW090 35/11 A2980 RMK AO2 SLP062 T03500111

2010/08/09 22:53
KBHM 092253Z 15003KT 10SM SCT070 35/19 A2995 RMK AO2 SLP132 T03500189

2010/08/09 22:53
KMSN 092253Z 04004KT 10SM FEW036 31/23 A2991 RMK AO2 SLP120 T03060228 

2010/08/09 22:53
KTLH 092253Z 05007KT 10SM FEW060 34/20 A2990 RMK AO2 SLP125 CB DSNT E AND SE T03440200 

2010/08/09 22:53
KNUI 092253Z AUTO 14006KT 10SM CLR 29/22 A2997 RMK AO2 SLP148 T02890217 

2010/08/09 22:53
KHTL 092253Z AUTO 27006KT 10SM CLR 28/22 A2991 RMK AO2 SLP122 T02780222 

2010/08/09 22:53
KTCS 092253Z AUTO 00000KT 10SM BKN090 31/09 A3002 RMK AO2 SLP078 T03060089 TSNO 

2010/08/09 23:00
SBMO 092300Z 25002KT 9999 FEW006 SCT090 21/20 Q1018

2010/08/09 22:50
EFHK 092250Z 19011KT 9999 FEW013 SCT015 BKN019 20/16 Q1011 NOSIG

2010/08/09 22:50
EFJY 092250Z AUTO 17007KT 9999 FEW023 BKN060 18/16 Q1010

2010/08/09 22:50
EFKU 092250Z AUTO 20007KT 9999NDV FEW034 BKN231 19/15 Q1011

2010/08/09 22:50
EFOU 092250Z 30003KT 9999 BKN016 17/17 Q1007

2010/08/09 22:50
EFRO 092250Z AUTO 36012KT 9999NDV SCT007 BKN009 OVC125 11/11 Q1009

2010/08/09 22:50
EFTP 092250Z AUTO 16006KT 130V200 9999 -SHRA FEW008 SCT013 BKN020 BKN031 18/17 Q1009

2010/08/09 22:50
EFTU 092250Z AUTO 20003KT 150V250 9999 FEW009 SCT011 BKN025 18/17 Q1009

2010/08/09 22:50
EFVA 092250Z AUTO 00000KT 5000 SCT036 BKN055 17/17 Q1007

2010/08/09 23:00
SBSJ 092300Z 26006KT 7000 BKN00815/13 Q1025

2010/08/09 22:50
EGTE 092250Z 21005KT 5000 -DZRA BR FEW005 BKN010 18/17 Q1012

2010/08/09 22:50
BGSF 092250Z 04008KT 9999 SCT042 BKN050 11/04 Q1008

2010/08/09 22:45
MMCM 092245Z 00000KT 7SM SCT015 BKN100 31/26 A2985 RMK 8/530

2010/08/09 22:50
MMMD 092250Z 09012G22KT 7SM BKN010TCU OVC300 30/26 A2988 RMK 8/207 AC

2010/08/09 22:49
MMTG 092249Z 02005KT 10SM FEW020 SCT080 BKN300 30/24 A2986 RMK 8/463 CB NE AND SE

2010/08/09 22:47
MMUN 092247Z 29006KT 7SM SCT020TCU BKN300 25/22 A2992 RMK 8/208 CBS 3 QUAD

2010/08/09 22:46
MMVA 092246Z 06008KT 7SM SCT018TCU SCT100 34/25 A2977 RMK 8/220

2010/08/09 22:50
LXGB 092250Z 08004KT CAVOK 26/17 Q1016

2010/08/09 22:50
BGSF 092250Z 04008KT 9999 SCT042 BKN050 11/04 Q1008

2010/08/09 22:50
EGMC 092250Z 22008KT 9999 SCT016 18/15 Q1013

2010/08/09 22:50
EGBB 092250Z 27007KT 240V310 9999 FEW008 BKN011 17/15 Q1010

2010/08/09 22:50
EGCC 092250Z 20003KT 9999 SCT035 13/11 Q1010

2010/08/09 22:50
EGKK 092250Z 22008KT 9999 BKN011 17/15 Q1014

2010/08/09 22:50
EGLL 092250Z 20009KT 9999 BKN014 18/15 Q1013

2010/08/09 22:50
EGPF 092250Z 23004KT 9999 FEW020 11/10 Q1007

2010/08/09 22:50
EGPH 092250Z 21007KT CAVOK 12/10 Q1007

2010/08/09 22:50
EGPK 092250Z 16003KT 9999 FEW015 SCT023 BKN035 12/11 Q1007

2010/08/09 22:50
EGSS 092250Z 21010KT 9999 BKN014 17/14 Q1012

2010/08/09 22:50
EGYP 092250Z 28014KT 9999 FEW018 01/M02 Q0997 BLU

2010/08/09 22:53
PWAK 092253Z 07017KT 10SM FEW026 31/24 A3007 RMK AO2A 

2010/08/09 22:51
KART 092251Z AUTO 24010KT 2 1/2SM -RA BR FEW014 BKN024 BKN055 23/22 A2992

2010/08/09 22:51
PTTP 092251Z 08006KT 15SM FEW018 BKN130 OVC300 29/24 A2992 RMK SLP132 T02940243

2010/08/09 22:50
EGCN 092250Z 26003KT 9999 FEW038 16/12 Q1010

2010/08/09 22:53
KLXV 092253Z AUTO 19007KT 4SM -RA BR BKN036 BKN047 OVC055 13/12 A3038 RMK AO2 RAB34 SLP134 P0001 T01330117 TSNO 

2010/08/09 22:50
EFHA 092250Z AUTO 16005KT 110V210 9999 FEW010 SCT015 BKN018 BKN065 18/17 Q1010

2010/08/09 22:50
EFHF 092250Z AUTO 19010KT 160V220 9999 BKN017 BKN060 20/17 Q1011

2010/08/09 22:50
EFKA 092250Z AUTO 06001KT 2300 BR SCT029 BKN050 OVC080 17/17 Q1008

2010/08/09 22:50
EFKK 092250Z AUTO 02001KT 7000 -SHRA ////// 17/17 Q1008

2010/08/09 22:50
EFMA 092250Z AUTO 20008KT 9999 FEW005 SCT007 17/17 Q1008

2010/08/09 22:50
EFPO 092250Z AUTO 17003KT CAVOK 17/17 Q1008

2010/08/09 22:50
EFSI 092250Z AUTO 12003KT 5000 FEW028 SCT034 BKN105 16/16 Q1008

2010/08/09 22:53
KFAR 092253Z 21008KT 10SM CLR 33/18 A2987 RMK AO2 SLP110 T03280183 

2010/08/09 22:53
KGNT 092253Z AUTO 00000KT 27/07 A3019 RMK AO2 SLP135 T02670067 PWINO TSNO 

2010/08/09 22:53
KMSY 092253Z 31006KT 10SM FEW020 BKN180 OVC250 26/24 A2995 RMK AO2 RAB09E53 SLP144 P0000 T02610244 

2010/08/09 22:53
KOQT 092253Z AUTO 00000KT 9SM CLR 33/23 A2999 RMK AO2 SLP136 T03330228 TSNO 

2010/08/09 22:54
PGUM 092254Z 00000KT 10SM SCT060 28/24 A2993 RMK AO2 SLP126 T02780239 

2010/08/09 22:53
KP68 092253Z AUTO 18005G15KT 27/M04 A3002 RMK AO2 SLP081 T02721044 PWINO TSNO 

2010/08/09 22:54
KJAN 092254Z 17006KT 8SM -TSRA BKN025 BKN060CB OVC095 26/24 A2993 RMK AO2 TSB01RAB22 SLP131 OCNL LTGICCG SW-W TS SW-W MOV W P0010 T02560239 

2010/08/09 22:51
KIML 092251Z AUTO 11010KT 10SM CLR 33/19 A2991

2010/08/09 22:53
KSAV 092253Z 09010KT 10SM FEW035TCU SCT110 BKN250 31/24 A2995 RMK AO2 SLP140 TCU N-E T03110239 

2010/08/09 22:53
KCUT 092253Z AUTO 09006KT 10SM CLR 21/11 A3009 RMK AO2 SLP131 T02110111 TSNO 

2010/08/09 22:53
K40J 092253Z AUTO 07003KT 33/23 A2989 RMK AO2 SLP119 T03280228 PWINO TSNO 

2010/08/09 22:53
KSDM 092253Z VRB05KT 10SM CLR 22/13 A2989 RMK AO2 SLP119 T02170133 

2010/08/09 22:53
KDNK 092253Z AUTO 17006KT 10SM FEW090 35/22 A2990 RMK AO2 SLP121 T03500217 

2010/08/09 22:51
KART 092251Z AUTO 24010KT 2 1/2SM -RA BR FEW014 BKN024 BKN055 23/22 A2992

2010/08/09 22:54
KBTV 092254Z 00000KT 10SM -RA FEW023 SCT047 BKN060 23/21 A2987 RMK AO2 RAB2157E10B49 SLP114 P0000 T02280206 

2010/08/09 22:50
EDFH 092250Z 19005KT CAVOK 16/10 Q1017

2010/08/09 22:50
EDVK 092250Z VRB01KT CAVOK 13/10 Q1017

2010/08/09 22:50
EDQM 092250Z AUTO 00000KT 5000NDV NCD 12/10 Q1019

2010/08/09 22:50
EDXW 092250Z AUTO 16007KT 9999NDV NCD 14/12 Q1015

2010/08/09 22:50
BGSF 092250Z 04008KT 9999 SCT042 BKN050 11/04 Q1008

2010/08/09 22:50
EGAA 092250Z 20005KT 140V230 CAVOK 12/10 Q1008

2010/08/09 22:50
EGFF 092250Z 27009KT 5000 DZ BR SCT003 BKN004 16/16 Q1011

2010/08/09 22:50
EGGW 092250Z 21009KT 180V250 9999 SCT011 17/15 Q1012

2010/08/09 22:50
EGLC 092250Z AUTO 22011KT 9999 BKN012/// 18/14 Q1013

2010/08/09 22:50
EGNM 092250Z 24001KT 9999 FEW015 SCT026 13/11 Q1009

2010/08/09 22:50
EGNX 092250Z 25005KT 6000 RADZ FEW009 BKN027 16/14 Q1010

2010/08/09 22:50
EGPD 092250Z AUTO 35003KT 5000NDV SCT004/// BKN020/// 14/12 Q1005

2010/08/09 22:50
HLLT 092250Z 09002KT CAVOK 23/18 Q1016

2010/08/09 22:50
EFHK 092250Z 19011KT 9999 FEW013 SCT015 BKN019 20/16 Q1011 NOSIG

2010/08/09 22:50
EFJY 092250Z AUTO 17007KT 9999 FEW023 BKN060 18/16 Q1010

2010/08/09 22:50
EFKU 092250Z AUTO 20007KT 9999NDV FEW034 BKN231 19/15 Q1011

2010/08/09 22:50
EFOU 092250Z 30003KT 9999 BKN016 17/17 Q1007

2010/08/09 22:50
EFRO 092250Z AUTO 36012KT 9999NDV SCT007 BKN009 OVC125 11/11 Q1009

2010/08/09 22:50
EFTP 092250Z AUTO 16006KT 130V200 9999 -SHRA FEW008 SCT013 BKN020 BKN031 18/17 Q1009

2010/08/09 22:50
EFTU 092250Z AUTO 20003KT 150V250 9999 FEW009 SCT011 BKN025 18/17 Q1009

2010/08/09 22:50
EFVA 092250Z AUTO 00000KT 5000 SCT036 BKN055 17/17 Q1007

2010/08/09 22:50
EGMC 092250Z 22008KT 9999 SCT016 18/15 Q1013

2010/08/09 22:50
EGBB 092250Z 27007KT 240V310 9999 FEW008 BKN011 17/15 Q1010

2010/08/09 22:50
EGCC 092250Z 20003KT 9999 SCT035 13/11 Q1010

2010/08/09 22:50
EGKK 092250Z 22008KT 9999 BKN011 17/15 Q1014

2010/08/09 22:50
EGLL 092250Z 20009KT 9999 BKN014 18/15 Q1013

2010/08/09 22:50
EGPF 092250Z 23004KT 9999 FEW020 11/10 Q1007

2010/08/09 22:50
EGPH 092250Z 21007KT CAVOK 12/10 Q1007

2010/08/09 22:50
EGPK 092250Z 16003KT 9999 FEW015 SCT023 BKN035 12/11 Q1007

2010/08/09 22:50
EGSS 092250Z 21010KT 9999 BKN014 17/14 Q1012

2010/08/09 22:50
EGTE 092250Z 21005KT 5000 -DZRA BR FEW005 BKN010 18/17 Q1012

2010/08/09 22:50
EGGD 092250Z 19009KT 170V230 9999 SCT005 BKN008 16/16 Q1012

2010/08/09 22:50
EGGP 092250Z 22003KT 9999 FEW046 15/12 Q1009

2010/08/09 22:50
EGPB 092250Z 11005KT 9999 FEW009 14/13 Q1006

2010/08/09 22:50
EKHN 092250Z AUTO 19018KT 9999NDV NCD 18/14 Q1015

2010/08/09 22:50
EKHR 092250Z AUTO 18013KT 9999NDV BKN060/// 18/13 Q1014

2010/08/09 22:50
ENSG 092250Z VRB01KT 9999 VCSH FEW/// SCT005 BKN040 13/11 Q1010

2010/08/09 22:50
ENHF 092250Z VRB02KT CAVOK 08/06 Q1013 

2010/08/09 22:50
ENAL 092250Z AUTO 05005KT 9999NDV BKN026/// OVC032/// 14/13 Q1010

2010/08/09 22:50
ENCN 092250Z AUTO 22006KT 9999NDV ////// 14/09 Q1012

2010/08/09 22:50
ENHD 092250Z AUTO 13007KT 9999NDV FEW041/// 11/09 Q1011

2010/08/09 22:50
ENRO 092250Z AUTO 00000KT 6000NDV -RA BKN059/// BKN074/// OVC090/// 12/11 Q1010

2010/08/09 22:50
ENRY 092250Z AUTO 16007KT 9000NDV BKN200/// 17/15 Q1009

2010/08/09 22:50
ENSB 092250Z 26020KT 9999 FEW007 SCT010 BKN018 04/02 Q1003 

2010/08/09 22:50
ENTC 092250Z 02010KT 9999 FEW012 SCT020 09/07 Q1012

2010/08/09 22:50
EETN 092250Z 19006KT 9999 FEW016 BKN045 18/16 Q1012

2010/08/09 22:50
EETU 092250Z AUTO 15005KT 9999NDV OVC150/// 17/16 Q1014

2010/08/09 22:50
EFHK 092250Z 19011KT 9999 FEW013 SCT015 BKN019 20/16 Q1011 NOSIG

2010/08/09 22:50
EVLA 092250Z AUTO 23009KT 9999 FEW017 SCT021 18/16 Q1015

2010/08/09 22:50
EVRA 092250Z 19002KT CAVOK 15/14 Q1015 NOSIG

2010/08/09 22:50
EYKA 092250Z AUTO 00000KT 9999NDV NCD 16/16 Q1016

2010/08/09 22:50
EYVI 092250Z 16002KT 0150 R20/0325N FG NSC 15/15 Q1016 NOSIG

2010/08/09 22:52
KNHK 092252Z 14005KT 10SM SCT250 30/22 A2997 RMK AO2 SLP150 T03000222 $

2010/08/09 22:56
KNSI 092256Z 04004KT 7SM FEW011 18/12 A2991 RMK AO2 SLP124 T01790122 TSNO

2010/08/09 22:55
KRDR 092255Z AUTO 19010KT 10SM CLR 35/18 A2983 RMK AO2 SLP113 T03500181 $

2010/08/09 22:55
KSZL 092255Z AUTO 20011KT 10SM CLR 35/25 A2987 RMK AO2 SLP107 T03540247 PNO $

2010/08/09 22:50
MSLP 092250Z 00000KT 9999 FEW023 FEW040CB BKN170 29/25 Q1009 A2980 CB W TIL E

2010/08/09 23:00
SPIM 092300Z 18009KT 8000 SCT014 15/12 Q1016 NOSIG RMK PP000

2010/08/09 23:00
OYRN 092300Z 09006KT CAVOK 28/22 Q1002

2010/08/09 23:00
LWOH 092300Z 34007KT CAVOK 19/14 Q1017

2010/08/09 22:50
HLLM 092250Z 06004KT 7000 SKC 25/18 Q1016

2010/08/09 22:50
EDXW 092250Z AUTO 16007KT 9999NDV NCD 14/12 Q1015

2010/08/09 22:50
EGAA 092250Z 20005KT 140V230 CAVOK 12/10 Q1008

2010/08/09 22:50
EGBB 092250Z 27007KT 240V310 9999 FEW008 BKN011 17/15 Q1010

2010/08/09 22:50
EGCC 092250Z 20003KT 9999 SCT035 13/11 Q1010

2010/08/09 22:50
EGFF 092250Z 27009KT 5000 DZ BR SCT003 BKN004 16/16 Q1011

2010/08/09 22:50
EGGD 092250Z 19009KT 170V230 9999 SCT005 BKN008 16/16 Q1012

2010/08/09 22:50
EGGP 092250Z 22003KT 9999 FEW046 15/12 Q1009

2010/08/09 22:50
EGGW 092250Z 21009KT 180V250 9999 SCT011 17/15 Q1012

2010/08/09 22:50
EGKK 092250Z 22008KT 9999 BKN011 17/15 Q1014

2010/08/09 22:50
EGLC 092250Z AUTO 22011KT 9999 BKN012/// 18/14 Q1013

2010/08/09 22:50
EGLL 092250Z 20009KT 9999 BKN014 18/15 Q1013

2010/08/09 22:50
EGMC 092250Z 22008KT 9999 SCT016 18/15 Q1013

2010/08/09 22:50
EGNM 092250Z 24001KT 9999 FEW015 SCT026 13/11 Q1009

2010/08/09 22:50
EGNX 092250Z 25005KT 6000 RADZ FEW009 BKN027 16/14 Q1010

2010/08/09 22:50
EGPB 092250Z 11005KT 9999 FEW009 14/13 Q1006

2010/08/09 22:50
EGPD 092250Z AUTO 35003KT 5000NDV SCT004/// BKN020/// 14/12 Q1005

2010/08/09 22:50
EGPF 092250Z 23004KT 9999 FEW020 11/10 Q1007

2010/08/09 22:50
EGPH 092250Z 21007KT CAVOK 12/10 Q1007

2010/08/09 22:50
EGPK 092250Z 16003KT 9999 FEW015 SCT023 BKN035 12/11 Q1007

2010/08/09 22:50
EGSS 092250Z 21010KT 9999 BKN014 17/14 Q1012

2010/08/09 22:50
EGTE 092250Z 21005KT 5000 -DZRA BR FEW005 BKN010 18/17 Q1012

2010/08/09 22:50
EKAH 092250Z AUTO 23003KT 9999NDV BKN043/// 14/11 Q1015

2010/08/09 22:50
EKBI 092250Z 14002KT CAVOK 11/11 Q1015

2010/08/09 22:50
EKKA 092250Z 19006KT 160V220 9999 FEW030 SCT060 12/11 Q1014

2010/08/09 22:50
EKRK 092250Z AUTO 22002KT 9999NDV SCT043/// 12/10 Q1015

2010/08/09 22:50
EKRN 092250Z AUTO 34001KT 9999NDV SCT200/// 14/14 Q1016

2010/08/09 23:00
LWOH 092300Z 34007KT CAVOK 19/14 Q1017

2010/08/09 22:50
LXGB 092250Z 08004KT CAVOK 26/17 Q1016

2010/08/09 22:50
EDDB 092250Z 26004KT CAVOK 17/15 Q1016 NOSIG

2010/08/09 22:50
EDDC 092250Z 25003KT CAVOK 17/13 Q1017

2010/08/09 22:50
EDDE 092250Z 18002KT CAVOK 15/13 Q1018

2010/08/09 22:50
EDDF 092250Z 05003KT CAVOK 15/13 Q1017 NOSIG

2010/08/09 22:50
EDDG 092250Z 11002KT 9999 MIFG NSC 14/13 Q1016 NOSIG

2010/08/09 22:50
EDDH 092250Z 07002KT CAVOK 16/14 Q1016 NOSIG

2010/08/09 22:50
EDDK 092250Z 10005KT CAVOK 14/12 Q1016 NOSIG

2010/08/09 22:50
EDDL 092250Z 12003KT CAVOK 15/13 Q1016 NOSIG

2010/08/09 22:50
EDDM 092250Z 08003KT 9999 MIFG NSC 14/13 Q1018 NOSIG

2010/08/09 22:50
EDDN 092250Z 15001KT CAVOK 14/14 Q1018

2010/08/09 22:50
EDDP 092250Z VRB02KT CAVOK 17/15 Q1017 NOSIG

2010/08/09 22:50
EDDR 092250Z 10003KT CAVOK 16/11 Q1017

2010/08/09 22:50
EDDS 092250Z VRB01KT CAVOK 16/12 Q1018

2010/08/09 22:50
EDDT 092250Z 29002KT CAVOK 18/15 Q1016

2010/08/09 22:50
EDDV 092250Z 16004KT CAVOK 17/13 Q1016

2010/08/09 22:50
EDDW 092250Z 16004KT CAVOK 16/13 Q1016

2010/08/09 22:50
EDXW 092250Z AUTO 16007KT 9999NDV NCD 14/12 Q1015

2010/08/09 22:50
EKAH 092250Z AUTO 23003KT 9999NDV BKN043/// 14/11 Q1015

2010/08/09 22:50
EKBI 092250Z 14002KT CAVOK 11/11 Q1015

2010/08/09 22:50
EKCH 092250Z 22004KT CAVOK 13/11 Q1015 NOSIG

2010/08/09 22:50
EKEB 092250Z AUTO 17006KT 9999NDV BKN069/// 13/11 Q1014

2010/08/09 22:50
EKKA 092250Z 19006KT 160V220 9999 FEW030 SCT060 12/11 Q1014

2010/08/09 22:50
EKRK 092250Z AUTO 22002KT 9999NDV SCT043/// 12/10 Q1015

2010/08/09 22:50
EKRN 092250Z AUTO 34001KT 9999NDV SCT200/// 14/14 Q1016

2010/08/09 22:50
EKSP 092250Z 17003KT CAVOK 10/09 Q1015 RMK FEW055 SCT250

2010/08/09 22:50
EKVD 092250Z AUTO 17003KT //// ///////// 12/10 Q1015

2010/08/09 22:50
EKYT 092250Z 22011KT 9999 FEW035 15/13 Q1013

2010/08/09 22:50
ETNG 092250Z 16005KT CAVOK 17/12 Q1016

2010/08/09 22:50
LSGG 092250Z VRB01KT 9999 BKN085 19/13 Q1017 NOSIG

2010/08/09 22:50
LSZH 092250Z VRB01KT 9999 FEW054 16/14 Q1018 NOSIG

2010/08/09 22:50
ENGC 092250Z 18009KT 9999 BKN025 13/09 Q1010

2010/08/09 22:50
ENHE 092250Z 05019KT 9999 BKN014 10/08 Q1012

2010/08/09 22:50
ENVD 092250Z 02008KT 9999 SCT005 BKN007 08/07 Q1014

2010/08/09 22:50
ENAT 092250Z AUTO 07009KT 9999NDV SCT053/// 11/09 Q1013 

2010/08/09 22:50
ENEV 092250Z 34005KT 310V020 9999 FEW020 10/09 Q1011 

2010/08/09 22:50
ENKB 092250Z 00000KT 9999 SCT007 BKN012 14/12 Q1010

2010/08/09 22:50
ENNA 092250Z 35003KT 9999 SCT010 BKN014 10/08 Q1014 

2010/08/09 22:50
ENAN 092250Z 03014KT 9999 FEW008 BKN020 11/09 Q1012

2010/08/09 22:50
ENBR 092250Z 10003KT 9999 SCT018 BKN025 13/11 Q1011 

2010/08/09 22:50
ENBO 092250Z 07003KT 9999 FEW040 11/10 Q1010

2010/08/09 22:50
ENDU 092250Z 00000KT 9999 FEW045 09/07 Q1012

2010/08/09 22:50
ENOL 092250Z 29004KT 9999 5000SE SCT004 11/10 Q1010 

2010/08/09 22:50
ENZV 092250Z 12007KT 9999 SCT041 13/09 Q1011

2010/08/09 22:54
KBKB 092254Z AUTO 00000KT 10SM FEW060 36/23 A2988 RMK AO2 SLP143 T03610233 $ 

2010/08/09 22:54
KROA 092254Z 16008KT 10SM FEW080 31/19 A3002 RMK AO2 SLP151 T03060189 

2010/08/09 22:54
KNFG 092254Z 24010KT 7SM CLR 22/13 A2988 RMK AO2 SLP116 T02170133 

2010/08/09 22:54
KROC 092254Z 27005KT 2SM +TSRA BR FEW009 BKN025CB OVC060 21/19 A2998 RMK AO2 TWR VIS 2 1/2 SLP148 OCNL LTGICCC OHD TS OHD MOV E P0021 T02060194 

2010/08/09 22:54
KNKT 092254Z 17007KT 10SM FEW019 SCT080 28/23 A3001 RMK AO2 SLP158 T02830233 

2010/08/09 22:54
KMQE 092254Z AUTO 19011G18KT 28/23 A2991 RMK AO1 SLP134 T02780233 

2010/08/09 22:54
K1V4 092254Z AUTO 22/20 A2988 RMK AO2 SLP109 P0007 T02170200 PWINO TSNO 

2010/08/09 22:53
KMIC 092253Z 07003KT 10SM CLR 33/18 A2990 RMK AO2 SLP116 T03280183

2010/08/09 22:53
KMIE 092253Z 00000KT 9SM CLR 31/22 A2995 RMK AO2 SLP128 T03110222

2010/08/09 22:53
KMIW 092253Z AUTO 00000KT 10SM OVC036 29/26 A2990 RMK AO2 SLP117 T02890261

2010/08/09 22:53
KMKL 092253Z 00000KT 10SM SCT042TCU 34/25 A2991 RMK AO2 SLP121 T03390250

2010/08/09 22:53
KMLP 092253Z AUTO 22005KT 10SM CLR 17/06 A2998 RMK AO2 SLP062 T01720056 TSNO

2010/08/09 22:53
KMLS 092253Z AUTO 03005KT 10SM CLR 34/09 A2976 RMK AO2 SLP053 T03440089

2010/08/09 22:53
KMLT 092253Z AUTO 24003KT 10SM CLR 25/17 A2985 RMK AO2 SLP111 T02500172

2010/08/09 22:53
KMMK 092253Z AUTO 17009KT 9SM CLR 28/20 A2992 RMK AO2 SLP130 T02780200

2010/08/09 22:45
KMMU 092245Z 26007KT 06SM HZ SCT100 33/18 A2992

2010/08/09 22:53
KMMV 092253Z AUTO 00000KT 10SM BKN044 21/11 A2998 RMK AO2 SLP152 T02110111

2010/08/09 22:53
KMNN 092253Z AUTO 18003KT 10SM CLR 28/21 A2997 RMK AO2 SLP142 T02830206

2010/08/09 22:53
KMOD 092253Z AUTO VRB04KT 10SM CLR 31/13 A2981 RMK AO2 SLP093 T03110128 TSNO

2010/08/09 22:53
KMRB 092253Z 16006KT 9SM CLR 32/18 A2994 RMK AO2 SLP133 T03170183

2010/08/09 22:53
KMSL 092253Z AUTO 20003KT 10SM CLR 29/24 A2997 RMK AO2 SLP140 T02890239

2010/08/09 22:53
KMSO 092253Z 13012KT 9SM -RA SCT050 BKN090 20/14 A2987 RMK AO2 RAB02 SLP103 P0001 T02000144

2010/08/09 22:53
KMSP 092253Z VRB05KT 10SM SCT150 33/18 A2991 RMK AO2 SLP121 T03280178

2010/08/09 22:53
KMSS 092253Z AUTO 20004KT 10SM FEW070 SCT095 24/21 A2988 RMK AO2 TSE15RAE28 SLP118 P0000 T02390206

2010/08/09 22:53
KMTH 092253Z AUTO 20008KT 10SM SCT012 BKN019 OVC060 27/24 A2989 RMK AO2 LTG DSNT S SLP120 T02670239

2010/08/09 22:53
KMTO 092253Z AUTO 17003KT 9SM CLR 32/26 A2992 RMK AO2 SLP123 T03170256

2010/08/09 22:53
KMVY 092253Z 22008KT 7SM SCT006 27/22 A2994 RMK AO2 SLP138 T02670222

2010/08/09 22:53
KMYF 092253Z 28010KT 10SM FEW020 23/14 A2989 RMK AO2 SLP117 T02280139

2010/08/09 22:53
KPNC 092253Z AUTO 17010G18KT 10SM CLR 37/21 A2983 RMK AO2 SLP084 T03720206

2010/08/09 22:53
KPOF 092253Z AUTO 10004KT 10SM CLR 34/26 A2988 RMK AO2 LTG DSNT W TSB25E40 SLP111 T03390261

2010/08/09 22:53
KPRB 092253Z AUTO A2985 RMK AO2 SLPNO PWINO FZRANO TSNO

2010/08/09 22:53
KPRC 092253Z 23011G16KT 10SM BKN090TCU 29/04 A3009 RMK AO2 SLP111 TCU ALQDS T02890044

2010/08/09 22:53
KPSC 092253Z 22006KT 10SM CLR 31/04 A2972 RMK AO2 SLP059 T03110044

2010/08/09 22:55
KPSO 092255Z AUTO 24010G18KT 10SM CLR 25/01 A3023 RMK AO2

2010/08/09 22:53
KPSP 092253Z VRB04KT 10SM CLR 38/M01 A2973 RMK AO2 SLP063 T03831011

2010/08/09 22:53
KPUW 092253Z AUTO 26006KT 10SM CLR 27/06 A2983 RMK AO2 SLP089 T02670056

2010/08/09 22:53
KRAC 092253Z AUTO 17005KT 5SM HZ CLR 28/22 A2992 RMK AO2 SLP126 T02830217

2010/08/09 22:53
KRAL 092253Z 26012G16KT 10SM CLR 29/11 A2985 RMK AO2 SLP093 T02940106

2010/08/09 22:53
KRBG 092253Z AUTO 36008G18KT 10SM CLR 24/13 A2993 RMK AO2 SLP133 T02440128

2010/08/09 22:53
KRDD 092253Z 15011G14KT 10SM CLR 33/11 A2978 RMK AO2 SLP079 T03280106

2010/08/09 22:53
KRHI 092253Z AUTO 29004KT 10SM CLR 30/18 A2996 RMK AO2 SLP133 T03000183

2010/08/09 22:53
KRIW 092253Z AUTO 29011KT 10SM FEW110 28/03 A2994 RMK AO2 WSHFT 2239 SLP066 T02830033

2010/08/09 22:53
KRME 092253Z 30007KT 4SM -RA BR BKN043 OVC055 22/21 A2998 RMK AO2 SLP148 T02220211 PNO $

2010/08/09 22:53
KRMG 092253Z AUTO 20003KT 10SM CLR 35/19 A2994 RMK AO2 SLP128 T03500189

2010/08/09 22:53
KRNT 092253Z 17003KT 10SM OVC031 19/12 A2996 RMK AO2 SLP150 T01890122

2010/08/09 22:53
KRSL 092253Z AUTO 18011KT 10SM CLR 37/18 A2981 RMK AO2 SLP071 T03720183

2010/08/09 22:53
KRSW 092253Z AUTO 00000KT 10SM CLR 26/24 A2988 RMK AO2 SLP114 T02560239 TSNO

2010/08/09 22:53
KRUE 092253Z AUTO 00000KT 10SM BKN075 38/22 A2986 RMK AO2 SLP103 T03830217

2010/08/09 22:53
KRVS 092253Z 19008KT 10SM SCT070 38/20 A2984 RMK AO2 SLP104 T03830200

2010/08/09 22:53
KRWF 092253Z AUTO 09007KT 10SM CLR 32/22 A2990 RMK AO2 SLP116 T03170217

2010/08/09 22:53
KRWI 092253Z AUTO 00000KT 10SM CLR 31/21 A2998 RMK AO2 SLP152 T03110206

2010/08/09 22:53
KRXE 092253Z AUTO 25005G16KT 10SM -TSRA FEW027 SCT047 BKN055 18/13 A3003 RMK AO2 LTG DSNT NE AND E TSB13E28B34RAB29 SLP133 P0003 T01780133

2010/08/09 22:53
KSAC 092253Z 23008KT 10SM CLR 29/13 A2982 RMK AO2 SLP097 T02890133

2010/08/09 22:53
KSAF 092253Z 36013G17KT 10SM BKN085 29/11 A3012 RMK AO2 LTG DSNT N SLP090 T02890106

2010/08/09 22:51
KSAN 092251Z 32009KT 10SM CLR 22/14 A2990 RMK AO2 SLP126 T02170139

2010/08/09 22:50
KSAW 092250Z 04009KT 10SM SKC 26/20 A2991

2010/08/09 22:53
KSBA 092253Z 24008KT 10SM CLR 19/13 A2989 RMK AO2 SLP120 T01940133

2010/08/09 22:53
KSBM 092253Z AUTO 00000KT 10SM CLR 30/22 A2990 RMK AO2 SLP119 T03000222

2010/08/09 22:53
KSDL 092253Z VRB03KT 10SM CLR 37/09 A2982 RMK AO2 SLP069 T03720094

2010/08/09 22:53
KSEA 092253Z 19004KT 10SM OVC026 18/12 A2998 RMK AO2 SLP157 T01780117

2010/08/09 22:53
KSFF 092253Z 24015G20KT 10SM FEW080 28/06 A2978 RMK AO2 SLP069 T02830056

2010/08/09 22:53
KMYV 092253Z AUTO 20007KT 170V250 10SM CLR 32/13 A2981 RMK AO2 SLP096 T03170128

2010/08/09 22:53
KOAK 092253Z 29015KT 10SM FEW016 19/12 A2990 RMK AO2 SLP125 T01890117

2010/08/09 22:53
KODX 092253Z AUTO VRB03KT 10SM FEW040 32/22 A2987 RMK AO2 SLP102 T03220222

2010/08/09 22:53
KOGD 092253Z AUTO 22008KT 10SM CLR 27/03 A2999 RMK AO2 RAE2155 SLP095 P0000 T02720033

2010/08/09 22:53
KOJC 092253Z 18008KT 10SM CLR 36/23 A2987 RMK AO2 SLP098 T03560228

2010/08/09 22:53
KOLF 092253Z AUTO 11007KT 10SM CLR 32/12 A2979 RMK AO2 SLP078 T03170117

2010/08/09 22:53
KOMK 092253Z AUTO 23007KT 10SM CLR 29/06 A2970 RMK AO2 SLP049 T02890061

2010/08/09 22:53
KONO 092253Z AUTO 10003KT 10SM CLR 31/09 A2977 RMK AO2 LTG DSNT SW SLP061 T03110094

2010/08/09 22:53
KOPF 092253Z 15011KT 10SM FEW047 SCT075 28/23 A2989 RMK AO2 SLP121 T02780233

2010/08/09 22:51
KORF 092251Z 12005KT 10SM CLR 29/19 A2998 RMK AO2 SLP152 T02940194 $

2010/08/09 22:53
KORL 092253Z 12011KT 10SM FEW033 30/23 A2989 RMK AO2 SLP123 T03000228

2010/08/09 22:53
KOSH 092253Z 24004KT 9SM CLR 30/23 A2989 RMK AO2 SLP106 T03000228

2010/08/09 22:53
KOSU 092253Z 23005KT 9SM CLR 30/20 A2997 RMK AO2 SLP140 T03000200 $

2010/08/09 22:53
KOTM 092253Z AUTO 17004KT 10SM CLR 29/24 A2990 RMK AO2 SLP117 T02940244

2010/08/09 22:53
KOVS 092253Z AUTO 03004KT 10SM CLR 33/23 A2990 RMK AO2 SLP120 T03280228

2010/08/09 22:53
KOWD 092253Z 18008KT 9SM CLR 29/21 A2988 RMK AO2 SLP118 T02940206

2010/08/09 22:53
KOXB 092253Z AUTO 20004G77KT 9SM CLR 27/24 A2999 RMK AO2 SLP156 T02720244 $

2010/08/09 22:53
KPAE 092253Z 00000KT 10SM -RA BKN023 17/13 A2998 RMK AO2 SLP149 P0003 T01670133

2010/08/09 22:53
KPAH 092253Z 21004KT 10SM CLR 34/23 A2989 RMK AO2 SLP117 T03440228

2010/08/09 22:53
KPBF 092253Z AUTO 11004KT 10SM CLR 36/26 A2989 RMK AO2 SLP118 T03560256

2010/08/09 22:53
KPBI 092253Z 15010KT 10SM FEW022 SCT028TCU SCT250 28/24 A2988 RMK AO2 SLP119 TCU E-SE CB DSNT SW-W T02830239

2010/08/09 22:53
KPDK 092253Z 00000KT 10SM CLR 33/18 A2998 RMK AO2 SLP131 T03330183

2010/08/09 22:53
KPDT 092253Z 30015G22KT 10SM CLR 30/04 A2976 RMK AO2 SLP063 T03000044

2010/08/09 22:53
KPDX 092253Z 00000KT 10SM BKN035 OVC250 18/11 A2999 RMK AO2 SLP156 T01830111

2010/08/09 22:53
KPGA 092253Z AUTO VRB03KT 10SM CLR 31/03 A3001 RMK AO2 SLP097 T03110028

2010/08/09 22:53
KPGD 092253Z AUTO 24003KT 10SM SCT080 26/24 A2990 RMK AO2 RAE10B27E36 SLP124 P0002 T02560239 TSNO

2010/08/09 22:53
KPIH 092253Z 27012G20KT 10SM SCT080 24/08 A3000 RMK AO2 SLP114 CB DSNT N T02390083

2010/08/09 22:53
KPIR 092253Z AUTO 11010KT 10SM CLR 31/21 A2985 RMK AO2 SLP095 T03110206

2010/08/09 22:53
KPKB 092253Z 33003KT 9SM CLR 31/17 A3001 RMK AO2 SLP154 T03110172

2010/08/09 22:53
KPKD 092253Z AUTO 22007KT 10SM CLR 31/18 A2993 RMK AO2 SLP129 T03110183

2010/08/09 22:53
KPMD 092253Z AUTO 24013G16KT 10SM CLR 33/03 A2988 RMK AO2 SLP091 T03280033 TSNO

2010/08/09 22:53
KPMP 092253Z 14009KT 10SM SCT020 28/24 A2989 RMK AO2 SLP122 T02780239

2010/08/09 22:53
KSHN 092253Z AUTO 21009KT 9SM -RA SCT019 SCT050 SCT100 16/14 A2996 RMK AO2 SLP145 P0001 T01560139

2010/08/09 22:53
KSHR 092253Z AUTO 00000KT 10SM CLR 33/08 A2982 RMK AO2 LTG DSNT E SLP053 T03330083

2010/08/09 22:53
KSIY 092253Z AUTO 27004KT 10SM 32/06 A2985 RMK AO2 SLP093 T03170061 $

2010/08/09 22:53
KSJC 092253Z 29012KT 10SM FEW050 23/13 A2986 RMK AO2 SLP112 T02330133

2010/08/09 22:53
KSLC 092253Z 28016G30KT 10SM FEW080 SCT100CB BKN120 BKN200 27/04 A2997 RMK AO2 PK WND 29030/2244 WSHFT 2232 SLP093 VIRGA OHD AND DSNT NE-S CB SW MOV NE AND DSNT NE T02670044

2010/08/09 22:53
KSLN 092253Z 18009G19KT 10SM CLR 38/18 A2981 RMK AO2 SLP078 T03830183

2010/08/09 22:53
KSMF 092253Z 19007KT 10SM CLR 29/15 A2981 RMK AO2 SLP094 T02940150

2010/08/09 22:53
KSNA 092253Z 22009KT 10SM CLR 23/13 A2989 RMK AO2 SLP119 T02330128

2010/08/09 22:53
KSNS 092253Z 28011KT 10SM CLR 19/12 A2991 RMK AO2 SLP137 T01890122

2010/08/09 22:55
KSPA 092255Z AUTO 16004KT 10SM CLR 31/27 A2999 RMK AO2

2010/08/09 22:53
KSPB 092253Z AUTO 13004KT 10SM SCT028 OVC037 18/13 A2998 RMK AO2 SLP151 T01830128

2010/08/09 22:53
KSPG 092253Z 01005KT 10SM FEW055 30/25 A2984 RMK AO2 SLP104 T03000250

2010/08/09 22:53
KSPW 092253Z AUTO 11005KT 10SM OVC027 27/24 A2992 RMK AO2 SLP121 T02720239

2010/08/09 22:53
KSRQ 092253Z 01010KT 10SM SCT039 SCT050 30/25 A2983 RMK AO2 RAE01 SLP101 P0000 T03000250

2010/08/09 22:53
KSTC 092253Z 06005KT 10SM CLR 32/21 A2991 RMK AO2 SLP130 T03220206 $

2010/08/09 22:53
KSTJ 092253Z AUTO 18008KT 10SM CLR 35/25 A2982 RMK AO2 SLP086 T03500250

2010/08/09 22:53
KSTP 092253Z 07004KT 10SM CLR 32/20 A2990 RMK AO2 SLP118 T03220200

2010/08/09 22:53
KSTS 092253Z 18009KT 10SM CLR 23/13 A2986 RMK AO2 SLP106 T02280128

2010/08/09 22:53
KSWO 092253Z 18012KT 10SM CLR 38/20 A2983 RMK AO2 SLP086 T03830200

2010/08/09 22:53
KTCC 092253Z AUTO 21011KT 10SM FEW080 31/13 A2996 RMK AO2 LTG DSNT NW-NE SLP078 T03110128

2010/08/09 22:53
KTCL 092253Z 18004KT 10SM CLR 34/22 A2992 RMK AO2 SLP130 T03440222

2010/08/09 22:53
KTIW 092253Z 24003KT 10SM -RA BKN025 17/13 A2997 RMK AO2 RAB43 SLP148 P0000 T01720128

2010/08/09 22:53
KTMB 092253Z 19007KT 10SM FEW024 SCT033 BKN060 29/23 A2988 RMK AO2 SLP118 T02940233

2010/08/09 22:53
KTOI 092253Z 12004KT 10SM CLR 34/22 A2994 RMK AO2 SLP132 T03390222

2010/08/09 22:53
KTOP 092253Z 19008KT 10SM CLR 38/21 A2983 RMK AO2 SLP088 T03830206

2010/08/09 22:53
KTTD 092253Z VRB03KT 10SM FEW029 18/11 A2998 RMK AO2 SLP152 T01780106

2010/08/09 22:53
KTUL 092253Z 15011KT 10SM SCT070 38/20 A2983 RMK AO2 SLP091 T03780200

2010/08/09 22:53
KTUS 092253Z 24005KT 10SM CLR 36/13 A2990 RMK AO2 SLP070 T03560133

2010/08/09 22:53
KTVC 092253Z 28003KT 8SM SCT034 SCT070 29/23 A2988 RMK AO2 SLP114 T02890228

2010/08/09 22:53
KTVL 092253Z AUTO 19011G17KT 10SM FEW060 24/07 A3009 RMK AO2 SLP135 T02440067

2010/08/09 22:53
KTVR 092253Z AUTO 33008G19KT 5SM TS HZ SCT075 BKN095 30/23 A2993 RMK AO2 LTG DSNT ALQDS SLP139 T03000228

2010/08/09 22:53
KUAO 092253Z AUTO 07006KT 10SM CLR 21/09 A2999 RMK AO2 SLP155 T02110094

2010/08/09 22:53
KUNO 092253Z AUTO 09009KT 10SM CLR 36/22 A2993 RMK AO2 LTG DSNT E AND SE AND NW TSB26E42 SLP117 T03560217

2010/08/09 22:53
KUUU 092253Z AUTO 20007KT 8SM CLR 24/21 A2994 RMK AO2 SLP137 T02390211

2010/08/09 22:53
KVCB 092253Z AUTO 18009KT 10SM CLR 30/12 A2982 RMK AO2 SLP097 T03000122

2010/08/09 22:53
KVEL 092253Z AUTO 21009KT 10SM CLR 28/M02 A3004 RMK AO2 SLP111 T02781017

2010/08/09 22:53
KVIH 092253Z AUTO 09005KT 10SM CLR 34/25 A2991 RMK AO2 SLP113 T03390250

2010/08/09 22:53
KVPC 092253Z AUTO 15004KT 9SM CLR 33/22 A2997 RMK AO2 SLP134 T03330217

2010/08/09 22:53
KVPZ 092253Z AUTO 24006KT 10SM BKN100 29/21 A2993 RMK AO2 SLP130 T02940211

2010/08/09 22:50
KVQQ 092250Z VRB06KT 10SM SCT028 29/25 A2993

2010/08/09 22:53
KVRB 092253Z 12014KT 10SM FEW100 29/23 A2990 RMK AO2 SLP125 T02890233

2010/08/09 22:53
KVUO 092253Z AUTO 00000KT 10SM OVC037 19/12 A2998 RMK AO2 SLP153 T01940117

2010/08/09 22:53
KWRL 092253Z AUTO 17015G19KT 10SM 33/03 A2981 RMK AO2 LTG DSNT W SLP046 T03280028 $

2010/08/09 22:53
KWST 092253Z AUTO 23006KT 8SM CLR 26/21 A2995 RMK AO2 SLP139 T02610211

2010/08/09 22:53
KIPL 092253Z AUTO 21005KT 10SM CLR 39/01 A2969 RMK AO2 SLP056 T03890011

2010/08/09 22:53
KIWI 092253Z AUTO 18004KT 10SM CLR 24/19 A2988 RMK AO2 SLP116 T02390189

2010/08/09 22:53
KIXD 092253Z 17008KT 10SM CLR 36/21 A2988 RMK AO2 SLP101 T03610211

2010/08/09 22:53
KJBR 092253Z AUTO 16011KT 10SM CLR 33/26 A2988 RMK AO2 SLP114 T03330261

2010/08/09 22:51
KJCT 092251Z AUTO 13011KT 10SM BKN090 37/17 A2988 RMK AO2 SLP074 T03670167 TSNO

2010/08/09 22:53
KJEF 092253Z 12006KT 10SM CLR 34/26 A2987 RMK AO2 SLP099 T03390261

2010/08/09 22:53
KJER 092253Z AUTO 14008KT 10SM FEW080 27/08 A2992 RMK AO2 LTG DSNT S AND SW SLP092 T02670078

2010/08/09 22:53
KJKL 092253Z AUTO 00000KT 10SM CLR 32/19 A3001 RMK AO2 SLP144 T03170194

2010/08/09 22:53
KJLN 092253Z 20006KT 10SM SCT065 36/22 A2989 RMK AO2 SLP105 T03560222

2010/08/09 22:55
KJZI 092255Z AUTO 14007KT 10SM FEW018 29/29 A2998 RMK A02 P000

2010/08/09 22:53
KLBF 092253Z AUTO 13007KT 10SM CLR 31/22 A2991 RMK AO2 SLP098 T03060222

2010/08/09 22:53
KLEB 092253Z 00000KT 10SM VCTS -RA SCT016 BKN065 BKN080 21/18 A2989 RMK AO2 PK WND 23029/2230 WSHFT 2226 LTG DSNT W-N SLP113 P0036 T02060178

2010/08/09 22:53
KLGB 092253Z 18007KT 10SM CLR 23/13 A2988 RMK AO2 SLP117 T02330128

2010/08/09 22:53
KLHQ 092253Z AUTO 00000KT 8SM CLR 30/19 A2997 RMK AO2 SLP143 T03000194

2010/08/09 22:53
KLIT 092253Z 16009KT 10SM FEW050 BKN250 36/24 A2987 RMK AO2 SLP115 T03610239

2010/08/09 22:55
KLKR 092255Z AUTO 00000KT 6SM HZ CLR 30/27 A3000 RMK AO2

2010/08/09 22:53
KLLQ 092253Z AUTO 00000KT 10SM CLR 36/24 A2991 RMK AO2 TSB28E45 SLP123 T03560239

2010/08/09 22:53
KLMT 092253Z 30008G17KT 260V340 10SM FEW045 SCT100 SCT250 28/02 A2992 RMK AO2 SLP091 T02780017

2010/08/09 22:53
KLOL 092253Z AUTO 23008G17KT 10SM CLR 34/M01 A2988 RMK AO2 SLP076 T03441006

2010/08/09 22:53
KLOU 092253Z 11005KT 10SM FEW060 34/21 A2993 RMK AO2 SLP127 T03440211

2010/08/09 22:53
KLOZ 092253Z AUTO 11005KT 10SM CLR 31/24 A2999 RMK AO2 SLP143 T03110239

2010/08/09 22:53
KLSE 092253Z VRB03KT 10SM CLR 32/23 A2990 RMK AO2 SLP111 T03220228

2010/08/09 22:53
KLUK 092253Z 18007KT 8SM FEW075 31/22 A2993 RMK AO2 SLP131 T03110222

2010/08/09 22:53
KLVK 092253Z 30010KT 10SM CLR 28/12 A2983 RMK AO2 SLP099 T02780122 $

2010/08/09 22:53
KLVM 092253Z AUTO 27007KT 10SM TS FEW055 OVC085 17/13 A2999 RMK AO2 WSHFT 2140 LTG DSNT ALQDS TSE17B39RAE38 SLP129 P0011 T01720133

2010/08/09 22:53
KLVS 092253Z AUTO 18017G21KT 10SM BKN090 BKN110 26/08 A3015 RMK AO2 LTG DSNT ALQDS RAB36E46 SLP094 P0000 T02610083

2010/08/09 22:53
KLWD 092253Z AUTO 16004KT 10SM CLR 33/26 A2988 RMK AO2 SLP105 T03280261

2010/08/09 22:53
KLWV 092253Z AUTO 00000KT 8SM CLR 34/22 A2990 RMK AO2 SLP120 T03440222

2010/08/09 22:53
KLXT 092253Z AUTO 19007KT 10SM CLR 36/22 A2988 RMK AO2 SLP104 T03560222

2010/08/09 22:53
KMAE 092253Z AUTO 26005KT 10SM CLR 32/13 A2981 RMK AO2 SLP091 T03220128

2010/08/09 22:53
KMCE 092253Z AUTO 32005KT 10SM CLR 31/13 A2980 RMK AO2 SLP091 T03110128

2010/08/09 22:53
KMCI 092253Z 17008KT 10SM BKN250 35/25 A2986 RMK AO2 SLP095 T03500250

2010/08/09 22:53
KMCO 092253Z 11012KT 10SM FEW034 SCT100 29/23 A2989 RMK AO2 SLP120 T02940228

2010/08/09 22:53
KMCW 092253Z AUTO 12006KT 10SM FEW031 SCT039 BKN070 29/24 A2994 RMK AO2 SLP125 T02890239

2010/08/09 22:53
KMEM 092253Z 21008KT 10SM FEW150 OVC250 32/24 A2992 RMK AO2 SLP127 T03220239

2010/08/09 22:55
KMEZ 092255Z AUTO 19004KT 10SM SCT070 SCT085 36/19 A2992 RMK AO2

2010/08/09 22:53
KMFR 092253Z 28011KT 10SM FEW070 31/11 A2984 RMK AO2 SLP092 T03110106

2010/08/09 22:53
KMGW 092253Z VRB03KT 10SM CLR 31/18 A3001 RMK AO2 SLP150 HAZY T03060178

2010/08/09 22:53
KMGY 092253Z AUTO 11008KT 9SM CLR 30/21 A2995 RMK AO2 SLP134 T03000206

2010/08/09 22:53
KMHE 092253Z AUTO 12009KT 10SM FEW034 30/23 A2987 RMK AO2 SLP105 T03000233 TSNO

2010/08/09 22:53
KMHT 092253Z 27007KT 10SM FEW110 32/17 A2986 RMK AO2 SLP119 T03170172

2010/08/09 22:53
KMIA 092253Z 16010G15KT 10SM FEW025 SCT075 SCT150 SCT250 28/24 A2989 RMK AO2 SLP120 T02780239

2010/08/09 22:53
KWVI 092253Z AUTO 24010KT 10SM CLR 18/12 A2992 RMK AO2 SLP132 T01830117

2010/08/09 22:53
KXNA 092253Z AUTO 19007KT 10SM CLR 36/20 A2992 RMK AO2 SLP113 T03560200 TSNO

2010/08/09 22:53
KYKM 092253Z 00000KT 10SM SCT080 29/07 A2975 RMK AO2 SLP066 T02890072

2010/08/09 22:53
KAAF 092253Z AUTO VRB03KT 10SM CLR 32/24 A2989 RMK AO2 SLP122 T03220244

2010/08/09 22:53
KABY 092253Z 10006KT 10SM CLR 34/20 A2994 RMK AO2 SLP137 T03440200

2010/08/09 22:53
KADG 092253Z AUTO 00000KT 9SM CLR 25/22 A2996 RMK AO2 RAB2155E36 SLP141 P0000 T02500222

2010/08/09 22:53
KAFW 092253Z 13009KT 10SM FEW070 38/19 A2984 RMK AO2 SLP083 T03830194 $

2010/08/09 22:53
KAGC 092253Z 23007KT 10SM CLR 30/16 A2999 RMK AO2 SLP151 T03000161

2010/08/09 22:53
KAIA 092253Z AUTO 32004KT 10SM BKN085 31/12 A2995 RMK AO2 LTG DSNT NE AND E SLP097 T03110122

2010/08/09 22:53
KAKO 092253Z AUTO 11014G21KT 10SM FEW060 31/15 A2999 RMK AO2 SLP090 T03060150 TSNO

2010/08/09 22:53
KAMG 092253Z AUTO 11007KT 10SM FEW060 32/22 A2993 RMK AO2 SLP133 T03220222

2010/08/09 22:53
KAPA 092253Z 29010G15KT 10SM BKN060 BKN100 25/13 A3010 RMK AO2 RAB25E43 SLP121 OCNL LTGIC DSNT W-N P0000 T02500133

2010/08/09 22:53
KARB 092253Z AUTO 00000KT 10SM BKN070 25/22 A2993 RMK AO2 SLP131 T02500222

2010/08/09 22:53
KASE 092253Z 33006G16KT 10SM SCT060 BKN090 18/09 A3025 RMK AO2 SLP136 T01830089

2010/08/09 22:53
KBBW 092253Z AUTO 13004KT 10SM CLR 31/22 A2991 RMK AO2 SLP101 T03060222

2010/08/09 22:53
KBGM 092253Z 33003KT 9SM FEW070 BKN080 28/16 A2998 RMK AO2 SLP138 T02780161

2010/08/09 22:53
KBKL 092253Z 00000KT 6SM HZ FEW090 28/22 A2993 RMK AO2 SLP131 T02830217

2010/08/09 22:53
KBYG 092253Z AUTO 16016G29KT 10SM FEW110 27/07 A2992 RMK AO2 PK WND 16039/2217 WSHFT 2151 LTG DSNT NE SLP071 T02720072

2010/08/09 22:53
KCAG 092253Z AUTO 14008KT 10SM CLR 23/10 A3014 RMK AO2 SLP146 T02330100

2010/08/09 22:53
KCDR 092253Z AUTO 06011KT 10SM CLR 28/14 A2995 RMK AO2 SLP118 T02780144

2010/08/09 22:53
KCDS 092253Z AUTO 20008KT 10SM CLR 36/20 A2987 RMK AO2 LTG DSNT SE SLP083 T03560200

2010/08/09 22:53
KCDW 092253Z VRB03KT 8SM CLR 32/18 A2991 RMK AO2 SLP133 T03170183 $

2010/08/09 22:53
KCEW 092253Z AUTO 00000KT 10SM CLR 34/24 A2992 RMK AO2 SLP127 T03390239

2010/08/09 22:53
KCEZ 092253Z AUTO 29011G14KT 10SM FEW110 26/05 A3015 RMK AO2 SLP131 T02610050

2010/08/09 22:53
KCKB 092253Z 21004KT 8SM CLR 28/19 A3000 RMK AO2 SLP143 T02830194

2010/08/09 22:53
KCPR 092253Z 19018G23KT 10SM CLR 28/05 A3002 RMK AO2 SLP094 T02780050

2010/08/09 22:53
KCRE 092253Z 18006KT 10SM BKN075 28/24 A2999 RMK AO2 SLP157 T02780244

2010/08/09 22:53
KCRG 092253Z 10009KT 10SM FEW022 29/24 A2994 RMK AO2 SLP137 T02940239

2010/08/09 22:53
KCRS 092253Z AUTO 15010KT 10SM CLR 37/19 A2986 RMK AO2 SLP104 T03670189

2010/08/09 22:53
KCSM 092253Z 16011G18KT 10SM CLR 38/14 A2987 RMK AO2 SLP081 T03830144

2010/08/09 22:53
KCUB 092253Z AUTO VRB03KT 10SM CLR 33/21 A2999 RMK AO2 SLP152 T03280206

2010/08/09 22:53
KCYS 092253Z 24011KT 10SM FEW043 SCT060 SCT075 24/11 A3010 RMK AO2 SLP108 T02440111

2010/08/09 22:53
KDAL 092253Z 15013G20KT 10SM FEW070 36/20 A2984 RMK AO2 SLP096 T03610200

2010/08/09 22:53
KDEN 092253Z 32019G23KT 10SM SCT065 BKN090 BKN140 23/11 A3006 RMK AO2 PK WND 30026/2229 WSHFT 2218 TSE04 SLP101 OCNL LTGICCCCG DSNT SW-N CB DSNT SW-N MOV N T02330106

2010/08/09 22:53
KDEQ 092253Z AUTO 00000KT 10SM FEW095 36/22 A2986 RMK AO2 SLP103 T03610222

2010/08/09 22:53
KDET 092253Z 00000KT 10SM BKN050 BKN090 26/21 A2994 RMK AO2 SLP134 T02610206

2010/08/09 22:53
KDFI 092253Z AUTO 22003KT 8SM FEW060 29/22 A2993 RMK AO2 RAE23 SLP129 P0000 T02940217

2010/08/09 22:53
KDFW 092253Z 18014G18KT 10SM FEW065TCU 37/20 A2984 RMK AO2 SLP092 TCU N-NE T03720200

2010/08/09 22:53
KDGW 092253Z AUTO 34004KT 10SM OVC095 27/11 A3001 RMK AO2 RAB03E15 SLP099 P0000 T02670111

2010/08/09 22:53
KDHN 092253Z 09005KT 10SM CLR 33/21 A2996 RMK AO2 SLP139 T03330211

2010/08/09 22:53
KDKK 092253Z AUTO 29003KT 7SM FEW065 OVC090 26/21 A2996 RMK AO2 SLP142 T02610206

2010/08/09 22:53
KLBB 092253Z 00000KT 10SM -TSRA FEW025 BKN060CB OVC120 21/19 A3002 RMK AO2 PK WND 27044/2210 WSHFT 2148 RAB2157 SLP121 OCNL LTGICCCG NE-SE-S TS NE-SE-S MOV NE P0097 T02110189 $

2010/08/09 22:53
KLEE 092253Z AUTO 07006KT 10SM FEW035 30/26 A2988 RMK AO2 RAE2155B16E36 SLP117 P0004 T03000261

2010/08/09 22:53
KLHX 092253Z AUTO 25013G19KT 10SM -RA SCT022 BKN120 27/19 A3001 RMK AO2 LTG DSNT SE AND S RAB44 SLP100 P0000 T02670194 $

2010/08/09 22:53
KLNS 092253Z 18012G16KT 8SM CLR 31/21 A2995 RMK AO2 SLP137 T03060211

2010/08/09 22:53
KLPR 092253Z AUTO 19003KT 8SM FEW085 30/20 A2995 RMK AO2 SLP137 T03000200

2010/08/09 22:53
KMAF 092253Z 19013KT 10SM CLR 33/16 A2993 RMK AO2 SLP084 T03330156

2010/08/09 22:53
KMAI 092253Z AUTO 08007KT 10SM CLR 36/18 A2991 RMK AO2 SLP125 T03560183

2010/08/09 22:53
KMBS 092253Z 28008KT 10SM CLR 27/23 A2991 RMK AO2 SLP123 T02720228

2010/08/09 22:53
KMCK 092253Z AUTO 08011KT 10SM CLR 33/23 A2987 RMK AO2 SLP086 T03280233

2010/08/09 22:53
KMFE 092253Z 11015KT 10SM CLR 35/24 A2982 RMK AO2 SLP096 T03500239

2010/08/09 22:53
KMKO 092253Z AUTO 20010KT 10SM CLR 37/20 A2986 RMK AO2 SLP103 T03670200

2010/08/09 22:53
KMLB 092253Z 11012KT 10SM SCT018 28/24 A2990 RMK AO2 SLP125 T02830239

2010/08/09 22:53
KMLC 092253Z AUTO 19005KT 10SM CLR 37/18 A2987 RMK AO2 SLP102 T03670183

2010/08/09 22:53
KMLU 092253Z 17003KT 10SM CLR 32/24 A2992 RMK AO2 SLP131 T03220244

2010/08/09 22:53
KMTJ 092253Z AUTO VRB03KT 10SM CLR 28/08 A3012 RMK AO2 SLP114 T02830078

2010/08/09 22:53
KMWL 092253Z AUTO 14012G17KT 10SM FEW085 37/19 A2984 RMK AO2 SLP087 T03670194

2010/08/09 22:50
KOCF 092250Z 00000KT 10SM FEW037 31/26 A2987

2010/08/09 22:53
KODO 092253Z AUTO 18012KT 10SM VCTS CLR 34/16 A2995 RMK AO2 LTG DSNT SW-N TSB14 SLP090 T03390156

2010/08/09 22:53
KOGB 092253Z AUTO 08005KT 10SM CLR 32/20 A2998 RMK AO2 SLP150 T03220200

2010/08/09 22:53
KONT 092253Z 26015KT 10SM CLR 29/09 A2986 RMK AO2 SLP099 T02940094

2010/08/09 22:53
KPBG 092253Z AUTO 00000KT 9SM FEW060 23/22 A2987 RMK AO2 LTG DSNT S AND SW RAE13 SLP114 P0000 T02330222

2010/08/09 22:53
KPEO 092253Z AUTO 00000KT 10SM -RA SCT060 23/21 A2998 RMK AO2 RAB2157 SLP146 P0001 T02280211

2010/08/09 22:53
KPHD 092253Z AUTO 00000KT 10SM CLR 29/19 A2999 RMK AO2 SLP150 T02940189

2010/08/09 22:53
KPIE 092253Z 36004KT 10SM CLR 29/24 A2986 RMK AO2 LTG DSNT NE TSE02RAB13E32 SLP110 P0000 T02940244

2010/08/09 22:53
KPNS 092253Z 22005KT 10SM FEW080 31/23 A2992 RMK AO2 RAB08E26 SLP131 P0002 T03060233

2010/08/09 22:53
KPOU 092253Z 23003KT 8SM CLR 31/18 A2988 RMK AO2 SLP115 T03110183

2010/08/09 22:53
KPTK 092253Z 22007KT 10SM FEW046 SCT060 SCT200 26/21 A2993 RMK AO2 SLP129 T02610206

2010/08/09 22:53
KPUB 092253Z 20016G25KT 10SM -RA SCT025 BKN060 OVC100 21/17 A3006 RMK AO2 PK WND 19029/2236 LTG DSNT NE-S RAB36 SLP125 P0000 T02060172

2010/08/09 22:53
KPWA 092253Z 17012KT 10SM FEW075 37/18 A2985 RMK AO2 SLP088 T03720183

2010/08/09 22:53
KRBD 092253Z VRB05G17KT 10SM CLR 36/20 A2985 RMK AO2 SLP098 T03610200

2010/08/09 22:53
KRWL 092253Z AUTO 17013KT 10SM SCT110 23/07 A3015 RMK AO2 SLP118 T02280072

2010/08/09 22:53
KSEG 092253Z AUTO 21003KT 9SM CLR 31/18 A2993 RMK AO2 SLP133 T03060178

2010/08/09 22:53
KSMQ 092253Z AUTO VRB03KT 9SM FEW065 32/19 A2990 RMK AO2 SLP123 T03170189

2010/08/09 22:53
KSNY 092253Z AUTO 32009KT 10SM -TSRA SCT013 23/18 A3001 RMK AO2 PK WND 22033/2222 WSHFT 2225 LTG DSNT ALQDS RAB14 SLP110 P0003 T02280183

2010/08/09 22:53
KSSI 092253Z AUTO 11007KT 10SM FEW080 29/24 A2995 RMK AO2 SLP140 T02940244

2010/08/09 22:53
KTDZ 092253Z AUTO 21004KT 7SM FEW042 BKN060 31/21 A2993 RMK AO2 SLP130 T03060206

2010/08/09 22:53
KTHV 092253Z AUTO 00000KT 9SM CLR 31/19 A2995 RMK AO2 SLP138 T03060194

2010/08/09 22:53
KTKI 092253Z 15010G14KT 10SM CLR 36/20 A2985 RMK AO2 SLP101 T03610200

2010/08/09 22:53
KTOR 092253Z AUTO 36005KT 10SM CLR 28/13 A2995 RMK AO2 SLP092 T02830128

2010/08/09 22:53
PASN 092253Z 26011KT 2 1/2SM BR OVC003 10/09 A2931 RMK AO2 SLP926 VIS N 5 T01000094

2010/08/09 22:53
PASO 092253Z AUTO 18009G16KT 10SM FEW034 OVC055 14/10 A2968 RMK AO2 SLP049 T01440100 TSNO

2010/08/09 22:53
PATK 092253Z 00000KT 10SM OVC060 13/12 A2968 RMK AO2 RAB05E14 SLP053 P0000 T01330122

2010/08/09 22:53
PATO 092253Z AUTO 12015G28KT 090V150 3SM -RA BR BKN020 BKN026 OVC050 12/11 A2975 RMK AO2 PK WND 11032/2202 SLP074 P0002 T01220111 TSNO

2010/08/09 22:53
PAVL 092253Z AUTO 15007KT 5SM -RA BKN044 BKN095 17/10 A2946 RMK AO2 SLP974 P0000 T01720100 TSNO

2010/08/09 22:53
PAWD 092253Z AUTO A2974 RMK AO2 SLP073 PWINO FZRANO TSNO $

2010/08/09 22:53
PAYA 092253Z 11004KT 3SM -RA BR BKN007 OVC012 14/12 A2995 RMK AO2 CIG 004V010 SLP140 BAY TWR WND 120MMKT P0004 T01390122

2010/08/09 22:53
KTWF 092253Z 19008KT 10SM TS FEW043 SCT100 21/13 A2994 RMK AO2 LTG DSNT W TSB2154E33B47RAE04B20E49 SLP087 P0003 T02110128

2010/08/09 22:53
KTXK 092253Z 00000KT 10SM CLR 36/23 A2988 RMK AO2 SLP112 T03560228

2010/08/09 22:53
KTYR 092253Z 23004KT 10SM CLR 36/18 A2990 RMK AO2 SLP116 T03610183

2010/08/09 22:53
KVGT 092253Z 09009G18KT 10SM CLR 35/M01 A2984 RMK AO2 SLP068 T03501006

2010/08/09 22:53
KVLD 092253Z 08006KT 10SM CLR 33/23 A2992 RMK AO2 SLP136 T03280228

2010/08/09 22:53
KYIP 092253Z 17003KT 10SM SCT049 OVC070 26/22 A2994 RMK AO2 SLP132 T02560217

2010/08/09 22:53
KZZV 092253Z AUTO 18004KT 10SM CLR 30/18 A2998 RMK AO2 SLP146 T03000183

2010/08/09 22:50
PAFK 092250Z 16007KT 20SM SCT030 OVC065 18/10 A2956 RMK EST PASS MARGINAL NOSPECI

2010/08/09 22:55
KHYI 092255Z AUTO 00000KT 10SM CLR 35/21 A2985 RMK AO1

2010/08/09 22:55
KHYS 092255Z AUTO 16016G21KT 10SM CLR 38/17 A2983 RMK AO1

2010/08/09 22:55
KILE 092255Z AUTO 13008KT 10SM CLR 37/19 A2985 RMK AO1

2010/08/09 22:54
KILN 092254Z AUTO 16003KT 8SM CLR 31/21 A2997 RMK AO2 SLP136 T03060211

2010/08/09 22:54
KIMT 092254Z AUTO 34006KT 10SM CLR 31/19 A2990 RMK AO2 SLP118 T03110194

2010/08/09 22:54
KIND 092254Z 24006KT 10SM FEW055 SCT140 BKN250 32/20 A2993 RMK AO2 SLP126 T03220200

2010/08/09 22:54
KINT 092254Z 18003KT 10SM FEW055 32/18 A3001 RMK AO2 SLP149 T03220183

2010/08/09 22:54
KIPT 092254Z 10008KT 10SM CLR 29/20 A2991 RMK AO2 SLP125 T02890200

2010/08/09 22:54
KISW 092254Z AUTO 32006KT 10SM CLR 32/21 A2992 RMK AO2 SLP124 T03170211 TSNO

2010/08/09 22:55
KIWD 092255Z AUTO 32005KT 10SM CLR 29/19 A2991 RMK AO1

2010/08/09 22:54
KIZG 092254Z AUTO 00000KT 10SM CLR 25/21 A2988 RMK AO2 RAB2155E20 SLP116 P0000 T02500206

2010/08/09 22:51
KJAC 092251Z 20008KT 10SM BKN080 18/05 A3010

2010/08/09 22:55
KJHW 092255Z AUTO 28004KT 10SM BKN075 26/18 A3000 RMK AO1

2010/08/09 22:54
KJST 092254Z AUTO 29004KT 10SM CLR 26/16 A3005 RMK AO2 SLP162 T02610156

2010/08/09 22:55
KKLS 092255Z AUTO 29005KT 10SM OVC033 18/12 A2998 RMK AO1

2010/08/09 22:54
KLAF 092254Z 00000KT 9SM FEW041 BKN055 BKN070 32/26 A2992 RMK AO2 SLP125 T03170256

2010/08/09 22:50
KLBE 092250Z 21005KT 10SM SKC 29/18 A3000

2010/08/09 22:55
KLBL 092255Z 19015G19KT 10SM SCT110 38/13 A2987 RMK AO1 LTG DSNT NE

2010/08/09 22:54
KLBT 092254Z AUTO 11006KT 10SM CLR 33/19 A2997 RMK AO2 SLP147 T03280189

2010/08/09 22:55
KLCI 092255Z AUTO 00000KT 10SM CLR 24/19 A2988 RMK AO1

2010/08/09 22:55
KLEW 092255Z 18003KT 10SM BKN060 BKN085 26/19 A2989 RMK AO1

2010/08/09 22:54
KLEX 092254Z 00000KT 10SM CLR 33/19 A2997 RMK AO2 SLP136 T03330189

2010/08/09 22:55
KLGD 092255Z AUTO 33008G16KT 280V340 10SM FEW110 29/06 A2978 RMK AO1

2010/08/09 22:55
KLKV 092255Z AUTO 23014G19KT 10SM FEW090 28/M01 A2996 RMK AO1

2010/08/09 22:54
KLNK 092254Z 22004KT 10SM CLR 34/23 A2984 RMK AO2 SLP089 T03440233

2010/08/09 22:55
KLPC 092255Z AUTO 27013G18KT 10SM CLR 18/12 A2992 RMK AO1 PNO

2010/08/09 22:54
KLWM 092254Z 25011KT 10SM FEW070 32/16 A2988 RMK AO2 SLP116 T03220156 $

2010/08/09 22:54
KLWT 092254Z AUTO 33008KT 10SM BKN100 22/09 A2987 RMK AO2 LTG DSNT SW AND W TSB15E42 SLP087 T02220089

2010/08/09 22:54
KLYH 092254Z 13004KT 9SM CLR 30/22 A3002 RMK AO2 SLP153 T03000217

2010/08/09 22:55
KMBL 092255Z AUTO 27004KT 10SM CLR 27/21 A2992 RMK AO1

2010/08/09 22:53
KTPA 092253Z 09005KT 6SM -RA BR SCT020TCU BKN050 BKN250 27/25 A2987 RMK AO2 TSE47RAE12B32 SLP114 TCU N AND S P0005 T02720250

2010/08/09 22:53
KTRL 092253Z AUTO 17010G17KT 10SM FEW070 37/18 A2987 RMK AO2 SLP106 T03670178

2010/08/09 22:53
KTTN 092253Z 25010KT 7SM CLR 32/19 A2993 RMK AO2 SLP126 T03170189

2010/08/09 22:54
PAAP 092254Z 00000KT 1SM -DZ BR BKN000 OVC004 13/12 A3002 RMK -DZ BR SCT000 56 MN52 70014 NO SPECI

2010/08/09 22:53
PAAQ 092253Z 15014G20KT 10SM CLR 19/08 A2966 RMK AO2 SLP038 T01940078

2010/08/09 22:53
PABE 092253Z 17022G28KT 5SM -RA BR BKN009 BKN016 OVC022 10/09 A2940 RMK AO2 PK WND 17029/2219 RAE00B18 SLP956 P0000 T01000094

2010/08/09 22:53
PABI 092253Z 20014G21KT 10SM FEW070 BKN100 BKN180 20/05 A2960 RMK AO2 WSHFT 2229 SLP020 VIRGA VC W T02000050

2010/08/09 22:51
PABN 092251Z 34009KT 20SM SCT050 SCT080 BKN120 19/08 A2966 RMK NOSPECI

2010/08/09 22:53
PABR 092253Z AUTO 07020G25KT 10SM OVC004 02/01 A2986 RMK AO2 PK WND 07027/2223 SLP113 T00220011 TSNO

2010/08/09 22:53
PABT 092253Z 16005KT 10SM FEW028 BKN034 OVC050 16/08 A2957 RMK AO2 SLP020 SHRA VC N T01560083

2010/08/09 22:53
PACD 092253Z 23013G20KT 10SM SCT031 BKN050 BKN180 14/08 A2955 RMK AO2 SLP007 T01390078

2010/08/09 22:53
PACV 092253Z 12010G16KT 10SM FEW014 SCT024 OVC035 15/11 A2986 RMK AO2 SLP111 T01500106

2010/08/09 22:53
PADE 092253Z AUTO 06012KT 10SM BKN028 OVC033 14/12 A2939 RMK AO2 SLP951 T01390122 TSNO

2010/08/09 22:53
PAEG 092253Z AUTO 12009G15KT 10SM OVC070 20/09 A2958 RMK AO2 SLP018 T02000094 TSNO

2010/08/09 22:51
PAEL 092251Z 00000KT 12SM SCT015 OVC025 13/12 A2996 RMK NOSPECI

2010/08/09 22:53
PAEN 092253Z 23007KT 10SM SCT038 OVC070 17/11 A2967 RMK AO2 SLP048 T01670111

2010/08/09 22:53
PAFA 092253Z 01005KT 10SM BKN085 BKN120 19/09 A2956 RMK AO2 SLP015 T01890089

2010/08/09 22:53
PAGY 092253Z AUTO 21019KT 10SM OVC065 16/08 A2992 RMK AO2 PK WND 21026/2205 SLP132 T01560083 TSNO

2010/08/09 22:53
PAHO 092253Z VRB03KT 10SM FEW018 BKN045 OVC060 15/10 A2969 RMK AO2 SLP053 T01500100

2010/08/09 22:53
PAIL 092253Z 12003KT 10SM OVC026 13/09 A2964 RMK AO2 SLP036 T01330094

2010/08/09 22:53
PAJN 092253Z 09007KT 10SM FEW025 BKN035 OVC050 16/11 A2999 RMK AO2 SLP154 MTN TPS PRTLY OBSCD ALQDS T01560106

2010/08/09 22:53
PAKT 092253Z 12008KT 10SM SCT018 BKN060 16/12 A3003 RMK AO2 SLP169 HARBOR WND 09005KT T01560122

2010/08/09 22:53
PAKV 092253Z AUTO VRB03KT 10SM -RA SCT011 BKN016 OVC065 13/12 A2950 RMK AO2 SLP990 P0005 T01330122 TSNO

2010/08/09 22:53
PAKW 092253Z AUTO 00000KT 10SM OVC024 14/12 A3002 RMK AO2 SLP165 T01390122 TSNO

2010/08/09 22:53
PALH 092253Z 15008G16KT 10SM OVC070 19/09 A2965 RMK AO2 SLP041 T01940089

2010/08/09 22:53
PAMC 092253Z 19007KT 130V210 10SM SCT015 BKN032 OVC075 13/11 A2954 RMK AO2 RAE16 SLP007 P0000 T01330106

2010/08/09 22:53
PAMR 092253Z 33005KT 10SM SCT045 OVC060 17/12 A2964 RMK AO2 SLP038 T01720117

2010/08/09 22:53
PANC 092253Z 15013G21KT 10SM BKN065 BKN085 17/09 A2964 RMK AO2 PK WND 14026/2223 SLP036 T01720094

2010/08/09 22:53
PANN 092253Z AUTO 09006KT 10SM BKN080 18/09 A2955 RMK AO2 SLP012 T01830089 TSNO

2010/08/09 22:53
PANT 092253Z 16003KT 10SM SCT005 OVC140 16/12 A3003 RMK AO2 SLP168 T01560122

2010/08/09 22:53
PAOM 092253Z 11016KT 10SM FEW014 BKN029 OVC060 12/10 A2936 RMK AO2 RAE18 CIG 022 NE SLP943 P0000 T01220100

2010/08/09 22:53
PAOR 092253Z 00000KT 10SM FEW025 BKN085 BKN150 18/08 A2966 RMK AO2 SLP043 T01830078

2010/08/09 22:53
PAOT 092253Z 08015KT 9SM -RA SCT014 SCT020 OVC049 14/13 A2944 RMK AO2 SLP969 P0000 T01440128

2010/08/09 22:53
PAPB 092253Z AUTO 21004KT 1/2SM FG VV001 08/08 A2935 RMK AO2 SLP926 T00780078 TSNO

2010/08/09 22:53
PAQT 092253Z AUTO 06018G23KT 10SM OVC008 06/04 A2975 RMK AO2 SLP075 T00610039 TSNO

2010/08/09 22:53
PASC 092253Z 06022KT 10SM OVC005 06/03 A2972 RMK AO2 PK WND 06027/2244 SLP066 T00610033

2010/08/09 22:53
PASI 092253Z 27005KT 10SM FEW007 OVC032 14/12 A2998 RMK AO2 RAE24 SLP153 P0000 T01390122

2010/08/09 22:53
KDRO 092253Z AUTO 27015G24KT 10SM FEW100 27/05 A3017 RMK AO2 SLP122 T02720050

2010/08/09 22:53
KDTN 092253Z 13004KT 10SM CLR 36/22 A2987 RMK AO2 SLP112 T03610217

2010/08/09 22:53
KDTO 092253Z 18009G17KT 10SM SCT075 37/20 A2984 RMK AO2 SLP093 T03720200

2010/08/09 22:53
KDTS 092253Z AUTO 23003KT 10SM CLR 33/23 A2989 RMK AO2 SLP122 T03280233

2010/08/09 22:53
KDTW 092253Z 00000KT 7SM BKN050 OVC070 25/22 A2994 RMK AO2 SLP134 T02500217

2010/08/09 22:53
KDXR 092253Z 19011KT 6SM HZ CLR 28/20 A2994 RMK AO2 SLP133 T02830200

2010/08/09 22:53
KECP 092253Z AUTO 04008KT 10SM CLR 34/21 A2989 RMK AO2 SLP133 T03440206 TSNO

2010/08/09 22:53
KEEO 092253Z AUTO 09003KT 10SM FEW090 SCT110 22/11 A3014 RMK AO2 SLP135 T02220106 TSNO

2010/08/09 22:53
KELD 092253Z AUTO 19004KT 10SM CLR 37/21 A2988 RMK AO2 SLP113 T03670206

2010/08/09 22:53
KELM 092253Z AUTO 25004KT 10SM BKN080 29/17 A2993 RMK AO2 SLP129 T02890167 $

2010/08/09 22:50
KESN 092250Z 21009KT 7SM SKC 32/20 A3000

2010/08/09 22:53
KFDR 092253Z AUTO 17010KT 10SM 39/17 A2980 RMK AO2 SLP069 T03890167

2010/08/09 22:53
KFDY 092253Z AUTO 19005KT 8SM CLR 29/21 A2994 RMK AO2 SLP127 T02890211

2010/08/09 22:53
KFLO 092253Z 11005KT 10SM CLR 32/21 A2998 RMK AO2 SLP149 T03220211

2010/08/09 22:53
KFNT 092253Z AUTO VRB03KT 6SM -RA BR FEW006 SCT023 BKN032 23/22 A2993 RMK AO2 RAB28 SLP131 P0003 T02330222 TSNO

2010/08/09 22:53
KFOK 092253Z 22008KT 10SM CLR 26/20 A2997 RMK AO2 SLP147 T02610200

2010/08/09 22:53
KFRG 092253Z 22013KT 10SM CLR 27/19 A2995 RMK AO2 SLP140 T02720189

2010/08/09 22:53
KFTW 092253Z 13008KT 10SM FEW075 37/18 A2983 RMK AO2 SLP091 T03720183

2010/08/09 22:53
KFWN 092253Z AUTO VRB04KT 8SM CLR 30/19 A2992 RMK AO2 SLP128 T03000194

2010/08/09 22:53
KFXE 092253Z 12010G15KT 10SM SCT065 29/23 A2988 RMK AO2 SLP120 T02940228

2010/08/09 22:53
KGCC 092253Z AUTO 21018G25KT 10SM CLR 32/04 A2987 RMK AO2 SLP066 T03170044

2010/08/09 22:53
KGGG 092253Z 23007KT 10SM CLR 36/21 A2989 RMK AO2 SLP111 T03610206

2010/08/09 22:53
KGIF 092253Z AUTO 13007KT 10SM -RA SCT031 BKN070 BKN085 28/24 A2989 RMK AO2 RAB41 SLP118 P0001 T02830239 TSNO

2010/08/09 22:53
KGJT 092253Z 27005KT 10SM SCT110 29/07 A3003 RMK AO2 SLP098 T02940072

2010/08/09 22:53
KGKJ 092253Z AUTO 24003KT 10SM SCT090 27/18 A3000 RMK AO2 SLP148 T02670183

2010/08/09 22:53
KGKY 092253Z 16013KT 10SM FEW065 37/21 A2985 RMK AO2 SLP096 T03670206

2010/08/09 22:53
KGLR 092253Z AUTO VRB05KT 6SM HZ OVC026 28/23 A2992 RMK AO2 SLP124 T02780228

2010/08/09 22:53
KGNV 092253Z 08009KT 10SM CLR 32/23 A2990 RMK AO2 SLP121 T03170233

2010/08/09 22:53
KGOK 092253Z AUTO 16010KT 10SM CLR 38/20 A2983 RMK AO2 SLP087 T03780200

2010/08/09 22:50
KGYH 092250Z 18006KT 10SM SCT060 33/20 A3000

2010/08/09 22:53
KGZH 092253Z AUTO 13004KT 10SM CLR 34/22 A2993 RMK AO2 SLP131 T03390222

2010/08/09 22:53
KHBR 092253Z AUTO 16013G19KT 10SM BKN090 40/15 A2984 RMK AO2 SLP078 T04000150

2010/08/09 22:53
KHVN 092253Z 21007KT 10SM CLR 28/20 A2993 RMK AO2 SLP136 T02780200

2010/08/09 22:53
KHZY 092253Z AUTO 34003KT 7SM FEW090 27/22 A2998 RMK AO2 SLP146 T02670217

2010/08/09 22:53
KIAG 092253Z 23003KT 1 1/4SM RA BR FEW007 BKN017 BKN060 OVC130 23/22 A2995 RMK AO2 SLP137 P0007 T02330222

2010/08/09 22:53
KIML 092253Z AUTO 11008KT 10SM FEW120 33/19 A2991 RMK AO2 LTG DSNT N AND NW TSB01E45 SLP088 T03280194

2010/08/09 22:53
KITR 092253Z AUTO 16009KT 10SM CLR 32/16 A2995 RMK AO2 SLP079 T03170156

2010/08/09 22:47
KIWA 092247Z 22006KT 45SM SCT120 SCT200 41/10 A2982

2010/08/09 22:53
KLAA 092253Z AUTO 23014KT 10SM CLR 31/13 A2991 RMK AO2 LTG DSNT S AND SW SLP072 T03060133

2010/08/09 22:53
KLAN 092253Z 22009KT 10SM SCT031 BKN039 28/22 A2993 RMK AO2 SLP130 T02830217

2010/08/09 22:53
KLAR 092253Z AUTO 16015G23KT 10SM TS BKN060 21/09 A3018 RMK AO2 PK WND 15027/2214 LTG DSNT NE TSB38 SLP117 T02110089

2010/08/09 22:53
KLAW 092253Z AUTO 18011KT 10SM CLR 39/18 A2982 RMK AO2 SLP082 T03890178

2010/08/09 22:54
KMFI 092254Z AUTO 33007KT 10SM CLR 31/21 A2993 RMK AO2 SLP124 T03110206

2010/08/09 22:54
KMGJ 092254Z AUTO 21006KT 9SM CLR 30/19 A2990 RMK AO2 SLP123 T03000189

2010/08/09 22:54
KMIV 092254Z AUTO 17007KT 140V210 10SM CLR 27/20 A2996 RMK AO2 SLP144 T02720200

2010/08/09 22:55
KMJX 092255Z AUTO 19007KT 10SM CLR 29/18 A2993 RMK AO1

2010/08/09 22:54
KMKC 092254Z 17011G18KT 10SM CLR 36/23 A2984 RMK AO2 SLP094 T03610228

2010/08/09 22:55
KMKT 092255Z AUTO 10006KT 10SM CLR 31/23 A2990 RMK AO1

2010/08/09 22:55
KMML 092255Z AUTO 10009KT 10SM CLR 31/21 A2991 RMK AO1

2010/08/09 22:54
KAAO 092254Z AUTO 16012G18KT 10SM CLR 37/19 A2985 RMK AO2 SLP086 T03720189

2010/08/09 22:50
KADS 092250Z 13012G22KT 10SM SCT065 36/20 A2986

2010/08/09 22:55
KAIZ 092255Z AUTO 09006KT 10SM CLR 34/25 A2990 RMK AO1 LTG DSNT S

2010/08/09 22:54
KAKH 092254Z AUTO 00000KT 9SM CLR 31/22 A3000 RMK AO2 SLP149 T03060217

2010/08/09 22:54
KAKR 092254Z AUTO 22004KT 10SM CLR 29/18 A2998 RMK AO2 SLP143 T02890178

2010/08/09 22:54
KALO 092254Z AUTO 10006KT 10SM BKN070 29/24 A2990 RMK AO2 SLP120 T02890244

2010/08/09 22:54
KAPC 092254Z AUTO 20011KT 10SM CLR 22/13 A2986 RMK AO2 SLP104 T02170128 TSNO $

2010/08/09 22:55
KARG 092255Z AUTO 16005KT 10SM CLR 34/26 A2987 RMK AO1

2010/08/09 22:55
KAUO 092255Z AUTO 13008KT 10SM SCT110 33/21 A2995 RMK AO1

2010/08/09 22:54
KAUW 092254Z AUTO 01007KT 10SM CLR 32/17 A2991 RMK AO2 SLP124 T03170172

2010/08/09 22:54
KAVL 092254Z 20003KT 9SM BKN060 26/21 A3010 RMK AO2 SLP166 T02560206

2010/08/09 22:55
KAWO 092255Z AUTO 12003KT 10SM 16/15 A2998 RMK AO1 P0001

2010/08/09 22:54
KBFL 092254Z 33010KT 10SM CLR 33/12 A2979 RMK AO2 SLP081 T03330117

2010/08/09 22:55
KBHB 092255Z AUTO 19007KT 10SM CLR 22/19 A2986 RMK AO1

2010/08/09 22:55
KBID 092255Z AUTO 22012KT 9SM CLR 24/22 A2994 RMK AO1

2010/08/09 22:55
KBKX 092255Z AUTO 07013KT 10SM CLR 30/19 A2993 RMK AO1

2010/08/09 22:55
KBLM 092255Z AUTO 18005KT 10SM CLR 29/18 A2997 RMK AO1

2010/08/09 22:54
KBOS 092254Z 20011KT 10SM FEW070 SCT090 SCT220 29/21 A2987 RMK AO2 SLP113 TCU DSNT NE T02940206

2010/08/09 22:55
KBTP 092255Z AUTO 26003KT 10SM FEW110 29/19 A2999 RMK AO1

2010/08/09 22:54
KBUF 092254Z 36013KT 2SM RA BR FEW015 BKN045 OVC060 23/22 A2996 RMK AO2 SLP141 P0001 T02280217

2010/08/09 22:54
KBUY 092254Z AUTO 13003KT 9SM CLR 31/22 A2999 RMK AO2 SLP147 T03060217

2010/08/09 22:55
KBVX 092255Z AUTO 21005KT 10SM CLR 36/23 A2989 RMK AO1

2010/08/09 22:54
KBWI 092254Z 16004KT 8SM SCT180 BKN250 31/21 A2994 RMK AO2 SLP138 T03060206

2010/08/09 22:55
KCGZ 092255Z AUTO 00000KT 10SM CLR 38/11 A2981 RMK AO1

2010/08/09 22:55
KCIU 092255Z AUTO 22005KT 10SM FEW041 SCT049 26/19 A2990 RMK AO1

2010/08/09 22:55
KCOD 092255Z AUTO 02013G19KT 10SM CLR 24/11 A2990 RMK AO1 LTG DSNT W TSE13

2010/08/09 22:55
KCOE 092255Z AUTO 21008KT 10SM FEW090 28/08 A2979 RMK AO1

2010/08/09 22:54
KCOS 092254Z 20009KT 10SM BKN110 24/14 A3014 RMK AO2 SLP119 T02440139

2010/08/09 22:54
KCRW 092254Z 00000KT 10SM CLR 31/19 A2999 RMK AO2 SLP144 T03110194

2010/08/09 22:55
KCVN 092255Z 18019G23KT 10SM BKN110 29/16 A3003 RMK AO1

2010/08/09 22:55
KCVO 092255Z AUTO 32007KT 280V350 10SM CLR 24/11 A2998 RMK AO1

2010/08/09 22:55
KCWI 092255Z 18005KT 10SM CLR 29/24 A2994 RMK AO1

2010/08/09 22:54
KDDH 092254Z AUTO VRB03KT 9SM SCT060 BKN100 27/21 A2992 RMK AO2 SLP125 T02720211

2010/08/09 22:54
KDEC 092254Z 21008KT 10SM CLR 34/24 A2991 RMK AO2 SLP121 T03440244 $

2010/08/09 22:54
KDSM 092254Z 08004KT 10SM OVC044 31/25 A2988 RMK AO2 SLP109 T03110250

2010/08/09 22:54
KDSV 092254Z AUTO 36017G27KT 8SM -RA FEW023 SCT037 OVC060 26/21 A2998 RMK AO2 PK WND 34027/2249 RAB52 SLP157 P0000 T02560211

2010/08/09 22:55
KDVL 092255Z AUTO 28006KT 10SM CLR 33/19 A2983 RMK AO1

2010/08/09 22:54
KDYL 092254Z AUTO 20007KT 170V230 10SM SCT055 30/19 A2994 RMK AO2 SLP132 T03000194 TSNO

2010/08/09 22:55
KDYR 092255Z AUTO 00000KT 10SM CLR 36/24 A2990 RMK AO1

2010/08/09 22:55
KEAR 092255Z AUTO 09007KT 10SM CLR 32/25 A2991 RMK AO1

2010/08/09 22:54
KECG 092254Z 14008KT 10SM CLR 28/23 A2999 RMK AO2 SLP156 T02830233

2010/08/09 22:55
KEEN 092255Z AUTO 00000KT 10SM BKN070 29/19 A2989 RMK AO1

2010/08/09 22:55
KEHR 092255Z AUTO 03005KT 10SM CLR 34/23 A2991 RMK AO1

2010/08/09 22:53
KEHA 092253Z AUTO 19008KT 35/14 RMK AO1 PK WND 19 000 T03500139

2010/08/09 22:55
PAEH 092255Z AUTO 16014G23KT 120V180 2 1/2SM OVC005 09/07 RMK AO1 VSBY 13/4V31/2 T00890073

2010/08/09 22:55
KENV 092255Z AUTO 11007KT 10SM CLR 28/04 A2996 RMK AO1

2010/08/09 22:55
KESC 092255Z AUTO 11003KT 10SM FEW042 BKN055 BKN065 26/21 A2989 RMK AO1

2010/08/09 22:54
KEUG 092254Z 00000KT 10SM FEW030 BKN150 22/12 A2997 RMK AO2 SLP146 T02170122

2010/08/09 22:55
KEUL 092255Z AUTO 15004KT 10SM SCT110 29/11 A2980 RMK AO1

2010/08/09 22:54
KEVV 092254Z 17004KT 10SM FEW065 35/20 A2990 RMK AO2 SLP121 T03500200

2010/08/09 22:55
KEWK 092255Z AUTO 17014KT 10SM FEW090 37/18 A2983 RMK AO1

2010/08/09 22:54
KEWN 092254Z 18006KT 10SM CLR 29/23 A3000 RMK AO2 SLP159 T02940233

2010/08/09 22:55
KFAM 092255Z AUTO 18003KT 10SM CLR 34/24 A2994 RMK AO1

2010/08/09 22:54
KFIG 092254Z AUTO 25005KT 10SM CLR 28/15 A3001 RMK AO2 SLP152 T02830150

2010/08/09 22:55
KFKL 092255Z AUTO 23003KT 10SM FEW090 27/18 A3003 RMK AO1

2010/08/09 22:55
KFLP 092255Z AUTO 17003KT 10SM CLR 34/25 A2990 RMK AO1

2010/08/09 22:55
KFNL 092255Z AUTO 12011KT 10SM FEW070 BKN110 23/16 A3002 RMK AO1 LTG DSNT NE

2010/08/09 22:55
KFOD 092255Z AUTO 10007KT 10SM OVC040 29/26 A2990 RMK AO1

2010/08/09 22:55
KFRM 092255Z 11006KT 10SM FEW029 29/24 A2994 RMK AO1

2010/08/09 22:52
KFWS 092252Z 15012KT 20SM FEW065 37/21 A2986

2010/08/09 22:54
KFZY 092254Z AUTO 28010KT 1 1/2SM +RA BR SCT012 OVC023 22/20 A2996 RMK AO2 SLP143 P0009 T02170200

2010/08/09 22:55
KGAD 092255Z AUTO 15005KT 10SM FEW070 FEW080 34/21 A2994 RMK AO1

2010/08/09 22:55
KGAI 092255Z 19005KT 10SM CLR 32/21 A2998 RMK AO1

2010/08/09 22:55
KGBD 092255Z AUTO 17014G21KT 10SM CLR 38/17 A2983 RMK AO1

2010/08/09 22:54
KGCK 092254Z 19014G20KT 10SM FEW090 37/13 A2986 RMK AO2 SLP066 T03720128

2010/08/09 22:54
KGCN 092254Z 23011G16KT 10SM CLR 24/01 A3021 RMK AO2 SLP146 T02440006

2010/08/09 22:55
KGDV 092255Z AUTO 04007KT 10SM CLR 34/10 A2979 RMK AO1

2010/08/09 22:54
KGED 092254Z AUTO 18012KT 10SM CLR 30/18 A2998 RMK AO2 SLP152 T03000183

2010/08/09 22:55
KGPZ 092255Z AUTO 25003KT 10SM CLR 31/20 A2994 RMK AO1

2010/08/09 22:55
KGUC 092255Z AUTO 23009KT 10SM SCT065 OVC090 21/03 A3026 RMK AO1

2010/08/09 22:55
KGXY 092255Z AUTO 22017G28KT 200V330 9SM TS FEW028 BKN041 OVC075 17/14 A3006 RMK AO1 LTG DSNT ALQDS P0090

2010/08/09 22:55
KHDN 092255Z 15015KT 10SM BKN090 OVC110 21/09 A3019 RMK AO1

2010/08/09 22:55
KHEF 092255Z AUTO 18008KT 10SM 31/21 A2996 RMK AO1

2010/08/09 22:55
KHEZ 092255Z AUTO 15004KT 10SM VCTS CLR 27/23 A2995 RMK AO1 LTG DSNT ALQDS TSE27B38

2010/08/09 22:55
KHNB 092255Z AUTO 19003KT 10SM CLR 35/19 A2991 RMK AO1

2010/08/09 22:54
KHWD 092254Z AUTO 29013KT 10SM CLR 21/12 A2988 RMK AO2 SLP128 T02060122

2010/08/09 22:55
KMNM 092255Z AUTO 20006KT 10SM CLR 29/23 A2988 RMK AO1

2010/08/09 22:54
KMOT 092254Z 11005KT 10SM CLR 32/17 A2981 RMK AO2 SLP084 T03220172

2010/08/09 22:55
KMRF 092255Z AUTO 07013KT 10SM CLR A3010 RMK AO1 LTG DSNT SE

2010/08/09 22:54
KMRY 092254Z 21009KT 10SM BKN013 16/11 A2993 RMK AO2 SLP146 T01610106

2010/08/09 22:55
KMSV 092255Z AUTO 22003KT 10SM CLR 29/16 A2997 RMK AO1

2010/08/09 22:55
KMTW 092255Z 11003KT 10SM SCT028 SCT035 28/23 A2989 RMK AO1

2010/08/09 22:54
KMVL 092254Z AUTO 36005KT 4SM BR SCT005 BKN044 OVC050 22/20 A2992 RMK AO2 LTG DSNT E AND S TSB15E51RAB18E50 SLP129 P0040 T02170200

2010/08/09 22:55
KMVN 092255Z AUTO 00000KT 10SM CLR 34/23 A2990 RMK AO1

2010/08/09 22:55
KOCH 092255Z AUTO 17007KT 10SM CLR 37/20 A2988 RMK AO1

2010/08/09 22:54
KOFP 092254Z AUTO 23007KT 10SM CLR 33/18 A2999 RMK AO2 SLP151 T03330183

2010/08/09 22:55
KOKK 092255Z AUTO 28005KT 9SM FEW110 32/22 A2994 RMK AO1

2010/08/09 22:54
KOLM 092254Z 24006KT 10SM OVC025 17/12 A2998 RMK AO2 SLP152 T01720122

2010/08/09 22:54
KOLS 092254Z AUTO VRB03KT 10SM SCT095 32/14 A3000 RMK AO2 SLP088 T03220139

2010/08/09 22:55
KOLU 092255Z AUTO 10SM FEW035 31/25 A2987 RMK AO1

2010/08/09 22:54
KORH 092254Z 24011KT 10SM SCT070 28/21 A2994 RMK AO2 SLP133 T02780206

2010/08/09 22:55
KOTG 092255Z AUTO 12008KT 10SM FEW055 28/22 A2996 RMK AO1

2010/08/09 22:55
KOTH 092255Z 35017G20KT 10SM CLR 17/12 A3004 RMK AO1

2010/08/09 22:54
KPHF 092254Z 08005KT 10SM CLR 29/19 A2999 RMK AO2 SLP153 T02940194

2010/08/09 22:54
KPHL 092254Z 20014KT 10SM FEW180 SCT250 31/19 A2995 RMK AO2 SLP141 T03110189

2010/08/09 22:54
KPIA 092254Z 11004KT 7SM FEW095 32/25 A2990 RMK AO2 SLP119 T03220250

2010/08/09 22:55
KPIB 092255Z AUTO 21004KT 10SM FEW045 33/23 A2994 RMK AO1 LTG DSNT S

2010/08/09 22:54
KPLN 092254Z AUTO 07004KT 10SM CLR 27/22 A2990 RMK AO2 SLP123 T02670222

2010/08/09 22:54
KPNE 092254Z AUTO 22007KT 10SM SCT050 32/21 A2995 RMK AO2 SLP140 T03170206

2010/08/09 22:55
KPQI 092255Z AUTO 22005KT 10SM CLR 23/17 A2978 RMK AO1

2010/08/09 22:55
KPRX 092255Z 17006KT 10SM CLR 37/20 A2988 RMK AO1

2010/08/09 22:54
KPSF 092254Z AUTO 20004KT 10SM CLR 28/17 A2993 RMK AO2 SLP106 T02830172

2010/08/09 22:55
KPTV 092255Z AUTO 33007KT 10SM CLR 33/13 A2982 RMK AO1

2010/08/09 22:54
KPTW 092254Z AUTO 21007KT 7SM CLR 32/19 A2996 RMK AO2 SLP140 T03220194

2010/08/09 22:55
KPVC 092255Z 21015G19KT 10SM CLR 24/20 A2990 RMK AO1

2010/08/09 22:55
KPWG 092255Z AUTO 15011KT 10SM FEW070 37/19 A2986 RMK AO1

2010/08/09 22:55
KPWT 092255Z AUTO 18008KT 10SM SCT028 17/13 A2999 RMK AO1 P0001

2010/08/09 22:54
KRBL 092254Z AUTO 16013G17KT 10SM CLR 32/14 A2980 RMK AO2 SLP087 T03170139

2010/08/09 22:54
KRDG 092254Z 19009KT 10SM CLR 32/21 A2993 RMK AO2 SLP136 T03170206

2010/08/09 22:55
KRKD 092255Z AUTO 18003KT 10SM CLR 22/18 A2987 RMK AO1

2010/08/09 22:54
KRKS 092254Z AUTO 19021G29KT 10SM CLR 26/M03 A3009 RMK AO2 PK WND 20036/2157 SLP104 T02611033

2010/08/09 22:54
KROC 092254Z 27005KT 2SM +TSRA BR FEW009 BKN025CB OVC060 21/19 A2998 RMK AO2 TWR VIS 2 1/2 SLP148 OCNL LTGICCC OHD TS OHD MOV E P0021 T02060194

2010/08/09 22:54
KRST 092254Z 06006KT 10SM CLR 31/23 A2994 RMK AO2 SLP128 T03060233

2010/08/09 22:55
KRUT 092255Z 32006KT 10SM VCTS FEW060 BKN110 26/19 A2989 RMK AO1 LTG DSNT NW TSB12E34B53

2010/08/09 22:54
KSBY 092254Z 16009KT 10SM CLR 29/20 A2999 RMK AO2 SLP157 T02890200

2010/08/09 22:55
KSDY 092255Z AUTO 03005KT 10SM CLR 33/15 A2979 RMK AO1

2010/08/09 22:54
KSET 092254Z AUTO 16005KT 10SM CLR 36/24 A2987 RMK AO2 SLP108 T03560239

2010/08/09 22:55
KSFM 092255Z 15006KT 10SM FEW050 SCT095 BKN120 22/20 A2989 RMK AO1 LTG DSNT SE TSE46 P0007

2010/08/09 22:55
KSFZ 092255Z 22006KT 10SM CLR 27/21 A2991 RMK AO1

2010/08/09 22:55
KSGT 092255Z 13007KT CLR 36/24 A2988 RMK AO1

2010/08/09 22:55
KSGU 092255Z AUTO 28005KT 10SM CLR 33/04 A2994 RMK AO1

2010/08/09 22:54
KSJN 092254Z AUTO 19007KT 10SM -RA SCT038 BKN085 26/10 A3013 RMK AO2 LTG DSNT S RAB46 SLP117 P0000 T02610100

2010/08/09 22:55
KSKX 092255Z AUTO 24016G20KT 10SM CLR 27/08 A3017 RMK AO1 LTG DSNT NE

2010/08/09 22:55
KSLG 092255Z AUTO 16009KT 10SM CLR 36/20 A2991 RMK AO1

2010/08/09 22:55
KSMN 092255Z AUTO 21013G25KT 10SM CLR 20/09 A2995 RMK AO1

2010/08/09 22:55
KSQI 092255Z AUTO 23003KT 10SM CLR 31/23 A2994 RMK AO1

2010/08/09 22:55
KSUE 092255Z AUTO 17008KT 10SM CLR 28/23 A2990 RMK AO1

2010/08/09 22:54
KSUS 092254Z 19003KT 10SM FEW050 BKN200 35/24 A2987 RMK AO2 SLP104 T03500244

2010/08/09 22:54
KSYR 092254Z 31007KT 2 1/2SM RA BR BKN023 BKN060 OVC075 22/21 A2997 RMK AO2 VIS 1 1/2 NW SLP143 BKN V OVC P0019 T02220211

2010/08/09 22:54
KTAD 092254Z AUTO 33007KT 2 1/2SM VCTS RA BR BKN033 OVC060 17/15 A3018 RMK AO2 TSE06B22E53B54 SLP158 P0033 T01670150

2010/08/09 22:55
KTPL 092255Z 16011G17KT 10SM CLR 36/21 A2986 RMK AO1

2010/08/09 22:54
KTQE 092254Z AUTO 01007KT 10SM SCT031 31/27 A2985 RMK AO2 SLP094 T03110267

2010/08/09 22:55
KTVF 092255Z AUTO 21009KT 10SM CLR 33/18 A2987 RMK AO1

2010/08/09 22:50
KTZR 092250Z 00000KT 10SM SKC 29/21 A2997

2010/08/09 22:56
KUCP 092256Z AUTO 00000KT 10SM CLR 29/19 A2999 RMK AO2 T02880194 SLP162

2010/08/09 22:54
KUIN 092254Z AUTO 16004KT 10SM CLR 33/27 A2988 RMK AO2 SLP110 T03280267

2010/08/09 22:54
KUZA 092254Z AUTO 14003KT 8SM CLR 32/20 A3000 RMK AO2 SLP144 T03170200

2010/08/09 22:54
KVAY 092254Z AUTO VRB05KT 8SM CLR 32/19 A2994 RMK AO2 SLP136 T03170189

2010/08/09 22:55
KVBT 092255Z AUTO 21008KT 10SM CLR 37/21 A2990 RMK AO1

2010/08/09 22:55
KVIS 092255Z AUTO 28008KT 10SM CLR 32/13 A2980 RMK AO1

2010/08/09 22:54
KVSF 092254Z AUTO 04005KT 10SM FEW100 27/22 A2990 RMK AO2 LTG DSNT N AND NW SLP122 T02670217

2010/08/09 22:54
KVTA 092254Z AUTO 21006KT 10SM CLR 29/18 A2997 RMK AO2 SLP141 T02940178

2010/08/09 22:54
KWLD 092254Z AUTO 15010KT 10SM CLR 37/21 A2985 RMK AO2 SLP093 T03670211

2010/08/09 22:55
KWVL 092255Z AUTO 00000KT 10SM BKN070 BKN085 26/20 A2983 RMK AO1

2010/08/09 22:55
KYKN 092255Z AUTO 10011KT 10SM BKN017 BKN031 27/24 A2989 RMK AO1

2010/08/09 22:54
KARA 092254Z 13010KT 10SM FEW011 SCT090 26/23 A2994 RMK AO2 TSE54

2010/08/09 22:47
PANW 092247Z AUTO 19014G17KT 3SM BR BKN008 OVC018 12/09 A2960 RMK AO2 PWINO TSNO CIG 007V013 $

2010/08/09 22:50
EBAW 092250Z AUTO 19005KT CAVOK 19/12 Q1015

2010/08/09 22:50
EBBR 092250Z 25005KT CAVOK 16/12 Q1015 NOSIG

2010/08/09 22:50
EBCI 092250Z 20004KT CAVOK 17/11 Q1016 NOSIG

2010/08/09 22:50
EBLG 092250Z 14007KT CAVOK 17/11 Q1016 NOSIG

2010/08/09 22:50
EBOS 092250Z 20005KT 9999 SCT016 13/10 Q1015 NOSIG

2010/08/09 22:50
ELLX 092250Z 00000KT CAVOK 18/12 Q1017 NOSIG

2010/08/09 22:50
ENSG 092250Z VRB01KT 9999 VCSH FEW/// SCT005 BKN040 13/11 Q1010

2010/08/09 22:50
LOWW 092250Z 19004KT CAVOK 16/14 Q1017 NOSIG

2010/08/09 22:50
LOWL 092250Z AUTO 33003KT 9999 NCD 15/14 Q1018

2010/08/09 22:50
LOWS 092250Z AUTO 19002KT 9999 NCD 14/12 Q1018

2010/08/09 22:50
LOWI 092250Z AUTO 27003KT 9999 NCD 15/13 Q1019

2010/08/09 22:50
LOWG 092250Z AUTO 00000KT 9999 NCD 17/16 Q1018

2010/08/09 22:50
LOWK 092250Z AUTO VRB01KT 9999 FEW050 17/15 Q1018

2010/08/09 22:50
ENAL 092250Z AUTO 05005KT 9999NDV BKN026/// OVC032/// 14/13 Q1010

2010/08/09 22:50
ENCN 092250Z AUTO 22006KT 9999NDV ////// 14/09 Q1012

2010/08/09 22:50
ENHD 092250Z AUTO 13007KT 9999NDV FEW041/// 11/09 Q1011

2010/08/09 22:50
ENRO 092250Z AUTO 00000KT 6000NDV -RA BKN059/// BKN074/// OVC090/// 12/11 Q1010

2010/08/09 22:50
ENRY 092250Z AUTO 16007KT 9000NDV BKN200/// 17/15 Q1009

2010/08/09 22:50
ENSB 092250Z 26020KT 9999 FEW007 SCT010 BKN018 04/02 Q1003 

2010/08/09 22:50
ENTC 092250Z 02010KT 9999 FEW012 SCT020 09/07 Q1012

2010/08/09 22:52
KP69 092252Z AUTO VRB03KT 27/17 A2976 RMK AO2 SLP057 T02720167 PWINO TSNO

2010/08/09 22:52
KN60 092252Z AUTO 08003KT 29/21 A2981 RMK AO1 SLP085 T02940206

2010/08/09 22:52
KREO 092252Z AUTO 25009G15KT 29/03 A2986 RMK AO2 SLP071 T02890033 PWINO TSNO

2010/08/09 22:52
KBLU 092252Z AUTO 22005KT 10SM CLR 21/07 A3009 RMK AO2 SLP102 T02110067 TSNO

2010/08/09 22:52
KCZZ 092252Z AUTO 23011KT 29/03 A2988 RMK AO2 SLP091 T02890028 PWINO TSNO

2010/08/09 22:52
K9V9 092252Z AUTO 13009KT 30/22 A2988 RMK AO2 SLP103 T03000222 PWINO TSNO

2010/08/09 22:53
KLND 092253Z AUTO 20014G18KT 10SM CLR 29/02 A2994 RMK AO2 PK WND 19026/2241 WSHFT 2140 SLP065 T02940022

2010/08/09 22:53
KP92 092253Z AUTO 01007KT 340V050 24/23 A2997 RMK AO2 PRESFR SLP148 T02440233 PWINO TSNO

2010/08/09 22:53
KLAX 092253Z 26011KT 10SM CLR 19/12 A2990 RMK AO2 SLP124 T01940122 $

2010/08/09 22:53
KCQC 092253Z AUTO 16010KT 10SM FEW075 BKN090 24/11 A3018 RMK AO2 WSHFT 2208 SLP122 T02390111 TSNO

2010/08/09 22:53
KMGM 092253Z 18005KT 10SM CLR 35/20 A2992 RMK AO2 SLP126 T03500200

2010/08/09 22:53
KSGR 092253Z 15015G21KT 10SM CLR 33/24 A2988 RMK AO2 SLP124 T03330239

2010/08/09 22:53
KMCN 092253Z 04007KT 8SM CLR 34/21 A2995 RMK AO2 SLP135 T03390206

2010/08/09 22:51
KVCT 092251Z 12012KT 10SM CLR 34/24 A2987 RMK AO2 SLP112 T03440244

2010/08/09 22:53
KTUP 092253Z 20007KT 10SM TS CLR 29/24 A2995 RMK AO2 TSB30 SLP136 T02940239

2010/08/09 22:53
KDAB 092253Z 09009G14KT 10SM FEW023 SCT250 29/24 A2991 RMK AO2 SLP129 TCU DSNT W T02890239

2010/08/09 22:53
KCTY 092253Z AUTO 06004KT 32/25 A2989 RMK AO2 SLP121 T03170250 PWINO TSNO

2010/08/09 22:53
KCHA 092253Z 15004KT 10SM FEW060 BKN095 BKN120 BKN250 34/22 A2995 RMK AO2 SLP134 CB DSNT NW T03390217 $

2010/08/09 22:53
KTYS 092253Z 09004KT 10SM FEW060 34/21 A2996 RMK AO2 SLP132 T03390206

2010/08/09 22:53
KBTR 092253Z 24004KT 8SM -RA FEW006 SCT039 BKN110 25/24 A2993 RMK AO2 TSE45RAB2158 SLP133 CB DSNT S-SW MOVG SW TS MOVD SW P0005 T02500244

2010/08/09 22:53
K6R6 092253Z AUTO 10006KT 31/19 A2990 RMK AO2 SLP087 T03110194 PWINO TSNO

2010/08/09 22:53
KTRI 092253Z 00000KT 10SM FEW050 SCT065 SCT250 33/17 A3001 RMK AO2 SLP143 T03330167

2010/08/09 22:53
KELY 092253Z AUTO VRB04G17KT 10SM SCT110 26/M03 A3009 RMK AO2 SLP094 T02611028

2010/08/09 22:53
KOVE 092253Z AUTO 14007KT 10SM CLR 31/13 A2982 RMK AO2 SLP099 T03110128 TSNO $

2010/08/09 22:53
KBNO 092253Z AUTO 12015G18KT 10SM BKN090 26/07 A2988 RMK AO2 RAE04 SLP081 P0000 T02560067 TSNO

2010/08/09 22:53
KHTL 092253Z AUTO 27006KT 10SM CLR 28/22 A2991 RMK AO2 SLP122 T02780222

2010/08/09 22:53
KMSN 092253Z 04004KT 10SM FEW036 31/23 A2991 RMK AO2 SLP120 T03060228

2010/08/09 22:53
KTLH 092253Z 05007KT 10SM FEW060 34/20 A2990 RMK AO2 SLP125 CB DSNT E AND SE T03440200

2010/08/09 22:53
KTCS 092253Z AUTO 00000KT 10SM BKN090 31/09 A3002 RMK AO2 SLP078 T03060089 TSNO

2010/08/09 22:53
KFAR 092253Z 21008KT 10SM CLR 33/18 A2987 RMK AO2 SLP110 T03280183

2010/08/09 22:53
KLXV 092253Z AUTO 19007KT 4SM -RA BR BKN036 BKN047 OVC055 13/12 A3038 RMK AO2 RAB34 SLP134 P0001 T01330117 TSNO

2010/08/09 22:53
KMSY 092253Z 31006KT 10SM FEW020 BKN180 OVC250 26/24 A2995 RMK AO2 RAB09E53 SLP144 P0000 T02610244

2010/08/09 22:53
KP68 092253Z AUTO 18005G15KT 27/M04 A3002 RMK AO2 SLP081 T02721044 PWINO TSNO

2010/08/09 22:53
KGNT 092253Z AUTO 00000KT 27/07 A3019 RMK AO2 SLP135 T02670067 PWINO TSNO

2010/08/09 22:54
PGUM 092254Z 00000KT 10SM SCT060 28/24 A2993 RMK AO2 SLP126 T02780239

2010/08/09 22:53
KOQT 092253Z AUTO 00000KT 9SM CLR 33/23 A2999 RMK AO2 SLP136 T03330228 TSNO

2010/08/09 22:54
KJAN 092254Z 17006KT 8SM -TSRA BKN025 BKN060CB OVC095 26/24 A2993 RMK AO2 TSB01RAB22 SLP131 OCNL LTGICCG SW-W TS SW-W MOV W P0010 T02560239

2010/08/09 22:50
ENAN 092250Z 03014KT 9999 FEW008 BKN020 11/09 Q1012

2010/08/09 22:50
ENBR 092250Z 10003KT 9999 SCT018 BKN025 13/11 Q1011 

2010/08/09 22:50
ENBO 092250Z 07003KT 9999 FEW040 11/10 Q1010

2010/08/09 22:50
ENDU 092250Z 00000KT 9999 FEW045 09/07 Q1012

2010/08/09 22:50
ENOL 092250Z 29004KT 9999 5000SE SCT004 11/10 Q1010 

2010/08/09 22:50
ENZV 092250Z 12007KT 9999 SCT041 13/09 Q1011

2010/08/09 22:50
PTKK 092250Z VRB05KT 15SM FEW014CB BKN120 OVC280 29/25 A2988 RMK CB OHD SLP122 T02870253 

2010/08/09 22:53
KCUT 092253Z AUTO 09006KT 10SM CLR 21/11 A3009 RMK AO2 SLP131 T02110111 TSNO

2010/08/09 22:53
KSAV 092253Z 09010KT 10SM FEW035TCU SCT110 BKN250 31/24 A2995 RMK AO2 SLP140 TCU N-E T03110239

2010/08/09 22:53
K40J 092253Z AUTO 07003KT 33/23 A2989 RMK AO2 SLP119 T03280228 PWINO TSNO

2010/08/09 22:53
KDNK 092253Z AUTO 17006KT 10SM FEW090 35/22 A2990 RMK AO2 SLP121 T03500217

2010/08/09 22:53
KSDM 092253Z VRB05KT 10SM CLR 22/13 A2989 RMK AO2 SLP119 T02170133

2010/08/09 22:54
KBTV 092254Z 00000KT 10SM -RA FEW023 SCT047 BKN060 23/21 A2987 RMK AO2 RAB2157E10B49 SLP114 P0000 T02280206

2010/08/09 22:54
KBKB 092254Z AUTO 00000KT 10SM FEW060 36/23 A2988 RMK AO2 SLP143 T03610233 $

2010/08/09 22:54
KROA 092254Z 16008KT 10SM FEW080 31/19 A3002 RMK AO2 SLP151 T03060189

2010/08/09 22:54
KROC 092254Z 27005KT 2SM +TSRA BR FEW009 BKN025CB OVC060 21/19 A2998 RMK AO2 TWR VIS 2 1/2 SLP148 OCNL LTGICCC OHD TS OHD MOV E P0021 T02060194

2010/08/09 22:54
KMQE 092254Z AUTO 19011G18KT 28/23 A2991 RMK AO1 SLP134 T02780233

2010/08/09 22:54
K1V4 092254Z AUTO 22/20 A2988 RMK AO2 SLP109 P0007 T02170200 PWINO TSNO

2010/08/09 22:53
KEHA 092253Z AUTO 19008KT 35/14 RMK AO1 PK WND 19 000 T03500139

2010/08/09 22:55
PAEH 092255Z AUTO 16014G23KT 120V180 2 1/2SM OVC005 09/07 RMK AO1 VSBY 13/4V31/2 T00890073

2010/08/09 22:50
BGSF 092250Z 04008KT 9999 SCT042 BKN050 11/04 Q1008

2010/08/09 22:50
BGBW 092250Z AUTO 07003KT 9999NDV -RA SCT004/// BKN007/// OVC013/// 09/08 Q1008

2010/08/09 22:50
BGJN 092250Z AUTO 16005KT 9999NDV SCT026/// BKN110/// 13/04 Q1009

2010/08/09 22:50
BGSS 092250Z 29010KT 210V350 9999 SCT031 12/09 Q1008 RMK 4SC 

2010/08/09 22:50
BGAA 092250Z AUTO 26006KT 9999NDV FEW054/// BKN100/// 08/05 Q1009

2010/08/09 22:50
BGUK 092250Z AUTO 32007KT 0100NDV -SN NCD 04/04 Q1009

2010/08/09 22:50
BGQQ 092250Z AUTO 29007KT 9999NDV NCD 05/03 Q1012

2010/08/09 22:50
BGPT 092250Z AUTO 21003KT //// FEW012/// BKN057/// 09/08 Q1007

2010/08/09 22:50
ENGC 092250Z 18009KT 9999 BKN025 13/09 Q1010

2010/08/09 22:50
ENHE 092250Z 05019KT 9999 BKN014 10/08 Q1012

2010/08/09 22:50
ENVD 092250Z 02008KT 9999 SCT005 BKN007 08/07 Q1014

2010/08/09 22:50
LCRA 092250Z 36002KT 9000 HZ SKC 26/24 Q1004

2010/08/09 22:52
KP69 092252Z AUTO VRB03KT 27/17 A2976 RMK AO2 SLP057 T02720167 PWINO TSNO

2010/08/09 22:52
KN60 092252Z AUTO 08003KT 29/21 A2981 RMK AO1 SLP085 T02940206

2010/08/09 22:52
KREO 092252Z AUTO 25009G15KT 29/03 A2986 RMK AO2 SLP071 T02890033 PWINO TSNO

2010/08/09 22:52
KALS 092252Z AUTO VRB04KT 10SM FEW110 26/ A3019 RMK AO2 LTG DSNT SE SLPNO T0256 $

2010/08/09 22:52
KBDR 092252Z 23008KT 10SM CLR 28/19 A2993 RMK AO2 SLP135 T02780189

2010/08/09 22:53
KCLL 092253Z 15011KT 10SM CLR 37/20 A2986 RMK AO2 SLP104 T03670200

2010/08/09 22:53
KDRT 092253Z AUTO 14014G17KT 10SM CLR 37/18 A2981 RMK AO2 SLP074 T03720183

2010/08/09 22:52
KMFD 092252Z 19008KT 8SM CLR 29/17 A2999 RMK AO2 SLP144 T02940167

2010/08/09 22:50
KSOW 092250Z AUTO 26007KT 10SM SCT080 25/08 A3022 RMK AO2

2010/08/09 22:52
KTOL 092252Z 19003KT 6SM HZ SCT050 BKN075 29/21 A2992 RMK AO2 SLP126 T02890211

2010/08/09 22:52
KBLU 092252Z AUTO 22005KT 10SM CLR 21/07 A3009 RMK AO2 SLP102 T02110067 TSNO

2010/08/09 22:52
KCZZ 092252Z AUTO 23011KT 29/03 A2988 RMK AO2 SLP091 T02890028 PWINO TSNO

2010/08/09 22:52
K9V9 092252Z AUTO 13009KT 30/22 A2988 RMK AO2 SLP103 T03000222 PWINO TSNO

2010/08/09 22:53
KLND 092253Z AUTO 20014G18KT 10SM CLR 29/02 A2994 RMK AO2 PK WND 19026/2241 WSHFT 2140 SLP065 T02940022

2010/08/09 22:53
KP92 092253Z AUTO 01007KT 340V050 24/23 A2997 RMK AO2 PRESFR SLP148 T02440233 PWINO TSNO

2010/08/09 22:53
KLAX 092253Z 26011KT 10SM CLR 19/12 A2990 RMK AO2 SLP124 T01940122 $

2010/08/09 22:53
KCQC 092253Z AUTO 16010KT 10SM FEW075 BKN090 24/11 A3018 RMK AO2 WSHFT 2208 SLP122 T02390111 TSNO

2010/08/09 22:53
KMGM 092253Z 18005KT 10SM CLR 35/20 A2992 RMK AO2 SLP126 T03500200

2010/08/09 22:53
KMCN 092253Z 04007KT 8SM CLR 34/21 A2995 RMK AO2 SLP135 T03390206

2010/08/09 22:51
KVCT 092251Z 12012KT 10SM CLR 34/24 A2987 RMK AO2 SLP112 T03440244

2010/08/09 22:53
KTUP 092253Z 20007KT 10SM TS CLR 29/24 A2995 RMK AO2 TSB30 SLP136 T02940239

2010/08/09 22:53
KDAB 092253Z 09009G14KT 10SM FEW023 SCT250 29/24 A2991 RMK AO2 SLP129 TCU DSNT W T02890239

2010/08/09 22:53
KCHA 092253Z 15004KT 10SM FEW060 BKN095 BKN120 BKN250 34/22 A2995 RMK AO2 SLP134 CB DSNT NW T03390217 $

2010/08/09 22:53
KCTY 092253Z AUTO 06004KT 32/25 A2989 RMK AO2 SLP121 T03170250 PWINO TSNO

2010/08/09 22:53
KTYS 092253Z 09004KT 10SM FEW060 34/21 A2996 RMK AO2 SLP132 T03390206

2010/08/09 22:53
KBTR 092253Z 24004KT 8SM -RA FEW006 SCT039 BKN110 25/24 A2993 RMK AO2 TSE45RAB2158 SLP133 CB DSNT S-SW MOVG SW TS MOVD SW P0005 T02500244

2010/08/09 22:53
K6R6 092253Z AUTO 10006KT 31/19 A2990 RMK AO2 SLP087 T03110194 PWINO TSNO

2010/08/09 22:53
KTRI 092253Z 00000KT 10SM FEW050 SCT065 SCT250 33/17 A3001 RMK AO2 SLP143 T03330167

2010/08/09 22:51
KSAN 092251Z 32009KT 10SM CLR 22/14 A2990 RMK AO2 SLP126 T02170139

2010/08/09 22:51
KBVE 092251Z AUTO 30006KT CLR 28/25 A2994 RMK AO2 SLP136 T02780250 TSNO $

2010/08/09 22:51
KCAK 092251Z 24005KT 7SM SCT065 BKN130 BKN180 28/19 A2998 RMK AO2 SLP144 T02830189

2010/08/09 22:53
KCNY 092253Z AUTO 25010G17KT 10SM FEW120 30/01 A3000 RMK AO2 SLP101 T03000011 $

2010/08/09 22:52
KABI 092252Z 18011KT 10SM CLR 37/17 A2989 RMK AO2 SLP088 T03670167

2010/08/09 22:53
KBFF 092253Z AUTO 29005KT 10SM CLR 31/13 A2995 RMK AO2 SLP090 T03060133

2010/08/09 22:53
KBIL 092253Z 28013KT 10SM FEW029 BKN100 BKN120 20/14 A2988 RMK AO2 WSHFT 2156 TSE31RAE22 SLP095 OCNL LTG DSNT N-E SHRA DSNT SW-E CB DSNT N-E P0008 T02000139

2010/08/09 22:53
KFMN 092253Z 27008G14KT 240V300 10SM CLR 30/05 A3010 RMK AO2 SLP124 T03000050

2010/08/09 22:53
KFNB 092253Z AUTO 18006KT 10SM CLR 37/24 A2980 RMK AO2 SLP078 T03720244

2010/08/09 22:53
KGEG 092253Z 24013G17KT 10SM FEW075 SCT140 BKN200 27/06 A2979 RMK AO2 WSHFT 2157 SLP074 T02720056

2010/08/09 22:53
KGRR 092253Z 22005KT 10SM BKN032 28/23 A2992 RMK AO2 SLP125 T02830228

2010/08/09 22:53
KHLC 092253Z AUTO 09012G18KT 10SM VCTS CLR 35/18 A2983 RMK AO2 LTG DSNT E TSB2156 SLP071 T03500178

2010/08/09 22:53
KHSI 092253Z AUTO 07008KT 10SM CLR 32/24 A2987 RMK AO2 SLP092 T03220244

2010/08/09 22:53
KPSX 092253Z AUTO 19016KT 10SM CLR 34/26 A2988 RMK AO2 SLP118 T03390256

2010/08/09 22:50
KPTT 092250Z AUTO 17012G17KT 10SM CLR 37/15 A2985 RMK AO2

2010/08/09 22:47
KPVJ 092247Z AUTO 22003KT 10SM CLR 32/22 A2987 RMK AO2 LTG DSNT S THRU NW

2010/08/09 22:52
KRAP 092252Z 15015G23KT 10SM CLR 22/14 A2993 RMK AO2 PK WND 23028/2222 LTG DSNT NE-SE TSB09E32RAE39 SLP115 P0000 T02220139

2010/08/09 22:53
KRKP 092253Z AUTO 12014KT 10SM CLR 33/26 A2987 RMK AO2 SLP115 T03280256

2010/08/09 22:49
KSEZ 092249Z AUTO 00000KT 10SM SCT085 SCT120 30/08 A3008 RMK AO2 T02960083

2010/08/09 22:53
KSNL 092253Z AUTO 17008KT 10SM CLR 38/20 A2988 RMK AO2

2010/08/09 22:55
KSOP 092255Z AUTO 20005KT 10SM CLR 33/20 A2998 RMK AO1

2010/08/09 22:53
KSSF 092253Z 13008G20KT 10SM FEW065 37/18 A2984 RMK AO2 SLP091 T03670183

2010/08/09 22:45
KSVC 092245Z AUTO 32013G17KT 10SM CLR 30/07 A3010 RMK AO2

2010/08/09 22:50
KSZT 092250Z AUTO 24008KT 10SM SCT070 27/13 A2978 RMK AO2

2010/08/09 22:50
KTEX 092250Z AUTO 25009G20KT 10SM BKN090 21/03 A3036 RMK AO2

2010/08/09 22:50
KTIF 092250Z AUTO 13007KT 10SM CLR 32/13 A2993 RMK AO2 T03180129

2010/08/09 22:52
KTMK 092252Z AUTO 30009KT 10SM OVC029 17/14 A3003 RMK AO2

2010/08/09 22:53
KTQH 092253Z AUTO 14005KT 10SM CLR 36/22 A2989 RMK AO2

2010/08/09 22:55
KUDG 092255Z 14004KT 10SM CLR 31/22 A3001 RMK AO1

2010/08/09 22:53
KUTS 092253Z AUTO 18007KT 10SM CLR 37/21 A2987 RMK AO2 SLP109 T03670206

2010/08/09 22:53
PAKU 092253Z 07026KT 7SM OVC006 05/04 A2975

2010/08/09 22:54
PALP 092254Z 06018KT 7SM OVC004 04/02 A2976

2010/08/09 22:52
PATA 092252Z 10006KT 10SM SCT015 OVC050 15/12 A2958 RMK AO2 SLP017 T01500122 $

2010/08/09 22:53
PHJR 092253Z 05008G16KT 360V100 10SM BKN050 29/15 A3009 RMK AO2 SLP197 T02940150

2010/08/09 22:53
KSGR 092253Z 15015G21KT 10SM CLR 33/24 A2988 RMK AO2 SLP124 T03330239

2010/08/09 22:53
KBKE 092253Z AUTO 14014G19KT 10SM BKN100 24/09 A2983 RMK AO2 LTG DSNT E AND SE SLP084 T02390089

2010/08/09 22:53
KBKV 092253Z AUTO 03004KT 10SM FEW080 29/25 A2988 RMK AO2 LTG DSNT S SLP115 T02890250

2010/08/09 22:53
KBLI 092253Z 17006KT 10SM FEW006 BKN017 OVC035 16/13 A2997 RMK AO2 RAB04E31 SLP153 P0001 T01560133

2010/08/09 22:53
KBMG 092253Z 25004KT 10SM CLR 32/23 A2994 RMK AO2 SLP128 T03220228

2010/08/09 22:53
KBNA 092253Z 15008KT 10SM TS SCT060CB BKN090 BKN180 OVC250 28/22 A2995 RMK AO2 TSB40RAB05E16 SLP134 OCNL LTGCGCA SE TS SE MOV SE P0000 T02830222

2010/08/09 22:53
KBOI 092253Z 30005KT 10SM CLR 31/06 A2980 RMK AO2 SLP058 T03110061

2010/08/09 22:55
KBOW 092255Z AUTO 13007KT 9SM CLR 30/23 A2988 RMK AO2 LTG DSNT E

2010/08/09 22:53
KBPI 092253Z AUTO 25019G24KT 10SM FEW110 24/M02 A3012 RMK AO2 PK WND 24028/2205 SLP105 T02391017 TSNO

2010/08/09 22:53
KBPK 092253Z AUTO 19004KT 9SM CLR 34/26 A2990 RMK AO2 SLP113 T03390256

2010/08/09 22:53
KBRD 092253Z AUTO 17004KT 10SM CLR 31/18 A2993 RMK AO2 SLP128 T03110183

2010/08/09 22:53
KBRL 092253Z AUTO 12005KT 10SM CLR 32/26 A2989 RMK AO2 SLP115 T03220256

2010/08/09 22:53
KBTL 092253Z 23006KT 9SM SCT022 28/23 A2995 RMK AO2 SLP133 T02780228

2010/08/09 22:53
KBTM 092253Z AUTO 20012KT 10SM SCT100 23/06 A2996 RMK AO2 SLP101 T02280056

2010/08/09 22:53
KBUR 092253Z 17009KT 10SM CLR 26/11 A2987 RMK AO2 SLP102 T02610106

2010/08/09 22:53
KBVO 092253Z 17006KT 10SM CLR 37/22 A2985 RMK AO2 SLP094 T03670217

2010/08/09 22:53
KBVY 092253Z 26007KT 10SM FEW070 BKN110 31/17 A2986 RMK AO2 SLP104 T03110167

2010/08/09 22:53
KBWG 092253Z AUTO 11005KT 10SM CLR 34/23 A2992 RMK AO2 SLP125 T03440228

2010/08/09 22:53
KBYI 092253Z AUTO 06004KT 10SM SCT110 26/10 A2994 RMK AO2 SLP092 T02560100

2010/08/09 22:53
KCCR 092253Z 28012KT 10SM CLR 27/12 A2984 RMK AO2 SLP092 T02670117

2010/08/09 22:53
KCDC 092253Z AUTO 24014G20KT 10SM CLR 27/M01 A3011 RMK AO2 SLP128 T02671006

2010/08/09 22:55
KCDN 092255Z AUTO 12005KT 10SM CLR 33/24 A2999 RMK A02 P000

2010/08/09 22:53
KCGI 092253Z AUTO 19004KT 10SM CLR 33/26 A2989 RMK AO2 SLP117 T03330256 TSNO

2010/08/09 22:53
KCHO 092253Z 22010G16KT 180V270 9SM CLR 32/20 A2997 RMK AO2 SLP141 T03220200

2010/08/09 22:55
KCKI 092255Z AUTO 00000KT 10SM CLR 28/25 A2998 RMK AO2

2010/08/09 22:53
KIDA 092253Z 22011G17KT 10SM SCT045 BKN100 23/08 A3002 RMK AO2 PK WND 23026/2204 SLP124 T02330083

2010/08/09 22:53
KILM 092253Z AUTO 19010KT 10SM FEW025 SCT110 28/23 A3001 RMK AO2 SLP162 T02830228 TSNO

2010/08/09 22:53
KCPS 092253Z 00000KT 10SM HZ CLR 33/27 A2989 RMK AO2 SLP115 T03280267

2010/08/09 22:53
KCSV 092253Z AUTO VRB03KT 9SM CLR 28/23 A3005 RMK AO2 SLP151 T02830228

2010/08/09 22:51
KDAG 092251Z AUTO 06010G16KT 10SM CLR 37/M06 A2980 RMK AO2 SLP062 T03721056 TSNO

2010/08/09 22:53
KDAN 092253Z AUTO 20004KT 8SM FEW090 32/21 A2999 RMK AO2 SLP144 T03220206

2010/08/09 22:53
KDCU 092253Z AUTO 30008KT 10SM CLR 31/22 A2996 RMK AO2 SLP137 T03060222

2010/08/09 22:53
KDEW 092253Z AUTO 19007G16KT 10SM FEW080 27/07 A2978 RMK AO2 SLP076 T02670067

2010/08/09 22:53
KDHT 092253Z AUTO 19011KT 10SM FEW080 33/14 A2996 RMK AO2 SLP082 T03330139

2010/08/09 22:53
KDLN 092253Z AUTO 18012G22KT 10SM BKN050 BKN080 14/11 A3000 RMK AO2 WSHFT 2145 RAB36E52 SLP127 P0001 T01440106

2010/08/09 22:53
KDLS 092253Z AUTO 32021G28KT 10SM CLR 26/08 A2982 RMK AO2 PK WND 32028/2251 SLP095 T02560083 $

2010/08/09 22:53
KDMO 092253Z AUTO 22008KT 10SM CLR 35/24 A2989 RMK AO2 SLP112 T03500239

2010/08/09 22:53
KDNL 092253Z AUTO 12005KT 10SM CLR 33/20 A2998 RMK AO2 SLP144 T03280200

2010/08/09 22:53
KDVT 092253Z 00000KT 10SM CLR 36/10 A2981 RMK AO2 SLP066 T03610100

2010/08/09 22:55
KDYB 092255Z AUTO 12003KT 10SM SCT029 SCT033 SCT060 30/24 A2997 RMK AO1

2010/08/09 22:53
KEET 092253Z AUTO 00000KT 10SM CLR 34/21 A2993 RMK AO2 SLP127 T03390211

2010/08/09 22:53
KELN 092253Z AUTO 31022G33KT 10SM CLR 23/10 A2981 RMK AO2 PK WND 31036/2213 SLP084 T02330100

2010/08/09 22:53
KENW 092253Z 32005KT 10SM CLR 30/23 A2991 RMK AO2 SLP123 T03000228

2010/08/09 22:53
KEPH 092253Z AUTO 24007G16KT 10SM CLR 29/07 A2973 RMK AO2 SLP056 T02940072

2010/08/09 22:53
KEQY 092253Z AUTO 18003KT 10SM FEW100 31/22 A2999 RMK AO2 SLP152 T03110222

2010/08/09 22:53
KEWB 092253Z 22012KT 10SM CLR 27/20 A2992 RMK AO2 SLP129 T02670200

2010/08/09 22:53
KEYE 092253Z AUTO VRB03KT 10SM CLR 33/20 A2993 RMK AO2 SLP128 T03280200

2010/08/09 22:53
KEYW 092253Z 27006KT 10SM FEW070 27/24 A2988 RMK AO2 SLP119 T02670239

2010/08/09 22:53
KFAY 092253Z AUTO 11007KT 10SM CLR 33/18 A2997 RMK AO2 SLP143 T03280183

2010/08/09 22:53
KFCM 092253Z 12008KT 10SM CLR 33/19 A2990 RMK AO2 SLP119 T03280194

2010/08/09 22:53
KFFC 092253Z AUTO 13005KT 8SM CLR 32/22 A2997 RMK AO2 SLP142 T03220222

2010/08/09 22:53
KFFT 092253Z AUTO 30003KT 10SM CLR 33/20 A2995 RMK AO2 SLP132 T03330200

2010/08/09 22:53
KFHR 092253Z AUTO 00000KT 10SM SCT042 BKN065 OVC090 15/13 A2998 RMK AO2 SLP153 T01500128

2010/08/09 22:53
KOVE 092253Z AUTO 14007KT 10SM CLR 31/13 A2982 RMK AO2 SLP099 T03110128 TSNO $

2010/08/09 22:53
KIPL 092253Z AUTO 21005KT 10SM CLR 39/01 A2969 RMK AO2 SLP056 T03890011

2010/08/09 22:53
KIWI 092253Z AUTO 18004KT 10SM CLR 24/19 A2988 RMK AO2 SLP116 T02390189

2010/08/09 22:53
KIXD 092253Z 17008KT 10SM CLR 36/21 A2988 RMK AO2 SLP101 T03610211

2010/08/09 22:51
KJCT 092251Z AUTO 13011KT 10SM BKN090 37/17 A2988 RMK AO2 SLP074 T03670167 TSNO

2010/08/09 22:53
KJEF 092253Z 12006KT 10SM CLR 34/26 A2987 RMK AO2 SLP099 T03390261

2010/08/09 22:53
KJER 092253Z AUTO 14008KT 10SM FEW080 27/08 A2992 RMK AO2 LTG DSNT S AND SW SLP092 T02670078

2010/08/09 22:53
KJKL 092253Z AUTO 00000KT 10SM CLR 32/19 A3001 RMK AO2 SLP144 T03170194

2010/08/09 22:55
KJZI 092255Z AUTO 14007KT 10SM FEW018 29/29 A2998 RMK A02 P000

2010/08/09 22:53
KLBF 092253Z AUTO 13007KT 10SM CLR 31/22 A2991 RMK AO2 SLP098 T03060222

2010/08/09 22:53
KLEB 092253Z 00000KT 10SM VCTS -RA SCT016 BKN065 BKN080 21/18 A2989 RMK AO2 PK WND 23029/2230 WSHFT 2226 LTG DSNT W-N SLP113 P0036 T02060178

2010/08/09 22:53
KLGB 092253Z 18007KT 10SM CLR 23/13 A2988 RMK AO2 SLP117 T02330128

2010/08/09 22:53
KLHQ 092253Z AUTO 00000KT 8SM CLR 30/19 A2997 RMK AO2 SLP143 T03000194

2010/08/09 22:55
KLKR 092255Z AUTO 00000KT 6SM HZ CLR 30/27 A3000 RMK AO2

2010/08/09 22:53
KMTH 092253Z AUTO 20008KT 10SM SCT012 BKN019 OVC060 27/24 A2989 RMK AO2 LTG DSNT S SLP120 T02670239

2010/08/09 22:53
KMTO 092253Z AUTO 17003KT 9SM CLR 32/26 A2992 RMK AO2 SLP123 T03170256

2010/08/09 22:53
KMVY 092253Z 22008KT 7SM SCT006 27/22 A2994 RMK AO2 SLP138 T02670222

2010/08/09 22:53
KMYF 092253Z 28010KT 10SM FEW020 23/14 A2989 RMK AO2 SLP117 T02280139

2010/08/09 22:53
KPNC 092253Z AUTO 17010G18KT 10SM CLR 37/21 A2983 RMK AO2 SLP084 T03720206

2010/08/09 22:53
KPRB 092253Z AUTO A2985 RMK AO2 SLPNO PWINO FZRANO TSNO

2010/08/09 22:53
KPRC 092253Z 23011G16KT 10SM BKN090TCU 29/04 A3009 RMK AO2 SLP111 TCU ALQDS T02890044

2010/08/09 22:53
KPSC 092253Z 22006KT 10SM CLR 31/04 A2972 RMK AO2 SLP059 T03110044

2010/08/09 22:55
KPSO 092255Z AUTO 24010G18KT 10SM CLR 25/01 A3023 RMK AO2

2010/08/09 22:53
KPSP 092253Z VRB04KT 10SM CLR 38/M01 A2973 RMK AO2 SLP063 T03831011

2010/08/09 22:53
KPUW 092253Z AUTO 26006KT 10SM CLR 27/06 A2983 RMK AO2 SLP089 T02670056

2010/08/09 22:53
KRAC 092253Z AUTO 17005KT 5SM HZ CLR 28/22 A2992 RMK AO2 SLP126 T02830217

2010/08/09 22:53
KRAL 092253Z 26012G16KT 10SM CLR 29/11 A2985 RMK AO2 SLP093 T02940106

2010/08/09 22:53
KRBG 092253Z AUTO 36008G18KT 10SM CLR 24/13 A2993 RMK AO2 SLP133 T02440128

2010/08/09 22:53
KRDD 092253Z 15011G14KT 10SM CLR 33/11 A2978 RMK AO2 SLP079 T03280106

2010/08/09 22:53
KRHI 092253Z AUTO 29004KT 10SM CLR 30/18 A2996 RMK AO2 SLP133 T03000183

2010/08/09 22:53
KRME 092253Z 30007KT 4SM -RA BR BKN043 OVC055 22/21 A2998 RMK AO2 SLP148 T02220211 PNO $

2010/08/09 22:53
KRNT 092253Z 17003KT 10SM OVC031 19/12 A2996 RMK AO2 SLP150 T01890122

2010/08/09 22:53
KRSL 092253Z AUTO 18011KT 10SM CLR 37/18 A2981 RMK AO2 SLP071 T03720183

2010/08/09 22:53
KRSW 092253Z AUTO 00000KT 10SM CLR 26/24 A2988 RMK AO2 SLP114 T02560239 TSNO

2010/08/09 22:53
KRUE 092253Z AUTO 00000KT 10SM BKN075 38/22 A2986 RMK AO2 SLP103 T03830217

2010/08/09 22:53
KRVS 092253Z 19008KT 10SM SCT070 38/20 A2984 RMK AO2 SLP104 T03830200

2010/08/09 22:53
KRWF 092253Z AUTO 09007KT 10SM CLR 32/22 A2990 RMK AO2 SLP116 T03170217

2010/08/09 22:53
KRWI 092253Z AUTO 00000KT 10SM CLR 31/21 A2998 RMK AO2 SLP152 T03110206

2010/08/09 22:53
KRXE 092253Z AUTO 25005G16KT 10SM -TSRA FEW027 SCT047 BKN055 18/13 A3003 RMK AO2 LTG DSNT NE AND E TSB13E28B34RAB29 SLP133 P0003 T01780133

2010/08/09 22:53
KSAC 092253Z 23008KT 10SM CLR 29/13 A2982 RMK AO2 SLP097 T02890133

2010/08/09 22:53
KSAF 092253Z 36013G17KT 10SM BKN085 29/11 A3012 RMK AO2 LTG DSNT N SLP090 T02890106

2010/08/09 22:50
KSAW 092250Z 04009KT 10SM SKC 26/20 A2991

2010/08/09 22:53
KSBA 092253Z 24008KT 10SM CLR 19/13 A2989 RMK AO2 SLP120 T01940133

2010/08/09 22:53
KSBM 092253Z AUTO 00000KT 10SM CLR 30/22 A2990 RMK AO2 SLP119 T03000222

2010/08/09 22:53
KSDL 092253Z VRB03KT 10SM CLR 37/09 A2982 RMK AO2 SLP069 T03720094

2010/08/09 22:53
KSFF 092253Z 24015G20KT 10SM FEW080 28/06 A2978 RMK AO2 SLP069 T02830056

2010/08/09 22:53
KMYV 092253Z AUTO 20007KT 170V250 10SM CLR 32/13 A2981 RMK AO2 SLP096 T03170128

2010/08/09 22:53
KOAK 092253Z 29015KT 10SM FEW016 19/12 A2990 RMK AO2 SLP125 T01890117

2010/08/09 22:53
KOGD 092253Z AUTO 22008KT 10SM CLR 27/03 A2999 RMK AO2 RAE2155 SLP095 P0000 T02720033

2010/08/09 22:53
KOJC 092253Z 18008KT 10SM CLR 36/23 A2987 RMK AO2 SLP098 T03560228

2010/08/09 22:53
KOLF 092253Z AUTO 11007KT 10SM CLR 32/12 A2979 RMK AO2 SLP078 T03170117

2010/08/09 22:53
KOMK 092253Z AUTO 23007KT 10SM CLR 29/06 A2970 RMK AO2 SLP049 T02890061

2010/08/09 22:53
KONO 092253Z AUTO 10003KT 10SM CLR 31/09 A2977 RMK AO2 LTG DSNT SW SLP061 T03110094

2010/08/09 22:53
KOPF 092253Z 15011KT 10SM FEW047 SCT075 28/23 A2989 RMK AO2 SLP121 T02780233

2010/08/09 22:53
KORL 092253Z 12011KT 10SM FEW033 30/23 A2989 RMK AO2 SLP123 T03000228

2010/08/09 22:53
KOSH 092253Z 24004KT 9SM CLR 30/23 A2989 RMK AO2 SLP106 T03000228

2010/08/09 22:53
KOSU 092253Z 23005KT 9SM CLR 30/20 A2997 RMK AO2 SLP140 T03000200 $

2010/08/09 22:53
KOTM 092253Z AUTO 17004KT 10SM CLR 29/24 A2990 RMK AO2 SLP117 T02940244

2010/08/09 22:53
KHSV 092253Z 32005KT 10SM OVC130 31/23 A2996 RMK AO2 SLP135 T03110233

2010/08/09 22:53
KHVR 092253Z AUTO 08009KT 10SM CLR 32/08 A2977 RMK AO2 SLP063 T03220083

2010/08/09 22:51
KCRP 092251Z 12012G19KT 10SM FEW030 33/24 A2986 RMK AO2 SLP109 CB DSNT SW T03330244

2010/08/09 22:53
KCRQ 092253Z VRB05KT 10SM CLR 22/14 A2989 RMK AO2 SLP118 T02170139

2010/08/09 22:53
KDBQ 092253Z 16003KT 10SM FEW080 29/23 A2994 RMK AO2 SLP130 T02940233

2010/08/09 22:53
KDMN 092253Z AUTO 24010G16KT 10SM CLR 33/07 A2999 RMK AO2 PK WND 25026/2239 SLP075 T03330072

2010/08/09 22:53
KEMP 092253Z AUTO 15010KT 10SM CLR 36/20 A2986 RMK AO2 SLP096 T03610200

2010/08/09 22:53
KFAT 092253Z VRB04KT 10SM FEW080 34/10 A2980 RMK AO2 SLP088 FEW CU DSNT N NE E-SE T03390100

2010/08/09 22:53
KELY 092253Z AUTO VRB04G17KT 10SM SCT110 26/M03 A3009 RMK AO2 SLP094 T02611028

2010/08/09 22:53
KBNO 092253Z AUTO 12015G18KT 10SM BKN090 26/07 A2988 RMK AO2 RAE04 SLP081 P0000 T02560067 TSNO

2010/08/09 22:53
KHTL 092253Z AUTO 27006KT 10SM CLR 28/22 A2991 RMK AO2 SLP122 T02780222

2010/08/09 22:53
KMSN 092253Z 04004KT 10SM FEW036 31/23 A2991 RMK AO2 SLP120 T03060228

2010/08/09 22:53
KTLH 092253Z 05007KT 10SM FEW060 34/20 A2990 RMK AO2 SLP125 CB DSNT E AND SE T03440200

2010/08/09 22:53
KNUI 092253Z AUTO 14006KT 10SM CLR 29/22 A2997 RMK AO2 SLP148 T02890217

2010/08/09 22:53
KTCS 092253Z AUTO 00000KT 10SM BKN090 31/09 A3002 RMK AO2 SLP078 T03060089 TSNO

2010/08/09 22:53
KJBR 092253Z AUTO 16011KT 10SM CLR 33/26 A2988 RMK AO2 SLP114 T03330261

2010/08/09 22:53
KJLN 092253Z 20006KT 10SM SCT065 36/22 A2989 RMK AO2 SLP105 T03560222

2010/08/09 22:53
KLIT 092253Z 16009KT 10SM FEW050 BKN250 36/24 A2987 RMK AO2 SLP115 T03610239

2010/08/09 22:53
KLWD 092253Z AUTO 16004KT 10SM CLR 33/26 A2988 RMK AO2 SLP105 T03280261

2010/08/09 22:53
KPOF 092253Z AUTO 10004KT 10SM CLR 34/26 A2988 RMK AO2 LTG DSNT W TSB25E40 SLP111 T03390261

2010/08/09 22:53
KRIW 092253Z AUTO 29011KT 10SM FEW110 28/03 A2994 RMK AO2 WSHFT 2239 SLP066 T02830033

2010/08/09 22:53
KRMG 092253Z AUTO 20003KT 10SM CLR 35/19 A2994 RMK AO2 SLP128 T03500189

2010/08/09 22:51
KSAN 092251Z 32009KT 10SM CLR 22/14 A2990 RMK AO2 SLP126 T02170139

2010/08/09 22:53
KSEA 092253Z 19004KT 10SM OVC026 18/12 A2998 RMK AO2 SLP157 T01780117

2010/08/09 22:53
KODX 092253Z AUTO VRB03KT 10SM FEW040 32/22 A2987 RMK AO2 SLP102 T03220222

2010/08/09 22:51
KORF 092251Z 12005KT 10SM CLR 29/19 A2998 RMK AO2 SLP152 T02940194 $

2010/08/09 22:53
KPDX 092253Z 00000KT 10SM BKN035 OVC250 18/11 A2999 RMK AO2 SLP156 T01830111

2010/08/09 22:53
KPGA 092253Z AUTO VRB03KT 10SM CLR 31/03 A3001 RMK AO2 SLP097 T03110028

2010/08/09 22:53
KSTC 092253Z 06005KT 10SM CLR 32/21 A2991 RMK AO2 SLP130 T03220206 $

2010/08/09 22:53
KTUS 092253Z 24005KT 10SM CLR 36/13 A2990 RMK AO2 SLP070 T03560133

2010/08/09 22:53
KYKM 092253Z 00000KT 10SM SCT080 29/07 A2975 RMK AO2 SLP066 T02890072

2010/08/09 22:53
KAAF 092253Z AUTO VRB03KT 10SM CLR 32/24 A2989 RMK AO2 SLP122 T03220244

2010/08/09 22:53
KCDR 092253Z AUTO 06011KT 10SM CLR 28/14 A2995 RMK AO2 SLP118 T02780144

2010/08/09 22:53
KDAL 092253Z 15013G20KT 10SM FEW070 36/20 A2984 RMK AO2 SLP096 T03610200

2010/08/09 22:50
KESN 092250Z 21009KT 7SM SKC 32/20 A3000

2010/08/09 22:53
KFNT 092253Z AUTO VRB03KT 6SM -RA BR FEW006 SCT023 BKN032 23/22 A2993 RMK AO2 RAB28 SLP131 P0003 T02330222 TSNO

2010/08/09 22:53
KGCC 092253Z AUTO 21018G25KT 10SM CLR 32/04 A2987 RMK AO2 SLP066 T03170044

2010/08/09 22:53
PHTO 092253Z 08008KT 10SM FEW020 BKN065 27/18 A3008 RMK AO2 SLP185 T02720178

2010/08/09 22:53
PHKO 092253Z 20011KT 10SM BKN060 28/19 A3003 RMK AO2 SLP168 T02830194

2010/08/09 22:53
PHLI 092253Z 06012KT 10SM CLR 29/20 A3013 RMK AO2 SLP199 T02940200

2010/08/09 22:53
KFAR 092253Z 21008KT 10SM CLR 33/18 A2987 RMK AO2 SLP110 T03280183

2010/08/09 22:53
KLAN 092253Z 22009KT 10SM SCT031 BKN039 28/22 A2993 RMK AO2 SLP130 T02830217

2010/08/09 22:53
KTVC 092253Z 28003KT 8SM SCT034 SCT070 29/23 A2988 RMK AO2 SLP114 T02890228

2010/08/09 22:53
KTVL 092253Z AUTO 19011G17KT 10SM FEW060 24/07 A3009 RMK AO2 SLP135 T02440067

2010/08/09 22:53
KTVR 092253Z AUTO 33008G19KT 5SM TS HZ SCT075 BKN095 30/23 A2993 RMK AO2 LTG DSNT ALQDS SLP139 T03000228

2010/08/09 22:53
KUAO 092253Z AUTO 07006KT 10SM CLR 21/09 A2999 RMK AO2 SLP155 T02110094

2010/08/09 22:53
KUNO 092253Z AUTO 09009KT 10SM CLR 36/22 A2993 RMK AO2 LTG DSNT E AND SE AND NW TSB26E42 SLP117 T03560217

2010/08/09 22:53
KUUU 092253Z AUTO 20007KT 8SM CLR 24/21 A2994 RMK AO2 SLP137 T02390211

2010/08/09 22:53
KVCB 092253Z AUTO 18009KT 10SM CLR 30/12 A2982 RMK AO2 SLP097 T03000122

2010/08/09 22:53
KVEL 092253Z AUTO 21009KT 10SM CLR 28/M02 A3004 RMK AO2 SLP111 T02781017

2010/08/09 22:53
KVIH 092253Z AUTO 09005KT 10SM CLR 34/25 A2991 RMK AO2 SLP113 T03390250

2010/08/09 22:53
KVPC 092253Z AUTO 15004KT 9SM CLR 33/22 A2997 RMK AO2 SLP134 T03330217

2010/08/09 22:53
KVPZ 092253Z AUTO 24006KT 10SM BKN100 29/21 A2993 RMK AO2 SLP130 T02940211

2010/08/09 22:50
KVQQ 092250Z VRB06KT 10SM SCT028 29/25 A2993

2010/08/09 22:53
KVRB 092253Z 12014KT 10SM FEW100 29/23 A2990 RMK AO2 SLP125 T02890233

2010/08/09 22:53
KVUO 092253Z AUTO 00000KT 10SM OVC037 19/12 A2998 RMK AO2 SLP153 T01940117

2010/08/09 22:53
KWRL 092253Z AUTO 17015G19KT 10SM 33/03 A2981 RMK AO2 LTG DSNT W SLP046 T03280028 $

2010/08/09 22:53
KWST 092253Z AUTO 23006KT 8SM CLR 26/21 A2995 RMK AO2 SLP139 T02610211

2010/08/09 22:53
KWVI 092253Z AUTO 24010KT 10SM CLR 18/12 A2992 RMK AO2 SLP132 T01830117

2010/08/09 22:53
KXNA 092253Z AUTO 19007KT 10SM CLR 36/20 A2992 RMK AO2 SLP113 T03560200 TSNO

2010/08/09 22:53
KABY 092253Z 10006KT 10SM CLR 34/20 A2994 RMK AO2 SLP137 T03440200

2010/08/09 22:53
KADG 092253Z AUTO 00000KT 9SM CLR 25/22 A2996 RMK AO2 RAB2155E36 SLP141 P0000 T02500222

2010/08/09 22:53
KAFW 092253Z 13009KT 10SM FEW070 38/19 A2984 RMK AO2 SLP083 T03830194 $

2010/08/09 22:53
KAGC 092253Z 23007KT 10SM CLR 30/16 A2999 RMK AO2 SLP151 T03000161

2010/08/09 22:53
KAIA 092253Z AUTO 32004KT 10SM BKN085 31/12 A2995 RMK AO2 LTG DSNT NE AND E SLP097 T03110122

2010/08/09 22:53
KAKO 092253Z AUTO 11014G21KT 10SM FEW060 31/15 A2999 RMK AO2 SLP090 T03060150 TSNO

2010/08/09 22:53
KAMG 092253Z AUTO 11007KT 10SM FEW060 32/22 A2993 RMK AO2 SLP133 T03220222

2010/08/09 22:53
KAPA 092253Z 29010G15KT 10SM BKN060 BKN100 25/13 A3010 RMK AO2 RAB25E43 SLP121 OCNL LTGIC DSNT W-N P0000 T02500133

2010/08/09 22:53
KARB 092253Z AUTO 00000KT 10SM BKN070 25/22 A2993 RMK AO2 SLP131 T02500222

2010/08/09 22:53
KASE 092253Z 33006G16KT 10SM SCT060 BKN090 18/09 A3025 RMK AO2 SLP136 T01830089

2010/08/09 22:53
KBBW 092253Z AUTO 13004KT 10SM CLR 31/22 A2991 RMK AO2 SLP101 T03060222

2010/08/09 22:53
KBGM 092253Z 33003KT 9SM FEW070 BKN080 28/16 A2998 RMK AO2 SLP138 T02780161

2010/08/09 22:53
KBKL 092253Z 00000KT 6SM HZ FEW090 28/22 A2993 RMK AO2 SLP131 T02830217

2010/08/09 22:53
KBYG 092253Z AUTO 16016G29KT 10SM FEW110 27/07 A2992 RMK AO2 PK WND 16039/2217 WSHFT 2151 LTG DSNT NE SLP071 T02720072

2010/08/09 22:53
KCAG 092253Z AUTO 14008KT 10SM CLR 23/10 A3014 RMK AO2 SLP146 T02330100

2010/08/09 22:53
KCDS 092253Z AUTO 20008KT 10SM CLR 36/20 A2987 RMK AO2 LTG DSNT SE SLP083 T03560200

2010/08/09 22:53
KCDW 092253Z VRB03KT 8SM CLR 32/18 A2991 RMK AO2 SLP133 T03170183 $

2010/08/09 22:53
KCEW 092253Z AUTO 00000KT 10SM CLR 34/24 A2992 RMK AO2 SLP127 T03390239

2010/08/09 22:53
KCEZ 092253Z AUTO 29011G14KT 10SM FEW110 26/05 A3015 RMK AO2 SLP131 T02610050

2010/08/09 22:53
KCKB 092253Z 21004KT 8SM CLR 28/19 A3000 RMK AO2 SLP143 T02830194

2010/08/09 22:53
KCPR 092253Z 19018G23KT 10SM CLR 28/05 A3002 RMK AO2 SLP094 T02780050

2010/08/09 22:53
KCRE 092253Z 18006KT 10SM BKN075 28/24 A2999 RMK AO2 SLP157 T02780244

2010/08/09 22:53
KCRG 092253Z 10009KT 10SM FEW022 29/24 A2994 RMK AO2 SLP137 T02940239

2010/08/09 22:53
KCRS 092253Z AUTO 15010KT 10SM CLR 37/19 A2986 RMK AO2 SLP104 T03670189

2010/08/09 22:52
KNRB 092252Z 11009KT 10SM FEW025TCU SCT040 BKN150 BKN250 30/23 A2994 RMK AO2 SLP137 TCU N T2 SET T03000233

2010/08/09 22:52
KNFW 092252Z 17010KT 10SM FEW070 38/18 A2987 RMK AO2 SLP101 T03830178

2010/08/09 22:53
KNIP 092253Z 11012KT 10SM SCT030 SCT130 BKN250 31/23 A2993 RMK AO2 SLP130 T2 SET T03060233

2010/08/09 22:55
KCEF 092255Z AUTO 18006KT 10SM FEW120 31/18 A2989 RMK AO2 CLDS LWR RWY05 SLP121 T03140179 PWINO $

2010/08/09 22:55
KGRF 092255Z AUTO VRB04KT 10SM BKN024 OVC029 18/12 A2997 RMK AO2 SLP150 T01840125

2010/08/09 22:55
KHMN 092255Z 29007KT 10SM CLR 33/11 A2997 RMK AO2A SLP063 T03320108 $

2010/08/09 22:55
KLRF 092255Z AUTO 09006KT 10SM CLR 36/26 A2988 RMK AO2 SLP116 T03590264

2010/08/09 22:52
KNHK 092252Z 14005KT 10SM SCT250 30/22 A2997 RMK AO2 SLP150 T03000222 $

2010/08/09 22:56
KNSI 092256Z 04004KT 7SM FEW011 18/12 A2991 RMK AO2 SLP124 T01790122 TSNO

2010/08/09 22:55
KRDR 092255Z AUTO 19010KT 10SM CLR 35/18 A2983 RMK AO2 SLP113 T03500181 $

2010/08/09 22:53
KDTS 092253Z AUTO 23003KT 10SM CLR 33/23 A2989 RMK AO2 SLP122 T03280233

2010/08/09 22:53
PHNL 092253Z 05014G20KT 10SM FEW033 SCT042 BKN055 30/16 A3009 RMK AO2 SLP188 T03000161

2010/08/09 22:53
KIAG 092253Z 23003KT 1 1/4SM RA BR FEW007 BKN017 BKN060 OVC130 23/22 A2995 RMK AO2 SLP137 P0007 T02330222

2010/08/09 22:53
KDNK 092253Z AUTO 17006KT 10SM FEW090 35/22 A2990 RMK AO2 SLP121 T03500217

2010/08/09 22:53
PABI 092253Z 20014G21KT 10SM FEW070 BKN100 BKN180 20/05 A2960 RMK AO2 WSHFT 2229 SLP020 VIRGA VC W T02000050

2010/08/09 22:53
KNQX 092253Z 23005KT 10SM SCT010 BKN020 BKN040 BKN140 27/24 A2988 RMK AO2 SLP116 T2 SET T02720244 $

2010/08/09 22:52
KNHK 092252Z 14005KT 10SM SCT250 30/22 A2997 RMK AO2 SLP150 T03000222 $

2010/08/09 22:56
KNSI 092256Z 04004KT 7SM FEW011 18/12 A2991 RMK AO2 SLP124 T01790122 TSNO

2010/08/09 22:55
KRDR 092255Z AUTO 19010KT 10SM CLR 35/18 A2983 RMK AO2 SLP113 T03500181 $

2010/08/09 22:55
KSZL 092255Z AUTO 20011KT 10SM CLR 35/25 A2987 RMK AO2 SLP107 T03540247 PNO $

2010/08/09 22:54
KBKB 092254Z AUTO 00000KT 10SM FEW060 36/23 A2988 RMK AO2 SLP143 T03610233 $

2010/08/09 22:54
KNFG 092254Z 24010KT 7SM CLR 22/13 A2988 RMK AO2 SLP116 T02170133

2010/08/09 22:53
PWAK 092253Z 07017KT 10SM FEW026 31/24 A3007 RMK AO2A

2010/08/09 22:54
KECG 092254Z 14008KT 10SM CLR 28/23 A2999 RMK AO2 SLP156 T02830233

2010/08/09 22:54
KFZY 092254Z AUTO 28010KT 1 1/2SM +RA BR SCT012 OVC023 22/20 A2996 RMK AO2 SLP143 P0009 T02170200

2010/08/09 22:54
KNKT 092254Z 17007KT 10SM FEW019 SCT080 28/23 A3001 RMK AO2 SLP158 T02830233

2010/08/09 22:55
PAEH 092255Z AUTO 16014G23KT 120V180 2 1/2SM OVC005 09/07 RMK AO1 VSBY 13/4V31/2 T00890073

2010/08/09 22:53
KLBB 092253Z 00000KT 10SM -TSRA FEW025 BKN060CB OVC120 21/19 A3002 RMK AO2 PK WND 27044/2210 WSHFT 2148 RAB2157 SLP121 OCNL LTGICCCG NE-SE-S TS NE-SE-S MOV NE P0097 T02110189 $

2010/08/09 22:53
KLXV 092253Z AUTO 19007KT 4SM -RA BR BKN036 BKN047 OVC055 13/12 A3038 RMK AO2 RAB34 SLP134 P0001 T01330117 TSNO

2010/08/09 22:53
KP68 092253Z AUTO 18005G15KT 27/M04 A3002 RMK AO2 SLP081 T02721044 PWINO TSNO

2010/08/09 22:53
KGNT 092253Z AUTO 00000KT 27/07 A3019 RMK AO2 SLP135 T02670067 PWINO TSNO

2010/08/09 22:53
KOQT 092253Z AUTO 00000KT 9SM CLR 33/23 A2999 RMK AO2 SLP136 T03330228 TSNO

2010/08/09 22:54
KJAN 092254Z 17006KT 8SM -TSRA BKN025 BKN060CB OVC095 26/24 A2993 RMK AO2 TSB01RAB22 SLP131 OCNL LTGICCG SW-W TS SW-W MOV W P0010 T02560239

2010/08/09 22:53
KCUT 092253Z AUTO 09006KT 10SM CLR 21/11 A3009 RMK AO2 SLP131 T02110111 TSNO

2010/08/09 22:53
KSAV 092253Z 09010KT 10SM FEW035TCU SCT110 BKN250 31/24 A2995 RMK AO2 SLP140 TCU N-E T03110239

2010/08/09 22:53
K40J 092253Z AUTO 07003KT 33/23 A2989 RMK AO2 SLP119 T03280228 PWINO TSNO

2010/08/09 22:53
KSDM 092253Z VRB05KT 10SM CLR 22/13 A2989 RMK AO2 SLP119 T02170133

2010/08/09 22:53
KMLU 092253Z 17003KT 10SM CLR 32/24 A2992 RMK AO2 SLP131 T03220244

2010/08/09 22:53
PABE 092253Z 17022G28KT 5SM -RA BR BKN009 BKN016 OVC022 10/09 A2940 RMK AO2 PK WND 17029/2219 RAE00B18 SLP956 P0000 T01000094

2010/08/09 22:53
PABT 092253Z 16005KT 10SM FEW028 BKN034 OVC050 16/08 A2957 RMK AO2 SLP020 SHRA VC N T01560083

2010/08/09 22:53
PACD 092253Z 23013G20KT 10SM SCT031 BKN050 BKN180 14/08 A2955 RMK AO2 SLP007 T01390078

2010/08/09 22:53
PAFA 092253Z 01005KT 10SM BKN085 BKN120 19/09 A2956 RMK AO2 SLP015 T01890089

2010/08/09 22:53
PAHO 092253Z VRB03KT 10SM FEW018 BKN045 OVC060 15/10 A2969 RMK AO2 SLP053 T01500100

2010/08/09 22:53
PAJN 092253Z 09007KT 10SM FEW025 BKN035 OVC050 16/11 A2999 RMK AO2 SLP154 MTN TPS PRTLY OBSCD ALQDS T01560106

2010/08/09 22:53
PAMC 092253Z 19007KT 130V210 10SM SCT015 BKN032 OVC075 13/11 A2954 RMK AO2 RAE16 SLP007 P0000 T01330106

2010/08/09 22:53
PANC 092253Z 15013G21KT 10SM BKN065 BKN085 17/09 A2964 RMK AO2 PK WND 14026/2223 SLP036 T01720094

2010/08/09 22:53
PANN 092253Z AUTO 09006KT 10SM BKN080 18/09 A2955 RMK AO2 SLP012 T01830089 TSNO

2010/08/09 22:53
PANT 092253Z 16003KT 10SM SCT005 OVC140 16/12 A3003 RMK AO2 SLP168 T01560122

2010/08/09 22:53
PAOM 092253Z 11016KT 10SM FEW014 BKN029 OVC060 12/10 A2936 RMK AO2 RAE18 CIG 022 NE SLP943 P0000 T01220100

2010/08/09 22:53
PAOR 092253Z 00000KT 10SM FEW025 BKN085 BKN150 18/08 A2966 RMK AO2 SLP043 T01830078

2010/08/09 22:53
PAOT 092253Z 08015KT 9SM -RA SCT014 SCT020 OVC049 14/13 A2944 RMK AO2 SLP969 P0000 T01440128

2010/08/09 22:53
PAQT 092253Z AUTO 06018G23KT 10SM OVC008 06/04 A2975 RMK AO2 SLP075 T00610039 TSNO

2010/08/09 22:53
PASN 092253Z 26011KT 2 1/2SM BR OVC003 10/09 A2931 RMK AO2 SLP926 VIS N 5 T01000094

2010/08/09 22:53
PATK 092253Z 00000KT 10SM OVC060 13/12 A2968 RMK AO2 RAB05E14 SLP053 P0000 T01330122

2010/08/09 22:53
PAYA 092253Z 11004KT 3SM -RA BR BKN007 OVC012 14/12 A2995 RMK AO2 CIG 004V010 SLP140 BAY TWR WND 120MMKT P0004 T01390122

2010/08/09 22:54
KBTV 092254Z 00000KT 10SM -RA FEW023 SCT047 BKN060 23/21 A2987 RMK AO2 RAB2157E10B49 SLP114 P0000 T02280206

2010/08/09 22:54
KROA 092254Z 16008KT 10SM FEW080 31/19 A3002 RMK AO2 SLP151 T03060189

2010/08/09 22:54
PHOG 092254Z 05021G32KT 10SM SCT055 31/14 A3005 RMK AO2 PK WND 05032/2245 SLP181 T03110139

2010/08/09 22:54
KLEX 092254Z 00000KT 10SM CLR 33/19 A2997 RMK AO2 SLP136 T03330189

2010/08/09 22:54
KLYH 092254Z 13004KT 9SM CLR 30/22 A3002 RMK AO2 SLP153 T03000217

2010/08/09 22:54
KBUF 092254Z 36013KT 2SM RA BR FEW015 BKN045 OVC060 23/22 A2996 RMK AO2 SLP141 P0001 T02280217

2010/08/09 22:54
KCOS 092254Z 20009KT 10SM BKN110 24/14 A3014 RMK AO2 SLP119 T02440139

2010/08/09 22:54
KCRW 092254Z 00000KT 10SM CLR 31/19 A2999 RMK AO2 SLP144 T03110194

2010/08/09 22:53
KTDZ 092253Z AUTO 21004KT 7SM FEW042 BKN060 31/21 A2993 RMK AO2 SLP130 T03060206

2010/08/09 22:53
KTHV 092253Z AUTO 00000KT 9SM CLR 31/19 A2995 RMK AO2 SLP138 T03060194

2010/08/09 22:53
KTKI 092253Z 15010G14KT 10SM CLR 36/20 A2985 RMK AO2 SLP101 T03610200

2010/08/09 22:53
KTOR 092253Z AUTO 36005KT 10SM CLR 28/13 A2995 RMK AO2 SLP092 T02830128

2010/08/09 22:53
KTPA 092253Z 09005KT 6SM -RA BR SCT020TCU BKN050 BKN250 27/25 A2987 RMK AO2 TSE47RAE12B32 SLP114 TCU N AND S P0005 T02720250

2010/08/09 22:53
KTRL 092253Z AUTO 17010G17KT 10SM FEW070 37/18 A2987 RMK AO2 SLP106 T03670178

2010/08/09 22:53
KTTN 092253Z 25010KT 7SM CLR 32/19 A2993 RMK AO2 SLP126 T03170189

2010/08/09 22:54
PAAP 092254Z 00000KT 1SM -DZ BR BKN000 OVC004 13/12 A3002 RMK -DZ BR SCT000 56 MN52 70014 NO SPECI

2010/08/09 22:53
PAAQ 092253Z 15014G20KT 10SM CLR 19/08 A2966 RMK AO2 SLP038 T01940078

2010/08/09 22:51
PABN 092251Z 34009KT 20SM SCT050 SCT080 BKN120 19/08 A2966 RMK NOSPECI

2010/08/09 22:53
PABR 092253Z AUTO 07020G25KT 10SM OVC004 02/01 A2986 RMK AO2 PK WND 07027/2223 SLP113 T00220011 TSNO

2010/08/09 22:53
PACV 092253Z 12010G16KT 10SM FEW014 SCT024 OVC035 15/11 A2986 RMK AO2 SLP111 T01500106

2010/08/09 22:53
PADE 092253Z AUTO 06012KT 10SM BKN028 OVC033 14/12 A2939 RMK AO2 SLP951 T01390122 TSNO

2010/08/09 22:53
PAEG 092253Z AUTO 12009G15KT 10SM OVC070 20/09 A2958 RMK AO2 SLP018 T02000094 TSNO

2010/08/09 22:51
PAEL 092251Z 00000KT 12SM SCT015 OVC025 13/12 A2996 RMK NOSPECI

2010/08/09 22:53
PAEN 092253Z 23007KT 10SM SCT038 OVC070 17/11 A2967 RMK AO2 SLP048 T01670111

2010/08/09 22:53
PAGY 092253Z AUTO 21019KT 10SM OVC065 16/08 A2992 RMK AO2 PK WND 21026/2205 SLP132 T01560083 TSNO

2010/08/09 22:53
PAIL 092253Z 12003KT 10SM OVC026 13/09 A2964 RMK AO2 SLP036 T01330094

2010/08/09 22:53
PAKT 092253Z 12008KT 10SM SCT018 BKN060 16/12 A3003 RMK AO2 SLP169 HARBOR WND 09005KT T01560122

2010/08/09 22:53
PAKV 092253Z AUTO VRB03KT 10SM -RA SCT011 BKN016 OVC065 13/12 A2950 RMK AO2 SLP990 P0005 T01330122 TSNO

2010/08/09 22:53
PAKW 092253Z AUTO 00000KT 10SM OVC024 14/12 A3002 RMK AO2 SLP165 T01390122 TSNO

2010/08/09 22:53
PALH 092253Z 15008G16KT 10SM OVC070 19/09 A2965 RMK AO2 SLP041 T01940089

2010/08/09 22:53
PAMR 092253Z 33005KT 10SM SCT045 OVC060 17/12 A2964 RMK AO2 SLP038 T01720117

2010/08/09 22:53
PAPB 092253Z AUTO 21004KT 1/2SM FG VV001 08/08 A2935 RMK AO2 SLP926 T00780078 TSNO

2010/08/09 22:53
PASC 092253Z 06022KT 10SM OVC005 06/03 A2972 RMK AO2 PK WND 06027/2244 SLP066 T00610033

2010/08/09 22:53
PASI 092253Z 27005KT 10SM FEW007 OVC032 14/12 A2998 RMK AO2 RAE24 SLP153 P0000 T01390122

2010/08/09 22:53
PASO 092253Z AUTO 18009G16KT 10SM FEW034 OVC055 14/10 A2968 RMK AO2 SLP049 T01440100 TSNO

2010/08/09 22:53
PATO 092253Z AUTO 12015G28KT 090V150 3SM -RA BR BKN020 BKN026 OVC050 12/11 A2975 RMK AO2 PK WND 11032/2202 SLP074 P0002 T01220111 TSNO

2010/08/09 22:53
PAVL 092253Z AUTO 15007KT 5SM -RA BKN044 BKN095 17/10 A2946 RMK AO2 SLP974 P0000 T01720100 TSNO

2010/08/09 22:53
PAWD 092253Z AUTO A2974 RMK AO2 SLP073 PWINO FZRANO TSNO $

2010/08/09 22:53
KTWF 092253Z 19008KT 10SM TS FEW043 SCT100 21/13 A2994 RMK AO2 LTG DSNT W TSB2154E33B47RAE04B20E49 SLP087 P0003 T02110128

2010/08/09 22:53
KTXK 092253Z 00000KT 10SM CLR 36/23 A2988 RMK AO2 SLP112 T03560228

2010/08/09 22:53
KTYR 092253Z 23004KT 10SM CLR 36/18 A2990 RMK AO2 SLP116 T03610183

2010/08/09 22:53
KVGT 092253Z 09009G18KT 10SM CLR 35/M01 A2984 RMK AO2 SLP068 T03501006

2010/08/09 22:53
KVLD 092253Z 08006KT 10SM CLR 33/23 A2992 RMK AO2 SLP136 T03280228

2010/08/09 22:53
KYIP 092253Z 17003KT 10SM SCT049 OVC070 26/22 A2994 RMK AO2 SLP132 T02560217

2010/08/09 22:53
KZZV 092253Z AUTO 18004KT 10SM CLR 30/18 A2998 RMK AO2 SLP146 T03000183

2010/08/09 22:54
PHMK 092254Z 04020G32KT 10SM FEW033 29/14 A3008 RMK AO2 PK WND 04035/2241 SLP185 T02940139

2010/08/09 22:50
PAFK 092250Z 16007KT 20SM SCT030 OVC065 18/10 A2956 RMK EST PASS MARGINAL NOSPECI

2010/08/09 22:55
KHYI 092255Z AUTO 00000KT 10SM CLR 35/21 A2985 RMK AO1

2010/08/09 22:56
KUCP 092256Z AUTO 00000KT 10SM CLR 29/19 A2999 RMK AO2 T02880194 SLP162

2010/08/09 22:54
KUIN 092254Z AUTO 16004KT 10SM CLR 33/27 A2988 RMK AO2 SLP110 T03280267

2010/08/09 22:54
KUZA 092254Z AUTO 14003KT 8SM CLR 32/20 A3000 RMK AO2 SLP144 T03170200

2010/08/09 22:54
KVAY 092254Z AUTO VRB05KT 8SM CLR 32/19 A2994 RMK AO2 SLP136 T03170189

2010/08/09 22:55
KVBT 092255Z AUTO 21008KT 10SM CLR 37/21 A2990 RMK AO1

2010/08/09 22:55
KVIS 092255Z AUTO 28008KT 10SM CLR 32/13 A2980 RMK AO1

2010/08/09 22:54
KVSF 092254Z AUTO 04005KT 10SM FEW100 27/22 A2990 RMK AO2 LTG DSNT N AND NW SLP122 T02670217

2010/08/09 22:54
KVTA 092254Z AUTO 21006KT 10SM CLR 29/18 A2997 RMK AO2 SLP141 T02940178

2010/08/09 22:54
KWLD 092254Z AUTO 15010KT 10SM CLR 37/21 A2985 RMK AO2 SLP093 T03670211

2010/08/09 22:55
KWVL 092255Z AUTO 00000KT 10SM BKN070 BKN085 26/20 A2983 RMK AO1

2010/08/09 22:55
KYKN 092255Z AUTO 10011KT 10SM BKN017 BKN031 27/24 A2989 RMK AO1

2010/08/09 22:54
KMRY 092254Z 21009KT 10SM BKN013 16/11 A2993 RMK AO2 SLP146 T01610106

2010/08/09 22:55
KMSV 092255Z AUTO 22003KT 10SM CLR 29/16 A2997 RMK AO1

2010/08/09 22:55
KMTW 092255Z 11003KT 10SM SCT028 SCT035 28/23 A2989 RMK AO1

2010/08/09 22:54
KMVL 092254Z AUTO 36005KT 4SM BR SCT005 BKN044 OVC050 22/20 A2992 RMK AO2 LTG DSNT E AND S TSB15E51RAB18E50 SLP129 P0040 T02170200

2010/08/09 22:55
KMVN 092255Z AUTO 00000KT 10SM CLR 34/23 A2990 RMK AO1

2010/08/09 22:55
KOCH 092255Z AUTO 17007KT 10SM CLR 37/20 A2988 RMK AO1

2010/08/09 22:54
KOFP 092254Z AUTO 23007KT 10SM CLR 33/18 A2999 RMK AO2 SLP151 T03330183

2010/08/09 22:55
KOKK 092255Z AUTO 28005KT 9SM FEW110 32/22 A2994 RMK AO1

2010/08/09 22:54
KOLM 092254Z 24006KT 10SM OVC025 17/12 A2998 RMK AO2 SLP152 T01720122

2010/08/09 22:54
KOLS 092254Z AUTO VRB03KT 10SM SCT095 32/14 A3000 RMK AO2 SLP088 T03220139

2010/08/09 22:55
KOLU 092255Z AUTO 10SM FEW035 31/25 A2987 RMK AO1

2010/08/09 22:55
KOTG 092255Z AUTO 12008KT 10SM FEW055 28/22 A2996 RMK AO1

2010/08/09 22:55
KOTH 092255Z 35017G20KT 10SM CLR 17/12 A3004 RMK AO1

2010/08/09 22:54
KPHF 092254Z 08005KT 10SM CLR 29/19 A2999 RMK AO2 SLP153 T02940194

2010/08/09 22:54
KPHL 092254Z 20014KT 10SM FEW180 SCT250 31/19 A2995 RMK AO2 SLP141 T03110189

2010/08/09 22:55
KPIB 092255Z AUTO 21004KT 10SM FEW045 33/23 A2994 RMK AO1 LTG DSNT S

2010/08/09 22:54
KPLN 092254Z AUTO 07004KT 10SM CLR 27/22 A2990 RMK AO2 SLP123 T02670222

2010/08/09 22:54
KPNE 092254Z AUTO 22007KT 10SM SCT050 32/21 A2995 RMK AO2 SLP140 T03170206

2010/08/09 22:55
KPQI 092255Z AUTO 22005KT 10SM CLR 23/17 A2978 RMK AO1

2010/08/09 22:55
KPRX 092255Z 17006KT 10SM CLR 37/20 A2988 RMK AO1

2010/08/09 22:54
KPSF 092254Z AUTO 20004KT 10SM CLR 28/17 A2993 RMK AO2 SLP106 T02830172

2010/08/09 22:55
KPTV 092255Z AUTO 33007KT 10SM CLR 33/13 A2982 RMK AO1

2010/08/09 22:54
KPTW 092254Z AUTO 21007KT 7SM CLR 32/19 A2996 RMK AO2 SLP140 T03220194

2010/08/09 22:55
KPVC 092255Z 21015G19KT 10SM CLR 24/20 A2990 RMK AO1

2010/08/09 22:55
KPWG 092255Z AUTO 15011KT 10SM FEW070 37/19 A2986 RMK AO1

2010/08/09 22:55
KPWT 092255Z AUTO 18008KT 10SM SCT028 17/13 A2999 RMK AO1 P0001

2010/08/09 22:54
KRBL 092254Z AUTO 16013G17KT 10SM CLR 32/14 A2980 RMK AO2 SLP087 T03170139

2010/08/09 22:54
KRDG 092254Z 19009KT 10SM CLR 32/21 A2993 RMK AO2 SLP136 T03170206

2010/08/09 22:55
KRKD 092255Z AUTO 18003KT 10SM CLR 22/18 A2987 RMK AO1

2010/08/09 22:54
KRKS 092254Z AUTO 19021G29KT 10SM CLR 26/M03 A3009 RMK AO2 PK WND 20036/2157 SLP104 T02611033

2010/08/09 22:54
KRST 092254Z 06006KT 10SM CLR 31/23 A2994 RMK AO2 SLP128 T03060233

2010/08/09 22:55
KRUT 092255Z 32006KT 10SM VCTS FEW060 BKN110 26/19 A2989 RMK AO1 LTG DSNT NW TSB12E34B53

2010/08/09 22:54
KSBY 092254Z 16009KT 10SM CLR 29/20 A2999 RMK AO2 SLP157 T02890200

2010/08/09 22:55
KSDY 092255Z AUTO 03005KT 10SM CLR 33/15 A2979 RMK AO1

2010/08/09 22:54
KSET 092254Z AUTO 16005KT 10SM CLR 36/24 A2987 RMK AO2 SLP108 T03560239

2010/08/09 22:55
KSFM 092255Z 15006KT 10SM FEW050 SCT095 BKN120 22/20 A2989 RMK AO1 LTG DSNT SE TSE46 P0007

2010/08/09 22:55
KSFZ 092255Z 22006KT 10SM CLR 27/21 A2991 RMK AO1

2010/08/09 22:55
KSGT 092255Z 13007KT CLR 36/24 A2988 RMK AO1

2010/08/09 22:55
KSGU 092255Z AUTO 28005KT 10SM CLR 33/04 A2994 RMK AO1

2010/08/09 22:54
KSJN 092254Z AUTO 19007KT 10SM -RA SCT038 BKN085 26/10 A3013 RMK AO2 LTG DSNT S RAB46 SLP117 P0000 T02610100

2010/08/09 22:55
KSKX 092255Z AUTO 24016G20KT 10SM CLR 27/08 A3017 RMK AO1 LTG DSNT NE

2010/08/09 22:55
KSLG 092255Z AUTO 16009KT 10SM CLR 36/20 A2991 RMK AO1

2010/08/09 22:55
KSMN 092255Z AUTO 21013G25KT 10SM CLR 20/09 A2995 RMK AO1

2010/08/09 22:55
KSQI 092255Z AUTO 23003KT 10SM CLR 31/23 A2994 RMK AO1

2010/08/09 22:55
KSUE 092255Z AUTO 17008KT 10SM CLR 28/23 A2990 RMK AO1

2010/08/09 22:54
KTAD 092254Z AUTO 33007KT 2 1/2SM VCTS RA BR BKN033 OVC060 17/15 A3018 RMK AO2 TSE06B22E53B54 SLP158 P0033 T01670150

2010/08/09 22:55
KTPL 092255Z 16011G17KT 10SM CLR 36/21 A2986 RMK AO1

2010/08/09 22:54
KTQE 092254Z AUTO 01007KT 10SM SCT031 31/27 A2985 RMK AO2 SLP094 T03110267

2010/08/09 22:55
KTVF 092255Z AUTO 21009KT 10SM CLR 33/18 A2987 RMK AO1

2010/08/09 22:50
KTZR 092250Z 00000KT 10SM SKC 29/21 A2997

2010/08/09 22:50
ENHF 092250Z VRB02KT CAVOK 08/06 Q1013 

2010/08/09 22:52
PTRO 092252Z 00000KT 14SM SCT016TCU BKN120 BKN300 26/25 A2989 RMK TCU VC ALQDS

2010/08/09 22:50
PKMJ 092250Z 06018KT 15SM FEW015 SCT050 BKN120 OVC300 30/25 A2989

2010/08/09 22:51
PTTP 092251Z 08006KT 15SM FEW018 BKN130 OVC300 29/24 A2992 RMK SLP132 T02940243

2010/08/09 22:54
PGUM 092254Z 00000KT 10SM SCT060 28/24 A2993 RMK AO2 SLP126 T02780239

2010/08/09 22:54
PGSN 092254Z 26004KT 10SM CLR 26/24 A2993 RMK AO2 SLP134 P0001 T02560244

2010/08/09 22:50
PTKK 092250Z VRB05KT 15SM FEW014CB BKN120 OVC280 29/25 A2988 RMK CB OHD SLP122 T02870253

2010/08/09 22:53
KCLM 092253Z AUTO 00000KT 10SM SCT011 OVC026 16/13 A2998 RMK AO2 SLP151 T01560128

2010/08/09 22:53
KCMI 092253Z 00000KT 10SM CLR 33/26 A2992 RMK AO2 SLP125 T03280256

2010/08/09 22:53
KCMX 092253Z AUTO 29010KT 10SM CLR 27/17 A2991 RMK AO2 SLP123 T02720167

2010/08/09 22:53
KCNM 092253Z AUTO 11008KT 10SM SCT090 33/16 A2993 RMK AO2 SLP074 T03280161

2010/08/09 22:53
KCNO 092253Z 26011KT 10SM CLR 29/11 A2987 RMK AO2 SLP109 T02940106

2010/08/09 22:53
KABR 092253Z AUTO 14008KT 10SM CLR 33/18 A2987 RMK AO2 SLP106 T03330178

2010/08/09 22:53
KACK 092253Z 21010KT 6SM BR SCT004 23/22 A2995 RMK AO2 SLP141 T02280217

2010/08/09 22:53
KACV 092253Z AUTO 31007KT 10SM OVC005 13/11 A2994 RMK AO2 SLP145 T01330106

2010/08/09 22:53
KAGS 092253Z 11005KT 10SM CLR 32/22 A2995 RMK AO2 SLP140 T03220222

2010/08/09 22:50
KALN 092250Z 14005KT 10SM BKN200 34/27 A2990

2010/08/09 22:53
KALW 092253Z 24010G15KT 200V270 10SM CLR 30/06 A2977 RMK AO2 SLP073 T03000056

2010/08/09 22:53
KAMA 092253Z 19016KT 10SM SCT070 33/15 A2996 RMK AO2 SLP086 CB DSNT SE AND S MOV N TCU DSNT W T03280150

2010/08/09 22:53
KAMW 092253Z AUTO 00000KT 10SM SCT041 OVC049 29/24 A2991 RMK AO2 SLP116 T02890244

2010/08/09 22:53
KANB 092253Z AUTO 10005KT 10SM CLR 34/21 A2995 RMK AO2 SLP129 T03440206

2010/08/09 22:53
KAOH 092253Z AUTO 21005KT 9SM FEW120 29/22 A2995 RMK AO2 SLP135 T02940217

2010/08/09 22:53
KAOO 092253Z AUTO 27004KT 10SM CLR 29/18 A3000 RMK AO2 SLP148 T02890183

2010/08/09 22:53
KAPF 092253Z 08004KT 10SM CLR 27/24 A2987 RMK AO2 SLP112 T02720244

2010/08/09 22:53
KASX 092253Z AUTO 29004KT 10SM CLR 30/21 A2992 RMK AO2 SLP128 T03000211

2010/08/09 22:53
KATY 092253Z AUTO 10009KT 10SM CLR 31/17 A2992 RMK AO2 SLP120 T03060167

2010/08/09 22:53
KAUG 092253Z AUTO 18003KT 10SM BKN090 26/19 A2987 RMK AO2 SLP112 T02610194

2010/08/09 22:53
KAWM 092253Z AUTO 19006KT 10SM CLR 29/26 A2991 RMK AO2 SLP122 T02890256

2010/08/09 22:53
KAXN 092253Z AUTO 09004KT 10SM CLR 31/17 A2994 RMK AO2 SLP134 T03060172

2010/08/09 22:53
KAZO 092253Z 24003KT 8SM FEW026 SCT034 28/22 A2993 RMK AO2 SLP130 T02780222

2010/08/09 22:53
KBAF 092253Z 21006KT 10SM CLR 32/16 A2989 RMK AO2 SLP118 T03170156

2010/08/09 22:53
KBCE 092253Z AUTO VRB05G14KT 10SM CLR 22/M05 A3026 RMK AO2 WSHFT 2154 SLP137 T02171050

2010/08/09 22:53
KBDE 092253Z AUTO 00000KT 10SM CLR 32/21 A2987 RMK AO2 SLP112 T03170206

2010/08/09 22:53
KBEH 092253Z AUTO 00000KT 10SM CLR 28/21 A2992 RMK AO2 SLP127 T02830211

2010/08/09 22:53
KBFD 092253Z AUTO 00000KT 10SM FEW110 26/17 A3004 RMK AO2 SLP158 T02560167

2010/08/09 22:53
KBFI 092253Z VRB05KT 10SM -RA BKN020 OVC033 19/13 A2996 RMK AO2 RAB37 SLP146 P0000 T01890128

2010/08/09 22:53
KBGR 092253Z 19008KT 10SM FEW065 BKN080 BKN200 26/19 A2985 RMK AO2 SLP104 T02560194

2010/08/09 22:53
KBHK 092253Z AUTO 17009KT 10SM FEW090 35/11 A2980 RMK AO2 SLP062 T03500111

2010/08/09 22:53
KBHM 092253Z 15003KT 10SM SCT070 35/19 A2995 RMK AO2 SLP132 T03500189

2010/08/09 22:53
KBIV 092253Z AUTO 25008KT 9SM CLR 28/21 A2993 RMK AO2 SLP129 T02830211

2010/08/09 22:53
KFLD 092253Z AUTO 28003KT 10SM CLR 29/22 A2990 RMK AO2 SLP121 T02940222

2010/08/09 22:53
KFLL 092253Z 15009KT 10SM SCT027 BKN060 29/23 A2988 RMK AO2 SLP117 T02890233

2010/08/09 22:53
KFMY 092253Z 00000KT 10SM FEW090 26/24 A2986 RMK AO2 LTG DSNT W AND NW SLP114 T02610244

2010/08/09 22:53
KFOE 092253Z 20012KT 10SM CLR 37/20 A2985 RMK AO2 SLP091 T03720200

2010/08/09 22:53
KFPR 092253Z 13014KT 10SM FEW090 29/23 A2990 RMK AO2 SLP125 T02890228

2010/08/09 22:53
KFSM 092253Z 00000KT 10SM CLR 37/21 A2985 RMK AO2 SLP101 T03720206

2010/08/09 22:53
KFST 092253Z AUTO 18009KT 10SM -RA FEW110 22/19 A2999 RMK AO2 LTG DSNT SW TSE12B16E53 SLP112 P0004 T02220194

2010/08/09 22:53
KFTY 092253Z 12004KT 7SM CLR 34/19 A2997 RMK AO2 SLP136 T03440189

2010/08/09 22:53
KFUL 092253Z 21008KT 190V250 10SM CLR 24/13 A2987 RMK AO2 SLP113 T02390128

2010/08/09 22:53
KFVE 092253Z AUTO 29007KT 5SM -RA BKN039 BKN060 OVC100 19/17 A2982 RMK AO2 TSB01E19RAB2155 SLP094 P0016 T01940167

2010/08/09 22:50
KPMV 092250Z AUTO 00000KT 10SM CLR 35/23 A2985 RMK AO2 T03450228

2010/08/09 22:53
KAEX 092253Z AUTO 09005KT 10SM CLR 37/21 A2988 RMK AO2 SLP120 T03720211 TSNO

2010/08/09 22:53
KALI 092253Z AUTO 14015G22KT 10SM CLR 34/23 A2984 RMK AO2 SLP100 T03390233

2010/08/09 22:53
KARA 092253Z 12011G19KT 10SM TS FEW011 SCT090 26/23 A2994 RMK AO2 PK WND 09034/2215 RAB29E52 SLP138 P0002 T02610233

2010/08/09 22:53
KASD 092253Z AUTO 00000KT 10SM CLR 28/25 A2993 RMK AO2 SLP135 T02780250

2010/08/09 22:53
KAUS 092253Z 15011KT 10SM FEW070 37/19 A2985 RMK AO2 SLP096 T03670189

2010/08/09 22:51
KBBG 092251Z 17006KT 10SM FEW050 SCT150 35/22 A2994

2010/08/09 22:53
KBFM 092253Z VRB05KT 10SM CLR 31/24 A2994 RMK AO2 SLP138 T03110244

2010/08/09 22:53
KBMQ 092253Z AUTO 14009G14KT 10SM CLR 36/17 A2990 RMK AO2 SLP103 T03560167 $

2010/08/09 22:53
KBPT 092253Z 19010KT 10SM CLR 33/24 A2990 RMK AO2 SLP126 T03330244

2010/08/09 22:53
KBRO 092253Z AUTO 13014G19KT 10SM FEW031 34/24 A2985 RMK AO2 SLP108 T03390244 TSNO

2010/08/09 22:53
KCOT 092253Z AUTO 13011KT 10SM SCT070 37/18 A2982 RMK AO2 SLP089 T03670183

2010/08/09 22:53
KCXO 092253Z 14008KT 10SM CLR 36/22 A2988 RMK AO2 SLP114 T03560217

2010/08/09 22:53
KDWH 092253Z 14009KT 10SM FEW060 34/23 A2988 RMK AO2 SLP114 T03390233

2010/08/09 22:50
KEKM 092250Z 29006KT 10SM SKC 30/20 A2994 RMK AO2

2010/08/09 22:53
KESF 092253Z AUTO 09012G22KT 10SM VCTS FEW065 BKN090 31/23 A2992 RMK AO2 LTG DSNT ALQDS TSB27 SLP130 T03110228

2010/08/09 22:53
KGPT 092253Z 17004KT 10SM CLR 31/24 A2992 RMK AO2 SLP130 T03110244

2010/08/09 22:53
KHBG 092253Z AUTO 20012G22KT 10SM FEW050 SCT065 BKN100 32/24 A2993 RMK AO2 LTG DSNT SW SLP132 T03170239

2010/08/09 22:53
KHOU 092253Z 18008KT 10SM SCT055 34/23 A2988 RMK AO2 SLP123 T03390228

2010/08/09 22:53
KIAH 092253Z 14013KT 10SM FEW055 SCT250 34/24 A2989 RMK AO2 SLP119 T03390244

2010/08/09 22:52
KIEN 092252Z AUTO 07009KT 10SM VCTS OVC085 22/18 A2997 RMK AO2 LTG DSNT E AND SE TSE00B40RAB02E32 SLP128 P0006 T02170178

2010/08/09 22:55
KJWG 092255Z AUTO 20011G16KT 10SM CLR 38/21 A2985 RMK AO2

2010/08/09 22:50
KJYR 092250Z AUTO 07005KT 10SM 33/26 A2986 RMK AO2

2010/08/09 22:50
KLAM 092250Z AUTO 33004KT 10SM BKN065 BKN090 OVC120 20/13 A3022 RMK AO2

2010/08/09 22:50
KLCG 092250Z AUTO 04004KT 7SM SCT010 OVC016 26/24 A2990 RMK AO2 T02630241

2010/08/09 22:53
KLBX 092253Z AUTO 15009KT 10SM CLR 33/25 A2990 RMK AO2 SLP125 T03280250

2010/08/09 22:53
KLCH 092253Z 18007KT 10SM FEW050 32/26 A2991 RMK AO2 LTG DSNT NW SLP137 T03220256

2010/08/09 22:53
KLFK 092253Z AUTO 21007KT 10SM SCT070 38/19 A2988 RMK AO2 SLP114 T03780194

2010/08/09 22:53
KLFT 092253Z 13006G15KT 10SM FEW060 28/23 A2995 RMK AO2 SLP141 T02780233

2010/08/09 22:50
KLHM 092250Z AUTO 25006KT 10SM CLR 32/11 A2980 RMK AO1 T03170112

2010/08/09 22:53
KLVJ 092253Z AUTO 15009KT 10SM CLR 34/23 A2991 RMK AO2 SLP128 T03390233

2010/08/09 22:50
KLXN 092250Z AUTO 09008KT 10SM CLR 33/21 A2990 RMK AO2 T03260206

2010/08/09 22:53
KMCB 092253Z AUTO 18004KT 7SM CLR 25/23 A2995 RMK AO2 SLP138 T02500233

2010/08/09 22:50
KMLE 092250Z AUTO 00000KT 7SM BKN034 BKN041 33/25 A2983 RMK AO2 T03250252

2010/08/09 22:49
KMMH 092249Z AUTO 28012G19KT 10SM CLR 23/M00 A3013 RMK AO1

2010/08/09 22:53
KMSY 092253Z 31006KT 10SM FEW020 BKN180 OVC250 26/24 A2995 RMK AO2 RAB09E53 SLP144 P0000 T02610244

2010/08/09 22:55
KMWC 092255Z 32006KT 10SM SCT033 28/20 A2991

2010/08/09 22:53
KNEW 092253Z 29010KT 10SM CLR 28/25 A2994 RMK AO2 SLP132 T02830250

2010/08/09 22:55
KOAJ 092255Z AUTO 18009KT 10SM SCT033 SCT050 30/24 A3001 RMK AO1

2010/08/09 22:50
KOGA 092250Z AUTO 16009KT 10SM VCTS SCT110 33/14 A2992 RMK AO2 LTG DSNT S T03280143

2010/08/09 22:50
KONL 092250Z AUTO 07005KT 10SM CLR 29/22 A2990 RMK AO2 T02900222

2010/08/09 22:52
KOUN 092252Z AUTO 16009G14KT 10SM CLR 38/19 A2986 RMK AO2

2010/08/09 22:53
KPIL 092253Z AUTO 11013KT 10SM CLR 33/26 A2986 RMK AO2 SLP111 T03330261

2010/08/09 22:50
KPNA 092250Z AUTO 22019G26KT 10SM SCT120 24/M08 A3011 RMK AO2 T02431083

2010/08/09 22:53
KPQL 092253Z 00000KT 10SM CLR 30/26 A2993 RMK AO2 SLP136 T03000256

2010/08/09 23:00
SBPV 092300Z 00000KT 5000 HZ NSC 27/18 Q1011 

2010/08/09 22:54
KARA 092254Z 13010KT 10SM FEW011 SCT090 26/23 A2994 RMK AO2 TSE54

2010/08/09 22:47
PANW 092247Z AUTO 19014G17KT 3SM BR BKN008 OVC018 12/09 A2960 RMK AO2 PWINO TSNO CIG 007V013 $

2010/08/09 22:53
KFYV 092253Z 21006KT 10SM CLR 35/19 A2992 RMK AO2 SLP114 T03500189

2010/08/09 22:53
KGAG 092253Z AUTO 18011KT 10SM FEW090 37/17 A2985 RMK AO2 SLP073 T03670172

2010/08/09 22:53
KGEY 092253Z AUTO 17008KT 10SM VCTS CLR 33/04 A2978 RMK AO2 TSB43 SLP038 T03280044

2010/08/09 22:53
KGEZ 092253Z AUTO 24005KT 10SM CLR 33/21 A2992 RMK AO2 SLP123 T03280206

2010/08/09 22:53
KGFK 092253Z 20009KT 10SM FEW250 34/20 A2983 RMK AO2 SLP096 T03390200

2010/08/09 22:53
KGFL 092253Z AUTO 24005KT 10SM CLR 29/18 A2987 RMK AO2 LTG DSNT NE SLP111 T02890183

2010/08/09 22:53
KGGW 092253Z AUTO 13005KT 10SM CLR 32/09 A2978 RMK AO2 SLP073 T03170089 TSNO

2010/08/09 22:53
KGLD 092253Z AUTO 18009KT 10SM CLR 34/16 A2992 RMK AO2 LTG DSNT NE AND E SLP078 T03390161

2010/08/09 22:53
KGLH 092253Z 09003KT 10SM CLR 36/24 A2988 RMK AO2 LTG DSNT S RAE13 SLP123 P0001 T03610244

2010/08/09 22:53
KGMU 092253Z 14006KT 10SM CLR 32/18 A3001 RMK AO2 SLP149 T03220183

2010/08/09 22:53
KGRB 092253Z 17005KT 10SM CLR 31/24 A2988 RMK AO2 SLP114 T03060239

2010/08/09 22:53
KGRI 092253Z 13008KT 10SM CLR 33/22 A2988 RMK AO2 SLP097 T03280217

2010/08/09 22:53
KGSH 092253Z AUTO 27006KT 8SM CLR 29/23 A2994 RMK AO2 SLP133 T02940233

2010/08/09 22:53
KGSP 092253Z 16008KT 10SM CLR 31/22 A2999 RMK AO2 SLP142 T03060222

2010/08/09 22:53
KGTF 092253Z 25018G27KT 10SM FEW100 27/05 A2981 RMK AO2 PK WND 26027/2251 LTG DSNT NW SLP065 T02670050

2010/08/09 22:53
KGUP 092253Z AUTO 30007KT 10SM CLR 26/06 A3019 RMK AO2 SLP063 T02610061

2010/08/09 22:53
KGUY 092253Z AUTO 18015G21KT 10SM CLR 38/13 A2986 RMK AO2 SLP055 T03780128

2010/08/09 22:53
KGVL 092253Z AUTO 14004KT 10SM CLR 32/21 A3003 RMK AO2 SLP150 T03170211

2010/08/09 22:53
KGWO 092253Z AUTO 14004KT 10SM CLR 29/24 A2992 RMK AO2 SLP130 T02940244

2010/08/09 22:53
KHAO 092253Z AUTO 25004KT 9SM CLR 33/19 A2995 RMK AO2 SLP135 T03330194

2010/08/09 22:53
KHEI 092253Z AUTO 14013G22KT 10SM CLR 33/15 A2983 RMK AO2 PK WND 14026/2159 SLP079 T03280150

2010/08/09 22:53
KHFD 092253Z 20010G15KT 7SM CLR 31/20 A2989 RMK AO2 SLP123 T03060200

2010/08/09 22:53
KHGR 092253Z AUTO 17010KT 9SM FEW080 33/17 A2994 RMK AO2 SLP139 T03330172 TSNO

2010/08/09 22:53
KHHR 092253Z 24009KT 10SM CLR 22/13 A2989 RMK AO2 SLP122 T02170128

2010/08/09 22:53
KHIB 092253Z AUTO 24003KT 10SM CLR 31/19 A2993 RMK AO2 SLP132 T03110194

2010/08/09 22:53
KHIO 092253Z 12003KT 10SM BKN042 19/11 A2998 RMK AO2 SLP151 T01940111

2010/08/09 22:53
KHJO 092253Z AUTO 33005KT 10SM CLR 33/13 A2980 RMK AO2 SLP090 T03280128

2010/08/09 22:53
KHKA 092253Z AUTO 21006KT 7SM BKN050 35/24 A2989 RMK AO2 SLP120 T03500244

2010/08/09 22:53
KHKS 092253Z 13011G17KT 10SM TS CLR 29/23 A2993 RMK AO2 LTG DSNT NE-S TSE04B06 SLP127 T02890228

2010/08/09 22:53
KHKY 092253Z VRB03KT 10SM CLR 32/20 A3001 RMK AO2 SLP138 T03170200

2010/08/09 22:53
KHLG 092253Z 24004KT 10SM CLR 29/17 A3000 RMK AO2 SLP152 T02890172

2010/08/09 22:53
KHLN 092253Z VRB04KT 10SM BKN100 22/09 A2986 RMK AO2 PK WND 31028/2212 WSHFT 2150 TSE08B15E43 SLP102 T02170094

2010/08/09 22:53
KHOT 092253Z AUTO 18005KT 10SM CLR 37/21 A2990 RMK AO2 SLP115 T03670211

2010/08/09 22:53
KHQM 092253Z AUTO 23009KT 10SM OVC011 14/12 A3001 RMK AO2 RAB09E25 SLP165 P0000 T01440117

2010/08/09 22:53
KHRI 092253Z AUTO 26013G22KT 10SM CLR 32/03 A2973 RMK AO2 SLP061 T03170033

2010/08/09 22:53
KHRO 092253Z AUTO 16005KT 10SM CLR 34/22 A2994 RMK AO2 SLP119 T03390217

2010/08/09 22:51
KHSA 092251Z 00000KT 7SM SCT010 BKN022 27/27 A2993

2010/08/09 22:53
KHUF 092253Z 20004KT 10SM CLR 33/23 A2993 RMK AO2 SLP128 T03280228

2010/08/09 22:53
KHUL 092253Z AUTO 23005KT 10SM CLR 23/17 A2981 RMK AO2 SLP093 T02280172

2010/08/09 22:53
KHWO 092253Z 17009KT 10SM BKN065 29/23 A2989 RMK AO2 SLP123 T02890228 $

2010/08/09 22:53
KHYR 092253Z AUTO 00000KT 10SM CLR 31/20 A2994 RMK AO2 SLP132 T03110200

2010/08/09 22:53
KICR 092253Z AUTO 13009KT 10SM CLR 33/19 A2988 RMK AO2 SLP101 T03280194 TSNO

2010/08/09 22:53
KICT 092253Z 16014KT 10SM FEW070 SCT250 37/20 A2984 RMK AO2 SLP084 T03720200

2010/08/09 22:53
KIML 092253Z AUTO 11008KT 10SM FEW120 33/19 A2991 RMK AO2 LTG DSNT N AND NW TSB01E45 SLP088 T03280194

2010/08/09 22:53
KITR 092253Z AUTO 16009KT 10SM CLR 32/16 A2995 RMK AO2 SLP079 T03170156

2010/08/09 22:47
KIWA 092247Z 22006KT 45SM SCT120 SCT200 41/10 A2982

2010/08/09 22:53
KLAA 092253Z AUTO 23014KT 10SM CLR 31/13 A2991 RMK AO2 LTG DSNT S AND SW SLP072 T03060133

2010/08/09 22:53
KLAR 092253Z AUTO 16015G23KT 10SM TS BKN060 21/09 A3018 RMK AO2 PK WND 15027/2214 LTG DSNT NE TSB38 SLP117 T02110089

2010/08/09 22:53
KLAW 092253Z AUTO 18011KT 10SM CLR 39/18 A2982 RMK AO2 SLP082 T03890178

2010/08/09 22:53
KLEE 092253Z AUTO 07006KT 10SM FEW035 30/26 A2988 RMK AO2 RAE2155B16E36 SLP117 P0004 T03000261

2010/08/09 22:53
KLHX 092253Z AUTO 25013G19KT 10SM -RA SCT022 BKN120 27/19 A3001 RMK AO2 LTG DSNT SE AND S RAB44 SLP100 P0000 T02670194 $

2010/08/09 22:53
KLNS 092253Z 18012G16KT 8SM CLR 31/21 A2995 RMK AO2 SLP137 T03060211

2010/08/09 22:53
KLPR 092253Z AUTO 19003KT 8SM FEW085 30/20 A2995 RMK AO2 SLP137 T03000200

2010/08/09 22:53
KMAF 092253Z 19013KT 10SM CLR 33/16 A2993 RMK AO2 SLP084 T03330156

2010/08/09 22:53
KMAI 092253Z AUTO 08007KT 10SM CLR 36/18 A2991 RMK AO2 SLP125 T03560183

2010/08/09 22:53
KMBS 092253Z 28008KT 10SM CLR 27/23 A2991 RMK AO2 SLP123 T02720228

2010/08/09 22:53
KMCK 092253Z AUTO 08011KT 10SM CLR 33/23 A2987 RMK AO2 SLP086 T03280233

2010/08/09 22:53
KMFE 092253Z 11015KT 10SM CLR 35/24 A2982 RMK AO2 SLP096 T03500239

2010/08/09 22:53
KMKO 092253Z AUTO 20010KT 10SM CLR 37/20 A2986 RMK AO2 SLP103 T03670200

2010/08/09 22:53
KMLB 092253Z 11012KT 10SM SCT018 28/24 A2990 RMK AO2 SLP125 T02830239

2010/08/09 22:53
KMSY 092253Z 31006KT 10SM FEW020 BKN180 OVC250 26/24 A2995 RMK AO2 RAB09E53 SLP144 P0000 T02610244

2010/08/09 22:53
KMLC 092253Z AUTO 19005KT 10SM CLR 37/18 A2987 RMK AO2 SLP102 T03670183

2010/08/09 22:53
KMTJ 092253Z AUTO VRB03KT 10SM CLR 28/08 A3012 RMK AO2 SLP114 T02830078

2010/08/09 22:53
KMWL 092253Z AUTO 14012G17KT 10SM FEW085 37/19 A2984 RMK AO2 SLP087 T03670194

2010/08/09 22:50
KOCF 092250Z 00000KT 10SM FEW037 31/26 A2987

2010/08/09 22:53
KODO 092253Z AUTO 18012KT 10SM VCTS CLR 34/16 A2995 RMK AO2 LTG DSNT SW-N TSB14 SLP090 T03390156

2010/08/09 22:53
KOGB 092253Z AUTO 08005KT 10SM CLR 32/20 A2998 RMK AO2 SLP150 T03220200

2010/08/09 22:53
KONT 092253Z 26015KT 10SM CLR 29/09 A2986 RMK AO2 SLP099 T02940094

2010/08/09 22:53
KPBG 092253Z AUTO 00000KT 9SM FEW060 23/22 A2987 RMK AO2 LTG DSNT S AND SW RAE13 SLP114 P0000 T02330222

2010/08/09 22:53
KPEO 092253Z AUTO 00000KT 10SM -RA SCT060 23/21 A2998 RMK AO2 RAB2157 SLP146 P0001 T02280211

2010/08/09 22:53
KPHD 092253Z AUTO 00000KT 10SM CLR 29/19 A2999 RMK AO2 SLP150 T02940189

2010/08/09 22:53
KPIE 092253Z 36004KT 10SM CLR 29/24 A2986 RMK AO2 LTG DSNT NE TSE02RAB13E32 SLP110 P0000 T02940244

2010/08/09 22:53
KPNS 092253Z 22005KT 10SM FEW080 31/23 A2992 RMK AO2 RAB08E26 SLP131 P0002 T03060233

2010/08/09 22:53
KPOU 092253Z 23003KT 8SM CLR 31/18 A2988 RMK AO2 SLP115 T03110183

2010/08/09 22:53
KPTK 092253Z 22007KT 10SM FEW046 SCT060 SCT200 26/21 A2993 RMK AO2 SLP129 T02610206

2010/08/09 22:53
KPUB 092253Z 20016G25KT 10SM -RA SCT025 BKN060 OVC100 21/17 A3006 RMK AO2 PK WND 19029/2236 LTG DSNT NE-S RAB36 SLP125 P0000 T02060172

2010/08/09 22:53
KPWA 092253Z 17012KT 10SM FEW075 37/18 A2985 RMK AO2 SLP088 T03720183

2010/08/09 22:53
KRBD 092253Z VRB05G17KT 10SM CLR 36/20 A2985 RMK AO2 SLP098 T03610200

2010/08/09 22:53
KRWL 092253Z AUTO 17013KT 10SM SCT110 23/07 A3015 RMK AO2 SLP118 T02280072

2010/08/09 22:53
KSEG 092253Z AUTO 21003KT 9SM CLR 31/18 A2993 RMK AO2 SLP133 T03060178

2010/08/09 22:53
KSMQ 092253Z AUTO VRB03KT 9SM FEW065 32/19 A2990 RMK AO2 SLP123 T03170189

2010/08/09 22:53
KSNY 092253Z AUTO 32009KT 10SM -TSRA SCT013 23/18 A3001 RMK AO2 PK WND 22033/2222 WSHFT 2225 LTG DSNT ALQDS RAB14 SLP110 P0003 T02280183

2010/08/09 22:53
KSSI 092253Z AUTO 11007KT 10SM FEW080 29/24 A2995 RMK AO2 SLP140 T02940244

2010/08/09 22:50
ENAT 092250Z AUTO 07009KT 9999NDV SCT053/// 11/09 Q1013 

2010/08/09 22:50
ENEV 092250Z 34005KT 310V020 9999 FEW020 10/09 Q1011 

2010/08/09 22:50
ENKB 092250Z 00000KT 9999 SCT007 BKN012 14/12 Q1010

2010/08/09 22:50
ENNA 092250Z 35003KT 9999 SCT010 BKN014 10/08 Q1014 

2010/08/09 22:54
KBOS 092254Z 20011KT 10SM FEW070 SCT090 SCT220 29/21 A2987 RMK AO2 SLP113 TCU DSNT NE T02940206

2010/08/09 22:55
KBTP 092255Z AUTO 26003KT 10SM FEW110 29/19 A2999 RMK AO1

2010/08/09 22:54
KBUY 092254Z AUTO 13003KT 9SM CLR 31/22 A2999 RMK AO2 SLP147 T03060217

2010/08/09 22:55
KBVX 092255Z AUTO 21005KT 10SM CLR 36/23 A2989 RMK AO1

2010/08/09 22:54
KBWI 092254Z 16004KT 8SM SCT180 BKN250 31/21 A2994 RMK AO2 SLP138 T03060206

2010/08/09 22:55
KCGZ 092255Z AUTO 00000KT 10SM CLR 38/11 A2981 RMK AO1

2010/08/09 22:55
KCIU 092255Z AUTO 22005KT 10SM FEW041 SCT049 26/19 A2990 RMK AO1

2010/08/09 22:55
KCOD 092255Z AUTO 02013G19KT 10SM CLR 24/11 A2990 RMK AO1 LTG DSNT W TSE13

2010/08/09 22:55
KCOE 092255Z AUTO 21008KT 10SM FEW090 28/08 A2979 RMK AO1

2010/08/09 22:55
KCVN 092255Z 18019G23KT 10SM BKN110 29/16 A3003 RMK AO1

2010/08/09 22:55
KCVO 092255Z AUTO 32007KT 280V350 10SM CLR 24/11 A2998 RMK AO1

2010/08/09 22:55
KCWI 092255Z 18005KT 10SM CLR 29/24 A2994 RMK AO1

2010/08/09 22:54
KDDH 092254Z AUTO VRB03KT 9SM SCT060 BKN100 27/21 A2992 RMK AO2 SLP125 T02720211

2010/08/09 22:54
KDEC 092254Z 21008KT 10SM CLR 34/24 A2991 RMK AO2 SLP121 T03440244 $

2010/08/09 22:54
KDSV 092254Z AUTO 36017G27KT 8SM -RA FEW023 SCT037 OVC060 26/21 A2998 RMK AO2 PK WND 34027/2249 RAB52 SLP157 P0000 T02560211

2010/08/09 22:54
KDYL 092254Z AUTO 20007KT 170V230 10SM SCT055 30/19 A2994 RMK AO2 SLP132 T03000194 TSNO

2010/08/09 22:55
KDYR 092255Z AUTO 00000KT 10SM CLR 36/24 A2990 RMK AO1

2010/08/09 22:55
KEEN 092255Z AUTO 00000KT 10SM BKN070 29/19 A2989 RMK AO1

2010/08/09 22:55
KEHR 092255Z AUTO 03005KT 10SM CLR 34/23 A2991 RMK AO1

2010/08/09 22:55
KENV 092255Z AUTO 11007KT 10SM CLR 28/04 A2996 RMK AO1

2010/08/09 22:55
KESC 092255Z AUTO 11003KT 10SM FEW042 BKN055 BKN065 26/21 A2989 RMK AO1

2010/08/09 22:54
KEUG 092254Z 00000KT 10SM FEW030 BKN150 22/12 A2997 RMK AO2 SLP146 T02170122

2010/08/09 22:55
KEUL 092255Z AUTO 15004KT 10SM SCT110 29/11 A2980 RMK AO1

2010/08/09 22:54
KEVV 092254Z 17004KT 10SM FEW065 35/20 A2990 RMK AO2 SLP121 T03500200

2010/08/09 22:55
KEWK 092255Z AUTO 17014KT 10SM FEW090 37/18 A2983 RMK AO1

2010/08/09 22:54
KEWN 092254Z 18006KT 10SM CLR 29/23 A3000 RMK AO2 SLP159 T02940233

2010/08/09 22:55
KFAM 092255Z AUTO 18003KT 10SM CLR 34/24 A2994 RMK AO1

2010/08/09 22:54
KFIG 092254Z AUTO 25005KT 10SM CLR 28/15 A3001 RMK AO2 SLP152 T02830150

2010/08/09 22:55
KFKL 092255Z AUTO 23003KT 10SM FEW090 27/18 A3003 RMK AO1

2010/08/09 22:55
KFLP 092255Z AUTO 17003KT 10SM CLR 34/25 A2990 RMK AO1

2010/08/09 22:55
KFNL 092255Z AUTO 12011KT 10SM FEW070 BKN110 23/16 A3002 RMK AO1 LTG DSNT NE

2010/08/09 22:55
KFOD 092255Z AUTO 10007KT 10SM OVC040 29/26 A2990 RMK AO1

2010/08/09 22:55
KFRM 092255Z 11006KT 10SM FEW029 29/24 A2994 RMK AO1

2010/08/09 22:52
KFWS 092252Z 15012KT 20SM FEW065 37/21 A2986

2010/08/09 22:55
KGAD 092255Z AUTO 15005KT 10SM FEW070 FEW080 34/21 A2994 RMK AO1

2010/08/09 22:55
KGAI 092255Z 19005KT 10SM CLR 32/21 A2998 RMK AO1

2010/08/09 22:55
KGBD 092255Z AUTO 17014G21KT 10SM CLR 38/17 A2983 RMK AO1

2010/08/09 22:54
KGCK 092254Z 19014G20KT 10SM FEW090 37/13 A2986 RMK AO2 SLP066 T03720128

2010/08/09 22:54
KGCN 092254Z 23011G16KT 10SM CLR 24/01 A3021 RMK AO2 SLP146 T02440006

2010/08/09 22:55
KGDV 092255Z AUTO 04007KT 10SM CLR 34/10 A2979 RMK AO1

2010/08/09 22:54
KGED 092254Z AUTO 18012KT 10SM CLR 30/18 A2998 RMK AO2 SLP152 T03000183

2010/08/09 22:55
KGUC 092255Z AUTO 23009KT 10SM SCT065 OVC090 21/03 A3026 RMK AO1

2010/08/09 22:55
KGXY 092255Z AUTO 22017G28KT 200V330 9SM TS FEW028 BKN041 OVC075 17/14 A3006 RMK AO1 LTG DSNT ALQDS P0090

2010/08/09 22:55
KHDN 092255Z 15015KT 10SM BKN090 OVC110 21/09 A3019 RMK AO1

2010/08/09 22:55
KHEF 092255Z AUTO 18008KT 10SM 31/21 A2996 RMK AO1

2010/08/09 22:55
KHEZ 092255Z AUTO 15004KT 10SM VCTS CLR 27/23 A2995 RMK AO1 LTG DSNT ALQDS TSE27B38

2010/08/09 22:55
KHNB 092255Z AUTO 19003KT 10SM CLR 35/19 A2991 RMK AO1

2010/08/09 22:54
KHWD 092254Z AUTO 29013KT 10SM CLR 21/12 A2988 RMK AO2 SLP128 T02060122

2010/08/09 22:55
KMNM 092255Z AUTO 20006KT 10SM CLR 29/23 A2988 RMK AO1

2010/08/09 22:54
KMOT 092254Z 11005KT 10SM CLR 32/17 A2981 RMK AO2 SLP084 T03220172

2010/08/09 22:55
KMRF 092255Z AUTO 07013KT 10SM CLR A3010 RMK AO1 LTG DSNT SE

2010/08/09 22:55
KHYS 092255Z AUTO 16016G21KT 10SM CLR 38/17 A2983 RMK AO1

2010/08/09 22:55
KILE 092255Z AUTO 13008KT 10SM CLR 37/19 A2985 RMK AO1

2010/08/09 22:54
KILN 092254Z AUTO 16003KT 8SM CLR 31/21 A2997 RMK AO2 SLP136 T03060211

2010/08/09 22:54
KIMT 092254Z AUTO 34006KT 10SM CLR 31/19 A2990 RMK AO2 SLP118 T03110194

2010/08/09 22:54
KIND 092254Z 24006KT 10SM FEW055 SCT140 BKN250 32/20 A2993 RMK AO2 SLP126 T03220200

2010/08/09 22:54
KINT 092254Z 18003KT 10SM FEW055 32/18 A3001 RMK AO2 SLP149 T03220183

2010/08/09 22:54
KIPT 092254Z 10008KT 10SM CLR 29/20 A2991 RMK AO2 SLP125 T02890200

2010/08/09 22:54
KISW 092254Z AUTO 32006KT 10SM CLR 32/21 A2992 RMK AO2 SLP124 T03170211 TSNO

2010/08/09 22:55
KIWD 092255Z AUTO 32005KT 10SM CLR 29/19 A2991 RMK AO1

2010/08/09 22:54
KIZG 092254Z AUTO 00000KT 10SM CLR 25/21 A2988 RMK AO2 RAB2155E20 SLP116 P0000 T02500206

2010/08/09 22:51
KJAC 092251Z 20008KT 10SM BKN080 18/05 A3010

2010/08/09 22:55
KJHW 092255Z AUTO 28004KT 10SM BKN075 26/18 A3000 RMK AO1

2010/08/09 22:54
KJST 092254Z AUTO 29004KT 10SM CLR 26/16 A3005 RMK AO2 SLP162 T02610156

2010/08/09 22:55
KKLS 092255Z AUTO 29005KT 10SM OVC033 18/12 A2998 RMK AO1

2010/08/09 22:54
KLAF 092254Z 00000KT 9SM FEW041 BKN055 BKN070 32/26 A2992 RMK AO2 SLP125 T03170256

2010/08/09 22:50
KLBE 092250Z 21005KT 10SM SKC 29/18 A3000

2010/08/09 22:55
KLBL 092255Z 19015G19KT 10SM SCT110 38/13 A2987 RMK AO1 LTG DSNT NE

2010/08/09 22:54
KLBT 092254Z AUTO 11006KT 10SM CLR 33/19 A2997 RMK AO2 SLP147 T03280189

2010/08/09 22:55
KLCI 092255Z AUTO 00000KT 10SM CLR 24/19 A2988 RMK AO1

2010/08/09 22:55
KLEW 092255Z 18003KT 10SM BKN060 BKN085 26/19 A2989 RMK AO1

2010/08/09 22:55
KLGD 092255Z AUTO 33008G16KT 280V340 10SM FEW110 29/06 A2978 RMK AO1

2010/08/09 22:55
KLKV 092255Z AUTO 23014G19KT 10SM FEW090 28/M01 A2996 RMK AO1

2010/08/09 22:54
KLNK 092254Z 22004KT 10SM CLR 34/23 A2984 RMK AO2 SLP089 T03440233

2010/08/09 22:55
KLPC 092255Z AUTO 27013G18KT 10SM CLR 18/12 A2992 RMK AO1 PNO

2010/08/09 22:54
KLWM 092254Z 25011KT 10SM FEW070 32/16 A2988 RMK AO2 SLP116 T03220156 $

2010/08/09 22:54
KLWT 092254Z AUTO 33008KT 10SM BKN100 22/09 A2987 RMK AO2 LTG DSNT SW AND W TSB15E42 SLP087 T02220089

2010/08/09 22:55
KMBL 092255Z AUTO 27004KT 10SM CLR 27/21 A2992 RMK AO1

2010/08/09 22:54
KMFI 092254Z AUTO 33007KT 10SM CLR 31/21 A2993 RMK AO2 SLP124 T03110206

2010/08/09 22:54
KMGJ 092254Z AUTO 21006KT 9SM CLR 30/19 A2990 RMK AO2 SLP123 T03000189

2010/08/09 22:54
KMIV 092254Z AUTO 17007KT 140V210 10SM CLR 27/20 A2996 RMK AO2 SLP144 T02720200

2010/08/09 22:55
KMJX 092255Z AUTO 19007KT 10SM CLR 29/18 A2993 RMK AO1

2010/08/09 22:54
KMKC 092254Z 17011G18KT 10SM CLR 36/23 A2984 RMK AO2 SLP094 T03610228

2010/08/09 22:55
KMKT 092255Z AUTO 10006KT 10SM CLR 31/23 A2990 RMK AO1

2010/08/09 22:55
KMML 092255Z AUTO 10009KT 10SM CLR 31/21 A2991 RMK AO1

2010/08/09 22:54
KAAO 092254Z AUTO 16012G18KT 10SM CLR 37/19 A2985 RMK AO2 SLP086 T03720189

2010/08/09 22:50
KADS 092250Z 13012G22KT 10SM SCT065 36/20 A2986

2010/08/09 22:55
KAIZ 092255Z AUTO 09006KT 10SM CLR 34/25 A2990 RMK AO1 LTG DSNT S

2010/08/09 22:54
KAKH 092254Z AUTO 00000KT 9SM CLR 31/22 A3000 RMK AO2 SLP149 T03060217

2010/08/09 22:54
KAKR 092254Z AUTO 22004KT 10SM CLR 29/18 A2998 RMK AO2 SLP143 T02890178

2010/08/09 22:54
KALO 092254Z AUTO 10006KT 10SM BKN070 29/24 A2990 RMK AO2 SLP120 T02890244

2010/08/09 22:54
KAPC 092254Z AUTO 20011KT 10SM CLR 22/13 A2986 RMK AO2 SLP104 T02170128 TSNO $

2010/08/09 22:55
KARG 092255Z AUTO 16005KT 10SM CLR 34/26 A2987 RMK AO1

2010/08/09 22:55
KAUO 092255Z AUTO 13008KT 10SM SCT110 33/21 A2995 RMK AO1

2010/08/09 22:54
KAUW 092254Z AUTO 01007KT 10SM CLR 32/17 A2991 RMK AO2 SLP124 T03170172

2010/08/09 22:54
KAVL 092254Z 20003KT 9SM BKN060 26/21 A3010 RMK AO2 SLP166 T02560206

2010/08/09 22:55
KAWO 092255Z AUTO 12003KT 10SM 16/15 A2998 RMK AO1 P0001

2010/08/09 22:54
KBFL 092254Z 33010KT 10SM CLR 33/12 A2979 RMK AO2 SLP081 T03330117

2010/08/09 22:55
KBHB 092255Z AUTO 19007KT 10SM CLR 22/19 A2986 RMK AO1

2010/08/09 22:55
KBID 092255Z AUTO 22012KT 9SM CLR 24/22 A2994 RMK AO1

2010/08/09 22:55
KBKX 092255Z AUTO 07013KT 10SM CLR 30/19 A2993 RMK AO1

2010/08/09 22:55
KBLM 092255Z AUTO 18005KT 10SM CLR 29/18 A2997 RMK AO1

2010/08/09 22:53
KLLQ 092253Z AUTO 00000KT 10SM CLR 36/24 A2991 RMK AO2 TSB28E45 SLP123 T03560239

2010/08/09 22:53
KLMT 092253Z 30008G17KT 260V340 10SM FEW045 SCT100 SCT250 28/02 A2992 RMK AO2 SLP091 T02780017

2010/08/09 22:53
KLOL 092253Z AUTO 23008G17KT 10SM CLR 34/M01 A2988 RMK AO2 SLP076 T03441006

2010/08/09 22:53
KLOU 092253Z 11005KT 10SM FEW060 34/21 A2993 RMK AO2 SLP127 T03440211

2010/08/09 22:53
KLOZ 092253Z AUTO 11005KT 10SM CLR 31/24 A2999 RMK AO2 SLP143 T03110239

2010/08/09 22:53
KLSE 092253Z VRB03KT 10SM CLR 32/23 A2990 RMK AO2 SLP111 T03220228

2010/08/09 22:53
KLUK 092253Z 18007KT 8SM FEW075 31/22 A2993 RMK AO2 SLP131 T03110222

2010/08/09 22:53
KLVK 092253Z 30010KT 10SM CLR 28/12 A2983 RMK AO2 SLP099 T02780122 $

2010/08/09 22:53
KLVM 092253Z AUTO 27007KT 10SM TS FEW055 OVC085 17/13 A2999 RMK AO2 WSHFT 2140 LTG DSNT ALQDS TSE17B39RAE38 SLP129 P0011 T01720133

2010/08/09 22:53
KLVS 092253Z AUTO 18017G21KT 10SM BKN090 BKN110 26/08 A3015 RMK AO2 LTG DSNT ALQDS RAB36E46 SLP094 P0000 T02610083

2010/08/09 22:53
KLWV 092253Z AUTO 00000KT 8SM CLR 34/22 A2990 RMK AO2 SLP120 T03440222

2010/08/09 22:53
KLXT 092253Z AUTO 19007KT 10SM CLR 36/22 A2988 RMK AO2 SLP104 T03560222

2010/08/09 22:53
KMAE 092253Z AUTO 26005KT 10SM CLR 32/13 A2981 RMK AO2 SLP091 T03220128

2010/08/09 22:53
KMCE 092253Z AUTO 32005KT 10SM CLR 31/13 A2980 RMK AO2 SLP091 T03110128

2010/08/09 22:53
KMCI 092253Z 17008KT 10SM BKN250 35/25 A2986 RMK AO2 SLP095 T03500250

2010/08/09 22:53
KMCO 092253Z 11012KT 10SM FEW034 SCT100 29/23 A2989 RMK AO2 SLP120 T02940228

2010/08/09 22:53
KMCW 092253Z AUTO 12006KT 10SM FEW031 SCT039 BKN070 29/24 A2994 RMK AO2 SLP125 T02890239

2010/08/09 22:53
KMEM 092253Z 21008KT 10SM FEW150 OVC250 32/24 A2992 RMK AO2 SLP127 T03220239

2010/08/09 22:55
KMEZ 092255Z AUTO 19004KT 10SM SCT070 SCT085 36/19 A2992 RMK AO2

2010/08/09 22:53
KMFR 092253Z 28011KT 10SM FEW070 31/11 A2984 RMK AO2 SLP092 T03110106

2010/08/09 22:53
KMGW 092253Z VRB03KT 10SM CLR 31/18 A3001 RMK AO2 SLP150 HAZY T03060178

2010/08/09 22:53
KMGY 092253Z AUTO 11008KT 9SM CLR 30/21 A2995 RMK AO2 SLP134 T03000206

2010/08/09 22:53
KMHE 092253Z AUTO 12009KT 10SM FEW034 30/23 A2987 RMK AO2 SLP105 T03000233 TSNO

2010/08/09 22:53
KMHT 092253Z 27007KT 10SM FEW110 32/17 A2986 RMK AO2 SLP119 T03170172

2010/08/09 22:53
KMIA 092253Z 16010G15KT 10SM FEW025 SCT075 SCT150 SCT250 28/24 A2989 RMK AO2 SLP120 T02780239

2010/08/09 22:53
KMIC 092253Z 07003KT 10SM CLR 33/18 A2990 RMK AO2 SLP116 T03280183

2010/08/09 22:53
KMIE 092253Z 00000KT 9SM CLR 31/22 A2995 RMK AO2 SLP128 T03110222

2010/08/09 22:53
KMIW 092253Z AUTO 00000KT 10SM OVC036 29/26 A2990 RMK AO2 SLP117 T02890261

2010/08/09 22:53
KMKL 092253Z 00000KT 10SM SCT042TCU 34/25 A2991 RMK AO2 SLP121 T03390250

2010/08/09 22:53
KMLP 092253Z AUTO 22005KT 10SM CLR 17/06 A2998 RMK AO2 SLP062 T01720056 TSNO

2010/08/09 22:53
KMLS 092253Z AUTO 03005KT 10SM CLR 34/09 A2976 RMK AO2 SLP053 T03440089

2010/08/09 22:53
KMLT 092253Z AUTO 24003KT 10SM CLR 25/17 A2985 RMK AO2 SLP111 T02500172

2010/08/09 22:53
KMMK 092253Z AUTO 17009KT 9SM CLR 28/20 A2992 RMK AO2 SLP130 T02780200

2010/08/09 22:45
KMMU 092245Z 26007KT 06SM HZ SCT100 33/18 A2992

2010/08/09 22:53
KMMV 092253Z AUTO 00000KT 10SM BKN044 21/11 A2998 RMK AO2 SLP152 T02110111

2010/08/09 22:53
KMNN 092253Z AUTO 18003KT 10SM CLR 28/21 A2997 RMK AO2 SLP142 T02830206

2010/08/09 22:53
KMOD 092253Z AUTO VRB04KT 10SM CLR 31/13 A2981 RMK AO2 SLP093 T03110128 TSNO

2010/08/09 22:53
KMRB 092253Z 16006KT 9SM CLR 32/18 A2994 RMK AO2 SLP133 T03170183

2010/08/09 22:53
KMSL 092253Z AUTO 20003KT 10SM CLR 29/24 A2997 RMK AO2 SLP140 T02890239

2010/08/09 22:53
KMSO 092253Z 13012KT 9SM -RA SCT050 BKN090 20/14 A2987 RMK AO2 RAB02 SLP103 P0001 T02000144

2010/08/09 22:53
KMSP 092253Z VRB05KT 10SM SCT150 33/18 A2991 RMK AO2 SLP121 T03280178

2010/08/09 22:53
KMSS 092253Z AUTO 20004KT 10SM FEW070 SCT095 24/21 A2988 RMK AO2 TSE15RAE28 SLP118 P0000 T02390206

2010/08/09 23:00
SBCF 092300Z 00000KT CAVOK 21/05 Q1021

2010/08/09 22:53
KCSM 092253Z 16011G18KT 10SM CLR 38/14 A2987 RMK AO2 SLP081 T03830144

2010/08/09 22:53
KCUB 092253Z AUTO VRB03KT 10SM CLR 33/21 A2999 RMK AO2 SLP152 T03280206

2010/08/09 22:53
KCYS 092253Z 24011KT 10SM FEW043 SCT060 SCT075 24/11 A3010 RMK AO2 SLP108 T02440111

2010/08/09 22:53
KDEN 092253Z 32019G23KT 10SM SCT065 BKN090 BKN140 23/11 A3006 RMK AO2 PK WND 30026/2229 WSHFT 2218 TSE04 SLP101 OCNL LTGICCCCG DSNT SW-N CB DSNT SW-N MOV N T02330106

2010/08/09 22:53
KDEQ 092253Z AUTO 00000KT 10SM FEW095 36/22 A2986 RMK AO2 SLP103 T03610222

2010/08/09 22:53
KDET 092253Z 00000KT 10SM BKN050 BKN090 26/21 A2994 RMK AO2 SLP134 T02610206

2010/08/09 22:53
KDFI 092253Z AUTO 22003KT 8SM FEW060 29/22 A2993 RMK AO2 RAE23 SLP129 P0000 T02940217

2010/08/09 22:53
KDFW 092253Z 18014G18KT 10SM FEW065TCU 37/20 A2984 RMK AO2 SLP092 TCU N-NE T03720200

2010/08/09 22:53
KDGW 092253Z AUTO 34004KT 10SM OVC095 27/11 A3001 RMK AO2 RAB03E15 SLP099 P0000 T02670111

2010/08/09 22:53
KDHN 092253Z 09005KT 10SM CLR 33/21 A2996 RMK AO2 SLP139 T03330211

2010/08/09 22:53
KDKK 092253Z AUTO 29003KT 7SM FEW065 OVC090 26/21 A2996 RMK AO2 SLP142 T02610206

2010/08/09 22:53
KDRO 092253Z AUTO 27015G24KT 10SM FEW100 27/05 A3017 RMK AO2 SLP122 T02720050

2010/08/09 22:53
KDTN 092253Z 13004KT 10SM CLR 36/22 A2987 RMK AO2 SLP112 T03610217

2010/08/09 22:53
KDTO 092253Z 18009G17KT 10SM SCT075 37/20 A2984 RMK AO2 SLP093 T03720200

2010/08/09 22:53
KDTW 092253Z 00000KT 7SM BKN050 OVC070 25/22 A2994 RMK AO2 SLP134 T02500217

2010/08/09 22:53
KDXR 092253Z 19011KT 6SM HZ CLR 28/20 A2994 RMK AO2 SLP133 T02830200

2010/08/09 22:53
KECP 092253Z AUTO 04008KT 10SM CLR 34/21 A2989 RMK AO2 SLP133 T03440206 TSNO

2010/08/09 22:53
KEEO 092253Z AUTO 09003KT 10SM FEW090 SCT110 22/11 A3014 RMK AO2 SLP135 T02220106 TSNO

2010/08/09 22:53
KELD 092253Z AUTO 19004KT 10SM CLR 37/21 A2988 RMK AO2 SLP113 T03670206

2010/08/09 22:53
KELM 092253Z AUTO 25004KT 10SM BKN080 29/17 A2993 RMK AO2 SLP129 T02890167 $

2010/08/09 22:53
KFDR 092253Z AUTO 17010KT 10SM 39/17 A2980 RMK AO2 SLP069 T03890167

2010/08/09 22:53
KFDY 092253Z AUTO 19005KT 8SM CLR 29/21 A2994 RMK AO2 SLP127 T02890211

2010/08/09 22:53
KFLO 092253Z 11005KT 10SM CLR 32/21 A2998 RMK AO2 SLP149 T03220211

2010/08/09 22:53
KFOK 092253Z 22008KT 10SM CLR 26/20 A2997 RMK AO2 SLP147 T02610200

2010/08/09 22:53
KFRG 092253Z 22013KT 10SM CLR 27/19 A2995 RMK AO2 SLP140 T02720189

2010/08/09 22:53
KFTW 092253Z 13008KT 10SM FEW075 37/18 A2983 RMK AO2 SLP091 T03720183

2010/08/09 22:53
KFWN 092253Z AUTO VRB04KT 8SM CLR 30/19 A2992 RMK AO2 SLP128 T03000194

2010/08/09 22:53
KFXE 092253Z 12010G15KT 10SM SCT065 29/23 A2988 RMK AO2 SLP120 T02940228

2010/08/09 22:53
KGGG 092253Z 23007KT 10SM CLR 36/21 A2989 RMK AO2 SLP111 T03610206

2010/08/09 22:53
KGIF 092253Z AUTO 13007KT 10SM -RA SCT031 BKN070 BKN085 28/24 A2989 RMK AO2 RAB41 SLP118 P0001 T02830239 TSNO

2010/08/09 22:53
PHJR 092253Z 05008G16KT 360V100 10SM BKN050 29/15 A3009 RMK AO2 SLP197 T02940150

2010/08/09 22:53
KGJT 092253Z 27005KT 10SM SCT110 29/07 A3003 RMK AO2 SLP098 T02940072

2010/08/09 22:53
KGKJ 092253Z AUTO 24003KT 10SM SCT090 27/18 A3000 RMK AO2 SLP148 T02670183

2010/08/09 22:53
KGKY 092253Z 16013KT 10SM FEW065 37/21 A2985 RMK AO2 SLP096 T03670206

2010/08/09 22:53
KGLR 092253Z AUTO VRB05KT 6SM HZ OVC026 28/23 A2992 RMK AO2 SLP124 T02780228

2010/08/09 22:53
KGNV 092253Z 08009KT 10SM CLR 32/23 A2990 RMK AO2 SLP121 T03170233

2010/08/09 22:53
KGOK 092253Z AUTO 16010KT 10SM CLR 38/20 A2983 RMK AO2 SLP087 T03780200

2010/08/09 22:50
KGYH 092250Z 18006KT 10SM SCT060 33/20 A3000

2010/08/09 22:53
KGZH 092253Z AUTO 13004KT 10SM CLR 34/22 A2993 RMK AO2 SLP131 T03390222

2010/08/09 22:53
KHBR 092253Z AUTO 16013G19KT 10SM BKN090 40/15 A2984 RMK AO2 SLP078 T04000150

2010/08/09 22:53
KHVN 092253Z 21007KT 10SM CLR 28/20 A2993 RMK AO2 SLP136 T02780200

2010/08/09 22:53
KHZY 092253Z AUTO 34003KT 7SM FEW090 27/22 A2998 RMK AO2 SLP146 T02670217

2010/08/09 22:54
KDSM 092254Z 08004KT 10SM OVC044 31/25 A2988 RMK AO2 SLP109 T03110250

2010/08/09 22:55
KDVL 092255Z AUTO 28006KT 10SM CLR 33/19 A2983 RMK AO1

2010/08/09 22:55
KEAR 092255Z AUTO 09007KT 10SM CLR 32/25 A2991 RMK AO1

2010/08/09 22:55
KGPZ 092255Z AUTO 25003KT 10SM CLR 31/20 A2994 RMK AO1

2010/08/09 22:54
KORH 092254Z 24011KT 10SM SCT070 28/21 A2994 RMK AO2 SLP133 T02780206

2010/08/09 22:54
KPIA 092254Z 11004KT 7SM FEW095 32/25 A2990 RMK AO2 SLP119 T03220250

2010/08/09 22:54
KROC 092254Z 27005KT 2SM +TSRA BR FEW009 BKN025CB OVC060 21/19 A2998 RMK AO2 TWR VIS 2 1/2 SLP148 OCNL LTGICCC OHD TS OHD MOV E P0021 T02060194

2010/08/09 22:54
KSUS 092254Z 19003KT 10SM FEW050 BKN200 35/24 A2987 RMK AO2 SLP104 T03500244

2010/08/09 22:54
KSYR 092254Z 31007KT 2 1/2SM RA BR BKN023 BKN060 OVC075 22/21 A2997 RMK AO2 VIS 1 1/2 NW SLP143 BKN V OVC P0019 T02220211

2010/08/09 22:54
KROC 092254Z 27005KT 2SM +TSRA BR FEW009 BKN025CB OVC060 21/19 A2998 RMK AO2 TWR VIS 2 1/2 SLP148 OCNL LTGICCC OHD TS OHD MOV E P0021 T02060194

2010/08/09 22:54
KMQE 092254Z AUTO 19011G18KT 28/23 A2991 RMK AO1 SLP134 T02780233

2010/08/09 22:54
K1V4 092254Z AUTO 22/20 A2988 RMK AO2 SLP109 P0007 T02170200 PWINO TSNO

2010/08/09 22:53
KEHA 092253Z AUTO 19008KT 35/14 RMK AO1 PK WND 19 000 T03500139

2010/08/09 22:53
KOVS 092253Z AUTO 03004KT 10SM CLR 33/23 A2990 RMK AO2 SLP120 T03280228

2010/08/09 22:53
KOWD 092253Z 18008KT 9SM CLR 29/21 A2988 RMK AO2 SLP118 T02940206

2010/08/09 22:53
KOXB 092253Z AUTO 20004G77KT 9SM CLR 27/24 A2999 RMK AO2 SLP156 T02720244 $

2010/08/09 22:53
KPAE 092253Z 00000KT 10SM -RA BKN023 17/13 A2998 RMK AO2 SLP149 P0003 T01670133

2010/08/09 22:53
KPAH 092253Z 21004KT 10SM CLR 34/23 A2989 RMK AO2 SLP117 T03440228

2010/08/09 22:53
KPBF 092253Z AUTO 11004KT 10SM CLR 36/26 A2989 RMK AO2 SLP118 T03560256

2010/08/09 22:53
KPBI 092253Z 15010KT 10SM FEW022 SCT028TCU SCT250 28/24 A2988 RMK AO2 SLP119 TCU E-SE CB DSNT SW-W T02830239

2010/08/09 22:53
KPDK 092253Z 00000KT 10SM CLR 33/18 A2998 RMK AO2 SLP131 T03330183

2010/08/09 22:53
KPDT 092253Z 30015G22KT 10SM CLR 30/04 A2976 RMK AO2 SLP063 T03000044

2010/08/09 22:53
KPGD 092253Z AUTO 24003KT 10SM SCT080 26/24 A2990 RMK AO2 RAE10B27E36 SLP124 P0002 T02560239 TSNO

2010/08/09 22:53
KPIH 092253Z 27012G20KT 10SM SCT080 24/08 A3000 RMK AO2 SLP114 CB DSNT N T02390083

2010/08/09 22:53
KPIR 092253Z AUTO 11010KT 10SM CLR 31/21 A2985 RMK AO2 SLP095 T03110206

2010/08/09 22:53
KPKB 092253Z 33003KT 9SM CLR 31/17 A3001 RMK AO2 SLP154 T03110172

2010/08/09 22:53
KPKD 092253Z AUTO 22007KT 10SM CLR 31/18 A2993 RMK AO2 SLP129 T03110183

2010/08/09 22:53
KPMD 092253Z AUTO 24013G16KT 10SM CLR 33/03 A2988 RMK AO2 SLP091 T03280033 TSNO

2010/08/09 22:53
KPMP 092253Z 14009KT 10SM SCT020 28/24 A2989 RMK AO2 SLP122 T02780239

2010/08/09 22:53
KSHN 092253Z AUTO 21009KT 9SM -RA SCT019 SCT050 SCT100 16/14 A2996 RMK AO2 SLP145 P0001 T01560139

2010/08/09 22:53
KSHR 092253Z AUTO 00000KT 10SM CLR 33/08 A2982 RMK AO2 LTG DSNT E SLP053 T03330083

2010/08/09 22:53
KSIY 092253Z AUTO 27004KT 10SM 32/06 A2985 RMK AO2 SLP093 T03170061 $

2010/08/09 22:53
KSJC 092253Z 29012KT 10SM FEW050 23/13 A2986 RMK AO2 SLP112 T02330133

2010/08/09 22:53
KSLC 092253Z 28016G30KT 10SM FEW080 SCT100CB BKN120 BKN200 27/04 A2997 RMK AO2 PK WND 29030/2244 WSHFT 2232 SLP093 VIRGA OHD AND DSNT NE-S CB SW MOV NE AND DSNT NE T02670044

2010/08/09 22:53
KSLN 092253Z 18009G19KT 10SM CLR 38/18 A2981 RMK AO2 SLP078 T03830183

2010/08/09 22:53
KSMF 092253Z 19007KT 10SM CLR 29/15 A2981 RMK AO2 SLP094 T02940150

2010/08/09 22:53
KSNA 092253Z 22009KT 10SM CLR 23/13 A2989 RMK AO2 SLP119 T02330128

2010/08/09 22:53
KSNS 092253Z 28011KT 10SM CLR 19/12 A2991 RMK AO2 SLP137 T01890122

2010/08/09 22:55
KSPA 092255Z AUTO 16004KT 10SM CLR 31/27 A2999 RMK AO2

2010/08/09 22:53
KSPB 092253Z AUTO 13004KT 10SM SCT028 OVC037 18/13 A2998 RMK AO2 SLP151 T01830128

2010/08/09 22:53
KSPG 092253Z 01005KT 10SM FEW055 30/25 A2984 RMK AO2 SLP104 T03000250

2010/08/09 22:53
KSPW 092253Z AUTO 11005KT 10SM OVC027 27/24 A2992 RMK AO2 SLP121 T02720239

2010/08/09 22:53
KSRQ 092253Z 01010KT 10SM SCT039 SCT050 30/25 A2983 RMK AO2 RAE01 SLP101 P0000 T03000250

2010/08/09 22:53
KSTJ 092253Z AUTO 18008KT 10SM CLR 35/25 A2982 RMK AO2 SLP086 T03500250

2010/08/09 22:53
KSTP 092253Z 07004KT 10SM CLR 32/20 A2990 RMK AO2 SLP118 T03220200

2010/08/09 22:53
KSTS 092253Z 18009KT 10SM CLR 23/13 A2986 RMK AO2 SLP106 T02280128

2010/08/09 22:53
KSWO 092253Z 18012KT 10SM CLR 38/20 A2983 RMK AO2 SLP086 T03830200

2010/08/09 22:53
KTCC 092253Z AUTO 21011KT 10SM FEW080 31/13 A2996 RMK AO2 LTG DSNT NW-NE SLP078 T03110128

2010/08/09 22:53
KTCL 092253Z 18004KT 10SM CLR 34/22 A2992 RMK AO2 SLP130 T03440222

2010/08/09 22:53
KTIW 092253Z 24003KT 10SM -RA BKN025 17/13 A2997 RMK AO2 RAB43 SLP148 P0000 T01720128

2010/08/09 22:53
KTMB 092253Z 19007KT 10SM FEW024 SCT033 BKN060 29/23 A2988 RMK AO2 SLP118 T02940233

2010/08/09 22:53
KTOI 092253Z 12004KT 10SM CLR 34/22 A2994 RMK AO2 SLP132 T03390222

2010/08/09 22:53
KTOP 092253Z 19008KT 10SM CLR 38/21 A2983 RMK AO2 SLP088 T03830206

2010/08/09 22:53
KTTD 092253Z VRB03KT 10SM FEW029 18/11 A2998 RMK AO2 SLP152 T01780106

2010/08/09 22:53
KTUL 092253Z 15011KT 10SM SCT070 38/20 A2983 RMK AO2 SLP091 T03780200

2010/08/09 22:50
EDDF 092250Z 05003KT CAVOK 15/13 Q1017 NOSIG

2010/08/09 22:50
EDDH 092250Z 07002KT CAVOK 16/14 Q1016 NOSIG

2010/08/09 22:50
EDDK 092250Z 10005KT CAVOK 14/12 Q1016 NOSIG

2010/08/09 22:50
EDDL 092250Z 12003KT CAVOK 15/13 Q1016 NOSIG

2010/08/09 22:50
EDDM 092250Z 08003KT 9999 MIFG NSC 14/13 Q1018 NOSIG

2010/08/09 22:50
EDDN 092250Z 15001KT CAVOK 14/14 Q1018

2010/08/09 22:50
EDDS 092250Z VRB01KT CAVOK 16/12 Q1018

2010/08/09 22:50
EDDW 092250Z 16004KT CAVOK 16/13 Q1016

2010/08/09 22:54
KDMH 092254Z AUTO 32/20 A2995 RMK AO2 SLP141 T03170200 PWINO TSNO 

2010/08/09 22:54
KAVP 092254Z 23009KT 10SM CLR 31/16 A2994 RMK AO2 SLP126 T03060161 $ 

2010/08/09 22:51
KSAD 092251Z AUTO 30007KT 10SM CLR 36/10 A2990 RMK AO2 SLP066 T03560100 TSNO 

2010/08/09 22:54
KGSO 092254Z 17007KT 10SM FEW055 32/19 A3001 RMK AO2 SLP147 T03170189 

2010/08/09 22:54
KWAL 092254Z AUTO 20009KT 10SM CLR 27/22 A3000 RMK AO2 SLP156 T02670217 TSNO 

2010/08/09 22:50
BGSF 092250Z 04008KT 9999 SCT042 BKN050 11/04 Q1008

2010/08/09 22:50
EFKU 092250Z AUTO 20007KT 9999NDV FEW034 BKN231 19/15 Q1011

2010/08/09 22:50
EFOU 092250Z 30003KT 9999 BKN016 17/17 Q1007

2010/08/09 22:55
KBAD 092255Z AUTO 21006KT 10SM CLR 37/20 A2988 RMK AO2 SLP118 T03730200

2010/08/09 22:53
KBAF 092253Z 21006KT 10SM CLR 32/16 A2989 RMK AO2 SLP118 T03170156

2010/08/09 22:53
KBUR 092253Z 17009KT 10SM CLR 26/11 A2987 RMK AO2 SLP102 T02610106

2010/08/09 22:53
KDTS 092253Z AUTO 23003KT 10SM CLR 33/23 A2989 RMK AO2 SLP122 T03280233

2010/08/09 22:55
KGBN 092255Z VRB03KT 12SM SCT110 BKN130 BKN150 40/08 A2977 RMK SLP052

2010/08/09 22:55
KHST 092255Z AUTO 18003KT 10SM FEW020 27/24 A2989 RMK AO2 SLP123 T02740239

2010/08/09 22:55
KIAB 092255Z AUTO 15014KT 10SM CLR 37/19 A2985 RMK AO2 SLP090 T03720194 $

2010/08/09 22:55
KMGE 092255Z 10009KT 10SM SCT065 32/20 A2999 RMK AO2A SLP143 T03240201 $

2010/08/09 22:55
KOFF 092255Z AUTO VRB03KT 10SM CLR 34/25 A2984 RMK AO2 SLP084 T03420251 RVRNO $

2010/08/09 22:55
KSUU 092255Z AUTO 24013KT 10SM CLR 28/13 A2982 RMK AO2 SLP100 T02760128 RVRNO $

2010/08/09 22:55
KSZL 092255Z AUTO 20011KT 10SM CLR 35/25 A2987 RMK AO2 SLP107 T03540247 PNO $

2010/08/09 22:53
KTOI 092253Z 12004KT 10SM CLR 34/22 A2994 RMK AO2 SLP132 T03390222

2010/08/09 22:53
PASC 092253Z 06022KT 10SM OVC005 06/03 A2972 RMK AO2 PK WND 06027/2244 SLP066 T00610033

2010/08/09 22:53
PHJR 092253Z 05008G16KT 360V100 10SM BKN050 29/15 A3009 RMK AO2 SLP197 T02940150

2010/08/09 22:53
PWAK 092253Z 07017KT 10SM FEW026 31/24 A3007 RMK AO2A

2010/08/09 22:54
KNAK 092254Z AUTO 18012G19KT 9SM CLR 29/19 A2995 RMK AO2 SLP143 T02890189 TSNO 

2010/08/09 22:54
K12N 092254Z AUTO 00000KT 29/21 A2993 RMK AO2 SLP128 T02940206 PWINO TSNO 

2010/08/09 22:54
KCOU 092254Z 16006KT 10SM FEW080 33/27 A2990 RMK AO2 SLP112 T03280267 

2010/08/09 22:50
EDVK 092250Z VRB01KT CAVOK 13/10 Q1017

2010/08/09 22:50
EDXW 092250Z AUTO 16007KT 9999NDV NCD 14/12 Q1015

2010/08/09 22:54
KACY 092254Z 18009KT 10SM CLR 28/20 A2999 RMK AO2 SLP153 T02830200 

2010/08/09 22:54
KRSP 092254Z AUTO VRB04KT 7SM CLR 29/18 A3003 RMK AO2 SLP157 T02940183 $ 

2010/08/09 22:54
KRIC 092254Z 19008KT 7SM FEW055 SCT250 32/18 A2997 RMK AO2 SLP151 T03220178 $ 

2010/08/09 22:54
KCAR 092254Z AUTO 23004KT 10SM CLR 23/18 A2980 RMK AO2 SLP092 T02330178 

2010/08/09 22:50
EDQM 092250Z AUTO 00000KT 5000NDV NCD 12/10 Q1019

2010/08/09 22:50
EKAH 092250Z AUTO 23003KT 9999NDV BKN043/// 14/11 Q1015

2010/08/09 22:50
EKBI 092250Z 14002KT CAVOK 11/11 Q1015

2010/08/09 22:50
EKCH 092250Z 22004KT CAVOK 13/11 Q1015 NOSIG

2010/08/09 22:50
EKEB 092250Z AUTO 17006KT 9999NDV BKN069/// 13/11 Q1014

2010/08/09 22:50
EKKA 092250Z 19006KT 160V220 9999 FEW030 SCT060 12/11 Q1014

2010/08/09 22:50
EKRK 092250Z AUTO 22002KT 9999NDV SCT043/// 12/10 Q1015

2010/08/09 22:50
EKRN 092250Z AUTO 34001KT 9999NDV SCT200/// 14/14 Q1016

2010/08/09 22:50
EKSP 092250Z 17003KT CAVOK 10/09 Q1015 RMK FEW055 SCT250

2010/08/09 22:50
EKVD 092250Z AUTO 17003KT //// ///////// 12/10 Q1015

2010/08/09 22:50
EKYT 092250Z 22011KT 9999 FEW035 15/13 Q1013

2010/08/09 22:50
EETN 092250Z 19006KT 9999 FEW016 BKN045 18/16 Q1012

2010/08/09 22:50
EFHF 092250Z AUTO 19010KT 160V220 9999 BKN017 BKN060 20/17 Q1011

2010/08/09 22:50
EFHK 092250Z 19011KT 9999 FEW013 SCT015 BKN019 20/16 Q1011 NOSIG

2010/08/09 22:50
EFJY 092250Z AUTO 17007KT 9999 FEW023 BKN060 18/16 Q1010

2010/08/09 22:50
EFKK 092250Z AUTO 02001KT 7000 -SHRA ////// 17/17 Q1008

2010/08/09 22:50
EFKU 092250Z AUTO 20007KT 9999NDV FEW034 BKN231 19/15 Q1011

2010/08/09 22:50
EFMA 092250Z AUTO 20008KT 9999 FEW005 SCT007 17/17 Q1008

2010/08/09 22:50
EFOU 092250Z 30003KT 9999 BKN016 17/17 Q1007

2010/08/09 22:50
EFPO 092250Z AUTO 17003KT CAVOK 17/17 Q1008

2010/08/09 22:50
EFRO 092250Z AUTO 36012KT 9999NDV SCT007 BKN009 OVC125 11/11 Q1009

2010/08/09 22:50
EFTP 092250Z AUTO 16006KT 130V200 9999 -SHRA FEW008 SCT013 BKN020 BKN031 18/17 Q1009

2010/08/09 22:50
EFTU 092250Z AUTO 20003KT 150V250 9999 FEW009 SCT011 BKN025 18/17 Q1009

2010/08/09 22:50
EFVA 092250Z AUTO 00000KT 5000 SCT036 BKN055 17/17 Q1007

2010/08/09 22:50
ENBO 092250Z 07003KT 9999 FEW040 11/10 Q1010

2010/08/09 22:50
ENBR 092250Z 10003KT 9999 SCT018 BKN025 13/11 Q1011

2010/08/09 22:50
ENCN 092250Z AUTO 22006KT 9999NDV ////// 14/09 Q1012

2010/08/09 22:50
ENHD 092250Z AUTO 13007KT 9999NDV FEW041/// 11/09 Q1011

2010/08/09 22:50
ENSB 092250Z 26020KT 9999 FEW007 SCT010 BKN018 04/02 Q1003

2010/08/09 22:50
ENTC 092250Z 02010KT 9999 FEW012 SCT020 09/07 Q1012

2010/08/09 22:50
ENZV 092250Z 12007KT 9999 SCT041 13/09 Q1011

2010/08/09 22:50
EVRA 092250Z 19002KT CAVOK 15/14 Q1015 NOSIG

2010/08/09 22:50
EYVI 092250Z 16002KT 0150 R20/0325N FG NSC 15/15 Q1016 NOSIG

2010/08/09 22:50
MMMD 092250Z 09012G22KT 7SM BKN010TCU OVC300 30/26 A2988 RMK 8/207 AC

2010/08/09 22:47
MMUN 092247Z 29006KT 7SM SCT020TCU BKN300 25/22 A2992 RMK 8/208 CBS 3 QUAD

2010/08/09 22:45
MMCM 092245Z 00000KT 7SM SCT015 BKN100 31/26 A2985 RMK 8/530

2010/08/09 22:50
ENAL 092250Z AUTO 05005KT 9999NDV BKN026/// OVC032/// 14/13 Q1010

2010/08/09 22:50
ENAN 092250Z 03014KT 9999 FEW008 BKN020 11/09 Q1012

2010/08/09 22:50
ENAT 092250Z AUTO 07009KT 9999NDV SCT053/// 11/09 Q1013

2010/08/09 22:50
ENDU 092250Z 00000KT 9999 FEW045 09/07 Q1012

2010/08/09 22:50
ENEV 092250Z 34005KT 310V020 9999 FEW020 10/09 Q1011

2010/08/09 22:50
ENGC 092250Z 18009KT 9999 BKN025 13/09 Q1010

2010/08/09 22:50
ENHF 092250Z VRB02KT CAVOK 08/06 Q1013

2010/08/09 22:50
ENKB 092250Z 00000KT 9999 SCT007 BKN012 14/12 Q1010

2010/08/09 22:50
ENNA 092250Z 35003KT 9999 SCT010 BKN014 10/08 Q1014

2010/08/09 22:50
ENOL 092250Z 29004KT 9999 5000SE SCT004 11/10 Q1010

2010/08/09 22:50
ENRO 092250Z AUTO 00000KT 6000NDV -RA BKN059/// BKN074/// OVC090/// 12/11 Q1010

2010/08/09 22:50
ENRY 092250Z AUTO 16007KT 9000NDV BKN200/// 17/15 Q1009

2010/08/09 22:50
ENSG 092250Z VRB01KT 9999 VCSH FEW/// SCT005 BKN040 13/11 Q1010

2010/08/09 22:50
ENVD 092250Z 02008KT 9999 SCT005 BKN007 08/07 Q1014

2010/08/09 22:50
LSGG 092250Z VRB01KT 9999 BKN085 19/13 Q1017 NOSIG

2010/08/09 22:50
LSZH 092250Z VRB01KT 9999 FEW054 16/14 Q1018 NOSIG

2010/08/09 22:50
EGCC 092250Z 20003KT 9999 SCT035 13/11 Q1010 NOSIG

2010/08/09 22:50
EGLL 092250Z 20009KT 9999 BKN014 18/15 Q1013 NOSIG

2010/08/09 22:50
EGAA 092250Z 20005KT 140V230 CAVOK 12/10 Q1008

2010/08/09 22:50
EGBB 092250Z 27007KT 240V310 9999 FEW008 BKN011 17/15 Q1010

2010/08/09 22:50
EGCC 092250Z 20003KT 9999 SCT035 13/11 Q1010

2010/08/09 22:50
EGFF 092250Z 27009KT 5000 DZ BR SCT003 BKN004 16/16 Q1011

2010/08/09 22:50
EGGD 092250Z 19009KT 170V230 9999 SCT005 BKN008 16/16 Q1012

2010/08/09 22:50
EGGP 092250Z 22003KT 9999 FEW046 15/12 Q1009

2010/08/09 22:50
EGGW 092250Z 21009KT 180V250 9999 SCT011 17/15 Q1012

2010/08/09 22:50
EGKK 092250Z 22008KT 9999 BKN011 17/15 Q1014

2010/08/09 22:50
EGLL 092250Z 20009KT 9999 BKN014 18/15 Q1013

2010/08/09 22:50
EGMC 092250Z 22008KT 9999 SCT016 18/15 Q1013

2010/08/09 23:00
MYGF 092300Z AUTO 13012KT 9999 FEW027 SCT043 BKN110 26/24 A2996  

2010/08/09 22:50
EGNM 092250Z 24001KT 9999 FEW015 SCT026 13/11 Q1009

2010/08/09 22:50
EGNX 092250Z 25005KT 6000 RADZ FEW009 BKN027 16/14 Q1010

2010/08/09 22:50
EGPB 092250Z 11005KT 9999 FEW009 14/13 Q1006

2010/08/09 22:50
EGPD 092250Z AUTO 35003KT 5000NDV SCT004/// BKN020/// 14/12 Q1005

2010/08/09 22:50
EGPF 092250Z 23004KT 9999 FEW020 11/10 Q1007

2010/08/09 22:50
EGPH 092250Z 21007KT CAVOK 12/10 Q1007

2010/08/09 22:50
EGPK 092250Z 16003KT 9999 FEW015 SCT023 BKN035 12/11 Q1007

2010/08/09 22:50
EGTE 092250Z 21005KT 5000 -DZRA BR FEW005 BKN010 18/17 Q1012

2010/08/09 22:50
EGGP 092250Z 22003KT 9999 FEW046 15/12 Q1009

2010/08/09 22:50
EGGW 092250Z 21009KT 180V250 9999 SCT011 17/15 Q1012

2010/08/09 22:50
EGLC 092250Z AUTO 22011KT 9999 BKN012/// 18/14 Q1013

2010/08/09 22:50
EGPF 092250Z 23004KT 9999 FEW020 11/10 Q1007

2010/08/09 22:50
EGSS 092250Z 21010KT 9999 BKN014 17/14 Q1012

2010/08/09 22:48
K4O4 092248Z AUTO 15007KT 10SM CLR 36/20 A2989 RMK AO2

2010/08/09 22:49
MMTG 092249Z 02005KT 10SM FEW020 SCT080 BKN300 30/24 A2986 RMK 8/463 CB NE AND SE

2010/08/09 22:46
MMVA 092246Z 06008KT 7SM SCT018TCU SCT100 34/25 A2977 RMK 8/220

2010/08/09 22:54
KFWA 092254Z 20003KT 9SM FEW090 BKN140 BKN250 29/24 A2994 RMK AO2 SLP134 T02940244 

2010/08/09 22:50
LOWW 092250Z 19004KT CAVOK 16/14 Q1017 NOSIG

2010/08/09 22:50
LOWL 092250Z AUTO 33003KT 9999 NCD 15/14 Q1018

2010/08/09 22:50
LOWS 092250Z AUTO 19002KT 9999 NCD 14/12 Q1018

2010/08/09 22:50
LOWI 092250Z AUTO 27003KT 9999 NCD 15/13 Q1019

2010/08/09 22:50
LOWG 092250Z AUTO 00000KT 9999 NCD 17/16 Q1018

2010/08/09 22:50
LOWK 092250Z AUTO VRB01KT 9999 FEW050 17/15 Q1018

2010/08/09 22:55
KBKF 092255Z 35011G15KT 7SM TS VCSH BKN070CB BKN110 BKN220 24/11 A3008 RMK OCNL LTGIC AND TS 13W MOV NE SLP123

2010/08/09 22:55
KCBM 092255Z AUTO 34003KT 10SM FEW160 27/24 A2994 RMK AO2 LTG DSNT SW SLP137 T02710242 $

2010/08/09 22:55
KDAA 092255Z AUTO 16007KT 130V190 10SM CLR 32/21 A2996 RMK AO2 SLP145 T03190211

2010/08/09 22:55
KGSB 092255Z AUTO 12003KT 10SM CLR 32/17 A2997 RMK AO2 RAB2217E2227 SLP149 P0000 T03210174

2010/08/09 22:55
KLSF 092255Z AUTO 13006KT 10SM FEW070 35/21 A2993 RMK AO2 SLP132 T03550209 PNO $

2010/08/09 22:55
KMTC 092255Z 00000KT 7SM SCT045 BKN090 BKN130 26/22 A2993 RMK SLP138

2010/08/09 22:55
KMUI 092255Z AUTO 18004KT 10SM CLR 31/19 A2995 RMK AO2 SLP139 T03130194 $

2010/08/09 22:55
KRIV 092255Z AUTO 28010KT 10SM CLR 30/11 A2988 RMK AO2 SLP113 T02990107

2010/08/09 22:55
KSLI 092255Z AUTO 22010KT 10SM CLR 22/14 A2988 RMK AO2 SLP121 T02210145

2010/08/09 22:55
KVBG 092255Z 30007KT 10SM FEW008 SCT014 16/12 A2993 RMK AO2 SLP127 WND ESTMD T01610117

2010/08/09 22:55
KWRI 092255Z AUTO 25008KT 10SM CLR 31/19 A2991 RMK AO2 SLP130 T03140187 $

2010/08/09 22:53
PABI 092253Z 20014G21KT 10SM FEW070 BKN100 BKN180 20/05 A2960 RMK AO2 WSHFT 2229 SLP020 VIRGA VC W T02000050

2010/08/09 22:55
PGUA 092255Z AUTO 00000KT 10SM SCT160 26/24 A2994 RMK AO2 SLP120 T02650242 $

2010/08/09 22:53
TIST 092253Z 10012KT 10SM FEW024 SCT080 29/24 A2995 RMK AO2 SLP141 T02890244

2010/08/09 22:53
TISX 092253Z 11011KT 10SM FEW022 BKN100 28/24 A2995 RMK AO2 SLP141 T02830244

2010/08/09 22:50
HLLT 092250Z 09002KT CAVOK 23/18 Q1016

2010/08/09 22:50
EFHA 092250Z AUTO 16005KT 110V210 9999 FEW010 SCT015 BKN018 BKN065 18/17 Q1010

2010/08/09 22:50
EFHF 092250Z AUTO 19010KT 160V220 9999 BKN017 BKN060 20/17 Q1011

2010/08/09 22:50
EFKA 092250Z AUTO 06001KT 2300 BR SCT029 BKN050 OVC080 17/17 Q1008

2010/08/09 22:50
EFKK 092250Z AUTO 02001KT 7000 -SHRA ////// 17/17 Q1008

2010/08/09 22:50
EFMA 092250Z AUTO 20008KT 9999 FEW005 SCT007 17/17 Q1008

2010/08/09 22:50
EFPO 092250Z AUTO 17003KT CAVOK 17/17 Q1008

2010/08/09 22:50
EFSI 092250Z AUTO 12003KT 5000 FEW028 SCT034 BKN105 16/16 Q1008

2010/08/09 22:50
EGCN 092250Z 26003KT 9999 FEW038 16/12 Q1010

2010/08/09 22:50
EGNT 092250Z 23003KT 9999 FEW030 11/08 Q1008

2010/08/09 22:55
KBAD 092255Z AUTO 21006KT 10SM CLR 37/20 A2988 RMK AO2 SLP118 T03730200

2010/08/09 22:55
KBKF 092255Z 35011G15KT 7SM TS VCSH BKN070CB BKN110 BKN220 24/11 A3008 RMK OCNL LTGIC AND TS 13W MOV NE SLP123

2010/08/09 22:55
KCBM 092255Z AUTO 34003KT 10SM FEW160 27/24 A2994 RMK AO2 LTG DSNT SW SLP137 T02710242 $

2010/08/09 22:55
KCEF 092255Z AUTO 18006KT 10SM FEW120 31/18 A2989 RMK AO2 CLDS LWR RWY05 SLP121 T03140179 PWINO $

2010/08/09 22:55
KDAA 092255Z AUTO 16007KT 130V190 10SM CLR 32/21 A2996 RMK AO2 SLP145 T03190211

2010/08/09 22:55
KGBN 092255Z VRB03KT 12SM SCT110 BKN130 BKN150 40/08 A2977 RMK SLP052

2010/08/09 22:55
KGRF 092255Z AUTO VRB04KT 10SM BKN024 OVC029 18/12 A2997 RMK AO2 SLP150 T01840125

2010/08/09 22:55
KGSB 092255Z AUTO 12003KT 10SM CLR 32/17 A2997 RMK AO2 RAB2217E2227 SLP149 P0000 T03210174

2010/08/09 22:55
KHFF 092255Z AUTO 17006KT 10SM CLR 32/21 A3000 RMK AO2 SLP154 T03240208 $

2010/08/09 22:55
KHMN 092255Z 29007KT 10SM CLR 33/11 A2997 RMK AO2A SLP063 T03320108 $

2010/08/09 22:55
KHST 092255Z AUTO 18003KT 10SM FEW020 27/24 A2989 RMK AO2 SLP123 T02740239

2010/08/09 22:55
KIAB 092255Z AUTO 15014KT 10SM CLR 37/19 A2985 RMK AO2 SLP090 T03720194 $

2010/08/09 22:47
KIWA 092247Z 22006KT 45SM SCT120 SCT200 41/10 A2982

2010/08/09 22:55
KLRF 092255Z AUTO 09006KT 10SM CLR 36/26 A2988 RMK AO2 SLP116 T03590264

2010/08/09 22:55
KMGE 092255Z 10009KT 10SM SCT065 32/20 A2999 RMK AO2A SLP143 T03240201 $

2010/08/09 22:50
HLLT 092250Z 09002KT CAVOK 23/18 Q1016

2010/08/09 22:50
EBAW 092250Z AUTO 19005KT CAVOK 19/12 Q1015

2010/08/09 22:50
EBBR 092250Z 25005KT CAVOK 16/12 Q1015 NOSIG

2010/08/09 22:50
EBCI 092250Z 20004KT CAVOK 17/11 Q1016 NOSIG

2010/08/09 22:50
EBLG 092250Z 14007KT CAVOK 17/11 Q1016 NOSIG

2010/08/09 22:50
EBOS 092250Z 20005KT 9999 SCT016 13/10 Q1015 NOSIG

2010/08/09 22:50
ELLX 092250Z 00000KT CAVOK 18/12 Q1017 NOSIG

2010/08/09 22:50
EBAW 092250Z AUTO 19005KT CAVOK 19/12 Q1015

2010/08/09 22:50
EBBR 092250Z 25005KT CAVOK 16/12 Q1015 NOSIG

2010/08/09 22:50
EBCI 092250Z 20004KT CAVOK 17/11 Q1016 NOSIG

2010/08/09 22:50
EBLG 092250Z 14007KT CAVOK 17/11 Q1016 NOSIG

2010/08/09 22:50
EBOS 092250Z 20005KT 9999 SCT016 13/10 Q1015 NOSIG

2010/08/09 22:50
EDFH 092250Z 19005KT CAVOK 16/10 Q1017

2010/08/09 22:50
EDQM 092250Z AUTO 00000KT 5000NDV NCD 12/10 Q1019

2010/08/09 22:50
EDVK 092250Z VRB01KT CAVOK 13/10 Q1017

2010/08/09 22:55
EGUL 092255Z AUTO 21009KT 9999 BKN065 19/14 A2986 RMK AO2 SLP113 T01850143

2010/08/09 22:55
EHEH 092255Z AUTO 15005KT 9999NDV FEW068 16/12 Q1015 BLU

2010/08/09 22:50
ELLX 092250Z 00000KT CAVOK 18/12 Q1017 NOSIG

2010/08/09 22:50
ENAL 092250Z AUTO 05005KT 9999NDV BKN026/// OVC032/// 14/13 Q1010

2010/08/09 22:50
ENCN 092250Z AUTO 22006KT 9999NDV ////// 14/09 Q1012

2010/08/09 22:50
ENHD 092250Z AUTO 13007KT 9999NDV FEW041/// 11/09 Q1011

2010/08/09 22:50
ENHF 092250Z VRB02KT CAVOK 08/06 Q1013

2010/08/09 22:50
ENRO 092250Z AUTO 00000KT 6000NDV -RA BKN059/// BKN074/// OVC090/// 12/11 Q1010

2010/08/09 22:50
ENRY 092250Z AUTO 16007KT 9000NDV BKN200/// 17/15 Q1009

2010/08/09 22:50
ENSB 092250Z 26020KT 9999 FEW007 SCT010 BKN018 04/02 Q1003

2010/08/09 22:50
ENSG 092250Z VRB01KT 9999 VCSH FEW/// SCT005 BKN040 13/11 Q1010

2010/08/09 22:50
ENTC 092250Z 02010KT 9999 FEW012 SCT020 09/07 Q1012

2010/08/09 22:55
ETEB 092255Z AUTO 00000KT 9999 BKN075 15/14 A3008 RMK AO2 SLP174 T01520138 402170122

2010/08/09 22:50
LOWG 092250Z AUTO 00000KT 9999 NCD 17/16 Q1018

2010/08/09 22:50
LOWI 092250Z AUTO 27003KT 9999 NCD 15/13 Q1019

2010/08/09 22:50
LOWK 092250Z AUTO VRB01KT 9999 FEW050 17/15 Q1018

2010/08/09 22:50
LOWL 092250Z AUTO 33003KT 9999 NCD 15/14 Q1018

2010/08/09 22:50
LOWS 092250Z AUTO 19002KT 9999 NCD 14/12 Q1018

2010/08/09 22:50
LOWW 092250Z 19004KT CAVOK 16/14 Q1017 NOSIG

2010/08/09 22:53
KMWT 092253Z AUTO 00000KT 10SM CLR 36/21 A2989 RMK AO2 SLP107 T03560211 TSNO 

2010/08/09 22:55
YBCS 092255Z 11007KT 3000 -SHRA FEW003 BKN018 BKN030 23/22 Q1016

2010/08/09 22:55
KBAD 092255Z AUTO 21006KT 10SM CLR 37/20 A2988 RMK AO2 SLP118 T03730200

2010/08/09 22:53
KBRO 092253Z AUTO 13014G19KT 10SM FEW031 34/24 A2985 RMK AO2 SLP108 T03390244 TSNO

2010/08/09 22:53
KFLL 092253Z 15009KT 10SM SCT027 BKN060 29/23 A2988 RMK AO2 SLP117 T02890233

2010/08/09 22:55
KGSB 092255Z AUTO 12003KT 10SM CLR 32/17 A2997 RMK AO2 RAB2217E2227 SLP149 P0000 T03210174

2010/08/09 22:55
KHST 092255Z AUTO 18003KT 10SM FEW020 27/24 A2989 RMK AO2 SLP123 T02740239

2010/08/09 22:51
KJFK 092251Z 19020G25KT 10SM FEW140 BKN250 27/19 A2994 RMK AO2 SLP138 T02670194

2010/08/09 22:53
KMCO 092253Z 11012KT 10SM FEW034 SCT100 29/23 A2989 RMK AO2 SLP120 T02940228

2010/08/09 22:52
KNHK 092252Z 14005KT 10SM SCT250 30/22 A2997 RMK AO2 SLP150 T03000222 $

2010/08/09 22:55
KOFF 092255Z AUTO VRB03KT 10SM CLR 34/25 A2984 RMK AO2 SLP084 T03420251 RVRNO $

2010/08/09 22:53
KPBI 092253Z 15010KT 10SM FEW022 SCT028TCU SCT250 28/24 A2988 RMK AO2 SLP119 TCU E-SE CB DSNT SW-W T02830239

2010/08/09 22:55
KVPS 092255Z 22005KT 10SM FEW055 FEW220 32/24 A2991 RMK AO2A SLP128 T03220237 $

2010/08/09 22:55
KWRI 092255Z AUTO 25008KT 10SM CLR 31/19 A2991 RMK AO2 SLP130 T03140187 $

2010/08/09 23:00
SPIM 092300Z 18009KT 8000 SCT014 15/12 Q1016 NOSIG RMK PP000

2010/08/09 22:53
TIST 092253Z 10012KT 10SM FEW024 SCT080 29/24 A2995 RMK AO2 SLP141 T02890244

2010/08/09 22:53
TISX 092253Z 11011KT 10SM FEW022 BKN100 28/24 A2995 RMK AO2 SLP141 T02830244

2010/08/09 22:55
KQA4 092255Z AUTO 36015G22KT 7000 HZ CLR 28/M03 A2977 RMK AO2 SLP983 T02751031 404050275

2010/08/09 22:55
KQAQ 092255Z 36003KT 9000 HZ CLR 35/06 A2954 RMK SLP000 PA +478 DA +2808

2010/08/09 22:55
KQAR 092255Z AUTO 36001KT 12SM CLR 32/M01 A2956 RMK AO2 SLP947 T03171009 $

2010/08/09 22:55
KQCJ 092255Z AUTO 09004KT 9SM BKN070 BKN180 16/14 A3009 RMK AO2 SLP121 T01600138

2010/08/09 22:55
KQDD 092255Z AUTO 30001KT 9999 SCT070 BKN090 25/11 A2999 RMK AO2 SLP153

2010/08/09 22:55
KQIR 092255Z 00000KT 9000 HZ CLR 30/27 A2945 RMK AO2A SLP969 T02980266

2010/08/09 22:55
KQLD 092255Z AUTO 04001KT 9999 FEW140 BKN180 16/13 A3017 RMK AO2 SLP133 T01610126

2010/08/09 22:55
KQMG 092255Z AUTO 30006G19KT 10SM CLR 33/05 A3000 RMK AO2 SLP079 T03340048

2010/08/09 22:55
KQTI 092255Z AUTO 34010KT 9999 CLR 31/04 A2963 RMK AO2 SLP006 T03100036

2010/08/09 22:55
KQTU 092255Z VRB02KT 9999 CLR 33/04 A2961 RMK SLP006

2010/08/09 22:55
KQVF 092255Z AUTO 16003KT 10SM FEW022 23/20 A2997 RMK AO2 SLP147 T02280201

2010/08/09 22:55
KQXJ 092255Z 31006KT 9999 CLR 32/03 A2948 RMK SLP980 PA+436 DA+2522

2010/08/09 22:55
YBCS 092255Z 11007KT 3000 -SHRA FEW003 BKN018 BKN030 23/22 Q1016

2010/08/09 22:54
KRFD 092254Z 30003KT 10SM FEW030 SCT070 30/22 A2993 RMK AO2 SLP129 T03000217 $ 

2010/08/09 22:52
KMWN 092252Z 26022KT 1/16SM FG VV000 13/13 RMK 

2010/08/09 22:53
KRTN 092253Z AUTO 36011KT 10SM FEW080 24/15 A3014 RMK AO2 RAE2156B28E48 SLP113 P0000 T02440150 TSNO $ 

2010/08/09 22:55
KGTB 092255Z AUTO 25007KT 10SM -DZ SCT017 BKN023 BKN028 23/21 A2993 RMK AO2 DZB2217 SLP135 P0000 T02330208

2010/08/09 22:54
KNFG 092254Z 24010KT 7SM CLR 22/13 A2988 RMK AO2 SLP116 T02170133

2010/08/09 22:54
KNKT 092254Z 17007KT 10SM FEW019 SCT080 28/23 A3001 RMK AO2 SLP158 T02830233

2010/08/09 22:53
KNQX 092253Z 23005KT 10SM SCT010 BKN020 BKN040 BKN140 27/24 A2988 RMK AO2 SLP116 T2 SET T02720244 $

2010/08/09 22:55
KOFF 092255Z AUTO VRB03KT 10SM CLR 34/25 A2984 RMK AO2 SLP084 T03420251 RVRNO $

2010/08/09 22:55
KOZR 092255Z AUTO 07006KT 10SM CLR 34/22 A2992 RMK AO2 SLP129 T03420217 $

2010/08/09 22:55
KRIV 092255Z AUTO 28010KT 10SM CLR 30/11 A2988 RMK AO2 SLP113 T02990107

2010/08/09 22:55
KRND 092255Z AUTO 14010G17KT 10SM FEW060 35/21 A2986 RMK AO2 SLP101 T03460212

2010/08/09 22:55
KSLI 092255Z AUTO 22010KT 10SM CLR 22/14 A2988 RMK AO2 SLP121 T02210145

2010/08/09 22:55
KSUU 092255Z AUTO 24013KT 10SM CLR 28/13 A2982 RMK AO2 SLP100 T02760128 RVRNO $

2010/08/09 22:55
KTIK 092255Z 12010KT 10SM CLR 37/20 A2986 RMK AO2A SLP096 T03670204

2010/08/09 22:55
KTTS 092255Z 13007KT 10SM FEW022 FEW210 29/25 A2991 RMK SLP129 2CU /2/ 1CI /2/

2010/08/09 22:55
KVBG 092255Z 30007KT 10SM FEW008 SCT014 16/12 A2993 RMK AO2 SLP127 WND ESTMD T01610117

2010/08/09 22:55
KVPS 092255Z 22005KT 10SM FEW055 FEW220 32/24 A2991 RMK AO2A SLP128 T03220237 $

2010/08/09 22:55
KWRB 092255Z 02003KT 10SM CLR 34/24 A2994 RMK AO2A SLP137 T03410243

2010/08/09 22:55
KWRI 092255Z AUTO 25008KT 10SM CLR 31/19 A2991 RMK AO2 SLP130 T03140187 $

2010/08/09 22:45
MMCM 092245Z 00000KT 7SM SCT015 BKN100 31/26 A2985 RMK 8/530

2010/08/09 22:50
MMMD 092250Z 09012G22KT 7SM BKN010TCU OVC300 30/26 A2988 RMK 8/207 AC

2010/08/09 22:45
MMOX 092245Z 12007KT 12SM SCTO3OCB BKN100 BKN200 27/16 A3004 RMK 8/968 DSNT CB SE S SW STN

2010/08/09 22:49
MMTG 092249Z 02005KT 10SM FEW020 SCT080 BKN300 30/24 A2986 RMK 8/463 CB NE AND SE

2010/08/09 22:47
MMUN 092247Z 29006KT 7SM SCT020TCU BKN300 25/22 A2992 RMK 8/208 CBS 3 QUAD

2010/08/09 22:46
MMVA 092246Z 06008KT 7SM SCT018TCU SCT100 34/25 A2977 RMK 8/220

2010/08/09 22:45
MMZH 092245Z 20010KT 7SM SCT020CB SCT100 BKN250 31/25 A2976 RMK 8/963

2010/08/09 22:55
PAEI 092255Z AUTO 36010KT 10SM FEW065 SCT140 21/10 A2955 RMK AO2 SLP007 T02110098 $

2010/08/09 22:55
PGUA 092255Z AUTO 00000KT 10SM SCT160 26/24 A2994 RMK AO2 SLP120 T02650242 $

2010/08/09 22:53
PHJR 092253Z 05008G16KT 360V100 10SM BKN050 29/15 A3009 RMK AO2 SLP197 T02940150

2010/08/09 22:52
PTRO 092252Z 00000KT 14SM SCT016TCU BKN120 BKN300 26/25 A2989 RMK TCU VC ALQDS

2010/08/09 22:53
PWAK 092253Z 07017KT 10SM FEW026 31/24 A3007 RMK AO2A

2010/08/09 22:55
RODN 092255Z 17014KT 9999 -RA SCT045 27/25 A2979 RMK AO2A PK WND 19033/2210 SLP088 P0028 T02650253

2010/08/09 22:55
KAFF 092255Z AUTO VRB03KT 10SM FEW046 23/15 A3016 RMK AO2 LTG DSNT E SLP117 T02250147

2010/08/09 22:55
KDYS 092255Z AUTO 14008KT 10SM FEW075 36/17 A2987 RMK AO2 SLP088 T03560175 $

2010/08/09 22:55
KFAF 092255Z AUTO 15007KT 10SM CLR 30/21 A2998 RMK AO2 SLP152 T03010208 $

2010/08/09 22:55
KFBG 092255Z 12006KT 10SM CLR 32/20 A2998 RMK AO2A SLP149 T03230196 $

2010/08/09 22:55
KFSI 092255Z AUTO 22010KT 10SM CLR 38/19 A2982 RMK AO2 SLP074 T03780186

2010/08/09 22:55
KGTB 092255Z AUTO 25007KT 10SM -DZ SCT017 BKN023 BKN028 23/21 A2993 RMK AO2 DZB2217 SLP135 P0000 T02330208

2010/08/09 22:55
KLHW 092255Z AUTO 11008KT 10SM FEW130 32/25 A2993 RMK AO2 SLP137 T03150247

2010/08/09 22:55
KMXF 092255Z AUTO 14006KT 10SM CLR 37/19 A2991 RMK AO2 SLP126 T03660191

2010/08/09 22:55
KOZR 092255Z AUTO 07006KT 10SM CLR 34/22 A2992 RMK AO2 SLP129 T03420217 $

2010/08/09 22:55
KRND 092255Z AUTO 14010G17KT 10SM FEW060 35/21 A2986 RMK AO2 SLP101 T03460212

2010/08/09 22:55
KTIK 092255Z 12010KT 10SM CLR 37/20 A2986 RMK AO2A SLP096 T03670204

2010/08/09 22:55
KTTS 092255Z 13007KT 10SM FEW022 FEW210 29/25 A2991 RMK SLP129 2CU /2/ 1CI /2/

2010/08/09 22:55
KVPS 092255Z 22005KT 10SM FEW055 FEW220 32/24 A2991 RMK AO2A SLP128 T03220237 $

2010/08/09 22:55
PAEI 092255Z AUTO 36010KT 10SM FEW065 SCT140 21/10 A2955 RMK AO2 SLP007 T02110098 $

2010/08/09 22:55
RODN 092255Z 17014KT 9999 -RA SCT045 27/25 A2979 RMK AO2A PK WND 19033/2210 SLP088 P0028 T02650253

2010/08/09 22:55
KDRA 092255Z AUTO 21016G26KT 10SM CLR 34/M07 A2991 RMK AO2 PK WND 22026/2253 SLP080 T03441072 TSNO 

2010/08/09 22:55
CWCL 092255Z AUTO 05004KT 9SM OVC023 13/08 A2995

2010/08/09 22:54
KAKQ 092254Z AUTO 00000KT 7SM CLR 32/19 A2998 RMK AO2 SLP150 T03170194 TSNO 

2010/08/09 22:50
EGNT 092250Z 23003KT 9999 FEW030 11/08 Q1008

2010/08/09 22:55
EGUN 092255Z AUTO 21009KT 9999 BKN060 OVC090 18/18 A2987 RMK AO2 SLP105 T01790177

2010/08/09 22:50
ENAN 092250Z 03014KT 9999 FEW008 BKN020 11/09 Q1012

2010/08/09 22:50
ENAT 092250Z AUTO 07009KT 9999NDV SCT053/// 11/09 Q1013

2010/08/09 22:50
ENBO 092250Z 07003KT 9999 FEW040 11/10 Q1010

2010/08/09 22:50
ENBR 092250Z 10003KT 9999 SCT018 BKN025 13/11 Q1011

2010/08/09 22:50
ENDU 092250Z 00000KT 9999 FEW045 09/07 Q1012

2010/08/09 22:50
ENEV 092250Z 34005KT 310V020 9999 FEW020 10/09 Q1011

2010/08/09 22:50
ENGC 092250Z 18009KT 9999 BKN025 13/09 Q1010

2010/08/09 22:50
ENHE 092250Z 05019KT 9999 BKN014 10/08 Q1012

2010/08/09 22:50
ENKB 092250Z 00000KT 9999 SCT007 BKN012 14/12 Q1010

2010/08/09 22:50
ENNA 092250Z 35003KT 9999 SCT010 BKN014 10/08 Q1014

2010/08/09 22:50
ENOL 092250Z 29004KT 9999 5000SE SCT004 11/10 Q1010

2010/08/09 22:50
ENVD 092250Z 02008KT 9999 SCT005 BKN007 08/07 Q1014

2010/08/09 22:50
ENZV 092250Z 12007KT 9999 SCT041 13/09 Q1011

2010/08/09 22:55
ETAR 092255Z AUTO 00000KT 9999 FEW090 13/13 A3004 RMK AO2 SLP169 T01320131 402400102 $

2010/08/09 22:50
LIEA 092250Z 05003KT 030V090 CAVOK 17/11 Q1017

2010/08/09 22:45
LIEE 092245Z 31005KT 9999 FEW020 24/08 Q1016 NOSIG

2010/08/09 22:50
LIEO 092250Z 20003KT CAVOK 22/17 Q1016

2010/08/09 22:50
LIMC 092250Z VRB01KT CAVOK 19/16 Q1016 NOSIG

2010/08/09 22:50
LIME 092250Z 01006KT CAVOK 20/17 Q1016

2010/08/09 22:50
LIMF 092250Z VRB01KT 9999 SCT120 22/17 1016

2010/08/09 22:50
LIMJ 092250Z 06006KT 9999 FEW020 24/20 Q1016

2010/08/09 22:50
LIML 092250Z VRB03KT CAVOK 23/17 Q1015 NOSIG

2010/08/09 22:45
LIRA 092245Z 08002KT CAVOK 22/16 Q1015

2010/08/09 22:50
LIRF 092250Z 29003KT CAVOK 18/17 Q1015 NOSIG

2010/08/09 22:50
LIRN 092250Z 00000KT 9999 FEW070 23/19 Q1014

2010/08/09 22:45
LIRP 092245Z 10002KT 9999 FEW015 SCT025 21/21 Q1015 NOSIG

2010/08/09 22:55
KPOE 092255Z AUTO 19006KT 10SM CLR 35/22 A2990 RMK AO2 SLP125 T03500222 

2010/08/09 22:55
KAST 092255Z AUTO 27007KT 10SM SCT014 OVC022 16/12 A3002 RMK AO2 SLP164 T01560122 

2010/08/09 22:55
KADW 092255Z AUTO 19010KT 10SM CLR 31/22 A2996 RMK AO2 SLP144 T03070215 $

2010/08/09 22:55
KAFF 092255Z AUTO VRB03KT 10SM FEW046 23/15 A3016 RMK AO2 LTG DSNT E SLP117 T02250147

2010/08/09 22:55
KDOV 092255Z AUTO 13006KT 10SM CLR 30/21 A2995 RMK AO2 SLP144 T02960210

2010/08/09 22:55
KDYS 092255Z AUTO 14008KT 10SM FEW075 36/17 A2987 RMK AO2 SLP088 T03560175 $

2010/08/09 22:55
KFAF 092255Z AUTO 15007KT 10SM CLR 30/21 A2998 RMK AO2 SLP152 T03010208 $

2010/08/09 22:55
KFBG 092255Z 12006KT 10SM CLR 32/20 A2998 RMK AO2A SLP149 T03230196 $

2010/08/09 22:55
KFCS 092255Z AUTO 18010KT 10SM BKN110 BKN130 24/15 A3012 RMK AO2 LTG DSNT SE SLP121 T02440148

2010/08/09 22:55
KFSI 092255Z AUTO 22010KT 10SM CLR 38/19 A2982 RMK AO2 SLP074 T03780186

2010/08/09 22:55
KHIF 092255Z AUTO 23011KT 10SM FEW140 27/05 A3002 RMK AO2 SLP053 T02710050

2010/08/09 22:55
KLHW 092255Z AUTO 11008KT 10SM FEW130 32/25 A2993 RMK AO2 SLP137 T03150247

2010/08/09 22:55
KLSF 092255Z AUTO 13006KT 10SM FEW070 35/21 A2993 RMK AO2 SLP132 T03550209 PNO $

2010/08/09 22:55
KMTC 092255Z 00000KT 7SM SCT045 BKN090 BKN130 26/22 A2993 RMK SLP138

2010/08/09 22:55
KMUI 092255Z AUTO 18004KT 10SM CLR 31/19 A2995 RMK AO2 SLP139 T03130194 $

2010/08/09 22:55
KMXF 092255Z AUTO 14006KT 10SM CLR 37/19 A2991 RMK AO2 SLP126 T03660191

2010/08/09 22:52
KNFW 092252Z 17010KT 10SM FEW070 38/18 A2987 RMK AO2 SLP101 T03830178

2010/08/09 22:55
KNBG 092255Z 00000KT 8SM FEW008 SCT130 OVC250 26/24 A2995 RMK AO2 SLP140 T2 SET T02610239 $ 

2010/08/09 22:55
ETAR 092255Z AUTO 00000KT 9999 FEW090 13/13 A3004 RMK AO2 SLP169 T01320131 402400102 $

2010/08/09 22:55
KADW 092255Z AUTO 19010KT 10SM CLR 31/22 A2996 RMK AO2 SLP144 T03070215 $

2010/08/09 22:55
KDOV 092255Z AUTO 13006KT 10SM CLR 30/21 A2995 RMK AO2 SLP144 T02960210

2010/08/09 22:55
KFCS 092255Z AUTO 18010KT 10SM BKN110 BKN130 24/15 A3012 RMK AO2 LTG DSNT SE SLP121 T02440148

2010/08/09 22:55
KHIF 092255Z AUTO 23011KT 10SM FEW140 27/05 A3002 RMK AO2 SLP053 T02710050

2010/08/09 22:54
KNFG 092254Z 24010KT 7SM CLR 22/13 A2988 RMK AO2 SLP116 T02170133

2010/08/09 22:52
KNFW 092252Z 17010KT 10SM FEW070 38/18 A2987 RMK AO2 SLP101 T03830178

2010/08/09 22:53
KNIP 092253Z 11012KT 10SM SCT030 SCT130 BKN250 31/23 A2993 RMK AO2 SLP130 T2 SET T03060233

2010/08/09 22:54
KNKT 092254Z 17007KT 10SM FEW019 SCT080 28/23 A3001 RMK AO2 SLP158 T02830233

2010/08/09 22:53
KNQX 092253Z 23005KT 10SM SCT010 BKN020 BKN040 BKN140 27/24 A2988 RMK AO2 SLP116 T2 SET T02720244 $

2010/08/09 22:52
KNRB 092252Z 11009KT 10SM FEW025TCU SCT040 BKN150 BKN250 30/23 A2994 RMK AO2 SLP137 TCU N T2 SET T03000233

2010/08/09 22:55
KPOB 092255Z AUTO 11005KT 10SM CLR 32/22 A2998 RMK AO2 SLP150 T03240215 $

2010/08/09 22:55
KWRB 092255Z 02003KT 10SM CLR 34/24 A2994 RMK AO2A SLP137 T03410243

2010/08/09 22:55
KXMR 092255Z AUTO 13007KT 10SM CLR 29/24 A2991 RMK AO2 SLP128 T02880244

2010/08/09 23:00
MYGF 092300Z AUTO 13012KT 9999 FEW027 SCT043 BKN110 26/24 A2996

2010/08/09 22:55
PHHI 092255Z AUTO 08012G20KT 10SM BKN045 OVC055 26/16 A3012 RMK AO2 SLP186 T02620157 $

2010/08/09 22:50
TJPS 092250Z 00000KT 10SM -RA BKN030 BKN060 27/25 A2993 RMK RAB30

2010/08/09 23:00
FAVV 092300Z AUTO 19003KT //// // ////// 02/M12 Q1027

2010/08/09 23:00
FAJB 092300Z AUTO 20003KT //// // ////// 03/M12 Q1028

2010/08/09 23:00
FASI 092300Z AUTO 20003KT //// // ////// 04/M10 Q1028

2010/08/09 23:00
FAGC 092300Z AUTO 18010KT //// // ////// 03/M12 Q1028

2010/08/09 22:55
KVBG 092255Z 30007KT 10SM FEW008 SCT014 16/12 A2993 RMK AO2 SLP127 WND ESTMD T01610117 VISNO RWY12 $ 

2010/08/09 22:55
KANJ 092255Z AUTO 16004KT 10SM SCT037 27/20 A2988 RMK AO2 SLP114 T02720200 

2010/08/09 22:56
KABQ 092256Z VRB04KT 10SM SCT090CB BKN150 29/09 A3007 RMK AO2 RAB39E55 SLP087 CB NE MOV NE TCU SW P0000 T02940094 

2010/08/09 22:56
KJAX 092256Z 07008KT 10SM FEW037 SCT075 SCT130 BKN200 29/24 A2993 RMK AO2 SLP136 T02890244 

2010/08/09 22:55
CYSN 092255Z 22010KT 7SM -SHRA SCT012 OVC120 RMK SF3AC5

2010/08/09 22:55
CYYC 092255Z 12008KT 40SM -TSRA SCT060CB BKN100 BKN220 22/ RMK CB3AC4CI1

2010/08/09 22:45
MMTP 092245Z 00000KT 10SM BKN020TCU BKN300 27/24 A2985 RMK 8/206

2010/08/09 22:55
KMKG 092255Z 23010KT 10SM SCT015 SCT028 27/22 A2993 RMK AO2 SLP129 T02670222

2010/08/09 22:55
KMNI 092255Z AUTO 11003KT 10SM BKN049 BKN060 31/26 A2997 RMK AO2

2010/08/09 22:53
KMSN 092253Z 04004KT 10SM FEW036 31/23 A2991 RMK AO2 SLP120 T03060228

2010/08/09 22:53
KOVE 092253Z AUTO 14007KT 10SM CLR 31/13 A2982 RMK AO2 SLP099 T03110128 TSNO $

2010/08/09 22:55
KRBW 092255Z AUTO 12006KT 10SM SCT026 SCT033 SCT047 31/25 A2997 RMK AO2

2010/08/09 22:55
KRNO 092255Z 25009G14KT 10SM SCT080 BKN090 31/02 A2993 RMK AO2 SLP081 TCU DSNT S T03060022

2010/08/09 22:54
KROA 092254Z 16008KT 10SM FEW080 31/19 A3002 RMK AO2 SLP151 T03060189

2010/08/09 22:53
KSAV 092253Z 09010KT 10SM FEW035TCU SCT110 BKN250 31/24 A2995 RMK AO2 SLP140 TCU N-E T03110239

2010/08/09 22:55
KSCK 092255Z 28006KT 10SM CLR 31/11 A2981 RMK AO2 SLP095 T03060111

2010/08/09 22:53
KSGR 092253Z 15015G21KT 10SM CLR 33/24 A2988 RMK AO2 SLP124 T03330239

2010/08/09 22:55
KSPL 092255Z AUTO 08010KT CLR 33/27 A2986 RMK AO2 PWINO PNO

2010/08/09 22:53
KTLH 092253Z 05007KT 10SM FEW060 34/20 A2990 RMK AO2 SLP125 CB DSNT E AND SE T03440200

2010/08/09 22:55
KTME 092255Z AUTO 13006KT 10SM CLR 35/23 A2988 RMK AO2

2010/08/09 22:53
KTRI 092253Z 00000KT 10SM FEW050 SCT065 SCT250 33/17 A3001 RMK AO2 SLP143 T03330167

2010/08/09 22:55
KTSP 092255Z AUTO RMK AO2 PWINO PNO FZRANO TSNO

2010/08/09 22:53
KTYS 092253Z 09004KT 10SM FEW060 34/21 A2996 RMK AO2 SLP132 T03390206

2010/08/09 22:55
KUTA 092255Z AUTO 00000KT 10SM CLR 28/25 A2993 RMK AO2

2010/08/09 22:55
KX40 092255Z AUTO 00000KT 7SM CLR 31/26 A2988 RMK AO2 T03120260

2010/08/09 22:53
KLAX 092253Z 26011KT 10SM CLR 19/12 A2990 RMK AO2 SLP124 T01940122 $

2010/08/09 22:55
KAEG 092255Z AUTO 31005KT 10SM SCT100 SCT120 29/07 A3010 RMK AO1

2010/08/09 22:55
KAIK 092255Z AUTO 13005KT 10SM CLR 31/26 A3001 RMK AO2 PNO

2010/08/09 22:55
KBBP 092255Z AUTO 13004KT 10SM CLR 32/22 A2998 RMK AO2

2010/08/09 22:56
KBMI 092256Z 16005KT 10SM CLR 33/25 A2994 RMK AO2 T03270250 SLP119 $

2010/08/09 22:55
KBNL 092255Z AUTO 09007KT 10SM CLR 32/19 A2997 RMK AO2

2010/08/09 22:56
KBOK 092256Z AUTO 19006KT 8SM CLR 16/12 A2993 RMK AO2 T01550116 SLP135

2010/08/09 22:53
KBTR 092253Z 24004KT 8SM -RA FEW006 SCT039 BKN110 25/24 A2993 RMK AO2 TSE45RAB2158 SLP133 CB DSNT S-SW MOVG SW TS MOVD SW P0005 T02500244

2010/08/09 22:54
KBTV 092254Z 00000KT 10SM -RA FEW023 SCT047 BKN060 23/21 A2987 RMK AO2 RAB2157E10B49 SLP114 P0000 T02280206

2010/08/09 22:55
KBWD 092255Z AUTO 15009KT 10SM -RA CLR 37/15 A2986 RMK AO2 P0001

2010/08/09 22:55
KCGC 092255Z AUTO 00000KT 10SM CLR 29/25 A2987 RMK

2010/08/09 22:53
KCHA 092253Z 15004KT 10SM FEW060 BKN095 BKN120 BKN250 34/22 A2995 RMK AO2 SLP134 CB DSNT NW T03390217 $

2010/08/09 22:55
KCMA 092255Z AUTO 22010G15KT 10SM CLR 21/13 A2989 RMK AO2 SLP129 T02110133 TSNO

2010/08/09 22:55
KCNK 092255Z AUTO 16012KT 10SM CLR 37/19 A2982 RMK AO2 LTG DSNT N AND NW SLP075 T03720189

2010/08/09 22:55
KCQW 092255Z AUTO 14003KT 5SM HZ CLR 32/21 A2999 RMK AO2

2010/08/09 22:53
KDAB 092253Z 09009G14KT 10SM FEW023 SCT250 29/24 A2991 RMK AO2 SLP129 TCU DSNT W T02890239

2010/08/09 22:55
KDCM 092255Z AUTO 14005KT 7SM CLR 32/26 A3000 RMK AO2

2010/08/09 22:55
KDLH 092255Z 29006KT 10SM CLR 31/18 A2994 RMK AO2 SLP132 T03060183

2010/08/09 22:55
KE80 092255Z AUTO 26007G15KT 10SM SCT100 32/05 A3005 RMK AO2 T03210046

2010/08/09 22:55
KEAT 092255Z AUTO 29019KT 10SM CLR 27/08 A2974 RMK AO2 SLP061 T02720083

2010/08/09 22:55
KEDC 092255Z AUTO 19007KT 10SM CLR 35/20 A2986 RMK AO1

2010/08/09 22:55
KEOE 092255Z AUTO 07004KT 10SM CLR 33/20 A3001 RMK AO2

2010/08/09 22:55
KFMH 092255Z AUTO 24011G14KT 9SM CLR 25/21 A2994 RMK AO2

2010/08/09 22:55
KGPI 092255Z 19005KT 10SM CLR 28/07 A2977 RMK AO2 SLP068 T02780067

2010/08/09 22:55
KHYW 092255Z AUTO 14006KT 7SM SCT018 SCT025 SCT080 30/27 A2999 RMK AO2

2010/08/09 22:55
KIFP 092255Z AUTO 22010G16KT 10SM CLR 39/M02 A2975 RMK AO2

2010/08/09 22:55
KIRK 092255Z AUTO 16003KT 10SM CLR 31/27 A2989 RMK AO2 SLP117 T03110267

2010/08/09 22:55
KLLJ 092255Z AUTO 17006KT 10SM FEW085 15/11 A3006 RMK AO2 SLP137 P0001 T01500111 $

2010/08/09 22:50
EFJO 092250Z AUTO 19004KT CAVOK 20/15 Q1012

2010/08/09 22:50
EFLP 092250Z AUTO 16003KT CAVOK 19/17 Q1013

2010/08/09 22:50
EFMI 092250Z AUTO 15003KT CAVOK 18/15 Q1011

2010/08/09 22:50
EFSA 092250Z AUTO 19003KT CAVOK 20/16 Q1012

2010/08/09 22:50
EFUT 092250Z AUTO 14004KT CAVOK 18/15 Q1012

2010/08/09 22:50
EFVR 092250Z AUTO 16003KT CAVOK 18/16 Q1011

2010/08/09 22:53
KLND 092253Z AUTO 20014G18KT 10SM CLR 29/02 A2994 RMK AO2 PK WND 19026/2241 WSHFT 2140 SLP065 T02940022

2010/08/09 22:55
KLQK 092255Z AUTO 10SM BKN055 BKN085 33/20 A2999 RMK AO2 T03340202 PNO

2010/08/09 22:55
KLRO 092255Z AUTO 12003KT 7SM FEW018 SCT023 BKN044 28/25 A2998 RMK AO2

2010/08/09 22:55
KLUX 092255Z AUTO 10003KT 10SM BKN120 28/27 A2999 RMK AO2

2010/08/09 22:53
KLXV 092253Z AUTO 19007KT 4SM -RA BR BKN036 BKN047 OVC055 13/12 A3038 RMK AO2 RAB34 SLP134 P0001 T01330117 TSNO

2010/08/09 22:54
PAHN 092254Z AUTO 10009G15KT 070V130 10SM SCT042 OVC060 15/11 A2995 RMK AO2 SLP143 T01500106 TSNO

2010/08/09 22:54
PAKN 092254Z 22008KT 10SM OVC021 13/10 A2959 RMK AO2 RAE00 SLP020 P0000 T01280100

2010/08/09 22:53
KPQN 092253Z AUTO 11009KT 10SM CLR 30/23 A2993 RMK AO2

2010/08/09 22:53
KFGN 092253Z AUTO 00000KT 10SM CLR 29/19 A2986 RMK AO2

2010/08/09 22:53
KPNM 092253Z AUTO 05003KT 10SM CLR 32/19 A2992 RMK AO2

2010/08/09 22:53
KPWC 092253Z AUTO 00000KT 10SM CLR 31/19 A2995 RMK AO2

2010/08/09 22:53
KFFM 092253Z AUTO 14004KT 10SM CLR 31/20 A2988 RMK AO2

2010/08/09 22:52
KGDB 092252Z AUTO 08004KT 10SM CLR 31/21 A2991 RMK AO2 T03090214

2010/08/09 22:47
KAIT 092247Z AUTO 00000KT 10SM CLR 31/20 A2993 RMK AO2

2010/08/09 22:53
KGHW 092253Z AUTO 08005KT 10SM CLR 32/17 A2995 RMK AO2

2010/08/09 22:53
KMWM 092253Z AUTO 09006KT 10SM BKN033 BKN039 29/23 A2992 RMK AO2

2010/08/09 22:54
KULM 092254Z AUTO 09008KT 10SM CLR 31/22 A2990 RMK AO2

2010/08/09 22:53
KBBB 092253Z AUTO 13005KT 10SM CLR 32/21 A2994 RMK AO2

2010/08/09 22:53
KTWM 092253Z AUTO 27004KT 10SM CLR 31/19 A2990 RMK AO2

2010/08/09 22:55
KMGG 092255Z AUTO 00000KT 10SM CLR 32/21 A2992 RMK AO2 T03200209

2010/08/09 22:48
KMOX 092248Z AUTO 10004KT 10SM CLR 31/21 A2988 RMK AO2

2010/08/09 22:53
K04W 092253Z AUTO 00000KT 10SM CLR 32/22 A2993 RMK AO2 T03200219

2010/08/09 22:55
K21D 092255Z AUTO 00000KT 10SM CLR 31/21 A2992 RMK AO2

2010/08/09 22:53
K4BM 092253Z AUTO 20006KT 10SM VCTS 11/08 A3051 RMK AO2 LTG DSNT NW THRU SE

2010/08/09 22:52
K5SM 092252Z AUTO 00000KT 10SM 15/11 A3048 RMK AO2

2010/08/09 22:54
K7BM 092254Z AUTO 00000KT 10SM SCT075 20/06 A3038 RMK AO2 LTG DSNT N AND NE

2010/08/09 22:58
KBDU 092258Z AUTO 18009G14KT 10SM -RA SCT070 OVC100 21/17 A3006 RMK AO2 LTG DSNT E THRU SW

2010/08/09 22:54
KBJI 092254Z AUTO 24005KT 10SM CLR 32/17 A2992 RMK AO2

2010/08/09 22:54
KC29 092254Z AUTO 00000KT 10SM CLR 31/21 A2992 RMK AO2 T03100214

2010/08/09 22:57
KCCU 092257Z AUTO 27013G16KT 10SM SCT023 SCT034 BKN044 12/07 A3054 RMK AO2 LTG DSNT NE

2010/08/09 22:55
KCEF 092255Z AUTO 18006KT 10SM FEW120 31/18 A2989 RMK AO2 CLDS LWR RWY05 SLP121 T03140179 PWINO $

2010/08/09 23:02
KCPW 092302Z AUTO 23014G23KT 10SM SCT033 SCT040 BKN050 13/04 A3053 RMK AO2 LTG DSNT E AND SE

2010/08/09 22:53
KD39 092253Z AUTO 08005KT 10SM CLR 32/20 A2992 RMK AO2 T03230198

2010/08/09 22:55
KDVK 092255Z AUTO 22005KT 10SM CLR 33/21 A2996 RMK AO1

2010/08/09 22:55
KHFF 092255Z AUTO 17006KT 10SM CLR 32/21 A3000 RMK AO2 SLP154 T03240208 $

2010/08/09 22:55
KLIC 092255Z AUTO 14008KT 10SM CLR 28/16 A3005 RMK AO2 LTG DSNT SE AND S TSE18 SLP094 T02780156

2010/08/09 22:55
KLRF 092255Z AUTO 09006KT 10SM CLR 36/26 A2988 RMK AO2 SLP116 T03590264

2010/08/09 22:56
KMOB 092256Z 16008KT 10SM FEW030 32/23 A2995 RMK AO2 SLP137 T03170233

2010/08/09 22:54
KRKR 092254Z AUTO 24005KT 10SM CLR 39/23 A2986 RMK AO2

2010/08/09 22:55
KSME 092255Z AUTO 12004KT 10SM 33/24 A2996 RMK AO2

2010/08/09 22:53
KUNI 092253Z AUTO 00000KT 10SM CLR 33/14 A2997 RMK AO2

2010/08/09 23:00
KVTP 092300Z AUTO 07005KT 10SM TS CLR 14/11 A3043 RMK AO2 LTG DSNT N NE AND S

2010/08/09 22:50
KWYS 092250Z AUTO 16019G29KT 6SM HZ FEW040 SCT050 BKN060 14/09 A3013 RMK AO2 P0001

2010/08/09 22:55
KY51 092255Z AUTO 00000KT 10SM CLR 30/23 A2994 RMK AO1 T02970230

2010/08/09 22:50
EGDL 092250Z 20010KT 9999 OVC008 17/15 Q1012 TEMPO BKN006

2010/08/09 22:50
LIEA 092250Z 05003KT 030V090 CAVOK 17/11 Q1017

2010/08/09 22:45
LIEE 092245Z 31005KT 9999 FEW020 24/08 Q1016 NOSIG

2010/08/09 22:50
LIEO 092250Z 20003KT CAVOK 22/17 Q1016

2010/08/09 22:50
LIMC 092250Z VRB01KT CAVOK 19/16 Q1016 NOSIG

2010/08/09 22:50
LIME 092250Z 01006KT CAVOK 20/17 Q1016

2010/08/09 22:50
LIMF 092250Z VRB01KT 9999 SCT120 22/17 1016

2010/08/09 22:50
LIMJ 092250Z 06006KT 9999 FEW020 24/20 Q1016

2010/08/09 22:50
LIML 092250Z VRB03KT CAVOK 23/17 Q1015 NOSIG

2010/08/09 22:45
LIRA 092245Z 08002KT CAVOK 22/16 Q1015

2010/08/09 22:50
LIRF 092250Z 29003KT CAVOK 18/17 Q1015 NOSIG

2010/08/09 22:50
LIRN 092250Z 00000KT 9999 FEW070 23/19 Q1014

2010/08/09 22:45
LIRP 092245Z 10002KT 9999 FEW015 SCT025 21/21 Q1015 NOSIG

2010/08/09 22:50
LIRQ 092250Z 21004KT CAVOK 22/19 Q1016

2010/08/09 22:50
LGAD 092250Z 00000KT CAVOK 22/19 Q1011

2010/08/09 22:50
LGAV 092250Z 30004KT CAVOK 25/17 Q1010 NOSIG

2010/08/09 22:50
LGIR 092250Z 30011KT 9999 FEW018 27/24 Q1008 NOSIG

2010/08/09 22:50
LGKO 092250Z 36008KT CAVOK 28/22 Q1005

2010/08/09 22:50
LGKR 092250Z 00000KT CAVOK 24/19 Q1009 NOSIG

2010/08/09 22:50
LGRP 092250Z 24004KT 9999 FEW018 28/24 Q1004 NOSIG

2010/08/09 22:50
LGSA 092250Z 30004KT 9999 FEW020 25/22 Q1009

2010/08/09 22:50
LGTS 092250Z 36008KT CAVOK 28/15 Q1011 NOSIG

2010/08/09 23:00
MKJS 092300Z 00000KT 9999 SCT022 BKN220 29/24 Q1012

2010/08/09 22:52
MMRX 092252Z 11008KT 10SM SCT040TCU 36/26 A2983 RMK 8/200 HZY DSNT CB N

2010/08/09 22:45
MMNL 092245Z 14008KT 12SM SCT040 38/21 A2980 RMK 8/100

2010/08/09 22:47
MMTC 092247Z 01008KT 15SM FEW040 SCT110 SCT220 34/12 A2993 RMK 8/572 CB DST N W

2010/08/09 22:50
LIBD 092250Z 26005KT CAVOK 20/15 Q1014

2010/08/09 22:45
LIBR 092245Z 33011KT CAVOK 24/20 Q1014 NOSIG

2010/08/09 22:50
LICC 092250Z 28004KT CAVOK 24/20 Q1015

2010/08/09 22:50
LICJ 092250Z VRB03KT CAVOK 24/17 Q1016

2010/08/09 22:50
LIPE 092250Z 21006KT CAVOK 23/18 Q1014

2010/08/09 22:45
LIPH 092245Z 01001KT 9999 SCT080 23/19 Q1015

2010/08/09 22:50
LIPQ 092250Z VRB01KT CAVOK 20/17 Q1015

2010/08/09 22:45
LIPR 092245Z 20002KT CAVOK 22/22 Q1014

2010/08/09 22:45
LIPX 092245Z 04005KT 9999 FEW040 23/23 Q1015

2010/08/09 22:50
LIPZ 092250Z VRB01KT 9999 FEW060 21/17 Q1015

2010/08/09 23:00
SBFI 092300Z 19004KT CAVOK 15/11 Q1019

2010/08/09 22:50
LGAL 092250Z 02010KT CAVOK 29/19 Q1010

2010/08/09 22:50
LGEL 092250Z VRB03KT CAVOK 28/17 Q1009

2010/08/09 22:50
LGKV 092250Z 00000KT 9999 FEW030 25/21 Q1010

2010/08/09 22:50
LGMT 092250Z /////KT CAVOK 28/22 Q1008

2010/08/09 22:50
LGPZ 092250Z 00000KT 9999 FEW015 25/22 Q1012 NOSIG

2010/08/09 22:50
LGRX 092250Z 00000KT CAVOK 24/20 Q1009 NOSIG

2010/08/09 22:55
YBCS 092255Z 11007KT 3000 -SHRA FEW003 BKN018 BKN030 23/22 Q1016

2010/08/09 23:00
SVBC 092300Z 00000KT 9999 SCT010 SCT060 28/22 Q1012

2010/08/09 23:00
SVMI 092300Z 05003KT 9999 FEW016 SCT100 30/27 Q1009 NOSIG

2010/08/09 23:00
LEMO 092300Z VRB02KT CAVOK 31/14 Q1014 NOSIG

2010/08/09 23:00
MZBZ 092300Z 09010KT 9999 SCT026 BKN280 31/26 Q1011 A2986 NOSIG

2010/08/09 22:55
YBCS 092255Z 11007KT 3000 -SHRA FEW003 BKN018 BKN030 23/22 Q1016

2010/08/09 23:00
MKJS 092300Z 00000KT 9999 SCT022 BKN220 29/24 Q1012

2010/08/09 22:55
KADW 092255Z AUTO 19010KT 10SM CLR 31/22 A2996 RMK AO2 SLP144 T03070215 $

2010/08/09 22:54
KBOS 092254Z 20011KT 10SM FEW070 SCT090 SCT220 29/21 A2987 RMK AO2 SLP113 TCU DSNT NE T02940206

2010/08/09 22:53
KDAB 092253Z 09009G14KT 10SM FEW023 SCT250 29/24 A2991 RMK AO2 SLP129 TCU DSNT W T02890239

2010/08/09 22:55
KDOV 092255Z AUTO 13006KT 10SM CLR 30/21 A2995 RMK AO2 SLP144 T02960210

2010/08/09 22:53
KNIP 092253Z 11012KT 10SM SCT030 SCT130 BKN250 31/23 A2993 RMK AO2 SLP130 T2 SET T03060233

2010/08/09 22:54
KNKT 092254Z 17007KT 10SM FEW019 SCT080 28/23 A3001 RMK AO2 SLP158 T02830233

2010/08/09 22:53
KNQX 092253Z 23005KT 10SM SCT010 BKN020 BKN040 BKN140 27/24 A2988 RMK AO2 SLP116 T2 SET T02720244 $

2010/08/09 22:52
KNRB 092252Z 11009KT 10SM FEW025TCU SCT040 BKN150 BKN250 30/23 A2994 RMK AO2 SLP137 TCU N T2 SET T03000233

2010/08/09 22:54
KPHL 092254Z 20014KT 10SM FEW180 SCT250 31/19 A2995 RMK AO2 SLP141 T03110189

2010/08/09 22:55
KPOB 092255Z AUTO 11005KT 10SM CLR 32/22 A2998 RMK AO2 SLP150 T03240215 $

2010/08/09 22:53
KSAV 092253Z 09010KT 10SM FEW035TCU SCT110 BKN250 31/24 A2995 RMK AO2 SLP140 TCU N-E T03110239

2010/08/09 22:55
KSSC 092255Z 10005KT 10SM CLR 32/20 A2998 RMK AO2A SLP150 T03180205 $

2010/08/09 22:54
KSYR 092254Z 31007KT 2 1/2SM RA BR BKN023 BKN060 OVC075 22/21 A2997 RMK AO2 VIS 1 1/2 NW SLP143 BKN V OVC P0019 T02220211

2010/08/09 22:49
MMVR 092249Z 03010KT 7SM FEW015TCU SCT220 33/25 A2983 RMK 8/208 HZY ISOL CUFRA

2010/08/09 23:00
MYGF 092300Z AUTO 13012KT 9999 FEW027 SCT043 BKN110 26/24 A2996

2010/08/09 22:55
CYYC 092255Z 12008KT 40SM -TSRA SCT060CB BKN100 BKN220 22/ RMK CB3AC4CI1

2010/08/09 22:54
KMTP 092254Z AUTO 21009G15KT 24/21 A2995 RMK AO2 SLP143 T02440211 PWINO TSNO 

2010/08/09 22:50
EGDL 092250Z 20010KT 9999 OVC008 17/15 Q1012 GRN TEMPO BKN006 YLO1

2010/08/09 22:50
EGDM 092250Z 21013KT 9999 SCT005 OVC008 17/15 Q1013 YLO1

2010/08/09 22:50
EGOV 092250Z 23006KT 9999 FEW040 BKN050 15/14 Q1009 BLU NOSIG

2010/08/09 22:50
EGQK 092250Z 19002KT 9999 -RA FEW018 BKN046 13/12 Q1005 BLU NOSIG

2010/08/09 22:50
EGQL 092250Z 28004KT 9999 FEW030 11/09 Q1006 BLU

2010/08/09 22:50
EGQS 092250Z 24004KT 0600 BCFG BKN040 11/11 Q1005 RED

2010/08/09 22:50
EGUW 092250Z 20009KT CAVOK 17/13 Q1012 BLU

2010/08/09 22:50
EGVN 092250Z 20008KT 9999 SCT014 SCT026 BKN080 18/15 Q1011 GRN NOSIG

2010/08/09 22:50
EGVO 092250Z 20009KT 9999 -DZ SCT005 OVC008 17/16 Q1013 YLO1

2010/08/09 22:50
EGXC 092250Z 20007KT 9999 BKN042 19/15 Q1010 BLU NOSIG

2010/08/09 22:50
EGXD 092250Z 18004KT 9999 -SHRA FEW030 BKN049 14/14 Q1009 BLU NOSIG

2010/08/09 22:50
EGXW 092250Z 23012KT 5000 RA FEW005 SCT007 OVC022 17/16 Q1010 GRN TEMPO 4000 RA GRN

2010/08/09 22:45
KMMU 092245Z 26007KT 06SM HZ SCT100 33/18 A2992

2010/08/09 22:56
KCHS 092256Z 09007KT 10SM SCT017 BKN022 OVC075 28/26 A2998 RMK AO2 RAB19E54 SLP150 P0000 T02830261 

2010/08/09 22:55
KMBG 092255Z AUTO 15016KT 10SM FEW090 33/17 A2983 RMK AO2 SLP087 T03330167 TSNO 

2010/08/09 22:55
KINL 092255Z AUTO 05004KT 10SM CLR 31/21 A2990 RMK AO2 SLP121 T03060211 

2010/08/09 22:56
KSHV 092256Z 20004KT 10SM SCT070 36/21 A2987 RMK AO2 SLP112 T03560211 

2010/08/09 22:55
KPHP 092255Z AUTO 17007KT 10SM CLR 31/15 A2988 RMK AO2 SLP096 T03110150 TSNO 

2010/08/09 22:55
KHON 092255Z AUTO 12008KT 10SM CLR 32/20 A2986 RMK AO2 SLP103 T03170200 TSNO 

2010/08/09 22:56
TJSJ 092256Z 09011KT 10SM FEW020 SCT040 BKN060 28/24 A2995 RMK AO2 SLP139 SHRA DSNT SE T02780244 

2010/08/09 22:48
KIZA 092248Z AUTO 28011KT 10SM CLR 27/11 A2987

2010/08/09 22:50
EGDL 092250Z 20010KT 9999 OVC008 17/15 Q1012 TEMPO BKN006

2010/08/09 22:55
ETOU 092255Z AUTO 00000KT 9999 BKN085 15/13 A3004 RMK AO2 SLP171 T01510128

2010/08/09 22:50
LGAD 092250Z 00000KT CAVOK 22/19 Q1011

2010/08/09 22:50
LGAL 092250Z 02010KT CAVOK 29/19 Q1010

2010/08/09 22:50
LGEL 092250Z VRB03KT CAVOK 28/17 Q1009

2010/08/09 22:50
LGIR 092250Z 30011KT 9999 FEW018 27/24 Q1008 NOSIG

2010/08/09 22:50
LGKO 092250Z 36008KT CAVOK 28/22 Q1005

2010/08/09 22:50
LGKR 092250Z 00000KT CAVOK 24/19 Q1009 NOSIG

2010/08/09 22:50
LGKV 092250Z 00000KT 9999 FEW030 25/21 Q1010

2010/08/09 22:50
LGMT 092250Z /////KT CAVOK 28/22 Q1008

2010/08/09 22:50
LGPZ 092250Z 00000KT 9999 FEW015 25/22 Q1012 NOSIG

2010/08/09 22:50
LGRP 092250Z 24004KT 9999 FEW018 28/24 Q1004 NOSIG

2010/08/09 22:50
LGRX 092250Z 00000KT CAVOK 24/20 Q1009 NOSIG

2010/08/09 22:50
LGSA 092250Z 30004KT 9999 FEW020 25/22 Q1009

2010/08/09 22:50
LGTS 092250Z 36008KT CAVOK 28/15 Q1011 NOSIG

2010/08/09 22:50
LIBD 092250Z 26005KT CAVOK 20/15 Q1014

2010/08/09 22:45
LIBR 092245Z 33011KT CAVOK 24/20 Q1014 NOSIG

2010/08/09 22:50
LICC 092250Z 28004KT CAVOK 24/20 Q1015

2010/08/09 22:50
LICJ 092250Z VRB03KT CAVOK 24/17 Q1016

2010/08/09 22:50
LIPE 092250Z 21006KT CAVOK 23/18 Q1014

2010/08/09 22:45
LIPH 092245Z 01001KT 9999 SCT080 23/19 Q1015

2010/08/09 22:50
LIPQ 092250Z VRB01KT CAVOK 20/17 Q1015

2010/08/09 22:45
LIPR 092245Z 20002KT CAVOK 22/22 Q1014

2010/08/09 22:45
LIPX 092245Z 04005KT 9999 FEW040 23/23 Q1015

2010/08/09 22:50
LIPZ 092250Z VRB01KT 9999 FEW060 21/17 Q1015

2010/08/09 22:50
LIRQ 092250Z 21004KT CAVOK 22/19 Q1016

2010/08/09 22:55
LIYW 092255Z AUTO 03004KT 9999 CLR 20/19 A3000 RMK AO2 SLP156 T02000185 402910173

2010/08/09 22:55
BGTL 092255Z AUTO 25009KT 9999 CLR 06/03 A2986 RMK AO2 SLP116 T00620027

2010/08/09 22:55
ETOU 092255Z AUTO 00000KT 9999 BKN085 15/13 A3004 RMK AO2 SLP171 T01510128

2010/08/09 22:55
KDLF 092255Z AUTO 12012G20KT 10SM SCT075 37/18 A2982 RMK AO2 SLP080 T03700177

2010/08/09 22:55
KEGI 092255Z 12007KT 10SM FEW055 35/21 A2991 RMK AO2A SLP128 T03460205 $

2010/08/09 22:55
KFFO 092255Z 30003KT 10SM SCT150 32/21 A2995 RMK AO2A SLP136

2010/08/09 22:55
KFMH 092255Z AUTO 24011G14KT 9SM CLR 25/21 A2994 RMK AO2

2010/08/09 22:55
KFTK 092255Z AUTO 13004KT 10SM CLR 35/23 A2994 RMK AO2 SLP130 T03520231

2010/08/09 22:55
KLFI 092255Z 12007KT 10SM CLR 29/21 A2998 RMK AO2A SLP154 T02910207

2010/08/09 22:55
KLTS 092255Z AUTO 14013KT 10SM CLR 37/19 A2983 RMK AO2 SLP080 T03740191 $

2010/08/09 22:55
KMMT 092255Z 10003KT 10SM OVC250 31/23 A2999 RMK AO2A SLP153 T03110230

2010/08/09 22:55
KSSC 092255Z 10005KT 10SM CLR 32/20 A2998 RMK AO2A SLP150 T03180205 $

2010/08/09 22:55
KVAD 092255Z AUTO 09004KT 10SM CLR 32/24 A2992 RMK AO2 SLP130 T03200241 $

2010/08/09 23:00
MHLC 092300Z 06010KT 9999 SCT024TCU BKN220 32/25 Q1010 A2083NOSIG

2010/08/09 23:00
MHLM 092300Z 36010KT 9999 SCT030TCU SCT250 32/28 Q1009 A2980 NOSIG

2010/08/09 23:00
MHRO 092300Z 07014KT 9999 FEW026CB BKN200 30/25 Q1010 A2983 NOSIG

2010/08/09 22:55
MHSC 092255Z AUTO 05004KT 9999 FEW170 27/21 A2993 RMK AO2 SLP095 T02720211 $

2010/08/09 23:00
MHTG 092300Z 00000KT 9999 SCT26CB SCT090 BKN200 24/21 Q1016 A3000 REDZ NOSIG

2010/08/09 22:53
KRQE 092253Z AUTO 27008KT 10SM SCT120 24/08 A3022 RMK AO2 SLP124 T02390078 TSNO 

2010/08/09 22:56
KSDF 092256Z 17004KT 9SM FEW070 SCT150 SCT250 35/21 A2992 RMK AO2 SLP124 T03500206 

2010/08/09 22:50
LIEA 092250Z 05003KT 030V090 CAVOK 17/11 Q1017

2010/08/09 22:45
LIEE 092245Z 31005KT 9999 FEW020 24/08 Q1016 NOSIG

2010/08/09 22:50
LIEO 092250Z 20003KT CAVOK 22/17 Q1016

2010/08/09 22:50
LIMC 092250Z VRB01KT CAVOK 19/16 Q1016 NOSIG

2010/08/09 22:50
LIME 092250Z 01006KT CAVOK 20/17 Q1016

2010/08/09 22:50
LIMF 092250Z VRB01KT 9999 SCT120 22/17 1016

2010/08/09 22:50
LIMJ 092250Z 06006KT 9999 FEW020 24/20 Q1016

2010/08/09 22:50
LIML 092250Z VRB03KT CAVOK 23/17 Q1015 NOSIG

2010/08/09 22:45
LIRA 092245Z 08002KT CAVOK 22/16 Q1015

2010/08/09 22:50
LIRF 092250Z 29003KT CAVOK 18/17 Q1015 NOSIG

2010/08/09 22:50
LIRN 092250Z 00000KT 9999 FEW070 23/19 Q1014

2010/08/09 22:45
LIRP 092245Z 10002KT 9999 FEW015 SCT025 21/21 Q1015 NOSIG

2010/08/09 22:50
LIRQ 092250Z 21004KT CAVOK 22/19 Q1016

2010/08/09 22:50
HLLM 092250Z 06004KT 7000 SKC 25/18 Q1016

2010/08/09 22:50
HLLT 092250Z 09002KT CAVOK 23/18 Q1016

2010/08/09 22:50
LIBD 092250Z 26005KT CAVOK 20/15 Q1014

2010/08/09 22:45
LIBR 092245Z 33011KT CAVOK 24/20 Q1014 NOSIG

2010/08/09 22:50
LICC 092250Z 28004KT CAVOK 24/20 Q1015

2010/08/09 22:50
LICJ 092250Z VRB03KT CAVOK 24/17 Q1016

2010/08/09 22:50
LIPE 092250Z 21006KT CAVOK 23/18 Q1014

2010/08/09 22:45
LIPH 092245Z 01001KT 9999 SCT080 23/19 Q1015

2010/08/09 22:50
LIPQ 092250Z VRB01KT CAVOK 20/17 Q1015

2010/08/09 22:45
LIPR 092245Z 20002KT CAVOK 22/22 Q1014

2010/08/09 22:45
LIPX 092245Z 04005KT 9999 FEW040 23/23 Q1015

2010/08/09 22:50
LIPZ 092250Z VRB01KT 9999 FEW060 21/17 Q1015

2010/08/09 22:45
KMMU 092245Z 26007KT 06SM HZ SCT100 33/18 A2992

2010/08/09 22:50
EGDL 092250Z 20010KT 9999 OVC008 17/15 Q1012 TEMPO BKN006

2010/08/09 22:50
EFJO 092250Z AUTO 19004KT CAVOK 20/15 Q1012

2010/08/09 22:50
EFLP 092250Z AUTO 16003KT CAVOK 19/17 Q1013

2010/08/09 22:50
EFMI 092250Z AUTO 15003KT CAVOK 18/15 Q1011

2010/08/09 22:50
EFSA 092250Z AUTO 19003KT CAVOK 20/16 Q1012

2010/08/09 22:50
EFUT 092250Z AUTO 14004KT CAVOK 18/15 Q1012

2010/08/09 22:50
EFVR 092250Z AUTO 16003KT CAVOK 18/16 Q1011

2010/08/09 22:50
LGAD 092250Z 00000KT CAVOK 22/19 Q1011

2010/08/09 22:50
LGAV 092250Z 30004KT CAVOK 25/17 Q1010 NOSIG

2010/08/09 22:50
LGIR 092250Z 30011KT 9999 FEW018 27/24 Q1008 NOSIG

2010/08/09 22:50
LGKO 092250Z 36008KT CAVOK 28/22 Q1005

2010/08/09 22:50
LGKR 092250Z 00000KT CAVOK 24/19 Q1009 NOSIG

2010/08/09 22:50
LGRP 092250Z 24004KT 9999 FEW018 28/24 Q1004 NOSIG

2010/08/09 22:50
LGSA 092250Z 30004KT 9999 FEW020 25/22 Q1009

2010/08/09 22:50
LGTS 092250Z 36008KT CAVOK 28/15 Q1011 NOSIG

2010/08/09 22:55
EHDL 092255Z AUTO 11003KT 9999NDV NCD 14/12 Q1015 BLU

2010/08/09 22:55
EHEH 092255Z AUTO 15005KT 9999NDV FEW068 16/12 Q1015 BLU

2010/08/09 22:55
EHGR 092255Z AUTO 16005KT 9999NDV BKN049 BKN055 BKN063 16/12 Q1014 BLU

2010/08/09 22:55
EHLW 092255Z AUTO 15007KT 9999NDV FEW057 17/12 Q1014 BLU

2010/08/09 22:55
EHVK 092255Z AUTO 12002KT 9999NDV SCT066 14/12 Q1015 BLU

2010/08/09 22:55
EHVL 092255Z AUTO 15017KT 9999NDV BKN045 OVC050 19/14 Q1013 BLU

2010/08/09 22:55
EHWO 092255Z AUTO 23001KT 8000NDV BR NCD 15/13 Q1014 BLU

2010/08/09 23:00
SVMI 092300Z 05003KT 9999 FEW016 SCT100 30/27 Q1009 NOSIG

2010/08/09 22:50
ESGG 092250Z 24007KT 9999 FEW024 OVC030 14/11 Q1013

2010/08/09 22:50
ESGJ 092250Z 24009KT 9999 BKN026 BKN032 14/12 Q1012

2010/08/09 22:50
ESGP 092250Z 25010KT 9999 FEW024 OVC035 16/12 Q1012

2010/08/09 22:50
ESMQ 092250Z AUTO 23006KT 9999NDV OVC040/// 15/13 Q1014

2010/08/09 22:50
ESMS 092250Z 23004KT 9999 OVC038 12/11 Q1016

2010/08/09 22:50
ESMT 092250Z AUTO 27009KT 9999NDV FEW035/// OVC039/// 16/11 Q1014

2010/08/09 22:50
ESMX 092250Z 23006KT 9999 OVC032 14/13 Q1014

2010/08/09 22:50
ESTA 092250Z AUTO 27010KT 9999NDV OVC040/// 17/10 Q1014

2010/08/09 22:50
LGAL 092250Z 02010KT CAVOK 29/19 Q1010

2010/08/09 22:50
LGEL 092250Z VRB03KT CAVOK 28/17 Q1009

2010/08/09 22:50
LGKV 092250Z 00000KT 9999 FEW030 25/21 Q1010

2010/08/09 22:50
LGMT 092250Z /////KT CAVOK 28/22 Q1008

2010/08/09 22:50
LGPZ 092250Z 00000KT 9999 FEW015 25/22 Q1012 NOSIG

2010/08/09 22:50
LGRX 092250Z 00000KT CAVOK 24/20 Q1009 NOSIG

2010/08/09 22:47
KIWA 092247Z 22006KT 45SM SCT120 SCT200 41/10 A2982

2010/08/09 23:00
SBCF 092300Z 00000KT CAVOK 21/05 Q1021

2010/08/09 23:00
SBMO 092300Z 25002KT 9999 FEW006 SCT090 21/20 Q1018

2010/08/09 23:00
SBPV 092300Z 00000KT 5000 HZ NSC 27/18 Q1011

2010/08/09 23:00
SBSJ 092300Z 26006KT 7000 BKN00815/13 Q1025

2010/08/09 23:00
SBSL 092300Z 04008KT 9999 FEW020 26/23 Q1013

2010/08/09 23:00
SGAS 092300Z 19008KT CAVOK 15/09 Q1019

2010/08/09 23:00
SGES 092300Z 21004KT CAVOK 17/13 Q1018

2010/08/09 23:00
SPIM 092300Z 18009KT 8000 SCT014 15/12 Q1016 NOSIG RMK PP000

2010/08/09 23:00
SVMG 092300Z 00000KT 9999 FEW010 BKN080 28/22 Q1011 NOSIG

2010/08/09 22:55
KAAT 092255Z AUTO 27013G23KT 10SM CLR 28/01 A2993 RMK AO2 SLP091 T02830006 TSNO 

2010/08/09 23:00
OYSY 092300Z 24003KT CAVOK 33/12 Q1003

2010/08/09 22:50
EGAA 092250Z 20005KT 140V230 CAVOK 12/10 Q1008

2010/08/09 22:50
EGBB 092250Z 27007KT 240V310 9999 FEW008 BKN011 17/15 Q1010

2010/08/09 22:50
EGCC 092250Z 20003KT 9999 SCT035 13/11 Q1010

2010/08/09 22:50
EGDL 092250Z 20010KT 9999 OVC008 17/15 Q1012 TEMPO BKN006

2010/08/09 22:50
EGDM 092250Z 21013KT 9999 SCT005 OVC008 17/15 Q1013 YLO1

2010/08/09 22:50
EGFF 092250Z 27009KT 5000 DZ BR SCT003 BKN004 16/16 Q1011

2010/08/09 22:50
EGGD 092250Z 19009KT 170V230 9999 SCT005 BKN008 16/16 Q1012

2010/08/09 22:50
EGGP 092250Z 22003KT 9999 FEW046 15/12 Q1009

2010/08/09 22:50
EGGW 092250Z 21009KT 180V250 9999 SCT011 17/15 Q1012

2010/08/09 22:50
EGKK 092250Z 22008KT 9999 BKN011 17/15 Q1014

2010/08/09 22:50
EGLC 092250Z AUTO 22011KT 9999 BKN012/// 18/14 Q1013

2010/08/09 22:50
EGLL 092250Z 20009KT 9999 BKN014 18/15 Q1013

2010/08/09 22:50
EGMC 092250Z 22008KT 9999 SCT016 18/15 Q1013

2010/08/09 22:50
EGNM 092250Z 24001KT 9999 FEW015 SCT026 13/11 Q1009

2010/08/09 22:50
EGNT 092250Z 23003KT 9999 FEW030 11/08 Q1008

2010/08/09 22:50
EGNX 092250Z 25005KT 6000 RADZ FEW009 BKN027 16/14 Q1010

2010/08/09 22:50
EGPB 092250Z 11005KT 9999 FEW009 14/13 Q1006

2010/08/09 22:50
EGPD 092250Z AUTO 35003KT 5000NDV SCT004/// BKN020/// 14/12 Q1005

2010/08/09 22:50
EGPF 092250Z 23004KT 9999 FEW020 11/10 Q1007

2010/08/09 22:50
EGPH 092250Z 21007KT CAVOK 12/10 Q1007

2010/08/09 22:50
EGPK 092250Z 16003KT 9999 FEW015 SCT023 BKN035 12/11 Q1007

2010/08/09 22:50
EGQS 092250Z 24004KT 0600 BCFG BKN040 11/11 Q1005 RED

2010/08/09 22:50
EGSS 092250Z 21010KT 9999 BKN014 17/14 Q1012

2010/08/09 22:50
EGTE 092250Z 21005KT 5000 -DZRA BR FEW005 BKN010 18/17 Q1012

2010/08/09 22:55
EGUL 092255Z AUTO 21009KT 9999 BKN065 19/14 A2986 RMK AO2 SLP113 T01850143

2010/08/09 22:55
EGUN 092255Z AUTO 21009KT 9999 BKN060 OVC090 18/18 A2987 RMK AO2 SLP105 T01790177

2010/08/09 23:00
TBPB 092300Z 18010KT 9999 BKN014 SCT260 27/24 Q1014 NOSIG

2010/08/09 23:00
SBFI 092300Z 19004KT CAVOK 15/11 Q1019

2010/08/09 23:00
SBBR 092300Z 11009KT CAVOK 24/00 Q1022 

2010/08/09 22:55
KBAB 092255Z VRB06KT 10SM CLR 30/15 A2981 RMK AO2A SLP094 T03040146

2010/08/09 22:55
KBIX 092255Z 21004KT 10SM FEW160 30/25 A2993 RMK AO2A SLPNO T02950250 $

2010/08/09 22:55
KEDW 092255Z 24009KT 80SM CLR 34/M04 A2984 RMK AO2A SLP055 T03431042

2010/08/09 22:55
KEND 092255Z 15014G20KT 10SM FEW080 FEW200 38/18 A2982 RMK AO2A SLP081 T03770185

2010/08/09 22:55
KFRI 092255Z AUTO 18014KT 10SM CLR 39/19 A2981 RMK AO2 SLP075 T03890193

2010/08/09 22:55
KMCF 092255Z AUTO 01007KT 10SM -RA FEW014 SCT035 28/27 A2986 RMK AO2 LTG DSNT NE RAB2249DZB2235E2249 TSE2201 SLP113 P0000 T02810268

2010/08/09 22:55
KPAM 092255Z AUTO 22006KT 10SM CLR 31/26 A2990 RMK AO2 SLP126 T03120259 $

2010/08/09 22:55
KSKA 092255Z AUTO 24006G19KT 200V290 10SM CLR 27/06 A2980 RMK AO2 SLP078 T02650057

2010/08/09 22:55
KSVN 092255Z 12006G15KT 11SM FEW026 BKN110 BKN140 31/25 A2994 RMK SLP141 WND DATA ESTMD ALSTG/SLP ESTMD

2010/08/09 22:55
KTBN 092255Z 11008KT 10SM FEW060 35/24 A2992 RMK AO2A SLP104 T03520237 $

2010/08/09 22:55
KTCM 092255Z AUTO 22004KT 10SM OVC030 19/13 A2998 RMK AO2 SLP152 T01850125

2010/08/09 22:55
KVOK 092255Z 29003KT 10SM FEW035 SCT200 32/25 A2990 RMK AO2A SLP119

2010/08/09 23:00
LEMO 092300Z VRB02KT CAVOK 31/14 Q1014 NOSIG

2010/08/09 23:00
MKJS 092300Z 00000KT 9999 SCT022 BKN220 29/24 Q1012

2010/08/09 22:56
MUGM 092256Z 11008KT 9999 FEW025 OVC250 30/23 A2992 RMK SLP130 T03000233

2010/08/09 23:00
MZBZ 092300Z 09010KT 9999 SCT026 BKN280 31/26 Q1011 A2986 NOSIG

2010/08/09 22:55
PAED 092255Z AUTO 34009KT 10SM OVC070 16/12 A2965 RMK AO2 SLP040 T01590123

2010/08/09 23:00
MHLC 092300Z 06010KT 9999 SCT024TCU BKN220 32/25 Q1010 A2083NOSIG

2010/08/09 23:00
MKJS 092300Z 00000KT 9999 SCT022 BKN220 29/24 Q1012

2010/08/09 22:45
MMQT 092245Z 07010KT 6SM BKN020TCU BKN250 27/14 A3013 RMK 8/202 HZY

2010/08/09 22:52
MMRX 092252Z 11008KT 10SM SCT040TCU 36/26 A2983 RMK 8/200 HZY DSNT CB N

2010/08/09 22:47
MMTC 092247Z 01008KT 15SM FEW040 SCT110 SCT220 34/12 A2993 RMK 8/572 CB DST N W

2010/08/09 22:51
MMTM 092251Z 09010KT 8SM FEW010 BKN200 31/26 A2984 RMK 8/108

2010/08/09 22:45
MMTO 092245Z 16005KT 5SM -RATS SCT015CB BKN060 BKN200 16/13 A3029 RMK 60185 8/963 -RA INTMT

2010/08/09 22:45
MMTP 092245Z 00000KT 10SM BKN020TCU BKN300 27/24 A2985 RMK 8/206

2010/08/09 22:49
MMVR 092249Z 03010KT 7SM FEW015TCU SCT220 33/25 A2983 RMK 8/208 HZY ISOL CUFRA

2010/08/09 22:56
MUGM 092256Z 11008KT 9999 FEW025 OVC250 30/23 A2992 RMK SLP130 T03000233

2010/08/09 23:00
MYGF 092300Z AUTO 13012KT 9999 FEW027 SCT043 BKN110 26/24 A2996

2010/08/09 23:00
MZBZ 092300Z 09010KT 9999 SCT026 BKN280 31/26 Q1011 A2986 NOSIG

2010/08/09 22:55
PAED 092255Z AUTO 34009KT 10SM OVC070 16/12 A2965 RMK AO2 SLP040 T01590123

2010/08/09 22:55
PAEH 092255Z AUTO 16014G23KT 120V180 2 1/2SM OVC005 09/07 RMK AO1 VSBY 13/4V31/2 T00890073

2010/08/09 22:55
PHHI 092255Z AUTO 08012G20KT 10SM BKN045 OVC055 26/16 A3012 RMK AO2 SLP186 T02620157 $

2010/08/09 22:50
PTKK 092250Z VRB05KT 15SM FEW014CB BKN120 OVC280 29/25 A2988 RMK CB OHD SLP122 T02870253

2010/08/09 23:00
RJOI 092300Z 00000KT 9999 FEW015 BKN035 OVC080 28/24 A2994 RMK SLP138 P0000 T02780239

2010/08/09 23:00
SVMG 092300Z 00000KT 9999 FEW010 BKN080 28/22 Q1011 NOSIG

2010/08/09 23:00
SVMI 092300Z 05003KT 9999 FEW016 SCT100 30/27 Q1009 NOSIG

2010/08/09 22:56
KGNR 092256Z AUTO 32005KT 22/18 A2988 RMK AO1 SLP115 T02220178 

2010/08/09 22:50
EGDL 092250Z 20010KT 9999 OVC008 17/15 Q1012 GRN TEMPO BKN006 YLO1

2010/08/09 22:50
EGDM 092250Z 21013KT 9999 SCT005 OVC008 17/15 Q1013 YLO1

2010/08/09 22:50
EGOV 092250Z 23006KT 9999 FEW040 BKN050 15/14 Q1009 BLU NOSIG

2010/08/09 22:50
EGQK 092250Z 19002KT 9999 -RA FEW018 BKN046 13/12 Q1005 BLU NOSIG

2010/08/09 22:50
EGQL 092250Z 28004KT 9999 FEW030 11/09 Q1006 BLU

2010/08/09 22:50
EGQS 092250Z 24004KT 0600 BCFG BKN040 11/11 Q1005 RED

2010/08/09 22:50
EGUW 092250Z 20009KT CAVOK 17/13 Q1012 BLU

2010/08/09 22:50
EGVN 092250Z 20008KT 9999 SCT014 SCT026 BKN080 18/15 Q1011 GRN NOSIG

2010/08/09 22:50
EGVO 092250Z 20009KT 9999 -DZ SCT005 OVC008 17/16 Q1013 YLO1

2010/08/09 22:50
EGXC 092250Z 20007KT 9999 BKN042 19/15 Q1010 BLU NOSIG

2010/08/09 22:50
EGXD 092250Z 18004KT 9999 -SHRA FEW030 BKN049 14/14 Q1009 BLU NOSIG

2010/08/09 22:50
EGXW 092250Z 23012KT 5000 RA FEW005 SCT007 OVC022 17/16 Q1010 GRN TEMPO 4000 RA GRN

2010/08/09 22:55
EHAM 092255Z 19005KT CAVOK 16/12 Q1014 NOSIG

2010/08/09 22:55
EHBK 092255Z AUTO 16005KT 9999NDV NSC 17/11 Q1016

2010/08/09 22:55
EHDL 092255Z AUTO 11003KT 9999NDV NCD 14/12 Q1015 BLU

2010/08/09 22:55
EHGR 092255Z AUTO 16005KT 9999NDV BKN049 BKN055 BKN063 16/12 Q1014 BLU

2010/08/09 22:55
EHLW 092255Z AUTO 15007KT 9999NDV FEW057 17/12 Q1014 BLU

2010/08/09 22:55
EHVK 092255Z AUTO 12002KT 9999NDV SCT066 14/12 Q1015 BLU

2010/08/09 22:55
EHVL 092255Z AUTO 15017KT 9999NDV BKN045 OVC050 19/14 Q1013 BLU

2010/08/09 22:55
EHWO 092255Z AUTO 23001KT 8000NDV BR NCD 15/13 Q1014 BLU

2010/08/09 22:56
ETIC 092256Z AUTO 00000KT 9999 CLR 11/11 A3007 RMK AO2 SLP178 T01120112 402200109

2010/08/09 23:00
LEMO 092300Z VRB02KT CAVOK 31/14 Q1014 NOSIG

2010/08/09 22:55
KBAB 092255Z VRB06KT 10SM CLR 30/15 A2981 RMK AO2A SLP094 T03040146

2010/08/09 22:55
KBIX 092255Z 21004KT 10SM FEW160 30/25 A2993 RMK AO2A SLPNO T02950250 $

2010/08/09 22:55
KCOF 092255Z 12009KT 10SM CLR 29/23 A2991 RMK AO2A SLP130 T02870233

2010/08/09 22:55
KDLF 092255Z AUTO 12012G20KT 10SM SCT075 37/18 A2982 RMK AO2 SLP080 T03700177

2010/08/09 22:55
KEDW 092255Z 24009KT 80SM CLR 34/M04 A2984 RMK AO2A SLP055 T03431042

2010/08/09 22:55
KEND 092255Z 15014G20KT 10SM FEW080 FEW200 38/18 A2982 RMK AO2A SLP081 T03770185

2010/08/09 22:55
KFFO 092255Z 30003KT 10SM SCT150 32/21 A2995 RMK AO2A SLP136

2010/08/09 22:55
KFMH 092255Z AUTO 24011G14KT 9SM CLR 25/21 A2994 RMK AO2

2010/08/09 22:55
KFRI 092255Z AUTO 18014KT 10SM CLR 39/19 A2981 RMK AO2 SLP075 T03890193

2010/08/09 22:55
KFTK 092255Z AUTO 13004KT 10SM CLR 35/23 A2994 RMK AO2 SLP130 T03520231

2010/08/09 22:55
KGRK 092255Z 13010KT 7SM FEW060 36/17 A2985 RMK SLP086

2010/08/09 22:55
KLFI 092255Z 12007KT 10SM CLR 29/21 A2998 RMK AO2A SLP154 T02910207

2010/08/09 22:55
KLTS 092255Z AUTO 14013KT 10SM CLR 37/19 A2983 RMK AO2 SLP080 T03740191 $

2010/08/09 22:55
KLUF 092255Z 00000KT 10SM CLR 38/09 A2978 RMK AO2A SLP056 T03810094 $

2010/08/09 22:55
KMCF 092255Z AUTO 01007KT 10SM -RA FEW014 SCT035 28/27 A2986 RMK AO2 LTG DSNT NE RAB2249DZB2235E2249 TSE2201 SLP113 P0000 T02810268

2010/08/09 22:55
KMIB 092255Z AUTO 14006KT 10SM FEW120 31/17 A2981 RMK AO2 SLP089 T03120174

2010/08/09 22:55
KMMT 092255Z 10003KT 10SM OVC250 31/23 A2999 RMK AO2A SLP153 T03110230

2010/08/09 22:55
KSVN 092255Z 12006G15KT 11SM FEW026 BKN110 BKN140 31/25 A2994 RMK SLP141 WND DATA ESTMD ALSTG/SLP ESTMD

2010/08/09 22:56
KNPA 092256Z 21006KT 10SM FEW040 BKN080 BKN140 BKN250 32/22 A2991 RMK AO2 SLP130 VCSH NW-N T2 SET T03170222 

2010/08/09 22:56
KAQV 092256Z AUTO VRB03KT 10SM SCT060 37/23 A2989 RMK AO2 SLP118 T03670228 

2010/08/09 22:56
KGFA 092256Z AUTO 18004KT 10SM CLR 29/06 A2978 RMK AO2 SLP084 T02890056 

2010/08/09 22:56
KNYG 092256Z 16009KT 8SM CLR 31/22 A2996 RMK AO2 SLP145 T03060222 $ 

2010/08/09 22:56
KSXT 092256Z AUTO VRB06G14KT 8SM CLR 22/11 A2999 RMK AO2 SLP116 T02170106 TSNO 

2010/08/09 22:56
KNUW 092256Z 00000KT 10SM FEW006 BKN014 OVC030 16/13 A2998 RMK AO2 RAE40 SLP155 P0000 T01550134 $ 

2010/08/09 22:56
KNXP 092256Z 14011G19KT 7SM CLR 37/M07 A2988 RMK AO2 SLP080 T03671072 $ 

2010/08/09 22:56
KP53 092256Z AUTO 02007KT 24/22 A2991 RMK AO2 SLP126 T02440217 PWINO TSNO 

2010/08/09 22:56
KCAE 092256Z 12007KT 10SM FEW090 BKN210 33/22 A2998 RMK AO2 SLP148 T03280217 

2010/08/09 22:56
KNBT 092256Z AUTO 11005KT 10SM CLR 28/25 A3000 RMK AO2 RAB05E33 SLP163 P0000 T02830250 TSNO 

2010/08/09 22:56
KNFL 092256Z VRB06KT 10SM SCT070 33/M01 A2988 RMK AO2 SLP093 T03281006 

2010/08/09 22:55
PACZ 092255Z AUTO 17007KT 130V190 7SM SCT011 BKN018 OVC024 11/09 A2922 RMK AO1 9 T01060089

2010/08/09 22:55
PALU 092255Z AUTO 07017G22KT 5SM 08/07 A2960 RMK AO1 T00830073

2010/08/09 22:55
PATC 092255Z AUTO 00000KT 1 1/4SM OVC004 11/10 A2939 RMK AO1 T01060101

2010/08/09 22:55
PAIM 092255Z AUTO 09005KT 10SM BKN010 OVC015 13/12 A2955 RMK AO1 T01280123

2010/08/09 22:55
PATL 092255Z AUTO 12006KT 10SM SCT013 BKN020 OVC060 12/11 A2954 RMK AO1 T01220112

2010/08/09 22:55
PASV 092255Z AUTO 18009KT 10SM BKN015 OVC040 10/08 A2958 RMK AO1 T01000084

2010/08/09 22:55
KMGN 092255Z AUTO 24004KT 7SM SCT025 SCT055 27/21 A2989 RMK AO2

2010/08/09 22:55
KSLH 092255Z AUTO 05006KT 10SM CLR 24/20 A2990 RMK AO2

2010/08/09 22:55
KSJX 092255Z AUTO 00000KT 7SM SCT100 26/21 A2990 RMK AO2

2010/08/09 22:55
KHAI 092255Z AUTO 25005KT 7SM CLR 28/22 A2993 RMK AO2

2010/08/09 22:56
KLWA 092256Z AUTO 28004KT 10SM CLR 28/20 A2992 RMK AO2

2010/08/09 22:57
KDRM 092257Z AUTO 15004KT 10SM CLR 23/20 A2990 RMK AO2

2010/08/09 22:54
KVLL 092254Z AUTO 25005KT 10SM SCT042 BKN080 OVC090 26/20 A2996 RMK AO2

2010/08/09 22:55
KGOV 092255Z AUTO 05007KT 10SM SCT031 BKN043 BKN050 26/22 A2991 RMK AO2

2010/08/09 22:54
KPZQ 092254Z AUTO 06005KT 10SM CLR 25/18 A2990 RMK AO2

2010/08/09 22:55
KCFS 092255Z AUTO 17007KT 10SM SCT007 SCT036 BKN090 24/22 A2991 RMK AO2

2010/08/09 22:54
KHYX 092254Z AUTO 23003KT 10SM CLR 25/22 A2990 RMK AO2

2010/08/09 22:55
KOZW 092255Z AUTO 21007KT 10SM CLR 27/21 A2994 RMK AO2

2010/08/09 22:55
KRNP 092255Z AUTO 10003KT 7SM SCT015 BKN032 OVC050 23/23 A2992 RMK AO2

2010/08/09 22:54
KDUH 092254Z AUTO 00000KT 10SM SCT045 BKN080 OVC100 27/21 A2994 RMK AO2

2010/08/09 22:55
KISQ 092255Z AUTO 22003KT 7SM SCT034 26/21 A2990 RMK AO2

2010/08/09 22:55
KJYM 092255Z AUTO 00000KT 7SM BKN035 BKN042 OVC060 25/23 A2996 RMK AO2

2010/08/09 23:05
KBAX 092305Z AUTO 22006KT 10SM CLR 25/21 A2991 RMK AO2

2010/08/09 22:55
KIRS 092255Z AUTO 25005KT 7SM CLR 28/23 A2994 RMK AO2

2010/08/09 22:55
KAMN 092255Z AUTO 30006KT 10SM SCT030 SCT040 BKN048 29/22 A2991 RMK AO2

2010/08/09 22:55
KACB 092255Z AUTO 30006KT 10SM CLR 28/22 A2989 RMK AO2

2010/08/09 22:54
KRQB 092254Z AUTO 26008KT 10SM SCT023 SCT034 27/21 A2993 RMK AO2

2010/08/09 22:55
KERY 092255Z AUTO 24005KT 10SM CLR 27/23 A2991 RMK AO2

2010/08/09 22:55
KOEB 092255Z AUTO 19003KT 7SM CLR 27/23 A2994 RMK AO2

2010/08/09 22:56
K4I3 092256Z AUTO 16003KT 10SM CLR 29/20 A2999 RMK AO2

2010/08/09 22:55
KAUM 092255Z AUTO 07005KT 10SM CLR 31/23 A2991 RMK AO2

2010/08/09 22:55
KFFX 092255Z AUTO 27005KT 10SM BKN028 26/22 A2992 RMK AO2

2010/08/09 22:54
KCNB 092254Z AUTO 09005KT 10SM CLR 29/22 A2991 RMK AO2 T02910215

2010/08/09 22:55
KCKN 092255Z AUTO 20011G14KT 10SM CLR 33/21 A2986 RMK AO2

2010/08/09 23:03
KCFE 092303Z AUTO 00000KT 10SM 32/20 A2992 RMK AO2 T03230202

2010/08/09 22:57
KCQM 092257Z AUTO 00000KT 10SM CLR 31/19 A2993 RMK AO2

2010/08/09 22:55
KDTL 092255Z AUTO 18007KT 10SM CLR 31/17 A2994 RMK AO2

2010/08/09 22:55
KBDH 092255Z AUTO 13007KT 3SM HZ CLR 32/20 A2992 RMK AO2

2010/08/09 22:55
KCBG 092255Z AUTO 00000KT 10SM CLR 32/24 A2990 RMK AO2

2010/08/09 22:57
KADC 092257Z AUTO 21003KT 10SM CLR 31/17 A2993 RMK AO2

2010/08/09 22:55
KHAF 092255Z AUTO 24005KT 8SM OVC006 13/12 A2994 RMK AO2

2010/08/09 22:55
KCKC 092255Z AUTO 32007KT 10SM CLR 28/13 A2995 RMK AO2

2010/08/09 22:55
KJYG 092255Z AUTO 08005KT 10SM CLR 31/27 A2992 RMK AO2

2010/08/09 22:56
KCOQ 092256Z AUTO 00000KT 10SM CLR 32/14 A2994 RMK AO2

2010/08/09 22:58
KACQ 092258Z AUTO 04005KT 10SM CLR 30/22 A2993 RMK AO2

2010/08/09 22:55
KRGK 092255Z AUTO 16003KT 10SM CLR 32/23 A2990 RMK AO2

2010/08/09 22:54
KFSE 092254Z AUTO 22009KT 10SM CLR 30/19 A2989 RMK AO2

2010/08/09 22:55
KY70 092255Z AUTO 23009KT 10SM BKN024 BKN032 29/22 A2991 RMK AO2 T02860219

2010/08/09 22:50
KUKT 092250Z AUTO 22007KT 10SM CLR 30/19 A2995 RMK AO1

2010/08/09 22:54
KCDA 092254Z AUTO 22009KT 10SM +RA SCT034 BKN044 OVC065 23/18 A2993 RMK AO2

2010/08/09 22:56
KSDF 092256Z 17004KT 9SM FEW070 SCT150 SCT250 35/21 A2992 RMK AO2 SLP124 T03500206

2010/08/09 22:55
K0A9 092255Z AUTO 00000KT 10SM CLR 30/22 A3002 RMK

2010/08/09 22:57
K14Y 092257Z AUTO 00000KT 10SM CLR 31/18 A2994 RMK AO2 T03080177

2010/08/09 22:56
K1M4 092256Z AUTO 00000KT 10SM FEW100 28/25 A3000 RMK AO2 T02830250 SLP155

2010/08/09 22:55
KAIG 092255Z AUTO 33008KT 10SM CLR 29/18 A2993 RMK AO2

2010/08/09 22:56
KAND 092256Z AUTO 23003KT 10SM BKN060 32/21 A2998 RMK AO2 SLP141 T03170211

2010/08/09 22:56
KART 092256Z AUTO 25008G16KT 2SM -RA BR SCT014 BKN024 BKN049 23/22 A2992 RMK AO2 LTG DSNT W SLP128 P0010 T02280217

2010/08/09 22:51
KARV 092251Z AUTO 34007KT 10SM CLR 29/17 A2996 RMK AO2 T02930168

2010/08/09 22:55
KARW 092255Z AUTO 10004KT 10SM BKN022 BKN027 BKN044 30/23 A2996 RMK AO2

2010/08/09 22:55
KBDN 092255Z AUTO 35010G16KT 050V020 10SM CLR 26/03 A2991 RMK AO2

2010/08/09 22:56
KBED 092256Z 20009KT 10SM SCT075 BKN090 32/17 A2986 RMK AO2 SLP122 T03170167

2010/08/09 22:56
KBJJ 092256Z AUTO 22004KT 8SM CLR 27/20 A2999 RMK AO2 SLP148 T02720200

2010/08/09 22:55
KBKN 092255Z AUTO 16013KT 10SM 38/19 A2981 RMK AO2

2010/08/09 22:55
KBUU 092255Z AUTO 29005KT 10SM CLR 28/22 A2991 RMK AO2 T02810221

2010/08/09 22:50
KBWP 092250Z AUTO 17006KT 10SM CLR 32/18 A2989 RMK AO1 T03170178

2010/08/09 22:56
KBZN 092256Z 08010KT 10SM FEW070 21/13 A2997 RMK AO2 RAB30E46 SLP120 P0000 T02110133

2010/08/09 22:56
KCEC 092256Z AUTO 22008KT 10SM OVC008 15/11 A2994 RMK AO2 SLP138 T01500106

2010/08/09 22:55
KCLI 092255Z AUTO 32006KT 10SM CLR 33/19 A2988 RMK AO2

2010/08/09 22:55
KCMY 092255Z AUTO 28005KT 10SM CLR 32/22 A2991 RMK AO2 T03170219

2010/08/09 22:56
KCTB 092256Z AUTO VRB04KT 10SM FEW080 27/06 A2983 RMK AO2 LTG DSNT E SLP074 T02670061 PWINO

2010/08/09 22:56
KCXY 092256Z 17007KT 8SM CLR 32/20 A2993 RMK AO2 SLP135 T03170200

2010/08/09 22:56
KDAY 092256Z 24003KT 9SM FEW200 SCT250 32/19 A2997 RMK AO2 SLP141 T03170189

2010/08/09 22:56
KDIK 092256Z AUTO 15013G20KT 10SM CLR 30/16 A2980 RMK AO2 PK WND 17026/2209 LTG DSNT SW-NW SLP072 T03000161

2010/08/09 22:55
KDLL 092255Z AUTO 00000KT 10SM OVC038 30/22 A2992 RMK AO2 T03040220

2010/08/09 22:56
KDUG 092256Z AUTO 24005KT 10SM CLR 33/14 A3001 RMK AO2 SLP087 T03280139

2010/08/09 22:56
KDUJ 092256Z AUTO 00000KT 10SM FEW110 26/17 A3002 RMK AO2 SLP152 T02610172

2010/08/09 22:56
KEAU 092256Z 36004KT 10SM CLR 32/21 A2990 RMK AO2 SLP116 T03220206

2010/08/09 22:56
KEED 092256Z AUTO 21011G16KT 10SM CLR 41/M05 A2976 RMK AO2 SLP043 T04061050 TSNO

2010/08/09 22:55
KEIK 092255Z AUTO 32005KT 7SM +RA SCT027 SCT039 OVC080 19/12 A3008 RMK AO2 LTG DSNT N NE AND S

2010/08/09 22:56
KEKO 092256Z AUTO 24008KT 10SM CLR 28/02 A2996 RMK AO2 RAE07 SLP083 P0001 T02780017

2010/08/09 22:56
KELZ 092256Z AUTO 27004KT 10SM OVC060 24/18 A3004 RMK AO2 SLP161 T02390183

2010/08/09 22:54
KEZS 092254Z AUTO 34005KT 10SM CLR 32/21 A2989 RMK AO2 T03230205

2010/08/09 22:55
KFAF 092255Z AUTO 15007KT 10SM CLR 30/21 A2998 RMK AO2 SLP152 T03010208 $

2010/08/09 22:55
KFBG 092255Z 12006KT 10SM CLR 32/20 A2998 RMK AO2A SLP149 T03230196 $

2010/08/09 22:56
KGON 092256Z 23007KT 10SM CLR 26/21 A2993 RMK AO2 SLP134 T02560206

2010/08/09 22:50
KGPM 092250Z 16008KT 10SM SCT120 37/20 A2986

2010/08/09 22:56
KGRD 092256Z AUTO 11003KT 10SM CLR 32/22 A2999 RMK AO2 SLP148 T03220217

2010/08/09 22:55
KGTB 092255Z AUTO 25007KT 10SM -DZ SCT017 BKN023 BKN028 23/21 A2993 RMK AO2 DZB2217 SLP135 P0000 T02330208

2010/08/09 22:55
KHFJ 092255Z AUTO 21004KT 10SM CLR 36/24 A2988 RMK AO1

2010/08/09 22:56
KHND 092256Z AUTO 24010KT 220V280 10SM CLR 36/M05 A2987 RMK AO2 T03611050 SLP064

2010/08/09 22:56
KHPN 092256Z 18008G14KT 10SM CLR 28/16 A2994 RMK AO2 SLP131 T02780156

2010/08/09 22:55
KHVS 092255Z AUTO 00000KT 7SM CLR 31/22 A3000 RMK AO2

2010/08/09 22:56
KHWV 092256Z AUTO 21008KT 10SM CLR 27/18 A2996 RMK AO2 SLP143 T02720183

2010/08/09 22:56
KHYA 092256Z 21010KT 10SM CLR 26/21 A2992 RMK AO2 SLP132 T02610211

2010/08/09 22:56
KIGX 092256Z AUTO VRB03KT 10SM CLR 32/20 A3000 RMK AO2 SLP152 T03170200

2010/08/09 22:56
KINW 092256Z AUTO 00000KT 10SM FEW065 BKN095 28/09 A3007 RMK AO2 RAB22E45 SLP112 P0002 T02830094

2010/08/09 22:56
KISP 092256Z 22010KT 10SM FEW150 BKN250 27/17 A2994 RMK AO2 SLP136 T02720167

2010/08/09 22:56
KITH 092256Z 34011KT 6SM -RA BR BKN060 OVC085 22/20 A3000 RMK AO2 T02220200 RAB22 P0000 SLP152

2010/08/09 22:56
KJMS 092256Z AUTO 17009KT 10SM CLR 32/19 A2986 RMK AO2 SLP103 T03220194

2010/08/09 22:56
KJXN 092256Z 23003KT 10SM FEW038 26/22 A2995 RMK AO2 SLP136 T02560222 $

2010/08/09 22:56
KLAS 092256Z 16007G16KT 10SM CLR 36/M02 A2981 RMK AO2 SLP066 T03561022

2010/08/09 22:55
KLCK 092255Z AUTO 00000KT 10SM CLR 32/21 A2995 RMK AO2 T03160206

2010/08/09 22:56
KLNR 092256Z AUTO 00000KT 10SM FEW036 32/22 A2991 RMK AO2 SLP118 T03220222

2010/08/09 22:56
KM19 092256Z AUTO 17005KT 10SM CLR A2989 RMK AO2 SLPNO $

2010/08/09 22:55
KMAO 092255Z AUTO 15005KT 10SM CLR 30/24 A2998 RMK AO2

2010/08/09 22:54
KONZ 092254Z AUTO 00000KT 10SM OVC065 26/23 A2993 RMK AO2

2010/08/09 22:53
KTEW 092253Z AUTO 00000KT 10SM CLR 27/21 A2994 RMK AO2

2010/08/09 22:50
KCVH 092250Z AUTO 26015G18KT 10SM CLR 24/13 A2989 RMK AO1

2010/08/09 22:56
KDVP 092256Z AUTO 09011KT 10SM SCT026 SCT033 29/21 A2995 RMK AO2 T02910211

2010/08/09 22:54
KDYT 092254Z AUTO 00000KT 10SM CLR 26/23 A2990 RMK AO2

2010/08/09 22:59
KFSO 092259Z AUTO 00000KT 10SM SCT035 BKN040 OVC050 24/22 A2988 RMK AO2

2010/08/09 22:54
KFBL 092254Z AUTO 08004KT 10SM CLR 31/21 A2992 RMK AO2

2010/08/09 22:58
KLYV 092258Z AUTO 14009KT 10SM SCT017 SCT030 BKN049 28/23 A2991 RMK AO2

2010/08/09 22:56
KEFK 092256Z AUTO 31005KT 10SM SCT037 SCT044 BKN060 22/18 A2991 RMK AO2

2010/08/09 22:53
KRRT 092253Z AUTO 06008KT 10SM CLR 27/23 A2987 RMK AO2 TSNO

2010/08/09 22:55
KTOB 092255Z AUTO 06004KT 10SM CLR 30/25 A2994 RMK AO2

2010/08/09 22:54
KLXL 092254Z AUTO 00000KT 10SM CLR 31/16 A2991 RMK AO2

2010/08/09 22:52
KEVM 092252Z AUTO 26004KT 10SM CLR 31/17 A2991 RMK AO1

2010/08/09 22:53
KELO 092253Z AUTO 28004KT 10SM CLR 29/17 A2992 RMK AO2

2010/08/09 22:54
KROX 092254Z AUTO 20008KT 10SM CLR 33/23 A2985 RMK AO2

2010/08/09 22:54
KSYN 092254Z AUTO 00000KT 10SM CLR 32/21 A2991 RMK AO2 T03200213

2010/08/09 22:56
KVVV 092256Z AUTO 12007KT 10SM CLR 31/18 A2991 RMK AO2

2010/08/09 23:01
KFKA 092301Z AUTO 06003KT 10SM CLR 31/23 A2994 RMK AO2 T03100229

2010/08/09 22:54
KROS 092254Z AUTO 00000KT 10SM CLR 31/20 A2992 RMK AO2 T03070204

2010/08/09 22:52
KHCD 092252Z AUTO 10004KT 10SM CLR 29/22 A2991 RMK AO2 T02910218

2010/08/09 22:53
KSGS 092253Z AUTO 10004KT 10SM CLR 32/20 A2991 RMK AO2 T03210200

2010/08/09 22:52
KMJQ 092252Z AUTO 10006KT 10SM SCT029 SCT036 SCT042 28/23 A2993 RMK AO2

2010/08/09 22:54
KHCO 092254Z AUTO 22010G14KT 10SM CLR 35/19 A2984 RMK AO2

2010/08/09 22:54
KLVN 092254Z AUTO 13003KT 10SM CLR 30/22 A2992 RMK AO2

2010/08/09 22:53
KPEX 092253Z AUTO 06004KT 10SM CLR 31/19 A2993 RMK AO2 T03110192

2010/08/09 22:55
KJMR 092255Z AUTO 00000KT 10SM CLR 30/20 A2994 RMK AO2

2010/08/09 22:54
KJKJ 092254Z AUTO 20005KT 10SM CLR 33/22 A2987 RMK AO2

2010/08/09 22:54
KMVE 092254Z AUTO 13004KT 10SM CLR 31/24 A2989 RMK AO2

2010/08/09 22:53
KTKC 092253Z AUTO 08006KT 10SM CLR 30/22 A2992 RMK AO2 T03000220

2010/08/09 22:54
KGYL 092254Z AUTO 00000KT 10SM CLR 31/22 A2991 RMK AO2 T03050221

2010/08/09 22:54
KDXX 092254Z AUTO 00000KT 10SM CLR 31/23 A2989 RMK AO2

2010/08/09 22:51
KHZX 092251Z AUTO 27003KT 10SM CLR 31/17 A2994 RMK AO2

2010/08/09 22:52
KCDD 092252Z AUTO 00000KT 10SM CLR 32/24 A2993 RMK AO2

2010/08/09 22:54
KSAZ 092254Z AUTO 00000KT 10SM CLR 31/19 A2993 RMK AO2

2010/08/09 22:51
KONA 092251Z AUTO 00000KT 10SM CLR 31/22 A2990 RMK AO2

2010/08/09 22:53
KFOZ 092253Z AUTO 21006KT 10SM CLR 31/21 A2993 RMK AO2

2010/08/09 22:53
KAQP 092253Z AUTO 12007KT 10SM CLR 30/24 A2989 RMK AO2

2010/08/09 22:54
KETH 092254Z AUTO 08004KT 10SM CLR 31/19 A2993 RMK AO2

2010/08/09 22:54
KOVL 092254Z AUTO 13005KT 10SM CLR 31/20 A2990 RMK AO2 T03060204

2010/08/09 22:52
KLJF 092252Z AUTO 13006KT 10SM CLR 32/20 A2992 RMK AO2

2010/08/09 22:56
KXVG 092256Z AUTO 21004KT 10SM CLR 31/19 A2992 RMK AO2

2010/08/09 22:54
KORB 092254Z AUTO 00000KT 10SM CLR 31/19 A2990 RMK AO2

2010/08/09 22:51
KMZH 092251Z AUTO 00000KT 10SM CLR 31/18 A2991 RMK AO2

2010/08/09 22:53
KBFW 092253Z AUTO 00000KT 10SM CLR 33/14 A2989 RMK AO2

2010/08/09 22:49
KVWU 092249Z AUTO 22005KT 10SM CLR 32/21 A2990 RMK AO2

2010/08/09 22:50
KAEL 092250Z AUTO 12006KT 10SM SCT034 30/23 A2991 RMK AO2

2010/08/09 22:54
KOWA 092254Z AUTO 08005KT 10SM CLR 30/22 A2991 RMK AO2

2010/08/09 22:53
K29G 092253Z AUTO 00000KT 10SM CLR 27/19 A2998 RMK AO2 T02690186 PWINO

2010/08/09 22:53
KMRT 092253Z AUTO 20005KT 10SM CLR 30/20 A3000 RMK AO2 T02980196

2010/08/09 22:54
KIKW 092254Z AUTO 25005KT 10SM SCT021 SCT027 SCT065 28/21 A2989 RMK AO2 T02760212

2010/08/09 22:56
KFPK 092256Z AUTO 21006KT 10SM SCT033 27/21 A2993 RMK AO2

2010/08/09 22:55
KCVX 092255Z AUTO 29005KT 5SM HZ SCT008 25/22 A2992 RMK AO2

2010/08/09 22:54
KMOP 092254Z AUTO 26005KT 10SM SCT026 OVC035 27/23 A2991 RMK AO2

2010/08/09 22:54
KFKS 092254Z AUTO 21004KT 10SM CLR 25/21 A2990 RMK AO2

2010/08/09 22:54
KCAD 092254Z AUTO 25007KT 10SM SCT022 SCT027 26/22 A2993 RMK AO2

2010/08/09 22:56
KMDT 092256Z 20004KT 8SM SCT200 BKN250 32/21 A2993 RMK AO2 SLP132 T03220206

2010/08/09 22:55
KMKS 092255Z AUTO 12006KT 10SM SCT065 SCT075 BKN085 29/24 A2998 RMK AO2 TSNO

2010/08/09 22:56
KMQY 092256Z 27012KT 10SM TSRA FEW060 30/25 A2995 RMK AO2 OCNL LTG ICCCCG TS NW MOV SE T03000250 TSB33RAB33 P0000 SLP132 $

2010/08/09 22:56
KMRH 092256Z AUTO 21009KT 10SM BKN060 OVC080 28/24 A3001 RMK AO2 SLP164 T02830239 TSNO

2010/08/09 22:55
KMWO 092255Z AUTO 00000KT 10SM CLR 35/20 A2995 RMK AO2

2010/08/09 22:55
KMXF 092255Z AUTO 14006KT 10SM CLR 37/19 A2991 RMK AO2 SLP126 T03660191

2010/08/09 22:54
KNFG 092254Z 24010KT 7SM CLR 22/13 A2988 RMK AO2 SLP116 T02170133

2010/08/09 22:55
KNQA 092255Z COR 12003KT 10SM FEW050 SCT150 BKN250 31/26 A2991 RMK

2010/08/09 22:53
KNQX 092253Z 23005KT 10SM SCT010 BKN020 BKN040 BKN140 27/24 A2988 RMK AO2 SLP116 T2 SET T02720244 $

2010/08/09 22:55
KO22 092255Z AUTO 17005KT 10SM CLR 31/08 A2992 RMK AO1

2010/08/09 22:56
KOFK 092256Z AUTO 09010KT 6SM HZ CLR 29/24 A2989 RMK AO2 SLP107 T02890244

2010/08/09 22:56
PATG 092256Z AUTO 20020KT 5SM OVC008 10/09 A2949 RMK AO1 PNO

2010/08/09 22:56
PAUN 092256Z AUTO 10006KT 10SM OVC070 14/08 A2940 RMK AO1 PNO

2010/08/09 22:56
PAVD 092256Z 00000KT 4SM SCT002 BKN020 OVC045 12/10 A2984 RMK AO1 2247Z WEA

2010/08/09 22:56
PAWG 092256Z 00000KT 10SM FEW015 BKN035 BKN060 14/11 A3002 RMK AO1 WEA

2010/08/09 22:56
PAWN 092256Z AUTO 14005KT 10SM FEW048 BKN060 OVC085 18/09 A2946 RMK AO1 PNO

2010/08/09 22:56
PAWS 092256Z AUTO 00000KT 10SM OVC070 15/12 A2965 RMK AO1 PNO

2010/08/09 22:56
PAZK 092256Z AUTO 12010KT 10SM SCT055 BKN065 BKN110 15/03 A2968 RMK AO1 PNO

2010/08/09 22:56
PAAK 092256Z AUTO 27020G26KT 3SM OVC006 09/07 A2975 RMK AO1 PNO

2010/08/09 22:56
PABL 092256Z AUTO 14007KT 5SM SCT017 BKN033 OVC100 14/12 A2943 RMK AO1 PNO

2010/08/09 22:56
PABV 092256Z AUTO 00000KT 10SM OVC080 16/11 A2965 RMK AO1 PNO

2010/08/09 22:56
PACM 092256Z AUTO 15011G18KT 3SM RA BR SCT018 BKN028 OVC090 11/09 A2926 RMK AO2 TSNO T01110094 BKN V SCT P0002 SLP904 $

2010/08/09 22:56
PADK 092256Z 29016G23KT 5SM SCT018 BKN025 OVC035 11/08 A2980 RMK AO1 PNO

2010/08/09 22:56
PAEM 092256Z AUTO 13013G17KT 10SM FEW011 SCT019 BKN026 12/08 A2927 RMK AO1 PNO

2010/08/09 22:56
PAFE 092256Z AUTO 00000KT 10SM OVC027 14/11 A3003 RMK AO1 PNO

2010/08/09 22:56
PAFM 092256Z AUTO 12007KT 10SM SCT034 OVC043 14/11 A2952 RMK AO1 PNO

2010/08/09 22:56
PAGL 092256Z AUTO 12007KT 10SM FEW019 SCT029 BKN035 12/09 A2945 RMK AO1 PNO

2010/08/09 22:56
PAGM 092256Z AUTO 07014G21KT 10SM BKN048 OVC050 09/08 A2931 RMK AO1

2010/08/09 22:56
PAGS 092256Z AUTO 16003KT 10SM OVC039 16/11 A2997 RMK AO1 PNO

2010/08/09 22:56
PAHP 092256Z AUTO 13011KT 10SM FEW009 SCT016 BKN032 11/08 A2921 RMK AO1 PNO TSNO

2010/08/09 22:56
PAHY 092256Z AUTO 00000KT 10SM OVC018 14/12 A3002 RMK AO1 PNO

2010/08/09 22:56
PAII 092256Z AUTO 24007KT 10SM OVC027 12/09 A2966 RMK AO1 PNO

2010/08/09 22:56
PAIN 092256Z AUTO 17005KT 10SM OVC046 14/08 A2964 RMK AO1 PNO

2010/08/09 22:56
PAJC 092256Z AUTO 15003KT 10SM BKN005 OVC018 17/08 A2961 RMK AO1 PNO

2010/08/09 22:56
PAKK 092256Z AUTO 00000KT 10SM SCT041 BKN048 OVC060 13/11 A2939 RMK AO1 PNO

2010/08/09 22:56
PAKP 092256Z AUTO 03007KT 10SM BKN048 OVC050 10/08 A2958 RMK AO1

2010/08/09 22:56
PAMD 092256Z AUTO 17006KT 2SM OVC003 12/11 A2983 RMK AO1 PNO

2010/08/09 22:56
PAMH 092256Z RMK AO1 PNO

2010/08/09 22:56
PAMM 092256Z AUTO 22006KT 10SM OVC013 13/11 A3005 RMK AO1 PNO

2010/08/09 22:56
PAMY 092256Z 22011KT 10SM OVC017 12/08 A2921 RMK AO1

2010/08/09 22:56
PANI 092256Z AUTO 13008KT 10SM BKN046 OVC055 15/09 A2942 RMK AO1 PNO

2010/08/09 22:56
PANV 092256Z AUTO 10006KT 10SM BKN006 OVC012 12/11 A2941 RMK AO1 PNO

2010/08/09 22:56
PAOU 092256Z AUTO 00000KT 8SM BKN036 12/08 A2957 RMK AO2 PWINO TSNO T01220083 SLP017 $

2010/08/09 22:56
PAPG 092256Z 01003KT 10SM FEW007 BKN028 OVC045 14/12 A3001 RMK AO1 WEA

2010/08/09 22:56
PAPN 092256Z AUTO 03003KT 10SM BKN027 BKN034 15/11 A2960 RMK AO2 PWINO TSNO T01500105 BKN V OVC SLP027

2010/08/09 22:56
PARC 092256Z AUTO 36007KT 10SM BKN100 16/06 A2960 RMK AO1 PNO

2010/08/09 22:56
PASA 092256Z AUTO 09011KT 10SM BKN042 OVC065 11/07 A2933 RMK AO1 PNO

2010/08/09 22:56
PASD 092256Z 19021G30KT 9SM SCT013 BKN016 OVC024 11/08 A2965 RMK AO1 WEA

2010/08/09 22:56
PASH 092256Z AUTO 09009KT 10SM BKN080 OVC095 16/12 A2941 RMK AO1 PNO

2010/08/09 22:56
PASK 092256Z AUTO 09014KT 10SM OVC043 14/11 A2945 RMK AO1 PNO

2010/08/09 22:56
PASL 092256Z AUTO 16006G14KT 10SM FEW022 BKN029 OVC070 13/09 A2955 RMK AO1 PNO

2010/08/09 22:56
PASM 092256Z AUTO 14012G20KT 5SM SCT008 BKN014 OVC021 10/08 A2933 RMK AO1 PNO

2010/08/09 22:56
PASX 092256Z AUTO 27011KT 10SM OVC080 16/10 A2967 RMK AO1 PNO

2010/08/09 22:56
KOWB 092256Z 19004KT 10SM FEW095 38/24 A2991 RMK AO2 T03770238 SLP123

2010/08/09 22:55
KOZR 092255Z AUTO 07006KT 10SM CLR 34/22 A2992 RMK AO2 SLP129 T03420217 $

2010/08/09 22:52
KPVB 092252Z AUTO 00000KT 10SM BKN036 BKN045 31/22 A2993 RMK AO1 T03050222

2010/08/09 22:55
KPVF 092255Z AUTO 21005KT 10SM CLR 28/08 A2995 RMK AO1

2010/08/09 22:55
KRCE 092255Z AUTO 15012KT 10SM CLR 35/20 A2987 RMK AO2

2010/08/09 22:56
KRDM 092256Z 30007G15KT 260V340 10SM CLR 28/03 A2987 RMK AO2 SLP093 T02780028

2010/08/09 22:53
KRZN 092253Z AUTO 00000KT 10SM CLR 31/19 A2993 RMK AO2 T03100194

2010/08/09 22:53
KSBD 092253Z 27010G15KT 07SM SKC 31/05 A2986

2010/08/09 22:56
KSBP 092256Z AUTO 32011KT 10SM CLR 22/12 A2990 RMK AO2 SLP123 T02170122 TSNO $

2010/08/09 22:56
KSFO 092256Z 30018KT 10SM FEW009 18/11 A2988 RMK AO2 SLP120 T01830111

2010/08/09 22:56
KSGH 092256Z AUTO 15005KT 5SM HZ CLR 30/24 A2998 RMK AO2 T03000244 RAB2157E40 P0000 SLP144 $

2010/08/09 22:58
KSGJ 092258Z 12012KT 10SM CLR 29/24 A2993 RMK AO2 SLP136 T02940239

2010/08/09 22:56
KSLE 092256Z 04008KT 10SM SCT042 22/10 A2996 RMK AO2 SLP145 T02220100

2010/08/09 22:55
KSMS 092255Z AUTO 00000KT 5SM HZ CLR 30/23 A3000 RMK AO2

2010/08/09 22:56
KSRC 092256Z AUTO 00000KT 10SM CLR 36/24 A2988 RMK AO2 TSNO T03550238 SLP120

2010/08/09 22:53
KSUN 092253Z 28009KT 20SM BKN110 14/12 A3008

2010/08/09 22:56
KTPH 092256Z AUTO VRB06G25KT 10SM CLR 27/M06 A3003 RMK AO2 SLP096 T02721061

2010/08/09 22:55
KTTS 092255Z 13007KT 10SM FEW022 FEW210 29/25 A2991 RMK SLP129 2CU /2/ 1CI /2/

2010/08/09 22:56
KUKI 092256Z AUTO VRB05KT 10SM CLR 33/11 A2981 RMK AO2 SLP088 T03280111

2010/08/09 22:53
KVES 092253Z AUTO 00000KT 10SM CLR 30/22 A2995 RMK AO2 T02970224

2010/08/09 22:56
KWJF 092256Z 25015G19KT 10SM CLR 33/01 A2987 RMK AO2 SLP097 T03280011

2010/08/09 22:55
KWRB 092255Z 02003KT 10SM CLR 34/24 A2994 RMK AO2A SLP137 T03410243

2010/08/09 22:55
KY63 092255Z AUTO 12003KT 10SM CLR 31/18 A2991 RMK AO2 T03100183

2010/08/09 22:56
PAAK 092256Z AUTO 27020G26KT 3SM OVC006 09/07 A2975 RMK AO1 PNO

2010/08/09 22:56
PACM 092256Z AUTO 15011G18KT 3SM RA BR SCT018 BKN028 OVC090 11/09 A2926 RMK AO2 TSNO T01110094 BKN V SCT P0002 SLP904 $

2010/08/09 22:56
PAHP 092256Z AUTO 13011KT 10SM FEW009 SCT016 BKN032 11/08 A2921 RMK AO1 PNO TSNO

2010/08/09 22:55
PGUA 092255Z AUTO 00000KT 10SM SCT160 26/24 A2994 RMK AO2 SLP120 T02650242 $

2010/08/09 22:56
TJSJ 092256Z 09011KT 10SM FEW020 SCT040 BKN060 28/24 A2995 RMK AO2 SLP139 SHRA DSNT SE T02780244

2010/08/09 23:00
GBYD 092300Z 00000KT 9999 SCT011 FEW018CB SCT110 26/24 Q1013 CB N-E

2010/08/09 23:00
SBBR 092300Z 11009KT CAVOK 24/00 Q1022 

2010/08/09 23:00
SBCG 092300Z 25003KT CAVOK 23/06 Q1017

2010/08/09 22:51
KSAD 092251Z AUTO 30007KT 10SM CLR 36/10 A2990 RMK AO2 SLP066 T03560100 TSNO

2010/08/09 22:54
KDMH 092254Z AUTO 32/20 A2995 RMK AO2 SLP141 T03170200 PWINO TSNO

2010/08/09 22:54
KWAL 092254Z AUTO 20009KT 10SM CLR 27/22 A3000 RMK AO2 SLP156 T02670217 TSNO

2010/08/09 22:54
KAVP 092254Z 23009KT 10SM CLR 31/16 A2994 RMK AO2 SLP126 T03060161 $

2010/08/09 22:54
KRIC 092254Z 19008KT 7SM FEW055 SCT250 32/18 A2997 RMK AO2 SLP151 T03220178 $

2010/08/09 22:54
KCOU 092254Z 16006KT 10SM FEW080 33/27 A2990 RMK AO2 SLP112 T03280267

2010/08/09 22:54
KNAK 092254Z AUTO 18012G19KT 9SM CLR 29/19 A2995 RMK AO2 SLP143 T02890189 TSNO

2010/08/09 22:54
KGSO 092254Z 17007KT 10SM FEW055 32/19 A3001 RMK AO2 SLP147 T03170189

2010/08/09 22:54
K12N 092254Z AUTO 00000KT 29/21 A2993 RMK AO2 SLP128 T02940206 PWINO TSNO

2010/08/09 22:54
KACY 092254Z 18009KT 10SM CLR 28/20 A2999 RMK AO2 SLP153 T02830200

2010/08/09 22:54
KCAR 092254Z AUTO 23004KT 10SM CLR 23/18 A2980 RMK AO2 SLP092 T02330178

2010/08/09 22:54
KFWA 092254Z 20003KT 9SM FEW090 BKN140 BKN250 29/24 A2994 RMK AO2 SLP134 T02940244

2010/08/09 22:53
KMWT 092253Z AUTO 00000KT 10SM CLR 36/21 A2989 RMK AO2 SLP107 T03560211 TSNO

2010/08/09 22:53
KRTN 092253Z AUTO 36011KT 10SM FEW080 24/15 A3014 RMK AO2 RAE2156B28E48 SLP113 P0000 T02440150 TSNO $

2010/08/09 22:54
KRFD 092254Z 30003KT 10SM FEW030 SCT070 30/22 A2993 RMK AO2 SLP129 T03000217 $

2010/08/09 22:52
KMWN 092252Z 26022KT 1/16SM FG VV000 13/13 RMK

2010/08/09 22:55
KDRA 092255Z AUTO 21016G26KT 10SM CLR 34/M07 A2991 RMK AO2 PK WND 22026/2253 SLP080 T03441072 TSNO

2010/08/09 22:54
KAKQ 092254Z AUTO 00000KT 7SM CLR 32/19 A2998 RMK AO2 SLP150 T03170194 TSNO

2010/08/09 22:53
KPQN 092253Z AUTO 11009KT 10SM CLR 30/23 A2993 RMK AO2

2010/08/09 22:53
KFGN 092253Z AUTO 00000KT 10SM CLR 29/19 A2986 RMK AO2

2010/08/09 22:53
KPNM 092253Z AUTO 05003KT 10SM CLR 32/19 A2992 RMK AO2

2010/08/09 22:53
KPWC 092253Z AUTO 00000KT 10SM CLR 31/19 A2995 RMK AO2

2010/08/09 22:53
KFFM 092253Z AUTO 14004KT 10SM CLR 31/20 A2988 RMK AO2

2010/08/09 22:52
KGDB 092252Z AUTO 08004KT 10SM CLR 31/21 A2991 RMK AO2 T03090214

2010/08/09 22:47
KAIT 092247Z AUTO 00000KT 10SM CLR 31/20 A2993 RMK AO2

2010/08/09 22:53
KGHW 092253Z AUTO 08005KT 10SM CLR 32/17 A2995 RMK AO2

2010/08/09 22:53
KMWM 092253Z AUTO 09006KT 10SM BKN033 BKN039 29/23 A2992 RMK AO2

2010/08/09 22:54
KULM 092254Z AUTO 09008KT 10SM CLR 31/22 A2990 RMK AO2

2010/08/09 22:53
KBBB 092253Z AUTO 13005KT 10SM CLR 32/21 A2994 RMK AO2

2010/08/09 22:53
KTWM 092253Z AUTO 27004KT 10SM CLR 31/19 A2990 RMK AO2

2010/08/09 22:55
KMGG 092255Z AUTO 00000KT 10SM CLR 32/21 A2992 RMK AO2 T03200209

2010/08/09 22:48
KMOX 092248Z AUTO 10004KT 10SM CLR 31/21 A2988 RMK AO2

2010/08/09 22:55
KPOE 092255Z AUTO 19006KT 10SM CLR 35/22 A2990 RMK AO2 SLP125 T03500222

2010/08/09 22:55
KAST 092255Z AUTO 27007KT 10SM SCT014 OVC022 16/12 A3002 RMK AO2 SLP164 T01560122

2010/08/09 22:56
KABQ 092256Z VRB04KT 10SM SCT090CB BKN150 29/09 A3007 RMK AO2 RAB39E55 SLP087 CB NE MOV NE TCU SW P0000 T02940094

2010/08/09 22:55
KANJ 092255Z AUTO 16004KT 10SM SCT037 27/20 A2988 RMK AO2 SLP114 T02720200

2010/08/09 22:55
KVBG 092255Z 30007KT 10SM FEW008 SCT014 16/12 A2993 RMK AO2 SLP127 WND ESTMD T01610117 VISNO RWY12 $

2010/08/09 22:56
KJAX 092256Z 07008KT 10SM FEW037 SCT075 SCT130 BKN200 29/24 A2993 RMK AO2 SLP136 T02890244

2010/08/09 22:54
KONZ 092254Z AUTO 00000KT 10SM OVC065 26/23 A2993 RMK AO2

2010/08/09 22:53
KTEW 092253Z AUTO 00000KT 10SM CLR 27/21 A2994 RMK AO2

2010/08/09 22:50
KCVH 092250Z AUTO 26015G18KT 10SM CLR 24/13 A2989 RMK AO1

2010/08/09 22:56
KDVP 092256Z AUTO 09011KT 10SM SCT026 SCT033 29/21 A2995 RMK AO2 T02910211

2010/08/09 22:54
KDYT 092254Z AUTO 00000KT 10SM CLR 26/23 A2990 RMK AO2

2010/08/09 22:59
KFSO 092259Z AUTO 00000KT 10SM SCT035 BKN040 OVC050 24/22 A2988 RMK AO2

2010/08/09 22:54
KFBL 092254Z AUTO 08004KT 10SM CLR 31/21 A2992 RMK AO2

2010/08/09 22:58
KLYV 092258Z AUTO 14009KT 10SM SCT017 SCT030 BKN049 28/23 A2991 RMK AO2

2010/08/09 22:56
KEFK 092256Z AUTO 31005KT 10SM SCT037 SCT044 BKN060 22/18 A2991 RMK AO2

2010/08/09 22:53
KRRT 092253Z AUTO 06008KT 10SM CLR 27/23 A2987 RMK AO2 TSNO

2010/08/09 22:55
KTOB 092255Z AUTO 06004KT 10SM CLR 30/25 A2994 RMK AO2

2010/08/09 22:54
KLXL 092254Z AUTO 00000KT 10SM CLR 31/16 A2991 RMK AO2

2010/08/09 22:52
KEVM 092252Z AUTO 26004KT 10SM CLR 31/17 A2991 RMK AO1

2010/08/09 22:53
KELO 092253Z AUTO 28004KT 10SM CLR 29/17 A2992 RMK AO2

2010/08/09 22:54
KROX 092254Z AUTO 20008KT 10SM CLR 33/23 A2985 RMK AO2

2010/08/09 22:54
KSYN 092254Z AUTO 00000KT 10SM CLR 32/21 A2991 RMK AO2 T03200213

2010/08/09 22:56
KVVV 092256Z AUTO 12007KT 10SM CLR 31/18 A2991 RMK AO2

2010/08/09 22:54
KROS 092254Z AUTO 00000KT 10SM CLR 31/20 A2992 RMK AO2 T03070204

2010/08/09 22:52
KHCD 092252Z AUTO 10004KT 10SM CLR 29/22 A2991 RMK AO2 T02910218

2010/08/09 22:53
KSGS 092253Z AUTO 10004KT 10SM CLR 32/20 A2991 RMK AO2 T03210200

2010/08/09 22:52
KMJQ 092252Z AUTO 10006KT 10SM SCT029 SCT036 SCT042 28/23 A2993 RMK AO2

2010/08/09 22:54
KHCO 092254Z AUTO 22010G14KT 10SM CLR 35/19 A2984 RMK AO2

2010/08/09 22:54
KLVN 092254Z AUTO 13003KT 10SM CLR 30/22 A2992 RMK AO2

2010/08/09 22:53
KPEX 092253Z AUTO 06004KT 10SM CLR 31/19 A2993 RMK AO2 T03110192

2010/08/09 22:55
KJMR 092255Z AUTO 00000KT 10SM CLR 30/20 A2994 RMK AO2

2010/08/09 22:54
KJKJ 092254Z AUTO 20005KT 10SM CLR 33/22 A2987 RMK AO2

2010/08/09 22:54
KMVE 092254Z AUTO 13004KT 10SM CLR 31/24 A2989 RMK AO2

2010/08/09 22:53
KTKC 092253Z AUTO 08006KT 10SM CLR 30/22 A2992 RMK AO2 T03000220

2010/08/09 22:54
KGYL 092254Z AUTO 00000KT 10SM CLR 31/22 A2991 RMK AO2 T03050221

2010/08/09 22:54
KDXX 092254Z AUTO 00000KT 10SM CLR 31/23 A2989 RMK AO2

2010/08/09 22:51
KHZX 092251Z AUTO 27003KT 10SM CLR 31/17 A2994 RMK AO2

2010/08/09 22:52
KCDD 092252Z AUTO 00000KT 10SM CLR 32/24 A2993 RMK AO2

2010/08/09 22:54
KSAZ 092254Z AUTO 00000KT 10SM CLR 31/19 A2993 RMK AO2

2010/08/09 22:51
KONA 092251Z AUTO 00000KT 10SM CLR 31/22 A2990 RMK AO2

2010/08/09 22:53
KFOZ 092253Z AUTO 21006KT 10SM CLR 31/21 A2993 RMK AO2

2010/08/09 22:53
KAQP 092253Z AUTO 12007KT 10SM CLR 30/24 A2989 RMK AO2

2010/08/09 22:54
KETH 092254Z AUTO 08004KT 10SM CLR 31/19 A2993 RMK AO2

2010/08/09 22:54
KOVL 092254Z AUTO 13005KT 10SM CLR 31/20 A2990 RMK AO2 T03060204

2010/08/09 22:52
KLJF 092252Z AUTO 13006KT 10SM CLR 32/20 A2992 RMK AO2

2010/08/09 22:56
KXVG 092256Z AUTO 21004KT 10SM CLR 31/19 A2992 RMK AO2

2010/08/09 22:54
KORB 092254Z AUTO 00000KT 10SM CLR 31/19 A2990 RMK AO2

2010/08/09 22:51
KMZH 092251Z AUTO 00000KT 10SM CLR 31/18 A2991 RMK AO2

2010/08/09 22:53
KBFW 092253Z AUTO 00000KT 10SM CLR 33/14 A2989 RMK AO2

2010/08/09 22:49
KVWU 092249Z AUTO 22005KT 10SM CLR 32/21 A2990 RMK AO2

2010/08/09 22:50
KAEL 092250Z AUTO 12006KT 10SM SCT034 30/23 A2991 RMK AO2

2010/08/09 22:54
KOWA 092254Z AUTO 08005KT 10SM CLR 30/22 A2991 RMK AO2

2010/08/09 22:53
K29G 092253Z AUTO 00000KT 10SM CLR 27/19 A2998 RMK AO2 T02690186 PWINO

2010/08/09 22:53
KMRT 092253Z AUTO 20005KT 10SM CLR 30/20 A3000 RMK AO2 T02980196

2010/08/09 22:54
KIKW 092254Z AUTO 25005KT 10SM SCT021 SCT027 SCT065 28/21 A2989 RMK AO2 T02760212

2010/08/09 22:56
KFPK 092256Z AUTO 21006KT 10SM SCT033 27/21 A2993 RMK AO2

2010/08/09 22:55
KCVX 092255Z AUTO 29005KT 5SM HZ SCT008 25/22 A2992 RMK AO2

2010/08/09 22:54
KMOP 092254Z AUTO 26005KT 10SM SCT026 OVC035 27/23 A2991 RMK AO2

2010/08/09 22:54
KFKS 092254Z AUTO 21004KT 10SM CLR 25/21 A2990 RMK AO2

2010/08/09 22:54
KCAD 092254Z AUTO 25007KT 10SM SCT022 SCT027 26/22 A2993 RMK AO2

2010/08/09 22:55
KMGN 092255Z AUTO 24004KT 7SM SCT025 SCT055 27/21 A2989 RMK AO2

2010/08/09 22:55
KSLH 092255Z AUTO 05006KT 10SM CLR 24/20 A2990 RMK AO2

2010/08/09 22:55
KSJX 092255Z AUTO 00000KT 7SM SCT100 26/21 A2990 RMK AO2

2010/08/09 22:55
KHAI 092255Z AUTO 25005KT 7SM CLR 28/22 A2993 RMK AO2

2010/08/09 22:56
KLWA 092256Z AUTO 28004KT 10SM CLR 28/20 A2992 RMK AO2

2010/08/09 22:57
KDRM 092257Z AUTO 15004KT 10SM CLR 23/20 A2990 RMK AO2

2010/08/09 22:54
KVLL 092254Z AUTO 25005KT 10SM SCT042 BKN080 OVC090 26/20 A2996 RMK AO2

2010/08/09 22:55
KGOV 092255Z AUTO 05007KT 10SM SCT031 BKN043 BKN050 26/22 A2991 RMK AO2

2010/08/09 22:54
KPZQ 092254Z AUTO 06005KT 10SM CLR 25/18 A2990 RMK AO2

2010/08/09 22:55
KCFS 092255Z AUTO 17007KT 10SM SCT007 SCT036 BKN090 24/22 A2991 RMK AO2

2010/08/09 22:54
KHYX 092254Z AUTO 23003KT 10SM CLR 25/22 A2990 RMK AO2

2010/08/09 22:55
KOZW 092255Z AUTO 21007KT 10SM CLR 27/21 A2994 RMK AO2

2010/08/09 22:55
KRNP 092255Z AUTO 10003KT 7SM SCT015 BKN032 OVC050 23/23 A2992 RMK AO2

2010/08/09 22:54
KDUH 092254Z AUTO 00000KT 10SM SCT045 BKN080 OVC100 27/21 A2994 RMK AO2

2010/08/09 22:55
KISQ 092255Z AUTO 22003KT 7SM SCT034 26/21 A2990 RMK AO2

2010/08/09 22:55
KJYM 092255Z AUTO 00000KT 7SM BKN035 BKN042 OVC060 25/23 A2996 RMK AO2

2010/08/09 22:55
KIRS 092255Z AUTO 25005KT 7SM CLR 28/23 A2994 RMK AO2

2010/08/09 22:55
KAMN 092255Z AUTO 30006KT 10SM SCT030 SCT040 BKN048 29/22 A2991 RMK AO2

2010/08/09 22:55
KACB 092255Z AUTO 30006KT 10SM CLR 28/22 A2989 RMK AO2

2010/08/09 22:54
KRQB 092254Z AUTO 26008KT 10SM SCT023 SCT034 27/21 A2993 RMK AO2

2010/08/09 22:55
KERY 092255Z AUTO 24005KT 10SM CLR 27/23 A2991 RMK AO2

2010/08/09 22:55
KOEB 092255Z AUTO 19003KT 7SM CLR 27/23 A2994 RMK AO2

2010/08/09 22:56
K4I3 092256Z AUTO 16003KT 10SM CLR 29/20 A2999 RMK AO2

2010/08/09 22:55
KAUM 092255Z AUTO 07005KT 10SM CLR 31/23 A2991 RMK AO2

2010/08/09 22:55
KFFX 092255Z AUTO 27005KT 10SM BKN028 26/22 A2992 RMK AO2

2010/08/09 22:54
KCNB 092254Z AUTO 09005KT 10SM CLR 29/22 A2991 RMK AO2 T02910215

2010/08/09 22:55
KCKN 092255Z AUTO 20011G14KT 10SM CLR 33/21 A2986 RMK AO2

2010/08/09 22:57
KCQM 092257Z AUTO 00000KT 10SM CLR 31/19 A2993 RMK AO2

2010/08/09 22:55
KDTL 092255Z AUTO 18007KT 10SM CLR 31/17 A2994 RMK AO2

2010/08/09 22:55
KBDH 092255Z AUTO 13007KT 3SM HZ CLR 32/20 A2992 RMK AO2

2010/08/09 22:55
KCBG 092255Z AUTO 00000KT 10SM CLR 32/24 A2990 RMK AO2

2010/08/09 22:57
KADC 092257Z AUTO 21003KT 10SM CLR 31/17 A2993 RMK AO2

2010/08/09 22:55
KHAF 092255Z AUTO 24005KT 8SM OVC006 13/12 A2994 RMK AO2

2010/08/09 22:55
KCKC 092255Z AUTO 32007KT 10SM CLR 28/13 A2995 RMK AO2

2010/08/09 22:55
KJYG 092255Z AUTO 08005KT 10SM CLR 31/27 A2992 RMK AO2

2010/08/09 22:56
KCOQ 092256Z AUTO 00000KT 10SM CLR 32/14 A2994 RMK AO2

2010/08/09 22:58
KACQ 092258Z AUTO 04005KT 10SM CLR 30/22 A2993 RMK AO2

2010/08/09 22:55
KRGK 092255Z AUTO 16003KT 10SM CLR 32/23 A2990 RMK AO2

2010/08/09 22:54
KFSE 092254Z AUTO 22009KT 10SM CLR 30/19 A2989 RMK AO2

2010/08/09 22:55
KY70 092255Z AUTO 23009KT 10SM BKN024 BKN032 29/22 A2991 RMK AO2 T02860219

2010/08/09 22:50
KUKT 092250Z AUTO 22007KT 10SM CLR 30/19 A2995 RMK AO1

2010/08/09 22:54
KCDA 092254Z AUTO 22009KT 10SM +RA SCT034 BKN044 OVC065 23/18 A2993 RMK AO2

2010/08/09 22:55
KMBG 092255Z AUTO 15016KT 10SM FEW090 33/17 A2983 RMK AO2 SLP087 T03330167 TSNO

2010/08/09 22:55
KHON 092255Z AUTO 12008KT 10SM CLR 32/20 A2986 RMK AO2 SLP103 T03170200 TSNO

2010/08/09 22:55
KINL 092255Z AUTO 05004KT 10SM CLR 31/21 A2990 RMK AO2 SLP121 T03060211

2010/08/09 22:56
TJSJ 092256Z 09011KT 10SM FEW020 SCT040 BKN060 28/24 A2995 RMK AO2 SLP139 SHRA DSNT SE T02780244

2010/08/09 22:56
KSHV 092256Z 20004KT 10SM SCT070 36/21 A2987 RMK AO2 SLP112 T03560211

2010/08/09 22:55
KPHP 092255Z AUTO 17007KT 10SM CLR 31/15 A2988 RMK AO2 SLP096 T03110150 TSNO

2010/08/09 22:56
KCHS 092256Z 09007KT 10SM SCT017 BKN022 OVC075 28/26 A2998 RMK AO2 RAB19E54 SLP150 P0000 T02830261

2010/08/09 22:56
KSDF 092256Z 17004KT 9SM FEW070 SCT150 SCT250 35/21 A2992 RMK AO2 SLP124 T03500206

2010/08/09 22:53
KRQE 092253Z AUTO 27008KT 10SM SCT120 24/08 A3022 RMK AO2 SLP124 T02390078 TSNO

2010/08/09 22:55
KAAT 092255Z AUTO 27013G23KT 10SM CLR 28/01 A2993 RMK AO2 SLP091 T02830006 TSNO

2010/08/09 23:01
KFKA 092301Z AUTO 06003KT 10SM CLR 31/23 A2994 RMK AO2 T03100229

2010/08/09 23:05
KBAX 092305Z AUTO 22006KT 10SM CLR 25/21 A2991 RMK AO2

2010/08/09 23:03
KCFE 092303Z AUTO 00000KT 10SM 32/20 A2992 RMK AO2 T03230202

2010/08/09 22:54
KMTP 092254Z AUTO 21009G15KT 24/21 A2995 RMK AO2 SLP143 T02440211 PWINO TSNO

2010/08/09 22:56
KGNR 092256Z AUTO 32005KT 22/18 A2988 RMK AO1 SLP115 T02220178

2010/08/09 22:56
KAQV 092256Z AUTO VRB03KT 10SM SCT060 37/23 A2989 RMK AO2 SLP118 T03670228

2010/08/09 22:56
KGFA 092256Z AUTO 18004KT 10SM CLR 29/06 A2978 RMK AO2 SLP084 T02890056

2010/08/09 22:56
KP53 092256Z AUTO 02007KT 24/22 A2991 RMK AO2 SLP126 T02440217 PWINO TSNO

2010/08/09 22:56
KNXP 092256Z 14011G19KT 7SM CLR 37/M07 A2988 RMK AO2 SLP080 T03671072 $

2010/08/09 22:56
KCAE 092256Z 12007KT 10SM FEW090 BKN210 33/22 A2998 RMK AO2 SLP148 T03280217

2010/08/09 22:56
KSXT 092256Z AUTO VRB06G14KT 8SM CLR 22/11 A2999 RMK AO2 SLP116 T02170106 TSNO

2010/08/09 22:56
KNBT 092256Z AUTO 11005KT 10SM CLR 28/25 A3000 RMK AO2 RAB05E33 SLP163 P0000 T02830250 TSNO

2010/08/09 22:55
PACZ 092255Z AUTO 17007KT 130V190 7SM SCT011 BKN018 OVC024 11/09 A2922 RMK AO1 9 T01060089

2010/08/09 22:55
PALU 092255Z AUTO 07017G22KT 5SM 08/07 A2960 RMK AO1 T00830073

2010/08/09 22:55
PATC 092255Z AUTO 00000KT 1 1/4SM OVC004 11/10 A2939 RMK AO1 T01060101

2010/08/09 22:55
PAIM 092255Z AUTO 09005KT 10SM BKN010 OVC015 13/12 A2955 RMK AO1 T01280123

2010/08/09 22:55
PATL 092255Z AUTO 12006KT 10SM SCT013 BKN020 OVC060 12/11 A2954 RMK AO1 T01220112

2010/08/09 22:55
PASV 092255Z AUTO 18009KT 10SM BKN015 OVC040 10/08 A2958 RMK AO1 T01000084

2010/08/09 22:55
KBAD 092255Z AUTO 21006KT 10SM CLR 37/20 A2988 RMK AO2 SLP118 T03730200

2010/08/09 22:53
KDTS 092253Z AUTO 23003KT 10SM CLR 33/23 A2989 RMK AO2 SLP122 T03280233

2010/08/09 22:55
KGBN 092255Z VRB03KT 12SM SCT110 BKN130 BKN150 40/08 A2977 RMK SLP052

2010/08/09 22:55
KHST 092255Z AUTO 18003KT 10SM FEW020 27/24 A2989 RMK AO2 SLP123 T02740239

2010/08/09 22:55
KIAB 092255Z AUTO 15014KT 10SM CLR 37/19 A2985 RMK AO2 SLP090 T03720194 $

2010/08/09 22:55
KMGE 092255Z 10009KT 10SM SCT065 32/20 A2999 RMK AO2A SLP143 T03240201 $

2010/08/09 22:55
KOFF 092255Z AUTO VRB03KT 10SM CLR 34/25 A2984 RMK AO2 SLP084 T03420251 RVRNO $

2010/08/09 22:55
KSUU 092255Z AUTO 24013KT 10SM CLR 28/13 A2982 RMK AO2 SLP100 T02760128 RVRNO $

2010/08/09 22:55
KSZL 092255Z AUTO 20011KT 10SM CLR 35/25 A2987 RMK AO2 SLP107 T03540247 PNO $

2010/08/09 22:53
PWAK 092253Z 07017KT 10SM FEW026 31/24 A3007 RMK AO2A

2010/08/09 22:54
KRSP 092254Z AUTO VRB04KT 7SM CLR 29/18 A3003 RMK AO2 SLP157 T02940183 $

2010/08/09 22:55
KBKF 092255Z 35011G15KT 7SM TS VCSH BKN070CB BKN110 BKN220 24/11 A3008 RMK OCNL LTGIC AND TS 13W MOV NE SLP123

2010/08/09 22:55
KCBM 092255Z AUTO 34003KT 10SM FEW160 27/24 A2994 RMK AO2 LTG DSNT SW SLP137 T02710242 $

2010/08/09 22:55
KDAA 092255Z AUTO 16007KT 130V190 10SM CLR 32/21 A2996 RMK AO2 SLP145 T03190211

2010/08/09 22:55
KGSB 092255Z AUTO 12003KT 10SM CLR 32/17 A2997 RMK AO2 RAB2217E2227 SLP149 P0000 T03210174

2010/08/09 22:55
KLSF 092255Z AUTO 13006KT 10SM FEW070 35/21 A2993 RMK AO2 SLP132 T03550209 PNO $

2010/08/09 22:55
KMTC 092255Z 00000KT 7SM SCT045 BKN090 BKN130 26/22 A2993 RMK SLP138

2010/08/09 22:55
KMUI 092255Z AUTO 18004KT 10SM CLR 31/19 A2995 RMK AO2 SLP139 T03130194 $

2010/08/09 22:55
KRIV 092255Z AUTO 28010KT 10SM CLR 30/11 A2988 RMK AO2 SLP113 T02990107

2010/08/09 22:55
KSLI 092255Z AUTO 22010KT 10SM CLR 22/14 A2988 RMK AO2 SLP121 T02210145

2010/08/09 22:55
KVBG 092255Z 30007KT 10SM FEW008 SCT014 16/12 A2993 RMK AO2 SLP127 WND ESTMD T01610117

2010/08/09 22:55
KWRI 092255Z AUTO 25008KT 10SM CLR 31/19 A2991 RMK AO2 SLP130 T03140187 $

2010/08/09 22:53
PABI 092253Z 20014G21KT 10SM FEW070 BKN100 BKN180 20/05 A2960 RMK AO2 WSHFT 2229 SLP020 VIRGA VC W T02000050

2010/08/09 22:55
PGUA 092255Z AUTO 00000KT 10SM SCT160 26/24 A2994 RMK AO2 SLP120 T02650242 $

2010/08/09 22:55
KBAD 092255Z AUTO 21006KT 10SM CLR 37/20 A2988 RMK AO2 SLP118 T03730200

2010/08/09 22:55
KBKF 092255Z 35011G15KT 7SM TS VCSH BKN070CB BKN110 BKN220 24/11 A3008 RMK OCNL LTGIC AND TS 13W MOV NE SLP123

2010/08/09 22:55
KCBM 092255Z AUTO 34003KT 10SM FEW160 27/24 A2994 RMK AO2 LTG DSNT SW SLP137 T02710242 $

2010/08/09 22:55
KCEF 092255Z AUTO 18006KT 10SM FEW120 31/18 A2989 RMK AO2 CLDS LWR RWY05 SLP121 T03140179 PWINO $

2010/08/09 22:55
KDAA 092255Z AUTO 16007KT 130V190 10SM CLR 32/21 A2996 RMK AO2 SLP145 T03190211

2010/08/09 22:55
KGBN 092255Z VRB03KT 12SM SCT110 BKN130 BKN150 40/08 A2977 RMK SLP052

2010/08/09 22:55
KGRF 092255Z AUTO VRB04KT 10SM BKN024 OVC029 18/12 A2997 RMK AO2 SLP150 T01840125

2010/08/09 22:55
KGSB 092255Z AUTO 12003KT 10SM CLR 32/17 A2997 RMK AO2 RAB2217E2227 SLP149 P0000 T03210174

2010/08/09 22:55
KHMN 092255Z 29007KT 10SM CLR 33/11 A2997 RMK AO2A SLP063 T03320108 $

2010/08/09 22:55
KHST 092255Z AUTO 18003KT 10SM FEW020 27/24 A2989 RMK AO2 SLP123 T02740239

2010/08/09 22:55
KIAB 092255Z AUTO 15014KT 10SM CLR 37/19 A2985 RMK AO2 SLP090 T03720194 $

2010/08/09 22:55
KLRF 092255Z AUTO 09006KT 10SM CLR 36/26 A2988 RMK AO2 SLP116 T03590264

2010/08/09 22:55
KMGE 092255Z 10009KT 10SM SCT065 32/20 A2999 RMK AO2A SLP143 T03240201 $

2010/08/09 22:55
KBAD 092255Z AUTO 21006KT 10SM CLR 37/20 A2988 RMK AO2 SLP118 T03730200

2010/08/09 22:55
KGSB 092255Z AUTO 12003KT 10SM CLR 32/17 A2997 RMK AO2 RAB2217E2227 SLP149 P0000 T03210174

2010/08/09 22:55
KHST 092255Z AUTO 18003KT 10SM FEW020 27/24 A2989 RMK AO2 SLP123 T02740239

2010/08/09 22:52
KNHK 092252Z 14005KT 10SM SCT250 30/22 A2997 RMK AO2 SLP150 T03000222 $

2010/08/09 22:55
KOFF 092255Z AUTO VRB03KT 10SM CLR 34/25 A2984 RMK AO2 SLP084 T03420251 RVRNO $

2010/08/09 22:55
KVPS 092255Z 22005KT 10SM FEW055 FEW220 32/24 A2991 RMK AO2A SLP128 T03220237 $

2010/08/09 22:55
KWRI 092255Z AUTO 25008KT 10SM CLR 31/19 A2991 RMK AO2 SLP130 T03140187 $

2010/08/09 22:55
KAFF 092255Z AUTO VRB03KT 10SM FEW046 23/15 A3016 RMK AO2 LTG DSNT E SLP117 T02250147

2010/08/09 22:55
KDYS 092255Z AUTO 14008KT 10SM FEW075 36/17 A2987 RMK AO2 SLP088 T03560175 $

2010/08/09 22:55
KFAF 092255Z AUTO 15007KT 10SM CLR 30/21 A2998 RMK AO2 SLP152 T03010208 $

2010/08/09 22:55
KFBG 092255Z 12006KT 10SM CLR 32/20 A2998 RMK AO2A SLP149 T03230196 $

2010/08/09 22:55
KFSI 092255Z AUTO 22010KT 10SM CLR 38/19 A2982 RMK AO2 SLP074 T03780186

2010/08/09 22:55
KGTB 092255Z AUTO 25007KT 10SM -DZ SCT017 BKN023 BKN028 23/21 A2993 RMK AO2 DZB2217 SLP135 P0000 T02330208

2010/08/09 22:55
KLHW 092255Z AUTO 11008KT 10SM FEW130 32/25 A2993 RMK AO2 SLP137 T03150247

2010/08/09 22:55
KMXF 092255Z AUTO 14006KT 10SM CLR 37/19 A2991 RMK AO2 SLP126 T03660191

2010/08/09 22:55
KOZR 092255Z AUTO 07006KT 10SM CLR 34/22 A2992 RMK AO2 SLP129 T03420217 $

2010/08/09 22:55
KRND 092255Z AUTO 14010G17KT 10SM FEW060 35/21 A2986 RMK AO2 SLP101 T03460212

2010/08/09 22:55
KTIK 092255Z 12010KT 10SM CLR 37/20 A2986 RMK AO2A SLP096 T03670204

2010/08/09 22:55
KVPS 092255Z 22005KT 10SM FEW055 FEW220 32/24 A2991 RMK AO2A SLP128 T03220237 $

2010/08/09 22:55
PAEI 092255Z AUTO 36010KT 10SM FEW065 SCT140 21/10 A2955 RMK AO2 SLP007 T02110098 $

2010/08/09 22:55
KGTB 092255Z AUTO 25007KT 10SM -DZ SCT017 BKN023 BKN028 23/21 A2993 RMK AO2 DZB2217 SLP135 P0000 T02330208

2010/08/09 22:54
KNFG 092254Z 24010KT 7SM CLR 22/13 A2988 RMK AO2 SLP116 T02170133

2010/08/09 22:54
KNKT 092254Z 17007KT 10SM FEW019 SCT080 28/23 A3001 RMK AO2 SLP158 T02830233

2010/08/09 22:53
KNQX 092253Z 23005KT 10SM SCT010 BKN020 BKN040 BKN140 27/24 A2988 RMK AO2 SLP116 T2 SET T02720244 $

2010/08/09 22:55
KOFF 092255Z AUTO VRB03KT 10SM CLR 34/25 A2984 RMK AO2 SLP084 T03420251 RVRNO $

2010/08/09 22:55
KOZR 092255Z AUTO 07006KT 10SM CLR 34/22 A2992 RMK AO2 SLP129 T03420217 $

2010/08/09 22:55
KRIV 092255Z AUTO 28010KT 10SM CLR 30/11 A2988 RMK AO2 SLP113 T02990107

2010/08/09 22:55
KRND 092255Z AUTO 14010G17KT 10SM FEW060 35/21 A2986 RMK AO2 SLP101 T03460212

2010/08/09 22:55
KSLI 092255Z AUTO 22010KT 10SM CLR 22/14 A2988 RMK AO2 SLP121 T02210145

2010/08/09 22:55
KSUU 092255Z AUTO 24013KT 10SM CLR 28/13 A2982 RMK AO2 SLP100 T02760128 RVRNO $

2010/08/09 22:55
KTIK 092255Z 12010KT 10SM CLR 37/20 A2986 RMK AO2A SLP096 T03670204

2010/08/09 22:55
KVBG 092255Z 30007KT 10SM FEW008 SCT014 16/12 A2993 RMK AO2 SLP127 WND ESTMD T01610117

2010/08/09 22:55
KVPS 092255Z 22005KT 10SM FEW055 FEW220 32/24 A2991 RMK AO2A SLP128 T03220237 $

2010/08/09 22:55
KWRB 092255Z 02003KT 10SM CLR 34/24 A2994 RMK AO2A SLP137 T03410243

2010/08/09 22:55
KWRI 092255Z AUTO 25008KT 10SM CLR 31/19 A2991 RMK AO2 SLP130 T03140187 $

2010/08/09 22:55
KNBG 092255Z 00000KT 8SM FEW008 SCT130 OVC250 26/24 A2995 RMK AO2 SLP140 T2 SET T02610239 $

2010/08/09 22:55
KPOE 092255Z AUTO 19006KT 10SM CLR 35/22 A2990 RMK AO2 SLP125 T03500222

2010/08/09 22:55
KADW 092255Z AUTO 19010KT 10SM CLR 31/22 A2996 RMK AO2 SLP144 T03070215 $

2010/08/09 22:55
KDOV 092255Z AUTO 13006KT 10SM CLR 30/21 A2995 RMK AO2 SLP144 T02960210

2010/08/09 22:55
KFCS 092255Z AUTO 18010KT 10SM BKN110 BKN130 24/15 A3012 RMK AO2 LTG DSNT SE SLP121 T02440148

2010/08/09 22:55
KHIF 092255Z AUTO 23011KT 10SM FEW140 27/05 A3002 RMK AO2 SLP053 T02710050

2010/08/09 22:54
KNFG 092254Z 24010KT 7SM CLR 22/13 A2988 RMK AO2 SLP116 T02170133

2010/08/09 22:52
KNFW 092252Z 17010KT 10SM FEW070 38/18 A2987 RMK AO2 SLP101 T03830178

2010/08/09 22:53
KNIP 092253Z 11012KT 10SM SCT030 SCT130 BKN250 31/23 A2993 RMK AO2 SLP130 T2 SET T03060233

2010/08/09 22:54
KNKT 092254Z 17007KT 10SM FEW019 SCT080 28/23 A3001 RMK AO2 SLP158 T02830233

2010/08/09 22:53
KBAF 092253Z 21006KT 10SM CLR 32/16 A2989 RMK AO2 SLP118 T03170156

2010/08/09 22:53
KBUR 092253Z 17009KT 10SM CLR 26/11 A2987 RMK AO2 SLP102 T02610106

2010/08/09 22:53
KTOI 092253Z 12004KT 10SM CLR 34/22 A2994 RMK AO2 SLP132 T03390222

2010/08/09 22:53
PASC 092253Z 06022KT 10SM OVC005 06/03 A2972 RMK AO2 PK WND 06027/2244 SLP066 T00610033

2010/08/09 22:53
PHJR 092253Z 05008G16KT 360V100 10SM BKN050 29/15 A3009 RMK AO2 SLP197 T02940150

2010/08/09 22:53
TIST 092253Z 10012KT 10SM FEW024 SCT080 29/24 A2995 RMK AO2 SLP141 T02890244

2010/08/09 22:53
TISX 092253Z 11011KT 10SM FEW022 BKN100 28/24 A2995 RMK AO2 SLP141 T02830244

2010/08/09 22:55
KHFF 092255Z AUTO 17006KT 10SM CLR 32/21 A3000 RMK AO2 SLP154 T03240208 $

2010/08/09 22:47
KIWA 092247Z 22006KT 45SM SCT120 SCT200 41/10 A2982

2010/08/09 22:53
KBRO 092253Z AUTO 13014G19KT 10SM FEW031 34/24 A2985 RMK AO2 SLP108 T03390244 TSNO

2010/08/09 22:53
KFLL 092253Z 15009KT 10SM SCT027 BKN060 29/23 A2988 RMK AO2 SLP117 T02890233

2010/08/09 22:51
KJFK 092251Z 19020G25KT 10SM FEW140 BKN250 27/19 A2994 RMK AO2 SLP138 T02670194

2010/08/09 22:53
KMCO 092253Z 11012KT 10SM FEW034 SCT100 29/23 A2989 RMK AO2 SLP120 T02940228

2010/08/09 22:53
KPBI 092253Z 15010KT 10SM FEW022 SCT028TCU SCT250 28/24 A2988 RMK AO2 SLP119 TCU E-SE CB DSNT SW-W T02830239

2010/08/09 22:53
TIST 092253Z 10012KT 10SM FEW024 SCT080 29/24 A2995 RMK AO2 SLP141 T02890244

2010/08/09 22:53
TISX 092253Z 11011KT 10SM FEW022 BKN100 28/24 A2995 RMK AO2 SLP141 T02830244

2010/08/09 22:55
KMNI 092255Z AUTO 11003KT 10SM BKN049 BKN060 31/26 A2997 RMK AO2

2010/08/09 22:53
KOVE 092253Z AUTO 14007KT 10SM CLR 31/13 A2982 RMK AO2 SLP099 T03110128 TSNO $

2010/08/09 22:55
KRBW 092255Z AUTO 12006KT 10SM SCT026 SCT033 SCT047 31/25 A2997 RMK AO2

2010/08/09 22:53
KSGR 092253Z 15015G21KT 10SM CLR 33/24 A2988 RMK AO2 SLP124 T03330239

2010/08/09 22:55
KSPL 092255Z AUTO 08010KT CLR 33/27 A2986 RMK AO2 PWINO PNO

2010/08/09 22:55
KTME 092255Z AUTO 13006KT 10SM CLR 35/23 A2988 RMK AO2

2010/08/09 22:55
KTSP 092255Z AUTO RMK AO2 PWINO PNO FZRANO TSNO

2010/08/09 22:55
KUTA 092255Z AUTO 00000KT 10SM CLR 28/25 A2993 RMK AO2

2010/08/09 22:55
KX40 092255Z AUTO 00000KT 7SM CLR 31/26 A2988 RMK AO2 T03120260

2010/08/09 22:55
KAEG 092255Z AUTO 31005KT 10SM SCT100 SCT120 29/07 A3010 RMK AO1

2010/08/09 22:55
KAIK 092255Z AUTO 13005KT 10SM CLR 31/26 A3001 RMK AO2 PNO

2010/08/09 22:55
KBBP 092255Z AUTO 13004KT 10SM CLR 32/22 A2998 RMK AO2

2010/08/09 22:56
KBMI 092256Z 16005KT 10SM CLR 33/25 A2994 RMK AO2 T03270250 SLP119 $

2010/08/09 22:55
KBNL 092255Z AUTO 09007KT 10SM CLR 32/19 A2997 RMK AO2

2010/08/09 22:56
KBOK 092256Z AUTO 19006KT 8SM CLR 16/12 A2993 RMK AO2 T01550116 SLP135

2010/08/09 22:55
KBWD 092255Z AUTO 15009KT 10SM -RA CLR 37/15 A2986 RMK AO2 P0001

2010/08/09 22:55
KCGC 092255Z AUTO 00000KT 10SM CLR 29/25 A2987 RMK

2010/08/09 22:55
KCMA 092255Z AUTO 22010G15KT 10SM CLR 21/13 A2989 RMK AO2 SLP129 T02110133 TSNO

2010/08/09 22:55
KCQW 092255Z AUTO 14003KT 5SM HZ CLR 32/21 A2999 RMK AO2

2010/08/09 22:55
KDCM 092255Z AUTO 14005KT 7SM CLR 32/26 A3000 RMK AO2

2010/08/09 22:55
KE80 092255Z AUTO 26007G15KT 10SM SCT100 32/05 A3005 RMK AO2 T03210046

2010/08/09 22:55
KEAT 092255Z AUTO 29019KT 10SM CLR 27/08 A2974 RMK AO2 SLP061 T02720083

2010/08/09 22:55
KEDC 092255Z AUTO 19007KT 10SM CLR 35/20 A2986 RMK AO1

2010/08/09 22:55
KEOE 092255Z AUTO 07004KT 10SM CLR 33/20 A3001 RMK AO2

2010/08/09 22:55
KFMH 092255Z AUTO 24011G14KT 9SM CLR 25/21 A2994 RMK AO2

2010/08/09 22:55
KHYW 092255Z AUTO 14006KT 7SM SCT018 SCT025 SCT080 30/27 A2999 RMK AO2

2010/08/09 22:55
KIFP 092255Z AUTO 22010G16KT 10SM CLR 39/M02 A2975 RMK AO2

2010/08/09 22:55
KLLJ 092255Z AUTO 17006KT 10SM FEW085 15/11 A3006 RMK AO2 SLP137 P0001 T01500111 $

2010/08/09 22:55
KLQK 092255Z AUTO 10SM BKN055 BKN085 33/20 A2999 RMK AO2 T03340202 PNO

2010/08/09 22:55
KLRO 092255Z AUTO 12003KT 7SM FEW018 SCT023 BKN044 28/25 A2998 RMK AO2

2010/08/09 22:55
KLUX 092255Z AUTO 10003KT 10SM BKN120 28/27 A2999 RMK AO2

2010/08/09 22:54
PAHN 092254Z AUTO 10009G15KT 070V130 10SM SCT042 OVC060 15/11 A2995 RMK AO2 SLP143 T01500106 TSNO

2010/08/09 22:51
KSAD 092251Z AUTO 30007KT 10SM CLR 36/10 A2990 RMK AO2 SLP066 T03560100 TSNO

2010/08/09 22:54
KDMH 092254Z AUTO 32/20 A2995 RMK AO2 SLP141 T03170200 PWINO TSNO

2010/08/09 22:54
KWAL 092254Z AUTO 20009KT 10SM CLR 27/22 A3000 RMK AO2 SLP156 T02670217 TSNO

2010/08/09 22:54
KAVP 092254Z 23009KT 10SM CLR 31/16 A2994 RMK AO2 SLP126 T03060161 $

2010/08/09 22:54
KRIC 092254Z 19008KT 7SM FEW055 SCT250 32/18 A2997 RMK AO2 SLP151 T03220178 $

2010/08/09 22:54
KCOU 092254Z 16006KT 10SM FEW080 33/27 A2990 RMK AO2 SLP112 T03280267

2010/08/09 22:54
KNAK 092254Z AUTO 18012G19KT 9SM CLR 29/19 A2995 RMK AO2 SLP143 T02890189 TSNO

2010/08/09 22:54
KGSO 092254Z 17007KT 10SM FEW055 32/19 A3001 RMK AO2 SLP147 T03170189

2010/08/09 22:54
K12N 092254Z AUTO 00000KT 29/21 A2993 RMK AO2 SLP128 T02940206 PWINO TSNO

2010/08/09 22:54
KACY 092254Z 18009KT 10SM CLR 28/20 A2999 RMK AO2 SLP153 T02830200

2010/08/09 22:54
KCAR 092254Z AUTO 23004KT 10SM CLR 23/18 A2980 RMK AO2 SLP092 T02330178

2010/08/09 22:54
KFWA 092254Z 20003KT 9SM FEW090 BKN140 BKN250 29/24 A2994 RMK AO2 SLP134 T02940244

2010/08/09 22:53
KMWT 092253Z AUTO 00000KT 10SM CLR 36/21 A2989 RMK AO2 SLP107 T03560211 TSNO

2010/08/09 22:55
KMKG 092255Z 23010KT 10SM SCT015 SCT028 27/22 A2993 RMK AO2 SLP129 T02670222

2010/08/09 22:53
KMSN 092253Z 04004KT 10SM FEW036 31/23 A2991 RMK AO2 SLP120 T03060228

2010/08/09 22:55
KRNO 092255Z 25009G14KT 10SM SCT080 BKN090 31/02 A2993 RMK AO2 SLP081 TCU DSNT S T03060022

2010/08/09 22:54
KROA 092254Z 16008KT 10SM FEW080 31/19 A3002 RMK AO2 SLP151 T03060189

2010/08/09 22:53
KSAV 092253Z 09010KT 10SM FEW035TCU SCT110 BKN250 31/24 A2995 RMK AO2 SLP140 TCU N-E T03110239

2010/08/09 22:55
KSCK 092255Z 28006KT 10SM CLR 31/11 A2981 RMK AO2 SLP095 T03060111

2010/08/09 22:53
KTLH 092253Z 05007KT 10SM FEW060 34/20 A2990 RMK AO2 SLP125 CB DSNT E AND SE T03440200

2010/08/09 22:53
KTRI 092253Z 00000KT 10SM FEW050 SCT065 SCT250 33/17 A3001 RMK AO2 SLP143 T03330167

2010/08/09 22:53
KTYS 092253Z 09004KT 10SM FEW060 34/21 A2996 RMK AO2 SLP132 T03390206

2010/08/09 22:53
KLAX 092253Z 26011KT 10SM CLR 19/12 A2990 RMK AO2 SLP124 T01940122 $

2010/08/09 22:53
KBTR 092253Z 24004KT 8SM -RA FEW006 SCT039 BKN110 25/24 A2993 RMK AO2 TSE45RAB2158 SLP133 CB DSNT S-SW MOVG SW TS MOVD SW P0005 T02500244

2010/08/09 22:54
KBTV 092254Z 00000KT 10SM -RA FEW023 SCT047 BKN060 23/21 A2987 RMK AO2 RAB2157E10B49 SLP114 P0000 T02280206

2010/08/09 22:53
KCHA 092253Z 15004KT 10SM FEW060 BKN095 BKN120 BKN250 34/22 A2995 RMK AO2 SLP134 CB DSNT NW T03390217 $

2010/08/09 22:55
KCNK 092255Z AUTO 16012KT 10SM CLR 37/19 A2982 RMK AO2 LTG DSNT N AND NW SLP075 T03720189

2010/08/09 22:53
KDAB 092253Z 09009G14KT 10SM FEW023 SCT250 29/24 A2991 RMK AO2 SLP129 TCU DSNT W T02890239

2010/08/09 22:55
KDLH 092255Z 29006KT 10SM CLR 31/18 A2994 RMK AO2 SLP132 T03060183

2010/08/09 22:55
KGPI 092255Z 19005KT 10SM CLR 28/07 A2977 RMK AO2 SLP068 T02780067

2010/08/09 22:55
KIRK 092255Z AUTO 16003KT 10SM CLR 31/27 A2989 RMK AO2 SLP117 T03110267

2010/08/09 22:53
KLND 092253Z AUTO 20014G18KT 10SM CLR 29/02 A2994 RMK AO2 PK WND 19026/2241 WSHFT 2140 SLP065 T02940022

2010/08/09 22:53
KLXV 092253Z AUTO 19007KT 4SM -RA BR BKN036 BKN047 OVC055 13/12 A3038 RMK AO2 RAB34 SLP134 P0001 T01330117 TSNO

2010/08/09 22:54
KRFD 092254Z 30003KT 10SM FEW030 SCT070 30/22 A2993 RMK AO2 SLP129 T03000217 $

2010/08/09 22:52
KMWN 092252Z 26022KT 1/16SM FG VV000 13/13 RMK

2010/08/09 22:55
KDRA 092255Z AUTO 21016G26KT 10SM CLR 34/M07 A2991 RMK AO2 PK WND 22026/2253 SLP080 T03441072 TSNO

2010/08/09 22:54
KAKQ 092254Z AUTO 00000KT 7SM CLR 32/19 A2998 RMK AO2 SLP150 T03170194 TSNO

2010/08/09 22:55
KAST 092255Z AUTO 27007KT 10SM SCT014 OVC022 16/12 A3002 RMK AO2 SLP164 T01560122

2010/08/09 22:53
K4BM 092253Z AUTO 20006KT 10SM VCTS 11/08 A3051 RMK AO2 LTG DSNT NW THRU SE

2010/08/09 22:55
KDVK 092255Z AUTO 22005KT 10SM CLR 33/21 A2996 RMK AO1

2010/08/09 22:55
KLIC 092255Z AUTO 14008KT 10SM CLR 28/16 A3005 RMK AO2 LTG DSNT SE AND S TSE18 SLP094 T02780156

2010/08/09 22:53
KNQX 092253Z 23005KT 10SM SCT010 BKN020 BKN040 BKN140 27/24 A2988 RMK AO2 SLP116 T2 SET T02720244 $

2010/08/09 22:52
KNRB 092252Z 11009KT 10SM FEW025TCU SCT040 BKN150 BKN250 30/23 A2994 RMK AO2 SLP137 TCU N T2 SET T03000233

2010/08/09 22:55
KPOB 092255Z AUTO 11005KT 10SM CLR 32/22 A2998 RMK AO2 SLP150 T03240215 $

2010/08/09 22:55
KWRB 092255Z 02003KT 10SM CLR 34/24 A2994 RMK AO2A SLP137 T03410243

2010/08/09 22:55
KXMR 092255Z AUTO 13007KT 10SM CLR 29/24 A2991 RMK AO2 SLP128 T02880244

2010/08/09 22:55
PHHI 092255Z AUTO 08012G20KT 10SM BKN045 OVC055 26/16 A3012 RMK AO2 SLP186 T02620157 $

2010/08/09 22:55
KADW 092255Z AUTO 19010KT 10SM CLR 31/22 A2996 RMK AO2 SLP144 T03070215 $

2010/08/09 22:55
KAFF 092255Z AUTO VRB03KT 10SM FEW046 23/15 A3016 RMK AO2 LTG DSNT E SLP117 T02250147

2010/08/09 22:55
KDOV 092255Z AUTO 13006KT 10SM CLR 30/21 A2995 RMK AO2 SLP144 T02960210

2010/08/09 22:55
KDYS 092255Z AUTO 14008KT 10SM FEW075 36/17 A2987 RMK AO2 SLP088 T03560175 $

2010/08/09 22:55
KFAF 092255Z AUTO 15007KT 10SM CLR 30/21 A2998 RMK AO2 SLP152 T03010208 $

2010/08/09 22:55
KFBG 092255Z 12006KT 10SM CLR 32/20 A2998 RMK AO2A SLP149 T03230196 $

2010/08/09 22:55
KFCS 092255Z AUTO 18010KT 10SM BKN110 BKN130 24/15 A3012 RMK AO2 LTG DSNT SE SLP121 T02440148

2010/08/09 22:55
KFSI 092255Z AUTO 22010KT 10SM CLR 38/19 A2982 RMK AO2 SLP074 T03780186

2010/08/09 22:55
KHIF 092255Z AUTO 23011KT 10SM FEW140 27/05 A3002 RMK AO2 SLP053 T02710050

2010/08/09 22:55
KLHW 092255Z AUTO 11008KT 10SM FEW130 32/25 A2993 RMK AO2 SLP137 T03150247

2010/08/09 22:55
KLSF 092255Z AUTO 13006KT 10SM FEW070 35/21 A2993 RMK AO2 SLP132 T03550209 PNO $

2010/08/09 22:55
KMTC 092255Z 00000KT 7SM SCT045 BKN090 BKN130 26/22 A2993 RMK SLP138

2010/08/09 22:55
KMUI 092255Z AUTO 18004KT 10SM CLR 31/19 A2995 RMK AO2 SLP139 T03130194 $

2010/08/09 22:55
KMXF 092255Z AUTO 14006KT 10SM CLR 37/19 A2991 RMK AO2 SLP126 T03660191

2010/08/09 22:52
KNFW 092252Z 17010KT 10SM FEW070 38/18 A2987 RMK AO2 SLP101 T03830178

2010/08/09 22:55
KNKX 092255Z 31008KT 10SM FEW020 23/13 A2989 RMK AO2 SLP116 T02280133

2010/08/09 22:55
KCEF 092255Z AUTO 18006KT 10SM FEW120 31/18 A2989 RMK AO2 CLDS LWR RWY05 SLP121 T03140179 PWINO $

2010/08/09 22:55
KLRF 092255Z AUTO 09006KT 10SM CLR 36/26 A2988 RMK AO2 SLP116 T03590264

2010/08/09 22:55
KVBG 092255Z 30007KT 10SM FEW008 SCT014 16/12 A2993 RMK AO2 SLP127 WND ESTMD T01610117 VISNO RWY12 $

2010/08/09 22:55
KADW 092255Z AUTO 19010KT 10SM CLR 31/22 A2996 RMK AO2 SLP144 T03070215 $

2010/08/09 22:55
KDOV 092255Z AUTO 13006KT 10SM CLR 30/21 A2995 RMK AO2 SLP144 T02960210

2010/08/09 22:53
KNIP 092253Z 11012KT 10SM SCT030 SCT130 BKN250 31/23 A2993 RMK AO2 SLP130 T2 SET T03060233

2010/08/09 22:54
KNKT 092254Z 17007KT 10SM FEW019 SCT080 28/23 A3001 RMK AO2 SLP158 T02830233

2010/08/09 22:53
KNQX 092253Z 23005KT 10SM SCT010 BKN020 BKN040 BKN140 27/24 A2988 RMK AO2 SLP116 T2 SET T02720244 $

2010/08/09 22:52
KNRB 092252Z 11009KT 10SM FEW025TCU SCT040 BKN150 BKN250 30/23 A2994 RMK AO2 SLP137 TCU N T2 SET T03000233

2010/08/09 22:55
KPOB 092255Z AUTO 11005KT 10SM CLR 32/22 A2998 RMK AO2 SLP150 T03240215 $

2010/08/09 22:55
KSSC 092255Z 10005KT 10SM CLR 32/20 A2998 RMK AO2A SLP150 T03180205 $

2010/08/09 22:55
KNYL 092255Z 18005KT 10SM FEW080 40/03 A2971 RMK AO2 SLP056 T04000028

2010/08/09 22:55
KDLF 092255Z AUTO 12012G20KT 10SM SCT075 37/18 A2982 RMK AO2 SLP080 T03700177

2010/08/09 22:55
KFFO 092255Z 30003KT 10SM SCT150 32/21 A2995 RMK AO2A SLP136

2010/08/09 22:55
KFTK 092255Z AUTO 13004KT 10SM CLR 35/23 A2994 RMK AO2 SLP130 T03520231

2010/08/09 22:55
KLFI 092255Z 12007KT 10SM CLR 29/21 A2998 RMK AO2A SLP154 T02910207

2010/08/09 22:55
KLTS 092255Z AUTO 14013KT 10SM CLR 37/19 A2983 RMK AO2 SLP080 T03740191 $

2010/08/09 22:55
KMMT 092255Z 10003KT 10SM OVC250 31/23 A2999 RMK AO2A SLP153 T03110230

2010/08/09 22:55
KSSC 092255Z 10005KT 10SM CLR 32/20 A2998 RMK AO2A SLP150 T03180205 $

2010/08/09 22:55
KVAD 092255Z AUTO 09004KT 10SM CLR 32/24 A2992 RMK AO2 SLP130 T03200241 $

2010/08/09 22:56
KDUG 092256Z AUTO 24005KT 10SM CLR 33/14 A3001 RMK AO2 SLP087 T03280139

2010/08/09 22:56
KDUJ 092256Z AUTO 00000KT 10SM FEW110 26/17 A3002 RMK AO2 SLP152 T02610172

2010/08/09 22:56
KEAU 092256Z 36004KT 10SM CLR 32/21 A2990 RMK AO2 SLP116 T03220206

2010/08/09 22:56
KEED 092256Z AUTO 21011G16KT 10SM CLR 41/M05 A2976 RMK AO2 SLP043 T04061050 TSNO

2010/08/09 22:55
KEIK 092255Z AUTO 32005KT 7SM +RA SCT027 SCT039 OVC080 19/12 A3008 RMK AO2 LTG DSNT N NE AND S

2010/08/09 22:56
KEKO 092256Z AUTO 24008KT 10SM CLR 28/02 A2996 RMK AO2 RAE07 SLP083 P0001 T02780017

2010/08/09 22:56
KELZ 092256Z AUTO 27004KT 10SM OVC060 24/18 A3004 RMK AO2 SLP161 T02390183

2010/08/09 22:54
KEZS 092254Z AUTO 34005KT 10SM CLR 32/21 A2989 RMK AO2 T03230205

2010/08/09 22:56
KGON 092256Z 23007KT 10SM CLR 26/21 A2993 RMK AO2 SLP134 T02560206

2010/08/09 22:50
KGPM 092250Z 16008KT 10SM SCT120 37/20 A2986

2010/08/09 22:56
KGRD 092256Z AUTO 11003KT 10SM CLR 32/22 A2999 RMK AO2 SLP148 T03220217

2010/08/09 22:55
KHFJ 092255Z AUTO 21004KT 10SM CLR 36/24 A2988 RMK AO1

2010/08/09 22:56
KHND 092256Z AUTO 24010KT 220V280 10SM CLR 36/M05 A2987 RMK AO2 T03611050 SLP064

2010/08/09 22:56
KHPN 092256Z 18008G14KT 10SM CLR 28/16 A2994 RMK AO2 SLP131 T02780156

2010/08/09 22:55
KHVS 092255Z AUTO 00000KT 7SM CLR 31/22 A3000 RMK AO2

2010/08/09 22:56
KHWV 092256Z AUTO 21008KT 10SM CLR 27/18 A2996 RMK AO2 SLP143 T02720183

2010/08/09 22:56
KHYA 092256Z 21010KT 10SM CLR 26/21 A2992 RMK AO2 SLP132 T02610211

2010/08/09 22:56
KIGX 092256Z AUTO VRB03KT 10SM CLR 32/20 A3000 RMK AO2 SLP152 T03170200

2010/08/09 22:56
KISP 092256Z 22010KT 10SM FEW150 BKN250 27/17 A2994 RMK AO2 SLP136 T02720167

2010/08/09 22:56
KITH 092256Z 34011KT 6SM -RA BR BKN060 OVC085 22/20 A3000 RMK AO2 T02220200 RAB22 P0000 SLP152

2010/08/09 22:56
KJMS 092256Z AUTO 17009KT 10SM CLR 32/19 A2986 RMK AO2 SLP103 T03220194

2010/08/09 22:56
KJXN 092256Z 23003KT 10SM FEW038 26/22 A2995 RMK AO2 SLP136 T02560222 $

2010/08/09 22:56
KLAS 092256Z 16007G16KT 10SM CLR 36/M02 A2981 RMK AO2 SLP066 T03561022

2010/08/09 22:55
KLCK 092255Z AUTO 00000KT 10SM CLR 32/21 A2995 RMK AO2 T03160206

2010/08/09 22:56
KLNR 092256Z AUTO 00000KT 10SM FEW036 32/22 A2991 RMK AO2 SLP118 T03220222

2010/08/09 22:56
KM19 092256Z AUTO 17005KT 10SM CLR A2989 RMK AO2 SLPNO $

2010/08/09 22:55
KMAO 092255Z AUTO 15005KT 10SM CLR 30/24 A2998 RMK AO2

2010/08/09 22:56
KMDT 092256Z 20004KT 8SM SCT200 BKN250 32/21 A2993 RMK AO2 SLP132 T03220206

2010/08/09 22:55
KMKS 092255Z AUTO 12006KT 10SM SCT065 SCT075 BKN085 29/24 A2998 RMK AO2 TSNO

2010/08/09 22:56
KMQY 092256Z 27012KT 10SM TSRA FEW060 30/25 A2995 RMK AO2 OCNL LTG ICCCCG TS NW MOV SE T03000250 TSB33RAB33 P0000 SLP132 $

2010/08/09 22:56
KMRH 092256Z AUTO 21009KT 10SM BKN060 OVC080 28/24 A3001 RMK AO2 SLP164 T02830239 TSNO

2010/08/09 22:55
KMWO 092255Z AUTO 00000KT 10SM CLR 35/20 A2995 RMK AO2

2010/08/09 22:55
KNQA 092255Z COR 12003KT 10SM FEW050 SCT150 BKN250 31/26 A2991 RMK

2010/08/09 22:55
KO22 092255Z AUTO 17005KT 10SM CLR 31/08 A2992 RMK AO1

2010/08/09 22:56
PATG 092256Z AUTO 20020KT 5SM OVC008 10/09 A2949 RMK AO1 PNO

2010/08/09 22:56
PAUN 092256Z AUTO 10006KT 10SM OVC070 14/08 A2940 RMK AO1 PNO

2010/08/09 22:56
PAVD 092256Z 00000KT 4SM SCT002 BKN020 OVC045 12/10 A2984 RMK AO1 2247Z WEA

2010/08/09 22:56
PAWG 092256Z 00000KT 10SM FEW015 BKN035 BKN060 14/11 A3002 RMK AO1 WEA

2010/08/09 22:56
PAWN 092256Z AUTO 14005KT 10SM FEW048 BKN060 OVC085 18/09 A2946 RMK AO1 PNO

2010/08/09 22:56
PAWS 092256Z AUTO 00000KT 10SM OVC070 15/12 A2965 RMK AO1 PNO

2010/08/09 22:56
PAZK 092256Z AUTO 12010KT 10SM SCT055 BKN065 BKN110 15/03 A2968 RMK AO1 PNO

2010/08/09 22:56
PAAK 092256Z AUTO 27020G26KT 3SM OVC006 09/07 A2975 RMK AO1 PNO

2010/08/09 22:56
PABL 092256Z AUTO 14007KT 5SM SCT017 BKN033 OVC100 14/12 A2943 RMK AO1 PNO

2010/08/09 22:56
PABV 092256Z AUTO 00000KT 10SM OVC080 16/11 A2965 RMK AO1 PNO

2010/08/09 22:56
PACM 092256Z AUTO 15011G18KT 3SM RA BR SCT018 BKN028 OVC090 11/09 A2926 RMK AO2 TSNO T01110094 BKN V SCT P0002 SLP904 $

2010/08/09 22:52
PGRO 092252Z 33005KT 7SM FEW020 BKN150 27/27 A2994

2010/08/09 22:54
PAKN 092254Z 22008KT 10SM OVC021 13/10 A2959 RMK AO2 RAE00 SLP020 P0000 T01280100

2010/08/09 22:53
KRTN 092253Z AUTO 36011KT 10SM FEW080 24/15 A3014 RMK AO2 RAE2156B28E48 SLP113 P0000 T02440150 TSNO $

2010/08/09 22:55
KTTS 092255Z 13007KT 10SM FEW022 FEW210 29/25 A2991 RMK SLP129 2CU /2/ 1CI /2/

2010/08/09 22:55
KTTS 092255Z 13007KT 10SM FEW022 FEW210 29/25 A2991 RMK SLP129 2CU /2/ 1CI /2/

2010/08/09 22:50
TJPS 092250Z 00000KT 10SM -RA BKN030 BKN060 27/25 A2993 RMK RAB30

2010/08/09 22:53
K04W 092253Z AUTO 00000KT 10SM CLR 32/22 A2993 RMK AO2 T03200219

2010/08/09 22:55
K21D 092255Z AUTO 00000KT 10SM CLR 31/21 A2992 RMK AO2

2010/08/09 22:52
K5SM 092252Z AUTO 00000KT 10SM 15/11 A3048 RMK AO2

2010/08/09 22:54
K7BM 092254Z AUTO 00000KT 10SM SCT075 20/06 A3038 RMK AO2 LTG DSNT N AND NE

2010/08/09 22:58
KBDU 092258Z AUTO 18009G14KT 10SM -RA SCT070 OVC100 21/17 A3006 RMK AO2 LTG DSNT E THRU SW

2010/08/09 22:54
KBJI 092254Z AUTO 24005KT 10SM CLR 32/17 A2992 RMK AO2

2010/08/09 22:54
KC29 092254Z AUTO 00000KT 10SM CLR 31/21 A2992 RMK AO2 T03100214

2010/08/09 22:57
KCCU 092257Z AUTO 27013G16KT 10SM SCT023 SCT034 BKN044 12/07 A3054 RMK AO2 LTG DSNT NE

2010/08/09 22:53
KD39 092253Z AUTO 08005KT 10SM CLR 32/20 A2992 RMK AO2 T03230198

2010/08/09 22:55
KHFF 092255Z AUTO 17006KT 10SM CLR 32/21 A3000 RMK AO2 SLP154 T03240208 $

2010/08/09 22:54
KRKR 092254Z AUTO 24005KT 10SM CLR 39/23 A2986 RMK AO2

2010/08/09 22:55
KSME 092255Z AUTO 12004KT 10SM 33/24 A2996 RMK AO2

2010/08/09 22:53
KUNI 092253Z AUTO 00000KT 10SM CLR 33/14 A2997 RMK AO2

2010/08/09 22:50
KWYS 092250Z AUTO 16019G29KT 6SM HZ FEW040 SCT050 BKN060 14/09 A3013 RMK AO2 P0001

2010/08/09 22:55
KY51 092255Z AUTO 00000KT 10SM CLR 30/23 A2994 RMK AO1 T02970230

2010/08/09 22:54
KBOS 092254Z 20011KT 10SM FEW070 SCT090 SCT220 29/21 A2987 RMK AO2 SLP113 TCU DSNT NE T02940206

2010/08/09 22:54
KPHL 092254Z 20014KT 10SM FEW180 SCT250 31/19 A2995 RMK AO2 SLP141 T03110189

2010/08/09 22:55
KFMH 092255Z AUTO 24011G14KT 9SM CLR 25/21 A2994 RMK AO2

2010/08/09 22:56
KSDF 092256Z 17004KT 9SM FEW070 SCT150 SCT250 35/21 A2992 RMK AO2 SLP124 T03500206

2010/08/09 22:56
KSDF 092256Z 17004KT 9SM FEW070 SCT150 SCT250 35/21 A2992 RMK AO2 SLP124 T03500206

2010/08/09 22:55
K0A9 092255Z AUTO 00000KT 10SM CLR 30/22 A3002 RMK

2010/08/09 22:57
K14Y 092257Z AUTO 00000KT 10SM CLR 31/18 A2994 RMK AO2 T03080177

2010/08/09 22:56
K1M4 092256Z AUTO 00000KT 10SM FEW100 28/25 A3000 RMK AO2 T02830250 SLP155

2010/08/09 22:55
KAIG 092255Z AUTO 33008KT 10SM CLR 29/18 A2993 RMK AO2

2010/08/09 22:56
KAND 092256Z AUTO 23003KT 10SM BKN060 32/21 A2998 RMK AO2 SLP141 T03170211

2010/08/09 22:56
KART 092256Z AUTO 25008G16KT 2SM -RA BR SCT014 BKN024 BKN049 23/22 A2992 RMK AO2 LTG DSNT W SLP128 P0010 T02280217

2010/08/09 22:51
KARV 092251Z AUTO 34007KT 10SM CLR 29/17 A2996 RMK AO2 T02930168

2010/08/09 22:55
KARW 092255Z AUTO 10004KT 10SM BKN022 BKN027 BKN044 30/23 A2996 RMK AO2

2010/08/09 22:55
KBDN 092255Z AUTO 35010G16KT 050V020 10SM CLR 26/03 A2991 RMK AO2

2010/08/09 22:56
KBED 092256Z 20009KT 10SM SCT075 BKN090 32/17 A2986 RMK AO2 SLP122 T03170167

2010/08/09 22:56
KBJJ 092256Z AUTO 22004KT 8SM CLR 27/20 A2999 RMK AO2 SLP148 T02720200

2010/08/09 22:55
KBKN 092255Z AUTO 16013KT 10SM 38/19 A2981 RMK AO2

2010/08/09 22:55
KBUU 092255Z AUTO 29005KT 10SM CLR 28/22 A2991 RMK AO2 T02810221

2010/08/09 22:50
KBWP 092250Z AUTO 17006KT 10SM CLR 32/18 A2989 RMK AO1 T03170178

2010/08/09 22:56
KCEC 092256Z AUTO 22008KT 10SM OVC008 15/11 A2994 RMK AO2 SLP138 T01500106

2010/08/09 22:55
KCMY 092255Z AUTO 28005KT 10SM CLR 32/22 A2991 RMK AO2 T03170219

2010/08/09 22:56
KCTB 092256Z AUTO VRB04KT 10SM FEW080 27/06 A2983 RMK AO2 LTG DSNT E SLP074 T02670061 PWINO

2010/08/09 22:56
KCXY 092256Z 17007KT 8SM CLR 32/20 A2993 RMK AO2 SLP135 T03170200

2010/08/09 22:56
KDAY 092256Z 24003KT 9SM FEW200 SCT250 32/19 A2997 RMK AO2 SLP141 T03170189

2010/08/09 22:56
KDIK 092256Z AUTO 15013G20KT 10SM CLR 30/16 A2980 RMK AO2 PK WND 17026/2209 LTG DSNT SW-NW SLP072 T03000161

2010/08/09 22:55
KDLL 092255Z AUTO 00000KT 10SM OVC038 30/22 A2992 RMK AO2 T03040220

2010/08/09 22:55
MHSC 092255Z AUTO 05004KT 9999 FEW170 27/21 A2993 RMK AO2 SLP095 T02720211 $

2010/08/09 22:55
KFAF 092255Z AUTO 15007KT 10SM CLR 30/21 A2998 RMK AO2 SLP152 T03010208 $

2010/08/09 22:55
KFBG 092255Z 12006KT 10SM CLR 32/20 A2998 RMK AO2A SLP149 T03230196 $

2010/08/09 22:55
KGTB 092255Z AUTO 25007KT 10SM -DZ SCT017 BKN023 BKN028 23/21 A2993 RMK AO2 DZB2217 SLP135 P0000 T02330208

2010/08/09 22:55
KMXF 092255Z AUTO 14006KT 10SM CLR 37/19 A2991 RMK AO2 SLP126 T03660191

2010/08/09 22:54
KNFG 092254Z 24010KT 7SM CLR 22/13 A2988 RMK AO2 SLP116 T02170133

2010/08/09 22:53
KNQX 092253Z 23005KT 10SM SCT010 BKN020 BKN040 BKN140 27/24 A2988 RMK AO2 SLP116 T2 SET T02720244 $

2010/08/09 22:55
KBAB 092255Z VRB06KT 10SM CLR 30/15 A2981 RMK AO2A SLP094 T03040146

2010/08/09 22:55
KBIX 092255Z 21004KT 10SM FEW160 30/25 A2993 RMK AO2A SLPNO T02950250 $

2010/08/09 22:55
KEDW 092255Z 24009KT 80SM CLR 34/M04 A2984 RMK AO2A SLP055 T03431042

2010/08/09 22:55
KEND 092255Z 15014G20KT 10SM FEW080 FEW200 38/18 A2982 RMK AO2A SLP081 T03770185

2010/08/09 22:55
KFRI 092255Z AUTO 18014KT 10SM CLR 39/19 A2981 RMK AO2 SLP075 T03890193

2010/08/09 22:55
KMCF 092255Z AUTO 01007KT 10SM -RA FEW014 SCT035 28/27 A2986 RMK AO2 LTG DSNT NE RAB2249DZB2235E2249 TSE2201 SLP113 P0000 T02810268

2010/08/09 22:55
KPAM 092255Z AUTO 22006KT 10SM CLR 31/26 A2990 RMK AO2 SLP126 T03120259 $

2010/08/09 22:55
KSKA 092255Z AUTO 24006G19KT 200V290 10SM CLR 27/06 A2980 RMK AO2 SLP078 T02650057

2010/08/09 22:55
KSVN 092255Z 12006G15KT 11SM FEW026 BKN110 BKN140 31/25 A2994 RMK SLP141 WND DATA ESTMD ALSTG/SLP ESTMD

2010/08/09 22:55
KTBN 092255Z 11008KT 10SM FEW060 35/24 A2992 RMK AO2A SLP104 T03520237 $

2010/08/09 22:55
KTCM 092255Z AUTO 22004KT 10SM OVC030 19/13 A2998 RMK AO2 SLP152 T01850125

2010/08/09 22:55
KVOK 092255Z 29003KT 10SM FEW035 SCT200 32/25 A2990 RMK AO2A SLP119

2010/08/09 22:55
PAED 092255Z AUTO 34009KT 10SM OVC070 16/12 A2965 RMK AO2 SLP040 T01590123

2010/08/09 22:56
PMDY 092256Z AUTO 09013KT 10SM FEW023 28/22 A3025 RMK AO2 TSNO T02830216 SLP552

2010/08/09 22:55
KOZR 092255Z AUTO 07006KT 10SM CLR 34/22 A2992 RMK AO2 SLP129 T03420217 $

2010/08/09 22:55
KWRB 092255Z 02003KT 10SM CLR 34/24 A2994 RMK AO2A SLP137 T03410243

2010/08/09 22:55
PGUA 092255Z AUTO 00000KT 10SM SCT160 26/24 A2994 RMK AO2 SLP120 T02650242 $

2010/08/09 22:55
KBAB 092255Z VRB06KT 10SM CLR 30/15 A2981 RMK AO2A SLP094 T03040146

2010/08/09 22:55
KBIX 092255Z 21004KT 10SM FEW160 30/25 A2993 RMK AO2A SLPNO T02950250 $

2010/08/09 22:55
KCOF 092255Z 12009KT 10SM CLR 29/23 A2991 RMK AO2A SLP130 T02870233

2010/08/09 22:55
KDLF 092255Z AUTO 12012G20KT 10SM SCT075 37/18 A2982 RMK AO2 SLP080 T03700177

2010/08/09 22:55
KEDW 092255Z 24009KT 80SM CLR 34/M04 A2984 RMK AO2A SLP055 T03431042

2010/08/09 22:55
KEND 092255Z 15014G20KT 10SM FEW080 FEW200 38/18 A2982 RMK AO2A SLP081 T03770185

2010/08/09 22:55
KFFO 092255Z 30003KT 10SM SCT150 32/21 A2995 RMK AO2A SLP136

2010/08/09 22:55
KFRI 092255Z AUTO 18014KT 10SM CLR 39/19 A2981 RMK AO2 SLP075 T03890193

2010/08/09 22:55
KFTK 092255Z AUTO 13004KT 10SM CLR 35/23 A2994 RMK AO2 SLP130 T03520231

2010/08/09 22:55
KGRK 092255Z 13010KT 7SM FEW060 36/17 A2985 RMK SLP086

2010/08/09 22:55
KLFI 092255Z 12007KT 10SM CLR 29/21 A2998 RMK AO2A SLP154 T02910207

2010/08/09 22:55
KLTS 092255Z AUTO 14013KT 10SM CLR 37/19 A2983 RMK AO2 SLP080 T03740191 $

2010/08/09 22:55
KLUF 092255Z 00000KT 10SM CLR 38/09 A2978 RMK AO2A SLP056 T03810094 $

2010/08/09 22:55
KMCF 092255Z AUTO 01007KT 10SM -RA FEW014 SCT035 28/27 A2986 RMK AO2 LTG DSNT NE RAB2249DZB2235E2249 TSE2201 SLP113 P0000 T02810268

2010/08/09 22:55
KMIB 092255Z AUTO 14006KT 10SM FEW120 31/17 A2981 RMK AO2 SLP089 T03120174

2010/08/09 22:55
KMMT 092255Z 10003KT 10SM OVC250 31/23 A2999 RMK AO2A SLP153 T03110230

2010/08/09 22:55
KSVN 092255Z 12006G15KT 11SM FEW026 BKN110 BKN140 31/25 A2994 RMK SLP141 WND DATA ESTMD ALSTG/SLP ESTMD

2010/08/09 22:56
KNPA 092256Z 21006KT 10SM FEW040 BKN080 BKN140 BKN250 32/22 A2991 RMK AO2 SLP130 VCSH NW-N T2 SET T03170222

2010/08/09 22:56
KPRN 092256Z AUTO 11005KT 10SM CLR 34/21 A2993 RMK AO2 SLP129 T03440206 $

2010/08/09 22:56
KNDZ 092256Z AUTO 00000KT 10SM CLR 32/23 A2992 RMK AO2 SLP116 T03220228 PWINO $

2010/08/09 22:56
K79J 092256Z AUTO 15006KT 10SM CLR 35/20 A2991 RMK AO2 SLP124 T03500200 TSNO PNO $

2010/08/09 22:56
KAQV 092256Z AUTO VRB03KT 10SM SCT060 37/23 A2989 RMK AO2 SLP118 T03670228

2010/08/09 22:56
KNXP 092256Z 14011G19KT 7SM CLR 37/M07 A2988 RMK AO2 SLP080 T03671072 $

2010/08/09 22:56
KNFL 092256Z VRB06KT 10SM SCT070 33/M01 A2988 RMK AO2 SLP093 T03281006

2010/08/09 22:56
KNYG 092256Z 16009KT 8SM CLR 31/22 A2996 RMK AO2 SLP145 T03060222 $

2010/08/09 22:56
KNUW 092256Z 00000KT 10SM FEW006 BKN014 OVC030 16/13 A2998 RMK AO2 RAE40 SLP155 P0000 T01550134 $

2010/08/09 22:56
KNBT 092256Z AUTO 11005KT 10SM CLR 28/25 A3000 RMK AO2 RAB05E33 SLP163 P0000 T02830250 TSNO

2010/08/09 22:55
PACZ 092255Z AUTO 17007KT 130V190 7SM SCT011 BKN018 OVC024 11/09 A2922 RMK AO1 9 T01060089

2010/08/09 22:55
PALU 092255Z AUTO 07017G22KT 5SM 08/07 A2960 RMK AO1 T00830073

2010/08/09 22:55
PATC 092255Z AUTO 00000KT 1 1/4SM OVC004 11/10 A2939 RMK AO1 T01060101

2010/08/09 22:55
PAIM 092255Z AUTO 09005KT 10SM BKN010 OVC015 13/12 A2955 RMK AO1 T01280123

2010/08/09 22:55
PATL 092255Z AUTO 12006KT 10SM SCT013 BKN020 OVC060 12/11 A2954 RMK AO1 T01220112

2010/08/09 22:55
PASV 092255Z AUTO 18009KT 10SM BKN015 OVC040 10/08 A2958 RMK AO1 T01000084

2010/08/09 22:52
KNZY 092252Z 29009KT 10SM FEW019 24/13 A2988 RMK AO2 SLP117 T02390133 $

2010/08/09 23:02
KCPW 092302Z AUTO 23014G23KT 10SM SCT033 SCT040 BKN050 13/04 A3053 RMK AO2 LTG DSNT E AND SE

2010/08/09 22:56
KMOB 092256Z 16008KT 10SM FEW030 32/23 A2995 RMK AO2 SLP137 T03170233

2010/08/09 22:56
KABQ 092256Z VRB04KT 10SM SCT090CB BKN150 29/09 A3007 RMK AO2 RAB39E55 SLP087 CB NE MOV NE TCU SW P0000 T02940094

2010/08/09 22:55
KANJ 092255Z AUTO 16004KT 10SM SCT037 27/20 A2988 RMK AO2 SLP114 T02720200

2010/08/09 22:56
KJAX 092256Z 07008KT 10SM FEW037 SCT075 SCT130 BKN200 29/24 A2993 RMK AO2 SLP136 T02890244

2010/08/09 22:53
KDAB 092253Z 09009G14KT 10SM FEW023 SCT250 29/24 A2991 RMK AO2 SLP129 TCU DSNT W T02890239

2010/08/09 22:53
KSAV 092253Z 09010KT 10SM FEW035TCU SCT110 BKN250 31/24 A2995 RMK AO2 SLP140 TCU N-E T03110239

2010/08/09 22:54
KSYR 092254Z 31007KT 2 1/2SM RA BR BKN023 BKN060 OVC075 22/21 A2997 RMK AO2 VIS 1 1/2 NW SLP143 BKN V OVC P0019 T02220211

2010/08/09 22:55
KMBG 092255Z AUTO 15016KT 10SM FEW090 33/17 A2983 RMK AO2 SLP087 T03330167 TSNO

2010/08/09 22:55
KHON 092255Z AUTO 12008KT 10SM CLR 32/20 A2986 RMK AO2 SLP103 T03170200 TSNO

2010/08/09 22:55
KINL 092255Z AUTO 05004KT 10SM CLR 31/21 A2990 RMK AO2 SLP121 T03060211

2010/08/09 22:56
TJSJ 092256Z 09011KT 10SM FEW020 SCT040 BKN060 28/24 A2995 RMK AO2 SLP139 SHRA DSNT SE T02780244

2010/08/09 22:56
KSHV 092256Z 20004KT 10SM SCT070 36/21 A2987 RMK AO2 SLP112 T03560211

2010/08/09 22:55
KPHP 092255Z AUTO 17007KT 10SM CLR 31/15 A2988 RMK AO2 SLP096 T03110150 TSNO

2010/08/09 22:56
KCHS 092256Z 09007KT 10SM SCT017 BKN022 OVC075 28/26 A2998 RMK AO2 RAB19E54 SLP150 P0000 T02830261

2010/08/09 22:53
KRQE 092253Z AUTO 27008KT 10SM SCT120 24/08 A3022 RMK AO2 SLP124 T02390078 TSNO

2010/08/09 22:55
KAAT 092255Z AUTO 27013G23KT 10SM CLR 28/01 A2993 RMK AO2 SLP091 T02830006 TSNO

2010/08/09 22:56
KBZN 092256Z 08010KT 10SM FEW070 21/13 A2997 RMK AO2 RAB30E46 SLP120 P0000 T02110133

2010/08/09 22:55
KCLI 092255Z AUTO 32006KT 10SM CLR 33/19 A2988 RMK AO2

2010/08/09 22:56
KINW 092256Z AUTO 00000KT 10SM FEW065 BKN095 28/09 A3007 RMK AO2 RAB22E45 SLP112 P0002 T02830094

2010/08/09 22:56
KOFK 092256Z AUTO 09010KT 6SM HZ CLR 29/24 A2989 RMK AO2 SLP107 T02890244

2010/08/09 22:56
PADK 092256Z 29016G23KT 5SM SCT018 BKN025 OVC035 11/08 A2980 RMK AO1 PNO

2010/08/09 22:56
KSFO 092256Z 30018KT 10SM FEW009 18/11 A2988 RMK AO2 SLP120 T01830111

2010/08/09 22:55
KSMS 092255Z AUTO 00000KT 5SM HZ CLR 30/23 A3000 RMK AO2

2010/08/09 22:56
TJSJ 092256Z 09011KT 10SM FEW020 SCT040 BKN060 28/24 A2995 RMK AO2 SLP139 SHRA DSNT SE T02780244

2010/08/09 22:56
KGNR 092256Z AUTO 32005KT 22/18 A2988 RMK AO1 SLP115 T02220178

2010/08/09 22:56
KP53 092256Z AUTO 02007KT 24/22 A2991 RMK AO2 SLP126 T02440217 PWINO TSNO

2010/08/09 22:56
KCAE 092256Z 12007KT 10SM FEW090 BKN210 33/22 A2998 RMK AO2 SLP148 T03280217

2010/08/09 22:56
KSXT 092256Z AUTO VRB06G14KT 8SM CLR 22/11 A2999 RMK AO2 SLP116 T02170106 TSNO

2010/08/09 22:56
PAAK 092256Z AUTO 27020G26KT 3SM OVC006 09/07 A2975 RMK AO1 PNO

2010/08/09 22:56
PACM 092256Z AUTO 15011G18KT 3SM RA BR SCT018 BKN028 OVC090 11/09 A2926 RMK AO2 TSNO T01110094 BKN V SCT P0002 SLP904 $

2010/08/09 22:56
PAHP 092256Z AUTO 13011KT 10SM FEW009 SCT016 BKN032 11/08 A2921 RMK AO1 PNO TSNO

2010/08/09 22:55
KFMH 092255Z AUTO 24011G14KT 9SM CLR 25/21 A2994 RMK AO2

2010/08/09 22:56
KGFA 092256Z AUTO 18004KT 10SM CLR 29/06 A2978 RMK AO2 SLP084 T02890056

2010/08/09 22:56
PAEM 092256Z AUTO 13013G17KT 10SM FEW011 SCT019 BKN026 12/08 A2927 RMK AO1 PNO

2010/08/09 22:56
PAFE 092256Z AUTO 00000KT 10SM OVC027 14/11 A3003 RMK AO1 PNO

2010/08/09 22:56
PAFM 092256Z AUTO 12007KT 10SM SCT034 OVC043 14/11 A2952 RMK AO1 PNO

2010/08/09 22:56
PAGL 092256Z AUTO 12007KT 10SM FEW019 SCT029 BKN035 12/09 A2945 RMK AO1 PNO

2010/08/09 22:56
PAGM 092256Z AUTO 07014G21KT 10SM BKN048 OVC050 09/08 A2931 RMK AO1

2010/08/09 22:56
PAGS 092256Z AUTO 16003KT 10SM OVC039 16/11 A2997 RMK AO1 PNO

2010/08/09 22:56
PAHP 092256Z AUTO 13011KT 10SM FEW009 SCT016 BKN032 11/08 A2921 RMK AO1 PNO TSNO

2010/08/09 22:56
PAHY 092256Z AUTO 00000KT 10SM OVC018 14/12 A3002 RMK AO1 PNO

2010/08/09 22:56
PAII 092256Z AUTO 24007KT 10SM OVC027 12/09 A2966 RMK AO1 PNO

2010/08/09 22:56
PAIN 092256Z AUTO 17005KT 10SM OVC046 14/08 A2964 RMK AO1 PNO

2010/08/09 22:56
PAJC 092256Z AUTO 15003KT 10SM BKN005 OVC018 17/08 A2961 RMK AO1 PNO

2010/08/09 22:56
PAKK 092256Z AUTO 00000KT 10SM SCT041 BKN048 OVC060 13/11 A2939 RMK AO1 PNO

2010/08/09 22:56
PAKP 092256Z AUTO 03007KT 10SM BKN048 OVC050 10/08 A2958 RMK AO1

2010/08/09 22:56
PAMD 092256Z AUTO 17006KT 2SM OVC003 12/11 A2983 RMK AO1 PNO

2010/08/09 22:56
PAMH 092256Z RMK AO1 PNO

2010/08/09 22:56
PAMM 092256Z AUTO 22006KT 10SM OVC013 13/11 A3005 RMK AO1 PNO

2010/08/09 22:56
PAMY 092256Z 22011KT 10SM OVC017 12/08 A2921 RMK AO1

2010/08/09 22:56
PANI 092256Z AUTO 13008KT 10SM BKN046 OVC055 15/09 A2942 RMK AO1 PNO

2010/08/09 22:56
PANV 092256Z AUTO 10006KT 10SM BKN006 OVC012 12/11 A2941 RMK AO1 PNO

2010/08/09 22:56
PAOU 092256Z AUTO 00000KT 8SM BKN036 12/08 A2957 RMK AO2 PWINO TSNO T01220083 SLP017 $

2010/08/09 22:56
PAPG 092256Z 01003KT 10SM FEW007 BKN028 OVC045 14/12 A3001 RMK AO1 WEA

2010/08/09 22:56
PARC 092256Z AUTO 36007KT 10SM BKN100 16/06 A2960 RMK AO1 PNO

2010/08/09 22:56
PASA 092256Z AUTO 09011KT 10SM BKN042 OVC065 11/07 A2933 RMK AO1 PNO

2010/08/09 22:56
PASD 092256Z 19021G30KT 9SM SCT013 BKN016 OVC024 11/08 A2965 RMK AO1 WEA

2010/08/09 22:56
PASH 092256Z AUTO 09009KT 10SM BKN080 OVC095 16/12 A2941 RMK AO1 PNO

2010/08/09 22:56
PASK 092256Z AUTO 09014KT 10SM OVC043 14/11 A2945 RMK AO1 PNO

2010/08/09 22:56
PASL 092256Z AUTO 16006G14KT 10SM FEW022 BKN029 OVC070 13/09 A2955 RMK AO1 PNO

2010/08/09 22:56
PASM 092256Z AUTO 14012G20KT 5SM SCT008 BKN014 OVC021 10/08 A2933 RMK AO1 PNO

2010/08/09 22:56
PASX 092256Z AUTO 27011KT 10SM OVC080 16/10 A2967 RMK AO1 PNO

2010/08/09 22:56
KOWB 092256Z 19004KT 10SM FEW095 38/24 A2991 RMK AO2 T03770238 SLP123

2010/08/09 22:52
KPVB 092252Z AUTO 00000KT 10SM BKN036 BKN045 31/22 A2993 RMK AO1 T03050222

2010/08/09 22:55
KPVF 092255Z AUTO 21005KT 10SM CLR 28/08 A2995 RMK AO1

2010/08/09 22:55
KRCE 092255Z AUTO 15012KT 10SM CLR 35/20 A2987 RMK AO2

2010/08/09 22:56
KRDM 092256Z 30007G15KT 260V340 10SM CLR 28/03 A2987 RMK AO2 SLP093 T02780028

2010/08/09 22:53
KRZN 092253Z AUTO 00000KT 10SM CLR 31/19 A2993 RMK AO2 T03100194

2010/08/09 22:53
KSBD 092253Z 27010G15KT 07SM SKC 31/05 A2986

2010/08/09 22:56
KSBP 092256Z AUTO 32011KT 10SM CLR 22/12 A2990 RMK AO2 SLP123 T02170122 TSNO $

2010/08/09 22:56
KSGH 092256Z AUTO 15005KT 5SM HZ CLR 30/24 A2998 RMK AO2 T03000244 RAB2157E40 P0000 SLP144 $

2010/08/09 22:58
KSGJ 092258Z 12012KT 10SM CLR 29/24 A2993 RMK AO2 SLP136 T02940239

2010/08/09 22:56
KSLE 092256Z 04008KT 10SM SCT042 22/10 A2996 RMK AO2 SLP145 T02220100

2010/08/09 22:56
KSRC 092256Z AUTO 00000KT 10SM CLR 36/24 A2988 RMK AO2 TSNO T03550238 SLP120

2010/08/09 22:53
KSUN 092253Z 28009KT 20SM BKN110 14/12 A3008

2010/08/09 22:56
KTPH 092256Z AUTO VRB06G25KT 10SM CLR 27/M06 A3003 RMK AO2 SLP096 T02721061

2010/08/09 22:55
KTTS 092255Z 13007KT 10SM FEW022 FEW210 29/25 A2991 RMK SLP129 2CU /2/ 1CI /2/

2010/08/09 22:56
KUKI 092256Z AUTO VRB05KT 10SM CLR 33/11 A2981 RMK AO2 SLP088 T03280111

2010/08/09 22:53
KVES 092253Z AUTO 00000KT 10SM CLR 30/22 A2995 RMK AO2 T02970224

2010/08/09 22:56
KWJF 092256Z 25015G19KT 10SM CLR 33/01 A2987 RMK AO2 SLP097 T03280011

2010/08/09 22:55
KY63 092255Z AUTO 12003KT 10SM CLR 31/18 A2991 RMK AO2 T03100183

2010/08/09 22:54
KMTP 092254Z AUTO 21009G15KT 24/21 A2995 RMK AO2 SLP143 T02440211 PWINO TSNO

2010/08/09 23:00
KVTP 092300Z AUTO 07005KT 10SM TS CLR 14/11 A3043 RMK AO2 LTG DSNT N NE AND S

2010/08/09 22:50
EBAW 092250Z AUTO 19005KT CAVOK 19/12 Q1015

2010/08/09 22:50
EBBR 092250Z 25005KT CAVOK 16/12 Q1015 NOSIG

2010/08/09 22:50
EBCI 092250Z 20004KT CAVOK 17/11 Q1016 NOSIG

2010/08/09 22:50
EBLG 092250Z 14007KT CAVOK 17/11 Q1016 NOSIG

2010/08/09 22:50
EBOS 092250Z 20005KT 9999 SCT016 13/10 Q1015 NOSIG

2010/08/09 22:50
ELLX 092250Z 00000KT CAVOK 18/12 Q1017 NOSIG

2010/08/09 22:56
KHLR 092256Z AUTO 11013G21KT 080V160 10SM FEW070 38/18 A2986 RMK AO2 SLP101 T03780183 $ 

2010/08/09 22:56
KNGP 092256Z 13011KT 10SM FEW018 SCT040 SCT250 31/26 A2986 RMK AO2 SLP111 T03110261 

2010/08/09 22:56
KINS 092256Z 10014G21KT 10SM CLR 33/01 A2989 RMK AO2 SLP071 T03330011 

2010/08/09 22:56
KNQI 092256Z 12012KT 10SM FEW030CB SCT140 SCT280 35/25 A2984 RMK AO2 SLP102 CB DSNT SW TCU DSNT E T03450245 $ 

2010/08/09 22:56
KNUQ 092256Z 33010KT 10SM CLR 22/13 A2988 RMK AO2 SLP120 T02170133 

2010/08/09 22:56
KP28 092256Z AUTO 16011G19KT 38/17 A2981 RMK AO2 SLP071 T03830167 PWINO TSNO 

2010/08/09 22:56
KNFE 092256Z AUTO 10007KT 330V150 2SM HZ CLR 28/22 A2999 RMK AO2 PK WND 33028/2256 SLP157 T02830217 $ 

2010/08/09 22:56
KNTU 092256Z 11006KT 10SM FEW200 27/23 A2998 RMK AO2 SLP156 T02720228 $ 

2010/08/09 22:56
KCDJ 092256Z AUTO 00000KT 36/27 A2986 RMK AO2 SLP090 T03560272 PWINO TSNO 

2010/08/09 22:56
KNCA 092256Z 00000KT 10SM 29/24 A3001 RMK AO2 SLP162 T02940239 $ 

2010/08/09 22:50
LOWG 092250Z AUTO 00000KT 9999 NCD 17/16 Q1018

2010/08/09 22:50
LOWI 092250Z AUTO 27003KT 9999 NCD 15/13 Q1019

2010/08/09 22:50
LOWK 092250Z AUTO VRB01KT 9999 FEW050 17/15 Q1018

2010/08/09 22:50
LOWL 092250Z AUTO 33003KT 9999 NCD 15/14 Q1018

2010/08/09 22:50
LOWS 092250Z AUTO 19002KT 9999 NCD 14/12 Q1018

2010/08/09 22:50
LOWW 092250Z 19004KT CAVOK 16/14 Q1017 NOSIG

2010/08/09 22:50
LGAD 092250Z 00000KT CAVOK 22/19 Q1011

2010/08/09 22:50
LGAL 092250Z 02010KT CAVOK 29/19 Q1010

2010/08/09 22:50
LGAV 092250Z 30004KT CAVOK 25/17 Q1010 NOSIG

2010/08/09 22:50
LGEL 092250Z VRB03KT CAVOK 28/17 Q1009

2010/08/09 22:50
LGIR 092250Z 30011KT 9999 FEW018 27/24 Q1008 NOSIG

2010/08/09 22:50
LGKO 092250Z 36008KT CAVOK 28/22 Q1005

2010/08/09 22:50
LGKR 092250Z 00000KT CAVOK 24/19 Q1009 NOSIG

2010/08/09 22:50
LGKV 092250Z 00000KT 9999 FEW030 25/21 Q1010

2010/08/09 22:50
LGMT 092250Z /////KT CAVOK 28/22 Q1008

2010/08/09 22:50
LGRP 092250Z 24004KT 9999 FEW018 28/24 Q1004 NOSIG

2010/08/09 22:50
LGSA 092250Z 30004KT 9999 FEW020 25/22 Q1009

2010/08/09 22:50
LGTS 092250Z 36008KT CAVOK 28/15 Q1011 NOSIG

2010/08/09 22:50
LGPZ 092250Z 00000KT 9999 FEW015 25/22 Q1012 NOSIG

2010/08/09 22:50
LGRX 092250Z 00000KT CAVOK 24/20 Q1009 NOSIG

2010/08/09 22:45
LIBR 092245Z 33011KT CAVOK 24/20 Q1014 NOSIG

2010/08/09 22:45
LIEE 092245Z 31005KT 9999 FEW020 24/08 Q1016 NOSIG

2010/08/09 22:50
LIBD 092250Z 26005KT CAVOK 20/15 Q1014

2010/08/09 22:50
LICC 092250Z 28004KT CAVOK 24/20 Q1015

2010/08/09 22:50
LICJ 092250Z VRB03KT CAVOK 24/17 Q1016

2010/08/09 22:50
LIEA 092250Z 05003KT 030V090 CAVOK 17/11 Q1017

2010/08/09 22:50
LIEO 092250Z 20003KT CAVOK 22/17 Q1016

2010/08/09 22:50
LIMC 092250Z VRB01KT CAVOK 19/16 Q1016 NOSIG

2010/08/09 22:50
LIME 092250Z 01006KT CAVOK 20/17 Q1016

2010/08/09 22:50
LIMF 092250Z VRB01KT 9999 SCT120 22/17 1016

2010/08/09 22:50
LIMJ 092250Z 06006KT 9999 FEW020 24/20 Q1016

2010/08/09 22:50
LIML 092250Z VRB03KT CAVOK 23/17 Q1015 NOSIG

2010/08/09 22:45
LIPH 092245Z 01001KT 9999 SCT080 23/19 Q1015

2010/08/09 22:45
LIPR 092245Z 20002KT CAVOK 22/22 Q1014

2010/08/09 22:45
LIPX 092245Z 04005KT 9999 FEW040 23/23 Q1015

2010/08/09 22:45
LIRA 092245Z 08002KT CAVOK 22/16 Q1015

2010/08/09 22:45
LIRP 092245Z 10002KT 9999 FEW015 SCT025 21/21 Q1015 NOSIG

2010/08/09 22:50
LIPE 092250Z 21006KT CAVOK 23/18 Q1014

2010/08/09 22:50
LIPQ 092250Z VRB01KT CAVOK 20/17 Q1015

2010/08/09 22:50
LIPZ 092250Z VRB01KT 9999 FEW060 21/17 Q1015

2010/08/09 22:50
LIRF 092250Z 29003KT CAVOK 18/17 Q1015 NOSIG

2010/08/09 22:50
LIRQ 092250Z 21004KT CAVOK 22/19 Q1016

2010/08/09 22:50
LIMC 092250Z VRB01KT CAVOK 19/16 Q1016 NOSIG

2010/08/09 22:45
LIPX 092245Z 04005KT 9999 FEW040 23/23 Q1015

2010/08/09 22:50
LCRA 092250Z 36002KT 9000 HZ SKC 26/24 Q1004

2010/08/09 22:51
MMTM 092251Z 09010KT 8SM FEW010 BKN200 31/26 A2984 RMK 8/108

2010/08/09 22:45
MMTP 092245Z 00000KT 10SM BKN020TCU BKN300 27/24 A2985 RMK 8/206

2010/08/09 22:49
MMVR 092249Z 03010KT 7SM FEW015TCU SCT220 33/25 A2983 RMK 8/208 HZY ISOL CUFRA

2010/08/09 22:47
MMTC 092247Z 01008KT 15SM FEW040 SCT110 SCT220 34/12 A2993 RMK 8/572 CB DST N W

2010/08/09 22:45
MMTO 092245Z 16005KT 5SM -RATS SCT015CB BKN060 BKN200 16/13 A3029 RMK 60185 8/963 -RA INTMT

2010/08/09 22:45
MMZH 092245Z 20010KT 7SM SCT020CB SCT100 BKN250 31/25 A2976 RMK 8/963

2010/08/09 22:52
MMRX 092252Z 11008KT 10SM SCT040TCU 36/26 A2983 RMK 8/200 HZY DSNT CB N

2010/08/09 22:55
EHAM 092255Z 19005KT CAVOK 16/12 Q1014 NOSIG

2010/08/09 22:55
EHBK 092255Z AUTO 16005KT 9999NDV NSC 17/11 Q1016

2010/08/09 22:55
EHDL 092255Z AUTO 11003KT 9999NDV NCD 14/12 Q1015 BLU

2010/08/09 22:55
EHEH 092255Z AUTO 15005KT 9999NDV FEW068 16/12 Q1015 BLU

2010/08/09 22:55
EHGR 092255Z AUTO 16005KT 9999NDV BKN049 BKN055 BKN063 16/12 Q1014 BLU

2010/08/09 22:55
EHLW 092255Z AUTO 15007KT 9999NDV FEW057 17/12 Q1014 BLU

2010/08/09 22:55
EHVK 092255Z AUTO 12002KT 9999NDV SCT066 14/12 Q1015 BLU

2010/08/09 22:55
EHVL 092255Z AUTO 15017KT 9999NDV BKN045 OVC050 19/14 Q1013 BLU

2010/08/09 22:55
EHWO 092255Z AUTO 23001KT 8000NDV BR NCD 15/13 Q1014 BLU

2010/08/09 22:50
ESGG 092250Z 24007KT 9999 FEW024 OVC030 14/11 Q1013

2010/08/09 22:50
ESGJ 092250Z 24009KT 9999 BKN026 BKN032 14/12 Q1012

2010/08/09 22:50
ESGP 092250Z 25010KT 9999 FEW024 OVC035 16/12 Q1012

2010/08/09 22:50
ESMS 092250Z 23004KT 9999 OVC038 12/11 Q1016

2010/08/09 22:50
ESMX 092250Z 23006KT 9999 OVC032 14/13 Q1014

2010/08/09 22:50
EGNT 092250Z 23003KT 9999 FEW030 11/08 Q1008

2010/08/09 22:50
EGDL 092250Z 20010KT 9999 OVC008 17/15 Q1012 GRN TEMPO BKN006 YLO1

2010/08/09 22:50
EGDL 092250Z 20010KT 9999 OVC008 17/15 Q1012 TEMPO BKN006

2010/08/09 22:50
EGDM 092250Z 21013KT 9999 SCT005 OVC008 17/15 Q1013 YLO1

2010/08/09 22:50
EGNT 092250Z 23003KT 9999 FEW030 11/08 Q1008

2010/08/09 22:50
EGOV 092250Z 23006KT 9999 FEW040 BKN050 15/14 Q1009 BLU NOSIG

2010/08/09 22:50
EGQK 092250Z 19002KT 9999 -RA FEW018 BKN046 13/12 Q1005 BLU NOSIG

2010/08/09 22:50
EGQL 092250Z 28004KT 9999 FEW030 11/09 Q1006 BLU

2010/08/09 22:50
EGQS 092250Z 24004KT 0600 BCFG BKN040 11/11 Q1005 RED

2010/08/09 22:45
MMOX 092245Z 12007KT 12SM SCTO3OCB BKN100 BKN200 27/16 A3004 RMK 8/968 DSNT CB SE S SW STN

2010/08/09 22:45
MMQT 092245Z 07010KT 6SM BKN020TCU BKN250 27/14 A3013 RMK 8/202 HZY

2010/08/09 22:56
K8D3 092256Z AUTO 11006KT 31/20 A2989 RMK AO2 SLP105 T03060200 PWINO TSNO 

2010/08/09 22:56
K2WX 092256Z AUTO 15008KT 31/16 A2977 RMK AO1 PK WND 16026/2208 SLP053 P0005 T03110156 

2010/08/09 22:56
KGNA 092256Z AUTO 25006KT 18/16 A2988 RMK AO2 SLP112 T01830161 PWINO TSNO 

2010/08/09 22:56
KFSD 092256Z 13011KT 10SM SCT032 SCT045 28/24 A2989 RMK AO2 SLP113 T02830239 

2010/08/09 22:56
KABH 092256Z AUTO 18006KT 10SM TS FEW065 SCT110 24/14 A3012 RMK AO2 TSB05E44B53 SLP119 T02390144 $ 

2010/08/09 22:56
PHBK 092256Z AUTO A3009 RMK AO2 SLP193 PWINO FZRANO TSNO $ 

2010/08/09 22:56
KMHS 092256Z AUTO 00000KT 10SM CLR 28/06 A2993 RMK AO2 SLP122 T02830061 TSNO 

2010/08/09 22:53
KRNM 092253Z 27010KT 10SM CLR 27/12 A2989 RMK AO2 SLP110 T02670122 

2010/08/09 22:56
KNLC 092256Z VRB03KT 10SM CLR 33/12 A2979 RMK AO2 SLP087 RH/27 T03330117 

2010/08/09 22:50
EGVN 092250Z 20008KT 9999 SCT014 SCT026 BKN080 18/15 Q1011 NOSIG

2010/08/09 22:50
ESTL 092250Z AUTO 22006KT 9999NDV OVC043/// 15/11 Q1015

2010/08/09 22:50
EFET 092250Z AUTO 03006KT 360V060 9999 OVC037 10/08 Q1012

2010/08/09 22:50
EFIV 092250Z AUTO 02010KT 9999 OVC008 10/09 Q1012

2010/08/09 22:50
EFKE 092250Z AUTO 36009KT 9999 OVC010 14/12 Q1009

2010/08/09 22:50
EFKI 092250Z AUTO 18004KT 130V220 //// FEW029 SCT072 18/17 Q1009

2010/08/09 22:50
EFKS 092250Z AUTO 28002KT 9999 OVC008 17/16 Q1008

2010/08/09 22:50
EFKT 092250Z AUTO 01005KT 330V050 9999 OVC011 11/09 Q1012

2010/08/09 22:50
ESMK 092250Z AUTO 22005KT 9999NDV NCD 12/11 Q1015

2010/08/09 22:50
HLLB 092250Z 32010KT 9999 SCT020 24/19 Q1013

2010/08/09 22:55
EHAM 092255Z 19005KT CAVOK 16/12 Q1014 NOSIG

2010/08/09 22:55
EHBK 092255Z AUTO 16005KT 9999NDV NSC 17/11 Q1016

2010/08/09 22:55
EHGG 092255Z AUTO 12004KT 080V160 9999NDV NCD 15/13 Q1015

2010/08/09 22:55
EHRD 092255Z 24004KT 9999 FEW046 15/13 Q1014 NOSIG

2010/08/09 22:50
LSMA 092250Z AUTO 22003KT 9999NDV FEW048 16/14 Q1018 RMK BLU

2010/08/09 22:50
LSMM 092250Z AUTO VRB02KT 9999NDV FEW064 17/14 Q1018 RMK BLU

2010/08/09 22:50
LSMP 092250Z AUTO 24003KT 9999NDV SCT067 SCT093 17/14 Q1018 RMK BLU

2010/08/09 23:00
SBCG 092300Z 25003KT CAVOK 23/06 Q1017

2010/08/09 22:50
EBAW 092250Z AUTO 19005KT CAVOK 19/12 Q1015

2010/08/09 22:50
EBBR 092250Z 25005KT CAVOK 16/12 Q1015 NOSIG

2010/08/09 22:50
EBCI 092250Z 20004KT CAVOK 17/11 Q1016 NOSIG

2010/08/09 22:50
EBLG 092250Z 14007KT CAVOK 17/11 Q1016 NOSIG

2010/08/09 22:50
EBOS 092250Z 20005KT 9999 SCT016 13/10 Q1015 NOSIG

2010/08/09 22:50
EDFH 092250Z 19005KT CAVOK 16/10 Q1017

2010/08/09 22:50
EDQM 092250Z AUTO 00000KT 5000NDV NCD 12/10 Q1019

2010/08/09 22:50
EDVK 092250Z VRB01KT CAVOK 13/10 Q1017

2010/08/09 22:55
EHAM 092255Z 19005KT CAVOK 16/12 Q1014 NOSIG

2010/08/09 22:55
EHBK 092255Z AUTO 16005KT 9999NDV NSC 17/11 Q1016

2010/08/09 22:55
EHDL 092255Z AUTO 11003KT 9999NDV NCD 14/12 Q1015 BLU

2010/08/09 22:55
EHEH 092255Z AUTO 15005KT 9999NDV FEW068 16/12 Q1015 BLU

2010/08/09 22:55
EHGG 092255Z AUTO 12004KT 080V160 9999NDV NCD 15/13 Q1015

2010/08/09 22:55
EHGR 092255Z AUTO 16005KT 9999NDV BKN049 BKN055 BKN063 16/12 Q1014 BLU

2010/08/09 22:55
EHLW 092255Z AUTO 15007KT 9999NDV FEW057 17/12 Q1014 BLU

2010/08/09 22:55
EHRD 092255Z 24004KT 9999 FEW046 15/13 Q1014 NOSIG

2010/08/09 22:55
EHVK 092255Z AUTO 12002KT 9999NDV SCT066 14/12 Q1015 BLU

2010/08/09 22:55
EHVL 092255Z AUTO 15017KT 9999NDV BKN045 OVC050 19/14 Q1013 BLU

2010/08/09 22:55
EHWO 092255Z AUTO 23001KT 8000NDV BR NCD 15/13 Q1014 BLU

2010/08/09 22:50
ELLX 092250Z 00000KT CAVOK 18/12 Q1017 NOSIG

2010/08/09 22:55
ETAR 092255Z AUTO 00000KT 9999 FEW090 13/13 A3004 RMK AO2 SLP169 T01320131 402400102 $

2010/08/09 22:55
ETEB 092255Z AUTO 00000KT 9999 BKN075 15/14 A3008 RMK AO2 SLP174 T01520138 402170122

2010/08/09 22:56
ETIC 092256Z AUTO 00000KT 9999 CLR 11/11 A3007 RMK AO2 SLP178 T01120112 402200109

2010/08/09 22:55
ETOU 092255Z AUTO 00000KT 9999 BKN085 15/13 A3004 RMK AO2 SLP171 T01510128

2010/08/09 22:55
KQAE 092255Z 36004KT 9000 HZ CLR 34/09 A2954 RMK SLP999

2010/08/09 22:55
KQBL 092255Z AUTO VRB03KT 10SM CLR 32/24 A2994 RMK AO2 SLP137 T03240237

2010/08/09 22:55
KQBS 092255Z 31009KT 9999 BKN200 34/07 A2942 RMK SLP969 WND/ALSTG/SLP/QNH ESTMD QNH996

2010/08/09 22:55
KQC3 092255Z AUTO 19004KT 9999 OVC170 18/17 A3003 RMK AO2 SLP055 T01770165 PNO $

2010/08/09 22:55
KQGV 092255Z 31012G15KT 9999 SCT180 37/M03 A2948 RMK SLP969

2010/08/09 22:55
KQIU 092255Z AUTO 31002KT 9999 BKN190 18/16 A3005 RMK AO2 SLP088

2010/08/09 22:55
KQL5 092255Z 19002KT 9999 BKN080 BKN220 28/23 A2961 RMK AO2A LTG DSNT N SLP988 WND DATA ESTMD ALSTG/SLP ESTMD

2010/08/09 22:55
KQON 092255Z AUTO 26006KT 9999 CLR 29/06 A2961 RMK AO2 SLP009 T02940055

2010/08/09 22:55
KQRH 092255Z AUTO 24002KT 9999 BKN220 33/20 A2965 RMK AO2 LTG DSNT SW SLP038

2010/08/09 22:55
KQSA 092255Z 36001KT 9999 FEW130 BKN150 24/18 A2987 RMK SLP289 WND DATA ESTMD ALSTG/SLP ESTMD

2010/08/09 22:55
KQTX 092255Z 05003KT 9999 CLR 33/00 A2960 RMK SLP992

2010/08/09 22:55
KQWM 092255Z 31012KT 9999 SCT140 BKN230 37/M01 A2950 RMK SLP974 QNH999

2010/08/09 22:56
KSPD 092256Z AUTO 22008KT 31/14 A2997 RMK AO2 SLP079 T03110139 PWINO TSNO 

2010/08/09 22:56
KD07 092256Z AUTO 15017KT 31/17 A2987 RMK AO2 SLP098 T03060167 PWINO TSNO 

2010/08/09 22:55
CWCL 092255Z AUTO 05004KT 9SM OVC023 13/08 A2995

2010/08/09 22:52
CYCX 092252Z 33002KT 8SM BKN042 BKN250 RMK SC5CI2

2010/08/09 22:52
CYDC 092252Z CCA 27006KT 15SM -SHRA BKN050 OVC080 RMK SC5AC3 TCU EMBD

2010/08/09 22:52
CYDC 092252Z 27006KT 15SM -SHRA BKN050 OVC080 RMK SC5AC3

2010/08/09 22:55
CYSN 092255Z 22010KT 7SM -SHRA SCT012 OVC120 RMK SF3AC5

2010/08/09 22:55
CYYC 092255Z 12008KT 40SM -TSRA SCT060CB BKN100 BKN220 22/ RMK CB3AC4CI1

2010/08/09 22:53
CYYR 092253Z 28009KT 15SM -SHRA FEW046 SCT068 BKN098 BKN250 RMK CU2AC2AC1CI0

2010/08/09 22:53
RJNH 092253Z 07004KT 9999 FEW020 SCT060 BKN210 27/24 Q1015 RMK 1CU020 4SC060 A3000

2010/08/09 22:46
RJSH 092246Z 26003KT 230V310 3200 BR FEW001 BKN003 25/23 Q1014 RMK 2ST001 6ST003 A2996

2010/08/09 22:51
RJTY 092251Z AUTO 00000KT 2800 -RA BR SCT008 OVC015 24/24 A3007 RMK AO2 RAB2244 CIG 009 RWY18 SLP177

2010/08/09 22:54
RJTY 092254Z AUTO 00000KT 3200 -RA BR SCT010 OVC015 24/24 A3007 RMK AO2 RAB2244 CIG 009 RWY18 SLP177

2010/08/09 22:55
YBCS 092255Z 11007KT 3000 -SHRA FEW003 BKN018 BKN030 23/22 Q1016

2010/08/09 22:50
EFKI 092250Z AUTO 18004KT 130V220 //// FEW029 SCT072 18/17 Q1009

2010/08/09 22:55
KCOF 092255Z 12009KT 10SM CLR 29/23 A2991 RMK AO2A SLP130 T02870233

2010/08/09 22:55
KFHU 092255Z VRB04KT 50SM SCT050CB 31/15 A3006 RMK CB DSNT NE SLP108 SH DSNT NE

2010/08/09 22:55
KGRK 092255Z 13010KT 7SM FEW060 36/17 A2985 RMK SLP086

2010/08/09 22:55
KLSV 092255Z AUTO 07004KT 10SM CLR 36/00 A2983 RMK AO2 SLP084 T03580000 PWINO

2010/08/09 22:55
KLUF 092255Z 00000KT 10SM CLR 38/09 A2978 RMK AO2A SLP056 T03810094 $

2010/08/09 22:55
KMIB 092255Z AUTO 14006KT 10SM FEW120 31/17 A2981 RMK AO2 SLP089 T03120174

2010/08/09 22:55
KNUC 092255Z 23007KT 10SM FEW012 20/13 A2992 RMK SLP128 T02020134

2010/08/09 22:56
KNYG 092256Z 16009KT 8SM CLR 31/22 A2996 RMK AO2 SLP145 T03060222 $

2010/08/09 22:52
KNZY 092252Z 29009KT 10SM FEW019 24/13 A2988 RMK AO2 SLP117 T02390133 $

2010/08/09 22:56
KSGH 092256Z AUTO 15005KT 5SM HZ CLR 30/24 A2998 RMK AO2 T03000244 RAB2157E40 P0000 SLP144 $

2010/08/09 22:56
KWJF 092256Z 25015G19KT 10SM CLR 33/01 A2987 RMK AO2 SLP097 T03280011

2010/08/09 23:00
MDPC 092300Z 09010KT 8000 VCSH BKN016 28/24 Q1011 VCSH/N/NE/E

2010/08/09 23:00
MDPP 092300Z 08008KT 9999 FEW020 SCT300 30/26 Q1014

2010/08/09 23:00
MDSD 092300Z 01004KT 9999 FEW016CB SCT018 SCT300 26/23 Q1012 CB/SE/NW/N/NE

2010/08/09 23:00
MDST 092300Z 09012KT 9999 FEW016CB SCT023 BKN300 30/24 Q1013 CB/SE/S/SW

2010/08/09 22:56
PMDY 092256Z AUTO 09013KT 10SM FEW023 28/22 A3025 RMK AO2 TSNO T02830216 SLP552

2010/08/09 23:00
TBPB 092300Z 18010KT 9999 BKN014 SCT260 27/24 Q1014 NOSIG

2010/08/09 22:56
TJSJ 092256Z 09011KT 10SM FEW020 SCT040 BKN060 28/24 A2995 RMK AO2 SLP139 SHRA DSNT SE T02780244

2010/08/09 22:55
KEGI 092255Z 12007KT 10SM FEW055 35/21 A2991 RMK AO2A SLP128 T03460205 $

2010/08/09 22:53
KNIP 092253Z 11012KT 10SM SCT030 SCT130 BKN250 31/23 A2993 RMK AO2 SLP130 T2 SET T03060233

2010/08/09 22:52
KNRB 092252Z 11009KT 10SM FEW025TCU SCT040 BKN150 BKN250 30/23 A2994 RMK AO2 SLP137 TCU N T2 SET T03000233

2010/08/09 22:55
KNUC 092255Z 23007KT 10SM FEW012 20/13 A2992 RMK SLP128 T02020134

2010/08/09 22:56
KNYG 092256Z 16009KT 8SM CLR 31/22 A2996 RMK AO2 SLP145 T03060222 $

2010/08/09 22:52
KNZY 092252Z 29009KT 10SM FEW019 24/13 A2988 RMK AO2 SLP117 T02390133 $

2010/08/09 22:55
KPAM 092255Z AUTO 22006KT 10SM CLR 31/26 A2990 RMK AO2 SLP126 T03120259 $

2010/08/09 22:55
KPOB 092255Z AUTO 11005KT 10SM CLR 32/22 A2998 RMK AO2 SLP150 T03240215 $

2010/08/09 22:56
KSGH 092256Z AUTO 15005KT 5SM HZ CLR 30/24 A2998 RMK AO2 T03000244 RAB2157E40 P0000 SLP144 $

2010/08/09 22:55
KSKA 092255Z AUTO 24006G19KT 200V290 10SM CLR 27/06 A2980 RMK AO2 SLP078 T02650057

2010/08/09 22:55
KSSC 092255Z 10005KT 10SM CLR 32/20 A2998 RMK AO2A SLP150 T03180205 $

2010/08/09 22:55
KTBN 092255Z 11008KT 10SM FEW060 35/24 A2992 RMK AO2A SLP104 T03520237 $

2010/08/09 22:55
KTCM 092255Z AUTO 22004KT 10SM OVC030 19/13 A2998 RMK AO2 SLP152 T01850125

2010/08/09 22:55
KVAD 092255Z AUTO 09004KT 10SM CLR 32/24 A2992 RMK AO2 SLP130 T03200241 $

2010/08/09 22:55
KVOK 092255Z 29003KT 10SM FEW035 SCT200 32/25 A2990 RMK AO2A SLP119

2010/08/09 23:00
SBBR 092300Z 11009KT CAVOK 24/00 Q1022

2010/08/09 22:55
KCAO 092255Z AUTO 30014G22KT 10SM BKN075 29/13 A3003 RMK AO2 SLP084 T02940128 TSNO 

2010/08/09 22:50
EDFE 092250Z AUTO VRB02KT //// R27/P2000N // /// 14/13 Q1016

2010/08/09 22:50
EDNY 092250Z AUTO VRB03KT 9999 FEW082 15/13 Q1017

2010/08/09 22:56
KWMC 092256Z AUTO 24013G23KT 10SM CLR 31/M01 A2990 RMK AO2 SLP077 T03111011 

2010/08/09 23:00
LWSK 092300Z 03005KT CAVOK 22/14 Q1016 NOSIG

2010/08/09 23:00
OYHD 092300Z 36004KT 9999 BKN030 32/29 Q1000

2010/08/09 22:57
CYVM 092257Z AUTO 05007KT 9SM OVC003 04/04 A2995

2010/08/09 22:52
KMLF 092252Z AUTO 21019G25KT 10SM CLR 29/M07 A3004 RMK AO2 PK WND 22026/2225 SLP109 T02891067 TSNO 

2010/08/09 22:57
KNRB 092257Z 12008KT 10SM -RA FEW022TCU SCT035 BKN150 BKN250 29/23 A2994 RMK AO2 RAB55 TCU N T2 SET P0000 

2010/08/09 22:56
KGFA 092256Z AUTO 18004KT 10SM CLR 29/06 A2978 RMK AO2 SLP084 T02890056 

2010/08/09 22:56
KFLG 092256Z 23013KT 10SM FEW110 22/07 A3025 RMK AO2 WSHFT 2147 SLP155 T02170067 

2010/08/09 22:56
CYYF 092256Z 02015KT 15SM SCT080TCU BKN110 BKN160 RMK TCU4AC2AC1 CB SE RETS

2010/08/09 23:00
TFFR 092300Z 11004KT 9999 SCT018 28/24 Q1013 TEMPO 4000 SHRA

2010/08/09 22:56
PAGA 092256Z AUTO 15011KT 10SM FEW023 SCT029 OVC048 16/11 A2949 RMK AO2 RAE37 P0000

2010/08/09 22:55
K1P1 092255Z AUTO 00000KT 10SM CLR 25/19 A2989 RMK AO2 LTG DSNT W AND NW T02490185

2010/08/09 22:55
KBIX 092255Z 21004KT 10SM FEW160 30/25 A2993 RMK AO2A SLPNO T02950250 $

2010/08/09 22:50
KBJC 092250Z 21010G20KT 5SM -TSRA SCT018 BKN070 OVC100 18/13 A3013

2010/08/09 22:55
KCMR 092255Z AUTO 18010G19KT 10SM FEW065 22/08 A3024 RMK AO1

2010/08/09 22:55
KGGE 092255Z AUTO 18006KT 10SM BKN060 BKN075 OVC090 28/25 A2999 RMK AO2

2010/08/09 22:55
KLFI 092255Z 12007KT 10SM CLR 29/21 A2998 RMK AO2A SLP154 T02910207

2010/08/09 22:56
KLRD 092256Z 12014KT 10SM FEW075 38/22 A2983 RMK AO2 T03830216 SLP088

2010/08/09 22:55
KLUF 092255Z 00000KT 10SM CLR 38/09 A2978 RMK AO2A SLP056 T03810094 $

2010/08/09 22:55
KMCF 092255Z AUTO 01007KT 10SM -RA FEW014 SCT035 28/27 A2986 RMK AO2 LTG DSNT NE RAB2249DZB2235E2249 TSE2201 SLP113 P0000 T02810268

2010/08/09 22:55
KMMT 092255Z 10003KT 10SM OVC250 31/23 A2999 RMK AO2A SLP153 T03110230

2010/08/09 22:55
KSRR 092255Z AUTO 15003KT 10SM CLR 23/13 A3022 RMK AO2

2010/08/09 22:45
KSWF 092245Z 25006KT 10SM SCT100 30/19 A2993

2010/08/09 22:50
KTRK 092250Z 22009G17KT 10SM FEW050 24/04 A3007 RMK NO SPECI

2010/08/09 22:56
PATQ 092256Z AUTO 06018KT 10SM OVC007 03/02 A2978 RMK AO2 TSNO T00330016 SLP089 $

2010/08/09 22:56
PAFS 092256Z AUTO 36004KT 10SM FEW100 14/09 A2956 RMK AO2 TSNO T01380094 SLP017 $

2010/08/09 22:56
PAHC 092256Z AUTO VRB04KT 10SM BKN025 OVC050 14/11 A2942 RMK AO2 TSNO T01440111 BKN V SCT SLP965 $

2010/08/09 22:56
PAIG 092256Z AUTO 08008KT 1 1/2SM BR BKN006 OVC011 12/11 A2961 RMK AO2 PWINO TSNO T01160105 CIG 003V007 SLP032 $

2010/08/09 22:54
PAKT 092254Z COR 12007KT 10SM SCT18 BKN060 15/12 A3003 RMK AO2 SLP171 HARBOR WND 11008KT T01500128

2010/08/09 22:56
PAMO 092256Z AUTO 13019G23KT 1 1/4SM RA BR BKN006 OVC010 10/10 A2933 RMK AO2 TSNO T01000100 CIG 003V007 P0002 SLP929 $

2010/08/09 22:50
PAMX 092250Z 00000KT 25SM BKN050 OVC070 14/11 A2984 RMK NOSPECI

2010/08/09 22:56
PAOO 092256Z AUTO 16019KT 5SM BR OVC007 09/09 A2924 RMK AO2 TSNO T00940094 CIG 004V009 SLP902 $

2010/08/09 22:56
PAPM 092256Z AUTO 18018KT 6SM BR OVC011 10/09 A2945 RMK AO2 TSNO T01000088 SLP973 $

2010/08/09 22:56
PARS 092256Z AUTO 18010KT 10SM BKN029 OVC046 12/09 A2940 RMK AO2 TSNO T01220088 SLP960 $

2010/08/09 22:56
PARY 092256Z AUTO 10005KT 10SM FEW020 SCT027 BKN032 14/12 A2953 RMK AO2 PWINO TSNO T01440116 SLP004

2010/08/09 22:56
PATQ 092256Z AUTO 06018KT 10SM OVC007 03/02 A2978 RMK AO2 TSNO T00330016 SLP089 $

2010/08/09 22:46
RJSH 092246Z 26003KT 230V310 3200 BR FEW001 BKN003 25/23 Q1014 RMK 2ST001 6ST003 A2996

2010/08/09 22:53
RJNH 092253Z 07004KT 9999 FEW020 SCT060 BKN210 27/24 Q1015 RMK 1CU020 4SC060 A3000

2010/08/09 22:54
RJTY 092254Z AUTO 00000KT 3200 -RA BR SCT010 OVC015 24/24 A3007 RMK AO2 RAB2244 CIG 009 RWY18 SLP177

2010/08/09 22:51
RJTY 092251Z AUTO 00000KT 2800 -RA BR SCT008 OVC015 24/24 A3007 RMK AO2 RAB2244 CIG 009 RWY18 SLP177

2010/08/09 22:54
RJTY 092254Z AUTO 00000KT 3200 -RA BR SCT010 OVC015 24/24 A3007 RMK AO2 RAB2244 CIG 009 RWY18 SLP177

2010/08/09 22:51
RJTY 092251Z AUTO 00000KT 2800 -RA BR SCT008 OVC015 24/24 A3007 RMK AO2 RAB2244 CIG 009 RWY18 SLP177

2010/08/09 23:00
FIMP 092300Z 08010G20KT 9999 SCT016 22/16 Q1023

2010/08/09 22:54
KSBN 092254Z 26003KT 10SM FEW055 29/21 A2994 RMK AO2 SLP131 T02940211 

2010/08/09 22:57
KNJM 092257Z AUTO 20007KT 10SM FEW015 BKN060 BKN095 28/25 A3001 RMK AO2 SLP167 T02780250 

2010/08/09 22:50
VECC 092250Z 00000KT 2000 HZ FEW020 29/26 Q1001 NOSIG

2010/08/09 22:56
KSMP 092256Z AUTO 25007KT M1/4SM FG VV001 09/09 A2999 RMK AO2 SLP151 T00940089 TSNO $ 

2010/08/09 22:50
HLLB 092250Z 32010KT 9999 SCT020 24/19 Q1013

2010/08/09 22:55
EHEH 092255Z AUTO 15005KT 9999NDV FEW068 16/12 Q1015 BLU

2010/08/09 22:55
EHKD 092255Z AUTO 16007KT 9999NDV BKN050/// BKN057/// 17/14 Q1014 BLU

2010/08/09 22:58
CWOB 092258Z AUTO ///// 0SM CLR 04/ A2973

2010/08/09 22:50
BGBW 092250Z AUTO 07003KT 9999NDV -RA SCT004/// BKN007/// OVC013/// 09/08 Q1008

2010/08/09 22:50
BGJN 092250Z AUTO 16005KT 9999NDV SCT026/// BKN110/// 13/04 Q1009

2010/08/09 22:50
BGSF 092250Z 04008KT 9999 SCT042 BKN050 11/04 Q1008

2010/08/09 22:55
BGTL 092255Z AUTO 25009KT 9999 CLR 06/03 A2986 RMK AO2 SLP116 T00620027

2010/08/09 22:56
K79J 092256Z AUTO 15006KT 10SM CLR 35/20 A2991 RMK AO2 SLP124 T03500200 TSNO PNO $

2010/08/09 22:55
KCVS 092255Z 18015KT 10SM FEW080 SCT140 30/14 A3000 RMK AO2A SLP111 T03020140 $

2010/08/09 22:55
KDPG 092255Z 27005KT 50SM FEW100 BKN160 31/00 A3004 RMK SLP124 LAST T03070001

2010/08/09 22:55
KGUS 092255Z 26004KT 10SM FEW050 BKN250 31/25 A2994 RMK AO2A SLP132 T03090249

2010/08/09 22:55
KNBG 092255Z 00000KT 8SM FEW008 SCT130 OVC250 26/24 A2995 RMK AO2 SLP140 T2 SET T02610239 $

2010/08/09 22:56
KNFL 092256Z VRB06KT 10SM SCT070 33/M01 A2988 RMK AO2 SLP093 T03281006

2010/08/09 22:55
KNKX 092255Z 31008KT 10SM FEW020 23/13 A2989 RMK AO2 SLP116 T02280133

2010/08/09 22:56
KNPA 092256Z 21006KT 10SM FEW040 BKN080 BKN140 BKN250 32/22 A2991 RMK AO2 SLP130 VCSH NW-N T2 SET T03170222

2010/08/09 22:56
KNUW 092256Z 00000KT 10SM FEW006 BKN014 OVC030 16/13 A2998 RMK AO2 RAE40 SLP155 P0000 T01550134 $

2010/08/09 22:56
KNXP 092256Z 14011G19KT 7SM CLR 37/M07 A2988 RMK AO2 SLP080 T03671072 $

2010/08/09 22:55
KNYL 092255Z 18005KT 10SM FEW080 40/03 A2971 RMK AO2 SLP056 T04000028

2010/08/09 22:55
KPOE 092255Z AUTO 19006KT 10SM CLR 35/22 A2990 RMK AO2 SLP125 T03500222

2010/08/09 22:55
KRCA 092255Z 18018G22KT 10SM SCT070CB BKN150 25/14 A2993 RMK AO2A CB 12E MOV E PK WND 22027/2159 SLP114 T02460138 $

2010/08/09 22:55
KVBG 092255Z 30007KT 10SM FEW008 SCT014 16/12 A2993 RMK AO2 SLP127 WND ESTMD T01610117 VISNO RWY12 $

2010/08/09 23:00
MYGF 092300Z AUTO 13012KT 9999 FEW027 SCT043 BKN110 26/24 A2996 /

2010/08/09 23:00
SBFL 092300Z 14006KT 9999 FEW040 15/08 Q1025

2010/08/09 23:00
SBGR 092300Z 17006KT 8000 FEW012 OVC018 14/12 Q1025

2010/08/09 22:54
PGSN 092254Z 26004KT 10SM CLR 26/24 A2993 RMK AO2 SLP134 P0001 T02560244

2010/08/09 22:55
PGUA 092255Z AUTO 00000KT 10SM SCT160 26/24 A2994 RMK AO2 SLP120 T02650242 $

2010/08/09 22:54
PGUM 092254Z 00000KT 10SM SCT060 28/24 A2993 RMK AO2 SLP126 T02780239

2010/08/09 22:55
PHHI 092255Z AUTO 08012G20KT 10SM BKN045 OVC055 26/16 A3012 RMK AO2 SLP186 T02620157 $

2010/08/09 22:53
PHJR 092253Z 05008G16KT 360V100 10SM BKN050 29/15 A3009 RMK AO2 SLP197 T02940150

2010/08/09 22:53
PHKO 092253Z 20011KT 10SM BKN060 28/19 A3003 RMK AO2 SLP168 T02830194

2010/08/09 22:54
PHMK 092254Z 04020G32KT 10SM FEW033 29/14 A3008 RMK AO2 PK WND 04035/2241 SLP185 T02940139

2010/08/09 22:53
PHNL 092253Z 05014G20KT 10SM FEW033 SCT042 BKN055 30/16 A3009 RMK AO2 SLP188 T03000161

2010/08/09 22:54
PHOG 092254Z 05021G32KT 10SM SCT055 31/14 A3005 RMK AO2 PK WND 05032/2245 SLP181 T03110139

2010/08/09 22:53
PHTO 092253Z 08008KT 10SM FEW020 BKN065 27/18 A3008 RMK AO2 SLP185 T02720178

2010/08/09 22:50
PTKK 092250Z VRB05KT 15SM FEW014CB BKN120 OVC280 29/25 A2988 RMK CB OHD SLP122 T02870253

2010/08/09 22:53
PWAK 092253Z 07017KT 10SM FEW026 31/24 A3007 RMK AO2A

2010/08/09 22:55
RJTY 092255Z AUTO 00000KT 3200 -RA BR SCT010 OVC015 24/24 A3007 RMK AO2 RAB2244 CIG 009 RWY18 SLP177 P0001 T02440235

2010/08/09 22:55
RODN 092255Z 17014KT 9999 -RA SCT045 27/25 A2979 RMK AO2A PK WND 19033/2210 SLP088 P0028 T02650253

2010/08/09 22:50
KQEJ 092250Z AUTO 35001KT 4SM -SHRA OVC004 23/21 A2998 RMK A02

2010/08/09 22:50
KQEP 092250Z AUTO 16004KT 7SM -SHRA BKN032 BKN085 26/22 A2987 RMK A02

2010/08/09 22:50
KQEQ 092250Z AUTO 02002KT 3SM BR FEW040 SCT090 25/23 A2980 RMK A02

2010/08/09 22:50
KQEW 092250Z AUTO 23002KT 1SM RA BR SCT005 BKN012 BKN024 25/23 A2988 RMK A02

2010/08/09 22:50
KQEX 092250Z AUTO 18003KT 7SM -RA BKN006 BKN022 26/24 A2980 RMK A02

2010/08/09 22:50
KQFB 092250Z AUTO 19006KT 7SM OVC027 27/24 A2997 RMK A02

2010/08/09 22:55
KQD9 092255Z 00000KT 9999 FEW015 SCT020 BKN180 24/22 A2981 RMK SLP024 WND DATA ESTMD ALSTG/SLP ESTMD

2010/08/09 22:55
KQDP 092255Z AUTO RMK AO2 SLPNO $

2010/08/09 22:55
KQGX 092255Z 00000KT 9999 CLR 32/23 A2945 RMK AO2A SLP970 T03240233 $

2010/08/09 22:55
KQHT 092255Z VRB03KT 9999 FEW150 18/10 A2981 RMK AO2A SLP063

2010/08/09 22:55
KQLE 092255Z VRB04KT 8000 DU SCT150 SCT250 31/M02 A2964 RMK SLP956 T03091018 PA3202 DA5758 RH12

2010/08/09 22:55
KQSB 092255Z AUTO VRB02KT 6000 30/08 A2975 RMK AO2 SLP970 T02990084 $

2010/08/09 22:55
KQSR 092255Z 11003KT 9999 FEW007 SCT020 BKN040 OVC080 16/15 A3002 RMK AO2A SLP063 WND DATA/ALSTG ESTMD

2010/08/09 22:56
KQAY 092256Z AUTO 26005KT 9000 FEW200 36/07 A2944 RMK AO2 SLP963 T03600069 $

2010/08/09 22:56
KLWS 092256Z 30012G18KT 10SM CLR 30/05 A2973 RMK AO2 SLP057 T03000050 

2010/08/09 22:56
KGFA 092256Z AUTO 18004KT 10SM CLR 29/06 A2978 RMK AO2 SLP084 T02890056 

2010/08/09 22:56
PASY 092256Z 27007KT 10SM OVC040 10/09 A2987 RMK AO2 SLP114 T01000089 PNO $ 

2010/08/09 22:53
KLOR 092253Z AUTO 07004KT 10SM CLR 34/19 A2991 RMK AO2 SLP124 T03440194 TSNO PNO $ 

2010/08/09 22:50
KHMS 092250Z 04003KT 15SM FEW250 31/06 A2970 RMK SLP055 T03070057 RSNK 23/22014 

2010/08/09 22:53
KUIL 092253Z AUTO VRB06KT 10SM OVC007 14/12 A2999 RMK AO2 SLP155 T01440117 TSNO 

2010/08/09 22:57
KNJM 092257Z AUTO 20007KT 10SM FEW015 BKN060 BKN095 28/25 A3001 RMK AO2 SLP167 T02780250 

2010/08/09 22:55
KSPR 092255Z AUTO 00000KT 10SM 32/25 A2992 RMK A01

2010/08/09 22:54
KSYN 092254Z AUTO 00000KT 10SM CLR 32/21 A2991 RMK AO2 T03200213

2010/08/09 22:53
KTEW 092253Z AUTO 00000KT 10SM CLR 27/21 A2994 RMK AO2

2010/08/09 22:53
KTKC 092253Z AUTO 08006KT 10SM CLR 30/22 A2992 RMK AO2 T03000220

2010/08/09 22:55
KTOB 092255Z AUTO 06004KT 10SM CLR 30/25 A2994 RMK AO2

2010/08/09 22:53
KTWM 092253Z AUTO 27004KT 10SM CLR 31/19 A2990 RMK AO2

2010/08/09 22:50
KUKT 092250Z AUTO 22007KT 10SM CLR 30/19 A2995 RMK AO1

2010/08/09 22:54
KULM 092254Z AUTO 09008KT 10SM CLR 31/22 A2990 RMK AO2

2010/08/09 22:55
KVAF 092255Z AUTO 13011KT 10SM CLR 30/25 A2987 RMK A01

2010/08/09 22:55
KVBS 092255Z AUTO 00000KT 10SM CLR 33/24 A2992 RMK A01

2010/08/09 22:54
KVLL 092254Z AUTO 25005KT 10SM SCT042 BKN080 OVC090 26/20 A2996 RMK AO2

2010/08/09 22:56
KVVV 092256Z AUTO 12007KT 10SM CLR 31/18 A2991 RMK AO2

2010/08/09 22:49
KVWU 092249Z AUTO 22005KT 10SM CLR 32/21 A2990 RMK AO2

2010/08/09 22:56
KXVG 092256Z AUTO 21004KT 10SM CLR 31/19 A2992 RMK AO2

2010/08/09 22:55
KY70 092255Z AUTO 23009KT 10SM BKN024 BKN032 29/22 A2991 RMK AO2 T02860219

2010/08/09 22:56
KABQ 092256Z VRB04KT 10SM SCT090CB BKN150 29/09 A3007 RMK AO2 RAB39E55 SLP087 CB NE MOV NE TCU SW P0000 T02940094

2010/08/09 22:54
KRIC 092254Z 19008KT 7SM FEW055 SCT250 32/18 A2997 RMK AO2 SLP151 T03220178 $

2010/08/09 22:56
KJAX 092256Z 07008KT 10SM FEW037 SCT075 SCT130 BKN200 29/24 A2993 RMK AO2 SLP136 T02890244

2010/08/09 22:53
K29G 092253Z AUTO 00000KT 10SM CLR 27/19 A2998 RMK AO2 T02690186 PWINO

2010/08/09 22:55
K46D 092255Z AUTO 20011KT 10SM CLR 34/18 A2987 RMK AO2

2010/08/09 22:56
K4I3 092256Z AUTO 16003KT 10SM CLR 29/20 A2999 RMK AO2

2010/08/09 22:55
KACB 092255Z AUTO 30006KT 10SM CLR 28/22 A2989 RMK AO2

2010/08/09 22:58
KACQ 092258Z AUTO 04005KT 10SM CLR 30/22 A2993 RMK AO2

2010/08/09 22:57
KADC 092257Z AUTO 21003KT 10SM CLR 31/17 A2993 RMK AO2

2010/08/09 22:50
KAEL 092250Z AUTO 12006KT 10SM SCT034 30/23 A2991 RMK AO2

2010/08/09 22:47
KAIT 092247Z AUTO 00000KT 10SM CLR 31/20 A2993 RMK AO2

2010/08/09 22:56
KAJO 092256Z AUTO 29010G19KT 10SM CLR 26/14 A2986 RMK AO2 T02610138 SLP105 $

2010/08/09 22:55
KAMN 092255Z AUTO 30006KT 10SM SCT030 SCT040 BKN048 29/22 A2991 RMK AO2

2010/08/09 22:53
KAQP 092253Z AUTO 12007KT 10SM CLR 30/24 A2989 RMK AO2

2010/08/09 22:55
KAUM 092255Z AUTO 07005KT 10SM CLR 31/23 A2991 RMK AO2

2010/08/09 22:54
KAVP 092254Z 23009KT 10SM CLR 31/16 A2994 RMK AO2 SLP126 T03060161 $

2010/08/09 23:05
KBAX 092305Z AUTO 22006KT 10SM CLR 25/21 A2991 RMK AO2

2010/08/09 22:53
KBBB 092253Z AUTO 13005KT 10SM CLR 32/21 A2994 RMK AO2

2010/08/09 22:55
KBBF 092255Z AUTO 12010KT 10SM CLR 31/28 A2988 RMK A01

2010/08/09 22:55
KBDH 092255Z AUTO 13007KT 3SM HZ CLR 32/20 A2992 RMK AO2

2010/08/09 22:53
KBFW 092253Z AUTO 00000KT 10SM CLR 33/14 A2989 RMK AO2

2010/08/09 22:55
KBQX 092255Z AUTO 14014KT 10SM CLR 31/26 A2989 RMK A01

2010/08/09 22:54
KCAD 092254Z AUTO 25007KT 10SM SCT022 SCT027 26/22 A2993 RMK AO2

2010/08/09 22:56
KCAE 092256Z 12007KT 10SM FEW090 BKN210 33/22 A2998 RMK AO2 SLP148 T03280217

2010/08/09 22:55
KCBG 092255Z AUTO 00000KT 10SM CLR 32/24 A2990 RMK AO2

2010/08/09 22:54
KCDA 092254Z AUTO 22009KT 10SM +RA SCT034 BKN044 OVC065 23/18 A2993 RMK AO2

2010/08/09 22:52
KCDD 092252Z AUTO 00000KT 10SM CLR 32/24 A2993 RMK AO2

2010/08/09 23:03
KCFE 092303Z AUTO 00000KT 10SM 32/20 A2992 RMK AO2 T03230202

2010/08/09 22:55
KCFS 092255Z AUTO 17007KT 10SM SCT007 SCT036 BKN090 24/22 A2991 RMK AO2

2010/08/09 22:56
KCHS 092256Z 09007KT 10SM SCT017 BKN022 OVC075 28/26 A2998 RMK AO2 RAB19E54 SLP150 P0000 T02830261

2010/08/09 22:55
KCKC 092255Z AUTO 32007KT 10SM CLR 28/13 A2995 RMK AO2

2010/08/09 22:55
KCKN 092255Z AUTO 20011G14KT 10SM CLR 33/21 A2986 RMK AO2

2010/08/09 22:55
KCMB 092255Z AUTO VRB04KT 10SM CLR 35/24 A2994 RMK A01

2010/08/09 22:54
KCNB 092254Z AUTO 09005KT 10SM CLR 29/22 A2991 RMK AO2 T02910215

2010/08/09 22:56
KCOQ 092256Z AUTO 00000KT 10SM CLR 32/14 A2994 RMK AO2

2010/08/09 22:57
KCQM 092257Z AUTO 00000KT 10SM CLR 31/19 A2993 RMK AO2

2010/08/09 22:55
KCRH 092255Z AUTO 11004KT 10SM CLR 31/24 A2994 RMK A01

2010/08/09 22:50
KCVH 092250Z AUTO 26015G18KT 10SM CLR 24/13 A2989 RMK AO1

2010/08/09 22:55
KCVX 092255Z AUTO 29005KT 5SM HZ SCT008 25/22 A2992 RMK AO2

2010/08/09 22:50
KHXD 092250Z 06004KT 10SM SCT016 29/27 A2997

2010/08/09 22:54
KHYX 092254Z AUTO 23003KT 10SM CLR 25/22 A2990 RMK AO2

2010/08/09 22:51
KHZX 092251Z AUTO 27003KT 10SM CLR 31/17 A2994 RMK AO2

2010/08/09 22:54
KIKW 092254Z AUTO 25005KT 10SM SCT021 SCT027 SCT065 28/21 A2989 RMK AO2 T02760212

2010/08/09 22:55
KIPN 092255Z AUTO VRB03KT 10SM CLR 30/25 A2990 RMK A01

2010/08/09 22:55
KIRS 092255Z AUTO 25005KT 7SM CLR 28/23 A2994 RMK AO2

2010/08/09 22:55
KISQ 092255Z AUTO 22003KT 7SM SCT034 26/21 A2990 RMK AO2

2010/08/09 22:54
KJKJ 092254Z AUTO 20005KT 10SM CLR 33/22 A2987 RMK AO2

2010/08/09 22:55
KJMR 092255Z AUTO 00000KT 10SM CLR 30/20 A2994 RMK AO2

2010/08/09 22:55
KJYG 092255Z AUTO 08005KT 10SM CLR 31/27 A2992 RMK AO2

2010/08/09 22:55
KJYM 092255Z AUTO 00000KT 7SM BKN035 BKN042 OVC060 25/23 A2996 RMK AO2

2010/08/09 22:52
KLJF 092252Z AUTO 13006KT 10SM CLR 32/20 A2992 RMK AO2

2010/08/09 22:54
KLVN 092254Z AUTO 13003KT 10SM CLR 30/22 A2992 RMK AO2

2010/08/09 22:56
KLWA 092256Z AUTO 28004KT 10SM CLR 28/20 A2992 RMK AO2

2010/08/09 22:54
KLXL 092254Z AUTO 00000KT 10SM CLR 31/16 A2991 RMK AO2

2010/08/09 22:58
KLYV 092258Z AUTO 14009KT 10SM SCT017 SCT030 BKN049 28/23 A2991 RMK AO2

2010/08/09 22:56
KM89 092256Z AUTO 18005KT 10SM CLR 38/24 A2987 RMK AO2 T03770244 SLP127 $

2010/08/09 22:55
KMDJ 092255Z AUTO 29010KT 10SM CLR 28/25 A2993 RMK A01

2010/08/09 22:55
KMGG 092255Z AUTO 00000KT 10SM CLR 32/21 A2992 RMK AO2 T03200209

2010/08/09 22:55
KMGN 092255Z AUTO 24004KT 7SM SCT025 SCT055 27/21 A2989 RMK AO2

2010/08/09 22:55
KMHR 092255Z AUTO 25006KT 10SM CLR 29/12 A2982 RMK AO1

2010/08/09 22:55
KMIU 092255Z AUTO 13014KT 10SM CLR 30/26 A2988 RMK A01

2010/08/09 22:52
KMJQ 092252Z AUTO 10006KT 10SM SCT029 SCT036 SCT042 28/23 A2993 RMK AO2

2010/08/09 22:54
KMOP 092254Z AUTO 26005KT 10SM SCT026 OVC035 27/23 A2991 RMK AO2

2010/08/09 22:48
KMOX 092248Z AUTO 10004KT 10SM CLR 31/21 A2988 RMK AO2

2010/08/09 22:53
KMRT 092253Z AUTO 20005KT 10SM CLR 30/20 A3000 RMK AO2 T02980196

2010/08/09 22:54
KMVE 092254Z AUTO 13004KT 10SM CLR 31/24 A2989 RMK AO2

2010/08/09 22:53
KMWM 092253Z AUTO 09006KT 10SM BKN033 BKN039 29/23 A2992 RMK AO2

2010/08/09 22:53
KMWT 092253Z AUTO 00000KT 10SM CLR 36/21 A2989 RMK AO2 SLP107 T03560211 TSNO

2010/08/09 22:55
KMZG 092255Z AUTO 00000KT 10SM CLR 32/26 A2989 RMK A01

2010/08/09 22:51
KMZH 092251Z AUTO 00000KT 10SM CLR 31/18 A2991 RMK AO2

2010/08/09 22:55
KOEB 092255Z AUTO 19003KT 7SM CLR 27/23 A2994 RMK AO2

2010/08/09 22:51
KONA 092251Z AUTO 00000KT 10SM CLR 31/22 A2990 RMK AO2

2010/08/09 22:54
KONZ 092254Z AUTO 00000KT 10SM OVC065 26/23 A2993 RMK AO2

2010/08/09 22:54
KORB 092254Z AUTO 00000KT 10SM CLR 31/19 A2990 RMK AO2

2010/08/09 22:54
KOVL 092254Z AUTO 13005KT 10SM CLR 31/20 A2990 RMK AO2 T03060204

2010/08/09 22:54
KOWA 092254Z AUTO 08005KT 10SM CLR 30/22 A2991 RMK AO2

2010/08/09 22:55
KOZW 092255Z AUTO 21007KT 10SM CLR 27/21 A2994 RMK AO2

2010/08/09 22:53
KPEX 092253Z AUTO 06004KT 10SM CLR 31/19 A2993 RMK AO2 T03110192

2010/08/09 22:53
KPNM 092253Z AUTO 05003KT 10SM CLR 32/19 A2992 RMK AO2

2010/08/09 22:53
KPQN 092253Z AUTO 11009KT 10SM CLR 30/23 A2993 RMK AO2

2010/08/09 22:53
KPWC 092253Z AUTO 00000KT 10SM CLR 31/19 A2995 RMK AO2

2010/08/09 22:54
KPZQ 092254Z AUTO 06005KT 10SM CLR 25/18 A2990 RMK AO2

2010/08/09 22:54
KRFD 092254Z 30003KT 10SM FEW030 SCT070 30/22 A2993 RMK AO2 SLP129 T03000217 $

2010/08/09 22:55
KRGK 092255Z AUTO 16003KT 10SM CLR 32/23 A2990 RMK AO2

2010/08/09 22:55
KRNP 092255Z AUTO 10003KT 7SM SCT015 BKN032 OVC050 23/23 A2992 RMK AO2

2010/08/09 22:54
KROS 092254Z AUTO 00000KT 10SM CLR 31/20 A2992 RMK AO2 T03070204

2010/08/09 22:54
KROX 092254Z AUTO 20008KT 10SM CLR 33/23 A2985 RMK AO2

2010/08/09 22:54
KRQB 092254Z AUTO 26008KT 10SM SCT023 SCT034 27/21 A2993 RMK AO2

2010/08/09 22:53
KRRT 092253Z AUTO 06008KT 10SM CLR 27/23 A2987 RMK AO2 TSNO

2010/08/09 22:54
KSAZ 092254Z AUTO 00000KT 10SM CLR 31/19 A2993 RMK AO2

2010/08/09 22:55
KSCF 092255Z AUTO 00000KT 10SM CLR 32/25 A2990 RMK A01

2010/08/09 22:53
KSGS 092253Z AUTO 10004KT 10SM CLR 32/20 A2991 RMK AO2 T03210200

2010/08/09 22:56
KSHV 092256Z 20004KT 10SM SCT070 36/21 A2987 RMK AO2 SLP112 T03560211

2010/08/09 22:55
KSJX 092255Z AUTO 00000KT 7SM SCT100 26/21 A2990 RMK AO2

2010/08/09 22:55
KSLH 092255Z AUTO 05006KT 10SM CLR 24/20 A2990 RMK AO2

2010/08/09 22:56
KDIJ 092256Z AUTO 17003KT 10SM FEW055 BKN075 BKN090 16/09 A3015 RMK AO2 T01610088 BKN V SCT LTG DSNT S-NW SLP140 $

2010/08/09 22:57
KDRM 092257Z AUTO 15004KT 10SM CLR 23/20 A2990 RMK AO2

2010/08/09 22:55
KDTL 092255Z AUTO 18007KT 10SM CLR 31/17 A2994 RMK AO2

2010/08/09 22:54
KDUH 092254Z AUTO 00000KT 10SM SCT045 BKN080 OVC100 27/21 A2994 RMK AO2

2010/08/09 22:56
KDVP 092256Z AUTO 09011KT 10SM SCT026 SCT033 29/21 A2995 RMK AO2 T02910211

2010/08/09 22:54
KDXX 092254Z AUTO 00000KT 10SM CLR 31/23 A2989 RMK AO2

2010/08/09 22:54
KDYT 092254Z AUTO 00000KT 10SM CLR 26/23 A2990 RMK AO2

2010/08/09 23:00
KEDU 092300Z AUTO 19008KT 10SM CLR 28/14 A2982 RMK AO1

2010/08/09 22:56
KEFK 092256Z AUTO 31005KT 10SM SCT037 SCT044 BKN060 22/18 A2991 RMK AO2

2010/08/09 22:55
KEHC 092255Z AUTO 10005KT 10SM CLR 34/24 A2995 RMK A01

2010/08/09 22:55
KEIR 092255Z AUTO 00000KT 10SM CLR 31/25 A2994 RMK A01

2010/08/09 22:56
KEKQ 092256Z AUTO 12006KT 8SM CLR 31/26 A3000 RMK AO2 T03110261 TSB00E28RAE2158 P0000 SLP153

2010/08/09 22:53
KELO 092253Z AUTO 28004KT 10SM CLR 29/17 A2992 RMK AO2

2010/08/09 22:55
KEMK 092255Z AUTO 14008KT 10SM CLR 31/25 A2991 RMK A01

2010/08/09 22:55
KERY 092255Z AUTO 24005KT 10SM CLR 27/23 A2991 RMK AO2

2010/08/09 22:54
KETH 092254Z AUTO 08004KT 10SM CLR 31/19 A2993 RMK AO2

2010/08/09 22:52
KEVM 092252Z AUTO 26004KT 10SM CLR 31/17 A2991 RMK AO1

2010/08/09 22:54
KFBL 092254Z AUTO 08004KT 10SM CLR 31/21 A2992 RMK AO2

2010/08/09 22:53
KFFM 092253Z AUTO 14004KT 10SM CLR 31/20 A2988 RMK AO2

2010/08/09 22:55
KFFX 092255Z AUTO 27005KT 10SM BKN028 26/22 A2992 RMK AO2

2010/08/09 22:53
KFGN 092253Z AUTO 00000KT 10SM CLR 29/19 A2986 RMK AO2

2010/08/09 23:01
KFKA 092301Z AUTO 06003KT 10SM CLR 31/23 A2994 RMK AO2 T03100229

2010/08/09 22:54
KFKS 092254Z AUTO 21004KT 10SM CLR 25/21 A2990 RMK AO2

2010/08/09 22:53
KFOZ 092253Z AUTO 21006KT 10SM CLR 31/21 A2993 RMK AO2

2010/08/09 22:56
KFPK 092256Z AUTO 21006KT 10SM SCT033 27/21 A2993 RMK AO2

2010/08/09 22:54
KFSE 092254Z AUTO 22009KT 10SM CLR 30/19 A2989 RMK AO2

2010/08/09 22:59
KFSO 092259Z AUTO 00000KT 10SM SCT035 BKN040 OVC050 24/22 A2988 RMK AO2

2010/08/09 22:54
KFWA 092254Z 20003KT 9SM FEW090 BKN140 BKN250 29/24 A2994 RMK AO2 SLP134 T02940244

2010/08/09 22:55
KGBK 092255Z AUTO VRB03KT 10SM FEW025 FEW033 SCT039 35/25 A2994 RMK A01

2010/08/09 22:52
KGDB 092252Z AUTO 08004KT 10SM CLR 31/21 A2991 RMK AO2 T03090214

2010/08/09 22:53
KGHW 092253Z AUTO 08005KT 10SM CLR 32/17 A2995 RMK AO2

2010/08/09 22:55
KGOV 092255Z AUTO 05007KT 10SM SCT031 BKN043 BKN050 26/22 A2991 RMK AO2

2010/08/09 22:54
KGSO 092254Z 17007KT 10SM FEW055 32/19 A3001 RMK AO2 SLP147 T03170189

2010/08/09 22:55
KGUL 092255Z AUTO 10SM FEW027 30/24 A2993 RMK A01

2010/08/09 22:54
KGYL 092254Z AUTO 00000KT 10SM CLR 31/22 A2991 RMK AO2 T03050221

2010/08/09 22:55
KHAF 092255Z AUTO 24005KT 8SM OVC006 13/12 A2994 RMK AO2

2010/08/09 22:55
KHAI 092255Z AUTO 25005KT 7SM CLR 28/22 A2993 RMK AO2

2010/08/09 22:52
KHCD 092252Z AUTO 10004KT 10SM CLR 29/22 A2991 RMK AO2 T02910218

2010/08/09 22:54
KHCO 092254Z AUTO 22010G14KT 10SM CLR 35/19 A2984 RMK AO2

2010/08/09 22:50
KHQI 092250Z AUTO 09008KT 10SM 31/25 A2993 RMK A01

2010/08/09 22:58
KMEI 092258Z 16008KT 10SM CLR 34/23 A2993 RMK AO2 SLP131 T03390228

2010/08/09 22:52
KNRB 092252Z 11009KT 10SM FEW025TCU SCT040 BKN150 BKN250 30/23 A2994 RMK AO2 SLP137 TCU N T2 SET T03000233

2010/08/09 22:55
KPAM 092255Z AUTO 22006KT 10SM CLR 31/26 A2990 RMK AO2 SLP126 T03120259 $

2010/08/09 22:49
KRHV 092249Z 27010KT 10SM SKC 26/14 A2986

2010/08/09 22:55
KSSC 092255Z 10005KT 10SM CLR 32/20 A2998 RMK AO2A SLP150 T03180205 $

2010/08/09 22:55
KVAD 092255Z AUTO 09004KT 10SM CLR 32/24 A2992 RMK AO2 SLP130 T03200241 $

2010/08/09 22:57
PGWT 092257Z 26003KT 7SM -RA FEW016CB SCT060 BKN100 BKN150 26/24 A2993 RMK CB OHD MOV E WIND DATA ESTIMATED

2010/08/09 22:57
PAGH 092257Z AUTO 10014KT 10SM -RA BKN032 OVC039 14/12 A2953 RMK AO2 SLP027 P0001 T01390117

2010/08/09 22:57
PAIW 092257Z AUTO 19013KT 10SM OVC016 14/12 A2939 RMK AO2 RAB00E14 SLPNO P0000 T01390117

2010/08/09 22:56
PAMB 092256Z AUTO 20014G24KT 6SM BR BKN009 OVC013 11/11 A2953 RMK AO2 PWINO TSNO T01050105 CIG 006V011 SLP001 $

2010/08/09 22:56
PAOH 092256Z AUTO 00000KT 10SM OVC033 15/12 A2998 RMK AO2 TSNO T01500122 SLP154 $

2010/08/09 22:57
PAVA 092257Z AUTO 12012KT 10SM -RA BKN009 OVC012 11/10 A2927 RMK AO2 CIG 005V010 SLP914 P0001 T01110100

2010/08/09 22:56
PPIZ 092256Z AUTO 05024G31KT 10SM BKN019 08/03 A2967 RMK AO2 TSNO T00770027 BKN V SCT PK WND 07031/2211 SLP050 $

2010/08/09 22:52
KMLF 092252Z AUTO 21019G25KT 10SM CLR 29/M07 A3004 RMK AO2 PK WND 22026/2225 SLP109 T02891067 TSNO

2010/08/09 22:56
KGFA 092256Z AUTO 18004KT 10SM CLR 29/06 A2978 RMK AO2 SLP084 T02890056

2010/08/09 22:54
KSBN 092254Z 26003KT 10SM FEW055 29/21 A2994 RMK AO2 SLP131 T02940211

2010/08/09 22:56
KSMP 092256Z AUTO 25007KT M1/4SM FG VV001 09/09 A2999 RMK AO2 SLP151 T00940089 TSNO $

2010/08/09 22:56
KGFA 092256Z AUTO 18004KT 10SM CLR 29/06 A2978 RMK AO2 SLP084 T02890056

2010/08/09 22:53
KLOR 092253Z AUTO 07004KT 10SM CLR 34/19 A2991 RMK AO2 SLP124 T03440194 TSNO PNO $

2010/08/09 22:53
KUIL 092253Z AUTO VRB06KT 10SM OVC007 14/12 A2999 RMK AO2 SLP155 T01440117 TSNO

2010/08/09 22:56
KNUQ 092256Z 33010KT 10SM CLR 22/13 A2988 RMK AO2 SLP120 T02170133

2010/08/09 22:56
KNGP 092256Z 13011KT 10SM FEW018 SCT040 SCT250 31/26 A2986 RMK AO2 SLP111 T03110261

2010/08/09 22:56
KNFE 092256Z AUTO 10007KT 330V150 2SM HZ CLR 28/22 A2999 RMK AO2 PK WND 33028/2256 SLP157 T02830217 $

2010/08/09 22:56
KINS 092256Z 10014G21KT 10SM CLR 33/01 A2989 RMK AO2 SLP071 T03330011

2010/08/09 22:56
KP28 092256Z AUTO 16011G19KT 38/17 A2981 RMK AO2 SLP071 T03830167 PWINO TSNO

2010/08/09 22:56
KCDJ 092256Z AUTO 00000KT 36/27 A2986 RMK AO2 SLP090 T03560272 PWINO TSNO

2010/08/09 22:56
KNTU 092256Z 11006KT 10SM FEW200 27/23 A2998 RMK AO2 SLP156 T02720228 $

2010/08/09 22:56
KGNA 092256Z AUTO 25006KT 18/16 A2988 RMK AO2 SLP112 T01830161 PWINO TSNO

2010/08/09 22:56
K2WX 092256Z AUTO 15008KT 31/16 A2977 RMK AO1 PK WND 16026/2208 SLP053 P0005 T03110156

2010/08/09 22:56
KFSD 092256Z 13011KT 10SM SCT032 SCT045 28/24 A2989 RMK AO2 SLP113 T02830239

2010/08/09 22:56
K8D3 092256Z AUTO 11006KT 31/20 A2989 RMK AO2 SLP105 T03060200 PWINO TSNO

2010/08/09 22:53
KRNM 092253Z 27010KT 10SM CLR 27/12 A2989 RMK AO2 SLP110 T02670122

2010/08/09 22:56
KMHS 092256Z AUTO 00000KT 10SM CLR 28/06 A2993 RMK AO2 SLP122 T02830061 TSNO

2010/08/09 22:56
KSPD 092256Z AUTO 22008KT 31/14 A2997 RMK AO2 SLP079 T03110139 PWINO TSNO

2010/08/09 22:56
KNRS 092256Z 27008KT 10SM FEW017 21/13 A2990 RMK AO2 SLP124 T02060133

2010/08/09 22:56
KD07 092256Z AUTO 15017KT 31/17 A2987 RMK AO2 SLP098 T03060167 PWINO TSNO

2010/08/09 22:55
KCAO 092255Z AUTO 30014G22KT 10SM BKN075 29/13 A3003 RMK AO2 SLP084 T02940128 TSNO

2010/08/09 22:56
KWMC 092256Z AUTO 24013G23KT 10SM CLR 31/M01 A2990 RMK AO2 SLP077 T03111011

2010/08/09 22:56
KFLG 092256Z 23013KT 10SM FEW110 22/07 A3025 RMK AO2 WSHFT 2147 SLP155 T02170067

2010/08/09 22:56
KLWS 092256Z 30012G18KT 10SM CLR 30/05 A2973 RMK AO2 SLP057 T03000050

2010/08/09 22:50
KHMS 092250Z 04003KT 15SM FEW250 31/06 A2970 RMK SLP055 T03070057 RSNK 23/22014

2010/08/09 22:54
KAPN 092254Z 10004KT 10SM FEW070 24/21 A2990 RMK AO2 SLP121 T02440211 $ 

2010/08/09 23:00
UBBB 092300Z 31006KT CAVOK 27/27 Q1009 NOSIG RMK R88CLRD70

2010/08/09 22:53
KLOR 092253Z AUTO 07004KT 10SM CLR 34/19 A2991 RMK AO2 SLP124 T03440194 TSNO PNO $

2010/08/09 22:57
KNJM 092257Z AUTO 20007KT 10SM FEW015 BKN060 BKN095 28/25 A3001 RMK AO2 SLP167 T02780250

2010/08/09 22:57
PGWT 092257Z 26003KT 7SM -RA FEW016CB SCT060 BKN100 BKN150 26/24 A2993 RMK CB OHD MOV E WIND DATA ESTIMATED

2010/08/09 22:57
PGWT 092257Z 26003KT 7SM -RA FEW016CB SCT060 BKN100 BKN150 26/24 A2993 RMK CB OHD MOV E WIND DATA ESTIMATED

2010/08/09 22:54
PGSN 092254Z 26004KT 10SM CLR 26/24 A2993 RMK AO2 SLP134 P0001 T02560244

2010/08/09 22:54
PGUM 092254Z 00000KT 10SM SCT060 28/24 A2993 RMK AO2 SLP126 T02780239

2010/08/09 22:50
PTKK 092250Z VRB05KT 15SM FEW014CB BKN120 OVC280 29/25 A2988 RMK CB OHD SLP122 T02870253

2010/08/09 22:56
KNUQ 092256Z 33010KT 10SM CLR 22/13 A2988 RMK AO2 SLP120 T02170133

2010/08/09 22:56
KHLR 092256Z AUTO 11013G21KT 080V160 10SM FEW070 38/18 A2986 RMK AO2 SLP101 T03780183 $

2010/08/09 22:56
KNQI 092256Z 12012KT 10SM FEW030CB SCT140 SCT280 35/25 A2984 RMK AO2 SLP102 CB DSNT SW TCU DSNT E T03450245 $

2010/08/09 22:56
KNGP 092256Z 13011KT 10SM FEW018 SCT040 SCT250 31/26 A2986 RMK AO2 SLP111 T03110261

2010/08/09 22:56
KINS 092256Z 10014G21KT 10SM CLR 33/01 A2989 RMK AO2 SLP071 T03330011

2010/08/09 22:56
KNTU 092256Z 11006KT 10SM FEW200 27/23 A2998 RMK AO2 SLP156 T02720228 $

2010/08/09 22:56
KNCA 092256Z 00000KT 10SM 29/24 A3001 RMK AO2 SLP162 T02940239 $

2010/08/09 22:56
KNXX 092256Z 22007KT 9SM FEW050 SCT100 BKN200 30/18 A2996 RMK AO2 SLP147 T03000183 $

2010/08/09 22:56
KNBC 092256Z 11008KT 10SM FEW065 31/24 A2996 RMK AO2 SLP145 T03060239 $

2010/08/09 22:56
KABH 092256Z AUTO 18006KT 10SM TS FEW065 SCT110 24/14 A3012 RMK AO2 TSB05E44B53 SLP119 T02390144 $

2010/08/09 22:56
PHBK 092256Z AUTO A3009 RMK AO2 SLP193 PWINO FZRANO TSNO $

2010/08/09 22:56
KNTD 092256Z 23008KT 7SM CLR 18/13 A2990 RMK AO2 SLP127 LAG PK 12/12/13003KT T01830133 $

2010/08/09 22:56
KNID 092256Z 17011G16KT 10SM CLR 36/M08 A2984 RMK AO2 SLP082 T03561078 $

2010/08/09 22:56
KNLC 092256Z VRB03KT 10SM CLR 33/12 A2979 RMK AO2 SLP087 RH/27 T03330117

2010/08/09 22:56
KNMM 092256Z 18003KT 10SM FEW055 SCT250 34/23 A2992 RMK AO2 SLP138 T2 SET T03440228 $

2010/08/09 22:56
KNRS 092256Z 27008KT 10SM FEW017 21/13 A2990 RMK AO2 SLP124 T02060133

2010/08/09 22:55
KBIX 092255Z 21004KT 10SM FEW160 30/25 A2993 RMK AO2A SLPNO T02950250 $

2010/08/09 22:55
KLFI 092255Z 12007KT 10SM CLR 29/21 A2998 RMK AO2A SLP154 T02910207

2010/08/09 22:55
KLUF 092255Z 00000KT 10SM CLR 38/09 A2978 RMK AO2A SLP056 T03810094 $

2010/08/09 22:55
KMCF 092255Z AUTO 01007KT 10SM -RA FEW014 SCT035 28/27 A2986 RMK AO2 LTG DSNT NE RAB2249DZB2235E2249 TSE2201 SLP113 P0000 T02810268

2010/08/09 22:55
KMMT 092255Z 10003KT 10SM OVC250 31/23 A2999 RMK AO2A SLP153 T03110230

2010/08/09 22:55
KCOF 092255Z 12009KT 10SM CLR 29/23 A2991 RMK AO2A SLP130 T02870233

2010/08/09 22:55
KFHU 092255Z VRB04KT 50SM SCT050CB 31/15 A3006 RMK CB DSNT NE SLP108 SH DSNT NE

2010/08/09 22:55
KGRK 092255Z 13010KT 7SM FEW060 36/17 A2985 RMK SLP086

2010/08/09 22:55
KLSV 092255Z AUTO 07004KT 10SM CLR 36/00 A2983 RMK AO2 SLP084 T03580000 PWINO

2010/08/09 22:55
KLUF 092255Z 00000KT 10SM CLR 38/09 A2978 RMK AO2A SLP056 T03810094 $

2010/08/09 22:55
KMIB 092255Z AUTO 14006KT 10SM FEW120 31/17 A2981 RMK AO2 SLP089 T03120174

2010/08/09 22:56
KNYG 092256Z 16009KT 8SM CLR 31/22 A2996 RMK AO2 SLP145 T03060222 $

2010/08/09 22:52
KNZY 092252Z 29009KT 10SM FEW019 24/13 A2988 RMK AO2 SLP117 T02390133 $

2010/08/09 22:56
PMDY 092256Z AUTO 09013KT 10SM FEW023 28/22 A3025 RMK AO2 TSNO T02830216 SLP552

2010/08/09 22:53
KNIP 092253Z 11012KT 10SM SCT030 SCT130 BKN250 31/23 A2993 RMK AO2 SLP130 T2 SET T03060233

2010/08/09 22:52
KNRB 092252Z 11009KT 10SM FEW025TCU SCT040 BKN150 BKN250 30/23 A2994 RMK AO2 SLP137 TCU N T2 SET T03000233

2010/08/09 22:56
KNYG 092256Z 16009KT 8SM CLR 31/22 A2996 RMK AO2 SLP145 T03060222 $

2010/08/09 22:52
KNZY 092252Z 29009KT 10SM FEW019 24/13 A2988 RMK AO2 SLP117 T02390133 $

2010/08/09 22:55
KPAM 092255Z AUTO 22006KT 10SM CLR 31/26 A2990 RMK AO2 SLP126 T03120259 $

2010/08/09 22:55
KPOB 092255Z AUTO 11005KT 10SM CLR 32/22 A2998 RMK AO2 SLP150 T03240215 $

2010/08/09 22:55
KSKA 092255Z AUTO 24006G19KT 200V290 10SM CLR 27/06 A2980 RMK AO2 SLP078 T02650057

2010/08/09 22:55
KSSC 092255Z 10005KT 10SM CLR 32/20 A2998 RMK AO2A SLP150 T03180205 $

2010/08/09 22:55
KTBN 092255Z 11008KT 10SM FEW060 35/24 A2992 RMK AO2A SLP104 T03520237 $

2010/08/09 22:55
KTCM 092255Z AUTO 22004KT 10SM OVC030 19/13 A2998 RMK AO2 SLP152 T01850125

2010/08/09 22:55
KVAD 092255Z AUTO 09004KT 10SM CLR 32/24 A2992 RMK AO2 SLP130 T03200241 $

2010/08/09 22:55
KVOK 092255Z 29003KT 10SM FEW035 SCT200 32/25 A2990 RMK AO2A SLP119

2010/08/09 22:52
KMJQ 092252Z AUTO 10006KT 10SM SCT029 SCT036 SCT042 28/23 A2993 RMK AO2

2010/08/09 22:54
KMOP 092254Z AUTO 26005KT 10SM SCT026 OVC035 27/23 A2991 RMK AO2

2010/08/09 22:48
KMOX 092248Z AUTO 10004KT 10SM CLR 31/21 A2988 RMK AO2

2010/08/09 22:54
KMVE 092254Z AUTO 13004KT 10SM CLR 31/24 A2989 RMK AO2

2010/08/09 22:53
KMWM 092253Z AUTO 09006KT 10SM BKN033 BKN039 29/23 A2992 RMK AO2

2010/08/09 22:55
KMZG 092255Z AUTO 00000KT 10SM CLR 32/26 A2989 RMK A01

2010/08/09 22:51
KMZH 092251Z AUTO 00000KT 10SM CLR 31/18 A2991 RMK AO2

2010/08/09 22:55
KOEB 092255Z AUTO 19003KT 7SM CLR 27/23 A2994 RMK AO2

2010/08/09 22:51
KONA 092251Z AUTO 00000KT 10SM CLR 31/22 A2990 RMK AO2

2010/08/09 22:54
KONZ 092254Z AUTO 00000KT 10SM OVC065 26/23 A2993 RMK AO2

2010/08/09 22:54
KORB 092254Z AUTO 00000KT 10SM CLR 31/19 A2990 RMK AO2

2010/08/09 22:54
KOVL 092254Z AUTO 13005KT 10SM CLR 31/20 A2990 RMK AO2 T03060204

2010/08/09 22:54
KOWA 092254Z AUTO 08005KT 10SM CLR 30/22 A2991 RMK AO2

2010/08/09 22:55
KOZW 092255Z AUTO 21007KT 10SM CLR 27/21 A2994 RMK AO2

2010/08/09 22:53
KPEX 092253Z AUTO 06004KT 10SM CLR 31/19 A2993 RMK AO2 T03110192

2010/08/09 22:53
KPNM 092253Z AUTO 05003KT 10SM CLR 32/19 A2992 RMK AO2

2010/08/09 22:53
KPQN 092253Z AUTO 11009KT 10SM CLR 30/23 A2993 RMK AO2

2010/08/09 22:53
KPWC 092253Z AUTO 00000KT 10SM CLR 31/19 A2995 RMK AO2

2010/08/09 22:55
KRGK 092255Z AUTO 16003KT 10SM CLR 32/23 A2990 RMK AO2

2010/08/09 22:55
KRNP 092255Z AUTO 10003KT 7SM SCT015 BKN032 OVC050 23/23 A2992 RMK AO2

2010/08/09 22:54
KROX 092254Z AUTO 20008KT 10SM CLR 33/23 A2985 RMK AO2

2010/08/09 22:54
KRQB 092254Z AUTO 26008KT 10SM SCT023 SCT034 27/21 A2993 RMK AO2

2010/08/09 22:53
KRRT 092253Z AUTO 06008KT 10SM CLR 27/23 A2987 RMK AO2 TSNO

2010/08/09 22:54
KSAZ 092254Z AUTO 00000KT 10SM CLR 31/19 A2993 RMK AO2

2010/08/09 22:53
KSGS 092253Z AUTO 10004KT 10SM CLR 32/20 A2991 RMK AO2 T03210200

2010/08/09 22:55
KSJX 092255Z AUTO 00000KT 7SM SCT100 26/21 A2990 RMK AO2

2010/08/09 22:55
KSLH 092255Z AUTO 05006KT 10SM CLR 24/20 A2990 RMK AO2

2010/08/09 22:55
KSPR 092255Z AUTO 00000KT 10SM 32/25 A2992 RMK A01

2010/08/09 22:53
KTEW 092253Z AUTO 00000KT 10SM CLR 27/21 A2994 RMK AO2

2010/08/09 22:55
KTOB 092255Z AUTO 06004KT 10SM CLR 30/25 A2994 RMK AO2

2010/08/09 22:53
KTWM 092253Z AUTO 27004KT 10SM CLR 31/19 A2990 RMK AO2

2010/08/09 22:50
KUKT 092250Z AUTO 22007KT 10SM CLR 30/19 A2995 RMK AO1

2010/08/09 22:54
KULM 092254Z AUTO 09008KT 10SM CLR 31/22 A2990 RMK AO2

2010/08/09 22:55
KVAF 092255Z AUTO 13011KT 10SM CLR 30/25 A2987 RMK A01

2010/08/09 22:55
KVBS 092255Z AUTO 00000KT 10SM CLR 33/24 A2992 RMK A01

2010/08/09 22:54
KVLL 092254Z AUTO 25005KT 10SM SCT042 BKN080 OVC090 26/20 A2996 RMK AO2

2010/08/09 22:56
KVVV 092256Z AUTO 12007KT 10SM CLR 31/18 A2991 RMK AO2

2010/08/09 22:49
KVWU 092249Z AUTO 22005KT 10SM CLR 32/21 A2990 RMK AO2

2010/08/09 22:56
KXVG 092256Z AUTO 21004KT 10SM CLR 31/19 A2992 RMK AO2

2010/08/09 22:55
KY70 092255Z AUTO 23009KT 10SM BKN024 BKN032 29/22 A2991 RMK AO2 T02860219

2010/08/09 22:55
K46D 092255Z AUTO 20011KT 10SM CLR 34/18 A2987 RMK AO2

2010/08/09 22:56
K4I3 092256Z AUTO 16003KT 10SM CLR 29/20 A2999 RMK AO2

2010/08/09 22:55
KACB 092255Z AUTO 30006KT 10SM CLR 28/22 A2989 RMK AO2

2010/08/09 22:58
KACQ 092258Z AUTO 04005KT 10SM CLR 30/22 A2993 RMK AO2

2010/08/09 22:57
KADC 092257Z AUTO 21003KT 10SM CLR 31/17 A2993 RMK AO2

2010/08/09 22:50
KAEL 092250Z AUTO 12006KT 10SM SCT034 30/23 A2991 RMK AO2

2010/08/09 22:47
KAIT 092247Z AUTO 00000KT 10SM CLR 31/20 A2993 RMK AO2

2010/08/09 22:56
KAJO 092256Z AUTO 29010G19KT 10SM CLR 26/14 A2986 RMK AO2 T02610138 SLP105 $

2010/08/09 22:55
KAMN 092255Z AUTO 30006KT 10SM SCT030 SCT040 BKN048 29/22 A2991 RMK AO2

2010/08/09 22:53
KAQP 092253Z AUTO 12007KT 10SM CLR 30/24 A2989 RMK AO2

2010/08/09 22:55
KAUM 092255Z AUTO 07005KT 10SM CLR 31/23 A2991 RMK AO2

2010/08/09 23:05
KBAX 092305Z AUTO 22006KT 10SM CLR 25/21 A2991 RMK AO2

2010/08/09 22:53
KBBB 092253Z AUTO 13005KT 10SM CLR 32/21 A2994 RMK AO2

2010/08/09 22:55
KBBF 092255Z AUTO 12010KT 10SM CLR 31/28 A2988 RMK A01

2010/08/09 22:55
KBDH 092255Z AUTO 13007KT 3SM HZ CLR 32/20 A2992 RMK AO2

2010/08/09 22:53
KBFW 092253Z AUTO 00000KT 10SM CLR 33/14 A2989 RMK AO2

2010/08/09 22:55
KBQX 092255Z AUTO 14014KT 10SM CLR 31/26 A2989 RMK A01

2010/08/09 22:54
KCAD 092254Z AUTO 25007KT 10SM SCT022 SCT027 26/22 A2993 RMK AO2

2010/08/09 22:55
KCBG 092255Z AUTO 00000KT 10SM CLR 32/24 A2990 RMK AO2

2010/08/09 22:51
KP58 092251Z AUTO VRB04KT 26/22 A2989 RMK AO2 SLP112 T02610217 PWINO TSNO 

2010/08/09 22:57
KNJM 092257Z AUTO 20007KT 10SM FEW015 BKN060 BKN095 28/25 A3001 RMK AO2 SLP167 T02780250

2010/08/09 22:55
KMHR 092255Z AUTO 25006KT 10SM CLR 29/12 A2982 RMK AO1

2010/08/09 22:53
KMRT 092253Z AUTO 20005KT 10SM CLR 30/20 A3000 RMK AO2 T02980196

2010/08/09 22:55
KGBK 092255Z AUTO VRB03KT 10SM FEW025 FEW033 SCT039 35/25 A2994 RMK A01

2010/08/09 22:56
K79J 092256Z AUTO 15006KT 10SM CLR 35/20 A2991 RMK AO2 SLP124 T03500200 TSNO PNO $

2010/08/09 22:55
KCVS 092255Z 18015KT 10SM FEW080 SCT140 30/14 A3000 RMK AO2A SLP111 T03020140 $

2010/08/09 22:55
KDPG 092255Z 27005KT 50SM FEW100 BKN160 31/00 A3004 RMK SLP124 LAST T03070001

2010/08/09 22:55
KGUS 092255Z 26004KT 10SM FEW050 BKN250 31/25 A2994 RMK AO2A SLP132 T03090249

2010/08/09 22:55
KNBG 092255Z 00000KT 8SM FEW008 SCT130 OVC250 26/24 A2995 RMK AO2 SLP140 T2 SET T02610239 $

2010/08/09 22:56
KNFL 092256Z VRB06KT 10SM SCT070 33/M01 A2988 RMK AO2 SLP093 T03281006

2010/08/09 22:55
KNKX 092255Z 31008KT 10SM FEW020 23/13 A2989 RMK AO2 SLP116 T02280133

2010/08/09 22:56
KNPA 092256Z 21006KT 10SM FEW040 BKN080 BKN140 BKN250 32/22 A2991 RMK AO2 SLP130 VCSH NW-N T2 SET T03170222

2010/08/09 22:56
KNUW 092256Z 00000KT 10SM FEW006 BKN014 OVC030 16/13 A2998 RMK AO2 RAE40 SLP155 P0000 T01550134 $

2010/08/09 22:56
KNXP 092256Z 14011G19KT 7SM CLR 37/M07 A2988 RMK AO2 SLP080 T03671072 $

2010/08/09 22:55
KNYL 092255Z 18005KT 10SM FEW080 40/03 A2971 RMK AO2 SLP056 T04000028

2010/08/09 22:55
KPOE 092255Z AUTO 19006KT 10SM CLR 35/22 A2990 RMK AO2 SLP125 T03500222

2010/08/09 22:55
KRCA 092255Z 18018G22KT 10SM SCT070CB BKN150 25/14 A2993 RMK AO2A CB 12E MOV E PK WND 22027/2159 SLP114 T02460138 $

2010/08/09 22:55
KVBG 092255Z 30007KT 10SM FEW008 SCT014 16/12 A2993 RMK AO2 SLP127 WND ESTMD T01610117 VISNO RWY12 $

2010/08/09 22:52
KNRB 092252Z 11009KT 10SM FEW025TCU SCT040 BKN150 BKN250 30/23 A2994 RMK AO2 SLP137 TCU N T2 SET T03000233

2010/08/09 22:55
KPAM 092255Z AUTO 22006KT 10SM CLR 31/26 A2990 RMK AO2 SLP126 T03120259 $

2010/08/09 22:55
KSSC 092255Z 10005KT 10SM CLR 32/20 A2998 RMK AO2A SLP150 T03180205 $

2010/08/09 22:55
KVAD 092255Z AUTO 09004KT 10SM CLR 32/24 A2992 RMK AO2 SLP130 T03200241 $

2010/08/09 22:55
PGUA 092255Z AUTO 00000KT 10SM SCT160 26/24 A2994 RMK AO2 SLP120 T02650242 $

2010/08/09 22:55
PHHI 092255Z AUTO 08012G20KT 10SM BKN045 OVC055 26/16 A3012 RMK AO2 SLP186 T02620157 $

2010/08/09 22:53
PHNL 092253Z 05014G20KT 10SM FEW033 SCT042 BKN055 30/16 A3009 RMK AO2 SLP188 T03000161

2010/08/09 22:53
PWAK 092253Z 07017KT 10SM FEW026 31/24 A3007 RMK AO2A

2010/08/09 22:58
K0J4 092258Z AUTO 00000KT 10SM CLR 34/22 RMK AO2 SLPNO T03440217 $

2010/08/09 22:52
KMLF 092252Z AUTO 21019G25KT 10SM CLR 29/M07 A3004 RMK AO2 PK WND 22026/2225 SLP109 T02891067 TSNO

2010/08/09 22:54
KSBN 092254Z 26003KT 10SM FEW055 29/21 A2994 RMK AO2 SLP131 T02940211

2010/08/09 22:56
KSMP 092256Z AUTO 25007KT M1/4SM FG VV001 09/09 A2999 RMK AO2 SLP151 T00940089 TSNO $

2010/08/09 22:53
KUIL 092253Z AUTO VRB06KT 10SM OVC007 14/12 A2999 RMK AO2 SLP155 T01440117 TSNO

2010/08/09 22:51
KP58 092251Z AUTO VRB04KT 26/22 A2989 RMK AO2 SLP112 T02610217 PWINO TSNO

2010/08/09 22:56
PAGA 092256Z AUTO 15011KT 10SM FEW023 SCT029 OVC048 16/11 A2949 RMK AO2 RAE37 P0000

2010/08/09 22:56
KP28 092256Z AUTO 16011G19KT 38/17 A2981 RMK AO2 SLP071 T03830167 PWINO TSNO

2010/08/09 22:56
KCDJ 092256Z AUTO 00000KT 36/27 A2986 RMK AO2 SLP090 T03560272 PWINO TSNO

2010/08/09 22:56
KGNA 092256Z AUTO 25006KT 18/16 A2988 RMK AO2 SLP112 T01830161 PWINO TSNO

2010/08/09 22:56
K2WX 092256Z AUTO 15008KT 31/16 A2977 RMK AO1 PK WND 16026/2208 SLP053 P0005 T03110156

2010/08/09 22:56
KFSD 092256Z 13011KT 10SM SCT032 SCT045 28/24 A2989 RMK AO2 SLP113 T02830239

2010/08/09 22:56
K8D3 092256Z AUTO 11006KT 31/20 A2989 RMK AO2 SLP105 T03060200 PWINO TSNO

2010/08/09 22:53
KRNM 092253Z 27010KT 10SM CLR 27/12 A2989 RMK AO2 SLP110 T02670122

2010/08/09 22:56
KMHS 092256Z AUTO 00000KT 10SM CLR 28/06 A2993 RMK AO2 SLP122 T02830061 TSNO

2010/08/09 22:56
KSPD 092256Z AUTO 22008KT 31/14 A2997 RMK AO2 SLP079 T03110139 PWINO TSNO

2010/08/09 22:56
KD07 092256Z AUTO 15017KT 31/17 A2987 RMK AO2 SLP098 T03060167 PWINO TSNO

2010/08/09 22:56
TJSJ 092256Z 09011KT 10SM FEW020 SCT040 BKN060 28/24 A2995 RMK AO2 SLP139 SHRA DSNT SE T02780244

2010/08/09 22:55
KCAO 092255Z AUTO 30014G22KT 10SM BKN075 29/13 A3003 RMK AO2 SLP084 T02940128 TSNO

2010/08/09 22:56
KWMC 092256Z AUTO 24013G23KT 10SM CLR 31/M01 A2990 RMK AO2 SLP077 T03111011

2010/08/09 22:56
KFLG 092256Z 23013KT 10SM FEW110 22/07 A3025 RMK AO2 WSHFT 2147 SLP155 T02170067

2010/08/09 22:54
KIKW 092254Z AUTO 25005KT 10SM SCT021 SCT027 SCT065 28/21 A2989 RMK AO2 T02760212

2010/08/09 22:58
KLYV 092258Z AUTO 14009KT 10SM SCT017 SCT030 BKN049 28/23 A2991 RMK AO2

2010/08/09 22:53
KMWT 092253Z AUTO 00000KT 10SM CLR 36/21 A2989 RMK AO2 SLP107 T03560211 TSNO

2010/08/09 22:54
KPZQ 092254Z AUTO 06005KT 10SM CLR 25/18 A2990 RMK AO2

2010/08/09 22:54
KRFD 092254Z 30003KT 10SM FEW030 SCT070 30/22 A2993 RMK AO2 SLP129 T03000217 $

2010/08/09 22:54
KROS 092254Z AUTO 00000KT 10SM CLR 31/20 A2992 RMK AO2 T03070204

2010/08/09 22:55
KSCF 092255Z AUTO 00000KT 10SM CLR 32/25 A2990 RMK A01

2010/08/09 22:56
KSHV 092256Z 20004KT 10SM SCT070 36/21 A2987 RMK AO2 SLP112 T03560211

2010/08/09 22:54
KSYN 092254Z AUTO 00000KT 10SM CLR 32/21 A2991 RMK AO2 T03200213

2010/08/09 22:53
KTKC 092253Z AUTO 08006KT 10SM CLR 30/22 A2992 RMK AO2 T03000220

2010/08/09 22:56
KABQ 092256Z VRB04KT 10SM SCT090CB BKN150 29/09 A3007 RMK AO2 RAB39E55 SLP087 CB NE MOV NE TCU SW P0000 T02940094

2010/08/09 22:54
KRIC 092254Z 19008KT 7SM FEW055 SCT250 32/18 A2997 RMK AO2 SLP151 T03220178 $

2010/08/09 22:56
KJAX 092256Z 07008KT 10SM FEW037 SCT075 SCT130 BKN200 29/24 A2993 RMK AO2 SLP136 T02890244

2010/08/09 22:53
K29G 092253Z AUTO 00000KT 10SM CLR 27/19 A2998 RMK AO2 T02690186 PWINO

2010/08/09 22:54
KAVP 092254Z 23009KT 10SM CLR 31/16 A2994 RMK AO2 SLP126 T03060161 $

2010/08/09 22:56
KCAE 092256Z 12007KT 10SM FEW090 BKN210 33/22 A2998 RMK AO2 SLP148 T03280217

2010/08/09 22:56
KCHS 092256Z 09007KT 10SM SCT017 BKN022 OVC075 28/26 A2998 RMK AO2 RAB19E54 SLP150 P0000 T02830261

2010/08/09 22:54
KFWA 092254Z 20003KT 9SM FEW090 BKN140 BKN250 29/24 A2994 RMK AO2 SLP134 T02940244

2010/08/09 22:54
KGSO 092254Z 17007KT 10SM FEW055 32/19 A3001 RMK AO2 SLP147 T03170189

2010/08/09 22:53
PHKO 092253Z 20011KT 10SM BKN060 28/19 A3003 RMK AO2 SLP168 T02830194

2010/08/09 22:54
PHOG 092254Z 05021G32KT 10SM SCT055 31/14 A3005 RMK AO2 PK WND 05032/2245 SLP181 T03110139

2010/08/09 22:53
PHTO 092253Z 08008KT 10SM FEW020 BKN065 27/18 A3008 RMK AO2 SLP185 T02720178

2010/08/09 22:56
KLWS 092256Z 30012G18KT 10SM CLR 30/05 A2973 RMK AO2 SLP057 T03000050

2010/08/09 22:50
KHMS 092250Z 04003KT 15SM FEW250 31/06 A2970 RMK SLP055 T03070057 RSNK 23/22014

2010/08/09 22:56
PAMB 092256Z AUTO 20014G24KT 6SM BR BKN009 OVC013 11/11 A2953 RMK AO2 PWINO TSNO T01050105 CIG 006V011 SLP001 $

2010/08/09 22:56
PAOH 092256Z AUTO 00000KT 10SM OVC033 15/12 A2998 RMK AO2 TSNO T01500122 SLP154 $

2010/08/09 22:56
PPIZ 092256Z AUTO 05024G31KT 10SM BKN019 08/03 A2967 RMK AO2 TSNO T00770027 BKN V SCT PK WND 07031/2211 SLP050 $

2010/08/09 22:56
KGFA 092256Z AUTO 18004KT 10SM CLR 29/06 A2978 RMK AO2 SLP084 T02890056

2010/08/09 22:56
KGFA 092256Z AUTO 18004KT 10SM CLR 29/06 A2978 RMK AO2 SLP084 T02890056

2010/08/09 22:57
KNRB 092257Z 12008KT 10SM -RA FEW022TCU SCT035 BKN150 BKN250 29/23 A2994 RMK AO2 RAB55 TCU N T2 SET P0000

2010/08/09 22:56
KNFE 092256Z AUTO 10007KT 330V150 2SM HZ CLR 28/22 A2999 RMK AO2 PK WND 33028/2256 SLP157 T02830217 $

2010/08/09 22:56
KNSE 092256Z 22006KT 9SM FEW038TCU SCT060 BKN100 32/24 A2992 RMK AO2 SLP115 TCU NW T2 SET T03170239 $

2010/08/09 22:55
K1P1 092255Z AUTO 00000KT 10SM CLR 25/19 A2989 RMK AO2 LTG DSNT W AND NW T02490185

2010/08/09 22:50
KBJC 092250Z 21010G20KT 5SM -TSRA SCT018 BKN070 OVC100 18/13 A3013

2010/08/09 22:55
KCMR 092255Z AUTO 18010G19KT 10SM FEW065 22/08 A3024 RMK AO1

2010/08/09 22:55
KGGE 092255Z AUTO 18006KT 10SM BKN060 BKN075 OVC090 28/25 A2999 RMK AO2

2010/08/09 22:56
KLRD 092256Z 12014KT 10SM FEW075 38/22 A2983 RMK AO2 T03830216 SLP088

2010/08/09 22:55
KSRR 092255Z AUTO 15003KT 10SM CLR 23/13 A3022 RMK AO2

2010/08/09 22:45
KSWF 092245Z 25006KT 10SM SCT100 30/19 A2993

2010/08/09 22:50
KTRK 092250Z 22009G17KT 10SM FEW050 24/04 A3007 RMK NO SPECI

2010/08/09 22:56
PATQ 092256Z AUTO 06018KT 10SM OVC007 03/02 A2978 RMK AO2 TSNO T00330016 SLP089 $

2010/08/09 22:55
KNUC 092255Z 23007KT 10SM FEW012 20/13 A2992 RMK SLP128 T02020134

2010/08/09 22:56
KSGH 092256Z AUTO 15005KT 5SM HZ CLR 30/24 A2998 RMK AO2 T03000244 RAB2157E40 P0000 SLP144 $

2010/08/09 22:56
KWJF 092256Z 25015G19KT 10SM CLR 33/01 A2987 RMK AO2 SLP097 T03280011

2010/08/09 22:55
KNUC 092255Z 23007KT 10SM FEW012 20/13 A2992 RMK SLP128 T02020134

2010/08/09 22:56
KSGH 092256Z AUTO 15005KT 5SM HZ CLR 30/24 A2998 RMK AO2 T03000244 RAB2157E40 P0000 SLP144 $

2010/08/09 22:56
PAFS 092256Z AUTO 36004KT 10SM FEW100 14/09 A2956 RMK AO2 TSNO T01380094 SLP017 $

2010/08/09 22:56
PAHC 092256Z AUTO VRB04KT 10SM BKN025 OVC050 14/11 A2942 RMK AO2 TSNO T01440111 BKN V SCT SLP965 $

2010/08/09 22:56
PAIG 092256Z AUTO 08008KT 1 1/2SM BR BKN006 OVC011 12/11 A2961 RMK AO2 PWINO TSNO T01160105 CIG 003V007 SLP032 $

2010/08/09 22:54
PAKT 092254Z COR 12007KT 10SM SCT18 BKN060 15/12 A3003 RMK AO2 SLP171 HARBOR WND 11008KT T01500128

2010/08/09 22:56
PAMO 092256Z AUTO 13019G23KT 1 1/4SM RA BR BKN006 OVC010 10/10 A2933 RMK AO2 TSNO T01000100 CIG 003V007 P0002 SLP929 $

2010/08/09 22:50
PAMX 092250Z 00000KT 25SM BKN050 OVC070 14/11 A2984 RMK NOSPECI

2010/08/09 22:56
PAOO 092256Z AUTO 16019KT 5SM BR OVC007 09/09 A2924 RMK AO2 TSNO T00940094 CIG 004V009 SLP902 $

2010/08/09 22:56
PAPM 092256Z AUTO 18018KT 6SM BR OVC011 10/09 A2945 RMK AO2 TSNO T01000088 SLP973 $

2010/08/09 22:56
PARS 092256Z AUTO 18010KT 10SM BKN029 OVC046 12/09 A2940 RMK AO2 TSNO T01220088 SLP960 $

2010/08/09 22:56
PARY 092256Z AUTO 10005KT 10SM FEW020 SCT027 BKN032 14/12 A2953 RMK AO2 PWINO TSNO T01440116 SLP004

2010/08/09 22:56
PATQ 092256Z AUTO 06018KT 10SM OVC007 03/02 A2978 RMK AO2 TSNO T00330016 SLP089 $

2010/08/09 22:50
KHXD 092250Z 06004KT 10SM SCT016 29/27 A2997

2010/08/09 22:54
KHYX 092254Z AUTO 23003KT 10SM CLR 25/22 A2990 RMK AO2

2010/08/09 22:51
KHZX 092251Z AUTO 27003KT 10SM CLR 31/17 A2994 RMK AO2

2010/08/09 22:55
KIPN 092255Z AUTO VRB03KT 10SM CLR 30/25 A2990 RMK A01

2010/08/09 22:55
KIRS 092255Z AUTO 25005KT 7SM CLR 28/23 A2994 RMK AO2

2010/08/09 22:55
KISQ 092255Z AUTO 22003KT 7SM SCT034 26/21 A2990 RMK AO2

2010/08/09 22:54
KJKJ 092254Z AUTO 20005KT 10SM CLR 33/22 A2987 RMK AO2

2010/08/09 22:55
KJMR 092255Z AUTO 00000KT 10SM CLR 30/20 A2994 RMK AO2

2010/08/09 22:55
KJYG 092255Z AUTO 08005KT 10SM CLR 31/27 A2992 RMK AO2

2010/08/09 22:55
KJYM 092255Z AUTO 00000KT 7SM BKN035 BKN042 OVC060 25/23 A2996 RMK AO2

2010/08/09 22:52
KLJF 092252Z AUTO 13006KT 10SM CLR 32/20 A2992 RMK AO2

2010/08/09 22:54
KLVN 092254Z AUTO 13003KT 10SM CLR 30/22 A2992 RMK AO2

2010/08/09 22:56
KLWA 092256Z AUTO 28004KT 10SM CLR 28/20 A2992 RMK AO2

2010/08/09 22:54
KLXL 092254Z AUTO 00000KT 10SM CLR 31/16 A2991 RMK AO2

2010/08/09 22:56
KM89 092256Z AUTO 18005KT 10SM CLR 38/24 A2987 RMK AO2 T03770244 SLP127 $

2010/08/09 22:55
KMDJ 092255Z AUTO 29010KT 10SM CLR 28/25 A2993 RMK A01

2010/08/09 22:55
KMGG 092255Z AUTO 00000KT 10SM CLR 32/21 A2992 RMK AO2 T03200209

2010/08/09 22:55
KMGN 092255Z AUTO 24004KT 7SM SCT025 SCT055 27/21 A2989 RMK AO2

2010/08/09 22:55
KMIU 092255Z AUTO 13014KT 10SM CLR 30/26 A2988 RMK A01

2010/08/09 23:00
UBBN 092300Z 12010KT 9999 SCT100 29/08 Q1010 R14R/CLRD60 NOSIG RMK G/O QFE683

2010/08/09 22:54
KCDA 092254Z AUTO 22009KT 10SM +RA SCT034 BKN044 OVC065 23/18 A2993 RMK AO2

2010/08/09 22:52
KCDD 092252Z AUTO 00000KT 10SM CLR 32/24 A2993 RMK AO2

2010/08/09 23:03
KCFE 092303Z AUTO 00000KT 10SM 32/20 A2992 RMK AO2 T03230202

2010/08/09 22:55
KCFS 092255Z AUTO 17007KT 10SM SCT007 SCT036 BKN090 24/22 A2991 RMK AO2

2010/08/09 22:55
KCKC 092255Z AUTO 32007KT 10SM CLR 28/13 A2995 RMK AO2

2010/08/09 22:55
KCKN 092255Z AUTO 20011G14KT 10SM CLR 33/21 A2986 RMK AO2

2010/08/09 22:55
KCMB 092255Z AUTO VRB04KT 10SM CLR 35/24 A2994 RMK A01

2010/08/09 22:54
KCNB 092254Z AUTO 09005KT 10SM CLR 29/22 A2991 RMK AO2 T02910215

2010/08/09 22:56
KCOQ 092256Z AUTO 00000KT 10SM CLR 32/14 A2994 RMK AO2

2010/08/09 22:57
KCQM 092257Z AUTO 00000KT 10SM CLR 31/19 A2993 RMK AO2

2010/08/09 22:55
KCRH 092255Z AUTO 11004KT 10SM CLR 31/24 A2994 RMK A01

2010/08/09 22:50
KCVH 092250Z AUTO 26015G18KT 10SM CLR 24/13 A2989 RMK AO1

2010/08/09 22:55
KCVX 092255Z AUTO 29005KT 5SM HZ SCT008 25/22 A2992 RMK AO2

2010/08/09 22:56
KDIJ 092256Z AUTO 17003KT 10SM FEW055 BKN075 BKN090 16/09 A3015 RMK AO2 T01610088 BKN V SCT LTG DSNT S-NW SLP140 $

2010/08/09 22:57
KDRM 092257Z AUTO 15004KT 10SM CLR 23/20 A2990 RMK AO2

2010/08/09 22:55
KDTL 092255Z AUTO 18007KT 10SM CLR 31/17 A2994 RMK AO2

2010/08/09 22:54
KDUH 092254Z AUTO 00000KT 10SM SCT045 BKN080 OVC100 27/21 A2994 RMK AO2

2010/08/09 22:56
KDVP 092256Z AUTO 09011KT 10SM SCT026 SCT033 29/21 A2995 RMK AO2 T02910211

2010/08/09 22:54
KDXX 092254Z AUTO 00000KT 10SM CLR 31/23 A2989 RMK AO2

2010/08/09 22:54
KDYT 092254Z AUTO 00000KT 10SM CLR 26/23 A2990 RMK AO2

2010/08/09 22:56
KEFK 092256Z AUTO 31005KT 10SM SCT037 SCT044 BKN060 22/18 A2991 RMK AO2

2010/08/09 22:55
KEHC 092255Z AUTO 10005KT 10SM CLR 34/24 A2995 RMK A01

2010/08/09 22:55
KEIR 092255Z AUTO 00000KT 10SM CLR 31/25 A2994 RMK A01

2010/08/09 22:56
KEKQ 092256Z AUTO 12006KT 8SM CLR 31/26 A3000 RMK AO2 T03110261 TSB00E28RAE2158 P0000 SLP153

2010/08/09 22:53
KELO 092253Z AUTO 28004KT 10SM CLR 29/17 A2992 RMK AO2

2010/08/09 22:55
KEMK 092255Z AUTO 14008KT 10SM CLR 31/25 A2991 RMK A01

2010/08/09 22:55
KERY 092255Z AUTO 24005KT 10SM CLR 27/23 A2991 RMK AO2

2010/08/09 22:54
KETH 092254Z AUTO 08004KT 10SM CLR 31/19 A2993 RMK AO2

2010/08/09 22:52
KEVM 092252Z AUTO 26004KT 10SM CLR 31/17 A2991 RMK AO1

2010/08/09 22:54
KFBL 092254Z AUTO 08004KT 10SM CLR 31/21 A2992 RMK AO2

2010/08/09 22:53
KFFM 092253Z AUTO 14004KT 10SM CLR 31/20 A2988 RMK AO2

2010/08/09 22:55
KFFX 092255Z AUTO 27005KT 10SM BKN028 26/22 A2992 RMK AO2

2010/08/09 22:53
KFGN 092253Z AUTO 00000KT 10SM CLR 29/19 A2986 RMK AO2

2010/08/09 23:01
KFKA 092301Z AUTO 06003KT 10SM CLR 31/23 A2994 RMK AO2 T03100229

2010/08/09 22:54
KFKS 092254Z AUTO 21004KT 10SM CLR 25/21 A2990 RMK AO2

2010/08/09 22:53
KFOZ 092253Z AUTO 21006KT 10SM CLR 31/21 A2993 RMK AO2

2010/08/09 22:56
KFPK 092256Z AUTO 21006KT 10SM SCT033 27/21 A2993 RMK AO2

2010/08/09 22:54
KFSE 092254Z AUTO 22009KT 10SM CLR 30/19 A2989 RMK AO2

2010/08/09 22:59
KFSO 092259Z AUTO 00000KT 10SM SCT035 BKN040 OVC050 24/22 A2988 RMK AO2

2010/08/09 22:52
KGDB 092252Z AUTO 08004KT 10SM CLR 31/21 A2991 RMK AO2 T03090214

2010/08/09 22:53
KGHW 092253Z AUTO 08005KT 10SM CLR 32/17 A2995 RMK AO2

2010/08/09 22:55
KGOV 092255Z AUTO 05007KT 10SM SCT031 BKN043 BKN050 26/22 A2991 RMK AO2

2010/08/09 22:55
KGUL 092255Z AUTO 10SM FEW027 30/24 A2993 RMK A01

2010/08/09 22:54
KGYL 092254Z AUTO 00000KT 10SM CLR 31/22 A2991 RMK AO2 T03050221

2010/08/09 22:55
KHAF 092255Z AUTO 24005KT 8SM OVC006 13/12 A2994 RMK AO2

2010/08/09 22:55
KHAI 092255Z AUTO 25005KT 7SM CLR 28/22 A2993 RMK AO2

2010/08/09 22:52
KHCD 092252Z AUTO 10004KT 10SM CLR 29/22 A2991 RMK AO2 T02910218

2010/08/09 22:54
KHCO 092254Z AUTO 22010G14KT 10SM CLR 35/19 A2984 RMK AO2

2010/08/09 22:50
KHQI 092250Z AUTO 09008KT 10SM 31/25 A2993 RMK A01

2010/08/09 22:58
KMEI 092258Z 16008KT 10SM CLR 34/23 A2993 RMK AO2 SLP131 T03390228

2010/08/09 22:49
KRHV 092249Z 27010KT 10SM SKC 26/14 A2986

2010/08/09 22:53
PHJR 092253Z 05008G16KT 360V100 10SM BKN050 29/15 A3009 RMK AO2 SLP197 T02940150

2010/08/09 22:54
PHMK 092254Z 04020G32KT 10SM FEW033 29/14 A3008 RMK AO2 PK WND 04035/2241 SLP185 T02940139

2010/08/09 22:57
PAIW 092257Z AUTO 19013KT 10SM OVC016 14/12 A2939 RMK AO2 RAB00E14 SLPNO P0000 T01390117

2010/08/09 22:56
PAGA 092256Z AUTO 15011KT 10SM FEW023 SCT029 OVC048 16/11 A2949

2010/08/09 22:59
CYKF 092259Z AUTO 21008KT 4SM BR FEW071 SCT093 BKN120 22/21 A2994 RMK SLP134 DENSITY ALT 2000FT PCPN 0.8MM PAST HR

2010/08/09 22:50
EDNY 092250Z AUTO VRB03KT 9999 FEW082 15/13 Q1017

2010/08/09 22:50
EDFE 092250Z AUTO VRB02KT //// R27/P2000N // /// 14/13 Q1016

2010/08/09 22:50
EFIV 092250Z AUTO 02010KT 9999 OVC008 10/09 Q1012

2010/08/09 22:50
EFKE 092250Z AUTO 36009KT 9999 OVC010 14/12 Q1009

2010/08/09 22:55
EHGG 092255Z AUTO 12004KT 080V160 9999NDV NCD 15/13 Q1015

2010/08/09 22:55
EHKD 092255Z AUTO 16007KT 9999NDV BKN050/// BKN057/// 17/14 Q1014 BLU

2010/08/09 22:55
EHRD 092255Z 24004KT 9999 FEW046 15/13 Q1014 NOSIG

2010/08/09 22:45
KSWF 092245Z 25006KT 10SM SCT100 30/19 A2993

2010/08/09 22:53
KRYT 092253Z AUTO 00000KT 10SM CLR 32/18 A2995 RMK AO2 SLP127 T03220183 $ 

2010/08/09 22:50
ESMK 092250Z AUTO 22005KT 9999NDV NCD 12/11 Q1015

2010/08/09 23:00
GQNN 092300Z 28008KT 8000 NSC 27/21 Q1013 NOSIG

2010/08/09 23:00
OPKC 092300Z 27004KT 7000 FEW020 SCT100 27/25 Q.1001 NOSIG

2010/08/09 22:50
HLLB 092250Z 32010KT 9999 SCT020 24/19 Q1013

2010/08/09 22:55
OPLA 092255Z 00000KT 4000 FU FEW100 29/28 Q1001 NOSIG

2010/08/09 22:50
EGNJ 092250Z AUTO 20006KT 9999NDV BKN043/// 16/15 Q1010

2010/08/09 22:50
EGPE 092250Z AUTO 22003KT 9999NDV NCD 12/10 Q1005

2010/08/09 22:50
HLLB 092250Z 32010KT 9999 SCT020 24/19 Q1013

2010/08/09 22:50
EGPA 092250Z AUTO 25005KT 9999NDV -RA BKN011/// 13/13 Q1005

2010/08/09 22:50
EGPC 092250Z AUTO 27007KT 9999NDV NCD 11/11 Q1005

2010/08/09 22:50
EGPL 092250Z AUTO 13005KT 9999NDV NCD 10/10 Q1004

2010/08/09 22:50
EGPM 092250Z AUTO 10009KT 9999NDV SCT035/// SCT040/// 13/13 Q1007

2010/08/09 22:50
EGPO 092250Z AUTO 00000KT 9999NDV NCD 08/06 Q1005

2010/08/09 23:00
FOOL 092300Z 17006KT 8000 SCT008 OVC030 25/23 Q1015 NOSIG

2010/08/09 22:55
EHAK 092255Z AUTO 17022KT 9999NDV 17/15 Q1010

2010/08/09 22:55
EHDV 092255Z AUTO 18022KT 9999NDV 18/15 Q1010

2010/08/09 22:55
EHFD 092255Z AUTO 18023KT 9999NDV NCD 18/15 Q1013

2010/08/09 22:55
EHFZ 092255Z AUTO 19026KT 9999NDV ///////// 18/14 Q1012

2010/08/09 22:55
EHJA 092255Z AUTO 17019KT 9999NDV 17/15 Q1011

2010/08/09 22:55
EHKV 092255Z AUTO 20017KT 9999NDV NCD 17/14 Q1012

2010/08/09 22:55
EHMA 092255Z AUTO 13020KT 9999NDV ///////// 17/15 Q1014

2010/08/09 22:55
EHMG 092255Z AUTO 17022KT 9999NDV NCD 19/14 Q1013

2010/08/09 22:55
EHPG 092255Z AUTO 21018KT 180V240 9999NDV NCD 18/15 Q1013

2010/08/09 22:55
EHQE 092255Z AUTO 19017KT 9999NDV ///////// 18/15 Q1013

2010/08/09 23:00
LZKC 092300Z AUTO VRB01KT //// ////// 17/16 Q1017

2010/08/09 23:00
LZLU 092300Z AUTO VRB01KT //// ////// 14/13 Q1017

2010/08/09 23:00
LZNI 092300Z AUTO 31001KT 9999 ////// 14/13 Q1017

2010/08/09 23:00
LZPE 092300Z AUTO 01002KT 9999 ////// 14/13 Q1018

2010/08/09 22:50
HLLB 092250Z 32010KT 9999 SCT020 24/19 Q1013

2010/08/09 22:50
BGGH 092250Z 30001KT 9999 SCT008 BKN020 BKN060 10/09 Q1008 RMK 4ST 6ST 7AS 

2010/08/09 22:45
KSWF 092245Z 25006KT 10SM SCT100 30/19 A2993

2010/08/09 22:56
PAGA 092256Z AUTO 15011KT 10SM FEW023 SCT029 OVC048 16/11 A2949

2010/08/09 22:59
CYOY 092259Z AUTO 24008KT 9SM CLR 24/16 A2982

2010/08/09 22:58
CWOB 092258Z AUTO ///// 0SM CLR 04/ A2973

2010/08/09 22:57
CYVM 092257Z AUTO 05007KT 9SM OVC003 04/04 A2995

2010/08/09 22:56
CYYF 092256Z 02015KT 15SM SCT080TCU BKN110 BKN160 RMK TCU4AC2AC1 CB SE RETS

2010/08/09 22:56
PAGA 092256Z AUTO 15011KT 10SM FEW023 SCT029 OVC048 16/11 A2949 RMK AO2 RAE37 P0000

2010/08/09 22:57
RJTY 092257Z AUTO 00000KT 4000 -RA BR SCT010 OVC015 24/24 A3007 RMK AO2 CIG 009 RWY18 SLP176

2010/08/09 22:54
OAHR 092254Z AUTO /////KT //// // ////// 25/00 Q1010

2010/08/09 22:50
ENEK 092250Z 18019KT 9999 BKN008 16/15 Q1009 W16/S4

2010/08/09 23:00
AYMO 092300Z AUTO 22005KT //// // ////// 29/23 Q1011

2010/08/09 23:00
AYPY 092300Z 00000KT 9999 -DZ FEW020 SCT040 OVC140 28/23 Q1010 RMKS

2010/08/09 22:56
K79J 092256Z AUTO 15006KT 10SM CLR 35/20 A2991 RMK AO2 SLP124 T03500200 TSNO PNO $

2010/08/09 22:55
KCVS 092255Z 18015KT 10SM FEW080 SCT140 30/14 A3000 RMK AO2A SLP111 T03020140 $

2010/08/09 22:55
KDMA 092255Z AUTO 30007KT 10SM BKN150 35/14 A2989 RMK AO2 SLP048 T03530138 VISNO RWY12 CHINO RWY12 $

2010/08/09 22:55
KFHU 092255Z VRB04KT 50SM SCT050CB 31/15 A3006 RMK CB DSNT NE SLP108 SH DSNT NE

2010/08/09 22:55
KGUS 092255Z 26004KT 10SM FEW050 BKN250 31/25 A2994 RMK AO2A SLP132 T03090249

2010/08/09 22:56
KHLR 092256Z AUTO 11013G21KT 080V160 10SM FEW070 38/18 A2986 RMK AO2 SLP101 T03780183 $

2010/08/09 22:55
KHOP 092255Z AUTO 20007KT 10SM CLR 33/25 A2992 RMK AO2 SLP127 T03270246

2010/08/09 22:55
KLSV 092255Z AUTO 07004KT 10SM CLR 36/00 A2983 RMK AO2 SLP084 T03580000 PWINO

2010/08/09 22:56
KNBC 092256Z 11008KT 10SM FEW065 31/24 A2996 RMK AO2 SLP145 T03060239 $

2010/08/09 22:55
KNBG 092255Z 00000KT 8SM FEW008 SCT130 OVC250 26/24 A2995 RMK AO2 SLP140 T2 SET T02610239 $

2010/08/09 22:56
KNCA 092256Z 00000KT 10SM 29/24 A3001 RMK AO2 SLP162 T02940239 $

2010/08/09 22:57
KNJM 092257Z AUTO 20007KT 10SM FEW015 BKN060 BKN095 28/25 A3001 RMK AO2 SLP167 T02780250

2010/08/09 22:57
KNJM 092257Z AUTO 20007KT 10SM FEW015 BKN060 BKN095 28/25 A3001 RMK AO2 SLP167 T02780250

2010/08/09 22:56
KNRS 092256Z 27008KT 10SM FEW017 21/13 A2990 RMK AO2 SLP124 T02060133

2010/08/09 22:56
KNUQ 092256Z 33010KT 10SM CLR 22/13 A2988 RMK AO2 SLP120 T02170133

2010/08/09 22:56
PPIZ 092256Z AUTO 05024G31KT 10SM BKN019 08/03 A2967 RMK AO2 TSNO T00770027 BKN V SCT PK WND 07031/2211 SLP050 $

2010/08/09 22:57
KNJM 092257Z AUTO 20007KT 10SM FEW015 BKN060 BKN095 28/25 A3001 RMK AO2 SLP167 T02780250 

2010/08/09 23:00
HRYR 092300Z 00000KT CAVOK 21/12 Q1020 NOSIG

2010/08/09 23:00
GOOY 092300Z 29003KT 9999 SCT013 26/22 Q1013 NOSIG

2010/08/09 23:00
YSCB 092300Z 33002KT 6000 -RA FEW009 SCT014 BKN045 10/08 Q1016

2010/08/09 23:00
VHHH 092300Z VRB03KT 9999 FEW020 29/24 Q1005 NOSIG

2010/08/09 22:54
KACY 092254Z 18009KT 10SM CLR 28/20 A2999 RMK AO2 SLP153 T02830200

2010/08/09 22:55
KBIX 092255Z 21004KT 10SM FEW160 30/25 A2993 RMK AO2A SLPNO T02950250 $

2010/08/09 22:56
KCHS 092256Z 09007KT 10SM SCT017 BKN022 OVC075 28/26 A2998 RMK AO2 RAB19E54 SLP150 P0000 T02830261

2010/08/09 22:55
KCOF 092255Z 12009KT 10SM CLR 29/23 A2991 RMK AO2A SLP130 T02870233

2010/08/09 22:55
KLFI 092255Z 12007KT 10SM CLR 29/21 A2998 RMK AO2A SLP154 T02910207

2010/08/09 22:55
KMCF 092255Z AUTO 01007KT 10SM -RA FEW014 SCT035 28/27 A2986 RMK AO2 LTG DSNT NE RAB2249DZB2235E2249 TSE2201 SLP113 P0000 T02810268

2010/08/09 22:55
KNBG 092255Z 00000KT 8SM FEW008 SCT130 OVC250 26/24 A2995 RMK AO2 SLP140 T2 SET T02610239 $

2010/08/09 22:57
KNJM 092257Z AUTO 20007KT 10SM FEW015 BKN060 BKN095 28/25 A3001 RMK AO2 SLP167 T02780250

2010/08/09 22:56
KNPA 092256Z 21006KT 10SM FEW040 BKN080 BKN140 BKN250 32/22 A2991 RMK AO2 SLP130 VCSH NW-N T2 SET T03170222

2010/08/09 22:55
KPAM 092255Z AUTO 22006KT 10SM CLR 31/26 A2990 RMK AO2 SLP126 T03120259 $

2010/08/09 22:55
KVAD 092255Z AUTO 09004KT 10SM CLR 32/24 A2992 RMK AO2 SLP130 T03200241 $

2010/08/09 23:00
MDSD 092300Z 01004KT 9999 FEW016CB SCT018 SCT300 26/23 Q1012 CB/SE/NW/N/NE

2010/08/09 23:00
MKJS 092300Z 00000KT 9999 SCT022 BKN220 29/24 Q1012

2010/08/09 22:56
MUGM 092256Z 11008KT 9999 FEW025 OVC250 30/23 A2992 RMK SLP130 T03000233

2010/08/09 23:00
MYGF 092300Z AUTO 13012KT 9999 FEW027 SCT043 BKN110 26/24 A2996 /

2010/08/09 23:00
TBPB 092300Z 18010KT 9999 BKN014 SCT260 27/24 Q1014 NOSIG

2010/08/09 23:00
TFFR 092300Z 11004KT 9999 SCT018 28/24 Q1013 TEMPO 4000 SHRA

2010/08/09 22:56
KNFL 092256Z VRB06KT 10SM SCT070 33/M01 A2988 RMK AO2 SLP093 T03281006

2010/08/09 22:56
KNID 092256Z 17011G16KT 10SM CLR 36/M08 A2984 RMK AO2 SLP082 T03561078 $

2010/08/09 22:55
KNKX 092255Z 31008KT 10SM FEW020 23/13 A2989 RMK AO2 SLP116 T02280133

2010/08/09 22:56
KNLC 092256Z VRB03KT 10SM CLR 33/12 A2979 RMK AO2 SLP087 RH/27 T03330117

2010/08/09 22:56
KNPA 092256Z 21006KT 10SM FEW040 BKN080 BKN140 BKN250 32/22 A2991 RMK AO2 SLP130 VCSH NW-N T2 SET T03170222

2010/08/09 22:56
KNTU 092256Z 11006KT 10SM FEW200 27/23 A2998 RMK AO2 SLP156 T02720228 $

2010/08/09 22:56
KNUW 092256Z 00000KT 10SM FEW006 BKN014 OVC030 16/13 A2998 RMK AO2 RAE40 SLP155 P0000 T01550134 $

2010/08/09 22:56
KNXP 092256Z 14011G19KT 7SM CLR 37/M07 A2988 RMK AO2 SLP080 T03671072 $

2010/08/09 22:56
KNXX 092256Z 22007KT 9SM FEW050 SCT100 BKN200 30/18 A2996 RMK AO2 SLP147 T03000183 $

2010/08/09 22:55
KNYL 092255Z 18005KT 10SM FEW080 40/03 A2971 RMK AO2 SLP056 T04000028

2010/08/09 22:55
KPOE 092255Z AUTO 19006KT 10SM CLR 35/22 A2990 RMK AO2 SLP125 T03500222

2010/08/09 22:55
KPSM 092255Z 04012KT 10SM FEW060 BKN085 BKN130 OVC200 27/20 A2986 RMK AO2A LTG DSNT E SLP114 T02650195

2010/08/09 22:55
KRCA 092255Z 18018G22KT 10SM SCT070CB BKN150 25/14 A2993 RMK AO2A CB 12E MOV E PK WND 22027/2159 SLP114 T02460138 $

2010/08/09 22:55
KSKF 092255Z 12008KT 10SM FEW065 SCT250 36/23 A2985 RMK AO2A SLP096 T03640228 $

2010/08/09 22:55
KVBG 092255Z 30007KT 10SM FEW008 SCT014 16/12 A2993 RMK AO2 SLP127 WND ESTMD T01610117 VISNO RWY12 $

2010/08/09 22:55
PHSF 092255Z 29009G14KT 7SM FEW020 SCT200 25/11 A3031 RMK SLPNO

2010/08/09 22:50
BGGH 092250Z 30001KT 9999 SCT008 BKN020 BKN060 10/09 Q1008 RMK 4ST 6ST 7AS

2010/08/09 22:55
KDMA 092255Z AUTO 30007KT 10SM BKN150 35/14 A2989 RMK AO2 SLP048 T03530138 VISNO RWY12 CHINO RWY12 $

2010/08/09 22:55
KHOP 092255Z AUTO 20007KT 10SM CLR 33/25 A2992 RMK AO2 SLP127 T03270246

2010/08/09 22:56
KNBC 092256Z 11008KT 10SM FEW065 31/24 A2996 RMK AO2 SLP145 T03060239 $

2010/08/09 22:56
KNGP 092256Z 13011KT 10SM FEW018 SCT040 SCT250 31/26 A2986 RMK AO2 SLP111 T03110261

2010/08/09 22:56
KNID 092256Z 17011G16KT 10SM CLR 36/M08 A2984 RMK AO2 SLP082 T03561078 $

2010/08/09 22:56
KNLC 092256Z VRB03KT 10SM CLR 33/12 A2979 RMK AO2 SLP087 RH/27 T03330117

2010/08/09 22:56
KNTD 092256Z 23008KT 7SM CLR 18/13 A2990 RMK AO2 SLP127 LAG PK 12/12/13003KT T01830133 $

2010/08/09 22:56
KNTU 092256Z 11006KT 10SM FEW200 27/23 A2998 RMK AO2 SLP156 T02720228 $

2010/08/09 22:56
KNXX 092256Z 22007KT 9SM FEW050 SCT100 BKN200 30/18 A2996 RMK AO2 SLP147 T03000183 $

2010/08/09 22:55
KPSM 092255Z 04012KT 10SM FEW060 BKN085 BKN130 OVC200 27/20 A2986 RMK AO2A LTG DSNT E SLP114 T02650195

2010/08/09 22:55
KSKF 092255Z 12008KT 10SM FEW065 SCT250 36/23 A2985 RMK AO2A SLP096 T03640228 $

2010/08/09 23:00
OLBA 092300Z VRB03KT 9999 BKN026 28/22 Q1008 NOSIG

2010/08/09 23:00
ORER 092300Z 06005KT CAVOK 27/00 Q1003

2010/08/09 22:56
PASY 092256Z 27007KT 10SM OVC040 10/09 A2987 RMK AO2 SLP114 T01000089 PNO $

2010/08/09 22:55
PHSF 092255Z 29009G14KT 7SM FEW020 SCT200 25/11 A3031 RMK SLPNO

2010/08/09 23:00
TFFR 092300Z 11004KT 9999 SCT018 28/24 Q1013 TEMPO 4000 SHRA

2010/08/09 23:00
YSCB 092300Z 33002KT 6000 -RA FEW009 SCT014 BKN045 10/08 Q1016

2010/08/09 22:58
KMVL 092258Z AUTO 00000KT 2 1/2SM VCTS -RA BR SCT010 BKN038 OVC055 22/20 A2991 RMK AO2 LTG DSNT E AND S TSB55RAB58 P0001

2010/08/09 22:59
KDDC 092259Z AUTO 17015KT 10SM VCTS CLR 34/16 A2986 RMK AO2 LTG DSNT SW-NW TSB53

2010/08/09 22:55
K4M9 092255Z AUTO 23005KT 10SM -RA CLR 35/26 A2988 RMK AO2 P0002

2010/08/09 22:55
KCNW 092255Z 13004KT 10SM SCT065 37/19 A2985

2010/08/09 22:55
KEFT 092255Z AUTO 00000KT 10SM SCT031 31/22 A2993 RMK AO2 T03080221

2010/08/09 22:51
KEGV 092251Z AUTO 34006KT 10SM CLR 29/15 A2995 RMK AO2 T02910152

2010/08/09 22:52
KETB 092252Z AUTO 34003KT 10SM SCT032 29/20 A2991 RMK AO2 T02890204

2010/08/09 22:52
KGLW 092252Z AUTO 00000KT 10SM CLR 34/22 A2993 RMK AO2 T03430218

2010/08/09 22:54
KLAL 092254Z 08004KT 15SM FEW060 SCT120 BKN250 32/24 A2986

2010/08/09 22:55
KLUM 092255Z AUTO 01005KT 10SM CLR 32/17 A2991 RMK AO2

2010/08/09 22:55
KMAN 092255Z AUTO 07003KT 10SM CLR 30/06 A2979 RMK AO1

2010/08/09 22:55
KMCJ 092255Z AUTO 12005G15KT 040V020 10SM CLR 33/23 A2986 RMK AO1

2010/08/09 22:55
KMRJ 092255Z AUTO 00000KT 10SM SCT030 31/22 A2993 RMK AO2 T03120219

2010/08/09 22:55
KOEO 092255Z AUTO 07004KT 10SM CLR 32/20 A2993 RMK AO2

2010/08/09 22:55
KPBH 092255Z AUTO 36003KT 10SM CLR 31/17 A2997 RMK AO2

2010/08/09 22:55
KPCZ 092255Z AUTO 00000KT 10SM CLR 33/22 A2989 RMK AO2 T03250215

2010/08/09 22:52
KPDC 092252Z AUTO 03003KT 10SM CLR 32/24 A2989 RMK AO2 T03160244

2010/08/09 22:55
KRCX 092255Z AUTO 01004KT 10SM CLR 31/20 A2995 RMK AO2 T03070195

2010/08/09 22:56
KRNH 092256Z AUTO 02003KT 10SM CLR 31/19 A2993 RMK AO2 T03100190

2010/08/09 22:45
KSCH 092245Z 27004KT 10SM CLR 30/18 A2989

2010/08/09 22:55
KSNC 092255Z AUTO 22008KT 10SM CLR 26/20 A2996 RMK AO2

2010/08/09 22:56
KY50 092256Z AUTO 34004KT 10SM CLR 32/22 A2990 RMK AO2 T03160216 SLP116

2010/08/09 22:55
KSDA 092255Z AUTO 15005KT 10SM 35/27 A2984 RMK AO2

2010/08/09 22:55
KSHL 092255Z AUTO 11004KT 10SM OVC025 27/24 A2993 RMK AO2

2010/08/09 22:55
KSTE 092255Z AUTO 29005KT 10SM CLR 32/20 A2992 RMK AO2

2010/08/09 22:55
KSUW 092255Z AUTO 26004KT 10SM CLR 32/19 A2988 RMK AO2

2010/08/09 22:55
KTKV 092255Z AUTO 02004KT 10SM SCT060 30/17 A2995 RMK AO2 T02980167

2010/08/09 22:55
KTNU 092255Z AUTO 10003KT 10SM BKN041 OVC049 31/25 A2990 RMK AO2

2010/08/09 22:55
KTVK 092255Z AUTO 10SM FEW030 31/26 A2990 RMK AO2

2010/08/09 22:55
KUNU 092255Z AUTO 32003KT 10SM SCT027 29/21 A2992 RMK AO2 T02870206

2010/08/09 22:55
KVTI 092255Z AUTO 08005KT 10SM SCT029 SCT039 OVC070 28/26 A2991 RMK AO2

2010/08/09 22:55
K1A6 092255Z AUTO 25003KT 10SM CLR 34/27 A2999 RMK AO2

2010/08/09 22:55
KAWG 092255Z AUTO 17003KT 10SM 31/25 A2990 RMK AO2

2010/08/09 22:55
KAXA 092255Z AUTO 10005KT 10SM OVC042 29/24 A2991 RMK AO2

2010/08/09 22:55
KBNW 092255Z AUTO 12004KT 10SM BKN036 BKN050 30/25 A2990 RMK AO2

2010/08/09 22:55
KCAV 092255Z AUTO 13004KT 10SM SCT025 BKN048 31/25 A2991 RMK AO2

2010/08/09 22:55
KCBF 092255Z AUTO 11003KT 10SM CLR 35/26 A2986 RMK AO2

2010/08/09 22:55
KCKP 092255Z AUTO 06007KT 10SM SCT017 SCT026 SCT031 28/23 A2990 RMK AO2

2010/08/09 22:55
KCNC 092255Z AUTO 00000KT 10SM SCT034 32/26 A2988 RMK AO2

2010/08/09 22:55
KCSQ 092255Z AUTO 18005KT 10SM CLR 33/30 A2989 RMK AO2

2010/08/09 22:55
KDEH 092255Z AUTO 03004KT 10SM SCT039 32/22 A2994 RMK AO2

2010/08/09 22:55
KDNS 092255Z AUTO 06009KT 10SM CLR 30/25 A2990 RMK AO2

2010/08/09 22:55
KEBS 092255Z AUTO 12003KT 10SM SCT024 SCT045 30/23 A2990 RMK AO2

2010/08/09 22:55
KEOK 092255Z AUTO 00000KT 10SM SCT120 33/26 A2988 RMK AO2

2010/08/09 22:55
KFFL 092255Z AUTO 00000KT 10SM SCT027 30/26 A2990 RMK AO2

2010/08/09 22:56
KFSD 092256Z 13011KT 10SM SCT032 SCT045 28/24 A2989 RMK AO2 SLP113 T02830239

2010/08/09 22:55
KFSW 092255Z AUTO 08003KT 10SM CLR 33/25 A2989 RMK AO2

2010/08/09 22:55
KFXY 092255Z AUTO 09005KT 10SM SCT037 SCT070 29/22 A2992 RMK AO2

2010/08/09 22:55
KGGI 092255Z AUTO 11003KT 10SM OVC055 30/23 A2991 RMK AO2

2010/08/09 22:56
KGON 092256Z COR 23007KT 6SM HZ CLR 26/21 A2993 RMK AO2 SLP134 T02560206

2010/08/09 22:55
KHNR 092255Z AUTO 14003KT 10SM CLR 31/26 A2989 RMK AO2

2010/08/09 22:55
KI75 092255Z AUTO 00000KT 10SM BKN027 31/25 A2988 RMK AO2

2010/08/09 22:55
KICL 092255Z AUTO 10003KT 10SM CLR 35/25 A2985 RMK AO2

2010/08/09 22:55
KIIB 092255Z AUTO 13004KT 10SM BKN042 BKN080 31/23 A2992 RMK AO1

2010/08/09 22:55
KIKV 092255Z AUTO 07005KT 10SM SCT032 BKN050 31/26 A2989 RMK AO2

2010/08/09 22:55
KISO 092255Z 14004KT 7SM CLR 32/21 A2999

2010/08/09 22:55
KLNL 092255Z AUTO 34005KT 10SM CLR 28/15 A2997 RMK AO2 T02810145

2010/08/09 22:55
KLRJ 092255Z AUTO 07007KT 10SM BKN018 27/22 A2989 RMK AO2

2010/08/09 22:55
KMDZ 092255Z AUTO 34004KT 10SM CLR 31/19 A2995 RMK AO2

2010/08/09 22:55
KMPZ 092255Z AUTO 15003KT 10SM CLR 31/23 A2989 RMK AO2

2010/08/09 22:55
KMUT 092255Z AUTO 10007KT 10SM CLR 31/26 A2989 RMK AO2

2010/08/09 22:55
KMXO 092255Z AUTO 15005KT 10SM CLR 30/25 A2991 RMK AO2

2010/08/09 22:56
KNTU 092256Z 11006KT 10SM FEW200 27/23 A2998 RMK AO2 SLP156 T02720228 $

2010/08/09 22:55
KOOA 092255Z AUTO 11005KT 10SM SCT024 31/25 A2990 RMK AO2

2010/08/09 22:55
KORC 092255Z AUTO 10007KT 10SM OVC018 27/26 A2991 RMK AO2

2010/08/09 22:55
KPEA 092255Z AUTO 10SM CLR A2989 RMK AO2

2010/08/09 22:55
KRDK 092255Z AUTO 00000KT 10SM 34/26 A2984 RMK AO2

2010/08/09 22:55
KRPD 092255Z AUTO 34003KT 10SM CLR 31/19 A2994 RMK AO2 T03050192

2010/08/09 22:55
KRRL 092255Z AUTO 34005KT 10SM CLR 30/19 A2994 RMK AO2 T03020189

2010/08/09 22:55
KRYV 092255Z AUTO 30005KT 10SM CLR 30/23 A2991 RMK AO2

2010/08/09 22:54
KSBN 092254Z 26003KT 10SM FEW055 29/21 A2994 RMK AO2 SLP131 T02940211

2010/08/09 23:01
PADM 092301Z AUTO 15018G22KT 2SM -RA BR BKN020 OVC031 11/09 A2941 RMK AO2 TSNO T01110088 P0000 SLP947 $

2010/08/09 22:58
PADU 092258Z 19017G22KT 10SM FEW024 BKN043 13/08 A2954 RMK AO2 PK WND 21027/2241 SLP010 MH T01280078

2010/08/09 22:58
PAGA 092258Z AUTO 15013KT 10SM FEW023 SCT029 OVC048 16/11 A2949 RMK AO2 RAE37 SLPNO P0000 T01560111

2010/08/09 22:56
PAJZ 092256Z AUTO 18013KT 10SM SCT009 BKN017 OVC050 12/11 A2962 RMK AO2 PWINO TSNO T01220105 SLP018 $

2010/08/09 22:56
PAKI 092256Z AUTO 19023KT 6SM +RA BR OVC010 09/09 A2929 RMK AO2 TSNO T00940094 P0000 PK WND 19027/2243 SLP920 $

2010/08/09 22:56
PALG 092256Z AUTO 00000KT 10SM FEW027 BKN043 OVC050 13/10 A2942 RMK AO2 TSNO T01270100 BKN V SCT RAB38E50 P0000 SLP966 $

2010/08/09 22:55
PALJ 092255Z 00000KT 30SM BKN060 OVC100 13/10 A2959 RMK EST PASS OPEN NOSPECI

2010/08/09 22:58
PATE 092258Z AUTO VRB04KT 10SM FEW004 BKN017 OVC025 13/11 A2937 RMK AO2 SLP958 T01280106

2010/08/09 23:00
SBSV 092300Z 10006KT 9999 SCT017 24/19 Q1019

2010/08/09 23:00
SBAR 092300Z 14008KT 9999 FEW015 25/20 Q1018

2010/08/09 23:00
SBBV 092300Z 07003KT 9999 FEW015 SCT020 FEW025TCU BKN080 26/23 Q1012

2010/08/09 23:00
SBFZ 092300Z 11008KT CAVOK 26/23 Q1014

2010/08/09 23:00
SBRF 092300Z 07002KT 8000 VCSH SCT010 BKN015 BKN070 23/20 Q1017

2010/08/09 23:00
SBSN 092300Z 00000KT CAVOK 27/24 Q1011

2010/08/09 23:00
SBRB 092300Z 00000KT 5000 FU FEW030 31/20 Q1013 

2010/08/09 23:00
SBGR 092300Z 17006KT 8000 FEW012 OVC018 14/12 Q1025

2010/08/09 23:00
YSCB 092300Z 33002KT 6000 -RA FEW009 SCT014 BKN045 10/08 Q1016

2010/08/09 22:57
RJTY 092257Z AUTO 00000KT 4000 -RA BR SCT010 OVC015 24/24 A3007 RMK AO2 CIG 009 RWY18 SLP176

2010/08/09 22:56
KBIH 092256Z AUTO 14017G27KT 10SM CLR 32/M07 A2989 RMK AO2 PK WND 18027/2247 SLP076 T03221072 TSNO 

2010/08/09 22:57
RJTY 092257Z AUTO 00000KT 4000 -RA BR SCT010 OVC015 24/24 A3007 RMK AO2 CIG 009 RWY18 SLP176

2010/08/09 23:00
MYNN 092300Z 23004KT 9000 SHRA SCT012CB BKN015 OVC080 25/24 A2999

2010/08/09 22:55
YBCS 092255Z 11007KT 3000 -SHRA FEW003 BKN018 BKN030 23/22 Q1016 FM2255 12008KT 9999 -SHRA FEW003 SCT020 BKN030 TEMPO 2255/2400 4000 -SHRA FEW003 BKN018 INTER 0000/0155 4000 -SHRA FEW010 BKN018

2010/08/09 23:00
AYPY 092300Z 00000KT 9999 -DZ FEW020 SCT040 OVC140 28/23 Q1010 RMKS/ VIS REDUCED IN HZ

2010/08/09 22:55
KDPG 092255Z 27005KT 50SM FEW100 BKN160 31/00 A3004 RMK SLP124 LAST T03070001

2010/08/09 23:00
MDSD 092300Z 01004KT 9999 FEW016CB SCT018 SCT300 26/23 Q1012 CB/SE/NW/N/NE

2010/08/09 22:45
MMNL 092245Z 14008KT 12SM SCT040 38/21 A2980 RMK 8/100

2010/08/09 23:00
MYGF 092300Z AUTO 13012KT 9999 FEW027 SCT043 BKN110 26/24 A2996 /

2010/08/09 22:55
PACZ 092255Z AUTO 17007KT 130V190 7SM SCT011 BKN018 OVC024 11/09 A2922 RMK AO1 9 T01060089

2010/08/09 22:55
PAIM 092255Z AUTO 09005KT 10SM BKN010 OVC015 13/12 A2955 RMK AO1 T01280123

2010/08/09 22:55
PALU 092255Z AUTO 07017G22KT 5SM 08/07 A2960 RMK AO1 T00830073

2010/08/09 22:55
PASV 092255Z AUTO 18009KT 10SM BKN015 OVC040 10/08 A2958 RMK AO1 T01000084

2010/08/09 22:56
PASY 092256Z 27007KT 10SM OVC040 10/09 A2987 RMK AO2 SLP114 T01000089 PNO $

2010/08/09 22:55
PATC 092255Z AUTO 00000KT 1 1/4SM OVC004 11/10 A2939 RMK AO1 T01060101

2010/08/09 22:55
PATL 092255Z AUTO 12006KT 10SM SCT013 BKN020 OVC060 12/11 A2954 RMK AO1 T01220112

2010/08/09 22:55
RJTY 092255Z AUTO 00000KT 3200 -RA BR SCT010 OVC015 24/24 A3007 RMK AO2 RAB2244 CIG 009 RWY18 SLP177 P0001 T02440235

2010/08/09 22:55
RKSO 092255Z 18008KT 1200 -RA BKN010 OVC030 26/26 A2979 RMK AO2A RAB2159E2211B2235DZB2151E2159B2231E2235 SLP090 P0003 T0258 $

2010/08/09 23:00
TBPB 092300Z 18010KT 9999 BKN014 SCT260 27/24 Q1014 NOSIG

2010/08/09 23:00
TFFR 092300Z 11004KT 9999 SCT018 28/24 Q1013 TEMPO 4000 SHRA

2010/08/09 22:55
YBCS 092255Z 11007KT 3000 -SHRA FEW003 BKN018 BKN030 23/22 Q1016 FM2255 12008KT 9999 -SHRA FEW003 SCT020 BKN030 TEMPO 2255/2400 4000 -SHRA FEW003 BKN018 INTER 0000/0155 4000 -SHRA FEW010 BKN018

2010/08/09 23:00
DIAP 092300Z 23003KT 7000 SCT011 BKN080 24/23 Q1015 NOSIG

2010/08/09 23:00
OPKC 092300Z 27004KT 7000 FEW020 SCT100 27/25 Q.1001 NOSIG

2010/08/09 23:00
OPRN 092300Z 00000KT 4000 HZ FEW040 27/25 Q1003.6

2010/08/09 22:56
KMEH 092256Z AUTO 28007KT 10SM CLR 24/05 A2988 RMK AO2 SLP106 T02390050 TSNO 

2010/08/09 22:55
EBBL 092255Z VRB02KT 9999 FEW070 12/11 Q1016 BLU

2010/08/09 22:55
EBFN 092255Z 19005KT 9999 FEW023 13/11 Q1015 BLU

2010/08/09 22:55
EBFS 092255Z 14002KT 9999 FEW250 15/11 Q1016 BLU

2010/08/09 22:50
EDNY 092250Z AUTO VRB03KT 9999 FEW082 15/13 Q1017

2010/08/09 22:50
EDXW 092250Z AUTO 16007KT 9999NDV NCD 14/12 Q1015 RMK ATIS INFO C

2010/08/09 22:50
EGNJ 092250Z AUTO 20006KT 9999NDV BKN043/// 16/15 Q1010

2010/08/09 22:50
EGPA 092250Z AUTO 25005KT 9999NDV -RA BKN011/// 13/13 Q1005

2010/08/09 22:50
EGPC 092250Z AUTO 27007KT 9999NDV NCD 11/11 Q1005

2010/08/09 22:50
EGPE 092250Z AUTO 22003KT 9999NDV NCD 12/10 Q1005

2010/08/09 22:50
EGPL 092250Z AUTO 13005KT 9999NDV NCD 10/10 Q1004

2010/08/09 22:50
EGPM 092250Z AUTO 10009KT 9999NDV SCT035/// SCT040/// 13/13 Q1007

2010/08/09 22:50
EGPO 092250Z AUTO 00000KT 9999NDV NCD 08/06 Q1005

2010/08/09 22:55
EGVA 092255Z AUTO 20011KT 9999 OVC013 18/16 A2986 RMK AO2 OVC V BKN SLP111 T01760161 $

2010/08/09 22:55
EHGG 092255Z AUTO 12004KT 080V160 9999NDV NCD 15/13 Q1015

2010/08/09 22:55
EHKD 092255Z AUTO 16007KT 9999NDV BKN050/// BKN057/// 17/14 Q1014 BLU

2010/08/09 22:55
EHRD 092255Z 24004KT 9999 FEW046 15/13 Q1014 NOSIG

2010/08/09 22:50
ENEK 092250Z 18019KT 9999 BKN008 16/15 Q1009 W16/S4

2010/08/09 22:55
ETIK 092255Z AUTO 25003KT 9999 BKN060 OVC080 14/14 A3008 RMK AO2 SLP177 T01380136 402200109 $

2010/08/09 23:00
LDPL 092300Z 03004KT 350V070 CAVOK 19/17 Q1015

2010/08/09 23:00
LDSP 092300Z 33006KT CAVOK 25/14 Q1014

2010/08/09 22:50
LGBL 092250Z 24005KT CAVOK 24/16 Q1010 NOSIG BLU

2010/08/09 22:50
LGPZ 092250Z 00000KT 9999 FEW015 25/22 Q1012 NOSIG BLU

2010/08/09 22:50
LGRX 092250Z 00000KT CAVOK 24/20 Q1009 NOSIG BLU

2010/08/09 22:50
LGSY 092250Z 28004KT CAVOK 27/24 Q1008 NOSIG BLU

2010/08/09 22:50
LGTG 092250Z 00000KT CAVOK 24/17 Q1010 NOSIG BLU

2010/08/09 23:00
LWSK 092300Z 03005KT CAVOK 22/14 Q1016 NOSIG

2010/08/09 23:00
LBSF 092300Z 27004MPS CAVOK 20/16 Q1017 NOSIG

2010/08/09 23:00
LBWN 092300Z 27002MPS 180V340 CAVOK 24/21 Q1011 NOSIG

2010/08/09 23:00
LBBG 092300Z 36008MPS CAVOK 26/20 Q1010 NOSIG

2010/08/09 23:00
LBPD 092300Z 28005MPS CAVOK 25/18 Q1013 NOSIG

2010/08/09 23:00
LBGO 092300Z 27002MPS CAVOK 21/20 Q1014 NOSIG

2010/08/09 23:00
LUKK 092300Z 31006KT 9999 FEW050 22/19 Q1013 26CLRD65 NOSIG

2010/08/09 23:00
LDSP 092300Z 33006KT CAVOK 25/14 Q1014 

2010/08/09 23:00
LDPL 092300Z 03004KT 350V070 CAVOK 19/17 Q1015 

2010/08/09 23:00
LDDU 092300Z 02014KT 340V070 CAVOK 27/11 Q1013 

2010/08/09 23:00
LDZA 092300Z 03004KT 010V070 CAVOK 19/15 Q1017 NOSIG 

2010/08/09 23:00
LDZD 092300Z 25003KT 200V290 CAVOK 17/15 Q1014 

2010/08/09 23:00
LDOS 092300Z 34002KT CAVOK 19/17 Q1017

2010/08/09 23:00
UTTT 092300Z 05003MPS CAVOK 24/07 Q1006 R08R/CLRD70 TEMPO 03005G10MPS

2010/08/09 22:59
KNGU 092259Z 15004KT 10SM FEW250 31/21 A2999 RMK AO2 SLP157 T03060206 

2010/08/09 23:00
NWWW 092300Z AUTO 12005KT 050V170 9999NDV NCD 24/14 Q1025

2010/08/09 23:00
YSRI 092300Z AUTO 00000KT 8000NDV // BKN085 09/09 Q1019

2010/08/09 23:00
YSRI 092300Z AUTO 00000KT 8000NDV // BKN085 09/09 Q1019

2010/08/09 22:50
KQEI 092250Z AUTO 31004KT 6SM BR OVC007 24/21 A3000 RMK A02

2010/08/09 22:50
KQER 092250Z AUTO 02001KT 7SM SCT004 OVC015 23/21 A2992 RMK A02

2010/08/09 22:50
KQFU 092250Z AUTO 20002KT 1SM BR FEW002 SCT050 26/22 A2991 RMK A02

2010/08/09 22:50
KQFW 092250Z AUTO 05002KT 7SM CLR 24/21 A2994 RMK A02

2010/08/09 22:55
KQDM 092255Z AUTO VRB03KT 12SM FEW120 SCT150 16/15 A3008 RMK AO2 SLP100 T01630149 PWINO $

2010/08/09 22:55
KQDX 092255Z AUTO 16006KT 9000 30/M02 A2963 RMK AO2 SLP949 T03001022 $

2010/08/09 22:55
KQHA 092255Z 18001KT 9999 SCT050 BKN250 31/22 A2989 RMK AO2A LTG DSNT E SLP120 T03130222

2010/08/09 22:55
KQPV 092255Z AUTO VRB03KT 9999 FEW180 35/05 A2956 RMK AO2 SLP001 T03470050

2010/08/09 22:55
KQQR 092255Z AUTO 13003KT 9999 SCT037 25/20 A2983 RMK AO2 LTG DSNT NW SLP028 T02540200 $

2010/08/09 22:55
KQRY 092255Z AUTO 22002KT 9999 FEW120 BKN160 17/15 A3004 RMK AO2 SLP101 T01650147

2010/08/09 22:55
KQXF 092255Z AUTO 36004KT 9999 FEW200 33/01 A2953 RMK AO2 SLP988 T03280012 $

2010/08/09 22:55
KQXR 092255Z AUTO 30004KT 9999 CLR 33/M05 A2943 RMK AO2 SLP966 T03301051 $

2010/08/09 22:55
KQYU 092255Z AUTO 07009G15KT 9999 CLR 25/M01 A2989 RMK AO2 SLP039 T02541008

2010/08/09 23:00
NWWU 092300Z AUTO 11017KT 9999NDV BKN026/// OVC032/// 23/18 Q1023

2010/08/09 23:00
NWWL 092300Z AUTO 12016KT 090V150 9999NDV BKN024/// BKN032/// OVC052/// 23/18 Q1024

2010/08/09 23:00
TFFF 092300Z VRB02KT 9999 FEW023 SCT060 27/25 Q1013 NOSIG

2010/08/09 22:55
KLDM 092255Z AUTO 23007KT 10SM CLR 26/22 A2992 RMK AO2

2010/08/09 22:55
KPHN 092255Z AUTO 16004KT 10SM SCT100 25/21 A2992 RMK AO2

2010/08/09 22:55
KRMY 092255Z AUTO 22004KT 10SM SCT021 BKN028 BKN034 27/23 A2994 RMK AO2

2010/08/09 22:56
KOSC 092256Z AUTO 24005KT 10SM SCT014 27/23 A2989 RMK AO2

2010/08/09 22:53
KTTF 092253Z AUTO 00000KT 4SM BR SCT009 OVC065 24/24 A2992 RMK AO2

2010/08/09 22:55
KMCD 092255Z AUTO 00000KT 10SM CLR 24/19 A2991 RMK AO2

2010/08/09 22:56
PAUO 092256Z 02005KT 10SM BKN005 BKN010 OVC030 14/13 A2967 RMK 401660114 70011 NOSPECI

2010/08/09 22:55
KBVU 092255Z AUTO 18010G16KT 10SM CLR 36/M06 A2986 RMK AO2

2010/08/09 22:55
KDMA 092255Z AUTO 30007KT 10SM BKN150 35/14 A2989 RMK AO2 SLP048 T03530138 VISNO RWY12 CHINO RWY12 $

2010/08/09 22:55
KGUS 092255Z 26004KT 10SM FEW050 BKN250 31/25 A2994 RMK AO2A SLP132 T03090249

2010/08/09 22:55
KMTN 092255Z 15012KT 10SM SKC 31/22 A2996

2010/08/09 22:55
KNBG 092255Z 00000KT 8SM FEW008 SCT130 OVC250 26/24 A2995 RMK AO2 SLP140 T2 SET T02610239 $

2010/08/09 22:56
KNCA 092256Z 00000KT 10SM 29/24 A3001 RMK AO2 SLP162 T02940239 $

2010/08/09 22:56
KNXX 092256Z 22007KT 9SM FEW050 SCT100 BKN200 30/18 A2996 RMK AO2 SLP147 T03000183 $

2010/08/09 22:55
KPSM 092255Z 04012KT 10SM FEW060 BKN085 BKN130 OVC200 27/20 A2986 RMK AO2A LTG DSNT E SLP114 T02650195

2010/08/09 22:45
KUES 092245Z 32005KT 10SM SCT032 28/20 A2993

2010/08/09 23:00
KBIL 092300Z 29015KT 10SM BKN100 21/13 A2988 RMK AO2 WSHFT 2240 OCNL LTG DSNT N-E CB DSNT N-E

2010/08/09 23:00
KCLM 092300Z AUTO VRB03KT 10SM FEW009 OVC026 16/13 A2998 RMK AO2

2010/08/09 23:00
KLEB 092300Z 35003KT 6SM -RA BR SCT016 BKN065 OVC080 21/18 A2990 RMK AO2 LTG DSNT W-NE TSE2254 P0001

2010/08/09 23:00
KPUB 092300Z AUTO 19015G21KT 10SM -RA BKN023 BKN060 OVC080 21/17 A3006 RMK AO2 LTG DSNT NE-SE P0000

2010/08/09 23:00
KRIW 092300Z AUTO 27010KT 10SM FEW110 29/03 A2994 RMK AO2 WSHFT 2240

2010/08/09 22:51
KP58 092251Z AUTO VRB04KT 26/22 A2989 RMK AO2 SLP112 T02610217 PWINO TSNO

2010/08/09 22:54
KAPN 092254Z 10004KT 10SM FEW070 24/21 A2990 RMK AO2 SLP121 T02440211 $

2010/08/09 22:56
KBIH 092256Z AUTO 14017G27KT 10SM CLR 32/M07 A2989 RMK AO2 PK WND 18027/2247 SLP076 T03221072 TSNO

2010/08/09 22:56
KMEH 092256Z AUTO 28007KT 10SM CLR 24/05 A2988 RMK AO2 SLP106 T02390050 TSNO

2010/08/09 22:55
KLDM 092255Z AUTO 23007KT 10SM CLR 26/22 A2992 RMK AO2

2010/08/09 22:55
KPHN 092255Z AUTO 16004KT 10SM SCT100 25/21 A2992 RMK AO2

2010/08/09 22:55
KRMY 092255Z AUTO 22004KT 10SM SCT021 BKN028 BKN034 27/23 A2994 RMK AO2

2010/08/09 22:56
KOSC 092256Z AUTO 24005KT 10SM SCT014 27/23 A2989 RMK AO2

2010/08/09 22:53
KTTF 092253Z AUTO 00000KT 4SM BR SCT009 OVC065 24/24 A2992 RMK AO2

2010/08/09 22:55
KMCD 092255Z AUTO 00000KT 10SM CLR 24/19 A2991 RMK AO2

2010/08/09 23:00
SBSP 092300Z 15006KT 5000 BR BKN015 13/11 Q1026

2010/08/09 23:00
SBBE 092300Z 05007KT 9999 FEW020 28/23 Q1012

2010/08/09 23:00
SBLO 092300Z 28003KT CAVOK 24/07 Q1019

2010/08/09 23:00
SBGO 092300Z 12005KT CAVOK 25/08 Q1019

2010/08/09 23:00
SBRP 092300Z 04003KT CAVOK 23/10 Q1019

2010/08/09 23:00
SBPS 092300Z 03006KT 9999 FEW020 20/18 Q1018

2010/08/09 23:00
SBPL 092300Z 13009KT 9999 SCT023 SCT070 26/15 Q1018

2010/08/09 23:00
SBCZ 092300Z 00000KT 5000 HZ FU NSC 27/22 Q1013

2010/08/09 23:00
FAVV 092300Z AUTO 19003KT //// // ////// 02/M12 Q1027

2010/08/09 23:00
FAJB 092300Z AUTO 20003KT //// // ////// 03/M12 Q1028

2010/08/09 23:00
FASI 092300Z AUTO 20003KT //// // ////// 04/M10 Q1028

2010/08/09 23:00
FAGC 092300Z AUTO 18010KT //// // ////// 03/M12 Q1028

2010/08/09 23:00
SBCT 092300Z 10007KT 9000 OVC004 08/07 Q1025

2010/08/09 23:00
SBMN 092300Z 00000KT 9999 FEW020 29/24 Q1011

2010/08/09 23:00
SBNF 092300Z 16006KT 9999 FEW020 BKN055 17/11 Q1024

2010/08/09 22:45
MMDO 092245Z 33006KT 14SM OVC200 28/17 A3012 RMK 8/003 BINOVC CU AC ARND

2010/08/09 22:49
MMLP 092249Z 36010KT 10SM SKC 37/14 A2973 RMK SC 2QUAD

2010/08/09 22:45
MMLT 092245Z 06005KT 8SM FEW200 36/22 A2973 RMK 8/009

2010/08/09 22:51
MMSL 092251Z 18008KT 12SM BKN200 33/21 A2982 RMK 8/008

2010/08/09 22:46
MMTJ 092246Z 33010KT 7SM SKC 23/16 A2991 RMK ST W HZY

2010/08/09 23:00
SBEG 092300Z 24005KT 9999 FEW023 27/23 Q1011

2010/08/09 23:00
YBCS 092300Z 12008KT 2500 -SHRA FEW003 BKN018 BKN030 23/22 Q1016

2010/08/09 23:00
SBNT 092300Z 17003KT 9999 SCT010 SCT020 OVC070 23/22 Q1016

2010/08/09 22:55
MMMT 092255Z 36010KT 10SM SCT020 SCT180 31/26 A2980 RMK SLP166 55004 904 8/101

2010/08/09 23:00
YSRI 092300Z AUTO 00000KT 8000NDV // BKN085 09/09 Q1019

2010/08/09 22:50
ESGG 092250Z 24007KT 9999 FEW024 OVC030 14/11 Q1013

2010/08/09 22:50
ESGJ 092250Z 24009KT 9999 BKN026 BKN032 14/12 Q1012

2010/08/09 22:50
ESGP 092250Z 25010KT 9999 FEW024 OVC035 16/12 Q1012

2010/08/09 22:50
ESMQ 092250Z AUTO 23006KT 9999NDV OVC040/// 15/13 Q1014

2010/08/09 22:50
ESMS 092250Z 23004KT 9999 OVC038 12/11 Q1016

2010/08/09 22:50
ESMT 092250Z AUTO 27009KT 9999NDV FEW035/// OVC039/// 16/11 Q1014

2010/08/09 22:50
ESMX 092250Z 23006KT 9999 OVC032 14/13 Q1014

2010/08/09 22:50
ESTA 092250Z AUTO 27010KT 9999NDV OVC040/// 17/10 Q1014

2010/08/09 23:00
OPKC 092300Z 27004KT 7000 FEW020 SCT100 27/25 Q.1001 NOSIG

2010/08/09 22:55
OPLA 092255Z 00000KT 4000 FU FEW100 29/28 Q1001 NOSIG

2010/08/09 23:00
OPRN 092300Z 00000KT 4000 HZ FEW040 27/25 Q1003.6

2010/08/09 23:00
UTTT 092300Z 05003MPS CAVOK 24/07 Q1006 R08R/CLRD70 TEMPO 03005G10MPS

2010/08/09 22:55
YBCS 092255Z 11007KT 3000 -SHRA FEW003 BKN018 BKN030 23/22 Q1016 FM2255 12008KT 9999 -SHRA FEW003 SCT020 BKN030 TEMPO 2255/2400 4000 -SHRA FEW003 BKN018 INTER 0000/0155 4000 -SHRA FEW010 BKN018

2010/08/09 22:53
KRYT 092253Z AUTO 00000KT 10SM CLR 32/18 A2995 RMK AO2 SLP127 T03220183 $

2010/08/09 22:56
K79J 092256Z AUTO 15006KT 10SM CLR 35/20 A2991 RMK AO2 SLP124 T03500200 TSNO PNO $

2010/08/09 22:55
KCVS 092255Z 18015KT 10SM FEW080 SCT140 30/14 A3000 RMK AO2A SLP111 T03020140 $

2010/08/09 22:55
KDMA 092255Z AUTO 30007KT 10SM BKN150 35/14 A2989 RMK AO2 SLP048 T03530138 VISNO RWY12 CHINO RWY12 $

2010/08/09 22:55
KFHU 092255Z VRB04KT 50SM SCT050CB 31/15 A3006 RMK CB DSNT NE SLP108 SH DSNT NE

2010/08/09 22:55
KGUS 092255Z 26004KT 10SM FEW050 BKN250 31/25 A2994 RMK AO2A SLP132 T03090249

2010/08/09 22:56
KHLR 092256Z AUTO 11013G21KT 080V160 10SM FEW070 38/18 A2986 RMK AO2 SLP101 T03780183 $

2010/08/09 22:55
KHOP 092255Z AUTO 20007KT 10SM CLR 33/25 A2992 RMK AO2 SLP127 T03270246

2010/08/09 22:55
KLSV 092255Z AUTO 07004KT 10SM CLR 36/00 A2983 RMK AO2 SLP084 T03580000 PWINO

2010/08/09 22:56
KNBC 092256Z 11008KT 10SM FEW065 31/24 A2996 RMK AO2 SLP145 T03060239 $

2010/08/09 22:55
KNBG 092255Z 00000KT 8SM FEW008 SCT130 OVC250 26/24 A2995 RMK AO2 SLP140 T2 SET T02610239 $

2010/08/09 22:56
KNCA 092256Z 00000KT 10SM 29/24 A3001 RMK AO2 SLP162 T02940239 $

2010/08/09 22:57
KNJM 092257Z AUTO 20007KT 10SM FEW015 BKN060 BKN095 28/25 A3001 RMK AO2 SLP167 T02780250

2010/08/09 22:57
KNJM 092257Z AUTO 20007KT 10SM FEW015 BKN060 BKN095 28/25 A3001 RMK AO2 SLP167 T02780250

2010/08/09 22:56
KNRS 092256Z 27008KT 10SM FEW017 21/13 A2990 RMK AO2 SLP124 T02060133

2010/08/09 22:56
KNUQ 092256Z 33010KT 10SM CLR 22/13 A2988 RMK AO2 SLP120 T02170133

2010/08/09 22:56
KNTU 092256Z 11006KT 10SM FEW200 27/23 A2998 RMK AO2 SLP156 T02720228 $

2010/08/09 22:55
KBIX 092255Z 21004KT 10SM FEW160 30/25 A2993 RMK AO2A SLPNO T02950250 $

2010/08/09 22:55
KCOF 092255Z 12009KT 10SM CLR 29/23 A2991 RMK AO2A SLP130 T02870233

2010/08/09 22:55
KLFI 092255Z 12007KT 10SM CLR 29/21 A2998 RMK AO2A SLP154 T02910207

2010/08/09 22:55
KMCF 092255Z AUTO 01007KT 10SM -RA FEW014 SCT035 28/27 A2986 RMK AO2 LTG DSNT NE RAB2249DZB2235E2249 TSE2201 SLP113 P0000 T02810268

2010/08/09 22:55
KNBG 092255Z 00000KT 8SM FEW008 SCT130 OVC250 26/24 A2995 RMK AO2 SLP140 T2 SET T02610239 $

2010/08/09 22:57
KNJM 092257Z AUTO 20007KT 10SM FEW015 BKN060 BKN095 28/25 A3001 RMK AO2 SLP167 T02780250

2010/08/09 22:56
KNPA 092256Z 21006KT 10SM FEW040 BKN080 BKN140 BKN250 32/22 A2991 RMK AO2 SLP130 VCSH NW-N T2 SET T03170222

2010/08/09 22:55
KPAM 092255Z AUTO 22006KT 10SM CLR 31/26 A2990 RMK AO2 SLP126 T03120259 $

2010/08/09 22:55
KVAD 092255Z AUTO 09004KT 10SM CLR 32/24 A2992 RMK AO2 SLP130 T03200241 $

2010/08/09 22:56
KNFL 092256Z VRB06KT 10SM SCT070 33/M01 A2988 RMK AO2 SLP093 T03281006

2010/08/09 22:56
KNID 092256Z 17011G16KT 10SM CLR 36/M08 A2984 RMK AO2 SLP082 T03561078 $

2010/08/09 22:55
KNKX 092255Z 31008KT 10SM FEW020 23/13 A2989 RMK AO2 SLP116 T02280133

2010/08/09 22:56
KNLC 092256Z VRB03KT 10SM CLR 33/12 A2979 RMK AO2 SLP087 RH/27 T03330117

2010/08/09 22:56
KNPA 092256Z 21006KT 10SM FEW040 BKN080 BKN140 BKN250 32/22 A2991 RMK AO2 SLP130 VCSH NW-N T2 SET T03170222

2010/08/09 22:56
KNTU 092256Z 11006KT 10SM FEW200 27/23 A2998 RMK AO2 SLP156 T02720228 $

2010/08/09 22:56
KNUW 092256Z 00000KT 10SM FEW006 BKN014 OVC030 16/13 A2998 RMK AO2 RAE40 SLP155 P0000 T01550134 $

2010/08/09 22:56
KNXP 092256Z 14011G19KT 7SM CLR 37/M07 A2988 RMK AO2 SLP080 T03671072 $

2010/08/09 22:56
KNXX 092256Z 22007KT 9SM FEW050 SCT100 BKN200 30/18 A2996 RMK AO2 SLP147 T03000183 $

2010/08/09 22:55
KNYL 092255Z 18005KT 10SM FEW080 40/03 A2971 RMK AO2 SLP056 T04000028

2010/08/09 22:55
KPOE 092255Z AUTO 19006KT 10SM CLR 35/22 A2990 RMK AO2 SLP125 T03500222

2010/08/09 22:55
KPSM 092255Z 04012KT 10SM FEW060 BKN085 BKN130 OVC200 27/20 A2986 RMK AO2A LTG DSNT E SLP114 T02650195

2010/08/09 22:55
KRCA 092255Z 18018G22KT 10SM SCT070CB BKN150 25/14 A2993 RMK AO2A CB 12E MOV E PK WND 22027/2159 SLP114 T02460138 $

2010/08/09 22:55
KSKF 092255Z 12008KT 10SM FEW065 SCT250 36/23 A2985 RMK AO2A SLP096 T03640228 $

2010/08/09 22:50
LTAJ 092250Z 27003KT CAVOK 23/15 Q1006 NOSIG

2010/08/09 22:50
LTAN 092250Z 30014KT CAVOK 28/10 Q1012 NOSIG

2010/08/09 22:50
LTAU 092250Z 06008KT CAVOK 16/08 Q1012 NOSIG

2010/08/09 22:50
LTCC 092250Z 30006KT CAVOK 21/01 Q1006 NOSIG

2010/08/09 22:50
LTCE 092250Z 06009KT 030V120 CAVOK 18/09 Q1017 NOSIG

2010/08/09 22:50
LTCG 092250Z 21004KT 9999 SCT035 BKN100 26/22 Q1007 NOSIG

2010/08/09 22:50
LTCI 092250Z 33003KT 280V020 9999 FEW040 16/04 Q1015 NOSIG

2010/08/09 22:50
LTFE 092250Z 28003KT CAVOK 26/23 Q1005 NOSIG

2010/08/09 23:00
SBCR 092300Z 22012KT CAVOK 25/07 Q1015

2010/08/09 22:55
KVBG 092255Z 30007KT 10SM FEW008 SCT014 16/12 A2993 RMK AO2 SLP127 WND ESTMD T01610117 VISNO RWY12 $

2010/08/09 22:55
PHSF 092255Z 29009G14KT 7SM FEW020 SCT200 25/11 A3031 RMK SLPNO

2010/08/09 22:55
KDMA 092255Z AUTO 30007KT 10SM BKN150 35/14 A2989 RMK AO2 SLP048 T03530138 VISNO RWY12 CHINO RWY12 $

2010/08/09 22:55
KHOP 092255Z AUTO 20007KT 10SM CLR 33/25 A2992 RMK AO2 SLP127 T03270246

2010/08/09 22:56
KNBC 092256Z 11008KT 10SM FEW065 31/24 A2996 RMK AO2 SLP145 T03060239 $

2010/08/09 22:56
KNGP 092256Z 13011KT 10SM FEW018 SCT040 SCT250 31/26 A2986 RMK AO2 SLP111 T03110261

2010/08/09 22:56
KNID 092256Z 17011G16KT 10SM CLR 36/M08 A2984 RMK AO2 SLP082 T03561078 $

2010/08/09 22:56
KNLC 092256Z VRB03KT 10SM CLR 33/12 A2979 RMK AO2 SLP087 RH/27 T03330117

2010/08/09 22:56
KNTD 092256Z 23008KT 7SM CLR 18/13 A2990 RMK AO2 SLP127 LAG PK 12/12/13003KT T01830133 $

2010/08/09 22:56
KNTU 092256Z 11006KT 10SM FEW200 27/23 A2998 RMK AO2 SLP156 T02720228 $

2010/08/09 22:56
KNXX 092256Z 22007KT 9SM FEW050 SCT100 BKN200 30/18 A2996 RMK AO2 SLP147 T03000183 $

2010/08/09 22:55
KPSM 092255Z 04012KT 10SM FEW060 BKN085 BKN130 OVC200 27/20 A2986 RMK AO2A LTG DSNT E SLP114 T02650195

2010/08/09 22:55
KSKF 092255Z 12008KT 10SM FEW065 SCT250 36/23 A2985 RMK AO2A SLP096 T03640228 $

2010/08/09 22:56
PASY 092256Z 27007KT 10SM OVC040 10/09 A2987 RMK AO2 SLP114 T01000089 PNO $

2010/08/09 22:55
PHSF 092255Z 29009G14KT 7SM FEW020 SCT200 25/11 A3031 RMK SLPNO

2010/08/09 22:59
KNGU 092259Z 15004KT 10SM FEW250 31/21 A2999 RMK AO2 SLP157 T03060206

2010/08/09 22:55
KDMA 092255Z AUTO 30007KT 10SM BKN150 35/14 A2989 RMK AO2 SLP048 T03530138 VISNO RWY12 CHINO RWY12 $

2010/08/09 22:55
KGUS 092255Z 26004KT 10SM FEW050 BKN250 31/25 A2994 RMK AO2A SLP132 T03090249

2010/08/09 22:55
KNBG 092255Z 00000KT 8SM FEW008 SCT130 OVC250 26/24 A2995 RMK AO2 SLP140 T2 SET T02610239 $

2010/08/09 22:56
KNCA 092256Z 00000KT 10SM 29/24 A3001 RMK AO2 SLP162 T02940239 $

2010/08/09 22:56
KNXX 092256Z 22007KT 9SM FEW050 SCT100 BKN200 30/18 A2996 RMK AO2 SLP147 T03000183 $

2010/08/09 22:55
KPSM 092255Z 04012KT 10SM FEW060 BKN085 BKN130 OVC200 27/20 A2986 RMK AO2A LTG DSNT E SLP114 T02650195

2010/08/09 22:55
PHSF 092255Z 29009G14KT 7SM FEW020 SCT200 25/11 A3031 RMK SLPNO

2010/08/09 22:50
ESMK 092250Z AUTO 22005KT 9999NDV NCD 12/11 Q1015

2010/08/09 23:00
KBIL 092300Z 29015KT 10SM BKN100 21/13 A2988 RMK AO2 WSHFT 2240 OCNL LTG DSNT N-E CB DSNT N-E

2010/08/09 23:00
KRIW 092300Z AUTO 27010KT 10SM FEW110 29/03 A2994 RMK AO2 WSHFT 2240

2010/08/09 23:00
SBTF 092300Z 00000KT 9999 TS FEW010 FEW030CB OVC100 25/24 Q1011

2010/08/09 23:00
SBRJ 092300Z 19007KT 9999 BKN015 SCT025 BKN040 22/19 Q1022

2010/08/09 22:57
KNJM 092257Z AUTO 20007KT 10SM FEW015 BKN060 BKN095 28/25 A3001 RMK AO2 SLP167 T02780250

2010/08/09 22:50
EGVN 092250Z 20008KT 9999 SCT014 SCT026 BKN080 18/15 Q1011 NOSIG

2010/08/09 22:50
EFET 092250Z AUTO 03006KT 360V060 9999 OVC037 10/08 Q1012

2010/08/09 22:50
EFIV 092250Z AUTO 02010KT 9999 OVC008 10/09 Q1012

2010/08/09 22:50
EFKE 092250Z AUTO 36009KT 9999 OVC010 14/12 Q1009

2010/08/09 22:50
EFKI 092250Z AUTO 18004KT 130V220 //// FEW029 SCT072 18/17 Q1009

2010/08/09 22:50
EFKS 092250Z AUTO 28002KT 9999 OVC008 17/16 Q1008

2010/08/09 22:50
EFKT 092250Z AUTO 01005KT 330V050 9999 OVC011 11/09 Q1012

2010/08/09 23:00
SBGL 092300Z 23006KT 9999 SCT012 BKN050 21/17 Q1023

2010/08/09 22:50
ESTL 092250Z AUTO 22006KT 9999NDV OVC043/// 15/11 Q1015

2010/08/09 22:55
K4M9 092255Z AUTO 23005KT 10SM -RA CLR 35/26 A2988 RMK AO2 P0002

2010/08/09 22:55
KCNW 092255Z 13004KT 10SM SCT065 37/19 A2985

2010/08/09 22:55
KEFT 092255Z AUTO 00000KT 10SM SCT031 31/22 A2993 RMK AO2 T03080221

2010/08/09 22:51
KEGV 092251Z AUTO 34006KT 10SM CLR 29/15 A2995 RMK AO2 T02910152

2010/08/09 22:52
KETB 092252Z AUTO 34003KT 10SM SCT032 29/20 A2991 RMK AO2 T02890204

2010/08/09 22:52
KGLW 092252Z AUTO 00000KT 10SM CLR 34/22 A2993 RMK AO2 T03430218

2010/08/09 22:54
KLAL 092254Z 08004KT 15SM FEW060 SCT120 BKN250 32/24 A2986

2010/08/09 22:55
KLUM 092255Z AUTO 01005KT 10SM CLR 32/17 A2991 RMK AO2

2010/08/09 22:55
KMAN 092255Z AUTO 07003KT 10SM CLR 30/06 A2979 RMK AO1

2010/08/09 22:55
KMCJ 092255Z AUTO 12005G15KT 040V020 10SM CLR 33/23 A2986 RMK AO1

2010/08/09 22:55
KMRJ 092255Z AUTO 00000KT 10SM SCT030 31/22 A2993 RMK AO2 T03120219

2010/08/09 22:55
KOEO 092255Z AUTO 07004KT 10SM CLR 32/20 A2993 RMK AO2

2010/08/09 22:55
KPBH 092255Z AUTO 36003KT 10SM CLR 31/17 A2997 RMK AO2

2010/08/09 22:55
KPCZ 092255Z AUTO 00000KT 10SM CLR 33/22 A2989 RMK AO2 T03250215

2010/08/09 22:52
KPDC 092252Z AUTO 03003KT 10SM CLR 32/24 A2989 RMK AO2 T03160244

2010/08/09 22:55
KRCX 092255Z AUTO 01004KT 10SM CLR 31/20 A2995 RMK AO2 T03070195

2010/08/09 22:56
KRNH 092256Z AUTO 02003KT 10SM CLR 31/19 A2993 RMK AO2 T03100190

2010/08/09 22:45
KSCH 092245Z 27004KT 10SM CLR 30/18 A2989

2010/08/09 22:56
KY50 092256Z AUTO 34004KT 10SM CLR 32/22 A2990 RMK AO2 T03160216 SLP116

2010/08/09 22:56
PPIZ 092256Z AUTO 05024G31KT 10SM BKN019 08/03 A2967 RMK AO2 TSNO T00770027 BKN V SCT PK WND 07031/2211 SLP050 $

2010/08/09 22:55
KSDA 092255Z AUTO 15005KT 10SM 35/27 A2984 RMK AO2

2010/08/09 22:55
KSHL 092255Z AUTO 11004KT 10SM OVC025 27/24 A2993 RMK AO2

2010/08/09 22:55
KSTE 092255Z AUTO 29005KT 10SM CLR 32/20 A2992 RMK AO2

2010/08/09 22:55
KSUW 092255Z AUTO 26004KT 10SM CLR 32/19 A2988 RMK AO2

2010/08/09 22:55
KTNU 092255Z AUTO 10003KT 10SM BKN041 OVC049 31/25 A2990 RMK AO2

2010/08/09 22:55
KTVK 092255Z AUTO 10SM FEW030 31/26 A2990 RMK AO2

2010/08/09 22:55
KUNU 092255Z AUTO 32003KT 10SM SCT027 29/21 A2992 RMK AO2 T02870206

2010/08/09 22:55
K1A6 092255Z AUTO 25003KT 10SM CLR 34/27 A2999 RMK AO2

2010/08/09 22:55
KAWG 092255Z AUTO 17003KT 10SM 31/25 A2990 RMK AO2

2010/08/09 22:55
KAXA 092255Z AUTO 10005KT 10SM OVC042 29/24 A2991 RMK AO2

2010/08/09 22:55
KBNW 092255Z AUTO 12004KT 10SM BKN036 BKN050 30/25 A2990 RMK AO2

2010/08/09 22:55
KCAV 092255Z AUTO 13004KT 10SM SCT025 BKN048 31/25 A2991 RMK AO2

2010/08/09 22:55
KCBF 092255Z AUTO 11003KT 10SM CLR 35/26 A2986 RMK AO2

2010/08/09 22:55
KCNC 092255Z AUTO 00000KT 10SM SCT034 32/26 A2988 RMK AO2

2010/08/09 22:55
KCSQ 092255Z AUTO 18005KT 10SM CLR 33/30 A2989 RMK AO2

2010/08/09 22:55
KDEH 092255Z AUTO 03004KT 10SM SCT039 32/22 A2994 RMK AO2

2010/08/09 22:55
KDNS 092255Z AUTO 06009KT 10SM CLR 30/25 A2990 RMK AO2

2010/08/09 22:55
KEBS 092255Z AUTO 12003KT 10SM SCT024 SCT045 30/23 A2990 RMK AO2

2010/08/09 22:55
KEOK 092255Z AUTO 00000KT 10SM SCT120 33/26 A2988 RMK AO2

2010/08/09 22:55
KFFL 092255Z AUTO 00000KT 10SM SCT027 30/26 A2990 RMK AO2

2010/08/09 22:55
KFSW 092255Z AUTO 08003KT 10SM CLR 33/25 A2989 RMK AO2

2010/08/09 22:55
KFXY 092255Z AUTO 09005KT 10SM SCT037 SCT070 29/22 A2992 RMK AO2

2010/08/09 22:55
KGGI 092255Z AUTO 11003KT 10SM OVC055 30/23 A2991 RMK AO2

2010/08/09 22:56
KGON 092256Z COR 23007KT 6SM HZ CLR 26/21 A2993 RMK AO2 SLP134 T02560206

2010/08/09 22:55
KHNR 092255Z AUTO 14003KT 10SM CLR 31/26 A2989 RMK AO2

2010/08/09 22:55
KICL 092255Z AUTO 10003KT 10SM CLR 35/25 A2985 RMK AO2

2010/08/09 22:55
KIIB 092255Z AUTO 13004KT 10SM BKN042 BKN080 31/23 A2992 RMK AO1

2010/08/09 22:55
KIKV 092255Z AUTO 07005KT 10SM SCT032 BKN050 31/26 A2989 RMK AO2

2010/08/09 22:55
KISO 092255Z 14004KT 7SM CLR 32/21 A2999

2010/08/09 22:55
KLNL 092255Z AUTO 34005KT 10SM CLR 28/15 A2997 RMK AO2 T02810145

2010/08/09 22:55
KLRJ 092255Z AUTO 07007KT 10SM BKN018 27/22 A2989 RMK AO2

2010/08/09 22:55
KMDZ 092255Z AUTO 34004KT 10SM CLR 31/19 A2995 RMK AO2

2010/08/09 22:55
KMPZ 092255Z AUTO 15003KT 10SM CLR 31/23 A2989 RMK AO2

2010/08/09 22:55
KMUT 092255Z AUTO 10007KT 10SM CLR 31/26 A2989 RMK AO2

2010/08/09 22:55
KMXO 092255Z AUTO 15005KT 10SM CLR 30/25 A2991 RMK AO2

2010/08/09 22:55
KOOA 092255Z AUTO 11005KT 10SM SCT024 31/25 A2990 RMK AO2

2010/08/09 22:58
KMVL 092258Z AUTO 00000KT 2 1/2SM VCTS -RA BR SCT010 BKN038 OVC055 22/20 A2991 RMK AO2 LTG DSNT E AND S TSB55RAB58 P0001

2010/08/09 22:56
PAGA 092256Z AUTO 15011KT 10SM FEW023 SCT029 OVC048 16/11 A2949 RMK AO2 RAE37 P0000

2010/08/09 22:59
KDDC 092259Z AUTO 17015KT 10SM VCTS CLR 34/16 A2986 RMK AO2 LTG DSNT SW-NW TSB53

2010/08/09 23:00
KCLM 092300Z AUTO VRB03KT 10SM FEW009 OVC026 16/13 A2998 RMK AO2

2010/08/09 23:00
KLEB 092300Z 35003KT 6SM -RA BR SCT016 BKN065 OVC080 21/18 A2990 RMK AO2 LTG DSNT W-NE TSE2254 P0001

2010/08/09 23:00
KPUB 092300Z AUTO 19015G21KT 10SM -RA BKN023 BKN060 OVC080 21/17 A3006 RMK AO2 LTG DSNT NE-SE P0000

2010/08/09 22:56
KHLR 092256Z AUTO 11013G21KT 080V160 10SM FEW070 38/18 A2986 RMK AO2 SLP101 T03780183 $

2010/08/09 22:56
KNCA 092256Z 00000KT 10SM 29/24 A3001 RMK AO2 SLP162 T02940239 $

2010/08/09 22:56
KNMM 092256Z 18003KT 10SM FEW055 SCT250 34/23 A2992 RMK AO2 SLP138 T2 SET T03440228 $

2010/08/09 22:56
KNQI 092256Z 12012KT 10SM FEW030CB SCT140 SCT280 35/25 A2984 RMK AO2 SLP102 CB DSNT SW TCU DSNT E T03450245 $

2010/08/09 22:56
KNRS 092256Z 27008KT 10SM FEW017 21/13 A2990 RMK AO2 SLP124 T02060133

2010/08/09 22:56
KNSE 092256Z 22006KT 9SM FEW038TCU SCT060 BKN100 32/24 A2992 RMK AO2 SLP115 TCU NW T2 SET T03170239 $

2010/08/09 22:56
KNUQ 092256Z 33010KT 10SM CLR 22/13 A2988 RMK AO2 SLP120 T02170133

2010/08/09 22:52
KNZY 092252Z 29009KT 10SM FEW019 24/13 A2988 RMK AO2 SLP117 T02390133 $

2010/08/09 22:50
MUCF 092250Z 00000KT 7000 -RA FEW012 OVC070 24/23 Q1014

2010/08/09 22:52
MUCL 092252Z 10004KT 9000 FEW015 OVC060 26/25 Q1014

2010/08/09 22:50
MUCM 092250Z 35014G25KT 330V030 7000 -TSRA FEW016CB BKN018 26/21 Q10 14

2010/08/09 22:52
MUCU 092252Z 13008KT 090V160 9000 FEW020CB SCT025 29/25 Q1014

2010/08/09 22:55
MUHA 092255Z 20008KT 7000 SCT020 BKN110 26/24 Q1013

2010/08/09 22:53
MUHG 092253Z 12004KT 7000 VCTS SCT020CB BKN080 23/22 Q1013

2010/08/09 22:50
MUVR 092250Z 20003KT 150V240 9000 FEW018 OVC060 24/22 Q1014

2010/08/09 23:00
MYNN 092300Z 23004KT 9000 SHRA SCT012CB BKN015 OVC080 25/24 A2999

2010/08/09 22:54
OAHR 092254Z AUTO /////KT //// // ////// 25/00 Q1010

2010/08/09 23:00
OJAI 092300Z 28006KT CAVOK 21/16 Q1009 NOSIG

2010/08/09 23:00
OJAM 092300Z 00000KT 5000 NSC 24/14 Q1009 NOSIG

2010/08/09 22:55
PAFB 092255Z 02003KT 13SM BKN075 BKN120 19/08 A2957 RMK SLP012

2010/08/09 22:58
PAGA 092258Z AUTO 15013KT 10SM FEW023 SCT029 OVC048 16/11 A2949 RMK AO2 RAE37 SLPNO P0000 T01560111

2010/08/09 22:54
KAPN 092254Z 10004KT 10SM FEW070 24/21 A2990 RMK AO2 SLP121 T02440211 $

2010/08/09 22:56
KBIH 092256Z AUTO 14017G27KT 10SM CLR 32/M07 A2989 RMK AO2 PK WND 18027/2247 SLP076 T03221072 TSNO

2010/08/09 22:56
KMEH 092256Z AUTO 28007KT 10SM CLR 24/05 A2988 RMK AO2 SLP106 T02390050 TSNO

2010/08/09 22:55
EBBL 092255Z VRB02KT 9999 FEW070 12/11 Q1016 BLU

2010/08/09 22:55
EBFN 092255Z 19005KT 9999 FEW023 13/11 Q1015 BLU

2010/08/09 22:55
EBFS 092255Z 14002KT 9999 FEW250 15/11 Q1016 BLU

2010/08/09 22:50
LTAC 092250Z VRB02KT CAVOK 20/09 Q1013 NOSIG

2010/08/09 22:50
LTAF 092250Z /////KT 9999 FEW035 26/23 Q1006 NOSIG

2010/08/09 22:50
LTAI 092250Z 00000KT CAVOK 27/24 Q1004 NOSIG

2010/08/09 22:50
LTBA 092250Z 35005KT 330V050 9999 SCT035 27/25 Q1009 NOSIG

2010/08/09 22:50
LTBJ 092250Z 01008KT CAVOK 29/21 Q1006 NOSIG

2010/08/09 22:50
LTBS 092250Z VRB02KT CAVOK 25/23 Q1005 NOSIG

2010/08/09 23:01
PADM 092301Z AUTO 15018G22KT 2SM -RA BR BKN020 OVC031 11/09 A2941 RMK AO2 TSNO T01110088 P0000 SLP947 $

2010/08/09 22:50
EETU 092250Z AUTO 15005KT 9999NDV OVC150/// 17/16 Q1014

2010/08/09 22:50
EDXW 092250Z AUTO 16007KT 9999NDV NCD 14/12 Q1015 RMK ATIS INFO C

2010/08/09 22:55
KORC 092255Z AUTO 10007KT 10SM OVC018 27/26 A2991 RMK AO2

2010/08/09 22:55
KPEA 092255Z AUTO 10SM CLR A2989 RMK AO2

2010/08/09 22:55
KRDK 092255Z AUTO 00000KT 10SM 34/26 A2984 RMK AO2

2010/08/09 22:55
KRPD 092255Z AUTO 34003KT 10SM CLR 31/19 A2994 RMK AO2 T03050192

2010/08/09 22:55
KRRL 092255Z AUTO 34005KT 10SM CLR 30/19 A2994 RMK AO2 T03020189

2010/08/09 22:55
KRYV 092255Z AUTO 30005KT 10SM CLR 30/23 A2991 RMK AO2

2010/08/09 22:58
PADU 092258Z 19017G22KT 10SM FEW024 BKN043 13/08 A2954 RMK AO2 PK WND 21027/2241 SLP010 MH T01280078

2010/08/09 22:58
PAGA 092258Z AUTO 15013KT 10SM FEW023 SCT029 OVC048 16/11 A2949 RMK AO2 RAE37 SLPNO P0000 T01560111

2010/08/09 22:56
PAJZ 092256Z AUTO 18013KT 10SM SCT009 BKN017 OVC050 12/11 A2962 RMK AO2 PWINO TSNO T01220105 SLP018 $

2010/08/09 22:56
PAKI 092256Z AUTO 19023KT 6SM +RA BR OVC010 09/09 A2929 RMK AO2 TSNO T00940094 P0000 PK WND 19027/2243 SLP920 $

2010/08/09 22:56
PALG 092256Z AUTO 00000KT 10SM FEW027 BKN043 OVC050 13/10 A2942 RMK AO2 TSNO T01270100 BKN V SCT RAB38E50 P0000 SLP966 $

2010/08/09 22:55
PALJ 092255Z 00000KT 30SM BKN060 OVC100 13/10 A2959 RMK EST PASS OPEN NOSPECI

2010/08/09 22:58
PATE 092258Z AUTO VRB04KT 10SM FEW004 BKN017 OVC025 13/11 A2937 RMK AO2 SLP958 T01280106

2010/08/09 22:56
PAUO 092256Z 02005KT 10SM BKN005 BKN010 OVC030 14/13 A2967 RMK 401660114 70011 NOSPECI

2010/08/09 22:55
KBVU 092255Z AUTO 18010G16KT 10SM CLR 36/M06 A2986 RMK AO2

2010/08/09 22:55
KMTN 092255Z 15012KT 10SM SKC 31/22 A2996

2010/08/09 22:45
KUES 092245Z 32005KT 10SM SCT032 28/20 A2993

2010/08/09 22:55
KSNC 092255Z AUTO 22008KT 10SM CLR 26/20 A2996 RMK AO2

2010/08/09 22:55
KTKV 092255Z AUTO 02004KT 10SM SCT060 30/17 A2995 RMK AO2 T02980167

2010/08/09 22:55
KVTI 092255Z AUTO 08005KT 10SM SCT029 SCT039 OVC070 28/26 A2991 RMK AO2

2010/08/09 22:55
KCKP 092255Z AUTO 06007KT 10SM SCT017 SCT026 SCT031 28/23 A2990 RMK AO2

2010/08/09 22:56
KFSD 092256Z 13011KT 10SM SCT032 SCT045 28/24 A2989 RMK AO2 SLP113 T02830239

2010/08/09 22:54
KSBN 092254Z 26003KT 10SM FEW055 29/21 A2994 RMK AO2 SLP131 T02940211

2010/08/09 22:56
PHNY 092256Z AUTO 25007KT 10SM OVC036 25/16 A3013 RMK AO2 TSNO T02500161 OVC V BKN SLP182 $

2010/08/09 22:54
KACY 092254Z 18009KT 10SM CLR 28/20 A2999 RMK AO2 SLP153 T02830200

2010/08/09 22:56
KCHS 092256Z 09007KT 10SM SCT017 BKN022 OVC075 28/26 A2998 RMK AO2 RAB19E54 SLP150 P0000 T02830261

2010/08/09 22:50
LGPZ 092250Z 00000KT 9999 FEW015 25/22 Q1012 NOSIG BLU

2010/08/09 22:50
LGRX 092250Z 00000KT CAVOK 24/20 Q1009 NOSIG BLU

2010/08/09 23:00
WSAP 092300Z 10001KT 9999 FEW018 BKN300 28/26 Q1008

2010/08/09 22:50
EGDR 092250Z 28007KT 9999 BR SCT007 OVC025 16/15 Q1013 GRN

2010/08/09 22:50
EGOM 092250Z AUTO 24007KT 9999NDV // BKN007/// 11/10 Q1007

2010/08/09 22:50
EGOP 092250Z AUTO 25017KT 9999NDV // BKN018/// 16/13 Q1011

2010/08/09 22:50
EGXX 092250Z AUTO 21011KT 9999NDV // SCT060/// 18/15 Q1010

2010/08/09 23:00
YBCS 092300Z 12008KT 2500 -SHRA FEW003 BKN018 BKN030 23/22 Q1016

2010/08/09 22:50
LCEN 092250Z 11003KT 5000 BR FEW015 25/23 Q1006 NOSIG

2010/08/09 22:50
ENEK 092250Z 18019KT 9999 BKN008 16/15 Q1009 W16/S4

2010/08/09 22:45
MMNL 092245Z 14008KT 12SM SCT040 38/21 A2980 RMK 8/100

2010/08/09 22:50
EGNJ 092250Z AUTO 20006KT 9999NDV BKN043/// 16/15 Q1010

2010/08/09 22:50
EGPA 092250Z AUTO 25005KT 9999NDV -RA BKN011/// 13/13 Q1005

2010/08/09 22:50
EGPC 092250Z AUTO 27007KT 9999NDV NCD 11/11 Q1005

2010/08/09 22:50
EGPC 092250Z AUTO 27007KT 9999NDV NCD 11/11 Q1005

2010/08/09 22:50
EGPE 092250Z AUTO 22003KT 9999NDV NCD 12/10 Q1005

2010/08/09 22:50
EGPL 092250Z AUTO 13005KT 9999NDV NCD 10/10 Q1004

2010/08/09 22:50
EGPM 092250Z AUTO 10009KT 9999NDV SCT035/// SCT040/// 13/13 Q1007

2010/08/09 22:50
EGPO 092250Z AUTO 00000KT 9999NDV NCD 08/06 Q1005

2010/08/09 23:00
GOOY 092300Z 29003KT 9999 SCT013 26/22 Q1013 NOSIG

2010/08/09 23:00
SCEL 092300Z 17004KT CAVOK 15/05 Q1016 NOSIG

2010/08/09 23:00
SCIE 092300Z 17002KT CAVOK 10/06 Q1017

2010/08/09 23:00
SCTC 092300Z 29004KT CAVOK 09/05 Q1020

2010/08/09 23:00
SCVD 092300Z 19007KT CAVOK 10/07 Q1022 RMK HR82

2010/08/09 23:00
SCJO 092300Z 17004KT CAVOK 10/07 Q1023

2010/08/09 23:00
SCTE 092300Z 20003KT 9999 FEW040 07/07 Q1024 NOSIG

2010/08/09 23:00
SCFT 092300Z AUTO VRB01KT 6000 HZ SKC 05/02 Q1024

2010/08/09 23:00
SCCY 092300Z 26003KT CAVOK 04/M02 Q1022

2010/08/09 23:00
SCBA 092300Z AUTO 31019KT CAVOK 02/M02 Q1020

2010/08/09 23:00
SCCI 092300Z 27009G19KT 9999 FEW013 03/M01 Q1009 NOSIG

2010/08/09 22:50
HLLB 092250Z 32010KT 9999 SCT020 24/19 Q1013

2010/08/09 23:00
DTTB 092300Z 33002KT CAVOK 20/16 Q1017

2010/08/09 23:00
DTTK 092300Z 03002KT CAVOK 24/14 Q1017

2010/08/09 23:00
DTTN 092300Z 06006KT CAVOK 23/12 Q1015

2010/08/09 22:59
KDDC 092259Z AUTO 17015KT 10SM VCTS CLR 34/16 A2986

2010/08/09 22:50
EGPI 092250Z AUTO 20008KT 9999NDV // NSC 13/10 Q1006

2010/08/09 23:00
LZIB 092300Z VRB01KT 9999 MIFG NSC 16/15 Q1017

2010/08/09 23:00
LZKZ 092300Z VRB01KT CAVOK 15/13 Q1017

2010/08/09 23:00
LZTT 092300Z 28005KT 250V320 9999 FEW010 BKN080 13/12 Q1018

2010/08/09 23:00
LZPP 092300Z AUTO 36005KT 9999 ////// 14/14 Q1018

2010/08/09 23:00
LZZI 092300Z AUTO 12002KT //// ////// 13/13 Q1018

2010/08/09 23:00
OJAI 092300Z 28006KT CAVOK 21/16 Q1009 NOSIG

2010/08/09 23:00
OJAM 092300Z 00000KT 5000 NSC 24/14 Q1009 NOSIG

2010/08/09 23:00
OJAI 092300Z 28006KT CAVOK 21/16 Q1009 NOSIG

2010/08/09 23:00
OJAM 092300Z 00000KT 5000 NSC 24/14 Q1009 NOSIG

2010/08/09 23:00
LHBP 092300Z VRB01KT CAVOK 15/14 Q1018 NOSIG

2010/08/09 23:00
YPGV 092300Z 09005KT 9000 FEW003 BKN240 24/24 Q1013 RMK SLT MIST

2010/08/09 22:50
EGEC 092250Z AUTO 09006KT 070V160 9999NDV // NSC 10/09 Q1006

2010/08/09 22:50
EGPU 092250Z AUTO 18008KT 9999NDV // FEW012/// 12/11 Q1004

2010/08/09 23:00
WSSS 092300Z VRB05KT 9999 FEW015 BKN300 28/26 Q1009 NOSIG

2010/08/09 22:59
KDDC 092259Z AUTO 17015KT 10SM VCTS CLR 34/16 A2986

2010/08/09 23:00
KNEL 092300Z AUTO 19007KT 9SM CLR 30/16 A2994 RMK AO2 SLP137 T03000161 $ 

2010/08/09 22:57
KNJM 092257Z AUTO 20007KT 10SM FEW015 BKN060 BKN095 28/25 A3001 RMK AO2 SLP167 T02780250 

2010/08/09 23:00
TGPY 092300Z 12012KT 9999 SCT015 BKN250 FEW///CB 28/26 Q1013 CB S 

2010/08/09 23:00
YSSY 092300Z 05007KT 5000 -RA FEW050 BKN074 OVC110 11/10 Q1019 FM0030 36015KT 8000 -RA FEW010 SCT025 BKN045 TEMPO 2300/0200 4000 RA BKN010

2010/08/09 22:50
EGDL 092250Z 20010KT 9999 OVC008 17/15 Q1012 GRN TEMPO BKN006 YLO1

2010/08/09 22:50
EGEC 092250Z AUTO 09006KT 070V160 9999NDV // NSC 10/09 Q1006

2010/08/09 22:50
EGNJ 092250Z AUTO 20006KT 9999NDV BKN043/// 16/15 Q1010

2010/08/09 22:50
EGOV 092250Z 23006KT 9999 FEW040 BKN050 15/14 Q1009 BLU NOSIG

2010/08/09 22:50
EGPA 092250Z AUTO 25005KT 9999NDV -RA BKN011/// 13/13 Q1005

2010/08/09 22:50
EGPC 092250Z AUTO 27007KT 9999NDV NCD 11/11 Q1005

2010/08/09 22:50
EGPE 092250Z AUTO 22003KT 9999NDV NCD 12/10 Q1005

2010/08/09 22:50
EGPL 092250Z AUTO 13005KT 9999NDV NCD 10/10 Q1004

2010/08/09 22:50
EGPM 092250Z AUTO 10009KT 9999NDV SCT035/// SCT040/// 13/13 Q1007

2010/08/09 22:50
EGPO 092250Z AUTO 00000KT 9999NDV NCD 08/06 Q1005

2010/08/09 22:50
EGPU 092250Z AUTO 18008KT 9999NDV // FEW012/// 12/11 Q1004

2010/08/09 22:50
EGQK 092250Z 19002KT 9999 -RA FEW018 BKN046 13/12 Q1005 BLU NOSIG

2010/08/09 22:50
EGQL 092250Z 28004KT 9999 FEW030 11/09 Q1006 BLU

2010/08/09 22:50
EGUW 092250Z 20009KT CAVOK 17/13 Q1012 BLU

2010/08/09 22:55
EGVA 092255Z AUTO 20011KT 9999 OVC013 18/16 A2986 RMK AO2 OVC V BKN SLP111 T01760161 $

2010/08/09 22:50
EGVN 092250Z 20008KT 9999 SCT014 SCT026 BKN080 18/15 Q1011 GRN NOSIG

2010/08/09 22:50
EGVO 092250Z 20009KT 9999 -DZ SCT005 OVC008 17/16 Q1013 YLO1

2010/08/09 22:50
EGXC 092250Z 20007KT 9999 BKN042 19/15 Q1010 BLU NOSIG

2010/08/09 22:50
EGXD 092250Z 18004KT 9999 -SHRA FEW030 BKN049 14/14 Q1009 BLU NOSIG

2010/08/09 22:50
EGXW 092250Z 23012KT 5000 RA FEW005 SCT007 OVC022 17/16 Q1010 GRN TEMPO 4000 RA GRN

2010/08/09 22:55
EBBL 092255Z VRB02KT 9999 FEW070 12/11 Q1016 BLU

2010/08/09 22:55
EBFN 092255Z 19005KT 9999 FEW023 13/11 Q1015 BLU

2010/08/09 22:55
EBFS 092255Z 14002KT 9999 FEW250 15/11 Q1016 BLU

2010/08/09 22:50
EDNY 092250Z AUTO VRB03KT 9999 FEW082 15/13 Q1017

2010/08/09 22:50
EDXW 092250Z AUTO 16007KT 9999NDV NCD 14/12 Q1015 RMK ATIS INFO C

2010/08/09 22:55
EHKD 092255Z AUTO 16007KT 9999NDV BKN050/// BKN057/// 17/14 Q1014 BLU

2010/08/09 22:55
ETIK 092255Z AUTO 25003KT 9999 BKN060 OVC080 14/14 A3008 RMK AO2 SLP177 T01380136 402200109 $

2010/08/09 23:00
SBAR 092300Z 14008KT 9999 FEW015 25/20 Q1018

2010/08/09 23:00
SBBR 092300Z 11009KT CAVOK 24/00 Q1022

2010/08/09 23:00
SBBV 092300Z 07003KT 9999 FEW015 SCT020 FEW025TCU BKN080 26/23 Q1012

2010/08/09 23:00
SBCG 092300Z 25003KT CAVOK 23/06 Q1017

2010/08/09 23:00
SBFI 092300Z 19004KT CAVOK 15/11 Q1019

2010/08/09 23:00
SBFL 092300Z 14006KT 9999 FEW040 15/08 Q1025

2010/08/09 23:00
SBFZ 092300Z 11008KT CAVOK 26/23 Q1014

2010/08/09 23:00
SBGR 092300Z 17006KT 8000 FEW012 OVC018 14/12 Q1025

2010/08/09 23:00
SBPA 092300Z 15003KT CAVOK 11/05 Q1026

2010/08/09 23:00
SBRB 092300Z 00000KT 5000 FU FEW030 31/20 Q1013

2010/08/09 23:00
SBRF 092300Z 07002KT 8000 VCSH SCT010 BKN015 BKN070 23/20 Q1017

2010/08/09 23:00
SBSN 092300Z 00000KT CAVOK 27/24 Q1011

2010/08/09 23:00
SBSV 092300Z 10006KT 9999 SCT017 24/19 Q1019

2010/08/09 23:00
SVBC 092300Z 00000KT 9999 SCT010 SCT060 28/22 Q1012

2010/08/09 23:00
SVMI 092300Z 05003KT 9999 FEW016 SCT100 30/27 Q1009 NOSIG

2010/08/09 23:00
YSSY 092300Z 05007KT 5000 -RA FEW050 BKN074 OVC110 11/10 Q1019 FM0030 36015KT 8000 -RA FEW010 SCT025 BKN045 TEMPO 2300/0200 4000 RA BKN010

2010/08/09 23:02
CYZP 092302Z AUTO 25006KT 9SM -RA FEW011 SCT019 BKN025 OVC037 15/14 A3004 RMK SLP173

2010/08/09 22:50
EGDX 092250Z AUTO 27010KT 9999NDV -DZ FEW004/// BKN010/// 16/15 Q1011

2010/08/09 23:00
FMMI 092300Z 14004KT 9999 FEW010 BKN020 13/13 Q1026 TEMPO 4000 BR

2010/08/09 23:00
SCAR 092300Z 22005KT CAVOK 14/08 Q1017

2010/08/09 23:00
SCDA 092300Z 25003KT 8000 OVC020 14/09 Q1017

2010/08/09 23:00
SCFA 092300Z 18004KT 9999 FEW020 13/08 Q1016

2010/08/09 23:00
SCCF 092300Z 25013KT CAVOK 17/M15 Q1025

2010/08/09 23:00
SCAT 092300Z 25006KT CAVOK 11/07 Q1018

2010/08/09 23:00
SCIP 092300Z 35008KT 8000 -SHRA SCT015 BKN020 19/15 Q1020

2010/08/09 23:00
SCSE 092300Z 30005KT 9999 OVC016 11/09 Q1017 NEFO PLAYA 2200FT

2010/08/09 23:00
SCEL 092300Z 17004KT CAVOK 15/05 Q1016 NOSIG

2010/08/09 23:00
SCIE 092300Z 17002KT CAVOK 10/06 Q1017

2010/08/09 23:00
SCTC 092300Z 29004KT CAVOK 09/05 Q1020

2010/08/09 23:00
SCJO 092300Z 17004KT CAVOK 10/07 Q1023

2010/08/09 23:00
SCTE 092300Z 20003KT 9999 FEW040 07/07 Q1024 NOSIG

2010/08/09 23:00
SCBA 092300Z AUTO 31019KT CAVOK 02/M02 Q1020

2010/08/09 23:00
SCCI 092300Z 27009G19KT 9999 FEW013 03/M01 Q1009 NOSIG

2010/08/09 23:00
SCAR 092300Z 22005KT CAVOK 14/08 Q1017

2010/08/09 23:00
SCDA 092300Z 25003KT 8000 OVC020 14/09 Q1017

2010/08/09 23:00
SCCF 092300Z 25013KT CAVOK 17/M15 Q1025

2010/08/09 23:00
SCFA 092300Z 18004KT 9999 FEW020 13/08 Q1016

2010/08/09 23:00
SCIP 092300Z 35008KT 8000 -SHRA SCT015 BKN020 19/15 Q1020

2010/08/09 23:00
SCAT 092300Z 25006KT CAVOK 11/07 Q1018

2010/08/09 23:00
SCSE 092300Z 30005KT 9999 OVC016 11/09 Q1017 NEFO PLAYA 2200FT

2010/08/09 23:00
SCVM 092300Z VRB02KT 9000 FEW120 10/09 Q1017

2010/08/09 23:00
SCSN 092300Z 00000KT CAVOK 10/06 Q1018

2010/08/09 23:00
SCEL 092300Z 17004KT CAVOK 15/05 Q1016 NOSIG

2010/08/09 23:00
SCIE 092300Z 17002KT CAVOK 10/06 Q1017

2010/08/09 22:50
EGXZ 092250Z AUTO 12003KT 9999NDV -RA BKN050/// 14/13 Q1009

2010/08/09 22:50
EGXT 092250Z AUTO 19011KT 9999NDV SCT039/// 17/14 Q1010

2010/08/09 23:00
MHTR 092300Z 09010KT 9999 FEW024TCU BKN250 30/26 TCU W HZ

2010/08/09 23:00
MHTE 092300Z 08005KT 9999 SCT028CB SCT250 30/23 Q1010 CB SW TCU TD HZ

2010/08/09 23:00
MHYR 092300Z 04004KT 9999 SCT025TCU 31/21 FEW250 TCU TD

2010/08/09 23:00
MHSR 092300Z 34004KT 9999 BKN025CB BKN250 27/20 RETS CB E SE S SW TCU TD FEW100 HZ

2010/08/09 23:00
MHNO 092300Z 00000KT 9999 TS BKN040CB 25/// CB TCU TD TS N HZ

2010/08/09 23:00
MHLE 092300Z 35004KT 5000 -TSDZ FEW016 BKN024CB 16/16 Q1022 5KM E ESE SE CL D/C 8KM PCPN CB TS TD

2010/08/09 23:00
MHCH 092300Z 00000KT 9999 TS SCT030TCU BKN080 27/25 RERA CB TCU TD TS S

2010/08/09 23:00
SLVR 092300Z 00000KT 7000 NSC 20/11 Q1016 A3001 HR55 FU NOSIG

2010/08/09 23:00
GMAD 092300Z 23005KT 8000 NSC 23/19 Q1014 NOSIG

2010/08/09 23:00
GMFF 092300Z 18015KT 8000 TS SCT033 SCT040CB SCT100 28/13 Q1018 NOSIG

2010/08/09 23:00
GMME 092300Z 22003KT 8000 NSC 25/22 Q1014 NOSIG

2010/08/09 23:00
GMMN 092300Z VRB02KT CAVOK 29/16 Q1015 NOSIG

2010/08/09 23:00
GMMX 092300Z 12008KT 8000 R10///// SCT033 BKN100 30/17 Q1017 NOSIG

2010/08/09 23:00
GMTT 092300Z 07012KT 9999 FEW016 25/18 Q1014 NOSIG

2010/08/09 23:00
GMFF 092300Z 18015KT 8000 TS SCT033 SCT040CB SCT100 28/13 Q1018 NOSIG

2010/08/09 23:00
GMFM 092300Z 17008KT 8000 FEW026 FEW033CB SCT100 32/12 Q1018

2010/08/09 23:00
GMFO 092300Z 31005KT 270V330 9999 FEW033 SCT100 28/15 Q1018 NOSIG

2010/08/09 23:00
GMMC 092300Z 00000KT 5000 NSC 29/21 Q1012

2010/08/09 23:00
GMML 092300Z 32007KT 8000 SCT016 SCT100 22/18 Q1015

2010/08/09 23:00
GMMZ 092300Z 22003KT CAVOK 27/08 Q1023

2010/08/09 23:00
PADE 092300Z AUTO 06010KT 10SM OVC030 14/12 A2939 RMK AO2 TSNO

2010/08/09 23:00
PASN 092300Z 25011KT 5SM BR OVC003 10/09 A2931 RMK AO2

2010/08/09 23:01
KIEN 092301Z AUTO 08010KT 10SM OVC090 22/17 A2998 RMK AO2 LTG DSNT SE TSE2255

2010/08/09 23:01
KMVL 092301Z AUTO 35004KT 1SM VCTS +RA BR SCT011 BKN038 OVC055 22/21 A2991 RMK AO2 LTG DSNT E AND S TSB2255RAB2258 P0011

2010/08/09 22:52
PASW 092252Z 06004KT 15SM PRFG FEW004 SCT025 OVC045 14/12 A2967 RMK PRFG W VSBY LWR W NOSPECI

2010/08/09 22:56
PAVC 092256Z AUTO 22020G29KT 3/4SM BR 10/09 A2962 RMK AO2 PWINO TSNO T01000088 P0001 PK WND 22030/2229 SLP032 $

2010/08/09 22:55
PFYU 092255Z 22006KT 10SM FEW030 SCT050 OVC080 20/ A2057

2010/08/09 23:00
KCPK 092300Z AUTO 00000KT 10SM CLR 31/19 A2999 RMK AO2

2010/08/09 23:00
KDPL 092300Z AUTO 00000KT 10SM SCT034 BKN042 OVC085 31/23 A3000 RMK AO2

2010/08/09 22:59
KEDE 092259Z AUTO 12006KT 10SM CLR 29/21 A2996 RMK AO2

2010/08/09 23:00
KFQD 092300Z AUTO 32005KT 1SM +RA BKN008 BKN016 OVC050 27/23 A3002 RMK AO2 P0017

2010/08/09 23:00
KGEV 092300Z AUTO 00000KT 10SM CLR 25/20 A3015 RMK AO2

2010/08/09 22:55
KGTR 092255Z 30005KT 10SM SKC 26/25 A2994

2010/08/09 23:00
KHBI 092300Z AUTO 00000KT 10SM CLR 31/22 A3002 RMK AO2

2010/08/09 23:00
KHLX 092300Z AUTO 15005KT 10SM CLR 29/24 A3012 RMK AO2

2010/08/09 23:00
KHQU 092300Z AUTO 09003KT 10SM SCT050 32/19 A3000 RMK AO1

2010/08/09 22:55
KLDM 092255Z AUTO 23007KT 10SM CLR 26/22 A2992 RMK AO2

2010/08/09 22:55
KMCD 092255Z AUTO 00000KT 10SM CLR 24/19 A2991 RMK AO2

2010/08/09 23:01
KMFV 092301Z AUTO 17004KT 10SM CLR 28/24 A3000 RMK AO2

2010/08/09 22:50
KMWA 092250Z 05005KT 15SM SCT090 37/20 A2991

2010/08/09 23:00
KONX 092300Z AUTO 11004KT 10SM CLR 28/23 A3000 RMK AO2

2010/08/09 22:56
KOSC 092256Z AUTO 24005KT 10SM SCT014 27/23 A2989 RMK AO2

2010/08/09 22:55
KPHN 092255Z AUTO 16004KT 10SM SCT100 25/21 A2992 RMK AO2

2010/08/09 22:55
KRMY 092255Z AUTO 22004KT 10SM SCT021 BKN028 BKN034 27/23 A2994 RMK AO2

2010/08/09 22:53
KTTF 092253Z AUTO 00000KT 4SM BR SCT009 OVC065 24/24 A2992 RMK AO2

2010/08/09 23:00
KUKF 092300Z AUTO 35004KT 10SM OVC110 27/22 A3004 RMK AO1

2010/08/09 23:00
TUPJ 092300Z 12010KT 9999 VCSH E-SE SCT017 BKN070 28/24 A2996

2010/08/09 22:55
EHAM 092255Z 19005KT CAVOK 16/12 Q1014 NOSIG

2010/08/09 22:55
EHBK 092255Z AUTO 16005KT 9999NDV NSC 17/11 Q1016

2010/08/09 22:55
EHGG 092255Z AUTO 12004KT 080V160 9999NDV NCD 15/13 Q1015

2010/08/09 22:55
EHRD 092255Z 24004KT 9999 FEW046 15/13 Q1014 NOSIG

2010/08/09 22:55
PKMR 092255Z 07010KT 15SM FEW015 SCT050 BKN110 OVC300 31/25 A2988 RMK SLP119 T03090249 

2010/08/09 23:00
MDPP 092300Z 08008KT 9999 FEW020 SCT300 30/26 Q1014

2010/08/09 23:00
MDST 092300Z 09012KT 9999 FEW016CB SCT023 BKN300 30/24 Q1013 CB/SE/S/SW

2010/08/09 23:00
MDPC 092300Z 09010KT 8000 VCSH BKN016 28/24 Q1011 VCSH/N/NE/E MDJB 092300Z 00000KT 6000 +RA FEW010CB BKN012 SCT300 25/24 Q1013 CB/NE/E/NW/N

2010/08/09 23:00
MDLR 092300Z 07007KT 9999 FEW020 SCT300 30/25 Q1012

2010/08/09 23:00
MDBH 092300Z 13010KT 9999 FEW016CB FEW018 BKN300 30/27 Q1013 CB/W/NW/

2010/08/09 23:00
MDSD 092300Z 01004KT 9999 FEW016CB SCT018 SCT300 26/23 Q1012 CB/SE/NW/N/NE

2010/08/09 22:50
LSMA 092250Z AUTO 22003KT 9999NDV FEW048 16/14 Q1018 RMK BLU

2010/08/09 22:50
LSMM 092250Z AUTO VRB02KT 9999NDV FEW064 17/14 Q1018 RMK BLU

2010/08/09 22:50
LSMP 092250Z AUTO 24003KT 9999NDV SCT067 SCT093 17/14 Q1018 RMK BLU

2010/08/09 23:00
MNMG 092300Z 10008KT 9000 VCRA FEW020CB SCT070 28/24 Q1008 A2978 CBRA/W CB/E/S/SW/NW TEMPO 9000 VCRA/-DZ

2010/08/09 23:00
MROC 092300Z 25007KT 5000 2000NW FEW009TCU SCT015 BKN035 22/22 A2997 RERA TEMPO 3000 RABR

2010/08/09 23:00
SBFL 092300Z 14006KT 9999 FEW040 15/08 Q1025

2010/08/09 23:00
YSSY 092300Z 05007KT 5000 -RA FEW050 BKN074 OVC110 11/10 Q1019 FM0030 36015KT 8000 -RA FEW010 SCT025 BKN045 TEMPO 2300/0200 4000 RA BKN010

2010/08/09 22:55
EHEH 092255Z AUTO 15005KT 9999NDV FEW068 16/12 Q1015 BLU

2010/08/09 22:55
EHKD 092255Z AUTO 16007KT 9999NDV BKN050/// BKN057/// 17/14 Q1014 BLU

2010/08/09 23:00
MROC 092300Z 25007KT 5000 2000NW FEW009TCU SCT015 BKN035 22/22 A2997 RERA TEMPO 3000 RABR

2010/08/09 23:00
SVMC 092300Z 36004KT 9999 FEW010 BC BKN013 32/26 Q1009

2010/08/09 23:00
SVJC 092300Z 09010KT 9999 SCT060 31/24 Q1009

2010/08/09 23:00
YBCS 092300Z 12008KT 2500 -SHRA FEW003 BKN018 BKN030 23/22 Q1016

2010/08/09 23:00
DNMM 092300Z 00000KT 8000 SCT009 24/23 Q1015 NOSIG

2010/08/09 22:57
PHNG 092257Z AUTO 07011G17KT 10SM SCT043 28/18 A3011 RMK AO2 SLP190 T02830183 $ 

2010/08/09 22:45
KSCH 092245Z 27004KT 10SM CLR 30/18 A2989

2010/08/09 23:00
KPUB 092300Z AUTO 19015G21KT 10SM -RA BKN023 BKN060 OVC080 21/17 A3006

2010/08/09 23:00
KBIL 092300Z 29015KT 10SM BKN100 21/13 A2988

2010/08/09 23:00
KCLM 092300Z AUTO VRB03KT 10SM FEW009 OVC026 16/13 A2998

2010/08/09 23:00
KRIW 092300Z AUTO 27010KT 10SM FEW110 29/03 A2994

2010/08/09 23:00
KLEB 092300Z 35003KT 6SM -RA BR SCT016 BKN065 OVC080 21/18 A2990

2010/08/09 23:00
TGPY 092300Z 12012KT 9999 SCT015 BKN250 FEW///CB 28/26 Q1013 CB S

2010/08/09 23:00
WSSL 092300Z VRB02KT 9999 FEW018 BKN300 28/25 Q1008 RMK 1030Z Q1006 

2010/08/09 22:50
EGNS 092250Z 29002KT 9999 FEW020 BKN037 14/11 Q1008

2010/08/09 23:00
LATI 092300Z 00000KT CAVOK 20/20 Q1012 NOSIG

2010/08/09 23:00
YSRI 092300Z AUTO 00000KT 8000NDV // BKN085 09/09 Q1019

2010/08/09 23:00
UBBG 092300Z 21004KT 9999 SCT100 25/13 Q1011 NOSIG RMK R30R/CLRD70 

2010/08/09 22:50
LGLM 092250Z 04008KT CAVOK 27/20 Q1009

2010/08/09 23:00
YSDU 092300Z AUTO 04007KT 9999NDV // BKN015 OVC021 13/13 Q1015

2010/08/09 23:00
YSCB 092300Z 33002KT 6000 -RA FEW009 SCT014 BKN045 10/08 Q1016

2010/08/09 22:45
KSCH 092245Z 27004KT 10SM CLR 30/18 A2989

2010/08/09 23:00
KPUB 092300Z AUTO 19015G21KT 10SM -RA BKN023 BKN060 OVC080 21/17 A3006

2010/08/09 23:00
KBIL 092300Z 29015KT 10SM BKN100 21/13 A2988

2010/08/09 23:00
KCLM 092300Z AUTO VRB03KT 10SM FEW009 OVC026 16/13 A2998

2010/08/09 23:00
YSDU 092300Z AUTO 04007KT 9999NDV // BKN015 OVC021 13/13 Q1015

2010/08/09 23:00
KBIL 092300Z 29015KT 10SM BKN100 21/13 A2988

2010/08/09 23:00
KRIW 092300Z AUTO 27010KT 10SM FEW110 29/03 A2994

2010/08/09 23:00
LUKK 092300Z 31006KT 9999 FEW050 22/19 Q1013 26CLRD65 NOSIG

2010/08/09 23:00
UBBB 092300Z 31006KT CAVOK 27/27 Q1009 NOSIG RMK R88CLRD70

2010/08/09 23:00
UHHH 092300Z METAR 18005MPS 5000 -SHRA BKN003 OVC019CB 21/21 Q1005 NOSIG

2010/08/09 23:00
UTTT 092300Z 05003MPS CAVOK 24/07 Q1006 R08R/CLRD70 TEMPO 03005G10MPS

2010/08/09 22:55
KQAJ 092255Z 34006KT 9999 FEW170 34/06 A2960 RMK SLP005 WND DATA ESTMD ALSTG/SLP ESTMD

2010/08/09 22:55
KQSD 092255Z 36002KT 9999 BKN150 21/14 A2993 RMK AO2A SLP013

2010/08/09 22:55
KQSL 092255Z 34006KT 9999 CLR 32/02 A2958 RMK SLP007 Q1001MB

2010/08/09 23:00
OEDR 092300Z 00000KT CAVOK 31/27 Q0995 NOSIG

2010/08/09 23:00
OEJN 092300Z 18010KT CAVOK 32/26 Q1001 NOSIG

2010/08/09 23:00
OEMA 092300Z 34005KT 8000 FEW045 SCT100 38/08 Q1005 NOSIG

2010/08/09 23:00
OERK 092300Z 00000KT 8000 SKC 31/10 Q1003 NOSIG

2010/08/09 23:00
OERY 092300Z 00000KT CAVOK 34/08 Q1005 NOSIG

2010/08/09 23:00
OYSN 092300Z 19004KT CAVOK 18/13 Q1021

2010/08/09 22:45
LHKE 092245Z 02001MPS CAVOK 14/13 Q1017 NOSIG RMK BLU

2010/08/09 22:45
LHPA 092245Z 14002MPS CAVOK 14/13 Q1019 NOSIG RMK BLU

2010/08/09 22:45
LHPP 092245Z 04002KT CAVOK 17/15 Q1019

2010/08/09 22:45
LHPR 092245Z 16001KT CAVOK 16/15 Q1018

2010/08/09 22:45
LHSN 092245Z 30001MPS CAVOK 18/15 Q1017 NOSIG RMK BLU

2010/08/09 22:45
LHUD 092245Z 33002KT CAVOK 16/15 Q1018

2010/08/09 23:00
OMAA 092300Z 03003KT CAVOK 32/23 Q0996 A2942 NOSIG

2010/08/09 23:00
OMAD 092300Z 02006KT CAVOK 34/24 Q0996 A2943

2010/08/09 23:00
OMAL 092300Z 11007KT CAVOK 36/14 Q0999 A2951

2010/08/09 23:00
OMDB 092300Z 06006KT 030V150 CAVOK 34/19 Q0997 NOSIG

2010/08/09 23:00
OMDW 092300Z 04007KT CAVOK 31/13 Q0998 NOSIG

2010/08/09 23:00
OMFJ 092300Z 13003KT 9999 FEW020 31/23 Q0999 A2951

2010/08/09 23:00
OMRK 092300Z 10004KT CAVOK 33/25 Q0996 A2943

2010/08/09 23:00
OMSJ 092300Z 06005KT CAVOK 31/21 Q0997

2010/08/09 22:50
EGDR 092250Z 28007KT 9999 BR SCT007 OVC025 16/15 Q1013 GRN

2010/08/09 22:50
EGDX 092250Z AUTO 27010KT 9999NDV -DZ FEW004/// BKN010/// 16/15 Q1011

2010/08/09 22:50
EGEC 092250Z AUTO 09006KT 070V160 9999NDV // NSC 10/09 Q1006

2010/08/09 22:50
EGOM 092250Z AUTO 24007KT 9999NDV // BKN007/// 11/10 Q1007

2010/08/09 22:50
EGOP 092250Z AUTO 25017KT 9999NDV // BKN018/// 16/13 Q1011

2010/08/09 22:50
EGPU 092250Z AUTO 18008KT 9999NDV // FEW012/// 12/11 Q1004

2010/08/09 22:50
EGXT 092250Z AUTO 19011KT 9999NDV SCT039/// 17/14 Q1010

2010/08/09 22:50
EGXX 092250Z AUTO 21011KT 9999NDV // SCT060/// 18/15 Q1010

2010/08/09 22:50
EGXZ 092250Z AUTO 12003KT 9999NDV -RA BKN050/// 14/13 Q1009

2010/08/09 23:00
EPGD 092300Z 00000KT CAVOK 15/15 Q1016

2010/08/09 23:00
EPKK 092300Z 23002KT CAVOK 13/13 Q1017

2010/08/09 23:00
EPKT 092300Z 00000KT 1500 800W R27/P2000 BCFG BR NSC 13/12 Q1017

2010/08/09 23:00
EPPO 092300Z 21002KT CAVOK 17/16 Q1016

2010/08/09 23:00
EPRZ 092300Z 26004KT CAVOK 16/16 Q1016

2010/08/09 23:00
EPWA 092300Z 00000KT CAVOK 17/16 Q1016 NOSIG

2010/08/09 23:00
EPWR 092300Z VRB02KT CAVOK 16/15 Q1017

2010/08/09 23:00
LATI 092300Z 00000KT CAVOK 20/20 Q1012 NOSIG

2010/08/09 23:00
LBBG 092300Z 36008MPS CAVOK 26/20 Q1010 NOSIG

2010/08/09 23:00
LBGO 092300Z 27002MPS CAVOK 21/20 Q1014 NOSIG

2010/08/09 23:00
LBPD 092300Z 28005MPS CAVOK 25/18 Q1013 NOSIG

2010/08/09 23:00
LBSF 092300Z 27004MPS CAVOK 20/16 Q1017 NOSIG

2010/08/09 23:00
LBWN 092300Z 27002MPS 180V340 CAVOK 24/21 Q1011 NOSIG

2010/08/09 23:00
LDDU 092300Z 02014KT 340V070 CAVOK 27/11 Q1013

2010/08/09 23:00
LDZA 092300Z 03004KT 010V070 CAVOK 19/15 Q1017 NOSIG

2010/08/09 23:00
LDZD 092300Z 25003KT 200V290 CAVOK 17/15 Q1014

2010/08/09 22:50
LGLM 092250Z 04008KT CAVOK 27/20 Q1009

2010/08/09 23:00
LHBP 092300Z VRB01KT CAVOK 15/14 Q1018 NOSIG

2010/08/09 23:00
LZIB 092300Z VRB01KT 9999 MIFG NSC 16/15 Q1017

2010/08/09 23:00
LZTT 092300Z 28005KT 250V320 9999 FEW010 BKN080 13/12 Q1018

2010/08/09 22:55
KHRT 092255Z 24005KT 10SM FEW030 32/25 A2990 RMK AO2A SLP127 T03180251 $

2010/08/09 22:55
KHUA 092255Z AUTO 34005KT 29/25 A2997 RMK AO2 SLP139 T02870248 PWINO PNO TSNO $

2010/08/09 22:55
KMUO 092255Z VRB05KT 8SM VCSH FEW030 SCT050CB SCT150 BKN210 30/05 A2983 RMK AO2A LTG 5SW CB ALQDS MOV NE SLP075 T03020052

2010/08/09 22:59
KNGU 092259Z 15004KT 10SM FEW250 31/21 A2999 RMK AO2 SLP157 T03060206

2010/08/09 23:00
MHLE 092300Z 35004KT 5000 -TSDZ FEW016 BKN024CB 16/16 Q1022 5KM E ESE SE CL D/C 8KM PCPN CB TS TD

2010/08/09 23:00
MHNO 092300Z 00000KT 9999 TS BKN040CB 25/// CB TCU TD TS N HZ

2010/08/09 23:00
MHSR 092300Z 34004KT 9999 BKN025CB BKN250 27/20 RETS CB E SE S SW TCU TD FEW100 HZ

2010/08/09 23:00
MHTE 092300Z 08005KT 9999 SCT028CB SCT250 30/23 Q1010 CB SW TCU TD HZ

2010/08/09 23:00
MHYR 092300Z 04004KT 9999 SCT025TCU 31/21 FEW250 TCU TD

2010/08/09 23:00
NTAA 092300Z 22005KT 180V250 9999 FEW020 SCT060 28/17 Q1017 WS ALL RWY NOSIG

2010/08/09 23:00
OEDR 092300Z 00000KT CAVOK 31/27 Q0995 NOSIG

2010/08/09 23:00
OEMA 092300Z 34005KT 8000 FEW045 SCT100 38/08 Q1005 NOSIG

2010/08/09 23:00
OERK 092300Z 00000KT 8000 SKC 31/10 Q1003 NOSIG

2010/08/09 23:00
OERY 092300Z 00000KT CAVOK 34/08 Q1005 NOSIG

2010/08/09 23:00
SCSE 092300Z 30005KT 9999 OVC016 11/09 Q1017 NEFO PLAYA 2200FT

2010/08/09 23:00
TFFF 092300Z VRB02KT 9999 FEW023 SCT060 27/25 Q1013 NOSIG

2010/08/09 23:00
TGPY 092300Z 12012KT 9999 SCT015 BKN250 FEW///CB 28/26 Q1013 CB S

2010/08/09 22:50
TJBQ 092250Z 08005KT 10SM BKN035 28/28 A2994 RMK LTG DSNT SE-W

2010/08/09 23:00
TUPJ 092300Z 12010KT 9999 VCSH E-SE SCT017 BKN070 28/24 A2996

2010/08/09 23:00
WSAP 092300Z 10001KT 9999 FEW018 BKN300 28/26 Q1008

2010/08/09 23:00
WSSS 092300Z VRB05KT 9999 FEW015 BKN300 28/26 Q1009 NOSIG

2010/08/09 23:00
SUMU 092300Z 00000KT 5000 BR NSC 10/05 Q1025 NOSIG

2010/08/09 23:00
SULS 092300Z 00000KT 3000 BR NSC 08/06 Q1025

2010/08/09 23:00
NWWM 092300Z 10006KT 060V130 9999 FEW033 BKN040 23/16 Q1025 NOSIG

2010/08/09 23:00
SBGL 092300Z 23006KT 9999 SCT012 BKN050 21/17 Q1023

2010/08/09 23:01
PAKF 092301Z AUTO 19019G27KT 10SM SCT049 SCT060 13/08 A2954 RMK AO2 PK WND 22032/2202 SLP098 T01330083

2010/08/09 22:56
PANW 092256Z AUTO 21012KT 1 1/2SM BR BKN008 BKN016 OVC095 11/10 A2960 RMK AO2 PWINO TSNO T01110100 CIG 001V012 SLP000 $

2010/08/09 22:59
KHRJ 092259Z AUTO 00000KT 10SM CLR 32/21 A2999 RMK AO2

2010/08/09 23:00
KHSP 092300Z AUTO 18005KT 10SM SCT048 24/18 A3021 RMK AO2

2010/08/09 23:00
KHWY 092300Z AUTO 17005KT 10SM CLR 32/19 A2996 RMK AO2

2010/08/09 23:00
KIPJ 092300Z AUTO 00000KT 10SM CLR 31/22 A3000 RMK AO2 T03090215

2010/08/09 23:00
KIXA 092300Z AUTO 00000KT 10SM CLR 30/22 A2997 RMK AO2 T03030223

2010/08/09 23:00
KJES 092300Z AUTO 15004KT 10SM OVC110 31/28 A2994 RMK AO2 T03060275

2010/08/09 23:00
KJGG 092300Z AUTO 15007KT 10SM CLR 32/19 A2999 RMK AO1

2010/08/09 22:59
KJNX 092259Z AUTO 00000KT 10SM CLR 29/21 A2998 RMK AO2

2010/08/09 23:00
KLDJ 092300Z AUTO 16006KT 10SM SCT070 32/19 A2991 RMK AO2 T03160185

2010/08/09 23:00
KLHZ 092300Z AUTO 16004KT 10SM CLR 31/22 A3000 RMK AO2 T03140216

2010/08/09 23:00
KMQI 092300Z AUTO 16003KT 10SM CLR 28/24 A3001 RMK AO2

2010/08/09 23:01
KMRN 092301Z AUTO 23003KT 10SM SCT100 29/22 A3007 RMK AO2

2010/08/09 23:02
KMWK 092302Z AUTO 00000KT 10SM CLR 31/22 A3001 RMK AO2

2010/08/09 23:01
KOCW 092301Z AUTO 13006KT 10SM CLR 30/21 A2999 RMK AO2

2010/08/09 23:00
KPGV 092300Z AUTO 18003KT 10SM CLR 32/18 A2999 RMK AO2

2010/08/09 23:01
KPTB 092301Z AUTO 18004KT 10SM CLR 32/27 A2997 RMK AO2

2010/08/09 23:00
KRUQ 092300Z AUTO 18003KT 10SM CLR 32/19 A3000 RMK AO2

2010/08/09 23:00
KSIF 092300Z AUTO 14004KT 7SM CLR 31/24 A2999 RMK AO2 T03060235

2010/08/09 23:00
KSUT 092300Z AUTO 22003KT 10SM CLR 26/22 A3001 RMK AO2

2010/08/09 23:01
KTDF 092301Z AUTO 00000KT 30/22 A3001 RMK AO1

2010/08/09 23:01
KTNB 092301Z AUTO 17003KT 10SM BKN049 27/20 A3015 RMK AO2

2010/08/09 23:00
KTPF 092300Z AUTO 03003KT 5SM BR SCT020 SCT029 SCT034 27/26 A2987 RMK AO2

2010/08/09 23:04
KTTA 092304Z AUTO 00000KT 10SM CLR 31/22 A2999 RMK AO2

2010/08/09 23:00
KUNV 092300Z AUTO 22005KT 10SM CLR 30/16 A2996 RMK AO2 T02960161

2010/08/09 22:58
KVUJ 092258Z AUTO 15003KT 10SM SCT080 SCT110 33/23 A2998 RMK AO2

2010/08/09 22:55
KVVG 092255Z AUTO 12006KT 27/25 A2987 RMK AO2

2010/08/09 23:00
K1A5 092300Z AUTO 10008G14KT 10SM BKN050 OVC075 27/20 A3009 RMK AO2 T02680199

2010/08/09 23:00
K3A1 092300Z AUTO 29004KT 10SM SCT065 SCT085 30/24 A3000 RMK AO2 T03000241 TSNO

2010/08/09 22:59
K3I2 092259Z AUTO 00000KT 10SM CLR 29/21 A2998 RMK AO2

2010/08/09 23:00
K3J7 092300Z AUTO 00000KT 7SM CLR 32/21 A2995 RMK AO2 T03160205

2010/08/09 23:02
K47A 092302Z AUTO 09003KT 10SM CLR 33/17 A3001 RMK AO2 LTG DSNT SW

2010/08/09 22:58
K4A9 092258Z AUTO 02003KT 10SM CLR 32/23 A2996 RMK AO2 T03180229

2010/08/09 23:00
K4R4 092300Z AUTO 18007KT 7SM CLR 33/25 A2993 RMK AO2 T03300247

2010/08/09 22:58
K8A0 092258Z AUTO 28003KT 10SM CLR 30/22 A2996 RMK AO2

2010/08/09 22:58
KACP 092258Z AUTO 01007KT 10SM -DZ SCT026 BKN039 OVC065 29/26 A2991 RMK AO2 P0004 LTG DSNT N THRU SE

2010/08/09 23:00
KAFP 092300Z AUTO 16005KT 10SM CLR 32/21 A2998 RMK AO2 T03150214

2010/08/09 23:00
KALX 092300Z AUTO 00000KT 10SM CLR 35/22 A2995 RMK AO1

2010/08/09 23:00
KAVC 092300Z AUTO 00000KT 10SM CLR 31/20 A3004 RMK AO2

2010/08/09 23:00
KAYS 092300Z AUTO 11006KT 10SM SCT028 SCT049 BKN085 31/24 A2994 RMK AO1

2010/08/09 23:00
KBCB 092300Z AUTO 00000KT 10SM CLR 32/21 A3009 RMK AO2 PWINO

2010/08/09 23:02
KBGE 092302Z AUTO 07009KT 10SM CLR 34/17 A2992 RMK AO2

2010/08/09 23:00
KBQK 092300Z AUTO 12006KT 10SM SCT090 31/25 A2995 RMK AO1 T03050247 PNO

2010/08/09 23:00
KCCO 092300Z AUTO 00000KT 10SM CLR 29/24 A2998 RMK AO1

2010/08/09 22:59
KCJR 092259Z AUTO 16005KT 10SM CLR 33/23 A2996 RMK AO2

2010/08/09 22:55
KCLS 092255Z AUTO 00000KT 10SM OVC026 18/13 A2999 RMK AO2

2010/08/09 23:00
KCPC 092300Z AUTO 14006KT 10SM CLR 30/25 A2999 RMK AO2 T02980245

2010/08/09 23:00
KCTJ 092300Z AUTO 16004KT 10SM CLR 34/22 A2999 RMK AO2 T03350217

2010/08/09 23:01
KCWV 092301Z AUTO 13006KT 10SM CLR 35/23 A2995 RMK AO2 T03450228

2010/08/09 22:55
KEMV 092255Z AUTO 00000KT 10SM CLR 31/20 A2998 RMK AO2

2010/08/09 23:00
KEXX 092300Z AUTO 00000KT 10SM CLR 29/22 A2999 RMK AO2

2010/08/09 23:00
KEYF 092300Z AUTO 16006KT 10SM SCT031 SCT039 32/24 A2999 RMK AO2 T03180236

2010/08/09 22:57
KEZF 092257Z AUTO 20004KT 10SM CLR 33/24 A2995 RMK AO2 T03330238

2010/08/09 23:00
KF24 092300Z AUTO 17004KT 10SM CLR 37/19 A2992 RMK AO2 T03740189

2010/08/09 23:15
KFDW 092315Z AUTO 10003KT 10SM CLR 32/19 A3000 RMK AO1

2010/08/09 23:00
KFFA 092300Z AUTO 09003KT 10SM CLR 28/22 A3001 RMK AO2 T02770222

2010/08/09 23:00
KFKN 092300Z AUTO 16005KT 10SM CLR 32/21 A2998 RMK AO1

2010/08/09 22:59
KFVX 092259Z AUTO 18004KT 10SM CLR 33/26 A2996 RMK AO2

2010/08/09 22:55
KGHG 092255Z AUTO 20008KT 360V010 10SM CLR 29/21 A2990 RMK AO2

2010/08/09 23:00
KGWW 092300Z AUTO 00000KT 10SM CLR 30/22 A2999 RMK AO2 T03030223

2010/08/09 23:00
KHNZ 092300Z AUTO 15003KT 10SM CLR 30/20 A3000 RMK AO2 T03030195

2010/08/09 22:58
KHOE 092258Z AUTO 12009KT 10SM SCT060 SCT075 32/24 A2994 RMK AO2 T03170241

2010/08/09 22:45
CWSK 092245Z AUTO 14008KT 19/14 RMK AO1 T01860137

2010/08/09 23:00
KNEL 092300Z AUTO 19007KT 9SM CLR 30/16 A2994 RMK AO2 SLP137 T03000161 $

2010/08/09 23:02
KESF 092302Z AUTO 10008G19KT 10SM FEW065 SCT090 31/22 A2991 RMK AO2 LTG DSNT ALQDS TSE2256

2010/08/09 23:02
KSAF 092302Z 01015G20KT 10SM BKN090 28/10 A3012 RMK AO2 WSHFT 2242 LTG DSNT N

2010/08/09 23:01
PAIK 092301Z AUTO 10009KT 10SM -RA FEW005 BKN016 OVC025 14/13 A2949 RMK AO2 RAB2223 P0002

2010/08/09 23:01
PAKV 092301Z AUTO VRB03KT 10SM -RA BKN011 BKN016 OVC065 13/12 A2950 RMK AO2 P0000 TSNO

2010/08/09 23:01
PAMO 092301Z AUTO 13020G25KT 1 1/2SM RA BR BKN004 OVC008 10/10 A2933 RMK AO2 TSNO CIG 003V006 P0000 $

2010/08/09 23:01
PATO 092301Z AUTO 12012G28KT 100V170 2 1/2SM -RA BR BKN022 BKN028 OVC050 12/11 A2975 RMK AO2 P0000 T01220111 TSNO

2010/08/09 23:02
KTOL 092302Z 30018G22KT 1 1/2SM -RA FEW015 BKN050 BKN075 28/23 A2995 RMK AO2 RAB2258 PRESRR P0000

2010/08/09 23:02
KUNO 092302Z AUTO 11007KT 10SM VCTS CLR 36/22 A2992 RMK AO2 LTG DSNT ALQDS TSB2256

2010/08/09 23:02
KFVE 092302Z AUTO 32006KT 2 1/2SM -RA BR BKN035 BKN060 OVC100 18/17 A2982 RMK AO2 VIS 1 1/4V5 P0002

2010/08/09 23:02
KHLC 092302Z AUTO 07009KT 10SM -TSRA SCT100 33/20 A2983 RMK AO2 WSHFT 2242 LTG DSNT E RAB2256 P0000

2010/08/09 23:00
UBBB 092300Z 31006KT CAVOK 27/27 Q1009 NOSIG RMK R88CLRD70

2010/08/09 22:50
EGNJ 092250Z AUTO 20006KT 9999NDV BKN043/// 16/15 Q1010

2010/08/09 22:50
EGPE 092250Z AUTO 22003KT 9999NDV NCD 12/10 Q1005

2010/08/09 22:50
BGGH 092250Z 30001KT 9999 SCT008 BKN020 BKN060 10/09 Q1008 RMK 4ST 6ST 7AS 

2010/08/09 22:50
EGPA 092250Z AUTO 25005KT 9999NDV -RA BKN011/// 13/13 Q1005

2010/08/09 22:50
EGPC 092250Z AUTO 27007KT 9999NDV NCD 11/11 Q1005

2010/08/09 22:50
EGPL 092250Z AUTO 13005KT 9999NDV NCD 10/10 Q1004

2010/08/09 22:50
EGPM 092250Z AUTO 10009KT 9999NDV SCT035/// SCT040/// 13/13 Q1007

2010/08/09 22:50
EGPO 092250Z AUTO 00000KT 9999NDV NCD 08/06 Q1005

2010/08/09 22:50
BGGH 092250Z 30001KT 9999 SCT008 BKN020 BKN060 10/09 Q1008 RMK 4ST 6ST 7AS 

2010/08/09 22:50
EGDL 092250Z 20010KT 9999 OVC008 17/15 Q1012 TEMPO BKN006

2010/08/09 22:50
EGVN 092250Z 20008KT 9999 SCT014 SCT026 BKN080 18/15 Q1011 NOSIG

2010/08/09 22:55
EHAK 092255Z AUTO 17022KT 9999NDV 17/15 Q1010

2010/08/09 22:55
EHDV 092255Z AUTO 18022KT 9999NDV 18/15 Q1010

2010/08/09 22:55
EHFD 092255Z AUTO 18023KT 9999NDV NCD 18/15 Q1013

2010/08/09 22:55
EHFZ 092255Z AUTO 19026KT 9999NDV ///////// 18/14 Q1012

2010/08/09 22:55
EHJA 092255Z AUTO 17019KT 9999NDV 17/15 Q1011

2010/08/09 22:55
EHKV 092255Z AUTO 20017KT 9999NDV NCD 17/14 Q1012

2010/08/09 22:55
EHMA 092255Z AUTO 13020KT 9999NDV ///////// 17/15 Q1014

2010/08/09 22:55
EHMG 092255Z AUTO 17022KT 9999NDV NCD 19/14 Q1013

2010/08/09 22:55
EHPG 092255Z AUTO 21018KT 180V240 9999NDV NCD 18/15 Q1013

2010/08/09 22:55
EHQE 092255Z AUTO 19017KT 9999NDV ///////// 18/15 Q1013

2010/08/09 23:00
TFFR 092300Z 11004KT 9999 SCT018 28/24 Q1013 TEMPO 4000 SHRA

2010/08/09 23:00
MWCR 092300Z 07005KT 9999 SCT016TCU BKN220 30/26 Q1013 NOSIG

2010/08/09 23:00
MWCB 092300Z 02002KT 9999 FEW016 BKN250 30/25 Q1013

2010/08/09 22:55
PTPN 092255Z 09005KT 15SM SCT017 BKN130 OVC300 30/25 A2988 

2010/08/09 23:00
SBCY 092300Z 16003KT CAVOK 28/09 Q1013

2010/08/09 22:59
KJNX 092259Z AUTO 00000KT 10SM CLR 29/21 A2998 RMK AO2

2010/08/09 23:00
KAYS 092300Z AUTO 11006KT 10SM SCT028 SCT049 BKN085 31/24 A2994 RMK AO1

2010/08/09 23:00
PASN 092300Z 25011KT 5SM BR OVC003 10/09 A2931 RMK AO2

2010/08/09 23:02
KTOL 092302Z 30018G22KT 1 1/2SM -RA FEW015 BKN050 BKN075 28/23 A2995 RMK AO2 RAB2258 PRESRR P0000

2010/08/09 23:02
KHLC 092302Z AUTO 07009KT 10SM -TSRA SCT100 33/20 A2983 RMK AO2 WSHFT 2242 LTG DSNT E RAB2256 P0000

2010/08/09 22:57
KNJM 092257Z AUTO 20007KT 10SM FEW015 BKN060 BKN095 28/25 A3001 RMK AO2 SLP167 T02780250

2010/08/09 23:00
UBBN 092300Z 12010KT 9999 SCT100 29/08 Q1010 R14R/CLRD60 NOSIG RMK G/O QFE683

2010/08/09 22:56
KNSE 092256Z 22006KT 9SM FEW038TCU SCT060 BKN100 32/24 A2992 RMK AO2 SLP115 TCU NW T2 SET T03170239 $

2010/08/09 22:58
PAGA 092258Z AUTO 15013KT 10SM FEW023 SCT029 OVC048 16/11 A2949 RMK AO2 RAE37 SLPNO P0000 T01560111

2010/08/09 22:52
PASW 092252Z 06004KT 15SM PRFG FEW004 SCT025 OVC045 14/12 A2967 RMK PRFG W VSBY LWR W NOSPECI

2010/08/09 22:55
PFYU 092255Z 22006KT 10SM FEW030 SCT050 OVC080 20/ A2057

2010/08/09 23:00
KCPK 092300Z AUTO 00000KT 10SM CLR 31/19 A2999 RMK AO2

2010/08/09 23:00
KDPL 092300Z AUTO 00000KT 10SM SCT034 BKN042 OVC085 31/23 A3000 RMK AO2

2010/08/09 22:59
KEDE 092259Z AUTO 12006KT 10SM CLR 29/21 A2996 RMK AO2

2010/08/09 23:00
KFQD 092300Z AUTO 32005KT 1SM +RA BKN008 BKN016 OVC050 27/23 A3002 RMK AO2 P0017

2010/08/09 23:00
KGEV 092300Z AUTO 00000KT 10SM CLR 25/20 A3015 RMK AO2

2010/08/09 22:55
KGTR 092255Z 30005KT 10SM SKC 26/25 A2994

2010/08/09 23:00
KHBI 092300Z AUTO 00000KT 10SM CLR 31/22 A3002 RMK AO2

2010/08/09 23:00
KHLX 092300Z AUTO 15005KT 10SM CLR 29/24 A3012 RMK AO2

2010/08/09 23:00
KHQU 092300Z AUTO 09003KT 10SM SCT050 32/19 A3000 RMK AO1

2010/08/09 22:55
KLDM 092255Z AUTO 23007KT 10SM CLR 26/22 A2992 RMK AO2

2010/08/09 22:55
KMCD 092255Z AUTO 00000KT 10SM CLR 24/19 A2991 RMK AO2

2010/08/09 22:50
KMWA 092250Z 05005KT 15SM SCT090 37/20 A2991

2010/08/09 23:00
KONX 092300Z AUTO 11004KT 10SM CLR 28/23 A3000 RMK AO2

2010/08/09 22:56
KOSC 092256Z AUTO 24005KT 10SM SCT014 27/23 A2989 RMK AO2

2010/08/09 22:55
KPHN 092255Z AUTO 16004KT 10SM SCT100 25/21 A2992 RMK AO2

2010/08/09 22:55
KRMY 092255Z AUTO 22004KT 10SM SCT021 BKN028 BKN034 27/23 A2994 RMK AO2

2010/08/09 22:53
KTTF 092253Z AUTO 00000KT 4SM BR SCT009 OVC065 24/24 A2992 RMK AO2

2010/08/09 23:00
KUKF 092300Z AUTO 35004KT 10SM OVC110 27/22 A3004 RMK AO1

2010/08/09 22:50
TJBQ 092250Z 08005KT 10SM BKN035 28/28 A2994 RMK LTG DSNT SE-W

2010/08/09 22:56
PANW 092256Z AUTO 21012KT 1 1/2SM BR BKN008 BKN016 OVC095 11/10 A2960 RMK AO2 PWINO TSNO T01110100 CIG 001V012 SLP000 $

2010/08/09 22:59
KHRJ 092259Z AUTO 00000KT 10SM CLR 32/21 A2999 RMK AO2

2010/08/09 23:00
KHSP 092300Z AUTO 18005KT 10SM SCT048 24/18 A3021 RMK AO2

2010/08/09 23:00
KHWY 092300Z AUTO 17005KT 10SM CLR 32/19 A2996 RMK AO2

2010/08/09 23:00
KIPJ 092300Z AUTO 00000KT 10SM CLR 31/22 A3000 RMK AO2 T03090215

2010/08/09 23:00
KIXA 092300Z AUTO 00000KT 10SM CLR 30/22 A2997 RMK AO2 T03030223

2010/08/09 23:00
KJES 092300Z AUTO 15004KT 10SM OVC110 31/28 A2994 RMK AO2 T03060275

2010/08/09 23:00
KJGG 092300Z AUTO 15007KT 10SM CLR 32/19 A2999 RMK AO1

2010/08/09 23:00
KLDJ 092300Z AUTO 16006KT 10SM SCT070 32/19 A2991 RMK AO2 T03160185

2010/08/09 23:00
KLHZ 092300Z AUTO 16004KT 10SM CLR 31/22 A3000 RMK AO2 T03140216

2010/08/09 23:00
KMQI 092300Z AUTO 16003KT 10SM CLR 28/24 A3001 RMK AO2

2010/08/09 23:00
KPGV 092300Z AUTO 18003KT 10SM CLR 32/18 A2999 RMK AO2

2010/08/09 23:00
KRUQ 092300Z AUTO 18003KT 10SM CLR 32/19 A3000 RMK AO2

2010/08/09 23:00
KSIF 092300Z AUTO 14004KT 7SM CLR 31/24 A2999 RMK AO2 T03060235

2010/08/09 23:00
KSUT 092300Z AUTO 22003KT 10SM CLR 26/22 A3001 RMK AO2

2010/08/09 23:00
KTPF 092300Z AUTO 03003KT 5SM BR SCT020 SCT029 SCT034 27/26 A2987 RMK AO2

2010/08/09 23:00
KUNV 092300Z AUTO 22005KT 10SM CLR 30/16 A2996 RMK AO2 T02960161

2010/08/09 22:58
KVUJ 092258Z AUTO 15003KT 10SM SCT080 SCT110 33/23 A2998 RMK AO2

2010/08/09 22:55
KVVG 092255Z AUTO 12006KT 27/25 A2987 RMK AO2

2010/08/09 23:00
K1A5 092300Z AUTO 10008G14KT 10SM BKN050 OVC075 27/20 A3009 RMK AO2 T02680199

2010/08/09 23:00
K3A1 092300Z AUTO 29004KT 10SM SCT065 SCT085 30/24 A3000 RMK AO2 T03000241 TSNO

2010/08/09 22:59
K3I2 092259Z AUTO 00000KT 10SM CLR 29/21 A2998 RMK AO2

2010/08/09 23:00
K3J7 092300Z AUTO 00000KT 7SM CLR 32/21 A2995 RMK AO2 T03160205

2010/08/09 22:58
K4A9 092258Z AUTO 02003KT 10SM CLR 32/23 A2996 RMK AO2 T03180229

2010/08/09 23:00
K4R4 092300Z AUTO 18007KT 7SM CLR 33/25 A2993 RMK AO2 T03300247

2010/08/09 22:58
K8A0 092258Z AUTO 28003KT 10SM CLR 30/22 A2996 RMK AO2

2010/08/09 22:58
KACP 092258Z AUTO 01007KT 10SM -DZ SCT026 BKN039 OVC065 29/26 A2991 RMK AO2 P0004 LTG DSNT N THRU SE

2010/08/09 23:00
KAFP 092300Z AUTO 16005KT 10SM CLR 32/21 A2998 RMK AO2 T03150214

2010/08/09 23:00
KALX 092300Z AUTO 00000KT 10SM CLR 35/22 A2995 RMK AO1

2010/08/09 23:00
KAVC 092300Z AUTO 00000KT 10SM CLR 31/20 A3004 RMK AO2

2010/08/09 23:00
KBCB 092300Z AUTO 00000KT 10SM CLR 32/21 A3009 RMK AO2 PWINO

2010/08/09 23:00
KBQK 092300Z AUTO 12006KT 10SM SCT090 31/25 A2995 RMK AO1 T03050247 PNO

2010/08/09 23:00
KCCO 092300Z AUTO 00000KT 10SM CLR 29/24 A2998 RMK AO1

2010/08/09 22:59
KCJR 092259Z AUTO 16005KT 10SM CLR 33/23 A2996 RMK AO2

2010/08/09 22:55
KCLS 092255Z AUTO 00000KT 10SM OVC026 18/13 A2999 RMK AO2

2010/08/09 23:00
KCPC 092300Z AUTO 14006KT 10SM CLR 30/25 A2999 RMK AO2 T02980245

2010/08/09 23:00
KCTJ 092300Z AUTO 16004KT 10SM CLR 34/22 A2999 RMK AO2 T03350217

2010/08/09 22:55
KEMV 092255Z AUTO 00000KT 10SM CLR 31/20 A2998 RMK AO2

2010/08/09 23:00
KEXX 092300Z AUTO 00000KT 10SM CLR 29/22 A2999 RMK AO2

2010/08/09 23:00
KEYF 092300Z AUTO 16006KT 10SM SCT031 SCT039 32/24 A2999 RMK AO2 T03180236

2010/08/09 22:57
KEZF 092257Z AUTO 20004KT 10SM CLR 33/24 A2995 RMK AO2 T03330238

2010/08/09 23:00
KF24 092300Z AUTO 17004KT 10SM CLR 37/19 A2992 RMK AO2 T03740189

2010/08/09 23:00
KFFA 092300Z AUTO 09003KT 10SM CLR 28/22 A3001 RMK AO2 T02770222

2010/08/09 23:00
KFKN 092300Z AUTO 16005KT 10SM CLR 32/21 A2998 RMK AO1

2010/08/09 22:59
KFVX 092259Z AUTO 18004KT 10SM CLR 33/26 A2996 RMK AO2

2010/08/09 22:55
KGHG 092255Z AUTO 20008KT 360V010 10SM CLR 29/21 A2990 RMK AO2

2010/08/09 23:00
KGWW 092300Z AUTO 00000KT 10SM CLR 30/22 A2999 RMK AO2 T03030223

2010/08/09 23:00
KHNZ 092300Z AUTO 15003KT 10SM CLR 30/20 A3000 RMK AO2 T03030195

2010/08/09 22:58
KHOE 092258Z AUTO 12009KT 10SM SCT060 SCT075 32/24 A2994 RMK AO2 T03170241

2010/08/09 22:55
PKMR 092255Z 07010KT 15SM FEW015 SCT050 BKN110 OVC300 31/25 A2988 RMK SLP119 T03090249

2010/08/09 22:50
PTSA 092250Z 060114KT 10SM SCT019TCU BKN130 OVC300 30/24 A2985 RMK TCU VC E-SW

2010/08/09 23:00
FOOL 092300Z 17006KT 8000 SCT008 OVC030 25/23 Q1015 NOSIG

2010/08/09 22:50
EGDM 092250Z 21013KT 9999 SCT005 OVC008 17/15 Q1013

2010/08/09 22:50
EGOV 092250Z 23006KT 9999 FEW040 BKN050 15/14 Q1009 NOSIG

2010/08/09 22:50
EGXC 092250Z 20007KT 9999 BKN042 19/15 Q1010 NOSIG

2010/08/09 22:55
OPLA 092255Z 00000KT 4000 FU FEW100 29/28 Q1001 NOSIG

2010/08/09 22:56
KHLR 092256Z AUTO 11013G21KT 080V160 10SM FEW070 38/18 A2986 RMK AO2 SLP101 T03780183 $

2010/08/09 22:56
KNCA 092256Z 00000KT 10SM 29/24 A3001 RMK AO2 SLP162 T02940239 $

2010/08/09 22:56
KNMM 092256Z 18003KT 10SM FEW055 SCT250 34/23 A2992 RMK AO2 SLP138 T2 SET T03440228 $

2010/08/09 22:56
KNQI 092256Z 12012KT 10SM FEW030CB SCT140 SCT280 35/25 A2984 RMK AO2 SLP102 CB DSNT SW TCU DSNT E T03450245 $

2010/08/09 22:56
KNRS 092256Z 27008KT 10SM FEW017 21/13 A2990 RMK AO2 SLP124 T02060133

2010/08/09 22:56
KNUQ 092256Z 33010KT 10SM CLR 22/13 A2988 RMK AO2 SLP120 T02170133

2010/08/09 22:52
KNZY 092252Z 29009KT 10SM FEW019 24/13 A2988 RMK AO2 SLP117 T02390133 $

2010/08/09 22:55
PAFB 092255Z 02003KT 13SM BKN075 BKN120 19/08 A2957 RMK SLP012

2010/08/09 23:00
KNEL 092300Z AUTO 19007KT 9SM CLR 30/16 A2994 RMK AO2 SLP137 T03000161 $

2010/08/09 22:55
KHRT 092255Z 24005KT 10SM FEW030 32/25 A2990 RMK AO2A SLP127 T03180251 $

2010/08/09 22:55
KHUA 092255Z AUTO 34005KT 29/25 A2997 RMK AO2 SLP139 T02870248 PWINO PNO TSNO $

2010/08/09 22:55
KMUO 092255Z VRB05KT 8SM VCSH FEW030 SCT050CB SCT150 BKN210 30/05 A2983 RMK AO2A LTG 5SW CB ALQDS MOV NE SLP075 T03020052

2010/08/09 22:59
KNGU 092259Z 15004KT 10SM FEW250 31/21 A2999 RMK AO2 SLP157 T03060206

2010/08/09 23:01
KMFV 092301Z AUTO 17004KT 10SM CLR 28/24 A3000 RMK AO2

2010/08/09 23:01
KMRN 092301Z AUTO 23003KT 10SM SCT100 29/22 A3007 RMK AO2

2010/08/09 23:02
KMWK 092302Z AUTO 00000KT 10SM CLR 31/22 A3001 RMK AO2

2010/08/09 23:01
KOCW 092301Z AUTO 13006KT 10SM CLR 30/21 A2999 RMK AO2

2010/08/09 23:01
KPTB 092301Z AUTO 18004KT 10SM CLR 32/27 A2997 RMK AO2

2010/08/09 23:01
KTDF 092301Z AUTO 00000KT 30/22 A3001 RMK AO1

2010/08/09 23:01
KTNB 092301Z AUTO 17003KT 10SM BKN049 27/20 A3015 RMK AO2

2010/08/09 23:04
KTTA 092304Z AUTO 00000KT 10SM CLR 31/22 A2999 RMK AO2

2010/08/09 23:02
K47A 092302Z AUTO 09003KT 10SM CLR 33/17 A3001 RMK AO2 LTG DSNT SW

2010/08/09 23:02
KBGE 092302Z AUTO 07009KT 10SM CLR 34/17 A2992 RMK AO2

2010/08/09 23:01
KCWV 092301Z AUTO 13006KT 10SM CLR 35/23 A2995 RMK AO2 T03450228

2010/08/09 23:15
KFDW 092315Z AUTO 10003KT 10SM CLR 32/19 A3000 RMK AO1

2010/08/09 23:00
YSDU 092300Z AUTO 04007KT 9999NDV // BKN015 OVC021 13/13 Q1015

2010/08/09 23:00
PADE 092300Z AUTO 06010KT 10SM OVC030 14/12 A2939 RMK AO2 TSNO

2010/08/09 23:01
KIEN 092301Z AUTO 08010KT 10SM OVC090 22/17 A2998 RMK AO2 LTG DSNT SE TSE2255

2010/08/09 23:01
KMVL 092301Z AUTO 35004KT 1SM VCTS +RA BR SCT011 BKN038 OVC055 22/21 A2991 RMK AO2 LTG DSNT E AND S TSB2255RAB2258 P0011

2010/08/09 23:02
KESF 092302Z AUTO 10008G19KT 10SM FEW065 SCT090 31/22 A2991 RMK AO2 LTG DSNT ALQDS TSE2256

2010/08/09 23:02
KSAF 092302Z 01015G20KT 10SM BKN090 28/10 A3012 RMK AO2 WSHFT 2242 LTG DSNT N

2010/08/09 23:01
PAIK 092301Z AUTO 10009KT 10SM -RA FEW005 BKN016 OVC025 14/13 A2949 RMK AO2 RAB2223 P0002

2010/08/09 23:01
PAKV 092301Z AUTO VRB03KT 10SM -RA BKN011 BKN016 OVC065 13/12 A2950 RMK AO2 P0000 TSNO

2010/08/09 23:01
PAMO 092301Z AUTO 13020G25KT 1 1/2SM RA BR BKN004 OVC008 10/10 A2933 RMK AO2 TSNO CIG 003V006 P0000 $

2010/08/09 23:01
PATO 092301Z AUTO 12012G28KT 100V170 2 1/2SM -RA BR BKN022 BKN028 OVC050 12/11 A2975 RMK AO2 P0000 T01220111 TSNO

2010/08/09 23:02
KUNO 092302Z AUTO 11007KT 10SM VCTS CLR 36/22 A2992 RMK AO2 LTG DSNT ALQDS TSB2256

2010/08/09 23:02
KFVE 092302Z AUTO 32006KT 2 1/2SM -RA BR BKN035 BKN060 OVC100 18/17 A2982 RMK AO2 VIS 1 1/4V5 P0002

2010/08/09 22:50
LTAD 092250Z 22003KT CAVOK 24/10 Q1012 NOSIG RMK RWY29 25003KT

2010/08/09 22:50
LTAG 092250Z 11004KT 9999 SCT035 27/23 Q1005 NOSIG

2010/08/09 22:50
LTAH 092250Z 21006KT 9999 BKN035 22/14 Q1013 RMK RWY13 24005KT

2010/08/09 22:50
LTAN 092250Z 30014KT CAVOK 28/10 Q1012 NOSIG RMK RWY19 32017KT

2010/08/09 22:50
LTAP 092250Z 31004KT CAVOK 20/17 Q1009 NOSIG RMK RWY23 32005KT

2010/08/09 22:50
LTAT 092250Z VRB02KT CAVOK 18/01 Q1008 NOSIG RMK RWY03 20006KT

2010/08/09 22:50
LTAU 092250Z 06008KT CAVOK 16/08 Q1012 NOSIG RMK RWY07 07006KT

2010/08/09 22:50
LTBF 092250Z 02003KT CAVOK 26/22 Q1009 NOSIG RMK RWY18 35005KT 320V020

2010/08/09 22:50
LTBG 092250Z 02010KT CAVOK 27/24 Q1008 NOSIG RMK RWY18 02012KT

2010/08/09 22:50
LTBI 092250Z 29008KT 260V320 9999 SCT035 24/20 Q1012 NOSIG RMK RWY09 29010KT

2010/08/09 22:50
LTBL 092250Z 32008KT CAVOK 27/20 Q1006 NOSIG RMK RWY17 34008KT

2010/08/09 22:50
LTBQ 092250Z VRB01KT 9999 SCT033 SCT100 23/23 Q1009 NOSIG RMK RWY09 00000KT

2010/08/09 23:00
SLET 092300Z 00000KT 8000 SKC 23/12 Q1016 A3003 HR48 FU NOSIG

2010/08/09 22:50
LGLM 092250Z 04008KT CAVOK 27/20 Q1009

2010/08/09 23:00
MNMG 092300Z 10008KT 9000 VCRA FEW020CB SCT070 28/24 Q1008 A2978 CBRA/W CB/E/S/SW/NW TEMPO 9000 VCRA/-DZ

2010/08/09 22:46
MMTJ 092246Z 33010KT 7SM SKC 23/16 A2991 RMK ST W HZY

2010/08/09 22:45
MMDO 092245Z 33006KT 14SM OVC200 28/17 A3012 RMK 8/003 BINOVC CU AC ARND

2010/08/09 22:49
MMLP 092249Z 36010KT 10SM SKC 37/14 A2973 RMK SC 2QUAD

2010/08/09 22:55
MMMT 092255Z 36010KT 10SM SCT020 SCT180 31/26 A2980 RMK SLP166 55004 904 8/101

2010/08/09 22:50
EGNS 092250Z 29002KT 9999 FEW020 BKN037 14/11 Q1008

2010/08/09 22:50
EGPU 092250Z AUTO 18008KT 9999NDV // FEW012/// 12/11 Q1004

2010/08/09 22:50
EGDR 092250Z 28007KT 9999 BR SCT007 OVC025 16/15 Q1013 GRN

2010/08/09 23:00
TKPN 092300Z 12009KT 9999 FEW012TCU SCT280 29/26 Q1013

2010/08/09 23:00
ORBI 092300Z 02004KT CAVOK 33/11 Q1000 NOSIG 

2010/08/09 23:00
ORMM 092300Z 29009KT CAVOK 33/12 Q0997

2010/08/09 23:00
ORSU 092300Z 31006KT CAVOK 26/03 Q1008 

2010/08/09 22:45
LHKE 092245Z 02001MPS CAVOK 14/13 Q1017 NOSIG RMK BLU

2010/08/09 22:45
LHPP 092245Z 04002KT CAVOK 17/15 Q1019

2010/08/09 22:45
LHSN 092245Z 30001MPS CAVOK 18/15 Q1017 NOSIG RMK BLU

2010/08/09 22:45
LHUD 092245Z 33002KT CAVOK 16/15 Q1018

2010/08/09 22:45
MMLT 092245Z 06005KT 8SM FEW200 36/22 A2973 RMK 8/009

2010/08/09 23:00
SBBE 092300Z 05007KT 9999 FEW020 28/23 Q1012

2010/08/09 23:00
SBCR 092300Z 22012KT CAVOK 25/07 Q1015

2010/08/09 23:00
SBCT 092300Z 10007KT 9000 OVC004 08/07 Q1025

2010/08/09 23:00
SBCZ 092300Z 00000KT 5000 HZ FU NSC 27/22 Q1013

2010/08/09 23:00
SBEG 092300Z 24005KT 9999 FEW023 27/23 Q1011

2010/08/09 23:00
SBGL 092300Z 23006KT 9999 SCT012 BKN050 21/17 Q1023

2010/08/09 23:00
SBGO 092300Z 12005KT CAVOK 25/08 Q1019

2010/08/09 23:00
SBLO 092300Z 28003KT CAVOK 24/07 Q1019

2010/08/09 23:00
SBMN 092300Z 00000KT 9999 FEW020 29/24 Q1011

2010/08/09 23:00
SBNT 092300Z 17003KT 9999 SCT010 SCT020 OVC070 23/22 Q1016

2010/08/09 23:00
SBPL 092300Z 13009KT 9999 SCT023 SCT070 26/15 Q1018

2010/08/09 23:00
SBRJ 092300Z 19007KT 9999 BKN015 SCT025 BKN040 22/19 Q1022

2010/08/09 23:00
SBRP 092300Z 04003KT CAVOK 23/10 Q1019

2010/08/09 23:00
SBSP 092300Z 15006KT 5000 BR BKN015 13/11 Q1026

2010/08/09 23:00
SBTF 092300Z 00000KT 9999 TS FEW010 FEW030CB OVC100 25/24 Q1011

2010/08/09 23:00
SCAR 092300Z 22005KT CAVOK 14/08 Q1017

2010/08/09 23:00
SCBA 092300Z AUTO 31019KT CAVOK 02/M02 Q1020

2010/08/09 23:00
SCCI 092300Z 27009G19KT 9999 FEW013 03/M01 Q1009 NOSIG

2010/08/09 23:00
SCDA 092300Z 25003KT 8000 OVC020 14/09 Q1017

2010/08/09 23:00
SCEL 092300Z 17004KT CAVOK 15/05 Q1016 NOSIG

2010/08/09 23:00
SCFA 092300Z 18004KT 9999 FEW020 13/08 Q1016

2010/08/09 23:00
SCIE 092300Z 17002KT CAVOK 10/06 Q1017

2010/08/09 23:00
SCSE 092300Z 30005KT 9999 OVC016 11/09 Q1017 NEFO PLAYA 2200FT

2010/08/09 23:00
SCTE 092300Z 20003KT 9999 FEW040 07/07 Q1024 NOSIG

2010/08/09 23:00
SLVR 092300Z 00000KT 7000 NSC 20/11 Q1016 A3001 HR55 FU NOSIG

2010/08/09 23:00
SOCA 092300Z 22005KT 170V240 9999 FEW020TCU SCT130 26/23 Q1014 NOSIG

2010/08/09 23:00
SUMU 092300Z 00000KT 5000 BR NSC 10/05 Q1025 NOSIG

2010/08/09 23:00
SVJC 092300Z 09010KT 9999 SCT060 31/24 Q1009

2010/08/09 23:00
SVMC 092300Z 36004KT 9999 FEW010 BC BKN013 32/26 Q1009

2010/08/09 23:00
GCLP 092300Z 00000KT 9999 BKN023 23/19 Q1015 NOSIG

2010/08/09 23:00
GCTS 092300Z VRB01KT 9999 BKN025 22/19 Q1016 NOSIG

2010/08/09 23:00
GCRR 092300Z VRB02KT 9999 FEW015 24/21 Q1015

2010/08/09 23:00
LECO 092300Z 19002KT CAVOK 18/16 Q1019

2010/08/09 23:00
LEGE 092300Z 19003KT 160V240 6000 FEW015 SCT030 20/19 Q1017

2010/08/09 23:00
LEST 092300Z VRB02KT CAVOK 15/14 Q1019 NOSIG

2010/08/09 23:00
LEZG 092300Z 29011KT 9999 FEW060 22/13 Q1018

2010/08/09 23:00
LEVT 092300Z 00000KT 9999 FEW017 BKN022 14/14 Q1021

2010/08/09 22:50
VGZR 092250Z 00000KT 3500 HZ FEW015 SCT100 31/27 Q1000 NOSIG

2010/08/09 22:50
EGYD 092250Z AUTO 23009KT 9999NDV // BKN028/// BKN060/// 16/15 Q1010

2010/08/09 22:50
EGWU 092250Z AUTO 21008KT 9999NDV // OVC014/// 18/15 Q1012

2010/08/09 22:50
EGDY 092250Z AUTO 20011KT 9999NDV BKN008/// SCT050/// 17/17 Q1012

2010/08/09 22:50
EGXG 092250Z AUTO 26002KT 9999NDV NCD 12/12 Q1009

2010/08/09 22:50
EGXE 092250Z AUTO 18004KT 9999NDV FEW044/// BKN060/// 14/14 Q1009 RERA

2010/08/09 22:50
EGVP 092250Z AUTO 23010KT 9999NDV // OVC008/// 17/15 Q1013

2010/08/09 22:50
EGXJ 092250Z AUTO 20012KT 9999NDV // SCT011/// BKN035/// BKN080/// 17/15 Q1010

2010/08/09 22:50
EGOS 092250Z AUTO 23005KT 9999NDV FEW048/// 14/12 Q1010

2010/08/09 22:50
EGXU 092250Z AUTO 28003KT 9999NDV // FEW030/// BKN060/// 15/13 Q1009

2010/08/09 22:50
EGYM 092250Z AUTO 20009KT 9999NDV SCT060/// 18/15 Q1011

2010/08/09 23:00
LEMD 092300Z 31013KT CAVOK 28/14 Q1019 NOSIG

2010/08/09 23:00
LEBL 092300Z VRB02KT 9999 FEW020 25/20 Q1017 NOSIG

2010/08/09 23:00
LEPA 092300Z 00000KT CAVOK 20/17 Q1016 NOSIG

2010/08/09 23:00
LEZL 092300Z 21008KT 170V230 CAVOK 32/13 Q1014 NOSIG

2010/08/09 23:00
LEMG 092300Z 29003KT 260V320 CAVOK 25/16 Q1016 NOSIG

2010/08/09 23:00
LEVC 092300Z 05004KT 330V090 CAVOK 28/17 Q1016 NOSIG

2010/08/09 23:00
LEAL 092300Z 00000KT 9999 FEW050 26/17 Q1016 NOSIG

2010/08/09 23:00
LEIB 092300Z 36004KT 310V040 CAVOK 23/15 Q1016 NOSIG

2010/08/09 23:00
LEVX 092300Z VRB04KT CAVOK 20/16 Q1017

2010/08/09 22:50
ETUO 092250Z AUTO 00000KT 9000NDV // OVC050/// 17/14 Q1016

2010/08/09 23:00
LKMT 092300Z 21002KT CAVOK 15/14 Q1017 NOSIG

2010/08/09 23:00
LKPR 092300Z 25002KT CAVOK 13/12 Q1018 NOSIG

2010/08/09 23:00
LKTB 092300Z VRB02KT CAVOK 15/12 Q1017 NOSIG

2010/08/09 23:00
LEAB 092300Z 00000KT CAVOK 23/13 Q1019 NOSIG

2010/08/09 23:00
LESA 092300Z 00000KT CAVOK 22/15 Q1020

2010/08/09 23:00
LETO 092300Z 30012KT 260V320 CAVOK 27/14 Q1019 NOSIG

2010/08/09 23:00
LYBE 092300Z 04003KT CAVOK 19/16 Q1017 NOSIG

2010/08/09 23:00
LYBT 092300Z 01002KT CAVOK 17/17 Q1017 NOSIG

2010/08/09 23:00
LYKV 092300Z 14001KT CAVOK 15/14 Q1018 NOSIG

2010/08/09 23:00
LYNI 092300Z 15002KT CAVOK 16/15 Q1017

2010/08/09 23:00
LYPG 092300Z 01010KT CAVOK 27/13 Q1013 NOSIG

2010/08/09 23:00
LYTV 092300Z VRB01KT CAVOK 20/16 Q1013

2010/08/09 23:00
LYUZ 092300Z 00000KT CAVOK 12/11 Q1020

2010/08/09 23:00
LYVR 092300Z 00000KT CAVOK 16/15 Q1017

2010/08/09 23:00
BIAR 092300Z VRB03KT CAVOK 09/06 Q1013

2010/08/09 23:00
BIEG 092300Z 03007KT 0500 FG VV002 08/08 Q1012

2010/08/09 23:00
BIKF 092300Z 32006KT 9999 BKN012 10/07 Q1014

2010/08/09 23:00
BIRK 092300Z 32005KT 9999 BKN013 12/09 Q1014

2010/08/09 23:00
EIDW 092300Z 24007KT 9999 FEW030 12/09 Q1009 NOSIG

2010/08/09 23:00
EINN 092300Z 23006KT 9999 FEW024 BKN048 14/11 Q1010 NOSIG

2010/08/09 23:00
EICK 092300Z 24005KT 9999 FEW038 SCT240 10/08 Q1011 NOSIG

2010/08/09 23:00
PASN 092300Z 25011KT 5SM BR OVC003 10/09 A2931

2010/08/09 22:56
KALK 092256Z AUTO 27007KT 10SM CLR 30/12 A3007 RMK AO2 SLP087 T03000122 $ 

2010/08/09 22:56
KHLR 092256Z AUTO 11013G21KT 080V160 10SM FEW070 38/18 A2986 RMK AO2 SLP101 T03780183 $

2010/08/09 22:56
PHNY 092256Z AUTO 25007KT 10SM OVC036 25/16 A3013 RMK AO2 TSNO T02500161 OVC V BKN SLP182 $

2010/08/09 22:55
PHSF 092255Z 29009G14KT 7SM FEW020 SCT200 25/11 A3031 RMK SLPNO

2010/08/09 23:00
RJSM 092300Z 28002KT 3500 BR FEW001 SCT003 BKN005 24/22 Q1014 RMK 1ST001 4ST003 7ST005 A2996 FCST 2305 BECMG 2324 06003KT 7000 NSW FEW003ST SCT005ST

2010/08/09 22:50
BGGH 092250Z 30001KT 9999 SCT008 BKN020 BKN060 10/09 Q1008 RMK 4ST 6ST 7AS

2010/08/09 23:00
UGTB 092300Z 33003KT 9999 SCT100 23/12 Q1014 NOSIG RMK 31CLRD80

2010/08/09 22:50
EGNS 092250Z 29002KT 9999 FEW020 BKN037 14/11 Q1008

2010/08/09 23:00
LFBC 092300Z AUTO 00000KT 4400NDV BR NSC 13/11 Q1020

2010/08/09 23:00
LFBF 092300Z AUTO 24005KT 210V270 9999NDV // OVC049 20/17 Q1020

2010/08/09 23:00
LFBG 092300Z AUTO 22003KT 9999NDV NSC 16/12 Q1019

2010/08/09 23:00
LFBM 092300Z AUTO 28001KT 9999NDV NSC 15/14 Q1020

2010/08/09 23:00
LFOA 092300Z AUTO 20007KT 9999NDV NSC 18/11 Q1017

2010/08/09 23:00
LFOC 092300Z AUTO 35006KT 9999NDV NSC 19/13 Q1017

2010/08/09 23:00
LFOE 092300Z AUTO 00000KT 9999NDV NSC 16/11 Q1017

2010/08/09 23:00
LFOJ 092300Z AUTO 35007KT 9999NDV NSC 17/12 Q1016

2010/08/09 23:00
LFPC 092300Z AUTO 02002KT 9999NDV // NSC 15/12 Q1016

2010/08/09 23:00
LFPV 092300Z AUTO 35007KT 9999NDV NSC 18/13 Q1016

2010/08/09 23:00
LFQI 092300Z AUTO 29008KT 9999NDV NSC 16/11 Q1016

2010/08/09 23:00
LFSO 092300Z AUTO 12002KT 9999NDV NSC 17/11 Q1017

2010/08/09 23:00
LFYR 092300Z AUTO VRB03KT //// // ///////// 15/12 Q1016

2010/08/09 22:45
LHKE 092245Z 02001MPS CAVOK 14/13 Q1017 NOSIG RMK BLU

2010/08/09 22:45
LHPA 092245Z 14002MPS CAVOK 14/13 Q1019 NOSIG RMK BLU

2010/08/09 22:45
LHPP 092245Z 04002KT CAVOK 17/15 Q1019

2010/08/09 22:45
LHSN 092245Z 30001MPS CAVOK 18/15 Q1017 NOSIG RMK BLU

2010/08/09 22:45
LHUD 092245Z 33002KT CAVOK 16/15 Q1018

2010/08/09 23:00
LKCV 092300Z VRB02KT CAVOK 14/14 Q1018 NOSIG RMK BLU+ BLU+

2010/08/09 23:00
LKMT 092300Z 21002KT CAVOK 15/14 Q1017 NOSIG

2010/08/09 23:00
LKNA 092300Z 32004KT CAVOK 15/13 Q1018 RMK BLU+

2010/08/09 23:00
LKPO 092300Z 09002KT CAVOK 13/13 Q1018 RMK BLU+

2010/08/09 23:00
LKPR 092300Z 25002KT CAVOK 13/12 Q1018 NOSIG

2010/08/09 23:00
LKTB 092300Z VRB02KT CAVOK 15/12 Q1017 NOSIG

2010/08/09 23:00
LYBE 092300Z 04003KT CAVOK 19/16 Q1017 NOSIG

2010/08/09 23:00
LYNI 092300Z 15002KT CAVOK 16/15 Q1017

2010/08/09 23:00
LYPG 092300Z 01010KT CAVOK 27/13 Q1013 NOSIG

2010/08/09 23:00
LYTV 092300Z VRB01KT CAVOK 20/16 Q1013

2010/08/09 22:45
MMDO 092245Z 33006KT 14SM OVC200 28/17 A3012 RMK 8/003 BINOVC CU AC ARND

2010/08/09 22:49
MMLP 092249Z 36010KT 10SM SKC 37/14 A2973 RMK SC 2QUAD

2010/08/09 22:45
MMLT 092245Z 06005KT 8SM FEW200 36/22 A2973 RMK 8/009

2010/08/09 22:55
MMMT 092255Z 36010KT 10SM SCT020 SCT180 31/26 A2980 RMK SLP166 55004 904 8/101

2010/08/09 22:46
MMTJ 092246Z 33010KT 7SM SKC 23/16 A2991 RMK ST W HZY

2010/08/09 23:00
MNMG 092300Z 10008KT 9000 VCRA FEW020CB SCT070 28/24 Q1008 A2978 CBRA/W CB/E/S/SW/NW TEMPO 9000 VCRA/-DZ

2010/08/09 23:00
MROC 092300Z 25007KT 5000 2000NW FEW009TCU SCT015 BKN035 22/22 A2997 RERA TEMPO 3000 RABR

2010/08/09 22:55
MUHA 092255Z 20008KT 7000 SCT020 BKN110 26/24 Q1013

2010/08/09 23:00
MYNN 092300Z 23004KT 9000 SHRA SCT012CB BKN015 OVC080 25/24 A2999

2010/08/09 23:00
NTAA 092300Z 22005KT 180V250 9999 FEW020 SCT060 28/17 Q1017 WS ALL RWY NOSIG

2010/08/09 23:00
NWWW 092300Z AUTO 12005KT 050V170 9999NDV NCD 24/14 Q1025

2010/08/09 22:55
PAFB 092255Z 02003KT 13SM BKN075 BKN120 19/08 A2957 RMK SLP012

2010/08/09 22:58
PAGA 092258Z AUTO 15013KT 10SM FEW023 SCT029 OVC048 16/11 A2949 RMK AO2 RAE37 SLPNO P0000 T01560111

2010/08/09 23:00
PKWA 092300Z AUTO 08014KT 10SM SCT050 30/25 A2990 RMK AO2 T02990245

2010/08/09 22:55
PTPN 092255Z 09005KT 15SM SCT017 BKN130 OVC300 30/25 A2988

2010/08/09 22:50
PTSA 092250Z 060114KT 10SM SCT019TCU BKN130 OVC300 30/24 A2985 RMK TCU VC E-SW

2010/08/09 23:00
SOCA 092300Z 22005KT 170V240 9999 FEW020TCU SCT130 26/23 Q1014 NOSIG

2010/08/09 23:00
TFFF 092300Z VRB02KT 9999 FEW023 SCT060 27/25 Q1013 NOSIG

2010/08/09 23:00
TGPY 092300Z 12012KT 9999 SCT015 BKN250 FEW///CB 28/26 Q1013 CB S

2010/08/09 23:00
VHHH 092300Z VRB03KT 9999 FEW020 29/24 Q1005 NOSIG

2010/08/09 23:00
YSTW 092300Z AUTO 12008KT 9999NDV // SCT042 BKN048 OVC088 13/11 Q1018

2010/08/09 23:00
YSWG 092300Z 07013KT 9999 FEW020 OVC025 11/09 Q1013

2010/08/09 23:00
YTEF 092300Z AUTO 12012KT //// // ////// 09/M05 Q1022

2010/08/09 23:00
YTNK 092300Z 11008KT CAVOK 13/M01 Q1020

2010/08/09 23:00
YTRE 092300Z AUTO 02006KT //// // ////// 16/14 Q1020

2010/08/09 23:00
YWGT 092300Z AUTO 12009KT //// // ////// 10/08 Q1013

2010/08/09 23:00
YWHA 092300Z AUTO 33004KT 9999NDV // OVC072 07/07 Q1014

2010/08/09 23:00
YWLM 092300Z 05007KT 9999 -RA FEW017 SCT070 OVC090 15/14 Q1019

2010/08/09 23:03
CYPQ 092303Z AUTO ///// 2 1/2SM OVC009 OVC097 23/23 A2992

2010/08/09 23:02
CYPQ 092302Z AUTO ///// 3SM OVC009 OVC097 23/23 A2992

2010/08/09 22:50
EGVP 092250Z AUTO 23010KT 9999NDV // OVC008/// 17/15 Q1013

2010/08/09 22:50
EGXE 092250Z AUTO 18004KT 9999NDV FEW044/// BKN060/// 14/14 Q1009 RERA

2010/08/09 22:50
EGXG 092250Z AUTO 26002KT 9999NDV NCD 12/12 Q1009

2010/08/09 22:50
EGXU 092250Z AUTO 28003KT 9999NDV // FEW030/// BKN060/// 15/13 Q1009

2010/08/09 22:50
EGYD 092250Z AUTO 23009KT 9999NDV // BKN028/// BKN060/// 16/15 Q1010

2010/08/09 22:50
EGYM 092250Z AUTO 20009KT 9999NDV SCT060/// 18/15 Q1011

2010/08/09 23:00
LEAL 092300Z 00000KT 9999 FEW050 26/17 Q1016 NOSIG

2010/08/09 23:00
LEBL 092300Z VRB02KT 9999 FEW020 25/20 Q1017 NOSIG

2010/08/09 23:00
LECO 092300Z 19002KT CAVOK 18/16 Q1019

2010/08/09 23:00
LEGE 092300Z 19003KT 160V240 6000 FEW015 SCT030 20/19 Q1017

2010/08/09 23:00
LEIB 092300Z 36004KT 310V040 CAVOK 23/15 Q1016 NOSIG

2010/08/09 23:00
LEMD 092300Z 31013KT CAVOK 28/14 Q1019 NOSIG

2010/08/09 23:00
LEMG 092300Z 29003KT 260V320 CAVOK 25/16 Q1016 NOSIG

2010/08/09 23:00
LEPA 092300Z 00000KT CAVOK 20/17 Q1016 NOSIG

2010/08/09 23:00
LEST 092300Z VRB02KT CAVOK 15/14 Q1019 NOSIG

2010/08/09 23:00
LEVC 092300Z 05004KT 330V090 CAVOK 28/17 Q1016 NOSIG

2010/08/09 23:00
LEVT 092300Z 00000KT 9999 FEW017 BKN022 14/14 Q1021

2010/08/09 23:00
LEZG 092300Z 29011KT 9999 FEW060 22/13 Q1018

2010/08/09 23:00
LEZL 092300Z 21008KT 170V230 CAVOK 32/13 Q1014 NOSIG

2010/08/09 23:00
LFKS 092300Z AUTO 27005KT 240V300 9999NDV NSC 21/18 Q1016

2010/08/09 23:00
LFMI 092300Z AUTO 19003KT 9999NDV NSC 21/19 Q1015

2010/08/09 23:00
LFMO 092300Z AUTO VRB02KT 9999NDV NSC 22/18 Q1016

2010/08/09 23:00
LFSD 092300Z AUTO 33003KT 9999NDV NSC 17/13 Q1017

2010/08/09 23:00
LFSF 092300Z AUTO VRB01KT 9999NDV NSC 15/12 Q1016

2010/08/09 23:00
LFSI 092300Z AUTO 09002KT 9999NDV NSC 16/13 Q1016

2010/08/09 23:00
LFSR 092300Z AUTO 24002KT 9999NDV NSC 17/12 Q1016

2010/08/09 23:00
LFSX 092300Z AUTO 08003KT 9999NDV NSC 14/13 Q1017

2010/08/09 23:00
OIAW 092300Z 16004KT CAVOK 33/17 Q0997 A2944

2010/08/09 23:00
OIKB 092300Z 02004KT 7000 SKC 30/25 Q0998 A2947

2010/08/09 23:00
OIKK 092300Z 00000KT CAVOK 20/M02 Q1016 A3002

2010/08/09 23:00
OIMM 092300Z 28006KT CAVOK 22/02 Q1013 A2993

2010/08/09 23:00
OISS 092300Z 27004KT CAVOK 18/02 Q1013 A2993

2010/08/09 23:00
OITT 092300Z 09008KT 9999 FEW040 FEW045CB 26/09 Q1015 A3000

2010/08/09 23:00
OIZH 092300Z 01006KT CAVOK 26/M02 Q1010 A2982

2010/08/09 23:03
KLAW 092303Z AUTO 15011G18KT 10SM TS CLR 39/18 A2982 RMK AO2 LTG DSNT S TSB2257

2010/08/09 23:03
KMVL 092303Z AUTO 00000KT 3/4SM VCTS +RA BR SCT009 BKN038 OVC055 21/21 A2991 RMK AO2 LTG DSNT E AND S TSB2255RAB2258 P0015

2010/08/09 23:03
KPAE 092303Z 16003KT 10SM -RA SCT025 17/13 A2997 RMK AO2 P0000

2010/08/09 23:03
KSLK 092303Z AUTO 00000KT 8SM FEW028 18/17 A2995 RMK AO2 LTG DSNT E AND SE RAE01 P0000

2010/08/09 23:00
SBTT 092300Z 21002KT 8000 NSC 29/24 Q1012

2010/08/09 23:00
SBJP 092300Z 19009KT 9999 BKN010 OVC070 23/21 Q1017 

2010/08/09 23:00
KUXL 092300Z AUTO 10008KT 10SM SCT043 SCT050 BKN075 34/26 A2992 RMK AO2

2010/08/09 23:01
KBIJ 092301Z AUTO 10004KT 10SM CLR 34/21 A2992 RMK AO2

2010/08/09 23:00
KCDH 092300Z AUTO 15005KT 10SM SCT070 36/21 A2987 RMK AO2

2010/08/09 22:58
KDNN 092258Z AUTO 00000KT 10SM CLR 33/20 A2996 RMK AO2

2010/08/09 23:00
KDRI 092300Z AUTO 17006KT 10SM CLR 35/24 A2992 RMK AO2

2010/08/09 23:00
KGAO 092300Z AUTO 29006KT 7SM CLR 26/25 A2994 RMK AO2 LTG DSNT W AND NW

2010/08/09 23:00
KI16 092300Z AUTO 00000KT 10SM CLR 27/22 A3000 RMK AO2

2010/08/09 23:01
KIDI 092301Z AUTO 00000KT 10SM SCT110 28/19 A3000 RMK AO2

2010/08/09 23:00
KIER 092300Z AUTO 12004KT 10SM CLR 36/24 A2988 RMK AO2 PWINO

2010/08/09 23:00
KJKA 092300Z AUTO 17004KT 10SM CLR 34/25 A2992 RMK AO2 T03360253

2010/08/09 23:01
KJYL 092301Z AUTO 08003KT 10SM CLR 32/24 A2996 RMK AO2

2010/08/09 23:00
KJYO 092300Z AUTO 17008KT 10SM CLR 32/20 A2995 RMK AO2

2010/08/09 22:55
KLGC 092255Z AUTO 09005KT 10SM CLR 35/19 A2995 RMK AO1

2010/08/09 23:00
KLKU 092300Z AUTO 17003KT 10SM CLR 31/21 A2997 RMK AO2

2010/08/09 23:00
KLNP 092300Z AUTO 00000KT 10SM CLR 29/21 A3011 RMK AO1

2010/08/09 23:00
KLOM 092300Z AUTO 21011G14KT 10SM SCT046 31/21 A2995 RMK AO1 T03050208

2010/08/09 23:02
KLWB 092302Z AUTO 28003KT 10SM CLR 30/15 A3009 RMK AO2

2010/08/09 23:00
KMDQ 092300Z AUTO 25005KT 10SM CLR 30/22 A2996 RMK AO2 T03030221

2010/08/09 23:00
KMGR 092300Z AUTO 05005KT 10SM CLR 35/19 A2993 RMK AO2

2010/08/09 23:00
KMKJ 092300Z AUTO 00000KT 10SM CLR 29/11 A3015 RMK AO1

2010/08/09 23:01
KMLJ 092301Z AUTO 00000KT 10SM CLR 34/22 A2995 RMK AO2

2010/08/09 23:00
KMTV 092300Z AUTO 00000KT 10SM CLR 32/24 A3001 RMK AO2

2010/08/09 23:00
KOBE 092300Z AUTO 15004KT 10SM SCT049 OVC060 28/24 A2989 RMK AO2

2010/08/09 23:00
KOKV 092300Z AUTO 17009KT 10SM CLR 33/21 A2995 RMK AO2 T03280205

2010/08/09 23:00
KOPN 092300Z AUTO 11005KT 10SM CLR 34/22 A2998 RMK AO1

2010/08/09 23:00
KPCM 092300Z AUTO 00000KT 10SM CLR 29/24 A2988 RMK AO2

2010/08/09 23:00
KPSK 092300Z AUTO 00000KT 10SM CLR 33/13 A3008 RMK AO2

2010/08/09 23:00
KRCZ 092300Z AUTO 15006KT 10SM CLR 33/20 A2998 RMK AO2 T03260204

2010/08/09 23:00
KRMN 092300Z AUTO 00000KT 10SM CLR 31/23 A3000 RMK AO2

2010/08/09 23:00
KSFQ 092300Z AUTO 11003KT 10SM CLR 31/22 A2999 RMK AO2

2010/08/09 23:00
KSVH 092300Z AUTO 00000KT 10SM CLR 31/21 A3000 RMK AO2 T03110214

2010/08/09 23:00
KTBR 092300Z AUTO 06003KT 10SM CLR 34/20 A2995 RMK AO2 T03350196

2010/08/09 23:00
KTMA 092300Z AUTO 00000KT 10SM CLR 33/19 A2993 RMK AO2 T03260187

2010/08/09 23:00
KTVI 092300Z AUTO 06006KT 10SM SCT055 35/21 A2993 RMK AO2 T03470206

2010/08/09 22:56
KVDF 092256Z AUTO 00000KT 7SM CLR 27/25 A2988 RMK AO2

2010/08/09 23:00
KW45 092300Z AUTO 15003KT 10SM CLR 32/21 A2997 RMK AO2 T03150214

2010/08/09 22:55
PADL 092255Z 18012G23KT 3SM -RA BR SCT006 OVC010 11/09 A2958 RMK SCT V BKN

2010/08/09 23:00
OPKC 092300Z 27004KT 7000 FEW020 SCT100 27/25 Q.1001 NOSIG

2010/08/09 23:00
OPRN 092300Z 00000KT 4000 HZ FEW040 27/25 Q1003.6

2010/08/09 23:00
SBTE 092300Z 31001KT CAVOK 29/17 Q1012

2010/08/09 23:00
SBPB 092300Z 06009KT CAVOK 27/23 Q1013

2010/08/09 23:00
SBVT 092300Z 19018KT 9999 FEW025 22/19 Q1021

2010/08/09 22:50
ENEK 092250Z 18019KT 9999 BKN008 16/15 Q1009 W16/S4

2010/08/09 23:00
MROC 092300Z 25007KT 5000 2000NW BR FEW009TCU SCT015 BKN035 22/22 A2997 RERA TEMPO 3000 RABR

2010/08/09 23:00
FBMN 092300Z 18011KT CAVOK 16/M04 Q1024

2010/08/09 23:00
FABL 092300Z 23003KT CAVOK M01/M07 Q1031 NOSIG

2010/08/09 23:00
FACT 092300Z 14005KT 9999 BKN030 06/05 Q1036 NOSIG

2010/08/09 23:00
FAEL 092300Z AUTO 27012KT 9999 R11/M0050N R29/M0050N RA BKN041 10/06 Q1030 RERA

2010/08/09 23:00
FAGG 092300Z AUTO 28008KT 9999 R29/M0050N R11/M0050N DZ BKN020 09/08 Q1035

2010/08/09 23:00
FAJS 092300Z 20014KT CAVOK 02/M11 Q1029 NOSIG

2010/08/09 23:00
FAKN 092300Z AUTO 10004KT //// // ////// 12/10 Q1025

2010/08/09 23:00
FALA 092300Z 21010KT CAVOK 05/M11 Q1029

2010/08/09 23:00
FALE 092300Z 27007KT CAVOK 10/07 Q1027 NOSIG

2010/08/09 23:00
FAMM 092300Z AUTO 14006KT //// // ////// 01/M11 Q1030

2010/08/09 23:00
FAPE 092300Z 24019KT 9999 -SHRA SCT020 OVC040 11/10 Q1032 NOSIG

2010/08/09 23:00
FAPN 092300Z AUTO 19004KT //// // ////// 06/M09 Q1029

2010/08/09 23:00
FAPP 092300Z AUTO 19013KT //// // ////// 12/M07 Q1024

2010/08/09 23:00
FAUP 092300Z 22004KT CAVOK 02/M10 Q1032 NOSIG

2010/08/09 23:00
UTTT 092300Z 05003MPS CAVOK 24/07 Q1006 R08R/CLRD70 TEMPO 03005G10MPS

2010/08/09 23:00
SAAR 092300Z 00000KT CAVOK 11/06 Q1025

2010/08/09 23:00
SADF 092300Z 00000KT CAVOK 13/06 Q1025

2010/08/09 23:00
SAME 092300Z 14003KT CAVOK 12/M02 Q1022

2010/08/09 23:00
SANT 092300Z 09002KT 8000 FEW200 14/06 Q1022

2010/08/09 23:00
SARE 092300Z 14004KT 6000 NSC 12/08 Q1022

2010/08/09 23:00
SARF 092300Z 18003KT CAVOK 13/09 Q1021

2010/08/09 23:00
SARI 092300Z 23008KT CAVOK 16/14 Q1021

2010/08/09 23:00
SARP 092300Z 14005KT CAVOK 15/09 Q1020

2010/08/09 23:00
SASA 092300Z 34003KT CAVOK 11/02 Q1022

2010/08/09 23:00
SASJ 092300Z 09003KT 9999 NSC 13/04 Q1020

2010/08/09 23:00
SAVC 092300Z 29008KT CAVOK 10/00 Q1018

2010/08/09 23:00
SAWG 092300Z 25031KT CAVOK 05/M03 Q1009

2010/08/09 23:00
SAWH 092300Z 23019G25KT 5000 SN SCT015 BKN025 M01/M02 Q1000

2010/08/09 23:00
SAZM 092300Z 00000KT CAVOK 06/03 Q1025

2010/08/09 23:00
SAZS 092300Z 16007KT CAVOK 01/M03 Q1022

2010/08/09 23:00
DIAP 092300Z 23003KT 7000 SCT011 BKN080 24/23 Q1015 NOSIG

2010/08/09 23:00
FYGB 092300Z AUTO 13002KT //// // ////// 04/M09 Q1030

2010/08/09 23:00
FYGF 092300Z AUTO 12007KT //// // ////// 13/M04 Q1028

2010/08/09 23:00
FYKT 092300Z AUTO 07006KT //// // ////// 07/M08 Q1031

2010/08/09 23:00
FYLZ 092300Z AUTO 12008KT //// // ////// 13/M06 Q1023

2010/08/09 23:00
FYML 092300Z AUTO 11005KT //// // ////// ///// Q1033

2010/08/09 23:00
FYOA 092300Z AUTO 09010KT //// // ////// 21/M04 Q1020

2010/08/09 23:00
FYOJ 092300Z AUTO 08004KT //// // ////// 15/M03 Q1023

2010/08/09 23:00
FYOW 092300Z AUTO 12007KT //// // ////// 14/M06 Q1025

2010/08/09 23:00
FYWB 092300Z 22004KT 160V270 6000 VV/// 14/08 Q1016 

2010/08/09 23:00
FYWH 092300Z AUTO 13007KT //// // ////// 05/M08 Q1032

2010/08/09 23:00
FYWW 092300Z AUTO 13004KT //// // ////// 08/M08 Q1029

2010/08/09 23:00
MROC 092300Z 25007KT 5000 2000NW BR FEW009TCU SCT015 BKN035 22/22 A299 7 RERA TEMPO 3000 RABR

2010/08/09 23:03
YAMB 092303Z 18006KT 8000 -RA -RA -RA FEW002 BKN012 BKN020 16/15 Q1021

2010/08/09 23:00
YBCG 092300Z AUTO 04017KT 9999NDV // SCT031 SCT043 OVC056 21/14 Q1021

2010/08/09 23:00
YBHM 092300Z AUTO 04010KT //// // ////// 24/19 Q1018

2010/08/09 23:00
YBMA 092300Z 17015KT CAVOK 14/00 Q1018

2010/08/09 23:00
YBRK 092300Z 03009KT 9999 FEW020 SCT060 BKN160 24/18 Q1018

2010/08/09 23:00
YBRM 092300Z 11010KT CAVOK 14/M05 Q1018

2010/08/09 23:00
YCIN 092300Z AUTO 13012KT //// // ////// 14/M03 Q1018

2010/08/09 23:00
YFRT 092300Z AUTO 23009KT //// // ////// 06/05 Q1025

2010/08/09 23:00
YMAV 092300Z AUTO 17006KT 9999NDV // SCT036 BKN054 OVC067 07/07 Q1015

2010/08/09 23:00
YMHB 092300Z 32006KT 9999 FEW001 05/03 Q1026

2010/08/09 23:00
YMLT 092300Z AUTO 18009KT 9999NDV // SCT046 OVC055 06/05 Q1025

2010/08/09 23:00
YPEA 092300Z AUTO 03009KT 9999NDV // NCD 09/M03 Q1021

2010/08/09 23:00
YPGV 092300Z 09005KT 9000 FEW003 BKN240 24/24 Q1013

2010/08/09 23:00
YPKG 092300Z 00000KT CAVOK 02/M01 Q1026

2010/08/09 23:00
YPPD 092300Z 12010KT CAVOK 14/M09 Q1021

2010/08/09 23:00
YSCB 092300Z 33002KT 6000 -RA FEW009 SCT014 BKN045 10/08 Q1016

2010/08/09 23:00
YSDU 092300Z AUTO 04007KT 9999NDV // BKN015 OVC021 13/13 Q1015

2010/08/09 23:00
YSNF 092300Z 15009KT 9999 FEW040 17/07 Q1031

2010/08/09 23:00
YSRI 092300Z AUTO 00000KT 8000NDV // BKN085 09/09 Q1019

2010/08/09 23:00
YWLM 092300Z 05007KT 9999 -RA FEW017 SCT070 OVC090 15/14 Q1019

2010/08/09 23:00
YMML 092300Z 22003KT 4000 -RA BR FEW038 OVC049 06/06 Q1015 FM2300 15010KT 8000 -RA FEW015 BKN025 TEMPO 2300/0200 4000 RA BKN010

2010/08/09 23:00
OIAA 092300Z 18008KT 6000 FEW040 BKN100 33/26 Q0997

2010/08/09 23:00
OIBK 092300Z 09000KT 5000 HZ SKC 32/26 Q0996 A2944

2010/08/09 23:00
OICC 092300Z 09004KT CAVOK 21/M03 Q1013 A2991 864.6

2010/08/09 23:00
OIIE 092300Z 13006KT CAVOK 27/02 Q1011 A2987

2010/08/09 23:00
OITR 092300Z 24004KT 9999 FEW035 17/11 Q1013 A2994

2010/08/09 23:00
OIYY 092300Z 25006KT CAVOK 24/M03 Q1014 A2994

2010/08/09 23:03
YAMB 092303Z 18006KT 8000 -RA -RA -RA FEW002 BKN012 BKN020 16/15 Q1021

2010/08/09 23:00
YBCG 092300Z AUTO 04017KT 9999NDV // SCT031 SCT043 OVC056 21/14 Q1021

2010/08/09 23:00
YBHM 092300Z AUTO 04010KT //// // ////// 24/19 Q1018

2010/08/09 23:00
YBMA 092300Z 17015KT CAVOK 14/00 Q1018

2010/08/09 23:00
YBRK 092300Z 03009KT 9999 FEW020 SCT060 BKN160 24/18 Q1018

2010/08/09 23:00
YBRM 092300Z 11010KT CAVOK 14/M05 Q1018

2010/08/09 23:00
YCIN 092300Z AUTO 13012KT //// // ////// 14/M03 Q1018

2010/08/09 23:00
YFRT 092300Z AUTO 23009KT //// // ////// 06/05 Q1025

2010/08/09 23:00
YMAV 092300Z AUTO 17006KT 9999NDV // SCT036 BKN054 OVC067 07/07 Q1015

2010/08/09 23:00
YMHB 092300Z 32006KT 9999 FEW001 05/03 Q1026

2010/08/09 23:00
YMLT 092300Z AUTO 18009KT 9999NDV // SCT046 OVC055 06/05 Q1025

2010/08/09 23:00
YPEA 092300Z AUTO 03009KT 9999NDV // NCD 09/M03 Q1021

2010/08/09 23:00
YPGV 092300Z 09005KT 9000 FEW003 BKN240 24/24 Q1013

2010/08/09 23:00
YPKG 092300Z 00000KT CAVOK 02/M01 Q1026

2010/08/09 23:00
YPPD 092300Z 12010KT CAVOK 14/M09 Q1021

2010/08/09 23:00
YSCB 092300Z 33002KT 6000 -RA FEW009 SCT014 BKN045 10/08 Q1016

2010/08/09 23:00
YSDU 092300Z AUTO 04007KT 9999NDV // BKN015 OVC021 13/13 Q1015

2010/08/09 23:00
YSNF 092300Z 15009KT 9999 FEW040 17/07 Q1031

2010/08/09 23:00
YSRI 092300Z AUTO 00000KT 8000NDV // BKN085 09/09 Q1019

2010/08/09 23:00
YWLM 092300Z 05007KT 9999 -RA FEW017 SCT070 OVC090 15/14 Q1019

2010/08/09 23:00
YMML 092300Z 22003KT 4000 -RA BR FEW038 OVC049 06/06 Q1015 FM2300 15010KT 8000 -RA FEW015 BKN025 TEMPO 2300/0200 4000 RA BKN010

2010/08/09 22:50
ETUO 092250Z AUTO 00000KT 9000NDV // OVC050/// 17/14 Q1016

2010/08/09 23:00
LFBC 092300Z AUTO 00000KT 4400NDV BR NSC 13/11 Q1020

2010/08/09 23:00
LFBF 092300Z AUTO 24005KT 210V270 9999NDV // OVC049 20/17 Q1020

2010/08/09 23:00
LFBG 092300Z AUTO 22003KT 9999NDV NSC 16/12 Q1019

2010/08/09 23:00
LFBM 092300Z AUTO 28001KT 9999NDV NSC 15/14 Q1020

2010/08/09 23:00
LFKS 092300Z AUTO 27005KT 240V300 9999NDV NSC 21/18 Q1016

2010/08/09 23:00
LFLL 092300Z 00000KT CAVOK 22/15 Q1017 NOSIG

2010/08/09 23:00
LFMI 092300Z AUTO 19003KT 9999NDV NSC 21/19 Q1015

2010/08/09 23:00
LFMN 092300Z 26002KT 9999 FEW015 BKN033 23/20 Q1016 NOSIG

2010/08/09 23:00
LFMO 092300Z AUTO VRB02KT 9999NDV NSC 22/18 Q1016

2010/08/09 23:00
LFOA 092300Z AUTO 20007KT 9999NDV NSC 18/11 Q1017

2010/08/09 23:00
LFOC 092300Z AUTO 35006KT 9999NDV NSC 19/13 Q1017

2010/08/09 23:00
LFOE 092300Z AUTO 00000KT 9999NDV NSC 16/11 Q1017

2010/08/09 23:00
LFOJ 092300Z AUTO 35007KT 9999NDV NSC 17/12 Q1016

2010/08/09 23:00
LFPC 092300Z AUTO 02002KT 9999NDV // NSC 15/12 Q1016

2010/08/09 23:00
LFPG 092300Z 02007KT CAVOK 17/12 Q1016 NOSIG

2010/08/09 23:00
LFPO 092300Z 01006KT CAVOK 19/14 Q1016 NOSIG

2010/08/09 23:00
LFPV 092300Z AUTO 35007KT 9999NDV NSC 18/13 Q1016

2010/08/09 23:00
LFQI 092300Z AUTO 29008KT 9999NDV NSC 16/11 Q1016

2010/08/09 23:00
LFQQ 092300Z 27002KT CAVOK 15/11 Q1016 NOSIG

2010/08/09 23:00
LFRB 092300Z 22011KT 3000 -DZ BR OVC002 17/17 Q1016 NOSIG

2010/08/09 23:00
LFRS 092300Z 21003KT CAVOK 14/13 Q1018 NOSIG

2010/08/09 23:00
LFRT 092300Z AUTO 23006KT 200V270 9999NDV NSC 17/15 Q1016

2010/08/09 23:00
LFSD 092300Z AUTO 33003KT 9999NDV NSC 17/13 Q1017

2010/08/09 23:00
LFSF 092300Z AUTO VRB01KT 9999NDV NSC 15/12 Q1016

2010/08/09 23:00
LFSI 092300Z AUTO 09002KT 9999NDV NSC 16/13 Q1016

2010/08/09 23:00
LFSO 092300Z AUTO 12002KT 9999NDV NSC 17/11 Q1017

2010/08/09 23:00
LFSR 092300Z AUTO 24002KT 9999NDV NSC 17/12 Q1016

2010/08/09 23:00
LFSX 092300Z AUTO 08003KT 9999NDV NSC 14/13 Q1017

2010/08/09 23:00
LFYR 092300Z AUTO VRB03KT //// // ///////// 15/12 Q1016

2010/08/09 22:50
EGDY 092250Z AUTO 20011KT 9999NDV BKN008/// SCT050/// 17/17 Q1012

2010/08/09 22:50
EGOS 092250Z AUTO 23005KT 9999NDV FEW048/// 14/12 Q1010

2010/08/09 22:50
EGWU 092250Z AUTO 21008KT 9999NDV // OVC014/// 18/15 Q1012

2010/08/09 22:50
EGXJ 092250Z AUTO 20012KT 9999NDV // SCT011/// BKN035/// BKN080/// 17/15 Q1010

2010/08/09 23:00
EICK 092300Z 24005KT 9999 FEW038 SCT240 10/08 Q1011 NOSIG

2010/08/09 23:00
EIDW 092300Z 24007KT 9999 FEW030 12/09 Q1009 NOSIG

2010/08/09 23:00
EINN 092300Z 23006KT 9999 FEW024 BKN048 14/11 Q1010 NOSIG

2010/08/09 22:50
ETUO 092250Z AUTO 00000KT 9000NDV // OVC050/// 17/14 Q1016

2010/08/09 23:00
LEAB 092300Z 00000KT CAVOK 23/13 Q1019 NOSIG

2010/08/09 23:00
LESA 092300Z 00000KT CAVOK 22/15 Q1020

2010/08/09 23:00
LETO 092300Z 30012KT 260V320 CAVOK 27/14 Q1019 NOSIG

2010/08/09 23:00
LEVX 092300Z VRB04KT CAVOK 20/16 Q1017

2010/08/09 23:00
LFBP 092300Z AUTO 00000KT 9999NDV NSC 15/15 Q1020

2010/08/09 23:00
LFBT 092300Z 22002KT 9999 FEW013 BKN033 18/15 Q1021 NOSIG

2010/08/09 23:00
LFLB 092300Z AUTO VRB02KT 9999NDV OVC078/// //////TCU 20/16 Q1016

2010/08/09 23:00
LFLL 092300Z 00000KT CAVOK 22/15 Q1017 NOSIG

2010/08/09 23:00
LFLN 092300Z AUTO VRB02KT 9999NDV NSC 18/16 Q1017

2010/08/09 23:00
LFMN 092300Z 26002KT 9999 FEW015 BKN033 23/20 Q1016 NOSIG

2010/08/09 23:00
LFPG 092300Z 02007KT CAVOK 17/12 Q1016 NOSIG

2010/08/09 23:00
LFPM 092300Z AUTO 36004KT 340V040 9999NDV NSC 16/13 Q1016

2010/08/09 23:00
LFPO 092300Z 01006KT CAVOK 19/14 Q1016 NOSIG

2010/08/09 23:00
LFQQ 092300Z 27002KT CAVOK 15/11 Q1016 NOSIG

2010/08/09 23:00
LFRB 092300Z 22011KT 3000 -DZ BR OVC002 17/17 Q1016 NOSIG

2010/08/09 23:00
LFRH 092300Z AUTO 26004KT 9999NDV BKN004 OVC019 16/16 Q1018

2010/08/09 23:00
LFRQ 092300Z AUTO 23006KT 190V260 2000NDV -DZ BR OVC003 17/16 Q1017

2010/08/09 23:00
LFRS 092300Z 21003KT CAVOK 14/13 Q1018 NOSIG

2010/08/09 23:00
LFRT 092300Z AUTO 23006KT 200V270 9999NDV NSC 17/15 Q1016

2010/08/09 23:00
LFTW 092300Z AUTO 17004KT 140V220 9999NDV NSC 20/17 Q1016

2010/08/09 23:00
OINZ 092300Z 00000KT CAVOK 24/18 Q1008 A2979

2010/08/09 23:00
RJGG 092300Z 12010KT 9999 -SHRA FEW006 SCT015 BKN025 27/25 Q1015 NOSIG

2010/08/09 23:00
RJKA 092300Z 17022KT 9999 FEW007 SCT020 BKN170 29/26 Q1009

2010/08/09 23:00
RJNT 092300Z 23004KT 170V260 9999 FEW030 BKN080 31/24 Q1013

2010/08/09 23:00
RJNW 092300Z VRB02KT 9999 FEW020 SCT090 BKN/// 29/23 Q1015

2010/08/09 23:00
RJOA 092300Z 12003KT 9999 -RA FEW002 BKN080 BKN100 25/23 Q1016

2010/08/09 23:00
RJOB 092300Z 10003KT 070V140 8000 PRFG FEW000 SCT006 BKN015 26/25 Q1015

2010/08/09 23:00
RJOC 092300Z VRB01KT 9999 FEW025 SCT100 BKN140 29/22 Q1012

2010/08/09 23:00
RJOH 092300Z 16004KT 9999 FEW050 BKN080 29/23 Q1012

2010/08/09 23:00
RJOK 092300Z VRB02KT 9999 FEW005 SCT060 BKN120 26/25 Q1014

2010/08/09 23:00
RJOM 092300Z 08003KT 040V110 9999 FEW015 SCT060 BKN120 27/25 Q1013

2010/08/09 23:00
RJOO 092300Z 23006KT 180V260 9999 -SHRA FEW008 SCT015 BKN090 28/24 Q1014

2010/08/09 23:00
RJOR 092300Z 14007KT 9999 FEW030 SCT080 BKN180 30/24 Q1013

2010/08/09 23:00
RJOT 092300Z 15005KT 9999 -SHRA FEW002 SCT035 BKN060 25/24 Q1015

2010/08/09 23:00
RJOW 092300Z 16011KT 9999 FEW020 SCT100 BKN140 29/22 Q1012

2010/08/09 23:00
RJOY 092300Z VRB01KT 9999 FEW025 BKN070 29/23 Q1014

2010/08/09 23:00
RJSA 092300Z 06004KT 360V090 8000 FEW001 SCT005 BKN007 25/22 Q1015

2010/08/09 23:00
RJSC 092300Z VRB01KT 9999 FEW035 27/23 Q1015

2010/08/09 23:00
RJSF 092300Z 19004KT 9999 FEW008 SCT010 BKN015 25/22 Q1017

2010/08/09 23:00
RJSI 092300Z 20005KT 7000 FEW005 BKN010 25/23 Q1015

2010/08/09 23:00
RJSK 092300Z 13005KT 100V180 9999 FEW020 27/24 Q1014

2010/08/09 23:04
KJAN 092304Z VRB03KT 10SM SCT027 BKN090 26/24 A2993 RMK AO2 TSE04RAE04 TS MOV SW P0000 

2010/08/09 23:00
RJAA 092300Z 17007KT 9999 FEW015 28/24 Q1016 NOSIG

2010/08/09 23:00
RJBB 092300Z 21007KT 9999 FEW008 BKN/// 28/25 Q1014 NOSIG

2010/08/09 23:00
RJBD 092300Z 36007KT 3500 TSRA BR FEW001 SCT010 FEW025CB BKN030 24/23 Q1015

2010/08/09 23:00
RJBE 092300Z 24008KT 9999 FEW005 SCT100 BKN/// 27/25 Q1014

2010/08/09 23:00
RJCB 092300Z VRB01KT 5000 BR FEW004 BKN005 BKN007 22/20 Q1015

2010/08/09 23:00
RJCC 092300Z 17007KT 8000 FEW002 BKN003 BKN006 23/21 Q1014

2010/08/09 23:00
RJCH 092300Z VRB02KT 9999 FEW003 SCT005 BKN006 24/24 Q1015

2010/08/09 23:00
RJCK 092300Z 32005KT 0600 R17/1000VP1800U DZ VV001 20/19 Q1015

2010/08/09 23:00
RJCM 092300Z 17009KT 9999 FEW010 SCT160 27/22 Q1013

2010/08/09 23:00
RJDC 092300Z 09016KT 9999 FEW008 BKN/// 27/24 Q1011

2010/08/09 23:00
RJDT 092300Z 16012KT 9999 -SHRA FEW015 SCT030 BKN100 27/24 Q1010

2010/08/09 23:00
RJEC 092300Z VRB02KT 9999 FEW005 SCT009 BKN012 24/23 Q1015

2010/08/09 23:00
RJFS 092300Z 04005KT 9999 FEW020 SCT080 BKN140 28/24 Q1010

2010/08/09 23:00
RJFF 092300Z 15005KT 9999 FEW020 SCT110 BKN140 26/23 Q1010

2010/08/09 23:00
RJFK 092300Z 11009KT 9999 FEW010 SCT120 BKN/// 27/24 Q1013

2010/08/09 23:00
RJFM 092300Z VRB01KT 9999 FEW010 BKN020 BKN/// 28/26 Q1012

2010/08/09 23:00
RJFO 092300Z 20003KT 160V240 9999 SCT003 BKN150 BKN/// 26/25 Q1012

2010/08/09 23:00
RJFR 092300Z 11007KT 9999 FEW007 BKN150 BKN/// 28/24 Q1011

2010/08/09 23:00
RJFT 092300Z 05007KT 9999 FEW025 SCT150 BKN/// 29/23 Q1011

2010/08/09 23:00
RJFU 092300Z 13016KT 9999 FEW025 BKN160 BKN/// 29/25 Q1009

2010/08/09 23:00
RJSR 092300Z VRB01KT 2000 BCFG BR FEW001 SCT003 BKN009 23/23 Q1015

2010/08/09 23:00
RJSN 092300Z 17004KT 110V210 9999 FEW040 31/22 Q1013

2010/08/09 23:00
RJSS 092300Z 22006KT 170V260 9999 FEW020 28/22 Q1015

2010/08/09 23:00
RJSY 092300Z 11005KT 060V140 9999 FEW020 29/21 Q1014

2010/08/09 23:00
RJTH 092300Z 20004KT 150V250 9999 -SHRA FEW012 SCT025 BKN035 26/25 Q1017

2010/08/09 23:00
RJTO 092300Z 19008KT 9999 FEW012 SCT030 BKN060 28/26 Q1016

2010/08/09 23:00
RJTT 092300Z 14008KT 9999 FEW012 SCT020 BKN080 28/23 Q1016

2010/08/09 23:00
ROAH 092300Z 20020KT 8000 -RA FEW010 BKN080 BKN100 27/26 Q1008

2010/08/09 23:00
ROIG 092300Z 21015KT 9999 TS FEW010 SCT020 FEW025CB BKN120 28/26 Q1006

2010/08/09 23:00
ROMY 092300Z 22015KT 1000 R22/P1800N +SHRA FEW007 BKN015 FEW020CB 26/26 Q1006

2010/08/09 23:00
RORS 092300Z 21019KT 9999 -SHRA FEW010 FEW015CB SCT030 BKN070 27/25 Q1006 RETS

2010/08/09 23:00
RJAH 092300Z 19008KT 9999 FEW020 28/24 Q1015

2010/08/09 23:02
KFVE 092302Z AUTO 32006KT 2 1/2SM -RA BR BKN035 BKN060 OVC100 18/17 A2982

2010/08/09 23:00
LFAQ 092300Z AUTO 31006KT 9999NDV NSC 15/12 Q1016

2010/08/09 23:00
LFBU 092300Z AUTO 24003KT 200V270 9999NDV OVC040 18/10 Q1019

2010/08/09 23:00
LFLN 092300Z AUTO VRB02KT 9999NDV NSC 18/16 Q1017

2010/08/09 23:00
LFPM 092300Z AUTO 36004KT 340V040 9999NDV NSC 16/13 Q1016

2010/08/09 23:00
LFRH 092300Z AUTO 26004KT 9999NDV BKN004 OVC019 16/16 Q1018

2010/08/09 23:00
LFRQ 092300Z AUTO 23006KT 190V260 2000NDV -DZ BR OVC003 17/16 Q1017

2010/08/09 23:00
LFRT 092300Z AUTO 23006KT 200V270 9999NDV NSC 17/15 Q1016

2010/08/09 23:00
LFSD 092300Z AUTO 33003KT 9999NDV NSC 17/13 Q1017

2010/08/09 23:00
LFTW 092300Z AUTO 17004KT 140V220 9999NDV NSC 20/17 Q1016

2010/08/09 23:00
LFBA 092300Z AUTO 23002KT 9999NDV FEW036 16/13 Q1020

2010/08/09 23:00
LFBE 092300Z AUTO 00000KT 9999NDV NSC 14/12 Q1019

2010/08/09 23:00
LFGJ 092300Z AUTO 08003KT 9999NDV NSC 17/14 Q1017

2010/08/09 23:00
LFJR 092300Z AUTO 00000KT 9999NDV NSC 15/11 Q1018

2010/08/09 23:00
LFMD 092300Z AUTO VRB01KT 9999NDV BKN030 23/20 Q1015

2010/08/09 23:00
LFMH 092300Z AUTO 30002KT 9999NDV NSC 22/15 Q1018

2010/08/09 23:00
LFOT 092300Z 34004KT CAVOK 19/12 Q1017 NOSIG

2010/08/09 23:00
LFPN 092300Z AUTO 34006KT 9999NDV NSC 17/13 Q1016

2010/08/09 23:00
LFRC 092300Z AUTO 23010KT 9999NDV FEW008 OVC014 17/16 Q1015

2010/08/09 23:00
LFRG 092300Z AUTO 22003KT 9999NDV NSC 11/10 Q1017

2010/08/09 23:00
LFRK 092300Z AUTO 20006KT 9999NDV ///////// 14/11 Q1016

2010/08/09 23:00
TFFF 092300Z VRB02KT 9999 FEW023 SCT060 27/25 Q1013 NOSIG

2010/08/09 23:00
LRBS 092300Z 00000KT CAVOK 23/20 Q1013 NOSIG

2010/08/09 23:00
LRCK 092300Z 29007KT 260V320 CAVOK 23/19 Q1011 NOSIG

2010/08/09 23:00
LROP 092300Z 33001KT CAVOK 21/20 Q1013 880///95 NOSIG

2010/08/09 23:00
LRSB 092300Z 28006KT 9999 SCT037 BKN060 20/18 Q1017

2010/08/09 23:00
LRTR 092300Z 36004KT CAVOK 18/17 Q1017

2010/08/09 23:00
RKSI 092300Z 12005KT 090V150 9000 FEW030 SCT080 BKN150 28/23 Q1008 NOSIG

2010/08/09 23:00
RKSS 092300Z 32002KT 8000 -RA BKN030 BKN100 26/23 Q1008 TEMPO -RA 

2010/08/09 23:00
RKPC 092300Z 11009KT 090V150 6000 -SHRA BKN025 BKN150 29/24 Q1004 NOSIG 

2010/08/09 23:00
RKPK 092300Z 18006KT 9999 FEW015 BKN025 BKN200 28/24 Q1010 NOSIG 

2010/08/09 23:00
RKTU 092300Z 30004KT 8000 -RA FEW010 BKN030 OVC050 25/24 Q1009 NOSIG 

2010/08/09 23:00
RKTN 092300Z 18001KT 6000 -RA FEW005 BKN015 OVC030 26/25 Q1010 NOSIG

2010/08/09 23:00
RKJB 092300Z 13009KT 100V170 9999 FEW040 BKN130 28/24 Q1007 NOSIG 

2010/08/09 23:00
RKNY 092300Z AUTO 33002KT3000NDV ///106 26/22 Q1009 

2010/08/09 23:00
LKKV 092300Z 00000KT 9999 FEW043 14/13 Q1019

2010/08/09 23:00
LFLL 092300Z 00000KT CAVOK 22/15 Q1017 NOSIG

2010/08/09 23:00
LFMN 092300Z 26002KT 9999 FEW015 BKN033 23/20 Q1016 NOSIG

2010/08/09 23:00
LFPG 092300Z 02007KT CAVOK 17/12 Q1016 NOSIG

2010/08/09 23:00
LFPO 092300Z 01006KT CAVOK 19/14 Q1016 NOSIG

2010/08/09 23:00
LFQQ 092300Z 27002KT CAVOK 15/11 Q1016 NOSIG

2010/08/09 23:00
LFRB 092300Z 22011KT 3000 -DZ BR OVC002 17/17 Q1016 NOSIG

2010/08/09 23:00
LFRS 092300Z 21003KT CAVOK 14/13 Q1018 NOSIG

2010/08/09 23:00
YSDU 092300Z AUTO 04007KT 9999NDV // BKN015 OVC021 13/13 Q1015

2010/08/09 23:00
LFKB 092300Z AUTO 19002KT 9999NDV NCD 21/19 Q1016

2010/08/09 23:00
LFKF 092300Z AUTO VRB03KT 9999NDV NCD 19/14 Q1016

2010/08/09 23:00
LFKJ 092300Z 05005KT CAVOK 20/17 Q1016 NOSIG

2010/08/09 23:00
LFLC 092300Z 22004KT 170V280 9999 SCT066 SCT083 22/15 Q1018 NOSIG

2010/08/09 23:00
LFMP 092300Z AUTO 32010KT 9999NDV NSC 23/17 Q1017

2010/08/09 23:00
LFMV 092300Z AUTO VRB02KT 9999NDV NSC 20/18 Q1015

2010/08/09 23:00
LFSL 092300Z AUTO VRB03KT 9999NDV FEW025 BKN040 18/16 Q1020

2010/08/09 23:00
LFMI 092300Z AUTO 19003KT 9999NDV NSC 21/19 Q1015

2010/08/09 23:00
LFMK 092300Z AUTO 28007KT 240V310 9999NDV OVC045 21/16 Q1019

2010/08/09 23:00
LFRD 092300Z AUTO 19005KT 9999NDV SCT019 15/13 Q1017

2010/08/09 23:00
LFRN 092300Z AUTO 28003KT 9999NDV NSC 15/12 Q1017

2010/08/09 23:00
LFRO 092300Z AUTO 20008KT 9999NDV BKN011 OVC017 17/16 Q1016

2010/08/09 23:00
LFRZ 092300Z AUTO 29007KT 9999NDV NSC 16/15 Q1018

2010/08/09 23:00
LFSB 092300Z 24003KT CAVOK 15/13 Q1017 NOSIG

2010/08/09 23:00
LFST 092300Z AUTO VRB02KT 9999NDV NSC 16/13 Q1017

2010/08/09 23:00
LFTH 092300Z AUTO 26004KT 9999NDV NSC 22/21 Q1015

2010/08/09 23:00
LCLK 092300Z 36006KT 9999 FEW008 27/25 Q1005 NOSIG

2010/08/09 23:00
LCPH 092300Z 30005KT 9999 FEW009 SCT016 28/26 Q1005

2010/08/09 23:00
LFCR 092300Z AUTO 26006KT 9999NDV BKN031 17/13 Q1021

2010/08/09 23:00
LFJL 092300Z AUTO 18002KT 9999NDV NSC 17/10 Q1017

2010/08/09 23:00
LFLP 092300Z AUTO 00000KT 9999NDV FEW078/// BKN100/// BKN120/// //////TCU 19/14 Q1018

2010/08/09 23:00
LFLS 092300Z AUTO 20003KT 170V250 9999NDV SCT072 19/15 Q1017

2010/08/09 23:00
LFLY 092300Z AUTO 35004KT 9999NDV NSC 24/15 Q1017

2010/08/09 23:00
LFMT 092300Z 29010KT CAVOK 24/16 Q1016 NOSIG

2010/08/09 23:00
LFMU 092300Z AUTO 30007KT 9999NDV NSC 23/17 Q1017

2010/08/09 23:00
LFOB 092300Z AUTO 31005KT 9999NDV NSC 14/11 Q1017

2010/08/09 23:00
LFOH 092300Z AUTO 20004KT 9999NDV NSC 16/12 Q1016

2010/08/09 23:00
LFOK 092300Z AUTO 15005KT 9999NDV NSC 15/11 Q1016

2010/08/09 23:00
LFOP 092300Z AUTO 00000KT 9999NDV NSC 13/11 Q1017

2010/08/09 23:00
LFPB 092300Z AUTO 35003KT 9999NDV NSC 18/13 Q1016

2010/08/09 23:00
LFSN 092300Z 00000KT CAVOK 17/12 Q1017 NOSIG

2010/08/09 23:00
LFBD 092300Z 26002KT 9999 1500W R05/1100VP2000D VCFG BR NSC 16/14 Q1020 NOSIG

2010/08/09 23:00
LFBH 092300Z AUTO 30010KT 9999NDV BKN011 17/15 Q1019

2010/08/09 23:00
LFBI 092300Z AUTO 25008KT 9999NDV NSC 18/12 Q1018

2010/08/09 23:00
LFBL 092300Z AUTO 27006KT 9999NDV FEW048 17/13 Q1019

2010/08/09 23:00
LFBO 092300Z AUTO 26007KT 220V280 9999NDV OVC046 21/16 Q1020

2010/08/09 23:00
LFBP 092300Z AUTO 00000KT 9999NDV NSC 15/15 Q1020

2010/08/09 23:00
LFBT 092300Z 22002KT 9999 FEW013 BKN033 18/15 Q1021 NOSIG

2010/08/09 23:00
LFBZ 092300Z AUTO 22001KT 9999NDV FEW040 17/15 Q1020

2010/08/09 23:00
LFLB 092300Z AUTO VRB02KT 9999NDV OVC078/// //////TCU 20/16 Q1016

2010/08/09 23:00
LFLX 092300Z AUTO 25010KT 9999NDV NSC 20/14 Q1017

2010/08/09 23:00
LFML 092300Z VRB02KT 9999 FEW040 SCT130 22/19 Q1015 NOSIG

2010/08/09 23:00
LFBA 092300Z AUTO 23002KT 9999NDV FEW036 16/13 Q1020

2010/08/09 23:00
LFBD 092300Z 26002KT 9999 1500W R05/1100VP2000D VCFG BR NSC 16/14 Q1020 NOSIG

2010/08/09 23:00
LFBI 092300Z AUTO 25008KT 9999NDV NSC 18/12 Q1018

2010/08/09 23:00
LFBL 092300Z AUTO 27006KT 9999NDV FEW048 17/13 Q1019

2010/08/09 23:00
LFBO 092300Z AUTO 26007KT 220V280 9999NDV OVC046 21/16 Q1020

2010/08/09 23:00
LFBP 092300Z AUTO 00000KT 9999NDV NSC 15/15 Q1020

2010/08/09 23:00
LFBT 092300Z 22002KT 9999 FEW013 BKN033 18/15 Q1021 NOSIG

2010/08/09 23:00
LFBZ 092300Z AUTO 22001KT 9999NDV FEW040 17/15 Q1020

2010/08/09 23:00
LFGJ 092300Z AUTO 08003KT 9999NDV NSC 17/14 Q1017

2010/08/09 23:00
LFLB 092300Z AUTO VRB02KT 9999NDV OVC078/// //////TCU 20/16 Q1016

2010/08/09 23:00
LFLN 092300Z AUTO VRB02KT 9999NDV NSC 18/16 Q1017

2010/08/09 23:00
LFLX 092300Z AUTO 25010KT 9999NDV NSC 20/14 Q1017

2010/08/09 23:00
LFMD 092300Z AUTO VRB01KT 9999NDV BKN030 23/20 Q1015

2010/08/09 23:00
LFMH 092300Z AUTO 30002KT 9999NDV NSC 22/15 Q1018

2010/08/09 23:00
LFML 092300Z VRB02KT 9999 FEW040 SCT130 22/19 Q1015 NOSIG

2010/08/09 23:00
LFMP 092300Z AUTO 32010KT 9999NDV NSC 23/17 Q1017

2010/08/09 23:00
LFOT 092300Z 34004KT CAVOK 19/12 Q1017 NOSIG

2010/08/09 23:00
LFPM 092300Z AUTO 36004KT 340V040 9999NDV NSC 16/13 Q1016

2010/08/09 23:00
LFPN 092300Z AUTO 34006KT 9999NDV NSC 17/13 Q1016

2010/08/09 23:00
LFRC 092300Z AUTO 23010KT 9999NDV FEW008 OVC014 17/16 Q1015

2010/08/09 23:00
LFRH 092300Z AUTO 26004KT 9999NDV BKN004 OVC019 16/16 Q1018

2010/08/09 23:00
LFRK 092300Z AUTO 20006KT 9999NDV ///////// 14/11 Q1016

2010/08/09 23:00
LFRN 092300Z AUTO 28003KT 9999NDV NSC 15/12 Q1017

2010/08/09 23:00
LFRQ 092300Z AUTO 23006KT 190V260 2000NDV -DZ BR OVC003 17/16 Q1017

2010/08/09 23:00
LFSB 092300Z 24003KT CAVOK 15/13 Q1017 NOSIG

2010/08/09 23:00
LFSL 092300Z AUTO VRB03KT 9999NDV FEW025 BKN040 18/16 Q1020

2010/08/09 23:00
LFTH 092300Z AUTO 26004KT 9999NDV NSC 22/21 Q1015

2010/08/09 23:00
LFTW 092300Z AUTO 17004KT 140V220 9999NDV NSC 20/17 Q1016

2010/08/09 23:00
LFBA 092300Z AUTO 23002KT 9999NDV FEW036 16/13 Q1020

2010/08/09 23:00
LFBD 092300Z 26002KT 9999 1500W R05/1100VP2000D VCFG BR NSC 16/14 Q1020 NOSIG

2010/08/09 23:00
LFBE 092300Z AUTO 00000KT 9999NDV NSC 14/12 Q1019

2010/08/09 23:00
LFBI 092300Z AUTO 25008KT 9999NDV NSC 18/12 Q1018

2010/08/09 23:00
LFBL 092300Z AUTO 27006KT 9999NDV FEW048 17/13 Q1019

2010/08/09 23:00
LFBO 092300Z AUTO 26007KT 220V280 9999NDV OVC046 21/16 Q1020

2010/08/09 23:00
LFBZ 092300Z AUTO 22001KT 9999NDV FEW040 17/15 Q1020

2010/08/09 23:00
LFGJ 092300Z AUTO 08003KT 9999NDV NSC 17/14 Q1017

2010/08/09 23:00
LFKB 092300Z AUTO 19002KT 9999NDV NCD 21/19 Q1016

2010/08/09 23:00
LFKF 092300Z AUTO VRB03KT 9999NDV NCD 19/14 Q1016

2010/08/09 23:00
LFKJ 092300Z 05005KT CAVOK 20/17 Q1016 NOSIG

2010/08/09 23:00
LFLC 092300Z 22004KT 170V280 9999 SCT066 SCT083 22/15 Q1018 NOSIG

2010/08/09 23:00
LFLX 092300Z AUTO 25010KT 9999NDV NSC 20/14 Q1017

2010/08/09 23:00
LFMD 092300Z AUTO VRB01KT 9999NDV BKN030 23/20 Q1015

2010/08/09 23:00
LFMH 092300Z AUTO 30002KT 9999NDV NSC 22/15 Q1018

2010/08/09 23:00
LFML 092300Z VRB02KT 9999 FEW040 SCT130 22/19 Q1015 NOSIG

2010/08/09 23:00
LFMP 092300Z AUTO 32010KT 9999NDV NSC 23/17 Q1017

2010/08/09 23:00
LFOT 092300Z 34004KT CAVOK 19/12 Q1017 NOSIG

2010/08/09 23:00
LFPN 092300Z AUTO 34006KT 9999NDV NSC 17/13 Q1016

2010/08/09 23:00
LFRC 092300Z AUTO 23010KT 9999NDV FEW008 OVC014 17/16 Q1015

2010/08/09 23:00
LFRK 092300Z AUTO 20006KT 9999NDV ///////// 14/11 Q1016

2010/08/09 23:00
LFRN 092300Z AUTO 28003KT 9999NDV NSC 15/12 Q1017

2010/08/09 23:00
LFSB 092300Z 24003KT CAVOK 15/13 Q1017 NOSIG

2010/08/09 23:00
LFSL 092300Z AUTO VRB03KT 9999NDV FEW025 BKN040 18/16 Q1020

2010/08/09 23:00
LFST 092300Z AUTO VRB02KT 9999NDV NSC 16/13 Q1017

2010/08/09 23:00
LFTH 092300Z AUTO 26004KT 9999NDV NSC 22/21 Q1015

2010/08/09 23:00
LROP 092300Z 33001KT CAVOK 21/20 Q1013 880///95 NOSIG

2010/08/09 23:00
LRSB 092300Z 28006KT 9999 SCT037 BKN060 20/18 Q1017

2010/08/09 23:00
LRTR 092300Z 36004KT CAVOK 18/17 Q1017

2010/08/09 23:02
KTOL 092302Z 30018G22KT 1 1/2SM -RA FEW015 BKN050 BKN075 28/23 A2995

2010/08/09 23:00
ZBAA 092300Z 36004MPS CAVOK 24/14 Q1007 NOSIG

2010/08/09 23:00
ZBSJ 092300Z 31003MPS 2000 R33/1000N BR NSC 23/22 Q1007 NOSIG

2010/08/09 23:00
ZBTJ 092300Z 21001MPS 0900 R16R/1100N FG NSC 26/25 Q1006 BECMG 1600

2010/08/09 23:00
ZBYN 092300Z 36002MPS 3000 -RA BR SCT030 OVC040 20/18 Q1010 TEMPO 2500 RA

2010/08/09 23:00
ZGGG 092300Z VRB01MPS 5000 BR FEW015 28/26 Q1006 NOSIG

2010/08/09 23:00
ZSHC 092300Z 30003MPS 9999 FEW017 29/24 Q1003 NOSIG

2010/08/09 23:00
ZSPD 092300Z 33006MPS 9999 FEW010 BKN040 28/25 Q1002 NOSIG

2010/08/09 23:00
ZSSS 092300Z 35005MPS 9999 SCT013 29/26 Q1002 NOSIG

2010/08/09 23:00
ZWSH 092300Z 30003MPS 250V340 CAVOK 25/07 Q1010 NOSIG

2010/08/09 23:00
ZWWW 092300Z 15003MPS CAVOK 24/10 Q1006 NOSIG

2010/08/09 23:00
ZYTL 092300Z 15003MPS 100V180 3000 -SHRA BR SCT005 BKN026 23/22 Q1007 NOSIG

2010/08/09 23:00
ZYTX 092300Z 15001MPS 4000 BR OVC040 23/22 Q1007 NOSIG

2010/08/09 23:00
OIAM 092300Z 19006KT 8000 SKC 33/29 Q0996 A2944

2010/08/09 23:00
OICI 092300Z 31004KT CAVOK 26/M08 Q1011 A2986 862.2

2010/08/09 23:00
OINN 092300Z VRB02KT CAVOK 25/22 Q1007 A2974

2010/08/09 23:00
OINR 092300Z 00000KT CAVOK 26/22 Q1007 A2974

2010/08/09 23:00
OISY 092300Z 00000KT CAVOK 21/M03 Q1019 A3010

2010/08/09 23:02
KESF 092302Z AUTO 10008G19KT 10SM FEW065 SCT090 31/22 A2991

2010/08/09 23:00
OING 092300Z 21008KT CAVOK 24/15 Q1009 A2979

2010/08/09 23:00
ZGKL 092300Z VRB01MPS 4500 R01/1300 BR BKN050 26/25 Q1006 NOSIG

2010/08/09 23:00
ZGNN 092300Z 06001MPS 5000 BR SKC 26/25 Q1005 NOSIG

2010/08/09 23:00
ZGOW 092300Z 29001MPS 5000 BR NSC 28/26 Q1006 NOSIG

2010/08/09 23:00
ZGSZ 092300Z 00000MPS CAVOK 30/24 Q1005 NOSIG

2010/08/09 23:00
ZLXY 092300Z 03002MPS 360V060 2500 BR SKC 26/23 Q1005 BECMG 3100 BR

2010/08/09 23:00
ZMUB 092300Z 26002MPS 9999 SCT100 10/01 Q1007 NOSIG RMK QFE649.2 55

2010/08/09 23:00
ZPPP 092300Z 10002MPS 9999 SCT026 OVC040 20/16 Q1017 NOSIG

2010/08/09 23:00
ZSAM 092300Z 26001MPS 8000 SKC 30/24 Q1005 NOSIG

2010/08/09 23:00
ZSFZ 092300Z 20003MPS 170V250 CAVOK 29/24 Q1004 NOSIG

2010/08/09 23:00
ZSNB 092300Z 31004MPS 9999 FEW026 29/25 Q1002 NOSIG

2010/08/09 23:00
ZSQD 092300Z 06002MPS 9999 BKN023 27/23 Q1006 NOSIG

2010/08/09 23:00
ZUUU 092300Z 00000MPS 2300 BR FEW040 26/24 Q1004 NOSIG

2010/08/09 23:00
WBKK 092300Z 11004KT 9999 FEW014 FEW017CB SCT040 BKN270 25/23 Q1010 RETS NOSIG

2010/08/09 23:00
WMKJ 092300Z 31001KT 6000 FEW022 BKN300 24/24 Q1009

2010/08/09 23:00
WMKK 092300Z 15003KT 9000 FEW030 SCT140 BKN280 25/24 Q1008 NOSIG

2010/08/09 23:00
WMKP 092300Z 25001KT 9000 FEW022 SCT140 BKN270 26/24 Q1007 NOSIG

2010/08/09 23:00
WMSA 092300Z 00000KT 9000 FEW027 BKN280 26/25 Q1008

2010/08/09 22:55
KQPD 092255Z AUTO VRB04KT 9999 28/12 A2963 RMK AO2 SLP938 T02840116 $

2010/08/09 22:55
KQQS 092255Z AUTO 35003KT 9999 BKN100 17/14 A3006 RMK AO2 SLP066 T01740144 $

2010/08/09 23:00
KMCF 092300Z AUTO VRB05KT 10SM FEW014 28/26 A2986 RMK AO2 LTG DSNT NE RAE2258DZB2258E2300 SLP113

2010/08/09 22:57
KNRB 092257Z 12008KT 10SM -RA FEW022TCU SCT035 BKN150 BKN250 29/23 A2994 RMK AO2 RAB55 TCU N T2 SET P0000

2010/08/09 23:00
BIAR 092300Z VRB03KT CAVOK 09/06 Q1013

2010/08/09 23:00
BIEG 092300Z 03007KT 0500 FG VV002 08/08 Q1012

2010/08/09 23:00
BIKF 092300Z 32006KT 9999 BKN012 10/07 Q1014

2010/08/09 23:00
BIRK 092300Z 32005KT 9999 BKN013 12/09 Q1014

2010/08/09 23:00
KNEL 092300Z AUTO 19007KT 9SM CLR 30/16 A2994 RMK AO2 SLP137 T03000161 $

2010/08/09 23:00
LKKV 092300Z 00000KT 9999 FEW043 14/13 Q1019

2010/08/09 23:00
MHCH 092300Z 00000KT 9999 TS SCT030TCU BKN080 27/25 RERA CB TCU TD TS S

2010/08/09 23:00
MNMG 092300Z 10008KT 9000 VCRA FEW020CB SCT070 28/24 Q1008 A2978 CBRA/W CB/E/S/SW/NW TEMPO 9000 VCRA/-DZ

2010/08/09 23:00
MROC 092300Z 25007KT 5000 2000NW FEW009TCU SCT015 BKN035 22/22 A2997 RERA TEMPO 3000 RABR

2010/08/09 23:00
MWCR 092300Z 07005KT 9999 SCT016TCU BKN220 30/26 Q1013 NOSIG

2010/08/09 23:00
OIAW 092300Z 16004KT CAVOK 33/17 Q0997 A2944

2010/08/09 23:00
OIKB 092300Z 02004KT 7000 SKC 30/25 Q0998 A2947

2010/08/09 23:00
OIMM 092300Z 28006KT CAVOK 22/02 Q1013 A2993

2010/08/09 23:00
OISS 092300Z 27004KT CAVOK 18/02 Q1013 A2993

2010/08/09 23:00
OITT 092300Z 09008KT 9999 FEW040 FEW045CB 26/09 Q1015 A3000

2010/08/09 23:00
OIZH 092300Z 01006KT CAVOK 26/M02 Q1010 A2982

2010/08/09 23:00
ORBI 092300Z 02004KT CAVOK 33/11 Q1000 NOSIG

2010/08/09 23:00
ORMM 092300Z 29009KT CAVOK 33/12 Q0997

2010/08/09 23:00
ORSU 092300Z 31006KT CAVOK 26/03 Q1008

2010/08/09 23:00
RJAW 092300Z 06007KT 030V100 9999 FEW012 28/24 Q1014 RMK 2CU012 A2996

2010/08/09 23:00
RJSM 092300Z 28002KT 3500 BR FEW001 SCT003 BKN005 24/22 Q1014 RMK 1ST001 4ST003 7ST005 A2996 FCST 2305 BECMG 2324 06003KT 7000 NSW FEW003ST SCT005ST

2010/08/09 23:00
SVJC 092300Z 09010KT 9999 SCT060 31/24 Q1009

2010/08/09 23:00
TKPN 092300Z 12009KT 9999 FEW012TCU SCT280 29/26 Q1013

2010/08/09 23:00
KNEL 092300Z AUTO 19007KT 9SM CLR 30/16 A2994 RMK AO2 SLP137 T03000161 $

2010/08/09 22:56
KNGP 092256Z 13011KT 10SM FEW018 SCT040 SCT250 31/26 A2986 RMK AO2 SLP111 T03110261

2010/08/09 22:59
KNGU 092259Z 15004KT 10SM FEW250 31/21 A2999 RMK AO2 SLP157 T03060206

2010/08/09 22:56
KNMM 092256Z 18003KT 10SM FEW055 SCT250 34/23 A2992 RMK AO2 SLP138 T2 SET T03440228 $

2010/08/09 22:56
KNQI 092256Z 12012KT 10SM FEW030CB SCT140 SCT280 35/25 A2984 RMK AO2 SLP102 CB DSNT SW TCU DSNT E T03450245 $

2010/08/09 22:56
KNSE 092256Z 22006KT 9SM FEW038TCU SCT060 BKN100 32/24 A2992 RMK AO2 SLP115 TCU NW T2 SET T03170239 $

2010/08/09 22:56
KNTD 092256Z 23008KT 7SM CLR 18/13 A2990 RMK AO2 SLP127 LAG PK 12/12/13003KT T01830133 $

2010/08/09 22:52
KNZY 092252Z 29009KT 10SM FEW019 24/13 A2988 RMK AO2 SLP117 T02390133 $

2010/08/09 22:56
KOSC 092256Z AUTO 24005KT 10SM SCT014 27/23 A2989 RMK AO2

2010/08/09 22:56
KNBC 092256Z 11008KT 10SM FEW065 31/24 A2996 RMK AO2 SLP145 T03060239 $

2010/08/09 22:56
KNCA 092256Z 00000KT 10SM 29/24 A3001 RMK AO2 SLP162 T02940239 $

2010/08/09 22:56
KNGP 092256Z 13011KT 10SM FEW018 SCT040 SCT250 31/26 A2986 RMK AO2 SLP111 T03110261

2010/08/09 22:59
KNGU 092259Z 15004KT 10SM FEW250 31/21 A2999 RMK AO2 SLP157 T03060206

2010/08/09 22:57
KNJM 092257Z AUTO 20007KT 10SM FEW015 BKN060 BKN095 28/25 A3001 RMK AO2 SLP167 T02780250

2010/08/09 22:56
KNTU 092256Z 11006KT 10SM FEW200 27/23 A2998 RMK AO2 SLP156 T02720228 $

2010/08/09 23:00
MWCR 092300Z 07005KT 9999 SCT016TCU BKN220 30/26 Q1013 NOSIG

2010/08/09 23:00
MYNN 092300Z 23004KT 9000 SHRA SCT012CB BKN015 OVC080 25/24 A2999

2010/08/09 23:00
SCAR 092300Z 22005KT CAVOK 14/08 Q1017

2010/08/09 23:00
SCBA 092300Z AUTO 31019KT CAVOK 02/M02 Q1020

2010/08/09 23:00
SCDA 092300Z 25003KT 8000 OVC020 14/09 Q1017

2010/08/09 23:00
SCEL 092300Z 17004KT CAVOK 15/05 Q1016 NOSIG

2010/08/09 23:00
SCFA 092300Z 18004KT 9999 FEW020 13/08 Q1016

2010/08/09 23:00
SCIE 092300Z 17002KT CAVOK 10/06 Q1017

2010/08/09 23:00
SCTE 092300Z 20003KT 9999 FEW040 07/07 Q1024 NOSIG

2010/08/09 23:00
TFFF 092300Z VRB02KT 9999 FEW023 SCT060 27/25 Q1013 NOSIG

2010/08/09 22:59
CYKF 092259Z AUTO 21008KT 4SM BR FEW071 SCT093 BKN120 22/21 A2994 RMK SLP134 DENSITY ALT 2000FT PCPN 0.8MM PAST HR

2010/08/09 22:59
CYOY 092259Z AUTO 24008KT 9SM CLR 24/16 A2982

2010/08/09 23:02
CYPQ 092302Z AUTO ///// 3SM OVC009 OVC097 23/23 A2992

2010/08/09 23:03
CYPQ 092303Z AUTO ///// 2 1/2SM OVC009 OVC097 23/23 A2992

2010/08/09 23:02
CYZP 092302Z AUTO 25006KT 9SM -RA FEW011 SCT019 BKN025 OVC037 15/14 A3004 RMK SLP173

2010/08/09 23:01
KGTB 092301Z AUTO 25008G14KT 10SM -DZ SCT011 BKN022 23/21 A2993 RMK AO2 CIG 016V024 SLP135

2010/08/09 23:00
KMCF 092300Z AUTO VRB05KT 10SM FEW014 28/26 A2986 RMK AO2 LTG DSNT NE RAE2258DZB2258E2300 SLP113

2010/08/09 22:57
KNRB 092257Z 12008KT 10SM -RA FEW022TCU SCT035 BKN150 BKN250 29/23 A2994 RMK AO2 RAB55 TCU N T2 SET P0000

2010/08/09 22:59
RJTY 092259Z AUTO 00000KT 4000 -RA BR FEW007 OVC014 24/24 A3007 RMK AO2 CIG 009 RWY18 SLP176

2010/08/09 23:00
RJTY 092300Z AUTO 00000KT 4800 -RA BR FEW007 OVC014 24/24 A3007 RMK AO2 CIG 009 RWY18 SLP176

2010/08/09 23:02
RJTY 092302Z AUTO 00000KT 6000 BR SCT010 OVC014 24/24 A3007 RMK AO2 RAE2302 CIG 009 RWY18 SLP177

2010/08/09 22:55
YBCS 092255Z 11007KT 3000 -SHRA FEW003 BKN018 BKN030 23/22 Q1016 FM2255 12008KT 9999 -SHRA FEW003 SCT020 BKN030 TEMPO 2255/2400 4000 -SHRA FEW003 BKN018 INTER 0000/0155 4000 -SHRA FEW010 BKN018

2010/08/09 23:00
YBCS 092300Z 12008KT 2500 -SHRA FEW003 BKN018 BKN030 23/22 Q1016

2010/08/09 23:00
YSCB 092300Z 33002KT 6000 -RA FEW009 SCT014 BKN045 10/08 Q1016

2010/08/09 23:00
YSDU 092300Z AUTO 04007KT 9999NDV // BKN015 OVC021 13/13 Q1015

2010/08/09 23:00
YSRI 092300Z AUTO 00000KT 8000NDV // BKN085 09/09 Q1019

2010/08/09 23:00
YSSY 092300Z 05007KT 5000 -RA FEW050 BKN074 OVC110 11/10 Q1019 FM0030 36015KT 8000 -RA FEW010 SCT025 BKN045 TEMPO 2300/0200 4000 RA BKN010

2010/08/09 23:02
KFVE 092302Z AUTO 32006KT 2 1/2SM -RA BR BKN035 BKN060 OVC100 18/17 A2982

2010/08/09 23:02
KTOL 092302Z 30018G22KT 1 1/2SM -RA FEW015 BKN050 BKN075 28/23 A2995

2010/08/09 23:02
KESF 092302Z AUTO 10008G19KT 10SM FEW065 SCT090 31/22 A2991

2010/08/09 23:00
UAFM 092300Z 13003MPS CAVOK 19/11 Q1008 NOSIG

2010/08/09 23:00
UTAA 092300Z 24003MPS 9999 SKC 25/01 Q1009 NOSIG

2010/08/09 23:00
UTAK 092300Z 29002MPS 6000 SKC 25/23 Q1009 NOSIG

2010/08/09 23:00
UTAM 092300Z 34004MPS 6300 SKC 26/09 Q1005 NOSIG

2010/08/09 23:00
UTAT 092300Z 32003MPS P5000 SKC 22/15 Q1009 NOSIG

2010/08/09 23:00
UTDD 092300Z 00000MPS 9999 FEW140 22/10 Q1006 09CLRD70 NOSIG RMK QFE687/0917

2010/08/09 23:00
UTDL 092300Z 26003MPS 9999 FEW140 FEW200 25/08 Q1006 NOSIG RMK QFE717 8809//70

2010/08/09 23:00
UDYZ 092300Z 04002MPS 010V080 9999 SKC 27/09 Q1011 09010070 NOSIG

2010/08/09 23:00
UDSG 092300Z 09005MPS 9999 FEW050 21/09 Q1017 02CLRD70 NOSIG

2010/08/09 23:00
OIFS 092300Z 28006KT CAVOK 12/M02 Q1021 A3016 796.9

2010/08/09 23:00
OIMB 092300Z 00000KT CAVOK 20/08 Q1014 A2996

2010/08/09 23:00
OIMT 092300Z 07014KT 7000 SKC 33/M02 Q1006 A2972 924.7

2010/08/09 23:00
UAAA 092300Z 16002MPS 9999 FEW100 18/09 Q1008 88CLRD65 NOSIG

2010/08/09 23:00
UACC 092300Z 01005MPS 7000 FEW073 09/06 Q1016 040/0070 NOSIG RMK QFE730/0974

2010/08/09 23:00
UAKK 092300Z 01004MPS CAVOK 10/05 Q1013 050///70 NOSIG RMK QFE712/0950

2010/08/09 23:00
UARR 092300Z 02004MPS CAVOK 23/07 Q1017 04CLRD70 NOSIG RMK QFE759/1012

2010/08/09 23:00
UATE 092300Z 05005MPS CAVOK 25/07 Q1010 120///70 NOSIG RMK QFE756/1008

2010/08/09 23:00
UATG 092300Z 02002MPS 5000 FU NSC 26/12 Q1012 14CLRD70 NOSIG RMK QFE761/1014 

2010/08/09 23:00
UATT 092300Z 07005MPS CAVOK 19/04 Q1019 31CLRD70 NOSIG RMK QFE744/0992

2010/08/09 23:00
UAUU 092300Z 36002MPS CAVOK 08/03 Q1021 33CLRD70 NOSIG RMK QFE750/1001

2010/08/09 23:00
OOMS 092300Z 07009KT 8000 NSC 30/28 Q0998 NOSIG

2010/08/09 22:50
OOSA 092250Z 14006KT 6000 FEW008 BKN012 OVC025 25/22 Q1003 NOSIG RMK05 RH84

2010/08/09 23:00
YBCS 092300Z 12008KT 2500 -SHRA FEW003 BKN018 BKN030 23/22 Q1016 FM2300 12008KT 9999 -SHRA FEW003 SCT020 BKN030 TEMPO 2300/2400 4000 -SHRA FEW003 BKN018 INTER 0000/0200 4000 -SHRA FEW010 BKN018

2010/08/09 23:00
YBCS 092300Z 12008KT 2500 -SHRA FEW003 BKN018 BKN030 23/22 Q1016 FM2300 12008KT 9999 -SHRA FEW003 SCT020 BKN030 TEMPO 2300/2400 4000 -SHRA FEW003 BKN018 INTER 0000/0200 4000 -SHRA FEW010 BKN018

2010/08/09 23:02
KHLC 092302Z AUTO 07009KT 10SM -TSRA SCT100 33/20 A2983

2010/08/09 23:00
OITM 092300Z 14014KT 9999 SCT040 27/10 Q1013 A2993

2010/08/09 23:02
KTOL 092302Z 30018G22KT 1 1/2SM -RA FEW015 BKN050 BKN075 28/23 A2995

2010/08/09 23:05
CYZP 092305Z AUTO 26007KT 9SM -RA FEW009 BKN019 BKN025 OVC037 15/14 A3004 RMK SLP173

2010/08/09 23:00
TKPK 092300Z 03009KT 9999 FEW016 SCT050 BKN260 27/25 Q1014

2010/08/09 23:00
WBKK 092300Z 11004KT 9999 FEW014 FEW017CB SCT040 BKN270 25/23 Q1010 RETS NOSIG

2010/08/09 23:00
WBSB 092300Z 12001KT 9999 FEW003 BKN140 25/25 Q1009 RERA NOSIG

2010/08/09 23:00
WMKK 092300Z 15003KT 9000 FEW030 SCT140 BKN280 25/24 Q1008 NOSIG

2010/08/09 23:00
WMKP 092300Z 25001KT 9000 FEW022 SCT140 BKN270 26/24 Q1007 NOSIG

2010/08/09 23:00
WSSL 092300Z VRB02KT 9999 FEW018 BKN300 28/25 Q1008

2010/08/09 23:00
WSSS 092300Z VRB05KT 9999 FEW015 BKN300 28/26 Q1009 NOSIG

2010/08/09 23:00
ZBHH 092300Z 06003MPS CAVOK 15/09 Q1012 NOSIG

2010/08/09 23:00
ZGHA 092300Z 00000MPS 6000 SKC 29/28 Q1003 NOSIG

2010/08/09 23:00
ZHCC 092300Z VRB01MPS 1500 BR NSC 26/25 Q1005 BECMG 1600

2010/08/09 23:00
ZHHH 092300Z 11003MPS 2000 R04/1400N BR NSC 29/29 Q1004 BECMG 1500 BR

2010/08/09 23:00
ZJHK 092300Z 22001MPS CAVOK 26/25 Q1004 NOSIG

2010/08/09 23:00
ZJSY 092300Z VRB01MPS 9999 FEW016 27/25 Q1004 NOSIG

2010/08/09 23:00
ZLLL 092300Z 02001MPS 9999 SCT036 17/14 Q1014 NOSIG

2010/08/09 23:00
ZSNJ 092300Z 04002MPS 1600 R06/1400N BR SCT007 OVC040 27/25 Q1005 BECMG 3000 BR

2010/08/09 23:00
ZSOF 092300Z 07001MPS 6000 SKC 28/26 Q1004 NOSIG

2010/08/09 23:00
ZUCK 092300Z 00000MPS CAVOK 30/21 Q1003 NOSIG

2010/08/09 23:00
ZYCC 092300Z 19004MPS 6000 FEW023 22/19 Q1007 NOSIG

2010/08/09 22:56
KALK 092256Z AUTO 27007KT 10SM CLR 30/12 A3007 RMK AO2 SLP087 T03000122 $

2010/08/09 23:00
K0R3 092300Z AUTO 11006G14KT VCTS 25/25 A2995 RMK AO2 LTG DSNT ALQS

2010/08/09 22:59
KDBN 092259Z AUTO 11004KT 10SM CLR 33/22 A2994 RMK AO1

2010/08/09 23:00
KJFZ 092300Z AUTO 00000KT 10SM CLR 28/18 A3010 RMK

2010/08/09 22:55
KJQF 092255Z 20005KT 10SM CLR 33/20 A2999

2010/08/09 23:00
KMQS 092300Z AUTO 22003KT 10SM CLR 29/21 A2999 RMK AO2

2010/08/09 22:56
KNMM 092256Z 18003KT 10SM FEW055 SCT250 34/23 A2992 RMK AO2 SLP138 T2 SET T03440228 $

2010/08/09 22:56
KNSE 092256Z 22006KT 9SM FEW038TCU SCT060 BKN100 32/24 A2992 RMK AO2 SLP115 TCU NW T2 SET T03170239 $

2010/08/09 23:00
KOMH 092300Z AUTO 12004KT 10SM SCT065 BKN080 31/23 A2998 RMK AO2 T03100225

2010/08/09 23:00
KSHD 092300Z AUTO 17005KT 10SM CLR 32/22 A3001 RMK AO2

2010/08/09 23:00
KVDI 092300Z AUTO 06005KT 10SM CLR 34/20 A2995 RMK AO2

2010/08/09 23:00
KVJI 092300Z AUTO 11003KT 10SM CLR 32/19 A3006 RMK AO2 TSNO

2010/08/09 23:00
KW22 092300Z AUTO 00000KT 10SM CLR 28/18 A3004 RMK AO2

2010/08/09 23:02
KW99 092302Z AUTO 00000KT 10SM SCT080 31/20 A2996 RMK AO2

2010/08/09 23:00
KWDR 092300Z AUTO 14012G20KT 10SM SCT050 BKN065 28/21 A3005 RMK AO1

2010/08/09 23:00
KXLL 092300Z AUTO 22007KT 4SM HZ CLR 31/22 A2994 RMK AO2 T03100221

2010/08/09 23:00
KXSA 092300Z AUTO 11005KT 10SM CLR 30/21 A2997 RMK AO2

2010/08/09 23:04
KBML 092304Z AUTO 22012G20KT 1 1/2SM +TSRA BR FEW001 BKN039 BKN050 22/20 A2993 RMK AO2 LTG DSNT W AND NW RAB2259 PRESRR P0009

2010/08/09 23:04
KBUF 092304Z 34006G24KT 3SM -RA BR FEW015 SCT029 OVC050 23/22 A2996 RMK AO2 P0002

2010/08/09 23:04
KGEY 092304Z AUTO 19013G18KT 10SM CLR 33/04 A2977 RMK AO2 TSE2258

2010/08/09 23:01
KGTB 092301Z AUTO 25008G14KT 10SM -DZ SCT011 BKN022 23/21 A2993 RMK AO2 CIG 016V024 SLP135

2010/08/09 22:57
KNRB 092257Z 12008KT 10SM -RA FEW022TCU SCT035 BKN150 BKN250 29/23 A2994 RMK AO2 RAB55 TCU N T2 SET P0000

2010/08/09 23:04
KTAD 092304Z AUTO 33010KT 3SM VCTS RA BR BKN029 OVC060 17/16 A3017 RMK AO2 P0002

2010/08/09 23:04
KJAN 092304Z VRB03KT 10SM SCT027 BKN090 26/24 A2993 RMK AO2 TSE04RAE04 TS MOV SW P0000

2010/08/09 23:00
LBSF 092300Z 27004MPS CAVOK 20/16 Q1017 NOSIG

2010/08/09 23:00
LBWN 092300Z 27002MPS 180V340 CAVOK 24/21 Q1011 NOSIG

2010/08/09 23:00
LBBG 092300Z 36008MPS CAVOK 26/20 Q1010 NOSIG

2010/08/09 23:00
LBPD 092300Z 28005MPS CAVOK 25/18 Q1013 NOSIG

2010/08/09 23:00
LBGO 092300Z 27002MPS CAVOK 21/20 Q1014 NOSIG

2010/08/09 23:00
SBCP 092300Z 18020KT CAVOK 22/18 Q1020

2010/08/09 22:55
PTPN 092255Z 09005KT 15SM SCT017 BKN130 OVC300 30/25 A2988

2010/08/09 23:00
YPGV 092300Z 09005KT 9000 FEW003 BKN240 24/24 Q1013 RMK SLT MIST

2010/08/09 23:00
LUKK 092300Z 31006KT 9999 FEW050 22/19 Q1013 26CLRD65 NOSIG

2010/08/09 22:56
PHNY 092256Z AUTO 25007KT 10SM OVC036 25/16 A3013 RMK AO2 TSNO T02500161 OVC V BKN SLP182 $

2010/08/09 22:59
KDBN 092259Z AUTO 11004KT 10SM CLR 33/22 A2994 RMK AO1

2010/08/09 22:55
KJQF 092255Z 20005KT 10SM CLR 33/20 A2999

2010/08/09 23:01
KBIJ 092301Z AUTO 10004KT 10SM CLR 34/21 A2992 RMK AO2

2010/08/09 23:01
KIDI 092301Z AUTO 00000KT 10SM SCT110 28/19 A3000 RMK AO2

2010/08/09 23:01
KJYL 092301Z AUTO 08003KT 10SM CLR 32/24 A2996 RMK AO2

2010/08/09 23:02
KLWB 092302Z AUTO 28003KT 10SM CLR 30/15 A3009 RMK AO2

2010/08/09 23:01
KMLJ 092301Z AUTO 00000KT 10SM CLR 34/22 A2995 RMK AO2

2010/08/09 23:02
KW99 092302Z AUTO 00000KT 10SM SCT080 31/20 A2996 RMK AO2

2010/08/09 23:03
KLAW 092303Z AUTO 15011G18KT 10SM TS CLR 39/18 A2982 RMK AO2 LTG DSNT S TSB2257

2010/08/09 23:03
KMVL 092303Z AUTO 00000KT 3/4SM VCTS +RA BR SCT009 BKN038 OVC055 21/21 A2991 RMK AO2 LTG DSNT E AND S TSB2255RAB2258 P0015

2010/08/09 23:03
KPAE 092303Z 16003KT 10SM -RA SCT025 17/13 A2997 RMK AO2 P0000

2010/08/09 23:03
KSLK 092303Z AUTO 00000KT 8SM FEW028 18/17 A2995 RMK AO2 LTG DSNT E AND SE RAE01 P0000

2010/08/09 23:04
KBML 092304Z AUTO 22012G20KT 1 1/2SM +TSRA BR FEW001 BKN039 BKN050 22/20 A2993 RMK AO2 LTG DSNT W AND NW RAB2259 PRESRR P0009

2010/08/09 23:04
KGEY 092304Z AUTO 19013G18KT 10SM CLR 33/04 A2977 RMK AO2 TSE2258

2010/08/09 23:04
KTAD 092304Z AUTO 33010KT 3SM VCTS RA BR BKN029 OVC060 17/16 A3017 RMK AO2 P0002

2010/08/09 22:50
EGPI 092250Z AUTO 20008KT 9999NDV // NSC 13/10 Q1006

2010/08/09 22:50
EGEC 092250Z AUTO 09006KT 070V160 9999NDV // NSC 10/09 Q1006

2010/08/09 22:50
EGPU 092250Z AUTO 18008KT 9999NDV // FEW012/// 12/11 Q1004

2010/08/09 23:00
KUXL 092300Z AUTO 10008KT 10SM SCT043 SCT050 BKN075 34/26 A2992 RMK AO2

2010/08/09 23:00
KCDH 092300Z AUTO 15005KT 10SM SCT070 36/21 A2987 RMK AO2

2010/08/09 22:58
KDNN 092258Z AUTO 00000KT 10SM CLR 33/20 A2996 RMK AO2

2010/08/09 23:00
KDRI 092300Z AUTO 17006KT 10SM CLR 35/24 A2992 RMK AO2

2010/08/09 23:00
KGAO 092300Z AUTO 29006KT 7SM CLR 26/25 A2994 RMK AO2 LTG DSNT W AND NW

2010/08/09 23:00
KI16 092300Z AUTO 00000KT 10SM CLR 27/22 A3000 RMK AO2

2010/08/09 23:00
KIER 092300Z AUTO 12004KT 10SM CLR 36/24 A2988 RMK AO2 PWINO

2010/08/09 23:00
KJKA 092300Z AUTO 17004KT 10SM CLR 34/25 A2992 RMK AO2 T03360253

2010/08/09 23:00
KJYO 092300Z AUTO 17008KT 10SM CLR 32/20 A2995 RMK AO2

2010/08/09 22:55
KLGC 092255Z AUTO 09005KT 10SM CLR 35/19 A2995 RMK AO1

2010/08/09 23:00
KLKU 092300Z AUTO 17003KT 10SM CLR 31/21 A2997 RMK AO2

2010/08/09 23:00
KLNP 092300Z AUTO 00000KT 10SM CLR 29/21 A3011 RMK AO1

2010/08/09 23:00
KLOM 092300Z AUTO 21011G14KT 10SM SCT046 31/21 A2995 RMK AO1 T03050208

2010/08/09 23:00
KMDQ 092300Z AUTO 25005KT 10SM CLR 30/22 A2996 RMK AO2 T03030221

2010/08/09 23:00
KMGR 092300Z AUTO 05005KT 10SM CLR 35/19 A2993 RMK AO2

2010/08/09 23:00
KMKJ 092300Z AUTO 00000KT 10SM CLR 29/11 A3015 RMK AO1

2010/08/09 23:00
KMTV 092300Z AUTO 00000KT 10SM CLR 32/24 A3001 RMK AO2

2010/08/09 23:00
KOBE 092300Z AUTO 15004KT 10SM SCT049 OVC060 28/24 A2989 RMK AO2

2010/08/09 23:00
KOKV 092300Z AUTO 17009KT 10SM CLR 33/21 A2995 RMK AO2 T03280205

2010/08/09 23:00
KOPN 092300Z AUTO 11005KT 10SM CLR 34/22 A2998 RMK AO1

2010/08/09 23:00
KPCM 092300Z AUTO 00000KT 10SM CLR 29/24 A2988 RMK AO2

2010/08/09 23:00
KPSK 092300Z AUTO 00000KT 10SM CLR 33/13 A3008 RMK AO2

2010/08/09 23:00
KRCZ 092300Z AUTO 15006KT 10SM CLR 33/20 A2998 RMK AO2 T03260204

2010/08/09 23:00
KRMN 092300Z AUTO 00000KT 10SM CLR 31/23 A3000 RMK AO2

2010/08/09 23:00
KSFQ 092300Z AUTO 11003KT 10SM CLR 31/22 A2999 RMK AO2

2010/08/09 23:00
KSVH 092300Z AUTO 00000KT 10SM CLR 31/21 A3000 RMK AO2 T03110214

2010/08/09 23:00
KTBR 092300Z AUTO 06003KT 10SM CLR 34/20 A2995 RMK AO2 T03350196

2010/08/09 23:00
KTMA 092300Z AUTO 00000KT 10SM CLR 33/19 A2993 RMK AO2 T03260187

2010/08/09 23:00
KTVI 092300Z AUTO 06006KT 10SM SCT055 35/21 A2993 RMK AO2 T03470206

2010/08/09 22:56
KVDF 092256Z AUTO 00000KT 7SM CLR 27/25 A2988 RMK AO2

2010/08/09 23:00
KW45 092300Z AUTO 15003KT 10SM CLR 32/21 A2997 RMK AO2 T03150214

2010/08/09 22:55
PADL 092255Z 18012G23KT 3SM -RA BR SCT006 OVC010 11/09 A2958 RMK SCT V BKN

2010/08/09 22:56
KNSE 092256Z 22006KT 9SM FEW038TCU SCT060 BKN100 32/24 A2992 RMK AO2 SLP115 TCU NW T2 SET T03170239 $

2010/08/09 22:56
KOSC 092256Z AUTO 24005KT 10SM SCT014 27/23 A2989 RMK AO2

2010/08/09 23:00
K0R3 092300Z AUTO 11006G14KT VCTS 25/25 A2995 RMK AO2 LTG DSNT ALQS

2010/08/09 23:00
KJFZ 092300Z AUTO 00000KT 10SM CLR 28/18 A3010 RMK

2010/08/09 23:00
KMQS 092300Z AUTO 22003KT 10SM CLR 29/21 A2999 RMK AO2

2010/08/09 22:56
KNSE 092256Z 22006KT 9SM FEW038TCU SCT060 BKN100 32/24 A2992 RMK AO2 SLP115 TCU NW T2 SET T03170239 $

2010/08/09 23:00
KOMH 092300Z AUTO 12004KT 10SM SCT065 BKN080 31/23 A2998 RMK AO2 T03100225

2010/08/09 23:00
KSHD 092300Z AUTO 17005KT 10SM CLR 32/22 A3001 RMK AO2

2010/08/09 23:00
KVDI 092300Z AUTO 06005KT 10SM CLR 34/20 A2995 RMK AO2

2010/08/09 23:00
KVJI 092300Z AUTO 11003KT 10SM CLR 32/19 A3006 RMK AO2 TSNO

2010/08/09 23:00
KW22 092300Z AUTO 00000KT 10SM CLR 28/18 A3004 RMK AO2

2010/08/09 23:00
KWDR 092300Z AUTO 14012G20KT 10SM SCT050 BKN065 28/21 A3005 RMK AO1

2010/08/09 23:00
KXLL 092300Z AUTO 22007KT 4SM HZ CLR 31/22 A2994 RMK AO2 T03100221

2010/08/09 23:00
KXSA 092300Z AUTO 11005KT 10SM CLR 30/21 A2997 RMK AO2

2010/08/09 23:00
DIAP 092300Z 23003KT 7000 SCT011 BKN080 24/23 Q1015 NOSIG

2010/08/09 23:00
DNMM 092300Z 00000KT 8000 SCT009 24/23 Q1015 NOSIG

2010/08/09 23:00
DXXX 092300Z 21006KT 8000 FEW010 BKN080 25/23 Q1014 NOSIG

2010/08/09 22:56
KHLR 092256Z AUTO 11013G21KT 080V160 10SM FEW070 38/18 A2986 RMK AO2 SLP101 T03780183 $

2010/08/09 22:55
PHSF 092255Z 29009G14KT 7SM FEW020 SCT200 25/11 A3031 RMK SLPNO

2010/08/09 23:00
KNEL 092300Z AUTO 19007KT 9SM CLR 30/16 A2994 RMK AO2 SLP137 T03000161 $

2010/08/09 22:56
KNGP 092256Z 13011KT 10SM FEW018 SCT040 SCT250 31/26 A2986 RMK AO2 SLP111 T03110261

2010/08/09 22:59
KNGU 092259Z 15004KT 10SM FEW250 31/21 A2999 RMK AO2 SLP157 T03060206

2010/08/09 22:56
KNMM 092256Z 18003KT 10SM FEW055 SCT250 34/23 A2992 RMK AO2 SLP138 T2 SET T03440228 $

2010/08/09 22:56
KNQI 092256Z 12012KT 10SM FEW030CB SCT140 SCT280 35/25 A2984 RMK AO2 SLP102 CB DSNT SW TCU DSNT E T03450245 $

2010/08/09 22:56
KNTD 092256Z 23008KT 7SM CLR 18/13 A2990 RMK AO2 SLP127 LAG PK 12/12/13003KT T01830133 $

2010/08/09 22:52
KNZY 092252Z 29009KT 10SM FEW019 24/13 A2988 RMK AO2 SLP117 T02390133 $

2010/08/09 22:56
KNBC 092256Z 11008KT 10SM FEW065 31/24 A2996 RMK AO2 SLP145 T03060239 $

2010/08/09 22:56
KNCA 092256Z 00000KT 10SM 29/24 A3001 RMK AO2 SLP162 T02940239 $

2010/08/09 22:56
KNGP 092256Z 13011KT 10SM FEW018 SCT040 SCT250 31/26 A2986 RMK AO2 SLP111 T03110261

2010/08/09 22:59
KNGU 092259Z 15004KT 10SM FEW250 31/21 A2999 RMK AO2 SLP157 T03060206

2010/08/09 22:57
KNJM 092257Z AUTO 20007KT 10SM FEW015 BKN060 BKN095 28/25 A3001 RMK AO2 SLP167 T02780250

2010/08/09 22:56
KNTU 092256Z 11006KT 10SM FEW200 27/23 A2998 RMK AO2 SLP156 T02720228 $

2010/08/09 23:00
KNEL 092300Z AUTO 19007KT 9SM CLR 30/16 A2994 RMK AO2 SLP137 T03000161 $

2010/08/09 22:56
KNMM 092256Z 18003KT 10SM FEW055 SCT250 34/23 A2992 RMK AO2 SLP138 T2 SET T03440228 $

2010/08/09 23:00
SPHO 092300Z VRB05KT CAVOK 20/06 Q1027 RMK PP000

2010/08/09 23:00
SPJL 092300Z 12009KT 090V150 CAVOK 14/M06 Q1036 RMK PP000

2010/08/09 23:00
SPTU 092300Z 00000KT 9999 FEW020 29/25 Q1012 RMK PP000

2010/08/09 23:01
KGTB 092301Z AUTO 25008G14KT 10SM -DZ SCT011 BKN022 23/21 A2993 RMK AO2 CIG 016V024 SLP135

2010/08/09 23:00
KMCF 092300Z AUTO VRB05KT 10SM FEW014 28/26 A2986 RMK AO2 LTG DSNT NE RAE2258DZB2258E2300 SLP113

2010/08/09 22:57
KNRB 092257Z 12008KT 10SM -RA FEW022TCU SCT035 BKN150 BKN250 29/23 A2994 RMK AO2 RAB55 TCU N T2 SET P0000

2010/08/09 23:01
KGTB 092301Z AUTO 25008G14KT 10SM -DZ SCT011 BKN022 23/21 A2993 RMK AO2 CIG 016V024 SLP135

2010/08/09 22:57
KNRB 092257Z 12008KT 10SM -RA FEW022TCU SCT035 BKN150 BKN250 29/23 A2994 RMK AO2 RAB55 TCU N T2 SET P0000

2010/08/09 23:04
KJAN 092304Z VRB03KT 10SM SCT027 BKN090 26/24 A2993 RMK AO2 TSE04RAE04 TS MOV SW P0000

2010/08/09 23:04
KBUF 092304Z 34006G24KT 3SM -RA BR FEW015 SCT029 OVC050 23/22 A2996 RMK AO2 P0002

2010/08/09 23:00
LHBP 092300Z VRB01KT CAVOK 15/14 Q1018 NOSIG

2010/08/09 23:00
YSCB 092300Z 33002KT 6000 -RA FEW009 SCT014 BKN045 10/08 Q1016

2010/08/09 22:55
YBCS 092255Z 11007KT 3000 -SHRA FEW003 BKN018 BKN030 23/22 Q1016 FM2255 12008KT 9999 -SHRA FEW003 SCT020 BKN030 TEMPO 2255/2400 4000 -SHRA FEW003 BKN018 INTER 0000/0155 4000 -SHRA FEW010 BKN018

2010/08/09 23:00
FQMA 092300Z 20012KT 9999 BKN020 16/10 Q1024 NOSIG

2010/08/09 23:00
FOOL 092300Z 17006KT 8000 SCT008 OVC030 25/23 Q1015 NOSIG

2010/08/09 22:56
KALK 092256Z AUTO 27007KT 10SM CLR 30/12 A3007 RMK AO2 SLP087 T03000122 $

2010/08/09 23:00
FALA 092300Z 21010KT CAVOK 05/M11 Q1029

2010/08/09 23:00
FBMN 092300Z 18011KT CAVOK 16/M04 Q1024

2010/08/09 23:00
FYWB 092300Z 22004KT 160V270 6000 VV/// 14/08 Q1016

2010/08/09 23:00
FYWH 092300Z AUTO 13007KT //// // ////// 05/M08 Q1032

2010/08/09 23:00
HECA 092300Z 34006KT CAVOK 26/21 Q1008 NOSIG

2010/08/09 22:50
HLLB 092250Z 32010KT 9999 SCT020 24/19 Q1013

2010/08/09 22:50
HLLT 092250Z 09002KT CAVOK 23/18 Q1016

2010/08/09 22:52
MMRX 092252Z 11008KT 10SM SCT040TCU 36/26 A2983 RMK 8/200 HZY DSNT CB N

2010/08/09 22:45
MMNL 092245Z 14008KT 12SM SCT040 38/21 A2980 RMK 8/100

2010/08/09 22:47
MMTC 092247Z 01008KT 15SM FEW040 SCT110 SCT220 34/12 A2993 RMK 8/572 CB DST N W

2010/08/09 23:00
YBCS 092300Z 12008KT 2500 -SHRA FEW003 BKN018 BKN030 23/22 Q1016 FM2300 12008KT 9999 -SHRA FEW003 SCT020 BKN030 TEMPO 2300/2400 4000 -SHRA FEW003 BKN018 INTER 0000/0200 4000 -SHRA FEW010 BKN018

2010/08/09 23:00
SAZM 092300Z 00000KT CAVOK 06/03 Q1025

2010/08/09 23:00
SPHI 092300Z 19016KT CAVOK 19/14 Q1014 RMK BIRD HAZARD RWY 19/01 PP000

2010/08/09 23:00
SPIM 092300Z 18009KT 8000 SCT014 15/12 Q1016 NOSIG RMK PP000

2010/08/09 23:00
SPQU 092300Z 27006KT CAVOK 14/M13 Q1027 NOSIG RMK PP000

2010/08/09 23:00
SPRU 092300Z 15008KT 8000 FEW015 16/13 Q1014 RMK BIRD HAZARD RWY20 PP000

2010/08/09 23:00
SPSO 092300Z 21006KT 8000 SKC 17/13 Q1016 RMK BIRDS HAZARD RWY 22/04 W PP000

2010/08/09 23:00
SPTN 092300Z 21006KT CAVOK 13/09 Q1014 RMK PP000

2010/08/09 23:00
SPZO 092300Z 35003KT 300V040 9999 SKC 16/M15 Q1030 NOSIG RMK PP000

2010/08/09 23:00
SARF 092300Z 18003KT CAVOK 13/09 Q1021

2010/08/09 23:00
YSRI 092300Z AUTO 00000KT 8000NDV // BKN085 09/09 Q1019

2010/08/09 23:00
GCLP 092300Z 00000KT 9999 BKN023 23/19 Q1015 NOSIG

2010/08/09 23:00
GCRR 092300Z VRB02KT 9999 FEW015 24/21 Q1015

2010/08/09 23:00
GCTS 092300Z VRB01KT 9999 BKN025 22/19 Q1016 NOSIG

2010/08/09 23:00
GMFF 092300Z 18015KT 8000 TS SCT033 SCT040CB SCT100 28/13 Q1018 NOSIG

2010/08/09 23:00
GMFO 092300Z 31005KT 270V330 9999 FEW033 SCT100 28/15 Q1018 NOSIG

2010/08/09 23:00
GMME 092300Z 22003KT 8000 NSC 25/22 Q1014 NOSIG

2010/08/09 23:00
GMMN 092300Z VRB02KT CAVOK 29/16 Q1015 NOSIG

2010/08/09 23:00
GMMX 092300Z 12008KT 8000 R10///// SCT033 BKN100 30/17 Q1017 NOSIG

2010/08/09 23:00
GMTT 092300Z 07012KT 9999 FEW016 25/18 Q1014 NOSIG

2010/08/09 23:00
NWWW 092300Z AUTO 12005KT 050V170 9999NDV NCD 24/14 Q1025

2010/08/09 23:00
HAAB 092300Z 27006KT 9/9 BKN025 15/12 Q1024

2010/08/09 23:00
HRYR 092300Z 00000KT CAVOK 21/12 Q1020 NOSIG

2010/08/09 23:00
YMML 092300Z 22003KT 4000 -RA BR FEW038 OVC049 06/06 Q1015 FM2300 15010KT 8000 -RA FEW015 BKN025 TEMPO 2300/0200 4000 RA BKN010

2010/08/09 23:00
GBYD 092300Z 00000KT 9999 SCT011 FEW018CB SCT110 26/24 Q1013 CB N-E

2010/08/09 23:00
GOOY 092300Z 29003KT 9999 SCT013 26/22 Q1013 NOSIG

2010/08/09 23:00
GQNN 092300Z 28008KT 8000 NSC 27/21 Q1013 NOSIG

2010/08/09 22:53
PABR 092253Z AUTO 07020G25KT 10SM OVC004 02/01 A2986

2010/08/09 22:53
PACD 092253Z 23013G20KT 10SM SCT031 BKN050 BKN180 14/08 A2955

2010/08/09 22:55
PAED 092255Z AUTO 34009KT 10SM OVC070 16/12 A2965

2010/08/09 22:55
PAEI 092255Z AUTO 36010KT 10SM FEW065 SCT140 21/10 A2955

2010/08/09 22:53
PAEN 092253Z 23007KT 10SM SCT038 OVC070 17/11 A2967

2010/08/09 22:53
PAFA 092253Z 01005KT 10SM BKN085 BKN120 19/09 A2956

2010/08/09 22:56
PAFS 092256Z AUTO 36004KT 10SM FEW100 14/09 A2956

2010/08/09 22:53
PAJN 092253Z 09007KT 10SM FEW025 BKN035 OVC050 16/11 A2999

2010/08/09 22:54
PAKN 092254Z 22008KT 10SM OVC021 13/10 A2959

2010/08/09 22:54
PAKT 092254Z COR 12007KT 10SM SCT18 BKN060 15/12 A3003

2010/08/09 22:53
PAKT 092253Z 12008KT 10SM SCT018 BKN060 16/12 A3003

2010/08/09 22:53
PANC 092253Z 15013G21KT 10SM BKN065 BKN085 17/09 A2964

2010/08/09 22:53
PAOM 092253Z 11016KT 10SM FEW014 BKN029 OVC060 12/10 A2936

2010/08/09 22:53
PAOR 092253Z 00000KT 10SM FEW025 BKN085 BKN150 18/08 A2966

2010/08/09 22:53
PAOT 092253Z 08015KT 9SM -RA SCT014 SCT020 OVC049 14/13 A2944

2010/08/09 22:56
PARY 092256Z AUTO 10005KT 10SM FEW020 SCT027 BKN032 14/12 A2953

2010/08/09 22:53
PASC 092253Z 06022KT 10SM OVC005 06/03 A2972

2010/08/09 22:53
PASI 092253Z 27005KT 10SM FEW007 OVC032 14/12 A2998

2010/08/09 22:56
PATQ 092256Z AUTO 06018KT 10SM OVC007 03/02 A2978

2010/08/09 22:56
PAVD 092256Z 00000KT 4SM SCT002 BKN020 OVC045 12/10 A2984

2010/08/09 22:56
PAWG 092256Z 00000KT 10SM FEW015 BKN035 BKN060 14/11 A3002

2010/08/09 22:55
PFYU 092255Z 22006KT 10SM FEW030 SCT050 OVC080 20/ A2057

2010/08/09 23:00
OJAI 092300Z 28006KT CAVOK 21/16 Q1009 NOSIG

2010/08/09 23:00
OJAM 092300Z 00000KT 5000 NSC 24/14 Q1009 NOSIG

2010/08/09 23:00
OLBA 092300Z VRB03KT 9999 BKN026 28/22 Q1008 NOSIG

2010/08/09 23:00
OMAA 092300Z 03003KT CAVOK 32/23 Q0996 A2942 NOSIG

2010/08/09 23:00
OMAL 092300Z 11007KT CAVOK 36/14 Q0999 A2951

2010/08/09 23:00
OMDB 092300Z 06006KT 030V150 CAVOK 34/19 Q0997 NOSIG

2010/08/09 23:00
OMFJ 092300Z 13003KT 9999 FEW020 31/23 Q0999 A2951

2010/08/09 23:00
OMRK 092300Z 10004KT CAVOK 33/25 Q0996 A2943

2010/08/09 23:00
OMSJ 092300Z 06005KT CAVOK 31/21 Q0997

2010/08/09 23:00
OOMS 092300Z 07009KT 8000 NSC 30/28 Q0998 NOSIG

2010/08/09 23:00
OYAA 092300Z 12004KT 7000 NSC 31/18 Q1002

2010/08/09 23:00
OYHD 092300Z 36004KT 9999 BKN030 32/29 Q1000

2010/08/09 23:00
OYSN 092300Z 19004KT CAVOK 18/13 Q1021

2010/08/09 23:00
OYTZ 092300Z 27003KT 9999 SCT030 BKN060 23/17 Q1007

2010/08/09 23:00
UAAA 092300Z 16002MPS 9999 FEW100 18/09 Q1008 88CLRD65 NOSIG

2010/08/09 23:00
UACC 092300Z 01005MPS 7000 FEW073 09/06 Q1016 040/0070 NOSIG RMK QFE730/0974

2010/08/09 23:00
UAKK 092300Z 01004MPS CAVOK 10/05 Q1013 050///70 NOSIG RMK QFE712/0950

2010/08/09 23:00
UARR 092300Z 02004MPS CAVOK 23/07 Q1017 04CLRD70 NOSIG RMK QFE759/1012

2010/08/09 23:00
UATE 092300Z 05005MPS CAVOK 25/07 Q1010 120///70 NOSIG RMK QFE756/1008

2010/08/09 23:00
UATG 092300Z 02002MPS 5000 FU NSC 26/12 Q1012 14CLRD70 NOSIG RMK QFE761/1014

2010/08/09 23:00
UATT 092300Z 07005MPS CAVOK 19/04 Q1019 31CLRD70 NOSIG RMK QFE744/0992

2010/08/09 23:00
UAUU 092300Z 36002MPS CAVOK 08/03 Q1021 33CLRD70 NOSIG RMK QFE750/1001

2010/08/09 23:00
UTDD 092300Z 00000MPS 9999 FEW140 22/10 Q1006 09CLRD70 NOSIG RMK QFE687/0917

2010/08/09 23:00
OEDR 092300Z 00000KT CAVOK 31/27 Q0995 NOSIG

2010/08/09 23:00
OEJN 092300Z 18010KT CAVOK 32/26 Q1001 NOSIG

2010/08/09 23:00
OEMA 092300Z 34005KT 8000 FEW045 SCT100 38/08 Q1005 NOSIG

2010/08/09 23:00
OERK 092300Z 00000KT 8000 SKC 31/10 Q1003 NOSIG

2010/08/09 23:00
OIAA 092300Z 18008KT 6000 FEW040 BKN100 33/26 Q0997

2010/08/09 23:00
OIAW 092300Z 16004KT CAVOK 33/17 Q0997 A2944

2010/08/09 23:00
OIBK 092300Z 09000KT 5000 HZ SKC 32/26 Q0996 A2944

2010/08/09 23:00
OICC 092300Z 09004KT CAVOK 21/M03 Q1013 A2991 864.6

2010/08/09 23:00
OIKB 092300Z 02004KT 7000 SKC 30/25 Q0998 A2947

2010/08/09 23:00
OIKK 092300Z 00000KT CAVOK 20/M02 Q1016 A3002

2010/08/09 23:00
OIMM 092300Z 28006KT CAVOK 22/02 Q1013 A2993

2010/08/09 23:00
OINZ 092300Z 00000KT CAVOK 24/18 Q1008 A2979

2010/08/09 23:00
OISS 092300Z 27004KT CAVOK 18/02 Q1013 A2993

2010/08/09 23:00
OITR 092300Z 24004KT 9999 FEW035 17/11 Q1013 A2994

2010/08/09 23:00
OITT 092300Z 09008KT 9999 FEW040 FEW045CB 26/09 Q1015 A3000

2010/08/09 23:00
OIYY 092300Z 25006KT CAVOK 24/M03 Q1014 A2994

2010/08/09 23:00
OIZH 092300Z 01006KT CAVOK 26/M02 Q1010 A2982

2010/08/09 23:00
OKBK 092300Z 34006KT 8000 NSC 37/09 Q0996 NOSIG

2010/08/09 23:00
ORBI 092300Z 02004KT CAVOK 33/11 Q1000 NOSIG

2010/08/09 23:00
ORMM 092300Z 29009KT CAVOK 33/12 Q0997

2010/08/09 23:00
OSAP 092300Z 28012KT CAVOK 26/18 Q1005

2010/08/09 23:00
OSDI 092300Z 20012KT CAVOK 24/18 Q1007

2010/08/09 23:00
OSLK 092300Z 13004KT CAVOK 24/22 Q1006

2010/08/09 23:00
OMAD 092300Z 02006KT CAVOK 34/24 Q0996 A2943

2010/08/09 22:50
OOSA 092250Z 14006KT 6000 FEW008 BKN012 OVC025 25/22 Q1003 NOSIG RMK05 RH84

2010/08/09 23:00
SBBE 092300Z 05007KT 9999 FEW020 28/23 Q1012

2010/08/09 23:00
SBBR 092300Z 11009KT CAVOK 24/00 Q1022

2010/08/09 23:00
SBBV 092300Z 07003KT 9999 FEW015 SCT020 FEW025TCU BKN080 26/23 Q1012

2010/08/09 23:00
SBCF 092300Z 00000KT CAVOK 21/05 Q1021

2010/08/09 23:00
SBCG 092300Z 25003KT CAVOK 23/06 Q1017

2010/08/09 23:00
SBEG 092300Z 24005KT 9999 FEW023 27/23 Q1011

2010/08/09 23:00
SBFI 092300Z 19004KT CAVOK 15/11 Q1019

2010/08/09 23:00
SBFZ 092300Z 11008KT CAVOK 26/23 Q1014

2010/08/09 23:00
SBGL 092300Z 23006KT 9999 SCT012 BKN050 21/17 Q1023

2010/08/09 23:00
SBGR 092300Z 17006KT 8000 FEW012 OVC018 14/12 Q1025

2010/08/09 23:00
SBNT 092300Z 17003KT 9999 SCT010 SCT020 OVC070 23/22 Q1016

2010/08/09 23:00
SBPA 092300Z 15003KT CAVOK 11/05 Q1026

2010/08/09 23:00
SBPS 092300Z 03006KT 9999 FEW020 20/18 Q1018

2010/08/09 23:00
SBRF 092300Z 07002KT 8000 VCSH SCT010 BKN015 BKN070 23/20 Q1017

2010/08/09 23:00
SBSL 092300Z 04008KT 9999 FEW020 26/23 Q1013

2010/08/09 23:00
SBSN 092300Z 00000KT CAVOK 27/24 Q1011

2010/08/09 23:00
SBSV 092300Z 10006KT 9999 SCT017 24/19 Q1019

2010/08/09 23:00
SBTT 092300Z 21002KT 8000 NSC 29/24 Q1012

2010/08/09 23:00
SBAR 092300Z 14008KT 9999 FEW015 25/20 Q1018

2010/08/09 23:00
SBCR 092300Z 22012KT CAVOK 25/07 Q1015

2010/08/09 23:00
SBCT 092300Z 10007KT 9000 OVC004 08/07 Q1025

2010/08/09 23:00
SBCY 092300Z 16003KT CAVOK 28/09 Q1013

2010/08/09 23:00
SBCZ 092300Z 00000KT 5000 HZ FU NSC 27/22 Q1013

2010/08/09 23:00
SBFL 092300Z 14006KT 9999 FEW040 15/08 Q1025

2010/08/09 23:00
SBGO 092300Z 12005KT CAVOK 25/08 Q1019

2010/08/09 23:00
SBPB 092300Z 06009KT CAVOK 27/23 Q1013

2010/08/09 23:00
SBPL 092300Z 13009KT 9999 SCT023 SCT070 26/15 Q1018

2010/08/09 23:00
SBRP 092300Z 04003KT CAVOK 23/10 Q1019

2010/08/09 23:00
SBTF 092300Z 00000KT 9999 TS FEW010 FEW030CB OVC100 25/24 Q1011

2010/08/09 23:00
SBLO 092300Z 28003KT CAVOK 24/07 Q1019

2010/08/09 23:00
SBMN 092300Z 00000KT 9999 FEW020 29/24 Q1011

2010/08/09 23:00
SBMO 092300Z 25002KT 9999 FEW006 SCT090 21/20 Q1018

2010/08/09 23:00
SBPV 092300Z 00000KT 5000 HZ NSC 27/18 Q1011

2010/08/09 23:00
SBRB 092300Z 00000KT 5000 FU FEW030 31/20 Q1013

2010/08/09 23:00
SBRJ 092300Z 19007KT 9999 BKN015 SCT025 BKN040 22/19 Q1022

2010/08/09 23:00
SBSJ 092300Z 26006KT 7000 BKN00815/13 Q1025

2010/08/09 23:00
SBSP 092300Z 15006KT 5000 BR BKN015 13/11 Q1026

2010/08/09 23:00
SBTE 092300Z 31001KT CAVOK 29/17 Q1012

2010/08/09 23:00
SBVT 092300Z 19018KT 9999 FEW025 22/19 Q1021

2010/08/09 23:00
MDLR 092300Z 07007KT 9999 FEW020 SCT300 30/25 Q1012

2010/08/09 23:00
MDPC 092300Z 09010KT 8000 VCSH BKN016 28/24 Q1011 VCSH/N/NE/E MDJB 092300Z 00000KT 6000 +RA FEW010CB BKN012 SCT300 25/24 Q1013 CB/NE/E/NW/N

2010/08/09 23:00
MDPC 092300Z 09010KT 8000 VCSH BKN016 28/24 Q1011 VCSH/N/NE/E

2010/08/09 23:00
MDPP 092300Z 08008KT 9999 FEW020 SCT300 30/26 Q1014

2010/08/09 23:00
MDSD 092300Z 01004KT 9999 FEW016CB SCT018 SCT300 26/23 Q1012 CB/SE/NW/N/NE

2010/08/09 23:00
MDST 092300Z 09012KT 9999 FEW016CB SCT023 BKN300 30/24 Q1013 CB/SE/S/SW

2010/08/09 22:53
TIST 092253Z 10012KT 10SM FEW024 SCT080 29/24 A2995 RMK AO2 SLP141 T02890244

2010/08/09 22:53
TISX 092253Z 11011KT 10SM FEW022 BKN100 28/24 A2995 RMK AO2 SLP141 T02830244

2010/08/09 22:50
TJBQ 092250Z 08005KT 10SM BKN035 28/28 A2994 RMK LTG DSNT SE-W

2010/08/09 22:50
TJPS 092250Z 00000KT 10SM -RA BKN030 BKN060 27/25 A2993 RMK RAB30

2010/08/09 22:56
TJSJ 092256Z 09011KT 10SM FEW020 SCT040 BKN060 28/24 A2995 RMK AO2 SLP139 SHRA DSNT SE T02780244

2010/08/09 23:00
TKPN 092300Z 12009KT 9999 FEW012TCU SCT280 29/26 Q1013

2010/08/09 23:00
TUPJ 092300Z 12010KT 9999 VCSH E-SE SCT017 BKN070 28/24 A2996

2010/08/09 23:00
MKJS 092300Z 00000KT 9999 SCT022 BKN220 29/24 Q1012

2010/08/09 22:50
MUCM 092250Z 35014G25KT 330V030 7000 -TSRA FEW016CB BKN018 26/21 Q10 14

2010/08/09 22:52
MUCU 092252Z 13008KT 090V160 9000 FEW020CB SCT025 29/25 Q1014

2010/08/09 22:55
MUHA 092255Z 20008KT 7000 SCT020 BKN110 26/24 Q1013

2010/08/09 22:50
MUVR 092250Z 20003KT 150V240 9000 FEW018 OVC060 24/22 Q1014

2010/08/09 23:00
MWCB 092300Z 02002KT 9999 FEW016 BKN250 30/25 Q1013

2010/08/09 23:00
MWCR 092300Z 07005KT 9999 SCT016TCU BKN220 30/26 Q1013 NOSIG

2010/08/09 22:59
MYEG 092259Z AUTO 10004KT 10SM SCT060 SCT095 25/22 A2995 RMK AO2 LTG DSNT W

2010/08/09 23:00
MYGF 092300Z AUTO 13012KT 9999 FEW027 SCT043 BKN110 26/24 A2996 /

2010/08/09 23:00
MYGF 092300Z AUTO 13012KT 9999 FEW027 SCT043 BKN110 26/24 A2996

2010/08/09 23:00
MYNN 092300Z 23004KT 9000 SHRA SCT012CB BKN015 OVC080 25/24 A2999

2010/08/09 22:52
MUCL 092252Z 10004KT 9000 FEW015 OVC060 26/25 Q1014

2010/08/09 22:50
MUCM 092250Z 35014G25KT 330V030 7000 -TSRA FEW016CB BKN018 26/21 Q10 14

2010/08/09 22:52
MUCU 092252Z 13008KT 090V160 9000 FEW020CB SCT025 29/25 Q1014

2010/08/09 22:56
MUGM 092256Z 11008KT 9999 FEW025 OVC250 30/23 A2992 RMK SLP130 T03000233

2010/08/09 22:55
MUHA 092255Z 20008KT 7000 SCT020 BKN110 26/24 Q1013

2010/08/09 22:50
MUVR 092250Z 20003KT 150V240 9000 FEW018 OVC060 24/22 Q1014

2010/08/09 22:53
PABI 092253Z 20014G21KT 10SM FEW070 BKN100 BKN180 20/05 A2960

2010/08/09 22:55
PACZ 092255Z AUTO 17007KT 130V190 7SM SCT011 BKN018 OVC024 11/09 A2922

2010/08/09 22:56
PADK 092256Z 29016G23KT 5SM SCT018 BKN025 OVC035 11/08 A2980

2010/08/09 22:55
PADL 092255Z 18012G23KT 3SM -RA BR SCT006 OVC010 11/09 A2958

2010/08/09 22:55
PAEH 092255Z AUTO 16014G23KT 120V180 2 1/2SM OVC005 09/07

2010/08/09 22:55
PAFB 092255Z 02003KT 13SM BKN075 BKN120 19/08 A2957

2010/08/09 22:58
PAGA 092258Z AUTO 15013KT 10SM FEW023 SCT029 OVC048 16/11 A2949

2010/08/09 22:55
PAIM 092255Z AUTO 09005KT 10SM BKN010 OVC015 13/12 A2955

2010/08/09 22:55
PALU 092255Z AUTO 07017G22KT 5SM 08/07 A2960

2010/08/09 22:55
PASV 092255Z AUTO 18009KT 10SM BKN015 OVC040 10/08 A2958

2010/08/09 22:56
PASY 092256Z 27007KT 10SM OVC040 10/09 A2987

2010/08/09 22:55
PATC 092255Z AUTO 00000KT 1 1/4SM OVC004 11/10 A2939

2010/08/09 22:55
PATL 092255Z AUTO 12006KT 10SM SCT013 BKN020 OVC060 12/11 A2954

2010/08/09 23:00
MHLC 092300Z 06010KT 9999 SCT024TCU BKN220 32/25 Q1010 A2083NOSIG

2010/08/09 23:00
MHLM 092300Z 36010KT 9999 SCT030TCU SCT250 32/28 Q1009 A2980 NOSIG

2010/08/09 23:00
MHTG 092300Z 00000KT 9999 SCT26CB SCT090 BKN200 24/21 Q1016 A3000 REDZ NOSIG

2010/08/09 23:00
MPTO 092300Z 20006KT 9999 SCT018 BKN300 29/24 Q1009 NOSIG

2010/08/09 23:00
MROC 092300Z 25007KT 5000 2000NW FEW009TCU SCT015 BKN035 22/22 A2997 RERA TEMPO 3000 RABR

2010/08/09 22:50
MSLP 092250Z 00000KT 9999 FEW023 FEW040CB BKN170 29/25 Q1009 CB W TIL E

2010/08/09 22:50
MSLP 092250Z 00000KT 9999 FEW023 FEW040CB BKN170 29/25 Q1009 A2980 CB W TIL E

2010/08/09 22:50
MSSS 092250Z 15004KT 9999 FEW017 SCT040CB BKN170 28/24 Q1013 CB ALRRED.

2010/08/09 22:50
MSSS 092250Z 15004KT 9999 FEW017 SCT040CB BKN170 28/24 Q1013 A2994 CB ALQDS

2010/08/09 23:00
MZBZ 092300Z 09010KT 9999 SCT026 BKN280 31/26 Q1011 A2986 NOSIG

2010/08/09 23:00
MROC 092300Z 25007KT 5000 2000NW BR FEW009TCU SCT015 BKN035 22/22 A299 7 RERA TEMPO 3000 RABR

2010/08/09 23:00
MROC 092300Z 25007KT 5000 2000NW BR FEW009TCU SCT015 BKN035 22/22 A2997 RERA TEMPO 3000 RABR

2010/08/09 23:00
TBPB 092300Z 18010KT 9999 BKN014 SCT260 27/24 Q1014 NOSIG

2010/08/09 23:00
TFFF 092300Z VRB02KT 9999 FEW023 SCT060 27/25 Q1013 NOSIG

2010/08/09 23:00
TFFR 092300Z 11004KT 9999 SCT018 28/24 Q1013 TEMPO 4000 SHRA

2010/08/09 23:00
TGPY 092300Z 12012KT 9999 SCT015 BKN250 FEW///CB 28/26 Q1013 CB S

2010/08/09 23:00
MGGT 092300Z 18006KT 9999 FEW018 BKN200 20/19 Q1023 A3021 CB E TCU NW RERA VOL/DE PACAYA EN ACTIVIDAD

2010/08/09 23:00
MGGT 092300Z 18006KT 9999 FEW018 BKN200 20/19 Q1023 A3021 CB E TCU NW RERA VOL.DE PACAYA EN ACTIVIDAD

2010/08/09 23:00
MHCH 092300Z 00000KT 9999 TS SCT030TCU BKN080 27/25 RERA CB TCU TD TS S

2010/08/09 23:00
MHLE 092300Z 35004KT 5000 -TSDZ FEW016 BKN024CB 16/16 Q1022 5KM E ESE SE CL D/C 8KM PCPN CB TS TD

2010/08/09 23:00
MHNO 092300Z 00000KT 9999 TS BKN040CB 25/// CB TCU TD TS N HZ

2010/08/09 23:00
MHRO 092300Z 07014KT 9999 FEW026CB BKN200 30/25 Q1010 A2983 NOSIG

2010/08/09 23:00
MHSR 092300Z 34004KT 9999 BKN025CB BKN250 27/20 RETS CB E SE S SW TCU TD FEW100 HZ

2010/08/09 23:00
MHTE 092300Z 08005KT 9999 SCT028CB SCT250 30/23 Q1010 CB SW TCU TD HZ

2010/08/09 23:00
MHYR 092300Z 04004KT 9999 SCT025TCU 31/21 FEW250 TCU TD

2010/08/09 23:00
MNMG 092300Z 10008KT 9000 VCRA FEW020CB SCT070 28/24 Q1008 A2978 CBRA/W CB/E/S/SW/NW TEMPO 9000 VCRA/-DZ

2010/08/09 22:50
MSAC 092250Z 12002KT 9999 FEW033 FEW037CB BKN300 30/24 Q1009 CB SH AL N

2010/08/09 23:00
ZBAA 092300Z 36004MPS CAVOK 24/14 Q1007 NOSIG

2010/08/09 23:00
ZBTJ 092300Z 21001MPS 0900 R16R/1100N FG NSC 26/25 Q1006 BECMG 1600

2010/08/09 23:00
ZBYN 092300Z 36002MPS 3000 -RA BR SCT030 OVC040 20/18 Q1010 TEMPO 2500 RA

2010/08/09 23:00
ZGGG 092300Z VRB01MPS 5000 BR FEW015 28/26 Q1006 NOSIG

2010/08/09 23:00
ZGNN 092300Z 06001MPS 5000 BR SKC 26/25 Q1005 NOSIG

2010/08/09 23:00
ZGSZ 092300Z 00000MPS CAVOK 30/24 Q1005 NOSIG

2010/08/09 23:00
ZHHH 092300Z 11003MPS 2000 R04/1400N BR NSC 29/29 Q1004 BECMG 1500 BR

2010/08/09 23:00
ZLLL 092300Z 02001MPS 9999 SCT036 17/14 Q1014 NOSIG

2010/08/09 23:00
ZMUB 092300Z 26002MPS 9999 SCT100 10/01 Q1007 NOSIG RMK QFE649.2 55

2010/08/09 23:00
ZPPP 092300Z 10002MPS 9999 SCT026 OVC040 20/16 Q1017 NOSIG

2010/08/09 23:00
ZSAM 092300Z 26001MPS 8000 SKC 30/24 Q1005 NOSIG

2010/08/09 23:00
ZSHC 092300Z 30003MPS 9999 FEW017 29/24 Q1003 NOSIG

2010/08/09 23:00
ZSNJ 092300Z 04002MPS 1600 R06/1400N BR SCT007 OVC040 27/25 Q1005 BECMG 3000 BR

2010/08/09 23:00
ZSOF 092300Z 07001MPS 6000 SKC 28/26 Q1004 NOSIG

2010/08/09 23:00
ZSPD 092300Z 33006MPS 9999 FEW010 BKN040 28/25 Q1002 NOSIG

2010/08/09 23:00
ZSSS 092300Z 35005MPS 9999 SCT013 29/26 Q1002 NOSIG

2010/08/09 23:00
ZUCK 092300Z 00000MPS CAVOK 30/21 Q1003 NOSIG

2010/08/09 23:00
ZUUU 092300Z 00000MPS 2300 BR FEW040 26/24 Q1004 NOSIG

2010/08/09 23:00
ZWWW 092300Z 15003MPS CAVOK 24/10 Q1006 NOSIG

2010/08/09 23:00
ZYTL 092300Z 15003MPS 100V180 3000 -SHRA BR SCT005 BKN026 23/22 Q1007 NOSIG

2010/08/09 23:00
EPGD 092300Z 00000KT CAVOK 15/15 Q1016

2010/08/09 23:00
EPKK 092300Z 23002KT CAVOK 13/13 Q1017

2010/08/09 23:00
EPKT 092300Z 00000KT 1500 800W R27/P2000 BCFG BR NSC 13/12 Q1017

2010/08/09 23:00
EPPO 092300Z 21002KT CAVOK 17/16 Q1016

2010/08/09 23:00
EPRZ 092300Z 26004KT CAVOK 16/16 Q1016

2010/08/09 23:00
EPWA 092300Z 00000KT CAVOK 17/16 Q1016 NOSIG

2010/08/09 23:00
LBBG 092300Z 36008MPS CAVOK 26/20 Q1010 NOSIG

2010/08/09 23:00
LBPD 092300Z 28005MPS CAVOK 25/18 Q1013 NOSIG

2010/08/09 23:00
LBSF 092300Z 27004MPS CAVOK 20/16 Q1017 NOSIG

2010/08/09 23:00
LBWN 092300Z 27002MPS 180V340 CAVOK 24/21 Q1011 NOSIG

2010/08/09 23:00
LHBP 092300Z VRB01KT CAVOK 15/14 Q1018 NOSIG

2010/08/09 23:00
LRBS 092300Z 00000KT CAVOK 23/20 Q1013 NOSIG

2010/08/09 23:00
LRCK 092300Z 29007KT 260V320 CAVOK 23/19 Q1011 NOSIG

2010/08/09 23:00
LROP 092300Z 33001KT CAVOK 21/20 Q1013 880///95 NOSIG

2010/08/09 23:00
LRTR 092300Z 36004KT CAVOK 18/17 Q1017

2010/08/09 23:00
LATI 092300Z 00000KT CAVOK 20/20 Q1012 NOSIG

2010/08/09 23:00
LDDU 092300Z 02014KT 340V070 CAVOK 27/11 Q1013

2010/08/09 23:00
LDOS 092300Z 34002KT CAVOK 19/17 Q1017

2010/08/09 23:00
LDPL 092300Z 03004KT 350V070 CAVOK 19/17 Q1015

2010/08/09 23:00
LDSP 092300Z 33006KT CAVOK 25/14 Q1014

2010/08/09 23:00
LDZA 092300Z 03004KT 010V070 CAVOK 19/15 Q1017 NOSIG

2010/08/09 23:00
LDZD 092300Z 25003KT 200V290 CAVOK 17/15 Q1014

2010/08/09 23:00
LKMT 092300Z 21002KT CAVOK 15/14 Q1017 NOSIG

2010/08/09 23:00
LKPR 092300Z 25002KT CAVOK 13/12 Q1018 NOSIG

2010/08/09 23:00
LKTB 092300Z VRB02KT CAVOK 15/12 Q1017 NOSIG

2010/08/09 23:00
LQSA 092300Z 00000KT 9999 FEW045 16/14 Q1019

2010/08/09 23:00
LWOH 092300Z 34007KT CAVOK 19/14 Q1017

2010/08/09 23:00
LWSK 092300Z 03005KT CAVOK 22/14 Q1016 NOSIG

2010/08/09 23:00
LYBE 092300Z 04003KT CAVOK 19/16 Q1017 NOSIG

2010/08/09 23:00
LYNI 092300Z 15002KT CAVOK 16/15 Q1017

2010/08/09 23:00
LYPG 092300Z 01010KT CAVOK 27/13 Q1013 NOSIG

2010/08/09 23:00
LYTV 092300Z VRB01KT CAVOK 20/16 Q1013

2010/08/09 23:00
LZIB 092300Z VRB01KT 9999 MIFG NSC 16/15 Q1017

2010/08/09 23:00
LZKZ 092300Z VRB01KT CAVOK 15/13 Q1017

2010/08/09 23:00
LZTT 092300Z 28005KT 250V320 9999 FEW010 BKN080 13/12 Q1018

2010/08/09 22:53
TIST 092253Z 10012KT 10SM FEW024 SCT080 29/24 A2995

2010/08/09 22:53
TISX 092253Z 11011KT 10SM FEW022 BKN100 28/24 A2995

2010/08/09 22:50
TJBQ 092250Z 08005KT 10SM BKN035 28/28 A2994

2010/08/09 22:50
TJPS 092250Z 00000KT 10SM -RA BKN030 BKN060 27/25 A2993

2010/08/09 22:56
TJSJ 092256Z 09011KT 10SM FEW020 SCT040 BKN060 28/24 A2995

2010/08/09 22:59
RJTY 092259Z AUTO 00000KT 4000 -RA BR FEW007 OVC014 24/24 A3007 RMK AO2 CIG 009 RWY18 SLP176

2010/08/09 23:02
RJTY 092302Z AUTO 00000KT 6000 BR SCT010 OVC014 24/24 A3007 RMK AO2 RAE2302 CIG 009 RWY18 SLP177

2010/08/09 23:00
RJTY 092300Z AUTO 00000KT 4800 -RA BR FEW007 OVC014 24/24 A3007 RMK AO2 CIG 009 RWY18 SLP176

2010/08/09 23:00
LFBD 092300Z 26002KT 9999 1500W R05/1100VP2000D VCFG BR NSC 16/14 Q1020 NOSIG

2010/08/09 23:00
LFBH 092300Z AUTO 30010KT 9999NDV BKN011 17/15 Q1019

2010/08/09 23:00
LFBI 092300Z AUTO 25008KT 9999NDV NSC 18/12 Q1018

2010/08/09 23:00
LFBO 092300Z AUTO 26007KT 220V280 9999NDV OVC046 21/16 Q1020

2010/08/09 23:00
LFBP 092300Z AUTO 00000KT 9999NDV NSC 15/15 Q1020

2010/08/09 23:00
LFBT 092300Z 22002KT 9999 FEW013 BKN033 18/15 Q1021 NOSIG

2010/08/09 23:00
LFBZ 092300Z AUTO 22001KT 9999NDV FEW040 17/15 Q1020

2010/08/09 23:00
LFGJ 092300Z AUTO 08003KT 9999NDV NSC 17/14 Q1017

2010/08/09 23:00
LFKB 092300Z AUTO 19002KT 9999NDV NCD 21/19 Q1016

2010/08/09 23:00
LFKJ 092300Z 05005KT CAVOK 20/17 Q1016 NOSIG

2010/08/09 23:00
LFLB 092300Z AUTO VRB02KT 9999NDV OVC078/// //////TCU 20/16 Q1016

2010/08/09 23:00
LFLC 092300Z 22004KT 170V280 9999 SCT066 SCT083 22/15 Q1018 NOSIG

2010/08/09 23:00
LFLL 092300Z 00000KT CAVOK 22/15 Q1017 NOSIG

2010/08/09 23:00
LFLS 092300Z AUTO 20003KT 170V250 9999NDV SCT072 19/15 Q1017

2010/08/09 23:00
LFLY 092300Z AUTO 35004KT 9999NDV NSC 24/15 Q1017

2010/08/09 23:00
LFMD 092300Z AUTO VRB01KT 9999NDV BKN030 23/20 Q1015

2010/08/09 23:00
LFMH 092300Z AUTO 30002KT 9999NDV NSC 22/15 Q1018

2010/08/09 23:00
LFML 092300Z VRB02KT 9999 FEW040 SCT130 22/19 Q1015 NOSIG

2010/08/09 23:00
LFMN 092300Z 26002KT 9999 FEW015 BKN033 23/20 Q1016 NOSIG

2010/08/09 23:00
LFMP 092300Z AUTO 32010KT 9999NDV NSC 23/17 Q1017

2010/08/09 23:00
LFMT 092300Z 29010KT CAVOK 24/16 Q1016 NOSIG

2010/08/09 23:00
LFOB 092300Z AUTO 31005KT 9999NDV NSC 14/11 Q1017

2010/08/09 23:00
LFOH 092300Z AUTO 20004KT 9999NDV NSC 16/12 Q1016

2010/08/09 23:00
LFOT 092300Z 34004KT CAVOK 19/12 Q1017 NOSIG

2010/08/09 23:00
LFPB 092300Z AUTO 35003KT 9999NDV NSC 18/13 Q1016

2010/08/09 23:00
LFPG 092300Z 02007KT CAVOK 17/12 Q1016 NOSIG

2010/08/09 23:00
LFPN 092300Z AUTO 34006KT 9999NDV NSC 17/13 Q1016

2010/08/09 23:00
LFPO 092300Z 01006KT CAVOK 19/14 Q1016 NOSIG

2010/08/09 23:00
LFQQ 092300Z 27002KT CAVOK 15/11 Q1016 NOSIG

2010/08/09 23:00
LFRB 092300Z 22011KT 3000 -DZ BR OVC002 17/17 Q1016 NOSIG

2010/08/09 23:00
LFRC 092300Z AUTO 23010KT 9999NDV FEW008 OVC014 17/16 Q1015

2010/08/09 23:00
LFRD 092300Z AUTO 19005KT 9999NDV SCT019 15/13 Q1017

2010/08/09 23:00
LFRK 092300Z AUTO 20006KT 9999NDV ///////// 14/11 Q1016

2010/08/09 23:00
LFRN 092300Z AUTO 28003KT 9999NDV NSC 15/12 Q1017

2010/08/09 23:00
LFRO 092300Z AUTO 20008KT 9999NDV BKN011 OVC017 17/16 Q1016

2010/08/09 23:00
LFRQ 092300Z AUTO 23006KT 190V260 2000NDV -DZ BR OVC003 17/16 Q1017

2010/08/09 23:00
LFRS 092300Z 21003KT CAVOK 14/13 Q1018 NOSIG

2010/08/09 23:00
LFRT 092300Z AUTO 23006KT 200V270 9999NDV NSC 17/15 Q1016

2010/08/09 23:00
LFRZ 092300Z AUTO 29007KT 9999NDV NSC 16/15 Q1018

2010/08/09 23:00
LFSB 092300Z 24003KT CAVOK 15/13 Q1017 NOSIG

2010/08/09 23:00
LFSF 092300Z AUTO VRB01KT 9999NDV NSC 15/12 Q1016

2010/08/09 23:00
LFSN 092300Z 00000KT CAVOK 17/12 Q1017 NOSIG

2010/08/09 23:00
LFSR 092300Z AUTO 24002KT 9999NDV NSC 17/12 Q1016

2010/08/09 23:00
LFST 092300Z AUTO VRB02KT 9999NDV NSC 16/13 Q1017

2010/08/09 23:00
LFTW 092300Z AUTO 17004KT 140V220 9999NDV NSC 20/17 Q1016

2010/08/09 23:00
LFBA 092300Z AUTO 23002KT 9999NDV FEW036 16/13 Q1020

2010/08/09 23:00
LFBC 092300Z AUTO 00000KT 4400NDV BR NSC 13/11 Q1020

2010/08/09 23:00
LFBL 092300Z AUTO 27006KT 9999NDV FEW048 17/13 Q1019

2010/08/09 23:00
LFBM 092300Z AUTO 28001KT 9999NDV NSC 15/14 Q1020

2010/08/09 23:00
LFKF 092300Z AUTO VRB03KT 9999NDV NCD 19/14 Q1016

2010/08/09 23:00
LFOE 092300Z AUTO 00000KT 9999NDV NSC 16/11 Q1017

2010/08/09 23:00
LFOP 092300Z AUTO 00000KT 9999NDV NSC 13/11 Q1017

2010/08/09 23:00
LFPB 092300Z AUTO 35003KT 9999NDV NSC 18/13 Q1016

2010/08/09 23:00
LFPG 092300Z 02007KT CAVOK 17/12 Q1016 NOSIG

2010/08/09 23:00
LFPV 092300Z AUTO 35007KT 9999NDV NSC 18/13 Q1016

2010/08/09 23:00
LFQQ 092300Z 27002KT CAVOK 15/11 Q1016 NOSIG

2010/08/09 23:00
LFRH 092300Z AUTO 26004KT 9999NDV BKN004 OVC019 16/16 Q1018

2010/08/09 23:00
LFSD 092300Z AUTO 33003KT 9999NDV NSC 17/13 Q1017

2010/08/09 23:00
LFSI 092300Z AUTO 09002KT 9999NDV NSC 16/13 Q1016

2010/08/09 23:00
LFSL 092300Z AUTO VRB03KT 9999NDV FEW025 BKN040 18/16 Q1020

2010/08/09 23:00
LFSO 092300Z AUTO 12002KT 9999NDV NSC 17/11 Q1017

2010/08/09 23:00
LFSX 092300Z AUTO 08003KT 9999NDV NSC 14/13 Q1017

2010/08/09 23:00
LFTH 092300Z AUTO 26004KT 9999NDV NSC 22/21 Q1015

2010/08/09 23:00
FMMI 092300Z 14004KT 9999 FEW010 BKN020 13/13 Q1026 TEMPO 4000 BR

2010/08/09 23:00
WBGG 092300Z 07003KT 9999 FEW020 SCT150 BKN300 24/23 Q1008 NOSIG

2010/08/09 23:00
WBKK 092300Z 11004KT 9999 FEW014 FEW017CB SCT040 BKN270 25/23 Q1010 RETS NOSIG

2010/08/09 23:00
WBSB 092300Z 12001KT 9999 FEW003 BKN140 25/25 Q1009 RERA NOSIG

2010/08/09 23:00
EICK 092300Z 24005KT 9999 FEW038 SCT240 10/08 Q1011 NOSIG

2010/08/09 23:00
EIDW 092300Z 24007KT 9999 FEW030 12/09 Q1009 NOSIG

2010/08/09 23:00
EINN 092300Z 23006KT 9999 FEW024 BKN048 14/11 Q1010 NOSIG

2010/08/09 22:55
KQAJ 092255Z 34006KT 9999 FEW170 34/06 A2960 RMK SLP005 WND DATA ESTMD ALSTG/SLP ESTMD

2010/08/09 22:55
KQAQ 092255Z 36003KT 9000 HZ CLR 35/06 A2954 RMK SLP000 PA +478 DA +2808

2010/08/09 22:55
KQPD 092255Z AUTO VRB04KT 9999 28/12 A2963 RMK AO2 SLP938 T02840116 $

2010/08/09 22:55
KQSL 092255Z 34006KT 9999 CLR 32/02 A2958 RMK SLP007 Q1001MB

2010/08/09 22:55
KQTI 092255Z AUTO 34010KT 9999 CLR 31/04 A2963 RMK AO2 SLP006 T03100036

2010/08/09 22:55
KQAE 092255Z 36004KT 9000 HZ CLR 34/09 A2954 RMK SLP999

2010/08/09 22:55
KQMG 092255Z AUTO 30006G19KT 10SM CLR 33/05 A3000 RMK AO2 SLP079 T03340048

2010/08/09 22:55
KQTU 092255Z VRB02KT 9999 CLR 33/04 A2961 RMK SLP006

2010/08/09 22:55
KQTX 092255Z 05003KT 9999 CLR 33/00 A2960 RMK SLP992

2010/08/09 22:55
KQXJ 092255Z 31006KT 9999 CLR 32/03 A2948 RMK SLP980 PA+436 DA+2522

2010/08/09 23:00
ORBI 092300Z 02004KT CAVOK 33/11 Q1000 NOSIG

2010/08/09 23:00
ORER 092300Z 06005KT CAVOK 27/00 Q1003

2010/08/09 23:00
RJAA 092300Z 17007KT 9999 FEW015 28/24 Q1016 NOSIG

2010/08/09 23:00
RJAH 092300Z 19008KT 9999 FEW020 28/24 Q1015

2010/08/09 23:00
RJCC 092300Z 17007KT 8000 FEW002 BKN003 BKN006 23/21 Q1014

2010/08/09 23:00
RJCH 092300Z VRB02KT 9999 FEW003 SCT005 BKN006 24/24 Q1015

2010/08/09 23:00
RJFK 092300Z 11009KT 9999 FEW010 SCT120 BKN/// 27/24 Q1013

2010/08/09 23:00
RJFT 092300Z 05007KT 9999 FEW025 SCT150 BKN/// 29/23 Q1011

2010/08/09 23:00
RJFU 092300Z 13016KT 9999 FEW025 BKN160 BKN/// 29/25 Q1009

2010/08/09 23:00
RJOO 092300Z 23006KT 180V260 9999 -SHRA FEW008 SCT015 BKN090 28/24 Q1014

2010/08/09 23:00
RJSS 092300Z 22006KT 170V260 9999 FEW020 28/22 Q1015

2010/08/09 23:00
RJTT 092300Z 14008KT 9999 FEW012 SCT020 BKN080 28/23 Q1016

2010/08/09 22:55
RODN 092255Z 17014KT 9999 -RA SCT045 27/25 A2979 RMK AO2A PK WND 19033/2210 SLP088 P0028 T02650253

2010/08/09 22:53
PHJR 092253Z 05008G16KT 360V100 10SM BKN050 29/15 A3009

2010/08/09 22:53
PHKO 092253Z 20011KT 10SM BKN060 28/19 A3003

2010/08/09 22:53
PHLI 092253Z 06012KT 10SM CLR 29/20 A3013

2010/08/09 22:53
PHNL 092253Z 05014G20KT 10SM FEW033 SCT042 BKN055 30/16 A3009

2010/08/09 22:54
PHOG 092254Z 05021G32KT 10SM SCT055 31/14 A3005

2010/08/09 22:53
PHTO 092253Z 08008KT 10SM FEW020 BKN065 27/18 A3008

2010/08/09 23:00
RJAW 092300Z 06007KT 030V100 9999 FEW012 28/24 Q1014 RMK 2CU012 A2996

2010/08/09 23:00
RJBD 092300Z 36007KT 3500 TSRA BR FEW001 SCT010 FEW025CB BKN030 24/23 Q1015

2010/08/09 23:00
RJCB 092300Z VRB01KT 5000 BR FEW004 BKN005 BKN007 22/20 Q1015

2010/08/09 23:00
RJCK 092300Z 32005KT 0600 R17/1000VP1800U DZ VV001 20/19 Q1015

2010/08/09 23:00
RJCM 092300Z 17009KT 9999 FEW010 SCT160 27/22 Q1013

2010/08/09 23:00
RJDC 092300Z 09016KT 9999 FEW008 BKN/// 27/24 Q1011

2010/08/09 23:00
RJDT 092300Z 16012KT 9999 -SHRA FEW015 SCT030 BKN100 27/24 Q1010

2010/08/09 23:00
RJEC 092300Z VRB02KT 9999 FEW005 SCT009 BKN012 24/23 Q1015

2010/08/09 23:00
RJFM 092300Z VRB01KT 9999 FEW010 BKN020 BKN/// 28/26 Q1012

2010/08/09 23:00
RJFO 092300Z 20003KT 160V240 9999 SCT003 BKN150 BKN/// 26/25 Q1012

2010/08/09 23:00
RJFR 092300Z 11007KT 9999 FEW007 BKN150 BKN/// 28/24 Q1011

2010/08/09 23:00
RJKA 092300Z 17022KT 9999 FEW007 SCT020 BKN170 29/26 Q1009

2010/08/09 23:00
RJOT 092300Z 15005KT 9999 -SHRA FEW002 SCT035 BKN060 25/24 Q1015

2010/08/09 23:00
RJOY 092300Z VRB01KT 9999 FEW025 BKN070 29/23 Q1014

2010/08/09 23:00
RJSA 092300Z 06004KT 360V090 8000 FEW001 SCT005 BKN007 25/22 Q1015

2010/08/09 23:00
RJSC 092300Z VRB01KT 9999 FEW035 27/23 Q1015

2010/08/09 23:00
RJSI 092300Z 20005KT 7000 FEW005 BKN010 25/23 Q1015

2010/08/09 23:00
RJTH 092300Z 20004KT 150V250 9999 -SHRA FEW012 SCT025 BKN035 26/25 Q1017

2010/08/09 23:02
RJTY 092302Z AUTO 00000KT 6000 BR SCT010 OVC014 24/24 A3007 RMK AO2 RAE2302 CIG 009 RWY18 SLP177

2010/08/09 23:00
RJTY 092300Z AUTO 00000KT 4800 -RA BR FEW007 OVC014 24/24 A3007 RMK AO2 CIG 009 RWY18 SLP176

2010/08/09 22:59
RJTY 092259Z AUTO 00000KT 4000 -RA BR FEW007 OVC014 24/24 A3007 RMK AO2 CIG 009 RWY18 SLP176

2010/08/09 23:00
RJNT 092300Z 23004KT 170V260 9999 FEW030 BKN080 31/24 Q1013

2010/08/09 23:00
RJOA 092300Z 12003KT 9999 -RA FEW002 BKN080 BKN100 25/23 Q1016

2010/08/09 23:00
RJOB 092300Z 10003KT 070V140 8000 PRFG FEW000 SCT006 BKN015 26/25 Q1015

2010/08/09 23:00
RJOC 092300Z VRB01KT 9999 FEW025 SCT100 BKN140 29/22 Q1012

2010/08/09 23:00
RJOI 092300Z 00000KT 9999 FEW015 BKN035 OVC080 28/24 A2994 RMK SLP138 P0000 T02780239

2010/08/09 23:00
RJOK 092300Z VRB02KT 9999 FEW005 SCT060 BKN120 26/25 Q1014

2010/08/09 23:00
RJOM 092300Z 08003KT 040V110 9999 FEW015 SCT060 BKN120 27/25 Q1013

2010/08/09 23:00
RJOR 092300Z 14007KT 9999 FEW030 SCT080 BKN180 30/24 Q1013

2010/08/09 23:00
RKNY 092300Z AUTO 33002KT3000NDV ///106 26/22 Q1009

2010/08/09 23:00
RKPC 092300Z 11009KT 090V150 6000 -SHRA BKN025 BKN150 29/24 Q1004 NOSIG

2010/08/09 23:00
RKPK 092300Z 18006KT 9999 FEW015 BKN025 BKN200 28/24 Q1010 NOSIG

2010/08/09 23:00
RKSI 092300Z 12005KT 090V150 9000 FEW030 SCT080 BKN150 28/23 Q1008 NOSIG

2010/08/09 23:00
RKSS 092300Z 32002KT 8000 -RA BKN030 BKN100 26/23 Q1008 TEMPO -RA

2010/08/09 23:00
RKTN 092300Z 18001KT 6000 -RA FEW005 BKN015 OVC030 26/25 Q1010 NOSIG

2010/08/09 23:00
RKTU 092300Z 30004KT 8000 -RA FEW010 BKN030 OVC050 25/24 Q1009 NOSIG

2010/08/09 23:00
RJTO 092300Z 19008KT 9999 FEW012 SCT030 BKN060 28/26 Q1016

2010/08/09 22:55
RJTY 092255Z AUTO 00000KT 3200 -RA BR SCT010 OVC015 24/24 A3007 RMK AO2 RAB2244 CIG 009 RWY18 SLP177 P0001 T02440235

2010/08/09 22:54
PGSN 092254Z 26004KT 10SM CLR 26/24 A2993

2010/08/09 22:55
PGUA 092255Z AUTO 00000KT 10SM SCT160 26/24 A2994

2010/08/09 22:54
PGUM 092254Z 00000KT 10SM SCT060 28/24 A2993

2010/08/09 22:50
PKMJ 092250Z 06018KT 15SM FEW015 SCT050 BKN120 OVC300 30/25 A2989

2010/08/09 23:00
PKWA 092300Z AUTO 08014KT 10SM SCT050 30/25 A2990

2010/08/09 22:53
PWAK 092253Z 07017KT 10SM FEW026 31/24 A3007

2010/08/09 23:00
LCLK 092300Z 36006KT 9999 FEW008 27/25 Q1005 NOSIG

2010/08/09 23:00
LCPH 092300Z 30005KT 9999 FEW009 SCT016 28/26 Q1005

2010/08/09 22:50
BGBW 092250Z AUTO 07003KT 9999NDV -RA SCT004/// BKN007/// OVC013/// 09/08 Q1008

2010/08/09 22:50
BGGH 092250Z 30001KT 9999 SCT008 BKN020 BKN060 10/09 Q1008 RMK 4ST 6ST 7AS

2010/08/09 22:50
BGJN 092250Z AUTO 16005KT 9999NDV SCT026/// BKN110/// 13/04 Q1009

2010/08/09 22:50
BGSF 092250Z 04008KT 9999 SCT042 BKN050 11/04 Q1008

2010/08/09 22:55
BGTL 092255Z AUTO 25009KT 9999 CLR 06/03 A2986 RMK AO2 SLP116 T00620027

2010/08/09 23:00
BIAR 092300Z VRB03KT CAVOK 09/06 Q1013

2010/08/09 23:00
BIEG 092300Z 03007KT 0500 FG VV002 08/08 Q1012

2010/08/09 23:00
BIKF 092300Z 32006KT 9999 BKN012 10/07 Q1014

2010/08/09 23:00
BIRK 092300Z 32005KT 9999 BKN013 12/09 Q1014

2010/08/09 23:00
GVAC 092300Z 06005KT 9999 SCT014 25/18 Q1015 NOSIG

2010/08/09 23:00
LPLA 092300Z 05008KT 9999 FEW022 21/17 Q1023

2010/08/09 22:55
TXKF 092255Z 19010KT 9999 FEW018 SCT180 BKN300 28/23 Q1021

2010/08/09 23:00
AYPY 092300Z 00000KT 9999 -DZ FEW020 SCT040 OVC140 28/23 Q1010 RMKS/ VIS REDUCED IN HZ

2010/08/09 23:00
AYPY 092300Z 00000KT 9999 -DZ FEW020 SCT040 OVC140 28/23 Q1010 RMKS

2010/08/09 22:52
PGRO 092252Z 33005KT 7SM FEW020 BKN150 27/27 A2994

2010/08/09 22:54
PGSN 092254Z 26004KT 10SM CLR 26/24 A2993 RMK AO2 SLP134 P0001 T02560244

2010/08/09 22:55
PGUA 092255Z AUTO 00000KT 10SM SCT160 26/24 A2994 RMK AO2 SLP120 T02650242 $

2010/08/09 22:54
PGUM 092254Z 00000KT 10SM SCT060 28/24 A2993 RMK AO2 SLP126 T02780239

2010/08/09 22:57
PGWT 092257Z 26003KT 7SM -RA FEW016CB SCT060 BKN100 BKN150 26/24 A2993 RMK CB OHD MOV E WIND DATA ESTIMATED

2010/08/09 22:53
PHJR 092253Z 05008G16KT 360V100 10SM BKN050 29/15 A3009 RMK AO2 SLP197 T02940150

2010/08/09 22:54
PHMK 092254Z 04020G32KT 10SM FEW033 29/14 A3008 RMK AO2 PK WND 04035/2241 SLP185 T02940139

2010/08/09 22:50
PKMJ 092250Z 06018KT 15SM FEW015 SCT050 BKN120 OVC300 30/25 A2989

2010/08/09 22:55
PKMR 092255Z 07010KT 15SM FEW015 SCT050 BKN110 OVC300 31/25 A2988 RMK SLP119 T03090249

2010/08/09 23:00
PKWA 092300Z AUTO 08014KT 10SM SCT050 30/25 A2990 RMK AO2 T02990245

2010/08/09 22:56
PMDY 092256Z AUTO 09013KT 10SM FEW023 28/22 A3025 RMK AO2 TSNO T02830216 SLP552

2010/08/09 22:50
PTKK 092250Z VRB05KT 15SM FEW014CB BKN120 OVC280 29/25 A2988 RMK CB OHD SLP122 T02870253

2010/08/09 22:53
PTKR 092253Z 00000KT 15SM FEW017 SCT120 OVC300 27/25 A2986 RMK SLP113 T02720250

2010/08/09 22:55
PTPN 092255Z 09005KT 15SM SCT017 BKN130 OVC300 30/25 A2988

2010/08/09 22:52
PTRO 092252Z 00000KT 14SM SCT016TCU BKN120 BKN300 26/25 A2989 RMK TCU VC ALQDS

2010/08/09 22:50
PTSA 092250Z 060114KT 10SM SCT019TCU BKN130 OVC300 30/24 A2985 RMK TCU VC E-SW

2010/08/09 22:51
PTTP 092251Z 08006KT 15SM FEW018 BKN130 OVC300 29/24 A2992 RMK SLP132 T02940243

2010/08/09 22:53
PWAK 092253Z 07017KT 10SM FEW026 31/24 A3007 RMK AO2A

2010/08/09 23:00
LPLA 092300Z 05008KT 9999 FEW022 21/17 Q1023

2010/08/09 23:00
UAAA 092300Z 16002MPS 9999 FEW100 18/09 Q1008 88CLRD65 NOSIG

2010/08/09 23:00
UACC 092300Z 01005MPS 7000 FEW073 09/06 Q1016 040/0070 NOSIG RMK QFE730/0974

2010/08/09 23:00
UAFM 092300Z 13003MPS CAVOK 19/11 Q1008 NOSIG

2010/08/09 23:00
UARR 092300Z 02004MPS CAVOK 23/07 Q1017 04CLRD70 NOSIG RMK QFE759/1012

2010/08/09 23:00
UATE 092300Z 05005MPS CAVOK 25/07 Q1010 120///70 NOSIG RMK QFE756/1008

2010/08/09 23:00
UATG 092300Z 02002MPS 5000 FU NSC 26/12 Q1012 14CLRD70 NOSIG RMK QFE761/1014

2010/08/09 23:00
UATT 092300Z 07005MPS CAVOK 19/04 Q1019 31CLRD70 NOSIG RMK QFE744/0992

2010/08/09 23:00
UBBB 092300Z 31006KT CAVOK 27/27 Q1009 NOSIG RMK R88CLRD70

2010/08/09 23:00
UBBG 092300Z 21004KT 9999 SCT100 25/13 Q1011 NOSIG RMK R30R/CLRD70

2010/08/09 23:00
UTAA 092300Z 24003MPS 9999 SKC 25/01 Q1009 NOSIG

2010/08/09 23:00
UTAK 092300Z 29002MPS 6000 SKC 25/23 Q1009 NOSIG

2010/08/09 23:00
UTAT 092300Z 32003MPS P5000 SKC 22/15 Q1009 NOSIG

2010/08/09 23:00
UTDD 092300Z 00000MPS 9999 FEW140 22/10 Q1006 09CLRD70 NOSIG RMK QFE687/0917

2010/08/09 23:00
UTDL 092300Z 26003MPS 9999 FEW140 FEW200 25/08 Q1006 NOSIG RMK QFE717 8809//70

2010/08/09 23:00
UTTT 092300Z 05003MPS CAVOK 24/07 Q1006 R08R/CLRD70 TEMPO 03005G10MPS

2010/08/09 22:52
PGRO 092252Z 33005KT 7SM FEW020 BKN150 27/27 A2994

2010/08/09 22:54
PGSN 092254Z 26004KT 10SM CLR 26/24 A2993

2010/08/09 22:54
PGUM 092254Z 00000KT 10SM SCT060 28/24 A2993

2010/08/09 22:57
PGWT 092257Z 26003KT 7SM -RA FEW016CB SCT060 BKN100 BKN150 26/24 A2993

2010/08/09 22:50
PKMJ 092250Z 06018KT 15SM FEW015 SCT050 BKN120 OVC300 30/25 A2989

2010/08/09 22:55
PKMR 092255Z 07010KT 15SM FEW015 SCT050 BKN110 OVC300 31/25 A2988

2010/08/09 23:00
PKWA 092300Z AUTO 08014KT 10SM SCT050 30/25 A2990

2010/08/09 22:50
PTKK 092250Z VRB05KT 15SM FEW014CB BKN120 OVC280 29/25 A2988

2010/08/09 22:53
PTKR 092253Z 00000KT 15SM FEW017 SCT120 OVC300 27/25 A2986

2010/08/09 22:55
PTPN 092255Z 09005KT 15SM SCT017 BKN130 OVC300 30/25 A2988

2010/08/09 22:52
PTRO 092252Z 00000KT 14SM SCT016TCU BKN120 BKN300 26/25 A2989

2010/08/09 22:50
PTSA 092250Z 060114KT 10SM SCT019TCU BKN130 OVC300 30/24 A2985

2010/08/09 22:51
PTTP 092251Z 08006KT 15SM FEW018 BKN130 OVC300 29/24 A2992

2010/08/09 22:53
PWAK 092253Z 07017KT 10SM FEW026 31/24 A3007

2010/08/09 23:00
UTAM 092300Z 34004MPS 6300 SKC 26/09 Q1005 NOSIG

2010/08/09 23:00
SOCA 092300Z 22005KT 170V240 9999 FEW020TCU SCT130 26/23 Q1014 NOSIG

2010/08/09 23:00
SPIM 092300Z 18009KT 8000 SCT014 15/12 Q1016 NOSIG RMK PP000

2010/08/09 23:00
SVBC 092300Z 00000KT 9999 SCT010 SCT060 28/22 Q1012

2010/08/09 23:00
SVMC 092300Z 36004KT 9999 FEW010 BC BKN013 32/26 Q1009

2010/08/09 23:00
SVMG 092300Z 00000KT 9999 FEW010 BKN080 28/22 Q1011 NOSIG

2010/08/09 23:00
SVMI 092300Z 05003KT 9999 FEW016 SCT100 30/27 Q1009 NOSIG

2010/08/09 23:00
SCAR 092300Z 22005KT CAVOK 14/08 Q1017

2010/08/09 23:00
SCBA 092300Z AUTO 31019KT CAVOK 02/M02 Q1020

2010/08/09 23:00
SCCF 092300Z 25013KT CAVOK 17/M15 Q1025

2010/08/09 23:00
SCCI 092300Z 27009G19KT 9999 FEW013 03/M01 Q1009 NOSIG

2010/08/09 23:00
SCDA 092300Z 25003KT 8000 OVC020 14/09 Q1017

2010/08/09 23:00
SCEL 092300Z 17004KT CAVOK 15/05 Q1016 NOSIG

2010/08/09 23:00
SCFA 092300Z 18004KT 9999 FEW020 13/08 Q1016

2010/08/09 23:00
SCIE 092300Z 17002KT CAVOK 10/06 Q1017

2010/08/09 23:00
SCIP 092300Z 35008KT 8000 -SHRA SCT015 BKN020 19/15 Q1020

2010/08/09 23:00
SCTE 092300Z 20003KT 9999 FEW040 07/07 Q1024 NOSIG

2010/08/09 23:00
SGAS 092300Z 19008KT CAVOK 15/09 Q1019

2010/08/09 23:00
SGES 092300Z 21004KT CAVOK 17/13 Q1018

2010/08/09 23:00
SLVR 092300Z 00000KT 7000 NSC 20/11 Q1016 A3001 HR55 FU NOSIG

2010/08/09 23:00
SULS 092300Z 00000KT 3000 BR NSC 08/06 Q1025

2010/08/09 23:00
SUMU 092300Z 00000KT 5000 BR NSC 10/05 Q1025 NOSIG

2010/08/09 23:03
KPAE 092303Z 16003KT 10SM -RA SCT025 17/13 A2997

2010/08/09 23:00
SCSE 092300Z 30005KT 9999 OVC016 11/09 Q1017 NEFO PLAYA 2200FT

2010/08/09 23:00
SCTC 092300Z 29004KT CAVOK 09/05 Q1020

2010/08/09 23:00
SCVD 092300Z 19007KT CAVOK 10/07 Q1022 RMK HR82

2010/08/09 23:00
OERY 092300Z 00000KT CAVOK 34/08 Q1005 NOSIG

2010/08/09 23:00
LEAL 092300Z 00000KT 9999 FEW050 26/17 Q1016 NOSIG

2010/08/09 23:00
LEBL 092300Z VRB02KT 9999 FEW020 25/20 Q1017 NOSIG

2010/08/09 23:00
LECO 092300Z 19002KT CAVOK 18/16 Q1019

2010/08/09 23:00
LEGE 092300Z 19003KT 160V240 6000 FEW015 SCT030 20/19 Q1017

2010/08/09 23:00
LEIB 092300Z 36004KT 310V040 CAVOK 23/15 Q1016 NOSIG

2010/08/09 23:00
LEMD 092300Z 31013KT CAVOK 28/14 Q1019 NOSIG

2010/08/09 23:00
LEMG 092300Z 29003KT 260V320 CAVOK 25/16 Q1016 NOSIG

2010/08/09 23:00
LEPA 092300Z 00000KT CAVOK 20/17 Q1016 NOSIG

2010/08/09 23:00
LEST 092300Z VRB02KT CAVOK 15/14 Q1019 NOSIG

2010/08/09 23:00
LETO 092300Z 30012KT 260V320 CAVOK 27/14 Q1019 NOSIG

2010/08/09 23:00
LEVC 092300Z 05004KT 330V090 CAVOK 28/17 Q1016 NOSIG

2010/08/09 23:00
LEVT 092300Z 00000KT 9999 FEW017 BKN022 14/14 Q1021

2010/08/09 23:00
LEVX 092300Z VRB04KT CAVOK 20/16 Q1017

2010/08/09 23:00
LEZG 092300Z 29011KT 9999 FEW060 22/13 Q1018

2010/08/09 23:00
LEZL 092300Z 21008KT 170V230 CAVOK 32/13 Q1014 NOSIG

2010/08/09 23:00
DTMB 092300Z 00000KT CAVOK 24/19 Q1016 NOSIG

2010/08/09 23:00
DTTA 092300Z 00000KT CAVOK 23/19 Q1016 NOSIG

2010/08/09 23:00
DTTB 092300Z 33002KT CAVOK 20/16 Q1017

2010/08/09 23:00
DTTG 092300Z 08006KT CAVOK 24/17 Q1016 NOSIG

2010/08/09 23:00
DTTJ 092300Z 13004KT 8000 NSC 25/22 Q1015 NOSIG

2010/08/09 23:00
DTTK 092300Z 03002KT CAVOK 24/14 Q1017

2010/08/09 23:00
DTTN 092300Z 06006KT CAVOK 23/12 Q1015

2010/08/09 23:00
DTTX 092300Z 34004KT CAVOK 24/19 Q1016 NOSIG

2010/08/09 23:00
DTTZ 092300Z 09016KT CAVOK 28/15 Q1015 NOSIG

2010/08/09 22:50
EGDM 092250Z 21013KT 9999 SCT005 OVC008 17/15 Q1013

2010/08/09 22:50
EGDY 092250Z AUTO 20011KT 9999NDV BKN008/// SCT050/// 17/17 Q1012

2010/08/09 22:50
EGOS 092250Z AUTO 23005KT 9999NDV FEW048/// 14/12 Q1010

2010/08/09 22:50
EGOV 092250Z 23006KT 9999 FEW040 BKN050 15/14 Q1009 NOSIG

2010/08/09 22:50
EDDS 092250Z VRB01KT CAVOK 16/12 Q1018

2010/08/09 22:50
EGPK 092250Z 16003KT 9999 FEW015 SCT023 BKN035 12/11 Q1007

2010/08/09 22:55
EGUL 092255Z AUTO 21009KT 9999 BKN065 19/14 A2986 RMK AO2 SLP113 T01850143

2010/08/09 22:55
EGUN 092255Z AUTO 21009KT 9999 BKN060 OVC090 18/18 A2987 RMK AO2 SLP105 T01790177

2010/08/09 22:55
EGVA 092255Z AUTO 20011KT 9999 OVC013 18/16 A2986 RMK AO2 OVC V BKN SLP111 T01760161 $

2010/08/09 22:55
ETAR 092255Z AUTO 00000KT 9999 FEW090 13/13 A3004 RMK AO2 SLP169 T01320131 402400102 $

2010/08/09 22:55
KQHT 092255Z VRB03KT 9999 FEW150 18/10 A2981 RMK AO2A SLP063

2010/08/09 22:55
KQIR 092255Z 00000KT 9000 HZ CLR 30/27 A2945 RMK AO2A SLP969 T02980266

2010/08/09 23:00
LEMO 092300Z VRB02KT CAVOK 31/14 Q1014 NOSIG

2010/08/09 22:50
LIRN 092250Z 00000KT 9999 FEW070 23/19 Q1014

2010/08/09 22:55
LIYW 092255Z AUTO 03004KT 9999 CLR 20/19 A3000 RMK AO2 SLP156 T02000185 402910173

2010/08/09 23:00
LPLA 092300Z 05008KT 9999 FEW022 21/17 Q1023

2010/08/09 22:50
LTAC 092250Z VRB02KT CAVOK 20/09 Q1013 NOSIG

2010/08/09 22:50
LTAG 092250Z 11004KT 9999 SCT035 27/23 Q1005 NOSIG

2010/08/09 22:56
PHBK 092256Z AUTO A3009 RMK AO2 SLP193 PWINO FZRANO TSNO $

2010/08/09 22:55
PHHI 092255Z AUTO 08012G20KT 10SM BKN045 OVC055 26/16 A3012 RMK AO2 SLP186 T02620157 $

2010/08/09 22:55
PHSF 092255Z 29009G14KT 7SM FEW020 SCT200 25/11 A3031 RMK SLPNO

2010/08/09 22:50
PKMJ 092250Z 06018KT 15SM FEW015 SCT050 BKN120 OVC300 30/25 A2989

2010/08/09 23:00
PKWA 092300Z AUTO 08014KT 10SM SCT050 30/25 A2990 RMK AO2 T02990245

2010/08/09 22:56
PMDY 092256Z AUTO 09013KT 10SM FEW023 28/22 A3025 RMK AO2 TSNO T02830216 SLP552

2010/08/09 22:50
PTSA 092250Z 060114KT 10SM SCT019TCU BKN130 OVC300 30/24 A2985 RMK TCU VC E-SW

2010/08/09 22:53
PWAK 092253Z 07017KT 10SM FEW026 31/24 A3007 RMK AO2A

2010/08/09 23:00
RJOI 092300Z 00000KT 9999 FEW015 BKN035 OVC080 28/24 A2994 RMK SLP138 P0000 T02780239

2010/08/09 22:55
RJTY 092255Z AUTO 00000KT 3200 -RA BR SCT010 OVC015 24/24 A3007 RMK AO2 RAB2244 CIG 009 RWY18 SLP177 P0001 T02440235

2010/08/09 23:00
RKPK 092300Z 18006KT 9999 FEW015 BKN025 BKN200 28/24 Q1010 NOSIG

2010/08/09 22:55
RKSO 092255Z 18008KT 1200 -RA BKN010 OVC030 26/26 A2979 RMK AO2A RAB2159E2211B2235DZB2151E2159B2231E2235 SLP090 P0003 T0258 $

2010/08/09 22:55
RODN 092255Z 17014KT 9999 -RA SCT045 27/25 A2979 RMK AO2A PK WND 19033/2210 SLP088 P0028 T02650253

2010/08/09 22:57
PHNG 092257Z AUTO 07011G17KT 10SM SCT043 28/18 A3011 RMK AO2 SLP190 T02830183 $

2010/08/09 22:56
KABQ 092256Z VRB04KT 10SM SCT090CB BKN150 29/09 A3007

2010/08/09 22:52
KATL 092252Z 12006KT 10SM FEW065 SCT250 33/18 A2998

2010/08/09 22:53
KBGR 092253Z 19008KT 10SM FEW065 BKN080 BKN200 26/19 A2985

2010/08/09 22:53
KBHM 092253Z 15003KT 10SM SCT070 35/19 A2995

2010/08/09 22:53
KBNA 092253Z 15008KT 10SM TS SCT060CB BKN090 BKN180 OVC250 28/22 A2995

2010/08/09 22:54
KBOS 092254Z 20011KT 10SM FEW070 SCT090 SCT220 29/21 A2987

2010/08/09 22:54
KBWI 092254Z 16004KT 8SM SCT180 BKN250 31/21 A2994

2010/08/09 22:56
KCHS 092256Z 09007KT 10SM SCT017 BKN022 OVC075 28/26 A2998

2010/08/09 22:51
KCLE 092251Z 23004KT 9SM FEW110 BKN150 OVC250 29/19 A2997

2010/08/09 22:52
KCLT 092252Z 17005KT 10SM FEW065 BKN250 31/21 A3000

2010/08/09 22:52
KCVG 092252Z 22004KT 8SM FEW065 SCT160 SCT250 33/19 A2996

2010/08/09 22:53
KDEN 092253Z 32019G23KT 10SM SCT065 BKN090 BKN140 23/11 A3006

2010/08/09 22:53
KDFW 092253Z 18014G18KT 10SM FEW065TCU 37/20 A2984

2010/08/09 22:53
KDTW 092253Z 00000KT 7SM BKN050 OVC070 25/22 A2994

2010/08/09 22:51
KEWR 092251Z 17009G14KT 10SM BKN070 BKN120 BKN250 31/19 A2991

2010/08/09 22:53
KFLL 092253Z 15009KT 10SM SCT027 BKN060 29/23 A2988

2010/08/09 22:52
KIAD 092252Z 19008KT 8SM BKN250 32/21 A2995

2010/08/09 22:53
KIAH 092253Z 14013KT 10SM FEW055 SCT250 34/24 A2989

2010/08/09 22:54
KIND 092254Z 24006KT 10SM FEW055 SCT140 BKN250 32/20 A2993

2010/08/09 22:56
KJAX 092256Z 07008KT 10SM FEW037 SCT075 SCT130 BKN200 29/24 A2993

2010/08/09 22:51
KJFK 092251Z 19020G25KT 10SM FEW140 BKN250 27/19 A2994

2010/08/09 22:56
KLAS 092256Z 16007G16KT 10SM CLR 36/M02 A2981

2010/08/09 22:53
KLAX 092253Z 26011KT 10SM CLR 19/12 A2990

2010/08/09 22:51
KLGA 092251Z 18009G15KT 10SM FEW050 BKN250 30/17 A2991

2010/08/09 22:55
KLGC 092255Z AUTO 09005KT 10SM CLR 35/19 A2995

2010/08/09 22:53
KLIT 092253Z 16009KT 10SM FEW050 BKN250 36/24 A2987

2010/08/09 22:53
KLOU 092253Z 11005KT 10SM FEW060 34/21 A2993

2010/08/09 22:53
KMCI 092253Z 17008KT 10SM BKN250 35/25 A2986

2010/08/09 22:53
KMCO 092253Z 11012KT 10SM FEW034 SCT100 29/23 A2989

2010/08/09 23:04
KJAN 092304Z VRB03KT 10SM SCT027 BKN090 26/24 A2993

2010/08/09 23:00
AYMO 092300Z AUTO 22005KT //// // ////// 29/23 Q1011

2010/08/09 22:50
BGAA 092250Z AUTO 26006KT 9999NDV FEW054/// BKN100/// 08/05 Q1009

2010/08/09 22:50
BGQQ 092250Z AUTO 29007KT 9999NDV NCD 05/03 Q1012

2010/08/09 22:50
BGSS 092250Z 29010KT 210V350 9999 SCT031 12/09 Q1008 RMK 4SC

2010/08/09 22:50
BGUK 092250Z AUTO 32007KT 0100NDV -SN NCD 04/04 Q1009

2010/08/09 23:00
BKPR 092300Z VRB03KT CAVOK 17/13 Q1018 NOSIG RMK BLU

2010/08/09 23:00
DTKA 092300Z 07008KT 9999 FEW026 22/16 Q1015 NOSIG

2010/08/09 23:00
DTTF 092300Z 36004KT CAVOK 26/13 Q1015 NOSIG

2010/08/09 22:50
EDDE 092250Z 18002KT CAVOK 15/13 Q1018

2010/08/09 22:50
EDFH 092250Z 19005KT CAVOK 16/10 Q1017

2010/08/09 22:50
EETU 092250Z AUTO 15005KT 9999NDV OVC150/// 17/16 Q1014

2010/08/09 22:50
EFET 092250Z AUTO 03006KT 360V060 9999 OVC037 10/08 Q1012

2010/08/09 22:50
EFHA 092250Z AUTO 16005KT 110V210 9999 FEW010 SCT015 BKN018 BKN065 18/17 Q1010

2010/08/09 22:50
EFJO 092250Z AUTO 19004KT CAVOK 20/15 Q1012

2010/08/09 22:50
EFKA 092250Z AUTO 06001KT 2300 BR SCT029 BKN050 OVC080 17/17 Q1008

2010/08/09 22:50
EFKI 092250Z AUTO 18004KT 130V220 //// FEW029 SCT072 18/17 Q1009

2010/08/09 22:50
EFKS 092250Z AUTO 28002KT 9999 OVC008 17/16 Q1008

2010/08/09 22:50
EFKT 092250Z AUTO 01005KT 330V050 9999 OVC011 11/09 Q1012

2010/08/09 22:50
EFLP 092250Z AUTO 16003KT CAVOK 19/17 Q1013

2010/08/09 22:50
EFMI 092250Z AUTO 15003KT CAVOK 18/15 Q1011

2010/08/09 22:50
EFSA 092250Z AUTO 19003KT CAVOK 20/16 Q1012

2010/08/09 22:50
EFSI 092250Z AUTO 12003KT 5000 FEW028 SCT034 BKN105 16/16 Q1008

2010/08/09 22:50
EFUT 092250Z AUTO 14004KT CAVOK 18/15 Q1012

2010/08/09 22:50
EFVR 092250Z AUTO 16003KT CAVOK 18/16 Q1011

2010/08/09 22:50
EGCN 092250Z 26003KT 9999 FEW038 16/12 Q1010

2010/08/09 22:50
EGDX 092250Z AUTO 27010KT 9999NDV -DZ FEW004/// BKN010/// 16/15 Q1011

2010/08/09 22:50
EGEC 092250Z AUTO 09006KT 070V160 9999NDV // NSC 10/09 Q1006

2010/08/09 22:50
EGOM 092250Z AUTO 24007KT 9999NDV // BKN007/// 11/10 Q1007

2010/08/09 22:50
EGOP 092250Z AUTO 25017KT 9999NDV // BKN018/// 16/13 Q1011

2010/08/09 22:50
EGPI 092250Z AUTO 20008KT 9999NDV // NSC 13/10 Q1006

2010/08/09 22:50
EGUB 092250Z 19013KT 9999 OVC012 18/15 Q1012 TEMPO 7000 -RADZ

2010/08/09 22:50
EGUB 092250Z 19013KT 9999 OVC012 18/15 Q1012 GRN TEMPO 7000 -RADZ GRN

2010/08/09 22:50
EGUW 092250Z 20009KT CAVOK 17/13 Q1012 BLU

2010/08/09 22:50
EGVN 092250Z 20008KT 9999 SCT014 SCT026 BKN080 18/15 Q1011 NOSIG

2010/08/09 22:50
EGVN 092250Z 20008KT 9999 SCT014 SCT026 BKN080 18/15 Q1011 GRN NOSIG

2010/08/09 22:50
EGVO 092250Z 20009KT 9999 -DZ SCT005 OVC008 17/16 Q1013 YLO1

2010/08/09 22:50
EGVP 092250Z AUTO 23010KT 9999NDV // OVC008/// 17/15 Q1013

2010/08/09 22:50
EGWU 092250Z AUTO 21008KT 9999NDV // OVC014/// 18/15 Q1012

2010/08/09 22:50
EGXC 092250Z 20007KT 9999 BKN042 19/15 Q1010 NOSIG

2010/08/09 22:50
EGXC 092250Z 20007KT 9999 BKN042 19/15 Q1010 BLU NOSIG

2010/08/09 22:50
EGXD 092250Z 18004KT 9999 -SHRA FEW030 BKN049 14/14 Q1009 BLU NOSIG

2010/08/09 22:50
EGXE 092250Z AUTO 18004KT 9999NDV FEW044/// BKN060/// 14/14 Q1009 RERA

2010/08/09 22:50
EGXG 092250Z AUTO 26002KT 9999NDV NCD 12/12 Q1009

2010/08/09 22:50
EGXJ 092250Z AUTO 20012KT 9999NDV // SCT011/// BKN035/// BKN080/// 17/15 Q1010

2010/08/09 22:50
EGXT 092250Z AUTO 19011KT 9999NDV SCT039/// 17/14 Q1010

2010/08/09 22:50
EGXU 092250Z AUTO 28003KT 9999NDV // FEW030/// BKN060/// 15/13 Q1009

2010/08/09 22:50
EGXW 092250Z 23012KT 5000 RA FEW005 SCT007 OVC022 17/16 Q1010 GRN TEMPO 4000 RA GRN

2010/08/09 22:50
EGXX 092250Z AUTO 21011KT 9999NDV // SCT060/// 18/15 Q1010

2010/08/09 22:50
EGXZ 092250Z AUTO 12003KT 9999NDV -RA BKN050/// 14/13 Q1009

2010/08/09 22:50
EGYD 092250Z AUTO 23009KT 9999NDV // BKN028/// BKN060/// 16/15 Q1010

2010/08/09 22:50
EGYM 092250Z AUTO 20009KT 9999NDV SCT060/// 18/15 Q1011

2010/08/09 22:50
ENHE 092250Z 05019KT 9999 BKN014 10/08 Q1012

2010/08/09 23:00
EPWR 092300Z VRB02KT CAVOK 16/15 Q1017

2010/08/09 22:50
ESMQ 092250Z AUTO 23006KT 9999NDV OVC040/// 15/13 Q1014

2010/08/09 22:50
ESMT 092250Z AUTO 27009KT 9999NDV FEW035/// OVC039/// 16/11 Q1014

2010/08/09 22:50
ESTA 092250Z AUTO 27010KT 9999NDV OVC040/// 17/10 Q1014

2010/08/09 22:50
ESTL 092250Z AUTO 22006KT 9999NDV OVC043/// 15/11 Q1015

2010/08/09 22:55
ETOU 092255Z AUTO 00000KT 9999 BKN085 15/13 A3004 RMK AO2 SLP171 T01510128

2010/08/09 22:50
ETUO 092250Z AUTO 00000KT 9000NDV // OVC050/// 17/14 Q1016

2010/08/09 22:50
EVLA 092250Z AUTO 23009KT 9999 FEW017 SCT021 18/16 Q1015

2010/08/09 22:50
EVVA 092250Z AUTO 21007KT 9999 SCT023 BKN032 18/16 Q1013

2010/08/09 22:50
EYKA 092250Z AUTO 00000KT 9999NDV NCD 16/16 Q1016

2010/08/09 23:00
FAGC 092300Z AUTO 18010KT //// // ////// 03/M12 Q1028

2010/08/09 23:00
FAJB 092300Z AUTO 20003KT //// // ////// 03/M12 Q1028

2010/08/09 23:00
FAMM 092300Z AUTO 14006KT //// // ////// 01/M11 Q1030

2010/08/09 23:00
FAPP 092300Z AUTO 19013KT //// // ////// 12/M07 Q1024

2010/08/09 23:00
FASI 092300Z AUTO 20003KT //// // ////// 04/M10 Q1028

2010/08/09 23:00
FAVV 092300Z AUTO 19003KT //// // ////// 02/M12 Q1027

2010/08/09 23:00
FYML 092300Z AUTO 11005KT //// // ////// ///// Q1033

2010/08/09 23:00
FYOA 092300Z AUTO 09010KT //// // ////// 21/M04 Q1020

2010/08/09 23:00
FYOJ 092300Z AUTO 08004KT //// // ////// 15/M03 Q1023

2010/08/09 23:00
FYOW 092300Z AUTO 12007KT //// // ////// 14/M06 Q1025

2010/08/09 23:00
FYWW 092300Z AUTO 13004KT //// // ////// 08/M08 Q1029

2010/08/09 23:00
GMAD 092300Z 23005KT 8000 NSC 23/19 Q1014 NOSIG

2010/08/09 23:00
GMFM 092300Z 17008KT 8000 FEW026 FEW033CB SCT100 32/12 Q1018

2010/08/09 23:00
GMMC 092300Z 00000KT 5000 NSC 29/21 Q1012

2010/08/09 23:00
GMML 092300Z 32007KT 8000 SCT016 SCT100 22/18 Q1015

2010/08/09 23:00
GMMZ 092300Z 22003KT CAVOK 27/08 Q1023

2010/08/09 23:00
LJCE 092300Z AUTO 00000KT 9999NDV NCD 17/16 Q1017

2010/08/09 23:00
UGTB 092300Z 33003KT 9999 SCT100 23/12 Q1014 NOSIG RMK 31CLRD80

2010/08/09 23:03
YAMB 092303Z 18006KT 8000 -RA -RA -RA FEW002 BKN012 BKN020 16/15 Q1021

2010/08/09 22:50
HLLM 092250Z 06004KT 7000 SKC 25/18 Q1016

2010/08/09 22:55
KEGI 092255Z 12007KT 10SM FEW055 35/21 A2991 RMK AO2A SLP128 T03460205 $

2010/08/09 22:50
KESN 092250Z 21009KT 7SM SKC 32/20 A3000

2010/08/09 22:51
KFME 092251Z AUTO 00000KT 10SM CLR 27/21 A2997 RMK AO1

2010/08/09 22:50
KGYH 092250Z 18006KT 10SM SCT060 33/20 A3000

2010/08/09 23:00
LBGO 092300Z 27002MPS CAVOK 21/20 Q1014 NOSIG

2010/08/09 23:00
LEAB 092300Z 00000KT CAVOK 23/13 Q1019 NOSIG

2010/08/09 23:00
LESA 092300Z 00000KT CAVOK 22/15 Q1020

2010/08/09 23:00
LETO 092300Z 30012KT 260V320 CAVOK 27/14 Q1019 NOSIG

2010/08/09 23:00
LFBE 092300Z AUTO 00000KT 9999NDV NSC 14/12 Q1019

2010/08/09 23:00
LFBG 092300Z AUTO 22003KT 9999NDV NSC 16/12 Q1019

2010/08/09 23:00
LFCR 092300Z AUTO 26006KT 9999NDV BKN031 17/13 Q1021

2010/08/09 23:00
LFJL 092300Z AUTO 18002KT 9999NDV NSC 17/10 Q1017

2010/08/09 23:00
LFLX 092300Z AUTO 25010KT 9999NDV NSC 20/14 Q1017

2010/08/09 23:00
LFMI 092300Z AUTO 19003KT 9999NDV NSC 21/19 Q1015

2010/08/09 23:00
LFMK 092300Z AUTO 28007KT 240V310 9999NDV OVC045 21/16 Q1019

2010/08/09 23:00
LFMO 092300Z AUTO VRB02KT 9999NDV NSC 22/18 Q1016

2010/08/09 23:00
LFMU 092300Z AUTO 30007KT 9999NDV NSC 23/17 Q1017

2010/08/09 23:00
LFMV 092300Z AUTO VRB02KT 9999NDV NSC 20/18 Q1015

2010/08/09 23:00
LFOA 092300Z AUTO 20007KT 9999NDV NSC 18/11 Q1017

2010/08/09 23:00
LFOJ 092300Z AUTO 35007KT 9999NDV NSC 17/12 Q1016

2010/08/09 23:00
LFOK 092300Z AUTO 15005KT 9999NDV NSC 15/11 Q1016

2010/08/09 23:00
LFQI 092300Z AUTO 29008KT 9999NDV NSC 16/11 Q1016

2010/08/09 23:00
LKCV 092300Z VRB02KT CAVOK 14/14 Q1018 NOSIG RMK BLU+ BLU+

2010/08/09 23:00
LKKV 092300Z 00000KT 9999 FEW043 14/13 Q1019

2010/08/09 23:00
LKNA 092300Z 32004KT CAVOK 15/13 Q1018 RMK BLU+

2010/08/09 23:00
LKPD 092300Z 00000KT CAVOK 15/14 Q1018 RMK BLU+

2010/08/09 23:00
LKPO 092300Z 09002KT CAVOK 13/13 Q1018 RMK BLU+

2010/08/09 23:00
LQBK 092300Z 00000KT CAVOK 17/16 Q1017 NOSIG

2010/08/09 23:00
LQMO 092300Z VRB02KT CAVOK 22/14 Q1013

2010/08/09 22:50
LTAB 092250Z VRB02KT CAVOK 22/09 Q1012 NOSIG RMK RWY06 24004KT

2010/08/09 22:50
LTAE 092250Z 02003KT CAVOK 22/10 Q1012 NOSIG RMK RWY21 02006KT

2010/08/09 22:50
LTAZ 092250Z 21004KT CAVOK 20/03 Q1012

2010/08/09 22:50
LTBR 092250Z 20001KT CAVOK 25/22 Q1010 NOSIG RMK RWY07 18002KT

2010/08/09 22:50
LTBR 092250Z 20001KT CAVOK 25/22 Q1010 NOSIG

2010/08/09 22:50
LTBU 092250Z 01012KT CAVO SANO38 ENMI 092250 RRA METAR ENEK 092250Z 18019KT 9999 BKN008 16/15 Q1009 W16/S4

2010/08/09 22:50
LTBU 092250Z 01012KT CAVO

2010/08/09 22:50
LTBU 092250Z 01012KT CAVOK 25/20 Q1010

2010/08/09 22:50
LTCF 092250Z VRB01KT 9999 FEW040 16/10 Q1020

2010/08/09 22:50
LTFH 092250Z 26004KT 9999 FEW036 26/23 Q1006 NOSIG

2010/08/09 22:50
LTFJ 092250Z 25002KT 8000 BKN010 26/24 Q1009 BECMG TL2400 4000 BR BKN008

2010/08/09 23:00
LZKC 092300Z AUTO VRB01KT //// ////// 17/16 Q1017

2010/08/09 23:00
LZLU 092300Z AUTO VRB01KT //// ////// 14/13 Q1017

2010/08/09 23:00
LZNI 092300Z AUTO 31001KT 9999 ////// 14/13 Q1017

2010/08/09 23:00
LZPE 092300Z AUTO 01002KT 9999 ////// 14/13 Q1018

2010/08/09 23:00
LZPP 092300Z AUTO 36005KT 9999 ////// 14/14 Q1018

2010/08/09 23:00
LKCV 092300Z VRB02KT CAVOK 14/14 Q1018 NOSIG

2010/08/09 23:00
LKKB 092300Z 24002KT CAVOK 16/15 Q1018

2010/08/09 23:00
LKLN 092300Z AUTO VRB01KT CAVOK 14/13 Q1018

2010/08/09 23:00
LKNA 092300Z 32004KT CAVOK 15/13 Q1018

2010/08/09 23:00
LKPO 092300Z 09002KT CAVOK 13/13 Q1018

2010/08/09 23:00
LRAR 092300Z 00000KT CAVOK 17/17 Q1017

2010/08/09 23:00
LRBM 092300Z 06006KT CAVOK 17/15 Q1016

2010/08/09 23:00
LRCL 092300Z VRB02KT CAVOK 18/16 Q1017

2010/08/09 23:00
LROD 092300Z AUTO 12004KT 5000 +RA NCD 16/15 Q1017

2010/08/09 23:00
LRSM 092300Z AUTO 22004KT 9999 NCD 17/17 Q1017

2010/08/09 23:00
LRTM 092300Z 25004KT 9999 SCT043 19/18 Q1017

2010/08/09 23:00
LZZI 092300Z AUTO 12002KT //// ////// 13/13 Q1018

2010/08/09 23:00
UHHH 092300Z 18005MPS 5000 -SHRA BKN003 OVC019CB 21/21 Q1005 NOSIG

2010/08/09 23:00
MHTR 092300Z 09010KT 9999 FEW024TCU BKN250 30/26 TCU W HZ

2010/08/09 22:50
MSLU 092250Z 13006KT 9999 -DZ SCT033 FEW037CB BKN200 26/24 Q//// TS Y SH N/NW

2010/08/09 22:50
MSSA 092250Z 10002KT 9999 FEW033 FEW037CB 29/22 Q1012 CB SH N-NE-E SSE/ CB Y TS SW-W

2010/08/09 22:50
MSSM 092250Z 03002KT 9999 SCT033 FEW037CB BKN170 28/24 Q1008 CB N-NE/E

2010/08/09 22:50
MUCF 092250Z 00000KT 7000 -RA FEW012 OVC070 24/23 Q1014

2010/08/09 22:53
MUHG 092253Z 12004KT 7000 VCTS SCT020CB BKN080 23/22 Q1013

2010/08/09 22:54
OAHR 092254Z AUTO /////KT //// // ////// 25/00 Q1010

2010/08/09 23:00
OIIE 092300Z 13006KT CAVOK 27/02 Q1011 A2987

2010/08/09 23:00
OYDM 092300Z 00000KT CAVOK 16/14 Q////

2010/08/09 23:00
OYRN 092300Z 09006KT CAVOK 28/22 Q1002

2010/08/09 23:00
OYSQ 092300Z 20035G45KT 8000 FEW018 27/22 Q1006

2010/08/09 23:00
OYSY 092300Z 24003KT CAVOK 33/12 Q1003

2010/08/09 23:00
RJBB 092300Z 21007KT 9999 FEW008 BKN/// 28/25 Q1014 NOSIG

2010/08/09 23:00
RJFS 092300Z 04005KT 9999 FEW020 SCT080 BKN140 28/24 Q1010

2010/08/09 23:00
RJGG 092300Z 12010KT 9999 -SHRA FEW006 SCT015 BKN025 27/25 Q1015 NOSIG

2010/08/09 23:00
RJNW 092300Z VRB02KT 9999 FEW020 SCT090 BKN/// 29/23 Q1015

2010/08/09 23:00
RJOW 092300Z 16011KT 9999 FEW020 SCT100 BKN140 29/22 Q1012

2010/08/09 23:00
RJSF 092300Z 19004KT 9999 FEW008 SCT010 BKN015 25/22 Q1017

2010/08/09 23:00
RJSR 092300Z VRB01KT 2000 BCFG BR FEW001 SCT003 BKN009 23/23 Q1015

2010/08/09 23:00
RJSY 092300Z 11005KT 060V140 9999 FEW020 29/21 Q1014

2010/08/09 23:00
ROIG 092300Z 21015KT 9999 TS FEW010 SCT020 FEW025CB BKN120 28/26 Q1006

2010/08/09 23:00
ROMY 092300Z 22015KT 1000 R22/P1800N +SHRA FEW007 BKN015 FEW020CB 26/26 Q1006

2010/08/09 23:00
RORS 092300Z 21019KT 9999 -SHRA FEW010 FEW015CB SCT030 BKN070 27/25 Q1006 RETS

2010/08/09 23:00
SCJO 092300Z 17004KT CAVOK 10/07 Q1023

2010/08/09 23:00
LJLJ 092300Z 00000KT 9999 BKN030 18/16 Q1018 NOSIG

2010/08/09 23:00
LJMB 092300Z VRB01KT CAVOK 15/15 Q1018

2010/08/09 23:00
LJPZ 092300Z AUTO 12005KT 9999NDV NCD 18/17 Q1015

2010/08/09 23:00
LRBC 092300Z 36006KT CAVOK 21/20 Q1016

2010/08/09 23:00
LRCV 092300Z AUTO 24008KT 9999 NCD 21/17 Q1014

2010/08/09 23:00
LRIA 092300Z AUTO 24004KT 190V330 9999 FEW089 BKN120 21/20 Q1015

2010/08/09 23:00
LRSV 092300Z AUTO 28006KT 270V330 4900 -SHRA SCT100 BKN120 19/19 Q1016

2010/08/09 23:00
LRTC 092300Z AUTO 33010KT 9999 NCD 24/19 Q1011

2010/08/09 23:00
WBKK 092300Z 11004KT 9999 FEW014 FEW017CB SCT040 BKN270 25/23 Q1010 RETS NOSIG

2010/08/09 23:00
WMKJ 092300Z 31001KT 6000 FEW022 BKN300 24/24 Q1009

2010/08/09 23:00
WMKK 092300Z 15003KT 9000 FEW030 SCT140 BKN280 25/24 Q1008 NOSIG

2010/08/09 23:00
WMKP 092300Z 25001KT 9000 FEW022 SCT140 BKN270 26/24 Q1007 NOSIG

2010/08/09 23:00
WMSA 092300Z 00000KT 9000 FEW027 BKN280 26/25 Q1008

2010/08/09 22:53
KMEM 092253Z 21008KT 10SM FEW150 OVC250 32/24 A2992

2010/08/09 22:53
KMIA 092253Z 16010G15KT 10SM FEW025 SCT075 SCT150 SCT250 28/24 A2989

2010/08/09 22:53
KMSP 092253Z VRB05KT 10SM SCT150 33/18 A2991

2010/08/09 22:53
KMSY 092253Z 31006KT 10SM FEW020 BKN180 OVC250 26/24 A2995

2010/08/09 22:53
KOAK 092253Z 29015KT 10SM FEW016 19/12 A2990

2010/08/09 22:52
KOKC 092252Z 16011G18KT 10SM FEW070 SCT250 37/19 A2986

2010/08/09 22:53
KONT 092253Z 26015KT 10SM CLR 29/09 A2986

2010/08/09 22:51
KORD 092251Z 24007KT 10SM FEW035 SCT100 SCT250 31/23 A2990

2010/08/09 22:51
KORF 092251Z 12005KT 10SM CLR 29/19 A2998

2010/08/09 22:53
KPBI 092253Z 15010KT 10SM FEW022 SCT028TCU SCT250 28/24 A2988

2010/08/09 22:54
KPHF 092254Z 08005KT 10SM CLR 29/19 A2999

2010/08/09 22:54
KPHL 092254Z 20014KT 10SM FEW180 SCT250 31/19 A2995

2010/08/09 22:51
KPHX 092251Z 00000KT 10SM FEW120 SCT150 39/08 A2977

2010/08/09 22:51
KPIT 092251Z 24004KT 9SM SCT150 OVC250 30/16 A2998

2010/08/09 22:51
KRDU 092251Z 19007KT 8SM FEW065 BKN250 32/20 A2999

2010/08/09 22:51
KSAN 092251Z 32009KT 10SM CLR 22/14 A2990

2010/08/09 22:53
KSEA 092253Z 19004KT 10SM OVC026 18/12 A2998

2010/08/09 22:56
KSFO 092256Z 30018KT 10SM FEW009 18/11 A2988

2010/08/09 22:51
KSTL 092251Z 00000KT 10SM FEW060 BKN250 36/23 A2989

2010/08/09 22:51
KTEB 092251Z 18009KT 10SM FEW070 30/17 A2990

2010/08/09 22:53
KTPA 092253Z 09005KT 6SM -RA BR SCT020TCU BKN050 BKN250 27/25 A2987

2010/08/09 23:00
UBBN 092300Z 12010KT 9999 SCT100 29/08 Q1010 R14R/CLRD60 NOSIG RMK G/O QFE683

2010/08/09 23:00
UDYZ 092300Z 04002MPS 010V080 9999 SKC 27/09 Q1011 09010070 NOSIG

2010/08/09 23:00
YSTW 092300Z AUTO 12008KT 9999NDV // SCT042 BKN048 OVC088 13/11 Q1018

2010/08/09 23:00
YSWG 092300Z 07013KT 9999 FEW020 OVC025 11/09 Q1013

2010/08/09 23:00
YTEF 092300Z AUTO 12012KT //// // ////// 09/M05 Q1022

2010/08/09 23:00
YTNK 092300Z 11008KT CAVOK 13/M01 Q1020

2010/08/09 23:00
YTRE 092300Z AUTO 02006KT //// // ////// 16/14 Q1020

2010/08/09 23:00
YWGT 092300Z AUTO 12009KT //// // ////// 10/08 Q1013

2010/08/09 23:00
YWHA 092300Z AUTO 33004KT 9999NDV // OVC072 07/07 Q1014

2010/08/09 23:00
YWLM 092300Z 05007KT 9999 -RA FEW017 SCT070 OVC090 15/14 Q1019

2010/08/09 23:00
ZBHH 092300Z 06003MPS CAVOK 15/09 Q1012 NOSIG

2010/08/09 23:00
ZBSJ 092300Z 31003MPS 2000 R33/1000N BR NSC 23/22 Q1007 NOSIG

2010/08/09 23:00
ZGHA 092300Z 00000MPS 6000 SKC 29/28 Q1003 NOSIG

2010/08/09 23:00
ZGKL 092300Z VRB01MPS 4500 R01/1300 BR BKN050 26/25 Q1006 NOSIG

2010/08/09 23:00
ZGOW 092300Z 29001MPS 5000 BR NSC 28/26 Q1006 NOSIG

2010/08/09 23:00
ZJHK 092300Z 22001MPS CAVOK 26/25 Q1004 NOSIG

2010/08/09 23:00
ZLXY 092300Z 03002MPS 360V060 2500 BR SKC 26/23 Q1005 BECMG 3100 BR

2010/08/09 23:00
ZSQD 092300Z 06002MPS 9999 BKN023 27/23 Q1006 NOSIG

2010/08/09 23:00
ZWSH 092300Z 30003MPS 250V340 CAVOK 25/07 Q1010 NOSIG

2010/08/09 23:00
ZYCC 092300Z 19004MPS 6000 FEW023 22/19 Q1007 NOSIG

2010/08/09 23:00
ZYTX 092300Z 15001MPS 4000 BR OVC040 23/22 Q1007 NOSIG

2010/08/09 22:55
ETIH 092255Z AUTO 00000KT 9999 OVC075 12/12 A3009 RMK AO2 SLP184 T01170117 402180116 $

2010/08/09 23:00
LFBY 092300Z AUTO 17001KT 9999 // ////// 16/15 Q1020

2010/08/09 23:00
LFCR 092300Z AUTO 26006KT 9999NDV BKN031 17/13 Q1021

2010/08/09 23:00
LFJL 092300Z AUTO 18002KT 9999NDV NSC 17/10 Q1017

2010/08/09 23:00
LFLS 092300Z AUTO 20003KT 170V250 9999NDV SCT072 19/15 Q1017

2010/08/09 23:00
LFLY 092300Z AUTO 35004KT 9999NDV NSC 24/15 Q1017

2010/08/09 23:00
LFMK 092300Z AUTO 28007KT 240V310 9999NDV OVC045 21/16 Q1019

2010/08/09 23:00
LFMT 092300Z 29010KT CAVOK 24/16 Q1016 NOSIG

2010/08/09 23:00
LFMU 092300Z AUTO 30007KT 9999NDV NSC 23/17 Q1017

2010/08/09 23:00
LFOB 092300Z AUTO 31005KT 9999NDV NSC 14/11 Q1017

2010/08/09 23:00
LFOH 092300Z AUTO 20004KT 9999NDV NSC 16/12 Q1016

2010/08/09 23:00
LFOP 092300Z AUTO 00000KT 9999NDV NSC 13/11 Q1017

2010/08/09 23:00
LFPB 092300Z AUTO 35003KT 9999NDV NSC 18/13 Q1016

2010/08/09 23:00
LFRD 092300Z AUTO 19005KT 9999NDV SCT019 15/13 Q1017

2010/08/09 23:00
LFRJ 092300Z AUTO 22011KT 4400NDV BR OVC003/// 17/17 Q1016

2010/08/09 23:00
LFRO 092300Z AUTO 20008KT 9999NDV BKN011 OVC017 17/16 Q1016

2010/08/09 23:00
LFRZ 092300Z AUTO 29007KT 9999NDV NSC 16/15 Q1018

2010/08/09 23:00
LFSN 092300Z 00000KT CAVOK 17/12 Q1017 NOSIG

2010/08/09 23:00
LJLJ 092300Z 00000KT 9999 BKN030 18/16 Q1018 NOSIG

2010/08/09 23:00
LJMB 092300Z VRB01KT CAVOK 15/15 Q1018

2010/08/09 23:00
LJPZ 092300Z AUTO 12005KT 9999NDV NCD 18/17 Q1015

2010/08/09 23:00
LKKV 092300Z 00000KT 9999 FEW043 14/13 Q1019

2010/08/09 23:00
LRAR 092300Z 00000KT CAVOK 17/17 Q1017

2010/08/09 23:00
LRBS 092300Z 00000KT CAVOK 23/20 Q1013 NOSIG

2010/08/09 23:00
LRCK 092300Z 29007KT 260V320 CAVOK 23/19 Q1011 NOSIG

2010/08/09 23:00
LRCL 092300Z VRB02KT CAVOK 18/16 Q1017

2010/08/09 23:00
LRSV 092300Z AUTO 28006KT 270V330 4900 -SHRA SCT100 BKN120 19/19 Q1016

2010/08/09 23:00
LRTM 092300Z 25004KT 9999 SCT043 19/18 Q1017

2010/08/09 22:51
KABE 092251Z 22009KT 10SM CLR 31/20 A2993

2010/08/09 22:53
KAGC 092253Z 23007KT 10SM CLR 30/16 A2999

2010/08/09 22:54
KAKR 092254Z AUTO 22004KT 10SM CLR 29/18 A2998

2010/08/09 22:51
KALB 092251Z 25006KT 10SM FEW050 SCT110 BKN120 BKN250 29/18 A2989

2010/08/09 22:56
KART 092256Z AUTO 25008G16KT 2SM -RA BR SCT014 BKN024 BKN049 23/22 A2992

2010/08/09 22:54
KAVP 092254Z 23009KT 10SM CLR 31/16 A2994

2010/08/09 22:53
KBAF 092253Z 21006KT 10SM CLR 32/16 A2989

2010/08/09 22:51
KBDL 092251Z 19012KT 5SM HZ FEW070 BKN085 BKN200 31/21 A2989

2010/08/09 22:52
KBDR 092252Z 23008KT 10SM CLR 28/19 A2993

2010/08/09 22:56
KBED 092256Z 20009KT 10SM SCT075 BKN090 32/17 A2986

2010/08/09 22:54
KBTV 092254Z 00000KT 10SM -RA FEW023 SCT047 BKN060 23/21 A2987

2010/08/09 22:54
KBUF 092254Z 36013KT 2SM RA BR FEW015 BKN045 OVC060 23/22 A2996

2010/08/09 22:53
KBVY 092253Z 26007KT 10SM FEW070 BKN110 31/17 A2986

2010/08/09 22:56
KCAE 092256Z 12007KT 10SM FEW090 BKN210 33/22 A2998

2010/08/09 22:51
KCAK 092251Z 24005KT 7SM SCT065 BKN130 BKN180 28/19 A2998

2010/08/09 22:55
KCEF 092255Z AUTO 18006KT 10SM FEW120 31/18 A2989

2010/08/09 22:51
KCMH 092251Z 21005KT 10SM FEW055 BKN140 BKN200 31/18 A2995

2010/08/09 22:53
KCRQ 092253Z VRB05KT 10SM CLR 22/14 A2989

2010/08/09 22:54
KCRW 092254Z 00000KT 10SM CLR 31/19 A2999

2010/08/09 22:56
KDAY 092256Z 24003KT 9SM FEW200 SCT250 32/19 A2997

2010/08/09 22:55
KDOV 092255Z AUTO 13006KT 10SM CLR 30/21 A2995

2010/08/09 22:51
KERI 092251Z 23003KT 6SM HZ SCT090 27/18 A2996

2010/08/09 22:53
KEWB 092253Z 22012KT 10SM CLR 27/20 A2992

2010/08/09 22:53
KFVE 092253Z AUTO 29007KT 5SM -RA BKN039 BKN060 OVC100 19/17 A2982

2010/08/09 22:56
KGON 092256Z COR 23007KT 6SM HZ CLR 26/21 A2993

2010/08/09 22:56
KGON 092256Z 23007KT 10SM CLR 26/21 A2993

2010/08/09 22:54
KGSO 092254Z 17007KT 10SM FEW055 32/19 A3001

2010/08/09 22:53
KGSP 092253Z 16008KT 10SM CLR 31/22 A2999

2010/08/09 22:56
KHPN 092256Z 18008G14KT 10SM CLR 28/16 A2994

2010/08/09 22:51
KHTS 092251Z 00000KT 10SM CLR 31/19 A2998

2010/08/09 22:53
KHUL 092253Z AUTO 23005KT 10SM CLR 23/17 A2981

2010/08/09 22:53
KHVN 092253Z 21007KT 10SM CLR 28/20 A2993

2010/08/09 22:53
KIAG 092253Z 23003KT 1 1/4SM RA BR FEW007 BKN017 BKN060 OVC130 23/22 A2995

2010/08/09 22:51
KILG 092251Z 17013KT 10SM CLR 28/19 A2996

2010/08/09 22:53
KILM 092253Z AUTO 19010KT 10SM FEW025 SCT110 28/23 A3001

2010/08/09 22:54
KINT 092254Z 18003KT 10SM FEW055 32/18 A3001

2010/08/09 22:55
KLSV 092255Z AUTO 07004KT 10SM CLR 36/00 A2983

2010/08/09 22:53
KLUK 092253Z 18007KT 8SM FEW075 31/22 A2993

2010/08/09 22:54
KLWM 092254Z 25011KT 10SM FEW070 32/16 A2988

2010/08/09 22:56
KMDT 092256Z 20004KT 8SM SCT200 BKN250 32/21 A2993

2010/08/09 22:53
KMSS 092253Z AUTO 20004KT 10SM FEW070 SCT095 24/21 A2988

2010/08/09 22:54
KORH 092254Z 24011KT 10SM SCT070 28/21 A2994

2010/08/09 22:55
KPQI 092255Z AUTO 22005KT 10SM CLR 23/17 A2978

2010/08/09 22:55
KPSM 092255Z 04012KT 10SM FEW060 BKN085 BKN130 OVC200 27/20 A2986

2010/08/09 22:51
KPVD 092251Z 21007KT 8SM FEW170 SCT220 SCT300 28/21 A2992

2010/08/09 22:51
KPWM 092251Z 00000KT 10SM SCT070 BKN090 BKN110 27/19 A2986

2010/08/09 22:54
KRIC 092254Z 19008KT 7SM FEW055 SCT250 32/18 A2997

2010/08/09 22:54
KROC 092254Z 27005KT 2SM +TSRA BR FEW009 BKN025CB OVC060 21/19 A2998

2010/08/09 22:54
KSYR 092254Z 31007KT 2 1/2SM RA BR BKN023 BKN060 OVC075 22/21 A2997

2010/08/09 22:55
KWRI 092255Z AUTO 25008KT 10SM CLR 31/19 A2991

2010/08/09 23:03
KSLK 092303Z AUTO 00000KT 8SM FEW028 18/17 A2995

2010/08/09 23:04
KJAN 092304Z VRB03KT 10SM SCT027 BKN090 26/24 A2993

2010/08/09 23:05
CYYL 092305Z AUTO 13009KT 9SM BKN020 OVC030 16/14 A2986 RMK SLP123 DENSITY ALT 1600FT

2010/08/09 23:03
KPAE 092303Z 16003KT 10SM -RA SCT025 17/13 A2997

2010/08/09 22:53
KAMA 092253Z 19016KT 10SM SCT070 33/15 A2996

2010/08/09 22:53
KAUS 092253Z 15011KT 10SM FEW070 37/19 A2985

2010/08/09 22:53
KBPT 092253Z 19010KT 10SM CLR 33/24 A2990

2010/08/09 23:00
KBQK 092300Z AUTO 12006KT 10SM SCT090 31/25 A2995

2010/08/09 22:53
KBRO 092253Z AUTO 13014G19KT 10SM FEW031 34/24 A2985

2010/08/09 22:53
KBTR 092253Z 24004KT 8SM -RA FEW006 SCT039 BKN110 25/24 A2993

2010/08/09 22:53
KCHA 092253Z 15004KT 10SM FEW060 BKN095 BKN120 BKN250 34/22 A2995

2010/08/09 22:51
KCRP 092251Z 12012G19KT 10SM FEW030 33/24 A2986

2010/08/09 22:53
KDAL 092253Z 15013G20KT 10SM FEW070 36/20 A2984

2010/08/09 22:53
KDRT 092253Z AUTO 14014G17KT 10SM CLR 37/18 A2981

2010/08/09 22:51
KELP 092251Z 25005G16KT 10SM FEW100 34/08 A2996

2010/08/09 22:53
KEYW 092253Z 27006KT 10SM FEW070 27/24 A2988

2010/08/09 22:53
KFPR 092253Z 13014KT 10SM FEW090 29/23 A2990

2010/08/09 22:53
KFTW 092253Z 13008KT 10SM FEW075 37/18 A2983

2010/08/09 22:53
KFTY 092253Z 12004KT 7SM CLR 34/19 A2997

2010/08/09 22:53
KFXE 092253Z 12010G15KT 10SM SCT065 29/23 A2988

2010/08/09 22:52
KGLS 092252Z 15011KT 10SM CLR 33/23 A2992

2010/08/09 22:53
KGPT 092253Z 17004KT 10SM CLR 31/24 A2992

2010/08/09 22:53
KHOU 092253Z 18008KT 10SM SCT055 34/23 A2988

2010/08/09 22:52
KHRL 092252Z 14015KT 10SM CLR 34/24 A2983

2010/08/09 22:53
KHSV 092253Z 32005KT 10SM OVC130 31/23 A2996

2010/08/09 22:53
KLCH 092253Z 18007KT 10SM FEW050 32/26 A2991

2010/08/09 22:55
KLGC 092255Z AUTO 09005KT 10SM CLR 35/19 A2995

2010/08/09 22:56
KLRD 092256Z 12014KT 10SM FEW075 38/22 A2983

2010/08/09 22:53
KMAF 092253Z 19013KT 10SM CLR 33/16 A2993

2010/08/09 22:53
KMFE 092253Z 11015KT 10SM CLR 35/24 A2982

2010/08/09 22:53
KMGM 092253Z 18005KT 10SM CLR 35/20 A2992

2010/08/09 22:56
KMOB 092256Z 16008KT 10SM FEW030 32/23 A2995

2010/08/09 22:53
KNEW 092253Z 29010KT 10SM CLR 28/25 A2994

2010/08/09 22:53
KOPF 092253Z 15011KT 10SM FEW047 SCT075 28/23 A2989

2010/08/09 23:00
KOPN 092300Z AUTO 11005KT 10SM CLR 34/22 A2998

2010/08/09 22:53
KPDK 092253Z 00000KT 10SM CLR 33/18 A2998

2010/08/09 22:53
KPIE 092253Z 36004KT 10SM CLR 29/24 A2986

2010/08/09 22:53
KPNS 092253Z 22005KT 10SM FEW080 31/23 A2992

2010/08/09 22:53
KRSW 092253Z AUTO 00000KT 10SM CLR 26/24 A2988

2010/08/09 22:53
KSAV 092253Z 09010KT 10SM FEW035TCU SCT110 BKN250 31/24 A2995

2010/08/09 22:56
KSHV 092256Z 20004KT 10SM SCT070 36/21 A2987

2010/08/09 22:53
KSSI 092253Z AUTO 11007KT 10SM FEW080 29/24 A2995

2010/08/09 22:53
KTMB 092253Z 19007KT 10SM FEW024 SCT033 BKN060 29/23 A2988

2010/08/09 22:53
KTUL 092253Z 15011KT 10SM SCT070 38/20 A2983

2010/08/09 22:53
KTYS 092253Z 09004KT 10SM FEW060 34/21 A2996

2010/08/09 23:04
KJAN 092304Z VRB03KT 10SM SCT027 BKN090 26/24 A2993

2010/08/09 23:00
SLLP 092300Z 12005KT 9999 SKC 09/M08 Q1037

2010/08/09 23:00
SLCB 092300Z 27011KT 9999 SKC 19/00 Q1022

2010/08/09 23:00
SLVR 092300Z 00000KT 7000 NSC 20/11 Q1016

2010/08/09 23:00
KMCF 092300Z AUTO VRB05KT 10SM FEW014 28/26 A2986 RMK AO2 LTG DSNT NE RAE2258DZB2258E2300 SLP113

2010/08/09 22:53
KAZO 092253Z 24003KT 8SM FEW026 SCT034 28/22 A2993

2010/08/09 22:53
KBDE 092253Z AUTO 00000KT 10SM CLR 32/21 A2987

2010/08/09 22:53
KBTL 092253Z 23006KT 9SM SCT022 28/23 A2995

2010/08/09 22:53
KBTM 092253Z AUTO 20012KT 10SM SCT100 23/06 A2996

2010/08/09 22:55
KCIU 092255Z AUTO 22005KT 10SM FEW041 SCT049 26/19 A2990

2010/08/09 22:53
KCMX 092253Z AUTO 29010KT 10SM CLR 27/17 A2991

2010/08/09 22:54
KCOS 092254Z 20009KT 10SM BKN110 24/14 A3014

2010/08/09 22:53
KCPR 092253Z 19018G23KT 10SM CLR 28/05 A3002

2010/08/09 22:53
KDET 092253Z 00000KT 10SM BKN050 BKN090 26/21 A2994

2010/08/09 22:55
KDLH 092255Z 29006KT 10SM CLR 31/18 A2994

2010/08/09 22:54
KDSM 092254Z 08004KT 10SM OVC044 31/25 A2988

2010/08/09 22:53
KELO 092253Z AUTO 28004KT 10SM CLR 29/17 A2992

2010/08/09 22:53
KFAR 092253Z 21008KT 10SM CLR 33/18 A2987

2010/08/09 22:53
KFNT 092253Z AUTO VRB03KT 6SM -RA BR FEW006 SCT023 BKN032 23/22 A2993

2010/08/09 22:53
KGFK 092253Z 20009KT 10SM FEW250 34/20 A2983

2010/08/09 22:53
KGRB 092253Z 17005KT 10SM CLR 31/24 A2988

2010/08/09 22:53
KGRR 092253Z 22005KT 10SM BKN032 28/23 A2992

2010/08/09 22:53
KICT 092253Z 16014KT 10SM FEW070 SCT250 37/20 A2984

2010/08/09 22:55
KINL 092255Z AUTO 05004KT 10SM CLR 31/21 A2990

2010/08/09 22:52
KISN 092252Z 06003KT 10SM CLR 32/15 A2980

2010/08/09 22:54
KLEX 092254Z 00000KT 10SM CLR 33/19 A2997

2010/08/09 22:53
KMBS 092253Z 28008KT 10SM CLR 27/23 A2991

2010/08/09 22:51
KMDW 092251Z 25010KT 10SM FEW040 SCT100 SCT250 30/22 A2990

2010/08/09 22:54
KMKC 092254Z 17011G18KT 10SM CLR 36/23 A2984

2010/08/09 22:52
KMKE 092252Z 13006KT 8SM FEW038 SCT050 28/22 A2989

2010/08/09 22:52
KMLI 092252Z 12006KT 10SM CLR 30/23 A2991

2010/08/09 22:54
KMOT 092254Z 11005KT 10SM CLR 32/17 A2981

2010/08/09 22:50
KMWA 092250Z 05005KT 15SM SCT090 37/20 A2991

2010/08/09 22:52
KOMA 092252Z 35008KT 10SM SCT035 SCT160 33/27 A2983

2010/08/09 22:55
KPHN 092255Z AUTO 16004KT 10SM SCT100 25/21 A2992

2010/08/09 22:54
KPIA 092254Z 11004KT 7SM FEW095 32/25 A2990

2010/08/09 22:53
KPTK 092253Z 22007KT 10SM FEW046 SCT060 SCT200 26/21 A2993

2010/08/09 22:53
KPUB 092253Z 20016G25KT 10SM -RA SCT025 BKN060 OVC100 21/17 A3006

2010/08/09 22:50
KSAW 092250Z 04009KT 10SM SKC 26/20 A2991

2010/08/09 22:56
KSDF 092256Z 17004KT 9SM FEW070 SCT150 SCT250 35/21 A2992

2010/08/09 22:52
KSGF 092252Z AUTO 21007KT 10SM CLR 35/22 A2991

2010/08/09 22:53
KSTP 092253Z 07004KT 10SM CLR 32/20 A2990

2010/08/09 22:54
KSUS 092254Z 19003KT 10SM FEW050 BKN200 35/24 A2987

2010/08/09 22:52
KTOL 092252Z 19003KT 6SM HZ SCT050 BKN075 29/21 A2992

2010/08/09 22:54
KAPN 092254Z 10004KT 10SM FEW070 24/21 A2990

2010/08/09 22:53
KBFI 092253Z VRB05KT 10SM -RA BKN020 OVC033 19/13 A2996

2010/08/09 22:53
KBIL 092253Z 28013KT 10SM FEW029 BKN100 BKN120 20/14 A2988

2010/08/09 22:53
KBKE 092253Z AUTO 14014G19KT 10SM BKN100 24/09 A2983

2010/08/09 22:53
KBLI 092253Z 17006KT 10SM FEW006 BKN017 OVC035 16/13 A2997

2010/08/09 22:53
KBOI 092253Z 30005KT 10SM CLR 31/06 A2980

2010/08/09 22:53
KCLM 092253Z AUTO 00000KT 10SM SCT011 OVC026 16/13 A2998

2010/08/09 22:56
KCTB 092256Z AUTO VRB04KT 10SM FEW080 27/06 A2983

2010/08/09 22:56
KDUG 092256Z AUTO 24005KT 10SM CLR 33/14 A3001

2010/08/09 22:53
KFAT 092253Z VRB04KT 10SM FEW080 34/10 A2980

2010/08/09 22:55
KGDV 092255Z AUTO 04007KT 10SM CLR 34/10 A2979

2010/08/09 22:53
KGEG 092253Z 24013G17KT 10SM FEW075 SCT140 BKN200 27/06 A2979

2010/08/09 22:53
KGGW 092253Z AUTO 13005KT 10SM CLR 32/09 A2978

2010/08/09 22:53
KGLH 092253Z 09003KT 10SM CLR 36/24 A2988

2010/08/09 22:55
KGPI 092255Z 19005KT 10SM CLR 28/07 A2977

2010/08/09 22:53
KGTF 092253Z 25018G27KT 10SM FEW100 27/05 A2981

2010/08/09 22:53
KGWO 092253Z AUTO 14004KT 10SM CLR 29/24 A2992

2010/08/09 22:53
KHLN 092253Z VRB04KT 10SM BKN100 22/09 A2986

2010/08/09 22:53
KHQM 092253Z AUTO 23009KT 10SM OVC011 14/12 A3001

2010/08/09 22:53
KHVR 092253Z AUTO 08009KT 10SM CLR 32/08 A2977

2010/08/09 22:53
KIPL 092253Z AUTO 21005KT 10SM CLR 39/01 A2969

2010/08/09 22:53
KLBB 092253Z 00000KT 10SM -TSRA FEW025 BKN060CB OVC120 21/19 A3002

2010/08/09 22:53
KMSO 092253Z 13012KT 9SM -RA SCT050 BKN090 20/14 A2987

2010/08/09 22:52
KMWH 092252Z 19013KT 10SM CLR 29/09 A2974

2010/08/09 22:56
KNUW 092256Z 00000KT 10SM FEW006 BKN014 OVC030 16/13 A2998

2010/08/09 22:53
KOLF 092253Z AUTO 11007KT 10SM CLR 32/12 A2979

2010/08/09 22:54
KOLM 092254Z 24006KT 10SM OVC025 17/12 A2998

2010/08/09 22:54
KOLS 092254Z AUTO VRB03KT 10SM SCT095 32/14 A3000

2010/08/09 22:50
KOLV 092250Z 22005KT 9SM SCT150 BKN250 32/27 A2995

2010/08/09 22:53
KPAE 092253Z 00000KT 10SM -RA BKN023 17/13 A2998

2010/08/09 22:53
KPDX 092253Z 00000KT 10SM BKN035 OVC250 18/11 A2999

2010/08/09 22:53
KPMD 092253Z AUTO 24013G16KT 10SM CLR 33/03 A2988

2010/08/09 22:55
KRNO 092255Z 25009G14KT 10SM SCT080 BKN090 31/02 A2993

2010/08/09 22:53
KRNT 092253Z 17003KT 10SM OVC031 19/12 A2996

2010/08/09 22:53
KSAC 092253Z 23008KT 10SM CLR 29/13 A2982

2010/08/09 22:55
KSCK 092255Z 28006KT 10SM CLR 31/11 A2981

2010/08/09 22:53
KSDM 092253Z VRB05KT 10SM CLR 22/13 A2989

2010/08/09 22:53
KSFF 092253Z 24015G20KT 10SM FEW080 28/06 A2978

2010/08/09 22:53
KSJC 092253Z 29012KT 10SM FEW050 23/13 A2986

2010/08/09 22:53
KSLC 092253Z 28016G30KT 10SM FEW080 SCT100CB BKN120 BKN200 27/04 A2997

2010/08/09 22:53
KSMF 092253Z 19007KT 10SM CLR 29/15 A2981

2010/08/09 22:53
KTIW 092253Z 24003KT 10SM -RA BKN025 17/13 A2997

2010/08/09 22:53
KTUS 092253Z 24005KT 10SM CLR 36/13 A2990

2010/08/09 23:00
LPAZ 092300Z 05010KT 9999 SCT018 BKN036 21/15 Q1021

2010/08/09 23:00
LPHR 092300Z 01005KT 9999 FEW016 SCT035 21/16 Q1022

2010/08/09 23:00
LPLA 092300Z 05008KT 9999 FEW022 21/17 Q1023

2010/08/09 23:00
LPPD 092300Z 05004KT 020V090 9999 FEW018 BKN040 20/14 Q1021

2010/08/09 22:54
KACY 092254Z 18009KT 10SM CLR 28/20 A2999

2010/08/09 22:53
KAUG 092253Z AUTO 18003KT 10SM BKN090 26/19 A2987

2010/08/09 22:54
KAVL 092254Z 20003KT 9SM BKN060 26/21 A3010

2010/08/09 22:53
KBGM 092253Z 33003KT 9SM FEW070 BKN080 28/16 A2998

2010/08/09 22:51
KBKW 092251Z AUTO 23004KT 7SM CLR 28/17 A3009

2010/08/09 22:51
KCON 092251Z AUTO 31005KT 9SM CLR 29/17 A2988

2010/08/09 22:52
KDCA 092252Z 18011KT 8SM FEW055 SCT250 32/21 A2995

2010/08/09 22:51
KEKN 092251Z AUTO 00000KT 10SM CLR 28/18 A3006

2010/08/09 22:50
KESN 092250Z 21009KT 7SM SKC 32/20 A3000

2010/08/09 22:53
KGFL 092253Z AUTO 24005KT 10SM CLR 29/18 A2987

2010/08/09 22:53
KGSP 092253Z 16008KT 10SM CLR 31/22 A2999

2010/08/09 23:00
KIPJ 092300Z AUTO 00000KT 10SM CLR 31/22 A3000

2010/08/09 22:54
KIPT 092254Z 10008KT 10SM CLR 29/20 A2991

2010/08/09 22:54
KLYH 092254Z 13004KT 9SM CLR 30/22 A3002

2010/08/09 22:53
KMHT 092253Z 27007KT 10SM FEW110 32/17 A2986

2010/08/09 22:51
KMPV 092251Z AUTO 16005KT 5SM VCTS BR SCT050 21/20 A2995

2010/08/09 22:52
KMWN 092252Z 26022KT 1/16SM FG VV000 13/13 RMK

2010/08/09 22:50
KMYR 092250Z 18007KT 10SM BKN070 29/24 A3003

2010/08/09 22:51
KNYC 092251Z AUTO 15008KT 120V190 10SM CLR 29/18 A2995

2010/08/09 22:54
KPNE 092254Z AUTO 22007KT 10SM SCT050 32/21 A2995

2010/08/09 22:54
KROA 092254Z 16008KT 10SM FEW080 31/19 A3002

2010/08/09 22:53
KSMQ 092253Z AUTO VRB03KT 9SM FEW065 32/19 A2990

2010/08/09 22:54
KWAL 092254Z AUTO 20009KT 10SM CLR 27/22 A3000

2010/08/09 22:53
KAAF 092253Z AUTO VRB03KT 10SM CLR 32/24 A2989

2010/08/09 22:53
KABR 092253Z AUTO 14008KT 10SM CLR 33/18 A2987

2010/08/09 22:51
KACT 092251Z 17010G15KT 10SM CLR 38/19 A2985

2010/08/09 22:53
KAGS 092253Z 11005KT 10SM CLR 32/22 A2995

2010/08/09 22:51
KAHN 092251Z 00000KT 4SM BR BKN100 25/23 A3000

2010/08/09 22:53
KALI 092253Z AUTO 14015G22KT 10SM CLR 34/23 A2984

2010/08/09 22:53
KAUS 092253Z 15011KT 10SM FEW070 37/19 A2985

2010/08/09 23:00
KAYS 092300Z AUTO 11006KT 10SM SCT028 SCT049 BKN085 31/24 A2994

2010/08/09 22:51
KBVE 092251Z AUTO 30006KT CLR 28/25 A2994

2010/08/09 22:55
KCAO 092255Z AUTO 30014G22KT 10SM BKN075 29/13 A3003

2010/08/09 22:53
KCDS 092253Z AUTO 20008KT 10SM CLR 36/20 A2987

2010/08/09 22:53
KCLL 092253Z 15011KT 10SM CLR 37/20 A2986

2010/08/09 22:53
KCNM 092253Z AUTO 11008KT 10SM SCT090 33/16 A2993

2010/08/09 22:53
KCOT 092253Z AUTO 13011KT 10SM SCT070 37/18 A2982

2010/08/09 22:51
KCSG 092251Z 15007KT 10SM FEW075 34/18 A2993

2010/08/09 22:53
KCTY 092253Z AUTO 06004KT 32/25 A2989

2010/08/09 22:53
KDAB 092253Z 09009G14KT 10SM FEW023 SCT250 29/24 A2991

2010/08/09 22:53
KDHT 092253Z AUTO 19011KT 10SM FEW080 33/14 A2996

2010/08/09 22:53
KECP 092253Z AUTO 04008KT 10SM CLR 34/21 A2989

2010/08/09 22:53
KELD 092253Z AUTO 19004KT 10SM CLR 37/21 A2988

2010/08/09 22:51
KELP 092251Z 25005G16KT 10SM FEW100 34/08 A2996

2010/08/09 22:53
KESF 092253Z AUTO 09012G22KT 10SM VCTS FEW065 BKN090 31/23 A2992

2010/08/09 22:53
KFSM 092253Z 00000KT 10SM CLR 37/21 A2985

2010/08/09 22:53
KFYV 092253Z 21006KT 10SM CLR 35/19 A2992

2010/08/09 22:53
KGAG 092253Z AUTO 18011KT 10SM FEW090 37/17 A2985

2010/08/09 22:51
KGDP 092251Z AUTO 24015KT 10SM CLR 32/12 A3012

2010/08/09 22:53
KHBR 092253Z AUTO 16013G19KT 10SM BKN090 40/15 A2984

2010/08/09 22:51
KHDO 092251Z AUTO 12012KT 10SM FEW070 36/19 A2987

2010/08/09 22:53
KHOT 092253Z AUTO 18005KT 10SM CLR 37/21 A2990

2010/08/09 22:53
KHRO 092253Z AUTO 16005KT 10SM CLR 34/22 A2994

2010/08/09 22:54
KIPT 092254Z 10008KT 10SM CLR 29/20 A2991

2010/08/09 22:54
KJAN 092254Z 17006KT 8SM -TSRA BKN025 BKN060CB OVC095 26/24 A2993

2010/08/09 22:53
KJBR 092253Z AUTO 16011KT 10SM CLR 33/26 A2988

2010/08/09 22:51
KJCT 092251Z AUTO 13011KT 10SM BKN090 37/17 A2988

2010/08/09 22:53
KLFK 092253Z AUTO 21007KT 10SM SCT070 38/19 A2988

2010/08/09 22:53
KLFT 092253Z 13006G15KT 10SM FEW060 28/23 A2995

2010/08/09 22:53
KMCN 092253Z 04007KT 8SM CLR 34/21 A2995

2010/08/09 22:58
KMEI 092258Z 16008KT 10SM CLR 34/23 A2993

2010/08/09 22:53
KMLC 092253Z AUTO 19005KT 10SM CLR 37/18 A2987

2010/08/09 22:53
KMLU 092253Z 17003KT 10SM CLR 32/24 A2992

2010/08/09 22:53
KMWL 092253Z AUTO 14012G17KT 10SM FEW085 37/19 A2984

2010/08/09 22:53
KPBF 092253Z AUTO 11004KT 10SM CLR 36/26 A2989

2010/08/09 22:53
KPNC 092253Z AUTO 17010G18KT 10SM CLR 37/21 A2983

2010/08/09 22:53
KPSX 092253Z AUTO 19016KT 10SM CLR 34/26 A2988

2010/08/09 22:53
KPWA 092253Z 17012KT 10SM FEW075 37/18 A2985

2010/08/09 22:53
KRMG 092253Z AUTO 20003KT 10SM CLR 35/19 A2994

2010/08/09 22:53
KRSL 092253Z AUTO 18011KT 10SM CLR 37/18 A2981

2010/08/09 22:56
KSHV 092256Z 20004KT 10SM SCT070 36/21 A2987

2010/08/09 22:52
KSPS 092252Z 18016KT 10SM SCT075 SCT095 36/19 A2983

2010/08/09 22:53
KTLH 092253Z 05007KT 10SM FEW060 34/20 A2990

2010/08/09 22:53
KTOP 092253Z 19008KT 10SM CLR 38/21 A2983

2010/08/09 22:53
KTRI 092253Z 00000KT 10SM FEW050 SCT065 SCT250 33/17 A3001

2010/08/09 22:53
KTUP 092253Z 20007KT 10SM TS CLR 29/24 A2995

2010/08/09 22:51
KVCT 092251Z 12012KT 10SM CLR 34/24 A2987

2010/08/09 22:53
KVGT 092253Z 09009G18KT 10SM CLR 35/M01 A2984

2010/08/09 22:58
KVUJ 092258Z AUTO 15003KT 10SM SCT080 SCT110 33/23 A2998

2010/08/09 22:55
KWRB 092255Z 02003KT 10SM CLR 34/24 A2994

2010/08/09 22:53
KAIA 092253Z AUTO 32004KT 10SM BKN085 31/12 A2995

2010/08/09 22:54
KALO 092254Z AUTO 10006KT 10SM BKN070 29/24 A2990

2010/08/09 22:52
KALS 092252Z AUTO VRB04KT 10SM FEW110 26/ A3019

2010/08/09 22:50
KANW 092250Z AUTO 09008KT 1/2SM HZ VV005 32/16 A2991

2010/08/09 22:53
KBBW 092253Z AUTO 13004KT 10SM CLR 31/22 A2991

2010/08/09 22:53
KBFF 092253Z AUTO 29005KT 10SM CLR 31/13 A2995

2010/08/09 22:50
KBIE 092250Z AUTO 00000KT 10SM CLR 36/23 A2982

2010/08/09 22:52
KBIS 092252Z 15017KT 10SM CLR 34/15 A2982

2010/08/09 22:53
KBPI 092253Z AUTO 25019G24KT 10SM FEW110 24/M02 A3012

2010/08/09 22:53
KBRL 092253Z AUTO 12005KT 10SM CLR 32/26 A2989

2010/08/09 22:53
KCAG 092253Z AUTO 14008KT 10SM CLR 23/10 A3014

2010/08/09 22:53
KCGI 092253Z AUTO 19004KT 10SM CLR 33/26 A2989

2010/08/09 22:52
KCID 092252Z 12008KT 10SM SCT075 29/24 A2991

2010/08/09 22:55
KCNK 092255Z AUTO 16012KT 10SM CLR 37/19 A2982

2010/08/09 22:52
KCNU 092252Z AUTO 21010KT 10SM CLR 37/21 A2987

2010/08/09 22:54
KCOU 092254Z 16006KT 10SM FEW080 33/27 A2990

2010/08/09 22:53
KCYS 092253Z 24011KT 10SM FEW043 SCT060 SCT075 24/11 A3010

2010/08/09 22:53
KDBQ 092253Z 16003KT 10SM FEW080 29/23 A2994

2010/08/09 22:52
KDDC 092252Z AUTO 17014G20KT 10SM CLR 34/16 A2985

2010/08/09 22:55
KDVL 092255Z AUTO 28006KT 10SM CLR 33/19 A2983

2010/08/09 22:55
KEAR 092255Z AUTO 09007KT 10SM CLR 32/25 A2991

2010/08/09 22:53
KEHA 092253Z AUTO 19008KT 35/14

2010/08/09 22:54
KEVV 092254Z 17004KT 10SM FEW065 35/20 A2990

2010/08/09 22:53
KFNB 092253Z AUTO 18006KT 10SM CLR 37/24 A2980

2010/08/09 22:56
KFSD 092256Z 13011KT 10SM SCT032 SCT045 28/24 A2989

2010/08/09 22:54
KFWA 092254Z 20003KT 9SM FEW090 BKN140 BKN250 29/24 A2994

2010/08/09 22:53
KGCC 092253Z AUTO 21018G25KT 10SM CLR 32/04 A2987

2010/08/09 22:54
KGCK 092254Z 19014G20KT 10SM FEW090 37/13 A2986

2010/08/09 22:53
KGJT 092253Z 27005KT 10SM SCT110 29/07 A3003

2010/08/09 22:53
KGLD 092253Z AUTO 18009KT 10SM CLR 34/16 A2992

2010/08/09 22:55
KGPZ 092255Z AUTO 25003KT 10SM CLR 31/20 A2994

2010/08/09 22:53
KGRI 092253Z 13008KT 10SM CLR 33/22 A2988

2010/08/09 22:55
KHON 092255Z AUTO 12008KT 10SM CLR 32/20 A2986

2010/08/09 22:53
KHSI 092253Z AUTO 07008KT 10SM CLR 32/24 A2987

2010/08/09 22:53
KHTL 092253Z AUTO 27006KT 10SM CLR 28/22 A2991

2010/08/09 22:53
KIML 092253Z AUTO 11008KT 10SM FEW120 33/19 A2991

2010/08/09 22:55
KIRK 092255Z AUTO 16003KT 10SM CLR 31/27 A2989

2010/08/09 22:51
KJAC 092251Z 20008KT 10SM BKN080 18/05 A3010

2010/08/09 22:53
KJKL 092253Z AUTO 00000KT 10SM CLR 32/19 A3001

2010/08/09 22:53
KJLN 092253Z 20006KT 10SM SCT065 36/22 A2989

2010/08/09 22:59
KJNX 092259Z AUTO 00000KT 10SM CLR 29/21 A2998

2010/08/09 22:53
KLAN 092253Z 22009KT 10SM SCT031 BKN039 28/22 A2993

2010/08/09 22:53
KLBF 092253Z AUTO 13007KT 10SM CLR 31/22 A2991

2010/08/09 22:53
KLND 092253Z AUTO 20014G18KT 10SM CLR 29/02 A2994

2010/08/09 22:54
KLNK 092254Z 22004KT 10SM CLR 34/23 A2984

2010/08/09 22:53
KLXV 092253Z AUTO 19007KT 4SM -RA BR BKN036 BKN047 OVC055 13/12 A3038

2010/08/09 22:53
KMCK 092253Z AUTO 08011KT 10SM CLR 33/23 A2987

2010/08/09 22:53
KMCW 092253Z AUTO 12006KT 10SM FEW031 SCT039 BKN070 29/24 A2994

2010/08/09 22:52
KMFD 092252Z 19008KT 8SM CLR 29/17 A2999

2010/08/09 22:52
KMHK 092252Z 16010KT 10SM FEW080 38/19 A2981

2010/08/09 22:55
KMKG 092255Z 23010KT 10SM SCT015 SCT028 27/22 A2993

2010/08/09 22:53
KMSN 092253Z 04004KT 10SM FEW036 31/23 A2991

2010/08/09 22:53
KODX 092253Z AUTO VRB03KT 10SM FEW040 32/22 A2987

2010/08/09 22:50
KONL 092250Z AUTO 07005KT 10SM CLR 29/22 A2990

2010/08/09 22:53
KOTM 092253Z AUTO 17004KT 10SM CLR 29/24 A2990

2010/08/09 22:53
KPAH 092253Z 21004KT 10SM CLR 34/23 A2989

2010/08/09 22:53
KPKD 092253Z AUTO 22007KT 10SM CLR 31/18 A2993

2010/08/09 22:52
KRAP 092252Z 15015G23KT 10SM CLR 22/14 A2993

2010/08/09 22:54
KRFD 092254Z 30003KT 10SM FEW030 SCT070 30/22 A2993

2010/08/09 22:53
KRIW 092253Z AUTO 29011KT 10SM FEW110 28/03 A2994

2010/08/09 22:54
KRST 092254Z 06006KT 10SM CLR 31/23 A2994

2010/08/09 22:53
KSHR 092253Z AUTO 00000KT 10SM CLR 33/08 A2982

2010/08/09 22:53
KSLN 092253Z 18009G19KT 10SM CLR 38/18 A2981

2010/08/09 22:54
KSBN 092254Z 26003KT 10SM FEW055 29/21 A2994

2010/08/09 22:52
KSPI 092252Z 17004KT 10SM CLR 34/26 A2989

2010/08/09 22:53
KSTC 092253Z 06005KT 10SM CLR 32/21 A2991

2010/08/09 22:52
KSUX 092252Z 09007KT 10SM OVC028 29/24 A2987

2010/08/09 22:53
KTCS 092253Z AUTO 00000KT 10SM BKN090 31/09 A3002

2010/08/09 23:01
KTDF 092301Z AUTO 00000KT 30/22 A3001

2010/08/09 22:55
KUDG 092255Z 14004KT 10SM CLR 31/22 A3001

2010/08/09 22:54
KUIN 092254Z AUTO 16004KT 10SM CLR 33/27 A2988

2010/08/09 22:53
KVIH 092253Z AUTO 09005KT 10SM CLR 34/25 A2991

2010/08/09 22:52
KVTN 092252Z AUTO 16007KT 10SM CLR 34/15 A2990

2010/08/09 22:51
KYNG 092251Z 21005KT 10SM FEW050 BKN110 OVC200 28/17 A2998

2010/08/09 22:55
KAST 092255Z AUTO 27007KT 10SM SCT014 OVC022 16/12 A3002

2010/08/09 22:54
KBFL 092254Z 33010KT 10SM CLR 33/12 A2979

2010/08/09 22:52
KBLU 092252Z AUTO 22005KT 10SM CLR 21/07 A3009

2010/08/09 22:56
KBZN 092256Z 08010KT 10SM FEW070 21/13 A2997

2010/08/09 22:53
KCNY 092253Z AUTO 25010G17KT 10SM FEW120 30/01 A3000

2010/08/09 22:52
KCZZ 092252Z AUTO 23011KT 29/03 A2988

2010/08/09 22:55
KDRA 092255Z AUTO 21016G26KT 10SM CLR 34/M07 A2991

2010/08/09 22:53
KELY 092253Z AUTO VRB04G17KT 10SM SCT110 26/M03 A3009

2010/08/09 22:54
KEUG 092254Z 00000KT 10SM FEW030 BKN150 22/12 A2997

2010/08/09 22:56
KFLG 092256Z 23013KT 10SM FEW110 22/07 A3025

2010/08/09 22:50
KHMS 092250Z 04003KT 15SM FEW250 31/06 A2970

2010/08/09 22:56
KINW 092256Z AUTO 00000KT 10SM FEW065 BKN095 28/09 A3007

2010/08/09 22:59
KJNX 092259Z AUTO 00000KT 10SM CLR 29/21 A2998

2010/08/09 22:53
KLGB 092253Z 18007KT 10SM CLR 23/13 A2988

2010/08/09 22:56
KLWS 092256Z 30012G18KT 10SM CLR 30/05 A2973

2010/08/09 22:53
KMFR 092253Z 28011KT 10SM FEW070 31/11 A2984

2010/08/09 22:56
KMHS 092256Z AUTO 00000KT 10SM CLR 28/06 A2993

2010/08/09 22:56
KNUQ 092256Z 33010KT 10SM CLR 22/13 A2988

2010/08/09 22:54
KOLM 092254Z 24006KT 10SM OVC025 17/12 A2998

2010/08/09 22:53
KPDT 092253Z 30015G22KT 10SM CLR 30/04 A2976

2010/08/09 22:53
KPGA 092253Z AUTO VRB03KT 10SM CLR 31/03 A3001

2010/08/09 22:53
KPIH 092253Z 27012G20KT 10SM SCT080 24/08 A3000

2010/08/09 22:54
KRBL 092254Z AUTO 16013G17KT 10SM CLR 32/14 A2980

2010/08/09 22:53
KRDD 092253Z 15011G14KT 10SM CLR 33/11 A2978

2010/08/09 22:52
KSDB 092252Z AUTO 15013G20KT 10SM CLR 26/M04 A3004

2010/08/09 22:53
KSHN 092253Z AUTO 21009KT 9SM -RA SCT019 SCT050 SCT100 16/14 A2996

2010/08/09 22:54
KSJN 092254Z AUTO 19007KT 10SM -RA SCT038 BKN085 26/10 A3013

2010/08/09 22:56
KBIH 092256Z AUTO 14017G27KT 10SM CLR 32/M07 A2989

2010/08/09 22:56
KMEH 092256Z AUTO 28007KT 10SM CLR 24/05 A2988

2010/08/09 22:52
KMLF 092252Z AUTO 21019G25KT 10SM CLR 29/M07 A3004

2010/08/09 22:56
KSMP 092256Z AUTO 25007KT M1/4SM FG VV001 09/09 A2999

2010/08/09 22:53
KUIL 092253Z AUTO VRB06KT 10SM OVC007 14/12 A2999

2010/08/09 22:53
KSLC 092253Z 28016G30KT 10SM FEW080 SCT100CB BKN120 BKN200 27/04 A2997

2010/08/09 22:51
KSMX 092251Z 31010KT 10SM FEW015 18/11 A2992

2010/08/09 22:50
KSOW 092250Z AUTO 26007KT 10SM SCT080 25/08 A3022

2010/08/09 22:50
KTRK 092250Z 22009G17KT 10SM FEW050 24/04 A3007

2010/08/09 22:56
KWMC 092256Z AUTO 24013G23KT 10SM CLR 31/M01 A2990

2010/08/09 22:53
KYKM 092253Z 00000KT 10SM SCT080 29/07 A2975

2010/08/09 23:00
RJAA 092300Z 17007KT 9999 FEW015 28/24 Q1016 NOSIG

2010/08/09 23:00
RJBB 092300Z 21007KT 9999 FEW008 BKN/// 28/25 Q1014 NOSIG

2010/08/09 23:00
RJTT 092300Z 14008KT 9999 FEW012 SCT020 BKN080 28/23 Q1016

2010/08/09 23:00
RJOO 092300Z 23006KT 180V260 9999 -SHRA FEW008 SCT015 BKN090 28/24 Q1014

2010/08/09 23:00
RJFF 092300Z 15005KT 9999 FEW020 SCT110 BKN140 26/23 Q1010

2010/08/09 23:00
RJGG 092300Z 12010KT 9999 -SHRA FEW006 SCT015 BKN025 27/25 Q1015 NOSIG

2010/08/09 23:00
RJFK 092300Z 11009KT 9999 FEW010 SCT120 BKN/// 27/24 Q1013

2010/08/09 23:00
RJFU 092300Z 13016KT 9999 FEW025 BKN160 BKN/// 29/25 Q1009

2010/08/09 23:00
RJCH 092300Z VRB02KT 9999 FEW003 SCT005 BKN006 24/24 Q1015

2010/08/09 23:00
RJFR 092300Z 11007KT 9999 FEW007 BKN150 BKN/// 28/24 Q1011

2010/08/09 23:00
RJAA 092300Z 17007KT 9999 FEW015 28/24 Q1016 NOSIG

2010/08/09 23:00
RJBB 092300Z 21007KT 9999 FEW008 BKN/// 28/25 Q1014 NOSIG

2010/08/09 23:00
RJTT 092300Z 14008KT 9999 FEW012 SCT020 BKN080 28/23 Q1016

2010/08/09 23:00
RJOO 092300Z 23006KT 180V260 9999 -SHRA FEW008 SCT015 BKN090 28/24 Q1014

2010/08/09 23:00
ROAH 092300Z 20020KT 8000 -RA FEW010 BKN080 BKN100 27/26 Q1008

2010/08/09 23:00
RJGG 092300Z 12010KT 9999 -SHRA FEW006 SCT015 BKN025 27/25 Q1015 NOSIG

2010/08/09 23:00
RJFF 092300Z 15005KT 9999 FEW020 SCT110 BKN140 26/23 Q1010

2010/08/09 23:00
RJCC 092300Z 17007KT 8000 FEW002 BKN003 BKN006 23/21 Q1014

2010/08/09 23:00
RJFK 092300Z 11009KT 9999 FEW010 SCT120 BKN/// 27/24 Q1013

2010/08/09 23:00
RJSN 092300Z 17004KT 110V210 9999 FEW040 31/22 Q1013

2010/08/09 23:00
RJFT 092300Z 05007KT 9999 FEW025 SCT150 BKN/// 29/23 Q1011

2010/08/09 23:00
RJFU 092300Z 13016KT 9999 FEW025 BKN160 BKN/// 29/25 Q1009

2010/08/09 23:00
RJCH 092300Z VRB02KT 9999 FEW003 SCT005 BKN006 24/24 Q1015

2010/08/09 23:00
RJSS 092300Z 22006KT 170V260 9999 FEW020 28/22 Q1015

2010/08/09 23:00
RJOA 092300Z 12003KT 9999 -RA FEW002 BKN080 BKN100 25/23 Q1016

2010/08/09 23:00
RJOB 092300Z 10003KT 070V140 8000 PRFG FEW000 SCT006 BKN015 26/25 Q1015

2010/08/09 23:00
RJOT 092300Z 15005KT 9999 -SHRA FEW002 SCT035 BKN060 25/24 Q1015

2010/08/09 23:00
RJFO 092300Z 20003KT 160V240 9999 SCT003 BKN150 BKN/// 26/25 Q1012

2010/08/09 23:00
RJAA 092300Z 17007KT 9999 FEW015 28/24 Q1016 NOSIG

2010/08/09 23:00
RJBB 092300Z 21007KT 9999 FEW008 BKN/// 28/25 Q1014 NOSIG

2010/08/09 23:00
RJTT 092300Z 14008KT 9999 FEW012 SCT020 BKN080 28/23 Q1016

2010/08/09 23:00
RJOO 092300Z 23006KT 180V260 9999 -SHRA FEW008 SCT015 BKN090 28/24 Q1014

2010/08/09 23:00
RJGG 092300Z 12010KT 9999 -SHRA FEW006 SCT015 BKN025 27/25 Q1015 NOSIG

2010/08/09 23:00
RJSN 092300Z 17004KT 110V210 9999 FEW040 31/22 Q1013

2010/08/09 23:00
RJCH 092300Z VRB02KT 9999 FEW003 SCT005 BKN006 24/24 Q1015

2010/08/09 23:00
RJSA 092300Z 06004KT 360V090 8000 FEW001 SCT005 BKN007 25/22 Q1015

2010/08/09 23:00
RJSF 092300Z 19004KT 9999 FEW008 SCT010 BKN015 25/22 Q1017

2010/08/09 22:51
KABE 092251Z 22009KT 10SM CLR 31/20 A2993

2010/08/09 22:53
KACK 092253Z 21010KT 6SM BR SCT004 23/22 A2995

2010/08/09 22:54
KACY 092254Z 18009KT 10SM CLR 28/20 A2999

2010/08/09 22:53
KAGC 092253Z 23007KT 10SM CLR 30/16 A2999

2010/08/09 22:53
KAGS 092253Z 11005KT 10SM CLR 32/22 A2995

2010/08/09 22:54
KAKR 092254Z AUTO 22004KT 10SM CLR 29/18 A2998

2010/08/09 22:51
KALB 092251Z 25006KT 10SM FEW050 SCT110 BKN120 BKN250 29/18 A2989

2010/08/09 22:56
KAND 092256Z AUTO 23003KT 10SM BKN060 32/21 A2998

2010/08/09 22:53
KAOO 092253Z AUTO 27004KT 10SM CLR 29/18 A3000

2010/08/09 22:56
KART 092256Z AUTO 25008G16KT 2SM -RA BR SCT014 BKN024 BKN049 23/22 A2992

2010/08/09 22:54
KAVL 092254Z 20003KT 9SM BKN060 26/21 A3010

2010/08/09 22:54
KAVP 092254Z 23009KT 10SM CLR 31/16 A2994

2010/08/09 22:53
KBAF 092253Z 21006KT 10SM CLR 32/16 A2989

2010/08/09 22:51
KBDL 092251Z 19012KT 5SM HZ FEW070 BKN085 BKN200 31/21 A2989

2010/08/09 22:52
KBDR 092252Z 23008KT 10SM CLR 28/19 A2993

2010/08/09 22:56
KBED 092256Z 20009KT 10SM SCT075 BKN090 32/17 A2986

2010/08/09 22:53
KBFD 092253Z AUTO 00000KT 10SM FEW110 26/17 A3004

2010/08/09 22:53
KBGM 092253Z 33003KT 9SM FEW070 BKN080 28/16 A2998

2010/08/09 22:53
KBGR 092253Z 19008KT 10SM FEW065 BKN080 BKN200 26/19 A2985

2010/08/09 22:53
KBKL 092253Z 00000KT 6SM HZ FEW090 28/22 A2993

2010/08/09 22:51
KBKW 092251Z AUTO 23004KT 7SM CLR 28/17 A3009

2010/08/09 22:54
KBOS 092254Z 20011KT 10SM FEW070 SCT090 SCT220 29/21 A2987

2010/08/09 22:54
KBTV 092254Z 00000KT 10SM -RA FEW023 SCT047 BKN060 23/21 A2987

2010/08/09 22:54
KBUF 092254Z 36013KT 2SM RA BR FEW015 BKN045 OVC060 23/22 A2996

2010/08/09 22:53
KBVY 092253Z 26007KT 10SM FEW070 BKN110 31/17 A2986

2010/08/09 22:54
KBWI 092254Z 16004KT 8SM SCT180 BKN250 31/21 A2994

2010/08/09 22:56
KCAE 092256Z 12007KT 10SM FEW090 BKN210 33/22 A2998

2010/08/09 22:51
KCAK 092251Z 24005KT 7SM SCT065 BKN130 BKN180 28/19 A2998

2010/08/09 22:54
KCAR 092254Z AUTO 23004KT 10SM CLR 23/18 A2980

2010/08/09 22:55
KCEF 092255Z AUTO 18006KT 10SM FEW120 31/18 A2989

2010/08/09 22:53
KCHO 092253Z 22010G16KT 180V270 9SM CLR 32/20 A2997

2010/08/09 22:56
KCHS 092256Z 09007KT 10SM SCT017 BKN022 OVC075 28/26 A2998

2010/08/09 22:53
KCKB 092253Z 21004KT 8SM CLR 28/19 A3000

2010/08/09 22:51
KCLE 092251Z 23004KT 9SM FEW110 BKN150 OVC250 29/19 A2997

2010/08/09 22:52
KCLT 092252Z 17005KT 10SM FEW065 BKN250 31/21 A3000

2010/08/09 22:51
KCMH 092251Z 21005KT 10SM FEW055 BKN140 BKN200 31/18 A2995

2010/08/09 22:54
KCRW 092254Z 00000KT 10SM CLR 31/19 A2999

2010/08/09 22:52
KCVG 092252Z 22004KT 8SM FEW065 SCT160 SCT250 33/19 A2996

2010/08/09 22:53
KDAN 092253Z AUTO 20004KT 8SM FEW090 32/21 A2999

2010/08/09 22:56
KDAY 092256Z 24003KT 9SM FEW200 SCT250 32/19 A2997

2010/08/09 22:52
KDCA 092252Z 18011KT 8SM FEW055 SCT250 32/21 A2995

2010/08/09 22:56
KDUJ 092256Z AUTO 00000KT 10SM FEW110 26/17 A3002

2010/08/09 22:54
KECG 092254Z 14008KT 10SM CLR 28/23 A2999

2010/08/09 22:51
KEKN 092251Z AUTO 00000KT 10SM CLR 28/18 A3006

2010/08/09 22:53
KELM 092253Z AUTO 25004KT 10SM BKN080 29/17 A2993

2010/08/09 22:51
KERI 092251Z 23003KT 6SM HZ SCT090 27/18 A2996

2010/08/09 22:53
KEWB 092253Z 22012KT 10SM CLR 27/20 A2992

2010/08/09 22:54
KEWN 092254Z 18006KT 10SM CLR 29/23 A3000

2010/08/09 22:51
KEWR 092251Z 17009G14KT 10SM BKN070 BKN120 BKN250 31/19 A2991

2010/08/09 22:53
KFAY 092253Z AUTO 11007KT 10SM CLR 33/18 A2997

2010/08/09 22:53
KFLO 092253Z 11005KT 10SM CLR 32/21 A2998

2010/08/09 22:53
KFRG 092253Z 22013KT 10SM CLR 27/19 A2995

2010/08/09 22:53
KFVE 092253Z AUTO 29007KT 5SM -RA BKN039 BKN060 OVC100 19/17 A2982

2010/08/09 22:53
KGFL 092253Z AUTO 24005KT 10SM CLR 29/18 A2987

2010/08/09 22:56
KGON 092256Z COR 23007KT 6SM HZ CLR 26/21 A2993

2010/08/09 22:56
KGON 092256Z 23007KT 10SM CLR 26/21 A2993

2010/08/09 22:54
KGSO 092254Z 17007KT 10SM FEW055 32/19 A3001

2010/08/09 22:53
KGSP 092253Z 16008KT 10SM CLR 31/22 A2999

2010/08/09 22:53
KHFD 092253Z 20010G15KT 7SM CLR 31/20 A2989

2010/08/09 22:53
KHKY 092253Z VRB03KT 10SM CLR 32/20 A3001

2010/08/09 22:56
KHPN 092256Z 18008G14KT 10SM CLR 28/16 A2994

2010/08/09 22:51
KHTS 092251Z 00000KT 10SM CLR 31/19 A2998

2010/08/09 23:00
UKKK 092300Z 00000MPS 6000 SCT030CB BKN050 23/20 Q1015 08CLRD70 NOSIG

2010/08/09 23:00
UKKM 092300Z 35001MPS 2800 BR FEW028CB BKN080 22/21 Q1015

2010/08/09 22:50
LIEA 092250Z 05003KT 030V090 CAVOK 17/11 Q1017 RMK VIS MIN 9999

2010/08/09 22:55
LIED 092255Z 36006KT CAVOK 24/07 Q1015 RMK SCT SCT080 VIS MIN 9999 BLU

2010/08/09 22:50
LIEO 092250Z 20003KT CAVOK 22/17 Q1016 RMK VIS MIN 9999

2010/08/09 22:55
LIRE 092255Z 00000KT CAVOK 20/18 Q1015 RMK SKC VIS MIN 9999 WIND THR31 00000KT BLU

2010/08/09 22:55
LIRM 092255Z 06002KT CAVOK 26/25 Q1016 RMK SKC VIS MIN 9999 WIND THR06 10002KT BLU

2010/08/09 23:00
OMAA 092300Z 03003KT CAVOK 32/23 Q0996 A2942 NOSIG

2010/08/09 23:00
OMAD 092300Z 02006KT CAVOK 34/24 Q0996 A2943

2010/08/09 23:00
OMAL 092300Z 11007KT CAVOK 36/14 Q0999 A2951

2010/08/09 23:00
OMDB 092300Z 06006KT 030V150 CAVOK 34/19 Q0997 NOSIG

2010/08/09 23:00
OMDW 092300Z 04007KT CAVOK 31/13 Q0998 NOSIG

2010/08/09 23:00
OMFJ 092300Z 13003KT 9999 FEW020 31/23 Q0999 A2951

2010/08/09 23:00
OMRK 092300Z 10004KT CAVOK 33/25 Q0996 A2943

2010/08/09 23:00
OMSJ 092300Z 06005KT CAVOK 31/21 Q0997

2010/08/09 23:00
OOMS 092300Z 07009KT 8000 NSC 30/28 Q0998 NOSIG

2010/08/09 23:00
OOSA 092300Z 140P6KT 600 FEW008 BKN012 OVC025 25/22 Q1003 NOSIG RMK05 RH84

2010/08/09 23:00
LPFR 092300Z 27004KT 240V310 CAVOK 28/19 Q1014

2010/08/09 23:00
LPMA 092300Z 26004KT 9999 FEW013 22/19 Q1015 RS21001KT 0526004KT 2329004KT

2010/08/09 23:00
LPPR 092300Z 00000KT CAVOK 23/18 Q1016

2010/08/09 23:00
LPPS 092300Z 01009KT 9999 SCT014 SCT030 22/19 Q1016

2010/08/09 23:00
LPPT 092300Z 29004KT 250V320 CAVOK 31/12 Q1015 NOSIG

2010/08/09 22:55
LIPC 092255Z 25004KT CAVOK 20/20 Q1014 RMK SCT SCT200 VIS MIN 9999 WIND THR12 25004KT BLU

2010/08/09 22:45
LIPH 092245Z 01001KT 9999 SCT080 23/19 Q1015 RMK SCT VIS MIN 9999 WIND THR07 /////KT BLU

2010/08/09 22:50
LIPO 092250Z 05005KT CAVOK 22/17 Q1015 RMK VIS MIN 9999

2010/08/09 22:50
LIPQ 092250Z VRB01KT CAVOK 20/17 Q1015

2010/08/09 22:45
LIPR 092245Z 20002KT CAVOK 22/22 Q1014 RMK SKC VIS MIN 9999 WIND THR31 00000KT BLU

2010/08/09 22:55
LIPS 092255Z 00000KT 9999 FEW040 22/19 Q1015 RMK FEW VIS MIN 9999 BLU

2010/08/09 22:45
LIPX 092245Z 04005KT 9999 FEW040 23/23 Q1015 RMK FEW VIS MIN 9999 BLU

2010/08/09 22:50
LIPY 092250Z 17003KT CAVOK 21/18 Q1014 RMK VIS MIN 9999

2010/08/09 22:55
LIVP 092255Z 19005KT 9999 0900S FEW005 10/09 Q1024 RMK FEW MON S INVIS VAL S NEBBIA SCT VIS MIN 0900S

2010/08/09 23:00
UKBB 092300Z 28002MPS 9999 FEW033CB 23/20 Q1014 88290095 TEMPO 1000 TSRA

2010/08/09 23:00
UKHH 092300Z 34002MPS 4800 DU SKC 25/15 Q1013 080///65 NOSIG

2010/08/09 23:00
UKOO 092300Z 01004MPS CAVOK 28/16 Q1011 34090070 NOSIG

2010/08/09 23:00
UKDE 092300Z 34002MPS CAVOK 23/13 Q1011 02CLRD70 NOSIG

2010/08/09 23:00
UKDD 092300Z 04003MPS CAVOK 24/14 Q1012 08090070 NOSIG

2010/08/09 23:00
UKFF 092300Z 07004MPS CAVOK 23/14 Q1010 01010070 NOSIG

2010/08/09 23:00
UKLL 092300Z 00000MPS CAVOK 14/14 Q1017 31290550 TEMPO -TSRAGR

2010/08/09 23:00
UKDR 092300Z 02002MPS CAVOK 26/12 Q1012 1809//70 NOSIG

2010/08/09 22:55
LIMU 092255Z 02004KT 9999 FEW026 23/23 Q1017 RMK SCT QUK / QUL / VIS MAR 25 KM VIS MIN 9999

2010/08/09 22:55
LIVD 092255Z 00000KT CAVOK 15/13 Q1021 RMK SKC VIS MIN 9999

2010/08/09 22:55
LIVT 092255Z 10004KT CAVOK 23/17 Q1015 RMK SKC QUK / QUL / VIS MAR 20 KM VIS MIN 9999

2010/08/09 22:53
KHVN 092253Z 21007KT 10SM CLR 28/20 A2993

2010/08/09 22:56
KHYA 092256Z 21010KT 10SM CLR 26/21 A2992

2010/08/09 22:52
KIAD 092252Z 19008KT 8SM BKN250 32/21 A2995

2010/08/09 22:53
KIAG 092253Z 23003KT 1 1/4SM RA BR FEW007 BKN017 BKN060 OVC130 23/22 A2995

2010/08/09 22:51
KILG 092251Z 17013KT 10SM CLR 28/19 A2996

2010/08/09 22:53
KILM 092253Z AUTO 19010KT 10SM FEW025 SCT110 28/23 A3001

2010/08/09 22:54
KINT 092254Z 18003KT 10SM FEW055 32/18 A3001

2010/08/09 22:54
KIPT 092254Z 10008KT 10SM CLR 29/20 A2991

2010/08/09 22:56
KISP 092256Z 22010KT 10SM FEW150 BKN250 27/17 A2994

2010/08/09 22:51
KJFK 092251Z 19020G25KT 10SM FEW140 BKN250 27/19 A2994

2010/08/09 22:54
KJST 092254Z AUTO 29004KT 10SM CLR 26/16 A3005

2010/08/09 22:50
KLBE 092250Z 21005KT 10SM SKC 29/18 A3000

2010/08/09 22:55
KLCK 092255Z AUTO 00000KT 10SM CLR 32/21 A2995

2010/08/09 22:53
KLEB 092253Z 00000KT 10SM VCTS -RA SCT016 BKN065 BKN080 21/18 A2989

2010/08/09 22:51
KLGA 092251Z 18009G15KT 10SM FEW050 BKN250 30/17 A2991

2010/08/09 22:53
KLUK 092253Z 18007KT 8SM FEW075 31/22 A2993

2010/08/09 22:54
KLWM 092254Z 25011KT 10SM FEW070 32/16 A2988

2010/08/09 22:54
KLYH 092254Z 13004KT 9SM CLR 30/22 A3002

2010/08/09 22:56
KMDT 092256Z 20004KT 8SM SCT200 BKN250 32/21 A2993

2010/08/09 22:52
KMFD 092252Z 19008KT 8SM CLR 29/17 A2999

2010/08/09 22:53
KMGW 092253Z VRB03KT 10SM CLR 31/18 A3001

2010/08/09 22:53
KMHT 092253Z 27007KT 10SM FEW110 32/17 A2986

2010/08/09 22:54
KMIV 092254Z AUTO 17007KT 140V210 10SM CLR 27/20 A2996

2010/08/09 22:53
KMRB 092253Z 16006KT 9SM CLR 32/18 A2994

2010/08/09 22:53
KMSS 092253Z AUTO 20004KT 10SM FEW070 SCT095 24/21 A2988

2010/08/09 22:55
KMTN 092255Z 15012KT 10SM SKC 31/22 A2996

2010/08/09 22:50
KMYR 092250Z 18007KT 10SM BKN070 29/24 A3003

2010/08/09 22:54
KNKT 092254Z 17007KT 10SM FEW019 SCT080 28/23 A3001

2010/08/09 22:51
KORF 092251Z 12005KT 10SM CLR 29/19 A2998

2010/08/09 22:54
KORH 092254Z 24011KT 10SM SCT070 28/21 A2994

2010/08/09 22:54
KPHF 092254Z 08005KT 10SM CLR 29/19 A2999

2010/08/09 22:54
KPHL 092254Z 20014KT 10SM FEW180 SCT250 31/19 A2995

2010/08/09 22:51
KPIT 092251Z 24004KT 9SM SCT150 OVC250 30/16 A2998

2010/08/09 22:53
KPKB 092253Z 33003KT 9SM CLR 31/17 A3001

2010/08/09 22:53
KPOU 092253Z 23003KT 8SM CLR 31/18 A2988

2010/08/09 22:55
KPQI 092255Z AUTO 22005KT 10SM CLR 23/17 A2978

2010/08/09 22:55
KPSM 092255Z 04012KT 10SM FEW060 BKN085 BKN130 OVC200 27/20 A2986

2010/08/09 22:51
KPVD 092251Z 21007KT 8SM FEW170 SCT220 SCT300 28/21 A2992

2010/08/09 22:51
KPWM 092251Z 00000KT 10SM SCT070 BKN090 BKN110 27/19 A2986

2010/08/09 22:54
KRDG 092254Z 19009KT 10SM CLR 32/21 A2993

2010/08/09 22:51
KRDU 092251Z 19007KT 8SM FEW065 BKN250 32/20 A2999

2010/08/09 22:54
KRIC 092254Z 19008KT 7SM FEW055 SCT250 32/18 A2997

2010/08/09 22:54
KROA 092254Z 16008KT 10SM FEW080 31/19 A3002

2010/08/09 22:54
KROC 092254Z 27005KT 2SM +TSRA BR FEW009 BKN025CB OVC060 21/19 A2998

2010/08/09 22:53
KRWI 092253Z AUTO 00000KT 10SM CLR 31/21 A2998

2010/08/09 22:53
KSAV 092253Z 09010KT 10SM FEW035TCU SCT110 BKN250 31/24 A2995

2010/08/09 22:54
KSBY 092254Z 16009KT 10SM CLR 29/20 A2999

2010/08/09 22:51
KSLK 092251Z AUTO 34003KT 7SM -RA BKN028 18/17 A2995

2010/08/09 22:54
KSYR 092254Z 31007KT 2 1/2SM RA BR BKN023 BKN060 OVC075 22/21 A2997

2010/08/09 22:51
KTEB 092251Z 18009KT 10SM FEW070 30/17 A2990

2010/08/09 22:52
KTOL 092252Z 19003KT 6SM HZ SCT050 BKN075 29/21 A2992

2010/08/09 22:53
KTTN 092253Z 25010KT 7SM CLR 32/19 A2993

2010/08/09 22:55
KWRI 092255Z AUTO 25008KT 10SM CLR 31/19 A2991

2010/08/09 22:51
KYNG 092251Z 21005KT 10SM FEW050 BKN110 OVC200 28/17 A2998

2010/08/09 22:53
KZZV 092253Z AUTO 18004KT 10SM CLR 30/18 A2998

2010/08/09 23:03
YAMB 092303Z 18006KT 8000 -RA -RA -RA FEW002 BKN012 BKN020 16/15 Q1021 FM2303 VRB05KT 9999 -SHRA FEW015 SCT025 INTER 2303/2400 4000 SHRA BKN012 TEMPO 0000/0200 5000 RA BKN010

2010/08/09 22:52
KABI 092252Z 18011KT 10SM CLR 37/17 A2989

2010/08/09 22:56
KABQ 092256Z VRB04KT 10SM SCT090CB BKN150 29/09 A3007

2010/08/09 22:53
KABY 092253Z 10006KT 10SM CLR 34/20 A2994

2010/08/09 22:51
KACT 092251Z 17010G15KT 10SM CLR 38/19 A2985

2010/08/09 22:53
KAEX 092253Z AUTO 09005KT 10SM CLR 37/21 A2988

2010/08/09 22:53
KAFW 092253Z 13009KT 10SM FEW070 38/19 A2984

2010/08/09 22:51
KAHN 092251Z 00000KT 4SM BR BKN100 25/23 A3000

2010/08/09 22:53
KALI 092253Z AUTO 14015G22KT 10SM CLR 34/23 A2984

2010/08/09 22:53
KAMA 092253Z 19016KT 10SM SCT070 33/15 A2996

2010/08/09 22:53
KANB 092253Z AUTO 10005KT 10SM CLR 34/21 A2995

2010/08/09 22:53
KAPF 092253Z 08004KT 10SM CLR 27/24 A2987

2010/08/09 22:52
KATL 092252Z 12006KT 10SM FEW065 SCT250 33/18 A2998

2010/08/09 22:53
KAUS 092253Z 15011KT 10SM FEW070 37/19 A2985

2010/08/09 22:53
KBFM 092253Z VRB05KT 10SM CLR 31/24 A2994

2010/08/09 22:53
KBHM 092253Z 15003KT 10SM SCT070 35/19 A2995

2010/08/09 22:53
KBNA 092253Z 15008KT 10SM TS SCT060CB BKN090 BKN180 OVC250 28/22 A2995

2010/08/09 22:53
KBPT 092253Z 19010KT 10SM CLR 33/24 A2990

2010/08/09 23:00
KBQK 092300Z AUTO 12006KT 10SM SCT090 31/25 A2995

2010/08/09 22:53
KBRO 092253Z AUTO 13014G19KT 10SM FEW031 34/24 A2985

2010/08/09 22:53
KBTR 092253Z 24004KT 8SM -RA FEW006 SCT039 BKN110 25/24 A2993

2010/08/09 22:53
KCEW 092253Z AUTO 00000KT 10SM CLR 34/24 A2992

2010/08/09 22:53
KCHA 092253Z 15004KT 10SM FEW060 BKN095 BKN120 BKN250 34/22 A2995

2010/08/09 22:53
KCLL 092253Z 15011KT 10SM CLR 37/20 A2986

2010/08/09 22:53
KCNM 092253Z AUTO 11008KT 10SM SCT090 33/16 A2993

2010/08/09 22:51
KCRP 092251Z 12012G19KT 10SM FEW030 33/24 A2986

2010/08/09 22:51
KCSG 092251Z 15007KT 10SM FEW075 34/18 A2993

2010/08/09 22:53
KCSV 092253Z AUTO VRB03KT 9SM CLR 28/23 A3005

2010/08/09 22:53
KDAB 092253Z 09009G14KT 10SM FEW023 SCT250 29/24 A2991

2010/08/09 22:53
KDAL 092253Z 15013G20KT 10SM FEW070 36/20 A2984

2010/08/09 22:53
KDFW 092253Z 18014G18KT 10SM FEW065TCU 37/20 A2984

2010/08/09 22:53
KDHN 092253Z 09005KT 10SM CLR 33/21 A2996

2010/08/09 23:03
YAMB 092303Z 18006KT 8000 -RA -RA -RA FEW002 BKN012 BKN020 16/15 Q1021 FM2303 VRB05KT 9999 -SHRA FEW015 SCT025 INTER 2303/2400 4000 SHRA BKN012 TEMPO 0000/0200 5000 RA BKN010

2010/08/09 22:55
KDLF 092255Z AUTO 12012G20KT 10SM SCT075 37/18 A2982

2010/08/09 22:53
KDMN 092253Z AUTO 24010G16KT 10SM CLR 33/07 A2999

2010/08/09 22:51
KELP 092251Z 25005G16KT 10SM FEW100 34/08 A2996

2010/08/09 22:53
KESF 092253Z AUTO 09012G22KT 10SM VCTS FEW065 BKN090 31/23 A2992

2010/08/09 22:53
KEYW 092253Z 27006KT 10SM FEW070 27/24 A2988

2010/08/09 22:53
KFLL 092253Z 15009KT 10SM SCT027 BKN060 29/23 A2988

2010/08/09 22:53
KFSM 092253Z 00000KT 10SM CLR 37/21 A2985

2010/08/09 22:53
KFTW 092253Z 13008KT 10SM FEW075 37/18 A2983

2010/08/09 22:53
KFTY 092253Z 12004KT 7SM CLR 34/19 A2997

2010/08/09 22:53
KGGG 092253Z 23007KT 10SM CLR 36/21 A2989

2010/08/09 22:52
KGLS 092252Z 15011KT 10SM CLR 33/23 A2992

2010/08/09 22:53
KGNV 092253Z 08009KT 10SM CLR 32/23 A2990

2010/08/09 22:53
KGPT 092253Z 17004KT 10SM CLR 31/24 A2992

2010/08/09 22:53
KGUP 092253Z AUTO 30007KT 10SM CLR 26/06 A3019

2010/08/09 22:53
KGWO 092253Z AUTO 14004KT 10SM CLR 29/24 A2992

2010/08/09 22:53
KHOT 092253Z AUTO 18005KT 10SM CLR 37/21 A2990

2010/08/09 22:53
KHOU 092253Z 18008KT 10SM SCT055 34/23 A2988

2010/08/09 22:52
KHRL 092252Z 14015KT 10SM CLR 34/24 A2983

2010/08/09 22:53
KHRO 092253Z AUTO 16005KT 10SM CLR 34/22 A2994

2010/08/09 22:53
KHSV 092253Z 32005KT 10SM OVC130 31/23 A2996

2010/08/09 22:53
KIAH 092253Z 14013KT 10SM FEW055 SCT250 34/24 A2989

2010/08/09 22:54
KJAN 092254Z 17006KT 8SM -TSRA BKN025 BKN060CB OVC095 26/24 A2993

2010/08/09 22:56
KJAX 092256Z 07008KT 10SM FEW037 SCT075 SCT130 BKN200 29/24 A2993

2010/08/09 22:53
KJBR 092253Z AUTO 16011KT 10SM CLR 33/26 A2988

2010/08/09 22:53
KLBB 092253Z 00000KT 10SM -TSRA FEW025 BKN060CB OVC120 21/19 A3002

2010/08/09 22:53
KLCH 092253Z 18007KT 10SM FEW050 32/26 A2991

2010/08/09 22:53
KLFT 092253Z 13006G15KT 10SM FEW060 28/23 A2995

2010/08/09 22:53
KLIT 092253Z 16009KT 10SM FEW050 BKN250 36/24 A2987

2010/08/09 22:56
KLRD 092256Z 12014KT 10SM FEW075 38/22 A2983

2010/08/09 22:50
KLRU 092250Z AUTO 32007KT 10SM SCT090 33/07 A3003

2010/08/09 22:53
KMAF 092253Z 19013KT 10SM CLR 33/16 A2993

2010/08/09 22:53
KMCN 092253Z 04007KT 8SM CLR 34/21 A2995

2010/08/09 22:53
KMCO 092253Z 11012KT 10SM FEW034 SCT100 29/23 A2989

2010/08/09 22:58
KMEI 092258Z 16008KT 10SM CLR 34/23 A2993

2010/08/09 22:53
KMEM 092253Z 21008KT 10SM FEW150 OVC250 32/24 A2992

2010/08/09 22:53
KMFE 092253Z 11015KT 10SM CLR 35/24 A2982

2010/08/09 22:53
KMGM 092253Z 18005KT 10SM CLR 35/20 A2992

2010/08/09 22:53
KMIA 092253Z 16010G15KT 10SM FEW025 SCT075 SCT150 SCT250 28/24 A2989

2010/08/09 22:53
KMKL 092253Z 00000KT 10SM SCT042TCU 34/25 A2991

2010/08/09 22:53
KMLB 092253Z 11012KT 10SM SCT018 28/24 A2990

2010/08/09 22:53
KMLC 092253Z AUTO 19005KT 10SM CLR 37/18 A2987

2010/08/09 22:53
KMLU 092253Z 17003KT 10SM CLR 32/24 A2992

2010/08/09 22:56
KMOB 092256Z 16008KT 10SM FEW030 32/23 A2995

2010/08/09 22:53
KMSL 092253Z AUTO 20003KT 10SM CLR 29/24 A2997

2010/08/09 22:53
KMSY 092253Z 31006KT 10SM FEW020 BKN180 OVC250 26/24 A2995

2010/08/09 22:53
KNEW 092253Z 29010KT 10SM CLR 28/25 A2994

2010/08/09 22:56
KNGP 092256Z 13011KT 10SM FEW018 SCT040 SCT250 31/26 A2986

2010/08/09 22:52
KOKC 092252Z 16011G18KT 10SM FEW070 SCT250 37/19 A2986

2010/08/09 22:53
KPBI 092253Z 15010KT 10SM FEW022 SCT028TCU SCT250 28/24 A2988

2010/08/09 22:53
KPDK 092253Z 00000KT 10SM CLR 33/18 A2998

2010/08/09 22:53
KPIE 092253Z 36004KT 10SM CLR 29/24 A2986

2010/08/09 22:53
KPNS 092253Z 22005KT 10SM FEW080 31/23 A2992

2010/08/09 22:51
KROW 092251Z 23010KT 10SM CLR 32/15 A2996

2010/08/09 22:53
KRSW 092253Z AUTO 00000KT 10SM CLR 26/24 A2988

2010/08/09 22:56
KSHV 092256Z 20004KT 10SM SCT070 36/21 A2987

2010/08/09 22:51
KSJT 092251Z 18009KT 10SM SCT090 38/16 A2987

2010/08/09 22:53
KSRQ 092253Z 01010KT 10SM SCT039 SCT050 30/25 A2983

2010/08/09 22:53
KSSI 092253Z AUTO 11007KT 10SM FEW080 29/24 A2995

2010/08/09 22:53
KTCC 092253Z AUTO 21011KT 10SM FEW080 31/13 A2996

2010/08/09 22:53
KTCL 092253Z 18004KT 10SM CLR 34/22 A2992

2010/08/09 22:53
KTCS 092253Z AUTO 00000KT 10SM BKN090 31/09 A3002

2010/08/09 22:53
KTLH 092253Z 05007KT 10SM FEW060 34/20 A2990

2010/08/09 22:53
KTPA 092253Z 09005KT 6SM -RA BR SCT020TCU BKN050 BKN250 27/25 A2987

2010/08/09 22:53
KTRI 092253Z 00000KT 10SM FEW050 SCT065 SCT250 33/17 A3001

2010/08/09 22:53
KTUL 092253Z 15011KT 10SM SCT070 38/20 A2983

2010/08/09 22:53
KTUP 092253Z 20007KT 10SM TS CLR 29/24 A2995

2010/08/09 22:53
KTXK 092253Z 00000KT 10SM CLR 36/23 A2988

2010/08/09 22:53
KTYR 092253Z 23004KT 10SM CLR 36/18 A2990

2010/08/09 22:53
KTYS 092253Z 09004KT 10SM FEW060 34/21 A2996

2010/08/09 22:51
KVCT 092251Z 12012KT 10SM CLR 34/24 A2987

2010/08/09 22:53
KVLD 092253Z 08006KT 10SM CLR 33/23 A2992

2010/08/09 22:53
KVRB 092253Z 12014KT 10SM FEW100 29/23 A2990

2010/08/09 22:53
TIST 092253Z 10012KT 10SM FEW024 SCT080 29/24 A2995

2010/08/09 22:53
TISX 092253Z 11011KT 10SM FEW022 BKN100 28/24 A2995

2010/08/09 22:50
TJBQ 092250Z 08005KT 10SM BKN035 28/28 A2994

2010/08/09 22:50
TJPS 092250Z 00000KT 10SM -RA BKN030 BKN060 27/25 A2993

2010/08/09 22:56
TJSJ 092256Z 09011KT 10SM FEW020 SCT040 BKN060 28/24 A2995

2010/08/09 23:04
PATA 092304Z 11006KT 10SM BKN015 BKN049 BKN060 16/12 A2958 RMK AO2 $

2010/08/09 23:00
SUMU 092300Z 00000KT 5000 BR NSC 10/05 Q1025 NOSIG

2010/08/09 23:00
SULS 092300Z 00000KT 3000 BR NSC 08/06 Q1025

2010/08/09 22:50
MMMD 092250Z 09012G22KT 7SM BKN010TCU OVC300 30/26 A2988 RMK 8/207 AC

2010/08/09 22:45
MMTP 092245Z 00000KT 10SM BKN020TCU BKN300 27/24 A2985 RMK 8/206

2010/08/09 22:47
MMUN 092247Z 29006KT 7SM SCT020TCU BKN300 25/22 A2992 RMK 8/208 CBS 3 QUAD

2010/08/09 23:00
YBCS 092300Z 12008KT 2500 -SHRA FEW003 BKN018 BKN030 23/22 Q1016

2010/08/09 23:00
MGHT 092300Z 19006KT 9999 FEW025 FEW030CB BKN090 24/15 QFE 815.8 CB/PCPN WNW

2010/08/09 23:00
MGPB 092300Z 03006KT 9999 FEW020 SCT200 31/25 Q1009 A2980 CB DIST NW

2010/08/09 23:00
MGGT 092300Z 18006KT 9999 FEW018 BKN200 20/19 Q1023 A3021 CB E TCU NW RERA VOL.DE PACAYA EN ACTIVIDAD

2010/08/09 23:00
MGSJ 092300Z 15006KT 9999 SCT016 SCT024CB 31/25 Q1011 A2985 CB/PCPN W/NW CB NE

2010/08/09 23:00
MGRT 092300Z 04004KT 8000 -TSRA SCT018 FEW025CB BKN080 26/25 Q1012 A2988 CB/TS E VOL SANTA MARIA EN ACTIVIDAD

2010/08/09 23:00
MGQZ 092300Z 18006KT 9999 FEW006 SCT020 BKN200 18/15 QFE 766.6 TCU N/W

2010/08/09 23:00
MGCB 092300Z 07006KT 9999 TS SCT018 FEW021CB 26/21 QFE 868.3 CB/TS/PCPN SE/S CB/PCPN N/NE

2010/08/09 23:00
MGZA 092300Z 07006KT 9999 TS FEW017 FEW024CB SCT200 33/23 CB/TS SE/SSE CB S/ESE

2010/08/09 23:00
MGES 092300Z 07004KT 9999 TSRA SCT014 FEW025CB BKN090 22/21 QFE 910.0 CB/TS/LTNG S/NW/NNW

2010/08/09 23:00
MGMT 092300Z 00000KT 9999 FEW015 BKN200 31/25 Q1005.4

2010/08/09 23:00
MGTU 092300Z 18004KT 9999 -RA SCT016 OVC070 26/24

2010/08/09 22:53
KABR 092253Z AUTO 14008KT 10SM CLR 33/18 A2987

2010/08/09 22:50
KALN 092250Z 14005KT 10SM BKN200 34/27 A2990

2010/08/09 22:54
KALO 092254Z AUTO 10006KT 10SM BKN070 29/24 A2990

2010/08/09 22:53
KASE 092253Z 33006G16KT 10SM SCT060 BKN090 18/09 A3025

2010/08/09 22:53
KATY 092253Z AUTO 10009KT 10SM CLR 31/17 A2992

2010/08/09 22:53
KAXN 092253Z AUTO 09004KT 10SM CLR 31/17 A2994

2010/08/09 22:53
KAZO 092253Z 24003KT 8SM FEW026 SCT034 28/22 A2993

2010/08/09 22:53
KBDE 092253Z AUTO 00000KT 10SM CLR 32/21 A2987

2010/08/09 22:53
KBFF 092253Z AUTO 29005KT 10SM CLR 31/13 A2995

2010/08/09 22:52
KBIS 092252Z 15017KT 10SM CLR 34/15 A2982

2010/08/09 22:50
KBJC 092250Z 21010G20KT 5SM -TSRA SCT018 BKN070 OVC100 18/13 A3013

2010/08/09 22:55
KBKF 092255Z 35011G15KT 7SM TS VCSH BKN070CB BKN110 BKN220 24/11 A3008

2010/08/09 22:53
KBRL 092253Z AUTO 12005KT 10SM CLR 32/26 A2989

2010/08/09 22:53
KBTL 092253Z 23006KT 9SM SCT022 28/23 A2995

2010/08/09 22:53
KCGI 092253Z AUTO 19004KT 10SM CLR 33/26 A2989

2010/08/09 22:52
KCID 092252Z 12008KT 10SM SCT075 29/24 A2991

2010/08/09 22:55
KCIU 092255Z AUTO 22005KT 10SM FEW041 SCT049 26/19 A2990

2010/08/09 22:53
KCMI 092253Z 00000KT 10SM CLR 33/26 A2992

2010/08/09 22:53
KCMX 092253Z AUTO 29010KT 10SM CLR 27/17 A2991

2010/08/09 22:54
KCOS 092254Z 20009KT 10SM BKN110 24/14 A3014

2010/08/09 22:54
KCOU 092254Z 16006KT 10SM FEW080 33/27 A2990

2010/08/09 22:53
KCPR 092253Z 19018G23KT 10SM CLR 28/05 A3002

2010/08/09 22:53
KCYS 092253Z 24011KT 10SM FEW043 SCT060 SCT075 24/11 A3010

2010/08/09 22:52
KDDC 092252Z AUTO 17014G20KT 10SM CLR 34/16 A2985

2010/08/09 22:54
KDEC 092254Z 21008KT 10SM CLR 34/24 A2991

2010/08/09 22:53
KDEN 092253Z 32019G23KT 10SM SCT065 BKN090 BKN140 23/11 A3006

2010/08/09 22:53
KDET 092253Z 00000KT 10SM BKN050 BKN090 26/21 A2994

2010/08/09 22:55
KDLH 092255Z 29006KT 10SM CLR 31/18 A2994

2010/08/09 22:54
KDSM 092254Z 08004KT 10SM OVC044 31/25 A2988

2010/08/09 22:53
KDTW 092253Z 00000KT 7SM BKN050 OVC070 25/22 A2994

2010/08/09 22:56
KEAU 092256Z 36004KT 10SM CLR 32/21 A2990

2010/08/09 23:00
SAEZ 092300Z VRB03KT CAVOK 12/05 Q1025

2010/08/09 22:50
KEGE 092250Z 24015KT 10SM BKN075 23/07 A3020

2010/08/09 22:53
KELO 092253Z AUTO 28004KT 10SM CLR 29/17 A2992

2010/08/09 22:54
KEVV 092254Z 17004KT 10SM FEW065 35/20 A2990

2010/08/09 22:53
KFAR 092253Z 21008KT 10SM CLR 33/18 A2987

2010/08/09 22:53
KFNT 092253Z AUTO VRB03KT 6SM -RA BR FEW006 SCT023 BKN032 23/22 A2993

2010/08/09 22:56
KFSD 092256Z 13011KT 10SM SCT032 SCT045 28/24 A2989

2010/08/09 22:54
KFWA 092254Z 20003KT 9SM FEW090 BKN140 BKN250 29/24 A2994

2010/08/09 22:54
KGCK 092254Z 19014G20KT 10SM FEW090 37/13 A2986

2010/08/09 22:53
KGFK 092253Z 20009KT 10SM FEW250 34/20 A2983

2010/08/09 22:53
KGJT 092253Z 27005KT 10SM SCT110 29/07 A3003

2010/08/09 22:53
KGRB 092253Z 17005KT 10SM CLR 31/24 A2988

2010/08/09 22:53
KGRI 092253Z 13008KT 10SM CLR 33/22 A2988

2010/08/09 22:53
KGRR 092253Z 22005KT 10SM BKN032 28/23 A2992

2010/08/09 22:53
KHIB 092253Z AUTO 24003KT 10SM CLR 31/19 A2993

2010/08/09 22:55
KHON 092255Z AUTO 12008KT 10SM CLR 32/20 A2986

2010/08/09 22:53
KHUF 092253Z 20004KT 10SM CLR 33/23 A2993

2010/08/09 22:52
KHUT 092252Z 16011G17KT 10SM FEW090 38/19 A2984

2010/08/09 22:53
KICT 092253Z 16014KT 10SM FEW070 SCT250 37/20 A2984

2010/08/09 22:54
KIND 092254Z 24006KT 10SM FEW055 SCT140 BKN250 32/20 A2993

2010/08/09 22:55
KINL 092255Z AUTO 05004KT 10SM CLR 31/21 A2990

2010/08/09 22:55
KIRK 092255Z AUTO 16003KT 10SM CLR 31/27 A2989

2010/08/09 22:51
KJAC 092251Z 20008KT 10SM BKN080 18/05 A3010

2010/08/09 22:53
KJLN 092253Z 20006KT 10SM SCT065 36/22 A2989

2010/08/09 22:56
KJMS 092256Z AUTO 17009KT 10SM CLR 32/19 A2986

2010/08/09 22:56
KJXN 092256Z 23003KT 10SM FEW038 26/22 A2995

2010/08/09 22:53
KLAN 092253Z 22009KT 10SM SCT031 BKN039 28/22 A2993

2010/08/09 22:53
KLAR 092253Z AUTO 16015G23KT 10SM TS BKN060 21/09 A3018

2010/08/09 22:53
KLBF 092253Z AUTO 13007KT 10SM CLR 31/22 A2991

2010/08/09 22:55
KLBL 092255Z 19015G19KT 10SM SCT110 38/13 A2987

2010/08/09 22:54
KLEX 092254Z 00000KT 10SM CLR 33/19 A2997

2010/08/09 22:54
KLNK 092254Z 22004KT 10SM CLR 34/23 A2984

2010/08/09 22:53
KLOU 092253Z 11005KT 10SM FEW060 34/21 A2993

2010/08/09 23:04
KBUF 092304Z 34006G24KT 3SM -RA BR FEW015 SCT029 OVC050 23/22 A2996

2010/08/09 23:00
YSCB 092300Z 33002KT 6000 -RA FEW009 SCT014 BKN045 10/08 Q1016 FM2300 09010KT 6000 -RA SCT010 BKN015 BKN060 TEMPO 2300/0200 4000 RA BKN006

2010/08/09 23:00
YSCB 092300Z 33002KT 6000 -RA FEW009 SCT014 BKN045 10/08 Q1016 FM2300 09010KT 6000 -RA SCT010 BKN015 BKN060 TEMPO 2300/0200 4000 RA BKN006

2010/08/09 23:00
YSCB 092300Z 33002KT 6000 -RA FEW009 SCT014 BKN045 10/08 Q1016 FM2300 09010KT 6000 -RA SCT010 BKN015 BKN060 TEMPO 2300/0200 4000 RA BKN006

2010/08/09 22:53
KLOZ 092253Z AUTO 11005KT 10SM CLR 31/24 A2999

2010/08/09 22:53
KLSE 092253Z VRB03KT 10SM CLR 32/23 A2990

2010/08/09 22:53
KMBS 092253Z 28008KT 10SM CLR 27/23 A2991

2010/08/09 22:53
KMCI 092253Z 17008KT 10SM BKN250 35/25 A2986

2010/08/09 22:51
KMDW 092251Z 25010KT 10SM FEW040 SCT100 SCT250 30/22 A2990

2010/08/09 22:52
KMHK 092252Z 16010KT 10SM FEW080 38/19 A2981

2010/08/09 22:54
KMKC 092254Z 17011G18KT 10SM CLR 36/23 A2984

2010/08/09 22:52
KMKE 092252Z 13006KT 8SM FEW038 SCT050 28/22 A2989

2010/08/09 22:55
KMKG 092255Z 23010KT 10SM SCT015 SCT028 27/22 A2993

2010/08/09 22:52
KMLI 092252Z 12006KT 10SM CLR 30/23 A2991

2010/08/09 22:54
KMOT 092254Z 11005KT 10SM CLR 32/17 A2981

2010/08/09 22:53
KMSN 092253Z 04004KT 10SM FEW036 31/23 A2991

2010/08/09 22:53
KMSP 092253Z VRB05KT 10SM SCT150 33/18 A2991

2010/08/09 22:55
KOFF 092255Z AUTO VRB03KT 10SM CLR 34/25 A2984

2010/08/09 22:52
KOMA 092252Z 35008KT 10SM SCT035 SCT160 33/27 A2983

2010/08/09 22:51
KORD 092251Z 24007KT 10SM FEW035 SCT100 SCT250 31/23 A2990

2010/08/09 22:53
KOSH 092253Z 24004KT 9SM CLR 30/23 A2989

2010/08/09 22:53
KOTM 092253Z AUTO 17004KT 10SM CLR 29/24 A2990

2010/08/09 22:56
KOWB 092256Z 19004KT 10SM FEW095 38/24 A2991

2010/08/09 22:53
KPAH 092253Z 21004KT 10SM CLR 34/23 A2989

2010/08/09 22:54
KPIA 092254Z 11004KT 7SM FEW095 32/25 A2990

2010/08/09 22:53
KPIR 092253Z AUTO 11010KT 10SM CLR 31/21 A2985

2010/08/09 22:54
KPLN 092254Z AUTO 07004KT 10SM CLR 27/22 A2990

2010/08/09 22:53
KPTK 092253Z 22007KT 10SM FEW046 SCT060 SCT200 26/21 A2993

2010/08/09 22:53
KPUB 092253Z 20016G25KT 10SM -RA SCT025 BKN060 OVC100 21/17 A3006

2010/08/09 22:52
KRAP 092252Z 15015G23KT 10SM CLR 22/14 A2993

2010/08/09 22:54
KRFD 092254Z 30003KT 10SM FEW030 SCT070 30/22 A2993

2010/08/09 22:54
KRKS 092254Z AUTO 19021G29KT 10SM CLR 26/M03 A3009

2010/08/09 22:54
KRST 092254Z 06006KT 10SM CLR 31/23 A2994

2010/08/09 22:50
KSAW 092250Z 04009KT 10SM SKC 26/20 A2991

2010/08/09 22:56
KSDF 092256Z 17004KT 9SM FEW070 SCT150 SCT250 35/21 A2992

2010/08/09 22:53
KSDM 092253Z VRB05KT 10SM CLR 22/13 A2989

2010/08/09 22:54
KAPN 092254Z 10004KT 10SM FEW070 24/21 A2990

2010/08/09 22:54
KSBN 092254Z 26003KT 10SM FEW055 29/21 A2994

2010/08/09 22:52
KSGF 092252Z AUTO 21007KT 10SM CLR 35/22 A2991

2010/08/09 22:53
KSLN 092253Z 18009G19KT 10SM CLR 38/18 A2981

2010/08/09 22:52
KSPI 092252Z 17004KT 10SM CLR 34/26 A2989

2010/08/09 22:53
KSTC 092253Z 06005KT 10SM CLR 32/21 A2991

2010/08/09 22:53
KSTJ 092253Z AUTO 18008KT 10SM CLR 35/25 A2982

2010/08/09 22:51
KSTL 092251Z 00000KT 10SM FEW060 BKN250 36/23 A2989

2010/08/09 22:53
KSTP 092253Z 07004KT 10SM CLR 32/20 A2990

2010/08/09 22:54
KSUS 092254Z 19003KT 10SM FEW050 BKN200 35/24 A2987

2010/08/09 22:52
KSUX 092252Z 09007KT 10SM OVC028 29/24 A2987

2010/08/09 22:53
KTVC 092253Z 28003KT 8SM SCT034 SCT070 29/23 A2988

2010/08/09 22:54
KUIN 092254Z AUTO 16004KT 10SM CLR 33/27 A2988

2010/08/09 22:53
KWRL 092253Z AUTO 17015G19KT 10SM 33/03 A2981

2010/08/09 22:53
KYIP 092253Z 17003KT 10SM SCT049 OVC070 26/22 A2994

2010/08/09 23:00
CWRF 092300Z AUTO ///// 21/ A2976

2010/08/09 23:00
CWVD 092300Z AUTO ///// 03/ A2987 RMK SLP151

2010/08/09 23:00
CYBW 092300Z 36011KT 30SM TS FEW035 SCT045CB BKN120 BKN250 19/10 A2983 RMK CU2CB2AC1CI1 SLP102

2010/08/09 23:00
CYED 092300Z AUTO 09005KT 9SM FEW055 24/12 A2978 RMK SLP086

2010/08/09 23:00
CYEK 092300Z AUTO 11004KT 9SM OVC071 OVC091 11/09 A3005 RMK SLP177

2010/08/09 23:00
CYIO 092300Z AUTO 08003KT 040V100 9SM FEW071 BKN095 09/05 A2988 RMK SLP123

2010/08/09 23:00
CYLJ 092300Z 23010KT 15SM FEW060 FEW120 27/12 A2982 RMK CU2AC1 TR AC SLP102

2010/08/09 23:00
CYMJ 092300Z 07004KT 15SM FEW052 BKN280 28/14 A2986 RMK CU1CI3 SLP110

2010/08/09 23:00
CYOD 092300Z 19007KT 15SM SCT060 SCT250 26/12 A2982 RMK CU3CI1 SLP102

2010/08/09 23:00
CYPE 092300Z 25010G15KT 15SM BKN060 21/06 A2978 RMK CU7 SLP093

2010/08/09 23:00
CYQV 092300Z AUTO 31005KT 9SM FEW048 27/16 A2985 RMK SLP111

2010/08/09 23:00
CYSF 092300Z AUTO VRB02KT 3SM HZ OVC034 19/16 A2981 RMK DENSITY ALT 1500FT

2010/08/09 23:00
CYSM 092300Z 00000KT 15SM FEW040TCU SCT110 BKN220 21/12 A2975 RMK TCU1AS2CI2 SLP080

2010/08/09 23:00
CYTH 092300Z 10007KT 15SM FEW050 BKN077 BKN120 22/12 A2988 RMK SC2AC3AC1 OCNL -SHRA/CVCTV CLD EMBD SLP123

2010/08/09 23:00
CYUS 092300Z AUTO ///// 9SM CLR 19/ A2993 RMK SLP137

2010/08/09 23:00
CYVT 092300Z 03002KT 15SM FEW047TCU SCT100 BKN240 25/13 A2979 RMK TCU2ACC2CI1 WND L/V SLP092

2010/08/09 23:00
CYXH 092300Z 25005KT 230V300 30SM FEW077 BKN270 29/10 A2977 RMK CU1CI2 SLP077

2010/08/09 23:00
CYZU 092300Z 30005KT 15SM SCT045CB BKN080 BKN120 BKN250 15/14 A2984 RETS RMK CB3AC1AC1CI0 SLP106

2010/08/09 23:00
CWEU 092300Z 27014KT 40SM FEW080 03/M00 A3001 RMK AC1 AC LENT SLP164

2010/08/09 23:00
CWFD 092300Z AUTO 35026KT 3/8SM 05/ RMK ALTM MISG

2010/08/09 23:00
CWKP 092300Z AUTO 10013KT 08/ A2974 RMK SLP093

2010/08/09 23:00
CWRH 092300Z AUTO ///// 04/ A2976 RMK SLP104

2010/08/09 23:00
CWSA 092300Z AUTO 13007KT 5SM OVC027 18/17 A2998 RMK SLP153

2010/08/09 23:00
CWTU 092300Z AUTO 25006G17KT 12/ A2960 RMK SLP034

2010/08/09 23:00
CWXR 092300Z AUTO 03003KT 08/ A2976 RMK SLP088

2010/08/09 23:00
CWYM 092300Z AUTO 05025G36KT 04/ RMK ALTM MISG SLP122

2010/08/09 23:00
CYPD 092300Z AUTO 15007KT 9SM OVC096 19/15 A2994 RMK SLP139 DENSITY ALT 900FT

2010/08/09 23:00
CZFN 092300Z 23006KT 30SM FEW020 SCT065 BKN100 20/11 A2971 RMK SC1SC3AC2 20.3/16.0/0/NIL LAST OBS/NXT 161500Z SLP064

2010/08/09 23:00
CZPC 092300Z AUTO 25005KT 9SM CLR 24/10 A2982 RMK SLP080

2010/08/09 23:00
CZUM 092300Z AUTO 22003KT 9SM BKN043 14/11 A2965 RMK SLP049

2010/08/09 23:00
CYAZ 092300Z 16005KT 5SM BR SCT004 BKN008 14/13 A2997 RMK SF3CF3 SLP151

2010/08/09 23:00
CYBL 092300Z 29003KT 30SM FEW050 FEW090 FEW250 23/11 A2992 RMK CU1AC1CI1 SLP131

2010/08/09 23:00
CYCP 092300Z 00000KT 5SM -RA BR FEW003 SCT020 BKN055 OVC110 14/14 A2993 RMK SF2SF2SC2AS2 VIS VLY N 15+ SLP142

2010/08/09 23:00
CYCQ 092300Z 22005KT 35SM OVC045TCU 19/05 A2983 RMK TCU8 CB EMBDD SLP109

2010/08/09 23:00
CYDC 092300Z 27006KT 15SM -SHRA BKN050 OVC080 17/09 A2989 RMK SC6AC2 TCU EMBD SLP116

2010/08/09 23:00
CYDQ 092300Z AUTO 24010G15KT 230V290 9SM BKN091 21/03 A2981 RMK SLP099 DENSITY ALT 3400FT MAX WND 26020KT AT 2208Z

2010/08/09 23:00
CYEV 092300Z 16004KT 15SM FEW032 FEW240 18/11 A2971 RMK CU1CI1 SLP064

2010/08/09 23:00
CYFO 092300Z 25004KT 15SM FEW030 24/18 A2981 RMK CU2 LAST OBS/NEXT 101100UTC SLP098

2010/08/09 23:00
CYHE 092300Z AUTO 30007G16KT 250V360 9SM -RA OVC014 OVC064 17/15 A2993 RMK SLP137

2010/08/09 23:00
CYIV 092300Z 08003KT 15SM FEW050 SCT100 BKN250 25/15 A2987 RMK SC1AC0CI0 SLP118

2010/08/09 23:00
CYKY 092300Z 14007KT 12SM FEW055 FEW250 26/15 A2982 RMK CU1CI0 SLP098

2010/08/09 23:00
CYQD 092300Z 31010KT 15SM FEW035TCU 26/18 A2980 RMK TCU2 TCU N-SW SLP094

2010/08/09 23:00
CYQZ 092300Z AUTO VRB03KT 9SM OVC086 19/06 A2991 RMK SLP136 DENSITY ALT 2600FT

2010/08/09 23:00
CYRV 092300Z AUTO 00000KT 9SM BKN068 19/16 A2982 RMK SLP097

2010/08/09 23:00
CYUA 092300Z AUTO 06012G17KT 9SM CLR 14/ A2969 RMK SLP057

2010/08/09 23:00
CYXC 092300Z 02008KT 25SM SCT080TCU SCT120 BKN240 23/11 A2981 RMK TCU3AC1CI0 CB EMBD SLP088

2010/08/09 23:00
CYXE 092300Z 27002KT 15SM FEW055 FEW230 26/14 A2984 RMK CU2CI0 SLP109

2010/08/09 23:00
CYXS 092300Z AUTO 21009KT 140V250 9SM SCT086 19/07 A2990 RMK SLP133 DENSITY ALT 3200FT

2010/08/09 23:00
CYZP 092300Z AUTO 26006KT 9SM -RA FEW011 BKN023 BKN029 OVC039 15/14 A3004 RMK SLP173 PCPN 0.5MM PAST HR

2010/08/09 23:00
CYZT 092300Z 35011KT 20SM FEW040 FEW065 SCT240 18/11 A2999 RMK SC1SC1CI1 SLP157

2010/08/09 23:00
CYAM 092300Z 20003KT 15SM FEW038 SCT220 28/20 A2989 RMK CU2CI1 SLP120

2010/08/09 23:00
CYGR 092300Z 20011G18KT 8SM -SHRA SCT020 OVC080 19/16 A2986 RMK SC3AC5 SLP113

2010/08/09 23:00
CYHD 092300Z AUTO 22004KT 9SM CLR 28/19 A2991 RMK SLP129

2010/08/09 23:00
CYHU 092300Z AUTO 28006KT 9SM CLR 26/17 A2985 RMK SLP110 DENSITY ALT 1400FT RVR MISG

2010/08/09 23:00
CYMO 092300Z AUTO 05010KT 9SM CLR 16/14 A2988 RMK SLP120

2010/08/09 23:00
CYNA 092300Z AUTO 23005KT 9SM CLR 17/15 A2972 RMK SLP065

2010/08/09 23:00
CYND 092300Z 27003KT 15SM FEW120 BKN250 27/18 A2988 RMK AC2CI2 SLP118

2010/08/09 23:00
CYPQ 092300Z AUTO ///// 3SM OVC010 OVC097 23/23 A2992 RMK SLP131

2010/08/09 23:00
CYQT 092300Z 04009KT 20SM FEW069 29/20 A2987 RMK AC2 CU ASOCTD SLP113

2010/08/09 23:00
CYRJ 092300Z 31008KT 25SM SCT040 SCT100 26/11 A2980 RMK SC3AC1 TCU ASOCTD SLP094

2010/08/09 23:00
CYRL 092300Z 00000KT 15SM FEW038 BKN240 28/19 A2989 RMK CU1CI0 SLP123

2010/08/09 23:00
CYTS 092300Z 36003KT 15SM FEW076 BKN150 29/13 A2985 RMK AC2AC2 SLP111

2010/08/09 23:00
CYTZ 092300Z AUTO 00000KT 9SM SCT160 22/20 A2992 RMK SLP131 DENSITY ALT 1100FT RVR MISG

2010/08/09 23:00
CYVP 092300Z 32009KT 15SM OVC011 08/05 A2974 RMK SC8 SLP074

2010/08/09 23:00
CYVV 092300Z 24004KT 15SM SCT005 BKN100 23/21 A2992 RMK SC3AC2 SLP130

2010/08/09 23:00
CYWA 092300Z 12003KT 15SM FEW040 FEW170 26/15 A2988 RMK CU1AC1 SLP120

2010/08/09 23:00
CYXR 092300Z AUTO 14005KT 9SM CLR 26/17 A2986 RMK SLP106

2010/08/09 23:00
CYYY 092300Z 24008KT 15SM FEW045 SCT080 BKN150 23/14 A2975 RMK CU1AC1AC0 SLP075

2010/08/09 23:00
CYZE 092300Z AUTO 22005KT 9SM CLR 24/19 A2990 RMK DENSITY ALT 1800FT

2010/08/09 23:00
CYZR 092300Z AUTO 10004KT 060V130 9SM SCT081 SCT098 BKN130 23/21 A2992 RMK SLP129 DENSITY ALT 1600FT

2010/08/09 23:00
CWAE 092300Z 18005KT 15SM FEW018 BKN052 OVC073 16/11 A2993 RMK SC2SC5AC2 WND ESTD SLP130

2010/08/09 23:00
CWCA 092300Z 20006KT 15SM BKN030 BKN070 16/13 A2962 RMK SC5AC2 SLP030

2010/08/09 23:00
CWCL 092300Z AUTO 36002KT 9SM OVC023 13/08 A2995 RMK SLP148

2010/08/09 23:00
CWIL 092300Z AUTO 20006KT 19/ A2984 RMK SLP112

2010/08/09 23:00
CWKM 092300Z AUTO 04011KT 10/ A2971 RMK SLP067

2010/08/09 23:00
CWKW 092300Z AUTO 03008KT 06/ A2971 RMK SLP081

2010/08/09 23:00
CWLI 092300Z AUTO 18002KT 12/ A2977 RMK SLP092

2010/08/09 23:00
CWLX 092300Z AUTO 30011KT 17/ A2987 RMK SLP126

2010/08/09 23:00
CWLY 092300Z AUTO 01003KT 9SM BKN033 OVC066 16/13 A2994 RMK SLP140

2010/08/09 23:00
CWOB 092300Z AUTO ///// 0SM CLR 04/ A2973 RMK SLP103

2010/08/09 23:00
CWPX 092300Z AUTO ///// 17/ A2983 RMK SLP117

2010/08/09 23:00
CWRX 092300Z AUTO 31006KT 13/ A2989

2010/08/09 23:00
CWSW 092300Z 09005KT 20SM FEW056 FEW130 FEW260 22/09 A2984 RMK CU1AC1CI1 TCU ASOCTD SLP097

2010/08/09 23:00
CWUP 092300Z AUTO 34004KT 04/ A2992 RMK SLP155

2010/08/09 23:00
CWUW 092300Z AUTO ///// 9SM CLR 13/ A2990 RMK SLP149

2010/08/09 23:00
CWVH 092300Z AUTO 10010KT 14/ A2972 RMK SLP078

2010/08/09 23:00
CWYK 092300Z AUTO ///// 07/ A2958 RMK SLP040

2010/08/09 23:00
CWZZ 092300Z AUTO ///// 0SM CLR 05/ A2964 RMK SLP058

2010/08/09 23:00
CZBF 092300Z 00000KT 15SM FEW020 SCT050 BKN090 BKN150 BKN250 22/18 A2977 RMK CF1SC3AC2AC1CI1 SLP082

2010/08/09 23:00
CZCP 092300Z AUTO 10007KT 9SM CLR 07/ A2977 RMK SLP088

2010/08/09 23:00
CZST 092300Z 00000KT 15SM SCT048 BKN062 OVC120 16/11 A2999 RMK SC3SC3AC2 SLP155

2010/08/09 23:00
YSCB 092300Z 33002KT 6000 -RA FEW009 SCT014 BKN045 10/08 Q1016 FM2300 09010KT 6000 -RA SCT010 BKN015 BKN060 TEMPO 2300/0200 4000 RA BKN006

2010/08/09 23:00
CYSM 092300Z CCA 00000KT 15SM FEW040TCU SCT110 BKN220 21/12 A2975 RMK TCU1AS2CI2 CB TOPS DIST S-W SLP080

2010/08/09 23:00
CYBC 092300Z AUTO 20004KT 9SM CLR 20/15 A2974 RMK SLP071

2010/08/09 23:00
CYBN 092300Z AUTO 16004KT 9SM FEW044 23/20 A2992 RMK SLP130

2010/08/09 23:00
CYGK 092300Z 25007KT 4SM -SHRA BR FEW007 SCT030 BKN050 OVC120 23/22 A2992 RMK SF1SC2SC2AC2 SLP130

2010/08/09 23:00
CYGQ 092300Z 30004KT 15SM FEW030 SCT035 SCT040CB 27/17 A2988 RMK CF1CU2CB1 CB N NE SLP120

2010/08/09 23:00
CYHM 092300Z 22005KT 2SM -SHRA BR FEW024 BKN048 OVC092 23/22 A2994 RMK SC2SC3AC3 SF ASOCTD SLP138

2010/08/09 23:00
CYKF 092300Z AUTO 21007KT 4SM BR FEW071 SCT093 BKN120 22/21 A2994 RMK SLP133 DENSITY ALT 2000FT PCPN 0.8MM PAST HR

2010/08/09 23:00
CYKL 092300Z AUTO 33008KT 270V350 9SM FEW039 FEW048 SCT055 12/09 A2963 RMK SLP049

2010/08/09 23:00
CYKZ 092300Z 27002KT 15SM FEW050 BKN067 OVC140 22/21 A2994 RMK SC1AC6AS2 SLP136

2010/08/09 23:00
CYLD 092300Z 00000KT 15SM SCT035TCU SCT150 27/19 A2990 RMK TCU2AC0 CB ASOCTD SLP127

2010/08/09 23:00
CYOO 092300Z AUTO 21006KT 9SM BKN086 BKN140 BKN160 22/21 A2992 RMK SLP131 DENSITY ALT 1300FT

2010/08/09 23:00
CYPL 092300Z 00000KT 15SM FEW050 SCT260 27/15 A2990 RMK CU2CI1 SLP126

2010/08/09 23:00
CYQA 092300Z AUTO 20005KT 150V230 8SM BKN018 BKN027 OVC039 25/23 A2991 RMK SLP127 DENSITY ALT 2300FT

2010/08/09 23:00
CYQK 092300Z 21004KT 15SM FEW200 29/18 A2991 RMK CI1 SLP127

2010/08/09 23:00
CYSB 092300Z 14004KT 15SM FEW052 FEW210 27/14 A2991 RMK CU1CI0 SLP127

2010/08/09 23:00
CYSC 092300Z AUTO 28005KT 9SM CLR 23/18 A2988 RMK DENSITY ALT 1900FT

2010/08/09 23:00
CYSN 092300Z 22010KT 8SM -SHRA FEW012 FEW050 OVC110 24/23 A2992 RMK SF1SC2AC6 VIS LWR ENE SLP132

2010/08/09 23:00
CYVO 092300Z 33006KT 15SM FEW040 FEW090 25/15 A2989 RMK SC1AC2 SLP127

2010/08/09 23:00
CYVQ 092300Z 00000KT 30SM FEW040 FEW100 FEW290 22/09 A2970 RMK CU1AC2CI1 SLP059

2010/08/09 23:00
CYXL 092300Z 00000KT 15SM FEW046 28/17 A2991 RMK CF1 SLP127

2010/08/09 23:00
CYXU 092300Z 00000KT 3SM -SHRA BR FEW027 SCT040 BKN052 OVC090 24/23 A2996 RMK SF2SC2SC2AC2 SLP141

2010/08/09 23:00
CYXZ 092300Z 23007KT 200V260 12SM FEW019TCU FEW070 23/18 A2990 RMK TCU1AC1 TR AC SLP126

2010/08/09 23:00
CYYB 092300Z 00000KT 15SM FEW040 FEW240 26/14 A2992 RMK CU1CI1 SLP128

2010/08/09 23:00
CYYH 092300Z 22012KT 15SM FEW240 17/09 A2990 RMK CI0 SLP128

2010/08/09 23:00
CYYU 092300Z 08004KT 15SM SCT055 25/17 A2986 RMK SC4 SLP115

2010/08/09 23:00
CYAY 092300Z AUTO 23016G22KT 9SM BKN014 OVC086 18/16 A2976 RMK SLP078 DENSITY ALT 600FT MAX WND 23030KT AT 2221Z

2010/08/09 23:00
CYCX 092300Z 17004KT 8SM FEW030 BKN042 BKN250 22/20 A2984 RMK CU1SC4CI2 DA+1402FT SLP103

2010/08/09 23:00
CYDF 092300Z 22009KT 10SM -SHRA FEW026 BKN044 OVC090 18/16 A2990 RMK SC2SC3AC2 SLP126

2010/08/09 23:00
CYDP 092300Z 35005KT 15SM -RA FEW006 OVC026 10/09 A2961 RMK SF1SC8 SLP026

2010/08/09 23:00
CYGW 092300Z 26008KT 5SM BR OVC004 11/10 A2987 RMK SC8 CIG RAG VIS S-W 2 SLP116

2010/08/09 23:00
CYSJ 092300Z 22006KT 1/4SM R23/2400FT/N FG VV001 16/15 A2989 RMK FG8 SLP124

2010/08/09 23:00
CYYG 092300Z 21012KT 15SM BKN067 BKN087 22/16 A2987 RMK AC5AC2 SLP113

2010/08/09 23:00
CYWH 092300Z 00000KT 15SM FEW015 BKN030 OVC100 14/11 A2997 RMK SF1SC4AC2 SLP149

2010/08/09 23:00
CBBC 092300Z AUTO 32008KT 9SM OVC043 18/ A3000 RMK SLP159

2010/08/09 23:00
CYBD 092300Z 26010KT 15SM FEW080TCU BKN110 21/09 A2992 RMK TCU1AC6 SLP133

2010/08/09 23:00
CYCG 092300Z 33010KT 15SM SCT065TCU BKN130 24/14 A2974 RMK TCU3AC2 SLP063

2010/08/09 23:00
CYDA 092300Z 00000KT 20SM SCT055 BKN100 BKN240 20/08 A2966 RMK SC3AC2CI1 CU ASOCTD SLP054

2010/08/09 23:00
CYGE 092300Z 00000KT 30SM FEW030 BKN085 OVC120 16/14 A2989 RMK SC2AC5AC2 SLP125

2010/08/09 23:00
CYKA 092300Z 27007KT 20SM -SHRA FEW020 OVC065 15/12 A2994 RMK SC2SC6 SLP139

2010/08/09 23:00
CYLW 092300Z AUTO 30007KT 270V330 9SM OVC076 24/07 A2979 RMK SLP083 DENSITY ALT 2900FT

2010/08/09 23:00
CYMA 092300Z 24005KT 20SM FEW050 SCT070 BKN100 21/18 A2969 RMK SC2AC2AS1 TCU ASOCTD ACSL SLP067

2010/08/09 23:00
CYPW 092300Z 25007KT 50SM FEW040TCU FEW050 FEW280 20/11 A2994 RMK TCU1CU1CI1 TR CLDS SLP138

2010/08/09 23:00
CYQH 092300Z 29005KT 30SM BKN038 BKN070 22/09 A2978 RMK SC6AC1 SLP090

2010/08/09 23:00
CYQU 092300Z 25010G15KT 25SM FEW068 BKN085 BKN250 22/05 A2982 RMK CU2AC3CI2 SLP107

2010/08/09 23:00
CYWL 092300Z 30002KT 15SM FEW026 BKN080 15/07 A2995 RMK CU2AC4 SLP147

2010/08/09 23:00
CYXJ 092300Z 33005KT 15SM BKN080 19/08 A2983 RMK AC7 SLP107

2010/08/09 23:00
CYXT 092300Z 18006KT 20SM FEW045 BKN071 OVC140 19/10 A2997 RMK CU1AC6AC1 SLP153

2010/08/09 23:00
CYXY 092300Z 13010G15KT 40SM FEW060 SCT160 BKN250 18/05 A2977 RMK SC1AC2CI0 SLP099

2010/08/09 23:00
CYYD 092300Z 30007KT 25SM BKN060 19/05 A2991 RMK SC6 SLP130

2010/08/09 23:00
CYYE 092300Z 26005KT 15SM -RA FEW011 BKN025 OVC060 16/10 A2978 RMK SC2SC2SC3 SLP092

2010/08/09 23:00
CYYF 092300Z 02013G19KT 15SM SCT080TCU BKN110 BKN160 24/09 A2979 RMK TCU4AC2AC1 RETS CB SE SLP082

2010/08/09 23:00
CYZW 092300Z 19009KT 30SM FEW055 SCT120 BKN250 18/04 A2982 RMK SC2AC2CI1 SLP115

2010/08/09 23:00
CYZY 092300Z AUTO 02003KT 9SM OVC076 17/07 A2988 RMK SLP126 DENSITY ALT 3000FT

2010/08/09 23:00
CZMT 092300Z 01002KT 15SM SCT004 OVC020 13/12 A3004 RMK SC4SC4 SLP173

2010/08/09 23:00
CWHN 092300Z AUTO 19010KT 180V250 9SM FEW045 FEW061 FEW076 SCT090 25/11 A2982 RMK SLP103

2010/08/09 23:00
CYBR 092300Z 20004KT 15SM FEW170 30/20 A2983 RMK AC1 SLP099

2010/08/09 23:00
CYBU 092300Z AUTO 19008KT 180V250 9SM FEW061 27/14 A2982 RMK SLP097 DENSITY ALT 2900FT

2010/08/09 23:00
CYDN 092300Z AUTO 29011KT 9SM CLR 30/16 A2980 RMK SLP089 DENSITY ALT 3000FT MAX WND 30017KT AT 2212Z

2010/08/09 23:00
CYEN 092300Z 03009KT 15SM FEW060 FEW260 32/14 A2983 RMK SC1CI0 CVCTV CLD EMBD SLP095

2010/08/09 23:00
CYET 092300Z AUTO 03004KT 330V060 9SM FEW048 FEW057 FEW085 17/12 A2982 RMK PCPN 0.5MM PAST HR SLP101

2010/08/09 23:00
CYGX 092300Z 09002KT 15SM SCT080 BKN200 21/11 A2993 RMK AC2CI2 SLP141

2010/08/09 23:00
CYKJ 092300Z AUTO VRB02KT 9SM FEW011 BKN019 BKN025 17/15 A2982 RMK SLP113 DENSITY ALT 2400FT

2010/08/09 23:00
CYLL 092300Z 15007KT 15SM FEW050 SCT300 25/13 A2984 RMK CU2CI1 SLP106

2010/08/09 23:00
CYNE 092300Z AUTO 08006KT 340V120 9SM SCT033 OVC075 21/16 A2983 RMK SLP107

2010/08/09 23:00
CYPA 092300Z 29007KT 15SM FEW060 27/10 A2983 RMK CU1 SLP103

2010/08/09 23:00
CYPG 092300Z 00000KT 12SM FEW045 FEW150 33/20 A2980 RMK CU1AC1 TR CU SLP091

2010/08/09 23:00
CYPY 092300Z AUTO 12005KT 090V160 9SM CLR 23/11 A2975 RMK SLP079

2010/08/09 23:00
CYQF 092300Z 15003KT 15SM SCT050TCU BKN260 24/11 A2979 RMK TCU3CI2 CB TPS DIST S W+NE SLP093

2010/08/09 23:00
CYQL 092300Z 18004KT 40SM FEW070 FEW200 BKN280 26/09 A2979 RMK CU1CI1CI2 SLP079

2010/08/09 23:00
CYQR 092300Z 32004KT 15SM FEW330 27/16 A2987 RMK CI0 SLP116

2010/08/09 23:00
CYQW 092300Z AUTO 18004KT 080V200 9SM CLR 26/13 A2986 RMK SLP110 DENSITY ALT 3500FT

2010/08/09 23:00
CYVC 092300Z 32005KT 15SM SCT041 25/16 A2981 RMK CU3 SLP097

2010/08/09 23:00
CYXD 092300Z AUTO 18006KT 9SM SCT056 SCT066 SCT079 25/12 A2977 RMK SLP080

2010/08/09 23:00
CYYL 092300Z AUTO 13008KT 9SM -RA BKN020 OVC030 16/14 A2986 RMK SLP123 DENSITY ALT 1600FT PCPN 0.5MM PAST HR

2010/08/09 23:00
CYYN 092300Z AUTO 14004KT 110V180 9SM FEW073 27/12 A2984 RMK SLP097

2010/08/09 23:00
CYZH 092300Z AUTO 31010KT 9SM CLR 20/11 A2982 RMK SLP104

2010/08/09 23:00
CYAH 092300Z AUTO 27007KT 9SM BKN019 BKN041 OVC046 OVC082 13/11 A2979 RMK SLP100

2010/08/09 23:00
CYBX 092300Z 27003KT 3/4SM BR OVC001 14/14 A2976 RMK FG6SF2 SLP079

2010/08/09 23:00
CYGV 092300Z AUTO 26008KT 9SM FEW064 18/14 A2969 RMK SLP054

2010/08/09 23:00
CYMH 092300Z AUTO 24012G17KT 9SM FEW097 17/15 A2969 RMK SLP055

2010/08/09 23:00
CYMT 092300Z 29004KT 15SM FEW035 FEW040 23/11 A2985 RMK SC1CU2 SLP112

2010/08/09 23:00
CYNM 092300Z AUTO 28009KT 9SM FEW070 25/11 A2984 RMK SLP109

2010/08/09 23:00
CYOY 092300Z AUTO 24008KT 9SM FEW085 24/16 A2982 RMK SLP101

2010/08/09 23:00
CYPH 092300Z AUTO 02010KT 9SM FEW032 BKN041 16/11 A2986 RMK SLP111

2010/08/09 23:00
CYQI 092300Z 21008KT 1SM BR OVC002 18/18 A2993 RMK FG3SF5 RVR RWY 24 P6000 FT SLP137

2010/08/09 23:00
CYUY 092300Z 35003KT 15SM FEW050 FEW100 FEW250 26/14 A2989 RMK CU1AC2CI1 SLP124

2010/08/09 23:00
CYWK 092300Z 26004KT 15SM FEW015 BKN052 12/11 A2971 RMK SF1SC6 SLP070

2010/08/09 23:00
CYAW 092300Z 19005KT 15SM FEW020 BKN060 18/17 A2995 RMK CF2SC2 DA+722FT SLP142

2010/08/09 23:00
CYBG 092300Z 26006KT 25SM FEW045 SCT050 25/12 A2979 RMK CU2SC2 SLP090

2010/08/09 23:00
CYEG 092300Z 07005KT 15SM SCT061 BKN260 23/15 A2979 RMK CU3CI1 TCU ASOCTD SLP088

2010/08/09 23:00
CYFB 092300Z 34002KT 15SM -RA OVC040 13/11 A2982 RMK SC8 SLP100

2010/08/09 23:00
CYFC 092300Z AUTO 15005KT 9SM CLR 22/20 A2983 RMK PRESFR SLP102 DENSITY ALT 1000FT PCPN 8.4MM PAST HR RVR MISG

2010/08/09 23:00
CYGL 092300Z 30007KT 12SM VCSH BKN007 OVC012 12/10 A2986 RMK SC5SC3 OCNL -SHRA SLP120

2010/08/09 23:00
CYHZ 092300Z 19012G19KT 15SM FEW004 BKN100 19/17 A2994 RMK CU2AC5 SLP139

2010/08/09 23:00
CYJT 092300Z 00000KT 15SM -RA FEW025 BKN040 OVC090 18/16 A2991 RMK SC2SC4AC2 SLP129

2010/08/09 23:00
CYMX 092300Z 24003KT 25SM FEW050 BKN200 25/17 A2987 RMK SC1CI2 SLP114

2010/08/09 23:00
CYOW 092300Z 27004KT 15SM FEW045TCU FEW120 BKN220 26/20 A2989 RMK TCU1AC1CI2 SLP123

2010/08/09 23:00
CYQB 092300Z 24011KT 15SM FEW030TCU FEW070 SCT240 25/18 A2983 RMK TCU1AC1CI1 SLP102

2010/08/09 23:00
CYQG 092300Z 19004KT 10SM BKN059 OVC080 26/22 A2994 RMK SC6AC2 SLP135

2010/08/09 23:00
CYQM 092300Z 23008KT 12SM OVC011 20/19 A2986 RMK SF8 SLP111

2010/08/09 23:00
CYQQ 092300Z 11007KT 20SM FEW040 FEW080 20/13 A2993 RMK SC2AC1 SLP136

2010/08/09 23:00
CYQX 092300Z 21014KT 15SM BKN130 OVC170 20/15 A2996 RMK AC5AS2 SLP147

2010/08/09 23:00
CYQY 092300Z 18007KT 15SM SCT140 SCT220 18/14 A2996 RMK AC3CC1 SLP148

2010/08/09 23:00
CYTR 092300Z 22008KT 4SM -SHRA BR SCT006 BKN015 OVC045 23/18 A2991 RMK SF4SC2SC2 SLP130

2010/08/09 23:00
CYUL 092300Z 26007KT 15SM FEW070 BKN240 26/17 A2986 RMK AC1CI2 SLP113

2010/08/09 23:00
CYVR 092300Z 21006KT 15SM FEW017 BKN075 BKN120 18/11 A2996 RMK CU1AC4AC1 SLP145

2010/08/09 23:00
CYWG 092300Z 18006KT 15SM FEW088 FEW280 33/21 A2980 RMK AC1CI1 TR AC SLP088

2010/08/09 23:00
CYXX 092300Z 22010KT 8SM -SHRA BKN020 OVC030 17/12 A2997 RMK SC5SC3 PCPN VRY LGT CVCTV CLD EMBD SLP148

2010/08/09 23:00
CYYC 092300Z 11006KT 40SM -TSRA SCT060CB BKN090 BKN220 21/10 A2982 RMK CB3AC3CI0 LTGCC SLP093

2010/08/09 23:00
CYYJ 092300Z 12005KT 20SM FEW014 BKN026 BKN087 17/14 A2996 RMK SC1SC5AC2 SLP144

2010/08/09 23:00
CYYQ 092300Z 07012KT 15SM SCT008 12/11 A3001 RMK ST3 SLP164

2010/08/09 23:00
CYYR 092300Z 28007KT 15SM -SHRA FEW046 SCT068 BKN098 BKN250 20/11 A2961 RMK CU2AC2AC1CI0 SLP029

2010/08/09 23:00
CYYT 092300Z 23013KT 15SM FEW120 BKN220 19/13 A3007 RMK AC2CI3 SLP182

2010/08/09 23:00
CYYZ 092300Z 00000KT 12SM SCT025 OVC150 23/21 A2993 RMK SC4AC4 SLP135

2010/08/09 23:00
CYZF 092300Z 17010KT 15SM FEW028 SCT110 BKN210 20/13 A2973 RMK SC2AC1CI1 SLP074

2010/08/09 23:00
CYZV 092300Z 29007KT 30SM BKN070 BKN250 22/13 A2969 RMK AC5CI1 SLP054

2010/08/09 23:00
CYZX 092300Z 23009KT 15SM BKN042 OVC070 24/16 A2989 RMK SC5AC2 WNDY HILL 23009G17KT SLP121

2010/08/09 23:00
CYBB 092300Z 00000KT 15SM FEW220 23/08 A2994 RMK CI0 23.4/9.4/NIL/LAST OBS/NEXT 101200 SLP140

2010/08/09 23:00
CYCB 092300Z 08012KT 15SM FEW015 FEW070 17/13 A2984 RMK CF0AC0 FU SLP107

2010/08/09 23:00
CYCO 092300Z 05003KT 3SM BR OVC005 11/10 A2974 RMK FG1ST7 BLN EST SLP072

2010/08/09 23:00
CYFS 092300Z 32011KT 15SM OVC012 17/14 A2971 RMK SC8 SLP065

2010/08/09 23:00
CYGH 092300Z 32003KT 25SM FEW120 20/12 A2972 RMK AC0 20.3/12.0/0 LAST OBS NEXT 101300Z SLP066

2010/08/09 23:00
CYHI 092300Z 09012G22KT 15SM -RA FEW010 FEW015 BKN020 OVC030 11/09 A2982 RMK SF0SC1SC4ST1 SLP100

2010/08/09 23:00
CYHK 092300Z 20008KT 15SM FEW250 17/09 A2991 RMK CS0 SLP132

2010/08/09 23:00
CYHY 092300Z 22004KT 15SM SCT015 BKN230 23/11 A2971 RMK SC3CI0 SLP064

2010/08/09 23:00
CYLK 092300Z 28003KT 6SM FU OVC024 24/16 A2973 RERA RMK SC6 SLP072

2010/08/09 23:00
CYPC 092300Z 02002KT 15SM -RA SCT006 BKN013 OVC075 08/07 A2978 RMK ST2SC4AC2 -RA INTMNT 9.0/7.7/0.2 LAST OB/NEXT101300 SLP086

2010/08/09 23:00
CYRA 092300Z 20004KT 12SM FEW022 SCT034 OVC220 24/16 A2968 RMK SC2SC0CI2 TCU EMBD CB-NW SLP054

2010/08/09 23:00
CYRT 092300Z 23005KT 15SM FEW090 18/10 A3005 RMK AC2 SLP177

2010/08/09 23:00
CYSY 092300Z 09015KT 15SM BKN018 09/06 A2986 RMK SC6 12.8/2.6/0/0 LAST OBS/NXT101300Z SLP117

2010/08/09 23:00
CYTE 092300Z AUTO 00000KT 9SM SCT074 SCT097 17/09 A2985 RMK SLP111

2010/08/09 23:00
CYVM 092300Z AUTO 04007KT 9SM OVC003 04/04 A2995 RMK SLP143

2010/08/09 23:00
CYWJ 092300Z 33003KT 40SM FEW030 BKN080 BKN120 20/10 A2970 RMK SC1AC5AC1 20.0/13.0/0/0 LAST OB/NEXT 101300Z SLP065

2010/08/09 23:00
CYZS 092300Z 20004KT 15SM FEW090 FEW210 19/05 A2992 RMK AC1CI0 SLP137

2010/08/09 22:55
EHSC 092255Z AUTO 24018G20KT 9999 19/12 Q1014 W///S3

2010/08/09 22:55
EHJR 092255Z AUTO 19020G23KT //// 17/15 Q1012 W17/S3

2010/08/09 22:50
EGWU 092250Z AUTO 21008KT 9999NDV // OVC014/// 18/15 Q1012

2010/08/09 23:00
LPFR 092300Z 27004KT 240V310 CAVOK 28/19 Q1014

2010/08/09 23:00
LPMA 092300Z 26004KT 9999 FEW013 22/19 Q1015 RS21001KT 0526004KT 2329004KT

2010/08/09 23:00
LPPR 092300Z 00000KT CAVOK 23/18 Q1016

2010/08/09 23:00
LPPS 092300Z 01009KT 9999 SCT014 SCT030 22/19 Q1016

2010/08/09 23:00
LPPT 092300Z 29004KT 250V320 CAVOK 31/12 Q1015 NOSIG

2010/08/09 23:00
UMGG 092300Z 04004MPS 9999 FEW036 SCT100 20/19 Q1014 R28/290350 NOSIG

2010/08/09 23:00
UMMS 092300Z 33004MPS CAVOK 18/16 Q1016 R31/290060 NOSIG

2010/08/09 22:55
EHSA 092255Z AUTO 22020G22KT 9999 18/15 Q1014 W19/S4

2010/08/09 23:00
ZYHB 092300Z 19006MPS 3000 BR NSC 18/17 Q1005 NOSIG

2010/08/09 22:53
KACV 092253Z AUTO 31007KT 10SM OVC005 13/11 A2994

2010/08/09 22:53
KALW 092253Z 24010G15KT 200V270 10SM CLR 30/06 A2977

2010/08/09 22:53
KBFI 092253Z VRB05KT 10SM -RA BKN020 OVC033 19/13 A2996

2010/08/09 22:54
KBFL 092254Z 33010KT 10SM CLR 33/12 A2979

2010/08/09 22:53
KBIL 092253Z 28013KT 10SM FEW029 BKN100 BKN120 20/14 A2988

2010/08/09 22:53
KBKE 092253Z AUTO 14014G19KT 10SM BKN100 24/09 A2983

2010/08/09 22:53
KBLI 092253Z 17006KT 10SM FEW006 BKN017 OVC035 16/13 A2997

2010/08/09 22:53
KBOI 092253Z 30005KT 10SM CLR 31/06 A2980

2010/08/09 22:53
KBTM 092253Z AUTO 20012KT 10SM SCT100 23/06 A2996

2010/08/09 22:53
KBUR 092253Z 17009KT 10SM CLR 26/11 A2987

2010/08/09 22:53
KBYI 092253Z AUTO 06004KT 10SM SCT110 26/10 A2994

2010/08/09 22:56
KBZN 092256Z 08010KT 10SM FEW070 21/13 A2997

2010/08/09 22:53
KCDC 092253Z AUTO 24014G20KT 10SM CLR 27/M01 A3011

2010/08/09 22:56
KCEC 092256Z AUTO 22008KT 10SM OVC008 15/11 A2994

2010/08/09 22:53
KCLM 092253Z AUTO 00000KT 10SM SCT011 OVC026 16/13 A2998

2010/08/09 22:56
KCTB 092256Z AUTO VRB04KT 10SM FEW080 27/06 A2983

2010/08/09 22:56
KEKO 092256Z AUTO 24008KT 10SM CLR 28/02 A2996

2010/08/09 22:54
KEUG 092254Z 00000KT 10SM FEW030 BKN150 22/12 A2997

2010/08/09 22:53
KFAT 092253Z VRB04KT 10SM FEW080 34/10 A2980

2010/08/09 22:56
KFLG 092256Z 23013KT 10SM FEW110 22/07 A3025

2010/08/09 22:54
KGCN 092254Z 23011G16KT 10SM CLR 24/01 A3021

2010/08/09 22:53
KGEG 092253Z 24013G17KT 10SM FEW075 SCT140 BKN200 27/06 A2979

2010/08/09 22:53
KGGW 092253Z AUTO 13005KT 10SM CLR 32/09 A2978

2010/08/09 22:53
KGTF 092253Z 25018G27KT 10SM FEW100 27/05 A2981

2010/08/09 22:53
KHLN 092253Z VRB04KT 10SM BKN100 22/09 A2986

2010/08/09 22:53
KHQM 092253Z AUTO 23009KT 10SM OVC011 14/12 A3001

2010/08/09 22:53
KIDA 092253Z 22011G17KT 10SM SCT045 BKN100 23/08 A3002

2010/08/09 22:56
KLAS 092256Z 16007G16KT 10SM CLR 36/M02 A2981

2010/08/09 22:53
KLAX 092253Z 26011KT 10SM CLR 19/12 A2990

2010/08/09 22:53
KLGB 092253Z 18007KT 10SM CLR 23/13 A2988

2010/08/09 22:53
KLMT 092253Z 30008G17KT 260V340 10SM FEW045 SCT100 SCT250 28/02 A2992

2010/08/09 22:53
KLVM 092253Z AUTO 27007KT 10SM TS FEW055 OVC085 17/13 A2999

2010/08/09 22:53
KMFR 092253Z 28011KT 10SM FEW070 31/11 A2984

2010/08/09 22:53
KMLS 092253Z AUTO 03005KT 10SM CLR 34/09 A2976

2010/08/09 22:54
KMRY 092254Z 21009KT 10SM BKN013 16/11 A2993

2010/08/09 22:53
KMSO 092253Z 13012KT 9SM -RA SCT050 BKN090 20/14 A2987

2010/08/09 22:53
KMYV 092253Z AUTO 20007KT 170V250 10SM CLR 32/13 A2981

2010/08/09 22:56
KNTD 092256Z 23008KT 7SM CLR 18/13 A2990

2010/08/09 22:53
KOAK 092253Z 29015KT 10SM FEW016 19/12 A2990

2010/08/09 22:53
KOGD 092253Z AUTO 22008KT 10SM CLR 27/03 A2999

2010/08/09 22:54
KOLM 092254Z 24006KT 10SM OVC025 17/12 A2998

2010/08/09 22:53
KONT 092253Z 26015KT 10SM CLR 29/09 A2986

2010/08/09 22:55
KOTH 092255Z 35017G20KT 10SM CLR 17/12 A3004

2010/08/09 22:53
KPAE 092253Z 00000KT 10SM -RA BKN023 17/13 A2998

2010/08/09 22:53
KPDX 092253Z 00000KT 10SM BKN035 OVC250 18/11 A2999

2010/08/09 22:51
KPHX 092251Z 00000KT 10SM FEW120 SCT150 39/08 A2977

2010/08/09 22:53
KPIH 092253Z 27012G20KT 10SM SCT080 24/08 A3000

2010/08/09 22:53
KPMD 092253Z AUTO 24013G16KT 10SM CLR 33/03 A2988

2010/08/09 22:53
KPRB 092253Z AUTO A2985

2010/08/09 22:53
KPRC 092253Z 23011G16KT 10SM BKN090TCU 29/04 A3009

2010/08/09 22:53
KPSP 092253Z VRB04KT 10SM CLR 38/M01 A2973

2010/08/09 22:54
KRBL 092254Z AUTO 16013G17KT 10SM CLR 32/14 A2980

2010/08/09 22:53
KRDD 092253Z 15011G14KT 10SM CLR 33/11 A2978

2010/08/09 22:56
KRDM 092256Z 30007G15KT 260V340 10SM CLR 28/03 A2987

2010/08/09 22:55
KRNO 092255Z 25009G14KT 10SM SCT080 BKN090 31/02 A2993

2010/08/09 22:53
KRNT 092253Z 17003KT 10SM OVC031 19/12 A2996

2010/08/09 22:53
KSAC 092253Z 23008KT 10SM CLR 29/13 A2982

2010/08/09 22:51
KSAN 092251Z 32009KT 10SM CLR 22/14 A2990

2010/08/09 22:53
KSBA 092253Z 24008KT 10SM CLR 19/13 A2989

2010/08/09 22:53
KSBD 092253Z 27010G15KT 07SM SKC 31/05 A2986

2010/08/09 22:56
KSBP 092256Z AUTO 32011KT 10SM CLR 22/12 A2990

2010/08/09 22:55
KSCK 092255Z 28006KT 10SM CLR 31/11 A2981

2010/08/09 22:53
KSEA 092253Z 19004KT 10SM OVC026 18/12 A2998

2010/08/09 22:53
KSFF 092253Z 24015G20KT 10SM FEW080 28/06 A2978

2010/08/09 22:56
KSFO 092256Z 30018KT 10SM FEW009 18/11 A2988

2010/08/09 22:53
KSHR 092253Z AUTO 00000KT 10SM CLR 33/08 A2982

2010/08/09 22:53
KSJC 092253Z 29012KT 10SM FEW050 23/13 A2986

2010/08/09 22:53
KSLC 092253Z 28016G30KT 10SM FEW080 SCT100CB BKN120 BKN200 27/04 A2997

2010/08/09 22:53
KSMF 092253Z 19007KT 10SM CLR 29/15 A2981

2010/08/09 22:51
KSMX 092251Z 31010KT 10SM FEW015 18/11 A2992

2010/08/09 22:53
KSNA 092253Z 22009KT 10SM CLR 23/13 A2989

2010/08/09 22:53
KSNS 092253Z 28011KT 10SM CLR 19/12 A2991

2010/08/09 22:53
KTIW 092253Z 24003KT 10SM -RA BKN025 17/13 A2997

2010/08/09 22:53
KTUS 092253Z 24005KT 10SM CLR 36/13 A2990

2010/08/09 22:53
KTVL 092253Z AUTO 19011G17KT 10SM FEW060 24/07 A3009

2010/08/09 22:53
KTWF 092253Z 19008KT 10SM TS FEW043 SCT100 21/13 A2994

2010/08/09 22:56
KUKI 092256Z AUTO VRB05KT 10SM CLR 33/11 A2981

2010/08/09 22:53
KYKM 092253Z 00000KT 10SM SCT080 29/07 A2975

2010/08/09 23:00
UKBB 092300Z 28002MPS 9999 FEW033CB 23/20 Q1014 88290095 TEMPO 1000 TSRA

2010/08/09 23:00
UKHH 092300Z 34002MPS 4800 DU SKC 25/15 Q1013 080///65 NOSIG

2010/08/09 23:00
UKOO 092300Z 01004MPS CAVOK 28/16 Q1011 34090070 NOSIG

2010/08/09 23:00
UKDE 092300Z 34002MPS CAVOK 23/13 Q1011 02CLRD70 NOSIG

2010/08/09 23:00
UKDD 092300Z 04003MPS CAVOK 24/14 Q1012 08090070 NOSIG

2010/08/09 23:00
UKFF 092300Z 07004MPS CAVOK 23/14 Q1010 01010070 NOSIG

2010/08/09 23:00
UKLL 092300Z 00000MPS CAVOK 14/14 Q1017 31290550 TEMPO -TSRAGR

2010/08/09 23:00
UKDR 092300Z 02002MPS CAVOK 26/12 Q1012 1809//70 NOSIG

2010/08/09 22:55
LIMU 092255Z 02004KT 9999 FEW026 23/23 Q1017 RMK SCT QUK / QUL / VIS MAR 25 KM VIS MIN 9999

2010/08/09 22:55
LIVD 092255Z 00000KT CAVOK 15/13 Q1021 RMK SKC VIS MIN 9999

2010/08/09 22:55
LIVT 092255Z 10004KT CAVOK 23/17 Q1015 RMK SKC QUK / QUL / VIS MAR 20 KM VIS MIN 9999

2010/08/09 22:55
LIPC 092255Z 25004KT CAVOK 20/20 Q1014 RMK SCT SCT200 VIS MIN 9999 WIND THR12 25004KT BLU

2010/08/09 22:45
LIPH 092245Z 01001KT 9999 SCT080 23/19 Q1015 RMK SCT VIS MIN 9999 WIND THR07 /////KT BLU

2010/08/09 22:50
LIPO 092250Z 05005KT CAVOK 22/17 Q1015 RMK VIS MIN 9999

2010/08/09 22:50
LIPQ 092250Z VRB01KT CAVOK 20/17 Q1015

2010/08/09 22:45
LIPR 092245Z 20002KT CAVOK 22/22 Q1014 RMK SKC VIS MIN 9999 WIND THR31 00000KT BLU

2010/08/09 22:55
LIPS 092255Z 00000KT 9999 FEW040 22/19 Q1015 RMK FEW VIS MIN 9999 BLU

2010/08/09 22:45
LIPX 092245Z 04005KT 9999 FEW040 23/23 Q1015 RMK FEW VIS MIN 9999 BLU

2010/08/09 22:50
LIPY 092250Z 17003KT CAVOK 21/18 Q1014 RMK VIS MIN 9999

2010/08/09 22:55
LIVP 092255Z 19005KT 9999 0900S FEW005 10/09 Q1024 RMK FEW MON S INVIS VAL S NEBBIA SCT VIS MIN 0900S

2010/08/09 22:50
LIBD 092250Z 26005KT CAVOK 20/15 Q1014 RMK VIS MIN 9999

2010/08/09 22:50
LIBP 092250Z 00000KT 9999 SCT070 22/20 Q1015 RMK VIS MIN 9999

2010/08/09 22:45
LIBR 092245Z 33011KT CAVOK 24/20 Q1014 NOSIG RMK SKC VIS MIN 9999 WIND THR13 WIND THR31 31009KT BLU

2010/08/09 22:55
LIBV 092255Z 35003KT CAVOK 19/17 Q1013 RMK SKC VIS MIN 9999 WIND THR14 33005KT BLU

2010/08/09 22:50
LICA 092250Z VRB03KT 9999 FEW015 BKN020 24/20 Q1015 RMK VIS MIN 9999

2010/08/09 22:50
LICC 092250Z 28004KT CAVOK 24/20 Q1015 RMK VIS MIN 9999

2010/08/09 22:50
LICD 092250Z VRB02KT CAVOK 24/20 Q1014 RMK VIS MIN 9999

2010/08/09 22:50
LICJ 092250Z VRB03KT CAVOK 24/17 Q1016 RMK VIS MIN 9999

2010/08/09 22:55
LICT 092255Z 00000KT CAVOK 23/20 Q1016 RMK SKC VIS MIN 9999 WIND THR13 35001KT BLU

2010/08/09 22:50
LIEA 092250Z 05003KT 030V090 CAVOK 17/11 Q1017 RMK VIS MIN 9999

2010/08/09 22:55
LIED 092255Z 36006KT CAVOK 24/07 Q1015 RMK SCT SCT080 VIS MIN 9999 BLU

2010/08/09 22:50
LIEO 092250Z 20003KT CAVOK 22/17 Q1016 RMK VIS MIN 9999

2010/08/09 22:55
LIRE 092255Z 00000KT CAVOK 20/18 Q1015 RMK SKC VIS MIN 9999 WIND THR31 00000KT BLU

2010/08/09 22:55
LIRM 092255Z 06002KT CAVOK 26/25 Q1016 RMK SKC VIS MIN 9999 WIND THR06 10002KT BLU

2010/08/09 23:04
KBUF 092304Z 34006G24KT 3SM -RA BR FEW015 SCT029 OVC050 23/22 A2996

2010/08/09 22:53
PABR 092253Z AUTO 07020G25KT 10SM OVC004 02/01 A2986

2010/08/09 22:53
PABT 092253Z 16005KT 10SM FEW028 BKN034 OVC050 16/08 A2957

2010/08/09 22:53
PACV 092253Z 12010G16KT 10SM FEW014 SCT024 OVC035 15/11 A2986

2010/08/09 22:55
PADL 092255Z 18012G23KT 3SM -RA BR SCT006 OVC010 11/09 A2958

2010/08/09 22:58
PADU 092258Z 19017G22KT 10SM FEW024 BKN043 13/08 A2954

2010/08/09 22:53
PAEN 092253Z 23007KT 10SM SCT038 OVC070 17/11 A2967

2010/08/09 22:58
PAGA 092258Z AUTO 15013KT 10SM FEW023 SCT029 OVC048 16/11 A2949

2010/08/09 22:53
PAGY 092253Z AUTO 21019KT 10SM OVC065 16/08 A2992

2010/08/09 22:53
PAIL 092253Z 12003KT 10SM OVC026 13/09 A2964

2010/08/09 22:54
PAKN 092254Z 22008KT 10SM OVC021 13/10 A2959

2010/08/09 22:54
PAKT 092254Z COR 12007KT 10SM SCT18 BKN060 15/12 A3003

2010/08/09 22:53
PAKT 092253Z 12008KT 10SM SCT018 BKN060 16/12 A3003

2010/08/09 22:53
PASC 092253Z 06022KT 10SM OVC005 06/03 A2972

2010/08/09 22:53
PASI 092253Z 27005KT 10SM FEW007 OVC032 14/12 A2998

2010/08/09 22:52
PATA 092252Z 10006KT 10SM SCT015 OVC050 15/12 A2958

2010/08/09 22:56
PAUN 092256Z AUTO 10006KT 10SM OVC070 14/08 A2940

2010/08/09 22:56
PAVD 092256Z 00000KT 4SM SCT002 BKN020 OVC045 12/10 A2984

2010/08/09 22:54
PHMK 092254Z 04020G32KT 10SM FEW033 29/14 A3008

2010/08/09 22:56
PMDY 092256Z AUTO 09013KT 10SM FEW023 28/22 A3025

2010/08/09 23:00
LELO 092300Z 00000KT CAVOK 18/15 Q1020

2010/08/09 23:00
LERT 092300Z 16006KT 120V190 CAVOK 29/09 Q1015 NOSIG

2010/08/09 22:50
LIEA 092250Z 05003KT 030V090 CAVOK 17/11 Q1017 RMK VIS MIN 9999

2010/08/09 22:55
LIED 092255Z 36006KT CAVOK 24/07 Q1015 RMK SCT SCT080 VIS MIN 9999 BLU

2010/08/09 22:50
LIEO 092250Z 20003KT CAVOK 22/17 Q1016 RMK VIS MIN 9999

2010/08/09 22:55
LIRE 092255Z 00000KT CAVOK 20/18 Q1015 RMK SKC VIS MIN 9999 WIND THR31 00000KT BLU

2010/08/09 22:55
LIRM 092255Z 06002KT CAVOK 26/25 Q1016 RMK SKC VIS MIN 9999 WIND THR06 10002KT BLU

2010/08/09 22:55
LIVP 092255Z 19005KT 9999 0900S FEW005 10/09 Q1024 RMK FEW MON S INVIS VAL S NEBBIA SCT VIS MIN 0900S

2010/08/09 23:00
LKKV 092300Z 00000KT 9999 FEW043 14/13 Q1019 RMK REG QNH 1015

2010/08/09 23:00
LKMT 092300Z 21002KT CAVOK 15/14 Q1017 NOSIG RMK REG QNH 1015

2010/08/09 23:00
LKPR 092300Z 25002KT CAVOK 13/12 Q1018 NOSIG RMK REG QNH 1015

2010/08/09 23:00
LKTB 092300Z VRB02KT CAVOK 15/12 Q1017 NOSIG RMK REG QNH 1015

2010/08/09 23:00
LPAZ 092300Z 05010KT 9999 SCT018 BKN036 21/15 Q1021

2010/08/09 23:00
LPHR 092300Z 01005KT 9999 FEW016 SCT035 21/16 Q1022

2010/08/09 23:00
LPPD 092300Z 05004KT 020V090 9999 FEW018 BKN040 20/14 Q1021

2010/08/09 23:00
LRBC 092300Z 36006KT CAVOK 21/20 Q1016

2010/08/09 23:00
LRBM 092300Z 06006KT CAVOK 17/15 Q1016

2010/08/09 23:00
LRCV 092300Z AUTO 24008KT 9999 NCD 21/17 Q1014

2010/08/09 23:00
LRIA 092300Z AUTO 24004KT 190V330 9999 FEW089 BKN120 21/20 Q1015

2010/08/09 23:00
LROD 092300Z AUTO 12004KT 5000 +RA NCD 16/15 Q1017

2010/08/09 23:00
LRSM 092300Z AUTO 22004KT 9999 NCD 17/17 Q1017

2010/08/09 23:00
LRTC 092300Z AUTO 33010KT 9999 NCD 24/19 Q1011

2010/08/09 23:04
KBUF 092304Z 34006G24KT 3SM -RA BR FEW015 SCT029 OVC050 23/22 A2996

2010/08/09 23:00
MGSJ 092300Z 15006KT 9999 SCT016 SCT024CB 31/25 Q1011 A2985 CB/PCPN W/NW CB NE

2010/08/09 23:00
MROC 092300Z 25007KT 5000 2000NW BR FEW009TCU SCT015 BKN035 22/22 A2997 RERA TEMPO 3000 RABR

2010/08/09 22:57
PHNG 092257Z AUTO 07011G17KT 10SM SCT043 28/18 A3011 RMK AO2 SLP190 T02830183 $

2010/08/09 22:58
PTYA 092258Z 16008KT 12SM FEW016 SCT130 BKN300 31/25 A2989 RMK SLP122 T03120252

2010/08/09 23:00
RJAA 092300Z 17007KT 9999 FEW015 28/24 Q1016 NOSIG RMK 2CU015 A3001

2010/08/09 23:00
RJCC 092300Z 17007KT 8000 FEW002 BKN003 BKN006 23/21 Q1014 RMK 1ST002 6ST003 7ST006 A2997

2010/08/09 23:00
RJFF 092300Z 15005KT 9999 FEW020 SCT110 BKN140 26/23 Q1010 RMK 1CU020 3AC110 6AC140 A2982

2010/08/09 23:00
RJFK 092300Z 11009KT 9999 FEW010 SCT120 BKN/// 27/24 Q1013 RMK 1CU010 3AC120 A2992

2010/08/09 23:00
RJOO 092300Z 23006KT 180V260 9999 -SHRA FEW008 SCT015 BKN090 28/24 Q1014 RMK 1ST008 3CU015 6AC090 A2996

2010/08/09 23:00
RJTT 092300Z 14008KT 9999 FEW012 SCT020 BKN080 28/23 Q1016 RMK 1CU012 3CU020 6AC080 A3000

2010/08/09 23:00
RKSS 092300Z 32002KT 8000 -RA BKN030 BKN100 26/23 Q1008 TEMPO -RA

2010/08/09 23:00
ROAH 092300Z 20020KT 8000 -RA FEW010 BKN080 BKN100 27/26 Q1008 RMK 2CU010 5AC080 7AS100 A2977

2010/08/09 23:00
TAPA 092300Z 10008KT 9999 SCT017 BKN270 28/25 Q1014 RMK CB TOP NW/SSE/TCU ENE

2010/08/09 23:00
TKPK 092300Z 03009KT 9999 FEW016 SCT050 BKN260 27/25 Q1014

2010/08/09 23:00
ZGGG 092300Z VRB01MPS 5000 BR FEW015 28/26 Q1006 NOSIG

2010/08/09 23:00
FMEE 092300Z 14013KT 9999 VCSH FEW026 SCT060 20/18 Q1022 TEMPO 5000 SHRA

2010/08/09 23:00
LKKV 092300Z 00000KT 9999 FEW043 14/13 Q1019 RMK REG QNH 1015

2010/08/09 23:00
MGSJ 092300Z 15006KT 9999 SCT016 SCT024CB 31/25 Q1011 A2985 CB/PCPN W/NW CB NE

2010/08/09 23:00
MROC 092300Z 25007KT 5000 2000NW BR FEW009TCU SCT015 BKN035 22/22 A2997 RERA TEMPO 3000 RABR

2010/08/09 22:59
MYEG 092259Z AUTO 10004KT 10SM SCT060 SCT095 25/22 A2995 RMK AO2 LTG DSNT W

2010/08/09 23:00
OIKK 092300Z 00000KT CAVOK 20/M02 Q1016 A3002

2010/08/09 22:57
PHNG 092257Z AUTO 07011G17KT 10SM SCT043 28/18 A3011 RMK AO2 SLP190 T02830183 $

2010/08/09 23:00
TAPA 092300Z 10008KT 9999 SCT017 BKN270 28/25 Q1014 RMK CB TOP NW/SSE/TCU ENE

2010/08/09 23:00
TKPK 092300Z 03009KT 9999 FEW016 SCT050 BKN260 27/25 Q1014

2010/08/09 23:00
UACC 092300Z 01005MPS 7000 FEW073 09/06 Q1016 040/0070 NOSIG RMK QFE730/0974

2010/08/09 23:00
UAFM 092300Z 13003MPS CAVOK 19/11 Q1008 NOSIG

2010/08/09 23:00
UATT 092300Z 07005MPS CAVOK 19/04 Q1019 31CLRD70 NOSIG RMK QFE744/0992

2010/08/09 23:00
WMKJ 092300Z 31001KT 6000 FEW022 BKN300 24/24 Q1009

2010/08/09 23:00
WMKK 092300Z 15003KT 9000 FEW030 SCT140 BKN280 25/24 Q1008 NOSIG

2010/08/09 23:00
WMKP 092300Z 25001KT 9000 FEW022 SCT140 BKN270 26/24 Q1007 NOSIG

2010/08/09 23:00
WMSA 092300Z 00000KT 9000 FEW027 BKN280 26/25 Q1008

2010/08/09 23:00
ZBHH 092300Z 06003MPS CAVOK 15/09 Q1012 NOSIG

2010/08/09 23:00
ZHHH 092300Z 11003MPS 2000 R04/1400N BR NSC 29/29 Q1004 BECMG 1500 BR

2010/08/09 23:00
ZSNJ 092300Z 04002MPS 1600 R06/1400N BR SCT007 OVC040 27/25 Q1005 BECMG 3000 BR

2010/08/09 23:00
ZUCK 092300Z 00000MPS CAVOK 30/21 Q1003 NOSIG

2010/08/09 23:00
ZWSH 092300Z 30003MPS 250V340 CAVOK 25/07 Q1010 NOSIG

2010/08/09 22:50
EGDR 092250Z 28007KT 9999 BR SCT007 OVC025 16/15 Q1013 GRN

2010/08/09 22:50
EGDX 092250Z AUTO 27010KT 9999NDV -DZ FEW004/// BKN010/// 16/15 Q1011

2010/08/09 22:50
EGDY 092250Z AUTO 20011KT 9999NDV BKN008/// SCT050/// 17/17 Q1012

2010/08/09 22:50
EGNS 092250Z 29002KT 9999 FEW020 BKN037 14/11 Q1008

2010/08/09 22:50
EGOM 092250Z AUTO 24007KT 9999NDV // BKN007/// 11/10 Q1007

2010/08/09 22:50
EGOP 092250Z AUTO 25017KT 9999NDV // BKN018/// 16/13 Q1011

2010/08/09 22:50
EGOS 092250Z AUTO 23005KT 9999NDV FEW048/// 14/12 Q1010

2010/08/09 22:50
EGVP 092250Z AUTO 23010KT 9999NDV // OVC008/// 17/15 Q1013

2010/08/09 22:50
EGWU 092250Z AUTO 21008KT 9999NDV // OVC014/// 18/15 Q1012

2010/08/09 22:50
EGXE 092250Z AUTO 18004KT 9999NDV FEW044/// BKN060/// 14/14 Q1009 RERA

2010/08/09 22:50
EGXG 092250Z AUTO 26002KT 9999NDV NCD 12/12 Q1009

2010/08/09 22:50
EGXJ 092250Z AUTO 20012KT 9999NDV // SCT011/// BKN035/// BKN080/// 17/15 Q1010

2010/08/09 22:50
EGXT 092250Z AUTO 19011KT 9999NDV SCT039/// 17/14 Q1010

2010/08/09 22:50
EGXU 092250Z AUTO 28003KT 9999NDV // FEW030/// BKN060/// 15/13 Q1009

2010/08/09 22:50
EGXX 092250Z AUTO 21011KT 9999NDV // SCT060/// 18/15 Q1010

2010/08/09 22:50
EGXZ 092250Z AUTO 12003KT 9999NDV -RA BKN050/// 14/13 Q1009

2010/08/09 22:50
EGYD 092250Z AUTO 23009KT 9999NDV // BKN028/// BKN060/// 16/15 Q1010

2010/08/09 22:50
EGYM 092250Z AUTO 20009KT 9999NDV SCT060/// 18/15 Q1011

2010/08/09 23:00
EICK 092300Z 24005KT 9999 FEW038 SCT240 10/08 Q1011 NOSIG

2010/08/09 23:00
EIDW 092300Z 24007KT 9999 FEW030 12/09 Q1009 NOSIG

2010/08/09 23:00
EINN 092300Z 23006KT 9999 FEW024 BKN048 14/11 Q1010 NOSIG

2010/08/09 22:55
KHRT 092255Z 24005KT 10SM FEW030 32/25 A2990 RMK AO2A SLP127 T03180251 $

2010/08/09 22:55
KMUO 092255Z VRB05KT 8SM VCSH FEW030 SCT050CB SCT150 BKN210 30/05 A2983 RMK AO2A LTG 5SW CB ALQDS MOV NE SLP075 T03020052

2010/08/09 23:00
VHHH 092300Z VRB03KT 9999 FEW020 29/24 Q1005 NOSIG

2010/08/09 23:00
RCTP 092300Z 21009KT 9999 FEW025 SCT200 30/24 Q1006 NOSIG

2010/08/09 23:00
RCKH 092300Z 06004KT 010V090 8000 VCSH FEW012 SCT025 BKN150 29/27 Q1007 TEMPO 5000 -SHRA

2010/08/09 23:00
RCSS 092300Z 25003KT 9999 FEW020 29/23 Q1006 NOSIG

2010/08/09 23:00
VMMC 092300Z 14004KT 090V190 9999 FEW010 SCT090 29/26 Q1005 NOSIG

2010/08/09 23:00
RPLL 092300Z 17009KT 5000 HZ SCT023 OVC100 27/25 Q1009 RMK HZ ALQDS A2980

2010/08/09 23:00
RPVM 092300Z 27004KT 9999 FEW020 BKN300 26/25 Q1010 RMK A2982

2010/08/09 23:00
RPMD 092300Z 00000 9999 FEW016 BKN090 BKN290 24/23 1010

2010/08/09 23:00
RPLB 092300Z VRB03KT 4000 -RA SCT015 OVC080 25/23 Q1010 RMK LGT RA CONTUS

2010/08/09 23:00
RPLI 092300Z 14002KT 9999 FEW019 BKN100 26/25 Q1007 NOSIG

2010/08/09 23:00
RPMZ 092300Z 02004KT 9999 FEW018 26/25 Q1010

2010/08/09 23:00
NZAA 092300Z 16006KT CAVOK 09/04 Q1027 NOSIG

2010/08/09 23:00
NZWN 092300Z 22004KT 200V260 9999 FEW038 09/03 Q1027 NOSIG 

2010/08/09 23:00
NZCH 092300Z 36002KT CAVOK 07/00 Q1026 NOSIG 

2010/08/09 23:00
SLLP 092300Z 12005KT 9999 SKC 09/M08 Q1037

2010/08/09 23:00
SLVR 092300Z 00000KT 7000 NSC 20/11 Q1016

2010/08/09 23:00
SLCB 092300Z 27011KT 9999 SKC 19/00 Q1022

2010/08/09 23:00
SLTJ 092300Z 13013KT 9999 SKC 13/08 Q1020

2010/08/09 23:00
SEQU 092300Z 10008KT 9999 SCT040 15/02 Q1026 RMK A3031 NOSIG

2010/08/09 23:00
SEGU 092300Z 22009KT 9999 FEW026 BKN100 25/19 Q1011 NOSIG

2010/08/09 23:00
VTBS 092300Z 17002KT 9000 FEW020 BKN300 26/24 Q1005 NOSIG

2010/08/09 23:00
VTBD 092300Z 20002KT 9999 FEW020 SCT120 BKN300 26/23 Q1004 NOSIG

2010/08/09 23:00
VTCC 092300Z 32002KT 9999 -RA BKN035 SCT110 26/24 Q1006 A2972

2010/08/09 23:00
VTBU 092300Z 23002KT 9999 FEW020 BKN300 29/26 Q1005 A2969

2010/08/09 23:00
VVTS 092300Z 22010KT 9999 SCT013 BKN040 24/24 Q1006 NOSIG

2010/08/09 23:00
VVNB 092300Z 31001KT 5000 NSC 26/25 Q1004 NOSIG

2010/08/09 23:00
VDPP 092300Z 18008KT 9999 SCT017 26/23 Q1004

2010/08/09 23:00
VVDN 092300Z VRB01KT 9999 FEW015 BKN250 25/23 Q1004 NOSIG

2010/08/09 23:00
FBMN 092300Z 18011KT CAVOK 16/M04 Q1024

2010/08/09 23:05
KCAO 092305Z AUTO 32013G21KT 10SM OVC075 28/13 A3003 RMK AO2 WSHFT 2245 TSNO 

2010/08/09 23:00
YPEA 092300Z 03009KT CAVOK 09/M03 Q1021 NOSIG

2010/08/09 23:00
YPEA 092300Z 03009KT CAVOK 09/M03 Q1021 NOSIG

2010/08/09 23:00
YPEA 092300Z 03009KT CAVOK 09/M03 Q1021 NOSIG

2010/08/09 23:00
YPEA 092300Z 03009KT CAVOK 09/M03 Q1021 NOSIG

2010/08/09 23:15
KCCA 092315Z AUTO 00000KT 10SM CLR 37/23 A2989 RMK AO2

2010/08/09 23:05
KFYJ 092305Z AUTO 11004KT 10SM CLR 31/21 A2999 RMK AO1

2010/08/09 22:55
KGZL 092255Z AUTO 22011G15KT 10SM 38/15 A2986 RMK AO2 PWINO

2010/08/09 23:04
KRHP 092304Z AUTO 17004KT SCT055 SCT100 31/23 A3004 RMK AO2 PWINO

2010/08/09 22:51
KABE 092251Z 22009KT 10SM CLR 31/20 A2993

2010/08/09 22:51
KALB 092251Z 25006KT 10SM FEW050 SCT110 BKN120 BKN250 29/18 A2989

2010/08/09 22:56
KART 092256Z AUTO 25008G16KT 2SM -RA BR SCT014 BKN024 BKN049 23/22 A2992

2010/08/09 22:54
KAVP 092254Z 23009KT 10SM CLR 31/16 A2994

2010/08/09 22:51
KBDL 092251Z 19012KT 5SM HZ FEW070 BKN085 BKN200 31/21 A2989

2010/08/09 22:52
KBDR 092252Z 23008KT 10SM CLR 28/19 A2993

2010/08/09 22:54
KBTV 092254Z 00000KT 10SM -RA FEW023 SCT047 BKN060 23/21 A2987

2010/08/09 22:54
KBUF 092254Z 36013KT 2SM RA BR FEW015 BKN045 OVC060 23/22 A2996

2010/08/09 22:56
KCAE 092256Z 12007KT 10SM FEW090 BKN210 33/22 A2998

2010/08/09 22:51
KCAK 092251Z 24005KT 7SM SCT065 BKN130 BKN180 28/19 A2998

2010/08/09 22:51
KCMH 092251Z 21005KT 10SM FEW055 BKN140 BKN200 31/18 A2995

2010/08/09 22:53
KCRQ 092253Z VRB05KT 10SM CLR 22/14 A2989

2010/08/09 22:54
KCRW 092254Z 00000KT 10SM CLR 31/19 A2999

2010/08/09 22:56
KDAY 092256Z 24003KT 9SM FEW200 SCT250 32/19 A2997

2010/08/09 22:51
KERI 092251Z 23003KT 6SM HZ SCT090 27/18 A2996

2010/08/09 22:54
KGSO 092254Z 17007KT 10SM FEW055 32/19 A3001

2010/08/09 22:53
KGSP 092253Z 16008KT 10SM CLR 31/22 A2999

2010/08/09 22:51
KHTS 092251Z 00000KT 10SM CLR 31/19 A2998

2010/08/09 22:53
KHUL 092253Z AUTO 23005KT 10SM CLR 23/17 A2981

2010/08/09 22:53
KIAG 092253Z 23003KT 1 1/4SM RA BR FEW007 BKN017 BKN060 OVC130 23/22 A2995

2010/08/09 22:51
KILG 092251Z 17013KT 10SM CLR 28/19 A2996

2010/08/09 22:53
KILM 092253Z AUTO 19010KT 10SM FEW025 SCT110 28/23 A3001

2010/08/09 22:53
KMSS 092253Z AUTO 20004KT 10SM FEW070 SCT095 24/21 A2988

2010/08/09 22:54
KORH 092254Z 24011KT 10SM SCT070 28/21 A2994

2010/08/09 22:51
KPVD 092251Z 21007KT 8SM FEW170 SCT220 SCT300 28/21 A2992

2010/08/09 22:51
KPWM 092251Z 00000KT 10SM SCT070 BKN090 BKN110 27/19 A2986

2010/08/09 22:54
KRIC 092254Z 19008KT 7SM FEW055 SCT250 32/18 A2997

2010/08/09 22:54
KROC 092254Z 27005KT 2SM +TSRA BR FEW009 BKN025CB OVC060 21/19 A2998

2010/08/09 22:54
KSYR 092254Z 31007KT 2 1/2SM RA BR BKN023 BKN060 OVC075 22/21 A2997

2010/08/09 23:05
KCAO 092305Z AUTO 32013G21KT 10SM OVC075 28/13 A3003 RMK AO2 WSHFT 2245 TSNO

2010/08/09 23:00
CXBK 092300Z AUTO 36003KT 27/11 RMK AO1 SLP098 T02680113 58005

2010/08/09 23:00
CXCH 092300Z AUTO 22/13 RMK AO1 T02160128

2010/08/09 23:00
CXCK 092300Z AUTO 14006KT 22/ RMK AO1 T0216

2010/08/09 23:00
CXET 092300Z AUTO 22003KT 22/20 RMK AO1 5001 SLP130 T02210202 50070

2010/08/09 23:00
CXOX 092300Z AUTO 31004KT 25/15 RMK AO1 SLP095 T02510153 52007

2010/08/09 23:00
CXSR 092300Z AUTO 28006KT 18/04 RMK AO1 SLP100 T01770036 51010

2010/08/09 23:00
CXSW 092300Z AUTO 22007KT RMK AO1 

2010/08/09 23:00
CXTP 092300Z AUTO 22007KT 19/15 RMK AO1 SLP159 T01860148 57004

2010/08/09 23:00
CXZU 092300Z AUTO 05007KT 15/14 RMK AO1 6PAST HR 0008 PK WND 03017/2209 SLP105 P0014 T01500143 50062

2010/08/09 23:00
CXET 092300Z AUTO 22003KT 22/20 RMK AO1 5001 SLP130 T02210202 50070

2010/08/09 23:00
CXOX 092300Z AUTO 31004KT 25/15 RMK AO1 SLP095 T02510153 52007

2010/08/09 23:00
CXSR 092300Z AUTO 28006KT 18/04 RMK AO1 SLP100 T01770036 51010

2010/08/09 23:00
CXSW 092300Z AUTO 22007KT RMK AO1 

2010/08/09 23:00
CXTP 092300Z AUTO 22007KT 19/15 RMK AO1 SLP159 T01860148 57004

2010/08/09 23:00
CXZU 092300Z AUTO 05007KT 15/14 RMK AO1 6PAST HR 0008 PK WND 03017/2209 SLP105 P0014 T01500143 50062

2010/08/09 23:00
CXET 092300Z AUTO 22003KT 22/20 RMK AO1 5001 SLP130 T02210202 50070

2010/08/09 23:00
CXOX 092300Z AUTO 31004KT 25/15 RMK AO1 SLP095 T02510153 52007

2010/08/09 23:00
CXSR 092300Z AUTO 28006KT 18/04 RMK AO1 SLP100 T01770036 51010

2010/08/09 23:00
CXSW 092300Z AUTO 22007KT RMK AO1 

2010/08/09 23:00
CXTP 092300Z AUTO 22007KT 19/15 RMK AO1 SLP159 T01860148 57004

2010/08/09 23:00
CXZU 092300Z AUTO 05007KT 15/14 RMK AO1 6PAST HR 0008 PK WND 03017/2209 SLP105 P0014 T01500143 50062

2010/08/09 23:00
CXET 092300Z AUTO 22003KT 22/20 RMK AO1 5001 SLP130 T02210202 50070

2010/08/09 23:00
CXOX 092300Z AUTO 31004KT 25/15 RMK AO1 SLP095 T02510153 52007

2010/08/09 23:00
CXSR 092300Z AUTO 28006KT 18/04 RMK AO1 SLP100 T01770036 51010

2010/08/09 23:00
CXSW 092300Z AUTO 22007KT RMK AO1 

2010/08/09 23:00
CXTP 092300Z AUTO 22007KT 19/15 RMK AO1 SLP159 T01860148 57004

2010/08/09 23:00
CXZU 092300Z AUTO 05007KT 15/14 RMK AO1 6PAST HR 0008 PK WND 03017/2209 SLP105 P0014 T01500143 50062

2010/08/09 23:00
NZAA 092300Z 16006KT CAVOK 09/04 Q1027 NOSIG

2010/08/09 23:00
NZWN 092300Z 22004KT 200V260 9999 FEW038 09/03 Q1027 NOSIG 

2010/08/09 23:00
NZCH 092300Z 36002KT CAVOK 07/00 Q1026 NOSIG 

2010/08/09 23:00
RPLL 092300Z 17009KT 5000 HZ SCT023 OVC100 27/25 Q1009 RMK HZ ALQDS A2980

2010/08/09 23:00
RPMZ 092300Z 02004KT 9999 FEW018 26/25 Q1010

2010/08/09 23:00
RPLB 092300Z VRB03KT 4000 -RA SCT015 OVC080 25/23 Q1010 RMK LGT RA CONTUS

2010/08/09 23:05
KART 092305Z AUTO 23006KT 2SM -RA BR BKN008 BKN020 BKN036 23/22 A2993 RMK AO2 LTG DSNT SE-W P0000

2010/08/09 23:04
KDIJ 092304Z AUTO 19005KT 10SM VCTS FEW042 BKN055 BKN075 16/08 A3016 RMK AO2 LTG DSNT SE AND S AND NW TSB2258 PRESRR $

2010/08/09 23:05
KSUX 092305Z 09006KT 10SM BKN030 29/24 A2986 RMK AO2

2010/08/09 23:05
KTOL 092305Z 32012G22KT 3/4SM +RA BR SCT010 BKN050 BKN075 26/23 A2994 RMK AO2 RAB2258 P0006 RVRNO

2010/08/09 22:59
PANW 092259Z AUTO 21011KT 1 1/4SM BR SCT004 BKN012 OVC090 11/10 A2960 RMK AO2 PWINO TSNO CIG 009V018 P0001 $

2010/08/09 23:00
SAME 092300Z 14003KT CAVOK 12/M02 Q1022

2010/08/09 23:00
CWMT 092300Z AUTO 24/ RMK AO1 SLP046 T0237 50000

2010/08/09 23:00
CWCT 092300Z AUTO 16009KT 25/10 RMK AO1 SLP094 T02470101 58011

2010/08/09 23:00
CWLB 092300Z AUTO 16003KT 24/09 RMK AO1 SLP098 T02410094 55001

2010/08/09 23:00
CWCT 092300Z AUTO 16009KT 25/10 RMK AO1 SLP094 T02470101 58011

2010/08/09 23:00
CWLB 092300Z AUTO 16003KT 24/09 RMK AO1 SLP098 T02410094 55001

2010/08/09 23:00
CWLP 092300Z AUTO 29015KT 14/12 RMK AO1 SLP161 T01370119 58007

2010/08/09 23:00
CWDC 092300Z AUTO 20002KT 18/17 RMK AO1 1012 SLP100 T01810169 50024

2010/08/09 23:00
CWEH 092300Z AUTO 18006KT 27/06 RMK AO1 SLP095 T02650064 58013

2010/08/09 23:00
CWKO 092300Z AUTO 05005KT 29/09 RMK AO1 SLP104 T02880093 58013

2010/08/09 23:00
CWOY 092300Z AUTO 29003KT 25/13 RMK AO1 SLP115 T02540127 58001

2010/08/09 23:00
CWVT 092300Z AUTO 05003KT 25/12 RMK AO1 SLP101 T02510124 51004

2010/08/09 23:00
CWZW 092300Z AUTO 18006KT 18/05 RMK AO1 SLP114 T01810054 58013

2010/08/09 23:00
CTRA 092300Z AUTO 19004KT 28/19 RMK AO1 SLP123 T02790187 56001

2010/08/09 23:00
CMFM 092300Z AUTO 24003KT 21/15 RMK AO1 SLP111 T02080147 55001

2010/08/09 23:00
CWEL 092300Z AUTO 12004KT 18/14 RMK AO1 8005 SLP131 T01820135 50004

2010/08/09 23:00
CWFJ 092300Z AUTO 12002KT 26/07 RMK AO1 T02550067

2010/08/09 23:00
CWFQ 092300Z AUTO 22002KT 24/21 RMK AO1 T02360211

2010/08/09 23:00
CWGB 092300Z AUTO 32004KT 19/14 RMK AO1 SLP134 T01930135 58008

2010/08/09 23:00
CWBY 092300Z AUTO 21007KT 19/15 RMK AO1 SLP059 T01940153 56007

2010/08/09 23:00
CWBY 092300Z AUTO 21007KT 19/15 RMK AO1 SLP059 T01940153 56007

2010/08/09 23:00
CWWE 092300Z AUTO 20007KT 13/13 RMK AO1 SLP139 T01270126 58010

2010/08/09 23:00
CWBV 092300Z AUTO 19014KT 19/17 RMK AO1 SLP145 T01860173 56016

2010/08/09 23:00
CWRN 092300Z AUTO 17008KT 18/17 RMK AO1 SLP146 T01810165 56015

2010/08/09 23:00
CWEP 092300Z AUTO 18012G18KT 21/17 RMK AO1 PK WND 18019/2232 SLP112 T02060174 56021

2010/08/09 23:00
CWER 092300Z AUTO 25010KT RMK AO1 

2010/08/09 23:00
CWSF 092300Z AUTO 12004KT 17/15 RMK AO1 SLP066 T01730147 55002

2010/08/09 23:00
CWSF 092300Z AUTO 12004KT 17/15 RMK AO1 SLP066 T01730147 55002

2010/08/09 23:00
WSSS 092300Z VRB05KT 9999 FEW015 BKN300 28/26 Q1009 NOSIG

2010/08/09 23:00
CERM 092300Z AUTO 18001KT 20/18 RMK AO1 9PAST HR 5000 SLP092 P0004 T01950179 50019

2010/08/09 23:00
CZSP 092300Z AUTO 18008KT 21/13 RMK AO1 SLP105 T02090125 56013

2010/08/09 23:00
CXZU 092300Z AUTO 05007KT 15/14 RMK AO1 6PAST HR 0008 PK WND 03017/2209 SLP105 P0014 T01500143 50062

2010/08/09 23:00
CWBE 092300Z AUTO 19002KT 22/19 RMK AO1 SLP136 T02170191 51005

2010/08/09 23:00
CWLS 092300Z AUTO 26003KT 22/21 RMK AO1 5000 SLP136 T02210207 50086

2010/08/09 23:00
CWWB 092300Z AUTO 22005KT 24/21 RMK AO1 SLP123 T02370207 58010

2010/08/09 23:00
CWAQ 092300Z AUTO 08007KT 31/08 RMK AO1 T03090084

2010/08/09 23:00
CWAV 092300Z AUTO 10007KT 21/09 RMK AO1 SLP091 T02120091 57008

2010/08/09 23:00
CWBA 092300Z AUTO 19002KT 26/17 RMK AO1 T02560166

2010/08/09 23:00
CWBO 092300Z AUTO 20006KT 27/11 RMK AO1 SLP083 T02710106 58011

2010/08/09 23:00
CWBS 092300Z AUTO 20011KT 26/ RMK AO1 T0257

2010/08/09 23:00
CXKI 092300Z AUTO 26/14 RMK AO1 SLP114 T02610140 57003

2010/08/09 23:00
CXLB 092300Z AUTO 21012KT 18/15 RMK AO1 PK WND 21017/2208 SLP134 T01820151 58012

2010/08/09 23:00
CXTD 092300Z AUTO 16005KT 19/15 RMK AO1 SLP138 T01910147 56012

2010/08/09 23:00
CWYY 092300Z AUTO 33012G21KT 24/10 RMK AO1 PK WND 35021/2211 T02360101

2010/08/09 23:00
CWZA 092300Z AUTO 19003KT 17/15 RMK AO1 4PAST HR 0000 SLP141 P0002 T01690151 50028

2010/08/09 23:00
CWZO 092300Z AUTO 17012KT RMK AO1 

2010/08/09 23:00
CWZS 092300Z AUTO 27003KT 24/15 RMK AO1 SLP075 T02420147 50000

2010/08/09 23:00
CWTN 092300Z AUTO 28003KT 24/19 RMK AO1 SLP088 T02370187 55005

2010/08/09 23:00
CWUS 092300Z AUTO 32007KT 24/07 RMK AO1 PK WND 31017/2209 SLP093 T02350070 53002

2010/08/09 23:00
CWVF 092300Z AUTO 19008KT 17/ RMK AO1 T0170

2010/08/09 23:00
CWVV 092300Z AUTO 16005KT 17/12 RMK AO1 8001 SLP145 T01710115 50014

2010/08/09 23:00
CWWA 092300Z AUTO 19001KT 18/13 RMK AO1 8003 SLP140 T01750129 50012

2010/08/09 23:00
CWWF 092300Z AUTO 08007KT 29/15 RMK AO1 SLP103 T02920147 58008

2010/08/09 23:00
CWWK 092300Z AUTO 18002KT 16/14 RMK AO1 8PAST HR 0000 SLP155 P0003 T01550135 50014

2010/08/09 23:00
CWXA 092300Z AUTO 26009G15KT 22/07 RMK AO1 SLP083 T02180070 58004

2010/08/09 23:00
SARE 092300Z 14004KT 6000 NSC 12/08 Q1022

2010/08/09 23:00
CWQK 092300Z AUTO 27012KT RMK AO1 PK WND 25018/2201

2010/08/09 23:00
CWQP 092300Z AUTO 24018KT 21/20 RMK AO1 3PAST HR 0005 PK WND 24027/2226 SLP130 P0005 T02140198 50026

2010/08/09 23:00
CWRT 092300Z AUTO 29008KT 23/11 RMK AO1 T02250108

2010/08/09 23:00
CWRY 092300Z AUTO 24006KT 27/05 RMK AO1 SLP084 T02730050 58013

2010/08/09 23:00
CWRZ 092300Z AUTO 25006KT 17/17 RMK AO1 SLP072 T01710166 56010

2010/08/09 23:00
CWSD 092300Z AUTO 23010KT 20/17 RMK AO1 6009 PK WND 23017/2220 SLP106 T01950174 50014

2010/08/09 23:00
CWSK 092300Z AUTO 16008KT 19/14 RMK AO1 SLP125 T01910138 58004

2010/08/09 23:00
CWSL 092300Z AUTO 01017G23KT 20/12 RMK AO1 PK WND 35023/2222 SLP106 T02010123 52008

2010/08/09 23:00
CWSP 092300Z AUTO 30010KT 15/11 RMK AO1 8007 PK WND 29018/2215 SLP140 T01460112 50006

2010/08/09 23:00
CWRZ 092300Z AUTO 25006KT 17/17 RMK AO1 SLP072 T01710166 56010

2010/08/09 23:00
CWSD 092300Z AUTO 23010KT 20/17 RMK AO1 6009 PK WND 23017/2220 SLP106 T01950174 50014

2010/08/09 23:00
CWSK 092300Z AUTO 16008KT 19/14 RMK AO1 SLP125 T01910138 58004

2010/08/09 23:00
CWSL 092300Z AUTO 01017G23KT 20/12 RMK AO1 PK WND 35023/2222 SLP106 T02010123 52008

2010/08/09 23:00
CWSP 092300Z AUTO 30010KT 15/11 RMK AO1 8007 PK WND 29018/2215 SLP140 T01460112 50006

2010/08/09 23:00
CWGR 092300Z AUTO 19013G19KT 20/16 RMK AO1 PK WND 17021/2226 SLP108 T01980160 56012

2010/08/09 23:00
CWGT 092300Z AUTO 25001KT 19/12 RMK AO1 SLP130 T01880118 58012

2010/08/09 23:00
CWGW 092300Z AUTO 08006KT 22/11 RMK AO1 SLP097 T02190105 58007

2010/08/09 23:00
CWGY 092300Z AUTO 20008KT 28/09 RMK AO1 PK WND 18017/2245 SLP091 T02790089 58013

2010/08/09 23:00
CWHL 092300Z AUTO 27001KT 14/ RMK AO1 SLP161 T0137 50002

2010/08/09 23:00
CWHT 092300Z AUTO 27010G18KT 17/05 RMK AO1 18 6013 SLP088 T01720048

2010/08/09 23:00
CWIP 092300Z AUTO 27009KT 22/ RMK AO1 T0220

2010/08/09 23:00
CWIT 092300Z AUTO 28002KT 25/20 RMK AO1 T02490203

2010/08/09 23:00
CWJB 092300Z AUTO 23005KT 25/17 RMK AO1 T02510168

2010/08/09 23:00
CWJC 092300Z AUTO 22/06 RMK AO1 24 5001 SLP140 T02150059

2010/08/09 23:00
CWGY 092300Z AUTO 20008KT 28/09 RMK AO1 PK WND 18017/2245 SLP091 T02790089 58013

2010/08/09 23:00
CWHL 092300Z AUTO 27001KT 14/ RMK AO1 SLP161 T0137 50002

2010/08/09 23:00
CWHT 092300Z AUTO 27010G18KT 17/05 RMK AO1 18 6013 SLP088 T01720048

2010/08/09 23:00
CWIP 092300Z AUTO 27009KT 22/ RMK AO1 T0220

2010/08/09 23:00
CWIT 092300Z AUTO 28002KT 25/20 RMK AO1 T02490203

2010/08/09 23:00
CWJB 092300Z AUTO 23005KT 25/17 RMK AO1 T02510168

2010/08/09 23:00
CWJC 092300Z AUTO 22/06 RMK AO1 24 5001 SLP140 T02150059

2010/08/09 23:00
CWJR 092300Z AUTO 29004KT 26/ RMK AO1 SLP075 T0261 56026

2010/08/09 23:00
CWJT 092300Z AUTO 28002KT 22/16 RMK AO1 8003 SLP112 T02220161 50010

2010/08/09 23:00
CWJV 092300Z AUTO 33003KT 22/11 RMK AO1 SLP087 T02200108 55000

2010/08/09 23:00
CWKX 092300Z AUTO 25006KT 17/04 RMK AO1 SLP140 T01730041 58008

2010/08/09 23:00
CWLM 092300Z AUTO 21003KT 13/11 RMK AO1 T01260112 50006

2010/08/09 23:00
CWMJ 092300Z AUTO 21005KT 26/14 RMK AO1 SLP117 T02610142 56005

2010/08/09 23:00
CWMM 092300Z AUTO 19004KT 16/13 RMK AO1 8003 SLP147 T01630127 50004

2010/08/09 22:58
PTYA 092258Z 16008KT 12SM FEW016 SCT130 BKN300 31/25 A2989 RMK SLP122 T03120252

2010/08/09 23:00
YSSY 092300Z 05007KT 5000 -RA FEW050 BKN074 OVC110 11/10 Q1019 FM0030 36015KT 8000 -RA FEW010 SCT025 BKN045 TEMPO 2300/0200 4000 RA BKN010

2010/08/09 23:00
CWNP 092300Z AUTO 33005KT 20/20 RMK AO1 2PAST HR 3001 SLP091 P0001 T02020195 50006

2010/08/09 23:00
CWOE 092300Z AUTO 15008KT 30/09 RMK AO1 T02960085

2010/08/09 23:00
CWPD 092300Z AUTO 17003KT 20/11 RMK AO1 SLP084 T01970106 53001

2010/08/09 23:00
CWPE 092300Z AUTO 18003KT 14/14 RMK AO1 SLP116 T01440139 58011

2010/08/09 23:00
CWPF 092300Z AUTO 20004KT 13/12 RMK AO1 8002 SLP140 T01320121 50008

2010/08/09 23:00
CWPR 092300Z AUTO 31003KT 17/ RMK AO1 PK WND 33017/2230 SLP124 T0172 53004

2010/08/09 23:00
CWPZ 092300Z AUTO 29007KT 19/05 RMK AO1 SLP133 T01940045 58002

2010/08/09 23:00
CWPR 092300Z AUTO 31003KT 17/ RMK AO1 PK WND 33017/2230 SLP124 T0172 53004

2010/08/09 23:00
CWPZ 092300Z AUTO 29007KT 19/05 RMK AO1 SLP133 T01940045 58002

2010/08/09 23:00
CWPR 092300Z AUTO 31003KT 17/ RMK AO1 PK WND 33017/2230 SLP124 T0172 53004

2010/08/09 23:00
CWPZ 092300Z AUTO 29007KT 19/05 RMK AO1 SLP133 T01940045 58002

2010/08/09 23:15
KCCA 092315Z AUTO 00000KT 10SM CLR 37/23 A2989 RMK AO2

2010/08/09 23:05
KFYJ 092305Z AUTO 11004KT 10SM CLR 31/21 A2999 RMK AO1

2010/08/09 23:04
KRHP 092304Z AUTO 17004KT SCT055 SCT100 31/23 A3004 RMK AO2 PWINO

2010/08/09 22:57
PHNG 092257Z AUTO 07011G17KT 10SM SCT043 28/18 A3011 RMK AO2 SLP190 T02830183 $

2010/08/09 22:55
KHRT 092255Z 24005KT 10SM FEW030 32/25 A2990 RMK AO2A SLP127 T03180251 $

2010/08/09 22:55
KMUO 092255Z VRB05KT 8SM VCSH FEW030 SCT050CB SCT150 BKN210 30/05 A2983 RMK AO2A LTG 5SW CB ALQDS MOV NE SLP075 T03020052

2010/08/09 23:05
KTOL 092305Z 32012G22KT 3/4SM +RA BR SCT010 BKN050 BKN075 26/23 A2994 RMK AO2 RAB2258 P0006 RVRNO

2010/08/09 23:05
KCAO 092305Z AUTO 32013G21KT 10SM OVC075 28/13 A3003 RMK AO2 WSHFT 2245 TSNO

2010/08/09 23:04
PATA 092304Z 11006KT 10SM BKN015 BKN049 BKN060 16/12 A2958 RMK AO2 $

2010/08/09 23:05
KART 092305Z AUTO 23006KT 2SM -RA BR BKN008 BKN020 BKN036 23/22 A2993 RMK AO2 LTG DSNT SE-W P0000

2010/08/09 23:04
KDIJ 092304Z AUTO 19005KT 10SM VCTS FEW042 BKN055 BKN075 16/08 A3016 RMK AO2 LTG DSNT SE AND S AND NW TSB2258 PRESRR $

2010/08/09 23:05
KSUX 092305Z 09006KT 10SM BKN030 29/24 A2986 RMK AO2

2010/08/09 22:59
PANW 092259Z AUTO 21011KT 1 1/4SM BR SCT004 BKN012 OVC090 11/10 A2960 RMK AO2 PWINO TSNO CIG 009V018 P0001 $

2010/08/09 22:55
KGZL 092255Z AUTO 22011G15KT 10SM 38/15 A2986 RMK AO2 PWINO

2010/08/09 23:00
YSCB 092300Z 33002KT 6000 -RA FEW009 SCT014 BKN045 10/08 Q1016 FM2300 09010KT 6000 -RA SCT010 BKN015 BKN060 TEMPO 2300/0200 4000 RA BKN006

2010/08/09 23:00
OOSA 092300Z 140P6KT 600 FEW008 BKN012 OVC025 25/22 Q1003 NOSIG RMK05 RH84

2010/08/09 23:00
FVHA 092300Z 13003KT CAVOK 15/03 Q1025 NOSIG

2010/08/09 23:00
TAPA 092300Z 10008KT 9999 SCT017 BKN270 28/25 Q1014 RMK CB TOP NW/SSE/TCU ENE

2010/08/09 23:00
TKPK 092300Z 03009KT 9999 FEW016 SCT050 BKN260 27/25 Q1014

2010/08/09 23:00
MGPB 092300Z 03006KT 9999 FEW020 SCT200 31/25 Q1009 A2980 CB DIST NW

2010/08/09 23:00
MGSJ 092300Z 15006KT 9999 SCT016 SCT024CB 31/25 Q1011 A2985 CB/PCPN W/NW CB NE

2010/08/09 23:00
RCKH 092300Z 06004KT 010V090 8000 VCSH FEW012 SCT025 BKN150 29/27 Q1007 TEMPO 5000 -SHRA

2010/08/09 23:00
RCSS 092300Z 25003KT 9999 FEW020 29/23 Q1006 NOSIG

2010/08/09 23:00
RCTP 092300Z 21009KT 9999 FEW025 SCT200 30/24 Q1006 NOSIG

2010/08/09 23:00
MGHT 092300Z 19006KT 9999 FEW025 FEW030CB BKN090 24/15 QFE 815.8 CB/PCPN WNW

2010/08/09 23:00
ZYHB 092300Z 19006MPS 3000 BR NSC 18/17 Q1005 NOSIG

2010/08/09 23:00
CYAW 092300Z 19005KT 15SM FEW020 BKN060 18/17 A2995 RMK CF2SC2 DA+722FT SLP142

2010/08/09 23:00
CYBG 092300Z 26006KT 25SM FEW045 SCT050 25/12 A2979 RMK CU2SC2 SLP090

2010/08/09 23:00
CYDQ 092300Z AUTO 24010G15KT 230V290 9SM BKN091 21/03 A2981 RMK SLP099 DENSITY ALT 3400FT MAX WND 26020KT AT 2208Z

2010/08/09 23:00
CYEG 092300Z 07005KT 15SM SCT061 BKN260 23/15 A2979 RMK CU3CI1 TCU ASOCTD SLP088

2010/08/09 23:00
CYFB 092300Z 34002KT 15SM -RA OVC040 13/11 A2982 RMK SC8 SLP100

2010/08/09 23:00
CYFC 092300Z AUTO 15005KT 9SM CLR 22/20 A2983 RMK PRESFR SLP102 DENSITY ALT 1000FT PCPN 8.4MM PAST HR RVR MISG

2010/08/09 23:00
CYGL 092300Z 30007KT 12SM VCSH BKN007 OVC012 12/10 A2986 RMK SC5SC3 OCNL -SHRA SLP120

2010/08/09 23:00
CYHZ 092300Z 19012G19KT 15SM FEW004 BKN100 19/17 A2994 RMK CU2AC5 SLP139

2010/08/09 23:00
CYJT 092300Z 00000KT 15SM -RA FEW025 BKN040 OVC090 18/16 A2991 RMK SC2SC4AC2 SLP129

2010/08/09 23:00
CYKL 092300Z AUTO 33008KT 270V350 9SM FEW039 FEW048 SCT055 12/09 A2963 RMK SLP049

2010/08/09 23:00
CYMH 092300Z AUTO 24012G17KT 9SM FEW097 17/15 A2969 RMK SLP055

2010/08/09 23:00
CYMX 092300Z 24003KT 25SM FEW050 BKN200 25/17 A2987 RMK SC1CI2 SLP114

2010/08/09 23:00
CYOW 092300Z 27004KT 15SM FEW045TCU FEW120 BKN220 26/20 A2989 RMK TCU1AC1CI2 SLP123

2010/08/09 23:00
CYPL 092300Z 00000KT 15SM FEW050 SCT260 27/15 A2990 RMK CU2CI1 SLP126

2010/08/09 23:00
CYQB 092300Z 24011KT 15SM FEW030TCU FEW070 SCT240 25/18 A2983 RMK TCU1AC1CI1 SLP102

2010/08/09 23:00
CYQG 092300Z 19004KT 10SM BKN059 OVC080 26/22 A2994 RMK SC6AC2 SLP135

2010/08/09 23:00
CYQM 092300Z 23008KT 12SM OVC011 20/19 A2986 RMK SF8 SLP111

2010/08/09 23:00
CYQQ 092300Z 11007KT 20SM FEW040 FEW080 20/13 A2993 RMK SC2AC1 SLP136

2010/08/09 23:00
CYQX 092300Z 21014KT 15SM BKN130 OVC170 20/15 A2996 RMK AC5AS2 SLP147

2010/08/09 23:00
CYQY 092300Z 18007KT 15SM SCT140 SCT220 18/14 A2996 RMK AC3CC1 SLP148

2010/08/09 23:00
CYSJ 092300Z 22006KT 1/4SM R23/2400FT/N FG VV001 16/15 A2989 RMK FG8 SLP124

2010/08/09 23:00
CYTE 092300Z AUTO 00000KT 9SM SCT074 SCT097 17/09 A2985 RMK SLP111

2010/08/09 23:00
CYTR 092300Z 22008KT 4SM -SHRA BR SCT006 BKN015 OVC045 23/18 A2991 RMK SF4SC2SC2 SLP130

2010/08/09 23:00
CYUL 092300Z 26007KT 15SM FEW070 BKN240 26/17 A2986 RMK AC1CI2 SLP113

2010/08/09 23:00
CYUY 092300Z 35003KT 15SM FEW050 FEW100 FEW250 26/14 A2989 RMK CU1AC2CI1 SLP124

2010/08/09 23:00
CYVP 092300Z 32009KT 15SM OVC011 08/05 A2974 RMK SC8 SLP074

2010/08/09 23:00
CYVR 092300Z 21006KT 15SM FEW017 BKN075 BKN120 18/11 A2996 RMK CU1AC4AC1 SLP145

2010/08/09 23:00
CYWG 092300Z 18006KT 15SM FEW088 FEW280 33/21 A2980 RMK AC1CI1 TR AC SLP088

2010/08/09 23:00
CYWK 092300Z 26004KT 15SM FEW015 BKN052 12/11 A2971 RMK SF1SC6 SLP070

2010/08/09 23:00
CYXU 092300Z 00000KT 3SM -SHRA BR FEW027 SCT040 BKN052 OVC090 24/23 A2996 RMK SF2SC2SC2AC2 SLP141

2010/08/09 23:00
CYXX 092300Z 22010KT 8SM -SHRA BKN020 OVC030 17/12 A2997 RMK SC5SC3 PCPN VRY LGT CVCTV CLD EMBD SLP148

2010/08/09 23:00
CYXY 092300Z 13010G15KT 40SM FEW060 SCT160 BKN250 18/05 A2977 RMK SC1AC2CI0 SLP099

2010/08/09 23:00
CYYC 092300Z 11006KT 40SM -TSRA SCT060CB BKN090 BKN220 21/10 A2982 RMK CB3AC3CI0 LTGCC SLP093

2010/08/09 23:00
CYYJ 092300Z 12005KT 20SM FEW014 BKN026 BKN087 17/14 A2996 RMK SC1SC5AC2 SLP144

2010/08/09 23:00
CYYQ 092300Z 07012KT 15SM SCT008 12/11 A3001 RMK ST3 SLP164

2010/08/09 23:00
CYYR 092300Z 28007KT 15SM -SHRA FEW046 SCT068 BKN098 BKN250 20/11 A2961 RMK CU2AC2AC1CI0 SLP029

2010/08/09 23:00
CYYT 092300Z 23013KT 15SM FEW120 BKN220 19/13 A3007 RMK AC2CI3 SLP182

2010/08/09 23:00
CYYZ 092300Z 00000KT 12SM SCT025 OVC150 23/21 A2993 RMK SC4AC4 SLP135

2010/08/09 23:00
CYZF 092300Z 17010KT 15SM FEW028 SCT110 BKN210 20/13 A2973 RMK SC2AC1CI1 SLP074

2010/08/09 23:00
CYZV 092300Z 29007KT 30SM BKN070 BKN250 22/13 A2969 RMK AC5CI1 SLP054

2010/08/09 23:00
CYZX 092300Z 23009KT 15SM BKN042 OVC070 24/16 A2989 RMK SC5AC2 WNDY HILL 23009G17KT SLP121

2010/08/09 23:00
CYZY 092300Z AUTO 02003KT 9SM OVC076 17/07 A2988 RMK SLP126 DENSITY ALT 3000FT

2010/08/09 23:00
CZBF 092300Z 00000KT 15SM FEW020 SCT050 BKN090 BKN150 BKN250 22/18 A2977 RMK CF1SC3AC2AC1CI1 SLP082

2010/08/09 23:00
EPSC 092300Z 00000KT CAVOK 15/15 Q1016

2010/08/09 23:00
UKBB 092300Z 28002MPS 9999 FEW033CB 23/20 Q1014 88290095 TEMPO 1000 TSRA

2010/08/09 23:00
UKKK 092300Z 00000MPS 6000 SCT030CB BKN050 23/20 Q1015 08CLRD70 NOSIG

2010/08/09 23:00
UKLL 092300Z 00000MPS CAVOK 14/14 Q1017 31290550 TEMPO -TSRAGR

2010/08/09 23:00
UKOO 092300Z 01004MPS CAVOK 28/16 Q1011 34090070 NOSIG

2010/08/09 23:00
UMMS 092300Z 33004MPS CAVOK 18/16 Q1016 R31/290060 NOSIG

2010/08/09 23:00
LRAR 092300Z 00000KT CAVOK 17/17 Q1017

2010/08/09 23:00
LRTC 092300Z AUTO 33010KT 9999 NCD 24/19 Q1011

2010/08/09 23:00
LRTM 092300Z 25004KT 9999 SCT043 19/18 Q1017

2010/08/09 23:00
LJLJ 092300Z 00000KT 9999 BKN030 18/16 Q1018 NOSIG

2010/08/09 23:00
LJMB 092300Z VRB01KT CAVOK 15/15 Q1018

2010/08/09 23:00
LJPZ 092300Z AUTO 12005KT 9999NDV NCD 18/17 Q1015

2010/08/09 23:00
LKMT 092300Z 21002KT CAVOK 15/14 Q1017 NOSIG RMK REG QNH 1015

2010/08/09 23:00
LKPR 092300Z 25002KT CAVOK 13/12 Q1018 NOSIG RMK REG QNH 1015

2010/08/09 23:00
LKTB 092300Z VRB02KT CAVOK 15/12 Q1017 NOSIG RMK REG QNH 1015

2010/08/09 23:00
LPAZ 092300Z 05010KT 9999 SCT018 BKN036 21/15 Q1021

2010/08/09 23:00
LPFR 092300Z 27004KT 240V310 CAVOK 28/19 Q1014

2010/08/09 23:00
LPPD 092300Z 05004KT 020V090 9999 FEW018 BKN040 20/14 Q1021

2010/08/09 23:00
LPPR 092300Z 00000KT CAVOK 23/18 Q1016

2010/08/09 23:00
LPPS 092300Z 01009KT 9999 SCT014 SCT030 22/19 Q1016

2010/08/09 23:00
LPPT 092300Z 29004KT 250V320 CAVOK 31/12 Q1015 NOSIG

2010/08/09 23:00
FMEE 092300Z 14013KT 9999 VCSH FEW026 SCT060 20/18 Q1022 TEMPO 5000 SHRA

2010/08/09 22:45
LIBR 092245Z 33011KT CAVOK 24/20 Q1014 NOSIG RMK SKC VIS MIN 9999 WIND THR13 WIND THR31 31009KT BLU

2010/08/09 22:50
LIBD 092250Z 26005KT CAVOK 20/15 Q1014 RMK VIS MIN 9999

2010/08/09 22:50
LIBP 092250Z 00000KT 9999 SCT070 22/20 Q1015 RMK VIS MIN 9999

2010/08/09 22:50
LICA 092250Z VRB03KT 9999 FEW015 BKN020 24/20 Q1015 RMK VIS MIN 9999

2010/08/09 22:50
LICC 092250Z 28004KT CAVOK 24/20 Q1015 RMK VIS MIN 9999

2010/08/09 22:50
LICJ 092250Z VRB03KT CAVOK 24/17 Q1016 RMK VIS MIN 9999

2010/08/09 22:55
LICT 092255Z 00000KT CAVOK 23/20 Q1016 RMK SKC VIS MIN 9999 WIND THR13 35001KT BLU

2010/08/09 22:50
LIEA 092250Z 05003KT 030V090 CAVOK 17/11 Q1017 RMK VIS MIN 9999

2010/08/09 22:50
LIEO 092250Z 20003KT CAVOK 22/17 Q1016 RMK VIS MIN 9999

2010/08/09 22:45
LIPH 092245Z 01001KT 9999 SCT080 23/19 Q1015 RMK SCT VIS MIN 9999 WIND THR07 /////KT BLU

2010/08/09 22:45
LIPR 092245Z 20002KT CAVOK 22/22 Q1014 RMK SKC VIS MIN 9999 WIND THR31 00000KT BLU

2010/08/09 22:45
LIPX 092245Z 04005KT 9999 FEW040 23/23 Q1015 RMK FEW VIS MIN 9999 BLU

2010/08/09 22:50
LIPO 092250Z 05005KT CAVOK 22/17 Q1015 RMK VIS MIN 9999

2010/08/09 22:50
LIPY 092250Z 17003KT CAVOK 21/18 Q1014 RMK VIS MIN 9999

2010/08/09 22:55
LIBV 092255Z 35003KT CAVOK 19/17 Q1013 RMK SKC VIS MIN 9999 WIND THR14 33005KT BLU

2010/08/09 22:50
LICD 092250Z VRB02KT CAVOK 24/20 Q1014 RMK VIS MIN 9999

2010/08/09 22:55
LIED 092255Z 36006KT CAVOK 24/07 Q1015 RMK SCT SCT080 VIS MIN 9999 BLU

2010/08/09 22:55
LIMU 092255Z 02004KT 9999 FEW026 23/23 Q1017 RMK SCT QUK / QUL / VIS MAR 25 KM VIS MIN 9999

2010/08/09 22:55
LIPC 092255Z 25004KT CAVOK 20/20 Q1014 RMK SCT SCT200 VIS MIN 9999 WIND THR12 25004KT BLU

2010/08/09 22:55
LIPS 092255Z 00000KT 9999 FEW040 22/19 Q1015 RMK FEW VIS MIN 9999 BLU

2010/08/09 22:45
LIPX 092245Z 04005KT 9999 FEW040 23/23 Q1015 RMK FEW VIS MIN 9999 BLU

2010/08/09 22:55
LIRE 092255Z 00000KT CAVOK 20/18 Q1015 RMK SKC VIS MIN 9999 WIND THR31 00000KT BLU

2010/08/09 22:55
LIVD 092255Z 00000KT CAVOK 15/13 Q1021 RMK SKC VIS MIN 9999

2010/08/09 22:55
LIVP 092255Z 19005KT 9999 0900S FEW005 10/09 Q1024 RMK FEW MON S INVIS VAL S NEBBIA SCT VIS MIN 0900S

2010/08/09 22:55
LIVT 092255Z 10004KT CAVOK 23/17 Q1015 RMK SKC QUK / QUL / VIS MAR 20 KM VIS MIN 9999

2010/08/09 23:00
RJAA 092300Z 17007KT 9999 FEW015 28/24 Q1016 NOSIG RMK 2CU015 A3001

2010/08/09 23:00
RJCC 092300Z 17007KT 8000 FEW002 BKN003 BKN006 23/21 Q1014 RMK 1ST002 6ST003 7ST006 A2997

2010/08/09 23:00
RJFK 092300Z 11009KT 9999 FEW010 SCT120 BKN/// 27/24 Q1013 RMK 1CU010 3AC120 A2992

2010/08/09 23:00
RJOO 092300Z 23006KT 180V260 9999 -SHRA FEW008 SCT015 BKN090 28/24 Q1014 RMK 1ST008 3CU015 6AC090 A2996

2010/08/09 23:00
RJTT 092300Z 14008KT 9999 FEW012 SCT020 BKN080 28/23 Q1016 RMK 1CU012 3CU020 6AC080 A3000

2010/08/09 22:55
TXKF 092255Z 19010KT 9999 FEW018 SCT180 BKN300 28/23 Q1021 /

2010/08/09 22:58
PTYA 092258Z 16008KT 12SM FEW016 SCT130 BKN300 31/25 A2989 RMK SLP122 T03120252

2010/08/09 23:00
LPAZ 092300Z 05010KT 9999 SCT018 BKN036 21/15 Q1021

2010/08/09 23:00
LPFR 092300Z 27004KT 240V310 CAVOK 28/19 Q1014

2010/08/09 23:00
LPHR 092300Z 01005KT 9999 FEW016 SCT035 21/16 Q1022

2010/08/09 23:00
LPMA 092300Z 26004KT 9999 FEW013 22/19 Q1015 RS21001KT 0526004KT 2329004KT

2010/08/09 23:00
LPPD 092300Z 05004KT 020V090 9999 FEW018 BKN040 20/14 Q1021

2010/08/09 23:00
LPPR 092300Z 00000KT CAVOK 23/18 Q1016

2010/08/09 23:00
LPPS 092300Z 01009KT 9999 SCT014 SCT030 22/19 Q1016

2010/08/09 23:00
LPPT 092300Z 29004KT 250V320 CAVOK 31/12 Q1015 NOSIG

2010/08/09 23:00
RPLB 092300Z VRB03KT 4000 -RA SCT015 OVC080 25/23 Q1010 RMK LGT RA CONTUS

2010/08/09 23:00
RPLL 092300Z 17009KT 5000 HZ SCT023 OVC100 27/25 Q1009 RMK HZ ALQDS A2980

2010/08/09 23:00
RPMD 092300Z 00000 9999 FEW016 BKN090 BKN290 24/23 1010

2010/08/09 23:00
RPMZ 092300Z 02004KT 9999 FEW018 26/25 Q1010

2010/08/09 23:00
RPVM 092300Z 27004KT 9999 FEW020 BKN300 26/25 Q1010 RMK A2982

2010/08/09 23:00
UMGG 092300Z 04004MPS 9999 FEW036 SCT100 20/19 Q1014 R28/290350 NOSIG

2010/08/09 23:00
UMMS 092300Z 33004MPS CAVOK 18/16 Q1016 R31/290060 NOSIG

2010/08/09 23:00
SEGU 092300Z 22009KT 9999 FEW026 BKN100 25/19 Q1011 NOSIG

2010/08/09 23:00
SEQU 092300Z 10008KT 9999 SCT040 15/02 Q1026 RMK A3031 NOSIG

2010/08/09 23:00
SPQU 092300Z 27006KT CAVOK 14/M13 Q1027 NOSIG RMK PP000

2010/08/09 23:00
SPSO 092300Z 21006KT 8000 SKC 17/13 Q1016 RMK BIRDS HAZARD RWY 22/04 W PP000

2010/08/09 23:00
SPTN 092300Z 21006KT CAVOK 13/09 Q1014 RMK PP000

2010/08/09 23:00
SPZO 092300Z 35003KT 300V040 9999 SKC 16/M15 Q1030 NOSIG RMK PP000

2010/08/09 23:00
SLCB 092300Z 27011KT 9999 SKC 19/00 Q1022

2010/08/09 23:00
SLLP 092300Z 12005KT 9999 SKC 09/M08 Q1037

2010/08/09 23:00
SLTJ 092300Z 13013KT 9999 SKC 13/08 Q1020

2010/08/09 23:00
SLVR 092300Z 00000KT 7000 NSC 20/11 Q1016

2010/08/09 23:00
UKBB 092300Z 28002MPS 9999 FEW033CB 23/20 Q1014 88290095 TEMPO 1000 TSRA

2010/08/09 23:00
UKDD 092300Z 04003MPS CAVOK 24/14 Q1012 08090070 NOSIG

2010/08/09 23:00
UKDE 092300Z 34002MPS CAVOK 23/13 Q1011 02CLRD70 NOSIG

2010/08/09 23:00
UKDR 092300Z 02002MPS CAVOK 26/12 Q1012 1809//70 NOSIG

2010/08/09 23:00
UKFF 092300Z 07004MPS CAVOK 23/14 Q1010 01010070 NOSIG

2010/08/09 23:00
UKHH 092300Z 34002MPS 4800 DU SKC 25/15 Q1013 080///65 NOSIG

2010/08/09 23:00
UKKK 092300Z 00000MPS 6000 SCT030CB BKN050 23/20 Q1015 08CLRD70 NOSIG

2010/08/09 23:00
UKKM 092300Z 35001MPS 2800 BR FEW028CB BKN080 22/21 Q1015

2010/08/09 23:00
UKLL 092300Z 00000MPS CAVOK 14/14 Q1017 31290550 TEMPO -TSRAGR

2010/08/09 23:00
UKOO 092300Z 01004MPS CAVOK 28/16 Q1011 34090070 NOSIG

2010/08/09 23:00
LERT 092300Z 16006KT 120V190 CAVOK 29/09 Q1015 NOSIG

2010/08/09 23:00
CWAE 092300Z 18005KT 15SM FEW018 BKN052 OVC073 16/11 A2993 RMK SC2SC5AC2 WND ESTD SLP130

2010/08/09 23:00
CWCA 092300Z 20006KT 15SM BKN030 BKN070 16/13 A2962 RMK SC5AC2 SLP030

2010/08/09 23:00
CWCL 092300Z AUTO 36002KT 9SM OVC023 13/08 A2995 RMK SLP148

2010/08/09 23:00
CWEU 092300Z 27014KT 40SM FEW080 03/M00 A3001 RMK AC1 AC LENT SLP164

2010/08/09 23:00
CWFD 092300Z AUTO 35026KT 3/8SM 05/ RMK ALTM MISG

2010/08/09 23:00
CWHN 092300Z AUTO 19010KT 180V250 9SM FEW045 FEW061 FEW076 SCT090 25/11 A2982 RMK SLP103

2010/08/09 23:00
CWIL 092300Z AUTO 20006KT 19/ A2984 RMK SLP112

2010/08/09 23:00
CWKM 092300Z AUTO 04011KT 10/ A2971 RMK SLP067

2010/08/09 23:00
CWKW 092300Z AUTO 03008KT 06/ A2971 RMK SLP081

2010/08/09 23:00
CWLI 092300Z AUTO 18002KT 12/ A2977 RMK SLP092

2010/08/09 23:00
CWLX 092300Z AUTO 30011KT 17/ A2987 RMK SLP126

2010/08/09 23:00
CWLY 092300Z AUTO 01003KT 9SM BKN033 OVC066 16/13 A2994 RMK SLP140

2010/08/09 23:00
CWOB 092300Z AUTO ///// 0SM CLR 04/ A2973 RMK SLP103

2010/08/09 23:00
CWRH 092300Z AUTO ///// 04/ A2976 RMK SLP104

2010/08/09 23:00
CWRX 092300Z AUTO 31006KT 13/ A2989

2010/08/09 23:00
CWSA 092300Z AUTO 13007KT 5SM OVC027 18/17 A2998 RMK SLP153

2010/08/09 23:00
CWSW 092300Z 09005KT 20SM FEW056 FEW130 FEW260 22/09 A2984 RMK CU1AC1CI1 TCU ASOCTD SLP097

2010/08/09 23:00
CWTU 092300Z AUTO 25006G17KT 12/ A2960 RMK SLP034

2010/08/09 23:00
CWUP 092300Z AUTO 34004KT 04/ A2992 RMK SLP155

2010/08/09 23:00
CWUW 092300Z AUTO ///// 9SM CLR 13/ A2990 RMK SLP149

2010/08/09 23:00
CWVD 092300Z AUTO ///// 03/ A2987 RMK SLP151

2010/08/09 23:00
CWVH 092300Z AUTO 10010KT 14/ A2972 RMK SLP078

2010/08/09 23:00
CWXR 092300Z AUTO 03003KT 08/ A2976 RMK SLP088

2010/08/09 23:00
CWYK 092300Z AUTO ///// 07/ A2958 RMK SLP040

2010/08/09 23:00
CWYM 092300Z AUTO 05025G36KT 04/ RMK ALTM MISG SLP122

2010/08/09 23:00
CWZZ 092300Z AUTO ///// 0SM CLR 05/ A2964 RMK SLP058

2010/08/09 23:00
CYAH 092300Z AUTO 27007KT 9SM BKN019 BKN041 OVC046 OVC082 13/11 A2979 RMK SLP100

2010/08/09 23:00
CYAM 092300Z 20003KT 15SM FEW038 SCT220 28/20 A2989 RMK CU2CI1 SLP120

2010/08/09 23:00
CYAY 092300Z AUTO 23016G22KT 9SM BKN014 OVC086 18/16 A2976 RMK SLP078 DENSITY ALT 600FT MAX WND 23030KT AT 2221Z

2010/08/09 23:00
CYAZ 092300Z 16005KT 5SM BR SCT004 BKN008 14/13 A2997 RMK SF3CF3 SLP151

2010/08/09 23:00
CYBB 092300Z 00000KT 15SM FEW220 23/08 A2994 RMK CI0 23.4/9.4/NIL/LAST OBS/NEXT 101200 SLP140

2010/08/09 23:00
CYBC 092300Z AUTO 20004KT 9SM CLR 20/15 A2974 RMK SLP071

2010/08/09 23:00
CYBD 092300Z 26010KT 15SM FEW080TCU BKN110 21/09 A2992 RMK TCU1AC6 SLP133

2010/08/09 23:00
CYBL 092300Z 29003KT 30SM FEW050 FEW090 FEW250 23/11 A2992 RMK CU1AC1CI1 SLP131

2010/08/09 23:00
CYBN 092300Z AUTO 16004KT 9SM FEW044 23/20 A2992 RMK SLP130

2010/08/09 23:00
CYBR 092300Z 20004KT 15SM FEW170 30/20 A2983 RMK AC1 SLP099

2010/08/09 23:00
CYBU 092300Z AUTO 19008KT 180V250 9SM FEW061 27/14 A2982 RMK SLP097 DENSITY ALT 2900FT

2010/08/09 23:00
CYBW 092300Z 36011KT 30SM TS FEW035 SCT045CB BKN120 BKN250 19/10 A2983 RMK CU2CB2AC1CI1 SLP102

2010/08/09 23:00
CYBX 092300Z 27003KT 3/4SM BR OVC001 14/14 A2976 RMK FG6SF2 SLP079

2010/08/09 23:00
CYCB 092300Z 08012KT 15SM FEW015 FEW070 17/13 A2984 RMK CF0AC0 FU SLP107

2010/08/09 23:00
CYCG 092300Z 33010KT 15SM SCT065TCU BKN130 24/14 A2974 RMK TCU3AC2 SLP063

2010/08/09 23:00
CYCO 092300Z 05003KT 3SM BR OVC005 11/10 A2974 RMK FG1ST7 BLN EST SLP072

2010/08/09 23:00
CYCP 092300Z 00000KT 5SM -RA BR FEW003 SCT020 BKN055 OVC110 14/14 A2993 RMK SF2SF2SC2AS2 VIS VLY N 15+ SLP142

2010/08/09 23:00
CYCQ 092300Z 22005KT 35SM OVC045TCU 19/05 A2983 RMK TCU8 CB EMBDD SLP109

2010/08/09 23:00
CYCX 092300Z 17004KT 8SM FEW030 BKN042 BKN250 22/20 A2984 RMK CU1SC4CI2 DA+1402FT SLP103

2010/08/09 23:00
CYDA 092300Z 00000KT 20SM SCT055 BKN100 BKN240 20/08 A2966 RMK SC3AC2CI1 CU ASOCTD SLP054

2010/08/09 23:00
CYDC 092300Z 27006KT 15SM -SHRA BKN050 OVC080 17/09 A2989 RMK SC6AC2 TCU EMBD SLP116

2010/08/09 23:00
CYDF 092300Z 22009KT 10SM -SHRA FEW026 BKN044 OVC090 18/16 A2990 RMK SC2SC3AC2 SLP126

2010/08/09 23:00
CYDN 092300Z AUTO 29011KT 9SM CLR 30/16 A2980 RMK SLP089 DENSITY ALT 3000FT MAX WND 30017KT AT 2212Z

2010/08/09 22:48
MMEP 092248Z 35003KT 10SM BKN030 27/23 A2997 RMK 8/500

2010/08/09 22:49
MMGL 092249Z 00000KT 12SM BKN030CB BKN300 27/17 A3000 RMK 8/303 AC

2010/08/09 22:47
MMPN 092247Z 00000KT 7SM SCT015CB BKN070 BKN290 23/17 A3003 RMK 8/978 HZY

2010/08/09 22:47
MMZC 092247Z 05012KT 10SM SCT025TCU 27/08 A3016 RMK 8/200

2010/08/09 22:45
MMZO 092245Z 12010KT 12SM BKN020TCU BKN250 31/26 A2976 RMK 8/206 HZY CBS AL N

2010/08/09 23:00
SAWH 092300Z 23019G25KT 5000 SN SCT015 BKN025 M01/M02 Q1000

2010/08/09 23:00
CYDP 092300Z 35005KT 15SM -RA FEW006 OVC026 10/09 A2961 RMK SF1SC8 SLP026

2010/08/09 23:00
CYED 092300Z AUTO 09005KT 9SM FEW055 24/12 A2978 RMK SLP086

2010/08/09 23:00
CYEK 092300Z AUTO 11004KT 9SM OVC071 OVC091 11/09 A3005 RMK SLP177

2010/08/09 23:00
CYEN 092300Z 03009KT 15SM FEW060 FEW260 32/14 A2983 RMK SC1CI0 CVCTV CLD EMBD SLP095

2010/08/09 23:00
CYET 092300Z AUTO 03004KT 330V060 9SM FEW048 FEW057 FEW085 17/12 A2982 RMK PCPN 0.5MM PAST HR SLP101

2010/08/09 23:00
CYEV 092300Z 16004KT 15SM FEW032 FEW240 18/11 A2971 RMK CU1CI1 SLP064

2010/08/09 23:00
CYFO 092300Z 25004KT 15SM FEW030 24/18 A2981 RMK CU2 LAST OBS/NEXT 101100UTC SLP098

2010/08/09 23:00
CYFS 092300Z 32011KT 15SM OVC012 17/14 A2971 RMK SC8 SLP065

2010/08/09 23:00
CYGE 092300Z 00000KT 30SM FEW030 BKN085 OVC120 16/14 A2989 RMK SC2AC5AC2 SLP125

2010/08/09 23:00
CYGH 092300Z 32003KT 25SM FEW120 20/12 A2972 RMK AC0 20.3/12.0/0 LAST OBS NEXT 101300Z SLP066

2010/08/09 23:00
CYGK 092300Z 25007KT 4SM -SHRA BR FEW007 SCT030 BKN050 OVC120 23/22 A2992 RMK SF1SC2SC2AC2 SLP130

2010/08/09 23:00
CYGQ 092300Z 30004KT 15SM FEW030 SCT035 SCT040CB 27/17 A2988 RMK CF1CU2CB1 CB N NE SLP120

2010/08/09 23:00
CYGR 092300Z 20011G18KT 8SM -SHRA SCT020 OVC080 19/16 A2986 RMK SC3AC5 SLP113

2010/08/09 23:00
CYGV 092300Z AUTO 26008KT 9SM FEW064 18/14 A2969 RMK SLP054

2010/08/09 23:00
CYGW 092300Z 26008KT 5SM BR OVC004 11/10 A2987 RMK SC8 CIG RAG VIS S-W 2 SLP116

2010/08/09 23:00
CYGX 092300Z 09002KT 15SM SCT080 BKN200 21/11 A2993 RMK AC2CI2 SLP141

2010/08/09 23:00
CYHD 092300Z AUTO 22004KT 9SM CLR 28/19 A2991 RMK SLP129

2010/08/09 23:00
CYHE 092300Z AUTO 30007G16KT 250V360 9SM -RA OVC014 OVC064 17/15 A2993 RMK SLP137

2010/08/09 23:00
CYHI 092300Z 09012G22KT 15SM -RA FEW010 FEW015 BKN020 OVC030 11/09 A2982 RMK SF0SC1SC4ST1 SLP100

2010/08/09 23:00
CYHK 092300Z 20008KT 15SM FEW250 17/09 A2991 RMK CS0 SLP132

2010/08/09 23:00
CYHM 092300Z 22005KT 2SM -SHRA BR FEW024 BKN048 OVC092 23/22 A2994 RMK SC2SC3AC3 SF ASOCTD SLP138

2010/08/09 23:00
CYHU 092300Z AUTO 28006KT 9SM CLR 26/17 A2985 RMK SLP110 DENSITY ALT 1400FT RVR MISG

2010/08/09 23:00
CYHY 092300Z 22004KT 15SM SCT015 BKN230 23/11 A2971 RMK SC3CI0 SLP064

2010/08/09 23:00
CYIO 092300Z AUTO 08003KT 040V100 9SM FEW071 BKN095 09/05 A2988 RMK SLP123

2010/08/09 23:00
CYIV 092300Z 08003KT 15SM FEW050 SCT100 BKN250 25/15 A2987 RMK SC1AC0CI0 SLP118

2010/08/09 23:00
CYKA 092300Z 27007KT 20SM -SHRA FEW020 OVC065 15/12 A2994 RMK SC2SC6 SLP139

2010/08/09 23:00
CYKF 092300Z AUTO 21007KT 4SM BR FEW071 SCT093 BKN120 22/21 A2994 RMK SLP133 DENSITY ALT 2000FT PCPN 0.8MM PAST HR

2010/08/09 23:00
CYKJ 092300Z AUTO VRB02KT 9SM FEW011 BKN019 BKN025 17/15 A2982 RMK SLP113 DENSITY ALT 2400FT

2010/08/09 23:00
CYKY 092300Z 14007KT 12SM FEW055 FEW250 26/15 A2982 RMK CU1CI0 SLP098

2010/08/09 23:00
CYKZ 092300Z 27002KT 15SM FEW050 BKN067 OVC140 22/21 A2994 RMK SC1AC6AS2 SLP136

2010/08/09 23:00
CYLD 092300Z 00000KT 15SM SCT035TCU SCT150 27/19 A2990 RMK TCU2AC0 CB ASOCTD SLP127

2010/08/09 23:00
CYLJ 092300Z 23010KT 15SM FEW060 FEW120 27/12 A2982 RMK CU2AC1 TR AC SLP102

2010/08/09 23:00
CYLK 092300Z 28003KT 6SM FU OVC024 24/16 A2973 RERA RMK SC6 SLP072

2010/08/09 23:00
CYLL 092300Z 15007KT 15SM FEW050 SCT300 25/13 A2984 RMK CU2CI1 SLP106

2010/08/09 23:00
CYLW 092300Z AUTO 30007KT 270V330 9SM OVC076 24/07 A2979 RMK SLP083 DENSITY ALT 2900FT

2010/08/09 23:00
CYMA 092300Z 24005KT 20SM FEW050 SCT070 BKN100 21/18 A2969 RMK SC2AC2AS1 TCU ASOCTD ACSL SLP067

2010/08/09 23:00
CYMJ 092300Z 07004KT 15SM FEW052 BKN280 28/14 A2986 RMK CU1CI3 SLP110

2010/08/09 23:00
CYMO 092300Z AUTO 05010KT 9SM CLR 16/14 A2988 RMK SLP120

2010/08/09 23:00
CYMT 092300Z 29004KT 15SM FEW035 FEW040 23/11 A2985 RMK SC1CU2 SLP112

2010/08/09 23:00
CYNA 092300Z AUTO 23005KT 9SM CLR 17/15 A2972 RMK SLP065

2010/08/09 23:00
CYND 092300Z 27003KT 15SM FEW120 BKN250 27/18 A2988 RMK AC2CI2 SLP118

2010/08/09 23:00
CYNE 092300Z AUTO 08006KT 340V120 9SM SCT033 OVC075 21/16 A2983 RMK SLP107

2010/08/09 23:00
CYNM 092300Z AUTO 28009KT 9SM FEW070 25/11 A2984 RMK SLP109

2010/08/09 23:00
CYOD 092300Z 19007KT 15SM SCT060 SCT250 26/12 A2982 RMK CU3CI1 SLP102

2010/08/09 23:00
CYOY 092300Z AUTO 24008KT 9SM FEW085 24/16 A2982 RMK SLP101

2010/08/09 23:00
CYPA 092300Z 29007KT 15SM FEW060 27/10 A2983 RMK CU1 SLP103

2010/08/09 23:00
CYPC 092300Z 02002KT 15SM -RA SCT006 BKN013 OVC075 08/07 A2978 RMK ST2SC4AC2 -RA INTMNT 9.0/7.7/0.2 LAST OB/NEXT101300 SLP086

2010/08/09 23:00
CYPE 092300Z 25010G15KT 15SM BKN060 21/06 A2978 RMK CU7 SLP093

2010/08/09 23:00
CYPG 092300Z 00000KT 12SM FEW045 FEW150 33/20 A2980 RMK CU1AC1 TR CU SLP091

2010/08/09 23:00
CYPH 092300Z AUTO 02010KT 9SM FEW032 BKN041 16/11 A2986 RMK SLP111

2010/08/09 23:00
CYPQ 092300Z AUTO ///// 3SM OVC010 OVC097 23/23 A2992 RMK SLP131

2010/08/09 23:00
CYPW 092300Z 25007KT 50SM FEW040TCU FEW050 FEW280 20/11 A2994 RMK TCU1CU1CI1 TR CLDS SLP138

2010/08/09 23:00
CYPY 092300Z AUTO 12005KT 090V160 9SM CLR 23/11 A2975 RMK SLP079

2010/08/09 23:00
CYQA 092300Z AUTO 20005KT 150V230 8SM BKN018 BKN027 OVC039 25/23 A2991 RMK SLP127 DENSITY ALT 2300FT

2010/08/09 23:00
CYQD 092300Z 31010KT 15SM FEW035TCU 26/18 A2980 RMK TCU2 TCU N-SW SLP094

2010/08/09 23:00
CYQF 092300Z 15003KT 15SM SCT050TCU BKN260 24/11 A2979 RMK TCU3CI2 CB TPS DIST S W+NE SLP093

2010/08/09 23:00
CYQH 092300Z 29005KT 30SM BKN038 BKN070 22/09 A2978 RMK SC6AC1 SLP090

2010/08/09 23:00
CYQI 092300Z 21008KT 1SM BR OVC002 18/18 A2993 RMK FG3SF5 RVR RWY 24 P6000 FT SLP137

2010/08/09 23:00
CYQK 092300Z 21004KT 15SM FEW200 29/18 A2991 RMK CI1 SLP127

2010/08/09 23:00
CYQL 092300Z 18004KT 40SM FEW070 FEW200 BKN280 26/09 A2979 RMK CU1CI1CI2 SLP079

2010/08/09 23:00
CYQR 092300Z 32004KT 15SM FEW330 27/16 A2987 RMK CI0 SLP116

2010/08/09 23:00
CYQT 092300Z 04009KT 20SM FEW069 29/20 A2987 RMK AC2 CU ASOCTD SLP113

2010/08/09 23:00
CYQU 092300Z 25010G15KT 25SM FEW068 BKN085 BKN250 22/05 A2982 RMK CU2AC3CI2 SLP107

2010/08/09 23:00
CYQV 092300Z AUTO 31005KT 9SM FEW048 27/16 A2985 RMK SLP111

2010/08/09 23:00
CYQW 092300Z AUTO 18004KT 080V200 9SM CLR 26/13 A2986 RMK SLP110 DENSITY ALT 3500FT

2010/08/09 23:00
CYQZ 092300Z AUTO VRB03KT 9SM OVC086 19/06 A2991 RMK SLP136 DENSITY ALT 2600FT

2010/08/09 23:00
CYRA 092300Z 20004KT 12SM FEW022 SCT034 OVC220 24/16 A2968 RMK SC2SC0CI2 TCU EMBD CB-NW SLP054

2010/08/09 23:00
CYRJ 092300Z 31008KT 25SM SCT040 SCT100 26/11 A2980 RMK SC3AC1 TCU ASOCTD SLP094

2010/08/09 23:00
CYRL 092300Z 00000KT 15SM FEW038 BKN240 28/19 A2989 RMK CU1CI0 SLP123

2010/08/09 23:00
CYRT 092300Z 23005KT 15SM FEW090 18/10 A3005 RMK AC2 SLP177

2010/08/09 23:00
CYRV 092300Z AUTO 00000KT 9SM BKN068 19/16 A2982 RMK SLP097

2010/08/09 23:00
CYSB 092300Z 14004KT 15SM FEW052 FEW210 27/14 A2991 RMK CU1CI0 SLP127

2010/08/09 23:00
CYSC 092300Z AUTO 28005KT 9SM CLR 23/18 A2988 RMK DENSITY ALT 1900FT

2010/08/09 23:00
CYSF 092300Z AUTO VRB02KT 3SM HZ OVC034 19/16 A2981 RMK DENSITY ALT 1500FT

2010/08/09 23:00
CYSM 092300Z 00000KT 15SM FEW040TCU SCT110 BKN220 21/12 A2975 RMK TCU1AS2CI2 SLP080

2010/08/09 23:00
CYSN 092300Z 22010KT 8SM -SHRA FEW012 FEW050 OVC110 24/23 A2992 RMK SF1SC2AC6 VIS LWR ENE SLP132

2010/08/09 23:00
CYSY 092300Z 09015KT 15SM BKN018 09/06 A2986 RMK SC6 12.8/2.6/0/0 LAST OBS/NXT101300Z SLP117

2010/08/09 23:00
CYTH 092300Z 10007KT 15SM FEW050 BKN077 BKN120 22/12 A2988 RMK SC2AC3AC1 OCNL -SHRA/CVCTV CLD EMBD SLP123

2010/08/09 23:00
CYTS 092300Z 36003KT 15SM FEW076 BKN150 29/13 A2985 RMK AC2AC2 SLP111

2010/08/09 23:00
CYTZ 092300Z AUTO 00000KT 9SM SCT160 22/20 A2992 RMK SLP131 DENSITY ALT 1100FT RVR MISG

2010/08/09 23:00
CYUA 092300Z AUTO 06012G17KT 9SM CLR 14/ A2969 RMK SLP057

2010/08/09 23:00
CYUS 092300Z AUTO ///// 9SM CLR 19/ A2993 RMK SLP137

2010/08/09 23:00
CYVC 092300Z 32005KT 15SM SCT041 25/16 A2981 RMK CU3 SLP097

2010/08/09 23:00
CYVM 092300Z AUTO 04007KT 9SM OVC003 04/04 A2995 RMK SLP143

2010/08/09 23:00
CYVO 092300Z 33006KT 15SM FEW040 FEW090 25/15 A2989 RMK SC1AC2 SLP127

2010/08/09 23:00
CYVQ 092300Z 00000KT 30SM FEW040 FEW100 FEW290 22/09 A2970 RMK CU1AC2CI1 SLP059

2010/08/09 23:00
CYVT 092300Z 03002KT 15SM FEW047TCU SCT100 BKN240 25/13 A2979 RMK TCU2ACC2CI1 WND L/V SLP092

2010/08/09 23:00
CYVV 092300Z 24004KT 15SM SCT005 BKN100 23/21 A2992 RMK SC3AC2 SLP130

2010/08/09 23:00
CYWA 092300Z 12003KT 15SM FEW040 FEW170 26/15 A2988 RMK CU1AC1 SLP120

2010/08/09 23:00
CYWH 092300Z 00000KT 15SM FEW015 BKN030 OVC100 14/11 A2997 RMK SF1SC4AC2 SLP149

2010/08/09 23:00
CYWJ 092300Z 33003KT 40SM FEW030 BKN080 BKN120 20/10 A2970 RMK SC1AC5AC1 20.0/13.0/0/0 LAST OB/NEXT 101300Z SLP065

2010/08/09 23:00
CYWL 092300Z 30002KT 15SM FEW026 BKN080 15/07 A2995 RMK CU2AC4 SLP147

2010/08/09 23:00
CYXC 092300Z 02008KT 25SM SCT080TCU SCT120 BKN240 23/11 A2981 RMK TCU3AC1CI0 CB EMBD SLP088

2010/08/09 23:00
CYXD 092300Z AUTO 18006KT 9SM SCT056 SCT066 SCT079 25/12 A2977 RMK SLP080

2010/08/09 23:00
CYXE 092300Z 27002KT 15SM FEW055 FEW230 26/14 A2984 RMK CU2CI0 SLP109

2010/08/09 23:00
CYXH 092300Z 25005KT 230V300 30SM FEW077 BKN270 29/10 A2977 RMK CU1CI2 SLP077

2010/08/09 23:00
CYXJ 092300Z 33005KT 15SM BKN080 19/08 A2983 RMK AC7 SLP107

2010/08/09 23:00
CYXL 092300Z 00000KT 15SM FEW046 28/17 A2991 RMK CF1 SLP127

2010/08/09 23:00
CYXR 092300Z AUTO 14005KT 9SM CLR 26/17 A2986 RMK SLP106

2010/08/09 23:00
CYXS 092300Z AUTO 21009KT 140V250 9SM SCT086 19/07 A2990 RMK SLP133 DENSITY ALT 3200FT

2010/08/09 23:00
CYXT 092300Z 18006KT 20SM FEW045 BKN071 OVC140 19/10 A2997 RMK CU1AC6AC1 SLP153

2010/08/09 23:00
CYXZ 092300Z 23007KT 200V260 12SM FEW019TCU FEW070 23/18 A2990 RMK TCU1AC1 TR AC SLP126

2010/08/09 23:00
CYYB 092300Z 00000KT 15SM FEW040 FEW240 26/14 A2992 RMK CU1CI1 SLP128

2010/08/09 23:00
CYYD 092300Z 30007KT 25SM BKN060 19/05 A2991 RMK SC6 SLP130

2010/08/09 23:00
CYYE 092300Z 26005KT 15SM -RA FEW011 BKN025 OVC060 16/10 A2978 RMK SC2SC2SC3 SLP092

2010/08/09 23:00
CYYF 092300Z 02013G19KT 15SM SCT080TCU BKN110 BKN160 24/09 A2979 RMK TCU4AC2AC1 RETS CB SE SLP082

2010/08/09 23:00
CYYG 092300Z 21012KT 15SM BKN067 BKN087 22/16 A2987 RMK AC5AC2 SLP113

2010/08/09 23:00
CYYH 092300Z 22012KT 15SM FEW240 17/09 A2990 RMK CI0 SLP128

2010/08/09 23:00
CYYL 092300Z AUTO 13008KT 9SM -RA BKN020 OVC030 16/14 A2986 RMK SLP123 DENSITY ALT 1600FT PCPN 0.5MM PAST HR

2010/08/09 23:00
CYYN 092300Z AUTO 14004KT 110V180 9SM FEW073 27/12 A2984 RMK SLP097

2010/08/09 23:00
CYYU 092300Z 08004KT 15SM SCT055 25/17 A2986 RMK SC4 SLP115

2010/08/09 23:00
CYYY 092300Z 24008KT 15SM FEW045 SCT080 BKN150 23/14 A2975 RMK CU1AC1AC0 SLP075

2010/08/09 23:00
CYZE 092300Z AUTO 22005KT 9SM CLR 24/19 A2990 RMK DENSITY ALT 1800FT

2010/08/09 23:00
CYZH 092300Z AUTO 31010KT 9SM CLR 20/11 A2982 RMK SLP104

2010/08/09 23:00
CYZP 092300Z AUTO 26006KT 9SM -RA FEW011 BKN023 BKN029 OVC039 15/14 A3004 RMK SLP173 PCPN 0.5MM PAST HR

2010/08/09 23:00
CYZR 092300Z AUTO 10004KT 060V130 9SM SCT081 SCT098 BKN130 23/21 A2992 RMK SLP129 DENSITY ALT 1600FT

2010/08/09 23:00
CYZS 092300Z 20004KT 15SM FEW090 FEW210 19/05 A2992 RMK AC1CI0 SLP137

2010/08/09 23:00
CYZT 092300Z 35011KT 20SM FEW040 FEW065 SCT240 18/11 A2999 RMK SC1SC1CI1 SLP157

2010/08/09 23:00
CYZU 092300Z 30005KT 15SM SCT045CB BKN080 BKN120 BKN250 15/14 A2984 RETS RMK CB3AC1AC1CI0 SLP106

2010/08/09 23:00
CYZW 092300Z 19009KT 30SM FEW055 SCT120 BKN250 18/04 A2982 RMK SC2AC2CI1 SLP115

2010/08/09 23:00
CZCP 092300Z AUTO 10007KT 9SM CLR 07/ A2977 RMK SLP088

2010/08/09 23:00
CZFN 092300Z 23006KT 30SM FEW020 SCT065 BKN100 20/11 A2971 RMK SC1SC3AC2 20.3/16.0/0/NIL LAST OBS/NXT 161500Z SLP064

2010/08/09 23:00
CZPC 092300Z AUTO 25005KT 9SM CLR 24/10 A2982 RMK SLP080

2010/08/09 23:00
CZST 092300Z 00000KT 15SM SCT048 BKN062 OVC120 16/11 A2999 RMK SC3SC3AC2 SLP155

2010/08/09 23:00
CZUM 092300Z AUTO 22003KT 9SM BKN043 14/11 A2965 RMK SLP049

2010/08/09 23:00
EPLL 092300Z 00000KT 7000 NSC 15/15 Q1016

2010/08/09 22:55
LIRM 092255Z 06002KT CAVOK 26/25 Q1016 RMK SKC VIS MIN 9999 WIND THR06 10002KT BLU

2010/08/09 23:00
LKCV 092300Z VRB02KT CAVOK 14/14 Q1018 NOSIG

2010/08/09 23:00
LKKB 092300Z 24002KT CAVOK 16/15 Q1018

2010/08/09 23:00
LKKV 092300Z 00000KT 9999 FEW043 14/13 Q1019 RMK REG QNH 1015

2010/08/09 23:00
LKLN 092300Z AUTO VRB01KT CAVOK 14/13 Q1018

2010/08/09 23:00
LKNA 092300Z 32004KT CAVOK 15/13 Q1018

2010/08/09 23:00
LKPD 092300Z 00000KT CAVOK 15/14 Q1018

2010/08/09 23:00
GQPP 092300Z 33010KT CAVOK 22/20 Q1014 NOSIG

2010/08/09 23:00
CYSM 092300Z CCA 00000KT 15SM FEW040TCU SCT110 BKN220 21/12 A2975 RMK TCU1AS2CI2 CB TOPS DIST S-W SLP080

2010/08/09 23:00
LKPO 092300Z 09002KT CAVOK 13/13 Q1018

2010/08/09 23:00
MGTK 092300Z 06008KT 9999 TS FEW020 FEW025CB SCT200 34/25 Q1010 A2983 CB/TS/PCPN SE/SSE CB SW

2010/08/09 23:00
RPLI 092300Z 14002KT 9999 FEW019 BKN100 26/25 Q1007 NOSIG

2010/08/09 23:05
KCAO 092305Z AUTO 32013G21KT 10SM OVC075 28/13 A3003

2010/08/09 23:00
OIII 092300Z 17004KT CAVOK 27/02 Q1013 A2994 878.9

2010/08/09 23:00
OEDF 092300Z 18005KT CAVOK 30/20 Q0996 NOSIG

2010/08/09 23:00
OOMS 092300Z 07009KT 8000 NSC 30/28 Q0998 NOSIG

2010/08/09 22:50
OOSA 092250Z 14006KT 6000 FEW008 BKN012 OVC025 25/22 Q1003 NOSIG RMK05 RH84

2010/08/09 23:00
UAFO 092300Z 19004MPS 9999 SCT050CB BKN100 22/15 Q1015 NOSIG RMK QFEM682

2010/08/09 23:06
CWCL 092306Z AUTO 02003KT 9SM SCT023 OVC035 13/08 A2995

2010/08/09 23:04
PATA 092304Z 11006KT 10SM BKN015 BKN049 BKN060 16/12 A2958

2010/08/09 23:05
KCAO 092305Z AUTO 32013G21KT 10SM OVC075 28/13 A3003

2010/08/09 23:00
SLCO 092300Z 00000KT 5000 FU SKC 29/20 Q1012

2010/08/09 23:00
SLOR 092300Z 03006KT 9999 SKC 11/M07 Q1034

2010/08/09 23:00
SLSI 092300Z 00000KT 8000 SKC 25/17 Q1016

2010/08/09 23:00
SLRB 092300Z 00000KT 5000 SKC 23/19 Q1018

2010/08/09 23:00
SLPS 092300Z 00000KT 3000 FU SKC 26/14 Q1014

2010/08/09 23:00
SLCA 092300Z 12004KT 9999 SKC 19/07 Q1020

2010/08/09 23:00
SLET 092300Z 00000KT 8000 SKC 23/12 Q1016

2010/08/09 23:00
SLSU 092300Z 36005KT 9999 SKC 14/06 Q1027

2010/08/09 23:00
SLTJ 092300Z 13013KT 9999 SKC 13/08 Q1020

2010/08/09 23:00
SLYA 092300Z 00000KT 9999 SKC 16/11 Q1023

2010/08/09 23:00
SLRI 092300Z 00000KT 3000 FU FEW020 BKN200 30/19 Q1012

2010/08/09 23:00
SLMG 092300Z 00000KT 6000 SKC 27/18 Q1015

2010/08/09 23:00
SLSA 092300Z 15004KT 5000 FU SKC 27/16 Q1013

2010/08/09 23:00
DAAG 092300Z 29002KT 8000 FEW016 22/21 Q1015

2010/08/09 23:00
DABB 092300Z 00000KT CAVOK 22/19 Q1015

2010/08/09 23:00
DABC 092300Z 00000KT CAVOK 23/08 Q1019

2010/08/09 23:00
DABS 092300Z 14008KT CAVOK 23/08 Q1021

2010/08/09 23:00
DAON 092300Z 00000KT CAVOK 25/21 Q1017

2010/08/09 23:00
DAOO 092300Z 02003KT CAVOK 24/22 Q1016

2010/08/09 23:00
DAUH 092300Z 08004KT CAVOK 34/13 Q1013

2010/08/09 23:00
DAUZ 092300Z 36004KT 9999 FEW040 28/02 Q1015

2010/08/09 22:50
LIBD 092250Z 26005KT CAVOK 20/15 Q1014 RMK VIS MIN 9999

2010/08/09 22:50
LIBP 092250Z 00000KT 9999 SCT070 22/20 Q1015 RMK VIS MIN 9999

2010/08/09 22:45
LIBR 092245Z 33011KT CAVOK 24/20 Q1014 NOSIG RMK SKC VIS MIN 9999 WIND THR13 WIND THR31 31009KT BLU

2010/08/09 22:55
LIBV 092255Z 35003KT CAVOK 19/17 Q1013 RMK SKC VIS MIN 9999 WIND THR14 33005KT BLU

2010/08/09 22:50
LICA 092250Z VRB03KT 9999 FEW015 BKN020 24/20 Q1015 RMK VIS MIN 9999

2010/08/09 22:50
LICC 092250Z 28004KT CAVOK 24/20 Q1015 RMK VIS MIN 9999

2010/08/09 22:50
LICD 092250Z VRB02KT CAVOK 24/20 Q1014 RMK VIS MIN 9999

2010/08/09 22:50
LICJ 092250Z VRB03KT CAVOK 24/17 Q1016 RMK VIS MIN 9999

2010/08/09 22:55
LICT 092255Z 00000KT CAVOK 23/20 Q1016 RMK SKC VIS MIN 9999 WIND THR13 35001KT BLU

2010/08/09 23:03
YAMB 092303Z 18006KT 8000 -RA -RA -RA FEW002 BKN012 BKN020 16/15 Q1021 FM2303 VRB05KT 9999 -SHRA FEW015 SCT025 INTER 2303/2400 4000 SHRA BKN012 TEMPO 0000/0200 5000 RA BKN010

2010/08/09 23:00
YSCB 092300Z 33002KT 6000 -RA FEW009 SCT014 BKN045 10/08 Q1016 FM2300 09010KT 6000 -RA SCT010 BKN015 BKN060 TEMPO 2300/0200 4000 RA BKN006

2010/08/09 22:45
LIBR 092245Z 33011KT CAVOK 24/20 Q1014 NOSIG RMK SKC VIS MIN 9999 WIND THR13 WIND THR31 31009KT BLU

2010/08/09 22:55
LIMU 092255Z 02004KT 9999 FEW026 23/23 Q1017 RMK SCT QUK / QUL / VIS MAR 25 KM VIS MIN 9999

2010/08/09 22:55
LIPC 092255Z 25004KT CAVOK 20/20 Q1014 RMK SCT SCT200 VIS MIN 9999 WIND THR12 25004KT BLU

2010/08/09 22:45
LIPH 092245Z 01001KT 9999 SCT080 23/19 Q1015 RMK SCT VIS MIN 9999 WIND THR07 /////KT BLU

2010/08/09 22:45
LIPR 092245Z 20002KT CAVOK 22/22 Q1014 RMK SKC VIS MIN 9999 WIND THR31 00000KT BLU

2010/08/09 22:55
LIPS 092255Z 00000KT 9999 FEW040 22/19 Q1015 RMK FEW VIS MIN 9999 BLU

2010/08/09 22:45
LIPX 092245Z 04005KT 9999 FEW040 23/23 Q1015 RMK FEW VIS MIN 9999 BLU

2010/08/09 22:50
LIPY 092250Z 17003KT CAVOK 21/18 Q1014 RMK VIS MIN 9999

2010/08/09 22:55
LIVD 092255Z 00000KT CAVOK 15/13 Q1021 RMK SKC VIS MIN 9999

2010/08/09 22:55
LIVT 092255Z 10004KT CAVOK 23/17 Q1015 RMK SKC QUK / QUL / VIS MAR 20 KM VIS MIN 9999

2010/08/09 23:00
LPFR 092300Z 27004KT 240V310 CAVOK 28/19 Q1014

2010/08/09 23:00
LPPR 092300Z 00000KT CAVOK 23/18 Q1016

2010/08/09 23:00
LPPS 092300Z 01009KT 9999 SCT014 SCT030 22/19 Q1016

2010/08/09 23:00
LPPT 092300Z 29004KT 250V320 CAVOK 31/12 Q1015 NOSIG

2010/08/09 23:00
DAAE 092300Z 00000KT CAVOK 22/18 Q1014

2010/08/09 23:00
DAAJ 092300Z 07010KT CAVOK 31/05 Q1017

2010/08/09 23:00
DAAS 092300Z 06007KT CAVOK 25/06 Q1021

2010/08/09 23:00
DAAV 092300Z 00000KT CAVOK 24/21 Q1013

2010/08/09 23:00
DABT 092300Z 08006KT CAVOK 25/08 Q1019

2010/08/09 23:00
DAOB 092300Z 00000KT CAVOK 25/12 Q1020

2010/08/09 23:00
DAOF 092300Z 34016KT 6000 FEW033CB SCT046 36/12 Q1012

2010/08/09 23:00
DAOI 092300Z 00000KT CAVOK 28/14 Q1013

2010/08/09 23:00
DAOR 092300Z 36012KT 9999 SCT033 33/11 Q1020

2010/08/09 23:00
DAOV 092300Z 00000KT CAVOK 26/18 Q1018

2010/08/09 23:00
DAUE 092300Z 04004KT CAVOK 34/12 Q1015

2010/08/09 23:00
DAUG 092300Z 09004KT CAVOK 31/14 Q1017

2010/08/09 23:00
DAUI 092300Z 06015KT CAVOK 35/03 Q1012

2010/08/09 23:00
DAUK 092300Z 00000KT CAVOK 30/18 Q1014

2010/08/09 23:00
DAUO 092300Z /////KT CAVOK 31/15 Q1014

2010/08/09 23:00
DAUT 092300Z 08006KT CAVOK 36/// Q1013

2010/08/09 23:00
DAUU 092300Z 03008KT CAVOK 33/18 Q1013

2010/08/09 23:00
SAME 092300Z 14003KT CAVOK 12/M02 Q1022

2010/08/09 23:00
SARE 092300Z 14004KT 6000 NSC 12/08 Q1022

2010/08/09 23:00
SARF 092300Z 18003KT CAVOK 13/09 Q1021

2010/08/09 23:00
SAZM 092300Z 00000KT CAVOK 06/03 Q1025

2010/08/09 23:00
SBCY 092300Z 16003KT CAVOK 28/09 Q1013

2010/08/09 23:00
SBJP 092300Z 19009KT 9999 BKN010 OVC070 23/21 Q1017

2010/08/09 23:00
SBPB 092300Z 06009KT CAVOK 27/23 Q1013

2010/08/09 23:00
SBTE 092300Z 31001KT CAVOK 29/17 Q1012

2010/08/09 23:00
SBTT 092300Z 21002KT 8000 NSC 29/24 Q1012

2010/08/09 23:00
SBVT 092300Z 19018KT 9999 FEW025 22/19 Q1021

2010/08/09 23:00
SEGU 092300Z 22009KT 9999 FEW026 BKN100 25/19 Q1011 NOSIG

2010/08/09 23:00
SELT 092300Z 15007KT 120V180 9999 SCT040 14/03 Q1031

2010/08/09 23:00
SEMT 092300Z 19008KT 9999 BKN013 OVC023 24/20 Q1012

2010/08/09 23:00
SEQU 092300Z 10008KT 9999 SCT040 15/02 Q1026 RMK A3031 NOSIG

2010/08/09 23:00
SLCB 092300Z 27011KT 9999 SKC 19/00 Q1022

2010/08/09 23:00
SLET 092300Z 00000KT 8000 SKC 23/12 Q1016 A3003 HR48 FU NOSIG

2010/08/09 23:00
SLLP 092300Z 12005KT 9999 SKC 09/M08 Q1037

2010/08/09 23:00
SLTJ 092300Z 13013KT 9999 SKC 13/08 Q1020

2010/08/09 23:00
SPHI 092300Z 19016KT CAVOK 19/14 Q1014 RMK BIRD HAZARD RWY 19/01 PP000

2010/08/09 23:00
SPQU 092300Z 27006KT CAVOK 14/M13 Q1027 NOSIG RMK PP000

2010/08/09 23:00
SPRU 092300Z 15008KT 8000 FEW015 16/13 Q1014 RMK BIRD HAZARD RWY20 PP000

2010/08/09 23:00
SPSO 092300Z 21006KT 8000 SKC 17/13 Q1016 RMK BIRDS HAZARD RWY 22/04 W PP000

2010/08/09 23:00
SPTN 092300Z 21006KT CAVOK 13/09 Q1014 RMK PP000

2010/08/09 23:00
SPZO 092300Z 35003KT 300V040 9999 SKC 16/M15 Q1030 NOSIG RMK PP000

2010/08/09 23:00
SULS 092300Z 00000KT 3000 BR NSC 08/06 Q1025

2010/08/09 23:00
GOGS 092300Z 28004KT 9999 SCT015 28/24 Q1013

2010/08/09 23:00
GOGG 092300Z VRB02KT CAVOK 26/25 Q1014

2010/08/09 23:00
GOTT 092300Z 20008KT 9999 TS FEW026 CB BKN230 26/25 Q1013

2010/08/09 23:00
SYCJ 092300Z 00000KT 9999 FEW016 FEW017CB SCT038 26/25 Q1014 CB SE-SW NOSIG

2010/08/09 23:06
CYHE 092306Z AUTO 30008KT 260V360 9SM OVC014 OVC064 17/15 A2993

2010/08/09 22:55
KQA7 092255Z AUTO 08001KT 3900 HZ FEW085 28/00 A2982 RMK AO2 SLP981 T02780000 $

2010/08/09 22:55
KQVE 092255Z AUTO VRB02KT 9999 SCT065 BKN085 BKN130 OVC180 23/20 A2984 RMK AO2 SLP039

2010/08/09 23:00
WBGR 092300Z 15005KT 9999 FEW014 BKN150 26/24 Q1009

2010/08/09 23:00
WBGS 092300Z 18002KT 9999 FEW005 SCT018 BKN300 23/22 Q1009

2010/08/09 23:00
WBGY 092300Z 12004KT 9999 FEW022 BKN150 23/22 Q1009

2010/08/09 23:00
WBKL 092300Z 11005KT 9999 FEW010 SCT140 BKN290 25/24 Q1009

2010/08/09 23:00
WBKS 092300Z 23003KT 9999 FEW015 BKN280 25/24 Q1010

2010/08/09 23:00
WBKT 092300Z 21003KT 9999 FEW006 BKN280 25/25 Q1009

2010/08/09 23:00
WBKW 092300Z 31001KT 9999 FEW017 SCT140 BKN280 24/22 Q1010

2010/08/09 23:07
KROC 092307Z 25005KT 2 1/2SM -RA BR FEW009 BKN025 OVC060 21/19 A2996 RMK AO2 SFC VIS 3 TSE07 P0003 

2010/08/09 23:00
SBKP 092300Z 12016KT 6000 NSC 14/11 Q1022

2010/08/09 23:00
VTSP 092300Z VRB04KT 7000 SCT018 SCT120 BKN300 28/24 Q1007 A2975

2010/08/09 23:03
K11R 092303Z AUTO 16006KT 10SM CLR 35/20 A2987 RMK AO2

2010/08/09 23:05
K3T5 092305Z AUTO 19007KT 10SM CLR 35/22 A2985 RMK AO2 T03540217

2010/08/09 23:02
KAPY 092302Z AUTO 11011KT 10SM SCT060 36/21 A2980 RMK AO2 LTG DSNT SW T03620210

2010/08/09 23:04
KJOT 092304Z AUTO 22003KT 10SM BKN085 31/23 A2991 RMK AO2

2010/08/09 23:05
KORG 092305Z AUTO 19007KT 10SM CLR 33/26 A2992 RMK AO2

2010/08/09 23:04
KPPQ 092304Z AUTO 16003KT 10SM CLR 34/26 A2990 RMK AO2

2010/08/09 23:05
KRCR 092305Z AUTO 23004KT 7SM SCT080 OVC100 31/25 A2994 RMK AO2

2010/08/09 23:05
KSFY 092305Z AUTO 22005KT 10SM CLR 30/23 A2992 RMK AO2

2010/08/09 23:06
KFZY 092306Z AUTO 26007KT 2 1/2SM RA BR FEW008 BKN012 OVC025 22/20 A2996 RMK AO2 LTG DSNT N P0003

2010/08/09 23:00
KMCF 092300Z AUTO VRB05KT 10SM FEW014 28/26 A2986 RMK AO2 LTG DSNT NE RAE2258DZB2258E2300 SLP113

2010/08/09 23:06
KSRQ 092306Z VRB03G34KT 3/4SM -RA BR BKN050 27/24 A2984 RMK AO2 PK WND 10034/2302 RAB2256 P0011

2010/08/09 23:08
PADM 092308Z AUTO 16017G25KT 1 1/2SM -RA BR FEW003 BKN017 OVC029 11/09 A2941 RMK AO2 TSNO VIS 1V2 1/2 P0000 $

2010/08/09 22:50
LGLM 092250Z 04008KT CAVOK 27/20 Q1009

2010/08/09 23:00
SBKP 092300Z 12016KT 6000 NSC 14/11 Q1022

2010/08/09 23:00
MGTK 092300Z 06008KT 9999 TS FEW020 FEW025CB SCT200 34/25 Q1010 A2983 CB/TS/PCPN SE/SSE CB SW

2010/08/09 23:00
MGHT 092300Z 19006KT 9999 FEW025 FEW030CB BKN090 24/15 QFE 815.8 CB/PCPN WNW

2010/08/09 23:00
MGPB 092300Z 03006KT 9999 FEW020 SCT200 31/25 Q1009 A2980 CB DIST NW

2010/08/09 23:00
MGGT 092300Z 18006KT 9999 FEW018 BKN200 20/19 Q1023 A3021 CB E TCU NW RERA VOL.DE PACAYA EN ACTIVIDAD

2010/08/09 23:00
MGSJ 092300Z 15006KT 9999 SCT016 SCT024CB 31/25 Q1011 A2985 CB/P CPN W/NW CB NE

2010/08/09 23:00
MGRT 092300Z 04004KT 8000 -TSRA SCT018 FEW025CB BKN080 26/25 Q1012 A2988 CB/TS E VOL SANTA MARIA EN ACTIVIDAD

2010/08/09 23:00
MGQZ 092300Z 18006KT 9999 FEW006 SCT020 BKN200 18/15 QFE 766.6 TCU N/W

2010/08/09 23:00
MGCB 092300Z 07006KT 9999 TS SCT018 FEW021CB 26/21 QFE 868.3 CB/TS/PCPN SE/S CB/PCPN N/NE

2010/08/09 23:00
MGZA 092300Z 07006KT 9999 TS FEW017 FEW024CB SCT200 33/23 CB/TS SE/SSE CB S/ESE

2010/08/09 23:00
MGES 092300Z 07004KT 9999 TSRA SCT014 FEW025CB BKN090 22/21 QFE 910.0 CB/TS/LTNG S/NW/NNW

2010/08/09 23:00
MGMT 092300Z 00000KT 9999 FEW015 BKN200 31/25 Q1005.4

2010/08/09 23:00
MGTU 092300Z 18004KT 9999 -RA SCT016 OVC070 26/24

2010/08/09 23:00
RPVM 092300Z 27004KT 9999 FEW020 BKN300 26/25 Q1010 RMK A2982

2010/08/09 23:00
UBBG 092300Z 21004KT 9999 SCT100 25/13 Q1011 NOSIG RMK R30R/CLRD70 

2010/08/09 23:00
LKMT 092300Z 21002KT CAVOK 15/14 Q1017 NOSIG

2010/08/09 23:00
LKPR 092300Z 25002KT CAVOK 13/12 Q1018 NOSIG

2010/08/09 23:00
LKTB 092300Z VRB02KT CAVOK 15/12 Q1017 NOSIG

2010/08/09 23:00
GMAD 092300Z 23005KT 8000 NSC 23/19 Q1014 NOSIG

2010/08/09 23:00
GMFF 092300Z 18015KT 8000 TS SCT033 SCT040CB SCT100 28/13 Q1018 NOSIG

2010/08/09 23:00
GMME 092300Z 22003KT 8000 NSC 25/22 Q1014 NOSIG

2010/08/09 23:00
GMMN 092300Z VRB02KT CAVOK 29/16 Q1015 NOSIG

2010/08/09 23:00
GMMX 092300Z 12008KT 8000 R10///// SCT033 BKN100 30/17 Q1017 NOSIG

2010/08/09 23:00
GMTT 092300Z 07012KT 9999 FEW016 25/18 Q1014 NOSIG

2010/08/09 23:00
GMFF 092300Z 18015KT 8000 TS SCT033 SCT040CB SCT100 28/13 Q1018 NOSIG

2010/08/09 23:00
GMFM 092300Z 17008KT 8000 FEW026 FEW033CB SCT100 32/12 Q1018

2010/08/09 23:00
GMFO 092300Z 31005KT 270V330 9999 FEW033 SCT100 28/15 Q1018 NOSIG

2010/08/09 23:00
GMMC 092300Z 00000KT 5000 NSC 29/21 Q1012

2010/08/09 23:00
GMML 092300Z 32007KT 8000 SCT016 SCT100 22/18 Q1015

2010/08/09 23:00
GMMZ 092300Z 22003KT CAVOK 27/08 Q1023

2010/08/09 23:00
VHHH 092300Z VRB03KT 9999 FEW020 29/24 Q1005 NOSIG

2010/08/09 23:00
FMMI 092300Z 14004KT 9999 FEW010 BKN020 13/13 Q1026 TEMPO 4000 BR

2010/08/09 22:45
LHKE 092245Z 02001MPS CAVOK 14/13 Q1017 NOSIG RMK BLU

2010/08/09 22:45
LHPA 092245Z 14002MPS CAVOK 14/13 Q1019 NOSIG RMK BLU

2010/08/09 22:45
LHPP 092245Z 04002KT CAVOK 17/15 Q1019

2010/08/09 22:45
LHPR 092245Z 16001KT CAVOK 16/15 Q1018

2010/08/09 22:45
LHSN 092245Z 30001MPS CAVOK 18/15 Q1017 NOSIG RMK BLU

2010/08/09 22:45
LHUD 092245Z 33002KT CAVOK 16/15 Q1018

2010/08/09 23:00
YSDU 092300Z AUTO 04007KT 9999NDV // BKN015 OVC021 13/13 Q1015

2010/08/09 23:00
EIDW 092300Z 24007KT 9999 FEW030 12/09 Q1009 NOSIG

2010/08/09 23:00
EINN 092300Z 23006KT 9999 FEW024 BKN048 14/11 Q1010 NOSIG

2010/08/09 23:00
EICK 092300Z 24005KT 9999 FEW038 SCT240 10/08 Q1011 NOSIG

2010/08/09 23:00
SABE 092300Z 32003KT CAVOK 13/07 Q1025

2010/08/09 23:00
SACO 092300Z 36004KT CAVOK 09/00 Q1026

2010/08/09 23:05
KART 092305Z AUTO 23006KT 2SM -RA BR BKN008 BKN020 BKN036 23/22 A2993

2010/08/09 22:58
PTYA 092258Z 16008KT 12SM FEW016 SCT130 BKN300 31/25 A2989

2010/08/09 23:07
KROC 092307Z 25005KT 2 1/2SM -RA BR FEW009 BKN025 OVC060 21/19 A2996

2010/08/09 23:00
SARI 092300Z 23008KT CAVOK 16/14 Q1021

2010/08/09 23:00
HKJK 092300Z 00000KT 9999 FEW007 SCT016 15/14 Q1022 NOSIG

2010/08/09 23:00
SARP 092300Z 14005KT CAVOK 15/09 Q1020

2010/08/09 23:00
KWDR 092300Z AUTO 14012G20KT 10SM SCT050 BKN065 28/21 A3005

2010/08/09 23:05
KTOL 092305Z 32012G22KT 3/4SM +RA BR SCT010 BKN050 BKN075 26/23 A2994

2010/08/09 23:07
CYYE 092307Z 26005KT 15SM FEW011 SCT025 OVC060 RMK SC2SC2SC4

2010/08/09 22:55
KJQF 092255Z 20005KT 10SM CLR 33/20 A2999

2010/08/09 23:05
KSUX 092305Z 09006KT 10SM BKN030 29/24 A2986

2010/08/09 23:05
KART 092305Z AUTO 23006KT 2SM -RA BR BKN008 BKN020 BKN036 23/22 A2993

2010/08/09 23:07
KROC 092307Z 25005KT 2 1/2SM -RA BR FEW009 BKN025 OVC060 21/19 A2996

2010/08/09 23:05
KTOL 092305Z 32012G22KT 3/4SM +RA BR SCT010 BKN050 BKN075 26/23 A2994

2010/08/09 23:00
TKPK 092300Z 03009KT 9999 FEW016 SCT050 BKN260 27/25 Q1014

2010/08/09 23:00
VTUU 092300Z 16002KT 9000 SCT023 BKN300 26/24 Q1004 A2966 NOSIG

2010/08/09 23:00
VTSF 092300Z VRB02KT 8000 -RA SCT018 BKN022 OVC300 25/24 Q1006 A2972

2010/08/09 23:05
KSUX 092305Z 09006KT 10SM BKN030 29/24 A2986

2010/08/09 23:00
YWLM 092300Z 05007KT 9999 -RA FEW017 SCT070 OVC090 15/14 Q1019 FM2300 MOD TURB BLW 5000FT

2010/08/09 23:00
YWLM 092300Z 05007KT 9999 -RA FEW017 SCT070 OVC090 15/14 Q1019 FM2300 MOD TURB BLW 5000FT

2010/08/09 23:00
YWLM 092300Z 05007KT 9999 -RA FEW017 SCT070 OVC090 15/14 Q1019 FM2300 MOD TURB BLW 5000FT

2010/08/09 23:00
YWLM 092300Z 05007KT 9999 -RA FEW017 SCT070 OVC090 15/14 Q1019 FM2300 MOD TURB BLW 5000FT

2010/08/09 23:00
CWAE 092300Z 18005KT 15SM FEW018 BKN052 OVC073 16/11 A2993 RMK SC2SC5AC2 WND ESTD SLP130

2010/08/09 23:00
CYBR 092300Z 20004KT 15SM FEW170 30/20 A2983 RMK AC1 SLP099

2010/08/09 23:00
CYPC 092300Z 02002KT 15SM -RA SCT006 BKN013 OVC075 08/07 A2978 RMK ST2SC4AC2 -RA INTMNT 9.0/7.7/0.2 LAST OB/NEXT101300 SLP086

2010/08/09 23:00
DAAE 092300Z 00000KT CAVOK 22/18 Q1014

2010/08/09 23:00
DABT 092300Z 08006KT CAVOK 25/08 Q1019

2010/08/09 23:00
DAOB 092300Z 00000KT CAVOK 25/12 Q1020

2010/08/09 23:00
DAOF 092300Z 34016KT 6000 FEW033CB SCT046 36/12 Q1012

2010/08/09 23:00
DAOR 092300Z 36012KT 9999 SCT033 33/11 Q1020

2010/08/09 23:00
DAUG 092300Z 09004KT CAVOK 31/14 Q1017

2010/08/09 23:00
DAUI 092300Z 06015KT CAVOK 35/03 Q1012

2010/08/09 23:00
DAUK 092300Z 00000KT CAVOK 30/18 Q1014

2010/08/09 23:00
DAUO 092300Z /////KT CAVOK 31/15 Q1014

2010/08/09 23:00
MGHT 092300Z 19006KT 9999 FEW025 FEW030CB BKN090 24/15 QFE 815/8 CB/PCPN WNW

2010/08/09 23:00
MGPB 092300Z 03006KT 9999 FEW020 SCT200 31/25 Q1009 A2980 CB DIST NW

2010/08/09 23:00
MGQZ 092300Z 18006KT 9999 FEW006 SCT020 BKN200 18/15 QFE 766/6 TCU N/W

2010/08/09 23:00
MGZA 092300Z 07006KT 9999 TS FEW017 FEW024CB SCT200 33/23 CB/TS SE/SSE CB S/ESE

2010/08/09 23:00
OIII 092300Z 17004KT CAVOK 27/02 Q1013 A2994 878/9

2010/08/09 22:57
PHNG 092257Z AUTO 07011G17KT 10SM SCT043 28/18 A3011 RMK AO2 SLP190 T02830183 $

2010/08/09 22:58
ROTM 092258Z 20010KT 9999 SCT010 BKN040 OVC100 27/26 A2980 RMK PK WND 20031/13 SHRAE45 SLP078 WND WRNG XWND ADV P0010 T02720256

2010/08/09 23:00
YWLM 092300Z 05007KT 9999 -RA FEW017 SCT070 OVC090 15/14 Q1019 FM2300 MOD TURB BLW 5000FT

2010/08/09 23:00
YWLM 092300Z 05007KT 9999 -RA FEW017 SCT070 OVC090 15/14 Q1019 FM2300 MOD TURB BLW 5000FT

2010/08/09 23:07
KROC 092307Z 25005KT 2 1/2SM -RA BR FEW009 BKN025 OVC060 21/19 A2996

2010/08/09 23:05
KTOL 092305Z 32012G22KT 3/4SM +RA BR SCT010 BKN050 BKN075 26/23 A2994

2010/08/09 23:00
VTBS 092300Z 17002KT 9000 FEW020 BKN300 26/24 Q1005 NOSIG

2010/08/09 23:00
VTBD 092300Z 20002KT 9999 FEW020 SCT120 BKN300 26/23 Q1004 NOSIG

2010/08/09 23:00
VTCC 092300Z 32002KT 9999 -RA BKN035 SCT110 26/24 Q1006 A2972

2010/08/09 23:00
VTBU 092300Z 23002KT 9999 FEW020 BKN300 29/26 Q1005 A2969

2010/08/09 23:00
VVTS 092300Z 22010KT 9999 SCT013 BKN040 24/24 Q1006 NOSIG

2010/08/09 23:00
VVNB 092300Z 31001KT 5000 NSC 26/25 Q1004 NOSIG

2010/08/09 23:00
VDPP 092300Z 18008KT 9999 SCT017 26/23 Q1004

2010/08/09 23:00
VVDN 092300Z VRB01KT 9999 FEW015 BKN250 25/23 Q1004 NOSIG

2010/08/09 23:00
GABS 092300Z 23004KT 9999 FEW025 FEW026CB 25/24 Q1016

2010/08/09 23:00
GOOY 092300Z 29003KT 9999 SCT013 26/22 Q1013 NOSIG

2010/08/09 23:00
DIAP 092300Z 23003KT 7000 SCT011 BKN080 24/23 Q1015 NOSIG

2010/08/09 23:00
GQNN 092300Z 28008KT 8000 NSC 27/21 Q1013 NOSIG

2010/08/09 23:00
GQPP 092300Z 33010KT CAVOK 22/20 Q1014 NOSIG

2010/08/09 23:00
GVAC 092300Z 06005KT 9999 SCT014 25/18 Q1015 NOSIG

2010/08/09 23:00
GBYD 092300Z 00000KT 9999 SCT011 FEW018CB SCT110 26/24 Q1013 CB N-E

2010/08/09 22:55
ETIH 092255Z AUTO 00000KT 9999 OVC075 12/12 A3009 RMK AO2 SLP184 T01170117 402180116 $

2010/08/09 23:00
LFBE 092300Z AUTO 00000KT 9999NDV NSC 14/12 Q1019

2010/08/09 23:00
LFBY 092300Z AUTO 17001KT 9999 // ////// 16/15 Q1020

2010/08/09 23:00
LFCR 092300Z AUTO 26006KT 9999NDV BKN031 17/13 Q1021

2010/08/09 23:00
LFJL 092300Z AUTO 18002KT 9999NDV NSC 17/10 Q1017

2010/08/09 23:00
LFKB 092300Z AUTO 19002KT 9999NDV NCD 21/19 Q1016

2010/08/09 23:00
LFKF 092300Z AUTO VRB03KT 9999NDV NCD 19/14 Q1016

2010/08/09 23:00
LFKJ 092300Z 05005KT CAVOK 20/17 Q1016 NOSIG

2010/08/09 23:00
LFLC 092300Z 22004KT 170V280 9999 SCT066 SCT083 22/15 Q1018 NOSIG

2010/08/09 23:00
LFLS 092300Z AUTO 20003KT 170V250 9999NDV SCT072 19/15 Q1017

2010/08/09 23:00
LFLY 092300Z AUTO 35004KT 9999NDV NSC 24/15 Q1017

2010/08/09 23:00
LFMK 092300Z AUTO 28007KT 240V310 9999NDV OVC045 21/16 Q1019

2010/08/09 23:00
LFMT 092300Z 29010KT CAVOK 24/16 Q1016 NOSIG

2010/08/09 23:00
LFMU 092300Z AUTO 30007KT 9999NDV NSC 23/17 Q1017

2010/08/09 23:00
LFOB 092300Z AUTO 31005KT 9999NDV NSC 14/11 Q1017

2010/08/09 23:00
LFOH 092300Z AUTO 20004KT 9999NDV NSC 16/12 Q1016

2010/08/09 23:00
LFOP 092300Z AUTO 00000KT 9999NDV NSC 13/11 Q1017

2010/08/09 23:00
LFPB 092300Z AUTO 35003KT 9999NDV NSC 18/13 Q1016

2010/08/09 23:00
LFRD 092300Z AUTO 19005KT 9999NDV SCT019 15/13 Q1017

2010/08/09 23:00
LFRJ 092300Z AUTO 22011KT 4400NDV BR OVC003/// 17/17 Q1016

2010/08/09 23:00
LFRO 092300Z AUTO 20008KT 9999NDV BKN011 OVC017 17/16 Q1016

2010/08/09 23:00
LFRZ 092300Z AUTO 29007KT 9999NDV NSC 16/15 Q1018

2010/08/09 23:00
LFSN 092300Z 00000KT CAVOK 17/12 Q1017 NOSIG

2010/08/09 23:00
LFST 092300Z AUTO VRB02KT 9999NDV NSC 16/13 Q1017

2010/08/09 23:00
BIAR 092300Z VRB03KT CAVOK 09/06 Q1013

2010/08/09 23:00
BIEG 092300Z 03007KT 0500 FG VV002 08/08 Q1012

2010/08/09 23:00
BIKF 092300Z 32006KT 9999 BKN012 10/07 Q1014

2010/08/09 23:00
BIRK 092300Z 32005KT 9999 BKN013 12/09 Q1014

2010/08/09 22:57
PHNG 092257Z AUTO 07011G17KT 10SM SCT043 28/18 A3011 RMK AO2 SLP190 T02830183 $

2010/08/09 22:57
PHNG 092257Z AUTO 07011G17KT 10SM SCT043 28/18 A3011 RMK AO2 SLP190 T02830183 $

2010/08/09 22:55
PTPN 092255Z 09005KT 15SM SCT017 BKN130 OVC300 30/25 A2988

2010/08/09 23:00
RJOO 092300Z 23006KT 180V260 9999 -SHRA FEW008 SCT015 BKN090 28/24 Q1014 RMK 1ST008 3CU015 6AC090 A2996

2010/08/09 23:00
RJTT 092300Z 14008KT 9999 FEW012 SCT020 BKN080 28/23 Q1016 RMK 1CU012 3CU020 6AC080 A3000

2010/08/09 23:00
BIKF 092300Z 32006KT 9999 BKN012 10/07 Q1014

2010/08/09 23:00
UAAA 092300Z 16002MPS 9999 FEW100 18/09 Q1008 88CLRD65 NOSIG

2010/08/09 23:00
UACC 092300Z 01005MPS 7000 FEW073 09/06 Q1016 040/0070 NOSIG RMK QFE730/0974

2010/08/09 23:00
UAFM 092300Z 13003MPS CAVOK 19/11 Q1008 NOSIG

2010/08/09 23:00
UATE 092300Z 05005MPS CAVOK 25/07 Q1010 120///70 NOSIG RMK QFE756/1008

2010/08/09 23:00
UATT 092300Z 07005MPS CAVOK 19/04 Q1019 31CLRD70 NOSIG RMK QFE744/0992

2010/08/09 23:00
UKBB 092300Z 28002MPS 9999 FEW033CB 23/20 Q1014 88290095 TEMPO 1000 TSRA

2010/08/09 23:00
UKFF 092300Z 07004MPS CAVOK 23/14 Q1010 01010070 NOSIG

2010/08/09 23:00
UKKK 092300Z 00000MPS 6000 SCT030CB BKN050 23/20 Q1015 08CLRD70 NOSIG

2010/08/09 23:00
UKLL 092300Z 00000MPS CAVOK 14/14 Q1017 31290550 TEMPO -TSRAGR

2010/08/09 23:00
UKOO 092300Z 01004MPS CAVOK 28/16 Q1011 34090070 NOSIG

2010/08/09 23:00
UMGG 092300Z 04004MPS 9999 FEW036 SCT100 20/19 Q1014 R28/290350 NOSIG

2010/08/09 23:00
UMMS 092300Z 33004MPS CAVOK 18/16 Q1016 R31/290060 NOSIG

2010/08/09 23:00
UTAA 092300Z 24003MPS 9999 SKC 25/01 Q1009 NOSIG

2010/08/09 23:00
UTDD 092300Z 00000MPS 9999 FEW140 22/10 Q1006 09CLRD70 NOSIG RMK QFE687/0917

2010/08/09 23:00
VTBD 092300Z 20002KT 9999 FEW020 SCT120 BKN300 26/23 Q1004 NOSIG

2010/08/09 23:07
CWFD 092307Z AUTO 36022G29KT 5/8SM 04/

2010/08/09 23:09
CYAY 092309Z AUTO 23014G21KT 9SM -RA OVC014 18/17 A2976 RMK SLP078 DENSITY ALT 600FT MAX WND 24021KT AT 2302Z

2010/08/09 23:00
TNCC 092300Z 10012KT 9999 FEW018 30/25 Q1010 NOSIG

2010/08/09 23:00
TNCA 092300Z 07011KT 9999 FEW020 30/24 Q1009 NOSIG

2010/08/09 23:00
TNCE 092300Z 06010KT 9999 SCT021 28/25 Q1014

2010/08/09 23:00
TNCB 092300Z AUTO 09013KT //// ////// 29/25 Q1010

