2010/08/08 01:59
MYEG 080159Z AUTO 08004KT 10SM CLR 28/23 A3000 RMK AO2 

2010/08/08 01:59
MYEG 080159Z AUTO 08004KT 10SM CLR 28/23 A3000 RMK AO2

2010/08/08 01:55
KFDW 080155Z AUTO 03003KT 10SM CLR 28/21 A2996 RMK AO1

2010/08/08 01:45
RJTH 080145Z 01003KT 340V060 9999 -SHRA FEW006 SCT025 BKN030 FEW030CB 26/25 Q1017 RMK 1ST006 3CU025 5CU030 2CB030 A3003 CB 10KM E MOV N

2010/08/08 01:45
KATW 080145Z 22009KT 10SM BKN080 24/21 A2982

2010/08/08 01:55
KFDW 080155Z AUTO 03003KT 10SM CLR 28/21 A2996 RMK AO1

2010/08/08 01:45
KATW 080145Z 22009KT 10SM BKN080 24/21 A2982

2010/08/08 01:45
RJTH 080145Z 01003KT 340V060 9999 -SHRA FEW006 SCT025 BKN030 FEW030CB 26/25 Q1017 RMK 1ST006 3CU025 5CU030 2CB030 A3003 CB 10KM E MOV N

2010/08/08 01:45
KEUG 080145Z 36011KT 10SM SCT055 BKN065 BKN120 26/14 A2987 RMK AO2 WSHFT 0127

2010/08/08 01:45
KHQM 080145Z AUTO 22010KT 1/4SM FG OVC001 15/14 A2993 RMK AO2

2010/08/08 01:45
KSJN 080145Z AUTO 28007KT 10SM BKN012 OVC019 17/15 A3016 RMK AO2 $

2010/08/08 01:55
KRQO 080155Z AUTO 00000KT 10SM CLR 32/19 A2983 RMK AO2

2010/08/08 01:45
PAER 080145Z 00000KT 11SM -RA OVC035 11/10 A2980 RMK EPC

2010/08/08 01:46
CYPR 080146Z AUTO 14003KT 9SM BKN009 OVC020 12/11 A2993 RMK SLP134 WND MISG

2010/08/08 01:45
CYPH 080145Z AUTO 22007KT 6SM OVC005 09/09 A2935

2010/08/08 01:46
CWOB 080146Z AUTO ///// 0SM CLR 05/ A2948

2010/08/08 01:45
KGZH 080145Z AUTO 21004KT 10SM VCTS CLR 26/24 A2992 RMK AO2 LTG DSNT NW-NE TSB39 P0007

2010/08/08 01:45
KMHR 080145Z 21011KT 10SM SKC 28/12 A2972

2010/08/08 01:45
KMWC 080145Z 22004KT 10SM SCT060 23/17 A2986

2010/08/08 01:45
KRCR 080145Z AUTO 00000KT 10SM CLR 23/19 A2995 RMK AO2

2010/08/08 01:45
KSFY 080145Z AUTO 16005KT 10SM CLR 24/20 A2986 RMK AO2

2010/08/08 01:45
CWWA 080145Z AUTO 10002KT 15/14 RMK AO1 T01520143

2010/08/08 01:45
KEUG 080145Z 36011KT 10SM SCT055 BKN065 BKN120 26/14 A2987 RMK AO2 WSHFT 0127

2010/08/08 01:45
KHQM 080145Z AUTO 22010KT 1/4SM FG OVC001 15/14 A2993 RMK AO2

2010/08/08 01:45
KSJN 080145Z AUTO 28007KT 10SM BKN012 OVC019 17/15 A3016 RMK AO2 $

2010/08/08 01:45
KGZH 080145Z AUTO 21004KT 10SM VCTS CLR 26/24 A2992 RMK AO2 LTG DSNT NW-NE TSB39 P0007

2010/08/08 01:45
KMHR 080145Z 21011KT 10SM SKC 28/12 A2972

2010/08/08 01:55
KRQO 080155Z AUTO 00000KT 10SM CLR 32/19 A2983 RMK AO2

2010/08/08 01:45
PAER 080145Z 00000KT 11SM -RA OVC035 11/10 A2980 RMK EPC

2010/08/08 01:45
KMWC 080145Z 22004KT 10SM SCT060 23/17 A2986

2010/08/08 01:45
KRCR 080145Z AUTO 00000KT 10SM CLR 23/19 A2995 RMK AO2

2010/08/08 01:45
KSFY 080145Z AUTO 16005KT 10SM CLR 24/20 A2986 RMK AO2

2010/08/08 01:47
MROC 080147Z 00000KT 3000 BR BCFG -DZ FEW002 BKN020 20/20 A3006 TEMPO 0500 FG VV///

2010/08/08 01:45
KHQM 080145Z AUTO 22010KT 1/4SM FG OVC001 15/14 A2993

2010/08/08 01:45
KEUG 080145Z 36011KT 10SM SCT055 BKN065 BKN120 26/14 A2987

2010/08/08 01:45
KSJN 080145Z AUTO 28007KT 10SM BKN012 OVC019 17/15 A3016

2010/08/08 01:45
KEUG 080145Z 36011KT 10SM SCT055 BKN065 BKN120 26/14 A2987

2010/08/08 01:45
KHQM 080145Z AUTO 22010KT 1/4SM FG OVC001 15/14 A2993

2010/08/08 01:45
KMWS 080145Z 21505G06KT 20/M05 RMK SNOW DEPTH M 

2010/08/08 01:47
CYVM 080147Z AUTO 04003KT 1/2SM OVC002 04/04 A2993

2010/08/08 01:45
K1H2 080145Z AUTO 00000KT 7SM CLR 23/21 A2993 RMK AO2 T02290209

2010/08/08 01:45
K3LF 080145Z AUTO 13005KT 7SM CLR 23/19 A2993 RMK AO2

2010/08/08 01:45
K3T5 080145Z AUTO 17005KT 10SM CLR 30/24 A2985 RMK AO2 T03000243

2010/08/08 01:45
KAJG 080145Z AUTO 00000KT 5SM BR CLR 22/21 A2994 RMK AO2 T02160206

2010/08/08 01:45
KALN 080145Z AUTO 11003KT 7SM CLR 24/21 A2991 RMK AO2 T02400210

2010/08/08 01:45
KAQO 080145Z AUTO 17005KT CLR 33/19 A2987 RMK AO2 PWINO

2010/08/08 01:47
KASW 080147Z AUTO 00000KT 10SM CLR 22/18 A2996 RMK AO2 T02200184

2010/08/08 01:45
KAXH 080145Z AUTO 00000KT 10SM CLR 28/24 A2987 RMK AO2 T02780243

2010/08/08 01:45
KBBD 080145Z AUTO 15005KT 10SM CLR 32/18 A2988 RMK

2010/08/08 01:45
KBKS 080145Z AUTO 12005KT 10SM SCT075 BKN085 31/24 A2983 RMK AO1 T03050238

2010/08/08 01:46
KBPC 080146Z AUTO 18010KT 10SM CLR 31/17 A2985 RMK AO2

2010/08/08 01:45
KBYY 080145Z AUTO 16004KT 10SM CLR 28/27 A2987 RMK AO2 T02840265

2010/08/08 01:45
KC75 080145Z AUTO 00000KT 10SM CLR 24/20 A2990 RMK AO2 T02380197

2010/08/08 01:45
KCPT 080145Z AUTO 14007KT 10SM CLR 32/22 A2984 RMK AO2

2010/08/08 01:45
KCUL 080145Z AUTO 03003KT 7SM CLR 21/18 A2993 RMK AO2 T02070179

2010/08/08 01:45
KDKB 080145Z AUTO 19005KT 10SM CLR 22/18 A2990 RMK AO2 T02170181

2010/08/08 01:45
KDKR 080145Z AUTO 20010KT 10SM OVC065 32/24 A2988 RMK AO2

2010/08/08 01:45
KDNV 080145Z AUTO 15003KT 7SM CLR 22/18 A2991 RMK AO2 T02180183

2010/08/08 01:45
KDZB 080145Z AUTO 15005KT 7SM CLR 31/19 A2985 RMK AO2 T03130190

2010/08/08 01:45
KERV 080145Z AUTO 15005KT 10SM SCT110 30/18 A2990 RMK AO2 T03030175

2010/08/08 01:45
KGNC 080145Z AUTO 16004KT 10SM CLR 31/13 A2992 RMK AO2 T03110131

2010/08/08 01:47
KGPM 080147Z AUTO 16007KT 10SM CLR 34/21 A2983 RMK AO2

2010/08/08 01:45
KGWB 080145Z AUTO 00000KT 10SM CLR 22/17 A2997 RMK AO2

2010/08/08 01:45
KGYB 080145Z AUTO 19004KT 10SM CLR 30/23 A2989 RMK AO2 T02970228

2010/08/08 01:45
KGYI 080145Z AUTO 11007KT 10SM BKN080 32/21 A2982 RMK AO2 LTG DSNT E T03170213

2010/08/08 01:45
KHHF 080145Z AUTO 17010KT 10SM CLR 33/20 A2983 RMK AO2 T03270203

2010/08/08 01:46
KHQZ 080146Z AUTO 15006KT 10SM CLR 32/22 A2981 RMK AO2

2010/08/08 01:45
KMER 080145Z 29007KT 10SM SKC 34/06 A2971

2010/08/08 01:45
KOXI 080145Z AUTO 17004KT 10SM CLR 21/19 A2993 RMK AO1 T02060186

2010/08/08 01:45
KPNT 080145Z AUTO 16004KT 10SM CLR 26/18 A2991 RMK AO2

2010/08/08 01:47
KPSN 080147Z AUTO 00000KT 28/24 A2986 RMK AO2 PWINO

2010/08/08 01:45
KRPJ 080145Z AUTO 17004KT 10SM CLR 21/19 A2990 RMK AO2 T02100193

2010/08/08 01:45
KRSV 080145Z AUTO 00000KT 7SM CLR 22/20 A2995 RMK AO2 T02190202

2010/08/08 01:47
KWHP 080147Z 13008KT 10SM SKC 23/

2010/08/08 01:45
KBBG 080145Z 12005KT 10SM FEW150 SCT250 27/22 A2991

2010/08/08 01:46
KHYR 080146Z AUTO 14006KT 10SM VCTS BKN029 OVC040 22/21 A2969 RMK AO2 LTG DSNT NW-NE TSB43

2010/08/08 01:55
KCCA 080155Z AUTO 00000KT 10SM BKN048 OVC050 29/23 A2988 RMK AO2

2010/08/08 01:47
KGEU 080147Z 36010KT 20SM SCT150 BKN200 33/16 A2977 RMK LAST

2010/08/08 01:55
KOLV 080155Z AUTO 00000KT 8SM BKN048 28/24 A2990 RMK A01 P000

2010/08/08 01:47
KSQL 080147Z 30008KT 20SM FEW010 19/12 A2980

2010/08/08 01:47
MROC 080147Z 00000KT 3000 -DZ BR BCFG FEW002 BKN020 20/20 A3006 TEMPO 0500 FG VV///

2010/08/08 01:47
MROC 080147Z 00000KT 3000 BR BCFG -DZ FEW002 BKN020 20/20 A3006 TEMPO 0500 FG VV///

2010/08/08 01:47
KCQT 080147Z AUTO VRB04KT 10SM CLR 21/13 A2984 RMK AO2 SLP102 T02060128 TSNO 

2010/08/08 01:46
CWOB 080146Z AUTO ///// 0SM CLR 05/ A2948

2010/08/08 01:45
CYPH 080145Z AUTO 22007KT 6SM OVC005 09/09 A2935

2010/08/08 01:46
CYPR 080146Z AUTO 14003KT 9SM BKN009 OVC020 12/11 A2993 RMK SLP134 WND MISG

2010/08/08 01:48
EHGR 080148Z AUTO 23003KT 8000NDV BR SCT032 15/15 Q1015 BLU

2010/08/08 01:46
ETAD 080146Z AUTO 00000KT 9999 BKN065 OVC080 15/13 A3000 RMK AO2 RAB0115E0146 SLP148 $

2010/08/08 01:47
KPAM 080147Z AUTO 12012KT 2 1/2SM -TSRA BR FEW002 BKN022 BKN028 OVC034 26/24 A2991 RMK AO2 RAB0131 TSB0132 SLP131 $

2010/08/08 01:47
MROC 080147Z 00000KT 3000 BR BCFG -DZ FEW002 BKN020 20/20 A3006 TEMPO 0500 FG VV///

2010/08/08 01:47
PGUA 080147Z AUTO 08010KT 10SM SCT017 BKN024 29/26 A2986 RMK AO2 SLP093 VISNO RWY24L $

2010/08/08 01:46
KSMP 080146Z AUTO VRB05KT 1 1/4SM -RA BR SCT003 BKN006 OVC017 11/11 A2997 RMK AO2 VIS 1/2V5 RAB19 P0000 TSNO $ 

2010/08/08 01:50
VECC 080150Z 18004KT 2500 HZ FEW020 SCT100 28/26 Q1004 NOSIG

2010/08/08 02:00
HAAB 080200Z 23002KT 9999 BKN023 BKN080 13/12 Q1024

2010/08/08 01:48
KJDN 080148Z AUTO 21005KT 27/10 A2971 RMK AO2 SLP044 T02720100 PWINO TSNO 

2010/08/08 01:47
PAIG 080147Z AUTO 23011KT 10SM OVC015 12/09 A2978 RMK AO2 PWINO TSNO $

2010/08/08 01:46
KSNK 080146Z AUTO 14005KT 10SM CLR 31/19 A2988 RMK AO2 T03060193

2010/08/08 01:45
KSWW 080145Z AUTO 13008KT 10SM CLR 33/17 A2990 RMK AO1 T03260165

2010/08/08 01:45
KT65 080145Z AUTO 16011G16KT 10SM CLR 30/24 A2985 RMK AO2 T02970240

2010/08/08 01:45
KT82 080145Z AUTO 17003KT 10SM CLR 29/17 A2992 RMK AO1 T02930166

2010/08/08 01:45
KTAZ 080145Z AUTO 16004KT 5SM HZ CLR 23/20 A2991 RMK AO2

2010/08/08 01:45
KTIP 080145Z AUTO 00000KT 7SM CLR 24/21 A2994 RMK AO2 T02400213

2010/08/08 01:45
KTYQ 080145Z AUTO 00000KT 7SM CLR 20/18 A2997 RMK AO2

2010/08/08 01:45
KUVA 080145Z AUTO 13008KT 10SM CLR 34/17 A2984 RMK AO2 T03400172

2010/08/08 01:46
KXBP 080146Z AUTO 16005KT 10SM CLR 33/20 A2982 RMK AO2 T03250201

2010/08/08 01:45
KMWS 080145Z 21505G06KT 20/M05 RMK SNOW DEPTH M

2010/08/08 01:47
KCQT 080147Z AUTO VRB04KT 10SM CLR 21/13 A2984 RMK AO2 SLP102 T02060128 TSNO

2010/08/08 01:48
KJDN 080148Z AUTO 21005KT 27/10 A2971 RMK AO2 SLP044 T02720100 PWINO TSNO

2010/08/08 01:45
K11R 080145Z AUTO 15005KT 10SM CLR 31/23 A2986 RMK AO2

2010/08/08 01:45
KCVB 080145Z AUTO 13005KT 10SM CLR 32/19 A2986 RMK AO2 T03190185

2010/08/08 01:45
KCWC 080145Z AUTO 12011KT 10SM CLR 34/21 A2980 RMK AO2 LTG DSNT SW T03350212

2010/08/08 01:47
KDUX 080147Z AUTO 16009KT 10SM CLR 29/17 A2991 RMK AO2 T02890165

2010/08/08 01:50
KEBG 080150Z AUTO 16010KT 10SM CLR 31/24 A2985 RMK AO2 T03110237

2010/08/08 01:45
KECU 080145Z AUTO 13006KT 10SM CLR 31/16 A2997 RMK AO2

2010/08/08 01:45
KENL 080145Z AUTO 10003KT 7SM CLR 21/19 A2993 RMK AO2 T02090189

2010/08/08 01:45
KFEP 080145Z AUTO 15004KT 10SM CLR 22/19 A2990 RMK AO2 T02220192

2010/08/08 01:45
KFWC 080145Z AUTO 00000KT 10SM CLR 22/20 A2993 RMK AO2

2010/08/08 01:45
KGBG 080145Z AUTO 17004KT 10SM CLR 24/19 A2988 RMK AO2

2010/08/08 01:45
KGOP 080145Z AUTO 00000KT 10SM CLR 31/21 A2986 RMK AO2

2010/08/08 01:45
KHSB 080145Z AUTO 00000KT 7SM CLR 22/17 A2993 RMK AO2

2010/08/08 01:45
KIGQ 080145Z AUTO 17005KT 4SM HZ CLR 23/18 A2991 RMK AO2

2010/08/08 01:45
KIJX 080145Z AUTO 14005KT 10SM CLR 24/20 A2991 RMK AO2 T02420200

2010/08/08 01:45
KINJ 080145Z AUTO 15005KT 10SM CLR 31/21 A2983 RMK AO2 T03120210

2010/08/08 01:45
KJAS 080145Z AUTO 18004KT 10SM CLR 30/26 A2990 RMK AO2 T03010255

2010/08/08 01:45
KJDD 080145Z AUTO 00000KT 10SM CLR 32/23 A2984 RMK AO2 LTG DSNT N

2010/08/08 01:45
KJSO 080145Z AUTO 00000KT 10SM CLR 31/22 A2988 RMK AO2 T03050220

2010/08/08 01:45
KJXI 080145Z AUTO 15003KT 10SM CLR 31/26 A2985 RMK AO2

2010/08/08 01:45
KLBR 080145Z AUTO 17003KT 10SM CLR 29/21 A2982 RMK AO2 T02920207

2010/08/08 01:45
KLNC 080145Z AUTO 15005KT 10SM CLR 31/23 A2982 RMK AO2 T03100234

2010/08/08 01:45
KLOT 080145Z AUTO 21004KT 10SM CLR 23/20 A2990 RMK AO2 T02260201

2010/08/08 01:45
KLUD 080145Z AUTO 16008KT 10SM CLR 33/19 A2982 RMK AO2 T03290191

2010/08/08 01:47
KM30 080147Z AUTO 04003KT 7SM CLR 27/15 A2990 RMK AO2

2010/08/08 01:45
KMDD 080145Z AUTO 16011KT 10SM CLR 34/13 A2989 RMK AO2 T03430133

2010/08/08 01:55
KMNZ 080155Z AUTO 15007KT 10SM CLR 32/19 A2986 RMK AO2

2010/08/08 01:46
KORG 080146Z AUTO 21004KT 10SM CLR 28/25 A2989 RMK AO2

2010/08/08 01:45
KPEQ 080145Z AUTO 12008KT 10SM CLR 35/12 A2983 RMK AO2 T03510115

2010/08/08 01:45
KPEZ 080145Z AUTO 13007KT 10SM CLR 32/20 A2986 RMK AO2 T03160204

2010/08/08 01:48
KPKV 080148Z AUTO 16004KT 10SM CLR 28/24 A2987 RMK AO2 T02750236

2010/08/08 01:47
KCIC 080147Z 16010KT 25SM FEW080 A2966 RMK LAST

2010/08/08 01:46
KGVT 080146Z AUTO 15007KT 10SM CLR 33/21 A2983 RMK AO2 LTG DSNT NE

2010/08/08 01:47
KGYR 080147Z 36010KT 20SM FEW100 SCT150 BKN250 36/17 A2975

2010/08/08 01:45
KGYY 080145Z VRB04KT 10SM SCT200 25/19 A2990

2010/08/08 01:45
KMWA 080145Z AUTO 00000KT 7SM CLR 25/18 A2994 RMK AO2 T02500180

2010/08/08 01:47
KPPQ 080147Z AUTO 13003KT 7SM CLR 25/21 A2991 RMK AO2

2010/08/08 01:45
KRAS 080145Z AUTO 15011KT 10SM CLR 30/26 A2989 RMK AO2

2010/08/08 01:45
KRBO 080145Z AUTO 14008KT 10SM CLR 30/25 A2986 RMK AO2 T02970253

2010/08/08 01:45
KRPH 080145Z AUTO 18003KT 10SM CLR 29/21 A2980 RMK AO2 T02930212

2010/08/08 01:45
KRYW 080145Z AUTO 15006KT 3/4SM HZ VV005 31/20 A2988 RMK AO2

2010/08/08 01:45
KSAR 080145Z AUTO 00000KT 7SM CLR 23/21 A2992 RMK AO2

2010/08/08 01:45
KSLO 080145Z AUTO 11003KT 7SM CLR 22/18 A2994 RMK AO2 T02190181

2010/08/08 01:46
KSMP 080146Z AUTO VRB05KT 1 1/4SM -RA BR SCT003 BKN006 OVC017 11/11 A2997 RMK AO2 VIS 1/2V5 RAB19 P0000 TSNO $

2010/08/08 01:46
KHYR 080146Z AUTO 14006KT 10SM VCTS BKN029 OVC040 22/21 A2969 RMK AO2 LTG DSNT NW-NE TSB43

2010/08/08 01:47
PAIG 080147Z AUTO 23011KT 10SM OVC015 12/09 A2978 RMK AO2 PWINO TSNO $

2010/08/08 01:46
KSMP 080146Z AUTO VRB05KT 1 1/4SM -RA BR SCT003 BKN006 OVC017 11/11 A2997 RMK AO2 VIS 1/2V5 RAB19 P0000 TSNO $

2010/08/08 01:47
KPAM 080147Z AUTO 12012KT 2 1/2SM -TSRA BR FEW002 BKN022 BKN028 OVC034 26/24 A2991 RMK AO2 RAB0131 TSB0132 SLP131 $

2010/08/08 01:47
PGUA 080147Z AUTO 08010KT 10SM SCT017 BKN024 29/26 A2986 RMK AO2 SLP093 VISNO RWY24L $

2010/08/08 02:00
HAAB 080200Z 23002KT 9999 BKN023 BKN080 13/12 Q1024

2010/08/08 01:45
KJSO 080145Z AUTO 00000KT 10SM CLR 31/22 A2988 RMK AO2 T03050220

2010/08/08 01:45
KJXI 080145Z AUTO 15003KT 10SM CLR 31/26 A2985 RMK AO2

2010/08/08 01:45
KLBR 080145Z AUTO 17003KT 10SM CLR 29/21 A2982 RMK AO2 T02920207

2010/08/08 01:45
KLNC 080145Z AUTO 15005KT 10SM CLR 31/23 A2982 RMK AO2 T03100234

2010/08/08 01:45
KLOT 080145Z AUTO 21004KT 10SM CLR 23/20 A2990 RMK AO2 T02260201

2010/08/08 01:45
KLUD 080145Z AUTO 16008KT 10SM CLR 33/19 A2982 RMK AO2 T03290191

2010/08/08 01:47
KM30 080147Z AUTO 04003KT 7SM CLR 27/15 A2990 RMK AO2

2010/08/08 01:45
KMDD 080145Z AUTO 16011KT 10SM CLR 34/13 A2989 RMK AO2 T03430133

2010/08/08 01:55
KMNZ 080155Z AUTO 15007KT 10SM CLR 32/19 A2986 RMK AO2

2010/08/08 01:46
KORG 080146Z AUTO 21004KT 10SM CLR 28/25 A2989 RMK AO2

2010/08/08 01:45
KPEQ 080145Z AUTO 12008KT 10SM CLR 35/12 A2983 RMK AO2 T03510115

2010/08/08 01:45
KPEZ 080145Z AUTO 13007KT 10SM CLR 32/20 A2986 RMK AO2 T03160204

2010/08/08 01:48
KPKV 080148Z AUTO 16004KT 10SM CLR 28/24 A2987 RMK AO2 T02750236

2010/08/08 01:45
PHJH 080145Z 05017G22KT 15SM FEW025 SCT040 29/20 A3003

2010/08/08 01:47
KCIC 080147Z 16010KT 25SM FEW080 A2966 RMK LAST

2010/08/08 01:46
KGVT 080146Z AUTO 15007KT 10SM CLR 33/21 A2983 RMK AO2 LTG DSNT NE

2010/08/08 01:47
KGYR 080147Z 36010KT 20SM FEW100 SCT150 BKN250 36/17 A2975

2010/08/08 01:45
KGYY 080145Z VRB04KT 10SM SCT200 25/19 A2990

2010/08/08 01:45
KMWA 080145Z AUTO 00000KT 7SM CLR 25/18 A2994 RMK AO2 T02500180

2010/08/08 01:47
KPPQ 080147Z AUTO 13003KT 7SM CLR 25/21 A2991 RMK AO2

2010/08/08 01:45
KRAS 080145Z AUTO 15011KT 10SM CLR 30/26 A2989 RMK AO2

2010/08/08 01:45
KRBO 080145Z AUTO 14008KT 10SM CLR 30/25 A2986 RMK AO2 T02970253

2010/08/08 01:45
KRPH 080145Z AUTO 18003KT 10SM CLR 29/21 A2980 RMK AO2 T02930212

2010/08/08 01:45
KRYW 080145Z AUTO 15006KT 3/4SM HZ VV005 31/20 A2988 RMK AO2

2010/08/08 01:45
KSAR 080145Z AUTO 00000KT 7SM CLR 23/21 A2992 RMK AO2

2010/08/08 01:45
KSLO 080145Z AUTO 11003KT 7SM CLR 22/18 A2994 RMK AO2 T02190181

2010/08/08 01:46
KSNK 080146Z AUTO 14005KT 10SM CLR 31/19 A2988 RMK AO2 T03060193

2010/08/08 01:45
KSWW 080145Z AUTO 13008KT 10SM CLR 33/17 A2990 RMK AO1 T03260165

2010/08/08 01:45
KT65 080145Z AUTO 16011G16KT 10SM CLR 30/24 A2985 RMK AO2 T02970240

2010/08/08 01:45
KT82 080145Z AUTO 17003KT 10SM CLR 29/17 A2992 RMK AO1 T02930166

2010/08/08 01:45
KTAZ 080145Z AUTO 16004KT 5SM HZ CLR 23/20 A2991 RMK AO2

2010/08/08 01:45
KTIP 080145Z AUTO 00000KT 7SM CLR 24/21 A2994 RMK AO2 T02400213

2010/08/08 01:45
KTYQ 080145Z AUTO 00000KT 7SM CLR 20/18 A2997 RMK AO2

2010/08/08 01:45
KUVA 080145Z AUTO 13008KT 10SM CLR 34/17 A2984 RMK AO2 T03400172

2010/08/08 01:46
KXBP 080146Z AUTO 16005KT 10SM CLR 33/20 A2982 RMK AO2 T03250201

2010/08/08 02:00
LQMO 080200Z 00000KT CAVOK 16/14 Q1014

2010/08/08 01:45
KCUL 080145Z AUTO 03003KT 7SM CLR 21/18 A2993 RMK AO2 T02070179

2010/08/08 01:47
KPSN 080147Z AUTO 00000KT 28/24 A2986 RMK AO2 PWINO

2010/08/08 01:45
KMWS 080145Z 21505G06KT 20/M05 RMK SNOW DEPTH M

2010/08/08 01:47
KCQT 080147Z AUTO VRB04KT 10SM CLR 21/13 A2984 RMK AO2 SLP102 T02060128 TSNO

2010/08/08 01:48
KJDN 080148Z AUTO 21005KT 27/10 A2971 RMK AO2 SLP044 T02720100 PWINO TSNO

2010/08/08 01:45
K1H2 080145Z AUTO 00000KT 7SM CLR 23/21 A2993 RMK AO2 T02290209

2010/08/08 01:45
K3LF 080145Z AUTO 13005KT 7SM CLR 23/19 A2993 RMK AO2

2010/08/08 01:45
K3T5 080145Z AUTO 17005KT 10SM CLR 30/24 A2985 RMK AO2 T03000243

2010/08/08 01:45
KAJG 080145Z AUTO 00000KT 5SM BR CLR 22/21 A2994 RMK AO2 T02160206

2010/08/08 01:45
KALN 080145Z AUTO 11003KT 7SM CLR 24/21 A2991 RMK AO2 T02400210

2010/08/08 01:45
KAQO 080145Z AUTO 17005KT CLR 33/19 A2987 RMK AO2 PWINO

2010/08/08 01:47
KASW 080147Z AUTO 00000KT 10SM CLR 22/18 A2996 RMK AO2 T02200184

2010/08/08 01:45
KAXH 080145Z AUTO 00000KT 10SM CLR 28/24 A2987 RMK AO2 T02780243

2010/08/08 01:45
KBBD 080145Z AUTO 15005KT 10SM CLR 32/18 A2988 RMK

2010/08/08 01:45
KBKS 080145Z AUTO 12005KT 10SM SCT075 BKN085 31/24 A2983 RMK AO1 T03050238

2010/08/08 01:46
KBPC 080146Z AUTO 18010KT 10SM CLR 31/17 A2985 RMK AO2

2010/08/08 01:45
KBYY 080145Z AUTO 16004KT 10SM CLR 28/27 A2987 RMK AO2 T02840265

2010/08/08 01:45
KC75 080145Z AUTO 00000KT 10SM CLR 24/20 A2990 RMK AO2 T02380197

2010/08/08 01:45
KCPT 080145Z AUTO 14007KT 10SM CLR 32/22 A2984 RMK AO2

2010/08/08 01:45
KDKB 080145Z AUTO 19005KT 10SM CLR 22/18 A2990 RMK AO2 T02170181

2010/08/08 01:45
KDKR 080145Z AUTO 20010KT 10SM OVC065 32/24 A2988 RMK AO2

2010/08/08 01:45
KDNV 080145Z AUTO 15003KT 7SM CLR 22/18 A2991 RMK AO2 T02180183

2010/08/08 01:45
KDZB 080145Z AUTO 15005KT 7SM CLR 31/19 A2985 RMK AO2 T03130190

2010/08/08 01:45
KERV 080145Z AUTO 15005KT 10SM SCT110 30/18 A2990 RMK AO2 T03030175

2010/08/08 01:45
KGNC 080145Z AUTO 16004KT 10SM CLR 31/13 A2992 RMK AO2 T03110131

2010/08/08 01:47
KGPM 080147Z AUTO 16007KT 10SM CLR 34/21 A2983 RMK AO2

2010/08/08 01:45
KGWB 080145Z AUTO 00000KT 10SM CLR 22/17 A2997 RMK AO2

2010/08/08 01:45
KGYB 080145Z AUTO 19004KT 10SM CLR 30/23 A2989 RMK AO2 T02970228

2010/08/08 01:45
KGYI 080145Z AUTO 11007KT 10SM BKN080 32/21 A2982 RMK AO2 LTG DSNT E T03170213

2010/08/08 01:45
KHHF 080145Z AUTO 17010KT 10SM CLR 33/20 A2983 RMK AO2 T03270203

2010/08/08 01:46
KHQZ 080146Z AUTO 15006KT 10SM CLR 32/22 A2981 RMK AO2

2010/08/08 01:45
KMER 080145Z 29007KT 10SM SKC 34/06 A2971

2010/08/08 01:45
KOXI 080145Z AUTO 17004KT 10SM CLR 21/19 A2993 RMK AO1 T02060186

2010/08/08 01:45
KPNT 080145Z AUTO 16004KT 10SM CLR 26/18 A2991 RMK AO2

2010/08/08 01:45
KRPJ 080145Z AUTO 17004KT 10SM CLR 21/19 A2990 RMK AO2 T02100193

2010/08/08 01:45
KRSV 080145Z AUTO 00000KT 7SM CLR 22/20 A2995 RMK AO2 T02190202

2010/08/08 01:47
KWHP 080147Z 13008KT 10SM SKC 23/

2010/08/08 01:45
KBBG 080145Z 12005KT 10SM FEW150 SCT250 27/22 A2991

2010/08/08 01:55
KCCA 080155Z AUTO 00000KT 10SM BKN048 OVC050 29/23 A2988 RMK AO2

2010/08/08 01:47
KGEU 080147Z 36010KT 20SM SCT150 BKN200 33/16 A2977 RMK LAST

2010/08/08 01:55
KOLV 080155Z AUTO 00000KT 8SM BKN048 28/24 A2990 RMK A01 P000

2010/08/08 01:47
KSQL 080147Z 30008KT 20SM FEW010 19/12 A2980

2010/08/08 01:45
K11R 080145Z AUTO 15005KT 10SM CLR 31/23 A2986 RMK AO2

2010/08/08 01:45
KCVB 080145Z AUTO 13005KT 10SM CLR 32/19 A2986 RMK AO2 T03190185

2010/08/08 01:45
KCWC 080145Z AUTO 12011KT 10SM CLR 34/21 A2980 RMK AO2 LTG DSNT SW T03350212

2010/08/08 01:47
KDUX 080147Z AUTO 16009KT 10SM CLR 29/17 A2991 RMK AO2 T02890165

2010/08/08 01:50
KEBG 080150Z AUTO 16010KT 10SM CLR 31/24 A2985 RMK AO2 T03110237

2010/08/08 01:45
KECU 080145Z AUTO 13006KT 10SM CLR 31/16 A2997 RMK AO2

2010/08/08 01:45
KENL 080145Z AUTO 10003KT 7SM CLR 21/19 A2993 RMK AO2 T02090189

2010/08/08 01:45
KFEP 080145Z AUTO 15004KT 10SM CLR 22/19 A2990 RMK AO2 T02220192

2010/08/08 01:45
KFWC 080145Z AUTO 00000KT 10SM CLR 22/20 A2993 RMK AO2

2010/08/08 01:45
KGBG 080145Z AUTO 17004KT 10SM CLR 24/19 A2988 RMK AO2

2010/08/08 01:45
KGOP 080145Z AUTO 00000KT 10SM CLR 31/21 A2986 RMK AO2

2010/08/08 01:45
KHSB 080145Z AUTO 00000KT 7SM CLR 22/17 A2993 RMK AO2

2010/08/08 01:45
KIGQ 080145Z AUTO 17005KT 4SM HZ CLR 23/18 A2991 RMK AO2

2010/08/08 01:45
KIJX 080145Z AUTO 14005KT 10SM CLR 24/20 A2991 RMK AO2 T02420200

2010/08/08 01:45
KINJ 080145Z AUTO 15005KT 10SM CLR 31/21 A2983 RMK AO2 T03120210

2010/08/08 01:45
KJAS 080145Z AUTO 18004KT 10SM CLR 30/26 A2990 RMK AO2 T03010255

2010/08/08 01:45
KJDD 080145Z AUTO 00000KT 10SM CLR 32/23 A2984 RMK AO2 LTG DSNT N

2010/08/08 01:47
MROC 080147Z 00000KT 3000 -DZ BR BCFG FEW002 BKN020 20/20 A3006 TEMPO 0500 FG VV///

2010/08/08 01:47
PGUA 080147Z AUTO 08010KT 10SM SCT017 BKN024 29/26 A2986

2010/08/08 01:48
EHGR 080148Z AUTO 23003KT 8000NDV BR SCT032 15/15 Q1015 BLU

2010/08/08 01:47
PGUA 080147Z AUTO 08010KT 10SM SCT017 BKN024 29/26 A2986 RMK AO2 SLP093 VISNO RWY24L $

2010/08/08 01:45
PHJH 080145Z 05017G22KT 15SM FEW025 SCT040 29/20 A3003

2010/08/08 01:46
ETAD 080146Z AUTO 00000KT 9999 BKN065 OVC080 15/13 A3000 RMK AO2 RAB0115E0146 SLP148 $

2010/08/08 01:47
MMOX 080147Z 04006KT 7SM SCT025CB BKN100 BKN200 21/18 A3011 RMK 8/363 PCPN SW

2010/08/08 01:48
KIGM 080148Z AUTO 13016KT 10SM SCT080 30/10 A2989 RMK AO2 SLP048 T03000100 TSNO 

2010/08/08 01:46
KSMP 080146Z AUTO VRB05KT 1 1/4SM -RA BR SCT003 BKN006 OVC017 11/11 A2997

2010/08/08 01:50
EETU 080150Z AUTO 12005KT 5000NDV BR NCD 22/20 Q1014

2010/08/08 01:50
EKVG 080150Z AUTO 24001KT 9999NDV OVC023/// 10/07 Q1017 RMK OVC024/// WIND 850FT 20002KT

2010/08/08 02:00
LQMO 080200Z 00000KT CAVOK 16/14 Q1014

2010/08/08 01:50
EYKA 080150Z 26011KT 9999 TSRA SCT014CB OVC098 20/19 Q1012

2010/08/08 01:46
KSMP 080146Z AUTO VRB05KT 1 1/4SM -RA BR SCT003 BKN006 OVC017 11/11 A2997

2010/08/08 01:49
CZUM 080149Z AUTO 23006KT 9SM -RA CLR 10/06 A2960

2010/08/08 01:49
KACV 080149Z AUTO 27005KT 10SM FEW006 OVC013 13/12 A2994 RMK AO2

2010/08/08 01:49
KBCE 080149Z AUTO 15008KT 10SM BKN017 14/11 A3023 RMK AO2 $

2010/08/08 01:49
KBFI 080149Z 15006KT 10SM -RA BKN013 OVC060 18/16 A2989 RMK AO2 P0002

2010/08/08 01:48
PAVL 080148Z AUTO 29014KT 1 3/4SM -RA BR OVC001 11/09 A2957 RMK AO2 VIS 3/4V5 P0000 TSNO

2010/08/08 01:48
KASG 080148Z 15005KT 8SM SCT150 27/23 A2990 RMK LAST

2010/08/08 01:48
KRYN 080148Z 22007KT 10SM CLR 29/19 A2989

2010/08/08 01:45
KSCH 080145Z 00000KT 10SM CLR 17/10 A3000 RMK LAST

2010/08/08 01:47
KTOA 080147Z 28010KT 10SM FEW015 19/14 A2986 RMK ST W

2010/08/08 01:47
KBJC 080147Z 00000KT 40SM FEW060 SCT070 25/07 A3000

2010/08/08 01:47
KPAO 080147Z 34015KT 30SM SKC A2979

2010/08/08 02:00
MPTO 080200Z 00000KT 9999 SCT016 BKN090 25/24 Q1011 NOSIG

2010/08/08 01:50
EKVG 080150Z AUTO 24001KT 9999NDV OVC023/// 10/07 Q1017 RMK OVC024/// WIND 850FT 20002KT

2010/08/08 01:50
EYKA 080150Z 26011KT 9999 TSRA SCT014CB OVC098 20/19 Q1012

2010/08/08 01:50
EYPA 080150Z 15003KT 2400 BR BKN008 19/19 Q1011

2010/08/08 01:50
EETN 080150Z 12004KT 6000 NSC 22/20 Q1013 

2010/08/08 01:50
MSLP 080150Z 00000KT 9999 SCT020 SCT070 BKN300 26/25 Q1011 A2988 DSTN LTGIC TO NE/E

2010/08/08 01:50
MSSS 080150Z 18003KT 9999 SCT027 FEW040CB SCT300 24/22 Q1015 A3000 LTGIC TO NE/E

2010/08/08 01:50
EYVI 080150Z VRB03KT 7000 BKN047CB OVC110 18/16 Q1013 NOSIG

2010/08/08 01:45
K1H2 080145Z AUTO 00000KT 7SM CLR 23/21 A2993

2010/08/08 01:45
KC75 080145Z AUTO 00000KT 10SM CLR 24/20 A2990

2010/08/08 01:45
KDKB 080145Z AUTO 19005KT 10SM CLR 22/18 A2990

2010/08/08 01:45
KDNV 080145Z AUTO 15003KT 7SM CLR 22/18 A2991

2010/08/08 01:45
KENL 080145Z AUTO 10003KT 7SM CLR 21/19 A2993

2010/08/08 01:45
KFEP 080145Z AUTO 15004KT 10SM CLR 22/19 A2990

2010/08/08 01:45
KFWC 080145Z AUTO 00000KT 10SM CLR 22/20 A2993

2010/08/08 01:45
KGBG 080145Z AUTO 17004KT 10SM CLR 24/19 A2988

2010/08/08 01:45
KHSB 080145Z AUTO 00000KT 7SM CLR 22/17 A2993

2010/08/08 01:45
KIGQ 080145Z AUTO 17005KT 4SM HZ CLR 23/18 A2991

2010/08/08 01:45
KIJX 080145Z AUTO 14005KT 10SM CLR 24/20 A2991

2010/08/08 01:45
KLOT 080145Z AUTO 21004KT 10SM CLR 23/20 A2990

2010/08/08 01:45
KMWA 080145Z AUTO 00000KT 7SM CLR 25/18 A2994

2010/08/08 01:45
KPNT 080145Z AUTO 16004KT 10SM CLR 26/18 A2991

2010/08/08 01:47
KPPQ 080147Z AUTO 13003KT 7SM CLR 25/21 A2991

2010/08/08 01:45
KSAR 080145Z AUTO 00000KT 7SM CLR 23/21 A2992

2010/08/08 01:45
KSLO 080145Z AUTO 11003KT 7SM CLR 22/18 A2994

2010/08/08 01:45
KTAZ 080145Z AUTO 16004KT 5SM HZ CLR 23/20 A2991

2010/08/08 01:45
KTIP 080145Z AUTO 00000KT 7SM CLR 24/21 A2994

2010/08/08 01:45
K11R 080145Z AUTO 15005KT 10SM CLR 31/23 A2986

2010/08/08 01:45
KBYY 080145Z AUTO 16004KT 10SM CLR 28/27 A2987

2010/08/08 01:45
KLNC 080145Z AUTO 15005KT 10SM CLR 31/23 A2982

2010/08/08 01:48
KIGM 080148Z AUTO 13016KT 10SM SCT080 30/10 A2989

2010/08/08 01:48
KJDN 080148Z AUTO 21005KT 27/10 A2971

2010/08/08 01:45
KMWS 080145Z 21505G06KT 20/M05

2010/08/08 02:00
ORSU 080200Z VRB03KT 9999 FEW045 27/05 Q1010 

2010/08/08 01:45
KALN 080145Z AUTO 11003KT 7SM CLR 24/21 A2991

2010/08/08 01:45
KGYY 080145Z VRB04KT 10SM SCT200 25/19 A2990

2010/08/08 01:45
PHJH 080145Z 05017G22KT 15SM FEW025 SCT040 29/20 A3003

2010/08/08 01:55
KQTU 080155Z 32008G13KT 9999 CLR 33/01 A2966 RMK SLP021

2010/08/08 01:45
LMML 080145Z 31007KT CAVOK 20/17 Q1016 NOSIG 

2010/08/08 01:50
EYVI 080150Z VRB03KT 7000 BKN047CB OVC110 18/16 Q1013 NOSIG

2010/08/08 01:50
EETN 080150Z 12004KT 6000 NSC 22/20 Q1013 

2010/08/08 01:50
EYPA 080150Z 15003KT 2400 BR BKN008 19/19 Q1011

2010/08/08 01:45
LMML 080145Z 31007KT CAVOK 20/17 Q1016 NOSIG 

2010/08/08 02:00
GVAC 080200Z 02006KT 9999 BKN015 25/20 Q1014 NOSIG

2010/08/08 01:50
CYEV 080150Z 35006KT 2SM -DZ BR BKN006 OVC015 RMK SC3SC5

2010/08/08 01:48
KEHA 080148Z AUTO 17006KT 28/17 RMK AO1 PK WND 09 000 T02830167

2010/08/08 01:50
KMTJ 080150Z AUTO 03003KT 6SM -RA BR BKN020 17/16 A3016 RMK AO2 LTG DSNT E TSB14E31 P0014

2010/08/08 01:50
KACV 080150Z AUTO 27005KT 10SM FEW006 OVC013 13/12 A2994 RMK AO2 SLP144 T01330117

2010/08/08 01:55
KGGE 080155Z AUTO 00000KT 10SM CLR 25/25 A2992 RMK AO2

2010/08/08 01:50
KRHV 080150Z 28010KT 10SM SKC 23/14 A2979

2010/08/08 01:50
PAKU 080150Z 07022KT 7SM -RA OVC007 06/04 A2974

2010/08/08 01:49
PAVL 080149Z AUTO 29014KT 1 3/4SM -RA BR OVC001 11/09 A2957 RMK AO2 VIS 3/4V4 SLP014 P0000 T01060094 TSNO

2010/08/08 01:48
KIGM 080148Z AUTO 13016KT 10SM SCT080 30/10 A2989 RMK AO2 SLP048 T03000100 TSNO

2010/08/08 01:48
KEHA 080148Z AUTO 17006KT 28/17 RMK AO1 PK WND 09 000 T02830167

2010/08/08 02:00
SPIM 080200Z 17010KT 8000 OVC015 15/12 Q1016 NOSIG RMK PP000

2010/08/08 01:49
KACV 080149Z AUTO 27005KT 10SM FEW006 OVC013 13/12 A2994 RMK AO2

2010/08/08 01:49
KBCE 080149Z AUTO 15008KT 10SM BKN017 14/11 A3023 RMK AO2 $

2010/08/08 01:49
KBFI 080149Z 15006KT 10SM -RA BKN013 OVC060 18/16 A2989 RMK AO2 P0002

2010/08/08 01:48
PAVL 080148Z AUTO 29014KT 1 3/4SM -RA BR OVC001 11/09 A2957 RMK AO2 VIS 3/4V5 P0000 TSNO

2010/08/08 01:50
KMTJ 080150Z AUTO 03003KT 6SM -RA BR BKN020 17/16 A3016 RMK AO2 LTG DSNT E TSB14E31 P0014

2010/08/08 01:48
KASG 080148Z 15005KT 8SM SCT150 27/23 A2990 RMK LAST

2010/08/08 01:48
KRYN 080148Z 22007KT 10SM CLR 29/19 A2989

2010/08/08 01:45
KSCH 080145Z 00000KT 10SM CLR 17/10 A3000 RMK LAST

2010/08/08 01:47
KTOA 080147Z 28010KT 10SM FEW015 19/14 A2986 RMK ST W

2010/08/08 01:47
KBJC 080147Z 00000KT 40SM FEW060 SCT070 25/07 A3000

2010/08/08 01:47
KPAO 080147Z 34015KT 30SM SKC A2979

2010/08/08 01:50
KACV 080150Z AUTO 27005KT 10SM FEW006 OVC013 13/12 A2994 RMK AO2 SLP144 T01330117

2010/08/08 01:55
KGGE 080155Z AUTO 00000KT 10SM CLR 25/25 A2992 RMK AO2

2010/08/08 01:50
KRHV 080150Z 28010KT 10SM SKC 23/14 A2979

2010/08/08 01:50
PAKU 080150Z 07022KT 7SM -RA OVC007 06/04 A2974

2010/08/08 01:49
PAVL 080149Z AUTO 29014KT 1 3/4SM -RA BR OVC001 11/09 A2957 RMK AO2 VIS 3/4V4 SLP014 P0000 T01060094 TSNO

2010/08/08 01:48
KIGM 080148Z AUTO 13016KT 10SM SCT080 30/10 A2989 RMK AO2 SLP048 T03000100 TSNO

2010/08/08 01:48
KEHA 080148Z AUTO 17006KT 28/17 RMK AO1 PK WND 09 000 T02830167

2010/08/08 01:50
MSSS 080150Z 18003KT 9999 SCT027 FEW040CB SCT300 24/22 Q1015 CB NE/E

2010/08/08 01:50
MSLP 080150Z 00000KT 9999 SCT020 SCT070 BKN300 26/25 Q1011 DSTN LTGIC NNE

2010/08/08 01:50
HLLB 080150Z 00000KT 7000 SCT015 21/18 Q1014

2010/08/08 01:49
MMMX 080149Z 25004KT 8SM SCT020CB BKN080 BKN200 17/14 A3028 TEMPO 5SM -TSRA RMK 60005 8/363 HZY CB N-NW

2010/08/08 01:45
LMML 080145Z 31007KT CAVOK 20/17 Q1016 NOSIG

2010/08/08 01:49
KBFI 080149Z 15006KT 10SM -RA BKN013 OVC060 18/16 A2989

2010/08/08 01:51
KSAN 080151Z 29005KT 10SM SCT021 18/12 A2988 RMK AO2 SLP118 T01830122 $ 

2010/08/08 01:51
KCBE 080151Z AUTO 00000KT 10SM CLR 23/15 A3004 RMK AO1

2010/08/08 01:50
K2G4 080150Z AUTO 32003KT 10SM CLR 18/11 A3011 RMK AO1

2010/08/08 01:50
K2W6 080150Z AUTO 00000KT 10SM CLR 22/15 A2999 RMK AO1

2010/08/08 01:48
KCGE 080148Z AUTO 00000KT 10SM CLR 22/20 A2999 RMK AO1

2010/08/08 01:50
KCGS 080150Z AUTO 00000KT 10SM CLR 23/17 A2998 RMK AO1

2010/08/08 01:52
KDMW 080152Z AUTO 00000KT 10SM CLR 24/17 A3001 RMK AO2

2010/08/08 01:49
KACV 080149Z AUTO 27005KT 10SM FEW006 OVC013 13/12 A2994

2010/08/08 01:49
KBFI 080149Z 15006KT 10SM -RA BKN013 OVC060 18/16 A2989

2010/08/08 01:51
KFDK 080151Z AUTO 00000KT 7SM CLR 23/14 A2999 RMK AO2

2010/08/08 01:51
KW29 080151Z AUTO 00000KT 10SM CLR 21/17 A2997 RMK AO1

2010/08/08 01:51
KFME 080151Z AUTO 00000KT 10SM CLR 18/18 A3000 RMK AO1

2010/08/08 02:00
BKPR 080200Z VRB03KT CAVOK 18/13 Q1017 NOSIG RMK BLU

2010/08/08 01:50
EYSA 080150Z 14014KT 110V170 9999 TSRA FEW021 BKN044CB OVC090 19/17 Q1014

2010/08/08 01:50
LSMS 080150Z AUTO 00000KT 9999NDV BKN130 14/09 Q1021 RMK WHT

2010/08/08 01:50
HLLB 080150Z 00000KT 7000 SCT015 21/18 Q1014 

2010/08/08 01:50
LSZH 080150Z VRB02KT CAVOK 12/11 Q1019 NOSIG

2010/08/08 01:50
LSGG 080150Z VRB01KT 9999 FEW080 SCT120 14/12 Q1019 NOSIG

2010/08/08 01:50
HLLB 080150Z 00000KT 7000 SCT015 21/18 Q1014 

2010/08/08 01:51
KSMX 080151Z AUTO 31009KT 10SM CLR 16/11 A2987 RMK AO2 SLP115 T01560106 TSNO 

2010/08/08 01:51
KCON 080151Z AUTO 00000KT 10SM CLR 14/09 A3000 RMK AO2 SLP158 T01440089 

2010/08/08 01:51
KJCT 080151Z AUTO 15007KT 10SM CLR 33/17 A2988 RMK AO2 SLP076 T03280167 TSNO 

2010/08/08 01:51
KNYC 080151Z AUTO VRB03KT 10SM CLR 24/18 A3000 RMK AO2 SLP150 T02390183 TSNO 

2010/08/08 01:51
KORF 080151Z 10003KT 9SM FEW010 24/23 A2997 RMK AO2 SLP149 T02440228 $ 

2010/08/08 01:51
KCRP 080151Z 15006KT 10SM FEW025 28/24 A2986 RMK AO2 SLP109 T02830244 

2010/08/08 01:51
KSNT 080151Z AUTO 00000KT 22/03 A2999 RMK AO2 SLP060 T02170033 PWINO TSNO 

2010/08/08 01:51
KBVE 080151Z AUTO 25005KT 10SM SCT031 31/26 A2991 RMK AO2 SLP129 T03060256 TSNO 

2010/08/08 01:48
K1F0 080148Z AUTO 13004KT 10SM CLR 32/22 A2980 RMK AO2

2010/08/08 01:48
K4O4 080148Z AUTO 15005KT 10SM VCTS CLR 29/22 A2983 RMK AO2 LTG DSNT W AND NW

2010/08/08 01:51
KACT 080151Z 14008KT 10SM CLR 33/19 A2982 RMK AO2 SLP090 T03330194

2010/08/08 01:51
KADH 080151Z AUTO 13004KT 10SM CLR 30/21 A2984 RMK AO2

2010/08/08 01:50
KAFK 080150Z AUTO 17006KT 10SM CLR 27/23 A2978 RMK AO2 T02680230

2010/08/08 01:51
KAHN 080151Z AUTO 00000KT 6SM HZ CLR 26/23 A2997 RMK AO2 SLP139 T02610228

2010/08/08 01:51
KALB 080151Z 00000KT 10SM FEW180 18/11 A3000 RMK AO2 SLP158 T01780106

2010/08/08 01:45
KALM 080145Z AUTO 16003KT 10SM BKN110 32/11 A2991 RMK AO2

2010/08/08 01:45
KANE 080145Z 20010G16KT 12SM SCT037 BKN060 OVC075 29/23 A2968

2010/08/08 01:50
KANW 080150Z AUTO 05006KT 10SM CLR 28/18 A2976 RMK AO2 T02770180

2010/08/08 01:51
KASH 080151Z 00000KT 10SM CLR 17/09 A3000 RMK AO2 T01660088 SLP162

2010/08/08 01:50
KATS 080150Z AUTO 28015G19KT 10SM SCT100 33/12 A2991 RMK AO2 LTG DSNT SE AND SW

2010/08/08 01:50
KAUH 080150Z AUTO 16006KT 10SM CLR 28/22 A2977 RMK AO2 T02780216

2010/08/08 01:50
KAUN 080150Z AUTO 18005KT 10SM CLR 29/06 A2979 RMK AO1

2010/08/08 01:51
KAVX 080151Z AUTO 24008KT 10SM CLR 13/11 A2988 RMK AO2 SLPNO T01330111 TSNO

2010/08/08 01:50
KAXS 080150Z AUTO 14006KT 10SM CLR 33/21 A2983 RMK AO2 T03300209

2010/08/08 01:50
KAXX 080150Z AUTO 32004KT 10SM SCT090 SCT120 13/11 A3027 RMK AO2

2010/08/08 01:51
KBDL 080151Z 00000KT 10SM CLR 18/12 A2998 RMK AO2 SLP152 T01830122

2010/08/08 01:51
KBGD 080151Z AUTO 18010G16KT 10SM CLR 33/16 A2988 RMK AO2 SLP068 T03280156

2010/08/08 01:50
KBIE 080150Z AUTO 16007KT 10SM CLR 29/21 A2977 RMK AO2 T02910213

2010/08/08 01:51
KBKW 080151Z AUTO 00000KT 8SM BKN060 20/16 A3008 RMK AO2 SLP156 T02000156

2010/08/08 01:50
KBTA 080150Z AUTO 15007KT 10SM CLR 28/22 A2976 RMK AO2 T02760216

2010/08/08 01:50
KBVN 080150Z AUTO 17003KT 10SM CLR 27/23 A2976 RMK AO2 T02710232

2010/08/08 01:45
KBVS 080145Z AUTO 16003KT 9SM FEW014 OVC022 18/17 A2990 RMK A01 P000

2010/08/08 01:51
KCAK 080151Z 16004KT 10SM SCT200 21/14 A3001 RMK AO2 SLP154 T02110139

2010/08/08 01:47
KCHD 080147Z 00000KT 40SM SCT120 BKN180 35/13 A2976

2010/08/08 01:51
KCLE 080151Z 18005KT 10SM SCT250 23/15 A3000 RMK AO2 SLP153 T02280150

2010/08/08 01:50
KCLK 080150Z AUTO 16006KT 10SM CLR 32/16 A2982 RMK AO2

2010/08/08 01:51
KCMH 080151Z 00000KT 10SM CLR 24/15 A2998 RMK AO2 SLP146 T02390150

2010/08/08 01:50
KCQB 080150Z AUTO 10005KT 10SM CLR 30/24 A2984 RMK AO2 TSNO

2010/08/08 01:51
KCSG 080151Z AUTO 15008KT 9SM CLR 30/22 A2992 RMK AO2 SLP126 T03000222

2010/08/08 01:50
KCUH 080150Z AUTO 13005KT 10SM CLR 32/24 A2983 RMK AO2

2010/08/08 01:51
KDAW 080151Z AUTO 00000KT 10SM CLR 17/12 A3000 RMK AO2 SLP155 T01670122

2010/08/08 01:50
KDVO 080150Z AUTO 05008KT 10SM 22/13 A2978 RMK AO2

2010/08/08 01:51
KEKN 080151Z AUTO 00000KT 10SM CLR 16/15 A3008 RMK AO2 SLP184 T01610150 TSNO

2010/08/08 01:51
KPVD 080151Z 00000KT 10SM FEW055 20/16 A3002 RMK AO2 SLP164 T02000161

2010/08/08 01:48
KPVJ 080148Z AUTO 13003KT 10SM CLR 33/23 A2982 RMK AO2

2010/08/08 01:51
KPWM 080151Z 19003KT 10SM CLR 17/14 A2999 RMK AO2 SLP156 T01670144 $

2010/08/08 01:51
KRDU 080151Z 04003KT 9SM FEW090 25/20 A2998 RMK AO2 SLP145 T02500200

2010/08/08 01:51
KROW 080151Z 27008KT 10SM CLR 30/12 A2990 RMK AO2 SLP054 T03000122

2010/08/08 01:51
KSJT 080151Z 15007KT 10SM BKN100 35/17 A2985 RMK AO2 SLP078 T03500167

2010/08/08 01:51
KSLK 080151Z AUTO 00000KT 10SM OVC050 11/07 A2999 RMK AO2 SLP155 T01110072

2010/08/08 01:51
KSMO 080151Z 25005KT 10SM CLR 17/12 A2985 RMK AO2 SLP107 T01720122

2010/08/08 01:53
KSNL 080153Z AUTO 13006KT 10SM CLR 32/23 A2985 RMK AO2

2010/08/08 01:50
KSRE 080150Z AUTO 08005KT 10SM CLR 30/23 A2984 RMK AO2

2010/08/08 01:51
KSTL 080151Z 12007KT 7SM CLR 27/18 A2991 RMK AO2 SLP116 T02720183

2010/08/08 01:45
KSVC 080145Z AUTO 31009KT 10SM CLR 25/12 A3009 RMK AO2

2010/08/08 01:51
KTEB 080151Z 21004KT 10SM CLR 24/17 A2996 RMK AO2 SLP146 T02390172

2010/08/08 01:54
KTMK 080154Z AUTO 00000KT 2 1/2SM BR BKN004 BKN008 OVC018 17/17 A2994 RMK AO2

2010/08/08 01:53
KTQH 080153Z AUTO 00000KT 10SM CLR 27/24 A2987 RMK AO2

2010/08/08 01:58
K36U 080158Z AUTO 26003KT 10SM CLR 22/08 A3003 RMK AO2

2010/08/08 01:50
KAEG 080150Z 29018G21KT 10SM BKN120 24/09 A3006 RMK VCSH

2010/08/08 01:51
KBAZ 080151Z AUTO 15007KT 10SM CLR 31/22 A2985 RMK AO2 SLP096 T03110217

2010/08/08 01:45
KCGF 080145Z 18005KT 10SM SCT200 22/14 A2999

2010/08/08 01:50
KCHK 080150Z AUTO 14005KT 10SM SCT095 33/22 A2982 RMK AO2

2010/08/08 01:50
KDUA 080150Z AUTO 12008KT 10SM SCT080 32/23 A2982 RMK AO2 LTG DSNT E

2010/08/08 01:52
KDUC 080152Z AUTO 15005KT 10SM CLR 32/22 A2982 RMK AO2

2010/08/08 01:51
KGMJ 080151Z AUTO 00000KT 10SM CLR 28/24 A2986 RMK AO2

2010/08/08 01:51
KHDO 080151Z AUTO 13008KT 10SM CLR 32/18 A2986 RMK AO2 SLP096 T03220183

2010/08/08 01:48
KIZA 080148Z AUTO 28009KT 10SM CLR 21/11 A2984 RMK AO2

2010/08/08 01:49
KL35 080149Z AUTO 22004KT 10SM CLR 18/00 A3009 RMK AO2

2010/08/08 01:50
KLBE 080150Z 00000KT 15SM SCT060 19/16 A3003 RMK LAST

2010/08/08 01:50
KLRU 080150Z AUTO 25009KT 10SM CLR 31/09 A2998 RMK AO2

2010/08/08 01:50
KONM 080150Z AUTO 19008KT 10SM CLR 31/09 A2996 RMK AO2 T03100087

2010/08/08 01:50
KONP 080150Z AUTO 00000KT 5SM BR OVC007 15/13 A2998 RMK AO1

2010/08/08 01:49
PADL 080149Z 20011KT 20SM BKN017 OVC025 13/10 A2978

2010/08/08 01:51
KELP 080151Z 27011KT 10SM FEW100 SCT300 34/10 A2991 RMK AO2 SLP045 CB DSNT NE AND S T03440100

2010/08/08 01:51
KERI 080151Z 16006KT 10SM CLR 19/13 A2998 RMK AO2 SLP150 T01940133

2010/08/08 01:51
KEWR 080151Z 00000KT 10SM FEW100 SCT250 25/19 A2997 RMK AO2 SLP149 T02500189 $

2010/08/08 01:50
KFET 080150Z AUTO 15008KT 10SM CLR 28/22 A2975 RMK AO2 T02820216

2010/08/08 01:53
KGCD 080153Z AUTO 32007KT 10SM CLR 26/04 A2985 RMK AO2 T02640038

2010/08/08 01:51
KGCM 080151Z AUTO 00000KT 10SM CLR 27/23 A2987 RMK AO2

2010/08/08 01:50
KHDE 080150Z AUTO 15006KT 10SM CLR 28/22 A2978 RMK AO2 T02790219

2010/08/08 01:50
KHJH 080150Z AUTO 15006KT 10SM CLR 28/22 A2977 RMK AO2 T02830222

2010/08/08 01:51
KHTS 080151Z 11003KT 7SM CLR 21/18 A2999 RMK AO2 SLP147 T02110178

2010/08/08 01:50
KIBM 080150Z AUTO 20003KT 10SM SCT120 26/17 A2992 RMK AO2 T02590171

2010/08/08 01:50
KIDP 080150Z AUTO 19005KT 10SM CLR 26/22 A2984 RMK AO2

2010/08/08 01:51
KILG 080151Z 15006KT 10SM CLR 25/19 A2998 RMK AO2 SLP152 T02500194

2010/08/08 01:50
KISM 080150Z 21004KT 10SM SKC 27/25 A2996 RMK LAST

2010/08/08 01:51
KJFK 080151Z 18009KT 10SM FEW250 24/19 A2999 RMK AO2 SLP154 T02390194

2010/08/08 01:51
KJSV 080151Z AUTO 08005KT 10SM CLR 26/23 A2984 RMK AO2

2010/08/08 01:54
KJWG 080154Z AUTO 17007KT 10SM CLR 32/22 A2984 RMK AO2

2010/08/08 01:50
KJYR 080150Z AUTO 17006KT 10SM CLR 28/23 A2976 RMK AO2

2010/08/08 01:50
KLAM 080150Z AUTO 27019G25KT 10SM CLR 22/11 A3015 RMK AO2

2010/08/08 01:50
KLCG 080150Z AUTO 18006KT 10SM CLR 26/23 A2972 RMK AO2 T02600232

2010/08/08 01:51
KLGA 080151Z 17008KT 10SM FEW085 SCT250 26/19 A2997 RMK AO2 SLP149 T02560189

2010/08/08 01:51
KLGU 080151Z AUTO 19011KT 10SM CLR 27/06 A2987 RMK AO2 SLP052 T02670061

2010/08/08 01:51
KLHM 080151Z AUTO 17009KT 10SM CLR 33/08 A2968 RMK AO1 T03250079

2010/08/08 01:51
KMDW 080151Z 19006KT 10SM SCT090 27/17 A2990 RMK AO2 SLP115 T02670172 $

2010/08/08 01:45
KMMU 080145Z 00000KT 10SM SKC 20/17 A2998 RMK LAST

2010/08/08 01:51
KMPV 080151Z AUTO 00000KT 10SM FEW065 12/09 A3004 RMK AO2 SLP173 T01220089

2010/08/08 01:51
KMYL 080151Z AUTO 26006KT 10SM CLR 24/M02 A2989 RMK AO2 SLP080 T02391022

2010/08/08 01:50
KOJA 080150Z AUTO 16005KT 10SM CLR 32/21 A2984 RMK AO2

2010/08/08 01:51
KOKM 080151Z AUTO 11004KT 10SM CLR 30/26 A2984 RMK AO1

2010/08/08 01:51
KORD 080151Z 21005KT 10SM FEW060 SCT090 SCT150 24/18 A2990 RMK AO2 SLP119 T02440183

2010/08/08 01:50
KORS 080150Z AUTO 00000KT 2SM -RA 15/15 A2987 RMK AO2

2010/08/08 01:52
KOUN 080152Z AUTO 12007KT 10SM CLR 33/23 A2984 RMK AO2

2010/08/08 01:51
KOXR 080151Z 28008KT 10SM FEW012 17/13 A2984 RMK AO2 SLP104 T01720128

2010/08/08 01:51
KPHX 080151Z 34009KT 10SM SCT110 SCT160 BKN210 BKN250 34/16 A2975 RMK AO2 SLP053 CB DSNT S-SW T03440156 $

2010/08/08 01:51
KPIT 080151Z 00000KT 10SM FEW250 21/13 A3002 RMK AO2 SLP167 T02060128

2010/08/08 01:50
KPLU 080150Z AUTO 24004KT 4SM BR SCT006 BKN034 17/17 A2990 RMK AO2 P0001

2010/08/08 01:50
KPTS 080150Z AUTO 18003KT 10SM CLR 29/23 A2985 RMK AO2 T02850227

2010/08/08 01:51
KVNY 080151Z 14008KT 10SM CLR 22/11 A2982 RMK AO2 SLP091 T02220111

2010/08/08 01:48
KWWR 080148Z AUTO 13006KT 10SM CLR 27/20 A2986 RMK AO2 T02710203

2010/08/08 01:51
KYNG 080151Z 16004KT 10SM SCT250 16/13 A3001 RMK AO2 SLP157 T01610133

2010/08/08 01:50
PASN 080150Z 14014G21KT 1 3/4SM RA BR BKN003 OVC011 08/08 A2942 RMK AO2 P0007

2010/08/08 01:51
KCRE 080151Z AUTO 00000KT 5SM BR BKN019 26/25 A2993 RMK AO2

2010/08/08 01:51
KSAF 080151Z 00000KT 10SM VCTS FEW100 26/08 A3009 RMK AO2 LTG DSNT NE AND E TSE02B45

2010/08/08 01:50
PTRO 080150Z 28006KT 15SM SCT016TCU BKN120 OVC300 29/25 A2985 RMK TCU VC ALQDS 

2010/08/08 01:50
PTKR 080150Z 35008KT 15SM FEW018TCU BKN120 OVC300 30/24 A2983 RMK TCU NE SLP102 T02960244

2010/08/08 01:50
EYSA 080150Z 14014KT 110V170 9999 TSRA FEW021 BKN044CB OVC090 19/17 Q1014

2010/08/08 01:50
LSZH 080150Z VRB02KT CAVOK 12/11 Q1019 NOSIG

2010/08/08 01:50
LSGG 080150Z VRB01KT 9999 FEW080 SCT120 14/12 Q1019 NOSIG

2010/08/08 01:50
LSMS 080150Z AUTO 00000KT 9999NDV BKN130 14/09 Q1021 RMK WHT

2010/08/08 01:51
KDAG 080151Z AUTO 23018KT 10SM CLR 34/M10 A2973 RMK AO2 PK WND 23026/0141 SLP041 T03391100 TSNO 

2010/08/08 01:51
KGDP 080151Z AUTO 07013KT 10SM CLR 27/12 A3008 RMK AO2 SLP087 T02720122 TSNO 

2010/08/08 01:51
KP59 080151Z AUTO 24003KT 19/14 A2976 RMK AO2 SLP071 T01890139 PWINO TSNO $ 

2010/08/08 01:51
KHSE 080151Z AUTO 06004KT 9SM CLR 26/24 A2996 RMK AO2 SLP144 T02560244 TSNO 

2010/08/08 02:00
FLLS 080200Z 13003KT CAVOK 09/09 Q1023

2010/08/08 01:48
KUIL 080148Z AUTO 25004KT 2 1/2SM BR BKN004 BKN015 OVC020 14/13 A2991 RMK AO2 RAE0055 P0000 TSNO 

2010/08/08 01:52
CYKJ 080152Z AUTO 11010G15KT 3SM -RA FEW015 OVC045 15/14 A2963 RMK SLP048 DENSITY ALT 2300FT MAX WND 13019KT AT 0138Z

2010/08/08 01:50
LXGB 080150Z 10012KT 9999 FEW012 SCT100 BKN250 24/20 Q1017

2010/08/08 01:50
PAWI 080150Z 05013KT 10SM OVC010 08/06 A2975 RMK VIA PHONE

2010/08/08 01:50
MSSS 080150Z 18003KT 9999 SCT027 FEW040CB SCT300 24/22 Q1015 CB NE/E

2010/08/08 01:50
MSLP 080150Z 00000KT 9999 SCT020 SCT070 BKN300 26/25 Q1011 DSTN LTGIC NNE

2010/08/08 01:51
KATT 080151Z AUTO 16005KT 10SM CLR 32/20 A2986 RMK AO2 SLP095 T03220200 

2010/08/08 01:51
KABE 080151Z 35003KT 10SM CLR 22/15 A2998 RMK AO2 SLP151 T02170150 

2010/08/08 01:50
BGBW 080150Z AUTO 34001KT 9999NDV FEW075/// SCT090/// BKN220/// 13/07 Q1014

2010/08/08 01:50
BGGH 080150Z AUTO 21010KT 9999NDV OVC071/// 12/06 Q1012

2010/08/08 01:50
BGJN 080150Z AUTO 02002KT 9999NDV NCD 08/02 Q1016

2010/08/08 01:50
LLBG 080150Z 14003KT 9999 SCT020 27/23 Q1009 NOSIG

2010/08/08 01:50
LLOV 080150Z 28008KT CAVOK 25/21 Q1010

2010/08/08 01:50
ESGG 080150Z 34004KT CAVOK 16/15 Q1014

2010/08/08 01:50
ESGJ 080150Z AUTO 01006KT 9999NDV OVC049/// 15/13 Q1013

2010/08/08 01:50
ESGP 080150Z 00000KT 4000 BR OVC170 15/15 Q1014

2010/08/08 01:50
ESMK 080150Z AUTO 29005KT 9999NDV SCT070/// BKN083/// 18/15 Q1012

2010/08/08 01:50
ESMQ 080150Z AUTO 35004KT 310V020 9999NDV BR FEW003/// BKN005/// 16/16 Q1011

2010/08/08 01:50
ESMS 080150Z 28005KT CAVOK 17/16 Q1013

2010/08/08 01:50
ESMT 080150Z AUTO 02004KT 9999NDV NCD 17/14 Q1013

2010/08/08 01:50
ESMX 080150Z AUTO 36009KT 9999NDV OVC015/// 16/14 Q1012

2010/08/08 01:50
ESTA 080150Z AUTO 34002KT 7000NDV BR OVC110/// 17/17 Q1012

2010/08/08 01:50
ESTL 080150Z AUTO 25002KT 4200NDV BR BKN100/// 16/16 Q1012

2010/08/08 01:50
HLLB 080150Z 00000KT 7000 SCT015 21/18 Q1014 

2010/08/08 01:50
HLLB 080150Z 00000KT 7000 SCT015 21/18 Q1014 

2010/08/08 01:49
MMMX 080149Z 25004KT 8SM SCT020CB BKN080 BKN200 17/14 A3028 TEMPO 5SM -TSRA RMK 60005 8/363 HZY CB N-NW

2010/08/08 01:47
MMOX 080147Z 04006KT 7SM SCT025CB BKN100 BKN200 21/18 A3011 RMK 8/363 PCPN SW

2010/08/08 02:00
MPTO 080200Z 00000KT 9999 SCT016 BKN090 25/24 Q1011 NOSIG

2010/08/08 01:50
MSSS 080150Z 18003KT 9999 SCT027 FEW040CB SCT300 24/22 Q1015 A3000 LTGIC TO NE/E

2010/08/08 01:47
KPAM 080147Z AUTO 12012KT 2 1/2SM -TSRA BR FEW002 BKN022 BKN028 OVC034 26/24 A2991 RMK AO2 RAB0131 TSB0132 SLP131 $

2010/08/08 01:48
KPAM 080148Z AUTO 12011KT 3SM -TSRA BR FEW002 BKN022 BKN028 OVC034 26/24 A2991 RMK AO2 RAB0131 TSB0132 SLP131 $

2010/08/08 01:55
KQFS 080155Z AUTO 13004G13KT 9999 FEW220 31/21 A2989 RMK AO2 SLP116 T03130209 PWINO PNO $

2010/08/08 01:55
KQLE 080155Z 15005KT 8000 DU FEW200 28/15 A2969 RMK SLP980 T02840152 PA3158 DA5434 RH44

2010/08/08 01:50
EDDF 080150Z VRB02KT CAVOK 17/14 Q1015 NOSIG

2010/08/08 01:50
EDDH 080150Z 35002KT 9999 -RA NSC 17/14 Q1015 NOSIG

2010/08/08 01:50
EDDK 080150Z VRB03KT CAVOK 18/15 Q1015 NOSIG

2010/08/08 01:50
EDDL 080150Z 35002KT 9000 -SHRA FEW013 FEW030CB BKN060 17/16 Q1015 NOSIG

2010/08/08 01:50
EDDM 080150Z 23001KT 9999 MIFG NSC 12/11 Q1019 NOSIG

2010/08/08 01:50
EDDN 080150Z 12006KT CAVOK 11/11 Q1017

2010/08/08 01:50
EDDS 080150Z 30001KT CAVOK 13/11 Q1018

2010/08/08 01:50
EDDT 080150Z 23004KT CAVOK 18/15 Q1014

2010/08/08 01:50
EDDV 080150Z 22004KT 9999 -RA FEW020 BKN080 17/15 Q1015

2010/08/08 01:50
EDDB 080150Z 27002KT CAVOK 16/14 Q1014 NOSIG

2010/08/08 01:50
EDDC 080150Z 16005KT CAVOK 15/15 Q1015

2010/08/08 01:50
EDDE 080150Z 20009KT CAVOK 13/10 Q1016

2010/08/08 01:50
EDDG 080150Z VRB01KT 9999 FEW030 BKN060 16/15 Q1015 NOSIG

2010/08/08 01:50
EDDP 080150Z 25007KT CAVOK 15/13 Q1015 NOSIG

2010/08/08 01:50
EDDR 080150Z 16004KT 9999 FEW040 BKN060 18/11 Q1016

2010/08/08 01:50
EDDW 080150Z 04002KT CAVOK 18/16 Q1015

2010/08/08 01:50
CYEV 080150Z 35006KT 2SM -DZ BR BKN006 OVC015 RMK SC3SC5

2010/08/08 01:47
CYVM 080147Z AUTO 04003KT 1/2SM OVC002 04/04 A2993

2010/08/08 01:49
CZUM 080149Z AUTO 23006KT 9SM -RA CLR 10/06 A2960

2010/08/08 01:47
KGSB 080147Z AUTO 13011KT 4SM R08/3500VP6000FT RA BR OVC049 24/24 A2994 RMK AO2 SLP139

2010/08/08 01:48
KPAM 080148Z AUTO 12011KT 3SM -TSRA BR FEW002 BKN022 BKN028 OVC034 26/24 A2991 RMK AO2 RAB0131 TSB0132 SLP131 $

2010/08/08 01:47
KTCM 080147Z AUTO 19006KT 10SM BKN007 BKN013 OVC070 18/16 A2991 RMK AO2 RAE0111DZB0111E0113 CIG 007V010 SLP130

2010/08/08 01:48
KTCM 080148Z AUTO 19006KT 10SM BKN008 BKN013 OVC070 18/16 A2991 RMK AO2 RAE0111DZB0111E0113 CIG 007V010 SLP130

2010/08/08 01:47
MROC 080147Z 00000KT 3000 -DZ BR BCFG FEW002 BKN020 20/20 A3006 TEMPO 0500 FG VV///

2010/08/08 01:49
PAED 080149Z AUTO 20008KT 10SM -RA BKN009 BKN015 BKN021 OVC039 12/11 A2975 RMK AO2 CIG 007V012 SLP075

2010/08/08 01:49
PHHI 080149Z AUTO 09011KT 10SM -DZ BKN032 OVC045 28/19 A3005 RMK AO2 DZB0149 SLP163 $

2010/08/08 01:48
RODN 080148Z 21008KT 9999 -RA SCT007 SCT012 BKN021 OVC032 27/25 A2967 RMK AO2A RAB0110E0131B0148 SLP046

2010/08/08 02:00
FAJS 080200Z 36003KT CAVOK 09/00 Q1028 NOSIG

2010/08/08 02:00
ZMUB 080200Z 34008MPS 310V010 9999 BKN033 10/01 Q1013 NOSIG RMK QFE653.0 55

2010/08/08 01:52
KREO 080152Z AUTO 31010KT 30/02 A2980 RMK AO2 SLP052 T03000017 PWINO TSNO 

2010/08/08 02:00
OKBK 080200Z 24004KT 8000 SKC 30/03 Q0998 NOSIG

2010/08/08 01:52
KBLU 080152Z AUTO VRB04KT 10SM CLR 21/07 A3003 RMK AO2 SLP077 T02060067 TSNO 

2010/08/08 01:52
KSDB 080152Z AUTO 19010G15KT 10SM CLR 20/05 A2997 RMK AO2 SLP099 T02000050 TSNO $ 

2010/08/08 01:52
KNRB 080152Z 26003KT 10SM FEW030 OVC150 26/23 A2992 RMK AO2 RAE28 SLP132 T2 SET P0000 T02610233 

2010/08/08 01:52
KN60 080152Z AUTO 14003KT 25/21 A2966 RMK AO1 SLP031 T02500206 

2010/08/08 01:52
CYPR 080152Z AUTO 17002KT 9SM SCT009 BKN014 BKN022 OVC029 A2993 RMK T MISG TD MISG

2010/08/08 01:55
KUDG 080155Z 09007KT 10SM CLR 27/23 A2996 RMK AO1

2010/08/08 01:52
KUGN 080152Z AUTO 21005KT 10SM CLR 24/18 A2988 RMK AO2 RAE0053 SLP107 T02440183

2010/08/08 01:52
KVTN 080152Z AUTO 01004KT 10SM CLR 29/17 A2976 RMK AO2 SLP049 T02940167

2010/08/08 01:47
PAPT 080147Z 16006KT 10SM -RA BKN015 OVC040 11/10 A2966 RMK NOSPECI

2010/08/08 01:50
PAWI 080150Z 05013KT 10SM OVC010 08/06 A2975 RMK VIA PHONE

2010/08/08 01:52
KMFD 080152Z 16004KT 10SM CLR 20/14 A3001 RMK AO2 SLP155 T02000144

2010/08/08 01:52
KMHK 080152Z 16003KT 10SM CLR 30/22 A2979 RMK AO2 SLP077 T03000217 $

2010/08/08 01:52
KMKE 080152Z 21008KT 10SM FEW100 SCT250 24/19 A2986 RMK AO2 SLP106 T02440189

2010/08/08 01:50
KMLE 080150Z AUTO 15005KT 10SM CLR 28/22 A2975 RMK AO2 T02830220

2010/08/08 01:52
KMLI 080152Z 17005KT 10SM CLR 25/21 A2986 RMK AO2 SLP108 T02500206

2010/08/08 01:50
KMMH 080150Z AUTO 20015G23KT 10SM CLR 19/M02 A3005 RMK AO1

2010/08/08 01:52
KMWH 080152Z 32013KT 10SM CLR 26/08 A2976 RMK AO2 SLP071 T02610083

2010/08/08 01:50
KMYR 080150Z 00000KT 8SM FEW020 26/23 A2997

2010/08/08 01:55
KOAJ 080155Z AUTO 00000KT 7SM CLR 23/23 A2995 RMK AO1

2010/08/08 01:55
KOCF 080155Z AUTO 00000KT 10SM SCT035 BKN050 BKN075 24/23 A2993 RMK AO1 LTG DSNT E TSE13 P0013

2010/08/08 01:50
KOGA 080150Z AUTO 18005KT 10SM CLR 29/13 A2981 RMK AO2 T02940127

2010/08/08 01:52
KOKB 080152Z AUTO 27003KT 10SM BKN017 18/13 A2986 RMK AO2 SLP109 T01830133 $

2010/08/08 01:52
KOKC 080152Z 13010KT 10SM FEW200 32/22 A2983 RMK AO2 SLP083 T03220222 $

2010/08/08 01:52
KOMA 080152Z 16012KT 10SM CLR 30/23 A2975 RMK AO2 SLP065 T03000228

2010/08/08 01:50
KONL 080150Z AUTO 19009KT 10SM CLR 29/23 A2972 RMK AO2 T02900231

2010/08/08 01:52
KORE 080152Z AUTO 00000KT 10SM CLR 16/12 A3001 RMK AO2 SLP163 T01560122

2010/08/08 01:50
KPNA 080150Z AUTO 26003KT 10SM CLR 20/03 A3008 RMK AO2 T02000028

2010/08/08 01:52
KPPF 080152Z AUTO 00000KT 10SM CLR 29/24 A2985 RMK AO2 SLP098 T02890244

2010/08/08 01:50
KPTT 080150Z AUTO 16007KT 10SM CLR 31/18 A2983 RMK AO2

2010/08/08 01:52
KPWK 080152Z 21006KT 10SM FEW085 26/18 A2991 RMK AO2 SLP122 T02610183

2010/08/08 01:52
KPYM 080152Z AUTO 00000KT 10SM CLR 19/15 A3002 RMK AO2 SLP164 T01940150

2010/08/08 01:52
KRAP 080152Z 35005KT 10SM CLR 25/16 A2980 RMK AO2 SLP063 T02500161 $

2010/08/08 01:50
KSEZ 080150Z AUTO 00000KT 10SM SCT100 SCT120 19/18 RMK AO2 T01940181

2010/08/08 01:52
KSGF 080152Z AUTO 15005KT 10SM CLR 27/21 A2989 RMK AO2 SLP107 T02720206

2010/08/08 01:55
KSOP 080155Z AUTO 00000KT 10SM CLR 24/21 A2996 RMK AO1

2010/08/08 01:50
KSOW 080150Z AUTO 35004KT 10SM OVC015 15/13 A3024 RMK AO2

2010/08/08 01:52
KSPI 080152Z 18005KT 10SM CLR 24/18 A2991 RMK AO2 SLP124 T02440183

2010/08/08 01:52
KSPS 080152Z AUTO 13007KT 10SM CLR 33/22 A2980 RMK AO2 SLP074 P0003 T03280217

2010/08/08 01:52
KSUX 080152Z 17007KT 10SM CLR 27/22 A2971 RMK AO2 SLP052 T02720217

2010/08/08 01:50
KSZT 080150Z AUTO 26003KT 10SM SCT095 25/12 A2973 RMK AO2

2010/08/08 01:52
KTAN 080152Z AUTO 00000KT 10SM CLR 18/16 A2999 RMK AO2 SLP155 T01830156

2010/08/08 01:50
KTEX 080150Z AUTO 23005KT 10SM SCT001 BKN070 BKN080 13/12 A3033 RMK AO2

2010/08/08 01:50
KTIF 080150Z AUTO 19003KT 10SM CLR 29/17 A2979 RMK AO2 T02860173

2010/08/08 01:52
KDCA 080152Z 20003KT 10SM CLR 26/17 A2998 RMK AO2 SLP150 T02560167

2010/08/08 01:52
KGLS 080152Z AUTO 20009KT 10SM CLR 30/24 A2989 RMK AO2 SLP120 T03000244

2010/08/08 01:55
KGLY 080155Z AUTO 00000KT 10SM CLR 26/23 A2986 RMK AO2

2010/08/08 01:52
KIAD 080152Z 15003KT 10SM CLR 22/16 A2998 RMK AO2 SLP148 T02220156

2010/08/08 01:45
KJVL 080145Z 20004KT 10SM CLR 24/19 A2987 RMK LAST

2010/08/08 01:55
KLZZ 080155Z AUTO 15005KT 10SM CLR 32/20 A2986 RMK AO2

2010/08/08 01:52
KMEB 080152Z AUTO 02003KT 10SM SCT065 26/22 A2995 RMK AO2 SLP138 T02610217

2010/08/08 01:55
KMEZ 080155Z AUTO 00000KT 10SM CLR 29/26 A2988 RMK AO2

2010/08/08 01:55
KPAN 080155Z AUTO 05004KT 10SM CLR 22/13 A3009 RMK AO1

2010/08/08 01:55
KPSO 080155Z AUTO 17019G29KT 7SM VCTSRA SCT038 SCT045 OVC065 16/13 A3027 RMK AO2 LTG DSNT E THRU SW

2010/08/08 01:50
KPMV 080150Z AUTO 15007KT 10SM CLR 29/23 A2977 RMK AO2 T02850233

2010/08/08 01:52
KAFN 080152Z AUTO 00000KT 10SM CLR 13/10 A3003 RMK AO2 SLP172 T01330100

2010/08/08 01:52
KALS 080152Z AUTO 18021G28KT 10SM TS SCT100 BKN120 23/07 A3013 RMK AO2 PK WND 18028/0152 LTG DSNT NE AND SW AND W TSB28 SLP102 T02330067 $

2010/08/08 01:52
KAQW 080152Z AUTO 00000KT 10SM CLR 13/11 A3002 RMK AO2 SLP166 T01280111

2010/08/08 01:52
KARR 080152Z 18004KT 9SM CLR 23/20 A2991 RMK AO2 SLP122 T02280200

2010/08/08 01:52
KATL 080152Z 14006KT 10SM FEW045 28/22 A2996 RMK AO2 SLP134 T02830222

2010/08/08 01:52
KBDR 080152Z 20004KT 10SM CLR 24/19 A2998 RMK AO2 SLP153 T02390189

2010/08/08 01:52
KBIS 080152Z 10004KT 10SM CLR 26/19 A2966 RMK AO2 SLP032 T02610189

2010/08/08 01:52
KBLF 080152Z AUTO 00000KT 10SM FEW047 21/14 A3010 RMK AO2 SLP158 T02110144

2010/08/08 01:52
KBLH 080152Z AUTO 17010KT 10SM FEW090 38/15 A2963 RMK AO2 SLP027 T03830150

2010/08/08 01:52
KBML 080152Z AUTO 00000KT 10SM CLR 08/08 A3002 RMK AO2 SLP168 T00830078

2010/08/08 01:52
KCFV 080152Z AUTO 16004KT 10SM CLR 29/24 A2984 RMK AO2 SLP097 T02890239

2010/08/08 01:52
KCID 080152Z 15005KT 9SM CLR 24/22 A2983 RMK AO2 SLP095 T02440217 $

2010/08/08 01:52
KCKV 080152Z AUTO 09004KT 8SM CLR 25/17 A2993 RMK AO2 SLP129 T02500172

2010/08/08 01:52
KCLT 080152Z 09004KT 10SM CLR 28/18 A2998 RMK AO2 SLP142 T02780178

2010/08/08 01:52
KCNU 080152Z AUTO 14005KT 8SM CLR 28/24 A2985 RMK AO2 SLP094 T02780239

2010/08/08 01:52
KCQX 080152Z AUTO VRB04KT 10SM CLR 21/18 A3004 RMK AO2 SLP172 T02060183

2010/08/08 01:52
KCVG 080152Z 17003KT 10SM FEW065 24/14 A2998 RMK AO2 SLP142 T02390144

2010/08/08 01:52
KDDC 080152Z AUTO 18010KT 8SM CLR 27/16 A2985 RMK AO2 SLP072 T02670161

2010/08/08 01:52
KDPA 080152Z 17004KT 10SM CLR 22/19 A2990 RMK AO2 SLP119 T02220194

2010/08/08 01:52
KDVN 080152Z AUTO 18005KT 9SM CLR 24/19 A2987 RMK AO2 SLP110 T02390189

2010/08/08 01:52
KEST 080152Z AUTO 19008KT 8SM CLR 26/22 A2975 RMK AO2 SLP065 T02560222

2010/08/08 01:52
KFIT 080152Z AUTO 35003KT 10SM CLR 17/11 A3001 RMK AO2 SLP163 T01670111

2010/08/08 01:52
KHIE 080152Z AUTO 00000KT 10SM CLR 12/12 A3001 RMK AO2 SLP163 T01170117

2010/08/08 01:52
KHRL 080152Z AUTO 15010KT 10SM CLR 29/24 A2985 RMK AO2 SLP108 T02890239 TSNO $

2010/08/08 01:52
KHUT 080152Z 14011KT 10SM CLR 31/22 A2982 RMK AO2 SLP073 T03060222 $

2010/08/08 01:52
KIEN 080152Z AUTO 06005KT 10SM CLR 27/15 A2979 RMK AO2 SLP049 T02720150

2010/08/08 01:52
KIJD 080152Z AUTO 00000KT 10SM CLR 16/14 A3001 RMK AO2 SLP161 T01610139

2010/08/08 01:52
KIOW 080152Z AUTO 08004KT 10SM FEW100 26/22 A2985 RMK AO2 SLP102 T02560222 $

2010/08/08 01:52
KISN 080152Z 25007KT 10SM CLR 25/16 A2967 RMK AO2 SLP035 T02500161

2010/08/08 01:52
KLWC 080152Z AUTO 15004KT 8SM CLR 27/24 A2983 RMK AO2 SLP090 T02720239

2010/08/08 01:50
KLXN 080150Z AUTO 14007KT 10SM CLR 30/23 A2978 RMK AO2 T03000234

2010/08/08 01:52
KMDH 080152Z AUTO 06003KT 6SM HZ FEW080 23/18 A2992 RMK AO2 SLP127 T02330178

2010/08/08 01:52
KTOL 080152Z 20004KT 8SM CLR 19/17 A2995 RMK AO2 SLP140 T01940172

2010/08/08 01:50
KTRK 080150Z AUTO 27012KT 10SM SCT100 23/05 A3001 RMK AO2 LTG DSNT SE

2010/08/08 01:52
KTRM 080152Z AUTO 30004KT 10SM CLR 37/10 A2959 RMK AO2 SLP023 T03720100

2010/08/08 01:51
KSAN 080151Z 29005KT 10SM SCT021 18/12 A2988 RMK AO2 SLP118 T01830122 $

2010/08/08 01:50
K2W6 080150Z AUTO 00000KT 10SM CLR 22/15 A2999 RMK AO1

2010/08/08 01:48
KCGE 080148Z AUTO 00000KT 10SM CLR 22/20 A2999 RMK AO1

2010/08/08 01:50
K2G4 080150Z AUTO 32003KT 10SM CLR 18/11 A3011 RMK AO1

2010/08/08 01:51
KCBE 080151Z AUTO 00000KT 10SM CLR 23/15 A3004 RMK AO1

2010/08/08 01:50
KCGS 080150Z AUTO 00000KT 10SM CLR 23/17 A2998 RMK AO1

2010/08/08 01:52
KDMW 080152Z AUTO 00000KT 10SM CLR 24/17 A3001 RMK AO2

2010/08/08 01:51
KFDK 080151Z AUTO 00000KT 7SM CLR 23/14 A2999 RMK AO2

2010/08/08 01:51
KW29 080151Z AUTO 00000KT 10SM CLR 21/17 A2997 RMK AO1

2010/08/08 01:51
KFME 080151Z AUTO 00000KT 10SM CLR 18/18 A3000 RMK AO1

2010/08/08 01:51
KCON 080151Z AUTO 00000KT 10SM CLR 14/09 A3000 RMK AO2 SLP158 T01440089

2010/08/08 01:51
KSMX 080151Z AUTO 31009KT 10SM CLR 16/11 A2987 RMK AO2 SLP115 T01560106 TSNO

2010/08/08 01:51
KORF 080151Z 10003KT 9SM FEW010 24/23 A2997 RMK AO2 SLP149 T02440228 $

2010/08/08 01:51
KJCT 080151Z AUTO 15007KT 10SM CLR 33/17 A2988 RMK AO2 SLP076 T03280167 TSNO

2010/08/08 01:51
KNYC 080151Z AUTO VRB03KT 10SM CLR 24/18 A3000 RMK AO2 SLP150 T02390183 TSNO

2010/08/08 01:51
KCRP 080151Z 15006KT 10SM FEW025 28/24 A2986 RMK AO2 SLP109 T02830244

2010/08/08 01:51
KBVE 080151Z AUTO 25005KT 10SM SCT031 31/26 A2991 RMK AO2 SLP129 T03060256 TSNO

2010/08/08 01:51
KSNT 080151Z AUTO 00000KT 22/03 A2999 RMK AO2 SLP060 T02170033 PWINO TSNO

2010/08/08 01:51
KGDP 080151Z AUTO 07013KT 10SM CLR 27/12 A3008 RMK AO2 SLP087 T02720122 TSNO

2010/08/08 01:51
KDAG 080151Z AUTO 23018KT 10SM CLR 34/M10 A2973 RMK AO2 PK WND 23026/0141 SLP041 T03391100 TSNO

2010/08/08 01:51
KHSE 080151Z AUTO 06004KT 9SM CLR 26/24 A2996 RMK AO2 SLP144 T02560244 TSNO

2010/08/08 01:51
KP59 080151Z AUTO 24003KT 19/14 A2976 RMK AO2 SLP071 T01890139 PWINO TSNO $

2010/08/08 01:51
KATT 080151Z AUTO 16005KT 10SM CLR 32/20 A2986 RMK AO2 SLP095 T03220200

2010/08/08 01:51
KABE 080151Z 35003KT 10SM CLR 22/15 A2998 RMK AO2 SLP151 T02170150

2010/08/08 01:52
KREO 080152Z AUTO 31010KT 30/02 A2980 RMK AO2 SLP052 T03000017 PWINO TSNO

2010/08/08 01:52
KN60 080152Z AUTO 14003KT 25/21 A2966 RMK AO1 SLP031 T02500206

2010/08/08 01:52
KSDB 080152Z AUTO 19010G15KT 10SM CLR 20/05 A2997 RMK AO2 SLP099 T02000050 TSNO $

2010/08/08 01:52
KBLU 080152Z AUTO VRB04KT 10SM CLR 21/07 A3003 RMK AO2 SLP077 T02060067 TSNO

2010/08/08 01:51
PAVA 080151Z AUTO 22008KT 10SM OVC015 12/10 A2968 RMK AO2

2010/08/08 01:47
KPAM 080147Z AUTO 12012KT 2 1/2SM -TSRA BR FEW002 BKN022 BKN028 OVC034 26/24 A2991 RMK AO2 RAB0131 TSB0132 SLP131 $

2010/08/08 01:48
KPAM 080148Z AUTO 12011KT 3SM -TSRA BR FEW002 BKN022 BKN028 OVC034 26/24 A2991 RMK AO2 RAB0131 TSB0132 SLP131 $

2010/08/08 01:48
KUIL 080148Z AUTO 25004KT 2 1/2SM BR BKN004 BKN015 OVC020 14/13 A2991 RMK AO2 RAE0055 P0000 TSNO

2010/08/08 02:00
FAJS 080200Z 36003KT CAVOK 09/00 Q1028 NOSIG

2010/08/08 01:50
EDDB 080150Z 27002KT CAVOK 16/14 Q1014 NOSIG

2010/08/08 01:50
EDDC 080150Z 16005KT CAVOK 15/15 Q1015

2010/08/08 01:50
EDDE 080150Z 20009KT CAVOK 13/10 Q1016

2010/08/08 01:50
EDDG 080150Z VRB01KT 9999 FEW030 BKN060 16/15 Q1015 NOSIG

2010/08/08 01:50
EDDP 080150Z 25007KT CAVOK 15/13 Q1015 NOSIG

2010/08/08 01:50
EDDR 080150Z 16004KT 9999 FEW040 BKN060 18/11 Q1016

2010/08/08 01:50
EDDW 080150Z 04002KT CAVOK 18/16 Q1015

2010/08/08 01:50
BGBW 080150Z AUTO 34001KT 9999NDV FEW075/// SCT090/// BKN220/// 13/07 Q1014

2010/08/08 01:50
BGGH 080150Z AUTO 21010KT 9999NDV OVC071/// 12/06 Q1012

2010/08/08 01:50
BGJN 080150Z AUTO 02002KT 9999NDV NCD 08/02 Q1016

2010/08/08 01:47
KGSB 080147Z AUTO 13011KT 4SM R08/3500VP6000FT RA BR OVC049 24/24 A2994 RMK AO2 SLP139

2010/08/08 01:48
KPAM 080148Z AUTO 12011KT 3SM -TSRA BR FEW002 BKN022 BKN028 OVC034 26/24 A2991 RMK AO2 RAB0131 TSB0132 SLP131 $

2010/08/08 01:47
KTCM 080147Z AUTO 19006KT 10SM BKN007 BKN013 OVC070 18/16 A2991 RMK AO2 RAE0111DZB0111E0113 CIG 007V010 SLP130

2010/08/08 01:48
KTCM 080148Z AUTO 19006KT 10SM BKN008 BKN013 OVC070 18/16 A2991 RMK AO2 RAE0111DZB0111E0113 CIG 007V010 SLP130

2010/08/08 01:49
PAED 080149Z AUTO 20008KT 10SM -RA BKN009 BKN015 BKN021 OVC039 12/11 A2975 RMK AO2 CIG 007V012 SLP075

2010/08/08 01:49
PHHI 080149Z AUTO 09011KT 10SM -DZ BKN032 OVC045 28/19 A3005 RMK AO2 DZB0149 SLP163 $

2010/08/08 01:47
KPAM 080147Z AUTO 12012KT 2 1/2SM -TSRA BR FEW002 BKN022 BKN028 OVC034 26/24 A2991 RMK AO2 RAB0131 TSB0132 SLP131 $

2010/08/08 01:48
KPAM 080148Z AUTO 12011KT 3SM -TSRA BR FEW002 BKN022 BKN028 OVC034 26/24 A2991 RMK AO2 RAB0131 TSB0132 SLP131 $

2010/08/08 01:50
LLBG 080150Z 14003KT 9999 SCT020 27/23 Q1009 NOSIG

2010/08/08 01:50
LLOV 080150Z 28008KT CAVOK 25/21 Q1010

2010/08/08 01:58
K36U 080158Z AUTO 26003KT 10SM CLR 22/08 A3003 RMK AO2

2010/08/08 01:50
KAEG 080150Z 29018G21KT 10SM BKN120 24/09 A3006 RMK VCSH

2010/08/08 01:51
KBAZ 080151Z AUTO 15007KT 10SM CLR 31/22 A2985 RMK AO2 SLP096 T03110217

2010/08/08 01:45
KCGF 080145Z 18005KT 10SM SCT200 22/14 A2999

2010/08/08 01:50
KCHK 080150Z AUTO 14005KT 10SM SCT095 33/22 A2982 RMK AO2

2010/08/08 01:50
KDUA 080150Z AUTO 12008KT 10SM SCT080 32/23 A2982 RMK AO2 LTG DSNT E

2010/08/08 01:52
KDUC 080152Z AUTO 15005KT 10SM CLR 32/22 A2982 RMK AO2

2010/08/08 01:51
KGMJ 080151Z AUTO 00000KT 10SM CLR 28/24 A2986 RMK AO2

2010/08/08 01:51
KHDO 080151Z AUTO 13008KT 10SM CLR 32/18 A2986 RMK AO2 SLP096 T03220183

2010/08/08 01:49
KL35 080149Z AUTO 22004KT 10SM CLR 18/00 A3009 RMK AO2

2010/08/08 01:50
KLBE 080150Z 00000KT 15SM SCT060 19/16 A3003 RMK LAST

2010/08/08 01:50
KLRU 080150Z AUTO 25009KT 10SM CLR 31/09 A2998 RMK AO2

2010/08/08 01:50
KONM 080150Z AUTO 19008KT 10SM CLR 31/09 A2996 RMK AO2 T03100087

2010/08/08 01:50
KONP 080150Z AUTO 00000KT 5SM BR OVC007 15/13 A2998 RMK AO1

2010/08/08 01:50
K2W6 080150Z AUTO 00000KT 10SM CLR 22/15 A2999 RMK AO1

2010/08/08 01:50
K2G4 080150Z AUTO 32003KT 10SM CLR 18/11 A3011 RMK AO1

2010/08/08 01:50
KCGS 080150Z AUTO 00000KT 10SM CLR 23/17 A2998 RMK AO1

2010/08/08 01:51
KW29 080151Z AUTO 00000KT 10SM CLR 21/17 A2997 RMK AO1

2010/08/08 01:51
KFDK 080151Z AUTO 00000KT 7SM CLR 23/14 A2999 RMK AO2

2010/08/08 01:49
PADL 080149Z 20011KT 20SM BKN017 OVC025 13/10 A2978

2010/08/08 01:51
KJCT 080151Z AUTO 15007KT 10SM CLR 33/17 A2988 RMK AO2 SLP076 T03280167 TSNO

2010/08/08 01:51
KERI 080151Z 16006KT 10SM CLR 19/13 A2998 RMK AO2 SLP150 T01940133

2010/08/08 01:51
KEWR 080151Z 00000KT 10SM FEW100 SCT250 25/19 A2997 RMK AO2 SLP149 T02500189 $

2010/08/08 01:50
KFET 080150Z AUTO 15008KT 10SM CLR 28/22 A2975 RMK AO2 T02820216

2010/08/08 01:53
KGCD 080153Z AUTO 32007KT 10SM CLR 26/04 A2985 RMK AO2 T02640038

2010/08/08 01:51
KGCM 080151Z AUTO 00000KT 10SM CLR 27/23 A2987 RMK AO2

2010/08/08 01:50
KHDE 080150Z AUTO 15006KT 10SM CLR 28/22 A2978 RMK AO2 T02790219

2010/08/08 01:50
KHJH 080150Z AUTO 15006KT 10SM CLR 28/22 A2977 RMK AO2 T02830222

2010/08/08 01:50
KIBM 080150Z AUTO 20003KT 10SM SCT120 26/17 A2992 RMK AO2 T02590171

2010/08/08 01:50
KIDP 080150Z AUTO 19005KT 10SM CLR 26/22 A2984 RMK AO2

2010/08/08 01:51
KILG 080151Z 15006KT 10SM CLR 25/19 A2998 RMK AO2 SLP152 T02500194

2010/08/08 01:51
KJFK 080151Z 18009KT 10SM FEW250 24/19 A2999 RMK AO2 SLP154 T02390194

2010/08/08 01:51
KJSV 080151Z AUTO 08005KT 10SM CLR 26/23 A2984 RMK AO2

2010/08/08 01:54
KJWG 080154Z AUTO 17007KT 10SM CLR 32/22 A2984 RMK AO2

2010/08/08 01:50
KJYR 080150Z AUTO 17006KT 10SM CLR 28/23 A2976 RMK AO2

2010/08/08 01:50
KLAM 080150Z AUTO 27019G25KT 10SM CLR 22/11 A3015 RMK AO2

2010/08/08 01:50
KLCG 080150Z AUTO 18006KT 10SM CLR 26/23 A2972 RMK AO2 T02600232

2010/08/08 01:51
KLGA 080151Z 17008KT 10SM FEW085 SCT250 26/19 A2997 RMK AO2 SLP149 T02560189

2010/08/08 01:51
KLGU 080151Z AUTO 19011KT 10SM CLR 27/06 A2987 RMK AO2 SLP052 T02670061

2010/08/08 01:51
KLHM 080151Z AUTO 17009KT 10SM CLR 33/08 A2968 RMK AO1 T03250079

2010/08/08 01:51
KMDW 080151Z 19006KT 10SM SCT090 27/17 A2990 RMK AO2 SLP115 T02670172 $

2010/08/08 01:45
KMMU 080145Z 00000KT 10SM SKC 20/17 A2998 RMK LAST

2010/08/08 01:51
KMPV 080151Z AUTO 00000KT 10SM FEW065 12/09 A3004 RMK AO2 SLP173 T01220089

2010/08/08 01:50
KOJA 080150Z AUTO 16005KT 10SM CLR 32/21 A2984 RMK AO2

2010/08/08 01:51
KOKM 080151Z AUTO 11004KT 10SM CLR 30/26 A2984 RMK AO1

2010/08/08 01:51
KORD 080151Z 21005KT 10SM FEW060 SCT090 SCT150 24/18 A2990 RMK AO2 SLP119 T02440183

2010/08/08 01:50
KORS 080150Z AUTO 00000KT 2SM -RA 15/15 A2987 RMK AO2

2010/08/08 01:52
KOUN 080152Z AUTO 12007KT 10SM CLR 33/23 A2984 RMK AO2

2010/08/08 01:51
KPHX 080151Z 34009KT 10SM SCT110 SCT160 BKN210 BKN250 34/16 A2975 RMK AO2 SLP053 CB DSNT S-SW T03440156 $

2010/08/08 01:51
KPIT 080151Z 00000KT 10SM FEW250 21/13 A3002 RMK AO2 SLP167 T02060128

2010/08/08 01:50
KPLU 080150Z AUTO 24004KT 4SM BR SCT006 BKN034 17/17 A2990 RMK AO2 P0001

2010/08/08 01:48
K1F0 080148Z AUTO 13004KT 10SM CLR 32/22 A2980 RMK AO2

2010/08/08 01:48
K4O4 080148Z AUTO 15005KT 10SM VCTS CLR 29/22 A2983 RMK AO2 LTG DSNT W AND NW

2010/08/08 01:55
KPSO 080155Z AUTO 17019G29KT 7SM VCTSRA SCT038 SCT045 OVC065 16/13 A3027 RMK AO2 LTG DSNT E THRU SW

2010/08/08 01:50
KPMV 080150Z AUTO 15007KT 10SM CLR 29/23 A2977 RMK AO2 T02850233

2010/08/08 01:52
KAFN 080152Z AUTO 00000KT 10SM CLR 13/10 A3003 RMK AO2 SLP172 T01330100

2010/08/08 01:52
KAQW 080152Z AUTO 00000KT 10SM CLR 13/11 A3002 RMK AO2 SLP166 T01280111

2010/08/08 01:52
KARR 080152Z 18004KT 9SM CLR 23/20 A2991 RMK AO2 SLP122 T02280200

2010/08/08 01:52
KATL 080152Z 14006KT 10SM FEW045 28/22 A2996 RMK AO2 SLP134 T02830222

2010/08/08 01:52
KBIS 080152Z 10004KT 10SM CLR 26/19 A2966 RMK AO2 SLP032 T02610189

2010/08/08 01:52
KBLF 080152Z AUTO 00000KT 10SM FEW047 21/14 A3010 RMK AO2 SLP158 T02110144

2010/08/08 01:52
KBLH 080152Z AUTO 17010KT 10SM FEW090 38/15 A2963 RMK AO2 SLP027 T03830150

2010/08/08 01:52
KBML 080152Z AUTO 00000KT 10SM CLR 08/08 A3002 RMK AO2 SLP168 T00830078

2010/08/08 01:52
KCFV 080152Z AUTO 16004KT 10SM CLR 29/24 A2984 RMK AO2 SLP097 T02890239

2010/08/08 01:52
KCKV 080152Z AUTO 09004KT 8SM CLR 25/17 A2993 RMK AO2 SLP129 T02500172

2010/08/08 01:52
KCLT 080152Z 09004KT 10SM CLR 28/18 A2998 RMK AO2 SLP142 T02780178

2010/08/08 01:52
KCQX 080152Z AUTO VRB04KT 10SM CLR 21/18 A3004 RMK AO2 SLP172 T02060183

2010/08/08 01:52
KCVG 080152Z 17003KT 10SM FEW065 24/14 A2998 RMK AO2 SLP142 T02390144

2010/08/08 01:52
KDDC 080152Z AUTO 18010KT 8SM CLR 27/16 A2985 RMK AO2 SLP072 T02670161

2010/08/08 01:52
KDPA 080152Z 17004KT 10SM CLR 22/19 A2990 RMK AO2 SLP119 T02220194

2010/08/08 01:52
KDVN 080152Z AUTO 18005KT 9SM CLR 24/19 A2987 RMK AO2 SLP110 T02390189

2010/08/08 01:52
KEST 080152Z AUTO 19008KT 8SM CLR 26/22 A2975 RMK AO2 SLP065 T02560222

2010/08/08 01:52
KFIT 080152Z AUTO 35003KT 10SM CLR 17/11 A3001 RMK AO2 SLP163 T01670111

2010/08/08 01:52
KHIE 080152Z AUTO 00000KT 10SM CLR 12/12 A3001 RMK AO2 SLP163 T01170117

2010/08/08 01:52
KHRL 080152Z AUTO 15010KT 10SM CLR 29/24 A2985 RMK AO2 SLP108 T02890239 TSNO $

2010/08/08 01:52
KHUT 080152Z 14011KT 10SM CLR 31/22 A2982 RMK AO2 SLP073 T03060222 $

2010/08/08 01:52
KIEN 080152Z AUTO 06005KT 10SM CLR 27/15 A2979 RMK AO2 SLP049 T02720150

2010/08/08 01:52
KIJD 080152Z AUTO 00000KT 10SM CLR 16/14 A3001 RMK AO2 SLP161 T01610139

2010/08/08 01:52
KIOW 080152Z AUTO 08004KT 10SM FEW100 26/22 A2985 RMK AO2 SLP102 T02560222 $

2010/08/08 01:52
KISN 080152Z 25007KT 10SM CLR 25/16 A2967 RMK AO2 SLP035 T02500161

2010/08/08 01:52
KLWC 080152Z AUTO 15004KT 8SM CLR 27/24 A2983 RMK AO2 SLP090 T02720239

2010/08/08 01:50
KLXN 080150Z AUTO 14007KT 10SM CLR 30/23 A2978 RMK AO2 T03000234

2010/08/08 01:52
KMDH 080152Z AUTO 06003KT 6SM HZ FEW080 23/18 A2992 RMK AO2 SLP127 T02330178

2010/08/08 01:50
KTRK 080150Z AUTO 27012KT 10SM SCT100 23/05 A3001 RMK AO2 LTG DSNT SE

2010/08/08 01:52
KTRM 080152Z AUTO 30004KT 10SM CLR 37/10 A2959 RMK AO2 SLP023 T03720100

2010/08/08 01:55
KUDG 080155Z 09007KT 10SM CLR 27/23 A2996 RMK AO1

2010/08/08 01:52
KUGN 080152Z AUTO 21005KT 10SM CLR 24/18 A2988 RMK AO2 RAE0053 SLP107 T02440183

2010/08/08 01:47
PAPT 080147Z 16006KT 10SM -RA BKN015 OVC040 11/10 A2966 RMK NOSPECI

2010/08/08 01:50
PAWI 080150Z 05013KT 10SM OVC010 08/06 A2975 RMK VIA PHONE

2010/08/08 01:52
KMKE 080152Z 21008KT 10SM FEW100 SCT250 24/19 A2986 RMK AO2 SLP106 T02440189

2010/08/08 01:50
KMLE 080150Z AUTO 15005KT 10SM CLR 28/22 A2975 RMK AO2 T02830220

2010/08/08 01:52
KMLI 080152Z 17005KT 10SM CLR 25/21 A2986 RMK AO2 SLP108 T02500206

2010/08/08 01:50
KMMH 080150Z AUTO 20015G23KT 10SM CLR 19/M02 A3005 RMK AO1

2010/08/08 01:52
KMWH 080152Z 32013KT 10SM CLR 26/08 A2976 RMK AO2 SLP071 T02610083

2010/08/08 01:50
KMYR 080150Z 00000KT 8SM FEW020 26/23 A2997

2010/08/08 01:55
KOAJ 080155Z AUTO 00000KT 7SM CLR 23/23 A2995 RMK AO1

2010/08/08 01:55
KOCF 080155Z AUTO 00000KT 10SM SCT035 BKN050 BKN075 24/23 A2993 RMK AO1 LTG DSNT E TSE13 P0013

2010/08/08 01:50
KOGA 080150Z AUTO 18005KT 10SM CLR 29/13 A2981 RMK AO2 T02940127

2010/08/08 01:52
KOKB 080152Z AUTO 27003KT 10SM BKN017 18/13 A2986 RMK AO2 SLP109 T01830133 $

2010/08/08 01:45
MMRX 080145Z 11010KT 10SM FEW220 30/22 A2986 RMK 8/002 HZY

2010/08/08 01:51
MMCV 080151Z 17012KT 10SM SCT200 29/24 A2991 RMK 8/005 CU ARND DSNT CB N

2010/08/08 01:47
MMTC 080147Z 34008KT 10SM FEW040TCU SCT110 BKN220 31/11 A2992 RMK 8/272 SC

2010/08/08 01:46
MMCU 080146Z 12008KT 10SM SCT030CB SCT120 BKN200 27/09 A2999 RMK 8/372 LTGIC

2010/08/08 01:50
PTKR 080150Z 35008KT 15SM FEW018TCU BKN120 OVC300 30/24 A2983 RMK TCU NE SLP102 T02960244

2010/08/08 01:50
PTRO 080150Z 28006KT 15SM SCT016TCU BKN120 OVC300 29/25 A2985 RMK TCU VC ALQDS

2010/08/08 01:50
PASN 080150Z 14014G21KT 1 3/4SM RA BR BKN003 OVC011 08/08 A2942 RMK AO2 P0007

2010/08/08 01:49
PAED 080149Z AUTO 20008KT 10SM -RA BKN009 BKN015 BKN021 OVC039 12/11 A2975

2010/08/08 01:51
KCRE 080151Z AUTO 00000KT 5SM BR BKN019 26/25 A2993 RMK AO2

2010/08/08 01:51
KSAF 080151Z 00000KT 10SM VCTS FEW100 26/08 A3009 RMK AO2 LTG DSNT NE AND E TSE02B45

2010/08/08 01:52
KNRB 080152Z 26003KT 10SM FEW030 OVC150 26/23 A2992 RMK AO2 RAE28 SLP132 T2 SET P0000 T02610233

2010/08/08 01:50
ESGG 080150Z 34004KT CAVOK 16/15 Q1014

2010/08/08 01:50
ESGJ 080150Z AUTO 01006KT 9999NDV OVC049/// 15/13 Q1013

2010/08/08 01:50
ESGP 080150Z 00000KT 4000 BR OVC170 15/15 Q1014

2010/08/08 01:50
ESMK 080150Z AUTO 29005KT 9999NDV SCT070/// BKN083/// 18/15 Q1012

2010/08/08 01:50
ESMQ 080150Z AUTO 35004KT 310V020 9999NDV BR FEW003/// BKN005/// 16/16 Q1011

2010/08/08 01:50
ESMS 080150Z 28005KT CAVOK 17/16 Q1013

2010/08/08 01:50
ESMT 080150Z AUTO 02004KT 9999NDV NCD 17/14 Q1013

2010/08/08 01:50
ESMX 080150Z AUTO 36009KT 9999NDV OVC015/// 16/14 Q1012

2010/08/08 01:50
ESTA 080150Z AUTO 34002KT 7000NDV BR OVC110/// 17/17 Q1012

2010/08/08 01:50
ESTL 080150Z AUTO 25002KT 4200NDV BR BKN100/// 16/16 Q1012

2010/08/08 01:48
KUIL 080148Z AUTO 25004KT 2 1/2SM BR BKN004 BKN015 OVC020 14/13 A2991 RMK AO2 RAE0055 P0000 TSNO

2010/08/08 02:00
FLLS 080200Z 13003KT CAVOK 09/09 Q1023

2010/08/08 01:52
KOKC 080152Z 13010KT 10SM FEW200 32/22 A2983 RMK AO2 SLP083 T03220222 $

2010/08/08 01:52
KOMA 080152Z 16012KT 10SM CLR 30/23 A2975 RMK AO2 SLP065 T03000228

2010/08/08 01:50
KONL 080150Z AUTO 19009KT 10SM CLR 29/23 A2972 RMK AO2 T02900231

2010/08/08 01:52
KORE 080152Z AUTO 00000KT 10SM CLR 16/12 A3001 RMK AO2 SLP163 T01560122

2010/08/08 01:50
KPNA 080150Z AUTO 26003KT 10SM CLR 20/03 A3008 RMK AO2 T02000028

2010/08/08 01:52
KPPF 080152Z AUTO 00000KT 10SM CLR 29/24 A2985 RMK AO2 SLP098 T02890244

2010/08/08 01:50
KPTT 080150Z AUTO 16007KT 10SM CLR 31/18 A2983 RMK AO2

2010/08/08 01:52
KPWK 080152Z 21006KT 10SM FEW085 26/18 A2991 RMK AO2 SLP122 T02610183

2010/08/08 01:52
KPYM 080152Z AUTO 00000KT 10SM CLR 19/15 A3002 RMK AO2 SLP164 T01940150

2010/08/08 01:52
KRAP 080152Z 35005KT 10SM CLR 25/16 A2980 RMK AO2 SLP063 T02500161 $

2010/08/08 01:50
KSEZ 080150Z AUTO 00000KT 10SM SCT100 SCT120 19/18 RMK AO2 T01940181

2010/08/08 01:52
KSGF 080152Z AUTO 15005KT 10SM CLR 27/21 A2989 RMK AO2 SLP107 T02720206

2010/08/08 01:55
KSOP 080155Z AUTO 00000KT 10SM CLR 24/21 A2996 RMK AO1

2010/08/08 01:52
KSPI 080152Z 18005KT 10SM CLR 24/18 A2991 RMK AO2 SLP124 T02440183

2010/08/08 01:52
KSUX 080152Z 17007KT 10SM CLR 27/22 A2971 RMK AO2 SLP052 T02720217

2010/08/08 01:50
KSZT 080150Z AUTO 26003KT 10SM SCT095 25/12 A2973 RMK AO2

2010/08/08 01:52
KTAN 080152Z AUTO 00000KT 10SM CLR 18/16 A2999 RMK AO2 SLP155 T01830156

2010/08/08 01:50
KTEX 080150Z AUTO 23005KT 10SM SCT001 BKN070 BKN080 13/12 A3033 RMK AO2

2010/08/08 01:50
KTIF 080150Z AUTO 19003KT 10SM CLR 29/17 A2979 RMK AO2 T02860173

2010/08/08 01:50
EDDF 080150Z VRB02KT CAVOK 17/14 Q1015 NOSIG

2010/08/08 01:50
EDDH 080150Z 35002KT 9999 -RA NSC 17/14 Q1015 NOSIG

2010/08/08 01:50
EDDK 080150Z VRB03KT CAVOK 18/15 Q1015 NOSIG

2010/08/08 01:50
EDDL 080150Z 35002KT 9000 -SHRA FEW013 FEW030CB BKN060 17/16 Q1015 NOSIG

2010/08/08 01:50
EDDM 080150Z 23001KT 9999 MIFG NSC 12/11 Q1019 NOSIG

2010/08/08 01:50
EDDN 080150Z 12006KT CAVOK 11/11 Q1017

2010/08/08 01:50
EDDS 080150Z 30001KT CAVOK 13/11 Q1018

2010/08/08 01:50
EDDT 080150Z 23004KT CAVOK 18/15 Q1014

2010/08/08 01:50
EDDV 080150Z 22004KT 9999 -RA FEW020 BKN080 17/15 Q1015

2010/08/08 01:51
KACT 080151Z 14008KT 10SM CLR 33/19 A2982 RMK AO2 SLP090 T03330194

2010/08/08 01:51
KADH 080151Z AUTO 13004KT 10SM CLR 30/21 A2984 RMK AO2

2010/08/08 01:50
KAFK 080150Z AUTO 17006KT 10SM CLR 27/23 A2978 RMK AO2 T02680230

2010/08/08 01:51
KAHN 080151Z AUTO 00000KT 6SM HZ CLR 26/23 A2997 RMK AO2 SLP139 T02610228

2010/08/08 01:45
KALM 080145Z AUTO 16003KT 10SM BKN110 32/11 A2991 RMK AO2

2010/08/08 01:45
KANE 080145Z 20010G16KT 12SM SCT037 BKN060 OVC075 29/23 A2968

2010/08/08 01:50
KANW 080150Z AUTO 05006KT 10SM CLR 28/18 A2976 RMK AO2 T02770180

2010/08/08 01:51
KASH 080151Z 00000KT 10SM CLR 17/09 A3000 RMK AO2 T01660088 SLP162

2010/08/08 01:50
KATS 080150Z AUTO 28015G19KT 10SM SCT100 33/12 A2991 RMK AO2 LTG DSNT SE AND SW

2010/08/08 01:50
KAUH 080150Z AUTO 16006KT 10SM CLR 28/22 A2977 RMK AO2 T02780216

2010/08/08 01:50
KAUN 080150Z AUTO 18005KT 10SM CLR 29/06 A2979 RMK AO1

2010/08/08 01:51
KAVX 080151Z AUTO 24008KT 10SM CLR 13/11 A2988 RMK AO2 SLPNO T01330111 TSNO

2010/08/08 01:50
KAXS 080150Z AUTO 14006KT 10SM CLR 33/21 A2983 RMK AO2 T03300209

2010/08/08 01:50
KAXX 080150Z AUTO 32004KT 10SM SCT090 SCT120 13/11 A3027 RMK AO2

2010/08/08 01:51
KBGD 080151Z AUTO 18010G16KT 10SM CLR 33/16 A2988 RMK AO2 SLP068 T03280156

2010/08/08 01:50
KBIE 080150Z AUTO 16007KT 10SM CLR 29/21 A2977 RMK AO2 T02910213

2010/08/08 01:50
KBTA 080150Z AUTO 15007KT 10SM CLR 28/22 A2976 RMK AO2 T02760216

2010/08/08 01:50
KBVN 080150Z AUTO 17003KT 10SM CLR 27/23 A2976 RMK AO2 T02710232

2010/08/08 01:45
KBVS 080145Z AUTO 16003KT 9SM FEW014 OVC022 18/17 A2990 RMK A01 P000

2010/08/08 01:47
KCHD 080147Z 00000KT 40SM SCT120 BKN180 35/13 A2976

2010/08/08 01:51
KCLE 080151Z 18005KT 10SM SCT250 23/15 A3000 RMK AO2 SLP153 T02280150

2010/08/08 01:50
KCLK 080150Z AUTO 16006KT 10SM CLR 32/16 A2982 RMK AO2

2010/08/08 01:51
KCMH 080151Z 00000KT 10SM CLR 24/15 A2998 RMK AO2 SLP146 T02390150

2010/08/08 01:50
KCQB 080150Z AUTO 10005KT 10SM CLR 30/24 A2984 RMK AO2 TSNO

2010/08/08 01:51
KCSG 080151Z AUTO 15008KT 9SM CLR 30/22 A2992 RMK AO2 SLP126 T03000222

2010/08/08 01:50
KCUH 080150Z AUTO 13005KT 10SM CLR 32/24 A2983 RMK AO2

2010/08/08 01:51
KDAW 080151Z AUTO 00000KT 10SM CLR 17/12 A3000 RMK AO2 SLP155 T01670122

2010/08/08 01:50
KDVO 080150Z AUTO 05008KT 10SM 22/13 A2978 RMK AO2

2010/08/08 01:48
KPVJ 080148Z AUTO 13003KT 10SM CLR 33/23 A2982 RMK AO2

2010/08/08 01:51
KPWM 080151Z 19003KT 10SM CLR 17/14 A2999 RMK AO2 SLP156 T01670144 $

2010/08/08 01:51
KRDU 080151Z 04003KT 9SM FEW090 25/20 A2998 RMK AO2 SLP145 T02500200

2010/08/08 01:51
KSJT 080151Z 15007KT 10SM BKN100 35/17 A2985 RMK AO2 SLP078 T03500167

2010/08/08 01:51
KSLK 080151Z AUTO 00000KT 10SM OVC050 11/07 A2999 RMK AO2 SLP155 T01110072

2010/08/08 01:51
KSMO 080151Z 25005KT 10SM CLR 17/12 A2985 RMK AO2 SLP107 T01720122

2010/08/08 01:53
KSNL 080153Z AUTO 13006KT 10SM CLR 32/23 A2985 RMK AO2

2010/08/08 01:50
KSRE 080150Z AUTO 08005KT 10SM CLR 30/23 A2984 RMK AO2

2010/08/08 01:51
KSTL 080151Z 12007KT 7SM CLR 27/18 A2991 RMK AO2 SLP116 T02720183

2010/08/08 01:45
KSVC 080145Z AUTO 31009KT 10SM CLR 25/12 A3009 RMK AO2

2010/08/08 01:54
KTMK 080154Z AUTO 00000KT 2 1/2SM BR BKN004 BKN008 OVC018 17/17 A2994 RMK AO2

2010/08/08 01:53
KTQH 080153Z AUTO 00000KT 10SM CLR 27/24 A2987 RMK AO2

2010/08/08 01:51
KVNY 080151Z 14008KT 10SM CLR 22/11 A2982 RMK AO2 SLP091 T02220111

2010/08/08 01:48
KWWR 080148Z AUTO 13006KT 10SM CLR 27/20 A2986 RMK AO2 T02710203

2010/08/08 01:51
KDAG 080151Z AUTO 23018KT 10SM CLR 34/M10 A2973 RMK AO2 PK WND 23026/0141 SLP041 T03391100 TSNO

2010/08/08 01:52
KDCA 080152Z 20003KT 10SM CLR 26/17 A2998 RMK AO2 SLP150 T02560167

2010/08/08 01:52
KGLS 080152Z AUTO 20009KT 10SM CLR 30/24 A2989 RMK AO2 SLP120 T03000244

2010/08/08 01:55
KGLY 080155Z AUTO 00000KT 10SM CLR 26/23 A2986 RMK AO2

2010/08/08 01:52
KIAD 080152Z 15003KT 10SM CLR 22/16 A2998 RMK AO2 SLP148 T02220156

2010/08/08 01:45
KJVL 080145Z 20004KT 10SM CLR 24/19 A2987 RMK LAST

2010/08/08 01:52
KMEB 080152Z AUTO 02003KT 10SM SCT065 26/22 A2995 RMK AO2 SLP138 T02610217

2010/08/08 01:55
KMEZ 080155Z AUTO 00000KT 10SM CLR 29/26 A2988 RMK AO2

2010/08/08 01:55
KPAN 080155Z AUTO 05004KT 10SM CLR 22/13 A3009 RMK AO1

2010/08/08 01:50
LXGB 080150Z 10012KT 9999 FEW012 SCT100 BKN250 24/20 Q1017

2010/08/08 01:48
KIZA 080148Z AUTO 28009KT 10SM CLR 21/11 A2984 RMK AO2

2010/08/08 01:51
KSAN 080151Z 29005KT 10SM SCT021 18/12 A2988 RMK AO2 SLP118 T01830122 $

2010/08/08 01:51
KCBE 080151Z AUTO 00000KT 10SM CLR 23/15 A3004 RMK AO1

2010/08/08 01:51
KCON 080151Z AUTO 00000KT 10SM CLR 14/09 A3000 RMK AO2 SLP158 T01440089

2010/08/08 01:51
KSMX 080151Z AUTO 31009KT 10SM CLR 16/11 A2987 RMK AO2 SLP115 T01560106 TSNO

2010/08/08 01:51
KORF 080151Z 10003KT 9SM FEW010 24/23 A2997 RMK AO2 SLP149 T02440228 $

2010/08/08 01:51
KNYC 080151Z AUTO VRB03KT 10SM CLR 24/18 A3000 RMK AO2 SLP150 T02390183 TSNO

2010/08/08 01:51
KCRP 080151Z 15006KT 10SM FEW025 28/24 A2986 RMK AO2 SLP109 T02830244

2010/08/08 01:51
KBVE 080151Z AUTO 25005KT 10SM SCT031 31/26 A2991 RMK AO2 SLP129 T03060256 TSNO

2010/08/08 01:51
KSNT 080151Z AUTO 00000KT 22/03 A2999 RMK AO2 SLP060 T02170033 PWINO TSNO

2010/08/08 01:51
KELP 080151Z 27011KT 10SM FEW100 SCT300 34/10 A2991 RMK AO2 SLP045 CB DSNT NE AND S T03440100

2010/08/08 01:51
KHTS 080151Z 11003KT 7SM CLR 21/18 A2999 RMK AO2 SLP147 T02110178

2010/08/08 01:50
KISM 080150Z 21004KT 10SM SKC 27/25 A2996 RMK LAST

2010/08/08 01:51
KMYL 080151Z AUTO 26006KT 10SM CLR 24/M02 A2989 RMK AO2 SLP080 T02391022

2010/08/08 01:51
KOXR 080151Z 28008KT 10SM FEW012 17/13 A2984 RMK AO2 SLP104 T01720128

2010/08/08 01:50
KPTS 080150Z AUTO 18003KT 10SM CLR 29/23 A2985 RMK AO2 T02850227

2010/08/08 01:51
KALB 080151Z 00000KT 10SM FEW180 18/11 A3000 RMK AO2 SLP158 T01780106

2010/08/08 01:51
KBDL 080151Z 00000KT 10SM CLR 18/12 A2998 RMK AO2 SLP152 T01830122

2010/08/08 01:51
KBKW 080151Z AUTO 00000KT 8SM BKN060 20/16 A3008 RMK AO2 SLP156 T02000156

2010/08/08 01:51
KCAK 080151Z 16004KT 10SM SCT200 21/14 A3001 RMK AO2 SLP154 T02110139

2010/08/08 01:51
KEKN 080151Z AUTO 00000KT 10SM CLR 16/15 A3008 RMK AO2 SLP184 T01610150 TSNO

2010/08/08 01:51
KPVD 080151Z 00000KT 10SM FEW055 20/16 A3002 RMK AO2 SLP164 T02000161

2010/08/08 01:51
KROW 080151Z 27008KT 10SM CLR 30/12 A2990 RMK AO2 SLP054 T03000122

2010/08/08 01:51
KTEB 080151Z 21004KT 10SM CLR 24/17 A2996 RMK AO2 SLP146 T02390172

2010/08/08 01:51
KYNG 080151Z 16004KT 10SM SCT250 16/13 A3001 RMK AO2 SLP157 T01610133

2010/08/08 01:51
KGDP 080151Z AUTO 07013KT 10SM CLR 27/12 A3008 RMK AO2 SLP087 T02720122 TSNO

2010/08/08 01:51
KHSE 080151Z AUTO 06004KT 9SM CLR 26/24 A2996 RMK AO2 SLP144 T02560244 TSNO

2010/08/08 01:51
KP59 080151Z AUTO 24003KT 19/14 A2976 RMK AO2 SLP071 T01890139 PWINO TSNO $

2010/08/08 01:51
KATT 080151Z AUTO 16005KT 10SM CLR 32/20 A2986 RMK AO2 SLP095 T03220200

2010/08/08 01:51
KABE 080151Z 35003KT 10SM CLR 22/15 A2998 RMK AO2 SLP151 T02170150

2010/08/08 01:55
KLZZ 080155Z AUTO 15005KT 10SM CLR 32/20 A2986 RMK AO2

2010/08/08 01:52
KREO 080152Z AUTO 31010KT 30/02 A2980 RMK AO2 SLP052 T03000017 PWINO TSNO

2010/08/08 01:52
KN60 080152Z AUTO 14003KT 25/21 A2966 RMK AO1 SLP031 T02500206

2010/08/08 01:52
KSDB 080152Z AUTO 19010G15KT 10SM CLR 20/05 A2997 RMK AO2 SLP099 T02000050 TSNO $

2010/08/08 01:52
KBLU 080152Z AUTO VRB04KT 10SM CLR 21/07 A3003 RMK AO2 SLP077 T02060067 TSNO

2010/08/08 01:52
KALS 080152Z AUTO 18021G28KT 10SM TS SCT100 BKN120 23/07 A3013 RMK AO2 PK WND 18028/0152 LTG DSNT NE AND SW AND W TSB28 SLP102 T02330067 $

2010/08/08 01:52
KBDR 080152Z 20004KT 10SM CLR 24/19 A2998 RMK AO2 SLP153 T02390189

2010/08/08 01:52
KCID 080152Z 15005KT 9SM CLR 24/22 A2983 RMK AO2 SLP095 T02440217 $

2010/08/08 01:52
KCNU 080152Z AUTO 14005KT 8SM CLR 28/24 A2985 RMK AO2 SLP094 T02780239

2010/08/08 01:52
KTOL 080152Z 20004KT 8SM CLR 19/17 A2995 RMK AO2 SLP140 T01940172

2010/08/08 01:52
KVTN 080152Z AUTO 01004KT 10SM CLR 29/17 A2976 RMK AO2 SLP049 T02940167

2010/08/08 01:52
KMFD 080152Z 16004KT 10SM CLR 20/14 A3001 RMK AO2 SLP155 T02000144

2010/08/08 01:52
KMHK 080152Z 16003KT 10SM CLR 30/22 A2979 RMK AO2 SLP077 T03000217 $

2010/08/08 01:50
KSOW 080150Z AUTO 35004KT 10SM OVC015 15/13 A3024 RMK AO2

2010/08/08 01:52
KSPS 080152Z AUTO 13007KT 10SM CLR 33/22 A2980 RMK AO2 SLP074 P0003 T03280217

2010/08/08 02:00
LQSA 080200Z 31004KT 290V350 8000 BKN040 15/14 Q1019

2010/08/08 02:00
MDST 080200Z 10008KT 5000 DU FEW016CB SCT018 BKN070 27/26 Q1015 CB/W/NW DU/ALL QDS

2010/08/08 02:00
MDPC 080200Z 04015KT 9999 FEW020 28/25 Q1013

2010/08/08 02:00
MDSD 080200Z 06005KT 9999 FEW020 24/22 Q1015 DU/ALL QDS=

2010/08/08 01:50
EFHK 080150Z 10005KT 7000 NSC 23/20 Q1013 NOSIG

2010/08/08 01:50
EFJY 080150Z AUTO 34001KT CAVOK 19/18 Q1014

2010/08/08 01:50
EFKU 080150Z AUTO VRB01KT CAVOK 21/19 Q1015

2010/08/08 01:50
EFOU 080150Z AUTO 00000KT 2400 -SHRA BR FEW069 BKN096 19/19 Q1016

2010/08/08 01:50
EFRO 080150Z AUTO 04007KT CAVOK 16/16 Q1017

2010/08/08 01:50
EFTP 080150Z 01002KT CAVOK 18/18 Q1013

2010/08/08 01:50
EFTU 080150Z AUTO 34004KT 290V020 9999 FEW006 19/19 Q1012

2010/08/08 01:50
EFVA 080150Z AUTO 36002KT CAVOK 16/16 Q1014

2010/08/08 01:49
PADL 080149Z 20011KT 20SM BKN017 OVC025 13/10 A2978

2010/08/08 02:00
MGHT 080200Z 00000KT 9999 -DZ OVC025 17/17 QFE817.5

2010/08/08 02:00
MGPB 080200Z 00000KT 9999 FEW016 SCT090 26/25 Q1011 A2985

2010/08/08 02:00
MGGT 080200Z 00000KT 9999 FEW016 FEW020CB SCT080 19/17 Q1024 A3024 CB/LTNG/SSE/S VOL. DE PACAYA EN ACTIVIDAD

2010/08/08 02:00
MGSJ 080200Z 00000KT 9999 SCT018 FEW025CB BKN110 27/25 Q1013 A2991 CB/LTNG/W/WNW

2010/08/08 01:52
K9V9 080152Z AUTO 00000KT 31/19 A2967 RMK AO2 SLP031 T03060194 PWINO TSNO 

2010/08/08 01:52
KNHK 080152Z AUTO 00000KT 10SM CLR 22/17 A2997 RMK AO2 SLP149 T02170172 

2010/08/08 01:50
EDDB 080150Z 27002KT CAVOK 16/14 Q1014 NOSIG

2010/08/08 01:50
EDDC 080150Z 16005KT CAVOK 15/15 Q1015

2010/08/08 01:50
EDDG 080150Z VRB01KT 9999 FEW030 BKN060 16/15 Q1015 NOSIG

2010/08/08 01:50
EDDP 080150Z 25007KT CAVOK 15/13 Q1015 NOSIG

2010/08/08 01:50
EDDR 080150Z 16004KT 9999 FEW040 BKN060 18/11 Q1016

2010/08/08 01:50
EDDT 080150Z 23004KT CAVOK 18/15 Q1014

2010/08/08 01:50
EDDV 080150Z 22004KT 9999 -RA FEW020 BKN080 17/15 Q1015

2010/08/08 01:50
EDDW 080150Z 04002KT CAVOK 18/16 Q1015

2010/08/08 01:50
LXGB 080150Z 10012KT 9999 FEW012 SCT100 BKN250 24/20 Q1017

2010/08/08 01:50
EYSA 080150Z 14014KT 110V170 9999 TSRA FEW021 BKN044CB OVC090 19/17 Q1014

2010/08/08 01:48
RODN 080148Z 21008KT 9999 -RA SCT007 SCT012 BKN021 OVC032 27/25 A2967 RMK AO2A RAB0110E0131B0148 SLP046

2010/08/08 01:50
EKHN 080150Z AUTO 02002KT 9999NDV FEW003/// BKN012/// 17/13 Q1016

2010/08/08 01:50
EKHR 080150Z AUTO 01004KT 9999NDV SCT002/// BKN004/// BKN006/// 17/17 Q1015

2010/08/08 01:50
EKVD 080150Z AUTO 31002KT //// ///////// 15/14 Q1015

2010/08/08 01:50
EKCH 080150Z 31010KT 9999 FEW013 BKN150 19/18 Q1013 NOSIG

2010/08/08 01:50
EKBI 080150Z 28002KT 8000 SCT080 BKN130 15/15 Q1015

2010/08/08 01:50
EKYT 080150Z 01003KT 9999 FEW035 BKN160 16/15 Q1015

2010/08/08 01:50
EKRK 080150Z AUTO 31006KT 9999NDV BKN160/// 17/17 Q1013

2010/08/08 01:50
EKAH 080150Z AUTO 28004KT 0200NDV R10R/0450N R28L/0400N FG VV001 15/14 Q1014

2010/08/08 01:50
EKEB 080150Z AUTO 00000KT 2800NDV -SHRA BR OVC034/// 16/15 Q1015

2010/08/08 01:50
EKRN 080150Z AUTO 31006KT 9999NDV DZ OVC041/// 18/17 Q1012

2010/08/08 01:50
EKKA 080150Z 27004KT CAVOK 15/14 Q1015 RMK FEW050 SCT080 BKN100

2010/08/08 01:50
EKSP 080150Z 24001KT 9999 BKN013 BKN090 15/14 Q1015

2010/08/08 01:48
K4O4 080148Z AUTO 15005KT 10SM VCTS CLR 29/22 A2983 RMK AO2 LTG DSNT W AND NW

2010/08/08 01:48
RODN 080148Z 21008KT 9999 -RA SCT007 SCT012 BKN021 OVC032 27/25 A2967 RMK AO2A RAB0110E0131B0148 SLP046

2010/08/08 01:49
PHHI 080149Z AUTO 09011KT 10SM -DZ BKN032 OVC045 28/19 A3005 RMK AO2 DZB0149 SLP163 $

2010/08/08 01:45
KMMU 080145Z 00000KT 10SM SKC 20/17 A2998

2010/08/08 01:45
KSCH 080145Z 00000KT 10SM CLR 17/10 A3000

2010/08/08 01:48
KEHA 080148Z AUTO 17006KT 28/17

2010/08/08 01:48
KUIL 080148Z AUTO 25004KT 2 1/2SM BR BKN004 BKN015 OVC020 14/13 A2991

2010/08/08 01:52
KABI 080152Z 16004KT 10SM CLR 31/21 A2986 RMK AO2 SLP081 T03060206 $ 

2010/08/08 01:48
KIZA 080148Z AUTO 28009KT 10SM CLR 21/11 A2984

2010/08/08 01:45
KMMU 080145Z 00000KT 10SM SKC 20/17 A2998

2010/08/08 01:45
KSCH 080145Z 00000KT 10SM CLR 17/10 A3000

2010/08/08 01:47
KBJC 080147Z 00000KT 40SM FEW060 SCT070 25/07 A3000

2010/08/08 01:49
PADL 080149Z 20011KT 20SM BKN017 OVC025 13/10 A2978

2010/08/08 01:50
EKVD 080150Z AUTO 31002KT //// ///////// 15/14 Q1015

2010/08/08 01:50
EKKA 080150Z 27004KT CAVOK 15/14 Q1015 RMK FEW050 SCT080 BKN100

2010/08/08 01:50
EKSP 080150Z 24001KT 9999 BKN013 BKN090 15/14 Q1015

2010/08/08 01:50
EGGD 080150Z 32004KT 9999 FEW028 12/10 Q1020

2010/08/08 01:50
EGGP 080150Z 29011KT 9999 SCT011 BKN016 16/13 Q1020

2010/08/08 01:50
EGNT 080150Z 31002KT 9999 FEW045 12/11 Q1020

2010/08/08 01:50
EGPB 080150Z AUTO 28011KT 9999NDV FEW011/// BKN021/// 12/10 Q1017

2010/08/08 01:50
EKCH 080150Z 31010KT 9999 FEW013 BKN150 19/18 Q1013 NOSIG

2010/08/08 01:50
EKBI 080150Z 28002KT 8000 SCT080 BKN130 15/15 Q1015

2010/08/08 01:50
EKYT 080150Z 01003KT 9999 FEW035 BKN160 16/15 Q1015

2010/08/08 01:50
EKRK 080150Z AUTO 31006KT 9999NDV BKN160/// 17/17 Q1013

2010/08/08 01:50
EKAH 080150Z AUTO 28004KT 0200NDV R10R/0450N R28L/0400N FG VV001 15/14 Q1014

2010/08/08 01:50
EKEB 080150Z AUTO 00000KT 2800NDV -SHRA BR OVC034/// 16/15 Q1015

2010/08/08 01:50
EKRN 080150Z AUTO 31006KT 9999NDV DZ OVC041/// 18/17 Q1012

2010/08/08 01:50
EFHK 080150Z 10005KT 7000 NSC 23/20 Q1013 NOSIG

2010/08/08 01:50
EFJY 080150Z AUTO 34001KT CAVOK 19/18 Q1014

2010/08/08 01:50
EFKU 080150Z AUTO VRB01KT CAVOK 21/19 Q1015

2010/08/08 01:50
EFOU 080150Z AUTO 00000KT 2400 -SHRA BR FEW069 BKN096 19/19 Q1016

2010/08/08 01:50
EFRO 080150Z AUTO 04007KT CAVOK 16/16 Q1017

2010/08/08 01:50
EFTP 080150Z 01002KT CAVOK 18/18 Q1013

2010/08/08 01:50
EFTU 080150Z AUTO 34004KT 290V020 9999 FEW006 19/19 Q1012

2010/08/08 01:50
EFVA 080150Z AUTO 36002KT CAVOK 16/16 Q1014

2010/08/08 01:50
ESNG 080150Z AUTO 31005KT 9999NDV FEW071/// BKN086/// 11/11 Q1018

2010/08/08 01:50
ESNK 080150Z AUTO 35004KT 9999NDV -RA NCD 16/15 Q1015

2010/08/08 01:50
ESNN 080150Z AUTO 31005KT 9999NDV -RA NCD 16/15 Q1015

2010/08/08 01:50
ESNO 080150Z AUTO 34004KT 9999NDV SCT100/// 17/13 Q1016

2010/08/08 01:50
ESNQ 080150Z AUTO 18002KT 9999NDV NCD 08/07 Q1019

2010/08/08 01:50
ESNS 080150Z AUTO 32003KT 9999NDV ////// 15/14 Q1016

2010/08/08 01:50
ESNU 080150Z AUTO 31003KT 9999NDV FEW110/// 17/13 Q1015

2010/08/08 01:50
ESNZ 080150Z AUTO 22004KT 9999NDV NCD 15/13 Q1016

2010/08/08 01:50
ESUT 080150Z AUTO 00000KT 0300NDV R33/0800V1500 FG VV000 08/07 Q1018

2010/08/08 01:50
EGMC 080150Z 31006KT 9999 FEW040 15/13 Q1017

2010/08/08 01:50
EKHN 080150Z AUTO 02002KT 9999NDV FEW003/// BKN012/// 17/13 Q1016

2010/08/08 01:50
EKHR 080150Z AUTO 01004KT 9999NDV SCT002/// BKN004/// BKN006/// 17/17 Q1015

2010/08/08 02:00
LQSA 080200Z 31004KT 290V350 8000 BKN040 15/14 Q1019

2010/08/08 01:50
EGBB 080150Z AUTO 30007KT 8000NDV FEW010/// BKN019/// 15/13 Q1019

2010/08/08 01:50
EGCC 080150Z AUTO 30003KT 7000NDV FEW033/// 14/13 Q1020

2010/08/08 01:50
EGKK 080150Z VRB03KT CAVOK 14/12 Q1018

2010/08/08 01:50
EGPF 080150Z AUTO 24005KT 9999 SCT016/// 10/09 Q1019

2010/08/08 01:50
EGPH 080150Z AUTO 00000KT 9999 FEW014/// OVC022/// 15/12 Q1019

2010/08/08 01:50
EGPK 080150Z 00000KT 9999 FEW035 11/10 Q1020

2010/08/08 01:50
EGSS 080150Z AUTO 32007KT 9999NDV OVC006/// 14/13 Q1018

2010/08/08 01:50
HLLT 080150Z 11003KT CAVOK 24/17 Q1015

2010/08/08 01:50
ESKN 080150Z 01009KT 9999 OVC007 16/15 Q1012

2010/08/08 01:50
ESOE 080150Z AUTO VRB02KT 9999NDV DZ FEW004/// SCT007/// 16/15 Q1014 RERA

2010/08/08 01:50
ESOK 080150Z AUTO 36004KT 5000NDV BR NCD 16/16 Q1014

2010/08/08 01:50
ESOW 080150Z AUTO 35004KT 8000NDV -DZ OVC028/// 15/15 Q1014

2010/08/08 01:50
ESSA 080150Z 33006KT 9999 OVC003 16/15 Q1013 NOSIG

2010/08/08 01:50
ESSB 080150Z AUTO 33004KT 9999NDV OVC002/// 16/15 Q1012

2010/08/08 01:50
ESSP 080150Z AUTO 36007KT 9999NDV BKN011/// BKN014/// 16/15 Q1012

2010/08/08 01:50
ESSV 080150Z AUTO 17006KT 0700NDV R03/P1500N R21/P1500N FG OVC002/// 17/17 Q1011

2010/08/08 01:50
EGAA 080150Z 00000KT 2100 BR SKC 07/06 Q1021

2010/08/08 01:50
EGGW 080150Z 32008KT 9999 BKN010 15/13 Q1018

2010/08/08 01:50
EGLC 080150Z AUTO 31006KT 9999NDV NCD 15/13 Q1018

2010/08/08 01:50
EGNM 080150Z 35003KT CAVOK 12/10 Q1020

2010/08/08 01:50
EGNX 080150Z 33004KT 9999 FEW022 13/11 Q1019

2010/08/08 01:50
EGPD 080150Z 31003KT 9999 SCT041 10/09 Q1020

2010/08/08 01:50
BGBW 080150Z AUTO 34001KT 9999NDV FEW075/// SCT090/// BKN220/// 13/07 Q1014

2010/08/08 01:50
BGGH 080150Z AUTO 21010KT 9999NDV OVC071/// 12/06 Q1012

2010/08/08 01:50
BGJN 080150Z AUTO 02002KT 9999NDV NCD 08/02 Q1016

2010/08/08 01:55
KBLV 080155Z AUTO 08003KT 10SM CLR 25/21 A2991 RMK AO2 SLP126 T02490209

2010/08/08 01:55
KLRF 080155Z AUTO 11003KT 10SM CLR 28/25 A2987 RMK AO2 SLP111 T02800251

2010/08/08 01:55
KRDR 080155Z AUTO 10003KT 10SM CLR 27/21 A2962 RMK AO2 SLP044 T02720211 $

2010/08/08 01:50
LLBG 080150Z 14003KT 9999 SCT020 27/23 Q1009 NOSIG

2010/08/08 01:50
LLOV 080150Z 28008KT CAVOK 25/21 Q1010

2010/08/08 02:00
MDPC 080200Z 04015KT 9999 FEW020 28/25 Q1013

2010/08/08 02:00
MDSD 080200Z 06005KT 9999 FEW020 24/22 Q1015 DU/ALL QDS

2010/08/08 02:00
MDST 080200Z 10008KT 5000 DU FEW016CB SCT018 BKN070 27/26 Q1015 CB/W/N W DU/ALL QDS

2010/08/08 02:00
MPTO 080200Z 00000KT 9999 SCT016 BKN090 25/24 Q1011 NOSIG

2010/08/08 01:50
MSAC 080150Z 04003KT 9999 SCT027 FEW036CB SCT180 27/26 Q1011 CB W

2010/08/08 01:50
MSLP 080150Z 00000KT 9999 SCT020 SCT070 BKN300 26/25 Q1011 A2988 DSTN LTGIC TO NE/E

2010/08/08 01:50
MSSS 080150Z 18003KT 9999 SCT027 FEW040CB SCT300 24/22 Q1015 A3000 LTGIC TO NE/E

2010/08/08 01:50
OAFZ 080150Z 22002KT 9999 SCT120 22/11 Q1014 BLU/

2010/08/08 01:50
OAMS 080150Z 20006KT 9999 SCT140 SCT200 32/05 Q1005 BLU/BLU/ TEMPO BLU

2010/08/08 01:50
OAUZ 080150Z AUTO 12007KT //// ////// 30/05 Q1005

2010/08/08 02:00
OKBK 080200Z 24004KT 8000 SKC 30/03 Q0998 NOSIG

2010/08/08 02:00
ORSU 080200Z VRB03KT 9999 FEW045 27/05 Q1010

2010/08/08 01:48
KUIL 080148Z AUTO 25004KT 2 1/2SM BR BKN004 BKN015 OVC020 14/13 A2991

2010/08/08 01:50
PASN 080150Z 14014G21KT 1 3/4SM RA BR BKN003 OVC011 08/08 A2942

2010/08/08 01:52
KCZZ 080152Z AUTO 22011KT 22/10 A2985 RMK AO2 SLP083 T02170100 PWINO TSNO 

2010/08/08 01:52
KP69 080152Z AUTO 35004KT 24/14 A2972 RMK AO2 SLP047 T02390139 PWINO TSNO 

2010/08/08 01:52
CYCY 080152Z AUTO 00000KT 1SM OVC000 04/04 A2995

2010/08/08 01:53
KRNM 080153Z 27009KT 10SM CLR 19/12 A2986 RMK AO2 SLP103 T01940117 

2010/08/08 01:53
KP68 080153Z AUTO 20010KT 28/M17 A2990 RMK AO2 SLP041 T02831167 PWINO TSNO 

2010/08/08 01:53
KMSY 080153Z 18004KT 10SM SCT055 SCT250 29/25 A2989 RMK AO2 SLP126 T02940250 

2010/08/08 01:51
KVCT 080151Z 16008KT 10SM CLR 28/25 A2987 RMK AO2 SLP112 T02830250 PNO $ 

2010/08/08 01:53
KLND 080153Z AUTO 34014G17KT 10SM SCT120 26/01 A2994 RMK AO2 SLP063 T02610011 

2010/08/08 01:53
KOQT 080153Z AUTO 00000KT 10SM CLR 24/19 A2998 RMK AO2 SLP134 T02440194 TSNO 

2010/08/08 01:53
KMWT 080153Z AUTO 00000KT 10SM CLR 27/25 A2985 RMK AO2 SLP098 T02670250 TSNO 

2010/08/08 01:53
KFAR 080153Z 01003KT 10SM CLR 27/22 A2960 RMK AO2 SLP020 T02670222 

2010/08/08 01:53
KCHA 080153Z 33003KT 10SM SCT070 SCT150 29/21 A2993 RMK AO2 SLP127 ACFT MSHP T02890211 

2010/08/08 01:53
KSGR 080153Z 17006KT 10SM CLR 29/24 A2986 RMK AO2 SLP120 T02890239 

2010/08/08 01:53
KCTY 080153Z AUTO 00000KT 25/24 A2993 RMK AO2 SLP133 P0001 T02500244 PWINO TSNO 

2010/08/08 01:52
CWCL 080152Z AUTO 23002KT 9SM -RA FEW002 BKN021 BKN053 OVC076 13/12 A2981

2010/08/08 01:53
KSDM 080153Z 29005KT 10SM CLR 17/12 A2987 RMK AO2 SLP111 T01720122 $ 

2010/08/08 01:53
KOVE 080153Z AUTO 16010KT 10SM CLR 33/11 A2969 RMK AO2 SLP054 T03280106 TSNO $ 

2010/08/08 01:53
KNIP 080153Z 25007KT 10SM SCT030 OVC150 25/24 A2993 RMK AO2 RAB0054E20 SLP130 T2 SET P0000 T02500239 

2010/08/08 01:53
KLAX 080153Z 26010KT 10SM FEW010 17/12 A2985 RMK AO2 SLP108 T01720117 

2010/08/08 01:53
KNUI 080153Z AUTO 08003KT 10SM CLR 21/16 A2997 RMK AO2 SLP149 T02110161 $ 

2010/08/08 01:53
KP92 080153Z AUTO 23004KT 31/25 A2990 RMK AO2 SLP125 T03060250 PWINO TSNO 

2010/08/08 01:50
EDDB 080150Z 27002KT CAVOK 16/14 Q1014 NOSIG

2010/08/08 01:50
EDDC 080150Z 16005KT CAVOK 15/15 Q1015

2010/08/08 01:50
EDDE 080150Z 20009KT CAVOK 13/10 Q1016

2010/08/08 01:50
EDDF 080150Z VRB02KT CAVOK 17/14 Q1015 NOSIG

2010/08/08 01:50
EDDG 080150Z VRB01KT 9999 FEW030 BKN060 16/15 Q1015 NOSIG

2010/08/08 01:50
EDDH 080150Z 35002KT 9999 -RA NSC 17/14 Q1015 NOSIG

2010/08/08 01:50
EDDK 080150Z VRB03KT CAVOK 18/15 Q1015 NOSIG

2010/08/08 01:50
EDDL 080150Z 35002KT 9000 -SHRA FEW013 FEW030CB BKN060 17/16 Q1015 NOSIG

2010/08/08 01:50
EDDM 080150Z 23001KT 9999 MIFG NSC 12/11 Q1019 NOSIG

2010/08/08 01:50
EDDN 080150Z 12006KT CAVOK 11/11 Q1017

2010/08/08 01:50
EDDP 080150Z 25007KT CAVOK 15/13 Q1015 NOSIG

2010/08/08 01:50
EDDR 080150Z 16004KT 9999 FEW040 BKN060 18/11 Q1016

2010/08/08 01:50
EDDS 080150Z 30001KT CAVOK 13/11 Q1018

2010/08/08 01:50
EDDT 080150Z 23004KT CAVOK 18/15 Q1014

2010/08/08 01:50
EDDV 080150Z 22004KT 9999 -RA FEW020 BKN080 17/15 Q1015

2010/08/08 01:50
EDDW 080150Z 04002KT CAVOK 18/16 Q1015

2010/08/08 01:50
EKKA 080150Z 27004KT CAVOK 15/14 Q1015 RMK FEW050 SCT080 BKN100

2010/08/08 01:50
EKSP 080150Z 24001KT 9999 BKN013 BKN090 15/14 Q1015

2010/08/08 01:50
EKVG 080150Z AUTO 24001KT 9999NDV OVC023/// 10/07 Q1017 RMK OVC024/// WIND 850FT 20002KT

2010/08/08 02:00
GVAC 080200Z 02006KT 9999 BKN015 25/20 Q1014 NOSIG

2010/08/08 01:45
LMML 080145Z 31007KT CAVOK 20/17 Q1016 NOSIG

2010/08/08 02:00
LPLA 080200Z 20003KT 9999 FEW018 SCT035 20/19 Q1024

2010/08/08 02:00
LQMO 080200Z 00000KT CAVOK 16/14 Q1014

2010/08/08 02:00
LQSA 080200Z 31004KT 290V350 8000 BKN040 15/14 Q1019

2010/08/08 01:50
LSGG 080150Z VRB01KT 9999 FEW080 SCT120 14/12 Q1019 NOSIG

2010/08/08 01:50
LSZH 080150Z VRB02KT CAVOK 12/11 Q1019 NOSIG

2010/08/08 01:50
LXGB 080150Z 10012KT 9999 FEW012 SCT100 BKN250 24/20 Q1017

2010/08/08 01:50
EDDB 080150Z 27002KT CAVOK 16/14 Q1014 NOSIG

2010/08/08 01:50
EDDC 080150Z 16005KT CAVOK 15/15 Q1015

2010/08/08 01:50
EDDE 080150Z 20009KT CAVOK 13/10 Q1016

2010/08/08 01:50
EDDF 080150Z VRB02KT CAVOK 17/14 Q1015 NOSIG

2010/08/08 01:50
EDDG 080150Z VRB01KT 9999 FEW030 BKN060 16/15 Q1015 NOSIG

2010/08/08 01:50
EDDH 080150Z 35002KT 9999 -RA NSC 17/14 Q1015 NOSIG

2010/08/08 01:50
EDDK 080150Z VRB03KT CAVOK 18/15 Q1015 NOSIG

2010/08/08 01:50
EDDL 080150Z 35002KT 9000 -SHRA FEW013 FEW030CB BKN060 17/16 Q1015 NOSIG

2010/08/08 01:50
EDDM 080150Z 23001KT 9999 MIFG NSC 12/11 Q1019 NOSIG

2010/08/08 01:50
EDDN 080150Z 12006KT CAVOK 11/11 Q1017

2010/08/08 01:50
EDDP 080150Z 25007KT CAVOK 15/13 Q1015 NOSIG

2010/08/08 01:50
EDDR 080150Z 16004KT 9999 FEW040 BKN060 18/11 Q1016

2010/08/08 01:50
EDDS 080150Z 30001KT CAVOK 13/11 Q1018

2010/08/08 01:50
EDDT 080150Z 23004KT CAVOK 18/15 Q1014

2010/08/08 01:50
EDDV 080150Z 22004KT 9999 -RA FEW020 BKN080 17/15 Q1015

2010/08/08 01:50
EDDW 080150Z 04002KT CAVOK 18/16 Q1015

2010/08/08 01:50
EKAH 080150Z AUTO 28004KT 0200NDV R10R/0450N R28L/0400N FG VV001 15/14 Q1014

2010/08/08 01:50
EKBI 080150Z 28002KT 8000 SCT080 BKN130 15/15 Q1015

2010/08/08 01:50
EKCH 080150Z 31010KT 9999 FEW013 BKN150 19/18 Q1013 NOSIG

2010/08/08 01:50
EKEB 080150Z AUTO 00000KT 2800NDV -SHRA BR OVC034/// 16/15 Q1015

2010/08/08 01:50
EKKA 080150Z 27004KT CAVOK 15/14 Q1015 RMK FEW050 SCT080 BKN100

2010/08/08 01:50
EKSP 080150Z 24001KT 9999 BKN013 BKN090 15/14 Q1015

2010/08/08 01:50
EKVD 080150Z AUTO 31002KT //// ///////// 15/14 Q1015

2010/08/08 01:50
EKVG 080150Z AUTO 24001KT 9999NDV OVC023/// 10/07 Q1017 RMK OVC024/// WIND 850FT 20002KT

2010/08/08 01:50
EKYT 080150Z 01003KT 9999 FEW035 BKN160 16/15 Q1015

2010/08/08 01:50
LSGG 080150Z VRB01KT 9999 FEW080 SCT120 14/12 Q1019 NOSIG

2010/08/08 01:50
LSZH 080150Z VRB02KT CAVOK 12/11 Q1019 NOSIG

2010/08/08 01:53
KTRI 080153Z 00000KT 9SM CLR 22/16 A3000 RMK AO2 SLP142 T02220156 

2010/08/08 01:53
KMCN 080153Z AUTO 00000KT 9SM CLR 27/24 A2993 RMK AO2 SLP131 T02720244 TSNO 

2010/08/08 01:53
KTUP 080153Z 00000KT 8SM CLR 28/25 A2989 RMK AO2 SLP117 T02830250 

2010/08/08 01:53
KBTR 080153Z 23008KT 10SM FEW250 30/24 A2987 RMK AO2 SLP114 T03000244 

2010/08/08 01:55
KCDN 080155Z AUTO 00000KT 9SM CLR 28/26 A2995 RMK A02 P000

2010/08/08 01:48
KCGE 080148Z AUTO 00000KT 10SM CLR 22/20 A2999 RMK AO1

2010/08/08 01:53
KCGI 080153Z AUTO 00000KT 10SM CLR 24/19 A2990 RMK AO2 SLP121 T02440194 TSNO

2010/08/08 01:50
KCGS 080150Z AUTO 00000KT 10SM CLR 23/17 A2998 RMK AO1

2010/08/08 01:53
KCHO 080153Z 00000KT 10SM CLR 21/16 A3000 RMK AO2 SLP150 T02060156

2010/08/08 01:55
KCKI 080155Z AUTO 00000KT 25/23 A2993 RMK AO2 LTG DSNT N PWINO

2010/08/08 01:53
KCLL 080153Z AUTO 16008KT 10SM CLR 32/22 A2985 RMK AO2 SLP103 T03170222

2010/08/08 01:53
KCLM 080153Z AUTO 00000KT 10SM FEW003 SCT026 OVC036 16/14 A2990 RMK AO2 SLP124 T01610144

2010/08/08 01:53
KCMI 080153Z 17004KT 8SM CLR 21/18 A2994 RMK AO2 SLP134 T02110183

2010/08/08 01:53
KCMX 080153Z AUTO 08005KT 10SM FEW055 BKN100 OVC120 18/12 A2976 RMK AO2 SLP076 T01830122

2010/08/08 01:53
KCNM 080153Z AUTO 20007KT 10SM CLR 29/17 A2986 RMK AO2 SLP053 T02940167 $

2010/08/08 01:53
KCNO 080153Z 25014KT 10SM CLR 22/13 A2983 RMK AO2 SLP098 T02170128

2010/08/08 01:53
KCOT 080153Z AUTO 14006KT 10SM CLR 32/19 A2983 RMK AO2 SLP090 T03220189

2010/08/08 01:53
KCPS 080153Z 15004KT 5SM HZ CLR 24/18 A2990 RMK AO2 SLP122 T02390178

2010/08/08 01:51
KCRP 080151Z 15006KT 10SM FEW025 28/24 A2986 RMK AO2 SLP109 T02830244

2010/08/08 01:53
KCRQ 080153Z AUTO 25006KT 10SM FEW015 18/13 A2986 RMK AO2 SLP109 T01780128 TSNO

2010/08/08 01:53
KCSV 080153Z AUTO 00000KT 9SM CLR 23/18 A3002 RMK AO2 SLP144 T02330183

2010/08/08 01:53
KCXO 080153Z AUTO 14003KT 10SM CLR 28/24 A2986 RMK AO2 SLP108 T02830239 TSNO

2010/08/08 01:51
KDAG 080151Z AUTO 23018KT 10SM CLR 34/M10 A2973 RMK AO2 PK WND 23026/0141 SLP041 T03391100 TSNO

2010/08/08 01:53
KDAN 080153Z AUTO 00000KT 8SM CLR 23/19 A3000 RMK AO2 SLP146 T02280189

2010/08/08 01:53
KDBQ 080153Z AUTO 16007KT 9SM CLR 23/20 A2986 RMK AO2 SLP106 T02280200

2010/08/08 01:53
KDCU 080153Z AUTO 08004KT 10SM CLR 26/18 A2992 RMK AO2 SLP124 T02610183 $

2010/08/08 01:53
KMFR 080153Z 33011KT 10SM CLR 29/09 A2982 RMK AO2 SLP088 T02890089

2010/08/08 01:53
KMGW 080153Z 00000KT 10SM CLR 20/16 A3004 RMK AO2 SLP166 T02000156

2010/08/08 01:53
KMHE 080153Z AUTO 21005KT 10SM CLR 29/24 A2963 RMK AO2 SLP022 T02940244 TSNO

2010/08/08 01:53
KMIC 080153Z 19012G17KT 10SM BKN055 29/22 A2966 RMK AO2 SLP037 T02940217

2010/08/08 01:53
KMIW 080153Z AUTO 17006KT 10SM CLR 26/22 A2980 RMK AO2 SLP085 T02560217

2010/08/08 01:53
KMKL 080153Z AUTO 00000KT 10SM CLR 25/21 A2991 RMK AO2 SLP122 T02500206

2010/08/08 01:53
KMMV 080153Z AUTO 28007KT 10SM BKN046 OVC055 23/14 A2989 RMK AO2 SLP120 T02330144

2010/08/08 01:53
KMOD 080153Z 32006KT 10SM CLR 32/08 A2970 RMK AO2 SLP058 T03170078

2010/08/08 01:53
KMRB 080153Z AUTO 00000KT 10SM CLR 22/14 A2998 RMK AO2 SLP147 T02220144

2010/08/08 01:53
KMSL 080153Z AUTO 06004KT 10SM CLR 29/18 A2992 RMK AO2 SLP122 T02940178

2010/08/08 01:53
KMSP 080153Z 19009KT 10SM FEW080 SCT200 29/21 A2968 RMK AO2 SLP046 T02890211

2010/08/08 01:53
KMSY 080153Z 18004KT 10SM SCT055 SCT250 29/25 A2989 RMK AO2 SLP126 T02940250

2010/08/08 01:53
KMTO 080153Z AUTO 16003KT 8SM CLR 22/20 A2993 RMK AO2 SLP131 T02170200

2010/08/08 01:53
KMYF 080153Z 24006KT 10SM FEW015 18/13 A2987 RMK AO2 SLP111 T01830128

2010/08/08 01:53
KNEW 080153Z AUTO 22007KT 10SM CLR 31/24 A2990 RMK AO2 SLP117 T03110239 TSNO

2010/08/08 01:53
KOAK 080153Z 29012KT 7SM FEW005 17/11 A2983 RMK AO2 SLP101 T01670111

2010/08/08 01:53
KODX 080153Z AUTO 18004KT 10SM CLR 28/23 A2975 RMK AO2 SLP059 T02780233

2010/08/08 01:53
KOJC 080153Z 15006KT 10SM CLR 27/23 A2984 RMK AO2 SLP093 T02720228

2010/08/08 01:53
KOMK 080153Z AUTO 32008KT 10SM FEW100 24/09 A2976 RMK AO2 SLP071 T02440089

2010/08/08 01:53
KONT 080153Z 25009KT 10SM CLR 23/12 A2982 RMK AO2 SLP089 T02330122

2010/08/08 01:51
KORF 080151Z 10003KT 9SM FEW010 24/23 A2997 RMK AO2 SLP149 T02440228 $

2010/08/08 01:53
KOSH 080153Z 21006KT 10SM CLR 24/19 A2982 RMK AO2 SLP086 T02390189

2010/08/08 01:53
KOTM 080153Z AUTO 18005KT 5SM BR CLR 24/22 A2984 RMK AO2 SLP098 T02440222

2010/08/08 01:50
K2G4 080150Z AUTO 32003KT 10SM CLR 18/11 A3011 RMK AO1

2010/08/08 01:50
K2W6 080150Z AUTO 00000KT 10SM CLR 22/15 A2999 RMK AO1

2010/08/08 01:53
KABR 080153Z AUTO 15005KT 10SM CLR 27/22 A2960 RMK AO2 SLP013 T02670222

2010/08/08 01:53
KAEX 080153Z 00000KT 10SM FEW050 29/23 A2986 RMK AO2 SLP112 T02940233

2010/08/08 01:53
KAGS 080153Z 00000KT 7SM CLR 26/25 A2993 RMK AO2 SLP132 T02610250

2010/08/08 01:53
KALI 080153Z AUTO 14010KT 10SM CLR 29/25 A2985 RMK AO2 SLP104 T02890250

2010/08/08 01:53
KALW 080153Z 24007KT 10SM CLR 30/08 A2975 RMK AO2 SLP066 T03000078

2010/08/08 01:53
KAMA 080153Z 16011KT 10SM CLR 29/17 A2993 RMK AO2 SLP077 CB DSPTD T02890172

2010/08/08 01:53
KAMW 080153Z AUTO 17006KT 9SM CLR 26/22 A2980 RMK AO2 SLP083 T02560222

2010/08/08 01:53
KANB 080153Z AUTO 00000KT 10SM CLR 28/22 A2993 RMK AO2 SLP123 T02780217

2010/08/08 01:53
KAOO 080153Z AUTO 00000KT 10SM CLR 17/15 A3004 RMK AO2 SLP168 T01720150

2010/08/08 01:53
KARA 080153Z AUTO 22005KT 10SM CLR 29/25 A2989 RMK AO2 SLP122 T02940250 $

2010/08/08 01:53
KASD 080153Z AUTO 00000KT 10SM CLR 30/26 A2989 RMK AO2 SLP122 T03000256

2010/08/08 01:53
KASX 080153Z AUTO 17006KT 4SM -TSRA BR BKN039 BKN070 19/19 A2971 RMK AO2 LTG DSNT ALQDS TSE29B32 PRESFR SLP060 P0008 T01890189

2010/08/08 01:53
KATY 080153Z AUTO 20005KT 10SM CLR 27/24 A2966 RMK AO2 SLP029 T02720239

2010/08/08 01:53
KAUS 080153Z 16007KT 10SM FEW120 SCT250 32/21 A2985 RMK AO2 SLP093 T03170211

2010/08/08 01:53
KAWM 080153Z AUTO 09004KT 10SM CLR 29/22 A2987 RMK AO2 SLP110 T02940217

2010/08/08 01:53
KAXN 080153Z AUTO VRB03G25KT 2 1/2SM +TSRA BR SCT010 SCT022 BKN030 21/19 A2969 RMK AO2 PK WND 32034/0136 LTG DSNT NW-NE TSB03RAB44 SLP050 P0005 T02060189

2010/08/08 01:53
KAZO 080153Z 21005KT 10SM CLR 23/18 A2994 RMK AO2 SLP135 T02280183

2010/08/08 01:53
KBDE 080153Z AUTO 08004KT 10SM BKN049 21/16 A2970 RMK AO2 SLP057 T02060161

2010/08/08 01:53
KBEH 080153Z AUTO 15004KT 10SM CLR 23/19 A2991 RMK AO2 SLP126 T02330189

2010/08/08 01:53
KBFD 080153Z AUTO 00000KT 10SM CLR 12/11 A3007 RMK AO2 SLP175 T01220106

2010/08/08 01:53
KBFF 080153Z AUTO 17005KT 10SM CLR 29/14 A2984 RMK AO2 SLP051 T02890139

2010/08/08 01:53
KBFI 080153Z 15007KT 10SM -RA BKN010 OVC060 18/16 A2989 RMK AO2 SLP121 P0002 T01830161

2010/08/08 01:53
KBFM 080153Z AUTO 10007KT 10SM SCT030 28/24 A2992 RMK AO2 SLP132 T02780239 TSNO $

2010/08/08 01:53
KBHM 080153Z 00000KT 10SM CLR 30/20 A2993 RMK AO2 SLP126 T03000200

2010/08/08 01:53
KBIV 080153Z AUTO 18005KT 10SM CLR 23/18 A2991 RMK AO2 SLP124 T02330183

2010/08/08 01:53
KBKE 080153Z AUTO 33014G18KT 10SM CLR 24/08 A2984 RMK AO2 SLP086 T02390083

2010/08/08 01:53
KBLI 080153Z 17004KT 7SM -RA BKN022 BKN028 OVC035 17/16 A2989 RMK AO2 RAB09E18B51 SLP126 P0000 T01720161

2010/08/08 01:53
KBMQ 080153Z AUTO 16004KT 10SM CLR 32/17 A2989 RMK AO2 SLP099 T03170172 $

2010/08/08 01:53
KBNA 080153Z 07006KT 9SM CLR 27/18 A2994 RMK AO2 SLP130 T02670178 $

2010/08/08 01:55
KBOW 080155Z AUTO 00000KT 10SM CLR 25/24 A2995 RMK AO2

2010/08/08 01:53
KBPK 080153Z AUTO 12005KT 8SM CLR 28/21 A2989 RMK AO2 SLP109 T02780206

2010/08/08 01:53
KBPT 080153Z AUTO 00000KT 10SM CLR 28/25 A2988 RMK AO2 SLP118 T02830250 TSNO

2010/08/08 01:53
KBRD 080153Z AUTO VRB03KT 10SM VCTS -RA SCT033 SCT044 BKN055 24/19 A2968 RMK AO2 LTG DSNT ALQDS TSB32RAB45 SLP045 P0000 T02440194

2010/08/08 01:53
KBRL 080153Z AUTO 18005KT 10SM CLR 25/22 A2987 RMK AO2 SLP109 T02500217

2010/08/08 01:53
KBRO 080153Z AUTO 15008KT 10SM CLR 29/24 A2987 RMK AO2 SLP114 T02890244 TSNO $

2010/08/08 01:53
KBTL 080153Z 20005KT 10SM SCT100 22/18 A2995 RMK AO2 SLP136 T02220178

2010/08/08 01:51
KBVE 080151Z AUTO 25005KT 10SM SCT031 31/26 A2991 RMK AO2 SLP129 T03060256 TSNO

2010/08/08 01:53
KBVO 080153Z AUTO 00000KT 10SM CLR 27/23 A2984 RMK AO2 SLP092 T02720228

2010/08/08 01:53
KBWG 080153Z AUTO 00000KT 10SM CLR 24/18 A2995 RMK AO2 SLP135 T02440183

2010/08/08 01:51
KCBE 080151Z AUTO 00000KT 10SM CLR 23/15 A3004 RMK AO1

2010/08/08 01:53
KCCR 080153Z AUTO 19012KT 10SM CLR 22/11 A2976 RMK AO2 SLP065 T02220111 TSNO

2010/08/08 01:53
KGLH 080153Z AUTO 04003KT 10SM CLR 27/25 A2987 RMK AO2 LTG DSNT SW SLP119 T02720250

2010/08/08 01:53
KGMU 080153Z AUTO 10005KT 10SM OVC090 28/18 A3000 RMK AO2 SLP146 T02830183

2010/08/08 01:53
KGPT 080153Z 00000KT 10SM CLR 32/24 A2989 RMK AO2 SLP120 T03220244

2010/08/08 01:53
KGRB 080153Z 21007KT 10SM CLR 24/20 A2979 RMK AO2 SLP083 T02390200 $

2010/08/08 01:53
KGRI 080153Z AUTO 16006KT 10SM CLR 28/22 A2977 RMK AO2 SLP062 T02780222

2010/08/08 01:53
KGRR 080153Z 19005KT 10SM FEW050 SCT120 23/18 A2991 RMK AO2 SLP125 T02280178 $

2010/08/08 01:53
KGSH 080153Z AUTO 17004KT 9SM CLR 22/18 A2996 RMK AO2 SLP140 T02170178

2010/08/08 01:53
KGSP 080153Z 11004KT 10SM FEW075 SCT100 26/21 A2998 RMK AO2 SLP137 T02610206

2010/08/08 01:53
KGUY 080153Z AUTO 18006KT 10SM CLR 32/16 A2984 RMK AO2 SLP046 T03170156

2010/08/08 01:53
KGVL 080153Z AUTO 14005KT 8SM CLR 26/22 A3001 RMK AO2 SLP143 T02610222 $

2010/08/08 01:53
KGWO 080153Z AUTO 00000KT 10SM CLR 26/25 A2989 RMK AO2 SLP119 T02610250

2010/08/08 01:53
KHBG 080153Z AUTO 00000KT 10SM FEW070 29/25 A2990 RMK AO2 LTG DSNT ALQDS SLP120 T02940250

2010/08/08 01:53
KHEI 080153Z AUTO 24004KT 10SM CLR 24/14 A2973 RMK AO2 SLP050 T02440144

2010/08/08 01:53
KHGR 080153Z AUTO 00000KT 10SM BKN065 BKN090 27/13 A2998 RMK AO2 SLP156 T02670128

2010/08/08 01:53
KHHR 080153Z 25009KT 10SM CLR 18/13 A2985 RMK AO2 SLP107 T01830128 $

2010/08/08 01:53
KHIO 080153Z 03003KT 10SM OVC038 21/16 A2989 RMK AO2 SLP120 T02110161

2010/08/08 01:53
KHJO 080153Z AUTO 06009G24KT 030V090 10SM CLR 32/13 A2969 RMK AO2 SLP055 T03220133 $

2010/08/08 01:53
KHKA 080153Z AUTO 06004KT 6SM HZ CLR 26/19 A2989 RMK AO2 SLP118 T02610189

2010/08/08 01:53
KHKS 080153Z AUTO 16004KT 10SM CLR 27/24 A2991 RMK AO2 SLP118 T02720244

2010/08/08 01:53
KHKY 080153Z 00000KT 10SM CLR 24/19 A3001 RMK AO2 SLP138 T02440189

2010/08/08 01:53
KHLC 080153Z AUTO 00000KT 10SM CLR 28/18 A2978 RMK AO2 SLP057 T02830183

2010/08/08 01:53
KHLG 080153Z AUTO A3003 RMK AO2 SLPNO PWINO FZRANO $

2010/08/08 01:53
KHOT 080153Z AUTO 11008KT 9SM FEW070 30/24 A2987 RMK AO2 SLP106 T03000244

2010/08/08 01:53
KHOU 080153Z 17004KT 10SM FEW060 SCT130 29/24 A2987 RMK AO2 SLP118 T02890244

2010/08/08 01:53
KHQM 080153Z AUTO 22011KT 1/2SM FG OVC001 15/14 A2993 RMK AO2 SLP137 T01500144

2010/08/08 01:53
KHRI 080153Z AUTO 26010G19KT 10SM CLR 28/11 A2972 RMK AO2 SLP059 T02830106

2010/08/08 01:53
KHRO 080153Z AUTO 13006KT 9SM CLR 27/21 A2991 RMK AO2 SLP113 T02720211

2010/08/08 01:53
KHSI 080153Z AUTO 16006KT 10SM CLR 29/22 A2978 RMK AO2 SLP063 T02940217

2010/08/08 01:53
KHSV 080153Z 00000KT 10SM CLR 30/16 A2992 RMK AO2 SLP122 T03000161

2010/08/08 01:53
KHYR 080153Z AUTO 15004KT 10SM VCTS BKN027 OVC036 22/21 A2970 RMK AO2 LTG DSNT NW-NE TSB43 SLP054 T02220206

2010/08/08 01:53
KIAH 080153Z 17005KT 10SM FEW040 SCT110 SCT250 31/23 A2987 RMK AO2 SLP114 T03060233

2010/08/08 01:53
KICR 080153Z AUTO 00000KT 10SM CLR 32/17 A2971 RMK AO2 SLP037 T03220167 TSNO

2010/08/08 01:53
KICT 080153Z 15009KT 10SM SCT100 BKN150 BKN200 31/22 A2982 RMK AO2 SLP082 T03110217

2010/08/08 01:53
KIPL 080153Z AUTO 13011KT 10SM CLR 38/08 A2960 RMK AO2 SLP026 T03780083

2010/08/08 01:53
KIXD 080153Z 14006KT 10SM CLR 28/22 A2985 RMK AO2 SLP096 T02780222

2010/08/08 01:53
KJBR 080153Z AUTO 06003KT 10SM CLR 27/20 A2988 RMK AO2 SLP115 T02670200

2010/08/08 01:51
KJCT 080151Z AUTO 15007KT 10SM CLR 33/17 A2988 RMK AO2 SLP076 T03280167 TSNO

2010/08/08 01:53
KJEF 080153Z 12004KT 10SM SCT090 27/23 A2987 RMK AO2 SLP098 T02720228

2010/08/08 01:53
KJLN 080153Z 14004KT 10SM CLR 28/23 A2986 RMK AO2 SLP100 T02830228

2010/08/08 01:55
KJZI 080155Z AUTO 00000KT 8SM CLR 26/26 A2991 RMK A02 P000

2010/08/08 01:53
KLBF 080153Z AUTO 12003KT 10SM CLR 26/23 A2979 RMK AO2 SLP059 T02610228

2010/08/08 01:53
KLBX 080153Z AUTO 00000KT 10SM CLR 28/26 A2988 RMK AO2 SLP118 T02780256 $

2010/08/08 01:53
KLCH 080153Z 23004KT 10SM CLR 29/24 A2988 RMK AO2 SLP126 T02890244 $

2010/08/08 01:53
KLFK 080153Z AUTO 18004KT 10SM CLR 31/22 A2986 RMK AO2 SLP106 T03110222

2010/08/08 01:53
KLFT 080153Z 22005KT 10SM CLR 29/24 A2989 RMK AO2 SLP120 T02890244

2010/08/08 01:53
KLGB 080153Z 29007KT 10SM CLR 21/12 A2984 RMK AO2 SLP104 T02060122

2010/08/08 01:53
KLIT 080153Z 14005KT 10SM FEW150 BKN250 29/24 A2986 RMK AO2 SLP112 T02890244

2010/08/08 01:55
KLKR 080155Z AUTO 00000KT 2 1/2SM BR CLR 23/23 A2997 RMK AO2

2010/08/08 01:53
KLLQ 080153Z AUTO 12005KT 10SM TS SCT027 BKN039 28/26 A2989 RMK AO2 LTG DSNT SE AND W TSB16 SLP119 T02830261

2010/08/08 01:53
KLMT 080153Z 33014KT 10SM FEW050 26/06 A2990 RMK AO2 SLP088 T02560061

2010/08/08 01:53
KLOL 080153Z AUTO 34007KT 10SM CLR 33/M01 A2977 RMK AO2 SLP038 T03281011

2010/08/08 01:53
KLSE 080153Z AUTO 17007KT 10SM CLR 27/22 A2976 RMK AO2 SLP068 T02670222

2010/08/08 01:53
KLVJ 080153Z AUTO 17003KT 10SM CLR 29/24 A2989 RMK AO2 SLP121 T02940239

2010/08/08 01:53
KLVK 080153Z 30013KT 10SM CLR 21/12 A2977 RMK AO2 SLP077 T02110117

2010/08/08 01:53
KLVS 080153Z AUTO 22009KT 10SM FEW080 SCT120 22/12 A3014 RMK AO2 LTG DSNT N AND W TSB00E15RAB26E43 SLP093 P0000 T02220117

2010/08/08 01:53
KLWD 080153Z AUTO 15005KT 10SM CLR 26/22 A2984 RMK AO2 SLP096 T02560217

2010/08/08 01:53
KLXT 080153Z AUTO 16006KT 10SM CLR 28/21 A2985 RMK AO2 SLP097 T02830211

2010/08/08 01:53
KMAE 080153Z AUTO 10SM CLR 32/12 A2971 RMK AO2 SLP057 T03170117 $

2010/08/08 01:55
KMAO 080155Z AUTO 00000KT 10SM SCT110 26/23 A2993 RMK AO2 LTG DSNT W

2010/08/08 01:53
KMCB 080153Z AUTO 36006KT 9SM CLR 28/23 A2991 RMK AO2 SLP121 T02780233

2010/08/08 01:53
KMCE 080153Z AUTO 31005KT 10SM CLR 32/09 A2970 RMK AO2 SLP056 T03170089 $

2010/08/08 01:53
KMCI 080153Z 17006KT 10SM SCT250 27/23 A2984 RMK AO2 SLP092 T02720228

2010/08/08 01:53
KMCW 080153Z AUTO 19006KT 8SM CLR 25/22 A2980 RMK AO2 SLP076 T02500217

2010/08/08 01:53
KMEM 080153Z 08005KT 10SM SCT050 SCT150 32/21 A2989 RMK AO2 SLP116 T03170206 $

2010/08/08 01:53
KSJC 080153Z 29012KT 10SM FEW015 20/13 A2980 RMK AO2 SLP090 T02000128

2010/08/08 01:53
KSLN 080153Z 17009KT 10SM CLR 32/21 A2978 RMK AO2 SLP068 T03220206

2010/08/08 01:53
KSMF 080153Z 17010KT 10SM CLR 28/14 A2969 RMK AO2 SLP054 T02780139

2010/08/08 01:53
KSNA 080153Z 20006KT 10SM FEW016 20/13 A2985 RMK AO2 SLP107 T02000128

2010/08/08 01:53
KSNS 080153Z AUTO 29009KT 10SM OVC010 15/12 A2986 RMK AO2 SLP120 T01500117

2010/08/08 01:55
KSPA 080155Z AUTO 00000KT 10SM CLR 25/25 A2998 RMK AO2

2010/08/08 01:53
KSPB 080153Z AUTO 35008KT 10SM BKN055 OVC070 20/16 A2989 RMK AO2 RAE04 SLP123 P0000 T02000161

2010/08/08 01:53
KSPW 080153Z AUTO 18005KT 10SM CLR 25/22 A2974 RMK AO2 SLP062 T02500222

2010/08/08 01:53
KSSF 080153Z 13008KT 10SM CLR 32/21 A2984 RMK AO2 SLP092 T03220211

2010/08/08 01:53
KSTC 080153Z 20009KT 10SM CLR 28/23 A2965 RMK AO2 LTG DSNT N SLP043 T02780228

2010/08/08 01:53
KSTJ 080153Z 15007KT 9SM CLR 28/22 A2981 RMK AO2 SLP085 T02830222

2010/08/08 01:53
KSTP 080153Z 18008KT 10SM CLR 28/23 A2968 RMK AO2 SLP045 T02830228

2010/08/08 01:53
KSTS 080153Z 17007KT 10SM CLR 18/11 A2977 RMK AO2 SLP074 T01780111

2010/08/08 01:53
KSWO 080153Z AUTO 13011KT 10SM CLR 32/23 A2981 RMK AO2 SLP078 T03220228

2010/08/08 01:53
KTCC 080153Z AUTO 19008KT 10SM CLR 29/13 A2990 RMK AO2 SLP053 T02940128

2010/08/08 01:53
KTCL 080153Z AUTO 00000KT 7SM SCT095 28/24 A2990 RMK AO2 SLP121 T02830244

2010/08/08 01:53
KTIW 080153Z 21004KT 4SM -RA BR BKN005 OVC010 17/16 A2991 RMK AO2 RAB41 CIG 003V007 SLP126 P0000 T01670161

2010/08/08 01:53
KTOP 080153Z AUTO 15007KT 10SM CLR 30/23 A2981 RMK AO2 SLP085 T03000228

2010/08/08 01:53
KTTD 080153Z 32004KT 10SM FEW055 SCT065 BKN090 23/15 A2987 RMK AO2 RAB07E47 SLP113 P0000 T02280150

2010/08/08 01:53
KTUL 080153Z 12005KT 10SM CLR 28/23 A2982 RMK AO2 SLP089 T02830233

2010/08/08 01:53
KTVC 080153Z 18003KT 10SM FEW080 SCT250 22/17 A2981 RMK AO2 SLP094 LAST AUGMENTED OBS. OF DAY UNTIL 1000Z T02220172

2010/08/08 01:53
KTVL 080153Z AUTO 16016G26KT 10SM -TSRA OVC080 19/04 A3007 RMK AO2 PK WND 19031/0122 LTG DSNT N AND SW TSE0059B05RAB46 SLP140 P0000 T01890044

2010/08/08 01:53
KTCS 080153Z AUTO 20010KT 10SM CLR 31/09 A2997 RMK AO2 SLP053 T03110089 TSNO 

2010/08/08 01:53
KTVR 080153Z AUTO 00000KT 6SM BR CLR 27/26 A2987 RMK AO2 SLP122 T02720256

2010/08/08 01:53
KUNO 080153Z AUTO 15005KT 10SM CLR 27/18 A2993 RMK AO2 SLP118 T02720183

2010/08/08 01:53
KUTS 080153Z AUTO 18004KT 10SM CLR 30/23 A2987 RMK AO2 SLP108 T03000233

2010/08/08 01:53
KVCB 080153Z AUTO 22008KT 10SM CLR 27/12 A2970 RMK AO2 SLP056 T02720117

2010/08/08 01:53
KVGT 080153Z 36010G14KT 10SM BKN110 32/10 A2973 RMK AO2 SLP030 T03220100

2010/08/08 01:53
KVIH 080153Z AUTO 11006KT 10SM CLR 24/21 A2990 RMK AO2 SLP112 T02440211

2010/08/08 01:53
KVPC 080153Z AUTO 15005KT 10SM SCT070 28/22 A2995 RMK AO2 SLP127 T02780222

2010/08/08 01:53
KVPZ 080153Z AUTO 17004KT 10SM CLR 23/19 A2994 RMK AO2 SLP132 T02280189

2010/08/08 01:53
KVUO 080153Z AUTO 33009G16KT 10SM OVC070 21/16 A2989 RMK AO2 RAE24 SLP122 P0000 T02060156

2010/08/08 01:51
KW29 080151Z AUTO 00000KT 10SM CLR 21/17 A2997 RMK AO1

2010/08/08 01:53
KPKD 080153Z AUTO 10005KT 10SM BKN037 OVC044 25/20 A2968 RMK AO2 LTG DSNT SE-SW SLP043 T02500200

2010/08/08 01:53
KPMD 080153Z AUTO 24013KT 10SM CLR 27/01 A2984 RMK AO2 SLP078 T02720006 TSNO

2010/08/08 01:53
KPNC 080153Z AUTO 13010KT 10SM CLR 31/23 A2981 RMK AO2 SLP079 T03060233

2010/08/08 01:53
KPOF 080153Z AUTO 00000KT 8SM CLR 25/21 A2989 RMK AO2 SLP118 T02500211

2010/08/08 01:53
KPQL 080153Z AUTO 00000KT 10SM FEW031 SCT075 27/24 A2990 RMK AO2 SLP126 T02720244

2010/08/08 01:53
KPRB 080153Z AUTO 21015KT 10SM CLR 20/10 A2980 RMK AO2 SLP087 T02000100 TSNO $

2010/08/08 01:53
KPRC 080153Z 13005KT 10SM FEW010 SCT120 20/14 A3007 RMK AO2 SLP112 T02000139

2010/08/08 01:53
KPSC 080153Z 35009KT 10SM CLR 28/12 A2971 RMK AO2 SLP059 T02830117

2010/08/08 01:53
KPSP 080153Z 31017G25KT 10SM CLR 36/07 A2965 RMK AO2 SLP037 T03560072

2010/08/08 01:53
KPSX 080153Z AUTO 16006KT 10SM CLR 30/24 A2987 RMK AO2 SLP113 T03000244

2010/08/08 01:53
KPUW 080153Z AUTO 26010KT 10SM CLR 26/07 A2981 RMK AO2 SLP080 T02610067

2010/08/08 01:53
KRAC 080153Z AUTO 22006KT 10SM CLR 25/19 A2988 RMK AO2 SLP115 T02500189

2010/08/08 01:53
KRAL 080153Z 26008KT 10SM CLR 23/13 A2982 RMK AO2 SLP084 T02330128

2010/08/08 01:53
KRBG 080153Z AUTO 33009KT 10SM CLR 27/14 A2986 RMK AO2 SLP109 T02670139

2010/08/08 01:53
KRKP 080153Z AUTO 15008KT 10SM CLR 29/25 A2985 RMK AO2 SLP111 T02940250

2010/08/08 01:53
KRMG 080153Z AUTO 00000KT 10SM CLR 26/21 A2992 RMK AO2 SLP123 T02610206

2010/08/08 01:53
KRNT 080153Z 14003KT 6SM -RA BR BKN020 BKN044 OVC055 18/17 A2989 RMK AO2 SLP128 P0005 T01780167

2010/08/08 01:53
KRSL 080153Z AUTO 16012KT 10SM CLR 30/21 A2978 RMK AO2 SLP063 T03000211 $

2010/08/08 01:53
KRUE 080153Z AUTO 00000KT 10SM CLR 28/24 A2985 RMK AO2 SLP101 T02830239

2010/08/08 01:53
KRVS 080153Z 13003KT 10SM CLR 31/23 A2982 RMK AO2 SLP100 T03110228

2010/08/08 01:53
KRWF 080153Z AUTO 19010KT 10SM CLR 27/22 A2965 RMK AO2 SLP036 T02720222

2010/08/08 01:53
KRWI 080153Z AUTO 06003KT 10SM CLR 24/21 A2996 RMK AO2 SLP144 T02440211

2010/08/08 01:53
KSAC 080153Z 20010KT 10SM CLR 26/13 A2971 RMK AO2 SLP061 T02560133

2010/08/08 01:53
KSAF 080153Z 00000KT 10SM VCTS FEW110 26/08 A3009 RMK AO2 LTG DSNT NE AND E TSE02B45 SLP070 T02610078

2010/08/08 01:51
KSAN 080151Z 29005KT 10SM SCT021 18/12 A2988 RMK AO2 SLP118 T01830122 $

2010/08/08 01:53
KSAT 080153Z 14012KT 10SM FEW055 SCT250 32/21 A2986 RMK AO2 SLP093 T03220206

2010/08/08 01:53
KSBM 080153Z AUTO 22006KT 10SM SCT095 BKN120 23/18 A2984 RMK AO2 SLP100 T02280183

2010/08/08 01:53
KSDL 080153Z 04010KT 10SM CLR 34/15 A2979 RMK AO2 SLP058 T03440150

2010/08/08 01:53
KSEA 080153Z 18007KT 10SM -RA FEW005 BKN022 OVC065 17/16 A2991 RMK AO2 SLP132 P0004 T01720161

2010/08/08 01:53
KSFF 080153Z 25012KT 10SM CLR 28/07 A2974 RMK AO2 SLP055 T02780072

2010/08/08 01:53
KSHN 080153Z AUTO 23008KT 1 3/4SM BR BKN014 OVC022 16/16 A2989 RMK AO2 SLP121 T01610156

2010/08/08 01:53
KSIY 080153Z AUTO 01012KT 10SM 28/09 A2984 RMK AO2 SLP092 T02830089 $

2010/08/08 01:53
KWVI 080153Z AUTO 19008KT 10SM OVC011 14/11 A2987 RMK AO2 CIG 009V013 SLP113 T01390111 $

2010/08/08 01:53
KOVS 080153Z AUTO 18003KT 10SM OVC032 26/21 A2982 RMK AO2 SLP096 T02560211

2010/08/08 01:53
KPAE 080153Z 17007KT 10SM -RA BKN008 BKN013 OVC031 17/16 A2990 RMK AO2 SLP123 P0003 T01720156

2010/08/08 01:53
KPAH 080153Z 04006KT 8SM CLR 27/17 A2990 RMK AO2 SLP120 T02670167

2010/08/08 01:53
KPBF 080153Z AUTO 13004KT 10SM CLR 27/24 A2988 RMK AO2 LTG DSNT S SLP115 T02670244

2010/08/08 01:53
KPDK 080153Z 00000KT 10SM CLR 28/22 A2997 RMK AO2 PK WND 15027/0144 SLP130 T02780222 $

2010/08/08 01:53
KPDT 080153Z 30014G20KT 10SM CLR 29/08 A2977 RMK AO2 SLP064 T02890078

2010/08/08 01:53
KPDX 080153Z 34008KT 10SM FEW040 SCT060 OVC080 21/16 A2989 RMK AO2 RAB06E21 SLP122 P0000 T02110161

2010/08/08 01:53
KPGA 080153Z AUTO 00000KT 10SM CLR 21/13 A3005 RMK AO2 SLP121 T02060133

2010/08/08 01:53
KPIL 080153Z AUTO 15012KT 10SM CLR 31/24 A2987 RMK AO2 SLP113 T03060244

2010/08/08 01:53
KPIR 080153Z AUTO 34006KT 10SM CLR 28/19 A2966 RMK AO2 SLP026 T02780189

2010/08/08 01:53
KDEW 080153Z AUTO 25004KT 10SM CLR 25/09 A2974 RMK AO2 SLP059 T02500094

2010/08/08 01:53
KDHT 080153Z AUTO 18010KT 10SM CLR 28/17 A2992 RMK AO2 SLP068 T02830167

2010/08/08 01:53
KDLS 080153Z AUTO 31013KT 10SM CLR 24/11 A2981 RMK AO2 SLP093 T02390111

2010/08/08 01:53
KDMN 080153Z AUTO 28008KT 10SM CLR 29/12 A2996 RMK AO2 SLP066 T02940122

2010/08/08 01:53
KDMO 080153Z AUTO 14004KT 10SM CLR 27/21 A2988 RMK AO2 SLP107 T02720211

2010/08/08 01:51
KFDK 080151Z AUTO 00000KT 7SM CLR 23/14 A2999 RMK AO2

2010/08/08 01:52
KDMW 080152Z AUTO 00000KT 10SM CLR 24/17 A3001 RMK AO2

2010/08/08 01:53
KDNL 080153Z AUTO 00000KT 10SM CLR 28/22 A2995 RMK AO2 SLP136 T02830222

2010/08/08 01:53
KDRT 080153Z AUTO 12006KT 10SM CLR 34/17 A2979 RMK AO2 SLP069 T03440167

2010/08/08 01:53
KDWH 080153Z 19005KT 10SM CLR 29/24 A2987 RMK AO2 SLP112 T02940239

2010/08/08 01:55
KDYB 080155Z AUTO 00000KT 7SM SCT018 25/24 A2991 RMK AO1

2010/08/08 01:53
KEET 080153Z AUTO 00000KT 7SM CLR 27/24 A2991 RMK AO2 SLP121 T02720244

2010/08/08 01:53
KELN 080153Z AUTO 32013KT 10SM CLR 19/12 A2984 RMK AO2 PK WND 31030/0103 SLP097 T01940117

2010/08/08 01:53
KEMP 080153Z AUTO 15008KT 10SM CLR 28/22 A2984 RMK AO2 SLP091 T02830217

2010/08/08 01:53
KENW 080153Z 21007KT 10SM CLR 24/19 A2988 RMK AO2 SLP115 T02440189

2010/08/08 01:53
KEPH 080153Z AUTO 31015G22KT 10SM CLR 26/09 A2975 RMK AO2 SLP065 T02560089

2010/08/08 01:53
KEQY 080153Z AUTO 00000KT 10SM CLR 25/21 A2997 RMK AO2 SLP146 T02500206

2010/08/08 01:53
KESF 080153Z AUTO 00000KT 10SM FEW060 27/24 A2987 RMK AO2 SLP114 T02720244

2010/08/08 01:53
KFAT 080153Z 31009KT 10SM FEW100 34/08 A2970 RMK AO2 SLP054 TCU CU BLDUP OMTNS DSNT NW-NE-SE T03390078

2010/08/08 01:53
KFCM 080153Z 20010KT 10SM FEW055 28/21 A2968 RMK AO2 SLP045 T02780211

2010/08/08 01:53
KFFC 080153Z AUTO 14003KT 10SM CLR 27/22 A2996 RMK AO2 SLP137 T02670222

2010/08/08 01:53
KFHR 080153Z AUTO 00000KT 5SM BR OVC006 17/16 A2989 RMK AO2 RAB18E39 SLP123 P0001 T01670156

2010/08/08 01:53
KFLD 080153Z AUTO 20007KT 10SM SCT120 24/18 A2983 RMK AO2 SLP098 T02390183

2010/08/08 01:51
KFME 080151Z AUTO 00000KT 10SM CLR 18/18 A3000 RMK AO1

2010/08/08 01:53
KFNB 080153Z AUTO 15006KT 10SM CLR 27/23 A2979 RMK AO2 SLP078 T02670228

2010/08/08 01:53
KFOE 080153Z 16006KT 10SM CLR 28/22 A2983 RMK AO2 SLP089 T02830222

2010/08/08 01:53
KFSM 080153Z 06006KT 10SM CLR 26/24 A2985 RMK AO2 SLP101 T02610244

2010/08/08 01:53
KFST 080153Z AUTO 14013G20KT 10SM CLR 31/14 A2990 RMK AO2 SLP070 T03110144

2010/08/08 01:55
KFTN 080155Z AUTO 13009KT 10SM OVC001 34/19 A2982 RMK AO1

2010/08/08 01:53
KFTY 080153Z 09004KT 9SM CLR 29/23 A2995 RMK AO2 SLP132 T02890228

2010/08/08 01:53
KFYV 080153Z 00000KT 10SM CLR 27/22 A2989 RMK AO2 SLP105 T02670222

2010/08/08 01:53
KGAG 080153Z AUTO 14007KT 10SM SCT090 28/19 A2985 RMK AO2 SLP076 T02780189

2010/08/08 01:53
KGEG 080153Z 24014KT 10SM FEW090 SCT140 BKN200 27/07 A2976 RMK AO2 SLP062 T02670072

2010/08/08 01:53
KGFK 080153Z 13003KT 10SM SCT120 27/22 A2961 RMK AO2 SLP023 VIRGA W T02720217

2010/08/08 01:53
KGLD 080153Z AUTO 25003KT 10SM CLR 26/19 A2988 RMK AO2 SLP071 T02610194

2010/08/08 01:53
KMGM 080153Z 18005KT 10SM FEW050 SCT095 BKN150 BKN250 29/23 A2990 RMK AO2 SLP123 FRQ LTGICCC DSNT SW-W CB DSNT SW-W T02890233 

2010/08/08 01:53
KLXV 080153Z AUTO 03005KT 10SM SCT075 14/05 A3034 RMK AO2 RAB08E22 SLP112 P0000 T01390050 TSNO 

2010/08/08 01:53
KTLH 080153Z 00000KT 10SM SCT049 SCT070 BKN100 25/23 A2994 RMK AO2 SLP137 T02500233 

2010/08/08 01:53
KSAV 080153Z 25003KT 10SM FEW030 SCT070 27/24 A2992 RMK AO2 SLP132 T02720244 

2010/08/08 01:53
KTYS 080153Z 03004KT 10SM CLR 27/18 A2995 RMK AO2 SLP129 T02670178 

2010/08/08 01:53
KXNA 080153Z 18004KT 10SM CLR 26/23 A2989 RMK AO2 SLP107 T02610228

2010/08/08 01:53
KYKM 080153Z 33010KT 10SM BKN090 26/10 A2979 RMK AO2 SLP082 T02560100 $

2010/08/08 01:50
PALV 080150Z 09005KT 5SM -RA BKN008 OVC020 13/12 A2968 RMK EST PASS CLSD NOSPECI

2010/08/08 01:52
PATA 080152Z 00000KT 10SM SCT035 BKN070 17/11 A2963 RMK AO2 RAB0057E16 SLP033 P0000 T01670106

2010/08/08 01:53
PHJR 080153Z VRB06G18KT 10SM BKN049 30/18 A3003 RMK AO2 SLP175 T03000183

2010/08/08 01:50
ESNG 080150Z AUTO 31005KT 9999NDV FEW071/// BKN086/// 11/11 Q1018

2010/08/08 01:50
ESNK 080150Z AUTO 35004KT 9999NDV -RA NCD 16/15 Q1015

2010/08/08 01:50
ESNN 080150Z AUTO 31005KT 9999NDV -RA NCD 16/15 Q1015

2010/08/08 01:50
ESNO 080150Z AUTO 34004KT 9999NDV SCT100/// 17/13 Q1016

2010/08/08 01:50
ESNQ 080150Z AUTO 18002KT 9999NDV NCD 08/07 Q1019

2010/08/08 01:50
ESNS 080150Z AUTO 32003KT 9999NDV ////// 15/14 Q1016

2010/08/08 01:50
ESNU 080150Z AUTO 31003KT 9999NDV FEW110/// 17/13 Q1015

2010/08/08 01:50
ESNZ 080150Z AUTO 22004KT 9999NDV NCD 15/13 Q1016

2010/08/08 01:50
ESUT 080150Z AUTO 00000KT 0300NDV R33/0800V1500 FG VV000 08/07 Q1018

2010/08/08 01:50
EGMC 080150Z 31006KT 9999 FEW040 15/13 Q1017

2010/08/08 01:50
ESKN 080150Z 01009KT 9999 OVC007 16/15 Q1012

2010/08/08 01:50
ESOE 080150Z AUTO VRB02KT 9999NDV DZ FEW004/// SCT007/// 16/15 Q1014 RERA

2010/08/08 01:50
ESOK 080150Z AUTO 36004KT 5000NDV BR NCD 16/16 Q1014

2010/08/08 01:50
ESOW 080150Z AUTO 35004KT 8000NDV -DZ OVC028/// 15/15 Q1014

2010/08/08 01:50
ESSA 080150Z 33006KT 9999 OVC003 16/15 Q1013 NOSIG

2010/08/08 01:50
ESSB 080150Z AUTO 33004KT 9999NDV OVC002/// 16/15 Q1012

2010/08/08 01:50
ESSP 080150Z AUTO 36007KT 9999NDV BKN011/// BKN014/// 16/15 Q1012

2010/08/08 01:50
ESSV 080150Z AUTO 17006KT 0700NDV R03/P1500N R21/P1500N FG OVC002/// 17/17 Q1011

2010/08/08 01:50
ESGL 080150Z AUTO 00000KT 9999NDV -SHRA SCT096/// 17/// Q1013

2010/08/08 01:50
ESGR 080150Z AUTO 00000KT 5000NDV OVC074/// 16/16 Q1013

2010/08/08 01:50
ESNL 080150Z AUTO 00000KT 9999NDV BKN110/// 12/12 Q1017

2010/08/08 01:50
ESNX 080150Z AUTO 00000KT 0750NDV R12/P2000N R30/P2000N FG NCD 11/11 Q1018

2010/08/08 01:50
ESNY 080150Z AUTO 34009KT 9999 RA FEW086 16/14 Q1013

2010/08/08 01:50
ESDF 080150Z AUTO 34004KT 310V010 9999NDV OVC020/// 17/15 Q1011

2010/08/08 01:50
ESPA 080150Z AUTO 33005KT 9999NDV OVC130/// 16/16 Q1017

2010/08/08 01:50
ESSL 080150Z AUTO 34006KT 9999NDV FEW006/// SCT008/// BKN011/// 15/15 Q1013

2010/08/08 01:50
EGBB 080150Z AUTO 30007KT 8000NDV FEW010/// BKN019/// 15/13 Q1019

2010/08/08 01:50
EGCC 080150Z AUTO 30003KT 7000NDV FEW033/// 14/13 Q1020

2010/08/08 01:50
EGKK 080150Z VRB03KT CAVOK 14/12 Q1018

2010/08/08 01:50
EGPF 080150Z AUTO 24005KT 9999 SCT016/// 10/09 Q1019

2010/08/08 01:50
EGPH 080150Z AUTO 00000KT 9999 FEW014/// OVC022/// 15/12 Q1019

2010/08/08 01:50
EGPK 080150Z 00000KT 9999 FEW035 11/10 Q1020

2010/08/08 01:50
EGSS 080150Z AUTO 32007KT 9999NDV OVC006/// 14/13 Q1018

2010/08/08 01:50
EFHF 080150Z AUTO 10004KT 8000 SKC 22/21 Q1013

2010/08/08 01:50
EFKA 080150Z AUTO 04003KT 2900 BR SKC 17/16 Q1014

2010/08/08 01:50
EFKK 080150Z AUTO 04002KT CAVOK 17/16 Q1015

2010/08/08 01:50
EFMA 080150Z AUTO 36004KT 320V020 CAVOK ///// Q////

2010/08/08 01:50
EFPO 080150Z AUTO 33005KT 290V360 9999 SCT037 21/18 Q1013

2010/08/08 01:50
EFSI 080150Z AUTO 00000KT 0450 FG FEW048 17/16 Q1014

2010/08/08 02:00
SBSJ 080200Z 00000KT CAVOK 14/11 Q1021

2010/08/08 02:00
SGAS 080200Z 18007KT 9000 NSC 16/10 Q1014

2010/08/08 02:00
SGES 080200Z 08006KT CAVOK 16/13 Q1016

2010/08/08 02:00
SBRB 080200Z 00000KT 5000 FU NSC 25/16 Q1014 

2010/08/08 01:54
KBTV 080154Z 00000KT 10SM CLR 14/11 A2997 RMK AO2 SLP148 T01390106 

2010/08/08 01:53
KCUT 080153Z AUTO 05005KT 10SM CLR 22/11 A2997 RMK AO2 SLP078 T02170111 TSNO 

2010/08/08 01:53
KHTL 080153Z AUTO 23007KT 10SM BKN044 OVC060 22/17 A2989 RMK AO2 SLP117 T02220172 

2010/08/08 01:53
KMSN 080153Z 20005KT 10SM CLR 25/19 A2985 RMK AO2 SLP104 T02500189 

2010/08/08 01:54
PGUM 080154Z 08014KT 10SM FEW023 31/24 A2985 RMK AO2 SLP099 T03110239 

2010/08/08 02:00
SGAS 080200Z 18007KT 9000 NSC 16/10 Q1014

2010/08/08 02:00
SGES 080200Z 08006KT CAVOK 16/13 Q1016

2010/08/08 01:53
K6R6 080153Z AUTO 11012KT 32/16 A2985 RMK AO2 SLP070 T03170161 PWINO TSNO 

2010/08/08 01:53
KRQE 080153Z AUTO 30005KT 10SM -RA SCT021 BKN050 OVC095 16/14 A3021 RMK AO2 RAB08 SLP131 P0001 T01610139 TSNO 

2010/08/08 01:54
KJAN 080154Z 00000KT 10SM CLR 27/24 A2990 RMK AO2 SLP120 T02720239 

2010/08/08 01:53
KCQC 080153Z AUTO 18013KT 10SM CLR 23/09 A3015 RMK AO2 SLP099 T02280089 TSNO 

2010/08/08 01:53
KDNK 080153Z AUTO 19006KT 10SM CLR 29/24 A2988 RMK AO2 SLP113 T02940239 PNO $ 

2010/08/08 01:50
OAKB 080150Z VRB02KT 7000 FEW040 SCT090 20/19 Q1013 TEMPO 5000 BR RMK WHT WHT

2010/08/08 01:53
KBNO 080153Z AUTO 27006KT 10SM CLR 28/01 A2985 RMK AO2 SLP074 T02780006 TSNO $ 

2010/08/08 01:53
KELY 080153Z AUTO 21010G19KT 10SM CLR 27/M05 A2997 RMK AO2 SLP047 T02721050 

2010/08/08 01:53
CYPH 080153Z AUTO 24006KT 5SM OVC004 09/09 A2935

2010/08/08 01:50
EFHF 080150Z AUTO 10004KT 8000 SKC 22/21 Q1013

2010/08/08 01:50
EFKA 080150Z AUTO 04003KT 2900 BR SKC 17/16 Q1014

2010/08/08 01:50
EFKK 080150Z AUTO 04002KT CAVOK 17/16 Q1015

2010/08/08 01:50
EFMA 080150Z AUTO 36004KT 320V020 CAVOK ///// Q////

2010/08/08 01:50
EFPO 080150Z AUTO 33005KT 290V360 9999 SCT037 21/18 Q1013

2010/08/08 01:50
EFSI 080150Z AUTO 00000KT 0450 FG FEW048 17/16 Q1014

2010/08/08 01:55
TXKF 080155Z 19012KT 9999 VCSH FEW012 SCT026 BKN053 OVC072 27/24 Q1016  

2010/08/08 01:50
ESDF 080150Z AUTO 34004KT 310V010 9999NDV OVC020/// 17/15 Q1011

2010/08/08 01:50
ESPA 080150Z AUTO 33005KT 9999NDV OVC130/// 16/16 Q1017

2010/08/08 01:50
ESSL 080150Z AUTO 34006KT 9999NDV FEW006/// SCT008/// BKN011/// 15/15 Q1013

2010/08/08 01:50
ESGL 080150Z AUTO 00000KT 9999NDV -SHRA SCT096/// 17/// Q1013

2010/08/08 01:50
ESGR 080150Z AUTO 00000KT 5000NDV OVC074/// 16/16 Q1013

2010/08/08 01:50
ESNL 080150Z AUTO 00000KT 9999NDV BKN110/// 12/12 Q1017

2010/08/08 01:50
ESNX 080150Z AUTO 00000KT 0750NDV R12/P2000N R30/P2000N FG NCD 11/11 Q1018

2010/08/08 01:50
ESNY 080150Z AUTO 34009KT 9999 RA FEW086 16/14 Q1013

2010/08/08 01:50
HLLB 080150Z 00000KT 7000 SCT015 21/18 Q1014 

2010/08/08 01:50
HLLT 080150Z 11003KT CAVOK 24/17 Q1015

2010/08/08 01:50
HLLT 080150Z 11003KT CAVOK 24/17 Q1015

2010/08/08 01:47
KGSB 080147Z AUTO 13011KT 4SM R08/3500VP6000FT RA BR OVC049 24/24 A2994 RMK AO2 SLP139

2010/08/08 01:50
EETN 080150Z 12004KT 6000 NSC 22/20 Q1013

2010/08/08 01:50
EETU 080150Z AUTO 12005KT 5000NDV BR NCD 22/20 Q1014

2010/08/08 01:50
EFHK 080150Z 10005KT 7000 NSC 23/20 Q1013 NOSIG

2010/08/08 01:50
ESSA 080150Z 33006KT 9999 OVC003 16/15 Q1013 NOSIG

2010/08/08 01:50
EVLA 080150Z AUTO 09003KT 9999 BKN009 BKN043 18/17 Q1011

2010/08/08 01:50
EVRA 080150Z 00000KT 4600 BR NSC 21/20 Q1011 TEMPO -TSRA SCT030CB

2010/08/08 01:50
EYKA 080150Z 26011KT 9999 TSRA SCT014CB OVC098 20/19 Q1012

2010/08/08 01:50
EYPA 080150Z 15003KT 2400 BR BKN008 19/19 Q1011

2010/08/08 01:50
EYVI 080150Z VRB03KT 7000 BKN047CB OVC110 18/16 Q1013 NOSIG

2010/08/08 01:55
KQHY 080155Z AUTO 02003KT 12SM -DZ SCT055 BKN230 26/24 A2993 RMK AO2 SLP134 T02590235

2010/08/08 01:55
KQRH 080155Z AUTO 00000KT 9999 BKN180 33/20 A2962 RMK AO2 SLP027

2010/08/08 01:55
KQW3 080155Z AUTO 34001KT 9999 FEW039 OVC075 24/21 A2982 RMK AO2 SLP044

2010/08/08 01:50
EDQM 080150Z AUTO 19003KT 9999NDV BKN059/// 12/09 Q1017

2010/08/08 01:50
EDXW 080150Z AUTO 22004KT 9999NDV SCT009/// BKN038/// 17/15 Q1015

2010/08/08 01:50
EDFH 080150Z 34004KT 280V040 CAVOK 17/10 Q1016

2010/08/08 01:53
K40J 080153Z AUTO 02003KT 25/23 A2993 RMK AO2 SLP135 T02500233 PWINO TSNO 

2010/08/08 01:50
ENHF 080150Z AUTO 04003KT 360V160 //// SCT020/// OVC040/// 13/11 Q1019 

2010/08/08 01:50
ENAL 080150Z AUTO 25008KT 210V270 9999NDV OVC084/// 15/14 Q1016

2010/08/08 01:50
ENCN 080150Z AUTO 06003KT 9999NDV OVC057/// 14/11 Q1016

2010/08/08 01:50
ENHD 080150Z AUTO 10007KT 9999NDV OVC027/// 14/13 Q1016

2010/08/08 01:50
ENRO 080150Z AUTO 00000KT 0650NDV R32/P2000N FG NCD 03/02 Q1018

2010/08/08 01:50
ENRY 080150Z AUTO 34003KT 9999NDV NCD 14/11 Q1015

2010/08/08 01:50
ENSB 080150Z 28010KT 9999 -RA SCT005 BKN025 06/06 Q1014 

2010/08/08 01:50
ENTC 080150Z 00000KT 9999 BKN008 11/10 Q1019

2010/08/08 01:50
ENTO 080150Z AUTO 33005KT 9999NDV SCT037/// OVC053/// 14/11 Q1015

2010/08/08 01:53
KDAB 080153Z 00000KT 10SM -RA BKN030 BKN140 OVC200 26/24 A2993 RMK AO2 RAB21E29B53 SLP135 PCPN VRY LGT P0000 T02610244 

2010/08/08 01:50
EFKU 080150Z AUTO VRB01KT CAVOK 21/19 Q1015

2010/08/08 01:50
EFOU 080150Z AUTO 00000KT 2400 -SHRA BR FEW069 BKN096 19/19 Q1016

2010/08/08 01:55
KCEF 080155Z AUTO 01004KT 10SM CLR 14/12 A3000 RMK AO2 SLP159 T01420123

2010/08/08 01:55
KEGI 080155Z AUTO 00000KT 10SM CLR 25/23 A2991 RMK AO2 SLP129 T02470235 $

2010/08/08 01:55
KHMN 080155Z AUTO 00000KT 10SM CLR 32/12 A2991 RMK AO2 WSHFT 0049 SLP038 T03250116 $

2010/08/08 01:55
KHST 080155Z AUTO 15004KT 10SM CLR 27/25 A2998 RMK AO2 SLP154 T02740251

2010/08/08 01:55
KMMT 080155Z AUTO 00000KT 10SM R32/5500VP6000FT CLR 26/25 A2994 RMK AO2 SLP137 T02610247

2010/08/08 01:52
KNRB 080152Z 26003KT 10SM FEW030 OVC150 26/23 A2992 RMK AO2 RAE28 SLP132 T2 SET P0000 T02610233

2010/08/08 01:51
KSAN 080151Z 29005KT 10SM SCT021 18/12 A2988 RMK AO2 SLP118 T01830122 $

2010/08/08 01:55
KSUU 080155Z AUTO 24019G27KT 10SM CLR 22/12 A2971 RMK AO2 PK WND 24027/0147 SLP062 T02170120 RVRNO $

2010/08/08 01:55
KSVN 080155Z AUTO 27003KT 6SM 26/24 A2992 RMK AO2 SLP132

2010/08/08 01:55
KSZL 080155Z AUTO 13004KT 10SM CLR 26/22 A2985 RMK AO2 SLP103 T02620217 PNO $

2010/08/08 02:00
LPLA 080200Z 20003KT 9999 FEW018 SCT035 20/19 Q1024

2010/08/08 02:00
MGGT 080200Z 00000KT 9999 FEW016 FEW020CB SCT080 19/17 Q1024 A3024 CB/LTNG/SSE/S VOL/ DE PACAYA EN ACTIVIDAD

2010/08/08 02:00
MGHT 080200Z 00000KT 9999 -DZ OVC025 17/17 QFE817/5

2010/08/08 02:00
MGPB 080200Z 00000KT 9999 FEW016 SCT090 26/25 Q1011 A2985

2010/08/08 02:00
MGSJ 080200Z 00000KT 9999 SCT018 FEW025CB BKN110 27/25 Q1013 A2991 CB/LTNG/W/WNW

2010/08/08 01:53
PHJR 080153Z VRB06G18KT 10SM BKN049 30/18 A3003 RMK AO2 SLP175 T03000183

2010/08/08 01:50
ENAN 080150Z 25008KT 9999 FEW010 SCT020 10/09 Q1019

2010/08/08 01:50
ENBR 080150Z 14002KT 9999 -DZ SCT020 BKN035 15/13 Q1016 

2010/08/08 01:50
ENBO 080150Z 10003KT 9999 FEW002 10/09 Q1019

2010/08/08 01:50
ENDU 080150Z VRB02KT 9999 FEW002 SCT250 09/07 Q1019

2010/08/08 01:50
ENOL 080150Z 11004KT 9999 MIFG FEW070 10/10 Q1016

2010/08/08 01:50
ENVA 080150Z 12004KT CAVOK 11/09 Q1016 

2010/08/08 01:50
ENZV 080150Z 04003KT 9999 BKN036 15/13 Q1016

2010/08/08 01:50
ENAT 080150Z AUTO 22003KT 180V320 9999NDV OVC018/// 13/12 Q1019

2010/08/08 01:50
ENEV 080150Z AUTO VRB01KT 0500NDV R17/0800V1300N FG FEW210/// 08/07 Q1019 

2010/08/08 01:50
ENKB 080150Z AUTO 05005KT 9999NDV OVC190/// 15/13 Q1015

2010/08/08 01:50
ENKR 080150Z AUTO 14003KT 9999NDV NCD 14/13 Q1018 

2010/08/08 01:50
ENNA 080150Z VRB02KT 9999 BCFG FEW005 SCT110 13/12 Q1019 

2010/08/08 01:50
ENEK 080150Z 36008KT 9999 BKN035 16/14 Q1016 W16/S3

2010/08/08 01:50
ENGC 080150Z 20012KT 4000 BR FEW005 BKN020 14/14 Q1013

2010/08/08 01:50
ENHE 080150Z 07018KT 9999 FEW005 SCT130 12/12 Q1018

2010/08/08 01:50
ENOA 080150Z 24019KT 9999 SCT008 BKN012 14/12 Q1015

2010/08/08 01:54
K1V4 080154Z AUTO 12/10 A2999 RMK AO2 SLP152 T01220100 PWINO TSNO 

2010/08/08 01:54
KMQE 080154Z AUTO 00000KT 21/09 A3001 RMK AO1 SLP170 T02110089 

2010/08/08 01:50
EDFH 080150Z 34004KT 280V040 CAVOK 17/10 Q1016

2010/08/08 01:50
EGAA 080150Z 00000KT 2100 BR SKC 07/06 Q1021

2010/08/08 01:50
EGBB 080150Z AUTO 30007KT 8000NDV FEW010/// BKN019/// 15/13 Q1019

2010/08/08 01:50
EGCC 080150Z AUTO 30003KT 7000NDV FEW033/// 14/13 Q1020

2010/08/08 01:50
EGGD 080150Z 32004KT 9999 FEW028 12/10 Q1020

2010/08/08 01:50
EGGP 080150Z 29011KT 9999 SCT011 BKN016 16/13 Q1020

2010/08/08 01:50
EGGW 080150Z 32008KT 9999 BKN010 15/13 Q1018

2010/08/08 01:50
EGKK 080150Z VRB03KT CAVOK 14/12 Q1018

2010/08/08 01:50
EGLC 080150Z AUTO 31006KT 9999NDV NCD 15/13 Q1018

2010/08/08 01:50
EGMC 080150Z 31006KT 9999 FEW040 15/13 Q1017

2010/08/08 01:50
EGNM 080150Z 35003KT CAVOK 12/10 Q1020

2010/08/08 01:50
EGNT 080150Z 31002KT 9999 FEW045 12/11 Q1020

2010/08/08 01:50
EGNX 080150Z 33004KT 9999 FEW022 13/11 Q1019

2010/08/08 01:50
EGPB 080150Z AUTO 28011KT 9999NDV FEW011/// BKN021/// 12/10 Q1017

2010/08/08 01:50
EGPD 080150Z 31003KT 9999 SCT041 10/09 Q1020

2010/08/08 01:50
EGPF 080150Z AUTO 24005KT 9999 SCT016/// 10/09 Q1019

2010/08/08 01:50
EGPH 080150Z AUTO 00000KT 9999 FEW014/// OVC022/// 15/12 Q1019

2010/08/08 01:50
EGPK 080150Z 00000KT 9999 FEW035 11/10 Q1020

2010/08/08 01:50
EGSS 080150Z AUTO 32007KT 9999NDV OVC006/// 14/13 Q1018

2010/08/08 01:50
EKAH 080150Z AUTO 28004KT 0200NDV R10R/0450N R28L/0400N FG VV001 15/14 Q1014

2010/08/08 01:50
EKBI 080150Z 28002KT 8000 SCT080 BKN130 15/15 Q1015

2010/08/08 01:50
EKCH 080150Z 31010KT 9999 FEW013 BKN150 19/18 Q1013 NOSIG

2010/08/08 01:50
EKEB 080150Z AUTO 00000KT 2800NDV -SHRA BR OVC034/// 16/15 Q1015

2010/08/08 01:50
EKRK 080150Z AUTO 31006KT 9999NDV BKN160/// 17/17 Q1013

2010/08/08 01:50
EKRN 080150Z AUTO 31006KT 9999NDV DZ OVC041/// 18/17 Q1012

2010/08/08 01:50
EKVD 080150Z AUTO 31002KT //// ///////// 15/14 Q1015

2010/08/08 01:50
EKYT 080150Z 01003KT 9999 FEW035 BKN160 16/15 Q1015

2010/08/08 01:54
KBKB 080154Z AUTO 00000KT 10SM CLR 29/25 A2986 RMK AO2 SLP134 T02940250 $ 

2010/08/08 01:54
KWAL 080154Z AUTO 13004KT 10SM CLR 24/22 A2999 RMK AO2 SLP153 T02390217 TSNO 

2010/08/08 01:54
KAVP 080154Z 00000KT 10SM CLR 21/10 A3000 RMK AO2 SLP149 T02060100 

2010/08/08 01:54
OAHR 080154Z 03009KTCAVOK 28/M03 Q1009 RMK SCT SCT050 VIS MIN 9999 BLU

2010/08/08 01:50
EGYP 080150Z 30010KT CAVOK 04/M03 Q1003 BLU

2010/08/08 01:54
KROC 080154Z 22003KT 10SM FEW080 17/12 A2998 RMK AO2 SLP152 T01720117 $ 

2010/08/08 01:54
KDMH 080154Z AUTO 27/15 A2997 RMK AO2 SLP149 T02720150 PWINO TSNO 

2010/08/08 01:54
K12N 080154Z AUTO 00000KT 18/15 A3000 RMK AO2 SLP153 T01780150 PWINO TSNO 

2010/08/08 01:54
KRIC 080154Z 13005KT 10SM BKN050 25/19 A2998 RMK AO2 SLP155 T02500189 

2010/08/08 01:54
KNFG 080154Z AUTO VRB04KT 10SM CLR 17/13 A2986 RMK AO2 SLP110 T01720128 TSNO $ 

2010/08/08 01:54
KGSO 080154Z 06004KT 10SM CLR 26/17 A3001 RMK AO2 SLP150 T02560172 

2010/08/08 01:54
KNAK 080154Z AUTO 16003KT 10SM CLR 26/14 A2997 RMK AO2 SLP150 T02560139 TSNO 

2010/08/08 01:55
TXKF 080155Z 19012KT 9999 VCSH FEW012 SCT026 BKN053 OVC072 27/24 Q1016 

2010/08/08 01:53
KHWO 080153Z AUTO 16003KT 10SM CLR 27/24 A2998 RMK AO2 SLP153 T02720239 $

2010/08/08 01:53
KHZY 080153Z AUTO 00000KT 10SM CLR 17/15 A3000 RMK AO2 SLP156 T01670150

2010/08/08 01:53
KIAG 080153Z 20004KT 10SM FEW250 18/12 A2997 RMK AO2 SLP147 T01830117

2010/08/08 01:53
KIDA 080153Z AUTO 04004KT 10SM SCT130 24/11 A2987 RMK AO2 RAB26E35 SLP074 P0000 T02390106

2010/08/08 01:53
KILM 080153Z AUTO 00000KT 9SM CLR 25/22 A2994 RMK AO2 SLP138 T02500222 TSNO

2010/08/08 01:53
KIML 080153Z AUTO 14005KT 10SM CLR 27/19 A2982 RMK AO2 SLP061 T02720194

2010/08/08 01:53
KINK 080153Z AUTO 14013G19KT 10SM CLR 34/12 A2985 RMK AO2 SLP056 T03390117 TSNO

2010/08/08 01:53
KITR 080153Z AUTO 22004KT 10SM CLR 24/19 A2993 RMK AO2 LTG DSNT W AND NW SLP078 T02390194

2010/08/08 01:53
KIWI 080153Z AUTO 00000KT 10SM CLR 13/12 A3001 RMK AO2 SLP162 T01280117

2010/08/08 01:53
KJER 080153Z AUTO 28005KT 10SM CLR 25/12 A2983 RMK AO2 SLP065 T02500117

2010/08/08 01:53
KJKL 080153Z AUTO 00000KT 10SM CLR 23/16 A3001 RMK AO2 SLP149 T02280156

2010/08/08 01:53
KDVT 080153Z AUTO 36013KT 10SM CLR 32/16 A2977 RMK AO2 SLP058 T03170161 TSNO

2010/08/08 01:53
KDXR 080153Z 00000KT 10SM CLR 20/15 A3001 RMK AO2 SLP157 T02000150

2010/08/08 01:53
KECP 080153Z 04004KT 9SM BR FEW026 26/25 A2991 RMK AO2 LTG DSNT SE SLP139 T02610250

2010/08/08 01:53
KELD 080153Z AUTO 00000KT 8SM CLR 26/25 A2985 RMK AO2 RAE03 SLP105 P0001 T02610250

2010/08/08 01:53
KELM 080153Z 00000KT 10SM CLR 17/11 A3001 RMK AO2 SLP160 T01670111

2010/08/08 01:50
KEMT 080150Z 20010KT 25SM SKC A2983

2010/08/08 01:53
KEVW 080153Z AUTO 18006KT 10SM BKN075 OVC100 16/07 A3014 RMK AO2 SLP124 T01560067

2010/08/08 01:53
KEWB 080153Z 00000KT 10SM CLR 18/16 A3001 RMK AO2 SLP160 T01830161

2010/08/08 01:53
KEYE 080153Z AUTO 00000KT 9SM CLR 24/19 A2996 RMK AO2 SLP138 T02390189

2010/08/08 01:53
KEYW 080153Z AUTO 00000KT 10SM SCT023 31/26 A2997 RMK AO2 SLP149 T03060261

2010/08/08 01:53
KFAY 080153Z AUTO 10009KT 10SM SCT028 BKN037 OVC050 27/22 A2995 RMK AO2 SLP136 T02720217

2010/08/08 01:53
KFDR 080153Z AUTO 14007KT 10SM 33/22 A2979 RMK AO2 SLP066 T03280217

2010/08/08 01:53
KFDY 080153Z AUTO 00000KT 10SM CLR 22/17 A2997 RMK AO2 SLP140 T02170172

2010/08/08 01:53
KFFT 080153Z AUTO 00000KT 10SM CLR 21/17 A2997 RMK AO2 SLP142 T02110172

2010/08/08 01:53
KFLL 080153Z 19004KT 10SM FEW050 27/24 A2996 RMK AO2 SLP145 T02670244 PNO $

2010/08/08 01:53
KFLO 080153Z AUTO 17010KT 7SM -TSRA FEW043 BKN060 OVC095 24/23 A2994 RMK AO2 LTG DSNT S AND SW TSB24RAB0059 SLP137 P0011 T02440228

2010/08/08 01:53
KFMN 080153Z 25013G21KT 8SM RA SCT016 BKN023 OVC060 16/14 A3017 RMK AO2 PK WND 23026/0143 RAB01 SLP169 P0005 T01610144

2010/08/08 01:53
KFMY 080153Z AUTO 26005KT 10SM CLR 29/24 A2994 RMK AO2 SLP142 T02890244

2010/08/08 01:53
KFNT 080153Z AUTO 23005KT 10SM CLR 22/17 A2992 RMK AO2 SLP126 T02220167

2010/08/08 01:53
KFOK 080153Z 16004KT 10SM CLR 20/17 A3001 RMK AO2 SLP163 T02000167

2010/08/08 01:53
KFPR 080153Z AUTO 18003KT 10SM CLR 26/24 A2996 RMK AO2 SLP144 T02560244

2010/08/08 01:53
KFRG 080153Z 18007KT 10SM CLR 23/19 A2999 RMK AO2 SLP156 T02330194

2010/08/08 01:53
KFTW 080153Z 17008KT 10SM CLR 33/21 A2980 RMK AO2 SLP080 T03330206

2010/08/08 01:53
KFUL 080153Z 21007KT 10SM CLR 19/13 A2984 RMK AO2 SLP102 T01890128

2010/08/08 01:53
KFVE 080153Z AUTO 25005KT 10SM CLR 12/04 A2991 RMK AO2 SLP126 T01170044

2010/08/08 01:53
KFWN 080153Z AUTO 00000KT 10SM CLR 18/13 A2999 RMK AO2 SLP153 T01830133

2010/08/08 01:53
KFXE 080153Z 16004KT 10SM CLR 27/24 A2996 RMK AO2 SLP148 T02720244 $

2010/08/08 01:53
KGCC 080153Z AUTO 36008KT 10SM VCTS CLR 23/11 A2987 RMK AO2 LTG DSNT NW TSB51 SLP068 T02330106

2010/08/08 01:53
KGEY 080153Z AUTO 36009KT 10SM CLR 26/07 A2983 RMK AO2 SLP064 T02610072

2010/08/08 01:53
KGEZ 080153Z AUTO 15004KT 10SM CLR 20/16 A2995 RMK AO2 SLP134 T02000161

2010/08/08 01:53
KGFL 080153Z AUTO 00000KT 10SM CLR 13/11 A2999 RMK AO2 SLP155 T01330111

2010/08/08 01:53
KGGG 080153Z 16004KT 10SM CLR 30/24 A2984 RMK AO2 SLP098 T03000239

2010/08/08 01:53
KAPA 080153Z 03003KT 10SM FEW080 SCT110 24/10 A3001 RMK AO2 SLP084 T02440100

2010/08/08 01:53
KAPF 080153Z 25003KT 10SM FEW026 30/25 A2996 RMK AO2 SLP144 T03000250

2010/08/08 01:53
KARB 080153Z AUTO 00000KT 8SM CLR 20/17 A2994 RMK AO2 SLP133 T02000172 $

2010/08/08 01:53
KASE 080153Z 30007KT 10SM BKN090 14/09 A3023 RMK AO2 SLP135 T01440094

2010/08/08 01:53
KAUG 080153Z AUTO 00000KT 10SM CLR 16/11 A2999 RMK AO2 SLP157 T01560106

2010/08/08 01:53
KBAF 080153Z 01003KT 10SM CLR 17/12 A3000 RMK AO2 SLP157 T01720117

2010/08/08 01:53
KBBW 080153Z AUTO 16003KT 10SM CLR 27/23 A2978 RMK AO2 SLP060 T02720233

2010/08/08 01:53
KBCE 080153Z AUTO 15009KT 10SM SCT017 14/11 A3023 RMK AO2 SLP140 T01390106 $

2010/08/08 01:53
KBGM 080153Z AUTO 02006KT 10SM CLR 18/10 A3004 RMK AO2 SLP166 T01830100 TSNO

2010/08/08 01:53
KBGR 080153Z 18004KT 10SM FEW080 13/08 A2999 RMK AO2 SLP154 T01280083

2010/08/08 01:53
KBHK 080153Z AUTO 28003KT 10SM CLR 27/11 A2976 RMK AO2 SLP051 T02670106

2010/08/08 01:53
KBIL 080153Z 17008KT 140V210 10SM SCT100 23/11 A2982 RMK AO2 SLP069 CB DSNT NW T02280111 $

2010/08/08 01:53
KBKL 080153Z 16005KT 10SM CLR 25/14 A2996 RMK AO2 SLP142 T02500139

2010/08/08 01:53
KBKV 080153Z AUTO 00000KT 10SM FEW026 SCT035 28/25 A2994 RMK AO2 SLP136 T02780250

2010/08/08 01:53
KBMG 080153Z AUTO 00000KT 8SM CLR 19/18 A2995 RMK AO2 SLP136 T01940178

2010/08/08 01:53
KBOI 080153Z 34011KT 10SM CLR 31/05 A2975 RMK AO2 SLP043 T03110050 $

2010/08/08 01:53
KBPI 080153Z AUTO 27006KT 10SM CLR 19/04 A3007 RMK AO2 SLP093 T01940039 TSNO

2010/08/08 01:53
KBTM 080153Z AUTO 20009KT 10SM FEW025 SCT070 OVC095 22/04 A2993 RMK AO2 LTG DSNT SW TSB38E52RAB30E48 SLP082 P0000 T02170044

2010/08/08 01:53
KBUR 080153Z 18009KT 10SM CLR 21/12 A2983 RMK AO2 SLP089 T02110117

2010/08/08 01:53
KBVY 080153Z AUTO 00000KT 10SM CLR 17/09 A2999 RMK AO2 SLP150 T01670094

2010/08/08 01:53
KBYG 080153Z AUTO 33010KT 10SM CLR 22/11 A2994 RMK AO2 SLP080 T02170106

2010/08/08 01:53
KBYI 080153Z AUTO 26003KT 10SM CLR 26/08 A2983 RMK AO2 SLP057 T02610083

2010/08/08 01:53
KGGW 080153Z AUTO 09003KT 10SM SCT110 27/12 A2967 RMK AO2 SLP034 T02720122 TSNO

2010/08/08 01:53
KGIF 080153Z AUTO 21005KT 10SM CLR 27/24 A2995 RMK AO2 SLP141 T02720239 TSNO

2010/08/08 01:53
KGJT 080153Z 30017KT 10SM -RA OVC060 21/13 A3009 RMK AO2 RAB42 SLP128 P0000 T02110128

2010/08/08 01:53
KGKJ 080153Z AUTO 00000KT 10SM CLR 19/11 A3002 RMK AO2 SLP161 T01940106

2010/08/08 01:53
KGKY 080153Z AUTO 15010KT 10SM CLR 33/21 A2981 RMK AO2 SLP085 T03280211 TSNO

2010/08/08 01:53
KGLR 080153Z AUTO 00000KT 10SM FEW049 21/14 A2986 RMK AO2 SLP109 T02060139

2010/08/08 01:53
KGNV 080153Z 00000KT 10SM -RA SCT038 24/23 A2992 RMK AO2 TSE25 SLP129 P0012 T02390228

2010/08/08 01:53
KGOK 080153Z AUTO 13005KT 10SM CLR 31/22 A2981 RMK AO2 SLP080 T03110222

2010/08/08 01:53
KGTF 080153Z AUTO 26005KT 10SM CLR 26/03 A2974 RMK AO2 LTG DSNT SE AND S SLP037 T02610028

2010/08/08 01:53
KGUP 080153Z AUTO 00000KT 4SM RA BR BKN042 BKN050 OVC065 16/15 A3021 RMK AO2 RAB46 SLP102 P0002 T01610150

2010/08/08 01:53
KGZH 080153Z AUTO 00000KT 10SM VCTS CLR 26/24 A2993 RMK AO2 LTG DSNT N AND NE TSB39 SLP130 P0008 T02610239

2010/08/08 01:53
KHAO 080153Z AUTO 00000KT 10SM CLR 21/17 A2998 RMK AO2 SLP147 T02060167

2010/08/08 01:53
KHBR 080153Z AUTO 15007KT 10SM CLR 33/18 A2984 RMK AO2 SLP079 T03330183

2010/08/08 01:53
KHFD 080153Z 16005KT 10SM CLR 22/16 A2998 RMK AO2 SLP151 T02220156

2010/08/08 01:53
KHIB 080153Z AUTO 15006KT 10SM BKN050 OVC060 22/19 A2970 RMK AO2 SLP055 T02220189

2010/08/08 01:53
KHLN 080153Z 30007KT 10SM CLR 27/04 A2977 RMK AO2 SLP063 T02720039

2010/08/08 01:53
KHUF 080153Z AUTO 00000KT 7SM CLR 21/19 A2994 RMK AO2 SLP136 T02060194

2010/08/08 01:53
KHUL 080153Z AUTO 19004KT 10SM CLR 12/06 A2995 RMK AO2 SLP143 T01220061

2010/08/08 01:53
KHVN 080153Z 21003KT 10SM CLR 24/18 A2999 RMK AO2 SLP155 T02390183

2010/08/08 01:53
KHVR 080153Z AUTO 29005KT 10SM CLR 28/06 A2968 RMK AO2 SLP033 T02780056

2010/08/08 01:53
KRWL 080153Z AUTO 24015G25KT 10SM -RA BKN070 BKN090 19/07 A3014 RMK AO2 PK WND 21029/0108 RAB49 SLP115 T01890067 PNO $

2010/08/08 01:53
KRXE 080153Z AUTO 08005KT 10SM CLR 21/10 A2989 RMK AO2 RAE24 SLP087 P0000 T02110100

2010/08/08 01:53
KSBA 080153Z 26009KT 10SM BKN012 16/12 A2984 RMK AO2 SLP106 T01560122

2010/08/08 01:53
KSEG 080153Z AUTO 00000KT 10SM FEW090 19/17 A2999 RMK AO2 SLP154 T01890172

2010/08/08 01:53
KSFB 080153Z 18005KT 10SM CLR 27/25 A2993 RMK AO2 SLP134 T02720250

2010/08/08 01:53
KSHR 080153Z AUTO 32012G20KT 10SM FEW090 SCT110 23/10 A2989 RMK AO2 LTG DSNT NE SLP085 T02330100

2010/08/08 01:53
KSLC 080153Z 15013G21KT 10SM FEW090 SCT110 SCT150 BKN200 26/08 A2988 RMK AO2 SLP063 T02560078

2010/08/08 01:53
KSMQ 080153Z AUTO 32003KT 10SM CLR 20/18 A2996 RMK AO2 SLP145 T02000178

2010/08/08 01:53
KSNY 080153Z AUTO 13006KT 10SM CLR 29/11 A2989 RMK AO2 SLP061 T02890106

2010/08/08 01:53
KSPG 080153Z AUTO 26004KT 10SM CLR 31/25 A2993 RMK AO2 SLP134 T03060250

2010/08/08 01:53
KSRQ 080153Z 27006KT 10SM CLR 30/24 A2994 RMK AO2 SLP136 T03000239

2010/08/08 01:53
KSSI 080153Z AUTO 00000KT 10SM FEW015 SCT039 26/24 A2992 RMK AO2 SLP132 T02560244

2010/08/08 01:53
KTDZ 080153Z AUTO 19005KT 10SM CLR 21/17 A2996 RMK AO2 SLP142 T02110167

2010/08/08 01:53
KTHV 080153Z AUTO 00000KT 10SM BKN070 BKN095 23/15 A2998 RMK AO2 SLP151 T02330150

2010/08/08 01:53
KTKI 080153Z 16007KT 10SM CLR 33/22 A2981 RMK AO2 SLP087 T03330222

2010/08/08 01:53
KTMB 080153Z 12003KT 10SM CLR 28/25 A2998 RMK AO2 SLP150 T02830250

2010/08/08 01:53
KTOI 080153Z AUTO 01014G23KT 1 3/4SM +TSRA BR FEW006 BKN034 OVC041 24/23 A2996 RMK AO2 RAB40 SLP139 P0027 T02390228

2010/08/08 01:53
KTOR 080153Z AUTO 14006KT 10SM CLR 29/09 A2984 RMK AO2 SLP046 T02940094

2010/08/08 01:53
KTPA 080153Z 23008KT 10SM FEW030 SCT110 BKN270 29/25 A2994 RMK AO2 SLP139 T02940250

2010/08/08 01:53
KTRL 080153Z AUTO 16007KT 10SM CLR 33/19 A2983 RMK AO2 SLP092 T03330194

2010/08/08 01:53
KTTN 080153Z AUTO 00000KT 10SM CLR 24/14 A2997 RMK AO2 SLP141 T02390144

2010/08/08 01:53
KTUS 080153Z 28006KT 10SM FEW080 29/17 A2990 RMK AO2 SLP078 T02940172 $

2010/08/08 01:54
KAAO 080154Z AUTO 15007KT 10SM CLR 31/21 A2982 RMK AO2 SLP083 T03060206

2010/08/08 01:55
KAIZ 080155Z AUTO 00000KT 10SM CLR 27/22 A2990 RMK AO1

2010/08/08 01:54
KAKH 080154Z AUTO 00000KT 8SM CLR 24/19 A2998 RMK AO2 SLP144 T02390194

2010/08/08 01:54
KAKR 080154Z AUTO 19003KT 10SM CLR 21/14 A3000 RMK AO2 SLP153 T02110139

2010/08/08 01:54
KALO 080154Z AUTO 19008KT 10SM CLR 26/22 A2979 RMK AO2 SLP082 T02560222

2010/08/08 01:54
KAPC 080154Z 20017G22KT 10SM CLR 16/12 A2978 RMK AO2 SLP075 T01560117

2010/08/08 01:55
KARG 080155Z AUTO 11003KT 10SM CLR 28/21 A2989 RMK AO1

2010/08/08 01:55
KAUO 080155Z AUTO 12007KT 10SM FEW050 SCT065 OVC110 29/21 A2993 RMK AO1

2010/08/08 01:54
KAUW 080154Z AUTO VRB04KT 9SM VCTS -RA FEW042 BKN060 22/19 A2977 RMK AO2 TSB23E38B43RAB30 SLP078 P0007 T02170189

2010/08/08 01:54
KAVL 080154Z 00000KT 9SM SCT049 BKN075 23/19 A3006 RMK AO2 SLP152 T02280194

2010/08/08 01:55
KAWO 080155Z AUTO 14005KT 10SM 18/16 A2991 RMK AO1 P0001

2010/08/08 01:54
KBFL 080154Z 33006KT 10SM CLR 34/06 A2970 RMK AO2 SLP048 T03390056

2010/08/08 01:55
KBHB 080155Z AUTO 00000KT 10SM CLR 14/12 A3000 RMK AO1

2010/08/08 01:55
KBID 080155Z AUTO 19006KT 10SM CLR 21/18 A3001 RMK AO1

2010/08/08 01:55
KBKX 080155Z AUTO 17008KT 10SM CLR 28/23 A2969 RMK AO1

2010/08/08 01:55
KBLM 080155Z AUTO 18003KT 10SM CLR 23/18 A3001 RMK AO1

2010/08/08 01:54
KBOS 080154Z 29003KT 10SM FEW065 SCT250 24/06 A3000 RMK AO2 SLP157 T02390061

2010/08/08 01:55
KBTP 080155Z AUTO 00000KT 10SM CLR 17/14 A3003 RMK AO1

2010/08/08 01:54
KBUF 080154Z 21006KT 10SM FEW080 SCT300 18/10 A2998 RMK AO2 SLP149 T01830100

2010/08/08 01:54
KBUY 080154Z AUTO 00000KT 8SM CLR 23/20 A2998 RMK AO2 SLP146 T02280200

2010/08/08 01:55
KBVX 080155Z AUTO 12004KT 10SM CLR 28/21 A2989 RMK AO1

2010/08/08 01:54
KBWI 080154Z 18003KT 10SM CLR 24/14 A2997 RMK AO2 SLP146 T02390144

2010/08/08 01:54
KCEU 080154Z AUTO 00000KT 10SM CLR 28/21 A2998 RMK AO2 RAB45E54 SLP140 P0000 T02830206

2010/08/08 01:53
KLOU 080153Z 00000KT 10SM CLR 27/16 A2996 RMK AO2 SLP139 T02670156 $

2010/08/08 01:53
KLOZ 080153Z AUTO 00000KT 10SM CLR 23/17 A2999 RMK AO2 SLP144 T02280167

2010/08/08 01:53
KLPR 080153Z AUTO 19003KT 10SM CLR 22/17 A2999 RMK AO2 SLP150 T02220167

2010/08/08 01:53
KLUK 080153Z 00000KT 10SM BKN070 22/17 A2997 RMK AO2 SLP146 T02220172

2010/08/08 01:53
KLVM 080153Z AUTO 21022G28KT 10SM CLR 22/06 A2985 RMK AO2 PK WND 22032/0127 WSHFT 0044 SLP067 T02170061

2010/08/08 01:53
KLWV 080153Z AUTO 00000KT 7SM CLR 23/19 A2993 RMK AO2 SLP132 T02330194

2010/08/08 01:53
KMAF 080153Z 15009KT 10SM CLR 33/14 A2989 RMK AO2 SLP067 T03280139

2010/08/08 01:53
KMAI 080153Z AUTO 18004KT 10SM CLR 27/24 A2992 RMK AO2 RAB01E32 SLP130 P0000 T02670244

2010/08/08 01:53
KMBS 080153Z 23007KT 10SM OVC090 24/16 A2990 RMK AO2 SLP121 T02390161

2010/08/08 01:53
KMCK 080153Z AUTO 17004KT 10SM CLR 28/21 A2978 RMK AO2 SLP057 T02830211

2010/08/08 01:53
KMCO 080153Z 17003KT 10SM FEW035 FEW110 BKN200 OVC250 27/24 A2994 RMK AO2 SLP138 T02670244

2010/08/08 01:53
KMFE 080153Z AUTO 15011KT 10SM FEW032 30/24 A2985 RMK AO2 SLP108 T03000239 TSNO $

2010/08/08 01:53
KMGY 080153Z AUTO 00000KT 10SM CLR 22/15 A2998 RMK AO2 SLP145 T02220150

2010/08/08 01:53
KMHT 080153Z 00000KT 10SM CLR 19/09 A2998 RMK AO2 SLP164 T01890094

2010/08/08 01:53
KMIA 080153Z 18003KT 10SM FEW044 SCT060 BKN130 OVC250 28/24 A2998 RMK AO2 SLP151 T02830244 $

2010/08/08 01:53
KMIE 080153Z 00000KT 5SM HZ CLR 20/17 A2997 RMK AO2 SLP141 T02000172

2010/08/08 01:53
KMKO 080153Z AUTO 14005KT 10SM CLR 26/22 A2985 RMK AO2 SLP099 T02610222

2010/08/08 01:53
KMLB 080153Z 00000KT 10SM FEW120 26/24 A2995 RMK AO2 SLP142 T02560239

2010/08/08 01:53
KMLC 080153Z AUTO 08004KT 10SM CLR 31/23 A2983 RMK AO2 RAB0057E15 SLP092 P0000 T03060233

2010/08/08 01:53
KMLP 080153Z AUTO VRB03KT 10SM FEW050 16/05 A2996 RMK AO2 SLP058 T01610050 TSNO

2010/08/08 01:53
KMLS 080153Z AUTO 21007KT 10SM FEW120 29/10 A2972 RMK AO2 SLP039 T02890100

2010/08/08 01:53
KTWF 080153Z 00000KT 10SM CLR 28/07 A2983 RMK AO2 SLP042 T02830067

2010/08/08 01:53
KTXK 080153Z 19005KT 10SM CLR 27/23 A2984 RMK AO2 SLP099 T02720228

2010/08/08 01:53
KTYR 080153Z 18006KT 10SM CLR 32/22 A2985 RMK AO2 SLP100 T03220222

2010/08/08 01:53
KUAO 080153Z AUTO 33006KT 10SM BKN045 BKN055 OVC100 24/14 A2988 RMK AO2 SLP117 T02390144

2010/08/08 01:53
KUUU 080153Z AUTO 00000KT 10SM CLR 20/17 A3002 RMK AO2 SLP163 T02000167

2010/08/08 01:53
KVEL 080153Z AUTO 22003KT 10SM FEW120 17/14 A3012 RMK AO2 SLP148 T01670139

2010/08/08 01:53
KVLD 080153Z 00000KT 5SM -RA BR OVC041 25/24 A2993 RMK AO2 SLP140 P0000 T02500239

2010/08/08 01:53
KVRB 080153Z 16004KT 10SM CLR 26/24 A2995 RMK AO2 SLP141 T02560244

2010/08/08 01:53
KWRL 080153Z AUTO 01010KT 10SM CLR 26/07 A2984 RMK AO2 SLP062 T02610067

2010/08/08 01:53
KWST 080153Z AUTO 00000KT 10SM SCT090 19/17 A3001 RMK AO2 SLP163 T01890167

2010/08/08 01:53
KYIP 080153Z 19005KT 10SM CLR 22/17 A2995 RMK AO2 RAB31E41 SLP134 P0000 T02170167

2010/08/08 01:53
KZZV 080153Z AUTO 00000KT 10SM CLR 22/18 A3000 RMK AO2 SLP154 T02170178

2010/08/08 01:53
KPTK 080153Z 22005KT 10SM SCT150 23/16 A2993 RMK AO2 SLP128 T02330161

2010/08/08 01:53
KPUB 080153Z 20005KT 10SM CLR 24/17 A2991 RMK AO2 SLP064 T02390172 $

2010/08/08 01:53
KPUC 080153Z AUTO 15010KT 10SM CLR 19/08 A3011 RMK AO2 SLP135 T01940083

2010/08/08 01:53
KPWA 080153Z 14010KT 10SM CLR 33/21 A2983 RMK AO2 SLP082 T03330206

2010/08/08 01:53
KRBD 080153Z 16007KT 10SM CLR 34/21 A2981 RMK AO2 SLP086 T03390206

2010/08/08 01:53
KRHI 080153Z AUTO 00000KT 10SM -RA SCT070 BKN120 22/19 A2979 RMK AO2 RAB45 SLP081 P0000 T02170189

2010/08/08 01:53
KRIW 080153Z AUTO 31012KT 10SM CLR 24/03 A2994 RMK AO2 SLP068 T02440033

2010/08/08 01:52
KRKR 080152Z AUTO 00000KT 10SM BKN085 29/26 A2984 RMK AO2

2010/08/08 01:53
KRME 080153Z AUTO 00000KT 10SM CLR 16/13 A3002 RMK AO2 SLP161 T01560128

2010/08/08 01:53
KRSW 080153Z 24004KT 10SM FEW025 28/25 A2995 RMK AO2 SLP140 T02830250

2010/08/08 01:55
KCGZ 080155Z AUTO 00000KT 10SM CLR 35/12 A2979 RMK AO1

2010/08/08 01:55
KCIU 080155Z AUTO 21005KT 10SM BKN095 18/14 A2982 RMK AO1

2010/08/08 01:55
KCOD 080155Z 35009KT 10SM CLR 23/05 A2991 RMK AO1

2010/08/08 01:55
KCOE 080155Z AUTO 20007KT 10SM CLR 26/09 A2976 RMK AO1

2010/08/08 01:54
KCOS 080154Z 20003KT 10SM CLR 22/12 A3006 RMK AO2 SLP089 T02220122

2010/08/08 01:54
KCRW 080154Z 00000KT 10SM FEW055 21/18 A3000 RMK AO2 SLP153 T02060183

2010/08/08 01:55
KCVN 080155Z 16008KT 10SM CLR 27/14 A2997 RMK AO1

2010/08/08 01:55
KCVO 080155Z AUTO 29011KT 10SM BKN100 OVC120 22/14 A2990 RMK AO1

2010/08/08 01:55
KCWI 080155Z 16006KT 10SM CLR A2988 RMK AO1

2010/08/08 01:54
KDDH 080154Z AUTO 17003KT 10SM CLR 13/11 A3001 RMK AO2 SLP161 T01280106

2010/08/08 01:54
KDEC 080154Z 16004KT 9SM CLR 24/18 A2993 RMK AO2 SLP131 T02440183

2010/08/08 01:54
KDSM 080154Z 16008KT 10SM FEW100 27/22 A2981 RMK AO2 SLP085 T02720217

2010/08/08 01:54
KDSV 080154Z AUTO 16004KT 10SM CLR 16/12 A3002 RMK AO2 SLP172 T01610122 $

2010/08/08 01:55
KDVL 080155Z AUTO 02004KT 10SM SCT043 BKN050 26/19 A2964 RMK AO1

2010/08/08 01:53
PAOT 080153Z 29018KT 10SM FEW003 SCT035 BKN080 BKN180 12/11 A2956 RMK AO2 SLP008 T01170106

2010/08/08 01:53
PAPB 080153Z AUTO 15021G28KT 5SM RA BR OVC003 11/11 A2945 RMK AO2 PK WND 15028/0152 SLP960 P0015 T01060106 TSNO

2010/08/08 01:53
PAQT 080153Z AUTO 06017G25KT 10SM OVC008 06/05 A2975 RMK AO2 SLP073 T00610050 TSNO

2010/08/08 01:53
PASC 080153Z 07022G28KT 10SM OVC007 06/04 A2973 RMK AO2 PK WND 07028/0152 SLP067 T00560039

2010/08/08 01:53
PASI 080153Z 21006KT 10SM BKN022 OVC028 13/12 A2985 RMK AO2 SLP110 T01330117

2010/08/08 01:53
PASN 080153Z AUTO 14016G21KT 1 1/2SM RA BR BKN003 OVC011 08/08 A2942 RMK AO2 SLP964 P0008 T00830083 TSNO

2010/08/08 01:53
PASO 080153Z AUTO 36003KT 8SM -RA OVC039 12/11 A2977 RMK AO2 RAE00B27 SLP081 P0001 T01220111 TSNO

2010/08/08 01:53
PATK 080153Z AUTO 20007KT 10SM FEW030 OVC065 16/09 A2972 RMK AO2 SLP065 T01560094 TSNO

2010/08/08 01:53
PATO 080153Z AUTO VRB06KT 9SM -RA OVC031 12/10 A2977 RMK AO2 SLP082 P0001 T01170100 TSNO

2010/08/08 01:53
PAWD 080153Z AUTO 18003KT 8SM -RA BKN035 BKN050 12/11 A2976 RMK AO2 SLP079 P0006 T01170106 TSNO

2010/08/08 01:53
PAYA 080153Z 22003KT 10SM BKN012 BKN016 OVC029 15/11 A2982 RMK AO2 SLP099 BAY TWR WND 310MMKT T01500111

2010/08/08 01:53
PFYU 080153Z 26006KT 10SM SCT060 BKN100 20/ A2957

2010/08/08 01:53
PAAQ 080153Z 25004KT 10SM BKN020 BKN042 OVC065 14/11 A2975 RMK AO2 SLP069 T01390106

2010/08/08 01:53
PABE 080153Z 20008KT 10SM SCT010 BKN017 OVC070 12/10 A2971 RMK AO2 SLP062 T01220100

2010/08/08 01:53
PABI 080153Z 00000KT 10SM FEW020 SCT046 SCT075 BKN180 18/07 A2967 RMK AO2 SLP049 SHRA DSNT NW CB DSNT N-NE DSIPTD T01830067 $

2010/08/08 01:53
PABR 080153Z 08021G26KT 10SM OVC005 05/04 A2983 RMK AO2 PK WND 08027/0113 SLP101 T00500044

2010/08/08 01:53
PABT 080153Z 19004KT 10SM SCT022 BKN029 OVC049 15/12 A2960 RMK AO2 RAB41E47 SLP031 P0000 T01500117 $

2010/08/08 01:53
PACD 080153Z AUTO 14018G24KT 10SM -RA BKN003 12/11 A2978 RMK AO2 PK WND 14027/0113 RAB48 SLP084 P0000 T01170111 TSNO

2010/08/08 01:53
PACV 080153Z 09004KT 10SM FEW006 BKN027 OVC045 13/11 A2981 RMK AO2 SLP094 T01280111

2010/08/08 01:53
PADE 080153Z AUTO 29010KT 10SM OVC100 16/10 A2958 RMK AO2 SLP015 T01560100 TSNO $

2010/08/08 01:53
PAEG 080153Z AUTO 02006KT 10SM SCT044 BKN110 21/09 A2958 RMK AO2 SLP017 T02060094 TSNO

2010/08/08 01:53
PAEN 080153Z 20013KT 10SM -RA BKN027 14/12 A2975 RMK AO2 SLP074 P0002 T01390117 $

2010/08/08 01:53
PAFA 080153Z 00000KT 10SM FEW045 BKN075 BKN180 20/10 A2963 RMK AO2 SLP037 SH DSNT SE T02000100 $

2010/08/08 01:53
PAGK 080153Z 00000KT 10SM SCT045TCU BKN075 BKN110 18/09 A2965 RMK AO2 SLP040 TCU ALQDS SHRA DST E SE SW T01830089

2010/08/08 01:53
PAGY 080153Z AUTO 20013G19KT 10SM OVC050 14/09 A2978 RMK AO2 SLP084 T01440094 TSNO

2010/08/08 01:53
PAHO 080153Z 00000KT 10SM FEW010 SCT022 OVC047 12/11 A2978 RMK AO2 SLP083 T01170106

2010/08/08 01:53
PAIL 080153Z 23006KT 10SM OVC014 11/10 A2978 RMK AO2 SLP088 T01110100

2010/08/08 01:53
KCAG 080153Z AUTO 00000KT 10SM -RA OVC085 15/13 A3019 RMK AO2 SLP174 P0000 T01500128

2010/08/08 01:53
KCDC 080153Z AUTO VRB05G15KT 10SM CLR 23/08 A3003 RMK AO2 SLP090 T02330083

2010/08/08 01:53
KCDR 080153Z AUTO 12005KT 10SM CLR 28/14 A2977 RMK AO2 SLP050 T02780139

2010/08/08 01:53
KCDS 080153Z AUTO 15007KT 10SM CLR 29/20 A2984 RMK AO2 SLP075 T02940200

2010/08/08 01:53
KCDW 080153Z 00000KT 10SM CLR 24/17 A2998 RMK AO2 SLP156 T02390172

2010/08/08 01:53
KCEW 080153Z AUTO 00000KT 7SM CLR 24/24 A2992 RMK AO2 SLP127 T02440239

2010/08/08 01:53
KCEZ 080153Z AUTO 00000KT 8SM -RA BKN034 OVC080 18/16 A3017 RMK AO2 RAB43 SLP151 P0000 T01830156

2010/08/08 01:53
KCKB 080153Z 00000KT 10SM CLR 19/15 A3003 RMK AO2 SLP158 T01890150

2010/08/08 01:53
KCNY 080153Z AUTO 13008KT 10SM FEW090 18/15 A3006 RMK AO2 RAE32 SLP134 P0001 T01780150

2010/08/08 01:53
KCPR 080153Z 30011KT 10SM CLR 28/01 A2991 RMK AO2 PK WND 28028/0112 SLP050 T02780011

2010/08/08 01:53
KCRE 080153Z AUTO 00000KT 5SM BR BKN019 26/25 A2993 RMK AO2 SLP135 T02560250

2010/08/08 01:53
KCRG 080153Z AUTO 28004KT 10SM CLR 25/24 A2992 RMK AO2 RAE18 SLP133 P0000 T02500239

2010/08/08 01:53
KCRS 080153Z AUTO 16004KT 10SM CLR 31/22 A2982 RMK AO2 SLP092 T03110217

2010/08/08 01:53
KCSM 080153Z AUTO 15010KT 10SM CLR 33/19 A2987 RMK AO2 SLP082 T03330189

2010/08/08 01:53
KCUB 080153Z AUTO 00000KT 8SM CLR 28/24 A2995 RMK AO2 SLP137 T02780239

2010/08/08 01:53
KCYS 080153Z 17010KT 10SM -RA FEW055 OVC090 23/08 A3006 RMK AO2 PK WND 24032/0127 WSHFT 0124 RAB11 SLP091 P0000 T02280078 $

2010/08/08 01:53
KDAL 080153Z 16009KT 10SM FEW070 SCT280 35/22 A2980 RMK AO2 SLP084 FRQ LTGICCC CB DSNT NE CB TOP W HRZN T03500217

2010/08/08 01:53
KDEN 080153Z 04004KT 10SM FEW050 SCT080 BKN120 21/14 A2998 RMK AO2 TSE07RAE0055 SLP072 P0000 T02110144

2010/08/08 01:53
KDEQ 080153Z AUTO 00000KT 10SM CLR 28/24 A2981 RMK AO2 SLP089 T02780244

2010/08/08 01:53
KDET 080153Z 23006KT 10SM CLR 24/16 A2993 RMK AO2 SLP135 T02440161

2010/08/08 01:53
KDFI 080153Z AUTO 00000KT 10SM CLR 22/17 A2996 RMK AO2 SLP143 T02170167

2010/08/08 01:53
KDFW 080153Z 17010KT 10SM FEW060 SCT120 SCT250 34/20 A2980 RMK AO2 SLP081 T03440200 $

2010/08/08 01:53
KDGW 080153Z AUTO 20006KT 10SM FEW090 28/04 A2989 RMK AO2 SLP052 T02780044

2010/08/08 01:53
KDHN 080153Z AUTO 13004KT 9SM SCT085 24/23 A2998 RMK AO2 SLP146 T02440233 $

2010/08/08 01:53
KDKK 080153Z AUTO 00000KT 10SM BKN090 16/13 A2999 RMK AO2 SLP154 T01610128

2010/08/08 01:53
KDLN 080153Z AUTO 21003KT 10SM BKN110 18/08 A2993 RMK AO2 SLP090 T01780083 $

2010/08/08 01:53
KDRO 080153Z AUTO 22007KT 10SM -RA FEW075 OVC090 20/12 A3017 RMK AO2 RAB49 SLP138 P0000 T02000117

2010/08/08 01:53
KDTN 080153Z 15006KT 10SM CLR 29/24 A2984 RMK AO2 SLP100 T02940239

2010/08/08 01:53
KDTO 080153Z AUTO 16005KT 10SM CLR 33/20 A2980 RMK AO2 SLP081 T03280200

2010/08/08 01:53
KDTS 080153Z AUTO 36005KT 10SM CLR 28/25 A2989 RMK AO2 SLP120 T02780250

2010/08/08 01:53
KDTW 080153Z 20005KT 7SM FEW090 SCT200 23/17 A2994 RMK AO2 SLP135 T02280167 $

2010/08/08 01:53
KAAF 080153Z AUTO 00000KT 10SM CLR 27/26 A2992 RMK AO2 LTG DSNT NW SLP131 T02720256

2010/08/08 01:53
KABY 080153Z 13005KT 10SM FEW100 25/24 A2995 RMK AO2 TSE0055RAE17 SLP140 P0001 T02500239

2010/08/08 01:53
KACK 080153Z AUTO 16009KT 10SM CLR 19/17 A3003 RMK AO2 SLP170 T01890172 TSNO

2010/08/08 01:53
KADG 080153Z AUTO 24003KT 9SM CLR 22/16 A2996 RMK AO2 SLP143 T02220161

2010/08/08 01:53
KAFW 080153Z 18005KT 10SM FEW075 34/21 A2980 RMK AO2 SLP073 T03390206

2010/08/08 01:53
KAGC 080153Z 04003KT 10SM CLR 22/11 A3002 RMK AO2 SLP163 T02220111

2010/08/08 01:53
KAIA 080153Z AUTO 16005KT 10SM CLR 26/12 A2983 RMK AO2 SLP053 T02610117

2010/08/08 01:53
KAKO 080153Z AUTO 16012KT 10SM CLR 26/16 A2992 RMK AO2 PK WND 15026/0117 SLP068 T02610156 TSNO

2010/08/08 01:53
KAMG 080153Z AUTO 00000KT 9SM CLR 24/23 A2994 RMK AO2 SLP134 T02440228

2010/08/08 01:53
KAOH 080153Z AUTO 00000KT 10SM CLR 21/17 A2999 RMK AO2 SLP148 T02060167 $

2010/08/08 01:53
KMLT 080153Z AUTO 00000KT 10SM CLR 12/07 A2998 RMK AO2 SLP157 T01220072

2010/08/08 01:53
KMLU 080153Z 00000KT 10SM CLR 30/25 A2987 RMK AO2 SLP112 T03000250

2010/08/08 01:53
KMMK 080153Z AUTO 00000KT 10SM CLR 19/16 A2999 RMK AO2 SLP155 T01890161

2010/08/08 01:53
KMNN 080153Z AUTO 00000KT 10SM CLR 21/17 A3000 RMK AO2 SLP153 T02060167

2010/08/08 01:53
KMPO 080153Z AUTO 00000KT 10SM CLR 17/11 A3005 RMK AO2 SLP169 T01670111 $

2010/08/08 01:53
KMSO 080153Z 31011KT 10SM CLR 27/04 A2978 RMK AO2 SLP065 T02720044

2010/08/08 01:53
KMSS 080153Z AUTO 20004KT 10SM CLR 14/09 A2995 RMK AO2 SLP141 T01440089

2010/08/08 01:53
KMTH 080153Z AUTO 00000KT 10SM CLR 30/24 A2996 RMK AO2 SLP146 T03000244

2010/08/08 01:53
KMTJ 080153Z AUTO 00000KT 10SM -RA BKN020 17/16 A3016 RMK AO2 LTG DSNT E TSB14E31 SLP146 P0014 T01720156

2010/08/08 01:53
KMVY 080153Z AUTO 00000KT 10SM CLR 20/17 A3003 RMK AO2 SLP166 T02000167

2010/08/08 01:53
KMWL 080153Z AUTO 15007KT 10SM CLR 32/20 A2981 RMK AO2 SLP077 T03220200

2010/08/08 01:53
KMYV 080153Z AUTO 18012KT 10SM CLR 31/12 A2968 RMK AO2 SLP053 T03110122

2010/08/08 01:53
KODO 080153Z AUTO 16009KT 10SM CLR 33/12 A2990 RMK AO2 SLP070 T03330122 $

2010/08/08 01:53
KOGB 080153Z AUTO 00000KT 7SM CLR 27/25 A2994 RMK AO2 SLP134 T02670250

2010/08/08 01:53
KOGD 080153Z AUTO 14011G18KT 10SM CLR 27/06 A2989 RMK AO2 SLP056 T02670061

2010/08/08 01:53
KOLF 080153Z AUTO 00000KT 10SM CLR 28/13 A2966 RMK AO2 SLP035 T02780128

2010/08/08 01:53
KONO 080153Z AUTO 16003KT 10SM CLR 28/15 A2972 RMK AO2 SLP048 T02830150

2010/08/08 01:53
KOPF 080153Z AUTO 12003KT 10SM CLR 27/24 A2998 RMK AO2 SLP152 T02670244

2010/08/08 01:53
KORL 080153Z 20003KT 10SM CLR 28/26 A2994 RMK AO2 SLP140 T02780256

2010/08/08 01:53
KOSU 080153Z 00000KT 10SM CLR 22/15 A2999 RMK AO2 SLP149 T02220150

2010/08/08 01:53
KOWD 080153Z 00000KT 10SM CLR 15/10 A3000 RMK AO2 SLP159 T01500100 $

2010/08/08 01:53
KOXB 080153Z AUTO 14003KT 10SM CLR 24/23 A2999 RMK AO2 SLP155 T02390228

2010/08/08 01:53
KPBG 080153Z AUTO 00000KT 10SM CLR 13/11 A2996 RMK AO2 SLP146 T01280111

2010/08/08 01:53
KPBI 080153Z 22003KT 10SM BKN250 27/24 A2995 RMK AO2 SLP142 T02720237 $

2010/08/08 01:53
KPEO 080153Z AUTO 00000KT 10SM CLR 14/11 A3001 RMK AO2 SLP161 T01390111 $

2010/08/08 01:53
KPGD 080153Z AUTO 27004KT 10SM CLR 29/23 A2998 RMK AO2 SLP151 T02890233 TSNO

2010/08/08 01:53
KPHD 080153Z AUTO 00000KT 10SM CLR 19/16 A3002 RMK AO2 SLP159 T01890156

2010/08/08 01:53
KPIE 080153Z 23004KT 10SM CLR 28/25 A2994 RMK AO2 SLP138 T02830250

2010/08/08 01:53
KPIH 080153Z 26012KT 10SM CLR 27/08 A2986 RMK AO2 SLP063 T02720083

2010/08/08 01:53
KPKB 080153Z AUTO 00000KT 10SM CLR 21/18 A3003 RMK AO2 SLP162 T02060178

2010/08/08 01:53
KPMP 080153Z AUTO 19004KT 10SM RA CLR 27/25 A2997 RMK AO2 SLP148 P0000 T02670250

2010/08/08 01:53
KPNS 080153Z 34003KT 10SM -TSRA BKN065 25/23 A2990 RMK AO2 SLP124 P0000 T02500233 $

2010/08/08 01:53
KPOU 080153Z AUTO 14004KT 10SM CLR 18/12 A2997 RMK AO2 SLP144 T01780122 TSNO

2010/08/08 01:53
KLAA 080153Z AUTO VRB03KT 10SM CLR 23/18 A2986 RMK AO2 LTG DSNT N TSE37RAE0056 SLP062 P0000 T02330178

2010/08/08 01:53
KLAN 080153Z 22006KT 10SM BKN110 23/17 A2993 RMK AO2 SLP131 T02280167

2010/08/08 01:53
KLAR 080153Z AUTO 25008KT 10SM CLR 19/07 A3014 RMK AO2 SLP097 T01890067

2010/08/08 01:53
KLAW 080153Z AUTO 15006KT 10SM CLR 33/21 A2981 RMK AO2 SLP081 T03330206

2010/08/08 01:53
KLBB 080153Z 16007KT 10SM FEW100 SCT250 31/16 A2991 RMK AO2 SLP070 CB DSNT NE T03060161 $

2010/08/08 01:53
KLEB 080153Z AUTO 00000KT 10SM CLR 13/09 A2998 RMK AO2 SLP148 T01330094

2010/08/08 01:53
KLEE 080153Z AUTO 00000KT 10SM CLR 29/26 A2994 RMK AO2 RAB03E14 SLP137 P0000 T02890261 TSNO

2010/08/08 01:53
KLHQ 080153Z AUTO 00000KT 10SM CLR 19/17 A3000 RMK AO2 SLP152 T01890167

2010/08/08 01:53
KLHX 080153Z AUTO 23006KT 10SM CLR 27/14 A2987 RMK AO2 TSE08RAE25 SLP047 P0000 T02720144 $

2010/08/08 01:53
KLNS 080153Z 07003KT 10SM FEW090 23/17 A2998 RMK AO2 SLP149 T02280167

2010/08/08 01:53
PAJN 080153Z 06008KT 4SM -RA BR FEW005 BKN024 OVC040 12/12 A2983 RMK AO2 SLP100 MTNS OBSCD ALQDS P0002 T01220117

2010/08/08 01:53
PAKT 080153Z 12004KT 10SM FEW013 OVC024 14/12 A2989 RMK AO2 SLP122 HARBOR WIND 09006KT T01440117

2010/08/08 01:53
PAKV 080153Z AUTO 00000KT 3SM RA BR BKN020 BKN032 OVC049 14/13 A2965 RMK AO2 SLP043 P0010 T01390128 TSNO

2010/08/08 01:53
PAKW 080153Z AUTO 22004KT 10SM BKN026 OVC032 13/12 A2987 RMK AO2 SLP115 T01280117 TSNO

2010/08/08 01:53
PALH 080153Z VRB04KT 6SM -RA BR FEW013 BKN026 OVC048 13/11 A2976 RMK AO2 SLP077 P0003 T01330111

2010/08/08 01:53
PAMC 080153Z 18003KT 10SM SCT029 OVC050 13/10 A2969 RMK AO2 RAE27 SLP057 P0000 T01330100

2010/08/08 01:53
PAMR 080153Z 19006KT 4SM -RA BR SCT011 BKN023 OVC044 13/11 A2975 RMK AO2 SLP074 P0003 T01280111 $

2010/08/08 01:53
PANC 080153Z 19005KT 7SM -RA FEW009 BKN020 OVC050 13/12 A2974 RMK AO2 SLP072 P0003 T01280117

2010/08/08 01:53
PANN 080153Z AUTO VRB03KT 10SM CLR 21/08 A2962 RMK AO2 SLP033 T02060083 TSNO

2010/08/08 01:53
PANT 080153Z AUTO 24004KT 10SM OVC028 16/11 A2989 RMK AO2 SLP122 T01560111 TSNO

2010/08/08 01:53
PAOM 080153Z 23008KT 10SM FEW010 SCT020 SCT055 13/11 A2959 RMK AO2 SLP022 T01330111

2010/08/08 01:53
PAOR 080153Z 31004KT 10SM SCT045 BKN140 BKN250 19/08 A2964 RMK AO2 SLP036 SHRA DSNT S T01940083

2010/08/08 01:54
KRST 080154Z 19006KT 9SM CLR 24/22 A2977 RMK AO2 SLP075 T02440222

2010/08/08 01:55
KRUT 080155Z 13005KT 10SM CLR 14/09 A3000 RMK AO1

2010/08/08 01:54
KSBY 080154Z 00000KT 10SM CLR 23/21 A2999 RMK AO2 SLP158 T02280211

2010/08/08 01:55
KSDY 080155Z AUTO 31005KT 10SM CLR 26/14 A2969 RMK AO1

2010/08/08 01:54
KSET 080154Z AUTO 00000KT 7SM CLR 24/21 A2989 RMK AO2 SLP117 T02390206

2010/08/08 01:55
KSFM 080155Z 00000KT 10SM CLR 13/12 A3000 RMK AO1

2010/08/08 01:55
KSFZ 080155Z 00000KT 10SM CLR 14/13 A3000 RMK AO1

2010/08/08 01:55
KSGT 080155Z 13004KT CLR 28/24 A2988 RMK AO1

2010/08/08 01:55
KSGU 080155Z AUTO 07011KT 10SM VCTS SCT100 SCT120 27/14 A2988 RMK AO1 LTG DSNT S TSB35

2010/08/08 01:54
KSJN 080154Z AUTO 27007KT 10SM SCT012 SCT016 OVC021 17/15 A3016 RMK AO2 SLP134 T01720150 $

2010/08/08 01:55
KSKX 080155Z AUTO 00000KT 10SM FEW120 24/07 A3013 RMK AO1 LTG DSNT NE

2010/08/08 01:55
KSLG 080155Z AUTO 14006KT 10SM CLR 26/22 A2989 RMK AO1

2010/08/08 01:55
KSMN 080155Z AUTO 13011KT 10SM SCT120 24/07 A2983 RMK AO1 TSE0058

2010/08/08 01:55
KSQI 080155Z AUTO 17003KT 10SM CLR 23/19 A2990 RMK AO1

2010/08/08 01:55
KSUE 080155Z AUTO 21007KT 7SM VCTS FEW070 BKN110 23/20 A2979 RMK AO1 LTG DSNT N TSB31E46B47

2010/08/08 01:54
KSUS 080154Z 14004KT 10SM CLR 26/20 A2988 RMK AO2 SLP111 T02610200

2010/08/08 01:54
KSYR 080154Z 00000KT 10SM SCT250 17/13 A2998 RMK AO2 SLP149 T01670133

2010/08/08 01:54
KTAD 080154Z AUTO 12003KT 10SM CLR 21/15 A3002 RMK AO2 LTG DSNT W SLP086 T02110150

2010/08/08 01:55
KTPL 080155Z 17008KT 10SM CLR 31/21 A2985 RMK AO1

2010/08/08 01:54
KTQE 080154Z AUTO 15006KT 10SM CLR 26/23 A2973 RMK AO2 SLP055 T02560228

2010/08/08 01:55
KTVF 080155Z AUTO 06006KT 10SM CLR 23/19 A2965 RMK AO1

2010/08/08 01:56
KUCP 080156Z AUTO 00000KT 10SM CLR 18/13 A3002 RMK AO2 T01770127 SLP177

2010/08/08 01:54
KUIN 080154Z AUTO 14003KT 9SM CLR 25/22 A2989 RMK AO2 SLP115 T02500217

2010/08/08 01:54
KUZA 080154Z AUTO 00000KT 7SM CLR 24/21 A2998 RMK AO2 SLP139 T02390206

2010/08/08 01:54
KVAY 080154Z AUTO 00000KT 10SM CLR 21/16 A2998 RMK AO2 SLP151 T02060161

2010/08/08 01:55
KVBT 080155Z AUTO 00000KT 10SM CLR 27/22 A2987 RMK AO1

2010/08/08 01:55
KVIS 080155Z AUTO 34005KT 10SM CLR 34/10 A2969 RMK AO1

2010/08/08 01:54
KVSF 080154Z AUTO 00000KT 10SM CLR 14/11 A3001 RMK AO2 SLP164 T01390111

2010/08/08 01:54
KVTA 080154Z AUTO 00000KT 10SM CLR 19/17 A2999 RMK AO2 SLP151 T01940172

2010/08/08 01:50
KWDG 080150Z 13009KT 10SM FEW200 32/21 A2979 RMK/LAST

2010/08/08 01:54
KWLD 080154Z AUTO 13006KT 10SM CLR 30/21 A2983 RMK AO2 SLP088 T03000206

2010/08/08 01:55
KWVL 080155Z AUTO 00000KT 10SM CLR 12/08 A2996 RMK AO1

2010/08/08 01:55
KWWD 080155Z AUTO 15006KT 10SM CLR 23/22 A3000 RMK AO1

2010/08/08 01:55
KYKN 080155Z AUTO 16010KT 10SM CLR 29/24 A2967 RMK AO1

2010/08/08 01:55
KFAM 080155Z AUTO 09003KT 10SM CLR 26/20 A2995 RMK AO1

2010/08/08 01:54
KFIG 080154Z AUTO 35005KT 10SM CLR 16/13 A3004 RMK AO2 SLP169 T01560128

2010/08/08 01:55
KFKL 080155Z AUTO 00000KT 10SM CLR 17/11 A3006 RMK AO1

2010/08/08 01:55
KFLP 080155Z AUTO 12003KT 10SM CLR 27/22 A2988 RMK AO1

2010/08/08 01:55
KFNL 080155Z AUTO 36010KT 10SM BKN120 26/09 A2994 RMK AO1

2010/08/08 01:55
KFOD 080155Z AUTO 19009KT 10SM CLR 26/23 A2978 RMK AO1

2010/08/08 01:55
KFRM 080155Z 18007KT 10SM CLR 26/21 A2976 RMK AO1

2010/08/08 01:50
KFTG 080150Z 02003KT 20SM SCT100 SCT250 22/13 A2999 RMK TS DSNT NE-SE

2010/08/08 01:55
KGAD 080155Z AUTO 00000KT 10SM BKN070 26/22 A2992 RMK AO1

2010/08/08 01:55
KGAI 080155Z 00000KT 10SM CLR 24/14 A3001 RMK AO1

2010/08/08 01:55
KGBD 080155Z AUTO 16012KT 10SM CLR 31/19 A2981 RMK AO1

2010/08/08 01:54
KGCK 080154Z AUTO 14018G24KT 10SM FEW095 29/18 A2984 RMK AO2 PK WND 13028/0129 SLP066 T02940183

2010/08/08 01:54
KGCN 080154Z 16004KT 10SM CLR 18/11 A3018 RMK AO2 SLP134 T01780111

2010/08/08 01:55
KGDV 080155Z AUTO 26005KT 10SM FEW120 27/11 A2972 RMK AO1

2010/08/08 01:54
KGED 080154Z AUTO 14004KT 10SM CLR 23/21 A2999 RMK AO2 SLP156 T02330206

2010/08/08 01:55
KGPZ 080155Z AUTO 13005KT 10SM SCT039 BKN045 OVC070 23/18 A2968 RMK AO1

2010/08/08 01:55
KGTR 080155Z 00000KT 10SM CLR 27/25 A2990 RMK AO1

2010/08/08 01:50
KGTU 080150Z 16005KT 10SM CLR 33/18 A2988

2010/08/08 01:55
KGUC 080155Z AUTO 23005KT 10SM BKN085 19/08 A3021 RMK AO1 LTG DSNT SW

2010/08/08 01:55
KGXY 080155Z AUTO 17006KT 10SM OVC120 28/08 A2995 RMK AO1

2010/08/08 01:55
KHDN 080155Z 28007KT 10SM OVC090 14/10 A3020 RMK AO1

2010/08/08 01:55
KHEF 080155Z AUTO 00000KT 10SM CLR 20/17 A2998 RMK AO1

2010/08/08 01:55
KHEZ 080155Z AUTO 00000KT 10SM CLR 27/23 A2990 RMK AO1

2010/08/08 01:55
KHNB 080155Z AUTO 00000KT 10SM CLR 21/18 A2995 RMK AO1

2010/08/08 01:54
KHWD 080154Z 29012G20KT 10SM CLR 17/12 A2982 RMK AO2 SLP107 T01670122 $

2010/08/08 01:55
KHYI 080155Z AUTO 15008KT 10SM CLR 31/22 A2985 RMK AO1

2010/08/08 01:55
KHYS 080155Z AUTO 18013G19KT 10SM CLR 32/19 A2980 RMK AO1

2010/08/08 01:55
KILE 080155Z AUTO 17007KT 10SM CLR 32/19 A2984 RMK AO1

2010/08/08 01:54
KILN 080154Z AUTO 11004KT 10SM CLR 20/16 A2999 RMK AO2 SLP149 T02000161

2010/08/08 01:54
KIMT 080154Z AUTO 19008KT 10SM -RA SCT100 21/19 A2978 RMK AO2 LTG DSNT S AND SW RAE0058B51 SLP082 P0000 T02060194

2010/08/08 01:54
KIND 080154Z 22004KT 10SM CLR 24/16 A2994 RMK AO2 SLP132 T02440161

2010/08/08 01:54
KINT 080154Z 06003KT 10SM CLR 24/18 A3001 RMK AO2 SLP151 T02390178

2010/08/08 01:54
KIPT 080154Z 00000KT 10SM FEW075 20/14 A2998 RMK AO2 SLP151 T02000139

2010/08/08 01:54
KISW 080154Z AUTO 21010KT 10SM CLR 24/21 A2981 RMK AO2 SLP089 T02440206 TSNO

2010/08/08 01:48
KIWA 080148Z 24004KT 45SM FEW080 SCT120 BKN200 37/13 A2978

2010/08/08 01:55
KIWD 080155Z AUTO 22006KT 9SM TS SCT025 BKN032 OVC039 22/19 A2973 RMK AO1 LTG DSNT W TSB40 P0007

2010/08/08 01:54
KIZG 080154Z AUTO 29003KT 10SM CLR 11/09 A3000 RMK AO2 SLP159 T01060094

2010/08/08 01:55
KJHW 080155Z AUTO 18003KT 10SM CLR 16/11 A3003 RMK AO1

2010/08/08 01:54
KJST 080154Z AUTO 01003KT 10SM CLR 19/12 A3006 RMK AO2 SLP169 T01890117

2010/08/08 01:55
KKLS 080155Z AUTO 31003KT 8SM SCT007 BKN021 OVC046 18/16 A2992 RMK AO1

2010/08/08 01:54
KLAF 080154Z AUTO 00000KT 10SM CLR 23/19 A2994 RMK AO2 SLP135 T02280194

2010/08/08 01:55
KLBL 080155Z 15011KT 10SM BKN100 33/16 A2986 RMK AO1

2010/08/08 01:54
KLBT 080154Z AUTO 00000KT 7SM CLR 26/23 A2993 RMK AO2 SLP134 T02560233 $

2010/08/08 01:55
KLCI 080155Z AUTO 00000KT 10SM CLR 15/08 A2998 RMK AO1

2010/08/08 01:55
KLEW 080155Z 00000KT 10SM CLR 12/10 A3001 RMK AO1

2010/08/08 01:54
KLEX 080154Z 00000KT 10SM CLR 24/14 A2999 RMK AO2 SLP145 T02390139

2010/08/08 01:55
KLGD 080155Z AUTO 33010KT 10SM CLR 26/07 A2980 RMK AO1

2010/08/08 01:55
KLKV 080155Z AUTO 28007KT 10SM CLR 27/M01 A2991 RMK AO1

2010/08/08 01:54
KLNK 080154Z 17007KT 10SM CLR 28/22 A2976 RMK AO2 SLP064 T02780222

2010/08/08 01:55
KLPC 080155Z AUTO 28011KT 10SM CLR 16/11 A2987 RMK AO1 PNO

2010/08/08 01:54
KLWM 080154Z 00000KT 10SM CLR 19/07 A3002 RMK AO2 SLP164 T01890072

2010/08/08 01:54
KLWT 080154Z AUTO 14003KT 10SM CLR 24/10 A2981 RMK AO2 SLP059 T02440100

2010/08/08 01:54
KLYH 080154Z 00000KT 10SM CLR 20/18 A3003 RMK AO2 SLP159 T02000178

2010/08/08 01:54
KMOT 080154Z 00000KT 10SM CLR 27/18 A2964 RMK AO2 SLP028 T02720183

2010/08/08 01:55
KMRF 080155Z AUTO 01007KT 10SM CLR 26/12 A3003 RMK AO1

2010/08/08 01:54
KMRY 080154Z 24009KT 10SM OVC008 14/11 A2987 RMK AO2 SLP127 T01390106

2010/08/08 01:55
KMSV 080155Z AUTO 00000KT 10SM CLR 16/11 A3003 RMK AO1

2010/08/08 01:55
KMTW 080155Z 21007KT 10SM FEW090 SCT120 24/18 A2982 RMK AO1

2010/08/08 01:54
KMVL 080154Z AUTO 00000KT 10SM CLR 11/09 A3001 RMK AO2 SLP165 T01060094

2010/08/08 01:55
KMVN 080155Z AUTO 00000KT 5SM CLR 20/18 A2994 RMK AO1

2010/08/08 01:55
KOCH 080155Z AUTO 00000KT 10SM CLR 31/22 A2984 RMK AO1

2010/08/08 01:54
KOFP 080154Z AUTO 00000KT 10SM CLR 22/17 A3000 RMK AO2 SLP158 T02220167

2010/08/08 01:55
KOKK 080155Z AUTO 00000KT 10SM CLR 22/16 A2996 RMK AO1

2010/08/08 01:54
KOLM 080154Z 22005KT 10SM BKN017 OVC070 18/16 A2991 RMK AO2 SLP129 T01780161

2010/08/08 01:54
KOLS 080154Z AUTO 30004KT 10SM VCTS SCT100 26/18 A2999 RMK AO2 LTG DSNT ALQDS TSB52 SLP092 T02560183

2010/08/08 01:55
KOLU 080155Z AUTO 17006KT 10SM CLR 28/22 A2975 RMK AO1

2010/08/08 01:54
KORH 080154Z AUTO 00000KT 10SM CLR 19/09 A3003 RMK AO2 SLP167 LAST AUGMENTED OBS T01890089

2010/08/08 01:55
KOTG 080155Z AUTO 19011KT 10SM BKN043 26/18 A2973 RMK AO1

2010/08/08 01:55
KOTH 080155Z 33007KT 10SM FEW006 BKN018 17/14 A2998 RMK AO1

2010/08/08 01:54
KPHF 080154Z AUTO 00000KT 10SM CLR 23/21 A2998 RMK AO2 SLP151 T02280206 TSNO

2010/08/08 01:54
KPHL 080154Z 00000KT 10SM FEW250 26/17 A2998 RMK AO2 SLP151 T02560167 $

2010/08/08 01:54
KPIA 080154Z 20003KT 10SM CLR 24/18 A2990 RMK AO2 SLP121 T02440183

2010/08/08 01:55
KPIB 080155Z AUTO 26004KT 10SM VCTS OVC050 29/23 A2993 RMK AO1 LTG DSNT SW TSB08B12B18E23B44B52

2010/08/08 01:54
KPLN 080154Z AUTO 00000KT 10SM BKN100 19/17 A2982 RMK AO2 SLP098 T01890167

2010/08/08 01:54
KPNE 080154Z 15004KT 10SM CLR 24/15 A2999 RMK AO2 SLP154 T02390150

2010/08/08 01:55
KPQI 080155Z AUTO 00000KT 10SM CLR 11/06 A2991 RMK AO1

2010/08/08 01:55
KPRX 080155Z 35008KT 10SM VCTS SCT070 BKN080 OVC100 29/24 A2984 RMK AO1 LTG DSNT ALQDS TSB0159E28B32

2010/08/08 01:54
KPSF 080154Z AUTO 00000KT 10SM CLR 14/10 A3002 RMK AO2 SLP148 T01440100

2010/08/08 01:55
KPTN 080155Z AUTO 21005KT 10SM CLR 28/16 A2993 RMK AO1

2010/08/08 01:55
KPTV 080155Z AUTO 33007KT 10SM CLR 33/12 A2972 RMK AO1

2010/08/08 01:54
KPTW 080154Z AUTO 00000KT 10SM CLR 22/16 A2999 RMK AO2 SLP152 T02170161

2010/08/08 01:55
KPVC 080155Z 19007KT 10SM CLR 19/15 A3002 RMK AO1

2010/08/08 01:55
KPWG 080155Z AUTO 16006KT 10SM CLR 32/19 A2984 RMK AO1

2010/08/08 01:55
KPWT 080155Z AUTO 18009KT 10SM FEW075 BKN110 16/13 A2992 RMK AO1

2010/08/08 01:54
KRBL 080154Z AUTO 17016KT 10SM CLR 33/13 A2966 RMK AO2 SLP038 T03280133

2010/08/08 01:54
KRDG 080154Z 00000KT 10SM FEW090 24/16 A2998 RMK AO2 SLP153 T02440156

2010/08/08 01:55
KRKD 080155Z AUTO 00000KT 10SM CLR 13/11 A3001 RMK AO1

2010/08/08 01:54
KRKS 080154Z AUTO 17016G24KT 10SM CLR 19/05 A3009 RMK AO2 PK WND 16026/0136 SLP117 T01890050

2010/08/08 01:54
KROC 080154Z 22003KT 10SM FEW080 17/12 A2998 RMK AO2 SLP152 T01720117 $

2010/08/08 01:54
KDYL 080154Z AUTO 00000KT 10SM CLR 21/15 A2998 RMK AO2 SLP147 T02110150 TSNO

2010/08/08 01:55
KDYR 080155Z AUTO 00000KT 10SM CLR 25/18 A2990 RMK AO1

2010/08/08 01:55
KEAR 080155Z AUTO 16005KT 10SM CLR 27/23 A2980 RMK AO1

2010/08/08 01:54
KECG 080154Z AUTO 09004KT 7SM BKN007 BKN100 25/24 A2997 RMK AO2 SLP149 T02500244

2010/08/08 01:55
KEEN 080155Z AUTO 00000KT 10SM CLR 14/10 A3001 RMK AO1

2010/08/08 01:55
KEGE 080155Z AUTO 27008KT 10SM OVC100 20/11 A3017 RMK AO1

2010/08/08 01:55
KEHR 080155Z AUTO 00000KT 10SM CLR 22/16 A2994 RMK AO1

2010/08/08 01:55
KENV 080155Z AUTO 15026G33KT 10SM CLR 29/06 A2977 RMK AO1

2010/08/08 01:55
KESC 080155Z AUTO 22005KT 10SM FEW120 23/19 A2977 RMK AO1 LTG DSNT S

2010/08/08 01:54
KEUG 080154Z 01010KT 10SM SCT055 BKN065 BKN120 26/14 A2987 RMK AO2 WSHFT 0127 SLP113 T02560144

2010/08/08 01:55
KEUL 080155Z AUTO 04005KT 10SM CLR 30/09 A2975 RMK AO1

2010/08/08 01:54
KEVV 080154Z 00000KT 10SM CLR 24/17 A2994 RMK AO2 SLP135 T02390172

2010/08/08 01:55
KEWK 080155Z AUTO 16009KT 10SM CLR 31/19 A2980 RMK AO1

2010/08/08 01:54
KEWN 080154Z AUTO 09003KT 8SM SCT024 27/24 A2996 RMK AO2 SLP145 T02670244

2010/08/08 01:55
KMBL 080155Z AUTO 21005KT 10SM BKN100 24/18 A2984 RMK AO1

2010/08/08 01:54
KMFI 080154Z AUTO 19007KT 10SM FEW039 24/21 A2979 RMK AO2 LTG DSNT E SLP082 T02390206

2010/08/08 01:54
KMGJ 080154Z AUTO 00000KT 10SM CLR 16/13 A2998 RMK AO2 SLP150 T01610128

2010/08/08 01:54
KMIV 080154Z AUTO 00000KT 10SM CLR 22/18 A2998 RMK AO2 SLP149 T02170183

2010/08/08 01:55
KMJX 080155Z AUTO 00000KT 10SM CLR 19/16 A2999 RMK AO1

2010/08/08 01:54
KMKC 080154Z 16008KT 10SM CLR 29/22 A2983 RMK AO2 SLP091 T02940217

2010/08/08 01:55
KMKT 080155Z AUTO 20007KT 10SM CLR 26/22 A2971 RMK AO1

2010/08/08 01:55
KMML 080155Z AUTO 20011KT 10SM CLR 27/23 A2965 RMK AO1

2010/08/08 01:55
KMNM 080155Z AUTO 00000KT 10SM VCTS FEW023 SCT085 BKN120 21/18 A2978 RMK AO1 LTG DSNT ALQDS TSB0056 P0061

2010/08/08 01:50
EGCN 080150Z 33007KT CAVOK 13/12 Q1020

2010/08/08 01:53
PTKK 080153Z 13008KT 15SM SCT014CB BKN120 OVC280 31/26 A2978 RMK CB ALQDS MOV NW SLP084 T03110256

2010/08/08 01:50
EBAW 080150Z AUTO 26006KT CAVOK 16/14 Q1016

2010/08/08 01:50
EBBR 080150Z 26003KT 230V290 9999 BKN047 16/14 Q1016 NOSIG

2010/08/08 01:50
EBCI 080150Z 26005KT 9999 FEW011 SCT033 14/12 Q1016 NOSIG

2010/08/08 01:50
EBLG 080150Z 31003KT 280V350 9999 BKN033 15/14 Q1016 TEMPO 5000 -SHRA BR BKN012

2010/08/08 01:50
EBOS 080150Z 23005KT 8000 FEW009 SCT014 16/13 Q1016 TEMPO BKN009

2010/08/08 01:50
ELLX 080150Z AUTO VRB04KT 9999 NDV 17/12 Q1016

2010/08/08 01:50
BGBW 080150Z AUTO 34001KT 9999NDV FEW075/// SCT090/// BKN220/// 13/07 Q1014

2010/08/08 01:50
BGGH 080150Z AUTO 21010KT 9999NDV OVC071/// 12/06 Q1012

2010/08/08 01:50
BGJN 080150Z AUTO 02002KT 9999NDV NCD 08/02 Q1016

2010/08/08 01:50
BGSS 080150Z AUTO 07009KT 040V120 9999NDV NCD 17/07 Q1012

2010/08/08 01:50
BGAA 080150Z AUTO 06004KT 9999NDV NCD 09/05 Q1016

2010/08/08 01:50
BGMQ 080150Z AUTO 06013KT 030V100 9999NDV NCD 18/03 Q1011

2010/08/08 01:50
BGUK 080150Z AUTO 12005KT 090V150 9999NDV ///040/// 10/07 Q1017 RMK /// 

2010/08/08 01:50
BGQQ 080150Z AUTO 14009KT 100V170 9999NDV RA ///012/// ///023/// 04/03 Q1014 RMK /// /// 

2010/08/08 01:50
BGPT 080150Z AUTO 13002KT //// BKN062/// 11/07 Q1010

2010/08/08 01:50
LOWW 080150Z 26006KT 9999 FEW014 SCT030 BKN055 16/14 Q1016 NOSIG

2010/08/08 01:50
LOWL 080150Z AUTO 28003KT 250V310 6000 BR FEW110 13/13 Q1018

2010/08/08 01:50
LOWS 080150Z 17007KT 9999 FEW060 13/11 Q1019

2010/08/08 01:50
LOWI 080150Z VRB01KT 9999 FEW009 SCT035 11/10 Q1021 NOSIG

2010/08/08 01:50
LOWG 080150Z VRB01KT 0350 R17/0550N R35/0650N FG VV002 15/15 Q1018 NOSIG

2010/08/08 01:50
LOWK 080150Z 30003KT 9999 FEW007 BKN012 15/14 Q1019

2010/08/08 01:52
K9V9 080152Z AUTO 00000KT 31/19 A2967 RMK AO2 SLP031 T03060194 PWINO TSNO

2010/08/08 01:52
KABI 080152Z 16004KT 10SM CLR 31/21 A2986 RMK AO2 SLP081 T03060206 $

2010/08/08 01:52
KCZZ 080152Z AUTO 22011KT 22/10 A2985 RMK AO2 SLP083 T02170100 PWINO TSNO

2010/08/08 01:52
KP69 080152Z AUTO 35004KT 24/14 A2972 RMK AO2 SLP047 T02390139 PWINO TSNO

2010/08/08 01:53
KP68 080153Z AUTO 20010KT 28/M17 A2990 RMK AO2 SLP041 T02831167 PWINO TSNO

2010/08/08 01:53
KRNM 080153Z 27009KT 10SM CLR 19/12 A2986 RMK AO2 SLP103 T01940117

2010/08/08 01:51
KVCT 080151Z 16008KT 10SM CLR 28/25 A2987 RMK AO2 SLP112 T02830250 PNO $

2010/08/08 01:53
KOQT 080153Z AUTO 00000KT 10SM CLR 24/19 A2998 RMK AO2 SLP134 T02440194 TSNO

2010/08/08 01:53
KMSY 080153Z 18004KT 10SM SCT055 SCT250 29/25 A2989 RMK AO2 SLP126 T02940250

2010/08/08 01:53
KLND 080153Z AUTO 34014G17KT 10SM SCT120 26/01 A2994 RMK AO2 SLP063 T02610011

2010/08/08 01:53
KCHA 080153Z 33003KT 10SM SCT070 SCT150 29/21 A2993 RMK AO2 SLP127 ACFT MSHP T02890211

2010/08/08 01:53
KSGR 080153Z 17006KT 10SM CLR 29/24 A2986 RMK AO2 SLP120 T02890239

2010/08/08 01:53
KCTY 080153Z AUTO 00000KT 25/24 A2993 RMK AO2 SLP133 P0001 T02500244 PWINO TSNO

2010/08/08 01:53
KFAR 080153Z 01003KT 10SM CLR 27/22 A2960 RMK AO2 SLP020 T02670222

2010/08/08 01:53
KMWT 080153Z AUTO 00000KT 10SM CLR 27/25 A2985 RMK AO2 SLP098 T02670250 TSNO

2010/08/08 01:53
KLAX 080153Z 26010KT 10SM FEW010 17/12 A2985 RMK AO2 SLP108 T01720117

2010/08/08 01:53
KSDM 080153Z 29005KT 10SM CLR 17/12 A2987 RMK AO2 SLP111 T01720122 $

2010/08/08 01:53
KP92 080153Z AUTO 23004KT 31/25 A2990 RMK AO2 SLP125 T03060250 PWINO TSNO

2010/08/08 01:53
KOVE 080153Z AUTO 16010KT 10SM CLR 33/11 A2969 RMK AO2 SLP054 T03280106 TSNO $

2010/08/08 01:53
KMCN 080153Z AUTO 00000KT 9SM CLR 27/24 A2993 RMK AO2 SLP131 T02720244 TSNO

2010/08/08 01:53
KBTR 080153Z 23008KT 10SM FEW250 30/24 A2987 RMK AO2 SLP114 T03000244

2010/08/08 01:53
KTUP 080153Z 00000KT 8SM CLR 28/25 A2989 RMK AO2 SLP117 T02830250

2010/08/08 01:53
KTRI 080153Z 00000KT 9SM CLR 22/16 A3000 RMK AO2 SLP142 T02220156

2010/08/08 01:53
KTCS 080153Z AUTO 20010KT 10SM CLR 31/09 A2997 RMK AO2 SLP053 T03110089 TSNO

2010/08/08 01:53
KMGM 080153Z 18005KT 10SM FEW050 SCT095 BKN150 BKN250 29/23 A2990 RMK AO2 SLP123 FRQ LTGICCC DSNT SW-W CB DSNT SW-W T02890233

2010/08/08 01:53
KTYS 080153Z 03004KT 10SM CLR 27/18 A2995 RMK AO2 SLP129 T02670178

2010/08/08 01:53
KLXV 080153Z AUTO 03005KT 10SM SCT075 14/05 A3034 RMK AO2 RAB08E22 SLP112 P0000 T01390050 TSNO

2010/08/08 01:53
KSAV 080153Z 25003KT 10SM FEW030 SCT070 27/24 A2992 RMK AO2 SLP132 T02720244

2010/08/08 01:53
KTLH 080153Z 00000KT 10SM SCT049 SCT070 BKN100 25/23 A2994 RMK AO2 SLP137 T02500233

2010/08/08 01:53
KCUT 080153Z AUTO 05005KT 10SM CLR 22/11 A2997 RMK AO2 SLP078 T02170111 TSNO

2010/08/08 01:54
KBTV 080154Z 00000KT 10SM CLR 14/11 A2997 RMK AO2 SLP148 T01390106

2010/08/08 01:53
KHTL 080153Z AUTO 23007KT 10SM BKN044 OVC060 22/17 A2989 RMK AO2 SLP117 T02220172

2010/08/08 01:53
KMSN 080153Z 20005KT 10SM CLR 25/19 A2985 RMK AO2 SLP104 T02500189

2010/08/08 01:54
PGUM 080154Z 08014KT 10SM FEW023 31/24 A2985 RMK AO2 SLP099 T03110239

2010/08/08 01:53
K6R6 080153Z AUTO 11012KT 32/16 A2985 RMK AO2 SLP070 T03170161 PWINO TSNO

2010/08/08 01:53
KRQE 080153Z AUTO 30005KT 10SM -RA SCT021 BKN050 OVC095 16/14 A3021 RMK AO2 RAB08 SLP131 P0001 T01610139 TSNO

2010/08/08 01:54
KJAN 080154Z 00000KT 10SM CLR 27/24 A2990 RMK AO2 SLP120 T02720239

2010/08/08 01:53
KCQC 080153Z AUTO 18013KT 10SM CLR 23/09 A3015 RMK AO2 SLP099 T02280089 TSNO

2010/08/08 01:53
KDNK 080153Z AUTO 19006KT 10SM CLR 29/24 A2988 RMK AO2 SLP113 T02940239 PNO $

2010/08/08 01:53
KBNO 080153Z AUTO 27006KT 10SM CLR 28/01 A2985 RMK AO2 SLP074 T02780006 TSNO $

2010/08/08 01:53
KELY 080153Z AUTO 21010G19KT 10SM CLR 27/M05 A2997 RMK AO2 SLP047 T02721050

2010/08/08 01:53
K40J 080153Z AUTO 02003KT 25/23 A2993 RMK AO2 SLP135 T02500233 PWINO TSNO

2010/08/08 01:53
KDAB 080153Z 00000KT 10SM -RA BKN030 BKN140 OVC200 26/24 A2993 RMK AO2 RAB21E29B53 SLP135 PCPN VRY LGT P0000 T02610244

2010/08/08 01:54
K1V4 080154Z AUTO 12/10 A2999 RMK AO2 SLP152 T01220100 PWINO TSNO

2010/08/08 01:54
KMQE 080154Z AUTO 00000KT 21/09 A3001 RMK AO1 SLP170 T02110089

2010/08/08 01:54
KBKB 080154Z AUTO 00000KT 10SM CLR 29/25 A2986 RMK AO2 SLP134 T02940250 $

2010/08/08 01:54
KAVP 080154Z 00000KT 10SM CLR 21/10 A3000 RMK AO2 SLP149 T02060100

2010/08/08 01:54
KWAL 080154Z AUTO 13004KT 10SM CLR 24/22 A2999 RMK AO2 SLP153 T02390217 TSNO

2010/08/08 01:54
KROC 080154Z 22003KT 10SM FEW080 17/12 A2998 RMK AO2 SLP152 T01720117 $

2010/08/08 01:54
KDMH 080154Z AUTO 27/15 A2997 RMK AO2 SLP149 T02720150 PWINO TSNO

2010/08/08 01:54
K12N 080154Z AUTO 00000KT 18/15 A3000 RMK AO2 SLP153 T01780150 PWINO TSNO

2010/08/08 01:54
KGSO 080154Z 06004KT 10SM CLR 26/17 A3001 RMK AO2 SLP150 T02560172

2010/08/08 01:54
KNAK 080154Z AUTO 16003KT 10SM CLR 26/14 A2997 RMK AO2 SLP150 T02560139 TSNO

2010/08/08 01:54
KRIC 080154Z 13005KT 10SM BKN050 25/19 A2998 RMK AO2 SLP155 T02500189

2010/08/08 01:50
ENAL 080150Z AUTO 25008KT 210V270 9999NDV OVC084/// 15/14 Q1016

2010/08/08 01:50
ENCN 080150Z AUTO 06003KT 9999NDV OVC057/// 14/11 Q1016

2010/08/08 01:50
ENHD 080150Z AUTO 10007KT 9999NDV OVC027/// 14/13 Q1016

2010/08/08 01:50
ENRO 080150Z AUTO 00000KT 0650NDV R32/P2000N FG NCD 03/02 Q1018

2010/08/08 01:50
ENRY 080150Z AUTO 34003KT 9999NDV NCD 14/11 Q1015

2010/08/08 01:50
ENSB 080150Z 28010KT 9999 -RA SCT005 BKN025 06/06 Q1014 

2010/08/08 01:50
ENTC 080150Z 00000KT 9999 BKN008 11/10 Q1019

2010/08/08 01:50
ENTO 080150Z AUTO 33005KT 9999NDV SCT037/// OVC053/// 14/11 Q1015

2010/08/08 01:50
ENAT 080150Z AUTO 22003KT 180V320 9999NDV OVC018/// 13/12 Q1019

2010/08/08 01:50
ENEV 080150Z AUTO VRB01KT 0500NDV R17/0800V1300N FG FEW210/// 08/07 Q1019 

2010/08/08 01:50
ENKB 080150Z AUTO 05005KT 9999NDV OVC190/// 15/13 Q1015

2010/08/08 01:50
ENKR 080150Z AUTO 14003KT 9999NDV NCD 14/13 Q1018 

2010/08/08 01:50
ENNA 080150Z VRB02KT 9999 BCFG FEW005 SCT110 13/12 Q1019 

2010/08/08 02:00
LQBK 080200Z 16002KT CAVOK 15/14 Q1017 NOSIG

2010/08/08 02:00
SVMI 080200Z 00000KT 9999 FEW016 28/24 Q1013 NOSIG

2010/08/08 01:54
KROA 080154Z 00000KT 10SM FEW070 25/16 A3004 RMK AO2 SLP159 T02500161 $ 

2010/08/08 01:54
PGUM 080154Z 08014KT 10SM FEW023 31/24 A2985 RMK AO2 SLP099 T03110239

2010/08/08 01:54
PGSN 080154Z 07013G17KT 10SM FEW017 SCT028 SCT037 31/26 A2986 RMK AO2 RAB36E46 SLP106 P0000 T03060256 $

2010/08/08 01:54
PGRO 080154Z 07016KT 7SM FEW035 30/24 A2987

2010/08/08 01:53
PTKK 080153Z 13008KT 15SM SCT014CB BKN120 OVC280 31/26 A2978 RMK CB ALQDS MOV NW SLP084 T03110256

2010/08/08 01:50
ENHF 080150Z AUTO 04003KT 360V160 //// SCT020/// OVC040/// 13/11 Q1019 

2010/08/08 01:54
CYCY 080154Z AUTO 00000KT 5/8SM OVC000 04/04 A2995

2010/08/08 01:50
OAKB 080150Z VRB02KT 7000 FEW040 SCT090 20/19 Q1013 TEMPO 5000 BR RMK WHT WHT

2010/08/08 01:54
KMTP 080154Z AUTO 00000KT 22/18 A3002 RMK AO2 SLP165 T02170178 PWINO TSNO 

2010/08/08 01:50
EFJO 080150Z AUTO 10003KT 4200 BR SKC 19/18 Q1016

2010/08/08 01:50
EFLP 080150Z AUTO 12003KT 9000 SKC 23/20 Q1016

2010/08/08 01:50
EFMI 080150Z AUTO 00000KT 2200 BR SKC 17/17 Q1015

2010/08/08 01:50
EFSA 080150Z AUTO 09003KT 6000NDV NCD 19/19 Q1016

2010/08/08 01:50
EFUT 080150Z AUTO 12006KT CAVOK 22/20 Q1015

2010/08/08 01:50
EFVR 080150Z AUTO 15001KT CAVOK 19/19 Q1015

2010/08/08 01:50
ENAN 080150Z 25008KT 9999 FEW010 SCT020 10/09 Q1019

2010/08/08 01:50
ENBR 080150Z 14002KT 9999 -DZ SCT020 BKN035 15/13 Q1016 

2010/08/08 01:50
ENBO 080150Z 10003KT 9999 FEW002 10/09 Q1019

2010/08/08 01:50
ENDU 080150Z VRB02KT 9999 FEW002 SCT250 09/07 Q1019

2010/08/08 01:50
ENOL 080150Z 11004KT 9999 MIFG FEW070 10/10 Q1016

2010/08/08 01:50
ENVA 080150Z 12004KT CAVOK 11/09 Q1016 

2010/08/08 01:50
ENZV 080150Z 04003KT 9999 BKN036 15/13 Q1016

2010/08/08 01:50
ENEK 080150Z 36008KT 9999 BKN035 16/14 Q1016 W16/S3

2010/08/08 01:50
ENGC 080150Z 20012KT 4000 BR FEW005 BKN020 14/14 Q1013

2010/08/08 01:50
ENHE 080150Z 07018KT 9999 FEW005 SCT130 12/12 Q1018

2010/08/08 01:50
ENOA 080150Z 24019KT 9999 SCT008 BKN012 14/12 Q1015

2010/08/08 01:54
KCEU 080154Z AUTO 00000KT 10SM CLR 28/21 A2998 RMK AO2 RAB45E54 SLP140 P0000 T02830206

2010/08/08 01:55
KCGZ 080155Z AUTO 00000KT 10SM CLR 35/12 A2979 RMK AO1

2010/08/08 01:55
KCIU 080155Z AUTO 21005KT 10SM BKN095 18/14 A2982 RMK AO1

2010/08/08 01:55
KCOD 080155Z 35009KT 10SM CLR 23/05 A2991 RMK AO1

2010/08/08 01:55
KCOE 080155Z AUTO 20007KT 10SM CLR 26/09 A2976 RMK AO1

2010/08/08 01:55
KCVN 080155Z 16008KT 10SM CLR 27/14 A2997 RMK AO1

2010/08/08 01:55
KCVO 080155Z AUTO 29011KT 10SM BKN100 OVC120 22/14 A2990 RMK AO1

2010/08/08 01:55
KCWI 080155Z 16006KT 10SM CLR A2988 RMK AO1

2010/08/08 01:54
KDDH 080154Z AUTO 17003KT 10SM CLR 13/11 A3001 RMK AO2 SLP161 T01280106

2010/08/08 01:54
KDEC 080154Z 16004KT 9SM CLR 24/18 A2993 RMK AO2 SLP131 T02440183

2010/08/08 01:54
KDSV 080154Z AUTO 16004KT 10SM CLR 16/12 A3002 RMK AO2 SLP172 T01610122 $

2010/08/08 01:53
PAPB 080153Z AUTO 15021G28KT 5SM RA BR OVC003 11/11 A2945 RMK AO2 PK WND 15028/0152 SLP960 P0015 T01060106 TSNO

2010/08/08 01:53
PASC 080153Z 07022G28KT 10SM OVC007 06/04 A2973 RMK AO2 PK WND 07028/0152 SLP067 T00560039

2010/08/08 01:53
PASI 080153Z 21006KT 10SM BKN022 OVC028 13/12 A2985 RMK AO2 SLP110 T01330117

2010/08/08 01:53
PASO 080153Z AUTO 36003KT 8SM -RA OVC039 12/11 A2977 RMK AO2 RAE00B27 SLP081 P0001 T01220111 TSNO

2010/08/08 01:53
PATO 080153Z AUTO VRB06KT 9SM -RA OVC031 12/10 A2977 RMK AO2 SLP082 P0001 T01170100 TSNO

2010/08/08 01:53
PAWD 080153Z AUTO 18003KT 8SM -RA BKN035 BKN050 12/11 A2976 RMK AO2 SLP079 P0006 T01170106 TSNO

2010/08/08 01:53
PFYU 080153Z 26006KT 10SM SCT060 BKN100 20/ A2957

2010/08/08 01:53
PAAQ 080153Z 25004KT 10SM BKN020 BKN042 OVC065 14/11 A2975 RMK AO2 SLP069 T01390106

2010/08/08 01:53
PABR 080153Z 08021G26KT 10SM OVC005 05/04 A2983 RMK AO2 PK WND 08027/0113 SLP101 T00500044

2010/08/08 01:53
PACV 080153Z 09004KT 10SM FEW006 BKN027 OVC045 13/11 A2981 RMK AO2 SLP094 T01280111

2010/08/08 01:53
PADE 080153Z AUTO 29010KT 10SM OVC100 16/10 A2958 RMK AO2 SLP015 T01560100 TSNO $

2010/08/08 01:53
PAEG 080153Z AUTO 02006KT 10SM SCT044 BKN110 21/09 A2958 RMK AO2 SLP017 T02060094 TSNO

2010/08/08 01:53
PAEN 080153Z 20013KT 10SM -RA BKN027 14/12 A2975 RMK AO2 SLP074 P0002 T01390117 $

2010/08/08 01:53
PAGK 080153Z 00000KT 10SM SCT045TCU BKN075 BKN110 18/09 A2965 RMK AO2 SLP040 TCU ALQDS SHRA DST E SE SW T01830089

2010/08/08 01:53
PAGY 080153Z AUTO 20013G19KT 10SM OVC050 14/09 A2978 RMK AO2 SLP084 T01440094 TSNO

2010/08/08 01:53
PAIL 080153Z 23006KT 10SM OVC014 11/10 A2978 RMK AO2 SLP088 T01110100

2010/08/08 01:53
PAKT 080153Z 12004KT 10SM FEW013 OVC024 14/12 A2989 RMK AO2 SLP122 HARBOR WIND 09006KT T01440117

2010/08/08 01:53
PAKV 080153Z AUTO 00000KT 3SM RA BR BKN020 BKN032 OVC049 14/13 A2965 RMK AO2 SLP043 P0010 T01390128 TSNO

2010/08/08 01:53
PAKW 080153Z AUTO 22004KT 10SM BKN026 OVC032 13/12 A2987 RMK AO2 SLP115 T01280117 TSNO

2010/08/08 01:53
PALH 080153Z VRB04KT 6SM -RA BR FEW013 BKN026 OVC048 13/11 A2976 RMK AO2 SLP077 P0003 T01330111

2010/08/08 01:53
PAMR 080153Z 19006KT 4SM -RA BR SCT011 BKN023 OVC044 13/11 A2975 RMK AO2 SLP074 P0003 T01280111 $

2010/08/08 01:54
PHMK 080154Z 02013G25KT 10SM FEW019 SCT033 28/20 A3003 RMK AO2 PK WND 03027/0143 SLP169 T02780200

2010/08/08 01:54
KRST 080154Z 19006KT 9SM CLR 24/22 A2977 RMK AO2 SLP075 T02440222

2010/08/08 01:55
KRUT 080155Z 13005KT 10SM CLR 14/09 A3000 RMK AO1

2010/08/08 01:54
KSBY 080154Z 00000KT 10SM CLR 23/21 A2999 RMK AO2 SLP158 T02280211

2010/08/08 01:55
KSDY 080155Z AUTO 31005KT 10SM CLR 26/14 A2969 RMK AO1

2010/08/08 01:54
KSET 080154Z AUTO 00000KT 7SM CLR 24/21 A2989 RMK AO2 SLP117 T02390206

2010/08/08 01:55
KSFM 080155Z 00000KT 10SM CLR 13/12 A3000 RMK AO1

2010/08/08 01:55
KSFZ 080155Z 00000KT 10SM CLR 14/13 A3000 RMK AO1

2010/08/08 01:55
KSGT 080155Z 13004KT CLR 28/24 A2988 RMK AO1

2010/08/08 01:55
KSGU 080155Z AUTO 07011KT 10SM VCTS SCT100 SCT120 27/14 A2988 RMK AO1 LTG DSNT S TSB35

2010/08/08 01:54
KSJN 080154Z AUTO 27007KT 10SM SCT012 SCT016 OVC021 17/15 A3016 RMK AO2 SLP134 T01720150 $

2010/08/08 01:55
KSKX 080155Z AUTO 00000KT 10SM FEW120 24/07 A3013 RMK AO1 LTG DSNT NE

2010/08/08 01:53
KCHO 080153Z 00000KT 10SM CLR 21/16 A3000 RMK AO2 SLP150 T02060156

2010/08/08 01:55
KCKI 080155Z AUTO 00000KT 25/23 A2993 RMK AO2 LTG DSNT N PWINO

2010/08/08 01:53
KCLM 080153Z AUTO 00000KT 10SM FEW003 SCT026 OVC036 16/14 A2990 RMK AO2 SLP124 T01610144

2010/08/08 01:53
KCMI 080153Z 17004KT 8SM CLR 21/18 A2994 RMK AO2 SLP134 T02110183

2010/08/08 01:53
KCMX 080153Z AUTO 08005KT 10SM FEW055 BKN100 OVC120 18/12 A2976 RMK AO2 SLP076 T01830122

2010/08/08 01:53
KCNM 080153Z AUTO 20007KT 10SM CLR 29/17 A2986 RMK AO2 SLP053 T02940167 $

2010/08/08 01:53
KCNO 080153Z 25014KT 10SM CLR 22/13 A2983 RMK AO2 SLP098 T02170128

2010/08/08 01:53
KCOT 080153Z AUTO 14006KT 10SM CLR 32/19 A2983 RMK AO2 SLP090 T03220189

2010/08/08 01:53
KCPS 080153Z 15004KT 5SM HZ CLR 24/18 A2990 RMK AO2 SLP122 T02390178

2010/08/08 01:53
KCSV 080153Z AUTO 00000KT 9SM CLR 23/18 A3002 RMK AO2 SLP144 T02330183

2010/08/08 01:53
KCXO 080153Z AUTO 14003KT 10SM CLR 28/24 A2986 RMK AO2 SLP108 T02830239 TSNO

2010/08/08 01:51
KDAG 080151Z AUTO 23018KT 10SM CLR 34/M10 A2973 RMK AO2 PK WND 23026/0141 SLP041 T03391100 TSNO

2010/08/08 01:53
KDAN 080153Z AUTO 00000KT 8SM CLR 23/19 A3000 RMK AO2 SLP146 T02280189

2010/08/08 01:53
KDCU 080153Z AUTO 08004KT 10SM CLR 26/18 A2992 RMK AO2 SLP124 T02610183 $

2010/08/08 01:53
KMFR 080153Z 33011KT 10SM CLR 29/09 A2982 RMK AO2 SLP088 T02890089

2010/08/08 01:53
KMGW 080153Z 00000KT 10SM CLR 20/16 A3004 RMK AO2 SLP166 T02000156

2010/08/08 01:53
KMHE 080153Z AUTO 21005KT 10SM CLR 29/24 A2963 RMK AO2 SLP022 T02940244 TSNO

2010/08/08 01:53
KMIC 080153Z 19012G17KT 10SM BKN055 29/22 A2966 RMK AO2 SLP037 T02940217

2010/08/08 01:53
KMIW 080153Z AUTO 17006KT 10SM CLR 26/22 A2980 RMK AO2 SLP085 T02560217

2010/08/08 01:53
KMKL 080153Z AUTO 00000KT 10SM CLR 25/21 A2991 RMK AO2 SLP122 T02500206

2010/08/08 01:53
KMMV 080153Z AUTO 28007KT 10SM BKN046 OVC055 23/14 A2989 RMK AO2 SLP120 T02330144

2010/08/08 01:53
KMOD 080153Z 32006KT 10SM CLR 32/08 A2970 RMK AO2 SLP058 T03170078

2010/08/08 01:53
KMRB 080153Z AUTO 00000KT 10SM CLR 22/14 A2998 RMK AO2 SLP147 T02220144

2010/08/08 01:53
KMSL 080153Z AUTO 06004KT 10SM CLR 29/18 A2992 RMK AO2 SLP122 T02940178

2010/08/08 01:53
KMSP 080153Z 19009KT 10SM FEW080 SCT200 29/21 A2968 RMK AO2 SLP046 T02890211

2010/08/08 01:53
KMSY 080153Z 18004KT 10SM SCT055 SCT250 29/25 A2989 RMK AO2 SLP126 T02940250

2010/08/08 01:53
KMTO 080153Z AUTO 16003KT 8SM CLR 22/20 A2993 RMK AO2 SLP131 T02170200

2010/08/08 01:53
KMYF 080153Z 24006KT 10SM FEW015 18/13 A2987 RMK AO2 SLP111 T01830128

2010/08/08 01:53
KNEW 080153Z AUTO 22007KT 10SM CLR 31/24 A2990 RMK AO2 SLP117 T03110239 TSNO

2010/08/08 01:53
KOAK 080153Z 29012KT 7SM FEW005 17/11 A2983 RMK AO2 SLP101 T01670111

2010/08/08 01:53
KOJC 080153Z 15006KT 10SM CLR 27/23 A2984 RMK AO2 SLP093 T02720228

2010/08/08 01:53
KOMK 080153Z AUTO 32008KT 10SM FEW100 24/09 A2976 RMK AO2 SLP071 T02440089

2010/08/08 01:53
KONT 080153Z 25009KT 10SM CLR 23/12 A2982 RMK AO2 SLP089 T02330122

2010/08/08 01:53
KOSH 080153Z 21006KT 10SM CLR 24/19 A2982 RMK AO2 SLP086 T02390189

2010/08/08 01:53
KOTM 080153Z AUTO 18005KT 5SM BR CLR 24/22 A2984 RMK AO2 SLP098 T02440222

2010/08/08 01:53
KOVS 080153Z AUTO 18003KT 10SM OVC032 26/21 A2982 RMK AO2 SLP096 T02560211

2010/08/08 01:53
KPAE 080153Z 17007KT 10SM -RA BKN008 BKN013 OVC031 17/16 A2990 RMK AO2 SLP123 P0003 T01720156

2010/08/08 01:53
KPAH 080153Z 04006KT 8SM CLR 27/17 A2990 RMK AO2 SLP120 T02670167

2010/08/08 01:53
KPBF 080153Z AUTO 13004KT 10SM CLR 27/24 A2988 RMK AO2 LTG DSNT S SLP115 T02670244

2010/08/08 01:53
KPDK 080153Z 00000KT 10SM CLR 28/22 A2997 RMK AO2 PK WND 15027/0144 SLP130 T02780222 $

2010/08/08 01:53
KPDT 080153Z 30014G20KT 10SM CLR 29/08 A2977 RMK AO2 SLP064 T02890078

2010/08/08 01:53
KPIL 080153Z AUTO 15012KT 10SM CLR 31/24 A2987 RMK AO2 SLP113 T03060244

2010/08/08 01:53
KPIR 080153Z AUTO 34006KT 10SM CLR 28/19 A2966 RMK AO2 SLP026 T02780189

2010/08/08 01:53
KDEW 080153Z AUTO 25004KT 10SM CLR 25/09 A2974 RMK AO2 SLP059 T02500094

2010/08/08 01:53
KDHT 080153Z AUTO 18010KT 10SM CLR 28/17 A2992 RMK AO2 SLP068 T02830167

2010/08/08 01:53
KDLS 080153Z AUTO 31013KT 10SM CLR 24/11 A2981 RMK AO2 SLP093 T02390111

2010/08/08 01:53
KDMO 080153Z AUTO 14004KT 10SM CLR 27/21 A2988 RMK AO2 SLP107 T02720211

2010/08/08 01:51
KFDK 080151Z AUTO 00000KT 7SM CLR 23/14 A2999 RMK AO2

2010/08/08 01:53
KDNL 080153Z AUTO 00000KT 10SM CLR 28/22 A2995 RMK AO2 SLP136 T02830222

2010/08/08 01:53
KDWH 080153Z 19005KT 10SM CLR 29/24 A2987 RMK AO2 SLP112 T02940239

2010/08/08 01:55
KDYB 080155Z AUTO 00000KT 7SM SCT018 25/24 A2991 RMK AO1

2010/08/08 01:53
KEET 080153Z AUTO 00000KT 7SM CLR 27/24 A2991 RMK AO2 SLP121 T02720244

2010/08/08 01:53
KELN 080153Z AUTO 32013KT 10SM CLR 19/12 A2984 RMK AO2 PK WND 31030/0103 SLP097 T01940117

2010/08/08 01:53
KENW 080153Z 21007KT 10SM CLR 24/19 A2988 RMK AO2 SLP115 T02440189

2010/08/08 01:53
KEPH 080153Z AUTO 31015G22KT 10SM CLR 26/09 A2975 RMK AO2 SLP065 T02560089

2010/08/08 01:53
KEQY 080153Z AUTO 00000KT 10SM CLR 25/21 A2997 RMK AO2 SLP146 T02500206

2010/08/08 01:53
KESF 080153Z AUTO 00000KT 10SM FEW060 27/24 A2987 RMK AO2 SLP114 T02720244

2010/08/08 01:53
KFCM 080153Z 20010KT 10SM FEW055 28/21 A2968 RMK AO2 SLP045 T02780211

2010/08/08 01:53
KFFC 080153Z AUTO 14003KT 10SM CLR 27/22 A2996 RMK AO2 SLP137 T02670222

2010/08/08 01:53
KFHR 080153Z AUTO 00000KT 5SM BR OVC006 17/16 A2989 RMK AO2 RAB18E39 SLP123 P0001 T01670156

2010/08/08 01:53
KFLD 080153Z AUTO 20007KT 10SM SCT120 24/18 A2983 RMK AO2 SLP098 T02390183

2010/08/08 01:53
KFOE 080153Z 16006KT 10SM CLR 28/22 A2983 RMK AO2 SLP089 T02830222

2010/08/08 01:53
KFSM 080153Z 06006KT 10SM CLR 26/24 A2985 RMK AO2 SLP101 T02610244

2010/08/08 01:53
KFST 080153Z AUTO 14013G20KT 10SM CLR 31/14 A2990 RMK AO2 SLP070 T03110144

2010/08/08 01:55
KFTN 080155Z AUTO 13009KT 10SM OVC001 34/19 A2982 RMK AO1

2010/08/08 01:53
KFTY 080153Z 09004KT 9SM CLR 29/23 A2995 RMK AO2 SLP132 T02890228

2010/08/08 01:53
KFYV 080153Z 00000KT 10SM CLR 27/22 A2989 RMK AO2 SLP105 T02670222

2010/08/08 01:53
KGAG 080153Z AUTO 14007KT 10SM SCT090 28/19 A2985 RMK AO2 SLP076 T02780189

2010/08/08 01:53
KGFK 080153Z 13003KT 10SM SCT120 27/22 A2961 RMK AO2 SLP023 VIRGA W T02720217

2010/08/08 01:53
KGLD 080153Z AUTO 25003KT 10SM CLR 26/19 A2988 RMK AO2 SLP071 T02610194

2010/08/08 01:53
KGLH 080153Z AUTO 04003KT 10SM CLR 27/25 A2987 RMK AO2 LTG DSNT SW SLP119 T02720250

2010/08/08 01:53
KGMU 080153Z AUTO 10005KT 10SM OVC090 28/18 A3000 RMK AO2 SLP146 T02830183

2010/08/08 01:53
KGPT 080153Z 00000KT 10SM CLR 32/24 A2989 RMK AO2 SLP120 T03220244

2010/08/08 01:53
KGRB 080153Z 21007KT 10SM CLR 24/20 A2979 RMK AO2 SLP083 T02390200 $

2010/08/08 01:53
KGRI 080153Z AUTO 16006KT 10SM CLR 28/22 A2977 RMK AO2 SLP062 T02780222

2010/08/08 01:53
KGSH 080153Z AUTO 17004KT 9SM CLR 22/18 A2996 RMK AO2 SLP140 T02170178

2010/08/08 01:53
KGSP 080153Z 11004KT 10SM FEW075 SCT100 26/21 A2998 RMK AO2 SLP137 T02610206

2010/08/08 01:53
KGUY 080153Z AUTO 18006KT 10SM CLR 32/16 A2984 RMK AO2 SLP046 T03170156

2010/08/08 01:53
KGVL 080153Z AUTO 14005KT 8SM CLR 26/22 A3001 RMK AO2 SLP143 T02610222 $

2010/08/08 01:53
KGWO 080153Z AUTO 00000KT 10SM CLR 26/25 A2989 RMK AO2 SLP119 T02610250

2010/08/08 01:53
KHBG 080153Z AUTO 00000KT 10SM FEW070 29/25 A2990 RMK AO2 LTG DSNT ALQDS SLP120 T02940250

2010/08/08 01:53
KHEI 080153Z AUTO 24004KT 10SM CLR 24/14 A2973 RMK AO2 SLP050 T02440144

2010/08/08 01:53
KHGR 080153Z AUTO 00000KT 10SM BKN065 BKN090 27/13 A2998 RMK AO2 SLP156 T02670128

2010/08/08 01:53
KHHR 080153Z 25009KT 10SM CLR 18/13 A2985 RMK AO2 SLP107 T01830128 $

2010/08/08 01:53
KHIO 080153Z 03003KT 10SM OVC038 21/16 A2989 RMK AO2 SLP120 T02110161

2010/08/08 01:53
KHJO 080153Z AUTO 06009G24KT 030V090 10SM CLR 32/13 A2969 RMK AO2 SLP055 T03220133 $

2010/08/08 01:53
KHKA 080153Z AUTO 06004KT 6SM HZ CLR 26/19 A2989 RMK AO2 SLP118 T02610189

2010/08/08 01:53
KHKS 080153Z AUTO 16004KT 10SM CLR 27/24 A2991 RMK AO2 SLP118 T02720244

2010/08/08 01:53
KHKY 080153Z 00000KT 10SM CLR 24/19 A3001 RMK AO2 SLP138 T02440189

2010/08/08 01:55
KSLG 080155Z AUTO 14006KT 10SM CLR 26/22 A2989 RMK AO1

2010/08/08 01:55
KSMN 080155Z AUTO 13011KT 10SM SCT120 24/07 A2983 RMK AO1 TSE0058

2010/08/08 01:55
KSQI 080155Z AUTO 17003KT 10SM CLR 23/19 A2990 RMK AO1

2010/08/08 01:55
KSUE 080155Z AUTO 21007KT 7SM VCTS FEW070 BKN110 23/20 A2979 RMK AO1 LTG DSNT N TSB31E46B47

2010/08/08 01:54
KTAD 080154Z AUTO 12003KT 10SM CLR 21/15 A3002 RMK AO2 LTG DSNT W SLP086 T02110150

2010/08/08 01:55
KTPL 080155Z 17008KT 10SM CLR 31/21 A2985 RMK AO1

2010/08/08 01:54
KTQE 080154Z AUTO 15006KT 10SM CLR 26/23 A2973 RMK AO2 SLP055 T02560228

2010/08/08 01:55
KTVF 080155Z AUTO 06006KT 10SM CLR 23/19 A2965 RMK AO1

2010/08/08 01:56
KUCP 080156Z AUTO 00000KT 10SM CLR 18/13 A3002 RMK AO2 T01770127 SLP177

2010/08/08 01:54
KUIN 080154Z AUTO 14003KT 9SM CLR 25/22 A2989 RMK AO2 SLP115 T02500217

2010/08/08 01:54
KUZA 080154Z AUTO 00000KT 7SM CLR 24/21 A2998 RMK AO2 SLP139 T02390206

2010/08/08 01:54
KVAY 080154Z AUTO 00000KT 10SM CLR 21/16 A2998 RMK AO2 SLP151 T02060161

2010/08/08 01:55
KVBT 080155Z AUTO 00000KT 10SM CLR 27/22 A2987 RMK AO1

2010/08/08 01:55
KVIS 080155Z AUTO 34005KT 10SM CLR 34/10 A2969 RMK AO1

2010/08/08 01:54
KVSF 080154Z AUTO 00000KT 10SM CLR 14/11 A3001 RMK AO2 SLP164 T01390111

2010/08/08 01:54
KVTA 080154Z AUTO 00000KT 10SM CLR 19/17 A2999 RMK AO2 SLP151 T01940172

2010/08/08 01:50
KWDG 080150Z 13009KT 10SM FEW200 32/21 A2979 RMK/LAST

2010/08/08 01:54
KWLD 080154Z AUTO 13006KT 10SM CLR 30/21 A2983 RMK AO2 SLP088 T03000206

2010/08/08 01:55
KWVL 080155Z AUTO 00000KT 10SM CLR 12/08 A2996 RMK AO1

2010/08/08 01:55
KWWD 080155Z AUTO 15006KT 10SM CLR 23/22 A3000 RMK AO1

2010/08/08 01:55
KYKN 080155Z AUTO 16010KT 10SM CLR 29/24 A2967 RMK AO1

2010/08/08 01:54
KMOT 080154Z 00000KT 10SM CLR 27/18 A2964 RMK AO2 SLP028 T02720183

2010/08/08 01:55
KMRF 080155Z AUTO 01007KT 10SM CLR 26/12 A3003 RMK AO1

2010/08/08 01:54
KMRY 080154Z 24009KT 10SM OVC008 14/11 A2987 RMK AO2 SLP127 T01390106

2010/08/08 01:55
KMSV 080155Z AUTO 00000KT 10SM CLR 16/11 A3003 RMK AO1

2010/08/08 01:55
KMTW 080155Z 21007KT 10SM FEW090 SCT120 24/18 A2982 RMK AO1

2010/08/08 01:54
KMVL 080154Z AUTO 00000KT 10SM CLR 11/09 A3001 RMK AO2 SLP165 T01060094

2010/08/08 01:55
KMVN 080155Z AUTO 00000KT 5SM CLR 20/18 A2994 RMK AO1

2010/08/08 01:55
KOCH 080155Z AUTO 00000KT 10SM CLR 31/22 A2984 RMK AO1

2010/08/08 01:54
KOFP 080154Z AUTO 00000KT 10SM CLR 22/17 A3000 RMK AO2 SLP158 T02220167

2010/08/08 01:55
KOKK 080155Z AUTO 00000KT 10SM CLR 22/16 A2996 RMK AO1

2010/08/08 01:54
KOLM 080154Z 22005KT 10SM BKN017 OVC070 18/16 A2991 RMK AO2 SLP129 T01780161

2010/08/08 01:54
KOLS 080154Z AUTO 30004KT 10SM VCTS SCT100 26/18 A2999 RMK AO2 LTG DSNT ALQDS TSB52 SLP092 T02560183

2010/08/08 01:55
KOLU 080155Z AUTO 17006KT 10SM CLR 28/22 A2975 RMK AO1

2010/08/08 01:55
KOTG 080155Z AUTO 19011KT 10SM BKN043 26/18 A2973 RMK AO1

2010/08/08 01:55
KOTH 080155Z 33007KT 10SM FEW006 BKN018 17/14 A2998 RMK AO1

2010/08/08 01:54
KPHF 080154Z AUTO 00000KT 10SM CLR 23/21 A2998 RMK AO2 SLP151 T02280206 TSNO

2010/08/08 01:54
KPHL 080154Z 00000KT 10SM FEW250 26/17 A2998 RMK AO2 SLP151 T02560167 $

2010/08/08 01:55
KPIB 080155Z AUTO 26004KT 10SM VCTS OVC050 29/23 A2993 RMK AO1 LTG DSNT SW TSB08B12B18E23B44B52

2010/08/08 01:54
KPLN 080154Z AUTO 00000KT 10SM BKN100 19/17 A2982 RMK AO2 SLP098 T01890167

2010/08/08 01:54
KPNE 080154Z 15004KT 10SM CLR 24/15 A2999 RMK AO2 SLP154 T02390150

2010/08/08 01:55
KPQI 080155Z AUTO 00000KT 10SM CLR 11/06 A2991 RMK AO1

2010/08/08 01:55
KPRX 080155Z 35008KT 10SM VCTS SCT070 BKN080 OVC100 29/24 A2984 RMK AO1 LTG DSNT ALQDS TSB0159E28B32

2010/08/08 01:54
KPSF 080154Z AUTO 00000KT 10SM CLR 14/10 A3002 RMK AO2 SLP148 T01440100

2010/08/08 01:55
KPTN 080155Z AUTO 21005KT 10SM CLR 28/16 A2993 RMK AO1

2010/08/08 01:55
KPTV 080155Z AUTO 33007KT 10SM CLR 33/12 A2972 RMK AO1

2010/08/08 01:54
KPTW 080154Z AUTO 00000KT 10SM CLR 22/16 A2999 RMK AO2 SLP152 T02170161

2010/08/08 01:55
KPVC 080155Z 19007KT 10SM CLR 19/15 A3002 RMK AO1

2010/08/08 01:55
KPWG 080155Z AUTO 16006KT 10SM CLR 32/19 A2984 RMK AO1

2010/08/08 01:55
KPWT 080155Z AUTO 18009KT 10SM FEW075 BKN110 16/13 A2992 RMK AO1

2010/08/08 01:54
KRBL 080154Z AUTO 17016KT 10SM CLR 33/13 A2966 RMK AO2 SLP038 T03280133

2010/08/08 01:53
KFVE 080153Z AUTO 25005KT 10SM CLR 12/04 A2991 RMK AO2 SLP126 T01170044

2010/08/08 01:53
KFWN 080153Z AUTO 00000KT 10SM CLR 18/13 A2999 RMK AO2 SLP153 T01830133

2010/08/08 01:53
KFXE 080153Z 16004KT 10SM CLR 27/24 A2996 RMK AO2 SLP148 T02720244 $

2010/08/08 01:53
KGEY 080153Z AUTO 36009KT 10SM CLR 26/07 A2983 RMK AO2 SLP064 T02610072

2010/08/08 01:53
KGEZ 080153Z AUTO 15004KT 10SM CLR 20/16 A2995 RMK AO2 SLP134 T02000161

2010/08/08 01:53
KGFL 080153Z AUTO 00000KT 10SM CLR 13/11 A2999 RMK AO2 SLP155 T01330111

2010/08/08 01:53
KGGG 080153Z 16004KT 10SM CLR 30/24 A2984 RMK AO2 SLP098 T03000239

2010/08/08 01:53
KMLT 080153Z AUTO 00000KT 10SM CLR 12/07 A2998 RMK AO2 SLP157 T01220072

2010/08/08 01:53
KMMK 080153Z AUTO 00000KT 10SM CLR 19/16 A2999 RMK AO2 SLP155 T01890161

2010/08/08 01:53
KMNN 080153Z AUTO 00000KT 10SM CLR 21/17 A3000 RMK AO2 SLP153 T02060167

2010/08/08 01:53
KMPO 080153Z AUTO 00000KT 10SM CLR 17/11 A3005 RMK AO2 SLP169 T01670111 $

2010/08/08 01:53
KMSO 080153Z 31011KT 10SM CLR 27/04 A2978 RMK AO2 SLP065 T02720044

2010/08/08 01:53
KMSS 080153Z AUTO 20004KT 10SM CLR 14/09 A2995 RMK AO2 SLP141 T01440089

2010/08/08 01:53
KMTH 080153Z AUTO 00000KT 10SM CLR 30/24 A2996 RMK AO2 SLP146 T03000244

2010/08/08 01:53
KMTJ 080153Z AUTO 00000KT 10SM -RA BKN020 17/16 A3016 RMK AO2 LTG DSNT E TSB14E31 SLP146 P0014 T01720156

2010/08/08 01:53
KMVY 080153Z AUTO 00000KT 10SM CLR 20/17 A3003 RMK AO2 SLP166 T02000167

2010/08/08 01:53
KMWL 080153Z AUTO 15007KT 10SM CLR 32/20 A2981 RMK AO2 SLP077 T03220200

2010/08/08 01:53
KMYV 080153Z AUTO 18012KT 10SM CLR 31/12 A2968 RMK AO2 SLP053 T03110122

2010/08/08 01:53
KODO 080153Z AUTO 16009KT 10SM CLR 33/12 A2990 RMK AO2 SLP070 T03330122 $

2010/08/08 01:53
KOGB 080153Z AUTO 00000KT 7SM CLR 27/25 A2994 RMK AO2 SLP134 T02670250

2010/08/08 01:53
KOGD 080153Z AUTO 14011G18KT 10SM CLR 27/06 A2989 RMK AO2 SLP056 T02670061

2010/08/08 01:53
KOLF 080153Z AUTO 00000KT 10SM CLR 28/13 A2966 RMK AO2 SLP035 T02780128

2010/08/08 01:53
KONO 080153Z AUTO 16003KT 10SM CLR 28/15 A2972 RMK AO2 SLP048 T02830150

2010/08/08 01:53
KOPF 080153Z AUTO 12003KT 10SM CLR 27/24 A2998 RMK AO2 SLP152 T02670244

2010/08/08 01:53
KORL 080153Z 20003KT 10SM CLR 28/26 A2994 RMK AO2 SLP140 T02780256

2010/08/08 01:53
KOSU 080153Z 00000KT 10SM CLR 22/15 A2999 RMK AO2 SLP149 T02220150

2010/08/08 01:53
KOWD 080153Z 00000KT 10SM CLR 15/10 A3000 RMK AO2 SLP159 T01500100 $

2010/08/08 01:53
KOXB 080153Z AUTO 14003KT 10SM CLR 24/23 A2999 RMK AO2 SLP155 T02390228

2010/08/08 01:53
KPBG 080153Z AUTO 00000KT 10SM CLR 13/11 A2996 RMK AO2 SLP146 T01280111

2010/08/08 01:53
KPBI 080153Z 22003KT 10SM BKN250 27/24 A2995 RMK AO2 SLP142 T02720237 $

2010/08/08 01:53
KPEO 080153Z AUTO 00000KT 10SM CLR 14/11 A3001 RMK AO2 SLP161 T01390111 $

2010/08/08 01:53
KPGD 080153Z AUTO 27004KT 10SM CLR 29/23 A2998 RMK AO2 SLP151 T02890233 TSNO

2010/08/08 01:53
KPHD 080153Z AUTO 00000KT 10SM CLR 19/16 A3002 RMK AO2 SLP159 T01890156

2010/08/08 01:53
KPIE 080153Z 23004KT 10SM CLR 28/25 A2994 RMK AO2 SLP138 T02830250

2010/08/08 01:53
KPIH 080153Z 26012KT 10SM CLR 27/08 A2986 RMK AO2 SLP063 T02720083

2010/08/08 01:53
KPKB 080153Z AUTO 00000KT 10SM CLR 21/18 A3003 RMK AO2 SLP162 T02060178

2010/08/08 01:53
KPMP 080153Z AUTO 19004KT 10SM RA CLR 27/25 A2997 RMK AO2 SLP148 P0000 T02670250

2010/08/08 01:53
KPNS 080153Z 34003KT 10SM -TSRA BKN065 25/23 A2990 RMK AO2 SLP124 P0000 T02500233 $

2010/08/08 01:53
KPOU 080153Z AUTO 14004KT 10SM CLR 18/12 A2997 RMK AO2 SLP144 T01780122 TSNO

2010/08/08 01:53
KLAA 080153Z AUTO VRB03KT 10SM CLR 23/18 A2986 RMK AO2 LTG DSNT N TSE37RAE0056 SLP062 P0000 T02330178

2010/08/08 01:53
KLAR 080153Z AUTO 25008KT 10SM CLR 19/07 A3014 RMK AO2 SLP097 T01890067

2010/08/08 01:53
KLAW 080153Z AUTO 15006KT 10SM CLR 33/21 A2981 RMK AO2 SLP081 T03330206

2010/08/08 01:53
KLEB 080153Z AUTO 00000KT 10SM CLR 13/09 A2998 RMK AO2 SLP148 T01330094

2010/08/08 01:53
KLEE 080153Z AUTO 00000KT 10SM CLR 29/26 A2994 RMK AO2 RAB03E14 SLP137 P0000 T02890261 TSNO

2010/08/08 01:52
K9V9 080152Z AUTO 00000KT 31/19 A2967 RMK AO2 SLP031 T03060194 PWINO TSNO

2010/08/08 01:52
KABI 080152Z 16004KT 10SM CLR 31/21 A2986 RMK AO2 SLP081 T03060206 $

2010/08/08 01:52
KCZZ 080152Z AUTO 22011KT 22/10 A2985 RMK AO2 SLP083 T02170100 PWINO TSNO

2010/08/08 01:52
KP69 080152Z AUTO 35004KT 24/14 A2972 RMK AO2 SLP047 T02390139 PWINO TSNO

2010/08/08 01:53
KBFF 080153Z AUTO 17005KT 10SM CLR 29/14 A2984 RMK AO2 SLP051 T02890139

2010/08/08 01:51
KBVE 080151Z AUTO 25005KT 10SM SCT031 31/26 A2991 RMK AO2 SLP129 T03060256 TSNO

2010/08/08 01:51
KCBE 080151Z AUTO 00000KT 10SM CLR 23/15 A3004 RMK AO1

2010/08/08 01:53
KCLL 080153Z AUTO 16008KT 10SM CLR 32/22 A2985 RMK AO2 SLP103 T03170222

2010/08/08 01:51
KCRP 080151Z 15006KT 10SM FEW025 28/24 A2986 RMK AO2 SLP109 T02830244

2010/08/08 01:53
KCRQ 080153Z AUTO 25006KT 10SM FEW015 18/13 A2986 RMK AO2 SLP109 T01780128 TSNO

2010/08/08 01:53
KDBQ 080153Z AUTO 16007KT 9SM CLR 23/20 A2986 RMK AO2 SLP106 T02280200

2010/08/08 01:53
KODX 080153Z AUTO 18004KT 10SM CLR 28/23 A2975 RMK AO2 SLP059 T02780233

2010/08/08 01:51
KORF 080151Z 10003KT 9SM FEW010 24/23 A2997 RMK AO2 SLP149 T02440228 $

2010/08/08 01:53
KPDX 080153Z 34008KT 10SM FEW040 SCT060 OVC080 21/16 A2989 RMK AO2 RAB06E21 SLP122 P0000 T02110161

2010/08/08 01:53
KPGA 080153Z AUTO 00000KT 10SM CLR 21/13 A3005 RMK AO2 SLP121 T02060133

2010/08/08 01:53
KDMN 080153Z AUTO 28008KT 10SM CLR 29/12 A2996 RMK AO2 SLP066 T02940122

2010/08/08 01:53
KDRT 080153Z AUTO 12006KT 10SM CLR 34/17 A2979 RMK AO2 SLP069 T03440167

2010/08/08 01:53
KEMP 080153Z AUTO 15008KT 10SM CLR 28/22 A2984 RMK AO2 SLP091 T02830217

2010/08/08 01:53
KFAT 080153Z 31009KT 10SM FEW100 34/08 A2970 RMK AO2 SLP054 TCU CU BLDUP OMTNS DSNT NW-NE-SE T03390078

2010/08/08 01:53
KFNB 080153Z AUTO 15006KT 10SM CLR 27/23 A2979 RMK AO2 SLP078 T02670228

2010/08/08 01:53
KGEG 080153Z 24014KT 10SM FEW090 SCT140 BKN200 27/07 A2976 RMK AO2 SLP062 T02670072

2010/08/08 01:53
KGRR 080153Z 19005KT 10SM FEW050 SCT120 23/18 A2991 RMK AO2 SLP125 T02280178 $

2010/08/08 01:53
KHLC 080153Z AUTO 00000KT 10SM CLR 28/18 A2978 RMK AO2 SLP057 T02830183

2010/08/08 01:53
KHSI 080153Z AUTO 16006KT 10SM CLR 29/22 A2978 RMK AO2 SLP063 T02940217

2010/08/08 01:53
KHSV 080153Z 00000KT 10SM CLR 30/16 A2992 RMK AO2 SLP122 T03000161

2010/08/08 01:53
KJBR 080153Z AUTO 06003KT 10SM CLR 27/20 A2988 RMK AO2 SLP115 T02670200

2010/08/08 01:53
KJLN 080153Z 14004KT 10SM CLR 28/23 A2986 RMK AO2 SLP100 T02830228

2010/08/08 01:53
KLIT 080153Z 14005KT 10SM FEW150 BKN250 29/24 A2986 RMK AO2 SLP112 T02890244

2010/08/08 01:53
KLWD 080153Z AUTO 15005KT 10SM CLR 26/22 A2984 RMK AO2 SLP096 T02560217

2010/08/08 01:53
KP68 080153Z AUTO 20010KT 28/M17 A2990 RMK AO2 SLP041 T02831167 PWINO TSNO

2010/08/08 01:53
KRNM 080153Z 27009KT 10SM CLR 19/12 A2986 RMK AO2 SLP103 T01940117

2010/08/08 01:53
KSTC 080153Z 20009KT 10SM CLR 28/23 A2965 RMK AO2 LTG DSNT N SLP043 T02780228

2010/08/08 01:53
KPOF 080153Z AUTO 00000KT 8SM CLR 25/21 A2989 RMK AO2 SLP118 T02500211

2010/08/08 01:53
KRMG 080153Z AUTO 00000KT 10SM CLR 26/21 A2992 RMK AO2 SLP123 T02610206

2010/08/08 01:51
KSAN 080151Z 29005KT 10SM SCT021 18/12 A2988 RMK AO2 SLP118 T01830122 $

2010/08/08 01:53
KSAT 080153Z 14012KT 10SM FEW055 SCT250 32/21 A2986 RMK AO2 SLP093 T03220206

2010/08/08 01:53
KSEA 080153Z 18007KT 10SM -RA FEW005 BKN022 OVC065 17/16 A2991 RMK AO2 SLP132 P0004 T01720161

2010/08/08 01:53
KYKM 080153Z 33010KT 10SM BKN090 26/10 A2979 RMK AO2 SLP082 T02560100 $

2010/08/08 01:53
PHTO 080153Z 09008KT 10SM SCT025 BKN065 27/21 A3004 RMK AO2 SLP169 T02670206

2010/08/08 01:53
PHKO 080153Z 25007KT 10SM OVC050 27/21 A3000 RMK AO2 SLP158 T02670206

2010/08/08 01:53
PHLI 080153Z AUTO 06011KT 10SM SCT018 BKN026 BKN047 27/21 A3006 RMK AO2 RAB09E19 SLP177 P0000 T02720206 TSNO

2010/08/08 01:51
KVCT 080151Z 16008KT 10SM CLR 28/25 A2987 RMK AO2 SLP112 T02830250 PNO $

2010/08/08 01:53
KOQT 080153Z AUTO 00000KT 10SM CLR 24/19 A2998 RMK AO2 SLP134 T02440194 TSNO

2010/08/08 01:53
KRWF 080153Z AUTO 19010KT 10SM CLR 27/22 A2965 RMK AO2 SLP036 T02720222

2010/08/08 01:53
KRWI 080153Z AUTO 06003KT 10SM CLR 24/21 A2996 RMK AO2 SLP144 T02440211

2010/08/08 01:53
KSAC 080153Z 20010KT 10SM CLR 26/13 A2971 RMK AO2 SLP061 T02560133

2010/08/08 01:53
KSAF 080153Z 00000KT 10SM VCTS FEW110 26/08 A3009 RMK AO2 LTG DSNT NE AND E TSE02B45 SLP070 T02610078

2010/08/08 01:53
KSBM 080153Z AUTO 22006KT 10SM SCT095 BKN120 23/18 A2984 RMK AO2 SLP100 T02280183

2010/08/08 01:53
KSDL 080153Z 04010KT 10SM CLR 34/15 A2979 RMK AO2 SLP058 T03440150

2010/08/08 01:53
KSFF 080153Z 25012KT 10SM CLR 28/07 A2974 RMK AO2 SLP055 T02780072

2010/08/08 01:53
KSHN 080153Z AUTO 23008KT 1 3/4SM BR BKN014 OVC022 16/16 A2989 RMK AO2 SLP121 T01610156

2010/08/08 01:53
KSIY 080153Z AUTO 01012KT 10SM 28/09 A2984 RMK AO2 SLP092 T02830089 $

2010/08/08 01:53
KWVI 080153Z AUTO 19008KT 10SM OVC011 14/11 A2987 RMK AO2 CIG 009V013 SLP113 T01390111 $

2010/08/08 01:53
KXNA 080153Z 18004KT 10SM CLR 26/23 A2989 RMK AO2 SLP107 T02610228

2010/08/08 01:50
PALV 080150Z 09005KT 5SM -RA BKN008 OVC020 13/12 A2968 RMK EST PASS CLSD NOSPECI

2010/08/08 01:52
PATA 080152Z 00000KT 10SM SCT035 BKN070 17/11 A2963 RMK AO2 RAB0057E16 SLP033 P0000 T01670106

2010/08/08 01:53
PHJR 080153Z VRB06G18KT 10SM BKN049 30/18 A3003 RMK AO2 SLP175 T03000183

2010/08/08 01:53
PHJR 080153Z VRB06G18KT 10SM BKN049 30/18 A3003 RMK AO2 SLP175 T03000183

2010/08/08 01:53
KMSY 080153Z 18004KT 10SM SCT055 SCT250 29/25 A2989 RMK AO2 SLP126 T02940250

2010/08/08 01:53
KSGR 080153Z 17006KT 10SM CLR 29/24 A2986 RMK AO2 SLP120 T02890239

2010/08/08 01:53
KOVE 080153Z AUTO 16010KT 10SM CLR 33/11 A2969 RMK AO2 SLP054 T03280106 TSNO $

2010/08/08 01:53
KCAG 080153Z AUTO 00000KT 10SM -RA OVC085 15/13 A3019 RMK AO2 SLP174 P0000 T01500128

2010/08/08 01:53
KCDC 080153Z AUTO VRB05G15KT 10SM CLR 23/08 A3003 RMK AO2 SLP090 T02330083

2010/08/08 01:53
KCDS 080153Z AUTO 15007KT 10SM CLR 29/20 A2984 RMK AO2 SLP075 T02940200

2010/08/08 01:53
KCDW 080153Z 00000KT 10SM CLR 24/17 A2998 RMK AO2 SLP156 T02390172

2010/08/08 01:53
KCEW 080153Z AUTO 00000KT 7SM CLR 24/24 A2992 RMK AO2 SLP127 T02440239

2010/08/08 01:53
KCEZ 080153Z AUTO 00000KT 8SM -RA BKN034 OVC080 18/16 A3017 RMK AO2 RAB43 SLP151 P0000 T01830156

2010/08/08 01:53
KCKB 080153Z 00000KT 10SM CLR 19/15 A3003 RMK AO2 SLP158 T01890150

2010/08/08 01:53
KCPR 080153Z 30011KT 10SM CLR 28/01 A2991 RMK AO2 PK WND 28028/0112 SLP050 T02780011

2010/08/08 01:53
KCRE 080153Z AUTO 00000KT 5SM BR BKN019 26/25 A2993 RMK AO2 SLP135 T02560250

2010/08/08 01:53
KCRG 080153Z AUTO 28004KT 10SM CLR 25/24 A2992 RMK AO2 RAE18 SLP133 P0000 T02500239

2010/08/08 01:53
KCRS 080153Z AUTO 16004KT 10SM CLR 31/22 A2982 RMK AO2 SLP092 T03110217

2010/08/08 01:53
KCSM 080153Z AUTO 15010KT 10SM CLR 33/19 A2987 RMK AO2 SLP082 T03330189

2010/08/08 01:53
KCUB 080153Z AUTO 00000KT 8SM CLR 28/24 A2995 RMK AO2 SLP137 T02780239

2010/08/08 01:53
KCYS 080153Z 17010KT 10SM -RA FEW055 OVC090 23/08 A3006 RMK AO2 PK WND 24032/0127 WSHFT 0124 RAB11 SLP091 P0000 T02280078 $

2010/08/08 01:53
KDEN 080153Z 04004KT 10SM FEW050 SCT080 BKN120 21/14 A2998 RMK AO2 TSE07RAE0055 SLP072 P0000 T02110144

2010/08/08 01:53
KDEQ 080153Z AUTO 00000KT 10SM CLR 28/24 A2981 RMK AO2 SLP089 T02780244

2010/08/08 01:53
KDET 080153Z 23006KT 10SM CLR 24/16 A2993 RMK AO2 SLP135 T02440161

2010/08/08 01:53
KDFI 080153Z AUTO 00000KT 10SM CLR 22/17 A2996 RMK AO2 SLP143 T02170167

2010/08/08 01:53
KDFW 080153Z 17010KT 10SM FEW060 SCT120 SCT250 34/20 A2980 RMK AO2 SLP081 T03440200 $

2010/08/08 01:53
KDGW 080153Z AUTO 20006KT 10SM FEW090 28/04 A2989 RMK AO2 SLP052 T02780044

2010/08/08 01:53
KDHN 080153Z AUTO 13004KT 9SM SCT085 24/23 A2998 RMK AO2 SLP146 T02440233 $

2010/08/08 01:53
KDKK 080153Z AUTO 00000KT 10SM BKN090 16/13 A2999 RMK AO2 SLP154 T01610128

2010/08/08 01:53
KDLN 080153Z AUTO 21003KT 10SM BKN110 18/08 A2993 RMK AO2 SLP090 T01780083 $

2010/08/08 01:52
KNHK 080152Z AUTO 00000KT 10SM CLR 22/17 A2997 RMK AO2 SLP149 T02170172

2010/08/08 01:52
KNFW 080152Z AUTO 16008KT 10SM CLR 35/19 A2984 RMK AO2 SLP090 T03500194 $

2010/08/08 01:55
KBLV 080155Z AUTO 08003KT 10SM CLR 25/21 A2991 RMK AO2 SLP126 T02490209

2010/08/08 01:55
KLRF 080155Z AUTO 11003KT 10SM CLR 28/25 A2987 RMK AO2 SLP111 T02800251

2010/08/08 01:55
KRDR 080155Z AUTO 10003KT 10SM CLR 27/21 A2962 RMK AO2 SLP044 T02720211 $

2010/08/08 01:53
PHNL 080153Z 04010G17KT 10SM FEW026 SCT045 SCT060 30/19 A3002 RMK AO2 PK WND 06026/0121 SLP166 T03000189

2010/08/08 01:53
KNIP 080153Z 25007KT 10SM SCT030 OVC150 25/24 A2993 RMK AO2 RAB0054E20 SLP130 T2 SET P0000 T02500239

2010/08/08 01:53
KDTS 080153Z AUTO 36005KT 10SM CLR 28/25 A2989 RMK AO2 SLP120 T02780250

2010/08/08 01:53
KIAG 080153Z 20004KT 10SM FEW250 18/12 A2997 RMK AO2 SLP147 T01830117

2010/08/08 01:53
KNQX 080153Z 00000KT 10SM SCT025 SCT041 31/26 A2997 RMK AO2 SLP146 T03060256 $

2010/08/08 01:53
KDNK 080153Z AUTO 19006KT 10SM CLR 29/24 A2988 RMK AO2 SLP113 T02940239 PNO $

2010/08/08 01:55
KCEF 080155Z AUTO 01004KT 10SM CLR 14/12 A3000 RMK AO2 SLP159 T01420123

2010/08/08 01:55
KHMN 080155Z AUTO 00000KT 10SM CLR 32/12 A2991 RMK AO2 WSHFT 0049 SLP038 T03250116 $

2010/08/08 01:55
KHST 080155Z AUTO 15004KT 10SM CLR 27/25 A2998 RMK AO2 SLP154 T02740251

2010/08/08 01:55
KMMT 080155Z AUTO 00000KT 10SM R32/5500VP6000FT CLR 26/25 A2994 RMK AO2 SLP137 T02610247

2010/08/08 01:52
KNRB 080152Z 26003KT 10SM FEW030 OVC150 26/23 A2992 RMK AO2 RAE28 SLP132 T2 SET P0000 T02610233

2010/08/08 01:55
KSUU 080155Z AUTO 24019G27KT 10SM CLR 22/12 A2971 RMK AO2 PK WND 24027/0147 SLP062 T02170120 RVRNO $

2010/08/08 01:55
KSVN 080155Z AUTO 27003KT 6SM 26/24 A2992 RMK AO2 SLP132

2010/08/08 01:55
KSZL 080155Z AUTO 13004KT 10SM CLR 26/22 A2985 RMK AO2 SLP103 T02620217 PNO $

2010/08/08 01:54
KBKB 080154Z AUTO 00000KT 10SM CLR 29/25 A2986 RMK AO2 SLP134 T02940250 $

2010/08/08 01:54
KNFG 080154Z AUTO VRB04KT 10SM CLR 17/13 A2986 RMK AO2 SLP110 T01720128 TSNO $

2010/08/08 01:53
PABI 080153Z 00000KT 10SM FEW020 SCT046 SCT075 BKN180 18/07 A2967 RMK AO2 SLP049 SHRA DSNT NW CB DSNT N-NE DSIPTD T01830067 $

2010/08/08 01:54
KECG 080154Z AUTO 09004KT 7SM BKN007 BKN100 25/24 A2997 RMK AO2 SLP149 T02500244

2010/08/08 01:53
KBNO 080153Z AUTO 27006KT 10SM CLR 28/01 A2985 RMK AO2 SLP074 T02780006 TSNO $

2010/08/08 01:53
KELY 080153Z AUTO 21010G19KT 10SM CLR 27/M05 A2997 RMK AO2 SLP047 T02721050

2010/08/08 01:53
K40J 080153Z AUTO 02003KT 25/23 A2993 RMK AO2 SLP135 T02500233 PWINO TSNO

2010/08/08 01:53
KDAB 080153Z 00000KT 10SM -RA BKN030 BKN140 OVC200 26/24 A2993 RMK AO2 RAB21E29B53 SLP135 PCPN VRY LGT P0000 T02610244

2010/08/08 01:51
KSAN 080151Z 29005KT 10SM SCT021 18/12 A2988 RMK AO2 SLP118 T01830122 $

2010/08/08 01:54
K1V4 080154Z AUTO 12/10 A2999 RMK AO2 SLP152 T01220100 PWINO TSNO

2010/08/08 01:54
KMQE 080154Z AUTO 00000KT 21/09 A3001 RMK AO1 SLP170 T02110089

2010/08/08 01:54
KBUF 080154Z 21006KT 10SM FEW080 SCT300 18/10 A2998 RMK AO2 SLP149 T01830100

2010/08/08 01:54
KCOS 080154Z 20003KT 10SM CLR 22/12 A3006 RMK AO2 SLP089 T02220122

2010/08/08 01:54
KCRW 080154Z 00000KT 10SM FEW055 21/18 A3000 RMK AO2 SLP153 T02060183

2010/08/08 01:54
KDSM 080154Z 16008KT 10SM FEW100 27/22 A2981 RMK AO2 SLP085 T02720217

2010/08/08 01:55
KDVL 080155Z AUTO 02004KT 10SM SCT043 BKN050 26/19 A2964 RMK AO1

2010/08/08 01:54
KAVP 080154Z 00000KT 10SM CLR 21/10 A3000 RMK AO2 SLP149 T02060100

2010/08/08 01:54
KWAL 080154Z AUTO 13004KT 10SM CLR 24/22 A2999 RMK AO2 SLP153 T02390217 TSNO

2010/08/08 01:54
KROC 080154Z 22003KT 10SM FEW080 17/12 A2998 RMK AO2 SLP152 T01720117 $

2010/08/08 01:54
KDMH 080154Z AUTO 27/15 A2997 RMK AO2 SLP149 T02720150 PWINO TSNO

2010/08/08 01:54
K12N 080154Z AUTO 00000KT 18/15 A3000 RMK AO2 SLP153 T01780150 PWINO TSNO

2010/08/08 01:54
KGSO 080154Z 06004KT 10SM CLR 26/17 A3001 RMK AO2 SLP150 T02560172

2010/08/08 01:54
KNAK 080154Z AUTO 16003KT 10SM CLR 26/14 A2997 RMK AO2 SLP150 T02560139 TSNO

2010/08/08 01:54
KRIC 080154Z 13005KT 10SM BKN050 25/19 A2998 RMK AO2 SLP155 T02500189

2010/08/08 01:53
PAOT 080153Z 29018KT 10SM FEW003 SCT035 BKN080 BKN180 12/11 A2956 RMK AO2 SLP008 T01170106

2010/08/08 01:53
PAQT 080153Z AUTO 06017G25KT 10SM OVC008 06/05 A2975 RMK AO2 SLP073 T00610050 TSNO

2010/08/08 01:53
PASN 080153Z AUTO 14016G21KT 1 1/2SM RA BR BKN003 OVC011 08/08 A2942 RMK AO2 SLP964 P0008 T00830083 TSNO

2010/08/08 01:53
PATK 080153Z AUTO 20007KT 10SM FEW030 OVC065 16/09 A2972 RMK AO2 SLP065 T01560094 TSNO

2010/08/08 01:53
PAYA 080153Z 22003KT 10SM BKN012 BKN016 OVC029 15/11 A2982 RMK AO2 SLP099 BAY TWR WND 310MMKT T01500111

2010/08/08 01:53
PABE 080153Z 20008KT 10SM SCT010 BKN017 OVC070 12/10 A2971 RMK AO2 SLP062 T01220100

2010/08/08 01:53
PABT 080153Z 19004KT 10SM SCT022 BKN029 OVC049 15/12 A2960 RMK AO2 RAB41E47 SLP031 P0000 T01500117 $

2010/08/08 01:53
PACD 080153Z AUTO 14018G24KT 10SM -RA BKN003 12/11 A2978 RMK AO2 PK WND 14027/0113 RAB48 SLP084 P0000 T01170111 TSNO

2010/08/08 01:53
PAFA 080153Z 00000KT 10SM FEW045 BKN075 BKN180 20/10 A2963 RMK AO2 SLP037 SH DSNT SE T02000100 $

2010/08/08 01:53
PAHO 080153Z 00000KT 10SM FEW010 SCT022 OVC047 12/11 A2978 RMK AO2 SLP083 T01170106

2010/08/08 01:53
PAJN 080153Z 06008KT 4SM -RA BR FEW005 BKN024 OVC040 12/12 A2983 RMK AO2 SLP100 MTNS OBSCD ALQDS P0002 T01220117

2010/08/08 01:53
PAMC 080153Z 18003KT 10SM SCT029 OVC050 13/10 A2969 RMK AO2 RAE27 SLP057 P0000 T01330100

2010/08/08 01:53
PANC 080153Z 19005KT 7SM -RA FEW009 BKN020 OVC050 13/12 A2974 RMK AO2 SLP072 P0003 T01280117

2010/08/08 01:53
PANN 080153Z AUTO VRB03KT 10SM CLR 21/08 A2962 RMK AO2 SLP033 T02060083 TSNO

2010/08/08 01:53
PANT 080153Z AUTO 24004KT 10SM OVC028 16/11 A2989 RMK AO2 SLP122 T01560111 TSNO

2010/08/08 01:53
PAOM 080153Z 23008KT 10SM FEW010 SCT020 SCT055 13/11 A2959 RMK AO2 SLP022 T01330111

2010/08/08 01:53
PAOR 080153Z 31004KT 10SM SCT045 BKN140 BKN250 19/08 A2964 RMK AO2 SLP036 SHRA DSNT S T01940083

2010/08/08 01:54
PHOG 080154Z 06022G29KT 10SM FEW035 SCT045 30/19 A2999 RMK AO2 PK WND 05032/0058 SLP160 T03000194

2010/08/08 01:54
KSUS 080154Z 14004KT 10SM CLR 26/20 A2988 RMK AO2 SLP111 T02610200

2010/08/08 01:54
KSYR 080154Z 00000KT 10SM SCT250 17/13 A2998 RMK AO2 SLP149 T01670133

2010/08/08 01:53
KGTF 080153Z AUTO 26005KT 10SM CLR 26/03 A2974 RMK AO2 LTG DSNT SE AND S SLP037 T02610028

2010/08/08 01:53
KGUP 080153Z AUTO 00000KT 4SM RA BR BKN042 BKN050 OVC065 16/15 A3021 RMK AO2 RAB46 SLP102 P0002 T01610150

2010/08/08 01:53
KGZH 080153Z AUTO 00000KT 10SM VCTS CLR 26/24 A2993 RMK AO2 LTG DSNT N AND NE TSB39 SLP130 P0008 T02610239

2010/08/08 01:53
KHAO 080153Z AUTO 00000KT 10SM CLR 21/17 A2998 RMK AO2 SLP147 T02060167

2010/08/08 01:53
KHBR 080153Z AUTO 15007KT 10SM CLR 33/18 A2984 RMK AO2 SLP079 T03330183

2010/08/08 01:53
KHFD 080153Z 16005KT 10SM CLR 22/16 A2998 RMK AO2 SLP151 T02220156

2010/08/08 01:53
KHIB 080153Z AUTO 15006KT 10SM BKN050 OVC060 22/19 A2970 RMK AO2 SLP055 T02220189

2010/08/08 01:53
KHLN 080153Z 30007KT 10SM CLR 27/04 A2977 RMK AO2 SLP063 T02720039

2010/08/08 01:53
KHUF 080153Z AUTO 00000KT 7SM CLR 21/19 A2994 RMK AO2 SLP136 T02060194

2010/08/08 01:53
KHUL 080153Z AUTO 19004KT 10SM CLR 12/06 A2995 RMK AO2 SLP143 T01220061

2010/08/08 01:53
KHVN 080153Z 21003KT 10SM CLR 24/18 A2999 RMK AO2 SLP155 T02390183

2010/08/08 01:53
KHWO 080153Z AUTO 16003KT 10SM CLR 27/24 A2998 RMK AO2 SLP153 T02720239 $

2010/08/08 01:53
KHZY 080153Z AUTO 00000KT 10SM CLR 17/15 A3000 RMK AO2 SLP156 T01670150

2010/08/08 01:53
KIDA 080153Z AUTO 04004KT 10SM SCT130 24/11 A2987 RMK AO2 RAB26E35 SLP074 P0000 T02390106

2010/08/08 01:53
KILM 080153Z AUTO 00000KT 9SM CLR 25/22 A2994 RMK AO2 SLP138 T02500222 TSNO

2010/08/08 01:53
KIML 080153Z AUTO 14005KT 10SM CLR 27/19 A2982 RMK AO2 SLP061 T02720194

2010/08/08 01:53
KINK 080153Z AUTO 14013G19KT 10SM CLR 34/12 A2985 RMK AO2 SLP056 T03390117 TSNO

2010/08/08 01:53
KITR 080153Z AUTO 22004KT 10SM CLR 24/19 A2993 RMK AO2 LTG DSNT W AND NW SLP078 T02390194

2010/08/08 01:53
KIWI 080153Z AUTO 00000KT 10SM CLR 13/12 A3001 RMK AO2 SLP162 T01280117

2010/08/08 01:53
KJER 080153Z AUTO 28005KT 10SM CLR 25/12 A2983 RMK AO2 SLP065 T02500117

2010/08/08 01:53
KJKL 080153Z AUTO 00000KT 10SM CLR 23/16 A3001 RMK AO2 SLP149 T02280156

2010/08/08 01:53
KDVT 080153Z AUTO 36013KT 10SM CLR 32/16 A2977 RMK AO2 SLP058 T03170161 TSNO

2010/08/08 01:53
KDXR 080153Z 00000KT 10SM CLR 20/15 A3001 RMK AO2 SLP157 T02000150

2010/08/08 01:53
KECP 080153Z 04004KT 9SM BR FEW026 26/25 A2991 RMK AO2 LTG DSNT SE SLP139 T02610250

2010/08/08 01:53
KELD 080153Z AUTO 00000KT 8SM CLR 26/25 A2985 RMK AO2 RAE03 SLP105 P0001 T02610250

2010/08/08 01:53
KELM 080153Z 00000KT 10SM CLR 17/11 A3001 RMK AO2 SLP160 T01670111

2010/08/08 01:50
KEMT 080150Z 20010KT 25SM SKC A2983

2010/08/08 01:53
KEVW 080153Z AUTO 18006KT 10SM BKN075 OVC100 16/07 A3014 RMK AO2 SLP124 T01560067

2010/08/08 01:53
KEWB 080153Z 00000KT 10SM CLR 18/16 A3001 RMK AO2 SLP160 T01830161

2010/08/08 01:53
KEYE 080153Z AUTO 00000KT 9SM CLR 24/19 A2996 RMK AO2 SLP138 T02390189

2010/08/08 01:53
KEYW 080153Z AUTO 00000KT 10SM SCT023 31/26 A2997 RMK AO2 SLP149 T03060261

2010/08/08 01:53
KFAY 080153Z AUTO 10009KT 10SM SCT028 BKN037 OVC050 27/22 A2995 RMK AO2 SLP136 T02720217

2010/08/08 01:53
KFDR 080153Z AUTO 14007KT 10SM 33/22 A2979 RMK AO2 SLP066 T03280217

2010/08/08 01:53
KFDY 080153Z AUTO 00000KT 10SM CLR 22/17 A2997 RMK AO2 SLP140 T02170172

2010/08/08 01:53
KFFT 080153Z AUTO 00000KT 10SM CLR 21/17 A2997 RMK AO2 SLP142 T02110172

2010/08/08 01:53
KFLL 080153Z 19004KT 10SM FEW050 27/24 A2996 RMK AO2 SLP145 T02670244 PNO $

2010/08/08 01:53
KFLO 080153Z AUTO 17010KT 7SM -TSRA FEW043 BKN060 OVC095 24/23 A2994 RMK AO2 LTG DSNT S AND SW TSB24RAB0059 SLP137 P0011 T02440228

2010/08/08 01:53
KFMY 080153Z AUTO 26005KT 10SM CLR 29/24 A2994 RMK AO2 SLP142 T02890244

2010/08/08 01:53
KFOK 080153Z 16004KT 10SM CLR 20/17 A3001 RMK AO2 SLP163 T02000167

2010/08/08 01:53
KFPR 080153Z AUTO 18003KT 10SM CLR 26/24 A2996 RMK AO2 SLP144 T02560244

2010/08/08 01:53
KFRG 080153Z 18007KT 10SM CLR 23/19 A2999 RMK AO2 SLP156 T02330194

2010/08/08 01:53
KFTW 080153Z 17008KT 10SM CLR 33/21 A2980 RMK AO2 SLP080 T03330206

2010/08/08 01:53
KFUL 080153Z 21007KT 10SM CLR 19/13 A2984 RMK AO2 SLP102 T01890128

2010/08/08 01:53
KSPW 080153Z AUTO 18005KT 10SM CLR 25/22 A2974 RMK AO2 SLP062 T02500222

2010/08/08 01:53
KSSF 080153Z 13008KT 10SM CLR 32/21 A2984 RMK AO2 SLP092 T03220211

2010/08/08 01:53
KSTJ 080153Z 15007KT 9SM CLR 28/22 A2981 RMK AO2 SLP085 T02830222

2010/08/08 01:53
KSTP 080153Z 18008KT 10SM CLR 28/23 A2968 RMK AO2 SLP045 T02830228

2010/08/08 01:53
KSTS 080153Z 17007KT 10SM CLR 18/11 A2977 RMK AO2 SLP074 T01780111

2010/08/08 01:53
KSWO 080153Z AUTO 13011KT 10SM CLR 32/23 A2981 RMK AO2 SLP078 T03220228

2010/08/08 01:53
KTCC 080153Z AUTO 19008KT 10SM CLR 29/13 A2990 RMK AO2 SLP053 T02940128

2010/08/08 01:53
KTCL 080153Z AUTO 00000KT 7SM SCT095 28/24 A2990 RMK AO2 SLP121 T02830244

2010/08/08 01:53
KTIW 080153Z 21004KT 4SM -RA BR BKN005 OVC010 17/16 A2991 RMK AO2 RAB41 CIG 003V007 SLP126 P0000 T01670161

2010/08/08 01:53
KTOP 080153Z AUTO 15007KT 10SM CLR 30/23 A2981 RMK AO2 SLP085 T03000228

2010/08/08 01:53
KTTD 080153Z 32004KT 10SM FEW055 SCT065 BKN090 23/15 A2987 RMK AO2 RAB07E47 SLP113 P0000 T02280150

2010/08/08 01:53
KTUL 080153Z 12005KT 10SM CLR 28/23 A2982 RMK AO2 SLP089 T02830233

2010/08/08 01:53
KTVC 080153Z 18003KT 10SM FEW080 SCT250 22/17 A2981 RMK AO2 SLP094 LAST AUGMENTED OBS. OF DAY UNTIL 1000Z T02220172

2010/08/08 01:53
KTVL 080153Z AUTO 16016G26KT 10SM -TSRA OVC080 19/04 A3007 RMK AO2 PK WND 19031/0122 LTG DSNT N AND SW TSE0059B05RAB46 SLP140 P0000 T01890044

2010/08/08 01:53
KTVR 080153Z AUTO 00000KT 6SM BR CLR 27/26 A2987 RMK AO2 SLP122 T02720256

2010/08/08 01:53
KUNO 080153Z AUTO 15005KT 10SM CLR 27/18 A2993 RMK AO2 SLP118 T02720183

2010/08/08 01:53
KUTS 080153Z AUTO 18004KT 10SM CLR 30/23 A2987 RMK AO2 SLP108 T03000233

2010/08/08 01:53
KVCB 080153Z AUTO 22008KT 10SM CLR 27/12 A2970 RMK AO2 SLP056 T02720117

2010/08/08 01:53
KVGT 080153Z 36010G14KT 10SM BKN110 32/10 A2973 RMK AO2 SLP030 T03220100

2010/08/08 01:53
KVIH 080153Z AUTO 11006KT 10SM CLR 24/21 A2990 RMK AO2 SLP112 T02440211

2010/08/08 01:53
KVPC 080153Z AUTO 15005KT 10SM SCT070 28/22 A2995 RMK AO2 SLP127 T02780222

2010/08/08 01:53
KVPZ 080153Z AUTO 17004KT 10SM CLR 23/19 A2994 RMK AO2 SLP132 T02280189

2010/08/08 01:53
KVUO 080153Z AUTO 33009G16KT 10SM OVC070 21/16 A2989 RMK AO2 RAE24 SLP122 P0000 T02060156

2010/08/08 01:51
KW29 080151Z AUTO 00000KT 10SM CLR 21/17 A2997 RMK AO1

2010/08/08 01:53
KPKD 080153Z AUTO 10005KT 10SM BKN037 OVC044 25/20 A2968 RMK AO2 LTG DSNT SE-SW SLP043 T02500200

2010/08/08 01:53
KPMD 080153Z AUTO 24013KT 10SM CLR 27/01 A2984 RMK AO2 SLP078 T02720006 TSNO

2010/08/08 01:53
KPNC 080153Z AUTO 13010KT 10SM CLR 31/23 A2981 RMK AO2 SLP079 T03060233

2010/08/08 01:53
KPQL 080153Z AUTO 00000KT 10SM FEW031 SCT075 27/24 A2990 RMK AO2 SLP126 T02720244

2010/08/08 01:53
KPRB 080153Z AUTO 21015KT 10SM CLR 20/10 A2980 RMK AO2 SLP087 T02000100 TSNO $

2010/08/08 01:53
KPRC 080153Z 13005KT 10SM FEW010 SCT120 20/14 A3007 RMK AO2 SLP112 T02000139

2010/08/08 01:53
KPSC 080153Z 35009KT 10SM CLR 28/12 A2971 RMK AO2 SLP059 T02830117

2010/08/08 01:53
KPSP 080153Z 31017G25KT 10SM CLR 36/07 A2965 RMK AO2 SLP037 T03560072

2010/08/08 01:53
KPSX 080153Z AUTO 16006KT 10SM CLR 30/24 A2987 RMK AO2 SLP113 T03000244

2010/08/08 01:53
KPUW 080153Z AUTO 26010KT 10SM CLR 26/07 A2981 RMK AO2 SLP080 T02610067

2010/08/08 01:53
KRAC 080153Z AUTO 22006KT 10SM CLR 25/19 A2988 RMK AO2 SLP115 T02500189

2010/08/08 01:53
KRAL 080153Z 26008KT 10SM CLR 23/13 A2982 RMK AO2 SLP084 T02330128

2010/08/08 01:53
KRBG 080153Z AUTO 33009KT 10SM CLR 27/14 A2986 RMK AO2 SLP109 T02670139

2010/08/08 01:53
KRKP 080153Z AUTO 15008KT 10SM CLR 29/25 A2985 RMK AO2 SLP111 T02940250

2010/08/08 01:53
KRNT 080153Z 14003KT 6SM -RA BR BKN020 BKN044 OVC055 18/17 A2989 RMK AO2 SLP128 P0005 T01780167

2010/08/08 01:53
KRSL 080153Z AUTO 16012KT 10SM CLR 30/21 A2978 RMK AO2 SLP063 T03000211 $

2010/08/08 01:53
KRUE 080153Z AUTO 00000KT 10SM CLR 28/24 A2985 RMK AO2 SLP101 T02830239

2010/08/08 01:53
KRVS 080153Z 13003KT 10SM CLR 31/23 A2982 RMK AO2 SLP100 T03110228

2010/08/08 01:54
KRDG 080154Z 00000KT 10SM FEW090 24/16 A2998 RMK AO2 SLP153 T02440156

2010/08/08 01:55
KRKD 080155Z AUTO 00000KT 10SM CLR 13/11 A3001 RMK AO1

2010/08/08 01:54
KRKS 080154Z AUTO 17016G24KT 10SM CLR 19/05 A3009 RMK AO2 PK WND 16026/0136 SLP117 T01890050

2010/08/08 01:54
KDYL 080154Z AUTO 00000KT 10SM CLR 21/15 A2998 RMK AO2 SLP147 T02110150 TSNO

2010/08/08 01:55
KDYR 080155Z AUTO 00000KT 10SM CLR 25/18 A2990 RMK AO1

2010/08/08 01:55
KEEN 080155Z AUTO 00000KT 10SM CLR 14/10 A3001 RMK AO1

2010/08/08 01:55
KEGE 080155Z AUTO 27008KT 10SM OVC100 20/11 A3017 RMK AO1

2010/08/08 01:55
KEHR 080155Z AUTO 00000KT 10SM CLR 22/16 A2994 RMK AO1

2010/08/08 01:55
KENV 080155Z AUTO 15026G33KT 10SM CLR 29/06 A2977 RMK AO1

2010/08/08 01:55
KESC 080155Z AUTO 22005KT 10SM FEW120 23/19 A2977 RMK AO1 LTG DSNT S

2010/08/08 01:54
KEUG 080154Z 01010KT 10SM SCT055 BKN065 BKN120 26/14 A2987 RMK AO2 WSHFT 0127 SLP113 T02560144

2010/08/08 01:55
KEUL 080155Z AUTO 04005KT 10SM CLR 30/09 A2975 RMK AO1

2010/08/08 01:54
KEVV 080154Z 00000KT 10SM CLR 24/17 A2994 RMK AO2 SLP135 T02390172

2010/08/08 01:55
KEWK 080155Z AUTO 16009KT 10SM CLR 31/19 A2980 RMK AO1

2010/08/08 01:54
KEWN 080154Z AUTO 09003KT 8SM SCT024 27/24 A2996 RMK AO2 SLP145 T02670244

2010/08/08 01:55
KFAM 080155Z AUTO 09003KT 10SM CLR 26/20 A2995 RMK AO1

2010/08/08 01:54
KFIG 080154Z AUTO 35005KT 10SM CLR 16/13 A3004 RMK AO2 SLP169 T01560128

2010/08/08 01:55
KFKL 080155Z AUTO 00000KT 10SM CLR 17/11 A3006 RMK AO1

2010/08/08 01:55
KFLP 080155Z AUTO 12003KT 10SM CLR 27/22 A2988 RMK AO1

2010/08/08 01:55
KFNL 080155Z AUTO 36010KT 10SM BKN120 26/09 A2994 RMK AO1

2010/08/08 01:55
KFOD 080155Z AUTO 19009KT 10SM CLR 26/23 A2978 RMK AO1

2010/08/08 01:55
KFRM 080155Z 18007KT 10SM CLR 26/21 A2976 RMK AO1

2010/08/08 01:50
KFTG 080150Z 02003KT 20SM SCT100 SCT250 22/13 A2999 RMK TS DSNT NE-SE

2010/08/08 01:55
KGAD 080155Z AUTO 00000KT 10SM BKN070 26/22 A2992 RMK AO1

2010/08/08 01:55
KGAI 080155Z 00000KT 10SM CLR 24/14 A3001 RMK AO1

2010/08/08 01:55
KGBD 080155Z AUTO 16012KT 10SM CLR 31/19 A2981 RMK AO1

2010/08/08 01:54
KGCK 080154Z AUTO 14018G24KT 10SM FEW095 29/18 A2984 RMK AO2 PK WND 13028/0129 SLP066 T02940183

2010/08/08 01:54
KGCN 080154Z 16004KT 10SM CLR 18/11 A3018 RMK AO2 SLP134 T01780111

2010/08/08 01:55
KGDV 080155Z AUTO 26005KT 10SM FEW120 27/11 A2972 RMK AO1

2010/08/08 01:54
KGED 080154Z AUTO 14004KT 10SM CLR 23/21 A2999 RMK AO2 SLP156 T02330206

2010/08/08 01:55
KGTR 080155Z 00000KT 10SM CLR 27/25 A2990 RMK AO1

2010/08/08 01:50
KGTU 080150Z 16005KT 10SM CLR 33/18 A2988

2010/08/08 01:55
KGUC 080155Z AUTO 23005KT 10SM BKN085 19/08 A3021 RMK AO1 LTG DSNT SW

2010/08/08 01:55
KGXY 080155Z AUTO 17006KT 10SM OVC120 28/08 A2995 RMK AO1

2010/08/08 01:55
KHDN 080155Z 28007KT 10SM OVC090 14/10 A3020 RMK AO1

2010/08/08 01:55
KHEF 080155Z AUTO 00000KT 10SM CLR 20/17 A2998 RMK AO1

2010/08/08 01:55
KHEZ 080155Z AUTO 00000KT 10SM CLR 27/23 A2990 RMK AO1

2010/08/08 01:55
KHNB 080155Z AUTO 00000KT 10SM CLR 21/18 A2995 RMK AO1

2010/08/08 01:54
KHWD 080154Z 29012G20KT 10SM CLR 17/12 A2982 RMK AO2 SLP107 T01670122 $

2010/08/08 01:55
KHYI 080155Z AUTO 15008KT 10SM CLR 31/22 A2985 RMK AO1

2010/08/08 01:55
KHYS 080155Z AUTO 18013G19KT 10SM CLR 32/19 A2980 RMK AO1

2010/08/08 01:55
KILE 080155Z AUTO 17007KT 10SM CLR 32/19 A2984 RMK AO1

2010/08/08 01:54
KILN 080154Z AUTO 11004KT 10SM CLR 20/16 A2999 RMK AO2 SLP149 T02000161

2010/08/08 01:54
KIMT 080154Z AUTO 19008KT 10SM -RA SCT100 21/19 A2978 RMK AO2 LTG DSNT S AND SW RAE0058B51 SLP082 P0000 T02060194

2010/08/08 01:54
KIND 080154Z 22004KT 10SM CLR 24/16 A2994 RMK AO2 SLP132 T02440161

2010/08/08 01:54
KINT 080154Z 06003KT 10SM CLR 24/18 A3001 RMK AO2 SLP151 T02390178

2010/08/08 01:54
KIPT 080154Z 00000KT 10SM FEW075 20/14 A2998 RMK AO2 SLP151 T02000139

2010/08/08 01:54
KISW 080154Z AUTO 21010KT 10SM CLR 24/21 A2981 RMK AO2 SLP089 T02440206 TSNO

2010/08/08 01:48
KIWA 080148Z 24004KT 45SM FEW080 SCT120 BKN200 37/13 A2978

2010/08/08 01:55
KIWD 080155Z AUTO 22006KT 9SM TS SCT025 BKN032 OVC039 22/19 A2973 RMK AO1 LTG DSNT W TSB40 P0007

2010/08/08 01:54
KIZG 080154Z AUTO 29003KT 10SM CLR 11/09 A3000 RMK AO2 SLP159 T01060094

2010/08/08 01:55
KJHW 080155Z AUTO 18003KT 10SM CLR 16/11 A3003 RMK AO1

2010/08/08 02:00
SBFI 080200Z 13008KT CAVOK 14/11 Q1016

2010/08/08 01:53
KHLG 080153Z AUTO A3003 RMK AO2 SLPNO PWINO FZRANO $

2010/08/08 01:53
KHOT 080153Z AUTO 11008KT 9SM FEW070 30/24 A2987 RMK AO2 SLP106 T03000244

2010/08/08 01:53
KHOU 080153Z 17004KT 10SM FEW060 SCT130 29/24 A2987 RMK AO2 SLP118 T02890244

2010/08/08 01:53
KHQM 080153Z AUTO 22011KT 1/2SM FG OVC001 15/14 A2993 RMK AO2 SLP137 T01500144

2010/08/08 01:53
KHRI 080153Z AUTO 26010G19KT 10SM CLR 28/11 A2972 RMK AO2 SLP059 T02830106

2010/08/08 01:53
KHRO 080153Z AUTO 13006KT 9SM CLR 27/21 A2991 RMK AO2 SLP113 T02720211

2010/08/08 01:53
KHYR 080153Z AUTO 15004KT 10SM VCTS BKN027 OVC036 22/21 A2970 RMK AO2 LTG DSNT NW-NE TSB43 SLP054 T02220206

2010/08/08 01:53
KIAH 080153Z 17005KT 10SM FEW040 SCT110 SCT250 31/23 A2987 RMK AO2 SLP114 T03060233

2010/08/08 01:53
KICR 080153Z AUTO 00000KT 10SM CLR 32/17 A2971 RMK AO2 SLP037 T03220167 TSNO

2010/08/08 01:53
KICT 080153Z 15009KT 10SM SCT100 BKN150 BKN200 31/22 A2982 RMK AO2 SLP082 T03110217

2010/08/08 01:53
KIPL 080153Z AUTO 13011KT 10SM CLR 38/08 A2960 RMK AO2 SLP026 T03780083

2010/08/08 01:53
KIXD 080153Z 14006KT 10SM CLR 28/22 A2985 RMK AO2 SLP096 T02780222

2010/08/08 01:51
KJCT 080151Z AUTO 15007KT 10SM CLR 33/17 A2988 RMK AO2 SLP076 T03280167 TSNO

2010/08/08 01:53
KJEF 080153Z 12004KT 10SM SCT090 27/23 A2987 RMK AO2 SLP098 T02720228

2010/08/08 01:55
KJZI 080155Z AUTO 00000KT 8SM CLR 26/26 A2991 RMK A02 P000

2010/08/08 01:53
KLBF 080153Z AUTO 12003KT 10SM CLR 26/23 A2979 RMK AO2 SLP059 T02610228

2010/08/08 01:53
KLBX 080153Z AUTO 00000KT 10SM CLR 28/26 A2988 RMK AO2 SLP118 T02780256 $

2010/08/08 01:53
KLCH 080153Z 23004KT 10SM CLR 29/24 A2988 RMK AO2 SLP126 T02890244 $

2010/08/08 01:53
KLFK 080153Z AUTO 18004KT 10SM CLR 31/22 A2986 RMK AO2 SLP106 T03110222

2010/08/08 01:53
KLFT 080153Z 22005KT 10SM CLR 29/24 A2989 RMK AO2 SLP120 T02890244

2010/08/08 01:53
KLGB 080153Z 29007KT 10SM CLR 21/12 A2984 RMK AO2 SLP104 T02060122

2010/08/08 01:55
KLKR 080155Z AUTO 00000KT 2 1/2SM BR CLR 23/23 A2997 RMK AO2

2010/08/08 01:53
KLLQ 080153Z AUTO 12005KT 10SM TS SCT027 BKN039 28/26 A2989 RMK AO2 LTG DSNT SE AND W TSB16 SLP119 T02830261

2010/08/08 01:53
KLMT 080153Z 33014KT 10SM FEW050 26/06 A2990 RMK AO2 SLP088 T02560061

2010/08/08 01:53
KLOL 080153Z AUTO 34007KT 10SM CLR 33/M01 A2977 RMK AO2 SLP038 T03281011

2010/08/08 01:53
KLSE 080153Z AUTO 17007KT 10SM CLR 27/22 A2976 RMK AO2 SLP068 T02670222

2010/08/08 01:53
KLVJ 080153Z AUTO 17003KT 10SM CLR 29/24 A2989 RMK AO2 SLP121 T02940239

2010/08/08 01:53
KLVK 080153Z 30013KT 10SM CLR 21/12 A2977 RMK AO2 SLP077 T02110117

2010/08/08 01:53
KLVS 080153Z AUTO 22009KT 10SM FEW080 SCT120 22/12 A3014 RMK AO2 LTG DSNT N AND W TSB00E15RAB26E43 SLP093 P0000 T02220117

2010/08/08 01:53
KLXT 080153Z AUTO 16006KT 10SM CLR 28/21 A2985 RMK AO2 SLP097 T02830211

2010/08/08 01:53
KMAE 080153Z AUTO 10SM CLR 32/12 A2971 RMK AO2 SLP057 T03170117 $

2010/08/08 01:55
KMAO 080155Z AUTO 00000KT 10SM SCT110 26/23 A2993 RMK AO2 LTG DSNT W

2010/08/08 01:53
KMCB 080153Z AUTO 36006KT 9SM CLR 28/23 A2991 RMK AO2 SLP121 T02780233

2010/08/08 01:53
KMCE 080153Z AUTO 31005KT 10SM CLR 32/09 A2970 RMK AO2 SLP056 T03170089 $

2010/08/08 01:53
KMCI 080153Z 17006KT 10SM SCT250 27/23 A2984 RMK AO2 SLP092 T02720228

2010/08/08 01:53
KMCW 080153Z AUTO 19006KT 8SM CLR 25/22 A2980 RMK AO2 SLP076 T02500217

2010/08/08 01:53
KMEM 080153Z 08005KT 10SM SCT050 SCT150 32/21 A2989 RMK AO2 SLP116 T03170206 $

2010/08/08 01:53
KSJC 080153Z 29012KT 10SM FEW015 20/13 A2980 RMK AO2 SLP090 T02000128

2010/08/08 01:53
KSLN 080153Z 17009KT 10SM CLR 32/21 A2978 RMK AO2 SLP068 T03220206

2010/08/08 01:53
KSMF 080153Z 17010KT 10SM CLR 28/14 A2969 RMK AO2 SLP054 T02780139

2010/08/08 01:53
KSNA 080153Z 20006KT 10SM FEW016 20/13 A2985 RMK AO2 SLP107 T02000128

2010/08/08 01:53
KSNS 080153Z AUTO 29009KT 10SM OVC010 15/12 A2986 RMK AO2 SLP120 T01500117

2010/08/08 01:55
KSPA 080155Z AUTO 00000KT 10SM CLR 25/25 A2998 RMK AO2

2010/08/08 01:53
KSPB 080153Z AUTO 35008KT 10SM BKN055 OVC070 20/16 A2989 RMK AO2 RAE04 SLP123 P0000 T02000161

2010/08/08 01:53
KRME 080153Z AUTO 00000KT 10SM CLR 16/13 A3002 RMK AO2 SLP161 T01560128

2010/08/08 01:53
KRSW 080153Z 24004KT 10SM FEW025 28/25 A2995 RMK AO2 SLP140 T02830250

2010/08/08 01:53
KRWL 080153Z AUTO 24015G25KT 10SM -RA BKN070 BKN090 19/07 A3014 RMK AO2 PK WND 21029/0108 RAB49 SLP115 T01890067 PNO $

2010/08/08 01:53
KRXE 080153Z AUTO 08005KT 10SM CLR 21/10 A2989 RMK AO2 RAE24 SLP087 P0000 T02110100

2010/08/08 01:53
KSBA 080153Z 26009KT 10SM BKN012 16/12 A2984 RMK AO2 SLP106 T01560122

2010/08/08 01:53
KSEG 080153Z AUTO 00000KT 10SM FEW090 19/17 A2999 RMK AO2 SLP154 T01890172

2010/08/08 01:53
KSFB 080153Z 18005KT 10SM CLR 27/25 A2993 RMK AO2 SLP134 T02720250

2010/08/08 01:53
KSHR 080153Z AUTO 32012G20KT 10SM FEW090 SCT110 23/10 A2989 RMK AO2 LTG DSNT NE SLP085 T02330100

2010/08/08 01:53
KSLC 080153Z 15013G21KT 10SM FEW090 SCT110 SCT150 BKN200 26/08 A2988 RMK AO2 SLP063 T02560078

2010/08/08 01:53
KSMQ 080153Z AUTO 32003KT 10SM CLR 20/18 A2996 RMK AO2 SLP145 T02000178

2010/08/08 01:53
KSNY 080153Z AUTO 13006KT 10SM CLR 29/11 A2989 RMK AO2 SLP061 T02890106

2010/08/08 01:53
KSPG 080153Z AUTO 26004KT 10SM CLR 31/25 A2993 RMK AO2 SLP134 T03060250

2010/08/08 01:53
KSRQ 080153Z 27006KT 10SM CLR 30/24 A2994 RMK AO2 SLP136 T03000239

2010/08/08 01:53
KSSI 080153Z AUTO 00000KT 10SM FEW015 SCT039 26/24 A2992 RMK AO2 SLP132 T02560244

2010/08/08 01:53
KTDZ 080153Z AUTO 19005KT 10SM CLR 21/17 A2996 RMK AO2 SLP142 T02110167

2010/08/08 01:53
KTHV 080153Z AUTO 00000KT 10SM BKN070 BKN095 23/15 A2998 RMK AO2 SLP151 T02330150

2010/08/08 01:53
KTKI 080153Z 16007KT 10SM CLR 33/22 A2981 RMK AO2 SLP087 T03330222

2010/08/08 01:53
KTMB 080153Z 12003KT 10SM CLR 28/25 A2998 RMK AO2 SLP150 T02830250

2010/08/08 01:53
KTOI 080153Z AUTO 01014G23KT 1 3/4SM +TSRA BR FEW006 BKN034 OVC041 24/23 A2996 RMK AO2 RAB40 SLP139 P0027 T02390228

2010/08/08 01:53
KTOR 080153Z AUTO 14006KT 10SM CLR 29/09 A2984 RMK AO2 SLP046 T02940094

2010/08/08 01:53
KTPA 080153Z 23008KT 10SM FEW030 SCT110 BKN270 29/25 A2994 RMK AO2 SLP139 T02940250

2010/08/08 01:53
KTRL 080153Z AUTO 16007KT 10SM CLR 33/19 A2983 RMK AO2 SLP092 T03330194

2010/08/08 01:53
KTTN 080153Z AUTO 00000KT 10SM CLR 24/14 A2997 RMK AO2 SLP141 T02390144

2010/08/08 01:53
PHJR 080153Z VRB06G18KT 10SM BKN049 30/18 A3003 RMK AO2 SLP175 T03000183

2010/08/08 01:54
KAAO 080154Z AUTO 15007KT 10SM CLR 31/21 A2982 RMK AO2 SLP083 T03060206

2010/08/08 01:55
KAIZ 080155Z AUTO 00000KT 10SM CLR 27/22 A2990 RMK AO1

2010/08/08 01:54
KAKH 080154Z AUTO 00000KT 8SM CLR 24/19 A2998 RMK AO2 SLP144 T02390194

2010/08/08 01:54
KAKR 080154Z AUTO 19003KT 10SM CLR 21/14 A3000 RMK AO2 SLP153 T02110139

2010/08/08 01:54
KALO 080154Z AUTO 19008KT 10SM CLR 26/22 A2979 RMK AO2 SLP082 T02560222

2010/08/08 01:54
KAPC 080154Z 20017G22KT 10SM CLR 16/12 A2978 RMK AO2 SLP075 T01560117

2010/08/08 01:55
KARG 080155Z AUTO 11003KT 10SM CLR 28/21 A2989 RMK AO1

2010/08/08 01:55
KAUO 080155Z AUTO 12007KT 10SM FEW050 SCT065 OVC110 29/21 A2993 RMK AO1

2010/08/08 01:54
KAUW 080154Z AUTO VRB04KT 9SM VCTS -RA FEW042 BKN060 22/19 A2977 RMK AO2 TSB23E38B43RAB30 SLP078 P0007 T02170189

2010/08/08 01:54
KAVL 080154Z 00000KT 9SM SCT049 BKN075 23/19 A3006 RMK AO2 SLP152 T02280194

2010/08/08 01:55
KAWO 080155Z AUTO 14005KT 10SM 18/16 A2991 RMK AO1 P0001

2010/08/08 01:54
KBFL 080154Z 33006KT 10SM CLR 34/06 A2970 RMK AO2 SLP048 T03390056

2010/08/08 01:55
KBHB 080155Z AUTO 00000KT 10SM CLR 14/12 A3000 RMK AO1

2010/08/08 01:55
KBID 080155Z AUTO 19006KT 10SM CLR 21/18 A3001 RMK AO1

2010/08/08 01:55
KBKX 080155Z AUTO 17008KT 10SM CLR 28/23 A2969 RMK AO1

2010/08/08 01:55
KBLM 080155Z AUTO 18003KT 10SM CLR 23/18 A3001 RMK AO1

2010/08/08 01:54
KBOS 080154Z 29003KT 10SM FEW065 SCT250 24/06 A3000 RMK AO2 SLP157 T02390061

2010/08/08 01:55
KBTP 080155Z AUTO 00000KT 10SM CLR 17/14 A3003 RMK AO1

2010/08/08 01:54
KBUY 080154Z AUTO 00000KT 8SM CLR 23/20 A2998 RMK AO2 SLP146 T02280200

2010/08/08 01:55
KBVX 080155Z AUTO 12004KT 10SM CLR 28/21 A2989 RMK AO1

2010/08/08 01:54
KBWI 080154Z 18003KT 10SM CLR 24/14 A2997 RMK AO2 SLP146 T02390144

2010/08/08 01:54
KJST 080154Z AUTO 01003KT 10SM CLR 19/12 A3006 RMK AO2 SLP169 T01890117

2010/08/08 01:55
KKLS 080155Z AUTO 31003KT 8SM SCT007 BKN021 OVC046 18/16 A2992 RMK AO1

2010/08/08 01:54
KLAF 080154Z AUTO 00000KT 10SM CLR 23/19 A2994 RMK AO2 SLP135 T02280194

2010/08/08 01:55
KLBL 080155Z 15011KT 10SM BKN100 33/16 A2986 RMK AO1

2010/08/08 01:54
KLBT 080154Z AUTO 00000KT 7SM CLR 26/23 A2993 RMK AO2 SLP134 T02560233 $

2010/08/08 01:55
KLCI 080155Z AUTO 00000KT 10SM CLR 15/08 A2998 RMK AO1

2010/08/08 01:55
KLEW 080155Z 00000KT 10SM CLR 12/10 A3001 RMK AO1

2010/08/08 01:55
KLGD 080155Z AUTO 33010KT 10SM CLR 26/07 A2980 RMK AO1

2010/08/08 01:55
KLKV 080155Z AUTO 28007KT 10SM CLR 27/M01 A2991 RMK AO1

2010/08/08 01:54
KLNK 080154Z 17007KT 10SM CLR 28/22 A2976 RMK AO2 SLP064 T02780222

2010/08/08 01:55
KLPC 080155Z AUTO 28011KT 10SM CLR 16/11 A2987 RMK AO1 PNO

2010/08/08 01:54
KLWM 080154Z 00000KT 10SM CLR 19/07 A3002 RMK AO2 SLP164 T01890072

2010/08/08 01:54
KLWT 080154Z AUTO 14003KT 10SM CLR 24/10 A2981 RMK AO2 SLP059 T02440100

2010/08/08 01:55
KMBL 080155Z AUTO 21005KT 10SM BKN100 24/18 A2984 RMK AO1

2010/08/08 01:54
KMFI 080154Z AUTO 19007KT 10SM FEW039 24/21 A2979 RMK AO2 LTG DSNT E SLP082 T02390206

2010/08/08 01:54
KMGJ 080154Z AUTO 00000KT 10SM CLR 16/13 A2998 RMK AO2 SLP150 T01610128

2010/08/08 01:54
KMIV 080154Z AUTO 00000KT 10SM CLR 22/18 A2998 RMK AO2 SLP149 T02170183

2010/08/08 01:55
KMJX 080155Z AUTO 00000KT 10SM CLR 19/16 A2999 RMK AO1

2010/08/08 01:54
KMKC 080154Z 16008KT 10SM CLR 29/22 A2983 RMK AO2 SLP091 T02940217

2010/08/08 01:55
KMKT 080155Z AUTO 20007KT 10SM CLR 26/22 A2971 RMK AO1

2010/08/08 01:55
KMML 080155Z AUTO 20011KT 10SM CLR 27/23 A2965 RMK AO1

2010/08/08 01:55
KMNM 080155Z AUTO 00000KT 10SM VCTS FEW023 SCT085 BKN120 21/18 A2978 RMK AO1 LTG DSNT ALQDS TSB0056 P0061

2010/08/08 01:53
KLHQ 080153Z AUTO 00000KT 10SM CLR 19/17 A3000 RMK AO2 SLP152 T01890167

2010/08/08 01:53
KLHX 080153Z AUTO 23006KT 10SM CLR 27/14 A2987 RMK AO2 TSE08RAE25 SLP047 P0000 T02720144 $

2010/08/08 01:53
KLNS 080153Z 07003KT 10SM FEW090 23/17 A2998 RMK AO2 SLP149 T02280167

2010/08/08 01:53
KLOU 080153Z 00000KT 10SM CLR 27/16 A2996 RMK AO2 SLP139 T02670156 $

2010/08/08 01:53
KLOZ 080153Z AUTO 00000KT 10SM CLR 23/17 A2999 RMK AO2 SLP144 T02280167

2010/08/08 01:53
KLPR 080153Z AUTO 19003KT 10SM CLR 22/17 A2999 RMK AO2 SLP150 T02220167

2010/08/08 01:53
KLUK 080153Z 00000KT 10SM BKN070 22/17 A2997 RMK AO2 SLP146 T02220172

2010/08/08 01:53
KLVM 080153Z AUTO 21022G28KT 10SM CLR 22/06 A2985 RMK AO2 PK WND 22032/0127 WSHFT 0044 SLP067 T02170061

2010/08/08 01:53
KLWV 080153Z AUTO 00000KT 7SM CLR 23/19 A2993 RMK AO2 SLP132 T02330194

2010/08/08 01:53
KMAF 080153Z 15009KT 10SM CLR 33/14 A2989 RMK AO2 SLP067 T03280139

2010/08/08 01:53
KMAI 080153Z AUTO 18004KT 10SM CLR 27/24 A2992 RMK AO2 RAB01E32 SLP130 P0000 T02670244

2010/08/08 01:53
KMBS 080153Z 23007KT 10SM OVC090 24/16 A2990 RMK AO2 SLP121 T02390161

2010/08/08 01:53
KMCK 080153Z AUTO 17004KT 10SM CLR 28/21 A2978 RMK AO2 SLP057 T02830211

2010/08/08 01:53
KMCO 080153Z 17003KT 10SM FEW035 FEW110 BKN200 OVC250 27/24 A2994 RMK AO2 SLP138 T02670244

2010/08/08 01:53
KMFE 080153Z AUTO 15011KT 10SM FEW032 30/24 A2985 RMK AO2 SLP108 T03000239 TSNO $

2010/08/08 01:53
KMGY 080153Z AUTO 00000KT 10SM CLR 22/15 A2998 RMK AO2 SLP145 T02220150

2010/08/08 01:53
KMHT 080153Z 00000KT 10SM CLR 19/09 A2998 RMK AO2 SLP164 T01890094

2010/08/08 01:53
KMIA 080153Z 18003KT 10SM FEW044 SCT060 BKN130 OVC250 28/24 A2998 RMK AO2 SLP151 T02830244 $

2010/08/08 01:53
KMIE 080153Z 00000KT 5SM HZ CLR 20/17 A2997 RMK AO2 SLP141 T02000172

2010/08/08 01:53
KMKO 080153Z AUTO 14005KT 10SM CLR 26/22 A2985 RMK AO2 SLP099 T02610222

2010/08/08 01:53
KMLB 080153Z 00000KT 10SM FEW120 26/24 A2995 RMK AO2 SLP142 T02560239

2010/08/08 01:53
KMLC 080153Z AUTO 08004KT 10SM CLR 31/23 A2983 RMK AO2 RAB0057E15 SLP092 P0000 T03060233

2010/08/08 01:53
KMLP 080153Z AUTO VRB03KT 10SM FEW050 16/05 A2996 RMK AO2 SLP058 T01610050 TSNO

2010/08/08 01:53
KMLS 080153Z AUTO 21007KT 10SM FEW120 29/10 A2972 RMK AO2 SLP039 T02890100

2010/08/08 01:53
KTWF 080153Z 00000KT 10SM CLR 28/07 A2983 RMK AO2 SLP042 T02830067

2010/08/08 01:53
KTXK 080153Z 19005KT 10SM CLR 27/23 A2984 RMK AO2 SLP099 T02720228

2010/08/08 01:53
KTYR 080153Z 18006KT 10SM CLR 32/22 A2985 RMK AO2 SLP100 T03220222

2010/08/08 01:53
KUAO 080153Z AUTO 33006KT 10SM BKN045 BKN055 OVC100 24/14 A2988 RMK AO2 SLP117 T02390144

2010/08/08 01:53
KUUU 080153Z AUTO 00000KT 10SM CLR 20/17 A3002 RMK AO2 SLP163 T02000167

2010/08/08 01:53
KVEL 080153Z AUTO 22003KT 10SM FEW120 17/14 A3012 RMK AO2 SLP148 T01670139

2010/08/08 01:53
KVLD 080153Z 00000KT 5SM -RA BR OVC041 25/24 A2993 RMK AO2 SLP140 P0000 T02500239

2010/08/08 01:53
KVRB 080153Z 16004KT 10SM CLR 26/24 A2995 RMK AO2 SLP141 T02560244

2010/08/08 01:53
KWRL 080153Z AUTO 01010KT 10SM CLR 26/07 A2984 RMK AO2 SLP062 T02610067

2010/08/08 01:53
KWST 080153Z AUTO 00000KT 10SM SCT090 19/17 A3001 RMK AO2 SLP163 T01890167

2010/08/08 01:53
KYIP 080153Z 19005KT 10SM CLR 22/17 A2995 RMK AO2 RAB31E41 SLP134 P0000 T02170167

2010/08/08 01:53
KZZV 080153Z AUTO 00000KT 10SM CLR 22/18 A3000 RMK AO2 SLP154 T02170178

2010/08/08 01:53
KPTK 080153Z 22005KT 10SM SCT150 23/16 A2993 RMK AO2 SLP128 T02330161

2010/08/08 01:53
KPUB 080153Z 20005KT 10SM CLR 24/17 A2991 RMK AO2 SLP064 T02390172 $

2010/08/08 01:53
KPUC 080153Z AUTO 15010KT 10SM CLR 19/08 A3011 RMK AO2 SLP135 T01940083

2010/08/08 01:53
KPWA 080153Z 14010KT 10SM CLR 33/21 A2983 RMK AO2 SLP082 T03330206

2010/08/08 01:53
KRBD 080153Z 16007KT 10SM CLR 34/21 A2981 RMK AO2 SLP086 T03390206

2010/08/08 01:53
KRHI 080153Z AUTO 00000KT 10SM -RA SCT070 BKN120 22/19 A2979 RMK AO2 RAB45 SLP081 P0000 T02170189

2010/08/08 01:52
KRKR 080152Z AUTO 00000KT 10SM BKN085 29/26 A2984 RMK AO2

2010/08/08 01:53
KDRO 080153Z AUTO 22007KT 10SM -RA FEW075 OVC090 20/12 A3017 RMK AO2 RAB49 SLP138 P0000 T02000117

2010/08/08 01:53
KDTN 080153Z 15006KT 10SM CLR 29/24 A2984 RMK AO2 SLP100 T02940239

2010/08/08 01:53
KDTO 080153Z AUTO 16005KT 10SM CLR 33/20 A2980 RMK AO2 SLP081 T03280200

2010/08/08 01:53
KDTW 080153Z 20005KT 7SM FEW090 SCT200 23/17 A2994 RMK AO2 SLP135 T02280167 $

2010/08/08 01:53
KABY 080153Z 13005KT 10SM FEW100 25/24 A2995 RMK AO2 TSE0055RAE17 SLP140 P0001 T02500239

2010/08/08 01:53
KACK 080153Z AUTO 16009KT 10SM CLR 19/17 A3003 RMK AO2 SLP170 T01890172 TSNO

2010/08/08 01:53
KADG 080153Z AUTO 24003KT 9SM CLR 22/16 A2996 RMK AO2 SLP143 T02220161

2010/08/08 01:53
KAFW 080153Z 18005KT 10SM FEW075 34/21 A2980 RMK AO2 SLP073 T03390206

2010/08/08 01:53
KAGC 080153Z 04003KT 10SM CLR 22/11 A3002 RMK AO2 SLP163 T02220111

2010/08/08 01:53
KAIA 080153Z AUTO 16005KT 10SM CLR 26/12 A2983 RMK AO2 SLP053 T02610117

2010/08/08 01:53
KAKO 080153Z AUTO 16012KT 10SM CLR 26/16 A2992 RMK AO2 PK WND 15026/0117 SLP068 T02610156 TSNO

2010/08/08 01:53
KAMG 080153Z AUTO 00000KT 9SM CLR 24/23 A2994 RMK AO2 SLP134 T02440228

2010/08/08 01:53
KAOH 080153Z AUTO 00000KT 10SM CLR 21/17 A2999 RMK AO2 SLP148 T02060167 $

2010/08/08 01:53
KAPA 080153Z 03003KT 10SM FEW080 SCT110 24/10 A3001 RMK AO2 SLP084 T02440100

2010/08/08 01:53
KAPF 080153Z 25003KT 10SM FEW026 30/25 A2996 RMK AO2 SLP144 T03000250

2010/08/08 01:53
KARB 080153Z AUTO 00000KT 8SM CLR 20/17 A2994 RMK AO2 SLP133 T02000172 $

2010/08/08 01:53
KASE 080153Z 30007KT 10SM BKN090 14/09 A3023 RMK AO2 SLP135 T01440094

2010/08/08 01:53
KAUG 080153Z AUTO 00000KT 10SM CLR 16/11 A2999 RMK AO2 SLP157 T01560106

2010/08/08 01:53
KBAF 080153Z 01003KT 10SM CLR 17/12 A3000 RMK AO2 SLP157 T01720117

2010/08/08 01:53
KBBW 080153Z AUTO 16003KT 10SM CLR 27/23 A2978 RMK AO2 SLP060 T02720233

2010/08/08 01:53
KBCE 080153Z AUTO 15009KT 10SM SCT017 14/11 A3023 RMK AO2 SLP140 T01390106 $

2010/08/08 01:53
KBGM 080153Z AUTO 02006KT 10SM CLR 18/10 A3004 RMK AO2 SLP166 T01830100 TSNO

2010/08/08 01:53
KBGR 080153Z 18004KT 10SM FEW080 13/08 A2999 RMK AO2 SLP154 T01280083

2010/08/08 01:53
KBHK 080153Z AUTO 28003KT 10SM CLR 27/11 A2976 RMK AO2 SLP051 T02670106

2010/08/08 01:53
KBKL 080153Z 16005KT 10SM CLR 25/14 A2996 RMK AO2 SLP142 T02500139

2010/08/08 01:53
KBKV 080153Z AUTO 00000KT 10SM FEW026 SCT035 28/25 A2994 RMK AO2 SLP136 T02780250

2010/08/08 01:53
KBMG 080153Z AUTO 00000KT 8SM CLR 19/18 A2995 RMK AO2 SLP136 T01940178

2010/08/08 01:53
KBOI 080153Z 34011KT 10SM CLR 31/05 A2975 RMK AO2 SLP043 T03110050 $

2010/08/08 01:53
KBPI 080153Z AUTO 27006KT 10SM CLR 19/04 A3007 RMK AO2 SLP093 T01940039 TSNO

2010/08/08 01:53
KBTM 080153Z AUTO 20009KT 10SM FEW025 SCT070 OVC095 22/04 A2993 RMK AO2 LTG DSNT SW TSB38E52RAB30E48 SLP082 P0000 T02170044

2010/08/08 01:53
KBUR 080153Z 18009KT 10SM CLR 21/12 A2983 RMK AO2 SLP089 T02110117

2010/08/08 01:53
KBVY 080153Z AUTO 00000KT 10SM CLR 17/09 A2999 RMK AO2 SLP150 T01670094

2010/08/08 01:53
KBYG 080153Z AUTO 33010KT 10SM CLR 22/11 A2994 RMK AO2 SLP080 T02170106

2010/08/08 01:53
KBYI 080153Z AUTO 26003KT 10SM CLR 26/08 A2983 RMK AO2 SLP057 T02610083

2010/08/08 01:53
KGGW 080153Z AUTO 09003KT 10SM SCT110 27/12 A2967 RMK AO2 SLP034 T02720122 TSNO

2010/08/08 01:53
KGIF 080153Z AUTO 21005KT 10SM CLR 27/24 A2995 RMK AO2 SLP141 T02720239 TSNO

2010/08/08 01:53
KGJT 080153Z 30017KT 10SM -RA OVC060 21/13 A3009 RMK AO2 RAB42 SLP128 P0000 T02110128

2010/08/08 01:53
KGKJ 080153Z AUTO 00000KT 10SM CLR 19/11 A3002 RMK AO2 SLP161 T01940106

2010/08/08 01:53
KGKY 080153Z AUTO 15010KT 10SM CLR 33/21 A2981 RMK AO2 SLP085 T03280211 TSNO

2010/08/08 01:53
KGLR 080153Z AUTO 00000KT 10SM FEW049 21/14 A2986 RMK AO2 SLP109 T02060139

2010/08/08 01:53
KGNV 080153Z 00000KT 10SM -RA SCT038 24/23 A2992 RMK AO2 TSE25 SLP129 P0012 T02390228

2010/08/08 01:53
KGOK 080153Z AUTO 13005KT 10SM CLR 31/22 A2981 RMK AO2 SLP080 T03110222

2010/08/08 01:50
K2G4 080150Z AUTO 32003KT 10SM CLR 18/11 A3011 RMK AO1

2010/08/08 01:50
K2W6 080150Z AUTO 00000KT 10SM CLR 22/15 A2999 RMK AO1

2010/08/08 01:53
KABR 080153Z AUTO 15005KT 10SM CLR 27/22 A2960 RMK AO2 SLP013 T02670222

2010/08/08 01:53
KAEX 080153Z 00000KT 10SM FEW050 29/23 A2986 RMK AO2 SLP112 T02940233

2010/08/08 01:53
KAGS 080153Z 00000KT 7SM CLR 26/25 A2993 RMK AO2 SLP132 T02610250

2010/08/08 01:53
KALI 080153Z AUTO 14010KT 10SM CLR 29/25 A2985 RMK AO2 SLP104 T02890250

2010/08/08 01:53
KALW 080153Z 24007KT 10SM CLR 30/08 A2975 RMK AO2 SLP066 T03000078

2010/08/08 01:53
KAMA 080153Z 16011KT 10SM CLR 29/17 A2993 RMK AO2 SLP077 CB DSPTD T02890172

2010/08/08 01:53
KAMW 080153Z AUTO 17006KT 9SM CLR 26/22 A2980 RMK AO2 SLP083 T02560222

2010/08/08 01:53
KANB 080153Z AUTO 00000KT 10SM CLR 28/22 A2993 RMK AO2 SLP123 T02780217

2010/08/08 01:53
KAOO 080153Z AUTO 00000KT 10SM CLR 17/15 A3004 RMK AO2 SLP168 T01720150

2010/08/08 01:53
KARA 080153Z AUTO 22005KT 10SM CLR 29/25 A2989 RMK AO2 SLP122 T02940250 $

2010/08/08 01:53
KASD 080153Z AUTO 00000KT 10SM CLR 30/26 A2989 RMK AO2 SLP122 T03000256

2010/08/08 01:53
KASX 080153Z AUTO 17006KT 4SM -TSRA BR BKN039 BKN070 19/19 A2971 RMK AO2 LTG DSNT ALQDS TSE29B32 PRESFR SLP060 P0008 T01890189

2010/08/08 01:53
KATY 080153Z AUTO 20005KT 10SM CLR 27/24 A2966 RMK AO2 SLP029 T02720239

2010/08/08 01:53
KAUS 080153Z 16007KT 10SM FEW120 SCT250 32/21 A2985 RMK AO2 SLP093 T03170211

2010/08/08 01:53
KAWM 080153Z AUTO 09004KT 10SM CLR 29/22 A2987 RMK AO2 SLP110 T02940217

2010/08/08 01:53
KAXN 080153Z AUTO VRB03G25KT 2 1/2SM +TSRA BR SCT010 SCT022 BKN030 21/19 A2969 RMK AO2 PK WND 32034/0136 LTG DSNT NW-NE TSB03RAB44 SLP050 P0005 T02060189

2010/08/08 01:53
KAZO 080153Z 21005KT 10SM CLR 23/18 A2994 RMK AO2 SLP135 T02280183

2010/08/08 01:53
KBDE 080153Z AUTO 08004KT 10SM BKN049 21/16 A2970 RMK AO2 SLP057 T02060161

2010/08/08 01:53
KBEH 080153Z AUTO 15004KT 10SM CLR 23/19 A2991 RMK AO2 SLP126 T02330189

2010/08/08 01:53
KBFD 080153Z AUTO 00000KT 10SM CLR 12/11 A3007 RMK AO2 SLP175 T01220106

2010/08/08 01:53
KBFI 080153Z 15007KT 10SM -RA BKN010 OVC060 18/16 A2989 RMK AO2 SLP121 P0002 T01830161

2010/08/08 01:53
KBFM 080153Z AUTO 10007KT 10SM SCT030 28/24 A2992 RMK AO2 SLP132 T02780239 TSNO $

2010/08/08 01:53
KBHM 080153Z 00000KT 10SM CLR 30/20 A2993 RMK AO2 SLP126 T03000200

2010/08/08 01:53
KBIV 080153Z AUTO 18005KT 10SM CLR 23/18 A2991 RMK AO2 SLP124 T02330183

2010/08/08 01:53
KBKE 080153Z AUTO 33014G18KT 10SM CLR 24/08 A2984 RMK AO2 SLP086 T02390083

2010/08/08 01:53
KBLI 080153Z 17004KT 7SM -RA BKN022 BKN028 OVC035 17/16 A2989 RMK AO2 RAB09E18B51 SLP126 P0000 T01720161

2010/08/08 01:53
KBMQ 080153Z AUTO 16004KT 10SM CLR 32/17 A2989 RMK AO2 SLP099 T03170172 $

2010/08/08 01:53
KBNA 080153Z 07006KT 9SM CLR 27/18 A2994 RMK AO2 SLP130 T02670178 $

2010/08/08 01:55
KBOW 080155Z AUTO 00000KT 10SM CLR 25/24 A2995 RMK AO2

2010/08/08 01:53
KBPK 080153Z AUTO 12005KT 8SM CLR 28/21 A2989 RMK AO2 SLP109 T02780206

2010/08/08 01:53
KBPT 080153Z AUTO 00000KT 10SM CLR 28/25 A2988 RMK AO2 SLP118 T02830250 TSNO

2010/08/08 01:53
KBRD 080153Z AUTO VRB03KT 10SM VCTS -RA SCT033 SCT044 BKN055 24/19 A2968 RMK AO2 LTG DSNT ALQDS TSB32RAB45 SLP045 P0000 T02440194

2010/08/08 01:53
KBRL 080153Z AUTO 18005KT 10SM CLR 25/22 A2987 RMK AO2 SLP109 T02500217

2010/08/08 01:53
KBRO 080153Z AUTO 15008KT 10SM CLR 29/24 A2987 RMK AO2 SLP114 T02890244 TSNO $

2010/08/08 01:53
KBTL 080153Z 20005KT 10SM SCT100 22/18 A2995 RMK AO2 SLP136 T02220178

2010/08/08 01:53
KBVO 080153Z AUTO 00000KT 10SM CLR 27/23 A2984 RMK AO2 SLP092 T02720228

2010/08/08 01:53
KBWG 080153Z AUTO 00000KT 10SM CLR 24/18 A2995 RMK AO2 SLP135 T02440183

2010/08/08 01:53
KCCR 080153Z AUTO 19012KT 10SM CLR 22/11 A2976 RMK AO2 SLP065 T02220111 TSNO

2010/08/08 01:55
KCDN 080155Z AUTO 00000KT 9SM CLR 28/26 A2995 RMK A02 P000

2010/08/08 01:53
KCGI 080153Z AUTO 00000KT 10SM CLR 24/19 A2990 RMK AO2 SLP121 T02440194 TSNO

2010/08/08 01:50
KCGS 080150Z AUTO 00000KT 10SM CLR 23/17 A2998 RMK AO1

2010/08/08 01:53
KLND 080153Z AUTO 34014G17KT 10SM SCT120 26/01 A2994 RMK AO2 SLP063 T02610011

2010/08/08 01:53
KCHA 080153Z 33003KT 10SM SCT070 SCT150 29/21 A2993 RMK AO2 SLP127 ACFT MSHP T02890211

2010/08/08 01:53
KCTY 080153Z AUTO 00000KT 25/24 A2993 RMK AO2 SLP133 P0001 T02500244 PWINO TSNO

2010/08/08 01:53
KFAR 080153Z 01003KT 10SM CLR 27/22 A2960 RMK AO2 SLP020 T02670222

2010/08/08 01:53
KMWT 080153Z AUTO 00000KT 10SM CLR 27/25 A2985 RMK AO2 SLP098 T02670250 TSNO

2010/08/08 01:53
KLAX 080153Z 26010KT 10SM FEW010 17/12 A2985 RMK AO2 SLP108 T01720117

2010/08/08 01:53
KSDM 080153Z 29005KT 10SM CLR 17/12 A2987 RMK AO2 SLP111 T01720122 $

2010/08/08 01:53
KP92 080153Z AUTO 23004KT 31/25 A2990 RMK AO2 SLP125 T03060250 PWINO TSNO

2010/08/08 01:53
KNUI 080153Z AUTO 08003KT 10SM CLR 21/16 A2997 RMK AO2 SLP149 T02110161 $

2010/08/08 01:53
KMCN 080153Z AUTO 00000KT 9SM CLR 27/24 A2993 RMK AO2 SLP131 T02720244 TSNO

2010/08/08 01:53
KBTR 080153Z 23008KT 10SM FEW250 30/24 A2987 RMK AO2 SLP114 T03000244

2010/08/08 01:53
KTUP 080153Z 00000KT 8SM CLR 28/25 A2989 RMK AO2 SLP117 T02830250

2010/08/08 01:53
KTRI 080153Z 00000KT 9SM CLR 22/16 A3000 RMK AO2 SLP142 T02220156

2010/08/08 01:53
KTCS 080153Z AUTO 20010KT 10SM CLR 31/09 A2997 RMK AO2 SLP053 T03110089 TSNO

2010/08/08 01:53
KMGM 080153Z 18005KT 10SM FEW050 SCT095 BKN150 BKN250 29/23 A2990 RMK AO2 SLP123 FRQ LTGICCC DSNT SW-W CB DSNT SW-W T02890233

2010/08/08 01:53
KTYS 080153Z 03004KT 10SM CLR 27/18 A2995 RMK AO2 SLP129 T02670178

2010/08/08 01:53
KLXV 080153Z AUTO 03005KT 10SM SCT075 14/05 A3034 RMK AO2 RAB08E22 SLP112 P0000 T01390050 TSNO

2010/08/08 01:53
KSAV 080153Z 25003KT 10SM FEW030 SCT070 27/24 A2992 RMK AO2 SLP132 T02720244

2010/08/08 01:53
KTLH 080153Z 00000KT 10SM SCT049 SCT070 BKN100 25/23 A2994 RMK AO2 SLP137 T02500233

2010/08/08 01:53
KCUT 080153Z AUTO 05005KT 10SM CLR 22/11 A2997 RMK AO2 SLP078 T02170111 TSNO

2010/08/08 01:54
KBTV 080154Z 00000KT 10SM CLR 14/11 A2997 RMK AO2 SLP148 T01390106

2010/08/08 01:53
KHTL 080153Z AUTO 23007KT 10SM BKN044 OVC060 22/17 A2989 RMK AO2 SLP117 T02220172

2010/08/08 01:53
KMSN 080153Z 20005KT 10SM CLR 25/19 A2985 RMK AO2 SLP104 T02500189

2010/08/08 01:53
KCDR 080153Z AUTO 12005KT 10SM CLR 28/14 A2977 RMK AO2 SLP050 T02780139

2010/08/08 01:53
KCNY 080153Z AUTO 13008KT 10SM FEW090 18/15 A3006 RMK AO2 RAE32 SLP134 P0001 T01780150

2010/08/08 01:53
KDAL 080153Z 16009KT 10SM FEW070 SCT280 35/22 A2980 RMK AO2 SLP084 FRQ LTGICCC CB DSNT NE CB TOP W HRZN T03500217

2010/08/08 01:53
KAAF 080153Z AUTO 00000KT 10SM CLR 27/26 A2992 RMK AO2 LTG DSNT NW SLP131 T02720256

2010/08/08 01:53
KBIL 080153Z 17008KT 140V210 10SM SCT100 23/11 A2982 RMK AO2 SLP069 CB DSNT NW T02280111 $

2010/08/08 01:53
KHVR 080153Z AUTO 29005KT 10SM CLR 28/06 A2968 RMK AO2 SLP033 T02780056

2010/08/08 01:53
KFMN 080153Z 25013G21KT 8SM RA SCT016 BKN023 OVC060 16/14 A3017 RMK AO2 PK WND 23026/0143 RAB01 SLP169 P0005 T01610144

2010/08/08 01:53
KFNT 080153Z AUTO 23005KT 10SM CLR 22/17 A2992 RMK AO2 SLP126 T02220167

2010/08/08 01:53
KGCC 080153Z AUTO 36008KT 10SM VCTS CLR 23/11 A2987 RMK AO2 LTG DSNT NW TSB51 SLP068 T02330106

2010/08/08 01:53
KMLU 080153Z 00000KT 10SM CLR 30/25 A2987 RMK AO2 SLP112 T03000250

2010/08/08 01:53
KLAN 080153Z 22006KT 10SM BKN110 23/17 A2993 RMK AO2 SLP131 T02280167

2010/08/08 01:53
KLBB 080153Z 16007KT 10SM FEW100 SCT250 31/16 A2991 RMK AO2 SLP070 CB DSNT NE T03060161 $

2010/08/08 01:53
KRIW 080153Z AUTO 31012KT 10SM CLR 24/03 A2994 RMK AO2 SLP068 T02440033

2010/08/08 01:53
KTUS 080153Z 28006KT 10SM FEW080 29/17 A2990 RMK AO2 SLP078 T02940172 $

2010/08/08 01:53
K6R6 080153Z AUTO 11012KT 32/16 A2985 RMK AO2 SLP070 T03170161 PWINO TSNO

2010/08/08 01:53
KRQE 080153Z AUTO 30005KT 10SM -RA SCT021 BKN050 OVC095 16/14 A3021 RMK AO2 RAB08 SLP131 P0001 T01610139 TSNO

2010/08/08 01:54
KJAN 080154Z 00000KT 10SM CLR 27/24 A2990 RMK AO2 SLP120 T02720239

2010/08/08 01:53
KCQC 080153Z AUTO 18013KT 10SM CLR 23/09 A3015 RMK AO2 SLP099 T02280089 TSNO

2010/08/08 01:54
KORH 080154Z AUTO 00000KT 10SM CLR 19/09 A3003 RMK AO2 SLP167 LAST AUGMENTED OBS T01890089

2010/08/08 01:54
KPIA 080154Z 20003KT 10SM CLR 24/18 A2990 RMK AO2 SLP121 T02440183

2010/08/08 01:54
KROC 080154Z 22003KT 10SM FEW080 17/12 A2998 RMK AO2 SLP152 T01720117 $

2010/08/08 01:55
KEAR 080155Z AUTO 16005KT 10SM CLR 27/23 A2980 RMK AO1

2010/08/08 01:55
KGPZ 080155Z AUTO 13005KT 10SM SCT039 BKN045 OVC070 23/18 A2968 RMK AO1

2010/08/08 01:54
KLEX 080154Z 00000KT 10SM CLR 24/14 A2999 RMK AO2 SLP145 T02390139

2010/08/08 01:54
KLYH 080154Z 00000KT 10SM CLR 20/18 A3003 RMK AO2 SLP159 T02000178

2010/08/08 01:50
EDDF 080150Z VRB02KT CAVOK 17/14 Q1015 NOSIG

2010/08/08 01:50
EDDH 080150Z 35002KT 9999 -RA NSC 17/14 Q1015 NOSIG

2010/08/08 01:50
EDDK 080150Z VRB03KT CAVOK 18/15 Q1015 NOSIG

2010/08/08 01:50
EDDL 080150Z 35002KT 9000 -SHRA FEW013 FEW030CB BKN060 17/16 Q1015 NOSIG

2010/08/08 01:50
EDDM 080150Z 23001KT 9999 MIFG NSC 12/11 Q1019 NOSIG

2010/08/08 01:50
EDDN 080150Z 12006KT CAVOK 11/11 Q1017

2010/08/08 01:50
EDDS 080150Z 30001KT CAVOK 13/11 Q1018

2010/08/08 01:50
EDDW 080150Z 04002KT CAVOK 18/16 Q1015

2010/08/08 01:50
EDQM 080150Z AUTO 19003KT 9999NDV BKN059/// 12/09 Q1017

2010/08/08 01:50
EDXW 080150Z AUTO 22004KT 9999NDV SCT009/// BKN038/// 17/15 Q1015

2010/08/08 01:50
EKAH 080150Z AUTO 28004KT 0200NDV R10R/0450N R28L/0400N FG VV001 15/14 Q1014

2010/08/08 01:50
EKBI 080150Z 28002KT 8000 SCT080 BKN130 15/15 Q1015

2010/08/08 01:50
EKCH 080150Z 31010KT 9999 FEW013 BKN150 19/18 Q1013 NOSIG

2010/08/08 01:50
EKEB 080150Z AUTO 00000KT 2800NDV -SHRA BR OVC034/// 16/15 Q1015

2010/08/08 01:50
EKKA 080150Z 27004KT CAVOK 15/14 Q1015 RMK FEW050 SCT080 BKN100

2010/08/08 01:50
EKRK 080150Z AUTO 31006KT 9999NDV BKN160/// 17/17 Q1013

2010/08/08 01:50
EKRN 080150Z AUTO 31006KT 9999NDV DZ OVC041/// 18/17 Q1012

2010/08/08 01:50
EKSP 080150Z 24001KT 9999 BKN013 BKN090 15/14 Q1015

2010/08/08 01:50
EKVD 080150Z AUTO 31002KT //// ///////// 15/14 Q1015

2010/08/08 01:50
EKVG 080150Z AUTO 24001KT 9999NDV OVC023/// 10/07 Q1017 RMK OVC024/// WIND 850FT 20002KT

2010/08/08 01:50
EKYT 080150Z 01003KT 9999 FEW035 BKN160 16/15 Q1015

2010/08/08 02:00
NIUE 080200Z AUTO 10014KT //// ////// 26/20 Q1017

2010/08/08 01:50
EETN 080150Z 12004KT 6000 NSC 22/20 Q1013

2010/08/08 01:50
EFHF 080150Z AUTO 10004KT 8000 SKC 22/21 Q1013

2010/08/08 01:50
EFHK 080150Z 10005KT 7000 NSC 23/20 Q1013 NOSIG

2010/08/08 01:50
EFJY 080150Z AUTO 34001KT CAVOK 19/18 Q1014

2010/08/08 01:50
EFKK 080150Z AUTO 04002KT CAVOK 17/16 Q1015

2010/08/08 01:50
EFKU 080150Z AUTO VRB01KT CAVOK 21/19 Q1015

2010/08/08 01:50
EFMA 080150Z AUTO 36004KT 320V020 CAVOK ///// Q////

2010/08/08 01:50
EFOU 080150Z AUTO 00000KT 2400 -SHRA BR FEW069 BKN096 19/19 Q1016

2010/08/08 01:50
EFPO 080150Z AUTO 33005KT 290V360 9999 SCT037 21/18 Q1013

2010/08/08 01:50
EFRO 080150Z AUTO 04007KT CAVOK 16/16 Q1017

2010/08/08 01:50
EFTP 080150Z 01002KT CAVOK 18/18 Q1013

2010/08/08 01:50
EFTU 080150Z AUTO 34004KT 290V020 9999 FEW006 19/19 Q1012

2010/08/08 01:50
EFVA 080150Z AUTO 36002KT CAVOK 16/16 Q1014

2010/08/08 01:50
ENBO 080150Z 10003KT 9999 FEW002 10/09 Q1019

2010/08/08 01:50
ENBR 080150Z 14002KT 9999 -DZ SCT020 BKN035 15/13 Q1016

2010/08/08 01:50
ENCN 080150Z AUTO 06003KT 9999NDV OVC057/// 14/11 Q1016

2010/08/08 01:50
ENHD 080150Z AUTO 10007KT 9999NDV OVC027/// 14/13 Q1016

2010/08/08 01:50
ENKR 080150Z AUTO 14003KT 9999NDV NCD 14/13 Q1018

2010/08/08 01:50
ENSB 080150Z 28010KT 9999 -RA SCT005 BKN025 06/06 Q1014

2010/08/08 01:50
ENTC 080150Z 00000KT 9999 BKN008 11/10 Q1019

2010/08/08 01:50
ENVA 080150Z 12004KT CAVOK 11/09 Q1016

2010/08/08 01:50
ENZV 080150Z 04003KT 9999 BKN036 15/13 Q1016

2010/08/08 01:50
EVRA 080150Z 00000KT 4600 BR NSC 21/20 Q1011 TEMPO -TSRA SCT030CB

2010/08/08 01:50
EYVI 080150Z VRB03KT 7000 BKN047CB OVC110 18/16 Q1013 NOSIG

2010/08/08 01:50
ENAL 080150Z AUTO 25008KT 210V270 9999NDV OVC084/// 15/14 Q1016

2010/08/08 01:50
ENAN 080150Z 25008KT 9999 FEW010 SCT020 10/09 Q1019

2010/08/08 01:50
ENAT 080150Z AUTO 22003KT 180V320 9999NDV OVC018/// 13/12 Q1019

2010/08/08 01:50
ENDU 080150Z VRB02KT 9999 FEW002 SCT250 09/07 Q1019

2010/08/08 01:50
ENEK 080150Z 36008KT 9999 BKN035 16/14 Q1016 W16/S3

2010/08/08 01:50
ENEV 080150Z AUTO VRB01KT 0500NDV R17/0800V1300N FG FEW210/// 08/07 Q1019

2010/08/08 01:50
ENGC 080150Z 20012KT 4000 BR FEW005 BKN020 14/14 Q1013

2010/08/08 01:50
ENHF 080150Z AUTO 04003KT 360V160 //// SCT020/// OVC040/// 13/11 Q1019

2010/08/08 01:50
ENKB 080150Z AUTO 05005KT 9999NDV OVC190/// 15/13 Q1015

2010/08/08 01:50
ENNA 080150Z VRB02KT 9999 BCFG FEW005 SCT110 13/12 Q1019

2010/08/08 01:50
ENOA 080150Z 24019KT 9999 SCT008 BKN012 14/12 Q1015

2010/08/08 01:50
ENOL 080150Z 11004KT 9999 MIFG FEW070 10/10 Q1016

2010/08/08 01:50
ENRO 080150Z AUTO 00000KT 0650NDV R32/P2000N FG NCD 03/02 Q1018

2010/08/08 01:50
ENRY 080150Z AUTO 34003KT 9999NDV NCD 14/11 Q1015

2010/08/08 01:50
ENTO 080150Z AUTO 33005KT 9999NDV SCT037/// OVC053/// 14/11 Q1015

2010/08/08 01:50
ESDF 080150Z AUTO 34004KT 310V010 9999NDV OVC020/// 17/15 Q1011

2010/08/08 01:50
ESGG 080150Z 34004KT CAVOK 16/15 Q1014

2010/08/08 01:50
ESGJ 080150Z AUTO 01006KT 9999NDV OVC049/// 15/13 Q1013

2010/08/08 01:50
ESGP 080150Z 00000KT 4000 BR OVC170 15/15 Q1014

2010/08/08 01:50
ESKN 080150Z 01009KT 9999 OVC007 16/15 Q1012

2010/08/08 01:50
ESMK 080150Z AUTO 29005KT 9999NDV SCT070/// BKN083/// 18/15 Q1012

2010/08/08 01:50
ESMS 080150Z 28005KT CAVOK 17/16 Q1013

2010/08/08 01:50
ESMX 080150Z AUTO 36009KT 9999NDV OVC015/// 16/14 Q1012

2010/08/08 01:50
ESNN 080150Z AUTO 31005KT 9999NDV -RA NCD 16/15 Q1015

2010/08/08 01:50
ESNO 080150Z AUTO 34004KT 9999NDV SCT100/// 17/13 Q1016

2010/08/08 01:50
ESNQ 080150Z AUTO 18002KT 9999NDV NCD 08/07 Q1019

2010/08/08 01:50
ESNS 080150Z AUTO 32003KT 9999NDV ////// 15/14 Q1016

2010/08/08 01:50
ESNU 080150Z AUTO 31003KT 9999NDV FEW110/// 17/13 Q1015

2010/08/08 01:50
ESOK 080150Z AUTO 36004KT 5000NDV BR NCD 16/16 Q1014

2010/08/08 01:50
ESOW 080150Z AUTO 35004KT 8000NDV -DZ OVC028/// 15/15 Q1014

2010/08/08 01:50
ESPA 080150Z AUTO 33005KT 9999NDV OVC130/// 16/16 Q1017

2010/08/08 01:50
ESSA 080150Z 33006KT 9999 OVC003 16/15 Q1013 NOSIG

2010/08/08 01:50
ESSB 080150Z AUTO 33004KT 9999NDV OVC002/// 16/15 Q1012

2010/08/08 01:50
ESSP 080150Z AUTO 36007KT 9999NDV BKN011/// BKN014/// 16/15 Q1012

2010/08/08 01:50
ESSV 080150Z AUTO 17006KT 0700NDV R03/P1500N R21/P1500N FG OVC002/// 17/17 Q1011

2010/08/08 01:50
LSGG 080150Z VRB01KT 9999 FEW080 SCT120 14/12 Q1019 NOSIG

2010/08/08 01:50
LSZH 080150Z VRB02KT CAVOK 12/11 Q1019 NOSIG

2010/08/08 01:50
EGAA 080150Z 00000KT 2100 BR SKC 07/06 Q1021

2010/08/08 01:50
EGBB 080150Z AUTO 30007KT 8000NDV FEW010/// BKN019/// 15/13 Q1019

2010/08/08 01:50
EGCC 080150Z AUTO 30003KT 7000NDV FEW033/// 14/13 Q1020

2010/08/08 01:50
EGGD 080150Z 32004KT 9999 FEW028 12/10 Q1020

2010/08/08 01:50
EGGP 080150Z 29011KT 9999 SCT011 BKN016 16/13 Q1020

2010/08/08 01:50
EGGW 080150Z 32008KT 9999 BKN010 15/13 Q1018

2010/08/08 01:50
EGKK 080150Z VRB03KT CAVOK 14/12 Q1018

2010/08/08 01:50
EGLL 080150Z 31004KT 280V350 CAVOK 14/12 Q1018 NOSIG

2010/08/08 01:50
EGMC 080150Z 31006KT 9999 FEW040 15/13 Q1017

2010/08/08 01:50
EGNM 080150Z 35003KT CAVOK 12/10 Q1020

2010/08/08 01:50
EGNT 080150Z 31002KT 9999 FEW045 12/11 Q1020

2010/08/08 01:50
EGNX 080150Z 33004KT 9999 FEW022 13/11 Q1019

2010/08/08 01:50
EGPB 080150Z AUTO 28011KT 9999NDV FEW011/// BKN021/// 12/10 Q1017

2010/08/08 01:50
EGPD 080150Z 31003KT 9999 SCT041 10/09 Q1020

2010/08/08 01:50
EGPF 080150Z AUTO 24005KT 9999 SCT016/// 10/09 Q1019

2010/08/08 01:50
EGPH 080150Z AUTO 00000KT 9999 FEW014/// OVC022/// 15/12 Q1019

2010/08/08 01:50
EGPK 080150Z 00000KT 9999 FEW035 11/10 Q1020

2010/08/08 01:50
EGGP 080150Z 29011KT 9999 SCT011 BKN016 16/13 Q1020

2010/08/08 01:50
EGGW 080150Z 32008KT 9999 BKN010 15/13 Q1018

2010/08/08 01:50
EGLC 080150Z AUTO 31006KT 9999NDV NCD 15/13 Q1018

2010/08/08 01:50
EGNT 080150Z 31002KT 9999 FEW045 12/11 Q1020

2010/08/08 01:50
EGPF 080150Z AUTO 24005KT 9999 SCT016/// 10/09 Q1019

2010/08/08 01:50
EGSS 080150Z AUTO 32007KT 9999NDV OVC006/// 14/13 Q1018

2010/08/08 01:54
KCOU 080154Z AUTO 12004KT 10SM CLR 26/22 A2989 RMK AO2 SLP111 T02610217 TSNO 

2010/08/08 01:54
KCAR 080154Z AUTO 24005KT 10SM CLR 12/06 A2992 RMK AO2 SLP137 T01170061 

2010/08/08 01:54
KNKT 080154Z 11003KT 8SM CLR 27/24 A2996 RMK AO2 SLP140 T02670239 

2010/08/08 01:54
KFWA 080154Z 17003KT 10SM CLR 22/18 A2997 RMK AO2 SLP145 T02170183 

2010/08/08 01:51
KSAD 080151Z AUTO 25006KT 10SM CLR 31/14 A2988 RMK AO2 SLP066 T03060144 TSNO 

2010/08/08 02:00
SBFI 080200Z 13008KT CAVOK 14/11 Q1016

2010/08/08 01:54
KACY 080154Z 18004KT 10SM CLR 24/21 A3001 RMK AO2 SLP160 T02390206 

2010/08/08 01:55
KBAD 080155Z AUTO 16005KT 10SM CLR 28/24 A2984 RMK AO2 SLP105 T02820244

2010/08/08 01:55
KBLV 080155Z AUTO 08003KT 10SM CLR 25/21 A2991 RMK AO2 SLP126 T02490209

2010/08/08 01:55
KCBM 080155Z AUTO 00000KT 10SM CLR 27/25 A2990 RMK AO2 SLP123 T02720253 $

2010/08/08 01:55
KCEF 080155Z AUTO 01004KT 10SM CLR 14/12 A3000 RMK AO2 SLP159 T01420123

2010/08/08 01:55
KDAA 080155Z AUTO 00000KT 10SM CLR 20/16 A2997 RMK AO2 SLP151 T01970158

2010/08/08 01:50
KEFD 080150Z 16005KT 10SM FEW050 SCT250 29/25 A2989

2010/08/08 01:55
KFFO 080155Z 00000KT 10SM CLR 22/17 A2998 RMK AO2A SLP148

2010/08/08 01:55
KGRF 080155Z AUTO 18005KT 10SM FEW008 OVC047 17/16 A2990 RMK AO2 RAE0058DZB0058E0101 SLP127 P0000 T01740161

2010/08/08 01:55
KGSB 080155Z AUTO 13012KT 6SM R08/4000VP6000FT +RA BR OVC055 23/23 A2995 RMK AO2 VIS 2 RWY26 SLP141 P0097 T02350235

2010/08/08 01:55
KGUS 080155Z AUTO 18003KT 10SM CLR 23/20 A2996 RMK AO2 SLP139 T02270201

2010/08/08 01:55
KHMN 080155Z AUTO 00000KT 10SM CLR 32/12 A2991 RMK AO2 WSHFT 0049 SLP038 T03250116 $

2010/08/08 01:55
KHST 080155Z AUTO 15004KT 10SM CLR 27/25 A2998 RMK AO2 SLP154 T02740251

2010/08/08 01:55
KIAB 080155Z AUTO 13009KT 10SM CLR 31/21 A2983 RMK AO2 SLP086 T03100212 $

2010/08/08 01:55
KLRF 080155Z AUTO 11003KT 10SM CLR 28/25 A2987 RMK AO2 SLP111 T02800251

2010/08/08 01:55
KMMT 080155Z AUTO 00000KT 10SM R32/5500VP6000FT CLR 26/25 A2994 RMK AO2 SLP137 T02610247

2010/08/08 01:55
KSVN 080155Z AUTO 27003KT 6SM 26/24 A2992 RMK AO2 SLP132

2010/08/08 01:55
KBAD 080155Z AUTO 16005KT 10SM CLR 28/24 A2984 RMK AO2 SLP105 T02820244

2010/08/08 01:53
KBAF 080153Z 01003KT 10SM CLR 17/12 A3000 RMK AO2 SLP157 T01720117

2010/08/08 01:53
KBUR 080153Z 18009KT 10SM CLR 21/12 A2983 RMK AO2 SLP089 T02110117

2010/08/08 01:55
KCBM 080155Z AUTO 00000KT 10SM CLR 27/25 A2990 RMK AO2 SLP123 T02720253 $

2010/08/08 01:53
KDTS 080153Z AUTO 36005KT 10SM CLR 28/25 A2989 RMK AO2 SLP120 T02780250

2010/08/08 01:55
KFFO 080155Z 00000KT 10SM CLR 22/17 A2998 RMK AO2A SLP148

2010/08/08 01:55
KGRF 080155Z AUTO 18005KT 10SM FEW008 OVC047 17/16 A2990 RMK AO2 RAE0058DZB0058E0101 SLP127 P0000 T01740161

2010/08/08 01:55
KGSB 080155Z AUTO 13012KT 6SM R08/4000VP6000FT +RA BR OVC055 23/23 A2995 RMK AO2 VIS 2 RWY26 SLP141 P0097 T02350235

2010/08/08 01:55
KGUS 080155Z AUTO 18003KT 10SM CLR 23/20 A2996 RMK AO2 SLP139 T02270201

2010/08/08 01:55
KIAB 080155Z AUTO 13009KT 10SM CLR 31/21 A2983 RMK AO2 SLP086 T03100212 $

2010/08/08 01:55
KOFF 080155Z AUTO 14009KT 10SM CLR 28/23 A2976 RMK AO2 SLP061 T02810234 $

2010/08/08 01:50
OAKB 080150Z VRB02KT 7000 FEW040 SCT090 20/19 Q1013 TEMPO 5000 BR RMK WHT WHT

2010/08/08 01:58
ROTM 080158Z 18006KT 9999 -SHRA SCT015 BKN030 OVC150 27/25 A2968 RMK SLP033 P0003 T02720250

2010/08/08 01:53
TIST 080153Z AUTO 08009KT 10SM FEW038 SCT090 29/23 A2998 RMK AO2 SLP153 T02890233 TSNO $

2010/08/08 01:53
TISX 080153Z AUTO 08010KT 10SM CLR 28/23 A2998 RMK AO2 SLP152 T02830233 TSNO $

2010/08/08 01:55
TXKF 080155Z 19012KT 9999 VCSH FEW012 SCT026 BKN053 OVC072 27/24 Q1016

2010/08/08 02:00
MDSD 080200Z 06005KT 9999 FEW020 24/22 Q1015 DU/ALL QDS

2010/08/08 02:00
MGGT 080200Z 00000KT 9999 FEW016 FEW020CB SCT080 19/17 Q1024 A3024 CB/LTNG/SSE/S VOL/ DE PACAYA EN ACTIVIDAD

2010/08/08 02:00
MGSJ 080200Z 00000KT 9999 SCT018 FEW025CB BKN110 27/25 Q1013 A2991 CB/LTNG/W/WNW

2010/08/08 01:46
MMCU 080146Z 12008KT 10SM SCT030CB SCT120 BKN200 27/09 A2999 RMK 8/372 LTGIC

2010/08/08 01:51
MMCV 080151Z 17012KT 10SM SCT200 29/24 A2991 RMK 8/005 CU ARND DSNT CB N

2010/08/08 01:45
MMRX 080145Z 11010KT 10SM FEW220 30/22 A2986 RMK 8/002 HZY

2010/08/08 01:47
MMTC 080147Z 34008KT 10SM FEW040TCU SCT110 BKN220 31/11 A2992 RMK 8/272 SC

2010/08/08 01:53
PHJR 080153Z VRB06G18KT 10SM BKN049 30/18 A3003 RMK AO2 SLP175 T03000183

2010/08/08 01:50
PTRO 080150Z 28006KT 15SM SCT016TCU BKN120 OVC300 29/25 A2985 RMK TCU VC ALQDS

2010/08/08 01:55
RKSO 080155Z 15003KT 9999 FEW024 SCT045 OVC049 29/29 A2987 RMK AO2A SLP115 T02940294 $

2010/08/08 01:55
RODN 080155Z 21009KT 9999 -RA FEW007 SCT021 OVC037 27/26 A2967 RMK AO2A RAB0110E0131B0148 FEW V SCT CIG 028 RWY23 SLP046 P0003 T02690257

2010/08/08 01:55
TXKF 080155Z 19012KT 9999 VCSH FEW012 SCT026 BKN053 OVC072 27/24 Q1016

2010/08/08 01:50
EBAW 080150Z AUTO 26006KT CAVOK 16/14 Q1016

2010/08/08 01:50
EBBR 080150Z 26003KT 230V290 9999 BKN047 16/14 Q1016 NOSIG

2010/08/08 01:50
EBCI 080150Z 26005KT 9999 FEW011 SCT033 14/12 Q1016 NOSIG

2010/08/08 01:50
EBLG 080150Z 31003KT 280V350 9999 BKN033 15/14 Q1016 TEMPO 5000 -SHRA BR BKN012

2010/08/08 01:50
EBOS 080150Z 23005KT 8000 FEW009 SCT014 16/13 Q1016 TEMPO BKN009

2010/08/08 01:50
EDQM 080150Z AUTO 19003KT 9999NDV BKN059/// 12/09 Q1017

2010/08/08 01:50
EDXW 080150Z AUTO 22004KT 9999NDV SCT009/// BKN038/// 17/15 Q1015

2010/08/08 01:55
EHEH 080155Z AUTO 26004KT 6000NDV BR BKN025 OVC031 17/16 Q1015 WHT

2010/08/08 01:50
ELLX 080150Z AUTO VRB04KT 9999 NDV 17/12 Q1016

2010/08/08 01:50
ENAL 080150Z AUTO 25008KT 210V270 9999NDV OVC084/// 15/14 Q1016

2010/08/08 01:50
ENAT 080150Z AUTO 22003KT 180V320 9999NDV OVC018/// 13/12 Q1019

2010/08/08 01:50
ENBO 080150Z 10003KT 9999 FEW002 10/09 Q1019

2010/08/08 01:50
ENCN 080150Z AUTO 06003KT 9999NDV OVC057/// 14/11 Q1016

2010/08/08 01:50
ENEK 080150Z 36008KT 9999 BKN035 16/14 Q1016 W16/S3

2010/08/08 01:50
ENEV 080150Z AUTO VRB01KT 0500NDV R17/0800V1300N FG FEW210/// 08/07 Q1019

2010/08/08 01:50
ENHD 080150Z AUTO 10007KT 9999NDV OVC027/// 14/13 Q1016

2010/08/08 01:50
ENHF 080150Z AUTO 04003KT 360V160 //// SCT020/// OVC040/// 13/11 Q1019

2010/08/08 01:50
ENKB 080150Z AUTO 05005KT 9999NDV OVC190/// 15/13 Q1015

2010/08/08 01:50
ENKR 080150Z AUTO 14003KT 9999NDV NCD 14/13 Q1018

2010/08/08 01:50
ENOL 080150Z 11004KT 9999 MIFG FEW070 10/10 Q1016

2010/08/08 01:50
ENRO 080150Z AUTO 00000KT 0650NDV R32/P2000N FG NCD 03/02 Q1018

2010/08/08 01:50
ENRY 080150Z AUTO 34003KT 9999NDV NCD 14/11 Q1015

2010/08/08 01:50
ENSB 080150Z 28010KT 9999 -RA SCT005 BKN025 06/06 Q1014

2010/08/08 01:50
ENTO 080150Z AUTO 33005KT 9999NDV SCT037/// OVC053/// 14/11 Q1015

2010/08/08 01:50
ENVA 080150Z 12004KT CAVOK 11/09 Q1016

2010/08/08 01:50
ENZV 080150Z 04003KT 9999 BKN036 15/13 Q1016

2010/08/08 01:55
KBAD 080155Z AUTO 16005KT 10SM CLR 28/24 A2984 RMK AO2 SLP105 T02820244

2010/08/08 01:55
KBIX 080155Z AUTO 25006KT 10SM BKN049 32/25 A2989 RMK AO2 LTG DSNT N SLP124 T03170249 $

2010/08/08 01:53
KBRO 080153Z AUTO 15008KT 10SM CLR 29/24 A2987 RMK AO2 SLP114 T02890244 TSNO $

2010/08/08 01:53
KFLL 080153Z 19004KT 10SM FEW050 27/24 A2996 RMK AO2 SLP145 T02670244 PNO $

2010/08/08 01:55
KGSB 080155Z AUTO 13012KT 6SM R08/4000VP6000FT +RA BR OVC055 23/23 A2995 RMK AO2 VIS 2 RWY26 SLP141 P0097 T02350235

2010/08/08 01:55
KHST 080155Z AUTO 15004KT 10SM CLR 27/25 A2998 RMK AO2 SLP154 T02740251

2010/08/08 01:51
KJFK 080151Z 18009KT 10SM FEW250 24/19 A2999 RMK AO2 SLP154 T02390194

2010/08/08 01:53
KMCO 080153Z 17003KT 10SM FEW035 FEW110 BKN200 OVC250 27/24 A2994 RMK AO2 SLP138 T02670244

2010/08/08 01:52
KNRB 080152Z 26003KT 10SM FEW030 OVC150 26/23 A2992 RMK AO2 RAE28 SLP132 T2 SET P0000 T02610233

2010/08/08 01:55
KOFF 080155Z AUTO 14009KT 10SM CLR 28/23 A2976 RMK AO2 SLP061 T02810234 $

2010/08/08 01:53
KPBI 080153Z 22003KT 10SM BKN250 27/24 A2995 RMK AO2 SLP142 T02720237 $

2010/08/08 02:00
MDSD 080200Z 06005KT 9999 FEW020 24/22 Q1015 DU/ALL QDS

2010/08/08 02:00
SPIM 080200Z 17010KT 8000 OVC015 15/12 Q1016 NOSIG RMK PP000

2010/08/08 01:53
TIST 080153Z AUTO 08009KT 10SM FEW038 SCT090 29/23 A2998 RMK AO2 SLP153 T02890233 TSNO $

2010/08/08 01:53
TISX 080153Z AUTO 08010KT 10SM CLR 28/23 A2998 RMK AO2 SLP152 T02830233 TSNO $

2010/08/08 01:55
TXKF 080155Z 19012KT 9999 VCSH FEW012 SCT026 BKN053 OVC072 27/24 Q1016

2010/08/08 01:54
KRSP 080154Z AUTO VRB03KT 10SM SCT060 23/12 A3005 RMK AO2 SLP166 T02330117 $ 

2010/08/08 01:55
CYUS 080155Z AUTO ///// 9SM CLR 15/ A2984

2010/08/08 01:55
ETAD 080155Z AUTO 00000KT 9999 BKN055 OVC080 15/13 A3000 RMK AO2 RAB0115E0146 SLP148 P0000 T01540127 $

2010/08/08 01:55
KAFF 080155Z AUTO 13008KT 10SM CLR 21/12 A3008 RMK AO2 WSHFT 0049 RAE0105 SLP086 P0000 T02100123

2010/08/08 01:55
KBIX 080155Z AUTO 25006KT 10SM BKN049 32/25 A2989 RMK AO2 LTG DSNT N SLP124 T03170249 $

2010/08/08 01:55
KDAA 080155Z AUTO 00000KT 10SM CLR 20/16 A2997 RMK AO2 SLP151 T01970158

2010/08/08 01:55
KDOV 080155Z AUTO 15005KT 10SM BKN090 24/21 A2997 RMK AO2 SLP151 T02370215

2010/08/08 01:55
KFBG 080155Z 09003KT 10SM SCT041 28/22 A2995 RMK AO2A RAB0131E0141DZB0144E0148 SLP140 P0000 T02820224 $

2010/08/08 01:55
KGRK 080155Z 13008KT 7SM FEW080 SCT200 33/20 A2983 RMK SLP078

2010/08/08 01:55
KLSF 080155Z AUTO 16004KT 10SM CLR 27/24 A2992 RMK AO2 SLP132 T02740236 PNO $

2010/08/08 01:55
KMUI 080155Z AUTO 00000KT 10SM SCT075 SCT090 20/16 A2999 RMK AO2 SLP154 T01950163 $

2010/08/08 01:55
KMXF 080155Z AUTO 19006KT 10SM SCT060 BKN075 30/24 A2990 RMK AO2 LTG DSNT SE AND W SLP123 T02990240

2010/08/08 01:55
KOZR 080155Z AUTO 07004KT 10SM SCT130 BKN170 25/25 A2993 RMK AO2 SLP133 T02500250

2010/08/08 01:55
KRIV 080155Z AUTO 31009KT 10SM CLR 24/10 A2984 RMK AO2 SLP103 T02450099

2010/08/08 01:55
KRND 080155Z AUTO 16008KT 10SM CLR 31/21 A2986 RMK AO2 SLP101 T03060214

2010/08/08 01:53
KTOI 080153Z AUTO 01014G23KT 1 3/4SM +TSRA BR FEW006 BKN034 OVC041 24/23 A2996 RMK AO2 RAB40 SLP139 P0027 T02390228

2010/08/08 01:55
RODN 080155Z 21009KT 9999 -RA FEW007 SCT021 OVC037 27/26 A2967 RMK AO2A RAB0110E0131B0148 FEW V SCT CIG 028 RWY23 SLP046 P0003 T02690257

2010/08/08 01:55
KEGI 080155Z AUTO 00000KT 10SM CLR 25/23 A2991 RMK AO2 SLP129 T02470235 $

2010/08/08 01:52
KNRB 080152Z 26003KT 10SM FEW030 OVC150 26/23 A2992 RMK AO2 RAE28 SLP132 T2 SET P0000 T02610233

2010/08/08 01:55
KOFF 080155Z AUTO 14009KT 10SM CLR 28/23 A2976 RMK AO2 SLP061 T02810234 $

2010/08/08 01:55
KOZR 080155Z AUTO 07004KT 10SM SCT130 BKN170 25/25 A2993 RMK AO2 SLP133 T02500250

2010/08/08 01:55
KRDR 080155Z AUTO 10003KT 10SM CLR 27/21 A2962 RMK AO2 SLP044 T02720211 $

2010/08/08 01:55
KRIV 080155Z AUTO 31009KT 10SM CLR 24/10 A2984 RMK AO2 SLP103 T02450099

2010/08/08 01:55
KRND 080155Z AUTO 16008KT 10SM CLR 31/21 A2986 RMK AO2 SLP101 T03060214

2010/08/08 01:55
KSUU 080155Z AUTO 24019G27KT 10SM CLR 22/12 A2971 RMK AO2 PK WND 24027/0147 SLP062 T02170120 RVRNO $

2010/08/08 01:55
KSZL 080155Z AUTO 13004KT 10SM CLR 26/22 A2985 RMK AO2 SLP103 T02620217 PNO $

2010/08/08 01:50
MSLP 080150Z 00000KT 9999 SCT020 SCT070 BKN300 26/25 Q1011 A2988 DSTN LTGIC TO NE/E

2010/08/08 02:00
SPIM 080200Z 17010KT 8000 OVC015 15/12 Q1016 NOSIG RMK PP000

2010/08/08 01:55
EGUN 080155Z AUTO 33004KT 9999 FEW035 OVC050 14/14 A3005 RMK AO2 RAB0104E0113 SLP164 P0000 T01450145

2010/08/08 01:50
ENAN 080150Z 25008KT 9999 FEW010 SCT020 10/09 Q1019

2010/08/08 01:50
ENBR 080150Z 14002KT 9999 -DZ SCT020 BKN035 15/13 Q1016

2010/08/08 01:50
ENDU 080150Z VRB02KT 9999 FEW002 SCT250 09/07 Q1019

2010/08/08 01:50
ENGC 080150Z 20012KT 4000 BR FEW005 BKN020 14/14 Q1013

2010/08/08 01:50
ENHE 080150Z 07018KT 9999 FEW005 SCT130 12/12 Q1018

2010/08/08 01:50
ENNA 080150Z VRB02KT 9999 BCFG FEW005 SCT110 13/12 Q1019

2010/08/08 01:50
ENOA 080150Z 24019KT 9999 SCT008 BKN012 14/12 Q1015

2010/08/08 01:50
ENTC 080150Z 00000KT 9999 BKN008 11/10 Q1019

2010/08/08 01:55
ETAD 080155Z AUTO 00000KT 9999 BKN055 OVC080 15/13 A3000 RMK AO2 RAB0115E0146 SLP148 P0000 T01540127 $

2010/08/08 01:55
ETEB 080155Z AUTO 21003KT 9999 FEW130 SCT170 12/09 A3007 RMK AO2 SLP172 T01200089

2010/08/08 01:50
LGKR 080150Z 00000KT CAVOK 20/17 Q1012 NOSIG

2010/08/08 01:50
LGLM 080150Z 00000KT 9999 FEW015 22/20 Q1009

2010/08/08 01:50
LGRP 080150Z 26012KT 9000 FEW010 26/24 Q1008

2010/08/08 01:50
LGSA 080150Z 28015KT CAVOK 24/17 Q1010

2010/08/08 01:50
LGTS 080150Z 00000KT 9999 FEW015 23/20 Q1011 NOSIG

2010/08/08 01:50
LIPE 080150Z 21008KT CAVOK 20/16 Q1016

2010/08/08 01:50
LIPZ 080150Z 03006KT CAVOK 20/18 Q1016

2010/08/08 01:50
LOWG 080150Z VRB01KT 0350 R17/0550N R35/0650N FG VV002 15/15 Q1018 NOSIG

2010/08/08 01:50
LOWI 080150Z VRB01KT 9999 FEW009 SCT035 11/10 Q1021 NOSIG

2010/08/08 01:50
LOWK 080150Z 30003KT 9999 FEW007 BKN012 15/14 Q1019

2010/08/08 01:50
LOWL 080150Z AUTO 28003KT 250V310 6000 BR FEW110 13/13 Q1018

2010/08/08 01:50
LOWS 080150Z 17007KT 9999 FEW060 13/11 Q1019

2010/08/08 01:50
LOWW 080150Z 26006KT 9999 FEW014 SCT030 BKN055 16/14 Q1016 NOSIG

2010/08/08 02:00
LQBK 080200Z 16002KT CAVOK 15/14 Q1017 NOSIG

2010/08/08 02:00
LWOH 080200Z 33002KT CAVOK 13/11 Q1017

2010/08/08 01:55
KDYS 080155Z AUTO 16006KT 10SM CLR 31/17 A2984 RMK AO2 SLP077 T03120172 $

2010/08/08 01:55
KEDW 080155Z 21019G25KT 90SM FEW060 29/00 A2979 RMK AO2A PK WND 22028/0129 SLP043 T02890004

2010/08/08 01:55
KLHW 080155Z AUTO 00000KT 10SM CLR 26/24 A2992 RMK AO2 SLP133 T02630244

2010/08/08 01:55
KMUO 080155Z AUTO 36008KT 10SM CLR 31/05 A2977 RMK AO2 SLP050 T03100052

2010/08/08 01:52
KNFW 080152Z AUTO 16008KT 10SM CLR 35/19 A2984 RMK AO2 SLP090 T03500194 $

2010/08/08 01:52
KNHK 080152Z AUTO 00000KT 10SM CLR 22/17 A2997 RMK AO2 SLP149 T02170172

2010/08/08 01:53
KNIP 080153Z 25007KT 10SM SCT030 OVC150 25/24 A2993 RMK AO2 RAB0054E20 SLP130 T2 SET P0000 T02500239

2010/08/08 01:55
KTIK 080155Z 14005KT 10SM CLR 30/23 A2984 RMK AO2A SLP089 T03000232

2010/08/08 01:55
KVOK 080155Z 16005KT 10SM SCT033 24/22 A2981 RMK AO2A SLP089 T02390217 $

2010/08/08 01:55
KWRI 080155Z AUTO 24004KT 10SM CLR 23/18 A2997 RMK AO2 RAB0103E0118 SLP148 P0000 T02300180 $

2010/08/08 02:00
LQBK 080200Z 16002KT CAVOK 15/14 Q1017 NOSIG

2010/08/08 01:54
OAHR 080154Z 03009KTCAVOK 28/M03 Q1009 RMK SCT SCT050 VIS MIN 9999 BLU

2010/08/08 02:00
OSAP 080200Z 26005KT CAVOK 22/09 Q1009

2010/08/08 02:00
OSLK 080200Z 05005KT CAVOK 24/17 Q1008

2010/08/08 01:53
PABI 080153Z 00000KT 10SM FEW020 SCT046 SCT075 BKN180 18/07 A2967 RMK AO2 SLP049 SHRA DSNT NW CB DSNT N-NE DSIPTD T01830067 $

2010/08/08 01:55
PAEI 080155Z AUTO 00000KT 10SM BKN080 19/09 A2964 RMK AO2 CIG 065 RWY14 SLP039 T01860094 $

2010/08/08 01:53
PASC 080153Z 07022G28KT 10SM OVC007 06/04 A2973 RMK AO2 PK WND 07028/0152 SLP067 T00560039

2010/08/08 01:55
ETAR 080155Z AUTO 00000KT 9999 -RA BKN037 BKN060 OVC100 16/15 A3001 RMK AO2 RAB0114 SLP156 P0001 T01620148 $

2010/08/08 01:50
LGAD 080150Z 00000KT CAVOK 20/19 Q1013

2010/08/08 01:50
LGAL 080150Z 03004KT CAVOK 22/19 Q1010

2010/08/08 01:50
LGEL 080150Z 33008KT CAVOK 26/15 Q1009

2010/08/08 01:50
LGIR 080150Z 19004KT CAVOK 23/19 Q1011 NOSIG

2010/08/08 01:50
LGKO 080150Z 30006KT 9999 FEW010 24/22 Q1009

2010/08/08 01:50
LGKV 080150Z 00000KT CAVOK 21/19 Q1010

2010/08/08 01:50
LGMT 080150Z 24004KT CAVOK 26/19 Q1010

2010/08/08 01:50
LGRX 080150Z 00000KT CAVOK 20/18 Q1012 NOSIG

2010/08/08 01:50
LGSR 080150Z 25008KT 9999 SCT018 25/21 Q1008 NOSIG

2010/08/08 01:50
LGZA 080150Z 00000KT CAVOK 19/14 Q1012

2010/08/08 01:50
LIBD 080150Z 24004KT CAVOK 19/17 Q1017

2010/08/08 01:45
LIBR 080145Z 34009KT CAVOK 23/19 Q1016 NOSIG

2010/08/08 01:50
LICC 080150Z VRB03KT CAVOK 20/17 Q1015

2010/08/08 01:50
LICJ 080150Z 08011KT 9999 FEW030 24/18 Q1016

2010/08/08 01:50
LIEA 080150Z 02001KT CAVOK 15/15 Q1018

2010/08/08 01:45
LIEE 080145Z 31004KT CAVOK 17/12 Q1017 NOSIG

2010/08/08 01:50
LIEO 080150Z 23005KT CAVOK 17/14 Q1018

2010/08/08 01:50
LIMC 080150Z 00000KT CAVOK 16/13 Q1017 NOSIG

2010/08/08 01:50
LIME 080150Z 03006KT CAVOK 18/13 Q1017

2010/08/08 01:50
LIMF 080150Z VRB02KT CAVOK 18/12 1016

2010/08/08 01:50
LIMJ 080150Z 06007KT 9999 FEW025 22/18 Q1017

2010/08/08 01:50
LIML 080150Z 00000KT CAVOK 18/15 Q1016 NOSIG

2010/08/08 01:45
LIPH 080145Z 00000KT CAVOK 20/19 Q1017

2010/08/08 01:50
LIPQ 080150Z VRB03KT 9999 FEW050 16/14 Q1017

2010/08/08 01:45
LIPR 080145Z 20002KT CAVOK 19/18 Q1016

2010/08/08 01:45
LIPX 080145Z 34001KT CAVOK 18/18 Q1016

2010/08/08 01:50
LIRF 080150Z VRB02KT CAVOK 17/14 Q1017 NOSIG

2010/08/08 01:50
LIRN 080150Z VRB01KT CAVOK 20/16 Q1016

2010/08/08 01:55
KAFF 080155Z AUTO 13008KT 10SM CLR 21/12 A3008 RMK AO2 WSHFT 0049 RAE0105 SLP086 P0000 T02100123

2010/08/08 01:55
KBIX 080155Z AUTO 25006KT 10SM BKN049 32/25 A2989 RMK AO2 LTG DSNT N SLP124 T03170249 $

2010/08/08 01:55
KDOV 080155Z AUTO 15005KT 10SM BKN090 24/21 A2997 RMK AO2 SLP151 T02370215

2010/08/08 01:55
KDYS 080155Z AUTO 16006KT 10SM CLR 31/17 A2984 RMK AO2 SLP077 T03120172 $

2010/08/08 01:55
KEDW 080155Z 21019G25KT 90SM FEW060 29/00 A2979 RMK AO2A PK WND 22028/0129 SLP043 T02890004

2010/08/08 01:55
KFBG 080155Z 09003KT 10SM SCT041 28/22 A2995 RMK AO2A RAB0131E0141DZB0144E0148 SLP140 P0000 T02820224 $

2010/08/08 01:55
KGRK 080155Z 13008KT 7SM FEW080 SCT200 33/20 A2983 RMK SLP078

2010/08/08 01:55
KHIF 080155Z AUTO 12008KT 10SM FEW230 25/06 A2992 RMK AO2 PK WND 13026/0103 CLDS LWR RWY32 SLP026 T02480064

2010/08/08 01:48
KIWA 080148Z 24004KT 45SM FEW080 SCT120 BKN200 37/13 A2978

2010/08/08 01:55
KLHW 080155Z AUTO 00000KT 10SM CLR 26/24 A2992 RMK AO2 SLP133 T02630244

2010/08/08 01:55
KLSF 080155Z AUTO 16004KT 10SM CLR 27/24 A2992 RMK AO2 SLP132 T02740236 PNO $

2010/08/08 01:55
KMGE 080155Z 16007KT 10SM BKN080 28/23 A2997 RMK AO2A SLP137 T02850228 $

2010/08/08 01:55
KMUI 080155Z AUTO 00000KT 10SM SCT075 SCT090 20/16 A2999 RMK AO2 SLP154 T01950163 $

2010/08/08 01:55
KMUO 080155Z AUTO 36008KT 10SM CLR 31/05 A2977 RMK AO2 SLP050 T03100052

2010/08/08 01:55
KMXF 080155Z AUTO 19006KT 10SM SCT060 BKN075 30/24 A2990 RMK AO2 LTG DSNT SE AND W SLP123 T02990240

2010/08/08 01:52
KNFW 080152Z AUTO 16008KT 10SM CLR 35/19 A2984 RMK AO2 SLP090 T03500194 $

2010/08/08 02:00
OYHD 080200Z 00000KT 6000 NSC 32/29 Q1001

2010/08/08 02:00
LWOH 080200Z 33002KT CAVOK 13/11 Q1017

2010/08/08 01:50
LOWW 080150Z 26006KT 9999 FEW014 SCT030 BKN055 16/14 Q1016 NOSIG

2010/08/08 01:50
LOWL 080150Z AUTO 28003KT 250V310 6000 BR FEW110 13/13 Q1018

2010/08/08 01:50
LOWS 080150Z 17007KT 9999 FEW060 13/11 Q1019

2010/08/08 01:50
LOWI 080150Z VRB01KT 9999 FEW009 SCT035 11/10 Q1021 NOSIG

2010/08/08 01:50
LOWG 080150Z VRB01KT 0350 R17/0550N R35/0650N FG VV002 15/15 Q1018 NOSIG

2010/08/08 01:50
LOWK 080150Z 30003KT 9999 FEW007 BKN012 15/14 Q1019

2010/08/08 02:00
OYSY 080200Z 16007KT 120V220 CAVOK 32/16 Q1006

2010/08/08 01:50
EBAW 080150Z AUTO 26006KT CAVOK 16/14 Q1016

2010/08/08 01:50
EBBR 080150Z 26003KT 230V290 9999 BKN047 16/14 Q1016 NOSIG

2010/08/08 01:50
EBCI 080150Z 26005KT 9999 FEW011 SCT033 14/12 Q1016 NOSIG

2010/08/08 01:50
EBLG 080150Z 31003KT 280V350 9999 BKN033 15/14 Q1016 TEMPO 5000 -SHRA BR BKN012

2010/08/08 01:50
EBOS 080150Z 23005KT 8000 FEW009 SCT014 16/13 Q1016 TEMPO BKN009

2010/08/08 01:50
ELLX 080150Z AUTO VRB04KT 9999 NDV 17/12 Q1016

2010/08/08 01:50
EGCN 080150Z 33007KT CAVOK 13/12 Q1020

2010/08/08 02:00
OYRN 080200Z 04005KT 7000 NSC 27/23 Q1004

2010/08/08 01:53
KMWN 080153Z 28030KT 125SM FEW020 SCT040 SCT250 04/03 RMK 

2010/08/08 01:54
KRFD 080154Z 19007KT 10SM CLR 23/18 A2990 RMK AO2 SLP120 T02280183 

2010/08/08 01:50
BGSF 080150Z 06009KT 9999 FEW220 06/02 Q1015

2010/08/08 02:00
SVMI 080200Z 00000KT 9999 FEW016 28/24 Q1013 NOSIG

2010/08/08 01:54
KAKQ 080154Z AUTO 00000KT 10SM CLR 21/17 A2998 RMK AO2 SLP151 T02110167 TSNO $ 

2010/08/08 01:50
LGAL 080150Z 03004KT CAVOK 22/19 Q1010

2010/08/08 01:50
LGEL 080150Z 33008KT CAVOK 26/15 Q1009

2010/08/08 01:50
LGKV 080150Z 00000KT CAVOK 21/19 Q1010

2010/08/08 01:50
LGMT 080150Z 24004KT CAVOK 26/19 Q1010

2010/08/08 01:50
LGPZ 080150Z 00000KT CAVOK 21/18 Q1013 NOSIG

2010/08/08 01:50
LGRX 080150Z 00000KT CAVOK 20/18 Q1012 NOSIG

2010/08/08 01:50
LGSR 080150Z 25008KT 9999 SCT018 25/21 Q1008 NOSIG

2010/08/08 01:50
LGZA 080150Z 00000KT CAVOK 19/14 Q1012

2010/08/08 01:50
EFJO 080150Z AUTO 10003KT 4200 BR SKC 19/18 Q1016

2010/08/08 01:50
EFLP 080150Z AUTO 12003KT 9000 SKC 23/20 Q1016

2010/08/08 01:50
EFMI 080150Z AUTO 00000KT 2200 BR SKC 17/17 Q1015

2010/08/08 01:50
EFSA 080150Z AUTO 09003KT 6000NDV NCD 19/19 Q1016

2010/08/08 01:50
EFUT 080150Z AUTO 12006KT CAVOK 22/20 Q1015

2010/08/08 01:50
EFVR 080150Z AUTO 15001KT CAVOK 19/19 Q1015

2010/08/08 01:50
LIBD 080150Z 24004KT CAVOK 19/17 Q1017

2010/08/08 01:45
LIBR 080145Z 34009KT CAVOK 23/19 Q1016 NOSIG

2010/08/08 01:50
LICC 080150Z VRB03KT CAVOK 20/17 Q1015

2010/08/08 01:50
LICJ 080150Z 08011KT 9999 FEW030 24/18 Q1016

2010/08/08 01:50
LIPE 080150Z 21008KT CAVOK 20/16 Q1016

2010/08/08 01:50
LIPQ 080150Z VRB03KT 9999 FEW050 16/14 Q1017

2010/08/08 01:45
LIPR 080145Z 20002KT CAVOK 19/18 Q1016

2010/08/08 01:45
LIPX 080145Z 34001KT CAVOK 18/18 Q1016

2010/08/08 01:50
LIPZ 080150Z 03006KT CAVOK 20/18 Q1016

2010/08/08 02:00
OSDI 080200Z 00000KT CAVOK 21/10 Q1011

2010/08/08 02:00
OSAP 080200Z 26005KT CAVOK 22/09 Q1009

2010/08/08 02:00
OSLK 080200Z 05005KT CAVOK 24/17 Q1008

2010/08/08 02:00
OSKL 080200Z 34011KT CAVOK 35/M03 Q1007

2010/08/08 01:53
KRTN 080153Z AUTO 34006KT 10SM CLR 23/14 A3004 RMK AO2 SLP080 T02280139 TSNO 

2010/08/08 01:55
KMBG 080155Z AUTO 02003KT 10SM CLR 24/17 A2964 RMK AO2 SLP024 T02440167 TSNO 

2010/08/08 01:50
HLLT 080150Z 11003KT CAVOK 24/17 Q1015

2010/08/08 01:50
EGVN 080150Z 33007KT 9999 BKN034 15/12 Q1019 NOSIG

2010/08/08 01:50
EGDL 080150Z 31005KT 9999 FEW013 BKN034 13/11 Q1019 TEMPO SCT012

2010/08/08 01:50
LGHI 080150Z 00000KT CAVOK 22/19 Q1010

2010/08/08 01:45
LIPH 080145Z 00000KT CAVOK 20/19 Q1017

2010/08/08 01:50
LGAD 080150Z 00000KT CAVOK 20/19 Q1013

2010/08/08 01:50
LGAV 080150Z 28002KT CAVOK 22/17 Q1010 NOSIG

2010/08/08 01:50
LGIR 080150Z 19004KT CAVOK 23/19 Q1011 NOSIG

2010/08/08 01:50
LGKO 080150Z 30006KT 9999 FEW010 24/22 Q1009

2010/08/08 01:50
LGKR 080150Z 00000KT CAVOK 20/17 Q1012 NOSIG

2010/08/08 01:50
LGLM 080150Z 00000KT 9999 FEW015 22/20 Q1009

2010/08/08 01:50
LGRP 080150Z 26012KT 9000 FEW010 26/24 Q1008

2010/08/08 01:50
LGSA 080150Z 28015KT CAVOK 24/17 Q1010

2010/08/08 01:50
LGTS 080150Z 00000KT 9999 FEW015 23/20 Q1011 NOSIG

2010/08/08 01:50
LIEA 080150Z 02001KT CAVOK 15/15 Q1018

2010/08/08 01:45
LIEE 080145Z 31004KT CAVOK 17/12 Q1017 NOSIG

2010/08/08 01:50
LIEO 080150Z 23005KT CAVOK 17/14 Q1018

2010/08/08 01:50
LIMC 080150Z 00000KT CAVOK 16/13 Q1017 NOSIG

2010/08/08 01:50
LIME 080150Z 03006KT CAVOK 18/13 Q1017

2010/08/08 01:50
LIMF 080150Z VRB02KT CAVOK 18/12 1016

2010/08/08 01:50
LIMJ 080150Z 06007KT 9999 FEW025 22/18 Q1017

2010/08/08 01:50
LIML 080150Z 00000KT CAVOK 18/15 Q1016 NOSIG

2010/08/08 01:50
LIRF 080150Z VRB02KT CAVOK 17/14 Q1017 NOSIG

2010/08/08 01:50
LIRN 080150Z VRB01KT CAVOK 20/16 Q1016

2010/08/08 01:50
LGHI 080150Z 00000KT CAVOK 22/19 Q1010

2010/08/08 01:50
LGAL 080150Z 03004KT CAVOK 22/19 Q1010

2010/08/08 01:50
LGEL 080150Z 33008KT CAVOK 26/15 Q1009

2010/08/08 01:50
LGKV 080150Z 00000KT CAVOK 21/19 Q1010

2010/08/08 01:50
LGMT 080150Z 24004KT CAVOK 26/19 Q1010

2010/08/08 01:50
LGPZ 080150Z 00000KT CAVOK 21/18 Q1013 NOSIG

2010/08/08 01:50
LGRX 080150Z 00000KT CAVOK 20/18 Q1012 NOSIG

2010/08/08 01:50
LGSR 080150Z 25008KT 9999 SCT018 25/21 Q1008 NOSIG

2010/08/08 01:50
LGZA 080150Z 00000KT CAVOK 19/14 Q1012

2010/08/08 01:55
KDRA 080155Z AUTO 21015G21KT 10SM CLR 32/02 A2979 RMK AO2 SLP036 T03220017 TSNO $ 

2010/08/08 01:55
KPOE 080155Z AUTO 19005KT 10SM CLR 29/24 A2988 RMK AO2 SLP117 T02940244 

2010/08/08 01:55
KNBG 080155Z 00000KT 10SM FEW060 SCT250 28/24 A2990 RMK AO2 SLP126 T02830244 $ 

2010/08/08 01:55
KAST 080155Z AUTO 23007KT 5SM BR OVC005 16/14 A2993 RMK AO2 RAE0058 SLP135 P0000 T01610144 

2010/08/08 01:55
KVBG 080155Z AUTO 32006KT 10SM CLR 14/11 A2988 RMK AO2 SLP109 T01390111 TSNO CHINO RWY12 VISNO RWY12 $ 

2010/08/08 01:50
BGSF 080150Z 06009KT 9999 FEW220 06/02 Q1015

2010/08/08 01:55
BGTL 080155Z AUTO 13022G29KT 9999 OVC043 05/M00 A2994 RMK AO2 PK WND 12029/0145 SLP145 T00491005 $

2010/08/08 01:55
ETAR 080155Z AUTO 00000KT 9999 -RA BKN037 BKN060 OVC100 16/15 A3001 RMK AO2 RAB0114 SLP156 P0001 T01620148 $

2010/08/08 01:55
ETOU 080155Z AUTO 08003KT 9999 SCT070 OVC090 18/13 A3000 RMK AO2 SLP156 T01760130

2010/08/08 01:55
KFTK 080155Z AUTO 09004KT 10SM CLR 25/17 A2997 RMK AO2 SLP142 T02540173 $

2010/08/08 01:55
KGTB 080155Z AUTO 18004KT 10SM CLR 15/12 A2997 RMK AO2 SLP151 T01530121

2010/08/08 01:55
KHIF 080155Z AUTO 12008KT 10SM FEW230 25/06 A2992 RMK AO2 PK WND 13026/0103 CLDS LWR RWY32 SLP026 T02480064

2010/08/08 01:55
KMGE 080155Z 16007KT 10SM BKN080 28/23 A2997 RMK AO2A SLP137 T02850228 $

2010/08/08 01:54
KNFG 080154Z AUTO VRB04KT 10SM CLR 17/13 A2986 RMK AO2 SLP110 T01720128 TSNO $

2010/08/08 01:53
KNQX 080153Z 00000KT 10SM SCT025 SCT041 31/26 A2997 RMK AO2 SLP146 T03060256 $

2010/08/08 01:55
KPOB 080155Z AUTO 00000KT 10SM SCT041 26/24 A2995 RMK AO2 SLP142 T02640242 $

2010/08/08 01:55
KSLI 080155Z AUTO 17008KT 10SM CLR 18/14 A2985 RMK AO2 SLP109 T01800137

2010/08/08 01:55
KSSC 080155Z 00000KT 10SM CLR 28/24 A2992 RMK AO2A RAE0102DZB0120E0129 SLP131 P0000 T02750244 $

2010/08/08 02:00
OSDI 080200Z 00000KT CAVOK 21/10 Q1011

2010/08/08 01:55
PGUA 080155Z AUTO 07012G17KT 10SM BKN017 BKN023 BKN055 28/25 A2986 RMK AO2 SLP092 T02830251 VISNO RWY24L $

2010/08/08 01:55
PHHI 080155Z AUTO 10010KT 10SM -DZ SCT032 BKN045 27/19 A3005 RMK AO2 DZB0149 SLP164 P0000 T02740189 $

2010/08/08 01:50
KADS 080150Z 16009G15KT 10SM SKC 35/21 A2981

2010/08/08 01:55
KAEG 080155Z AUTO 31015G21KT 10SM FEW100 24/09 A3006 RMK AO1

2010/08/08 01:55
KAIK 080155Z AUTO 00000KT 10SM CLR 26/26 A2998 RMK AO2 LTG DSNT SE PNO

2010/08/08 01:55
KBBP 080155Z AUTO 10003KT 10SM SCT047 SCT055 27/22 A2994 RMK AO2

2010/08/08 01:55
KBNL 080155Z AUTO 00000KT 7SM SCT030 26/25 A2994 RMK AO2

2010/08/08 01:55
KBWD 080155Z AUTO 14007KT 10SM CLR 32/19 A2985 RMK AO2

2010/08/08 01:55
KCGC 080155Z AUTO 00000KT 10SM FEW027 28/26 A2991 RMK

2010/08/08 01:55
KCQW 080155Z AUTO 00000KT 5SM HZ FEW048 26/23 A2995 RMK AO2

2010/08/08 01:55
KDCM 080155Z AUTO 00000KT 7SM CLR 25/24 A2998 RMK AO2 LTG DSNT SE

2010/08/08 01:55
KE80 080155Z AUTO 30007KT 10SM SCT110 26/11 A3001 RMK AO2 T02610112

2010/08/08 01:55
KEDC 080155Z AUTO 17005KT 10SM CLR 31/21 A2985 RMK AO1

2010/08/08 01:55
KEOE 080155Z AUTO 04003KT 10SM CLR 26/23 A2998 RMK AO2

2010/08/08 01:55
KFMH 080155Z AUTO 19005KT 10SM CLR 18/16 A3003 RMK AO2

2010/08/08 01:54
KFZY 080154Z AUTO 00000KT 10SM CLR 14/13 A2998 RMK AO2 SLP150 T01390133

2010/08/08 01:55
KGYH 080155Z AUTO 10004KT 10SM SCT049 BKN085 OVC110 30/18 A2999 RMK AO2

2010/08/08 01:55
KHYW 080155Z AUTO 00000KT 5SM BR CLR 24/24 A2993 RMK AO2

2010/08/08 01:55
KLQK 080155Z AUTO 10SM CLR 25/21 A2998 RMK AO2 T02510211 PNO

2010/08/08 01:55
KLRO 080155Z AUTO 00000KT 5SM BR CLR 24/23 A2992 RMK AO2

2010/08/08 01:55
KLUX 080155Z AUTO 10003KT 10SM BKN100 25/25 A2998 RMK AO2

2010/08/08 01:55
KMNI 080155Z AUTO 00000KT 10SM CLR 26/26 A2992 RMK AO2

2010/08/08 01:55
KRBW 080155Z AUTO 00000KT 10SM CLR 26/26 A2994 RMK AO2

2010/08/08 01:55
KSPL 080155Z AUTO 13010KT CLR 29/26 A2987 RMK AO2 PWINO PNO

2010/08/08 01:55
KTME 080155Z AUTO 15006KT 10SM CLR 28/27 A2988 RMK AO2

2010/08/08 01:55
KTSP 080155Z AUTO 31013KT 10SM CLR 25/05 A2993 RMK AO2

2010/08/08 01:55
KUTA 080155Z AUTO 00000KT 10SM SCT001 28/24 A2989 RMK AO2

2010/08/08 01:55
KX40 080155Z AUTO 00000KT 10SM SCT026 29/26 A2993 RMK AO2 T02890260

2010/08/08 01:53
KLAX 080153Z 26010KT 10SM FEW010 17/12 A2985 RMK AO2 SLP108 T01720117

2010/08/08 01:54
KRIC 080154Z 13005KT 10SM BKN050 25/19 A2998 RMK AO2 SLP155 T02500189

2010/08/08 01:53
K04W 080153Z AUTO 07004KT 10SM -TSRA OVC034 24/22 A2966 RMK AO2 LTG DSNT ALQS T02430222

2010/08/08 01:56
K20V 080156Z AUTO 34011G15KT 10SM SCT075 OVC090 16/07 A3022 RMK AO2

2010/08/08 01:52
K5SM 080152Z AUTO 28003KT M1/4SM FG 09/08 A3044 RMK AO2

2010/08/08 01:54
K7BM 080154Z AUTO 00000KT 10SM SCT070 SCT100 18/06 A3034 RMK AO2 LTG DSNT S

2010/08/08 01:52
KABI 080152Z 16004KT 10SM CLR 31/21 A2986 RMK AO2 SLP081 T03060206 $

2010/08/08 01:54
KAVP 080154Z 00000KT 10SM CLR 21/10 A3000 RMK AO2 SLP149 T02060100

2010/08/08 01:57
KBDU 080157Z AUTO 08004KT 10SM CLR 27/11 A2996 RMK AO2

2010/08/08 01:56
KBMI 080156Z 19007KT 10SM CLR 23/18 A2994 RMK AO2 T02270183 SLP125 $

2010/08/08 01:56
KBOK 080156Z AUTO 30009KT 8SM CLR 21/14 A2986 RMK AO2 T02050138 SLP112

2010/08/08 01:53
KBTR 080153Z 23008KT 10SM FEW250 30/24 A2987 RMK AO2 SLP114 T03000244

2010/08/08 01:54
KBTV 080154Z 00000KT 10SM CLR 14/11 A2997 RMK AO2 SLP148 T01390106

2010/08/08 01:54
KC29 080154Z AUTO 21003KT 10SM CLR 24/19 A2986 RMK AO2 T02400186

2010/08/08 01:57
KCCU 080157Z AUTO 23007KT 10SM SCT045 BKN050 OVC080 12/05 A3052 RMK AO2

2010/08/08 01:53
KCHA 080153Z 33003KT 10SM SCT070 SCT150 29/21 A2993 RMK AO2 SLP127 ACFT MSHP T02890211

2010/08/08 01:55
KCMA 080155Z 27007KT 10SM CLR 19/12 A2984 RMK AO2 SLP112 T01890122

2010/08/08 01:55
KCNK 080155Z AUTO 14007KT 10SM CLR 28/21 A2979 RMK AO2 SLP070 T02830211

2010/08/08 02:02
KCPW 080202Z AUTO 22015G36KT 181V241 4SM +TSRA SCT003 BKN045 OVC110 09/06 A3050 RMK AO2 LTG DSNT E SE AND NW

2010/08/08 01:53
KDAB 080153Z 00000KT 10SM -RA BKN030 BKN140 OVC200 26/24 A2993 RMK AO2 RAB21E29B53 SLP135 PCPN VRY LGT P0000 T02610244

2010/08/08 01:55
KDLH 080155Z 12010KT 10SM -TSRA OVC042CB 17/16 A2972 RMK AO2 TSB23 SLP061 FRQ LTGICCG SE-SW TS SE-SW MOV E P0001 T01720156

2010/08/08 01:55
KEAT 080155Z AUTO 30012KT 10SM -RA SCT022 SCT060 BKN095 21/12 A2980 RMK AO2 RAB18 SLP084 P0000 T02110122

2010/08/08 01:55
KGPI 080155Z 26007KT 10SM CLR 26/06 A2975 RMK AO2 SLP059 T02560061

2010/08/08 01:54
KGSO 080154Z 06004KT 10SM CLR 26/17 A3001 RMK AO2 SLP150 T02560172

2010/08/08 01:55
KIRK 080155Z AUTO 16005KT 10SM CLR 23/22 A2988 RMK AO2 SLP114 T02330217

2010/08/08 01:50
KLAL 080150Z VRB03KT 7SM FEW025 BKN150 OVC250 28/26 A2994 RMK LAST

2010/08/08 01:55
KLIC 080155Z AUTO VRB03G22KT 2 1/2SM +TSRA BR FEW020 BKN049 OVC065 19/17 A3008 RMK AO2 LTG DSNT ALQDS TSE03B06RAB02 PRESRR SLP115 P0013 T01890172

2010/08/08 01:55
KLLJ 080155Z AUTO 27009KT 10SM CLR 26/01 A2985 RMK AO2 SLP049 T02560011 $

2010/08/08 01:53
KLND 080153Z AUTO 34014G17KT 10SM SCT120 26/01 A2994 RMK AO2 SLP063 T02610011

2010/08/08 01:53
KLXV 080153Z AUTO 03005KT 10SM SCT075 14/05 A3034 RMK AO2 RAB08E22 SLP112 P0000 T01390050 TSNO

2010/08/08 01:55
KMKG 080155Z 19010KT 10SM SCT060 25/20 A2988 RMK AO2 SLP114 T02500200

2010/08/08 01:53
KMSN 080153Z 20005KT 10SM CLR 25/19 A2985 RMK AO2 SLP104 T02500189

2010/08/08 01:53
KMWT 080153Z AUTO 00000KT 10SM CLR 27/25 A2985 RMK AO2 SLP098 T02670250 TSNO

2010/08/08 01:53
KOVE 080153Z AUTO 16010KT 10SM CLR 33/11 A2969 RMK AO2 SLP054 T03280106 TSNO $

2010/08/08 01:55
KRNO 080155Z VRB05G23KT 10SM SCT060CB BKN080 BKN140 28/01 A2989 RMK AO2 SLP069 VIRGA DSNT N E S CB S DSNT N NE SE MOV NW T02780006

2010/08/08 01:53
KSAV 080153Z 25003KT 10SM FEW030 SCT070 27/24 A2992 RMK AO2 SLP132 T02720244

2010/08/08 01:55
KSCK 080155Z 32008KT 10SM CLR 28/14 A2972 RMK AO2 SLP062 T02830139 $

2010/08/08 01:53
KSGR 080153Z 17006KT 10SM CLR 29/24 A2986 RMK AO2 SLP120 T02890239

2010/08/08 01:53
KTLH 080153Z 00000KT 10SM SCT049 SCT070 BKN100 25/23 A2994 RMK AO2 SLP137 T02500233

2010/08/08 01:53
KTRI 080153Z 00000KT 9SM CLR 22/16 A3000 RMK AO2 SLP142 T02220156

2010/08/08 01:53
KTYS 080153Z 03004KT 10SM CLR 27/18 A2995 RMK AO2 SLP129 T02670178

2010/08/08 01:45
KUES 080145Z 21003KT 10SM SKC 22/17 A2988

2010/08/08 02:00
KVTP 080200Z AUTO 30007KT 10SM VCTS CLR 12/06 A3037 RMK AO2 LTG DSNT N SE AND S

2010/08/08 01:50
KWYS 080150Z AUTO 00000KT 10SM FEW100 13/09 A3007 RMK AO2

2010/08/08 01:54
PAHN 080154Z AUTO 12008KT 10SM FEW018 OVC038 14/11 A2980 RMK AO2 SLP092 T01440106 TSNO

2010/08/08 01:54
PAKN 080154Z 21007KT 10SM BKN014 OVC050 12/09 A2977 RMK AO2 SLP080 T01170094

2010/08/08 01:49
PANW 080149Z AUTO 21011KT 10SM FEW017 SCT026 BKN032 13/10 A2976 RMK AO2 PWINO TSNO BKN V SCT $

2010/08/08 01:50
BGSF 080150Z 06009KT 9999 FEW220 06/02 Q1015

2010/08/08 01:50
BGSF 080150Z 06009KT 9999 FEW220 06/02 Q1015

2010/08/08 01:50
LIEA 080150Z 02001KT CAVOK 15/15 Q1018

2010/08/08 01:45
LIEE 080145Z 31004KT CAVOK 17/12 Q1017 NOSIG

2010/08/08 01:50
LIEO 080150Z 23005KT CAVOK 17/14 Q1018

2010/08/08 01:50
LIMC 080150Z 00000KT CAVOK 16/13 Q1017 NOSIG

2010/08/08 01:50
LIME 080150Z 03006KT CAVOK 18/13 Q1017

2010/08/08 01:50
LIMF 080150Z VRB02KT CAVOK 18/12 1016

2010/08/08 01:50
LIMJ 080150Z 06007KT 9999 FEW025 22/18 Q1017

2010/08/08 01:50
LIML 080150Z 00000KT CAVOK 18/15 Q1016 NOSIG

2010/08/08 01:50
LIRF 080150Z VRB02KT CAVOK 17/14 Q1017 NOSIG

2010/08/08 01:50
LIRN 080150Z VRB01KT CAVOK 20/16 Q1016

2010/08/08 01:54
PWAK 080154Z 13010KT 8SM HZ FEW032 30/24 A2992 RMK AO2A 

2010/08/08 02:00
SBFZ 080200Z 10013KT 9999 SCT017 25/22 Q1016

2010/08/08 01:46
MMCP 080146Z 00000KT 7SM FEW030 OVC100 26/24 A2982 RMK 8/230

2010/08/08 01:52
MMMD 080152Z 07004KT 7SM FEW010 BKN070 OVC300 26/24 A2988 RMK 8/463 -RAE25

2010/08/08 01:51
MMVA 080151Z 12006KT 5SM FEW010 BKN040 OVC080 27/25 A2983 RMK 60215 8/72/ +RAE20 VRBL CONDS

2010/08/08 02:00
SBSL 080200Z 06009KT CAVOK 26/24 Q1015

2010/08/08 01:50
LIBD 080150Z 24004KT CAVOK 19/17 Q1017

2010/08/08 01:45
LIBR 080145Z 34009KT CAVOK 23/19 Q1016 NOSIG

2010/08/08 01:50
LICC 080150Z VRB03KT CAVOK 20/17 Q1015

2010/08/08 01:50
LICJ 080150Z 08011KT 9999 FEW030 24/18 Q1016

2010/08/08 01:50
LIPE 080150Z 21008KT CAVOK 20/16 Q1016

2010/08/08 01:50
LIPQ 080150Z VRB03KT 9999 FEW050 16/14 Q1017

2010/08/08 01:45
LIPR 080145Z 20002KT CAVOK 19/18 Q1016

2010/08/08 01:45
LIPX 080145Z 34001KT CAVOK 18/18 Q1016

2010/08/08 01:50
LIPZ 080150Z 03006KT CAVOK 20/18 Q1016

2010/08/08 01:45
MMDO 080145Z 18010KT 12SM SCT030CB BKN080 BKN200 23/14 A3012 RMK 8/964 FQT LTGICCG SHRA SE

2010/08/08 01:47
MMGM 080147Z 02006KT 10SM FEW025CB SCT200 32/24 A2977 RMK 8/407 HZY CB N NE

2010/08/08 01:45
MMHO 080145Z 20010KT 10SM SCT040 BKN200 36/19 A2975 RMK 8/408 CB N E

2010/08/08 01:49
MMML 080149Z 18012KT 10SM SKC 35/20 A2962 RMK HZY

2010/08/08 01:50
MMMZ 080150Z 19003KT 12SM FEW045 SCT080 BKN220 28/24 A2984 RMK 8/463 DSNT CB NE-E

2010/08/08 01:45
MMTJ 080145Z 30009KT 7SM SKC 18/13 A2989 RMK HZY ST W

2010/08/08 01:50
LGAL 080150Z 03004KT CAVOK 22/19 Q1010

2010/08/08 01:50
LGEL 080150Z 33008KT CAVOK 26/15 Q1009

2010/08/08 01:50
LGKV 080150Z 00000KT CAVOK 21/19 Q1010

2010/08/08 01:50
LGMT 080150Z 24004KT CAVOK 26/19 Q1010

2010/08/08 01:50
LGPZ 080150Z 00000KT CAVOK 21/18 Q1013 NOSIG

2010/08/08 01:50
LGRX 080150Z 00000KT CAVOK 20/18 Q1012 NOSIG

2010/08/08 01:50
LGSR 080150Z 25008KT 9999 SCT018 25/21 Q1008 NOSIG

2010/08/08 01:50
LGZA 080150Z 00000KT CAVOK 19/14 Q1012

2010/08/08 02:00
SBMN 080200Z 30005KT CAVOK 29/23 Q1014

2010/08/08 01:45
LIPH 080145Z 00000KT CAVOK 20/19 Q1017

2010/08/08 01:50
EGDL 080150Z 31005KT 9999 FEW013 BKN034 13/11 Q1019 TEMPO SCT012

2010/08/08 01:56
KCHS 080156Z 26003KT 9SM FEW043 27/23 A2991 RMK AO2 SLP129 T02670233 

2010/08/08 01:46
MMLO 080146Z 00000KT 2SM TSRA OVC015CB 16/16 A3019 RMK 65505 8/9// CB/LTGC OVHD

2010/08/08 01:49
MMSP 080149Z 06004KT 12SM FEW020 BKN080 OVC210 22/13 A3015 RMK 8/477 CB SW OCNL LTG

2010/08/08 01:45
MMZO 080145Z 00000KT 15SM FEW015 FEW260 29/24 A2980 RMK 8/101 TCU N

2010/08/08 01:50
LGAD 080150Z 00000KT CAVOK 20/19 Q1013

2010/08/08 01:50
LGAV 080150Z 28002KT CAVOK 22/17 Q1010 NOSIG

2010/08/08 01:50
LGIR 080150Z 19004KT CAVOK 23/19 Q1011 NOSIG

2010/08/08 01:50
LGKO 080150Z 30006KT 9999 FEW010 24/22 Q1009

2010/08/08 01:50
LGKR 080150Z 00000KT CAVOK 20/17 Q1012 NOSIG

2010/08/08 01:50
LGLM 080150Z 00000KT 9999 FEW015 22/20 Q1009

2010/08/08 01:50
LGRP 080150Z 26012KT 9000 FEW010 26/24 Q1008

2010/08/08 01:50
LGSA 080150Z 28015KT CAVOK 24/17 Q1010

2010/08/08 01:50
LGTS 080150Z 00000KT 9999 FEW015 23/20 Q1011 NOSIG

2010/08/08 01:50
LCRA 080150Z 30003KT CAVOK 23/11 Q1007 NOSIG

2010/08/08 02:00
GLRB 080200Z 22006KT 9999 SCT014 26/24 Q1014 NOSIG

2010/08/08 01:50
LGHI 080150Z 00000KT CAVOK 22/19 Q1010

2010/08/08 02:00
SBRF 080200Z 24006KT 9999 SCT020 21/19 Q1018

2010/08/08 02:00
SBEG 080200Z 00000KT CAVOK 25/23 Q1014

2010/08/08 02:00
SBGL 080200Z 13004KT CAVOK 17/14 Q1019

2010/08/08 01:50
EGYP 080150Z 30010KT CAVOK 04/M03 Q1003 BLU

2010/08/08 01:45
LIRA 080145Z 07002KT CAVOK 19/15 Q1017

2010/08/08 02:00
LEMO 080200Z VRB01KT CAVOK 27/14 Q1016 NOSIG

2010/08/08 01:50
EFET 080150Z AUTO 35002KT CAVOK 11/11 Q1018

2010/08/08 01:50
EFIV 080150Z AUTO 22003KT CAVOK 13/12 Q1018

2010/08/08 01:50
EFKE 080150Z AUTO 01003KT CAVOK 17/16 Q1016

2010/08/08 01:50
EFKI 080150Z AUTO 11006KT 9999 -SHRA FEW053 BKN107 19/17 Q1016

2010/08/08 01:50
EFKS 080150Z AUTO 08002KT 9999 OVC007 16/15 Q1018

2010/08/08 01:50
EFKT 080150Z AUTO 29002KT CAVOK 10/09 Q1018

2010/08/08 01:56
TJSJ 080156Z 08010KT 10SM SCT026 28/23 A3000 RMK AO2 SLP158 T02830233 

2010/08/08 01:50
EGVN 080150Z 33007KT 9999 BKN034 15/12 Q1019 NOSIG

2010/08/08 02:00
SBCF 080200Z 16001KT CAVOK 15/09 Q1023

2010/08/08 01:50
EGDL 080150Z 31005KT 9999 FEW013 BKN034 13/11 Q1019 BLU TEMPO SCT012 GRN

2010/08/08 01:50
EGDR 080150Z 01006KT 9999 MIFG FEW050 13/12 Q1021 BLU

2010/08/08 01:50
EGQL 080150Z 13007KT 9999 SCT023 BKN050 14/12 Q1019 WHT

2010/08/08 01:50
EGQS 080150Z 27004KT 9999 FEW022 BKN045 12/10 Q1019 BLU

2010/08/08 01:50
EGVN 080150Z 33007KT 9999 BKN034 15/12 Q1019 BLU NOSIG

2010/08/08 01:50
EGXC 080150Z 33008KT 9999 FEW012 BKN028 14/13 Q1018 BLU

2010/08/08 01:50
EGXW 080150Z 33008KT 8000 BR SCT012 BKN028 13/13 Q1019 GRN

2010/08/08 01:55
KANJ 080155Z AUTO 16003KT 10SM SCT047 BKN080 OVC095 19/15 A2981 RMK AO2 SLP091 T01940150 

2010/08/08 01:56
KSHV 080156Z 00000KT 10SM FEW080 SCT170 BKN290 28/24 A2984 RMK AO2 SLP101 T02830244 

2010/08/08 01:56
KSDF 080156Z 08004KT 10SM CLR 27/14 A2995 RMK AO2 SLP136 T02720139 $ 

2010/08/08 01:55
KPHP 080155Z AUTO 00000KT 10SM CLR 28/17 A2972 RMK AO2 SLP039 T02780172 TSNO 

2010/08/08 01:56
KABQ 080156Z 31007KT 10SM FEW065 SCT100 SCT200 27/11 A3004 RMK AO2 SLP079 OCNL LTGCG DSNT SE SHRA DSNT SE CB DSNT SE AND NW-N T02670106 

2010/08/08 01:55
KHON 080155Z AUTO 25003KT 10SM CLR 29/22 A2962 RMK AO2 SLP017 T02940217 TSNO 

2010/08/08 01:55
CYVM 080155Z AUTO 04002KT 1/2SM OVC001 04/04 A2992

2010/08/08 01:56
KJAX 080156Z 00000KT 10SM FEW005 SCT032 OVC150 24/23 A2992 RMK AO2 RAE17 SLP132 P0001 T02440233 

2010/08/08 01:55
KAAT 080155Z AUTO 33011KT 10SM CLR 28/04 A2986 RMK AO2 SLP069 T02830039 TSNO 

2010/08/08 02:00
SBGL 080200Z 13004KT CAVOK 17/14 Q1019

2010/08/08 02:00
FAVV 080200Z AUTO 33004KT //// // ////// 04/M00 Q1024

2010/08/08 02:00
FAJB 080200Z AUTO 00000KT //// // ////// 06/01 Q1027

2010/08/08 02:00
FASI 080200Z AUTO 00000KT //// // ////// 04/M00 Q1027

2010/08/08 02:00
FAGC 080200Z AUTO 07005KT //// // ////// 08/M00 Q1027

2010/08/08 01:55
KGTB 080155Z AUTO 18004KT 10SM CLR 15/12 A2997 RMK AO2 SLP151 T01530121

2010/08/08 01:54
KNFG 080154Z AUTO VRB04KT 10SM CLR 17/13 A2986 RMK AO2 SLP110 T01720128 TSNO $

2010/08/08 01:52
KNHK 080152Z AUTO 00000KT 10SM CLR 22/17 A2997 RMK AO2 SLP149 T02170172

2010/08/08 01:53
KNIP 080153Z 25007KT 10SM SCT030 OVC150 25/24 A2993 RMK AO2 RAB0054E20 SLP130 T2 SET P0000 T02500239

2010/08/08 01:53
KNQX 080153Z 00000KT 10SM SCT025 SCT041 31/26 A2997 RMK AO2 SLP146 T03060256 $

2010/08/08 01:55
KPAM 080155Z AUTO 11007KT 9SM -TSRA FEW002 BKN022 OVC036 26/24 A2992 RMK AO2 RAB0131 TSB0132 SLP132 P0028 T02560237 $

2010/08/08 01:55
KPOB 080155Z AUTO 00000KT 10SM SCT041 26/24 A2995 RMK AO2 SLP142 T02640242 $

2010/08/08 01:55
KRCA 080155Z AUTO 01007KT 10SM FEW170 30/10 A2981 RMK AO2 SLP063 T02970102 $

2010/08/08 01:55
KSKA 080155Z AUTO 29015KT 10SM SCT170 25/07 A2977 RMK AO2 SLP069 T02530072

2010/08/08 01:55
KSLI 080155Z AUTO 17008KT 10SM CLR 18/14 A2985 RMK AO2 SLP109 T01800137

2010/08/08 01:55
KSSC 080155Z 00000KT 10SM CLR 28/24 A2992 RMK AO2A RAE0102DZB0120E0129 SLP131 P0000 T02750244 $

2010/08/08 01:55
KTIK 080155Z 14005KT 10SM CLR 30/23 A2984 RMK AO2A SLP089 T03000232

2010/08/08 01:55
KTTS 080155Z 20003KT 10SM FEW080 BKN170 OVC200 27/26 A2995 RMK SLP142 1AC 5AC 2CS /8/

2010/08/08 01:55
KVOK 080155Z 16005KT 10SM SCT033 24/22 A2981 RMK AO2A SLP089 T02390217 $

2010/08/08 01:55
KWRI 080155Z AUTO 24004KT 10SM CLR 23/18 A2997 RMK AO2 RAB0103E0118 SLP148 P0000 T02300180 $

2010/08/08 01:54
KBOS 080154Z 29003KT 10SM FEW065 SCT250 24/06 A3000 RMK AO2 SLP157 T02390061

2010/08/08 01:53
KDAB 080153Z 00000KT 10SM -RA BKN030 BKN140 OVC200 26/24 A2993 RMK AO2 RAB21E29B53 SLP135 PCPN VRY LGT P0000 T02610244

2010/08/08 01:55
KDOV 080155Z AUTO 15005KT 10SM BKN090 24/21 A2997 RMK AO2 SLP151 T02370215

2010/08/08 01:55
KLFI 080155Z 12005KT 10SM CLR 25/22 A2998 RMK AO2A SLP152 T02500222

2010/08/08 01:55
KMCF 080155Z AUTO 24004KT 10SM CLR 29/26 A2994 RMK AO2 SLP141 T02910262

2010/08/08 01:52
KNHK 080152Z AUTO 00000KT 10SM CLR 22/17 A2997 RMK AO2 SLP149 T02170172

2010/08/08 01:53
KNIP 080153Z 25007KT 10SM SCT030 OVC150 25/24 A2993 RMK AO2 RAB0054E20 SLP130 T2 SET P0000 T02500239

2010/08/08 01:53
KNQX 080153Z 00000KT 10SM SCT025 SCT041 31/26 A2997 RMK AO2 SLP146 T03060256 $

2010/08/08 01:55
KPAM 080155Z AUTO 11007KT 9SM -TSRA FEW002 BKN022 OVC036 26/24 A2992 RMK AO2 RAB0131 TSB0132 SLP132 P0028 T02560237 $

2010/08/08 01:54
KPHL 080154Z 00000KT 10SM FEW250 26/17 A2998 RMK AO2 SLP151 T02560167 $

2010/08/08 01:55
KPOB 080155Z AUTO 00000KT 10SM SCT041 26/24 A2995 RMK AO2 SLP142 T02640242 $

2010/08/08 01:53
KSAV 080153Z 25003KT 10SM FEW030 SCT070 27/24 A2992 RMK AO2 SLP132 T02720244

2010/08/08 01:55
KSSC 080155Z 00000KT 10SM CLR 28/24 A2992 RMK AO2A RAE0102DZB0120E0129 SLP131 P0000 T02750244 $

2010/08/08 01:54
KSYR 080154Z 00000KT 10SM SCT250 17/13 A2998 RMK AO2 SLP149 T01670133

2010/08/08 01:55
KVPS 080155Z 02002KT 10SM FEW180 BKN250 25/24 A2991 RMK AO2A SLP128 T02490241 $

2010/08/08 01:55
KWRI 080155Z AUTO 24004KT 10SM CLR 23/18 A2997 RMK AO2 RAB0103E0118 SLP148 P0000 T02300180 $

2010/08/08 01:55
CYRV 080155Z AUTO 31007KT 8SM FEW019 OVC064 20/17 A2975

2010/08/08 01:45
LIRA 080145Z 07002KT CAVOK 19/15 Q1017

2010/08/08 01:55
EHDL 080155Z AUTO 22001KT 0300NDV FG OVC000 15/15 Q1015 RED

2010/08/08 01:55
EHEH 080155Z AUTO 26004KT 6000NDV BR BKN025 OVC031 17/16 Q1015 WHT

2010/08/08 01:55
EHGR 080155Z AUTO 23003KT 8000NDV BR NCD 15/14 Q1015 BLU

2010/08/08 01:55
EHLW 080155Z AUTO 09001KT 2400NDV +DZ SCT004 BKN006 FEW015TCU OVC021 17/16 Q1014 YLO

2010/08/08 01:55
EHVK 080155Z AUTO 25002KT 0600NDV R24R/0200V0550U FG SCT000 SCT023 BKN044 16/16 Q1015 RED

2010/08/08 01:55
EHWO 080155Z AUTO 21004KT 9999NDV FEW017 SCT061 OVC110 15/14 Q1015 BLU

2010/08/08 02:00
MHCA 080200Z 05004KT 9999 SCT028TCU 26/23 TCU TD

2010/08/08 02:00
MHSR 080200Z 00000KT 4000 BR SCT009 SCT020CB BKN250 20/20 4KM TD CL BR CB LTNG SW

2010/08/08 02:00
SBEG 080200Z 00000KT CAVOK 25/23 Q1014

2010/08/08 02:00
SBFI 080200Z 13008KT CAVOK 14/11 Q1016

2010/08/08 02:00
SBMN 080200Z 30005KT CAVOK 29/23 Q1014

2010/08/08 02:00
SBRB 080200Z 00000KT 5000 FU NSC 25/16 Q1014

2010/08/08 02:00
SBSJ 080200Z 00000KT CAVOK 14/11 Q1021

2010/08/08 02:00
SBSL 080200Z 06009KT CAVOK 26/24 Q1015

2010/08/08 02:00
SGAS 080200Z 18007KT 9000 NSC 16/10 Q1014

2010/08/08 02:00
SGES 080200Z 08006KT CAVOK 16/13 Q1016

2010/08/08 02:00
SPIM 080200Z 17010KT 8000 OVC015 15/12 Q1016 NOSIG RMK PP000

2010/08/08 02:00
SVBC 080200Z 18001KT 9999 -TS BKN010CB/S 24/22 Q1014

2010/08/08 02:00
SVMI 080200Z 00000KT 9999 FEW016 28/24 Q1013 NOSIG

2010/08/08 01:50
EGAA 080150Z 00000KT 2100 BR SKC 07/06 Q1021

2010/08/08 01:50
EGBB 080150Z AUTO 30007KT 8000NDV FEW010/// BKN019/// 15/13 Q1019

2010/08/08 01:50
EGCC 080150Z AUTO 30003KT 7000NDV FEW033/// 14/13 Q1020

2010/08/08 01:50
EGDL 080150Z 31005KT 9999 FEW013 BKN034 13/11 Q1019 TEMPO SCT012

2010/08/08 01:50
EGDR 080150Z 01006KT 9999 MIFG FEW050 13/12 Q1021 BLU

2010/08/08 01:50
EGGD 080150Z 32004KT 9999 FEW028 12/10 Q1020

2010/08/08 01:50
EGGP 080150Z 29011KT 9999 SCT011 BKN016 16/13 Q1020

2010/08/08 01:50
EGGW 080150Z 32008KT 9999 BKN010 15/13 Q1018

2010/08/08 01:50
EGKK 080150Z VRB03KT CAVOK 14/12 Q1018

2010/08/08 01:50
EGLC 080150Z AUTO 31006KT 9999NDV NCD 15/13 Q1018

2010/08/08 01:50
EGMC 080150Z 31006KT 9999 FEW040 15/13 Q1017

2010/08/08 01:50
EGNM 080150Z 35003KT CAVOK 12/10 Q1020

2010/08/08 01:50
EGNT 080150Z 31002KT 9999 FEW045 12/11 Q1020

2010/08/08 01:50
EGNX 080150Z 33004KT 9999 FEW022 13/11 Q1019

2010/08/08 01:50
EGPB 080150Z AUTO 28011KT 9999NDV FEW011/// BKN021/// 12/10 Q1017

2010/08/08 01:50
EGPD 080150Z 31003KT 9999 SCT041 10/09 Q1020

2010/08/08 01:50
EGPF 080150Z AUTO 24005KT 9999 SCT016/// 10/09 Q1019

2010/08/08 01:50
EGPH 080150Z AUTO 00000KT 9999 FEW014/// OVC022/// 15/12 Q1019

2010/08/08 01:50
EGPK 080150Z 00000KT 9999 FEW035 11/10 Q1020

2010/08/08 01:50
EGQS 080150Z 27004KT 9999 FEW022 BKN045 12/10 Q1019 BLU

2010/08/08 01:50
EGSS 080150Z AUTO 32007KT 9999NDV OVC006/// 14/13 Q1018

2010/08/08 01:55
EGUL 080155Z AUTO 33003KT 9999 SCT035 SCT050 15/14 A3004 RMK AO2 SLP173 T01500142

2010/08/08 01:55
EGUN 080155Z AUTO 33004KT 9999 FEW035 OVC050 14/14 A3005 RMK AO2 RAB0104E0113 SLP164 P0000 T01450145

2010/08/08 01:50
EGVN 080150Z 33007KT 9999 BKN034 15/12 Q1019 NOSIG

2010/08/08 01:50
EGXC 080150Z 33008KT 9999 FEW012 BKN028 14/13 Q1018 BLU

2010/08/08 01:50
EGXW 080150Z 33008KT 8000 BR SCT012 BKN028 13/13 Q1019 GRN

2010/08/08 01:50
EFKI 080150Z AUTO 11006KT 9999 -SHRA FEW053 BKN107 19/17 Q1016

2010/08/08 01:55
KBAB 080155Z AUTO 18011KT 10SM CLR 31/15 A2968 RMK AO2 SLP052 T03090149 $

2010/08/08 01:55
KFAF 080155Z AUTO 10003KT 10SM CLR 26/20 A2997 RMK AO2 SLP151 T02590200 $

2010/08/08 01:55
KFMH 080155Z AUTO 19005KT 10SM CLR 18/16 A3003 RMK AO2

2010/08/08 01:55
KFRI 080155Z AUTO 15009KT 10SM CLR 30/22 A2979 RMK AO2 SLP075 T03040215

2010/08/08 01:55
KFSI 080155Z AUTO 17007KT 10SM CLR 33/21 A2981 RMK AO2 SLP072 T03290214

2010/08/08 01:55
KLFI 080155Z 12005KT 10SM CLR 25/22 A2998 RMK AO2A SLP152 T02500222

2010/08/08 01:55
KLTS 080155Z AUTO 14008KT 10SM CLR 32/22 A2982 RMK AO2 SLP077 T03190224 $

2010/08/08 01:55
KMCF 080155Z AUTO 24004KT 10SM CLR 29/26 A2994 RMK AO2 SLP141 T02910262

2010/08/08 01:55
KPAM 080155Z AUTO 11007KT 9SM -TSRA FEW002 BKN022 OVC036 26/24 A2992 RMK AO2 RAB0131 TSB0132 SLP132 P0028 T02560237 $

2010/08/08 01:55
KRCA 080155Z AUTO 01007KT 10SM FEW170 30/10 A2981 RMK AO2 SLP063 T02970102 $

2010/08/08 01:55
KSKA 080155Z AUTO 29015KT 10SM SCT170 25/07 A2977 RMK AO2 SLP069 T02530072

2010/08/08 01:55
KTTS 080155Z 20003KT 10SM FEW080 BKN170 OVC200 27/26 A2995 RMK SLP142 1AC 5AC 2CS /8/

2010/08/08 01:55
KVPS 080155Z 02002KT 10SM FEW180 BKN250 25/24 A2991 RMK AO2A SLP128 T02490241 $

2010/08/08 01:55
MHSC 080155Z AUTO 12003KT 9999 FEW065 23/22 A2999 RMK AO2 RAE0102DZB0102E0106 CLDS LWR RWY17 SLP120 P0000 T02260221 $

2010/08/08 01:55
PAED 080155Z AUTO 19011KT 10SM -RA BKN009 BKN013 OVC040 13/11 A2975 RMK AO2 CIG 007V011 BKN013 V OVC SLP074 P0003 T01250110

2010/08/08 01:46
MMCP 080146Z 00000KT 7SM FEW030 OVC100 26/24 A2982 RMK 8/230

2010/08/08 01:45
MMDO 080145Z 18010KT 12SM SCT030CB BKN080 BKN200 23/14 A3012 RMK 8/964 FQT LTGICCG SHRA SE

2010/08/08 01:47
MMGM 080147Z 02006KT 10SM FEW025CB SCT200 32/24 A2977 RMK 8/407 HZY CB N NE

2010/08/08 01:45
MMHO 080145Z 20010KT 10SM SCT040 BKN200 36/19 A2975 RMK 8/408 CB N E

2010/08/08 01:46
MMLO 080146Z 00000KT 2SM TSRA OVC015CB 16/16 A3019 RMK 65505 8/9// CB/LTGC OVHD

2010/08/08 01:52
MMMD 080152Z 07004KT 7SM FEW010 BKN070 OVC300 26/24 A2988 RMK 8/463 -RAE25

2010/08/08 01:49
MMML 080149Z 18012KT 10SM SKC 35/20 A2962 RMK HZY

2010/08/08 01:50
MMMZ 080150Z 19003KT 12SM FEW045 SCT080 BKN220 28/24 A2984 RMK 8/463 DSNT CB NE-E

2010/08/08 01:45
MMTJ 080145Z 30009KT 7SM SKC 18/13 A2989 RMK HZY ST W

2010/08/08 01:51
MMVA 080151Z 12006KT 5SM FEW010 BKN040 OVC080 27/25 A2983 RMK 60215 8/72/ +RAE20 VRBL CONDS

2010/08/08 01:55
PAED 080155Z AUTO 19011KT 10SM -RA BKN009 BKN013 OVC040 13/11 A2975 RMK AO2 CIG 007V011 BKN013 V OVC SLP074 P0003 T01250110

2010/08/08 01:55
PAEI 080155Z AUTO 00000KT 10SM BKN080 19/09 A2964 RMK AO2 CIG 065 RWY14 SLP039 T01860094 $

2010/08/08 01:55
PGUA 080155Z AUTO 07012G17KT 10SM BKN017 BKN023 BKN055 28/25 A2986 RMK AO2 SLP092 T02830251 VISNO RWY24L $

2010/08/08 01:55
PHHI 080155Z AUTO 10010KT 10SM -DZ SCT032 BKN045 27/19 A3005 RMK AO2 DZB0149 SLP164 P0000 T02740189 $

2010/08/08 01:53
PTKK 080153Z 13008KT 15SM SCT014CB BKN120 OVC280 31/26 A2978 RMK CB ALQDS MOV NW SLP084 T03110256

2010/08/08 01:54
PWAK 080154Z 13010KT 8SM HZ FEW032 30/24 A2992 RMK AO2A

2010/08/08 02:00
SVMI 080200Z 00000KT 9999 FEW016 28/24 Q1013 NOSIG

2010/08/08 01:55
KQAD 080155Z AUTO RMK AO2 SLPNO $

2010/08/08 01:55
KQAR 080155Z AUTO 00000KT 9SM CLR 29/01 A2960 RMK AO2 SLP968 T02870009 $

2010/08/08 01:55
KQBL 080155Z AUTO 36002KT 9SM -RA CLR 26/24 A2993 RMK AO2 LTG DSNT N RAB0143 SLP135 T02560244

2010/08/08 01:55
KQC3 080155Z AUTO 06005KT 9999 SCT090 BKN100 18/17 A3007 RMK AO2 SLP104 T01800167 PNO $

2010/08/08 01:55
KQDD 080155Z AUTO VRB02KT 9999 CLR 23/13 A2998 RMK AO2 SLP151

2010/08/08 01:55
KQDX 080155Z AUTO 19004KT 9000 31/12 A2966 RMK AO2 SLP964 T03130120 $

2010/08/08 01:55
KQGX 080155Z 13005KT 9000 HZ FEW250 30/26 A2951 RMK AO2A SLP993 T03030263 $

2010/08/08 01:55
KQHT 080155Z 22002KT 9999 FEW150 24/07 A2983 RMK AO2A SLP061

2010/08/08 01:55
KQIR 080155Z 00000KT 9999 BKN190 29/19 A2950 RMK AO2A SLP987 T02920185

2010/08/08 01:55
KQLD 080155Z AUTO 31001KT 9999 FEW009 BKN100 16/15 A3019 RMK AO2 SLP130 T01640146

2010/08/08 01:55
KQMG 080155Z AUTO 27011G14KT 10SM FEW100 33/09 A2994 RMK AO2 SLP050 T03290091

2010/08/08 01:55
KQTI 080155Z AUTO 32012KT 9999 FEW240 32/M01 A2970 RMK AO2 SLP030 T03241008

2010/08/08 01:55
KQWM 080155Z 28008KT 6000 DU FEW150 32/04 A2952 RMK SLP984 QNH999

2010/08/08 01:48
KIWA 080148Z 24004KT 45SM FEW080 SCT120 BKN200 37/13 A2978

2010/08/08 01:56
CYUA 080156Z AUTO 01014KT 1 3/4SM -RA BKN005 BKN011 09/ A2967

2010/08/08 01:56
KCAE 080156Z 00000KT 7SM CLR 28/24 A2994 RMK AO2 SLP134 T02780244 

2010/08/08 01:55
KCAO 080155Z AUTO 17011KT 10SM CLR 29/14 A2997 RMK AO2 SLP068 T02940139 TSNO 

2010/08/08 01:50
EBAW 080150Z AUTO 26006KT CAVOK 16/14 Q1016

2010/08/08 01:50
EBBR 080150Z 26003KT 230V290 9999 BKN047 16/14 Q1016 NOSIG

2010/08/08 01:50
EBCI 080150Z 26005KT 9999 FEW011 SCT033 14/12 Q1016 NOSIG

2010/08/08 01:50
EBLG 080150Z 31003KT 280V350 9999 BKN033 15/14 Q1016 TEMPO 5000 -SHRA BR BKN012

2010/08/08 01:50
EBOS 080150Z 23005KT 8000 FEW009 SCT014 16/13 Q1016 TEMPO BKN009

2010/08/08 01:50
EDFH 080150Z 34004KT 280V040 CAVOK 17/10 Q1016

2010/08/08 01:50
EDQM 080150Z AUTO 19003KT 9999NDV BKN059/// 12/09 Q1017

2010/08/08 01:50
EDXW 080150Z AUTO 22004KT 9999NDV SCT009/// BKN038/// 17/15 Q1015

2010/08/08 01:55
EHBK 080155Z AUTO 27005KT 230V320 5000NDV FEW003 BKN004 BKN006 17/16 Q1015

2010/08/08 01:55
EHEH 080155Z AUTO 26004KT 6000NDV BR BKN025 OVC031 17/16 Q1015 WHT

2010/08/08 01:55
EHGG 080155Z AUTO VRB02KT 4200NDV -RA FEW009 SCT016 OVC023 16/15 Q1015

2010/08/08 01:55
EHRD 080155Z VRB02KT 9999 MIFG FEW011 SCT018 15/15 Q1015 TEMPO 7000 -SHRA FEW015CB

2010/08/08 01:50
EKRK 080150Z AUTO 31006KT 9999NDV BKN160/// 17/17 Q1013

2010/08/08 01:50
EKRN 080150Z AUTO 31006KT 9999NDV DZ OVC041/// 18/17 Q1012

2010/08/08 01:50
ELLX 080150Z AUTO VRB04KT 9999 NDV 17/12 Q1016

2010/08/08 01:55
ETAD 080155Z AUTO 00000KT 9999 BKN055 OVC080 15/13 A3000 RMK AO2 RAB0115E0146 SLP148 P0000 T01540127 $

2010/08/08 01:55
ETAR 080155Z AUTO 00000KT 9999 -RA BKN037 BKN060 OVC100 16/15 A3001 RMK AO2 RAB0114 SLP156 P0001 T01620148 $

2010/08/08 01:55
ETEB 080155Z AUTO 21003KT 9999 FEW130 SCT170 12/09 A3007 RMK AO2 SLP172 T01200089

2010/08/08 01:56
ETIC 080156Z AUTO 00000KT 0400 FG CLR 09/09 A3005 RMK AO2 SLP172 T00900090

2010/08/08 01:55
ETOU 080155Z AUTO 08003KT 9999 SCT070 OVC090 18/13 A3000 RMK AO2 SLP156 T01760130

2010/08/08 01:50
EFET 080150Z AUTO 35002KT CAVOK 11/11 Q1018

2010/08/08 01:50
EFIV 080150Z AUTO 22003KT CAVOK 13/12 Q1018

2010/08/08 01:50
EFKE 080150Z AUTO 01003KT CAVOK 17/16 Q1016

2010/08/08 01:50
EFKI 080150Z AUTO 11006KT 9999 -SHRA FEW053 BKN107 19/17 Q1016

2010/08/08 01:50
EFKS 080150Z AUTO 08002KT 9999 OVC007 16/15 Q1018

2010/08/08 01:50
EFKT 080150Z AUTO 29002KT CAVOK 10/09 Q1018

2010/08/08 01:55
EHAM 080155Z VRB02KT 7000 FEW025 SCT035 16/15 Q1015 TEMPO 3500 FEW015

2010/08/08 01:55
EHBK 080155Z AUTO 27005KT 230V320 5000NDV FEW003 BKN004 BKN006 17/16 Q1015

2010/08/08 01:55
EHGG 080155Z AUTO VRB02KT 4200NDV -RA FEW009 SCT016 OVC023 16/15 Q1015

2010/08/08 01:55
EHRD 080155Z VRB02KT 9999 MIFG FEW011 SCT018 15/15 Q1015 TEMPO 7000 -SHRA FEW015CB

2010/08/08 02:00
GLRB 080200Z 22006KT 9999 SCT014 26/24 Q1014 NOSIG

2010/08/08 01:50
LSMA 080150Z AUTO VRB02KT 9999NDV FEW100 13/12 Q1019 RMK BLU

2010/08/08 01:50
LSMM 080150Z AUTO 10003KT 040V130 8000NDV FEW096 SCT110 10/09 Q1020 RMK BLU

2010/08/08 01:56
KABH 080156Z AUTO 21007KT 10SM CLR 21/13 A3003 RMK AO2 TSE33RAE0057 SLP091 T02110128 $ 

2010/08/08 01:56
KNUQ 080156Z 34011KT 10SM CLR 19/13 A2981 RMK AO2 SLP097 T01890133 

2010/08/08 01:56
KGNA 080156Z AUTO 03003KT 18/14 A2974 RMK AO2 SLP066 T01830139 PWINO TSNO 

2010/08/08 01:56
KNQI 080156Z AUTO 13011KT 10SM CLR 30/24 A2985 RMK AO2 SLP105 T03000239 

2010/08/08 01:56
K8D3 080156Z AUTO 24004KT 27/23 A2960 RMK AO2 SLP005 T02670233 PWINO TSNO 

2010/08/08 01:56
KNPA 080156Z AUTO 00000KT 10SM CLR 27/23 A2990 RMK AO2 TSE31 SLP126 T02670233 

2010/08/08 01:55
KADW 080155Z AUTO 16005KT 10SM CLR 21/17 A2998 RMK AO2 SLP153 T02130175 $

2010/08/08 01:55
KBAB 080155Z AUTO 18011KT 10SM CLR 31/15 A2968 RMK AO2 SLP052 T03090149 $

2010/08/08 01:55
KCOF 080155Z 20004KT 10SM CLR 27/24 A2995 RMK AO2A SLP144 T02690244

2010/08/08 01:55
KCVS 080155Z AUTO 15007KT 10SM CLR 26/17 A2995 RMK AO2 SLP094 T02600171 $

2010/08/08 01:55
KEND 080155Z AUTO 13009KT 10SM CLR 32/21 A2981 RMK AO2 SLP076 T03200212 $

2010/08/08 01:55
KFAF 080155Z AUTO 10003KT 10SM CLR 26/20 A2997 RMK AO2 SLP151 T02590200 $

2010/08/08 01:55
KFCS 080155Z AUTO 24005KT 10SM CLR 22/13 A3002 RMK AO2 SLP075 T02200132

2010/08/08 01:55
KFMH 080155Z AUTO 19005KT 10SM CLR 18/16 A3003 RMK AO2

2010/08/08 01:55
KFRI 080155Z AUTO 15009KT 10SM CLR 30/22 A2979 RMK AO2 SLP075 T03040215

2010/08/08 01:55
KFSI 080155Z AUTO 17007KT 10SM CLR 33/21 A2981 RMK AO2 SLP072 T03290214

2010/08/08 01:55
KFTK 080155Z AUTO 09004KT 10SM CLR 25/17 A2997 RMK AO2 SLP142 T02540173 $

2010/08/08 01:55
KHFF 080155Z AUTO 00000KT 10SM FEW041 27/22 A2998 RMK AO2 SLP147 T02670215 $

2010/08/08 01:55
KLFI 080155Z 12005KT 10SM CLR 25/22 A2998 RMK AO2A SLP152 T02500222

2010/08/08 01:55
KLTS 080155Z AUTO 14008KT 10SM CLR 32/22 A2982 RMK AO2 SLP077 T03190224 $

2010/08/08 01:55
KMCF 080155Z AUTO 24004KT 10SM CLR 29/26 A2994 RMK AO2 SLP141 T02910262

2010/08/08 01:55
KMIB 080155Z AUTO 12004KT 10SM CLR 25/19 A2964 RMK AO2 SLP030 T02540193

2010/08/08 01:50
EGDL 080150Z 31005KT 9999 FEW013 BKN034 13/11 Q1019 BLU TEMPO SCT012 GRN

2010/08/08 01:50
EGDR 080150Z 01006KT 9999 MIFG FEW050 13/12 Q1021 BLU

2010/08/08 01:50
EGQL 080150Z 13007KT 9999 SCT023 BKN050 14/12 Q1019 WHT

2010/08/08 01:50
EGQS 080150Z 27004KT 9999 FEW022 BKN045 12/10 Q1019 BLU

2010/08/08 01:55
EGUL 080155Z AUTO 33003KT 9999 SCT035 SCT050 15/14 A3004 RMK AO2 SLP173 T01500142

2010/08/08 01:50
EGVN 080150Z 33007KT 9999 BKN034 15/12 Q1019 BLU NOSIG

2010/08/08 01:50
EGXC 080150Z 33008KT 9999 FEW012 BKN028 14/13 Q1018 BLU

2010/08/08 01:50
EGXW 080150Z 33008KT 8000 BR SCT012 BKN028 13/13 Q1019 GRN

2010/08/08 01:55
EHAM 080155Z VRB02KT 7000 FEW025 SCT035 16/15 Q1015 TEMPO 3500 FEW015

2010/08/08 01:55
EHBK 080155Z AUTO 27005KT 230V320 5000NDV FEW003 BKN004 BKN006 17/16 Q1015

2010/08/08 01:55
EHDL 080155Z AUTO 22001KT 0300NDV FG OVC000 15/15 Q1015 RED

2010/08/08 01:55
EHGG 080155Z AUTO VRB02KT 4200NDV -RA FEW009 SCT016 OVC023 16/15 Q1015

2010/08/08 01:55
EHGR 080155Z AUTO 23003KT 8000NDV BR NCD 15/14 Q1015 BLU

2010/08/08 01:55
EHRD 080155Z VRB02KT 9999 MIFG FEW011 SCT018 15/15 Q1015 TEMPO 7000 -SHRA FEW015CB

2010/08/08 01:56
ETIC 080156Z AUTO 00000KT 0400 FG CLR 09/09 A3005 RMK AO2 SLP172 T00900090

2010/08/08 01:55
ETOU 080155Z AUTO 08003KT 9999 SCT070 OVC090 18/13 A3000 RMK AO2 SLP156 T01760130

2010/08/08 02:00
LEMO 080200Z VRB01KT CAVOK 27/14 Q1016 NOSIG

2010/08/08 01:50
LGHI 080150Z 00000KT CAVOK 22/19 Q1010

2010/08/08 01:50
LGPZ 080150Z 00000KT CAVOK 21/18 Q1013 NOSIG

2010/08/08 01:45
LIRA 080145Z 07002KT CAVOK 19/15 Q1017

2010/08/08 01:56
K2WX 080156Z AUTO 32007KT 27/12 A2971 RMK AO1 SLP034 T02670122 

2010/08/08 01:56
KNBT 080156Z AUTO 08007KT 6SM HZ CLR 28/24 A2995 RMK AO2 SLP145 T02830244 TSNO 

2010/08/08 01:56
KNGP 080156Z AUTO 20008KT 160V230 10SM CLR 28/26 A2986 RMK AO2 SLP109 T02830256 VISNO $ 

2010/08/08 01:56
KHLR 080156Z AUTO 14007KT 10SM CLR 33/19 A2985 RMK AO2 SLP097 T03330194 $ 

2010/08/08 01:56
KNYG 080156Z AUTO 31006KT 10SM CLR 22/18 A2998 RMK AO2 SLP154 T02220183 $ 

2010/08/08 01:53
KPQN 080153Z AUTO 19007KT 10SM CLR 26/24 A2970 RMK AO2

2010/08/08 01:54
KFGN 080154Z AUTO 00000KT 10SM CLR 22/17 A2970 RMK AO2

2010/08/08 01:53
KPNM 080153Z AUTO 18007KT 10SM VCTS CLR 27/23 A2966 RMK AO2 LTG DSNT NW THRU NE

2010/08/08 01:53
KPWC 080153Z AUTO 15005KT 10SM BKN032 BKN039 BKN080 23/19 A2968 RMK AO2

2010/08/08 01:53
KFFM 080153Z AUTO 09004KT 10SM CLR 22/19 A2960 RMK AO2 LTG DSNT NE AND E

2010/08/08 01:52
KGDB 080152Z AUTO 16006KT 10SM CLR 26/23 A2966 RMK AO2 LTG DSNT NE T02600234

2010/08/08 01:53
KAIT 080153Z AUTO 00000KT 10SM VCTS SCT037 SCT044 23/19 A2967 RMK AO2 LTG DSNT SE THRU W

2010/08/08 01:53
KGHW 080153Z AUTO 18006KT 10SM CLR 27/23 A2968 RMK AO2 LTG DSNT NW THRU E

2010/08/08 01:53
KMWM 080153Z AUTO 17008KT 10SM CLR 26/22 A2971 RMK AO2 LTG DSNT N

2010/08/08 01:55
KULM 080155Z AUTO 19006KT 10SM SCT050 26/22 A2969 RMK AO2 LTG DSNT N

2010/08/08 01:53
KBBB 080153Z AUTO 20005KT 10SM BKN046 BKN050 28/24 A2968 RMK AO2 LTG DSNT NE AND E

2010/08/08 01:53
KTWM 080153Z AUTO 04003KT 10SM BKN018 BKN027 OVC075 18/13 A2972 RMK AO2 LTG DSNT NE AND NW

2010/08/08 01:55
KMGG 080155Z AUTO 18004KT 10SM VCTS SCT046 27/24 A2968 RMK AO2 LTG DSNT N AND NE T02700235

2010/08/08 01:48
KMOX 080148Z AUTO 14004KT 10SM BKN050 27/25 A2960 RMK AO2 LTG DSNT NE AND E

2010/08/08 01:56
KFPK 080156Z AUTO 20004KT 10SM CLR 21/17 A2993 RMK AO2

2010/08/08 01:55
KCVX 080155Z AUTO 18004KT 10SM CLR 22/15 A2983 RMK AO2

2010/08/08 01:54
KMOP 080154Z AUTO 21005KT 10SM SCT100 SCT120 23/18 A2988 RMK AO2

2010/08/08 01:54
KFKS 080154Z AUTO 19010G15KT 10SM BKN039 BKN045 OVC060 24/19 A2982 RMK AO2

2010/08/08 01:54
KCAD 080154Z AUTO 21007KT 10SM SCT036 BKN045 BKN060 22/20 A2987 RMK AO2

2010/08/08 01:55
KMGN 080155Z AUTO 00000KT 10SM SCT100 23/16 A2982 RMK AO2

2010/08/08 01:55
KSLH 080155Z AUTO 00000KT 10SM BKN100 18/17 A2982 RMK AO2

2010/08/08 01:55
KSJX 080155Z AUTO 20005KT 10SM CLR 22/18 A2980 RMK AO2

2010/08/08 01:55
KHAI 080155Z AUTO 00000KT 10SM CLR 21/18 A2994 RMK AO2

2010/08/08 01:56
KLWA 080156Z AUTO 17004KT 10SM CLR 22/18 A2992 RMK AO2

2010/08/08 01:57
KDRM 080157Z AUTO 16003KT 10SM BKN085 17/17 A2982 RMK AO2

2010/08/08 01:54
KVLL 080154Z AUTO 22004KT 10SM CLR 25/15 A2995 RMK AO2

2010/08/08 01:55
KGOV 080155Z AUTO 21004KT 10SM SCT043 SCT049 BKN060 22/15 A2988 RMK AO2

2010/08/08 01:54
KPZQ 080154Z AUTO 18003KT 10SM CLR 20/16 A2985 RMK AO2

2010/08/08 01:55
KCFS 080155Z AUTO 20003KT 10SM SCT048 BKN110 22/16 A2989 RMK AO2

2010/08/08 01:54
KHYX 080154Z AUTO 21007KT 10SM OVC090 23/14 A2989 RMK AO2

2010/08/08 01:55
KOZW 080155Z AUTO 20003KT 10SM CLR 22/16 A2993 RMK AO2

2010/08/08 01:55
KRNP 080155Z AUTO 23003KT 10SM SCT110 22/16 A2991 RMK AO2

2010/08/08 01:54
KDUH 080154Z AUTO 00000KT 10SM CLR 22/16 A2996 RMK AO2

2010/08/08 01:55
KISQ 080155Z AUTO 20005KT 10SM CLR 22/19 A2978 RMK AO2

2010/08/08 01:55
KJYM 080155Z AUTO 20003KT 7SM CLR 19/17 A2997 RMK AO2

2010/08/08 02:04
KBAX 080204Z AUTO 19004KT 10SM SCT050 SCT075 SCT100 21/17 A2989 RMK AO2

2010/08/08 01:55
KIRS 080155Z AUTO 21003KT 10SM CLR 22/18 A2995 RMK AO2

2010/08/08 01:55
KAMN 080155Z AUTO 21004KT 10SM SCT090 120 23/17 A2989 RMK AO2

2010/08/08 01:55
KACB 080155Z AUTO 18003KT 10SM BKN090 23/16 A2982 RMK AO2

2010/08/08 01:55
KRQB 080155Z AUTO 20003KT 10SM OVC110 23/18 A2988 RMK AO2

2010/08/08 01:55
KERY 080155Z AUTO 20005KT 10SM SCT095 20/18 A2980 RMK AO2

2010/08/08 01:55
KOEB 080155Z AUTO 21003KT 10SM SCT090 22/18 A2996 RMK AO2

2010/08/08 01:56
K4I3 080156Z AUTO 00000KT 10SM CLR 22/17 A3001 RMK AO2

2010/08/08 01:55
KAUM 080155Z AUTO 19007KT 10SM CLR 24/22 A2976 RMK AO2 LTG DSNT NW

2010/08/08 01:55
KFFX 080155Z AUTO 20006KT 10SM CLR 22/19 A2987 RMK AO2

2010/08/08 01:54
KCNB 080154Z AUTO 18004KT 10SM CLR 28/24 A2963 RMK AO2 LTG DSNT NE T02800240

2010/08/08 01:55
KCKN 080155Z AUTO 11003KT 10SM CLR 26/21 A2963 RMK AO2

2010/08/08 02:02
KCFE 080202Z AUTO 18007KT 10SM VCTS SCT060 28/23 A2968 RMK AO2 LTG DSNT N AND NE T02750231

2010/08/08 01:57
KCQM 080157Z AUTO 00000KT 10SM SCT060 21/16 A2972 RMK AO2 LTG DSNT S AND SW

2010/08/08 01:55
KDTL 080155Z AUTO 05003KT 10SM TS BKN035 BKN044 BKN070 25/19 A2966 RMK AO2 LTG DSNT E AND SE

2010/08/08 01:55
KBDH 080155Z AUTO 00000KT 10SM SCT040 27/23 A2967 RMK AO2 LTG DSNT NE

2010/08/08 01:55
KCBG 080155Z AUTO 18006KT 10SM VCTS CLR 28/23 A2965 RMK AO2 LTG DSNT NW THRU NE

2010/08/08 01:57
KADC 080157Z AUTO 00000KT 10SM VCTS SCT100 19/18 A2966 RMK AO2 LTG DSNT N THRU SE

2010/08/08 01:55
KHAF 080155Z AUTO 23005KT 7SM OVC006 12/10 A2987 RMK AO2

2010/08/08 01:55
KCKC 080155Z AUTO 00000KT 10SM CLR 15/13 A2978 RMK AO2 P0001

2010/08/08 01:55
KJYG 080155Z AUTO 00000KT 10SM SCT050 27/26 A2972 RMK AO2

2010/08/08 01:56
KCOQ 080156Z AUTO 11009KT 3SM +TSRA OVC003 18/16 A2969 RMK AO2 P0003 LTG DSNT ALQDS

2010/08/08 01:58
KACQ 080158Z AUTO 18008KT 10SM CLR 25/22 A2975 RMK AO2 LTG DSNT N

2010/08/08 01:55
KRGK 080155Z AUTO 00000KT 10SM CLR 28/22 A2970 RMK AO2 LTG DSNT NW

2010/08/08 01:54
KFSE 080154Z AUTO 00000KT 10SM CLR 23/20 A2964 RMK AO2 LTG DSNT SE AND S

2010/08/08 01:55
KY70 080155Z AUTO 20006KT 10SM CLR 23/18 A2990 RMK AO2 T02250175

2010/08/08 01:50
KUKT 080150Z AUTO 00000KT 10SM CLR 20/15 A3000 RMK AO1

2010/08/08 01:54
KCDA 080154Z AUTO 00000KT 10SM CLR 11/08 A3002 RMK AO2

2010/08/08 02:01
KFKA 080201Z AUTO 18008KT 10SM CLR 26/23 A2979 RMK AO2 T02550226

2010/08/08 01:54
KBFW 080154Z AUTO 00000KT 10SM CLR 19/12 A2973 RMK AO2 LTG DSNT S AND SW

2010/08/08 01:54
KONZ 080154Z AUTO 21005KT 10SM CLR 25/17 A2993 RMK AO2

2010/08/08 01:53
KTEW 080153Z AUTO 00000KT 10SM CLR 20/16 A2993 RMK AO2

2010/08/08 01:50
KCVH 080150Z AUTO 25015G19KT 10SM CLR 16/12 A2984 RMK AO1

2010/08/08 01:56
KDVP 080156Z AUTO 17007KT 10SM CLR 26/22 A2972 RMK AO2 T02580216

2010/08/08 01:54
KDYT 080154Z AUTO 35014KT 5SM TSRA SCT004 BKN038 OVC065 19/17 A2972 RMK AO2 LTG DSNT ALQDS

2010/08/08 01:59
KFSO 080159Z AUTO 13005KT 10SM CLR 13/10 A2997 RMK AO2

2010/08/08 01:54
KFBL 080154Z AUTO 18005KT 10SM CLR 26/21 A2973 RMK AO2 LTG DSNT N

2010/08/08 01:58
KLYV 080158Z AUTO 18008KT 10SM CLR 26/22 A2970 RMK AO2

2010/08/08 01:56
KEFK 080156Z AUTO 21004KT 10SM CLR 09/07 A3000 RMK AO2

2010/08/08 01:54
KRRT 080154Z AUTO 10009KT 10SM SCT048 22/18 A2969 RMK AO2 TSNO

2010/08/08 01:55
KTOB 080155Z AUTO 20009G15KT 10SM CLR 26/23 A2975 RMK AO2

2010/08/08 01:54
KLXL 080154Z AUTO 09003KT 10SM SCT055 26/22 A2963 RMK AO2

2010/08/08 01:52
KEVM 080152Z AUTO 16004KT 10SM SCT036 BKN070 OVC080 22/18 A2970 RMK AO1 LTG DSNT S AND SW

2010/08/08 01:54
KELO 080154Z AUTO 00000KT 10SM SCT110 20/17 A2972 RMK AO2 LTG DSNT S AND SW

2010/08/08 01:55
KROX 080155Z AUTO 08004KT 10SM CLR 21/18 A2968 RMK AO2

2010/08/08 01:58
KSYN 080158Z AUTO 18005KT 10SM CLR 26/22 A2970 RMK AO2 LTG DSNT N T02610220

2010/08/08 01:56
KVVV 080156Z AUTO 00000KT 10SM SCT048 BKN050 29/23 A2962 RMK AO2 LTG DSNT NE

2010/08/08 01:55
KROS 080155Z AUTO 14005KT 10SM TS SCT037 SCT048 BKN065 25/22 A2966 RMK AO2 LTG DSNT NW THRU NE P0001 T02460222

2010/08/08 01:52
KHCD 080152Z AUTO 17005KT 10SM CLR 26/22 A2968 RMK AO2 T02560216 TSNO

2010/08/08 01:53
KSGS 080153Z AUTO 20008KT 10SM CLR 28/22 A2969 RMK AO2 LTG DSNT N T02830216

2010/08/08 01:52
KMJQ 080152Z AUTO 19008KT 10SM CLR 25/22 A2974 RMK AO2

2010/08/08 01:54
KHCO 080154Z AUTO 08008KT 4SM HZ CLR 23/19 A2967 RMK AO2

2010/08/08 01:54
KLVN 080154Z AUTO 19003KT 10SM SCT080 26/22 A2970 RMK AO2 LTG DSNT N AND NW

2010/08/08 01:53
KPEX 080153Z AUTO 17007KT 7SM VCTS CLR 27/23 A2966 RMK AO2 LTG DSNT NE AND E T02710227

2010/08/08 01:55
KJMR 080155Z AUTO 12003KT 10SM TS SCT035 BKN048 BKN060 24/20 A2967 RMK AO2 LTG DSNT ALQS

2010/08/08 01:55
KJKJ 080155Z AUTO 00000KT 10SM CLR 27/24 A2960 RMK AO2 LTG DSNT E AND SE

2010/08/08 01:54
KMVE 080154Z AUTO 22006KT 10SM CLR 28/25 A2962 RMK AO2 LTG DSNT N AND NE

2010/08/08 01:54
KTKC 080154Z AUTO 19003KT 10SM CLR 26/22 A2968 RMK AO2 LTG DSNT NE T02640221

2010/08/08 01:54
KGYL 080154Z AUTO 18005KT 10SM OVC060 27/22 A2968 RMK AO2 LTG DSNT N T02650223

2010/08/08 01:54
KDXX 080154Z AUTO 00000KT 10SM CLR 27/26 A2962 RMK AO2 LTG DSNT NE

2010/08/08 01:51
KHZX 080151Z AUTO 12003KT 10SM VCTS SCT037 SCT049 BKN075 22/20 A2969 RMK AO2 LTG DSNT E THRU W

2010/08/08 01:52
KCDD 080152Z AUTO 00000KT 7SM SCT044 21/21 A2974 RMK AO2

2010/08/08 01:54
KSAZ 080154Z AUTO 00000KT 3SM TSRA SCT003 BKN022 OVC027 21/21 A2970 RMK AO2 P0107 LTG DSNT ALQDS

2010/08/08 01:51
KONA 080151Z AUTO 19005KT 10SM CLR 26/21 A2974 RMK AO2

2010/08/08 01:56
KBJJ 080156Z AUTO 00000KT 10SM CLR 18/17 A3002 RMK AO2 SLP159 T01830167

2010/08/08 01:55
KBUU 080155Z AUTO 21005KT 10SM CLR 21/19 A2988 RMK AO2 T02120185

2010/08/08 01:56
KBZN 080156Z 15008KT 10SM CLR 23/07 A2986 RMK AO2 SLP071 T02330067

2010/08/08 01:56
KCEC 080156Z AUTO 29004KT 10SM OVC005 14/12 A2991 RMK AO2 SLP130 T01390122

2010/08/08 01:56
KCTB 080156Z AUTO 25014KT 10SM CLR 23/06 A2977 RMK AO2 SLP049 T02330061 PWINO

2010/08/08 01:56
KCXY 080156Z AUTO 00000KT 10SM BKN070 BKN095 23/17 A2998 RMK AO2 SLP149 T02330172

2010/08/08 01:53
KD39 080153Z AUTO 15004KT 10SM VCTS CLR 28/24 A2966 RMK AO2 LTG DSNT NW THRU NE T02750243

2010/08/08 01:56
KDAY 080156Z 00000KT 10SM CLR 24/13 A3001 RMK AO2 SLP153 T02390133

2010/08/08 01:56
KDIK 080156Z AUTO 34004KT 10SM CLR 27/14 A2970 RMK AO2 SLP039 T02670144

2010/08/08 01:56
KDUG 080156Z AUTO 24007KT 10SM BKN120 24/18 A3000 RMK AO2 LTG DSNT NW RAE12 SLP095 P0000 T02440183

2010/08/08 01:56
KDUJ 080156Z AUTO 00000KT 10SM CLR 18/11 A3005 RMK AO2 SLP167 T01780111

2010/08/08 01:55
KDVK 080155Z AUTO 00000KT 10SM CLR 22/17 A2999 RMK AO1

2010/08/08 01:56
KEAU 080156Z AUTO 17008KT 10SM SCT040 26/22 A2972 RMK AO2 SLP057 T02560217

2010/08/08 01:56
KEED 080156Z AUTO 15015KT 10SM FEW095 37/14 A2968 RMK AO2 SLP013 T03670144 TSNO

2010/08/08 01:56
KEKO 080156Z AUTO 33012KT 10SM CLR 30/M02 A2984 RMK AO2 SLP044 T03001022

2010/08/08 01:56
KELZ 080156Z AUTO 26004KT 10SM CLR 16/08 A3007 RMK AO2 SLP179 T01560083

2010/08/08 01:56
KGON 080156Z 00000KT 10SM CLR 20/17 A3000 RMK AO2 SLP158 T02000167

2010/08/08 01:56
KGRD 080156Z AUTO 00000KT 10SM CLR 24/23 A2998 RMK AO2 SLP145 T02440228

2010/08/08 01:56
KHND 080156Z 16016G25KT 10SM CLR 34/11 A2977 RMK AO2 T03380105 LTG DSNT N PK WND 16029/0101 SLP025

2010/08/08 01:56
KHPN 080156Z 00000KT 10SM CLR 21/16 A2999 RMK AO2 SLP149 T02060156

2010/08/08 01:55
KHSA 080155Z 22006KT 10SM VCTS SCT055 BKN075 28/27 A2989

2010/08/08 01:56
KHWV 080156Z AUTO 18006KT 10SM CLR 23/19 A3000 RMK AO2 SLP159 T02280189 PWINO $

2010/08/08 01:56
KHYA 080156Z 20006KT 10SM CLR 22/19 A3002 RMK AO2 SLP166 T02170189

2010/08/08 01:56
KIGX 080156Z AUTO 00000KT 9SM CLR 26/20 A2999 RMK AO2 SLP148 T02560200

2010/08/08 01:56
KINW 080156Z AUTO 10SM BKN110 17/14 A3012 RMK AO2 SLP142 T01720144 $

2010/08/08 01:56
PASM 080156Z AUTO 21009KT 5SM FEW016 BKN025 OVC060 13/10 A2966 RMK AO1 PNO

2010/08/08 01:56
PASX 080156Z AUTO 19006KT 10SM BKN014 OVC023 13/11 A2975 RMK AO1 PNO

2010/08/08 01:56
PATG 080156Z AUTO 20006KT 10SM OVC027 12/09 A2975 RMK AO1 PNO

2010/08/08 01:56
PAUN 080156Z AUTO 24011KT 10SM FEW012 SCT018 BKN034 15/10 A2960 RMK AO1 PNO

2010/08/08 01:56
PAVD 080156Z 28011KT 10SM FEW030 SCT040 OVC060 14/08 A2978 RMK AO1 0147Z WEA

2010/08/08 01:56
PAWG 080156Z 00000KT 10SM FEW005 OVC024 12/11 A2988 RMK AO1 WEA

2010/08/08 01:56
PAWS 080156Z AUTO 22006KT 10SM FEW009 BKN029 OVC048 12/11 A2974 RMK AO1 PNO

2010/08/08 01:56
PAZK 080156Z AUTO 07007KT 10SM BKN039 OVC060 11/07 A2970 RMK AO1 PNO

2010/08/08 01:56
KISP 080156Z 18004KT 10SM FEW250 23/17 A2998 RMK AO2 SLP151 T02280172

2010/08/08 01:56
KITH 080156Z 06004KT 10SM CLR 16/12 A3003 RMK AO2 T01550122 SLP168

2010/08/08 01:56
KJMS 080156Z AUTO 00000KT 10SM CLR 27/22 A2964 RMK AO2 SLP027 T02670217

2010/08/08 01:56
KJXN 080156Z 20003KT 10SM CLR 21/17 A2994 RMK AO2 SLP135 T02110167

2010/08/08 01:56
KLAS 080156Z 17016G23KT 10SM SCT120 SCT150 35/10 A2969 RMK AO2 PK WND 16029/0104 SLP024 CB DSNT N AND W SH DSNT N AND W T03500100

2010/08/08 01:55
KLCK 080155Z AUTO 14004KT 10SM CLR 21/17 A2998 RMK AO2 T02140170

2010/08/08 01:56
KLNR 080156Z AUTO 16004KT 10SM OVC034 25/19 A2984 RMK AO2 SLP097 T02500189

2010/08/08 01:56
KM19 080156Z AUTO 09004KT 10SM CLR 27/23 A2989 RMK AO2 T02720233 SLP119

2010/08/08 01:56
KMDT 080156Z 00000KT 10SM SCT075 BKN100 25/18 A2997 RMK AO2 SLP146 T02500183

2010/08/08 01:56
KMQY 080156Z AUTO 09005KT 10SM CLR 28/19 A2995 RMK AO2 T02770194 SLP130 $

2010/08/08 01:53
KFOZ 080153Z AUTO 06004KT 10SM SCT042 SCT049 21/17 A2971 RMK AO2 LTG DSNT SE

2010/08/08 01:53
KAQP 080153Z AUTO 18003KT 10SM BKN045 27/27 A2962 RMK AO2 LTG DSNT NE

2010/08/08 01:54
KETH 080154Z AUTO 19003KT 10SM CLR 26/22 A2964 RMK AO2 LTG DSNT E

2010/08/08 01:54
KOVL 080154Z AUTO 19007KT 10SM SCT040 25/21 A2966 RMK AO2 LTG DSNT NE T02520205

2010/08/08 01:53
KLJF 080153Z AUTO 17003KT 10SM SCT041 SCT050 BKN060 27/23 A2968 RMK AO2 LTG DSNT NE

2010/08/08 01:56
KXVG 080156Z AUTO 00000KT 10SM SCT070 22/21 A2966 RMK AO2 LTG DSNT SE THRU W

2010/08/08 01:54
KORB 080154Z AUTO 00000KT 10SM CLR 18/15 A2970 RMK AO2 LTG DSNT SW

2010/08/08 01:50
KMZH 080150Z AUTO 00000KT 10SM VCTS SCT041 SCT050 SCT075 21/19 A2966 RMK AO2 LTG DSNT ALQS

2010/08/08 01:49
KVWU 080149Z AUTO 06006KT 10SM BKN039 BKN048 21/18 A2969 RMK AO2

2010/08/08 01:50
KAEL 080150Z AUTO 19006KT 10SM CLR 26/22 A2975 RMK AO2

2010/08/08 01:54
KOWA 080154Z AUTO 17009KT CLR 26/22 A2971 RMK AO2 LTG DSNT N PWINO

2010/08/08 01:53
K29G 080153Z AUTO 00000KT 10SM CLR 18/16 A3001 RMK AO2 T01750155 PWINO

2010/08/08 01:53
KMRT 080153Z AUTO 00000KT 10SM CLR 19/17 A3002 RMK AO2 T01870171

2010/08/08 01:54
KIKW 080154Z AUTO 23003KT 10SM SCT060 OVC080 24/16 A2988 RMK AO2 T02370159

2010/08/08 01:55
K0A9 080155Z AUTO 00000KT 10SM CLR 19/16 A3002 RMK

2010/08/08 01:55
KARW 080155Z AUTO 00000KT 7SM CLR 26/23 A2992 RMK AO2 LTG DSNT SE

2010/08/08 01:55
KBDN 080155Z AUTO 34010KT 10SM CLR 24/07 A2992 RMK AO2

2010/08/08 01:55
KBIX 080155Z AUTO 25006KT 10SM BKN049 32/25 A2989 RMK AO2 LTG DSNT N SLP124 T03170249 $

2010/08/08 01:55
KBKN 080155Z AUTO 12009KT 10SM CLR 30/23 A2980 RMK AO2

2010/08/08 01:55
KCEF 080155Z AUTO 01004KT 10SM CLR 14/12 A3000 RMK AO2 SLP159 T01420123

2010/08/08 01:50
KEFD 080150Z 16005KT 10SM FEW050 SCT250 29/25 A2989

2010/08/08 01:55
KEIK 080155Z AUTO 05003KT 10SM CLR 25/09 A2995 RMK AO2

2010/08/08 01:55
KFBG 080155Z 09003KT 10SM SCT041 28/22 A2995 RMK AO2A RAB0131E0141DZB0144E0148 SLP140 P0000 T02820224 $

2010/08/08 01:55
KGUS 080155Z AUTO 18003KT 10SM CLR 23/20 A2996 RMK AO2 SLP139 T02270201

2010/08/08 01:55
KHVS 080155Z AUTO 04003KT 10SM CLR 26/24 A2995 RMK AO2

2010/08/08 01:55
KIFP 080155Z AUTO 18017G22KT 10SM FEW100 37/13 A2965 RMK AO2

2010/08/08 01:55
KLRF 080155Z AUTO 11003KT 10SM CLR 28/25 A2987 RMK AO2 SLP111 T02800251

2010/08/08 01:55
KMKS 080155Z AUTO 00000KT 5SM BR CLR 25/24 A2992 RMK AO2 TSNO

2010/08/08 01:55
KMMT 080155Z AUTO 00000KT 10SM R32/5500VP6000FT CLR 26/25 A2994 RMK AO2 SLP137 T02610247

2010/08/08 01:56
KMOB 080156Z 15004KT 10SM FEW050 SCT120 BKN200 28/23 A2992 RMK AO2 SLP129 T02830233

2010/08/08 01:55
KMXF 080155Z AUTO 19006KT 10SM SCT060 BKN075 30/24 A2990 RMK AO2 LTG DSNT SE AND W SLP123 T02990240

2010/08/08 01:55
KNQA 080155Z AUTO 00000KT 10SM CLR 27/24 A2990 RMK

2010/08/08 01:52
KNRB 080152Z 26003KT 10SM FEW030 OVC150 26/23 A2992 RMK AO2 RAE28 SLP132 T2 SET P0000 T02610233

2010/08/08 01:55
KO22 080155Z AUTO 21005KT 10SM CLR 29/07 A2983 RMK AO1

2010/08/08 01:55
KOZR 080155Z AUTO 07004KT 10SM SCT130 BKN170 25/25 A2993 RMK AO2 SLP133 T02500250

2010/08/08 01:55
KPVF 080155Z AUTO 22005KT 10SM CLR 26/07 A2986 RMK AO1

2010/08/08 01:55
KRCE 080155Z AUTO 14008KT 10SM CLR 31/21 A2984 RMK AO2

2010/08/08 01:50
KSAW 080150Z 35005KT 10SM SCT060 SCT120 19/14 A2976

2010/08/08 01:55
KSMS 080155Z AUTO 00000KT 2 1/2SM BR CLR 25/25 A2994 RMK AO2

2010/08/08 01:55
KVQQ 080155Z AUTO 21003KT 9SM CLR 24/24 A2993 RMK AO2

2010/08/08 01:56
KSDF 080156Z 08004KT 10SM CLR 27/14 A2995 RMK AO2 SLP136 T02720139 $

2010/08/08 01:56
K1M4 080156Z AUTO 20003KT 10SM SCT080 27/24 A2995 RMK AO2 T02720238 SLP138

2010/08/08 01:55
K21D 080155Z AUTO 19008KT 10SM CLR 26/22 A2969 RMK AO2 LTG DSNT NW

2010/08/08 01:56
KAND 080156Z AUTO 00000KT 10SM CLR 27/21 A2997 RMK AO2 SLP136 T02670206

2010/08/08 01:56
KART 080156Z AUTO 17004KT 10SM CLR 17/12 A2997 RMK AO2 SLP144 T01670122

2010/08/08 01:56
KBED 080156Z 00000KT 10SM CLR 16/10 A2999 RMK AO2 SLP167 T01560100

2010/08/08 01:54
KBJI 080154Z AUTO 11005KT 10SM CLR 23/19 A2966 RMK AO2 LTG DSNT S AND SW

2010/08/08 01:55
PACZ 080155Z AUTO 23007KT 7SM 10/09 A2963 RMK AO1 T01000089

2010/08/08 01:55
PALU 080155Z AUTO 07011KT 10SM 11/11 A2964 RMK AO1 T01060106

2010/08/08 01:55
PATC 080155Z AUTO 01014KT 10SM OVC008 09/07 A2963 RMK AO1 T00940073

2010/08/08 01:55
PAIM 080155Z AUTO 21006KT 10SM SCT023 SCT065 16/12 A2961 RMK AO1 T01560117

2010/08/08 01:55
PATL 080155Z AUTO 21006KT 10SM SCT015 BKN024 OVC055 12/09 A2969 RMK AO1 T01220095

2010/08/08 01:55
PAEH 080155Z AUTO 17009KT 10SM BKN008 BKN013 OVC090 09/08 A2974 RMK AO1 T00940078

2010/08/08 01:55
PASV 080155Z AUTO 17004KT 10SM BKN014 BKN023 OVC028 12/09 A2973 RMK AO1 T01170095

2010/08/08 01:56
KMRH 080156Z AUTO 04003KT 8SM CLR 26/24 A2995 RMK AO2 SLP141 T02610239 TSNO

2010/08/08 01:56
KOFK 080156Z AUTO 18007KT 10SM CLR 28/22 A2974 RMK AO2 SLP055 T02780222

2010/08/08 01:56
KOWB 080156Z 06004KT 10SM CLR 27/18 A2995 RMK AO2 T02660177 SLP136

2010/08/08 01:56
KRDM 080156Z 35011KT 10SM CLR 25/08 A2987 RMK AO2 SLP096 T02500083 $

2010/08/08 01:56
KSBP 080156Z AUTO 31011KT 10SM CLR 17/11 A2985 RMK AO2 SLP109 T01670111 TSNO

2010/08/08 01:56
KSFO 080156Z 28014KT 10SM FEW005 16/11 A2981 RMK AO2 SLP095 T01610106

2010/08/08 01:56
KSGH 080156Z AUTO 14003KT 8SM CLR 19/18 A3000 RMK AO2 T01940183 SLP153 $

2010/08/08 01:58
KSGJ 080158Z AUTO 27006KT 10SM BKN007 BKN019 26/24 A2993 RMK AO2 CIG 004V009 SLP135 T02560244

2010/08/08 01:56
KSLE 080156Z 31010KT 10SM BKN100 23/14 A2987 RMK AO2 RAE06 SLP115 P0000 T02330139

2010/08/08 01:55
KSME 080155Z AUTO 00000KT 7SM 22/20 A2997 RMK AO2

2010/08/08 01:56
KSRC 080156Z AUTO 09003KT BKN037 29/24 A2988 RMK AO2 TSNO T02940244 SLP120 $

2010/08/08 01:56
KTPH 080156Z AUTO 18015KT 10SM CLR 27/M14 A2993 RMK AO2 SLP066 T02721144

2010/08/08 01:56
KTZR 080156Z AUTO 00000KT 10SM CLR 19/16 A2999 RMK AO2

2010/08/08 01:56
KUKI 080156Z AUTO 34010KT 10SM CLR 29/11 A2974 RMK AO2 SLP063 T02890106

2010/08/08 01:54
KUNI 080154Z AUTO 00000KT 10SM CLR 22/16 A2999 RMK AO2

2010/08/08 01:56
KWJF 080156Z 23018G23KT 10SM CLR 27/05 A2982 RMK AO2 PK WND 25026/0119 SLP081 T02720050

2010/08/08 01:55
KY51 080155Z AUTO 18005KT 10SM SCT024 24/22 A2982 RMK AO1 T02380215

2010/08/08 01:56
PAAK 080156Z AUTO 19021G31KT 6SM BKN015 BKN021 OVC034 13/10 A2946 RMK AO1 PNO

2010/08/08 01:56
PACM 080156Z AUTO 00000KT 9SM FEW010 OVC015 12/11 A2966 RMK AO2 TSNO T01220105 RAE0057 SLP038 $

2010/08/08 01:56
PAHP 080156Z AUTO 20006KT 10SM BKN008 OVC036 11/08 A2963 RMK AO1 PNO TSNO

2010/08/08 01:56
TJSJ 080156Z 08010KT 10SM SCT026 28/23 A3000 RMK AO2 SLP158 T02830233

2010/08/08 02:00
TUPJ 080200Z 11015KT 9999 SCT020 28/24 A2999

2010/08/08 01:56
PAAK 080156Z AUTO 19021G31KT 6SM BKN015 BKN021 OVC034 13/10 A2946 RMK AO1 PNO

2010/08/08 01:56
PAAP 080156Z 00000KT 7SM PRFG FEW000 SCT010 BKN020 15/11 A2987 RMK PRFG FEW000 S-SW LAST NO SPECI

2010/08/08 01:56
PABL 080156Z AUTO 31008KT 10SM OVC075 14/10 A2960 RMK AO1 PNO

2010/08/08 01:56
PABV 080156Z AUTO 21005KT 10SM OVC034 13/10 A2974 RMK AO1 PNO

2010/08/08 01:56
PACM 080156Z AUTO 00000KT 9SM FEW010 OVC015 12/11 A2966 RMK AO2 TSNO T01220105 RAE0057 SLP038 $

2010/08/08 01:56
PADK 080156Z 24022G28KT 10SM BKN007 OVC011 12/11 A2936 RMK AO1 PNO

2010/08/08 01:56
PAEM 080156Z AUTO 25007KT 10SM FEW019 BKN028 OVC040 13/09 A2960 RMK AO1 PNO

2010/08/08 01:56
PAFE 080156Z AUTO 12004KT 9SM FEW008 SCT024 OVC034 13/11 A2988 RMK AO1 PNO

2010/08/08 01:56
PAFM 080156Z AUTO 00000KT 10SM OVC033 14/09 A2958 RMK AO1 PNO

2010/08/08 01:56
PAGL 080156Z AUTO 20004KT 10SM SCT024 BKN075 OVC120 16/12 A2962 RMK AO1 PNO

2010/08/08 01:56
PAGM 080156Z AUTO 04015KT 10SM OVC008 09/06 A2963 RMK AO1

2010/08/08 01:56
PAGS 080156Z AUTO 22004KT 10SM FEW027 FEW042 OVC070 13/11 A2983 RMK AO1 PNO

2010/08/08 01:56
PAHP 080156Z AUTO 20006KT 10SM BKN008 OVC036 11/08 A2963 RMK AO1 PNO TSNO

2010/08/08 01:56
PAHY 080156Z AUTO 00000KT 7SM FEW018 OVC023 13/11 A2990 RMK AO1 PNO

2010/08/08 01:56
PAII 080156Z AUTO 26008KT 10SM BKN008 OVC018 11/08 A2985 RMK AO1 PNO

2010/08/08 01:56
PAIN 080156Z AUTO 18003KT 10SM OVC065 16/07 A2966 RMK AO1 PNO

2010/08/08 01:56
PAJC 080156Z AUTO 01003KT 10SM OVC004 16/11 A2982 RMK AO1 PNO

2010/08/08 01:56
PAKK 080156Z AUTO 20005KT 10SM SCT015 BKN042 OVC085 15/12 A2956 RMK AO1 PNO

2010/08/08 01:56
PAKP 080156Z AUTO 03007KT 10SM OVC046 09/06 A2957 RMK AO1

2010/08/08 01:56
PAMD 080156Z AUTO 16005KT 10SM SCT009 BKN075 OVC090 12/10 A2980 RMK AO1 PNO

2010/08/08 01:56
PAMH 080156Z 22006KT 10SM OVC100 15/08 A2965 RMK AO1 PNO

2010/08/08 01:56
PAMM 080156Z AUTO 20003KT 10SM BKN024 OVC030 14/11 A2991 RMK AO1 PNO

2010/08/08 01:56
PAMY 080156Z 05005KT 10SM FEW008 BKN017 OVC032 12/09 A2965 RMK AO1

2010/08/08 01:56
PANI 080156Z AUTO 23006KT 10SM FEW020 SCT028 BKN043 12/10 A2971 RMK AO1 PNO

2010/08/08 01:56
KAXN 080156Z AUTO 15003G16KT 3SM -TSRA BR SCT010 BKN026 BKN039 21/19 A2968 RMK AO2 LTG DSNT N-E PRESFR P0000

2010/08/08 01:56
KRNT 080156Z 14003KT 4SM -RA BR FEW007 OVC023 17/17 A2989 RMK AO2 P0000

2010/08/08 01:56
PANV 080156Z AUTO 20005KT 5SM FEW009 SCT017 BKN022 13/11 A2965 RMK AO1 PNO

2010/08/08 01:56
PAOU 080156Z AUTO 00000KT 6SM BR SCT016 BKN021 BKN055 11/10 A2980 RMK AO2 PWINO TSNO T01110100 SLP096 $

2010/08/08 01:56
PAPG 080156Z 00000KT 7SM FEW005 BKN026 OVC035 12/11 A2986 RMK AO1 WEA

2010/08/08 01:56
PAPH 080156Z AUTO 25005KT 10SM OVC023 13/09 A2984 RMK AO1 PNO

2010/08/08 01:56
PAPN 080156Z AUTO 28007KT 10SM OVC009 11/09 A2983 RMK AO2 PWINO TSNO T01110094 SLP104

2010/08/08 01:56
PASA 080156Z AUTO 05007KT 2SM OVC003 09/07 A2965 RMK AO1 PNO

2010/08/08 01:56
PASD 080156Z 15008KT 10SM FEW010 SCT021 BKN046 13/11 A2984 RMK AO1 WEA

2010/08/08 01:56
PASH 080156Z AUTO 33007KT 10SM OVC004 08/07 A2965 RMK AO1 PNO

2010/08/08 01:56
PASK 080156Z AUTO 27009KT 10SM FEW013 SCT050 OVC065 16/11 A2956 RMK AO1 PNO

2010/08/08 01:56
PASL 080156Z AUTO 00000KT 10SM SCT026 BKN033 OVC047 13/10 A2974 RMK AO1 PNO

2010/08/08 02:00
SBAR 080200Z 13004KT CAVOK 24/19 Q1019

2010/08/08 01:54
KMTP 080154Z AUTO 00000KT 22/18 A3002 RMK AO2 SLP165 T02170178 PWINO TSNO

2010/08/08 01:54
KROA 080154Z 00000KT 10SM FEW070 25/16 A3004 RMK AO2 SLP159 T02500161 $

2010/08/08 01:54
KCAR 080154Z AUTO 24005KT 10SM CLR 12/06 A2992 RMK AO2 SLP137 T01170061

2010/08/08 01:54
KFWA 080154Z 17003KT 10SM CLR 22/18 A2997 RMK AO2 SLP145 T02170183

2010/08/08 01:54
KCOU 080154Z AUTO 12004KT 10SM CLR 26/22 A2989 RMK AO2 SLP111 T02610217 TSNO

2010/08/08 01:51
KSAD 080151Z AUTO 25006KT 10SM CLR 31/14 A2988 RMK AO2 SLP066 T03060144 TSNO

2010/08/08 01:54
KACY 080154Z 18004KT 10SM CLR 24/21 A3001 RMK AO2 SLP160 T02390206

2010/08/08 01:54
KRFD 080154Z 19007KT 10SM CLR 23/18 A2990 RMK AO2 SLP120 T02280183

2010/08/08 01:54
KAKQ 080154Z AUTO 00000KT 10SM CLR 21/17 A2998 RMK AO2 SLP151 T02110167 TSNO $

2010/08/08 01:53
KMWN 080153Z 28030KT 125SM FEW020 SCT040 SCT250 04/03 RMK

2010/08/08 01:53
KRTN 080153Z AUTO 34006KT 10SM CLR 23/14 A3004 RMK AO2 SLP080 T02280139 TSNO

2010/08/08 01:55
KMBG 080155Z AUTO 02003KT 10SM CLR 24/17 A2964 RMK AO2 SLP024 T02440167 TSNO

2010/08/08 01:55
KDRA 080155Z AUTO 21015G21KT 10SM CLR 32/02 A2979 RMK AO2 SLP036 T03220017 TSNO $

2010/08/08 01:55
KPOE 080155Z AUTO 19005KT 10SM CLR 29/24 A2988 RMK AO2 SLP117 T02940244

2010/08/08 01:55
KAST 080155Z AUTO 23007KT 5SM BR OVC005 16/14 A2993 RMK AO2 RAE0058 SLP135 P0000 T01610144

2010/08/08 01:55
KVBG 080155Z AUTO 32006KT 10SM CLR 14/11 A2988 RMK AO2 SLP109 T01390111 TSNO CHINO RWY12 VISNO RWY12 $

2010/08/08 01:56
KCHS 080156Z 26003KT 9SM FEW043 27/23 A2991 RMK AO2 SLP129 T02670233

2010/08/08 01:56
TJSJ 080156Z 08010KT 10SM SCT026 28/23 A3000 RMK AO2 SLP158 T02830233

2010/08/08 01:56
KSHV 080156Z 00000KT 10SM FEW080 SCT170 BKN290 28/24 A2984 RMK AO2 SLP101 T02830244

2010/08/08 01:55
KANJ 080155Z AUTO 16003KT 10SM SCT047 BKN080 OVC095 19/15 A2981 RMK AO2 SLP091 T01940150

2010/08/08 01:56
KSDF 080156Z 08004KT 10SM CLR 27/14 A2995 RMK AO2 SLP136 T02720139 $

2010/08/08 01:56
KABQ 080156Z 31007KT 10SM FEW065 SCT100 SCT200 27/11 A3004 RMK AO2 SLP079 OCNL LTGCG DSNT SE SHRA DSNT SE CB DSNT SE AND NW-N T02670106

2010/08/08 01:55
KHON 080155Z AUTO 25003KT 10SM CLR 29/22 A2962 RMK AO2 SLP017 T02940217 TSNO

2010/08/08 01:55
KPHP 080155Z AUTO 00000KT 10SM CLR 28/17 A2972 RMK AO2 SLP039 T02780172 TSNO

2010/08/08 01:56
KJAX 080156Z 00000KT 10SM FEW005 SCT032 OVC150 24/23 A2992 RMK AO2 RAE17 SLP132 P0001 T02440233

2010/08/08 01:55
KAAT 080155Z AUTO 33011KT 10SM CLR 28/04 A2986 RMK AO2 SLP069 T02830039 TSNO

2010/08/08 01:53
KPQN 080153Z AUTO 19007KT 10SM CLR 26/24 A2970 RMK AO2

2010/08/08 01:54
KFGN 080154Z AUTO 00000KT 10SM CLR 22/17 A2970 RMK AO2

2010/08/08 01:53
KPNM 080153Z AUTO 18007KT 10SM VCTS CLR 27/23 A2966 RMK AO2 LTG DSNT NW THRU NE

2010/08/08 01:53
KPWC 080153Z AUTO 15005KT 10SM BKN032 BKN039 BKN080 23/19 A2968 RMK AO2

2010/08/08 01:53
KFFM 080153Z AUTO 09004KT 10SM CLR 22/19 A2960 RMK AO2 LTG DSNT NE AND E

2010/08/08 01:52
KGDB 080152Z AUTO 16006KT 10SM CLR 26/23 A2966 RMK AO2 LTG DSNT NE T02600234

2010/08/08 01:53
KAIT 080153Z AUTO 00000KT 10SM VCTS SCT037 SCT044 23/19 A2967 RMK AO2 LTG DSNT SE THRU W

2010/08/08 01:53
KGHW 080153Z AUTO 18006KT 10SM CLR 27/23 A2968 RMK AO2 LTG DSNT NW THRU E

2010/08/08 01:53
KMWM 080153Z AUTO 17008KT 10SM CLR 26/22 A2971 RMK AO2 LTG DSNT N

2010/08/08 01:55
KULM 080155Z AUTO 19006KT 10SM SCT050 26/22 A2969 RMK AO2 LTG DSNT N

2010/08/08 01:53
KBBB 080153Z AUTO 20005KT 10SM BKN046 BKN050 28/24 A2968 RMK AO2 LTG DSNT NE AND E

2010/08/08 01:53
KTWM 080153Z AUTO 04003KT 10SM BKN018 BKN027 OVC075 18/13 A2972 RMK AO2 LTG DSNT NE AND NW

2010/08/08 01:55
KMGG 080155Z AUTO 18004KT 10SM VCTS SCT046 27/24 A2968 RMK AO2 LTG DSNT N AND NE T02700235

2010/08/08 01:54
KBFW 080154Z AUTO 00000KT 10SM CLR 19/12 A2973 RMK AO2 LTG DSNT S AND SW

2010/08/08 01:54
KONZ 080154Z AUTO 21005KT 10SM CLR 25/17 A2993 RMK AO2

2010/08/08 01:53
KTEW 080153Z AUTO 00000KT 10SM CLR 20/16 A2993 RMK AO2

2010/08/08 01:50
KCVH 080150Z AUTO 25015G19KT 10SM CLR 16/12 A2984 RMK AO1

2010/08/08 01:56
KDVP 080156Z AUTO 17007KT 10SM CLR 26/22 A2972 RMK AO2 T02580216

2010/08/08 01:54
KDYT 080154Z AUTO 35014KT 5SM TSRA SCT004 BKN038 OVC065 19/17 A2972 RMK AO2 LTG DSNT ALQDS

2010/08/08 01:59
KFSO 080159Z AUTO 13005KT 10SM CLR 13/10 A2997 RMK AO2

2010/08/08 01:54
KFBL 080154Z AUTO 18005KT 10SM CLR 26/21 A2973 RMK AO2 LTG DSNT N

2010/08/08 01:58
KLYV 080158Z AUTO 18008KT 10SM CLR 26/22 A2970 RMK AO2

2010/08/08 01:56
KEFK 080156Z AUTO 21004KT 10SM CLR 09/07 A3000 RMK AO2

2010/08/08 01:54
KRRT 080154Z AUTO 10009KT 10SM SCT048 22/18 A2969 RMK AO2 TSNO

2010/08/08 01:55
KTOB 080155Z AUTO 20009G15KT 10SM CLR 26/23 A2975 RMK AO2

2010/08/08 01:54
KLXL 080154Z AUTO 09003KT 10SM SCT055 26/22 A2963 RMK AO2

2010/08/08 01:52
KEVM 080152Z AUTO 16004KT 10SM SCT036 BKN070 OVC080 22/18 A2970 RMK AO1 LTG DSNT S AND SW

2010/08/08 01:54
KELO 080154Z AUTO 00000KT 10SM SCT110 20/17 A2972 RMK AO2 LTG DSNT S AND SW

2010/08/08 01:55
KROX 080155Z AUTO 08004KT 10SM CLR 21/18 A2968 RMK AO2

2010/08/08 01:58
KSYN 080158Z AUTO 18005KT 10SM CLR 26/22 A2970 RMK AO2 LTG DSNT N T02610220

2010/08/08 01:56
KVVV 080156Z AUTO 00000KT 10SM SCT048 BKN050 29/23 A2962 RMK AO2 LTG DSNT NE

2010/08/08 01:55
KROS 080155Z AUTO 14005KT 10SM TS SCT037 SCT048 BKN065 25/22 A2966 RMK AO2 LTG DSNT NW THRU NE P0001 T02460222

2010/08/08 01:52
KHCD 080152Z AUTO 17005KT 10SM CLR 26/22 A2968 RMK AO2 T02560216 TSNO

2010/08/08 01:53
KSGS 080153Z AUTO 20008KT 10SM CLR 28/22 A2969 RMK AO2 LTG DSNT N T02830216

2010/08/08 01:52
KMJQ 080152Z AUTO 19008KT 10SM CLR 25/22 A2974 RMK AO2

2010/08/08 01:54
KHCO 080154Z AUTO 08008KT 4SM HZ CLR 23/19 A2967 RMK AO2

2010/08/08 01:54
KLVN 080154Z AUTO 19003KT 10SM SCT080 26/22 A2970 RMK AO2 LTG DSNT N AND NW

2010/08/08 01:53
KPEX 080153Z AUTO 17007KT 7SM VCTS CLR 27/23 A2966 RMK AO2 LTG DSNT NE AND E T02710227

2010/08/08 01:55
KJMR 080155Z AUTO 12003KT 10SM TS SCT035 BKN048 BKN060 24/20 A2967 RMK AO2 LTG DSNT ALQS

2010/08/08 01:55
KJKJ 080155Z AUTO 00000KT 10SM CLR 27/24 A2960 RMK AO2 LTG DSNT E AND SE

2010/08/08 01:54
KMVE 080154Z AUTO 22006KT 10SM CLR 28/25 A2962 RMK AO2 LTG DSNT N AND NE

2010/08/08 01:54
KTKC 080154Z AUTO 19003KT 10SM CLR 26/22 A2968 RMK AO2 LTG DSNT NE T02640221

2010/08/08 01:54
KGYL 080154Z AUTO 18005KT 10SM OVC060 27/22 A2968 RMK AO2 LTG DSNT N T02650223

2010/08/08 01:54
KDXX 080154Z AUTO 00000KT 10SM CLR 27/26 A2962 RMK AO2 LTG DSNT NE

2010/08/08 01:51
KHZX 080151Z AUTO 12003KT 10SM VCTS SCT037 SCT049 BKN075 22/20 A2969 RMK AO2 LTG DSNT E THRU W

2010/08/08 01:52
KCDD 080152Z AUTO 00000KT 7SM SCT044 21/21 A2974 RMK AO2

2010/08/08 01:54
KSAZ 080154Z AUTO 00000KT 3SM TSRA SCT003 BKN022 OVC027 21/21 A2970 RMK AO2 P0107 LTG DSNT ALQDS

2010/08/08 01:51
KONA 080151Z AUTO 19005KT 10SM CLR 26/21 A2974 RMK AO2

2010/08/08 01:53
KFOZ 080153Z AUTO 06004KT 10SM SCT042 SCT049 21/17 A2971 RMK AO2 LTG DSNT SE

2010/08/08 01:53
KAQP 080153Z AUTO 18003KT 10SM BKN045 27/27 A2962 RMK AO2 LTG DSNT NE

2010/08/08 01:54
KETH 080154Z AUTO 19003KT 10SM CLR 26/22 A2964 RMK AO2 LTG DSNT E

2010/08/08 01:54
KOVL 080154Z AUTO 19007KT 10SM SCT040 25/21 A2966 RMK AO2 LTG DSNT NE T02520205

2010/08/08 01:53
KLJF 080153Z AUTO 17003KT 10SM SCT041 SCT050 BKN060 27/23 A2968 RMK AO2 LTG DSNT NE

2010/08/08 01:56
KXVG 080156Z AUTO 00000KT 10SM SCT070 22/21 A2966 RMK AO2 LTG DSNT SE THRU W

2010/08/08 01:54
KORB 080154Z AUTO 00000KT 10SM CLR 18/15 A2970 RMK AO2 LTG DSNT SW

2010/08/08 01:50
KMZH 080150Z AUTO 00000KT 10SM VCTS SCT041 SCT050 SCT075 21/19 A2966 RMK AO2 LTG DSNT ALQS

2010/08/08 01:48
KMOX 080148Z AUTO 14004KT 10SM BKN050 27/25 A2960 RMK AO2 LTG DSNT NE AND E

2010/08/08 01:56
KFPK 080156Z AUTO 20004KT 10SM CLR 21/17 A2993 RMK AO2

2010/08/08 01:55
KCVX 080155Z AUTO 18004KT 10SM CLR 22/15 A2983 RMK AO2

2010/08/08 01:54
KMOP 080154Z AUTO 21005KT 10SM SCT100 SCT120 23/18 A2988 RMK AO2

2010/08/08 01:54
KFKS 080154Z AUTO 19010G15KT 10SM BKN039 BKN045 OVC060 24/19 A2982 RMK AO2

2010/08/08 01:54
KCAD 080154Z AUTO 21007KT 10SM SCT036 BKN045 BKN060 22/20 A2987 RMK AO2

2010/08/08 01:55
KMGN 080155Z AUTO 00000KT 10SM SCT100 23/16 A2982 RMK AO2

2010/08/08 01:55
KSLH 080155Z AUTO 00000KT 10SM BKN100 18/17 A2982 RMK AO2

2010/08/08 01:55
KSJX 080155Z AUTO 20005KT 10SM CLR 22/18 A2980 RMK AO2

2010/08/08 01:55
KHAI 080155Z AUTO 00000KT 10SM CLR 21/18 A2994 RMK AO2

2010/08/08 01:56
KLWA 080156Z AUTO 17004KT 10SM CLR 22/18 A2992 RMK AO2

2010/08/08 01:57
KDRM 080157Z AUTO 16003KT 10SM BKN085 17/17 A2982 RMK AO2

2010/08/08 01:54
KVLL 080154Z AUTO 22004KT 10SM CLR 25/15 A2995 RMK AO2

2010/08/08 01:55
KGOV 080155Z AUTO 21004KT 10SM SCT043 SCT049 BKN060 22/15 A2988 RMK AO2

2010/08/08 01:54
KPZQ 080154Z AUTO 18003KT 10SM CLR 20/16 A2985 RMK AO2

2010/08/08 01:55
KCFS 080155Z AUTO 20003KT 10SM SCT048 BKN110 22/16 A2989 RMK AO2

2010/08/08 01:54
KHYX 080154Z AUTO 21007KT 10SM OVC090 23/14 A2989 RMK AO2

2010/08/08 01:55
KOZW 080155Z AUTO 20003KT 10SM CLR 22/16 A2993 RMK AO2

2010/08/08 01:55
KRNP 080155Z AUTO 23003KT 10SM SCT110 22/16 A2991 RMK AO2

2010/08/08 01:54
KDUH 080154Z AUTO 00000KT 10SM CLR 22/16 A2996 RMK AO2

2010/08/08 01:55
KISQ 080155Z AUTO 20005KT 10SM CLR 22/19 A2978 RMK AO2

2010/08/08 01:55
KJYM 080155Z AUTO 20003KT 7SM CLR 19/17 A2997 RMK AO2

2010/08/08 01:55
KIRS 080155Z AUTO 21003KT 10SM CLR 22/18 A2995 RMK AO2

2010/08/08 01:55
KAMN 080155Z AUTO 21004KT 10SM SCT090 120 23/17 A2989 RMK AO2

2010/08/08 01:55
KACB 080155Z AUTO 18003KT 10SM BKN090 23/16 A2982 RMK AO2

2010/08/08 01:55
KRQB 080155Z AUTO 20003KT 10SM OVC110 23/18 A2988 RMK AO2

2010/08/08 01:55
KERY 080155Z AUTO 20005KT 10SM SCT095 20/18 A2980 RMK AO2

2010/08/08 01:55
KOEB 080155Z AUTO 21003KT 10SM SCT090 22/18 A2996 RMK AO2

2010/08/08 01:56
K4I3 080156Z AUTO 00000KT 10SM CLR 22/17 A3001 RMK AO2

2010/08/08 01:55
KAUM 080155Z AUTO 19007KT 10SM CLR 24/22 A2976 RMK AO2 LTG DSNT NW

2010/08/08 01:55
KFFX 080155Z AUTO 20006KT 10SM CLR 22/19 A2987 RMK AO2

2010/08/08 01:54
KCNB 080154Z AUTO 18004KT 10SM CLR 28/24 A2963 RMK AO2 LTG DSNT NE T02800240

2010/08/08 01:55
KCKN 080155Z AUTO 11003KT 10SM CLR 26/21 A2963 RMK AO2

2010/08/08 01:57
KCQM 080157Z AUTO 00000KT 10SM SCT060 21/16 A2972 RMK AO2 LTG DSNT S AND SW

2010/08/08 01:55
KDTL 080155Z AUTO 05003KT 10SM TS BKN035 BKN044 BKN070 25/19 A2966 RMK AO2 LTG DSNT E AND SE

2010/08/08 01:55
KBDH 080155Z AUTO 00000KT 10SM SCT040 27/23 A2967 RMK AO2 LTG DSNT NE

2010/08/08 01:55
KCBG 080155Z AUTO 18006KT 10SM VCTS CLR 28/23 A2965 RMK AO2 LTG DSNT NW THRU NE

2010/08/08 01:57
KADC 080157Z AUTO 00000KT 10SM VCTS SCT100 19/18 A2966 RMK AO2 LTG DSNT N THRU SE

2010/08/08 01:55
KHAF 080155Z AUTO 23005KT 7SM OVC006 12/10 A2987 RMK AO2

2010/08/08 01:55
KCKC 080155Z AUTO 00000KT 10SM CLR 15/13 A2978 RMK AO2 P0001

2010/08/08 01:55
KJYG 080155Z AUTO 00000KT 10SM SCT050 27/26 A2972 RMK AO2

2010/08/08 01:56
KCOQ 080156Z AUTO 11009KT 3SM +TSRA OVC003 18/16 A2969 RMK AO2 P0003 LTG DSNT ALQDS

2010/08/08 01:58
KACQ 080158Z AUTO 18008KT 10SM CLR 25/22 A2975 RMK AO2 LTG DSNT N

2010/08/08 01:55
KRGK 080155Z AUTO 00000KT 10SM CLR 28/22 A2970 RMK AO2 LTG DSNT NW

2010/08/08 01:54
KFSE 080154Z AUTO 00000KT 10SM CLR 23/20 A2964 RMK AO2 LTG DSNT SE AND S

2010/08/08 01:55
KY70 080155Z AUTO 20006KT 10SM CLR 23/18 A2990 RMK AO2 T02250175

2010/08/08 01:50
KUKT 080150Z AUTO 00000KT 10SM CLR 20/15 A3000 RMK AO1

2010/08/08 01:54
KCDA 080154Z AUTO 00000KT 10SM CLR 11/08 A3002 RMK AO2

2010/08/08 02:04
KBAX 080204Z AUTO 19004KT 10SM SCT050 SCT075 SCT100 21/17 A2989 RMK AO2

2010/08/08 02:02
KCFE 080202Z AUTO 18007KT 10SM VCTS SCT060 28/23 A2968 RMK AO2 LTG DSNT N AND NE T02750231

2010/08/08 02:01
KFKA 080201Z AUTO 18008KT 10SM CLR 26/23 A2979 RMK AO2 T02550226

2010/08/08 01:49
KVWU 080149Z AUTO 06006KT 10SM BKN039 BKN048 21/18 A2969 RMK AO2

2010/08/08 01:50
KAEL 080150Z AUTO 19006KT 10SM CLR 26/22 A2975 RMK AO2

2010/08/08 01:54
KOWA 080154Z AUTO 17009KT CLR 26/22 A2971 RMK AO2 LTG DSNT N PWINO

2010/08/08 01:53
K29G 080153Z AUTO 00000KT 10SM CLR 18/16 A3001 RMK AO2 T01750155 PWINO

2010/08/08 01:53
KMRT 080153Z AUTO 00000KT 10SM CLR 19/17 A3002 RMK AO2 T01870171

2010/08/08 01:54
KIKW 080154Z AUTO 23003KT 10SM SCT060 OVC080 24/16 A2988 RMK AO2 T02370159

2010/08/08 01:56
KCAE 080156Z 00000KT 7SM CLR 28/24 A2994 RMK AO2 SLP134 T02780244

2010/08/08 01:55
KCAO 080155Z AUTO 17011KT 10SM CLR 29/14 A2997 RMK AO2 SLP068 T02940139 TSNO

2010/08/08 01:56
KGNA 080156Z AUTO 03003KT 18/14 A2974 RMK AO2 SLP066 T01830139 PWINO TSNO

2010/08/08 01:56
KNUQ 080156Z 34011KT 10SM CLR 19/13 A2981 RMK AO2 SLP097 T01890133

2010/08/08 01:56
K8D3 080156Z AUTO 24004KT 27/23 A2960 RMK AO2 SLP005 T02670233 PWINO TSNO

2010/08/08 01:56
KNBT 080156Z AUTO 08007KT 6SM HZ CLR 28/24 A2995 RMK AO2 SLP145 T02830244 TSNO

2010/08/08 01:56
KNGP 080156Z AUTO 20008KT 160V230 10SM CLR 28/26 A2986 RMK AO2 SLP109 T02830256 VISNO $

2010/08/08 01:56
K2WX 080156Z AUTO 32007KT 27/12 A2971 RMK AO1 SLP034 T02670122

2010/08/08 01:55
PACZ 080155Z AUTO 23007KT 7SM 10/09 A2963 RMK AO1 T01000089

2010/08/08 01:55
PALU 080155Z AUTO 07011KT 10SM 11/11 A2964 RMK AO1 T01060106

2010/08/08 01:55
PATC 080155Z AUTO 01014KT 10SM OVC008 09/07 A2963 RMK AO1 T00940073

2010/08/08 01:55
PAIM 080155Z AUTO 21006KT 10SM SCT023 SCT065 16/12 A2961 RMK AO1 T01560117

2010/08/08 01:55
PATL 080155Z AUTO 21006KT 10SM SCT015 BKN024 OVC055 12/09 A2969 RMK AO1 T01220095

2010/08/08 01:55
PAEH 080155Z AUTO 17009KT 10SM BKN008 BKN013 OVC090 09/08 A2974 RMK AO1 T00940078

2010/08/08 01:55
PASV 080155Z AUTO 17004KT 10SM BKN014 BKN023 OVC028 12/09 A2973 RMK AO1 T01170095

2010/08/08 01:55
KMXF 080155Z AUTO 19006KT 10SM SCT060 BKN075 30/24 A2990 RMK AO2 LTG DSNT SE AND W SLP123 T02990240

2010/08/08 01:55
KOZR 080155Z AUTO 07004KT 10SM SCT130 BKN170 25/25 A2993 RMK AO2 SLP133 T02500250

2010/08/08 01:55
KRIV 080155Z AUTO 31009KT 10SM CLR 24/10 A2984 RMK AO2 SLP103 T02450099

2010/08/08 01:55
KRND 080155Z AUTO 16008KT 10SM CLR 31/21 A2986 RMK AO2 SLP101 T03060214

2010/08/08 01:52
KNRB 080152Z 26003KT 10SM FEW030 OVC150 26/23 A2992 RMK AO2 RAE28 SLP132 T2 SET P0000 T02610233

2010/08/08 01:55
KOFF 080155Z AUTO 14009KT 10SM CLR 28/23 A2976 RMK AO2 SLP061 T02810234 $

2010/08/08 01:55
KOZR 080155Z AUTO 07004KT 10SM SCT130 BKN170 25/25 A2993 RMK AO2 SLP133 T02500250

2010/08/08 01:55
KRDR 080155Z AUTO 10003KT 10SM CLR 27/21 A2962 RMK AO2 SLP044 T02720211 $

2010/08/08 01:55
KRIV 080155Z AUTO 31009KT 10SM CLR 24/10 A2984 RMK AO2 SLP103 T02450099

2010/08/08 01:55
KRND 080155Z AUTO 16008KT 10SM CLR 31/21 A2986 RMK AO2 SLP101 T03060214

2010/08/08 01:55
KSUU 080155Z AUTO 24019G27KT 10SM CLR 22/12 A2971 RMK AO2 PK WND 24027/0147 SLP062 T02170120 RVRNO $

2010/08/08 01:55
KSZL 080155Z AUTO 13004KT 10SM CLR 26/22 A2985 RMK AO2 SLP103 T02620217 PNO $

2010/08/08 01:55
KDYS 080155Z AUTO 16006KT 10SM CLR 31/17 A2984 RMK AO2 SLP077 T03120172 $

2010/08/08 01:55
KEDW 080155Z 21019G25KT 90SM FEW060 29/00 A2979 RMK AO2A PK WND 22028/0129 SLP043 T02890004

2010/08/08 01:55
KLHW 080155Z AUTO 00000KT 10SM CLR 26/24 A2992 RMK AO2 SLP133 T02630244

2010/08/08 01:55
KMUO 080155Z AUTO 36008KT 10SM CLR 31/05 A2977 RMK AO2 SLP050 T03100052

2010/08/08 01:52
KNFW 080152Z AUTO 16008KT 10SM CLR 35/19 A2984 RMK AO2 SLP090 T03500194 $

2010/08/08 01:52
KNHK 080152Z AUTO 00000KT 10SM CLR 22/17 A2997 RMK AO2 SLP149 T02170172

2010/08/08 01:53
KNIP 080153Z 25007KT 10SM SCT030 OVC150 25/24 A2993 RMK AO2 RAB0054E20 SLP130 T2 SET P0000 T02500239

2010/08/08 01:55
KTIK 080155Z 14005KT 10SM CLR 30/23 A2984 RMK AO2A SLP089 T03000232

2010/08/08 01:55
KVOK 080155Z 16005KT 10SM SCT033 24/22 A2981 RMK AO2A SLP089 T02390217 $

2010/08/08 01:55
KWRI 080155Z AUTO 24004KT 10SM CLR 23/18 A2997 RMK AO2 RAB0103E0118 SLP148 P0000 T02300180 $

2010/08/08 01:53
PABI 080153Z 00000KT 10SM FEW020 SCT046 SCT075 BKN180 18/07 A2967 RMK AO2 SLP049 SHRA DSNT NW CB DSNT N-NE DSIPTD T01830067 $

2010/08/08 01:55
PAEI 080155Z AUTO 00000KT 10SM BKN080 19/09 A2964 RMK AO2 CIG 065 RWY14 SLP039 T01860094 $

2010/08/08 01:55
KAFF 080155Z AUTO 13008KT 10SM CLR 21/12 A3008 RMK AO2 WSHFT 0049 RAE0105 SLP086 P0000 T02100123

2010/08/08 01:55
KBIX 080155Z AUTO 25006KT 10SM BKN049 32/25 A2989 RMK AO2 LTG DSNT N SLP124 T03170249 $

2010/08/08 01:55
KDOV 080155Z AUTO 15005KT 10SM BKN090 24/21 A2997 RMK AO2 SLP151 T02370215

2010/08/08 01:55
KDYS 080155Z AUTO 16006KT 10SM CLR 31/17 A2984 RMK AO2 SLP077 T03120172 $

2010/08/08 01:55
KEDW 080155Z 21019G25KT 90SM FEW060 29/00 A2979 RMK AO2A PK WND 22028/0129 SLP043 T02890004

2010/08/08 01:55
KFBG 080155Z 09003KT 10SM SCT041 28/22 A2995 RMK AO2A RAB0131E0141DZB0144E0148 SLP140 P0000 T02820224 $

2010/08/08 01:55
KGRK 080155Z 13008KT 7SM FEW080 SCT200 33/20 A2983 RMK SLP078

2010/08/08 01:55
KHIF 080155Z AUTO 12008KT 10SM FEW230 25/06 A2992 RMK AO2 PK WND 13026/0103 CLDS LWR RWY32 SLP026 T02480064

2010/08/08 01:55
KLHW 080155Z AUTO 00000KT 10SM CLR 26/24 A2992 RMK AO2 SLP133 T02630244

2010/08/08 01:55
KLSF 080155Z AUTO 16004KT 10SM CLR 27/24 A2992 RMK AO2 SLP132 T02740236 PNO $

2010/08/08 01:55
KMGE 080155Z 16007KT 10SM BKN080 28/23 A2997 RMK AO2A SLP137 T02850228 $

2010/08/08 01:55
KMUI 080155Z AUTO 00000KT 10SM SCT075 SCT090 20/16 A2999 RMK AO2 SLP154 T01950163 $

2010/08/08 01:55
KMUO 080155Z AUTO 36008KT 10SM CLR 31/05 A2977 RMK AO2 SLP050 T03100052

2010/08/08 01:55
KMXF 080155Z AUTO 19006KT 10SM SCT060 BKN075 30/24 A2990 RMK AO2 LTG DSNT SE AND W SLP123 T02990240

2010/08/08 01:52
KNFW 080152Z AUTO 16008KT 10SM CLR 35/19 A2984 RMK AO2 SLP090 T03500194 $

2010/08/08 01:55
KPOE 080155Z AUTO 19005KT 10SM CLR 29/24 A2988 RMK AO2 SLP117 T02940244

2010/08/08 01:54
KNKT 080154Z 11003KT 8SM CLR 27/24 A2996 RMK AO2 SLP140 T02670239

2010/08/08 01:55
KBAD 080155Z AUTO 16005KT 10SM CLR 28/24 A2984 RMK AO2 SLP105 T02820244

2010/08/08 01:55
KCBM 080155Z AUTO 00000KT 10SM CLR 27/25 A2990 RMK AO2 SLP123 T02720253 $

2010/08/08 01:53
KDTS 080153Z AUTO 36005KT 10SM CLR 28/25 A2989 RMK AO2 SLP120 T02780250

2010/08/08 01:55
KFFO 080155Z 00000KT 10SM CLR 22/17 A2998 RMK AO2A SLP148

2010/08/08 01:55
KGRF 080155Z AUTO 18005KT 10SM FEW008 OVC047 17/16 A2990 RMK AO2 RAE0058DZB0058E0101 SLP127 P0000 T01740161

2010/08/08 01:55
KGSB 080155Z AUTO 13012KT 6SM R08/4000VP6000FT +RA BR OVC055 23/23 A2995 RMK AO2 VIS 2 RWY26 SLP141 P0097 T02350235

2010/08/08 01:55
KGUS 080155Z AUTO 18003KT 10SM CLR 23/20 A2996 RMK AO2 SLP139 T02270201

2010/08/08 01:55
KIAB 080155Z AUTO 13009KT 10SM CLR 31/21 A2983 RMK AO2 SLP086 T03100212 $

2010/08/08 01:55
KOFF 080155Z AUTO 14009KT 10SM CLR 28/23 A2976 RMK AO2 SLP061 T02810234 $

2010/08/08 01:55
KBAD 080155Z AUTO 16005KT 10SM CLR 28/24 A2984 RMK AO2 SLP105 T02820244

2010/08/08 01:55
KBIX 080155Z AUTO 25006KT 10SM BKN049 32/25 A2989 RMK AO2 LTG DSNT N SLP124 T03170249 $

2010/08/08 01:55
KGSB 080155Z AUTO 13012KT 6SM R08/4000VP6000FT +RA BR OVC055 23/23 A2995 RMK AO2 VIS 2 RWY26 SLP141 P0097 T02350235

2010/08/08 01:55
KHST 080155Z AUTO 15004KT 10SM CLR 27/25 A2998 RMK AO2 SLP154 T02740251

2010/08/08 01:52
KNRB 080152Z 26003KT 10SM FEW030 OVC150 26/23 A2992 RMK AO2 RAE28 SLP132 T2 SET P0000 T02610233

2010/08/08 01:55
KOFF 080155Z AUTO 14009KT 10SM CLR 28/23 A2976 RMK AO2 SLP061 T02810234 $

2010/08/08 01:55
KBAD 080155Z AUTO 16005KT 10SM CLR 28/24 A2984 RMK AO2 SLP105 T02820244

2010/08/08 01:55
KBLV 080155Z AUTO 08003KT 10SM CLR 25/21 A2991 RMK AO2 SLP126 T02490209

2010/08/08 01:55
KCBM 080155Z AUTO 00000KT 10SM CLR 27/25 A2990 RMK AO2 SLP123 T02720253 $

2010/08/08 01:55
KCEF 080155Z AUTO 01004KT 10SM CLR 14/12 A3000 RMK AO2 SLP159 T01420123

2010/08/08 01:55
KDAA 080155Z AUTO 00000KT 10SM CLR 20/16 A2997 RMK AO2 SLP151 T01970158

2010/08/08 01:55
KFFO 080155Z 00000KT 10SM CLR 22/17 A2998 RMK AO2A SLP148

2010/08/08 01:55
KGRF 080155Z AUTO 18005KT 10SM FEW008 OVC047 17/16 A2990 RMK AO2 RAE0058DZB0058E0101 SLP127 P0000 T01740161

2010/08/08 01:55
KGSB 080155Z AUTO 13012KT 6SM R08/4000VP6000FT +RA BR OVC055 23/23 A2995 RMK AO2 VIS 2 RWY26 SLP141 P0097 T02350235

2010/08/08 01:55
KGUS 080155Z AUTO 18003KT 10SM CLR 23/20 A2996 RMK AO2 SLP139 T02270201

2010/08/08 01:55
KHMN 080155Z AUTO 00000KT 10SM CLR 32/12 A2991 RMK AO2 WSHFT 0049 SLP038 T03250116 $

2010/08/08 01:55
KHST 080155Z AUTO 15004KT 10SM CLR 27/25 A2998 RMK AO2 SLP154 T02740251

2010/08/08 01:55
KIAB 080155Z AUTO 13009KT 10SM CLR 31/21 A2983 RMK AO2 SLP086 T03100212 $

2010/08/08 01:55
KLRF 080155Z AUTO 11003KT 10SM CLR 28/25 A2987 RMK AO2 SLP111 T02800251

2010/08/08 01:55
KMMT 080155Z AUTO 00000KT 10SM R32/5500VP6000FT CLR 26/25 A2994 RMK AO2 SLP137 T02610247

2010/08/08 01:55
KSVN 080155Z AUTO 27003KT 6SM 26/24 A2992 RMK AO2 SLP132

2010/08/08 01:54
KFZY 080154Z AUTO 00000KT 10SM CLR 14/13 A2998 RMK AO2 SLP150 T01390133

2010/08/08 01:54
KRSP 080154Z AUTO VRB03KT 10SM SCT060 23/12 A3005 RMK AO2 SLP166 T02330117 $

2010/08/08 01:55
KAFF 080155Z AUTO 13008KT 10SM CLR 21/12 A3008 RMK AO2 WSHFT 0049 RAE0105 SLP086 P0000 T02100123

2010/08/08 01:55
KBIX 080155Z AUTO 25006KT 10SM BKN049 32/25 A2989 RMK AO2 LTG DSNT N SLP124 T03170249 $

2010/08/08 01:55
KDAA 080155Z AUTO 00000KT 10SM CLR 20/16 A2997 RMK AO2 SLP151 T01970158

2010/08/08 01:55
KDOV 080155Z AUTO 15005KT 10SM BKN090 24/21 A2997 RMK AO2 SLP151 T02370215

2010/08/08 01:55
KFBG 080155Z 09003KT 10SM SCT041 28/22 A2995 RMK AO2A RAB0131E0141DZB0144E0148 SLP140 P0000 T02820224 $

2010/08/08 01:55
KGRK 080155Z 13008KT 7SM FEW080 SCT200 33/20 A2983 RMK SLP078

2010/08/08 01:55
KLSF 080155Z AUTO 16004KT 10SM CLR 27/24 A2992 RMK AO2 SLP132 T02740236 PNO $

2010/08/08 01:55
KMUI 080155Z AUTO 00000KT 10SM SCT075 SCT090 20/16 A2999 RMK AO2 SLP154 T01950163 $

2010/08/08 01:54
KMTP 080154Z AUTO 00000KT 22/18 A3002 RMK AO2 SLP165 T02170178 PWINO TSNO

2010/08/08 01:54
KROA 080154Z 00000KT 10SM FEW070 25/16 A3004 RMK AO2 SLP159 T02500161 $

2010/08/08 01:54
KCAR 080154Z AUTO 24005KT 10SM CLR 12/06 A2992 RMK AO2 SLP137 T01170061

2010/08/08 01:54
KFWA 080154Z 17003KT 10SM CLR 22/18 A2997 RMK AO2 SLP145 T02170183

2010/08/08 01:54
KCOU 080154Z AUTO 12004KT 10SM CLR 26/22 A2989 RMK AO2 SLP111 T02610217 TSNO

2010/08/08 01:51
KSAD 080151Z AUTO 25006KT 10SM CLR 31/14 A2988 RMK AO2 SLP066 T03060144 TSNO

2010/08/08 01:54
KACY 080154Z 18004KT 10SM CLR 24/21 A3001 RMK AO2 SLP160 T02390206

2010/08/08 01:53
KLAX 080153Z 26010KT 10SM FEW010 17/12 A2985 RMK AO2 SLP108 T01720117

2010/08/08 01:54
KRIC 080154Z 13005KT 10SM BKN050 25/19 A2998 RMK AO2 SLP155 T02500189

2010/08/08 01:52
KABI 080152Z 16004KT 10SM CLR 31/21 A2986 RMK AO2 SLP081 T03060206 $

2010/08/08 01:54
KAVP 080154Z 00000KT 10SM CLR 21/10 A3000 RMK AO2 SLP149 T02060100

2010/08/08 01:53
KBTR 080153Z 23008KT 10SM FEW250 30/24 A2987 RMK AO2 SLP114 T03000244

2010/08/08 01:54
KBTV 080154Z 00000KT 10SM CLR 14/11 A2997 RMK AO2 SLP148 T01390106

2010/08/08 01:53
KCHA 080153Z 33003KT 10SM SCT070 SCT150 29/21 A2993 RMK AO2 SLP127 ACFT MSHP T02890211

2010/08/08 01:55
KCNK 080155Z AUTO 14007KT 10SM CLR 28/21 A2979 RMK AO2 SLP070 T02830211

2010/08/08 01:53
KDAB 080153Z 00000KT 10SM -RA BKN030 BKN140 OVC200 26/24 A2993 RMK AO2 RAB21E29B53 SLP135 PCPN VRY LGT P0000 T02610244

2010/08/08 01:55
KDLH 080155Z 12010KT 10SM -TSRA OVC042CB 17/16 A2972 RMK AO2 TSB23 SLP061 FRQ LTGICCG SE-SW TS SE-SW MOV E P0001 T01720156

2010/08/08 01:55
KGPI 080155Z 26007KT 10SM CLR 26/06 A2975 RMK AO2 SLP059 T02560061

2010/08/08 01:54
KGSO 080154Z 06004KT 10SM CLR 26/17 A3001 RMK AO2 SLP150 T02560172

2010/08/08 01:55
KIRK 080155Z AUTO 16005KT 10SM CLR 23/22 A2988 RMK AO2 SLP114 T02330217

2010/08/08 01:55
KLIC 080155Z AUTO VRB03G22KT 2 1/2SM +TSRA BR FEW020 BKN049 OVC065 19/17 A3008 RMK AO2 LTG DSNT ALQDS TSE03B06RAB02 PRESRR SLP115 P0013 T01890172

2010/08/08 01:53
KLND 080153Z AUTO 34014G17KT 10SM SCT120 26/01 A2994 RMK AO2 SLP063 T02610011

2010/08/08 01:53
KLXV 080153Z AUTO 03005KT 10SM SCT075 14/05 A3034 RMK AO2 RAB08E22 SLP112 P0000 T01390050 TSNO

2010/08/08 01:55
KMKG 080155Z 19010KT 10SM SCT060 25/20 A2988 RMK AO2 SLP114 T02500200

2010/08/08 01:53
KMSN 080153Z 20005KT 10SM CLR 25/19 A2985 RMK AO2 SLP104 T02500189

2010/08/08 01:53
KMWT 080153Z AUTO 00000KT 10SM CLR 27/25 A2985 RMK AO2 SLP098 T02670250 TSNO

2010/08/08 01:55
KRNO 080155Z VRB05G23KT 10SM SCT060CB BKN080 BKN140 28/01 A2989 RMK AO2 SLP069 VIRGA DSNT N E S CB S DSNT N NE SE MOV NW T02780006

2010/08/08 01:53
KSAV 080153Z 25003KT 10SM FEW030 SCT070 27/24 A2992 RMK AO2 SLP132 T02720244

2010/08/08 01:55
KSCK 080155Z 32008KT 10SM CLR 28/14 A2972 RMK AO2 SLP062 T02830139 $

2010/08/08 01:53
KTLH 080153Z 00000KT 10SM SCT049 SCT070 BKN100 25/23 A2994 RMK AO2 SLP137 T02500233

2010/08/08 01:53
KTRI 080153Z 00000KT 9SM CLR 22/16 A3000 RMK AO2 SLP142 T02220156

2010/08/08 01:53
KTYS 080153Z 03004KT 10SM CLR 27/18 A2995 RMK AO2 SLP129 T02670178

2010/08/08 01:54
KRFD 080154Z 19007KT 10SM CLR 23/18 A2990 RMK AO2 SLP120 T02280183

2010/08/08 01:54
KAKQ 080154Z AUTO 00000KT 10SM CLR 21/17 A2998 RMK AO2 SLP151 T02110167 TSNO $

2010/08/08 01:53
KMWN 080153Z 28030KT 125SM FEW020 SCT040 SCT250 04/03 RMK

2010/08/08 01:55
KMBG 080155Z AUTO 02003KT 10SM CLR 24/17 A2964 RMK AO2 SLP024 T02440167 TSNO

2010/08/08 01:55
KDRA 080155Z AUTO 21015G21KT 10SM CLR 32/02 A2979 RMK AO2 SLP036 T03220017 TSNO $

2010/08/08 01:55
KAST 080155Z AUTO 23007KT 5SM BR OVC005 16/14 A2993 RMK AO2 RAE0058 SLP135 P0000 T01610144

2010/08/08 01:56
KCHS 080156Z 26003KT 9SM FEW043 27/23 A2991 RMK AO2 SLP129 T02670233

2010/08/08 01:56
TJSJ 080156Z 08010KT 10SM SCT026 28/23 A3000 RMK AO2 SLP158 T02830233

2010/08/08 01:56
KSHV 080156Z 00000KT 10SM FEW080 SCT170 BKN290 28/24 A2984 RMK AO2 SLP101 T02830244

2010/08/08 01:53
KBAF 080153Z 01003KT 10SM CLR 17/12 A3000 RMK AO2 SLP157 T01720117

2010/08/08 01:53
KBUR 080153Z 18009KT 10SM CLR 21/12 A2983 RMK AO2 SLP089 T02110117

2010/08/08 01:53
TIST 080153Z AUTO 08009KT 10SM FEW038 SCT090 29/23 A2998 RMK AO2 SLP153 T02890233 TSNO $

2010/08/08 01:53
TISX 080153Z AUTO 08010KT 10SM CLR 28/23 A2998 RMK AO2 SLP152 T02830233 TSNO $

2010/08/08 01:53
KBRO 080153Z AUTO 15008KT 10SM CLR 29/24 A2987 RMK AO2 SLP114 T02890244 TSNO $

2010/08/08 01:53
KFLL 080153Z 19004KT 10SM FEW050 27/24 A2996 RMK AO2 SLP145 T02670244 PNO $

2010/08/08 01:51
KJFK 080151Z 18009KT 10SM FEW250 24/19 A2999 RMK AO2 SLP154 T02390194

2010/08/08 01:53
KMCO 080153Z 17003KT 10SM FEW035 FEW110 BKN200 OVC250 27/24 A2994 RMK AO2 SLP138 T02670244

2010/08/08 01:53
KPBI 080153Z 22003KT 10SM BKN250 27/24 A2995 RMK AO2 SLP142 T02720237 $

2010/08/08 01:53
TIST 080153Z AUTO 08009KT 10SM FEW038 SCT090 29/23 A2998 RMK AO2 SLP153 T02890233 TSNO $

2010/08/08 01:53
TISX 080153Z AUTO 08010KT 10SM CLR 28/23 A2998 RMK AO2 SLP152 T02830233 TSNO $

2010/08/08 01:50
KEFD 080150Z 16005KT 10SM FEW050 SCT250 29/25 A2989

2010/08/08 01:50
KADS 080150Z 16009G15KT 10SM SKC 35/21 A2981

2010/08/08 01:55
KAEG 080155Z AUTO 31015G21KT 10SM FEW100 24/09 A3006 RMK AO1

2010/08/08 01:55
KAIK 080155Z AUTO 00000KT 10SM CLR 26/26 A2998 RMK AO2 LTG DSNT SE PNO

2010/08/08 01:55
KBBP 080155Z AUTO 10003KT 10SM SCT047 SCT055 27/22 A2994 RMK AO2

2010/08/08 01:55
KBNL 080155Z AUTO 00000KT 7SM SCT030 26/25 A2994 RMK AO2

2010/08/08 01:55
KBWD 080155Z AUTO 14007KT 10SM CLR 32/19 A2985 RMK AO2

2010/08/08 01:55
KCGC 080155Z AUTO 00000KT 10SM FEW027 28/26 A2991 RMK

2010/08/08 01:55
KCQW 080155Z AUTO 00000KT 5SM HZ FEW048 26/23 A2995 RMK AO2

2010/08/08 01:55
KDCM 080155Z AUTO 00000KT 7SM CLR 25/24 A2998 RMK AO2 LTG DSNT SE

2010/08/08 01:55
KE80 080155Z AUTO 30007KT 10SM SCT110 26/11 A3001 RMK AO2 T02610112

2010/08/08 01:55
KEDC 080155Z AUTO 17005KT 10SM CLR 31/21 A2985 RMK AO1

2010/08/08 01:55
KEOE 080155Z AUTO 04003KT 10SM CLR 26/23 A2998 RMK AO2

2010/08/08 01:55
KFMH 080155Z AUTO 19005KT 10SM CLR 18/16 A3003 RMK AO2

2010/08/08 01:55
KGYH 080155Z AUTO 10004KT 10SM SCT049 BKN085 OVC110 30/18 A2999 RMK AO2

2010/08/08 01:55
KHYW 080155Z AUTO 00000KT 5SM BR CLR 24/24 A2993 RMK AO2

2010/08/08 01:55
KLQK 080155Z AUTO 10SM CLR 25/21 A2998 RMK AO2 T02510211 PNO

2010/08/08 01:55
KLRO 080155Z AUTO 00000KT 5SM BR CLR 24/23 A2992 RMK AO2

2010/08/08 01:55
KLUX 080155Z AUTO 10003KT 10SM BKN100 25/25 A2998 RMK AO2

2010/08/08 01:55
KMNI 080155Z AUTO 00000KT 10SM CLR 26/26 A2992 RMK AO2

2010/08/08 01:55
KRBW 080155Z AUTO 00000KT 10SM CLR 26/26 A2994 RMK AO2

2010/08/08 01:55
KSPL 080155Z AUTO 13010KT CLR 29/26 A2987 RMK AO2 PWINO PNO

2010/08/08 01:55
KTME 080155Z AUTO 15006KT 10SM CLR 28/27 A2988 RMK AO2

2010/08/08 01:55
KTSP 080155Z AUTO 31013KT 10SM CLR 25/05 A2993 RMK AO2

2010/08/08 01:55
KUTA 080155Z AUTO 00000KT 10SM SCT001 28/24 A2989 RMK AO2

2010/08/08 01:55
KX40 080155Z AUTO 00000KT 10SM SCT026 29/26 A2993 RMK AO2 T02890260

2010/08/08 01:53
KTOI 080153Z AUTO 01014G23KT 1 3/4SM +TSRA BR FEW006 BKN034 OVC041 24/23 A2996 RMK AO2 RAB40 SLP139 P0027 T02390228

2010/08/08 01:53
PASC 080153Z 07022G28KT 10SM OVC007 06/04 A2973 RMK AO2 PK WND 07028/0152 SLP067 T00560039

2010/08/08 01:53
K04W 080153Z AUTO 07004KT 10SM -TSRA OVC034 24/22 A2966 RMK AO2 LTG DSNT ALQS T02430222

2010/08/08 01:56
K20V 080156Z AUTO 34011G15KT 10SM SCT075 OVC090 16/07 A3022 RMK AO2

2010/08/08 01:52
K5SM 080152Z AUTO 28003KT M1/4SM FG 09/08 A3044 RMK AO2

2010/08/08 01:54
K7BM 080154Z AUTO 00000KT 10SM SCT070 SCT100 18/06 A3034 RMK AO2 LTG DSNT S

2010/08/08 01:57
KBDU 080157Z AUTO 08004KT 10SM CLR 27/11 A2996 RMK AO2

2010/08/08 01:56
KBMI 080156Z 19007KT 10SM CLR 23/18 A2994 RMK AO2 T02270183 SLP125 $

2010/08/08 01:56
KBOK 080156Z AUTO 30009KT 8SM CLR 21/14 A2986 RMK AO2 T02050138 SLP112

2010/08/08 01:54
KC29 080154Z AUTO 21003KT 10SM CLR 24/19 A2986 RMK AO2 T02400186

2010/08/08 01:57
KCCU 080157Z AUTO 23007KT 10SM SCT045 BKN050 OVC080 12/05 A3052 RMK AO2

2010/08/08 01:55
KCMA 080155Z 27007KT 10SM CLR 19/12 A2984 RMK AO2 SLP112 T01890122

2010/08/08 01:55
KNBG 080155Z 00000KT 10SM FEW060 SCT250 28/24 A2990 RMK AO2 SLP126 T02830244 $

2010/08/08 01:55
KNKX 080155Z 26006KT 10SM FEW020 18/12 A2987 RMK AO2 SLP108 T01780122

2010/08/08 01:55
KVBG 080155Z AUTO 32006KT 10SM CLR 14/11 A2988 RMK AO2 SLP109 T01390111 TSNO CHINO RWY12 VISNO RWY12 $

2010/08/08 01:55
KFTK 080155Z AUTO 09004KT 10SM CLR 25/17 A2997 RMK AO2 SLP142 T02540173 $

2010/08/08 01:55
KGTB 080155Z AUTO 18004KT 10SM CLR 15/12 A2997 RMK AO2 SLP151 T01530121

2010/08/08 01:55
KHIF 080155Z AUTO 12008KT 10SM FEW230 25/06 A2992 RMK AO2 PK WND 13026/0103 CLDS LWR RWY32 SLP026 T02480064

2010/08/08 01:55
KMGE 080155Z 16007KT 10SM BKN080 28/23 A2997 RMK AO2A SLP137 T02850228 $

2010/08/08 01:54
KNFG 080154Z AUTO VRB04KT 10SM CLR 17/13 A2986 RMK AO2 SLP110 T01720128 TSNO $

2010/08/08 01:53
KNQX 080153Z 00000KT 10SM SCT025 SCT041 31/26 A2997 RMK AO2 SLP146 T03060256 $

2010/08/08 01:55
KPOB 080155Z AUTO 00000KT 10SM SCT041 26/24 A2995 RMK AO2 SLP142 T02640242 $

2010/08/08 01:55
KSLI 080155Z AUTO 17008KT 10SM CLR 18/14 A2985 RMK AO2 SLP109 T01800137

2010/08/08 01:55
KSSC 080155Z 00000KT 10SM CLR 28/24 A2992 RMK AO2A RAE0102DZB0120E0129 SLP131 P0000 T02750244 $

2010/08/08 01:55
PGUA 080155Z AUTO 07012G17KT 10SM BKN017 BKN023 BKN055 28/25 A2986 RMK AO2 SLP092 T02830251 VISNO RWY24L $

2010/08/08 01:55
PHHI 080155Z AUTO 10010KT 10SM -DZ SCT032 BKN045 27/19 A3005 RMK AO2 DZB0149 SLP164 P0000 T02740189 $

2010/08/08 01:55
KGTB 080155Z AUTO 18004KT 10SM CLR 15/12 A2997 RMK AO2 SLP151 T01530121

2010/08/08 01:54
KNFG 080154Z AUTO VRB04KT 10SM CLR 17/13 A2986 RMK AO2 SLP110 T01720128 TSNO $

2010/08/08 01:52
KNHK 080152Z AUTO 00000KT 10SM CLR 22/17 A2997 RMK AO2 SLP149 T02170172

2010/08/08 01:53
KNIP 080153Z 25007KT 10SM SCT030 OVC150 25/24 A2993 RMK AO2 RAB0054E20 SLP130 T2 SET P0000 T02500239

2010/08/08 01:53
KNQX 080153Z 00000KT 10SM SCT025 SCT041 31/26 A2997 RMK AO2 SLP146 T03060256 $

2010/08/08 01:55
KPAM 080155Z AUTO 11007KT 9SM -TSRA FEW002 BKN022 OVC036 26/24 A2992 RMK AO2 RAB0131 TSB0132 SLP132 P0028 T02560237 $

2010/08/08 01:55
KPOB 080155Z AUTO 00000KT 10SM SCT041 26/24 A2995 RMK AO2 SLP142 T02640242 $

2010/08/08 01:55
KRCA 080155Z AUTO 01007KT 10SM FEW170 30/10 A2981 RMK AO2 SLP063 T02970102 $

2010/08/08 01:55
KSKA 080155Z AUTO 29015KT 10SM SCT170 25/07 A2977 RMK AO2 SLP069 T02530072

2010/08/08 01:55
KSLI 080155Z AUTO 17008KT 10SM CLR 18/14 A2985 RMK AO2 SLP109 T01800137

2010/08/08 01:55
KSSC 080155Z 00000KT 10SM CLR 28/24 A2992 RMK AO2A RAE0102DZB0120E0129 SLP131 P0000 T02750244 $

2010/08/08 01:55
KTIK 080155Z 14005KT 10SM CLR 30/23 A2984 RMK AO2A SLP089 T03000232

2010/08/08 01:55
KVOK 080155Z 16005KT 10SM SCT033 24/22 A2981 RMK AO2A SLP089 T02390217 $

2010/08/08 01:55
KWRI 080155Z AUTO 24004KT 10SM CLR 23/18 A2997 RMK AO2 RAB0103E0118 SLP148 P0000 T02300180 $

2010/08/08 01:55
KDOV 080155Z AUTO 15005KT 10SM BKN090 24/21 A2997 RMK AO2 SLP151 T02370215

2010/08/08 01:55
KLFI 080155Z 12005KT 10SM CLR 25/22 A2998 RMK AO2A SLP152 T02500222

2010/08/08 01:55
KMCF 080155Z AUTO 24004KT 10SM CLR 29/26 A2994 RMK AO2 SLP141 T02910262

2010/08/08 01:52
KNHK 080152Z AUTO 00000KT 10SM CLR 22/17 A2997 RMK AO2 SLP149 T02170172

2010/08/08 01:53
KNIP 080153Z 25007KT 10SM SCT030 OVC150 25/24 A2993 RMK AO2 RAB0054E20 SLP130 T2 SET P0000 T02500239

2010/08/08 01:53
KNQX 080153Z 00000KT 10SM SCT025 SCT041 31/26 A2997 RMK AO2 SLP146 T03060256 $

2010/08/08 01:55
KPAM 080155Z AUTO 11007KT 9SM -TSRA FEW002 BKN022 OVC036 26/24 A2992 RMK AO2 RAB0131 TSB0132 SLP132 P0028 T02560237 $

2010/08/08 01:55
KPOB 080155Z AUTO 00000KT 10SM SCT041 26/24 A2995 RMK AO2 SLP142 T02640242 $

2010/08/08 01:55
KSSC 080155Z 00000KT 10SM CLR 28/24 A2992 RMK AO2A RAE0102DZB0120E0129 SLP131 P0000 T02750244 $

2010/08/08 01:55
KVPS 080155Z 02002KT 10SM FEW180 BKN250 25/24 A2991 RMK AO2A SLP128 T02490241 $

2010/08/08 01:55
KWRI 080155Z AUTO 24004KT 10SM CLR 23/18 A2997 RMK AO2 RAB0103E0118 SLP148 P0000 T02300180 $

2010/08/08 01:56
KEAU 080156Z AUTO 17008KT 10SM SCT040 26/22 A2972 RMK AO2 SLP057 T02560217

2010/08/08 01:56
KEED 080156Z AUTO 15015KT 10SM FEW095 37/14 A2968 RMK AO2 SLP013 T03670144 TSNO

2010/08/08 01:56
KEKO 080156Z AUTO 33012KT 10SM CLR 30/M02 A2984 RMK AO2 SLP044 T03001022

2010/08/08 01:56
KELZ 080156Z AUTO 26004KT 10SM CLR 16/08 A3007 RMK AO2 SLP179 T01560083

2010/08/08 01:56
KGON 080156Z 00000KT 10SM CLR 20/17 A3000 RMK AO2 SLP158 T02000167

2010/08/08 01:56
KGRD 080156Z AUTO 00000KT 10SM CLR 24/23 A2998 RMK AO2 SLP145 T02440228

2010/08/08 01:56
KHND 080156Z 16016G25KT 10SM CLR 34/11 A2977 RMK AO2 T03380105 LTG DSNT N PK WND 16029/0101 SLP025

2010/08/08 01:56
KHPN 080156Z 00000KT 10SM CLR 21/16 A2999 RMK AO2 SLP149 T02060156

2010/08/08 01:55
KHSA 080155Z 22006KT 10SM VCTS SCT055 BKN075 28/27 A2989

2010/08/08 01:56
KHWV 080156Z AUTO 18006KT 10SM CLR 23/19 A3000 RMK AO2 SLP159 T02280189 PWINO $

2010/08/08 01:56
KHYA 080156Z 20006KT 10SM CLR 22/19 A3002 RMK AO2 SLP166 T02170189

2010/08/08 01:56
KIGX 080156Z AUTO 00000KT 9SM CLR 26/20 A2999 RMK AO2 SLP148 T02560200

2010/08/08 01:56
PASM 080156Z AUTO 21009KT 5SM FEW016 BKN025 OVC060 13/10 A2966 RMK AO1 PNO

2010/08/08 01:56
PASX 080156Z AUTO 19006KT 10SM BKN014 OVC023 13/11 A2975 RMK AO1 PNO

2010/08/08 01:56
PATG 080156Z AUTO 20006KT 10SM OVC027 12/09 A2975 RMK AO1 PNO

2010/08/08 01:56
PAUN 080156Z AUTO 24011KT 10SM FEW012 SCT018 BKN034 15/10 A2960 RMK AO1 PNO

2010/08/08 01:56
PAVD 080156Z 28011KT 10SM FEW030 SCT040 OVC060 14/08 A2978 RMK AO1 0147Z WEA

2010/08/08 01:56
PAWG 080156Z 00000KT 10SM FEW005 OVC024 12/11 A2988 RMK AO1 WEA

2010/08/08 01:56
PAWS 080156Z AUTO 22006KT 10SM FEW009 BKN029 OVC048 12/11 A2974 RMK AO1 PNO

2010/08/08 01:56
PAZK 080156Z AUTO 07007KT 10SM BKN039 OVC060 11/07 A2970 RMK AO1 PNO

2010/08/08 01:56
KISP 080156Z 18004KT 10SM FEW250 23/17 A2998 RMK AO2 SLP151 T02280172

2010/08/08 01:56
KITH 080156Z 06004KT 10SM CLR 16/12 A3003 RMK AO2 T01550122 SLP168

2010/08/08 01:56
KJMS 080156Z AUTO 00000KT 10SM CLR 27/22 A2964 RMK AO2 SLP027 T02670217

2010/08/08 01:56
KJXN 080156Z 20003KT 10SM CLR 21/17 A2994 RMK AO2 SLP135 T02110167

2010/08/08 01:56
KLAS 080156Z 17016G23KT 10SM SCT120 SCT150 35/10 A2969 RMK AO2 PK WND 16029/0104 SLP024 CB DSNT N AND W SH DSNT N AND W T03500100

2010/08/08 01:55
KLCK 080155Z AUTO 14004KT 10SM CLR 21/17 A2998 RMK AO2 T02140170

2010/08/08 01:56
KLNR 080156Z AUTO 16004KT 10SM OVC034 25/19 A2984 RMK AO2 SLP097 T02500189

2010/08/08 01:56
KM19 080156Z AUTO 09004KT 10SM CLR 27/23 A2989 RMK AO2 T02720233 SLP119

2010/08/08 01:56
KMDT 080156Z 00000KT 10SM SCT075 BKN100 25/18 A2997 RMK AO2 SLP146 T02500183

2010/08/08 01:56
KMQY 080156Z AUTO 09005KT 10SM CLR 28/19 A2995 RMK AO2 T02770194 SLP130 $

2010/08/08 01:56
KMRH 080156Z AUTO 04003KT 8SM CLR 26/24 A2995 RMK AO2 SLP141 T02610239 TSNO

2010/08/08 01:56
KOWB 080156Z 06004KT 10SM CLR 27/18 A2995 RMK AO2 T02660177 SLP136

2010/08/08 01:56
KRDM 080156Z 35011KT 10SM CLR 25/08 A2987 RMK AO2 SLP096 T02500083 $

2010/08/08 01:56
KSBP 080156Z AUTO 31011KT 10SM CLR 17/11 A2985 RMK AO2 SLP109 T01670111 TSNO

2010/08/08 01:56
KSGH 080156Z AUTO 14003KT 8SM CLR 19/18 A3000 RMK AO2 T01940183 SLP153 $

2010/08/08 01:58
KSGJ 080158Z AUTO 27006KT 10SM BKN007 BKN019 26/24 A2993 RMK AO2 CIG 004V009 SLP135 T02560244

2010/08/08 01:56
KSLE 080156Z 31010KT 10SM BKN100 23/14 A2987 RMK AO2 RAE06 SLP115 P0000 T02330139

2010/08/08 01:55
KSME 080155Z AUTO 00000KT 7SM 22/20 A2997 RMK AO2

2010/08/08 01:56
KSRC 080156Z AUTO 09003KT BKN037 29/24 A2988 RMK AO2 TSNO T02940244 SLP120 $

2010/08/08 01:56
KTPH 080156Z AUTO 18015KT 10SM CLR 27/M14 A2993 RMK AO2 SLP066 T02721144

2010/08/08 01:56
KTZR 080156Z AUTO 00000KT 10SM CLR 19/16 A2999 RMK AO2

2010/08/08 01:56
KUKI 080156Z AUTO 34010KT 10SM CLR 29/11 A2974 RMK AO2 SLP063 T02890106

2010/08/08 01:54
KUNI 080154Z AUTO 00000KT 10SM CLR 22/16 A2999 RMK AO2

2010/08/08 01:56
KWJF 080156Z 23018G23KT 10SM CLR 27/05 A2982 RMK AO2 PK WND 25026/0119 SLP081 T02720050

2010/08/08 01:55
KBAB 080155Z AUTO 18011KT 10SM CLR 31/15 A2968 RMK AO2 SLP052 T03090149 $

2010/08/08 01:55
KFAF 080155Z AUTO 10003KT 10SM CLR 26/20 A2997 RMK AO2 SLP151 T02590200 $

2010/08/08 01:55
KFRI 080155Z AUTO 15009KT 10SM CLR 30/22 A2979 RMK AO2 SLP075 T03040215

2010/08/08 01:55
KFSI 080155Z AUTO 17007KT 10SM CLR 33/21 A2981 RMK AO2 SLP072 T03290214

2010/08/08 01:55
KLFI 080155Z 12005KT 10SM CLR 25/22 A2998 RMK AO2A SLP152 T02500222

2010/08/08 01:55
KLTS 080155Z AUTO 14008KT 10SM CLR 32/22 A2982 RMK AO2 SLP077 T03190224 $

2010/08/08 01:55
KMCF 080155Z AUTO 24004KT 10SM CLR 29/26 A2994 RMK AO2 SLP141 T02910262

2010/08/08 01:55
KPAM 080155Z AUTO 11007KT 9SM -TSRA FEW002 BKN022 OVC036 26/24 A2992 RMK AO2 RAB0131 TSB0132 SLP132 P0028 T02560237 $

2010/08/08 01:55
KRCA 080155Z AUTO 01007KT 10SM FEW170 30/10 A2981 RMK AO2 SLP063 T02970102 $

2010/08/08 01:55
KSKA 080155Z AUTO 29015KT 10SM SCT170 25/07 A2977 RMK AO2 SLP069 T02530072

2010/08/08 01:55
KVPS 080155Z 02002KT 10SM FEW180 BKN250 25/24 A2991 RMK AO2A SLP128 T02490241 $

2010/08/08 01:55
MHSC 080155Z AUTO 12003KT 9999 FEW065 23/22 A2999 RMK AO2 RAE0102DZB0102E0106 CLDS LWR RWY17 SLP120 P0000 T02260221 $

2010/08/08 01:55
PAED 080155Z AUTO 19011KT 10SM -RA BKN009 BKN013 OVC040 13/11 A2975 RMK AO2 CIG 007V011 BKN013 V OVC SLP074 P0003 T01250110

2010/08/08 01:55
KBIX 080155Z AUTO 25006KT 10SM BKN049 32/25 A2989 RMK AO2 LTG DSNT N SLP124 T03170249 $

2010/08/08 01:55
KCEF 080155Z AUTO 01004KT 10SM CLR 14/12 A3000 RMK AO2 SLP159 T01420123

2010/08/08 01:55
KFBG 080155Z 09003KT 10SM SCT041 28/22 A2995 RMK AO2A RAB0131E0141DZB0144E0148 SLP140 P0000 T02820224 $

2010/08/08 01:55
KGUS 080155Z AUTO 18003KT 10SM CLR 23/20 A2996 RMK AO2 SLP139 T02270201

2010/08/08 01:55
KLRF 080155Z AUTO 11003KT 10SM CLR 28/25 A2987 RMK AO2 SLP111 T02800251

2010/08/08 01:55
KMMT 080155Z AUTO 00000KT 10SM R32/5500VP6000FT CLR 26/25 A2994 RMK AO2 SLP137 T02610247

2010/08/08 01:55
KMXF 080155Z AUTO 19006KT 10SM SCT060 BKN075 30/24 A2990 RMK AO2 LTG DSNT SE AND W SLP123 T02990240

2010/08/08 01:52
KNRB 080152Z 26003KT 10SM FEW030 OVC150 26/23 A2992 RMK AO2 RAE28 SLP132 T2 SET P0000 T02610233

2010/08/08 01:55
KOZR 080155Z AUTO 07004KT 10SM SCT130 BKN170 25/25 A2993 RMK AO2 SLP133 T02500250

2010/08/08 01:56
PMDY 080156Z AUTO 11010KT 10SM FEW027 29/22 A3019 RMK AO2 TSNO T02940216 SLP529

2010/08/08 01:54
PWAK 080154Z 13010KT 8SM HZ FEW032 30/24 A2992 RMK AO2A

2010/08/08 01:55
KNYL 080155Z 17010KT 10SM FEW100 37/07 A2965 RMK AO2 SLP035 T03670072

2010/08/08 01:56
KPRN 080156Z AUTO 00000KT 10SM -RA FEW002 27/24 A2992 RMK AO2 RAE19B24 TSE51 SLP126 P0002 T02670244 $

2010/08/08 01:56
KABH 080156Z AUTO 21007KT 10SM CLR 21/13 A3003 RMK AO2 TSE33RAE0057 SLP091 T02110128 $

2010/08/08 01:56
KNUQ 080156Z 34011KT 10SM CLR 19/13 A2981 RMK AO2 SLP097 T01890133

2010/08/08 01:56
KNBT 080156Z AUTO 08007KT 6SM HZ CLR 28/24 A2995 RMK AO2 SLP145 T02830244 TSNO

2010/08/08 01:56
KNQI 080156Z AUTO 13011KT 10SM CLR 30/24 A2985 RMK AO2 SLP105 T03000239

2010/08/08 01:56
KHLR 080156Z AUTO 14007KT 10SM CLR 33/19 A2985 RMK AO2 SLP097 T03330194 $

2010/08/08 01:56
KNPA 080156Z AUTO 00000KT 10SM CLR 27/23 A2990 RMK AO2 TSE31 SLP126 T02670233

2010/08/08 01:56
KNGP 080156Z AUTO 20008KT 160V230 10SM CLR 28/26 A2986 RMK AO2 SLP109 T02830256 VISNO $

2010/08/08 01:56
KNYG 080156Z AUTO 31006KT 10SM CLR 22/18 A2998 RMK AO2 SLP154 T02220183 $

2010/08/08 01:56
KNDZ 080156Z AUTO 00000KT 4SM HZ BKN110 27/23 A2991 RMK AO2 TSE56 SLP111 P0006 T02670233 PWINO $

2010/08/08 01:55
KADW 080155Z AUTO 16005KT 10SM CLR 21/17 A2998 RMK AO2 SLP153 T02130175 $

2010/08/08 01:55
KBAB 080155Z AUTO 18011KT 10SM CLR 31/15 A2968 RMK AO2 SLP052 T03090149 $

2010/08/08 01:55
KCOF 080155Z 20004KT 10SM CLR 27/24 A2995 RMK AO2A SLP144 T02690244

2010/08/08 01:55
KCVS 080155Z AUTO 15007KT 10SM CLR 26/17 A2995 RMK AO2 SLP094 T02600171 $

2010/08/08 01:55
KEND 080155Z AUTO 13009KT 10SM CLR 32/21 A2981 RMK AO2 SLP076 T03200212 $

2010/08/08 01:55
KEAT 080155Z AUTO 30012KT 10SM -RA SCT022 SCT060 BKN095 21/12 A2980 RMK AO2 RAB18 SLP084 P0000 T02110122

2010/08/08 01:50
KLAL 080150Z VRB03KT 7SM FEW025 BKN150 OVC250 28/26 A2994 RMK LAST

2010/08/08 01:55
KLLJ 080155Z AUTO 27009KT 10SM CLR 26/01 A2985 RMK AO2 SLP049 T02560011 $

2010/08/08 01:53
KOVE 080153Z AUTO 16010KT 10SM CLR 33/11 A2969 RMK AO2 SLP054 T03280106 TSNO $

2010/08/08 01:53
KSGR 080153Z 17006KT 10SM CLR 29/24 A2986 RMK AO2 SLP120 T02890239

2010/08/08 01:45
KUES 080145Z 21003KT 10SM SKC 22/17 A2988

2010/08/08 01:50
KWYS 080150Z AUTO 00000KT 10SM FEW100 13/09 A3007 RMK AO2

2010/08/08 01:54
PAHN 080154Z AUTO 12008KT 10SM FEW018 OVC038 14/11 A2980 RMK AO2 SLP092 T01440106 TSNO

2010/08/08 01:54
PAKN 080154Z 21007KT 10SM BKN014 OVC050 12/09 A2977 RMK AO2 SLP080 T01170094

2010/08/08 01:48
KIWA 080148Z 24004KT 45SM FEW080 SCT120 BKN200 37/13 A2978

2010/08/08 01:53
KRTN 080153Z AUTO 34006KT 10SM CLR 23/14 A3004 RMK AO2 SLP080 T02280139 TSNO

2010/08/08 01:56
KSDF 080156Z 08004KT 10SM CLR 27/14 A2995 RMK AO2 SLP136 T02720139 $

2010/08/08 01:55
KTTS 080155Z 20003KT 10SM FEW080 BKN170 OVC200 27/26 A2995 RMK SLP142 1AC 5AC 2CS /8/

2010/08/08 01:54
KBOS 080154Z 29003KT 10SM FEW065 SCT250 24/06 A3000 RMK AO2 SLP157 T02390061

2010/08/08 01:54
KPHL 080154Z 00000KT 10SM FEW250 26/17 A2998 RMK AO2 SLP151 T02560167 $

2010/08/08 01:55
KFMH 080155Z AUTO 19005KT 10SM CLR 18/16 A3003 RMK AO2

2010/08/08 01:55
KTTS 080155Z 20003KT 10SM FEW080 BKN170 OVC200 27/26 A2995 RMK SLP142 1AC 5AC 2CS /8/

2010/08/08 01:55
K0A9 080155Z AUTO 00000KT 10SM CLR 19/16 A3002 RMK

2010/08/08 01:55
KARW 080155Z AUTO 00000KT 7SM CLR 26/23 A2992 RMK AO2 LTG DSNT SE

2010/08/08 01:55
KBDN 080155Z AUTO 34010KT 10SM CLR 24/07 A2992 RMK AO2

2010/08/08 01:55
KBKN 080155Z AUTO 12009KT 10SM CLR 30/23 A2980 RMK AO2

2010/08/08 01:50
KEFD 080150Z 16005KT 10SM FEW050 SCT250 29/25 A2989

2010/08/08 01:55
KEIK 080155Z AUTO 05003KT 10SM CLR 25/09 A2995 RMK AO2

2010/08/08 01:55
KHVS 080155Z AUTO 04003KT 10SM CLR 26/24 A2995 RMK AO2

2010/08/08 01:55
KIFP 080155Z AUTO 18017G22KT 10SM FEW100 37/13 A2965 RMK AO2

2010/08/08 01:55
KMKS 080155Z AUTO 00000KT 5SM BR CLR 25/24 A2992 RMK AO2 TSNO

2010/08/08 01:55
KNQA 080155Z AUTO 00000KT 10SM CLR 27/24 A2990 RMK

2010/08/08 01:55
KO22 080155Z AUTO 21005KT 10SM CLR 29/07 A2983 RMK AO1

2010/08/08 01:55
KPVF 080155Z AUTO 22005KT 10SM CLR 26/07 A2986 RMK AO1

2010/08/08 01:55
KRCE 080155Z AUTO 14008KT 10SM CLR 31/21 A2984 RMK AO2

2010/08/08 01:50
KSAW 080150Z 35005KT 10SM SCT060 SCT120 19/14 A2976

2010/08/08 01:55
KVQQ 080155Z AUTO 21003KT 9SM CLR 24/24 A2993 RMK AO2

2010/08/08 01:56
KSDF 080156Z 08004KT 10SM CLR 27/14 A2995 RMK AO2 SLP136 T02720139 $

2010/08/08 01:56
K1M4 080156Z AUTO 20003KT 10SM SCT080 27/24 A2995 RMK AO2 T02720238 SLP138

2010/08/08 01:55
K21D 080155Z AUTO 19008KT 10SM CLR 26/22 A2969 RMK AO2 LTG DSNT NW

2010/08/08 01:56
KAND 080156Z AUTO 00000KT 10SM CLR 27/21 A2997 RMK AO2 SLP136 T02670206

2010/08/08 01:56
KART 080156Z AUTO 17004KT 10SM CLR 17/12 A2997 RMK AO2 SLP144 T01670122

2010/08/08 01:56
KBED 080156Z 00000KT 10SM CLR 16/10 A2999 RMK AO2 SLP167 T01560100

2010/08/08 01:54
KBJI 080154Z AUTO 11005KT 10SM CLR 23/19 A2966 RMK AO2 LTG DSNT S AND SW

2010/08/08 01:56
KBJJ 080156Z AUTO 00000KT 10SM CLR 18/17 A3002 RMK AO2 SLP159 T01830167

2010/08/08 01:55
KBUU 080155Z AUTO 21005KT 10SM CLR 21/19 A2988 RMK AO2 T02120185

2010/08/08 01:56
KCEC 080156Z AUTO 29004KT 10SM OVC005 14/12 A2991 RMK AO2 SLP130 T01390122

2010/08/08 01:56
KCTB 080156Z AUTO 25014KT 10SM CLR 23/06 A2977 RMK AO2 SLP049 T02330061 PWINO

2010/08/08 01:56
KCXY 080156Z AUTO 00000KT 10SM BKN070 BKN095 23/17 A2998 RMK AO2 SLP149 T02330172

2010/08/08 01:53
KD39 080153Z AUTO 15004KT 10SM VCTS CLR 28/24 A2966 RMK AO2 LTG DSNT NW THRU NE T02750243

2010/08/08 01:56
KDAY 080156Z 00000KT 10SM CLR 24/13 A3001 RMK AO2 SLP153 T02390133

2010/08/08 01:56
KDIK 080156Z AUTO 34004KT 10SM CLR 27/14 A2970 RMK AO2 SLP039 T02670144

2010/08/08 01:56
KDUG 080156Z AUTO 24007KT 10SM BKN120 24/18 A3000 RMK AO2 LTG DSNT NW RAE12 SLP095 P0000 T02440183

2010/08/08 01:56
KDUJ 080156Z AUTO 00000KT 10SM CLR 18/11 A3005 RMK AO2 SLP167 T01780111

2010/08/08 02:00
KVTP 080200Z AUTO 30007KT 10SM VCTS CLR 12/06 A3037 RMK AO2 LTG DSNT N SE AND S

2010/08/08 01:55
KFAF 080155Z AUTO 10003KT 10SM CLR 26/20 A2997 RMK AO2 SLP151 T02590200 $

2010/08/08 01:55
KFCS 080155Z AUTO 24005KT 10SM CLR 22/13 A3002 RMK AO2 SLP075 T02200132

2010/08/08 01:55
KFRI 080155Z AUTO 15009KT 10SM CLR 30/22 A2979 RMK AO2 SLP075 T03040215

2010/08/08 01:55
KFSI 080155Z AUTO 17007KT 10SM CLR 33/21 A2981 RMK AO2 SLP072 T03290214

2010/08/08 01:55
KFTK 080155Z AUTO 09004KT 10SM CLR 25/17 A2997 RMK AO2 SLP142 T02540173 $

2010/08/08 01:55
KLFI 080155Z 12005KT 10SM CLR 25/22 A2998 RMK AO2A SLP152 T02500222

2010/08/08 01:55
KLTS 080155Z AUTO 14008KT 10SM CLR 32/22 A2982 RMK AO2 SLP077 T03190224 $

2010/08/08 01:55
KMCF 080155Z AUTO 24004KT 10SM CLR 29/26 A2994 RMK AO2 SLP141 T02910262

2010/08/08 01:55
KMIB 080155Z AUTO 12004KT 10SM CLR 25/19 A2964 RMK AO2 SLP030 T02540193

2010/08/08 01:56
K79J 080156Z AUTO 00000KT 10SM FEW048 28/23 A2992 RMK AO2 SLP126 T02780233 TSNO PNO $

2010/08/08 01:55
PACZ 080155Z AUTO 23007KT 7SM 10/09 A2963 RMK AO1 T01000089

2010/08/08 01:55
PALU 080155Z AUTO 07011KT 10SM 11/11 A2964 RMK AO1 T01060106

2010/08/08 01:55
PATC 080155Z AUTO 01014KT 10SM OVC008 09/07 A2963 RMK AO1 T00940073

2010/08/08 01:55
PAIM 080155Z AUTO 21006KT 10SM SCT023 SCT065 16/12 A2961 RMK AO1 T01560117

2010/08/08 01:55
PATL 080155Z AUTO 21006KT 10SM SCT015 BKN024 OVC055 12/09 A2969 RMK AO1 T01220095

2010/08/08 01:55
PAEH 080155Z AUTO 17009KT 10SM BKN008 BKN013 OVC090 09/08 A2974 RMK AO1 T00940078

2010/08/08 01:55
PASV 080155Z AUTO 17004KT 10SM BKN014 BKN023 OVC028 12/09 A2973 RMK AO1 T01170095

2010/08/08 01:52
KNZY 080152Z 29007KT 10SM SCT018 20/12 A2986 RMK AO2 SLP111 T02000117 $

2010/08/08 01:49
PANW 080149Z AUTO 21011KT 10SM FEW017 SCT026 BKN032 13/10 A2976 RMK AO2 PWINO TSNO BKN V SCT $

2010/08/08 01:56
KAXN 080156Z AUTO 15003G16KT 3SM -TSRA BR SCT010 BKN026 BKN039 21/19 A2968 RMK AO2 LTG DSNT N-E PRESFR P0000

2010/08/08 01:56
KRNT 080156Z 14003KT 4SM -RA BR FEW007 OVC023 17/17 A2989 RMK AO2 P0000

2010/08/08 01:55
KY51 080155Z AUTO 18005KT 10SM SCT024 24/22 A2982 RMK AO1 T02380215

2010/08/08 01:56
PAAK 080156Z AUTO 19021G31KT 6SM BKN015 BKN021 OVC034 13/10 A2946 RMK AO1 PNO

2010/08/08 01:56
PACM 080156Z AUTO 00000KT 9SM FEW010 OVC015 12/11 A2966 RMK AO2 TSNO T01220105 RAE0057 SLP038 $

2010/08/08 01:56
PAHP 080156Z AUTO 20006KT 10SM BKN008 OVC036 11/08 A2963 RMK AO1 PNO TSNO

2010/08/08 01:56
PAAK 080156Z AUTO 19021G31KT 6SM BKN015 BKN021 OVC034 13/10 A2946 RMK AO1 PNO

2010/08/08 01:56
PAAP 080156Z 00000KT 7SM PRFG FEW000 SCT010 BKN020 15/11 A2987 RMK PRFG FEW000 S-SW LAST NO SPECI

2010/08/08 01:56
PABL 080156Z AUTO 31008KT 10SM OVC075 14/10 A2960 RMK AO1 PNO

2010/08/08 01:56
PABV 080156Z AUTO 21005KT 10SM OVC034 13/10 A2974 RMK AO1 PNO

2010/08/08 01:56
PACM 080156Z AUTO 00000KT 9SM FEW010 OVC015 12/11 A2966 RMK AO2 TSNO T01220105 RAE0057 SLP038 $

2010/08/08 01:56
PAEM 080156Z AUTO 25007KT 10SM FEW019 BKN028 OVC040 13/09 A2960 RMK AO1 PNO

2010/08/08 01:56
PAFE 080156Z AUTO 12004KT 9SM FEW008 SCT024 OVC034 13/11 A2988 RMK AO1 PNO

2010/08/08 01:56
PAFM 080156Z AUTO 00000KT 10SM OVC033 14/09 A2958 RMK AO1 PNO

2010/08/08 01:56
PAGL 080156Z AUTO 20004KT 10SM SCT024 BKN075 OVC120 16/12 A2962 RMK AO1 PNO

2010/08/08 01:56
PAGM 080156Z AUTO 04015KT 10SM OVC008 09/06 A2963 RMK AO1

2010/08/08 01:56
PAGS 080156Z AUTO 22004KT 10SM FEW027 FEW042 OVC070 13/11 A2983 RMK AO1 PNO

2010/08/08 01:56
PAHP 080156Z AUTO 20006KT 10SM BKN008 OVC036 11/08 A2963 RMK AO1 PNO TSNO

2010/08/08 01:56
PAHY 080156Z AUTO 00000KT 7SM FEW018 OVC023 13/11 A2990 RMK AO1 PNO

2010/08/08 01:56
PAII 080156Z AUTO 26008KT 10SM BKN008 OVC018 11/08 A2985 RMK AO1 PNO

2010/08/08 01:56
PAIN 080156Z AUTO 18003KT 10SM OVC065 16/07 A2966 RMK AO1 PNO

2010/08/08 01:56
PAJC 080156Z AUTO 01003KT 10SM OVC004 16/11 A2982 RMK AO1 PNO

2010/08/08 01:56
PAKK 080156Z AUTO 20005KT 10SM SCT015 BKN042 OVC085 15/12 A2956 RMK AO1 PNO

2010/08/08 01:56
PAKP 080156Z AUTO 03007KT 10SM OVC046 09/06 A2957 RMK AO1

2010/08/08 01:56
PAMD 080156Z AUTO 16005KT 10SM SCT009 BKN075 OVC090 12/10 A2980 RMK AO1 PNO

2010/08/08 01:56
PAMH 080156Z 22006KT 10SM OVC100 15/08 A2965 RMK AO1 PNO

2010/08/08 01:56
PAMM 080156Z AUTO 20003KT 10SM BKN024 OVC030 14/11 A2991 RMK AO1 PNO

2010/08/08 01:56
PAMY 080156Z 05005KT 10SM FEW008 BKN017 OVC032 12/09 A2965 RMK AO1

2010/08/08 01:56
PANI 080156Z AUTO 23006KT 10SM FEW020 SCT028 BKN043 12/10 A2971 RMK AO1 PNO

2010/08/08 01:56
PANV 080156Z AUTO 20005KT 5SM FEW009 SCT017 BKN022 13/11 A2965 RMK AO1 PNO

2010/08/08 01:56
PAOU 080156Z AUTO 00000KT 6SM BR SCT016 BKN021 BKN055 11/10 A2980 RMK AO2 PWINO TSNO T01110100 SLP096 $

2010/08/08 01:56
PAPG 080156Z 00000KT 7SM FEW005 BKN026 OVC035 12/11 A2986 RMK AO1 WEA

2010/08/08 01:56
PAPH 080156Z AUTO 25005KT 10SM OVC023 13/09 A2984 RMK AO1 PNO

2010/08/08 01:56
PASA 080156Z AUTO 05007KT 2SM OVC003 09/07 A2965 RMK AO1 PNO

2010/08/08 01:56
PASD 080156Z 15008KT 10SM FEW010 SCT021 BKN046 13/11 A2984 RMK AO1 WEA

2010/08/08 01:56
PASH 080156Z AUTO 33007KT 10SM OVC004 08/07 A2965 RMK AO1 PNO

2010/08/08 01:56
PASK 080156Z AUTO 27009KT 10SM FEW013 SCT050 OVC065 16/11 A2956 RMK AO1 PNO

2010/08/08 01:56
PASL 080156Z AUTO 00000KT 10SM SCT026 BKN033 OVC047 13/10 A2974 RMK AO1 PNO

2010/08/08 01:56
KNSE 080156Z AUTO 00000KT 4SM -RA BR SCT100 SCT120 26/24 A2991 RMK AO2 TSE53 SLP111 P0001 T02610239 $

2010/08/08 01:55
KFMH 080155Z AUTO 19005KT 10SM CLR 18/16 A3003 RMK AO2

2010/08/08 01:55
KHFF 080155Z AUTO 00000KT 10SM FEW041 27/22 A2998 RMK AO2 SLP147 T02670215 $

2010/08/08 02:02
KCPW 080202Z AUTO 22015G36KT 181V241 4SM +TSRA SCT003 BKN045 OVC110 09/06 A3050 RMK AO2 LTG DSNT E SE AND NW

2010/08/08 01:55
KANJ 080155Z AUTO 16003KT 10SM SCT047 BKN080 OVC095 19/15 A2981 RMK AO2 SLP091 T01940150

2010/08/08 01:56
KABQ 080156Z 31007KT 10SM FEW065 SCT100 SCT200 27/11 A3004 RMK AO2 SLP079 OCNL LTGCG DSNT SE SHRA DSNT SE CB DSNT SE AND NW-N T02670106

2010/08/08 01:55
KHON 080155Z AUTO 25003KT 10SM CLR 29/22 A2962 RMK AO2 SLP017 T02940217 TSNO

2010/08/08 01:55
KPHP 080155Z AUTO 00000KT 10SM CLR 28/17 A2972 RMK AO2 SLP039 T02780172 TSNO

2010/08/08 01:56
KJAX 080156Z 00000KT 10SM FEW005 SCT032 OVC150 24/23 A2992 RMK AO2 RAE17 SLP132 P0001 T02440233

2010/08/08 01:55
KAAT 080155Z AUTO 33011KT 10SM CLR 28/04 A2986 RMK AO2 SLP069 T02830039 TSNO

2010/08/08 01:53
KDAB 080153Z 00000KT 10SM -RA BKN030 BKN140 OVC200 26/24 A2993 RMK AO2 RAB21E29B53 SLP135 PCPN VRY LGT P0000 T02610244

2010/08/08 01:53
KSAV 080153Z 25003KT 10SM FEW030 SCT070 27/24 A2992 RMK AO2 SLP132 T02720244

2010/08/08 01:54
KSYR 080154Z 00000KT 10SM SCT250 17/13 A2998 RMK AO2 SLP149 T01670133

2010/08/08 01:56
KMOB 080156Z 15004KT 10SM FEW050 SCT120 BKN200 28/23 A2992 RMK AO2 SLP129 T02830233

2010/08/08 01:55
KSMS 080155Z AUTO 00000KT 2 1/2SM BR CLR 25/25 A2994 RMK AO2

2010/08/08 01:56
KCAE 080156Z 00000KT 7SM CLR 28/24 A2994 RMK AO2 SLP134 T02780244

2010/08/08 01:55
KCAO 080155Z AUTO 17011KT 10SM CLR 29/14 A2997 RMK AO2 SLP068 T02940139 TSNO

2010/08/08 01:56
KBZN 080156Z 15008KT 10SM CLR 23/07 A2986 RMK AO2 SLP071 T02330067

2010/08/08 01:55
KDVK 080155Z AUTO 00000KT 10SM CLR 22/17 A2999 RMK AO1

2010/08/08 01:56
KINW 080156Z AUTO 10SM BKN110 17/14 A3012 RMK AO2 SLP142 T01720144 $

2010/08/08 01:56
KOFK 080156Z AUTO 18007KT 10SM CLR 28/22 A2974 RMK AO2 SLP055 T02780222

2010/08/08 01:56
KSFO 080156Z 28014KT 10SM FEW005 16/11 A2981 RMK AO2 SLP095 T01610106

2010/08/08 01:56
TJSJ 080156Z 08010KT 10SM SCT026 28/23 A3000 RMK AO2 SLP158 T02830233

2010/08/08 01:56
PADK 080156Z 24022G28KT 10SM BKN007 OVC011 12/11 A2936 RMK AO1 PNO

2010/08/08 01:56
KGNA 080156Z AUTO 03003KT 18/14 A2974 RMK AO2 SLP066 T01830139 PWINO TSNO

2010/08/08 01:56
K8D3 080156Z AUTO 24004KT 27/23 A2960 RMK AO2 SLP005 T02670233 PWINO TSNO

2010/08/08 01:56
K2WX 080156Z AUTO 32007KT 27/12 A2971 RMK AO1 SLP034 T02670122

2010/08/08 01:50
OAKB 080150Z VRB02KT 7000 FEW040 SCT090 20/19 Q1013 TEMPO 5000 BR RMK WHT WHT

2010/08/08 01:56
KGFA 080156Z AUTO 25004KT 10SM CLR 28/03 A2973 RMK AO2 SLP059 T02830033 $ 

2010/08/08 01:56
KNUW 080156Z 14006KT 10SM -RA SCT008 OVC014 18/16 A2989 RMK AO2 SLP124 P0000 T01760163 $ 

2010/08/08 01:56
KNXP 080156Z AUTO 22012KT CLR 33/04 A2982 RMK AO2 SLP057 T03330039 $ 

2010/08/08 01:56
KMHS 080156Z AUTO 01004KT 10SM CLR 27/06 A2985 RMK AO2 SLP094 T02670061 TSNO 

2010/08/08 01:56
PASY 080156Z AUTO 25029G33KT 5SM BR OVC003 10/10 A2902 RMK AO2 PK WND 25034/0120 SLP827 T01000100 TSNO PNO $ 

2010/08/08 01:56
KFLG 080156Z 00000KT 10SM OVC110 16/13 A3021 RMK AO2 SLP144 T01560133 

2010/08/08 01:50
EBAW 080150Z AUTO 26006KT CAVOK 16/14 Q1016

2010/08/08 01:50
EBBR 080150Z 26003KT 230V290 9999 BKN047 16/14 Q1016 NOSIG

2010/08/08 01:50
EBCI 080150Z 26005KT 9999 FEW011 SCT033 14/12 Q1016 NOSIG

2010/08/08 01:50
EBLG 080150Z 31003KT 280V350 9999 BKN033 15/14 Q1016 TEMPO 5000 -SHRA BR BKN012

2010/08/08 01:50
EBOS 080150Z 23005KT 8000 FEW009 SCT014 16/13 Q1016 TEMPO BKN009

2010/08/08 01:50
ELLX 080150Z AUTO VRB04KT 9999 NDV 17/12 Q1016

2010/08/08 01:50
LOWG 080150Z VRB01KT 0350 R17/0550N R35/0650N FG VV002 15/15 Q1018 NOSIG

2010/08/08 01:50
LOWI 080150Z VRB01KT 9999 FEW009 SCT035 11/10 Q1021 NOSIG

2010/08/08 01:50
LOWK 080150Z 30003KT 9999 FEW007 BKN012 15/14 Q1019

2010/08/08 01:50
LOWL 080150Z AUTO 28003KT 250V310 6000 BR FEW110 13/13 Q1018

2010/08/08 01:50
LOWS 080150Z 17007KT 9999 FEW060 13/11 Q1019

2010/08/08 01:50
LOWW 080150Z 26006KT 9999 FEW014 SCT030 BKN055 16/14 Q1016 NOSIG

2010/08/08 01:50
EFIV 080150Z AUTO 22003KT CAVOK 13/12 Q1018

2010/08/08 01:50
EFKE 080150Z AUTO 01003KT CAVOK 17/16 Q1016

2010/08/08 01:50
LGAD 080150Z 00000KT CAVOK 20/19 Q1013

2010/08/08 01:50
LGAL 080150Z 03004KT CAVOK 22/19 Q1010

2010/08/08 01:50
LGAV 080150Z 28002KT CAVOK 22/17 Q1010 NOSIG

2010/08/08 01:50
LGEL 080150Z 33008KT CAVOK 26/15 Q1009

2010/08/08 01:50
LGIR 080150Z 19004KT CAVOK 23/19 Q1011 NOSIG

2010/08/08 01:50
LGKO 080150Z 30006KT 9999 FEW010 24/22 Q1009

2010/08/08 01:50
LGKR 080150Z 00000KT CAVOK 20/17 Q1012 NOSIG

2010/08/08 01:50
LGKV 080150Z 00000KT CAVOK 21/19 Q1010

2010/08/08 01:50
LGLM 080150Z 00000KT 9999 FEW015 22/20 Q1009

2010/08/08 01:50
LGMT 080150Z 24004KT CAVOK 26/19 Q1010

2010/08/08 01:50
LGRP 080150Z 26012KT 9000 FEW010 26/24 Q1008

2010/08/08 01:50
LGSA 080150Z 28015KT CAVOK 24/17 Q1010

2010/08/08 01:50
LGSR 080150Z 25008KT 9999 SCT018 25/21 Q1008 NOSIG

2010/08/08 01:50
LGTS 080150Z 00000KT 9999 FEW015 23/20 Q1011 NOSIG

2010/08/08 01:50
LGPZ 080150Z 00000KT CAVOK 21/18 Q1013 NOSIG

2010/08/08 01:50
LGRX 080150Z 00000KT CAVOK 20/18 Q1012 NOSIG

2010/08/08 01:50
LGZA 080150Z 00000KT CAVOK 19/14 Q1012

2010/08/08 01:45
LIBR 080145Z 34009KT CAVOK 23/19 Q1016 NOSIG

2010/08/08 01:45
LIEE 080145Z 31004KT CAVOK 17/12 Q1017 NOSIG

2010/08/08 01:50
LIBD 080150Z 24004KT CAVOK 19/17 Q1017

2010/08/08 01:50
LICC 080150Z VRB03KT CAVOK 20/17 Q1015

2010/08/08 01:50
LICJ 080150Z 08011KT 9999 FEW030 24/18 Q1016

2010/08/08 01:50
LIEA 080150Z 02001KT CAVOK 15/15 Q1018

2010/08/08 01:50
LIEO 080150Z 23005KT CAVOK 17/14 Q1018

2010/08/08 01:50
LIMC 080150Z 00000KT CAVOK 16/13 Q1017 NOSIG

2010/08/08 01:50
LIME 080150Z 03006KT CAVOK 18/13 Q1017

2010/08/08 01:50
LIMF 080150Z VRB02KT CAVOK 18/12 1016

2010/08/08 01:50
LIMJ 080150Z 06007KT 9999 FEW025 22/18 Q1017

2010/08/08 01:50
LIML 080150Z 00000KT CAVOK 18/15 Q1016 NOSIG

2010/08/08 01:50
LIPE 080150Z 21008KT CAVOK 20/16 Q1016

2010/08/08 01:50
LIPQ 080150Z VRB03KT 9999 FEW050 16/14 Q1017

2010/08/08 01:50
LIPZ 080150Z 03006KT CAVOK 20/18 Q1016

2010/08/08 01:50
LIRF 080150Z VRB02KT CAVOK 17/14 Q1017 NOSIG

2010/08/08 01:50
LIMC 080150Z 00000KT CAVOK 16/13 Q1017 NOSIG

2010/08/08 01:45
LIPH 080145Z 00000KT CAVOK 20/19 Q1017

2010/08/08 01:45
LIPR 080145Z 20002KT CAVOK 19/18 Q1016

2010/08/08 01:45
LIPX 080145Z 34001KT CAVOK 18/18 Q1016

2010/08/08 01:45
LIRA 080145Z 07002KT CAVOK 19/15 Q1017

2010/08/08 01:45
LIPX 080145Z 34001KT CAVOK 18/18 Q1016

2010/08/08 01:50
LCRA 080150Z 30003KT CAVOK 23/11 Q1007 NOSIG

2010/08/08 01:52
MMMD 080152Z 07004KT 7SM FEW010 BKN070 OVC300 26/24 A2988 RMK 8/463 -RAE25

2010/08/08 01:56
MMMX 080156Z 25004KT 8SM SCT020CB BKN080 BKN200 17/14 A3028 TEMPO 5SM -TSRA RMK 60005 8/963 CB N-NW

2010/08/08 01:50
MMMZ 080150Z 19003KT 12SM FEW045 SCT080 BKN220 28/24 A2984 RMK 8/463 DSNT CB NE-E

2010/08/08 01:46
MMCU 080146Z 12008KT 10SM SCT030CB SCT120 BKN200 27/09 A2999 RMK 8/372 LTGIC

2010/08/08 01:51
MMCV 080151Z 17012KT 10SM SCT200 29/24 A2991 RMK 8/005 CU ARND DSNT CB N

2010/08/08 01:45
MMDO 080145Z 18010KT 12SM SCT030CB BKN080 BKN200 23/14 A3012 RMK 8/964 FQT LTGICCG SHRA SE

2010/08/08 01:47
MMGM 080147Z 02006KT 10SM FEW025CB SCT200 32/24 A2977 RMK 8/407 HZY CB N NE

2010/08/08 01:45
MMHO 080145Z 20010KT 10SM SCT040 BKN200 36/19 A2975 RMK 8/408 CB N E

2010/08/08 01:49
MMML 080149Z 18012KT 10SM SKC 35/20 A2962 RMK HZY

2010/08/08 01:45
MMRX 080145Z 11010KT 10SM FEW220 30/22 A2986 RMK 8/002 HZY

2010/08/08 01:47
MMTC 080147Z 34008KT 10SM FEW040TCU SCT110 BKN220 31/11 A2992 RMK 8/272 SC

2010/08/08 01:45
MMTJ 080145Z 30009KT 7SM SKC 18/13 A2989 RMK HZY ST W

2010/08/08 01:55
EHAM 080155Z VRB02KT 7000 FEW025 SCT035 16/15 Q1015 TEMPO 3500 FEW015

2010/08/08 01:55
EHBK 080155Z AUTO 27005KT 230V320 5000NDV FEW003 BKN004 BKN006 17/16 Q1015

2010/08/08 01:55
EHDL 080155Z AUTO 22001KT 0300NDV FG OVC000 15/15 Q1015 RED

2010/08/08 01:55
EHEH 080155Z AUTO 26004KT 6000NDV BR BKN025 OVC031 17/16 Q1015 WHT

2010/08/08 01:55
EHGG 080155Z AUTO VRB02KT 4200NDV -RA FEW009 SCT016 OVC023 16/15 Q1015

2010/08/08 01:55
EHGR 080155Z AUTO 23003KT 8000NDV BR NCD 15/14 Q1015 BLU

2010/08/08 01:55
EHLW 080155Z AUTO 09001KT 2400NDV +DZ SCT004 BKN006 FEW015TCU OVC021 17/16 Q1014 YLO

2010/08/08 01:55
EHRD 080155Z VRB02KT 9999 MIFG FEW011 SCT018 15/15 Q1015 TEMPO 7000 -SHRA FEW015CB

2010/08/08 01:55
EHVK 080155Z AUTO 25002KT 0600NDV R24R/0200V0550U FG SCT000 SCT023 BKN044 16/16 Q1015 RED

2010/08/08 01:55
EHWO 080155Z AUTO 21004KT 9999NDV FEW017 SCT061 OVC110 15/14 Q1015 BLU

2010/08/08 01:50
EGDL 080150Z 31005KT 9999 FEW013 BKN034 13/11 Q1019 BLU TEMPO SCT012 GRN

2010/08/08 01:50
EGDL 080150Z 31005KT 9999 FEW013 BKN034 13/11 Q1019 TEMPO SCT012

2010/08/08 01:50
EGDR 080150Z 01006KT 9999 MIFG FEW050 13/12 Q1021 BLU

2010/08/08 01:50
EGQL 080150Z 13007KT 9999 SCT023 BKN050 14/12 Q1019 WHT

2010/08/08 01:50
EGQS 080150Z 27004KT 9999 FEW022 BKN045 12/10 Q1019 BLU

2010/08/08 01:46
MMCP 080146Z 00000KT 7SM FEW030 OVC100 26/24 A2982 RMK 8/230

2010/08/08 01:46
MMLO 080146Z 00000KT 2SM TSRA OVC015CB 16/16 A3019 RMK 65505 8/9// CB/LTGC OVHD

2010/08/08 01:56
KALK 080156Z AUTO 09017KT 10SM -TSRA BKN045 BKN055 OVC080 18/16 A3008 RMK AO2 RAB11 SLP106 P0005 T01830161 $ 

2010/08/08 01:56
KNFE 080156Z AUTO 00000KT 1 1/4SM BR CLR 24/22 A2998 RMK AO2 SLP153 T02390217 $ 

2010/08/08 01:56
PHBK 080156Z AUTO 29008KT 10SM SCT055 30/21 A3001 RMK AO2 SLP165 T03000206 TSNO $ 

2010/08/08 01:56
K9L2 080156Z AUTO 23019G25KT 10SM CLR 29/01 A2979 RMK AO2 PK WND 23027/0120 SLP064 T02890006 $ 

2010/08/08 01:56
KNCA 080156Z AUTO A2995 RMK AO2 SLP145 PWINO FZRANO TSNO $ 

2010/08/08 01:56
KLWS 080156Z 30011G19KT 10SM CLR 29/06 A2971 RMK AO2 SLP051 T02940061 

2010/08/08 01:56
KSXT 080156Z AUTO VRB04KT 7SM CLR 20/12 A2996 RMK AO2 SLP106 T02000117 TSNO 

2010/08/08 01:56
KGNR 080156Z AUTO 00000KT 12/04 A2997 RMK AO1 SLP154 T01170044 

2010/08/08 01:56
KNTU 080156Z 07004KT 6SM BR SCT007 BKN040 25/24 A2997 RMK AO2 SLP151 T02500239 $ 

2010/08/08 01:55
KADW 080155Z AUTO 16005KT 10SM CLR 21/17 A2998 RMK AO2 SLP153 T02130175 $

2010/08/08 01:55
KCOF 080155Z 20004KT 10SM CLR 27/24 A2995 RMK AO2A SLP144 T02690244

2010/08/08 01:55
KCVS 080155Z AUTO 15007KT 10SM CLR 26/17 A2995 RMK AO2 SLP094 T02600171 $

2010/08/08 01:55
KEND 080155Z AUTO 13009KT 10SM CLR 32/21 A2981 RMK AO2 SLP076 T03200212 $

2010/08/08 01:55
KFCS 080155Z AUTO 24005KT 10SM CLR 22/13 A3002 RMK AO2 SLP075 T02200132

2010/08/08 01:55
KLSV 080155Z AUTO 17020G26KT 10SM VCTS CLR 35/12 A2970 RMK AO2 PK WND 18026/0149 SLP039 T03510120 PWINO

2010/08/08 01:55
KMIB 080155Z AUTO 12004KT 10SM CLR 25/19 A2964 RMK AO2 SLP030 T02540193

2010/08/08 01:52
KNZY 080152Z 29007KT 10SM SCT018 20/12 A2986 RMK AO2 SLP111 T02000117 $

2010/08/08 01:55
KPSM 080155Z 00000KT 10SM FEW250 16/14 A2999 RMK AO2A SLP157 T01640143

2010/08/08 01:55
KSKF 080155Z 15012KT 10SM FEW070 33/25 A2984 RMK AO2A SLP096 T03250252

2010/08/08 01:55
KTCM 080155Z AUTO 21006KT 10SM BKN008 BKN013 BKN065 OVC080 18/16 A2991 RMK AO2 RAE0111DZB0111E0113 SLP129 P0000 T01760162

2010/08/08 01:55
KXMR 080155Z AUTO 19004KT 10SM SCT095 26/25 A2995 RMK AO2 SLP142 T02640250 $

2010/08/08 02:00
LEMO 080200Z VRB01KT CAVOK 27/14 Q1016 NOSIG

2010/08/08 02:00
MHCA 080200Z 05004KT 9999 SCT028TCU 26/23 TCU TD

2010/08/08 02:00
MHLM 080200Z 00000KT 9999 FEW025CB BKN250 27/26 Q1011 A2986 NOSIG

2010/08/08 02:00
MHSR 080200Z 00000KT 4000 BR SCT009 SCT020CB BKN250 20/20 4KM TD CL BR CB LTNG SW

2010/08/08 01:54
PWAK 080154Z 13010KT 8SM HZ FEW032 30/24 A2992 RMK AO2A

2010/08/08 01:56
KP28 080156Z AUTO 13009KT 32/21 A2980 RMK AO2 SLP072 T03170211 PWINO TSNO 

2010/08/08 01:56
KCDJ 080156Z AUTO 16003KT 28/21 A2986 RMK AO2 SLP095 T02830211 PWINO TSNO 

2010/08/08 01:56
KAQV 080156Z AUTO 00000KT 10SM CLR 29/25 A2987 RMK AO2 SLP109 T02940250 

2010/08/08 01:50
EDFE 080150Z AUTO 13002KT //// R27/P2000N // /// 16/14 Q1015

2010/08/08 01:55
OPKC 080155Z 28004KTS 6000 FEW020 BKN100 100 28/26 Q1000 NOSIG

2010/08/08 01:50
EDNY 080150Z AUTO VRB01KT 8000 NSC 11/10 Q1019

2010/08/08 01:56
KP53 080156Z AUTO 00000KT 22/18 A2975 RMK AO2 SLP074 T02220183 PWINO TSNO 

2010/08/08 01:56
KINS 080156Z AUTO 12024G31KT 10SM 28/10 A2980 RMK AO2 PK WND 13031/0155 SLP040 T02830100 TSNO $ 

2010/08/08 01:50
BGBW 080150Z AUTO 34001KT 9999NDV FEW075/// SCT090/// BKN220/// 13/07 Q1014

2010/08/08 01:50
BGGH 080150Z AUTO 21010KT 9999NDV OVC071/// 12/06 Q1012

2010/08/08 01:50
BGJN 080150Z AUTO 02002KT 9999NDV NCD 08/02 Q1016

2010/08/08 01:50
BGSF 080150Z 06009KT 9999 FEW220 06/02 Q1015

2010/08/08 01:55
BGTL 080155Z AUTO 13022G29KT 9999 OVC043 05/M00 A2994 RMK AO2 PK WND 12029/0145 SLP145 T00491005 $

2010/08/08 01:51
KPAM 080151Z AUTO 11010KT 5SM -TSRA BR FEW002 BKN022 BKN028 OVC034 26/24 A2991 RMK AO2 RAB0131 TSB0132 SLP131 $

2010/08/08 01:47
KVAD 080147Z 19003KT 8SM R18/5500FT -RA FEW004 OVC009 25/25 A2993 RMK AO2A CIG 005 RWY36 SLP134 $

2010/08/08 01:48
KVAD 080148Z 19003KT 8SM R18/5500VP6000FT -RA FEW004 OVC008 25/25 A2993 RMK AO2A CIG 004 RWY36 SLP134 $

2010/08/08 01:51
KVAD 080151Z 20003KT 9SM R18/5500VP6000FT -RA OVC006 25/25 A2993 RMK AO2A SLP135 $

2010/08/08 01:56
KD07 080156Z AUTO 28007KT 27/13 A2975 RMK AO2 SLP057 T02720133 PWINO TSNO 

2010/08/08 01:56
KFSD 080156Z 18010G17KT 10SM CLR 28/23 A2968 RMK AO2 SLP037 FEW ABV 120 T02780228 

2010/08/08 01:53
KGNT 080153Z AUTO 32005KT 18/16 A3016 RMK AO2 SLP133 P0001 T01780156 PWINO TSNO 

2010/08/08 01:52
CWCL 080152Z AUTO 23002KT 9SM -RA FEW002 BKN021 BKN053 OVC076 13/12 A2981

2010/08/08 01:52
CYCY 080152Z AUTO 00000KT 1SM OVC000 04/04 A2995

2010/08/08 01:54
CYCY 080154Z AUTO 00000KT 5/8SM OVC000 04/04 A2995

2010/08/08 01:52
CYKJ 080152Z AUTO 11010G15KT 3SM -RA FEW015 OVC045 15/14 A2963 RMK SLP048 DENSITY ALT 2300FT MAX WND 13019KT AT 0138Z

2010/08/08 01:53
CYPH 080153Z AUTO 24006KT 5SM OVC004 09/09 A2935

2010/08/08 01:52
CYPR 080152Z AUTO 17002KT 9SM SCT009 BKN014 BKN022 OVC029 A2993 RMK T MISG TD MISG

2010/08/08 01:55
CYRV 080155Z AUTO 31007KT 8SM FEW019 OVC064 20/17 A2975

2010/08/08 01:56
CYUA 080156Z AUTO 01014KT 1 3/4SM -RA BKN005 BKN011 09/ A2967

2010/08/08 01:55
CYUS 080155Z AUTO ///// 9SM CLR 15/ A2984

2010/08/08 01:55
CYVM 080155Z AUTO 04002KT 1/2SM OVC001 04/04 A2992

2010/08/08 01:57
EBFN 080157Z 22004KT 5000 BR FEW013 SCT090 BKN115 14/14 Q1016 WHT

2010/08/08 01:51
KPAM 080151Z AUTO 11010KT 5SM -TSRA BR FEW002 BKN022 BKN028 OVC034 26/24 A2991 RMK AO2 RAB0131 TSB0132 SLP131 $

2010/08/08 01:47
KVAD 080147Z 19003KT 8SM R18/5500FT -RA FEW004 OVC009 25/25 A2993 RMK AO2A CIG 005 RWY36 SLP134 $

2010/08/08 01:48
KVAD 080148Z 19003KT 8SM R18/5500VP6000FT -RA FEW004 OVC008 25/25 A2993 RMK AO2A CIG 004 RWY36 SLP134 $

2010/08/08 01:51
KVAD 080151Z 20003KT 9SM R18/5500VP6000FT -RA OVC006 25/25 A2993 RMK AO2A SLP135 $

2010/08/08 01:52
RJFY 080152Z 09017G27KT 9999 FEW010 BKN020 29/24 Q1011 RMK 1CU010 5CU020 A2986

2010/08/08 01:49
RJTJ 080149Z 17002KT 9999 FEW030 SCT150 BKN250 31/22 Q1016 RMK 2CU030 4AC150 A3001

2010/08/08 01:53
RODN 080153Z 20007KT 9999 -RA SCT007 SCT021 BKN032 OVC040 27/26 A2967 RMK AO2A RAB0110E0131B0148 SCT021 V BKN SLP046

2010/08/08 02:00
TFFR 080200Z 07007KT 9999 FEW026 27/23 Q1014 NOSIG

2010/08/08 01:56
KSPD 080156Z AUTO 33006KT 25/16 A2993 RMK AO2 SLP068 T02500156 PWINO TSNO 

2010/08/08 01:55
CWSA 080155Z AUTO 26005KT 2 1/2SM CLR 16/15 A2999

2010/08/08 01:56
K79J 080156Z AUTO 00000KT 10SM FEW048 28/23 A2992 RMK AO2 SLP126 T02780233 TSNO PNO $

2010/08/08 01:56
KHLR 080156Z AUTO 14007KT 10SM CLR 33/19 A2985 RMK AO2 SLP097 T03330194 $

2010/08/08 01:55
KNBG 080155Z 00000KT 10SM FEW060 SCT250 28/24 A2990 RMK AO2 SLP126 T02830244 $

2010/08/08 01:54
KNKT 080154Z 11003KT 8SM CLR 27/24 A2996 RMK AO2 SLP140 T02670239

2010/08/08 01:55
KNKX 080155Z 26006KT 10SM FEW020 18/12 A2987 RMK AO2 SLP108 T01780122

2010/08/08 01:56
KNQI 080156Z AUTO 13011KT 10SM CLR 30/24 A2985 RMK AO2 SLP105 T03000239

2010/08/08 01:56
KNUQ 080156Z 34011KT 10SM CLR 19/13 A2981 RMK AO2 SLP097 T01890133

2010/08/08 01:56
KNYG 080156Z AUTO 31006KT 10SM CLR 22/18 A2998 RMK AO2 SLP154 T02220183 $

2010/08/08 01:55
KNYL 080155Z 17010KT 10SM FEW100 37/07 A2965 RMK AO2 SLP035 T03670072

2010/08/08 01:55
KPOE 080155Z AUTO 19005KT 10SM CLR 29/24 A2988 RMK AO2 SLP117 T02940244

2010/08/08 01:56
KSGH 080156Z AUTO 14003KT 8SM CLR 19/18 A3000 RMK AO2 T01940183 SLP153 $

2010/08/08 01:55
KVBG 080155Z AUTO 32006KT 10SM CLR 14/11 A2988 RMK AO2 SLP109 T01390111 TSNO CHINO RWY12 VISNO RWY12 $

2010/08/08 01:56
KWJF 080156Z 23018G23KT 10SM CLR 27/05 A2982 RMK AO2 PK WND 25026/0119 SLP081 T02720050

2010/08/08 02:00
MHLC 080200Z 13002KT 9999 SCT022CB SCT080 BKN220 26/24 Q1011 A2988 NOSIG

2010/08/08 02:00
MHTG 080200Z 25005KT 9999 TS BKN028CB BKN250 22/20 Q1017 A3003 NOSIG

2010/08/08 01:56
PMDY 080156Z AUTO 11010KT 10SM FEW027 29/22 A3019 RMK AO2 TSNO T02940216 SLP529

2010/08/08 01:56
TJSJ 080156Z 08010KT 10SM SCT026 28/23 A3000 RMK AO2 SLP158 T02830233

2010/08/08 02:00
TUPJ 080200Z 11015KT 9999 SCT020 28/24 A2999

2010/08/08 01:56
KNFL 080156Z AUTO 29006KT 10SM CLR 32/M03 A2977 RMK AO2 SLP060 T03171028 TSNO 

2010/08/08 01:54
KSBN 080154Z 18004KT 10SM CLR 23/18 A2994 RMK AO2 SLP134 T02330178 

2010/08/08 01:52
KMLF 080152Z AUTO 03016KT 10SM BKN085 22/09 A2999 RMK AO2 SLP098 T02220089 TSNO 

2010/08/08 01:55
KGTB 080155Z AUTO 18004KT 10SM CLR 15/12 A2997 RMK AO2 SLP151 T01530121

2010/08/08 01:55
KJQF 080155Z 00000KT 10SM CLR 24/21 A2998

2010/08/08 01:56
KLRD 080156Z AUTO 13009KT 10SM CLR 34/20 A2984 RMK AO2 T03440200 SLP091

2010/08/08 01:54
KNFG 080154Z AUTO VRB04KT 10SM CLR 17/13 A2986 RMK AO2 SLP110 T01720128 TSNO $

2010/08/08 01:53
KNQX 080153Z 00000KT 10SM SCT025 SCT041 31/26 A2997 RMK AO2 SLP146 T03060256 $

2010/08/08 01:55
KPAM 080155Z AUTO 11007KT 9SM -TSRA FEW002 BKN022 OVC036 26/24 A2992 RMK AO2 RAB0131 TSB0132 SLP132 P0028 T02560237 $

2010/08/08 01:55
KSSC 080155Z 00000KT 10SM CLR 28/24 A2992 RMK AO2A RAE0102DZB0120E0129 SLP131 P0000 T02750244 $

2010/08/08 01:55
KTTS 080155Z 20003KT 10SM FEW080 BKN170 OVC200 27/26 A2995 RMK SLP142 1AC 5AC 2CS /8/

2010/08/08 01:56
PAGN 080156Z AUTO 00000KT OVC014 45/ RMK AO2 PWINO TSNO T0450 OVC V BKN SLPNO $

2010/08/08 01:56
PATQ 080156Z AUTO 06018KT 10SM OVC011 07/04 A2975 RMK AO2 TSNO T00660044 SLP080 $

2010/08/08 01:55
PGUA 080155Z AUTO 07012G17KT 10SM BKN017 BKN023 BKN055 28/25 A2986 RMK AO2 SLP092 T02830251 VISNO RWY24L $

2010/08/08 01:56
PAFS 080156Z AUTO 20005KT 10SM BKN050 12/09 A2970 RMK AO2 TSNO T01220088 SLP064 $

2010/08/08 01:56
PAGN 080156Z AUTO 00000KT OVC014 45/ RMK AO2 PWINO TSNO T0450 OVC V BKN SLPNO $

2010/08/08 01:56
PAHC 080156Z AUTO 21008KT 10SM BKN017 BKN030 OVC055 13/11 A2967 RMK AO2 TSNO T01270105 CIG 013V024 SLP051 $

2010/08/08 01:56
PAIG 080156Z AUTO 23009KT 10SM OVC015 12/09 A2978 RMK AO2 PWINO TSNO T01160088 SLP089 $

2010/08/08 01:56
PAMO 080156Z AUTO 18007KT 10SM FEW017 SCT023 BKN030 14/10 A2966 RMK AO2 TSNO T01380100 SLP043 $

2010/08/08 01:56
PAOO 080156Z AUTO 16013KT 10SM OVC009 11/09 A2967 RMK AO2 TSNO T01050094 CIG 007V012 SLP048 $

2010/08/08 01:56
PAPM 080156Z AUTO 21008KT 10SM -RA BKN008 BKN014 OVC048 10/09 A2975 RMK AO2 TSNO T01000088 P0000 SLP076 $

2010/08/08 01:56
PARS 080156Z AUTO 20009KT 10SM FEW016 SCT031 OVC047 13/11 A2967 RMK AO2 TSNO T01330105 SLP052 $

2010/08/08 01:56
PARY 080156Z AUTO VRB05KT 10SM SCT049 BKN080 16/10 A2963 RMK AO2 PWINO TSNO T01550100 BKN V SCT P0001 SLP036

2010/08/08 01:56
PATQ 080156Z AUTO 06018KT 10SM OVC011 07/04 A2975 RMK AO2 TSNO T00660044 SLP080 $

2010/08/08 01:57
EBFN 080157Z 22004KT 5000 BR FEW013 SCT090 BKN115 14/14 Q1016 WHT

2010/08/08 01:53
RODN 080153Z 20007KT 9999 -RA SCT007 SCT021 BKN032 OVC040 27/26 A2967 RMK AO2A RAB0110E0131B0148 SCT021 V BKN SLP046

2010/08/08 01:49
RJTJ 080149Z 17002KT 9999 FEW030 SCT150 BKN250 31/22 Q1016 RMK 2CU030 4AC150 A3001

2010/08/08 01:52
RJFY 080152Z 09017G27KT 9999 FEW010 BKN020 29/24 Q1011 RMK 1CU010 5CU020 A2986

2010/08/08 01:53
RODN 080153Z 20007KT 9999 -RA SCT007 SCT021 BKN032 OVC040 27/26 A2967 RMK AO2A RAB0110E0131B0148 SCT021 V BKN SLP046

2010/08/08 01:56
KRNT 080156Z 14003KT 4SM -RA BR FEW007 OVC023 17/17 A2989

2010/08/08 01:56
KINS 080156Z AUTO 12024G31KT 10SM 28/10 A2980 RMK AO2 PK WND 13031/0155 SLP040 T02830100 TSNO $ 

2010/08/08 01:55
KQA4 080155Z AUTO 01005KT 8000 HZ FEW150 SCT320 28/00 A2979 RMK AO2 SLP999 T02791002

2010/08/08 01:55
KQAJ 080155Z 28008KT 9999 CLR 29/01 A2969 RMK SLP040 WND DATA ESTMD ALSTG/SLP ESTMD

2010/08/08 01:55
KQAY 080155Z AUTO 29008KT 9999 CLR 34/02 A2948 RMK AO2 SLP979 T03370018 $

2010/08/08 01:55
KQD9 080155Z 10001KT 9999 -SHRA FEW001 SCT004 BKN022 BKN085 22/21 A2986 RMK SLP060 WND DATA ESTMD ALSTG/SLP ESTMD

2010/08/08 01:55
KQDM 080155Z AUTO 35002KT 9SM SCT085 BKN130 17/17 A3011 RMK AO2 SLP116 T01670170 PWINO $

2010/08/08 01:55
KQDP 080155Z AUTO RMK AO2 SLPNO $

2010/08/08 01:55
KQL5 080155Z 08002KT 9999 SCT025 SCT050 BKN070 OVC100 26/23 A2968 RMK AO2A SLP019 WND DATA ESTMD ALSTG/SLP ESTMD

2010/08/08 01:55
KQON 080155Z AUTO 33008KT 9999 CLR 33/01 A2966 RMK AO2 SLP023 T03310011

2010/08/08 01:55
KQQR 080155Z AUTO 00000KT 3900 RA FEW003 SCT007 BKN011 21/21 A2988 RMK AO2 SLP068 60025 T02140206 $

2010/08/08 01:55
KQTO 080155Z 32007KT 5000 DU SCT200 33/02 RMK SLP011

2010/08/08 01:55
KQTX 080155Z VRB05KT 9999 CLR 32/01 A2965 RMK SLP010

2010/08/08 01:55
KQXR 080155Z AUTO 33002KT 7000 CLR 32/02 A2946 RMK AO2 SLP974 T03230015 $

2010/08/08 01:55
KQYU 080155Z AUTO 05007KT 9999 FEW150 26/M03 A2986 RMK AO2 SLP036 T02611034

2010/08/08 01:56
KAXN 080156Z AUTO 15003G16KT 3SM -TSRA BR SCT010 BKN026 BKN039 21/19 A2968

2010/08/08 01:56
KRNT 080156Z 14003KT 4SM -RA BR FEW007 OVC023 17/17 A2989

2010/08/08 01:57
KNJM 080157Z AUTO 00000KT 9SM CLR 26/24 A2995 RMK AO2 SLP145 T02610244 

2010/08/08 02:00
SBBR 080200Z 00000KT CAVOK 18/06 Q1024

2010/08/08 01:50
VECC 080150Z 18004KT 2500 HZ FEW020 SCT100 28/26 Q1004 NOSIG

2010/08/08 01:50
VGZR 080150Z 29004KT 4500 HZ SCT015 BKN100 30/26 Q1003 NOSIG

2010/08/08 01:50
VNKT 080150Z 8000 -SHRA SCT015 FEW020CB SCT025 OVC090 22/XX Q1012 NOSIG

2010/08/08 01:56
KSMP 080156Z AUTO VRB04KT 1/2SM -RA FG SCT001 BKN006 OVC017 11/11 A2997 RMK AO2 RAB19 SLP140 P0001 T01110106 TSNO $ 

2010/08/08 01:56
KWMC 080156Z AUTO 00000KT 10SM CLR 28/M01 A2981 RMK AO2 TSB16E33 SLP054 T02781011 

2010/08/08 01:58
CWOB 080158Z AUTO ///// 0SM CLR 04/ A2948

2010/08/08 01:50
EGNS 080150Z 34012KT 9999 FEW010 13/11 Q1020

2010/08/08 01:50
EGPA 080150Z AUTO 30008KT 9999NDV FEW012/// BKN038/// 13/12 Q1019

2010/08/08 01:50
EGPC 080150Z AUTO 25005KT 9999NDV FEW040/// 10/10 Q1019

2010/08/08 01:50
EGPL 080150Z AUTO 20004KT 9999NDV FEW015/// BKN024/// 11/10 Q1020

2010/08/08 01:50
EGPM 080150Z AUTO 29009KT 9999NDV BKN016/// 12/10 Q1016

2010/08/08 01:50
EGPO 080150Z AUTO 25004KT 9999NDV SCT022/// BKN027/// BKN034/// 12/10 Q1020

2010/08/08 01:50
EGNJ 080150Z AUTO 34007KT 9999NDV OVC016/// 15/13 Q1019

2010/08/08 01:50
EGPE 080150Z AUTO 21003KT 9999NDV OVC043/// 12/09 Q1020

2010/08/08 01:55
EHEH 080155Z AUTO 26004KT 6000NDV BR BKN025 OVC031 17/16 Q1015 WHT

2010/08/08 01:55
EHKD 080155Z AUTO 35003KT 9999NDV OVC072/// 16/15 Q1015 BLU

2010/08/08 01:53
KLOR 080153Z AUTO 00000KT 8SM SCT095 25/23 A2992 RMK AO2 SLP128 T02500233 TSNO PNO $ 

2010/08/08 01:53
KUIL 080153Z AUTO 26004KT 3SM BR BKN004 OVC018 14/13 A2991 RMK AO2 RAE0055 SLP129 P0000 T01440133 TSNO 

2010/08/08 02:00
SUMU 080200Z 13004KT 1500 0800NW R24/P2000 R19/0300 BCFG NSC 09/08 Q1021 TEMPO 0800 BCFG

2010/08/08 02:00
SULS 080200Z 00000KT 0400 FG NSC 05/04 Q1021

2010/08/08 01:51
KP58 080151Z AUTO 00000KT 22/16 A2986 RMK AO2 SLP105 T02220161 PWINO TSNO 

2010/08/08 01:54
KAPN 080154Z AUTO 00000KT 10SM CLR 19/17 A2984 RMK AO2 SLP105 T01890172 

2010/08/08 01:55
KDLL 080155Z AUTO 20004KT 10SM OVC033 24/19 A2984 RMK AO2 LTG DSNT NE T02370194

2010/08/08 01:55
KDLP 080155Z AUTO 24010KT 10SM CLR 33/25 A2990 RMK A01

2010/08/08 01:57
KDRM 080157Z AUTO 16003KT 10SM BKN085 17/17 A2982 RMK AO2

2010/08/08 01:55
KDTL 080155Z AUTO 05003KT 10SM TS BKN035 BKN044 BKN070 25/19 A2966 RMK AO2 LTG DSNT E AND SE

2010/08/08 01:54
KDUH 080154Z AUTO 00000KT 10SM CLR 22/16 A2996 RMK AO2

2010/08/08 01:56
KDVP 080156Z AUTO 17007KT 10SM CLR 26/22 A2972 RMK AO2 T02580216

2010/08/08 01:54
KDXX 080154Z AUTO 00000KT 10SM CLR 27/26 A2962 RMK AO2 LTG DSNT NE

2010/08/08 01:54
KDYT 080154Z AUTO 35014KT 5SM TSRA SCT004 BKN038 OVC065 19/17 A2972 RMK AO2 LTG DSNT ALQDS

2010/08/08 02:00
KEDU 080200Z AUTO 17008KT 10SM CLR 26/14 A2969 RMK AO1

2010/08/08 01:56
KEFK 080156Z AUTO 21004KT 10SM CLR 09/07 A3000 RMK AO2

2010/08/08 01:55
KEFT 080155Z AUTO 18007KT 10SM CLR 23/19 A2988 RMK AO2 T02310190

2010/08/08 01:51
KEGV 080151Z AUTO 00000KT 7SM -RA SCT019 SCT055 OVC110 21/21 A2979 RMK AO2 T02050205

2010/08/08 01:55
KEHC 080155Z AUTO 21008KT 10SM FEW024 31/25 A2991 RMK A01

2010/08/08 01:55
KEIR 080155Z AUTO 18005KT 10SM FEW029 31/24 A2992 RMK A01

2010/08/08 01:56
KEKQ 080156Z AUTO 00000KT 5SM BR CLR 19/19 A2999 RMK AO2 T01940188 SLP155

2010/08/08 01:54
KELO 080154Z AUTO 00000KT 10SM SCT110 20/17 A2972 RMK AO2 LTG DSNT S AND SW

2010/08/08 01:55
KEMK 080155Z AUTO 20007KT 10SM CLR 30/25 A2990 RMK A01

2010/08/08 01:55
KERY 080155Z AUTO 20005KT 10SM SCT095 20/18 A2980 RMK AO2

2010/08/08 01:52
KETB 080152Z AUTO 20004KT 10SM SCT120 22/18 A2985 RMK AO2 T02210178

2010/08/08 01:54
KETH 080154Z AUTO 19003KT 10SM CLR 26/22 A2964 RMK AO2 LTG DSNT E

2010/08/08 01:52
KEVM 080152Z AUTO 16004KT 10SM SCT036 BKN070 OVC080 22/18 A2970 RMK AO1 LTG DSNT S AND SW

2010/08/08 01:55
KEZS 080155Z AUTO 22003KT 10SM VCTS SCT110 25/22 A2978 RMK AO2 LTG DSNT SW T02510216

2010/08/08 01:55
KFAF 080155Z AUTO 10003KT 10SM CLR 26/20 A2997 RMK AO2 SLP151 T02590200 $

2010/08/08 01:54
KFBL 080154Z AUTO 18005KT 10SM CLR 26/21 A2973 RMK AO2 LTG DSNT N

2010/08/08 01:53
KFFM 080153Z AUTO 09004KT 10SM CLR 22/19 A2960 RMK AO2 LTG DSNT NE AND E

2010/08/08 01:55
KFFX 080155Z AUTO 20006KT 10SM CLR 22/19 A2987 RMK AO2

2010/08/08 01:54
KFGN 080154Z AUTO 00000KT 10SM CLR 22/17 A2970 RMK AO2

2010/08/08 02:01
KFKA 080201Z AUTO 18008KT 10SM CLR 26/23 A2979 RMK AO2 T02550226

2010/08/08 01:54
KFKS 080154Z AUTO 19010G15KT 10SM BKN039 BKN045 OVC060 24/19 A2982 RMK AO2

2010/08/08 01:53
KFOZ 080153Z AUTO 06004KT 10SM SCT042 SCT049 21/17 A2971 RMK AO2 LTG DSNT SE

2010/08/08 01:56
KFPK 080156Z AUTO 20004KT 10SM CLR 21/17 A2993 RMK AO2

2010/08/08 01:54
KFSE 080154Z AUTO 00000KT 10SM CLR 23/20 A2964 RMK AO2 LTG DSNT SE AND S

2010/08/08 01:59
KFSO 080159Z AUTO 13005KT 10SM CLR 13/10 A2997 RMK AO2

2010/08/08 01:54
KFWA 080154Z 17003KT 10SM CLR 22/18 A2997 RMK AO2 SLP145 T02170183

2010/08/08 01:55
KGBK 080155Z AUTO 19004KT 10SM FEW027 30/24 A2993 RMK A01

2010/08/08 01:52
KGDB 080152Z AUTO 16006KT 10SM CLR 26/23 A2966 RMK AO2 LTG DSNT NE T02600234

2010/08/08 01:53
KGHW 080153Z AUTO 18006KT 10SM CLR 27/23 A2968 RMK AO2 LTG DSNT NW THRU E

2010/08/08 01:52
KGLW 080152Z AUTO 00000KT 7SM CLR 21/18 A2996 RMK AO2 T02140184

2010/08/08 01:55
KGOV 080155Z AUTO 21004KT 10SM SCT043 SCT049 BKN060 22/15 A2988 RMK AO2

2010/08/08 01:55
KGUL 080155Z AUTO 10SM CLR 30/25 A2991 RMK A01

2010/08/08 01:54
KGYL 080154Z AUTO 18005KT 10SM OVC060 27/22 A2968 RMK AO2 LTG DSNT N T02650223

2010/08/08 01:55
KHAF 080155Z AUTO 23005KT 7SM OVC006 12/10 A2987 RMK AO2

2010/08/08 01:55
KHAI 080155Z AUTO 00000KT 10SM CLR 21/18 A2994 RMK AO2

2010/08/08 01:52
KHCD 080152Z AUTO 17005KT 10SM CLR 26/22 A2968 RMK AO2 T02560216 TSNO

2010/08/08 01:54
KHCO 080154Z AUTO 08008KT 4SM HZ CLR 23/19 A2967 RMK AO2

2010/08/08 01:55
KHFF 080155Z AUTO 00000KT 10SM FEW041 27/22 A2998 RMK AO2 SLP147 T02670215 $

2010/08/08 01:55
KHFJ 080155Z AUTO 00000KT 10SM CLR 27/23 A2985 RMK AO1

2010/08/08 01:50
KHQI 080150Z AUTO VRB06KT 10SM 30/25 A2990 RMK A01

2010/08/08 01:54
KHYX 080154Z AUTO 21007KT 10SM OVC090 23/14 A2989 RMK AO2

2010/08/08 01:51
KHZX 080151Z AUTO 12003KT 10SM VCTS SCT037 SCT049 BKN075 22/20 A2969 RMK AO2 LTG DSNT E THRU W

2010/08/08 01:56
KABQ 080156Z 31007KT 10SM FEW065 SCT100 SCT200 27/11 A3004 RMK AO2 SLP079 OCNL LTGCG DSNT SE SHRA DSNT SE CB DSNT SE AND NW-N T02670106

2010/08/08 01:56
KJAX 080156Z 00000KT 10SM FEW005 SCT032 OVC150 24/23 A2992 RMK AO2 RAE17 SLP132 P0001 T02440233

2010/08/08 01:56
K14Y 080156Z AUTO 17007KT 10SM VCTS CLR 27/23 A2966 RMK AO2 LTG DSNT ALQS T02700232

2010/08/08 01:55
K1A6 080155Z AUTO 00000KT 10SM CLR 23/21 A3000 RMK AO2

2010/08/08 01:55
K1P1 080155Z AUTO 00000KT 10SM CLR 13/11 A3000 RMK AO2 T01250110

2010/08/08 01:53
K29G 080153Z AUTO 00000KT 10SM CLR 18/16 A3001 RMK AO2 T01750155 PWINO

2010/08/08 01:55
K46D 080155Z AUTO 30006KT 10SM CLR 25/20 A2967 RMK AO2

2010/08/08 01:56
K4I3 080156Z AUTO 00000KT 10SM CLR 22/17 A3001 RMK AO2

2010/08/08 01:55
KACB 080155Z AUTO 18003KT 10SM BKN090 23/16 A2982 RMK AO2

2010/08/08 01:58
KACQ 080158Z AUTO 18008KT 10SM CLR 25/22 A2975 RMK AO2 LTG DSNT N

2010/08/08 01:57
KADC 080157Z AUTO 00000KT 10SM VCTS SCT100 19/18 A2966 RMK AO2 LTG DSNT N THRU SE

2010/08/08 01:50
KAEL 080150Z AUTO 19006KT 10SM CLR 26/22 A2975 RMK AO2

2010/08/08 01:55
KAIG 080155Z AUTO 22003KT 10SM SCT026 120 21/19 A2979 RMK AO2 P0001

2010/08/08 01:53
KAIT 080153Z AUTO 00000KT 10SM VCTS SCT037 SCT044 23/19 A2967 RMK AO2 LTG DSNT SE THRU W

2010/08/08 01:56
KAJO 080156Z AUTO 29011KT 10SM CLR 22/13 A2982 RMK AO2 T02160133 SLP094 $

2010/08/08 01:55
KAMN 080155Z AUTO 21004KT 10SM SCT090 120 23/17 A2989 RMK AO2

2010/08/08 01:53
KAQP 080153Z AUTO 18003KT 10SM BKN045 27/27 A2962 RMK AO2 LTG DSNT NE

2010/08/08 01:51
KARV 080151Z AUTO 00000KT 10SM -RA SCT070 BKN090 BKN120 22/20 A2980 RMK AO2 P0007 T02220203

2010/08/08 01:55
KAUM 080155Z AUTO 19007KT 10SM CLR 24/22 A2976 RMK AO2 LTG DSNT NW

2010/08/08 02:04
KBAX 080204Z AUTO 19004KT 10SM SCT050 SCT075 SCT100 21/17 A2989 RMK AO2

2010/08/08 01:53
KBBB 080153Z AUTO 20005KT 10SM BKN046 BKN050 28/24 A2968 RMK AO2 LTG DSNT NE AND E

2010/08/08 01:55
KBBF 080155Z AUTO 16013KT 10SM FEW025 30/27 A2985 RMK A01

2010/08/08 01:55
KBDH 080155Z AUTO 00000KT 10SM SCT040 27/23 A2967 RMK AO2 LTG DSNT NE

2010/08/08 01:54
KBFW 080154Z AUTO 00000KT 10SM CLR 19/12 A2973 RMK AO2 LTG DSNT S AND SW

2010/08/08 01:55
KBQX 080155Z AUTO 17010KT 10SM CLR 30/25 A2987 RMK A01

2010/08/08 01:51
KBWP 080151Z AUTO 11008KT 10SM SCT055 25/21 A2961 RMK AO1 T02490208

2010/08/08 01:54
KCAD 080154Z AUTO 21007KT 10SM SCT036 BKN045 BKN060 22/20 A2987 RMK AO2

2010/08/08 01:56
KCAE 080156Z 00000KT 7SM CLR 28/24 A2994 RMK AO2 SLP134 T02780244

2010/08/08 01:55
KCBG 080155Z AUTO 18006KT 10SM VCTS CLR 28/23 A2965 RMK AO2 LTG DSNT NW THRU NE

2010/08/08 01:54
KCDA 080154Z AUTO 00000KT 10SM CLR 11/08 A3002 RMK AO2

2010/08/08 01:52
KCDD 080152Z AUTO 00000KT 7SM SCT044 21/21 A2974 RMK AO2

2010/08/08 02:02
KCFE 080202Z AUTO 18007KT 10SM VCTS SCT060 28/23 A2968 RMK AO2 LTG DSNT N AND NE T02750231

2010/08/08 01:55
KCFS 080155Z AUTO 20003KT 10SM SCT048 BKN110 22/16 A2989 RMK AO2

2010/08/08 01:56
KCHS 080156Z 26003KT 9SM FEW043 27/23 A2991 RMK AO2 SLP129 T02670233

2010/08/08 01:55
KCKC 080155Z AUTO 00000KT 10SM CLR 15/13 A2978 RMK AO2 P0001

2010/08/08 01:55
KCKN 080155Z AUTO 11003KT 10SM CLR 26/21 A2963 RMK AO2

2010/08/08 01:55
KCLI 080155Z AUTO 21005KT 10SM CLR 24/21 A2978 RMK AO2

2010/08/08 01:55
KCMB 080155Z AUTO 21010KT 10SM CLR 32/25 A2989 RMK A01

2010/08/08 01:55
KCMR 080155Z AUTO 13005KT 10SM CLR 16/13 A3019 RMK AO1

2010/08/08 01:55
KCMY 080155Z AUTO 16006KT 10SM SCT034 25/21 A2980 RMK AO2 LTG DSNT E T02470207

2010/08/08 01:54
KCNB 080154Z AUTO 18004KT 10SM CLR 28/24 A2963 RMK AO2 LTG DSNT NE T02800240

2010/08/08 01:56
KCOQ 080156Z AUTO 11009KT 3SM +TSRA OVC003 18/16 A2969 RMK AO2 P0003 LTG DSNT ALQDS

2010/08/08 01:57
KCQM 080157Z AUTO 00000KT 10SM SCT060 21/16 A2972 RMK AO2 LTG DSNT S AND SW

2010/08/08 01:55
KCRH 080155Z AUTO 19009KT 10SM FEW029 31/24 A2990 RMK A01

2010/08/08 01:50
KCVH 080150Z AUTO 25015G19KT 10SM CLR 16/12 A2984 RMK AO1

2010/08/08 01:55
KCVX 080155Z AUTO 18004KT 10SM CLR 22/15 A2983 RMK AO2

2010/08/08 01:50
KCWA 080150Z 15005KT 10SM SCT048 SCT060 SCT075 21/21 A2980 RMK TS DSNT E MOV SE LGTICCG

2010/08/08 01:54
KIKW 080154Z AUTO 23003KT 10SM SCT060 OVC080 24/16 A2988 RMK AO2 T02370159

2010/08/08 01:55
KIPN 080155Z AUTO 25008KT 10SM SCT025 SCT030 30/25 A2993 RMK A01

2010/08/08 01:55
KIRS 080155Z AUTO 21003KT 10SM CLR 22/18 A2995 RMK AO2

2010/08/08 01:55
KISQ 080155Z AUTO 20005KT 10SM CLR 22/19 A2978 RMK AO2

2010/08/08 01:55
KJKJ 080155Z AUTO 00000KT 10SM CLR 27/24 A2960 RMK AO2 LTG DSNT E AND SE

2010/08/08 01:55
KJMR 080155Z AUTO 12003KT 10SM TS SCT035 BKN048 BKN060 24/20 A2967 RMK AO2 LTG DSNT ALQS

2010/08/08 01:55
KJYG 080155Z AUTO 00000KT 10SM SCT050 27/26 A2972 RMK AO2

2010/08/08 01:55
KJYM 080155Z AUTO 20003KT 7SM CLR 19/17 A2997 RMK AO2

2010/08/08 01:55
KLFI 080155Z 12005KT 10SM CLR 25/22 A2998 RMK AO2A SLP152 T02500222

2010/08/08 01:53
KLJF 080153Z AUTO 17003KT 10SM SCT041 SCT050 BKN060 27/23 A2968 RMK AO2 LTG DSNT NE

2010/08/08 01:55
KLNL 080155Z AUTO 00000KT 7SM SCT024 SCT033 BKN045 20/19 A2981 RMK AO2 T01970187

2010/08/08 01:55
KLUM 080155Z AUTO 14006KT 10SM CLR 24/22 A2972 RMK AO2 LTG DSNT NW

2010/08/08 01:54
KLVN 080154Z AUTO 19003KT 10SM SCT080 26/22 A2970 RMK AO2 LTG DSNT N AND NW

2010/08/08 01:56
KLWA 080156Z AUTO 17004KT 10SM CLR 22/18 A2992 RMK AO2

2010/08/08 01:54
KLXL 080154Z AUTO 09003KT 10SM SCT055 26/22 A2963 RMK AO2

2010/08/08 01:58
KLYV 080158Z AUTO 18008KT 10SM CLR 26/22 A2970 RMK AO2

2010/08/08 01:56
KM89 080156Z AUTO 00000KT 10SM CLR 29/26 A2985 RMK AO2 T02880255 SLP118

2010/08/08 01:55
KMCF 080155Z AUTO 24004KT 10SM CLR 29/26 A2994 RMK AO2 SLP141 T02910262

2010/08/08 01:55
KMDJ 080155Z AUTO 23011KT 10SM CLR 31/25 A2993 RMK A01

2010/08/08 01:55
KMGG 080155Z AUTO 18004KT 10SM VCTS SCT046 27/24 A2968 RMK AO2 LTG DSNT N AND NE T02700235

2010/08/08 01:55
KMGN 080155Z AUTO 00000KT 10SM SCT100 23/16 A2982 RMK AO2

2010/08/08 01:55
KMHR 080155Z AUTO 22009KT 10SM CLR 28/12 A2972 RMK AO1

2010/08/08 01:55
KMIU 080155Z AUTO 17017KT 10SM CLR 30/25 A2987 RMK A01

2010/08/08 01:52
KMJQ 080152Z AUTO 19008KT 10SM CLR 25/22 A2974 RMK AO2

2010/08/08 01:54
KMOP 080154Z AUTO 21005KT 10SM SCT100 SCT120 23/18 A2988 RMK AO2

2010/08/08 01:48
KMOX 080148Z AUTO 14004KT 10SM BKN050 27/25 A2960 RMK AO2 LTG DSNT NE AND E

2010/08/08 01:53
KMRT 080153Z AUTO 00000KT 10SM CLR 19/17 A3002 RMK AO2 T01870171

2010/08/08 01:54
KMVE 080154Z AUTO 22006KT 10SM CLR 28/25 A2962 RMK AO2 LTG DSNT N AND NE

2010/08/08 01:53
KMWM 080153Z AUTO 17008KT 10SM CLR 26/22 A2971 RMK AO2 LTG DSNT N

2010/08/08 01:55
KMWO 080155Z AUTO 00000KT 10SM CLR 20/18 A2999 RMK AO2

2010/08/08 01:55
KMZG 080155Z AUTO 00000KT 10SM 30/25 A2986 RMK A01

2010/08/08 01:50
KMZH 080150Z AUTO 00000KT 10SM VCTS SCT041 SCT050 SCT075 21/19 A2966 RMK AO2 LTG DSNT ALQS

2010/08/08 01:55
KOEB 080155Z AUTO 21003KT 10SM SCT090 22/18 A2996 RMK AO2

2010/08/08 01:51
KONA 080151Z AUTO 19005KT 10SM CLR 26/21 A2974 RMK AO2

2010/08/08 01:54
KONZ 080154Z AUTO 21005KT 10SM CLR 25/17 A2993 RMK AO2

2010/08/08 01:54
KORB 080154Z AUTO 00000KT 10SM CLR 18/15 A2970 RMK AO2 LTG DSNT SW

2010/08/08 01:54
KOVL 080154Z AUTO 19007KT 10SM SCT040 25/21 A2966 RMK AO2 LTG DSNT NE T02520205

2010/08/08 01:54
KOWA 080154Z AUTO 17009KT CLR 26/22 A2971 RMK AO2 LTG DSNT N PWINO

2010/08/08 01:55
KOZW 080155Z AUTO 20003KT 10SM CLR 22/16 A2993 RMK AO2

2010/08/08 01:53
KPEX 080153Z AUTO 17007KT 7SM VCTS CLR 27/23 A2966 RMK AO2 LTG DSNT NE AND E T02710227

2010/08/08 01:53
KPNM 080153Z AUTO 18007KT 10SM VCTS CLR 27/23 A2966 RMK AO2 LTG DSNT NW THRU NE

2010/08/08 01:53
KPQN 080153Z AUTO 19007KT 10SM CLR 26/24 A2970 RMK AO2

2010/08/08 01:52
KPVB 080152Z AUTO 15005KT 10SM CLR 22/19 A2987 RMK AO1 T02210191

2010/08/08 01:53
KPWC 080153Z AUTO 15005KT 10SM BKN032 BKN039 BKN080 23/19 A2968 RMK AO2

2010/08/08 01:54
KPZQ 080154Z AUTO 18003KT 10SM CLR 20/16 A2985 RMK AO2

2010/08/08 01:49
KVWU 080149Z AUTO 06006KT 10SM BKN039 BKN048 21/18 A2969 RMK AO2

2010/08/08 01:56
KXVG 080156Z AUTO 00000KT 10SM SCT070 22/21 A2966 RMK AO2 LTG DSNT SE THRU W

2010/08/08 01:55
KY63 080155Z AUTO 13004KT 10SM SCT038 SCT060 SCT070 25/17 A2962 RMK AO2 LTG DSNT NE AND E T02500171

2010/08/08 01:55
KY70 080155Z AUTO 20006KT 10SM CLR 23/18 A2990 RMK AO2 T02250175

2010/08/08 01:55
KRCM 080155Z AUTO 14005KT 10SM CLR 26/22 A2985 RMK AO2

2010/08/08 01:54
KRFD 080154Z 19007KT 10SM CLR 23/18 A2990 RMK AO2 SLP120 T02280183

2010/08/08 01:55
KRGK 080155Z AUTO 00000KT 10SM CLR 28/22 A2970 RMK AO2 LTG DSNT NW

2010/08/08 01:55
KRNP 080155Z AUTO 23003KT 10SM SCT110 22/16 A2991 RMK AO2

2010/08/08 01:54
KROA 080154Z 00000KT 10SM FEW070 25/16 A3004 RMK AO2 SLP159 T02500161 $

2010/08/08 01:55
KROS 080155Z AUTO 14005KT 10SM TS SCT037 SCT048 BKN065 25/22 A2966 RMK AO2 LTG DSNT NW THRU NE P0001 T02460222

2010/08/08 01:55
KROX 080155Z AUTO 08004KT 10SM CLR 21/18 A2968 RMK AO2

2010/08/08 01:55
KRQB 080155Z AUTO 20003KT 10SM OVC110 23/18 A2988 RMK AO2

2010/08/08 01:54
KRRT 080154Z AUTO 10009KT 10SM SCT048 22/18 A2969 RMK AO2 TSNO

2010/08/08 01:53
KRZN 080153Z AUTO 13006KT 10SM SCT038 SCT044 BKN060 25/21 A2968 RMK AO2 T02450207

2010/08/08 01:54
KSAZ 080154Z AUTO 00000KT 3SM TSRA SCT003 BKN022 OVC027 21/21 A2970 RMK AO2 P0107 LTG DSNT ALQDS

2010/08/08 01:55
KSCF 080155Z AUTO 00000KT 10SM CLR 31/25 A2985 RMK A01

2010/08/08 01:53
KSGS 080153Z AUTO 20008KT 10SM CLR 28/22 A2969 RMK AO2 LTG DSNT N T02830216

2010/08/08 01:56
KSHV 080156Z 00000KT 10SM FEW080 SCT170 BKN290 28/24 A2984 RMK AO2 SLP101 T02830244

2010/08/08 01:55
KSJX 080155Z AUTO 20005KT 10SM CLR 22/18 A2980 RMK AO2

2010/08/08 01:55
KSLH 080155Z AUTO 00000KT 10SM BKN100 18/17 A2982 RMK AO2

2010/08/08 01:55
KSPR 080155Z AUTO 23004KT 10SM CLR 31/24 A2991 RMK A01

2010/08/08 01:55
KSRR 080155Z AUTO 19009KT 10SM CLR 20/12 A3019 RMK AO2

2010/08/08 01:58
KSYN 080158Z AUTO 18005KT 10SM CLR 26/22 A2970 RMK AO2 LTG DSNT N T02610220

2010/08/08 01:53
KTEW 080153Z AUTO 00000KT 10SM CLR 20/16 A2993 RMK AO2

2010/08/08 01:54
KTKC 080154Z AUTO 19003KT 10SM CLR 26/22 A2968 RMK AO2 LTG DSNT NE T02640221

2010/08/08 01:55
KTOB 080155Z AUTO 20009G15KT 10SM CLR 26/23 A2975 RMK AO2

2010/08/08 01:53
KTWM 080153Z AUTO 04003KT 10SM BKN018 BKN027 OVC075 18/13 A2972 RMK AO2 LTG DSNT NE AND NW

2010/08/08 01:45
KUES 080145Z COR 20006KT 10SM SKC 23/17 A2987 RMK LAST

2010/08/08 01:50
KUKT 080150Z AUTO 00000KT 10SM CLR 20/15 A3000 RMK AO1

2010/08/08 01:55
KULM 080155Z AUTO 19006KT 10SM SCT050 26/22 A2969 RMK AO2 LTG DSNT N

2010/08/08 01:55
KVAF 080155Z AUTO 19006KT 10SM SCT022 SCT027 30/25 A2986 RMK A01

2010/08/08 01:55
KVBS 080155Z AUTO 20007G14KT 160V230 10SM CLR 31/25 A2988 RMK A01

2010/08/08 01:53
KVES 080153Z AUTO 00000KT 10SM CLR 19/17 A2999 RMK AO2 T01850174

2010/08/08 01:54
KVLL 080154Z AUTO 22004KT 10SM CLR 25/15 A2995 RMK AO2

2010/08/08 01:56
KVVV 080156Z AUTO 00000KT 10SM SCT048 BKN050 29/23 A2962 RMK AO2 LTG DSNT NE

2010/08/08 01:57
PAGH 080157Z AUTO 17005KT 10SM FEW018 BKN022 OVC027 15/11 A2959 RMK AO2 SLP046 T01500111

2010/08/08 01:56
PAMB 080156Z AUTO 21010KT 10SM BKN009 BKN024 OVC050 12/11 A2973 RMK AO2 PWINO TSNO T01220105 CIG 007V012 SLP072 $

2010/08/08 01:56
PAOH 080156Z AUTO 00000KT 10SM BKN010 OVC024 13/13 A2984 RMK AO2 TSNO T01330127 RAB06E20 P0000 SLP106 $

2010/08/08 01:57
PAVA 080157Z AUTO 22007KT 10SM OVC015 12/10 A2968 RMK AO2 SLP053 T01220100

2010/08/08 01:56
PPIZ 080156Z AUTO 07015G20KT 10SM BKN015 09/06 A2970 RMK AO2 TSNO T00940055 BKN V SCT SLP059 $

2010/08/08 01:55
K4M9 080155Z AUTO 10006KT 10SM 26/22 A2989 RMK AO2

2010/08/08 01:55
KBVU 080155Z AUTO 17013G20KT 10SM CLR 34/10 A2976 RMK AO2

2010/08/08 01:55
KMAN 080155Z AUTO 04005KT 10SM CLR 30/06 A2973 RMK AO1

2010/08/08 01:55
KMCJ 080155Z AUTO 16007KT 10SM CLR 30/24 A2985 RMK AO1

2010/08/08 01:55
KMDZ 080155Z AUTO 17004KT 10SM SCT050 22/21 A2978 RMK AO2

2010/08/08 01:58
KMEI 080158Z 00000KT 8SM CLR 26/26 A2991 RMK AO2 SLP124 T02610256

2010/08/08 01:55
KMRJ 080155Z AUTO 17006KT 10SM CLR 23/18 A2987 RMK AO2 T02320182

2010/08/08 01:55
KOEO 080155Z AUTO 19006KT 10SM BKN043 BKN075 27/23 A2970 RMK AO2

2010/08/08 01:55
KPBH 080155Z AUTO 00000KT 10SM SCT060 22/21 A2977 RMK AO2 LTG DSNT N AND SE

2010/08/08 01:55
KPCZ 080155Z AUTO 00000KT 10SM -RA SCT060 SCT065 OVC100 26/21 A2981 RMK AO2 T02550211

2010/08/08 01:52
KPDC 080152Z AUTO 14004KT 10SM CLR 26/22 A2981 RMK AO2 T02600222

2010/08/08 01:54
KPVU 080154Z 13013KT 15SM SCT090 BKN120 25/10 A2996

2010/08/08 01:51
KPAM 080151Z AUTO 11010KT 5SM -TSRA BR FEW002 BKN022 BKN028 OVC034 26/24 A2991 RMK AO2 RAB0131 TSB0132 SLP131 $

2010/08/08 01:57
KTOI 080157Z AUTO 35013KT 1 1/2SM +TSRA BR SCT008 BKN029 OVC037 23/22 A2996 RMK AO2 LTG DSNT E P0013

2010/08/08 01:47
KVAD 080147Z 19003KT 8SM R18/5500FT -RA FEW004 OVC009 25/25 A2993 RMK AO2A CIG 005 RWY36 SLP134 $

2010/08/08 01:48
KVAD 080148Z 19003KT 8SM R18/5500VP6000FT -RA FEW004 OVC008 25/25 A2993 RMK AO2A CIG 004 RWY36 SLP134 $

2010/08/08 01:51
KVAD 080151Z 20003KT 9SM R18/5500VP6000FT -RA OVC006 25/25 A2993 RMK AO2A SLP135 $

2010/08/08 01:55
KRCX 080155Z AUTO 12005KT 10SM BKN032 BKN045 BKN050 23/21 A2976 RMK AO2 LTG DSNT NW T02330210

2010/08/08 01:55
KRPD 080155Z AUTO 14009KT 10SM BKN033 24/21 A2972 RMK AO2 LTG DSNT W AND NW T02410207

2010/08/08 01:55
KRRL 080155Z AUTO 00000KT 10SM VCTS SCT090 21/20 A2979 RMK AO2 LTG DSNT ALQS T02120200

2010/08/08 01:55
KRYV 080155Z AUTO 00000KT 10SM SCT070 23/19 A2987 RMK AO2

2010/08/08 01:55
KSNC 080155Z AUTO 00000KT 10SM CLR 18/18 A3002 RMK AO2

2010/08/08 01:55
KSTE 080155Z AUTO 00000KT 10SM BKN029 OVC038 24/21 A2982 RMK AO2 P0011

2010/08/08 01:53
KSUN 080153Z 21007G15KT 30SM SCT110 25/02 A2991

2010/08/08 01:55
KSUW 080155Z AUTO 01005KT 7SM RA OVC005 18/17 A2970 RMK AO2 P0003

2010/08/08 01:55
KTKV 080155Z AUTO 00000KT 10SM BKN065 BKN080 BKN085 20/18 A2979 RMK AO2 T01950182

2010/08/08 01:56
KY50 080156Z AUTO 17005KT 10SM VCTS FEW070 24/21 A2982 RMK AO2 T02380211 LTG DSNT E AND SE AND NW SLP091

2010/08/08 01:50
EDNY 080150Z AUTO VRB01KT 8000 NSC 11/10 Q1019

2010/08/08 01:50
EDXW 080150Z AUTO 22004KT 9999NDV SCT009/// BKN038/// 17/15 Q1015 RMK ATIS INFO B

2010/08/08 01:50
EGNJ 080150Z AUTO 34007KT 9999NDV OVC016/// 15/13 Q1019

2010/08/08 01:50
EGNS 080150Z 34012KT 9999 FEW010 13/11 Q1020

2010/08/08 01:50
EGPA 080150Z AUTO 30008KT 9999NDV FEW012/// BKN038/// 13/12 Q1019

2010/08/08 01:50
EGPC 080150Z AUTO 25005KT 9999NDV FEW040/// 10/10 Q1019

2010/08/08 01:50
EGPE 080150Z AUTO 21003KT 9999NDV OVC043/// 12/09 Q1020

2010/08/08 01:50
EGPL 080150Z AUTO 20004KT 9999NDV FEW015/// BKN024/// 11/10 Q1020

2010/08/08 01:50
EGPM 080150Z AUTO 29009KT 9999NDV BKN016/// 12/10 Q1016

2010/08/08 01:50
EGPO 080150Z AUTO 25004KT 9999NDV SCT022/// BKN027/// BKN034/// 12/10 Q1020

2010/08/08 01:55
EGVA 080155Z AUTO 34007KT 9999 OVC036 15/12 A3009 RMK AO2 SLP191 T01510124 $

2010/08/08 01:55
EHKD 080155Z AUTO 35003KT 9999NDV OVC072/// 16/15 Q1015 BLU

2010/08/08 01:55
EHLW 080155Z AUTO 09001KT 2400NDV +DZ SCT004 BKN006 FEW015TCU OVC021 17/16 Q1014 YLO

2010/08/08 01:55
EHVK 080155Z AUTO 25002KT 0600NDV R24R/0200V0550U FG SCT000 SCT023 BKN044 16/16 Q1015 RED

2010/08/08 01:55
EHWO 080155Z AUTO 21004KT 9999NDV FEW017 SCT061 OVC110 15/14 Q1015 BLU

2010/08/08 01:55
ETIK 080155Z 00000KT 9999 BKN090 OVC130 11/11 A3006 RMK AO2A SLP171 T01090108 $

2010/08/08 01:50
LGBL 080150Z 30005KT 9999 FEW030 25/16 Q1010 NOSIG BLU

2010/08/08 01:50
LGPZ 080150Z 00000KT CAVOK 21/18 Q1013 NOSIG BLU

2010/08/08 01:50
LGSR 080150Z 25008KT 9999 SCT018 25/21 Q1008 NOSIG BLU

2010/08/08 01:50
LGSY 080150Z 00000KT CAVOK 23/17 Q1008 NOSIG BLU

2010/08/08 01:50
LGTG 080150Z 00000KT CAVOK 22/15 Q1012 NOSIG BLU

2010/08/08 01:55
LIYW 080155Z AUTO 05005KT 9999 BKN050 18/17 A3004 RMK AO2 SLP169 T01830172

2010/08/08 01:56
KNGP 080156Z AUTO 20008KT 160V230 10SM CLR 28/26 A2986 RMK AO2 SLP109 T02830256 VISNO $

2010/08/08 01:54
KNKT 080154Z 11003KT 8SM CLR 27/24 A2996 RMK AO2 SLP140 T02670239

2010/08/08 01:55
KNKX 080155Z 26006KT 10SM FEW020 18/12 A2987 RMK AO2 SLP108 T01780122

2010/08/08 01:56
KNPA 080156Z AUTO 00000KT 10SM CLR 27/23 A2990 RMK AO2 TSE31 SLP126 T02670233

2010/08/08 01:56
KNQI 080156Z AUTO 13011KT 10SM CLR 30/24 A2985 RMK AO2 SLP105 T03000239

2010/08/08 01:56
KNSE 080156Z AUTO 00000KT 4SM -RA BR SCT100 SCT120 26/24 A2991 RMK AO2 TSE53 SLP111 P0001 T02610239 $

2010/08/08 01:56
KNYG 080156Z AUTO 31006KT 10SM CLR 22/18 A2998 RMK AO2 SLP154 T02220183 $

2010/08/08 01:55
KNYL 080155Z 17010KT 10SM FEW100 37/07 A2965 RMK AO2 SLP035 T03670072

2010/08/08 01:52
KNZY 080152Z 29007KT 10SM SCT018 20/12 A2986 RMK AO2 SLP111 T02000117 $

2010/08/08 01:55
KPOE 080155Z AUTO 19005KT 10SM CLR 29/24 A2988 RMK AO2 SLP117 T02940244

2010/08/08 01:55
KPSM 080155Z 00000KT 10SM FEW250 16/14 A2999 RMK AO2A SLP157 T01640143

2010/08/08 01:56
KSGH 080156Z AUTO 14003KT 8SM CLR 19/18 A3000 RMK AO2 T01940183 SLP153 $

2010/08/08 01:55
KSKF 080155Z 15012KT 10SM FEW070 33/25 A2984 RMK AO2A SLP096 T03250252

2010/08/08 01:55
KTCM 080155Z AUTO 21006KT 10SM BKN008 BKN013 BKN065 OVC080 18/16 A2991 RMK AO2 RAE0111DZB0111E0113 SLP129 P0000 T01760162

2010/08/08 01:55
KVBG 080155Z AUTO 32006KT 10SM CLR 14/11 A2988 RMK AO2 SLP109 T01390111 TSNO CHINO RWY12 VISNO RWY12 $

2010/08/08 01:55
KVPS 080155Z 02002KT 10SM FEW180 BKN250 25/24 A2991 RMK AO2A SLP128 T02490241 $

2010/08/08 02:00
SBBR 080200Z 00000KT CAVOK 18/06 Q1024

2010/08/08 01:55
TXKF 080155Z 19012KT 9999 VCSH FEW012 SCT026 BKN053 OVC072 27/24 Q1016 /

2010/08/08 01:56
KINS 080156Z AUTO 12024G31KT 10SM 28/10 A2980 RMK AO2 PK WND 13031/0155 SLP040 T02830100 TSNO $

2010/08/08 01:52
KMLF 080152Z AUTO 03016KT 10SM BKN085 22/09 A2999 RMK AO2 SLP098 T02220089 TSNO

2010/08/08 01:54
KSBN 080154Z 18004KT 10SM CLR 23/18 A2994 RMK AO2 SLP134 T02330178

2010/08/08 01:56
KINS 080156Z AUTO 12024G31KT 10SM 28/10 A2980 RMK AO2 PK WND 13031/0155 SLP040 T02830100 TSNO $

2010/08/08 01:56
KSMP 080156Z AUTO VRB04KT 1/2SM -RA FG SCT001 BKN006 OVC017 11/11 A2997 RMK AO2 RAB19 SLP140 P0001 T01110106 TSNO $

2010/08/08 01:53
KLOR 080153Z AUTO 00000KT 8SM SCT095 25/23 A2992 RMK AO2 SLP128 T02500233 TSNO PNO $

2010/08/08 01:53
KUIL 080153Z AUTO 26004KT 3SM BR BKN004 OVC018 14/13 A2991 RMK AO2 RAE0055 SLP129 P0000 T01440133 TSNO

2010/08/08 01:54
KAPN 080154Z AUTO 00000KT 10SM CLR 19/17 A2984 RMK AO2 SLP105 T01890172

2010/08/08 01:51
KP58 080151Z AUTO 00000KT 22/16 A2986 RMK AO2 SLP105 T02220161 PWINO TSNO

2010/08/08 01:56
KMHS 080156Z AUTO 01004KT 10SM CLR 27/06 A2985 RMK AO2 SLP094 T02670061 TSNO

2010/08/08 01:56
KGFA 080156Z AUTO 25004KT 10SM CLR 28/03 A2973 RMK AO2 SLP059 T02830033 $

2010/08/08 01:56
KNXP 080156Z AUTO 22012KT CLR 33/04 A2982 RMK AO2 SLP057 T03330039 $

2010/08/08 01:56
KFLG 080156Z 00000KT 10SM OVC110 16/13 A3021 RMK AO2 SLP144 T01560133

2010/08/08 01:56
KLWS 080156Z 30011G19KT 10SM CLR 29/06 A2971 RMK AO2 SLP051 T02940061

2010/08/08 01:56
KALK 080156Z AUTO 09017KT 10SM -TSRA BKN045 BKN055 OVC080 18/16 A3008 RMK AO2 RAB11 SLP106 P0005 T01830161 $

2010/08/08 01:56
KNFE 080156Z AUTO 00000KT 1 1/4SM BR CLR 24/22 A2998 RMK AO2 SLP153 T02390217 $

2010/08/08 01:56
KGNR 080156Z AUTO 00000KT 12/04 A2997 RMK AO1 SLP154 T01170044

2010/08/08 01:56
KSXT 080156Z AUTO VRB04KT 7SM CLR 20/12 A2996 RMK AO2 SLP106 T02000117 TSNO

2010/08/08 01:56
KNTU 080156Z 07004KT 6SM BR SCT007 BKN040 25/24 A2997 RMK AO2 SLP151 T02500239 $

2010/08/08 01:56
K9L2 080156Z AUTO 23019G25KT 10SM CLR 29/01 A2979 RMK AO2 PK WND 23027/0120 SLP064 T02890006 $

2010/08/08 01:56
KP28 080156Z AUTO 13009KT 32/21 A2980 RMK AO2 SLP072 T03170211 PWINO TSNO

2010/08/08 01:56
KAQV 080156Z AUTO 00000KT 10SM CLR 29/25 A2987 RMK AO2 SLP109 T02940250

2010/08/08 01:56
KCDJ 080156Z AUTO 16003KT 28/21 A2986 RMK AO2 SLP095 T02830211 PWINO TSNO

2010/08/08 01:56
KP53 080156Z AUTO 00000KT 22/18 A2975 RMK AO2 SLP074 T02220183 PWINO TSNO

2010/08/08 01:56
KD07 080156Z AUTO 28007KT 27/13 A2975 RMK AO2 SLP057 T02720133 PWINO TSNO

2010/08/08 01:56
KFSD 080156Z 18010G17KT 10SM CLR 28/23 A2968 RMK AO2 SLP037 FEW ABV 120 T02780228

2010/08/08 01:53
KGNT 080153Z AUTO 32005KT 18/16 A3016 RMK AO2 SLP133 P0001 T01780156 PWINO TSNO

2010/08/08 01:56
KSPD 080156Z AUTO 33006KT 25/16 A2993 RMK AO2 SLP068 T02500156 PWINO TSNO

2010/08/08 01:56
KWMC 080156Z AUTO 00000KT 10SM CLR 28/M01 A2981 RMK AO2 TSB16E33 SLP054 T02781011

2010/08/08 01:56
KINS 080156Z AUTO 12024G31KT 10SM 28/10 A2980 RMK AO2 PK WND 13031/0155 SLP040 T02830100 TSNO $

2010/08/08 01:56
KINS 080156Z AUTO 12024G31KT 10SM 28/10 A2980 RMK AO2 PK WND 13031/0155 SLP040 T02830100 TSNO $

2010/08/08 01:53
KLOR 080153Z AUTO 00000KT 8SM SCT095 25/23 A2992 RMK AO2 SLP128 T02500233 TSNO PNO $

2010/08/08 01:56
KGFA 080156Z AUTO 25004KT 10SM CLR 28/03 A2973 RMK AO2 SLP059 T02830033 $

2010/08/08 01:56
KNFE 080156Z AUTO 00000KT 1 1/4SM BR CLR 24/22 A2998 RMK AO2 SLP153 T02390217 $

2010/08/08 01:56
KLRD 080156Z AUTO 13009KT 10SM CLR 34/20 A2984 RMK AO2 T03440200 SLP091

2010/08/08 01:55
KTTS 080155Z 20003KT 10SM FEW080 BKN170 OVC200 27/26 A2995 RMK SLP142 1AC 5AC 2CS /8/

2010/08/08 01:56
PAGN 080156Z AUTO 00000KT OVC014 45/ RMK AO2 PWINO TSNO T0450 OVC V BKN SLPNO $

2010/08/08 01:56
PATQ 080156Z AUTO 06018KT 10SM OVC011 07/04 A2975 RMK AO2 TSNO T00660044 SLP080 $

2010/08/08 01:56
KSGH 080156Z AUTO 14003KT 8SM CLR 19/18 A3000 RMK AO2 T01940183 SLP153 $

2010/08/08 01:56
KWJF 080156Z 23018G23KT 10SM CLR 27/05 A2982 RMK AO2 PK WND 25026/0119 SLP081 T02720050

2010/08/08 01:56
PAFS 080156Z AUTO 20005KT 10SM BKN050 12/09 A2970 RMK AO2 TSNO T01220088 SLP064 $

2010/08/08 01:56
PAGN 080156Z AUTO 00000KT OVC014 45/ RMK AO2 PWINO TSNO T0450 OVC V BKN SLPNO $

2010/08/08 01:56
PAHC 080156Z AUTO 21008KT 10SM BKN017 BKN030 OVC055 13/11 A2967 RMK AO2 TSNO T01270105 CIG 013V024 SLP051 $

2010/08/08 01:56
PAIG 080156Z AUTO 23009KT 10SM OVC015 12/09 A2978 RMK AO2 PWINO TSNO T01160088 SLP089 $

2010/08/08 01:56
PAMO 080156Z AUTO 18007KT 10SM FEW017 SCT023 BKN030 14/10 A2966 RMK AO2 TSNO T01380100 SLP043 $

2010/08/08 01:56
PAOO 080156Z AUTO 16013KT 10SM OVC009 11/09 A2967 RMK AO2 TSNO T01050094 CIG 007V012 SLP048 $

2010/08/08 01:56
PAPM 080156Z AUTO 21008KT 10SM -RA BKN008 BKN014 OVC048 10/09 A2975 RMK AO2 TSNO T01000088 P0000 SLP076 $

2010/08/08 01:56
PARS 080156Z AUTO 20009KT 10SM FEW016 SCT031 OVC047 13/11 A2967 RMK AO2 TSNO T01330105 SLP052 $

2010/08/08 01:56
PARY 080156Z AUTO VRB05KT 10SM SCT049 BKN080 16/10 A2963 RMK AO2 PWINO TSNO T01550100 BKN V SCT P0001 SLP036

2010/08/08 01:56
PATQ 080156Z AUTO 06018KT 10SM OVC011 07/04 A2975 RMK AO2 TSNO T00660044 SLP080 $

2010/08/08 01:56
K14Y 080156Z AUTO 17007KT 10SM VCTS CLR 27/23 A2966 RMK AO2 LTG DSNT ALQS T02700232

2010/08/08 01:55
K1A6 080155Z AUTO 00000KT 10SM CLR 23/21 A3000 RMK AO2

2010/08/08 01:55
K1P1 080155Z AUTO 00000KT 10SM CLR 13/11 A3000 RMK AO2 T01250110

2010/08/08 01:55
K46D 080155Z AUTO 30006KT 10SM CLR 25/20 A2967 RMK AO2

2010/08/08 01:56
K4I3 080156Z AUTO 00000KT 10SM CLR 22/17 A3001 RMK AO2

2010/08/08 01:55
KACB 080155Z AUTO 18003KT 10SM BKN090 23/16 A2982 RMK AO2

2010/08/08 01:58
KACQ 080158Z AUTO 18008KT 10SM CLR 25/22 A2975 RMK AO2 LTG DSNT N

2010/08/08 01:57
KADC 080157Z AUTO 00000KT 10SM VCTS SCT100 19/18 A2966 RMK AO2 LTG DSNT N THRU SE

2010/08/08 01:50
KAEL 080150Z AUTO 19006KT 10SM CLR 26/22 A2975 RMK AO2

2010/08/08 01:55
KAIG 080155Z AUTO 22003KT 10SM SCT026 120 21/19 A2979 RMK AO2 P0001

2010/08/08 01:53
KAIT 080153Z AUTO 00000KT 10SM VCTS SCT037 SCT044 23/19 A2967 RMK AO2 LTG DSNT SE THRU W

2010/08/08 01:56
KAJO 080156Z AUTO 29011KT 10SM CLR 22/13 A2982 RMK AO2 T02160133 SLP094 $

2010/08/08 01:55
KAMN 080155Z AUTO 21004KT 10SM SCT090 120 23/17 A2989 RMK AO2

2010/08/08 01:53
KAQP 080153Z AUTO 18003KT 10SM BKN045 27/27 A2962 RMK AO2 LTG DSNT NE

2010/08/08 01:51
KARV 080151Z AUTO 00000KT 10SM -RA SCT070 BKN090 BKN120 22/20 A2980 RMK AO2 P0007 T02220203

2010/08/08 01:55
KAUM 080155Z AUTO 19007KT 10SM CLR 24/22 A2976 RMK AO2 LTG DSNT NW

2010/08/08 02:04
KBAX 080204Z AUTO 19004KT 10SM SCT050 SCT075 SCT100 21/17 A2989 RMK AO2

2010/08/08 01:53
KBBB 080153Z AUTO 20005KT 10SM BKN046 BKN050 28/24 A2968 RMK AO2 LTG DSNT NE AND E

2010/08/08 01:55
KBBF 080155Z AUTO 16013KT 10SM FEW025 30/27 A2985 RMK A01

2010/08/08 01:55
KBDH 080155Z AUTO 00000KT 10SM SCT040 27/23 A2967 RMK AO2 LTG DSNT NE

2010/08/08 01:54
KBFW 080154Z AUTO 00000KT 10SM CLR 19/12 A2973 RMK AO2 LTG DSNT S AND SW

2010/08/08 01:55
KBQX 080155Z AUTO 17010KT 10SM CLR 30/25 A2987 RMK A01

2010/08/08 01:51
KBWP 080151Z AUTO 11008KT 10SM SCT055 25/21 A2961 RMK AO1 T02490208

2010/08/08 01:54
KCAD 080154Z AUTO 21007KT 10SM SCT036 BKN045 BKN060 22/20 A2987 RMK AO2

2010/08/08 01:55
KCBG 080155Z AUTO 18006KT 10SM VCTS CLR 28/23 A2965 RMK AO2 LTG DSNT NW THRU NE

2010/08/08 01:52
KMLF 080152Z AUTO 03016KT 10SM BKN085 22/09 A2999 RMK AO2 SLP098 T02220089 TSNO

2010/08/08 01:54
KSBN 080154Z 18004KT 10SM CLR 23/18 A2994 RMK AO2 SLP134 T02330178

2010/08/08 01:56
KSMP 080156Z AUTO VRB04KT 1/2SM -RA FG SCT001 BKN006 OVC017 11/11 A2997 RMK AO2 RAB19 SLP140 P0001 T01110106 TSNO $

2010/08/08 01:53
KUIL 080153Z AUTO 26004KT 3SM BR BKN004 OVC018 14/13 A2991 RMK AO2 RAE0055 SLP129 P0000 T01440133 TSNO

2010/08/08 01:54
KAPN 080154Z AUTO 00000KT 10SM CLR 19/17 A2984 RMK AO2 SLP105 T01890172

2010/08/08 01:51
KP58 080151Z AUTO 00000KT 22/16 A2986 RMK AO2 SLP105 T02220161 PWINO TSNO

2010/08/08 01:56
KNID 080156Z AUTO 17018G24KT CLR 33/01 A2973 RMK AO2 SLP048 T03330006 TSNO $

2010/08/08 01:56
KNXP 080156Z AUTO 22012KT CLR 33/04 A2982 RMK AO2 SLP057 T03330039 $

2010/08/08 01:56
KNUW 080156Z 14006KT 10SM -RA SCT008 OVC014 18/16 A2989 RMK AO2 SLP124 P0000 T01760163 $

2010/08/08 01:56
KNXX 080156Z 00000KT 10SM CLR 23/12 A2999 RMK AO2 SLP160 T02330122 $

2010/08/08 01:56
KNCA 080156Z AUTO A2995 RMK AO2 SLP145 PWINO FZRANO TSNO $

2010/08/08 01:56
PHBK 080156Z AUTO 29008KT 10SM SCT055 30/21 A3001 RMK AO2 SLP165 T03000206 TSNO $

2010/08/08 01:56
KNTU 080156Z 07004KT 6SM BR SCT007 BKN040 25/24 A2997 RMK AO2 SLP151 T02500239 $

2010/08/08 01:56
K9L2 080156Z AUTO 23019G25KT 10SM CLR 29/01 A2979 RMK AO2 PK WND 23027/0120 SLP064 T02890006 $

2010/08/08 01:55
KADW 080155Z AUTO 16005KT 10SM CLR 21/17 A2998 RMK AO2 SLP153 T02130175 $

2010/08/08 01:55
KCOF 080155Z 20004KT 10SM CLR 27/24 A2995 RMK AO2A SLP144 T02690244

2010/08/08 01:55
KCVS 080155Z AUTO 15007KT 10SM CLR 26/17 A2995 RMK AO2 SLP094 T02600171 $

2010/08/08 01:55
KEND 080155Z AUTO 13009KT 10SM CLR 32/21 A2981 RMK AO2 SLP076 T03200212 $

2010/08/08 01:55
KFCS 080155Z AUTO 24005KT 10SM CLR 22/13 A3002 RMK AO2 SLP075 T02200132

2010/08/08 01:55
KLSV 080155Z AUTO 17020G26KT 10SM VCTS CLR 35/12 A2970 RMK AO2 PK WND 18026/0149 SLP039 T03510120 PWINO

2010/08/08 01:55
KMIB 080155Z AUTO 12004KT 10SM CLR 25/19 A2964 RMK AO2 SLP030 T02540193

2010/08/08 01:52
KNZY 080152Z 29007KT 10SM SCT018 20/12 A2986 RMK AO2 SLP111 T02000117 $

2010/08/08 01:55
KPSM 080155Z 00000KT 10SM FEW250 16/14 A2999 RMK AO2A SLP157 T01640143

2010/08/08 01:55
KSKF 080155Z 15012KT 10SM FEW070 33/25 A2984 RMK AO2A SLP096 T03250252

2010/08/08 01:55
KTCM 080155Z AUTO 21006KT 10SM BKN008 BKN013 BKN065 OVC080 18/16 A2991 RMK AO2 RAE0111DZB0111E0113 SLP129 P0000 T01760162

2010/08/08 01:55
KXMR 080155Z AUTO 19004KT 10SM SCT095 26/25 A2995 RMK AO2 SLP142 T02640250 $

2010/08/08 01:54
PWAK 080154Z 13010KT 8SM HZ FEW032 30/24 A2992 RMK AO2A

2010/08/08 01:56
KAQV 080156Z AUTO 00000KT 10SM CLR 29/25 A2987 RMK AO2 SLP109 T02940250

2010/08/08 01:56
KNMM 080156Z AUTO 00000KT 8SM CLR 26/24 A2991 RMK AO2 SLP134 T02560239 $

2010/08/08 01:56
KNBC 080156Z AUTO 00000KT 9SM CLR 27/24 A2993 RMK AO2 SLP134 T02720239

2010/08/08 01:55
KGTB 080155Z AUTO 18004KT 10SM CLR 15/12 A2997 RMK AO2 SLP151 T01530121

2010/08/08 01:54
KNFG 080154Z AUTO VRB04KT 10SM CLR 17/13 A2986 RMK AO2 SLP110 T01720128 TSNO $

2010/08/08 01:53
KNQX 080153Z 00000KT 10SM SCT025 SCT041 31/26 A2997 RMK AO2 SLP146 T03060256 $

2010/08/08 01:55
KPAM 080155Z AUTO 11007KT 9SM -TSRA FEW002 BKN022 OVC036 26/24 A2992 RMK AO2 RAB0131 TSB0132 SLP132 P0028 T02560237 $

2010/08/08 01:55
KSSC 080155Z 00000KT 10SM CLR 28/24 A2992 RMK AO2A RAE0102DZB0120E0129 SLP131 P0000 T02750244 $

2010/08/08 01:55
PGUA 080155Z AUTO 07012G17KT 10SM BKN017 BKN023 BKN055 28/25 A2986 RMK AO2 SLP092 T02830251 VISNO RWY24L $

2010/08/08 01:56
K79J 080156Z AUTO 00000KT 10SM FEW048 28/23 A2992 RMK AO2 SLP126 T02780233 TSNO PNO $

2010/08/08 01:56
KHLR 080156Z AUTO 14007KT 10SM CLR 33/19 A2985 RMK AO2 SLP097 T03330194 $

2010/08/08 01:55
KNBG 080155Z 00000KT 10SM FEW060 SCT250 28/24 A2990 RMK AO2 SLP126 T02830244 $

2010/08/08 01:54
KNKT 080154Z 11003KT 8SM CLR 27/24 A2996 RMK AO2 SLP140 T02670239

2010/08/08 01:55
KNKX 080155Z 26006KT 10SM FEW020 18/12 A2987 RMK AO2 SLP108 T01780122

2010/08/08 01:56
KNQI 080156Z AUTO 13011KT 10SM CLR 30/24 A2985 RMK AO2 SLP105 T03000239

2010/08/08 01:56
KNUQ 080156Z 34011KT 10SM CLR 19/13 A2981 RMK AO2 SLP097 T01890133

2010/08/08 01:56
KNYG 080156Z AUTO 31006KT 10SM CLR 22/18 A2998 RMK AO2 SLP154 T02220183 $

2010/08/08 01:55
KNYL 080155Z 17010KT 10SM FEW100 37/07 A2965 RMK AO2 SLP035 T03670072

2010/08/08 01:55
KPOE 080155Z AUTO 19005KT 10SM CLR 29/24 A2988 RMK AO2 SLP117 T02940244

2010/08/08 01:55
KVBG 080155Z AUTO 32006KT 10SM CLR 14/11 A2988 RMK AO2 SLP109 T01390111 TSNO CHINO RWY12 VISNO RWY12 $

2010/08/08 01:56
PMDY 080156Z AUTO 11010KT 10SM FEW027 29/22 A3019 RMK AO2 TSNO T02940216 SLP529

2010/08/08 01:55
KSTE 080155Z AUTO 00000KT 10SM BKN029 OVC038 24/21 A2982 RMK AO2 P0011

2010/08/08 01:53
KSUN 080153Z 21007G15KT 30SM SCT110 25/02 A2991

2010/08/08 01:55
KSUW 080155Z AUTO 01005KT 7SM RA OVC005 18/17 A2970 RMK AO2 P0003

2010/08/08 01:56
KY50 080156Z AUTO 17005KT 10SM VCTS FEW070 24/21 A2982 RMK AO2 T02380211 LTG DSNT E AND SE AND NW SLP091

2010/08/08 01:56
KNSE 080156Z AUTO 00000KT 4SM -RA BR SCT100 SCT120 26/24 A2991 RMK AO2 TSE53 SLP111 P0001 T02610239 $

2010/08/08 01:56
KSGH 080156Z AUTO 14003KT 8SM CLR 19/18 A3000 RMK AO2 T01940183 SLP153 $

2010/08/08 01:52
KGLW 080152Z AUTO 00000KT 7SM CLR 21/18 A2996 RMK AO2 T02140184

2010/08/08 01:55
KGOV 080155Z AUTO 21004KT 10SM SCT043 SCT049 BKN060 22/15 A2988 RMK AO2

2010/08/08 01:55
KGUL 080155Z AUTO 10SM CLR 30/25 A2991 RMK A01

2010/08/08 01:54
KGYL 080154Z AUTO 18005KT 10SM OVC060 27/22 A2968 RMK AO2 LTG DSNT N T02650223

2010/08/08 01:55
KHAF 080155Z AUTO 23005KT 7SM OVC006 12/10 A2987 RMK AO2

2010/08/08 01:55
KHAI 080155Z AUTO 00000KT 10SM CLR 21/18 A2994 RMK AO2

2010/08/08 01:52
KHCD 080152Z AUTO 17005KT 10SM CLR 26/22 A2968 RMK AO2 T02560216 TSNO

2010/08/08 01:54
KHCO 080154Z AUTO 08008KT 4SM HZ CLR 23/19 A2967 RMK AO2

2010/08/08 01:55
KHFF 080155Z AUTO 00000KT 10SM FEW041 27/22 A2998 RMK AO2 SLP147 T02670215 $

2010/08/08 01:55
KHFJ 080155Z AUTO 00000KT 10SM CLR 27/23 A2985 RMK AO1

2010/08/08 01:50
KHQI 080150Z AUTO VRB06KT 10SM 30/25 A2990 RMK A01

2010/08/08 01:54
KHYX 080154Z AUTO 21007KT 10SM OVC090 23/14 A2989 RMK AO2

2010/08/08 01:51
KHZX 080151Z AUTO 12003KT 10SM VCTS SCT037 SCT049 BKN075 22/20 A2969 RMK AO2 LTG DSNT E THRU W

2010/08/08 01:55
KIPN 080155Z AUTO 25008KT 10SM SCT025 SCT030 30/25 A2993 RMK A01

2010/08/08 01:55
KIRS 080155Z AUTO 21003KT 10SM CLR 22/18 A2995 RMK AO2

2010/08/08 01:55
KISQ 080155Z AUTO 20005KT 10SM CLR 22/19 A2978 RMK AO2

2010/08/08 01:55
KJKJ 080155Z AUTO 00000KT 10SM CLR 27/24 A2960 RMK AO2 LTG DSNT E AND SE

2010/08/08 01:55
KJMR 080155Z AUTO 12003KT 10SM TS SCT035 BKN048 BKN060 24/20 A2967 RMK AO2 LTG DSNT ALQS

2010/08/08 01:55
KJYG 080155Z AUTO 00000KT 10SM SCT050 27/26 A2972 RMK AO2

2010/08/08 01:55
KJYM 080155Z AUTO 20003KT 7SM CLR 19/17 A2997 RMK AO2

2010/08/08 01:53
KLJF 080153Z AUTO 17003KT 10SM SCT041 SCT050 BKN060 27/23 A2968 RMK AO2 LTG DSNT NE

2010/08/08 01:55
KLNL 080155Z AUTO 00000KT 7SM SCT024 SCT033 BKN045 20/19 A2981 RMK AO2 T01970187

2010/08/08 01:55
KLUM 080155Z AUTO 14006KT 10SM CLR 24/22 A2972 RMK AO2 LTG DSNT NW

2010/08/08 01:54
KLVN 080154Z AUTO 19003KT 10SM SCT080 26/22 A2970 RMK AO2 LTG DSNT N AND NW

2010/08/08 01:56
KLWA 080156Z AUTO 17004KT 10SM CLR 22/18 A2992 RMK AO2

2010/08/08 01:54
KLXL 080154Z AUTO 09003KT 10SM SCT055 26/22 A2963 RMK AO2

2010/08/08 01:56
KM89 080156Z AUTO 00000KT 10SM CLR 29/26 A2985 RMK AO2 T02880255 SLP118

2010/08/08 01:55
KMDJ 080155Z AUTO 23011KT 10SM CLR 31/25 A2993 RMK A01

2010/08/08 01:55
KMGG 080155Z AUTO 18004KT 10SM VCTS SCT046 27/24 A2968 RMK AO2 LTG DSNT N AND NE T02700235

2010/08/08 01:55
KMGN 080155Z AUTO 00000KT 10SM SCT100 23/16 A2982 RMK AO2

2010/08/08 01:55
KMIU 080155Z AUTO 17017KT 10SM CLR 30/25 A2987 RMK A01

2010/08/08 01:52
KMJQ 080152Z AUTO 19008KT 10SM CLR 25/22 A2974 RMK AO2

2010/08/08 01:54
KMOP 080154Z AUTO 21005KT 10SM SCT100 SCT120 23/18 A2988 RMK AO2

2010/08/08 01:48
KMOX 080148Z AUTO 14004KT 10SM BKN050 27/25 A2960 RMK AO2 LTG DSNT NE AND E

2010/08/08 01:54
KMVE 080154Z AUTO 22006KT 10SM CLR 28/25 A2962 RMK AO2 LTG DSNT N AND NE

2010/08/08 01:53
KMWM 080153Z AUTO 17008KT 10SM CLR 26/22 A2971 RMK AO2 LTG DSNT N

2010/08/08 01:55
KMWO 080155Z AUTO 00000KT 10SM CLR 20/18 A2999 RMK AO2

2010/08/08 01:55
KMZG 080155Z AUTO 00000KT 10SM 30/25 A2986 RMK A01

2010/08/08 01:50
KMZH 080150Z AUTO 00000KT 10SM VCTS SCT041 SCT050 SCT075 21/19 A2966 RMK AO2 LTG DSNT ALQS

2010/08/08 01:55
KOEB 080155Z AUTO 21003KT 10SM SCT090 22/18 A2996 RMK AO2

2010/08/08 01:51
KONA 080151Z AUTO 19005KT 10SM CLR 26/21 A2974 RMK AO2

2010/08/08 01:54
KONZ 080154Z AUTO 21005KT 10SM CLR 25/17 A2993 RMK AO2

2010/08/08 01:54
KORB 080154Z AUTO 00000KT 10SM CLR 18/15 A2970 RMK AO2 LTG DSNT SW

2010/08/08 01:54
KOVL 080154Z AUTO 19007KT 10SM SCT040 25/21 A2966 RMK AO2 LTG DSNT NE T02520205

2010/08/08 01:54
KOWA 080154Z AUTO 17009KT CLR 26/22 A2971 RMK AO2 LTG DSNT N PWINO

2010/08/08 01:55
KOZW 080155Z AUTO 20003KT 10SM CLR 22/16 A2993 RMK AO2

2010/08/08 01:53
KPEX 080153Z AUTO 17007KT 7SM VCTS CLR 27/23 A2966 RMK AO2 LTG DSNT NE AND E T02710227

2010/08/08 01:53
KPNM 080153Z AUTO 18007KT 10SM VCTS CLR 27/23 A2966 RMK AO2 LTG DSNT NW THRU NE

2010/08/08 01:53
KPQN 080153Z AUTO 19007KT 10SM CLR 26/24 A2970 RMK AO2

2010/08/08 01:52
KPVB 080152Z AUTO 15005KT 10SM CLR 22/19 A2987 RMK AO1 T02210191

2010/08/08 01:56
KMHS 080156Z AUTO 01004KT 10SM CLR 27/06 A2985 RMK AO2 SLP094 T02670061 TSNO

2010/08/08 01:56
KFLG 080156Z 00000KT 10SM OVC110 16/13 A3021 RMK AO2 SLP144 T01560133

2010/08/08 01:56
KLWS 080156Z 30011G19KT 10SM CLR 29/06 A2971 RMK AO2 SLP051 T02940061

2010/08/08 01:56
KALK 080156Z AUTO 09017KT 10SM -TSRA BKN045 BKN055 OVC080 18/16 A3008 RMK AO2 RAB11 SLP106 P0005 T01830161 $

2010/08/08 01:56
KGNR 080156Z AUTO 00000KT 12/04 A2997 RMK AO1 SLP154 T01170044

2010/08/08 01:56
KSXT 080156Z AUTO VRB04KT 7SM CLR 20/12 A2996 RMK AO2 SLP106 T02000117 TSNO

2010/08/08 01:56
KP28 080156Z AUTO 13009KT 32/21 A2980 RMK AO2 SLP072 T03170211 PWINO TSNO

2010/08/08 01:56
KCDJ 080156Z AUTO 16003KT 28/21 A2986 RMK AO2 SLP095 T02830211 PWINO TSNO

2010/08/08 01:56
KP53 080156Z AUTO 00000KT 22/18 A2975 RMK AO2 SLP074 T02220183 PWINO TSNO

2010/08/08 01:55
KJQF 080155Z 00000KT 10SM CLR 24/21 A2998

2010/08/08 01:56
KD07 080156Z AUTO 28007KT 27/13 A2975 RMK AO2 SLP057 T02720133 PWINO TSNO

2010/08/08 01:56
KFSD 080156Z 18010G17KT 10SM CLR 28/23 A2968 RMK AO2 SLP037 FEW ABV 120 T02780228

2010/08/08 01:53
KGNT 080153Z AUTO 32005KT 18/16 A3016 RMK AO2 SLP133 P0001 T01780156 PWINO TSNO

2010/08/08 01:56
KSPD 080156Z AUTO 33006KT 25/16 A2993 RMK AO2 SLP068 T02500156 PWINO TSNO

2010/08/08 01:56
TJSJ 080156Z 08010KT 10SM SCT026 28/23 A3000 RMK AO2 SLP158 T02830233

2010/08/08 01:56
KABQ 080156Z 31007KT 10SM FEW065 SCT100 SCT200 27/11 A3004 RMK AO2 SLP079 OCNL LTGCG DSNT SE SHRA DSNT SE CB DSNT SE AND NW-N T02670106

2010/08/08 01:56
KJAX 080156Z 00000KT 10SM FEW005 SCT032 OVC150 24/23 A2992 RMK AO2 RAE17 SLP132 P0001 T02440233

2010/08/08 01:53
K29G 080153Z AUTO 00000KT 10SM CLR 18/16 A3001 RMK AO2 T01750155 PWINO

2010/08/08 01:56
KCAE 080156Z 00000KT 7SM CLR 28/24 A2994 RMK AO2 SLP134 T02780244

2010/08/08 01:56
KCHS 080156Z 26003KT 9SM FEW043 27/23 A2991 RMK AO2 SLP129 T02670233

2010/08/08 01:55
KCLI 080155Z AUTO 21005KT 10SM CLR 24/21 A2978 RMK AO2

2010/08/08 01:54
KFWA 080154Z 17003KT 10SM CLR 22/18 A2997 RMK AO2 SLP145 T02170183

2010/08/08 01:54
KIKW 080154Z AUTO 23003KT 10SM SCT060 OVC080 24/16 A2988 RMK AO2 T02370159

2010/08/08 01:58
KLYV 080158Z AUTO 18008KT 10SM CLR 26/22 A2970 RMK AO2

2010/08/08 01:54
KPZQ 080154Z AUTO 18003KT 10SM CLR 20/16 A2985 RMK AO2

2010/08/08 01:54
KRFD 080154Z 19007KT 10SM CLR 23/18 A2990 RMK AO2 SLP120 T02280183

2010/08/08 01:54
KROA 080154Z 00000KT 10SM FEW070 25/16 A3004 RMK AO2 SLP159 T02500161 $

2010/08/08 01:55
KROS 080155Z AUTO 14005KT 10SM TS SCT037 SCT048 BKN065 25/22 A2966 RMK AO2 LTG DSNT NW THRU NE P0001 T02460222

2010/08/08 01:55
KSCF 080155Z AUTO 00000KT 10SM CLR 31/25 A2985 RMK A01

2010/08/08 01:56
KSHV 080156Z 00000KT 10SM FEW080 SCT170 BKN290 28/24 A2984 RMK AO2 SLP101 T02830244

2010/08/08 01:58
KSYN 080158Z AUTO 18005KT 10SM CLR 26/22 A2970 RMK AO2 LTG DSNT N T02610220

2010/08/08 01:54
KTKC 080154Z AUTO 19003KT 10SM CLR 26/22 A2968 RMK AO2 LTG DSNT NE T02640221

2010/08/08 01:56
KWMC 080156Z AUTO 00000KT 10SM CLR 28/M01 A2981 RMK AO2 TSB16E33 SLP054 T02781011

2010/08/08 01:55
KSNC 080155Z AUTO 00000KT 10SM CLR 18/18 A3002 RMK AO2

2010/08/08 01:55
KTKV 080155Z AUTO 00000KT 10SM BKN065 BKN080 BKN085 20/18 A2979 RMK AO2 T01950182

2010/08/08 01:57
KTOI 080157Z AUTO 35013KT 1 1/2SM +TSRA BR SCT008 BKN029 OVC037 23/22 A2996 RMK AO2 LTG DSNT E P0013

2010/08/08 01:51
KPAM 080151Z AUTO 11010KT 5SM -TSRA BR FEW002 BKN022 BKN028 OVC034 26/24 A2991 RMK AO2 RAB0131 TSB0132 SLP131 $

2010/08/08 01:47
KVAD 080147Z 19003KT 8SM R18/5500FT -RA FEW004 OVC009 25/25 A2993 RMK AO2A CIG 005 RWY36 SLP134 $

2010/08/08 01:48
KVAD 080148Z 19003KT 8SM R18/5500VP6000FT -RA FEW004 OVC008 25/25 A2993 RMK AO2A CIG 004 RWY36 SLP134 $

2010/08/08 01:51
KVAD 080151Z 20003KT 9SM R18/5500VP6000FT -RA OVC006 25/25 A2993 RMK AO2A SLP135 $

2010/08/08 01:51
KPAM 080151Z AUTO 11010KT 5SM -TSRA BR FEW002 BKN022 BKN028 OVC034 26/24 A2991 RMK AO2 RAB0131 TSB0132 SLP131 $

2010/08/08 01:47
KVAD 080147Z 19003KT 8SM R18/5500FT -RA FEW004 OVC009 25/25 A2993 RMK AO2A CIG 005 RWY36 SLP134 $

2010/08/08 01:48
KVAD 080148Z 19003KT 8SM R18/5500VP6000FT -RA FEW004 OVC008 25/25 A2993 RMK AO2A CIG 004 RWY36 SLP134 $

2010/08/08 01:51
KVAD 080151Z 20003KT 9SM R18/5500VP6000FT -RA OVC006 25/25 A2993 RMK AO2A SLP135 $

2010/08/08 01:56
KNFL 080156Z AUTO 29006KT 10SM CLR 32/M03 A2977 RMK AO2 SLP060 T03171028 TSNO

2010/08/08 01:56
KFHU 080156Z AUTO 32007G18KT 4SM -RA BR OVC050 18/17 A3007 RMK AO2 PK WND 31026/0131 VIS 1/2 WEST CIG 010 WEST SLP127 P0014 T01830172 TSNO $

2010/08/08 01:56
KNTD 080156Z 25007KT 10SM FEW015 17/13 A2983 RMK AO2 SLP103 T01670128 $

2010/08/08 01:55
KFAF 080155Z AUTO 10003KT 10SM CLR 26/20 A2997 RMK AO2 SLP151 T02590200 $

2010/08/08 01:55
KGBK 080155Z AUTO 19004KT 10SM FEW027 30/24 A2993 RMK A01

2010/08/08 01:55
KLFI 080155Z 12005KT 10SM CLR 25/22 A2998 RMK AO2A SLP152 T02500222

2010/08/08 01:55
KMCF 080155Z AUTO 24004KT 10SM CLR 29/26 A2994 RMK AO2 SLP141 T02910262

2010/08/08 01:55
KMHR 080155Z AUTO 22009KT 10SM CLR 28/12 A2972 RMK AO1

2010/08/08 01:53
KMRT 080153Z AUTO 00000KT 10SM CLR 19/17 A3002 RMK AO2 T01870171

2010/08/08 01:57
KNJM 080157Z AUTO 00000KT 9SM CLR 26/24 A2995 RMK AO2 SLP145 T02610244

2010/08/08 01:56
KNGP 080156Z AUTO 20008KT 160V230 10SM CLR 28/26 A2986 RMK AO2 SLP109 T02830256 VISNO $

2010/08/08 01:54
KNKT 080154Z 11003KT 8SM CLR 27/24 A2996 RMK AO2 SLP140 T02670239

2010/08/08 01:55
KNKX 080155Z 26006KT 10SM FEW020 18/12 A2987 RMK AO2 SLP108 T01780122

2010/08/08 01:56
KNPA 080156Z AUTO 00000KT 10SM CLR 27/23 A2990 RMK AO2 TSE31 SLP126 T02670233

2010/08/08 01:56
KNQI 080156Z AUTO 13011KT 10SM CLR 30/24 A2985 RMK AO2 SLP105 T03000239

2010/08/08 01:56
KNYG 080156Z AUTO 31006KT 10SM CLR 22/18 A2998 RMK AO2 SLP154 T02220183 $

2010/08/08 01:55
KNYL 080155Z 17010KT 10SM FEW100 37/07 A2965 RMK AO2 SLP035 T03670072

2010/08/08 01:52
KNZY 080152Z 29007KT 10SM SCT018 20/12 A2986 RMK AO2 SLP111 T02000117 $

2010/08/08 01:55
KPOE 080155Z AUTO 19005KT 10SM CLR 29/24 A2988 RMK AO2 SLP117 T02940244

2010/08/08 01:55
KPSM 080155Z 00000KT 10SM FEW250 16/14 A2999 RMK AO2A SLP157 T01640143

2010/08/08 01:55
KSKF 080155Z 15012KT 10SM FEW070 33/25 A2984 RMK AO2A SLP096 T03250252

2010/08/08 01:55
KTCM 080155Z AUTO 21006KT 10SM BKN008 BKN013 BKN065 OVC080 18/16 A2991 RMK AO2 RAE0111DZB0111E0113 SLP129 P0000 T01760162

2010/08/08 01:55
KVBG 080155Z AUTO 32006KT 10SM CLR 14/11 A2988 RMK AO2 SLP109 T01390111 TSNO CHINO RWY12 VISNO RWY12 $

2010/08/08 01:55
KVPS 080155Z 02002KT 10SM FEW180 BKN250 25/24 A2991 RMK AO2A SLP128 T02490241 $

2010/08/08 01:53
KPWC 080153Z AUTO 15005KT 10SM BKN032 BKN039 BKN080 23/19 A2968 RMK AO2

2010/08/08 01:49
KVWU 080149Z AUTO 06006KT 10SM BKN039 BKN048 21/18 A2969 RMK AO2

2010/08/08 01:56
KXVG 080156Z AUTO 00000KT 10SM SCT070 22/21 A2966 RMK AO2 LTG DSNT SE THRU W

2010/08/08 01:55
KY63 080155Z AUTO 13004KT 10SM SCT038 SCT060 SCT070 25/17 A2962 RMK AO2 LTG DSNT NE AND E T02500171

2010/08/08 01:55
KY70 080155Z AUTO 20006KT 10SM CLR 23/18 A2990 RMK AO2 T02250175

2010/08/08 01:55
KRCM 080155Z AUTO 14005KT 10SM CLR 26/22 A2985 RMK AO2

2010/08/08 01:55
KRGK 080155Z AUTO 00000KT 10SM CLR 28/22 A2970 RMK AO2 LTG DSNT NW

2010/08/08 01:55
KRNP 080155Z AUTO 23003KT 10SM SCT110 22/16 A2991 RMK AO2

2010/08/08 01:55
KROX 080155Z AUTO 08004KT 10SM CLR 21/18 A2968 RMK AO2

2010/08/08 01:55
KRQB 080155Z AUTO 20003KT 10SM OVC110 23/18 A2988 RMK AO2

2010/08/08 01:54
KRRT 080154Z AUTO 10009KT 10SM SCT048 22/18 A2969 RMK AO2 TSNO

2010/08/08 01:53
KRZN 080153Z AUTO 13006KT 10SM SCT038 SCT044 BKN060 25/21 A2968 RMK AO2 T02450207

2010/08/08 01:54
KSAZ 080154Z AUTO 00000KT 3SM TSRA SCT003 BKN022 OVC027 21/21 A2970 RMK AO2 P0107 LTG DSNT ALQDS

2010/08/08 01:53
KSGS 080153Z AUTO 20008KT 10SM CLR 28/22 A2969 RMK AO2 LTG DSNT N T02830216

2010/08/08 01:55
KSJX 080155Z AUTO 20005KT 10SM CLR 22/18 A2980 RMK AO2

2010/08/08 01:55
KSLH 080155Z AUTO 00000KT 10SM BKN100 18/17 A2982 RMK AO2

2010/08/08 01:55
KSPR 080155Z AUTO 23004KT 10SM CLR 31/24 A2991 RMK A01

2010/08/08 01:55
KSRR 080155Z AUTO 19009KT 10SM CLR 20/12 A3019 RMK AO2

2010/08/08 01:53
KTEW 080153Z AUTO 00000KT 10SM CLR 20/16 A2993 RMK AO2

2010/08/08 01:55
KTOB 080155Z AUTO 20009G15KT 10SM CLR 26/23 A2975 RMK AO2

2010/08/08 01:53
KTWM 080153Z AUTO 04003KT 10SM BKN018 BKN027 OVC075 18/13 A2972 RMK AO2 LTG DSNT NE AND NW

2010/08/08 01:45
KUES 080145Z COR 20006KT 10SM SKC 23/17 A2987 RMK LAST

2010/08/08 01:50
KUKT 080150Z AUTO 00000KT 10SM CLR 20/15 A3000 RMK AO1

2010/08/08 01:55
KULM 080155Z AUTO 19006KT 10SM SCT050 26/22 A2969 RMK AO2 LTG DSNT N

2010/08/08 01:55
KVAF 080155Z AUTO 19006KT 10SM SCT022 SCT027 30/25 A2986 RMK A01

2010/08/08 01:55
KVBS 080155Z AUTO 20007G14KT 160V230 10SM CLR 31/25 A2988 RMK A01

2010/08/08 01:53
KVES 080153Z AUTO 00000KT 10SM CLR 19/17 A2999 RMK AO2 T01850174

2010/08/08 01:54
KVLL 080154Z AUTO 22004KT 10SM CLR 25/15 A2995 RMK AO2

2010/08/08 01:56
KVVV 080156Z AUTO 00000KT 10SM SCT048 BKN050 29/23 A2962 RMK AO2 LTG DSNT NE

2010/08/08 01:56
PAMB 080156Z AUTO 21010KT 10SM BKN009 BKN024 OVC050 12/11 A2973 RMK AO2 PWINO TSNO T01220105 CIG 007V012 SLP072 $

2010/08/08 01:56
PAOH 080156Z AUTO 00000KT 10SM BKN010 OVC024 13/13 A2984 RMK AO2 TSNO T01330127 RAB06E20 P0000 SLP106 $

2010/08/08 01:56
PPIZ 080156Z AUTO 07015G20KT 10SM BKN015 09/06 A2970 RMK AO2 TSNO T00940055 BKN V SCT SLP059 $

2010/08/08 01:55
K4M9 080155Z AUTO 10006KT 10SM 26/22 A2989 RMK AO2

2010/08/08 01:55
KBVU 080155Z AUTO 17013G20KT 10SM CLR 34/10 A2976 RMK AO2

2010/08/08 01:55
KMAN 080155Z AUTO 04005KT 10SM CLR 30/06 A2973 RMK AO1

2010/08/08 01:55
KMCJ 080155Z AUTO 16007KT 10SM CLR 30/24 A2985 RMK AO1

2010/08/08 01:55
KMDZ 080155Z AUTO 17004KT 10SM SCT050 22/21 A2978 RMK AO2

2010/08/08 01:58
KMEI 080158Z 00000KT 8SM CLR 26/26 A2991 RMK AO2 SLP124 T02610256

2010/08/08 01:55
KMRJ 080155Z AUTO 17006KT 10SM CLR 23/18 A2987 RMK AO2 T02320182

2010/08/08 01:55
KOEO 080155Z AUTO 19006KT 10SM BKN043 BKN075 27/23 A2970 RMK AO2

2010/08/08 01:55
KPBH 080155Z AUTO 00000KT 10SM SCT060 22/21 A2977 RMK AO2 LTG DSNT N AND SE

2010/08/08 01:55
KPCZ 080155Z AUTO 00000KT 10SM -RA SCT060 SCT065 OVC100 26/21 A2981 RMK AO2 T02550211

2010/08/08 01:52
KPDC 080152Z AUTO 14004KT 10SM CLR 26/22 A2981 RMK AO2 T02600222

2010/08/08 01:54
KPVU 080154Z 13013KT 15SM SCT090 BKN120 25/10 A2996

2010/08/08 01:55
KRCX 080155Z AUTO 12005KT 10SM BKN032 BKN045 BKN050 23/21 A2976 RMK AO2 LTG DSNT NW T02330210

2010/08/08 01:55
KRPD 080155Z AUTO 14009KT 10SM BKN033 24/21 A2972 RMK AO2 LTG DSNT W AND NW T02410207

2010/08/08 01:55
KRRL 080155Z AUTO 00000KT 10SM VCTS SCT090 21/20 A2979 RMK AO2 LTG DSNT ALQS T02120200

2010/08/08 01:55
KRYV 080155Z AUTO 00000KT 10SM SCT070 23/19 A2987 RMK AO2

2010/08/08 01:54
KCDA 080154Z AUTO 00000KT 10SM CLR 11/08 A3002 RMK AO2

2010/08/08 01:52
KCDD 080152Z AUTO 00000KT 7SM SCT044 21/21 A2974 RMK AO2

2010/08/08 02:02
KCFE 080202Z AUTO 18007KT 10SM VCTS SCT060 28/23 A2968 RMK AO2 LTG DSNT N AND NE T02750231

2010/08/08 01:55
KCFS 080155Z AUTO 20003KT 10SM SCT048 BKN110 22/16 A2989 RMK AO2

2010/08/08 01:55
KCKC 080155Z AUTO 00000KT 10SM CLR 15/13 A2978 RMK AO2 P0001

2010/08/08 01:55
KCKN 080155Z AUTO 11003KT 10SM CLR 26/21 A2963 RMK AO2

2010/08/08 01:55
KCMB 080155Z AUTO 21010KT 10SM CLR 32/25 A2989 RMK A01

2010/08/08 01:55
KCMR 080155Z AUTO 13005KT 10SM CLR 16/13 A3019 RMK AO1

2010/08/08 01:55
KCMY 080155Z AUTO 16006KT 10SM SCT034 25/21 A2980 RMK AO2 LTG DSNT E T02470207

2010/08/08 01:54
KCNB 080154Z AUTO 18004KT 10SM CLR 28/24 A2963 RMK AO2 LTG DSNT NE T02800240

2010/08/08 01:56
KCOQ 080156Z AUTO 11009KT 3SM +TSRA OVC003 18/16 A2969 RMK AO2 P0003 LTG DSNT ALQDS

2010/08/08 01:57
KCQM 080157Z AUTO 00000KT 10SM SCT060 21/16 A2972 RMK AO2 LTG DSNT S AND SW

2010/08/08 01:55
KCRH 080155Z AUTO 19009KT 10SM FEW029 31/24 A2990 RMK A01

2010/08/08 01:50
KCVH 080150Z AUTO 25015G19KT 10SM CLR 16/12 A2984 RMK AO1

2010/08/08 01:55
KCVX 080155Z AUTO 18004KT 10SM CLR 22/15 A2983 RMK AO2

2010/08/08 01:50
KCWA 080150Z 15005KT 10SM SCT048 SCT060 SCT075 21/21 A2980 RMK TS DSNT E MOV SE LGTICCG

2010/08/08 01:55
KDLL 080155Z AUTO 20004KT 10SM OVC033 24/19 A2984 RMK AO2 LTG DSNT NE T02370194

2010/08/08 01:55
KDLP 080155Z AUTO 24010KT 10SM CLR 33/25 A2990 RMK A01

2010/08/08 01:57
KDRM 080157Z AUTO 16003KT 10SM BKN085 17/17 A2982 RMK AO2

2010/08/08 01:55
KDTL 080155Z AUTO 05003KT 10SM TS BKN035 BKN044 BKN070 25/19 A2966 RMK AO2 LTG DSNT E AND SE

2010/08/08 01:54
KDUH 080154Z AUTO 00000KT 10SM CLR 22/16 A2996 RMK AO2

2010/08/08 01:56
KDVP 080156Z AUTO 17007KT 10SM CLR 26/22 A2972 RMK AO2 T02580216

2010/08/08 01:54
KDXX 080154Z AUTO 00000KT 10SM CLR 27/26 A2962 RMK AO2 LTG DSNT NE

2010/08/08 01:54
KDYT 080154Z AUTO 35014KT 5SM TSRA SCT004 BKN038 OVC065 19/17 A2972 RMK AO2 LTG DSNT ALQDS

2010/08/08 01:56
KEFK 080156Z AUTO 21004KT 10SM CLR 09/07 A3000 RMK AO2

2010/08/08 01:55
KEFT 080155Z AUTO 18007KT 10SM CLR 23/19 A2988 RMK AO2 T02310190

2010/08/08 01:51
KEGV 080151Z AUTO 00000KT 7SM -RA SCT019 SCT055 OVC110 21/21 A2979 RMK AO2 T02050205

2010/08/08 01:55
KEHC 080155Z AUTO 21008KT 10SM FEW024 31/25 A2991 RMK A01

2010/08/08 01:55
KEIR 080155Z AUTO 18005KT 10SM FEW029 31/24 A2992 RMK A01

2010/08/08 01:56
KEKQ 080156Z AUTO 00000KT 5SM BR CLR 19/19 A2999 RMK AO2 T01940188 SLP155

2010/08/08 01:54
KELO 080154Z AUTO 00000KT 10SM SCT110 20/17 A2972 RMK AO2 LTG DSNT S AND SW

2010/08/08 01:55
KEMK 080155Z AUTO 20007KT 10SM CLR 30/25 A2990 RMK A01

2010/08/08 01:55
KERY 080155Z AUTO 20005KT 10SM SCT095 20/18 A2980 RMK AO2

2010/08/08 01:52
KETB 080152Z AUTO 20004KT 10SM SCT120 22/18 A2985 RMK AO2 T02210178

2010/08/08 01:54
KETH 080154Z AUTO 19003KT 10SM CLR 26/22 A2964 RMK AO2 LTG DSNT E

2010/08/08 01:52
KEVM 080152Z AUTO 16004KT 10SM SCT036 BKN070 OVC080 22/18 A2970 RMK AO1 LTG DSNT S AND SW

2010/08/08 01:55
KEZS 080155Z AUTO 22003KT 10SM VCTS SCT110 25/22 A2978 RMK AO2 LTG DSNT SW T02510216

2010/08/08 01:54
KFBL 080154Z AUTO 18005KT 10SM CLR 26/21 A2973 RMK AO2 LTG DSNT N

2010/08/08 01:53
KFFM 080153Z AUTO 09004KT 10SM CLR 22/19 A2960 RMK AO2 LTG DSNT NE AND E

2010/08/08 01:55
KFFX 080155Z AUTO 20006KT 10SM CLR 22/19 A2987 RMK AO2

2010/08/08 01:54
KFGN 080154Z AUTO 00000KT 10SM CLR 22/17 A2970 RMK AO2

2010/08/08 02:01
KFKA 080201Z AUTO 18008KT 10SM CLR 26/23 A2979 RMK AO2 T02550226

2010/08/08 01:54
KFKS 080154Z AUTO 19010G15KT 10SM BKN039 BKN045 OVC060 24/19 A2982 RMK AO2

2010/08/08 01:53
KFOZ 080153Z AUTO 06004KT 10SM SCT042 SCT049 21/17 A2971 RMK AO2 LTG DSNT SE

2010/08/08 01:56
KFPK 080156Z AUTO 20004KT 10SM CLR 21/17 A2993 RMK AO2

2010/08/08 01:54
KFSE 080154Z AUTO 00000KT 10SM CLR 23/20 A2964 RMK AO2 LTG DSNT SE AND S

2010/08/08 01:59
KFSO 080159Z AUTO 13005KT 10SM CLR 13/10 A2997 RMK AO2

2010/08/08 01:52
KGDB 080152Z AUTO 16006KT 10SM CLR 26/23 A2966 RMK AO2 LTG DSNT NE T02600234

2010/08/08 01:53
KGHW 080153Z AUTO 18006KT 10SM CLR 27/23 A2968 RMK AO2 LTG DSNT NW THRU E

2010/08/08 01:55
OPKC 080155Z 28004KTS 6000 FEW020 BKN100 100 28/26 Q1000 NOSIG

2010/08/08 01:50
EDNY 080150Z AUTO VRB01KT 8000 NSC 11/10 Q1019

2010/08/08 01:50
EDFE 080150Z AUTO 13002KT //// R27/P2000N // /// 16/14 Q1015

2010/08/08 01:55
EHKD 080155Z AUTO 35003KT 9999NDV OVC072/// 16/15 Q1015 BLU

2010/08/08 01:50
EGNJ 080150Z AUTO 34007KT 9999NDV OVC016/// 15/13 Q1019

2010/08/08 01:50
EGNS 080150Z 34012KT 9999 FEW010 13/11 Q1020

2010/08/08 01:50
EGPA 080150Z AUTO 30008KT 9999NDV FEW012/// BKN038/// 13/12 Q1019

2010/08/08 01:50
EGPC 080150Z AUTO 25005KT 9999NDV FEW040/// 10/10 Q1019

2010/08/08 01:56
KNJK 080156Z AUTO 13008KT 10SM CLR 36/13 A2961 RMK AO2 SLP041 T03610128 TSNO 

2010/08/08 01:50
EGPC 080150Z AUTO 25005KT 9999NDV FEW040/// 10/10 Q1019

2010/08/08 01:50
EGPE 080150Z AUTO 21003KT 9999NDV OVC043/// 12/09 Q1020

2010/08/08 01:50
EGPL 080150Z AUTO 20004KT 9999NDV FEW015/// BKN024/// 11/10 Q1020

2010/08/08 01:50
EGPM 080150Z AUTO 29009KT 9999NDV BKN016/// 12/10 Q1016

2010/08/08 01:50
EGPO 080150Z AUTO 25004KT 9999NDV SCT022/// BKN027/// BKN034/// 12/10 Q1020

2010/08/08 02:00
LZKC 080200Z AUTO VRB02KT //// ////// 16/15 Q1014

2010/08/08 02:00
LZLU 080200Z AUTO 21005KT 160V260 //// ////// 14/13 Q1016

2010/08/08 02:00
LZNI 080200Z AUTO 25005KT 230V290 3900 RA ////// 16/15 Q1015

2010/08/08 02:00
LZPE 080200Z AUTO 00000KT 9999 ////// 15/14 Q1015

2010/08/08 01:53
KRYT 080153Z AUTO 00000KT 10SM BKN070 BKN090 23/17 A2999 RMK AO2 SLP143 T02330167 $ 

2010/08/08 01:50
PKMR 080150Z 10008KT 20SM FEW016 BKN300 31/24 A2980 RMK SLP091 T0311024  

2010/08/08 02:00
TKPK 080200Z 05010KT 9999 SCT018 28/24 Q1015

2010/08/08 02:00
SBKP 080200Z 11008KT CAVOK 12/07 Q1020

2010/08/08 01:59
CYUA 080159Z AUTO 02012KT 1 3/4SM -RA BKN006 BKN011 09/ A2967

2010/08/08 01:55
KINL 080155Z AUTO 10004KT 10SM SCT047 BKN055 BKN075 20/16 A2971 RMK AO2 SLP061 T02000161 

2010/08/08 01:56
KINS 080156Z AUTO 12024G31KT 10SM 28/10 A2980 RMK AO2 PK WND 13031/0155 SLP040 T02830100 TSNO $ 

2010/08/08 01:55
EHAK 080155Z AUTO 35006KT 9999NDV FEW021/// 16/15 Q1015

2010/08/08 01:55
EHDV 080155Z AUTO 34010KT 9999NDV FEW009/// 17/14 Q1016

2010/08/08 01:55
EHFD 080155Z AUTO 35008KT 310V050 9999NDV FEW006/// SCT008/// BKN011/// 16/15 Q1016

2010/08/08 01:55
EHFZ 080155Z AUTO 33012KT 9999NDV FEW006/// SCT015/// BKN020/// 17/15 Q1015

2010/08/08 01:55
EHJA 080155Z AUTO 32008KT 280V010 9999NDV NCD 17/14 Q1016

2010/08/08 01:55
EHKV 080155Z AUTO 35010KT 9999NDV FEW006/// SCT015/// 17/15 Q1015

2010/08/08 01:55
EHMA 080155Z AUTO 19007KT 5000NDV FEW002/// SCT010/// BKN022/// 17/16 Q1015

2010/08/08 01:55
EHMG 080155Z AUTO 33008KT 9999NDV FEW006/// SCT007/// BKN011/// 17/15 Q1015

2010/08/08 01:55
EHPG 080155Z AUTO 01005KT 310V070 9999NDV FEW004/// SCT006/// BKN008/// 17/16 Q1015

2010/08/08 01:55
EHQE 080155Z AUTO 35007KT 9999NDV SCT000/// SCT005/// BKN007/// 17/15 Q1015

2010/08/08 02:00
FOOL 080200Z 17006KT 130V210 9999 SCT008 OVC040 24/22 Q1014 NOSIG

2010/08/08 01:55
OPKC 080155Z 28004KTS 6000 FEW020 BKN100 100 28/26 Q1000 NOSIG

2010/08/08 01:55
OPLA 080155Z 16004KT 4000 FU SCT040 BKN100 29/26 Q1003 NOSIG

2010/08/08 01:55
OPNH 080155Z 31503KT 3000 FU SCT030 BKN100 29/27 Q.1000

2010/08/08 02:00
UBBB 080200Z 31004KT 8000 BCFG NSC 24/24 Q1011 NOSIG RMK R88CLRD70

2010/08/08 01:56
KHLR 080156Z AUTO 14007KT 10SM CLR 33/19 A2985 RMK AO2 SLP097 T03330194 $

2010/08/08 01:54
PGSN 080154Z 07013G17KT 10SM FEW017 SCT028 SCT037 31/26 A2986 RMK AO2 RAB36E46 SLP106 P0000 T03060256 $

2010/08/08 01:55
PGUA 080155Z AUTO 07012G17KT 10SM BKN017 BKN023 BKN055 28/25 A2986 RMK AO2 SLP092 T02830251 VISNO RWY24L $

2010/08/08 01:54
PGUM 080154Z 08014KT 10SM FEW023 31/24 A2985 RMK AO2 SLP099 T03110239

2010/08/08 01:55
PHHI 080155Z AUTO 10010KT 10SM -DZ SCT032 BKN045 27/19 A3005 RMK AO2 DZB0149 SLP164 P0000 T02740189 $

2010/08/08 01:53
PHJR 080153Z VRB06G18KT 10SM BKN049 30/18 A3003 RMK AO2 SLP175 T03000183

2010/08/08 01:53
PHKO 080153Z 25007KT 10SM OVC050 27/21 A3000 RMK AO2 SLP158 T02670206

2010/08/08 01:54
PHMK 080154Z 02013G25KT 10SM FEW019 SCT033 28/20 A3003 RMK AO2 PK WND 03027/0143 SLP169 T02780200

2010/08/08 01:53
PHNL 080153Z 04010G17KT 10SM FEW026 SCT045 SCT060 30/19 A3002 RMK AO2 PK WND 06026/0121 SLP166 T03000189

2010/08/08 01:54
PHOG 080154Z 06022G29KT 10SM FEW035 SCT045 30/19 A2999 RMK AO2 PK WND 05032/0058 SLP160 T03000194

2010/08/08 01:53
PHTO 080153Z 09008KT 10SM SCT025 BKN065 27/21 A3004 RMK AO2 SLP169 T02670206

2010/08/08 01:53
PTKK 080153Z 13008KT 15SM SCT014CB BKN120 OVC280 31/26 A2978 RMK CB ALQDS MOV NW SLP084 T03110256

2010/08/08 01:54
PWAK 080154Z 13010KT 8SM HZ FEW032 30/24 A2992 RMK AO2A

2010/08/08 01:55
RJTY 080155Z AUTO VRB04KT 9999 FEW033 30/23 A3007 RMK AO2 SLP176 T02990229 $

2010/08/08 01:55
RODN 080155Z 21009KT 9999 -RA FEW007 SCT021 OVC037 27/26 A2967 RMK AO2A RAB0110E0131B0148 FEW V SCT CIG 028 RWY23 SLP046 P0003 T02690257

2010/08/08 01:50
KQEI 080150Z AUTO 11002KT 7SM CLR 29/19 A3004 RMK A02

2010/08/08 01:50
KQEJ 080150Z AUTO 00000KT 7SM SCT065 29/20 A3003 RMK A02

2010/08/08 01:50
KQEN 080150Z AUTO 25005KT 7SM FEW026 25/20 A3052 RMK A02

2010/08/08 01:50
KQEP 080150Z AUTO 15003KT 7SM FEW015 SCT034 28/22 A2995 RMK A02

2010/08/08 01:50
KQEQ 080150Z AUTO 24002KT 7SM SCT050 SCT055 BKN070 28/22 A2990 RMK A02

2010/08/08 01:50
KQER 080150Z AUTO 09001KT 7SM SCT043 BKN070 28/21 A2999 RMK A02

2010/08/08 01:50
KQES 080150Z AUTO 36006KT 7SM FEW028 27/22 A2994 RMK A02

2010/08/08 01:50
KQEW 080150Z AUTO 05003KT 7SM FEW014 SCT015 27/22 A2992 RMK A02

2010/08/08 01:50
KQEX 080150Z AUTO 06004KT 6SM BR CLR 29/22 A2983 RMK A02

2010/08/08 01:50
KQEY 080150Z AUTO 19001KT 7SM FEW031 29/20 A2968 RMK A02

2010/08/08 01:50
KQFB 080150Z AUTO 27004KT 7SM CLR 29/21 A3001 RMK A02

2010/08/08 01:50
KQFU 080150Z AUTO 22003KT 7SM OVC045 28/22 A3000 RMK A02

2010/08/08 01:50
KQFW 080150Z AUTO 34002KT 7SM CLR 28/21 A3000 RMK A02

2010/08/08 01:55
KQSB 080155Z AUTO 07003KT 6000 CLR 28/11 A2977 RMK AO2 SLP986 T02780105 $

2010/08/08 01:55
KQSL 080155Z 32007KT 4000 DU SCT190 34/M01 A2965 RMK SLP029 Q1004MB

2010/08/08 01:55
KQSR 080155Z 09002KT 6000 BR FEW002 SCT015 BKN040 OVC080 18/16 A3005 RMK AO2A SLP092 WND DATA/ALSTG ESTMD

2010/08/08 01:55
KQTO 080155Z COR 32007KT 5000 DU SCT200 33/02 A2957 RMK SLP011 COR 0158

2010/08/08 01:56
KQB6 080156Z AUTO 07001KT 12SM -SHRA FEW060 BKN075 BKN090 18/16 A2982 RMK AO2 SLP025 T01830160 PNO $

2010/08/08 01:58
CWOB 080158Z AUTO ///// 0SM CLR 04/ A2948

2010/08/08 01:55
CWSA 080155Z AUTO 26005KT 2 1/2SM CLR 16/15 A2999

2010/08/08 01:56
ETIC 080156Z AUTO 00000KT 0800 FG CLR 09/09 A3005 RMK AO2 SLP172

2010/08/08 01:55
KDMA 080155Z AUTO 27006KT 10SM FEW075 BKN110 BKN130 BKN180 30/17 A2989 RMK AO2 SLP059 T03010168 VISNO RWY12 CHINO RWY12 $

2010/08/08 01:55
KHOP 080155Z AUTO 07005KT 10SM CLR 25/17 A2993 RMK AO2 SLP133 T02490170

2010/08/08 01:56
KNBC 080156Z AUTO 00000KT 9SM CLR 27/24 A2993 RMK AO2 SLP134 T02720239

2010/08/08 01:56
KNFL 080156Z AUTO 29006KT 10SM CLR 32/M03 A2977 RMK AO2 SLP060 T03171028 TSNO

2010/08/08 01:56
KNGP 080156Z AUTO 20008KT 160V230 10SM CLR 28/26 A2986 RMK AO2 SLP109 T02830256 VISNO $

2010/08/08 01:56
KNPA 080156Z AUTO 00000KT 10SM CLR 27/23 A2990 RMK AO2 TSE31 SLP126 T02670233

2010/08/08 01:56
KNSE 080156Z AUTO 00000KT 4SM -RA BR SCT100 SCT120 26/24 A2991 RMK AO2 TSE53 SLP111 P0001 T02610239 $

2010/08/08 01:56
KNUW 080156Z 14006KT 10SM -RA SCT008 OVC014 18/16 A2989 RMK AO2 SLP124 P0000 T01760163 $

2010/08/08 01:56
KNXP 080156Z AUTO 22012KT CLR 33/04 A2982 RMK AO2 SLP057 T03330039 $

2010/08/08 01:56
KNXX 080156Z 00000KT 10SM CLR 23/12 A2999 RMK AO2 SLP160 T02330122 $

2010/08/08 01:56
MUGM 080156Z 12005KT 9999 FEW045 SCT250 29/24 A2998 RMK SLP150 T02940244

2010/08/08 02:00
ORER 080200Z VRB03KT 9000 SCT060 29/00 Q1005

2010/08/08 01:56
PASY 080156Z AUTO 25029G33KT 5SM BR OVC003 10/10 A2902 RMK AO2 PK WND 25034/0120 SLP827 T01000100 TSNO PNO $

2010/08/08 02:00
TFFR 080200Z 07007KT 9999 FEW026 27/23 Q1014 NOSIG

2010/08/08 01:55
TXKF 080155Z 19012KT 9999 VCSH FEW012 SCT026 BKN053 OVC072 27/24 Q1016 /

2010/08/08 02:00
GQNN 080200Z 26006KT 230V300 6000 BKN010 26/23 Q1010 TEMPO SCT010

2010/08/08 02:00
TFFF 080200Z VRB03KT 9999 SCT012 SCT016 25/24 Q1014 RESHRA NOSIG

2010/08/08 01:56
KBIH 080156Z AUTO 14012KT 10SM CLR 29/M06 A2980 RMK AO2 SLP044 T02891061 TSNO 

2010/08/08 02:00
UTTT 080200Z 06004MPS CAVOK 26/09 Q1007 R08R/CLRD70 NOSIG

2010/08/08 02:00
FIMP 080200Z 13018KT 9999 FEW017 SCT050 22/11 Q1023

2010/08/08 02:00
GOOY 080200Z 24006KT 210V280 9999 SCT013 27/22 Q1011 NOSIG

2010/08/08 02:00
SBCG 080200Z 09008KT CAVOK 17/05 Q1017

2010/08/08 01:59
KNGU 080159Z 09005KT 9SM CLR 26/23 A2999 RMK AO2 SLP155 T02560233 $ 

2010/08/08 02:00
MHLC 080200Z 13002KT 9999 SCT022CB SCT080 BKN220 26/24 Q1011 A2988 NOSIG

2010/08/08 01:49
MMSP 080149Z 06004KT 12SM FEW020 BKN080 OVC210 22/13 A3015 RMK 8/477 CB SW OCNL LTG

2010/08/08 01:45
MMZO 080145Z 00000KT 15SM FEW015 FEW260 29/24 A2980 RMK 8/101 TCU N

2010/08/08 01:56
MUGM 080156Z 12005KT 9999 FEW045 SCT250 29/24 A2998 RMK SLP150 T02940244

2010/08/08 01:55
PACZ 080155Z AUTO 23007KT 7SM 10/09 A2963 RMK AO1 T01000089

2010/08/08 01:55
PAEH 080155Z AUTO 17009KT 10SM BKN008 BKN013 OVC090 09/08 A2974 RMK AO1 T00940078

2010/08/08 01:55
PAIM 080155Z AUTO 21006KT 10SM SCT023 SCT065 16/12 A2961 RMK AO1 T01560117

2010/08/08 01:55
PALU 080155Z AUTO 07011KT 10SM 11/11 A2964 RMK AO1 T01060106

2010/08/08 01:55
PASV 080155Z AUTO 17004KT 10SM BKN014 BKN023 OVC028 12/09 A2973 RMK AO1 T01170095

2010/08/08 01:56
PASY 080156Z AUTO 25029G33KT 5SM BR OVC003 10/10 A2902 RMK AO2 PK WND 25034/0120 SLP827 T01000100 TSNO PNO $

2010/08/08 01:55
PATC 080155Z AUTO 01014KT 10SM OVC008 09/07 A2963 RMK AO1 T00940073

2010/08/08 01:55
PATL 080155Z AUTO 21006KT 10SM SCT015 BKN024 OVC055 12/09 A2969 RMK AO1 T01220095

2010/08/08 01:55
RJTY 080155Z AUTO VRB04KT 9999 FEW033 30/23 A3007 RMK AO2 SLP176 T02990229 $

2010/08/08 02:00
TFFR 080200Z 07007KT 9999 FEW026 27/23 Q1014 NOSIG

2010/08/08 02:00
TKPK 080200Z 05010KT 9999 SCT018 28/24 Q1015

2010/08/08 01:55
TXKF 080155Z 19012KT 9999 VCSH FEW012 SCT026 BKN053 OVC072 27/24 Q1016 /

2010/08/08 01:55
KPSM 080155Z 00000KT 10SM FEW250 16/14 A2999 RMK AO2A SLP157 T01640143

2010/08/08 01:55
KRDK 080155Z AUTO 18003KT 10SM CLR 27/23 A2978 RMK AO2

2010/08/08 01:57
KRNH 080157Z AUTO 17006KT 10SM CLR 26/23 A2970 RMK AO2 T02610226

2010/08/08 01:54
KSBN 080154Z 18004KT 10SM CLR 23/18 A2994 RMK AO2 SLP134 T02330178

2010/08/08 01:55
KSDA 080155Z AUTO 15006KT 10SM CLR 27/23 A2979 RMK AO2

2010/08/08 01:55
KSHL 080155Z AUTO 18008KT 10SM CLR 26/22 A2974 RMK AO2

2010/08/08 01:55
KTNU 080155Z AUTO 18005KT 10SM CLR 25/20 A2982 RMK AO2

2010/08/08 01:55
KLDM 080155Z AUTO 21013G18KT 10SM SCT120 24/20 A2984 RMK AO2

2010/08/08 01:55
KPHN 080155Z AUTO 17005KT 10SM SCT060 BKN075 BKN090 22/16 A2992 RMK AO2

2010/08/08 01:55
KRMY 080155Z AUTO 00000KT 10SM CLR 22/17 A2994 RMK AO2

2010/08/08 01:56
KOSC 080156Z AUTO 21003KT 10SM BKN090 21/17 A2985 RMK AO2

2010/08/08 01:54
KTTF 080154Z AUTO 20004KT 10SM CLR 23/17 A2993 RMK AO2

2010/08/08 01:55
KMCD 080155Z AUTO 00000KT 10SM BKN095 22/18 A2982 RMK AO2

2010/08/08 01:50
KBCT 080150Z AUTO 21004KT 10SM CLR MM/MM A2996

2010/08/08 01:57
PGWT 080157Z 08015KT 7SM SCT015 SCT180 32/25 A2985 RMK WIND DATA ESTIMATED

2010/08/08 02:01
PADM 080201Z AUTO 22007KT 10SM FEW010 BKN022 OVC045 13/11 A2970 RMK AO2 TSNO T01270111 BKN V SCT RAB0120E0155 P0000 SLP046 $

2010/08/08 01:58
PADU 080158Z 15013KT 10SM -RA SCT030 OVC036 18/14 A2970 RMK AO2 SLPNO CS P0001 T01780139

2010/08/08 01:58
PAGA 080158Z AUTO 19005KT 10SM FEW015 SCT038 BKN080 16/12 A2962 RMK AO2 RAE08B25E58 SLPNO P0000 T01610117

2010/08/08 01:56
PAJZ 080156Z AUTO 21007KT 10SM SCT023 BKN032 BKN055 16/11 A2978 RMK AO2 PWINO TSNO T01550105 SLP072 $

2010/08/08 01:56
PAKI 080156Z AUTO 18012KT 10SM +RA BKN010 OVC023 11/09 A2970 RMK AO2 TSNO T01050094 P0000 SLP058 $

2010/08/08 01:56
PALG 080156Z AUTO 00000KT 10SM FEW009 SCT013 BKN022 12/11 A2970 RMK AO2 TSNO T01220111 RAB01E15 P0001 SLP061 $

2010/08/08 01:58
PATE 080158Z AUTO 32007KT 10SM BKN030 16/11 A2960 RMK AO2 SLP035 T01560111

2010/08/08 01:55
KTVK 080155Z AUTO 10SM CLR 23/21 A2987 RMK AO2

2010/08/08 01:55
KUNU 080155Z AUTO 20005KT 10SM SCT070 SCT120 22/18 A2987 RMK AO2 LTG DSNT N T02220175

2010/08/08 01:55
KVTI 080155Z AUTO 15005KT 10SM CLR 23/23 A2982 RMK AO2

2010/08/08 01:55
KAWG 080155Z AUTO 20007KT 10SM CLR 26/21 A2985 RMK AO2

2010/08/08 01:55
KAXA 080155Z AUTO 17008KT 10SM CLR 26/23 A2975 RMK AO2

2010/08/08 01:55
KBNW 080155Z AUTO 18005KT 10SM CLR 26/22 A2980 RMK AO2

2010/08/08 01:55
KCAV 080155Z AUTO 17006KT 10SM BKN090 27/22 A2978 RMK AO2

2010/08/08 01:55
KCBF 080155Z AUTO 16009KT 10SM CLR 28/22 A2978 RMK AO2

2010/08/08 01:55
KCIN 080155Z AUTO 17004KT 7SM CLR 26/21 A2979 RMK AO2

2010/08/08 01:55
KCKP 080155Z AUTO 16006KT 10SM CLR 25/22 A2973 RMK AO2

2010/08/08 01:55
KCNC 080155Z AUTO 15004KT 10SM CLR 25/21 A2983 RMK AO2

2010/08/08 01:55
KCSQ 080155Z AUTO 16006KT 10SM CLR 25/22 A2983 RMK AO2

2010/08/08 01:55
KDEH 080155Z AUTO 17005KT 10SM CLR 26/22 A2983 RMK AO2

2010/08/08 01:55
KDNS 080155Z AUTO 16009KT 10SM CLR 27/22 A2979 RMK AO2

2010/08/08 01:55
KEBS 080155Z AUTO 17006KT 10SM CLR 25/21 A2978 RMK AO2

2010/08/08 01:55
KEOK 080155Z AUTO 17005KT 10SM CLR 27/22 A2987 RMK AO2

2010/08/08 01:55
KFFL 080155Z AUTO 17005KT 10SM CLR 26/23 A2985 RMK AO2

2010/08/08 01:57
KFFZ 080157Z 36012G16KT 50SM SCT100 SCT150 BKN200 34/14 A2977

2010/08/08 01:56
KFSD 080156Z 18010G17KT 10SM CLR 28/23 A2968 RMK AO2 SLP037 FEW ABV 120 T02780228

2010/08/08 01:55
KFSW 080155Z AUTO 17004KT 10SM CLR 27/21 A2987 RMK AO2

2010/08/08 01:55
KFXY 080155Z AUTO 17006KT 10SM CLR 24/21 A2976 RMK AO2

2010/08/08 01:55
KGGI 080155Z AUTO 17005KT 10SM CLR 26/22 A2984 RMK AO2

2010/08/08 01:55
KHNR 080155Z AUTO 17006KT 10SM CLR 25/23 A2981 RMK AO2

2010/08/08 01:55
KI75 080155Z AUTO 16005KT 10SM CLR 24/21 A2983 RMK AO2

2010/08/08 01:55
KICL 080155Z AUTO 18003KT 10SM CLR 26/21 A2979 RMK AO2

2010/08/08 01:55
KIIB 080155Z AUTO 17006KT 10SM CLR 23/22 A2982 RMK AO1

2010/08/08 01:55
KIKV 080155Z AUTO 18006KT 10SM CLR 27/22 A2981 RMK AO2

2010/08/08 01:55
KISO 080155Z 00000KT 7SM BKN030 BKN120 26/23 A2996

2010/08/08 01:55
KLRJ 080155Z AUTO 18005KT 10SM CLR 27/22 A2972 RMK AO2

2010/08/08 01:55
KMPZ 080155Z AUTO 18006KT 10SM CLR 25/21 A2986 RMK AO2

2010/08/08 01:55
KMUT 080155Z AUTO 15003KT 10SM CLR 25/22 A2984 RMK AO2

2010/08/08 01:55
KMXO 080155Z AUTO 14004KT 10SM CLR 23/21 A2984 RMK AO2

2010/08/08 01:56
KNSE 080156Z AUTO 00000KT 4SM -RA BR SCT100 SCT120 26/24 A2991 RMK AO2 TSE53 SLP111 P0001 T02610239 $

2010/08/08 01:56
KNTU 080156Z 07004KT 6SM BR SCT007 BKN040 25/24 A2997 RMK AO2 SLP151 T02500239 $

2010/08/08 01:55
KOOA 080155Z AUTO 17005KT 10SM CLR 25/22 A2984 RMK AO2

2010/08/08 01:55
KORC 080155Z AUTO 17007KT 10SM CLR 27/25 A2972 RMK AO2

2010/08/08 01:55
KOXV 080155Z AUTO 18007KT 10SM CLR 27/22 A2983 RMK AO2

2010/08/08 01:55
KPEA 080155Z AUTO 10SM CLR A2983 RMK AO2

2010/08/08 01:55
KPRO 080155Z AUTO 15005KT 7SM CLR 24/24 A2979 RMK AO2

2010/08/08 02:00
SBCT 080200Z 35002KT CAVOK 09/08 Q1021

2010/08/08 02:00
SBBR 080200Z 00000KT CAVOK 18/06 Q1024

2010/08/08 02:00
SBMO 080200Z 00000KT 9999 SCT017 SCT100 20/18 Q1020

2010/08/08 02:00
SBSN 080200Z 09006KT 9999 SCT013 OVC100 25/23 Q1013 RETS

2010/08/08 02:00
SBCP 080200Z 00000KT CAVOK 17/16 Q1021

2010/08/08 02:00
SBPL 080200Z 13010KT CAVOK 22/16 Q1020

2010/08/08 02:00
SBGO 080200Z 33003KT CAVOK 19/12 Q1020 

2010/08/08 02:00
SBKP 080200Z 11008KT CAVOK 12/07 Q1020

2010/08/08 02:00
SBPS 080200Z 29003KT 9999 SCT020 18/17 Q1021

2010/08/08 02:00
SBNT 080200Z 16006KT 9999 FEW020 23/21 Q1017

2010/08/08 02:00
SBRJ 080200Z 07006KT CAVOK 20/16 Q1019

2010/08/08 02:00
FDLV 080200Z AUTO 32024G48KT //// // ////// ///// Q////

2010/08/08 02:00
GOOY 080200Z 24006KT 210V280 9999 SCT013 27/22 Q1011 NOSIG

2010/08/08 02:00
TLPL 080200Z 09014KT 9999 SCT018 SCT040 BKN260 28/25 Q1014

2010/08/08 01:54
KACY 080154Z 18004KT 10SM CLR 24/21 A3001 RMK AO2 SLP160 T02390206

2010/08/08 01:55
KADW 080155Z AUTO 16005KT 10SM CLR 21/17 A2998 RMK AO2 SLP153 T02130175 $

2010/08/08 01:56
KCHS 080156Z 26003KT 9SM FEW043 27/23 A2991 RMK AO2 SLP129 T02670233

2010/08/08 01:55
KCOF 080155Z 20004KT 10SM CLR 27/24 A2995 RMK AO2A SLP144 T02690244

2010/08/08 01:56
KNBC 080156Z AUTO 00000KT 9SM CLR 27/24 A2993 RMK AO2 SLP134 T02720239

2010/08/08 01:55
KNBG 080155Z 00000KT 10SM FEW060 SCT250 28/24 A2990 RMK AO2 SLP126 T02830244 $

2010/08/08 01:56
KNGP 080156Z AUTO 20008KT 160V230 10SM CLR 28/26 A2986 RMK AO2 SLP109 T02830256 VISNO $

2010/08/08 01:57
KNJM 080157Z AUTO 00000KT 9SM CLR 26/24 A2995 RMK AO2 SLP145 T02610244

2010/08/08 01:54
KNKT 080154Z 11003KT 8SM CLR 27/24 A2996 RMK AO2 SLP140 T02670239

2010/08/08 01:56
KNPA 080156Z AUTO 00000KT 10SM CLR 27/23 A2990 RMK AO2 TSE31 SLP126 T02670233

2010/08/08 01:56
KNTU 080156Z 07004KT 6SM BR SCT007 BKN040 25/24 A2997 RMK AO2 SLP151 T02500239 $

2010/08/08 01:56
MUGM 080156Z 12005KT 9999 FEW045 SCT250 29/24 A2998 RMK SLP150 T02940244

2010/08/08 02:00
TFFF 080200Z VRB03KT 9999 SCT012 SCT016 25/24 Q1014 RESHRA NOSIG

2010/08/08 02:00
TFFR 080200Z 07007KT 9999 FEW026 27/23 Q1014 NOSIG

2010/08/08 01:55
TXKF 080155Z 19012KT 9999 VCSH FEW012 SCT026 BKN053 OVC072 27/24 Q1016 /

2010/08/08 01:56
KMEH 080156Z AUTO 00000KT 10SM CLR 22/07 A2990 RMK AO2 SLP109 T02220072 TSNO 

2010/08/08 02:00
NWWW 080200Z AUTO 13008KT 9999NDV OVC043/// 22/13 Q1017

2010/08/08 01:55
KINL 080155Z AUTO 10004KT 10SM SCT047 BKN055 BKN075 20/16 A2971 RMK AO2 SLP061 T02000161 

2010/08/08 01:53
KRIL 080153Z AUTO 17003KT 10SM FEW090 19/14 A3012 RMK AO2 RAE01 SLP145 P0000 T01890139 TSNO 

2010/08/08 02:00
WSSS 080200Z 17006KT 130V220 9999 FEW018 SCT280 BKN300 29/24 Q1010 NOSIG

2010/08/08 02:00
WSAP 080200Z 15005KT 9999 FEW018 BKN300 29/24 Q1010

2010/08/08 02:00
SBFL 080200Z 30006KT CAVOK 15/14 Q1019

2010/08/08 02:00
UTST 080200Z 34001MPS CAVOK 23/17 Q1004 R88/CLRD70 NOSIG

2010/08/08 02:00
UBBN 080200Z 07004KT 9999 SCT100 24/09 Q1012 R14R/CLRD60 NOSIG RMK G/O QFE684

2010/08/08 02:00
LBSF 080200Z 29004MPS 7000 FEW026 SCT050 BKN082 20/18 Q1015 TEMPO 4000 BR

2010/08/08 02:00
LBWN 080200Z VRB01MPS CAVOK 24/23 Q1011 NOSIG

2010/08/08 02:00
LBBG 080200Z 35004MPS CAVOK 25/23 Q1011 NOSIG

2010/08/08 02:00
LBPD 080200Z 00000MPS CAVOK 22/18 Q1012 NOSIG

2010/08/08 02:00
LBGO 080200Z 33001MPS CAVOK 20/19 Q1014 NOSIG

2010/08/08 02:00
OPRN 080200Z 27004KT 10000 BR FEW025TCU SCT030 BKN100 26/25 1005.3

2010/08/08 01:50
LGMK 080150Z 00000KT CAVOK 23/22 Q1010

2010/08/08 02:00
DIAP 080200Z 23005KT 8000 SCT012 BKN070 25/24 Q1014 NOSIG

2010/08/08 02:00
LDSP 080200Z VRB01KT CAVOK 21/14 Q1016 

2010/08/08 02:00
LDPL 080200Z VRB02KT CAVOK 17/11 Q1017 

2010/08/08 02:00
LDDU 080200Z 03005KT 330V090 CAVOK 20/12 Q1015 

2010/08/08 02:00
LDZA 080200Z 00000KT CAVOK 16/14 Q1017 NOSIG 

2010/08/08 02:00
LDZD 080200Z 00000KT 8000 NSC 16/15 Q1016 

2010/08/08 02:00
LDOS 080200Z 27003KT CAVOK 16/15 Q1017

2010/08/08 02:00
LUKK 080200Z 08006KT 060V130 9999 VCTS SCT050CB 23/21 Q1012 26CLRD65 NOSIG

2010/08/08 01:50
EGEC 080150Z AUTO 32009KT 9999NDV // BKN008/// 13/12 Q1020

2010/08/08 01:50
EGPU 080150Z AUTO 33007KT 9999NDV // FEW014/// 10/09 Q1020

2010/08/08 01:50
EGPI 080150Z AUTO 34007KT 9999NDV // NCD 09/09 Q1021

2010/08/08 02:00
OJAM 080200Z 00000KT 5000 HZ NSC 28/04 Q1013 NOSIG

2010/08/08 02:00
TLPL 080200Z 09014KT 9999 SCT018 SCT040 BKN260 28/25 Q1014

2010/08/08 02:00
OPPS 080200Z NW-06KT 1500 RA SCT006ST FEW030TCU SCT030 BKN100 25/24 Q1004.8

2010/08/08 02:00
LZPP 080200Z AUTO 19003KT 9999 ////// 15/15 Q1015

2010/08/08 02:00
LZSL 080200Z 00000KT 9999 BKN040 OVC073 15/14 Q1015

2010/08/08 02:00
LZZI 080200Z AUTO 30001KT //// ////// 15/14 Q1015

2010/08/08 02:00
OJAM 080200Z 00000KT 5000 HZ NSC 28/04 Q1013 NOSIG

2010/08/08 02:00
LZIB 080200Z 28008KT 250V310 9999 -RA FEW009 BKN013 OVC025 16/14 Q1016

2010/08/08 02:00
LZKZ 080200Z 17003KT CAVOK 14/13 Q1015

2010/08/08 02:00
LZTT 080200Z 28005KT CAVOK 11/10 Q1015

2010/08/08 02:00
LHBP 080200Z 24007KT 9999 SCT016 BKN040 16/15 Q1016 NOSIG

2010/08/08 02:00
DTTB 080200Z 00000KT CAVOK 19/16 Q1018

2010/08/08 02:00
DTTK 080200Z 36004KT 9999 FEW023 25/18 Q1017

2010/08/08 02:00
DTTN 080200Z 02004KT CAVOK 20/15 Q1018

2010/08/08 01:56
KFHU 080156Z AUTO 32007G18KT 4SM -RA BR OVC050 18/17 A3007 RMK AO2 PK WND 31026/0131 VIS 1/2 WEST CIG 010 WEST SLP127 P0014 T01830172 TSNO $

2010/08/08 01:55
KLUF 080155Z AUTO 02010KT 10SM BKN120 32/17 A2976 RMK AO2 LTG DSNT S SLP049 T03240170 $

2010/08/08 01:56
KNID 080156Z AUTO 17018G24KT CLR 33/01 A2973 RMK AO2 SLP048 T03330006 TSNO $

2010/08/08 01:56
KNMM 080156Z AUTO 00000KT 8SM CLR 26/24 A2991 RMK AO2 SLP134 T02560239 $

2010/08/08 01:56
KNTD 080156Z 25007KT 10SM FEW015 17/13 A2983 RMK AO2 SLP103 T01670128 $

2010/08/08 01:56
KNTU 080156Z 07004KT 6SM BR SCT007 BKN040 25/24 A2997 RMK AO2 SLP151 T02500239 $

2010/08/08 01:52
KNZY 080152Z 29007KT 10SM SCT018 20/12 A2986 RMK AO2 SLP111 T02000117 $

2010/08/08 01:50
MUCM 080150Z 00000KT 9000 FEW020 26/21 Q1016

2010/08/08 01:50
MUCU 080150Z 05002KT 9999 FEW025 27/24 Q1016

2010/08/08 01:55
MUHA 080155Z 08004KT 9000 FEW020 27/24 Q1015

2010/08/08 01:50
MUHG 080150Z VRB02KT 9000 SCT025 24/22 Q1015

2010/08/08 01:54
MUVR 080154Z VRB02KT 9000 FEW016CB 24/21 Q1016

2010/08/08 02:00
OEMA 080200Z 06003KT CAVOK 36/02 Q1006 NOSIG

2010/08/08 02:00
OERK 080200Z 29002KT CAVOK 28/08 Q1006 NOSIG

2010/08/08 02:00
OLBA 080200Z VRB03KT 8000 SCT023 28/23 Q1010 NOSIG

2010/08/08 01:58
PAGA 080158Z AUTO 19005KT 10SM FEW015 SCT038 BKN080 16/12 A2962 RMK AO2 RAE08B25E58 SLPNO P0000 T01610117

2010/08/08 01:56
PHBK 080156Z AUTO 29008KT 10SM SCT055 30/21 A3001 RMK AO2 SLP165 T03000206 TSNO $

2010/08/08 02:00
TFFF 080200Z VRB03KT 9999 SCT012 SCT016 25/24 Q1014 RESHRA NOSIG

2010/08/08 02:00
TKPK 080200Z 05010KT 9999 SCT018 28/24 Q1015

2010/08/08 02:00
OEDF 080200Z 10005KT CAVOK 34/06 Q0998 NOSIG

2010/08/08 02:00
OEJN 080200Z 24004KT CAVOK 30/26 Q1000 NOSIG

2010/08/08 02:00
OEMA 080200Z 06003KT CAVOK 36/02 Q1006 NOSIG

2010/08/08 02:00
OERK 080200Z 29002KT CAVOK 28/08 Q1006 NOSIG

2010/08/08 02:00
KNEL 080200Z AUTO 00000KT 10SM CLR 22/17 A2999 RMK AO2 SLP152 T02170167 $ 

2010/08/08 01:59
PAMO 080159Z AUTO 16008KT 10SM FEW009 SCT017 BKN027 14/11 A2966 RMK AO2 TSNO $

2010/08/08 02:00
KMTJ 080200Z AUTO 00000KT 10SM SCT020 BKN110 17/16 A3017 RMK AO2 LTG DSNT E RAE0158 P0000

2010/08/08 02:00
KTOI 080200Z AUTO 34009KT 1 3/4SM +TSRA BR BKN012 OVC033 24/23 A2996 RMK AO2 LTG DSNT E P0016

2010/08/08 01:55
KHXD 080155Z AUTO 00000KT 6SM BR CLR 26/25 A2993 RMK AO2 P0000

2010/08/08 01:52
KRYY 080152Z 13003KT 5SM -RA BR SCT060 BKN070 27/23 A2997

2010/08/08 01:55
KSPF 080155Z AUTO 20008KT 10SM SCT080 23/17 A2987 RMK AO2

2010/08/08 02:00
KRHP 080200Z AUTO 00000KT 21/18 A3003 RMK AO2 PWINO

2010/08/08 02:00
KUKF 080200Z AUTO 01004KT 7SM CLR 22/19 A3004 RMK AO1

2010/08/08 02:00
SBCG 080200Z 09008KT CAVOK 17/05 Q1017

2010/08/08 02:00
SBSP 080200Z 19001KT 0300 R17/0450 R35///// FG NSC 13/12 Q1022

2010/08/08 01:55
KINL 080155Z AUTO 10004KT 10SM SCT047 BKN055 BKN075 20/16 A2971 RMK AO2 SLP061 T02000161

2010/08/08 01:56
KINS 080156Z AUTO 12024G31KT 10SM 28/10 A2980 RMK AO2 PK WND 13031/0155 SLP040 T02830100 TSNO $

2010/08/08 01:56
KBIH 080156Z AUTO 14012KT 10SM CLR 29/M06 A2980 RMK AO2 SLP044 T02891061 TSNO

2010/08/08 01:56
KMEH 080156Z AUTO 00000KT 10SM CLR 22/07 A2990 RMK AO2 SLP109 T02220072 TSNO

2010/08/08 01:55
KINL 080155Z AUTO 10004KT 10SM SCT047 BKN055 BKN075 20/16 A2971 RMK AO2 SLP061 T02000161

2010/08/08 01:53
KRIL 080153Z AUTO 17003KT 10SM FEW090 19/14 A3012 RMK AO2 RAE01 SLP145 P0000 T01890139 TSNO

2010/08/08 01:55
KLDM 080155Z AUTO 21013G18KT 10SM SCT120 24/20 A2984 RMK AO2

2010/08/08 01:55
KPHN 080155Z AUTO 17005KT 10SM SCT060 BKN075 BKN090 22/16 A2992 RMK AO2

2010/08/08 01:55
KRMY 080155Z AUTO 00000KT 10SM CLR 22/17 A2994 RMK AO2

2010/08/08 01:56
KOSC 080156Z AUTO 21003KT 10SM BKN090 21/17 A2985 RMK AO2

2010/08/08 01:54
KTTF 080154Z AUTO 20004KT 10SM CLR 23/17 A2993 RMK AO2

2010/08/08 01:55
KMCD 080155Z AUTO 00000KT 10SM BKN095 22/18 A2982 RMK AO2

2010/08/08 01:56
KNRS 080156Z AUTO 27007KT 10SM OVC017 17/12 A2988 RMK AO2 SLP118 T01720122 TSNO $

2010/08/08 02:00
KNEL 080200Z AUTO 00000KT 10SM CLR 22/17 A2999 RMK AO2 SLP152 T02170167 $

2010/08/08 02:00
SBNF 080200Z 00000KT 9999 SCT012 14/13 Q1018

2010/08/08 02:00
SBRP 080200Z 11002KT CAVOK 18/11 Q1019

2010/08/08 02:00
PLCH 080200Z 13013KT 20KM SCT016 26/23 Q1011

2010/08/08 02:00
SBTE 080200Z 34002KT CAVOK 27/22 Q1014

2010/08/08 02:00
SBBE 080200Z 08006KT 9999 FEW017 SCT100 26/22 Q1014

2010/08/08 02:00
SBCY 080200Z 19003KT CAVOK 24/12 Q1014

2010/08/08 02:00
SBFL 080200Z 30006KT CAVOK 15/14 Q1019

2010/08/08 02:00
SBMQ 080200Z 36002KT 9999 SCT017 25/25 Q1014

2010/08/08 02:00
FAVV 080200Z AUTO 33004KT //// // ////// 04/M00 Q1024

2010/08/08 02:00
FAJB 080200Z AUTO 00000KT //// // ////// 06/01 Q1027

2010/08/08 02:00
FASI 080200Z AUTO 00000KT //// // ////// 04/M00 Q1027

2010/08/08 02:00
FAGC 080200Z AUTO 07005KT //// // ////// 08/M00 Q1027

2010/08/08 02:00
SBPV 080200Z 00000KT CAVOK 22/18 Q1013

2010/08/08 02:00
SBSV 080200Z 16004KT 9999 SCT017 23/17 Q1020

2010/08/08 01:50
LSMA 080150Z AUTO VRB02KT 9999NDV FEW100 13/12 Q1019 RMK BLU

2010/08/08 01:50
LSMM 080150Z AUTO 10003KT 040V130 8000NDV FEW096 SCT110 10/09 Q1020 RMK BLU

2010/08/08 01:50
PKMR 080150Z 10008KT 20SM FEW016 BKN300 31/24 A2980 RMK SLP091 T0311024

2010/08/08 01:57
PGWT 080157Z 08015KT 7SM SCT015 SCT180 32/25 A2985 RMK WIND DATA ESTIMATED

2010/08/08 01:57
PGWT 080157Z 08015KT 7SM SCT015 SCT180 32/25 A2985 RMK WIND DATA ESTIMATED

2010/08/08 01:54
PGSN 080154Z 07013G17KT 10SM FEW017 SCT028 SCT037 31/26 A2986 RMK AO2 RAB36E46 SLP106 P0000 T03060256 $

2010/08/08 01:54
PGUM 080154Z 08014KT 10SM FEW023 31/24 A2985 RMK AO2 SLP099 T03110239

2010/08/08 01:53
PTKK 080153Z 13008KT 15SM SCT014CB BKN120 OVC280 31/26 A2978 RMK CB ALQDS MOV NW SLP084 T03110256

2010/08/08 02:00
SBLO 080200Z 27002KT CAVOK 14/08 Q1020

2010/08/08 01:56
KINS 080156Z AUTO 12024G31KT 10SM 28/10 A2980 RMK AO2 PK WND 13031/0155 SLP040 T02830100 TSNO $

2010/08/08 01:50
EETU 080150Z AUTO 12005KT 5000NDV BR NCD 22/20 Q1014

2010/08/08 02:00
SBBV 080200Z 35004KT 9999 -RA FEW015 SCT020 BKN070 25/23 Q1015

2010/08/08 01:50
KBCT 080150Z AUTO 21004KT 10SM CLR MM/MM A2996

2010/08/08 01:56
KNSE 080156Z AUTO 00000KT 4SM -RA BR SCT100 SCT120 26/24 A2991 RMK AO2 TSE53 SLP111 P0001 T02610239 $

2010/08/08 01:53
PHJR 080153Z VRB06G18KT 10SM BKN049 30/18 A3003 RMK AO2 SLP175 T03000183

2010/08/08 01:54
PHMK 080154Z 02013G25KT 10SM FEW019 SCT033 28/20 A3003 RMK AO2 PK WND 03027/0143 SLP169 T02780200

2010/08/08 01:58
PADU 080158Z 15013KT 10SM -RA SCT030 OVC036 18/14 A2970 RMK AO2 SLPNO CS P0001 T01780139

2010/08/08 01:58
PAGA 080158Z AUTO 19005KT 10SM FEW015 SCT038 BKN080 16/12 A2962 RMK AO2 RAE08B25E58 SLPNO P0000 T01610117

2010/08/08 01:56
PAJZ 080156Z AUTO 21007KT 10SM SCT023 BKN032 BKN055 16/11 A2978 RMK AO2 PWINO TSNO T01550105 SLP072 $

2010/08/08 01:56
PAKI 080156Z AUTO 18012KT 10SM +RA BKN010 OVC023 11/09 A2970 RMK AO2 TSNO T01050094 P0000 SLP058 $

2010/08/08 01:56
PALG 080156Z AUTO 00000KT 10SM FEW009 SCT013 BKN022 12/11 A2970 RMK AO2 TSNO T01220111 RAB01E15 P0001 SLP061 $

2010/08/08 01:58
PATE 080158Z AUTO 32007KT 10SM BKN030 16/11 A2960 RMK AO2 SLP035 T01560111

2010/08/08 01:55
KTVK 080155Z AUTO 10SM CLR 23/21 A2987 RMK AO2

2010/08/08 01:55
KUNU 080155Z AUTO 20005KT 10SM SCT070 SCT120 22/18 A2987 RMK AO2 LTG DSNT N T02220175

2010/08/08 01:55
KAWG 080155Z AUTO 20007KT 10SM CLR 26/21 A2985 RMK AO2

2010/08/08 01:55
KAXA 080155Z AUTO 17008KT 10SM CLR 26/23 A2975 RMK AO2

2010/08/08 01:55
KBNW 080155Z AUTO 18005KT 10SM CLR 26/22 A2980 RMK AO2

2010/08/08 01:55
KCAV 080155Z AUTO 17006KT 10SM BKN090 27/22 A2978 RMK AO2

2010/08/08 01:55
KCBF 080155Z AUTO 16009KT 10SM CLR 28/22 A2978 RMK AO2

2010/08/08 01:55
KCIN 080155Z AUTO 17004KT 7SM CLR 26/21 A2979 RMK AO2

2010/08/08 01:55
KCNC 080155Z AUTO 15004KT 10SM CLR 25/21 A2983 RMK AO2

2010/08/08 01:55
KCSQ 080155Z AUTO 16006KT 10SM CLR 25/22 A2983 RMK AO2

2010/08/08 01:55
KDEH 080155Z AUTO 17005KT 10SM CLR 26/22 A2983 RMK AO2

2010/08/08 01:55
KDNS 080155Z AUTO 16009KT 10SM CLR 27/22 A2979 RMK AO2

2010/08/08 01:55
KEBS 080155Z AUTO 17006KT 10SM CLR 25/21 A2978 RMK AO2

2010/08/08 01:55
KEOK 080155Z AUTO 17005KT 10SM CLR 27/22 A2987 RMK AO2

2010/08/08 01:55
KFFL 080155Z AUTO 17005KT 10SM CLR 26/23 A2985 RMK AO2

2010/08/08 01:57
KFFZ 080157Z 36012G16KT 50SM SCT100 SCT150 BKN200 34/14 A2977

2010/08/08 01:55
KFSW 080155Z AUTO 17004KT 10SM CLR 27/21 A2987 RMK AO2

2010/08/08 01:55
KFXY 080155Z AUTO 17006KT 10SM CLR 24/21 A2976 RMK AO2

2010/08/08 01:55
KGGI 080155Z AUTO 17005KT 10SM CLR 26/22 A2984 RMK AO2

2010/08/08 01:55
KHNR 080155Z AUTO 17006KT 10SM CLR 25/23 A2981 RMK AO2

2010/08/08 01:55
KICL 080155Z AUTO 18003KT 10SM CLR 26/21 A2979 RMK AO2

2010/08/08 01:55
KIIB 080155Z AUTO 17006KT 10SM CLR 23/22 A2982 RMK AO1

2010/08/08 01:55
KIKV 080155Z AUTO 18006KT 10SM CLR 27/22 A2981 RMK AO2

2010/08/08 01:55
KISO 080155Z 00000KT 7SM BKN030 BKN120 26/23 A2996

2010/08/08 01:55
KLRJ 080155Z AUTO 18005KT 10SM CLR 27/22 A2972 RMK AO2

2010/08/08 01:55
KMPZ 080155Z AUTO 18006KT 10SM CLR 25/21 A2986 RMK AO2

2010/08/08 01:55
KMUT 080155Z AUTO 15003KT 10SM CLR 25/22 A2984 RMK AO2

2010/08/08 01:55
KMXO 080155Z AUTO 14004KT 10SM CLR 23/21 A2984 RMK AO2

2010/08/08 01:56
KNSE 080156Z AUTO 00000KT 4SM -RA BR SCT100 SCT120 26/24 A2991 RMK AO2 TSE53 SLP111 P0001 T02610239 $

2010/08/08 01:55
KOOA 080155Z AUTO 17005KT 10SM CLR 25/22 A2984 RMK AO2

2010/08/08 01:55
KORC 080155Z AUTO 17007KT 10SM CLR 27/25 A2972 RMK AO2

2010/08/08 01:55
KOXV 080155Z AUTO 18007KT 10SM CLR 27/22 A2983 RMK AO2

2010/08/08 01:55
KPEA 080155Z AUTO 10SM CLR A2983 RMK AO2

2010/08/08 01:55
KPRO 080155Z AUTO 15005KT 7SM CLR 24/24 A2979 RMK AO2

2010/08/08 01:55
KRDK 080155Z AUTO 18003KT 10SM CLR 27/23 A2978 RMK AO2

2010/08/08 01:57
KRNH 080157Z AUTO 17006KT 10SM CLR 26/23 A2970 RMK AO2 T02610226

2010/08/08 01:55
KSDA 080155Z AUTO 15006KT 10SM CLR 27/23 A2979 RMK AO2

2010/08/08 01:55
KSHL 080155Z AUTO 18008KT 10SM CLR 26/22 A2974 RMK AO2

2010/08/08 01:55
KTNU 080155Z AUTO 18005KT 10SM CLR 25/20 A2982 RMK AO2

2010/08/08 01:55
KHXD 080155Z AUTO 00000KT 6SM BR CLR 26/25 A2993 RMK AO2 P0000

2010/08/08 01:52
KRYY 080152Z 13003KT 5SM -RA BR SCT060 BKN070 27/23 A2997

2010/08/08 01:55
KSPF 080155Z AUTO 20008KT 10SM SCT080 23/17 A2987 RMK AO2

2010/08/08 01:58
PAGA 080158Z AUTO 19005KT 10SM FEW015 SCT038 BKN080 16/12 A2962 RMK AO2 RAE08B25E58 SLPNO P0000 T01610117

2010/08/08 02:00
KRHP 080200Z AUTO 00000KT 21/18 A3003 RMK AO2 PWINO

2010/08/08 02:01
PADM 080201Z AUTO 22007KT 10SM FEW010 BKN022 OVC045 13/11 A2970 RMK AO2 TSNO T01270111 BKN V SCT RAB0120E0155 P0000 SLP046 $

2010/08/08 01:59
PAMO 080159Z AUTO 16008KT 10SM FEW009 SCT017 BKN027 14/11 A2966 RMK AO2 TSNO $

2010/08/08 02:00
KMTJ 080200Z AUTO 00000KT 10SM SCT020 BKN110 17/16 A3017 RMK AO2 LTG DSNT E RAE0158 P0000

2010/08/08 02:00
KTOI 080200Z AUTO 34009KT 1 3/4SM +TSRA BR BKN012 OVC033 24/23 A2996 RMK AO2 LTG DSNT E P0016

2010/08/08 01:56
KNJK 080156Z AUTO 13008KT 10SM CLR 36/13 A2961 RMK AO2 SLP041 T03610128 TSNO

2010/08/08 01:58
K0J4 080158Z AUTO 00000KT 10SM FEW100 27/24 A2994 RMK AO2 SLP133 T02670244 $

2010/08/08 01:53
KRYT 080153Z AUTO 00000KT 10SM BKN070 BKN090 23/17 A2999 RMK AO2 SLP143 T02330167 $

2010/08/08 01:55
KDMA 080155Z AUTO 27006KT 10SM FEW075 BKN110 BKN130 BKN180 30/17 A2989 RMK AO2 SLP059 T03010168 VISNO RWY12 CHINO RWY12 $

2010/08/08 01:55
KHOP 080155Z AUTO 07005KT 10SM CLR 25/17 A2993 RMK AO2 SLP133 T02490170

2010/08/08 01:56
KNBC 080156Z AUTO 00000KT 9SM CLR 27/24 A2993 RMK AO2 SLP134 T02720239

2010/08/08 01:56
KNFL 080156Z AUTO 29006KT 10SM CLR 32/M03 A2977 RMK AO2 SLP060 T03171028 TSNO

2010/08/08 01:56
KNGP 080156Z AUTO 20008KT 160V230 10SM CLR 28/26 A2986 RMK AO2 SLP109 T02830256 VISNO $

2010/08/08 01:56
KNPA 080156Z AUTO 00000KT 10SM CLR 27/23 A2990 RMK AO2 TSE31 SLP126 T02670233

2010/08/08 01:56
KNUW 080156Z 14006KT 10SM -RA SCT008 OVC014 18/16 A2989 RMK AO2 SLP124 P0000 T01760163 $

2010/08/08 01:56
KNXP 080156Z AUTO 22012KT CLR 33/04 A2982 RMK AO2 SLP057 T03330039 $

2010/08/08 01:56
KNXX 080156Z 00000KT 10SM CLR 23/12 A2999 RMK AO2 SLP160 T02330122 $

2010/08/08 01:56
PASY 080156Z AUTO 25029G33KT 5SM BR OVC003 10/10 A2902 RMK AO2 PK WND 25034/0120 SLP827 T01000100 TSNO PNO $

2010/08/08 01:56
KHLR 080156Z AUTO 14007KT 10SM CLR 33/19 A2985 RMK AO2 SLP097 T03330194 $

2010/08/08 01:55
PGUA 080155Z AUTO 07012G17KT 10SM BKN017 BKN023 BKN055 28/25 A2986 RMK AO2 SLP092 T02830251 VISNO RWY24L $

2010/08/08 01:55
PHHI 080155Z AUTO 10010KT 10SM -DZ SCT032 BKN045 27/19 A3005 RMK AO2 DZB0149 SLP164 P0000 T02740189 $

2010/08/08 01:53
PHNL 080153Z 04010G17KT 10SM FEW026 SCT045 SCT060 30/19 A3002 RMK AO2 PK WND 06026/0121 SLP166 T03000189

2010/08/08 01:54
PWAK 080154Z 13010KT 8SM HZ FEW032 30/24 A2992 RMK AO2A

2010/08/08 01:56
KNTU 080156Z 07004KT 6SM BR SCT007 BKN040 25/24 A2997 RMK AO2 SLP151 T02500239 $

2010/08/08 01:55
KPSM 080155Z 00000KT 10SM FEW250 16/14 A2999 RMK AO2A SLP157 T01640143

2010/08/08 01:59
KNGU 080159Z 09005KT 9SM CLR 26/23 A2999 RMK AO2 SLP155 T02560233 $

2010/08/08 01:56
KNRS 080156Z AUTO 27007KT 10SM OVC017 17/12 A2988 RMK AO2 SLP118 T01720122 TSNO $

2010/08/08 01:55
KADW 080155Z AUTO 16005KT 10SM CLR 21/17 A2998 RMK AO2 SLP153 T02130175 $

2010/08/08 01:55
KCOF 080155Z 20004KT 10SM CLR 27/24 A2995 RMK AO2A SLP144 T02690244

2010/08/08 01:56
KNBC 080156Z AUTO 00000KT 9SM CLR 27/24 A2993 RMK AO2 SLP134 T02720239

2010/08/08 01:55
KNBG 080155Z 00000KT 10SM FEW060 SCT250 28/24 A2990 RMK AO2 SLP126 T02830244 $

2010/08/08 01:56
KNGP 080156Z AUTO 20008KT 160V230 10SM CLR 28/26 A2986 RMK AO2 SLP109 T02830256 VISNO $

2010/08/08 01:57
KNJM 080157Z AUTO 00000KT 9SM CLR 26/24 A2995 RMK AO2 SLP145 T02610244

2010/08/08 01:54
KNKT 080154Z 11003KT 8SM CLR 27/24 A2996 RMK AO2 SLP140 T02670239

2010/08/08 01:56
KNPA 080156Z AUTO 00000KT 10SM CLR 27/23 A2990 RMK AO2 TSE31 SLP126 T02670233

2010/08/08 01:56
KNTU 080156Z 07004KT 6SM BR SCT007 BKN040 25/24 A2997 RMK AO2 SLP151 T02500239 $

2010/08/08 01:56
KFHU 080156Z AUTO 32007G18KT 4SM -RA BR OVC050 18/17 A3007 RMK AO2 PK WND 31026/0131 VIS 1/2 WEST CIG 010 WEST SLP127 P0014 T01830172 TSNO $

2010/08/08 01:55
KLUF 080155Z AUTO 02010KT 10SM BKN120 32/17 A2976 RMK AO2 LTG DSNT S SLP049 T03240170 $

2010/08/08 01:56
KNID 080156Z AUTO 17018G24KT CLR 33/01 A2973 RMK AO2 SLP048 T03330006 TSNO $

2010/08/08 01:56
KNMM 080156Z AUTO 00000KT 8SM CLR 26/24 A2991 RMK AO2 SLP134 T02560239 $

2010/08/08 01:56
KNTD 080156Z 25007KT 10SM FEW015 17/13 A2983 RMK AO2 SLP103 T01670128 $

2010/08/08 01:56
KNTU 080156Z 07004KT 6SM BR SCT007 BKN040 25/24 A2997 RMK AO2 SLP151 T02500239 $

2010/08/08 01:52
KNZY 080152Z 29007KT 10SM SCT018 20/12 A2986 RMK AO2 SLP111 T02000117 $

2010/08/08 01:56
PHBK 080156Z AUTO 29008KT 10SM SCT055 30/21 A3001 RMK AO2 SLP165 T03000206 TSNO $

2010/08/08 02:00
KNEL 080200Z AUTO 00000KT 10SM CLR 22/17 A2999 RMK AO2 SLP152 T02170167 $

2010/08/08 01:50
LTAC 080150Z VRB01KT CAVOK 24/08 Q1013 NOSIG

2010/08/08 01:50
LTAF 080150Z /////KT 5000 BR FEW035 26/21 Q1008 NOSIG

2010/08/08 01:50
LTBA 080150Z VRB01KT CAVOK 26/23 Q1010 NOSIG

2010/08/08 01:50
LTBJ 080150Z VRB02KT CAVOK 23/18 Q1010 NOSIG

2010/08/08 01:50
LTBS 080150Z 05004KT CAVOK 24/22 Q1008 NOSIG

2010/08/08 01:50
LTAJ 080150Z 00000KT CAVOK 19/07 Q1011 NOSIG

2010/08/08 01:50
LTAN 080150Z 33005KT CAVOK 20/07 Q1013 NOSIG

2010/08/08 01:50
LTAU 080150Z 04002KT CAVOK 16/12 Q1014 NOSIG

2010/08/08 01:50
LTCC 080150Z 21003KT CAVOK 21/03 Q1010 NOSIG

2010/08/08 01:50
LTCE 080150Z 32002KT CAVOK 13/09 Q1021 NOSIG

2010/08/08 01:50
LTCG 080150Z 00000KT 9999 SCT015 BKN030 27/22 Q1009 NOSIG

2010/08/08 01:50
LTCI 080150Z 03003KT CAVOK 15/06 Q1019 NOSIG

2010/08/08 01:50
LTFE 080150Z VRB02KT CAVOK 23/20 Q1009 NOSIG

2010/08/08 01:55
OPLA 080155Z 16004KT 4000 FU SCT040 BKN100 29/26 Q1003 NOSIG

2010/08/08 01:55
OPNH 080155Z 31503KT 3000 FU SCT030 BKN100 29/27 Q.1000

2010/08/08 02:00
OPPS 080200Z NW-06KT 1500 RA SCT006ST FEW030TCU SCT030 BKN100 25/24 Q1004.8

2010/08/08 02:00
OPRN 080200Z 27004KT 10000 BR FEW025TCU SCT030 BKN100 26/25 1005.3

2010/08/08 02:00
UTTT 080200Z 06004MPS CAVOK 26/09 Q1007 R08R/CLRD70 NOSIG

2010/08/08 01:56
PHNY 080156Z AUTO 04013KT 10SM BKN024 OVC032 26/20 A3008 RMK AO2 TSNO T02550200 RAE07B31E54 P0000 WSHFT 0131 SLP164 $

2010/08/08 01:53
PHKO 080153Z 25007KT 10SM OVC050 27/21 A3000 RMK AO2 SLP158 T02670206

2010/08/08 01:54
PHOG 080154Z 06022G29KT 10SM FEW035 SCT045 30/19 A2999 RMK AO2 PK WND 05032/0058 SLP160 T03000194

2010/08/08 01:53
PHTO 080153Z 09008KT 10SM SCT025 BKN065 27/21 A3004 RMK AO2 SLP169 T02670206

2010/08/08 01:55
KVTI 080155Z AUTO 15005KT 10SM CLR 23/23 A2982 RMK AO2

2010/08/08 01:55
KCKP 080155Z AUTO 16006KT 10SM CLR 25/22 A2973 RMK AO2

2010/08/08 01:56
KFSD 080156Z 18010G17KT 10SM CLR 28/23 A2968 RMK AO2 SLP037 FEW ABV 120 T02780228

2010/08/08 01:54
KSBN 080154Z 18004KT 10SM CLR 23/18 A2994 RMK AO2 SLP134 T02330178

2010/08/08 01:54
KACY 080154Z 18004KT 10SM CLR 24/21 A3001 RMK AO2 SLP160 T02390206

2010/08/08 01:56
KCHS 080156Z 26003KT 9SM FEW043 27/23 A2991 RMK AO2 SLP129 T02670233

2010/08/08 02:00
KUKF 080200Z AUTO 01004KT 7SM CLR 22/19 A3004 RMK AO1

2010/08/08 01:53
KRIL 080153Z AUTO 17003KT 10SM FEW090 19/14 A3012 RMK AO2 RAE01 SLP145 P0000 T01890139 TSNO

2010/08/08 01:55
KINL 080155Z AUTO 10004KT 10SM SCT047 BKN055 BKN075 20/16 A2971 RMK AO2 SLP061 T02000161

2010/08/08 01:56
KBIH 080156Z AUTO 14012KT 10SM CLR 29/M06 A2980 RMK AO2 SLP044 T02891061 TSNO

2010/08/08 01:56
KMEH 080156Z AUTO 00000KT 10SM CLR 22/07 A2990 RMK AO2 SLP109 T02220072 TSNO

2010/08/08 01:55
KINL 080155Z AUTO 10004KT 10SM SCT047 BKN055 BKN075 20/16 A2971 RMK AO2 SLP061 T02000161

2010/08/08 01:55
EHAM 080155Z VRB02KT 7000 FEW025 SCT035 16/15 Q1015 TEMPO 3500 FEW015

2010/08/08 01:55
EHBK 080155Z AUTO 27005KT 230V320 5000NDV FEW003 BKN004 BKN006 17/16 Q1015

2010/08/08 01:55
EHGG 080155Z AUTO VRB02KT 4200NDV -RA FEW009 SCT016 OVC023 16/15 Q1015

2010/08/08 01:55
EHRD 080155Z VRB02KT 9999 MIFG FEW011 SCT018 15/15 Q1015 TEMPO 7000 -SHRA FEW015CB

2010/08/08 01:50
EDXW 080150Z AUTO 22004KT 9999NDV SCT009/// BKN038/// 17/15 Q1015 RMK ATIS INFO B

2010/08/08 01:50
LGSR 080150Z 25008KT 9999 SCT018 25/21 Q1008 NOSIG BLU

2010/08/08 01:50
LGMK 080150Z 00000KT CAVOK 23/22 Q1010

2010/08/08 01:50
LGPZ 080150Z 00000KT CAVOK 21/18 Q1013 NOSIG BLU

2010/08/08 01:50
LCEN 080150Z 27006KT CAVOK 22/19 Q1008 NOSIG

2010/08/08 01:49
MMSP 080149Z 06004KT 12SM FEW020 BKN080 OVC210 22/13 A3015 RMK 8/477 CB SW OCNL LTG

2010/08/08 01:45
MMZO 080145Z 00000KT 15SM FEW015 FEW260 29/24 A2980 RMK 8/101 TCU N

2010/08/08 01:50
EGPU 080150Z AUTO 33007KT 9999NDV // FEW014/// 10/09 Q1020

2010/08/08 02:00
NWWL 080200Z AUTO 12010KT 090V150 9999NDV BKN030/// OVC036/// 23/16 Q1016

2010/08/08 02:00
NWWM 080200Z 13004KT 100V160 9999 FEW033 BKN050 23/12 Q1017 NOSIG

2010/08/08 02:00
NWWU 080200Z AUTO 09007KT 040V120 9999NDV BKN048/// BKN060/// 25/18 Q1015

2010/08/08 01:50
EGOM 080150Z AUTO 08003KT 8000NDV BR FEW038/// BKN050/// 11/11 Q1019

2010/08/08 01:50
EGXX 080150Z AUTO 33016KT 9999NDV // BKN010/// 15/14 Q1018

2010/08/08 01:59
NSTU 080159Z 10018KT 10SM SCT018 SCT040 BKN100 28/24 A2990 RMK SLP127 T02830243

2010/08/08 01:55
TXKF 080155Z 19012KT 9999 VCSH FEW012 SCT026 BKN053 OVC072 27/24 Q1016

2010/08/08 01:56
KNLC 080156Z AUTO 01008KT 10SM CLR 32/15 A2969 RMK AO2 SLP053 T03220150 TSNO $ 

2010/08/08 02:00
SCEL 080200Z 12004KT 090V150 9999 SCT120 10/00 Q1027 NOSIG

2010/08/08 02:00
SCIE 080200Z 11002KT 5000 HZ SKC 04/02 Q1028

2010/08/08 02:00
SCTC 080200Z 00000KT 1500NE 5000SW BR SCT015 04/04 Q1027

2010/08/08 02:00
SCTE 080200Z 00000KT 9999 SCT050 03/03 Q1026 NOSIG

2010/08/08 02:00
SCON 080200Z AUTO 04003KT 340V070 CAVOK 06/05 Q1023

2010/08/08 02:00
SCFT 080200Z AUTO 29003KT 230V320 8000 ///040 04/01 Q1022

2010/08/08 02:00
SCBA 080200Z AUTO 29011KT 9999 -RA BKN050 03/M00 Q1015

2010/08/08 02:00
SCCI 080200Z 32012KT 9999 FEW023 SCT090 BKN200 03/M01 Q0994 NOSIG

2010/08/08 01:50
EGDL 080150Z 31005KT 9999 FEW013 BKN034 13/11 Q1019 BLU TEMPO SCT012 GRN

2010/08/08 01:50
EGEC 080150Z AUTO 32009KT 9999NDV // BKN008/// 13/12 Q1020

2010/08/08 01:50
EGNJ 080150Z AUTO 34007KT 9999NDV OVC016/// 15/13 Q1019

2010/08/08 01:50
EGNS 080150Z 34012KT 9999 FEW010 13/11 Q1020

2010/08/08 01:50
EGPA 080150Z AUTO 30008KT 9999NDV FEW012/// BKN038/// 13/12 Q1019

2010/08/08 01:50
EGPC 080150Z AUTO 25005KT 9999NDV FEW040/// 10/10 Q1019

2010/08/08 01:50
EGPE 080150Z AUTO 21003KT 9999NDV OVC043/// 12/09 Q1020

2010/08/08 01:50
EGPL 080150Z AUTO 20004KT 9999NDV FEW015/// BKN024/// 11/10 Q1020

2010/08/08 01:50
EGPM 080150Z AUTO 29009KT 9999NDV BKN016/// 12/10 Q1016

2010/08/08 01:50
EGPO 080150Z AUTO 25004KT 9999NDV SCT022/// BKN027/// BKN034/// 12/10 Q1020

2010/08/08 01:50
EGPU 080150Z AUTO 33007KT 9999NDV // FEW014/// 10/09 Q1020

2010/08/08 01:50
EGQL 080150Z 13007KT 9999 SCT023 BKN050 14/12 Q1019 WHT

2010/08/08 01:55
EGVA 080155Z AUTO 34007KT 9999 OVC036 15/12 A3009 RMK AO2 SLP191 T01510124 $

2010/08/08 01:50
EGVN 080150Z 33007KT 9999 BKN034 15/12 Q1019 BLU NOSIG

2010/08/08 01:55
EBBL 080155Z 26004KT 4500 BR FEW006 BKN025 16/16 Q1016 GRN

2010/08/08 01:56
EBFN 080156Z 22004KT 4800 BR FEW015 BKN110 14/14 Q1016 GRN

2010/08/08 01:55
EBFS 080155Z 27006KT 9999 FEW014 BKN035 14/13 Q1017 BLU

2010/08/08 01:50
EDNY 080150Z AUTO VRB01KT 8000 NSC 11/10 Q1019

2010/08/08 01:50
EDXW 080150Z AUTO 22004KT 9999NDV SCT009/// BKN038/// 17/15 Q1015 RMK ATIS INFO B

2010/08/08 01:55
EHAM 080155Z VRB02KT 7000 FEW025 SCT035 16/15 Q1015 TEMPO 3500 FEW015

2010/08/08 01:55
EHDL 080155Z AUTO 22001KT 0300NDV FG OVC000 15/15 Q1015 RED

2010/08/08 01:55
EHGR 080155Z AUTO 23003KT 8000NDV BR NCD 15/14 Q1015 BLU

2010/08/08 01:55
EHKD 080155Z AUTO 35003KT 9999NDV OVC072/// 16/15 Q1015 BLU

2010/08/08 01:55
EHLW 080155Z AUTO 09001KT 2400NDV +DZ SCT004 BKN006 FEW015TCU OVC021 17/16 Q1014 YLO

2010/08/08 01:55
EHVK 080155Z AUTO 25002KT 0600NDV R24R/0200V0550U FG SCT000 SCT023 BKN044 16/16 Q1015 RED

2010/08/08 01:55
EHWO 080155Z AUTO 21004KT 9999NDV FEW017 SCT061 OVC110 15/14 Q1015 BLU

2010/08/08 01:55
ETIK 080155Z 00000KT 9999 BKN090 OVC130 11/11 A3006 RMK AO2A SLP171 T01090108 $

2010/08/08 02:00
SBAR 080200Z 13004KT CAVOK 24/19 Q1019

2010/08/08 02:00
SBBE 080200Z 08006KT 9999 FEW017 SCT100 26/22 Q1014

2010/08/08 02:00
SBBR 080200Z 00000KT CAVOK 18/06 Q1024

2010/08/08 02:00
SBBV 080200Z 35004KT 9999 -RA FEW015 SCT020 BKN070 25/23 Q1015

2010/08/08 02:00
SBCF 080200Z 16001KT CAVOK 15/09 Q1023

2010/08/08 02:00
SBCG 080200Z 09008KT CAVOK 17/05 Q1017

2010/08/08 02:00
SBCT 080200Z 35002KT CAVOK 09/08 Q1021

2010/08/08 02:00
SBFL 080200Z 30006KT CAVOK 15/14 Q1019

2010/08/08 02:00
SBFZ 080200Z 10013KT 9999 SCT017 25/22 Q1016

2010/08/08 02:00
SBGL 080200Z 13004KT CAVOK 17/14 Q1019

2010/08/08 02:00
SBGO 080200Z 33003KT CAVOK 19/12 Q1020

2010/08/08 02:00
SBKP 080200Z 11008KT CAVOK 12/07 Q1020

2010/08/08 02:00
SBMA 080200Z 00000KT CAVOK 27/22 Q1014

2010/08/08 02:00
SBMO 080200Z 00000KT 9999 SCT017 SCT100 20/18 Q1020

2010/08/08 02:00
SBMQ 080200Z 36002KT 9999 SCT017 25/25 Q1014

2010/08/08 02:00
SBNT 080200Z 16006KT 9999 FEW020 23/21 Q1017

2010/08/08 02:00
SBPA 080200Z 16005KT 7000 BKN007 11/11 Q1019

2010/08/08 02:00
SBPL 080200Z 13010KT CAVOK 22/16 Q1020

2010/08/08 02:00
SBRF 080200Z 24006KT 9999 SCT020 21/19 Q1018

2010/08/08 02:00
SBRJ 080200Z 07006KT CAVOK 20/16 Q1019

2010/08/08 02:00
SBSN 080200Z 09006KT 9999 SCT013 OVC100 25/23 Q1013 RETS

2010/08/08 02:00
SBSP 080200Z 19001KT 0300 R17/0450 R35///// FG NSC 13/12 Q1022

2010/08/08 02:00
SOCA 080200Z VRB01KT CAVOK 26/24 Q1014 NOSIG

2010/08/08 02:00
SULS 080200Z 00000KT 0400 FG NSC 05/04 Q1021

2010/08/08 02:00
SUMU 080200Z 13004KT 1500 0800NW R24/P2000 R19/0300 BCFG NSC 09/08 Q1021 TEMPO 0800 BCFG

2010/08/08 02:00
SLLP 080200Z 02006KT 9999 NSC 02/M13 Q1039

2010/08/08 02:00
SLVR 080200Z 33007KT 5000 FU NSC 18/12 Q1014

2010/08/08 02:00
SLCB 080200Z 15003KT 9999 SKC 16/02 Q1023

2010/08/08 01:56
K79J 080156Z AUTO 00000KT 10SM FEW048 28/23 A2992 RMK AO2 SLP126 T02780233 TSNO PNO $

2010/08/08 01:55
KDLF 080155Z AUTO 12006KT 10SM CLR 34/17 A2981 RMK AO2 SLP077 T03390167

2010/08/08 01:55
KDMA 080155Z AUTO 27006KT 10SM FEW075 BKN110 BKN130 BKN180 30/17 A2989 RMK AO2 SLP059 T03010168 VISNO RWY12 CHINO RWY12 $

2010/08/08 01:56
KFHU 080156Z AUTO 32007G18KT 4SM -RA BR OVC050 18/17 A3007 RMK AO2 PK WND 31026/0131 VIS 1/2 WEST CIG 010 WEST SLP127 P0014 T01830172 TSNO $

2010/08/08 01:56
KHLR 080156Z AUTO 14007KT 10SM CLR 33/19 A2985 RMK AO2 SLP097 T03330194 $

2010/08/08 01:55
KHOP 080155Z AUTO 07005KT 10SM CLR 25/17 A2993 RMK AO2 SLP133 T02490170

2010/08/08 01:55
KLSV 080155Z AUTO 17020G26KT 10SM VCTS CLR 35/12 A2970 RMK AO2 PK WND 18026/0149 SLP039 T03510120 PWINO

2010/08/08 01:55
KLUF 080155Z AUTO 02010KT 10SM BKN120 32/17 A2976 RMK AO2 LTG DSNT S SLP049 T03240170 $

2010/08/08 01:56
KNBC 080156Z AUTO 00000KT 9SM CLR 27/24 A2993 RMK AO2 SLP134 T02720239

2010/08/08 01:55
KNBG 080155Z 00000KT 10SM FEW060 SCT250 28/24 A2990 RMK AO2 SLP126 T02830244 $

2010/08/08 01:57
KNJM 080157Z AUTO 00000KT 9SM CLR 26/24 A2995 RMK AO2 SLP145 T02610244

2010/08/08 01:56
KNUQ 080156Z 34011KT 10SM CLR 19/13 A2981 RMK AO2 SLP097 T01890133

2010/08/08 01:56
PPIZ 080156Z AUTO 07015G20KT 10SM BKN015 09/06 A2970 RMK AO2 TSNO T00940055 BKN V SCT SLP059 $

2010/08/08 02:00
SLLP 080200Z 02006KT 9999 NSC 02/M13 Q1039

2010/08/08 02:00
SLCB 080200Z 15003KT 9999 SKC 16/02 Q1023

2010/08/08 02:00
SLVR 080200Z 33007KT 5000 FU NSC 18/12 Q1014

2010/08/08 01:55
KQPV 080155Z AUTO 01010G17KT 2500 HZ CLR 34/06 A2964 RMK AO2 SLP028 T03350055 $

2010/08/08 01:55
KQRY 080155Z AUTO 30002KT 4800 BR BKN150 18/16 A3006 RMK AO2 SLP095 T01830164 PWINO $

2010/08/08 01:55
KQSD 080155Z 12002KT 9999 SCT080 BKN150 22/16 A2994 RMK AO2A SLP017

2010/08/08 01:55
KQTZ 080155Z 34007G13KT 5000 DU HZ SCT200 35/02 A2957 RMK SLP006 QNH1001MB WND DATA ESTMD ALSTG/SLP ESTMD

2010/08/08 01:55
KQXF 080155Z AUTO 36005KT 9000 BKN190 32/02 A2956 RMK AO2 SLP998 T03240020 $

2010/08/08 02:00
KQEN 080200Z AUTO 26003KT 7SM FEW026 FEW055 25/20 A3052 RMK A02

2010/08/08 02:10
KQEV 080210Z AUTO 31002KT 7SM FEW032 31/20 A2987 RMK A02

2010/08/08 02:00
SCAR 080200Z 26002KT 9999 OVC021 15/09 Q1019

2010/08/08 02:00
SCDA 080200Z 20003KT 9999 OVC022 13/09 Q1019

2010/08/08 02:00
SCFA 080200Z 13005KT 9999 BKN015 12/08 Q1017

2010/08/08 02:00
SCIP 080200Z VRB04KT 9999 SCT020 BKN030 16/12 Q1027

2010/08/08 02:00
SCAT 080200Z 16008KT 6000 SKC 10/09 Q1021

2010/08/08 02:00
SCSE 080200Z 16003KT CAVOK 08/07 Q1022 NEFO PLAYA SKC

2010/08/08 02:00
SCVM 080200Z 12004KT 9999 FEW050 10/07 Q1025

2010/08/08 02:00
SCEL 080200Z 12004KT 090V150 9999 SCT120 10/00 Q1027 NOSIG

2010/08/08 02:00
SCIE 080200Z 11002KT 5000 HZ SKC 04/02 Q1028

2010/08/08 02:00
OPPS 080200Z NW-06KT 1500 RA SCT006ST FEW030TCU SCT030 BKN100 25/24 Q1004.8

2010/08/08 02:00
WSSL 080200Z 17005KT 110V190 9999 FEW020 BKN300 30/24 Q1010 RMK 0130Z Q1010 

2010/08/08 02:00
SCAR 080200Z 26002KT 9999 OVC021 15/09 Q1019

2010/08/08 02:00
SCDA 080200Z 20003KT 9999 OVC022 13/09 Q1019

2010/08/08 02:00
SCFA 080200Z 13005KT 9999 BKN015 12/08 Q1017

2010/08/08 02:00
SCAT 080200Z 16008KT 6000 SKC 10/09 Q1021

2010/08/08 02:00
SCIP 080200Z VRB04KT 9999 SCT020 BKN030 16/12 Q1027

2010/08/08 02:00
SCSE 080200Z 16003KT CAVOK 08/07 Q1022 NEFO PLAYA SKC

2010/08/08 02:00
SCEL 080200Z 12004KT 090V150 9999 SCT120 10/00 Q1027 NOSIG

2010/08/08 02:00
SCIE 080200Z 11002KT 5000 HZ SKC 04/02 Q1028

2010/08/08 02:00
SCTC 080200Z 00000KT 1500NE 5000SW BR SCT015 04/04 Q1027

2010/08/08 02:00
SCTE 080200Z 00000KT 9999 SCT050 03/03 Q1026 NOSIG

2010/08/08 02:00
SCBA 080200Z AUTO 29011KT 9999 -RA BKN050 03/M00 Q1015

2010/08/08 02:00
SCCI 080200Z 32012KT 9999 FEW023 SCT090 BKN200 03/M01 Q0994 NOSIG

2010/08/08 02:00
DNMM 080200Z 25007KT 8000 SCT010 25/24 Q1013 NOSIG

2010/08/08 02:00
TLPC 080200Z 12008KT 9999 FEW022 27/25 Q1014

2010/08/08 02:00
AYMO 080200Z AUTO 14005KT //// // ////// 31/25 Q1008

2010/08/08 02:00
AYPY 080200Z 18003KT 9999 FEW020 SCT140 32/22 Q1007 RMKS. HAZE

2010/08/08 02:00
OMAA 080200Z 12007KT 5000 HZ NSC 30/26 Q0999 A2950 NOSIG

2010/08/08 02:00
OMAD 080200Z 12005KT 5000 HZ NSC 31/28 Q0998 A2950

2010/08/08 02:00
OMAL 080200Z 16007KT 8000 NSC 30/18 Q1001 A2958

2010/08/08 02:00
OMDB 080200Z VRB02KT 8000 NSC 33/25 Q0998 NOSIG

2010/08/08 02:00
OMDW 080200Z 03002KT 6000 NSC 28/24 Q0999 BECMG 4000 HZ

2010/08/08 02:00
OMFJ 080200Z 13004KT 9999 SCT018 31/21 Q1000 A2953

2010/08/08 02:00
OMSJ 080200Z 00000KT 8000 NSC 29/27 Q0999

2010/08/08 02:00
FMNM 080200Z 22004KT CAVOK 21/15 Q1018

2010/08/08 02:00
FMMT 080200Z 24004KT 9999 FEW007 SCT017 BKN033 19/18 Q1023

2010/08/08 02:00
FMSD 080200Z 06010KT 9999 SCT017 SCT033 19/17 Q1026

2010/08/08 02:00
FMMI 080200Z 15005KT 110V170 9999 FEW016 BKN020 11/10 Q1026 NOSIG

2010/08/08 02:00
FMMT 080200Z 24004KT 9999 FEW007 SCT017 BKN033 19/18 Q1023

2010/08/08 02:00
FMSD 080200Z 06010KT 9999 SCT017 SCT033 19/17 Q1026

2010/08/08 02:00
FMMI 080200Z 15005KT 110V170 9999 FEW016 BKN020 11/10 Q1026 NOSIG

2010/08/08 01:59
KJAC 080159Z 00000KT 10SM SKC 18/06 A3003

2010/08/08 01:55
KLDM 080155Z AUTO 21013G18KT 10SM SCT120 24/20 A2984 RMK AO2

2010/08/08 01:55
KMCD 080155Z AUTO 00000KT 10SM BKN095 22/18 A2982 RMK AO2

2010/08/08 01:56
KOSC 080156Z AUTO 21003KT 10SM BKN090 21/17 A2985 RMK AO2

2010/08/08 01:55
KPHN 080155Z AUTO 17005KT 10SM SCT060 BKN075 BKN090 22/16 A2992 RMK AO2

2010/08/08 01:53
KRIL 080153Z AUTO 17003KT 10SM FEW090 19/14 A3012 RMK AO2 RAE01 SLP145 P0000 T01890139 TSNO

2010/08/08 01:55
KRMY 080155Z AUTO 00000KT 10SM CLR 22/17 A2994 RMK AO2

2010/08/08 01:53
KSBD 080153Z 25012KT 10SM SKC 25/09 A2983

2010/08/08 01:54
KTTF 080154Z AUTO 20004KT 10SM CLR 23/17 A2993 RMK AO2

2010/08/08 01:56
PAVC 080156Z AUTO 21016KT 1/2SM FG 11/11 A2985 RMK AO2 PWINO TSNO T01110105 SLP108 $

2010/08/08 01:59
K0R3 080159Z AUTO 19004KT CLR 30/26 A2989 RMK AO2 PWINO

2010/08/08 02:02
K47A 080202Z AUTO 00000KT 10SM SCT075 28/19 A2999 RMK AO2 LTG DSNT SW

2010/08/08 02:00
KAVC 080200Z AUTO 00000KT 10SM SCT090 24/21 A3003 RMK AO2

2010/08/08 02:00
KBCB 080200Z AUTO 15003KT 10SM BKN060 OVC070 24/19 A3010 RMK AO2 PWINO

2010/08/08 02:00
KBQK 080200Z AUTO 00000KT 2SM CLR 26/25 A2993 RMK AO1 LTG DSNT SE T02550251 PNO

2010/08/08 01:59
KCJR 080159Z AUTO 00000KT 10SM CLR 21/18 A2999 RMK AO2

2010/08/08 02:00
KCPK 080200Z AUTO 00000KT 7SM CLR 23/19 A2998 RMK AO2

2010/08/08 02:00
KCTJ 080200Z AUTO 05003KT 10SM CLR 26/24 A2997 RMK AO2 T02550240

2010/08/08 01:59
KDQH 080159Z AUTO 00000KT 7SM BKN004 26/24 A2993 RMK AO1

2010/08/08 01:59
KEDE 080159Z AUTO 07003KT 7SM CLR 24/22 A2995 RMK AO2

2010/08/08 01:55
KEMV 080155Z AUTO 00000KT 10SM CLR 23/20 A2998 RMK AO2

2010/08/08 01:59
KEXX 080159Z AUTO 00000KT 10SM CLR 22/20 A2999 RMK AO2

2010/08/08 01:57
KEZF 080157Z AUTO 00000KT 10SM CLR 22/20 A2997 RMK AO2 T02210195

2010/08/08 02:00
KFQD 080200Z AUTO 00000KT 10SM SCT060 BKN080 25/20 A3001 RMK AO2

2010/08/08 02:00
KGEV 080200Z AUTO 00000KT 10SM BKN042 BKN049 19/16 A3013 RMK AO2

2010/08/08 01:59
KHDC 080159Z AUTO 00000KT 10SM CLR 30/28 A2990 RMK AO2

2010/08/08 02:00
KHLX 080200Z AUTO 00000KT 10SM CLR 22/20 A3011 RMK AO2

2010/08/08 02:00
KHQU 080200Z AUTO 00000KT 7SM BKN035 BKN041 26/23 A2999 RMK AO1

2010/08/08 01:59
KHRJ 080159Z AUTO 00000KT 7SM SCT040 26/23 A2996 RMK AO2

2010/08/08 01:59
KJNX 080159Z AUTO 00000KT 7SM BKN047 24/24 A2996 RMK AO2

2010/08/08 02:01
KMFV 080201Z AUTO 00000KT 2 1/2SM BR CLR 23/23 A2999 RMK AO2

2010/08/08 02:01
KMLJ 080201Z AUTO 00000KT 5SM BR CLR 26/26 A2994 RMK AO2

2010/08/08 02:00
KMQI 080200Z AUTO 07006KT 7SM CLR 26/26 A2998 RMK AO2

2010/08/08 02:00
KONX 080200Z AUTO 07004KT 7SM SCT007 SCT011 26/24 A2998 RMK AO2

2010/08/08 02:00
KPGV 080200Z AUTO 11003KT 10SM CLR 26/22 A2998 RMK AO2

2010/08/08 02:01
KPTB 080201Z AUTO 00000KT 7SM SCT080 25/ A2998 RMK AO2

2010/08/08 02:00
KRUQ 080200Z AUTO 00000KT 7SM CLR 22/21 A2999 RMK AO2

2010/08/08 02:01
KTDF 080201Z AUTO 00000KT 21/21 A3001 RMK AO1

2010/08/08 02:01
KTNB 080201Z AUTO 00000KT 7SM SCT039 BKN050 20/17 A3013 RMK AO2

2010/08/08 02:00
KUNV 080200Z AUTO 00000KT 10SM CLR 21/12 A3003 RMK AO2 T02120124

2010/08/08 01:55
KVVG 080155Z AUTO 31003KT 28/26 A2993 RMK AO2

2010/08/08 02:01
KSHR 080201Z AUTO 32008KT 10SM FEW090 SCT110 23/11 A2989 RMK AO2 WSHFT 0141 LTG DSNT NE

2010/08/08 02:00
PABT 080200Z 21004KT 10SM FEW022 BKN031 OVC049 16/12 A2960 RMK AO2 $

2010/08/08 02:00
PAYA 080200Z 22003KT 10SM SCT012 BKN029 OVC060 14/11 A2982 RMK AO2

2010/08/08 02:00
RPLL 080200Z 21011KT 8000 SCT023 OVC090 29/25 Q1007 NOSIG RMK A2974

2010/08/08 02:00
RPLB 080200Z 21016KT 9999 -RA SCT018 OVC080 28/25 Q1007 LGT RA CONTUS

2010/08/08 02:00
RPVM 080200Z 22008KT 9999 FEW020 BKN300 30/26 Q1010 A2982

2010/08/08 02:00
RPMZ 080200Z 00000KT 9999 FEW018CB OVC120 31/25 Q1012 CB NE

2010/08/08 02:00
SUMU 080200Z 13004KT 1500 0800NW R24/P2000 R19/0300 BCFG NSC 09/08 Q1021 TEMPO 0800 BCFG

2010/08/08 02:00
SULS 080200Z 00000KT 0400 FG NSC 05/04 Q1021

2010/08/08 01:50
EGDL 080150Z 31005KT 9999 FEW013 BKN034 13/11 Q1019 TEMPO SCT012

2010/08/08 01:50
EGVN 080150Z 33007KT 9999 BKN034 15/12 Q1019 NOSIG

2010/08/08 01:50
EGXC 080150Z 33008KT 9999 FEW012 BKN028 14/13 Q1018

2010/08/08 01:55
EHEH 080155Z AUTO 26004KT 6000NDV BR BKN025 OVC031 17/16 Q1015 WHT

2010/08/08 01:55
EHKD 080155Z AUTO 35003KT 9999NDV OVC072/// 16/15 Q1015 BLU

2010/08/08 01:50
EGNJ 080150Z AUTO 34007KT 9999NDV OVC016/// 15/13 Q1019

2010/08/08 01:50
EGPE 080150Z AUTO 21003KT 9999NDV OVC043/// 12/09 Q1020

2010/08/08 01:50
EGPA 080150Z AUTO 30008KT 9999NDV FEW012/// BKN038/// 13/12 Q1019

2010/08/08 01:50
EGPC 080150Z AUTO 25005KT 9999NDV FEW040/// 10/10 Q1019

2010/08/08 01:50
EGPL 080150Z AUTO 20004KT 9999NDV FEW015/// BKN024/// 11/10 Q1020

2010/08/08 01:50
EGPM 080150Z AUTO 29009KT 9999NDV BKN016/// 12/10 Q1016

2010/08/08 01:50
EGPO 080150Z AUTO 25004KT 9999NDV SCT022/// BKN027/// BKN034/// 12/10 Q1020

2010/08/08 01:55
EHAK 080155Z AUTO 35006KT 9999NDV FEW021/// 16/15 Q1015

2010/08/08 01:55
EHDV 080155Z AUTO 34010KT 9999NDV FEW009/// 17/14 Q1016

2010/08/08 01:55
EHFD 080155Z AUTO 35008KT 310V050 9999NDV FEW006/// SCT008/// BKN011/// 16/15 Q1016

2010/08/08 01:55
EHFZ 080155Z AUTO 33012KT 9999NDV FEW006/// SCT015/// BKN020/// 17/15 Q1015

2010/08/08 01:55
EHJA 080155Z AUTO 32008KT 280V010 9999NDV NCD 17/14 Q1016

2010/08/08 01:55
EHKV 080155Z AUTO 35010KT 9999NDV FEW006/// SCT015/// 17/15 Q1015

2010/08/08 01:55
EHMA 080155Z AUTO 19007KT 5000NDV FEW002/// SCT010/// BKN022/// 17/16 Q1015

2010/08/08 01:55
EHMG 080155Z AUTO 33008KT 9999NDV FEW006/// SCT007/// BKN011/// 17/15 Q1015

2010/08/08 01:55
EHPG 080155Z AUTO 01005KT 310V070 9999NDV FEW004/// SCT006/// BKN008/// 17/16 Q1015

2010/08/08 01:55
EHQE 080155Z AUTO 35007KT 9999NDV SCT000/// SCT005/// BKN007/// 17/15 Q1015

2010/08/08 02:00
MWCR 080200Z 12008KT 9999 FEW022 BKN250 30/26 Q1014 NOSIG

2010/08/08 01:55
OPKC 080155Z 28004KTS 6000 FEW020 BKN100 100 28/26 Q1000 NOSIG

2010/08/08 01:55
OPLA 080155Z 16004KT 4000 FU SCT040 BKN100 29/26 Q1003 NOSIG

2010/08/08 01:55
OPNH 080155Z 31503KT 3000 FU SCT030 BKN100 29/27 Q.1000

2010/08/08 02:00
MROC 080200Z 00000KT 9999 4000N -DZ BR BCFG SCT002 BKN015 21/21 A3006 NOSIG

2010/08/08 02:00
HKJK 080200Z 00000KT FEW006 SCT017 BKN080 15/14 Q1022 REDZ NOSIG

2010/08/08 02:00
FOOL 080200Z 17006KT 130V210 9999 SCT008 OVC040 24/22 Q1014 NOSIG

2010/08/08 02:00
SKBQ 080200Z 29003KT 9999 SCT010CB SCT070 26/24 A2989 CB/NE LTNG/NE

2010/08/08 02:00
SBGR 080200Z 11002KT 6000 NSC 12/11 Q1021

2010/08/08 02:00
MROC 080200Z 00000KT 9999 4000N -DZ BR BCFG SCT002 BKN015 21/21 A3006 NOSIG

2010/08/08 02:00
OPRN 080200Z 27004KT 10000 BR FEW025TCU SCT030 BKN100 26/25 1005.3

2010/08/08 02:00
SBVT 080200Z 31003KT CAVOK 18/16 Q1022

2010/08/08 02:00
UBBB 080200Z 31004KT 8000 BCFG NSC 24/24 Q1011 NOSIG RMK R88CLRD70

2010/08/08 02:00
SBPB 080200Z 09010KT CAVOK 26/21 Q1014

2010/08/08 02:00
SKBQ 080200Z 29003KT 9999 SCT010CB SCT070 26/24 A2989 CB/NE LTNG/NE

2010/08/08 02:00
SKCL 080200Z 03007KT 9999 FEW020 BKN090 21/17 A3003

2010/08/08 02:00
SKCG 080200Z 27004KT 9999 BKN015 29/26 A2986

2010/08/08 02:00
SKCC 080200Z 14008KT 9999 SCT020CB 28/20 A2994 RMK CB/NW/W/LTNG

2010/08/08 02:00
SKLT 080200Z 00000KT 6000 SCT020 24/23 A2994 RMK/HZ

2010/08/08 02:00
SKRG 080200Z 00000KT 9999 SCT015 SCT080 17/15 A3030

2010/08/08 02:00
SKSP 080200Z 01004KT 9999 SCT015TCU SCT200 29/26 A2984

2010/08/08 02:00
SKBG 080200Z 00000KT 9999 SCT017 22/18 A3004

2010/08/08 02:00
SKPE 080200Z 18004KT 4000 -RA BKN010 BKN070 19/18 A3015

2010/08/08 01:55
EBBL 080155Z 26004KT 4500 BR FEW006 BKN025 16/16 Q1016 GRN

2010/08/08 01:56
EBFN 080156Z 22004KT 4800 BR FEW015 BKN110 14/14 Q1016 GRN

2010/08/08 01:55
EBFS 080155Z 27006KT 9999 FEW014 BKN035 14/13 Q1017 BLU

2010/08/08 01:50
EGEC 080150Z AUTO 32009KT 9999NDV // BKN008/// 13/12 Q1020

2010/08/08 01:50
EGOM 080150Z AUTO 08003KT 8000NDV BR FEW038/// BKN050/// 11/11 Q1019

2010/08/08 01:50
EGPU 080150Z AUTO 33007KT 9999NDV // FEW014/// 10/09 Q1020

2010/08/08 01:50
EGXX 080150Z AUTO 33016KT 9999NDV // BKN010/// 15/14 Q1018

2010/08/08 02:00
EPKK 080200Z 24004KT 9999 BKN046 16/14 Q1014

2010/08/08 02:00
EPKT 080200Z 23006KT 9999 SCT045 15/13 Q1014

2010/08/08 02:00
EPPO 080200Z 29007KT 9999 BKN005 16/16 Q1012

2010/08/08 02:00
EPRZ 080200Z 25003KT CAVOK 17/16 Q1014

2010/08/08 02:00
EPWR 080200Z 28009KT 9999 BKN005 17/17 Q1014

2010/08/08 02:00
LBBG 080200Z 35004MPS CAVOK 25/23 Q1011 NOSIG

2010/08/08 02:00
LBGO 080200Z 33001MPS CAVOK 20/19 Q1014 NOSIG

2010/08/08 02:00
LBPD 080200Z 00000MPS CAVOK 22/18 Q1012 NOSIG

2010/08/08 02:00
LBSF 080200Z 29004MPS 7000 FEW026 SCT050 BKN082 20/18 Q1015 TEMPO 4000 BR

2010/08/08 02:00
LBWN 080200Z VRB01MPS CAVOK 24/23 Q1011 NOSIG

2010/08/08 02:00
LDDU 080200Z 03005KT 330V090 CAVOK 20/12 Q1015

2010/08/08 02:00
LDPL 080200Z VRB02KT CAVOK 17/11 Q1017

2010/08/08 02:00
LDSP 080200Z VRB01KT CAVOK 21/14 Q1016

2010/08/08 02:00
LDZA 080200Z 00000KT CAVOK 16/14 Q1017 NOSIG

2010/08/08 02:00
LDZD 080200Z 00000KT 8000 NSC 16/15 Q1016

2010/08/08 01:50
LGLR 080150Z 00000KT 9999 FEW035 19/15 Q1011 NOSIG BLU

2010/08/08 01:50
LGMK 080150Z 00000KT CAVOK 23/22 Q1010

2010/08/08 02:00
LHBP 080200Z 24007KT 9999 SCT016 BKN040 16/15 Q1016 NOSIG

2010/08/08 02:00
LZIB 080200Z 28008KT 250V310 9999 -RA FEW009 BKN013 OVC025 16/14 Q1016

2010/08/08 02:00
LZTT 080200Z 28005KT CAVOK 11/10 Q1015

2010/08/08 02:00
TNCC 080200Z 10008KT 9999 SCT016 29/25 Q1013 NOSIG

2010/08/08 01:50
ETUO 080150Z AUTO 00000KT 8000NDV // OVC060/// 16/15 Q1015

2010/08/08 02:01
CYPR 080201Z AUTO /////KT 9SM SCT009 BKN014 BKN022 OVC029 A2993 RMK WND MISG T MISG TD MISG

2010/08/08 01:50
EGDX 080150Z AUTO 31006KT 9999NDV // NCD 13/10 Q1021

2010/08/08 02:00
FMMI 080200Z 15005KT 110V170 9999 FEW016 BKN020 11/10 Q1026 NOSIG

2010/08/08 01:55
FJDG 080155Z 11010KT 9999 FEW020 SCT080 BKN220 27/24 A2985 RMK SLP102 T02680242

2010/08/08 01:55
KBKF 080155Z 06003KT 7SM VCSH SCT050 SCT110 BKN220 21/13 A3000 RMK SLP091

2010/08/08 01:55
KDLF 080155Z AUTO 12006KT 10SM CLR 34/17 A2981 RMK AO2 SLP077 T03390167

2010/08/08 02:00
KNEL 080200Z AUTO 00000KT 10SM CLR 22/17 A2999 RMK AO2 SLP152 T02170167 $

2010/08/08 01:59
KNGU 080159Z 09005KT 9SM CLR 26/23 A2999 RMK AO2 SLP155 T02560233 $

2010/08/08 01:56
KNJK 080156Z AUTO 13008KT 10SM CLR 36/13 A2961 RMK AO2 SLP041 T03610128 TSNO

2010/08/08 01:56
KNRS 080156Z AUTO 27007KT 10SM OVC017 17/12 A2988 RMK AO2 SLP118 T01720122 TSNO $

2010/08/08 01:55
KTBN 080155Z AUTO 13003KT 10SM CLR 26/ A2991 RMK AO2 SLP109 T0261 $

2010/08/08 01:55
KVAD 080155Z 22003KT 10SM R18/5500VP6000FT -RA OVC006 25/24 A2994 RMK AO2A SLP135 P0009 T02480244 $

2010/08/08 01:59
NSTU 080159Z 10018KT 10SM SCT018 SCT040 BKN100 28/24 A2990 RMK SLP127 T02830243

2010/08/08 02:00
NTAA 080200Z VRB02KT 9999 FEW013 SCT050 27/23 Q1016 NOSIG

2010/08/08 02:00
OJAM 080200Z 00000KT 5000 HZ NSC 28/04 Q1013 NOSIG

2010/08/08 02:00
SCON 080200Z AUTO 04003KT 340V070 CAVOK 06/05 Q1023

2010/08/08 02:00
SCSE 080200Z 16003KT CAVOK 08/07 Q1022 NEFO PLAYA SKC

2010/08/08 02:00
TAPA 080200Z 07012KT 9999 SCT019 28/24 Q1014

2010/08/08 02:00
TLPL 080200Z 09014KT 9999 SCT018 SCT040 BKN260 28/25 Q1014

2010/08/08 02:00
WSAP 080200Z 15005KT 9999 FEW018 BKN300 29/24 Q1010

2010/08/08 02:00
WSSS 080200Z 17006KT 130V220 9999 FEW018 SCT280 BKN300 29/24 Q1010 NOSIG

2010/08/08 02:00
SBCY 080200Z 19003KT CAVOK 24/12 Q1014

2010/08/08 02:00
SBGR 080200Z 11002KT 6000 NSC 12/11 Q1021

2010/08/08 02:00
SBLO 080200Z 27002KT CAVOK 14/08 Q1020

2010/08/08 02:00
SBPB 080200Z 09010KT CAVOK 26/21 Q1014

2010/08/08 02:00
SBPV 080200Z 00000KT CAVOK 22/18 Q1013

2010/08/08 02:00
SBRP 080200Z 11002KT CAVOK 18/11 Q1019

2010/08/08 02:00
SBSV 080200Z 16004KT 9999 SCT017 23/17 Q1020

2010/08/08 02:00
SBTE 080200Z 34002KT CAVOK 27/22 Q1014

2010/08/08 02:00
SBVT 080200Z 31003KT CAVOK 18/16 Q1022

2010/08/08 02:00
SCAR 080200Z 26002KT 9999 OVC021 15/09 Q1019

2010/08/08 02:00
SCBA 080200Z AUTO 29011KT 9999 -RA BKN050 03/M00 Q1015

2010/08/08 02:00
SCCI 080200Z 32012KT 9999 FEW023 SCT090 BKN200 03/M01 Q0994 NOSIG

2010/08/08 02:00
SCDA 080200Z 20003KT 9999 OVC022 13/09 Q1019

2010/08/08 02:00
SCEL 080200Z 12004KT 090V150 9999 SCT120 10/00 Q1027 NOSIG

2010/08/08 02:00
SCFA 080200Z 13005KT 9999 BKN015 12/08 Q1017

2010/08/08 02:00
SCIE 080200Z 11002KT 5000 HZ SKC 04/02 Q1028

2010/08/08 02:00
SCON 080200Z AUTO 04003KT 340V070 CAVOK 06/05 Q1023

2010/08/08 02:00
SCSE 080200Z 16003KT CAVOK 08/07 Q1022 NEFO PLAYA SKC

2010/08/08 02:00
SCTE 080200Z 00000KT 9999 SCT050 03/03 Q1026 NOSIG

2010/08/08 02:00
SKBG 080200Z 00000KT 9999 SCT017 22/18 A3004

2010/08/08 02:00
SKBQ 080200Z 29003KT 9999 SCT010CB SCT070 26/24 A2989 CB/NE LTNG/NE

2010/08/08 02:00
SKCG 080200Z 27004KT 9999 BKN015 29/26 A2986

2010/08/08 02:00
SKCL 080200Z 03007KT 9999 FEW020 BKN090 21/17 A3003

2010/08/08 02:00
SKLT 080200Z 00000KT 6000 SCT020 24/23 A2994 RMK/HZ

2010/08/08 02:00
SKPE 080200Z 18004KT 4000 -RA BKN010 BKN070 19/18 A3015

2010/08/08 02:00
SKRG 080200Z 00000KT 9999 SCT015 SCT080 17/15 A3030

2010/08/08 02:00
SKSP 080200Z 01004KT 9999 SCT015TCU SCT200 29/26 A2984

2010/08/08 02:00
SLCB 080200Z 15003KT 9999 SKC 16/02 Q1023

2010/08/08 02:00
SLLP 080200Z 02006KT 9999 NSC 02/M13 Q1039

2010/08/08 02:00
SLVR 080200Z 33007KT 5000 FU NSC 18/12 Q1014

2010/08/08 02:00
TFFF 080200Z VRB03KT 9999 SCT012 SCT016 25/24 Q1014 RESHRA NOSIG

2010/08/08 02:00
TLPC 080200Z 12008KT 9999 FEW022 27/25 Q1014

2010/08/08 02:00
LKKV 080200Z VRB02KT CAVOK 14/11 Q1017

2010/08/08 02:00
LKMT 080200Z 22006KT 9999 SCT023 OVC030 15/14 Q1015 NOSIG

2010/08/08 02:00
LKPR 080200Z 21005KT 9999 BKN012 15/14 Q1016 NOSIG

2010/08/08 02:00
LKTB 080200Z 22002KT 4500 BR FEW003 OVC017 16/15 Q1015 NOSIG

2010/08/08 02:00
BIEG 080200Z 17008KT 9999 VCSH FEW020 SCT040 BKN070 09/07 Q1016

2010/08/08 02:00
BIKF 080200Z 04003KT 9999 FEW030 BKN060 11/08 Q1012

2010/08/08 02:00
BIRK 080200Z 05005KT 9999 SCT030 BKN100 12/07 Q1012

2010/08/08 01:45
LHDC 080145Z 22003KT 8000 NSC 14/14 Q1017

2010/08/08 01:45
LHKE 080145Z 28002MPS CAVOK 15/13 Q1016 NOSIG RMK BLU

2010/08/08 01:45
LHPA 080145Z 20003MPS 9999 BKN033 OVC083 16/15 Q1018 NOSIG RMK BLU

2010/08/08 01:45
LHPP 080145Z 32004KT CAVOK 15/14 Q1018

2010/08/08 01:45
LHPR 080145Z 25007KT 9999 FEW026 BKN083 16/15 Q1017

2010/08/08 01:45
LHSN 080145Z 27001MPS CAVOK 16/14 Q1016 NOSIG RMK BLU

2010/08/08 01:45
LHUD 080145Z 29003KT 8000 NSC 15/15 Q1017

2010/08/08 02:00
LYBE 080200Z 24003KT CAVOK 18/17 Q1017 NOSIG

2010/08/08 02:00
LYBT 080200Z 19002KT CAVOK 17/17 Q1017 NOSIG

2010/08/08 02:00
LYKV 080200Z VRB01KT 9999 SCT040 16/15 Q1018 NOSIG

2010/08/08 02:00
LYNI 080200Z 31006KT 9999 FEW040 19/17 Q1016

2010/08/08 02:00
LYPG 080200Z 02004KT CAVOK 20/15 Q1015 NOSIG

2010/08/08 02:00
LYTV 080200Z 00000KT CAVOK 14/13 Q1014

2010/08/08 02:00
LYUZ 080200Z 30003KT 260V330 0100 FG VV001 13/13 Q1020

2010/08/08 02:00
LYVR 080200Z VRB02KT CAVOK 18/17 Q1017

2010/08/08 02:00
UBBG 080200Z 23005KT 9999 FEW100 23/14 Q1012 NOSIG RMK R30R/CLRD70 

2010/08/08 01:50
LIRQ 080150Z VRB02KT 080V140 9999 SCT030 17/15 Q1018

2010/08/08 02:00
AYPY 080200Z 18003KT 9999 FEW020 SCT140 32/22 Q1007 RMKS/ HAZE

2010/08/08 01:45
MMAA 080145Z 00000KT 8SM BKN010TCU BKN300 28/24 A2982 RMK 8/202

2010/08/08 01:49
MMPB 080149Z 25007KT 10SM RA OVC012 14/13 A3031 RMK 6//// 8/7// HZY RAB40

2010/08/08 01:45
MMQT 080145Z 00000KT 7SM -RA BKN020 OVC120 17/17 A3023 RMK 60345 8/47/ OCNL RA

2010/08/08 01:45
MMTO 080145Z 00000KT 4SM SCT015CB BKN070 14/12 A3034 RMK 8/36/ HZY

2010/08/08 01:52
MMVR 080152Z 00000KT 7SM FEW012TCU SCT070 BKN220 29/25 A2989 RMK 8/263 HZY DSNT CBS 3/4 QDS

2010/08/08 01:45
MMZH 080145Z 00000KT 10SM SCT015CB BKN100 OVC250 30/26 A2982 RMK 8/363

2010/08/08 02:00
MROC 080200Z 00000KT 9999 4000N -DZ BR BCFG SCT002 BKN015 21/21 A3006 NOSIG

2010/08/08 01:55
MUHA 080155Z 08004KT 9000 FEW020 27/24 Q1015

2010/08/08 01:59
NSTU 080159Z 10018KT 10SM SCT018 SCT040 BKN100 28/24 A2990 RMK SLP127 T02830243

2010/08/08 02:00
NTAA 080200Z VRB02KT 9999 FEW013 SCT050 27/23 Q1016 NOSIG

2010/08/08 02:00
NWWW 080200Z AUTO 13008KT 9999NDV OVC043/// 22/13 Q1017

2010/08/08 01:58
PAGA 080158Z AUTO 19005KT 10SM FEW015 SCT038 BKN080 16/12 A2962 RMK AO2 RAE08B25E58 SLPNO P0000 T01610117

2010/08/08 02:00
PKWA 080200Z AUTO 09010KT 10SM CLR 30/23 A2980 RMK AO2 T03000229

2010/08/08 02:00
PLCH 080200Z 13013KT 20KM SCT016 26/23 Q1011

2010/08/08 02:00
SKCL 080200Z 03007KT 9999 FEW020 BKN090 21/17 A3003

2010/08/08 02:00
SKLT 080200Z 00000KT 6000 SCT020 24/23 A2994 RMK/HZ

2010/08/08 02:00
SOCA 080200Z VRB01KT CAVOK 26/24 Q1014 NOSIG

2010/08/08 02:00
TAPA 080200Z 07012KT 9999 SCT019 28/24 Q1014

2010/08/08 02:00
TFFF 080200Z VRB03KT 9999 SCT012 SCT016 25/24 Q1014 RESHRA NOSIG

2010/08/08 02:00
TLPL 080200Z 09014KT 9999 SCT018 SCT040 BKN260 28/25 Q1014

2010/08/08 02:00
SBGR 080200Z 11002KT 6000 NSC 12/11 Q1021

2010/08/08 01:57
PHNG 080157Z AUTO 06008G16KT 10SM CLR 28/22 A3004 RMK AO2 SLP168 T02830217 $ 

2010/08/08 01:50
VGEG 080150Z 09002KT 6000 FEW028 SCT300 27/25 Q1004 NOSIG

2010/08/08 02:01
PAIK 080201Z AUTO 09007KT 10SM OVC036 16/10 A2957 RMK AO2 SLP054 T01560100

2010/08/08 02:01
PAKF 080201Z AUTO 11012G17KT 10SM SCT009 BKN034 OVC041 13/11 A2978 RMK AO2 RAB0119E0152 SLP179 P0000 T01280111

2010/08/08 01:56
PANW 080156Z AUTO 22012G16KT 10SM FEW015 SCT029 14/10 A2976 RMK AO2 PWINO TSNO T01380100 SLP055 $

2010/08/08 02:00
KJES 080200Z AUTO 00000KT 10SM CLR 26/26 A2993 RMK AO2 LTG DSNT SE T02550256

2010/08/08 02:00
KJGG 080200Z AUTO 00000KT 10SM CLR 24/19 A2999 RMK AO1

2010/08/08 02:00
KJKA 080200Z AUTO 00000KT 10SM CLR 30/24 A2991 RMK AO2 T02970244

2010/08/08 02:00
KJYO 080200Z AUTO 00000KT 10SM SCT080 24/14 A2999 RMK AO2

2010/08/08 02:00
KLDJ 080200Z AUTO 00000KT 10SM CLR 25/19 A2997 RMK AO2 T02470191

2010/08/08 02:00
KLHZ 080200Z AUTO 00000KT 7SM CLR 23/21 A2999 RMK AO2 T02320213

2010/08/08 02:00
KLKU 080200Z AUTO 00000KT 10SM CLR 18/16 A2999 RMK AO2

2010/08/08 02:00
KLNP 080200Z AUTO 00000KT 10SM CLR 21/15 A3009 RMK AO1

2010/08/08 02:01
KLWB 080201Z AUTO 00000KT 10SM SCT065 19/16 A3009 RMK AO2

2010/08/08 02:00
KMDQ 080200Z AUTO 00000KT 10SM CLR 26/21 A2993 RMK AO2 T02580209

2010/08/08 02:00
KMGR 080200Z AUTO 00000KT 7SM SCT006 BKN009 OVC110 27/25 A2996 RMK AO2

2010/08/08 02:01
KMRN 080201Z AUTO 00000KT 7SM SCT060 BKN075 22/21 A3007 RMK AO2

2010/08/08 02:02
KMWK 080202Z AUTO 00000KT 10SM CLR 23/18 A3003 RMK AO2

2010/08/08 02:00
KSIF 080200Z AUTO 00000KT 5SM BR CLR 21/20 A3000 RMK AO2 T02050197

2010/08/08 02:00
KSUT 080200Z AUTO 00000KT 10SM CLR 25/22 A2994 RMK AO2

2010/08/08 02:00
KSVH 080200Z AUTO 00000KT 7SM CLR 23/22 A2999 RMK AO2 T02250221

2010/08/08 02:00
KTMA 080200Z AUTO 00000KT 5SM -RA BKN004 25/25 A2994 RMK AO2 T02470245

2010/08/08 02:00
KTPF 080200Z AUTO 24003KT 10SM CLR 29/26 A2994 RMK AO2

2010/08/08 02:04
KTTA 080204Z AUTO 00000KT 7SM SCT045 SCT075 24/23 A2998 RMK AO2

2010/08/08 02:00
KTVI 080200Z AUTO 00000KT 7SM CLR 26/25 A2994 RMK AO2 LTG DSNT S T02550246

2010/08/08 01:58
KVUJ 080158Z AUTO 00000KT 7SM OVC090 23/22 A2996 RMK AO2

2010/08/08 02:00
KW45 080200Z AUTO 00000KT 10SM CLR 22/18 A3001 RMK AO2 T02160179

2010/08/08 02:00
K1A5 080200Z AUTO 00000KT 7SM CLR 22/19 A3004 RMK AO2 T02150191

2010/08/08 02:00
K3A1 080200Z AUTO 00000KT 10SM CLR 25/24 A2996 RMK AO2 T02450241 TSNO

2010/08/08 02:00
K3J7 080200Z AUTO 00000KT 10SM CLR 26/24 A2993 RMK AO2 T02600235

2010/08/08 01:58
K4A9 080158Z AUTO 00000KT 10SM CLR 25/20 A2994 RMK AO2 T02540200

2010/08/08 02:00
K4R4 080200Z AUTO 00000KT 10SM SCT040 SCT048 SCT055 28/25 A2992 RMK AO2 T02810254

2010/08/08 01:58
K8A0 080158Z AUTO 11003KT 10SM CLR 29/15 A2994 RMK AO2

2010/08/08 02:00
KACP 080200Z AUTO 00000KT 10SM CLR 28/26 A2988 RMK AO2

2010/08/08 02:00
KAFP 080200Z AUTO 00000KT 7SM CLR 25/23 A2995 RMK AO2 T02500227

2010/08/08 02:00
KALX 080200Z AUTO 00000KT 10SM CLR 27/23 A2993 RMK AO1 LTG DSNT S AND SW

2010/08/08 02:01
KASJ 080201Z AUTO 00000KT 10SM CLR 24/20 A2998 RMK AO2

2010/08/08 02:00
KAYS 080200Z AUTO 00000KT 10SM OVC006 26/25 A2984 RMK AO1 LTG DSNT SE AND SW

2010/08/08 02:02
KBGE 080202Z AUTO 06003KT 10SM SCT005 SCT016 SCT090 24/23 A2995 RMK AO2

2010/08/08 02:00
KCCO 080200Z AUTO 00000KT 10SM CLR 24/23 A2997 RMK AO1

2010/08/08 02:00
KCDH 080200Z AUTO 00000KT 10SM FEW065 27/23 A2985 RMK AO2

2010/08/08 01:55
KCLS 080155Z AUTO 00000KT 10SM FEW011 BKN039 OVC046 18/17 A2993 RMK AO2

2010/08/08 02:00
KCPC 080200Z AUTO 00000KT 4SM BR CLR 25/25 A2993 RMK AO2 T02540249

2010/08/08 01:50
KCWF 080150Z 20004KT 10SM SKC 29/24 A2989

2010/08/08 02:00
KCWV 080200Z AUTO 00000KT 10SM SCT037 28/26 A2993 RMK AO2 T02810263

2010/08/08 01:58
KDBN 080158Z AUTO 00000KT 5SM CLR 26/26 A2993 RMK AO1

2010/08/08 01:58
KDNN 080158Z AUTO 00000KT 10SM SCT075 25/21 A2994 RMK AO2

2010/08/08 02:00
KDRI 080200Z AUTO 17003KT 10SM CLR 28/26 A2990 RMK AO2

2010/08/08 02:00
KEYF 080200Z AUTO 00000KT 10SM CLR 27/24 A2994 RMK AO2 T02680240

2010/08/08 02:00
KF24 080200Z AUTO 00000KT 10SM CLR 28/25 A2988 RMK AO2 T02790253

2010/08/08 02:15
KFDW 080215Z AUTO 02003KT 10SM CLR 28/21 A2996 RMK AO1

2010/08/08 02:00
KFFA 080200Z AUTO 08003KT 5SM BR CLR 25/24 A2998 RMK AO2 T02450235

2010/08/08 02:00
KFKN 080200Z AUTO 00000KT 10SM CLR 23/19 A2998 RMK AO1

2010/08/08 01:57
KFVX 080157Z AUTO 00000KT 10SM CLR 23/21 A2997 RMK AO2

2010/08/08 01:55
KGHG 080155Z AUTO 24003KT 10SM CLR 17/14 A3002 RMK AO2

2010/08/08 02:00
KGWW 080200Z AUTO 17004KT 7SM BKN110 24/23 A2997 RMK AO2 T02410227

2010/08/08 02:01
KHBI 080201Z AUTO 00000KT 10SM CLR 23/21 A3001 RMK AO2

2010/08/08 02:00
KHNZ 080200Z AUTO 00000KT 10SM CLR 23/20 A2999 RMK AO2 T02310195

2010/08/08 01:58
KHOE 080158Z AUTO 00000KT 7SM SCT004 25/ A2992 RMK AO2 T0247

2010/08/08 02:00
KHSP 080200Z AUTO 18/14 A3019 RMK AO2 PWINO TSNO

2010/08/08 02:00
KHWY 080200Z AUTO 00000KT 10SM CLR 20/15 A2998 RMK AO2

2010/08/08 02:00
KI16 080200Z AUTO 00000KT 7SM CLR 18/18 A3005 RMK AO2

2010/08/08 02:00
KIPJ 080200Z AUTO 00000KT 7SM CLR 22/21 A3000 RMK AO2 T02240207

2010/08/08 02:00
KISO 080200Z AUTO 00000KT 10SM BKN030 BKN035 BKN120 27/23 A2997 RMK AO2 T02650229

2010/08/08 02:00
KIXA 080200Z AUTO 07003KT 10SM SCT049 24/22 A2996 RMK AO2 T02440216

2010/08/08 02:01
PAKV 080201Z AUTO 00000KT 2 1/2SM RA BR BKN018 BKN032 OVC046 14/13 A2965 RMK AO2 P0002 TSNO

2010/08/08 02:02
KSHN 080202Z AUTO 23008KT 1 1/2SM BR FEW007 BKN012 OVC017 16/16 A2989 RMK AO2

2010/08/08 02:02
KGUP 080202Z AUTO 18005KT 2SM +RA BR SCT021 BKN042 OVC065 16/14 A3021 RMK AO2 P0004

2010/08/08 01:50
LGMK 080150Z 00000KT CAVOK 23/22 Q1010

2010/08/08 02:00
LUKK 080200Z 08006KT 060V130 9999 VCTS SCT050CB 23/21 Q1012 26CLRD65 NOSIG

2010/08/08 02:00
DIAP 080200Z 23005KT 8000 SCT012 BKN070 25/24 Q1014 NOSIG

2010/08/08 02:00
UTTT 080200Z 06004MPS CAVOK 26/09 Q1007 R08R/CLRD70 NOSIG

2010/08/08 02:00
OEDF 080200Z 10005KT CAVOK 34/06 Q0998 NOSIG

2010/08/08 02:00
OEJN 080200Z 24004KT CAVOK 30/26 Q1000 NOSIG

2010/08/08 02:00
OEMA 080200Z 06003KT CAVOK 36/02 Q1006 NOSIG

2010/08/08 02:00
OERK 080200Z 29002KT CAVOK 28/08 Q1006 NOSIG

2010/08/08 02:00
LBSF 080200Z 29004MPS 7000 FEW026 SCT050 BKN082 20/18 Q1015 TEMPO 4000 BR

2010/08/08 02:00
LBWN 080200Z VRB01MPS CAVOK 24/23 Q1011 NOSIG

2010/08/08 02:00
LBBG 080200Z 35004MPS CAVOK 25/23 Q1011 NOSIG

2010/08/08 02:00
LBPD 080200Z 00000MPS CAVOK 22/18 Q1012 NOSIG

2010/08/08 02:00
LBGO 080200Z 33001MPS CAVOK 20/19 Q1014 NOSIG

2010/08/08 02:00
SARP 080200Z 16004KT CAVOK 15/10 Q1016

2010/08/08 02:00
TFFR 080200Z 07007KT 9999 FEW026 27/23 Q1014 NOSIG

2010/08/08 02:00
UBBN 080200Z 07004KT 9999 SCT100 24/09 Q1012 R14R/CLRD60 NOSIG RMK G/O QFE684

2010/08/08 02:00
SAZM 080200Z 00000KT 3000 BR NSC 03/02 Q1022

2010/08/08 01:52
MMMD 080152Z 07004KT 7SM FEW010 BKN070 OVC300 26/24 A2988 RMK 8/463 -RAE25

2010/08/08 02:00
UTST 080200Z 34001MPS CAVOK 23/17 Q1004 R88/CLRD70 NOSIG

2010/08/08 02:00
NWWW 080200Z AUTO 13008KT 9999NDV OVC043/// 22/13 Q1017

2010/08/08 02:00
SARF 080200Z 18006KT CAVOK 12/09 Q1016

2010/08/08 02:00
SMJP 080200Z 00000KT 9999 FEW015CB SCT030 25/24 Q1015 NOSIG

2010/08/08 01:50
EGPI 080150Z AUTO 34007KT 9999NDV // NCD 09/09 Q1021

2010/08/08 02:00
K3A1 080200Z AUTO 00000KT 10SM CLR 25/24 A2996 RMK AO2 T02450241 TSNO

2010/08/08 02:00
K3J7 080200Z AUTO 00000KT 10SM CLR 26/24 A2993 RMK AO2 T02600235

2010/08/08 01:58
K4A9 080158Z AUTO 00000KT 10SM CLR 25/20 A2994 RMK AO2 T02540200

2010/08/08 02:00
K4R4 080200Z AUTO 00000KT 10SM SCT040 SCT048 SCT055 28/25 A2992 RMK AO2 T02810254

2010/08/08 01:58
K8A0 080158Z AUTO 11003KT 10SM CLR 29/15 A2994 RMK AO2

2010/08/08 02:00
KACP 080200Z AUTO 00000KT 10SM CLR 28/26 A2988 RMK AO2

2010/08/08 02:00
KAFP 080200Z AUTO 00000KT 7SM CLR 25/23 A2995 RMK AO2 T02500227

2010/08/08 02:00
KALX 080200Z AUTO 00000KT 10SM CLR 27/23 A2993 RMK AO1 LTG DSNT S AND SW

2010/08/08 02:00
KCCO 080200Z AUTO 00000KT 10SM CLR 24/23 A2997 RMK AO1

2010/08/08 02:00
KCDH 080200Z AUTO 00000KT 10SM FEW065 27/23 A2985 RMK AO2

2010/08/08 01:55
KCLS 080155Z AUTO 00000KT 10SM FEW011 BKN039 OVC046 18/17 A2993 RMK AO2

2010/08/08 02:00
KCPC 080200Z AUTO 00000KT 4SM BR CLR 25/25 A2993 RMK AO2 T02540249

2010/08/08 01:50
KCWF 080150Z 20004KT 10SM SKC 29/24 A2989

2010/08/08 02:00
KCWV 080200Z AUTO 00000KT 10SM SCT037 28/26 A2993 RMK AO2 T02810263

2010/08/08 01:58
KDNN 080158Z AUTO 00000KT 10SM SCT075 25/21 A2994 RMK AO2

2010/08/08 02:00
KDRI 080200Z AUTO 17003KT 10SM CLR 28/26 A2990 RMK AO2

2010/08/08 02:00
KEYF 080200Z AUTO 00000KT 10SM CLR 27/24 A2994 RMK AO2 T02680240

2010/08/08 02:00
KF24 080200Z AUTO 00000KT 10SM CLR 28/25 A2988 RMK AO2 T02790253

2010/08/08 02:00
KFFA 080200Z AUTO 08003KT 5SM BR CLR 25/24 A2998 RMK AO2 T02450235

2010/08/08 02:00
KFKN 080200Z AUTO 00000KT 10SM CLR 23/19 A2998 RMK AO1

2010/08/08 01:57
KFVX 080157Z AUTO 00000KT 10SM CLR 23/21 A2997 RMK AO2

2010/08/08 01:55
KGHG 080155Z AUTO 24003KT 10SM CLR 17/14 A3002 RMK AO2

2010/08/08 02:00
KGWW 080200Z AUTO 17004KT 7SM BKN110 24/23 A2997 RMK AO2 T02410227

2010/08/08 02:00
KHNZ 080200Z AUTO 00000KT 10SM CLR 23/20 A2999 RMK AO2 T02310195

2010/08/08 01:58
KHOE 080158Z AUTO 00000KT 7SM SCT004 25/ A2992 RMK AO2 T0247

2010/08/08 02:00
KHSP 080200Z AUTO 18/14 A3019 RMK AO2 PWINO TSNO

2010/08/08 02:00
KHWY 080200Z AUTO 00000KT 10SM CLR 20/15 A2998 RMK AO2

2010/08/08 02:00
KI16 080200Z AUTO 00000KT 7SM CLR 18/18 A3005 RMK AO2

2010/08/08 02:00
KIPJ 080200Z AUTO 00000KT 7SM CLR 22/21 A3000 RMK AO2 T02240207

2010/08/08 02:00
KISO 080200Z AUTO 00000KT 10SM BKN030 BKN035 BKN120 27/23 A2997 RMK AO2 T02650229

2010/08/08 02:00
KIXA 080200Z AUTO 07003KT 10SM SCT049 24/22 A2996 RMK AO2 T02440216

2010/08/08 01:50
EGPU 080150Z AUTO 33007KT 9999NDV // FEW014/// 10/09 Q1020

2010/08/08 02:00
GBYD 080200Z 00000KT CAVOK 26/25 Q1011

2010/08/08 02:00
SACO 080200Z 32006KT CAVOK 06/00 Q1022

2010/08/08 01:59
KJNX 080159Z AUTO 00000KT 7SM BKN047 24/24 A2996 RMK AO2

2010/08/08 02:00
KAYS 080200Z AUTO 00000KT 10SM OVC006 26/25 A2984 RMK AO1 LTG DSNT SE AND SW

2010/08/08 01:58
KDBN 080158Z AUTO 00000KT 5SM CLR 26/26 A2993 RMK AO1

2010/08/08 01:56
PPIZ 080156Z AUTO 07015G20KT 10SM BKN015 09/06 A2970 RMK AO2 TSNO T00940055 BKN V SCT SLP059 $

2010/08/08 01:59
KJAC 080159Z 00000KT 10SM SKC 18/06 A3003

2010/08/08 01:55
KLDM 080155Z AUTO 21013G18KT 10SM SCT120 24/20 A2984 RMK AO2

2010/08/08 01:55
KMCD 080155Z AUTO 00000KT 10SM BKN095 22/18 A2982 RMK AO2

2010/08/08 01:56
KOSC 080156Z AUTO 21003KT 10SM BKN090 21/17 A2985 RMK AO2

2010/08/08 01:55
KPHN 080155Z AUTO 17005KT 10SM SCT060 BKN075 BKN090 22/16 A2992 RMK AO2

2010/08/08 01:53
KRIL 080153Z AUTO 17003KT 10SM FEW090 19/14 A3012 RMK AO2 RAE01 SLP145 P0000 T01890139 TSNO

2010/08/08 01:55
KRMY 080155Z AUTO 00000KT 10SM CLR 22/17 A2994 RMK AO2

2010/08/08 01:53
KSBD 080153Z 25012KT 10SM SKC 25/09 A2983

2010/08/08 01:54
KTTF 080154Z AUTO 20004KT 10SM CLR 23/17 A2993 RMK AO2

2010/08/08 01:59
K0R3 080159Z AUTO 19004KT CLR 30/26 A2989 RMK AO2 PWINO

2010/08/08 02:00
KAVC 080200Z AUTO 00000KT 10SM SCT090 24/21 A3003 RMK AO2

2010/08/08 02:00
KBCB 080200Z AUTO 15003KT 10SM BKN060 OVC070 24/19 A3010 RMK AO2 PWINO

2010/08/08 02:00
KBQK 080200Z AUTO 00000KT 2SM CLR 26/25 A2993 RMK AO1 LTG DSNT SE T02550251 PNO

2010/08/08 01:59
KCJR 080159Z AUTO 00000KT 10SM CLR 21/18 A2999 RMK AO2

2010/08/08 02:00
KCPK 080200Z AUTO 00000KT 7SM CLR 23/19 A2998 RMK AO2

2010/08/08 02:00
KCTJ 080200Z AUTO 05003KT 10SM CLR 26/24 A2997 RMK AO2 T02550240

2010/08/08 01:59
KDQH 080159Z AUTO 00000KT 7SM BKN004 26/24 A2993 RMK AO1

2010/08/08 01:59
KEDE 080159Z AUTO 07003KT 7SM CLR 24/22 A2995 RMK AO2

2010/08/08 01:55
KEMV 080155Z AUTO 00000KT 10SM CLR 23/20 A2998 RMK AO2

2010/08/08 01:59
KEXX 080159Z AUTO 00000KT 10SM CLR 22/20 A2999 RMK AO2

2010/08/08 01:57
KEZF 080157Z AUTO 00000KT 10SM CLR 22/20 A2997 RMK AO2 T02210195

2010/08/08 02:00
KFQD 080200Z AUTO 00000KT 10SM SCT060 BKN080 25/20 A3001 RMK AO2

2010/08/08 02:00
KGEV 080200Z AUTO 00000KT 10SM BKN042 BKN049 19/16 A3013 RMK AO2

2010/08/08 01:59
KHDC 080159Z AUTO 00000KT 10SM CLR 30/28 A2990 RMK AO2

2010/08/08 02:00
KHLX 080200Z AUTO 00000KT 10SM CLR 22/20 A3011 RMK AO2

2010/08/08 02:00
KHQU 080200Z AUTO 00000KT 7SM BKN035 BKN041 26/23 A2999 RMK AO1

2010/08/08 01:59
KHRJ 080159Z AUTO 00000KT 7SM SCT040 26/23 A2996 RMK AO2

2010/08/08 02:00
KMQI 080200Z AUTO 07006KT 7SM CLR 26/26 A2998 RMK AO2

2010/08/08 02:00
KONX 080200Z AUTO 07004KT 7SM SCT007 SCT011 26/24 A2998 RMK AO2

2010/08/08 02:00
KPGV 080200Z AUTO 11003KT 10SM CLR 26/22 A2998 RMK AO2

2010/08/08 02:00
KRUQ 080200Z AUTO 00000KT 7SM CLR 22/21 A2999 RMK AO2

2010/08/08 02:00
KUNV 080200Z AUTO 00000KT 10SM CLR 21/12 A3003 RMK AO2 T02120124

2010/08/08 01:55
KVVG 080155Z AUTO 31003KT 28/26 A2993 RMK AO2

2010/08/08 01:56
PANW 080156Z AUTO 22012G16KT 10SM FEW015 SCT029 14/10 A2976 RMK AO2 PWINO TSNO T01380100 SLP055 $

2010/08/08 02:00
KJES 080200Z AUTO 00000KT 10SM CLR 26/26 A2993 RMK AO2 LTG DSNT SE T02550256

2010/08/08 02:00
KJGG 080200Z AUTO 00000KT 10SM CLR 24/19 A2999 RMK AO1

2010/08/08 02:00
KJKA 080200Z AUTO 00000KT 10SM CLR 30/24 A2991 RMK AO2 T02970244

2010/08/08 02:00
KJYO 080200Z AUTO 00000KT 10SM SCT080 24/14 A2999 RMK AO2

2010/08/08 02:00
KLDJ 080200Z AUTO 00000KT 10SM CLR 25/19 A2997 RMK AO2 T02470191

2010/08/08 02:00
KLHZ 080200Z AUTO 00000KT 7SM CLR 23/21 A2999 RMK AO2 T02320213

2010/08/08 02:00
KLKU 080200Z AUTO 00000KT 10SM CLR 18/16 A2999 RMK AO2

2010/08/08 02:00
KLNP 080200Z AUTO 00000KT 10SM CLR 21/15 A3009 RMK AO1

2010/08/08 02:00
KMDQ 080200Z AUTO 00000KT 10SM CLR 26/21 A2993 RMK AO2 T02580209

2010/08/08 02:00
KMGR 080200Z AUTO 00000KT 7SM SCT006 BKN009 OVC110 27/25 A2996 RMK AO2

2010/08/08 02:00
KSIF 080200Z AUTO 00000KT 5SM BR CLR 21/20 A3000 RMK AO2 T02050197

2010/08/08 02:00
KSUT 080200Z AUTO 00000KT 10SM CLR 25/22 A2994 RMK AO2

2010/08/08 02:00
KSVH 080200Z AUTO 00000KT 7SM CLR 23/22 A2999 RMK AO2 T02250221

2010/08/08 02:00
KTMA 080200Z AUTO 00000KT 5SM -RA BKN004 25/25 A2994 RMK AO2 T02470245

2010/08/08 02:00
KTPF 080200Z AUTO 24003KT 10SM CLR 29/26 A2994 RMK AO2

2010/08/08 02:00
KTVI 080200Z AUTO 00000KT 7SM CLR 26/25 A2994 RMK AO2 LTG DSNT S T02550246

2010/08/08 01:58
KVUJ 080158Z AUTO 00000KT 7SM OVC090 23/22 A2996 RMK AO2

2010/08/08 02:00
KW45 080200Z AUTO 00000KT 10SM CLR 22/18 A3001 RMK AO2 T02160179

2010/08/08 02:00
K1A5 080200Z AUTO 00000KT 7SM CLR 22/19 A3004 RMK AO2 T02150191

2010/08/08 02:00
OPPS 080200Z NW-06KT 1500 RA SCT006ST FEW030TCU SCT030 BKN100 25/24 Q1004.8

2010/08/08 02:00
MKJS 080200Z 18001KT 9999 VCTS SCT022 FEW024CB BKN220 28/24 Q1014

2010/08/08 02:00
WSSS 080200Z 17006KT 130V220 9999 FEW018 SCT280 BKN300 29/24 Q1010 NOSIG

2010/08/08 02:01
KSHR 080201Z AUTO 32008KT 10SM FEW090 SCT110 23/11 A2989 RMK AO2 WSHFT 0141 LTG DSNT NE

2010/08/08 02:01
PAKV 080201Z AUTO 00000KT 2 1/2SM RA BR BKN018 BKN032 OVC046 14/13 A2965 RMK AO2 P0002 TSNO

2010/08/08 02:02
KSHN 080202Z AUTO 23008KT 1 1/2SM BR FEW007 BKN012 OVC017 16/16 A2989 RMK AO2

2010/08/08 02:02
KGUP 080202Z AUTO 18005KT 2SM +RA BR SCT021 BKN042 OVC065 16/14 A3021 RMK AO2 P0004

2010/08/08 02:00
UBBG 080200Z 23005KT 9999 FEW100 23/14 Q1012 NOSIG RMK R30R/CLRD70 

2010/08/08 02:00
TFFF 080200Z VRB03KT 9999 SCT012 SCT016 25/24 Q1014 RESHRA NOSIG

2010/08/08 02:00
FMMT 080200Z 24004KT 9999 FEW007 SCT017 BKN033 19/18 Q1023

2010/08/08 02:00
FMSD 080200Z 06010KT 9999 SCT017 SCT033 19/17 Q1026

2010/08/08 02:00
FMMI 080200Z 15005KT 110V170 9999 FEW016 BKN020 11/10 Q1026 NOSIG

2010/08/08 01:55
EBBL 080155Z 26004KT 4500 BR FEW006 BKN025 16/16 Q1016 GRN

2010/08/08 01:56
EBFN 080156Z 22004KT 4800 BR FEW015 BKN110 14/14 Q1016 GRN

2010/08/08 01:55
EBFS 080155Z 27006KT 9999 FEW014 BKN035 14/13 Q1017 BLU

2010/08/08 01:50
LIRQ 080150Z VRB02KT 080V140 9999 SCT030 17/15 Q1018

2010/08/08 02:00
SAWG 080200Z 32022G30KT CAVOK 05/M04 Q0999

2010/08/08 01:50
PTYA 080150Z 30008KT 12SM SCT015TCU BKN130 OVC300 31/26 A2976 RMK TCU VC W SLP078 T03080259

2010/08/08 02:00
SAVC 080200Z 29014KT CAVOK 08/M02 Q1015

2010/08/08 01:50
EGEC 080150Z AUTO 32009KT 9999NDV // BKN008/// 13/12 Q1020

2010/08/08 02:00
SARE 080200Z 00000KT CAVOK 12/09 Q1018

2010/08/08 02:00
SPME 080200Z VRB01KT 9999 OVC025 24/23 Q1013 RMK BIRD HAZARD RWY 32/14 PP000

2010/08/08 02:00
SPHI 080200Z 17012KT CAVOK 15/12 Q1016 RMK PP000 BIRD HAZARD RWY 19/01

2010/08/08 02:00
SPIM 080200Z 17010KT 8000 OVC015 15/12 Q1016 NOSIG RMK PP000

2010/08/08 02:00
SPQT 080200Z /////KT 7000 SKC 24/22 Q1013 NOSIG RMK HORIZONT HZ

2010/08/08 02:00
SPQU 080200Z 05007KT CAVOK 13/M07 Q1029 RMK PP000

2010/08/08 02:00
SPRU 080200Z 17010KT 7000 OVC014 15/12 Q1015 RMK BR BIRDS HAZARD RWY20 PP000

2010/08/08 02:00
SPSO 080200Z 06004KT 8000 SKC 13/11 Q1016 RMK PP000

2010/08/08 02:00
SPTN 080200Z VRB02KT 7000 SCT008 OVC012 11/08 Q1016 RMK PP000

2010/08/08 02:00
SPZO 080200Z VRB02KT 9999 SKC 09/M10 Q1033 RMK PP000

2010/08/08 02:00
SBJP 080200Z 22003KT CAVOK 22/20 Q1018 

2010/08/08 01:50
LIRQ 080150Z VRB02KT 080V140 9999 SCT030 17/15 Q1018

2010/08/08 02:00
LHBP 080200Z 24007KT 9999 SCT016 BKN040 16/15 Q1016 NOSIG

2010/08/08 02:00
PABT 080200Z 21004KT 10SM FEW022 BKN031 OVC049 16/12 A2960 RMK AO2 $

2010/08/08 02:00
PAYA 080200Z 22003KT 10SM SCT012 BKN029 OVC060 14/11 A2982 RMK AO2

2010/08/08 01:56
KNLC 080156Z AUTO 01008KT 10SM CLR 32/15 A2969 RMK AO2 SLP053 T03220150 TSNO $

2010/08/08 01:56
K79J 080156Z AUTO 00000KT 10SM FEW048 28/23 A2992 RMK AO2 SLP126 T02780233 TSNO PNO $

2010/08/08 01:55
KDLF 080155Z AUTO 12006KT 10SM CLR 34/17 A2981 RMK AO2 SLP077 T03390167

2010/08/08 01:55
KDMA 080155Z AUTO 27006KT 10SM FEW075 BKN110 BKN130 BKN180 30/17 A2989 RMK AO2 SLP059 T03010168 VISNO RWY12 CHINO RWY12 $

2010/08/08 01:56
KFHU 080156Z AUTO 32007G18KT 4SM -RA BR OVC050 18/17 A3007 RMK AO2 PK WND 31026/0131 VIS 1/2 WEST CIG 010 WEST SLP127 P0014 T01830172 TSNO $

2010/08/08 01:56
KHLR 080156Z AUTO 14007KT 10SM CLR 33/19 A2985 RMK AO2 SLP097 T03330194 $

2010/08/08 01:55
KHOP 080155Z AUTO 07005KT 10SM CLR 25/17 A2993 RMK AO2 SLP133 T02490170

2010/08/08 01:55
KLSV 080155Z AUTO 17020G26KT 10SM VCTS CLR 35/12 A2970 RMK AO2 PK WND 18026/0149 SLP039 T03510120 PWINO

2010/08/08 01:55
KLUF 080155Z AUTO 02010KT 10SM BKN120 32/17 A2976 RMK AO2 LTG DSNT S SLP049 T03240170 $

2010/08/08 01:56
KNBC 080156Z AUTO 00000KT 9SM CLR 27/24 A2993 RMK AO2 SLP134 T02720239

2010/08/08 01:55
KNBG 080155Z 00000KT 10SM FEW060 SCT250 28/24 A2990 RMK AO2 SLP126 T02830244 $

2010/08/08 01:57
KNJM 080157Z AUTO 00000KT 9SM CLR 26/24 A2995 RMK AO2 SLP145 T02610244

2010/08/08 01:56
KNUQ 080156Z 34011KT 10SM CLR 19/13 A2981 RMK AO2 SLP097 T01890133

2010/08/08 01:55
KBKF 080155Z 06003KT 7SM VCSH SCT050 SCT110 BKN220 21/13 A3000 RMK SLP091

2010/08/08 01:55
KDLF 080155Z AUTO 12006KT 10SM CLR 34/17 A2981 RMK AO2 SLP077 T03390167

2010/08/08 02:00
KNEL 080200Z AUTO 00000KT 10SM CLR 22/17 A2999 RMK AO2 SLP152 T02170167 $

2010/08/08 01:59
KNGU 080159Z 09005KT 9SM CLR 26/23 A2999 RMK AO2 SLP155 T02560233 $

2010/08/08 01:56
KNJK 080156Z AUTO 13008KT 10SM CLR 36/13 A2961 RMK AO2 SLP041 T03610128 TSNO

2010/08/08 01:56
KNRS 080156Z AUTO 27007KT 10SM OVC017 17/12 A2988 RMK AO2 SLP118 T01720122 TSNO $

2010/08/08 01:55
KTBN 080155Z AUTO 13003KT 10SM CLR 26/ A2991 RMK AO2 SLP109 T0261 $

2010/08/08 01:55
KVAD 080155Z 22003KT 10SM R18/5500VP6000FT -RA OVC006 25/24 A2994 RMK AO2A SLP135 P0009 T02480244 $

2010/08/08 02:02
K47A 080202Z AUTO 00000KT 10SM SCT075 28/19 A2999 RMK AO2 LTG DSNT SW

2010/08/08 02:01
KMFV 080201Z AUTO 00000KT 2 1/2SM BR CLR 23/23 A2999 RMK AO2

2010/08/08 02:01
KMLJ 080201Z AUTO 00000KT 5SM BR CLR 26/26 A2994 RMK AO2

2010/08/08 02:01
KPTB 080201Z AUTO 00000KT 7SM SCT080 25/ A2998 RMK AO2

2010/08/08 02:01
KTDF 080201Z AUTO 00000KT 21/21 A3001 RMK AO1

2010/08/08 02:01
KTNB 080201Z AUTO 00000KT 7SM SCT039 BKN050 20/17 A3013 RMK AO2

2010/08/08 02:01
PAIK 080201Z AUTO 09007KT 10SM OVC036 16/10 A2957 RMK AO2 SLP054 T01560100

2010/08/08 02:01
KLWB 080201Z AUTO 00000KT 10SM SCT065 19/16 A3009 RMK AO2

2010/08/08 02:01
KMRN 080201Z AUTO 00000KT 7SM SCT060 BKN075 22/21 A3007 RMK AO2

2010/08/08 02:02
KMWK 080202Z AUTO 00000KT 10SM CLR 23/18 A3003 RMK AO2

2010/08/08 02:04
KTTA 080204Z AUTO 00000KT 7SM SCT045 SCT075 24/23 A2998 RMK AO2

2010/08/08 02:01
KASJ 080201Z AUTO 00000KT 10SM CLR 24/20 A2998 RMK AO2

2010/08/08 02:02
KBGE 080202Z AUTO 06003KT 10SM SCT005 SCT016 SCT090 24/23 A2995 RMK AO2

2010/08/08 02:15
KFDW 080215Z AUTO 02003KT 10SM CLR 28/21 A2996 RMK AO1

2010/08/08 02:01
KHBI 080201Z AUTO 00000KT 10SM CLR 23/21 A3001 RMK AO2

2010/08/08 02:00
LKKV 080200Z VRB02KT CAVOK 14/11 Q1017

2010/08/08 02:00
LKMT 080200Z 22006KT 9999 SCT023 OVC030 15/14 Q1015 NOSIG

2010/08/08 02:00
LKPR 080200Z 21005KT 9999 BKN012 15/14 Q1016 NOSIG

2010/08/08 02:00
LKTB 080200Z 22002KT 4500 BR FEW003 OVC017 16/15 Q1015 NOSIG

2010/08/08 02:00
SAZS 080200Z 32010KT CAVOK 02/M03 Q1022

2010/08/08 02:00
SARI 080200Z 05004KT CAVOK 17/16 Q1018

2010/08/08 01:45
MMAA 080145Z 00000KT 8SM BKN010TCU BKN300 28/24 A2982 RMK 8/202

2010/08/08 01:52
MMVR 080152Z 00000KT 7SM FEW012TCU SCT070 BKN220 29/25 A2989 RMK 8/263 HZY DSNT CBS 3/4 QDS

2010/08/08 01:52
MMVR 080152Z 00000KT 7SM FEW012TCU SCT070 BKN220 29/25 A2989 RMK 8/263 HZY DSNT CBS 3 4 QDS

2010/08/08 01:45
MMTO 080145Z 00000KT 4SM SCT015CB BKN070 14/12 A3034 RMK 8/36/ HZY

2010/08/08 01:45
MMZH 080145Z 00000KT 10SM SCT015CB BKN100 OVC250 30/26 A2982 RMK 8/363

2010/08/08 02:00
HRYR 080200Z 28004KT CAVOK 18/12 Q1019 NOSIG

2010/08/08 01:45
LHDC 080145Z 22003KT 8000 NSC 14/14 Q1017

2010/08/08 01:45
LHKE 080145Z 28002MPS CAVOK 15/13 Q1016 NOSIG RMK BLU

2010/08/08 01:45
LHPP 080145Z 32004KT CAVOK 15/14 Q1018

2010/08/08 01:45
LHSN 080145Z 27001MPS CAVOK 16/14 Q1016 NOSIG RMK BLU

2010/08/08 01:45
LHUD 080145Z 29003KT 8000 NSC 15/15 Q1017

2010/08/08 01:49
MMPB 080149Z 25007KT 10SM RA OVC012 14/13 A3031 RMK 6//// 8/7// HZY RAB40

2010/08/08 01:45
MMQT 080145Z 00000KT 7SM -RA BKN020 OVC120 17/17 A3023 RMK 60345 8/47/ OCNL RA

2010/08/08 02:00
UGTB 080200Z 33005KT 9999 SKC 21/13 Q1015 NOSIG RMK 31CLRD80

2010/08/08 02:00
UGKO 080200Z 00000KT 9999 ST100 24/19 Q1012 NOSIG

2010/08/08 02:00
LEAB 080200Z 16006KT CAVOK 20/11 Q1021 NOSIG

2010/08/08 02:00
LESA 080200Z 00000KT CAVOK 16/14 Q1019

2010/08/08 02:00
LETO 080200Z VRB02KT CAVOK 26/12 Q1019 NOSIG

2010/08/08 02:00
LEGE 080200Z 00000KT CAVOK 20/19 Q1018

2010/08/08 02:00
LEST 080200Z 03003KT 350V080 CAVOK 14/13 Q1019 NOSIG

2010/08/08 02:00
LEZG 080200Z 29011KT 9999 FEW050 22/15 Q1018

2010/08/08 02:00
LEVT 080200Z 00000KT 9999 BKN018 11/11 Q1022

2010/08/08 02:00
LEMD 080200Z 12005KT 080V140 CAVOK 26/13 Q1018 NOSIG

2010/08/08 02:00
LEBL 080200Z VRB02KT 9999 FEW025 22/18 Q1018 NOSIG

2010/08/08 02:00
LEPA 080200Z 00000KT CAVOK 17/15 Q1019 NOSIG

2010/08/08 02:00
LEMG 080200Z 00000KT 9999 FEW020 SCT040 25/20 Q1018 NOSIG

2010/08/08 02:00
LEAL 080200Z 28004KT CAVOK 22/18 Q1018 NOSIG

2010/08/08 02:00
LEIB 080200Z VRB01KT CAVOK 21/18 Q1018 NOSIG

2010/08/08 02:00
LEVX 080200Z VRB02KT CAVOK 19/14 Q1016

2010/08/08 02:00
GCLP 080200Z 36021KT 9999 FEW020 22/15 Q1014 NOSIG

2010/08/08 02:00
GCTS 080200Z 00000KT 9999 FEW020 21/16 Q1015 NOSIG

2010/08/08 02:00
UKBB 080200Z 12002MPS CAVOK 21/14 Q1014 88CLRD95 NOSIG

2010/08/08 02:00
UKHH 080200Z 00000MPS CAVOK 23/15 Q1017 080///65 NOSIG

2010/08/08 02:00
UKOO 080200Z 03002MPS 1900 BR NSC 24/23 Q1012 16090070 NOSIG

2010/08/08 02:00
UKDE 080200Z 10003MPS 040V160 CAVOK 24/07 Q1014 20CLRD70 NOSIG

2010/08/08 02:00
UKDD 080200Z 04002MPS CAVOK 24/11 Q1015 08090070 NOSIG

2010/08/08 02:00
UKFF 080200Z 14003MPS CAVOK 20/09 Q1011 01010070 NOSIG

2010/08/08 02:00
UKLL 080200Z 18001MPS 9999 NSC 18/17 Q1014 13250550 TEMPO -TSRA BKN020CB

2010/08/08 02:00
UKCC 080200Z 08004MPS CAVOK 24/06 Q1016 08090070 NOSIG

2010/08/08 02:00
UKDR 080200Z 08004MPS CAVOK 21/13 Q1014 1809//70 NOSIG

2010/08/08 02:01
KSHR 080201Z AUTO 32008KT 10SM FEW090 SCT110 23/11 A2989

2010/08/08 02:00
FMMT 080200Z 24004KT 9999 FEW007 SCT017 BKN033 19/18 Q1023

2010/08/08 02:00
FMSD 080200Z 06010KT 9999 SCT017 SCT033 19/17 Q1026

2010/08/08 02:00
FMMI 080200Z 15005KT 110V170 9999 FEW016 BKN020 11/10 Q1026 NOSIG

2010/08/08 02:01
KSHR 080201Z AUTO 32008KT 10SM FEW090 SCT110 23/11 A2989

2010/08/08 02:00
PABT 080200Z 21004KT 10SM FEW022 BKN031 OVC049 16/12 A2960

2010/08/08 02:00
PABT 080200Z 21004KT 10SM FEW022 BKN031 OVC049 16/12 A2960

2010/08/08 02:00
PAYA 080200Z 22003KT 10SM SCT012 BKN029 OVC060 14/11 A2982

2010/08/08 02:00
LRBS 080200Z AUTO 29005KT NCD 22/20 Q1012 NOSIG

2010/08/08 02:00
LRCK 080200Z 30002KT 2000 BR SCT012 FEW035CB 24/24 Q1012 NOSIG

2010/08/08 02:00
LROP 080200Z 26005KT 6000 FEW050CB 21/21 Q1012 8809//95 NOSIG

2010/08/08 02:00
LRSB 080200Z 00000KT 6000 FEW008 SCT013 BKN055 18/18 Q1016

2010/08/08 02:00
LRTR 080200Z 36003KT CAVOK 17/16 Q1016

2010/08/08 01:50
EGXD 080150Z AUTO 33006KT 9999NDV // BKN060/// 13/13 Q1019

2010/08/08 02:00
LFLL 080200Z 15006KT CAVOK 17/12 Q1018 NOSIG

2010/08/08 02:00
LFMN 080200Z 33006KT 9999 FEW015 20/14 Q1017 NOSIG

2010/08/08 02:00
LFPG 080200Z 30006KT 9999 FEW025 15/13 Q1018 NOSIG

2010/08/08 02:00
LFPO 080200Z 29003KT 9999 FEW032 BKN060 15/14 Q1018 NOSIG

2010/08/08 02:00
LFQQ 080200Z AUTO 25003KT 9999NDV FEW009 SCT036 OVC068 15/14 Q1016

2010/08/08 02:00
LFRB 080200Z 29003KT 9999 FEW029 14/13 Q1021 TEMPO 3000 BR BKN003

2010/08/08 02:00
LFRS 080200Z 36003KT 9999 FEW035 14/12 Q1020 NOSIG

2010/08/08 02:00
EIDW 080200Z 30005KT 9999 FEW025 BKN036 12/11 Q1022 NOSIG

2010/08/08 02:00
EINN 080200Z 33002KT 9999 SCT034 11/10 Q1023 NOSIG

2010/08/08 02:00
EICK 080200Z 32006KT 9999 FEW016 11/10 Q1023 NOSIG

2010/08/08 02:00
LCLK 080200Z 32006KT CAVOK 24/22 Q1007 NOSIG

2010/08/08 02:00
LCPH 080200Z AUTO 02004KT 9999NDV FEW021 23/20 Q1008

2010/08/08 02:00
LFBD 080200Z 30004KT CAVOK 16/15 Q1020 NOSIG

2010/08/08 02:00
LFBH 080200Z AUTO 32011KT 9999NDV SCT012 17/15 Q1020

2010/08/08 02:00
LFBI 080200Z AUTO 31004KT 9999NDV NSC 15/12 Q1020

2010/08/08 02:00
LFBL 080200Z AUTO 34005KT 9999NDV NSC 15/12 Q1020

2010/08/08 02:00
LFBO 080200Z 27005KT 240V310 CAVOK 20/15 Q1019 NOSIG

2010/08/08 02:00
LFBP 080200Z AUTO 28006KT 9999NDV BKN007 17/16 Q1021

2010/08/08 02:00
LFBT 080200Z AUTO 25006KT 210V280 9999NDV NSC 16/14 Q1021

2010/08/08 02:00
LFBZ 080200Z AUTO 00000KT 9999NDV SCT020 BKN029 18/16 Q1021

2010/08/08 02:00
LFLB 080200Z AUTO 13003KT 9999NDV NSC 13/12 Q1019

2010/08/08 02:00
LFLX 080200Z AUTO 30004KT 9999NDV BKN024 BKN031 BKN039 18/15 Q1019

2010/08/08 02:00
LFML 080200Z AUTO 14003KT 9999NDV NCD 18/14 Q1017

2010/08/08 02:01
CYPR 080201Z AUTO /////KT 9SM SCT009 BKN014 BKN022 OVC029 A2993 RMK WND MISG T MISG TD MISG

2010/08/08 01:59
CYUA 080159Z AUTO 02012KT 1 3/4SM -RA BKN006 BKN011 09/ A2967

2010/08/08 02:01
EHWO 080201Z AUTO 21004KT 9000NDV BR FEW008 SCT020 BKN062 15/14 Q1015 WHT

2010/08/08 01:58
KPAM 080158Z AUTO 11006KT 10SM TS FEW002 BKN022 OVC036 25/24 A2991 RMK AO2 RAE0158 SLP131 $

2010/08/08 01:58
KTCM 080158Z AUTO 20009KT 10SM SCT008 BKN013 BKN065 OVC080 18/16 A2991 RMK AO2 SLP129

2010/08/08 02:00
KTCM 080200Z AUTO 21009KT 10SM SCT008 BKN060 OVC080 18/16 A2991 RMK AO2 SLP129

2010/08/08 01:56
KVAD 080156Z 23003KT 10SM R18/5500VP6000FT -RA OVC005 25/24 A2994 RMK AO2A SLP135 $

2010/08/08 01:59
PHHI 080159Z AUTO 09011KT 10SM FEW032 BKN046 27/19 A3005 RMK AO2 DZE0159 SLP164 $

2010/08/08 01:55
KQAQ 080155Z 34006KT 4000 DU SCT000 SCT150 34/04 A2959 RMK DU SCT000 SLP018 PA +422 DA +2689

2010/08/08 01:55
KQPD 080155Z AUTO 08007KT 9999 CLR 30/14 A2965 RMK AO2 SLP946 T02960144 $

2010/08/08 01:55
KQQS 080155Z AUTO 07003KT 4300 BR FEW007 BKN150 18/17 A3008 RMK AO2 SLP099 T01810165 $

2010/08/08 01:55
KQQY 080155Z AUTO 00000KT 9999 BKN085 24/18 A3005 RMK AO2 SLP158 T02430176 $

2010/08/08 01:55
KQSA 080155Z 00000KT 9999 FEW030 BKN220 22/19 A2991 RMK SLP291 WND DATA ESTMD ALSTG/SLP ESTMD

2010/08/08 02:00
VHHH 080200Z 07008KT 9999 FEW025 SCT035 BKN060 31/25 Q1004 NOSIG

2010/08/08 02:00
KNEL 080200Z AUTO 00000KT 10SM CLR 22/17 A2999 RMK AO2 SLP152 T02170167 $

2010/08/08 01:56
KNFL 080156Z AUTO 29006KT 10SM CLR 32/M03 A2977 RMK AO2 SLP060 T03171028 TSNO

2010/08/08 01:59
KNGU 080159Z 09005KT 9SM CLR 26/23 A2999 RMK AO2 SLP155 T02560233 $

2010/08/08 01:56
KNID 080156Z AUTO 17018G24KT CLR 33/01 A2973 RMK AO2 SLP048 T03330006 TSNO $

2010/08/08 01:56
KNMM 080156Z AUTO 00000KT 8SM CLR 26/24 A2991 RMK AO2 SLP134 T02560239 $

2010/08/08 01:56
KNTD 080156Z 25007KT 10SM FEW015 17/13 A2983 RMK AO2 SLP103 T01670128 $

2010/08/08 01:56
KNTU 080156Z 07004KT 6SM BR SCT007 BKN040 25/24 A2997 RMK AO2 SLP151 T02500239 $

2010/08/08 01:56
KNUW 080156Z 14006KT 10SM -RA SCT008 OVC014 18/16 A2989 RMK AO2 SLP124 P0000 T01760163 $

2010/08/08 01:56
KNXP 080156Z AUTO 22012KT CLR 33/04 A2982 RMK AO2 SLP057 T03330039 $

2010/08/08 01:56
KNXX 080156Z 00000KT 10SM CLR 23/12 A2999 RMK AO2 SLP160 T02330122 $

2010/08/08 01:52
KNZY 080152Z 29007KT 10SM SCT018 20/12 A2986 RMK AO2 SLP111 T02000117 $

2010/08/08 01:56
KOSC 080156Z AUTO 21003KT 10SM BKN090 21/17 A2985 RMK AO2

2010/08/08 01:55
KTBN 080155Z AUTO 13003KT 10SM CLR 26/ A2991 RMK AO2 SLP109 T0261 $

2010/08/08 01:55
KVAD 080155Z 22003KT 10SM R18/5500VP6000FT -RA OVC006 25/24 A2994 RMK AO2A SLP135 P0009 T02480244 $

2010/08/08 02:00
SKRG 080200Z 00000KT 9999 SCT015 SCT080 17/15 A3030

2010/08/08 02:00
SKSP 080200Z 01004KT 9999 SCT015TCU SCT200 29/26 A2984

2010/08/08 02:00
WBKK 080200Z 22008KT 9999 FEW015 SCT140 BKN280 30/25 Q1010

2010/08/08 02:00
WMKJ 080200Z 20005KT 9999 FEW018 BKN280 28/24 Q1011

2010/08/08 02:00
WMKK 080200Z 00000KT 9999 FEW017CB SCT140 BKN280 28/26 Q1011 NOSIG

2010/08/08 02:00
WMKP 080200Z 00000KT 9000 -RA FEW010 FEW017CB SCT025 BKN260 25/24 Q1010 RETSRA NOSIG

2010/08/08 02:00
WMSA 080200Z 00000KT 6000 FEW017CB BKN280 29/26 Q1011

2010/08/08 01:50
EGDX 080150Z AUTO 31006KT 9999NDV // NCD 13/10 Q1021

2010/08/08 02:00
EICK 080200Z 32006KT 9999 FEW016 11/10 Q1023 NOSIG

2010/08/08 02:00
EIDW 080200Z 30005KT 9999 FEW025 BKN036 12/11 Q1022 NOSIG

2010/08/08 02:00
EINN 080200Z 33002KT 9999 SCT034 11/10 Q1023 NOSIG

2010/08/08 02:00
EPGD 080200Z 17003KT 130V200 5000 BR FEW005 BKN011 19/17 Q1011

2010/08/08 02:00
EPWA 080200Z VRB03KT CAVOK 18/16 Q1012 NOSIG

2010/08/08 01:50
ETUO 080150Z AUTO 00000KT 8000NDV // OVC060/// 16/15 Q1015

2010/08/08 02:00
LEMD 080200Z 12005KT 080V140 CAVOK 26/13 Q1018 NOSIG

2010/08/08 02:00
LEMG 080200Z 00000KT 9999 FEW020 SCT040 25/20 Q1018 NOSIG

2010/08/08 01:45
LHDC 080145Z 22003KT 8000 NSC 14/14 Q1017

2010/08/08 01:45
LHKE 080145Z 28002MPS CAVOK 15/13 Q1016 NOSIG RMK BLU

2010/08/08 01:45
LHPA 080145Z 20003MPS 9999 BKN033 OVC083 16/15 Q1018 NOSIG RMK BLU

2010/08/08 01:45
LHPP 080145Z 32004KT CAVOK 15/14 Q1018

2010/08/08 01:45
LHSN 080145Z 27001MPS CAVOK 16/14 Q1016 NOSIG RMK BLU

2010/08/08 01:45
LHUD 080145Z 29003KT 8000 NSC 15/15 Q1017

2010/08/08 01:50
LIRQ 080150Z VRB02KT 080V140 9999 SCT030 17/15 Q1018

2010/08/08 02:00
LKCV 080200Z 27007KT 8000 -RA OVC037 15/14 Q1016 NOSIG RMK BLU BLU

2010/08/08 02:00
LKKV 080200Z VRB02KT CAVOK 14/11 Q1017

2010/08/08 02:00
LKMT 080200Z 22006KT 9999 SCT023 OVC030 15/14 Q1015 NOSIG

2010/08/08 02:00
LKNA 080200Z 30009KT 9999 SCT010 OVC016 14/14 Q1016 RMK WHT

2010/08/08 02:00
LKPD 080200Z 28011KT 6000 -RA SCT010 OVC040 15/15 Q1015 RMK WHT

2010/08/08 02:00
LKPO 080200Z 17003KT 9999 OVC013 15/15 Q1015 RMK GRN

2010/08/08 02:00
LKPR 080200Z 21005KT 9999 BKN012 15/14 Q1016 NOSIG

2010/08/08 02:00
LKTB 080200Z 22002KT 4500 BR FEW003 OVC017 16/15 Q1015 NOSIG

2010/08/08 02:00
LYBE 080200Z 24003KT CAVOK 18/17 Q1017 NOSIG

2010/08/08 02:00
LYNI 080200Z 31006KT 9999 FEW040 19/17 Q1016

2010/08/08 02:00
LYPG 080200Z 02004KT CAVOK 20/15 Q1015 NOSIG

2010/08/08 02:00
LYTV 080200Z 00000KT CAVOK 14/13 Q1014

2010/08/08 01:50
EGXD 080150Z AUTO 33006KT 9999NDV // BKN060/// 13/13 Q1019

2010/08/08 02:00
LEAB 080200Z 16006KT CAVOK 20/11 Q1021 NOSIG

2010/08/08 02:00
LEAL 080200Z 28004KT CAVOK 22/18 Q1018 NOSIG

2010/08/08 02:00
LEBL 080200Z VRB02KT 9999 FEW025 22/18 Q1018 NOSIG

2010/08/08 02:00
LEGE 080200Z 00000KT CAVOK 20/19 Q1018

2010/08/08 02:00
LEIB 080200Z VRB01KT CAVOK 21/18 Q1018 NOSIG

2010/08/08 02:00
LEPA 080200Z 00000KT CAVOK 17/15 Q1019 NOSIG

2010/08/08 02:00
LESA 080200Z 00000KT CAVOK 16/14 Q1019

2010/08/08 02:00
LEST 080200Z 03003KT 350V080 CAVOK 14/13 Q1019 NOSIG

2010/08/08 02:00
LETO 080200Z VRB02KT CAVOK 26/12 Q1019 NOSIG

2010/08/08 02:00
LEVT 080200Z 00000KT 9999 BKN018 11/11 Q1022

2010/08/08 02:00
LEVX 080200Z VRB02KT CAVOK 19/14 Q1016

2010/08/08 02:00
LEZG 080200Z 29011KT 9999 FEW050 22/15 Q1018

2010/08/08 02:00
LFBD 080200Z 30004KT CAVOK 16/15 Q1020 NOSIG

2010/08/08 02:00
LFBI 080200Z AUTO 31004KT 9999NDV NSC 15/12 Q1020

2010/08/08 02:00
LFBP 080200Z AUTO 28006KT 9999NDV BKN007 17/16 Q1021

2010/08/08 02:00
LFBZ 080200Z AUTO 00000KT 9999NDV SCT020 BKN029 18/16 Q1021

2010/08/08 02:00
LFLL 080200Z 15006KT CAVOK 17/12 Q1018 NOSIG

2010/08/08 02:00
LFLX 080200Z AUTO 30004KT 9999NDV BKN024 BKN031 BKN039 18/15 Q1019

2010/08/08 02:00
LFML 080200Z AUTO 14003KT 9999NDV NCD 18/14 Q1017

2010/08/08 02:00
LFMN 080200Z 33006KT 9999 FEW015 20/14 Q1017 NOSIG

2010/08/08 02:00
LFPG 080200Z 30006KT 9999 FEW025 15/13 Q1018 NOSIG

2010/08/08 02:00
LFPO 080200Z 29003KT 9999 FEW032 BKN060 15/14 Q1018 NOSIG

2010/08/08 02:00
LFRB 080200Z 29003KT 9999 FEW029 14/13 Q1021 TEMPO 3000 BR BKN003

2010/08/08 02:00
LFRS 080200Z 36003KT 9999 FEW035 14/12 Q1020 NOSIG

2010/08/08 02:00
LRBS 080200Z AUTO 29005KT NCD 22/20 Q1012 NOSIG

2010/08/08 02:00
LROP 080200Z 26005KT 6000 FEW050CB 21/21 Q1012 8809//95 NOSIG

2010/08/08 02:00
LRSB 080200Z 00000KT 6000 FEW008 SCT013 BKN055 18/18 Q1016

2010/08/08 01:58
PTTP 080158Z 05008KT 15SM SCT018 OVC300 31/25 A2980 RMK SLP091 T03060249

2010/08/08 01:55
KDMA 080155Z AUTO 27006KT 10SM FEW075 BKN110 BKN130 BKN180 30/17 A2989 RMK AO2 SLP059 T03010168 VISNO RWY12 CHINO RWY12 $

2010/08/08 01:55
KLUF 080155Z AUTO 02010KT 10SM BKN120 32/17 A2976 RMK AO2 LTG DSNT S SLP049 T03240170 $

2010/08/08 01:55
KNBG 080155Z 00000KT 10SM FEW060 SCT250 28/24 A2990 RMK AO2 SLP126 T02830244 $

2010/08/08 02:00
PALG 080200Z AUTO 00000KT 10SM BKN009 BKN019 OVC032 12/11 A2970 RMK AO2 TSNO CIG 008V016 $

2010/08/08 02:03
KEWN 080203Z AUTO 09004KT 9SM BKN024 27/24 A2996 RMK AO2

2010/08/08 02:03
KTVL 080203Z AUTO 15015G29KT 10SM -RA OVC080 19/04 A3008 RMK AO2 PK WND 17029/0155 LTG DSNT N AND SW TSE0157 P0000

2010/08/08 02:00
SLLP 080200Z 02006KT 9999 NSC 02/M13 Q1039

2010/08/08 02:00
SLVR 080200Z 33007KT 5000 FU NSC 18/12 Q1014

2010/08/08 02:00
SLCB 080200Z 15003KT 9999 SKC 16/02 Q1023

2010/08/08 02:00
SLCO 080200Z 00000KT 7000 SKC 23/19 Q1014

2010/08/08 01:45
LHDC 080145Z 22003KT 8000 NSC 14/14 Q1017

2010/08/08 01:45
LHKE 080145Z 28002MPS CAVOK 15/13 Q1016 NOSIG RMK BLU

2010/08/08 01:45
LHPA 080145Z 20003MPS 9999 BKN033 OVC083 16/15 Q1018 NOSIG RMK BLU

2010/08/08 01:45
LHPP 080145Z 32004KT CAVOK 15/14 Q1018

2010/08/08 01:45
LHPR 080145Z 25007KT 9999 FEW026 BKN083 16/15 Q1017

2010/08/08 01:45
LHSN 080145Z 27001MPS CAVOK 16/14 Q1016 NOSIG RMK BLU

2010/08/08 01:45
LHUD 080145Z 29003KT 8000 NSC 15/15 Q1017

2010/08/08 02:00
FYGB 080200Z AUTO 27002KT //// // ////// 08/M02 Q1024

2010/08/08 02:00
FYGF 080200Z AUTO 25002KT //// // ////// 06/00 Q1025

2010/08/08 02:00
FYKT 080200Z AUTO 33005KT //// // ////// 17/M02 Q1020

2010/08/08 02:00
FYLZ 080200Z 19011KT 160V230 //// VV/// 12/09 Q1020 

2010/08/08 02:00
FYML 080200Z AUTO 09004KT //// // ////// ///// Q1023

2010/08/08 02:00
FYOA 080200Z AUTO 08004KT //// // ////// 17/01 Q1019

2010/08/08 02:00
FYOJ 080200Z AUTO 01002KT //// // ////// 13/M01 Q1020

2010/08/08 02:00
FYOW 080200Z AUTO 10003KT //// // ////// 15/M02 Q1022

2010/08/08 02:00
FYWB 080200Z AUTO 04002KT //// // ////// 10/09 Q1019

2010/08/08 02:00
FYWH 080200Z AUTO 26006KT //// // ////// 09/M04 Q1026

2010/08/08 02:00
FYWW 080200Z AUTO 10004KT //// // ////// 14/M03 Q1025

2010/08/08 02:00
LRBS 080200Z AUTO 29005KT NCD 22/20 Q1012 NOSIG

2010/08/08 02:00
LRCK 080200Z 30002KT 2000 BR SCT012 FEW035CB 24/24 Q1012 NOSIG

2010/08/08 02:00
LROP 080200Z 26005KT 6000 FEW050CB 21/21 Q1012 8809//95 NOSIG

2010/08/08 02:00
LRSB 080200Z 00000KT 6000 FEW008 SCT013 BKN055 18/18 Q1016

2010/08/08 02:00
LRTR 080200Z 36003KT CAVOK 17/16 Q1016

2010/08/08 02:00
LFBA 080200Z AUTO 25005KT 9999NDV NSC 18/13 Q1019

2010/08/08 02:00
LFBE 080200Z AUTO 28006KT 9999NDV NSC 16/13 Q1019

2010/08/08 02:00
LFGJ 080200Z AUTO VRB02KT 9999NDV NSC 16/13 Q1018

2010/08/08 02:00
LFJR 080200Z AUTO 32004KT 290V350 9999NDV SCT012/// SCT046/// 15/13 Q1020

2010/08/08 02:00
LFMD 080200Z AUTO 34003KT 300V030 9999NDV NSC 17/14 Q1016

2010/08/08 02:00
LFMH 080200Z AUTO 13002KT 9999NDV NSC 16/12 Q1019

2010/08/08 02:00
LFPN 080200Z AUTO 28003KT 9999NDV SCT044 15/13 Q1018

2010/08/08 02:00
LFRC 080200Z AUTO 29005KT 9999NDV NSC 15/14 Q1020

2010/08/08 02:00
LFRG 080200Z AUTO 26004KT 9999NDV SCT004 BKN009 BKN013 15/14 Q1019

2010/08/08 02:00
LFRK 080200Z AUTO 26009KT 9999NDV ///////// 14/13 Q1019

2010/08/08 02:00
UGTB 080200Z 33005KT 9999 SKC 21/13 Q1015 NOSIG RMK 31CLRD80

2010/08/08 02:00
UGKO 080200Z 00000KT 9999 ST100 24/19 Q1012 NOSIG

2010/08/08 02:00
SAAR 080200Z 16003KT CAVOK 08/05 Q1020

2010/08/08 02:00
SACO 080200Z 32006KT CAVOK 06/00 Q1022

2010/08/08 02:00
SAEZ 080200Z 11002KT 3000 R11/0600U RMID/0600U R29/0600D MIFGBR 06/05 Q1022

2010/08/08 02:00
SARE 080200Z 00000KT CAVOK 12/09 Q1018

2010/08/08 02:00
SARF 080200Z 18006KT CAVOK 12/09 Q1016

2010/08/08 02:00
SARI 080200Z 05004KT CAVOK 17/16 Q1018

2010/08/08 02:00
SARP 080200Z 16004KT CAVOK 15/10 Q1016

2010/08/08 02:00
SASA 080200Z 29003KTCAVOK 07/00 Q1020

2010/08/08 02:00
SAVC 080200Z 29014KT CAVOK 08/M02 Q1015

2010/08/08 02:00
SAWG 080200Z 32022G30KT CAVOK 05/M04 Q0999

2010/08/08 02:00
SAZM 080200Z 00000KT 3000 BR NSC 03/02 Q1022

2010/08/08 02:00
SAZN 080200Z 27003KT CAVOK 01/M04 Q1023

2010/08/08 02:00
SAZS 080200Z 32010KT CAVOK 02/M03 Q1022

2010/08/08 02:00
SCAR 080200Z 26002KT 9999 OVC021 15/09 Q1019

2010/08/08 02:00
SCDA 080200Z 20003KT 9999 OVC022 13/09 Q1019

2010/08/08 02:00
SCFA 080200Z 13005KT 9999 BKN015 12/08 Q1017

2010/08/08 02:00
SCAT 080200Z 16008KT 6000 SKC 10/09 Q1021

2010/08/08 02:00
SCIP 080200Z VRB04KT 9999 SCT020 BKN030 16/12 Q1027

2010/08/08 02:00
SCSE 080200Z 16003KT CAVOK 08/07 Q1022 NEFO PLAYA SKC

2010/08/08 02:00
SCEL 080200Z 12004KT 090V150 9999 SCT120 10/00 Q1027 NOSIG

2010/08/08 02:00
SCIE 080200Z 11002KT 5000 HZ SKC 04/02 Q1028

2010/08/08 02:00
SCTC 080200Z 00000KT 1500NE 5000SW BR SCT015 04/04 Q1027

2010/08/08 02:00
SCTE 080200Z 00000KT 9999 SCT050 03/03 Q1026 NOSIG

2010/08/08 02:00
SCBA 080200Z AUTO 29011KT 9999 -RA BKN050 03/M00 Q1015

2010/08/08 02:00
SCCI 080200Z 32012KT 9999 FEW023 SCT090 BKN200 03/M01 Q0994 NOSIG

2010/08/08 02:00
SBMO 080200Z 00000KT 9999 SCT017 SCT100 20/18 Q1020 

2010/08/08 02:00
DNMM 080200Z 25007KT 8000 SCT010 25/24 Q1013 NOSIG

2010/08/08 02:00
LCLK 080200Z 32006KT CAVOK 24/22 Q1007 NOSIG

2010/08/08 02:00
LCPH 080200Z AUTO 02004KT 9999NDV FEW021 23/20 Q1008

2010/08/08 02:00
MZBZ 080200Z 00000KT 9999 FEW003 BKN250 27/27 A2987 Q1011 NOSIG

2010/08/08 02:00
LFLL 080200Z 15006KT CAVOK 17/12 Q1018 NOSIG

2010/08/08 02:00
LFMN 080200Z 33006KT 9999 FEW015 20/14 Q1017 NOSIG

2010/08/08 02:00
LFPG 080200Z 30006KT 9999 FEW025 15/13 Q1018 NOSIG

2010/08/08 02:00
LFPO 080200Z 29003KT 9999 FEW032 BKN060 15/14 Q1018 NOSIG

2010/08/08 02:00
LFQQ 080200Z AUTO 25003KT 9999NDV FEW009 SCT036 OVC068 15/14 Q1016

2010/08/08 02:00
LFRB 080200Z 29003KT 9999 FEW029 14/13 Q1021 TEMPO 3000 BR BKN003

2010/08/08 02:00
LFRS 080200Z 36003KT 9999 FEW035 14/12 Q1020 NOSIG

2010/08/08 02:00
EIDW 080200Z 30005KT 9999 FEW025 BKN036 12/11 Q1022 NOSIG

2010/08/08 02:00
EINN 080200Z 33002KT 9999 SCT034 11/10 Q1023 NOSIG

2010/08/08 02:00
EICK 080200Z 32006KT 9999 FEW016 11/10 Q1023 NOSIG

2010/08/08 02:00
LEAB 080200Z 16006KT CAVOK 20/11 Q1021 NOSIG

2010/08/08 02:00
LESA 080200Z 00000KT CAVOK 16/14 Q1019

2010/08/08 02:00
LETO 080200Z VRB02KT CAVOK 26/12 Q1019 NOSIG

2010/08/08 01:50
HLLB 080150Z 00000KT 7000 SCT015 21/18 Q1014

2010/08/08 01:50
HLLT 080150Z 11003KT CAVOK 24/17 Q1015

2010/08/08 02:00
FIMP 080200Z 13018KT 9999 FEW017 SCT050 22/11 Q1023

2010/08/08 02:00
FMMI 080200Z 15005KT 110V170 9999 FEW016 BKN020 11/10 Q1026 NOSIG

2010/08/08 02:00
FMMT 080200Z 24004KT 9999 FEW007 SCT017 BKN033 19/18 Q1023

2010/08/08 02:00
FMNM 080200Z 22004KT CAVOK 21/15 Q1018

2010/08/08 02:00
MKJP 080200Z 01004KT 9999 FEW022 BKN240 28/21 Q1014

2010/08/08 02:00
LEMD 080200Z 12005KT 080V140 CAVOK 26/13 Q1018 NOSIG

2010/08/08 02:00
LEBL 080200Z VRB02KT 9999 FEW025 22/18 Q1018 NOSIG

2010/08/08 02:00
LEPA 080200Z 00000KT CAVOK 17/15 Q1019 NOSIG

2010/08/08 02:00
LEMG 080200Z 00000KT 9999 FEW020 SCT040 25/20 Q1018 NOSIG

2010/08/08 02:00
LEAL 080200Z 28004KT CAVOK 22/18 Q1018 NOSIG

2010/08/08 02:00
LEIB 080200Z VRB01KT CAVOK 21/18 Q1018 NOSIG

2010/08/08 02:00
LEVX 080200Z VRB02KT CAVOK 19/14 Q1016

2010/08/08 02:00
RKSI 080200Z 17009KT 140V200 9999 SCT030 BKN150 30/24 Q1011 NOSIG

2010/08/08 02:00
RKSS 080200Z 20007KT 9999 SCT030 32/22 Q1011 NOSIG 

2010/08/08 02:00
RKPC 080200Z 12016KT 090V150 9999 SCT020 32/21 Q1009 WS ALL RWY NOSIG 

2010/08/08 02:00
RKPK 080200Z 27003KT 9999 SCT030 31/21 Q1011 NOSIG 

2010/08/08 02:00
RKTU 080200Z 32003KT 9999 FEW015 FEW050 30/23 Q1011 NOSIG 

2010/08/08 02:00
RKTN 080200Z 34003KT 9999 FEW030 30/22 Q1011 NOSIG

2010/08/08 02:00
RKJB 080200Z 12007KT 070V160 9999 FEW040 31/20 Q1011 NOSIG 

2010/08/08 02:00
RKNY 080200Z 06005KT 040V100 CAVOK 27/22 Q1010 NOSIG 

2010/08/08 02:00
LFAQ 080200Z AUTO 23005KT 9999NDV BKN009 BKN015 14/13 Q1017

2010/08/08 02:00
LFBU 080200Z AUTO 33004KT 9999NDV NSC 15/13 Q1020

2010/08/08 02:00
LFLN 080200Z AUTO VRB02KT 9999NDV NSC 17/15 Q1018

2010/08/08 02:00
LFPM 080200Z AUTO 29007KT 9999NDV BKN029 BKN037 17/14 Q1018

2010/08/08 02:00
LFRH 080200Z AUTO 35004KT 9999NDV NSC 12/11 Q1021

2010/08/08 02:00
LFRQ 080200Z AUTO 31003KT 9999NDV OVC024 14/13 Q1022

2010/08/08 02:00
LFRT 080200Z AUTO 29006KT 9999NDV FEW015 OVC030 14/14 Q1021

2010/08/08 02:00
LFSD 080200Z AUTO 00000KT 9999NDV NSC 16/14 Q1017

2010/08/08 02:00
LFTW 080200Z AUTO 32004KT 9999NDV NSC 20/09 Q1017

2010/08/08 02:00
TTPP 080200Z 00000KT 9999 FEW016 SCT036 25/24 Q1013 NOSIG

2010/08/08 02:00
TTCP 080200Z 05006KT 9999 FEW016 27/23 Q1014 NOSIG

2010/08/08 02:00
FMMI 080200Z 15005KT 110V170 9999 FEW016 BKN020 11/10 Q1026 NOSIG

2010/08/08 02:00
UKBB 080200Z 12002MPS CAVOK 21/14 Q1014 88CLRD95 NOSIG

2010/08/08 02:00
UKHH 080200Z 00000MPS CAVOK 23/15 Q1017 080///65 NOSIG

2010/08/08 02:00
UKOO 080200Z 03002MPS 1900 BR NSC 24/23 Q1012 16090070 NOSIG

2010/08/08 02:00
UKDE 080200Z 10003MPS 040V160 CAVOK 24/07 Q1014 20CLRD70 NOSIG

2010/08/08 02:00
UKDD 080200Z 04002MPS CAVOK 24/11 Q1015 08090070 NOSIG

2010/08/08 02:00
UKFF 080200Z 14003MPS CAVOK 20/09 Q1011 01010070 NOSIG

2010/08/08 02:00
UKLL 080200Z 18001MPS 9999 NSC 18/17 Q1014 13250550 TEMPO -TSRA BKN020CB

2010/08/08 02:00
UKCC 080200Z 08004MPS CAVOK 24/06 Q1016 08090070 NOSIG

2010/08/08 02:00
UKDR 080200Z 08004MPS CAVOK 21/13 Q1014 1809//70 NOSIG

2010/08/08 02:00
FMNM 080200Z 22004KT CAVOK 21/15 Q1018

2010/08/08 02:00
FMMT 080200Z 24004KT 9999 FEW007 SCT017 BKN033 19/18 Q1023

2010/08/08 02:00
FMSD 080200Z 06010KT 9999 SCT017 SCT033 19/17 Q1026

2010/08/08 02:00
FMMI 080200Z 15005KT 110V170 9999 FEW016 BKN020 11/10 Q1026 NOSIG

2010/08/08 02:00
FABL 080200Z VRB01KT CAVOK 03/M01 Q1024 NOSIG

2010/08/08 02:00
FACT 080200Z 35014KT 9999 BKN030 14/09 Q1015 NOSIG

2010/08/08 02:00
FAEL 080200Z AUTO 33013KT 9999 +RA NCD 25/M02 Q1011

2010/08/08 02:00
FAGG 080200Z AUTO 30006KT 9999 R29/M0050N R11/M0050N BKN025 12/10 Q1012

2010/08/08 02:00
FAJS 080200Z 36003KT CAVOK 09/00 Q1028 NOSIG

2010/08/08 02:00
FAKN 080200Z AUTO 26002KT //// // ////// 10/09 Q1025

2010/08/08 02:00
FALE 080200Z 04009KT CAVOK 16/13 Q1019 NOSIG

2010/08/08 02:00
FAMM 080200Z AUTO 02005KT //// // ////// 11/01 Q1025

2010/08/08 02:00
FAPE 080200Z 23015KT 9999 BKN004 13/13 Q1010 NOSIG

2010/08/08 02:00
FAPN 080200Z AUTO 02003KT //// // ////// 09/01 Q1025

2010/08/08 02:00
FAPP 080200Z AUTO 18002KT //// // ////// 06/03 Q1026

2010/08/08 02:00
FAUP 080200Z 30008KT CAVOK 15/M01 Q1020 NOSIG

2010/08/08 02:00
OIAW 080200Z 00000KT 7000 SCT040 BKN100 33/11 Q0997 A2944

2010/08/08 02:00
OIFM 080200Z 35004KT 6000 SKC 18/01 Q1018 A3008

2010/08/08 02:00
OIKK 080200Z 12004KT CAVOK 14/M01 Q1018 A3007

2010/08/08 02:00
OIMM 080200Z 17004KT CAVOK 20/M00 Q1013 A2994

2010/08/08 02:00
OISS 080200Z 00000KT CAVOK 21/02 Q1015 A2997

2010/08/08 02:00
OITT 080200Z 09006KT 9999 FEW040 25/05 Q1018 A3007

2010/08/08 02:00
OIZH 080200Z 15004KT CAVOK 20/M03 Q1011 A2985

2010/08/08 01:50
ETUO 080150Z AUTO 00000KT 8000NDV // OVC060/// 16/15 Q1015

2010/08/08 02:00
LFBC 080200Z AUTO VRB01KT 9999NDV NSC 14/12 Q1021

2010/08/08 02:00
LFBD 080200Z 30004KT CAVOK 16/15 Q1020 NOSIG

2010/08/08 02:00
LFBF 080200Z AUTO 23004KT 190V280 9999NDV // NSC 19/16 Q1019

2010/08/08 02:00
LFBI 080200Z AUTO 31004KT 9999NDV NSC 15/12 Q1020

2010/08/08 02:00
LFBL 080200Z AUTO 34005KT 9999NDV NSC 15/12 Q1020

2010/08/08 02:00
LFBO 080200Z 27005KT 240V310 CAVOK 20/15 Q1019 NOSIG

2010/08/08 02:00
LFBP 080200Z AUTO 28006KT 9999NDV BKN007 17/16 Q1021

2010/08/08 02:00
LFBT 080200Z AUTO 25006KT 210V280 9999NDV NSC 16/14 Q1021

2010/08/08 02:00
LFBZ 080200Z AUTO 00000KT 9999NDV SCT020 BKN029 18/16 Q1021

2010/08/08 02:00
LFLB 080200Z AUTO 13003KT 9999NDV NSC 13/12 Q1019

2010/08/08 02:00
LFLL 080200Z 15006KT CAVOK 17/12 Q1018 NOSIG

2010/08/08 02:00
LFLX 080200Z AUTO 30004KT 9999NDV BKN024 BKN031 BKN039 18/15 Q1019

2010/08/08 02:00
LFML 080200Z AUTO 14003KT 9999NDV NCD 18/14 Q1017

2010/08/08 02:00
LFMN 080200Z 33006KT 9999 FEW015 20/14 Q1017 NOSIG

2010/08/08 02:00
LFOC 080200Z AUTO 32004KT 9999NDV NSC 16/12 Q1019

2010/08/08 02:00
LFOE 080200Z AUTO 26005KT 9999NDV NSC 13/12 Q1019

2010/08/08 02:00
LFOJ 080200Z AUTO 31006KT 9999NDV NSC 16/14 Q1019

2010/08/08 02:00
LFPC 080200Z AUTO 24003KT 9999NDV // SCT014 BKN056 14/14 Q1018

2010/08/08 02:00
LFPG 080200Z 30006KT 9999 FEW025 15/13 Q1018 NOSIG

2010/08/08 02:00
LFPO 080200Z 29003KT 9999 FEW032 BKN060 15/14 Q1018 NOSIG

2010/08/08 02:00
LFPV 080200Z AUTO 27004KT 9999NDV SCT046 SCT056 BKN230 15/13 Q1018

2010/08/08 02:00
LFQI 080200Z AUTO 25006KT 9999NDV FEW008 OVC054 14/13 Q1017

2010/08/08 02:00
LFQQ 080200Z AUTO 25003KT 9999NDV FEW009 SCT036 OVC068 15/14 Q1016

2010/08/08 02:00
LFRB 080200Z 29003KT 9999 FEW029 14/13 Q1021 TEMPO 3000 BR BKN003

2010/08/08 02:00
LFRS 080200Z 36003KT 9999 FEW035 14/12 Q1020 NOSIG

2010/08/08 02:00
LFYR 080200Z AUTO 32003KT 290V350 //// // ///////// 18/15 Q1019

2010/08/08 02:01
EHWO 080201Z AUTO 21004KT 9000NDV BR FEW008 SCT020 BKN062 15/14 Q1015 WHT

2010/08/08 02:00
RORS 080200Z 12017KT 9999 -SHRA FEW007 SCT017 BKN035 27/25 Q1001

2010/08/08 02:00
RJAH 080200Z 19007KT 9999 SCT030 BKN250 31/26 Q1015

2010/08/08 02:00
RJOT 080200Z 09005KT 040V150 9999 FEW035 SCT/// 31/20 Q1014

2010/08/08 02:00
RJOW 080200Z 05008KT 350V080 9999 FEW030 SCT040 30/20 Q1012

2010/08/08 02:00
RJOY 080200Z 10005KT 050V190 9999 FEW025 BKN/// 31/20 Q1014

2010/08/08 02:00
RJSA 080200Z 26007KT 220V310 9999 FEW025 SCT045 30/23 Q1015

2010/08/08 02:00
RJSC 080200Z 21005KT 160V260 9999 FEW030TCU BKN/// 33/23 Q1015

2010/08/08 02:00
RJSF 080200Z VRB01KT 9999 SCT025 BKN/// 30/22 Q1017

2010/08/08 02:00
RJSI 080200Z VRB03KT 9999 FEW030 SCT040 32/24 Q1015

2010/08/08 02:00
RJSK 080200Z 29010KT 9999 FEW020 30/25 Q1015

2010/08/08 02:00
RJSR 080200Z 21004KT 170V240 9999 -SHRA FEW010 SCT040 26/26 Q1015

2010/08/08 02:00
RJSN 080200Z 33009KT 9999 FEW030 BKN/// 32/25 Q1014

2010/08/08 02:00
RJSS 080200Z 15008KT 9999 FEW030 SCT/// 31/22 Q1015

2010/08/08 02:00
RJSY 080200Z 27006KT 240V320 9999 FEW025 FEW035TCU BKN/// 30/23 Q1015

2010/08/08 02:00
RJTF 080200Z 17007KT 140V220 9999 FEW025 BKN140 BKN/// 31/21 Q1016

2010/08/08 02:00
RJTH 080200Z 06003KT 340V150 9999 -SHRA FEW002 SCT025 FEW030CB BKN070 26/25 Q1016

2010/08/08 02:00
RJTI 080200Z 18008KT 9999 FEW020 SCT170 BKN/// 31/23 Q1016

2010/08/08 02:00
RJTO 080200Z 24003KT 210V280 9999 -SHRA FEW010 SCT015 BKN080 27/25 Q1016

2010/08/08 02:00
RJTT 080200Z 17010KT 9999 FEW020 BKN150 BKN/// 31/22 Q1016

2010/08/08 02:00
ROAH 080200Z 17005KT 150V210 8000 -SHRA FEW010 BKN020 FEW025TCU BKN040 27/26 Q1004

2010/08/08 02:00
ROIG 080200Z 05012KT 9999 FEW020 BKN/// 30/26 Q1000

2010/08/08 02:00
ROMY 080200Z 13009KT 9999 -SHRA FEW010 SCT020 BKN070 28/26 Q1001

2010/08/08 02:00
RJFG 080200Z 10010G21KT 060V130 9999 FEW006 SCT010 BKN015 27/25 Q1011

2010/08/08 02:00
RJFK 080200Z 08012KT 050V120 9999 FEW020 28/22 Q1012

2010/08/08 02:00
RJFM 080200Z 09007KT 9999 FEW015 FEW020CB BKN/// 29/25 Q1012

2010/08/08 02:00
RJFO 080200Z 08008KT 9999 FEW020 28/24 Q1013

2010/08/08 02:00
RJFR 080200Z 09020KT 9999 FEW020 29/21 Q1012

2010/08/08 02:00
RJFT 080200Z 09006KT 9999 FEW035 32/22 Q1011

2010/08/08 02:00
RJFU 080200Z 03003KT 350V100 9999 FEW035 31/23 Q1010

2010/08/08 02:00
RJGG 080200Z 21004KT 180V240 9999 FEW010 BKN180 28/25 Q1015 NOSIG

2010/08/08 02:00
RJKA 080200Z 10013KT 9999 FEW010 SCT020 30/26 Q1006

2010/08/08 02:00
RJNT 080200Z 19003KT 080V250 9999 FEW030 SCT120 BKN150 32/21 Q1014

2010/08/08 02:00
RJNW 080200Z VRB06KT 9999 FEW020 SCT130 BKN/// 31/20 Q1015

2010/08/08 02:00
RJNS 080200Z 10005KT 050V130 9999 FEW015 SCT080 BKN140 28/22 Q1016

2010/08/08 02:00
RJOA 080200Z 11008KT 9999 FEW020 FEW025TCU 28/19 Q1015

2010/08/08 02:00
RJOB 080200Z 11011KT 070V140 9999 FEW020 BKN025 30/22 Q1015

2010/08/08 02:00
RJOC 080200Z 01006KT 9999 FEW025 31/20 Q1012

2010/08/08 02:00
RJOH 080200Z 08008KT 9999 FEW030 33/21 Q1012

2010/08/08 02:00
RJOK 080200Z 20008KT 9999 FEW020 SCT030 BKN060 30/23 Q1014

2010/08/08 02:00
RJOM 080200Z 34011KT 9999 FEW025 SCT/// 29/24 Q1013

2010/08/08 02:00
RJOO 080200Z 13003KT 050V220 9999 FEW020 BKN/// 32/19 Q1014

2010/08/08 02:00
RJOR 080200Z 17009KT 130V220 9999 FEW035 SCT/// 33/21 Q1013

2010/08/08 02:00
RJAA 080200Z 16010KT 9999 SCT030 BKN/// 32/22 Q1016 NOSIG

2010/08/08 02:00
RJAF 080200Z 18004KT 140V220 9999 FEW025 BKN100 BKN140 27/18 Q1019

2010/08/08 02:00
RJBB 080200Z 27005KT 220V340 9999 FEW020 BKN/// 30/21 Q1014 NOSIG

2010/08/08 02:00
RJBD 080200Z 12007KT 050V150 9999 FEW020 BKN/// 31/20 Q1014

2010/08/08 02:00
RJBE 080200Z 11003KT 9999 FEW025 BKN/// 30/22 Q1014

2010/08/08 02:00
RJBH 080200Z 20009KT 9999 FEW030 31/21 Q1013

2010/08/08 02:00
RJBT 080200Z 19007KT 150V240 9999 FEW030 BKN/// 31/20 Q1014

2010/08/08 02:00
RJCB 080200Z 14004KT 090V190 9999 FEW015 SCT030 28/24 Q1013

2010/08/08 02:00
RJCC 080200Z 36004KT 300V030 9999 FEW007 BKN015 BKN060 27/24 Q1013

2010/08/08 02:00
RJCH 080200Z 21007KT 9999 FEW008 BKN025 27/25 Q1014

2010/08/08 02:00
RJCK 080200Z 06008KT 9999 FEW004 BKN017 25/21 Q1013

2010/08/08 02:00
RJCM 080200Z VRB02KT 9999 FEW010 SCT020 24/20 Q1013

2010/08/08 02:00
RJCN 080200Z 09005KT 040V120 9999 FEW004 SCT005 BKN007 22/20 Q1013

2010/08/08 02:00
RJCW 080200Z 36005KT 9999 FEW020 25/20 Q1013

2010/08/08 02:00
RJDC 080200Z 10017KT 9999 FEW025 30/21 Q1012

2010/08/08 02:00
RJDT 080200Z 15006KT 110V170 9999 FEW020 29/23 Q1011

2010/08/08 02:00
RJEB 080200Z 11006KT 9999 FEW003 BKN025 21/20 Q1013

2010/08/08 02:00
RJEC 080200Z VRB02KT 9999 FEW012 BKN014 BKN100 26/22 Q1013

2010/08/08 02:00
RJFS 080200Z VRB03KT 9999 FEW040 32/23 Q1010

2010/08/08 02:00
RJFF 080200Z 03006KT 360V120 9999 FEW030 32/20 Q1010

2010/08/08 01:59
PHHI 080159Z AUTO 09011KT 10SM FEW032 BKN046 27/19 A3005 RMK AO2 DZE0159 SLP164 $

2010/08/08 02:00
WBKK 080200Z 22008KT 9999 FEW015 SCT140 BKN280 30/25 Q1010

2010/08/08 02:00
WBSB 080200Z 18008KT 9999 FEW016 SCT140 BKN300 30/24 Q1010 NOSIG

2010/08/08 02:00
WMKK 080200Z 00000KT 9999 FEW017CB SCT140 BKN280 28/26 Q1011 NOSIG

2010/08/08 02:00
WMKP 080200Z 00000KT 9000 -RA FEW010 FEW017CB SCT025 BKN260 25/24 Q1010 RETSRA NOSIG

2010/08/08 02:00
WSSL 080200Z 17005KT 110V190 9999 FEW020 BKN300 30/24 Q1010

2010/08/08 02:00
WSSS 080200Z 17006KT 130V220 9999 FEW018 SCT280 BKN300 29/24 Q1010 NOSIG

2010/08/08 02:00
LPFR 080200Z 14005KT 110V190 9999 FEW045 BKN100 26/21 Q1016

2010/08/08 02:00
LPMA 080200Z 02007KT 320V120 9999 FEW018 21/15 Q1016 RS30003KT 0535004KT 2301007KT

2010/08/08 02:00
LPPR 080200Z 00000KT CAVOK 20/16 Q1014

2010/08/08 02:00
LPPS 080200Z 02008KT 350V050 9999 SCT015 BKN030 21/16 Q1017

2010/08/08 02:00
LPPT 080200Z 13002KT CAVOK 27/09 Q1014 NOSIG

2010/08/08 02:00
OIAA 080200Z 00000KT 9999 BKN040 31/13 Q0997

2010/08/08 02:00
OIBK 080200Z 12014KT 3000 BR SKC 32/31 Q0997 A2946

2010/08/08 02:00
OICC 080200Z 09004KT CAVOK 22/02 Q1015 A2999 866.8

2010/08/08 02:00
OIGG 080200Z 00000KT 6000 SKC 22/21 Q1010 A2984

2010/08/08 02:00
OIIE 080200Z 29006KT CAVOK 22/M02 Q1014 A2996 901.2 020

2010/08/08 02:00
OITR 080200Z 27004KT 9999 FEW035 15/10 Q1016 A3003

2010/08/08 02:00
OIYY 080200Z 29004KT CAVOK 21/M07 Q1016 A3000

2010/08/08 02:00
YSTW 080200Z AUTO 32006KT 9999NDV // NCD 14/02 Q1020

2010/08/08 02:00
YSWG 080200Z 36002KT 9999 FEW035 11/03 Q1020

2010/08/08 02:00
YTEF 080200Z AUTO 13006KT //// // ////// 25/M01 Q1018

2010/08/08 02:00
YTNK 080200Z 08007KT CAVOK 22/M03 Q1016

2010/08/08 02:00
YTRE 080200Z AUTO 22004KT //// // ////// 16/06 Q1020

2010/08/08 02:00
YWGT 080200Z AUTO 00000KT //// // ////// 08/05 Q1021

2010/08/08 02:00
YWHA 080200Z AUTO 35017KT 9999NDV // NCD 14/03 Q1014

2010/08/08 02:00
YWLM 080200Z 27004KT 9999 FEW030 16/07 Q1020

2010/08/08 02:00
ZBAA 080200Z 35002MPS 300V080 CAVOK 26/19 Q1004 NOSIG

2010/08/08 02:00
ZBSJ 080200Z 33001MPS 6000 NSC 26/21 Q1004 NOSIG

2010/08/08 02:00
ZBTJ 080200Z 15003MPS 2700 BR NSC 24/21 Q1004 BECMG 3000

2010/08/08 02:00
ZBYN 080200Z 19001MPS 4000 BR NSC 24/20 Q1009 NOSIG

2010/08/08 02:00
ZGGG 080200Z VRB01MPS 7000 OVC043 29/25 Q1005 NOSIG

2010/08/08 02:00
ZSHC 080200Z 11003MPS 070V160 9999 BKN025 30/21 Q1007 NOSIG

2010/08/08 02:00
ZSPD 080200Z 11007MPS 9999 BKN020 30/24 Q1008 NOSIG

2010/08/08 02:00
ZSSS 080200Z 12005MPS 080V150 9999 BKN030 31/22 Q1008 NOSIG

2010/08/08 02:00
ZWSH 080200Z 33003MPS 8000 BKN040 27/10 Q1009 NOSIG

2010/08/08 02:00
ZWWW 080200Z VRB01MPS CAVOK 27/09 Q1009 NOSIG

2010/08/08 02:00
ZYTL 080200Z 22005MPS 170V250 9999 -TSRA SCT008 BKN033 SCT040CB 25/22 Q1006 NOSIG

2010/08/08 02:00
ZYTX 080200Z 10005MPS 4000 -RA BR SCT006 OVC026 20/19 Q1004 NOSIG

2010/08/08 02:00
LFBG 080200Z AUTO 28003KT 9999NDV NSC 16/13 Q1020

2010/08/08 02:00
LFBM 080200Z AUTO 29005KT 9999NDV NSC 15/14 Q1021

2010/08/08 02:00
LFJL 080200Z AUTO 22007KT 9999NDV NSC 17/12 Q1016

2010/08/08 02:00
LFKB 080200Z 22004KT 9999 FEW020 19/16 Q1017 NOSIG

2010/08/08 02:00
LFKF 080200Z AUTO 04002KT 9999NDV NCD 12/11 Q1018

2010/08/08 02:00
LFKJ 080200Z 04006KT CAVOK 16/14 Q1018 NOSIG

2010/08/08 02:00
LFKS 080200Z AUTO 27006KT 250V310 9999NDV NSC 19/09 Q1017

2010/08/08 02:00
LFLC 080200Z AUTO 00000KT 9999NDV BKN060 16/14 Q1019

2010/08/08 02:00
LFLN 080200Z AUTO VRB02KT 9999NDV NSC 17/15 Q1018

2010/08/08 02:00
LFMI 080200Z AUTO 00000KT 9999NDV NSC 18/15 Q1017

2010/08/08 02:00
LFMO 080200Z AUTO VRB03KT 9999NDV NSC 18/09 Q1017

2010/08/08 02:00
LFMP 080200Z AUTO 25005KT 9999NDV NSC 21/14 Q1017

2010/08/08 02:00
LFMT 080200Z AUTO 36003KT 9999NDV NSC 19/13 Q1017

2010/08/08 02:00
LFMU 080200Z AUTO 30002KT 9999NDV NSC 18/13 Q1017

2010/08/08 02:00
LFMY 080200Z AUTO 04004KT 9999NDV NSC 15/11 Q1017

2010/08/08 02:00
LFOA 080200Z AUTO VRB02KT 9999NDV NSC 15/12 Q1018

2010/08/08 02:00
LFOB 080200Z AUTO 24005KT 9999NDV FEW009 BKN015 15/13 Q1018

2010/08/08 02:00
LFOP 080200Z AUTO 25005KT 9999NDV OVC007 14/14 Q1018

2010/08/08 02:00
LFPB 080200Z AUTO 31003KT 280V340 9999NDV NSC 16/14 Q1018

2010/08/08 02:00
LFPM 080200Z AUTO 29007KT 9999NDV BKN029 BKN037 17/14 Q1018

2010/08/08 02:00
LFRH 080200Z AUTO 35004KT 9999NDV NSC 12/11 Q1021

2010/08/08 02:00
LFRQ 080200Z AUTO 31003KT 9999NDV OVC024 14/13 Q1022

2010/08/08 02:00
LFRT 080200Z AUTO 29006KT 9999NDV FEW015 OVC030 14/14 Q1021

2010/08/08 02:00
LFSD 080200Z AUTO 00000KT 9999NDV NSC 16/14 Q1017

2010/08/08 02:00
LFSI 080200Z AUTO 32006KT 9999NDV OVC015 17/15 Q1018

2010/08/08 02:00
LFSL 080200Z AUTO 00000KT 9999NDV NSC 16/13 Q1019

2010/08/08 02:00
LFSN 080200Z AUTO 00000KT 9999NDV ///////// 17/12 Q1016

2010/08/08 02:00
LFSO 080200Z AUTO 24004KT 9999NDV NSC 16/13 Q1017

2010/08/08 02:00
LFSX 080200Z AUTO 11003KT 9999NDV NSC 15/14 Q1018

2010/08/08 02:00
LFTW 080200Z AUTO 32004KT 9999NDV NSC 20/09 Q1017

2010/08/08 02:00
LFBC 080200Z AUTO VRB01KT 9999NDV NSC 14/12 Q1021

2010/08/08 02:00
LFBF 080200Z AUTO 23004KT 190V280 9999NDV // NSC 19/16 Q1019

2010/08/08 02:00
LFBG 080200Z AUTO 28003KT 9999NDV NSC 16/13 Q1020

2010/08/08 02:00
LFBL 080200Z AUTO 34005KT 9999NDV NSC 15/12 Q1020

2010/08/08 02:00
LFBM 080200Z AUTO 29005KT 9999NDV NSC 15/14 Q1021

2010/08/08 02:00
LFBO 080200Z 27005KT 240V310 CAVOK 20/15 Q1019 NOSIG

2010/08/08 02:00
LFBT 080200Z AUTO 25006KT 210V280 9999NDV NSC 16/14 Q1021

2010/08/08 02:00
LFKB 080200Z 22004KT 9999 FEW020 19/16 Q1017 NOSIG

2010/08/08 02:00
LFKJ 080200Z 04006KT CAVOK 16/14 Q1018 NOSIG

2010/08/08 02:00
LFLB 080200Z AUTO 13003KT 9999NDV NSC 13/12 Q1019

2010/08/08 02:00
LFLC 080200Z AUTO 00000KT 9999NDV BKN060 16/14 Q1019

2010/08/08 02:00
LFMP 080200Z AUTO 25005KT 9999NDV NSC 21/14 Q1017

2010/08/08 02:00
LFOA 080200Z AUTO VRB02KT 9999NDV NSC 15/12 Q1018

2010/08/08 02:00
LFOC 080200Z AUTO 32004KT 9999NDV NSC 16/12 Q1019

2010/08/08 02:00
LFOE 080200Z AUTO 26005KT 9999NDV NSC 13/12 Q1019

2010/08/08 02:00
LFOJ 080200Z AUTO 31006KT 9999NDV NSC 16/14 Q1019

2010/08/08 02:00
LFPC 080200Z AUTO 24003KT 9999NDV // SCT014 BKN056 14/14 Q1018

2010/08/08 02:00
LFPV 080200Z AUTO 27004KT 9999NDV SCT046 SCT056 BKN230 15/13 Q1018

2010/08/08 02:00
LFQI 080200Z AUTO 25006KT 9999NDV FEW008 OVC054 14/13 Q1017

2010/08/08 02:00
LFQQ 080200Z AUTO 25003KT 9999NDV FEW009 SCT036 OVC068 15/14 Q1016

2010/08/08 02:00
LFSD 080200Z AUTO 00000KT 9999NDV NSC 16/14 Q1017

2010/08/08 02:00
LFSI 080200Z AUTO 32006KT 9999NDV OVC015 17/15 Q1018

2010/08/08 02:00
LFSL 080200Z AUTO 00000KT 9999NDV NSC 16/13 Q1019

2010/08/08 02:00
LFSO 080200Z AUTO 24004KT 9999NDV NSC 16/13 Q1017

2010/08/08 02:00
LFSX 080200Z AUTO 11003KT 9999NDV NSC 15/14 Q1018

2010/08/08 02:00
LFYR 080200Z AUTO 32003KT 290V350 //// // ///////// 18/15 Q1019

2010/08/08 02:00
LRCK 080200Z 30002KT 2000 BR SCT012 FEW035CB 24/24 Q1012 NOSIG

2010/08/08 02:00
LRTR 080200Z 36003KT CAVOK 17/16 Q1016

2010/08/08 02:00
YAMB 080200Z AUTO 03004KT 9999NDV // NCD 19/03 Q1021

2010/08/08 02:00
YBCG 080200Z AUTO 36008KT 9999NDV // NCD 20/07 Q1020

2010/08/08 02:00
YBHM 080200Z AUTO 15013KT //// // ////// 21/13 Q1018

2010/08/08 02:00
YBMA 080200Z 07007KT CAVOK 25/M01 Q1014

2010/08/08 02:00
YBRK 080200Z 10005KT CAVOK 23/08 Q1018

2010/08/08 02:00
YBRM 080200Z 14008KT CAVOK 25/09 Q1016

2010/08/08 02:00
YCIN 080200Z AUTO 12009KT //// // ////// 28/03 Q1016

2010/08/08 02:00
YFRT 080200Z AUTO 27020KT //// // ////// 15/04 Q1018

2010/08/08 02:00
YMAV 080200Z AUTO 01017KT 9999NDV // NCD 13/05 Q1017

2010/08/08 02:00
YMHB 080200Z 01005KT 9999 FEW040 SCT070 BKN090 11/03 Q1018

2010/08/08 02:00
YMLT 080200Z AUTO 21004KT 9999NDV // SCT029 SCT052 OVC074 07/05 Q1019

2010/08/08 02:00
YPEA 080200Z AUTO 19003KT 9999NDV // NCD 12/08 Q1028

2010/08/08 02:00
YPGV 080200Z 13011KT 9999 BKN018 27/22 Q1012

2010/08/08 02:00
YPKG 080200Z 20009KT CAVOK 12/03 Q1023

2010/08/08 02:00
YPPD 080200Z 04005KT 9999 25/11 Q1016

2010/08/08 02:00
YSCB 080200Z 32005KT 9999 FEW030 10/M01 Q1019 NOSIG

2010/08/08 02:00
YSDU 080200Z AUTO 31008KT 9999NDV // NCD 14/04 Q1020

2010/08/08 02:00
YSNF 080200Z 23014KT 9999 FEW028 18/10 Q1015

2010/08/08 02:00
YSRI 080200Z AUTO 06007KT 9999NDV // NCD 15/07 Q1020

2010/08/08 02:00
YWLM 080200Z 27004KT 9999 FEW030 16/07 Q1020

2010/08/07 02:00
TNCM 070200Z 10012KT 9999 -SHRA BKN018TCU 27/24 Q1015 RERA TCU E

2010/08/08 02:00
OIBB 080200Z 00000KT 3000 BR SKC 32/29 Q0997 A2947

2010/08/08 02:00
OICK 080200Z 12006KT CAVOK 25/M01 Q1012 A2990

2010/08/08 02:00
OINZ 080200Z 21004KT CAVOK 23/20 Q1010 A2985

2010/08/08 02:00
OITL 080200Z 11004KT CAVOK 10/06 Q1019 A3009

2010/08/08 02:00
YAMB 080200Z AUTO 03004KT 9999NDV // NCD 19/03 Q1021

2010/08/08 02:00
YBCG 080200Z AUTO 36008KT 9999NDV // NCD 20/07 Q1020

2010/08/08 02:00
YBHM 080200Z AUTO 15013KT //// // ////// 21/13 Q1018

2010/08/08 02:00
YBMA 080200Z 07007KT CAVOK 25/M01 Q1014

2010/08/08 02:00
YBRK 080200Z 10005KT CAVOK 23/08 Q1018

2010/08/08 02:00
YBRM 080200Z 14008KT CAVOK 25/09 Q1016

2010/08/08 02:00
YCIN 080200Z AUTO 12009KT //// // ////// 28/03 Q1016

2010/08/08 02:00
YFRT 080200Z AUTO 27020KT //// // ////// 15/04 Q1018

2010/08/08 02:00
YMAV 080200Z AUTO 01017KT 9999NDV // NCD 13/05 Q1017

2010/08/08 02:00
YMHB 080200Z 01005KT 9999 FEW040 SCT070 BKN090 11/03 Q1018

2010/08/08 02:00
YMLT 080200Z AUTO 21004KT 9999NDV // SCT029 SCT052 OVC074 07/05 Q1019

2010/08/08 02:00
YPEA 080200Z AUTO 19003KT 9999NDV // NCD 12/08 Q1028

2010/08/08 02:00
YPGV 080200Z 13011KT 9999 BKN018 27/22 Q1012

2010/08/08 02:00
YPKG 080200Z 20009KT CAVOK 12/03 Q1023

2010/08/08 02:00
YPPD 080200Z 04005KT 9999 25/11 Q1016

2010/08/08 02:00
YSCB 080200Z 32005KT 9999 FEW030 10/M01 Q1019 NOSIG

2010/08/08 02:00
YSDU 080200Z AUTO 31008KT 9999NDV // NCD 14/04 Q1020

2010/08/08 02:00
YSNF 080200Z 23014KT 9999 FEW028 18/10 Q1015

2010/08/08 02:00
YSRI 080200Z AUTO 06007KT 9999NDV // NCD 15/07 Q1020

2010/08/08 02:00
YWLM 080200Z 27004KT 9999 FEW030 16/07 Q1020

2010/08/08 02:02
KSHN 080202Z AUTO 23008KT 1 1/2SM BR FEW007 BKN012 OVC017 16/16 A2989

2010/08/08 02:00
ZGKL 080200Z VRB02MPS 3000 HZ NSC 31/24 Q1006 NOSIG

2010/08/08 02:00
ZGNN 080200Z VRB01MPS 9999 SCT016 29/25 Q1006 NOSIG

2010/08/08 02:00
ZGOW 080200Z 07004MPS CAVOK 32/22 Q1004 NOSIG

2010/08/08 02:00
ZGSZ 080200Z VRB01MPS 9999 FEW021 BKN050 30/24 Q1005 NOSIG

2010/08/08 02:00
ZLXY 080200Z 06005MPS 2000 R05/1400N HZ SKC 28/21 Q1007 BECMG TL 0330 3000 HZ

2010/08/08 02:00
ZMUB 080200Z 34008MPS 310V010 9999 BKN033 10/01 Q1013 NOSIG RMK QFE653.0 55

2010/08/08 02:00
ZPPP 080200Z 17002MPS 100V260 6000 SCT026 22/16 Q1018 NOSIG

2010/08/08 02:00
ZSAM 080200Z 04007MPS 9999 SCT033 32/22 Q1004 NOSIG

2010/08/08 02:00
ZSFZ 080200Z 04008MPS 9999 FEW023 BKN043 30/23 Q1005 NOSIG

2010/08/08 02:00
ZSNB 080200Z 13004MPS 9999 SCT030 31/22 Q1007 NOSIG

2010/08/08 02:00
ZSQD 080200Z 18008G13MPS CAVOK 28/22 Q1007 NOSIG

2010/08/08 02:00
ZUUU 080200Z 00000MPS CAVOK 31/23 Q1006 NOSIG

2010/08/08 02:00
LFBA 080200Z AUTO 25005KT 9999NDV NSC 18/13 Q1019

2010/08/08 02:00
LFBE 080200Z AUTO 28006KT 9999NDV NSC 16/13 Q1019

2010/08/08 02:00
LFGJ 080200Z AUTO VRB02KT 9999NDV NSC 16/13 Q1018

2010/08/08 02:00
LFJR 080200Z AUTO 32004KT 290V350 9999NDV SCT012/// SCT046/// 15/13 Q1020

2010/08/08 02:00
LFMD 080200Z AUTO 34003KT 300V030 9999NDV NSC 17/14 Q1016

2010/08/08 02:00
LFMH 080200Z AUTO 13002KT 9999NDV NSC 16/12 Q1019

2010/08/08 02:00
LFPN 080200Z AUTO 28003KT 9999NDV SCT044 15/13 Q1018

2010/08/08 02:00
LFRC 080200Z AUTO 29005KT 9999NDV NSC 15/14 Q1020

2010/08/08 02:00
LFRG 080200Z AUTO 26004KT 9999NDV SCT004 BKN009 BKN013 15/14 Q1019

2010/08/08 02:00
LFRK 080200Z AUTO 26009KT 9999NDV ///////// 14/13 Q1019

2010/08/08 02:00
UKBB 080200Z 12002MPS CAVOK 21/14 Q1014 88CLRD95 NOSIG

2010/08/08 02:00
UKHH 080200Z 00000MPS CAVOK 23/15 Q1017 080///65 NOSIG

2010/08/08 02:00
UKOO 080200Z 03002MPS 1900 BR NSC 24/23 Q1012 16090070 NOSIG

2010/08/08 02:00
UKDE 080200Z 10003MPS 040V160 CAVOK 24/07 Q1014 20CLRD70 NOSIG

2010/08/08 02:00
UKDD 080200Z 04002MPS CAVOK 24/11 Q1015 08090070 NOSIG

2010/08/08 02:00
UKFF 080200Z 14003MPS CAVOK 20/09 Q1011 01010070 NOSIG

2010/08/08 02:00
UKLL 080200Z 18001MPS 9999 NSC 18/17 Q1014 13250550 TEMPO -TSRA BKN020CB

2010/08/08 02:00
UKCC 080200Z 08004MPS CAVOK 24/06 Q1016 08090070 NOSIG

2010/08/08 02:00
UKDR 080200Z 08004MPS CAVOK 21/13 Q1014 1809//70 NOSIG

2010/08/08 02:00
TTPP 080200Z 00000KT 9999 FEW016 SCT036 25/24 Q1013 NOSIG

2010/08/08 02:00
TTCP 080200Z 05006KT 9999 FEW016 27/23 Q1014 NOSIG

2010/08/08 02:00
LKCV 080200Z 27007KT 8000 -RA OVC037 15/14 Q1016 NOSIG

2010/08/08 02:00
LKKB 080200Z 23003KT 9999 BKN025 15/15 Q1016

2010/08/08 02:00
LKLN 080200Z AUTO 25003KT CAVOK 15/14 Q1017

2010/08/08 02:00
LKNA 080200Z 30009KT 9999 SCT010 OVC016 14/14 Q1016

2010/08/08 02:00
LKPD 080200Z 28011KT 6000 -RA SCT010 OVC040 15/15 Q1015

2010/08/08 02:00
LKPO 080200Z 17003KT 9999 OVC013 15/15 Q1015

2010/08/08 02:00
LFMI 080200Z AUTO 00000KT 9999NDV NSC 18/15 Q1017

2010/08/08 02:00
LFMK 080200Z AUTO 00000KT 9999NDV NSC 16/13 Q1018

2010/08/08 02:00
LFRD 080200Z AUTO 28004KT 230V340 9999NDV BKN010 OVC015 16/15 Q1020

2010/08/08 02:00
LFRN 080200Z AUTO 29004KT 9999NDV NSC 12/11 Q1020

2010/08/08 02:00
LFRO 080200Z AUTO 29005KT 9999NDV BKN027 14/13 Q1021

2010/08/08 02:00
LFRZ 080200Z AUTO VRB02KT 9999NDV NSC 13/11 Q1021

2010/08/08 02:00
LFSB 080200Z AUTO 16005KT 9999NDV NSC 16/13 Q1018

2010/08/08 02:00
LFST 080200Z AUTO 18003KT 9999NDV //////TCU 17/13 Q1016

2010/08/08 02:00
LFTH 080200Z AUTO 02002KT 9999NDV NSC 14/11 Q1016

2010/08/08 02:00
UGTB 080200Z 33005KT 9999 SKC 21/13 Q1015 NOSIG RMK 31CLRD80

2010/08/08 02:00
UGKO 080200Z 00000KT 9999 ST100 24/19 Q1012 NOSIG

2010/08/08 02:00
LJLJ 080200Z 00000KT CAVOK 12/11 Q1018 NOSIG

2010/08/08 02:00
LJMB 080200Z VRB02KT 9999 FEW006 13/13 Q1018

2010/08/08 02:00
LJPZ 080200Z AUTO 12007KT 9999NDV NCD 15/12 Q1017

2010/08/08 02:00
WBKK 080200Z 22008KT 9999 FEW015 SCT140 BKN280 30/25 Q1010

2010/08/08 02:00
WMKJ 080200Z 20005KT 9999 FEW018 BKN280 28/24 Q1011

2010/08/08 02:00
WMKK 080200Z 00000KT 9999 FEW017CB SCT140 BKN280 28/26 Q1011 NOSIG

2010/08/08 02:00
WMKP 080200Z 00000KT 9000 -RA FEW010 FEW017CB SCT025 BKN260 25/24 Q1010 RETSRA NOSIG

2010/08/08 02:00
WMSA 080200Z 00000KT 6000 FEW017CB BKN280 29/26 Q1011

2010/08/08 02:00
LFCR 080200Z AUTO 00000KT 9999NDV NSC 14/11 Q1020

2010/08/08 02:00
LFJL 080200Z AUTO 22007KT 9999NDV NSC 17/12 Q1016

2010/08/08 02:00
LFLP 080200Z AUTO 05005KT 020V080 9999NDV NSC 14/11 Q1020

2010/08/08 02:00
LFLS 080200Z AUTO 10007KT 9999NDV NSC 14/11 Q1019

2010/08/08 02:00
LFLY 080200Z AUTO 15002KT 9999NDV NSC 16/13 Q1018

2010/08/08 02:00
LFMT 080200Z AUTO 36003KT 9999NDV NSC 19/13 Q1017

2010/08/08 02:00
LFMU 080200Z AUTO 30002KT 9999NDV NSC 18/13 Q1017

2010/08/08 02:00
LFOB 080200Z AUTO 24005KT 9999NDV FEW009 BKN015 15/13 Q1018

2010/08/08 02:00
LFOH 080200Z AUTO 30009KT 9999NDV FEW010 16/14 Q1018

2010/08/08 02:00
LFOK 080200Z AUTO 00000KT 9999NDV NSC 15/14 Q1018

2010/08/08 02:00
LFOP 080200Z AUTO 25005KT 9999NDV OVC007 14/14 Q1018

2010/08/08 02:00
LFPB 080200Z AUTO 31003KT 280V340 9999NDV NSC 16/14 Q1018

2010/08/08 02:00
LFSN 080200Z AUTO 00000KT 9999NDV ///////// 17/12 Q1016

2010/08/08 02:00
LFKB 080200Z 22004KT 9999 FEW020 19/16 Q1017 NOSIG

2010/08/08 02:00
LFKF 080200Z AUTO 04002KT 9999NDV NCD 12/11 Q1018

2010/08/08 02:00
LFKJ 080200Z 04006KT CAVOK 16/14 Q1018 NOSIG

2010/08/08 02:00
LFLC 080200Z AUTO 00000KT 9999NDV BKN060 16/14 Q1019

2010/08/08 02:00
LFMP 080200Z AUTO 25005KT 9999NDV NSC 21/14 Q1017

2010/08/08 02:00
LFMV 080200Z AUTO VRB01KT 9999NDV NSC 14/10 Q1017

2010/08/08 02:00
LFSL 080200Z AUTO 00000KT 9999NDV NSC 16/13 Q1019

2010/08/08 02:02
KGUP 080202Z AUTO 18005KT 2SM +RA BR SCT021 BKN042 OVC065 16/14 A3021

2010/08/08 02:00
RKSI 080200Z 17009KT 140V200 9999 SCT030 BKN150 30/24 Q1011 NOSIG

2010/08/08 02:00
RKSS 080200Z 20007KT 9999 SCT030 32/22 Q1011 NOSIG 

2010/08/08 02:00
RKPC 080200Z 12016KT 090V150 9999 SCT020 32/21 Q1009 WS ALL RWY NOSIG 

2010/08/08 02:00
RKPK 080200Z 27003KT 9999 SCT030 31/21 Q1011 NOSIG 

2010/08/08 02:00
RKTU 080200Z 32003KT 9999 FEW015 FEW050 30/23 Q1011 NOSIG 

2010/08/08 02:00
RKTN 080200Z 34003KT 9999 FEW030 30/22 Q1011 NOSIG

2010/08/08 02:00
RKJB 080200Z 12007KT 070V160 9999 FEW040 31/20 Q1011 NOSIG 

2010/08/08 02:00
RKNY 080200Z 06005KT 040V100 CAVOK 27/22 Q1010 NOSIG 

2010/08/08 02:00
LFAQ 080200Z AUTO 23005KT 9999NDV BKN009 BKN015 14/13 Q1017

2010/08/08 02:00
LFBU 080200Z AUTO 33004KT 9999NDV NSC 15/13 Q1020

2010/08/08 02:00
LFLN 080200Z AUTO VRB02KT 9999NDV NSC 17/15 Q1018

2010/08/08 02:00
LFPM 080200Z AUTO 29007KT 9999NDV BKN029 BKN037 17/14 Q1018

2010/08/08 02:00
LFRH 080200Z AUTO 35004KT 9999NDV NSC 12/11 Q1021

2010/08/08 02:00
LFRQ 080200Z AUTO 31003KT 9999NDV OVC024 14/13 Q1022

2010/08/08 02:00
LFRT 080200Z AUTO 29006KT 9999NDV FEW015 OVC030 14/14 Q1021

2010/08/08 02:00
LFSD 080200Z AUTO 00000KT 9999NDV NSC 16/14 Q1017

2010/08/08 02:00
LFTW 080200Z AUTO 32004KT 9999NDV NSC 20/09 Q1017

2010/08/08 02:00
LJCE 080200Z AUTO 00000KT 9999NDV FEW002/// 14/14 Q1018

2010/08/08 01:59
NSTU 080159Z 10018KT 10SM SCT018 SCT040 BKN100 28/24 A2990 RMK SLP127 T02830243

2010/08/08 01:56
PHBK 080156Z AUTO 29008KT 10SM SCT055 30/21 A3001 RMK AO2 SLP165 T03000206 TSNO $

2010/08/08 01:56
PHNY 080156Z AUTO 04013KT 10SM BKN024 OVC032 26/20 A3008 RMK AO2 TSNO T02550200 RAE07B31E54 P0000 WSHFT 0131 SLP164 $

2010/08/08 02:00
RJSM 080200Z 28005KT 9999 FEW030 33/21 Q1013 RMK 2CU030 A2994 FCST 0208 BECMG 0203 09008KT TEMPO 0306 FEW015CU BKN030CU TEMPO 0608 -SHRA FEW015CU BKN025CU FEW025TCU/ TS AFT 06Z

2010/08/08 02:00
LFBA 080200Z AUTO 25005KT 9999NDV NSC 18/13 Q1019

2010/08/08 02:00
LFBE 080200Z AUTO 28006KT 9999NDV NSC 16/13 Q1019

2010/08/08 02:00
LFCR 080200Z AUTO 00000KT 9999NDV NSC 14/11 Q1020

2010/08/08 02:00
LFJL 080200Z AUTO 22007KT 9999NDV NSC 17/12 Q1016

2010/08/08 02:00
LFKF 080200Z AUTO 04002KT 9999NDV NCD 12/11 Q1018

2010/08/08 02:00
LFKS 080200Z AUTO 27006KT 250V310 9999NDV NSC 19/09 Q1017

2010/08/08 02:00
LFLN 080200Z AUTO VRB02KT 9999NDV NSC 17/15 Q1018

2010/08/08 02:00
LFLS 080200Z AUTO 10007KT 9999NDV NSC 14/11 Q1019

2010/08/08 02:00
LFLY 080200Z AUTO 15002KT 9999NDV NSC 16/13 Q1018

2010/08/08 02:00
LFMD 080200Z AUTO 34003KT 300V030 9999NDV NSC 17/14 Q1016

2010/08/08 02:00
LFMI 080200Z AUTO 00000KT 9999NDV NSC 18/15 Q1017

2010/08/08 02:00
LFMO 080200Z AUTO VRB03KT 9999NDV NSC 18/09 Q1017

2010/08/08 02:00
LFMT 080200Z AUTO 36003KT 9999NDV NSC 19/13 Q1017

2010/08/08 02:00
LFMU 080200Z AUTO 30002KT 9999NDV NSC 18/13 Q1017

2010/08/08 02:00
LFMY 080200Z AUTO 04004KT 9999NDV NSC 15/11 Q1017

2010/08/08 02:00
LFOB 080200Z AUTO 24005KT 9999NDV FEW009 BKN015 15/13 Q1018

2010/08/08 02:00
LFOH 080200Z AUTO 30009KT 9999NDV FEW010 16/14 Q1018

2010/08/08 02:00
LFOP 080200Z AUTO 25005KT 9999NDV OVC007 14/14 Q1018

2010/08/08 02:00
LFPB 080200Z AUTO 31003KT 280V340 9999NDV NSC 16/14 Q1018

2010/08/08 02:00
LFPM 080200Z AUTO 29007KT 9999NDV BKN029 BKN037 17/14 Q1018

2010/08/08 02:00
LFRC 080200Z AUTO 29005KT 9999NDV NSC 15/14 Q1020

2010/08/08 02:00
LFRD 080200Z AUTO 28004KT 230V340 9999NDV BKN010 OVC015 16/15 Q1020

2010/08/08 02:00
LFRH 080200Z AUTO 35004KT 9999NDV NSC 12/11 Q1021

2010/08/08 02:00
LFRK 080200Z AUTO 26009KT 9999NDV ///////// 14/13 Q1019

2010/08/08 02:00
LFRN 080200Z AUTO 29004KT 9999NDV NSC 12/11 Q1020

2010/08/08 02:00
LFRQ 080200Z AUTO 31003KT 9999NDV OVC024 14/13 Q1022

2010/08/08 02:00
LFRT 080200Z AUTO 29006KT 9999NDV FEW015 OVC030 14/14 Q1021

2010/08/08 02:00
LFSN 080200Z AUTO 00000KT 9999NDV ///////// 17/12 Q1016

2010/08/08 02:00
LFTW 080200Z AUTO 32004KT 9999NDV NSC 20/09 Q1017

2010/08/08 02:00
BIKF 080200Z 04003KT 9999 FEW030 BKN060 11/08 Q1012

2010/08/08 02:00
LUKK 080200Z 08006KT 060V130 9999 VCTS SCT050CB 23/21 Q1012 26CLRD65 NOSIG

2010/08/08 02:00
UBBB 080200Z 31004KT 8000 BCFG NSC 24/24 Q1011 NOSIG RMK R88CLRD70

2010/08/08 02:00
UHHH 080200Z METAR 28003MPS CAVOK 24/16 Q1013 NOSIG

2010/08/08 02:00
UKBB 080200Z 12002MPS CAVOK 21/14 Q1014 88CLRD95 NOSIG

2010/08/08 02:00
UKFF 080200Z 14003MPS CAVOK 20/09 Q1011 01010070 NOSIG

2010/08/08 02:00
UKLL 080200Z 18001MPS 9999 NSC 18/17 Q1014 13250550 TEMPO -TSRA BKN020CB

2010/08/08 02:00
UKOO 080200Z 03002MPS 1900 BR NSC 24/23 Q1012 16090070 NOSIG

2010/08/08 02:00
UTTT 080200Z 06004MPS CAVOK 26/09 Q1007 R08R/CLRD70 NOSIG

2010/08/08 02:03
KNUW 080203Z 14005KT 2SM -DZ BR BKN008 OVC014 18/16 A2989 RMK AO2 RAE03DZB03 P0000 $ 

2010/08/08 01:50
EGXE 080150Z AUTO 32004KT 9999NDV BKN070/// 11/11 Q1019

2010/08/08 01:50
EGUB 080150Z AUTO 00000KT 9999NDV // BKN017/// 13/12 Q1019

2010/08/08 01:50
EGXG 080150Z AUTO 33008KT 8000NDV BR NCD 12/11 Q1019

2010/08/08 01:50
EGXJ 080150Z AUTO 33006KT 8000NDV // FEW005/// BKN010/// 14/13 Q1018

2010/08/08 01:50
EGOV 080150Z AUTO 28002KT 9999NDV NCD 10/09 Q1021

2010/08/08 01:50
EGUW 080150Z AUTO 32006KT 9999NDV FEW004/// 14/13 Q1017

2010/08/08 01:50
EGXT 080150Z AUTO 31008KT 9999NDV SCT009/// SCT019/// 14/13 Q1018

2010/08/08 01:50
EGDY 080150Z AUTO 29003KT 9999NDV BKN030/// 15/12 Q1020

2010/08/08 01:50
EGYD 080150Z AUTO 31008KT 6000NDV // BKN011/// BKN029/// 14/13 Q1019

2010/08/08 01:50
EGVO 080150Z AUTO 28005KT 9999NDV NCD 13/12 Q1019

2010/08/08 01:50
EGYM 080150Z AUTO 35007KT 9999NDV SCT020/// SCT050/// 16/14 Q1017

2010/08/08 01:50
EGXZ 080150Z AUTO 35004KT 8000NDV BR BKN060/// 12/11 Q1020

2010/08/08 01:50
EGVP 080150Z AUTO 31005KT 9999NDV // NCD 12/11 Q1019

2010/08/08 01:50
EGDM 080150Z AUTO 29003KT 9999NDV NCD 12/11 Q1019

2010/08/08 01:50
EGXU 080150Z AUTO 33004KT 6000NDV // SCT060/// 11/11 Q1019

2010/08/08 01:50
EGOS 080150Z AUTO 27005KT 9999NDV OVC014/// 14/11 Q1020

2010/08/08 01:50
EGWU 080150Z AUTO 34007KT 9999NDV // NCD 14/12 Q1018

2010/08/08 01:50
EGQK 080150Z AUTO 24005KT 9999NDV OVC043/// 13/10 Q1020

2010/08/08 02:00
BIEG 080200Z 17008KT 9999 VCSH FEW020 SCT040 BKN070 09/07 Q1016

2010/08/08 02:00
BIKF 080200Z 04003KT 9999 FEW030 BKN060 11/08 Q1012

2010/08/08 02:00
BIRK 080200Z 05005KT 9999 SCT030 BKN100 12/07 Q1012

2010/08/08 01:55
KHUA 080155Z AUTO RMK AO2 SLPNO PWINO PNO TSNO $

2010/08/08 01:56
KNLC 080156Z AUTO 01008KT 10SM CLR 32/15 A2969 RMK AO2 SLP053 T03220150 TSNO $

2010/08/08 02:00
LKKV 080200Z VRB02KT CAVOK 14/11 Q1017

2010/08/08 02:00
MKJP 080200Z 01004KT 9999 FEW022 BKN240 28/21 Q1014

2010/08/08 02:00
MKJS 080200Z 18001KT 9999 VCTS SCT022 FEW024CB BKN220 28/24 Q1014

2010/08/08 02:00
MROC 080200Z 00000KT 9999 4000N -DZ BR BCFG SCT002 BKN015 21/21 A3006 NOSIG

2010/08/08 02:00
MWCR 080200Z 12008KT 9999 FEW022 BKN250 30/26 Q1014 NOSIG

2010/08/08 02:00
MZBZ 080200Z 00000KT 9999 FEW003 BKN250 27/27 A2987 Q1011 NOSIG

2010/08/08 02:00
OISS 080200Z 00000KT CAVOK 21/02 Q1015 A2997

2010/08/08 02:00
RJAW 080200Z 14008KT 9999 FEW015 BKN230 28/24 Q1013 RMK 2CU015 A2993

2010/08/08 02:00
RJSM 080200Z 28005KT 9999 FEW030 33/21 Q1013 RMK 2CU030 A2994 FCST 0208 BECMG 0203 09008KT TEMPO 0306 FEW015CU BKN030CU TEMPO 0608 -SHRA FEW015CU BKN025CU FEW025TCU/ TS AFT 06Z

2010/08/08 01:50
TJPS 080150Z 11005KT 8SM FEW030 FEW060 27/23 A2996

2010/08/08 02:00
TLPC 080200Z 12008KT 9999 FEW022 27/25 Q1014

2010/08/08 02:00
TNCC 080200Z 10008KT 9999 SCT016 29/25 Q1013 NOSIG

2010/08/08 02:00
TTCP 080200Z 05006KT 9999 FEW016 27/23 Q1014 NOSIG

2010/08/08 02:00
TTPP 080200Z 00000KT 9999 FEW016 SCT036 25/24 Q1013 NOSIG

2010/08/08 02:00
WMKJ 080200Z 20005KT 9999 FEW018 BKN280 28/24 Q1011

2010/08/08 02:00
WMKK 080200Z 00000KT 9999 FEW017CB SCT140 BKN280 28/26 Q1011 NOSIG

2010/08/08 02:00
WMKP 080200Z 00000KT 9000 -RA FEW010 FEW017CB SCT025 BKN260 25/24 Q1010 RETSRA NOSIG

2010/08/08 02:00
WMSA 080200Z 00000KT 6000 FEW017CB BKN280 29/26 Q1011

2010/08/08 02:00
YBAS 080200Z 30004KT CAVOK 19/M05 Q1017

2010/08/08 02:00
YBBN 080200Z 08005KT 9999 FEW048 20/07 Q1020 NOSIG

2010/08/08 02:00
YBCS 080200Z 13015KT 9999 FEW035 SCT050 26/12 Q1016 NOSIG

2010/08/08 02:00
YBTL 080200Z 09012KT 9999 FEW040 24/13 Q1018 NOSIG

2010/08/08 02:00
YMML 080200Z 36023KT 9999 FEW035 12/02 Q1018 FM0200 MOD TURB BLW 5000FT

2010/08/08 02:00
YPAD 080200Z 36012KT CAVOK 12/03 Q1014 NOSIG

2010/08/08 02:00
YPCC 080200Z 11015KT 9999 FEW026 27/21 Q1013

2010/08/08 02:00
YPDN 080200Z 08012KT CAVOK 30/08 Q1012 NOSIG

2010/08/08 02:00
YPKU 080200Z AUTO 14007KT 9999NDV // NCD 27/M04 Q1014

2010/08/08 02:00
YPLM 080200Z 13009KT CAVOK 22/03 Q1018

2010/08/08 02:00
YPPH 080200Z 22003KT CAVOK 14/07 Q1028 NOSIG

2010/08/08 02:00
YPTN 080200Z AUTO 12005KT 9999NDV // NCD 29/M01 Q1013

2010/08/08 02:00
YPXM 080200Z AUTO 12012KT 9999NDV // SCT022 25/19 Q1015

2010/08/08 02:00
YSSY 080200Z 28005KT 9999 FEW040 16/04 Q1020 FM0300 03012KT 9999 FEW035

2010/08/08 02:00
YBAS 080200Z 30004KT CAVOK 19/M05 Q1017

2010/08/08 02:00
YBBN 080200Z 08005KT 9999 FEW048 20/07 Q1020 NOSIG

2010/08/08 02:00
YBCS 080200Z 13015KT 9999 FEW035 SCT050 26/12 Q1016 NOSIG

2010/08/08 02:00
YBTL 080200Z 09012KT 9999 FEW040 24/13 Q1018 NOSIG

2010/08/08 02:00
YMML 080200Z 36023KT 9999 FEW035 12/02 Q1018 FM0200 MOD TURB BLW 5000FT

2010/08/08 02:00
YPAD 080200Z 36012KT CAVOK 12/03 Q1014 NOSIG

2010/08/08 02:00
YPCC 080200Z 11015KT 9999 FEW026 27/21 Q1013

2010/08/08 02:00
YPDN 080200Z 08012KT CAVOK 30/08 Q1012 NOSIG

2010/08/08 02:00
YPKU 080200Z AUTO 14007KT 9999NDV // NCD 27/M04 Q1014

2010/08/08 02:00
YPLM 080200Z 13009KT CAVOK 22/03 Q1018

2010/08/08 02:00
YPPH 080200Z 22003KT CAVOK 14/07 Q1028 NOSIG

2010/08/08 02:00
YPTN 080200Z AUTO 12005KT 9999NDV // NCD 29/M01 Q1013

2010/08/08 02:00
YPXM 080200Z AUTO 12012KT 9999NDV // SCT022 25/19 Q1015

2010/08/08 02:00
YSSY 080200Z 28005KT 9999 FEW040 16/04 Q1020 FM0300 03012KT 9999 FEW035

2010/08/08 02:05
CYPR 080205Z AUTO 17003KT 9SM SCT009 BKN025 OVC029 12/11 A2993 RMK SLP134

2010/08/08 02:00
ZBHH 080200Z 22001MPS 3500 BR FEW030 SCT040 FEW040CB 21/18 Q1010 NOSIG

2010/08/08 02:00
ZGHA 080200Z 01002MPS 330V080 CAVOK 32/27 Q1004 NOSIG

2010/08/08 02:00
ZHCC 080200Z VRB02MPS 4000 BR SKC 28/27 Q1005 NOSIG

2010/08/08 02:00
ZHHH 080200Z 12002MPS 060V230 CAVOK 32/29 Q1005 NOSIG

2010/08/08 02:00
ZJHK 080200Z 13001MPS 9999 SCT016 FEW023TCU FEW030CB 26/25 Q1004 NOSIG

2010/08/08 02:00
ZJSY 080200Z 15002MPS 100V200 9999 FEW016 29/24 Q1003 NOSIG

2010/08/08 02:00
ZLLL 080200Z VRB02MPS CAVOK 24/12 Q1015 NOSIG

2010/08/08 02:00
ZSNJ 080200Z 13004MPS 080V190 CAVOK 31/19 Q1007 NOSIG

2010/08/08 02:00
ZSOF 080200Z 14004MPS 110V180 CAVOK 32/26 Q1006 NOSIG

2010/08/08 02:00
ZUCK 080200Z 08002MPS 030V150 CAVOK 31/20 Q1006 NOSIG

2010/08/08 02:00
ZYCC 080200Z 15005MPS 9999 -RA FEW010 OVC030 20/17 Q1007 NOSIG

2010/08/08 02:00
ZYHB 080200Z 12002MPS 9999 -RA BKN033 20/17 Q1007 NOSIG

2010/08/08 02:01
K3I2 080201Z AUTO 00000KT 10SM CLR 19/18 A3001 RMK AO2

2010/08/08 02:00
KUXL 080200Z AUTO 22004KT 10SM CLR 30/26 A2989 RMK AO2

2010/08/08 02:02
KBIJ 080202Z AUTO 00000KT 10SM CLR 26/ A2994 RMK AO2 LTG DSNT W

2010/08/08 02:00
KGAO 080200Z AUTO 22004KT 10SM CLR 30/26 A2991 RMK AO2

2010/08/08 02:03
KHUM 080203Z AUTO 22003KT 10SM CLR 29/25 A2991 RMK AO2

2010/08/08 02:01
KIDI 080201Z AUTO 00000KT 10SM CLR 17/16 A3004 RMK AO2

2010/08/08 02:00
KIER 080200Z AUTO 00000KT 10SM CLR 27/26 A2986 RMK AO2 PWINO

2010/08/08 02:00
KJFZ 080200Z AUTO 10SM CLR 21/15 A3008 RMK

2010/08/08 02:01
KJYL 080201Z AUTO 00000KT 4SM BR CLR 26/26 A2994 RMK AO2

2010/08/08 01:55
KLGC 080155Z AUTO 11004KT 10SM CLR 28/24 A2994 RMK AO1

2010/08/08 02:00
KLOM 080200Z AUTO 00000KT 10SM CLR 19/16 A2998 RMK AO1 T01900164

2010/08/08 02:00
KMKJ 080200Z AUTO 00000KT 10SM CLR 20/08 A3014 RMK AO1

2010/08/08 02:00
KMQS 080200Z AUTO 00000KT 10SM CLR 22/19 A3002 RMK AO2

2010/08/08 02:00
KMTV 080200Z AUTO 00000KT 4SM BR CLR 22/21 A3003 RMK AO2

2010/08/08 02:00
KOBE 080200Z AUTO 12003KT 10SM CLR 25/25 A2997 RMK AO2

2010/08/08 02:00
KOKV 080200Z AUTO 22003KT 10SM SCT075 BKN090 25/16 A3000 RMK AO2 T02500161

2010/08/08 02:00
KOMH 080200Z AUTO 00000KT 10SM CLR 20/18 A3001 RMK AO2 T02000175

2010/08/08 02:00
KOPN 080200Z AUTO 13004KT 10SM CLR 29/25 A2997 RMK AO1

2010/08/08 02:00
KPSK 080200Z AUTO 00000KT 10SM CLR 25/16 A3009 RMK AO2

2010/08/08 02:00
KRCZ 080200Z AUTO 07004KT 10SM SCT050 27/22 A2995 RMK AO2 T02710223

2010/08/08 02:00
KRMN 080200Z AUTO 00000KT 10SM CLR 20/20 A3002 RMK AO2

2010/08/08 02:00
KSFQ 080200Z AUTO 00000KT 10SM CLR 23/19 A2999 RMK AO2

2010/08/08 02:00
KSHD 080200Z AUTO 00000KT 10SM CLR 21/17 A3003 RMK AO2

2010/08/08 02:00
KTBR 080200Z AUTO 00000KT 10SM CLR 27/25 A2993 RMK AO2 T02650250

2010/08/08 01:56
KVDF 080156Z AUTO 00000KT 10SM SCT028 SCT032 29/25 A2995 RMK AO2

2010/08/08 02:00
KVDI 080200Z AUTO 24003KT 10SM CLR 27/25 A2994 RMK AO2

2010/08/08 02:00
KVJI 080200Z AUTO 09003KT 10SM SCT060 22/18 A3005 RMK AO2 TSNO

2010/08/08 02:00
KW22 080200Z AUTO 00000KT 10SM CLR 19/16 A3006 RMK AO2

2010/08/08 02:00
KWDR 080200Z AUTO 00000KT 7SM CLR 26/23 A3001 RMK AO1

2010/08/08 02:03
KDPL 080203Z AUTO 00000KT 7SM SCT085 24/23 A2997 RMK AO2

2010/08/08 02:00
KMMU 080200Z AUTO 00000KT 10SM CLR 18/17 A2998 RMK AO2 T01820166

2010/08/08 01:56
KNMM 080156Z AUTO 00000KT 8SM CLR 26/24 A2991 RMK AO2 SLP134 T02560239 $

2010/08/08 01:56
KNXX 080156Z 00000KT 10SM CLR 23/12 A2999 RMK AO2 SLP160 T02330122 $

2010/08/08 02:03
KOCW 080203Z AUTO 09003KT 10SM CLR 26/21 A2997 RMK AO2

2010/08/08 02:00
KPCM 080200Z AUTO 25003KT 10SM CLR 28/26 A2996 RMK AO2

2010/08/08 01:55
KVAD 080155Z 22003KT 10SM R18/5500VP6000FT -RA OVC006 25/24 A2994 RMK AO2A SLP135 P0009 T02480244 $

2010/08/08 02:00
KXLL 080200Z AUTO 00000KT 7SM CLR 22/18 A3000 RMK AO2 T02190176

2010/08/08 02:00
KXSA 080200Z AUTO 00000KT 10SM CLR 21/18 A2999 RMK AO2

2010/08/08 01:58
KPAM 080158Z AUTO 11006KT 10SM TS FEW002 BKN022 OVC036 25/24 A2991 RMK AO2 RAE0158 SLP131 $

2010/08/08 01:56
KVAD 080156Z 23003KT 10SM R18/5500VP6000FT -RA OVC005 25/24 A2994 RMK AO2A SLP135 $

2010/08/08 02:03
PAEN 080203Z 20013KT 10SM -RA FEW027 SCT075 14/12 A2975 RMK AO2 P0000 $

2010/08/08 02:04
KCLM 080204Z AUTO 00000KT 10SM FEW003 BKN026 OVC036 16/14 A2990 RMK AO2

2010/08/08 02:04
KCRE 080204Z AUTO 00000KT 7SM SCT019 26/25 A2993 RMK AO2

2010/08/08 02:00
MPMG 080200Z 00000KT 9999 FEW008 SCT015 BKN080 25/23 Q1013 RERA/RWY WET/NOSIG

2010/08/08 02:00
MPDA 080200Z 00000KT 8000 -RA FEW006 SCT015 BKB080 24/24 Q1012 RWY WET

2010/08/08 02:00
TVSV 080200 09008KT 9999 -SHRA BKN016 SCT032 BKN260 25/24 Q1014

2010/08/08 02:00
SAEZ 080200Z 11002KT 3000 R11/0600U RMID/0600U R29/0600D MIFGBR 06/05 Q1022

2010/08/08 02:00
SVBM 080200Z 11005KT 9999 FEW016 23/21 Q1016

2010/08/08 02:00
SVCS 080200Z N I L 

2010/08/08 02:00
MKJS 080200Z 18001KT 9999 VCTS SCT022 FEW024CB BKN220 28/24 Q1014

2010/08/08 02:00
OEDR 080200Z VRB03KT 7000 SKC 31/20 Q0996 NOSIG

2010/08/08 02:00
LKCV 080200Z 27007KT 8000 -RA OVC037 15/14 Q1016 NOSIG

2010/08/08 02:00
LKKB 080200Z 23003KT 9999 BKN025 15/15 Q1016

2010/08/08 02:00
LKLN 080200Z AUTO 25003KT CAVOK 15/14 Q1017

2010/08/08 02:00
LKNA 080200Z 30009KT 9999 SCT010 OVC016 14/14 Q1016

2010/08/08 02:00
LKPD 080200Z 28011KT 6000 -RA SCT010 OVC040 15/15 Q1015

2010/08/08 02:00
LKPO 080200Z 17003KT 9999 OVC013 15/15 Q1015

2010/08/08 02:00
FYGB 080200Z AUTO 27002KT //// // ////// 08/M02 Q1024

2010/08/08 02:00
FYGF 080200Z AUTO 25002KT //// // ////// 06/00 Q1025

2010/08/08 02:00
FYKT 080200Z AUTO 33005KT //// // ////// 17/M02 Q1020

2010/08/08 02:00
FYLZ 080200Z 19011KT 160V230 //// VV/// 12/09 Q1020 

2010/08/08 02:00
FYML 080200Z AUTO 09004KT //// // ////// ///// Q1023

2010/08/08 02:00
FYOA 080200Z AUTO 08004KT //// // ////// 17/01 Q1019

2010/08/08 02:00
FYOJ 080200Z AUTO 01002KT //// // ////// 13/M01 Q1020

2010/08/08 02:00
FYOW 080200Z AUTO 10003KT //// // ////// 15/M02 Q1022

2010/08/08 02:00
FYWB 080200Z AUTO 04002KT //// // ////// 10/09 Q1019

2010/08/08 02:00
FYWH 080200Z AUTO 26006KT //// // ////// 09/M04 Q1026

2010/08/08 02:00
FYWW 080200Z AUTO 10004KT //// // ////// 14/M03 Q1025

2010/08/08 02:00
ZBAA 080200Z 35002MPS 300V080 CAVOK 26/19 Q1004 NOSIG

2010/08/08 02:00
ZBSJ 080200Z 33001MPS 6000 NSC 26/21 Q1004 NOSIG

2010/08/08 02:00
ZBTJ 080200Z 15003MPS 2700 BR NSC 24/21 Q1004 BECMG 3000

2010/08/08 02:00
ZBYN 080200Z 19001MPS 4000 BR NSC 24/20 Q1009 NOSIG

2010/08/08 02:00
ZGGG 080200Z VRB01MPS 7000 OVC043 29/25 Q1005 NOSIG

2010/08/08 02:00
ZSHC 080200Z 11003MPS 070V160 9999 BKN025 30/21 Q1007 NOSIG

2010/08/08 02:00
ZSPD 080200Z 11007MPS 9999 BKN020 30/24 Q1008 NOSIG

2010/08/08 02:00
ZSSS 080200Z 12005MPS 080V150 9999 BKN030 31/22 Q1008 NOSIG

2010/08/08 02:00
ZWSH 080200Z 33003MPS 8000 BKN040 27/10 Q1009 NOSIG

2010/08/08 02:00
ZWWW 080200Z VRB01MPS CAVOK 27/09 Q1009 NOSIG

2010/08/08 02:00
ZYTL 080200Z 22005MPS 170V250 9999 -TSRA SCT008 BKN033 SCT040CB 25/22 Q1006 NOSIG

2010/08/08 02:00
ZYTX 080200Z 10005MPS 4000 -RA BR SCT006 OVC026 20/19 Q1004 NOSIG

2010/08/08 02:00
UAFM 080200Z 20002MPS CAVOK 24/07 Q1010 NOSIG

2010/08/08 01:58
PTTP 080158Z 05008KT 15SM SCT018 OVC300 31/25 A2980 RMK SLP091 T03060249

2010/08/08 02:00
UTAA 080200Z 30006MPS 9999 FEW230 29/04 Q1010 NOSIG

2010/08/08 02:00
UTAK 080200Z 00000MPS CAVOK 24/10 Q1010 NOSIG

2010/08/08 02:00
UTAM 080200Z 30002MPS CAVOK 25/08 Q1006 NOSIG

2010/08/08 02:00
UTAV 080200Z 00000MPS CAVOK 21/15 Q1005

2010/08/08 02:00
LRBC 080200Z 04004KT CAVOK 23/21 Q1013

2010/08/08 02:00
LRCV 080200Z AUTO 27004KT 0900 R09/1300VP2000D FG VV002 21/20 Q1013

2010/08/08 02:00
LRSV 080200Z AUTO VRB02KT 9999 FEW130 18/17 Q1014

2010/08/08 02:00
LRTC 080200Z AUTO 00000KT 5000 BR BKN150 24/23 Q1011

2010/08/08 02:00
UDYZ 080200Z VRB01MPS 9999 SKC 20/09 Q1013 09010070 NOSIG

2010/08/08 02:00
UDSG 080200Z 00000MPS 9999 NSC 12/08 Q1019 02CLRD70 NOSIG

2010/08/08 02:00
FABL 080200Z VRB01KT CAVOK 03/M01 Q1024 NOSIG

2010/08/08 02:00
FACT 080200Z 35014KT 9999 BKN030 14/09 Q1015 NOSIG

2010/08/08 02:00
FAEL 080200Z AUTO 33013KT 9999 +RA NCD 25/M02 Q1011

2010/08/08 02:00
FAGG 080200Z AUTO 30006KT 9999 R29/M0050N R11/M0050N BKN025 12/10 Q1012

2010/08/08 02:00
FAJS 080200Z 36003KT CAVOK 09/00 Q1028 NOSIG

2010/08/08 02:00
FAKN 080200Z AUTO 26002KT //// // ////// 10/09 Q1025

2010/08/08 02:00
FALE 080200Z 04009KT CAVOK 16/13 Q1019 NOSIG

2010/08/08 02:00
FAMM 080200Z AUTO 02005KT //// // ////// 11/01 Q1025

2010/08/08 02:00
FAPE 080200Z 23015KT 9999 BKN004 13/13 Q1010 NOSIG

2010/08/08 02:00
FAPN 080200Z AUTO 02003KT //// // ////// 09/01 Q1025

2010/08/08 02:00
FAPP 080200Z AUTO 18002KT //// // ////// 06/03 Q1026

2010/08/08 02:00
FAUP 080200Z 30008KT CAVOK 15/M01 Q1020 NOSIG

2010/08/08 02:00
FLLS 080200Z 13003KT CAVOK 09/09 Q1023

2010/08/08 02:00
FQMA 080200Z 00000KT CAVOK 16/14 Q1022 NOSIG

2010/08/08 02:00
LRAR 080200Z 33004KT CAVOK 15/15 Q1017

2010/08/08 02:00
LRBM 080200Z 28006KT 250V310 9999 FEW013 SCT039 BKN060 19/18 Q1015

2010/08/08 02:00
LRCL 080200Z 29004KT CAVOK 17/16 Q1017 0829//95

2010/08/08 02:00
LROD 080200Z AUTO 20004KT 7000 +RA NCD 15/14 Q1017

2010/08/08 02:00
LRSM 080200Z AUTO 24006KT 9999 +RA BKN050 BKN080 18/18 Q1016

2010/08/08 02:00
LRTM 080200Z VRB02KT 6000 FEW034CB SCT042 18/18 Q1016 RETS 0729//95

2010/08/08 02:00
FYWB 080200Z AUTO 04002KT //// // ////// 10/09 Q1019

2010/08/08 02:00
FYWH 080200Z AUTO 26006KT //// // ////// 09/M04 Q1026

2010/08/08 02:00
DIAP 080200Z 23005KT 8000 SCT012 BKN070 25/24 Q1014 NOSIG

2010/08/08 02:00
DNMM 080200Z 25007KT 8000 SCT010 25/24 Q1013 NOSIG

2010/08/08 02:00
DXXX 080200Z 23008KT 210V270 9999 SCT010 BKN100 25/24 Q1013 NOSIG

2010/08/08 02:00
UAAA 080200Z 00000MPS 9999 FEW200 21/14 Q1010 88CLRD65 NOSIG

2010/08/08 02:00
UACC 080200Z 27002MPS 9000 BKN233 19/11 Q1013 220/0070 NOSIG RMK QFE729/0972

2010/08/08 02:00
UAKK 080200Z 00000MPS CAVOK 16/10 Q1014 050///70 NOSIG RMK QFE713/0951

2010/08/08 02:00
UARR 080200Z 36004MPS 9999 SCT050CB BKN/// 24/10 Q1016 04CLRD70 NOSIG RMK QFE758/1011

2010/08/08 02:00
UATE 080200Z 03006MPS CAVOK 24/14 Q1010 120///70 NOSIG RMK QFE755/1007

2010/08/08 02:00
UATG 080200Z 00000MPS CAVOK 22/11 Q1012 32CLRD70 NOSIG RMK QFE761/1015 

2010/08/08 02:00
UATT 080200Z 00000MPS CAVOK 21/10 Q1016 13CLRD70 NOSIG RMK QFE743/0990

2010/08/08 02:00
UAUU 080200Z 00000MPS CAVOK 22/14 Q1014 33CLRD70 NOSIG RMK QFE745/0993

2010/08/08 01:56
PHNY 080156Z AUTO 04013KT 10SM BKN024 OVC032 26/20 A3008 RMK AO2 TSNO T02550200 RAE07B31E54 P0000 WSHFT 0131 SLP164 $

2010/08/08 01:53
PABR 080153Z 08021G26KT 10SM OVC005 05/04 A2983

2010/08/08 01:53
PACD 080153Z AUTO 14018G24KT 10SM -RA BKN003 12/11 A2978

2010/08/08 01:55
PAED 080155Z AUTO 19011KT 10SM -RA BKN009 BKN013 OVC040 13/11 A2975

2010/08/08 01:55
PAEI 080155Z AUTO 00000KT 10SM BKN080 19/09 A2964

2010/08/08 01:53
PAEN 080153Z 20013KT 10SM -RA BKN027 14/12 A2975

2010/08/08 01:53
PAFA 080153Z 00000KT 10SM FEW045 BKN075 BKN180 20/10 A2963

2010/08/08 01:56
PAFS 080156Z AUTO 20005KT 10SM BKN050 12/09 A2970

2010/08/08 01:53
PAJN 080153Z 06008KT 4SM -RA BR FEW005 BKN024 OVC040 12/12 A2983

2010/08/08 01:54
PAKN 080154Z 21007KT 10SM BKN014 OVC050 12/09 A2977

2010/08/08 01:53
PAKT 080153Z 12004KT 10SM FEW013 OVC024 14/12 A2989

2010/08/08 01:53
PANC 080153Z 19005KT 7SM -RA FEW009 BKN020 OVC050 13/12 A2974

2010/08/08 01:53
PAOM 080153Z 23008KT 10SM FEW010 SCT020 SCT055 13/11 A2959

2010/08/08 01:53
PAOR 080153Z 31004KT 10SM SCT045 BKN140 BKN250 19/08 A2964

2010/08/08 01:53
PAOT 080153Z 29018KT 10SM FEW003 SCT035 BKN080 BKN180 12/11 A2956

2010/08/08 01:56
PARY 080156Z AUTO VRB05KT 10SM SCT049 BKN080 16/10 A2963

2010/08/08 01:53
PASC 080153Z 07022G28KT 10SM OVC007 06/04 A2973

2010/08/08 01:53
PASI 080153Z 21006KT 10SM BKN022 OVC028 13/12 A2985

2010/08/08 01:56
PATQ 080156Z AUTO 06018KT 10SM OVC011 07/04 A2975

2010/08/08 01:56
PAVD 080156Z 28011KT 10SM FEW030 SCT040 OVC060 14/08 A2978

2010/08/08 01:56
PAWG 080156Z 00000KT 10SM FEW005 OVC024 12/11 A2988

2010/08/08 01:53
PFYU 080153Z 26006KT 10SM SCT060 BKN100 20/ A2957

2010/08/08 02:00
PALG 080200Z AUTO 00000KT 10SM BKN009 BKN019 OVC032 12/11 A2970 RMK AO2 TSNO CIG 008V016 $

2010/08/08 02:03
KEWN 080203Z AUTO 09004KT 9SM BKN024 27/24 A2996 RMK AO2

2010/08/08 02:03
KTVL 080203Z AUTO 15015G29KT 10SM -RA OVC080 19/04 A3008 RMK AO2 PK WND 17029/0155 LTG DSNT N AND SW TSE0157 P0000

2010/08/08 02:03
PAEN 080203Z 20013KT 10SM -RA FEW027 SCT075 14/12 A2975 RMK AO2 P0000 $

2010/08/08 02:04
KCLM 080204Z AUTO 00000KT 10SM FEW003 BKN026 OVC036 16/14 A2990 RMK AO2

2010/08/08 02:04
KCRE 080204Z AUTO 00000KT 7SM SCT019 26/25 A2993 RMK AO2

2010/08/08 01:50
HLLB 080150Z 00000KT 7000 SCT015 21/18 Q1014

2010/08/08 01:50
HLLT 080150Z 11003KT CAVOK 24/17 Q1015

2010/08/08 01:58
KPAM 080158Z AUTO 11006KT 10SM TS FEW002 BKN022 OVC036 25/24 A2991 RMK AO2 RAE0158 SLP131 $

2010/08/08 01:58
KTCM 080158Z AUTO 20009KT 10SM SCT008 BKN013 BKN065 OVC080 18/16 A2991 RMK AO2 SLP129

2010/08/08 02:00
KTCM 080200Z AUTO 21009KT 10SM SCT008 BKN060 OVC080 18/16 A2991 RMK AO2 SLP129

2010/08/08 01:56
KVAD 080156Z 23003KT 10SM R18/5500VP6000FT -RA OVC005 25/24 A2994 RMK AO2A SLP135 $

2010/08/08 01:59
PHHI 080159Z AUTO 09011KT 10SM FEW032 BKN046 27/19 A3005 RMK AO2 DZE0159 SLP164 $

2010/08/08 02:03
KNUW 080203Z 14005KT 2SM -DZ BR BKN008 OVC014 18/16 A2989 RMK AO2 RAE03DZB03 P0000 $

2010/08/08 01:58
KPAM 080158Z AUTO 11006KT 10SM TS FEW002 BKN022 OVC036 25/24 A2991 RMK AO2 RAE0158 SLP131 $

2010/08/08 01:56
KVAD 080156Z 23003KT 10SM R18/5500VP6000FT -RA OVC005 25/24 A2994 RMK AO2A SLP135 $

2010/08/08 02:00
FMNM 080200Z 22004KT CAVOK 21/15 Q1018

2010/08/08 02:00
FOOL 080200Z 17006KT 130V210 9999 SCT008 OVC040 24/22 Q1014 NOSIG

2010/08/08 02:01
K3I2 080201Z AUTO 00000KT 10SM CLR 19/18 A3001 RMK AO2

2010/08/08 02:02
KBIJ 080202Z AUTO 00000KT 10SM CLR 26/ A2994 RMK AO2 LTG DSNT W

2010/08/08 02:03
KHUM 080203Z AUTO 22003KT 10SM CLR 29/25 A2991 RMK AO2

2010/08/08 02:01
KIDI 080201Z AUTO 00000KT 10SM CLR 17/16 A3004 RMK AO2

2010/08/08 02:01
KJYL 080201Z AUTO 00000KT 4SM BR CLR 26/26 A2994 RMK AO2

2010/08/08 02:03
KDPL 080203Z AUTO 00000KT 7SM SCT085 24/23 A2997 RMK AO2

2010/08/08 02:03
KOCW 080203Z AUTO 09003KT 10SM CLR 26/21 A2997 RMK AO2

2010/08/08 02:00
KNEL 080200Z AUTO 00000KT 10SM CLR 22/17 A2999 RMK AO2 SLP152 T02170167 $

2010/08/08 01:56
KNFL 080156Z AUTO 29006KT 10SM CLR 32/M03 A2977 RMK AO2 SLP060 T03171028 TSNO

2010/08/08 01:59
KNGU 080159Z 09005KT 9SM CLR 26/23 A2999 RMK AO2 SLP155 T02560233 $

2010/08/08 01:56
KNID 080156Z AUTO 17018G24KT CLR 33/01 A2973 RMK AO2 SLP048 T03330006 TSNO $

2010/08/08 01:56
KNMM 080156Z AUTO 00000KT 8SM CLR 26/24 A2991 RMK AO2 SLP134 T02560239 $

2010/08/08 01:56
KNTD 080156Z 25007KT 10SM FEW015 17/13 A2983 RMK AO2 SLP103 T01670128 $

2010/08/08 01:56
KNTU 080156Z 07004KT 6SM BR SCT007 BKN040 25/24 A2997 RMK AO2 SLP151 T02500239 $

2010/08/08 01:56
KNUW 080156Z 14006KT 10SM -RA SCT008 OVC014 18/16 A2989 RMK AO2 SLP124 P0000 T01760163 $

2010/08/08 01:56
KNXP 080156Z AUTO 22012KT CLR 33/04 A2982 RMK AO2 SLP057 T03330039 $

2010/08/08 01:56
KNXX 080156Z 00000KT 10SM CLR 23/12 A2999 RMK AO2 SLP160 T02330122 $

2010/08/08 01:52
KNZY 080152Z 29007KT 10SM SCT018 20/12 A2986 RMK AO2 SLP111 T02000117 $

2010/08/08 01:55
KTBN 080155Z AUTO 13003KT 10SM CLR 26/ A2991 RMK AO2 SLP109 T0261 $

2010/08/08 01:55
KVAD 080155Z 22003KT 10SM R18/5500VP6000FT -RA OVC006 25/24 A2994 RMK AO2A SLP135 P0009 T02480244 $

2010/08/08 01:55
KDMA 080155Z AUTO 27006KT 10SM FEW075 BKN110 BKN130 BKN180 30/17 A2989 RMK AO2 SLP059 T03010168 VISNO RWY12 CHINO RWY12 $

2010/08/08 01:55
KLUF 080155Z AUTO 02010KT 10SM BKN120 32/17 A2976 RMK AO2 LTG DSNT S SLP049 T03240170 $

2010/08/08 01:55
KNBG 080155Z 00000KT 10SM FEW060 SCT250 28/24 A2990 RMK AO2 SLP126 T02830244 $

2010/08/08 01:56
PHBK 080156Z AUTO 29008KT 10SM SCT055 30/21 A3001 RMK AO2 SLP165 T03000206 TSNO $

2010/08/08 01:56
KNMM 080156Z AUTO 00000KT 8SM CLR 26/24 A2991 RMK AO2 SLP134 T02560239 $

2010/08/08 01:56
KNXX 080156Z 00000KT 10SM CLR 23/12 A2999 RMK AO2 SLP160 T02330122 $

2010/08/08 01:55
KVAD 080155Z 22003KT 10SM R18/5500VP6000FT -RA OVC006 25/24 A2994 RMK AO2A SLP135 P0009 T02480244 $

2010/08/08 01:55
KHUA 080155Z AUTO RMK AO2 SLPNO PWINO PNO TSNO $

2010/08/08 01:56
KNLC 080156Z AUTO 01008KT 10SM CLR 32/15 A2969 RMK AO2 SLP053 T03220150 TSNO $

2010/08/08 02:00
TTPP 080200Z 00000KT 9999 FEW016 SCT036 25/24 Q1013 NOSIG

2010/08/08 01:56
KOSC 080156Z AUTO 21003KT 10SM BKN090 21/17 A2985 RMK AO2

2010/08/08 02:00
KUXL 080200Z AUTO 22004KT 10SM CLR 30/26 A2989 RMK AO2

2010/08/08 02:00
KGAO 080200Z AUTO 22004KT 10SM CLR 30/26 A2991 RMK AO2

2010/08/08 02:00
KIER 080200Z AUTO 00000KT 10SM CLR 27/26 A2986 RMK AO2 PWINO

2010/08/08 02:00
KJFZ 080200Z AUTO 10SM CLR 21/15 A3008 RMK

2010/08/08 01:55
KLGC 080155Z AUTO 11004KT 10SM CLR 28/24 A2994 RMK AO1

2010/08/08 02:00
KLOM 080200Z AUTO 00000KT 10SM CLR 19/16 A2998 RMK AO1 T01900164

2010/08/08 02:00
KMKJ 080200Z AUTO 00000KT 10SM CLR 20/08 A3014 RMK AO1

2010/08/08 02:00
KMQS 080200Z AUTO 00000KT 10SM CLR 22/19 A3002 RMK AO2

2010/08/08 02:00
KMTV 080200Z AUTO 00000KT 4SM BR CLR 22/21 A3003 RMK AO2

2010/08/08 02:00
KOBE 080200Z AUTO 12003KT 10SM CLR 25/25 A2997 RMK AO2

2010/08/08 02:00
KOKV 080200Z AUTO 22003KT 10SM SCT075 BKN090 25/16 A3000 RMK AO2 T02500161

2010/08/08 02:00
KOMH 080200Z AUTO 00000KT 10SM CLR 20/18 A3001 RMK AO2 T02000175

2010/08/08 02:00
KOPN 080200Z AUTO 13004KT 10SM CLR 29/25 A2997 RMK AO1

2010/08/08 02:00
KPSK 080200Z AUTO 00000KT 10SM CLR 25/16 A3009 RMK AO2

2010/08/08 02:00
KRCZ 080200Z AUTO 07004KT 10SM SCT050 27/22 A2995 RMK AO2 T02710223

2010/08/08 02:00
KRMN 080200Z AUTO 00000KT 10SM CLR 20/20 A3002 RMK AO2

2010/08/08 02:00
KSFQ 080200Z AUTO 00000KT 10SM CLR 23/19 A2999 RMK AO2

2010/08/08 02:00
KSHD 080200Z AUTO 00000KT 10SM CLR 21/17 A3003 RMK AO2

2010/08/08 02:00
KTBR 080200Z AUTO 00000KT 10SM CLR 27/25 A2993 RMK AO2 T02650250

2010/08/08 01:56
KVDF 080156Z AUTO 00000KT 10SM SCT028 SCT032 29/25 A2995 RMK AO2

2010/08/08 02:00
KVDI 080200Z AUTO 24003KT 10SM CLR 27/25 A2994 RMK AO2

2010/08/08 02:00
KVJI 080200Z AUTO 09003KT 10SM SCT060 22/18 A3005 RMK AO2 TSNO

2010/08/08 02:00
KW22 080200Z AUTO 00000KT 10SM CLR 19/16 A3006 RMK AO2

2010/08/08 02:00
KWDR 080200Z AUTO 00000KT 7SM CLR 26/23 A3001 RMK AO1

2010/08/08 02:00
KMMU 080200Z AUTO 00000KT 10SM CLR 18/17 A2998 RMK AO2 T01820166

2010/08/08 02:00
KPCM 080200Z AUTO 25003KT 10SM CLR 28/26 A2996 RMK AO2

2010/08/08 02:00
KXLL 080200Z AUTO 00000KT 7SM CLR 22/18 A3000 RMK AO2 T02190176

2010/08/08 02:00
KXSA 080200Z AUTO 00000KT 10SM CLR 21/18 A2999 RMK AO2

2010/08/08 01:50
TJPS 080150Z 11005KT 8SM FEW030 FEW060 27/23 A2996

2010/08/08 02:00
HAAB 080200Z 23002KT 9999 BKN023 BKN080 13/12 Q1024

2010/08/08 02:00
HKJK 080200Z 00000KT FEW006 SCT017 BKN080 15/14 Q1022 REDZ NOSIG

2010/08/08 02:00
HRYR 080200Z 28004KT CAVOK 18/12 Q1019 NOSIG

2010/08/08 02:00
GCLP 080200Z 36021KT 9999 FEW020 22/15 Q1014 NOSIG

2010/08/08 02:00
GCTS 080200Z 00000KT 9999 FEW020 21/16 Q1015 NOSIG

2010/08/08 02:00
GQNN 080200Z 26006KT 230V300 6000 BKN010 26/23 Q1010 TEMPO SCT010

2010/08/08 02:00
GBYD 080200Z 00000KT CAVOK 26/25 Q1011

2010/08/08 02:00
GOOY 080200Z 24006KT 210V280 9999 SCT013 27/22 Q1011 NOSIG

2010/08/08 02:00
YBAS 080200Z 30004KT CAVOK 19/M05 Q1017

2010/08/08 02:00
YBBN 080200Z 08005KT 9999 FEW048 20/07 Q1020 NOSIG

2010/08/08 02:00
YBCS 080200Z 13015KT 9999 FEW035 SCT050 26/12 Q1016 NOSIG

2010/08/08 02:00
YBTL 080200Z 09012KT 9999 FEW040 24/13 Q1018 NOSIG

2010/08/08 02:00
YMML 080200Z 36023KT 9999 FEW035 12/02 Q1018 FM0200 MOD TURB BLW 5000FT

2010/08/08 02:00
YPAD 080200Z 36012KT CAVOK 12/03 Q1014 NOSIG

2010/08/08 02:00
YPCC 080200Z 11015KT 9999 FEW026 27/21 Q1013

2010/08/08 02:00
YPDN 080200Z 08012KT CAVOK 30/08 Q1012 NOSIG

2010/08/08 02:00
YPLM 080200Z 13009KT CAVOK 22/03 Q1018

2010/08/08 02:00
YPPH 080200Z 22003KT CAVOK 14/07 Q1028 NOSIG

2010/08/08 02:00
YPTN 080200Z AUTO 12005KT 9999NDV // NCD 29/M01 Q1013

2010/08/08 02:00
YPXM 080200Z AUTO 12012KT 9999NDV // SCT022 25/19 Q1015

2010/08/08 02:00
YSSY 080200Z 28005KT 9999 FEW040 16/04 Q1020 FM0300 03012KT 9999 FEW035

2010/08/08 02:00
OJAM 080200Z 00000KT 5000 HZ NSC 28/04 Q1013 NOSIG

2010/08/08 02:00
OLBA 080200Z VRB03KT 8000 SCT023 28/23 Q1010 NOSIG

2010/08/08 02:00
OEDF 080200Z 10005KT CAVOK 34/06 Q0998 NOSIG

2010/08/08 02:00
OEJN 080200Z 24004KT CAVOK 30/26 Q1000 NOSIG

2010/08/08 02:00
OEMA 080200Z 06003KT CAVOK 36/02 Q1006 NOSIG

2010/08/08 02:00
OERK 080200Z 29002KT CAVOK 28/08 Q1006 NOSIG

2010/08/08 02:00
OIAA 080200Z 00000KT 9999 BKN040 31/13 Q0997

2010/08/08 02:00
OIAW 080200Z 00000KT 7000 SCT040 BKN100 33/11 Q0997 A2944

2010/08/08 02:00
OIBB 080200Z 00000KT 3000 BR SKC 32/29 Q0997 A2947

2010/08/08 02:00
OIBK 080200Z 12014KT 3000 BR SKC 32/31 Q0997 A2946

2010/08/08 02:00
OICC 080200Z 09004KT CAVOK 22/02 Q1015 A2999 866.8

2010/08/08 02:00
OICK 080200Z 12006KT CAVOK 25/M01 Q1012 A2990

2010/08/08 02:00
OIFM 080200Z 35004KT 6000 SKC 18/01 Q1018 A3008

2010/08/08 02:00
OIGG 080200Z 00000KT 6000 SKC 22/21 Q1010 A2984

2010/08/08 02:00
OIKK 080200Z 12004KT CAVOK 14/M01 Q1018 A3007

2010/08/08 02:00
OIMM 080200Z 17004KT CAVOK 20/M00 Q1013 A2994

2010/08/08 02:00
OINZ 080200Z 21004KT CAVOK 23/20 Q1010 A2985

2010/08/08 02:00
OISS 080200Z 00000KT CAVOK 21/02 Q1015 A2997

2010/08/08 02:00
OITL 080200Z 11004KT CAVOK 10/06 Q1019 A3009

2010/08/08 02:00
OITR 080200Z 27004KT 9999 FEW035 15/10 Q1016 A3003

2010/08/08 02:00
OITT 080200Z 09006KT 9999 FEW040 25/05 Q1018 A3007

2010/08/08 02:00
OIYY 080200Z 29004KT CAVOK 21/M07 Q1016 A3000

2010/08/08 02:00
OIZH 080200Z 15004KT CAVOK 20/M03 Q1011 A2985

2010/08/08 02:00
OKBK 080200Z 24004KT 8000 SKC 30/03 Q0998 NOSIG

2010/08/08 02:00
OSAP 080200Z 26005KT CAVOK 22/09 Q1009

2010/08/08 02:00
OSDI 080200Z 00000KT CAVOK 21/10 Q1011

2010/08/08 02:00
OSLK 080200Z 05005KT CAVOK 24/17 Q1008

2010/08/08 02:00
OMAA 080200Z 12007KT 5000 HZ NSC 30/26 Q0999 A2950 NOSIG

2010/08/08 02:00
OMAL 080200Z 16007KT 8000 NSC 30/18 Q1001 A2958

2010/08/08 02:00
OMDB 080200Z VRB02KT 8000 NSC 33/25 Q0998 NOSIG

2010/08/08 02:00
OMFJ 080200Z 13004KT 9999 SCT018 31/21 Q1000 A2953

2010/08/08 02:00
OMSJ 080200Z 00000KT 8000 NSC 29/27 Q0999

2010/08/08 02:00
OYAA 080200Z 22007KT 190V250 8000 NSC 31/21 Q1003 NOSIG

2010/08/08 02:00
OYHD 080200Z 00000KT 6000 NSC 32/29 Q1001

2010/08/08 01:53
PABI 080153Z 00000KT 10SM FEW020 SCT046 SCT075 BKN180 18/07 A2967

2010/08/08 01:55
PACZ 080155Z AUTO 23007KT 7SM 10/09 A2963

2010/08/08 01:56
PADK 080156Z 24022G28KT 10SM BKN007 OVC011 12/11 A2936

2010/08/08 01:55
PAEH 080155Z AUTO 17009KT 10SM BKN008 BKN013 OVC090 09/08 A2974

2010/08/08 01:58
PAGA 080158Z AUTO 19005KT 10SM FEW015 SCT038 BKN080 16/12 A2962

2010/08/08 01:55
PAIM 080155Z AUTO 21006KT 10SM SCT023 SCT065 16/12 A2961

2010/08/08 01:55
PALU 080155Z AUTO 07011KT 10SM 11/11 A2964

2010/08/08 01:55
PASV 080155Z AUTO 17004KT 10SM BKN014 BKN023 OVC028 12/09 A2973

2010/08/08 01:56
PASY 080156Z AUTO 25029G33KT 5SM BR OVC003 10/10 A2902

2010/08/08 01:55
PATC 080155Z AUTO 01014KT 10SM OVC008 09/07 A2963

2010/08/08 01:55
PATL 080155Z AUTO 21006KT 10SM SCT015 BKN024 OVC055 12/09 A2969

2010/08/08 02:00
OMAD 080200Z 12005KT 5000 HZ NSC 31/28 Q0998 A2950

2010/08/08 02:00
SLCO 080200Z 00000KT 7000 SKC 23/19 Q1014

2010/08/08 02:00
SBBE 080200Z 08006KT 9999 FEW017 SCT100 26/22 Q1014

2010/08/08 02:00
SBBR 080200Z 00000KT CAVOK 18/06 Q1024

2010/08/08 02:00
SBBV 080200Z 35004KT 9999 -RA FEW015 SCT020 BKN070 25/23 Q1015

2010/08/08 02:00
SBCF 080200Z 16001KT CAVOK 15/09 Q1023

2010/08/08 02:00
SBCG 080200Z 09008KT CAVOK 17/05 Q1017

2010/08/08 02:00
SBEG 080200Z 00000KT CAVOK 25/23 Q1014

2010/08/08 02:00
SBFI 080200Z 13008KT CAVOK 14/11 Q1016

2010/08/08 02:00
SBFZ 080200Z 10013KT 9999 SCT017 25/22 Q1016

2010/08/08 02:00
SBGL 080200Z 13004KT CAVOK 17/14 Q1019

2010/08/08 02:00
SBGR 080200Z 11002KT 6000 NSC 12/11 Q1021

2010/08/08 02:00
SBKP 080200Z 11008KT CAVOK 12/07 Q1020

2010/08/08 02:00
SBNT 080200Z 16006KT 9999 FEW020 23/21 Q1017

2010/08/08 02:00
SBPA 080200Z 16005KT 7000 BKN007 11/11 Q1019

2010/08/08 02:00
SBPS 080200Z 29003KT 9999 SCT020 18/17 Q1021

2010/08/08 02:00
SBRF 080200Z 24006KT 9999 SCT020 21/19 Q1018

2010/08/08 02:00
SBSL 080200Z 06009KT CAVOK 26/24 Q1015

2010/08/08 02:00
SBSN 080200Z 09006KT 9999 SCT013 OVC100 25/23 Q1013 RETS

2010/08/08 02:00
SBSV 080200Z 16004KT 9999 SCT017 23/17 Q1020

2010/08/08 02:00
SBAR 080200Z 13004KT CAVOK 24/19 Q1019

2010/08/08 02:00
SBCT 080200Z 35002KT CAVOK 09/08 Q1021

2010/08/08 02:00
SBCY 080200Z 19003KT CAVOK 24/12 Q1014

2010/08/08 02:00
SBFL 080200Z 30006KT CAVOK 15/14 Q1019

2010/08/08 02:00
SBGO 080200Z 33003KT CAVOK 19/12 Q1020

2010/08/08 02:00
SBLO 080200Z 27002KT CAVOK 14/08 Q1020

2010/08/08 02:00
SBMA 080200Z 00000KT CAVOK 27/22 Q1014

2010/08/08 02:00
SBMN 080200Z 30005KT CAVOK 29/23 Q1014

2010/08/08 02:00
SBMO 080200Z 00000KT 9999 SCT017 SCT100 20/18 Q1020

2010/08/08 02:00
SBMQ 080200Z 36002KT 9999 SCT017 25/25 Q1014

2010/08/08 02:00
SBPV 080200Z 00000KT CAVOK 22/18 Q1013

2010/08/08 02:00
SBRB 080200Z 00000KT 5000 FU NSC 25/16 Q1014

2010/08/08 02:00
SBRJ 080200Z 07006KT CAVOK 20/16 Q1019

2010/08/08 02:00
SBSJ 080200Z 00000KT CAVOK 14/11 Q1021

2010/08/08 02:00
SBSP 080200Z 19001KT 0300 R17/0450 R35///// FG NSC 13/12 Q1022

2010/08/08 02:00
SBTE 080200Z 34002KT CAVOK 27/22 Q1014

2010/08/08 02:00
SBVT 080200Z 31003KT CAVOK 18/16 Q1022

2010/08/08 01:53
TIST 080153Z AUTO 08009KT 10SM FEW038 SCT090 29/23 A2998

2010/08/08 01:53
TISX 080153Z AUTO 08010KT 10SM CLR 28/23 A2998

2010/08/08 01:50
TJPS 080150Z 11005KT 8SM FEW030 FEW060 27/23 A2996

2010/08/08 01:56
TJSJ 080156Z 08010KT 10SM SCT026 28/23 A3000

2010/08/08 02:00
SBPB 080200Z 09010KT CAVOK 26/21 Q1014

2010/08/08 02:00
SBPL 080200Z 13010KT CAVOK 22/16 Q1020

2010/08/08 02:00
SBRP 080200Z 11002KT CAVOK 18/11 Q1019

2010/08/08 02:00
MKJP 080200Z 01004KT 9999 FEW022 BKN240 28/21 Q1014

2010/08/08 02:00
MKJS 080200Z 18001KT 9999 VCTS SCT022 FEW024CB BKN220 28/24 Q1014

2010/08/08 01:50
MUCM 080150Z 00000KT 9000 FEW020 26/21 Q1016

2010/08/08 01:50
MUCU 080150Z 05002KT 9999 FEW025 27/24 Q1016

2010/08/08 01:55
MUHA 080155Z 08004KT 9000 FEW020 27/24 Q1015

2010/08/08 01:54
MUVR 080154Z VRB02KT 9000 FEW016CB 24/21 Q1016

2010/08/08 02:00
MWCR 080200Z 12008KT 9999 FEW022 BKN250 30/26 Q1014 NOSIG

2010/08/08 01:59
MYEG 080159Z AUTO 08004KT 10SM CLR 28/23 A3000 RMK AO2

2010/08/08 01:53
PHJR 080153Z VRB06G18KT 10SM BKN049 30/18 A3003

2010/08/08 01:53
PHKO 080153Z 25007KT 10SM OVC050 27/21 A3000

2010/08/08 01:53
PHLI 080153Z AUTO 06011KT 10SM SCT018 BKN026 BKN047 27/21 A3006

2010/08/08 01:53
PHNL 080153Z 04010G17KT 10SM FEW026 SCT045 SCT060 30/19 A3002

2010/08/08 01:54
PHOG 080154Z 06022G29KT 10SM FEW035 SCT045 30/19 A2999

2010/08/08 01:53
PHTO 080153Z 09008KT 10SM SCT025 BKN065 27/21 A3004

2010/08/08 02:00
MDPC 080200Z 04015KT 9999 FEW020 28/25 Q1013

2010/08/08 02:00
MDSD 080200Z 06005KT 9999 FEW020 24/22 Q1015 DU/ALL QDS

2010/08/08 02:00
MDST 080200Z 10008KT 5000 DU FEW016CB SCT018 BKN070 27/26 Q1015 CB/W/N W DU/ALL QDS

2010/08/08 02:00
MDST 080200Z 10008KT 5000 DU FEW016CB SCT018 BKN070 27/26 Q1015 CB/W/NW DU/ALL QDS

2010/08/08 02:00
TAPA 080200Z 07012KT 9999 SCT019 28/24 Q1014

2010/08/08 01:53
TIST 080153Z AUTO 08009KT 10SM FEW038 SCT090 29/23 A2998 RMK AO2 SLP153 T02890233 TSNO $

2010/08/08 01:53
TISX 080153Z AUTO 08010KT 10SM CLR 28/23 A2998 RMK AO2 SLP152 T02830233 TSNO $

2010/08/08 01:50
TJPS 080150Z 11005KT 8SM FEW030 FEW060 27/23 A2996

2010/08/08 01:56
TJSJ 080156Z 08010KT 10SM SCT026 28/23 A3000 RMK AO2 SLP158 T02830233

2010/08/08 02:00
TKPK 080200Z 05010KT 9999 SCT018 28/24 Q1015

2010/08/08 02:00
TUPJ 080200Z 11015KT 9999 SCT020 28/24 A2999

2010/08/08 02:00
TFFF 080200Z VRB03KT 9999 SCT012 SCT016 25/24 Q1014 RESHRA NOSIG

2010/08/08 02:00
TFFR 080200Z 07007KT 9999 FEW026 27/23 Q1014 NOSIG

2010/08/08 02:00
TLPC 080200Z 12008KT 9999 FEW022 27/25 Q1014

2010/08/08 02:00
TLPL 080200Z 09014KT 9999 SCT018 SCT040 BKN260 28/25 Q1014

2010/08/08 02:00
TNCC 080200Z 10008KT 9999 SCT016 29/25 Q1013 NOSIG

2010/08/08 02:00
TTCP 080200Z 05006KT 9999 FEW016 27/23 Q1014 NOSIG

2010/08/08 02:00
TTPP 080200Z 00000KT 9999 FEW016 SCT036 25/24 Q1013 NOSIG

2010/08/08 01:54
PGSN 080154Z 07013G17KT 10SM FEW017 SCT028 SCT037 31/26 A2986

2010/08/08 01:55
PGUA 080155Z AUTO 07012G17KT 10SM BKN017 BKN023 BKN055 28/25 A2986

2010/08/08 01:54
PGUM 080154Z 08014KT 10SM FEW023 31/24 A2985

2010/08/08 02:00
PKWA 080200Z AUTO 09010KT 10SM CLR 30/23 A2980

2010/08/08 01:54
PWAK 080154Z 13010KT 8SM HZ FEW032 30/24 A2992

2010/08/08 02:00
MGPB 080200Z 00000KT 9999 FEW016 SCT090 26/25 Q1011 A2985

2010/08/08 02:00
MGSJ 080200Z 00000KT 9999 SCT018 FEW025CB BKN110 27/25 Q1013 A2991 CB/LTNG/W/WNW

2010/08/08 02:00
MHLC 080200Z 13002KT 9999 SCT022CB SCT080 BKN220 26/24 Q1011 A2988 NOSIG

2010/08/08 02:00
MHLM 080200Z 00000KT 9999 FEW025CB BKN250 27/26 Q1011 A2986 NOSIG

2010/08/08 02:00
MHTG 080200Z 25005KT 9999 TS BKN028CB BKN250 22/20 Q1017 A3003 NOSIG

2010/08/08 02:00
MPTO 080200Z 00000KT 9999 SCT016 BKN090 25/24 Q1011 NOSIG

2010/08/08 02:00
MROC 080200Z 00000KT 9999 4000N -DZ BR BCFG SCT002 BKN015 21/21 A3006 NOSIG

2010/08/08 01:50
MSLP 080150Z 00000KT 9999 SCT020 SCT070 BKN300 26/25 Q1011 DSTN LTGIC NNE

2010/08/08 01:50
MSLP 080150Z 00000KT 9999 SCT020 SCT070 BKN300 26/25 Q1011 A2988 DSTN LTGIC TO NE/E

2010/08/08 01:50
MSSS 080150Z 18003KT 9999 SCT027 FEW040CB SCT300 24/22 Q1015 CB NE/E

2010/08/08 01:50
MSSS 080150Z 18003KT 9999 SCT027 FEW040CB SCT300 24/22 Q1015 A3000 LTGIC TO NE/E

2010/08/08 02:00
MZBZ 080200Z 00000KT 9999 FEW003 BKN250 27/27 A2987 Q1011 NOSIG

2010/08/08 01:50
MUCM 080150Z 00000KT 9000 FEW020 26/21 Q1016

2010/08/08 01:50
MUCU 080150Z 05002KT 9999 FEW025 27/24 Q1016

2010/08/08 01:56
MUGM 080156Z 12005KT 9999 FEW045 SCT250 29/24 A2998 RMK SLP150 T02940244

2010/08/08 01:55
MUHA 080155Z 08004KT 9000 FEW020 27/24 Q1015

2010/08/08 01:54
MUVR 080154Z VRB02KT 9000 FEW016CB 24/21 Q1016

2010/08/08 02:00
LPAZ 080200Z 04003KT 9999 FEW020 19/17 Q1022

2010/08/08 02:00
LPLA 080200Z 20003KT 9999 FEW018 SCT035 20/19 Q1024

2010/08/08 02:00
LPPD 080200Z 02003KT 350V060 9999 FEW020 19/16 Q1022

2010/08/08 02:00
MGGT 080200Z 00000KT 9999 FEW016 FEW020CB SCT080 19/17 Q1024 A3024 CB/LTNG/SSE/S VOL/ DE PACAYA EN ACTIVIDAD

2010/08/08 02:00
MGGT 080200Z 00000KT 9999 FEW016 FEW020CB SCT080 19/17 Q1024 A3024 CB/LTNG/SSE/S VOL. DE PACAYA EN ACTIVIDAD

2010/08/08 02:00
MGHT 080200Z 00000KT 9999 -DZ OVC025 17/17 QFE817/5

2010/08/08 02:00
MGHT 080200Z 00000KT 9999 -DZ OVC025 17/17 QFE817.5

2010/08/08 02:00
MHCA 080200Z 05004KT 9999 SCT028TCU 26/23 TCU TD

2010/08/08 02:00
MHSR 080200Z 00000KT 4000 BR SCT009 SCT020CB BKN250 20/20 4KM TD CL BR CB LTNG SW

2010/08/08 01:50
MSAC 080150Z 04003KT 9999 SCT027 FEW036CB SCT180 27/26 Q1011 CB W

2010/08/08 02:00
ZBAA 080200Z 35002MPS 300V080 CAVOK 26/19 Q1004 NOSIG

2010/08/08 02:00
ZBTJ 080200Z 15003MPS 2700 BR NSC 24/21 Q1004 BECMG 3000

2010/08/08 02:00
ZBYN 080200Z 19001MPS 4000 BR NSC 24/20 Q1009 NOSIG

2010/08/08 02:00
ZGGG 080200Z VRB01MPS 7000 OVC043 29/25 Q1005 NOSIG

2010/08/08 02:00
ZGNN 080200Z VRB01MPS 9999 SCT016 29/25 Q1006 NOSIG

2010/08/08 02:00
ZGSZ 080200Z VRB01MPS 9999 FEW021 BKN050 30/24 Q1005 NOSIG

2010/08/08 02:00
ZHHH 080200Z 12002MPS 060V230 CAVOK 32/29 Q1005 NOSIG

2010/08/08 02:00
ZLLL 080200Z VRB02MPS CAVOK 24/12 Q1015 NOSIG

2010/08/08 02:00
ZMUB 080200Z 34008MPS 310V010 9999 BKN033 10/01 Q1013 NOSIG RMK QFE653.0 55

2010/08/08 02:00
ZPPP 080200Z 17002MPS 100V260 6000 SCT026 22/16 Q1018 NOSIG

2010/08/08 02:00
ZSAM 080200Z 04007MPS 9999 SCT033 32/22 Q1004 NOSIG

2010/08/08 02:00
ZSHC 080200Z 11003MPS 070V160 9999 BKN025 30/21 Q1007 NOSIG

2010/08/08 02:00
ZSNJ 080200Z 13004MPS 080V190 CAVOK 31/19 Q1007 NOSIG

2010/08/08 02:00
ZSOF 080200Z 14004MPS 110V180 CAVOK 32/26 Q1006 NOSIG

2010/08/08 02:00
ZSPD 080200Z 11007MPS 9999 BKN020 30/24 Q1008 NOSIG

2010/08/08 02:00
ZSSS 080200Z 12005MPS 080V150 9999 BKN030 31/22 Q1008 NOSIG

2010/08/08 02:00
ZUCK 080200Z 08002MPS 030V150 CAVOK 31/20 Q1006 NOSIG

2010/08/08 02:00
ZUUU 080200Z 00000MPS CAVOK 31/23 Q1006 NOSIG

2010/08/08 02:00
ZWWW 080200Z VRB01MPS CAVOK 27/09 Q1009 NOSIG

2010/08/08 02:00
ZYHB 080200Z 12002MPS 9999 -RA BKN033 20/17 Q1007 NOSIG

2010/08/08 02:00
ZYTL 080200Z 22005MPS 170V250 9999 -TSRA SCT008 BKN033 SCT040CB 25/22 Q1006 NOSIG

2010/08/08 01:54
PGRO 080154Z 07016KT 7SM FEW035 30/24 A2987

2010/08/08 01:54
PGSN 080154Z 07013G17KT 10SM FEW017 SCT028 SCT037 31/26 A2986

2010/08/08 01:54
PGUM 080154Z 08014KT 10SM FEW023 31/24 A2985

2010/08/08 01:57
PGWT 080157Z 08015KT 7SM SCT015 SCT180 32/25 A2985

2010/08/08 01:50
PKMR 080150Z 10008KT 20SM FEW016 BKN300 31/24 A2980

2010/08/08 02:00
PKWA 080200Z AUTO 09010KT 10SM CLR 30/23 A2980

2010/08/08 01:53
PTKK 080153Z 13008KT 15SM SCT014CB BKN120 OVC280 31/26 A2978

2010/08/08 01:50
PTKR 080150Z 35008KT 15SM FEW018TCU BKN120 OVC300 30/24 A2983

2010/08/08 01:50
PTRO 080150Z 28006KT 15SM SCT016TCU BKN120 OVC300 29/25 A2985

2010/08/08 01:58
PTTP 080158Z 05008KT 15SM SCT018 OVC300 31/25 A2980

2010/08/08 01:50
PTYA 080150Z 30008KT 12SM SCT015TCU BKN130 OVC300 31/26 A2976

2010/08/08 01:54
PWAK 080154Z 13010KT 8SM HZ FEW032 30/24 A2992

2010/08/08 02:00
EPGD 080200Z 17003KT 130V200 5000 BR FEW005 BKN011 19/17 Q1011

2010/08/08 02:00
EPKK 080200Z 24004KT 9999 BKN046 16/14 Q1014

2010/08/08 02:00
EPKT 080200Z 23006KT 9999 SCT045 15/13 Q1014

2010/08/08 02:00
EPPO 080200Z 29007KT 9999 BKN005 16/16 Q1012

2010/08/08 02:00
EPRZ 080200Z 25003KT CAVOK 17/16 Q1014

2010/08/08 02:00
EPWA 080200Z VRB03KT CAVOK 18/16 Q1012 NOSIG

2010/08/08 02:00
UKBB 080200Z 12002MPS CAVOK 21/14 Q1014 88CLRD95 NOSIG

2010/08/08 02:00
UKLL 080200Z 18001MPS 9999 NSC 18/17 Q1014 13250550 TEMPO -TSRA BKN020CB

2010/08/08 02:00
UKOO 080200Z 03002MPS 1900 BR NSC 24/23 Q1012 16090070 NOSIG

2010/08/08 02:00
LBBG 080200Z 35004MPS CAVOK 25/23 Q1011 NOSIG

2010/08/08 02:00
LBPD 080200Z 00000MPS CAVOK 22/18 Q1012 NOSIG

2010/08/08 02:00
LBSF 080200Z 29004MPS 7000 FEW026 SCT050 BKN082 20/18 Q1015 TEMPO 4000 BR

2010/08/08 02:00
LBWN 080200Z VRB01MPS CAVOK 24/23 Q1011 NOSIG

2010/08/08 02:00
LHBP 080200Z 24007KT 9999 SCT016 BKN040 16/15 Q1016 NOSIG

2010/08/08 02:00
LRBS 080200Z AUTO 29005KT NCD 22/20 Q1012 NOSIG

2010/08/08 02:00
LRCK 080200Z 30002KT 2000 BR SCT012 FEW035CB 24/24 Q1012 NOSIG

2010/08/08 02:00
LROP 080200Z 26005KT 6000 FEW050CB 21/21 Q1012 8809//95 NOSIG

2010/08/08 02:00
LRTR 080200Z 36003KT CAVOK 17/16 Q1016

2010/08/08 02:00
LDDU 080200Z 03005KT 330V090 CAVOK 20/12 Q1015

2010/08/08 02:00
LDOS 080200Z 27003KT CAVOK 16/15 Q1017

2010/08/08 02:00
LDPL 080200Z VRB02KT CAVOK 17/11 Q1017

2010/08/08 02:00
LDSP 080200Z VRB01KT CAVOK 21/14 Q1016

2010/08/08 02:00
LDZA 080200Z 00000KT CAVOK 16/14 Q1017 NOSIG

2010/08/08 02:00
LDZD 080200Z 00000KT 8000 NSC 16/15 Q1016

2010/08/08 02:00
LJLJ 080200Z 00000KT CAVOK 12/11 Q1018 NOSIG

2010/08/08 02:00
LJMB 080200Z VRB02KT 9999 FEW006 13/13 Q1018

2010/08/08 02:00
LJPZ 080200Z AUTO 12007KT 9999NDV NCD 15/12 Q1017

2010/08/08 02:00
LKMT 080200Z 22006KT 9999 SCT023 OVC030 15/14 Q1015 NOSIG

2010/08/08 02:00
LKPR 080200Z 21005KT 9999 BKN012 15/14 Q1016 NOSIG

2010/08/08 02:00
LKTB 080200Z 22002KT 4500 BR FEW003 OVC017 16/15 Q1015 NOSIG

2010/08/08 02:00
LQSA 080200Z 31004KT 290V350 8000 BKN040 15/14 Q1019

2010/08/08 02:00
LWOH 080200Z 33002KT CAVOK 13/11 Q1017

2010/08/08 02:00
LYBE 080200Z 24003KT CAVOK 18/17 Q1017 NOSIG

2010/08/08 02:00
LYNI 080200Z 31006KT 9999 FEW040 19/17 Q1016

2010/08/08 02:00
LYPG 080200Z 02004KT CAVOK 20/15 Q1015 NOSIG

2010/08/08 02:00
LYTV 080200Z 00000KT CAVOK 14/13 Q1014

2010/08/08 02:00
LZIB 080200Z 28008KT 250V310 9999 -RA FEW009 BKN013 OVC025 16/14 Q1016

2010/08/08 02:00
LZKZ 080200Z 17003KT CAVOK 14/13 Q1015

2010/08/08 02:00
LZTT 080200Z 28005KT CAVOK 11/10 Q1015

2010/08/08 02:00
LPFR 080200Z 14005KT 110V190 9999 FEW045 BKN100 26/21 Q1016

2010/08/08 02:00
LPPR 080200Z 00000KT CAVOK 20/16 Q1014

2010/08/08 02:00
LPPS 080200Z 02008KT 350V050 9999 SCT015 BKN030 21/16 Q1017

2010/08/08 02:00
LPPT 080200Z 13002KT CAVOK 27/09 Q1014 NOSIG

2010/08/08 02:00
LFBD 080200Z 30004KT CAVOK 16/15 Q1020 NOSIG

2010/08/08 02:00
LFBH 080200Z AUTO 32011KT 9999NDV SCT012 17/15 Q1020

2010/08/08 02:00
LFBI 080200Z AUTO 31004KT 9999NDV NSC 15/12 Q1020

2010/08/08 02:00
LFBO 080200Z 27005KT 240V310 CAVOK 20/15 Q1019 NOSIG

2010/08/08 02:00
LFBP 080200Z AUTO 28006KT 9999NDV BKN007 17/16 Q1021

2010/08/08 02:00
LFBT 080200Z AUTO 25006KT 210V280 9999NDV NSC 16/14 Q1021

2010/08/08 02:00
LFBZ 080200Z AUTO 00000KT 9999NDV SCT020 BKN029 18/16 Q1021

2010/08/08 02:00
LFKB 080200Z 22004KT 9999 FEW020 19/16 Q1017 NOSIG

2010/08/08 02:00
LFKJ 080200Z 04006KT CAVOK 16/14 Q1018 NOSIG

2010/08/08 02:00
LFLB 080200Z AUTO 13003KT 9999NDV NSC 13/12 Q1019

2010/08/08 02:00
LFLC 080200Z AUTO 00000KT 9999NDV BKN060 16/14 Q1019

2010/08/08 02:00
LFLL 080200Z 15006KT CAVOK 17/12 Q1018 NOSIG

2010/08/08 02:00
LFLS 080200Z AUTO 10007KT 9999NDV NSC 14/11 Q1019

2010/08/08 02:00
LFLY 080200Z AUTO 15002KT 9999NDV NSC 16/13 Q1018

2010/08/08 02:00
LFMD 080200Z AUTO 34003KT 300V030 9999NDV NSC 17/14 Q1016

2010/08/08 02:00
LFML 080200Z AUTO 14003KT 9999NDV NCD 18/14 Q1017

2010/08/08 02:00
LFMN 080200Z 33006KT 9999 FEW015 20/14 Q1017 NOSIG

2010/08/08 02:00
LFMP 080200Z AUTO 25005KT 9999NDV NSC 21/14 Q1017

2010/08/08 02:00
LFMT 080200Z AUTO 36003KT 9999NDV NSC 19/13 Q1017

2010/08/08 02:00
LFOB 080200Z AUTO 24005KT 9999NDV FEW009 BKN015 15/13 Q1018

2010/08/08 02:00
LFOH 080200Z AUTO 30009KT 9999NDV FEW010 16/14 Q1018

2010/08/08 02:00
LFPB 080200Z AUTO 31003KT 280V340 9999NDV NSC 16/14 Q1018

2010/08/08 02:00
LFPG 080200Z 30006KT 9999 FEW025 15/13 Q1018 NOSIG

2010/08/08 02:00
LFPO 080200Z 29003KT 9999 FEW032 BKN060 15/14 Q1018 NOSIG

2010/08/08 02:00
LFQQ 080200Z AUTO 25003KT 9999NDV FEW009 SCT036 OVC068 15/14 Q1016

2010/08/08 02:00
LFRB 080200Z 29003KT 9999 FEW029 14/13 Q1021 TEMPO 3000 BR BKN003

2010/08/08 02:00
LFRC 080200Z AUTO 29005KT 9999NDV NSC 15/14 Q1020

2010/08/08 02:00
LFRD 080200Z AUTO 28004KT 230V340 9999NDV BKN010 OVC015 16/15 Q1020

2010/08/08 02:00
LFRK 080200Z AUTO 26009KT 9999NDV ///////// 14/13 Q1019

2010/08/08 02:00
LFRN 080200Z AUTO 29004KT 9999NDV NSC 12/11 Q1020

2010/08/08 02:00
LFRO 080200Z AUTO 29005KT 9999NDV BKN027 14/13 Q1021

2010/08/08 02:00
LFRQ 080200Z AUTO 31003KT 9999NDV OVC024 14/13 Q1022

2010/08/08 02:00
LFRS 080200Z 36003KT 9999 FEW035 14/12 Q1020 NOSIG

2010/08/08 02:00
LFRT 080200Z AUTO 29006KT 9999NDV FEW015 OVC030 14/14 Q1021

2010/08/08 02:00
LFRZ 080200Z AUTO VRB02KT 9999NDV NSC 13/11 Q1021

2010/08/08 02:00
LFSB 080200Z AUTO 16005KT 9999NDV NSC 16/13 Q1018

2010/08/08 02:00
LFSN 080200Z AUTO 00000KT 9999NDV ///////// 17/12 Q1016

2010/08/08 02:00
LFST 080200Z AUTO 18003KT 9999NDV //////TCU 17/13 Q1016

2010/08/08 02:00
LFTW 080200Z AUTO 32004KT 9999NDV NSC 20/09 Q1017

2010/08/08 02:00
LFBA 080200Z AUTO 25005KT 9999NDV NSC 18/13 Q1019

2010/08/08 02:00
LFBC 080200Z AUTO VRB01KT 9999NDV NSC 14/12 Q1021

2010/08/08 02:00
LFBL 080200Z AUTO 34005KT 9999NDV NSC 15/12 Q1020

2010/08/08 02:00
LFBM 080200Z AUTO 29005KT 9999NDV NSC 15/14 Q1021

2010/08/08 02:00
LFKF 080200Z AUTO 04002KT 9999NDV NCD 12/11 Q1018

2010/08/08 02:00
LFOE 080200Z AUTO 26005KT 9999NDV NSC 13/12 Q1019

2010/08/08 02:00
LFOP 080200Z AUTO 25005KT 9999NDV OVC007 14/14 Q1018

2010/08/08 02:00
LFPB 080200Z AUTO 31003KT 280V340 9999NDV NSC 16/14 Q1018

2010/08/08 02:00
LFPG 080200Z 30006KT 9999 FEW025 15/13 Q1018 NOSIG

2010/08/08 02:00
LFPV 080200Z AUTO 27004KT 9999NDV SCT046 SCT056 BKN230 15/13 Q1018

2010/08/08 02:00
LFQQ 080200Z AUTO 25003KT 9999NDV FEW009 SCT036 OVC068 15/14 Q1016

2010/08/08 02:00
LFRH 080200Z AUTO 35004KT 9999NDV NSC 12/11 Q1021

2010/08/08 02:00
LFSD 080200Z AUTO 00000KT 9999NDV NSC 16/14 Q1017

2010/08/08 02:00
LFSI 080200Z AUTO 32006KT 9999NDV OVC015 17/15 Q1018

2010/08/08 02:00
LFSL 080200Z AUTO 00000KT 9999NDV NSC 16/13 Q1019

2010/08/08 02:00
LFSO 080200Z AUTO 24004KT 9999NDV NSC 16/13 Q1017

2010/08/08 02:00
LFSX 080200Z AUTO 11003KT 9999NDV NSC 15/14 Q1018

2010/08/08 02:00
LFTH 080200Z AUTO 02002KT 9999NDV NSC 14/11 Q1016

2010/08/08 02:00
EICK 080200Z 32006KT 9999 FEW016 11/10 Q1023 NOSIG

2010/08/08 02:00
EIDW 080200Z 30005KT 9999 FEW025 BKN036 12/11 Q1022 NOSIG

2010/08/08 02:00
EINN 080200Z 33002KT 9999 SCT034 11/10 Q1023 NOSIG

2010/08/08 01:56
KABQ 080156Z 31007KT 10SM FEW065 SCT100 SCT200 27/11 A3004

2010/08/08 01:52
KATL 080152Z 14006KT 10SM FEW045 28/22 A2996

2010/08/08 01:53
KBGR 080153Z 18004KT 10SM FEW080 13/08 A2999

2010/08/08 01:53
KBHM 080153Z 00000KT 10SM CLR 30/20 A2993

2010/08/08 01:53
KBNA 080153Z 07006KT 9SM CLR 27/18 A2994

2010/08/08 01:54
KBOS 080154Z 29003KT 10SM FEW065 SCT250 24/06 A3000

2010/08/08 01:54
KBWI 080154Z 18003KT 10SM CLR 24/14 A2997

2010/08/08 01:56
KCHS 080156Z 26003KT 9SM FEW043 27/23 A2991

2010/08/08 01:51
KCLE 080151Z 18005KT 10SM SCT250 23/15 A3000

2010/08/08 01:52
KCLT 080152Z 09004KT 10SM CLR 28/18 A2998

2010/08/08 01:52
KCVG 080152Z 17003KT 10SM FEW065 24/14 A2998

2010/08/08 01:53
KDEN 080153Z 04004KT 10SM FEW050 SCT080 BKN120 21/14 A2998

2010/08/08 01:53
KDFW 080153Z 17010KT 10SM FEW060 SCT120 SCT250 34/20 A2980

2010/08/08 01:53
KDTW 080153Z 20005KT 7SM FEW090 SCT200 23/17 A2994

2010/08/08 01:51
KEWR 080151Z 00000KT 10SM FEW100 SCT250 25/19 A2997

2010/08/08 01:53
KFLL 080153Z 19004KT 10SM FEW050 27/24 A2996

2010/08/08 01:52
KIAD 080152Z 15003KT 10SM CLR 22/16 A2998

2010/08/08 01:53
KIAH 080153Z 17005KT 10SM FEW040 SCT110 SCT250 31/23 A2987

2010/08/08 01:54
KIND 080154Z 22004KT 10SM CLR 24/16 A2994

2010/08/08 01:56
KJAX 080156Z 00000KT 10SM FEW005 SCT032 OVC150 24/23 A2992

2010/08/08 01:51
KJFK 080151Z 18009KT 10SM FEW250 24/19 A2999

2010/08/08 01:56
KLAS 080156Z 17016G23KT 10SM SCT120 SCT150 35/10 A2969

2010/08/08 01:53
KLAX 080153Z 26010KT 10SM FEW010 17/12 A2985

2010/08/08 01:51
KLGA 080151Z 17008KT 10SM FEW085 SCT250 26/19 A2997

2010/08/08 01:53
KLIT 080153Z 14005KT 10SM FEW150 BKN250 29/24 A2986

2010/08/08 01:53
KLOU 080153Z 00000KT 10SM CLR 27/16 A2996

2010/08/08 01:53
KMCI 080153Z 17006KT 10SM SCT250 27/23 A2984

2010/08/08 01:53
KMCO 080153Z 17003KT 10SM FEW035 FEW110 BKN200 OVC250 27/24 A2994

2010/08/08 01:53
KMEM 080153Z 08005KT 10SM SCT050 SCT150 32/21 A2989

2010/08/08 01:53
KMIA 080153Z 18003KT 10SM FEW044 SCT060 BKN130 OVC250 28/24 A2998

2010/08/08 01:53
KMSP 080153Z 19009KT 10SM FEW080 SCT200 29/21 A2968

2010/08/08 02:00
FIMP 080200Z 13018KT 9999 FEW017 SCT050 22/11 Q1023

2010/08/08 01:55
FJDG 080155Z 11010KT 9999 FEW020 SCT080 BKN220 27/24 A2985 RMK SLP102 T02680242

2010/08/08 02:00
FMMI 080200Z 15005KT 110V170 9999 FEW016 BKN020 11/10 Q1026 NOSIG

2010/08/08 02:00
FMMT 080200Z 24004KT 9999 FEW007 SCT017 BKN033 19/18 Q1023

2010/08/08 02:00
FSIA 080200Z SCT017 25/23 Q1012 NOSIG

2010/08/08 02:00
WBGG 080200Z 14004KT 9999 FEW002 SCT020 BKN150 25/23 Q1011 NOSIG

2010/08/08 02:00
WBKK 080200Z 22008KT 9999 FEW015 SCT140 BKN280 30/25 Q1010

2010/08/08 02:00
WBSB 080200Z 18008KT 9999 FEW016 SCT140 BKN300 30/24 Q1010 NOSIG

2010/08/08 01:55
KQAD 080155Z AUTO RMK AO2 SLPNO $

2010/08/08 01:55
KQMG 080155Z AUTO 27011G14KT 10SM FEW100 33/09 A2994 RMK AO2 SLP050 T03290091

2010/08/08 01:55
KQTO 080155Z COR 32007KT 5000 DU SCT200 33/02 A2957 RMK SLP011 COR 0158

2010/08/08 01:55
KQTO 080155Z 32007KT 5000 DU SCT200 33/02 RMK SLP011

2010/08/08 01:55
KQTU 080155Z 32008G13KT 9999 CLR 33/01 A2966 RMK SLP021

2010/08/08 01:55
KQTX 080155Z VRB05KT 9999 CLR 32/01 A2965 RMK SLP010

2010/08/08 01:55
KQTZ 080155Z 34007G13KT 5000 DU HZ SCT200 35/02 A2957 RMK SLP006 QNH1001MB WND DATA ESTMD ALSTG/SLP ESTMD

2010/08/08 02:00
ORER 080200Z VRB03KT 9000 SCT060 29/00 Q1005

2010/08/08 01:55
KQAJ 080155Z 28008KT 9999 CLR 29/01 A2969 RMK SLP040 WND DATA ESTMD ALSTG/SLP ESTMD

2010/08/08 01:55
KQAQ 080155Z 34006KT 4000 DU SCT000 SCT150 34/04 A2959 RMK DU SCT000 SLP018 PA +422 DA +2689

2010/08/08 01:55
KQPD 080155Z AUTO 08007KT 9999 CLR 30/14 A2965 RMK AO2 SLP946 T02960144 $

2010/08/08 01:55
KQSL 080155Z 32007KT 4000 DU SCT190 34/M01 A2965 RMK SLP029 Q1004MB

2010/08/08 01:55
KQTI 080155Z AUTO 32012KT 9999 FEW240 32/M01 A2970 RMK AO2 SLP030 T03241008

2010/08/08 01:53
KMSY 080153Z 18004KT 10SM SCT055 SCT250 29/25 A2989

2010/08/08 01:53
KOAK 080153Z 29012KT 7SM FEW005 17/11 A2983

2010/08/08 01:52
KOKC 080152Z 13010KT 10SM FEW200 32/22 A2983

2010/08/08 01:53
KONT 080153Z 25009KT 10SM CLR 23/12 A2982

2010/08/08 01:51
KORD 080151Z 21005KT 10SM FEW060 SCT090 SCT150 24/18 A2990

2010/08/08 01:51
KORF 080151Z 10003KT 9SM FEW010 24/23 A2997

2010/08/08 01:53
KPBI 080153Z 22003KT 10SM BKN250 27/24 A2995

2010/08/08 01:54
KPHF 080154Z AUTO 00000KT 10SM CLR 23/21 A2998

2010/08/08 01:54
KPHL 080154Z 00000KT 10SM FEW250 26/17 A2998

2010/08/08 01:51
KPHX 080151Z 34009KT 10SM SCT110 SCT160 BKN210 BKN250 34/16 A2975

2010/08/08 01:51
KPIT 080151Z 00000KT 10SM FEW250 21/13 A3002

2010/08/08 01:51
KRDU 080151Z 04003KT 9SM FEW090 25/20 A2998

2010/08/08 01:51
KSAN 080151Z 29005KT 10SM SCT021 18/12 A2988

2010/08/08 01:53
KSEA 080153Z 18007KT 10SM -RA FEW005 BKN022 OVC065 17/16 A2991

2010/08/08 01:56
KSFO 080156Z 28014KT 10SM FEW005 16/11 A2981

2010/08/08 01:51
KSTL 080151Z 12007KT 7SM CLR 27/18 A2991

2010/08/08 01:51
KTEB 080151Z 21004KT 10SM CLR 24/17 A2996

2010/08/08 01:53
KTPA 080153Z 23008KT 10SM FEW030 SCT110 BKN270 29/25 A2994

2010/08/08 02:00
RJAA 080200Z 16010KT 9999 SCT030 BKN/// 32/22 Q1016 NOSIG

2010/08/08 02:00
RJAH 080200Z 19007KT 9999 SCT030 BKN250 31/26 Q1015

2010/08/08 02:00
RJCC 080200Z 36004KT 300V030 9999 FEW007 BKN015 BKN060 27/24 Q1013

2010/08/08 02:00
RJCH 080200Z 21007KT 9999 FEW008 BKN025 27/25 Q1014

2010/08/08 02:00
RJFK 080200Z 08012KT 050V120 9999 FEW020 28/22 Q1012

2010/08/08 02:00
RJFT 080200Z 09006KT 9999 FEW035 32/22 Q1011

2010/08/08 02:00
RJFU 080200Z 03003KT 350V100 9999 FEW035 31/23 Q1010

2010/08/08 02:00
RJOO 080200Z 13003KT 050V220 9999 FEW020 BKN/// 32/19 Q1014

2010/08/08 02:00
RJSS 080200Z 15008KT 9999 FEW030 SCT/// 31/22 Q1015

2010/08/08 02:00
RJTT 080200Z 17010KT 9999 FEW020 BKN150 BKN/// 31/22 Q1016

2010/08/08 01:55
RODN 080155Z 21009KT 9999 -RA FEW007 SCT021 OVC037 27/26 A2967 RMK AO2A RAB0110E0131B0148 FEW V SCT CIG 028 RWY23 SLP046 P0003 T02690257

2010/08/08 02:00
RJAF 080200Z 18004KT 140V220 9999 FEW025 BKN100 BKN140 27/18 Q1019

2010/08/08 02:00
RJAW 080200Z 14008KT 9999 FEW015 BKN230 28/24 Q1013 RMK 2CU015 A2993

2010/08/08 02:00
RJBD 080200Z 12007KT 050V150 9999 FEW020 BKN/// 31/20 Q1014

2010/08/08 02:00
RJCB 080200Z 14004KT 090V190 9999 FEW015 SCT030 28/24 Q1013

2010/08/08 02:00
RJCK 080200Z 06008KT 9999 FEW004 BKN017 25/21 Q1013

2010/08/08 02:00
RJCM 080200Z VRB02KT 9999 FEW010 SCT020 24/20 Q1013

2010/08/08 02:00
RJCN 080200Z 09005KT 040V120 9999 FEW004 SCT005 BKN007 22/20 Q1013

2010/08/08 02:00
RJCW 080200Z 36005KT 9999 FEW020 25/20 Q1013

2010/08/08 02:00
RJDC 080200Z 10017KT 9999 FEW025 30/21 Q1012

2010/08/08 02:00
RJDT 080200Z 15006KT 110V170 9999 FEW020 29/23 Q1011

2010/08/08 02:00
RJEB 080200Z 11006KT 9999 FEW003 BKN025 21/20 Q1013

2010/08/08 02:00
RJEC 080200Z VRB02KT 9999 FEW012 BKN014 BKN100 26/22 Q1013

2010/08/08 02:00
RJFG 080200Z 10010G21KT 060V130 9999 FEW006 SCT010 BKN015 27/25 Q1011

2010/08/08 02:00
RJFM 080200Z 09007KT 9999 FEW015 FEW020CB BKN/// 29/25 Q1012

2010/08/08 02:00
RJFO 080200Z 08008KT 9999 FEW020 28/24 Q1013

2010/08/08 02:00
RJFR 080200Z 09020KT 9999 FEW020 29/21 Q1012

2010/08/08 02:00
RJKA 080200Z 10013KT 9999 FEW010 SCT020 30/26 Q1006

2010/08/08 02:00
RJNT 080200Z 19003KT 080V250 9999 FEW030 SCT120 BKN150 32/21 Q1014

2010/08/08 02:00
RJOA 080200Z 11008KT 9999 FEW020 FEW025TCU 28/19 Q1015

2010/08/08 02:00
RJOB 080200Z 11011KT 070V140 9999 FEW020 BKN025 30/22 Q1015

2010/08/08 02:00
RJOC 080200Z 01006KT 9999 FEW025 31/20 Q1012

2010/08/08 02:00
RJOK 080200Z 20008KT 9999 FEW020 SCT030 BKN060 30/23 Q1014

2010/08/08 02:00
RJOM 080200Z 34011KT 9999 FEW025 SCT/// 29/24 Q1013

2010/08/08 02:00
RJOR 080200Z 17009KT 130V220 9999 FEW035 SCT/// 33/21 Q1013

2010/08/08 02:00
RJTO 080200Z 24003KT 210V280 9999 -SHRA FEW010 SCT015 BKN080 27/25 Q1016

2010/08/08 01:55
RJTY 080155Z AUTO VRB04KT 9999 FEW033 30/23 A3007 RMK AO2 SLP176 T02990229 $

2010/08/08 02:00
RJOT 080200Z 09005KT 040V150 9999 FEW035 SCT/// 31/20 Q1014

2010/08/08 02:00
RJOY 080200Z 10005KT 050V190 9999 FEW025 BKN/// 31/20 Q1014

2010/08/08 02:00
RJSA 080200Z 26007KT 220V310 9999 FEW025 SCT045 30/23 Q1015

2010/08/08 02:00
RJSC 080200Z 21005KT 160V260 9999 FEW030TCU BKN/// 33/23 Q1015

2010/08/08 02:00
RJSI 080200Z VRB03KT 9999 FEW030 SCT040 32/24 Q1015

2010/08/08 02:00
RJTF 080200Z 17007KT 140V220 9999 FEW025 BKN140 BKN/// 31/21 Q1016

2010/08/08 02:00
RJTH 080200Z 06003KT 340V150 9999 -SHRA FEW002 SCT025 FEW030CB BKN070 26/25 Q1016

2010/08/08 02:00
RJTI 080200Z 18008KT 9999 FEW020 SCT170 BKN/// 31/23 Q1016

2010/08/08 02:00
RKNY 080200Z 06005KT 040V100 CAVOK 27/22 Q1010 NOSIG

2010/08/08 02:00
RKPC 080200Z 12016KT 090V150 9999 SCT020 32/21 Q1009 WS ALL RWY NOSIG

2010/08/08 02:00
RKPK 080200Z 27003KT 9999 SCT030 31/21 Q1011 NOSIG

2010/08/08 02:00
RKSI 080200Z 17009KT 140V200 9999 SCT030 BKN150 30/24 Q1011 NOSIG

2010/08/08 02:00
RKSS 080200Z 20007KT 9999 SCT030 32/22 Q1011 NOSIG

2010/08/08 02:00
RKTN 080200Z 34003KT 9999 FEW030 30/22 Q1011 NOSIG

2010/08/08 02:00
RKTU 080200Z 32003KT 9999 FEW015 FEW050 30/23 Q1011 NOSIG

2010/08/08 02:00
LCLK 080200Z 32006KT CAVOK 24/22 Q1007 NOSIG

2010/08/08 02:00
LCPH 080200Z AUTO 02004KT 9999NDV FEW021 23/20 Q1008

2010/08/08 01:50
BGBW 080150Z AUTO 34001KT 9999NDV FEW075/// SCT090/// BKN220/// 13/07 Q1014

2010/08/08 01:50
BGGH 080150Z AUTO 21010KT 9999NDV OVC071/// 12/06 Q1012

2010/08/08 01:50
BGJN 080150Z AUTO 02002KT 9999NDV NCD 08/02 Q1016

2010/08/08 01:50
BGSF 080150Z 06009KT 9999 FEW220 06/02 Q1015

2010/08/08 01:55
BGTL 080155Z AUTO 13022G29KT 9999 OVC043 05/M00 A2994 RMK AO2 PK WND 12029/0145 SLP145 T00491005 $

2010/08/08 02:00
BIEG 080200Z 17008KT 9999 VCSH FEW020 SCT040 BKN070 09/07 Q1016

2010/08/08 02:00
BIKF 080200Z 04003KT 9999 FEW030 BKN060 11/08 Q1012

2010/08/08 02:00
BIRK 080200Z 05005KT 9999 SCT030 BKN100 12/07 Q1012

2010/08/08 02:00
GVAC 080200Z 02006KT 9999 BKN015 25/20 Q1014 NOSIG

2010/08/08 02:00
LPLA 080200Z 20003KT 9999 FEW018 SCT035 20/19 Q1024

2010/08/08 01:55
TXKF 080155Z 19012KT 9999 VCSH FEW012 SCT026 BKN053 OVC072 27/24 Q1016 /

2010/08/08 01:55
TXKF 080155Z 19012KT 9999 VCSH FEW012 SCT026 BKN053 OVC072 27/24 Q1016

2010/08/08 02:00
AYPY 080200Z 18003KT 9999 FEW020 SCT140 32/22 Q1007 RMKS/ HAZE

2010/08/08 02:00
AYPY 080200Z 18003KT 9999 FEW020 SCT140 32/22 Q1007 RMKS. HAZE

2010/08/08 01:54
PGRO 080154Z 07016KT 7SM FEW035 30/24 A2987

2010/08/08 01:54
PGSN 080154Z 07013G17KT 10SM FEW017 SCT028 SCT037 31/26 A2986 RMK AO2 RAB36E46 SLP106 P0000 T03060256 $

2010/08/08 01:55
PGUA 080155Z AUTO 07012G17KT 10SM BKN017 BKN023 BKN055 28/25 A2986 RMK AO2 SLP092 T02830251 VISNO RWY24L $

2010/08/08 01:54
PGUM 080154Z 08014KT 10SM FEW023 31/24 A2985 RMK AO2 SLP099 T03110239

2010/08/08 01:57
PGWT 080157Z 08015KT 7SM SCT015 SCT180 32/25 A2985 RMK WIND DATA ESTIMATED

2010/08/08 01:53
PHJR 080153Z VRB06G18KT 10SM BKN049 30/18 A3003 RMK AO2 SLP175 T03000183

2010/08/08 01:54
PHMK 080154Z 02013G25KT 10SM FEW019 SCT033 28/20 A3003 RMK AO2 PK WND 03027/0143 SLP169 T02780200

2010/08/08 01:50
PKMR 080150Z 10008KT 20SM FEW016 BKN300 31/24 A2980 RMK SLP091 T0311024

2010/08/08 02:00
PKWA 080200Z AUTO 09010KT 10SM CLR 30/23 A2980 RMK AO2 T03000229

2010/08/08 02:00
PLCH 080200Z 13013KT 20KM SCT016 26/23 Q1011

2010/08/08 01:56
PMDY 080156Z AUTO 11010KT 10SM FEW027 29/22 A3019 RMK AO2 TSNO T02940216 SLP529

2010/08/08 01:53
PTKK 080153Z 13008KT 15SM SCT014CB BKN120 OVC280 31/26 A2978 RMK CB ALQDS MOV NW SLP084 T03110256

2010/08/08 01:50
PTKR 080150Z 35008KT 15SM FEW018TCU BKN120 OVC300 30/24 A2983 RMK TCU NE SLP102 T02960244

2010/08/08 01:50
PTRO 080150Z 28006KT 15SM SCT016TCU BKN120 OVC300 29/25 A2985 RMK TCU VC ALQDS

2010/08/08 01:58
PTTP 080158Z 05008KT 15SM SCT018 OVC300 31/25 A2980 RMK SLP091 T03060249

2010/08/08 01:50
PTYA 080150Z 30008KT 12SM SCT015TCU BKN130 OVC300 31/26 A2976 RMK TCU VC W SLP078 T03080259

2010/08/08 01:54
PWAK 080154Z 13010KT 8SM HZ FEW032 30/24 A2992 RMK AO2A

2010/08/08 02:00
RPLB 080200Z 21016KT 9999 -RA SCT018 OVC080 28/25 Q1007 LGT RA CONTUS

2010/08/08 02:00
RPLL 080200Z 21011KT 8000 SCT023 OVC090 29/25 Q1007 NOSIG RMK A2974

2010/08/08 02:00
RPMZ 080200Z 00000KT 9999 FEW018CB OVC120 31/25 Q1012 CB NE

2010/08/08 02:00
RPVM 080200Z 22008KT 9999 FEW020 BKN300 30/26 Q1010 A2982

2010/08/08 02:00
LPFR 080200Z 14005KT 110V190 9999 FEW045 BKN100 26/21 Q1016

2010/08/08 02:00
LPLA 080200Z 20003KT 9999 FEW018 SCT035 20/19 Q1024

2010/08/08 02:00
LPMA 080200Z 02007KT 320V120 9999 FEW018 21/15 Q1016 RS30003KT 0535004KT 2301007KT

2010/08/08 02:00
LPPR 080200Z 00000KT CAVOK 20/16 Q1014

2010/08/08 02:00
LPPS 080200Z 02008KT 350V050 9999 SCT015 BKN030 21/16 Q1017

2010/08/08 02:00
LPPT 080200Z 13002KT CAVOK 27/09 Q1014 NOSIG

2010/08/08 02:00
UBBB 080200Z 31004KT 8000 BCFG NSC 24/24 Q1011 NOSIG RMK R88CLRD70

2010/08/08 02:00
UBBG 080200Z 23005KT 9999 FEW100 23/14 Q1012 NOSIG RMK R30R/CLRD70

2010/08/08 02:00
UTTT 080200Z 06004MPS CAVOK 26/09 Q1007 R08R/CLRD70 NOSIG

2010/08/08 02:00
UTST 080200Z 34001MPS CAVOK 23/17 Q1004 R88/CLRD70 NOSIG

2010/08/08 02:00
SKBQ 080200Z 29003KT 9999 SCT010CB SCT070 26/24 A2989 CB/NE LTNG/NE

2010/08/08 02:00
SKCG 080200Z 27004KT 9999 BKN015 29/26 A2986

2010/08/08 02:00
SKCL 080200Z 03007KT 9999 FEW020 BKN090 21/17 A3003

2010/08/08 02:00
SKLT 080200Z 00000KT 6000 SCT020 24/23 A2994 RMK/HZ

2010/08/08 02:00
SKRG 080200Z 00000KT 9999 SCT015 SCT080 17/15 A3030

2010/08/08 02:00
SKSP 080200Z 01004KT 9999 SCT015TCU SCT200 29/26 A2984

2010/08/08 02:00
SOCA 080200Z VRB01KT CAVOK 26/24 Q1014 NOSIG

2010/08/08 02:00
SPIM 080200Z 17010KT 8000 OVC015 15/12 Q1016 NOSIG RMK PP000

2010/08/08 02:00
SPQT 080200Z /////KT 7000 SKC 24/22 Q1013 NOSIG RMK HORIZONT HZ

2010/08/08 02:00
SPQU 080200Z 05007KT CAVOK 13/M07 Q1029 RMK PP000

2010/08/08 02:00
SPSO 080200Z 06004KT 8000 SKC 13/11 Q1016 RMK PP000

2010/08/08 02:00
SPTN 080200Z VRB02KT 7000 SCT008 OVC012 11/08 Q1016 RMK PP000

2010/08/08 02:00
SPZO 080200Z VRB02KT 9999 SKC 09/M10 Q1033 RMK PP000

2010/08/08 02:00
SVBC 080200Z 18001KT 9999 -TS BKN010CB/S 24/22 Q1014

2010/08/08 02:00
SVMG 080200Z 00000KT 9999 FEW010 BKN080 26/25 Q1012 TEMPO

2010/08/08 02:00
SVMI 080200Z 00000KT 9999 FEW016 28/24 Q1013 NOSIG

2010/08/08 02:00
SCAR 080200Z 26002KT 9999 OVC021 15/09 Q1019

2010/08/08 02:00
SCBA 080200Z AUTO 29011KT 9999 -RA BKN050 03/M00 Q1015

2010/08/08 02:00
SCCI 080200Z 32012KT 9999 FEW023 SCT090 BKN200 03/M01 Q0994 NOSIG

2010/08/08 02:00
SCDA 080200Z 20003KT 9999 OVC022 13/09 Q1019

2010/08/08 02:00
SCEL 080200Z 12004KT 090V150 9999 SCT120 10/00 Q1027 NOSIG

2010/08/08 02:00
SCFA 080200Z 13005KT 9999 BKN015 12/08 Q1017

2010/08/08 02:00
SCIE 080200Z 11002KT 5000 HZ SKC 04/02 Q1028

2010/08/08 02:00
SCIP 080200Z VRB04KT 9999 SCT020 BKN030 16/12 Q1027

2010/08/08 02:00
SCTE 080200Z 00000KT 9999 SCT050 03/03 Q1026 NOSIG

2010/08/08 02:00
SGAS 080200Z 18007KT 9000 NSC 16/10 Q1014

2010/08/08 02:00
SGES 080200Z 08006KT CAVOK 16/13 Q1016

2010/08/08 02:00
SLCB 080200Z 15003KT 9999 SKC 16/02 Q1023

2010/08/08 02:00
SLLP 080200Z 02006KT 9999 NSC 02/M13 Q1039

2010/08/08 02:00
SLVR 080200Z 33007KT 5000 FU NSC 18/12 Q1014

2010/08/08 02:00
SULS 080200Z 00000KT 0400 FG NSC 05/04 Q1021

2010/08/08 02:00
SUMU 080200Z 13004KT 1500 0800NW R24/P2000 R19/0300 BCFG NSC 09/08 Q1021 TEMPO 0800 BCFG

2010/08/08 02:00
SKBG 080200Z 00000KT 9999 SCT017 22/18 A3004

2010/08/08 02:00
SKPE 080200Z 18004KT 4000 -RA BKN010 BKN070 19/18 A3015

2010/08/08 02:00
SMJP 080200Z 00000KT 9999 FEW015CB SCT030 25/24 Q1015 NOSIG

2010/08/08 02:00
SCSE 080200Z 16003KT CAVOK 08/07 Q1022 NEFO PLAYA SKC

2010/08/08 02:00
SCTC 080200Z 00000KT 1500NE 5000SW BR SCT015 04/04 Q1027

2010/08/08 01:51
KABE 080151Z 35003KT 10SM CLR 22/15 A2998

2010/08/08 01:53
KAGC 080153Z 04003KT 10SM CLR 22/11 A3002

2010/08/08 01:54
KAKR 080154Z AUTO 19003KT 10SM CLR 21/14 A3000

2010/08/08 01:51
KALB 080151Z 00000KT 10SM FEW180 18/11 A3000

2010/08/08 01:56
KART 080156Z AUTO 17004KT 10SM CLR 17/12 A2997

2010/08/08 01:54
KAVP 080154Z 00000KT 10SM CLR 21/10 A3000

2010/08/08 01:53
KBAF 080153Z 01003KT 10SM CLR 17/12 A3000

2010/08/08 01:51
KBDL 080151Z 00000KT 10SM CLR 18/12 A2998

2010/08/08 01:52
KBDR 080152Z 20004KT 10SM CLR 24/19 A2998

2010/08/08 01:56
KBED 080156Z 00000KT 10SM CLR 16/10 A2999

2010/08/08 01:54
KBTV 080154Z 00000KT 10SM CLR 14/11 A2997

2010/08/08 01:54
KBUF 080154Z 21006KT 10SM FEW080 SCT300 18/10 A2998

2010/08/08 01:53
KBVY 080153Z AUTO 00000KT 10SM CLR 17/09 A2999

2010/08/08 01:56
KCAE 080156Z 00000KT 7SM CLR 28/24 A2994

2010/08/08 01:51
KCAK 080151Z 16004KT 10SM SCT200 21/14 A3001

2010/08/08 01:55
KCEF 080155Z AUTO 01004KT 10SM CLR 14/12 A3000

2010/08/08 01:51
KCMH 080151Z 00000KT 10SM CLR 24/15 A2998

2010/08/08 01:53
KCRQ 080153Z AUTO 25006KT 10SM FEW015 18/13 A2986

2010/08/08 01:54
KCRW 080154Z 00000KT 10SM FEW055 21/18 A3000

2010/08/08 01:56
KDAY 080156Z 00000KT 10SM CLR 24/13 A3001

2010/08/08 01:55
KDOV 080155Z AUTO 15005KT 10SM BKN090 24/21 A2997

2010/08/08 01:51
KERI 080151Z 16006KT 10SM CLR 19/13 A2998

2010/08/08 01:53
KEWB 080153Z 00000KT 10SM CLR 18/16 A3001

2010/08/08 01:51
KFDK 080151Z AUTO 00000KT 7SM CLR 23/14 A2999

2010/08/08 01:53
KFVE 080153Z AUTO 25005KT 10SM CLR 12/04 A2991

2010/08/08 01:56
KGON 080156Z 00000KT 10SM CLR 20/17 A3000

2010/08/08 01:54
KGSO 080154Z 06004KT 10SM CLR 26/17 A3001

2010/08/08 01:53
KGSP 080153Z 11004KT 10SM FEW075 SCT100 26/21 A2998

2010/08/08 01:56
KHPN 080156Z 00000KT 10SM CLR 21/16 A2999

2010/08/08 01:51
KHTS 080151Z 11003KT 7SM CLR 21/18 A2999

2010/08/08 01:53
KHUL 080153Z AUTO 19004KT 10SM CLR 12/06 A2995

2010/08/08 01:53
KHVN 080153Z 21003KT 10SM CLR 24/18 A2999

2010/08/08 01:53
KIAG 080153Z 20004KT 10SM FEW250 18/12 A2997

2010/08/08 01:51
KILG 080151Z 15006KT 10SM CLR 25/19 A2998

2010/08/08 02:00
LEAL 080200Z 28004KT CAVOK 22/18 Q1018 NOSIG

2010/08/08 02:00
LEBL 080200Z VRB02KT 9999 FEW025 22/18 Q1018 NOSIG

2010/08/08 02:00
LEGE 080200Z 00000KT CAVOK 20/19 Q1018

2010/08/08 02:00
LEIB 080200Z VRB01KT CAVOK 21/18 Q1018 NOSIG

2010/08/08 02:00
LEMD 080200Z 12005KT 080V140 CAVOK 26/13 Q1018 NOSIG

2010/08/08 02:00
LEMG 080200Z 00000KT 9999 FEW020 SCT040 25/20 Q1018 NOSIG

2010/08/08 02:00
LEPA 080200Z 00000KT CAVOK 17/15 Q1019 NOSIG

2010/08/08 02:00
LEST 080200Z 03003KT 350V080 CAVOK 14/13 Q1019 NOSIG

2010/08/08 02:00
LETO 080200Z VRB02KT CAVOK 26/12 Q1019 NOSIG

2010/08/08 02:00
LEVC 080200Z VRB02KT CAVOK 22/18 Q1018 NOSIG

2010/08/08 02:00
LEVT 080200Z 00000KT 9999 BKN018 11/11 Q1022

2010/08/08 02:00
LEVX 080200Z VRB02KT CAVOK 19/14 Q1016

2010/08/08 02:00
LEZG 080200Z 29011KT 9999 FEW050 22/15 Q1018

2010/08/08 02:00
DTMB 080200Z 34006KT CAVOK 25/17 Q1017 NOSIG

2010/08/08 02:00
DTTA 080200Z 00000KT 9999 FEW033 22/16 Q1017 NOSIG

2010/08/08 02:00
DTTB 080200Z 00000KT CAVOK 19/16 Q1018

2010/08/08 02:00
DTTG 080200Z 07010KT CAVOK 25/21 Q1015 NOSIG

2010/08/08 02:00
DTTJ 080200Z 08008KT 8000 NSC 27/24 Q1015 NOSIG

2010/08/08 02:00
DTTK 080200Z 36004KT 9999 FEW023 25/18 Q1017

2010/08/08 02:00
DTTN 080200Z 02004KT CAVOK 20/15 Q1018

2010/08/08 02:00
DTTX 080200Z 02004KT CAVOK 25/20 Q1016 NOSIG

2010/08/08 02:00
DTTZ 080200Z 07008KT 9999 FEW030 28/24 Q1014 NOSIG

2010/08/08 01:53
KILM 080153Z AUTO 00000KT 9SM CLR 25/22 A2994

2010/08/08 01:54
KINT 080154Z 06003KT 10SM CLR 24/18 A3001

2010/08/08 01:55
KLSV 080155Z AUTO 17020G26KT 10SM VCTS CLR 35/12 A2970

2010/08/08 01:53
KLUK 080153Z 00000KT 10SM BKN070 22/17 A2997

2010/08/08 01:54
KLWM 080154Z 00000KT 10SM CLR 19/07 A3002

2010/08/08 01:56
KMDT 080156Z 00000KT 10SM SCT075 BKN100 25/18 A2997

2010/08/08 01:53
KMSS 080153Z AUTO 20004KT 10SM CLR 14/09 A2995

2010/08/08 01:54
KORH 080154Z AUTO 00000KT 10SM CLR 19/09 A3003

2010/08/08 01:55
KPQI 080155Z AUTO 00000KT 10SM CLR 11/06 A2991

2010/08/08 01:55
KPSM 080155Z 00000KT 10SM FEW250 16/14 A2999

2010/08/08 01:51
KPVD 080151Z 00000KT 10SM FEW055 20/16 A3002

2010/08/08 01:51
KPWM 080151Z 19003KT 10SM CLR 17/14 A2999

2010/08/08 01:54
KRIC 080154Z 13005KT 10SM BKN050 25/19 A2998

2010/08/08 01:54
KROC 080154Z 22003KT 10SM FEW080 17/12 A2998

2010/08/08 01:54
KSYR 080154Z 00000KT 10SM SCT250 17/13 A2998

2010/08/08 01:55
KWRI 080155Z AUTO 24004KT 10SM CLR 23/18 A2997

2010/08/08 01:50
EGDM 080150Z AUTO 29003KT 9999NDV NCD 12/11 Q1019

2010/08/08 01:50
EGDY 080150Z AUTO 29003KT 9999NDV BKN030/// 15/12 Q1020

2010/08/08 01:50
EGOS 080150Z AUTO 27005KT 9999NDV OVC014/// 14/11 Q1020

2010/08/08 01:50
EGOV 080150Z AUTO 28002KT 9999NDV NCD 10/09 Q1021

2010/08/08 01:50
EGQK 080150Z AUTO 24005KT 9999NDV OVC043/// 13/10 Q1020

2010/08/08 02:03
KNUW 080203Z 14005KT 2SM -DZ BR BKN008 OVC014 18/16 A2989

2010/08/08 02:00
UKBB 080200Z 12002MPS CAVOK 21/14 Q1014 88CLRD95 NOSIG

2010/08/08 02:00
UKCC 080200Z 08004MPS CAVOK 24/06 Q1016 08090070 NOSIG

2010/08/08 02:00
UKDD 080200Z 04002MPS CAVOK 24/11 Q1015 08090070 NOSIG

2010/08/08 02:00
UKDE 080200Z 10003MPS 040V160 CAVOK 24/07 Q1014 20CLRD70 NOSIG

2010/08/08 02:00
UKDR 080200Z 08004MPS CAVOK 21/13 Q1014 1809//70 NOSIG

2010/08/08 02:00
UKFF 080200Z 14003MPS CAVOK 20/09 Q1011 01010070 NOSIG

2010/08/08 02:00
UKHH 080200Z 00000MPS CAVOK 23/15 Q1017 080///65 NOSIG

2010/08/08 02:00
UKLL 080200Z 18001MPS 9999 NSC 18/17 Q1014 13250550 TEMPO -TSRA BKN020CB

2010/08/08 02:00
UKOO 080200Z 03002MPS 1900 BR NSC 24/23 Q1012 16090070 NOSIG

2010/08/08 01:50
EDDS 080150Z 30001KT CAVOK 13/11 Q1018

2010/08/08 01:50
EGPK 080150Z 00000KT 9999 FEW035 11/10 Q1020

2010/08/08 01:55
EGUL 080155Z AUTO 33003KT 9999 SCT035 SCT050 15/14 A3004 RMK AO2 SLP173 T01500142

2010/08/08 01:55
EGUN 080155Z AUTO 33004KT 9999 FEW035 OVC050 14/14 A3005 RMK AO2 RAB0104E0113 SLP164 P0000 T01450145

2010/08/08 01:55
EGVA 080155Z AUTO 34007KT 9999 OVC036 15/12 A3009 RMK AO2 SLP191 T01510124 $

2010/08/08 01:55
ETAD 080155Z AUTO 00000KT 9999 BKN055 OVC080 15/13 A3000 RMK AO2 RAB0115E0146 SLP148 P0000 T01540127 $

2010/08/08 01:55
ETAR 080155Z AUTO 00000KT 9999 -RA BKN037 BKN060 OVC100 16/15 A3001 RMK AO2 RAB0114 SLP156 P0001 T01620148 $

2010/08/08 01:55
KQHT 080155Z 22002KT 9999 FEW150 24/07 A2983 RMK AO2A SLP061

2010/08/08 01:55
KQIR 080155Z 00000KT 9999 BKN190 29/19 A2950 RMK AO2A SLP987 T02920185

2010/08/08 02:00
LEMO 080200Z VRB01KT CAVOK 27/14 Q1016 NOSIG

2010/08/08 01:50
LIRN 080150Z VRB01KT CAVOK 20/16 Q1016

2010/08/08 01:55
LIYW 080155Z AUTO 05005KT 9999 BKN050 18/17 A3004 RMK AO2 SLP169 T01830172

2010/08/08 02:00
LPLA 080200Z 20003KT 9999 FEW018 SCT035 20/19 Q1024

2010/08/08 01:50
LTAC 080150Z VRB01KT CAVOK 24/08 Q1013 NOSIG

2010/08/08 01:57
PHNG 080157Z AUTO 06008G16KT 10SM CLR 28/22 A3004 RMK AO2 SLP168 T02830217 $

2010/08/08 01:55
FJDG 080155Z 11010KT 9999 FEW020 SCT080 BKN220 27/24 A2985 RMK SLP102 T02680242

2010/08/08 01:56
PHBK 080156Z AUTO 29008KT 10SM SCT055 30/21 A3001 RMK AO2 SLP165 T03000206 TSNO $

2010/08/08 01:55
PHHI 080155Z AUTO 10010KT 10SM -DZ SCT032 BKN045 27/19 A3005 RMK AO2 DZB0149 SLP164 P0000 T02740189 $

2010/08/08 02:00
PKWA 080200Z AUTO 09010KT 10SM CLR 30/23 A2980 RMK AO2 T03000229

2010/08/08 01:56
PMDY 080156Z AUTO 11010KT 10SM FEW027 29/22 A3019 RMK AO2 TSNO T02940216 SLP529

2010/08/08 01:54
PWAK 080154Z 13010KT 8SM HZ FEW032 30/24 A2992 RMK AO2A

2010/08/08 01:55
RJTY 080155Z AUTO VRB04KT 9999 FEW033 30/23 A3007 RMK AO2 SLP176 T02990229 $

2010/08/08 02:00
RKPK 080200Z 27003KT 9999 SCT030 31/21 Q1011 NOSIG

2010/08/08 01:55
RKSO 080155Z 15003KT 9999 FEW024 SCT045 OVC049 29/29 A2987 RMK AO2A SLP115 T02940294 $

2010/08/08 01:55
RODN 080155Z 21009KT 9999 -RA FEW007 SCT021 OVC037 27/26 A2967 RMK AO2A RAB0110E0131B0148 FEW V SCT CIG 028 RWY23 SLP046 P0003 T02690257

2010/08/08 02:00
AYMO 080200Z AUTO 14005KT //// // ////// 31/25 Q1008

2010/08/08 01:50
BGAA 080150Z AUTO 06004KT 9999NDV NCD 09/05 Q1016

2010/08/08 01:50
BGMQ 080150Z AUTO 06013KT 030V100 9999NDV NCD 18/03 Q1011

2010/08/08 01:50
BGQQ 080150Z AUTO 14009KT 100V170 9999NDV RA ///012/// ///023/// 04/03 Q1014 RMK /// ///

2010/08/08 01:50
BGSS 080150Z AUTO 07009KT 040V120 9999NDV NCD 17/07 Q1012

2010/08/08 01:50
BGUK 080150Z AUTO 12005KT 090V150 9999NDV ///040/// 10/07 Q1017 RMK ///

2010/08/08 02:00
BKPR 080200Z VRB03KT CAVOK 18/13 Q1017 NOSIG RMK BLU

2010/08/08 02:00
DTKA 080200Z 07004KT CAVOK 17/16 Q1018 NOSIG

2010/08/08 01:50
EDDE 080150Z 20009KT CAVOK 13/10 Q1016

2010/08/08 01:50
EDFH 080150Z 34004KT 280V040 CAVOK 17/10 Q1016

2010/08/08 01:50
EETU 080150Z AUTO 12005KT 5000NDV BR NCD 22/20 Q1014

2010/08/08 01:50
EFET 080150Z AUTO 35002KT CAVOK 11/11 Q1018

2010/08/08 01:50
EFJO 080150Z AUTO 10003KT 4200 BR SKC 19/18 Q1016

2010/08/08 01:50
EFKA 080150Z AUTO 04003KT 2900 BR SKC 17/16 Q1014

2010/08/08 01:50
EFKI 080150Z AUTO 11006KT 9999 -SHRA FEW053 BKN107 19/17 Q1016

2010/08/08 01:50
EFKS 080150Z AUTO 08002KT 9999 OVC007 16/15 Q1018

2010/08/08 01:50
EFKT 080150Z AUTO 29002KT CAVOK 10/09 Q1018

2010/08/08 01:50
EFLP 080150Z AUTO 12003KT 9000 SKC 23/20 Q1016

2010/08/08 01:50
EFMI 080150Z AUTO 00000KT 2200 BR SKC 17/17 Q1015

2010/08/08 01:50
EFSA 080150Z AUTO 09003KT 6000NDV NCD 19/19 Q1016

2010/08/08 01:50
EFSI 080150Z AUTO 00000KT 0450 FG FEW048 17/16 Q1014

2010/08/08 01:50
EFUT 080150Z AUTO 12006KT CAVOK 22/20 Q1015

2010/08/08 01:50
EFVR 080150Z AUTO 15001KT CAVOK 19/19 Q1015

2010/08/08 01:50
EGCN 080150Z 33007KT CAVOK 13/12 Q1020

2010/08/08 01:50
EGDX 080150Z AUTO 31006KT 9999NDV // NCD 13/10 Q1021

2010/08/08 01:50
EGEC 080150Z AUTO 32009KT 9999NDV // BKN008/// 13/12 Q1020

2010/08/08 01:50
EGOM 080150Z AUTO 08003KT 8000NDV BR FEW038/// BKN050/// 11/11 Q1019

2010/08/08 01:50
EGPI 080150Z AUTO 34007KT 9999NDV // NCD 09/09 Q1021

2010/08/08 01:50
EGUB 080150Z AUTO 00000KT 9999NDV // BKN017/// 13/12 Q1019

2010/08/08 01:50
EGUW 080150Z AUTO 32006KT 9999NDV FEW004/// 14/13 Q1017

2010/08/08 01:50
EGVN 080150Z 33007KT 9999 BKN034 15/12 Q1019 BLU NOSIG

2010/08/08 01:50
EGVN 080150Z 33007KT 9999 BKN034 15/12 Q1019 NOSIG

2010/08/08 01:50
EGVO 080150Z AUTO 28005KT 9999NDV NCD 13/12 Q1019

2010/08/08 01:50
EGVP 080150Z AUTO 31005KT 9999NDV // NCD 12/11 Q1019

2010/08/08 01:50
EGWU 080150Z AUTO 34007KT 9999NDV // NCD 14/12 Q1018

2010/08/08 01:50
EGXC 080150Z 33008KT 9999 FEW012 BKN028 14/13 Q1018

2010/08/08 01:50
EGXC 080150Z 33008KT 9999 FEW012 BKN028 14/13 Q1018 BLU

2010/08/08 01:50
EGXD 080150Z AUTO 33006KT 9999NDV // BKN060/// 13/13 Q1019

2010/08/08 01:50
EGXE 080150Z AUTO 32004KT 9999NDV BKN070/// 11/11 Q1019

2010/08/08 01:50
EGXG 080150Z AUTO 33008KT 8000NDV BR NCD 12/11 Q1019

2010/08/08 01:50
EGXJ 080150Z AUTO 33006KT 8000NDV // FEW005/// BKN010/// 14/13 Q1018

2010/08/08 01:50
EGXT 080150Z AUTO 31008KT 9999NDV SCT009/// SCT019/// 14/13 Q1018

2010/08/08 01:50
EGXU 080150Z AUTO 33004KT 6000NDV // SCT060/// 11/11 Q1019

2010/08/08 01:50
EGXW 080150Z 33008KT 8000 BR SCT012 BKN028 13/13 Q1019 GRN

2010/08/08 01:50
EGXX 080150Z AUTO 33016KT 9999NDV // BKN010/// 15/14 Q1018

2010/08/08 01:50
EGXZ 080150Z AUTO 35004KT 8000NDV BR BKN060/// 12/11 Q1020

2010/08/08 01:50
EGYD 080150Z AUTO 31008KT 6000NDV // BKN011/// BKN029/// 14/13 Q1019

2010/08/08 01:50
EGYM 080150Z AUTO 35007KT 9999NDV SCT020/// SCT050/// 16/14 Q1017

2010/08/08 01:50
ENHE 080150Z 07018KT 9999 FEW005 SCT130 12/12 Q1018

2010/08/08 02:00
EPWR 080200Z 28009KT 9999 BKN005 17/17 Q1014

2010/08/08 01:50
ESGR 080150Z AUTO 00000KT 5000NDV OVC074/// 16/16 Q1013

2010/08/08 01:50
ESMQ 080150Z AUTO 35004KT 310V020 9999NDV BR FEW003/// BKN005/// 16/16 Q1011

2010/08/08 01:50
ESMT 080150Z AUTO 02004KT 9999NDV NCD 17/14 Q1013

2010/08/08 01:50
ESNG 080150Z AUTO 31005KT 9999NDV FEW071/// BKN086/// 11/11 Q1018

2010/08/08 01:50
ESNK 080150Z AUTO 35004KT 9999NDV -RA NCD 16/15 Q1015

2010/08/08 01:50
ESNL 080150Z AUTO 00000KT 9999NDV BKN110/// 12/12 Q1017

2010/08/08 01:50
ESNX 080150Z AUTO 00000KT 0750NDV R12/P2000N R30/P2000N FG NCD 11/11 Q1018

2010/08/08 01:50
ESNY 080150Z AUTO 34009KT 9999 RA FEW086 16/14 Q1013

2010/08/08 01:50
ESOE 080150Z AUTO VRB02KT 9999NDV DZ FEW004/// SCT007/// 16/15 Q1014 RERA

2010/08/08 01:50
ESSL 080150Z AUTO 34006KT 9999NDV FEW006/// SCT008/// BKN011/// 15/15 Q1013

2010/08/08 01:50
ESTA 080150Z AUTO 34002KT 7000NDV BR OVC110/// 17/17 Q1012

2010/08/08 01:50
ESTL 080150Z AUTO 25002KT 4200NDV BR BKN100/// 16/16 Q1012

2010/08/08 01:50
ESUT 080150Z AUTO 00000KT 0300NDV R33/0800V1500 FG VV000 08/07 Q1018

2010/08/08 01:55
ETOU 080155Z AUTO 08003KT 9999 SCT070 OVC090 18/13 A3000 RMK AO2 SLP156 T01760130

2010/08/08 01:50
ETUO 080150Z AUTO 00000KT 8000NDV // OVC060/// 16/15 Q1015

2010/08/08 01:50
EVLA 080150Z AUTO 09003KT 9999 BKN009 BKN043 18/17 Q1011

2010/08/08 01:50
EVVA 080150Z AUTO VRB02KT 6000 BKN050 18/18 Q1012

2010/08/08 01:50
EYKA 080150Z 26011KT 9999 TSRA SCT014CB OVC098 20/19 Q1012

2010/08/08 01:50
EYPA 080150Z 15003KT 2400 BR BKN008 19/19 Q1011

2010/08/08 02:00
FAGC 080200Z AUTO 07005KT //// // ////// 08/M00 Q1027

2010/08/08 02:00
FAJB 080200Z AUTO 00000KT //// // ////// 06/01 Q1027

2010/08/08 02:00
FAMM 080200Z AUTO 02005KT //// // ////// 11/01 Q1025

2010/08/08 02:00
FAPP 080200Z AUTO 18002KT //// // ////// 06/03 Q1026

2010/08/08 02:00
FASI 080200Z AUTO 00000KT //// // ////// 04/M00 Q1027

2010/08/08 02:00
FAVV 080200Z AUTO 33004KT //// // ////// 04/M00 Q1024

2010/08/08 02:00
FMSD 080200Z 06010KT 9999 SCT017 SCT033 19/17 Q1026

2010/08/08 02:00
FQLC 080200Z 10008KT 9999 OVC0025 14/10 Q1024

2010/08/08 02:00
FQQL 080200Z 00000KT 9999 SCT020 SCT100 18/16 Q1020

2010/08/08 02:00
FYML 080200Z AUTO 09004KT //// // ////// ///// Q1023

2010/08/08 02:00
FYOA 080200Z AUTO 08004KT //// // ////// 17/01 Q1019

2010/08/08 02:00
FYOJ 080200Z AUTO 01002KT //// // ////// 13/M01 Q1020

2010/08/08 02:00
FYOW 080200Z AUTO 10003KT //// // ////// 15/M02 Q1022

2010/08/08 02:00
FYWW 080200Z AUTO 10004KT //// // ////// 14/M03 Q1025

2010/08/08 01:51
KCBE 080151Z AUTO 00000KT 10SM CLR 23/15 A3004 RMK AO1

2010/08/08 01:55
KEGI 080155Z AUTO 00000KT 10SM CLR 25/23 A2991 RMK AO2 SLP129 T02470235 $

2010/08/08 01:51
KFME 080151Z AUTO 00000KT 10SM CLR 18/18 A3000 RMK AO1

2010/08/08 01:55
KGYH 080155Z AUTO 10004KT 10SM SCT049 BKN085 OVC110 30/18 A2999 RMK AO2

2010/08/08 02:00
LBGO 080200Z 33001MPS CAVOK 20/19 Q1014 NOSIG

2010/08/08 02:00
LEAB 080200Z 16006KT CAVOK 20/11 Q1021 NOSIG

2010/08/08 02:00
LESA 080200Z 00000KT CAVOK 16/14 Q1019

2010/08/08 02:00
LETO 080200Z VRB02KT CAVOK 26/12 Q1019 NOSIG

2010/08/08 02:00
LFBE 080200Z AUTO 28006KT 9999NDV NSC 16/13 Q1019

2010/08/08 02:00
LFBG 080200Z AUTO 28003KT 9999NDV NSC 16/13 Q1020

2010/08/08 02:00
LFCR 080200Z AUTO 00000KT 9999NDV NSC 14/11 Q1020

2010/08/08 02:00
LFJL 080200Z AUTO 22007KT 9999NDV NSC 17/12 Q1016

2010/08/08 02:00
LFLX 080200Z AUTO 30004KT 9999NDV BKN024 BKN031 BKN039 18/15 Q1019

2010/08/08 02:00
LFMI 080200Z AUTO 00000KT 9999NDV NSC 18/15 Q1017

2010/08/08 02:00
LFMK 080200Z AUTO 00000KT 9999NDV NSC 16/13 Q1018

2010/08/08 02:00
LFMO 080200Z AUTO VRB03KT 9999NDV NSC 18/09 Q1017

2010/08/08 02:00
LFMU 080200Z AUTO 30002KT 9999NDV NSC 18/13 Q1017

2010/08/08 02:00
LFMV 080200Z AUTO VRB01KT 9999NDV NSC 14/10 Q1017

2010/08/08 02:00
LFOA 080200Z AUTO VRB02KT 9999NDV NSC 15/12 Q1018

2010/08/08 02:00
LFOJ 080200Z AUTO 31006KT 9999NDV NSC 16/14 Q1019

2010/08/08 02:00
LFOK 080200Z AUTO 00000KT 9999NDV NSC 15/14 Q1018

2010/08/08 02:00
LFQI 080200Z AUTO 25006KT 9999NDV FEW008 OVC054 14/13 Q1017

2010/08/08 01:50
LGHI 080150Z 00000KT CAVOK 22/19 Q1010

2010/08/08 02:00
LKCV 080200Z 27007KT 8000 -RA OVC037 15/14 Q1016 NOSIG

2010/08/08 02:00
LKCV 080200Z 27007KT 8000 -RA OVC037 15/14 Q1016 NOSIG RMK BLU BLU

2010/08/08 02:00
LKKB 080200Z 23003KT 9999 BKN025 15/15 Q1016

2010/08/08 02:00
LKKV 080200Z VRB02KT CAVOK 14/11 Q1017

2010/08/08 02:00
LKLN 080200Z AUTO 25003KT CAVOK 15/14 Q1017

2010/08/08 02:00
LKNA 080200Z 30009KT 9999 SCT010 OVC016 14/14 Q1016

2010/08/08 02:00
LKNA 080200Z 30009KT 9999 SCT010 OVC016 14/14 Q1016 RMK WHT

2010/08/08 02:00
LKPD 080200Z 28011KT 6000 -RA SCT010 OVC040 15/15 Q1015

2010/08/08 02:00
LKPD 080200Z 28011KT 6000 -RA SCT010 OVC040 15/15 Q1015 RMK WHT

2010/08/08 02:00
LKPO 080200Z 17003KT 9999 OVC013 15/15 Q1015

2010/08/08 02:00
LKPO 080200Z 17003KT 9999 OVC013 15/15 Q1015 RMK GRN

2010/08/08 02:00
LQBK 080200Z 16002KT CAVOK 15/14 Q1017 NOSIG

2010/08/08 02:00
LQMO 080200Z 00000KT CAVOK 16/14 Q1014

2010/08/08 01:50
LTAZ 080150Z AUTO 10007KT 9999 // SKC 19/05 Q1013

2010/08/08 01:50
LTBR 080150Z VRB02KT CAVOK 20/17 Q1011 NOSIG

2010/08/08 01:50
LTBU 080150Z 04006KT CAVOK 23/22 Q1011

2010/08/08 01:50
LTCF 080150Z 31001KT 9999 FEW030 10/07 Q1022

2010/08/08 01:50
LTFH 080150Z VRB02KT 9999 FEW036 22/22 Q1009 NOSIG

2010/08/08 01:50
LTFJ 080150Z 04003KT 6000 NSC 24/23 Q1010 TEMPO FM0300 4000 BR

2010/08/08 02:00
LZKC 080200Z AUTO VRB02KT //// ////// 16/15 Q1014

2010/08/08 02:00
LZLU 080200Z AUTO 21005KT 160V260 //// ////// 14/13 Q1016

2010/08/08 02:00
LZNI 080200Z AUTO 25005KT 230V290 3900 RA ////// 16/15 Q1015

2010/08/08 02:00
LZPE 080200Z AUTO 00000KT 9999 ////// 15/14 Q1015

2010/08/08 02:00
LZPP 080200Z AUTO 19003KT 9999 ////// 15/15 Q1015

2010/08/08 02:00
LZSL 080200Z 00000KT 9999 BKN040 OVC073 15/14 Q1015

2010/08/08 02:00
LZZI 080200Z AUTO 30001KT //// ////// 15/14 Q1015

2010/08/08 02:00
UHHH 080200Z 28003MPS CAVOK 24/16 Q1013 NOSIG

2010/08/08 02:00
MGTK 080200Z 00000KT CAVOK 25/25 Q1013 A2991 BKN200

2010/08/08 01:51
MMVA 080151Z 12006KT 5SM FEW010 BKN040 OVC080 27/25 A2983 RMK 60215 8/72/ +RAE20 VRBL CONDS

2010/08/08 01:50
MUHG 080150Z VRB02KT 9000 SCT025 24/22 Q1015

2010/08/08 01:54
OAHR 080154Z 03009KTCAVOK 28/M03 Q1009 RMK SCT SCT050 VIS MIN 9999 BLU

2010/08/08 02:00
OIIE 080200Z 29006KT CAVOK 22/M02 Q1014 A2996 901.2 020

2010/08/08 02:00
OSKL 080200Z 34011KT CAVOK 35/M03 Q1007

2010/08/08 02:00
OYSQ 080200Z 18032G42KT 9999 FEW018 27/22 Q1007

2010/08/08 02:00
RJBB 080200Z 27005KT 220V340 9999 FEW020 BKN/// 30/21 Q1014 NOSIG

2010/08/08 02:00
RJBH 080200Z 20009KT 9999 FEW030 31/21 Q1013

2010/08/08 02:00
RJBT 080200Z 19007KT 150V240 9999 FEW030 BKN/// 31/20 Q1014

2010/08/08 02:00
RJFS 080200Z VRB03KT 9999 FEW040 32/23 Q1010

2010/08/08 02:00
RJGG 080200Z 21004KT 180V240 9999 FEW010 BKN180 28/25 Q1015 NOSIG

2010/08/08 02:00
RJNW 080200Z VRB06KT 9999 FEW020 SCT130 BKN/// 31/20 Q1015

2010/08/08 02:00
RJOW 080200Z 05008KT 350V080 9999 FEW030 SCT040 30/20 Q1012

2010/08/08 02:00
RJSF 080200Z VRB01KT 9999 SCT025 BKN/// 30/22 Q1017

2010/08/08 02:00
RJSR 080200Z 21004KT 170V240 9999 -SHRA FEW010 SCT040 26/26 Q1015

2010/08/08 02:00
RJSY 080200Z 27006KT 240V320 9999 FEW025 FEW035TCU BKN/// 30/23 Q1015

2010/08/08 02:00
ROIG 080200Z 05012KT 9999 FEW020 BKN/// 30/26 Q1000

2010/08/08 02:00
ROMY 080200Z 13009KT 9999 -SHRA FEW010 SCT020 BKN070 28/26 Q1001

2010/08/08 02:00
RORS 080200Z 12017KT 9999 -SHRA FEW007 SCT017 BKN035 27/25 Q1001

2010/08/08 01:58
ROTM 080158Z 18006KT 9999 -SHRA SCT015 BKN030 OVC150 27/25 A2968 RMK SLP033 P0003 T02720250

2010/08/08 02:00
SKCC 080200Z 14008KT 9999 SCT020CB 28/20 A2994 RMK CB/NW/W/LTNG

2010/08/08 02:00
UBBN 080200Z 07004KT 9999 SCT100 24/09 Q1012 R14R/CLRD60 NOSIG RMK G/O QFE684

2010/08/08 02:00
YPKU 080200Z AUTO 14007KT 9999NDV // NCD 27/M04 Q1014

2010/08/08 02:00
YSTW 080200Z AUTO 32006KT 9999NDV // NCD 14/02 Q1020

2010/08/08 02:00
YSWG 080200Z 36002KT 9999 FEW035 11/03 Q1020

2010/08/08 02:00
YTEF 080200Z AUTO 13006KT //// // ////// 25/M01 Q1018

2010/08/08 02:00
YTNK 080200Z 08007KT CAVOK 22/M03 Q1016

2010/08/08 02:00
YTRE 080200Z AUTO 22004KT //// // ////// 16/06 Q1020

2010/08/08 02:00
YWGT 080200Z AUTO 00000KT //// // ////// 08/05 Q1021

2010/08/08 02:00
YWHA 080200Z AUTO 35017KT 9999NDV // NCD 14/03 Q1014

2010/08/08 02:00
YWLM 080200Z 27004KT 9999 FEW030 16/07 Q1020

2010/08/08 02:00
ZBHH 080200Z 22001MPS 3500 BR FEW030 SCT040 FEW040CB 21/18 Q1010 NOSIG

2010/08/08 02:00
ZBSJ 080200Z 33001MPS 6000 NSC 26/21 Q1004 NOSIG

2010/08/08 02:00
ZGHA 080200Z 01002MPS 330V080 CAVOK 32/27 Q1004 NOSIG

2010/08/08 02:00
ZGKL 080200Z VRB02MPS 3000 HZ NSC 31/24 Q1006 NOSIG

2010/08/08 02:00
ZGOW 080200Z 07004MPS CAVOK 32/22 Q1004 NOSIG

2010/08/08 02:00
ZJHK 080200Z 13001MPS 9999 SCT016 FEW023TCU FEW030CB 26/25 Q1004 NOSIG

2010/08/08 02:00
ZLXY 080200Z 06005MPS 2000 R05/1400N HZ SKC 28/21 Q1007 BECMG TL 0330 3000 HZ

2010/08/08 02:00
ZSQD 080200Z 18008G13MPS CAVOK 28/22 Q1007 NOSIG

2010/08/08 02:00
ZWSH 080200Z 33003MPS 8000 BKN040 27/10 Q1009 NOSIG

2010/08/08 02:00
ZYCC 080200Z 15005MPS 9999 -RA FEW010 OVC030 20/17 Q1007 NOSIG

2010/08/08 02:00
ZYTX 080200Z 10005MPS 4000 -RA BR SCT006 OVC026 20/19 Q1004 NOSIG

2010/08/08 02:00
UDYZ 080200Z VRB01MPS 9999 SKC 20/09 Q1013 09010070 NOSIG

2010/08/08 02:00
UDSG 080200Z 00000MPS 9999 NSC 12/08 Q1019 02CLRD70 NOSIG

2010/08/08 02:00
UAAA 080200Z 00000MPS 9999 FEW200 21/14 Q1010 88CLRD65 NOSIG

2010/08/08 02:00
UACC 080200Z 27002MPS 9000 BKN233 19/11 Q1013 220/0070 NOSIG RMK QFE729/0972

2010/08/08 02:00
UAKK 080200Z 00000MPS CAVOK 16/10 Q1014 050///70 NOSIG RMK QFE713/0951

2010/08/08 02:00
UARR 080200Z 36004MPS 9999 SCT050CB BKN/// 24/10 Q1016 04CLRD70 NOSIG RMK QFE758/1011

2010/08/08 02:00
UATE 080200Z 03006MPS CAVOK 24/14 Q1010 120///70 NOSIG RMK QFE755/1007

2010/08/08 02:00
UATG 080200Z 00000MPS CAVOK 22/11 Q1012 32CLRD70 NOSIG RMK QFE761/1015 

2010/08/08 02:00
UATT 080200Z 00000MPS CAVOK 21/10 Q1016 13CLRD70 NOSIG RMK QFE743/0990

2010/08/08 02:00
UAUU 080200Z 00000MPS CAVOK 22/14 Q1014 33CLRD70 NOSIG RMK QFE745/0993

2010/08/08 02:00
UAFM 080200Z 20002MPS CAVOK 24/07 Q1010 NOSIG

2010/08/08 02:00
OEDR 080200Z VRB03KT 7000 SKC 31/20 Q0996 NOSIG

2010/08/08 02:00
UTAA 080200Z 30006MPS 9999 FEW230 29/04 Q1010 NOSIG

2010/08/08 02:00
UTAK 080200Z 00000MPS CAVOK 24/10 Q1010 NOSIG

2010/08/08 02:00
UTAM 080200Z 30002MPS CAVOK 25/08 Q1006 NOSIG

2010/08/08 02:00
UTAV 080200Z 00000MPS CAVOK 21/15 Q1005

2010/08/08 02:00
UTDD 080200Z 00000MPS 9999 FEW066 BKN130 25/16 Q1007 09CLRD70 NOSIG RMK QFE688/0918

2010/08/08 02:00
UTDL 080200Z 00000MPS 9999 SCT100 25/20 Q1006 NOSIG RMK QFE717 8809//70

2010/08/08 02:00
OIAA 080200Z 00000KT 9999 BKN040 31/13 Q0997

2010/08/08 02:00
OIBK 080200Z 12014KT 3000 BR SKC 32/31 Q0997 A2946

2010/08/08 02:00
OICC 080200Z 09004KT CAVOK 22/02 Q1015 A2999 866.8

2010/08/08 02:00
OIGG 080200Z 00000KT 6000 SKC 22/21 Q1010 A2984

2010/08/08 02:00
OIIE 080200Z 29006KT CAVOK 22/M02 Q1014 A2996 901.2 020

2010/08/08 02:00
OITR 080200Z 27004KT 9999 FEW035 15/10 Q1016 A3003

2010/08/08 02:00
OIYY 080200Z 29004KT CAVOK 21/M07 Q1016 A3000

2010/08/08 01:53
KAMA 080153Z 16011KT 10SM CLR 29/17 A2993

2010/08/08 01:53
KAUS 080153Z 16007KT 10SM FEW120 SCT250 32/21 A2985

2010/08/08 01:53
KBPT 080153Z AUTO 00000KT 10SM CLR 28/25 A2988

2010/08/08 02:00
KBQK 080200Z AUTO 00000KT 2SM CLR 26/25 A2993

2010/08/08 01:53
KBRO 080153Z AUTO 15008KT 10SM CLR 29/24 A2987

2010/08/08 01:53
KBTR 080153Z 23008KT 10SM FEW250 30/24 A2987

2010/08/08 01:53
KCHA 080153Z 33003KT 10SM SCT070 SCT150 29/21 A2993

2010/08/08 01:51
KCRP 080151Z 15006KT 10SM FEW025 28/24 A2986

2010/08/08 01:53
KDAL 080153Z 16009KT 10SM FEW070 SCT280 35/22 A2980

2010/08/08 01:53
KDRT 080153Z AUTO 12006KT 10SM CLR 34/17 A2979

2010/08/08 01:51
KELP 080151Z 27011KT 10SM FEW100 SCT300 34/10 A2991

2010/08/08 01:53
KEYW 080153Z AUTO 00000KT 10SM SCT023 31/26 A2997

2010/08/08 01:53
KFPR 080153Z AUTO 18003KT 10SM CLR 26/24 A2996

2010/08/08 01:53
KFTW 080153Z 17008KT 10SM CLR 33/21 A2980

2010/08/08 01:53
KFTY 080153Z 09004KT 9SM CLR 29/23 A2995

2010/08/08 01:53
KFXE 080153Z 16004KT 10SM CLR 27/24 A2996

2010/08/08 01:52
KGLS 080152Z AUTO 20009KT 10SM CLR 30/24 A2989

2010/08/08 01:53
KGPT 080153Z 00000KT 10SM CLR 32/24 A2989

2010/08/08 01:53
KHOU 080153Z 17004KT 10SM FEW060 SCT130 29/24 A2987

2010/08/08 01:52
KHRL 080152Z AUTO 15010KT 10SM CLR 29/24 A2985

2010/08/08 01:53
KHSV 080153Z 00000KT 10SM CLR 30/16 A2992

2010/08/08 01:53
KLCH 080153Z 23004KT 10SM CLR 29/24 A2988

2010/08/08 01:56
KLRD 080156Z AUTO 13009KT 10SM CLR 34/20 A2984

2010/08/08 01:53
KMAF 080153Z 15009KT 10SM CLR 33/14 A2989

2010/08/08 01:53
KMFE 080153Z AUTO 15011KT 10SM FEW032 30/24 A2985

2010/08/08 01:53
KMGM 080153Z 18005KT 10SM FEW050 SCT095 BKN150 BKN250 29/23 A2990

2010/08/08 01:56
KMOB 080156Z 15004KT 10SM FEW050 SCT120 BKN200 28/23 A2992

2010/08/08 01:53
KNEW 080153Z AUTO 22007KT 10SM CLR 31/24 A2990

2010/08/08 01:53
KOPF 080153Z AUTO 12003KT 10SM CLR 27/24 A2998

2010/08/08 01:53
KPDK 080153Z 00000KT 10SM CLR 28/22 A2997

2010/08/08 01:53
KPIE 080153Z 23004KT 10SM CLR 28/25 A2994

2010/08/08 01:53
KPNS 080153Z 34003KT 10SM -TSRA BKN065 25/23 A2990

2010/08/08 01:53
KRSW 080153Z 24004KT 10SM FEW025 28/25 A2995

2010/08/08 01:53
KSAT 080153Z 14012KT 10SM FEW055 SCT250 32/21 A2986

2010/08/08 01:53
KSAV 080153Z 25003KT 10SM FEW030 SCT070 27/24 A2992

2010/08/08 01:56
KSHV 080156Z 00000KT 10SM FEW080 SCT170 BKN290 28/24 A2984

2010/08/08 01:53
KSSI 080153Z AUTO 00000KT 10SM FEW015 SCT039 26/24 A2992

2010/08/08 01:53
KTMB 080153Z 12003KT 10SM CLR 28/25 A2998

2010/08/08 01:53
KTUL 080153Z 12005KT 10SM CLR 28/23 A2982

2010/08/08 01:53
KTYS 080153Z 03004KT 10SM CLR 27/18 A2995

2010/08/08 02:00
MYNN 080200Z 24003KT 9999 VCSH FEW015CB BKN016TCU BKN100 30/26 A3001

2010/08/08 02:03
KEWN 080203Z AUTO 09004KT 9SM BKN024 27/24 A2996

2010/08/08 01:53
KAZO 080153Z 21005KT 10SM CLR 23/18 A2994

2010/08/08 01:53
KBDE 080153Z AUTO 08004KT 10SM BKN049 21/16 A2970

2010/08/08 01:53
KBTL 080153Z 20005KT 10SM SCT100 22/18 A2995

2010/08/08 01:53
KBTM 080153Z AUTO 20009KT 10SM FEW025 SCT070 OVC095 22/04 A2993

2010/08/08 01:55
KCIU 080155Z AUTO 21005KT 10SM BKN095 18/14 A2982

2010/08/08 01:53
KCMX 080153Z AUTO 08005KT 10SM FEW055 BKN100 OVC120 18/12 A2976

2010/08/08 01:54
KCOS 080154Z 20003KT 10SM CLR 22/12 A3006

2010/08/08 01:53
KCPR 080153Z 30011KT 10SM CLR 28/01 A2991

2010/08/08 01:53
KDET 080153Z 23006KT 10SM CLR 24/16 A2993

2010/08/08 01:55
KDLH 080155Z 12010KT 10SM -TSRA OVC042CB 17/16 A2972

2010/08/08 01:54
KDSM 080154Z 16008KT 10SM FEW100 27/22 A2981

2010/08/08 01:54
KELO 080154Z AUTO 00000KT 10SM SCT110 20/17 A2972

2010/08/08 01:53
KFAR 080153Z 01003KT 10SM CLR 27/22 A2960

2010/08/08 01:53
KFNT 080153Z AUTO 23005KT 10SM CLR 22/17 A2992

2010/08/08 01:53
KGFK 080153Z 13003KT 10SM SCT120 27/22 A2961

2010/08/08 01:53
KGRB 080153Z 21007KT 10SM CLR 24/20 A2979

2010/08/08 01:53
KGRR 080153Z 19005KT 10SM FEW050 SCT120 23/18 A2991

2010/08/08 01:53
KICT 080153Z 15009KT 10SM SCT100 BKN150 BKN200 31/22 A2982

2010/08/08 01:52
KISN 080152Z 25007KT 10SM CLR 25/16 A2967

2010/08/08 01:54
KLEX 080154Z 00000KT 10SM CLR 24/14 A2999

2010/08/08 01:53
KMBS 080153Z 23007KT 10SM OVC090 24/16 A2990

2010/08/08 01:51
KMDW 080151Z 19006KT 10SM SCT090 27/17 A2990

2010/08/08 01:54
KMKC 080154Z 16008KT 10SM CLR 29/22 A2983

2010/08/08 01:52
KMKE 080152Z 21008KT 10SM FEW100 SCT250 24/19 A2986

2010/08/08 01:52
KMLI 080152Z 17005KT 10SM CLR 25/21 A2986

2010/08/08 01:54
KMOT 080154Z 00000KT 10SM CLR 27/18 A2964

2010/08/08 01:52
KOMA 080152Z 16012KT 10SM CLR 30/23 A2975

2010/08/08 02:00
UKLI 080200Z 00000MPS 4000 BR SCT020 BKN100 17/17 Q1014 10090070 NOSIG

2010/08/08 02:00
UKCM 080200Z 04004MPS 010V080 CAVOK 27/06 Q1013 NOSIG

2010/08/08 02:00
UKCW 080200Z 04001MPS CAVOK 21/08 Q1016 0909//70 NOSIG

2010/08/08 02:00
UKKK 080200Z 10002MPS 5000 FU SKC 24/14 Q1014 08CLRD70 NOSIG

2010/08/08 02:00
UKKM 080200Z VRB01MPS 7000 NSC 23/14 Q1014

2010/08/08 01:54
KAPN 080154Z AUTO 00000KT 10SM CLR 19/17 A2984

2010/08/08 01:55
KINL 080155Z AUTO 10004KT 10SM SCT047 BKN055 BKN075 20/16 A2971

2010/08/08 01:55
KPHN 080155Z AUTO 17005KT 10SM SCT060 BKN075 BKN090 22/16 A2992

2010/08/08 01:54
KPIA 080154Z 20003KT 10SM CLR 24/18 A2990

2010/08/08 01:53
KPTK 080153Z 22005KT 10SM SCT150 23/16 A2993

2010/08/08 01:53
KPUB 080153Z 20005KT 10SM CLR 24/17 A2991

2010/08/08 01:50
KSAW 080150Z 35005KT 10SM SCT060 SCT120 19/14 A2976

2010/08/08 01:56
KSDF 080156Z 08004KT 10SM CLR 27/14 A2995

2010/08/08 01:52
KSGF 080152Z AUTO 15005KT 10SM CLR 27/21 A2989

2010/08/08 01:53
KSTP 080153Z 18008KT 10SM CLR 28/23 A2968

2010/08/08 01:54
KSUS 080154Z 14004KT 10SM CLR 26/20 A2988

2010/08/08 01:52
KTOL 080152Z 20004KT 8SM CLR 19/17 A2995

2010/08/08 01:59
KNGU 080159Z 09005KT 9SM CLR 26/23 A2999 RMK AO2 SLP155 T02560233 $

2010/08/08 01:55
KVAD 080155Z 22003KT 10SM R18/5500VP6000FT -RA OVC006 25/24 A2994 RMK AO2A SLP135 P0009 T02480244 $

2010/08/08 02:00
MKJP 080200Z 01004KT 9999 FEW022 BKN240 28/21 Q1014

2010/08/08 02:00
MKJS 080200Z 18001KT 9999 VCTS SCT022 FEW024CB BKN220 28/24 Q1014

2010/08/08 01:52
MMVR 080152Z 00000KT 7SM FEW012TCU SCT070 BKN220 29/25 A2989 RMK 8/263 HZY DSNT CBS 3/4 QDS

2010/08/08 02:00
MWCR 080200Z 12008KT 9999 FEW022 BKN250 30/26 Q1014 NOSIG

2010/08/08 02:00
SAZS 080200Z 32010KT CAVOK 02/M03 Q1022

2010/08/08 02:00
SCAR 080200Z 26002KT 9999 OVC021 15/09 Q1019

2010/08/08 02:00
SCBA 080200Z AUTO 29011KT 9999 -RA BKN050 03/M00 Q1015

2010/08/08 02:00
SCDA 080200Z 20003KT 9999 OVC022 13/09 Q1019

2010/08/08 02:00
SCEL 080200Z 12004KT 090V150 9999 SCT120 10/00 Q1027 NOSIG

2010/08/08 02:00
SCFA 080200Z 13005KT 9999 BKN015 12/08 Q1017

2010/08/08 02:00
SCIE 080200Z 11002KT 5000 HZ SKC 04/02 Q1028

2010/08/08 02:00
SCTE 080200Z 00000KT 9999 SCT050 03/03 Q1026 NOSIG

2010/08/08 02:00
SKBQ 080200Z 29003KT 9999 SCT010CB SCT070 26/24 A2989 CB/NE LTNG/NE

2010/08/08 02:00
SKCG 080200Z 27004KT 9999 BKN015 29/26 A2986

2010/08/08 02:00
SKSP 080200Z 01004KT 9999 SCT015TCU SCT200 29/26 A2984

2010/08/08 02:00
SPHI 080200Z 17012KT CAVOK 15/12 Q1016 RMK PP000 BIRD HAZARD RWY 19/01

2010/08/08 02:00
SPQU 080200Z 05007KT CAVOK 13/M07 Q1029 RMK PP000

2010/08/08 02:00
SPRU 080200Z 17010KT 7000 OVC014 15/12 Q1015 RMK BR BIRDS HAZARD RWY20 PP000

2010/08/08 02:00
SPSO 080200Z 06004KT 8000 SKC 13/11 Q1016 RMK PP000

2010/08/08 02:00
TTPP 080200Z 00000KT 9999 FEW016 SCT036 25/24 Q1013 NOSIG

2010/08/08 01:53
KBFI 080153Z 15007KT 10SM -RA BKN010 OVC060 18/16 A2989

2010/08/08 01:53
KBIL 080153Z 17008KT 140V210 10SM SCT100 23/11 A2982

2010/08/08 01:53
KBKE 080153Z AUTO 33014G18KT 10SM CLR 24/08 A2984

2010/08/08 01:53
KBLI 080153Z 17004KT 7SM -RA BKN022 BKN028 OVC035 17/16 A2989

2010/08/08 01:53
KBOI 080153Z 34011KT 10SM CLR 31/05 A2975

2010/08/08 01:53
KCLM 080153Z AUTO 00000KT 10SM FEW003 SCT026 OVC036 16/14 A2990

2010/08/08 01:56
KCTB 080156Z AUTO 25014KT 10SM CLR 23/06 A2977

2010/08/08 01:56
KDUG 080156Z AUTO 24007KT 10SM BKN120 24/18 A3000

2010/08/08 01:53
KFAT 080153Z 31009KT 10SM FEW100 34/08 A2970

2010/08/08 01:55
KGDV 080155Z AUTO 26005KT 10SM FEW120 27/11 A2972

2010/08/08 01:53
KGEG 080153Z 24014KT 10SM FEW090 SCT140 BKN200 27/07 A2976

2010/08/08 01:53
KGGW 080153Z AUTO 09003KT 10SM SCT110 27/12 A2967

2010/08/08 01:53
KGLH 080153Z AUTO 04003KT 10SM CLR 27/25 A2987

2010/08/08 01:55
KGPI 080155Z 26007KT 10SM CLR 26/06 A2975

2010/08/08 01:53
KGTF 080153Z AUTO 26005KT 10SM CLR 26/03 A2974

2010/08/08 01:53
KGWO 080153Z AUTO 00000KT 10SM CLR 26/25 A2989

2010/08/08 01:53
KHLN 080153Z 30007KT 10SM CLR 27/04 A2977

2010/08/08 01:53
KHQM 080153Z AUTO 22011KT 1/2SM FG OVC001 15/14 A2993

2010/08/08 01:53
KHVR 080153Z AUTO 29005KT 10SM CLR 28/06 A2968

2010/08/08 01:53
KIPL 080153Z AUTO 13011KT 10SM CLR 38/08 A2960

2010/08/08 01:53
KLBB 080153Z 16007KT 10SM FEW100 SCT250 31/16 A2991

2010/08/08 01:53
KMSO 080153Z 31011KT 10SM CLR 27/04 A2978

2010/08/08 01:52
KMWH 080152Z 32013KT 10SM CLR 26/08 A2976

2010/08/08 01:56
KNUW 080156Z 14006KT 10SM -RA SCT008 OVC014 18/16 A2989

2010/08/08 01:53
KOLF 080153Z AUTO 00000KT 10SM CLR 28/13 A2966

2010/08/08 01:54
KOLM 080154Z 22005KT 10SM BKN017 OVC070 18/16 A2991

2010/08/08 01:54
KOLS 080154Z AUTO 30004KT 10SM VCTS SCT100 26/18 A2999

2010/08/08 01:55
KOLV 080155Z AUTO 00000KT 8SM BKN048 28/24 A2990

2010/08/08 01:53
KPAE 080153Z 17007KT 10SM -RA BKN008 BKN013 OVC031 17/16 A2990

2010/08/08 01:53
KPDX 080153Z 34008KT 10SM FEW040 SCT060 OVC080 21/16 A2989

2010/08/08 01:53
KPMD 080153Z AUTO 24013KT 10SM CLR 27/01 A2984

2010/08/08 01:55
KRNO 080155Z VRB05G23KT 10SM SCT060CB BKN080 BKN140 28/01 A2989

2010/08/08 01:53
KRNT 080153Z 14003KT 6SM -RA BR BKN020 BKN044 OVC055 18/17 A2989

2010/08/08 01:53
KSAC 080153Z 20010KT 10SM CLR 26/13 A2971

2010/08/08 01:55
KSCK 080155Z 32008KT 10SM CLR 28/14 A2972

2010/08/08 01:53
KSDM 080153Z 29005KT 10SM CLR 17/12 A2987

2010/08/08 01:53
KSFF 080153Z 25012KT 10SM CLR 28/07 A2974

2010/08/08 01:53
KSJC 080153Z 29012KT 10SM FEW015 20/13 A2980

2010/08/08 01:53
KSLC 080153Z 15013G21KT 10SM FEW090 SCT110 SCT150 BKN200 26/08 A2988

2010/08/08 01:53
KSMF 080153Z 17010KT 10SM CLR 28/14 A2969

2010/08/08 01:53
KTIW 080153Z 21004KT 4SM -RA BR BKN005 OVC010 17/16 A2991

2010/08/08 01:53
KTUS 080153Z 28006KT 10SM FEW080 29/17 A2990

2010/08/08 01:55
EHSC 080155Z AUTO 34009G10KT 9999 18/16 Q1015 W04/S3

2010/08/08 01:55
EHJR 080155Z AUTO 36012G13KT //// 17/15 Q1016 W17/S3

2010/08/08 02:00
LRBC 080200Z 04004KT CAVOK 23/21 Q1013

2010/08/08 02:00
LRCV 080200Z AUTO 27004KT 0900 R09/1300VP2000D FG VV002 21/20 Q1013

2010/08/08 02:00
LRSV 080200Z AUTO VRB02KT 9999 FEW130 18/17 Q1014

2010/08/08 02:00
LRTC 080200Z AUTO 00000KT 5000 BR BKN150 24/23 Q1011

2010/08/08 02:00
LRAR 080200Z 33004KT CAVOK 15/15 Q1017

2010/08/08 02:00
LRBM 080200Z 28006KT 250V310 9999 FEW013 SCT039 BKN060 19/18 Q1015

2010/08/08 02:00
LRCL 080200Z 29004KT CAVOK 17/16 Q1017 0829//95

2010/08/08 02:00
LROD 080200Z AUTO 20004KT 7000 +RA NCD 15/14 Q1017

2010/08/08 02:00
LRSM 080200Z AUTO 24006KT 9999 +RA BKN050 BKN080 18/18 Q1016

2010/08/08 02:00
LRTM 080200Z VRB02KT 6000 FEW034CB SCT042 18/18 Q1016 RETS 0729//95

2010/08/08 01:55
EHSA 080155Z AUTO 35008G10KT 9999 17/16 Q1015 W19/S3

2010/08/08 02:00
LPFR 080200Z 14005KT 110V190 9999 FEW045 BKN100 26/21 Q1016

2010/08/08 02:00
LPMA 080200Z 02007KT 320V120 9999 FEW018 21/15 Q1016 RS30003KT 0535004KT 2301007KT

2010/08/08 02:00
LPPR 080200Z 00000KT CAVOK 20/16 Q1014

2010/08/08 02:00
LPPS 080200Z 02008KT 350V050 9999 SCT015 BKN030 21/16 Q1017

2010/08/08 02:00
LPPT 080200Z 13002KT CAVOK 27/09 Q1014 NOSIG

2010/08/08 01:54
KACY 080154Z 18004KT 10SM CLR 24/21 A3001

2010/08/08 01:53
KAUG 080153Z AUTO 00000KT 10SM CLR 16/11 A2999

2010/08/08 01:54
KAVL 080154Z 00000KT 9SM SCT049 BKN075 23/19 A3006

2010/08/08 01:53
KBGM 080153Z AUTO 02006KT 10SM CLR 18/10 A3004

2010/08/08 01:51
KBKW 080151Z AUTO 00000KT 8SM BKN060 20/16 A3008

2010/08/08 01:51
KCBE 080151Z AUTO 00000KT 10SM CLR 23/15 A3004

2010/08/08 01:51
KCON 080151Z AUTO 00000KT 10SM CLR 14/09 A3000

2010/08/08 01:52
KDCA 080152Z 20003KT 10SM CLR 26/17 A2998

2010/08/08 01:51
KEKN 080151Z AUTO 00000KT 10SM CLR 16/15 A3008

2010/08/08 01:53
KGFL 080153Z AUTO 00000KT 10SM CLR 13/11 A2999

2010/08/08 01:53
KGSP 080153Z 11004KT 10SM FEW075 SCT100 26/21 A2998

2010/08/08 02:00
KIPJ 080200Z AUTO 00000KT 7SM CLR 22/21 A3000

2010/08/08 01:54
KIPT 080154Z 00000KT 10SM FEW075 20/14 A2998

2010/08/08 01:54
KLYH 080154Z 00000KT 10SM CLR 20/18 A3003

2010/08/08 01:53
KMHT 080153Z 00000KT 10SM CLR 19/09 A2998

2010/08/08 01:51
KMPV 080151Z AUTO 00000KT 10SM FEW065 12/09 A3004

2010/08/08 01:53
KMWN 080153Z 28030KT 125SM FEW020 SCT040 SCT250 04/03 RMK

2010/08/08 01:50
KMYR 080150Z 00000KT 8SM FEW020 26/23 A2997

2010/08/08 01:51
KNYC 080151Z AUTO VRB03KT 10SM CLR 24/18 A3000

2010/08/08 01:54
KPNE 080154Z 15004KT 10SM CLR 24/15 A2999

2010/08/08 01:54
KROA 080154Z 00000KT 10SM FEW070 25/16 A3004

2010/08/08 01:53
KSMQ 080153Z AUTO 32003KT 10SM CLR 20/18 A2996

2010/08/08 01:54
KWAL 080154Z AUTO 13004KT 10SM CLR 24/22 A2999

2010/08/08 01:58
KPAM 080158Z AUTO 11006KT 10SM TS FEW002 BKN022 OVC036 25/24 A2991 RMK AO2 RAE0158 SLP131 $

2010/08/08 01:56
KVAD 080156Z 23003KT 10SM R18/5500VP6000FT -RA OVC005 25/24 A2994 RMK AO2A SLP135 $

2010/08/08 01:55
KQBS 080155Z 24004KT 9999 BKN180 30/06 A2945 RMK SLP979 WND/ALSTG/SLP/QNH ESTMD QNH997

2010/08/08 01:55
KQGV 080155Z 29010KT 9000 DU HZ CLR 33/03 A2952 RMK SLP986

2010/08/08 01:55
KQSA 080155Z COR 00000KT 9000 FU HZ FEW030 BKN220 22/19 A2991 RMK SLP291 WND DATA ESTMD ALSTG/SLP ESTMD COR 0204

2010/08/08 01:55
KQXJ 080155Z 32012KT 1600 DU SCT010 BKN100 33/04 A2949 RMK DU SCT010 SLP987 PA+421 DA+2669

2010/08/08 02:03
KSMP 080203Z AUTO VRB04KT 1/4SM -RA FG FEW003 BKN010 OVC018 11/11 A2997 RMK AO2 P0000 TSNO $ 

2010/08/08 01:53
KAAF 080153Z AUTO 00000KT 10SM CLR 27/26 A2992

2010/08/08 01:53
KABR 080153Z AUTO 15005KT 10SM CLR 27/22 A2960

2010/08/08 01:51
KACT 080151Z 14008KT 10SM CLR 33/19 A2982

2010/08/08 01:53
KAGS 080153Z 00000KT 7SM CLR 26/25 A2993

2010/08/08 01:51
KAHN 080151Z AUTO 00000KT 6SM HZ CLR 26/23 A2997

2010/08/08 01:53
KALI 080153Z AUTO 14010KT 10SM CLR 29/25 A2985

2010/08/08 01:53
KAUS 080153Z 16007KT 10SM FEW120 SCT250 32/21 A2985

2010/08/08 02:00
KAYS 080200Z AUTO 00000KT 10SM OVC006 26/25 A2984

2010/08/08 01:51
KBVE 080151Z AUTO 25005KT 10SM SCT031 31/26 A2991

2010/08/08 01:55
KCAO 080155Z AUTO 17011KT 10SM CLR 29/14 A2997

2010/08/08 01:53
KCDS 080153Z AUTO 15007KT 10SM CLR 29/20 A2984

2010/08/08 01:53
KCLL 080153Z AUTO 16008KT 10SM CLR 32/22 A2985

2010/08/08 01:53
KCNM 080153Z AUTO 20007KT 10SM CLR 29/17 A2986

2010/08/08 01:53
KCOT 080153Z AUTO 14006KT 10SM CLR 32/19 A2983

2010/08/08 01:51
KCSG 080151Z AUTO 15008KT 9SM CLR 30/22 A2992

2010/08/08 01:53
KCTY 080153Z AUTO 00000KT 25/24 A2993

2010/08/08 01:53
KDAB 080153Z 00000KT 10SM -RA BKN030 BKN140 OVC200 26/24 A2993

2010/08/08 01:53
KDHT 080153Z AUTO 18010KT 10SM CLR 28/17 A2992

2010/08/08 01:53
KECP 080153Z 04004KT 9SM BR FEW026 26/25 A2991

2010/08/08 01:53
KELD 080153Z AUTO 00000KT 8SM CLR 26/25 A2985

2010/08/08 01:51
KELP 080151Z 27011KT 10SM FEW100 SCT300 34/10 A2991

2010/08/08 01:53
KESF 080153Z AUTO 00000KT 10SM FEW060 27/24 A2987

2010/08/08 01:53
KFSM 080153Z 06006KT 10SM CLR 26/24 A2985

2010/08/08 01:53
KFYV 080153Z 00000KT 10SM CLR 27/22 A2989

2010/08/08 01:53
KGAG 080153Z AUTO 14007KT 10SM SCT090 28/19 A2985

2010/08/08 01:51
KGDP 080151Z AUTO 07013KT 10SM CLR 27/12 A3008

2010/08/08 01:53
KHBR 080153Z AUTO 15007KT 10SM CLR 33/18 A2984

2010/08/08 01:51
KHDO 080151Z AUTO 13008KT 10SM CLR 32/18 A2986

2010/08/08 01:53
KHOT 080153Z AUTO 11008KT 9SM FEW070 30/24 A2987

2010/08/08 01:53
KHRO 080153Z AUTO 13006KT 9SM CLR 27/21 A2991

2010/08/08 01:53
KINK 080153Z AUTO 14013G19KT 10SM CLR 34/12 A2985

2010/08/08 01:54
KIPT 080154Z 00000KT 10SM FEW075 20/14 A2998

2010/08/08 01:54
KJAN 080154Z 00000KT 10SM CLR 27/24 A2990

2010/08/08 01:53
KJBR 080153Z AUTO 06003KT 10SM CLR 27/20 A2988

2010/08/08 01:51
KJCT 080151Z AUTO 15007KT 10SM CLR 33/17 A2988

2010/08/08 01:55
KJQF 080155Z 00000KT 10SM CLR 24/21 A2998

2010/08/08 01:53
KLFK 080153Z AUTO 18004KT 10SM CLR 31/22 A2986

2010/08/08 01:53
KLFT 080153Z 22005KT 10SM CLR 29/24 A2989

2010/08/08 01:53
KMCN 080153Z AUTO 00000KT 9SM CLR 27/24 A2993

2010/08/08 01:58
KMEI 080158Z 00000KT 8SM CLR 26/26 A2991

2010/08/08 01:53
KMLC 080153Z AUTO 08004KT 10SM CLR 31/23 A2983

2010/08/08 01:53
KMLU 080153Z 00000KT 10SM CLR 30/25 A2987

2010/08/08 01:53
KMWL 080153Z AUTO 15007KT 10SM CLR 32/20 A2981

2010/08/08 01:53
KPBF 080153Z AUTO 13004KT 10SM CLR 27/24 A2988

2010/08/08 01:53
KPNC 080153Z AUTO 13010KT 10SM CLR 31/23 A2981

2010/08/08 01:53
KPSX 080153Z AUTO 16006KT 10SM CLR 30/24 A2987

2010/08/08 01:53
KPWA 080153Z 14010KT 10SM CLR 33/21 A2983

2010/08/08 01:53
KRMG 080153Z AUTO 00000KT 10SM CLR 26/21 A2992

2010/08/08 01:53
KRSL 080153Z AUTO 16012KT 10SM CLR 30/21 A2978

2010/08/08 01:56
KSHV 080156Z 00000KT 10SM FEW080 SCT170 BKN290 28/24 A2984

2010/08/08 01:52
KSPS 080152Z AUTO 13007KT 10SM CLR 33/22 A2980

2010/08/08 01:53
KTLH 080153Z 00000KT 10SM SCT049 SCT070 BKN100 25/23 A2994

2010/08/08 01:53
KTOP 080153Z AUTO 15007KT 10SM CLR 30/23 A2981

2010/08/08 01:53
KTRI 080153Z 00000KT 9SM CLR 22/16 A3000

2010/08/08 01:53
KTUP 080153Z 00000KT 8SM CLR 28/25 A2989

2010/08/08 01:51
KVCT 080151Z 16008KT 10SM CLR 28/25 A2987

2010/08/08 01:53
KVGT 080153Z 36010G14KT 10SM BKN110 32/10 A2973

2010/08/08 01:58
KVUJ 080158Z AUTO 00000KT 7SM OVC090 23/22 A2996

2010/08/08 02:03
KTVL 080203Z AUTO 15015G29KT 10SM -RA OVC080 19/04 A3008

2010/08/08 02:00
FBSK 080200Z 09006KT CAVOK 07/05 Q1025 NOSIG

2010/08/08 01:53
KAIA 080153Z AUTO 16005KT 10SM CLR 26/12 A2983

2010/08/08 01:54
KALO 080154Z AUTO 19008KT 10SM CLR 26/22 A2979

2010/08/08 01:52
KALS 080152Z AUTO 18021G28KT 10SM TS SCT100 BKN120 23/07 A3013

2010/08/08 01:50
KANW 080150Z AUTO 05006KT 10SM CLR 28/18 A2976

2010/08/08 01:53
KBBW 080153Z AUTO 16003KT 10SM CLR 27/23 A2978

2010/08/08 01:53
KBFF 080153Z AUTO 17005KT 10SM CLR 29/14 A2984

2010/08/08 01:50
KBIE 080150Z AUTO 16007KT 10SM CLR 29/21 A2977

2010/08/08 01:52
KBIS 080152Z 10004KT 10SM CLR 26/19 A2966

2010/08/08 01:53
KBPI 080153Z AUTO 27006KT 10SM CLR 19/04 A3007

2010/08/08 01:53
KBRL 080153Z AUTO 18005KT 10SM CLR 25/22 A2987

2010/08/08 01:53
KCAG 080153Z AUTO 00000KT 10SM -RA OVC085 15/13 A3019

2010/08/08 01:53
KCGI 080153Z AUTO 00000KT 10SM CLR 24/19 A2990

2010/08/08 01:52
KCID 080152Z 15005KT 9SM CLR 24/22 A2983

2010/08/08 01:55
KCNK 080155Z AUTO 14007KT 10SM CLR 28/21 A2979

2010/08/08 01:52
KCNU 080152Z AUTO 14005KT 8SM CLR 28/24 A2985

2010/08/08 01:54
KCOU 080154Z AUTO 12004KT 10SM CLR 26/22 A2989

2010/08/08 01:53
KCYS 080153Z 17010KT 10SM -RA FEW055 OVC090 23/08 A3006

2010/08/08 01:53
KDBQ 080153Z AUTO 16007KT 9SM CLR 23/20 A2986

2010/08/08 01:52
KDDC 080152Z AUTO 18010KT 8SM CLR 27/16 A2985

2010/08/08 01:55
KDVL 080155Z AUTO 02004KT 10SM SCT043 BKN050 26/19 A2964

2010/08/08 01:55
KEAR 080155Z AUTO 16005KT 10SM CLR 27/23 A2980

2010/08/08 01:54
KEVV 080154Z 00000KT 10SM CLR 24/17 A2994

2010/08/08 01:53
KFNB 080153Z AUTO 15006KT 10SM CLR 27/23 A2979

2010/08/08 01:56
KFSD 080156Z 18010G17KT 10SM CLR 28/23 A2968

2010/08/08 01:54
KFWA 080154Z 17003KT 10SM CLR 22/18 A2997

2010/08/08 01:53
KGCC 080153Z AUTO 36008KT 10SM VCTS CLR 23/11 A2987

2010/08/08 01:54
KGCK 080154Z AUTO 14018G24KT 10SM FEW095 29/18 A2984

2010/08/08 01:53
KGJT 080153Z 30017KT 10SM -RA OVC060 21/13 A3009

2010/08/08 01:53
KGLD 080153Z AUTO 25003KT 10SM CLR 26/19 A2988

2010/08/08 01:55
KGPZ 080155Z AUTO 13005KT 10SM SCT039 BKN045 OVC070 23/18 A2968

2010/08/08 01:53
KGRI 080153Z AUTO 16006KT 10SM CLR 28/22 A2977

2010/08/08 01:50
EGDY 080150Z AUTO 29003KT 9999NDV BKN030/// 15/12 Q1020

2010/08/08 01:50
EGOS 080150Z AUTO 27005KT 9999NDV OVC014/// 14/11 Q1020

2010/08/08 01:50
EGUB 080150Z AUTO 00000KT 9999NDV // BKN017/// 13/12 Q1019

2010/08/08 01:50
EGVO 080150Z AUTO 28005KT 9999NDV NCD 13/12 Q1019

2010/08/08 01:50
EGVP 080150Z AUTO 31005KT 9999NDV // NCD 12/11 Q1019

2010/08/08 01:50
EGXG 080150Z AUTO 33008KT 8000NDV BR NCD 12/11 Q1019

2010/08/08 01:50
EGXJ 080150Z AUTO 33006KT 8000NDV // FEW005/// BKN010/// 14/13 Q1018

2010/08/08 01:50
EGXZ 080150Z AUTO 35004KT 8000NDV BR BKN060/// 12/11 Q1020

2010/08/08 01:55
ETIH 080155Z AUTO 00000KT 9999 CLR 09/09 A3008 RMK AO2 SLP180 T00940094 $

2010/08/08 02:00
LELO 080200Z 28009KT CAVOK 18/13 Q1020

2010/08/08 02:00
LERT 080200Z 10013KT CAVOK 29/10 Q1014 NOSIG

2010/08/08 02:00
LFGJ 080200Z AUTO VRB02KT 9999NDV NSC 16/13 Q1018

2010/08/08 02:00
LFMH 080200Z AUTO 13002KT 9999NDV NSC 16/12 Q1019

2010/08/08 02:00
LFMK 080200Z AUTO 00000KT 9999NDV NSC 16/13 Q1018

2010/08/08 02:00
LFPN 080200Z AUTO 28003KT 9999NDV SCT044 15/13 Q1018

2010/08/08 02:00
LFRJ 080200Z AUTO 27003KT 1800NDV FG FEW011/// 14/13 Q1021

2010/08/08 02:00
LFRO 080200Z AUTO 29005KT 9999NDV BKN027 14/13 Q1021

2010/08/08 02:00
LFRZ 080200Z AUTO VRB02KT 9999NDV NSC 13/11 Q1021

2010/08/08 02:00
LFSB 080200Z AUTO 16005KT 9999NDV NSC 16/13 Q1018

2010/08/08 02:00
LFST 080200Z AUTO 18003KT 9999NDV //////TCU 17/13 Q1016

2010/08/08 02:00
LFTH 080200Z AUTO 02002KT 9999NDV NSC 14/11 Q1016

2010/08/08 02:00
LJLJ 080200Z 00000KT CAVOK 12/11 Q1018 NOSIG

2010/08/08 02:00
LJMB 080200Z VRB02KT 9999 FEW006 13/13 Q1018

2010/08/08 02:00
LJPZ 080200Z AUTO 12007KT 9999NDV NCD 15/12 Q1017

2010/08/08 02:00
LPFR 080200Z 14005KT 110V190 9999 FEW045 BKN100 26/21 Q1016

2010/08/08 02:00
LPPR 080200Z 00000KT CAVOK 20/16 Q1014

2010/08/08 02:00
LPPS 080200Z 02008KT 350V050 9999 SCT015 BKN030 21/16 Q1017

2010/08/08 02:00
LPPT 080200Z 13002KT CAVOK 27/09 Q1014 NOSIG

2010/08/08 01:55
KHON 080155Z AUTO 25003KT 10SM CLR 29/22 A2962

2010/08/08 01:53
KHSI 080153Z AUTO 16006KT 10SM CLR 29/22 A2978

2010/08/08 01:53
KHTL 080153Z AUTO 23007KT 10SM BKN044 OVC060 22/17 A2989

2010/08/08 01:53
KIML 080153Z AUTO 14005KT 10SM CLR 27/19 A2982

2010/08/08 01:55
KIRK 080155Z AUTO 16005KT 10SM CLR 23/22 A2988

2010/08/08 01:59
KJAC 080159Z 00000KT 10SM SKC 18/06 A3003

2010/08/08 01:53
KJKL 080153Z AUTO 00000KT 10SM CLR 23/16 A3001

2010/08/08 01:53
KJLN 080153Z 14004KT 10SM CLR 28/23 A2986

2010/08/08 01:59
KJNX 080159Z AUTO 00000KT 7SM BKN047 24/24 A2996

2010/08/08 01:53
KLAN 080153Z 22006KT 10SM BKN110 23/17 A2993

2010/08/08 01:53
KLBF 080153Z AUTO 12003KT 10SM CLR 26/23 A2979

2010/08/08 01:53
KLND 080153Z AUTO 34014G17KT 10SM SCT120 26/01 A2994

2010/08/08 01:54
KLNK 080154Z 17007KT 10SM CLR 28/22 A2976

2010/08/08 01:53
KLXV 080153Z AUTO 03005KT 10SM SCT075 14/05 A3034

2010/08/08 01:53
KMCK 080153Z AUTO 17004KT 10SM CLR 28/21 A2978

2010/08/08 01:53
KMCW 080153Z AUTO 19006KT 8SM CLR 25/22 A2980

2010/08/08 01:52
KMFD 080152Z 16004KT 10SM CLR 20/14 A3001

2010/08/08 01:52
KMHK 080152Z 16003KT 10SM CLR 30/22 A2979

2010/08/08 01:55
KMKG 080155Z 19010KT 10SM SCT060 25/20 A2988

2010/08/08 01:53
KMSN 080153Z 20005KT 10SM CLR 25/19 A2985

2010/08/08 01:53
KODX 080153Z AUTO 18004KT 10SM CLR 28/23 A2975

2010/08/08 01:50
KONL 080150Z AUTO 19009KT 10SM CLR 29/23 A2972

2010/08/08 01:53
KOTM 080153Z AUTO 18005KT 5SM BR CLR 24/22 A2984

2010/08/08 01:53
KPAH 080153Z 04006KT 8SM CLR 27/17 A2990

2010/08/08 01:53
KPKD 080153Z AUTO 10005KT 10SM BKN037 OVC044 25/20 A2968

2010/08/08 01:52
KRAP 080152Z 35005KT 10SM CLR 25/16 A2980

2010/08/08 01:54
KRFD 080154Z 19007KT 10SM CLR 23/18 A2990

2010/08/08 01:53
KRIW 080153Z AUTO 31012KT 10SM CLR 24/03 A2994

2010/08/08 01:54
KRST 080154Z 19006KT 9SM CLR 24/22 A2977

2010/08/08 01:53
KSHR 080153Z AUTO 32012G20KT 10SM FEW090 SCT110 23/10 A2989

2010/08/08 01:53
KSLN 080153Z 17009KT 10SM CLR 32/21 A2978

2010/08/08 01:52
KSPI 080152Z 18005KT 10SM CLR 24/18 A2991

2010/08/08 01:53
KSTC 080153Z 20009KT 10SM CLR 28/23 A2965

2010/08/08 01:52
KSUX 080152Z 17007KT 10SM CLR 27/22 A2971

2010/08/08 01:53
KTCS 080153Z AUTO 20010KT 10SM CLR 31/09 A2997

2010/08/08 02:01
KTDF 080201Z AUTO 00000KT 21/21 A3001

2010/08/08 01:55
KUDG 080155Z 09007KT 10SM CLR 27/23 A2996

2010/08/08 01:54
KUIN 080154Z AUTO 14003KT 9SM CLR 25/22 A2989

2010/08/08 01:53
KVIH 080153Z AUTO 11006KT 10SM CLR 24/21 A2990

2010/08/08 01:52
KVTN 080152Z AUTO 01004KT 10SM CLR 29/17 A2976

2010/08/08 01:51
KYNG 080151Z 16004KT 10SM SCT250 16/13 A3001

2010/08/08 01:54
KSBN 080154Z 18004KT 10SM CLR 23/18 A2994

2010/08/08 01:55
KAST 080155Z AUTO 23007KT 5SM BR OVC005 16/14 A2993

2010/08/08 01:54
KBFL 080154Z 33006KT 10SM CLR 34/06 A2970

2010/08/08 01:52
KBLU 080152Z AUTO VRB04KT 10SM CLR 21/07 A3003

2010/08/08 01:56
KBZN 080156Z 15008KT 10SM CLR 23/07 A2986

2010/08/08 01:53
KCNY 080153Z AUTO 13008KT 10SM FEW090 18/15 A3006

2010/08/08 01:52
KCZZ 080152Z AUTO 22011KT 22/10 A2985

2010/08/08 01:55
KDRA 080155Z AUTO 21015G21KT 10SM CLR 32/02 A2979

2010/08/08 01:53
KELY 080153Z AUTO 21010G19KT 10SM CLR 27/M05 A2997

2010/08/08 01:54
KEUG 080154Z 01010KT 10SM SCT055 BKN065 BKN120 26/14 A2987

2010/08/08 01:56
KFLG 080156Z 00000KT 10SM OVC110 16/13 A3021

2010/08/08 01:56
KINW 080156Z AUTO 10SM BKN110 17/14 A3012

2010/08/08 01:59
KJNX 080159Z AUTO 00000KT 7SM BKN047 24/24 A2996

2010/08/08 01:53
KLGB 080153Z 29007KT 10SM CLR 21/12 A2984

2010/08/08 01:56
KLWS 080156Z 30011G19KT 10SM CLR 29/06 A2971

2010/08/08 01:53
KMFR 080153Z 33011KT 10SM CLR 29/09 A2982

2010/08/08 01:56
KMHS 080156Z AUTO 01004KT 10SM CLR 27/06 A2985

2010/08/08 01:56
KNUQ 080156Z 34011KT 10SM CLR 19/13 A2981

2010/08/08 01:54
KOLM 080154Z 22005KT 10SM BKN017 OVC070 18/16 A2991

2010/08/08 01:53
KPDT 080153Z 30014G20KT 10SM CLR 29/08 A2977

2010/08/08 01:53
KPGA 080153Z AUTO 00000KT 10SM CLR 21/13 A3005

2010/08/08 01:53
KPIH 080153Z 26012KT 10SM CLR 27/08 A2986

2010/08/08 01:53
KPUC 080153Z AUTO 15010KT 10SM CLR 19/08 A3011

2010/08/08 01:54
KRBL 080154Z AUTO 17016KT 10SM CLR 33/13 A2966

2010/08/08 01:52
KSDB 080152Z AUTO 19010G15KT 10SM CLR 20/05 A2997

2010/08/08 01:53
KSHN 080153Z AUTO 23008KT 1 3/4SM BR BKN014 OVC022 16/16 A2989

2010/08/08 01:54
KSJN 080154Z AUTO 27007KT 10SM SCT012 SCT016 OVC021 17/15 A3016

2010/08/08 01:53
KSLC 080153Z 15013G21KT 10SM FEW090 SCT110 SCT150 BKN200 26/08 A2988

2010/08/08 01:56
KBIH 080156Z AUTO 14012KT 10SM CLR 29/M06 A2980

2010/08/08 01:56
KMEH 080156Z AUTO 00000KT 10SM CLR 22/07 A2990

2010/08/08 01:52
KMLF 080152Z AUTO 03016KT 10SM BKN085 22/09 A2999

2010/08/08 01:56
KSMP 080156Z AUTO VRB04KT 1/2SM -RA FG SCT001 BKN006 OVC017 11/11 A2997

2010/08/08 01:53
KUIL 080153Z AUTO 26004KT 3SM BR BKN004 OVC018 14/13 A2991

2010/08/08 01:51
KSMX 080151Z AUTO 31009KT 10SM CLR 16/11 A2987

2010/08/08 01:50
KSOW 080150Z AUTO 35004KT 10SM OVC015 15/13 A3024

2010/08/08 01:50
KTRK 080150Z AUTO 27012KT 10SM SCT100 23/05 A3001

2010/08/08 01:56
KWMC 080156Z AUTO 00000KT 10SM CLR 28/M01 A2981

2010/08/08 01:53
KYKM 080153Z 33010KT 10SM BKN090 26/10 A2979

2010/08/08 01:51
KABE 080151Z 35003KT 10SM CLR 22/15 A2998

2010/08/08 01:53
KACK 080153Z AUTO 16009KT 10SM CLR 19/17 A3003

2010/08/08 01:54
KACY 080154Z 18004KT 10SM CLR 24/21 A3001

2010/08/08 01:53
KAGC 080153Z 04003KT 10SM CLR 22/11 A3002

2010/08/08 01:53
KAGS 080153Z 00000KT 7SM CLR 26/25 A2993

2010/08/08 01:54
KAKR 080154Z AUTO 19003KT 10SM CLR 21/14 A3000

2010/08/08 01:51
KALB 080151Z 00000KT 10SM FEW180 18/11 A3000

2010/08/08 01:56
KAND 080156Z AUTO 00000KT 10SM CLR 27/21 A2997

2010/08/08 01:53
KAOO 080153Z AUTO 00000KT 10SM CLR 17/15 A3004

2010/08/08 01:56
KART 080156Z AUTO 17004KT 10SM CLR 17/12 A2997

2010/08/08 01:54
KAVL 080154Z 00000KT 9SM SCT049 BKN075 23/19 A3006

2010/08/08 01:54
KAVP 080154Z 00000KT 10SM CLR 21/10 A3000

2010/08/08 01:53
KBAF 080153Z 01003KT 10SM CLR 17/12 A3000

2010/08/08 01:51
KBDL 080151Z 00000KT 10SM CLR 18/12 A2998

2010/08/08 01:52
KBDR 080152Z 20004KT 10SM CLR 24/19 A2998

2010/08/08 01:56
KBED 080156Z 00000KT 10SM CLR 16/10 A2999

2010/08/08 01:53
KBFD 080153Z AUTO 00000KT 10SM CLR 12/11 A3007

2010/08/08 01:53
KBGM 080153Z AUTO 02006KT 10SM CLR 18/10 A3004

2010/08/08 01:53
KBGR 080153Z 18004KT 10SM FEW080 13/08 A2999

2010/08/08 01:53
KBKL 080153Z 16005KT 10SM CLR 25/14 A2996

2010/08/08 01:51
KBKW 080151Z AUTO 00000KT 8SM BKN060 20/16 A3008

2010/08/08 01:54
KBOS 080154Z 29003KT 10SM FEW065 SCT250 24/06 A3000

2010/08/08 01:54
KBTV 080154Z 00000KT 10SM CLR 14/11 A2997

2010/08/08 01:54
KBUF 080154Z 21006KT 10SM FEW080 SCT300 18/10 A2998

2010/08/08 01:53
KBVY 080153Z AUTO 00000KT 10SM CLR 17/09 A2999

2010/08/08 01:54
KBWI 080154Z 18003KT 10SM CLR 24/14 A2997

2010/08/08 01:56
KCAE 080156Z 00000KT 7SM CLR 28/24 A2994

2010/08/08 01:51
KCAK 080151Z 16004KT 10SM SCT200 21/14 A3001

2010/08/08 01:54
KCAR 080154Z AUTO 24005KT 10SM CLR 12/06 A2992

2010/08/08 01:55
KCEF 080155Z AUTO 01004KT 10SM CLR 14/12 A3000

2010/08/08 01:53
KCHO 080153Z 00000KT 10SM CLR 21/16 A3000

2010/08/08 01:56
KCHS 080156Z 26003KT 9SM FEW043 27/23 A2991

2010/08/08 01:53
KCKB 080153Z 00000KT 10SM CLR 19/15 A3003

2010/08/08 01:51
KCLE 080151Z 18005KT 10SM SCT250 23/15 A3000

2010/08/08 01:52
KCLT 080152Z 09004KT 10SM CLR 28/18 A2998

2010/08/08 01:51
KCMH 080151Z 00000KT 10SM CLR 24/15 A2998

2010/08/08 01:54
KCRW 080154Z 00000KT 10SM FEW055 21/18 A3000

2010/08/08 01:52
KCVG 080152Z 17003KT 10SM FEW065 24/14 A2998

2010/08/08 01:53
KDAN 080153Z AUTO 00000KT 8SM CLR 23/19 A3000

2010/08/08 01:56
KDAY 080156Z 00000KT 10SM CLR 24/13 A3001

2010/08/08 01:52
KDCA 080152Z 20003KT 10SM CLR 26/17 A2998

2010/08/08 01:56
KDUJ 080156Z AUTO 00000KT 10SM CLR 18/11 A3005

2010/08/08 01:54
KECG 080154Z AUTO 09004KT 7SM BKN007 BKN100 25/24 A2997

2010/08/08 01:51
KEKN 080151Z AUTO 00000KT 10SM CLR 16/15 A3008

2010/08/08 01:53
KELM 080153Z 00000KT 10SM CLR 17/11 A3001

2010/08/08 01:51
KERI 080151Z 16006KT 10SM CLR 19/13 A2998

2010/08/08 01:53
KEWB 080153Z 00000KT 10SM CLR 18/16 A3001

2010/08/08 01:54
KEWN 080154Z AUTO 09003KT 8SM SCT024 27/24 A2996

2010/08/08 01:51
KEWR 080151Z 00000KT 10SM FEW100 SCT250 25/19 A2997

2010/08/08 01:53
KFAY 080153Z AUTO 10009KT 10SM SCT028 BKN037 OVC050 27/22 A2995

2010/08/08 01:53
KFLO 080153Z AUTO 17010KT 7SM -TSRA FEW043 BKN060 OVC095 24/23 A2994

2010/08/08 01:53
KFRG 080153Z 18007KT 10SM CLR 23/19 A2999

2010/08/08 01:53
KFVE 080153Z AUTO 25005KT 10SM CLR 12/04 A2991

2010/08/08 01:53
KGFL 080153Z AUTO 00000KT 10SM CLR 13/11 A2999

2010/08/08 01:56
KGON 080156Z 00000KT 10SM CLR 20/17 A3000

2010/08/08 01:54
KGSO 080154Z 06004KT 10SM CLR 26/17 A3001

2010/08/08 01:53
KGSP 080153Z 11004KT 10SM FEW075 SCT100 26/21 A2998

2010/08/08 01:53
KHFD 080153Z 16005KT 10SM CLR 22/16 A2998

2010/08/08 01:53
KHKY 080153Z 00000KT 10SM CLR 24/19 A3001

2010/08/08 01:56
KHPN 080156Z 00000KT 10SM CLR 21/16 A2999

2010/08/08 01:51
KHTS 080151Z 11003KT 7SM CLR 21/18 A2999

2010/08/08 01:53
KHVN 080153Z 21003KT 10SM CLR 24/18 A2999

2010/08/08 01:56
KHYA 080156Z 20006KT 10SM CLR 22/19 A3002

2010/08/08 01:52
KIAD 080152Z 15003KT 10SM CLR 22/16 A2998

2010/08/08 01:53
KIAG 080153Z 20004KT 10SM FEW250 18/12 A2997

2010/08/08 01:51
KILG 080151Z 15006KT 10SM CLR 25/19 A2998

2010/08/08 01:53
KILM 080153Z AUTO 00000KT 9SM CLR 25/22 A2994

2010/08/08 01:54
KINT 080154Z 06003KT 10SM CLR 24/18 A3001

2010/08/08 01:54
KIPT 080154Z 00000KT 10SM FEW075 20/14 A2998

2010/08/08 01:56
KISP 080156Z 18004KT 10SM FEW250 23/17 A2998

2010/08/08 01:51
KJFK 080151Z 18009KT 10SM FEW250 24/19 A2999

2010/08/08 01:54
KJST 080154Z AUTO 01003KT 10SM CLR 19/12 A3006

2010/08/08 01:50
KLBE 080150Z 00000KT 15SM SCT060 19/16 A3003

2010/08/08 01:55
KLCK 080155Z AUTO 14004KT 10SM CLR 21/17 A2998

2010/08/08 01:53
KLEB 080153Z AUTO 00000KT 10SM CLR 13/09 A2998

2010/08/08 01:51
KLGA 080151Z 17008KT 10SM FEW085 SCT250 26/19 A2997

2010/08/08 01:53
KLUK 080153Z 00000KT 10SM BKN070 22/17 A2997

2010/08/08 01:54
KLWM 080154Z 00000KT 10SM CLR 19/07 A3002

2010/08/08 01:54
KLYH 080154Z 00000KT 10SM CLR 20/18 A3003

2010/08/08 01:56
KMDT 080156Z 00000KT 10SM SCT075 BKN100 25/18 A2997

2010/08/08 01:52
KMFD 080152Z 16004KT 10SM CLR 20/14 A3001

2010/08/08 01:53
KMGW 080153Z 00000KT 10SM CLR 20/16 A3004

2010/08/08 01:53
KMHT 080153Z 00000KT 10SM CLR 19/09 A2998

2010/08/08 01:54
KMIV 080154Z AUTO 00000KT 10SM CLR 22/18 A2998

2010/08/08 01:53
KMRB 080153Z AUTO 00000KT 10SM CLR 22/14 A2998

2010/08/08 01:53
KMSS 080153Z AUTO 20004KT 10SM CLR 14/09 A2995

2010/08/08 01:50
KMYR 080150Z 00000KT 8SM FEW020 26/23 A2997

2010/08/08 01:54
KNKT 080154Z 11003KT 8SM CLR 27/24 A2996

2010/08/08 01:51
KORF 080151Z 10003KT 9SM FEW010 24/23 A2997

2010/08/08 01:54
KORH 080154Z AUTO 00000KT 10SM CLR 19/09 A3003

2010/08/08 01:54
KPHF 080154Z AUTO 00000KT 10SM CLR 23/21 A2998

2010/08/08 01:54
KPHL 080154Z 00000KT 10SM FEW250 26/17 A2998

2010/08/08 01:51
KPIT 080151Z 00000KT 10SM FEW250 21/13 A3002

2010/08/08 01:53
KPKB 080153Z AUTO 00000KT 10SM CLR 21/18 A3003

2010/08/08 01:53
KPOU 080153Z AUTO 14004KT 10SM CLR 18/12 A2997

2010/08/08 01:55
KPQI 080155Z AUTO 00000KT 10SM CLR 11/06 A2991

2010/08/08 01:55
KPSM 080155Z 00000KT 10SM FEW250 16/14 A2999

2010/08/08 01:51
KPVD 080151Z 00000KT 10SM FEW055 20/16 A3002

2010/08/08 01:51
KPWM 080151Z 19003KT 10SM CLR 17/14 A2999

2010/08/08 01:54
KRDG 080154Z 00000KT 10SM FEW090 24/16 A2998

2010/08/08 02:00
MKJP 080200Z 01004KT 9999 FEW022 BKN240 28/21 Q1014

2010/08/08 02:00
MKJS 080200Z 18001KT 9999 VCTS SCT022 FEW024CB BKN220 28/24 Q1014

2010/08/08 02:00
MYNN 080200Z 24003KT 9999 VCSH FEW015CB BKN016TCU BKN100 30/26 A3001

2010/08/08 02:00
MZBZ 080200Z 00000KT 9999 FEW003 BKN250 27/27 A2987 Q1011 NOSIG

2010/08/08 01:57
PHNG 080157Z AUTO 06008G16KT 10SM CLR 28/22 A3004 RMK AO2 SLP168 T02830217 $

2010/08/08 01:50
PTYA 080150Z 30008KT 12SM SCT015TCU BKN130 OVC300 31/26 A2976 RMK TCU VC W SLP078 T03080259

2010/08/08 02:00
RJAA 080200Z 16010KT 9999 SCT030 BKN/// 32/22 Q1016 NOSIG

2010/08/08 02:00
RJCC 080200Z 36004KT 300V030 9999 FEW007 BKN015 BKN060 27/24 Q1013

2010/08/08 02:00
RJFF 080200Z 03006KT 360V120 9999 FEW030 32/20 Q1010

2010/08/08 02:00
RJFK 080200Z 08012KT 050V120 9999 FEW020 28/22 Q1012

2010/08/08 02:00
RJOO 080200Z 13003KT 050V220 9999 FEW020 BKN/// 32/19 Q1014

2010/08/08 02:00
RJTT 080200Z 17010KT 9999 FEW020 BKN150 BKN/// 31/22 Q1016

2010/08/08 02:00
RKSS 080200Z 20007KT 9999 SCT030 32/22 Q1011 NOSIG

2010/08/08 02:00
ROAH 080200Z 17005KT 150V210 8000 -SHRA FEW010 BKN020 FEW025TCU BKN040 27/26 Q1004

2010/08/08 02:00
SKBQ 080200Z 29003KT 9999 SCT010CB SCT070 26/24 A2989 CB/NE LTNG/NE

2010/08/08 02:00
SKCG 080200Z 27004KT 9999 BKN015 29/26 A2986

2010/08/08 02:00
SVBM 080200Z 11005KT 9999 FEW016 23/21 Q1016

2010/08/08 02:00
SVMG 080200Z 00000KT 9999 FEW010 BKN080 26/25 Q1012 TEMPO

2010/08/08 02:00
TNCC 080200Z 10008KT 9999 SCT016 29/25 Q1013 NOSIG

2010/08/08 02:00
TTCP 080200Z 05006KT 9999 FEW016 27/23 Q1014 NOSIG

2010/08/08 02:00
TTPP 080200Z 00000KT 9999 FEW016 SCT036 25/24 Q1013 NOSIG

2010/08/08 02:00
TVSV 080200Z 09008KT 9999 -SHRA BKN016 SCT032 BKN260 25/24 Q1014

2010/08/08 02:00
VHHH 080200Z 07008KT 9999 FEW025 SCT035 BKN060 31/25 Q1004 NOSIG

2010/08/08 02:00
YBBN 080200Z 08005KT 9999 FEW048 20/07 Q1020 NOSIG

2010/08/08 02:00
ZGGG 080200Z VRB01MPS 7000 OVC043 29/25 Q1005 NOSIG

2010/08/08 01:51
KRDU 080151Z 04003KT 9SM FEW090 25/20 A2998

2010/08/08 01:54
KRIC 080154Z 13005KT 10SM BKN050 25/19 A2998

2010/08/08 01:54
KROA 080154Z 00000KT 10SM FEW070 25/16 A3004

2010/08/08 01:54
KROC 080154Z 22003KT 10SM FEW080 17/12 A2998

2010/08/08 01:53
KRWI 080153Z AUTO 06003KT 10SM CLR 24/21 A2996

2010/08/08 01:53
KSAV 080153Z 25003KT 10SM FEW030 SCT070 27/24 A2992

2010/08/08 01:54
KSBY 080154Z 00000KT 10SM CLR 23/21 A2999

2010/08/08 01:51
KSLK 080151Z AUTO 00000KT 10SM OVC050 11/07 A2999

2010/08/08 01:54
KSYR 080154Z 00000KT 10SM SCT250 17/13 A2998

2010/08/08 01:51
KTEB 080151Z 21004KT 10SM CLR 24/17 A2996

2010/08/08 01:52
KTOL 080152Z 20004KT 8SM CLR 19/17 A2995

2010/08/08 01:53
KTTN 080153Z AUTO 00000KT 10SM CLR 24/14 A2997

2010/08/08 01:55
KWRI 080155Z AUTO 24004KT 10SM CLR 23/18 A2997

2010/08/08 01:51
KYNG 080151Z 16004KT 10SM SCT250 16/13 A3001

2010/08/08 01:53
KZZV 080153Z AUTO 00000KT 10SM CLR 22/18 A3000

2010/08/08 01:52
KABI 080152Z 16004KT 10SM CLR 31/21 A2986

2010/08/08 01:56
KABQ 080156Z 31007KT 10SM FEW065 SCT100 SCT200 27/11 A3004

2010/08/08 01:53
KABY 080153Z 13005KT 10SM FEW100 25/24 A2995

2010/08/08 01:51
KACT 080151Z 14008KT 10SM CLR 33/19 A2982

2010/08/08 01:53
KAEX 080153Z 00000KT 10SM FEW050 29/23 A2986

2010/08/08 01:53
KAFW 080153Z 18005KT 10SM FEW075 34/21 A2980

2010/08/08 01:51
KAHN 080151Z AUTO 00000KT 6SM HZ CLR 26/23 A2997

2010/08/08 01:53
KALI 080153Z AUTO 14010KT 10SM CLR 29/25 A2985

2010/08/08 01:53
KAMA 080153Z 16011KT 10SM CLR 29/17 A2993

2010/08/08 01:53
KANB 080153Z AUTO 00000KT 10SM CLR 28/22 A2993

2010/08/08 01:53
KAPF 080153Z 25003KT 10SM FEW026 30/25 A2996

2010/08/08 01:52
KATL 080152Z 14006KT 10SM FEW045 28/22 A2996

2010/08/08 01:53
KAUS 080153Z 16007KT 10SM FEW120 SCT250 32/21 A2985

2010/08/08 01:53
KBFM 080153Z AUTO 10007KT 10SM SCT030 28/24 A2992

2010/08/08 01:53
KBHM 080153Z 00000KT 10SM CLR 30/20 A2993

2010/08/08 01:53
KBNA 080153Z 07006KT 9SM CLR 27/18 A2994

2010/08/08 01:53
KBPT 080153Z AUTO 00000KT 10SM CLR 28/25 A2988

2010/08/08 02:00
KBQK 080200Z AUTO 00000KT 2SM CLR 26/25 A2993

2010/08/08 01:53
KBRO 080153Z AUTO 15008KT 10SM CLR 29/24 A2987

2010/08/08 01:53
KBTR 080153Z 23008KT 10SM FEW250 30/24 A2987

2010/08/08 01:53
KCEW 080153Z AUTO 00000KT 7SM CLR 24/24 A2992

2010/08/08 01:53
KCHA 080153Z 33003KT 10SM SCT070 SCT150 29/21 A2993

2010/08/08 01:53
KCLL 080153Z AUTO 16008KT 10SM CLR 32/22 A2985

2010/08/08 01:53
KCNM 080153Z AUTO 20007KT 10SM CLR 29/17 A2986

2010/08/08 01:51
KCRP 080151Z 15006KT 10SM FEW025 28/24 A2986

2010/08/08 01:51
KCSG 080151Z AUTO 15008KT 9SM CLR 30/22 A2992

2010/08/08 01:53
KCSV 080153Z AUTO 00000KT 9SM CLR 23/18 A3002

2010/08/08 01:53
KDAB 080153Z 00000KT 10SM -RA BKN030 BKN140 OVC200 26/24 A2993

2010/08/08 01:53
KDAL 080153Z 16009KT 10SM FEW070 SCT280 35/22 A2980

2010/08/08 01:53
KDFW 080153Z 17010KT 10SM FEW060 SCT120 SCT250 34/20 A2980

2010/08/08 01:53
KDHN 080153Z AUTO 13004KT 9SM SCT085 24/23 A2998

2010/08/08 01:55
KDLF 080155Z AUTO 12006KT 10SM CLR 34/17 A2981

2010/08/08 01:53
KDMN 080153Z AUTO 28008KT 10SM CLR 29/12 A2996

2010/08/08 01:51
KELP 080151Z 27011KT 10SM FEW100 SCT300 34/10 A2991

2010/08/08 01:53
KESF 080153Z AUTO 00000KT 10SM FEW060 27/24 A2987

2010/08/08 01:53
KEYW 080153Z AUTO 00000KT 10SM SCT023 31/26 A2997

2010/08/08 01:53
KFLL 080153Z 19004KT 10SM FEW050 27/24 A2996

2010/08/08 01:53
KFSM 080153Z 06006KT 10SM CLR 26/24 A2985

2010/08/08 01:53
KFTW 080153Z 17008KT 10SM CLR 33/21 A2980

2010/08/08 01:53
KFTY 080153Z 09004KT 9SM CLR 29/23 A2995

2010/08/08 01:53
KGGG 080153Z 16004KT 10SM CLR 30/24 A2984

2010/08/08 01:52
KGLS 080152Z AUTO 20009KT 10SM CLR 30/24 A2989

2010/08/08 01:53
KGNV 080153Z 00000KT 10SM -RA SCT038 24/23 A2992

2010/08/08 01:53
KGPT 080153Z 00000KT 10SM CLR 32/24 A2989

2010/08/08 01:53
KGUP 080153Z AUTO 00000KT 4SM RA BR BKN042 BKN050 OVC065 16/15 A3021

2010/08/08 01:53
KGWO 080153Z AUTO 00000KT 10SM CLR 26/25 A2989

2010/08/08 01:53
KHOT 080153Z AUTO 11008KT 9SM FEW070 30/24 A2987

2010/08/08 01:53
KHOU 080153Z 17004KT 10SM FEW060 SCT130 29/24 A2987

2010/08/08 01:52
KHRL 080152Z AUTO 15010KT 10SM CLR 29/24 A2985

2010/08/08 01:53
KHRO 080153Z AUTO 13006KT 9SM CLR 27/21 A2991

2010/08/08 01:53
KHSV 080153Z 00000KT 10SM CLR 30/16 A2992

2010/08/08 01:53
KIAH 080153Z 17005KT 10SM FEW040 SCT110 SCT250 31/23 A2987

2010/08/08 01:53
KINK 080153Z AUTO 14013G19KT 10SM CLR 34/12 A2985

2010/08/08 01:54
KJAN 080154Z 00000KT 10SM CLR 27/24 A2990

2010/08/08 01:56
KJAX 080156Z 00000KT 10SM FEW005 SCT032 OVC150 24/23 A2992

2010/08/08 01:53
KJBR 080153Z AUTO 06003KT 10SM CLR 27/20 A2988

2010/08/08 01:53
KLBB 080153Z 16007KT 10SM FEW100 SCT250 31/16 A2991

2010/08/08 01:53
KLCH 080153Z 23004KT 10SM CLR 29/24 A2988

2010/08/08 01:53
KLFT 080153Z 22005KT 10SM CLR 29/24 A2989

2010/08/08 01:53
KLIT 080153Z 14005KT 10SM FEW150 BKN250 29/24 A2986

2010/08/08 01:56
KLRD 080156Z AUTO 13009KT 10SM CLR 34/20 A2984

2010/08/08 01:50
KLRU 080150Z AUTO 25009KT 10SM CLR 31/09 A2998

2010/08/08 01:53
KMAF 080153Z 15009KT 10SM CLR 33/14 A2989

2010/08/08 01:53
KMCN 080153Z AUTO 00000KT 9SM CLR 27/24 A2993

2010/08/08 01:53
KMCO 080153Z 17003KT 10SM FEW035 FEW110 BKN200 OVC250 27/24 A2994

2010/08/08 02:00
RJFR 080200Z 09020KT 9999 FEW020 29/21 Q1012

2010/08/08 02:00
RJFF 080200Z 03006KT 360V120 9999 FEW030 32/20 Q1010

2010/08/08 02:00
RJCC 080200Z 36004KT 300V030 9999 FEW007 BKN015 BKN060 27/24 Q1013

2010/08/08 02:00
RJFK 080200Z 08012KT 050V120 9999 FEW020 28/22 Q1012

2010/08/08 02:00
RJSN 080200Z 33009KT 9999 FEW030 BKN/// 32/25 Q1014

2010/08/08 02:00
RJFT 080200Z 09006KT 9999 FEW035 32/22 Q1011

2010/08/08 02:00
RJFU 080200Z 03003KT 350V100 9999 FEW035 31/23 Q1010

2010/08/08 02:00
RJCH 080200Z 21007KT 9999 FEW008 BKN025 27/25 Q1014

2010/08/08 02:00
RJSS 080200Z 15008KT 9999 FEW030 SCT/// 31/22 Q1015

2010/08/08 02:00
RJOA 080200Z 11008KT 9999 FEW020 FEW025TCU 28/19 Q1015

2010/08/08 02:00
RJOB 080200Z 11011KT 070V140 9999 FEW020 BKN025 30/22 Q1015

2010/08/08 02:00
RJOT 080200Z 09005KT 040V150 9999 FEW035 SCT/// 31/20 Q1014

2010/08/08 02:00
RJFO 080200Z 08008KT 9999 FEW020 28/24 Q1013

2010/08/08 02:00
RJAA 080200Z 16010KT 9999 SCT030 BKN/// 32/22 Q1016 NOSIG

2010/08/08 02:00
RJBB 080200Z 27005KT 220V340 9999 FEW020 BKN/// 30/21 Q1014 NOSIG

2010/08/08 02:00
RJTT 080200Z 17010KT 9999 FEW020 BKN150 BKN/// 31/22 Q1016

2010/08/08 02:00
RJOO 080200Z 13003KT 050V220 9999 FEW020 BKN/// 32/19 Q1014

2010/08/08 02:00
ROAH 080200Z 17005KT 150V210 8000 -SHRA FEW010 BKN020 FEW025TCU BKN040 27/26 Q1004

2010/08/08 02:00
RJGG 080200Z 21004KT 180V240 9999 FEW010 BKN180 28/25 Q1015 NOSIG

2010/08/08 02:00
RJAA 080200Z 16010KT 9999 SCT030 BKN/// 32/22 Q1016 NOSIG

2010/08/08 02:00
RJBB 080200Z 27005KT 220V340 9999 FEW020 BKN/// 30/21 Q1014 NOSIG

2010/08/08 02:00
RJTT 080200Z 17010KT 9999 FEW020 BKN150 BKN/// 31/22 Q1016

2010/08/08 02:00
RJOO 080200Z 13003KT 050V220 9999 FEW020 BKN/// 32/19 Q1014

2010/08/08 02:00
RJGG 080200Z 21004KT 180V240 9999 FEW010 BKN180 28/25 Q1015 NOSIG

2010/08/08 02:00
RJSN 080200Z 33009KT 9999 FEW030 BKN/// 32/25 Q1014

2010/08/08 02:00
RJCH 080200Z 21007KT 9999 FEW008 BKN025 27/25 Q1014

2010/08/08 02:00
RJSA 080200Z 26007KT 220V310 9999 FEW025 SCT045 30/23 Q1015

2010/08/08 02:00
RJSF 080200Z VRB01KT 9999 SCT025 BKN/// 30/22 Q1017

2010/08/08 02:00
RJAA 080200Z 16010KT 9999 SCT030 BKN/// 32/22 Q1016 NOSIG

2010/08/08 02:00
RJBB 080200Z 27005KT 220V340 9999 FEW020 BKN/// 30/21 Q1014 NOSIG

2010/08/08 02:00
RJTT 080200Z 17010KT 9999 FEW020 BKN150 BKN/// 31/22 Q1016

2010/08/08 02:00
RJOO 080200Z 13003KT 050V220 9999 FEW020 BKN/// 32/19 Q1014

2010/08/08 02:00
RJFF 080200Z 03006KT 360V120 9999 FEW030 32/20 Q1010

2010/08/08 02:00
RJGG 080200Z 21004KT 180V240 9999 FEW010 BKN180 28/25 Q1015 NOSIG

2010/08/08 02:00
RJFK 080200Z 08012KT 050V120 9999 FEW020 28/22 Q1012

2010/08/08 02:00
RJFU 080200Z 03003KT 350V100 9999 FEW035 31/23 Q1010

2010/08/08 02:00
RJCH 080200Z 21007KT 9999 FEW008 BKN025 27/25 Q1014

2010/08/08 02:00
RJNS 080200Z 10005KT 050V130 9999 FEW015 SCT080 BKN140 28/22 Q1016

2010/08/08 01:58
KMEI 080158Z 00000KT 8SM CLR 26/26 A2991

2010/08/08 01:53
KMEM 080153Z 08005KT 10SM SCT050 SCT150 32/21 A2989

2010/08/08 01:53
KMFE 080153Z AUTO 15011KT 10SM FEW032 30/24 A2985

2010/08/08 01:53
KMGM 080153Z 18005KT 10SM FEW050 SCT095 BKN150 BKN250 29/23 A2990

2010/08/08 01:53
KMIA 080153Z 18003KT 10SM FEW044 SCT060 BKN130 OVC250 28/24 A2998

2010/08/08 01:53
KMKL 080153Z AUTO 00000KT 10SM CLR 25/21 A2991

2010/08/08 01:53
KMLB 080153Z 00000KT 10SM FEW120 26/24 A2995

2010/08/08 01:53
KMLC 080153Z AUTO 08004KT 10SM CLR 31/23 A2983

2010/08/08 01:53
KMLU 080153Z 00000KT 10SM CLR 30/25 A2987

2010/08/08 01:56
KMOB 080156Z 15004KT 10SM FEW050 SCT120 BKN200 28/23 A2992

2010/08/08 01:53
KMSL 080153Z AUTO 06004KT 10SM CLR 29/18 A2992

2010/08/08 01:53
KMSY 080153Z 18004KT 10SM SCT055 SCT250 29/25 A2989

2010/08/08 01:53
KNEW 080153Z AUTO 22007KT 10SM CLR 31/24 A2990

2010/08/08 01:56
KNGP 080156Z AUTO 20008KT 160V230 10SM CLR 28/26 A2986

2010/08/08 01:52
KOKC 080152Z 13010KT 10SM FEW200 32/22 A2983

2010/08/08 01:53
KPBI 080153Z 22003KT 10SM BKN250 27/24 A2995

2010/08/08 01:53
KPDK 080153Z 00000KT 10SM CLR 28/22 A2997

2010/08/08 01:53
KPIE 080153Z 23004KT 10SM CLR 28/25 A2994

2010/08/08 01:53
KPNS 080153Z 34003KT 10SM -TSRA BKN065 25/23 A2990

2010/08/08 01:51
KROW 080151Z 27008KT 10SM CLR 30/12 A2990

2010/08/08 01:53
KRSW 080153Z 24004KT 10SM FEW025 28/25 A2995

2010/08/08 01:53
KSAT 080153Z 14012KT 10SM FEW055 SCT250 32/21 A2986

2010/08/08 01:53
KSFB 080153Z 18005KT 10SM CLR 27/25 A2993

2010/08/08 01:56
KSHV 080156Z 00000KT 10SM FEW080 SCT170 BKN290 28/24 A2984

2010/08/08 01:51
KSJT 080151Z 15007KT 10SM BKN100 35/17 A2985

2010/08/08 01:53
KSRQ 080153Z 27006KT 10SM CLR 30/24 A2994

2010/08/08 01:53
KSSI 080153Z AUTO 00000KT 10SM FEW015 SCT039 26/24 A2992

2010/08/08 01:53
KTCC 080153Z AUTO 19008KT 10SM CLR 29/13 A2990

2010/08/08 01:53
KTCL 080153Z AUTO 00000KT 7SM SCT095 28/24 A2990

2010/08/08 01:53
KTCS 080153Z AUTO 20010KT 10SM CLR 31/09 A2997

2010/08/08 01:53
KTLH 080153Z 00000KT 10SM SCT049 SCT070 BKN100 25/23 A2994

2010/08/08 01:53
KTPA 080153Z 23008KT 10SM FEW030 SCT110 BKN270 29/25 A2994

2010/08/08 01:53
KTRI 080153Z 00000KT 9SM CLR 22/16 A3000

2010/08/08 01:53
KTUL 080153Z 12005KT 10SM CLR 28/23 A2982

2010/08/08 01:53
KTUP 080153Z 00000KT 8SM CLR 28/25 A2989

2010/08/08 01:53
KTXK 080153Z 19005KT 10SM CLR 27/23 A2984

2010/08/08 01:53
KTYR 080153Z 18006KT 10SM CLR 32/22 A2985

2010/08/08 01:53
KTYS 080153Z 03004KT 10SM CLR 27/18 A2995

2010/08/08 01:51
KVCT 080151Z 16008KT 10SM CLR 28/25 A2987

2010/08/08 01:53
KVLD 080153Z 00000KT 5SM -RA BR OVC041 25/24 A2993

2010/08/08 01:53
KVRB 080153Z 16004KT 10SM CLR 26/24 A2995

2010/08/08 01:53
TIST 080153Z AUTO 08009KT 10SM FEW038 SCT090 29/23 A2998

2010/08/08 01:53
TISX 080153Z AUTO 08010KT 10SM CLR 28/23 A2998

2010/08/08 01:50
TJPS 080150Z 11005KT 8SM FEW030 FEW060 27/23 A2996

2010/08/08 01:56
TJSJ 080156Z 08010KT 10SM SCT026 28/23 A3000

2010/08/08 02:00
TKPK 080200Z 05010KT 9999 SCT018 28/24 Q1015

2010/08/08 01:53
KABR 080153Z AUTO 15005KT 10SM CLR 27/22 A2960

2010/08/08 01:54
KALO 080154Z AUTO 19008KT 10SM CLR 26/22 A2979

2010/08/08 01:53
KASE 080153Z 30007KT 10SM BKN090 14/09 A3023

2010/08/08 01:53
KATY 080153Z AUTO 20005KT 10SM CLR 27/24 A2966

2010/08/08 01:53
KAXN 080153Z AUTO VRB03G25KT 2 1/2SM +TSRA BR SCT010 SCT022 BKN030 21/19 A2969

2010/08/08 01:53
KAZO 080153Z 21005KT 10SM CLR 23/18 A2994

2010/08/08 01:53
KBDE 080153Z AUTO 08004KT 10SM BKN049 21/16 A2970

2010/08/08 01:53
KBFF 080153Z AUTO 17005KT 10SM CLR 29/14 A2984

2010/08/08 01:52
KBIS 080152Z 10004KT 10SM CLR 26/19 A2966

2010/08/08 01:55
KBKF 080155Z 06003KT 7SM VCSH SCT050 SCT110 BKN220 21/13 A3000

2010/08/08 01:53
KBRL 080153Z AUTO 18005KT 10SM CLR 25/22 A2987

2010/08/08 01:53
KBTL 080153Z 20005KT 10SM SCT100 22/18 A2995

2010/08/08 01:53
KCGI 080153Z AUTO 00000KT 10SM CLR 24/19 A2990

2010/08/08 01:52
KCID 080152Z 15005KT 9SM CLR 24/22 A2983

2010/08/08 01:55
KCIU 080155Z AUTO 21005KT 10SM BKN095 18/14 A2982

2010/08/08 01:53
KCMI 080153Z 17004KT 8SM CLR 21/18 A2994

2010/08/08 01:53
KCMX 080153Z AUTO 08005KT 10SM FEW055 BKN100 OVC120 18/12 A2976

2010/08/08 01:54
KCOS 080154Z 20003KT 10SM CLR 22/12 A3006

2010/08/08 01:54
KCOU 080154Z AUTO 12004KT 10SM CLR 26/22 A2989

2010/08/08 01:53
KCPR 080153Z 30011KT 10SM CLR 28/01 A2991

2010/08/08 01:53
KCYS 080153Z 17010KT 10SM -RA FEW055 OVC090 23/08 A3006

2010/08/08 01:52
KDDC 080152Z AUTO 18010KT 8SM CLR 27/16 A2985

2010/08/08 01:54
KDEC 080154Z 16004KT 9SM CLR 24/18 A2993

2010/08/08 01:53
KDEN 080153Z 04004KT 10SM FEW050 SCT080 BKN120 21/14 A2998

2010/08/08 01:53
KDET 080153Z 23006KT 10SM CLR 24/16 A2993

2010/08/08 01:55
KDLH 080155Z 12010KT 10SM -TSRA OVC042CB 17/16 A2972

2010/08/08 01:54
KDSM 080154Z 16008KT 10SM FEW100 27/22 A2981

2010/08/08 01:53
KDTW 080153Z 20005KT 7SM FEW090 SCT200 23/17 A2994

2010/08/08 01:56
KEAU 080156Z AUTO 17008KT 10SM SCT040 26/22 A2972

2010/08/08 01:55
KEGE 080155Z AUTO 27008KT 10SM OVC100 20/11 A3017

2010/08/08 01:54
KELO 080154Z AUTO 00000KT 10SM SCT110 20/17 A2972

2010/08/08 01:54
KEVV 080154Z 00000KT 10SM CLR 24/17 A2994

2010/08/08 01:53
KFAR 080153Z 01003KT 10SM CLR 27/22 A2960

2010/08/08 01:53
KFNT 080153Z AUTO 23005KT 10SM CLR 22/17 A2992

2010/08/08 01:56
KFSD 080156Z 18010G17KT 10SM CLR 28/23 A2968

2010/08/08 01:54
KFWA 080154Z 17003KT 10SM CLR 22/18 A2997

2010/08/08 01:54
KGCK 080154Z AUTO 14018G24KT 10SM FEW095 29/18 A2984

2010/08/08 01:53
KGFK 080153Z 13003KT 10SM SCT120 27/22 A2961

2010/08/08 01:53
KGJT 080153Z 30017KT 10SM -RA OVC060 21/13 A3009

2010/08/08 01:53
KGRB 080153Z 21007KT 10SM CLR 24/20 A2979

2010/08/08 01:53
KGRI 080153Z AUTO 16006KT 10SM CLR 28/22 A2977

2010/08/08 01:53
KGRR 080153Z 19005KT 10SM FEW050 SCT120 23/18 A2991

2010/08/08 01:53
KHIB 080153Z AUTO 15006KT 10SM BKN050 OVC060 22/19 A2970

2010/08/08 01:55
KHON 080155Z AUTO 25003KT 10SM CLR 29/22 A2962

2010/08/08 01:53
KHUF 080153Z AUTO 00000KT 7SM CLR 21/19 A2994

2010/08/08 01:52
KHUT 080152Z 14011KT 10SM CLR 31/22 A2982

2010/08/08 01:53
KICT 080153Z 15009KT 10SM SCT100 BKN150 BKN200 31/22 A2982

2010/08/08 01:54
KIND 080154Z 22004KT 10SM CLR 24/16 A2994

2010/08/08 01:55
KIRK 080155Z AUTO 16005KT 10SM CLR 23/22 A2988

2010/08/08 01:59
KJAC 080159Z 00000KT 10SM SKC 18/06 A3003

2010/08/08 01:53
KJLN 080153Z 14004KT 10SM CLR 28/23 A2986

2010/08/08 01:56
KJMS 080156Z AUTO 00000KT 10SM CLR 27/22 A2964

2010/08/08 01:56
KJXN 080156Z 20003KT 10SM CLR 21/17 A2994

2010/08/08 01:53
KLAN 080153Z 22006KT 10SM BKN110 23/17 A2993

2010/08/08 01:53
KLAR 080153Z AUTO 25008KT 10SM CLR 19/07 A3014

2010/08/08 01:53
KLBF 080153Z AUTO 12003KT 10SM CLR 26/23 A2979

2010/08/08 01:55
KLBL 080155Z 15011KT 10SM BKN100 33/16 A2986

2010/08/08 01:54
KLEX 080154Z 00000KT 10SM CLR 24/14 A2999

2010/08/08 01:54
KLNK 080154Z 17007KT 10SM CLR 28/22 A2976

2010/08/08 01:53
KLOU 080153Z 00000KT 10SM CLR 27/16 A2996

2010/08/08 01:53
KLOZ 080153Z AUTO 00000KT 10SM CLR 23/17 A2999

2010/08/08 01:53
KLSE 080153Z AUTO 17007KT 10SM CLR 27/22 A2976

2010/08/08 01:53
KMBS 080153Z 23007KT 10SM OVC090 24/16 A2990

2010/08/08 01:53
KMCI 080153Z 17006KT 10SM SCT250 27/23 A2984

2010/08/08 01:51
KMDW 080151Z 19006KT 10SM SCT090 27/17 A2990

2010/08/08 01:52
KMHK 080152Z 16003KT 10SM CLR 30/22 A2979

2010/08/08 01:54
KMKC 080154Z 16008KT 10SM CLR 29/22 A2983

2010/08/08 01:52
KMKE 080152Z 21008KT 10SM FEW100 SCT250 24/19 A2986

2010/08/08 01:55
KMKG 080155Z 19010KT 10SM SCT060 25/20 A2988

2010/08/08 01:52
KMLI 080152Z 17005KT 10SM CLR 25/21 A2986

2010/08/08 01:54
KMOT 080154Z 00000KT 10SM CLR 27/18 A2964

2010/08/08 01:53
KMSN 080153Z 20005KT 10SM CLR 25/19 A2985

2010/08/08 01:53
KMSP 080153Z 19009KT 10SM FEW080 SCT200 29/21 A2968

2010/08/08 01:55
KOFF 080155Z AUTO 14009KT 10SM CLR 28/23 A2976

2010/08/08 01:52
KOMA 080152Z 16012KT 10SM CLR 30/23 A2975

2010/08/08 01:51
KORD 080151Z 21005KT 10SM FEW060 SCT090 SCT150 24/18 A2990

2010/08/08 01:53
KOSH 080153Z 21006KT 10SM CLR 24/19 A2982

2010/08/08 01:53
KOTM 080153Z AUTO 18005KT 5SM BR CLR 24/22 A2984

2010/08/08 01:56
KOWB 080156Z 06004KT 10SM CLR 27/18 A2995

2010/08/08 01:53
KPAH 080153Z 04006KT 8SM CLR 27/17 A2990

2010/08/08 01:54
KPIA 080154Z 20003KT 10SM CLR 24/18 A2990

2010/08/08 01:53
KPIR 080153Z AUTO 34006KT 10SM CLR 28/19 A2966

2010/08/08 01:54
KPLN 080154Z AUTO 00000KT 10SM BKN100 19/17 A2982

2010/08/08 01:53
KPTK 080153Z 22005KT 10SM SCT150 23/16 A2993

2010/08/08 01:53
KPUB 080153Z 20005KT 10SM CLR 24/17 A2991

2010/08/08 01:52
KRAP 080152Z 35005KT 10SM CLR 25/16 A2980

2010/08/08 01:54
KRFD 080154Z 19007KT 10SM CLR 23/18 A2990

2010/08/08 01:54
KRKS 080154Z AUTO 17016G24KT 10SM CLR 19/05 A3009

2010/08/08 01:54
KRST 080154Z 19006KT 9SM CLR 24/22 A2977

2010/08/08 01:50
KSAW 080150Z 35005KT 10SM SCT060 SCT120 19/14 A2976

2010/08/08 01:56
KSDF 080156Z 08004KT 10SM CLR 27/14 A2995

2010/08/08 01:53
KSDM 080153Z 29005KT 10SM CLR 17/12 A2987

2010/08/08 01:52
KSGF 080152Z AUTO 15005KT 10SM CLR 27/21 A2989

2010/08/08 01:53
KSLN 080153Z 17009KT 10SM CLR 32/21 A2978

2010/08/08 01:52
KSPI 080152Z 18005KT 10SM CLR 24/18 A2991

2010/08/08 01:53
KSTC 080153Z 20009KT 10SM CLR 28/23 A2965

2010/08/08 01:53
KSTJ 080153Z 15007KT 9SM CLR 28/22 A2981

2010/08/08 01:51
KSTL 080151Z 12007KT 7SM CLR 27/18 A2991

2010/08/08 01:53
KSTP 080153Z 18008KT 10SM CLR 28/23 A2968

2010/08/08 01:54
KAPN 080154Z AUTO 00000KT 10SM CLR 19/17 A2984

2010/08/08 01:55
KINL 080155Z AUTO 10004KT 10SM SCT047 BKN055 BKN075 20/16 A2971

2010/08/08 01:54
KSBN 080154Z 18004KT 10SM CLR 23/18 A2994

2010/08/08 01:54
KSUS 080154Z 14004KT 10SM CLR 26/20 A2988

2010/08/08 01:52
KSUX 080152Z 17007KT 10SM CLR 27/22 A2971

2010/08/08 01:53
KTVC 080153Z 18003KT 10SM FEW080 SCT250 22/17 A2981

2010/08/08 01:54
KUIN 080154Z AUTO 14003KT 9SM CLR 25/22 A2989

2010/08/08 01:53
KWRL 080153Z AUTO 01010KT 10SM CLR 26/07 A2984

2010/08/08 01:53
KYIP 080153Z 19005KT 10SM CLR 22/17 A2995

2010/08/08 02:00
VHHH 080200Z 07008KT 9999 FEW025 SCT035 BKN060 31/25 Q1004 NOSIG

2010/08/08 02:00
RCTP 080200Z 04014KT 010V070 9999 FEW010 SCT016 BKN060 33/27 Q1004 NOSIG

2010/08/08 02:00
RCKH 080200Z 21005KT 160V240 9999 FEW018 BKN300 32/27 Q1002 NOSIG

2010/08/08 02:00
RCSS 080200Z 09011KT 060V120 9999 FEW015 BKN025 30/26 Q1004 NOSIG

2010/08/08 02:00
VMMC 080200Z 07008KT 340V110 9999 FEW015 SCT030 BKN080 30/26 Q1004 NOSIG

2010/08/08 02:00
RPLL 080200Z 21011KT 8000 SCT023 OVC090 29/25 Q1007 NOSIG RMK A2974

2010/08/08 02:00
RPVM 080200Z 22008KT 9999 FEW020 BKN300 30/26 Q1010 A2982

2010/08/08 02:00
RPMD 080200Z CALM 9999 FEW016 SCT090 BKN290 31/27 Q1009

2010/08/08 02:00
RPLB 080200Z 21016KT 9999 -RA SCT018 OVC080 28/25 Q1007 LGT RA CONTUS

2010/08/08 02:00
RPLI 080200Z 18006KT 8000 LRA SCT020 OVC100 27/26 Q1004 RERA

2010/08/08 02:00
RPMZ 080200Z 00000KT 9999 FEW018CB OVC120 31/25 Q1012 CB NE

2010/08/08 01:50
KACV 080150Z AUTO 27005KT 10SM FEW006 OVC013 13/12 A2994

2010/08/08 01:53
KALW 080153Z 24007KT 10SM CLR 30/08 A2975

2010/08/08 01:53
KBFI 080153Z 15007KT 10SM -RA BKN010 OVC060 18/16 A2989

2010/08/08 01:54
KBFL 080154Z 33006KT 10SM CLR 34/06 A2970

2010/08/08 01:53
KBIL 080153Z 17008KT 140V210 10SM SCT100 23/11 A2982

2010/08/08 01:53
KBKE 080153Z AUTO 33014G18KT 10SM CLR 24/08 A2984

2010/08/08 01:53
KBLI 080153Z 17004KT 7SM -RA BKN022 BKN028 OVC035 17/16 A2989

2010/08/08 01:53
KBOI 080153Z 34011KT 10SM CLR 31/05 A2975

2010/08/08 01:53
KBTM 080153Z AUTO 20009KT 10SM FEW025 SCT070 OVC095 22/04 A2993

2010/08/08 01:53
KBUR 080153Z 18009KT 10SM CLR 21/12 A2983

2010/08/08 01:53
KBYI 080153Z AUTO 26003KT 10SM CLR 26/08 A2983

2010/08/08 01:56
KBZN 080156Z 15008KT 10SM CLR 23/07 A2986

2010/08/08 01:53
KCDC 080153Z AUTO VRB05G15KT 10SM CLR 23/08 A3003

2010/08/08 01:56
KCEC 080156Z AUTO 29004KT 10SM OVC005 14/12 A2991

2010/08/08 01:53
KCLM 080153Z AUTO 00000KT 10SM FEW003 SCT026 OVC036 16/14 A2990

2010/08/08 01:56
KCTB 080156Z AUTO 25014KT 10SM CLR 23/06 A2977

2010/08/08 01:56
KEKO 080156Z AUTO 33012KT 10SM CLR 30/M02 A2984

2010/08/08 01:54
KEUG 080154Z 01010KT 10SM SCT055 BKN065 BKN120 26/14 A2987

2010/08/08 01:53
KFAT 080153Z 31009KT 10SM FEW100 34/08 A2970

2010/08/08 01:56
KFLG 080156Z 00000KT 10SM OVC110 16/13 A3021

2010/08/08 01:54
KGCN 080154Z 16004KT 10SM CLR 18/11 A3018

2010/08/08 01:53
KGEG 080153Z 24014KT 10SM FEW090 SCT140 BKN200 27/07 A2976

2010/08/08 01:53
KGGW 080153Z AUTO 09003KT 10SM SCT110 27/12 A2967

2010/08/08 01:53
KGTF 080153Z AUTO 26005KT 10SM CLR 26/03 A2974

2010/08/08 01:53
KHLN 080153Z 30007KT 10SM CLR 27/04 A2977

2010/08/08 01:53
KHQM 080153Z AUTO 22011KT 1/2SM FG OVC001 15/14 A2993

2010/08/08 01:53
KIDA 080153Z AUTO 04004KT 10SM SCT130 24/11 A2987

2010/08/08 01:56
KLAS 080156Z 17016G23KT 10SM SCT120 SCT150 35/10 A2969

2010/08/08 01:53
KLAX 080153Z 26010KT 10SM FEW010 17/12 A2985

2010/08/08 01:53
KLGB 080153Z 29007KT 10SM CLR 21/12 A2984

2010/08/08 01:53
KLMT 080153Z 33014KT 10SM FEW050 26/06 A2990

2010/08/08 02:04
PAPB 080204Z AUTO 16021G27KT 5SM RA BR BKN005 OVC011 11/11 A2945 RMK AO2 PK WND 16027/0203 P0002 TSNO

2010/08/08 01:55
KGZL 080155Z AUTO 11007KT 10SM CLR 27/24 A2985 RMK AO2

2010/08/08 02:15
KRQO 080215Z AUTO 00000KT 10SM CLR 31/19 A2983 RMK AO2

2010/08/08 02:00
FABL 080200Z VRB01KT CAVOK 03/M01 Q1024 NOSIG

2010/08/08 02:00
FAJS 080200Z 36003KT CAVOK 09/00 Q1028 NOSIG

2010/08/08 02:00
FLLS 080200Z 13003KT CAVOK 09/09 Q1023

2010/08/08 02:00
FQMA 080200Z 00000KT CAVOK 16/14 Q1022 NOSIG

2010/08/08 01:55
EHSC 080155Z AUTO 34009G10KT 9999 18/16 Q1015 W04/S3

2010/08/08 02:00
UKLI 080200Z 00000MPS 4000 BR SCT020 BKN100 17/17 Q1014 10090070 NOSIG

2010/08/08 02:00
UKCM 080200Z 04004MPS 010V080 CAVOK 27/06 Q1013 NOSIG

2010/08/08 02:00
UKCW 080200Z 04001MPS CAVOK 21/08 Q1016 0909//70 NOSIG

2010/08/08 02:00
UKKK 080200Z 10002MPS 5000 FU SKC 24/14 Q1014 08CLRD70 NOSIG

2010/08/08 02:00
UKKM 080200Z VRB01MPS 7000 NSC 23/14 Q1014

2010/08/08 01:55
EHJR 080155Z AUTO 36012G13KT //// 17/15 Q1016 W17/S3

2010/08/08 02:00
SADF 080200Z 14002KT 9999 MIFG NSC 07/06 Q1021

2010/08/08 02:00
SAME 080200Z 00000KT CAVOK 07/M01 Q1020

2010/08/08 02:00
SANT 080200Z 32008KT 6000 08/03 Q1019

2010/08/08 01:50
EGDM 080150Z AUTO 29003KT 9999NDV NCD 12/11 Q1019

2010/08/08 01:50
EGOV 080150Z AUTO 28002KT 9999NDV NCD 10/09 Q1021

2010/08/08 01:50
EGQK 080150Z AUTO 24005KT 9999NDV OVC043/// 13/10 Q1020

2010/08/08 01:50
EGUW 080150Z AUTO 32006KT 9999NDV FEW004/// 14/13 Q1017

2010/08/08 01:50
EGWU 080150Z AUTO 34007KT 9999NDV // NCD 14/12 Q1018

2010/08/08 01:50
EGXE 080150Z AUTO 32004KT 9999NDV BKN070/// 11/11 Q1019

2010/08/08 01:50
EGXT 080150Z AUTO 31008KT 9999NDV SCT009/// SCT019/// 14/13 Q1018

2010/08/08 01:50
EGXU 080150Z AUTO 33004KT 6000NDV // SCT060/// 11/11 Q1019

2010/08/08 01:50
EGYD 080150Z AUTO 31008KT 6000NDV // BKN011/// BKN029/// 14/13 Q1019

2010/08/08 01:50
EGYM 080150Z AUTO 35007KT 9999NDV SCT020/// SCT050/// 16/14 Q1017

2010/08/08 02:00
LKKV 080200Z VRB02KT CAVOK 14/11 Q1017 RMK REG QNH 1012

2010/08/08 02:00
LKPR 080200Z 21005KT 9999 BKN012 15/14 Q1016 NOSIG RMK REG QNH 1012

2010/08/08 02:00
LKTB 080200Z 22002KT 4500 BR FEW003 OVC017 16/15 Q1015 NOSIG RMK REG QNH 1012

2010/08/08 02:00
LPAZ 080200Z 04003KT 9999 FEW020 19/17 Q1022

2010/08/08 02:00
LPPD 080200Z 02003KT 350V060 9999 FEW020 19/16 Q1022

2010/08/08 02:00
LRAR 080200Z 33004KT CAVOK 15/15 Q1017

2010/08/08 02:00
LRBC 080200Z 04004KT CAVOK 23/21 Q1013

2010/08/08 02:00
LRBM 080200Z 28006KT 250V310 9999 FEW013 SCT039 BKN060 19/18 Q1015

2010/08/08 02:00
LRCL 080200Z 29004KT CAVOK 17/16 Q1017 0829//95

2010/08/08 02:00
LRCV 080200Z AUTO 27004KT 0900 R09/1300VP2000D FG VV002 21/20 Q1013

2010/08/08 02:00
LROD 080200Z AUTO 20004KT 7000 +RA NCD 15/14 Q1017

2010/08/08 02:00
LRSM 080200Z AUTO 24006KT 9999 +RA BKN050 BKN080 18/18 Q1016

2010/08/08 02:00
LRSV 080200Z AUTO VRB02KT 9999 FEW130 18/17 Q1014

2010/08/08 02:00
LRTC 080200Z AUTO 00000KT 5000 BR BKN150 24/23 Q1011

2010/08/08 02:00
LRTM 080200Z VRB02KT 6000 FEW034CB SCT042 18/18 Q1016 RETS 0729//95

2010/08/08 02:00
LPFR 080200Z 14005KT 110V190 9999 FEW045 BKN100 26/21 Q1016

2010/08/08 02:00
LPMA 080200Z 02007KT 320V120 9999 FEW018 21/15 Q1016 RS30003KT 0535004KT 2301007KT

2010/08/08 02:00
LPPR 080200Z 00000KT CAVOK 20/16 Q1014

2010/08/08 02:00
LPPS 080200Z 02008KT 350V050 9999 SCT015 BKN030 21/16 Q1017

2010/08/08 02:00
LPPT 080200Z 13002KT CAVOK 27/09 Q1014 NOSIG

2010/08/08 01:53
KLVM 080153Z AUTO 21022G28KT 10SM CLR 22/06 A2985

2010/08/08 01:53
KMFR 080153Z 33011KT 10SM CLR 29/09 A2982

2010/08/08 01:53
KMLS 080153Z AUTO 21007KT 10SM FEW120 29/10 A2972

2010/08/08 01:54
KMRY 080154Z 24009KT 10SM OVC008 14/11 A2987

2010/08/08 01:53
KMSO 080153Z 31011KT 10SM CLR 27/04 A2978

2010/08/08 01:53
KMYV 080153Z AUTO 18012KT 10SM CLR 31/12 A2968

2010/08/08 01:56
KNTD 080156Z 25007KT 10SM FEW015 17/13 A2983

2010/08/08 01:53
KOAK 080153Z 29012KT 7SM FEW005 17/11 A2983

2010/08/08 01:53
KOGD 080153Z AUTO 14011G18KT 10SM CLR 27/06 A2989

2010/08/08 01:54
KOLM 080154Z 22005KT 10SM BKN017 OVC070 18/16 A2991

2010/08/08 01:53
KONT 080153Z 25009KT 10SM CLR 23/12 A2982

2010/08/08 01:55
KOTH 080155Z 33007KT 10SM FEW006 BKN018 17/14 A2998

2010/08/08 01:53
KPAE 080153Z 17007KT 10SM -RA BKN008 BKN013 OVC031 17/16 A2990

2010/08/08 01:53
KPDX 080153Z 34008KT 10SM FEW040 SCT060 OVC080 21/16 A2989

2010/08/08 01:51
KPHX 080151Z 34009KT 10SM SCT110 SCT160 BKN210 BKN250 34/16 A2975

2010/08/08 01:53
KPIH 080153Z 26012KT 10SM CLR 27/08 A2986

2010/08/08 01:53
KPMD 080153Z AUTO 24013KT 10SM CLR 27/01 A2984

2010/08/08 01:53
KPRB 080153Z AUTO 21015KT 10SM CLR 20/10 A2980

2010/08/08 01:53
KPRC 080153Z 13005KT 10SM FEW010 SCT120 20/14 A3007

2010/08/08 01:53
KPSP 080153Z 31017G25KT 10SM CLR 36/07 A2965

2010/08/08 01:54
KRBL 080154Z AUTO 17016KT 10SM CLR 33/13 A2966

2010/08/08 01:56
KRDM 080156Z 35011KT 10SM CLR 25/08 A2987

2010/08/08 01:55
KRNO 080155Z VRB05G23KT 10SM SCT060CB BKN080 BKN140 28/01 A2989

2010/08/08 01:53
KRNT 080153Z 14003KT 6SM -RA BR BKN020 BKN044 OVC055 18/17 A2989

2010/08/08 01:53
KSAC 080153Z 20010KT 10SM CLR 26/13 A2971

2010/08/08 01:51
KSAN 080151Z 29005KT 10SM SCT021 18/12 A2988

2010/08/08 01:53
KSBA 080153Z 26009KT 10SM BKN012 16/12 A2984

2010/08/08 01:53
KSBD 080153Z 25012KT 10SM SKC 25/09 A2983

2010/08/08 01:56
KSBP 080156Z AUTO 31011KT 10SM CLR 17/11 A2985

2010/08/08 01:55
KSCK 080155Z 32008KT 10SM CLR 28/14 A2972

2010/08/08 01:53
KSEA 080153Z 18007KT 10SM -RA FEW005 BKN022 OVC065 17/16 A2991

2010/08/08 02:03
PAEN 080203Z 20013KT 10SM -RA FEW027 SCT075 14/12 A2975

2010/08/08 01:53
KSFF 080153Z 25012KT 10SM CLR 28/07 A2974

2010/08/08 01:56
KSFO 080156Z 28014KT 10SM FEW005 16/11 A2981

2010/08/08 01:53
KSHR 080153Z AUTO 32012G20KT 10SM FEW090 SCT110 23/10 A2989

2010/08/08 01:53
KSJC 080153Z 29012KT 10SM FEW015 20/13 A2980

2010/08/08 01:53
KSLC 080153Z 15013G21KT 10SM FEW090 SCT110 SCT150 BKN200 26/08 A2988

2010/08/08 01:53
KSMF 080153Z 17010KT 10SM CLR 28/14 A2969

2010/08/08 01:51
KSMX 080151Z AUTO 31009KT 10SM CLR 16/11 A2987

2010/08/08 01:53
KSNA 080153Z 20006KT 10SM FEW016 20/13 A2985

2010/08/08 01:53
KSNS 080153Z AUTO 29009KT 10SM OVC010 15/12 A2986

2010/08/08 01:53
KTIW 080153Z 21004KT 4SM -RA BR BKN005 OVC010 17/16 A2991

2010/08/08 01:53
KTUS 080153Z 28006KT 10SM FEW080 29/17 A2990

2010/08/08 01:53
KTVL 080153Z AUTO 16016G26KT 10SM -TSRA OVC080 19/04 A3007

2010/08/08 01:53
KTWF 080153Z 00000KT 10SM CLR 28/07 A2983

2010/08/08 01:56
KUKI 080156Z AUTO 34010KT 10SM CLR 29/11 A2974

2010/08/08 01:53
KYKM 080153Z 33010KT 10SM BKN090 26/10 A2979

2010/08/08 02:00
VTBS 080200Z 24005KT 180V260 9999 FEW020 SCT040 BKN300 29/22 Q1006 NOSIG

2010/08/08 02:00
VTBD 080200Z 24007KT 9999 FEW020 BKN120 BKN300 29/21 Q1006 NOSIG

2010/08/08 02:00
VTCC 080200Z 06004KT 9999 FEW018 BKN035 26/23 Q1008 A2976

2010/08/08 02:00
VTBU 080200Z 24004KT 9999 FEW020 BKN120 BKN300 31/26 Q1006 A2973

2010/08/08 02:00
VTSS 080200Z 24008KT 9999 SCT020 BKN300 30/24 Q1009 A2981

2010/08/08 02:00
VTSP 080200Z 26015KT 9000 SCT015 BKN300 29/24 Q1009 A2981

2010/08/08 02:00
VLVT 080200Z 34004KT 7000 BR SCT015 SCT040 28/24 Q1004

2010/08/08 02:00
VVNB 080200Z 31006KT 8000 NSC 29/25 Q1005 NOSIG

2010/08/08 02:00
VDPP 080200Z 23010KT 9999 SCT017 SCT040 BKN120 28/22 Q1005

2010/08/08 02:00
VVDN 080200Z 21004KT 160V290 8000 FEW015 BKN250 30/23 Q1005 NOSIG

2010/08/08 02:00
VDSR 080200Z 23003KT 9999 SCT013 BKN040 28/23 Q1005

2010/08/08 02:00
VVPB 080200Z VRB03KT CAVOK 29/26 Q1004 NOSIG

2010/08/08 01:53
PABR 080153Z 08021G26KT 10SM OVC005 05/04 A2983

2010/08/08 01:53
PABT 080153Z 19004KT 10SM SCT022 BKN029 OVC049 15/12 A2960

2010/08/08 01:53
PACV 080153Z 09004KT 10SM FEW006 BKN027 OVC045 13/11 A2981

2010/08/08 01:58
PADU 080158Z 15013KT 10SM -RA SCT030 OVC036 18/14 A2970

2010/08/08 01:53
PAEN 080153Z 20013KT 10SM -RA BKN027 14/12 A2975

2010/08/08 01:58
PAGA 080158Z AUTO 19005KT 10SM FEW015 SCT038 BKN080 16/12 A2962

2010/08/08 01:53
PAGK 080153Z 00000KT 10SM SCT045TCU BKN075 BKN110 18/09 A2965

2010/08/08 01:53
PAGY 080153Z AUTO 20013G19KT 10SM OVC050 14/09 A2978

2010/08/08 01:53
PAIL 080153Z 23006KT 10SM OVC014 11/10 A2978

2010/08/08 01:54
PAKN 080154Z 21007KT 10SM BKN014 OVC050 12/09 A2977

2010/08/08 01:53
PAKT 080153Z 12004KT 10SM FEW013 OVC024 14/12 A2989

2010/08/08 01:53
PASC 080153Z 07022G28KT 10SM OVC007 06/04 A2973

2010/08/08 01:53
PASI 080153Z 21006KT 10SM BKN022 OVC028 13/12 A2985

2010/08/08 01:52
PATA 080152Z 00000KT 10SM SCT035 BKN070 17/11 A2963

2010/08/08 01:56
PAUN 080156Z AUTO 24011KT 10SM FEW012 SCT018 BKN034 15/10 A2960

2010/08/08 01:56
PAVD 080156Z 28011KT 10SM FEW030 SCT040 OVC060 14/08 A2978

2010/08/08 01:54
PHMK 080154Z 02013G25KT 10SM FEW019 SCT033 28/20 A3003

2010/08/08 01:56
PMDY 080156Z AUTO 11010KT 10SM FEW027 29/22 A3019

2010/08/08 02:04
KCLM 080204Z AUTO 00000KT 10SM FEW003 BKN026 OVC036 16/14 A2990

2010/08/08 02:03
KSMP 080203Z AUTO VRB04KT 1/4SM -RA FG FEW003 BKN010 OVC018 11/11 A2997

2010/08/08 02:00
CYYY 080200Z CCA 19010KT 30SM SCT040 BKN100 15/06 A2984 RMK SC4AC2 SLP105

2010/08/08 02:00
CWHN 080200Z AUTO 06008KT 020V080 9SM SCT059 22/14 A2958 RMK SLP019

2010/08/08 02:00
CYBK 080200Z 00000KT 20SM FEW020 FEW220 12/07 A2986 RMK SC1CI1 SLP112

2010/08/08 02:00
CYBR 080200Z 29003KT 15SM FEW120 BKN280 24/19 A2962 RMK AC1CI2 SLP033

2010/08/08 02:00
CYBU 080200Z AUTO 32009G15KT 9SM FEW047 19/15 A2956 RMK PRESRR SLP016 DENSITY ALT 2300FT MAX WND 33027KT AT 0131Z LTNG DIST NE E

2010/08/08 02:00
CYDN 080200Z AUTO 13005KT 9SM CLR 23/19 A2957 RMK SLP013 DENSITY ALT 2500FT

2010/08/08 02:00
CYEN 080200Z 13008KT 15SM FEW030 FEW048CB FEW120 FEW220 23/16 A2963 RMK SC1CB1AC1CS1 SC AC TR SLP032

2010/08/08 02:00
CYET 080200Z AUTO 31002KT 5SM CLR 21/09 A2965 RMK SLP039

2010/08/08 02:00
CYGX 080200Z 06003KT 15SM FEW025 SCT200 16/07 A2978 RMK SC1CI0 SLP089

2010/08/08 02:00
CYKJ 080200Z AUTO 11010KT 4SM -RA OVC045 15/14 A2963 RMK SLP048 DENSITY ALT 2300FT MAX WND 13019KT AT 0138Z

2010/08/08 02:00
CYLL 080200Z 23004KT 6SM FU FEW280 22/17 A2962 RMK CI1 SLP029

2010/08/08 02:00
CYMM 080200Z AUTO 16003KT 120V200 9SM FEW070 21/17 A2950 RMK SLP997

2010/08/08 02:00
CYNE 080200Z AUTO 07006KT 010V110 9SM FEW048 FEW070 FEW089 20/14 A2964 RMK SLP042

2010/08/08 02:00
CYOJ 080200Z 00000KT 6SM FU SCT050TCU OVC250 24/17 A2944 RMK TCU3CI5 SLP971

2010/08/08 02:00
CYPA 080200Z 29004KT 15SM FEW024 FEW120 OVC250 23/17 A2958 RMK CU1AC2CI2 SLP017

2010/08/08 02:00
CYPY 080200Z AUTO 05005KT 9SM CLR 22/18 A2946 RMK SLP981

2010/08/08 02:00
CYQF 080200Z 27010G15KT 10SM -TSRA FEW030CB BKN080 OVC250 16/11 A2970 RMK CB2AC5CI2 HZ SLP058

2010/08/08 02:00
CYQL 080200Z 25007KT 10SM FEW090 FEW250 21/15 A2968 RMK AC1CI1 HZ SLP042

2010/08/08 02:00
CYQR 080200Z 29006KT 12SM FEW060 23/17 A2963 RMK SC1 SLP030

2010/08/08 02:00
CYQW 080200Z AUTO 23005KT 6SM HZ CLR 23/16 A2963 RMK SLP035 DENSITY ALT 3400FT

2010/08/08 02:00
CYVC 080200Z 12005KT 15SM FEW030 SCT070 BKN250 20/17 A2958 RMK SC2AC2CS2 SLP021

2010/08/08 02:00
CYXD 080200Z AUTO 25008KT 9SM CLR 24/13 A2960 RMK SLP019

2010/08/08 02:00
CYYL 080200Z AUTO 14005KT 9SM BKN200 21/10 A2967 RMK SLP054 DENSITY ALT 2400FT

2010/08/08 02:00
CYYN 080200Z AUTO 05002KT 9SM CLR 24/14 A2966 RMK SLP033

2010/08/08 02:00
CYZH 080200Z AUTO 25003KT 9SM SCT085 21/14 A2956 RMK SLP010

2010/08/08 02:00
CYWH 080200Z 25002KT 5SM BR SCT005 BKN012 OVC030 15/13 A2989 RMK ST3SC2SC2 CIG RGD FG BNK SE-SW SLP120

2010/08/08 02:00
CWCA 080200Z 00000KT 15SM FEW030 BKN080 12/11 A2960 RMK CU1AC6 SLP024

2010/08/08 02:00
CWCL 080200Z AUTO 22003KT 9SM SCT027 SCT055 BKN076 13/13 A2981 RMK PCPN 3.5MM PAST HR SLP093

2010/08/08 02:00
CWIL 080200Z AUTO 17011KT 13/ A2977 RMK SLP089

2010/08/08 02:00
CWKM 080200Z AUTO 02008KT 06/ A2978 RMK SLP089

2010/08/08 02:00
CWKW 080200Z AUTO 23008KT 08/ A2918 RMK SLP898

2010/08/08 02:00
CWLI 080200Z AUTO 01011G17KT 09/ A2955 RMK SLP016

2010/08/08 02:00
CWLX 080200Z AUTO 11003KT 16/ A2983 RMK SLP112

2010/08/08 02:00
CWLY 080200Z AUTO 21013G26KT 9SM FEW035 FEW047 FEW059 FEW078 22/13 A2976 RMK SLP076

2010/08/08 02:00
CWOB 080200Z AUTO ///// 0SM CLR 04/ A2948 RMK SLP016

2010/08/08 02:00
CWPX 080200Z AUTO ///// 16/ A2961 RMK SLP039

2010/08/08 02:00
CWRX 080200Z AUTO 36007KT 08/ A2984

2010/08/08 02:00
CWUP 080200Z AUTO 32003KT 02/ A2989 RMK SLP145

2010/08/08 02:00
CWUW 080200Z AUTO ///// 9SM CLR 09/ A2985 RMK SLP133

2010/08/08 02:00
CWVH 080200Z AUTO 02013KT 08/ A2957 RMK SLP030

2010/08/08 02:00
CWYK 080200Z AUTO ///// 06/ A2929 RMK SLP939

2010/08/08 02:00
CWZZ 080200Z AUTO ///// 1/8SM CLR 08/ A2919 RMK SLP904

2010/08/08 02:00
CZBF 080200Z 23004KT 15SM SKC 10/06 A2991 RMK SLP130

2010/08/08 02:00
CZCP 080200Z AUTO 06022KT 7SM OVC001 07/ A2952 RMK SLP004

2010/08/08 02:00
CWEU 080200Z 15005KT 30SM FEW020 SCT025 BKN040 BKN100 OVC120 03/M00 A2978 RMK ST2SC1SC2AC2AS1 SH DIST E SLP087

2010/08/08 02:00
CWFD 080200Z AUTO 13008G16KT 9SM 08/ RMK ALTM MISG

2010/08/08 02:00
CWKP 080200Z AUTO 31009KT 10/ A2948 RMK SLP002

2010/08/08 02:00
CWRH 080200Z AUTO ///// 06/ A2928 RMK SLP937

2010/08/08 02:00
CWSA 080200Z AUTO 26004KT 2 1/4SM CLR 17/15 A2999 RMK SLP157

2010/08/08 02:00
CWTU 080200Z AUTO 22014KT 11/ A2960 RMK SLP031

2010/08/08 02:00
CWXR 080200Z AUTO 30014KT 11/ A2948 RMK SLP989

2010/08/08 02:00
CWYM 080200Z AUTO 09041G48KT 05/ RMK ALTM MISG SLP089

2010/08/08 02:00
CYPD 080200Z AUTO 00000KT 9SM CLR 10/09 A2998 RMK SLP155

2010/08/08 02:00
CZPC 080200Z AUTO 28009KT 9SM CLR 19/10 A2975 RMK SLP062

2010/08/08 02:00
CZUM 080200Z AUTO 22004KT 9SM FEW048 10/06 A2960 RMK SLP037

2010/08/08 02:00
CWRF 080200Z AUTO ///// 10/ A2973

2010/08/08 02:00
CWVD 080200Z AUTO ///// 09/ A2988 RMK SLP152

2010/08/08 02:00
CYBW 080200Z 00000KT 25SM TS BKN024CB BKN080 BKN100 BKN240 17/10 A2972 RERA RMK CB5AC1AC2CI0 SH ALQDS SLP060

2010/08/08 02:00
CYCY 080200Z AUTO 00000KT 5/8SM OVC000 03/03 A2995 RMK SLP146

2010/08/08 02:00
CYED 080200Z AUTO 24008KT 9SM FEW069 23/13 A2961 RMK SLP025

2010/08/08 02:00
CYEK 080200Z AUTO 21004KT 9SM CLR 12/09 A2984 RMK SLP106

2010/08/08 02:00
CYIO 080200Z 07003KT 40SM FEW160 BKN250 10/02 A2991 RMK AC1CI2 CALL-OUT SLP133

2010/08/08 02:00
CYOD 080200Z 27003KT 15SM FEW045TCU FEW065 SCT090 BKN240 25/13 A2958 RMK TCU2SC1AC1CI0 CB DIST NE SLP018

2010/08/08 02:00
CYPE 080200Z 25007KT 15SM FEW060 FEW090 BKN250 24/08 A2953 RMK CU2AC1CI1 SLP002

2010/08/08 02:00
CYQV 080200Z AUTO 21005KT 9SM CLR 24/19 A2958 RMK SLP017

2010/08/08 02:00
CYSF 080200Z AUTO VRB02KT 4SM HZ SCT051 SCT061 SCT079 OVC095 20/16 A2960 RMK SLP030 DENSITY ALT 1900FT

2010/08/08 02:00
CYSM 080200Z 12003KT 3SM FU SCT030 BKN100 21/16 A2948 RMK FU2SC2AC2 SLP986

2010/08/08 02:00
CYTH 080200Z 07008KT 15SM FEW065 BKN160 BKN210 19/09 A2972 RMK SC1AS3CI2 SLP070

2010/08/08 02:00
CYUB 080200Z 05020G25KT 3SM -DZ BR OVC004 09/07 A2958 RMK ST8 CIG RAG SLP017

2010/08/08 02:00
CYUS 080200Z AUTO ///// 9SM CLR 14/ A2985 RMK SLP110

2010/08/08 02:00
CYUX 080200Z AUTO 36007KT 9SM CLR 08/04 A2988 RMK SLP118

2010/08/08 02:00
CYVT 080200Z 04003KT 15SM SCT014 BKN080 21/16 A2955 RMK SC4AS2 SLP011

2010/08/08 02:00
CYXH 080200Z 00000KT 15SM FEW270 26/13 A2965 RMK CI2 HX LAST STFD OBS/NEXT 081200Z SLP034

2010/08/08 02:00
CYZU 080200Z 27003KT 12SM FEW050TCU BKN090 BKN250 19/15 A2963 RMK TCU2AC3CI1 FU SLP037

2010/08/08 02:00
CYAM 080200Z 00000KT 15SM FEW045 BKN073 BKN095 20/16 A2981 RMK SC2AC4AC2 SLP095

2010/08/08 02:00
CYGP 080200Z 30005KT 15SM SKC 12/05 A2985 RMK SLP109

2010/08/08 02:00
CYGR 080200Z 23006KT 15SM FEW040 15/09 A2992 RMK SC2 LAST OBS/NEXT 080900 UTC SLP131

2010/08/08 02:00
CYHD 080200Z AUTO 21003KT 9SM CLR 20/13 A2973 RMK SLP071

2010/08/08 02:00
CYHU 080200Z AUTO 18006KT 9SM CLR 15/08 A2993 RMK SLP137 RVR MISG

2010/08/08 02:00
CYMO 080200Z AUTO 22002KT 9SM OVC073 13/10 A2964 RMK SLP038

2010/08/08 02:00
CYNA 080200Z AUTO 28011KT 9SM CLR 10/07 A2979 RMK SLP087

2010/08/08 02:00
CYPQ 080200Z AUTO ///// 9SM CLR 17/14 A2994 RMK SLP138

2010/08/08 02:00
CYQT 080200Z 00000KT 20SM FEW097 FEW180 BKN240 18/09 A2975 RMK AC2AC1CI1 SLP078

2010/08/08 02:00
CYRJ 080200Z 22011G16KT 20SM BKN050 16/07 A2976 RMK SC7 SLP080

2010/08/08 02:00
CYRL 080200Z 13002KT 15SM FEW130 FEW230 20/15 A2972 RMK AC1CI1 LAST OBS/NEXT 080900Z SLP064

2010/08/08 02:00
CYTS 080200Z 22004KT 15SM BKN095 16/12 A2973 RMK AC7 SLP072

2010/08/08 02:00
CYTZ 080200Z AUTO 21009KT 9SM CLR 19/16 A2993 RMK SLP138 DENSITY ALT 700FT RVR MISG

2010/08/08 02:00
CYVP 080200Z 24010KT 3SM -RA BR SCT015 OVC030 10/08 A2928 RMK SC4SC4 SLP915

2010/08/08 02:00
CYVV 080200Z 17004KT 15SM BKN050 21/14 A2988 RMK SC6 SLP120

2010/08/08 02:00
CYWA 080200Z AUTO 24003KT 9SM CLR 15/09 A2987 RMK SLP116

2010/08/08 02:00
CYXR 080200Z AUTO 28002KT 9SM SCT061 BKN083 16/10 A2976 RMK SLP074

2010/08/08 02:00
CYYY 080200Z 20007KT 30SM FEW040 FEW100 SCT220 14/05 A2983 RMK SC1AC2CI0 SLP103

2010/08/08 02:00
CYZE 080200Z AUTO 18006KT 9SM BKN096 18/16 A2983 RMK SLP104 DENSITY ALT 1200FT

2010/08/08 02:00
CYZR 080200Z AUTO 17007KT 8SM CLR 21/15 A2991 RMK SLP129 DENSITY ALT 1400FT

2010/08/08 02:00
CYCB 080200Z 16017G22KT 15SM FEW015 BKN060 BKN130 16/10 A2965 RMK CF1SC4AC1 FU SLP042

2010/08/08 02:00
CYCO 080200Z 19004KT 4SM FU BKN040 23/17 A2946 RMK SC6 SLP977

2010/08/08 02:00
CYFS 080200Z 33005KT 15SM BKN060 BKN210 23/12 A2940 RMK SC4CI0 FU SLP958

2010/08/08 02:00
CYHK 080200Z AUTO 14009KT 9SM CLR 12/08 A2982 RMK SLP102

2010/08/08 02:00
CYHY 080200Z 12009KT 12SM FEW050 FEW230 26/16 A2941 RMK SC1CI1 FU SLP960

2010/08/08 02:00
CYRT 080200Z 01007KT 15SM FEW240 14/07 A2982 RMK CI0 SLP098

2010/08/08 02:00
CYTE 080200Z AUTO 08017G22KT 9SM BKN063 14/09 A2952 RMK SLP999

2010/08/08 02:00
CYVM 080200Z AUTO 06002KT 1/2SM VV001 04/04 A2992 RMK SLP134

2010/08/08 02:00
CYZS 080200Z 01025G30KT 15SM FEW050 BKN090 11/07 A2963 RMK SC2AC2 SLP038

2010/08/08 02:00
CYAH 080200Z AUTO 21005KT 9SM FEW062 BKN071 08/06 A2954 RMK SLP015

2010/08/08 02:00
CYBX 080200Z 23016G21KT 15SM SKC 13/10 A2971 RMK SLP062

2010/08/08 02:00
CYGV 080200Z AUTO 25008KT 9SM CLR 10/07 A2976 RMK SLP080

2010/08/08 02:00
CYMH 080200Z AUTO 22007KT 9SM CLR 12/09 A2963 RMK SLP036

2010/08/08 02:00
CYMT 080200Z 31007KT 3/4SM +RA VV006 10/09 A2971 RMK RA8 SLP070

2010/08/08 02:00
CYNM 080200Z AUTO 17004KT 9SM BKN074 10/09 A2970 RMK SLP064

2010/08/08 02:00
CYOY 080200Z AUTO 22002KT 9SM OVC067 14/06 A2990 RMK SLP128

2010/08/08 02:00
CYPH 080200Z AUTO 22009KT 4SM OVC004 09/09 A2935 RMK SLP942

2010/08/08 02:00
CYQI 080200Z 21005KT 15SM FEW250 14/12 A3005 RMK CI1 TR CI SLP176

2010/08/08 02:00
CYUY 080200Z 25015KT 15SM -SHRA FEW040 OVC080 15/09 A2977 RMK SC2AC6 SLP086

2010/08/08 02:00
CYWK 080200Z 20004KT 15SM SCT050 BKN088 BKN190 09/05 A2964 RMK SC3AC2AC1 SLP050

2010/08/08 02:00
CBBC 080200Z AUTO 32005KT 210V340 9SM OVC040 18/02 A2991 RMK SLP128

2010/08/08 02:00
CYCD 080200Z 13002KT 10SM BKN007 OVC020 17/15 A2988 RMK SC7SC1 SLP117

2010/08/08 02:00
CYCG 080200Z 11006KT 15SM -SHRA BKN070 OVC100 20/16 A2977 RMK AC6AC2 SLP078

2010/08/08 02:00
CYDA 080200Z 20005KT 20SM -SHRA FEW040 BKN055CB OVC210 19/11 A2962 RMK SC1CB6CI0 PCPN VRY LGT SLP039

2010/08/08 02:00
CYKA 080200Z 09009G15KT 40SM FEW060 BKN100 BKN240 24/13 A2971 RMK CU1AC4CI1 SLP058

2010/08/08 02:00
CYLW 080200Z AUTO 21011KT OVC076 24/09 A2975 RMK SLP067 DENSITY ALT 2900FT WX MISG VIS MISG ICG MISG

2010/08/08 02:00
CYMA 080200Z 04005KT 20SM VCSH SCT050CB BKN100 BKN240 21/08 A2959 RMK CB4AS1CI1 SLP031

2010/08/08 02:00
CYPW 080200Z 11008KT 20SM -RA FEW003 BKN006 OVC020 16/15 A2988 RMK SF1SF6SC1 VIS N-SE 2 IN LO CLD LAST OBS/NEXT 081300 UTC SLP120

2010/08/08 02:00
CYQH 080200Z 27011KT 30SM BKN040 BKN090 20/09 A2958 RMK SC5AC1 SLP021

2010/08/08 02:00
CYQU 080200Z 26012G21KT 25SM FEW080 FEW100 SCT250 22/08 A2960 RMK CU1AC1CI1 SLP023

2010/08/08 02:00
CYWL 080200Z 17008KT 15SM SCT030TCU SCT120 BKN220 19/15 A2976 RMK TCU3AC1CI1 SLP076

2010/08/08 02:00
CYXJ 080200Z 22010G15KT 15SM SCT060 SCT180 22/07 A2954 RMK CU3AC1 SLP001

2010/08/08 02:00
CYXT 080200Z 18013G19KT 20SM -SHRA FEW040 BKN072 BKN140 16/11 A2983 RMK CU2AC5AC1 SLP105

2010/08/08 02:00
CYXY 080200Z 20005KT 40SM -SHRA FEW050 BKN063TCU OVC090 17/07 A2966 RMK CU2TCU5AC2 SLP053

2010/08/08 02:00
CYYD 080200Z 26004KT 25SM SCT050 BKN070 19/09 A2974 RMK SC4AC3 SLP070

2010/08/08 02:00
CYYE 080200Z 28012KT 20SM BKN080 OVC140 20/10 A2950 RMK AC5AC3 SLP995

2010/08/08 02:00
CYYF 080200Z 07004KT 15SM SCT080 BKN120 OVC240 25/10 A2975 RMK AC3AC3CI2 TCU SLP072

2010/08/08 02:00
CYZY 080200Z AUTO VRB02KT 9SM -RA BKN061 OVC079 17/11 A2966 RMK SLP049 DENSITY ALT 3300FT

2010/08/08 02:00
CYAY 080200Z AUTO 25015KT 9SM CLR 13/09 A2970 RMK SLP060 MAX WND 25022KT AT 0147Z

2010/08/08 02:00
CYCX 080200Z AUTO 22005KT 9SM 11/08 A2997 RMK SLP149

2010/08/08 02:00
CYDF 080200Z 24009KT 15SM FEW050 13/08 A2984 RMK SC2 SLP107

2010/08/08 02:00
CYGW 080200Z 21006KT 10SM OVC020 09/08 A2946 RMK SC8 SLP978

2010/08/08 02:00
CYSJ 080200Z 20003KT 15SM FEW080 11/08 A3000 RMK AC1 SLP161

2010/08/08 02:00
CYYG 080200Z 25005KT 15SM FEW060 FEW080 15/11 A2996 RMK CU1AC1 SLP145

2010/08/08 02:00
CYBG 080200Z 19007KT 15SM BKN040 16/06 A2980 RMK SC7 SLP095

2010/08/08 02:00
CYEG 080200Z 23010G15KT 8SM -TSRA FEW060CB BKN100 OVC250 18/15 A2964 RMK CB1AC5CI2 LTGCG HZ SLP040

2010/08/08 02:00
CYFB 080200Z 08011KT 30SM -RA BKN032 BKN099 11/07 A2950 RMK SC6AC1 SLP993

2010/08/08 02:00
CYFC 080200Z AUTO 21004KT 9SM FEW081 10/09 A2996 RMK SLP148 RVR MISG

2010/08/08 02:00
CYGL 080200Z 23006KT 15SM FEW005 BKN060 07/06 A2955 RMK SF2SC2 SLP015

2010/08/08 02:00
CYHZ 080200Z 25007KT 15SM SKC 14/08 A3002 RMK SLP166

2010/08/08 02:00
CYJT 080200Z 31006KT 15SM FEW020 14/09 A2987 RMK SC2 SLP117

2010/08/08 02:00
CYMX 080200Z 18005KT 25SM FEW250 15/07 A2994 RMK CI1 SLP139

2010/08/08 02:00
CYOW 080200Z 20007KT 15SM SCT076 17/10 A2991 RMK AC3 SLP130

2010/08/08 02:00
CYQB 080200Z 27005KT 30SM SCT090 15/08 A2991 RMK AC3 SLP130

2010/08/08 02:00
CYQG 080200Z 23007KT 15SM FEW092 BKN280 25/17 A2994 RMK AC2CI1 SLP136

2010/08/08 02:00
CYQM 080200Z 20006KT 15SM FEW050 FEW120 13/08 A2997 RMK SC1AC1 SLP149

2010/08/08 02:00
CYQX 080200Z 29010KT 20SM FEW033 SCT062 BKN078 17/10 A2980 RMK SC1SC2AC2 SLP093

2010/08/08 02:00
CYQY 080200Z 21002KT 15SM SKC 11/08 A2997 RMK SLP150

2010/08/08 02:00
CYTR 080200Z 22007KT 15SM FEW080 FEW180 SCT250 20/12 A2994 RMK AC1AC1CI0 SLP140

2010/08/08 02:00
CYUL 080200Z 17006KT 15SM FEW150 FEW240 17/10 A2993 RMK AC1CI0 SLP137

2010/08/08 02:00
CYVR 080200Z 09006KT 3SM -RA BR BKN007 OVC016 16/13 A2989 RMK ST6SC2 PCPN VRY LGT SLP123

2010/08/08 02:00
CYWG 080200Z 15009KT 15SM SCT260 23/18 A2964 RMK CI3 SLP037

2010/08/08 02:00
CYXX 080200Z 23004KT 1SM -RA BR OVC007 18/14 A2990 RMK SC8 SLP124

2010/08/08 02:00
CYYC 080200Z 25009G20KT 15SM -TSRA BKN057CB BKN180 19/09 A2970 RMK CB5AC2 +SH SW/VIS SW 7/LTGCGIC S-N/PRESRR IN PAST HR SLP048

2010/08/08 02:00
CYYJ 080200Z 13009KT 3SM -RA BR FEW004 FEW009 FEW018 OVC051 16/15 A2988 RMK SF1SF1SC2SC6 SLP118

2010/08/08 02:00
CYYQ 080200Z 05005KT 15SM FEW100 10/09 A2985 RMK AC1 SLP111

2010/08/08 02:00
CYYR 080200Z 26009KT 15SM FEW060 FEW100 FEW260 14/06 A2962 RMK SC1AC1CI1 SLP030

2010/08/08 02:00
CYYT 080200Z 26017KT 3SM BR OVC003 18/17 A2982 RMK SF8 SLP097

2010/08/08 02:00
CYYZ 080200Z 22008KT 15SM FEW070 SCT260 21/12 A2994 RMK AC1CI1 SLP139

2010/08/08 02:00
CYZF 080200Z 15008KT 4SM FU SCT140 BKN210 21/15 A2949 RMK FU2AC1CI0 SLP991

2010/08/08 02:00
CYZV 080200Z 25006KT 15SM FEW060 13/06 A2977 RMK SC1 SLP083

2010/08/08 02:00
CYZX 080200Z 26003KT 15SM SKC 14/08 A3002 RMK WNDY HILL 25007KT SLP165

2010/08/08 02:00
CYBL 080200Z 02003KT 2SM -DZ BR BKN003 OVC013 17/15 A2988 RMK SF6ST2 CIG RAG SLP117

2010/08/08 02:00
CYDB 080200Z AUTO 13004KT 9SM FEW067 16/07 A2966 RMK PCPN 0.5MM PAST HR SLP060

2010/08/08 02:00
CYDQ 080200Z AUTO 25014G20KT 9SM CLR 22/06 A2956 RMK SLP009 DENSITY ALT 3800FT MAX WND 23025KT AT 0139Z

2010/08/08 02:00
CYEV 080200Z 36006KT 3SM -DZ VCFG SCT006 OVC010 12/11 A2955 RMK SC3SC5 SLP011

2010/08/08 02:00
CYHE 080200Z AUTO 29008KT 9SM OVC040 18/16 A2987 RMK SLP114

2010/08/08 02:00
CYIV 080200Z 08003KT 12SM SCT050 SCT090 BKN250 19/12 A2970 RMK SC3AC1CI0 FU SLP063

2010/08/08 02:00
CYKY 080200Z 00000KT 15SM FEW090 BKN260 24/15 A2965 RMK AC1CI2 SLP034

2010/08/08 02:00
CYPR 080200Z AUTO 18003KT BKN009 BKN022 OVC029 12/11 A2993 RMK SLP134 WND MISG PRES MISG

2010/08/08 02:00
CYQD 080200Z 10008G16KT 15SM SCT040 SCT070 BKN120 BKN220 21/15 A2958 RMK SC3AC1AS2CI0 CB EMBD FQT LTGCG DIST NW CB EMBD SE SLP021

2010/08/08 02:00
CYQZ 080200Z AUTO 17004KT 080V210 9SM CLR 22/12 A2969 RMK SLP056 DENSITY ALT 3200FT

2010/08/08 02:00
CYRV 080200Z AUTO 31008KT 9SM FEW030 BKN064 OVC098 20/17 A2975 RMK SLP075

2010/08/08 02:00
CYUA 080200Z AUTO 01012KT 1 3/4SM -RA BKN006 BKN011 09/ A2967 RMK SLP053

2010/08/08 02:00
CYXC 080200Z 20005KT 20SM BKN070TCU BKN110 20/12 A2978 RMK TCU6AC2 SH ALQDS CB ASOCTD FU SLP079

2010/08/08 02:00
CYXE 080200Z 30005KT 8SM OVC300 22/17 A2960 RMK CS5 HZ SLP025

2010/08/08 02:00
CYXS 080200Z AUTO 20004KT 9SM SCT071 OVC090 19/12 A2971 RMK SLP066 DENSITY ALT 3400FT

2010/08/08 02:00
CYZP 080200Z AUTO 24008KT 9SM OVC029 15/10 A2993 RMK SLP137

2010/08/08 02:00
CYZT 080200Z 32009KT 20SM FEW008 FEW017 BKN041 BKN210 16/12 A2992 RMK SC1SC2SC4CI0 SLP131

2010/08/08 02:00
CYBC 080200Z AUTO 23010KT 9SM FEW080 12/07 A2980 RMK SLP092

2010/08/08 02:00
CYBN 080200Z AUTO 18007KT 9SM CLR 18/12 A2992 RMK SLP131

2010/08/08 02:00
CYGK 080200Z 22007KT 15SM FEW250 20/13 A2996 RMK CI0 SLP146

2010/08/08 02:00
CYGQ 080200Z 25005KT 15SM SCT110 17/12 A2975 RMK AC3 SLP077

2010/08/08 02:00
CYHM 080200Z 19005KT 15SM FEW030 SCT250 16/13 A2997 RMK SC1CI1 SC TR SLP148

2010/08/08 02:00
CYKF 080200Z AUTO 17004KT 9SM CLR 17/12 A2996 RMK SLP144 DENSITY ALT 1400FT

2010/08/08 02:00
CYKL 080200Z AUTO 23006KT 9SM OVC094 08/06 A2951 RMK SLP011

2010/08/08 02:00
CYKZ 080200Z 22006KT 15SM FEW070 BKN260 21/12 A2995 RMK AC1CI3 SLP141

2010/08/08 02:00
CYOO 080200Z AUTO 23007KT 9SM CLR 20/13 A2994 RMK SLP140 DENSITY ALT 1100FT

2010/08/08 02:00
CYPL 080200Z 00000KT 15SM SCT040 BKN270 19/15 A2972 RMK SC4CI2 LAST OBS/NEXT 081100Z SLP068

2010/08/08 02:00
CYQA 080200Z AUTO 14004KT 9SM FEW047 SCT071 13/11 A2990 RMK SLP131

2010/08/08 02:00
CYQK 080200Z 16006KT 15SM FEW076 FEW200 21/15 A2972 RMK AC1CI0 SLP065

2010/08/08 02:00
CYRB 080200Z 12006KT 4SM -RA BR OVC009 06/06 A2977 RMK ST8 SLP087

2010/08/08 02:00
CYSB 080200Z 21008KT 15SM FEW064 SCT080 BKN220 17/10 A2985 RMK SC2AC2CI0 SLP112

2010/08/08 02:00
CYSC 080200Z AUTO 00000KT 9SM CLR 09/08 A2997 RMK SLP156

2010/08/08 02:00
CYVO 080200Z 21008KT 15SM SCT054 BKN082 16/09 A2976 RMK SC3AC4 LAST STFD OBS/NEXT 081000 UTC SLP085

2010/08/08 02:00
CYVQ 080200Z 00000KT 30SM FEW040 BKN110 BKN280 23/14 A2951 RMK CU1AC5CI1 SLP995

2010/08/08 02:00
CYXL 080200Z 00000KT 15SM FEW210 20/15 A2974 RMK CI1 SLP073

2010/08/08 02:00
CYXU 080200Z 17005KT 15SM SCT067 19/14 A2996 RMK AC3 SLP145

2010/08/08 02:00
CYYH 080200Z 17003KT 15SM BKN250 14/07 A2986 RMK CI2 SLP113

2010/08/08 02:00
CYYU 080200Z 25005KT 15SM FEW040 SCT080 BKN240 15/12 A2971 RMK SC2AC2CI1 SLP063

2010/08/08 02:00
UMBB 080200Z 14004MPS 6000 SCT030CB SCT100 20/19 Q1013 NOSIG

2010/08/08 02:00
UMMS 080200Z 13002MPS 4900 BR NSC 22/16 Q1014 R31/CLRD// NOSIG

2010/08/08 01:55
KBKF 080155Z 06003KT 7SM VCSH SCT050 SCT110 BKN220 21/13 A3000 RMK SLP091

2010/08/08 01:55
KHRT 080155Z 35005KT 10SM -RA SCT060 BKN100 BKN220 26/25 A2989 RMK AO2A RAB0134 SLP124 P0000 T02570249 $

2010/08/08 01:55
KMTC 080155Z 18006KT 12SM SCT070 21/18 A2992 RMK SLP136

2010/08/08 01:56
KNJK 080156Z AUTO 13008KT 10SM CLR 36/13 A2961 RMK AO2 SLP041 T03610128 TSNO

2010/08/08 01:56
KNRS 080156Z AUTO 27007KT 10SM OVC017 17/12 A2988 RMK AO2 SLP118 T01720122 TSNO $

2010/08/08 02:00
BIAR 080200Z 29004KT CAVOK 11/07 Q1014

2010/08/08 01:50
EGDM 080150Z AUTO 29003KT 9999NDV NCD 12/11 Q1019

2010/08/08 01:50
EGDX 080150Z AUTO 31006KT 9999NDV // NCD 13/10 Q1021

2010/08/08 01:50
EGDY 080150Z AUTO 29003KT 9999NDV BKN030/// 15/12 Q1020

2010/08/08 01:50
EGOM 080150Z AUTO 08003KT 8000NDV BR FEW038/// BKN050/// 11/11 Q1019

2010/08/08 01:50
EGOS 080150Z AUTO 27005KT 9999NDV OVC014/// 14/11 Q1020

2010/08/08 01:50
EGOV 080150Z AUTO 28002KT 9999NDV NCD 10/09 Q1021

2010/08/08 01:50
EGQK 080150Z AUTO 24005KT 9999NDV OVC043/// 13/10 Q1020

2010/08/08 01:50
EGUB 080150Z AUTO 00000KT 9999NDV // BKN017/// 13/12 Q1019

2010/08/08 01:50
EGUW 080150Z AUTO 32006KT 9999NDV FEW004/// 14/13 Q1017

2010/08/08 01:50
EGVO 080150Z AUTO 28005KT 9999NDV NCD 13/12 Q1019

2010/08/08 01:50
EGVP 080150Z AUTO 31005KT 9999NDV // NCD 12/11 Q1019

2010/08/08 01:50
EGWU 080150Z AUTO 34007KT 9999NDV // NCD 14/12 Q1018

2010/08/08 01:50
EGXD 080150Z AUTO 33006KT 9999NDV // BKN060/// 13/13 Q1019

2010/08/08 01:50
EGXE 080150Z AUTO 32004KT 9999NDV BKN070/// 11/11 Q1019

2010/08/08 01:50
EGXG 080150Z AUTO 33008KT 8000NDV BR NCD 12/11 Q1019

2010/08/08 01:50
EGXJ 080150Z AUTO 33006KT 8000NDV // FEW005/// BKN010/// 14/13 Q1018

2010/08/08 01:50
EGXT 080150Z AUTO 31008KT 9999NDV SCT009/// SCT019/// 14/13 Q1018

2010/08/08 01:50
EGXU 080150Z AUTO 33004KT 6000NDV // SCT060/// 11/11 Q1019

2010/08/08 01:50
EGXX 080150Z AUTO 33016KT 9999NDV // BKN010/// 15/14 Q1018

2010/08/08 01:50
EGXZ 080150Z AUTO 35004KT 8000NDV BR BKN060/// 12/11 Q1020

2010/08/08 01:50
EGYD 080150Z AUTO 31008KT 6000NDV // BKN011/// BKN029/// 14/13 Q1019

2010/08/08 01:50
EGYM 080150Z AUTO 35007KT 9999NDV SCT020/// SCT050/// 16/14 Q1017

2010/08/08 02:00
EICK 080200Z 32006KT 9999 FEW016 11/10 Q1023 NOSIG

2010/08/08 02:00
EIDW 080200Z 30005KT 9999 FEW025 BKN036 12/11 Q1022 NOSIG

2010/08/08 02:00
EINN 080200Z 33002KT 9999 SCT034 11/10 Q1023 NOSIG

2010/08/08 02:00
WMBA 080200Z 09003KT 8000 FEW017CB BKN280 29/25 Q1010

2010/08/08 02:00
WMKA 080200Z 22002KT 9999 SCT020 SCT150 BKN280 30/26 Q1009

2010/08/08 02:00
WMKB 080200Z 15004KT 9000 -RA FEW010 SCT025 OVC260 25/24 Q1010 RETSRA NOSIG

2010/08/08 02:00
WMKC 080200Z 19006KT 9999 FEW018 BKN220 28/23 Q1010

2010/08/08 02:00
WMKD 080200Z 30001KT 3000 HZ FEW005 BKN160 27/25 Q1010 NOSIG

2010/08/08 02:00
WMKI 080200Z 00000KT 9999 FEW020 SCT140 BKN280 28/24 Q1011

2010/08/08 02:00
WMKL 080200Z 29005KT 9999 FEW022 SCT140 BKN280 31/26 Q1009

2010/08/08 02:00
WMKM 080200Z 22001KT 4000 -TSRA FEW007 FEW016CB SCT026 BKN260 25/24 Q1011

2010/08/08 02:00
WMKN 080200Z 19003KT 9999 FEW020 SCT140 OVC220 27/25 Q1010

2010/08/08 02:00
OBBI 080200Z VRB03KT CAVOK 33/20 Q0998 NOSIG

2010/08/08 02:00
OEDF 080200Z 10005KT CAVOK 34/06 Q0998 NOSIG

2010/08/08 02:00
OEDR 080200Z VRB03KT 7000 SKC 31/20 Q0996 NOSIG

2010/08/08 02:00
OTBD 080200Z 24005KT 8000 NSC 33/18 Q0998 NOSIG

2010/08/08 02:00
OKBK 080200Z 24004KT 8000 SKC 30/03 Q0998 NOSIG

2010/08/08 02:04
KCLM 080204Z AUTO 00000KT 10SM FEW003 BKN026 OVC036 16/14 A2990

2010/08/08 02:00
FMEE 080200Z 15012KT 9999 SCT020 SCT053 19/15 Q1023 TEMPO 5000 SHRA

2010/08/08 01:55
LIMU 080155Z 07001KT 9999 BKN013 21/19 Q1018 RMK BKN QUK / QUL / VIS MAR 50 KM VIS MIN 9999

2010/08/08 01:55
LIVT 080155Z 04003KT CAVOK 19/17 Q1016 RMK SKC QUK / QUL / VIS MAR 20 KM VIS MIN 9999

2010/08/08 01:50
LIEA 080150Z 02001KT CAVOK 15/15 Q1018 RMK VIS MIN 9999

2010/08/08 01:55
LIED 080155Z 36004KT CAVOK 17/16 Q1017 RMK SKC VIS MIN 9999 BLU

2010/08/08 01:50
LIEO 080150Z 23005KT CAVOK 17/14 Q1018 RMK VIS MIN 9999

2010/08/08 01:55
LIRM 080155Z 36004KT CAVOK 20/18 Q1016 RMK SKC VIS MIN 9999 WIND THR06 35005KT BLU

2010/08/08 01:55
LIRS 080155Z 01006KT CAVOK 17/13 Q1017 RMK SKC VIS MIN 9999 WIND THR21 /////KT BLU

2010/08/08 01:50
LIBD 080150Z 24004KT CAVOK 19/17 Q1017 RMK VIS MIN 9999

2010/08/08 01:50
LIBP 080150Z VRB03KT CAVOK 17/14 Q1017 RMK VIS MIN 9999

2010/08/08 01:45
LIBR 080145Z 34009KT CAVOK 23/19 Q1016 NOSIG RMK SKC VIS MIN 9999 WIND THR13 /////KT WIND THR31 32012KT BLU

2010/08/08 01:55
LIBV 080155Z 03005KT CAVOK 18/15 Q1015 RMK SKC VIS MIN 9999 WIND THR14 34003KT BLU

2010/08/08 01:50
LICA 080150Z VRB03KT CAVOK 17/14 Q1016 RMK VIS MIN 9999

2010/08/08 01:50
LICC 080150Z VRB03KT CAVOK 20/17 Q1015 RMK VIS MIN 9999

2010/08/08 01:50
LICJ 080150Z 08011KT 9999 FEW030 24/18 Q1016 RMK VIS MIN 9999

2010/08/08 01:55
LICT 080155Z 00000KT CAVOK 20/19 Q1016 RMK SKC VIS MIN 9999 WIND THR13 07001KT BLU

2010/08/08 01:55
LICZ 080155Z 28003KT CAVOK 19/17 Q1015 RMK SKC VIS MIN 9999 WIND THR28 ///// KT BLU

2010/08/08 01:45
LIPH 080145Z 00000KT CAVOK 20/19 Q1017 RMK SKC VIS MIN 9999 WIND THR07 /////KT BLU

2010/08/08 01:50
LIPO 080150Z 06005KT CAVOK 18/15 Q1016 RMK VIS MIN 9999

2010/08/08 01:50
LIPQ 080150Z VRB03KT 9999 FEW050 16/14 Q1017

2010/08/08 01:45
LIPR 080145Z 20002KT CAVOK 19/18 Q1016 RMK SKC VIS MIN 9999 WIND THR31 22002KT BLU

2010/08/08 01:55
LIPS 080155Z 03003KT CAVOK 19/16 Q1017 RMK SKC VIS MIN 9999 BLU

2010/08/08 01:45
LIPX 080145Z 34001KT CAVOK 18/18 Q1016 RMK SKC VIS MIN 9999 BLU

2010/08/08 01:50
LIPY 080150Z 17004KT CAVOK 17/15 Q1016 RMK VIS MIN 9999

2010/08/08 02:03
PAEN 080203Z 20013KT 10SM -RA FEW027 SCT075 14/12 A2975

2010/08/08 02:03
KSMP 080203Z AUTO VRB04KT 1/4SM -RA FG FEW003 BKN010 OVC018 11/11 A2997

2010/08/08 02:00
OOMS 080200Z 25004KT 7000 NSC 28/26 Q0999 NOSIG

2010/08/08 01:50
OOSA 080150Z 17006KT 6000 FEA006 SCT010 OVC020 25/23 Q1003 NOSIG RH88 RMK05

2010/08/08 01:50
OIKB 080150Z 34004KT 6000 NSC 30/27 Q0999 A2950

2010/08/08 02:00
OOMS 080200Z 25004KT 7000 NSC 28/26 Q0999 NOSIG

2010/08/08 01:50
OOSA 080150Z 17006KT 6000 FEA006 SCT010 OVC020 25/23 Q1003 NOSIG RH88 RMK05

2010/08/08 02:00
NZAA 080200Z 23014KT 9999 SHRA FEW015 SCT022 BKN033 13/// Q1002 BECMG 30015G25KT TEMPO 7000 SHRA 

2010/08/08 02:00
NZWN 080200Z 20024KT 9999 FEW020 SCT028 11/06 Q0998 NOSIG 

2010/08/08 02:00
NZCH 080200Z 20020KT 9999 -RA SCT015 BKN025 06/06 Q1005 TEMPO 4000 RA BKN012 

2010/08/08 01:56
SEQU 080156Z 34002KT 9999 FEW040 12/08 Q1028 RMK A3037 NOSIG

2010/08/08 02:00
SEMT 080200Z 22006KT 9999 SCT100 23/19 Q1014

2010/08/08 02:00
SELT 080200Z 18009KT 9999 BKN030 12/07 Q1033

2010/08/08 02:00
VTBS 080200Z 24005KT 180V260 9999 FEW020 SCT040 BKN300 29/22 Q1006 NOSIG

2010/08/08 02:00
VTBD 080200Z 24007KT 9999 FEW020 BKN120 BKN300 29/21 Q1006 NOSIG

2010/08/08 02:00
VTCC 080200Z 06004KT 9999 FEW018 BKN035 26/23 Q1008 A2976

2010/08/08 02:00
VTBU 080200Z 24004KT 9999 FEW020 BKN120 BKN300 31/26 Q1006 A2973

2010/08/08 02:00
VTSS 080200Z 24008KT 9999 SCT020 BKN300 30/24 Q1009 A2981

2010/08/08 02:00
VTSP 080200Z 26015KT 9000 SCT015 BKN300 29/24 Q1009 A2981

2010/08/08 02:00
VLVT 080200Z 34004KT 7000 BR SCT015 SCT040 28/24 Q1004

2010/08/08 02:00
VVNB 080200Z 31006KT 8000 NSC 29/25 Q1005 NOSIG

2010/08/08 02:00
VDPP 080200Z 23010KT 9999 SCT017 SCT040 BKN120 28/22 Q1005

2010/08/08 02:00
VVDN 080200Z 21004KT 160V290 8000 FEW015 BKN250 30/23 Q1005 NOSIG

2010/08/08 02:00
VDSR 080200Z 23003KT 9999 SCT013 BKN040 28/23 Q1005

2010/08/08 02:00
VVPB 080200Z VRB03KT CAVOK 29/26 Q1004 NOSIG

2010/08/08 01:55
KHRT 080155Z 35005KT 10SM -RA SCT060 BKN100 BKN220 26/25 A2989 RMK AO2A RAB0134 SLP124 P0000 T02570249 $

2010/08/08 01:55
KMTC 080155Z 18006KT 12SM SCT070 21/18 A2992 RMK SLP136

2010/08/08 02:00
LKKV 080200Z VRB02KT CAVOK 14/11 Q1017 RMK REG QNH 1012

2010/08/08 02:00
MPDA 080200Z 00000KT 8000 -RA FEW006 SCT015 BKB080 24/24 Q1012 RWY WET

2010/08/08 01:59
MYEG 080159Z AUTO 08004KT 10SM CLR 28/23 A3000 RMK AO2

2010/08/08 02:00
MYNN 080200Z 24003KT 9999 VCSH FEW015CB BKN016TCU BKN100 30/26 A3001

2010/08/08 02:00
OEDR 080200Z VRB03KT 7000 SKC 31/20 Q0996 NOSIG

2010/08/08 02:00
OIAW 080200Z 00000KT 7000 SCT040 BKN100 33/11 Q0997 A2944

2010/08/08 02:00
OIFM 080200Z 35004KT 6000 SKC 18/01 Q1018 A3008

2010/08/08 02:00
OIKK 080200Z 12004KT CAVOK 14/M01 Q1018 A3007

2010/08/08 02:00
OIMM 080200Z 17004KT CAVOK 20/M00 Q1013 A2994

2010/08/08 02:00
OITT 080200Z 09006KT 9999 FEW040 25/05 Q1018 A3007

2010/08/08 02:00
OIZH 080200Z 15004KT CAVOK 20/M03 Q1011 A2985

2010/08/08 01:57
PHNG 080157Z AUTO 06008G16KT 10SM CLR 28/22 A3004 RMK AO2 SLP168 T02830217 $

2010/08/08 02:00
TVSV 080200Z 09008KT 9999 -SHRA BKN016 SCT032 BKN260 25/24 Q1014

2010/08/08 02:00
UACC 080200Z 27002MPS 9000 BKN233 19/11 Q1013 220/0070 NOSIG RMK QFE729/0972

2010/08/08 02:00
UAFM 080200Z 20002MPS CAVOK 24/07 Q1010 NOSIG

2010/08/08 02:00
UATT 080200Z 00000MPS CAVOK 21/10 Q1016 13CLRD70 NOSIG RMK QFE743/0990

2010/08/08 02:00
ZBHH 080200Z 22001MPS 3500 BR FEW030 SCT040 FEW040CB 21/18 Q1010 NOSIG

2010/08/08 02:00
ZHHH 080200Z 12002MPS 060V230 CAVOK 32/29 Q1005 NOSIG

2010/08/08 02:00
ZSNJ 080200Z 13004MPS 080V190 CAVOK 31/19 Q1007 NOSIG

2010/08/08 02:00
ZUCK 080200Z 08002MPS 030V150 CAVOK 31/20 Q1006 NOSIG

2010/08/08 02:00
ZWSH 080200Z 33003MPS 8000 BKN040 27/10 Q1009 NOSIG

2010/08/08 02:05
PABE 080205Z 21011KT 10SM BKN013 OVC020 13/10 A2971 RMK AO2

2010/08/08 02:04
PPIZ 080204Z AUTO 07015G20KT 10SM SCT015 09/06 A2970 RMK AO2 TSNO $

2010/08/08 01:55
KCNW 080155Z 15004KT 10SM CLR 32/20 A2983

2010/08/08 02:04
KFOA 080204Z AUTO 00000KT 7SM CLR 23/22 A2994 RMK AO2

2010/08/08 02:02
KW99 080202Z AUTO 00000KT 10SM CLR 22/15 A3002 RMK AO2

2010/08/08 02:04
EYSA 080204Z 17012KT 9999 -SHRA VCTS BKN057CB OVC086 19/17 Q1013

2010/08/08 02:00
CXCH 080200Z AUTO 13/11 RMK AO1 T01270105

2010/08/08 02:00
CXET 080200Z AUTO 31004KT 18/13 RMK AO1 SLP131 T01760133 53002

2010/08/08 02:00
CXHA 080200Z AUTO 24006KT 25/17 RMK AO1 SLP126 T02460166 53006

2010/08/08 02:00
CXMI 080200Z AUTO 26011KT 16/08 RMK AO1 SLP164 T01600079 51025

2010/08/08 02:00
CXMY 080200Z AUTO 10/08 RMK AO1 T00950082

2010/08/08 02:00
CXOX 080200Z AUTO 11006KT 19/16 RMK AO1 SLP018 T01940164 52009

2010/08/08 02:00
CXSR 080200Z AUTO 22009KT 20/06 RMK AO1 PK WND 20020/0141 SLP009 T01950060 50000

2010/08/08 02:00
CXSW 080200Z AUTO 27011KT RMK AO1 19 0148Z 

2010/08/08 02:00
CXWN 080200Z AUTO 11001KT 25/17 RMK AO1 SLP036 T02480171 55000

2010/08/08 02:00
CXET 080200Z AUTO 31004KT 18/13 RMK AO1 SLP131 T01760133 53002

2010/08/08 02:00
CXHA 080200Z AUTO 24006KT 25/17 RMK AO1 SLP126 T02460166 53006

2010/08/08 02:00
CXMI 080200Z AUTO 26011KT 16/08 RMK AO1 SLP164 T01600079 51025

2010/08/08 02:00
CXMY 080200Z AUTO 10/08 RMK AO1 T00950082

2010/08/08 02:00
CXOX 080200Z AUTO 11006KT 19/16 RMK AO1 SLP018 T01940164 52009

2010/08/08 02:00
CXSR 080200Z AUTO 22009KT 20/06 RMK AO1 PK WND 20020/0141 SLP009 T01950060 50000

2010/08/08 02:00
CXSW 080200Z AUTO 27011KT RMK AO1 19 0148Z 

2010/08/08 02:00
CXWN 080200Z AUTO 11001KT 25/17 RMK AO1 SLP036 T02480171 55000

2010/08/08 02:00
CXET 080200Z AUTO 31004KT 18/13 RMK AO1 SLP131 T01760133 53002

2010/08/08 02:00
CXHA 080200Z AUTO 24006KT 25/17 RMK AO1 SLP126 T02460166 53006

2010/08/08 02:00
CXMI 080200Z AUTO 26011KT 16/08 RMK AO1 SLP164 T01600079 51025

2010/08/08 02:00
CXMY 080200Z AUTO 10/08 RMK AO1 T00950082

2010/08/08 02:00
CXOX 080200Z AUTO 11006KT 19/16 RMK AO1 SLP018 T01940164 52009

2010/08/08 02:00
CXSR 080200Z AUTO 22009KT 20/06 RMK AO1 PK WND 20020/0141 SLP009 T01950060 50000

2010/08/08 02:00
CXSW 080200Z AUTO 27011KT RMK AO1 19 0148Z 

2010/08/08 02:00
CXWN 080200Z AUTO 11001KT 25/17 RMK AO1 SLP036 T02480171 55000

2010/08/08 02:00
CXBK 080200Z AUTO 29006KT 22/15 RMK AO1 SLP018 T02220153 53011

2010/08/08 02:00
CXMI 080200Z AUTO 26011KT 16/08 RMK AO1 SLP164 T01600079 51025

2010/08/08 02:00
CXMY 080200Z AUTO 10/08 RMK AO1 T00950082

2010/08/08 02:00
CXOX 080200Z AUTO 11006KT 19/16 RMK AO1 SLP018 T01940164 52009

2010/08/08 02:00
CXSR 080200Z AUTO 22009KT 20/06 RMK AO1 PK WND 20020/0141 SLP009 T01950060 50000

2010/08/08 02:00
CXSW 080200Z AUTO 27011KT RMK AO1 19 0148Z 

2010/08/08 02:00
CXWN 080200Z AUTO 11001KT 25/17 RMK AO1 SLP036 T02480171 55000

2010/08/08 02:00
CXMI 080200Z AUTO 26011KT 16/08 RMK AO1 SLP164 T01600079 51025

2010/08/08 02:03
KSMP 080203Z AUTO VRB04KT 1/4SM -RA FG FEW003 BKN010 OVC018 11/11 A2997 RMK AO2 P0000 TSNO $

2010/08/08 01:51
KABE 080151Z 35003KT 10SM CLR 22/15 A2998

2010/08/08 01:51
KALB 080151Z 00000KT 10SM FEW180 18/11 A3000

2010/08/08 01:56
KART 080156Z AUTO 17004KT 10SM CLR 17/12 A2997

2010/08/08 01:54
KAVP 080154Z 00000KT 10SM CLR 21/10 A3000

2010/08/08 01:51
KBDL 080151Z 00000KT 10SM CLR 18/12 A2998

2010/08/08 01:52
KBDR 080152Z 20004KT 10SM CLR 24/19 A2998

2010/08/08 01:54
KBTV 080154Z 00000KT 10SM CLR 14/11 A2997

2010/08/08 01:54
KBUF 080154Z 21006KT 10SM FEW080 SCT300 18/10 A2998

2010/08/08 01:56
KCAE 080156Z 00000KT 7SM CLR 28/24 A2994

2010/08/08 01:51
KCAK 080151Z 16004KT 10SM SCT200 21/14 A3001

2010/08/08 01:51
KCMH 080151Z 00000KT 10SM CLR 24/15 A2998

2010/08/08 01:53
KCRQ 080153Z AUTO 25006KT 10SM FEW015 18/13 A2986

2010/08/08 01:54
KCRW 080154Z 00000KT 10SM FEW055 21/18 A3000

2010/08/08 01:56
KDAY 080156Z 00000KT 10SM CLR 24/13 A3001

2010/08/08 01:51
KERI 080151Z 16006KT 10SM CLR 19/13 A2998

2010/08/08 01:51
KFDK 080151Z AUTO 00000KT 7SM CLR 23/14 A2999

2010/08/08 01:54
KGSO 080154Z 06004KT 10SM CLR 26/17 A3001

2010/08/08 01:53
KGSP 080153Z 11004KT 10SM FEW075 SCT100 26/21 A2998

2010/08/08 01:51
KHTS 080151Z 11003KT 7SM CLR 21/18 A2999

2010/08/08 01:53
KHUL 080153Z AUTO 19004KT 10SM CLR 12/06 A2995

2010/08/08 01:53
KIAG 080153Z 20004KT 10SM FEW250 18/12 A2997

2010/08/08 01:51
KILG 080151Z 15006KT 10SM CLR 25/19 A2998

2010/08/08 01:53
KILM 080153Z AUTO 00000KT 9SM CLR 25/22 A2994

2010/08/08 01:53
KMSS 080153Z AUTO 20004KT 10SM CLR 14/09 A2995

2010/08/08 01:54
KORH 080154Z AUTO 00000KT 10SM CLR 19/09 A3003

2010/08/08 01:51
KPVD 080151Z 00000KT 10SM FEW055 20/16 A3002

2010/08/08 01:51
KPWM 080151Z 19003KT 10SM CLR 17/14 A2999

2010/08/08 01:54
KRIC 080154Z 13005KT 10SM BKN050 25/19 A2998

2010/08/08 01:54
KROC 080154Z 22003KT 10SM FEW080 17/12 A2998

2010/08/08 01:54
KSYR 080154Z 00000KT 10SM SCT250 17/13 A2998

2010/08/08 02:00
NZAA 080200Z 23014KT 9999 SHRA FEW015 SCT022 BKN033 13/// Q1002 BECMG 30015G25KT TEMPO 7000 SHRA 

2010/08/08 02:00
NZWN 080200Z 20024KT 9999 FEW020 SCT028 11/06 Q0998 NOSIG 

2010/08/08 02:00
NZCH 080200Z 20020KT 9999 -RA SCT015 BKN025 06/06 Q1005 TEMPO 4000 RA BKN012 

2010/08/08 01:55
EHSA 080155Z AUTO 35008G10KT 9999 17/16 Q1015 W19/S3

2010/08/08 02:00
CWWE 080200Z AUTO 23004KT 09/07 RMK AO1 SLP173 T00910067 51023

2010/08/08 02:00
CWSF 080200Z AUTO 23007KT 14/05 RMK AO1 SLP097 T01390050 51017

2010/08/08 02:00
CWBV 080200Z AUTO 31006KT 15/09 RMK AO1 SLP164 T01500091 51029

2010/08/08 02:00
CWHO 080200Z AUTO 23008KT 13/07 RMK AO1 SLP003 T01320074 51027

2010/08/08 02:00
CWRN 080200Z AUTO 25004KT 16/12 RMK AO1 SLP153 T01590121 51027

2010/08/08 02:00
CWBV 080200Z AUTO 31006KT 15/09 RMK AO1 SLP164 T01500091 51029

2010/08/08 02:00
CWHO 080200Z AUTO 23008KT 13/07 RMK AO1 SLP003 T01320074 51027

2010/08/08 02:00
CWRN 080200Z AUTO 25004KT 16/12 RMK AO1 SLP153 T01590121 51027

2010/08/08 02:00
CWHO 080200Z AUTO 23008KT 13/07 RMK AO1 SLP003 T01320074 51027

2010/08/08 02:00
CWRN 080200Z AUTO 25004KT 16/12 RMK AO1 SLP153 T01590121 51027

2010/08/08 02:00
CWHO 080200Z AUTO 23008KT 13/07 RMK AO1 SLP003 T01320074 51027

2010/08/08 02:00
CWRN 080200Z AUTO 25004KT 16/12 RMK AO1 SLP153 T01590121 51027

2010/08/08 02:00
CWRN 080200Z AUTO 25004KT 16/12 RMK AO1 SLP153 T01590121 51027

2010/08/08 02:00
CWEP 080200Z AUTO 24008KT 17/12 RMK AO1 SLP136 T01670118 51019

2010/08/08 02:00
CWRN 080200Z AUTO 25004KT 16/12 RMK AO1 SLP153 T01590121 51027

2010/08/08 02:00
CWRN 080200Z AUTO 25004KT 16/12 RMK AO1 SLP153 T01590121 51027

2010/08/08 02:00
CWDV 080200Z AUTO 00026KT 15/11 RMK AO1 SLP078 T01520112 53001

2010/08/08 02:00
CWNZ 080200Z AUTO 23003KT 13/11 RMK AO1 SLP063 T01320111 53005

2010/08/08 02:00
CWLS 080200Z AUTO 18007KT 18/13 RMK AO1 SLP133 T01790129 55000

2010/08/08 02:00
CWLS 080200Z AUTO 18007KT 18/13 RMK AO1 SLP133 T01790129 55000

2010/08/08 02:00
CWWB 080200Z AUTO 21005KT 22/12 RMK AO1 SLP139 T02180116 53004

2010/08/08 02:00
CWNK 080200Z AUTO 13006KT 21/18 RMK AO1 T02120184

2010/08/08 02:00
CWOE 080200Z AUTO 33005KT 26/09 RMK AO1 T02570088

2010/08/08 02:00
CWPD 080200Z AUTO 16001KT 09/05 RMK AO1 SLP106 T00920052 52006

2010/08/08 02:00
CWAV 080200Z AUTO 04002KT 15/12 RMK AO1 0011 SLP062 T01500123 50058

2010/08/08 02:00
CWBO 080200Z AUTO 15003KT 25/15 RMK AO1 SLP030 T02490149 56007

2010/08/08 02:00
CWBS 080200Z AUTO 19015KT 18/ RMK AO1 PK WND 21022/0111 T0180

2010/08/08 02:00
CWBT 080200Z AUTO 25003KT 10/10 RMK AO1 SLP083 T00960096 51015

2010/08/08 02:00
CWCO 080200Z AUTO 17005KT 20/13 RMK AO1 SLP112 T02030133 55005

2010/08/08 02:00
CWDJ 080200Z AUTO 29006KT 23/15 RMK AO1 SLP029 T02310154 53008

2010/08/08 02:00
CWDZ 080200Z AUTO 19002KT 25/12 RMK AO1 SLP015 T02530115 56008

2010/08/08 02:00
CWGR 080200Z AUTO 24006KT 14/10 RMK AO1 SLP128 T01440096 51022

2010/08/08 02:00
CWHV 080200Z AUTO 18002KT 11/07 RMK AO1 SLP144 T01100065 53007

2010/08/08 02:00
CWIS 080200Z AUTO 22006KT 10/05 RMK AO1 SLP132 T00980048 53007

2010/08/08 02:00
CWJB 080200Z AUTO 21007KT 15/08 RMK AO1 T01540076

2010/08/08 02:00
CWJC 080200Z AUTO 17/06 RMK AO1 22 0113Z 6002 SLP091 T01730055

2010/08/08 02:00
CWHV 080200Z AUTO 18002KT 11/07 RMK AO1 SLP144 T01100065 53007

2010/08/08 02:00
CWIS 080200Z AUTO 22006KT 10/05 RMK AO1 SLP132 T00980048 53007

2010/08/08 02:00
CWJB 080200Z AUTO 21007KT 15/08 RMK AO1 T01540076

2010/08/08 02:00
CWJC 080200Z AUTO 17/06 RMK AO1 22 0113Z 6002 SLP091 T01730055

2010/08/08 02:00
CTRA 080200Z AUTO 15003KT 18/14 RMK AO1 SLP065 T01800141 53000

2010/08/08 02:00
CTRA 080200Z AUTO 15003KT 18/14 RMK AO1 SLP065 T01800141 53000

2010/08/08 02:00
CWCT 080200Z AUTO 16002KT 22/14 RMK AO1 SLP033 T02200140 56006

2010/08/08 02:00
CWLB 080200Z AUTO 29003KT 23/14 RMK AO1 SLP010 T02330135 53001

2010/08/08 02:00
CWZG 080200Z AUTO 25004KT 16/10 RMK AO1 SLP077 T01560098 58001

2010/08/08 02:00
CWDC 080200Z AUTO 09002KT 20/13 RMK AO1 SLP015 T01990133 51001

2010/08/08 02:00
CWEH 080200Z AUTO 02006KT 21/09 RMK AO1 SLP051 T02100093 53003

2010/08/08 02:00
CWOY 080200Z AUTO 27004KT 23/17 RMK AO1 SLP018 T02280170 53005

2010/08/08 02:00
CWVT 080200Z AUTO 06004KT 21/16 RMK AO1 SLP021 T02090159 53005

2010/08/08 02:00
CWUX 080200Z AUTO 21007KT 15/07 RMK AO1 SLP091 T01500070 50000

2010/08/08 02:00
CWVN 080200Z AUTO 03006KT 24/15 RMK AO1 SLP047 T02380145 53006

2010/08/08 02:00
CWXA 080200Z AUTO 24006KT 18/08 RMK AO1 SLP056 T01810083 50006

2010/08/08 02:00
CWXA 080200Z AUTO 24006KT 18/08 RMK AO1 SLP056 T01810083 50006

2010/08/08 02:00
CWXA 080200Z AUTO 24006KT 18/08 RMK AO1 SLP056 T01810083 50006

2010/08/08 02:00
CWBU 080200Z AUTO 35010G17KT 19/15 RMK AO1 PK WND 36022/0130 SLP013 T01900149 53016

2010/08/08 02:00
CAHR 080200Z AUTO 22001KT 14/11 RMK AO1 SLP144 T01410114 51024

2010/08/08 02:00
CWBK 080200Z AUTO 25008KT 16/08 RMK AO1 SLP144 T01550080 51022

2010/08/08 02:00
CZSP 080200Z AUTO 22006KT 15/11 RMK AO1 SLP134 T01460110 51022

2010/08/08 02:00
CWBK 080200Z AUTO 25008KT 16/08 RMK AO1 SLP144 T01550080 51022

2010/08/08 02:00
CZSP 080200Z AUTO 22006KT 15/11 RMK AO1 SLP134 T01460110 51022

2010/08/08 02:00
CZSP 080200Z AUTO 22006KT 15/11 RMK AO1 SLP134 T01460110 51022

2010/08/08 02:00
CZSP 080200Z AUTO 22006KT 15/11 RMK AO1 SLP134 T01460110 51022

2010/08/08 02:00
CZSP 080200Z AUTO 22006KT 15/11 RMK AO1 SLP134 T01460110 51022

2010/08/08 02:00
CZSP 080200Z AUTO 22006KT 15/11 RMK AO1 SLP134 T01460110 51022

2010/08/08 02:00
CZSP 080200Z AUTO 22006KT 15/11 RMK AO1 SLP134 T01460110 51022

2010/08/08 02:00
CXLB 080200Z AUTO 25005KT 13/09 RMK AO1 SLP171 T01330090 51026

2010/08/08 02:00
CXPC 080200Z AUTO 13003KT 18/12 RMK AO1 SLP104 T01820115 55005

2010/08/08 02:00
CXTD 080200Z AUTO 20008KT 13/09 RMK AO1 SLP155 T01330090 51023

2010/08/08 02:00
CWJW 080200Z AUTO 18003KT 18/10 RMK AO1 SLP056 T01820099 55004

2010/08/08 02:00
SEGU 080200Z 16003KT 9999 SCT100 26/20 Q1013 NOSIG

2010/08/08 02:00
SEMT 080200Z 22006KT 9999 SCT100 23/19 Q1014

2010/08/08 02:00
SELT 080200Z 18009KT 9999 BKN030 12/07 Q1033

2010/08/08 02:00
CXMY 080200Z AUTO 10/08 RMK AO1 T00950082

2010/08/08 02:00
CXOX 080200Z AUTO 11006KT 19/16 RMK AO1 SLP018 T01940164 52009

2010/08/08 02:00
CXSR 080200Z AUTO 22009KT 20/06 RMK AO1 PK WND 20020/0141 SLP009 T01950060 50000

2010/08/08 02:00
CXSW 080200Z AUTO 27011KT RMK AO1 19 0148Z 

2010/08/08 02:00
CXWN 080200Z AUTO 11001KT 25/17 RMK AO1 SLP036 T02480171 55000

2010/08/08 02:00
CXMI 080200Z AUTO 26011KT 16/08 RMK AO1 SLP164 T01600079 51025

2010/08/08 02:00
CXMY 080200Z AUTO 10/08 RMK AO1 T00950082

2010/08/08 02:00
CXOX 080200Z AUTO 11006KT 19/16 RMK AO1 SLP018 T01940164 52009

2010/08/08 02:00
CXSR 080200Z AUTO 22009KT 20/06 RMK AO1 PK WND 20020/0141 SLP009 T01950060 50000

2010/08/08 02:00
CXSW 080200Z AUTO 27011KT RMK AO1 19 0148Z 

2010/08/08 02:00
CXWN 080200Z AUTO 11001KT 25/17 RMK AO1 SLP036 T02480171 55000

2010/08/08 02:00
CXSR 080200Z AUTO 22009KT 20/06 RMK AO1 PK WND 20020/0141 SLP009 T01950060 50000

2010/08/08 02:00
CXSW 080200Z AUTO 27011KT RMK AO1 19 0148Z 

2010/08/08 02:00
CXWN 080200Z AUTO 11001KT 25/17 RMK AO1 SLP036 T02480171 55000

2010/08/08 02:00
CXSR 080200Z AUTO 22009KT 20/06 RMK AO1 PK WND 20020/0141 SLP009 T01950060 50000

2010/08/08 02:00
CXSW 080200Z AUTO 27011KT RMK AO1 19 0148Z 

2010/08/08 02:00
CXWN 080200Z AUTO 11001KT 25/17 RMK AO1 SLP036 T02480171 55000

2010/08/08 02:00
CWXL 080200Z AUTO 28002KT 25/15 RMK AO1 T02490153

2010/08/08 02:00
CXKE 080200Z AUTO 21005KT 16/09 RMK AO1 SLP131 T01630089 53006

2010/08/08 02:00
CXKE 080200Z AUTO 21005KT 16/09 RMK AO1 SLP131 T01630089 53006

2010/08/08 02:00
CXKE 080200Z AUTO 21005KT 16/09 RMK AO1 SLP131 T01630089 53006

2010/08/08 01:56
SEQU 080156Z 34002KT 9999 FEW040 12/08 Q1028 RMK A3037 NOSIG

2010/08/08 02:00
CWFQ 080200Z AUTO 15006KT 14/09 RMK AO1 T01350087

2010/08/08 02:00
CWGD 080200Z AUTO 17008KT 21/14 RMK AO1 SLP120 T02080141 55000

2010/08/08 02:00
CWGM 080200Z AUTO 21004KT 18/10 RMK AO1 T01820097

2010/08/08 02:00
CWQP 080200Z AUTO 24009KT 18/15 RMK AO1 SLP142 T01830153 53004

2010/08/08 02:00
CWRK 080200Z AUTO 23001KT 14/10 RMK AO1 SLP137 T01430101 53009

2010/08/08 02:00
CWRY 080200Z AUTO 28005KT 24/08 RMK AO1 SLP046 T02380082 55000

2010/08/08 02:00
CWRZ 080200Z AUTO 26006KT 12/08 RMK AO1 SLP112 T01230083 51025

2010/08/08 02:00
CWSD 080200Z AUTO 26006KT 12/08 RMK AO1 SLP141 T01230083 51023

2010/08/08 02:00
VHHH 080200Z 07008KT 9999 FEW025 SCT035 BKN060 31/25 Q1004 NOSIG

2010/08/08 02:03
KSMP 080203Z AUTO VRB04KT 1/4SM -RA FG FEW003 BKN010 OVC018 11/11 A2997 RMK AO2 P0000 TSNO $

2010/08/08 02:05
PABE 080205Z 21011KT 10SM BKN013 OVC020 13/10 A2971 RMK AO2

2010/08/08 02:15
KRQO 080215Z AUTO 00000KT 10SM CLR 31/19 A2983 RMK AO2

2010/08/08 02:04
KFOA 080204Z AUTO 00000KT 7SM CLR 23/22 A2994 RMK AO2

2010/08/08 02:02
KW99 080202Z AUTO 00000KT 10SM CLR 22/15 A3002 RMK AO2

2010/08/08 01:59
KNGU 080159Z 09005KT 9SM CLR 26/23 A2999 RMK AO2 SLP155 T02560233 $

2010/08/08 01:55
KVAD 080155Z 22003KT 10SM R18/5500VP6000FT -RA OVC006 25/24 A2994 RMK AO2A SLP135 P0009 T02480244 $

2010/08/08 02:00
TTPP 080200Z 00000KT 9999 FEW016 SCT036 25/24 Q1013 NOSIG

2010/08/08 01:55
KBKF 080155Z 06003KT 7SM VCSH SCT050 SCT110 BKN220 21/13 A3000 RMK SLP091

2010/08/08 01:55
KHRT 080155Z 35005KT 10SM -RA SCT060 BKN100 BKN220 26/25 A2989 RMK AO2A RAB0134 SLP124 P0000 T02570249 $

2010/08/08 01:55
KMTC 080155Z 18006KT 12SM SCT070 21/18 A2992 RMK SLP136

2010/08/08 01:56
KNJK 080156Z AUTO 13008KT 10SM CLR 36/13 A2961 RMK AO2 SLP041 T03610128 TSNO

2010/08/08 01:56
KNRS 080156Z AUTO 27007KT 10SM OVC017 17/12 A2988 RMK AO2 SLP118 T01720122 TSNO $

2010/08/08 01:55
KHRT 080155Z 35005KT 10SM -RA SCT060 BKN100 BKN220 26/25 A2989 RMK AO2A RAB0134 SLP124 P0000 T02570249 $

2010/08/08 01:55
KMTC 080155Z 18006KT 12SM SCT070 21/18 A2992 RMK SLP136

2010/08/08 01:57
PHNG 080157Z AUTO 06008G16KT 10SM CLR 28/22 A3004 RMK AO2 SLP168 T02830217 $

2010/08/08 01:55
KGZL 080155Z AUTO 11007KT 10SM CLR 27/24 A2985 RMK AO2

2010/08/08 01:55
KCNW 080155Z 15004KT 10SM CLR 32/20 A2983

2010/08/08 02:04
PAPB 080204Z AUTO 16021G27KT 5SM RA BR BKN005 OVC011 11/11 A2945 RMK AO2 PK WND 16027/0203 P0002 TSNO

2010/08/08 02:04
PPIZ 080204Z AUTO 07015G20KT 10SM SCT015 09/06 A2970 RMK AO2 TSNO $

2010/08/08 02:00
FBSK 080200Z 09006KT CAVOK 07/05 Q1025 NOSIG

2010/08/08 02:00
OEDR 080200Z VRB03KT 7000 SKC 31/20 Q0996 NOSIG

2010/08/08 02:00
OTBD 080200Z 24005KT 8000 NSC 33/18 Q0998 NOSIG

2010/08/08 02:00
OBBI 080200Z VRB03KT CAVOK 33/20 Q0998 NOSIG

2010/08/08 02:00
OOMS 080200Z 25004KT 7000 NSC 28/26 Q0999 NOSIG

2010/08/08 01:50
OOSA 080150Z 17006KT 6000 FEA006 SCT010 OVC020 25/23 Q1003 NOSIG RH88 RMK05

2010/08/08 01:50
OIKB 080150Z 34004KT 6000 NSC 30/27 Q0999 A2950

2010/08/08 02:00
UAAA 080200Z 00000MPS 9999 FEW200 21/14 Q1010 88CLRD65 NOSIG

2010/08/08 02:00
UACC 080200Z 27002MPS 9000 BKN233 19/11 Q1013 220/0070 NOSIG RMK QFE729/0972

2010/08/08 02:00
UAKK 080200Z 00000MPS CAVOK 16/10 Q1014 050///70 NOSIG RMK QFE713/0951

2010/08/08 02:00
UARR 080200Z 36004MPS 9999 SCT050CB BKN/// 24/10 Q1016 04CLRD70 NOSIG RMK QFE758/1011

2010/08/08 02:00
UATE 080200Z 03006MPS CAVOK 24/14 Q1010 120///70 NOSIG RMK QFE755/1007

2010/08/08 02:00
UATG 080200Z 00000MPS CAVOK 22/11 Q1012 32CLRD70 NOSIG RMK QFE761/1015

2010/08/08 02:00
UATT 080200Z 00000MPS CAVOK 21/10 Q1016 13CLRD70 NOSIG RMK QFE743/0990

2010/08/08 02:00
UAUU 080200Z 00000MPS CAVOK 22/14 Q1014 33CLRD70 NOSIG RMK QFE745/0993

2010/08/08 02:00
UTDD 080200Z 00000MPS 9999 FEW066 BKN130 25/16 Q1007 09CLRD70 NOSIG RMK QFE688/0918

2010/08/08 02:00
OBBI 080200Z VRB03KT CAVOK 33/20 Q0998 NOSIG

2010/08/08 02:00
FBSK 080200Z 09006KT CAVOK 07/05 Q1025 NOSIG

2010/08/08 02:00
MYNN 080200Z 24003KT 9999 VCSH FEW015CB BKN016TCU BKN100 30/26 A3001

2010/08/08 02:00
MPDA 080200Z 00000KT 8000 -RA FEW006 SCT015 BKB080 24/24 Q1012 RWY WET

2010/08/08 02:00
MPMG 080200Z 00000KT 9999 FEW008 SCT015 BKN080 25/23 Q1013 RERA/RWY WET/NOSIG

2010/08/08 02:00
TVSV 080200Z 09008KT 9999 -SHRA BKN016 SCT032 BKN260 25/24 Q1014

2010/08/08 02:00
TVSV 080200 09008KT 9999 -SHRA BKN016 SCT032 BKN260 25/24 Q1014

2010/08/08 02:00
RCKH 080200Z 21005KT 160V240 9999 FEW018 BKN300 32/27 Q1002 NOSIG

2010/08/08 02:00
RCSS 080200Z 09011KT 060V120 9999 FEW015 BKN025 30/26 Q1004 NOSIG

2010/08/08 02:00
RCTP 080200Z 04014KT 010V070 9999 FEW010 SCT016 BKN060 33/27 Q1004 NOSIG

2010/08/08 02:00
CYBG 080200Z 19007KT 15SM BKN040 16/06 A2980 RMK SC7 SLP095

2010/08/08 02:00
CYDQ 080200Z AUTO 25014G20KT 9SM CLR 22/06 A2956 RMK SLP009 DENSITY ALT 3800FT MAX WND 23025KT AT 0139Z

2010/08/08 02:00
CYEG 080200Z 23010G15KT 8SM -TSRA FEW060CB BKN100 OVC250 18/15 A2964 RMK CB1AC5CI2 LTGCG HZ SLP040

2010/08/08 02:00
CYFB 080200Z 08011KT 30SM -RA BKN032 BKN099 11/07 A2950 RMK SC6AC1 SLP993

2010/08/08 02:00
CYFC 080200Z AUTO 21004KT 9SM FEW081 10/09 A2996 RMK SLP148 RVR MISG

2010/08/08 02:00
CYGL 080200Z 23006KT 15SM FEW005 BKN060 07/06 A2955 RMK SF2SC2 SLP015

2010/08/08 02:00
CYHZ 080200Z 25007KT 15SM SKC 14/08 A3002 RMK SLP166

2010/08/08 02:00
CYJT 080200Z 31006KT 15SM FEW020 14/09 A2987 RMK SC2 SLP117

2010/08/08 02:00
CYKL 080200Z AUTO 23006KT 9SM OVC094 08/06 A2951 RMK SLP011

2010/08/08 02:00
CYMH 080200Z AUTO 22007KT 9SM CLR 12/09 A2963 RMK SLP036

2010/08/08 02:00
CYMX 080200Z 18005KT 25SM FEW250 15/07 A2994 RMK CI1 SLP139

2010/08/08 02:00
CYOW 080200Z 20007KT 15SM SCT076 17/10 A2991 RMK AC3 SLP130

2010/08/08 02:00
CYPL 080200Z 00000KT 15SM SCT040 BKN270 19/15 A2972 RMK SC4CI2 LAST OBS/NEXT 081100Z SLP068

2010/08/08 02:00
CYQB 080200Z 27005KT 30SM SCT090 15/08 A2991 RMK AC3 SLP130

2010/08/08 02:00
CYQG 080200Z 23007KT 15SM FEW092 BKN280 25/17 A2994 RMK AC2CI1 SLP136

2010/08/08 02:00
CYQM 080200Z 20006KT 15SM FEW050 FEW120 13/08 A2997 RMK SC1AC1 SLP149

2010/08/08 02:00
CYQX 080200Z 29010KT 20SM FEW033 SCT062 BKN078 17/10 A2980 RMK SC1SC2AC2 SLP093

2010/08/08 02:00
CYQY 080200Z 21002KT 15SM SKC 11/08 A2997 RMK SLP150

2010/08/08 02:00
CYRB 080200Z 12006KT 4SM -RA BR OVC009 06/06 A2977 RMK ST8 SLP087

2010/08/08 02:00
CYSJ 080200Z 20003KT 15SM FEW080 11/08 A3000 RMK AC1 SLP161

2010/08/08 02:00
CYTE 080200Z AUTO 08017G22KT 9SM BKN063 14/09 A2952 RMK SLP999

2010/08/08 02:00
CYTR 080200Z 22007KT 15SM FEW080 FEW180 SCT250 20/12 A2994 RMK AC1AC1CI0 SLP140

2010/08/08 02:00
CYUL 080200Z 17006KT 15SM FEW150 FEW240 17/10 A2993 RMK AC1CI0 SLP137

2010/08/08 02:00
CYUY 080200Z 25015KT 15SM -SHRA FEW040 OVC080 15/09 A2977 RMK SC2AC6 SLP086

2010/08/08 02:00
CYVP 080200Z 24010KT 3SM -RA BR SCT015 OVC030 10/08 A2928 RMK SC4SC4 SLP915

2010/08/08 02:00
CYVR 080200Z 09006KT 3SM -RA BR BKN007 OVC016 16/13 A2989 RMK ST6SC2 PCPN VRY LGT SLP123

2010/08/08 02:00
CYWG 080200Z 15009KT 15SM SCT260 23/18 A2964 RMK CI3 SLP037

2010/08/08 02:00
CYWK 080200Z 20004KT 15SM SCT050 BKN088 BKN190 09/05 A2964 RMK SC3AC2AC1 SLP050

2010/08/08 02:00
CYXU 080200Z 17005KT 15SM SCT067 19/14 A2996 RMK AC3 SLP145

2010/08/08 02:00
CYXX 080200Z 23004KT 1SM -RA BR OVC007 18/14 A2990 RMK SC8 SLP124

2010/08/08 02:00
CYXY 080200Z 20005KT 40SM -SHRA FEW050 BKN063TCU OVC090 17/07 A2966 RMK CU2TCU5AC2 SLP053

2010/08/08 02:00
CYYC 080200Z 25009G20KT 15SM -TSRA BKN057CB BKN180 19/09 A2970 RMK CB5AC2 +SH SW/VIS SW 7/LTGCGIC S-N/PRESRR IN PAST HR SLP048

2010/08/08 02:00
CYYJ 080200Z 13009KT 3SM -RA BR FEW004 FEW009 FEW018 OVC051 16/15 A2988 RMK SF1SF1SC2SC6 SLP118

2010/08/08 02:00
CYYQ 080200Z 05005KT 15SM FEW100 10/09 A2985 RMK AC1 SLP111

2010/08/08 02:00
CYYR 080200Z 26009KT 15SM FEW060 FEW100 FEW260 14/06 A2962 RMK SC1AC1CI1 SLP030

2010/08/08 02:00
CYYT 080200Z 26017KT 3SM BR OVC003 18/17 A2982 RMK SF8 SLP097

2010/08/08 02:00
CYYZ 080200Z 22008KT 15SM FEW070 SCT260 21/12 A2994 RMK AC1CI1 SLP139

2010/08/08 02:00
CYZF 080200Z 15008KT 4SM FU SCT140 BKN210 21/15 A2949 RMK FU2AC1CI0 SLP991

2010/08/08 02:00
CYZV 080200Z 25006KT 15SM FEW060 13/06 A2977 RMK SC1 SLP083

2010/08/08 02:00
CYZX 080200Z 26003KT 15SM SKC 14/08 A3002 RMK WNDY HILL 25007KT SLP165

2010/08/08 02:00
CYZY 080200Z AUTO VRB02KT 9SM -RA BKN061 OVC079 17/11 A2966 RMK SLP049 DENSITY ALT 3300FT

2010/08/08 02:00
CZBF 080200Z 23004KT 15SM SKC 10/06 A2991 RMK SLP130

2010/08/08 02:00
EPSC 080200Z 31006KT 5000 RA BR SCT002 BKN004 16/16 Q1013

2010/08/08 02:00
UKKK 080200Z 10002MPS 5000 FU SKC 24/14 Q1014 08CLRD70 NOSIG

2010/08/08 02:00
UMMS 080200Z 13002MPS 4900 BR NSC 22/16 Q1014 R31/CLRD// NOSIG

2010/08/08 01:50
LOWL 080150Z 28003KT 250V310 5000 BR FEW032 13/13 Q1018 NOSIG

2010/08/08 02:00
LKPR 080200Z 21005KT 9999 BKN012 15/14 Q1016 NOSIG RMK REG QNH 1012

2010/08/08 02:00
LKTB 080200Z 22002KT 4500 BR FEW003 OVC017 16/15 Q1015 NOSIG RMK REG QNH 1012

2010/08/08 02:00
LRAR 080200Z 33004KT CAVOK 15/15 Q1017

2010/08/08 02:00
LRTC 080200Z AUTO 00000KT 5000 BR BKN150 24/23 Q1011

2010/08/08 02:00
LRTM 080200Z VRB02KT 6000 FEW034CB SCT042 18/18 Q1016 RETS 0729//95

2010/08/08 02:00
LFPN 080200Z AUTO 28003KT 9999NDV SCT044 15/13 Q1018

2010/08/08 02:00
LFVP 080200Z 29015KT CAVOK 15/12 Q1013

2010/08/08 02:00
LFGJ 080200Z AUTO VRB02KT 9999NDV NSC 16/13 Q1018

2010/08/08 02:00
LFMH 080200Z AUTO 13002KT 9999NDV NSC 16/12 Q1019

2010/08/08 02:00
LPAZ 080200Z 04003KT 9999 FEW020 19/17 Q1022

2010/08/08 02:00
LPPD 080200Z 02003KT 350V060 9999 FEW020 19/16 Q1022

2010/08/08 02:00
FMEE 080200Z 15012KT 9999 SCT020 SCT053 19/15 Q1023 TEMPO 5000 SHRA

2010/08/08 01:55
KQXJ 080155Z 32012KT 1600 DU SCT010 BKN100 33/04 A2949 RMK DU SCT010 SLP987 PA+421 DA+2669

2010/08/08 01:50
LIBD 080150Z 24004KT CAVOK 19/17 Q1017 RMK VIS MIN 9999

2010/08/08 01:50
LIBP 080150Z VRB03KT CAVOK 17/14 Q1017 RMK VIS MIN 9999

2010/08/08 01:50
LICA 080150Z VRB03KT CAVOK 17/14 Q1016 RMK VIS MIN 9999

2010/08/08 01:50
LICC 080150Z VRB03KT CAVOK 20/17 Q1015 RMK VIS MIN 9999

2010/08/08 01:50
LICJ 080150Z 08011KT 9999 FEW030 24/18 Q1016 RMK VIS MIN 9999

2010/08/08 01:55
LICT 080155Z 00000KT CAVOK 20/19 Q1016 RMK SKC VIS MIN 9999 WIND THR13 07001KT BLU

2010/08/08 01:50
LIEA 080150Z 02001KT CAVOK 15/15 Q1018 RMK VIS MIN 9999

2010/08/08 01:50
LIEO 080150Z 23005KT CAVOK 17/14 Q1018 RMK VIS MIN 9999

2010/08/08 01:45
LIBR 080145Z 34009KT CAVOK 23/19 Q1016 NOSIG RMK SKC VIS MIN 9999 WIND THR13 /////KT WIND THR31 32012KT BLU

2010/08/08 01:45
LIPH 080145Z 00000KT CAVOK 20/19 Q1017 RMK SKC VIS MIN 9999 WIND THR07 /////KT BLU

2010/08/08 01:45
LIPR 080145Z 20002KT CAVOK 19/18 Q1016 RMK SKC VIS MIN 9999 WIND THR31 22002KT BLU

2010/08/08 01:45
LIPX 080145Z 34001KT CAVOK 18/18 Q1016 RMK SKC VIS MIN 9999 BLU

2010/08/08 01:50
LIPO 080150Z 06005KT CAVOK 18/15 Q1016 RMK VIS MIN 9999

2010/08/08 01:50
LIPY 080150Z 17004KT CAVOK 17/15 Q1016 RMK VIS MIN 9999

2010/08/08 01:55
LIMU 080155Z 07001KT 9999 BKN013 21/19 Q1018 RMK BKN QUK / QUL / VIS MAR 50 KM VIS MIN 9999

2010/08/08 01:55
LIPS 080155Z 03003KT CAVOK 19/16 Q1017 RMK SKC VIS MIN 9999 BLU

2010/08/08 01:55
LIRS 080155Z 01006KT CAVOK 17/13 Q1017 RMK SKC VIS MIN 9999 WIND THR21 /////KT BLU

2010/08/08 01:55
LIVT 080155Z 04003KT CAVOK 19/17 Q1016 RMK SKC QUK / QUL / VIS MAR 20 KM VIS MIN 9999

2010/08/08 01:55
LIBV 080155Z 03005KT CAVOK 18/15 Q1015 RMK SKC VIS MIN 9999 WIND THR14 34003KT BLU

2010/08/08 01:55
LICZ 080155Z 28003KT CAVOK 19/17 Q1015 RMK SKC VIS MIN 9999 WIND THR28 ///// KT BLU

2010/08/08 01:55
LIED 080155Z 36004KT CAVOK 17/16 Q1017 RMK SKC VIS MIN 9999 BLU

2010/08/08 01:45
LIPX 080145Z 34001KT CAVOK 18/18 Q1016 RMK SKC VIS MIN 9999 BLU

2010/08/08 02:00
RPMD 080200Z CALM 9999 FEW016 SCT090 BKN290 31/27 Q1009

2010/08/08 02:00
BIAR 080200Z 29004KT CAVOK 11/07 Q1014

2010/08/08 02:00
LPAZ 080200Z 04003KT 9999 FEW020 19/17 Q1022

2010/08/08 02:00
LPPD 080200Z 02003KT 350V060 9999 FEW020 19/16 Q1022

2010/08/08 02:00
UAAA 080200Z 00000MPS 9999 FEW200 21/14 Q1010 88CLRD65 NOSIG

2010/08/08 02:00
UACC 080200Z 27002MPS 9000 BKN233 19/11 Q1013 220/0070 NOSIG RMK QFE729/0972

2010/08/08 02:00
UAFM 080200Z 20002MPS CAVOK 24/07 Q1010 NOSIG

2010/08/08 02:00
UARR 080200Z 36004MPS 9999 SCT050CB BKN/// 24/10 Q1016 04CLRD70 NOSIG RMK QFE758/1011

2010/08/08 02:00
UATE 080200Z 03006MPS CAVOK 24/14 Q1010 120///70 NOSIG RMK QFE755/1007

2010/08/08 02:00
UATG 080200Z 00000MPS CAVOK 22/11 Q1012 32CLRD70 NOSIG RMK QFE761/1015

2010/08/08 02:00
UATT 080200Z 00000MPS CAVOK 21/10 Q1016 13CLRD70 NOSIG RMK QFE743/0990

2010/08/08 02:00
UMBB 080200Z 14004MPS 6000 SCT030CB SCT100 20/19 Q1013 NOSIG

2010/08/08 02:00
UMMS 080200Z 13002MPS 4900 BR NSC 22/16 Q1014 R31/CLRD// NOSIG

2010/08/08 02:00
UTAA 080200Z 30006MPS 9999 FEW230 29/04 Q1010 NOSIG

2010/08/08 02:00
UTAK 080200Z 00000MPS CAVOK 24/10 Q1010 NOSIG

2010/08/08 02:00
UTAV 080200Z 00000MPS CAVOK 21/15 Q1005

2010/08/08 02:00
UTDD 080200Z 00000MPS 9999 FEW066 BKN130 25/16 Q1007 09CLRD70 NOSIG RMK QFE688/0918

2010/08/08 02:00
UTDL 080200Z 00000MPS 9999 SCT100 25/20 Q1006 NOSIG RMK QFE717 8809//70

2010/08/08 02:00
UTAM 080200Z 30002MPS CAVOK 25/08 Q1006 NOSIG

2010/08/08 01:56
SEQU 080156Z 34002KT 9999 FEW040 12/08 Q1028 RMK A3037 NOSIG

2010/08/08 02:00
SEMT 080200Z 22006KT 9999 SCT100 23/19 Q1014

2010/08/08 02:00
SELT 080200Z 18009KT 9999 BKN030 12/07 Q1033

2010/08/08 02:00
UKCW 080200Z 04001MPS CAVOK 21/08 Q1016 0909//70 NOSIG

2010/08/08 02:00
UKKK 080200Z 10002MPS 5000 FU SKC 24/14 Q1014 08CLRD70 NOSIG

2010/08/08 02:00
UKKM 080200Z VRB01MPS 7000 NSC 23/14 Q1014

2010/08/08 02:00
UKLI 080200Z 00000MPS 4000 BR SCT020 BKN100 17/17 Q1014 10090070 NOSIG

2010/08/08 02:00
LERT 080200Z 10013KT CAVOK 29/10 Q1014 NOSIG

2010/08/08 01:55
LICZ 080155Z 28003KT CAVOK 19/17 Q1015 RMK SKC VIS MIN 9999 WIND THR28 ///// KT BLU

2010/08/08 02:00
CWCA 080200Z 00000KT 15SM FEW030 BKN080 12/11 A2960 RMK CU1AC6 SLP024

2010/08/08 02:00
CWCL 080200Z AUTO 22003KT 9SM SCT027 SCT055 BKN076 13/13 A2981 RMK PCPN 3.5MM PAST HR SLP093

2010/08/08 02:00
CWEU 080200Z 15005KT 30SM FEW020 SCT025 BKN040 BKN100 OVC120 03/M00 A2978 RMK ST2SC1SC2AC2AS1 SH DIST E SLP087

2010/08/08 02:00
CWFD 080200Z AUTO 13008G16KT 9SM 08/ RMK ALTM MISG

2010/08/08 02:00
CWHN 080200Z AUTO 06008KT 020V080 9SM SCT059 22/14 A2958 RMK SLP019

2010/08/08 02:00
CWIL 080200Z AUTO 17011KT 13/ A2977 RMK SLP089

2010/08/08 02:00
CWKM 080200Z AUTO 02008KT 06/ A2978 RMK SLP089

2010/08/08 02:00
CWKW 080200Z AUTO 23008KT 08/ A2918 RMK SLP898

2010/08/08 02:00
CWLI 080200Z AUTO 01011G17KT 09/ A2955 RMK SLP016

2010/08/08 02:00
CWLX 080200Z AUTO 11003KT 16/ A2983 RMK SLP112

2010/08/08 02:00
CWLY 080200Z AUTO 21013G26KT 9SM FEW035 FEW047 FEW059 FEW078 22/13 A2976 RMK SLP076

2010/08/08 02:00
CWOB 080200Z AUTO ///// 0SM CLR 04/ A2948 RMK SLP016

2010/08/08 02:00
CWRH 080200Z AUTO ///// 06/ A2928 RMK SLP937

2010/08/08 02:00
CWRX 080200Z AUTO 36007KT 08/ A2984

2010/08/08 02:00
CWSA 080200Z AUTO 26004KT 2 1/4SM CLR 17/15 A2999 RMK SLP157

2010/08/08 02:00
CWTU 080200Z AUTO 22014KT 11/ A2960 RMK SLP031

2010/08/08 02:00
CWUP 080200Z AUTO 32003KT 02/ A2989 RMK SLP145

2010/08/08 02:00
CWUW 080200Z AUTO ///// 9SM CLR 09/ A2985 RMK SLP133

2010/08/08 02:00
CWVD 080200Z AUTO ///// 09/ A2988 RMK SLP152

2010/08/08 02:00
CWVH 080200Z AUTO 02013KT 08/ A2957 RMK SLP030

2010/08/08 02:00
CWXR 080200Z AUTO 30014KT 11/ A2948 RMK SLP989

2010/08/08 02:00
CWYK 080200Z AUTO ///// 06/ A2929 RMK SLP939

2010/08/08 02:00
CWYM 080200Z AUTO 09041G48KT 05/ RMK ALTM MISG SLP089

2010/08/08 02:00
CWZZ 080200Z AUTO ///// 1/8SM CLR 08/ A2919 RMK SLP904

2010/08/08 02:00
CYAH 080200Z AUTO 21005KT 9SM FEW062 BKN071 08/06 A2954 RMK SLP015

2010/08/08 02:00
CYAM 080200Z 00000KT 15SM FEW045 BKN073 BKN095 20/16 A2981 RMK SC2AC4AC2 SLP095

2010/08/08 02:00
CYAY 080200Z AUTO 25015KT 9SM CLR 13/09 A2970 RMK SLP060 MAX WND 25022KT AT 0147Z

2010/08/08 02:00
CYBC 080200Z AUTO 23010KT 9SM FEW080 12/07 A2980 RMK SLP092

2010/08/08 02:00
CYBK 080200Z 00000KT 20SM FEW020 FEW220 12/07 A2986 RMK SC1CI1 SLP112

2010/08/08 02:00
CYBL 080200Z 02003KT 2SM -DZ BR BKN003 OVC013 17/15 A2988 RMK SF6ST2 CIG RAG SLP117

2010/08/08 02:00
CYBN 080200Z AUTO 18007KT 9SM CLR 18/12 A2992 RMK SLP131

2010/08/08 02:00
CYBR 080200Z 29003KT 15SM FEW120 BKN280 24/19 A2962 RMK AC1CI2 SLP033

2010/08/08 02:00
CYBU 080200Z AUTO 32009G15KT 9SM FEW047 19/15 A2956 RMK PRESRR SLP016 DENSITY ALT 2300FT MAX WND 33027KT AT 0131Z LTNG DIST NE E

2010/08/08 02:00
CYBW 080200Z 00000KT 25SM TS BKN024CB BKN080 BKN100 BKN240 17/10 A2972 RERA RMK CB5AC1AC2CI0 SH ALQDS SLP060

2010/08/08 02:00
CYBX 080200Z 23016G21KT 15SM SKC 13/10 A2971 RMK SLP062

2010/08/08 02:00
CYCB 080200Z 16017G22KT 15SM FEW015 BKN060 BKN130 16/10 A2965 RMK CF1SC4AC1 FU SLP042

2010/08/08 02:00
CYCD 080200Z 13002KT 10SM BKN007 OVC020 17/15 A2988 RMK SC7SC1 SLP117

2010/08/08 02:00
CYCG 080200Z 11006KT 15SM -SHRA BKN070 OVC100 20/16 A2977 RMK AC6AC2 SLP078

2010/08/08 02:00
CYCO 080200Z 19004KT 4SM FU BKN040 23/17 A2946 RMK SC6 SLP977

2010/08/08 02:00
CYCX 080200Z AUTO 22005KT 9SM 11/08 A2997 RMK SLP149

2010/08/08 02:00
CYCY 080200Z AUTO 00000KT 5/8SM OVC000 03/03 A2995 RMK SLP146

2010/08/08 02:00
CYDA 080200Z 20005KT 20SM -SHRA FEW040 BKN055CB OVC210 19/11 A2962 RMK SC1CB6CI0 PCPN VRY LGT SLP039

2010/08/08 02:00
CYDB 080200Z AUTO 13004KT 9SM FEW067 16/07 A2966 RMK PCPN 0.5MM PAST HR SLP060

2010/08/08 02:00
CYDF 080200Z 24009KT 15SM FEW050 13/08 A2984 RMK SC2 SLP107

2010/08/08 02:00
CYDN 080200Z AUTO 13005KT 9SM CLR 23/19 A2957 RMK SLP013 DENSITY ALT 2500FT

2010/08/08 02:00
CYED 080200Z AUTO 24008KT 9SM FEW069 23/13 A2961 RMK SLP025

2010/08/08 02:00
CYEK 080200Z AUTO 21004KT 9SM CLR 12/09 A2984 RMK SLP106

2010/08/08 02:00
CYEN 080200Z 13008KT 15SM FEW030 FEW048CB FEW120 FEW220 23/16 A2963 RMK SC1CB1AC1CS1 SC AC TR SLP032

2010/08/08 02:00
CYET 080200Z AUTO 31002KT 5SM CLR 21/09 A2965 RMK SLP039

2010/08/08 02:00
CYEV 080200Z 36006KT 3SM -DZ VCFG SCT006 OVC010 12/11 A2955 RMK SC3SC5 SLP011

2010/08/08 02:00
CYFS 080200Z 33005KT 15SM BKN060 BKN210 23/12 A2940 RMK SC4CI0 FU SLP958

2010/08/08 02:00
CYQL 080200Z 25007KT 10SM FEW090 FEW250 21/15 A2968 RMK AC1CI1 HZ SLP042

2010/08/08 02:00
CYQR 080200Z 29006KT 12SM FEW060 23/17 A2963 RMK SC1 SLP030

2010/08/08 02:00
CYQT 080200Z 00000KT 20SM FEW097 FEW180 BKN240 18/09 A2975 RMK AC2AC1CI1 SLP078

2010/08/08 02:00
CYQU 080200Z 26012G21KT 25SM FEW080 FEW100 SCT250 22/08 A2960 RMK CU1AC1CI1 SLP023

2010/08/08 02:00
CYQV 080200Z AUTO 21005KT 9SM CLR 24/19 A2958 RMK SLP017

2010/08/08 02:00
CYQW 080200Z AUTO 23005KT 6SM HZ CLR 23/16 A2963 RMK SLP035 DENSITY ALT 3400FT

2010/08/08 02:00
CYQZ 080200Z AUTO 17004KT 080V210 9SM CLR 22/12 A2969 RMK SLP056 DENSITY ALT 3200FT

2010/08/08 02:00
CYRJ 080200Z 22011G16KT 20SM BKN050 16/07 A2976 RMK SC7 SLP080

2010/08/08 02:00
CYRL 080200Z 13002KT 15SM FEW130 FEW230 20/15 A2972 RMK AC1CI1 LAST OBS/NEXT 080900Z SLP064

2010/08/08 02:00
CYRT 080200Z 01007KT 15SM FEW240 14/07 A2982 RMK CI0 SLP098

2010/08/08 02:00
CYRV 080200Z AUTO 31008KT 9SM FEW030 BKN064 OVC098 20/17 A2975 RMK SLP075

2010/08/08 02:00
CYSB 080200Z 21008KT 15SM FEW064 SCT080 BKN220 17/10 A2985 RMK SC2AC2CI0 SLP112

2010/08/08 02:00
CYSC 080200Z AUTO 00000KT 9SM CLR 09/08 A2997 RMK SLP156

2010/08/08 02:00
CYSF 080200Z AUTO VRB02KT 4SM HZ SCT051 SCT061 SCT079 OVC095 20/16 A2960 RMK SLP030 DENSITY ALT 1900FT

2010/08/08 02:00
CYSM 080200Z 12003KT 3SM FU SCT030 BKN100 21/16 A2948 RMK FU2SC2AC2 SLP986

2010/08/08 02:00
CYTH 080200Z 07008KT 15SM FEW065 BKN160 BKN210 19/09 A2972 RMK SC1AS3CI2 SLP070

2010/08/08 02:00
CYTS 080200Z 22004KT 15SM BKN095 16/12 A2973 RMK AC7 SLP072

2010/08/08 02:00
CYTZ 080200Z AUTO 21009KT 9SM CLR 19/16 A2993 RMK SLP138 DENSITY ALT 700FT RVR MISG

2010/08/08 02:00
CYUA 080200Z AUTO 01012KT 1 3/4SM -RA BKN006 BKN011 09/ A2967 RMK SLP053

2010/08/08 02:00
CYUB 080200Z 05020G25KT 3SM -DZ BR OVC004 09/07 A2958 RMK ST8 CIG RAG SLP017

2010/08/08 02:00
CYUS 080200Z AUTO ///// 9SM CLR 14/ A2985 RMK SLP110

2010/08/08 02:00
CYUX 080200Z AUTO 36007KT 9SM CLR 08/04 A2988 RMK SLP118

2010/08/08 02:00
CYVC 080200Z 12005KT 15SM FEW030 SCT070 BKN250 20/17 A2958 RMK SC2AC2CS2 SLP021

2010/08/08 02:00
CYVM 080200Z AUTO 06002KT 1/2SM VV001 04/04 A2992 RMK SLP134

2010/08/08 02:00
CYVO 080200Z 21008KT 15SM SCT054 BKN082 16/09 A2976 RMK SC3AC4 LAST STFD OBS/NEXT 081000 UTC SLP085

2010/08/08 02:00
CYVQ 080200Z 00000KT 30SM FEW040 BKN110 BKN280 23/14 A2951 RMK CU1AC5CI1 SLP995

2010/08/08 02:00
CYVT 080200Z 04003KT 15SM SCT014 BKN080 21/16 A2955 RMK SC4AS2 SLP011

2010/08/08 02:00
CYVV 080200Z 17004KT 15SM BKN050 21/14 A2988 RMK SC6 SLP120

2010/08/08 02:00
CYWA 080200Z AUTO 24003KT 9SM CLR 15/09 A2987 RMK SLP116

2010/08/08 02:00
CYWH 080200Z 25002KT 5SM BR SCT005 BKN012 OVC030 15/13 A2989 RMK ST3SC2SC2 CIG RGD FG BNK SE-SW SLP120

2010/08/08 02:00
CYWL 080200Z 17008KT 15SM SCT030TCU SCT120 BKN220 19/15 A2976 RMK TCU3AC1CI1 SLP076

2010/08/08 02:00
CYXC 080200Z 20005KT 20SM BKN070TCU BKN110 20/12 A2978 RMK TCU6AC2 SH ALQDS CB ASOCTD FU SLP079

2010/08/08 02:00
CYXD 080200Z AUTO 25008KT 9SM CLR 24/13 A2960 RMK SLP019

2010/08/08 02:00
CYXE 080200Z 30005KT 8SM OVC300 22/17 A2960 RMK CS5 HZ SLP025

2010/08/08 02:00
CYXH 080200Z 00000KT 15SM FEW270 26/13 A2965 RMK CI2 HX LAST STFD OBS/NEXT 081200Z SLP034

2010/08/08 02:00
CYXJ 080200Z 22010G15KT 15SM SCT060 SCT180 22/07 A2954 RMK CU3AC1 SLP001

2010/08/08 02:00
CYXL 080200Z 00000KT 15SM FEW210 20/15 A2974 RMK CI1 SLP073

2010/08/08 02:00
CYXR 080200Z AUTO 28002KT 9SM SCT061 BKN083 16/10 A2976 RMK SLP074

2010/08/08 02:00
CYXS 080200Z AUTO 20004KT 9SM SCT071 OVC090 19/12 A2971 RMK SLP066 DENSITY ALT 3400FT

2010/08/08 02:00
CYXT 080200Z 18013G19KT 20SM -SHRA FEW040 BKN072 BKN140 16/11 A2983 RMK CU2AC5AC1 SLP105

2010/08/08 02:00
CYYD 080200Z 26004KT 25SM SCT050 BKN070 19/09 A2974 RMK SC4AC3 SLP070

2010/08/08 02:00
CYYE 080200Z 28012KT 20SM BKN080 OVC140 20/10 A2950 RMK AC5AC3 SLP995

2010/08/08 02:00
CYYF 080200Z 07004KT 15SM SCT080 BKN120 OVC240 25/10 A2975 RMK AC3AC3CI2 TCU SLP072

2010/08/08 02:00
CYYG 080200Z 25005KT 15SM FEW060 FEW080 15/11 A2996 RMK CU1AC1 SLP145

2010/08/08 02:00
CYYH 080200Z 17003KT 15SM BKN250 14/07 A2986 RMK CI2 SLP113

2010/08/08 02:00
CYGK 080200Z 22007KT 15SM FEW250 20/13 A2996 RMK CI0 SLP146

2010/08/08 02:00
CYGP 080200Z 30005KT 15SM SKC 12/05 A2985 RMK SLP109

2010/08/08 02:00
CYGQ 080200Z 25005KT 15SM SCT110 17/12 A2975 RMK AC3 SLP077

2010/08/08 02:00
CYGR 080200Z 23006KT 15SM FEW040 15/09 A2992 RMK SC2 LAST OBS/NEXT 080900 UTC SLP131

2010/08/08 02:00
CYGV 080200Z AUTO 25008KT 9SM CLR 10/07 A2976 RMK SLP080

2010/08/08 02:00
CYGW 080200Z 21006KT 10SM OVC020 09/08 A2946 RMK SC8 SLP978

2010/08/08 02:00
CYGX 080200Z 06003KT 15SM FEW025 SCT200 16/07 A2978 RMK SC1CI0 SLP089

2010/08/08 02:00
CYHD 080200Z AUTO 21003KT 9SM CLR 20/13 A2973 RMK SLP071

2010/08/08 02:00
CYHE 080200Z AUTO 29008KT 9SM OVC040 18/16 A2987 RMK SLP114

2010/08/08 02:00
CYHK 080200Z AUTO 14009KT 9SM CLR 12/08 A2982 RMK SLP102

2010/08/08 02:00
CYHM 080200Z 19005KT 15SM FEW030 SCT250 16/13 A2997 RMK SC1CI1 SC TR SLP148

2010/08/08 02:00
CYHU 080200Z AUTO 18006KT 9SM CLR 15/08 A2993 RMK SLP137 RVR MISG

2010/08/08 02:00
CYHY 080200Z 12009KT 12SM FEW050 FEW230 26/16 A2941 RMK SC1CI1 FU SLP960

2010/08/08 02:00
CYIO 080200Z 07003KT 40SM FEW160 BKN250 10/02 A2991 RMK AC1CI2 CALL-OUT SLP133

2010/08/08 02:00
CYIV 080200Z 08003KT 12SM SCT050 SCT090 BKN250 19/12 A2970 RMK SC3AC1CI0 FU SLP063

2010/08/08 02:00
CYKA 080200Z 09009G15KT 40SM FEW060 BKN100 BKN240 24/13 A2971 RMK CU1AC4CI1 SLP058

2010/08/08 02:00
CYKF 080200Z AUTO 17004KT 9SM CLR 17/12 A2996 RMK SLP144 DENSITY ALT 1400FT

2010/08/08 02:00
CYKJ 080200Z AUTO 11010KT 4SM -RA OVC045 15/14 A2963 RMK SLP048 DENSITY ALT 2300FT MAX WND 13019KT AT 0138Z

2010/08/08 02:00
CYKY 080200Z 00000KT 15SM FEW090 BKN260 24/15 A2965 RMK AC1CI2 SLP034

2010/08/08 02:00
CYKZ 080200Z 22006KT 15SM FEW070 BKN260 21/12 A2995 RMK AC1CI3 SLP141

2010/08/08 02:00
CYLL 080200Z 23004KT 6SM FU FEW280 22/17 A2962 RMK CI1 SLP029

2010/08/08 02:00
CYLW 080200Z AUTO 21011KT OVC076 24/09 A2975 RMK SLP067 DENSITY ALT 2900FT WX MISG VIS MISG ICG MISG

2010/08/08 02:00
CYMA 080200Z 04005KT 20SM VCSH SCT050CB BKN100 BKN240 21/08 A2959 RMK CB4AS1CI1 SLP031

2010/08/08 02:00
CYMM 080200Z AUTO 16003KT 120V200 9SM FEW070 21/17 A2950 RMK SLP997

2010/08/08 02:00
CYMO 080200Z AUTO 22002KT 9SM OVC073 13/10 A2964 RMK SLP038

2010/08/08 02:00
CYMT 080200Z 31007KT 3/4SM +RA VV006 10/09 A2971 RMK RA8 SLP070

2010/08/08 02:00
CYNA 080200Z AUTO 28011KT 9SM CLR 10/07 A2979 RMK SLP087

2010/08/08 02:00
CYNE 080200Z AUTO 07006KT 010V110 9SM FEW048 FEW070 FEW089 20/14 A2964 RMK SLP042

2010/08/08 02:00
CYNM 080200Z AUTO 17004KT 9SM BKN074 10/09 A2970 RMK SLP064

2010/08/08 02:00
CYOD 080200Z 27003KT 15SM FEW045TCU FEW065 SCT090 BKN240 25/13 A2958 RMK TCU2SC1AC1CI0 CB DIST NE SLP018

2010/08/08 02:00
CYOJ 080200Z 00000KT 6SM FU SCT050TCU OVC250 24/17 A2944 RMK TCU3CI5 SLP971

2010/08/08 02:00
CYOY 080200Z AUTO 22002KT 9SM OVC067 14/06 A2990 RMK SLP128

2010/08/08 02:00
CYPA 080200Z 29004KT 15SM FEW024 FEW120 OVC250 23/17 A2958 RMK CU1AC2CI2 SLP017

2010/08/08 02:00
CYPE 080200Z 25007KT 15SM FEW060 FEW090 BKN250 24/08 A2953 RMK CU2AC1CI1 SLP002

2010/08/08 02:00
CYPH 080200Z AUTO 22009KT 4SM OVC004 09/09 A2935 RMK SLP942

2010/08/08 02:00
CYPQ 080200Z AUTO ///// 9SM CLR 17/14 A2994 RMK SLP138

2010/08/08 02:00
CYPR 080200Z AUTO 18003KT BKN009 BKN022 OVC029 12/11 A2993 RMK SLP134 WND MISG PRES MISG

2010/08/08 02:00
CYPW 080200Z 11008KT 20SM -RA FEW003 BKN006 OVC020 16/15 A2988 RMK SF1SF6SC1 VIS N-SE 2 IN LO CLD LAST OBS/NEXT 081300 UTC SLP120

2010/08/08 02:00
CYPY 080200Z AUTO 05005KT 9SM CLR 22/18 A2946 RMK SLP981

2010/08/08 02:00
CYQA 080200Z AUTO 14004KT 9SM FEW047 SCT071 13/11 A2990 RMK SLP131

2010/08/08 02:00
CYQD 080200Z 10008G16KT 15SM SCT040 SCT070 BKN120 BKN220 21/15 A2958 RMK SC3AC1AS2CI0 CB EMBD FQT LTGCG DIST NW CB EMBD SE SLP021

2010/08/08 02:00
CYQF 080200Z 27010G15KT 10SM -TSRA FEW030CB BKN080 OVC250 16/11 A2970 RMK CB2AC5CI2 HZ SLP058

2010/08/08 02:00
CYQH 080200Z 27011KT 30SM BKN040 BKN090 20/09 A2958 RMK SC5AC1 SLP021

2010/08/08 02:00
CYQI 080200Z 21005KT 15SM FEW250 14/12 A3005 RMK CI1 TR CI SLP176

2010/08/08 02:00
CYQK 080200Z 16006KT 15SM FEW076 FEW200 21/15 A2972 RMK AC1CI0 SLP065

2010/08/08 02:00
CYYY 080200Z CCA 19010KT 30SM SCT040 BKN100 15/06 A2984 RMK SC4AC2 SLP105

2010/08/08 02:00
CYYL 080200Z AUTO 14005KT 9SM BKN200 21/10 A2967 RMK SLP054 DENSITY ALT 2400FT

2010/08/08 02:00
CYYN 080200Z AUTO 05002KT 9SM CLR 24/14 A2966 RMK SLP033

2010/08/08 02:00
CYYU 080200Z 25005KT 15SM FEW040 SCT080 BKN240 15/12 A2971 RMK SC2AC2CI1 SLP063

2010/08/08 02:00
CYYY 080200Z 20007KT 30SM FEW040 FEW100 SCT220 14/05 A2983 RMK SC1AC2CI0 SLP103

2010/08/08 02:00
CYZE 080200Z AUTO 18006KT 9SM BKN096 18/16 A2983 RMK SLP104 DENSITY ALT 1200FT

2010/08/08 02:00
CYZH 080200Z AUTO 25003KT 9SM SCT085 21/14 A2956 RMK SLP010

2010/08/08 02:00
CYZP 080200Z AUTO 24008KT 9SM OVC029 15/10 A2993 RMK SLP137

2010/08/08 02:00
CYZR 080200Z AUTO 17007KT 8SM CLR 21/15 A2991 RMK SLP129 DENSITY ALT 1400FT

2010/08/08 02:00
CYZS 080200Z 01025G30KT 15SM FEW050 BKN090 11/07 A2963 RMK SC2AC2 SLP038

2010/08/08 02:00
CYZT 080200Z 32009KT 20SM FEW008 FEW017 BKN041 BKN210 16/12 A2992 RMK SC1SC2SC4CI0 SLP131

2010/08/08 02:00
CYZU 080200Z 27003KT 12SM FEW050TCU BKN090 BKN250 19/15 A2963 RMK TCU2AC3CI1 FU SLP037

2010/08/08 02:00
CZCP 080200Z AUTO 06022KT 7SM OVC001 07/ A2952 RMK SLP004

2010/08/08 02:00
CZPC 080200Z AUTO 28009KT 9SM CLR 19/10 A2975 RMK SLP062

2010/08/08 02:00
CZUM 080200Z AUTO 22004KT 9SM FEW048 10/06 A2960 RMK SLP037

2010/08/08 02:00
EPLL 080200Z 24004KT CAVOK 16/15 Q1013

2010/08/08 01:55
LIRM 080155Z 36004KT CAVOK 20/18 Q1016 RMK SKC VIS MIN 9999 WIND THR06 35005KT BLU

2010/08/08 02:00
LKKV 080200Z VRB02KT CAVOK 14/11 Q1017 RMK REG QNH 1012

2010/08/08 02:00
RPLI 080200Z 18006KT 8000 LRA SCT020 OVC100 27/26 Q1004 RERA

2010/08/08 02:00
UDYZ 080200Z VRB01MPS 9999 SKC 20/09 Q1013 09010070 NOSIG

2010/08/08 02:00
WMAU 080200Z 21004KT 9999 FEW020 BKN140 27/24 Q//// QFF1010

2010/08/08 02:00
WMBA 080200Z 09003KT 8000 FEW017CB BKN280 29/25 Q1010

2010/08/08 02:00
WMKA 080200Z 22002KT 9999 SCT020 SCT150 BKN280 30/26 Q1009

2010/08/08 02:00
WMKB 080200Z 15004KT 9000 -RA FEW010 SCT025 OVC260 25/24 Q1010 RETSRA NOSIG

2010/08/08 02:00
WMKC 080200Z 19006KT 9999 FEW018 BKN220 28/23 Q1010

2010/08/08 02:00
WMKD 080200Z 30001KT 3000 HZ FEW005 BKN160 27/25 Q1010 NOSIG

2010/08/08 02:00
WMKI 080200Z 00000KT 9999 FEW020 SCT140 BKN280 28/24 Q1011

2010/08/08 02:00
WMKL 080200Z 29005KT 9999 FEW022 SCT140 BKN280 31/26 Q1009

2010/08/08 02:00
WMKM 080200Z 22001KT 4000 -TSRA FEW007 FEW016CB SCT026 BKN260 25/24 Q1011

2010/08/08 02:00
WMKN 080200Z 19003KT 9999 FEW020 SCT140 OVC220 27/25 Q1010

2010/08/08 02:00
FBSK 080200Z 09006KT CAVOK 07/05 Q1025 NOSIG

2010/08/08 02:00
GOGG 080200Z VRB02KT 9999 BKN016 BKN130 26/25 Q1013

2010/08/08 02:00
GOTT 080200Z 24004KT 9999 FEW013 SCT130 27/26 Q1012

2010/08/08 02:00
GOSS 080200Z 26006KT 9999 FEW013 27/24 Q1011

2010/08/08 02:03
EGDL 080203Z 29003KT 9999 SCT014 BKN034 13/11 Q1020 GRN NOSIG

2010/08/08 01:50
LIBP 080150Z VRB03KT CAVOK 17/14 Q1017 RMK VIS MIN 9999

2010/08/08 01:50
LIEA 080150Z 02001KT CAVOK 15/15 Q1018 RMK VIS MIN 9999

2010/08/08 01:55
LIED 080155Z 36004KT CAVOK 17/16 Q1017 RMK SKC VIS MIN 9999 BLU

2010/08/08 01:50
LIEO 080150Z 23005KT CAVOK 17/14 Q1018 RMK VIS MIN 9999

2010/08/08 01:55
LIMU 080155Z 07001KT 9999 BKN013 21/19 Q1018 RMK BKN QUK / QUL / VIS MAR 50 KM VIS MIN 9999

2010/08/08 01:45
LIPH 080145Z 00000KT CAVOK 20/19 Q1017 RMK SKC VIS MIN 9999 WIND THR07 /////KT BLU

2010/08/08 01:45
LIPR 080145Z 20002KT CAVOK 19/18 Q1016 RMK SKC VIS MIN 9999 WIND THR31 22002KT BLU

2010/08/08 01:55
LIPS 080155Z 03003KT CAVOK 19/16 Q1017 RMK SKC VIS MIN 9999 BLU

2010/08/08 01:45
LIPX 080145Z 34001KT CAVOK 18/18 Q1016 RMK SKC VIS MIN 9999 BLU

2010/08/08 01:50
LIPY 080150Z 17004KT CAVOK 17/15 Q1016 RMK VIS MIN 9999

2010/08/08 01:55
LIVT 080155Z 04003KT CAVOK 19/17 Q1016 RMK SKC QUK / QUL / VIS MAR 20 KM VIS MIN 9999

2010/08/08 02:00
LKMT 080200Z 22006KT 9999 SCT023 OVC030 15/14 Q1015 NOSIG RMK REG QNH 1012

2010/08/08 02:00
UAFO 080200Z 16003MPS 9999 SCT050CB BKN100 24/17 Q1015 NOSIG RMK QFEM683

2010/08/08 02:00
UKLI 080200Z 00000MPS 4000 BR SCT020 BKN100 17/17 Q1014 10090070 NOSIG

2010/08/08 02:00
UKCM 080200Z 04004MPS 010V080 CAVOK 27/06 Q1013 NOSIG

2010/08/08 02:00
UKCW 080200Z 04001MPS CAVOK 21/08 Q1016 0909//70 NOSIG

2010/08/08 02:00
UKKK 080200Z 10002MPS 5000 FU SKC 24/14 Q1014 08CLRD70 NOSIG

2010/08/08 02:00
UKKM 080200Z VRB01MPS 7000 NSC 23/14 Q1014

2010/08/08 02:00
BIAR 080200Z 29004KT CAVOK 11/07 Q1014

2010/08/08 02:00
BIEG 080200Z 17008KT 9999 VCSH FEW020 SCT040 BKN070 09/07 Q1016

2010/08/08 02:00
BIKF 080200Z 04003KT 9999 FEW030 BKN060 11/08 Q1012

2010/08/08 02:00
BIRK 080200Z 05005KT 9999 SCT030 BKN100 12/07 Q1012

2010/08/08 01:55
KQA7 080155Z AUTO 36002KT 6000 BKN120 BKN130 29/13 A2986 RMK AO2 SLP996 T02920127 $

2010/08/08 02:00
SYCJ 080200Z 09004KT 9999 SCT014 FEW015CB SCT090 24/24 Q1014 CB AND LTNG SE NOSIG

2010/08/08 02:00
VTUD 080200Z 07004KT 030V130 9999 SCT010 29/24 Q1005 A2968 INFO E RWY30

2010/08/08 02:00
VTUI 080200Z 00000KT 9999 SCT023 BKN300 28/26 Q1005 A2969 RYW 23 INFO B

2010/08/08 02:00
VTUU 080200Z 22004KT 9000 SCT022 BKN110 28/25 Q1005 A2968 NOSIG

2010/08/08 02:00
VTBO 080200Z 24003KT 8000 SCT022 BKN100 BKN300 28/24 Q1007

2010/08/08 02:00
VTCP 080200Z 00000KT 9999 SCT025 BKN120 28/23 Q1005

2010/08/08 02:00
VTCH 080200Z VRB01KT 9999 SCT020 28/23 Q1005

2010/08/08 02:00
VTPO 080200Z 19002KT 9999 SCT012 SCT022 BKN300 27/25 Q1004

2010/08/08 02:00
VTCL 080200Z 00000KT 5000 BR FEW010 SCT023 BKN110 29/26 Q1004 A2967 INFO 

2010/08/08 02:00
DAAE 080200Z 24006KT CAVOK 19/18 Q1018

2010/08/08 02:00
DAAS 080200Z 36002KT CAVOK 17/14 Q1022

2010/08/08 02:00
DAAV 080200Z 00000KT CAVOK 19/15 Q1017

2010/08/08 02:00
DAOB 080200Z 29002KT 9999 FEW026 23/12 Q1020

2010/08/08 02:00
DAOF 080200Z 01018KT 2500 DRSA SCT040 27/18 Q1012

2010/08/08 02:00
DAOI 080200Z 00000KT CAVOK 25/10 Q1015

2010/08/08 02:00
DAOR 080200Z 16008KT 2000 HZ SCT033 31/09 Q1019

2010/08/08 02:00
DAUA 080200Z 07016KT 8000 NSC 32/// Q1011

2010/08/08 02:00
DAUB 080200Z 09008KT CAVOK 30/17 Q1011

2010/08/08 02:00
DAUE 080200Z 00000KT CAVOK 31/12 Q1015

2010/08/08 02:00
DAUG 080200Z 00000KT 6000 NSC 32/12 Q1015

2010/08/08 02:00
DAUO 080200Z /////KT CAVOK 32/11 Q1011

2010/08/08 02:00
DAUT 080200Z 04005KT CAVOK 33/05 Q1013

2010/08/08 02:00
DAAG 080200Z 20003KT CAVOK 17/14 Q1017

2010/08/08 02:00
DAAT 080200Z 14009KT 9999 SCT053 SCT120 29/06 Q1019

2010/08/08 02:00
DABB 080200Z 16004KT CAVOK 17/16 Q1018

2010/08/08 02:00
DABC 080200Z 00000KT CAVOK 17/14 Q1020

2010/08/08 02:00
DAUH 080200Z 17006KT CAVOK 32/06 Q1013

2010/08/08 02:00
DAUZ 080200Z 06012KT CAVOK 26/06 Q1016

2010/08/08 02:00
VTSB 080200Z 19004KT 8000 FEW020 BKN300 28/24 Q1009 A2980

2010/08/08 02:00
VTSM 080200Z 27007KT 9999 SCT020 BKN300 29/24 Q1008 A2979

2010/08/08 02:00
VTSC 080200Z 00000KT 9000 FEW022 27/24 Q1009 A2980 RWY20 INFO C

2010/08/08 02:00
VTSG 080200Z 25007KT 9999 FEW020 30/24 Q1009/A2980 RWY32 INFO C

2010/08/08 02:00
VTSH 080200Z 24004KT 9999 FEW020 SCT120 BKN300 30/24 Q1008 A2977

2010/08/08 02:00
SACO 080200Z 32006KT CAVOK 06/00 Q1022

2010/08/08 02:00
SAEZ 080200Z 11002KT 3000 R11/0600U RMID/0600U R29/0600D MIFGBR 06/05 Q1022

2010/08/08 02:00
SARE 080200Z 00000KT CAVOK 12/09 Q1018

2010/08/08 02:00
SARF 080200Z 18006KT CAVOK 12/09 Q1016

2010/08/08 02:00
SARI 080200Z 05004KT CAVOK 17/16 Q1018

2010/08/08 02:00
SARP 080200Z 16004KT CAVOK 15/10 Q1016

2010/08/08 02:00
SASA 080200Z 29003KT CAVOK 07/00 Q 1020

2010/08/08 02:00
SAVC 080200Z 29014KT CAVOK 08/M02 Q1015

2010/08/08 02:00
SAWG 080200Z 32022G30KT CAVOK 05/M04 Q0999

2010/08/08 02:00
SAZM 080200Z 00000KT 3000 BR NSC 03/02 Q1022

2010/08/08 02:00
SAZS 080200Z 32010KT CAVOK 02/M03 Q1022

2010/08/08 02:00
SBJP 080200Z 22003KT CAVOK 22/20 Q1018

2010/08/08 02:00
SELT 080200Z 18009KT 9999 BKN030 12/07 Q1033

2010/08/08 02:00
SEMT 080200Z 22006KT 9999 SCT100 23/19 Q1014

2010/08/08 01:56
SEQU 080156Z 34002KT 9999 FEW040 12/08 Q1028 RMK A3037 NOSIG

2010/08/08 02:00
SLCO 080200Z 00000KT 7000 SKC 23/19 Q1014

2010/08/08 02:00
SMJP 080200Z 00000KT 9999 FEW015CB SCT030 25/24 Q1015 NOSIG

2010/08/08 02:00
SPHI 080200Z 17012KT CAVOK 15/12 Q1016 RMK PP000 BIRD HAZARD RWY 19/01

2010/08/08 02:00
SPQT 080200Z /////KT 7000 SKC 24/22 Q1013 NOSIG RMK HORIZONT HZ

2010/08/08 02:00
SPQU 080200Z 05007KT CAVOK 13/M07 Q1029 RMK PP000

2010/08/08 02:00
SPRU 080200Z 17010KT 7000 OVC014 15/12 Q1015 RMK BR BIRDS HAZARD RWY20 PP000

2010/08/08 02:00
SPSO 080200Z 06004KT 8000 SKC 13/11 Q1016 RMK PP000

2010/08/08 02:00
SPTN 080200Z VRB02KT 7000 SCT008 OVC012 11/08 Q1016 RMK PP000

2010/08/08 02:00
SPZO 080200Z VRB02KT 9999 SKC 09/M10 Q1033 RMK PP000

2010/08/08 02:00
SVBM 080200Z 11005KT 9999 FEW016 23/21 Q1016

2010/08/08 02:00
SVMG 080200Z 00000KT 9999 FEW010 BKN080 26/25 Q1012 TEMPO

2010/08/08 01:55
LIMU 080155Z 07001KT 9999 BKN013 21/19 Q1018 RMK BKN QUK / QUL / VIS MAR 50 KM VIS MIN 9999

2010/08/08 01:55
LIVT 080155Z 04003KT CAVOK 19/17 Q1016 RMK SKC QUK / QUL / VIS MAR 20 KM VIS MIN 9999

2010/08/08 01:50
LIEA 080150Z 02001KT CAVOK 15/15 Q1018 RMK VIS MIN 9999

2010/08/08 01:55
LIED 080155Z 36004KT CAVOK 17/16 Q1017 RMK SKC VIS MIN 9999 BLU

2010/08/08 01:50
LIEO 080150Z 23005KT CAVOK 17/14 Q1018 RMK VIS MIN 9999

2010/08/08 01:55
LIRM 080155Z 36004KT CAVOK 20/18 Q1016 RMK SKC VIS MIN 9999 WIND THR06 35005KT BLU

2010/08/08 01:55
LIRS 080155Z 01006KT CAVOK 17/13 Q1017 RMK SKC VIS MIN 9999 WIND THR21 /////KT BLU

2010/08/08 01:45
LIPH 080145Z 00000KT CAVOK 20/19 Q1017 RMK SKC VIS MIN 9999 WIND THR07 /////KT BLU

2010/08/08 01:50
LIPO 080150Z 06005KT CAVOK 18/15 Q1016 RMK VIS MIN 9999

2010/08/08 01:50
LIPQ 080150Z VRB03KT 9999 FEW050 16/14 Q1017

2010/08/08 01:45
LIPR 080145Z 20002KT CAVOK 19/18 Q1016 RMK SKC VIS MIN 9999 WIND THR31 22002KT BLU

2010/08/08 01:55
LIPS 080155Z 03003KT CAVOK 19/16 Q1017 RMK SKC VIS MIN 9999 BLU

2010/08/08 01:45
LIPX 080145Z 34001KT CAVOK 18/18 Q1016 RMK SKC VIS MIN 9999 BLU

2010/08/08 01:50
LIPY 080150Z 17004KT CAVOK 17/15 Q1016 RMK VIS MIN 9999

2010/08/08 02:06
KTOI 080206Z AUTO 31008KT 3SM +TSRA BR BKN019 OVC033 24/23 A2996 RMK AO2 LTG DSNT E P0020

2010/08/08 02:06
KAUW 080206Z AUTO 22006KT 10SM SCT070 22/20 A2977 RMK AO2 TSE00RAE00 P0002

2010/08/08 02:06
KPKD 080206Z AUTO 15007KT 10SM VCTS FEW023 OVC037 25/19 A2969 RMK AO2 LTG DSNT E-SW TSB00

2010/08/08 02:06
KSAF 080206Z 00000KT 10SM CLR 24/10 A3009 RMK AO2 TSE00

2010/08/08 02:06
KSEA 080206Z 19006KT 10SM FEW005 BKN012 OVC065 17/16 A2991 RMK AO2 RAE02 P0000

2010/08/08 02:07
KECG 080207Z AUTO 10006KT 7SM SCT007 SCT100 25/24 A2998 RMK AO2

2010/08/08 02:07
KGUP 080207Z AUTO 18004KT 3SM RA BR BKN021 OVC042 16/14 A3021 RMK AO2 P0006

2010/08/08 02:03
K0F2 080203Z AUTO 12003KT 10SM CLR 30/24 A2982 RMK AO2 T03030237

2010/08/08 02:03
K11R 080203Z AUTO 16006KT 10SM CLR 30/23 A2987 RMK AO2

2010/08/08 02:05
K1H2 080205Z AUTO 00000KT 7SM CLR 22/21 A2993 RMK AO2 T02190205

2010/08/08 02:05
K3LF 080205Z AUTO 13005KT 7SM CLR 23/18 A2993 RMK AO2

2010/08/08 02:05
K3T5 080205Z AUTO 16004KT 10SM CLR 30/25 A2985 RMK AO2 T02960245

2010/08/08 02:03
K5C1 080203Z AUTO 00000KT 10SM CLR 30/19 A2990 RMK AO1

2010/08/08 02:02
KAAA 080202Z AUTO 17003KT 7SM CLR 22/19 A2992 RMK AO2 T02200186

2010/08/08 02:05
KAJG 080205Z AUTO 05003KT 7SM CLR 21/20 A2994 RMK AO2 T02110195

2010/08/08 02:05
KALN 080205Z AUTO 00000KT 7SM CLR 23/21 A2992 RMK AO2 T02330210

2010/08/08 02:02
KAPY 080202Z AUTO 13006KT 10SM CLR 32/19 A2982 RMK AO2 T03230194

2010/08/08 02:05
KAQO 080205Z AUTO 17005KT CLR 33/19 A2988 RMK AO2 PWINO

2010/08/08 02:07
KASW 080207Z AUTO 00000KT 10SM CLR 21/18 A2997 RMK AO2 T02120183

2010/08/08 02:05
KAXH 080205Z AUTO 00000KT 10SM CLR 28/25 A2988 RMK AO2 T02760245

2010/08/08 02:05
KBBD 080205Z AUTO 15006KT 10SM CLR 31/19 A2988 RMK

2010/08/08 02:01
KBEA 080201Z AUTO 14007KT 10SM SCT120 28/25 A2987 RMK AO2 T02820247

2010/08/08 02:00
KBKD 080200Z AUTO 14008KT 10SM SCT085 29/20 A2982 RMK AO2 T02890195

2010/08/08 02:05
KBKS 080205Z AUTO 12005KT 10SM SCT080 BKN090 30/24 A2984 RMK AO1 T03000241

2010/08/08 02:00
KCIR 080200Z AUTO 36003KT 10SM CLR 24/19 A2990 RMK AO2

2010/08/08 02:05
KERV 080205Z AUTO 14005KT 10SM CLR 30/18 A2990 RMK AO2 T02960176

2010/08/08 02:03
KF05 080203Z AUTO 18007KT CLR 33/20 A2981 RMK AO2 T03270197

2010/08/08 02:07
KGPM 080207Z AUTO 15006KT 10SM CLR 34/21 A2983 RMK AO2

2010/08/08 02:03
KGVT 080203Z AUTO 17007KT 10SM CLR 33/22 A2983 RMK AO2 LTG DSNT N AND NE

2010/08/08 02:06
KHQZ 080206Z AUTO 15005KT 10SM CLR 31/22 A2982 RMK AO2

2010/08/08 02:03
KIKK 080203Z AUTO 17003KT 10SM CLR 25/19 A2992 RMK AO2

2010/08/08 02:04
KJOT 080204Z AUTO 00000KT 10SM CLR 23/19 A2991 RMK AO2

2010/08/08 02:13
KMNZ 080213Z AUTO 16007KT 10SM CLR 32/19 A2986 RMK AO2

2010/08/08 02:05
KORG 080205Z AUTO 22004KT 10SM CLR 28/25 A2990 RMK AO2

2010/08/08 02:05
KOXI 080205Z AUTO 17005KT 10SM CLR 21/19 A2993 RMK AO1 T02060185

2010/08/08 02:00
KOZA 080200Z AUTO 17007KT 10SM CLR 32/15 A2992 RMK AO2 T03210149

2010/08/08 02:04
KPPQ 080204Z AUTO 12003KT 7SM CLR 25/21 A2992 RMK AO2

2010/08/08 02:07
KPSN 080207Z AUTO 11003KT 10SM 28/24 A2987 RMK AO2

2010/08/08 02:01
KPVW 080201Z AUTO 17005KT 10SM CLR 26/21 A2992 RMK AO2

2010/08/08 02:13
KPYX 080213Z AUTO 14013KT 10SM BKN110 31/20 A2987 RMK AO2

2010/08/08 02:04
KRCR 080204Z AUTO 00000KT 10SM CLR 22/19 A2996 RMK AO2

2010/08/08 02:04
KSFY 080204Z AUTO 16005KT 10SM CLR 24/19 A2986 RMK AO2 LTG DSNT NW

2010/08/08 01:55
KBXK 080155Z AUTO 06006KT 10SM CLR 34/16 A2976 RMK AO1

2010/08/08 02:15
KCCA 080215Z AUTO 00000KT 10SM SCT046 OVC050 29/23 A2988 RMK AO2

2010/08/08 01:55
KHRT 080155Z 35005KT 10SM -RA SCT060 BKN100 BKN220 26/25 A2989 RMK AO2A RAB0134 SLP124 P0000 T02570249 $

2010/08/08 02:15
KOLV 080215Z AUTO 00000KT 8SM SCT048 28/25 A2991 RMK A01 P000

2010/08/08 02:00
UMBB 080200Z 14004MPS 6000 SCT030CB SCT100 20/19 Q1013 NOSIG

2010/08/08 02:00
UMMS 080200Z 13002MPS 4900 BR NSC 22/16 Q1014 R31/CLRD// NOSIG

2010/08/08 02:00
VHHH 080200Z 07008KT 9999 FEW025 SCT035 BKN060 31/25 Q1004 NOSIG

2010/08/08 02:00
RCTP 080200Z 04014KT 010V070 9999 FEW010 SCT016 BKN060 33/27 Q1004 NOSIG

2010/08/08 02:00
RCKH 080200Z 21005KT 160V240 9999 FEW018 BKN300 32/27 Q1002 NOSIG

2010/08/08 02:00
RCSS 080200Z 09011KT 060V120 9999 FEW015 BKN025 30/26 Q1004 NOSIG

2010/08/08 02:00
VMMC 080200Z 07008KT 340V110 9999 FEW015 SCT030 BKN080 30/26 Q1004 NOSIG

2010/08/08 02:00
RPLL 080200Z 21011KT 8000 SCT023 OVC090 29/25 Q1007 NOSIG RMK A2974

2010/08/08 02:00
RPVM 080200Z 22008KT 9999 FEW020 BKN300 30/26 Q1010 A2982

2010/08/08 02:00
RPMD 080200Z CALM 9999 FEW016 SCT090 BKN290 31/27 Q1009

2010/08/08 02:00
RPLB 080200Z 21016KT 9999 -RA SCT018 OVC080 28/25 Q1007 LGT RA CONTUS

2010/08/08 02:00
RPLI 080200Z 18006KT 8000 LRA SCT020 OVC100 27/26 Q1004 RERA

2010/08/08 02:00
RPMZ 080200Z 00000KT 9999 FEW018CB OVC120 31/25 Q1012 CB NE

2010/08/08 02:00
SADF 080200Z 14002KT 9999 MIFG NSC 07/06 Q1021

2010/08/08 02:00
LPAZ 080200Z 04003KT 9999 FEW020 19/17 Q1022

2010/08/08 02:00
LPLA 080200Z 20003KT 9999 FEW018 SCT035 20/19 Q1024

2010/08/08 02:00
LPPD 080200Z 02003KT 350V060 9999 FEW020 19/16 Q1022

2010/08/08 02:00
SAME 080200Z 00000KT CAVOK 07/M01 Q1020

2010/08/08 01:50
EGWU 080150Z AUTO 34007KT 9999NDV // NCD 14/12 Q1018

2010/08/08 02:00
UAFO 080200Z 16003MPS 9999 SCT050CB BKN100 24/17 Q1015 NOSIG RMK QFEM683

2010/08/08 01:45
LIPH 080145Z 00000KT CAVOK 20/19 Q1017 RMK SKC VIS MIN 9999 WIND THR07 /////KT BLU

2010/08/08 01:50
LIPO 080150Z 06005KT CAVOK 18/15 Q1016 RMK VIS MIN 9999

2010/08/08 01:50
LIPQ 080150Z VRB03KT 9999 FEW050 16/14 Q1017

2010/08/08 01:45
LIPR 080145Z 20002KT CAVOK 19/18 Q1016 RMK SKC VIS MIN 9999 WIND THR31 22002KT BLU

2010/08/08 01:55
LIPS 080155Z 03003KT CAVOK 19/16 Q1017 RMK SKC VIS MIN 9999 BLU

2010/08/08 01:45
LIPX 080145Z 34001KT CAVOK 18/18 Q1016 RMK SKC VIS MIN 9999 BLU

2010/08/08 01:50
LIPY 080150Z 17004KT CAVOK 17/15 Q1016 RMK VIS MIN 9999

2010/08/08 01:55
LIMU 080155Z 07001KT 9999 BKN013 21/19 Q1018 RMK BKN QUK / QUL / VIS MAR 50 KM VIS MIN 9999

2010/08/08 01:55
LIVT 080155Z 04003KT CAVOK 19/17 Q1016 RMK SKC QUK / QUL / VIS MAR 20 KM VIS MIN 9999

2010/08/08 01:50
LIEA 080150Z 02001KT CAVOK 15/15 Q1018 RMK VIS MIN 9999

2010/08/08 01:55
LIED 080155Z 36004KT CAVOK 17/16 Q1017 RMK SKC VIS MIN 9999 BLU

2010/08/08 01:50
LIEO 080150Z 23005KT CAVOK 17/14 Q1018 RMK VIS MIN 9999

2010/08/08 01:55
LIRM 080155Z 36004KT CAVOK 20/18 Q1016 RMK SKC VIS MIN 9999 WIND THR06 35005KT BLU

2010/08/08 01:55
LIRS 080155Z 01006KT CAVOK 17/13 Q1017 RMK SKC VIS MIN 9999 WIND THR21 /////KT BLU

2010/08/08 01:50
EGDM 080150Z AUTO 29003KT 9999NDV NCD 12/11 Q1019

2010/08/08 01:50
EGDY 080150Z AUTO 29003KT 9999NDV BKN030/// 15/12 Q1020

2010/08/08 01:50
EGOV 080150Z AUTO 28002KT 9999NDV NCD 10/09 Q1021

2010/08/08 01:50
EGUB 080150Z AUTO 00000KT 9999NDV // BKN017/// 13/12 Q1019

2010/08/08 01:50
EGWU 080150Z AUTO 34007KT 9999NDV // NCD 14/12 Q1018

2010/08/08 01:50
EGXT 080150Z AUTO 31008KT 9999NDV SCT009/// SCT019/// 14/13 Q1018

2010/08/08 01:50
EGYD 080150Z AUTO 31008KT 6000NDV // BKN011/// BKN029/// 14/13 Q1019

2010/08/08 02:00
FMEE 080200Z 15012KT 9999 SCT020 SCT053 19/15 Q1023 TEMPO 5000 SHRA

2010/08/08 01:50
LIBD 080150Z 24004KT CAVOK 19/17 Q1017 RMK VIS MIN 9999

2010/08/08 01:50
LIBP 080150Z VRB03KT CAVOK 17/14 Q1017 RMK VIS MIN 9999

2010/08/08 01:45
LIBR 080145Z 34009KT CAVOK 23/19 Q1016 NOSIG RMK SKC VIS MIN 9999 WIND THR13 /////KT WIND THR31 32012KT BLU

2010/08/08 01:55
LIBV 080155Z 03005KT CAVOK 18/15 Q1015 RMK SKC VIS MIN 9999 WIND THR14 34003KT BLU

2010/08/08 01:50
LICA 080150Z VRB03KT CAVOK 17/14 Q1016 RMK VIS MIN 9999

2010/08/08 01:50
LICC 080150Z VRB03KT CAVOK 20/17 Q1015 RMK VIS MIN 9999

2010/08/08 01:50
LICJ 080150Z 08011KT 9999 FEW030 24/18 Q1016 RMK VIS MIN 9999

2010/08/08 01:55
LICT 080155Z 00000KT CAVOK 20/19 Q1016 RMK SKC VIS MIN 9999 WIND THR13 07001KT BLU

2010/08/08 01:55
LICZ 080155Z 28003KT CAVOK 19/17 Q1015 RMK SKC VIS MIN 9999 WIND THR28 ///// KT BLU

2010/08/08 02:00
FABL 080200Z VRB01KT CAVOK 03/M01 Q1024 NOSIG

2010/08/08 02:00
FAEL 080200Z AUTO 33013KT 9999 +RA NCD 25/M02 Q1011

2010/08/08 02:00
FAGG 080200Z AUTO 30006KT 9999 R29/M0050N R11/M0050N BKN025 12/10 Q1012

2010/08/08 02:00
FAJS 080200Z 36003KT CAVOK 09/00 Q1028 NOSIG

2010/08/08 02:00
FAMM 080200Z AUTO 02005KT //// // ////// 11/01 Q1025

2010/08/08 02:00
FAPE 080200Z 23015KT 9999 BKN004 13/13 Q1010 NOSIG

2010/08/08 02:00
FAUP 080200Z 30008KT CAVOK 15/M01 Q1020 NOSIG

2010/08/08 02:00
GOGG 080200Z VRB02KT 9999 BKN016 BKN130 26/25 Q1013

2010/08/08 02:00
GOTT 080200Z 24004KT 9999 FEW013 SCT130 27/26 Q1012

2010/08/08 02:00
GOSS 080200Z 26006KT 9999 FEW013 27/24 Q1011

2010/08/08 02:04
EYSA 080204Z 17012KT 9999 -SHRA VCTS BKN057CB OVC086 19/17 Q1013

2010/08/08 01:55
KLGC 080155Z AUTO 11004KT 10SM CLR 28/24 A2994

2010/08/08 02:00
KMMU 080200Z AUTO 00000KT 10SM CLR 18/17 A2998

2010/08/08 02:00
KWDR 080200Z AUTO 00000KT 7SM CLR 26/23 A3001

2010/08/08 01:55
KLGC 080155Z AUTO 11004KT 10SM CLR 28/24 A2994

2010/08/08 02:00
KOPN 080200Z AUTO 13004KT 10SM CLR 29/25 A2997

2010/08/08 02:04
KFOA 080204Z AUTO 00000KT 7SM CLR 23/22 A2994

2010/08/08 02:00
GABS 080200Z 23004KT 9999 FEW023 25/24 Q1013 NOSIG

2010/08/08 02:00
GOOY 080200Z 24006KT 210V280 9999 SCT013 27/22 Q1011 NOSIG

2010/08/08 02:00
DIAP 080200Z 23005KT 8000 SCT012 BKN070 25/24 Q1014 NOSIG

2010/08/08 02:00
GQNN 080200Z 26006KT 230V300 6000 BKN010 26/23 Q1010 TEMPO SCT010

2010/08/08 02:00
GVAC 080200Z 02006KT 9999 BKN015 25/20 Q1014 NOSIG

2010/08/08 02:00
GBYD 080200Z 00000KT CAVOK 26/25 Q1011

2010/08/08 02:00
GLRB 080200Z 22006KT 9999 SCT014 26/24 Q1014 NOSIG

2010/08/08 02:00
GABS 080200Z 23004KT 9999 FEW023 25/24 Q1013 NOSIG

2010/08/08 02:00
GOOY 080200Z 24006KT 210V280 9999 SCT013 27/22 Q1011 NOSIG

2010/08/08 02:00
DIAP 080200Z 23005KT 8000 SCT012 BKN070 25/24 Q1014 NOSIG

2010/08/08 02:00
GQNN 080200Z 26006KT 230V300 6000 BKN010 26/23 Q1010 TEMPO SCT010

2010/08/08 02:00
GVAC 080200Z 02006KT 9999 BKN015 25/20 Q1014 NOSIG

2010/08/08 02:00
GBYD 080200Z 00000KT CAVOK 26/25 Q1011

2010/08/08 02:00
GLRB 080200Z 22006KT 9999 SCT014 26/24 Q1014 NOSIG

2010/08/08 02:00
KMMU 080200Z AUTO 00000KT 10SM CLR 18/17 A2998

2010/08/08 01:50
EGWU 080150Z AUTO 34007KT 9999NDV // NCD 14/12 Q1018

2010/08/08 02:00
UNAA 080200Z 21004MPS 9999 SCT030CB OVC100 17/14 Q1006 NOSIG RMK QFE732 201///60

2010/08/08 02:00
UNBB 080200Z 25004MPS CAVOK 21/16 Q1007 NOSIG RMK QFE733

2010/08/08 02:00
UNEE 080200Z 26006MPS 6000 OVC066 19/18 Q1003 NOSIG RMK QFE730 23CLRD60

2010/08/08 02:00
UNKL 080200Z 21003G06MPS 9999 SCT033CB OVC083 16/12 Q1002 NOSIG RMK QFE726 29////65

2010/08/08 02:00
UNNT 080200Z 25003MPS CAVOK 21/17 Q1004 NOSIG RMK QFE743/0991 07090070

2010/08/08 02:00
UNOO 080200Z 28002MPS 4000 FU SCT066 SCT200 21/14 Q1007 TEMPO TSRA BKN030 25CLRD06 RMK QFE747

2010/08/08 02:00
UNWW 080200Z 21004MPS 9999 SCT026CB OVC130 17/16 Q1007 NOSIG RMK QFE728 1929//60

2010/08/08 02:00
USTR 080200Z 36003MPS 5000 BR NSC 19/18 Q1014 NOSIG RMK QFE750/1000 03290060 30290060

2010/08/08 02:00
USHH 080200Z 29002G05MPS 9999 SCT026 BKN080 12/08 Q1014 NOSIG RMK QFE757 SC06

2010/08/08 01:50
LIBD 080150Z 24004KT CAVOK 19/17 Q1017 RMK VIS MIN 9999

2010/08/08 01:50
LIBP 080150Z VRB03KT CAVOK 17/14 Q1017 RMK VIS MIN 9999

2010/08/08 01:45
LIBR 080145Z 34009KT CAVOK 23/19 Q1016 NOSIG RMK SKC VIS MIN 9999 WIND THR13 /////KT WIND THR31 32012KT BLU

2010/08/08 01:55
LIBV 080155Z 03005KT CAVOK 18/15 Q1015 RMK SKC VIS MIN 9999 WIND THR14 34003KT BLU

2010/08/08 01:50
LICA 080150Z VRB03KT CAVOK 17/14 Q1016 RMK VIS MIN 9999

2010/08/08 01:50
LICC 080150Z VRB03KT CAVOK 20/17 Q1015 RMK VIS MIN 9999

2010/08/08 01:50
LICJ 080150Z 08011KT 9999 FEW030 24/18 Q1016 RMK VIS MIN 9999

2010/08/08 01:55
LICT 080155Z 00000KT CAVOK 20/19 Q1016 RMK SKC VIS MIN 9999 WIND THR13 07001KT BLU

2010/08/08 01:55
LICZ 080155Z 28003KT CAVOK 19/17 Q1015 RMK SKC VIS MIN 9999 WIND THR28 ///// KT BLU

2010/08/08 02:00
VTST 080200Z 00000KT 9000 FEW020 SCT120 29/27 Q1008 NOSIG RWY08 INFO ? U ?

2010/08/08 02:07
CYQD 080207Z 10008G16KT 15SM TS SCT040 SCT070 BKN120 BKN220 RMK SC3AC1AS2CI0 CB EMBD FQT LTGCG NW CB EMBD SE

2010/08/08 01:55
ETIH 080155Z AUTO 00000KT 9999 CLR 09/09 A3008 RMK AO2 SLP180 T00940094 $

2010/08/08 02:00
LFBA 080200Z AUTO 25005KT 9999NDV NSC 18/13 Q1019

2010/08/08 02:00
LFBE 080200Z AUTO 28006KT 9999NDV NSC 16/13 Q1019

2010/08/08 02:00
LFCR 080200Z AUTO 00000KT 9999NDV NSC 14/11 Q1020

2010/08/08 02:00
LFGJ 080200Z AUTO VRB02KT 9999NDV NSC 16/13 Q1018

2010/08/08 02:00
LFLS 080200Z AUTO 10007KT 9999NDV NSC 14/11 Q1019

2010/08/08 02:00
LFLY 080200Z AUTO 15002KT 9999NDV NSC 16/13 Q1018

2010/08/08 02:00
LFMD 080200Z AUTO 34003KT 300V030 9999NDV NSC 17/14 Q1016

2010/08/08 02:00
LFMH 080200Z AUTO 13002KT 9999NDV NSC 16/12 Q1019

2010/08/08 02:00
LFMK 080200Z AUTO 00000KT 9999NDV NSC 16/13 Q1018

2010/08/08 02:00
LFOH 080200Z AUTO 30009KT 9999NDV FEW010 16/14 Q1018

2010/08/08 02:00
LFPN 080200Z AUTO 28003KT 9999NDV SCT044 15/13 Q1018

2010/08/08 02:00
LFRC 080200Z AUTO 29005KT 9999NDV NSC 15/14 Q1020

2010/08/08 02:00
LFRD 080200Z AUTO 28004KT 230V340 9999NDV BKN010 OVC015 16/15 Q1020

2010/08/08 02:00
LFRJ 080200Z AUTO 27003KT 1800NDV FG FEW011/// 14/13 Q1021

2010/08/08 02:00
LFRK 080200Z AUTO 26009KT 9999NDV ///////// 14/13 Q1019

2010/08/08 02:00
LFRN 080200Z AUTO 29004KT 9999NDV NSC 12/11 Q1020

2010/08/08 02:00
LFRO 080200Z AUTO 29005KT 9999NDV BKN027 14/13 Q1021

2010/08/08 02:00
LFRZ 080200Z AUTO VRB02KT 9999NDV NSC 13/11 Q1021

2010/08/08 02:00
LFSB 080200Z AUTO 16005KT 9999NDV NSC 16/13 Q1018

2010/08/08 02:00
LFST 080200Z AUTO 18003KT 9999NDV //////TCU 17/13 Q1016

2010/08/08 02:00
LFTH 080200Z AUTO 02002KT 9999NDV NSC 14/11 Q1016

2010/08/08 01:56
KNLC 080156Z AUTO 01008KT 10SM CLR 32/15 A2969 RMK AO2 SLP053 T03220150 TSNO $

2010/08/08 01:55
KWRB 080155Z 12003KT 10SM CLR 27/25 A2993 RMK AO2A SLP133 T02710254

2010/08/08 02:00
SEGU 080200Z 16003KT 9999 SCT100 26/20 Q1013 NOSIG

2010/08/08 02:00
TVSV 080200Z 09008KT 9999 -SHRA BKN016 SCT032 BKN260 25/24 Q1014

2010/08/08 02:00
FBSK 080200Z 09006KT CAVOK 07/05 Q1025 NOSIG

2010/08/08 02:00
ULLI 080200Z 16006G12MPS 120V190 3500 -TSRA SCT050CB OVC066 28/14 Q1019 TEMPO VRB17MPS 0800 +TSRA

2010/08/08 02:00
UUDD 080200Z 15001MPS 0500 R14R/0600N R14L/0600N FU VV002 20/19 Q1021 NOSIG

2010/08/08 02:00
UUEE 080200Z VRB02MPS 1400 FU OVC017 23/19 Q1021 NOSIG

2010/08/08 02:00
UUWW 080200Z 00000MPS 0600 R24/0650N HZ VV005 23/17 Q1021 24000070 TEMPO 0300 FU RMK QBB160

2010/08/08 02:00
UOOO 080200Z 05004G05MPS 0900 R01/0900 BCFG OVC002 07/07 Q1006 TEMPO 0700 FG VV003 RMK QBB060 QFE740 010///60

2010/08/08 02:00
USCM 080200Z 33003MPS 6000 FEW100 19/14 Q1018 NOSIG 01090065 RMK QFE725

2010/08/08 02:00
TBPB 080200Z 09010KT 9999 FEW012CB SCT016 BKN036 27/24 Q1014

2010/08/08 01:50
LIBD 080150Z 24004KT CAVOK 19/17 Q1017 RMK VIS MIN 9999

2010/08/08 01:55
LIBH 080155Z 30006KT CAVOK 21/20 Q1015 RMK SKC QUK / QUL / VIS MAR 20 KM VIS MIN 9999

2010/08/08 01:45
LIBR 080145Z 34009KT CAVOK 23/19 Q1016 NOSIG RMK SKC VIS MIN 9999 WIND THR13 /////KT WIND THR31 32012KT BLU

2010/08/08 01:55
LIBV 080155Z 03005KT CAVOK 18/15 Q1015 RMK SKC VIS MIN 9999 WIND THR14 34003KT BLU

2010/08/08 01:55
LIBY 080155Z 35013KT CAVOK 21/17 Q1014 RMK SKC QUK / QUL / VIS MAR 15 KM VIS MIN 9999

2010/08/08 01:50
LICA 080150Z VRB03KT CAVOK 17/14 Q1016 RMK VIS MIN 9999

2010/08/08 01:50
LICC 080150Z VRB03KT CAVOK 20/17 Q1015 RMK VIS MIN 9999

2010/08/08 01:55
LICF 080155Z 34003KT 9999 SCT030 24/21 Q1016 RMK SCT QUK / QUL / VIS MAR 20 KM MON INVIS NC VIS MIN 9999

2010/08/08 01:50
LICJ 080150Z 08011KT 9999 FEW030 24/18 Q1016 RMK VIS MIN 9999

2010/08/08 01:55
LICT 080155Z 00000KT CAVOK 20/19 Q1016 RMK SKC VIS MIN 9999 WIND THR13 07001KT BLU

2010/08/08 01:55
LICZ 080155Z 28003KT CAVOK 19/17 Q1015 RMK SKC VIS MIN 9999 WIND THR28 ///// KT BLU

2010/08/08 01:55
LIEB 080155Z 30008KT CAVOK 22/19 Q1016 RMK SKC QUK / QUL / VIS MAR 30 KM MON INVIS VIS MIN 9999

2010/08/08 01:55
LIEC 080155Z 03005KT CAVOK 22/19 Q1017 RMK SKC QUK / QUL / VIS MAR 20 KM VIS MIN 9999

2010/08/08 01:55
LIEE 080155Z 31004KT CAVOK 17/12 Q1017 RMK VIS MIN 9999 WIND THR14 34007KT BLU

2010/08/08 01:55
LIRM 080155Z 36004KT CAVOK 20/18 Q1016 RMK SKC VIS MIN 9999 WIND THR06 35005KT BLU

2010/08/08 01:55
LIRS 080155Z 01006KT CAVOK 17/13 Q1017 RMK SKC VIS MIN 9999 WIND THR21 /////KT BLU

2010/08/08 02:00
WBGR 080200Z 20009KT 9999 SCT014 FEW015CB SCT150 BKN300 29/25 Q1010

2010/08/08 02:00
WBGS 080200Z 15005KT 9999 SCT016 SCT150 BKN300 27/21 Q1011

2010/08/08 02:00
WBGY 080200Z 11005KT 9999 FEW022 BKN150 24/22 Q1011

2010/08/08 02:00
WBKL 080200Z 22007KT 9999 FEW014 SCT140 BKN290 29/25 Q1010

2010/08/08 02:00
WBKS 080200Z 20005KT 9999 FEW016 SCT140 BKN290 31/23 Q1009

2010/08/08 02:00
WBKT 080200Z 22008KT 9999 FEW016 SCT140 BKN270 31/23 Q1008

2010/08/08 02:00
WBKW 080200Z 26005KT 220V350 9999 FEW017 SCT140 BKN300 30/25 Q1010

2010/08/08 02:05
PABE 080205Z 21011KT 10SM BKN013 OVC020 13/10 A2971

2010/08/08 02:00
UIAA 080200Z VRB02MPS 9999 SCT033 OVC100 15/11 Q1006 NOSIG RMK QFE696 29CLRD70

2010/08/08 02:00
UIBB 080200Z 14003MPS 9999 FEW040CB BKN100 14/07 Q1010 NOSIG RMK QFE714/0953 30CLRD60

2010/08/08 02:00
UIII 080200Z 01002MPS 9999 SCT020 13/08 Q1013 NOSIG RMK QFE715/0953 30CLRD60

2010/08/08 02:00
UIUU 080200Z 31008MPS 9999 BKN030CB BKN100 13/06 Q1010 NOSIG RMK QFE713/0951 26CLRD60

2010/08/08 02:00
UEEE 080200Z 17003MPS CAVOK 21/11 Q1009 NOSIG RMK QFE748 2309//60

2010/08/08 02:00
UELL 080200Z 21005MPS 9999 FEW030 BKN200 19/10 Q1012 NOSIG RMK QFE685 08CLRD70

2010/08/08 02:00
UERP 080200Z 12003MPS 9999 OVC007 06/06 Q1006 NOSIG RMK QFE710 17090065

2010/08/08 02:00
UERR 080200Z 26003MPS 9999 SCT033 BKN200 08/07 Q1008 NOSIG RMK QFE725 24CLRD60

2010/08/08 02:00
UHHH 080200Z 28003MPS CAVOK 24/16 Q1013 NOSIG RMK QFE753/1004 23090060

2010/08/08 02:00
UHMM 080200Z 18002MPS 9999 BKN046 OVC200 18/09 Q1006 NOSIG RMK QFE740 88210370

2010/08/08 02:00
UHNN 080200Z 27004MPS 9999 SCT033 24/17 Q1011 NOSIG RMK QFE753 290///60

2010/08/08 02:00
UHPP 080200Z 31008MPS 270V350 9999 FEW043 SCT/// 22/04 Q1002 NOSIG RMK QFE748/0997 MT OBSC SC070

2010/08/08 02:00
UHSH 080200Z 29004MPS CAVOK 23/08 Q1011 NOSIG RMK QFE755 31090070

2010/08/08 02:00
UHSS 080200Z 21003MPS 170V240 9999 BKN020 24/19 Q1014 NOSIG RMK MT OBSC QFE759/1012 19CLRD70

2010/08/08 02:00
UHWW 080200Z 13004MPS 9999 BKN050 OVC100 24/20 Q1012 NOSIG RMK QFE758/1011 75CLRD70

2010/08/08 02:00
USPP 080200Z 32002MPS 7000 SKC 20/17 Q1020 NOSIG 21090060 RMK QFE754/1005

2010/08/08 02:00
UWKD 080200Z 01003MPS 5000 HZ FEW200 24/12 Q1020 NOSIG RMK QFE755/1007 11CLRD70

2010/08/08 02:00
UWKE 080200Z 04003MPS 8000 OVC200 24/13 Q1019 NOSIG RMK QFE747/0997 04090070

2010/08/08 02:00
UWKS 080200Z 00000MPS CAVOK 23/15 Q1021 NOSIG RMK QFE750 SC0.60

2010/08/08 02:00
UWLL 080200Z 29004MPS CAVOK 19/10 Q1019 NOSIG RMK QFE752/1003 SC065

2010/08/08 02:00
UWLW 080200Z 00000MPS 8000 FEW200 20/18 Q1019 NOSIG 20CLRD60 RMK QFE759

2010/08/08 02:00
UWOR 080200Z VRB02MPS CAVOK 22/10 Q1020 25CLRD65 NOSIG RMK QFE739/0986

2010/08/08 02:00
UWOO 080200Z 23001MPS P5000 FEW050 SCT070 19/09 Q1017 08CLRD65 NOSIG RMK QFE752/1003

2010/08/08 02:00
UWPP 080200Z 00000MPS 8000 SCT100 20/13 Q1019 NOSIG RMK QFE749 11090060

2010/08/08 02:00
UWSS 080200Z VRB02MPS CAVOK 26/13 Q1018 NOSIG RMK QFE751 120///60

2010/08/08 02:00
UWWW 080200Z 32002MPS CAVOK 22/07 Q1018 NOSIG RMK QFE751/1001 05CLRD60 15//99//

2010/08/08 02:00
ULAA 080200Z 10003MPS 080V150 9999 SCT033 BKN/// 16/14 Q1020 NOSIG RMK QFE764/1019 SC070

2010/08/08 02:00
ULKK 080200Z VRB01MPS 2500 BR OVC099 18/18 Q1022 RMK QFE761

2010/08/08 02:00
ULMM 080200Z 16002MPS CAVOK 13/13 Q1019 NOSIG RMK QFE757 14090070

2010/08/08 02:00
UMKK 080200Z 13002MPS 0500 R24/1200 FG NSC 18/17 Q1011 R24/CLRD65 NOSIG RMK QFE757/1010

2010/08/08 02:00
UUOB 080200Z 05003MPS CAVOK 22/16 Q1017 NOSIG RMK SC065

2010/08/08 02:00
UUOK 080200Z VRB02MPS 6000 BKN200 21/13 Q1017 NOSIG

2010/08/08 02:00
UUOO 080200Z VRB01MPS 2700 FU SKC 20/11 Q1018 NOSIG RMK 13090070

2010/08/08 02:00
UWGG 080200Z 00000MPS 1000 R36L/1000N FU BR BKN005 18/17 Q1021 TEMPO 0500 FU VV003 36090070 RMK QBB150 QFE759

2010/08/08 02:00
URKA 080200Z 06004MPS CAVOK 24/22 Q1010

2010/08/08 02:00
URKK 080200Z 07003MPS CAVOK 21/10 Q1010 NOSIG RMK QFE754 SC070

2010/08/08 02:00
URKM 080200Z 17002MPS CAVOK 22/18 Q1010 RMK QFE739

2010/08/08 02:00
URML 080200Z 24004MPS 9999 SKC 22/10 Q1011 NOSIG RMK QFE758 / 07

2010/08/08 02:00
URMM 080200Z 00000MPS 9999 SKC 15/12 Q1013 NOSIG RMK / SC070

2010/08/08 02:00
URMN 080200Z 22001MPS 9999 BKN110 21/13 Q1013 NOSIG RMK / QFE723 SC07

2010/08/08 02:00
URMT 080200Z 10001MPS CAVOK 24/03 Q1013 NOSIG RMK QFE720 SC07

2010/08/08 02:00
URRR 080200Z 06005MPS CAVOK 25/08 Q1013 NOSIG RMK SC070

2010/08/08 02:00
URSS 080200Z 09004MPS 9999 FEW016 24/19 Q1009 NOSIG RMK / QFE755 06CLRD70

2010/08/08 02:00
URWA 080200Z 36002MPS CAVOK 24/14 Q1012 NOSIG RMK SC07

2010/08/08 02:00
URWW 080200Z 07005MPS CAVOK 26/10 Q1016 NOSIG RMK SC070

2010/08/08 02:00
OIAG 080200Z 13010KT 9999 BKN040 32/12 Q0998 A2950

2010/08/08 02:00
OIAM 080200Z 00000KT 9999 SCT040 34/20 Q0997 A2945

2010/08/08 02:00
OICI 080200Z 28004KT 9999 FEW040 SCT100 29/M00 Q1013 A2992 864.0

2010/08/08 02:00
OIKQ 080200Z 00000KT 6000 SKC 31/28 Q0999 A2950

2010/08/08 02:00
OINN 080200Z 21004KT CAVOK 23/19 Q1009 A2981

2010/08/08 02:00
OINR 080200Z 24004KT CAVOK 25/20 Q1008 A2979

2010/08/08 02:00
OISL 080200Z 00000KT CAVOK 25/06 Q1005 A2968

2010/08/08 02:00
OISY 080200Z 36004KT CAVOK 23/06 Q1020 A3013

2010/08/08 02:00
UWUU 080200Z 00000MPS CAVOK 21/13 Q1017 82010060 NOSIG RMK QFE752/1002

2010/08/08 02:00
USCC 080200Z 30004G07MPS 7000 SCT200 23/19 Q1015 NOSIG RMK QFE741 09000070

2010/08/08 02:00
USDD 080200Z 30007MPS 9999 SCT033CB BKN100 10/05 Q1017 NOSIG RMK QFE758/1011 SC060

2010/08/08 02:00
USMU 080200Z 35004MPS 9999 OVC007 10/09 Q1007 NOSIG RMK QFE750 27250355

2010/08/08 02:00
USNN 080200Z 32005G08MPS P6000 -RA SCT013 BKN019 OVC066 13/11 Q1004 NOSIG RMK QFE749 SC065

2010/08/08 02:00
USRK 080200Z 32007G11MPS 4200 -SHRA BKN013CB OVC066 12/11 Q1006 NOSIG RMK QFE748 350///60

2010/08/08 02:00
USRR 080200Z 32007G13MPS 7000 BKN015 13/10 Q1009 NOSIG RMK QFE751 25////60

2010/08/08 02:00
USSS 080200Z 36003MPS 320V030 5000 FU SCT022 BKN200 21/17 Q1016 NOSIG RMK QFE742 260///70

2010/08/08 02:00
UUYH 080200Z 04003MPS CAVOK 06/06 Q1024 RMK QFE 756

2010/08/08 02:00
UUYS 080200Z 03004MPS 9999 OVC013 06/04 Q1026 NOSIG RMK QFE762

2010/08/08 02:00
UUYY 080200Z VRB01MPS CAVOK 16/13 Q1024 NOSIG 99CLRD61 RMK QFE759/1012

2010/08/08 02:08
CYYC 080208Z 22026G33KT 15SM -TSRA BKN057CB BKN180 17/ RMK CB5AC2 +SH SW/VIS SW 7/LTGCGIC S-N/WSHIFT 0156Z

2010/08/08 02:00
DAON 080200Z 00000KT CAVOK 22/19 Q1018

2010/08/08 02:00
DAOV 080200Z 00000KT 9999 SCT030 26/18 Q1018

2010/08/08 02:08
CYVM 080208Z AUTO 05002KT 1/2SM OVC002 04/04 A2992

2010/08/08 02:07
CYUS 080207Z AUTO ///// 9SM CLR 14/ A2985

2010/08/08 02:00
DAOO 080200Z 36009KT CAVOK 22/19 Q1017

2010/08/08 02:08
KNFE 080208Z AUTO 00000KT 1SM BR VV008 24/22 A2998 RMK AO2 $ 

