2010/08/08 04:59
MYEG 080459Z AUTO 10005KT 10SM CLR 27/23 A3000 RMK AO2 

2010/08/08 04:59
MYEG 080459Z AUTO 10005KT 10SM CLR 27/23 A3000 RMK AO2

2010/08/08 04:45
KESN 080445Z AUTO 00000KT 10SM CLR 21/20 A3003 RMK AO2

2010/08/08 04:50
KQEV 080450Z AUTO 34003KT 7SM FEW046 33/18 A2983 RMK A02

2010/08/08 04:45
KESN 080445Z AUTO 00000KT 10SM CLR 21/20 A3003 RMK AO2

2010/08/08 04:45
KESN 080445Z AUTO 00000KT 10SM CLR 21/20 A3003 RMK AO2

2010/08/08 04:45
KESN 080445Z AUTO 00000KT 10SM CLR 21/20 A3003 RMK AO2

2010/08/08 04:55
KFDW 080455Z AUTO 04003KT 10SM CLR 27/20 A2998 RMK AO1

2010/08/08 04:45
KESN 080445Z AUTO 00000KT 10SM CLR 21/20 A3003 RMK AO2

2010/08/08 04:45
KESN 080445Z AUTO 00000KT 10SM CLR 21/20 A3003

2010/08/08 04:50
OAKB 080450Z 06004KT 6000 SCT030 BKN140 24/19 Q1014 NOSIG RMK WHT WHT

2010/08/08 04:50
OAKB 080450Z 06004KT 6000 SCT030 BKN140 24/19 Q1014 NOSIG RMK WHT WHT

2010/08/08 04:55
KFDW 080455Z AUTO 04003KT 10SM CLR 27/20 A2998 RMK AO1

2010/08/08 04:55
KRQO 080455Z AUTO 00000KT 10SM CLR 28/21 A2986 RMK AO2

2010/08/08 04:46
PAWR 080446Z 00000KT 2SM -RA BR OVC008 11/10 A2980 RMK SLP091 NOSPECI

2010/08/08 04:50
LIMG 080450Z 27003KT 240V320 9999 SCT050 16/09 Q1017 RMK VIS MIN 9999

2010/08/08 05:00
MPTO 080500Z 00000KT 9999 FEW018CB SCT090 26/24 Q1012 NOSIG

2010/08/08 04:45
LKLB 080445Z VRB01KT 1500 -RA BR FEW040 13/12 Q1016

2010/08/08 04:45
KNRB 080445Z AUTO 00000KT 10SM BKN029 26/23 A2994 RMK AO2 

2010/08/08 04:45
CYCY 080445Z AUTO 00000KT 1/2SM OVC001 OVC079 03/03 A2992

2010/08/08 04:45
LKLB 080445Z VRB01KT 1500 -RA BR FEW040 13/12 Q1016

2010/08/08 04:46
CWOB 080446Z AUTO ///// 0SM CLR 05/ A2946

2010/08/08 04:46
CYUA 080446Z AUTO 01011KT 2SM -RA OVC006 OVC013 08/ A2970

2010/08/08 04:45
KPLN 080445Z AUTO 31004KT 2SM +RA BR FEW009 BKN038 BKN075 18/17 A2980 RMK AO2 RAB38 P0007

2010/08/08 04:45
PAEG 080445Z AUTO 28003KT 3SM RA BR BKN023 BKN033 OVC055 13/11 A2962 RMK AO2 RAB05 P0009 TSNO

2010/08/08 04:46
PATW 080446Z 18008KT 10SM BKN030 12/08 A2972 RMK EPO NOSPECI

2010/08/08 04:45
CWWA 080445Z AUTO 00000KT 15/14 RMK AO1 T01530143

2010/08/08 04:55
KRQO 080455Z AUTO 00000KT 10SM CLR 28/21 A2986 RMK AO2

2010/08/08 04:46
PAWR 080446Z 00000KT 2SM -RA BR OVC008 11/10 A2980 RMK SLP091 NOSPECI

2010/08/08 04:46
PATW 080446Z 18008KT 10SM BKN030 12/08 A2972 RMK EPO NOSPECI

2010/08/08 04:45
KNRB 080445Z AUTO 00000KT 10SM BKN029 26/23 A2994 RMK AO2

2010/08/08 04:45
KPLN 080445Z AUTO 31004KT 2SM +RA BR FEW009 BKN038 BKN075 18/17 A2980 RMK AO2 RAB38 P0007

2010/08/08 04:45
PAEG 080445Z AUTO 28003KT 3SM RA BR BKN023 BKN033 OVC055 13/11 A2962 RMK AO2 RAB05 P0009 TSNO

2010/08/08 04:45
PHTO 080445Z 06010KT 10SM SCT011 BKN021 OVC050 25/22 A3006 RMK AO2

2010/08/08 04:45
PHTO 080445Z 06010KT 10SM SCT011 BKN021 OVC050 25/22 A3006

2010/08/08 04:50
LIMG 080450Z 27003KT 240V320 9999 SCT050 16/09 Q1017 RMK VIS MIN 9999

2010/08/08 04:47
CYUA 080447Z AUTO 01010G15KT 2SM -RA OVC005 OVC013 08/ A2970

2010/08/08 04:45
KRQE 080445Z AUTO 23003KT 10SM BKN007 BKN014 15/13 A3022 RMK AO2 CIG 006V010 TSNO 

2010/08/08 04:47
KCQT 080447Z AUTO 00000KT 10SM CLR 18/13 A2990 RMK AO2 SLP122 T01780128 TSNO 

2010/08/08 04:46
CWOB 080446Z AUTO ///// 0SM CLR 05/ A2946

2010/08/08 04:45
CYCY 080445Z AUTO 00000KT 1/2SM OVC001 OVC079 03/03 A2992

2010/08/08 04:46
CYUA 080446Z AUTO 01011KT 2SM -RA OVC006 OVC013 08/ A2970

2010/08/08 04:47
CYUA 080447Z AUTO 01010G15KT 2SM -RA OVC005 OVC013 08/ A2970

2010/08/08 04:46
EHGR 080446Z AUTO 22003KT 4900NDV BR SCT006 BKN066 OVC072 15/14 Q1014 YLO

2010/08/08 04:45
EKSP 080445Z 26002KT 3500 BR BKN026 16/15 Q1015

2010/08/08 04:47
ETAD 080447Z AUTO 21004KT 9999 -RA SCT037 BKN060 BKN080 15/14 A3000 RMK AO2 SLP149 $

2010/08/08 04:45
KNRB 080445Z AUTO 00000KT 10SM BKN029 26/23 A2994 RMK AO2

2010/08/08 04:46
KRDR 080446Z AUTO 16003KT 6SM R17/4500VP6000FT BR CLR 21/21 A2964 RMK AO2 SLP051 $

2010/08/08 04:50
LIMG 080450Z 27003KT 240V320 9999 SCT050 16/09 Q1017 RMK VIS MIN 9999

2010/08/08 04:45
RODN 080445Z 16008KT 9999 -RA SCT017 BKN027 BKN033 29/26 A2964 RMK AO2A RAB0444 SLP035

2010/08/08 04:46
RODN 080446Z 15009KT 9999 -RA SCT017 BKN033 29/27 A2964 RMK AO2A RAB0444 SLP035

2010/08/08 04:47
KNPA 080447Z AUTO 00000KT 10SM TS CLR 27/24 A2991 RMK AO2 TSE00B41 

2010/08/08 04:45
KMWS 080445Z 25003G06KT 16/M11 RMK SNOW DEPTH M 

2010/08/08 04:46
KRHI 080446Z AUTO 01008G20KT 1SM +TSRA BR BKN006 OVC016 18/17 A2981 RMK AO2 LTG DSNT ALQDS RAB21 P0064

2010/08/08 04:45
KJFZ 080445Z AUTO 00000KT 10SM CLR 19/16 A3008 RMK AO1 T01940161

2010/08/08 04:45
KORG 080445Z AUTO 00000KT 10SM CLR 28/26 A2993 RMK AO2

2010/08/08 04:45
KSFY 080445Z AUTO 16005KT 10SM CLR 22/19 A2987 RMK AO2

2010/08/08 04:55
KCCA 080455Z AUTO 00000KT 9SM FEW045 26/23 A2992 RMK AO2

2010/08/08 04:55
KOLV 080455Z AUTO 00000KT 5SM CLR 26/26 A2992 RMK A01 P000

2010/08/08 04:50
MSLP 080450Z 04002KT 9999 FEW020 FEW037CB 26/24 Q1013 A2992 CB LTGIC TO SE

2010/08/08 04:50
MSSS 080450Z 00000KT 9999 FEW013 FEW040CB SCT300 23/22 Q1017 A3003 CB LTGIC TO NE

2010/08/08 04:45
EKSP 080445Z 26002KT 3500 BR BKN026 16/15 Q1015

2010/08/08 04:46
RODN 080446Z 15009KT 9999 -RA SCT017 BKN033 29/27 A2964 RMK AO2A RAB0444 SLP035

2010/08/08 04:45
RODN 080445Z 16008KT 9999 -RA SCT017 BKN027 BKN033 29/26 A2964 RMK AO2A RAB0444 SLP035

2010/08/08 04:46
EHGR 080446Z AUTO 22003KT 4900NDV BR SCT006 BKN066 OVC072 15/14 Q1014 YLO

2010/08/08 04:46
RODN 080446Z 15009KT 9999 -RA SCT017 BKN033 29/27 A2964 RMK AO2A RAB0444 SLP035

2010/08/08 04:47
ETAD 080447Z AUTO 21004KT 9999 -RA SCT037 BKN060 BKN080 15/14 A3000 RMK AO2 SLP149 $

2010/08/08 04:45
RODN 080445Z 16008KT 9999 -RA SCT017 BKN027 BKN033 29/26 A2964 RMK AO2A RAB0444 SLP035

2010/08/08 04:45
KPLN 080445Z AUTO 31004KT 2SM +RA BR FEW009 BKN038 BKN075 18/17 A2980

2010/08/08 04:45
KRQE 080445Z AUTO 23003KT 10SM BKN007 BKN014 15/13 A3022

2010/08/08 05:00
MPTO 080500Z 00000KT 9999 FEW018CB SCT090 26/24 Q1012 NOSIG

2010/08/08 04:50
MSLP 080450Z 04002KT 9999 FEW020 FEW037CB 26/24 Q1013 A2992 CB LTGIC TO SE

2010/08/08 04:50
MSSS 080450Z 00000KT 9999 FEW013 FEW040CB SCT300 23/22 Q1017 A3003 CB LTGIC TO NE

2010/08/08 04:50
OAKB 080450Z 06004KT 6000 SCT030 BKN140 24/19 Q1014 NOSIG RMK WHT WHT

2010/08/08 04:50
MSSS 080450Z 00000KT 9999 FEW013 FEW040CB SCT300 23/22 Q1017 CB NE

2010/08/08 04:50
MSLP 080450Z 04002KT 9999 FEW020 FEW037CB 26/24 Q1013 CB LTGIC TO SE

2010/08/08 04:48
KJDN 080448Z AUTO 32003KT 22/10 A2973 RMK AO2 SLP048 T02170100 PWINO TSNO 

2010/08/08 04:48
KNFE 080448Z AUTO 00000KT 3/4SM BR CLR 23/22 A2999 RMK AO2 $ 

2010/08/08 04:45
K1H2 080445Z AUTO 00000KT 7SM CLR 20/19 A2996 RMK AO2 T02040190

2010/08/08 04:45
K3LF 080445Z AUTO 14006KT 7SM CLR 21/17 A2995 RMK AO2

2010/08/08 04:45
K3T5 080445Z AUTO 18004KT 10SM CLR 28/25 A2990 RMK AO2 T02800248

2010/08/08 04:45
KAJG 080445Z AUTO 00000KT 5SM BR CLR 19/18 A2996 RMK AO2 T01870180

2010/08/08 04:45
KALN 080445Z AUTO 00000KT 7SM CLR 22/20 A2994 RMK AO2 T02200196

2010/08/08 04:45
KAQO 080445Z AUTO 16005KT CLR 31/20 A2993 RMK AO2 PWINO

2010/08/08 04:45
KARM 080445Z AUTO 00000KT 10SM CLR 27/25 A2992 RMK AO2 T02720250

2010/08/08 04:47
KASW 080447Z AUTO 00000KT 7SM CLR 22/18 A2997 RMK AO2 T02190184

2010/08/08 04:45
KAXH 080445Z AUTO 00000KT 10SM CLR 26/24 A2992 RMK AO2 T02590242 403390240

2010/08/08 04:45
KBBD 080445Z AUTO 15008KT 10SM CLR 29/18 A2993 RMK

2010/08/08 04:45
KBKS 080445Z AUTO 14009KT 10SM CLR 28/24 A2989 RMK AO1 T02840242

2010/08/08 04:46
KBPC 080446Z AUTO 18012KT 10SM CLR 27/18 A2989 RMK AO2

2010/08/08 04:45
KC75 080445Z AUTO 00000KT 7SM CLR 22/19 A2991 RMK AO2 T02230190

2010/08/08 04:45
KCUL 080445Z AUTO 00000KT 5SM BR CLR 18/16 A2996 RMK AO2 T01770159

2010/08/08 04:45
KDKB 080445Z AUTO 20008KT 7SM CLR 21/18 A2990 RMK AO2 T02110175

2010/08/08 04:45
KDZB 080445Z AUTO 16008KT 7SM CLR 29/21 A2990 RMK AO2 T02910207

2010/08/08 04:45
KERV 080445Z AUTO 15010KT 10SM CLR 28/20 A2995 RMK AO2 T02760201

2010/08/08 04:45
KGNC 080445Z AUTO 17006KT 10SM CLR 25/14 A2997 RMK AO2 T02530141

2010/08/08 04:47
KGPM 080447Z AUTO 00000KT 10SM CLR 32/21 A2988 RMK AO2

2010/08/08 04:46
KHQZ 080446Z AUTO 16005KT 10SM CLR 28/22 A2986 RMK AO2

2010/08/08 04:45
KOXI 080445Z AUTO 18006KT 7SM SCT100 20/18 A2993 RMK AO1 T02030180

2010/08/08 04:47
KPSN 080447Z AUTO 16004KT 10SM 29/23 A2991 RMK AO2

2010/08/08 04:45
PABN 080445Z 25006KT 15SM SCT040 BKN070 BKN090 12/06 A2968 RMK VCFG N-E-S MAX 15.0 NOSPECI LAST

2010/08/08 04:47
KCQT 080447Z AUTO 00000KT 10SM CLR 18/13 A2990 RMK AO2 SLP122 T01780128 TSNO

2010/08/08 04:45
KMWS 080445Z 25003G06KT 16/M11 RMK SNOW DEPTH M

2010/08/08 04:48
KJDN 080448Z AUTO 32003KT 22/10 A2973 RMK AO2 SLP048 T02170100 PWINO TSNO

2010/08/08 04:45
KRQE 080445Z AUTO 23003KT 10SM BKN007 BKN014 15/13 A3022 RMK AO2 CIG 006V010 TSNO

2010/08/08 04:48
KNFE 080448Z AUTO 00000KT 3/4SM BR CLR 23/22 A2999 RMK AO2 $

2010/08/08 04:46
KRHI 080446Z AUTO 01008G20KT 1SM +TSRA BR BKN006 OVC016 18/17 A2981 RMK AO2 LTG DSNT ALQDS RAB21 P0064

2010/08/08 04:48
KNFE 080448Z AUTO 00000KT 3/4SM BR CLR 23/22 A2999 RMK AO2 $

2010/08/08 04:45
KSFY 080445Z AUTO 16005KT 10SM CLR 22/19 A2987 RMK AO2

2010/08/08 04:47
KCQT 080447Z AUTO 00000KT 10SM CLR 18/13 A2990 RMK AO2 SLP122 T01780128 TSNO

2010/08/08 04:45
KMWS 080445Z 25003G06KT 16/M11 RMK SNOW DEPTH M

2010/08/08 04:45
KCUL 080445Z AUTO 00000KT 5SM BR CLR 18/16 A2996 RMK AO2 T01770159

2010/08/08 04:47
KPSN 080447Z AUTO 16004KT 10SM 29/23 A2991 RMK AO2

2010/08/08 04:48
KJDN 080448Z AUTO 32003KT 22/10 A2973 RMK AO2 SLP048 T02170100 PWINO TSNO

2010/08/08 04:45
KNRB 080445Z AUTO 00000KT 10SM BKN029 26/23 A2994 RMK AO2

2010/08/08 04:46
KRDR 080446Z AUTO 16003KT 6SM R17/4500VP6000FT BR CLR 21/21 A2964 RMK AO2 SLP051 $

2010/08/08 04:47
KNPA 080447Z AUTO 00000KT 10SM TS CLR 27/24 A2991 RMK AO2 TSE00B41

2010/08/08 04:45
KRQE 080445Z AUTO 23003KT 10SM BKN007 BKN014 15/13 A3022 RMK AO2 CIG 006V010 TSNO

2010/08/08 04:50
OAKB 080450Z 06004KT 6000 SCT030 BKN140 24/19 Q1014 NOSIG RMK WHT WHT

2010/08/08 04:45
KJFZ 080445Z AUTO 00000KT 10SM CLR 19/16 A3008 RMK AO1 T01940161

2010/08/08 04:45
KORG 080445Z AUTO 00000KT 10SM CLR 28/26 A2993 RMK AO2

2010/08/08 04:55
KCCA 080455Z AUTO 00000KT 9SM FEW045 26/23 A2992 RMK AO2

2010/08/08 04:55
KOLV 080455Z AUTO 00000KT 5SM CLR 26/26 A2992 RMK A01 P000

2010/08/08 04:45
K1H2 080445Z AUTO 00000KT 7SM CLR 20/19 A2996 RMK AO2 T02040190

2010/08/08 04:45
K3LF 080445Z AUTO 14006KT 7SM CLR 21/17 A2995 RMK AO2

2010/08/08 04:45
K3T5 080445Z AUTO 18004KT 10SM CLR 28/25 A2990 RMK AO2 T02800248

2010/08/08 04:45
KAJG 080445Z AUTO 00000KT 5SM BR CLR 19/18 A2996 RMK AO2 T01870180

2010/08/08 04:45
KALN 080445Z AUTO 00000KT 7SM CLR 22/20 A2994 RMK AO2 T02200196

2010/08/08 04:45
KAQO 080445Z AUTO 16005KT CLR 31/20 A2993 RMK AO2 PWINO

2010/08/08 04:45
KARM 080445Z AUTO 00000KT 10SM CLR 27/25 A2992 RMK AO2 T02720250

2010/08/08 04:47
KASW 080447Z AUTO 00000KT 7SM CLR 22/18 A2997 RMK AO2 T02190184

2010/08/08 04:45
KAXH 080445Z AUTO 00000KT 10SM CLR 26/24 A2992 RMK AO2 T02590242 403390240

2010/08/08 04:45
KBBD 080445Z AUTO 15008KT 10SM CLR 29/18 A2993 RMK

2010/08/08 04:45
KBKS 080445Z AUTO 14009KT 10SM CLR 28/24 A2989 RMK AO1 T02840242

2010/08/08 04:46
KBPC 080446Z AUTO 18012KT 10SM CLR 27/18 A2989 RMK AO2

2010/08/08 04:45
KC75 080445Z AUTO 00000KT 7SM CLR 22/19 A2991 RMK AO2 T02230190

2010/08/08 04:45
KDKB 080445Z AUTO 20008KT 7SM CLR 21/18 A2990 RMK AO2 T02110175

2010/08/08 04:45
KDZB 080445Z AUTO 16008KT 7SM CLR 29/21 A2990 RMK AO2 T02910207

2010/08/08 04:45
KERV 080445Z AUTO 15010KT 10SM CLR 28/20 A2995 RMK AO2 T02760201

2010/08/08 04:45
KGNC 080445Z AUTO 17006KT 10SM CLR 25/14 A2997 RMK AO2 T02530141

2010/08/08 04:47
KGPM 080447Z AUTO 00000KT 10SM CLR 32/21 A2988 RMK AO2

2010/08/08 04:46
KHQZ 080446Z AUTO 16005KT 10SM CLR 28/22 A2986 RMK AO2

2010/08/08 04:45
KOXI 080445Z AUTO 18006KT 7SM SCT100 20/18 A2993 RMK AO1 T02030180

2010/08/08 04:45
PABN 080445Z 25006KT 15SM SCT040 BKN070 BKN090 12/06 A2968 RMK VCFG N-E-S MAX 15.0 NOSPECI LAST

2010/08/08 04:48
KIGM 080448Z AUTO 13016KT 10SM CLR 26/13 A2994 RMK AO2 SLP063 T02610128 TSNO 

2010/08/08 04:45
MMMX 080445Z 00000KT 6SM SCT020 BKN080 BKN200 16/15 A3033 NOSIG RMK 8/463 HZY LWR SC

2010/08/08 04:45
KUIL 080445Z AUTO 29005KT 2SM BR OVC002 12/12 A2994 RMK AO2 CIG 001V005 TSNO 

2010/08/08 04:49
CWZZ 080449Z AUTO ///// 3SM OVC016 OVC047 08/ A2922

2010/08/08 04:50
MSSS 080450Z 00000KT 9999 FEW013 FEW040CB SCT300 23/22 Q1017 CB NE

2010/08/08 04:50
MSLP 080450Z 04002KT 9999 FEW020 FEW037CB 26/24 Q1013 CB LTGIC TO SE

2010/08/08 04:50
HLLB 080450Z 36007KT 9999 SCT015 21/18 Q1014

2010/08/08 04:50
EETU 080450Z 12005KT 5000 BR NSC 22/20 Q1013

2010/08/08 04:45
KBYY 080445Z AUTO 00000KT 10SM CLR 27/26 A2991 RMK AO2 T02700260

2010/08/08 04:45
KCPT 080445Z AUTO 16004KT 10SM CLR 29/22 A2989 RMK AO2

2010/08/08 04:45
KCVB 080445Z AUTO 15008KT 10SM CLR 29/21 A2992 RMK AO2 T02880212

2010/08/08 04:45
KCWC 080445Z AUTO 15006KT 10SM CLR 30/22 A2986 RMK AO2 T02970222

2010/08/08 04:45
KDKR 080445Z AUTO 17004KT 10SM CLR 28/24 A2992 RMK AO2

2010/08/08 04:45
KDNV 080445Z AUTO 00000KT 7SM CLR 19/17 A2994 RMK AO2 T01940172

2010/08/08 04:47
KDUX 080447Z AUTO 15009KT 10SM CLR 25/17 A2996 RMK AO2 T02460173

2010/08/08 04:50
KEBG 080450Z AUTO 16008KT 10SM CLR 29/25 A2991 RMK AO2 T02850245

2010/08/08 04:45
KECU 080445Z AUTO 13009KT 10SM CLR 28/18 A3002 RMK AO2

2010/08/08 04:45
KENL 080445Z AUTO 00000KT 7SM CLR 20/17 A2995 RMK AO2 T02030173

2010/08/08 04:45
KFEP 080445Z AUTO 17007KT 10SM CLR 24/20 A2990 RMK AO2 T02360200

2010/08/08 04:45
KFWC 080445Z AUTO 00000KT 7SM CLR 20/18 A2995 RMK AO2

2010/08/08 04:45
KGBG 080445Z AUTO 17006KT 7SM CLR 22/19 A2990 RMK AO2

2010/08/08 04:45
KGOP 080445Z AUTO 00000KT 10SM CLR 28/21 A2992 RMK AO2

2010/08/08 04:45
KGWB 080445Z AUTO 00000KT 7SM CLR 20/16 A2997 RMK AO2

2010/08/08 04:45
KGYB 080445Z AUTO 18005KT 10SM CLR 28/24 A2995 RMK AO2 T02770240

2010/08/08 04:45
KGYI 080445Z AUTO 16007KT 10SM CLR 32/22 A2986 RMK AO2 T03150217

2010/08/08 04:45
KHHF 080445Z AUTO 19016G22KT 10SM CLR 30/20 A2986 RMK AO2 T03000200

2010/08/08 04:45
KHSB 080445Z AUTO 00000KT 7SM CLR 20/16 A2995 RMK AO2

2010/08/08 04:45
KIGQ 080445Z AUTO 19006KT 7SM CLR 22/18 A2991 RMK AO2

2010/08/08 04:45
KIJX 080445Z AUTO 16008KT 7SM CLR 24/19 A2992 RMK AO2 T02380185

2010/08/08 04:45
KINJ 080445Z AUTO 16007KT 10SM CLR 30/20 A2988 RMK AO2 T02980201

2010/08/08 04:45
KJAS 080445Z AUTO 19003KT 10SM CLR 28/25 A2994 RMK AO2 T02770253

2010/08/08 04:45
KJDD 080445Z AUTO 00000KT 10SM CLR 28/24 A2987 RMK AO2

2010/08/08 04:45
KJSO 080445Z AUTO 19005KT 10SM CLR 28/24 A2992 RMK AO2 T02800239

2010/08/08 04:45
KJXI 080445Z AUTO 15005KT 10SM CLR 29/24 A2989 RMK AO2

2010/08/08 04:45
KLBR 080445Z AUTO 00000KT 10SM CLR 27/22 A2987 RMK AO2 T02690222

2010/08/08 04:45
KLNC 080445Z AUTO 19003KT 10SM CLR 28/23 A2986 RMK AO2 T02830225

2010/08/08 04:45
KLOT 080445Z AUTO 20005KT 10SM CLR 21/19 A2990 RMK AO2 T02090187

2010/08/08 04:45
KLUD 080445Z AUTO 17008KT 10SM CLR 31/19 A2987 RMK AO2 T03090192

2010/08/08 04:47
KM30 080447Z AUTO 00000KT 5SM HZ CLR 20/17 A2994 RMK AO2

2010/08/08 04:45
KMDD 080445Z AUTO 18008KT 10SM CLR 30/14 A2995 RMK AO2 T03010136 403850253

2010/08/08 04:45
KPNT 080445Z AUTO 16004KT 7SM CLR 23/18 A2993 RMK AO2

2010/08/08 04:54
KPYX 080454Z AUTO 14007KT 10SM CLR 27/20 A2990 RMK AO2

2010/08/08 04:46
KRCR 080446Z AUTO 17006KT 10SM CLR 23/19 A2996 RMK AO2

2010/08/08 04:45
KRPJ 080445Z AUTO 17005KT 7SM CLR 20/19 A2990 RMK AO2 T02000185

2010/08/08 04:45
KRSV 080445Z AUTO 00000KT 5SM BR CLR 18/18 A2998 RMK AO2 T01830175

2010/08/08 04:45
KMWA 080445Z AUTO 09003KT 7SM CLR 24/17 A2997 RMK AO2 T02410170

2010/08/08 04:45
KPEQ 080445Z AUTO 12010KT 10SM CLR 31/15 A2991 RMK AO2 T03070150

2010/08/08 04:45
KPEZ 080445Z AUTO 15006KT 10SM CLR 28/23 A2992 RMK AO2 T02820229

2010/08/08 04:48
KPKV 080448Z AUTO 17005KT 10SM CLR 26/24 A2991 RMK AO2 T02610237

2010/08/08 04:45
KRAS 080445Z AUTO 16012KT 10SM CLR 29/26 A2993 RMK AO2

2010/08/08 04:45
KRBO 080445Z AUTO 15006KT 10SM CLR 28/25 A2991 RMK AO2 T02760250

2010/08/08 04:45
KRPH 080445Z AUTO 14004KT 10SM CLR 29/20 A2985 RMK AO2 T02900202

2010/08/08 04:45
KRYW 080445Z AUTO 16006KT M1/4SM HZ VV000 28/22 A2994 RMK AO2

2010/08/08 04:45
KSAR 080445Z AUTO 13006KT 5SM HZ CLR 22/19 A2994 RMK AO2

2010/08/08 04:45
KSLO 080445Z AUTO 11003KT 7SM CLR 22/17 A2996 RMK AO2 T02200170

2010/08/08 04:46
KSNK 080446Z AUTO 14009KT 10SM CLR 30/16 A2993 RMK AO2 T02990162

2010/08/08 04:45
KSWW 080445Z AUTO 15009KT 10SM CLR 30/17 A2995 RMK AO1 T02950167

2010/08/08 04:45
KT65 080445Z AUTO 18009KT 10SM CLR 28/25 A2991 RMK AO2 T02810247

2010/08/08 04:45
KT82 080445Z AUTO 16005KT 10SM CLR 27/19 A2996 RMK AO1 T02650191 403500230

2010/08/08 04:45
KTAZ 080445Z AUTO 14006KT 5SM HZ CLR 22/19 A2994 RMK AO2

2010/08/08 04:45
KTIP 080445Z AUTO 15003KT 7SM CLR 21/20 A2996 RMK AO2 T02120198

2010/08/08 04:45
KUVA 080445Z AUTO 14007KT 10SM CLR 31/22 A2990 RMK AO2 T03110216

2010/08/08 04:48
KBLI 080448Z 16004KT 6SM BR OVC014 17/16 A2989 RMK AO2 RAB0356E33 P0001

2010/08/08 04:49
KEYW 080449Z AUTO 19003KT 10SM BKN021 30/26 A2999 RMK AO2 403220289

2010/08/08 04:49
KPHF 080449Z 00000KT 1 1/2SM BR FEW001 22/22 A3000 RMK AO2 403060211

2010/08/08 04:49
KSHN 080449Z AUTO 23010KT 10SM BKN007 14/14 A2989 RMK AO2

2010/08/08 04:48
PAVA 080448Z AUTO 20007KT 10SM BKN015 OVC020 12/09 A2966 RMK AO2

2010/08/08 04:50
EKVG 080450Z AUTO 16005KT 9999NDV FEW010/// BKN083/// 10/08 Q1017 RMK BKN010/// BKN085/// WIND 850FT 12007KT

2010/08/08 04:50
EYPA 080450Z 11003KT 5000 BR NSC 20/20 Q1010

2010/08/08 04:50
EETN 080450Z 13006KT 5000 BR NSC 24/21 Q1012 NOSIG

2010/08/08 04:50
EYKA 080450Z 13005KT 080V160 CAVOK 20/20 Q1012

2010/08/08 04:50
EYSA 080450Z VRB01KT CAVOK 21/19 Q1011

2010/08/08 04:45
K1H2 080445Z AUTO 00000KT 7SM CLR 20/19 A2996

2010/08/08 04:45
KC75 080445Z AUTO 00000KT 7SM CLR 22/19 A2991

2010/08/08 04:45
KDKB 080445Z AUTO 20008KT 7SM CLR 21/18 A2990

2010/08/08 04:45
KDNV 080445Z AUTO 00000KT 7SM CLR 19/17 A2994

2010/08/08 04:45
KENL 080445Z AUTO 00000KT 7SM CLR 20/17 A2995

2010/08/08 04:45
KFEP 080445Z AUTO 17007KT 10SM CLR 24/20 A2990

2010/08/08 04:45
KFWC 080445Z AUTO 00000KT 7SM CLR 20/18 A2995

2010/08/08 04:45
KGBG 080445Z AUTO 17006KT 7SM CLR 22/19 A2990

2010/08/08 04:45
KHSB 080445Z AUTO 00000KT 7SM CLR 20/16 A2995

2010/08/08 04:45
KIGQ 080445Z AUTO 19006KT 7SM CLR 22/18 A2991

2010/08/08 04:45
KBYY 080445Z AUTO 00000KT 10SM CLR 27/26 A2991

2010/08/08 04:45
KUIL 080445Z AUTO 29005KT 2SM BR OVC002 12/12 A2994

2010/08/08 04:48
KIGM 080448Z AUTO 13016KT 10SM CLR 26/13 A2994

2010/08/08 04:48
KJDN 080448Z AUTO 32003KT 22/10 A2973

2010/08/08 04:45
KMWS 080445Z 25003G06KT 16/M11

2010/08/08 04:50
EYPA 080450Z 11003KT 5000 BR NSC 20/20 Q1010

2010/08/08 04:50
EYVI 080450Z 09006KT 9999 SCT040CB BKN100 20/17 Q1013 NOSIG

2010/08/08 04:50
HLLB 080450Z 36007KT 9999 SCT015 21/18 Q1014 

2010/08/08 04:50
EYSA 080450Z VRB01KT CAVOK 21/19 Q1011

2010/08/08 04:50
EYKA 080450Z 13005KT 080V160 CAVOK 20/20 Q1012

2010/08/08 04:50
EKVG 080450Z AUTO 16005KT 9999NDV FEW010/// BKN083/// 10/08 Q1017 RMK BKN010/// BKN085/// WIND 850FT 12007KT

2010/08/08 04:45
LMML 080445Z 30004KT 9999 FEW012 20/18 Q1016 NOSIG 

2010/08/08 04:50
EETN 080450Z 13006KT 5000 BR NSC 24/21 Q1012 NOSIG

2010/08/08 04:45
KALN 080445Z AUTO 00000KT 7SM CLR 22/20 A2994

2010/08/08 04:45
KUIL 080445Z AUTO 29005KT 2SM BR OVC002 12/12 A2994

2010/08/08 04:50
CZCP 080450Z AUTO 06014KT 1 3/8SM CLR 07/ A2957

2010/08/08 04:50
KQEN 080450Z AUTO 10005KT 7SM SCT007 BKN026 BKN055 24/20 A3048 RMK A02

2010/08/08 05:00
KQEV 080500Z AUTO 34005KT 7SM CLR 33/18 A2982 RMK A02

2010/08/08 04:45
MMMX 080445Z 00000KT 6SM SCT020 BKN080 BKN200 16/15 A3033 NOSIG RMK 8/463 HZY LWR SC

2010/08/08 05:00
MPTO 080500Z 00000KT 9999 FEW018CB SCT090 26/24 Q1012 NOSIG

2010/08/08 04:50
MSSS 080450Z 00000KT 9999 FEW013 FEW040CB SCT300 23/22 Q1017 A3003 CB LTGIC TO NE

2010/08/08 04:50
LXGB 080450Z 10009KT 9999 FEW012 SCT130 BKN250 24/20 Q1016

2010/08/08 04:48
KEHA 080448Z AUTO 18010KT 26/17 RMK AO1 PK WND 14 000 T02560167

2010/08/08 04:55
KGGE 080455Z AUTO 00000KT 7SM CLR 23/23 A2994 RMK AO2

2010/08/08 04:45
PAPT 080445Z 04004KT 3SM -RA BR BKN006 OVC015 10/10 A2969 RMK NOSPECI

2010/08/08 04:50
KRST 080450Z AUTO 20010KT 8SM VCTS SCT085 24/22 A2978 RMK AO2 TSB44

2010/08/08 04:48
KIGM 080448Z AUTO 13016KT 10SM CLR 26/13 A2994 RMK AO2 SLP063 T02610128 TSNO

2010/08/08 04:48
KEHA 080448Z AUTO 18010KT 26/17 RMK AO1 PK WND 14 000 T02560167

2010/08/08 04:45
KUIL 080445Z AUTO 29005KT 2SM BR OVC002 12/12 A2994 RMK AO2 CIG 001V005 TSNO

2010/08/08 04:50
EYVI 080450Z 09006KT 9999 SCT040CB BKN100 20/17 Q1013 NOSIG

2010/08/08 05:00
LQMO 080500Z 00000KT 9999 FEW045 16/14 Q1015

2010/08/08 04:50
PTKK 080450Z VRB05KT 15SM FEW014CB SCT120 OVC280 32/26 A2974 RMK CB N SLP072 T03190256

2010/08/08 05:00
LEMO 080500Z 00000KT CAVOK 27/14 Q1015 NOSIG

2010/08/08 05:00
SBRB 080500Z 00000KT 5000 FU NSC 21/17 Q1014 

2010/08/08 04:50
PTKK 080450Z VRB05KT 15SM FEW014CB SCT120 OVC280 32/26 A2974 RMK CB N SLP072 T03190256

2010/08/08 04:45
KBYY 080445Z AUTO 00000KT 10SM CLR 27/26 A2991 RMK AO2 T02700260

2010/08/08 04:45
KCPT 080445Z AUTO 16004KT 10SM CLR 29/22 A2989 RMK AO2

2010/08/08 04:45
KCVB 080445Z AUTO 15008KT 10SM CLR 29/21 A2992 RMK AO2 T02880212

2010/08/08 04:45
KCWC 080445Z AUTO 15006KT 10SM CLR 30/22 A2986 RMK AO2 T02970222

2010/08/08 04:45
KDKR 080445Z AUTO 17004KT 10SM CLR 28/24 A2992 RMK AO2

2010/08/08 04:45
KDNV 080445Z AUTO 00000KT 7SM CLR 19/17 A2994 RMK AO2 T01940172

2010/08/08 04:47
KDUX 080447Z AUTO 15009KT 10SM CLR 25/17 A2996 RMK AO2 T02460173

2010/08/08 04:50
KEBG 080450Z AUTO 16008KT 10SM CLR 29/25 A2991 RMK AO2 T02850245

2010/08/08 04:45
KECU 080445Z AUTO 13009KT 10SM CLR 28/18 A3002 RMK AO2

2010/08/08 04:45
KENL 080445Z AUTO 00000KT 7SM CLR 20/17 A2995 RMK AO2 T02030173

2010/08/08 04:45
KFEP 080445Z AUTO 17007KT 10SM CLR 24/20 A2990 RMK AO2 T02360200

2010/08/08 04:45
KFWC 080445Z AUTO 00000KT 7SM CLR 20/18 A2995 RMK AO2

2010/08/08 04:45
KGBG 080445Z AUTO 17006KT 7SM CLR 22/19 A2990 RMK AO2

2010/08/08 04:45
KGOP 080445Z AUTO 00000KT 10SM CLR 28/21 A2992 RMK AO2

2010/08/08 04:45
KGWB 080445Z AUTO 00000KT 7SM CLR 20/16 A2997 RMK AO2

2010/08/08 04:45
KGYB 080445Z AUTO 18005KT 10SM CLR 28/24 A2995 RMK AO2 T02770240

2010/08/08 04:45
KGYI 080445Z AUTO 16007KT 10SM CLR 32/22 A2986 RMK AO2 T03150217

2010/08/08 04:45
KHHF 080445Z AUTO 19016G22KT 10SM CLR 30/20 A2986 RMK AO2 T03000200

2010/08/08 04:45
KHSB 080445Z AUTO 00000KT 7SM CLR 20/16 A2995 RMK AO2

2010/08/08 04:45
KIGQ 080445Z AUTO 19006KT 7SM CLR 22/18 A2991 RMK AO2

2010/08/08 04:45
KIJX 080445Z AUTO 16008KT 7SM CLR 24/19 A2992 RMK AO2 T02380185

2010/08/08 04:45
KINJ 080445Z AUTO 16007KT 10SM CLR 30/20 A2988 RMK AO2 T02980201

2010/08/08 04:45
KJAS 080445Z AUTO 19003KT 10SM CLR 28/25 A2994 RMK AO2 T02770253

2010/08/08 04:45
KJDD 080445Z AUTO 00000KT 10SM CLR 28/24 A2987 RMK AO2

2010/08/08 04:45
KJSO 080445Z AUTO 19005KT 10SM CLR 28/24 A2992 RMK AO2 T02800239

2010/08/08 04:45
KJXI 080445Z AUTO 15005KT 10SM CLR 29/24 A2989 RMK AO2

2010/08/08 04:45
KLBR 080445Z AUTO 00000KT 10SM CLR 27/22 A2987 RMK AO2 T02690222

2010/08/08 04:45
KLNC 080445Z AUTO 19003KT 10SM CLR 28/23 A2986 RMK AO2 T02830225

2010/08/08 04:45
KLOT 080445Z AUTO 20005KT 10SM CLR 21/19 A2990 RMK AO2 T02090187

2010/08/08 04:45
KLUD 080445Z AUTO 17008KT 10SM CLR 31/19 A2987 RMK AO2 T03090192

2010/08/08 04:47
KM30 080447Z AUTO 00000KT 5SM HZ CLR 20/17 A2994 RMK AO2

2010/08/08 04:45
KMDD 080445Z AUTO 18008KT 10SM CLR 30/14 A2995 RMK AO2 T03010136 403850253

2010/08/08 04:45
KPNT 080445Z AUTO 16004KT 7SM CLR 23/18 A2993 RMK AO2

2010/08/08 04:54
KPYX 080454Z AUTO 14007KT 10SM CLR 27/20 A2990 RMK AO2

2010/08/08 04:46
KRCR 080446Z AUTO 17006KT 10SM CLR 23/19 A2996 RMK AO2

2010/08/08 04:45
KRPJ 080445Z AUTO 17005KT 7SM CLR 20/19 A2990 RMK AO2 T02000185

2010/08/08 04:45
KRSV 080445Z AUTO 00000KT 5SM BR CLR 18/18 A2998 RMK AO2 T01830175

2010/08/08 04:45
KMWA 080445Z AUTO 09003KT 7SM CLR 24/17 A2997 RMK AO2 T02410170

2010/08/08 04:45
KPEQ 080445Z AUTO 12010KT 10SM CLR 31/15 A2991 RMK AO2 T03070150

2010/08/08 04:45
KPEZ 080445Z AUTO 15006KT 10SM CLR 28/23 A2992 RMK AO2 T02820229

2010/08/08 04:48
KPKV 080448Z AUTO 17005KT 10SM CLR 26/24 A2991 RMK AO2 T02610237

2010/08/08 04:45
KRAS 080445Z AUTO 16012KT 10SM CLR 29/26 A2993 RMK AO2

2010/08/08 04:45
KRBO 080445Z AUTO 15006KT 10SM CLR 28/25 A2991 RMK AO2 T02760250

2010/08/08 04:45
KRPH 080445Z AUTO 14004KT 10SM CLR 29/20 A2985 RMK AO2 T02900202

2010/08/08 04:45
KRYW 080445Z AUTO 16006KT M1/4SM HZ VV000 28/22 A2994 RMK AO2

2010/08/08 04:45
KSAR 080445Z AUTO 13006KT 5SM HZ CLR 22/19 A2994 RMK AO2

2010/08/08 04:45
KSLO 080445Z AUTO 11003KT 7SM CLR 22/17 A2996 RMK AO2 T02200170

2010/08/08 04:46
KSNK 080446Z AUTO 14009KT 10SM CLR 30/16 A2993 RMK AO2 T02990162

2010/08/08 04:45
KSWW 080445Z AUTO 15009KT 10SM CLR 30/17 A2995 RMK AO1 T02950167

2010/08/08 04:45
KT65 080445Z AUTO 18009KT 10SM CLR 28/25 A2991 RMK AO2 T02810247

2010/08/08 04:45
KT82 080445Z AUTO 16005KT 10SM CLR 27/19 A2996 RMK AO1 T02650191 403500230

2010/08/08 04:45
KTAZ 080445Z AUTO 14006KT 5SM HZ CLR 22/19 A2994 RMK AO2

2010/08/08 04:45
KTIP 080445Z AUTO 15003KT 7SM CLR 21/20 A2996 RMK AO2 T02120198

2010/08/08 04:45
KUIL 080445Z AUTO 29005KT 2SM BR OVC002 12/12 A2994 RMK AO2 CIG 001V005 TSNO

2010/08/08 04:45
KUVA 080445Z AUTO 14007KT 10SM CLR 31/22 A2990 RMK AO2 T03110216

2010/08/08 04:55
KGGE 080455Z AUTO 00000KT 7SM CLR 23/23 A2994 RMK AO2

2010/08/08 04:45
PAPT 080445Z 04004KT 3SM -RA BR BKN006 OVC015 10/10 A2969 RMK NOSPECI

2010/08/08 04:48
KIGM 080448Z AUTO 13016KT 10SM CLR 26/13 A2994 RMK AO2 SLP063 T02610128 TSNO

2010/08/08 04:48
KEHA 080448Z AUTO 18010KT 26/17 RMK AO1 PK WND 14 000 T02560167

2010/08/08 04:48
KBLI 080448Z 16004KT 6SM BR OVC014 17/16 A2989 RMK AO2 RAB0356E33 P0001

2010/08/08 04:49
KEYW 080449Z AUTO 19003KT 10SM BKN021 30/26 A2999 RMK AO2 403220289

2010/08/08 04:49
KPHF 080449Z 00000KT 1 1/2SM BR FEW001 22/22 A3000 RMK AO2 403060211

2010/08/08 04:49
KSHN 080449Z AUTO 23010KT 10SM BKN007 14/14 A2989 RMK AO2

2010/08/08 04:50
KRST 080450Z AUTO 20010KT 8SM VCTS SCT085 24/22 A2978 RMK AO2 TSB44

2010/08/08 04:50
LXGB 080450Z 10009KT 9999 FEW012 SCT130 BKN250 24/20 Q1016

2010/08/08 04:50
EYSA 080450Z VRB01KT CAVOK 21/19 Q1011

2010/08/08 05:00
SBBV 080500Z 03003KT 8000 -RA FEW004 SCT020 FEW025TCU BKN070 24/23 Q1015

2010/08/08 04:45
LMML 080445Z 30004KT 9999 FEW012 20/18 Q1016 NOSIG

2010/08/08 04:45
MMTO 080445Z 00000KT 4SM BKN010TCU BKN070 14/12 A3040 RMK 8/27/ HZ

2010/08/08 04:46
MMAA 080446Z 00000KT 8SM SCT010TCU SCT070 BKN300 26/24 A2990 RMK 60115 8/262

2010/08/08 04:47
MMVR 080447Z 00000KT 7SM SCT012 SCT070 BKN250 28/25 A2993 RMK 8/538

2010/08/08 04:49
KPHF 080449Z 00000KT 1 1/2SM BR FEW001 22/22 A3000

2010/08/08 04:49
KEYW 080449Z AUTO 19003KT 10SM BKN021 30/26 A2999

2010/08/08 04:48
KBLI 080448Z 16004KT 6SM BR OVC014 17/16 A2989

2010/08/08 04:50
HLLB 080450Z 36007KT 9999 SCT015 21/18 Q1014 

2010/08/08 04:50
HLLB 080450Z 36007KT 9999 SCT015 21/18 Q1014 

2010/08/08 04:50
HLLB 080450Z 36007KT 9999 SCT015 21/18 Q1014 

2010/08/08 04:45
LMML 080445Z 30004KT 9999 FEW012 20/18 Q1016 NOSIG 

2010/08/08 04:51
KSAN 080451Z VRB03KT 10SM FEW010 OVC018 17/13 A2993 RMK AO2 SLP135 T01720128 $ 

2010/08/08 04:49
KSHN 080449Z AUTO 23010KT 10SM BKN007 14/14 A2989

2010/08/08 04:49
KPHF 080449Z 00000KT 1 1/2SM BR FEW001 22/22 A3000

2010/08/08 04:49
KEYW 080449Z AUTO 19003KT 10SM BKN021 30/26 A2999

2010/08/08 04:48
KBLI 080448Z 16004KT 6SM BR OVC014 17/16 A2989

2010/08/08 04:51
KORF 080451Z 10004KT 7SM FEW005 25/23 A2999 RMK AO2 SLP156 T02500233 402890228 $ 

2010/08/08 04:51
KP59 080451Z AUTO 23007KT 19/13 A2973 RMK AO2 SLP061 T01890128 402280133 PWINO TSNO $ 

2010/08/08 04:51
KSNT 080451Z AUTO 00000KT 09/04 A3004 RMK AO2 SLP087 T00940039 PWINO TSNO 

2010/08/08 04:51
KBAZ 080451Z AUTO 17009KT 10SM CLR 28/22 A2991 RMK AO2 SLP116 T02830222

2010/08/08 04:51
KHDO 080451Z AUTO 15011KT 10SM CLR 29/22 A2992 RMK AO2 SLP115 T02890222

2010/08/08 04:45
KTYQ 080445Z AUTO 00000KT 4SM BR CLR 17/17 A2999 RMK AO2

2010/08/08 04:46
KXBP 080446Z AUTO 16005KT 10SM CLR 30/20 A2987 RMK AO2 T02990200

2010/08/08 04:50
PGWT 080450Z 09010KT 7SM BKN015CB 32/25 A2980 RMK CB NE MOV W WIND DATA ESTIMATED

2010/08/08 04:50
KONP 080450Z AUTO 00000KT 2 1/2SM BR OVC001 15/14 A2999 RMK AO1

2010/08/08 04:51
KORD 080451Z 20006KT 10SM CLR 23/19 A2990 RMK AO2 SLP120 T02330189

2010/08/08 04:51
KOXR 080451Z AUTO 28003KT 10SM OVC008 16/13 A2989 RMK AO2 SLP121 T01560128

2010/08/08 04:51
KPHX 080451Z 07012KT 10SM FEW055 SCT110 BKN130 BKN160 BKN250 29/21 A2980 RMK AO2 WSHFT 0416 TSB0355E28RAB03E29 SLP072 OCNL LTGIC DSNT NE-E CB DSNT NE-E P0005 T02890206 $

2010/08/08 04:51
KPIT 080451Z 00000KT 10SM FEW250 17/13 A3003 RMK AO2 SLP171 T01670128 402720144

2010/08/08 04:51
KPVD 080451Z 00000KT 10SM FEW250 19/16 A3003 RMK AO2 SLP170 T01890161 402720150

2010/08/08 04:51
KPWM 080451Z AUTO 00000KT 10SM CLR 13/13 A3000 RMK AO2 SLP160 T01330128 402440083 $

2010/08/08 04:51
KRDU 080451Z 06003KT 9SM FEW050 SCT075 24/19 A2999 RMK AO2 SLP151 T02440194 403170222

2010/08/08 04:51
KROW 080451Z AUTO 27004KT 10SM CLR 27/12 A2996 RMK AO2 SLP070 T02670122 TSNO

2010/08/08 04:51
KSJT 080451Z AUTO 17007KT 10SM CLR 32/16 A2991 RMK AO2 SLP097 T03170161

2010/08/08 04:51
KSLK 080451Z AUTO 00000KT 10SM CLR 07/05 A2999 RMK AO2 SLP158 T00670050 401940028

2010/08/08 04:51
KSMO 080451Z AUTO 27003KT 10SM OVC012 16/12 A2990 RMK AO2 SLP125 T01610122

2010/08/08 04:51
KSTL 080451Z 14008KT 8SM CLR 25/18 A2994 RMK AO2 SLP124 T02500183

2010/08/08 04:51
KTEB 080451Z 00000KT 10SM CLR 23/18 A2998 RMK AO2 SLP153 T02280178 402890172

2010/08/08 04:51
KVNY 080451Z 11004KT 10SM CLR 17/12 A2989 RMK AO2 SLP114 T01670117

2010/08/08 04:51
KYNG 080451Z 16006KT 10SM BKN150 BKN250 18/12 A3002 RMK AO2 SLP160 T01830117 402560133

2010/08/08 04:47
K1F0 080447Z AUTO 00000KT 10SM CLR 29/22 A2983 RMK AO2

2010/08/08 04:57
K36U 080457Z AUTO 33004KT 10SM CLR 16/09 A3008 RMK AO2

2010/08/08 04:51
KACT 080451Z 19012KT 10SM CLR 31/21 A2987 RMK AO2 SLP107 T03110206

2010/08/08 04:51
KAHN 080451Z AUTO 00000KT 6SM BR CLR 24/23 A2998 RMK AO2 SLP143 T02440228 403220228

2010/08/08 04:51
KALB 080451Z 00000KT 10SM SCT180 14/11 A3002 RMK AO2 SLP164 T01440111 402500144

2010/08/08 04:51
KASH 080451Z 29004KT 10SM CLR 13/09 A3002 RMK AO2 T01330088 SLP168

2010/08/08 04:51
KAVX 080451Z AUTO 24004KT 3SM BR OVC001 12/12 A2992 RMK AO2 SLPNO T01170117 TSNO

2010/08/08 04:51
KBDL 080451Z 00000KT 10SM CLR 17/12 A3000 RMK AO2 SLP158 T01670117 402780139 $

2010/08/08 04:51
KBGD 080451Z AUTO 17011KT 10SM CLR 28/17 A2992 RMK AO2 SLP079 T02830172

2010/08/08 04:51
KBKW 080451Z AUTO 00000KT 8SM CLR 18/14 A3009 RMK AO2 SLP159 T01780144 402670144

2010/08/08 04:51
KCAK 080451Z 17004KT 10SM SCT150 19/14 A3002 RMK AO2 SLP157 T01890144 402670150

2010/08/08 04:51
KCLE 080451Z 18007KT 10SM BKN250 21/15 A3000 RMK AO2 SLP155 T02060150 402670167

2010/08/08 04:51
KCMH 080451Z 00000KT 10SM CLR 19/17 A3000 RMK AO2 SLP153 T01940167 402830161

2010/08/08 04:51
KCSG 080451Z AUTO 20004KT 10SM CLR 27/22 A2994 RMK AO2 SLP131 T02670217 403670244

2010/08/08 04:51
KDAW 080451Z AUTO 00000KT 10SM CLR 13/09 A3001 RMK AO2 SLP158 T01280094 402500083

2010/08/08 04:50
KDUA 080450Z AUTO 15003KT 10SM BKN070 BKN100 BKN120 29/23 A2986 RMK AO2

2010/08/08 04:52
KDUC 080452Z AUTO 15004KT 10SM CLR 29/22 A2986 RMK AO2

2010/08/08 04:51
KEKN 080451Z AUTO 00000KT 6SM BR BKN070 15/14 A3010 RMK AO2 SLP185 T01500144 402670144 TSNO

2010/08/08 04:51
KELP 080451Z 18007G20KT 10SM FEW100 SCT300 28/13 A3002 RMK AO2 PK WND 18027/0412 WSHFT 0351 SLP083 T02780128

2010/08/08 04:51
KCON 080451Z AUTO 00000KT 10SM CLR 10/09 A3002 RMK AO2 SLP165 T01000089 402560072 

2010/08/08 04:51
KNYC 080451Z AUTO VRB04KT 10SM CLR 23/18 A3003 RMK AO2 SLP157 T02280183 403060200 TSNO 

2010/08/08 04:50
PTRO 080450Z 33005KT 15SM BKN016CB BKN120 OVC300 29/23 A2981 RMK CB VC ALQDS 

2010/08/08 04:49
KY50 080449Z AUTO 19007KT 10SM BKN027 OVC032 23/19 A2981 RMK AO2

2010/08/08 04:51
KERI 080451Z 17008KT 10SM CLR 19/12 A2998 RMK AO2 SLP148 T01940122 402390139

2010/08/08 04:51
KEWR 080451Z 19005KT 10SM CLR 23/18 A3000 RMK AO2 SLP158 T02330183 402940194 $

2010/08/08 04:51
KHTS 080451Z 00000KT 8SM CLR 18/17 A3000 RMK AO2 SLP151 T01830172 402890167

2010/08/08 04:51
KILG 080451Z 20004KT 10SM CLR 23/21 A3001 RMK AO2 SLP161 T02330206 402940167

2010/08/08 04:48
KIZA 080448Z AUTO 25003KT 10SM CLR 13/10 A2990 RMK AO2

2010/08/08 04:51
KJFK 080451Z 21012KT 10SM CLR 23/20 A3001 RMK AO2 SLP163 T02330200 402830178

2010/08/08 04:49
KL35 080449Z AUTO 00000KT 10SM CLR 11/M02 A3013 RMK AO2

2010/08/08 04:51
KLGA 080451Z 18007KT 10SM CLR 24/19 A2999 RMK AO2 SLP156 T02440189 403000222

2010/08/08 04:51
KLGU 080451Z AUTO 22010KT 10SM CLR 19/08 A2993 RMK AO2 SLP077 T01940083

2010/08/08 04:50
KLRU 080450Z AUTO 23013KT 10SM CLR 26/13 A3006 RMK AO2

2010/08/08 04:51
KMDW 080451Z 22006KT 10SM CLR 24/18 A2990 RMK AO2 SLP115 T02440183 $

2010/08/08 04:51
KMPV 080451Z AUTO 00000KT 10SM CLR 09/08 A3004 RMK AO2 SLP175 T00940078 402060056

2010/08/08 04:51
KMYL 080451Z AUTO 00000KT 10SM CLR 17/06 A2993 RMK AO2 SLP092 T01670061

2010/08/08 04:50
KONM 080450Z AUTO 36010KT 10SM CLR 26/13 A3006 RMK AO2 T02560126

2010/08/08 04:50
LSZH 080450Z VRB02KT 9999 FEW070 SCT090 BKN120 13/12 Q1018 NOSIG

2010/08/08 04:50
LSGG 080450Z VRB01KT 9999 FEW070 SCT120 14/12 Q1019 NOSIG

2010/08/08 04:50
LSZB 080450Z VRB03KT 9999 VCSH FEW060 BKN067 14/13 Q1019 NOSIG

2010/08/08 04:50
LSZA 080450Z 01003KT CAVOK 14/14 Q1018 NOSIG

2010/08/08 05:00
LQBK 080500Z 18002KT CAVOK 16/15 Q1017 NOSIG

2010/08/08 04:50
LSMS 080450Z 04003KT 360V100 9999 BKN110 14/09 Q1020

2010/08/08 04:50
LXGB 080450Z 10009KT 9999 FEW012 SCT130 BKN250 24/20 Q1016

2010/08/08 04:51
SEQU 080451Z 15001KT 2000N 5000S BR SCT003 10/09 Q1029 RMK A3039 TEMPO 1000

2010/08/08 05:00
SPIM 080500Z 17006KT 7000 SCT007 OVC013 14/12 Q1016 NOSIG RMK PP000

2010/08/08 04:51
KCRP 080451Z 17006KT 10SM CLR 27/24 A2991 RMK AO2 SLP126 T02670244 

2010/08/08 04:51
KBVE 080451Z AUTO 26006KT 10SM FEW031 SCT045 30/26 A2994 RMK AO2 SLP137 T03000256 TSNO 

2010/08/08 04:51
KSMX 080451Z AUTO 34005KT 10SM OVC008 12/11 A2991 RMK AO2 SLP131 T01220106 TSNO 

2010/08/08 04:51
KJCT 080451Z AUTO 17010KT 10SM CLR 30/18 A2992 RMK AO2 SLP091 T03000183 TSNO 

2010/08/08 04:50
KRST 080450Z AUTO 20010KT 8SM VCTS SCT085 24/22 A2978

2010/08/08 04:51
KDAG 080451Z AUTO 25018KT 10SM CLR 27/00 A2981 RMK AO2 PK WND 24026/0422 SLP066 T02720000 TSNO 

2010/08/08 04:51
KGDP 080451Z AUTO 05003KT 10SM CLR 27/11 A3013 RMK AO2 SLP103 T02670111 TSNO 

2010/08/08 04:51
KABE 080451Z 00000KT 10SM FEW065 18/15 A3001 RMK AO2 SLP159 T01780150 402830139 

2010/08/08 04:51
KATT 080451Z AUTO 18006KT 10SM CLR 29/23 A2991 RMK AO2 SLP111 T02940233 

2010/08/08 05:00
OSDI 080500Z 00000KT CAVOK 26/07 Q1011

2010/08/08 05:00
OSAP 080500Z 27005KT 8000 NSC 28/09 Q1009

2010/08/08 05:00
OSLK 080500Z 03002KT 8000 27/18 Q1009

2010/08/08 05:00
OSDZ 080500Z 34014KT CAVOK 32/08 Q1009

2010/08/08 05:00
OSKL 080500Z 33010KT CAVOK 34/02 Q1007

2010/08/08 04:50
LLBG 080450Z 16002KT 8000 FEW019 28/24 Q1010 NOSIG

2010/08/08 04:50
LLOV 080450Z 28008KT CAVOK 26/20 Q1011

2010/08/08 04:50
LLET 080450Z 02010KT CAVOK 32/18 Q1007

2010/08/08 04:50
LLHA 080450Z 29004KT 9999 SCT020 29/22 Q1010

2010/08/08 04:50
LLIB 080450Z 01002KT 6000 SKC 27/19 Q1011

2010/08/08 04:50
LLSD 080450Z 36002KT 9999 SCT020 29/23 Q1009

2010/08/08 04:50
LSMS 080450Z 04003KT 360V100 9999 BKN110 14/09 Q1020

2010/08/08 04:50
LSZH 080450Z VRB02KT 9999 FEW070 SCT090 BKN120 13/12 Q1018 NOSIG

2010/08/08 04:50
LSGG 080450Z VRB01KT 9999 FEW070 SCT120 14/12 Q1019 NOSIG

2010/08/08 04:50
LSZB 080450Z VRB03KT 9999 VCSH FEW060 BKN067 14/13 Q1019 NOSIG

2010/08/08 04:50
LSZA 080450Z 01003KT CAVOK 14/14 Q1018 NOSIG

2010/08/08 05:00
LQMO 080500Z 00000KT 9999 FEW045 16/14 Q1015

2010/08/08 04:50
KRST 080450Z AUTO 20010KT 8SM VCTS SCT085 24/22 A2978

2010/08/08 04:51
KHSE 080451Z AUTO 07005KT 9SM CLR 24/24 A2997 RMK AO2 SLP147 T02440244 403060239 TSNO 

2010/08/08 04:50
EDDF 080450Z 22006KT CAVOK 17/14 Q1015 NOSIG

2010/08/08 04:50
EDDH 080450Z VRB01KT CAVOK 17/15 Q1014 NOSIG

2010/08/08 04:50
EDDK 080450Z VRB02KT 8000 FEW020 BKN050 BKN110 17/15 Q1014 BECMG 4000 SHRA BKN013CB

2010/08/08 04:50
EDDL 080450Z 01001KT 4000 BR FEW007 SCT018CB BKN021 17/16 Q1014 BECMG 2500 SHRA BKN013CB

2010/08/08 04:50
EDDM 080450Z 16002KT CAVOK 11/10 Q1018 NOSIG

2010/08/08 04:50
EDDN 080450Z 11004KT 9999 FEW040 BKN110 12/12 Q1017 NOSIG

2010/08/08 04:50
EDDS 080450Z 20002KT CAVOK 14/12 Q1017 TEMPO 4000 RA

2010/08/08 04:50
EDDT 080450Z 27004KT CAVOK 17/15 Q1014 NOSIG

2010/08/08 04:50
EDDV 080450Z 31003KT 9999 -RA NSC 16/15 Q1015 NOSIG

2010/08/08 04:50
MSLP 080450Z 04002KT 9999 FEW020 FEW037CB 26/24 Q1013 A2992 CB LTGIC TO SE

2010/08/08 04:47
KNPA 080447Z AUTO 00000KT 10SM TS CLR 27/24 A2991 RMK AO2 TSE00B41

2010/08/08 04:45
KNRB 080445Z AUTO 00000KT 10SM BKN029 26/23 A2994 RMK AO2

2010/08/08 04:55
KQAJ 080455Z 30010KT 9999 CLR 34/01 A2972 RMK SLP048 WND DATA ESTMD ALSTG/SLP ESTMD

2010/08/08 04:55
KQFS 080455Z AUTO VRB06KT 9999 BKN044 33/20 A2984 RMK AO2 SLP100 T03320195 PWINO PNO $

2010/08/08 04:55
KQLE 080455Z 15002KT 9000 DU SKC 33/02 A2972 RMK SLP990 T03310018 PA3127 DA5882 RH14

2010/08/08 04:55
KQW3 080455Z AUTO VRB06KT 9999 FEW025 BKN065 25/21 A2985 RMK AO2 SLP052

2010/08/08 04:50
EDDB 080450Z 19004KT CAVOK 16/15 Q1014 NOSIG

2010/08/08 04:50
EDDC 080450Z 19002KT CAVOK 15/15 Q1015 NOSIG

2010/08/08 04:50
EDDE 080450Z 20006KT CAVOK 14/12 Q1015 NOSIG

2010/08/08 04:50
EDDG 080450Z VRB02KT 2200 1200NW R25/0900VP2000U BCFG MIFG BR FEW030 SCT080 15/15 Q1014 NOSIG

2010/08/08 04:50
EDDP 080450Z 22005KT CAVOK 16/13 Q1014 NOSIG

2010/08/08 04:50
EDDR 080450Z 27007KT CAVOK 16/13 Q1016 NOSIG

2010/08/08 04:50
EDDW 080450Z 19002KT 9999 BKN046 17/16 Q1015 NOSIG

2010/08/08 04:51
SEQU 080451Z 15001KT 2000N 5000S BR SCT003 10/09 Q1029 RMK A3039 TEMPO 1000

2010/08/08 04:52
KCZZ 080452Z AUTO 01003KT 13/09 A2991 RMK AO2 SLP099 T01330089 PWINO TSNO 

2010/08/08 04:52
KP69 080452Z AUTO 00000KT 18/14 A2981 RMK AO2 SLP075 T01830144 PWINO TSNO 

2010/08/08 04:52
KBLU 080452Z AUTO 26003KT 10SM CLR 18/06 A3003 RMK AO2 SLP079 T01830061 TSNO 

2010/08/08 04:52
KN60 080452Z AUTO 00000KT 20/17 A2968 RMK AO1 SLP042 T02000172 

2010/08/08 04:52
KREO 080452Z AUTO 03006KT 22/01 A2985 RMK AO2 SLP067 T02170006 PWINO TSNO 

2010/08/08 04:50
EDDC 080450Z 19002KT CAVOK 15/15 Q1015 NOSIG

2010/08/08 04:50
EDDE 080450Z 20006KT CAVOK 14/12 Q1015 NOSIG

2010/08/08 04:50
EDDF 080450Z 22006KT CAVOK 17/14 Q1015 NOSIG

2010/08/08 04:50
EDDG 080450Z VRB02KT 2200 1200NW R25/0900VP2000U BCFG MIFG BR FEW030 SCT080 15/15 Q1014 NOSIG

2010/08/08 04:50
EDDH 080450Z VRB01KT CAVOK 17/15 Q1014 NOSIG

2010/08/08 04:50
EDDK 080450Z VRB02KT 8000 FEW020 BKN050 BKN110 17/15 Q1014 BECMG 4000 SHRA BKN013CB

2010/08/08 04:50
EDDL 080450Z 01001KT 4000 BR FEW007 SCT018CB BKN021 17/16 Q1014 BECMG 2500 SHRA BKN013CB

2010/08/08 04:50
EDDM 080450Z 16002KT CAVOK 11/10 Q1018 NOSIG

2010/08/08 04:50
EDDN 080450Z 11004KT 9999 FEW040 BKN110 12/12 Q1017 NOSIG

2010/08/08 04:50
EDDP 080450Z 22005KT CAVOK 16/13 Q1014 NOSIG

2010/08/08 04:50
EDDR 080450Z 27007KT CAVOK 16/13 Q1016 NOSIG

2010/08/08 04:50
EDDS 080450Z 20002KT CAVOK 14/12 Q1017 TEMPO 4000 RA

2010/08/08 04:50
EDDT 080450Z 27004KT CAVOK 17/15 Q1014 NOSIG

2010/08/08 04:50
EDDV 080450Z 31003KT 9999 -RA NSC 16/15 Q1015 NOSIG

2010/08/08 04:50
EDDW 080450Z 19002KT 9999 BKN046 17/16 Q1015 NOSIG

2010/08/08 04:50
EKVG 080450Z AUTO 16005KT 9999NDV FEW010/// BKN083/// 10/08 Q1017 RMK BKN010/// BKN085/// WIND 850FT 12007KT

2010/08/08 05:00
LEMO 080500Z 00000KT CAVOK 27/14 Q1015 NOSIG

2010/08/08 04:45
LMML 080445Z 30004KT 9999 FEW012 20/18 Q1016 NOSIG

2010/08/08 05:00
LPLA 080500Z 07005KT 9999 FEW020 20/18 Q1024

2010/08/08 05:00
LQBK 080500Z 18002KT CAVOK 16/15 Q1017 NOSIG

2010/08/08 05:00
LQMO 080500Z 00000KT 9999 FEW045 16/14 Q1015

2010/08/08 04:50
LSGG 080450Z VRB01KT 9999 FEW070 SCT120 14/12 Q1019 NOSIG

2010/08/08 04:50
LSZA 080450Z 01003KT CAVOK 14/14 Q1018 NOSIG

2010/08/08 04:50
LSZB 080450Z VRB03KT 9999 VCSH FEW060 BKN067 14/13 Q1019 NOSIG

2010/08/08 04:50
LSZH 080450Z VRB02KT 9999 FEW070 SCT090 BKN120 13/12 Q1018 NOSIG

2010/08/08 04:50
LXGB 080450Z 10009KT 9999 FEW012 SCT130 BKN250 24/20 Q1016

2010/08/08 04:52
KNHK 080452Z AUTO 00000KT 10SM CLR 22/18 A2999 RMK AO2 SLP157 T02220178 403000200 

2010/08/08 04:52
KABI 080452Z 17006KT 10SM CLR 29/19 A2991 RMK AO2 SLP098 T02890194 $ 

2010/08/08 04:52
KSDB 080452Z AUTO 21006KT 10SM CLR 15/03 A3001 RMK AO2 SLP115 T01500028 TSNO $ 

2010/08/08 04:52
KPHF 080452Z 00000KT 3/4SM BR VV001 21/21 A3000 RMK AO2 403060211 RVRNO

2010/08/08 04:46
PANW 080446Z AUTO 21011KT 10SM SCT008 OVC014 12/09 A2978 RMK AO2 PWINO TSNO $

2010/08/08 04:51
PAVL 080451Z AUTO 29012KT 5SM -RA BR OVC003 10/09 A2958 RMK AO2 P0000 TSNO

2010/08/08 04:52
KCKV 080452Z AUTO 09003KT 7SM CLR 22/18 A2996 RMK AO2 SLP138 T02220178

2010/08/08 04:52
KDCA 080452Z 20005KT 10SM SCT085 24/16 A3000 RMK AO2 SLP160 T02390156 403060200

2010/08/08 04:52
KGLS 080452Z AUTO 19007KT 10SM CLR 30/24 A2992 RMK AO2 SLP132 T03000244

2010/08/08 04:55
KGLY 080455Z AUTO 00000KT 10SM CLR 24/22 A2989 RMK AO2

2010/08/08 04:52
KHRL 080452Z 14006KT 10SM CLR 26/25 A2991 RMK AO2 SLP127 T02610250 $

2010/08/08 04:52
KIAD 080452Z 00000KT 10SM CLR 20/16 A3000 RMK AO2 SLP157 T02000156 402940150

2010/08/08 04:55
KLZZ 080455Z AUTO 16004KT 10SM CLR 28/20 A2991 RMK AO2

2010/08/08 04:55
KMEZ 080455Z AUTO 00000KT 4SM BR CLR 27/25 A2992 RMK AO2 LTG DSNT E

2010/08/08 04:55
KPAN 080455Z AUTO 00000KT 10SM OVC110 19/13 A3013 RMK AO1

2010/08/08 04:55
KPSO 080455Z AUTO 00000KT 10SM -RA SCT034 SCT050 OVC080 15/13 A3030 RMK AO2

2010/08/08 04:47
PALJ 080447Z 00000KT 15SM SCT008 BKN025 OVC040 10/10 A2976 RMK LAST EST PASS CLSD NOSPECI

2010/08/08 04:50
EDDF 080450Z 22006KT CAVOK 17/14 Q1015 NOSIG

2010/08/08 04:50
EDDH 080450Z VRB01KT CAVOK 17/15 Q1014 NOSIG

2010/08/08 04:50
EDDK 080450Z VRB02KT 8000 FEW020 BKN050 BKN110 17/15 Q1014 BECMG 4000 SHRA BKN013CB

2010/08/08 04:50
EDDL 080450Z 01001KT 4000 BR FEW007 SCT018CB BKN021 17/16 Q1014 BECMG 2500 SHRA BKN013CB

2010/08/08 04:50
EDDM 080450Z 16002KT CAVOK 11/10 Q1018 NOSIG

2010/08/08 04:50
EDDN 080450Z 11004KT 9999 FEW040 BKN110 12/12 Q1017 NOSIG

2010/08/08 04:50
EDDS 080450Z 20002KT CAVOK 14/12 Q1017 TEMPO 4000 RA

2010/08/08 04:50
EDDT 080450Z 27004KT CAVOK 17/15 Q1014 NOSIG

2010/08/08 04:50
EDDV 080450Z 31003KT 9999 -RA NSC 16/15 Q1015 NOSIG

2010/08/08 04:50
BGSF 080450Z 05007KT 9999 FEW200 05/02 Q1014

2010/08/08 04:50
BGBW 080450Z AUTO 22002KT 9999NDV -SHRA FEW085/// BKN130/// BKN150/// 11/07 Q1013

2010/08/08 04:50
BGGH 080450Z AUTO 02003KT 9999NDV -RA OVC069/// 11/08 Q1012

2010/08/08 04:50
BGJN 080450Z AUTO VRB01KT 9999NDV NCD 06/01 Q1014

2010/08/08 04:51
KSAN 080451Z VRB03KT 10SM FEW010 OVC018 17/13 A2993 RMK AO2 SLP135 T01720128 $

2010/08/08 04:51
KORF 080451Z 10004KT 7SM FEW005 25/23 A2999 RMK AO2 SLP156 T02500233 402890228 $

2010/08/08 04:51
KSNT 080451Z AUTO 00000KT 09/04 A3004 RMK AO2 SLP087 T00940039 PWINO TSNO

2010/08/08 04:51
KP59 080451Z AUTO 23007KT 19/13 A2973 RMK AO2 SLP061 T01890128 402280133 PWINO TSNO $

2010/08/08 04:51
KNYC 080451Z AUTO VRB04KT 10SM CLR 23/18 A3003 RMK AO2 SLP157 T02280183 403060200 TSNO

2010/08/08 04:51
KCON 080451Z AUTO 00000KT 10SM CLR 10/09 A3002 RMK AO2 SLP165 T01000089 402560072

2010/08/08 04:51
KBVE 080451Z AUTO 26006KT 10SM FEW031 SCT045 30/26 A2994 RMK AO2 SLP137 T03000256 TSNO

2010/08/08 04:51
KCRP 080451Z 17006KT 10SM CLR 27/24 A2991 RMK AO2 SLP126 T02670244

2010/08/08 04:51
KSMX 080451Z AUTO 34005KT 10SM OVC008 12/11 A2991 RMK AO2 SLP131 T01220106 TSNO

2010/08/08 04:51
KJCT 080451Z AUTO 17010KT 10SM CLR 30/18 A2992 RMK AO2 SLP091 T03000183 TSNO

2010/08/08 04:51
KGDP 080451Z AUTO 05003KT 10SM CLR 27/11 A3013 RMK AO2 SLP103 T02670111 TSNO

2010/08/08 04:51
KDAG 080451Z AUTO 25018KT 10SM CLR 27/00 A2981 RMK AO2 PK WND 24026/0422 SLP066 T02720000 TSNO

2010/08/08 04:51
KATT 080451Z AUTO 18006KT 10SM CLR 29/23 A2991 RMK AO2 SLP111 T02940233

2010/08/08 04:51
KABE 080451Z 00000KT 10SM FEW065 18/15 A3001 RMK AO2 SLP159 T01780150 402830139

2010/08/08 04:51
KHSE 080451Z AUTO 07005KT 9SM CLR 24/24 A2997 RMK AO2 SLP147 T02440244 403060239 TSNO

2010/08/08 04:52
KP69 080452Z AUTO 00000KT 18/14 A2981 RMK AO2 SLP075 T01830144 PWINO TSNO

2010/08/08 04:52
KCZZ 080452Z AUTO 01003KT 13/09 A2991 RMK AO2 SLP099 T01330089 PWINO TSNO

2010/08/08 04:52
KBLU 080452Z AUTO 26003KT 10SM CLR 18/06 A3003 RMK AO2 SLP079 T01830061 TSNO

2010/08/08 04:52
KN60 080452Z AUTO 00000KT 20/17 A2968 RMK AO1 SLP042 T02000172

2010/08/08 04:52
KREO 080452Z AUTO 03006KT 22/01 A2985 RMK AO2 SLP067 T02170006 PWINO TSNO

2010/08/08 04:52
KABI 080452Z 17006KT 10SM CLR 29/19 A2991 RMK AO2 SLP098 T02890194 $

2010/08/08 04:52
KSDB 080452Z AUTO 21006KT 10SM CLR 15/03 A3001 RMK AO2 SLP115 T01500028 TSNO $

2010/08/08 04:50
ESGG 080450Z 01004KT 9000 -RA FEW002 BKN080 16/15 Q1013

2010/08/08 04:50
ESGJ 080450Z AUTO 02008KT 8000NDV RA FEW003/// SCT004/// BKN006/// 15/14 Q1013 REDZ

2010/08/08 04:50
ESGP 080450Z 00000KT 8000 BR BKN160 15/15 Q1013

2010/08/08 04:50
ESMK 080450Z AUTO 30008KT 9999NDV SCT058/// BKN077/// 17/15 Q1011

2010/08/08 04:50
ESMQ 080450Z AUTO 35006KT 9999NDV FEW002/// OVC004/// 16/16 Q1010

2010/08/08 04:50
ESMS 080450Z 34006KT 9000 BR BKN096 17/17 Q1012

2010/08/08 04:50
ESMT 080450Z AUTO VRB01KT 9999NDV -RA SCT080/// 16/15 Q1012

2010/08/08 04:50
ESMX 080450Z AUTO 34008KT 300V010 9999NDV OVC005/// 15/14 Q1011

2010/08/08 04:50
ESTA 080450Z AUTO 01004KT 9999NDV SCT100/// 17/16 Q1012

2010/08/08 04:50
ESTL 080450Z AUTO 29005KT 9000NDV BR OVC090/// 16/16 Q1012

2010/08/08 04:46
MMCZ 080446Z 09004KT 7SM FEW015 BKN200 24/24 A2995 RMK 8/408

2010/08/08 04:51
MMMD 080451Z 12006KT 6SM BKN070 OVC300 26/24 A2994 RMK 8/063

2010/08/08 04:46
MMUN 080446Z 08005KT 7SM SCT300 27/25 A2995 RMK 8/008

2010/08/08 04:45
MMVA 080445Z 00000KT 5SM FEW030 27/24 A2987 RMK 8/500

2010/08/08 04:50
EFHK 080450Z 13006KT 110V170 8000 FEW050CB SCT100 BKN160 25/21 Q1013 NOSIG

2010/08/08 04:50
EFJY 080450Z AUTO 00000KT CAVOK 21/19 Q1013

2010/08/08 04:50
EFKU 080450Z AUTO VRB03KT 090V160 CAVOK 23/20 Q1015

2010/08/08 04:50
EFOU 080450Z AUTO 12003KT CAVOK 19/19 Q1015

2010/08/08 04:50
EFRO 080450Z AUTO 05005KT CAVOK 17/16 Q1017

2010/08/08 04:50
EFTP 080450Z VRB01KT CAVOK 22/20 Q1012

2010/08/08 04:50
EFTU 080450Z AUTO 13003KT 100V170 CAVOK 20/19 Q1011

2010/08/08 04:50
EFVA 080450Z AUTO 04005KT 350V070 9999 FEW003 SCT170 ///// Q////

2010/08/08 04:50
EDDB 080450Z 19004KT CAVOK 16/15 Q1014 NOSIG

2010/08/08 04:50
EDDC 080450Z 19002KT CAVOK 15/15 Q1015 NOSIG

2010/08/08 04:50
EDDE 080450Z 20006KT CAVOK 14/12 Q1015 NOSIG

2010/08/08 04:50
EDDG 080450Z VRB02KT 2200 1200NW R25/0900VP2000U BCFG MIFG BR FEW030 SCT080 15/15 Q1014 NOSIG

2010/08/08 04:50
EDDP 080450Z 22005KT CAVOK 16/13 Q1014 NOSIG

2010/08/08 04:50
EDDR 080450Z 27007KT CAVOK 16/13 Q1016 NOSIG

2010/08/08 04:50
EDDW 080450Z 19002KT 9999 BKN046 17/16 Q1015 NOSIG

2010/08/08 04:50
PGWT 080450Z 09010KT 7SM BKN015CB 32/25 A2980 RMK CB NE MOV W WIND DATA ESTIMATED

2010/08/08 04:50
PGWT 080450Z 09010KT 7SM BKN015CB 32/25 A2980 RMK CB NE MOV W WIND DATA ESTIMATED

2010/08/08 04:50
PTRO 080450Z 33005KT 15SM BKN016CB BKN120 OVC300 29/23 A2981 RMK CB VC ALQDS

2010/08/08 05:00
SBMN 080500Z 30005KT CAVOK 28/23 Q1013

2010/08/08 04:51
KSAN 080451Z VRB03KT 10SM FEW010 OVC018 17/13 A2993 RMK AO2 SLP135 T01720128 $

2010/08/08 04:51
KOXR 080451Z AUTO 28003KT 10SM OVC008 16/13 A2989 RMK AO2 SLP121 T01560128

2010/08/08 04:51
KPVD 080451Z 00000KT 10SM FEW250 19/16 A3003 RMK AO2 SLP170 T01890161 402720150

2010/08/08 04:51
KROW 080451Z AUTO 27004KT 10SM CLR 27/12 A2996 RMK AO2 SLP070 T02670122 TSNO

2010/08/08 04:51
KTEB 080451Z 00000KT 10SM CLR 23/18 A2998 RMK AO2 SLP153 T02280178 402890172

2010/08/08 04:51
KYNG 080451Z 16006KT 10SM BKN150 BKN250 18/12 A3002 RMK AO2 SLP160 T01830117 402560133

2010/08/08 04:51
KALB 080451Z 00000KT 10SM SCT180 14/11 A3002 RMK AO2 SLP164 T01440111 402500144

2010/08/08 04:51
KBDL 080451Z 00000KT 10SM CLR 17/12 A3000 RMK AO2 SLP158 T01670117 402780139 $

2010/08/08 04:51
KBKW 080451Z AUTO 00000KT 8SM CLR 18/14 A3009 RMK AO2 SLP159 T01780144 402670144

2010/08/08 04:51
KCAK 080451Z 17004KT 10SM SCT150 19/14 A3002 RMK AO2 SLP157 T01890144 402670150

2010/08/08 04:51
KEKN 080451Z AUTO 00000KT 6SM BR BKN070 15/14 A3010 RMK AO2 SLP185 T01500144 402670144 TSNO

2010/08/08 04:51
KELP 080451Z 18007G20KT 10SM FEW100 SCT300 28/13 A3002 RMK AO2 PK WND 18027/0412 WSHFT 0351 SLP083 T02780128

2010/08/08 04:51
KHTS 080451Z 00000KT 8SM CLR 18/17 A3000 RMK AO2 SLP151 T01830172 402890167

2010/08/08 04:48
KIZA 080448Z AUTO 25003KT 10SM CLR 13/10 A2990 RMK AO2

2010/08/08 04:51
KMYL 080451Z AUTO 00000KT 10SM CLR 17/06 A2993 RMK AO2 SLP092 T01670061

2010/08/08 04:51
KORF 080451Z 10004KT 7SM FEW005 25/23 A2999 RMK AO2 SLP156 T02500233 402890228 $

2010/08/08 04:51
KSNT 080451Z AUTO 00000KT 09/04 A3004 RMK AO2 SLP087 T00940039 PWINO TSNO

2010/08/08 04:51
KP59 080451Z AUTO 23007KT 19/13 A2973 RMK AO2 SLP061 T01890128 402280133 PWINO TSNO $

2010/08/08 04:51
KNYC 080451Z AUTO VRB04KT 10SM CLR 23/18 A3003 RMK AO2 SLP157 T02280183 403060200 TSNO

2010/08/08 04:51
KCON 080451Z AUTO 00000KT 10SM CLR 10/09 A3002 RMK AO2 SLP165 T01000089 402560072

2010/08/08 04:51
KBVE 080451Z AUTO 26006KT 10SM FEW031 SCT045 30/26 A2994 RMK AO2 SLP137 T03000256 TSNO

2010/08/08 04:51
KCRP 080451Z 17006KT 10SM CLR 27/24 A2991 RMK AO2 SLP126 T02670244

2010/08/08 04:51
KSMX 080451Z AUTO 34005KT 10SM OVC008 12/11 A2991 RMK AO2 SLP131 T01220106 TSNO

2010/08/08 04:51
KGDP 080451Z AUTO 05003KT 10SM CLR 27/11 A3013 RMK AO2 SLP103 T02670111 TSNO

2010/08/08 04:51
KATT 080451Z AUTO 18006KT 10SM CLR 29/23 A2991 RMK AO2 SLP111 T02940233

2010/08/08 04:51
KABE 080451Z 00000KT 10SM FEW065 18/15 A3001 RMK AO2 SLP159 T01780150 402830139

2010/08/08 04:51
KHSE 080451Z AUTO 07005KT 9SM CLR 24/24 A2997 RMK AO2 SLP147 T02440244 403060239 TSNO

2010/08/08 04:55
KLZZ 080455Z AUTO 16004KT 10SM CLR 28/20 A2991 RMK AO2

2010/08/08 04:52
KP69 080452Z AUTO 00000KT 18/14 A2981 RMK AO2 SLP075 T01830144 PWINO TSNO

2010/08/08 04:52
KCZZ 080452Z AUTO 01003KT 13/09 A2991 RMK AO2 SLP099 T01330089 PWINO TSNO

2010/08/08 04:52
KBLU 080452Z AUTO 26003KT 10SM CLR 18/06 A3003 RMK AO2 SLP079 T01830061 TSNO

2010/08/08 04:52
KN60 080452Z AUTO 00000KT 20/17 A2968 RMK AO1 SLP042 T02000172

2010/08/08 04:52
KREO 080452Z AUTO 03006KT 22/01 A2985 RMK AO2 SLP067 T02170006 PWINO TSNO

2010/08/08 04:52
KABI 080452Z 17006KT 10SM CLR 29/19 A2991 RMK AO2 SLP098 T02890194 $

2010/08/08 04:52
KSDB 080452Z AUTO 21006KT 10SM CLR 15/03 A3001 RMK AO2 SLP115 T01500028 TSNO $

2010/08/08 04:52
KNHK 080452Z AUTO 00000KT 10SM CLR 22/18 A2999 RMK AO2 SLP157 T02220178 403000200

2010/08/08 04:51
KBAZ 080451Z AUTO 17009KT 10SM CLR 28/22 A2991 RMK AO2 SLP116 T02830222

2010/08/08 04:51
KHDO 080451Z AUTO 15011KT 10SM CLR 29/22 A2992 RMK AO2 SLP115 T02890222

2010/08/08 04:45
KTYQ 080445Z AUTO 00000KT 4SM BR CLR 17/17 A2999 RMK AO2

2010/08/08 04:46
KXBP 080446Z AUTO 16005KT 10SM CLR 30/20 A2987 RMK AO2 T02990200

2010/08/08 04:50
KONP 080450Z AUTO 00000KT 2 1/2SM BR OVC001 15/14 A2999 RMK AO1

2010/08/08 04:51
KORD 080451Z 20006KT 10SM CLR 23/19 A2990 RMK AO2 SLP120 T02330189

2010/08/08 04:51
KPHX 080451Z 07012KT 10SM FEW055 SCT110 BKN130 BKN160 BKN250 29/21 A2980 RMK AO2 WSHFT 0416 TSB0355E28RAB03E29 SLP072 OCNL LTGIC DSNT NE-E CB DSNT NE-E P0005 T02890206 $

2010/08/08 04:51
KPIT 080451Z 00000KT 10SM FEW250 17/13 A3003 RMK AO2 SLP171 T01670128 402720144

2010/08/08 04:51
KPWM 080451Z AUTO 00000KT 10SM CLR 13/13 A3000 RMK AO2 SLP160 T01330128 402440083 $

2010/08/08 04:51
KRDU 080451Z 06003KT 9SM FEW050 SCT075 24/19 A2999 RMK AO2 SLP151 T02440194 403170222

2010/08/08 04:51
KSJT 080451Z AUTO 17007KT 10SM CLR 32/16 A2991 RMK AO2 SLP097 T03170161

2010/08/08 04:51
KSLK 080451Z AUTO 00000KT 10SM CLR 07/05 A2999 RMK AO2 SLP158 T00670050 401940028

2010/08/08 04:51
KSMO 080451Z AUTO 27003KT 10SM OVC012 16/12 A2990 RMK AO2 SLP125 T01610122

2010/08/08 04:51
KSTL 080451Z 14008KT 8SM CLR 25/18 A2994 RMK AO2 SLP124 T02500183

2010/08/08 04:51
KVNY 080451Z 11004KT 10SM CLR 17/12 A2989 RMK AO2 SLP114 T01670117

2010/08/08 04:47
K1F0 080447Z AUTO 00000KT 10SM CLR 29/22 A2983 RMK AO2

2010/08/08 04:57
K36U 080457Z AUTO 33004KT 10SM CLR 16/09 A3008 RMK AO2

2010/08/08 04:51
KACT 080451Z 19012KT 10SM CLR 31/21 A2987 RMK AO2 SLP107 T03110206

2010/08/08 04:51
KAHN 080451Z AUTO 00000KT 6SM BR CLR 24/23 A2998 RMK AO2 SLP143 T02440228 403220228

2010/08/08 04:51
KASH 080451Z 29004KT 10SM CLR 13/09 A3002 RMK AO2 T01330088 SLP168

2010/08/08 04:51
KAVX 080451Z AUTO 24004KT 3SM BR OVC001 12/12 A2992 RMK AO2 SLPNO T01170117 TSNO

2010/08/08 04:51
KBGD 080451Z AUTO 17011KT 10SM CLR 28/17 A2992 RMK AO2 SLP079 T02830172

2010/08/08 04:51
KCLE 080451Z 18007KT 10SM BKN250 21/15 A3000 RMK AO2 SLP155 T02060150 402670167

2010/08/08 04:51
KCMH 080451Z 00000KT 10SM CLR 19/17 A3000 RMK AO2 SLP153 T01940167 402830161

2010/08/08 04:51
KCSG 080451Z AUTO 20004KT 10SM CLR 27/22 A2994 RMK AO2 SLP131 T02670217 403670244

2010/08/08 04:51
KDAW 080451Z AUTO 00000KT 10SM CLR 13/09 A3001 RMK AO2 SLP158 T01280094 402500083

2010/08/08 04:50
KDUA 080450Z AUTO 15003KT 10SM BKN070 BKN100 BKN120 29/23 A2986 RMK AO2

2010/08/08 04:52
KDUC 080452Z AUTO 15004KT 10SM CLR 29/22 A2986 RMK AO2

2010/08/08 04:51
KERI 080451Z 17008KT 10SM CLR 19/12 A2998 RMK AO2 SLP148 T01940122 402390139

2010/08/08 04:51
KEWR 080451Z 19005KT 10SM CLR 23/18 A3000 RMK AO2 SLP158 T02330183 402940194 $

2010/08/08 04:51
KILG 080451Z 20004KT 10SM CLR 23/21 A3001 RMK AO2 SLP161 T02330206 402940167

2010/08/08 04:51
KJFK 080451Z 21012KT 10SM CLR 23/20 A3001 RMK AO2 SLP163 T02330200 402830178

2010/08/08 04:49
KL35 080449Z AUTO 00000KT 10SM CLR 11/M02 A3013 RMK AO2

2010/08/08 04:51
KLGA 080451Z 18007KT 10SM CLR 24/19 A2999 RMK AO2 SLP156 T02440189 403000222

2010/08/08 04:51
KLGU 080451Z AUTO 22010KT 10SM CLR 19/08 A2993 RMK AO2 SLP077 T01940083

2010/08/08 04:50
KLRU 080450Z AUTO 23013KT 10SM CLR 26/13 A3006 RMK AO2

2010/08/08 04:51
KMDW 080451Z 22006KT 10SM CLR 24/18 A2990 RMK AO2 SLP115 T02440183 $

2010/08/08 04:51
KMPV 080451Z AUTO 00000KT 10SM CLR 09/08 A3004 RMK AO2 SLP175 T00940078 402060056

2010/08/08 04:50
KONM 080450Z AUTO 36010KT 10SM CLR 26/13 A3006 RMK AO2 T02560126

2010/08/08 04:51
KJCT 080451Z AUTO 17010KT 10SM CLR 30/18 A2992 RMK AO2 SLP091 T03000183 TSNO

2010/08/08 04:51
KDAG 080451Z AUTO 25018KT 10SM CLR 27/00 A2981 RMK AO2 PK WND 24026/0422 SLP066 T02720000 TSNO

2010/08/08 04:52
KCKV 080452Z AUTO 09003KT 7SM CLR 22/18 A2996 RMK AO2 SLP138 T02220178

2010/08/08 04:52
KDCA 080452Z 20005KT 10SM SCT085 24/16 A3000 RMK AO2 SLP160 T02390156 403060200

2010/08/08 04:52
KGLS 080452Z AUTO 19007KT 10SM CLR 30/24 A2992 RMK AO2 SLP132 T03000244

2010/08/08 04:55
KGLY 080455Z AUTO 00000KT 10SM CLR 24/22 A2989 RMK AO2

2010/08/08 04:52
KHRL 080452Z 14006KT 10SM CLR 26/25 A2991 RMK AO2 SLP127 T02610250 $

2010/08/08 04:52
KIAD 080452Z 00000KT 10SM CLR 20/16 A3000 RMK AO2 SLP157 T02000156 402940150

2010/08/08 04:55
KMEZ 080455Z AUTO 00000KT 4SM BR CLR 27/25 A2992 RMK AO2 LTG DSNT E

2010/08/08 04:55
KPAN 080455Z AUTO 00000KT 10SM OVC110 19/13 A3013 RMK AO1

2010/08/08 04:55
KPSO 080455Z AUTO 00000KT 10SM -RA SCT034 SCT050 OVC080 15/13 A3030 RMK AO2

2010/08/08 04:47
PALJ 080447Z 00000KT 15SM SCT008 BKN025 OVC040 10/10 A2976 RMK LAST EST PASS CLSD NOSPECI

2010/08/08 05:00
MGHT 080500Z 00000KT 9999 OVC020 17/16 QFE 818.7

2010/08/08 05:00
MGPB 080500Z 00000KT 9999 FEW016 25/25 Q1012 A2988

2010/08/08 05:00
MGGT 080500Z 00000KT 9999 SCT014 18/17 Q1025 A3027 VOL. PACAYA EN ACTIVIDAD

2010/08/08 05:00
MGSJ 080500Z 00000KT 9999 FEW018 BKN090 25/24 Q1014 A2994

2010/08/08 04:49
KY50 080449Z AUTO 19007KT 10SM BKN027 OVC032 23/19 A2981 RMK AO2

2010/08/08 04:52
KPHF 080452Z 00000KT 3/4SM BR VV001 21/21 A3000 RMK AO2 403060211 RVRNO

2010/08/08 04:46
PANW 080446Z AUTO 21011KT 10SM SCT008 OVC014 12/09 A2978 RMK AO2 PWINO TSNO $

2010/08/08 04:51
PAVL 080451Z AUTO 29012KT 5SM -RA BR OVC003 10/09 A2958 RMK AO2 P0000 TSNO

2010/08/08 04:50
LLBG 080450Z 16002KT 8000 FEW019 28/24 Q1010 NOSIG

2010/08/08 04:50
LLET 080450Z 02010KT CAVOK 32/18 Q1007

2010/08/08 04:50
LLOV 080450Z 28008KT CAVOK 26/20 Q1011

2010/08/08 04:50
EDDB 080450Z 19004KT CAVOK 16/15 Q1014 NOSIG

2010/08/08 04:50
EDDC 080450Z 19002KT CAVOK 15/15 Q1015 NOSIG

2010/08/08 04:50
EDDG 080450Z VRB02KT 2200 1200NW R25/0900VP2000U BCFG MIFG BR FEW030 SCT080 15/15 Q1014 NOSIG

2010/08/08 04:50
EDDP 080450Z 22005KT CAVOK 16/13 Q1014 NOSIG

2010/08/08 04:50
EDDR 080450Z 27007KT CAVOK 16/13 Q1016 NOSIG

2010/08/08 04:50
EDDT 080450Z 27004KT CAVOK 17/15 Q1014 NOSIG

2010/08/08 04:50
EDDV 080450Z 31003KT 9999 -RA NSC 16/15 Q1015 NOSIG

2010/08/08 04:50
EDDW 080450Z 19002KT 9999 BKN046 17/16 Q1015 NOSIG

2010/08/08 04:51
SEQU 080451Z 15001KT 2000N 5000S BR SCT003 10/09 Q1029 RMK A3039 TEMPO 1000

2010/08/08 04:45
KIJX 080445Z AUTO 16008KT 7SM CLR 24/19 A2992

2010/08/08 04:45
KLOT 080445Z AUTO 20005KT 10SM CLR 21/19 A2990

2010/08/08 04:45
KMWA 080445Z AUTO 09003KT 7SM CLR 24/17 A2997

2010/08/08 04:45
KPNT 080445Z AUTO 16004KT 7SM CLR 23/18 A2993

2010/08/08 04:45
KSAR 080445Z AUTO 13006KT 5SM HZ CLR 22/19 A2994

2010/08/08 04:45
KSLO 080445Z AUTO 11003KT 7SM CLR 22/17 A2996

2010/08/08 04:45
KTAZ 080445Z AUTO 14006KT 5SM HZ CLR 22/19 A2994

2010/08/08 04:45
KTIP 080445Z AUTO 15003KT 7SM CLR 21/20 A2996

2010/08/08 04:50
LSGS 080450Z 04003KT 360V100 9999 BKN110 14/09 Q1020

2010/08/08 04:50
ESGG 080450Z 01004KT 9000 -RA FEW002 BKN080 16/15 Q1013

2010/08/08 04:50
ESGJ 080450Z AUTO 02008KT 8000NDV RA FEW003/// SCT004/// BKN006/// 15/14 Q1013 REDZ

2010/08/08 04:50
ESGP 080450Z 00000KT 8000 BR BKN160 15/15 Q1013

2010/08/08 04:50
ESMK 080450Z AUTO 30008KT 9999NDV SCT058/// BKN077/// 17/15 Q1011

2010/08/08 04:50
ESMQ 080450Z AUTO 35006KT 9999NDV FEW002/// OVC004/// 16/16 Q1010

2010/08/08 04:50
ESMS 080450Z 34006KT 9000 BR BKN096 17/17 Q1012

2010/08/08 04:50
ESMT 080450Z AUTO VRB01KT 9999NDV -RA SCT080/// 16/15 Q1012

2010/08/08 04:50
ESMX 080450Z AUTO 34008KT 300V010 9999NDV OVC005/// 15/14 Q1011

2010/08/08 04:50
ESTA 080450Z AUTO 01004KT 9999NDV SCT100/// 17/16 Q1012

2010/08/08 04:50
ESTL 080450Z AUTO 29005KT 9000NDV BR OVC090/// 16/16 Q1012

2010/08/08 04:50
OAKN 080450Z 12006KT 9000 DU FEW120 BKN180 34/08 Q1006 BLU NOSIG RMK A2972 DA6500

2010/08/08 04:50
HLLB 080450Z 36007KT 9999 SCT015 21/18 Q1014 

2010/08/08 04:50
EFHK 080450Z 13006KT 110V170 8000 FEW050CB SCT100 BKN160 25/21 Q1013 NOSIG

2010/08/08 04:50
EFJY 080450Z AUTO 00000KT CAVOK 21/19 Q1013

2010/08/08 04:50
EFKU 080450Z AUTO VRB03KT 090V160 CAVOK 23/20 Q1015

2010/08/08 04:50
EFOU 080450Z AUTO 12003KT CAVOK 19/19 Q1015

2010/08/08 04:50
EFRO 080450Z AUTO 05005KT CAVOK 17/16 Q1017

2010/08/08 04:50
EFTP 080450Z VRB01KT CAVOK 22/20 Q1012

2010/08/08 04:50
EFTU 080450Z AUTO 13003KT 100V170 CAVOK 20/19 Q1011

2010/08/08 04:50
EFVA 080450Z AUTO 04005KT 350V070 9999 FEW003 SCT170 ///// Q////

2010/08/08 04:50
BGSF 080450Z 05007KT 9999 FEW200 05/02 Q1014

2010/08/08 04:50
BGBW 080450Z AUTO 22002KT 9999NDV -SHRA FEW085/// BKN130/// BKN150/// 11/07 Q1013

2010/08/08 04:50
BGGH 080450Z AUTO 02003KT 9999NDV -RA OVC069/// 11/08 Q1012

2010/08/08 04:50
BGJN 080450Z AUTO VRB01KT 9999NDV NCD 06/01 Q1014

2010/08/08 04:52
K9V9 080452Z AUTO 26003KT 24/20 A2972 RMK AO2 SLP045 T02440200 PWINO TSNO 

2010/08/08 04:48
KEHA 080448Z AUTO 18010KT 26/17

2010/08/08 04:45
KLNC 080445Z AUTO 19003KT 10SM CLR 28/23 A2986

2010/08/08 04:48
KIZA 080448Z AUTO 25003KT 10SM CLR 13/10 A2990

2010/08/08 04:52
KNRB 080452Z AUTO 00000KT 10SM BKN029 BKN036 26/23 A2994 RMK AO2 SLP136 T02610233 403440250 

2010/08/08 05:00
ZMUB 080500Z 34009MPS 9999 BKN033 11/01 Q1013 NOSIG RMK QFE652.5 50

2010/08/08 04:50
EGYP 080450Z 29012KT CAVOK 05/M01 Q1003 BLU

2010/08/08 04:50
EETN 080450Z 13006KT 5000 BR NSC 24/21 Q1012 NOSIG

2010/08/08 04:50
EETU 080450Z 12005KT 5000 BR NSC 22/20 Q1013

2010/08/08 04:50
EFHK 080450Z 13006KT 110V170 8000 FEW050CB SCT100 BKN160 25/21 Q1013 NOSIG

2010/08/08 04:50
EVLA 080450Z AUTO 00000KT 7000 NSC 19/19 Q1010

2010/08/08 04:50
EVRA 080450Z 00000KT 9999 TS SCT037CB OVC074 21/18 Q1011 TEMPO NSW

2010/08/08 04:50
EYKA 080450Z 13005KT 080V160 CAVOK 20/20 Q1012

2010/08/08 04:50
EYPA 080450Z 11003KT 5000 BR NSC 20/20 Q1010

2010/08/08 04:50
EYVI 080450Z 09006KT 9999 SCT040CB BKN100 20/17 Q1013 NOSIG

2010/08/08 04:49
CWZZ 080449Z AUTO ///// 3SM OVC016 OVC047 08/ A2922

2010/08/08 04:47
EGUN 080447Z AUTO 33007KT 9999 FEW005 OVC016 14/14 A3007 RMK AO2 RAB0353E0404 CIG 013V020 CIG 011 RWY11 SLP172

2010/08/08 04:46
EHLW 080446Z AUTO 28003KT 1500NDV BR SCT027 BKN036 BKN050 16/16 Q1014 AMB

2010/08/08 04:50
EHWO 080450Z AUTO 24005KT 4300NDV BR SCT010 BKN014 FEW015TCU OVC016 16/15 Q1015 GRN

2010/08/08 04:46
ETIC 080446Z AUTO 00000KT 0800 FG CLR 09/09 A3004 RMK AO2 SLP170

2010/08/08 04:49
ETOU 080449Z AUTO 00000KT 9999 SCT047 OVC070 17/15 A2999 RMK AO2 RAB0427E0449 SLP153

2010/08/08 04:47
KNPA 080447Z AUTO 00000KT 10SM TS CLR 27/24 A2991 RMK AO2 TSE00B41

2010/08/08 04:49
LFBP 080449Z 27003KT 250V310 9999 BKN009 16/16 Q1021 NOSIG RMK M3

2010/08/08 04:51
SEQU 080451Z 15001KT 2000N 5000S BR SCT003 10/09 Q1029 RMK A3039 TEMPO 1000

2010/08/08 04:50
BGBW 080450Z AUTO 22002KT 9999NDV -SHRA FEW085/// BKN130/// BKN150/// 11/07 Q1013

2010/08/08 04:50
BGGH 080450Z AUTO 02003KT 9999NDV -RA OVC069/// 11/08 Q1012

2010/08/08 04:50
BGJN 080450Z AUTO VRB01KT 9999NDV NCD 06/01 Q1014

2010/08/08 04:50
BGSF 080450Z 05007KT 9999 FEW200 05/02 Q1014

2010/08/08 04:50
EFKU 080450Z AUTO VRB03KT 090V160 CAVOK 23/20 Q1015

2010/08/08 04:50
EFOU 080450Z AUTO 12003KT CAVOK 19/19 Q1015

2010/08/08 04:55
KBLV 080455Z AUTO 00000KT 10SM CLR 22/19 A2994 RMK AO2 SLP135 T02180189

2010/08/08 04:55
KLRF 080455Z AUTO 00000KT 10SM FEW070 26/25 A2991 RMK AO2 SLP126 T02650251

2010/08/08 04:55
KMGE 080455Z AUTO 00000KT 10SM CLR 26/22 A2998 RMK AO2 SLP141 T02590222 403360222 VISNO RWY11 CHINO RWY11 $

2010/08/08 04:55
KRDR 080455Z AUTO 16004KT 9SM R17/5000VP6000FT CLR 21/21 A2964 RMK AO2 SLP051 T02080208 $

2010/08/08 05:00
LEMO 080500Z 00000KT CAVOK 27/14 Q1015 NOSIG

2010/08/08 04:50
LLBG 080450Z 16002KT 8000 FEW019 28/24 Q1010 NOSIG

2010/08/08 04:50
LLET 080450Z 02010KT CAVOK 32/18 Q1007

2010/08/08 04:50
LLOV 080450Z 28008KT CAVOK 26/20 Q1011

2010/08/08 05:00
LPLA 080500Z 07005KT 9999 FEW020 20/18 Q1024

2010/08/08 05:00
LQBK 080500Z 18002KT CAVOK 16/15 Q1017 NOSIG

2010/08/08 04:50
MSAC 080450Z 00000KT 9999 SCT030 SCT100 BKN200 25/25 Q1011 SH NE/SE

2010/08/08 04:50
OAFZ 080450Z VRB03KT 9999 SCT120 33/05 Q1013 BLU/

2010/08/08 05:00
OSAP 080500Z 27005KT 8000 NSC 28/09 Q1009

2010/08/08 05:00
OSDI 080500Z 00000KT CAVOK 26/07 Q1011

2010/08/08 05:00
OSLK 080500Z 03002KT 8000 27/18 Q1009

2010/08/08 04:53
KFAR 080453Z 18004KT 9SM CLR 23/21 A2964 RMK AO2 SLP032 T02330211 

2010/08/08 04:53
KMWT 080453Z AUTO 12004KT 10SM SCT048 SCT055 27/24 A2990 RMK AO2 SLP111 T02720244 TSNO 

2010/08/08 04:51
KVCT 080451Z AUTO 18005KT 10SM CLR 27/26 A2991 RMK AO2 SLP126 T02670256 PNO $ 

2010/08/08 04:53
KMSY 080453Z 25007KT 10SM FEW050 SCT250 29/25 A2993 RMK AO2 SLP137 T02890250 

2010/08/08 04:53
KELY 080453Z AUTO 15021G27KT 10SM CLR 20/04 A3004 RMK AO2 PK WND 15028/0414 SLP060 T02000039 

2010/08/08 04:53
KRIL 080453Z AUTO 00000KT 10SM FEW060 BKN110 17/13 A3015 RMK AO2 SLP142 T01720133 TSNO 

2010/08/08 04:53
KSAV 080453Z 36003KT 8SM FEW015 25/24 A2993 RMK AO2 SLP134 T02500239 403280239 

2010/08/08 04:53
KOQT 080453Z AUTO 00000KT 8SM CLR 22/19 A3000 RMK AO2 SLP140 T02170194 403170194 TSNO 

2010/08/08 04:53
KRQE 080453Z AUTO 21003KT 10SM BKN007 BKN014 15/13 A3022 RMK AO2 CIG 006V011 SLP126 T01500133 TSNO 

2010/08/08 04:53
KLXV 080453Z AUTO 08010KT 3SM -RA BR SCT031 BKN044 OVC065 09/08 A3040 RMK AO2 RAB06 SLP122 P0010 T00890083 TSNO 

2010/08/08 04:53
KOVE 080453Z AUTO 14007KT 10SM CLR 27/13 A2974 RMK AO2 SLP073 T02670128 TSNO $ 

2010/08/08 04:53
KBNO 080453Z AUTO 31008KT 10SM CLR 21/04 A2988 RMK AO2 SLP080 T02110039 TSNO $ 

2010/08/08 04:50
EDDB 080450Z 19004KT CAVOK 16/15 Q1014 NOSIG

2010/08/08 04:50
EGAA 080450Z 15003KT 7000 SCT010 BKN025 10/10 Q1021

2010/08/08 04:50
EGBB 080450Z 33006KT 6000 FEW021 13/11 Q1020

2010/08/08 04:50
EGCC 080450Z 24002KT 6000 BKN006 BKN027 14/14 Q1020

2010/08/08 04:50
EGFF 080450Z 32004KT 9999 BKN030 12/10 Q1021

2010/08/08 04:50
EGGW 080450Z 35007KT 7000 SCT006 BKN017 14/13 Q1019

2010/08/08 04:50
EGKK 080450Z 33006KT 280V340 9999 BKN012 14/13 Q1019

2010/08/08 04:50
EGLC 080450Z AUTO 31004KT 270V350 9999 SCT009/// BKN020/// 15/13 Q1019

2010/08/08 04:50
EGLL 080450Z 31004KT 280V350 9999 FEW012 BKN024 15/13 Q1019

2010/08/08 04:50
EGNM 080450Z 00000KT CAVOK 12/10 Q1020

2010/08/08 04:50
EGNT 080450Z 30002KT 9999 BKN037 12/11 Q1020

2010/08/08 04:50
EGNX 080450Z 31003KT CAVOK 12/10 Q1020

2010/08/08 04:50
EGPD 080450Z 27002KT 9999 BKN045 11/09 Q1020 NOSIG

2010/08/08 04:50
EGPF 080450Z 23005KT 9999 BKN014 11/10 Q1020

2010/08/08 04:50
EGPH 080450Z 27002KT 9999 BKN018 14/11 Q1019

2010/08/08 04:50
EGPK 080450Z 12002KT 9999 FEW045 09/08 Q1020

2010/08/08 04:50
EGSS 080450Z 34007KT 6000 BKN004 14/13 Q1018

2010/08/08 04:50
EKAH 080450Z AUTO 28003KT 2700NDV BR FEW001/// BKN210/// 16/15 Q1014

2010/08/08 04:50
EKCH 080450Z 32009KT 9999 -RA FEW008 BKN045 19/18 Q1012 TEMPO BKN008

2010/08/08 04:50
EKEB 080450Z AUTO 10001KT 2600NDV -SHRA BR OVC022/// 16/15 Q1014

2010/08/08 04:50
EKKA 080450Z 29002KT 4000 MIFG NSC 15/14 Q1014 RMK FEW080 BKN110

2010/08/08 04:50
EKRK 080450Z AUTO 32007KT 9999NDV FEW070/// SCT130/// BKN150/// 18/18 Q1012

2010/08/08 04:50
EKRN 080450Z AUTO 32012KT 9999NDV -SHRA OVC050/// 18/15 Q1011

2010/08/08 04:50
EKSP 080450Z 26001KT 3500 BR BKN026 16/15 Q1014

2010/08/08 04:50
EKVD 080450Z AUTO 27002KT //// ///////// 16/15 Q1015

2010/08/08 04:50
EKYT 080450Z 33004KT 9999 FEW035 BKN150 16/16 Q1014

2010/08/08 04:50
EDDB 080450Z 19004KT CAVOK 16/15 Q1014 NOSIG

2010/08/08 04:50
EDDC 080450Z 19002KT CAVOK 15/15 Q1015 NOSIG

2010/08/08 04:50
EDDE 080450Z 20006KT CAVOK 14/12 Q1015 NOSIG

2010/08/08 04:50
EDDF 080450Z 22006KT CAVOK 17/14 Q1015 NOSIG

2010/08/08 04:50
EDDG 080450Z VRB02KT 2200 1200NW R25/0900VP2000U BCFG MIFG BR FEW030 SCT080 15/15 Q1014 NOSIG

2010/08/08 04:50
EDDH 080450Z VRB01KT CAVOK 17/15 Q1014 NOSIG

2010/08/08 04:50
EDDK 080450Z VRB02KT 8000 FEW020 BKN050 BKN110 17/15 Q1014 BECMG 4000 SHRA BKN013CB

2010/08/08 04:50
EDDL 080450Z 01001KT 4000 BR FEW007 SCT018CB BKN021 17/16 Q1014 BECMG 2500 SHRA BKN013CB

2010/08/08 04:50
EDDM 080450Z 16002KT CAVOK 11/10 Q1018 NOSIG

2010/08/08 04:50
EDDN 080450Z 11004KT 9999 FEW040 BKN110 12/12 Q1017 NOSIG

2010/08/08 04:50
EDDP 080450Z 22005KT CAVOK 16/13 Q1014 NOSIG

2010/08/08 04:50
EDDR 080450Z 27007KT CAVOK 16/13 Q1016 NOSIG

2010/08/08 04:50
EDDS 080450Z 20002KT CAVOK 14/12 Q1017 TEMPO 4000 RA

2010/08/08 04:50
EDDT 080450Z 27004KT CAVOK 17/15 Q1014 NOSIG

2010/08/08 04:50
EDDV 080450Z 31003KT 9999 -RA NSC 16/15 Q1015 NOSIG

2010/08/08 04:50
EDDW 080450Z 19002KT 9999 BKN046 17/16 Q1015 NOSIG

2010/08/08 04:50
EKCH 080450Z 32009KT 9999 -RA FEW008 BKN045 19/18 Q1012 TEMPO BKN008

2010/08/08 04:50
EKKA 080450Z 29002KT 4000 MIFG NSC 15/14 Q1014 RMK FEW080 BKN110

2010/08/08 04:50
EKSP 080450Z 26001KT 3500 BR BKN026 16/15 Q1014

2010/08/08 04:50
EKVD 080450Z AUTO 27002KT //// ///////// 16/15 Q1015

2010/08/08 04:50
EKVG 080450Z AUTO 16005KT 9999NDV FEW010/// BKN083/// 10/08 Q1017 RMK BKN010/// BKN085/// WIND 850FT 12007KT

2010/08/08 04:50
LSGG 080450Z VRB01KT 9999 FEW070 SCT120 14/12 Q1019 NOSIG

2010/08/08 04:50
LSZA 080450Z 01003KT CAVOK 14/14 Q1018 NOSIG

2010/08/08 04:50
LSZB 080450Z VRB03KT 9999 VCSH FEW060 BKN067 14/13 Q1019 NOSIG

2010/08/08 04:50
LSZH 080450Z VRB02KT 9999 FEW070 SCT090 BKN120 13/12 Q1018 NOSIG

2010/08/08 04:53
KMSN 080453Z 19007KT 10SM CLR 23/19 A2984 RMK AO2 SLP097 T02330189 

2010/08/08 04:53
KTCS 080453Z AUTO 30011KT 10SM CLR 26/13 A3004 RMK AO2 SLP076 T02610133 TSNO 

2010/08/08 04:53
KTLH 080453Z 00000KT 10SM CLR 25/24 A2992 RMK AO2 SLP131 T02500239 403440250 

2010/08/08 04:53
KHTL 080453Z AUTO 20008KT 10SM SCT095 BKN120 21/18 A2986 RMK AO2 SLP106 T02110183 402610072 

2010/08/08 05:00
OYSY 080500Z 18006KT 130V250 CAVOK 32/17 Q1007

2010/08/08 05:00
OKBK 080500Z 35008KT 5000 -HZ SKC 38/06 Q0999 NOSIG

2010/08/08 04:53
KTUP 080453Z AUTO 00000KT 6SM BR BKN080 27/25 A2992 RMK AO2 SLP125 T02670250 

2010/08/08 04:53
KMGM 080453Z 12003KT 10SM SCT070 BKN100 OVC250 26/23 A2992 RMK AO2 SLP129 OCNL LTGIC DSNT SW CB DSNT SW T02560233 

2010/08/08 04:53
KTYS 080453Z 00000KT 9SM CLR 22/19 A2997 RMK AO2 SLP135 T02220194 403280206 

2010/08/08 04:53
KDAB 080453Z 00000KT 10SM FEW015 SCT140 OVC250 26/24 A2995 RMK AO2 RAE01 SLP141 P0000 T02610244 403170250 

2010/08/08 04:53
KTRI 080453Z 00000KT 7SM SCT070 19/17 A3002 RMK AO2 SLP150 T01940167 403170178 

2010/08/08 04:53
KMCN 080453Z AUTO 00000KT 10SM CLR 25/23 A2994 RMK AO2 SLP133 T02500233 403330239 TSNO 

2010/08/08 04:53
KBTR 080453Z 24008KT 10SM FEW040 SCT250 28/25 A2992 RMK AO2 SLP130 T02830250 

2010/08/08 04:48
K4O4 080448Z AUTO 11006KT 5SM BKN100 27/23 A2987 RMK AO2 LTG DSNT E

2010/08/08 04:51
KADH 080451Z AUTO 13007KT 10SM CLR 27/20 A2987 RMK AO2

2010/08/08 04:50
KADM 080450Z AUTO 13003KT 10SM CLR 28/23 A2984 RMK AO2

2010/08/08 04:50
KAFK 080450Z AUTO 17007KT 10SM CLR 25/23 A2981 RMK AO2 T02500225

2010/08/08 04:52
KAFN 080452Z AUTO 00000KT 10SM CLR 11/09 A3005 RMK AO2 SLP178 T01110094 402330083

2010/08/08 04:45
KALM 080445Z AUTO 13004KT 10SM CLR 25/12 A2998 RMK AO2

2010/08/08 04:52
KALS 080452Z AUTO VRB03KT 10SM FEW100 18/09 A3024 RMK AO2 PK WND 27026/0353 LTG DSNT NE TSB11E40RAE12 SLP131 P0000 T01780089 $

2010/08/08 04:50
KANW 080450Z AUTO 17003KT 10SM CLR 23/17 A2980 RMK AO2 T02330167

2010/08/08 04:52
KAQW 080452Z AUTO 00000KT 9SM CLR 10/09 A3004 RMK AO2 SLP173 T01000094 402390100

2010/08/08 04:52
KARR 080452Z AUTO 19005KT 8SM CLR 22/18 A2991 RMK AO2 SLP122 T02220183

2010/08/08 04:52
KATL 080452Z 00000KT 9SM CLR 26/23 A2997 RMK AO2 SLP138 T02610228 403280222

2010/08/08 04:50
KATS 080450Z AUTO 26007KT 10SM CLR 27/14 A2995 RMK AO2

2010/08/08 04:50
KAUH 080450Z AUTO 17008KT 10SM CLR 27/20 A2980 RMK AO2 T02650200

2010/08/08 04:50
KAUN 080450Z AUTO 17004KT 10SM CLR 23/11 A2982 RMK AO1

2010/08/08 04:50
KAXS 080450Z AUTO 18008KT 10SM CLR 29/21 A2986 RMK AO2 T02930207

2010/08/08 04:50
KAXX 080450Z AUTO 26003KT 10SM SCT100 12/11 A3033 RMK AO2

2010/08/08 04:52
KBDR 080452Z 23006KT 10SM CLR 23/20 A3000 RMK AO2 SLP160 T02330200 402780178

2010/08/08 04:50
KBIE 080450Z AUTO 16008KT 10SM CLR 27/22 A2980 RMK AO2 T02710222

2010/08/08 04:52
KBIS 080452Z AUTO 04004KT 10SM CLR 22/18 A2969 RMK AO2 SLP043 T02220178

2010/08/08 04:52
KBLF 080452Z AUTO 16003KT 10SM CLR 20/16 A3011 RMK AO2 SLP158 T02000156 402780167

2010/08/08 04:52
KBLH 080452Z AUTO 19015KT 10SM CLR 34/08 A2970 RMK AO2 SLP050 T03440078

2010/08/08 04:52
KBML 080452Z AUTO 00000KT 3SM BR BKN001 07/06 A3003 RMK AO2 CIG 001V004 SLP172 T00670056 402000022

2010/08/08 04:50
KBTA 080450Z AUTO 17010G14KT 10SM CLR 27/22 A2979 RMK AO2 T02670215

2010/08/08 04:50
KBVN 080450Z AUTO 14003KT 10SM CLR 25/22 A2978 RMK AO2 T02450217

2010/08/08 04:45
KBVS 080445Z AUTO 12003KT 2 1/2SM BKN008 OVC017 17/17 A2991 RMK A01 P001

2010/08/08 04:52
KCFV 080452Z AUTO 11004KT 8SM CLR 27/24 A2986 RMK AO2 SLP104 T02670239

2010/08/08 04:50
KCHK 080450Z AUTO 14005KT 10SM CLR 28/22 A2985 RMK AO2

2010/08/08 04:52
KCID 080452Z AUTO 18008KT 6SM BR CLR 22/21 A2985 RMK AO2 SLP101 T02220211 $

2010/08/08 04:50
KCLK 080450Z AUTO 15006KT 10SM CLR 29/18 A2985 RMK AO2

2010/08/08 04:52
KCLT 080452Z 06005KT 9SM CLR 25/19 A3000 RMK AO2 SLP149 T02500194 403170206

2010/08/08 04:52
KCNU 080452Z AUTO 15005KT 10SM CLR 26/23 A2987 RMK AO2 SLP102 T02610233

2010/08/08 04:50
KCQB 080450Z AUTO 13005KT 10SM 27/24 A2986 RMK AO2 TSNO

2010/08/08 04:52
KCQX 080452Z AUTO 18005KT 10SM CLR 21/18 A3005 RMK AO2 SLP177 T02060183 402560139

2010/08/08 04:50
KCUH 080450Z AUTO 16005KT 10SM CLR 29/23 A2985 RMK AO2

2010/08/08 04:52
KCVG 080452Z 18003KT 10SM CLR 21/15 A2999 RMK AO2 SLP147 T02110150 403000156

2010/08/08 04:52
KDDC 080452Z AUTO 16008KT 10SM CLR 27/18 A2985 RMK AO2 SLP070 T02670178

2010/08/08 04:52
KDPA 080452Z 18005KT 9SM CLR 22/19 A2990 RMK AO2 SLP119 T02170189

2010/08/08 04:52
KDVN 080452Z AUTO 19007KT 7SM CLR 23/19 A2988 RMK AO2 SLP111 T02330189

2010/08/08 04:50
KDVO 080450Z AUTO 06003KT 10SM CLR 14/12 A2984 RMK AO2

2010/08/08 04:52
KEST 080452Z AUTO 19012KT 9SM CLR 24/22 A2975 RMK AO2 SLP065 T02440222

2010/08/08 04:50
KFET 080450Z AUTO 16011KT 10SM CLR 27/22 A2977 RMK AO2 T02720215

2010/08/08 04:52
KFIT 080452Z AUTO 33003KT 10SM CLR 14/11 A3003 RMK AO2 SLP168 T01390106 402670111

2010/08/08 04:54
KGCD 080454Z AUTO 00000KT 10SM CLR 22/08 A2991 RMK AO2 T02180080

2010/08/08 04:51
KGCM 080451Z AUTO 11006KT 7SM CLR 25/23 A2990 RMK AO2

2010/08/08 04:51
KGMJ 080451Z AUTO 00000KT 10SM CLR 25/22 A2989 RMK AO2

2010/08/08 04:50
KHDE 080450Z AUTO 15005KT 10SM CLR 25/21 A2982 RMK AO2 T02500208

2010/08/08 04:52
KHIE 080452Z AUTO 00000KT 10SM CLR 08/07 A3001 RMK AO2 RAB0355E07 SLP166 P0000 T00780072 402000044

2010/08/08 04:53
KCCR 080453Z AUTO 20015KT 10SM CLR 16/10 A2980 RMK AO2 SLP078 T01560100 TSNO

2010/08/08 04:55
KCDN 080455Z AUTO 00000KT 5SM BR CLR 26/25 A2997 RMK A02 P000

2010/08/08 04:53
KCHO 080453Z AUTO 00000KT 10SM CLR 18/16 A3002 RMK AO2 SLP158 T01830156 403060161 TSNO

2010/08/08 04:55
KCKI 080455Z AUTO 00000KT 23/23 A2994 RMK AO2 PWINO

2010/08/08 04:53
KCLL 080453Z AUTO 18005KT 10SM CLR 29/23 A2990 RMK AO2 SLP120 T02940228

2010/08/08 04:53
KCLM 080453Z AUTO 31003KT 2SM BR OVC001 14/14 A2992 RMK AO2 SLP131 T01440139

2010/08/08 04:53
KCMI 080453Z AUTO 16004KT 7SM CLR 19/17 A2996 RMK AO2 SLP141 T01890172

2010/08/08 04:53
KCMX 080453Z AUTO 07007KT 10SM FEW050 BKN090 17/14 A2974 RMK AO2 SLP067 T01720139 402610089

2010/08/08 04:53
KCNM 080453Z AUTO 16006KT 10SM FEW110 28/14 A2994 RMK AO2 SLP075 T02780144 $

2010/08/08 04:53
KCNO 080453Z 26005KT 9SM CLR 16/12 A2991 RMK AO2 SLP123 T01560122

2010/08/08 04:53
KCOT 080453Z AUTO 14008G14KT 10SM CLR 29/23 A2988 RMK AO2 SLP110 T02890233

2010/08/08 04:53
KCPS 080453Z AUTO 15005KT 7SM HZ CLR 22/18 A2993 RMK AO2 SLP132 T02170183

2010/08/08 04:51
KCRP 080451Z 17006KT 10SM CLR 27/24 A2991 RMK AO2 SLP126 T02670244

2010/08/08 04:53
KCRQ 080453Z AUTO 00000KT 10SM OVC014 17/13 A2991 RMK AO2 SLP126 T01720128 TSNO

2010/08/08 04:53
KCSV 080453Z AUTO 00000KT 6SM BR CLR 21/18 A3004 RMK AO2 SLP149 T02060183

2010/08/08 04:53
KCXO 080453Z AUTO 00000KT 10SM CLR 26/24 A2991 RMK AO2 SLP126 T02610239 TSNO

2010/08/08 04:51
KDAG 080451Z AUTO 25018KT 10SM CLR 27/00 A2981 RMK AO2 PK WND 24026/0422 SLP066 T02720000 TSNO

2010/08/08 04:53
KDBQ 080453Z AUTO 20009KT 8SM CLR 22/19 A2986 RMK AO2 SLP106 T02170194

2010/08/08 04:53
KDCU 080453Z AUTO 00000KT 10SM CLR 23/19 A2994 RMK AO2 SLP131 T02330194 $

2010/08/08 04:53
KDEW 080453Z AUTO 23003KT 10SM CLR 22/07 A2979 RMK AO2 SLP074 T02170072

2010/08/08 04:53
KDHT 080453Z AUTO 18009KT 10SM CLR 24/17 A2998 RMK AO2 SLP084 T02390172

2010/08/08 04:53
KDLS 080453Z AUTO 31011G17KT 10SM BKN100 23/13 A2984 RMK AO2 SLP101 T02280128

2010/08/08 04:53
KDMN 080453Z AUTO 27007KT 10SM CLR 26/13 A3004 RMK AO2 SLP086 T02610128

2010/08/08 04:53
KDMO 080453Z AUTO 16005KT 10SM CLR 25/21 A2990 RMK AO2 SLP116 T02500206

2010/08/08 04:53
KDNL 080453Z AUTO 00000KT 10SM CLR 27/23 A2996 RMK AO2 SLP139 T02670228 403220228 $

2010/08/08 04:53
KDRT 080453Z AUTO 12009KT 10SM FEW100 31/18 A2985 RMK AO2 SLP090 T03110178

2010/08/08 04:53
KDWH 080453Z 18004KT 10SM CLR 28/24 A2991 RMK AO2 SLP126 T02780244

2010/08/08 04:55
KDYB 080455Z AUTO 00000KT 5SM BR CLR 23/23 A2994 RMK AO1

2010/08/08 04:53
KEET 080453Z AUTO 00000KT 8SM OVC110 28/24 A2992 RMK AO2 SLP124 T02780239

2010/08/08 04:53
KELN 080453Z AUTO 31009KT 10SM SCT110 17/12 A2986 RMK AO2 RAE17 SLP102 P0000 T01720122

2010/08/08 04:53
KEMP 080453Z AUTO 16009KT 8SM CLR 26/22 A2985 RMK AO2 SLP097 T02610217

2010/08/08 04:53
KENW 080453Z AUTO 21007KT 9SM CLR 23/19 A2987 RMK AO2 SLP110 T02280189

2010/08/08 04:53
KEPH 080453Z AUTO 30022G26KT 10SM SCT085 OVC100 22/11 A2976 RMK AO2 PK WND 30027/0439 SLP070 T02170106

2010/08/08 04:53
KEQY 080453Z AUTO 05005KT 8SM CLR 23/21 A2999 RMK AO2 SLP150 T02330206 403110222

2010/08/08 04:53
KESF 080453Z AUTO 00000KT 10SM CLR 26/24 A2991 RMK AO2 SLP126 T02560244

2010/08/08 04:53
KFAT 080453Z 31011KT 10SM CLR 27/10 A2975 RMK AO2 SLP070 T02720100

2010/08/08 04:53
KFAY 080453Z AUTO 07004KT 10SM CLR 23/21 A2996 RMK AO2 SLP140 T02330206 403390228

2010/08/08 04:53
KFCM 080453Z AUTO 21008KT 10SM CLR 27/21 A2969 RMK AO2 LTG DSNT N SLP047 T02670211

2010/08/08 04:53
KFFC 080453Z AUTO 00000KT 5SM BR CLR 23/22 A2997 RMK AO2 SLP142 T02330217 403390222

2010/08/08 04:53
KFHR 080453Z AUTO 00000KT 1/4SM FG VV001 16/15 A2990 RMK AO2 RAE0354 SLP126 T01560150

2010/08/08 04:53
KFMN 080453Z AUTO 10005KT 10SM -RA OVC100 16/14 A3014 RMK AO2 RAE03B19 SLP153 P0000 T01610144

2010/08/08 04:53
KFNB 080453Z AUTO 15006KT 9SM CLR 25/23 A2982 RMK AO2 SLP085 T02500233

2010/08/08 04:53
KFOE 080453Z AUTO 15007KT 10SM CLR 27/23 A2985 RMK AO2 SLP093 T02670228

2010/08/08 04:53
KFSM 080453Z 07006KT 10SM BKN060 26/24 A2987 RMK AO2 SLP108 T02610239

2010/08/08 04:53
KFST 080453Z AUTO 15014G21KT 10SM CLR 28/16 A2995 RMK AO2 SLP085 T02830156

2010/08/08 04:53
KFTY 080453Z 00000KT 5SM BR CLR 24/23 A2997 RMK AO2 SLP136 T02440228 403390228

2010/08/08 04:53
KFUL 080453Z 18003KT 10SM CLR 17/12 A2989 RMK AO2 SLP122 T01670122

2010/08/08 04:53
KFYV 080453Z AUTO 00000KT 10SM CLR 23/22 A2992 RMK AO2 SLP116 T02330217

2010/08/08 04:53
KGAG 080453Z AUTO 17012KT 10SM CLR 29/19 A2986 RMK AO2 SLP077 T02890194

2010/08/08 04:53
KGEG 080453Z 23007KT 10SM BKN140 OVC200 22/08 A2981 RMK AO2 SLP078 T02170078

2010/08/08 04:53
KGFK 080453Z 15003KT 10SM CLR 22/20 A2963 RMK AO2 SLP030 T02220200

2010/08/08 04:53
KGLD 080453Z AUTO 00000KT 10SM CLR 23/20 A2991 RMK AO2 SLP077 T02330200

2010/08/08 04:53
KGLH 080453Z AUTO 00000KT 6SM BR CLR 26/24 A2990 RMK AO2 SLP130 T02560244

2010/08/08 04:53
KGLR 080453Z AUTO 22009KT 10SM FEW090 21/18 A2984 RMK AO2 SLP097 T02060178 402560072

2010/08/08 04:53
KGMU 080453Z AUTO 36005KT 8SM CLR 25/20 A3001 RMK AO2 SLP151 T02500200 403170217

2010/08/08 04:53
KGPT 080453Z AUTO 00000KT 10SM CLR 30/26 A2990 RMK AO2 LTG DSNT NE AND E SLP126 T03000261

2010/08/08 04:53
KIPL 080453Z AUTO 27003KT 10SM CLR 31/02 A2969 RMK AO2 SLP055 T03110017

2010/08/08 04:53
KIXD 080453Z AUTO 15006KT 10SM CLR 26/21 A2988 RMK AO2 SLP102 T02560211

2010/08/08 04:53
KJBR 080453Z AUTO 05003KT 10SM CLR 25/20 A2991 RMK AO2 SLP125 T02500200

2010/08/08 04:51
KJCT 080451Z AUTO 17010KT 10SM CLR 30/18 A2992 RMK AO2 SLP091 T03000183 TSNO

2010/08/08 04:53
KJEF 080453Z AUTO 12004KT 10SM CLR 25/22 A2990 RMK AO2 SLP110 T02500217

2010/08/08 04:53
KJLN 080453Z 16005KT 9SM CLR 26/23 A2989 RMK AO2 SLP110 T02560233

2010/08/08 04:55
KJZI 080455Z AUTO 00000KT 5SM BR CLR 24/24 A2994 RMK A02 P000

2010/08/08 04:53
KLBF 080453Z AUTO 11006KT 10SM CLR 22/21 A2984 RMK AO2 SLP071 T02220211

2010/08/08 04:53
KLBX 080453Z AUTO 00000KT 8SM CLR 26/26 A2992 RMK AO2 SLP132 T02610256 $

2010/08/08 04:53
KLCH 080453Z AUTO 00000KT 10SM CLR 28/26 A2992 RMK AO2 SLP139 T02780256 $

2010/08/08 04:53
KLFK 080453Z AUTO 14004KT 10SM CLR 28/24 A2990 RMK AO2 SLP120 T02830244

2010/08/08 04:53
KLFT 080453Z AUTO 21003KT 10SM CLR 27/24 A2993 RMK AO2 SLP134 T02720244

2010/08/08 04:53
KLGB 080453Z AUTO 31005KT 10SM CLR 17/12 A2990 RMK AO2 SLP125 T01670122 TSNO

2010/08/08 04:53
KLIT 080453Z 00000KT 10SM BKN055 BKN250 27/24 A2991 RMK AO2 SLP129 OCNL LTG DSNT S T02720244

2010/08/08 04:55
KLKR 080455Z AUTO 00000KT 3SM BR CLR 22/22 A2998 RMK AO2

2010/08/08 04:53
KLLQ 080453Z AUTO 00000KT 10SM CLR 27/25 A2992 RMK AO2 SLP127 T02720250

2010/08/08 04:53
KLMT 080453Z 29005KT 10SM FEW100 18/08 A2996 RMK AO2 SLP106 T01830078

2010/08/08 04:53
KLOL 080453Z AUTO 00000KT 10SM CLR 25/01 A2983 RMK AO2 SLP053 T02500006

2010/08/08 04:53
KLSE 080453Z AUTO 19012KT 10SM CLR 25/22 A2975 RMK AO2 SLP064 T02500222

2010/08/08 04:53
KLVJ 080453Z AUTO 00000KT 10SM CLR 28/24 A2993 RMK AO2 SLP135 T02830244

2010/08/08 04:53
KLVK 080453Z 29009KT 10SM CLR 14/11 A2983 RMK AO2 SLP098 T01390106

2010/08/08 04:53
KLWD 080453Z AUTO 18007KT 10SM CLR 24/21 A2987 RMK AO2 SLP104 T02440206

2010/08/08 04:53
KLXT 080453Z AUTO 16006KT 10SM CLR 27/21 A2988 RMK AO2 SLP106 T02670211

2010/08/08 04:53
KMAE 080453Z AUTO 30005KT 10SM CLR 22/11 A2976 RMK AO2 SLP075 T02170111 $

2010/08/08 04:55
KMAO 080455Z AUTO 00000KT 5SM BR CLR 23/23 A2995 RMK AO2

2010/08/08 04:53
KMCB 080453Z AUTO 00000KT 8SM CLR 25/23 A2993 RMK AO2 SLP129 T02500228

2010/08/08 04:53
KMCE 080453Z AUTO 26008KT 10SM CLR 20/11 A2975 RMK AO2 PK WND 24028/0414 SLP074 T02000111 $

2010/08/08 04:53
KMCI 080453Z 17008KT 10SM FEW250 27/21 A2986 RMK AO2 SLP098 T02670211

2010/08/08 04:53
KMCW 080453Z AUTO 20011KT 8SM CLR 24/22 A2979 RMK AO2 SLP075 T02440217

2010/08/08 04:53
KMEM 080453Z 19003KT 10SM FEW070 28/24 A2992 RMK AO2 SLP125 T02780244 $

2010/08/08 04:53
KMFE 080453Z 14009KT 10SM CLR 28/24 A2991 RMK AO2 SLP127 T02780244 $

2010/08/08 04:53
KMFR 080453Z AUTO 35005KT 10SM CLR 23/11 A2987 RMK AO2 SLP106 T02330111

2010/08/08 04:53
KMGW 080453Z AUTO 00000KT 10SM CLR 18/16 A3006 RMK AO2 SLP170 T01830156 402830144

2010/08/08 04:53
KMHE 080453Z AUTO 23004KT 10SM CLR 26/22 A2969 RMK AO2 SLP040 T02560222 TSNO

2010/08/08 04:53
KMIW 080453Z AUTO 20010KT 10SM CLR 25/21 A2982 RMK AO2 SLP090 T02500211

2010/08/08 04:53
KMKL 080453Z AUTO 00000KT 10SM CLR 23/21 A2993 RMK AO2 SLP130 T02280206

2010/08/08 04:53
KMLP 080453Z AUTO 24005KT 10SM CLR 14/04 A2999 RMK AO2 SLP062 T01440044 TSNO

2010/08/08 04:53
KMMV 080453Z AUTO 22006KT 10SM BKN065 18/14 A2992 RMK AO2 SLP131 T01830144

2010/08/08 04:53
KMOD 080453Z AUTO 31008KT 10SM CLR 24/13 A2974 RMK AO2 SLP071 T02440133

2010/08/08 04:53
KMRB 080453Z AUTO 00000KT 10SM CLR 18/15 A3001 RMK AO2 SLP158 T01830150 403060133

2010/08/08 04:53
KMSL 080453Z AUTO 00000KT 10SM CLR 24/21 A2994 RMK AO2 SLP132 T02390206

2010/08/08 04:53
KMSP 080453Z 21009KT 9SM BKN050 28/22 A2970 RMK AO2 SLP050 FRQ LTGIC DSNT N-NE T02780217

2010/08/08 04:53
KMSY 080453Z 25007KT 10SM FEW050 SCT250 29/25 A2993 RMK AO2 SLP137 T02890250

2010/08/08 04:53
KMTO 080453Z AUTO 17004KT 8SM CLR 21/18 A2996 RMK AO2 SLP140 T02060183

2010/08/08 04:53
KMYF 080453Z AUTO 21004KT 10SM BKN015 16/13 A2992 RMK AO2 SLP129 T01610128 TSNO

2010/08/08 04:53
KMYV 080453Z AUTO 15008KT 10SM CLR 23/13 A2972 RMK AO2 SLP068 T02280133

2010/08/08 04:53
KNEW 080453Z AUTO 24010KT 10SM CLR 31/25 A2993 RMK AO2 SLP129 T03060250 TSNO

2010/08/08 04:53
KOAK 080453Z 26012KT 10SM FEW005 BKN008 15/12 A2987 RMK AO2 SLP115 T01500117

2010/08/08 04:53
KODX 080453Z AUTO 20005KT 10SM CLR 24/22 A2978 RMK AO2 SLP071 T02390222

2010/08/08 04:53
KOJC 080453Z AUTO 17007KT 10SM CLR 26/22 A2987 RMK AO2 SLP099 T02560217

2010/08/08 04:53
KOMK 080453Z AUTO 31010KT 10SM BKN090 21/11 A2978 RMK AO2 SLP077 T02060111

2010/08/08 04:51
KORF 080451Z 10004KT 7SM FEW005 25/23 A2999 RMK AO2 SLP156 T02500233 402890228 $

2010/08/08 04:53
KOSH 080453Z AUTO 22011G20KT 10SM CLR 24/18 A2979 RMK AO2 SLP073 T02390178

2010/08/08 04:53
KOTM 080453Z AUTO 19007KT 5SM BR CLR 23/22 A2986 RMK AO2 SLP103 T02330217

2010/08/08 04:53
KOVS 080453Z AUTO 25003KT 10SM CLR 23/20 A2981 RMK AO2 SLP090 T02330200

2010/08/08 04:53
KOXB 080453Z AUTO 00000KT 9SM CLR 22/22 A3001 RMK AO2 SLP161 T02170217 402780178

2010/08/08 04:53
KPAE 080453Z AUTO 18008KT 10SM OVC018 17/15 A2991 RMK AO2 SLP127 T01670150

2010/08/08 04:53
KPAH 080453Z AUTO 00000KT 7SM CLR 24/17 A2993 RMK AO2 SLP131 T02390167

2010/08/08 04:53
KPBF 080453Z AUTO 09003KT 9SM CLR 26/24 A2991 RMK AO2 SLP124 T02560244

2010/08/08 04:53
KPDK 080453Z AUTO 00000KT 10SM CLR 25/22 A2998 RMK AO2 SLP131 T02500222 403390222 $

2010/08/08 04:53
KPDT 080453Z AUTO 27017G25KT 10SM CLR 22/08 A2982 RMK AO2 SLP081 T02170083

2010/08/08 04:53
KPDX 080453Z 32007KT 10SM FEW020 SCT040 OVC060 19/15 A2992 RMK AO2 SLP131 T01890150

2010/08/08 04:53
KPIL 080453Z AUTO 16009KT 10SM CLR 30/26 A2992 RMK AO2 SLP130 T03000256

2010/08/08 04:53
KPIR 080453Z AUTO 29003KT 10SM CLR 24/17 A2970 RMK AO2 SLP039 T02390172

2010/08/08 04:53
KPKD 080453Z AUTO 00000KT 10SM CLR 19/17 A2968 RMK AO2 SLP046 T01940167

2010/08/08 04:53
KGRB 080453Z AUTO 18005KT 7SM CLR 22/20 A2979 RMK AO2 SLP083 T02170200 $

2010/08/08 04:53
KGRI 080453Z AUTO 18009KT 10SM CLR 26/21 A2980 RMK AO2 SLP072 T02610211

2010/08/08 04:53
KGRR 080453Z AUTO 20007KT 9SM CLR 23/18 A2990 RMK AO2 SLP120 T02280178 402940144 $

2010/08/08 04:53
KGSH 080453Z AUTO 18003KT 8SM CLR 20/17 A2996 RMK AO2 SLP139 T02000172 402830144

2010/08/08 04:53
KGSP 080453Z AUTO 01003KT 9SM CLR 24/21 A2999 RMK AO2 SLP143 T02440206 403110222

2010/08/08 04:53
KGUP 080453Z AUTO 00000KT 10SM CLR 16/14 A3020 RMK AO2 SLP077 T01560139

2010/08/08 04:53
KGUY 080453Z AUTO 18008KT 10SM CLR 27/17 A2989 RMK AO2 SLP063 T02720172

2010/08/08 04:53
KGVL 080453Z AUTO 00000KT 7SM FEW090 24/22 A3003 RMK AO2 SLP149 T02390222 403170222 $

2010/08/08 04:53
KGWO 080453Z AUTO 00000KT 7SM CLR 24/24 A2991 RMK AO2 SLP127 T02440239

2010/08/08 04:52
KUGN 080452Z AUTO 21008KT 10SM CLR 23/18 A2987 RMK AO2 SLP103 T02280183

2010/08/08 04:52
KVTN 080452Z AUTO 20003KT 10SM CLR 21/18 A2980 RMK AO2 SLP065 T02110178

2010/08/08 04:53
KWDG 080453Z AUTO 15009KT 10SM CLR 28/22 A2986 RMK AO2

2010/08/08 04:48
KWWR 080448Z AUTO 16011KT 10SM CLR 30/20 A2988 RMK AO2 T03030201

2010/08/08 04:52
KABI 080452Z 17006KT 10SM CLR 29/19 A2991 RMK AO2 SLP098 T02890194 $

2010/08/08 04:53
KABR 080453Z AUTO 00000KT 10SM CLR 24/21 A2965 RMK AO2 SLP030 T02390211

2010/08/08 04:53
KAEX 080453Z 00000KT 10SM CLR 27/24 A2989 RMK AO2 SLP124 T02670244

2010/08/08 04:53
KAGS 080453Z AUTO 00000KT 4SM BR CLR 25/24 A2994 RMK AO2 SLP136 T02500244 403280222

2010/08/08 04:53
KALI 080453Z AUTO 16006KT 10SM CLR 27/24 A2990 RMK AO2 SLP122 T02720244

2010/08/08 04:53
KALW 080453Z AUTO 23009KT 10SM CLR 24/10 A2982 RMK AO2 SLP088 T02440100

2010/08/08 04:53
KAMA 080453Z 15009KT 10SM CLR 25/18 A2997 RMK AO2 SLP086 T02500183

2010/08/08 04:53
KAMW 080453Z AUTO 19008KT 10SM FEW090 25/21 A2983 RMK AO2 SLP088 T02500211

2010/08/08 04:53
KANB 080453Z AUTO 06003KT 10SM CLR 26/21 A2995 RMK AO2 SLP129 T02560211

2010/08/08 04:53
KARA 080453Z AUTO 00000KT 10SM CLR 27/25 A2994 RMK AO2 SLP137 T02720250 $

2010/08/08 04:53
KASD 080453Z AUTO 00000KT 10SM CLR 29/26 A2991 RMK AO2 SLP129 T02940261

2010/08/08 04:53
KASX 080453Z AUTO 16004KT 5SM VCTS -RA BR FEW011 BKN042 OVC060 19/19 A2976 RMK AO2 LTG DSNT ALQDS TSE30B47 SLP074 P0008 T01890189

2010/08/08 04:53
KATY 080453Z AUTO 18005KT 10SM CLR 24/23 A2968 RMK AO2 SLP036 T02440233

2010/08/08 04:53
KAUS 080453Z 18008KT 10SM CLR 28/24 A2990 RMK AO2 SLP113 T02830239

2010/08/08 04:53
KAWM 080453Z AUTO 00000KT 9SM BKN070 27/24 A2990 RMK AO2 SLP120 T02670244

2010/08/08 04:53
KAXN 080453Z AUTO 20005KT 10SM CLR 23/21 A2968 RMK AO2 LTG DSNT SE SLP042 T02280206

2010/08/08 04:53
KAZO 080453Z AUTO 20009KT 9SM CLR 22/18 A2993 RMK AO2 SLP129 T02170178 402830161

2010/08/08 04:53
KBDE 080453Z AUTO 11004KT 10SM CLR 18/15 A2970 RMK AO2 SLP054 T01780150

2010/08/08 04:53
KBEH 080453Z AUTO 18006KT 10SM SCT085 23/18 A2991 RMK AO2 SLP122 T02280178 402780156

2010/08/08 04:53
KBFD 080453Z AUTO 00000KT 10SM CLR 10/09 A3007 RMK AO2 SLP176 T01000089 402170078

2010/08/08 04:53
KBFF 080453Z AUTO 00000KT 10SM CLR 28/10 A2988 RMK AO2 SLP059 T02780100

2010/08/08 04:53
KBFI 080453Z 18004KT 10SM SCT010 SCT041 OVC075 18/16 A2991 RMK AO2 SLP127 T01780156

2010/08/08 04:53
KBFM 080453Z AUTO 00000KT 10SM FEW046 27/25 A2993 RMK AO2 SLP133 T02670250 TSNO $

2010/08/08 04:53
KBHM 080453Z 00000KT 10SM FEW100 28/21 A2995 RMK AO2 SLP130 T02780206

2010/08/08 04:53
KBIV 080453Z AUTO 20011KT 10SM FEW065 24/18 A2989 RMK AO2 SLP116 T02440178 402890156

2010/08/08 04:53
KBKE 080453Z AUTO 24004KT 10SM CLR 16/09 A2990 RMK AO2 SLP103 T01610089

2010/08/08 04:53
KBLI 080453Z 17004KT 6SM BR OVC014 17/16 A2989 RMK AO2 RAB0356E33 SLP128 P0001 T01670156

2010/08/08 04:53
KBMQ 080453Z AUTO 17006KT 10SM CLR 29/20 A2994 RMK AO2 SLP117 T02890200 $

2010/08/08 04:53
KBNA 080453Z 07003KT 8SM CLR 25/18 A2997 RMK AO2 SLP139 T02500178 $

2010/08/08 04:55
KBOW 080455Z AUTO 00000KT 10SM 25/25 A2997 RMK AO2

2010/08/08 04:53
KBPK 080453Z AUTO 13004KT 8SM SCT044 26/21 A2993 RMK AO2 SLP122 T02560206

2010/08/08 04:53
KBPT 080453Z AUTO 21003KT 10SM CLR 27/25 A2992 RMK AO2 SLP130 T02670250

2010/08/08 04:53
KBRD 080453Z AUTO 14003KT 10SM CLR 21/18 A2968 RMK AO2 SLP044 T02110183

2010/08/08 04:53
KBRL 080453Z AUTO 19008KT 10SM CLR 24/21 A2989 RMK AO2 SLP115 T02440206

2010/08/08 04:53
KBRO 080453Z AUTO 16005KT 10SM CLR 27/25 A2992 RMK AO2 SLP132 T02720250 TSNO $

2010/08/08 04:53
KBTL 080453Z AUTO 20008KT 9SM CLR 21/18 A2993 RMK AO2 SLP130 T02110178 402780156 TSNO

2010/08/08 04:53
KBUR 080453Z 18005KT 10SM CLR 16/12 A2989 RMK AO2 SLP112 T01610122

2010/08/08 04:51
KBVE 080451Z AUTO 26006KT 10SM FEW031 SCT045 30/26 A2994 RMK AO2 SLP137 T03000256 TSNO

2010/08/08 04:53
KBWG 080453Z AUTO 00000KT 8SM CLR 21/18 A2997 RMK AO2 SLP144 T02110183

2010/08/08 04:52
KHUT 080452Z AUTO 15006KT 10SM CLR 28/21 A2984 RMK AO2 SLP077 T02830211

2010/08/08 04:50
KIDP 080450Z AUTO 15003KT 10SM CLR 25/22 A2986 RMK AO2

2010/08/08 04:52
KIEN 080452Z AUTO 07005KT 10SM CLR 21/15 A2983 RMK AO2 SLP062 T02110150

2010/08/08 04:52
KIJD 080452Z AUTO 00000KT 10SM CLR 14/13 A3003 RMK AO2 SLP169 T01390133 402670122

2010/08/08 04:52
KIOW 080452Z AUTO 00000KT 7SM CLR 23/22 A2986 RMK AO2 SLP109 T02280217 $

2010/08/08 04:52
KISN 080452Z 00000KT 10SM CLR 21/16 A2968 RMK AO2 SLP040 T02060161

2010/08/08 04:52
KJSV 080452Z AUTO 08003KT 10SM CLR 24/22 A2987 RMK AO2 LTG DSNT SE

2010/08/08 04:50
KLAM 080450Z AUTO 11003KT 10SM -RA BKN080 BKN090 BKN110 20/12 A3024 RMK AO2

2010/08/08 04:52
KLWC 080452Z AUTO 12007KT 7SM CLR 24/23 A2985 RMK AO2 SLP098 T02440228

2010/08/08 04:52
KMDH 080452Z AUTO 00000KT 6SM HZ FEW085 22/18 A2995 RMK AO2 SLP138 T02170178

2010/08/08 04:52
KMEB 080452Z AUTO 00000KT 8SM CLR 24/22 A2997 RMK AO2 SLP145 T02390217 403280222

2010/08/08 04:52
KMFD 080452Z 16004KT 10SM CLR 18/14 A3002 RMK AO2 SLP157 T01830144 402720139

2010/08/08 04:52
KMHK 080452Z AUTO 18005KT 10SM CLR 28/22 A2981 RMK AO2 SLP081 T02780222 $

2010/08/08 04:52
KMKE 080452Z 22011KT 10SM FEW090 23/18 A2985 RMK AO2 SLP102 T02330183

2010/08/08 04:52
KMLI 080452Z 19008KT 9SM CLR 24/19 A2987 RMK AO2 SLP110 T02390194

2010/08/08 04:52
KMWH 080452Z AUTO 34004KT 10SM SCT090 BKN110 22/10 A2980 RMK AO2 SLP085 T02170100

2010/08/08 04:55
KMYR 080455Z AUTO 00000KT 6SM CLR 24/24 A2998 RMK AO1

2010/08/08 04:55
KOAJ 080455Z AUTO 00000KT 5SM CLR 23/22 A2997 RMK AO1

2010/08/08 04:55
KOCF 080455Z AUTO 00000KT 10SM FEW120 25/24 A2996 RMK AO1 LTG DSNT SW

2010/08/08 04:50
KOJA 080450Z AUTO 16006KT 10SM CLR 29/22 A2987 RMK AO2

2010/08/08 04:52
KOKB 080452Z AUTO 00000KT 10SM OVC017 18/13 A2991 RMK AO2 SLP127 T01780133 $

2010/08/08 04:52
KOKC 080452Z 16009KT 10SM CLR 29/22 A2986 RMK AO2 SLP092 T02940222 $

2010/08/08 04:51
KOKM 080451Z AUTO 09004KT 10SM CLR 26/24 A2986 RMK AO1

2010/08/08 04:52
KOMA 080452Z 16011KT 10SM CLR 27/23 A2979 RMK AO2 SLP075 T02720228

2010/08/08 04:52
KORE 080452Z AUTO 00000KT 10SM CLR 12/11 A3003 RMK AO2 SLP168 T01170111 402500106

2010/08/08 04:50
KORS 080450Z AUTO 00000KT 10SM OVC040 16/16 A2987 RMK AO2

2010/08/08 04:51
KOUN 080451Z AUTO 15009KT 10SM CLR 32/22 A2987 RMK AO2

2010/08/08 04:50
KPLU 080450Z AUTO 23003KT 10SM BKN012 OVC046 17/17 A2991 RMK AO2

2010/08/08 04:52
KPPF 080452Z AUTO 00000KT 10SM CLR 27/23 A2987 RMK AO2 SLP104 T02670233

2010/08/08 04:50
KPTS 080450Z AUTO 17006KT 10SM CLR 28/24 A2987 RMK AO2 T02760243

2010/08/08 04:52
KPWK 080452Z AUTO 20006KT 10SM FEW120 24/18 A2991 RMK AO2 SLP122 T02440183

2010/08/08 04:52
KPYM 080452Z AUTO 00000KT 10SM CLR 18/16 A3004 RMK AO2 SLP171 T01830156 402720117

2010/08/08 04:52
KRAP 080452Z AUTO 01008KT 10SM CLR 21/14 A2982 RMK AO2 SLP065 T02060139 $

2010/08/08 04:51
KRKR 080451Z AUTO 20005KT 10SM SCT044 SCT055 SCT065 28/26 A2988 RMK AO2 LTG DSNT SE

2010/08/08 04:52
KSGF 080452Z 16007KT 10SM CLR 26/21 A2992 RMK AO2 SLP117 T02560206

2010/08/08 04:53
KSNL 080453Z AUTO 14008KT 10SM CLR 29/23 A2987 RMK AO2

2010/08/08 04:55
KSOP 080455Z AUTO 00000KT 7SM CLR 24/22 A2998 RMK AO1

2010/08/08 04:52
KSPI 080452Z AUTO 16005KT 10SM CLR 22/18 A2993 RMK AO2 SLP132 T02220178

2010/08/08 04:52
KSPS 080452Z AUTO 19008KT 10SM CLR 29/21 A2984 RMK AO2 SLP089 P0003 T02890211

2010/08/08 04:50
KSRE 080450Z AUTO 13005KT 10SM CLR 27/23 A2987 RMK AO2

2010/08/08 04:52
KSUX 080452Z 17007KT 10SM CLR 26/22 A2974 RMK AO2 SLP061 T02610217

2010/08/08 04:45
KSVC 080445Z AUTO 34008KT 10SM CLR 19/13 A3014 RMK AO2

2010/08/08 04:52
KTAN 080452Z AUTO 00000KT 10SM CLR 14/14 A3001 RMK AO2 SLP162 T01390139 402560100

2010/08/08 04:54
KTMK 080454Z AUTO 00000KT 5SM BR OVC012 16/16 A2996 RMK AO2

2010/08/08 04:52
KTOL 080452Z 19005KT 10SM CLR 19/16 A2996 RMK AO2 SLP140 T01940156 402830139

2010/08/08 04:53
KTQH 080453Z AUTO 00000KT 10SM CLR 24/23 A2989 RMK AO2

2010/08/08 04:52
KTRM 080452Z AUTO 32013G19KT 10SM CLR 31/08 A2965 RMK AO2 SLP044 T03110078

2010/08/08 04:55
KUDG 080455Z 00000KT 5SM CLR 23/22 A2998 RMK AO1

2010/08/08 04:53
KHBG 080453Z AUTO 13004KT 10SM -RA FEW030 BKN090 OVC100 27/25 A2992 RMK AO2 SLP127 P0000 T02670250

2010/08/08 04:53
KHEI 080453Z AUTO 27003KT 10SM CLR 16/13 A2977 RMK AO2 SLP063 T01560128

2010/08/08 04:53
KHHR 080453Z AUTO 25005KT 10SM SCT013 17/13 A2990 RMK AO2 SLP125 T01720128 $

2010/08/08 04:53
KHIB 080453Z AUTO 12006KT 10SM SCT055 OVC080 19/17 A2972 RMK AO2 SLP062 T01890172

2010/08/08 04:53
KHIO 080453Z AUTO 06003KT 10SM OVC050 18/16 A2992 RMK AO2 SLP128 T01830156

2010/08/08 04:53
KHKA 080453Z AUTO 00000KT 6SM HZ CLR 24/20 A2992 RMK AO2 SLP127 T02440200

2010/08/08 04:53
KHKS 080453Z AUTO 00000KT 10SM CLR 27/24 A2994 RMK AO2 SLP127 T02720244

2010/08/08 04:53
KHKY 080453Z AUTO 00000KT 6SM BR CLR 22/21 A3002 RMK AO2 SLP144 T02170206 403000211

2010/08/08 04:53
KHLC 080453Z AUTO 20008KT 10SM CLR 28/19 A2982 RMK AO2 SLP068 T02780194

2010/08/08 04:53
KHLG 080453Z AUTO A3004 RMK AO2 SLPNO PWINO FZRANO $

2010/08/08 04:53
KHOT 080453Z AUTO 10005KT 10SM FEW020 BKN044 BKN060 28/24 A2992 RMK AO2 LTG DSNT E-SW SLP125 T02780244

2010/08/08 04:53
KHOU 080453Z 18003KT 10SM CLR 28/24 A2991 RMK AO2 SLP133 T02780244

2010/08/08 04:53
KHQM 080453Z AUTO 24006KT 5SM BR OVC005 14/13 A2994 RMK AO2 CIG 003V009 SLP143 T01390133

2010/08/08 04:53
KHRI 080453Z AUTO 23010KT 10SM CLR 23/09 A2980 RMK AO2 SLP086 T02280094

2010/08/08 04:53
KHRO 080453Z AUTO 14005KT 8SM CLR 25/22 A2994 RMK AO2 SLP123 T02500217

2010/08/08 04:53
KHSI 080453Z AUTO 17006KT 10SM CLR 26/21 A2981 RMK AO2 SLP073 T02610211

2010/08/08 04:53
KHSV 080453Z 09005KT 10SM CLR 26/18 A2994 RMK AO2 SLP127 T02610183

2010/08/08 04:53
KHYR 080453Z AUTO 00000KT 10SM FEW017 SCT028 BKN042 21/20 A2975 RMK AO2 LTG DSNT ALQDS TSE10RAE02B26E43 SLP068 P0001 T02060200

2010/08/08 04:53
KIAH 080453Z 18005KT 10SM CLR 29/24 A2991 RMK AO2 SLP129 T02890244

2010/08/08 04:53
KICR 080453Z AUTO 24004KT 10SM CLR 27/17 A2974 RMK AO2 SLP049 T02720172 TSNO

2010/08/08 04:53
KICT 080453Z 15008KT 10SM FEW100 SCT200 28/22 A2984 RMK AO2 SLP086 T02830217

2010/08/08 04:53
KILM 080453Z AUTO 01003KT 5SM BR CLR 24/22 A2995 RMK AO2 SLP142 T02390222 403110228

2010/08/08 04:53
KPMD 080453Z AUTO 23010KT 10SM CLR 23/M01 A2989 RMK AO2 SLP090 T02331011 TSNO

2010/08/08 04:53
KPNC 080453Z AUTO 15013KT 10SM CLR 29/22 A2983 RMK AO2 SLP086 T02890222

2010/08/08 04:53
KPOF 080453Z AUTO 00000KT 8SM CLR 22/21 A2992 RMK AO2 SLP125 T02220206

2010/08/08 04:53
KPQL 080453Z AUTO 17005KT 9SM TS SCT025 BKN047 BKN080 26/24 A2992 RMK AO2 LTG DSNT ALQDS RAE36 SLP132 P0037 T02560244

2010/08/08 04:53
KPRB 080453Z AUTO 20007KT 10SM CLR 15/10 A2987 RMK AO2 PK WND 16026/0359 SLP111 T01500100 TSNO $

2010/08/08 04:53
KPRC 080453Z AUTO 00000KT 10SM CLR 17/14 A3011 RMK AO2 SLP133 T01670144

2010/08/08 04:53
KPSC 080453Z 00000KT 10SM CLR 23/09 A2979 RMK AO2 SLP083 T02330094

2010/08/08 04:53
KPSP 080453Z 32015KT 10SM FEW095 31/07 A2970 RMK AO2 SLP053 T03060072

2010/08/08 04:53
KPSX 080453Z AUTO 20014G21KT 10SM CLR 31/25 A2991 RMK AO2 SLP128 T03060250

2010/08/08 04:53
KRAC 080453Z AUTO 21007KT 9SM CLR 23/19 A2987 RMK AO2 SLP111 T02330189

2010/08/08 04:53
KRAL 080453Z AUTO 28005KT 10SM CLR 18/13 A2990 RMK AO2 SLP111 T01780133

2010/08/08 04:53
KRBG 080453Z AUTO 34005KT 10SM CLR 22/13 A2991 RMK AO2 SLP127 T02170133

2010/08/08 04:53
KRHI 080453Z AUTO 00000KT 2 1/2SM +TSRA BR OVC015 18/17 A2982 RMK AO2 LTG DSNT ALQDS RAB21 SLP090 P0067 T01780172

2010/08/08 04:53
KRKP 080453Z AUTO 17007KT 10SM FEW022 29/25 A2990 RMK AO2 SLP127 T02940250

2010/08/08 04:53
KRMG 080453Z AUTO 00000KT 10SM CLR 23/20 A2995 RMK AO2 SLP131 T02330200 403560217

2010/08/08 04:53
KRNT 080453Z AUTO 14003KT 10SM BKN014 BKN020 OVC080 18/17 A2991 RMK AO2 SLP132 T01780167

2010/08/08 04:53
KRSL 080453Z AUTO 17012KT 10SM CLR 27/22 A2981 RMK AO2 SLP072 T02670217 $

2010/08/08 04:53
KRUE 080453Z AUTO 00000KT 8SM FEW046 BKN070 28/24 A2990 RMK AO2 SLP116 T02830239

2010/08/08 04:53
KRVS 080453Z AUTO 14004KT 10SM CLR 28/22 A2985 RMK AO2 SLP109 T02830222

2010/08/08 04:53
KRWF 080453Z AUTO 20010KT 10SM SCT065 25/22 A2967 RMK AO2 SLP037 T02500222

2010/08/08 04:53
KRWI 080453Z AUTO 00000KT 8SM SCT060 24/22 A2999 RMK AO2 RAB03E19 SLP153 P0000 T02440222 403220222

2010/08/08 04:51
KSAN 080451Z VRB03KT 10SM FEW010 OVC018 17/13 A2993 RMK AO2 SLP135 T01720128 $

2010/08/08 04:53
KSAT 080453Z 16008KT 10SM FEW250 29/21 A2993 RMK AO2 SLP114 T02890211

2010/08/08 04:53
KSBA 080453Z 00000KT 10SM OVC009 14/12 A2988 RMK AO2 SLP119 T01440122

2010/08/08 04:53
KSBM 080453Z AUTO 22005KT 10SM FEW080 22/19 A2982 RMK AO2 SLP094 T02170189

2010/08/08 04:53
KSDL 080453Z 00000KT 10SM -RA FEW060 BKN085 BKN120 29/19 A2987 RMK AO2 LTG DSNT E RAB43 SLP088 P0000 T02890194

2010/08/08 04:53
KSEA 080453Z 20004KT 10SM FEW006 BKN014 OVC075 17/16 A2992 RMK AO2 SLP137 T01670156

2010/08/08 04:53
KSFF 080453Z AUTO 27004KT 10SM CLR 24/08 A2979 RMK AO2 SLP072 T02390078

2010/08/08 04:53
KSHN 080453Z AUTO 23012KT 10SM BKN007 14/14 A2989 RMK AO2 CIG 006V011 SLP123 T01440139

2010/08/08 04:53
KSIY 080453Z AUTO 01010KT 10SM 22/08 A2990 RMK AO2 SLP113 T02170083 $

2010/08/08 04:53
KXNA 080453Z AUTO 00000KT 10SM CLR 24/23 A2992 RMK AO2 SLP116 T02390228

2010/08/08 04:53
KYKM 080453Z 34009KT 10SM -RA BKN085 BKN110 21/13 A2984 RMK AO2 RAB36 SLP095 P0000 T02060128 $

2010/08/08 04:53
KSJC 080453Z 28003KT 10SM FEW012 16/11 A2986 RMK AO2 SLP109 T01560111

2010/08/08 04:53
KSLN 080453Z AUTO 16009KT 10SM CLR 28/21 A2981 RMK AO2 SLP076 T02830211

2010/08/08 04:53
KSMF 080453Z 17011KT 10SM CLR 19/12 A2973 RMK AO2 SLP066 T01890122

2010/08/08 04:53
KSNA 080453Z 22003KT 10SM OVC014 19/13 A2990 RMK AO2 SLP125 T01890128

2010/08/08 04:53
KSNS 080453Z AUTO 28006KT 8SM OVC008 14/12 A2990 RMK AO2 SLP135 T01390117

2010/08/08 04:55
KSPA 080455Z AUTO 00000KT 10SM SCT080 SCT100 24/24 A2999 RMK AO2

2010/08/08 04:53
KSPB 080453Z AUTO 00000KT 10SM OVC046 18/16 A2992 RMK AO2 RAE0359 SLP130 P0000 T01830156

2010/08/08 04:53
KSPW 080453Z AUTO 19009KT 10SM CLR 25/23 A2976 RMK AO2 SLP065 T02500228

2010/08/08 04:53
KSSF 080453Z AUTO 14006KT 10SM CLR 29/22 A2991 RMK AO2 SLP114 T02890217

2010/08/08 04:53
KSTC 080453Z AUTO 00000KT 10SM -TSRA SCT043 BKN065 OVC095 23/21 A2968 RMK AO2 PK WND 21037/0355 WSHFT 0352 LTG DSNT E AND SE SLP051 P0009 T02280211

2010/08/08 04:53
KSTJ 080453Z 17006KT 9SM CLR 26/22 A2984 RMK AO2 SLP095 T02610217

2010/08/08 04:53
KSTP 080453Z AUTO 20008KT 10SM CLR 28/22 A2969 RMK AO2 LTG DSNT NW SLP048 T02780217

2010/08/08 04:53
KSWO 080453Z AUTO 14009KT 10SM CLR 29/23 A2984 RMK AO2 SLP088 T02940228

2010/08/08 04:53
KTCC 080453Z AUTO 22004KT 10SM CLR 24/13 A2997 RMK AO2 SLP075 T02440133

2010/08/08 04:53
KTCL 080453Z AUTO 00000KT 4SM BR CLR 26/24 A2990 RMK AO2 SLP123 T02610239

2010/08/08 04:53
KTIW 080453Z AUTO 24004KT 10SM OVC011 16/15 A2992 RMK AO2 SLP130 T01560150

2010/08/08 04:53
KTOI 080453Z AUTO 00000KT 10SM CLR 24/23 A2993 RMK AO2 SLP130 T02390233

2010/08/08 04:53
KTOP 080453Z AUTO 16006KT 10SM CLR 28/23 A2984 RMK AO2 SLP092 T02780228

2010/08/08 04:53
KTTD 080453Z AUTO 27004KT 10SM BKN048 OVC060 20/16 A2990 RMK AO2 SLP125 T02000156

2010/08/08 04:53
KTUL 080453Z 14010KT 10SM CLR 28/22 A2984 RMK AO2 SLP097 T02830222

2010/08/08 04:53
KTUS 080453Z 14014KT 10SM SCT120 25/17 A2999 RMK AO2 PK WND 18030/0354 LTG DSNT N AND NE SLP109 T02500172 $

2010/08/08 04:53
KTVC 080453Z AUTO 18003KT 8SM BKN038 BKN050 22/20 A2979 RMK AO2 RAE05 SLP085 P0001 T02170200 402780111

2010/08/08 04:53
KTVR 080453Z AUTO 14003KT 7SM SCT095 26/24 A2991 RMK AO2 SLP133 T02610244

2010/08/08 04:53
KUAO 080453Z AUTO 04004KT 10SM BKN040 BKN047 OVC070 20/16 A2992 RMK AO2 SLP130 T02000161

2010/08/08 04:53
KUNO 080453Z AUTO 12003KT 10SM CLR 25/18 A2997 RMK AO2 SLP132 T02500183

2010/08/08 04:53
KUTS 080453Z AUTO 19007KT 10SM CLR 28/23 A2991 RMK AO2 SLP123 T02830228

2010/08/08 04:53
KVGT 080453Z AUTO 19013KT 10SM CLR 32/13 A2977 RMK AO2 SLP041 T03220128 TSNO

2010/08/08 04:53
KVIH 080453Z AUTO 13007KT 10SM CLR 24/21 A2993 RMK AO2 SLP122 T02390206

2010/08/08 04:53
KCAG 080453Z AUTO 14003KT 10SM SCT110 13/12 A3019 RMK AO2 RAE18 SLP152 P0001 T01330122

2010/08/08 04:53
KCDC 080453Z AUTO 27004KT 10SM OVC080 19/09 A3010 RMK AO2 LTG DSNT SW AND W SLP123 T01890094

2010/08/08 04:53
KCDR 080453Z AUTO 00000KT 10SM CLR 22/14 A2981 RMK AO2 SLP066 T02170139

2010/08/08 04:53
KCDS 080453Z AUTO 17007KT 10SM CLR 27/21 A2989 RMK AO2 SLP092 T02670206

2010/08/08 04:53
KCDW 080453Z AUTO 00000KT 10SM CLR 20/18 A3000 RMK AO2 SLP164 T02000178 403000139 TSNO

2010/08/08 04:53
KCEW 080453Z AUTO 00000KT 4SM BR BKN085 24/24 A2993 RMK AO2 SLP131 T02440239

2010/08/08 04:53
KCEZ 080453Z AUTO 25004KT 10SM CLR 16/15 A3016 RMK AO2 RAE02 SLP141 P0000 T01610150

2010/08/08 04:53
KCGI 080453Z AUTO 09003KT 10SM CLR 23/18 A2993 RMK AO2 SLP131 T02330178 TSNO

2010/08/08 04:53
KCKB 080453Z AUTO 00000KT 9SM CLR 17/15 A3004 RMK AO2 SLP160 T01670150 402830133 TSNO

2010/08/08 04:53
KCNY 080453Z AUTO 00000KT 10SM SCT070 OVC090 18/14 A3008 RMK AO2 SLP128 T01830144

2010/08/08 04:53
KCPR 080453Z AUTO 29006KT 10SM FEW090 BKN110 23/06 A3001 RMK AO2 SLP081 T02330061 $

2010/08/08 04:53
KCRE 080453Z AUTO 00000KT 5SM BR CLR 25/24 A2994 RMK AO2 SLP141 T02500239 403110222

2010/08/08 04:53
KCRG 080453Z AUTO 00000KT 10SM BKN029 25/24 A2994 RMK AO2 SLP137 T02500244 403440250

2010/08/08 04:53
KCRS 080453Z AUTO 18009KT 10SM CLR 29/23 A2987 RMK AO2 SLP106 T02940228

2010/08/08 04:53
KCSM 080453Z AUTO 17014KT 10SM CLR 30/20 A2989 RMK AO2 SLP091 T03000200

2010/08/08 04:53
KCUB 080453Z AUTO 00000KT 6SM HZ CLR 26/23 A2996 RMK AO2 SLP141 T02610233 403390228

2010/08/08 04:53
KCYS 080453Z AUTO 33006KT 10SM SCT100 BKN120 21/08 A3008 RMK AO2 SLP084 T02060078 TSNO $

2010/08/08 04:53
KDAL 080453Z 19008KT 10SM CLR 32/20 A2985 RMK AO2 SLP099 T03220200

2010/08/08 04:53
KDAN 080453Z AUTO 00000KT 6SM BR CLR 19/18 A3001 RMK AO2 SLP151 T01940178 403220194

2010/08/08 04:53
KDEN 080453Z 15011G23KT 10SM SCT110 BKN200 20/16 A3004 RMK AO2 LTG DSNT NE SLP085 T02000156

2010/08/08 04:53
KDEQ 080453Z AUTO 05003KT 10SM CLR 26/24 A2986 RMK AO2 SLP106 T02610239

2010/08/08 04:53
KDET 080453Z 22005KT 10SM CLR 22/17 A2994 RMK AO2 SLP134 T02220167 402670150

2010/08/08 04:53
KDFI 080453Z AUTO 00000KT 9SM SCT095 19/16 A2997 RMK AO2 SLP144 T01940161 402830144

2010/08/08 04:53
KDFW 080453Z 18009KT 10SM CLR 31/20 A2985 RMK AO2 SLP096 T03110200 $

2010/08/08 04:53
KDGW 080453Z AUTO 33008KT 10SM FEW120 24/07 A2996 RMK AO2 SLP070 T02390072

2010/08/08 04:53
KDHN 080453Z AUTO 00000KT 7SM CLR 25/24 A2997 RMK AO2 SLP142 T02500239 $

2010/08/08 04:53
KDKK 080453Z AUTO 19009KT 10SM BKN090 21/11 A2998 RMK AO2 SLP148 T02060111 402390111

2010/08/08 04:53
KDLN 080453Z AUTO 00000KT 10SM CLR 14/08 A2995 RMK AO2 SLP096 T01390078 $

2010/08/08 04:53
KDRO 080453Z AUTO 12003KT 10SM -RA OVC085 16/14 A3022 RMK AO2 RAB02 SLP152 P0000 T01610139

2010/08/08 04:53
KDTN 080453Z AUTO 15005KT 10SM CLR 28/24 A2988 RMK AO2 SLP113 T02830239

2010/08/08 04:53
KDTO 080453Z AUTO 17006KT 10SM CLR 30/21 A2985 RMK AO2 SLP097 T03000211

2010/08/08 04:53
KDTS 080453Z AUTO 00000KT 10SM CLR 27/23 A2990 RMK AO2 LTG DSNT S SLP126 T02670233

2010/08/08 04:53
KDTW 080453Z 22007KT 6SM HZ SCT200 21/17 A2995 RMK AO2 SLP138 T02060167 402780150 $

2010/08/08 04:53
KDVT 080453Z AUTO 00000KT 10SM FEW110 30/17 A2983 RMK AO2 LTG DSNT E RAB25E40 SLP077 P0000 T03000172

2010/08/08 04:53
KDXR 080453Z AUTO 00000KT 10SM CLR 19/17 A3002 RMK AO2 SLP161 T01940172 402830122

2010/08/08 04:53
KECP 080453Z AUTO 00000KT 6SM BR CLR 26/25 A2991 RMK AO2 TSE0356 SLP139 T02610250 $

2010/08/08 04:53
KELD 080453Z AUTO 00000KT 7SM CLR 25/24 A2989 RMK AO2 SLP117 T02500244

2010/08/08 04:53
KELM 080453Z AUTO 00000KT 10SM CLR 12/11 A3003 RMK AO2 SLP166 T01170106 402560111

2010/08/08 04:53
KEVW 080453Z AUTO 19003KT 10SM CLR 14/05 A3013 RMK AO2 SLP104 T01390050

2010/08/08 04:53
KEWB 080453Z AUTO 00000KT 10SM R05/5000VP6000FT CLR 16/15 A3002 RMK AO2 SLP167 T01610150 402610100

2010/08/08 04:53
KVPC 080453Z AUTO 00000KT 8SM CLR 24/23 A2997 RMK AO2 SLP134 T02440228 403440222

2010/08/08 04:53
KVPZ 080453Z AUTO 19004KT 8SM BKN090 BKN110 21/18 A2994 RMK AO2 SLP133 T02060183

2010/08/08 04:53
KVUO 080453Z AUTO 33007KT 10SM OVC050 19/15 A2991 RMK AO2 SLP130 T01940150

2010/08/08 04:52
PAEL 080452Z 00000KT 12SM OVC010 12/12 A2985 RMK NOSPECI

2010/08/08 04:52
PATA 080452Z 00000KT 10SM BKN055 BKN090 17/12 A2964 RMK AO2 RAE06 SLP040 P0000 T01670122

2010/08/08 04:53
PHJR 080453Z VRB05KT 10SM CLR 27/19 A3006 RMK AO2 SLP184 T02720189

2010/08/08 04:50
KPMV 080450Z AUTO 17008KT 10SM CLR 27/23 A2979 RMK AO2 T02700228

2010/08/08 04:53
KAAF 080453Z AUTO 00000KT 9SM CLR 27/26 A2992 RMK AO2 SLP131 T02670256 403330267

2010/08/08 04:53
KABY 080453Z 00000KT 9SM CLR 24/24 A2994 RMK AO2 SLP137 T02440239 403670244

2010/08/08 04:53
KACK 080453Z AUTO 17011KT 10SM CLR 20/18 A3004 RMK AO2 SLP174 T02000178 402280139 TSNO

2010/08/08 04:53
KACV 080453Z AUTO 00000KT 1 1/2SM R32/4000VP6000FT BR OVC001 12/12 A2995 RMK AO2 SLP148 T01220117

2010/08/08 04:53
KADG 080453Z AUTO 23003KT 7SM CLR 19/16 A2997 RMK AO2 SLP144 T01890161 402780133

2010/08/08 04:53
KAFW 080453Z 18006KT 10SM CLR 32/21 A2985 RMK AO2 SLP089 T03170206

2010/08/08 04:53
KAGC 080453Z 17005KT 10SM CLR 18/14 A3003 RMK AO2 SLP168 T01780139 402720161

2010/08/08 04:53
KAIA 080453Z AUTO 20007KT 10SM CLR 23/12 A2988 RMK AO2 LTG DSNT S SLP064 T02330122

2010/08/08 04:53
KAKO 080453Z AUTO 17018G23KT 10SM CLR 21/13 A2999 RMK AO2 PK WND 19027/0410 RAE18 SLP086 P0000 T02110133 TSNO

2010/08/08 04:53
KAMG 080453Z AUTO 20004KT 7SM CLR 24/23 A2994 RMK AO2 SLP137 T02390228 403440233

2010/08/08 04:53
KAOH 080453Z AUTO 17006KT 10SM CLR 19/16 A3000 RMK AO2 SLP152 T01940161 402720150 $

2010/08/08 04:53
KAOO 080453Z AUTO 00000KT 7SM SCT080 15/14 A3006 RMK AO2 SLP174 T01500139 402720133

2010/08/08 04:53
KAPA 080453Z 08005KT 10SM FEW080 BKN110 21/12 A3006 RMK AO2 SLP098 T02060117

2010/08/08 04:53
KAPF 080453Z AUTO 00000KT 10SM FEW024 30/25 A2999 RMK AO2 SLP153 T03000250 403280261

2010/08/08 04:53
KARB 080453Z AUTO 00000KT 4SM BR CLR 17/16 A2994 RMK AO2 SLP135 T01670161 402720100 $

2010/08/08 04:53
KASE 080453Z 00000KT 10SM BKN100 11/11 A3026 RMK AO2 RAE21 SLP130 P0003 T01110111

2010/08/08 04:53
KAUG 080453Z AUTO 00000KT 10SM OVC070 13/12 A3001 RMK AO2 SLP163 T01330117 402220106

2010/08/08 04:53
KBAF 080453Z 00000KT 10SM CLR 14/12 A3001 RMK AO2 SLP161 T01390117 402720117

2010/08/08 04:53
KBBW 080453Z AUTO 00000KT 10SM CLR 23/22 A2982 RMK AO2 SLP073 T02280217

2010/08/08 04:53
KBCE 080453Z AUTO 15003KT 10SM OVC012 11/10 A3026 RMK AO2 SLP153 T01110100 $

2010/08/08 04:53
KBGM 080453Z AUTO 00000KT 10SM CLR 16/09 A3006 RMK AO2 SLP171 T01610094 402440133

2010/08/08 04:53
KBGR 080453Z 00000KT 9SM BKN080 12/10 A3000 RMK AO2 SLP158 T01170100 402280094

2010/08/08 04:53
KBHK 080453Z AUTO 28006KT 10SM CLR 22/09 A2979 RMK AO2 SLP058 T02220094

2010/08/08 04:53
KBIL 080453Z 23003KT 10SM CLR 21/12 A2982 RMK AO2 SLP061 T02110117 $

2010/08/08 04:53
KBKL 080453Z 18007KT 10SM CLR 23/15 A2997 RMK AO2 SLP144 T02280150 402720194

2010/08/08 04:53
KBKV 080453Z AUTO 23003KT 10SM FEW026 27/25 A2997 RMK AO2 LTG DSNT N AND NW SLP146 T02670250 403280239

2010/08/08 04:53
KBMG 080453Z AUTO 00000KT 4SM BR CLR 17/16 A2998 RMK AO2 SLP145 T01670161 402890139

2010/08/08 04:53
KBOI 080453Z 17003KT 10SM CLR 25/04 A2978 RMK AO2 SLP053 T02500044 $

2010/08/08 04:53
KBPI 080453Z AUTO 32007KT 10SM CLR 16/03 A3011 RMK AO2 SLP101 T01560028 TSNO

2010/08/08 04:53
KBTM 080453Z AUTO 20004KT 10SM CLR 13/10 A2999 RMK AO2 RAE0357 SLP107 P0000 T01330100

2010/08/08 04:53
KBVO 080453Z AUTO 19003KT 10SM CLR 25/23 A2986 RMK AO2 SLP098 T02500233

2010/08/08 04:53
KBVY 080453Z AUTO 00000KT 10SM CLR 13/09 A3001 RMK AO2 SLP158 T01330094 402670100

2010/08/08 04:53
KBYG 080453Z AUTO 24004KT 10SM CLR 17/10 A2997 RMK AO2 SLP095 T01670100

2010/08/08 04:53
KBYI 080453Z AUTO 00000KT 10SM CLR 18/09 A2988 RMK AO2 SLP075 T01780089

2010/08/08 04:50
EKCH 080450Z 32009KT 9999 -RA FEW008 BKN045 19/18 Q1012 TEMPO BKN008

2010/08/08 04:50
EKBI 080450Z 02001KT 6000 MIFG BKN090 16/15 Q1015

2010/08/08 04:50
EKYT 080450Z 33004KT 9999 FEW035 BKN150 16/16 Q1014

2010/08/08 04:50
EKRK 080450Z AUTO 32007KT 9999NDV FEW070/// SCT130/// BKN150/// 18/18 Q1012

2010/08/08 04:50
EKAH 080450Z AUTO 28003KT 2700NDV BR FEW001/// BKN210/// 16/15 Q1014

2010/08/08 04:50
EKEB 080450Z AUTO 10001KT 2600NDV -SHRA BR OVC022/// 16/15 Q1014

2010/08/08 04:50
EKRN 080450Z AUTO 32012KT 9999NDV -SHRA OVC050/// 18/15 Q1011

2010/08/08 04:50
EKKA 080450Z 29002KT 4000 MIFG NSC 15/14 Q1014 RMK FEW080 BKN110

2010/08/08 04:50
EKSP 080450Z 26001KT 3500 BR BKN026 16/15 Q1014

2010/08/08 04:50
EKVD 080450Z AUTO 27002KT //// ///////// 16/15 Q1015

2010/08/08 04:53
KEYE 080453Z AUTO 00000KT 7SM CLR 21/19 A2998 RMK AO2 SLP144 T02110189 402890172

2010/08/08 04:53
KEYW 080453Z AUTO 20003KT 10SM SCT021 30/26 A2999 RMK AO2 SLP154 T03000256 403220289

2010/08/08 04:53
KFDR 080453Z AUTO 19007KT 10SM 29/22 A2983 RMK AO2 SLP081 T02890217

2010/08/08 04:53
KFDY 080453Z AUTO 17005KT 10SM CLR 18/16 A2998 RMK AO2 SLP144 T01830161 402720139

2010/08/08 04:53
KFFT 080453Z AUTO 00000KT 10SM CLR 19/17 A2999 RMK AO2 SLP148 T01890167 403060156

2010/08/08 04:53
KFLD 080453Z AUTO 22011G18KT 10SM CLR 23/18 A2982 RMK AO2 SLP092 T02330183

2010/08/08 04:53
KFLL 080453Z 00000KT 10SM CLR 28/24 A2997 RMK AO2 SLP150 T02830244 403280261 PNO $

2010/08/08 04:53
KFLO 080453Z AUTO 00000KT 5SM BR OVC120 24/23 A2995 RMK AO2 SLP138 T02390233 403220228

2010/08/08 04:53
KFMY 080453Z AUTO 00000KT 10SM CLR 28/25 A2997 RMK AO2 SLP151 T02780250 403170261 $

2010/08/08 04:53
KFNT 080453Z AUTO 20005KT 9SM FEW100 21/17 A2992 RMK AO2 SLP125 T02110167 402830089

2010/08/08 04:53
KFOK 080453Z AUTO 20004KT 10SM CLR 21/18 A3004 RMK AO2 SLP171 T02060178 402720106 TSNO

2010/08/08 04:53
KFPR 080453Z AUTO 00000KT 10SM FEW032 26/25 A2997 RMK AO2 SLP147 T02610250 403500233

2010/08/08 04:53
KFRG 080453Z AUTO 20006KT 10SM CLR 23/21 A3002 RMK AO2 SLP163 T02330206 402780172

2010/08/08 04:53
KFTW 080453Z 18008KT 10SM CLR 31/20 A2985 RMK AO2 SLP096 T03110200

2010/08/08 04:53
KFVE 080453Z AUTO 17004KT 10SM CLR 09/06 A2992 RMK AO2 SLP133 T00940056 401720061

2010/08/08 04:53
KFWN 080453Z AUTO 00000KT 10SM CLR 14/13 A3002 RMK AO2 SLP161 T01440128 402890117

2010/08/08 04:45
KNRB 080445Z AUTO 00000KT 10SM BKN029 26/23 A2994 RMK AO2

2010/08/08 04:53
KCEC 080453Z AUTO 31008KT 1 1/2SM BR BKN001 OVC006 13/13 A2992 RMK AO2

2010/08/08 04:50
EKGF 080450Z 34012KT 9999 FEW007 16/16 Q1016

2010/08/08 04:50
EKHN 080450Z AUTO 35007KT 320V020 5000NDV BKN002/// 16/13 Q1016

2010/08/08 04:50
EKHR 080450Z AUTO 01010KT 9999NDV FEW003/// BKN010/// BKN014/// 17/17 Q1014

2010/08/08 04:50
EGJB 080450Z 34006KT 9999 SCT006 14/14 Q1021

2010/08/08 04:50
EGJJ 080450Z 00000KT 9999 FEW007 14/14 Q1020 NOSIG

2010/08/08 04:50
EGTE 080450Z 06003KT CAVOK 11/10 Q1021

2010/08/08 04:50
ESKN 080450Z 04011KT 9999 VV005 16/15 Q1011

2010/08/08 04:50
ESOE 080450Z AUTO 34007KT 9999NDV BKN044/// 16/15 Q1013

2010/08/08 04:50
ESOK 080450Z AUTO 36003KT 9000NDV BR BKN100/// 16/15 Q1014

2010/08/08 04:50
ESOW 080450Z AUTO 01007KT 9999NDV FEW000/// SCT034/// OVC039/// 15/14 Q1013

2010/08/08 04:50
ESSA 080450Z 01008KT 2500 BR OVC003 16/16 Q1012 TEMPO 5000

2010/08/08 04:50
ESSB 080450Z AUTO 01004KT 1300NDV R12/1400D R30/P1500N BR VV001 16/16 Q1012

2010/08/08 04:50
ESSP 080450Z AUTO 02007KT 9999NDV OVC008/// 16/15 Q1011

2010/08/08 04:50
ESSV 080450Z AUTO VRB02KT 0350NDV R03/0400V0650N R21/P1500U FG VV002 17/17 Q1010

2010/08/08 04:50
EGBB 080450Z 33006KT 6000 FEW021 13/11 Q1020

2010/08/08 04:50
EGCC 080450Z 24002KT 6000 BKN006 BKN027 14/14 Q1020

2010/08/08 04:50
EGKK 080450Z 33006KT 280V340 9999 BKN012 14/13 Q1019

2010/08/08 04:50
EGLL 080450Z 31004KT 280V350 9999 FEW012 BKN024 15/13 Q1019

2010/08/08 04:50
EGPF 080450Z 23005KT 9999 BKN014 11/10 Q1020

2010/08/08 04:50
EGPH 080450Z 27002KT 9999 BKN018 14/11 Q1019

2010/08/08 04:50
EGPK 080450Z 12002KT 9999 FEW045 09/08 Q1020

2010/08/08 04:50
EGSS 080450Z 34007KT 6000 BKN004 14/13 Q1018

2010/08/08 04:50
ESGL 080450Z AUTO VRB02KT 9999NDV FEW094/// 17/// Q1013

2010/08/08 04:50
ESGR 080450Z AUTO 31002KT 9999NDV FEW084/// 16/16 Q1013

2010/08/08 04:50
ESNL 080450Z AUTO VRB01KT 9999NDV FEW064/// BKN100/// 15/13 Q1017

2010/08/08 04:50
ESNX 080450Z AUTO 30003KT 9999NDV NCD 14/13 Q1017

2010/08/08 04:50
ESNY 080450Z AUTO 30004KT 8000 -SHRA SCT033 BKN041 16/16 Q1014

2010/08/08 04:50
EGHH 080450Z 31005KT 9999 SCT039 11/11 Q1020

2010/08/08 04:50
EGMC 080450Z 33006KT 9999 BKN008 16/14 Q1018

2010/08/08 04:50
EFHF 080450Z AUTO 14003KT 8000 FEW095 25/21 Q1013

2010/08/08 04:50
EFKA 080450Z AUTO 33005KT 300V360 CAVOK 19/18 Q1013

2010/08/08 04:50
EFKK 080450Z AUTO 04003KT CAVOK 19/18 Q1014

2010/08/08 04:50
EFMA 080450Z AUTO 00000KT CAVOK ///// Q////

2010/08/08 04:50
EFPO 080450Z AUTO 05004KT 360V120 CAVOK 21/18 Q1011

2010/08/08 04:50
EFSI 080450Z AUTO 35005KT 320V020 5000 BR BKN001 18/18 Q1012

2010/08/08 04:50
ESDF 080450Z AUTO 35003KT 9999NDV OVC009/// 17/15 Q1011

2010/08/08 04:50
ESPA 080450Z AUTO 35007KT 9999NDV BKN230/// 19/15 Q1016

2010/08/08 04:50
ESSL 080450Z 02006KT 8000 BR OVC002 15/15 Q1011

2010/08/08 04:50
ESNG 080450Z AUTO 26003KT 9999NDV NCD 13/12 Q1017

2010/08/08 04:50
ESNK 080450Z AUTO 00000KT 9999NDV NCD 16/15 Q1013 REDZ RERA

2010/08/08 04:50
ESNN 080450Z AUTO 32002KT 9999NDV -RA BKN058/// 16/15 Q1014 REUP REDZ

2010/08/08 04:50
ESNO 080450Z AUTO 36007KT 9999NDV DZ NCD 16/14 Q1013

2010/08/08 04:50
ESNQ 080450Z AUTO 00000KT 9999NDV FEW075/// BKN090/// 13/11 Q1018

2010/08/08 04:50
ESNS 080450Z AUTO 02003KT 9999NDV -RA ////// 17/15 Q1016

2010/08/08 04:50
ESNU 080450Z AUTO 36007KT 9999NDV RA FEW041/// 17/14 Q1014

2010/08/08 04:50
ESNZ 080450Z AUTO 29003KT 0550NDV R12/P1500N R30/0500N FG FEW003/// 13/13 Q1015

2010/08/08 04:50
ESUT 080450Z AUTO 00000KT 0150NDV R33/0300 FG VV000 09/09 Q1018

2010/08/08 04:50
LSGS 080450Z 04003KT 360V100 9999 BKN110 14/09 Q1020

2010/08/08 05:00
MDST 080500Z 07004KT 9999 SCT014 26/26 Q1015

2010/08/08 05:00
MDPC 080500Z 04010KT 9999 FEW020 28/25 Q1013

2010/08/08 05:00
MDSD 080500Z 01004KT 9999 FEW018 24/22 Q1015=

2010/08/08 04:51
MMMD 080451Z 12006KT 6SM BKN070 OVC300 26/24 A2994 RMK 8/063

2010/08/08 04:46
MMUN 080446Z 08005KT 7SM SCT300 27/25 A2995 RMK 8/008

2010/08/08 04:46
MMCZ 080446Z 09004KT 7SM FEW015 BKN200 24/24 A2995 RMK 8/408

2010/08/08 04:49
LFBP 080449Z 27003KT 250V310 9999 BKN009 16/16 Q1021 NOSIG RMK M3

2010/08/08 04:50
OAKN 080450Z 12006KT 9000 DU FEW120 BKN180 34/08 Q1006 BLU NOSIG RMK A2972 DA6500

2010/08/08 04:50
EGYP 080450Z 29012KT CAVOK 05/M01 Q1003 BLU

2010/08/08 05:00
SBSJ 080500Z 00000KT CAVOK 11/10 Q1020 

2010/08/08 04:46
EHLW 080446Z AUTO 28003KT 1500NDV BR SCT027 BKN036 BKN050 16/16 Q1014 AMB

2010/08/08 04:53
KCHA 080453Z 00000KT 10SM CLR 26/22 A2996 RMK AO2 SLP137 T02560222 403500217 

2010/08/08 04:53
KLAX 080453Z 27008KT 10SM BKN012 16/12 A2990 RMK AO2 SLP125 T01610122 

2010/08/08 04:53
KSDM 080453Z AUTO 00000KT 10SM FEW014 13/12 A2992 RMK AO2 SLP131 T01330117 TSNO $ 

2010/08/08 04:53
KP92 080453Z AUTO VRB04KT 31/25 A2993 RMK AO2 SLP135 T03060250 PWINO TSNO 

2010/08/08 04:53
KNIP 080453Z 27004KT 10SM BKN026 OVC150 25/24 A2995 RMK AO2 SLP136 T02500239 403440244 

2010/08/08 04:53
KNUI 080453Z AUTO 00000KT 10SM CLR 19/18 A2999 RMK AO2 SLP155 T01940178 403000194 $ 

2010/08/08 04:53
K40J 080453Z AUTO 00000KT 24/24 A2994 RMK AO2 SLP137 T02440239 403330244 PWINO TSNO 

2010/08/08 04:53
K6R6 080453Z AUTO 12008KT 29/17 A2991 RMK AO2 SLP085 T02890167 PWINO TSNO 

2010/08/08 04:50
EHWO 080450Z AUTO 24005KT 4300NDV BR SCT010 BKN014 FEW015TCU OVC016 16/15 Q1015 GRN

2010/08/08 04:52
KPHF 080452Z 00000KT 3/4SM BR VV001 21/21 A3000

2010/08/08 04:53
KCTY 080453Z AUTO 04003KT 25/24 A2994 RMK AO2 SLP139 P0001 T02500244 403330244 PWINO TSNO 

2010/08/08 04:53
KSGR 080453Z AUTO 17006KT 10SM CLR 27/24 A2991 RMK AO2 SLP135 T02670244 TSNO 

2010/08/08 04:53
KDNK 080453Z AUTO 19004KT 10SM CLR 28/23 A2991 RMK AO2 SLP125 T02780233 403440233 PNO $ 

2010/08/08 04:54
PGUM 080454Z 08012KT 10SM FEW022TCU SCT050 31/25 A2980 RMK AO2 RAB38E47 SLP083 TCU NE MOV W P0000 T03060250 $ 

2010/08/08 04:47
EGUN 080447Z AUTO 33007KT 9999 FEW005 OVC016 14/14 A3007 RMK AO2 RAB0353E0404 CIG 013V020 CIG 011 RWY11 SLP172

2010/08/08 04:53
KCQC 080453Z AUTO 31008KT 10SM BKN095 18/11 A3020 RMK AO2 SLP118 T01780111 TSNO 

2010/08/08 04:54
KJAN 080454Z 00000KT 10SM CLR 26/24 A2993 RMK AO2 SLP130 T02610239 

2010/08/08 04:50
EKKA 080450Z 29002KT 4000 MIFG NSC 15/14 Q1014 RMK FEW080 BKN110

2010/08/08 04:50
EKSP 080450Z 26001KT 3500 BR BKN026 16/15 Q1014

2010/08/08 04:50
EGHH 080450Z 31005KT 9999 SCT039 11/11 Q1020

2010/08/08 04:50
EGMC 080450Z 33006KT 9999 BKN008 16/14 Q1018

2010/08/08 04:50
ESKN 080450Z 04011KT 9999 VV005 16/15 Q1011

2010/08/08 04:50
ESOE 080450Z AUTO 34007KT 9999NDV BKN044/// 16/15 Q1013

2010/08/08 04:50
ESOK 080450Z AUTO 36003KT 9000NDV BR BKN100/// 16/15 Q1014

2010/08/08 04:50
ESOW 080450Z AUTO 01007KT 9999NDV FEW000/// SCT034/// OVC039/// 15/14 Q1013

2010/08/08 04:50
ESSA 080450Z 01008KT 2500 BR OVC003 16/16 Q1012 TEMPO 5000

2010/08/08 04:50
ESSB 080450Z AUTO 01004KT 1300NDV R12/1400D R30/P1500N BR VV001 16/16 Q1012

2010/08/08 04:50
ESSP 080450Z AUTO 02007KT 9999NDV OVC008/// 16/15 Q1011

2010/08/08 04:50
ESSV 080450Z AUTO VRB02KT 0350NDV R03/0400V0650N R21/P1500U FG VV002 17/17 Q1010

2010/08/08 04:50
EGAA 080450Z 15003KT 7000 SCT010 BKN025 10/10 Q1021

2010/08/08 04:50
EGFF 080450Z 32004KT 9999 BKN030 12/10 Q1021

2010/08/08 04:50
EGGW 080450Z 35007KT 7000 SCT006 BKN017 14/13 Q1019

2010/08/08 04:50
EGLC 080450Z AUTO 31004KT 270V350 9999 SCT009/// BKN020/// 15/13 Q1019

2010/08/08 04:50
EGNM 080450Z 00000KT CAVOK 12/10 Q1020

2010/08/08 04:50
EGNX 080450Z 31003KT CAVOK 12/10 Q1020

2010/08/08 04:50
EGPD 080450Z 27002KT 9999 BKN045 11/09 Q1020 NOSIG

2010/08/08 04:50
EGJB 080450Z 34006KT 9999 SCT006 14/14 Q1021

2010/08/08 04:50
EGJJ 080450Z 00000KT 9999 FEW007 14/14 Q1020 NOSIG

2010/08/08 04:50
EGTE 080450Z 06003KT CAVOK 11/10 Q1021

2010/08/08 04:50
EGGD 080450Z 30004KT 9999 SCT013 BKN030 13/12 Q1020

2010/08/08 04:50
EGGP 080450Z 27013KT 9999 BKN013 15/12 Q1020

2010/08/08 04:50
EGNT 080450Z 30002KT 9999 BKN037 12/11 Q1020

2010/08/08 04:50
EGNV 080450Z 31005KT 9999 FEW023 SCT049 13/11 Q1020

2010/08/08 04:50
EGPB 080450Z AUTO 29006KT 9999NDV FEW018/// OVC023/// 12/10 Q1017

2010/08/08 04:50
ESGL 080450Z AUTO VRB02KT 9999NDV FEW094/// 17/// Q1013

2010/08/08 04:50
ESGR 080450Z AUTO 31002KT 9999NDV FEW084/// 16/16 Q1013

2010/08/08 04:50
ESNL 080450Z AUTO VRB01KT 9999NDV FEW064/// BKN100/// 15/13 Q1017

2010/08/08 04:50
ESNX 080450Z AUTO 30003KT 9999NDV NCD 14/13 Q1017

2010/08/08 04:50
ESNY 080450Z AUTO 30004KT 8000 -SHRA SCT033 BKN041 16/16 Q1014

2010/08/08 04:50
ESDF 080450Z AUTO 35003KT 9999NDV OVC009/// 17/15 Q1011

2010/08/08 04:50
ESPA 080450Z AUTO 35007KT 9999NDV BKN230/// 19/15 Q1016

2010/08/08 04:50
ESSL 080450Z 02006KT 8000 BR OVC002 15/15 Q1011

2010/08/08 04:50
EGBB 080450Z 33006KT 6000 FEW021 13/11 Q1020

2010/08/08 04:50
EGCC 080450Z 24002KT 6000 BKN006 BKN027 14/14 Q1020

2010/08/08 04:50
EGKK 080450Z 33006KT 280V340 9999 BKN012 14/13 Q1019

2010/08/08 04:50
EGLL 080450Z 31004KT 280V350 9999 FEW012 BKN024 15/13 Q1019

2010/08/08 04:50
EGPF 080450Z 23005KT 9999 BKN014 11/10 Q1020

2010/08/08 04:50
EGPH 080450Z 27002KT 9999 BKN018 14/11 Q1019

2010/08/08 04:50
EGPK 080450Z 12002KT 9999 FEW045 09/08 Q1020

2010/08/08 04:50
EGSS 080450Z 34007KT 6000 BKN004 14/13 Q1018

2010/08/08 04:50
EKVD 080450Z AUTO 27002KT //// ///////// 16/15 Q1015

2010/08/08 04:50
HLLT 080450Z 13002KT CAVOK 23/15 Q1016

2010/08/08 04:50
ESNG 080450Z AUTO 26003KT 9999NDV NCD 13/12 Q1017

2010/08/08 04:50
ESNK 080450Z AUTO 00000KT 9999NDV NCD 16/15 Q1013 REDZ RERA

2010/08/08 04:50
ESNN 080450Z AUTO 32002KT 9999NDV -RA BKN058/// 16/15 Q1014 REUP REDZ

2010/08/08 04:50
ESNO 080450Z AUTO 36007KT 9999NDV DZ NCD 16/14 Q1013

2010/08/08 04:50
ESNQ 080450Z AUTO 00000KT 9999NDV FEW075/// BKN090/// 13/11 Q1018

2010/08/08 04:50
ESNS 080450Z AUTO 02003KT 9999NDV -RA ////// 17/15 Q1016

2010/08/08 04:50
ESNU 080450Z AUTO 36007KT 9999NDV RA FEW041/// 17/14 Q1014

2010/08/08 04:50
ESNZ 080450Z AUTO 29003KT 0550NDV R12/P1500N R30/0500N FG FEW003/// 13/13 Q1015

2010/08/08 04:50
ESUT 080450Z AUTO 00000KT 0150NDV R33/0300 FG VV000 09/09 Q1018

2010/08/08 04:50
EKGF 080450Z 34012KT 9999 FEW007 16/16 Q1016

2010/08/08 04:50
EKHN 080450Z AUTO 35007KT 320V020 5000NDV BKN002/// 16/13 Q1016

2010/08/08 04:50
EKHR 080450Z AUTO 01010KT 9999NDV FEW003/// BKN010/// BKN014/// 17/17 Q1014

2010/08/08 04:50
EFHF 080450Z AUTO 14003KT 8000 FEW095 25/21 Q1013

2010/08/08 04:50
EFKA 080450Z AUTO 33005KT 300V360 CAVOK 19/18 Q1013

2010/08/08 04:50
EFKK 080450Z AUTO 04003KT CAVOK 19/18 Q1014

2010/08/08 04:50
EFMA 080450Z AUTO 00000KT CAVOK ///// Q////

2010/08/08 04:50
EFPO 080450Z AUTO 05004KT 360V120 CAVOK 21/18 Q1011

2010/08/08 04:50
EFSI 080450Z AUTO 35005KT 320V020 5000 BR BKN001 18/18 Q1012

2010/08/08 04:50
EKCH 080450Z 32009KT 9999 -RA FEW008 BKN045 19/18 Q1012 TEMPO BKN008

2010/08/08 04:50
EKBI 080450Z 02001KT 6000 MIFG BKN090 16/15 Q1015

2010/08/08 04:50
EKYT 080450Z 33004KT 9999 FEW035 BKN150 16/16 Q1014

2010/08/08 04:50
EKRK 080450Z AUTO 32007KT 9999NDV FEW070/// SCT130/// BKN150/// 18/18 Q1012

2010/08/08 04:50
EKAH 080450Z AUTO 28003KT 2700NDV BR FEW001/// BKN210/// 16/15 Q1014

2010/08/08 04:50
EKEB 080450Z AUTO 10001KT 2600NDV -SHRA BR OVC022/// 16/15 Q1014

2010/08/08 04:50
EKRN 080450Z AUTO 32012KT 9999NDV -SHRA OVC050/// 18/15 Q1011

2010/08/08 04:54
KBTV 080454Z 00000KT 10SM CLR 13/11 A2998 RMK AO2 SLP152 T01280106 402220094 

2010/08/08 04:52
KPHF 080452Z 00000KT 3/4SM BR VV001 21/21 A3000

2010/08/08 04:53
KBUR 080453Z 18005KT 10SM CLR 16/12 A2989 RMK AO2 SLP112 T01610122

2010/08/08 04:55
KCEF 080455Z AUTO 00000KT 10SM CLR 14/12 A3000 RMK AO2 SLP161 T01420117 402710113

2010/08/08 04:55
KEGI 080455Z AUTO 00000KT 10SM FEW120 25/24 A2991 RMK AO2 SLP130 T02520240 $

2010/08/08 04:55
KHMN 080455Z AUTO 23005KT 10SM CLR 27/12 A2998 RMK AO2 SLP060 T02730117 $

2010/08/08 04:55
KHST 080455Z AUTO 00000KT 10SM CLR 27/24 A3000 RMK AO2 SLP160 T02740244 403380250

2010/08/08 04:55
KMMT 080455Z AUTO 07003KT 7SM R32/4500V5500FT CLR 24/24 A2995 RMK AO2 SLP142 T02440239 403230215

2010/08/08 04:52
KNHK 080452Z AUTO 00000KT 10SM CLR 22/18 A2999 RMK AO2 SLP157 T02220178 403000200

2010/08/08 04:51
KSAN 080451Z VRB03KT 10SM FEW010 OVC018 17/13 A2993 RMK AO2 SLP135 T01720128 $

2010/08/08 04:55
KSVN 080455Z AUTO 00000KT 3SM 25/24 A2993 RMK AO2 SLP135

2010/08/08 04:55
KSZL 080455Z AUTO 13003KT 10SM CLR 24/21 A2988 RMK AO2 SLP112 T02420214 PNO $

2010/08/08 04:53
KTOI 080453Z AUTO 00000KT 10SM CLR 24/23 A2993 RMK AO2 SLP130 T02390233

2010/08/08 04:55
KTTS 080455Z 21005KT 10SM FEW020 BKN170 OVC200 27/25 A2995 RMK SLP142 1CU /1/ 5AC 2CS /8/

2010/08/08 05:00
MGGT 080500Z 00000KT 9999 SCT014 18/17 Q1025 A3027 VOL/ PACAYA EN ACTIVIDAD

2010/08/08 05:00
MGHT 080500Z 00000KT 9999 OVC020 17/16 QFE 818/7

2010/08/08 05:00
MGPB 080500Z 00000KT 9999 FEW016 25/25 Q1012 A2988

2010/08/08 05:00
MGSJ 080500Z 00000KT 9999 FEW018 BKN090 25/24 Q1014 A2994

2010/08/08 04:50
OAKN 080450Z 12006KT 9000 DU FEW120 BKN180 34/08 Q1006 BLU NOSIG RMK A2972 DA6500

2010/08/08 04:53
PHJR 080453Z VRB05KT 10SM CLR 27/19 A3006 RMK AO2 SLP184 T02720189

2010/08/08 04:50
EDJA 080450Z 20002KT CAVOK 12/11 Q1019

2010/08/08 04:50
EDLN 080450Z VRB03KT 2500 RA BR SCT004 BKN017 17/17 Q1014

2010/08/08 04:50
EDLP 080450Z 12003KT CAVOK 15/15 Q1014

2010/08/08 04:50
EDMA 080450Z 15003KT CAVOK 12/11 Q1018

2010/08/08 04:50
EDNY 080450Z 00000KT CAVOK 13/12 Q1018

2010/08/08 04:50
EDQM 080450Z AUTO 21007KT 9999NDV FEW120/// 12/09 Q1017

2010/08/08 04:50
EDSB 080450Z VRB02KT 9999 VCSH FEW012 SCT026 BKN050 16/15 Q1017

2010/08/08 04:50
EDXW 080450Z AUTO 25003KT 9999NDV BR FEW007/// SCT013/// 17/15 Q1014

2010/08/08 04:50
ENAL 080450Z AUTO 00000KT 6000NDV -RA FEW008/// SCT026/// BKN061/// 15/14 Q1016

2010/08/08 04:50
ENCN 080450Z 05003KT CAVOK 15/12 Q1015

2010/08/08 04:50
ENHD 080450Z AUTO VRB02KT 9999NDV BKN021/// OVC028/// 15/13 Q1016

2010/08/08 04:50
ENRO 080450Z AUTO 00000KT 0550NDV R32/0800V1800D FG VV000 02/01 Q1017

2010/08/08 04:50
ENRY 080450Z VRB01KT CAVOK 14/12 Q1015

2010/08/08 04:50
ENSB 080450Z 25006KT 9999 VCSH FEW008 BKN025 07/04 Q1012 

2010/08/08 04:50
ENTC 080450Z VRB02KT 9999 SCT008 OVC012 12/10 Q1019

2010/08/08 04:50
ENTO 080450Z 36004KT CAVOK 15/11 Q1015

2010/08/08 04:50
ENEK 080450Z 34016KT 9999 SCT008 BKN035 15/14 Q1016 W16/S3

2010/08/08 04:50
ENGC 080450Z 23016KT 1000 BR VV002 13/13 Q1014

2010/08/08 04:50
ENHE 080450Z 05019KT 9999 FEW005 12/12 Q1018

2010/08/08 04:50
ENOA 080450Z 25014KT 8000 -RA SCT008 BKN012 13/12 Q1015

2010/08/08 04:53
KCUT 080453Z AUTO 02003KT 10SM CLR 17/11 A2999 RMK AO2 SLP081 T01670106 TSNO 

2010/08/08 05:00
MYNN 080500Z 00000KT 9999 FEW012CB SCT015 28/26 A2999

2010/08/08 04:55
TXKF 080455Z 17014KT 9999 FEW014 SCT025 BKN300 27/24 Q1016  

2010/08/08 04:50
EDFH 080450Z 27005KT 220V290 5000 -SHRA FEW015 SCT024TCU BKN045 14/12 Q1016 RERA

2010/08/08 04:50
EDTL 080450Z 21006KT 9999 FEW038 FEW050CB SCT070 17/13 Q1016

2010/08/08 04:54
KCAR 080454Z AUTO 22004KT 10SM CLR 10/06 A2994 RMK AO2 SLP143 T01000061 401890072 

2010/08/08 04:51
KSAD 080451Z AUTO 00000KT 10SM CLR 27/17 A2994 RMK AO2 SLP084 T02720167 TSNO 

2010/08/08 04:53
KRNM 080453Z 26005KT 10SM CLR13/11 A2992 RMK AO2 SLP122 T01280106 

2010/08/08 05:00
NIUE 080500Z AUTO 09007KT //// ////// 24/18 Q1018

2010/08/08 04:54
KBKB 080454Z AUTO VRB03KT 10SM BKN120 28/24 A2989 RMK AO2 SLP146 T02780244 403610239 $ 

2010/08/08 04:54
KNFG 080454Z AUTO 00000KT 10SM BKN015 13/11 A2992 RMK AO2 SLP129 T01280106 TSNO $ 

2010/08/08 04:55
TXKF 080455Z 17014KT 9999 FEW014 SCT025 BKN300 27/24 Q1016 

2010/08/08 04:54
KROC 080454Z 22005KT 10SM FEW080 SCT200 14/11 A2999 RMK AO2 SLP155 T01440111 402330106 $ 

2010/08/08 04:50
ENBN 080450Z 36005KT 9999 FEW002 13/12 Q1016

2010/08/08 04:50
ENHF 080450Z AUTO 05008KT //// FEW001/// SCT014/// OVC018/// 11/10 Q1018 

2010/08/08 04:50
ENAN 080450Z 26007KT 9999 SCT012 11/09 Q1019

2010/08/08 04:50
ENBR 080450Z 16005KT 110V180 9000 -RA FEW003 SCT007 BKN015 14/13 Q1016 BECMG BKN020 

2010/08/08 04:50
ENBO 080450Z 07002KT 0400 FG VV004 11/11 Q1018

2010/08/08 04:50
ENDU 080450Z 00000KT 9999 2000NE BCFG FEW001 10/09 Q1019

2010/08/08 04:50
ENOL 080450Z 11006KT CAVOK 14/13 Q1015

2010/08/08 04:50
ENVA 080450Z 10004KT CAVOK 11/09 Q1016 

2010/08/08 04:50
ENZV 080450Z 00000KT 9999 BKN030 16/14 Q1016 NOSIG

2010/08/08 04:53
KFXE 080453Z 00000KT 10SM FEW095 27/24 A2998 RMK AO2 SLP154 T02720244 403440244 $

2010/08/08 04:53
KGCC 080453Z AUTO 05003KT 10SM CLR 19/10 A2992 RMK AO2 SLP080 T01890100

2010/08/08 04:53
KGEY 080453Z AUTO 29010KT 10SM CLR 22/07 A2987 RMK AO2 SLP074 T02170072

2010/08/08 04:53
KGEZ 080453Z AUTO 00000KT 10SM CLR 17/15 A2997 RMK AO2 SLP144 T01720150 402940133

2010/08/08 04:53
KGFL 080453Z AUTO 00000KT 10SM CLR 11/11 A3001 RMK AO2 SLP162 T01060106 402500089

2010/08/08 04:53
KGGG 080453Z AUTO 17007KT 10SM CLR 29/24 A2988 RMK AO2 SLP109 T02890239

2010/08/08 04:53
KGGW 080453Z AUTO 04009KT 10SM CLR 20/13 A2968 RMK AO2 SLP038 T02000133 TSNO

2010/08/08 04:53
KGIF 080453Z AUTO 23003KT 10SM CLR 27/24 A2998 RMK AO2 SLP148 T02720244 403330256 TSNO

2010/08/08 04:53
KGJT 080453Z AUTO 34003KT 10SM BKN085 OVC110 18/14 A3010 RMK AO2 RAE14 SLP129 P0000 T01780144

2010/08/08 04:53
KGKJ 080453Z AUTO 00000KT 10SM CLR 19/11 A3003 RMK AO2 SLP161 T01890106 402390133

2010/08/08 04:53
KGKY 080453Z AUTO 18007KT 10SM CLR 30/21 A2986 RMK AO2 SLP100 T03000211

2010/08/08 04:53
KGNV 080453Z AUTO 26003KT 10SM FEW022 BKN026 BKN090 24/23 A2996 RMK AO2 SLP142 T02440233 403330239

2010/08/08 04:53
KGOK 080453Z AUTO 14007KT 10SM CLR 29/23 A2984 RMK AO2 SLP092 T02890233

2010/08/08 04:53
KGTF 080453Z 00000KT 10SM CLR 18/04 A2979 RMK AO2 SLP055 T01830044

2010/08/08 04:53
KGZH 080453Z AUTO 00000KT 5SM BR CLR 25/24 A2994 RMK AO2 RAE07 SLP133 P0004 T02500244

2010/08/08 04:53
KHAO 080453Z AUTO 00000KT 10SM CLR 17/16 A3000 RMK AO2 SLP154 T01720156 403110139

2010/08/08 04:53
KHBR 080453Z AUTO 18009KT 10SM CLR 29/21 A2986 RMK AO2 SLP089 T02940211

2010/08/08 04:53
KHFD 080453Z AUTO 18003KT 10SM CLR 21/17 A3000 RMK AO2 SLP157 T02060167 402830156

2010/08/08 04:53
KHGR 080453Z AUTO 00000KT 10SM CLR 23/14 A3001 RMK AO2 SLP166 T02330144 403110167

2010/08/08 04:50
KHJH 080450Z AUTO 17009KT 10SM CLR 28/22 A2980 RMK AO2 T02750220

2010/08/08 04:53
KHJO 080453Z AUTO 31010KT 10SM CLR 28/14 A2974 RMK AO2 SLP072 T02780144 $

2010/08/08 04:53
KHLN 080453Z AUTO 25003KT 10SM FEW120 23/06 A2983 RMK AO2 LTG DSNT E SLP082 T02280056

2010/08/08 04:53
KHUF 080453Z 00000KT 7SM CLR 18/17 A2997 RMK AO2 SLP145 T01830172 402890144

2010/08/08 04:53
KHUL 080453Z AUTO 20003KT 10SM CLR 08/06 A2996 RMK AO2 SLP147 T00830061 402000050

2010/08/08 04:53
KHVN 080453Z AUTO 00000KT 10SM CLR 23/20 A3001 RMK AO2 SLP162 T02280200 402780161

2010/08/08 04:53
KHVR 080453Z AUTO 16005KT 10SM CLR 16/08 A2971 RMK AO2 SLP047 T01610083

2010/08/08 04:53
KHWO 080453Z AUTO 00000KT 10SM FEW080 28/24 A3000 RMK AO2 SLP159 T02780239 403440239 $

2010/08/08 04:53
KHZY 080453Z AUTO 17005KT 10SM CLR 18/14 A3001 RMK AO2 SLP156 T01780144 402560117

2010/08/08 04:53
KIAG 080453Z AUTO 18006KT 10SM FEW090 19/14 A2996 RMK AO2 SLP142 T01890139 402390111

2010/08/08 04:50
KIBM 080450Z AUTO 17006KT 10SM SCT120 23/13 A2999 RMK AO2 T02320129

2010/08/08 04:53
KIDA 080453Z AUTO 00000KT 10SM CLR 16/10 A2990 RMK AO2 SLP085 T01560100

2010/08/08 04:53
KIML 080453Z AUTO 21007KT 10SM CLR 27/19 A2988 RMK AO2 SLP076 T02670189

2010/08/08 04:53
KINK 080453Z AUTO 15012G19KT 10SM CLR 29/14 A2992 RMK AO2 SLP076 T02940144 TSNO

2010/08/08 04:53
KITR 080453Z AUTO 02006KT 10SM FEW065 23/17 A2994 RMK AO2 LTG DSNT N AND NW PRESFR SLP075 T02280167 $

2010/08/08 04:53
KIWI 080453Z AUTO 00000KT 10SM CLR 11/10 A3002 RMK AO2 SLP165 T01060100 402280072

2010/08/08 04:53
KJER 080453Z AUTO 09003KT 10SM CLR 21/09 A2987 RMK AO2 SLP076 T02060094

2010/08/08 04:53
KJKL 080453Z AUTO 00000KT 10SM CLR 22/15 A3002 RMK AO2 SLP150 T02170150 402890178

2010/08/08 04:50
KJYR 080450Z AUTO 17008KT 10SM CLR 26/22 A2979 RMK AO2

2010/08/08 04:53
KLAA 080453Z AUTO 00000KT 10SM BKN120 22/18 A2988 RMK AO2 LTG DSNT N AND NE SLP064 T02220183

2010/08/08 04:53
KLAN 080453Z 20005KT 9SM CLR 21/17 A2992 RMK AO2 SLP127 T02060172 402830117

2010/08/08 04:53
KLAR 080453Z AUTO 23006KT 10SM OVC090 17/08 A3017 RMK AO2 SLP093 T01670083

2010/08/08 04:53
KLAW 080453Z AUTO 14004KT 10SM CLR 30/21 A2985 RMK AO2 SLP091 T03000211

2010/08/08 04:53
KLBB 080453Z 13007KT 10SM FEW250 24/18 A2997 RMK AO2 SLP089 T02390178 $

2010/08/08 04:50
KLCG 080450Z AUTO 19005KT 10SM CLR 24/22 A2976 RMK AO2 T02420223

2010/08/08 04:53
KLEB 080453Z AUTO 00000KT 10SM CLR 11/08 A3001 RMK AO2 SLP157 T01060083 402440078

2010/08/08 04:53
KLEE 080453Z AUTO 06003KT 10SM CLR 27/25 A2996 RMK AO2 RAE0358 SLP145 P0000 T02720250 403170261 TSNO

2010/08/08 04:51
KLHM 080451Z AUTO 15008KT 10SM CLR 23/13 A2973 RMK AO1 T02330127

2010/08/08 04:53
KLHQ 080453Z AUTO 00000KT 9SM CLR 16/16 A3002 RMK AO2 SLP159 T01610156 402890133

2010/08/08 04:53
KLHX 080453Z AUTO 36005KT 10SM BKN110 23/16 A2996 RMK AO2 LTG DSNT N SLP076 T02330161 $

2010/08/08 04:53
KLNS 080453Z AUTO 10004KT 9SM FEW070 BKN100 20/17 A3001 RMK AO2 SLP158 T02000167 402890156

2010/08/08 04:53
KLOU 080453Z 00000KT 10SM CLR 23/17 A2998 RMK AO2 SLP147 T02280172 403060194

2010/08/08 04:53
KLOZ 080453Z AUTO 00000KT 5SM BR CLR 18/17 A3001 RMK AO2 SLP150 T01830172 402940178

2010/08/08 04:53
KLPR 080453Z AUTO 20004KT 10SM CLR 19/16 A2999 RMK AO2 SLP151 T01940156 402830161

2010/08/08 04:53
KLUK 080453Z AUTO 00000KT 9SM CLR 19/18 A3000 RMK AO2 SLP154 T01890178 403000156

2010/08/08 04:53
KLVM 080453Z AUTO 26014G23KT 10SM CLR 20/06 A2990 RMK AO2 PK WND 24026/0433 SLP076 T02000061

2010/08/08 04:53
KLVS 080453Z AUTO 29004KT 10SM CLR 17/12 A3019 RMK AO2 SLP106 T01670117

2010/08/08 04:53
KLWV 080453Z AUTO 08003KT 5SM BR CLR 20/18 A2995 RMK AO2 SLP139 T02000183

2010/08/08 04:50
KLXN 080450Z AUTO 15005KT 10SM CLR 26/22 A2982 RMK AO2 T02570220

2010/08/08 04:53
KMAF 080453Z 18007KT 10SM CLR 29/13 A2995 RMK AO2 SLP085 T02890133

2010/08/08 04:53
KMAI 080453Z AUTO 19005KT 7SM CLR 26/24 A2991 RMK AO2 SLP124 T02560244

2010/08/08 04:53
KMBS 080453Z 20008KT 10SM BKN110 22/17 A2989 RMK AO2 SLP116 T02220172 402890111

2010/08/08 04:53
KMCK 080453Z AUTO 02003KT 10SM CLR 24/22 A2983 RMK AO2 SLP073 T02440217

2010/08/08 04:53
KMCO 080453Z 23005KT 10SM FEW100 BKN140 OVC180 27/24 A2995 RMK AO2 SLP142 T02670239 403280256

2010/08/08 04:53
KMGY 080453Z AUTO 13003KT 10SM CLR 21/16 A3000 RMK AO2 SLP151 T02060156 402830161

2010/08/08 04:53
KMHT 080453Z 17003KT 10SM CLR 16/10 A3000 RMK AO2 SLP170 T01560100 402670111

2010/08/08 04:53
KMIA 080453Z 00000KT 10SM FEW040 SCT130 BKN250 28/25 A2999 RMK AO2 SLP156 T02830250 403440272 $

2010/08/08 04:53
KMIC 080453Z 20010G15KT 10SM SCT050 BKN070 28/22 A2967 RMK AO2 LTG DSNT N AND NW SLP041 T02780217

2010/08/08 04:53
KMIE 080453Z AUTO 00000KT 9SM CLR 19/17 A2999 RMK AO2 SLP147 T01890167 402720144

2010/08/08 04:53
KMKO 080453Z AUTO 15005KT 10SM CLR 25/23 A2987 RMK AO2 SLP106 T02500233

2010/08/08 04:53
KMLB 080453Z AUTO 20004KT 10SM CLR 25/24 A2996 RMK AO2 SLP145 T02500244 403560250

2010/08/08 04:53
KMLC 080453Z AUTO 00000KT 10SM SCT070 28/23 A2987 RMK AO2 SLP103 T02780233

2010/08/08 04:50
KMLE 080450Z AUTO 15006KT 10SM CLR 27/21 A2978 RMK AO2 T02680213

2010/08/08 04:53
KMLS 080453Z AUTO 28006KT 10SM CLR 22/11 A2974 RMK AO2 SLP048 T02220111

2010/08/08 04:53
KMLT 080453Z AUTO 00000KT 10SM CLR 08/06 A3000 RMK AO2 SLP163 T00830061 402110083

2010/08/08 04:53
KMLU 080453Z 00000KT 10SM CLR 27/25 A2991 RMK AO2 SLP125 T02720250

2010/08/08 04:50
KMMH 080450Z AUTO 00000KT 10SM CLR 12/M01 A3011 RMK AO1

2010/08/08 04:53
KMMK 080453Z AUTO 00000KT 10SM CLR 17/16 A3001 RMK AO2 SLP160 T01670161 402830128

2010/08/08 04:53
KMNN 080453Z AUTO 18005KT 10SM CLR 17/16 A3001 RMK AO2 SLP156 T01720156 402720139

2010/08/08 04:53
KMPO 080453Z AUTO 00000KT 10SM FEW090 14/11 A3006 RMK AO2 SLP172 T01440111 402610117 $

2010/08/08 04:53
KMSO 080453Z AUTO 00000KT 10SM CLR 19/05 A2984 RMK AO2 SLP087 T01890050

2010/08/08 04:53
KMSS 080453Z AUTO 20005KT 10SM OVC065 15/12 A2993 RMK AO2 SLP135 T01500117 402170089

2010/08/08 04:53
KMTH 080453Z AUTO VRB03KT 10SM CLR 29/24 A2998 RMK AO2 LTG DSNT NE SLP152 T02940244 403440289

2010/08/08 04:53
KMTJ 080453Z AUTO 15004KT 10SM SCT065 BKN090 BKN110 17/16 A3019 RMK AO2 SLP149 T01670156

2010/08/08 04:53
KMVY 080453Z AUTO 19005KT 10SM CLR 22/18 A3004 RMK AO2 SLP171 T02220183 402610117

2010/08/08 04:53
KMWL 080453Z AUTO 15006KT 10SM CLR 29/19 A2986 RMK AO2 SLP095 T02940194

2010/08/08 04:53
KODO 080453Z AUTO 17010KT 10SM CLR 29/13 A2996 RMK AO2 SLP089 T02940133 $

2010/08/08 04:50
KOGA 080450Z AUTO 20004KT 10SM CLR 26/14 A2987 RMK AO2 T02560137

2010/08/08 04:53
KOGB 080453Z AUTO 00000KT 4SM BR CLR 25/24 A2995 RMK AO2 SLP138 T02500239 403280228

2010/08/08 04:53
KOGD 080453Z AUTO 15005KT 10SM CLR 22/07 A2993 RMK AO2 SLP071 T02220072

2010/08/08 04:53
KOLF 080453Z AUTO 00000KT 10SM CLR 19/16 A2969 RMK AO2 SLP043 T01940161

2010/08/08 04:50
KONL 080450Z AUTO 35003KT 10SM CLR 24/22 A2978 RMK AO2 T02430224

2010/08/08 04:53
KONO 080453Z AUTO 34008KT 10SM CLR 25/08 A2976 RMK AO2 SLP061 T02500083

2010/08/08 04:53
KONT 080453Z 25008KT 10SM CLR 17/12 A2990 RMK AO2 SLP115 T01720122

2010/08/08 04:53
KSEG 080453Z AUTO 00000KT 8SM CLR 16/16 A3002 RMK AO2 SLP164 T01610156 402830139

2010/08/08 04:50
KSEZ 080450Z AUTO 05006KT 10SM SCT120 19/16 A3008 RMK AO2 T01850162

2010/08/08 04:53
KSFB 080453Z AUTO 26005KT 10SM -RA BKN065 BKN090 27/26 A2994 RMK AO2 RAE01B29 SLP138 P0001 T02670256 403110250

2010/08/08 04:53
KSHR 080453Z AUTO 14008KT 10SM CLR 18/11 A2986 RMK AO2 PRESFR SLP069 T01830106

2010/08/08 04:53
KSLC 080453Z 17018G25KT 10SM FEW070 SCT120 24/10 A2992 RMK AO2 SLP069 T02390100

2010/08/08 04:53
KSMQ 080453Z AUTO 00000KT 9SM FEW090 17/16 A2999 RMK AO2 SLP154 T01720161 402940117

2010/08/08 04:53
KSNY 080453Z AUTO 22011KT 10SM CLR 26/14 A2996 RMK AO2 PK WND 22026/0415 SLP077 T02610144

2010/08/08 04:50
KSOW 080450Z AUTO 15004KT 10SM BKN110 14/13 A3025 RMK AO2

2010/08/08 04:53
KSPG 080453Z AUTO 26005KT 10SM CLR 31/25 A2994 RMK AO2 SLP139 T03060250 403170283

2010/08/08 04:53
KSRQ 080453Z AUTO 26005KT 10SM CLR 29/24 A2996 RMK AO2 SLP144 T02940239 403280256 TSNO

2010/08/08 04:53
KSSI 080453Z AUTO 00000KT 9SM CLR 26/24 A2992 RMK AO2 SLP131 T02560244 403280239

2010/08/08 04:53
KSTS 080453Z AUTO 14004KT 10SM CLR 12/11 A2981 RMK AO2 SLP090 T01220106

2010/08/08 04:50
KSZT 080450Z AUTO 00000KT 10SM SCT100 17/13 A2976 RMK AO2

2010/08/08 04:53
KTDZ 080453Z AUTO 18005KT 10SM CLR 19/16 A2996 RMK AO2 SLP142 T01940161 402830156

2010/08/08 04:50
KTEX 080450Z AUTO 00000KT 10SM DZ SCT003 BKN060 OVC070 13/12 A3035 RMK AO2 P0001

2010/08/08 04:53
KTHV 080453Z AUTO 00000KT 10SM BKN070 OVC095 22/16 A3000 RMK AO2 SLP158 T02220156 402890139

2010/08/08 04:50
KTIF 080450Z AUTO 20007KT 10SM CLR 24/20 A2984 RMK AO2 T02410195

2010/08/08 04:53
KTKI 080453Z AUTO 17005KT 10SM CLR 30/22 A2986 RMK AO2 SLP101 T03000222

2010/08/08 04:53
KTMB 080453Z AUTO 00000KT 10SM CLR 28/24 A2999 RMK AO2 SLP155 T02830244 403610261

2010/08/08 04:53
KTOR 080453Z AUTO 26008KT 10SM CLR 27/08 A2988 RMK AO2 SLP055 T02670078

2010/08/08 04:53
KTPA 080453Z 24007KT 10SM FEW025 SCT130 SCT250 29/24 A2996 RMK AO2 SLP144 T02940244 403280272

2010/08/08 04:50
KTRK 080450Z AUTO 03009KT 340V050 10SM CLR 18/02 A3001 RMK AO2

2010/08/08 04:53
KTRL 080453Z AUTO 18003KT 10SM CLR 29/21 A2986 RMK AO2 SLP104 T02940211

2010/08/08 04:53
KTTN 080453Z AUTO 00000KT 10SM CLR 22/16 A3001 RMK AO2 SLP153 T02220161 403110156

2010/08/08 04:53
KTVL 080453Z AUTO 19005KT 10SM CLR 14/06 A3005 RMK AO2 SLP117 T01390056

2010/08/08 04:53
KTWF 080453Z AUTO 16008KT 10SM CLR 20/08 A2987 RMK AO2 SLP060 T02000083

2010/08/08 04:53
KTXK 080453Z AUTO 16007KT 10SM CLR 28/23 A2988 RMK AO2 SLP111 T02780233

2010/08/08 04:53
KTYR 080453Z AUTO 19009KT 10SM CLR 30/22 A2990 RMK AO2 SLP114 T03000217

2010/08/08 04:53
KUUU 080453Z AUTO 16004KT 10SM CLR 21/19 A3004 RMK AO2 SLP170 T02060194 402440133

2010/08/08 04:53
KVCB 080453Z AUTO 21004KT 10SM CLR 19/11 A2974 RMK AO2 SLP070 T01940111

2010/08/08 04:53
KVEL 080453Z AUTO 00000KT 10SM CLR 16/13 A3013 RMK AO2 SLP145 T01560133

2010/08/08 04:53
KOPF 080453Z AUTO 00000KT 10SM FEW110 28/25 A2999 RMK AO2 SLP156 T02780250 403330250 $

2010/08/08 04:53
KAIT 080453Z AUTO 00000KT 7SM CLR 19/17 A2967 RMK AO2 LTG DSNT SE

2010/08/08 04:53
KGHW 080453Z AUTO 17004KT 10SM VCTS CLR 22/19 A2970 RMK AO2 LTG DSNT SE

2010/08/08 04:53
KMWM 080453Z AUTO 19012KT 10SM CLR 25/22 A2972 RMK AO2 LTG DSNT N

2010/08/08 04:55
KULM 080455Z AUTO 19009KT 10SM CLR 24/22 A2969 RMK AO2 LTG DSNT NW

2010/08/08 04:53
KBBB 080453Z AUTO 21006KT 10SM VCTS SCT042 SCT050 26/24 A2969 RMK AO2 LTG DSNT E AND SE

2010/08/08 04:53
KTWM 080453Z AUTO 00000KT 10SM VCTS SCT011 BKN030 BKN055 18/14 A2974 RMK AO2 LTG DSNT NW THRU NE

2010/08/08 04:55
KMGG 080455Z AUTO 21005KT 10SM VCTS SCT018 BKN038 OVC046 26/22 A2970 RMK AO2 LTG DSNT ALQS T02570217

2010/08/08 04:48
KMOX 080448Z AUTO 00000KT 7SM SCT048 BKN065 24/24 A2962 RMK AO2 LTG DSNT SE

2010/08/08 04:53
PAAQ 080453Z 00000KT 7SM FEW013 OVC023 12/11 A2978 RMK AO2 SLP079 T01170106

2010/08/08 04:53
PABE 080453Z 19009KT 10SM OVC024 12/10 A2971 RMK AO2 SLP062 T01220100

2010/08/08 04:53
PABI 080453Z 32006KT 10SM FEW030 SCT050 BKN080 BKN180 17/09 A2969 RMK AO2 SLP055 SHRA DSNT SW-W T01720089 $

2010/08/08 04:53
PABR 080453Z 07018KT 3SM -RA BR OVC005 04/04 A2985 RMK AO2 RAB0354 SLP110 P0000 T00440044

2010/08/08 04:53
PABT 080453Z 00000KT 10SM SCT032 BKN048 BKN065 16/11 A2962 RMK AO2 SLP038 VIRGA VC W-NW T01560111 $

2010/08/08 04:53
PACD 080453Z AUTO 15025G31KT 7SM -RA OVC003 11/11 A2972 RMK AO2 PK WND 15031/0453 SLP063 P0000 T01060106 TSNO

2010/08/08 04:53
PACV 080453Z 07003KT 10SM SCT032 OVC043 11/10 A2981 RMK AO2 RAE52 SLP093 P0002 T01110100

2010/08/08 04:53
PADE 080453Z AUTO 30008KT 10SM BKN075 14/10 A2959 RMK AO2 SLP021 T01390100 TSNO

2010/08/08 04:53
PADQ 080453Z 30006KT 10SM SCT010 OVC022 13/11 A2978 RMK AO2 SLP086 T01330111

2010/08/08 04:53
PAEG 080453Z AUTO 29003KT 3SM -RA BR BKN027 OVC033 13/12 A2962 RMK AO2 RAB05 SLP033 P0010 T01280117 TSNO

2010/08/08 04:53
PAEN 080453Z 20011KT 10SM OVC060 14/11 A2975 RMK AO2 SLP075 T01390111 $

2010/08/08 04:53
PAFA 080453Z 00000KT 10SM FEW045 SCT085 BKN130 16/13 A2965 RMK AO2 RAE01 SLP043 P0001 T01560128

2010/08/08 04:53
PAGK 080453Z 16005KT 10SM SCT045 BKN065 OVC100 15/09 A2967 RMK AO2 SLP048 SHRA N T01500089

2010/08/08 04:53
PAGY 080453Z AUTO 00000KT 10SM OVC039 13/10 A2981 RMK AO2 SLP094 T01330100 TSNO

2010/08/08 04:53
PAHO 080453Z 07003KT 10SM FEW010 SCT040 BKN075 12/11 A2977 RMK AO2 SLP083 T01170106

2010/08/08 04:53
PAIL 080453Z 21004KT 10SM OVC016 11/09 A2979 RMK AO2 SLP090 T01060094

2010/08/08 04:53
PAJN 080453Z 06006KT 2SM -RA BR FEW005 BKN020 OVC031 12/11 A2985 RMK AO2 SLP107 MTNS OBSCD ALQDS P0004 T01170111

2010/08/08 04:53
PAKT 080453Z 00000KT 10SM FEW012 BKN021 OVC033 14/12 A2990 RMK AO2 SLP126 T01390117

2010/08/08 04:53
PAKV 080453Z AUTO 00000KT 6SM -RA BR SCT021 BKN027 OVC036 13/12 A2967 RMK AO2 SLP049 P0015 T01330122 TSNO

2010/08/08 04:53
PAKW 080453Z AUTO 00000KT 5SM -RA BR OVC006 12/11 A2989 RMK AO2 RAB44 CIG 005V010 SLP121 P0000 T01220111 TSNO

2010/08/08 04:53
PALH 080453Z VRB05KT 10SM -RA SCT015 BKN044 OVC070 13/11 A2976 RMK AO2 SLP078 P0001 T01330111

2010/08/08 04:53
PAMC 080453Z 18003KT 10SM SCT025 BKN060 OVC075 13/11 A2970 RMK AO2 SLP061 T01280106

2010/08/08 04:53
PAMR 080453Z 21005KT 10SM -RA BR SCT060 BKN075 13/11 A2975 RMK AO2 SLP075 P0001 T01280106 $

2010/08/08 04:53
PANC 080453Z 20004KT 10SM -RA FEW011 BKN040 OVC055 12/11 A2975 RMK AO2 SLP074 P0000 T01220111

2010/08/08 04:53
PANN 080453Z AUTO 20003KT 10SM CLR 17/10 A2965 RMK AO2 SLP045 T01670100 TSNO

2010/08/08 04:53
PANT 080453Z AUTO 24003KT 10SM BKN027 OVC038 14/11 A2990 RMK AO2 SLP127 T01440111 TSNO

2010/08/08 04:53
PAOM 080453Z 24007KT 10SM BKN009 OVC020 13/11 A2959 RMK AO2 SLP021 T01330106

2010/08/08 04:53
PAOR 080453Z AUTO 25004KT 10SM SCT050 BKN080 14/09 A2966 RMK AO2 SLP044 T01390094 TSNO

2010/08/08 04:53
PAOT 080453Z 29014G21KT 10SM FEW003 BKN040 BKN080 OVC180 11/10 A2957 RMK AO2 SLP013 T01060100

2010/08/08 04:53
PAPB 080453Z AUTO 18017KT 4SM -RA BR OVC003 10/10 A2936 RMK AO2 SLP929 P0005 T01000100 TSNO

2010/08/08 04:53
KORL 080453Z AUTO 23005KT 10SM CLR 27/25 A2995 RMK AO2 SLP144 T02670250 403170244

2010/08/08 04:53
KOSU 080453Z AUTO 11003KT 10SM CLR 18/16 A3000 RMK AO2 SLP154 T01830161 402890144

2010/08/08 04:53
KOWD 080453Z AUTO 00000KT 10SM CLR 12/10 A3002 RMK AO2 SLP165 T01220100 402720083 $

2010/08/08 04:53
KPBG 080453Z AUTO 00000KT 10SM CLR 11/09 A2997 RMK AO2 SLP148 T01060089 402330089

2010/08/08 04:53
KPBI 080453Z 21004KT 10SM FEW039 SCT090 27/26 A2996 RMK AO2 SLP144 T02720256 403280256 $

2010/08/08 04:53
KPEO 080453Z AUTO 14004KT CLR 12/12 A3002 RMK AO2 SLP164 T01220117 402390117 $

2010/08/08 04:53
KPGA 080453Z AUTO 00000KT 10SM CLR 18/14 A3009 RMK AO2 SLP136 T01780144

2010/08/08 04:53
KPGD 080453Z AUTO 18003KT 10SM CLR 27/25 A3000 RMK AO2 SLP157 T02720250 403280256 TSNO

2010/08/08 04:53
KPHD 080453Z AUTO 00000KT 10SM CLR 16/14 A3003 RMK AO2 SLP164 T01610144 402780139

2010/08/08 04:53
KPIE 080453Z AUTO 23004KT 10SM CLR 28/24 A2996 RMK AO2 SLP144 T02780244 403220261

2010/08/08 04:53
KPIH 080453Z AUTO 19009KT 10SM CLR 23/05 A2991 RMK AO2 SLP078 T02280050

2010/08/08 04:53
KPKB 080453Z AUTO 00000KT 9SM CLR 18/17 A3005 RMK AO2 SLP167 T01780167 403060150

2010/08/08 04:53
KPMP 080453Z AUTO 24003KT 10SM RA CLR 28/25 A2998 RMK AO2 SLP153 P0000 T02780250 403330239

2010/08/08 04:50
KPNA 080450Z AUTO 00000KT 10SM SCT120 13/06 A3011 RMK AO2 T01280060

2010/08/08 04:53
KPNS 080453Z AUTO 25004KT 9SM BKN100 OVC120 27/24 A2990 RMK AO2 SLP127 T02670244 $

2010/08/08 04:53
KPOU 080453Z 00000KT 10SM CLR 14/12 A3000 RMK AO2 SLP153 T01440122 402830128

2010/08/08 04:53
KPTK 080453Z 21004KT 10SM SCT150 22/16 A2993 RMK AO2 SLP128 T02170161 402780122

2010/08/08 04:50
KPTT 080450Z AUTO 15007KT 10SM CLR 28/21 A2986 RMK AO2

2010/08/08 04:53
KPUB 080453Z AUTO 04006KT 10SM FEW120 22/18 A2998 RMK AO2 RAE0358 SLP077 P0000 T02220183 $

2010/08/08 04:53
KPUC 080453Z AUTO 09008KT 10SM CLR 16/10 A3015 RMK AO2 SLP142 T01610100

2010/08/08 04:53
KPUW 080453Z AUTO 00000KT 10SM CLR 20/08 A2985 RMK AO2 SLP091 T02000078

2010/08/08 04:53
KPWA 080453Z AUTO 15011G18KT 10SM CLR 31/22 A2986 RMK AO2 SLP089 T03110217

2010/08/08 04:53
KRBD 080453Z 19006KT 10SM CLR 31/20 A2986 RMK AO2 SLP100 T03060200

2010/08/08 04:53
KRIW 080453Z AUTO 05008KT 10SM CLR 23/06 A2998 RMK AO2 SLP078 T02280056

2010/08/08 04:53
KRME 080453Z AUTO 11004KT 10SM CLR 14/12 A3003 RMK AO2 SLP164 T01390122 402330117

2010/08/08 04:53
KRSW 080453Z AUTO 00000KT 10SM CLR 28/25 A2997 RMK AO2 SLP148 T02780250 403220250

2010/08/08 04:53
KRWL 080453Z AUTO 34005KT 10SM -RA OVC075 14/11 A3015 RMK AO2 SLP115 T01440106 PNO $

2010/08/08 04:53
KRXE 080453Z AUTO 05005KT 10SM CLR 14/09 A2991 RMK AO2 SLP090 T01440094

2010/08/08 04:53
KSAC 080453Z 19008KT 10SM CLR 19/12 A2975 RMK AO2 SLP073 T01890117

2010/08/08 04:53
KSAF 080453Z AUTO 32006KT 10SM BKN100 21/11 A3017 RMK AO2 SLP100 T02110111

2010/08/08 04:53
KVLD 080453Z AUTO 00000KT 4SM BR FEW005 25/24 A2993 RMK AO2 SLP142 T02500244 403330250

2010/08/08 04:53
KVRB 080453Z 19003KT 10SM CLR 26/24 A2996 RMK AO2 SLP145 T02560239 403560250

2010/08/08 04:53
KWRL 080453Z AUTO 18007KT 10SM FEW120 22/07 A2990 RMK AO2 SLP080 T02170072

2010/08/08 04:53
KWST 080453Z AUTO 00000KT 9SM SCT090 17/16 A3003 RMK AO2 SLP169 T01720161 402560133

2010/08/08 04:53
KWVI 080453Z AUTO 10SM OVC007 13/11 A2990 RMK AO2 SLP126 T01280111 $

2010/08/08 04:53
KYIP 080453Z 20007KT 8SM CLR 20/17 A2995 RMK AO2 SLP135 T02000167 402830122

2010/08/08 04:53
KZZV 080453Z AUTO 00000KT 9SM CLR 18/17 A3002 RMK AO2 SLP159 T01780167 402780139

2010/08/08 04:53
KPQN 080453Z AUTO 21010KT 10SM CLR 25/23 A2972 RMK AO2

2010/08/08 04:54
KFGN 080454Z AUTO 14003KT 10SM CLR 21/17 A2969 RMK AO2

2010/08/08 04:53
KPNM 080453Z AUTO 15005KT 10SM VCTS BKN022 19/18 A2972 RMK AO2 P0003 LTG DSNT ALQDS

2010/08/08 04:53
KPWC 080453Z AUTO 14004KT 10SM CLR 18/18 A2971 RMK AO2

2010/08/08 04:53
KFFM 080453Z AUTO 07004KT 10SM CLR 21/19 A2963 RMK AO2 LTG DSNT SE

2010/08/08 04:52
KGDB 080452Z AUTO 16004KT 7SM VCTS SCT060 SCT070 24/23 A2967 RMK AO2 LTG DSNT NE T02400228

2010/08/08 04:53
PAQT 080453Z AUTO 06017G22KT 10SM OVC008 06/04 A2977 RMK AO2 PK WND 06026/0403 SLP083 T00560044 TSNO

2010/08/08 04:53
PASC 080453Z 07021KT 10SM OVC005 04/03 A2975 RMK AO2 PK WND 07029/0428 SLP076 T00390028

2010/08/08 04:53
PASI 080453Z 21004KT 10SM BKN012 OVC017 13/12 A2988 RMK AO2 RAB00E33 SLP119 P0001 T01280122

2010/08/08 04:53
PASN 080453Z AUTO 17015KT 2 1/2SM -RA BR OVC004 08/08 A2931 RMK AO2 SLP926 P0001 T00830083 TSNO

2010/08/08 04:53
PASO 080453Z AUTO 00000KT 10SM FEW070 SCT100 12/12 A2977 RMK AO2 SLP080 T01170117 TSNO

2010/08/08 04:53
PATK 080453Z AUTO 19004KT 10SM FEW019 OVC031 13/11 A2974 RMK AO2 SLP073 T01330106 TSNO

2010/08/08 04:53
PATO 080453Z AUTO 11005KT 6SM -RA BR FEW020 OVC026 09/09 A2978 RMK AO2 SLP085 P0004 T00940089 TSNO

2010/08/08 04:53
PAVL 080453Z AUTO 29011KT 5SM -RA BR OVC003 10/09 A2958 RMK AO2 SLP018 P0000 T01000094 TSNO

2010/08/08 04:53
PAYA 080453Z 00000KT 10SM SCT008 OVC060 14/11 A2984 RMK AO2 SLP105 BAY TWR WND 340MMKT T01390111

2010/08/08 04:50
EGCN 080450Z 30006KT CAVOK 12/11 Q1020

2010/08/08 04:50
EGSH 080450Z 34005KT 300V010 9999 FEW007 SCT030 16/14 Q1017

2010/08/08 04:50
LOWW 080450Z 28008KT 9999 FEW030 SCT045 BKN060 17/13 Q1017 NOSIG

2010/08/08 04:50
LOWL 080450Z 29003KT 6000 VCFG SCT280 12/11 Q1018 TEMPO 4000 BR

2010/08/08 04:50
LOWS 080450Z 16010KT 9999 FEW010 13/11 Q1019 NOSIG

2010/08/08 04:50
LOWI 080450Z 00000KT 9999 FEW006 BKN013 12/11 Q1021 BECMG SCT010 SCT020

2010/08/08 04:50
LOWG 080450Z VRB02KT 0600 R17/0750N R35/0800U FG BKN002 13/13 Q1018 BECMG 2000 BR BKN003

2010/08/08 04:50
LOWK 080450Z VRB01KT 8000 SCT006 OVC008 14/12 Q1020 NOSIG

2010/08/08 04:50
LOXZ 080450Z VRB02KT 0100 FG FEW050SC 09/08 Q1020 RMK FEW

2010/08/08 04:50
BGSF 080450Z 05007KT 9999 FEW200 05/02 Q1014

2010/08/08 04:50
BGBW 080450Z AUTO 22002KT 9999NDV -SHRA FEW085/// BKN130/// BKN150/// 11/07 Q1013

2010/08/08 04:50
BGGH 080450Z AUTO 02003KT 9999NDV -RA OVC069/// 11/08 Q1012

2010/08/08 04:50
BGJN 080450Z AUTO VRB01KT 9999NDV NCD 06/01 Q1014

2010/08/08 04:50
BGSS 080450Z AUTO 00000KT 9999NDV NCD 13/06 Q1011

2010/08/08 04:50
BGAA 080450Z AUTO 07002KT 9999NDV BKN230/// 08/03 Q1014

2010/08/08 04:50
BGMQ 080450Z AUTO 11013KT 340V140 9999NDV NCD 15/05 Q1010

2010/08/08 04:50
BGUK 080450Z AUTO VRB01KT 9999NDV ///028/// 10/07 Q1016 RMK /// 

2010/08/08 04:50
BGPT 080450Z AUTO 12004KT //// OVC200/// 10/08 Q1011

2010/08/08 04:50
ENAL 080450Z AUTO 00000KT 6000NDV -RA FEW008/// SCT026/// BKN061/// 15/14 Q1016

2010/08/08 04:50
ENCN 080450Z 05003KT CAVOK 15/12 Q1015

2010/08/08 04:50
ENHD 080450Z AUTO VRB02KT 9999NDV BKN021/// OVC028/// 15/13 Q1016

2010/08/08 04:50
ENRO 080450Z AUTO 00000KT 0550NDV R32/0800V1800D FG VV000 02/01 Q1017

2010/08/08 04:50
ENRY 080450Z VRB01KT CAVOK 14/12 Q1015

2010/08/08 04:50
ENSB 080450Z 25006KT 9999 VCSH FEW008 BKN025 07/04 Q1012 

2010/08/08 04:50
ENTC 080450Z VRB02KT 9999 SCT008 OVC012 12/10 Q1019

2010/08/08 04:50
ENTO 080450Z 36004KT CAVOK 15/11 Q1015

2010/08/08 04:50
EBAW 080450Z 25006KT 4500 BR BKN006 OVC007 16/14 Q1015 TEMPO SHRA

2010/08/08 04:50
EBBR 080450Z 24004KT 9000 BKN008 15/14 Q1016 TEMPO 4500 BR

2010/08/08 04:50
EBCI 080450Z 24006KT 3700 -SHRA BKN005 BKN033 14/12 Q1016 NOSIG

2010/08/08 04:50
EBLG 080450Z 27007KT 9999 FEW009 BKN015 14/13 Q1016 TEMPO BKN005

2010/08/08 04:50
EBOS 080450Z 33009KT 9999 SCT012 SCT038 17/14 Q1016 TEMPO BKN012

2010/08/08 04:50
ELLX 080450Z 27010KT 240V310 9999 BKN007 BKN050 14/12 Q1016 NOSIG

2010/08/08 04:50
ENEK 080450Z 34016KT 9999 SCT008 BKN035 15/14 Q1016 W16/S3

2010/08/08 04:50
ENGC 080450Z 23016KT 1000 BR VV002 13/13 Q1014

2010/08/08 04:50
ENHE 080450Z 05019KT 9999 FEW005 12/12 Q1018

2010/08/08 04:50
ENOA 080450Z 25014KT 8000 -RA SCT008 BKN012 13/12 Q1015

2010/08/08 04:52
K9V9 080452Z AUTO 26003KT 24/20 A2972 RMK AO2 SLP045 T02440200 PWINO TSNO

2010/08/08 04:53
KRQE 080453Z AUTO 21003KT 10SM BKN007 BKN014 15/13 A3022 RMK AO2 CIG 006V011 SLP126 T01500133 TSNO

2010/08/08 04:53
KMSY 080453Z 25007KT 10SM FEW050 SCT250 29/25 A2993 RMK AO2 SLP137 T02890250

2010/08/08 04:51
KVCT 080451Z AUTO 18005KT 10SM CLR 27/26 A2991 RMK AO2 SLP126 T02670256 PNO $

2010/08/08 04:53
KOQT 080453Z AUTO 00000KT 8SM CLR 22/19 A3000 RMK AO2 SLP140 T02170194 403170194 TSNO

2010/08/08 04:53
KRIL 080453Z AUTO 00000KT 10SM FEW060 BKN110 17/13 A3015 RMK AO2 SLP142 T01720133 TSNO

2010/08/08 04:53
KSAV 080453Z 36003KT 8SM FEW015 25/24 A2993 RMK AO2 SLP134 T02500239 403280239

2010/08/08 04:53
KFAR 080453Z 18004KT 9SM CLR 23/21 A2964 RMK AO2 SLP032 T02330211

2010/08/08 04:53
KLXV 080453Z AUTO 08010KT 3SM -RA BR SCT031 BKN044 OVC065 09/08 A3040 RMK AO2 RAB06 SLP122 P0010 T00890083 TSNO

2010/08/08 04:53
KMWT 080453Z AUTO 12004KT 10SM SCT048 SCT055 27/24 A2990 RMK AO2 SLP111 T02720244 TSNO

2010/08/08 04:53
KOVE 080453Z AUTO 14007KT 10SM CLR 27/13 A2974 RMK AO2 SLP073 T02670128 TSNO $

2010/08/08 04:53
KELY 080453Z AUTO 15021G27KT 10SM CLR 20/04 A3004 RMK AO2 PK WND 15028/0414 SLP060 T02000039

2010/08/08 04:53
KBNO 080453Z AUTO 31008KT 10SM CLR 21/04 A2988 RMK AO2 SLP080 T02110039 TSNO $

2010/08/08 04:53
KMSN 080453Z 19007KT 10SM CLR 23/19 A2984 RMK AO2 SLP097 T02330189

2010/08/08 04:53
KTLH 080453Z 00000KT 10SM CLR 25/24 A2992 RMK AO2 SLP131 T02500239 403440250

2010/08/08 04:53
KTCS 080453Z AUTO 30011KT 10SM CLR 26/13 A3004 RMK AO2 SLP076 T02610133 TSNO

2010/08/08 04:53
KHTL 080453Z AUTO 20008KT 10SM SCT095 BKN120 21/18 A2986 RMK AO2 SLP106 T02110183 402610072

2010/08/08 04:53
KMGM 080453Z 12003KT 10SM SCT070 BKN100 OVC250 26/23 A2992 RMK AO2 SLP129 OCNL LTGIC DSNT SW CB DSNT SW T02560233

2010/08/08 04:53
KTYS 080453Z 00000KT 9SM CLR 22/19 A2997 RMK AO2 SLP135 T02220194 403280206

2010/08/08 04:53
KTUP 080453Z AUTO 00000KT 6SM BR BKN080 27/25 A2992 RMK AO2 SLP125 T02670250

2010/08/08 04:53
KDAB 080453Z 00000KT 10SM FEW015 SCT140 OVC250 26/24 A2995 RMK AO2 RAE01 SLP141 P0000 T02610244 403170250

2010/08/08 04:53
KMCN 080453Z AUTO 00000KT 10SM CLR 25/23 A2994 RMK AO2 SLP133 T02500233 403330239 TSNO

2010/08/08 04:53
KTRI 080453Z 00000KT 7SM SCT070 19/17 A3002 RMK AO2 SLP150 T01940167 403170178

2010/08/08 04:53
KBTR 080453Z 24008KT 10SM FEW040 SCT250 28/25 A2992 RMK AO2 SLP130 T02830250

2010/08/08 04:53
KCHA 080453Z 00000KT 10SM CLR 26/22 A2996 RMK AO2 SLP137 T02560222 403500217

2010/08/08 04:53
KLAX 080453Z 27008KT 10SM BKN012 16/12 A2990 RMK AO2 SLP125 T01610122

2010/08/08 04:53
KSDM 080453Z AUTO 00000KT 10SM FEW014 13/12 A2992 RMK AO2 SLP131 T01330117 TSNO $

2010/08/08 04:53
KP92 080453Z AUTO VRB04KT 31/25 A2993 RMK AO2 SLP135 T03060250 PWINO TSNO

2010/08/08 04:54
PGUM 080454Z 08012KT 10SM FEW022TCU SCT050 31/25 A2980 RMK AO2 RAB38E47 SLP083 TCU NE MOV W P0000 T03060250 $

2010/08/08 04:53
K40J 080453Z AUTO 00000KT 24/24 A2994 RMK AO2 SLP137 T02440239 403330244 PWINO TSNO

2010/08/08 04:53
K6R6 080453Z AUTO 12008KT 29/17 A2991 RMK AO2 SLP085 T02890167 PWINO TSNO

2010/08/08 04:53
KCTY 080453Z AUTO 04003KT 25/24 A2994 RMK AO2 SLP139 P0001 T02500244 403330244 PWINO TSNO

2010/08/08 04:53
KSGR 080453Z AUTO 17006KT 10SM CLR 27/24 A2991 RMK AO2 SLP135 T02670244 TSNO

2010/08/08 04:53
KDNK 080453Z AUTO 19004KT 10SM CLR 28/23 A2991 RMK AO2 SLP125 T02780233 403440233 PNO $

2010/08/08 04:53
KCQC 080453Z AUTO 31008KT 10SM BKN095 18/11 A3020 RMK AO2 SLP118 T01780111 TSNO

2010/08/08 04:54
KJAN 080454Z 00000KT 10SM CLR 26/24 A2993 RMK AO2 SLP130 T02610239

2010/08/08 04:54
KBTV 080454Z 00000KT 10SM CLR 13/11 A2998 RMK AO2 SLP152 T01280106 402220094

2010/08/08 04:50
LIEA 080450Z 00000KT CAVOK 13/13 Q1018

2010/08/08 04:45
LIEE 080445Z 32006KT CAVOK 15/12 Q1018 NOSIG

2010/08/08 04:50
LIEO 080450Z 21005KT CAVOK 16/14 Q1018

2010/08/08 04:50
LIMC 080450Z 00000KT CAVOK 16/13 Q1017 NOSIG

2010/08/08 04:50
LIME 080450Z 01004KT CAVOK 16/13 Q1017

2010/08/08 04:50
LIMJ 080450Z 07006KT 9999 SCT028 21/18 Q1017

2010/08/08 04:50
LIML 080450Z VRB01KT CAVOK 17/15 Q1016 NOSIG

2010/08/08 04:45
LIRA 080445Z 32003KT CAVOK 18/15 Q1017

2010/08/08 04:50
LIRF 080450Z VRB03KT CAVOK 16/14 Q1017 NOSIG

2010/08/08 04:50
LIRN 080450Z VRB02KT CAVOK 19/15 Q1016

2010/08/08 04:45
LIRP 080445Z 12001KT CAVOK 18/18 Q1018 NOSIG

2010/08/08 04:50
LIRQ 080450Z VRB03KT 9999 SCT015 SCT030 18/15 Q1018

2010/08/08 04:50
LIBD 080450Z 29005KT 9999 FEW025 20/13 Q1016

2010/08/08 04:45
LIBR 080445Z 28011KT 9999 SCT015 23/19 Q1015 NOSIG

2010/08/08 04:50
LICC 080450Z 23005KT CAVOK 19/15 Q1016

2010/08/08 04:50
LICJ 080450Z 08006KT 9999 FEW030 23/18 Q1017

2010/08/08 04:50
LIPB 080450Z 00000KT CAVOK 14/12 Q1019

2010/08/08 04:50
LIPE 080450Z 20007KT 170V230 CAVOK 19/15 Q1016

2010/08/08 04:45
LIPH 080445Z 03002KT CAVOK 20/19 Q1017

2010/08/08 04:50
LIPQ 080450Z VRB02KT 9999 SCT070 16/14 Q1017

2010/08/08 04:45
LIPR 080445Z 00000KT CAVOK 18/17 Q1016

2010/08/08 04:45
LIPX 080445Z 34005KT CAVOK 16/16 Q1016

2010/08/08 04:50
LIPZ 080450Z 01004KT CAVOK 19/18 Q1017

2010/08/08 04:50
ENAN 080450Z 26007KT 9999 SCT012 11/09 Q1019

2010/08/08 04:50
ENBR 080450Z 16005KT 110V180 9000 -RA FEW003 SCT007 BKN015 14/13 Q1016 BECMG BKN020 

2010/08/08 04:50
ENBO 080450Z 07002KT 0400 FG VV004 11/11 Q1018

2010/08/08 04:50
ENDU 080450Z 00000KT 9999 2000NE BCFG FEW001 10/09 Q1019

2010/08/08 04:50
ENOL 080450Z 11006KT CAVOK 14/13 Q1015

2010/08/08 04:50
ENVA 080450Z 10004KT CAVOK 11/09 Q1016 

2010/08/08 04:50
ENZV 080450Z 00000KT 9999 BKN030 16/14 Q1016 NOSIG

2010/08/08 04:53
KCUT 080453Z AUTO 02003KT 10SM CLR 17/11 A2999 RMK AO2 SLP081 T01670106 TSNO

2010/08/08 04:53
KPQN 080453Z AUTO 21010KT 10SM CLR 25/23 A2972 RMK AO2

2010/08/08 04:54
KFGN 080454Z AUTO 14003KT 10SM CLR 21/17 A2969 RMK AO2

2010/08/08 04:53
KPNM 080453Z AUTO 15005KT 10SM VCTS BKN022 19/18 A2972 RMK AO2 P0003 LTG DSNT ALQDS

2010/08/08 04:53
KPWC 080453Z AUTO 14004KT 10SM CLR 18/18 A2971 RMK AO2

2010/08/08 04:53
KFFM 080453Z AUTO 07004KT 10SM CLR 21/19 A2963 RMK AO2 LTG DSNT SE

2010/08/08 04:52
KGDB 080452Z AUTO 16004KT 7SM VCTS SCT060 SCT070 24/23 A2967 RMK AO2 LTG DSNT NE T02400228

2010/08/08 04:53
KAIT 080453Z AUTO 00000KT 7SM CLR 19/17 A2967 RMK AO2 LTG DSNT SE

2010/08/08 04:53
KGHW 080453Z AUTO 17004KT 10SM VCTS CLR 22/19 A2970 RMK AO2 LTG DSNT SE

2010/08/08 04:53
KMWM 080453Z AUTO 19012KT 10SM CLR 25/22 A2972 RMK AO2 LTG DSNT N

2010/08/08 04:55
KULM 080455Z AUTO 19009KT 10SM CLR 24/22 A2969 RMK AO2 LTG DSNT NW

2010/08/08 04:53
KBBB 080453Z AUTO 21006KT 10SM VCTS SCT042 SCT050 26/24 A2969 RMK AO2 LTG DSNT E AND SE

2010/08/08 04:53
KTWM 080453Z AUTO 00000KT 10SM VCTS SCT011 BKN030 BKN055 18/14 A2974 RMK AO2 LTG DSNT NW THRU NE

2010/08/08 04:55
KMGG 080455Z AUTO 21005KT 10SM VCTS SCT018 BKN038 OVC046 26/22 A2970 RMK AO2 LTG DSNT ALQS T02570217

2010/08/08 04:48
KMOX 080448Z AUTO 00000KT 7SM SCT048 BKN065 24/24 A2962 RMK AO2 LTG DSNT SE

2010/08/08 04:54
KCAR 080454Z AUTO 22004KT 10SM CLR 10/06 A2994 RMK AO2 SLP143 T01000061 401890072

2010/08/08 04:51
KSAD 080451Z AUTO 00000KT 10SM CLR 27/17 A2994 RMK AO2 SLP084 T02720167 TSNO

2010/08/08 04:54
KBKB 080454Z AUTO VRB03KT 10SM BKN120 28/24 A2989 RMK AO2 SLP146 T02780244 403610239 $

2010/08/08 04:54
KROC 080454Z 22005KT 10SM FEW080 SCT200 14/11 A2999 RMK AO2 SLP155 T01440111 402330106 $

2010/08/08 04:50
EFJO 080450Z AUTO 16009KT 130V210 8000 SKC 24/21 Q1016

2010/08/08 04:50
EFLP 080450Z 12004KT 080V150 8000 FEW085 25/19 Q1016

2010/08/08 04:50
EFMI 080450Z AUTO 13006KT 090V160 8000 SKC 24/21 Q1015

2010/08/08 04:50
EFSA 080450Z AUTO 15005KT 120V190 9000NDV NCD 24/20 Q1016

2010/08/08 04:50
EFUT 080450Z AUTO 13007KT CAVOK 24/20 Q1015

2010/08/08 04:50
EFVR 080450Z AUTO 13005KT 9000 SKC 23/21 Q1015

2010/08/08 04:50
ENBN 080450Z 36005KT 9999 FEW002 13/12 Q1016

2010/08/08 04:50
ENHF 080450Z AUTO 05008KT //// FEW001/// SCT014/// OVC018/// 11/10 Q1018 

2010/08/08 04:53
KRNM 080453Z 26005KT 10SM CLR13/11 A2992 RMK AO2 SLP122 T01280106

2010/08/08 04:53
KARA 080453Z AUTO 00000KT 10SM CLR 27/25 A2994 RMK AO2 SLP137 T02720250 $

2010/08/08 04:53
KASD 080453Z AUTO 00000KT 10SM CLR 29/26 A2991 RMK AO2 SLP129 T02940261

2010/08/08 04:53
KASX 080453Z AUTO 16004KT 5SM VCTS -RA BR FEW011 BKN042 OVC060 19/19 A2976 RMK AO2 LTG DSNT ALQDS TSE30B47 SLP074 P0008 T01890189

2010/08/08 04:53
KATY 080453Z AUTO 18005KT 10SM CLR 24/23 A2968 RMK AO2 SLP036 T02440233

2010/08/08 04:53
KAUS 080453Z 18008KT 10SM CLR 28/24 A2990 RMK AO2 SLP113 T02830239

2010/08/08 04:53
KAWM 080453Z AUTO 00000KT 9SM BKN070 27/24 A2990 RMK AO2 SLP120 T02670244

2010/08/08 04:53
KAXN 080453Z AUTO 20005KT 10SM CLR 23/21 A2968 RMK AO2 LTG DSNT SE SLP042 T02280206

2010/08/08 04:53
KAZO 080453Z AUTO 20009KT 9SM CLR 22/18 A2993 RMK AO2 SLP129 T02170178 402830161

2010/08/08 04:53
KBDE 080453Z AUTO 11004KT 10SM CLR 18/15 A2970 RMK AO2 SLP054 T01780150

2010/08/08 04:53
KBEH 080453Z AUTO 18006KT 10SM SCT085 23/18 A2991 RMK AO2 SLP122 T02280178 402780156

2010/08/08 04:53
KBFD 080453Z AUTO 00000KT 10SM CLR 10/09 A3007 RMK AO2 SLP176 T01000089 402170078

2010/08/08 04:53
KBFI 080453Z 18004KT 10SM SCT010 SCT041 OVC075 18/16 A2991 RMK AO2 SLP127 T01780156

2010/08/08 04:53
KBFM 080453Z AUTO 00000KT 10SM FEW046 27/25 A2993 RMK AO2 SLP133 T02670250 TSNO $

2010/08/08 04:53
KBHM 080453Z 00000KT 10SM FEW100 28/21 A2995 RMK AO2 SLP130 T02780206

2010/08/08 04:53
KBIV 080453Z AUTO 20011KT 10SM FEW065 24/18 A2989 RMK AO2 SLP116 T02440178 402890156

2010/08/08 04:53
KBKE 080453Z AUTO 24004KT 10SM CLR 16/09 A2990 RMK AO2 SLP103 T01610089

2010/08/08 04:53
KBLI 080453Z 17004KT 6SM BR OVC014 17/16 A2989 RMK AO2 RAB0356E33 SLP128 P0001 T01670156

2010/08/08 04:53
KBMQ 080453Z AUTO 17006KT 10SM CLR 29/20 A2994 RMK AO2 SLP117 T02890200 $

2010/08/08 04:53
KBNA 080453Z 07003KT 8SM CLR 25/18 A2997 RMK AO2 SLP139 T02500178 $

2010/08/08 04:55
KBOW 080455Z AUTO 00000KT 10SM 25/25 A2997 RMK AO2

2010/08/08 04:53
KBPK 080453Z AUTO 13004KT 8SM SCT044 26/21 A2993 RMK AO2 SLP122 T02560206

2010/08/08 04:53
KBPT 080453Z AUTO 21003KT 10SM CLR 27/25 A2992 RMK AO2 SLP130 T02670250

2010/08/08 04:53
KBRD 080453Z AUTO 14003KT 10SM CLR 21/18 A2968 RMK AO2 SLP044 T02110183

2010/08/08 04:53
KBRL 080453Z AUTO 19008KT 10SM CLR 24/21 A2989 RMK AO2 SLP115 T02440206

2010/08/08 04:53
KBRO 080453Z AUTO 16005KT 10SM CLR 27/25 A2992 RMK AO2 SLP132 T02720250 TSNO $

2010/08/08 04:53
KBTL 080453Z AUTO 20008KT 9SM CLR 21/18 A2993 RMK AO2 SLP130 T02110178 402780156 TSNO

2010/08/08 04:53
KBUR 080453Z 18005KT 10SM CLR 16/12 A2989 RMK AO2 SLP112 T01610122

2010/08/08 04:53
KBWG 080453Z AUTO 00000KT 8SM CLR 21/18 A2997 RMK AO2 SLP144 T02110183

2010/08/08 04:53
KCCR 080453Z AUTO 20015KT 10SM CLR 16/10 A2980 RMK AO2 SLP078 T01560100 TSNO

2010/08/08 04:55
KCDN 080455Z AUTO 00000KT 5SM BR CLR 26/25 A2997 RMK A02 P000

2010/08/08 04:53
KCHO 080453Z AUTO 00000KT 10SM CLR 18/16 A3002 RMK AO2 SLP158 T01830156 403060161 TSNO

2010/08/08 04:55
KCKI 080455Z AUTO 00000KT 23/23 A2994 RMK AO2 PWINO

2010/08/08 04:53
KCLM 080453Z AUTO 31003KT 2SM BR OVC001 14/14 A2992 RMK AO2 SLP131 T01440139

2010/08/08 04:53
KCMI 080453Z AUTO 16004KT 7SM CLR 19/17 A2996 RMK AO2 SLP141 T01890172

2010/08/08 04:53
KCMX 080453Z AUTO 07007KT 10SM FEW050 BKN090 17/14 A2974 RMK AO2 SLP067 T01720139 402610089

2010/08/08 04:53
KCNM 080453Z AUTO 16006KT 10SM FEW110 28/14 A2994 RMK AO2 SLP075 T02780144 $

2010/08/08 04:53
KCNO 080453Z 26005KT 9SM CLR 16/12 A2991 RMK AO2 SLP123 T01560122

2010/08/08 04:53
KCOT 080453Z AUTO 14008G14KT 10SM CLR 29/23 A2988 RMK AO2 SLP110 T02890233

2010/08/08 04:53
KCPS 080453Z AUTO 15005KT 7SM HZ CLR 22/18 A2993 RMK AO2 SLP132 T02170183

2010/08/08 04:53
KCSV 080453Z AUTO 00000KT 6SM BR CLR 21/18 A3004 RMK AO2 SLP149 T02060183

2010/08/08 04:53
KCXO 080453Z AUTO 00000KT 10SM CLR 26/24 A2991 RMK AO2 SLP126 T02610239 TSNO

2010/08/08 04:51
KDAG 080451Z AUTO 25018KT 10SM CLR 27/00 A2981 RMK AO2 PK WND 24026/0422 SLP066 T02720000 TSNO

2010/08/08 04:53
KDCU 080453Z AUTO 00000KT 10SM CLR 23/19 A2994 RMK AO2 SLP131 T02330194 $

2010/08/08 04:52
KALS 080452Z AUTO VRB03KT 10SM FEW100 18/09 A3024 RMK AO2 PK WND 27026/0353 LTG DSNT NE TSB11E40RAE12 SLP131 P0000 T01780089 $

2010/08/08 04:52
KBDR 080452Z 23006KT 10SM CLR 23/20 A3000 RMK AO2 SLP160 T02330200 402780178

2010/08/08 04:52
KCID 080452Z AUTO 18008KT 6SM BR CLR 22/21 A2985 RMK AO2 SLP101 T02220211 $

2010/08/08 04:52
KCNU 080452Z AUTO 15005KT 10SM CLR 26/23 A2987 RMK AO2 SLP102 T02610233

2010/08/08 04:52
KMFD 080452Z 16004KT 10SM CLR 18/14 A3002 RMK AO2 SLP157 T01830144 402720139

2010/08/08 04:52
KMHK 080452Z AUTO 18005KT 10SM CLR 28/22 A2981 RMK AO2 SLP081 T02780222 $

2010/08/08 04:52
K9V9 080452Z AUTO 26003KT 24/20 A2972 RMK AO2 SLP045 T02440200 PWINO TSNO

2010/08/08 04:50
KPTS 080450Z AUTO 17006KT 10SM CLR 28/24 A2987 RMK AO2 T02760243

2010/08/08 04:52
KSPS 080452Z AUTO 19008KT 10SM CLR 29/21 A2984 RMK AO2 SLP089 P0003 T02890211

2010/08/08 04:52
KTOL 080452Z 19005KT 10SM CLR 19/16 A2996 RMK AO2 SLP140 T01940156 402830139

2010/08/08 04:52
KVTN 080452Z AUTO 20003KT 10SM CLR 21/18 A2980 RMK AO2 SLP065 T02110178

2010/08/08 04:52
KABI 080452Z 17006KT 10SM CLR 29/19 A2991 RMK AO2 SLP098 T02890194 $

2010/08/08 04:53
KBFF 080453Z AUTO 00000KT 10SM CLR 28/10 A2988 RMK AO2 SLP059 T02780100

2010/08/08 04:51
KBVE 080451Z AUTO 26006KT 10SM FEW031 SCT045 30/26 A2994 RMK AO2 SLP137 T03000256 TSNO

2010/08/08 04:53
KCLL 080453Z AUTO 18005KT 10SM CLR 29/23 A2990 RMK AO2 SLP120 T02940228

2010/08/08 04:51
KCRP 080451Z 17006KT 10SM CLR 27/24 A2991 RMK AO2 SLP126 T02670244

2010/08/08 04:53
KCRQ 080453Z AUTO 00000KT 10SM OVC014 17/13 A2991 RMK AO2 SLP126 T01720128 TSNO

2010/08/08 04:53
KDBQ 080453Z AUTO 20009KT 8SM CLR 22/19 A2986 RMK AO2 SLP106 T02170194

2010/08/08 04:53
KDMN 080453Z AUTO 27007KT 10SM CLR 26/13 A3004 RMK AO2 SLP086 T02610128

2010/08/08 04:53
KDRT 080453Z AUTO 12009KT 10SM FEW100 31/18 A2985 RMK AO2 SLP090 T03110178

2010/08/08 04:53
KEMP 080453Z AUTO 16009KT 8SM CLR 26/22 A2985 RMK AO2 SLP097 T02610217

2010/08/08 04:53
KFAT 080453Z 31011KT 10SM CLR 27/10 A2975 RMK AO2 SLP070 T02720100

2010/08/08 04:53
KFMN 080453Z AUTO 10005KT 10SM -RA OVC100 16/14 A3014 RMK AO2 RAE03B19 SLP153 P0000 T01610144

2010/08/08 04:53
KFNB 080453Z AUTO 15006KT 9SM CLR 25/23 A2982 RMK AO2 SLP085 T02500233

2010/08/08 04:53
KGEG 080453Z 23007KT 10SM BKN140 OVC200 22/08 A2981 RMK AO2 SLP078 T02170078

2010/08/08 04:53
KJBR 080453Z AUTO 05003KT 10SM CLR 25/20 A2991 RMK AO2 SLP125 T02500200

2010/08/08 04:53
KJLN 080453Z 16005KT 9SM CLR 26/23 A2989 RMK AO2 SLP110 T02560233

2010/08/08 04:53
KLIT 080453Z 00000KT 10SM BKN055 BKN250 27/24 A2991 RMK AO2 SLP129 OCNL LTG DSNT S T02720244

2010/08/08 04:53
KLWD 080453Z AUTO 18007KT 10SM CLR 24/21 A2987 RMK AO2 SLP104 T02440206

2010/08/08 04:53
KODX 080453Z AUTO 20005KT 10SM CLR 24/22 A2978 RMK AO2 SLP071 T02390222

2010/08/08 04:51
KORF 080451Z 10004KT 7SM FEW005 25/23 A2999 RMK AO2 SLP156 T02500233 402890228 $

2010/08/08 04:53
KPDX 080453Z 32007KT 10SM FEW020 SCT040 OVC060 19/15 A2992 RMK AO2 SLP131 T01890150

2010/08/08 04:53
KGRR 080453Z AUTO 20007KT 9SM CLR 23/18 A2990 RMK AO2 SLP120 T02280178 402940144 $

2010/08/08 04:53
KHLC 080453Z AUTO 20008KT 10SM CLR 28/19 A2982 RMK AO2 SLP068 T02780194

2010/08/08 04:53
KHSI 080453Z AUTO 17006KT 10SM CLR 26/21 A2981 RMK AO2 SLP073 T02610211

2010/08/08 04:53
KHSV 080453Z 09005KT 10SM CLR 26/18 A2994 RMK AO2 SLP127 T02610183

2010/08/08 04:53
KPOF 080453Z AUTO 00000KT 8SM CLR 22/21 A2992 RMK AO2 SLP125 T02220206

2010/08/08 04:53
KRMG 080453Z AUTO 00000KT 10SM CLR 23/20 A2995 RMK AO2 SLP131 T02330200 403560217

2010/08/08 04:51
KSAN 080451Z VRB03KT 10SM FEW010 OVC018 17/13 A2993 RMK AO2 SLP135 T01720128 $

2010/08/08 04:53
KSAT 080453Z 16008KT 10SM FEW250 29/21 A2993 RMK AO2 SLP114 T02890211

2010/08/08 04:53
KSEA 080453Z 20004KT 10SM FEW006 BKN014 OVC075 17/16 A2992 RMK AO2 SLP137 T01670156

2010/08/08 04:53
KYKM 080453Z 34009KT 10SM -RA BKN085 BKN110 21/13 A2984 RMK AO2 RAB36 SLP095 P0000 T02060128 $

2010/08/08 04:53
KLOL 080453Z AUTO 00000KT 10SM CLR 25/01 A2983 RMK AO2 SLP053 T02500006

2010/08/08 04:53
KLSE 080453Z AUTO 19012KT 10SM CLR 25/22 A2975 RMK AO2 SLP064 T02500222

2010/08/08 04:53
KLVJ 080453Z AUTO 00000KT 10SM CLR 28/24 A2993 RMK AO2 SLP135 T02830244

2010/08/08 04:53
KLVK 080453Z 29009KT 10SM CLR 14/11 A2983 RMK AO2 SLP098 T01390106

2010/08/08 04:53
KLXT 080453Z AUTO 16006KT 10SM CLR 27/21 A2988 RMK AO2 SLP106 T02670211

2010/08/08 04:53
KMAE 080453Z AUTO 30005KT 10SM CLR 22/11 A2976 RMK AO2 SLP075 T02170111 $

2010/08/08 04:55
KMAO 080455Z AUTO 00000KT 5SM BR CLR 23/23 A2995 RMK AO2

2010/08/08 04:53
KMCB 080453Z AUTO 00000KT 8SM CLR 25/23 A2993 RMK AO2 SLP129 T02500228

2010/08/08 04:53
KMCE 080453Z AUTO 26008KT 10SM CLR 20/11 A2975 RMK AO2 PK WND 24028/0414 SLP074 T02000111 $

2010/08/08 04:53
KMCI 080453Z 17008KT 10SM FEW250 27/21 A2986 RMK AO2 SLP098 T02670211

2010/08/08 04:53
KMCW 080453Z AUTO 20011KT 8SM CLR 24/22 A2979 RMK AO2 SLP075 T02440217

2010/08/08 04:53
KMEM 080453Z 19003KT 10SM FEW070 28/24 A2992 RMK AO2 SLP125 T02780244 $

2010/08/08 04:53
KMFE 080453Z 14009KT 10SM CLR 28/24 A2991 RMK AO2 SLP127 T02780244 $

2010/08/08 04:53
KMFR 080453Z AUTO 35005KT 10SM CLR 23/11 A2987 RMK AO2 SLP106 T02330111

2010/08/08 04:53
KMGW 080453Z AUTO 00000KT 10SM CLR 18/16 A3006 RMK AO2 SLP170 T01830156 402830144

2010/08/08 04:53
KMHE 080453Z AUTO 23004KT 10SM CLR 26/22 A2969 RMK AO2 SLP040 T02560222 TSNO

2010/08/08 04:53
KMIW 080453Z AUTO 20010KT 10SM CLR 25/21 A2982 RMK AO2 SLP090 T02500211

2010/08/08 04:53
KMKL 080453Z AUTO 00000KT 10SM CLR 23/21 A2993 RMK AO2 SLP130 T02280206

2010/08/08 04:53
KMLP 080453Z AUTO 24005KT 10SM CLR 14/04 A2999 RMK AO2 SLP062 T01440044 TSNO

2010/08/08 04:53
KMMV 080453Z AUTO 22006KT 10SM BKN065 18/14 A2992 RMK AO2 SLP131 T01830144

2010/08/08 04:53
KMOD 080453Z AUTO 31008KT 10SM CLR 24/13 A2974 RMK AO2 SLP071 T02440133

2010/08/08 04:53
KMRB 080453Z AUTO 00000KT 10SM CLR 18/15 A3001 RMK AO2 SLP158 T01830150 403060133

2010/08/08 04:53
KMSL 080453Z AUTO 00000KT 10SM CLR 24/21 A2994 RMK AO2 SLP132 T02390206

2010/08/08 04:53
KMSP 080453Z 21009KT 9SM BKN050 28/22 A2970 RMK AO2 SLP050 FRQ LTGIC DSNT N-NE T02780217

2010/08/08 04:53
KMSY 080453Z 25007KT 10SM FEW050 SCT250 29/25 A2993 RMK AO2 SLP137 T02890250

2010/08/08 04:53
KMTO 080453Z AUTO 17004KT 8SM CLR 21/18 A2996 RMK AO2 SLP140 T02060183

2010/08/08 04:53
KMYF 080453Z AUTO 21004KT 10SM BKN015 16/13 A2992 RMK AO2 SLP129 T01610128 TSNO

2010/08/08 04:53
KMYV 080453Z AUTO 15008KT 10SM CLR 23/13 A2972 RMK AO2 SLP068 T02280133

2010/08/08 04:53
KNEW 080453Z AUTO 24010KT 10SM CLR 31/25 A2993 RMK AO2 SLP129 T03060250 TSNO

2010/08/08 04:53
KOAK 080453Z 26012KT 10SM FEW005 BKN008 15/12 A2987 RMK AO2 SLP115 T01500117

2010/08/08 04:53
KOJC 080453Z AUTO 17007KT 10SM CLR 26/22 A2987 RMK AO2 SLP099 T02560217

2010/08/08 04:53
KOMK 080453Z AUTO 31010KT 10SM BKN090 21/11 A2978 RMK AO2 SLP077 T02060111

2010/08/08 04:53
KOSH 080453Z AUTO 22011G20KT 10SM CLR 24/18 A2979 RMK AO2 SLP073 T02390178

2010/08/08 04:53
KOTM 080453Z AUTO 19007KT 5SM BR CLR 23/22 A2986 RMK AO2 SLP103 T02330217

2010/08/08 04:53
KOVS 080453Z AUTO 25003KT 10SM CLR 23/20 A2981 RMK AO2 SLP090 T02330200

2010/08/08 04:53
KOXB 080453Z AUTO 00000KT 9SM CLR 22/22 A3001 RMK AO2 SLP161 T02170217 402780178

2010/08/08 04:53
KPAE 080453Z AUTO 18008KT 10SM OVC018 17/15 A2991 RMK AO2 SLP127 T01670150

2010/08/08 04:53
KPAH 080453Z AUTO 00000KT 7SM CLR 24/17 A2993 RMK AO2 SLP131 T02390167

2010/08/08 04:53
KPBF 080453Z AUTO 09003KT 9SM CLR 26/24 A2991 RMK AO2 SLP124 T02560244

2010/08/08 04:53
KPDK 080453Z AUTO 00000KT 10SM CLR 25/22 A2998 RMK AO2 SLP131 T02500222 403390222 $

2010/08/08 04:53
KPDT 080453Z AUTO 27017G25KT 10SM CLR 22/08 A2982 RMK AO2 SLP081 T02170083

2010/08/08 04:53
KPIL 080453Z AUTO 16009KT 10SM CLR 30/26 A2992 RMK AO2 SLP130 T03000256

2010/08/08 04:53
KPIR 080453Z AUTO 29003KT 10SM CLR 24/17 A2970 RMK AO2 SLP039 T02390172

2010/08/08 04:53
KPKD 080453Z AUTO 00000KT 10SM CLR 19/17 A2968 RMK AO2 SLP046 T01940167

2010/08/08 04:48
K4O4 080448Z AUTO 11006KT 5SM BKN100 27/23 A2987 RMK AO2 LTG DSNT E

2010/08/08 04:51
KADH 080451Z AUTO 13007KT 10SM CLR 27/20 A2987 RMK AO2

2010/08/08 04:50
KADM 080450Z AUTO 13003KT 10SM CLR 28/23 A2984 RMK AO2

2010/08/08 04:50
KAFK 080450Z AUTO 17007KT 10SM CLR 25/23 A2981 RMK AO2 T02500225

2010/08/08 04:52
KAFN 080452Z AUTO 00000KT 10SM CLR 11/09 A3005 RMK AO2 SLP178 T01110094 402330083

2010/08/08 04:45
KALM 080445Z AUTO 13004KT 10SM CLR 25/12 A2998 RMK AO2

2010/08/08 04:50
KANW 080450Z AUTO 17003KT 10SM CLR 23/17 A2980 RMK AO2 T02330167

2010/08/08 04:52
KAQW 080452Z AUTO 00000KT 9SM CLR 10/09 A3004 RMK AO2 SLP173 T01000094 402390100

2010/08/08 04:52
KARR 080452Z AUTO 19005KT 8SM CLR 22/18 A2991 RMK AO2 SLP122 T02220183

2010/08/08 04:52
KATL 080452Z 00000KT 9SM CLR 26/23 A2997 RMK AO2 SLP138 T02610228 403280222

2010/08/08 04:50
KATS 080450Z AUTO 26007KT 10SM CLR 27/14 A2995 RMK AO2

2010/08/08 04:50
KAUH 080450Z AUTO 17008KT 10SM CLR 27/20 A2980 RMK AO2 T02650200

2010/08/08 04:50
KAUN 080450Z AUTO 17004KT 10SM CLR 23/11 A2982 RMK AO1

2010/08/08 04:50
KAXS 080450Z AUTO 18008KT 10SM CLR 29/21 A2986 RMK AO2 T02930207

2010/08/08 04:50
KAXX 080450Z AUTO 26003KT 10SM SCT100 12/11 A3033 RMK AO2

2010/08/08 04:50
KBIE 080450Z AUTO 16008KT 10SM CLR 27/22 A2980 RMK AO2 T02710222

2010/08/08 04:52
KBIS 080452Z AUTO 04004KT 10SM CLR 22/18 A2969 RMK AO2 SLP043 T02220178

2010/08/08 04:52
KBLF 080452Z AUTO 16003KT 10SM CLR 20/16 A3011 RMK AO2 SLP158 T02000156 402780167

2010/08/08 04:52
KBLH 080452Z AUTO 19015KT 10SM CLR 34/08 A2970 RMK AO2 SLP050 T03440078

2010/08/08 04:52
KBML 080452Z AUTO 00000KT 3SM BR BKN001 07/06 A3003 RMK AO2 CIG 001V004 SLP172 T00670056 402000022

2010/08/08 04:50
KBTA 080450Z AUTO 17010G14KT 10SM CLR 27/22 A2979 RMK AO2 T02670215

2010/08/08 04:50
KBVN 080450Z AUTO 14003KT 10SM CLR 25/22 A2978 RMK AO2 T02450217

2010/08/08 04:45
KBVS 080445Z AUTO 12003KT 2 1/2SM BKN008 OVC017 17/17 A2991 RMK A01 P001

2010/08/08 04:52
KCFV 080452Z AUTO 11004KT 8SM CLR 27/24 A2986 RMK AO2 SLP104 T02670239

2010/08/08 04:50
KCHK 080450Z AUTO 14005KT 10SM CLR 28/22 A2985 RMK AO2

2010/08/08 04:50
KCLK 080450Z AUTO 15006KT 10SM CLR 29/18 A2985 RMK AO2

2010/08/08 04:52
KCLT 080452Z 06005KT 9SM CLR 25/19 A3000 RMK AO2 SLP149 T02500194 403170206

2010/08/08 04:50
KCQB 080450Z AUTO 13005KT 10SM 27/24 A2986 RMK AO2 TSNO

2010/08/08 04:52
KCQX 080452Z AUTO 18005KT 10SM CLR 21/18 A3005 RMK AO2 SLP177 T02060183 402560139

2010/08/08 04:50
KCUH 080450Z AUTO 16005KT 10SM CLR 29/23 A2985 RMK AO2

2010/08/08 04:52
KCVG 080452Z 18003KT 10SM CLR 21/15 A2999 RMK AO2 SLP147 T02110150 403000156

2010/08/08 04:52
KDDC 080452Z AUTO 16008KT 10SM CLR 27/18 A2985 RMK AO2 SLP070 T02670178

2010/08/08 04:52
KDPA 080452Z 18005KT 9SM CLR 22/19 A2990 RMK AO2 SLP119 T02170189

2010/08/08 04:52
KDVN 080452Z AUTO 19007KT 7SM CLR 23/19 A2988 RMK AO2 SLP111 T02330189

2010/08/08 04:50
KDVO 080450Z AUTO 06003KT 10SM CLR 14/12 A2984 RMK AO2

2010/08/08 04:52
KEST 080452Z AUTO 19012KT 9SM CLR 24/22 A2975 RMK AO2 SLP065 T02440222

2010/08/08 04:50
KFET 080450Z AUTO 16011KT 10SM CLR 27/22 A2977 RMK AO2 T02720215

2010/08/08 04:52
KFIT 080452Z AUTO 33003KT 10SM CLR 14/11 A3003 RMK AO2 SLP168 T01390106 402670111

2010/08/08 04:54
KGCD 080454Z AUTO 00000KT 10SM CLR 22/08 A2991 RMK AO2 T02180080

2010/08/08 04:51
KGCM 080451Z AUTO 11006KT 7SM CLR 25/23 A2990 RMK AO2

2010/08/08 04:51
KGMJ 080451Z AUTO 00000KT 10SM CLR 25/22 A2989 RMK AO2

2010/08/08 04:50
KHDE 080450Z AUTO 15005KT 10SM CLR 25/21 A2982 RMK AO2 T02500208

2010/08/08 04:52
KHIE 080452Z AUTO 00000KT 10SM CLR 08/07 A3001 RMK AO2 RAB0355E07 SLP166 P0000 T00780072 402000044

2010/08/08 04:52
KHUT 080452Z AUTO 15006KT 10SM CLR 28/21 A2984 RMK AO2 SLP077 T02830211

2010/08/08 04:50
KIDP 080450Z AUTO 15003KT 10SM CLR 25/22 A2986 RMK AO2

2010/08/08 04:52
KIEN 080452Z AUTO 07005KT 10SM CLR 21/15 A2983 RMK AO2 SLP062 T02110150

2010/08/08 04:52
KIJD 080452Z AUTO 00000KT 10SM CLR 14/13 A3003 RMK AO2 SLP169 T01390133 402670122

2010/08/08 04:52
KIOW 080452Z AUTO 00000KT 7SM CLR 23/22 A2986 RMK AO2 SLP109 T02280217 $

2010/08/08 04:53
KGRB 080453Z AUTO 18005KT 7SM CLR 22/20 A2979 RMK AO2 SLP083 T02170200 $

2010/08/08 04:53
KGRI 080453Z AUTO 18009KT 10SM CLR 26/21 A2980 RMK AO2 SLP072 T02610211

2010/08/08 04:53
KGSH 080453Z AUTO 18003KT 8SM CLR 20/17 A2996 RMK AO2 SLP139 T02000172 402830144

2010/08/08 04:53
KGSP 080453Z AUTO 01003KT 9SM CLR 24/21 A2999 RMK AO2 SLP143 T02440206 403110222

2010/08/08 04:53
KGUP 080453Z AUTO 00000KT 10SM CLR 16/14 A3020 RMK AO2 SLP077 T01560139

2010/08/08 04:53
KGUY 080453Z AUTO 18008KT 10SM CLR 27/17 A2989 RMK AO2 SLP063 T02720172

2010/08/08 04:53
KGVL 080453Z AUTO 00000KT 7SM FEW090 24/22 A3003 RMK AO2 SLP149 T02390222 403170222 $

2010/08/08 04:53
KGWO 080453Z AUTO 00000KT 7SM CLR 24/24 A2991 RMK AO2 SLP127 T02440239

2010/08/08 04:53
KHBG 080453Z AUTO 13004KT 10SM -RA FEW030 BKN090 OVC100 27/25 A2992 RMK AO2 SLP127 P0000 T02670250

2010/08/08 04:53
KHEI 080453Z AUTO 27003KT 10SM CLR 16/13 A2977 RMK AO2 SLP063 T01560128

2010/08/08 04:53
KHHR 080453Z AUTO 25005KT 10SM SCT013 17/13 A2990 RMK AO2 SLP125 T01720128 $

2010/08/08 04:53
KHIB 080453Z AUTO 12006KT 10SM SCT055 OVC080 19/17 A2972 RMK AO2 SLP062 T01890172

2010/08/08 04:53
KHIO 080453Z AUTO 06003KT 10SM OVC050 18/16 A2992 RMK AO2 SLP128 T01830156

2010/08/08 04:53
KHKA 080453Z AUTO 00000KT 6SM HZ CLR 24/20 A2992 RMK AO2 SLP127 T02440200

2010/08/08 04:53
KHKS 080453Z AUTO 00000KT 10SM CLR 27/24 A2994 RMK AO2 SLP127 T02720244

2010/08/08 04:53
KHKY 080453Z AUTO 00000KT 6SM BR CLR 22/21 A3002 RMK AO2 SLP144 T02170206 403000211

2010/08/08 04:53
KHLG 080453Z AUTO A3004 RMK AO2 SLPNO PWINO FZRANO $

2010/08/08 04:53
KHOT 080453Z AUTO 10005KT 10SM FEW020 BKN044 BKN060 28/24 A2992 RMK AO2 LTG DSNT E-SW SLP125 T02780244

2010/08/08 04:53
KHOU 080453Z 18003KT 10SM CLR 28/24 A2991 RMK AO2 SLP133 T02780244

2010/08/08 04:53
KHQM 080453Z AUTO 24006KT 5SM BR OVC005 14/13 A2994 RMK AO2 CIG 003V009 SLP143 T01390133

2010/08/08 04:53
KHRI 080453Z AUTO 23010KT 10SM CLR 23/09 A2980 RMK AO2 SLP086 T02280094

2010/08/08 04:53
KHRO 080453Z AUTO 14005KT 8SM CLR 25/22 A2994 RMK AO2 SLP123 T02500217

2010/08/08 04:53
KHYR 080453Z AUTO 00000KT 10SM FEW017 SCT028 BKN042 21/20 A2975 RMK AO2 LTG DSNT ALQDS TSE10RAE02B26E43 SLP068 P0001 T02060200

2010/08/08 04:53
KIAH 080453Z 18005KT 10SM CLR 29/24 A2991 RMK AO2 SLP129 T02890244

2010/08/08 04:53
KICR 080453Z AUTO 24004KT 10SM CLR 27/17 A2974 RMK AO2 SLP049 T02720172 TSNO

2010/08/08 04:53
KICT 080453Z 15008KT 10SM FEW100 SCT200 28/22 A2984 RMK AO2 SLP086 T02830217

2010/08/08 04:53
KILM 080453Z AUTO 01003KT 5SM BR CLR 24/22 A2995 RMK AO2 SLP142 T02390222 403110228

2010/08/08 04:53
KPMD 080453Z AUTO 23010KT 10SM CLR 23/M01 A2989 RMK AO2 SLP090 T02331011 TSNO

2010/08/08 04:53
KPNC 080453Z AUTO 15013KT 10SM CLR 29/22 A2983 RMK AO2 SLP086 T02890222

2010/08/08 04:53
KPQL 080453Z AUTO 17005KT 9SM TS SCT025 BKN047 BKN080 26/24 A2992 RMK AO2 LTG DSNT ALQDS RAE36 SLP132 P0037 T02560244

2010/08/08 04:53
KPRB 080453Z AUTO 20007KT 10SM CLR 15/10 A2987 RMK AO2 PK WND 16026/0359 SLP111 T01500100 TSNO $

2010/08/08 04:53
KPRC 080453Z AUTO 00000KT 10SM CLR 17/14 A3011 RMK AO2 SLP133 T01670144

2010/08/08 04:53
KPSC 080453Z 00000KT 10SM CLR 23/09 A2979 RMK AO2 SLP083 T02330094

2010/08/08 04:53
KPSP 080453Z 32015KT 10SM FEW095 31/07 A2970 RMK AO2 SLP053 T03060072

2010/08/08 04:53
KPSX 080453Z AUTO 20014G21KT 10SM CLR 31/25 A2991 RMK AO2 SLP128 T03060250

2010/08/08 04:53
KRAC 080453Z AUTO 21007KT 9SM CLR 23/19 A2987 RMK AO2 SLP111 T02330189

2010/08/08 04:53
KRAL 080453Z AUTO 28005KT 10SM CLR 18/13 A2990 RMK AO2 SLP111 T01780133

2010/08/08 04:53
KRBG 080453Z AUTO 34005KT 10SM CLR 22/13 A2991 RMK AO2 SLP127 T02170133

2010/08/08 04:53
KRHI 080453Z AUTO 00000KT 2 1/2SM +TSRA BR OVC015 18/17 A2982 RMK AO2 LTG DSNT ALQDS RAB21 SLP090 P0067 T01780172

2010/08/08 04:53
KRKP 080453Z AUTO 17007KT 10SM FEW022 29/25 A2990 RMK AO2 SLP127 T02940250

2010/08/08 04:53
KRNT 080453Z AUTO 14003KT 10SM BKN014 BKN020 OVC080 18/17 A2991 RMK AO2 SLP132 T01780167

2010/08/08 04:53
PHJR 080453Z VRB05KT 10SM CLR 27/19 A3006 RMK AO2 SLP184 T02720189

2010/08/08 04:53
KMSY 080453Z 25007KT 10SM FEW050 SCT250 29/25 A2993 RMK AO2 SLP137 T02890250

2010/08/08 04:53
KRIL 080453Z AUTO 00000KT 10SM FEW060 BKN110 17/13 A3015 RMK AO2 SLP142 T01720133 TSNO

2010/08/08 04:53
KOVE 080453Z AUTO 14007KT 10SM CLR 27/13 A2974 RMK AO2 SLP073 T02670128 TSNO $

2010/08/08 04:50
KPMV 080450Z AUTO 17008KT 10SM CLR 27/23 A2979 RMK AO2 T02700228

2010/08/08 04:53
KABY 080453Z 00000KT 9SM CLR 24/24 A2994 RMK AO2 SLP137 T02440239 403670244

2010/08/08 04:53
KACK 080453Z AUTO 17011KT 10SM CLR 20/18 A3004 RMK AO2 SLP174 T02000178 402280139 TSNO

2010/08/08 04:53
KACV 080453Z AUTO 00000KT 1 1/2SM R32/4000VP6000FT BR OVC001 12/12 A2995 RMK AO2 SLP148 T01220117

2010/08/08 04:53
KADG 080453Z AUTO 23003KT 7SM CLR 19/16 A2997 RMK AO2 SLP144 T01890161 402780133

2010/08/08 04:53
KAFW 080453Z 18006KT 10SM CLR 32/21 A2985 RMK AO2 SLP089 T03170206

2010/08/08 04:53
KAGC 080453Z 17005KT 10SM CLR 18/14 A3003 RMK AO2 SLP168 T01780139 402720161

2010/08/08 04:53
KAIA 080453Z AUTO 20007KT 10SM CLR 23/12 A2988 RMK AO2 LTG DSNT S SLP064 T02330122

2010/08/08 04:53
KAKO 080453Z AUTO 17018G23KT 10SM CLR 21/13 A2999 RMK AO2 PK WND 19027/0410 RAE18 SLP086 P0000 T02110133 TSNO

2010/08/08 04:53
KAMG 080453Z AUTO 20004KT 7SM CLR 24/23 A2994 RMK AO2 SLP137 T02390228 403440233

2010/08/08 04:53
KAOH 080453Z AUTO 17006KT 10SM CLR 19/16 A3000 RMK AO2 SLP152 T01940161 402720150 $

2010/08/08 04:53
KAOO 080453Z AUTO 00000KT 7SM SCT080 15/14 A3006 RMK AO2 SLP174 T01500139 402720133

2010/08/08 04:53
KAPA 080453Z 08005KT 10SM FEW080 BKN110 21/12 A3006 RMK AO2 SLP098 T02060117

2010/08/08 04:53
KAPF 080453Z AUTO 00000KT 10SM FEW024 30/25 A2999 RMK AO2 SLP153 T03000250 403280261

2010/08/08 04:53
KARB 080453Z AUTO 00000KT 4SM BR CLR 17/16 A2994 RMK AO2 SLP135 T01670161 402720100 $

2010/08/08 04:53
KASE 080453Z 00000KT 10SM BKN100 11/11 A3026 RMK AO2 RAE21 SLP130 P0003 T01110111

2010/08/08 04:53
KAUG 080453Z AUTO 00000KT 10SM OVC070 13/12 A3001 RMK AO2 SLP163 T01330117 402220106

2010/08/08 04:53
KBAF 080453Z 00000KT 10SM CLR 14/12 A3001 RMK AO2 SLP161 T01390117 402720117

2010/08/08 04:53
KBBW 080453Z AUTO 00000KT 10SM CLR 23/22 A2982 RMK AO2 SLP073 T02280217

2010/08/08 04:53
KBCE 080453Z AUTO 15003KT 10SM OVC012 11/10 A3026 RMK AO2 SLP153 T01110100 $

2010/08/08 04:53
KBGM 080453Z AUTO 00000KT 10SM CLR 16/09 A3006 RMK AO2 SLP171 T01610094 402440133

2010/08/08 04:53
KBGR 080453Z 00000KT 9SM BKN080 12/10 A3000 RMK AO2 SLP158 T01170100 402280094

2010/08/08 04:53
KBHK 080453Z AUTO 28006KT 10SM CLR 22/09 A2979 RMK AO2 SLP058 T02220094

2010/08/08 04:53
KBKL 080453Z 18007KT 10SM CLR 23/15 A2997 RMK AO2 SLP144 T02280150 402720194

2010/08/08 04:53
KBKV 080453Z AUTO 23003KT 10SM FEW026 27/25 A2997 RMK AO2 LTG DSNT N AND NW SLP146 T02670250 403280239

2010/08/08 04:53
KBMG 080453Z AUTO 00000KT 4SM BR CLR 17/16 A2998 RMK AO2 SLP145 T01670161 402890139

2010/08/08 04:53
KBOI 080453Z 17003KT 10SM CLR 25/04 A2978 RMK AO2 SLP053 T02500044 $

2010/08/08 04:53
KBPI 080453Z AUTO 32007KT 10SM CLR 16/03 A3011 RMK AO2 SLP101 T01560028 TSNO

2010/08/08 04:53
KBTM 080453Z AUTO 20004KT 10SM CLR 13/10 A2999 RMK AO2 RAE0357 SLP107 P0000 T01330100

2010/08/08 04:53
KBVO 080453Z AUTO 19003KT 10SM CLR 25/23 A2986 RMK AO2 SLP098 T02500233

2010/08/08 04:53
KBVY 080453Z AUTO 00000KT 10SM CLR 13/09 A3001 RMK AO2 SLP158 T01330094 402670100

2010/08/08 04:53
KBYG 080453Z AUTO 24004KT 10SM CLR 17/10 A2997 RMK AO2 SLP095 T01670100

2010/08/08 04:53
KBYI 080453Z AUTO 00000KT 10SM CLR 18/09 A2988 RMK AO2 SLP075 T01780089

2010/08/08 04:53
KCAG 080453Z AUTO 14003KT 10SM SCT110 13/12 A3019 RMK AO2 RAE18 SLP152 P0001 T01330122

2010/08/08 04:53
KCDC 080453Z AUTO 27004KT 10SM OVC080 19/09 A3010 RMK AO2 LTG DSNT SW AND W SLP123 T01890094

2010/08/08 04:53
KCDS 080453Z AUTO 17007KT 10SM CLR 27/21 A2989 RMK AO2 SLP092 T02670206

2010/08/08 04:53
KSTC 080453Z AUTO 00000KT 10SM -TSRA SCT043 BKN065 OVC095 23/21 A2968 RMK AO2 PK WND 21037/0355 WSHFT 0352 LTG DSNT E AND SE SLP051 P0009 T02280211

2010/08/08 04:53
KTUS 080453Z 14014KT 10SM SCT120 25/17 A2999 RMK AO2 PK WND 18030/0354 LTG DSNT N AND NE SLP109 T02500172 $

2010/08/08 04:53
KRQE 080453Z AUTO 21003KT 10SM BKN007 BKN014 15/13 A3022 RMK AO2 CIG 006V011 SLP126 T01500133 TSNO

2010/08/08 04:51
KVCT 080451Z AUTO 18005KT 10SM CLR 27/26 A2991 RMK AO2 SLP126 T02670256 PNO $

2010/08/08 04:53
KOQT 080453Z AUTO 00000KT 8SM CLR 22/19 A3000 RMK AO2 SLP140 T02170194 403170194 TSNO

2010/08/08 04:53
KSAV 080453Z 36003KT 8SM FEW015 25/24 A2993 RMK AO2 SLP134 T02500239 403280239

2010/08/08 04:53
KFAR 080453Z 18004KT 9SM CLR 23/21 A2964 RMK AO2 SLP032 T02330211

2010/08/08 04:53
KLXV 080453Z AUTO 08010KT 3SM -RA BR SCT031 BKN044 OVC065 09/08 A3040 RMK AO2 RAB06 SLP122 P0010 T00890083 TSNO

2010/08/08 04:53
KMWT 080453Z AUTO 12004KT 10SM SCT048 SCT055 27/24 A2990 RMK AO2 SLP111 T02720244 TSNO

2010/08/08 04:53
KELY 080453Z AUTO 15021G27KT 10SM CLR 20/04 A3004 RMK AO2 PK WND 15028/0414 SLP060 T02000039

2010/08/08 04:53
KBNO 080453Z AUTO 31008KT 10SM CLR 21/04 A2988 RMK AO2 SLP080 T02110039 TSNO $

2010/08/08 04:53
KMSN 080453Z 19007KT 10SM CLR 23/19 A2984 RMK AO2 SLP097 T02330189

2010/08/08 04:53
KTLH 080453Z 00000KT 10SM CLR 25/24 A2992 RMK AO2 SLP131 T02500239 403440250

2010/08/08 04:53
KTCS 080453Z AUTO 30011KT 10SM CLR 26/13 A3004 RMK AO2 SLP076 T02610133 TSNO

2010/08/08 04:53
KHTL 080453Z AUTO 20008KT 10SM SCT095 BKN120 21/18 A2986 RMK AO2 SLP106 T02110183 402610072

2010/08/08 04:53
KAAF 080453Z AUTO 00000KT 9SM CLR 27/26 A2992 RMK AO2 SLP131 T02670256 403330267

2010/08/08 04:53
KBIL 080453Z 23003KT 10SM CLR 21/12 A2982 RMK AO2 SLP061 T02110117 $

2010/08/08 04:53
KCDR 080453Z AUTO 00000KT 10SM CLR 22/14 A2981 RMK AO2 SLP066 T02170139

2010/08/08 04:53
KCNY 080453Z AUTO 00000KT 10SM SCT070 OVC090 18/14 A3008 RMK AO2 SLP128 T01830144

2010/08/08 04:53
KDAL 080453Z 19008KT 10SM CLR 32/20 A2985 RMK AO2 SLP099 T03220200

2010/08/08 04:53
PHTO 080453Z 07011KT 10SM SCT011 BKN020 OVC030 24/22 A3006 RMK AO2 SLP179 T02440217

2010/08/08 04:53
PHKO 080453Z 25008KT 10SM FEW018 BKN048 OVC055 26/22 A3001 RMK AO2 SLP164 T02610217

2010/08/08 04:53
PHLI 080453Z 06010KT 10SM FEW019 BKN055 26/21 A3008 RMK AO2 SLP182 T02560211

2010/08/08 04:53
KFNT 080453Z AUTO 20005KT 9SM FEW100 21/17 A2992 RMK AO2 SLP125 T02110167 402830089

2010/08/08 04:53
KMGM 080453Z 12003KT 10SM SCT070 BKN100 OVC250 26/23 A2992 RMK AO2 SLP129 OCNL LTGIC DSNT SW CB DSNT SW T02560233

2010/08/08 04:53
KTYS 080453Z 00000KT 9SM CLR 22/19 A2997 RMK AO2 SLP135 T02220194 403280206

2010/08/08 04:53
KTUP 080453Z AUTO 00000KT 6SM BR BKN080 27/25 A2992 RMK AO2 SLP125 T02670250

2010/08/08 04:53
KDAB 080453Z 00000KT 10SM FEW015 SCT140 OVC250 26/24 A2995 RMK AO2 RAE01 SLP141 P0000 T02610244 403170250

2010/08/08 04:53
KMCN 080453Z AUTO 00000KT 10SM CLR 25/23 A2994 RMK AO2 SLP133 T02500233 403330239 TSNO

2010/08/08 04:53
KTRI 080453Z 00000KT 7SM SCT070 19/17 A3002 RMK AO2 SLP150 T01940167 403170178

2010/08/08 04:53
KBTR 080453Z 24008KT 10SM FEW040 SCT250 28/25 A2992 RMK AO2 SLP130 T02830250

2010/08/08 04:53
KCHA 080453Z 00000KT 10SM CLR 26/22 A2996 RMK AO2 SLP137 T02560222 403500217

2010/08/08 04:53
KLAX 080453Z 27008KT 10SM BKN012 16/12 A2990 RMK AO2 SLP125 T01610122

2010/08/08 04:53
KSDM 080453Z AUTO 00000KT 10SM FEW014 13/12 A2992 RMK AO2 SLP131 T01330117 TSNO $

2010/08/08 04:53
KP92 080453Z AUTO VRB04KT 31/25 A2993 RMK AO2 SLP135 T03060250 PWINO TSNO

2010/08/08 04:53
K40J 080453Z AUTO 00000KT 24/24 A2994 RMK AO2 SLP137 T02440239 403330244 PWINO TSNO

2010/08/08 04:53
K6R6 080453Z AUTO 12008KT 29/17 A2991 RMK AO2 SLP085 T02890167 PWINO TSNO

2010/08/08 04:53
KCTY 080453Z AUTO 04003KT 25/24 A2994 RMK AO2 SLP139 P0001 T02500244 403330244 PWINO TSNO

2010/08/08 04:53
KGCC 080453Z AUTO 05003KT 10SM CLR 19/10 A2992 RMK AO2 SLP080 T01890100

2010/08/08 04:54
K1V4 080454Z AUTO 09/08 A3000 RMK AO2 SLP156 T00940083 402060067 PWINO TSNO 

2010/08/08 04:53
KJKL 080453Z AUTO 00000KT 10SM CLR 22/15 A3002 RMK AO2 SLP150 T02170150 402890178

2010/08/08 04:50
KJYR 080450Z AUTO 17008KT 10SM CLR 26/22 A2979 RMK AO2

2010/08/08 04:53
KLAA 080453Z AUTO 00000KT 10SM BKN120 22/18 A2988 RMK AO2 LTG DSNT N AND NE SLP064 T02220183

2010/08/08 04:53
KLAR 080453Z AUTO 23006KT 10SM OVC090 17/08 A3017 RMK AO2 SLP093 T01670083

2010/08/08 04:53
KLAW 080453Z AUTO 14004KT 10SM CLR 30/21 A2985 RMK AO2 SLP091 T03000211

2010/08/08 04:50
KLCG 080450Z AUTO 19005KT 10SM CLR 24/22 A2976 RMK AO2 T02420223

2010/08/08 04:53
KLEB 080453Z AUTO 00000KT 10SM CLR 11/08 A3001 RMK AO2 SLP157 T01060083 402440078

2010/08/08 04:53
KLEE 080453Z AUTO 06003KT 10SM CLR 27/25 A2996 RMK AO2 RAE0358 SLP145 P0000 T02720250 403170261 TSNO

2010/08/08 04:51
KLHM 080451Z AUTO 15008KT 10SM CLR 23/13 A2973 RMK AO1 T02330127

2010/08/08 04:53
KLHQ 080453Z AUTO 00000KT 9SM CLR 16/16 A3002 RMK AO2 SLP159 T01610156 402890133

2010/08/08 04:53
KLHX 080453Z AUTO 36005KT 10SM BKN110 23/16 A2996 RMK AO2 LTG DSNT N SLP076 T02330161 $

2010/08/08 04:53
KLNS 080453Z AUTO 10004KT 9SM FEW070 BKN100 20/17 A3001 RMK AO2 SLP158 T02000167 402890156

2010/08/08 04:53
KLOU 080453Z 00000KT 10SM CLR 23/17 A2998 RMK AO2 SLP147 T02280172 403060194

2010/08/08 04:53
KLOZ 080453Z AUTO 00000KT 5SM BR CLR 18/17 A3001 RMK AO2 SLP150 T01830172 402940178

2010/08/08 04:53
KLPR 080453Z AUTO 20004KT 10SM CLR 19/16 A2999 RMK AO2 SLP151 T01940156 402830161

2010/08/08 04:53
KLUK 080453Z AUTO 00000KT 9SM CLR 19/18 A3000 RMK AO2 SLP154 T01890178 403000156

2010/08/08 04:53
KLVM 080453Z AUTO 26014G23KT 10SM CLR 20/06 A2990 RMK AO2 PK WND 24026/0433 SLP076 T02000061

2010/08/08 04:53
KLVS 080453Z AUTO 29004KT 10SM CLR 17/12 A3019 RMK AO2 SLP106 T01670117

2010/08/08 04:53
KLWV 080453Z AUTO 08003KT 5SM BR CLR 20/18 A2995 RMK AO2 SLP139 T02000183

2010/08/08 04:50
KLXN 080450Z AUTO 15005KT 10SM CLR 26/22 A2982 RMK AO2 T02570220

2010/08/08 04:53
KMAF 080453Z 18007KT 10SM CLR 29/13 A2995 RMK AO2 SLP085 T02890133

2010/08/08 04:53
KMAI 080453Z AUTO 19005KT 7SM CLR 26/24 A2991 RMK AO2 SLP124 T02560244

2010/08/08 04:53
KMBS 080453Z 20008KT 10SM BKN110 22/17 A2989 RMK AO2 SLP116 T02220172 402890111

2010/08/08 04:53
KMCK 080453Z AUTO 02003KT 10SM CLR 24/22 A2983 RMK AO2 SLP073 T02440217

2010/08/08 04:53
KMCO 080453Z 23005KT 10SM FEW100 BKN140 OVC180 27/24 A2995 RMK AO2 SLP142 T02670239 403280256

2010/08/08 04:53
KMGY 080453Z AUTO 13003KT 10SM CLR 21/16 A3000 RMK AO2 SLP151 T02060156 402830161

2010/08/08 04:53
KMHT 080453Z 17003KT 10SM CLR 16/10 A3000 RMK AO2 SLP170 T01560100 402670111

2010/08/08 04:53
KMIA 080453Z 00000KT 10SM FEW040 SCT130 BKN250 28/25 A2999 RMK AO2 SLP156 T02830250 403440272 $

2010/08/08 04:53
KMIC 080453Z 20010G15KT 10SM SCT050 BKN070 28/22 A2967 RMK AO2 LTG DSNT N AND NW SLP041 T02780217

2010/08/08 04:53
KMIE 080453Z AUTO 00000KT 9SM CLR 19/17 A2999 RMK AO2 SLP147 T01890167 402720144

2010/08/08 04:53
KMKO 080453Z AUTO 15005KT 10SM CLR 25/23 A2987 RMK AO2 SLP106 T02500233

2010/08/08 04:53
KMLB 080453Z AUTO 20004KT 10SM CLR 25/24 A2996 RMK AO2 SLP145 T02500244 403560250

2010/08/08 04:53
KMLC 080453Z AUTO 00000KT 10SM SCT070 28/23 A2987 RMK AO2 SLP103 T02780233

2010/08/08 04:50
KMLE 080450Z AUTO 15006KT 10SM CLR 27/21 A2978 RMK AO2 T02680213

2010/08/08 04:53
KMLS 080453Z AUTO 28006KT 10SM CLR 22/11 A2974 RMK AO2 SLP048 T02220111

2010/08/08 04:53
KMLT 080453Z AUTO 00000KT 10SM CLR 08/06 A3000 RMK AO2 SLP163 T00830061 402110083

2010/08/08 04:50
KMMH 080450Z AUTO 00000KT 10SM CLR 12/M01 A3011 RMK AO1

2010/08/08 04:53
KMMK 080453Z AUTO 00000KT 10SM CLR 17/16 A3001 RMK AO2 SLP160 T01670161 402830128

2010/08/08 04:53
KMNN 080453Z AUTO 18005KT 10SM CLR 17/16 A3001 RMK AO2 SLP156 T01720156 402720139

2010/08/08 04:53
KMPO 080453Z AUTO 00000KT 10SM FEW090 14/11 A3006 RMK AO2 SLP172 T01440111 402610117 $

2010/08/08 04:53
KMSO 080453Z AUTO 00000KT 10SM CLR 19/05 A2984 RMK AO2 SLP087 T01890050

2010/08/08 04:53
KMSS 080453Z AUTO 20005KT 10SM OVC065 15/12 A2993 RMK AO2 SLP135 T01500117 402170089

2010/08/08 04:52
KISN 080452Z 00000KT 10SM CLR 21/16 A2968 RMK AO2 SLP040 T02060161

2010/08/08 04:52
KJSV 080452Z AUTO 08003KT 10SM CLR 24/22 A2987 RMK AO2 LTG DSNT SE

2010/08/08 04:50
KLAM 080450Z AUTO 11003KT 10SM -RA BKN080 BKN090 BKN110 20/12 A3024 RMK AO2

2010/08/08 04:52
KLWC 080452Z AUTO 12007KT 7SM CLR 24/23 A2985 RMK AO2 SLP098 T02440228

2010/08/08 04:52
KMDH 080452Z AUTO 00000KT 6SM HZ FEW085 22/18 A2995 RMK AO2 SLP138 T02170178

2010/08/08 04:52
KMEB 080452Z AUTO 00000KT 8SM CLR 24/22 A2997 RMK AO2 SLP145 T02390217 403280222

2010/08/08 04:52
KMKE 080452Z 22011KT 10SM FEW090 23/18 A2985 RMK AO2 SLP102 T02330183

2010/08/08 04:52
KMLI 080452Z 19008KT 9SM CLR 24/19 A2987 RMK AO2 SLP110 T02390194

2010/08/08 04:52
KMWH 080452Z AUTO 34004KT 10SM SCT090 BKN110 22/10 A2980 RMK AO2 SLP085 T02170100

2010/08/08 04:55
KMYR 080455Z AUTO 00000KT 6SM CLR 24/24 A2998 RMK AO1

2010/08/08 04:55
KOAJ 080455Z AUTO 00000KT 5SM CLR 23/22 A2997 RMK AO1

2010/08/08 04:55
KOCF 080455Z AUTO 00000KT 10SM FEW120 25/24 A2996 RMK AO1 LTG DSNT SW

2010/08/08 04:50
KOJA 080450Z AUTO 16006KT 10SM CLR 29/22 A2987 RMK AO2

2010/08/08 04:52
KOKB 080452Z AUTO 00000KT 10SM OVC017 18/13 A2991 RMK AO2 SLP127 T01780133 $

2010/08/08 04:52
KOKC 080452Z 16009KT 10SM CLR 29/22 A2986 RMK AO2 SLP092 T02940222 $

2010/08/08 04:51
KOKM 080451Z AUTO 09004KT 10SM CLR 26/24 A2986 RMK AO1

2010/08/08 04:52
KOMA 080452Z 16011KT 10SM CLR 27/23 A2979 RMK AO2 SLP075 T02720228

2010/08/08 04:52
KORE 080452Z AUTO 00000KT 10SM CLR 12/11 A3003 RMK AO2 SLP168 T01170111 402500106

2010/08/08 04:50
KORS 080450Z AUTO 00000KT 10SM OVC040 16/16 A2987 RMK AO2

2010/08/08 04:51
KOUN 080451Z AUTO 15009KT 10SM CLR 32/22 A2987 RMK AO2

2010/08/08 04:50
KPLU 080450Z AUTO 23003KT 10SM BKN012 OVC046 17/17 A2991 RMK AO2

2010/08/08 04:52
KPPF 080452Z AUTO 00000KT 10SM CLR 27/23 A2987 RMK AO2 SLP104 T02670233

2010/08/08 04:52
KPWK 080452Z AUTO 20006KT 10SM FEW120 24/18 A2991 RMK AO2 SLP122 T02440183

2010/08/08 04:52
KPYM 080452Z AUTO 00000KT 10SM CLR 18/16 A3004 RMK AO2 SLP171 T01830156 402720117

2010/08/08 04:52
KRAP 080452Z AUTO 01008KT 10SM CLR 21/14 A2982 RMK AO2 SLP065 T02060139 $

2010/08/08 04:51
KRKR 080451Z AUTO 20005KT 10SM SCT044 SCT055 SCT065 28/26 A2988 RMK AO2 LTG DSNT SE

2010/08/08 04:52
KSGF 080452Z 16007KT 10SM CLR 26/21 A2992 RMK AO2 SLP117 T02560206

2010/08/08 04:53
KSNL 080453Z AUTO 14008KT 10SM CLR 29/23 A2987 RMK AO2

2010/08/08 04:55
KSOP 080455Z AUTO 00000KT 7SM CLR 24/22 A2998 RMK AO1

2010/08/08 04:52
KSPI 080452Z AUTO 16005KT 10SM CLR 22/18 A2993 RMK AO2 SLP132 T02220178

2010/08/08 04:50
KSRE 080450Z AUTO 13005KT 10SM CLR 27/23 A2987 RMK AO2

2010/08/08 04:52
KSUX 080452Z 17007KT 10SM CLR 26/22 A2974 RMK AO2 SLP061 T02610217

2010/08/08 04:45
KSVC 080445Z AUTO 34008KT 10SM CLR 19/13 A3014 RMK AO2

2010/08/08 04:52
KTAN 080452Z AUTO 00000KT 10SM CLR 14/14 A3001 RMK AO2 SLP162 T01390139 402560100

2010/08/08 04:54
KTMK 080454Z AUTO 00000KT 5SM BR OVC012 16/16 A2996 RMK AO2

2010/08/08 04:53
KTQH 080453Z AUTO 00000KT 10SM CLR 24/23 A2989 RMK AO2

2010/08/08 04:52
KTRM 080452Z AUTO 32013G19KT 10SM CLR 31/08 A2965 RMK AO2 SLP044 T03110078

2010/08/08 04:55
KUDG 080455Z 00000KT 5SM CLR 23/22 A2998 RMK AO1

2010/08/08 04:52
KUGN 080452Z AUTO 21008KT 10SM CLR 23/18 A2987 RMK AO2 SLP103 T02280183

2010/08/08 04:53
KWDG 080453Z AUTO 15009KT 10SM CLR 28/22 A2986 RMK AO2

2010/08/08 04:48
KWWR 080448Z AUTO 16011KT 10SM CLR 30/20 A2988 RMK AO2 T03030201

2010/08/08 04:53
KABR 080453Z AUTO 00000KT 10SM CLR 24/21 A2965 RMK AO2 SLP030 T02390211

2010/08/08 04:53
KAEX 080453Z 00000KT 10SM CLR 27/24 A2989 RMK AO2 SLP124 T02670244

2010/08/08 04:53
KAGS 080453Z AUTO 00000KT 4SM BR CLR 25/24 A2994 RMK AO2 SLP136 T02500244 403280222

2010/08/08 04:53
KALI 080453Z AUTO 16006KT 10SM CLR 27/24 A2990 RMK AO2 SLP122 T02720244

2010/08/08 04:53
KALW 080453Z AUTO 23009KT 10SM CLR 24/10 A2982 RMK AO2 SLP088 T02440100

2010/08/08 04:53
KAMA 080453Z 15009KT 10SM CLR 25/18 A2997 RMK AO2 SLP086 T02500183

2010/08/08 04:53
KAMW 080453Z AUTO 19008KT 10SM FEW090 25/21 A2983 RMK AO2 SLP088 T02500211

2010/08/08 04:53
KANB 080453Z AUTO 06003KT 10SM CLR 26/21 A2995 RMK AO2 SLP129 T02560211

2010/08/08 04:54
PGUM 080454Z 08012KT 10SM FEW022TCU SCT050 31/25 A2980 RMK AO2 RAB38E47 SLP083 TCU NE MOV W P0000 T03060250 $

2010/08/08 04:54
PGSN 080454Z 07013KT 10SM FEW022 SCT060 31/24 A2980 RMK AO2 SLP089 T03060244 $

2010/08/08 04:53
KCDW 080453Z AUTO 00000KT 10SM CLR 20/18 A3000 RMK AO2 SLP164 T02000178 403000139 TSNO

2010/08/08 04:53
KCEW 080453Z AUTO 00000KT 4SM BR BKN085 24/24 A2993 RMK AO2 SLP131 T02440239

2010/08/08 04:53
KCEZ 080453Z AUTO 25004KT 10SM CLR 16/15 A3016 RMK AO2 RAE02 SLP141 P0000 T01610150

2010/08/08 04:53
KCGI 080453Z AUTO 09003KT 10SM CLR 23/18 A2993 RMK AO2 SLP131 T02330178 TSNO

2010/08/08 04:53
KCKB 080453Z AUTO 00000KT 9SM CLR 17/15 A3004 RMK AO2 SLP160 T01670150 402830133 TSNO

2010/08/08 04:53
KCPR 080453Z AUTO 29006KT 10SM FEW090 BKN110 23/06 A3001 RMK AO2 SLP081 T02330061 $

2010/08/08 04:53
KCRE 080453Z AUTO 00000KT 5SM BR CLR 25/24 A2994 RMK AO2 SLP141 T02500239 403110222

2010/08/08 04:53
KCRG 080453Z AUTO 00000KT 10SM BKN029 25/24 A2994 RMK AO2 SLP137 T02500244 403440250

2010/08/08 04:53
KCRS 080453Z AUTO 18009KT 10SM CLR 29/23 A2987 RMK AO2 SLP106 T02940228

2010/08/08 04:53
KCSM 080453Z AUTO 17014KT 10SM CLR 30/20 A2989 RMK AO2 SLP091 T03000200

2010/08/08 04:53
KCUB 080453Z AUTO 00000KT 6SM HZ CLR 26/23 A2996 RMK AO2 SLP141 T02610233 403390228

2010/08/08 04:53
KCYS 080453Z AUTO 33006KT 10SM SCT100 BKN120 21/08 A3008 RMK AO2 SLP084 T02060078 TSNO $

2010/08/08 04:53
KDAN 080453Z AUTO 00000KT 6SM BR CLR 19/18 A3001 RMK AO2 SLP151 T01940178 403220194

2010/08/08 04:53
KDEN 080453Z 15011G23KT 10SM SCT110 BKN200 20/16 A3004 RMK AO2 LTG DSNT NE SLP085 T02000156

2010/08/08 04:53
KDEQ 080453Z AUTO 05003KT 10SM CLR 26/24 A2986 RMK AO2 SLP106 T02610239

2010/08/08 04:53
KDET 080453Z 22005KT 10SM CLR 22/17 A2994 RMK AO2 SLP134 T02220167 402670150

2010/08/08 04:53
KDFI 080453Z AUTO 00000KT 9SM SCT095 19/16 A2997 RMK AO2 SLP144 T01940161 402830144

2010/08/08 04:53
KDFW 080453Z 18009KT 10SM CLR 31/20 A2985 RMK AO2 SLP096 T03110200 $

2010/08/08 04:53
KDGW 080453Z AUTO 33008KT 10SM FEW120 24/07 A2996 RMK AO2 SLP070 T02390072

2010/08/08 04:53
KDHN 080453Z AUTO 00000KT 7SM CLR 25/24 A2997 RMK AO2 SLP142 T02500239 $

2010/08/08 04:53
PHJR 080453Z VRB05KT 10SM CLR 27/19 A3006 RMK AO2 SLP184 T02720189

2010/08/08 04:53
KDKK 080453Z AUTO 19009KT 10SM BKN090 21/11 A2998 RMK AO2 SLP148 T02060111 402390111

2010/08/08 04:53
KDLN 080453Z AUTO 00000KT 10SM CLR 14/08 A2995 RMK AO2 SLP096 T01390078 $

2010/08/08 04:53
KDRO 080453Z AUTO 12003KT 10SM -RA OVC085 16/14 A3022 RMK AO2 RAB02 SLP152 P0000 T01610139

2010/08/08 04:53
KDTN 080453Z AUTO 15005KT 10SM CLR 28/24 A2988 RMK AO2 SLP113 T02830239

2010/08/08 04:53
KDTO 080453Z AUTO 17006KT 10SM CLR 30/21 A2985 RMK AO2 SLP097 T03000211

2010/08/08 04:53
KDTW 080453Z 22007KT 6SM HZ SCT200 21/17 A2995 RMK AO2 SLP138 T02060167 402780150 $

2010/08/08 04:53
KDVT 080453Z AUTO 00000KT 10SM FEW110 30/17 A2983 RMK AO2 LTG DSNT E RAB25E40 SLP077 P0000 T03000172

2010/08/08 04:53
KDXR 080453Z AUTO 00000KT 10SM CLR 19/17 A3002 RMK AO2 SLP161 T01940172 402830122

2010/08/08 04:53
KECP 080453Z AUTO 00000KT 6SM BR CLR 26/25 A2991 RMK AO2 TSE0356 SLP139 T02610250 $

2010/08/08 04:53
KELD 080453Z AUTO 00000KT 7SM CLR 25/24 A2989 RMK AO2 SLP117 T02500244

2010/08/08 04:53
KELM 080453Z AUTO 00000KT 10SM CLR 12/11 A3003 RMK AO2 SLP166 T01170106 402560111

2010/08/08 04:53
KEVW 080453Z AUTO 19003KT 10SM CLR 14/05 A3013 RMK AO2 SLP104 T01390050

2010/08/08 04:53
KEWB 080453Z AUTO 00000KT 10SM R05/5000VP6000FT CLR 16/15 A3002 RMK AO2 SLP167 T01610150 402610100

2010/08/08 04:53
KEYE 080453Z AUTO 00000KT 7SM CLR 21/19 A2998 RMK AO2 SLP144 T02110189 402890172

2010/08/08 04:53
KEYW 080453Z AUTO 20003KT 10SM SCT021 30/26 A2999 RMK AO2 SLP154 T03000256 403220289

2010/08/08 04:53
KFDR 080453Z AUTO 19007KT 10SM 29/22 A2983 RMK AO2 SLP081 T02890217

2010/08/08 04:53
KFDY 080453Z AUTO 17005KT 10SM CLR 18/16 A2998 RMK AO2 SLP144 T01830161 402720139

2010/08/08 04:53
KFFT 080453Z AUTO 00000KT 10SM CLR 19/17 A2999 RMK AO2 SLP148 T01890167 403060156

2010/08/08 04:53
KFLD 080453Z AUTO 22011G18KT 10SM CLR 23/18 A2982 RMK AO2 SLP092 T02330183

2010/08/08 04:53
KFLL 080453Z 00000KT 10SM CLR 28/24 A2997 RMK AO2 SLP150 T02830244 403280261 PNO $

2010/08/08 04:53
KFLO 080453Z AUTO 00000KT 5SM BR OVC120 24/23 A2995 RMK AO2 SLP138 T02390233 403220228

2010/08/08 04:53
KFMY 080453Z AUTO 00000KT 10SM CLR 28/25 A2997 RMK AO2 SLP151 T02780250 403170261 $

2010/08/08 04:53
KFOK 080453Z AUTO 20004KT 10SM CLR 21/18 A3004 RMK AO2 SLP171 T02060178 402720106 TSNO

2010/08/08 04:53
KFPR 080453Z AUTO 00000KT 10SM FEW032 26/25 A2997 RMK AO2 SLP147 T02610250 403500233

2010/08/08 04:53
KFRG 080453Z AUTO 20006KT 10SM CLR 23/21 A3002 RMK AO2 SLP163 T02330206 402780172

2010/08/08 04:53
KFTW 080453Z 18008KT 10SM CLR 31/20 A2985 RMK AO2 SLP096 T03110200

2010/08/08 04:53
KFVE 080453Z AUTO 17004KT 10SM CLR 09/06 A2992 RMK AO2 SLP133 T00940056 401720061

2010/08/08 04:53
KFWN 080453Z AUTO 00000KT 10SM CLR 14/13 A3002 RMK AO2 SLP161 T01440128 402890117

2010/08/08 04:53
KFXE 080453Z 00000KT 10SM FEW095 27/24 A2998 RMK AO2 SLP154 T02720244 403440244 $

2010/08/08 04:53
KGEY 080453Z AUTO 29010KT 10SM CLR 22/07 A2987 RMK AO2 SLP074 T02170072

2010/08/08 04:53
KGEZ 080453Z AUTO 00000KT 10SM CLR 17/15 A2997 RMK AO2 SLP144 T01720150 402940133

2010/08/08 04:53
KGFL 080453Z AUTO 00000KT 10SM CLR 11/11 A3001 RMK AO2 SLP162 T01060106 402500089

2010/08/08 04:53
KGGG 080453Z AUTO 17007KT 10SM CLR 29/24 A2988 RMK AO2 SLP109 T02890239

2010/08/08 04:53
KGGW 080453Z AUTO 04009KT 10SM CLR 20/13 A2968 RMK AO2 SLP038 T02000133 TSNO

2010/08/08 04:53
KGIF 080453Z AUTO 23003KT 10SM CLR 27/24 A2998 RMK AO2 SLP148 T02720244 403330256 TSNO

2010/08/08 04:53
KGJT 080453Z AUTO 34003KT 10SM BKN085 OVC110 18/14 A3010 RMK AO2 RAE14 SLP129 P0000 T01780144

2010/08/08 04:53
KGKJ 080453Z AUTO 00000KT 10SM CLR 19/11 A3003 RMK AO2 SLP161 T01890106 402390133

2010/08/08 04:53
KGKY 080453Z AUTO 18007KT 10SM CLR 30/21 A2986 RMK AO2 SLP100 T03000211

2010/08/08 04:53
KGNV 080453Z AUTO 26003KT 10SM FEW022 BKN026 BKN090 24/23 A2996 RMK AO2 SLP142 T02440233 403330239

2010/08/08 04:53
KGOK 080453Z AUTO 14007KT 10SM CLR 29/23 A2984 RMK AO2 SLP092 T02890233

2010/08/08 04:53
KGTF 080453Z 00000KT 10SM CLR 18/04 A2979 RMK AO2 SLP055 T01830044

2010/08/08 04:53
KGZH 080453Z AUTO 00000KT 5SM BR CLR 25/24 A2994 RMK AO2 RAE07 SLP133 P0004 T02500244

2010/08/08 04:53
KHAO 080453Z AUTO 00000KT 10SM CLR 17/16 A3000 RMK AO2 SLP154 T01720156 403110139

2010/08/08 04:53
KHBR 080453Z AUTO 18009KT 10SM CLR 29/21 A2986 RMK AO2 SLP089 T02940211

2010/08/08 04:53
KHFD 080453Z AUTO 18003KT 10SM CLR 21/17 A3000 RMK AO2 SLP157 T02060167 402830156

2010/08/08 04:53
KHGR 080453Z AUTO 00000KT 10SM CLR 23/14 A3001 RMK AO2 SLP166 T02330144 403110167

2010/08/08 04:50
KHJH 080450Z AUTO 17009KT 10SM CLR 28/22 A2980 RMK AO2 T02750220

2010/08/08 04:53
KHJO 080453Z AUTO 31010KT 10SM CLR 28/14 A2974 RMK AO2 SLP072 T02780144 $

2010/08/08 04:53
KHLN 080453Z AUTO 25003KT 10SM FEW120 23/06 A2983 RMK AO2 LTG DSNT E SLP082 T02280056

2010/08/08 04:53
KHUF 080453Z 00000KT 7SM CLR 18/17 A2997 RMK AO2 SLP145 T01830172 402890144

2010/08/08 04:53
KHUL 080453Z AUTO 20003KT 10SM CLR 08/06 A2996 RMK AO2 SLP147 T00830061 402000050

2010/08/08 04:53
KHVN 080453Z AUTO 00000KT 10SM CLR 23/20 A3001 RMK AO2 SLP162 T02280200 402780161

2010/08/08 04:53
KHWO 080453Z AUTO 00000KT 10SM FEW080 28/24 A3000 RMK AO2 SLP159 T02780239 403440239 $

2010/08/08 04:53
KHZY 080453Z AUTO 17005KT 10SM CLR 18/14 A3001 RMK AO2 SLP156 T01780144 402560117

2010/08/08 04:50
KIBM 080450Z AUTO 17006KT 10SM SCT120 23/13 A2999 RMK AO2 T02320129

2010/08/08 04:53
KIDA 080453Z AUTO 00000KT 10SM CLR 16/10 A2990 RMK AO2 SLP085 T01560100

2010/08/08 04:53
KIML 080453Z AUTO 21007KT 10SM CLR 27/19 A2988 RMK AO2 SLP076 T02670189

2010/08/08 04:53
KINK 080453Z AUTO 15012G19KT 10SM CLR 29/14 A2992 RMK AO2 SLP076 T02940144 TSNO

2010/08/08 04:53
KITR 080453Z AUTO 02006KT 10SM FEW065 23/17 A2994 RMK AO2 LTG DSNT N AND NW PRESFR SLP075 T02280167 $

2010/08/08 04:53
KIWI 080453Z AUTO 00000KT 10SM CLR 11/10 A3002 RMK AO2 SLP165 T01060100 402280072

2010/08/08 04:53
KJER 080453Z AUTO 09003KT 10SM CLR 21/09 A2987 RMK AO2 SLP076 T02060094

2010/08/08 04:53
KMTH 080453Z AUTO VRB03KT 10SM CLR 29/24 A2998 RMK AO2 LTG DSNT NE SLP152 T02940244 403440289

2010/08/08 04:53
KMTJ 080453Z AUTO 15004KT 10SM SCT065 BKN090 BKN110 17/16 A3019 RMK AO2 SLP149 T01670156

2010/08/08 04:53
KMVY 080453Z AUTO 19005KT 10SM CLR 22/18 A3004 RMK AO2 SLP171 T02220183 402610117

2010/08/08 04:53
KMWL 080453Z AUTO 15006KT 10SM CLR 29/19 A2986 RMK AO2 SLP095 T02940194

2010/08/08 04:53
KODO 080453Z AUTO 17010KT 10SM CLR 29/13 A2996 RMK AO2 SLP089 T02940133 $

2010/08/08 04:50
KOGA 080450Z AUTO 20004KT 10SM CLR 26/14 A2987 RMK AO2 T02560137

2010/08/08 04:53
KOGB 080453Z AUTO 00000KT 4SM BR CLR 25/24 A2995 RMK AO2 SLP138 T02500239 403280228

2010/08/08 04:53
KOGD 080453Z AUTO 15005KT 10SM CLR 22/07 A2993 RMK AO2 SLP071 T02220072

2010/08/08 04:53
KOLF 080453Z AUTO 00000KT 10SM CLR 19/16 A2969 RMK AO2 SLP043 T01940161

2010/08/08 04:50
KONL 080450Z AUTO 35003KT 10SM CLR 24/22 A2978 RMK AO2 T02430224

2010/08/08 04:53
KONO 080453Z AUTO 34008KT 10SM CLR 25/08 A2976 RMK AO2 SLP061 T02500083

2010/08/08 04:53
KONT 080453Z 25008KT 10SM CLR 17/12 A2990 RMK AO2 SLP115 T01720122

2010/08/08 04:53
KSEG 080453Z AUTO 00000KT 8SM CLR 16/16 A3002 RMK AO2 SLP164 T01610156 402830139

2010/08/08 04:50
KSEZ 080450Z AUTO 05006KT 10SM SCT120 19/16 A3008 RMK AO2 T01850162

2010/08/08 04:53
KSFB 080453Z AUTO 26005KT 10SM -RA BKN065 BKN090 27/26 A2994 RMK AO2 RAE01B29 SLP138 P0001 T02670256 403110250

2010/08/08 04:53
KSHR 080453Z AUTO 14008KT 10SM CLR 18/11 A2986 RMK AO2 PRESFR SLP069 T01830106

2010/08/08 04:53
KSLC 080453Z 17018G25KT 10SM FEW070 SCT120 24/10 A2992 RMK AO2 SLP069 T02390100

2010/08/08 04:53
KSMQ 080453Z AUTO 00000KT 9SM FEW090 17/16 A2999 RMK AO2 SLP154 T01720161 402940117

2010/08/08 04:53
KSNY 080453Z AUTO 22011KT 10SM CLR 26/14 A2996 RMK AO2 PK WND 22026/0415 SLP077 T02610144

2010/08/08 04:53
KSPG 080453Z AUTO 26005KT 10SM CLR 31/25 A2994 RMK AO2 SLP139 T03060250 403170283

2010/08/08 04:53
KSRQ 080453Z AUTO 26005KT 10SM CLR 29/24 A2996 RMK AO2 SLP144 T02940239 403280256 TSNO

2010/08/08 04:53
KSSI 080453Z AUTO 00000KT 9SM CLR 26/24 A2992 RMK AO2 SLP131 T02560244 403280239

2010/08/08 04:53
KSTS 080453Z AUTO 14004KT 10SM CLR 12/11 A2981 RMK AO2 SLP090 T01220106

2010/08/08 04:50
KSZT 080450Z AUTO 00000KT 10SM SCT100 17/13 A2976 RMK AO2

2010/08/08 04:53
KTDZ 080453Z AUTO 18005KT 10SM CLR 19/16 A2996 RMK AO2 SLP142 T01940161 402830156

2010/08/08 04:50
KTEX 080450Z AUTO 00000KT 10SM DZ SCT003 BKN060 OVC070 13/12 A3035 RMK AO2 P0001

2010/08/08 04:53
KTHV 080453Z AUTO 00000KT 10SM BKN070 OVC095 22/16 A3000 RMK AO2 SLP158 T02220156 402890139

2010/08/08 04:50
KTIF 080450Z AUTO 20007KT 10SM CLR 24/20 A2984 RMK AO2 T02410195

2010/08/08 04:53
KTKI 080453Z AUTO 17005KT 10SM CLR 30/22 A2986 RMK AO2 SLP101 T03000222

2010/08/08 04:53
KTMB 080453Z AUTO 00000KT 10SM CLR 28/24 A2999 RMK AO2 SLP155 T02830244 403610261

2010/08/08 04:53
KTOR 080453Z AUTO 26008KT 10SM CLR 27/08 A2988 RMK AO2 SLP055 T02670078

2010/08/08 04:53
KTPA 080453Z 24007KT 10SM FEW025 SCT130 SCT250 29/24 A2996 RMK AO2 SLP144 T02940244 403280272

2010/08/08 04:50
KTRK 080450Z AUTO 03009KT 340V050 10SM CLR 18/02 A3001 RMK AO2

2010/08/08 04:53
KTRL 080453Z AUTO 18003KT 10SM CLR 29/21 A2986 RMK AO2 SLP104 T02940211

2010/08/08 04:53
KTTN 080453Z AUTO 00000KT 10SM CLR 22/16 A3001 RMK AO2 SLP153 T02220161 403110156

2010/08/08 04:53
KTVL 080453Z AUTO 19005KT 10SM CLR 14/06 A3005 RMK AO2 SLP117 T01390056

2010/08/08 04:53
KTWF 080453Z AUTO 16008KT 10SM CLR 20/08 A2987 RMK AO2 SLP060 T02000083

2010/08/08 04:53
KTXK 080453Z AUTO 16007KT 10SM CLR 28/23 A2988 RMK AO2 SLP111 T02780233

2010/08/08 04:53
KTYR 080453Z AUTO 19009KT 10SM CLR 30/22 A2990 RMK AO2 SLP114 T03000217

2010/08/08 04:53
KUUU 080453Z AUTO 16004KT 10SM CLR 21/19 A3004 RMK AO2 SLP170 T02060194 402440133

2010/08/08 04:53
KVCB 080453Z AUTO 21004KT 10SM CLR 19/11 A2974 RMK AO2 SLP070 T01940111

2010/08/08 04:53
KVEL 080453Z AUTO 00000KT 10SM CLR 16/13 A3013 RMK AO2 SLP145 T01560133

2010/08/08 04:53
KDEW 080453Z AUTO 23003KT 10SM CLR 22/07 A2979 RMK AO2 SLP074 T02170072

2010/08/08 04:53
KDHT 080453Z AUTO 18009KT 10SM CLR 24/17 A2998 RMK AO2 SLP084 T02390172

2010/08/08 04:53
KDLS 080453Z AUTO 31011G17KT 10SM BKN100 23/13 A2984 RMK AO2 SLP101 T02280128

2010/08/08 04:53
KDMO 080453Z AUTO 16005KT 10SM CLR 25/21 A2990 RMK AO2 SLP116 T02500206

2010/08/08 04:53
KDNL 080453Z AUTO 00000KT 10SM CLR 27/23 A2996 RMK AO2 SLP139 T02670228 403220228 $

2010/08/08 04:53
KDWH 080453Z 18004KT 10SM CLR 28/24 A2991 RMK AO2 SLP126 T02780244

2010/08/08 04:55
KDYB 080455Z AUTO 00000KT 5SM BR CLR 23/23 A2994 RMK AO1

2010/08/08 04:53
KEET 080453Z AUTO 00000KT 8SM OVC110 28/24 A2992 RMK AO2 SLP124 T02780239

2010/08/08 04:53
KELN 080453Z AUTO 31009KT 10SM SCT110 17/12 A2986 RMK AO2 RAE17 SLP102 P0000 T01720122

2010/08/08 04:53
KENW 080453Z AUTO 21007KT 9SM CLR 23/19 A2987 RMK AO2 SLP110 T02280189

2010/08/08 04:53
KEPH 080453Z AUTO 30022G26KT 10SM SCT085 OVC100 22/11 A2976 RMK AO2 PK WND 30027/0439 SLP070 T02170106

2010/08/08 04:53
KEQY 080453Z AUTO 05005KT 8SM CLR 23/21 A2999 RMK AO2 SLP150 T02330206 403110222

2010/08/08 04:53
KESF 080453Z AUTO 00000KT 10SM CLR 26/24 A2991 RMK AO2 SLP126 T02560244

2010/08/08 04:53
KFAY 080453Z AUTO 07004KT 10SM CLR 23/21 A2996 RMK AO2 SLP140 T02330206 403390228

2010/08/08 04:53
KFCM 080453Z AUTO 21008KT 10SM CLR 27/21 A2969 RMK AO2 LTG DSNT N SLP047 T02670211

2010/08/08 04:53
KFFC 080453Z AUTO 00000KT 5SM BR CLR 23/22 A2997 RMK AO2 SLP142 T02330217 403390222

2010/08/08 04:53
KFHR 080453Z AUTO 00000KT 1/4SM FG VV001 16/15 A2990 RMK AO2 RAE0354 SLP126 T01560150

2010/08/08 04:53
KFOE 080453Z AUTO 15007KT 10SM CLR 27/23 A2985 RMK AO2 SLP093 T02670228

2010/08/08 04:53
KFSM 080453Z 07006KT 10SM BKN060 26/24 A2987 RMK AO2 SLP108 T02610239

2010/08/08 04:53
KFST 080453Z AUTO 15014G21KT 10SM CLR 28/16 A2995 RMK AO2 SLP085 T02830156

2010/08/08 04:53
KFTY 080453Z 00000KT 5SM BR CLR 24/23 A2997 RMK AO2 SLP136 T02440228 403390228

2010/08/08 04:53
KFUL 080453Z 18003KT 10SM CLR 17/12 A2989 RMK AO2 SLP122 T01670122

2010/08/08 04:53
KFYV 080453Z AUTO 00000KT 10SM CLR 23/22 A2992 RMK AO2 SLP116 T02330217

2010/08/08 04:53
KGAG 080453Z AUTO 17012KT 10SM CLR 29/19 A2986 RMK AO2 SLP077 T02890194

2010/08/08 04:53
KGFK 080453Z 15003KT 10SM CLR 22/20 A2963 RMK AO2 SLP030 T02220200

2010/08/08 04:53
KGLD 080453Z AUTO 00000KT 10SM CLR 23/20 A2991 RMK AO2 SLP077 T02330200

2010/08/08 04:53
KGLH 080453Z AUTO 00000KT 6SM BR CLR 26/24 A2990 RMK AO2 SLP130 T02560244

2010/08/08 04:53
KGLR 080453Z AUTO 22009KT 10SM FEW090 21/18 A2984 RMK AO2 SLP097 T02060178 402560072

2010/08/08 04:53
KGMU 080453Z AUTO 36005KT 8SM CLR 25/20 A3001 RMK AO2 SLP151 T02500200 403170217

2010/08/08 04:53
KGPT 080453Z AUTO 00000KT 10SM CLR 30/26 A2990 RMK AO2 LTG DSNT NE AND E SLP126 T03000261

2010/08/08 04:53
KIPL 080453Z AUTO 27003KT 10SM CLR 31/02 A2969 RMK AO2 SLP055 T03110017

2010/08/08 04:53
KIXD 080453Z AUTO 15006KT 10SM CLR 26/21 A2988 RMK AO2 SLP102 T02560211

2010/08/08 04:51
KJCT 080451Z AUTO 17010KT 10SM CLR 30/18 A2992 RMK AO2 SLP091 T03000183 TSNO

2010/08/08 04:53
KJEF 080453Z AUTO 12004KT 10SM CLR 25/22 A2990 RMK AO2 SLP110 T02500217

2010/08/08 04:55
KJZI 080455Z AUTO 00000KT 5SM BR CLR 24/24 A2994 RMK A02 P000

2010/08/08 04:53
KLBF 080453Z AUTO 11006KT 10SM CLR 22/21 A2984 RMK AO2 SLP071 T02220211

2010/08/08 04:53
KLBX 080453Z AUTO 00000KT 8SM CLR 26/26 A2992 RMK AO2 SLP132 T02610256 $

2010/08/08 04:53
KLCH 080453Z AUTO 00000KT 10SM CLR 28/26 A2992 RMK AO2 SLP139 T02780256 $

2010/08/08 04:53
KLFK 080453Z AUTO 14004KT 10SM CLR 28/24 A2990 RMK AO2 SLP120 T02830244

2010/08/08 04:53
KLFT 080453Z AUTO 21003KT 10SM CLR 27/24 A2993 RMK AO2 SLP134 T02720244

2010/08/08 04:53
KLGB 080453Z AUTO 31005KT 10SM CLR 17/12 A2990 RMK AO2 SLP125 T01670122 TSNO

2010/08/08 04:55
KLKR 080455Z AUTO 00000KT 3SM BR CLR 22/22 A2998 RMK AO2

2010/08/08 04:53
KLLQ 080453Z AUTO 00000KT 10SM CLR 27/25 A2992 RMK AO2 SLP127 T02720250

2010/08/08 04:53
KLMT 080453Z 29005KT 10SM FEW100 18/08 A2996 RMK AO2 SLP106 T01830078

2010/08/08 04:53
KRSL 080453Z AUTO 17012KT 10SM CLR 27/22 A2981 RMK AO2 SLP072 T02670217 $

2010/08/08 04:53
KRUE 080453Z AUTO 00000KT 8SM FEW046 BKN070 28/24 A2990 RMK AO2 SLP116 T02830239

2010/08/08 04:53
KRVS 080453Z AUTO 14004KT 10SM CLR 28/22 A2985 RMK AO2 SLP109 T02830222

2010/08/08 04:53
KRWF 080453Z AUTO 20010KT 10SM SCT065 25/22 A2967 RMK AO2 SLP037 T02500222

2010/08/08 04:53
KRWI 080453Z AUTO 00000KT 8SM SCT060 24/22 A2999 RMK AO2 RAB03E19 SLP153 P0000 T02440222 403220222

2010/08/08 04:53
KSBA 080453Z 00000KT 10SM OVC009 14/12 A2988 RMK AO2 SLP119 T01440122

2010/08/08 04:53
KSBM 080453Z AUTO 22005KT 10SM FEW080 22/19 A2982 RMK AO2 SLP094 T02170189

2010/08/08 04:53
KSDL 080453Z 00000KT 10SM -RA FEW060 BKN085 BKN120 29/19 A2987 RMK AO2 LTG DSNT E RAB43 SLP088 P0000 T02890194

2010/08/08 04:53
KSFF 080453Z AUTO 27004KT 10SM CLR 24/08 A2979 RMK AO2 SLP072 T02390078

2010/08/08 04:53
KSHN 080453Z AUTO 23012KT 10SM BKN007 14/14 A2989 RMK AO2 CIG 006V011 SLP123 T01440139

2010/08/08 04:53
KSIY 080453Z AUTO 01010KT 10SM 22/08 A2990 RMK AO2 SLP113 T02170083 $

2010/08/08 04:53
KXNA 080453Z AUTO 00000KT 10SM CLR 24/23 A2992 RMK AO2 SLP116 T02390228

2010/08/08 04:53
KSJC 080453Z 28003KT 10SM FEW012 16/11 A2986 RMK AO2 SLP109 T01560111

2010/08/08 04:53
KSLN 080453Z AUTO 16009KT 10SM CLR 28/21 A2981 RMK AO2 SLP076 T02830211

2010/08/08 04:53
KSMF 080453Z 17011KT 10SM CLR 19/12 A2973 RMK AO2 SLP066 T01890122

2010/08/08 04:53
KSNA 080453Z 22003KT 10SM OVC014 19/13 A2990 RMK AO2 SLP125 T01890128

2010/08/08 04:53
KSNS 080453Z AUTO 28006KT 8SM OVC008 14/12 A2990 RMK AO2 SLP135 T01390117

2010/08/08 04:55
KSPA 080455Z AUTO 00000KT 10SM SCT080 SCT100 24/24 A2999 RMK AO2

2010/08/08 04:53
KSPB 080453Z AUTO 00000KT 10SM OVC046 18/16 A2992 RMK AO2 RAE0359 SLP130 P0000 T01830156

2010/08/08 04:53
KSPW 080453Z AUTO 19009KT 10SM CLR 25/23 A2976 RMK AO2 SLP065 T02500228

2010/08/08 04:53
KSSF 080453Z AUTO 14006KT 10SM CLR 29/22 A2991 RMK AO2 SLP114 T02890217

2010/08/08 04:53
KSTJ 080453Z 17006KT 9SM CLR 26/22 A2984 RMK AO2 SLP095 T02610217

2010/08/08 04:53
KSTP 080453Z AUTO 20008KT 10SM CLR 28/22 A2969 RMK AO2 LTG DSNT NW SLP048 T02780217

2010/08/08 04:53
KSWO 080453Z AUTO 14009KT 10SM CLR 29/23 A2984 RMK AO2 SLP088 T02940228

2010/08/08 04:53
KTCC 080453Z AUTO 22004KT 10SM CLR 24/13 A2997 RMK AO2 SLP075 T02440133

2010/08/08 04:53
KTCL 080453Z AUTO 00000KT 4SM BR CLR 26/24 A2990 RMK AO2 SLP123 T02610239

2010/08/08 04:53
KTIW 080453Z AUTO 24004KT 10SM OVC011 16/15 A2992 RMK AO2 SLP130 T01560150

2010/08/08 04:53
KTOI 080453Z AUTO 00000KT 10SM CLR 24/23 A2993 RMK AO2 SLP130 T02390233

2010/08/08 04:53
KTOP 080453Z AUTO 16006KT 10SM CLR 28/23 A2984 RMK AO2 SLP092 T02780228

2010/08/08 04:53
KTTD 080453Z AUTO 27004KT 10SM BKN048 OVC060 20/16 A2990 RMK AO2 SLP125 T02000156

2010/08/08 04:53
KTUL 080453Z 14010KT 10SM CLR 28/22 A2984 RMK AO2 SLP097 T02830222

2010/08/08 04:53
KTVC 080453Z AUTO 18003KT 8SM BKN038 BKN050 22/20 A2979 RMK AO2 RAE05 SLP085 P0001 T02170200 402780111

2010/08/08 04:53
KTVR 080453Z AUTO 14003KT 7SM SCT095 26/24 A2991 RMK AO2 SLP133 T02610244

2010/08/08 04:53
KUAO 080453Z AUTO 04004KT 10SM BKN040 BKN047 OVC070 20/16 A2992 RMK AO2 SLP130 T02000161

2010/08/08 04:53
KUNO 080453Z AUTO 12003KT 10SM CLR 25/18 A2997 RMK AO2 SLP132 T02500183

2010/08/08 04:53
KUTS 080453Z AUTO 19007KT 10SM CLR 28/23 A2991 RMK AO2 SLP123 T02830228

2010/08/08 04:53
KVGT 080453Z AUTO 19013KT 10SM CLR 32/13 A2977 RMK AO2 SLP041 T03220128 TSNO

2010/08/08 04:53
KVIH 080453Z AUTO 13007KT 10SM CLR 24/21 A2993 RMK AO2 SLP122 T02390206

2010/08/08 04:53
KVPC 080453Z AUTO 00000KT 8SM CLR 24/23 A2997 RMK AO2 SLP134 T02440228 403440222

2010/08/08 04:53
KVPZ 080453Z AUTO 19004KT 8SM BKN090 BKN110 21/18 A2994 RMK AO2 SLP133 T02060183

2010/08/08 04:53
KVUO 080453Z AUTO 33007KT 10SM OVC050 19/15 A2991 RMK AO2 SLP130 T01940150

2010/08/08 04:52
PAEL 080452Z 00000KT 12SM OVC010 12/12 A2985 RMK NOSPECI

2010/08/08 04:52
PATA 080452Z 00000KT 10SM BKN055 BKN090 17/12 A2964 RMK AO2 RAE06 SLP040 P0000 T01670122

2010/08/08 04:45
KNRB 080445Z AUTO 00000KT 10SM BKN029 26/23 A2994 RMK AO2

2010/08/08 04:47
KNPA 080447Z AUTO 00000KT 10SM TS CLR 27/24 A2991 RMK AO2 TSE00B41

2010/08/08 04:54
KMQE 080454Z AUTO 23006KT 19/13 A3002 RMK AO1 SLP174 T01940128 402610144 

2010/08/08 04:54
KRSP 080454Z AUTO 28004KT 10SM CLR 21/13 A3006 RMK AO2 SLP172 T02110128 402720161 $ 

2010/08/08 04:52
KNFW 080452Z AUTO 17008KT 10SM CLR 31/19 A2989 RMK AO2 SLP107 T03110194 $

2010/08/08 04:52
KNRB 080452Z AUTO 00000KT 10SM BKN029 BKN036 26/23 A2994 RMK AO2 SLP136 T02610233 403440250

2010/08/08 04:55
KBLV 080455Z AUTO 00000KT 10SM CLR 22/19 A2994 RMK AO2 SLP135 T02180189

2010/08/08 04:55
KLRF 080455Z AUTO 00000KT 10SM FEW070 26/25 A2991 RMK AO2 SLP126 T02650251

2010/08/08 04:55
KMGE 080455Z AUTO 00000KT 10SM CLR 26/22 A2998 RMK AO2 SLP141 T02590222 403360222 VISNO RWY11 CHINO RWY11 $

2010/08/08 04:55
KRDR 080455Z AUTO 16004KT 9SM R17/5000VP6000FT CLR 21/21 A2964 RMK AO2 SLP051 T02080208 $

2010/08/08 04:53
PHNL 080453Z 06013KT 10SM FEW028 SCT040 SCT055 27/19 A3005 RMK AO2 SLP174 T02720194

2010/08/08 04:53
KDTS 080453Z AUTO 00000KT 10SM CLR 27/23 A2990 RMK AO2 LTG DSNT S SLP126 T02670233

2010/08/08 04:53
KNIP 080453Z 27004KT 10SM BKN026 OVC150 25/24 A2995 RMK AO2 SLP136 T02500239 403440244

2010/08/08 04:53
KIAG 080453Z AUTO 18006KT 10SM FEW090 19/14 A2996 RMK AO2 SLP142 T01890139 402390111

2010/08/08 04:53
KDNK 080453Z AUTO 19004KT 10SM CLR 28/23 A2991 RMK AO2 SLP125 T02780233 403440233 PNO $

2010/08/08 04:55
KCEF 080455Z AUTO 00000KT 10SM CLR 14/12 A3000 RMK AO2 SLP161 T01420117 402710113

2010/08/08 04:55
KHMN 080455Z AUTO 23005KT 10SM CLR 27/12 A2998 RMK AO2 SLP060 T02730117 $

2010/08/08 04:55
KHST 080455Z AUTO 00000KT 10SM CLR 27/24 A3000 RMK AO2 SLP160 T02740244 403380250

2010/08/08 04:55
KMMT 080455Z AUTO 07003KT 7SM R32/4500V5500FT CLR 24/24 A2995 RMK AO2 SLP142 T02440239 403230215

2010/08/08 04:52
KNHK 080452Z AUTO 00000KT 10SM CLR 22/18 A2999 RMK AO2 SLP157 T02220178 403000200

2010/08/08 04:55
KSVN 080455Z AUTO 00000KT 3SM 25/24 A2993 RMK AO2 SLP135

2010/08/08 04:55
KSZL 080455Z AUTO 13003KT 10SM CLR 24/21 A2988 RMK AO2 SLP112 T02420214 PNO $

2010/08/08 04:53
PABI 080453Z 32006KT 10SM FEW030 SCT050 BKN080 BKN180 17/09 A2969 RMK AO2 SLP055 SHRA DSNT SW-W T01720089 $

2010/08/08 04:53
KNQX 080453Z AUTO 17003KT 10SM FEW020 30/25 A2998 RMK AO2 SLP151 T03000250 403390283 $

2010/08/08 04:54
KNFG 080454Z AUTO 00000KT 10SM BKN015 13/11 A2992 RMK AO2 SLP129 T01280106 TSNO $

2010/08/08 04:54
KBKB 080454Z AUTO VRB03KT 10SM BKN120 28/24 A2989 RMK AO2 SLP146 T02780244 403610239 $

2010/08/08 04:54
KDMH 080454Z AUTO 26/15 A3000 RMK AO2 SLP159 T02560150 403110228 PWINO TSNO 

2010/08/08 04:53
KHVR 080453Z AUTO 16005KT 10SM CLR 16/08 A2971 RMK AO2 SLP047 T01610083

2010/08/08 04:53
KNUI 080453Z AUTO 00000KT 10SM CLR 19/18 A2999 RMK AO2 SLP155 T01940178 403000194 $

2010/08/08 04:53
KLAN 080453Z 20005KT 9SM CLR 21/17 A2992 RMK AO2 SLP127 T02060172 402830117

2010/08/08 04:53
KLBB 080453Z 13007KT 10SM FEW250 24/18 A2997 RMK AO2 SLP089 T02390178 $

2010/08/08 04:53
KMLU 080453Z 00000KT 10SM CLR 27/25 A2991 RMK AO2 SLP125 T02720250

2010/08/08 04:50
KSOW 080450Z AUTO 15004KT 10SM BKN110 14/13 A3025 RMK AO2

2010/08/08 04:53
KPGA 080453Z AUTO 00000KT 10SM CLR 18/14 A3009 RMK AO2 SLP136 T01780144

2010/08/08 04:53
KRIW 080453Z AUTO 05008KT 10SM CLR 23/06 A2998 RMK AO2 SLP078 T02280056

2010/08/08 04:53
KCQC 080453Z AUTO 31008KT 10SM BKN095 18/11 A3020 RMK AO2 SLP118 T01780111 TSNO

2010/08/08 04:54
KJAN 080454Z 00000KT 10SM CLR 26/24 A2993 RMK AO2 SLP130 T02610239

2010/08/08 04:54
KBTV 080454Z 00000KT 10SM CLR 13/11 A2998 RMK AO2 SLP152 T01280106 402220094

2010/08/08 04:51
KSAN 080451Z VRB03KT 10SM FEW010 OVC018 17/13 A2993 RMK AO2 SLP135 T01720128 $

2010/08/08 04:53
KCUT 080453Z AUTO 02003KT 10SM CLR 17/11 A2999 RMK AO2 SLP081 T01670106 TSNO

2010/08/08 04:54
PHOG 080454Z 06012G19KT 10SM FEW025 SCT049 SCT070 26/20 A3004 RMK AO2 PK WND 07028/0424 RAB21E31 SLP176 P0000 T02560200

2010/08/08 04:53
PABE 080453Z 19009KT 10SM OVC024 12/10 A2971 RMK AO2 SLP062 T01220100

2010/08/08 04:53
PABT 080453Z 00000KT 10SM SCT032 BKN048 BKN065 16/11 A2962 RMK AO2 SLP038 VIRGA VC W-NW T01560111 $

2010/08/08 04:53
PACD 080453Z AUTO 15025G31KT 7SM -RA OVC003 11/11 A2972 RMK AO2 PK WND 15031/0453 SLP063 P0000 T01060106 TSNO

2010/08/08 04:53
PADQ 080453Z 30006KT 10SM SCT010 OVC022 13/11 A2978 RMK AO2 SLP086 T01330111

2010/08/08 04:53
PAFA 080453Z 00000KT 10SM FEW045 SCT085 BKN130 16/13 A2965 RMK AO2 RAE01 SLP043 P0001 T01560128

2010/08/08 04:53
PAHO 080453Z 07003KT 10SM FEW010 SCT040 BKN075 12/11 A2977 RMK AO2 SLP083 T01170106

2010/08/08 04:53
PAJN 080453Z 06006KT 2SM -RA BR FEW005 BKN020 OVC031 12/11 A2985 RMK AO2 SLP107 MTNS OBSCD ALQDS P0004 T01170111

2010/08/08 04:53
PAMC 080453Z 18003KT 10SM SCT025 BKN060 OVC075 13/11 A2970 RMK AO2 SLP061 T01280106

2010/08/08 04:53
PANC 080453Z 20004KT 10SM -RA FEW011 BKN040 OVC055 12/11 A2975 RMK AO2 SLP074 P0000 T01220111

2010/08/08 04:53
PANN 080453Z AUTO 20003KT 10SM CLR 17/10 A2965 RMK AO2 SLP045 T01670100 TSNO

2010/08/08 04:53
PANT 080453Z AUTO 24003KT 10SM BKN027 OVC038 14/11 A2990 RMK AO2 SLP127 T01440111 TSNO

2010/08/08 04:53
PAOM 080453Z 24007KT 10SM BKN009 OVC020 13/11 A2959 RMK AO2 SLP021 T01330106

2010/08/08 04:53
PAOR 080453Z AUTO 25004KT 10SM SCT050 BKN080 14/09 A2966 RMK AO2 SLP044 T01390094 TSNO

2010/08/08 04:54
KCAR 080454Z AUTO 22004KT 10SM CLR 10/06 A2994 RMK AO2 SLP143 T01000061 401890072

2010/08/08 04:53
PAOT 080453Z 29014G21KT 10SM FEW003 BKN040 BKN080 OVC180 11/10 A2957 RMK AO2 SLP013 T01060100

2010/08/08 04:53
PAQT 080453Z AUTO 06017G22KT 10SM OVC008 06/04 A2977 RMK AO2 PK WND 06026/0403 SLP083 T00560044 TSNO

2010/08/08 04:53
PASN 080453Z AUTO 17015KT 2 1/2SM -RA BR OVC004 08/08 A2931 RMK AO2 SLP926 P0001 T00830083 TSNO

2010/08/08 04:53
PATK 080453Z AUTO 19004KT 10SM FEW019 OVC031 13/11 A2974 RMK AO2 SLP073 T01330106 TSNO

2010/08/08 04:53
PAYA 080453Z 00000KT 10SM SCT008 OVC060 14/11 A2984 RMK AO2 SLP105 BAY TWR WND 340MMKT T01390111

2010/08/08 04:51
KSAD 080451Z AUTO 00000KT 10SM CLR 27/17 A2994 RMK AO2 SLP084 T02720167 TSNO

2010/08/08 04:54
KROC 080454Z 22005KT 10SM FEW080 SCT200 14/11 A2999 RMK AO2 SLP155 T01440111 402330106 $

2010/08/08 04:54
KAVP 080454Z 11003KT 10SM CLR 17/12 A3002 RMK AO2 SLP154 T01720117 402830144 

2010/08/08 04:54
K12N 080454Z AUTO 00000KT 16/15 A3002 RMK AO2 SLP159 T01610150 402780128 PWINO TSNO 

2010/08/08 04:54
KRIC 080454Z 00000KT 10SM CLR 23/17 A3000 RMK AO2 SLP161 T02280172 403110200 

2010/08/08 04:54
KROA 080454Z 00000KT 10SM BKN080 23/17 A3006 RMK AO2 SLP166 T02280172 402940167 $ 

2010/08/08 04:50
OAKN 080450Z 12006KT 9000 DU FEW120 BKN180 34/08 Q1006 BLU NOSIG RMK A2972 DA6500

2010/08/08 04:53
KOPF 080453Z AUTO 00000KT 10SM FEW110 28/25 A2999 RMK AO2 SLP156 T02780250 403330250 $

2010/08/08 04:53
KORL 080453Z AUTO 23005KT 10SM CLR 27/25 A2995 RMK AO2 SLP144 T02670250 403170244

2010/08/08 04:53
KOSU 080453Z AUTO 11003KT 10SM CLR 18/16 A3000 RMK AO2 SLP154 T01830161 402890144

2010/08/08 04:53
KOWD 080453Z AUTO 00000KT 10SM CLR 12/10 A3002 RMK AO2 SLP165 T01220100 402720083 $

2010/08/08 04:53
KPBG 080453Z AUTO 00000KT 10SM CLR 11/09 A2997 RMK AO2 SLP148 T01060089 402330089

2010/08/08 04:53
KPBI 080453Z 21004KT 10SM FEW039 SCT090 27/26 A2996 RMK AO2 SLP144 T02720256 403280256 $

2010/08/08 04:53
KPEO 080453Z AUTO 14004KT CLR 12/12 A3002 RMK AO2 SLP164 T01220117 402390117 $

2010/08/08 04:53
KPGD 080453Z AUTO 18003KT 10SM CLR 27/25 A3000 RMK AO2 SLP157 T02720250 403280256 TSNO

2010/08/08 04:53
KPHD 080453Z AUTO 00000KT 10SM CLR 16/14 A3003 RMK AO2 SLP164 T01610144 402780139

2010/08/08 04:53
KPIE 080453Z AUTO 23004KT 10SM CLR 28/24 A2996 RMK AO2 SLP144 T02780244 403220261

2010/08/08 04:53
KPIH 080453Z AUTO 19009KT 10SM CLR 23/05 A2991 RMK AO2 SLP078 T02280050

2010/08/08 04:53
KPKB 080453Z AUTO 00000KT 9SM CLR 18/17 A3005 RMK AO2 SLP167 T01780167 403060150

2010/08/08 04:53
KPMP 080453Z AUTO 24003KT 10SM RA CLR 28/25 A2998 RMK AO2 SLP153 P0000 T02780250 403330239

2010/08/08 04:50
KPNA 080450Z AUTO 00000KT 10SM SCT120 13/06 A3011 RMK AO2 T01280060

2010/08/08 04:53
KPNS 080453Z AUTO 25004KT 9SM BKN100 OVC120 27/24 A2990 RMK AO2 SLP127 T02670244 $

2010/08/08 04:53
KPOU 080453Z 00000KT 10SM CLR 14/12 A3000 RMK AO2 SLP153 T01440122 402830128

2010/08/08 04:53
KPTK 080453Z 21004KT 10SM SCT150 22/16 A2993 RMK AO2 SLP128 T02170161 402780122

2010/08/08 04:50
KPTT 080450Z AUTO 15007KT 10SM CLR 28/21 A2986 RMK AO2

2010/08/08 04:53
KPUB 080453Z AUTO 04006KT 10SM FEW120 22/18 A2998 RMK AO2 RAE0358 SLP077 P0000 T02220183 $

2010/08/08 04:53
KPUC 080453Z AUTO 09008KT 10SM CLR 16/10 A3015 RMK AO2 SLP142 T01610100

2010/08/08 04:53
KPUW 080453Z AUTO 00000KT 10SM CLR 20/08 A2985 RMK AO2 SLP091 T02000078

2010/08/08 04:53
KPWA 080453Z AUTO 15011G18KT 10SM CLR 31/22 A2986 RMK AO2 SLP089 T03110217

2010/08/08 04:53
KRBD 080453Z 19006KT 10SM CLR 31/20 A2986 RMK AO2 SLP100 T03060200

2010/08/08 04:53
KRME 080453Z AUTO 11004KT 10SM CLR 14/12 A3003 RMK AO2 SLP164 T01390122 402330117

2010/08/08 04:53
KRSW 080453Z AUTO 00000KT 10SM CLR 28/25 A2997 RMK AO2 SLP148 T02780250 403220250

2010/08/08 04:53
KRWL 080453Z AUTO 34005KT 10SM -RA OVC075 14/11 A3015 RMK AO2 SLP115 T01440106 PNO $

2010/08/08 04:53
KRXE 080453Z AUTO 05005KT 10SM CLR 14/09 A2991 RMK AO2 SLP090 T01440094

2010/08/08 04:53
KSAC 080453Z 19008KT 10SM CLR 19/12 A2975 RMK AO2 SLP073 T01890117

2010/08/08 04:53
KSAF 080453Z AUTO 32006KT 10SM BKN100 21/11 A3017 RMK AO2 SLP100 T02110111

2010/08/08 04:53
KVLD 080453Z AUTO 00000KT 4SM BR FEW005 25/24 A2993 RMK AO2 SLP142 T02500244 403330250

2010/08/08 04:53
KVRB 080453Z 19003KT 10SM CLR 26/24 A2996 RMK AO2 SLP145 T02560239 403560250

2010/08/08 04:53
KWRL 080453Z AUTO 18007KT 10SM FEW120 22/07 A2990 RMK AO2 SLP080 T02170072

2010/08/08 04:53
KWST 080453Z AUTO 00000KT 9SM SCT090 17/16 A3003 RMK AO2 SLP169 T01720161 402560133

2010/08/08 04:53
KWVI 080453Z AUTO 10SM OVC007 13/11 A2990 RMK AO2 SLP126 T01280111 $

2010/08/08 04:53
KYIP 080453Z 20007KT 8SM CLR 20/17 A2995 RMK AO2 SLP135 T02000167 402830122

2010/08/08 04:53
KZZV 080453Z AUTO 00000KT 9SM CLR 18/17 A3002 RMK AO2 SLP159 T01780167 402780139

2010/08/08 04:53
KSGR 080453Z AUTO 17006KT 10SM CLR 27/24 A2991 RMK AO2 SLP135 T02670244 TSNO

2010/08/08 04:53
KBUR 080453Z 18005KT 10SM CLR 16/12 A2989 RMK AO2 SLP112 T01610122

2010/08/08 04:53
KTOI 080453Z AUTO 00000KT 10SM CLR 24/23 A2993 RMK AO2 SLP130 T02390233

2010/08/08 04:55
KTTS 080455Z 21005KT 10SM FEW020 BKN170 OVC200 27/25 A2995 RMK SLP142 1CU /1/ 5AC 2CS /8/

2010/08/08 04:53
PHJR 080453Z VRB05KT 10SM CLR 27/19 A3006 RMK AO2 SLP184 T02720189

2010/08/08 04:54
PHMK 080454Z AUTO 04012G19KT 10SM CLR 24/21 A3006 RMK AO2 SLP182 T02440206 TSNO

2010/08/08 04:53
KRNM 080453Z 26005KT 10SM CLR13/11 A2992 RMK AO2 SLP122 T01280106

2010/08/08 04:53
PAAQ 080453Z 00000KT 7SM FEW013 OVC023 12/11 A2978 RMK AO2 SLP079 T01170106

2010/08/08 04:53
PABR 080453Z 07018KT 3SM -RA BR OVC005 04/04 A2985 RMK AO2 RAB0354 SLP110 P0000 T00440044

2010/08/08 04:53
PACV 080453Z 07003KT 10SM SCT032 OVC043 11/10 A2981 RMK AO2 RAE52 SLP093 P0002 T01110100

2010/08/08 04:53
PADE 080453Z AUTO 30008KT 10SM BKN075 14/10 A2959 RMK AO2 SLP021 T01390100 TSNO

2010/08/08 04:53
PAEG 080453Z AUTO 29003KT 3SM -RA BR BKN027 OVC033 13/12 A2962 RMK AO2 RAB05 SLP033 P0010 T01280117 TSNO

2010/08/08 04:53
PAEN 080453Z 20011KT 10SM OVC060 14/11 A2975 RMK AO2 SLP075 T01390111 $

2010/08/08 04:53
PAGK 080453Z 16005KT 10SM SCT045 BKN065 OVC100 15/09 A2967 RMK AO2 SLP048 SHRA N T01500089

2010/08/08 04:53
PAGY 080453Z AUTO 00000KT 10SM OVC039 13/10 A2981 RMK AO2 SLP094 T01330100 TSNO

2010/08/08 04:53
PAIL 080453Z 21004KT 10SM OVC016 11/09 A2979 RMK AO2 SLP090 T01060094

2010/08/08 04:53
PAKT 080453Z 00000KT 10SM FEW012 BKN021 OVC033 14/12 A2990 RMK AO2 SLP126 T01390117

2010/08/08 04:53
PAKV 080453Z AUTO 00000KT 6SM -RA BR SCT021 BKN027 OVC036 13/12 A2967 RMK AO2 SLP049 P0015 T01330122 TSNO

2010/08/08 04:53
PAKW 080453Z AUTO 00000KT 5SM -RA BR OVC006 12/11 A2989 RMK AO2 RAB44 CIG 005V010 SLP121 P0000 T01220111 TSNO

2010/08/08 04:53
PALH 080453Z VRB05KT 10SM -RA SCT015 BKN044 OVC070 13/11 A2976 RMK AO2 SLP078 P0001 T01330111

2010/08/08 04:53
PAMR 080453Z 21005KT 10SM -RA BR SCT060 BKN075 13/11 A2975 RMK AO2 SLP075 P0001 T01280106 $

2010/08/08 04:53
PAPB 080453Z AUTO 18017KT 4SM -RA BR OVC003 10/10 A2936 RMK AO2 SLP929 P0005 T01000100 TSNO

2010/08/08 04:53
PASC 080453Z 07021KT 10SM OVC005 04/03 A2975 RMK AO2 PK WND 07029/0428 SLP076 T00390028

2010/08/08 04:53
PASI 080453Z 21004KT 10SM BKN012 OVC017 13/12 A2988 RMK AO2 RAB00E33 SLP119 P0001 T01280122

2010/08/08 04:53
PASO 080453Z AUTO 00000KT 10SM FEW070 SCT100 12/12 A2977 RMK AO2 SLP080 T01170117 TSNO

2010/08/08 04:53
PATO 080453Z AUTO 11005KT 6SM -RA BR FEW020 OVC026 09/09 A2978 RMK AO2 SLP085 P0004 T00940089 TSNO

2010/08/08 04:53
PAVL 080453Z AUTO 29011KT 5SM -RA BR OVC003 10/09 A2958 RMK AO2 SLP018 P0000 T01000094 TSNO

2010/08/08 04:53
KCEC 080453Z AUTO 31008KT 1 1/2SM BR BKN001 OVC006 13/13 A2992 RMK AO2

2010/08/08 04:54
KNKT 080454Z 11003KT 6SM BR CLR 24/23 A2997 RMK AO2 SLP144 T02440233 403110228 

2010/08/08 04:50
EDDF 080450Z 22006KT CAVOK 17/14 Q1015 NOSIG

2010/08/08 04:50
EDDH 080450Z VRB01KT CAVOK 17/15 Q1014 NOSIG

2010/08/08 04:50
EDDK 080450Z VRB02KT 8000 FEW020 BKN050 BKN110 17/15 Q1014 BECMG 4000 SHRA BKN013CB

2010/08/08 04:50
EDDL 080450Z 01001KT 4000 BR FEW007 SCT018CB BKN021 17/16 Q1014 BECMG 2500 SHRA BKN013CB

2010/08/08 04:50
EDDM 080450Z 16002KT CAVOK 11/10 Q1018 NOSIG

2010/08/08 04:50
EDDN 080450Z 11004KT 9999 FEW040 BKN110 12/12 Q1017 NOSIG

2010/08/08 04:50
EDDS 080450Z 20002KT CAVOK 14/12 Q1017 TEMPO 4000 RA

2010/08/08 04:50
EDDW 080450Z 19002KT 9999 BKN046 17/16 Q1015 NOSIG

2010/08/08 04:50
EDJA 080450Z 20002KT CAVOK 12/11 Q1019

2010/08/08 04:50
EDLN 080450Z VRB03KT 2500 RA BR SCT004 BKN017 17/17 Q1014

2010/08/08 04:50
EDLP 080450Z 12003KT CAVOK 15/15 Q1014

2010/08/08 04:50
EDLW 080450Z VRB01KT 7000 NSC 16/15 Q1015

2010/08/08 04:50
EDMA 080450Z 15003KT CAVOK 12/11 Q1018

2010/08/08 04:50
EDQM 080450Z AUTO 21007KT 9999NDV FEW120/// 12/09 Q1017

2010/08/08 04:50
EDNY 080450Z 00000KT CAVOK 13/12 Q1018

2010/08/08 04:50
EDXW 080450Z AUTO 25003KT 9999NDV BR FEW007/// SCT013/// 17/15 Q1014

2010/08/08 04:50
EKAH 080450Z AUTO 28003KT 2700NDV BR FEW001/// BKN210/// 16/15 Q1014

2010/08/08 04:50
EKBI 080450Z 02001KT 6000 MIFG BKN090 16/15 Q1015

2010/08/08 04:50
EKCH 080450Z 32009KT 9999 -RA FEW008 BKN045 19/18 Q1012 TEMPO BKN008

2010/08/08 04:50
EKEB 080450Z AUTO 10001KT 2600NDV -SHRA BR OVC022/// 16/15 Q1014

2010/08/08 04:50
EKKA 080450Z 29002KT 4000 MIFG NSC 15/14 Q1014 RMK FEW080 BKN110

2010/08/08 04:50
EKRK 080450Z AUTO 32007KT 9999NDV FEW070/// SCT130/// BKN150/// 18/18 Q1012

2010/08/08 04:50
EKRN 080450Z AUTO 32012KT 9999NDV -SHRA OVC050/// 18/15 Q1011

2010/08/08 04:50
EKSP 080450Z 26001KT 3500 BR BKN026 16/15 Q1014

2010/08/08 04:50
EKVD 080450Z AUTO 27002KT //// ///////// 16/15 Q1015

2010/08/08 04:50
EKVG 080450Z AUTO 16005KT 9999NDV FEW010/// BKN083/// 10/08 Q1017 RMK BKN010/// BKN085/// WIND 850FT 12007KT

2010/08/08 04:50
EKYT 080450Z 33004KT 9999 FEW035 BKN150 16/16 Q1014

2010/08/08 04:50
EETN 080450Z 13006KT 5000 BR NSC 24/21 Q1012 NOSIG

2010/08/08 04:50
EFHF 080450Z AUTO 14003KT 8000 FEW095 25/21 Q1013

2010/08/08 04:50
EFHK 080450Z 13006KT 110V170 8000 FEW050CB SCT100 BKN160 25/21 Q1013 NOSIG

2010/08/08 04:50
EFJY 080450Z AUTO 00000KT CAVOK 21/19 Q1013

2010/08/08 04:50
EFKK 080450Z AUTO 04003KT CAVOK 19/18 Q1014

2010/08/08 04:50
EFKU 080450Z AUTO VRB03KT 090V160 CAVOK 23/20 Q1015

2010/08/08 04:50
EFMA 080450Z AUTO 00000KT CAVOK ///// Q////

2010/08/08 04:50
EFOU 080450Z AUTO 12003KT CAVOK 19/19 Q1015

2010/08/08 04:50
EFPO 080450Z AUTO 05004KT 360V120 CAVOK 21/18 Q1011

2010/08/08 04:50
EFRO 080450Z AUTO 05005KT CAVOK 17/16 Q1017

2010/08/08 04:50
EFTP 080450Z VRB01KT CAVOK 22/20 Q1012

2010/08/08 04:50
EFTU 080450Z AUTO 13003KT 100V170 CAVOK 20/19 Q1011

2010/08/08 04:50
EFVA 080450Z AUTO 04005KT 350V070 9999 FEW003 SCT170 ///// Q////

2010/08/08 04:50
ENCN 080450Z 05003KT CAVOK 15/12 Q1015

2010/08/08 04:50
ENHD 080450Z AUTO VRB02KT 9999NDV BKN021/// OVC028/// 15/13 Q1016

2010/08/08 04:50
ENSB 080450Z 25006KT 9999 VCSH FEW008 BKN025 07/04 Q1012

2010/08/08 04:50
ENTC 080450Z VRB02KT 9999 SCT008 OVC012 12/10 Q1019

2010/08/08 04:50
EVRA 080450Z 00000KT 9999 TS SCT037CB OVC074 21/18 Q1011 TEMPO NSW

2010/08/08 04:50
EYVI 080450Z 09006KT 9999 SCT040CB BKN100 20/17 Q1013 NOSIG

2010/08/08 04:46
MMCZ 080446Z 09004KT 7SM FEW015 BKN200 24/24 A2995 RMK 8/408

2010/08/08 04:51
MMMD 080451Z 12006KT 6SM BKN070 OVC300 26/24 A2994 RMK 8/063

2010/08/08 04:46
MMUN 080446Z 08005KT 7SM SCT300 27/25 A2995 RMK 8/008

2010/08/08 04:50
ENAL 080450Z AUTO 00000KT 6000NDV -RA FEW008/// SCT026/// BKN061/// 15/14 Q1016

2010/08/08 04:50
ENEK 080450Z 34016KT 9999 SCT008 BKN035 15/14 Q1016 W16/S3

2010/08/08 04:50
ENGC 080450Z 23016KT 1000 BR VV002 13/13 Q1014

2010/08/08 04:50
ENOA 080450Z 25014KT 8000 -RA SCT008 BKN012 13/12 Q1015

2010/08/08 04:50
ENRO 080450Z AUTO 00000KT 0550NDV R32/0800V1800D FG VV000 02/01 Q1017

2010/08/08 04:50
ENRY 080450Z VRB01KT CAVOK 14/12 Q1015

2010/08/08 04:50
ENTO 080450Z 36004KT CAVOK 15/11 Q1015

2010/08/08 04:50
EDFH 080450Z 27005KT 220V290 5000 -SHRA FEW015 SCT024TCU BKN045 14/12 Q1016 RERA

2010/08/08 04:50
EDLN 080450Z VRB03KT 2500 RA BR SCT004 BKN017 17/17 Q1014

2010/08/08 04:50
EDLP 080450Z 12003KT CAVOK 15/15 Q1014

2010/08/08 04:50
EDMA 080450Z 15003KT CAVOK 12/11 Q1018

2010/08/08 04:50
EDNY 080450Z 00000KT CAVOK 13/12 Q1018

2010/08/08 04:50
EDQM 080450Z AUTO 21007KT 9999NDV FEW120/// 12/09 Q1017

2010/08/08 04:50
EDSB 080450Z VRB02KT 9999 VCSH FEW012 SCT026 BKN050 16/15 Q1017

2010/08/08 04:50
EDTL 080450Z 21006KT 9999 FEW038 FEW050CB SCT070 17/13 Q1016

2010/08/08 04:50
EDXW 080450Z AUTO 25003KT 9999NDV BR FEW007/// SCT013/// 17/15 Q1014

2010/08/08 04:50
EGGD 080450Z 30004KT 9999 SCT013 BKN030 13/12 Q1020

2010/08/08 04:50
EGGP 080450Z 27013KT 9999 BKN013 15/12 Q1020

2010/08/08 04:50
EGHH 080450Z 31005KT 9999 SCT039 11/11 Q1020

2010/08/08 04:50
EGJB 080450Z 34006KT 9999 SCT006 14/14 Q1021

2010/08/08 04:50
EGJJ 080450Z 00000KT 9999 FEW007 14/14 Q1020 NOSIG

2010/08/08 04:50
EGMC 080450Z 33006KT 9999 BKN008 16/14 Q1018

2010/08/08 04:50
EGNV 080450Z 31005KT 9999 FEW023 SCT049 13/11 Q1020

2010/08/08 04:50
EGPB 080450Z AUTO 29006KT 9999NDV FEW018/// OVC023/// 12/10 Q1017

2010/08/08 04:50
EGSH 080450Z 34005KT 300V010 9999 FEW007 SCT030 16/14 Q1017

2010/08/08 04:50
EGTE 080450Z 06003KT CAVOK 11/10 Q1021

2010/08/08 04:55
EHEH 080455Z AUTO 22001KT 0250NDV FG OVC007 13/13 Q1015 RED

2010/08/08 04:50
EKBI 080450Z 02001KT 6000 MIFG BKN090 16/15 Q1015

2010/08/08 04:50
ENCN 080450Z 05003KT CAVOK 15/12 Q1015

2010/08/08 04:50
ENRY 080450Z VRB01KT CAVOK 14/12 Q1015

2010/08/08 04:50
ENTC 080450Z VRB02KT 9999 SCT008 OVC012 12/10 Q1019

2010/08/08 04:50
LOWL 080450Z 29003KT 6000 VCFG SCT280 12/11 Q1018 TEMPO 4000 BR

2010/08/08 04:50
LOWS 080450Z 16010KT 9999 FEW010 13/11 Q1019 NOSIG

2010/08/08 04:55
KBAD 080455Z AUTO 16007KT 10SM CLR 27/24 A2988 RMK AO2 SLP119 T02700235

2010/08/08 04:53
KBRO 080453Z AUTO 16005KT 10SM CLR 27/25 A2992 RMK AO2 SLP132 T02720250 TSNO $

2010/08/08 04:53
KFLL 080453Z 00000KT 10SM CLR 28/24 A2997 RMK AO2 SLP150 T02830244 403280261 PNO $

2010/08/08 04:55
KGSB 080455Z AUTO 00000KT 10SM FEW075 23/23 A2996 RMK AO2 SLP145 T02290229

2010/08/08 04:55
KHST 080455Z AUTO 00000KT 10SM CLR 27/24 A3000 RMK AO2 SLP160 T02740244 403380250

2010/08/08 04:51
KJFK 080451Z 21012KT 10SM CLR 23/20 A3001 RMK AO2 SLP163 T02330200 402830178

2010/08/08 04:53
KMCO 080453Z 23005KT 10SM FEW100 BKN140 OVC180 27/24 A2995 RMK AO2 SLP142 T02670239 403280256

2010/08/08 04:52
KNHK 080452Z AUTO 00000KT 10SM CLR 22/18 A2999 RMK AO2 SLP157 T02220178 403000200

2010/08/08 04:55
KOFF 080455Z AUTO 16009KT 10SM CLR 27/23 A2979 RMK AO2 SLP068 T02720232 $

2010/08/08 04:53
KPBI 080453Z 21004KT 10SM FEW039 SCT090 27/26 A2996 RMK AO2 SLP144 T02720256 403280256 $

2010/08/08 05:00
MDSD 080500Z 01004KT 9999 FEW018 24/22 Q1015

2010/08/08 04:47
MMVR 080447Z 00000KT 7SM SCT012 SCT070 BKN250 28/25 A2993 RMK 8/538

2010/08/08 05:00
SPIM 080500Z 17006KT 7000 SCT007 OVC013 14/12 Q1016 NOSIG RMK PP000

2010/08/08 04:53
TIST 080453Z AUTO 09010KT 10SM SCT095 28/23 A2996 RMK AO2 SLP145 T02830233 TSNO $

2010/08/08 04:53
TISX 080453Z AUTO 08010KT 10SM FEW026 SCT034 28/23 A2996 RMK AO2 SLP144 T02830233 TSNO $

2010/08/08 04:55
KBAD 080455Z AUTO 16007KT 10SM CLR 27/24 A2988 RMK AO2 SLP119 T02700235

2010/08/08 04:53
KBAF 080453Z 00000KT 10SM CLR 14/12 A3001 RMK AO2 SLP161 T01390117 402720117

2010/08/08 04:53
KDTS 080453Z AUTO 00000KT 10SM CLR 27/23 A2990 RMK AO2 LTG DSNT S SLP126 T02670233

2010/08/08 04:55
KFFO 080455Z 00000KT 10SM FEW065 19/17 A3001 RMK AO2A SLP157 402880146

2010/08/08 04:55
KGRF 080455Z AUTO 17007KT 10SM FEW008 16/15 A2991 RMK AO2 SLP130 T01630154

2010/08/08 04:55
KGSB 080455Z AUTO 00000KT 10SM FEW075 23/23 A2996 RMK AO2 SLP145 T02290229

2010/08/08 04:55
KGUS 080455Z AUTO 16006KT 10SM CLR 20/20 A2997 RMK AO2 SLP144 T01970196 402790160

2010/08/08 04:55
KIAB 080455Z AUTO 13011KT 10SM CLR 29/22 A2985 RMK AO2 SLP090 T02850219 $

2010/08/08 04:55
KOFF 080455Z AUTO 16009KT 10SM CLR 27/23 A2979 RMK AO2 SLP068 T02720232 $

2010/08/08 04:55
KRIV 080455Z AUTO 27003KT 10SM CLR 18/12 A2991 RMK AO2 SLP123 T01770116

2010/08/08 04:55
KSUU 080455Z AUTO 25022KT 10SM CLR 15/11 A2975 RMK AO2 PK WND 25028/0446 SLP074 T01470114 RVRNO $

2010/08/08 05:00
MDPC 080500Z 04010KT 9999 FEW020 28/25 Q1013

2010/08/08 05:00
MDSD 080500Z 01004KT 9999 FEW018 24/22 Q1015

2010/08/08 05:00
MDST 080500Z 07004KT 9999 SCT014 26/26 Q1015

2010/08/08 05:00
OKBK 080500Z 35008KT 5000 -HZ SKC 38/06 Q0999 NOSIG

2010/08/08 04:53
TIST 080453Z AUTO 09010KT 10SM SCT095 28/23 A2996 RMK AO2 SLP145 T02830233 TSNO $

2010/08/08 04:53
TISX 080453Z AUTO 08010KT 10SM FEW026 SCT034 28/23 A2996 RMK AO2 SLP144 T02830233 TSNO $

2010/08/08 04:50
EGDL 080450Z 32006KT 9999 SCT035 12/11 Q1020 NOSIG

2010/08/08 04:50
ENAT 080450Z AUTO VRB02KT 9999NDV FEW008/// OVC019/// 14/12 Q1018

2010/08/08 04:50
ENEV 080450Z AUTO 36004KT 310V040 2600NDV VV002 10/09 Q1019 

2010/08/08 04:50
ENKB 080450Z AUTO 06004KT 9999NDV SCT150/// 15/14 Q1015

2010/08/08 04:50
ENKR 080450Z AUTO VRB02KT 9999NDV BKN010/// 17/14 Q1018 

2010/08/08 04:50
ESDF 080450Z AUTO 35003KT 9999NDV OVC009/// 17/15 Q1011

2010/08/08 04:50
ESGG 080450Z 01004KT 9000 -RA FEW002 BKN080 16/15 Q1013

2010/08/08 04:50
ESGJ 080450Z AUTO 02008KT 8000NDV RA FEW003/// SCT004/// BKN006/// 15/14 Q1013 REDZ

2010/08/08 04:50
ESGP 080450Z 00000KT 8000 BR BKN160 15/15 Q1013

2010/08/08 04:50
ESKN 080450Z 04011KT 9999 VV005 16/15 Q1011

2010/08/08 04:50
ESMK 080450Z AUTO 30008KT 9999NDV SCT058/// BKN077/// 17/15 Q1011

2010/08/08 04:50
ESMS 080450Z 34006KT 9000 BR BKN096 17/17 Q1012

2010/08/08 04:50
ESMX 080450Z AUTO 34008KT 300V010 9999NDV OVC005/// 15/14 Q1011

2010/08/08 04:50
ESNN 080450Z AUTO 32002KT 9999NDV -RA BKN058/// 16/15 Q1014 REUP REDZ

2010/08/08 04:50
ESNO 080450Z AUTO 36007KT 9999NDV DZ NCD 16/14 Q1013

2010/08/08 04:50
ESNQ 080450Z AUTO 00000KT 9999NDV FEW075/// BKN090/// 13/11 Q1018

2010/08/08 04:50
ESNS 080450Z AUTO 02003KT 9999NDV -RA ////// 17/15 Q1016

2010/08/08 04:50
ESNU 080450Z AUTO 36007KT 9999NDV RA FEW041/// 17/14 Q1014

2010/08/08 04:50
ESOK 080450Z AUTO 36003KT 9000NDV BR BKN100/// 16/15 Q1014

2010/08/08 04:50
ESOW 080450Z AUTO 01007KT 9999NDV FEW000/// SCT034/// OVC039/// 15/14 Q1013

2010/08/08 04:50
ESPA 080450Z AUTO 35007KT 9999NDV BKN230/// 19/15 Q1016

2010/08/08 04:50
ESSA 080450Z 01008KT 2500 BR OVC003 16/16 Q1012 TEMPO 5000

2010/08/08 04:50
ESSB 080450Z AUTO 01004KT 1300NDV R12/1400D R30/P1500N BR VV001 16/16 Q1012

2010/08/08 04:50
ESSP 080450Z AUTO 02007KT 9999NDV OVC008/// 16/15 Q1011

2010/08/08 04:50
ESSV 080450Z AUTO VRB02KT 0350NDV R03/0400V0650N R21/P1500U FG VV002 17/17 Q1010

2010/08/08 04:50
LSGG 080450Z VRB01KT 9999 FEW070 SCT120 14/12 Q1019 NOSIG

2010/08/08 04:50
LSGS 080450Z 04003KT 360V100 9999 BKN110 14/09 Q1020

2010/08/08 04:50
LSZA 080450Z 01003KT CAVOK 14/14 Q1018 NOSIG

2010/08/08 04:50
LSZB 080450Z VRB03KT 9999 VCSH FEW060 BKN067 14/13 Q1019 NOSIG

2010/08/08 04:50
LSZH 080450Z VRB02KT 9999 FEW070 SCT090 BKN120 13/12 Q1018 NOSIG

2010/08/08 05:00
LWOH 080500Z 28003KT 9999 SCT050 14/13 Q1017

2010/08/08 04:50
EGNM 080450Z 00000KT CAVOK 12/10 Q1020

2010/08/08 04:50
EGNT 080450Z 30002KT 9999 BKN037 12/11 Q1020

2010/08/08 04:50
EGNV 080450Z 31005KT 9999 FEW023 SCT049 13/11 Q1020

2010/08/08 04:50
EGNX 080450Z 31003KT CAVOK 12/10 Q1020

2010/08/08 04:50
EGPB 080450Z AUTO 29006KT 9999NDV FEW018/// OVC023/// 12/10 Q1017

2010/08/08 04:50
EGPD 080450Z 27002KT 9999 BKN045 11/09 Q1020 NOSIG

2010/08/08 04:50
EGPF 080450Z 23005KT 9999 BKN014 11/10 Q1020

2010/08/08 04:50
EGPH 080450Z 27002KT 9999 BKN018 14/11 Q1019

2010/08/08 04:50
EGPK 080450Z 12002KT 9999 FEW045 09/08 Q1020

2010/08/08 04:50
EGTE 080450Z 06003KT CAVOK 11/10 Q1021

2010/08/08 04:50
EGAA 080450Z 15003KT 7000 SCT010 BKN025 10/10 Q1021

2010/08/08 04:50
EGBB 080450Z 33006KT 6000 FEW021 13/11 Q1020

2010/08/08 04:50
EGCC 080450Z 24002KT 6000 BKN006 BKN027 14/14 Q1020

2010/08/08 04:50
EGFF 080450Z 32004KT 9999 BKN030 12/10 Q1021

2010/08/08 04:50
EGGD 080450Z 30004KT 9999 SCT013 BKN030 13/12 Q1020

2010/08/08 04:50
EGGP 080450Z 27013KT 9999 BKN013 15/12 Q1020

2010/08/08 04:50
EGGW 080450Z 35007KT 7000 SCT006 BKN017 14/13 Q1019

2010/08/08 04:50
EGHH 080450Z 31005KT 9999 SCT039 11/11 Q1020

2010/08/08 04:50
EGJB 080450Z 34006KT 9999 SCT006 14/14 Q1021

2010/08/08 04:50
EGJJ 080450Z 00000KT 9999 FEW007 14/14 Q1020 NOSIG

2010/08/08 04:50
EGKK 080450Z 33006KT 280V340 9999 BKN012 14/13 Q1019

2010/08/08 04:50
EGLL 080450Z 31004KT 280V350 9999 FEW012 BKN024 15/13 Q1019

2010/08/08 04:50
EGMC 080450Z 33006KT 9999 BKN008 16/14 Q1018

2010/08/08 04:50
EGGP 080450Z 27013KT 9999 BKN013 15/12 Q1020

2010/08/08 04:50
EGGW 080450Z 35007KT 7000 SCT006 BKN017 14/13 Q1019

2010/08/08 04:50
EGLC 080450Z AUTO 31004KT 270V350 9999 SCT009/// BKN020/// 15/13 Q1019

2010/08/08 04:50
EGNT 080450Z 30002KT 9999 BKN037 12/11 Q1020

2010/08/08 04:50
EGPF 080450Z 23005KT 9999 BKN014 11/10 Q1020

2010/08/08 04:50
EGSS 080450Z 34007KT 6000 BKN004 14/13 Q1018

2010/08/08 04:48
K4O4 080448Z AUTO 11006KT 5SM BKN100 27/23 A2987 RMK AO2 LTG DSNT E

2010/08/08 04:45
MMVA 080445Z 00000KT 5SM FEW030 27/24 A2987 RMK 8/500

2010/08/08 04:54
KACY 080454Z 16004KT 10SM FEW100 23/21 A3003 RMK AO2 SLP167 T02330206 403000156 

2010/08/08 04:54
KFWA 080454Z 20003KT 10SM CLR 19/17 A2998 RMK AO2 SLP148 T01940172 402720150 

2010/08/08 04:54
KNAK 080454Z AUTO 00000KT 10SM CLR 23/18 A2999 RMK AO2 SLP157 T02280178 402830217 TSNO 

2010/08/08 04:54
KMTP 080454Z AUTO 16004KT 22/19 A3004 RMK AO2 SLP170 T02220194 402610183 PWINO TSNO 

2010/08/08 04:54
KCOU 080454Z AUTO 13005KT 10SM CLR 23/21 A2992 RMK AO2 SLP121 T02330211 TSNO 

2010/08/08 04:54
KGSO 080454Z 00000KT 8SM CLR 23/19 A3003 RMK AO2 SLP156 T02280189 403060217 

2010/08/08 04:50
LOXZ 080450Z VRB02KT 0100 FG FEW050SC 09/08 Q1020 RMK FEW

2010/08/08 05:00
BKPR 080500Z 31004KT 8000 FEW010 SCT030 18/15 Q1017 NOSIG RMK BLU

2010/08/08 04:50
EBAW 080450Z 25006KT 4500 BR BKN006 OVC007 16/14 Q1015 TEMPO SHRA

2010/08/08 04:50
EBBR 080450Z 24004KT 9000 BKN008 15/14 Q1016 TEMPO 4500 BR

2010/08/08 04:50
EBCI 080450Z 24006KT 3700 -SHRA BKN005 BKN033 14/12 Q1016 NOSIG

2010/08/08 04:50
EBLG 080450Z 27007KT 9999 FEW009 BKN015 14/13 Q1016 TEMPO BKN005

2010/08/08 04:50
EBOS 080450Z 33009KT 9999 SCT012 SCT038 17/14 Q1016 TEMPO BKN012

2010/08/08 04:50
ELLX 080450Z 27010KT 240V310 9999 BKN007 BKN050 14/12 Q1016 NOSIG

2010/08/08 04:50
ENAT 080450Z AUTO VRB02KT 9999NDV FEW008/// OVC019/// 14/12 Q1018

2010/08/08 04:50
ENEV 080450Z AUTO 36004KT 310V040 2600NDV VV002 10/09 Q1019 

2010/08/08 04:50
ENKB 080450Z AUTO 06004KT 9999NDV SCT150/// 15/14 Q1015

2010/08/08 04:50
ENKR 080450Z AUTO VRB02KT 9999NDV BKN010/// 17/14 Q1018 

2010/08/08 04:50
LOWW 080450Z 28008KT 9999 FEW030 SCT045 BKN060 17/13 Q1017 NOSIG

2010/08/08 04:50
LOWL 080450Z 29003KT 6000 VCFG SCT280 12/11 Q1018 TEMPO 4000 BR

2010/08/08 04:50
LOWS 080450Z 16010KT 9999 FEW010 13/11 Q1019 NOSIG

2010/08/08 04:50
LOWI 080450Z 00000KT 9999 FEW006 BKN013 12/11 Q1021 BECMG SCT010 SCT020

2010/08/08 04:50
LOWG 080450Z VRB02KT 0600 R17/0750N R35/0800U FG BKN002 13/13 Q1018 BECMG 2000 BR BKN003

2010/08/08 04:50
LOWK 080450Z VRB01KT 8000 SCT006 OVC008 14/12 Q1020 NOSIG

2010/08/08 04:50
EFJO 080450Z AUTO 16009KT 130V210 8000 SKC 24/21 Q1016

2010/08/08 04:50
EFLP 080450Z 12004KT 080V150 8000 FEW085 25/19 Q1016

2010/08/08 04:50
EFMI 080450Z AUTO 13006KT 090V160 8000 SKC 24/21 Q1015

2010/08/08 04:50
EFSA 080450Z AUTO 15005KT 120V190 9000NDV NCD 24/20 Q1016

2010/08/08 04:50
EFUT 080450Z AUTO 13007KT CAVOK 24/20 Q1015

2010/08/08 04:50
EFVR 080450Z AUTO 13005KT 9000 SKC 23/21 Q1015

2010/08/08 04:50
EGCN 080450Z 30006KT CAVOK 12/11 Q1020

2010/08/08 04:50
EGSH 080450Z 34005KT 300V010 9999 FEW007 SCT030 16/14 Q1017

2010/08/08 04:50
EGDL 080450Z 32006KT 9999 SCT035 12/11 Q1020 NOSIG

2010/08/08 04:50
LIEA 080450Z 00000KT CAVOK 13/13 Q1018

2010/08/08 04:45
LIEE 080445Z 32006KT CAVOK 15/12 Q1018 NOSIG

2010/08/08 04:50
LIEO 080450Z 21005KT CAVOK 16/14 Q1018

2010/08/08 04:50
LIMC 080450Z 00000KT CAVOK 16/13 Q1017 NOSIG

2010/08/08 04:50
LIME 080450Z 01004KT CAVOK 16/13 Q1017

2010/08/08 04:50
LIMJ 080450Z 07006KT 9999 SCT028 21/18 Q1017

2010/08/08 04:50
LIML 080450Z VRB01KT CAVOK 17/15 Q1016 NOSIG

2010/08/08 04:45
LIRA 080445Z 32003KT CAVOK 18/15 Q1017

2010/08/08 04:50
LIRF 080450Z VRB03KT CAVOK 16/14 Q1017 NOSIG

2010/08/08 04:50
LIRN 080450Z VRB02KT CAVOK 19/15 Q1016

2010/08/08 04:45
LIRP 080445Z 12001KT CAVOK 18/18 Q1018 NOSIG

2010/08/08 04:50
LIRQ 080450Z VRB03KT 9999 SCT015 SCT030 18/15 Q1018

2010/08/08 04:50
LIBD 080450Z 29005KT 9999 FEW025 20/13 Q1016

2010/08/08 04:45
LIBR 080445Z 28011KT 9999 SCT015 23/19 Q1015 NOSIG

2010/08/08 04:50
LICC 080450Z 23005KT CAVOK 19/15 Q1016

2010/08/08 04:50
LICJ 080450Z 08006KT 9999 FEW030 23/18 Q1017

2010/08/08 04:50
LIPB 080450Z 00000KT CAVOK 14/12 Q1019

2010/08/08 04:50
LIPE 080450Z 20007KT 170V230 CAVOK 19/15 Q1016

2010/08/08 04:45
LIPH 080445Z 03002KT CAVOK 20/19 Q1017

2010/08/08 04:50
LIPQ 080450Z VRB02KT 9999 SCT070 16/14 Q1017

2010/08/08 04:45
LIPR 080445Z 00000KT CAVOK 18/17 Q1016

2010/08/08 04:45
LIPX 080445Z 34005KT CAVOK 16/16 Q1016

2010/08/08 04:50
LIPZ 080450Z 01004KT CAVOK 19/18 Q1017

2010/08/08 04:50
EBAW 080450Z 25006KT 4500 BR BKN006 OVC007 16/14 Q1015 TEMPO SHRA

2010/08/08 04:50
EBBR 080450Z 24004KT 9000 BKN008 15/14 Q1016 TEMPO 4500 BR

2010/08/08 04:50
EBCI 080450Z 24006KT 3700 -SHRA BKN005 BKN033 14/12 Q1016 NOSIG

2010/08/08 04:50
EBLG 080450Z 27007KT 9999 FEW009 BKN015 14/13 Q1016 TEMPO BKN005

2010/08/08 04:50
EBOS 080450Z 33009KT 9999 SCT012 SCT038 17/14 Q1016 TEMPO BKN012

2010/08/08 04:50
ELLX 080450Z 27010KT 240V310 9999 BKN007 BKN050 14/12 Q1016 NOSIG

2010/08/08 04:50
ENAL 080450Z AUTO 00000KT 6000NDV -RA FEW008/// SCT026/// BKN061/// 15/14 Q1016

2010/08/08 04:50
ENEK 080450Z 34016KT 9999 SCT008 BKN035 15/14 Q1016 W16/S3

2010/08/08 04:50
ENGC 080450Z 23016KT 1000 BR VV002 13/13 Q1014

2010/08/08 04:50
ENHD 080450Z AUTO VRB02KT 9999NDV BKN021/// OVC028/// 15/13 Q1016

2010/08/08 04:50
ENHE 080450Z 05019KT 9999 FEW005 12/12 Q1018

2010/08/08 04:50
ENOA 080450Z 25014KT 8000 -RA SCT008 BKN012 13/12 Q1015

2010/08/08 04:50
ENRO 080450Z AUTO 00000KT 0550NDV R32/0800V1800D FG VV000 02/01 Q1017

2010/08/08 04:50
ENSB 080450Z 25006KT 9999 VCSH FEW008 BKN025 07/04 Q1012

2010/08/08 04:50
ENTO 080450Z 36004KT CAVOK 15/11 Q1015

2010/08/08 04:50
LIEA 080450Z 00000KT CAVOK 13/13 Q1018

2010/08/08 04:50
LIEO 080450Z 21005KT CAVOK 16/14 Q1018

2010/08/08 04:50
LIMC 080450Z 00000KT CAVOK 16/13 Q1017 NOSIG

2010/08/08 04:50
LIME 080450Z 01004KT CAVOK 16/13 Q1017

2010/08/08 04:50
LIML 080450Z VRB01KT CAVOK 17/15 Q1016 NOSIG

2010/08/08 04:50
LIRQ 080450Z VRB03KT 9999 SCT015 SCT030 18/15 Q1018

2010/08/08 04:50
LOWG 080450Z VRB02KT 0600 R17/0750N R35/0800U FG BKN002 13/13 Q1018 BECMG 2000 BR BKN003

2010/08/08 04:50
LOWI 080450Z 00000KT 9999 FEW006 BKN013 12/11 Q1021 BECMG SCT010 SCT020

2010/08/08 04:50
LOWK 080450Z VRB01KT 8000 SCT006 OVC008 14/12 Q1020 NOSIG

2010/08/08 04:50
LOWW 080450Z 28008KT 9999 FEW030 SCT045 BKN060 17/13 Q1017 NOSIG

2010/08/08 04:50
EBAW 080450Z 25006KT 4500 BR BKN006 OVC007 16/14 Q1015 TEMPO SHRA

2010/08/08 04:50
EBBR 080450Z 24004KT 9000 BKN008 15/14 Q1016 TEMPO 4500 BR

2010/08/08 04:50
EBCI 080450Z 24006KT 3700 -SHRA BKN005 BKN033 14/12 Q1016 NOSIG

2010/08/08 04:50
EBLG 080450Z 27007KT 9999 FEW009 BKN015 14/13 Q1016 TEMPO BKN005

2010/08/08 04:50
EBOS 080450Z 33009KT 9999 SCT012 SCT038 17/14 Q1016 TEMPO BKN012

2010/08/08 04:50
EDFH 080450Z 27005KT 220V290 5000 -SHRA FEW015 SCT024TCU BKN045 14/12 Q1016 RERA

2010/08/08 04:50
EDLN 080450Z VRB03KT 2500 RA BR SCT004 BKN017 17/17 Q1014

2010/08/08 04:50
EDLP 080450Z 12003KT CAVOK 15/15 Q1014

2010/08/08 04:50
EDMA 080450Z 15003KT CAVOK 12/11 Q1018

2010/08/08 04:50
EDNY 080450Z 00000KT CAVOK 13/12 Q1018

2010/08/08 04:50
EDQM 080450Z AUTO 21007KT 9999NDV FEW120/// 12/09 Q1017

2010/08/08 04:50
EDSB 080450Z VRB02KT 9999 VCSH FEW012 SCT026 BKN050 16/15 Q1017

2010/08/08 04:50
EDTL 080450Z 21006KT 9999 FEW038 FEW050CB SCT070 17/13 Q1016

2010/08/08 04:50
EDXW 080450Z AUTO 25003KT 9999NDV BR FEW007/// SCT013/// 17/15 Q1014

2010/08/08 04:50
EGJJ 080450Z 00000KT 9999 FEW007 14/14 Q1020 NOSIG

2010/08/08 04:55
EHEH 080455Z AUTO 22001KT 0250NDV FG OVC007 13/13 Q1015 RED

2010/08/08 04:50
EKAH 080450Z AUTO 28003KT 2700NDV BR FEW001/// BKN210/// 16/15 Q1014

2010/08/08 04:50
EKBI 080450Z 02001KT 6000 MIFG BKN090 16/15 Q1015

2010/08/08 04:50
EKEB 080450Z AUTO 10001KT 2600NDV -SHRA BR OVC022/// 16/15 Q1014

2010/08/08 04:50
EKRK 080450Z AUTO 32007KT 9999NDV FEW070/// SCT130/// BKN150/// 18/18 Q1012

2010/08/08 04:50
EKRN 080450Z AUTO 32012KT 9999NDV -SHRA OVC050/// 18/15 Q1011

2010/08/08 04:50
EKYT 080450Z 33004KT 9999 FEW035 BKN150 16/16 Q1014

2010/08/08 04:50
ELLX 080450Z 27010KT 240V310 9999 BKN007 BKN050 14/12 Q1016 NOSIG

2010/08/08 04:55
KBAD 080455Z AUTO 16007KT 10SM CLR 27/24 A2988 RMK AO2 SLP119 T02700235

2010/08/08 04:55
KBLV 080455Z AUTO 00000KT 10SM CLR 22/19 A2994 RMK AO2 SLP135 T02180189

2010/08/08 04:55
KCEF 080455Z AUTO 00000KT 10SM CLR 14/12 A3000 RMK AO2 SLP161 T01420117 402710113

2010/08/08 04:55
KDAA 080455Z AUTO 00000KT 10SM CLR 18/15 A3000 RMK AO2 SLP161 T01750155 403080171

2010/08/08 04:55
KFFO 080455Z 00000KT 10SM FEW065 19/17 A3001 RMK AO2A SLP157 402880146

2010/08/08 04:55
KGRF 080455Z AUTO 17007KT 10SM FEW008 16/15 A2991 RMK AO2 SLP130 T01630154

2010/08/08 04:55
KGSB 080455Z AUTO 00000KT 10SM FEW075 23/23 A2996 RMK AO2 SLP145 T02290229

2010/08/08 04:55
KGUS 080455Z AUTO 16006KT 10SM CLR 20/20 A2997 RMK AO2 SLP144 T01970196 402790160

2010/08/08 04:55
KHMN 080455Z AUTO 23005KT 10SM CLR 27/12 A2998 RMK AO2 SLP060 T02730117 $

2010/08/08 04:55
KHST 080455Z AUTO 00000KT 10SM CLR 27/24 A3000 RMK AO2 SLP160 T02740244 403380250

2010/08/08 04:55
KIAB 080455Z AUTO 13011KT 10SM CLR 29/22 A2985 RMK AO2 SLP090 T02850219 $

2010/08/08 04:55
KLRF 080455Z AUTO 00000KT 10SM FEW070 26/25 A2991 RMK AO2 SLP126 T02650251

2010/08/08 04:55
KMGE 080455Z AUTO 00000KT 10SM CLR 26/22 A2998 RMK AO2 SLP141 T02590222 403360222 VISNO RWY11 CHINO RWY11 $

2010/08/08 04:55
KMMT 080455Z AUTO 07003KT 7SM R32/4500V5500FT CLR 24/24 A2995 RMK AO2 SLP142 T02440239 403230215

2010/08/08 04:55
KSVN 080455Z AUTO 00000KT 3SM 25/24 A2993 RMK AO2 SLP135

2010/08/08 04:50
HLLT 080450Z 13002KT CAVOK 23/15 Q1016

2010/08/08 04:50
HLLT 080450Z 13002KT CAVOK 23/15 Q1016

2010/08/08 04:53
KCEC 080453Z AUTO 31008KT 1 1/2SM BR BKN001 OVC006 13/13 A2992

2010/08/08 04:54
KWAL 080454Z AUTO 00000KT 10SM CLR 23/21 A3001 RMK AO2 SLP159 T02330211 402940206 TSNO 

2010/08/08 05:00
MDSD 080500Z 01004KT 9999 FEW018 24/22 Q1015

2010/08/08 05:00
MGGT 080500Z 00000KT 9999 SCT014 18/17 Q1025 A3027 VOL/ PACAYA EN ACTIVIDAD

2010/08/08 05:00
MGSJ 080500Z 00000KT 9999 FEW018 BKN090 25/24 Q1014 A2994

2010/08/08 04:46
MMAA 080446Z 00000KT 8SM SCT010TCU SCT070 BKN300 26/24 A2990 RMK 60115 8/262

2010/08/08 04:46
MMCZ 080446Z 09004KT 7SM FEW015 BKN200 24/24 A2995 RMK 8/408

2010/08/08 04:51
MMMD 080451Z 12006KT 6SM BKN070 OVC300 26/24 A2994 RMK 8/063

2010/08/08 04:45
MMTO 080445Z 00000KT 4SM BKN010TCU BKN070 14/12 A3040 RMK 8/27/ HZ

2010/08/08 04:46
MMUN 080446Z 08005KT 7SM SCT300 27/25 A2995 RMK 8/008

2010/08/08 04:45
MMVA 080445Z 00000KT 5SM FEW030 27/24 A2987 RMK 8/500

2010/08/08 04:47
MMVR 080447Z 00000KT 7SM SCT012 SCT070 BKN250 28/25 A2993 RMK 8/538

2010/08/08 05:00
MYNN 080500Z 00000KT 9999 FEW012CB SCT015 28/26 A2999

2010/08/08 04:53
PHJR 080453Z VRB05KT 10SM CLR 27/19 A3006 RMK AO2 SLP184 T02720189

2010/08/08 04:50
PTKK 080450Z VRB05KT 15SM FEW014CB SCT120 OVC280 32/26 A2974 RMK CB N SLP072 T03190256

2010/08/08 04:50
PTRO 080450Z 33005KT 15SM BKN016CB BKN120 OVC300 29/23 A2981 RMK CB VC ALQDS

2010/08/08 04:55
RKSO 080455Z 23006KT 9999 CLR 32/26 A2982 RMK AO2A SLP098 T03250256 $

2010/08/08 04:55
TXKF 080455Z 17014KT 9999 FEW014 SCT025 BKN300 27/24 Q1016

2010/08/08 04:55
KEGI 080455Z AUTO 00000KT 10SM FEW120 25/24 A2991 RMK AO2 SLP130 T02520240 $

2010/08/08 04:52
KNHK 080452Z AUTO 00000KT 10SM CLR 22/18 A2999 RMK AO2 SLP157 T02220178 403000200

2010/08/08 04:55
KOFF 080455Z AUTO 16009KT 10SM CLR 27/23 A2979 RMK AO2 SLP068 T02720232 $

2010/08/08 04:55
KOZR 080455Z AUTO 00000KT 10SM FEW230 24/24 A2993 RMK AO2 SLP133 T02440244

2010/08/08 04:55
KRDR 080455Z AUTO 16004KT 9SM R17/5000VP6000FT CLR 21/21 A2964 RMK AO2 SLP051 T02080208 $

2010/08/08 04:55
KRIV 080455Z AUTO 27003KT 10SM CLR 18/12 A2991 RMK AO2 SLP123 T01770116

2010/08/08 04:55
KRND 080455Z AUTO 17009KT 10SM CLR 27/22 A2992 RMK AO2 SLP121 T02750221

2010/08/08 04:55
KSKF 080455Z AUTO 15012KT 10SM CLR 29/ A2991 RMK AO2 SLP117 T0286 $

2010/08/08 04:55
KSUU 080455Z AUTO 25022KT 10SM CLR 15/11 A2975 RMK AO2 PK WND 25028/0446 SLP074 T01470114 RVRNO $

2010/08/08 04:55
KSZL 080455Z AUTO 13003KT 10SM CLR 24/21 A2988 RMK AO2 SLP112 T02420214 PNO $

2010/08/08 04:55
KTTS 080455Z 21005KT 10SM FEW020 BKN170 OVC200 27/25 A2995 RMK SLP142 1CU /1/ 5AC 2CS /8/

2010/08/08 04:55
KVOK 080455Z 17003KT 10SM CLR 23/21 A2979 RMK AO2A SLP081 T02260209 $

2010/08/08 04:55
KVPS 080455Z 00000KT 9SM FEW020 SCT110 SCT250 25/24 A2992 RMK AO2A LTG DSNT S SLP131 T02500243 $

2010/08/08 04:55
KWRI 080455Z AUTO 24005KT 10SM CLR 21/20 A2999 RMK AO2 SLP157 T02050195 403120147 $

2010/08/08 05:00
SPIM 080500Z 17006KT 7000 SCT007 OVC013 14/12 Q1016 NOSIG RMK PP000

2010/08/08 04:55
KAFF 080455Z AUTO 04007KT 10SM VCTS BKN095 17/13 A3012 RMK AO2 SLP073 T01730129

2010/08/08 04:55
KBIX 080455Z AUTO 00000KT 10SM VCTS FEW036 29/26 A2992 RMK AO2 RAB0404E0426 SLP132 P0007 T02900263 $

2010/08/08 04:55
KCBM 080455Z AUTO 34003KT 10SM FEW100 26/25 A2991 RMK AO2 SLP129 T02580249 $

2010/08/08 04:55
KDAA 080455Z AUTO 00000KT 10SM CLR 18/15 A3000 RMK AO2 SLP161 T01750155 403080171

2010/08/08 04:55
KDYS 080455Z AUTO 18008KT 10SM CLR 27/20 A2990 RMK AO2 SLP096 T02720195 $

2010/08/08 04:55
KFBG 080455Z 00000KT 10SM CLR 25/22 A2996 RMK AO2A SLP145 T02490223 403240231 $

2010/08/08 04:55
KLSF 080455Z AUTO 00000KT 10SM CLR 25/24 A2993 RMK AO2 SLP135 T02480237 403600235 PNO $

2010/08/08 04:55
KMTC 080455Z AUTO 19004KT 10SM SCT100 20/16 A2992 RMK AO2 SLP137 T02020163 402580131 $

2010/08/08 04:55
KMUI 080455Z AUTO 00000KT 10SM BKN065 BKN090 19/17 A3001 RMK AO2 SLP160 T01930173 402830193 $

2010/08/08 04:55
KMXF 080455Z AUTO 15004KT 10SM CLR 26/24 A2991 RMK AO2 SLP127 T02600240

2010/08/08 04:55
KOZR 080455Z AUTO 00000KT 10SM FEW230 24/24 A2993 RMK AO2 SLP133 T02440244

2010/08/08 04:55
KRND 080455Z AUTO 17009KT 10SM CLR 27/22 A2992 RMK AO2 SLP121 T02750221

2010/08/08 04:55
KVOK 080455Z 17003KT 10SM CLR 23/21 A2979 RMK AO2A SLP081 T02260209 $

2010/08/08 04:55
KVPS 080455Z 00000KT 9SM FEW020 SCT110 SCT250 25/24 A2992 RMK AO2A LTG DSNT S SLP131 T02500243 $

2010/08/08 05:00
MYNN 080500Z 00000KT 9999 FEW012CB SCT015 28/26 A2999

2010/08/08 04:55
TXKF 080455Z 17014KT 9999 FEW014 SCT025 BKN300 27/24 Q1016

2010/08/08 04:53
KRNM 080453Z 26005KT 10SM CLR 13/11 A2992 RMK AO2 SLP122 T01280106 

2010/08/08 04:55
CYUS 080455Z AUTO ///// 9SM CLR 09/ A2985

2010/08/08 04:55
CZCP 080455Z AUTO 06016KT 1SM CLR 07/ A2956

2010/08/08 04:50
ENAN 080450Z 26007KT 9999 SCT012 11/09 Q1019

2010/08/08 04:50
ENBO 080450Z 07002KT 0400 FG VV004 11/11 Q1018

2010/08/08 04:50
ENBR 080450Z 16005KT 110V180 9000 -RA FEW003 SCT007 BKN015 14/13 Q1016 BECMG BKN020

2010/08/08 04:50
ENOL 080450Z 11006KT CAVOK 14/13 Q1015

2010/08/08 04:50
ENZV 080450Z 00000KT 9999 BKN030 16/14 Q1016 NOSIG

2010/08/08 04:55
ETAD 080455Z AUTO 21005KT 9999 SCT035 SCT060 OVC080 15/14 A3000 RMK AO2 RAE0448DZB0448E0454 SLP148 P0004 T01480142 $

2010/08/08 04:55
ETAR 080455Z AUTO 00000KT 9999 BKN070 BKN090 15/15 A3000 RMK AO2 RAE0414DZB0414E0417 SLP152 P0002 T01500150 $

2010/08/08 04:55
ETEB 080455Z AUTO 17003KT 9999 BKN110 12/11 A3005 RMK AO2 RAB0355E0406 SLP167 P0000 T01240112

2010/08/08 04:50
LIBD 080450Z 29005KT 9999 FEW025 20/13 Q1016

2010/08/08 04:45
LIBR 080445Z 28011KT 9999 SCT015 23/19 Q1015 NOSIG

2010/08/08 04:50
LICC 080450Z 23005KT CAVOK 19/15 Q1016

2010/08/08 04:50
LICJ 080450Z 08006KT 9999 FEW030 23/18 Q1017

2010/08/08 04:45
LIEE 080445Z 32006KT CAVOK 15/12 Q1018 NOSIG

2010/08/08 04:50
LIMJ 080450Z 07006KT 9999 SCT028 21/18 Q1017

2010/08/08 04:50
LIPB 080450Z 00000KT CAVOK 14/12 Q1019

2010/08/08 04:50
LIPE 080450Z 20007KT 170V230 CAVOK 19/15 Q1016

2010/08/08 04:45
LIPH 080445Z 03002KT CAVOK 20/19 Q1017

2010/08/08 04:50
LIPQ 080450Z VRB02KT 9999 SCT070 16/14 Q1017

2010/08/08 04:45
LIPR 080445Z 00000KT CAVOK 18/17 Q1016

2010/08/08 04:45
LIPX 080445Z 34005KT CAVOK 16/16 Q1016

2010/08/08 04:50
LIPZ 080450Z 01004KT CAVOK 19/18 Q1017

2010/08/08 04:45
LIRA 080445Z 32003KT CAVOK 18/15 Q1017

2010/08/08 04:50
LIRF 080450Z VRB03KT CAVOK 16/14 Q1017 NOSIG

2010/08/08 04:50
LIRN 080450Z VRB02KT CAVOK 19/15 Q1016

2010/08/08 04:45
LIRP 080445Z 12001KT CAVOK 18/18 Q1018 NOSIG

2010/08/08 05:00
LWOH 080500Z 28003KT 9999 SCT050 14/13 Q1017

2010/08/08 04:55
KQDD 080455Z AUTO VRB02KT 9999 CLR 25/13 A2999 RMK AO2 SLP153

2010/08/08 04:55
KQGX 080455Z 12012KT 9000 HZ SCT250 37/16 A2951 RMK AO2A SLP993 $

2010/08/08 04:55
KQHY 080455Z AUTO 04002KT 10SM SCT160 25/24 A2995 RMK AO2 LTG DSNT S SLP139 T02540238

2010/08/08 04:55
KQMG 080455Z AUTO 17009KT 10SM FEW095 SCT110 OVC130 28/13 A3004 RMK AO2 WSHFT 0343 SLP081 T02770126

2010/08/08 04:55
KQON 080455Z AUTO VRB06KT 9999 FEW190 37/04 A2969 RMK AO2 SLP034 T03650039

2010/08/08 04:55
KQRH 080455Z AUTO 00000KT 8000 FEW170 35/17 A2966 RMK AO2 SLP041

2010/08/08 04:55
KQSL 080455Z 33010G18KT 5000 DU HZ SCT180 38/M02 A2966 RMK SLP030 Q1004MB

2010/08/08 04:55
KQTI 080455Z AUTO 31016G22KT 9999 CLR 38/00 A2972 RMK AO2 SLP033 T03781001

2010/08/08 04:55
KQTU 080455Z 32010G16KT 9999 FEW120 35/01 A2968 RMK SLP029

2010/08/08 04:55
KQTZ 080455Z 34009G16KT 6000 DU HZ SCT200 37/04 A2958 RMK SLP012 QNH1001MB WND DATA ESTMD ALSTG/SLP ESTMD

2010/08/08 05:00
ORSU 080500Z 0806/0906 04010KT CAVOK BECMG 0807/0709 VRB04KT CAVOK TEMPO 0810/0816 33010KT 9999 SCT045 TEMPO 0901/0905 04010KT CAVOK 

2010/08/08 04:55
KAFF 080455Z AUTO 04007KT 10SM VCTS BKN095 17/13 A3012 RMK AO2 SLP073 T01730129

2010/08/08 04:55
KBIX 080455Z AUTO 00000KT 10SM VCTS FEW036 29/26 A2992 RMK AO2 RAB0404E0426 SLP132 P0007 T02900263 $

2010/08/08 04:55
KCBM 080455Z AUTO 34003KT 10SM FEW100 26/25 A2991 RMK AO2 SLP129 T02580249 $

2010/08/08 04:55
KCOF 080455Z AUTO 21007KT 10SM CLR 27/ A2996 RMK AO2 SLP146 T0267 403270254

2010/08/08 04:55
KDOV 080455Z AUTO 16004KT 10SM FEW095 23/22 A2999 RMK AO2 SLP158 T02260218 402960180

2010/08/08 04:55
KDYS 080455Z AUTO 18008KT 10SM CLR 27/20 A2990 RMK AO2 SLP096 T02720195 $

2010/08/08 04:55
KEDW 080455Z 21012KT 30SM CLR 22/06 A2984 RMK AO2A SLP060 T02240056

2010/08/08 04:55
KFBG 080455Z 00000KT 10SM CLR 25/22 A2996 RMK AO2A SLP145 T02490223 403240231 $

2010/08/08 04:55
KHIF 080455Z AUTO 11011KT 10SM CLR 21/08 A2995 RMK AO2 SLP025 T02140082

2010/08/08 04:55
KLHW 080455Z AUTO 00000KT 10SM CLR 25/24 A2992 RMK AO2 SLP133 T02470240 403280238

2010/08/08 04:55
KLSF 080455Z AUTO 00000KT 10SM CLR 25/24 A2993 RMK AO2 SLP135 T02480237 403600235 PNO $

2010/08/08 04:55
KMTC 080455Z AUTO 19004KT 10SM SCT100 20/16 A2992 RMK AO2 SLP137 T02020163 402580131 $

2010/08/08 04:55
KMUI 080455Z AUTO 00000KT 10SM BKN065 BKN090 19/17 A3001 RMK AO2 SLP160 T01930173 402830193 $

2010/08/08 04:55
KMUO 080455Z AUTO 34006KT 7SM R30/5000VP6000FT CLR 27/04 A2978 RMK AO2 SLP054 T02660042

2010/08/08 04:55
KMXF 080455Z AUTO 15004KT 10SM CLR 26/24 A2991 RMK AO2 SLP127 T02600240

2010/08/08 04:55
ETAD 080455Z AUTO 21005KT 9999 SCT035 SCT060 OVC080 15/14 A3000 RMK AO2 RAE0448DZB0448E0454 SLP148 P0004 T01480142 $

2010/08/08 04:55
ETAR 080455Z AUTO 00000KT 9999 BKN070 BKN090 15/15 A3000 RMK AO2 RAE0414DZB0414E0417 SLP152 P0002 T01500150 $

2010/08/08 04:55
KDOV 080455Z AUTO 16004KT 10SM FEW095 23/22 A2999 RMK AO2 SLP158 T02260218 402960180

2010/08/08 04:55
KEDW 080455Z 21012KT 30SM CLR 22/06 A2984 RMK AO2A SLP060 T02240056

2010/08/08 04:55
KGTB 080455Z AUTO 16007KT 10SM CLR 15/11 A2997 RMK AO2 SLP148 T01510114 402220088

2010/08/08 04:55
KLHW 080455Z AUTO 00000KT 10SM CLR 25/24 A2992 RMK AO2 SLP133 T02470240 403280238

2010/08/08 04:55
KMUO 080455Z AUTO 34006KT 7SM R30/5000VP6000FT CLR 27/04 A2978 RMK AO2 SLP054 T02660042

2010/08/08 04:55
KSKF 080455Z AUTO 15012KT 10SM CLR 29/ A2991 RMK AO2 SLP117 T0286 $

2010/08/08 04:55
KSLI 080455Z AUTO 18003KT 7SM CLR 16/14 A2990 RMK AO2 SLP128 T01560136

2010/08/08 04:55
KTIK 080455Z 14006KT 10SM CLR 29/22 A2986 RMK AO2A SLP096 T02850225

2010/08/08 04:55
KWRI 080455Z AUTO 24005KT 10SM CLR 21/20 A2999 RMK AO2 SLP157 T02050195 403120147 $

2010/08/08 04:53
PABI 080453Z 32006KT 10SM FEW030 SCT050 BKN080 BKN180 17/09 A2969 RMK AO2 SLP055 SHRA DSNT SW-W T01720089 $

2010/08/08 04:55
PAEI 080455Z AUTO 00000KT 10SM CLR 16/11 A2966 RMK AO2 SLP046 T01640110 $

2010/08/08 04:53
PASC 080453Z 07021KT 10SM OVC005 04/03 A2975 RMK AO2 PK WND 07029/0428 SLP076 T00390028

2010/08/08 04:55
RODN 080455Z 15008KT 9999 -RA FEW017 SCT029 BKN038 BKN100 29/27 A2963 RMK AO2A RAB0444 FEW V SCT SLP032 P0000 T02900265

2010/08/08 04:50
EGAA 080450Z 15003KT 7000 SCT010 BKN025 10/10 Q1021

2010/08/08 04:50
EGBB 080450Z 33006KT 6000 FEW021 13/11 Q1020

2010/08/08 04:50
EGCC 080450Z 24002KT 6000 BKN006 BKN027 14/14 Q1020

2010/08/08 04:50
EGFF 080450Z 32004KT 9999 BKN030 12/10 Q1021

2010/08/08 04:50
EGGD 080450Z 30004KT 9999 SCT013 BKN030 13/12 Q1020

2010/08/08 04:50
EGGP 080450Z 27013KT 9999 BKN013 15/12 Q1020

2010/08/08 04:50
EGGW 080450Z 35007KT 7000 SCT006 BKN017 14/13 Q1019

2010/08/08 04:50
EGHH 080450Z 31005KT 9999 SCT039 11/11 Q1020

2010/08/08 04:50
EGJB 080450Z 34006KT 9999 SCT006 14/14 Q1021

2010/08/08 04:50
EGJJ 080450Z 00000KT 9999 FEW007 14/14 Q1020 NOSIG

2010/08/08 04:50
EGKK 080450Z 33006KT 280V340 9999 BKN012 14/13 Q1019

2010/08/08 04:50
EGLC 080450Z AUTO 31004KT 270V350 9999 SCT009/// BKN020/// 15/13 Q1019

2010/08/08 04:50
EGLL 080450Z 31004KT 280V350 9999 FEW012 BKN024 15/13 Q1019

2010/08/08 04:50
EGMC 080450Z 33006KT 9999 BKN008 16/14 Q1018

2010/08/08 04:50
EGNM 080450Z 00000KT CAVOK 12/10 Q1020

2010/08/08 04:50
EGNT 080450Z 30002KT 9999 BKN037 12/11 Q1020

2010/08/08 04:50
EGNV 080450Z 31005KT 9999 FEW023 SCT049 13/11 Q1020

2010/08/08 04:50
EGNX 080450Z 31003KT CAVOK 12/10 Q1020

2010/08/08 04:50
EGPB 080450Z AUTO 29006KT 9999NDV FEW018/// OVC023/// 12/10 Q1017

2010/08/08 04:50
EGPD 080450Z 27002KT 9999 BKN045 11/09 Q1020 NOSIG

2010/08/08 04:50
EGPF 080450Z 23005KT 9999 BKN014 11/10 Q1020

2010/08/08 04:50
EGPH 080450Z 27002KT 9999 BKN018 14/11 Q1019

2010/08/08 04:50
EGPK 080450Z 12002KT 9999 FEW045 09/08 Q1020

2010/08/08 04:50
EGSH 080450Z 34005KT 300V010 9999 FEW007 SCT030 16/14 Q1017

2010/08/08 04:50
EGSS 080450Z 34007KT 6000 BKN004 14/13 Q1018

2010/08/08 04:50
EGTE 080450Z 06003KT CAVOK 11/10 Q1021

2010/08/08 04:55
EGUN 080455Z AUTO 33008KT 9999 SCT007 OVC016 14/14 A3007 RMK AO2 RAB0353E0404 CIG 013V020 CIG 011 RWY11 SLP172 P0000 T01430143

2010/08/08 04:55
KDRA 080455Z AUTO 12010KT 10SM FEW110 28/07 A2984 RMK AO2 SLP058 T02780072 TSNO $ 

2010/08/08 04:53
KRTN 080453Z AUTO 00000KT 10SM CLR 20/12 A3012 RMK AO2 SLP094 T02000122 TSNO 

2010/08/08 04:54
OAHR 080454Z 02012KT CAVOK 33/M01 Q1009 RMK FEW FEW080 VIS MIN 9999 BLU

2010/08/08 04:55
KPOE 080455Z AUTO 19005KT 10SM CLR 28/24 A2992 RMK AO2 SLP130 T02780244 403500233 

2010/08/08 04:55
KMBG 080455Z AUTO 10004KT 10SM CLR 19/15 A2967 RMK AO2 SLP037 T01890150 TSNO 

2010/08/08 04:55
KINL 080455Z AUTO 00000KT 10SM FEW090 17/16 A2971 RMK AO2 SLP059 T01720156 

2010/08/08 04:55
KAST 080455Z AUTO 25003KT 2 1/2SM -RA BR BKN005 OVC013 15/14 A2995 RMK AO2 RAB40 SLP140 P0001 T01500144 

2010/08/08 04:55
KBIX 080455Z AUTO 00000KT 10SM VCTS FEW036 29/26 A2992 RMK AO2 RAB0404E0426 SLP132 P0007 T02900263 $

2010/08/08 04:54
KBOS 080454Z 00000KT 10SM CLR 18/12 A3002 RMK AO2 SLP164 T01830122 402720167

2010/08/08 04:55
KCOF 080455Z AUTO 21007KT 10SM CLR 27/ A2996 RMK AO2 SLP146 T0267 403270254

2010/08/08 04:53
KDAB 080453Z 00000KT 10SM FEW015 SCT140 OVC250 26/24 A2995 RMK AO2 RAE01 SLP141 P0000 T02610244 403170250

2010/08/08 04:55
KDOV 080455Z AUTO 16004KT 10SM FEW095 23/22 A2999 RMK AO2 SLP158 T02260218 402960180

2010/08/08 04:53
KNIP 080453Z 27004KT 10SM BKN026 OVC150 25/24 A2995 RMK AO2 SLP136 T02500239 403440244

2010/08/08 04:53
KNQX 080453Z AUTO 17003KT 10SM FEW020 30/25 A2998 RMK AO2 SLP151 T03000250 403390283 $

2010/08/08 04:52
KNRB 080452Z AUTO 00000KT 10SM BKN029 BKN036 26/23 A2994 RMK AO2 SLP136 T02610233 403440250

2010/08/08 04:53
KPBI 080453Z COR 21004KT 10SM FEW039 SCT090 27/24 A2996 RMK AO2 SLP144 T02720256 403280256 $

2010/08/08 04:55
KPOB 080455Z AUTO 00000KT 10SM CLR 25/24 A2997 RMK AO2 SLP147 T02470240 403200230 $

2010/08/08 04:53
KSAV 080453Z 36003KT 8SM FEW015 25/24 A2993 RMK AO2 SLP134 T02500239 403280239

2010/08/08 04:55
KSSC 080455Z 24005KT 10SM CLR 26/23 A2993 RMK AO2A SLP135 T02570233 403310224 $

2010/08/08 04:55
KVPS 080455Z 00000KT 9SM FEW020 SCT110 SCT250 25/24 A2992 RMK AO2A LTG DSNT S SLP131 T02500243 $

2010/08/08 04:55
KWRI 080455Z AUTO 24005KT 10SM CLR 21/20 A2999 RMK AO2 SLP157 T02050195 403120147 $

2010/08/08 05:00
MYNN 080500Z 00000KT 9999 FEW012CB SCT015 28/26 A2999

2010/08/08 04:55
TXKF 080455Z 17014KT 9999 FEW014 SCT025 BKN300 27/24 Q1016

2010/08/08 04:54
KRFD 080454Z 19006KT 10SM CLR 21/18 A2990 RMK AO2 SLP119 T02110183 

2010/08/08 04:55
KANJ 080455Z AUTO 08004KT 10SM OVC019 19/16 A2977 RMK AO2 SLP077 T01890161 402500072 

2010/08/08 04:55
KFAM 080455Z AUTO 15003KT 10SM CLR 23/18 A2998 RMK AO1

2010/08/08 04:54
KFIG 080454Z AUTO 00000KT 10SM CLR 12/11 A3006 RMK AO2 SLP175 T01220111 402560122

2010/08/08 04:55
KFKL 080455Z AUTO 00000KT 10SM CLR 16/12 A3007 RMK AO1

2010/08/08 04:55
KFLP 080455Z AUTO 00000KT 10SM BKN046 26/21 A2992 RMK AO1

2010/08/08 04:55
KFNL 080455Z AUTO 08008KT 10SM OVC110 24/09 A3002 RMK AO1

2010/08/08 04:55
KFOD 080455Z AUTO 20015G19KT 10SM CLR 25/22 A2979 RMK AO1

2010/08/08 04:55
KFRM 080455Z 20012KT 10SM CLR 25/22 A2976 RMK AO1

2010/08/08 04:54
KFZY 080454Z AUTO 00000KT 10SM CLR 12/12 A2998 RMK AO2 SLP153 T01220117 402280094

2010/08/08 04:55
KGAD 080455Z AUTO 00000KT 10SM SCT100 24/22 A2995 RMK AO1

2010/08/08 04:55
KGAI 080455Z 13003KT 10SM FEW075 SCT090 19/16 A3003 RMK AO1

2010/08/08 04:55
KGBD 080455Z AUTO 16007KT 10SM CLR 27/20 A2984 RMK AO1

2010/08/08 04:54
KGCK 080454Z AUTO 16007KT 10SM CLR 25/19 A2987 RMK AO2 SLP072 T02500194

2010/08/08 04:54
KGCN 080454Z AUTO 04004KT 10SM CLR 12/11 A3021 RMK AO2 SLP162 T01220106

2010/08/08 04:55
KGDV 080455Z AUTO 34006KT 10SM CLR 21/10 A2974 RMK AO1

2010/08/08 04:54
KGED 080454Z AUTO 16003KT 9SM CLR 21/20 A3001 RMK AO2 SLP161 T02060200 403110178

2010/08/08 04:55
KGPZ 080455Z AUTO 09003KT 10SM CLR 20/18 A2971 RMK AO1

2010/08/08 04:55
KGTR 080455Z 00000KT 10SM CLR 26/24 A2992 RMK AO1

2010/08/08 04:55
KGTU 080455Z 18008KT 10SM CLR 29/21 A2994 RMK AO1

2010/08/08 04:55
KGUC 080455Z AUTO 00000KT 10SM FEW040 SCT049 BKN070 14/08 A3029 RMK AO1 P0003

2010/08/08 04:55
KGXY 080455Z AUTO 19005KT 10SM BKN110 23/14 A3001 RMK AO1 LTG DSNT E

2010/08/08 04:55
KHDN 080455Z 13006KT 10SM FEW045 SCT100 BKN120 13/11 A3020 RMK AO1

2010/08/08 04:55
KHEF 080455Z AUTO 00000KT 10SM CLR 18/16 A3001 RMK AO1

2010/08/08 04:55
KHEZ 080455Z AUTO 17004KT 10SM CLR 26/23 A2993 RMK AO1

2010/08/08 04:55
KHNB 080455Z AUTO 00000KT 10SM CLR 19/18 A2998 RMK AO1

2010/08/08 04:54
KHWD 080454Z AUTO 32008KT 10SM BKN011 14/12 A2986 RMK AO2 CIG 007V013 SLP121 T01440117 $

2010/08/08 04:55
KHYI 080455Z AUTO 18010KT 10SM CLR 28/23 A2992 RMK AO1

2010/08/08 04:55
KHYS 080455Z AUTO 19007KT 10SM CLR 27/19 A2985 RMK AO1

2010/08/08 04:55
KILE 080455Z AUTO 18009G15KT 10SM CLR 29/22 A2989 RMK AO1

2010/08/08 04:54
KILN 080454Z AUTO 00000KT 10SM CLR 18/15 A3001 RMK AO2 SLP156 T01780150 402780144

2010/08/08 04:54
KIMT 080454Z AUTO 19006KT 10SM -RA FEW045 20/19 A2976 RMK AO2 LTG DSNT S-W TSB30E53RAE01B30 SLP074 P0001 T02000189

2010/08/08 04:54
KIND 080454Z 17003KT 9SM CLR 22/17 A2997 RMK AO2 SLP140 T02220172 402940183

2010/08/08 04:54
KINT 080454Z 00000KT 10SM OVC080 23/17 A3003 RMK AO2 SLP157 T02330172 403000211

2010/08/08 04:54
KIPT 080454Z AUTO 35003KT 10SM FEW065 17/12 A3002 RMK AO2 SLP162 T01670122 402780139

2010/08/08 04:54
KISW 080454Z AUTO 19008KT 10SM CLR 23/20 A2981 RMK AO2 SLP088 T02330200 TSNO

2010/08/08 04:55
KIWD 080455Z AUTO 23004KT 6SM SCT060 BKN080 BKN110 20/19 A2974 RMK AO1 LTG DSNT S P0001

2010/08/08 04:54
KIZG 080454Z AUTO 00000KT 8SM CLR 08/08 A3001 RMK AO2 SLP163 T00830083 402390044

2010/08/08 04:55
KJAC 080455Z AUTO 32003KT 10SM CLR 12/04 A3008 RMK AO1

2010/08/08 04:55
KJHW 080455Z AUTO 18006KT 10SM CLR 14/12 A3003 RMK AO1

2010/08/08 04:54
KJST 080454Z AUTO 00000KT 10SM CLR 17/12 A3009 RMK AO2 SLP177 T01720122 402330128

2010/08/08 04:55
KKLS 080455Z AUTO 35003KT 10SM FEW016 OVC037 17/15 A2993 RMK AO1

2010/08/08 04:54
KLAF 080454Z AUTO 00000KT 8SM CLR 22/19 A2996 RMK AO2 SLP139 T02170189 402890156

2010/08/08 04:55
KLBL 080455Z 17011KT 10SM CLR 27/18 A2989 RMK AO1

2010/08/08 04:54
KLBT 080454Z AUTO 05003KT 5SM BR CLR 24/23 A2995 RMK AO2 SLP140 T02390228 403330228 $

2010/08/08 04:55
KLCI 080455Z AUTO 23005KT 10SM CLR 14/10 A2999 RMK AO1

2010/08/08 04:55
KLEW 080455Z 00000KT 10SM CLR 09/08 A3002 RMK AO1

2010/08/08 04:54
KLEX 080454Z 12003KT 10SM CLR 22/14 A3001 RMK AO2 SLP151 T02170144 403000161

2010/08/08 04:55
KLGD 080455Z AUTO 31011KT 10SM CLR 21/07 A2985 RMK AO1

2010/08/08 04:55
KLKV 080455Z AUTO 30005KT 10SM SCT120 17/02 A2997 RMK AO1

2010/08/08 04:54
KLNK 080454Z AUTO 18009KT 9SM CLR 26/23 A2978 RMK AO2 SLP072 T02560228

2010/08/08 04:55
KLPC 080455Z AUTO 00000KT 10SM OVC012 14/11 A2991 RMK AO1 PNO

2010/08/08 04:54
KAAO 080454Z AUTO 15009KT 10SM CLR 28/21 A2985 RMK AO2 SLP088 T02830211

2010/08/08 04:55
KAIZ 080455Z AUTO 15004KT 7SM CLR 23/21 A2993 RMK AO1

2010/08/08 04:54
KAKH 080454Z AUTO 00000KT 7SM CLR 22/19 A3000 RMK AO2 SLP151 T02220194 403220217

2010/08/08 04:54
KAKR 080454Z AUTO 00000KT 10SM CLR 18/14 A3001 RMK AO2 SLP157 T01830144 402720144

2010/08/08 04:54
KALO 080454Z AUTO 20009KT 10SM CLR 24/22 A2980 RMK AO2 SLP085 T02390217

2010/08/08 04:54
KAPC 080454Z AUTO 20014G18KT 10SM BKN007 13/12 A2982 RMK AO2 SLP090 T01330117

2010/08/08 04:55
KARG 080455Z AUTO 00000KT 10SM CLR 26/20 A2992 RMK AO1

2010/08/08 04:55
KAUO 080455Z AUTO 21003KT 10SM CLR 26/23 A2994 RMK AO1 40350 0230

2010/08/08 04:54
KAUW 080454Z AUTO 21007KT 9SM FEW036 23/21 A2977 RMK AO2 SLP079 T02280206

2010/08/08 04:54
KAVL 080454Z AUTO 00000KT 6SM BR CLR 21/20 A3008 RMK AO2 SLP157 T02110200 402890172 TSNO

2010/08/08 04:55
KAWO 080455Z AUTO 00000KT 9SM 17/16 A2991 RMK AO1 P0001

2010/08/08 04:54
KBFL 080454Z 35010KT 10SM CLR 27/06 A2976 RMK AO2 SLP070 T02720061

2010/08/08 04:55
KBHB 080455Z AUTO 00000KT 10SM CLR 12/11 A3001 RMK AO1

2010/08/08 04:55
KBID 080455Z AUTO 18006KT 10SM CLR 22/20 A3002 RMK AO1

2010/08/08 04:55
KBKX 080455Z AUTO 18008KT 10SM CLR 26/23 A2972 RMK AO1

2010/08/08 04:55
KBLM 080455Z AUTO 00000KT 10SM CLR 21/18 A3004 RMK AO1

2010/08/08 04:54
KBOS 080454Z 00000KT 10SM CLR 18/12 A3002 RMK AO2 SLP164 T01830122 402720167

2010/08/08 04:55
KBTP 080455Z AUTO 07003KT 10SM CLR 14/12 A3005 RMK AO1

2010/08/08 04:54
KBUF 080454Z 17005KT 10SM FEW070 SCT085 BKN250 17/11 A2997 RMK AO2 SLP148 T01670106 402330117

2010/08/08 04:54
KBUY 080454Z AUTO 00000KT 7SM CLR 22/19 A3000 RMK AO2 SLP153 T02220194 403060211

2010/08/08 04:55
KBVX 080455Z AUTO 00000KT 10SM CLR 26/22 A2992 RMK AO1

2010/08/08 04:54
KBWI 080454Z 00000KT 10SM BKN100 21/16 A3000 RMK AO2 SLP156 T02060161 403000156

2010/08/08 04:54
KCEU 080454Z AUTO 31005KT 7SM SCT050 SCT080 BKN120 26/22 A3001 RMK AO2 SLP148 T02610222 403280228

2010/08/08 04:55
KCGZ 080455Z AUTO 21006KT 10SM CLR 32/14 A2985 RMK AO1

2010/08/08 04:55
KCIU 080455Z AUTO 19005KT 10SM BKN095 17/15 A2978 RMK AO1

2010/08/08 04:55
KCOD 080455Z 16007KT 10SM CLR 16/07 A2995 RMK AO1

2010/08/08 04:55
KCOE 080455Z AUTO 25008KT 10SM CLR 21/08 A2980 RMK AO1

2010/08/08 04:54
KCOS 080454Z 11013KT 10SM SCT120 22/12 A3010 RMK AO2 SLP087 T02170122

2010/08/08 04:54
KCRW 080454Z 00000KT 8SM CLR 19/17 A3002 RMK AO2 SLP158 VLY FG T01890172 402940178

2010/08/08 04:55
KCVN 080455Z 17008KT 10SM CLR 24/15 A3002 RMK AO1

2010/08/08 04:55
KCVO 080455Z AUTO 29010KT 10SM BKN075 18/13 A2994 RMK AO1

2010/08/08 04:55
KCWI 080455Z 19006KT 10SM CLR 21/19 A2989 RMK AO1

2010/08/08 04:54
KDDH 080454Z AUTO 00000KT 10SM CLR 11/09 A3003 RMK AO2 SLP168 T01060094 402280100

2010/08/08 04:54
KDEC 080454Z AUTO 18007KT 9SM CLR 23/18 A2996 RMK AO2 SLP139 T02280178

2010/08/08 04:54
KDSM 080454Z 19008KT 10SM CLR 26/21 A2983 RMK AO2 SLP092 T02560211

2010/08/08 04:54
KDSV 080454Z AUTO 13008KT 10SM CLR 14/11 A3003 RMK AO2 SLP176 T01390111 402500111 $

2010/08/08 04:55
KDVL 080455Z AUTO 11006KT 10SM CLR 23/18 A2966 RMK AO1

2010/08/08 04:54
KDYL 080454Z AUTO 00000KT 10SM SCT075 19/16 A3001 RMK AO2 SLP158 T01890156 402940133 TSNO

2010/08/08 04:55
KDYR 080455Z AUTO 00000KT 10SM CLR 23/18 A2992 RMK AO1

2010/08/08 04:55
KEAR 080455Z AUTO 17009KT 10SM CLR 26/21 A2983 RMK AO1

2010/08/08 04:54
KECG 080454Z AUTO 09003KT 6SM BR CLR 25/24 A2999 RMK AO2 SLP154 T02500239 403000233

2010/08/08 04:55
KEEN 080455Z AUTO 00000KT 10SM CLR 11/10 A3003 RMK AO1

2010/08/08 04:55
KEGE 080455Z AUTO 07004KT 10SM FEW060 16/14 A3021 RMK AO1 P0003

2010/08/08 04:55
KEHR 080455Z AUTO 00000KT 8SM CLR 18/14 A2997 RMK AO1

2010/08/08 04:55
KESC 080455Z AUTO 24006KT 10SM FEW110 22/18 A2975 RMK AO1

2010/08/08 04:54
KEUG 080454Z 04003KT 10SM FEW045 SCT090 19/14 A2992 RMK AO2 SLP131 T01940139

2010/08/08 04:55
KEUL 080455Z AUTO 20003KT 10SM CLR 22/11 A2978 RMK AO1

2010/08/08 04:54
KEVV 080454Z AUTO 05003KT 10SM CLR 20/17 A2997 RMK AO2 SLP143 T02000172

2010/08/08 04:55
KEWK 080455Z AUTO 16008KT 10SM CLR 27/20 A2983 RMK AO1

2010/08/08 04:54
KEWN 080454Z AUTO 00000KT 7SM CLR 26/24 A2998 RMK AO2 SLP151 T02560239 403170228

2010/08/08 04:54
KLWM 080454Z AUTO 00000KT 10SM CLR 15/08 A3003 RMK AO2 SLP169 T01500083 402780117

2010/08/08 04:54
KLWT 080454Z AUTO 00000KT 10SM CLR 19/10 A2983 RMK AO2 SLP060 T01940100

2010/08/08 04:54
KLYH 080454Z AUTO 00000KT 9SM CLR 19/18 A3004 RMK AO2 SLP163 T01890178 402940161

2010/08/08 04:55
KMBL 080455Z AUTO 23006KT 10SM SCT035 OVC044 24/18 A2982 RMK AO1

2010/08/08 04:54
KMFI 080454Z AUTO 19011KT 10SM FEW080 23/21 A2978 RMK AO2 SLP078 T02280206

2010/08/08 04:54
KMGJ 080454Z AUTO 00000KT 10SM CLR 14/12 A3000 RMK AO2 SLP158 T01390117 402780122

2010/08/08 04:54
KMIV 080454Z AUTO 00000KT 10SM CLR 19/17 A2999 RMK AO2 SLP155 T01940172 403000144

2010/08/08 04:55
KMJX 080455Z AUTO 00000KT 10SM CLR 17/14 A3002 RMK AO1

2010/08/08 04:54
KMKC 080454Z 17007KT 10SM CLR 28/21 A2985 RMK AO2 SLP098 T02830206

2010/08/08 04:55
KMKT 080455Z AUTO 20009KT 10SM SCT048 OVC060 25/22 A2971 RMK AO1

2010/08/08 04:55
KMML 080455Z AUTO 21012KT 10SM CLR 26/23 A2967 RMK AO1

2010/08/08 04:55
KMNM 080455Z AUTO 25005KT 8SM FEW120 22/19 A2976 RMK AO1

2010/08/08 04:54
KMOT 080454Z AUTO 21007KT 10SM CLR 23/18 A2966 RMK AO2 SLP034 T02280178

2010/08/08 04:55
KMRF 080455Z AUTO 00000KT 10SM CLR A3009 RMK AO1

2010/08/08 04:54
KMRY 080454Z AUTO 25007KT 10SM OVC006 13/11 A2991 RMK AO2 SLP140 T01280106

2010/08/08 04:55
KMSV 080455Z AUTO 00000KT 10SM CLR 13/09 A3005 RMK AO1

2010/08/08 04:55
KMTW 080455Z 21007KT 10SM CLR 23/18 A2980 RMK AO1

2010/08/08 04:54
KMVL 080454Z AUTO 00000KT 10SM CLR 09/08 A3002 RMK AO2 SLP167 T00890078 402060067

2010/08/08 04:55
KMVN 080455Z AUTO 00000KT 6SM CLR 18/16 A2996 RMK AO1

2010/08/08 04:55
KOCH 080455Z AUTO 00000KT 10SM CLR 29/23 A2989 RMK AO1

2010/08/08 04:54
KOFP 080454Z AUTO 00000KT 10SM CLR 21/18 A3002 RMK AO2 SLP161 T02110178 403220194

2010/08/08 04:55
KOKK 080455Z AUTO 00000KT 8SM CLR 20/14 A2998 RMK AO1

2010/08/08 04:54
KOLM 080454Z AUTO 21009KT 10SM BKN048 16/14 A2992 RMK AO2 SLP132 T01610144

2010/08/08 04:54
KOLS 080454Z AUTO 02004KT 10SM FEW090 SCT120 20/18 A3008 RMK AO2 RAE30 SLP124 P0001 T02000178

2010/08/08 04:55
KOLU 080455Z AUTO 18010G15KT 10SM CLR 27/22 A2978 RMK AO1

2010/08/08 04:54
KORH 080454Z AUTO 21004KT 10SM CLR 17/09 A3003 RMK AO2 SLP168 T01720094 402440133

2010/08/08 04:55
KOTG 080455Z AUTO 19012KT 10SM CLR 24/18 A2976 RMK AO1

2010/08/08 04:55
KOTH 080455Z 35005KT 2SM OVC004 15/15 A2999 RMK AO1

2010/08/08 04:53
KPBI 080453Z COR 21004KT 10SM FEW039 SCT090 27/24 A2996 RMK AO2 SLP144 T02720256 403280256 $

2010/08/08 04:54
KPHF 080454Z 00000KT 1/2SM FG VV001 22/22 A3000 RMK AO2 SLP158 T02170217 403060211 RVRNO

2010/08/08 04:54
KPHL 080454Z 18006KT 10SM FEW100 SCT250 24/20 A3001 RMK AO2 SLP162 T02390200 403110194 $

2010/08/08 04:54
KPIA 080454Z 19007KT 7SM CLR 23/19 A2992 RMK AO2 SLP126 T02280189

2010/08/08 04:55
KPIB 080455Z AUTO 22003KT 10SM CLR 26/22 A2994 RMK AO1

2010/08/08 04:54
KPLN 080454Z AUTO 10003KT 2 1/2SM -RA BR FEW009 BKN036 OVC070 18/17 A2979 RMK AO2 RAB38 SLP084 P0011 T01830172 402610056

2010/08/08 04:54
KPNE 080454Z 00000KT 10SM CLR 23/19 A3002 RMK AO2 SLP165 T02330194 403060172

2010/08/08 04:55
KPQI 080455Z AUTO 22004KT 10SM CLR 09/04 A2992 RMK AO1

2010/08/08 04:55
KPRX 080455Z 12005KT 10SM CLR 28/24 A2986 RMK AO1 LTG DSNT N

2010/08/08 04:54
KPSF 080454Z AUTO 00000KT 10SM CLR 12/11 A3003 RMK AO2 SLP152 T01170106 402390117

2010/08/08 04:55
KPTN 080455Z AUTO 00000KT 10SM CLR 26/16 A2996 RMK AO1

2010/08/08 04:55
KPTV 080455Z AUTO 23005KT 10SM CLR 24/08 A2978 RMK AO1

2010/08/08 04:54
KPTW 080454Z AUTO 00000KT 10SM BKN065 OVC090 21/16 A3002 RMK AO2 SLP162 T02110161 403000150

2010/08/08 04:55
KPVC 080455Z 20005KT 10SM CLR 19/17 A3004 RMK AO1

2010/08/08 04:50
KPVJ 080450Z AUTO 15004KT 10SM CLR 29/22 A2985 RMK AO2

2010/08/08 04:55
KPVU 080455Z 13012KT 10SM CLR 22/10 A3000 RMK AO1

2010/08/08 04:55
KPWG 080455Z AUTO 18007KT 10SM CLR 29/19 A2988 RMK AO1

2010/08/08 04:55
KPWT 080455Z AUTO 18005KT 10SM BKN011 15/13 A2993 RMK AO1

2010/08/08 04:54
KRBL 080454Z AUTO 19004KT 10SM CLR 27/13 A2973 RMK AO2 SLP063 T02720133

2010/08/08 04:54
KRDG 080454Z 00000KT 10SM FEW070 22/17 A3000 RMK AO2 SLP160 T02170167 403000156

2010/08/08 04:55
KRKD 080455Z AUTO 00000KT 10SM CLR 11/08 A3002 RMK AO1

2010/08/08 04:55
KRBW 080455Z AUTO 00000KT 5SM BR CLR 24/24 A2994 RMK AO2

2010/08/08 04:55
KSCK 080455Z AUTO 31005KT 10SM CLR 22/13 A2976 RMK AO2 SLP076 T02170128 $

2010/08/08 04:55
KSPL 080455Z AUTO 13010KT A2991 RMK AO2 PWINO PNO

2010/08/08 04:52
KSUN 080452Z 29009KT 30SM SKC 19/01 A2994

2010/08/08 04:55
KTME 080455Z AUTO 00000KT 10SM 27/27 A2992 RMK AO2

2010/08/08 04:55
KTSP 080455Z AUTO 27007KT 10SM CLR 20/04 A2998 RMK AO2

2010/08/08 04:55
KUTA 080455Z AUTO 00000KT 7SM CLR 26/24 A2992 RMK AO2

2010/08/08 04:55
KX40 080455Z AUTO 00000KT 7SM -TSRA SCT030 BKN042 OVC055 28/27 A2996 RMK AO2 LTG DSNT SW THRU NW P0001 T02780266

2010/08/08 04:54
KONZ 080454Z AUTO 23006KT 10SM CLR 23/17 A2994 RMK AO2

2010/08/08 04:53
KTEW 080453Z AUTO 00000KT 10SM CLR 19/16 A2993 RMK AO2

2010/08/08 04:50
KCVH 080450Z AUTO 25007KT 10SM BKN013 13/11 A2990 RMK AO1

2010/08/08 04:56
KDVP 080456Z AUTO 19013G16KT 10SM CLR 25/21 A2974 RMK AO2 LTG DSNT N T02460205

2010/08/08 04:54
KDYT 080454Z AUTO 06012KT 10SM -VCTSRA BKN004 BKN020 OVC036 18/17 A2972 RMK AO2 LTG DSNT ALQDS

2010/08/08 04:59
KFSO 080459Z AUTO 15004KT 10SM CLR 12/10 A2997 RMK AO2

2010/08/08 04:54
KFBL 080454Z AUTO 17006KT 10SM SCT060 BKN070 25/21 A2973 RMK AO2 LTG DSNT NE

2010/08/08 04:58
KLYV 080458Z AUTO 19007KT 10SM CLR 24/21 A2973 RMK AO2

2010/08/08 04:55
KEFK 080455Z AUTO 21005KT 10SM BKN060 08/07 A3000 RMK AO2

2010/08/08 04:54
KRRT 080454Z AUTO 11006KT 10SM SCT043 19/17 A2971 RMK AO2 TSNO

2010/08/08 04:54
KTOB 080454Z AUTO 20010G15KT 10SM BKN060 OVC075 25/22 A2977 RMK AO2

2010/08/08 04:53
KLXL 080453Z AUTO 00000KT 10SM BKN034 BKN041 BKN050 20/18 A2967 RMK AO2

2010/08/08 04:52
KEVM 080452Z AUTO 00000KT 10SM BKN070 OVC090 18/16 A2972 RMK AO1

2010/08/08 04:53
KELO 080453Z AUTO 13003KT 10SM OVC026 19/16 A2973 RMK AO2

2010/08/08 04:55
KANE 080455Z AUTO 20012G18KT 10SM SCT050 28/23 A2968 RMK AO2

2010/08/08 04:54
KROX 080454Z AUTO 10004KT 10SM BKN039 19/17 A2969 RMK AO2

2010/08/08 04:58
KSYN 080458Z AUTO 21007KT 10SM SCT050 26/21 A2970 RMK AO2 LTG DSNT NE T02590214

2010/08/08 04:56
KVVV 080456Z AUTO 00000KT 10SM CLR 26/23 A2964 RMK AO2 LTG DSNT E

2010/08/08 05:01
KFKA 080501Z AUTO 21008G16KT 10SM CLR 24/22 A2979 RMK AO2 T02430220

2010/08/08 04:54
KROS 080454Z AUTO 17004KT 10SM VCTS SCT020 SCT040 SCT065 19/18 A2967 RMK AO2 LTG DSNT NE THRU SW P0001 T01940178

2010/08/08 04:52
KHCD 080452Z AUTO 18006KT 10SM CLR 24/21 A2968 RMK AO2 T02400206 TSNO

2010/08/08 04:53
KSGS 080453Z AUTO 21008KT 10SM CLR 27/21 A2970 RMK AO2 LTG DSNT NE T02700212

2010/08/08 04:52
KMJQ 080452Z AUTO 19010KT 10SM CLR 24/22 A2975 RMK AO2

2010/08/08 04:54
KHCO 080454Z AUTO 11008KT 10SM CLR 21/19 A2968 RMK AO2

2010/08/08 04:54
KLVN 080454Z AUTO 20007KT 10SM CLR 25/22 A2970 RMK AO2 LTG DSNT N AND NE

2010/08/08 04:53
KPEX 080453Z AUTO 17005KT 10SM TSRA BKN035 BKN047 BKN065 24/21 A2969 RMK AO2 LTG DSNT E SW AND W T02420209

2010/08/08 04:55
KJMR 080455Z AUTO 25006KT 10SM CLR 18/17 A2968 RMK AO2 LTG DSNT E THRU S P0053

2010/08/08 04:54
KJKJ 080454Z AUTO 20003KT 10SM CLR 23/22 A2964 RMK AO2

2010/08/08 04:54
KMVE 080454Z AUTO 22005KT 10SM VCTS SCT060 SCT070 26/24 A2964 RMK AO2 LTG DSNT NE

2010/08/08 04:53
KTKC 080453Z AUTO 20010G16KT 10SM CLR 25/21 A2969 RMK AO2 LTG DSNT NE T02520211

2010/08/08 04:54
KGYL 080454Z AUTO 18007KT 10SM BKN048 BKN075 25/22 A2968 RMK AO2 LTG DSNT NE AND NW T02470215

2010/08/08 04:54
KDXX 080454Z AUTO 00000KT 7SM CLR 24/24 A2964 RMK AO2 LTG DSNT E

2010/08/08 04:51
KHZX 080451Z AUTO 08005KT 7SM CLR 20/19 A2970 RMK AO2 LTG DSNT SE

2010/08/08 04:54
KSAZ 080454Z AUTO 00000KT 7SM CLR 20/20 A2968 RMK AO2 LTG DSNT S

2010/08/08 04:50
KONA 080450Z AUTO 22006KT 10SM SCT090 26/20 A2974 RMK AO2

2010/08/08 04:53
KAQP 080453Z AUTO 18004KT 10SM CLR 25/25 A2964 RMK AO2 LTG DSNT E

2010/08/08 04:54
KETH 080454Z AUTO 00000KT 10SM CLR 22/21 A2968 RMK AO2 LTG DSNT E

2010/08/08 04:53
KOVL 080453Z AUTO 18005KT 10SM VCTS SCT055 SCT070 24/21 A2967 RMK AO2 LTG DSNT N T02370205

2010/08/08 04:52
KLJF 080452Z AUTO 19003KT 10SM VCTS SCT041 SCT050 SCT090 26/23 A2968 RMK AO2 LTG DSNT W THRU E

2010/08/08 04:56
KXVG 080456Z AUTO 00000KT 5SM BR CLR 18/18 A2968 RMK AO2 LTG DSNT SE

2010/08/08 04:54
KRKS 080454Z AUTO 17015KT 10SM CLR 16/06 A3011 RMK AO2 SLP111 T01610056

2010/08/08 04:54
KROC 080454Z 22005KT 10SM FEW080 SCT200 14/11 A2999 RMK AO2 SLP155 T01440111 402330106 $

2010/08/08 04:54
KRST 080454Z AUTO 20011KT 8SM VCTS FEW080 24/22 A2978 RMK AO2 TSB44 SLP075 T02440217

2010/08/08 04:55
KRUT 080455Z 14005KT 10SM CLR 12/08 A3002 RMK AO1

2010/08/08 04:54
KSBY 080454Z AUTO 16005KT 10SM CLR 22/21 A3001 RMK AO2 SLP163 T02170211 403060183

2010/08/08 04:55
KSDY 080455Z AUTO 00000KT 10SM CLR 19/15 A2971 RMK AO1

2010/08/08 04:54
KSET 080454Z AUTO 09005KT 6SM BR CLR 22/19 A2992 RMK AO2 SLP127 T02170194

2010/08/08 04:55
KSFM 080455Z 00000KT 10SM CLR 11/09 A3001 RMK AO1

2010/08/08 04:55
KSFZ 080455Z 17003KT 10SM CLR 15/14 A3002 RMK AO1

2010/08/08 04:55
KSGT 080455Z 14005KT CLR 27/24 A2991 RMK AO1

2010/08/08 04:55
KSGU 080455Z AUTO 31005KT 10SM VCTS BKN100 BKN120 24/13 A2996 RMK AO1 LTG DSNT ALQDS

2010/08/08 04:54
KSJN 080454Z AUTO 16007KT 10SM CLR 17/13 A3018 RMK AO2 SLP136 T01670133 $

2010/08/08 04:55
KSKX 080455Z AUTO 24005KT 10SM CLR 18/08 A3024 RMK AO1

2010/08/08 04:55
KSLG 080455Z AUTO 08003KT 10SM CLR 24/21 A2992 RMK AO1

2010/08/08 04:55
KSMN 080455Z AUTO 00000KT 10SM CLR 16/08 A2990 RMK AO1

2010/08/08 04:55
KSQI 080455Z AUTO 00000KT 10SM CLR 22/19 A2991 RMK AO1

2010/08/08 04:55
KSUE 080455Z AUTO 21009KT 10SM FEW120 23/20 A2977 RMK AO1

2010/08/08 04:54
KSUS 080454Z 00000KT 8SM CLR 25/18 A2991 RMK AO2 SLP119 T02500183

2010/08/08 04:54
KSYR 080454Z 15003KT 10SM FEW250 16/12 A2999 RMK AO2 SLP151 T01560117 402440122

2010/08/08 04:54
KTAD 080454Z AUTO 29009KT 10SM CLR 20/15 A3005 RMK AO2 SLP083 T02000150

2010/08/08 04:55
KTPL 080455Z 19009KT 10SM CLR 28/22 A2990 RMK AO1

2010/08/08 04:54
KTQE 080454Z AUTO 17007KT 9SM CLR 25/23 A2976 RMK AO2 SLP064 T02500233

2010/08/08 04:55
KTVF 080455Z AUTO 07005KT 10SM CLR 20/18 A2967 RMK AO1

2010/08/08 04:56
KUCP 080456Z AUTO 00000KT 6SM BR CLR 16/14 A3004 RMK AO2 T01550144 402660144 SLP182

2010/08/08 04:54
KUIN 080454Z AUTO 17007KT 7SM CLR 24/19 A2991 RMK AO2 SLP119 T02390194

2010/08/08 04:54
KUZA 080454Z AUTO 00000KT 6SM BR FEW045 22/20 A3000 RMK AO2 SLP144 T02220200 403170222

2010/08/08 04:54
KVAY 080454Z AUTO 00000KT 10SM CLR 21/18 A3001 RMK AO2 SLP161 T02060183 403060144

2010/08/08 04:55
KVBT 080455Z AUTO 14004KT 10SM CLR 25/22 A2989 RMK AO1

2010/08/08 04:55
KVIS 080455Z AUTO 32007KT 10SM CLR 27/14 A2974 RMK AO1

2010/08/08 04:54
KVSF 080454Z AUTO 00000KT 10SM CLR 11/10 A3003 RMK AO2 SLP171 T01110100 402390089

2010/08/08 04:54
KVTA 080454Z AUTO 00000KT 6SM BR CLR 16/15 A3001 RMK AO2 SLP158 T01560150 402830128

2010/08/08 04:54
KWLD 080454Z AUTO 15006KT 10SM CLR 28/22 A2986 RMK AO2 SLP095 T02780222

2010/08/08 04:55
KWVL 080455Z AUTO 00000KT 10SM BKN080 11/08 A2997 RMK AO1

2010/08/08 04:55
KWWD 080455Z AUTO 15006KT 10SM CLR 22/22 A3002 RMK AO1

2010/08/08 04:55
KYKN 080455Z AUTO 21010G15KT 10SM CLR 28/22 A2972 RMK AO1

2010/08/08 04:55
KAEG 080455Z AUTO 34012KT 10SM CLR 19/11 A3015 RMK AO1

2010/08/08 04:55
KAIK 080455Z AUTO 00000KT 7SM CLR 25/25 A2999 RMK AO2 PNO

2010/08/08 04:55
KBBP 080455Z AUTO 00000KT 4SM BR CLR 24/22 A2997 RMK AO2

2010/08/08 04:55
KBNL 080455Z AUTO 00000KT 5SM BR CLR 24/24 A2995 RMK AO2

2010/08/08 04:55
KBWD 080455Z AUTO 14007KT 10SM CLR 29/20 A2991 RMK AO2

2010/08/08 04:55
KCGC 080455Z AUTO 02003KT 7SM FEW018 BKN047 OVC090 26/25 A2995 RMK

2010/08/08 04:55
KCIC 080455Z AUTO 14010KT 10SM CLR 28/12 A2972 RMK AO1

2010/08/08 04:55
KCQW 080455Z AUTO 00000KT 3SM BR CLR 23/23 A2997 RMK AO2

2010/08/08 04:55
KE80 080455Z AUTO 32009KT 10SM CLR 23/13 A3010 RMK AO2 T02290125

2010/08/08 04:55
KEDC 080455Z AUTO 19004KT 10SM CLR 28/23 A2991 RMK AO1

2010/08/08 04:55
KEOE 080455Z AUTO 08003KT 10SM CLR 25/23 A3000 RMK AO2

2010/08/08 04:55
KFMH 080455Z AUTO 20007KT 10SM CLR 19/19 A3004 RMK AO2

2010/08/08 04:55
KGYH 080455Z AUTO 00000KT 10SM SCT047 SCT055 BKN075 27/20 A3000 RMK AO2

2010/08/08 04:55
KHYW 080455Z AUTO 00000KT 4SM BR CLR 23/23 A2995 RMK AO2

2010/08/08 04:55
KLQK 080455Z AUTO 7SM SCT070 OVC110 23/22 A3000 RMK AO2 T02250215 PNO

2010/08/08 04:55
KLRO 080455Z AUTO 00000KT 2SM BR CLR 23/23 A2994 RMK AO2

2010/08/08 04:55
KMER 080455Z AUTO 24005KT 10SM CLR 24/14 A2975 RMK AO1

2010/08/08 04:55
KMNI 080455Z AUTO 00000KT 5SM BR CLR 23/23 A2994 RMK AO2

2010/08/08 04:54
KORB 080454Z AUTO 00000KT 10SM CLR 16/14 A2970 RMK AO2

2010/08/08 04:50
KMZH 080450Z AUTO 05005KT 10SM CLR 18/17 A2967 RMK AO2 LTG DSNT NE THRU S

2010/08/08 04:49
KVWU 080449Z AUTO 08004KT 10SM CLR 18/17 A2969 RMK AO2

2010/08/08 04:50
KAEL 080450Z AUTO 20008KT 10SM BKN060 25/21 A2976 RMK AO2

2010/08/08 04:53
KOWA 080453Z AUTO 19010KT 10SM BKN065 25/22 A2973 RMK AO2

2010/08/08 04:53
K29G 080453Z AUTO 00000KT 10SM CLR 19/14 A3002 RMK AO2 T01910137 PWINO

2010/08/08 04:53
KMRT 080453Z AUTO 00000KT 10SM CLR 16/15 A3004 RMK AO2 T01620150

2010/08/08 04:54
KIKW 080454Z AUTO 19005KT 10SM SCT110 21/17 A2987 RMK AO2 T02130166 402870077

2010/08/08 04:54
PAHN 080454Z AUTO 07008G15KT 10SM BKN015 OVC020 13/11 A2982 RMK AO2 SLP099 T01330106 TSNO

2010/08/08 04:54
PAKN 080454Z 21005KT 10SM BKN012 BKN045 11/09 A2978 RMK AO2 SLP083 T01110094

2010/08/08 04:50
PAMX 080450Z 00000KT 25SM FEW045 BKN060 OVC070 14/09 A2974 RMK MAX19 LAST

2010/08/08 04:54
PAKF 080454Z AUTO 16024G31KT 10SM -RA SCT021 BKN039 OVC085 12/11 A2973 RMK AO2 PK WND 17031/0454 P0002

2010/08/08 05:00
SBPV 080500Z 00000KT CAVOK 21/18 Q1013

2010/08/08 04:55
PTTP 080455Z 08008KT 15SM SCT018 OVC300 31/25 A2977 RMK SLP079 T03060246

2010/08/08 05:00
LQSA 080500Z VRB02KT 8000 FEW025 BKN055 15/14 Q1020 NOSIG

2010/08/08 04:47
MMDO 080447Z 00000KT 8SM SCT030 OVC080 18/16 A3017 RMK 8/46/ HZY BINOVC

2010/08/08 04:49
MMHO 080449Z 20003KT 10SM SCT040 SCT200 32/20 A2987 RMK 8/408 HZY

2010/08/08 04:52
MMML 080452Z 30010KT 10SM SKC 30/18 A2966

2010/08/08 04:48
MMMZ 080448Z 31004KT 10SM FEW080 SCT220 27/23 A2987 RMK 8/063

2010/08/08 05:00
SBEG 080500Z 00000KT CAVOK 24/23 Q1014

2010/08/08 04:50
EFET 080450Z AUTO 32001KT CAVOK 15/12 Q1017

2010/08/08 04:50
EFIV 080450Z AUTO 25001KT CAVOK 17/15 Q1017

2010/08/08 04:50
EFKE 080450Z AUTO 01005KT CAVOK 18/17 Q1015

2010/08/08 04:50
EFKI 080450Z AUTO 08003KT CAVOK 19/18 Q1016

2010/08/08 04:50
EFKS 080450Z AUTO 09002KT 0600 -RA FG VV003 16/15 Q1017

2010/08/08 04:50
EFKT 080450Z AUTO 10001KT 9999 SCT003 16/14 Q1017

2010/08/08 05:00
SBCF 080500Z 00000KT CAVOK 13/09 Q1021

2010/08/08 05:00
SBCT 080500Z 05002KT 3000 BR NSC 06/06 Q1020

2010/08/08 04:56
TJSJ 080456Z 10007G14KT 10SM SCT025 SCT036 28/24 A2997 RMK AO2 SLP149 VCSH SW T02830239 

2010/08/08 04:54
KAKQ 080454Z AUTO 00000KT 8SM CLR 20/18 A3000 RMK AO2 SLP157 T02000178 403170194 TSNO $ 

2010/08/08 04:56
KSHV 080456Z 18006KT 10SM BKN290 28/24 A2988 RMK AO2 SLP112 T02830239 

2010/08/08 04:56
KSDF 080456Z 00000KT 9SM CLR 24/16 A2998 RMK AO2 SLP145 T02440156 403220200 $ 

2010/08/08 04:55
BGTL 080455Z AUTO 14021KT 9999 FEW017 OVC042 04/00 A2990 RMK AO2 PK WND 15031/0400 SLP131 T00430003 $

2010/08/08 04:55
ETOU 080455Z AUTO 00000KT 9999 -RA SCT048 OVC070 17/15 A2999 RMK AO2 RAB0427 SLP153 P0000 T01650146

2010/08/08 04:55
KBAB 080455Z AUTO 17006KT 10SM CLR 24/12 A2973 RMK AO2 SLP067 T02380123 $

2010/08/08 04:55
KCOF 080455Z AUTO 21007KT 10SM CLR 27/ A2996 RMK AO2 SLP146 T0267 403270254

2010/08/08 04:55
KFTK 080455Z AUTO 00000KT 10SM CLR 21/17 A2999 RMK AO2 SLP149 T02110172 403040186 $

2010/08/08 04:55
KHIF 080455Z AUTO 11011KT 10SM CLR 21/08 A2995 RMK AO2 SLP025 T02140082

2010/08/08 04:55
KLTS 080455Z AUTO 16005KT 10SM CLR 27/22 A2985 RMK AO2 SLP089 T02650223 $

2010/08/08 04:54
KNFG 080454Z AUTO 00000KT 10SM BKN015 13/11 A2992 RMK AO2 SLP129 T01280106 TSNO $

2010/08/08 04:52
KNFW 080452Z AUTO 17008KT 10SM CLR 31/19 A2989 RMK AO2 SLP107 T03110194 $

2010/08/08 04:53
KNIP 080453Z 27004KT 10SM BKN026 OVC150 25/24 A2995 RMK AO2 SLP136 T02500239 403440244

2010/08/08 04:53
KNQX 080453Z AUTO 17003KT 10SM FEW020 30/25 A2998 RMK AO2 SLP151 T03000250 403390283 $

2010/08/08 04:52
KNRB 080452Z AUTO 00000KT 10SM BKN029 BKN036 26/23 A2994 RMK AO2 SLP136 T02610233 403440250

2010/08/08 04:55
KPOB 080455Z AUTO 00000KT 10SM CLR 25/24 A2997 RMK AO2 SLP147 T02470240 403200230 $

2010/08/08 04:55
KSSC 080455Z 24005KT 10SM CLR 26/23 A2993 RMK AO2A SLP135 T02570233 403310224 $

2010/08/08 04:55
PHHI 080455Z AUTO 07005KT 10SM FEW026 BKN041 OVC050 25/19 A3008 RMK AO2 SLP174 T02460191 $

2010/08/08 04:52
MMGL 080452Z 00000KT 12SM SCT100 BKN300 18/16 A3018 RMK 8/038

2010/08/08 04:50
MMLO 080450Z 00000KT 7SM SCT030 BKN080 OVC200 16/15 A3026 RMK 65015 8/473

2010/08/08 04:46
MMPR 080446Z 01004KT 12SM SKC 28/25 A2987

2010/08/08 04:46
MMZC 080446Z 19008KT 10SM FEW100 OVC200 17/10 A3028 RMK 8/037

2010/08/08 04:50
LIPK 080450Z VRB03KT CAVOK 17/14 Q1016

2010/08/08 04:50
EGDL 080450Z 32006KT 9999 SCT035 12/11 Q1020 BLU NOSIG

2010/08/08 04:50
EGDR 080450Z 04003KT 9999 FEW025 12/11 Q1022 BLU

2010/08/08 04:50
EGQK 080450Z 23004KT 9999 FEW030 BKN038 13/09 Q1020 BLU TEMPO SCT022 WHT

2010/08/08 04:50
EGQL 080450Z 15005KT 9999 FEW022 OVC026 14/11 Q1020 BLU

2010/08/08 04:50
EGQS 080450Z 25004KT 9999 FEW020 BKN040 12/10 Q1019 BLU

2010/08/08 04:50
EGXC 080450Z 31006KT CAVOK 12/11 Q1019 BLU

2010/08/08 04:50
EGXW 080450Z 33008KT 5000 BR FEW060 12/11 Q1019 WHT

2010/08/08 04:55
KVBG 080455Z AUTO 02005KT 10SM OVC007 13/12 A2991 RMK AO2 SLP121 T01280117 TSNO CHINO RWY12 VISNO RWY12 $ 

2010/08/08 04:56
KCHS 080456Z 00000KT 7SM CLR 26/24 A2994 RMK AO2 SLP137 T02560239 403280233 

2010/08/08 04:50
HLLT 080450Z 13002KT CAVOK 23/15 Q1016

2010/08/08 04:50
LIPK 080450Z VRB03KT CAVOK 17/14 Q1016

2010/08/08 04:56
KABQ 080456Z 33009KT 10SM SCT095 23/12 A3012 RMK AO2 SLP106 T02280122 

2010/08/08 04:55
KPHP 080455Z AUTO 30004KT 10SM CLR 21/17 A2974 RMK AO2 SLP048 T02110172 TSNO 

2010/08/08 04:56
KNJK 080456Z AUTO 28010KT 10SM CLR 31/03 A2969 RMK AO2 SLP070 T03110033 TSNO 

2010/08/08 04:55
KHON 080455Z AUTO 25006KT 10SM CLR 26/21 A2966 RMK AO2 SLP031 T02560211 TSNO 

2010/08/08 05:00
FAVV 080500Z AUTO 34004KT //// // ////// 02/M00 Q1024

2010/08/08 05:00
FAJB 080500Z AUTO 00000KT //// // ////// 05/01 Q1027

2010/08/08 05:00
FASI 080500Z AUTO 00000KT //// // ////// 03/M00 Q1027

2010/08/08 05:00
FAGC 080500Z AUTO 01006KT //// // ////// 08/02 Q1027

2010/08/08 04:55
FJDG 080455Z 12012KT 9999 FEW020 FEW250 29/25 A2988 RMK SLP115 T02860248

2010/08/08 04:55
KEND 080455Z AUTO 13010KT 10SM CLR 29/22 A2984 RMK AO2 SLP085 T02880219 $

2010/08/08 04:55
KFAF 080455Z AUTO 11003KT 10SM -DZ CLR 24/24 A2999 RMK AO2 DZB0436 SLP156 P0000 T02410240 403090225 $

2010/08/08 04:55
KFMH 080455Z AUTO 20007KT 10SM CLR 19/19 A3004 RMK AO2

2010/08/08 04:55
KFRI 080455Z AUTO 16013G19KT 10SM CLR 29/22 A2981 RMK AO2 SLP078 T02860220 403580223

2010/08/08 04:55
KFSI 080455Z AUTO 14006KT 10SM CLR 30/22 A2984 RMK AO2 SLP081 T02970216

2010/08/08 04:55
KLFI 080455Z 10004KT 10SM SCT008 25/23 A3000 RMK AO2A SLP159 T02450233 402930230

2010/08/08 04:55
KMCF 080455Z AUTO 24003KT 10SM CLR 29/26 A2996 RMK AO2 SLP146 T02910262 403230264

2010/08/08 04:55
KMIB 080455Z AUTO 22005KT 10SM CLR 20/18 A2965 RMK AO2 SLP035 T01990179

2010/08/08 04:55
KPAM 080455Z AUTO 12003KT 10SM CLR 26/26 A2991 RMK AO2 DZE0404 SLP131 P0000 T02580256 $

2010/08/08 04:55
KRCA 080455Z AUTO 32003KT 10SM CLR 21/14 A2982 RMK AO2 SLP069 T02080142 $

2010/08/08 04:55
KSKA 080455Z AUTO 28008KT 10SM SCT150 20/08 A2982 RMK AO2 SLP083 T01960082

2010/08/08 04:55
MHSC 080455Z AUTO 11005KT 9999 BKN033 22/22 A3002 RMK AO2 SLP126 T02250218 $

2010/08/08 04:55
PAED 080455Z 22007KT 10SM FEW011 BKN047 OVC055 12/11 A2975 RMK AO2A SLP076 T01240106

2010/08/08 04:55
PGUA 080455Z AUTO 07011KT 10SM FEW015 SCT060 29/25 A2981 RMK AO2 SLP077 T02890245 VISNO RWY24L $

2010/08/08 05:00
OPPS 080500Z NW-10KT 0600 RAIN BKN006ST FEW030TCU SCT030 OVC100 25/25 Q1006.3

2010/08/08 04:50
EFET 080450Z AUTO 32001KT CAVOK 15/12 Q1017

2010/08/08 04:50
EFIV 080450Z AUTO 25001KT CAVOK 17/15 Q1017

2010/08/08 04:50
EFKE 080450Z AUTO 01005KT CAVOK 18/17 Q1015

2010/08/08 04:50
EFKI 080450Z AUTO 08003KT CAVOK 19/18 Q1016

2010/08/08 04:50
EFKS 080450Z AUTO 09002KT 0600 -RA FG VV003 16/15 Q1017

2010/08/08 04:50
EFKT 080450Z AUTO 10001KT 9999 SCT003 16/14 Q1017

2010/08/08 05:00
LQSA 080500Z VRB02KT 8000 FEW025 BKN055 15/14 Q1020 NOSIG

2010/08/08 04:55
KAAT 080455Z AUTO 31012G18KT 10SM CLR 23/06 A2994 RMK AO2 SLP089 T02280061 TSNO 

2010/08/08 04:56
KJAX 080456Z 27003KT 10SM FEW025 BKN150 OVC250 24/23 A2993 RMK AO2 SLP134 OCNL LTGIC DSNT SE CB DSNT SE T02440233 403390244 

2010/08/08 04:55
EHDL 080455Z AUTO 26003KT 0150NDV FG VV000 15/15 Q1014 RED

2010/08/08 04:55
EHEH 080455Z AUTO 22001KT 0250NDV FG OVC007 13/13 Q1015 RED

2010/08/08 04:55
EHGR 080455Z AUTO 27002KT 4800NDV BR FEW006 OVC007 15/14 Q1014 GRN

2010/08/08 04:55
EHLW 080455Z AUTO 28003KT 1600NDV BR BKN027 OVC034 16/16 Q1014 YLO

2010/08/08 04:55
EHVK 080455Z AUTO 27005KT 5000NDV BR FEW005 SCT007 BKN030 16/15 Q1015 GRN

2010/08/08 04:55
EHWO 080455Z AUTO 24006KT 4400NDV -DZRA FEW007 SCT012 BKN014 FEW015CB 16/15 Q1015 GRN

2010/08/08 05:00
SBBV 080500Z 03003KT 8000 -RA FEW004 SCT020 FEW025TCU BKN070 24/23 Q1015

2010/08/08 05:00
SBMN 080500Z 30005KT CAVOK 28/23 Q1013

2010/08/08 05:00
SBRB 080500Z 00000KT 5000 FU NSC 21/17 Q1014

2010/08/08 05:00
SBSJ 080500Z 00000KT CAVOK 11/10 Q1020

2010/08/08 05:00
SPIM 080500Z 17006KT 7000 SCT007 OVC013 14/12 Q1016 NOSIG RMK PP000

2010/08/08 04:54
PGSN 080454Z 07013KT 10SM FEW022 SCT060 31/24 A2980 RMK AO2 SLP089 T03060244 $

2010/08/08 04:55
PGUA 080455Z AUTO 07011KT 10SM FEW015 SCT060 29/25 A2981 RMK AO2 SLP077 T02890245 VISNO RWY24L $

2010/08/08 04:54
PGUM 080454Z 08012KT 10SM FEW022TCU SCT050 31/25 A2980 RMK AO2 RAB38E47 SLP083 TCU NE MOV W P0000 T03060250 $

2010/08/08 04:55
PHHI 080455Z AUTO 07005KT 10SM FEW026 BKN041 OVC050 25/19 A3008 RMK AO2 SLP174 T02460191 $

2010/08/08 04:53
PHJR 080453Z VRB05KT 10SM CLR 27/19 A3006 RMK AO2 SLP184 T02720189

2010/08/08 04:53
PHKO 080453Z 25008KT 10SM FEW018 BKN048 OVC055 26/22 A3001 RMK AO2 SLP164 T02610217

2010/08/08 04:54
PHMK 080454Z AUTO 04012G19KT 10SM CLR 24/21 A3006 RMK AO2 SLP182 T02440206 TSNO

2010/08/08 04:53
PHNL 080453Z 06013KT 10SM FEW028 SCT040 SCT055 27/19 A3005 RMK AO2 SLP174 T02720194

2010/08/08 04:54
PHOG 080454Z 06012G19KT 10SM FEW025 SCT049 SCT070 26/20 A3004 RMK AO2 PK WND 07028/0424 RAB21E31 SLP176 P0000 T02560200

2010/08/08 04:53
PHTO 080453Z 07011KT 10SM SCT011 BKN020 OVC030 24/22 A3006 RMK AO2 SLP179 T02440217

2010/08/08 04:50
PTKK 080450Z VRB05KT 15SM FEW014CB SCT120 OVC280 32/26 A2974 RMK CB N SLP072 T03190256

2010/08/08 04:55
RODN 080455Z 15008KT 9999 -RA FEW017 SCT029 BKN038 BKN100 29/27 A2963 RMK AO2A RAB0444 FEW V SCT SLP032 P0000 T02900265

2010/08/08 05:00
OYRN 080500Z 02009KT 9000 NSC 29/24 Q1005

2010/08/08 05:00
HRYR 080500Z 00000KT CAVOK 17/13 Q1021 NOSIG

2010/08/08 04:55
KNBG 080455Z AUTO 00000KT 10SM CLR 28/24 A2994 RMK AO2 SLP138 T02830244 PWINO $ 

2010/08/08 04:55
KADW 080455Z AUTO 18003KT 10SM CLR 21/16 A3000 RMK AO2 SLP161 T02080162 $

2010/08/08 04:55
KBAB 080455Z AUTO 17006KT 10SM CLR 24/12 A2973 RMK AO2 SLP067 T02380123 $

2010/08/08 04:55
KBKF 080455Z 16009KT 25SM SCT110 BKN220 20/14 A3005 RMK SLP100

2010/08/08 04:55
KCVS 080455Z AUTO 17004KT 10SM CLR 21/21 A3001 RMK AO2 SLP113 T02140214 $

2010/08/08 04:55
KEND 080455Z AUTO 13010KT 10SM CLR 29/22 A2984 RMK AO2 SLP085 T02880219 $

2010/08/08 04:55
KFAF 080455Z AUTO 11003KT 10SM -DZ CLR 24/24 A2999 RMK AO2 DZB0436 SLP156 P0000 T02410240 403090225 $

2010/08/08 04:55
KFMH 080455Z AUTO 20007KT 10SM CLR 19/19 A3004 RMK AO2

2010/08/08 04:55
KFRI 080455Z AUTO 16013G19KT 10SM CLR 29/22 A2981 RMK AO2 SLP078 T02860220 403580223

2010/08/08 04:55
KFSI 080455Z AUTO 14006KT 10SM CLR 30/22 A2984 RMK AO2 SLP081 T02970216

2010/08/08 04:55
KFTK 080455Z AUTO 00000KT 10SM CLR 21/17 A2999 RMK AO2 SLP149 T02110172 403040186 $

2010/08/08 04:55
KHFF 080455Z AUTO 00000KT 10SM FEW085 24/23 A2998 RMK AO2 SLP150 T02420226 403220225 $

2010/08/08 04:55
KLFI 080455Z 10004KT 10SM SCT008 25/23 A3000 RMK AO2A SLP159 T02450233 402930230

2010/08/08 04:55
KLTS 080455Z AUTO 16005KT 10SM CLR 27/22 A2985 RMK AO2 SLP089 T02650223 $

2010/08/08 04:55
KMCF 080455Z AUTO 24003KT 10SM CLR 29/26 A2996 RMK AO2 SLP146 T02910262 403230264

2010/08/08 04:55
KMIB 080455Z AUTO 22005KT 10SM CLR 20/18 A2965 RMK AO2 SLP035 T01990179

2010/08/08 04:52
KNFW 080452Z AUTO 17008KT 10SM CLR 31/19 A2989 RMK AO2 SLP107 T03110194 $

2010/08/08 04:56
KAQV 080456Z AUTO 00000KT 10SM CLR 27/25 A2991 RMK AO2 SLP123 T02720250 403610233 

2010/08/08 04:56
K8D3 080456Z AUTO 00000KT 23/22 A2964 RMK AO2 SLP016 T02280222 PWINO TSNO 

2010/08/08 04:55
KCAO 080455Z AUTO 22008KT 10SM CLR 25/14 A3002 RMK AO2 SLP081 T02500144 TSNO 

2010/08/08 04:56
KCAE 080456Z 00000KT 5SM BR CLR 26/24 A2995 RMK AO2 SLP137 T02610244 403390228 

2010/08/08 04:56
KFLG 080456Z AUTO 00000KT 1/2SM FG BKN001 OVC110 13/13 A3025 RMK AO2 SLP160 T01330128 TSNO 

2010/08/08 04:56
KWMC 080456Z AUTO 26004KT 10SM CLR 18/M03 A2984 RMK AO2 SLP057 T01831028 

2010/08/08 04:56
KSXT 080456Z AUTO 35011G17KT 8SM CLR 14/12 A2998 RMK AO2 SLP117 T01390122 TSNO 

2010/08/08 04:56
KNXP 080456Z AUTO 22010KT CLR 28/02 A2986 RMK AO2 SLP073 T02830017 $ 

2010/08/08 04:56
KNQI 080456Z AUTO 16009KT 9SM CLR 29/24 A2990 RMK AO2 SLP122 T02890239 

2010/08/08 04:56
KNFE 080456Z AUTO 00000KT 3/4SM BR CLR 23/21 A2999 RMK AO2 SLP156 T02280206 403110222 $ 

2010/08/08 04:56
KNTU 080456Z 00000KT 10SM FEW007 SCT060 24/23 A2998 RMK AO2 SLP155 T02390228 402940222 $ 

2010/08/08 04:56
KNUQ 080456Z 02007KT 10SM FEW012 15/12 A2986 RMK AO2 SLP115 T01500122 

2010/08/08 04:56
KNCA 080456Z AUTO A2996 RMK AO2 SLP148 PWINO FZRANO TSNO $ 

2010/08/08 04:56
KGNA 080456Z AUTO 01003KT 18/13 A2973 RMK AO2 SLP063 T01830133 PWINO TSNO 

2010/08/08 04:56
KNGP 080456Z AUTO 20009G18KT 10SM CLR 28/26 A2990 RMK AO2 SLP123 T02830261 VISNO $ 

2010/08/08 05:00
FAJS 080500Z 32007KT 8000 NSC 09/02 Q1028 NOSIG

2010/08/08 04:50
EGDL 080450Z 32006KT 9999 SCT035 12/11 Q1020 NOSIG

2010/08/08 04:50
EGDR 080450Z 04003KT 9999 FEW025 12/11 Q1022 BLU

2010/08/08 04:50
EGQL 080450Z 15005KT 9999 FEW022 OVC026 14/11 Q1020 BLU

2010/08/08 04:50
EGQS 080450Z 25004KT 9999 FEW020 BKN040 12/10 Q1019 BLU

2010/08/08 04:55
EGUL 080455Z AUTO 32005KT 9999 FEW006 OVC011 14/14 A3006 RMK AO2 CIG 010V015 OVC V BKN SLP181 T01440138

2010/08/08 04:55
EGUN 080455Z AUTO 33008KT 9999 SCT007 OVC016 14/14 A3007 RMK AO2 RAB0353E0404 CIG 013V020 CIG 011 RWY11 SLP172 P0000 T01430143

2010/08/08 04:50
ENAT 080450Z AUTO VRB02KT 9999NDV FEW008/// OVC019/// 14/12 Q1018

2010/08/08 04:50
ENBN 080450Z 36005KT 9999 FEW002 13/12 Q1016

2010/08/08 04:50
ENDU 080450Z 00000KT 9999 2000NE BCFG FEW001 10/09 Q1019

2010/08/08 04:50
ENEV 080450Z AUTO 36004KT 310V040 2600NDV VV002 10/09 Q1019

2010/08/08 04:50
ENHF 080450Z AUTO 05008KT //// FEW001/// SCT014/// OVC018/// 11/10 Q1018

2010/08/08 04:50
ENKB 080450Z AUTO 06004KT 9999NDV SCT150/// 15/14 Q1015

2010/08/08 04:50
ENKR 080450Z AUTO VRB02KT 9999NDV BKN010/// 17/14 Q1018

2010/08/08 04:50
ENVA 080450Z 10004KT CAVOK 11/09 Q1016

2010/08/08 04:56
ETIC 080456Z AUTO 00000KT 0800 FG CLR 09/09 A3004 RMK AO2 SLP170 T00910091

2010/08/08 04:55
ETOU 080455Z AUTO 00000KT 9999 -RA SCT048 OVC070 17/15 A2999 RMK AO2 RAB0427 SLP153 P0000 T01650146

2010/08/08 04:50
LIPK 080450Z VRB03KT CAVOK 17/14 Q1016

2010/08/08 05:00
LQSA 080500Z VRB02KT 8000 FEW025 BKN055 15/14 Q1020 NOSIG

2010/08/08 04:56
KNYG 080456Z AUTO 31005KT 10SM CLR 20/18 A3001 RMK AO2 SLP162 T02000178 402940194 $ 

2010/08/08 04:56
KNBT 080456Z AUTO 08009KT 6SM HZ CLR 28/24 A2996 RMK AO2 SLP149 T02830239 403110250 TSNO $ 

2010/08/08 04:56
KNPA 080456Z AUTO 00000KT 10SM TS CLR 26/24 A2990 RMK AO2 TSE00B41 SLP128 T02610239 

2010/08/08 04:56
KP53 080456Z AUTO 00000KT 21/19 A2973 RMK AO2 SLP067 T02110189 402560089 PWINO TSNO 

2010/08/08 04:56
K9L2 080456Z AUTO 23017KT 10SM CLR 23/02 A2984 RMK AO2 SLP078 T02330022 $ 

2010/08/08 04:53
KLAX 080453Z 27008KT 10SM BKN012 16/12 A2990 RMK AO2 SLP125 T01610122

2010/08/08 04:56
K20V 080456Z AUTO 00000KT 10SM DZ BKN080 OVC090 15/08 A3027 RMK AO2

2010/08/08 04:53
K4BM 080453Z AUTO 15005KT 10SM VCTS 10/06 A3050 RMK AO2 LTG DSNT S THRU NW

2010/08/08 04:52
K5SM 080452Z AUTO 00000KT 7SM 09/08 A3046 RMK AO2 LTG DSNT E

2010/08/08 04:54
K7BM 080454Z AUTO 28014G23KT 10SM SCT090 BKN110 15/06 A3037 RMK AO2 LTG DSNT N AND NE

2010/08/08 04:53
KAIT 080453Z AUTO 00000KT 7SM CLR 19/17 A2967 RMK AO2 LTG DSNT SE

2010/08/08 04:53
KBBB 080453Z AUTO 21006KT 10SM VCTS SCT042 SCT050 26/24 A2969 RMK AO2 LTG DSNT E AND SE

2010/08/08 04:58
KBDU 080458Z AUTO 24003KT 10SM SCT120 26/12 A3003 RMK AO2 LTG DSNT S

2010/08/08 04:53
KBFI 080453Z COR 18004KT 10SM BKN010 OVC041 18/16 A2991 RMK AO2 SLP127 T01780156

2010/08/08 04:58
KBJC 080458Z AUTO 31005KT 10SM CLR 23/08 A3006 RMK AO2 LTG DSNT S

2010/08/08 04:56
KBMI 080456Z AUTO 18007KT 8SM CLR 21/18 A2996 RMK AO2 PWINO T02110183 SLP130 $

2010/08/08 04:56
KBOK 080456Z AUTO 00000KT 6SM BR OVC003 14/13 A2993 RMK AO2 T01380133 SLP136

2010/08/08 04:53
KBTR 080453Z 24008KT 10SM FEW040 SCT250 28/25 A2992 RMK AO2 SLP130 T02830250

2010/08/08 04:54
KBTV 080454Z 00000KT 10SM CLR 13/11 A2998 RMK AO2 SLP152 T01280106 402220094

2010/08/08 04:57
KCCU 080457Z AUTO 18013G17KT 7SM VCTSRA BKN016 BKN035 OVC060 08/05 A3057 RMK AO2 LTG DSNT E THRU S

2010/08/08 04:55
KCEF 080455Z AUTO 00000KT 10SM CLR 14/12 A3000 RMK AO2 SLP161 T01420117 402710113

2010/08/08 04:53
KCHA 080453Z 00000KT 10SM CLR 26/22 A2996 RMK AO2 SLP137 T02560222 403500217

2010/08/08 04:55
KCMA 080455Z AUTO 00000KT 10SM OVC010 16/13 A2989 RMK AO2 SLP130 T01610128 TSNO

2010/08/08 04:55
KCNK 080455Z AUTO 17011KT 10SM CLR 28/21 A2981 RMK AO2 SLP074 T02780211

2010/08/08 05:02
KCPW 080502Z AUTO 23009G14KT 1/4SM FG OVC001 06/06 A3053 RMK AO2

2010/08/08 04:53
KDAB 080453Z 00000KT 10SM FEW015 SCT140 OVC250 26/24 A2995 RMK AO2 RAE01 SLP141 P0000 T02610244 403170250

2010/08/08 04:53
KDEN 080453Z COR 15011G23KT 10SM SCT110 BKN200 20/16 A3004 RMK AO2 SLP085 T02000156

2010/08/08 04:55
KDLH 080455Z 09005KT 5SM -TSRA BR FEW004 BKN031CB OVC046 18/16 A2974 RMK AO2 SLP068 FRQ LTGICCC OHD AND N-E-S TS N-E-S MOV E P0075 T01780161

2010/08/08 04:55
KEAT 080455Z AUTO 32009KT 10SM BKN100 18/13 A2983 RMK AO2 RAE16 SLP094 P0000 T01830128

2010/08/08 04:53
KFFM 080453Z AUTO 07004KT 10SM CLR 21/19 A2963 RMK AO2 LTG DSNT SE

2010/08/08 04:54
KFGN 080454Z AUTO 14003KT 10SM CLR 21/17 A2969 RMK AO2

2010/08/08 04:53
KFLL 080453Z COR 00000KT 10SM FEW035 28/24 A2997 RMK AO2 SLP150 T02830244 403280261 PNO $

2010/08/08 04:52
KGDB 080452Z AUTO 16004KT 7SM VCTS SCT060 SCT070 24/23 A2967 RMK AO2 LTG DSNT NE T02400228

2010/08/08 04:53
KGHW 080453Z AUTO 17004KT 10SM VCTS CLR 22/19 A2970 RMK AO2 LTG DSNT SE

2010/08/08 04:55
KGPI 080455Z 30004KT 10SM CLR 17/09 A2980 RMK AO2 SLP077 T01720089

2010/08/08 04:55
KGUS 080455Z AUTO 16006KT 10SM CLR 20/20 A2997 RMK AO2 SLP144 T01970196 402790160

2010/08/08 04:55
KIRK 080455Z AUTO 18007KT 10SM CLR 23/21 A2991 RMK AO2 SLP120 T02330211

2010/08/08 04:55
KLIC 080455Z AUTO 06013KT 10SM FEW120 19/13 A3004 RMK AO2 SLP085 T01890128

2010/08/08 04:55
KLLJ 080455Z AUTO 29005KT 10SM FEW090 18/04 A2991 RMK AO2 SLP072 T01830044 $

2010/08/08 04:53
KLXV 080453Z AUTO 08010KT 3SM -RA BR SCT031 BKN044 OVC065 09/08 A3040 RMK AO2 RAB06 SLP122 P0010 T00890083 TSNO

2010/08/08 04:55
KMGG 080455Z AUTO 21005KT 10SM VCTS SCT018 BKN038 OVC046 26/22 A2970 RMK AO2 LTG DSNT ALQS T02570217

2010/08/08 04:55
KMKG 080455Z 20009KT 10SM SCT060 25/22 A2987 RMK AO2 SLP110 T02500217 402830161

2010/08/08 04:56
KMOB 080456Z 00000KT 10SM TS FEW025CB SCT045 27/24 A2992 RMK AO2 TSB12 SLP129 CONS LTGICCG SW TS SW MOV SE T02720244

2010/08/08 04:48
KMOX 080448Z AUTO 00000KT 7SM SCT048 BKN065 24/24 A2962 RMK AO2 LTG DSNT SE

2010/08/08 04:53
KMSN 080453Z 19007KT 10SM CLR 23/19 A2984 RMK AO2 SLP097 T02330189

2010/08/08 04:53
KMWM 080453Z AUTO 19012KT 10SM CLR 25/22 A2972 RMK AO2 LTG DSNT N

2010/08/08 04:56
KDIK 080456Z AUTO 00000KT 10SM CLR 19/14 A2974 RMK AO2 SLP053 T01890144

2010/08/08 04:56
KDUG 080456Z AUTO 35011KT 10SM FEW044 23/18 A3010 RMK AO2 LTG DSNT N TSB10E25 SLP127 T02280178

2010/08/08 04:56
KDUJ 080456Z AUTO 00000KT 10SM CLR 14/11 A3006 RMK AO2 SLP169 T01440111 402390133

2010/08/08 04:56
KEAU 080456Z AUTO 20009KT 10SM FEW070 26/22 A2970 RMK AO2 SLP051 T02560217

2010/08/08 04:56
KEED 080456Z AUTO 17017G25KT 10SM CLR 36/14 A2971 RMK AO2 SLP024 T03560144 TSNO

2010/08/08 04:55
KEIK 080455Z AUTO 00000KT 10SM CLR 21/12 A3002 RMK AO2 LTG DSNT SE

2010/08/08 04:56
KEKO 080456Z AUTO 02006KT 10SM CLR 24/01 A2990 RMK AO2 SLP059 T02390011

2010/08/08 04:55
KFBG 080455Z 00000KT 10SM CLR 25/22 A2996 RMK AO2A SLP145 T02490223 403240231 $

2010/08/08 04:56
KGRD 080456Z AUTO 00000KT 10SM CLR 24/22 A2998 RMK AO2 SLP145 T02390222 403220222

2010/08/08 04:56
KHND 080456Z AUTO 16012KT 10SM CLR 31/13 A2982 RMK AO2 T03110133 LTG DSNT SW AND NW SLP041

2010/08/08 04:55
KHVS 080455Z AUTO 00000KT 7SM SCT095 22/ A2997 RMK AO2

2010/08/08 04:55
KIFP 080455Z AUTO 14013KT 10SM CLR 35/14 A2969 RMK AO2 LTG DSNT SW

2010/08/08 04:56
KIGX 080456Z AUTO 00000KT 9SM SCT075 23/19 A3001 RMK AO2 SLP154 T02330189 403220217

2010/08/08 04:56
KINW 080456Z AUTO 10SM SCT110 17/14 A3015 RMK AO2 SLP149 T01670144 $

2010/08/08 04:53
KIYK 080453Z 25007KT 20SM SKC 28/ A2978 RMK LAST

2010/08/08 04:56
KJMS 080456Z AUTO 00000KT 10SM CLR 22/20 A2967 RMK AO2 SLP039 T02170200

2010/08/08 04:56
KLAS 080456Z 17013G20KT 10SM FEW120 SCT150 33/13 A2975 RMK AO2 SLP042 LTG DSNT N AND S AND W T03280133

2010/08/08 04:56
KLNR 080456Z AUTO VRB03KT 9SM CLR 23/18 A2982 RMK AO2 SLP088 T02330183

2010/08/08 04:55
KLRF 080455Z AUTO 00000KT 10SM FEW070 26/25 A2991 RMK AO2 SLP126 T02650251

2010/08/08 04:56
KM19 080456Z AUTO 10003KT 10SM CLR 26/22 A2992 RMK AO2 T02610216 403270216 SLP127

2010/08/08 04:55
KMKS 080455Z AUTO 00000KT 4SM BR CLR 23/23 A2993 RMK AO2 TSNO

2010/08/08 04:55
KMMT 080455Z AUTO 07003KT 7SM R32/4500V5500FT CLR 24/24 A2995 RMK AO2 SLP142 T02440239 403230215

2010/08/08 04:56
KMQY 080456Z AUTO 00000KT 10SM CLR 22/19 A2997 RMK AO2 T02220194 SLP137 $

2010/08/08 04:56
KMRH 080456Z AUTO 03003KT 6SM BR CLR 26/23 A2996 RMK AO2 SLP146 T02560233 403000244 TSNO

2010/08/08 04:56
PAAK 080456Z AUTO 20012G15KT 4SM OVC007 11/08 A2941 RMK AO1 PNO

2010/08/08 04:56
PABL 080456Z AUTO 31006KT 10SM BKN065 OVC100 14/09 A2961 RMK AO1 PNO

2010/08/08 04:56
PABV 080456Z AUTO 22004KT 10SM SCT014 BKN025 OVC048 12/09 A2975 RMK AO1 PNO

2010/08/08 04:56
PACM 080456Z AUTO 18005KT 10SM BKN019 OVC030 13/09 A2964 RMK AO2 TSNO T01270094 SLP032 $

2010/08/08 04:56
PADK 080456Z 24022G26KT 3SM OVC006 11/09 A2932 RMK AO1 PNO

2010/08/08 04:51
PADL 080451Z 19010KT SCT017 BKN028 11/08 A2978

2010/08/08 04:56
PAEM 080456Z AUTO 00000KT 10SM FEW001 SCT025 BKN047 13/10 A2959 RMK AO1 PNO

2010/08/08 04:56
PAFE 080456Z AUTO 10004KT 10SM FEW022 BKN028 OVC075 13/11 A2990 RMK AO1 PNO

2010/08/08 04:56
PAFM 080456Z AUTO 00000KT 10SM BKN018 BKN026 OVC070 13/11 A2960 RMK AO1 PNO

2010/08/08 04:56
PAGL 080456Z AUTO 26006KT 10SM FEW040 OVC049 16/11 A2962 RMK AO1 PNO

2010/08/08 04:56
PAGM 080456Z AUTO 04014KT 10SM OVC006 08/06 A2961 RMK AO1

2010/08/08 04:56
PAGS 080456Z AUTO 00000KT 10SM OVC031 12/11 A2985 RMK AO1 PNO

2010/08/08 04:56
PAHP 080456Z AUTO 14008KT 10SM SCT008 OVC032 11/08 A2961 RMK AO1 PNO TSNO

2010/08/08 04:56
PAHY 080456Z AUTO 00000KT 10SM FEW006 BKN030 OVC050 13/12 A2991 RMK AO1 PNO

2010/08/08 04:56
PAII 080456Z AUTO 24007KT 10SM OVC006 10/08 A2984 RMK AO1 PNO

2010/08/08 04:56
PAIN 080456Z AUTO 11003KT 10SM OVC065 14/08 A2968 RMK AO1 PNO

2010/08/08 04:56
PAJC 080456Z AUTO 00000KT 10SM BKN017 OVC025 15/12 A2980 RMK AO1 PNO

2010/08/08 04:56
PAKK 080456Z AUTO 22004KT 10SM OVC065 15/11 A2957 RMK AO1 PNO

2010/08/08 04:56
PAKP 080456Z AUTO 04007KT 10SM OVC038 10/07 A2960 RMK AO1

2010/08/08 04:56
PAMD 080456Z AUTO 21007KT 7SM BKN009 OVC013 12/09 A2980 RMK AO1 PNO

2010/08/08 04:56
PAMH 080456Z 22005KT 10SM 13/08 A2967 RMK AO1 PNO

2010/08/08 04:56
PAMM 080456Z AUTO 21004KT 10SM FEW025 BKN034 OVC040 14/10 A2993 RMK AO1 PNO

2010/08/08 04:55
PACZ 080455Z AUTO 20010KT 10SM OVC008 11/09 A2961 RMK AO1 T01060089

2010/08/08 04:55
PALU 080455Z AUTO 08014KT 7SM 11/11 A2964 RMK AO1 T01060106

2010/08/08 04:55
PAIM 080455Z AUTO 00000KT 10SM BKN042 BKN048 BKN080 14/12 A2963 RMK AO1 T01390117

2010/08/08 04:55
PATL 080455Z AUTO 22004KT 10SM SCT040 SCT050 12/09 A2970 RMK AO1 T01220095

2010/08/08 04:55
PAEH 080455Z AUTO 16013KT 10SM SCT038 OVC070 09/07 A2970 RMK AO1 T00890073

2010/08/08 04:55
PASV 080455Z AUTO 23004KT 5SM BKN008 BKN018 OVC024 11/10 A2974 RMK AO1 T01060101

2010/08/08 04:53
KMWT 080453Z AUTO 12004KT 10SM SCT048 SCT055 27/24 A2990 RMK AO2 SLP111 T02720244 TSNO

2010/08/08 04:53
KOVE 080453Z AUTO 14007KT 10SM CLR 27/13 A2974 RMK AO2 SLP073 T02670128 TSNO $

2010/08/08 04:53
KPNM 080453Z AUTO 15005KT 10SM VCTS BKN022 19/18 A2972 RMK AO2 P0003 LTG DSNT ALQDS

2010/08/08 04:53
KPQN 080453Z AUTO 21010KT 10SM CLR 25/23 A2972 RMK AO2

2010/08/08 04:53
KPWC 080453Z AUTO 14004KT 10SM CLR 18/18 A2971 RMK AO2

2010/08/08 04:53
KRIL 080453Z AUTO 00000KT 10SM FEW060 BKN110 17/13 A3015 RMK AO2 SLP142 T01720133 TSNO

2010/08/08 04:55
KRNO 080455Z VRB06KT 10SM SCT090 BKN120 BKN150 23/02 A2990 RMK AO2 SLP071 T02330022

2010/08/08 04:53
KSAV 080453Z 36003KT 8SM FEW015 25/24 A2993 RMK AO2 SLP134 T02500239 403280239

2010/08/08 04:53
KSGR 080453Z AUTO 17006KT 10SM CLR 27/24 A2991 RMK AO2 SLP135 T02670244 TSNO

2010/08/08 04:53
KTLH 080453Z 00000KT 10SM CLR 25/24 A2992 RMK AO2 SLP131 T02500239 403440250

2010/08/08 04:53
KTRI 080453Z 00000KT 7SM SCT070 19/17 A3002 RMK AO2 SLP150 T01940167 403170178

2010/08/08 04:53
KTWM 080453Z AUTO 00000KT 10SM VCTS SCT011 BKN030 BKN055 18/14 A2974 RMK AO2 LTG DSNT NW THRU NE

2010/08/08 04:53
KTYS 080453Z 00000KT 9SM CLR 22/19 A2997 RMK AO2 SLP135 T02220194 403280206

2010/08/08 04:55
KULM 080455Z AUTO 19009KT 10SM CLR 24/22 A2969 RMK AO2 LTG DSNT NW

2010/08/08 05:00
KVTP 080500Z AUTO 28009G20KT 250V310 10SM SCT110 11/07 A3040 RMK AO2 LTG DSNT N

2010/08/08 04:50
KWYS 080450Z AUTO 14004KT 10SM OVC110 10/09 A3009 RMK AO2

2010/08/08 04:55
KMXF 080455Z AUTO 15004KT 10SM CLR 26/24 A2991 RMK AO2 SLP127 T02600240

2010/08/08 04:55
KNQA 080455Z AUTO 00000KT 10SM BKN055 OVC070 26/23 A2992 RMK

2010/08/08 04:55
KO22 080455Z AUTO 00000KT 10SM CLR 20/09 A2985 RMK AO1

2010/08/08 04:56
KOFK 080456Z AUTO 18011KT 10SM CLR 26/22 A2976 RMK AO2 SLP063 T02610217

2010/08/08 04:55
KOZR 080455Z AUTO 00000KT 10SM FEW230 24/24 A2993 RMK AO2 SLP133 T02440244

2010/08/08 04:55
KPVF 080455Z AUTO 00000KT 10SM CLR 20/10 A2989 RMK AO1

2010/08/08 04:55
KRCE 080455Z AUTO 15010KT 10SM CLR 29/23 A2987 RMK AO2

2010/08/08 04:56
KRDM 080456Z AUTO 31008KT 10SM CLR 19/08 A2993 RMK AO2 SLP112 T01890083 $

2010/08/08 04:56
KSBP 080456Z AUTO 32006KT 10SM FEW014 13/11 A2990 RMK AO2 SLP126 T01280111 $

2010/08/08 04:56
KSFO 080456Z 24007KT 10SM FEW006 14/10 A2986 RMK AO2 SLP111 T01440100

2010/08/08 04:56
KSLE 080456Z AUTO 30008KT 10SM FEW043 BKN070 20/14 A2991 RMK AO2 SLP126 T02000139

2010/08/08 04:55
KSMS 080455Z AUTO 00000KT 3SM BR CLR 24/23 A2996 RMK AO2

2010/08/08 04:56
KSRC 080456Z AUTO 00000KT CLR 26/24 A2992 RMK AO2 TSNO T02610244 403500233 SLP133 $

2010/08/08 04:56
KTPH 080456Z AUTO 00000KT 10SM CLR 18/M13 A2999 RMK AO2 SLP081 T01831128

2010/08/08 04:55
KTTS 080455Z 21005KT 10SM FEW020 BKN170 OVC200 27/25 A2995 RMK SLP142 1CU /1/ 5AC 2CS /8/

2010/08/08 04:56
KUKI 080456Z AUTO 00000KT 10SM CLR 21/11 A2981 RMK AO2 SLP086 T02060111

2010/08/08 04:55
KVQQ 080455Z AUTO 00000KT 10SM SCT021 24/24 A2994 RMK AO2

2010/08/08 04:56
KWJF 080456Z 23013G19KT 10SM CLR 23/04 A2987 RMK AO2 SLP093 T02280039

2010/08/08 04:56
PAAK 080456Z AUTO 20012G15KT 4SM OVC007 11/08 A2941 RMK AO1 PNO

2010/08/08 04:56
PACM 080456Z AUTO 18005KT 10SM BKN019 OVC030 13/09 A2964 RMK AO2 TSNO T01270094 SLP032 $

2010/08/08 04:56
PAHP 080456Z AUTO 14008KT 10SM SCT008 OVC032 11/08 A2961 RMK AO1 PNO TSNO

2010/08/08 04:55
K0A9 080455Z AUTO 00000KT 8SM CLR 17/16 A3004 RMK

2010/08/08 04:56
K1M4 080456Z AUTO 00000KT 6SM BR FEW090 24/24 A2997 RMK AO2 T02440238 403380222 SLP143

2010/08/08 04:56
KAND 080456Z AUTO 00000KT 9SM CLR 24/21 A2998 RMK AO2 SLP141 T02440211 403170222

2010/08/08 04:55
KARW 080455Z AUTO 00000KT 4SM BR CLR 25/24 A2992 RMK AO2

2010/08/08 04:55
KBDN 080455Z AUTO 36006KT 10SM CLR 18/09 A2997 RMK AO2

2010/08/08 04:55
KBIX 080455Z AUTO 00000KT 10SM VCTS FEW036 29/26 A2992 RMK AO2 RAB0404E0426 SLP132 P0007 T02900263 $

2010/08/08 04:55
KBKN 080455Z AUTO 14011G14KT 10SM CLR 28/23 A2982 RMK AO2

2010/08/08 04:56
KCEC 080456Z AUTO 30008KT 1 3/4SM BR BKN001 OVC006 13/13 A2992 RMK AO2 SLP133 T01330128

2010/08/08 04:56
PAMY 080456Z 17012KT 10SM BKN018 BKN025 12/08 A2960 RMK AO1

2010/08/08 04:56
PANI 080456Z AUTO 23003KT 7SM FEW011 BKN021 OVC025 12/09 A2972 RMK AO1 PNO

2010/08/08 04:56
PANV 080456Z AUTO 17007KT 10SM SCT015 SCT075 13/11 A2965 RMK AO1 PNO

2010/08/08 04:56
PAOU 080456Z AUTO 00000KT 9SM BKN023 14/12 A2976 RMK AO2 PWINO TSNO T01380122 BKN V SCT SLP079 $

2010/08/08 04:56
PAPG 080456Z 00000KT 4SM FEW000 BKN012 OVC023 12/11 A2988 RMK AO1 WEA

2010/08/08 04:56
PAPH 080456Z AUTO 00000KT 10SM BKN017 OVC090 13/10 A2981 RMK AO1 PNO

2010/08/08 04:56
PAPN 080456Z AUTO 00000KT 8SM CLR 10/09 A2981 RMK AO2 PWINO TSNO T01000088 SLP099

2010/08/08 04:56
PARC 080456Z AUTO 06003KT 10SM FEW023 SCT029 OVC046 11/05 A2966 RMK AO1 PNO

2010/08/08 04:56
PASA 080456Z AUTO 06009KT 1/2SM OVC002 09/07 A2962 RMK AO1 PNO

2010/08/08 04:56
PASD 080456Z AUTO 17013KT 10SM SCT019 OVC028 12/10 A2982 RMK AO1 PNO

2010/08/08 04:56
PASH 080456Z AUTO 32006KT 10SM BKN005 OVC023 08/06 A2965 RMK AO1 PNO

2010/08/08 04:56
PASK 080456Z AUTO 24009KT 10SM SCT011 BKN080 OVC090 14/12 A2957 RMK AO1 PNO

2010/08/08 04:56
PASL 080456Z AUTO 00000KT 10SM SCT035 SCT047 OVC095 13/11 A2975 RMK AO1 PNO

2010/08/08 04:56
PASM 080456Z AUTO 19008KT 10SM FEW029 OVC040 13/10 A2966 RMK AO1 PNO

2010/08/08 04:56
PASX 080456Z AUTO 19004KT 10SM SCT022 BKN028 OVC065 13/10 A2976 RMK AO1 PNO

2010/08/08 04:56
PATG 080456Z AUTO 20009KT 10SM OVC010 11/09 A2974 RMK AO1 PNO

2010/08/08 04:56
PAUN 080456Z AUTO 27007KT 10SM BKN020 15/09 A2961 RMK AO1 PNO

2010/08/08 04:56
PAVD 080456Z 00000KT 10SM FEW010 SCT030 OVC040 11/08 A2979 RMK AO1 0447Z WEA

2010/08/08 04:56
PAWG 080456Z 00000KT 2SM SCT013 OVC023 12/11 A2989 RMK AO1 WEA

2010/08/08 04:56
PAWS 080456Z AUTO 00000KT 3SM FEW006 SCT010 BKN021 11/11 A2975 RMK AO1 PNO

2010/08/08 04:56
PAZK 080456Z AUTO 22006KT 10SM BKN047 OVC060 08/06 A2973 RMK AO1 PNO

2010/08/08 04:50
EETU 080450Z 12005KT 5000 BR NSC 22/20 Q1013

2010/08/08 04:54
K1V4 080454Z AUTO 09/08 A3000 RMK AO2 SLP156 T00940083 402060067 PWINO TSNO

2010/08/08 04:54
KMQE 080454Z AUTO 23006KT 19/13 A3002 RMK AO1 SLP174 T01940128 402610144

2010/08/08 04:54
KDMH 080454Z AUTO 26/15 A3000 RMK AO2 SLP159 T02560150 403110228 PWINO TSNO

2010/08/08 04:54
KAVP 080454Z 11003KT 10SM CLR 17/12 A3002 RMK AO2 SLP154 T01720117 402830144

2010/08/08 04:54
K12N 080454Z AUTO 00000KT 16/15 A3002 RMK AO2 SLP159 T01610150 402780128 PWINO TSNO

2010/08/08 04:54
KRIC 080454Z 00000KT 10SM CLR 23/17 A3000 RMK AO2 SLP161 T02280172 403110200

2010/08/08 04:54
KROA 080454Z 00000KT 10SM BKN080 23/17 A3006 RMK AO2 SLP166 T02280172 402940167 $

2010/08/08 04:54
KFWA 080454Z 20003KT 10SM CLR 19/17 A2998 RMK AO2 SLP148 T01940172 402720150

2010/08/08 04:54
KCOU 080454Z AUTO 13005KT 10SM CLR 23/21 A2992 RMK AO2 SLP121 T02330211 TSNO

2010/08/08 04:54
KMTP 080454Z AUTO 16004KT 22/19 A3004 RMK AO2 SLP170 T02220194 402610183 PWINO TSNO

2010/08/08 04:54
KNAK 080454Z AUTO 00000KT 10SM CLR 23/18 A2999 RMK AO2 SLP157 T02280178 402830217 TSNO

2010/08/08 04:54
KACY 080454Z 16004KT 10SM FEW100 23/21 A3003 RMK AO2 SLP167 T02330206 403000156

2010/08/08 04:54
KGSO 080454Z 00000KT 8SM CLR 23/19 A3003 RMK AO2 SLP156 T02280189 403060217

2010/08/08 04:54
KWAL 080454Z AUTO 00000KT 10SM CLR 23/21 A3001 RMK AO2 SLP159 T02330211 402940206 TSNO

2010/08/08 04:54
KONZ 080454Z AUTO 23006KT 10SM CLR 23/17 A2994 RMK AO2

2010/08/08 04:53
KTEW 080453Z AUTO 00000KT 10SM CLR 19/16 A2993 RMK AO2

2010/08/08 04:50
KCVH 080450Z AUTO 25007KT 10SM BKN013 13/11 A2990 RMK AO1

2010/08/08 04:56
KDVP 080456Z AUTO 19013G16KT 10SM CLR 25/21 A2974 RMK AO2 LTG DSNT N T02460205

2010/08/08 04:54
KDYT 080454Z AUTO 06012KT 10SM -VCTSRA BKN004 BKN020 OVC036 18/17 A2972 RMK AO2 LTG DSNT ALQDS

2010/08/08 04:59
KFSO 080459Z AUTO 15004KT 10SM CLR 12/10 A2997 RMK AO2

2010/08/08 04:54
KFBL 080454Z AUTO 17006KT 10SM SCT060 BKN070 25/21 A2973 RMK AO2 LTG DSNT NE

2010/08/08 04:58
KLYV 080458Z AUTO 19007KT 10SM CLR 24/21 A2973 RMK AO2

2010/08/08 04:55
KEFK 080455Z AUTO 21005KT 10SM BKN060 08/07 A3000 RMK AO2

2010/08/08 04:54
KRRT 080454Z AUTO 11006KT 10SM SCT043 19/17 A2971 RMK AO2 TSNO

2010/08/08 04:54
KTOB 080454Z AUTO 20010G15KT 10SM BKN060 OVC075 25/22 A2977 RMK AO2

2010/08/08 04:53
KLXL 080453Z AUTO 00000KT 10SM BKN034 BKN041 BKN050 20/18 A2967 RMK AO2

2010/08/08 04:52
KEVM 080452Z AUTO 00000KT 10SM BKN070 OVC090 18/16 A2972 RMK AO1

2010/08/08 04:53
KELO 080453Z AUTO 13003KT 10SM OVC026 19/16 A2973 RMK AO2

2010/08/08 04:55
KANE 080455Z AUTO 20012G18KT 10SM SCT050 28/23 A2968 RMK AO2

2010/08/08 04:54
KROX 080454Z AUTO 10004KT 10SM BKN039 19/17 A2969 RMK AO2

2010/08/08 04:58
KSYN 080458Z AUTO 21007KT 10SM SCT050 26/21 A2970 RMK AO2 LTG DSNT NE T02590214

2010/08/08 04:56
KVVV 080456Z AUTO 00000KT 10SM CLR 26/23 A2964 RMK AO2 LTG DSNT E

2010/08/08 04:54
KROS 080454Z AUTO 17004KT 10SM VCTS SCT020 SCT040 SCT065 19/18 A2967 RMK AO2 LTG DSNT NE THRU SW P0001 T01940178

2010/08/08 04:52
KHCD 080452Z AUTO 18006KT 10SM CLR 24/21 A2968 RMK AO2 T02400206 TSNO

2010/08/08 04:53
KSGS 080453Z AUTO 21008KT 10SM CLR 27/21 A2970 RMK AO2 LTG DSNT NE T02700212

2010/08/08 04:52
KMJQ 080452Z AUTO 19010KT 10SM CLR 24/22 A2975 RMK AO2

2010/08/08 04:54
KHCO 080454Z AUTO 11008KT 10SM CLR 21/19 A2968 RMK AO2

2010/08/08 04:54
KLVN 080454Z AUTO 20007KT 10SM CLR 25/22 A2970 RMK AO2 LTG DSNT N AND NE

2010/08/08 04:53
KPEX 080453Z AUTO 17005KT 10SM TSRA BKN035 BKN047 BKN065 24/21 A2969 RMK AO2 LTG DSNT E SW AND W T02420209

2010/08/08 04:55
KJMR 080455Z AUTO 25006KT 10SM CLR 18/17 A2968 RMK AO2 LTG DSNT E THRU S P0053

2010/08/08 04:54
KJKJ 080454Z AUTO 20003KT 10SM CLR 23/22 A2964 RMK AO2

2010/08/08 04:54
KMVE 080454Z AUTO 22005KT 10SM VCTS SCT060 SCT070 26/24 A2964 RMK AO2 LTG DSNT NE

2010/08/08 04:53
KTKC 080453Z AUTO 20010G16KT 10SM CLR 25/21 A2969 RMK AO2 LTG DSNT NE T02520211

2010/08/08 04:54
KGYL 080454Z AUTO 18007KT 10SM BKN048 BKN075 25/22 A2968 RMK AO2 LTG DSNT NE AND NW T02470215

2010/08/08 04:54
KDXX 080454Z AUTO 00000KT 7SM CLR 24/24 A2964 RMK AO2 LTG DSNT E

2010/08/08 04:51
KHZX 080451Z AUTO 08005KT 7SM CLR 20/19 A2970 RMK AO2 LTG DSNT SE

2010/08/08 04:54
KSAZ 080454Z AUTO 00000KT 7SM CLR 20/20 A2968 RMK AO2 LTG DSNT S

2010/08/08 04:50
KONA 080450Z AUTO 22006KT 10SM SCT090 26/20 A2974 RMK AO2

2010/08/08 04:53
KAQP 080453Z AUTO 18004KT 10SM CLR 25/25 A2964 RMK AO2 LTG DSNT E

2010/08/08 04:54
KETH 080454Z AUTO 00000KT 10SM CLR 22/21 A2968 RMK AO2 LTG DSNT E

2010/08/08 04:53
KOVL 080453Z AUTO 18005KT 10SM VCTS SCT055 SCT070 24/21 A2967 RMK AO2 LTG DSNT N T02370205

2010/08/08 04:52
KLJF 080452Z AUTO 19003KT 10SM VCTS SCT041 SCT050 SCT090 26/23 A2968 RMK AO2 LTG DSNT W THRU E

2010/08/08 04:56
KXVG 080456Z AUTO 00000KT 5SM BR CLR 18/18 A2968 RMK AO2 LTG DSNT SE

2010/08/08 04:54
KORB 080454Z AUTO 00000KT 10SM CLR 16/14 A2970 RMK AO2

2010/08/08 04:50
KMZH 080450Z AUTO 05005KT 10SM CLR 18/17 A2967 RMK AO2 LTG DSNT NE THRU S

2010/08/08 04:49
KVWU 080449Z AUTO 08004KT 10SM CLR 18/17 A2969 RMK AO2

2010/08/08 04:50
KAEL 080450Z AUTO 20008KT 10SM BKN060 25/21 A2976 RMK AO2

2010/08/08 04:53
KOWA 080453Z AUTO 19010KT 10SM BKN065 25/22 A2973 RMK AO2

2010/08/08 04:53
K29G 080453Z AUTO 00000KT 10SM CLR 19/14 A3002 RMK AO2 T01910137 PWINO

2010/08/08 04:53
KMRT 080453Z AUTO 00000KT 10SM CLR 16/15 A3004 RMK AO2 T01620150

2010/08/08 04:54
KIKW 080454Z AUTO 19005KT 10SM SCT110 21/17 A2987 RMK AO2 T02130166 402870077

2010/08/08 04:53
KRTN 080453Z AUTO 00000KT 10SM CLR 20/12 A3012 RMK AO2 SLP094 T02000122 TSNO

2010/08/08 04:55
KDRA 080455Z AUTO 12010KT 10SM FEW110 28/07 A2984 RMK AO2 SLP058 T02780072 TSNO $

2010/08/08 04:55
KPOE 080455Z AUTO 19005KT 10SM CLR 28/24 A2992 RMK AO2 SLP130 T02780244 403500233

2010/08/08 04:55
KMBG 080455Z AUTO 10004KT 10SM CLR 19/15 A2967 RMK AO2 SLP037 T01890150 TSNO

2010/08/08 04:55
KINL 080455Z AUTO 00000KT 10SM FEW090 17/16 A2971 RMK AO2 SLP059 T01720156

2010/08/08 04:55
KAST 080455Z AUTO 25003KT 2 1/2SM -RA BR BKN005 OVC013 15/14 A2995 RMK AO2 RAB40 SLP140 P0001 T01500144

2010/08/08 04:54
KRFD 080454Z 19006KT 10SM CLR 21/18 A2990 RMK AO2 SLP119 T02110183

2010/08/08 04:55
KANJ 080455Z AUTO 08004KT 10SM OVC019 19/16 A2977 RMK AO2 SLP077 T01890161 402500072

2010/08/08 04:56
KSHV 080456Z 18006KT 10SM BKN290 28/24 A2988 RMK AO2 SLP112 T02830239

2010/08/08 04:54
KAKQ 080454Z AUTO 00000KT 8SM CLR 20/18 A3000 RMK AO2 SLP157 T02000178 403170194 TSNO $

2010/08/08 04:56
TJSJ 080456Z 10007G14KT 10SM SCT025 SCT036 28/24 A2997 RMK AO2 SLP149 VCSH SW T02830239

2010/08/08 04:56
KSDF 080456Z 00000KT 9SM CLR 24/16 A2998 RMK AO2 SLP145 T02440156 403220200 $

2010/08/08 04:55
KVBG 080455Z AUTO 02005KT 10SM OVC007 13/12 A2991 RMK AO2 SLP121 T01280117 TSNO CHINO RWY12 VISNO RWY12 $

2010/08/08 04:56
KCHS 080456Z 00000KT 7SM CLR 26/24 A2994 RMK AO2 SLP137 T02560239 403280233

2010/08/08 04:56
KABQ 080456Z 33009KT 10SM SCT095 23/12 A3012 RMK AO2 SLP106 T02280122

2010/08/08 04:55
KHON 080455Z AUTO 25006KT 10SM CLR 26/21 A2966 RMK AO2 SLP031 T02560211 TSNO

2010/08/08 04:55
KPHP 080455Z AUTO 30004KT 10SM CLR 21/17 A2974 RMK AO2 SLP048 T02110172 TSNO

2010/08/08 04:55
KAAT 080455Z AUTO 31012G18KT 10SM CLR 23/06 A2994 RMK AO2 SLP089 T02280061 TSNO

2010/08/08 04:56
KJAX 080456Z 27003KT 10SM FEW025 BKN150 OVC250 24/23 A2993 RMK AO2 SLP134 OCNL LTGIC DSNT SE CB DSNT SE T02440233 403390244

2010/08/08 04:56
KSXT 080456Z AUTO 35011G17KT 8SM CLR 14/12 A2998 RMK AO2 SLP117 T01390122 TSNO

2010/08/08 04:56
KFLG 080456Z AUTO 00000KT 1/2SM FG BKN001 OVC110 13/13 A3025 RMK AO2 SLP160 T01330128 TSNO

2010/08/08 05:01
KFKA 080501Z AUTO 21008G16KT 10SM CLR 24/22 A2979 RMK AO2 T02430220

2010/08/08 04:53
KRNM 080453Z 26005KT 10SM CLR 13/11 A2992 RMK AO2 SLP122 T01280106

2010/08/08 04:56
K8D3 080456Z AUTO 00000KT 23/22 A2964 RMK AO2 SLP016 T02280222 PWINO TSNO

2010/08/08 04:56
KCAE 080456Z 00000KT 5SM BR CLR 26/24 A2995 RMK AO2 SLP137 T02610244 403390228

2010/08/08 04:55
KCAO 080455Z AUTO 22008KT 10SM CLR 25/14 A3002 RMK AO2 SLP081 T02500144 TSNO

2010/08/08 04:56
KWMC 080456Z AUTO 26004KT 10SM CLR 18/M03 A2984 RMK AO2 SLP057 T01831028

2010/08/08 04:56
KAQV 080456Z AUTO 00000KT 10SM CLR 27/25 A2991 RMK AO2 SLP123 T02720250 403610233

2010/08/08 04:56
KNXP 080456Z AUTO 22010KT CLR 28/02 A2986 RMK AO2 SLP073 T02830017 $

2010/08/08 04:56
KGNA 080456Z AUTO 01003KT 18/13 A2973 RMK AO2 SLP063 T01830133 PWINO TSNO

2010/08/08 04:56
KNFE 080456Z AUTO 00000KT 3/4SM BR CLR 23/21 A2999 RMK AO2 SLP156 T02280206 403110222 $

2010/08/08 04:56
KNTU 080456Z 00000KT 10SM FEW007 SCT060 24/23 A2998 RMK AO2 SLP155 T02390228 402940222 $

2010/08/08 04:56
KNUQ 080456Z 02007KT 10SM FEW012 15/12 A2986 RMK AO2 SLP115 T01500122

2010/08/08 04:56
KNGP 080456Z AUTO 20009G18KT 10SM CLR 28/26 A2990 RMK AO2 SLP123 T02830261 VISNO $

2010/08/08 04:56
KP53 080456Z AUTO 00000KT 21/19 A2973 RMK AO2 SLP067 T02110189 402560089 PWINO TSNO

2010/08/08 04:56
K9L2 080456Z AUTO 23017KT 10SM CLR 23/02 A2984 RMK AO2 SLP078 T02330022 $

2010/08/08 04:56
KNBT 080456Z AUTO 08009KT 6SM HZ CLR 28/24 A2996 RMK AO2 SLP149 T02830239 403110250 TSNO $

2010/08/08 04:55
PACZ 080455Z AUTO 20010KT 10SM OVC008 11/09 A2961 RMK AO1 T01060089

2010/08/08 04:55
PALU 080455Z AUTO 08014KT 7SM 11/11 A2964 RMK AO1 T01060106

2010/08/08 04:55
PAIM 080455Z AUTO 00000KT 10SM BKN042 BKN048 BKN080 14/12 A2963 RMK AO1 T01390117

2010/08/08 04:55
PATL 080455Z AUTO 22004KT 10SM SCT040 SCT050 12/09 A2970 RMK AO1 T01220095

2010/08/08 04:55
PAEH 080455Z AUTO 16013KT 10SM SCT038 OVC070 09/07 A2970 RMK AO1 T00890073

2010/08/08 04:55
PASV 080455Z AUTO 23004KT 5SM BKN008 BKN018 OVC024 11/10 A2974 RMK AO1 T01060101

2010/08/08 04:55
KRUT 080455Z 14005KT 10SM CLR 12/08 A3002 RMK AO1

2010/08/08 04:54
KSBY 080454Z AUTO 16005KT 10SM CLR 22/21 A3001 RMK AO2 SLP163 T02170211 403060183

2010/08/08 04:55
KSDY 080455Z AUTO 00000KT 10SM CLR 19/15 A2971 RMK AO1

2010/08/08 04:54
KSET 080454Z AUTO 09005KT 6SM BR CLR 22/19 A2992 RMK AO2 SLP127 T02170194

2010/08/08 04:55
KSFM 080455Z 00000KT 10SM CLR 11/09 A3001 RMK AO1

2010/08/08 04:55
KSFZ 080455Z 17003KT 10SM CLR 15/14 A3002 RMK AO1

2010/08/08 04:55
KSGT 080455Z 14005KT CLR 27/24 A2991 RMK AO1

2010/08/08 04:55
KSGU 080455Z AUTO 31005KT 10SM VCTS BKN100 BKN120 24/13 A2996 RMK AO1 LTG DSNT ALQDS

2010/08/08 04:54
KSJN 080454Z AUTO 16007KT 10SM CLR 17/13 A3018 RMK AO2 SLP136 T01670133 $

2010/08/08 04:55
KSKX 080455Z AUTO 24005KT 10SM CLR 18/08 A3024 RMK AO1

2010/08/08 04:55
KSLG 080455Z AUTO 08003KT 10SM CLR 24/21 A2992 RMK AO1

2010/08/08 04:55
KSMN 080455Z AUTO 00000KT 10SM CLR 16/08 A2990 RMK AO1

2010/08/08 04:55
KSQI 080455Z AUTO 00000KT 10SM CLR 22/19 A2991 RMK AO1

2010/08/08 04:55
KSUE 080455Z AUTO 21009KT 10SM FEW120 23/20 A2977 RMK AO1

2010/08/08 04:54
KTAD 080454Z AUTO 29009KT 10SM CLR 20/15 A3005 RMK AO2 SLP083 T02000150

2010/08/08 04:55
KTPL 080455Z 19009KT 10SM CLR 28/22 A2990 RMK AO1

2010/08/08 04:54
KTQE 080454Z AUTO 17007KT 9SM CLR 25/23 A2976 RMK AO2 SLP064 T02500233

2010/08/08 04:55
KTVF 080455Z AUTO 07005KT 10SM CLR 20/18 A2967 RMK AO1

2010/08/08 04:56
KUCP 080456Z AUTO 00000KT 6SM BR CLR 16/14 A3004 RMK AO2 T01550144 402660144 SLP182

2010/08/08 04:54
KUIN 080454Z AUTO 17007KT 7SM CLR 24/19 A2991 RMK AO2 SLP119 T02390194

2010/08/08 04:54
KUZA 080454Z AUTO 00000KT 6SM BR FEW045 22/20 A3000 RMK AO2 SLP144 T02220200 403170222

2010/08/08 04:54
KVAY 080454Z AUTO 00000KT 10SM CLR 21/18 A3001 RMK AO2 SLP161 T02060183 403060144

2010/08/08 04:55
KVBT 080455Z AUTO 14004KT 10SM CLR 25/22 A2989 RMK AO1

2010/08/08 04:55
KVIS 080455Z AUTO 32007KT 10SM CLR 27/14 A2974 RMK AO1

2010/08/08 04:54
KVSF 080454Z AUTO 00000KT 10SM CLR 11/10 A3003 RMK AO2 SLP171 T01110100 402390089

2010/08/08 04:54
KVTA 080454Z AUTO 00000KT 6SM BR CLR 16/15 A3001 RMK AO2 SLP158 T01560150 402830128

2010/08/08 04:54
KWLD 080454Z AUTO 15006KT 10SM CLR 28/22 A2986 RMK AO2 SLP095 T02780222

2010/08/08 04:55
KWVL 080455Z AUTO 00000KT 10SM BKN080 11/08 A2997 RMK AO1

2010/08/08 04:55
KWWD 080455Z AUTO 15006KT 10SM CLR 22/22 A3002 RMK AO1

2010/08/08 04:55
KYKN 080455Z AUTO 21010G15KT 10SM CLR 28/22 A2972 RMK AO1

2010/08/08 04:55
KTTS 080455Z 21005KT 10SM FEW020 BKN170 OVC200 27/25 A2995 RMK SLP142 1CU /1/ 5AC 2CS /8/

2010/08/08 04:55
KAEG 080455Z AUTO 34012KT 10SM CLR 19/11 A3015 RMK AO1

2010/08/08 04:55
KAIK 080455Z AUTO 00000KT 7SM CLR 25/25 A2999 RMK AO2 PNO

2010/08/08 04:55
KBBP 080455Z AUTO 00000KT 4SM BR CLR 24/22 A2997 RMK AO2

2010/08/08 04:55
KBNL 080455Z AUTO 00000KT 5SM BR CLR 24/24 A2995 RMK AO2

2010/08/08 04:55
KBWD 080455Z AUTO 14007KT 10SM CLR 29/20 A2991 RMK AO2

2010/08/08 04:55
KCGC 080455Z AUTO 02003KT 7SM FEW018 BKN047 OVC090 26/25 A2995 RMK

2010/08/08 04:55
KCIC 080455Z AUTO 14010KT 10SM CLR 28/12 A2972 RMK AO1

2010/08/08 04:55
KCQW 080455Z AUTO 00000KT 3SM BR CLR 23/23 A2997 RMK AO2

2010/08/08 04:55
KE80 080455Z AUTO 32009KT 10SM CLR 23/13 A3010 RMK AO2 T02290125

2010/08/08 04:55
KEDC 080455Z AUTO 19004KT 10SM CLR 28/23 A2991 RMK AO1

2010/08/08 04:55
KEOE 080455Z AUTO 08003KT 10SM CLR 25/23 A3000 RMK AO2

2010/08/08 04:55
KFMH 080455Z AUTO 20007KT 10SM CLR 19/19 A3004 RMK AO2

2010/08/08 04:55
KGYH 080455Z AUTO 00000KT 10SM SCT047 SCT055 BKN075 27/20 A3000 RMK AO2

2010/08/08 04:55
KHYW 080455Z AUTO 00000KT 4SM BR CLR 23/23 A2995 RMK AO2

2010/08/08 04:55
KLQK 080455Z AUTO 7SM SCT070 OVC110 23/22 A3000 RMK AO2 T02250215 PNO

2010/08/08 04:55
KLRO 080455Z AUTO 00000KT 2SM BR CLR 23/23 A2994 RMK AO2

2010/08/08 04:55
KMER 080455Z AUTO 24005KT 10SM CLR 24/14 A2975 RMK AO1

2010/08/08 04:55
KMNI 080455Z AUTO 00000KT 5SM BR CLR 23/23 A2994 RMK AO2

2010/08/08 04:55
KRBW 080455Z AUTO 00000KT 5SM BR CLR 24/24 A2994 RMK AO2

2010/08/08 04:55
KSPL 080455Z AUTO 13010KT A2991 RMK AO2 PWINO PNO

2010/08/08 04:52
KSUN 080452Z 29009KT 30SM SKC 19/01 A2994

2010/08/08 04:55
KTME 080455Z AUTO 00000KT 10SM 27/27 A2992 RMK AO2

2010/08/08 04:55
KTSP 080455Z AUTO 27007KT 10SM CLR 20/04 A2998 RMK AO2

2010/08/08 04:55
KUTA 080455Z AUTO 00000KT 7SM CLR 26/24 A2992 RMK AO2

2010/08/08 04:53
KBRO 080453Z AUTO 16005KT 10SM CLR 27/25 A2992 RMK AO2 SLP132 T02720250 TSNO $

2010/08/08 04:53
KFLL 080453Z 00000KT 10SM CLR 28/24 A2997 RMK AO2 SLP150 T02830244 403280261 PNO $

2010/08/08 04:51
KJFK 080451Z 21012KT 10SM CLR 23/20 A3001 RMK AO2 SLP163 T02330200 402830178

2010/08/08 04:53
KMCO 080453Z 23005KT 10SM FEW100 BKN140 OVC180 27/24 A2995 RMK AO2 SLP142 T02670239 403280256

2010/08/08 04:53
KPBI 080453Z 21004KT 10SM FEW039 SCT090 27/26 A2996 RMK AO2 SLP144 T02720256 403280256 $

2010/08/08 04:53
TIST 080453Z AUTO 09010KT 10SM SCT095 28/23 A2996 RMK AO2 SLP145 T02830233 TSNO $

2010/08/08 04:53
TISX 080453Z AUTO 08010KT 10SM FEW026 SCT034 28/23 A2996 RMK AO2 SLP144 T02830233 TSNO $

2010/08/08 04:53
KBAF 080453Z 00000KT 10SM CLR 14/12 A3001 RMK AO2 SLP161 T01390117 402720117

2010/08/08 04:53
TIST 080453Z AUTO 09010KT 10SM SCT095 28/23 A2996 RMK AO2 SLP145 T02830233 TSNO $

2010/08/08 04:53
TISX 080453Z AUTO 08010KT 10SM FEW026 SCT034 28/23 A2996 RMK AO2 SLP144 T02830233 TSNO $

2010/08/08 04:54
KAAO 080454Z AUTO 15009KT 10SM CLR 28/21 A2985 RMK AO2 SLP088 T02830211

2010/08/08 04:55
KAIZ 080455Z AUTO 15004KT 7SM CLR 23/21 A2993 RMK AO1

2010/08/08 04:54
KAKH 080454Z AUTO 00000KT 7SM CLR 22/19 A3000 RMK AO2 SLP151 T02220194 403220217

2010/08/08 04:54
KAKR 080454Z AUTO 00000KT 10SM CLR 18/14 A3001 RMK AO2 SLP157 T01830144 402720144

2010/08/08 04:54
KALO 080454Z AUTO 20009KT 10SM CLR 24/22 A2980 RMK AO2 SLP085 T02390217

2010/08/08 04:54
KAPC 080454Z AUTO 20014G18KT 10SM BKN007 13/12 A2982 RMK AO2 SLP090 T01330117

2010/08/08 04:55
KARG 080455Z AUTO 00000KT 10SM CLR 26/20 A2992 RMK AO1

2010/08/08 04:55
KAUO 080455Z AUTO 21003KT 10SM CLR 26/23 A2994 RMK AO1 40350 0230

2010/08/08 04:54
KAUW 080454Z AUTO 21007KT 9SM FEW036 23/21 A2977 RMK AO2 SLP079 T02280206

2010/08/08 04:54
KAVL 080454Z AUTO 00000KT 6SM BR CLR 21/20 A3008 RMK AO2 SLP157 T02110200 402890172 TSNO

2010/08/08 04:55
KAWO 080455Z AUTO 00000KT 9SM 17/16 A2991 RMK AO1 P0001

2010/08/08 04:54
KBFL 080454Z 35010KT 10SM CLR 27/06 A2976 RMK AO2 SLP070 T02720061

2010/08/08 04:55
KBHB 080455Z AUTO 00000KT 10SM CLR 12/11 A3001 RMK AO1

2010/08/08 04:55
KBID 080455Z AUTO 18006KT 10SM CLR 22/20 A3002 RMK AO1

2010/08/08 04:55
KBKX 080455Z AUTO 18008KT 10SM CLR 26/23 A2972 RMK AO1

2010/08/08 04:55
KBLM 080455Z AUTO 00000KT 10SM CLR 21/18 A3004 RMK AO1

2010/08/08 04:54
KBOS 080454Z 00000KT 10SM CLR 18/12 A3002 RMK AO2 SLP164 T01830122 402720167

2010/08/08 04:55
KBTP 080455Z AUTO 07003KT 10SM CLR 14/12 A3005 RMK AO1

2010/08/08 04:54
KBUY 080454Z AUTO 00000KT 7SM CLR 22/19 A3000 RMK AO2 SLP153 T02220194 403060211

2010/08/08 04:55
KBVX 080455Z AUTO 00000KT 10SM CLR 26/22 A2992 RMK AO1

2010/08/08 04:54
KBWI 080454Z 00000KT 10SM BKN100 21/16 A3000 RMK AO2 SLP156 T02060161 403000156

2010/08/08 04:54
KCEU 080454Z AUTO 31005KT 7SM SCT050 SCT080 BKN120 26/22 A3001 RMK AO2 SLP148 T02610222 403280228

2010/08/08 04:55
KCGZ 080455Z AUTO 21006KT 10SM CLR 32/14 A2985 RMK AO1

2010/08/08 04:55
KCIU 080455Z AUTO 19005KT 10SM BKN095 17/15 A2978 RMK AO1

2010/08/08 04:55
KCOD 080455Z 16007KT 10SM CLR 16/07 A2995 RMK AO1

2010/08/08 04:55
KCOE 080455Z AUTO 25008KT 10SM CLR 21/08 A2980 RMK AO1

2010/08/08 04:55
KCVN 080455Z 17008KT 10SM CLR 24/15 A3002 RMK AO1

2010/08/08 04:55
KCVO 080455Z AUTO 29010KT 10SM BKN075 18/13 A2994 RMK AO1

2010/08/08 04:55
KCWI 080455Z 19006KT 10SM CLR 21/19 A2989 RMK AO1

2010/08/08 04:54
KDDH 080454Z AUTO 00000KT 10SM CLR 11/09 A3003 RMK AO2 SLP168 T01060094 402280100

2010/08/08 04:54
KDEC 080454Z AUTO 18007KT 9SM CLR 23/18 A2996 RMK AO2 SLP139 T02280178

2010/08/08 04:54
KDSV 080454Z AUTO 13008KT 10SM CLR 14/11 A3003 RMK AO2 SLP176 T01390111 402500111 $

2010/08/08 04:54
KDYL 080454Z AUTO 00000KT 10SM SCT075 19/16 A3001 RMK AO2 SLP158 T01890156 402940133 TSNO

2010/08/08 04:55
KDYR 080455Z AUTO 00000KT 10SM CLR 23/18 A2992 RMK AO1

2010/08/08 04:55
KEEN 080455Z AUTO 00000KT 10SM CLR 11/10 A3003 RMK AO1

2010/08/08 04:55
KEGE 080455Z AUTO 07004KT 10SM FEW060 16/14 A3021 RMK AO1 P0003

2010/08/08 04:55
KEHR 080455Z AUTO 00000KT 8SM CLR 18/14 A2997 RMK AO1

2010/08/08 04:55
KESC 080455Z AUTO 24006KT 10SM FEW110 22/18 A2975 RMK AO1

2010/08/08 04:54
KEUG 080454Z 04003KT 10SM FEW045 SCT090 19/14 A2992 RMK AO2 SLP131 T01940139

2010/08/08 04:55
KEUL 080455Z AUTO 20003KT 10SM CLR 22/11 A2978 RMK AO1

2010/08/08 04:54
KEVV 080454Z AUTO 05003KT 10SM CLR 20/17 A2997 RMK AO2 SLP143 T02000172

2010/08/08 04:55
KEWK 080455Z AUTO 16008KT 10SM CLR 27/20 A2983 RMK AO1

2010/08/08 04:54
KEWN 080454Z AUTO 00000KT 7SM CLR 26/24 A2998 RMK AO2 SLP151 T02560239 403170228

2010/08/08 04:55
KFAM 080455Z AUTO 15003KT 10SM CLR 23/18 A2998 RMK AO1

2010/08/08 04:54
KFIG 080454Z AUTO 00000KT 10SM CLR 12/11 A3006 RMK AO2 SLP175 T01220111 402560122

2010/08/08 04:55
KFKL 080455Z AUTO 00000KT 10SM CLR 16/12 A3007 RMK AO1

2010/08/08 04:55
KFLP 080455Z AUTO 00000KT 10SM BKN046 26/21 A2992 RMK AO1

2010/08/08 04:55
KFNL 080455Z AUTO 08008KT 10SM OVC110 24/09 A3002 RMK AO1

2010/08/08 04:55
KFOD 080455Z AUTO 20015G19KT 10SM CLR 25/22 A2979 RMK AO1

2010/08/08 04:55
KFRM 080455Z 20012KT 10SM CLR 25/22 A2976 RMK AO1

2010/08/08 04:55
KGAD 080455Z AUTO 00000KT 10SM SCT100 24/22 A2995 RMK AO1

2010/08/08 04:55
KGAI 080455Z 13003KT 10SM FEW075 SCT090 19/16 A3003 RMK AO1

2010/08/08 04:55
KGBD 080455Z AUTO 16007KT 10SM CLR 27/20 A2984 RMK AO1

2010/08/08 04:54
KGCK 080454Z AUTO 16007KT 10SM CLR 25/19 A2987 RMK AO2 SLP072 T02500194

2010/08/08 04:54
KGCN 080454Z AUTO 04004KT 10SM CLR 12/11 A3021 RMK AO2 SLP162 T01220106

2010/08/08 04:55
KGDV 080455Z AUTO 34006KT 10SM CLR 21/10 A2974 RMK AO1

2010/08/08 04:54
KGED 080454Z AUTO 16003KT 9SM CLR 21/20 A3001 RMK AO2 SLP161 T02060200 403110178

2010/08/08 04:55
KGTR 080455Z 00000KT 10SM CLR 26/24 A2992 RMK AO1

2010/08/08 04:55
KGTU 080455Z 18008KT 10SM CLR 29/21 A2994 RMK AO1

2010/08/08 04:55
KGUC 080455Z AUTO 00000KT 10SM FEW040 SCT049 BKN070 14/08 A3029 RMK AO1 P0003

2010/08/08 04:55
KGXY 080455Z AUTO 19005KT 10SM BKN110 23/14 A3001 RMK AO1 LTG DSNT E

2010/08/08 04:55
KHDN 080455Z 13006KT 10SM FEW045 SCT100 BKN120 13/11 A3020 RMK AO1

2010/08/08 04:55
KHEF 080455Z AUTO 00000KT 10SM CLR 18/16 A3001 RMK AO1

2010/08/08 04:55
KHEZ 080455Z AUTO 17004KT 10SM CLR 26/23 A2993 RMK AO1

2010/08/08 04:55
KHNB 080455Z AUTO 00000KT 10SM CLR 19/18 A2998 RMK AO1

2010/08/08 04:54
KHWD 080454Z AUTO 32008KT 10SM BKN011 14/12 A2986 RMK AO2 CIG 007V013 SLP121 T01440117 $

2010/08/08 04:55
KHYI 080455Z AUTO 18010KT 10SM CLR 28/23 A2992 RMK AO1

2010/08/08 04:55
KHYS 080455Z AUTO 19007KT 10SM CLR 27/19 A2985 RMK AO1

2010/08/08 04:55
KILE 080455Z AUTO 18009G15KT 10SM CLR 29/22 A2989 RMK AO1

2010/08/08 04:54
KILN 080454Z AUTO 00000KT 10SM CLR 18/15 A3001 RMK AO2 SLP156 T01780150 402780144

2010/08/08 04:54
KIMT 080454Z AUTO 19006KT 10SM -RA FEW045 20/19 A2976 RMK AO2 LTG DSNT S-W TSB30E53RAE01B30 SLP074 P0001 T02000189

2010/08/08 04:54
KIND 080454Z 17003KT 9SM CLR 22/17 A2997 RMK AO2 SLP140 T02220172 402940183

2010/08/08 04:54
KINT 080454Z 00000KT 10SM OVC080 23/17 A3003 RMK AO2 SLP157 T02330172 403000211

2010/08/08 04:54
KIPT 080454Z AUTO 35003KT 10SM FEW065 17/12 A3002 RMK AO2 SLP162 T01670122 402780139

2010/08/08 04:54
KISW 080454Z AUTO 19008KT 10SM CLR 23/20 A2981 RMK AO2 SLP088 T02330200 TSNO

2010/08/08 04:55
KIWD 080455Z AUTO 23004KT 6SM SCT060 BKN080 BKN110 20/19 A2974 RMK AO1 LTG DSNT S P0001

2010/08/08 04:54
KIZG 080454Z AUTO 00000KT 8SM CLR 08/08 A3001 RMK AO2 SLP163 T00830083 402390044

2010/08/08 04:55
KJAC 080455Z AUTO 32003KT 10SM CLR 12/04 A3008 RMK AO1

2010/08/08 04:55
KJHW 080455Z AUTO 18006KT 10SM CLR 14/12 A3003 RMK AO1

2010/08/08 04:54
KJST 080454Z AUTO 00000KT 10SM CLR 17/12 A3009 RMK AO2 SLP177 T01720122 402330128

2010/08/08 04:55
KKLS 080455Z AUTO 35003KT 10SM FEW016 OVC037 17/15 A2993 RMK AO1

2010/08/08 04:54
KLAF 080454Z AUTO 00000KT 8SM CLR 22/19 A2996 RMK AO2 SLP139 T02170189 402890156

2010/08/08 04:55
KLBL 080455Z 17011KT 10SM CLR 27/18 A2989 RMK AO1

2010/08/08 04:54
KLBT 080454Z AUTO 05003KT 5SM BR CLR 24/23 A2995 RMK AO2 SLP140 T02390228 403330228 $

2010/08/08 04:55
KLCI 080455Z AUTO 23005KT 10SM CLR 14/10 A2999 RMK AO1

2010/08/08 04:55
KLEW 080455Z 00000KT 10SM CLR 09/08 A3002 RMK AO1

2010/08/08 04:55
KLGD 080455Z AUTO 31011KT 10SM CLR 21/07 A2985 RMK AO1

2010/08/08 04:55
KLKV 080455Z AUTO 30005KT 10SM SCT120 17/02 A2997 RMK AO1

2010/08/08 04:54
KLNK 080454Z AUTO 18009KT 9SM CLR 26/23 A2978 RMK AO2 SLP072 T02560228

2010/08/08 04:54
KRSP 080454Z AUTO 28004KT 10SM CLR 21/13 A3006 RMK AO2 SLP172 T02110128 402720161 $

2010/08/08 04:54
KNKT 080454Z 11003KT 6SM BR CLR 24/23 A2997 RMK AO2 SLP144 T02440233 403110228

2010/08/08 04:55
KBAD 080455Z AUTO 16007KT 10SM CLR 27/24 A2988 RMK AO2 SLP119 T02700235

2010/08/08 04:55
KGSB 080455Z AUTO 00000KT 10SM FEW075 23/23 A2996 RMK AO2 SLP145 T02290229

2010/08/08 04:55
KHST 080455Z AUTO 00000KT 10SM CLR 27/24 A3000 RMK AO2 SLP160 T02740244 403380250

2010/08/08 04:52
KNHK 080452Z AUTO 00000KT 10SM CLR 22/18 A2999 RMK AO2 SLP157 T02220178 403000200

2010/08/08 04:55
KOFF 080455Z AUTO 16009KT 10SM CLR 27/23 A2979 RMK AO2 SLP068 T02720232 $

2010/08/08 04:55
KBAD 080455Z AUTO 16007KT 10SM CLR 27/24 A2988 RMK AO2 SLP119 T02700235

2010/08/08 04:53
KDTS 080453Z AUTO 00000KT 10SM CLR 27/23 A2990 RMK AO2 LTG DSNT S SLP126 T02670233

2010/08/08 04:55
KFFO 080455Z 00000KT 10SM FEW065 19/17 A3001 RMK AO2A SLP157 402880146

2010/08/08 04:55
KGRF 080455Z AUTO 17007KT 10SM FEW008 16/15 A2991 RMK AO2 SLP130 T01630154

2010/08/08 04:55
KGSB 080455Z AUTO 00000KT 10SM FEW075 23/23 A2996 RMK AO2 SLP145 T02290229

2010/08/08 04:55
KGUS 080455Z AUTO 16006KT 10SM CLR 20/20 A2997 RMK AO2 SLP144 T01970196 402790160

2010/08/08 04:55
KIAB 080455Z AUTO 13011KT 10SM CLR 29/22 A2985 RMK AO2 SLP090 T02850219 $

2010/08/08 04:55
KOFF 080455Z AUTO 16009KT 10SM CLR 27/23 A2979 RMK AO2 SLP068 T02720232 $

2010/08/08 04:55
KRIV 080455Z AUTO 27003KT 10SM CLR 18/12 A2991 RMK AO2 SLP123 T01770116

2010/08/08 04:55
KSUU 080455Z AUTO 25022KT 10SM CLR 15/11 A2975 RMK AO2 PK WND 25028/0446 SLP074 T01470114 RVRNO $

2010/08/08 04:54
KECG 080454Z AUTO 09003KT 6SM BR CLR 25/24 A2999 RMK AO2 SLP154 T02500239 403000233

2010/08/08 04:54
KFZY 080454Z AUTO 00000KT 10SM CLR 12/12 A2998 RMK AO2 SLP153 T01220117 402280094

2010/08/08 04:55
KBAD 080455Z AUTO 16007KT 10SM CLR 27/24 A2988 RMK AO2 SLP119 T02700235

2010/08/08 04:55
KBLV 080455Z AUTO 00000KT 10SM CLR 22/19 A2994 RMK AO2 SLP135 T02180189

2010/08/08 04:55
KCEF 080455Z AUTO 00000KT 10SM CLR 14/12 A3000 RMK AO2 SLP161 T01420117 402710113

2010/08/08 04:55
KDAA 080455Z AUTO 00000KT 10SM CLR 18/15 A3000 RMK AO2 SLP161 T01750155 403080171

2010/08/08 04:55
KFFO 080455Z 00000KT 10SM FEW065 19/17 A3001 RMK AO2A SLP157 402880146

2010/08/08 04:55
KGRF 080455Z AUTO 17007KT 10SM FEW008 16/15 A2991 RMK AO2 SLP130 T01630154

2010/08/08 04:55
KGSB 080455Z AUTO 00000KT 10SM FEW075 23/23 A2996 RMK AO2 SLP145 T02290229

2010/08/08 04:55
KGUS 080455Z AUTO 16006KT 10SM CLR 20/20 A2997 RMK AO2 SLP144 T01970196 402790160

2010/08/08 04:55
KHMN 080455Z AUTO 23005KT 10SM CLR 27/12 A2998 RMK AO2 SLP060 T02730117 $

2010/08/08 04:55
KHST 080455Z AUTO 00000KT 10SM CLR 27/24 A3000 RMK AO2 SLP160 T02740244 403380250

2010/08/08 04:55
KIAB 080455Z AUTO 13011KT 10SM CLR 29/22 A2985 RMK AO2 SLP090 T02850219 $

2010/08/08 04:55
KLRF 080455Z AUTO 00000KT 10SM FEW070 26/25 A2991 RMK AO2 SLP126 T02650251

2010/08/08 04:55
KMGE 080455Z AUTO 00000KT 10SM CLR 26/22 A2998 RMK AO2 SLP141 T02590222 403360222 VISNO RWY11 CHINO RWY11 $

2010/08/08 04:55
KMMT 080455Z AUTO 07003KT 7SM R32/4500V5500FT CLR 24/24 A2995 RMK AO2 SLP142 T02440239 403230215

2010/08/08 04:55
KSVN 080455Z AUTO 00000KT 3SM 25/24 A2993 RMK AO2 SLP135

2010/08/08 04:55
KAFF 080455Z AUTO 04007KT 10SM VCTS BKN095 17/13 A3012 RMK AO2 SLP073 T01730129

2010/08/08 04:55
KBIX 080455Z AUTO 00000KT 10SM VCTS FEW036 29/26 A2992 RMK AO2 RAB0404E0426 SLP132 P0007 T02900263 $

2010/08/08 04:55
KCBM 080455Z AUTO 34003KT 10SM FEW100 26/25 A2991 RMK AO2 SLP129 T02580249 $

2010/08/08 04:55
KDAA 080455Z AUTO 00000KT 10SM CLR 18/15 A3000 RMK AO2 SLP161 T01750155 403080171

2010/08/08 04:55
KDYS 080455Z AUTO 18008KT 10SM CLR 27/20 A2990 RMK AO2 SLP096 T02720195 $

2010/08/08 04:55
KFBG 080455Z 00000KT 10SM CLR 25/22 A2996 RMK AO2A SLP145 T02490223 403240231 $

2010/08/08 04:55
KLSF 080455Z AUTO 00000KT 10SM CLR 25/24 A2993 RMK AO2 SLP135 T02480237 403600235 PNO $

2010/08/08 04:55
KMTC 080455Z AUTO 19004KT 10SM SCT100 20/16 A2992 RMK AO2 SLP137 T02020163 402580131 $

2010/08/08 04:55
KMUI 080455Z AUTO 00000KT 10SM BKN065 BKN090 19/17 A3001 RMK AO2 SLP160 T01930173 402830193 $

2010/08/08 04:55
KMXF 080455Z AUTO 15004KT 10SM CLR 26/24 A2991 RMK AO2 SLP127 T02600240

2010/08/08 04:55
KOZR 080455Z AUTO 00000KT 10SM FEW230 24/24 A2993 RMK AO2 SLP133 T02440244

2010/08/08 04:55
KRND 080455Z AUTO 17009KT 10SM CLR 27/22 A2992 RMK AO2 SLP121 T02750221

2010/08/08 04:55
KVOK 080455Z 17003KT 10SM CLR 23/21 A2979 RMK AO2A SLP081 T02260209 $

2010/08/08 04:55
KVPS 080455Z 00000KT 9SM FEW020 SCT110 SCT250 25/24 A2992 RMK AO2A LTG DSNT S SLP131 T02500243 $

2010/08/08 04:52
KNHK 080452Z AUTO 00000KT 10SM CLR 22/18 A2999 RMK AO2 SLP157 T02220178 403000200

2010/08/08 04:55
KOFF 080455Z AUTO 16009KT 10SM CLR 27/23 A2979 RMK AO2 SLP068 T02720232 $

2010/08/08 04:55
KOZR 080455Z AUTO 00000KT 10SM FEW230 24/24 A2993 RMK AO2 SLP133 T02440244

2010/08/08 04:55
KRDR 080455Z AUTO 16004KT 9SM R17/5000VP6000FT CLR 21/21 A2964 RMK AO2 SLP051 T02080208 $

2010/08/08 04:55
KRIV 080455Z AUTO 27003KT 10SM CLR 18/12 A2991 RMK AO2 SLP123 T01770116

2010/08/08 04:55
KRND 080455Z AUTO 17009KT 10SM CLR 27/22 A2992 RMK AO2 SLP121 T02750221

2010/08/08 04:55
KSKF 080455Z AUTO 15012KT 10SM CLR 29/ A2991 RMK AO2 SLP117 T0286 $

2010/08/08 04:55
KSUU 080455Z AUTO 25022KT 10SM CLR 15/11 A2975 RMK AO2 PK WND 25028/0446 SLP074 T01470114 RVRNO $

2010/08/08 04:55
KSZL 080455Z AUTO 13003KT 10SM CLR 24/21 A2988 RMK AO2 SLP112 T02420214 PNO $

2010/08/08 04:55
KVOK 080455Z 17003KT 10SM CLR 23/21 A2979 RMK AO2A SLP081 T02260209 $

2010/08/08 04:55
KVPS 080455Z 00000KT 9SM FEW020 SCT110 SCT250 25/24 A2992 RMK AO2A LTG DSNT S SLP131 T02500243 $

2010/08/08 04:55
KWRI 080455Z AUTO 24005KT 10SM CLR 21/20 A2999 RMK AO2 SLP157 T02050195 403120147 $

2010/08/08 04:55
KAFF 080455Z AUTO 04007KT 10SM VCTS BKN095 17/13 A3012 RMK AO2 SLP073 T01730129

2010/08/08 04:55
KBIX 080455Z AUTO 00000KT 10SM VCTS FEW036 29/26 A2992 RMK AO2 RAB0404E0426 SLP132 P0007 T02900263 $

2010/08/08 04:55
KCBM 080455Z AUTO 34003KT 10SM FEW100 26/25 A2991 RMK AO2 SLP129 T02580249 $

2010/08/08 04:55
KCOF 080455Z AUTO 21007KT 10SM CLR 27/ A2996 RMK AO2 SLP146 T0267 403270254

2010/08/08 04:55
KDOV 080455Z AUTO 16004KT 10SM FEW095 23/22 A2999 RMK AO2 SLP158 T02260218 402960180

2010/08/08 04:55
KDYS 080455Z AUTO 18008KT 10SM CLR 27/20 A2990 RMK AO2 SLP096 T02720195 $

2010/08/08 04:55
KEDW 080455Z 21012KT 30SM CLR 22/06 A2984 RMK AO2A SLP060 T02240056

2010/08/08 04:55
KFBG 080455Z 00000KT 10SM CLR 25/22 A2996 RMK AO2A SLP145 T02490223 403240231 $

2010/08/08 04:55
KHIF 080455Z AUTO 11011KT 10SM CLR 21/08 A2995 RMK AO2 SLP025 T02140082

2010/08/08 04:55
KLHW 080455Z AUTO 00000KT 10SM CLR 25/24 A2992 RMK AO2 SLP133 T02470240 403280238

2010/08/08 04:55
KLSF 080455Z AUTO 00000KT 10SM CLR 25/24 A2993 RMK AO2 SLP135 T02480237 403600235 PNO $

2010/08/08 04:55
KMTC 080455Z AUTO 19004KT 10SM SCT100 20/16 A2992 RMK AO2 SLP137 T02020163 402580131 $

2010/08/08 04:55
KMUI 080455Z AUTO 00000KT 10SM BKN065 BKN090 19/17 A3001 RMK AO2 SLP160 T01930173 402830193 $

2010/08/08 04:55
KMUO 080455Z AUTO 34006KT 7SM R30/5000VP6000FT CLR 27/04 A2978 RMK AO2 SLP054 T02660042

2010/08/08 04:55
KMXF 080455Z AUTO 15004KT 10SM CLR 26/24 A2991 RMK AO2 SLP127 T02600240

2010/08/08 04:55
KDOV 080455Z AUTO 16004KT 10SM FEW095 23/22 A2999 RMK AO2 SLP158 T02260218 402960180

2010/08/08 04:55
KEDW 080455Z 21012KT 30SM CLR 22/06 A2984 RMK AO2A SLP060 T02240056

2010/08/08 04:55
KGTB 080455Z AUTO 16007KT 10SM CLR 15/11 A2997 RMK AO2 SLP148 T01510114 402220088

2010/08/08 04:55
KLHW 080455Z AUTO 00000KT 10SM CLR 25/24 A2992 RMK AO2 SLP133 T02470240 403280238

2010/08/08 04:55
KMUO 080455Z AUTO 34006KT 7SM R30/5000VP6000FT CLR 27/04 A2978 RMK AO2 SLP054 T02660042

2010/08/08 04:55
KSKF 080455Z AUTO 15012KT 10SM CLR 29/ A2991 RMK AO2 SLP117 T0286 $

2010/08/08 04:55
KSLI 080455Z AUTO 18003KT 7SM CLR 16/14 A2990 RMK AO2 SLP128 T01560136

2010/08/08 04:55
KTIK 080455Z 14006KT 10SM CLR 29/22 A2986 RMK AO2A SLP096 T02850225

2010/08/08 04:55
KWRI 080455Z AUTO 24005KT 10SM CLR 21/20 A2999 RMK AO2 SLP157 T02050195 403120147 $

2010/08/08 04:53
PABI 080453Z 32006KT 10SM FEW030 SCT050 BKN080 BKN180 17/09 A2969 RMK AO2 SLP055 SHRA DSNT SW-W T01720089 $

2010/08/08 04:55
PAEI 080455Z AUTO 00000KT 10SM CLR 16/11 A2966 RMK AO2 SLP046 T01640110 $

2010/08/08 04:55
KPOE 080455Z AUTO 19005KT 10SM CLR 28/24 A2992 RMK AO2 SLP130 T02780244 403500233

2010/08/08 04:55
KNKX 080455Z 27003KT 10SM SCT020 16/12 A2992 RMK AO2 SLP126 T01560117

2010/08/08 04:55
KBIX 080455Z AUTO 00000KT 10SM VCTS FEW036 29/26 A2992 RMK AO2 RAB0404E0426 SLP132 P0007 T02900263 $

2010/08/08 04:55
KCOF 080455Z AUTO 21007KT 10SM CLR 27/ A2996 RMK AO2 SLP146 T0267 403270254

2010/08/08 04:55
KDOV 080455Z AUTO 16004KT 10SM FEW095 23/22 A2999 RMK AO2 SLP158 T02260218 402960180

2010/08/08 04:53
KNIP 080453Z 27004KT 10SM BKN026 OVC150 25/24 A2995 RMK AO2 SLP136 T02500239 403440244

2010/08/08 04:53
KNQX 080453Z AUTO 17003KT 10SM FEW020 30/25 A2998 RMK AO2 SLP151 T03000250 403390283 $

2010/08/08 04:52
KNRB 080452Z AUTO 00000KT 10SM BKN029 BKN036 26/23 A2994 RMK AO2 SLP136 T02610233 403440250

2010/08/08 04:55
KPOB 080455Z AUTO 00000KT 10SM CLR 25/24 A2997 RMK AO2 SLP147 T02470240 403200230 $

2010/08/08 04:55
KSSC 080455Z 24005KT 10SM CLR 26/23 A2993 RMK AO2A SLP135 T02570233 403310224 $

2010/08/08 04:55
KVPS 080455Z 00000KT 9SM FEW020 SCT110 SCT250 25/24 A2992 RMK AO2A LTG DSNT S SLP131 T02500243 $

2010/08/08 04:55
KWRI 080455Z AUTO 24005KT 10SM CLR 21/20 A2999 RMK AO2 SLP157 T02050195 403120147 $

2010/08/08 04:55
KBAB 080455Z AUTO 17006KT 10SM CLR 24/12 A2973 RMK AO2 SLP067 T02380123 $

2010/08/08 04:55
KCOF 080455Z AUTO 21007KT 10SM CLR 27/ A2996 RMK AO2 SLP146 T0267 403270254

2010/08/08 04:55
KFTK 080455Z AUTO 00000KT 10SM CLR 21/17 A2999 RMK AO2 SLP149 T02110172 403040186 $

2010/08/08 04:55
KHIF 080455Z AUTO 11011KT 10SM CLR 21/08 A2995 RMK AO2 SLP025 T02140082

2010/08/08 04:55
KLTS 080455Z AUTO 16005KT 10SM CLR 27/22 A2985 RMK AO2 SLP089 T02650223 $

2010/08/08 04:54
KNFG 080454Z AUTO 00000KT 10SM BKN015 13/11 A2992 RMK AO2 SLP129 T01280106 TSNO $

2010/08/08 04:52
KNFW 080452Z AUTO 17008KT 10SM CLR 31/19 A2989 RMK AO2 SLP107 T03110194 $

2010/08/08 04:53
KNIP 080453Z 27004KT 10SM BKN026 OVC150 25/24 A2995 RMK AO2 SLP136 T02500239 403440244

2010/08/08 04:53
KNQX 080453Z AUTO 17003KT 10SM FEW020 30/25 A2998 RMK AO2 SLP151 T03000250 403390283 $

2010/08/08 04:52
KNRB 080452Z AUTO 00000KT 10SM BKN029 BKN036 26/23 A2994 RMK AO2 SLP136 T02610233 403440250

2010/08/08 04:55
KPOB 080455Z AUTO 00000KT 10SM CLR 25/24 A2997 RMK AO2 SLP147 T02470240 403200230 $

2010/08/08 04:55
KSSC 080455Z 24005KT 10SM CLR 26/23 A2993 RMK AO2A SLP135 T02570233 403310224 $

2010/08/08 04:55
PHHI 080455Z AUTO 07005KT 10SM FEW026 BKN041 OVC050 25/19 A3008 RMK AO2 SLP174 T02460191 $

2010/08/08 04:55
KCEF 080455Z AUTO 00000KT 10SM CLR 14/12 A3000 RMK AO2 SLP161 T01420117 402710113

2010/08/08 04:55
KGUS 080455Z AUTO 16006KT 10SM CLR 20/20 A2997 RMK AO2 SLP144 T01970196 402790160

2010/08/08 04:55
KVBG 080455Z AUTO 02005KT 10SM OVC007 13/12 A2991 RMK AO2 SLP121 T01280117 TSNO CHINO RWY12 VISNO RWY12 $

2010/08/08 04:56
KNJK 080456Z AUTO 28010KT 10SM CLR 31/03 A2969 RMK AO2 SLP070 T03110033 TSNO

2010/08/08 04:55
KEND 080455Z AUTO 13010KT 10SM CLR 29/22 A2984 RMK AO2 SLP085 T02880219 $

2010/08/08 04:55
KFAF 080455Z AUTO 11003KT 10SM -DZ CLR 24/24 A2999 RMK AO2 DZB0436 SLP156 P0000 T02410240 403090225 $

2010/08/08 04:55
KFRI 080455Z AUTO 16013G19KT 10SM CLR 29/22 A2981 RMK AO2 SLP078 T02860220 403580223

2010/08/08 04:55
KFSI 080455Z AUTO 14006KT 10SM CLR 30/22 A2984 RMK AO2 SLP081 T02970216

2010/08/08 04:55
KLFI 080455Z 10004KT 10SM SCT008 25/23 A3000 RMK AO2A SLP159 T02450233 402930230

2010/08/08 04:55
KMCF 080455Z AUTO 24003KT 10SM CLR 29/26 A2996 RMK AO2 SLP146 T02910262 403230264

2010/08/08 04:55
KMIB 080455Z AUTO 22005KT 10SM CLR 20/18 A2965 RMK AO2 SLP035 T01990179

2010/08/08 04:55
KPAM 080455Z AUTO 12003KT 10SM CLR 26/26 A2991 RMK AO2 DZE0404 SLP131 P0000 T02580256 $

2010/08/08 04:55
KRCA 080455Z AUTO 32003KT 10SM CLR 21/14 A2982 RMK AO2 SLP069 T02080142 $

2010/08/08 04:55
KSKA 080455Z AUTO 28008KT 10SM SCT150 20/08 A2982 RMK AO2 SLP083 T01960082

2010/08/08 04:55
MHSC 080455Z AUTO 11005KT 9999 BKN033 22/22 A3002 RMK AO2 SLP126 T02250218 $

2010/08/08 04:55
PAED 080455Z 22007KT 10SM FEW011 BKN047 OVC055 12/11 A2975 RMK AO2A SLP076 T01240106

2010/08/08 04:55
PGUA 080455Z AUTO 07011KT 10SM FEW015 SCT060 29/25 A2981 RMK AO2 SLP077 T02890245 VISNO RWY24L $

2010/08/08 04:55
PGUA 080455Z AUTO 07011KT 10SM FEW015 SCT060 29/25 A2981 RMK AO2 SLP077 T02890245 VISNO RWY24L $

2010/08/08 04:55
PHHI 080455Z AUTO 07005KT 10SM FEW026 BKN041 OVC050 25/19 A3008 RMK AO2 SLP174 T02460191 $

2010/08/08 04:53
PHNL 080453Z 06013KT 10SM FEW028 SCT040 SCT055 27/19 A3005 RMK AO2 SLP174 T02720194

2010/08/08 04:55
KNBG 080455Z AUTO 00000KT 10SM CLR 28/24 A2994 RMK AO2 SLP138 T02830244 PWINO $

2010/08/08 04:55
KADW 080455Z AUTO 18003KT 10SM CLR 21/16 A3000 RMK AO2 SLP161 T02080162 $

2010/08/08 04:55
KBAB 080455Z AUTO 17006KT 10SM CLR 24/12 A2973 RMK AO2 SLP067 T02380123 $

2010/08/08 04:55
KBKF 080455Z 16009KT 25SM SCT110 BKN220 20/14 A3005 RMK SLP100

2010/08/08 04:55
KCVS 080455Z AUTO 17004KT 10SM CLR 21/21 A3001 RMK AO2 SLP113 T02140214 $

2010/08/08 04:55
KEND 080455Z AUTO 13010KT 10SM CLR 29/22 A2984 RMK AO2 SLP085 T02880219 $

2010/08/08 04:55
KFAF 080455Z AUTO 11003KT 10SM -DZ CLR 24/24 A2999 RMK AO2 DZB0436 SLP156 P0000 T02410240 403090225 $

2010/08/08 04:55
KFRI 080455Z AUTO 16013G19KT 10SM CLR 29/22 A2981 RMK AO2 SLP078 T02860220 403580223

2010/08/08 04:55
KFSI 080455Z AUTO 14006KT 10SM CLR 30/22 A2984 RMK AO2 SLP081 T02970216

2010/08/08 04:55
KFTK 080455Z AUTO 00000KT 10SM CLR 21/17 A2999 RMK AO2 SLP149 T02110172 403040186 $

2010/08/08 04:55
KLFI 080455Z 10004KT 10SM SCT008 25/23 A3000 RMK AO2A SLP159 T02450233 402930230

2010/08/08 04:55
KLTS 080455Z AUTO 16005KT 10SM CLR 27/22 A2985 RMK AO2 SLP089 T02650223 $

2010/08/08 04:55
KMCF 080455Z AUTO 24003KT 10SM CLR 29/26 A2996 RMK AO2 SLP146 T02910262 403230264

2010/08/08 04:55
KMIB 080455Z AUTO 22005KT 10SM CLR 20/18 A2965 RMK AO2 SLP035 T01990179

2010/08/08 04:52
KNFW 080452Z AUTO 17008KT 10SM CLR 31/19 A2989 RMK AO2 SLP107 T03110194 $

2010/08/08 04:55
KMXF 080455Z AUTO 15004KT 10SM CLR 26/24 A2991 RMK AO2 SLP127 T02600240

2010/08/08 04:55
KOZR 080455Z AUTO 00000KT 10SM FEW230 24/24 A2993 RMK AO2 SLP133 T02440244

2010/08/08 04:55
KBIX 080455Z AUTO 00000KT 10SM VCTS FEW036 29/26 A2992 RMK AO2 RAB0404E0426 SLP132 P0007 T02900263 $

2010/08/08 04:55
KFBG 080455Z 00000KT 10SM CLR 25/22 A2996 RMK AO2A SLP145 T02490223 403240231 $

2010/08/08 04:55
KLRF 080455Z AUTO 00000KT 10SM FEW070 26/25 A2991 RMK AO2 SLP126 T02650251

2010/08/08 04:55
KMMT 080455Z AUTO 07003KT 7SM R32/4500V5500FT CLR 24/24 A2995 RMK AO2 SLP142 T02440239 403230215

2010/08/08 04:56
KAQV 080456Z AUTO 00000KT 10SM CLR 27/25 A2991 RMK AO2 SLP123 T02720250 403610233

2010/08/08 04:56
KNXP 080456Z AUTO 22010KT CLR 28/02 A2986 RMK AO2 SLP073 T02830017 $

2010/08/08 04:56
KPRN 080456Z AUTO 19003KT 10SM CLR 26/24 A2992 RMK AO2 TSE07 SLP125 T02560239 403560244 $

2010/08/08 04:56
KNTU 080456Z 00000KT 10SM FEW007 SCT060 24/23 A2998 RMK AO2 SLP155 T02390228 402940222 $

2010/08/08 04:56
KNQI 080456Z AUTO 16009KT 9SM CLR 29/24 A2990 RMK AO2 SLP122 T02890239

2010/08/08 04:56
KNUQ 080456Z 02007KT 10SM FEW012 15/12 A2986 RMK AO2 SLP115 T01500122

2010/08/08 04:56
KNGP 080456Z AUTO 20009G18KT 10SM CLR 28/26 A2990 RMK AO2 SLP123 T02830261 VISNO $

2010/08/08 04:56
KNCA 080456Z AUTO A2996 RMK AO2 SLP148 PWINO FZRANO TSNO $

2010/08/08 04:56
KNYG 080456Z AUTO 31005KT 10SM CLR 20/18 A3001 RMK AO2 SLP162 T02000178 402940194 $

2010/08/08 04:56
K9L2 080456Z AUTO 23017KT 10SM CLR 23/02 A2984 RMK AO2 SLP078 T02330022 $

2010/08/08 04:54
K1V4 080454Z AUTO 09/08 A3000 RMK AO2 SLP156 T00940083 402060067 PWINO TSNO

2010/08/08 04:54
KMQE 080454Z AUTO 23006KT 19/13 A3002 RMK AO1 SLP174 T01940128 402610144

2010/08/08 04:54
KDMH 080454Z AUTO 26/15 A3000 RMK AO2 SLP159 T02560150 403110228 PWINO TSNO

2010/08/08 04:54
KAVP 080454Z 11003KT 10SM CLR 17/12 A3002 RMK AO2 SLP154 T01720117 402830144

2010/08/08 04:54
K12N 080454Z AUTO 00000KT 16/15 A3002 RMK AO2 SLP159 T01610150 402780128 PWINO TSNO

2010/08/08 04:54
KRIC 080454Z 00000KT 10SM CLR 23/17 A3000 RMK AO2 SLP161 T02280172 403110200

2010/08/08 04:54
KROA 080454Z 00000KT 10SM BKN080 23/17 A3006 RMK AO2 SLP166 T02280172 402940167 $

2010/08/08 04:54
KBUF 080454Z 17005KT 10SM FEW070 SCT085 BKN250 17/11 A2997 RMK AO2 SLP148 T01670106 402330117

2010/08/08 04:54
KCOS 080454Z 11013KT 10SM SCT120 22/12 A3010 RMK AO2 SLP087 T02170122

2010/08/08 04:54
KCRW 080454Z 00000KT 8SM CLR 19/17 A3002 RMK AO2 SLP158 VLY FG T01890172 402940178

2010/08/08 04:54
KDSM 080454Z 19008KT 10SM CLR 26/21 A2983 RMK AO2 SLP092 T02560211

2010/08/08 04:55
KDVL 080455Z AUTO 11006KT 10SM CLR 23/18 A2966 RMK AO1

2010/08/08 04:55
KEAR 080455Z AUTO 17009KT 10SM CLR 26/21 A2983 RMK AO1

2010/08/08 04:55
KGPZ 080455Z AUTO 09003KT 10SM CLR 20/18 A2971 RMK AO1

2010/08/08 04:54
KLEX 080454Z 12003KT 10SM CLR 22/14 A3001 RMK AO2 SLP151 T02170144 403000161

2010/08/08 04:54
KLYH 080454Z AUTO 00000KT 9SM CLR 19/18 A3004 RMK AO2 SLP163 T01890178 402940161

2010/08/08 04:54
KORH 080454Z AUTO 21004KT 10SM CLR 17/09 A3003 RMK AO2 SLP168 T01720094 402440133

2010/08/08 04:54
KPIA 080454Z 19007KT 7SM CLR 23/19 A2992 RMK AO2 SLP126 T02280189

2010/08/08 04:54
KFWA 080454Z 20003KT 10SM CLR 19/17 A2998 RMK AO2 SLP148 T01940172 402720150

2010/08/08 04:54
KCOU 080454Z AUTO 13005KT 10SM CLR 23/21 A2992 RMK AO2 SLP121 T02330211 TSNO

2010/08/08 04:54
KMTP 080454Z AUTO 16004KT 22/19 A3004 RMK AO2 SLP170 T02220194 402610183 PWINO TSNO

2010/08/08 04:54
KNAK 080454Z AUTO 00000KT 10SM CLR 23/18 A2999 RMK AO2 SLP157 T02280178 402830217 TSNO

2010/08/08 04:54
KACY 080454Z 16004KT 10SM FEW100 23/21 A3003 RMK AO2 SLP167 T02330206 403000156

2010/08/08 04:54
KGSO 080454Z 00000KT 8SM CLR 23/19 A3003 RMK AO2 SLP156 T02280189 403060217

2010/08/08 04:54
KROC 080454Z 22005KT 10SM FEW080 SCT200 14/11 A2999 RMK AO2 SLP155 T01440111 402330106 $

2010/08/08 04:54
KSUS 080454Z 00000KT 8SM CLR 25/18 A2991 RMK AO2 SLP119 T02500183

2010/08/08 04:54
KSYR 080454Z 15003KT 10SM FEW250 16/12 A2999 RMK AO2 SLP151 T01560117 402440122

2010/08/08 04:54
KWAL 080454Z AUTO 00000KT 10SM CLR 23/21 A3001 RMK AO2 SLP159 T02330211 402940206 TSNO

2010/08/08 04:55
KSCK 080455Z AUTO 31005KT 10SM CLR 22/13 A2976 RMK AO2 SLP076 T02170128 $

2010/08/08 04:55
KDRA 080455Z AUTO 12010KT 10SM FEW110 28/07 A2984 RMK AO2 SLP058 T02780072 TSNO $

2010/08/08 04:55
KMBG 080455Z AUTO 10004KT 10SM CLR 19/15 A2967 RMK AO2 SLP037 T01890150 TSNO

2010/08/08 04:55
KINL 080455Z AUTO 00000KT 10SM FEW090 17/16 A2971 RMK AO2 SLP059 T01720156

2010/08/08 04:55
KAST 080455Z AUTO 25003KT 2 1/2SM -RA BR BKN005 OVC013 15/14 A2995 RMK AO2 RAB40 SLP140 P0001 T01500144

2010/08/08 04:53
KDAB 080453Z 00000KT 10SM FEW015 SCT140 OVC250 26/24 A2995 RMK AO2 RAE01 SLP141 P0000 T02610244 403170250

2010/08/08 04:53
KSAV 080453Z 36003KT 8SM FEW015 25/24 A2993 RMK AO2 SLP134 T02500239 403280239

2010/08/08 04:54
KRFD 080454Z 19006KT 10SM CLR 21/18 A2990 RMK AO2 SLP119 T02110183

2010/08/08 04:55
KANJ 080455Z AUTO 08004KT 10SM OVC019 19/16 A2977 RMK AO2 SLP077 T01890161 402500072

2010/08/08 04:56
KSHV 080456Z 18006KT 10SM BKN290 28/24 A2988 RMK AO2 SLP112 T02830239

2010/08/08 04:54
KAKQ 080454Z AUTO 00000KT 8SM CLR 20/18 A3000 RMK AO2 SLP157 T02000178 403170194 TSNO $

2010/08/08 04:56
TJSJ 080456Z 10007G14KT 10SM SCT025 SCT036 28/24 A2997 RMK AO2 SLP149 VCSH SW T02830239

2010/08/08 04:53
KLAX 080453Z 27008KT 10SM BKN012 16/12 A2990 RMK AO2 SLP125 T01610122

2010/08/08 04:53
K4BM 080453Z AUTO 15005KT 10SM VCTS 10/06 A3050 RMK AO2 LTG DSNT S THRU NW

2010/08/08 04:53
PHJR 080453Z VRB05KT 10SM CLR 27/19 A3006 RMK AO2 SLP184 T02720189

2010/08/08 04:54
PHMK 080454Z AUTO 04012G19KT 10SM CLR 24/21 A3006 RMK AO2 SLP182 T02440206 TSNO

2010/08/08 04:55
KFMH 080455Z AUTO 20007KT 10SM CLR 19/19 A3004 RMK AO2

2010/08/08 04:55
KHFF 080455Z AUTO 00000KT 10SM FEW085 24/23 A2998 RMK AO2 SLP150 T02420226 403220225 $

2010/08/08 04:55
KNQA 080455Z AUTO 00000KT 10SM BKN055 OVC070 26/23 A2992 RMK

2010/08/08 04:55
KO22 080455Z AUTO 00000KT 10SM CLR 20/09 A2985 RMK AO1

2010/08/08 04:55
KPVF 080455Z AUTO 00000KT 10SM CLR 20/10 A2989 RMK AO1

2010/08/08 04:55
KRCE 080455Z AUTO 15010KT 10SM CLR 29/23 A2987 RMK AO2

2010/08/08 04:56
KRDM 080456Z AUTO 31008KT 10SM CLR 19/08 A2993 RMK AO2 SLP112 T01890083 $

2010/08/08 04:56
KSBP 080456Z AUTO 32006KT 10SM FEW014 13/11 A2990 RMK AO2 SLP126 T01280111 $

2010/08/08 04:56
KSLE 080456Z AUTO 30008KT 10SM FEW043 BKN070 20/14 A2991 RMK AO2 SLP126 T02000139

2010/08/08 04:56
KSRC 080456Z AUTO 00000KT CLR 26/24 A2992 RMK AO2 TSNO T02610244 403500233 SLP133 $

2010/08/08 04:56
KTPH 080456Z AUTO 00000KT 10SM CLR 18/M13 A2999 RMK AO2 SLP081 T01831128

2010/08/08 04:55
KTTS 080455Z 21005KT 10SM FEW020 BKN170 OVC200 27/25 A2995 RMK SLP142 1CU /1/ 5AC 2CS /8/

2010/08/08 04:56
KUKI 080456Z AUTO 00000KT 10SM CLR 21/11 A2981 RMK AO2 SLP086 T02060111

2010/08/08 04:55
KVQQ 080455Z AUTO 00000KT 10SM SCT021 24/24 A2994 RMK AO2

2010/08/08 04:56
KWJF 080456Z 23013G19KT 10SM CLR 23/04 A2987 RMK AO2 SLP093 T02280039

2010/08/08 04:56
PAAK 080456Z AUTO 20012G15KT 4SM OVC007 11/08 A2941 RMK AO1 PNO

2010/08/08 04:56
PACM 080456Z AUTO 18005KT 10SM BKN019 OVC030 13/09 A2964 RMK AO2 TSNO T01270094 SLP032 $

2010/08/08 04:56
PAHP 080456Z AUTO 14008KT 10SM SCT008 OVC032 11/08 A2961 RMK AO1 PNO TSNO

2010/08/08 04:55
K0A9 080455Z AUTO 00000KT 8SM CLR 17/16 A3004 RMK

2010/08/08 04:56
K1M4 080456Z AUTO 00000KT 6SM BR FEW090 24/24 A2997 RMK AO2 T02440238 403380222 SLP143

2010/08/08 04:56
KAND 080456Z AUTO 00000KT 9SM CLR 24/21 A2998 RMK AO2 SLP141 T02440211 403170222

2010/08/08 04:55
KARW 080455Z AUTO 00000KT 4SM BR CLR 25/24 A2992 RMK AO2

2010/08/08 04:55
KBDN 080455Z AUTO 36006KT 10SM CLR 18/09 A2997 RMK AO2

2010/08/08 04:55
KBKN 080455Z AUTO 14011G14KT 10SM CLR 28/23 A2982 RMK AO2

2010/08/08 04:56
KCEC 080456Z AUTO 30008KT 1 3/4SM BR BKN001 OVC006 13/13 A2992 RMK AO2 SLP133 T01330128

2010/08/08 04:56
KDIK 080456Z AUTO 00000KT 10SM CLR 19/14 A2974 RMK AO2 SLP053 T01890144

2010/08/08 04:56
KDUG 080456Z AUTO 35011KT 10SM FEW044 23/18 A3010 RMK AO2 LTG DSNT N TSB10E25 SLP127 T02280178

2010/08/08 04:56
KDUJ 080456Z AUTO 00000KT 10SM CLR 14/11 A3006 RMK AO2 SLP169 T01440111 402390133

2010/08/08 04:56
KEAU 080456Z AUTO 20009KT 10SM FEW070 26/22 A2970 RMK AO2 SLP051 T02560217

2010/08/08 04:56
KEED 080456Z AUTO 17017G25KT 10SM CLR 36/14 A2971 RMK AO2 SLP024 T03560144 TSNO

2010/08/08 04:55
KEIK 080455Z AUTO 00000KT 10SM CLR 21/12 A3002 RMK AO2 LTG DSNT SE

2010/08/08 04:56
KEKO 080456Z AUTO 02006KT 10SM CLR 24/01 A2990 RMK AO2 SLP059 T02390011

2010/08/08 04:56
KGRD 080456Z AUTO 00000KT 10SM CLR 24/22 A2998 RMK AO2 SLP145 T02390222 403220222

2010/08/08 04:56
KHND 080456Z AUTO 16012KT 10SM CLR 31/13 A2982 RMK AO2 T03110133 LTG DSNT SW AND NW SLP041

2010/08/08 04:55
KHVS 080455Z AUTO 00000KT 7SM SCT095 22/ A2997 RMK AO2

2010/08/08 04:55
KIFP 080455Z AUTO 14013KT 10SM CLR 35/14 A2969 RMK AO2 LTG DSNT SW

2010/08/08 04:56
KIGX 080456Z AUTO 00000KT 9SM SCT075 23/19 A3001 RMK AO2 SLP154 T02330189 403220217

2010/08/08 04:53
KIYK 080453Z 25007KT 20SM SKC 28/ A2978 RMK LAST

2010/08/08 04:56
KJMS 080456Z AUTO 00000KT 10SM CLR 22/20 A2967 RMK AO2 SLP039 T02170200

2010/08/08 04:56
KLAS 080456Z 17013G20KT 10SM FEW120 SCT150 33/13 A2975 RMK AO2 SLP042 LTG DSNT N AND S AND W T03280133

2010/08/08 04:56
KLNR 080456Z AUTO VRB03KT 9SM CLR 23/18 A2982 RMK AO2 SLP088 T02330183

2010/08/08 04:56
KM19 080456Z AUTO 10003KT 10SM CLR 26/22 A2992 RMK AO2 T02610216 403270216 SLP127

2010/08/08 04:55
KMKS 080455Z AUTO 00000KT 4SM BR CLR 23/23 A2993 RMK AO2 TSNO

2010/08/08 04:56
KMQY 080456Z AUTO 00000KT 10SM CLR 22/19 A2997 RMK AO2 T02220194 SLP137 $

2010/08/08 04:55
KX40 080455Z AUTO 00000KT 7SM -TSRA SCT030 BKN042 OVC055 28/27 A2996 RMK AO2 LTG DSNT SW THRU NW P0001 T02780266

2010/08/08 04:53
PASC 080453Z 07021KT 10SM OVC005 04/03 A2975 RMK AO2 PK WND 07029/0428 SLP076 T00390028

2010/08/08 04:54
PAHN 080454Z AUTO 07008G15KT 10SM BKN015 OVC020 13/11 A2982 RMK AO2 SLP099 T01330106 TSNO

2010/08/08 04:54
PAKN 080454Z 21005KT 10SM BKN012 BKN045 11/09 A2978 RMK AO2 SLP083 T01110094

2010/08/08 04:50
PAMX 080450Z 00000KT 25SM FEW045 BKN060 OVC070 14/09 A2974 RMK MAX19 LAST

2010/08/08 04:53
KRTN 080453Z AUTO 00000KT 10SM CLR 20/12 A3012 RMK AO2 SLP094 T02000122 TSNO

2010/08/08 04:54
KBOS 080454Z 00000KT 10SM CLR 18/12 A3002 RMK AO2 SLP164 T01830122 402720167

2010/08/08 04:53
KPBI 080453Z COR 21004KT 10SM FEW039 SCT090 27/24 A2996 RMK AO2 SLP144 T02720256 403280256 $

2010/08/08 04:56
KSDF 080456Z 00000KT 9SM CLR 24/16 A2998 RMK AO2 SLP145 T02440156 403220200 $

2010/08/08 04:56
K20V 080456Z AUTO 00000KT 10SM DZ BKN080 OVC090 15/08 A3027 RMK AO2

2010/08/08 04:52
K5SM 080452Z AUTO 00000KT 7SM 09/08 A3046 RMK AO2 LTG DSNT E

2010/08/08 04:54
K7BM 080454Z AUTO 28014G23KT 10SM SCT090 BKN110 15/06 A3037 RMK AO2 LTG DSNT N AND NE

2010/08/08 04:53
KAIT 080453Z AUTO 00000KT 7SM CLR 19/17 A2967 RMK AO2 LTG DSNT SE

2010/08/08 04:53
KBBB 080453Z AUTO 21006KT 10SM VCTS SCT042 SCT050 26/24 A2969 RMK AO2 LTG DSNT E AND SE

2010/08/08 04:58
KBDU 080458Z AUTO 24003KT 10SM SCT120 26/12 A3003 RMK AO2 LTG DSNT S

2010/08/08 04:53
KBFI 080453Z COR 18004KT 10SM BKN010 OVC041 18/16 A2991 RMK AO2 SLP127 T01780156

2010/08/08 04:58
KBJC 080458Z AUTO 31005KT 10SM CLR 23/08 A3006 RMK AO2 LTG DSNT S

2010/08/08 04:56
KBMI 080456Z AUTO 18007KT 8SM CLR 21/18 A2996 RMK AO2 PWINO T02110183 SLP130 $

2010/08/08 04:56
KBOK 080456Z AUTO 00000KT 6SM BR OVC003 14/13 A2993 RMK AO2 T01380133 SLP136

2010/08/08 04:57
KCCU 080457Z AUTO 18013G17KT 7SM VCTSRA BKN016 BKN035 OVC060 08/05 A3057 RMK AO2 LTG DSNT E THRU S

2010/08/08 04:55
KCMA 080455Z AUTO 00000KT 10SM OVC010 16/13 A2989 RMK AO2 SLP130 T01610128 TSNO

2010/08/08 04:53
KDEN 080453Z COR 15011G23KT 10SM SCT110 BKN200 20/16 A3004 RMK AO2 SLP085 T02000156

2010/08/08 04:55
KEAT 080455Z AUTO 32009KT 10SM BKN100 18/13 A2983 RMK AO2 RAE16 SLP094 P0000 T01830128

2010/08/08 04:53
KFFM 080453Z AUTO 07004KT 10SM CLR 21/19 A2963 RMK AO2 LTG DSNT SE

2010/08/08 04:54
KFGN 080454Z AUTO 14003KT 10SM CLR 21/17 A2969 RMK AO2

2010/08/08 04:53
KFLL 080453Z COR 00000KT 10SM FEW035 28/24 A2997 RMK AO2 SLP150 T02830244 403280261 PNO $

2010/08/08 04:52
KGDB 080452Z AUTO 16004KT 7SM VCTS SCT060 SCT070 24/23 A2967 RMK AO2 LTG DSNT NE T02400228

2010/08/08 04:53
KGHW 080453Z AUTO 17004KT 10SM VCTS CLR 22/19 A2970 RMK AO2 LTG DSNT SE

2010/08/08 04:55
KFMH 080455Z AUTO 20007KT 10SM CLR 19/19 A3004 RMK AO2

2010/08/08 04:55
KLLJ 080455Z AUTO 29005KT 10SM FEW090 18/04 A2991 RMK AO2 SLP072 T01830044 $

2010/08/08 04:55
KMGG 080455Z AUTO 21005KT 10SM VCTS SCT018 BKN038 OVC046 26/22 A2970 RMK AO2 LTG DSNT ALQS T02570217

2010/08/08 04:48
KMOX 080448Z AUTO 00000KT 7SM SCT048 BKN065 24/24 A2962 RMK AO2 LTG DSNT SE

2010/08/08 04:53
KMWM 080453Z AUTO 19012KT 10SM CLR 25/22 A2972 RMK AO2 LTG DSNT N

2010/08/08 04:53
KOVE 080453Z AUTO 14007KT 10SM CLR 27/13 A2974 RMK AO2 SLP073 T02670128 TSNO $

2010/08/08 04:53
KPNM 080453Z AUTO 15005KT 10SM VCTS BKN022 19/18 A2972 RMK AO2 P0003 LTG DSNT ALQDS

2010/08/08 04:53
KPQN 080453Z AUTO 21010KT 10SM CLR 25/23 A2972 RMK AO2

2010/08/08 04:53
KPWC 080453Z AUTO 14004KT 10SM CLR 18/18 A2971 RMK AO2

2010/08/08 04:53
KRIL 080453Z AUTO 00000KT 10SM FEW060 BKN110 17/13 A3015 RMK AO2 SLP142 T01720133 TSNO

2010/08/08 04:53
KSGR 080453Z AUTO 17006KT 10SM CLR 27/24 A2991 RMK AO2 SLP135 T02670244 TSNO

2010/08/08 04:53
KTWM 080453Z AUTO 00000KT 10SM VCTS SCT011 BKN030 BKN055 18/14 A2974 RMK AO2 LTG DSNT NW THRU NE

2010/08/08 04:55
KULM 080455Z AUTO 19009KT 10SM CLR 24/22 A2969 RMK AO2 LTG DSNT NW

2010/08/08 04:50
KWYS 080450Z AUTO 14004KT 10SM OVC110 10/09 A3009 RMK AO2

2010/08/08 04:55
PTTP 080455Z 08008KT 15SM SCT018 OVC300 31/25 A2977 RMK SLP079 T03060246

2010/08/08 04:54
PGSN 080454Z 07013KT 10SM FEW022 SCT060 31/24 A2980 RMK AO2 SLP089 T03060244 $

2010/08/08 04:54
PGUM 080454Z 08012KT 10SM FEW022TCU SCT050 31/25 A2980 RMK AO2 RAB38E47 SLP083 TCU NE MOV W P0000 T03060250 $

2010/08/08 04:50
PTKK 080450Z VRB05KT 15SM FEW014CB SCT120 OVC280 32/26 A2974 RMK CB N SLP072 T03190256

2010/08/08 04:55
PGRO 080455Z 08010KT 7SM SCT020 30/25 A2980

2010/08/08 04:55
KLPC 080455Z AUTO 00000KT 10SM OVC012 14/11 A2991 RMK AO1 PNO

2010/08/08 04:54
KLWM 080454Z AUTO 00000KT 10SM CLR 15/08 A3003 RMK AO2 SLP169 T01500083 402780117

2010/08/08 04:54
KLWT 080454Z AUTO 00000KT 10SM CLR 19/10 A2983 RMK AO2 SLP060 T01940100

2010/08/08 04:55
KMBL 080455Z AUTO 23006KT 10SM SCT035 OVC044 24/18 A2982 RMK AO1

2010/08/08 04:54
KMFI 080454Z AUTO 19011KT 10SM FEW080 23/21 A2978 RMK AO2 SLP078 T02280206

2010/08/08 04:54
KMGJ 080454Z AUTO 00000KT 10SM CLR 14/12 A3000 RMK AO2 SLP158 T01390117 402780122

2010/08/08 04:54
KMIV 080454Z AUTO 00000KT 10SM CLR 19/17 A2999 RMK AO2 SLP155 T01940172 403000144

2010/08/08 04:55
KMJX 080455Z AUTO 00000KT 10SM CLR 17/14 A3002 RMK AO1

2010/08/08 04:54
KMKC 080454Z 17007KT 10SM CLR 28/21 A2985 RMK AO2 SLP098 T02830206

2010/08/08 04:55
KMKT 080455Z AUTO 20009KT 10SM SCT048 OVC060 25/22 A2971 RMK AO1

2010/08/08 04:55
KMML 080455Z AUTO 21012KT 10SM CLR 26/23 A2967 RMK AO1

2010/08/08 04:55
KMNM 080455Z AUTO 25005KT 8SM FEW120 22/19 A2976 RMK AO1

2010/08/08 04:54
KMOT 080454Z AUTO 21007KT 10SM CLR 23/18 A2966 RMK AO2 SLP034 T02280178

2010/08/08 04:55
KMRF 080455Z AUTO 00000KT 10SM CLR A3009 RMK AO1

2010/08/08 04:54
KMRY 080454Z AUTO 25007KT 10SM OVC006 13/11 A2991 RMK AO2 SLP140 T01280106

2010/08/08 04:55
KMSV 080455Z AUTO 00000KT 10SM CLR 13/09 A3005 RMK AO1

2010/08/08 04:55
KMTW 080455Z 21007KT 10SM CLR 23/18 A2980 RMK AO1

2010/08/08 04:54
KMVL 080454Z AUTO 00000KT 10SM CLR 09/08 A3002 RMK AO2 SLP167 T00890078 402060067

2010/08/08 04:55
KMVN 080455Z AUTO 00000KT 6SM CLR 18/16 A2996 RMK AO1

2010/08/08 04:55
KOCH 080455Z AUTO 00000KT 10SM CLR 29/23 A2989 RMK AO1

2010/08/08 04:54
KOFP 080454Z AUTO 00000KT 10SM CLR 21/18 A3002 RMK AO2 SLP161 T02110178 403220194

2010/08/08 04:55
KOKK 080455Z AUTO 00000KT 8SM CLR 20/14 A2998 RMK AO1

2010/08/08 04:54
KOLM 080454Z AUTO 21009KT 10SM BKN048 16/14 A2992 RMK AO2 SLP132 T01610144

2010/08/08 04:54
KOLS 080454Z AUTO 02004KT 10SM FEW090 SCT120 20/18 A3008 RMK AO2 RAE30 SLP124 P0001 T02000178

2010/08/08 04:55
KOLU 080455Z AUTO 18010G15KT 10SM CLR 27/22 A2978 RMK AO1

2010/08/08 04:55
KOTG 080455Z AUTO 19012KT 10SM CLR 24/18 A2976 RMK AO1

2010/08/08 04:55
KOTH 080455Z 35005KT 2SM OVC004 15/15 A2999 RMK AO1

2010/08/08 04:53
KPBI 080453Z COR 21004KT 10SM FEW039 SCT090 27/24 A2996 RMK AO2 SLP144 T02720256 403280256 $

2010/08/08 04:54
KPHF 080454Z 00000KT 1/2SM FG VV001 22/22 A3000 RMK AO2 SLP158 T02170217 403060211 RVRNO

2010/08/08 04:54
KPHL 080454Z 18006KT 10SM FEW100 SCT250 24/20 A3001 RMK AO2 SLP162 T02390200 403110194 $

2010/08/08 04:55
KPIB 080455Z AUTO 22003KT 10SM CLR 26/22 A2994 RMK AO1

2010/08/08 04:54
KPLN 080454Z AUTO 10003KT 2 1/2SM -RA BR FEW009 BKN036 OVC070 18/17 A2979 RMK AO2 RAB38 SLP084 P0011 T01830172 402610056

2010/08/08 04:54
KPNE 080454Z 00000KT 10SM CLR 23/19 A3002 RMK AO2 SLP165 T02330194 403060172

2010/08/08 04:55
KPQI 080455Z AUTO 22004KT 10SM CLR 09/04 A2992 RMK AO1

2010/08/08 04:55
KPRX 080455Z 12005KT 10SM CLR 28/24 A2986 RMK AO1 LTG DSNT N

2010/08/08 04:54
KPSF 080454Z AUTO 00000KT 10SM CLR 12/11 A3003 RMK AO2 SLP152 T01170106 402390117

2010/08/08 04:55
KPTN 080455Z AUTO 00000KT 10SM CLR 26/16 A2996 RMK AO1

2010/08/08 04:55
KPTV 080455Z AUTO 23005KT 10SM CLR 24/08 A2978 RMK AO1

2010/08/08 04:54
KPTW 080454Z AUTO 00000KT 10SM BKN065 OVC090 21/16 A3002 RMK AO2 SLP162 T02110161 403000150

2010/08/08 04:55
KPVC 080455Z 20005KT 10SM CLR 19/17 A3004 RMK AO1

2010/08/08 04:50
KPVJ 080450Z AUTO 15004KT 10SM CLR 29/22 A2985 RMK AO2

2010/08/08 04:55
KPVU 080455Z 13012KT 10SM CLR 22/10 A3000 RMK AO1

2010/08/08 04:55
KPWG 080455Z AUTO 18007KT 10SM CLR 29/19 A2988 RMK AO1

2010/08/08 04:55
KPWT 080455Z AUTO 18005KT 10SM BKN011 15/13 A2993 RMK AO1

2010/08/08 04:54
KRBL 080454Z AUTO 19004KT 10SM CLR 27/13 A2973 RMK AO2 SLP063 T02720133

2010/08/08 04:54
KRDG 080454Z 00000KT 10SM FEW070 22/17 A3000 RMK AO2 SLP160 T02170167 403000156

2010/08/08 04:55
KRKD 080455Z AUTO 00000KT 10SM CLR 11/08 A3002 RMK AO1

2010/08/08 04:54
KRKS 080454Z AUTO 17015KT 10SM CLR 16/06 A3011 RMK AO2 SLP111 T01610056

2010/08/08 04:54
KRST 080454Z AUTO 20011KT 8SM VCTS FEW080 24/22 A2978 RMK AO2 TSB44 SLP075 T02440217

2010/08/08 04:53
KBTR 080453Z 24008KT 10SM FEW040 SCT250 28/25 A2992 RMK AO2 SLP130 T02830250

2010/08/08 04:54
KBTV 080454Z 00000KT 10SM CLR 13/11 A2998 RMK AO2 SLP152 T01280106 402220094

2010/08/08 04:53
KCHA 080453Z 00000KT 10SM CLR 26/22 A2996 RMK AO2 SLP137 T02560222 403500217

2010/08/08 04:55
KCNK 080455Z AUTO 17011KT 10SM CLR 28/21 A2981 RMK AO2 SLP074 T02780211

2010/08/08 04:53
KDAB 080453Z 00000KT 10SM FEW015 SCT140 OVC250 26/24 A2995 RMK AO2 RAE01 SLP141 P0000 T02610244 403170250

2010/08/08 04:55
KDLH 080455Z 09005KT 5SM -TSRA BR FEW004 BKN031CB OVC046 18/16 A2974 RMK AO2 SLP068 FRQ LTGICCC OHD AND N-E-S TS N-E-S MOV E P0075 T01780161

2010/08/08 04:55
KGPI 080455Z 30004KT 10SM CLR 17/09 A2980 RMK AO2 SLP077 T01720089

2010/08/08 04:56
KCHS 080456Z 00000KT 7SM CLR 26/24 A2994 RMK AO2 SLP137 T02560239 403280233

2010/08/08 04:56
KABQ 080456Z 33009KT 10SM SCT095 23/12 A3012 RMK AO2 SLP106 T02280122

2010/08/08 04:55
KHON 080455Z AUTO 25006KT 10SM CLR 26/21 A2966 RMK AO2 SLP031 T02560211 TSNO

2010/08/08 04:55
KPHP 080455Z AUTO 30004KT 10SM CLR 21/17 A2974 RMK AO2 SLP048 T02110172 TSNO

2010/08/08 04:55
KIRK 080455Z AUTO 18007KT 10SM CLR 23/21 A2991 RMK AO2 SLP120 T02330211

2010/08/08 04:55
KLIC 080455Z AUTO 06013KT 10SM FEW120 19/13 A3004 RMK AO2 SLP085 T01890128

2010/08/08 04:53
KLXV 080453Z AUTO 08010KT 3SM -RA BR SCT031 BKN044 OVC065 09/08 A3040 RMK AO2 RAB06 SLP122 P0010 T00890083 TSNO

2010/08/08 04:55
KMKG 080455Z 20009KT 10SM SCT060 25/22 A2987 RMK AO2 SLP110 T02500217 402830161

2010/08/08 04:56
KMOB 080456Z 00000KT 10SM TS FEW025CB SCT045 27/24 A2992 RMK AO2 TSB12 SLP129 CONS LTGICCG SW TS SW MOV SE T02720244

2010/08/08 04:53
KMSN 080453Z 19007KT 10SM CLR 23/19 A2984 RMK AO2 SLP097 T02330189

2010/08/08 04:53
KMWT 080453Z AUTO 12004KT 10SM SCT048 SCT055 27/24 A2990 RMK AO2 SLP111 T02720244 TSNO

2010/08/08 04:55
KRNO 080455Z VRB06KT 10SM SCT090 BKN120 BKN150 23/02 A2990 RMK AO2 SLP071 T02330022

2010/08/08 04:53
KSAV 080453Z 36003KT 8SM FEW015 25/24 A2993 RMK AO2 SLP134 T02500239 403280239

2010/08/08 04:53
KTLH 080453Z 00000KT 10SM CLR 25/24 A2992 RMK AO2 SLP131 T02500239 403440250

2010/08/08 04:53
KTRI 080453Z 00000KT 7SM SCT070 19/17 A3002 RMK AO2 SLP150 T01940167 403170178

2010/08/08 04:53
KTYS 080453Z 00000KT 9SM CLR 22/19 A2997 RMK AO2 SLP135 T02220194 403280206

2010/08/08 04:55
KAAT 080455Z AUTO 31012G18KT 10SM CLR 23/06 A2994 RMK AO2 SLP089 T02280061 TSNO

2010/08/08 04:56
KJAX 080456Z 27003KT 10SM FEW025 BKN150 OVC250 24/23 A2993 RMK AO2 SLP134 OCNL LTGIC DSNT SE CB DSNT SE T02440233 403390244

2010/08/08 04:53
PHKO 080453Z 25008KT 10SM FEW018 BKN048 OVC055 26/22 A3001 RMK AO2 SLP164 T02610217

2010/08/08 04:54
PHOG 080454Z 06012G19KT 10SM FEW025 SCT049 SCT070 26/20 A3004 RMK AO2 PK WND 07028/0424 RAB21E31 SLP176 P0000 T02560200

2010/08/08 04:53
PHTO 080453Z 07011KT 10SM SCT011 BKN020 OVC030 24/22 A3006 RMK AO2 SLP179 T02440217

2010/08/08 04:56
KOFK 080456Z AUTO 18011KT 10SM CLR 26/22 A2976 RMK AO2 SLP063 T02610217

2010/08/08 04:56
KSFO 080456Z 24007KT 10SM FEW006 14/10 A2986 RMK AO2 SLP111 T01440100

2010/08/08 04:55
KSMS 080455Z AUTO 00000KT 3SM BR CLR 24/23 A2996 RMK AO2

2010/08/08 04:56
KINW 080456Z AUTO 10SM SCT110 17/14 A3015 RMK AO2 SLP149 T01670144 $

2010/08/08 04:56
KSXT 080456Z AUTO 35011G17KT 8SM CLR 14/12 A2998 RMK AO2 SLP117 T01390122 TSNO

2010/08/08 04:56
KFLG 080456Z AUTO 00000KT 1/2SM FG BKN001 OVC110 13/13 A3025 RMK AO2 SLP160 T01330128 TSNO

2010/08/08 04:56
K8D3 080456Z AUTO 00000KT 23/22 A2964 RMK AO2 SLP016 T02280222 PWINO TSNO

2010/08/08 04:56
KCAE 080456Z 00000KT 5SM BR CLR 26/24 A2995 RMK AO2 SLP137 T02610244 403390228

2010/08/08 04:55
KCAO 080455Z AUTO 22008KT 10SM CLR 25/14 A3002 RMK AO2 SLP081 T02500144 TSNO

2010/08/08 04:56
KWMC 080456Z AUTO 26004KT 10SM CLR 18/M03 A2984 RMK AO2 SLP057 T01831028

2010/08/08 04:56
KGNA 080456Z AUTO 01003KT 18/13 A2973 RMK AO2 SLP063 T01830133 PWINO TSNO

2010/08/08 04:56
PADK 080456Z 24022G26KT 3SM OVC006 11/09 A2932 RMK AO1 PNO

2010/08/08 04:52
KNZY 080452Z 21004KT 10SM BKN018 18/12 A2991 RMK AO2 SLP128 T01830122 $

2010/08/08 04:53
KRNM 080453Z 26005KT 10SM CLR 13/11 A2992 RMK AO2 SLP122 T01280106

2010/08/08 05:02
KCPW 080502Z AUTO 23009G14KT 1/4SM FG OVC001 06/06 A3053 RMK AO2

2010/08/08 04:56
KMRH 080456Z AUTO 03003KT 6SM BR CLR 26/23 A2996 RMK AO2 SLP146 T02560233 403000244 TSNO

2010/08/08 04:56
KNFE 080456Z AUTO 00000KT 3/4SM BR CLR 23/21 A2999 RMK AO2 SLP156 T02280206 403110222 $

2010/08/08 04:56
PAAK 080456Z AUTO 20012G15KT 4SM OVC007 11/08 A2941 RMK AO1 PNO

2010/08/08 04:56
PABL 080456Z AUTO 31006KT 10SM BKN065 OVC100 14/09 A2961 RMK AO1 PNO

2010/08/08 04:56
PABV 080456Z AUTO 22004KT 10SM SCT014 BKN025 OVC048 12/09 A2975 RMK AO1 PNO

2010/08/08 04:56
PACM 080456Z AUTO 18005KT 10SM BKN019 OVC030 13/09 A2964 RMK AO2 TSNO T01270094 SLP032 $

2010/08/08 04:51
PADL 080451Z 19010KT SCT017 BKN028 11/08 A2978

2010/08/08 04:56
PAEM 080456Z AUTO 00000KT 10SM FEW001 SCT025 BKN047 13/10 A2959 RMK AO1 PNO

2010/08/08 04:56
PAFE 080456Z AUTO 10004KT 10SM FEW022 BKN028 OVC075 13/11 A2990 RMK AO1 PNO

2010/08/08 04:56
PAFM 080456Z AUTO 00000KT 10SM BKN018 BKN026 OVC070 13/11 A2960 RMK AO1 PNO

2010/08/08 04:56
PAGL 080456Z AUTO 26006KT 10SM FEW040 OVC049 16/11 A2962 RMK AO1 PNO

2010/08/08 04:56
PAGM 080456Z AUTO 04014KT 10SM OVC006 08/06 A2961 RMK AO1

2010/08/08 04:56
PAGS 080456Z AUTO 00000KT 10SM OVC031 12/11 A2985 RMK AO1 PNO

2010/08/08 04:56
PAHP 080456Z AUTO 14008KT 10SM SCT008 OVC032 11/08 A2961 RMK AO1 PNO TSNO

2010/08/08 04:56
PAHY 080456Z AUTO 00000KT 10SM FEW006 BKN030 OVC050 13/12 A2991 RMK AO1 PNO

2010/08/08 04:56
PAII 080456Z AUTO 24007KT 10SM OVC006 10/08 A2984 RMK AO1 PNO

2010/08/08 04:56
PAIN 080456Z AUTO 11003KT 10SM OVC065 14/08 A2968 RMK AO1 PNO

2010/08/08 04:56
PAJC 080456Z AUTO 00000KT 10SM BKN017 OVC025 15/12 A2980 RMK AO1 PNO

2010/08/08 04:56
PAKK 080456Z AUTO 22004KT 10SM OVC065 15/11 A2957 RMK AO1 PNO

2010/08/08 04:56
PAKP 080456Z AUTO 04007KT 10SM OVC038 10/07 A2960 RMK AO1

2010/08/08 04:56
PAMD 080456Z AUTO 21007KT 7SM BKN009 OVC013 12/09 A2980 RMK AO1 PNO

2010/08/08 04:56
PAMH 080456Z 22005KT 10SM 13/08 A2967 RMK AO1 PNO

2010/08/08 04:56
PAMM 080456Z AUTO 21004KT 10SM FEW025 BKN034 OVC040 14/10 A2993 RMK AO1 PNO

2010/08/08 04:56
PAMY 080456Z 17012KT 10SM BKN018 BKN025 12/08 A2960 RMK AO1

2010/08/08 04:56
PANI 080456Z AUTO 23003KT 7SM FEW011 BKN021 OVC025 12/09 A2972 RMK AO1 PNO

2010/08/08 04:56
PANV 080456Z AUTO 17007KT 10SM SCT015 SCT075 13/11 A2965 RMK AO1 PNO

2010/08/08 04:56
PAOU 080456Z AUTO 00000KT 9SM BKN023 14/12 A2976 RMK AO2 PWINO TSNO T01380122 BKN V SCT SLP079 $

2010/08/08 04:56
PAPG 080456Z 00000KT 4SM FEW000 BKN012 OVC023 12/11 A2988 RMK AO1 WEA

2010/08/08 04:56
PAPH 080456Z AUTO 00000KT 10SM BKN017 OVC090 13/10 A2981 RMK AO1 PNO

2010/08/08 04:56
PARC 080456Z AUTO 06003KT 10SM FEW023 SCT029 OVC046 11/05 A2966 RMK AO1 PNO

2010/08/08 04:56
PASA 080456Z AUTO 06009KT 1/2SM OVC002 09/07 A2962 RMK AO1 PNO

2010/08/08 04:56
PASD 080456Z AUTO 17013KT 10SM SCT019 OVC028 12/10 A2982 RMK AO1 PNO

2010/08/08 04:56
PASH 080456Z AUTO 32006KT 10SM BKN005 OVC023 08/06 A2965 RMK AO1 PNO

2010/08/08 04:56
PASK 080456Z AUTO 24009KT 10SM SCT011 BKN080 OVC090 14/12 A2957 RMK AO1 PNO

2010/08/08 04:56
PASL 080456Z AUTO 00000KT 10SM SCT035 SCT047 OVC095 13/11 A2975 RMK AO1 PNO

2010/08/08 04:56
PASM 080456Z AUTO 19008KT 10SM FEW029 OVC040 13/10 A2966 RMK AO1 PNO

2010/08/08 04:56
PASX 080456Z AUTO 19004KT 10SM SCT022 BKN028 OVC065 13/10 A2976 RMK AO1 PNO

2010/08/08 04:56
PATG 080456Z AUTO 20009KT 10SM OVC010 11/09 A2974 RMK AO1 PNO

2010/08/08 04:56
PAUN 080456Z AUTO 27007KT 10SM BKN020 15/09 A2961 RMK AO1 PNO

2010/08/08 04:56
PAVD 080456Z 00000KT 10SM FEW010 SCT030 OVC040 11/08 A2979 RMK AO1 0447Z WEA

2010/08/08 04:56
PAWG 080456Z 00000KT 2SM SCT013 OVC023 12/11 A2989 RMK AO1 WEA

2010/08/08 04:56
PAWS 080456Z AUTO 00000KT 3SM FEW006 SCT010 BKN021 11/11 A2975 RMK AO1 PNO

2010/08/08 04:56
PAZK 080456Z AUTO 22006KT 10SM BKN047 OVC060 08/06 A2973 RMK AO1 PNO

2010/08/08 04:56
KNSE 080456Z AUTO 00000KT 5SM BR SCT100 26/24 A2992 RMK AO2 SLP116 T02610244 $

2010/08/08 04:56
K79J 080456Z AUTO 00000KT 7SM CLR 27/23 A2993 RMK AO2 SLP127 T02670233 TSNO PNO $

2010/08/08 04:56
KNDZ 080456Z AUTO 07004KT 10SM SCT110 27/23 A2992 RMK AO2 SLP115 T02670233 PWINO $

2010/08/08 04:56
KNBT 080456Z AUTO 08009KT 6SM HZ CLR 28/24 A2996 RMK AO2 SLP149 T02830239 403110250 TSNO $

2010/08/08 04:56
PMDY 080456Z AUTO 09008KT 10SM FEW028 28/21 A3019 RMK AO2 TSNO T02830211 SLP532

2010/08/08 04:56
KNPA 080456Z AUTO 00000KT 10SM TS CLR 26/24 A2990 RMK AO2 TSE00B41 SLP128 T02610239

2010/08/08 04:55
PACZ 080455Z AUTO 20010KT 10SM OVC008 11/09 A2961 RMK AO1 T01060089

2010/08/08 04:55
PALU 080455Z AUTO 08014KT 7SM 11/11 A2964 RMK AO1 T01060106

2010/08/08 04:55
PAIM 080455Z AUTO 00000KT 10SM BKN042 BKN048 BKN080 14/12 A2963 RMK AO1 T01390117

2010/08/08 04:55
PATL 080455Z AUTO 22004KT 10SM SCT040 SCT050 12/09 A2970 RMK AO1 T01220095

2010/08/08 04:55
PAEH 080455Z AUTO 16013KT 10SM SCT038 OVC070 09/07 A2970 RMK AO1 T00890073

2010/08/08 04:55
PASV 080455Z AUTO 23004KT 5SM BKN008 BKN018 OVC024 11/10 A2974 RMK AO1 T01060101

2010/08/08 05:00
KVTP 080500Z AUTO 28009G20KT 250V310 10SM SCT110 11/07 A3040 RMK AO2 LTG DSNT N

2010/08/08 04:56
KP53 080456Z AUTO 00000KT 21/19 A2973 RMK AO2 SLP067 T02110189 402560089 PWINO TSNO

2010/08/08 05:00
OPPS 080500Z NW-10KT 0600 RAIN BKN006ST FEW030TCU SCT030 OVC100 25/25 Q1006.3

2010/08/08 04:50
EBAW 080450Z 25006KT 4500 BR BKN006 OVC007 16/14 Q1015 TEMPO SHRA

2010/08/08 04:50
EBBR 080450Z 24004KT 9000 BKN008 15/14 Q1016 TEMPO 4500 BR

2010/08/08 04:50
EBCI 080450Z 24006KT 3700 -SHRA BKN005 BKN033 14/12 Q1016 NOSIG

2010/08/08 04:50
EBLG 080450Z 27007KT 9999 FEW009 BKN015 14/13 Q1016 TEMPO BKN005

2010/08/08 04:50
EBOS 080450Z 33009KT 9999 SCT012 SCT038 17/14 Q1016 TEMPO BKN012

2010/08/08 04:50
ELLX 080450Z 27010KT 240V310 9999 BKN007 BKN050 14/12 Q1016 NOSIG

2010/08/08 04:50
LOWG 080450Z VRB02KT 0600 R17/0750N R35/0800U FG BKN002 13/13 Q1018 BECMG 2000 BR BKN003

2010/08/08 04:50
LOWI 080450Z 00000KT 9999 FEW006 BKN013 12/11 Q1021 BECMG SCT010 SCT020

2010/08/08 04:50
LOWK 080450Z VRB01KT 8000 SCT006 OVC008 14/12 Q1020 NOSIG

2010/08/08 04:50
LOWL 080450Z 29003KT 6000 VCFG SCT280 12/11 Q1018 TEMPO 4000 BR

2010/08/08 04:50
LOWS 080450Z 16010KT 9999 FEW010 13/11 Q1019 NOSIG

2010/08/08 04:50
LOWW 080450Z 28008KT 9999 FEW030 SCT045 BKN060 17/13 Q1017 NOSIG

2010/08/08 04:50
EFIV 080450Z AUTO 25001KT CAVOK 17/15 Q1017

2010/08/08 04:50
EFKE 080450Z AUTO 01005KT CAVOK 18/17 Q1015

2010/08/08 04:50
ENBO 080450Z 07002KT 0400 FG VV004 11/11 Q1018

2010/08/08 04:50
ENBR 080450Z 16005KT 110V180 9000 -RA FEW003 SCT007 BKN015 14/13 Q1016 BECMG BKN020

2010/08/08 04:50
ENKR 080450Z AUTO VRB02KT 9999NDV BKN010/// 17/14 Q1018

2010/08/08 04:50
ENVA 080450Z 10004KT CAVOK 11/09 Q1016

2010/08/08 04:50
ENZV 080450Z 00000KT 9999 BKN030 16/14 Q1016 NOSIG

2010/08/08 04:50
LIPB 080450Z 00000KT CAVOK 14/12 Q1019

2010/08/08 04:50
LIPE 080450Z 20007KT 170V230 CAVOK 19/15 Q1016

2010/08/08 04:50
LIPK 080450Z VRB03KT CAVOK 17/14 Q1016

2010/08/08 04:50
LIPQ 080450Z VRB02KT 9999 SCT070 16/14 Q1017

2010/08/08 04:50
LIPZ 080450Z 01004KT CAVOK 19/18 Q1017

2010/08/08 04:50
LIRF 080450Z VRB03KT CAVOK 16/14 Q1017 NOSIG

2010/08/08 04:50
LIRQ 080450Z VRB03KT 9999 SCT015 SCT030 18/15 Q1018

2010/08/08 04:50
LIBD 080450Z 29005KT 9999 FEW025 20/13 Q1016

2010/08/08 04:50
LICC 080450Z 23005KT CAVOK 19/15 Q1016

2010/08/08 04:50
LICJ 080450Z 08006KT 9999 FEW030 23/18 Q1017

2010/08/08 04:50
LIEA 080450Z 00000KT CAVOK 13/13 Q1018

2010/08/08 04:50
LIEO 080450Z 21005KT CAVOK 16/14 Q1018

2010/08/08 04:50
LIMC 080450Z 00000KT CAVOK 16/13 Q1017 NOSIG

2010/08/08 04:50
LIME 080450Z 01004KT CAVOK 16/13 Q1017

2010/08/08 04:50
LIMJ 080450Z 07006KT 9999 SCT028 21/18 Q1017

2010/08/08 04:50
LIML 080450Z VRB01KT CAVOK 17/15 Q1016 NOSIG

2010/08/08 04:45
LIPH 080445Z 03002KT CAVOK 20/19 Q1017

2010/08/08 04:45
LIPR 080445Z 00000KT CAVOK 18/17 Q1016

2010/08/08 04:45
LIPX 080445Z 34005KT CAVOK 16/16 Q1016

2010/08/08 04:45
LIRA 080445Z 32003KT CAVOK 18/15 Q1017

2010/08/08 04:45
LIRP 080445Z 12001KT CAVOK 18/18 Q1018 NOSIG

2010/08/08 04:45
LIBR 080445Z 28011KT 9999 SCT015 23/19 Q1015 NOSIG

2010/08/08 04:45
LIEE 080445Z 32006KT CAVOK 15/12 Q1018 NOSIG

2010/08/08 04:45
LIPX 080445Z 34005KT CAVOK 16/16 Q1016

2010/08/08 04:50
LIMC 080450Z 00000KT CAVOK 16/13 Q1017 NOSIG

2010/08/08 04:55
EHDL 080455Z AUTO 26003KT 0150NDV FG VV000 15/15 Q1014 RED

2010/08/08 04:55
EHEH 080455Z AUTO 22001KT 0250NDV FG OVC007 13/13 Q1015 RED

2010/08/08 04:55
EHGR 080455Z AUTO 27002KT 4800NDV BR FEW006 OVC007 15/14 Q1014 GRN

2010/08/08 04:55
EHLW 080455Z AUTO 28003KT 1600NDV BR BKN027 OVC034 16/16 Q1014 YLO

2010/08/08 04:55
EHVK 080455Z AUTO 27005KT 5000NDV BR FEW005 SCT007 BKN030 16/15 Q1015 GRN

2010/08/08 04:55
EHWO 080455Z AUTO 24006KT 4400NDV -DZRA FEW007 SCT012 BKN014 FEW015CB 16/15 Q1015 GRN

2010/08/08 04:47
MMDO 080447Z 00000KT 8SM SCT030 OVC080 18/16 A3017 RMK 8/46/ HZY BINOVC

2010/08/08 04:49
MMHO 080449Z 20003KT 10SM SCT040 SCT200 32/20 A2987 RMK 8/408 HZY

2010/08/08 04:52
MMML 080452Z 30010KT 10SM SKC 30/18 A2966

2010/08/08 04:48
MMMZ 080448Z 31004KT 10SM FEW080 SCT220 27/23 A2987 RMK 8/063

2010/08/08 04:50
ENAN 080450Z 26007KT 9999 SCT012 11/09 Q1019

2010/08/08 04:50
ENAT 080450Z AUTO VRB02KT 9999NDV FEW008/// OVC019/// 14/12 Q1018

2010/08/08 04:50
ENBN 080450Z 36005KT 9999 FEW002 13/12 Q1016

2010/08/08 04:50
ENDU 080450Z 00000KT 9999 2000NE BCFG FEW001 10/09 Q1019

2010/08/08 04:50
ENEV 080450Z AUTO 36004KT 310V040 2600NDV VV002 10/09 Q1019

2010/08/08 04:50
ENHF 080450Z AUTO 05008KT //// FEW001/// SCT014/// OVC018/// 11/10 Q1018

2010/08/08 04:50
ENKB 080450Z AUTO 06004KT 9999NDV SCT150/// 15/14 Q1015

2010/08/08 04:50
ENOL 080450Z 11006KT CAVOK 14/13 Q1015

2010/08/08 04:50
EGCC 080450Z 24002KT 6000 BKN006 BKN027 14/14 Q1020 TEMPO BKN010

2010/08/08 04:50
EGLL 080450Z 31004KT 280V350 9999 FEW012 BKN024 15/13 Q1019 TEMPO BKN012

2010/08/08 04:50
EGSH 080450Z 34005KT 300V010 9999 FEW007 SCT030 16/14 Q1017 TEMPO BKN012

2010/08/08 04:50
EGSH 080450Z 34005KT 300V010 9999 FEW007 SCT030 16/14 Q1017

2010/08/08 04:50
EGQK 080450Z 23004KT 9999 FEW030 BKN038 13/09 Q1020 BLU TEMPO SCT022 WHT

2010/08/08 04:50
EGQL 080450Z 15005KT 9999 FEW022 OVC026 14/11 Q1020 BLU

2010/08/08 04:50
EGQS 080450Z 25004KT 9999 FEW020 BKN040 12/10 Q1019 BLU

2010/08/08 04:50
EGDL 080450Z 32006KT 9999 SCT035 12/11 Q1020 BLU NOSIG

2010/08/08 04:50
EGDL 080450Z 32006KT 9999 SCT035 12/11 Q1020 NOSIG

2010/08/08 04:50
EGDR 080450Z 04003KT 9999 FEW025 12/11 Q1022 BLU

2010/08/08 04:56
KGNR 080456Z AUTO 00000KT 09/05 A2999 RMK AO1 SLP158 T00940050 401830061 

2010/08/08 04:56
KCDJ 080456Z AUTO 15003KT 27/21 A2989 RMK AO2 SLP103 T02670211 PWINO TSNO 

2010/08/08 04:56
KP28 080456Z AUTO 15006KT 29/22 A2983 RMK AO2 SLP081 T02940217 PWINO TSNO 

2010/08/08 05:00
SGAS 080500Z 16008KT CAVOK 16/11 Q1014

2010/08/08 05:00
SGES 080500Z 09006KT CAVOK 14/13 Q1016

2010/08/08 04:53
KRNM 080453Z 26005KT 10SM CLR 13/11 A2992 RMK AO2 SLP122 T01280106 

2010/08/08 04:56
KINS 080456Z AUTO 07005KT 10SM 27/10 A2984 RMK AO2 SLP048 T02670100 TSNO $ 

2010/08/08 04:56
KSPD 080456Z AUTO 21009KT 22/17 A2996 RMK AO2 SLP075 T02220172 PWINO TSNO 

2010/08/08 04:56
KD07 080456Z AUTO 00000KT 27/12 A2976 RMK AO2 SLP056 T02670122 PWINO TSNO 

2010/08/08 04:56
KGFA 080456Z AUTO 00000KT 10SM CLR 19/06 A2977 RMK AO2 SLP079 T01890061 $ 

2010/08/08 04:56
KNUW 080456Z 24004KT 4SM BR OVC003 16/15 A2990 RMK AO2 DZE23RAB23E31 SLP129 P0001 T01590149 $ 

2010/08/08 04:56
K2WX 080456Z AUTO 23013KT 23/11 A2977 RMK AO1 SLP055 T02330106 

2010/08/08 04:56
PHBK 080456Z AUTO 29004KT 10SM BKN043 29/20 A3003 RMK AO2 SLP172 T02890200 TSNO $ 

2010/08/08 04:56
KHLR 080456Z AUTO 15008KT 10SM CLR 31/22 A2991 RMK AO2 SLP116 T03060217 403830283 $ 

2010/08/08 05:00
FIMP 080500Z 12017KT 9999 SCT019 23/15 Q1025

2010/08/08 04:54
KSBN 080454Z 19007KT 10SM OVC095 22/17 A2994 RMK AO2 SLP133 T02220172 402780167 

2010/08/08 04:56
KNLC 080456Z AUTO 32010KT 10SM CLR 25/11 A2975 RMK AO2 SLP074 T02500111 TSNO $ 

2010/08/08 04:50
EEPU 080450Z 17006KT 110V210 8000 NSC 23/21 Q1013

2010/08/08 04:50
EGNS 080450Z 31005KT 280V360 9999 FEW012 13/10 Q1020

2010/08/08 04:50
LSMA 080450Z AUTO VRB02KT 9999NDV BKN084 OVC120 14/12 Q1019 RMK WHT

2010/08/08 04:50
LSMD 080450Z AUTO VRB01KT 9999NDV SCT074 BKN100 BKN130 14/12 Q1018 RMK WHT

2010/08/08 04:50
LSME 080450Z AUTO VRB01KT 9999NDV BKN078 BKN120 BKN140 14/12 Q1019 RMK WHT

2010/08/08 04:50
LSMM 080450Z AUTO VRB02KT 9999NDV BKN087 OVC100 12/11 Q1019 RMK WHT

2010/08/08 04:50
LSMP 080450Z AUTO 00000KT 9999NDV BKN130 14/12 Q1019 RMK WHT

2010/08/08 04:55
EHAM 080455Z 31003KT 3500 R27/0650V1700D R18R/0400V0650D BCFG FEW009 FEW015TCU 14/14 Q1015 TEMPO 0800

2010/08/08 04:55
EHBK 080455Z AUTO 26004KT 210V300 9999NDV FEW004 SCT005 BKN007 15/15 Q1015 REDZ BECMG 4000 BR

2010/08/08 04:55
EHGG 080455Z AUTO 29001KT 1900NDV BR SCT006 BKN008 OVC010 16/15 Q1014 BECMG 0800 FG

2010/08/08 04:55
EHRD 080455Z 28001KT 0450 0100NE R24/0200N FG FEW011 13/13 Q1015 BECMG 2500 BR

2010/08/08 04:50
BGBW 080450Z AUTO 22002KT 9999NDV -SHRA FEW085/// BKN130/// BKN150/// 11/07 Q1013

2010/08/08 04:50
BGGH 080450Z AUTO 02003KT 9999NDV -RA OVC069/// 11/08 Q1012

2010/08/08 04:50
BGJN 080450Z AUTO VRB01KT 9999NDV NCD 06/01 Q1014

2010/08/08 04:50
BGSF 080450Z 05007KT 9999 FEW200 05/02 Q1014

2010/08/08 04:55
BGTL 080455Z AUTO 14021KT 9999 FEW017 OVC042 04/00 A2990 RMK AO2 PK WND 15031/0400 SLP131 T00430003 $

2010/08/08 04:55
KQAR 080455Z AUTO 30002KT 8SM CLR 35/02 A2963 RMK AO2 SLP973 T03460016 $

2010/08/08 04:55
KQAY 080455Z AUTO 36008KT 6000 CLR 38/03 A2951 RMK AO2 SLP987 T03810029 $

2010/08/08 04:55
KQB6 080455Z AUTO 10002KT 12SM -SHRA FEW032 BKN038 BKN100 20/17 A2986 RMK AO2 SLP031 T02020167 PNO $

2010/08/08 04:55
KQBL 080455Z AUTO 02002KT 4SM FEW120 25/24 A2995 RMK AO2 LTG DSNT S SLP139 T02530244

2010/08/08 04:55
KQC3 080455Z AUTO 06006KT 9999 FEW021 BKN150 25/17 A3009 RMK AO2 SLP094 T02450169 PNO $

2010/08/08 04:55
KQCQ 080455Z 33011KT 8000 HZ FEW150 BKN200 37/03 A2952 RMK SLP994

2010/08/08 04:55
KQDX 080455Z AUTO 20006G13KT 9000 34/13 A2970 RMK AO2 SLP977 T03420128 $

2010/08/08 04:55
KQQR 080455Z AUTO 00000KT 9000 -SHRA FEW009 BKN011 22/21 A2990 RMK AO2 SLP075 T02230209 $

2010/08/08 04:55
KQSA 080455Z 00000KT 9999 FEW050 FEW100 BKN200 27/19 A2993 RMK SLP303 WND DATA ESTMD ALSTG/SLP ESTMD

2010/08/08 04:55
KQWM 080455Z 30012KT 3200 DU FEW150 35/04 A2954 RMK SLP992 QNH1000

2010/08/08 04:55
KQXR 080455Z AUTO 06006KT 9000 CLR 41/00 A2947 RMK AO2 SLP978 T04091005 $

2010/08/08 04:55
KQYU 080455Z AUTO 07012G21KT 9999 CLR 32/00 A2986 RMK AO2 SLP027 T03211003

2010/08/08 04:53
KGNT 080453Z AUTO 36005KT 16/14 A3023 RMK AO2 SLP142 T01610139 PWINO TSNO 

2010/08/08 04:56
KFSD 080456Z 20012G17KT 10SM CLR 27/23 A2971 RMK AO2 SLP047 T02670228 

2010/08/08 04:50
EFKI 080450Z AUTO 08003KT CAVOK 19/18 Q1016

2010/08/08 04:55
KADW 080455Z AUTO 18003KT 10SM CLR 21/16 A3000 RMK AO2 SLP161 T02080162 $

2010/08/08 04:55
KBKF 080455Z 16009KT 25SM SCT110 BKN220 20/14 A3005 RMK SLP100

2010/08/08 04:55
KCVS 080455Z AUTO 17004KT 10SM CLR 21/21 A3001 RMK AO2 SLP113 T02140214 $

2010/08/08 04:55
KFCS 080455Z AUTO 11004KT 10SM SCT130 20/15 A3006 RMK AO2 SLP056 T02000150

2010/08/08 04:55
KLSV 080455Z AUTO 16016KT 10SM CLR 33/13 A2976 RMK AO2 SLP050 T03320133 PWINO

2010/08/08 04:56
KNJK 080456Z AUTO 28010KT 10SM CLR 31/03 A2969 RMK AO2 SLP070 T03110033 TSNO

2010/08/08 04:54
KNKT 080454Z 11003KT 6SM BR CLR 24/23 A2997 RMK AO2 SLP144 T02440233 403110228

2010/08/08 04:52
KNZY 080452Z 21004KT 10SM BKN018 18/12 A2991 RMK AO2 SLP128 T01830122 $

2010/08/08 04:55
KPSM 080455Z 20003KT 10SM SCT250 14/13 A3000 RMK AO2A SLP161 T01390126 402370111

2010/08/08 04:55
KTCM 080455Z AUTO 18005KT 10SM FEW010 OVC080 17/16 A2992 RMK AO2 SLP132 T01650155

2010/08/08 04:55
KVBG 080455Z AUTO 02005KT 10SM OVC007 13/12 A2991 RMK AO2 SLP121 T01280117 TSNO CHINO RWY12 VISNO RWY12 $

2010/08/08 04:56
KWJF 080456Z 23013G19KT 10SM CLR 23/04 A2987 RMK AO2 SLP093 T02280039

2010/08/08 04:55
KXMR 080455Z AUTO 19004KT 10SM CLR 26/25 A2994 RMK AO2 SLP141 T02620247 403280253 $

2010/08/08 04:54
OAHR 080454Z 02012KT CAVOK 33/M01 Q1009 RMK FEW FEW080 VIS MIN 9999 BLU

2010/08/08 04:50
OAMS 080450Z 19008KT 9999 SCT200 38/03 Q1005 BLU/BLU/

2010/08/08 04:56
PMDY 080456Z AUTO 09008KT 10SM FEW028 28/21 A3019 RMK AO2 TSNO T02830211 SLP532

2010/08/08 04:55
KGTB 080455Z AUTO 16007KT 10SM CLR 15/11 A2997 RMK AO2 SLP148 T01510114 402220088

2010/08/08 04:54
KNFG 080454Z AUTO 00000KT 10SM BKN015 13/11 A2992 RMK AO2 SLP129 T01280106 TSNO $

2010/08/08 04:53
KNIP 080453Z 27004KT 10SM BKN026 OVC150 25/24 A2995 RMK AO2 SLP136 T02500239 403440244

2010/08/08 04:53
KNQX 080453Z AUTO 17003KT 10SM FEW020 30/25 A2998 RMK AO2 SLP151 T03000250 403390283 $

2010/08/08 04:52
KNRB 080452Z AUTO 00000KT 10SM BKN029 BKN036 26/23 A2994 RMK AO2 SLP136 T02610233 403440250

2010/08/08 04:52
KNZY 080452Z 21004KT 10SM BKN018 18/12 A2991 RMK AO2 SLP128 T01830122 $

2010/08/08 04:55
KPAM 080455Z AUTO 12003KT 10SM CLR 26/26 A2991 RMK AO2 DZE0404 SLP131 P0000 T02580256 $

2010/08/08 04:55
KPOB 080455Z AUTO 00000KT 10SM CLR 25/24 A2997 RMK AO2 SLP147 T02470240 403200230 $

2010/08/08 04:55
KPSM 080455Z 20003KT 10SM SCT250 14/13 A3000 RMK AO2A SLP161 T01390126 402370111

2010/08/08 04:55
KRCA 080455Z AUTO 32003KT 10SM CLR 21/14 A2982 RMK AO2 SLP069 T02080142 $

2010/08/08 04:55
KSKA 080455Z AUTO 28008KT 10SM SCT150 20/08 A2982 RMK AO2 SLP083 T01960082

2010/08/08 04:55
KSLI 080455Z AUTO 18003KT 7SM CLR 16/14 A2990 RMK AO2 SLP128 T01560136

2010/08/08 04:55
KSSC 080455Z 24005KT 10SM CLR 26/23 A2993 RMK AO2A SLP135 T02570233 403310224 $

2010/08/08 04:55
KTCM 080455Z AUTO 18005KT 10SM FEW010 OVC080 17/16 A2992 RMK AO2 SLP132 T01650155

2010/08/08 04:55
KTIK 080455Z 14006KT 10SM CLR 29/22 A2986 RMK AO2A SLP096 T02850225

2010/08/08 04:47
MMDO 080447Z 00000KT 8SM SCT030 OVC080 18/16 A3017 RMK 8/46/ HZY BINOVC

2010/08/08 04:52
MMGL 080452Z 00000KT 12SM SCT100 BKN300 18/16 A3018 RMK 8/038

2010/08/08 04:49
MMHO 080449Z 20003KT 10SM SCT040 SCT200 32/20 A2987 RMK 8/408 HZY

2010/08/08 04:50
MMLO 080450Z 00000KT 7SM SCT030 BKN080 OVC200 16/15 A3026 RMK 65015 8/473

2010/08/08 04:52
MMML 080452Z 30010KT 10SM SKC 30/18 A2966

2010/08/08 04:48
MMMZ 080448Z 31004KT 10SM FEW080 SCT220 27/23 A2987 RMK 8/063

2010/08/08 04:46
MMPR 080446Z 01004KT 12SM SKC 28/25 A2987

2010/08/08 04:46
MMZC 080446Z 19008KT 10SM FEW100 OVC200 17/10 A3028 RMK 8/037

2010/08/08 04:55
PACZ 080455Z AUTO 20010KT 10SM OVC008 11/09 A2961 RMK AO1 T01060089

2010/08/08 04:55
PAED 080455Z 22007KT 10SM FEW011 BKN047 OVC055 12/11 A2975 RMK AO2A SLP076 T01240106

2010/08/08 04:55
PAEI 080455Z AUTO 00000KT 10SM CLR 16/11 A2966 RMK AO2 SLP046 T01640110 $

2010/08/08 04:55
PAIM 080455Z AUTO 00000KT 10SM BKN042 BKN048 BKN080 14/12 A2963 RMK AO1 T01390117

2010/08/08 04:55
PASV 080455Z AUTO 23004KT 5SM BKN008 BKN018 OVC024 11/10 A2974 RMK AO1 T01060101

2010/08/08 04:55
PGUA 080455Z AUTO 07011KT 10SM FEW015 SCT060 29/25 A2981 RMK AO2 SLP077 T02890245 VISNO RWY24L $

2010/08/08 04:55
PHHI 080455Z AUTO 07005KT 10SM FEW026 BKN041 OVC050 25/19 A3008 RMK AO2 SLP174 T02460191 $

2010/08/08 04:55
RJTY 080455Z AUTO 18010KT 9999 CLR 30/22 A3003 RMK AO2 SLP161 T03000223 $

2010/08/08 04:55
RODN 080455Z 15008KT 9999 -RA FEW017 SCT029 BKN038 BKN100 29/27 A2963 RMK AO2A RAB0444 FEW V SCT SLP032 P0000 T02900265

2010/08/08 05:00
SBFI 080500Z 16006KT CAVOK 13/11 Q1016

2010/08/08 05:00
SBGL 080500Z 07002KT CAVOK 16/13 Q1018

2010/08/08 04:57
CWZZ 080457Z AUTO ///// 8SM BKN016 OVC047 OVC061 OVC082 08/ A2923

2010/08/08 04:50
EDLN 080450Z VRB03KT 2500 RA BR SCT004 BKN017 17/17 Q1014 RMK ATIS A

2010/08/08 04:50
EGDL 080450Z 32006KT 9999 SCT035 12/11 Q1020 BLU NOSIG

2010/08/08 04:50
EGNS 080450Z 31005KT 280V360 9999 FEW012 13/10 Q1020

2010/08/08 04:50
EGQK 080450Z 23004KT 9999 FEW030 BKN038 13/09 Q1020 BLU TEMPO SCT022 WHT

2010/08/08 04:50
EGXC 080450Z 31006KT CAVOK 12/11 Q1019 BLU

2010/08/08 04:50
EGXW 080450Z 33008KT 5000 BR FEW060 12/11 Q1019 WHT

2010/08/08 04:55
EHAM 080455Z 31003KT 3500 R27/0650V1700D R18R/0400V0650D BCFG FEW009 FEW015TCU 14/14 Q1015 TEMPO 0800

2010/08/08 04:55
EHBK 080455Z AUTO 26004KT 210V300 9999NDV FEW004 SCT005 BKN007 15/15 Q1015 REDZ BECMG 4000 BR

2010/08/08 04:55
EHDL 080455Z AUTO 26003KT 0150NDV FG VV000 15/15 Q1014 RED

2010/08/08 04:55
EHGG 080455Z AUTO 29001KT 1900NDV BR SCT006 BKN008 OVC010 16/15 Q1014 BECMG 0800 FG

2010/08/08 04:55
EHGR 080455Z AUTO 27002KT 4800NDV BR FEW006 OVC007 15/14 Q1014 GRN

2010/08/08 04:55
EHLW 080455Z AUTO 28003KT 1600NDV BR BKN027 OVC034 16/16 Q1014 YLO

2010/08/08 04:55
EHRD 080455Z 28001KT 0450 0100NE R24/0200N FG FEW011 13/13 Q1015 BECMG 2500 BR

2010/08/08 04:55
EHVK 080455Z AUTO 27005KT 5000NDV BR FEW005 SCT007 BKN030 16/15 Q1015 GRN

2010/08/08 04:55
EHWO 080455Z AUTO 24006KT 4400NDV -DZRA FEW007 SCT012 BKN014 FEW015CB 16/15 Q1015 GRN

2010/08/08 04:55
ETIK 080455Z 00000KT 9999 BKN140 13/13 A3005 RMK AO2A SLP165 T01280127 $

2010/08/08 04:55
LIYW 080455Z AUTO 03003KT 9999 CLR 18/17 A3004 RMK AO2 SLP171 T01760174

2010/08/08 04:55
EHAM 080455Z 31003KT 3500 R27/0650V1700D R18R/0400V0650D BCFG FEW009 FEW015TCU 14/14 Q1015 TEMPO 0800

2010/08/08 04:55
EHBK 080455Z AUTO 26004KT 210V300 9999NDV FEW004 SCT005 BKN007 15/15 Q1015 REDZ BECMG 4000 BR

2010/08/08 04:55
EHDL 080455Z AUTO 26003KT 0150NDV FG VV000 15/15 Q1014 RED

2010/08/08 04:55
EHGG 080455Z AUTO 29001KT 1900NDV BR SCT006 BKN008 OVC010 16/15 Q1014 BECMG 0800 FG

2010/08/08 04:55
EHGR 080455Z AUTO 27002KT 4800NDV BR FEW006 OVC007 15/14 Q1014 GRN

2010/08/08 04:55
EHLW 080455Z AUTO 28003KT 1600NDV BR BKN027 OVC034 16/16 Q1014 YLO

2010/08/08 04:55
EHRD 080455Z 28001KT 0450 0100NE R24/0200N FG FEW011 13/13 Q1015 BECMG 2500 BR

2010/08/08 04:55
EHVK 080455Z AUTO 27005KT 5000NDV BR FEW005 SCT007 BKN030 16/15 Q1015 GRN

2010/08/08 04:55
EHWO 080455Z AUTO 24006KT 4400NDV -DZRA FEW007 SCT012 BKN014 FEW015CB 16/15 Q1015 GRN

2010/08/08 04:55
ETAD 080455Z AUTO 21005KT 9999 SCT035 SCT060 OVC080 15/14 A3000 RMK AO2 RAE0448DZB0448E0454 SLP148 P0004 T01480142 $

2010/08/08 04:55
ETAR 080455Z AUTO 00000KT 9999 BKN070 BKN090 15/15 A3000 RMK AO2 RAE0414DZB0414E0417 SLP152 P0002 T01500150 $

2010/08/08 04:55
ETEB 080455Z AUTO 17003KT 9999 BKN110 12/11 A3005 RMK AO2 RAB0355E0406 SLP167 P0000 T01240112

2010/08/08 04:56
ETIC 080456Z AUTO 00000KT 0800 FG CLR 09/09 A3004 RMK AO2 SLP170 T00910091

2010/08/08 04:55
ETIK 080455Z 00000KT 9999 BKN140 13/13 A3005 RMK AO2A SLP165 T01280127 $

2010/08/08 04:55
ETOU 080455Z AUTO 00000KT 9999 -RA SCT048 OVC070 17/15 A2999 RMK AO2 RAB0427 SLP153 P0000 T01650146

2010/08/08 04:56
KNFL 080456Z AUTO 26003KT 10SM CLR 25/03 A2984 RMK AO2 SLP082 T02500028 TSNO 

2010/08/08 04:56
KABH 080456Z AUTO 05007KT 10SM BKN070 OVC095 18/15 A3010 RMK AO2 RAB40E51 SLP105 P0000 T01780150 $ 

2010/08/08 04:52
KMLF 080452Z AUTO 00000KT 10SM SCT090 BKN110 17/13 A3007 RMK AO2 RAB11E44 SLP120 P0000 T01670128 TSNO 

2010/08/08 04:53
KUIL 080453Z AUTO 29004KT 1 3/4SM BR OVC002 12/12 A2994 RMK AO2 CIG 001V005 SLP140 T01220117 TSNO 

2010/08/08 05:00
UBBB 080500Z 30008KT CAVOK 31/23 Q1010 NOSIG RMK R88CLRD70

2010/08/08 04:54
KMVE 080454Z AUTO 22005KT 10SM VCTS SCT060 SCT070 26/24 A2964 RMK AO2 LTG DSNT NE

2010/08/08 04:55
KMWO 080455Z AUTO 00000KT 10SM CLR 20/19 A3001 RMK AO2

2010/08/08 04:55
KMZG 080455Z AUTO 00000KT 10SM 30/25 A2991 RMK A01

2010/08/08 04:50
KMZH 080450Z AUTO 05005KT 10SM CLR 18/17 A2967 RMK AO2 LTG DSNT NE THRU S

2010/08/08 04:56
KNTU 080456Z 00000KT 10SM FEW007 SCT060 24/23 A2998 RMK AO2 SLP155 T02390228 402940222 $

2010/08/08 04:50
KONA 080450Z AUTO 22006KT 10SM SCT090 26/20 A2974 RMK AO2

2010/08/08 04:54
KONZ 080454Z AUTO 23006KT 10SM CLR 23/17 A2994 RMK AO2

2010/08/08 04:54
KORB 080454Z AUTO 00000KT 10SM CLR 16/14 A2970 RMK AO2

2010/08/08 04:53
KOVL 080453Z AUTO 18005KT 10SM VCTS SCT055 SCT070 24/21 A2967 RMK AO2 LTG DSNT N T02370205

2010/08/08 04:53
KOWA 080453Z AUTO 19010KT 10SM BKN065 25/22 A2973 RMK AO2

2010/08/08 04:53
KPEX 080453Z AUTO 17005KT 10SM TSRA BKN035 BKN047 BKN065 24/21 A2969 RMK AO2 LTG DSNT E SW AND W T02420209

2010/08/08 04:52
KPVB 080452Z AUTO 18008KT 10SM CLR 22/20 A2986 RMK AO1 T02180195

2010/08/08 04:55
KRCM 080455Z AUTO 00000KT 10SM CLR 24/22 A2988 RMK AO2

2010/08/08 04:54
KRFD 080454Z 19006KT 10SM CLR 21/18 A2990 RMK AO2 SLP119 T02110183

2010/08/08 04:54
KROA 080454Z 00000KT 10SM BKN080 23/17 A3006 RMK AO2 SLP166 T02280172 402940167 $

2010/08/08 04:54
KROS 080454Z AUTO 17004KT 10SM VCTS SCT020 SCT040 SCT065 19/18 A2967 RMK AO2 LTG DSNT NE THRU SW P0001 T01940178

2010/08/08 04:54
KROX 080454Z AUTO 10004KT 10SM BKN039 19/17 A2969 RMK AO2

2010/08/08 04:54
KRRT 080454Z AUTO 11006KT 10SM SCT043 19/17 A2971 RMK AO2 TSNO

2010/08/08 04:53
KRZN 080453Z AUTO 15009KT 5SM RA SCT008 BKN018 OVC045 20/18 A2971 RMK AO2 P0107 T01950184

2010/08/08 04:54
KSAZ 080454Z AUTO 00000KT 7SM CLR 20/20 A2968 RMK AO2 LTG DSNT S

2010/08/08 04:55
KSCF 080455Z AUTO 25006KT 10SM SCT024 SCT039 31/26 A2989 RMK A01

2010/08/08 04:53
KSGS 080453Z AUTO 21008KT 10SM CLR 27/21 A2970 RMK AO2 LTG DSNT NE T02700212

2010/08/08 04:56
KSHV 080456Z 18006KT 10SM BKN290 28/24 A2988 RMK AO2 SLP112 T02830239

2010/08/08 04:55
KSPR 080455Z AUTO 21007KT 10SM SCT026 SCT033 31/25 A2994 RMK A01

2010/08/08 04:55
KSRR 080455Z AUTO 28003KT 10SM CLR 17/11 A3023 RMK AO2

2010/08/08 04:58
KSYN 080458Z AUTO 21007KT 10SM SCT050 26/21 A2970 RMK AO2 LTG DSNT NE T02590214

2010/08/08 04:53
KTEW 080453Z AUTO 00000KT 10SM CLR 19/16 A2993 RMK AO2

2010/08/08 04:53
KTKC 080453Z AUTO 20010G16KT 10SM CLR 25/21 A2969 RMK AO2 LTG DSNT NE T02520211

2010/08/08 04:56
KABQ 080456Z 33009KT 10SM SCT095 23/12 A3012 RMK AO2 SLP106 T02280122

2010/08/08 04:54
KRIC 080454Z 00000KT 10SM CLR 23/17 A3000 RMK AO2 SLP161 T02280172 403110200

2010/08/08 04:56
KJAX 080456Z 27003KT 10SM FEW025 BKN150 OVC250 24/23 A2993 RMK AO2 SLP134 OCNL LTGIC DSNT SE CB DSNT SE T02440233 403390244

2010/08/08 04:56
K14Y 080456Z AUTO 08003KT 7SM SCT042 20/19 A2968 RMK AO2 LTG DSNT SE AND S T02000190

2010/08/08 04:55
K1A6 080455Z AUTO 00000KT 7SM CLR 20/20 A3001 RMK AO2

2010/08/08 04:55
K1P1 080455Z AUTO 00000KT 3/4SM BR VV005 09/09 A3002 RMK AO2 T00940085

2010/08/08 04:53
K29G 080453Z AUTO 00000KT 10SM CLR 19/14 A3002 RMK AO2 T01910137 PWINO

2010/08/08 04:55
K46D 080455Z AUTO 00000KT 10SM CLR 19/18 A2969 RMK AO2

2010/08/08 04:50
KAEL 080450Z AUTO 20008KT 10SM BKN060 25/21 A2976 RMK AO2

2010/08/08 04:55
KAIG 080455Z AUTO 20007KT 7SM SCT024 SCT030 21/19 A2979 RMK AO2

2010/08/08 04:56
KAJO 080456Z AUTO 27010KT 10SM CLR 16/13 A2990 RMK AO2 T01610133 SLP120 $

2010/08/08 04:55
KANE 080455Z AUTO 20012G18KT 10SM SCT050 28/23 A2968 RMK AO2

2010/08/08 04:53
KAQP 080453Z AUTO 18004KT 10SM CLR 25/25 A2964 RMK AO2 LTG DSNT E

2010/08/08 04:51
KARV 080451Z AUTO 21005KT 10SM -RA SCT060 BKN095 OVC120 18/17 A2979 RMK AO2 P0011 T01800165

2010/08/08 04:55
KATW 080455Z AUTO 19004KT 10SM CLR 22/19 A2981 RMK AO2

2010/08/08 04:54
KAVP 080454Z 11003KT 10SM CLR 17/12 A3002 RMK AO2 SLP154 T01720117 402830144

2010/08/08 04:55
KBBF 080455Z AUTO 17015KT 10SM FEW025 30/26 A2990 RMK A01

2010/08/08 04:55
KBBG 080455Z AUTO 14006KT 10SM CLR 25/21 A2994 RMK AO2

2010/08/08 04:55
KBQX 080455Z AUTO 17015KT 10SM FEW024 30/26 A2990 RMK A01

2010/08/08 04:56
PAPM 080456Z AUTO 20005KT 10SM -RA OVC013 10/09 A2972 RMK AO2 TSNO T01000088 P0000 SLP066 $

2010/08/08 04:56
PARS 080456Z AUTO 21005KT 10SM BKN021 OVC027 13/11 A2968 RMK AO2 TSNO T01270105 BKN V SCT SLP055 $

2010/08/08 04:56
PARY 080456Z AUTO 20007KT 10SM BKN035 OVC043 13/11 A2965 RMK AO2 PWINO TSNO T01330105 BKN V SCT SLP046

2010/08/08 04:56
PATQ 080456Z AUTO 06018KT 10SM -RA OVC009 06/04 A2977 RMK AO2 TSNO T00550044 P0000 SLP086 $

2010/08/08 04:54
KDYT 080454Z AUTO 06012KT 10SM -VCTSRA BKN004 BKN020 OVC036 18/17 A2972 RMK AO2 LTG DSNT ALQDS

2010/08/08 05:00
KEDU 080500Z AUTO 19007KT 10SM CLR 18/12 A2973 RMK AO1

2010/08/08 04:55
KEFK 080455Z AUTO 21005KT 10SM BKN060 08/07 A3000 RMK AO2

2010/08/08 04:55
KEFT 080455Z AUTO 20012KT 10SM CLR 22/19 A2986 RMK AO2 T02190188 402810183

2010/08/08 04:51
KEGV 080451Z AUTO 21004KT 10SM RA SCT047 BKN095 OVC120 19/19 A2977 RMK AO2 P0014 T01860187

2010/08/08 04:55
KEHC 080455Z AUTO 19010KT 10SM SCT027 SCT032 31/24 A2994 RMK A01

2010/08/08 04:55
KEIR 080455Z AUTO 18010KT 10SM FEW025 30/24 A2995 RMK A01

2010/08/08 04:56
KEKQ 080456Z AUTO 00000KT 2SM BR 17/17 A3001 RMK AO2 T01720172 403050155 SLP160 $

2010/08/08 04:53
KELO 080453Z AUTO 13003KT 10SM OVC026 19/16 A2973 RMK AO2

2010/08/08 04:55
KEMK 080455Z AUTO 18010KT 10SM FEW024 FEW029 30/25 A2994 RMK A01

2010/08/08 04:52
KETB 080452Z AUTO 21004KT 10SM CLR 22/18 A2984 RMK AO2 T02210176

2010/08/08 04:54
KETH 080454Z AUTO 00000KT 10SM CLR 22/21 A2968 RMK AO2 LTG DSNT E

2010/08/08 04:52
KEVM 080452Z AUTO 00000KT 10SM BKN070 OVC090 18/16 A2972 RMK AO1

2010/08/08 04:54
KEZS 080454Z AUTO 19003KT 10SM SCT038 OVC090 23/21 A2978 RMK AO2 LTG DSNT NW T02330205

2010/08/08 04:54
KFBL 080454Z AUTO 17006KT 10SM SCT060 BKN070 25/21 A2973 RMK AO2 LTG DSNT NE

2010/08/08 05:01
KFKA 080501Z AUTO 21008G16KT 10SM CLR 24/22 A2979 RMK AO2 T02430220

2010/08/08 04:59
KFSO 080459Z AUTO 15004KT 10SM CLR 12/10 A2997 RMK AO2

2010/08/08 04:54
KFWA 080454Z 20003KT 10SM CLR 19/17 A2998 RMK AO2 SLP148 T01940172 402720150

2010/08/08 04:55
KGBK 080455Z AUTO 18010KT 10SM CLR 30/25 A2996 RMK A01

2010/08/08 04:54
KGSO 080454Z 00000KT 8SM CLR 23/19 A3003 RMK AO2 SLP156 T02280189 403060217

2010/08/08 04:55
KGUL 080455Z AUTO 10SM FEW024 30/25 A2995 RMK A01

2010/08/08 04:54
KGYL 080454Z AUTO 18007KT 10SM BKN048 BKN075 25/22 A2968 RMK AO2 LTG DSNT NE AND NW T02470215

2010/08/08 04:52
KHCD 080452Z AUTO 18006KT 10SM CLR 24/21 A2968 RMK AO2 T02400206 TSNO

2010/08/08 04:54
KHCO 080454Z AUTO 11008KT 10SM CLR 21/19 A2968 RMK AO2

2010/08/08 04:55
KHFJ 080455Z AUTO 00000KT 10SM CLR 24/22 A2989 RMK AO1

2010/08/08 04:50
KHQI 080450Z AUTO 15007KT 130V200 10SM 30/25 A2994 RMK A01

2010/08/08 04:51
KHZX 080451Z AUTO 08005KT 7SM CLR 20/19 A2970 RMK AO2 LTG DSNT SE

2010/08/08 04:54
KIKW 080454Z AUTO 19005KT 10SM SCT110 21/17 A2987 RMK AO2 T02130166 402870077

2010/08/08 04:55
KIPN 080455Z AUTO 25011KT 10SM CLR 30/25 A2995 RMK A01

2010/08/08 04:54
KJKJ 080454Z AUTO 20003KT 10SM CLR 23/22 A2964 RMK AO2

2010/08/08 04:55
KJMR 080455Z AUTO 25006KT 10SM CLR 18/17 A2968 RMK AO2 LTG DSNT E THRU S P0053

2010/08/08 04:55
KLCK 080455Z AUTO 00000KT 10SM CLR 20/17 A3000 RMK AO2 T02010170

2010/08/08 04:52
KLJF 080452Z AUTO 19003KT 10SM VCTS SCT041 SCT050 SCT090 26/23 A2968 RMK AO2 LTG DSNT W THRU E

2010/08/08 04:54
KLVN 080454Z AUTO 20007KT 10SM CLR 25/22 A2970 RMK AO2 LTG DSNT N AND NE

2010/08/08 04:53
KLXL 080453Z AUTO 00000KT 10SM BKN034 BKN041 BKN050 20/18 A2967 RMK AO2

2010/08/08 04:58
KLYV 080458Z AUTO 19007KT 10SM CLR 24/21 A2973 RMK AO2

2010/08/08 04:56
KM89 080456Z AUTO 00000KT 1 3/4SM -TSRA BR BKN002 BKN011 OVC085 25/24 A2990 RMK AO2 T02500244 LTG DSNT NW RAB31 P0025 SLP136

2010/08/08 04:55
KMDJ 080455Z AUTO 23012KT 10SM CLR 31/25 A2995 RMK A01

2010/08/08 04:55
KMHR 080455Z AUTO 20004KT 10SM CLR 18/11 A2975 RMK AO1

2010/08/08 04:55
KMIU 080455Z AUTO 19020KT 10SM FEW025 30/26 A2991 RMK A01

2010/08/08 04:52
KMJQ 080452Z AUTO 19010KT 10SM CLR 24/22 A2975 RMK AO2

2010/08/08 04:53
KMRT 080453Z AUTO 00000KT 10SM CLR 16/15 A3004 RMK AO2 T01620150

2010/08/08 04:56
KSDF 080456Z 00000KT 9SM CLR 24/16 A2998 RMK AO2 SLP145 T02440156 403220200 $

2010/08/08 04:53
K04W 080453Z AUTO 02009KT 10SM VCTS SCT110 21/19 A2967 RMK AO2 LTG DSNT E AND SE T02070188

2010/08/08 04:55
K21D 080455Z AUTO 20009KT 10SM SCT047 26/21 A2970 RMK AO2 LTG DSNT W THRU NE

2010/08/08 04:56
KART 080456Z AUTO 18003KT 10SM CLR 16/11 A2996 RMK AO2 SLP142 T01560111 402280072

2010/08/08 04:56
KBED 080456Z AUTO 00000KT 10SM CLR 13/10 A3001 RMK AO2 SLP172 T01330100 402780111

2010/08/08 04:54
KBJI 080454Z AUTO 00000KT 10SM CLR 19/19 A2968 RMK AO2

2010/08/08 04:56
KBJJ 080456Z AUTO 00000KT 6SM BR CLR 16/15 A3002 RMK AO2 SLP162 T01610150 402670139

2010/08/08 04:56
KBZN 080456Z 00000KT 10SM SCT110 19/08 A2992 RMK AO2 SLP087 T01940078

2010/08/08 04:54
KC29 080454Z AUTO 21008KT 10SM CLR 23/19 A2984 RMK AO2 T02300185 402920140

2010/08/08 04:56
KCTB 080456Z AUTO 25011KT 10SM CLR 18/06 A2980 RMK AO2 SLP057 T01780061 PWINO

2010/08/08 04:56
KCXY 080456Z AUTO 00000KT 10SM CLR 21/17 A3000 RMK AO2 SLP156 T02110172 402830172

2010/08/08 04:53
KD39 080453Z AUTO 00000KT 10SM VCTS CLR 23/19 A2967 RMK AO2 LTG DSNT E AND S T02300192

2010/08/08 04:56
KDAY 080456Z 15007KT 10SM CLR 21/15 A3002 RMK AO2 SLP159 T02060150 402890150

2010/08/08 04:55
KDVK 080455Z AUTO 00000KT 10SM CLR 18/17 A3000 RMK AO1

2010/08/08 04:56
KELZ 080456Z AUTO 00000KT 10SM CLR 13/09 A3007 RMK AO2 SLP179 T01280089 402170094

2010/08/08 04:55
KFAF 080455Z AUTO 11003KT 10SM -DZ CLR 24/24 A2999 RMK AO2 DZB0436 SLP156 P0000 T02410240 403090225 $

2010/08/08 04:56
KGON 080456Z AUTO 00000KT 10SM CLR 18/16 A3002 RMK AO2 SLP165 T01780161 402560144

2010/08/08 04:55
KHFF 080455Z AUTO 00000KT 10SM FEW085 24/23 A2998 RMK AO2 SLP150 T02420226 403220225 $

2010/08/08 04:56
KHPN 080456Z 17004KT 10SM CLR 20/18 A3000 RMK AO2 SLP155 T02000178 402830150

2010/08/08 04:56
KHWV 080456Z AUTO 20005KT 10SM CLR 23/20 A3003 RMK AO2 SLP167 T02280200 402670133 PWINO $

2010/08/08 04:56
KHYA 080456Z 20004KT 10SM CLR 22/19 A3003 RMK AO2 SLP171 T02170189 402440122

2010/08/08 04:56
KISP 080456Z 19006KT 10SM CLR 23/18 A3001 RMK AO2 SLP159 T02330183 402670150

2010/08/08 04:56
KITH 080456Z AUTO 08006KT 10SM CLR 13/11 A3003 RMK AO2 T01270111 SLP168

2010/08/08 04:56
KJXN 080456Z 20006KT 10SM CLR 18/17 A2994 RMK AO2 SLP134 T01830167 402670122

2010/08/08 04:55
KLFI 080455Z 10004KT 10SM SCT008 25/23 A3000 RMK AO2A SLP159 T02450233 402930230

2010/08/08 04:56
KLRD 080456Z AUTO 16012KT 10SM CLR 32/22 A2990 RMK AO2 T03160216 403940261 SLP112

2010/08/08 04:55
KMCF 080455Z AUTO 24003KT 10SM CLR 29/26 A2996 RMK AO2 SLP146 T02910262 403230264

2010/08/08 04:56
KMDT 080456Z 00000KT 10SM SCT075 22/17 A2999 RMK AO2 SLP153 T02220172 402890178

2010/08/08 04:56
KOWB 080456Z AUTO 00000KT 10SM CLR 22/18 A2996 RMK AO2 T02160183 403110183 SLP142

2010/08/08 04:56
KSGH 080456Z AUTO 00000KT 7SM CLR 17/17 A3002 RMK AO2 T01720172 402830133 SLP160 $

2010/08/08 04:58
KSGJ 080458Z AUTO 18003KT 10SM SCT045 BKN070 25/24 A2994 RMK AO2 SLP139 T02500239 403390244

2010/08/08 04:55
KSME 080455Z AUTO 00000KT 4SM BR 19/19 A3000 RMK AO2

2010/08/08 04:56
KTZR 080456Z AUTO 00000KT 10SM CLR 17/16 A3001 RMK AO2

2010/08/08 04:55
KY51 080455Z AUTO 18007KT 7SM CLR 22/21 A2981 RMK AO1 T02220210

2010/08/08 04:56
TJSJ 080456Z 10007G14KT 10SM SCT025 SCT036 28/24 A2997 RMK AO2 SLP149 VCSH SW T02830239

2010/08/08 04:56
PAFS 080456Z AUTO 00000KT 10SM FEW036 SCT080 12/10 A2971 RMK AO2 TSNO T01220100 SLP069 $

2010/08/08 04:56
PAGN 080456Z AUTO 00000KT BKN014 OVC036 RMK AO2 PWINO TSNO SLPNO $

2010/08/08 04:56
PAHC 080456Z AUTO 21006KT 10SM FEW015 BKN021 OVC028 13/11 A2968 RMK AO2 TSNO T01270105 BKN V OVC SLPNO $

2010/08/08 04:56
PAIG 080456Z AUTO 22007KT 10SM OVC021 12/09 A2979 RMK AO2 PWINO TSNO T01160094 SLP090 $

2010/08/08 04:56
PAMO 080456Z AUTO 19011KT 10SM SCT008 BKN020 OVC037 13/12 A2966 RMK AO2 TSNO T01270116 RAB05E41 P0001 SLP043 $

2010/08/08 04:56
PAOO 080456Z AUTO 14012KT 10SM OVC011 11/09 A2964 RMK AO2 TSNO T01050088 SLP037 $

2010/08/08 04:55
KBUU 080455Z AUTO 21005KT 10SM CLR 19/18 A2987 RMK AO2 T01920180

2010/08/08 04:51
KBWP 080451Z AUTO 04004KT 10SM CLR 21/19 A2964 RMK AO1 T02100191

2010/08/08 04:56
KCAE 080456Z 00000KT 5SM BR CLR 26/24 A2995 RMK AO2 SLP137 T02610244 403390228

2010/08/08 04:56
KCHS 080456Z 00000KT 7SM CLR 26/24 A2994 RMK AO2 SLP137 T02560239 403280233

2010/08/08 04:55
KCLI 080455Z AUTO 21005KT 10SM CLR 23/20 A2979 RMK AO2

2010/08/08 04:55
KCMB 080455Z AUTO 21011KT 10SM FEW026 32/25 A2993 RMK A01

2010/08/08 04:55
KCMR 080455Z AUTO 14006KT 10SM FEW120 14/12 A3022 RMK AO1

2010/08/08 04:55
KCMY 080455Z AUTO 21003KT 10SM CLR 24/21 A2978 RMK AO2 T02360207 402850120

2010/08/08 04:55
KCRH 080455Z AUTO 20013KT 10SM FEW027 31/25 A2993 RMK A01

2010/08/08 04:50
KCVH 080450Z AUTO 25007KT 10SM BKN013 13/11 A2990 RMK AO1

2010/08/08 04:55
KCWA 080455Z AUTO 18007KT 10SM SCT030 OVC038 22/21 A2980 RMK AO2 LTG DSNT W T02200210

2010/08/08 04:56
KDIJ 080456Z AUTO 07003KT 10SM CLR 10/07 A3003 RMK AO2 T01000066 SLP086 $

2010/08/08 04:55
KDLL 080455Z AUTO 20009G14KT 10SM CLR 22/18 A2981 RMK AO2 T02220179

2010/08/08 04:55
KDLP 080455Z AUTO 24012KT 10SM FEW027 FEW034 33/25 A2993 RMK A01

2010/08/08 04:56
KDVP 080456Z AUTO 19013G16KT 10SM CLR 25/21 A2974 RMK AO2 LTG DSNT N T02460205

2010/08/08 04:54
KDXX 080454Z AUTO 00000KT 7SM CLR 24/24 A2964 RMK AO2 LTG DSNT E

2010/08/08 04:54
KTOB 080454Z AUTO 20010G15KT 10SM BKN060 OVC075 25/22 A2977 RMK AO2

2010/08/08 04:55
KVAF 080455Z AUTO 21012KT 10SM FEW024 30/24 A2990 RMK A01

2010/08/08 04:55
KVBS 080455Z AUTO VRB06G12KT 170V230 10SM CLR 31/24 A2992 RMK A01

2010/08/08 04:53
KVES 080453Z AUTO 00000KT 10SM CLR 17/16 A3000 RMK AO2 T01660161

2010/08/08 04:56
KVVV 080456Z AUTO 00000KT 10SM CLR 26/23 A2964 RMK AO2 LTG DSNT E

2010/08/08 04:49
KVWU 080449Z AUTO 08004KT 10SM CLR 18/17 A2969 RMK AO2

2010/08/08 04:56
KXVG 080456Z AUTO 00000KT 5SM BR CLR 18/18 A2968 RMK AO2 LTG DSNT SE

2010/08/08 04:55
KY63 080455Z AUTO 14004KT 10SM CLR 23/21 A2965 RMK AO2 LTG DSNT SE T02300205

2010/08/08 04:56
PAGN 080456Z AUTO 00000KT BKN014 OVC036 RMK AO2 PWINO TSNO SLPNO $

2010/08/08 04:56
PATQ 080456Z AUTO 06018KT 10SM -RA OVC009 06/04 A2977 RMK AO2 TSNO T00550044 P0000 SLP086 $

2010/08/08 04:50
VGZR 080450Z 21003KT 4000 RA BKN009 FEW025CB OVC090 28/26 Q1004 TEMPO TSRA

2010/08/08 04:50
VNKT 080450Z 00000KT 8000 FEW020 SCT025 BKN100 26/XX Q1012 NOSIG

2010/08/08 04:57
KNJM 080457Z AUTO 05003KT 10SM CLR 26/24 A2996 RMK AO2 SLP149 T02560239 403000228 

2010/08/08 04:56
KLWS 080456Z 25004KT 10SM CLR 24/08 A2977 RMK AO2 SLP070 T02440078 

2010/08/08 05:00
GVAC 080500Z 04003KT 9999 BKN017 25/20 Q1013 NOSIG

2010/08/08 05:00
LRBM 080500Z VRB02KT 9999 FEW034 19/17 Q1016

2010/08/08 04:55
EHEH 080455Z AUTO 22001KT 0250NDV FG OVC007 13/13 Q1015 RED

2010/08/08 04:55
EHKD 080455Z AUTO 33003KT 9999NDV FEW015/// SCT022/// BKN044/// 16/15 Q1015 WHT

2010/08/08 05:00
FNLU 080500Z 00000KT 9999 FEW020 BKN028 20/19 Q1014 NSG

2010/08/08 05:00
SBBR 080500Z 25003KT CAVOK 16/06 Q1022

2010/08/08 04:58
CWOB 080458Z AUTO ///// 0SM CLR 05/ A2946

2010/08/08 05:00
FBSK 080500Z 16006KT CAVOK 06/04 Q1026 NOSIG

2010/08/08 04:50
ESSA 080450Z 01008KT 2500 BR OVC003 16/16 Q1012 TEMPO 5000

2010/08/08 04:54
KACY 080454Z 16004KT 10SM FEW100 23/21 A3003 RMK AO2 SLP167 T02330206 403000156

2010/08/08 04:55
KADW 080455Z AUTO 18003KT 10SM CLR 21/16 A3000 RMK AO2 SLP161 T02080162 $

2010/08/08 04:56
KCHS 080456Z 00000KT 7SM CLR 26/24 A2994 RMK AO2 SLP137 T02560239 403280233

2010/08/08 04:53
KFLL 080453Z COR 00000KT 10SM FEW035 28/24 A2997 RMK AO2 SLP150 T02830244 403280261 PNO $

2010/08/08 04:55
KLFI 080455Z 10004KT 10SM SCT008 25/23 A3000 RMK AO2A SLP159 T02450233 402930230

2010/08/08 04:55
KMCF 080455Z AUTO 24003KT 10SM CLR 29/26 A2996 RMK AO2 SLP146 T02910262 403230264

2010/08/08 04:55
KNBG 080455Z AUTO 00000KT 10SM CLR 28/24 A2994 RMK AO2 SLP138 T02830244 PWINO $

2010/08/08 04:56
KNGP 080456Z AUTO 20009G18KT 10SM CLR 28/26 A2990 RMK AO2 SLP123 T02830261 VISNO $

2010/08/08 04:54
KNKT 080454Z 11003KT 6SM BR CLR 24/23 A2997 RMK AO2 SLP144 T02440233 403110228

2010/08/08 04:56
KNPA 080456Z AUTO 00000KT 10SM TS CLR 26/24 A2990 RMK AO2 TSE00B41 SLP128 T02610239

2010/08/08 04:56
KNTU 080456Z 00000KT 10SM FEW007 SCT060 24/23 A2998 RMK AO2 SLP155 T02390228 402940222 $

2010/08/08 04:55
KPAM 080455Z AUTO 12003KT 10SM CLR 26/26 A2991 RMK AO2 DZE0404 SLP131 P0000 T02580256 $

2010/08/08 04:54
KPHL 080454Z 18006KT 10SM FEW100 SCT250 24/20 A3001 RMK AO2 SLP162 T02390200 403110194 $

2010/08/08 04:54
KSYR 080454Z 15003KT 10SM FEW250 16/12 A2999 RMK AO2 SLP151 T01560117 402440122

2010/08/08 04:56
MUGM 080456Z 34004KT 9999 FEW020 28/24 A2998 RMK SLP151 T02830239 403170256

2010/08/08 04:56
K79J 080456Z AUTO 00000KT 7SM CLR 27/23 A2993 RMK AO2 SLP127 T02670233 TSNO PNO $

2010/08/08 04:55
KGRK 080455Z 15009KT 7SM FEW200 31/21 A2989 RMK SLP098

2010/08/08 04:55
KNBG 080455Z AUTO 00000KT 10SM CLR 28/24 A2994 RMK AO2 SLP138 T02830244 PWINO $

2010/08/08 04:56
KNGP 080456Z AUTO 20009G18KT 10SM CLR 28/26 A2990 RMK AO2 SLP123 T02830261 VISNO $

2010/08/08 04:55
KNKX 080455Z 27003KT 10SM SCT020 16/12 A2992 RMK AO2 SLP126 T01560117

2010/08/08 04:56
KNPA 080456Z AUTO 00000KT 10SM TS CLR 26/24 A2990 RMK AO2 TSE00B41 SLP128 T02610239

2010/08/08 04:56
KNQI 080456Z AUTO 16009KT 9SM CLR 29/24 A2990 RMK AO2 SLP122 T02890239

2010/08/08 04:56
KNSE 080456Z AUTO 00000KT 5SM BR SCT100 26/24 A2992 RMK AO2 SLP116 T02610244 $

2010/08/08 04:56
KNTU 080456Z 00000KT 10SM FEW007 SCT060 24/23 A2998 RMK AO2 SLP155 T02390228 402940222 $

2010/08/08 04:56
KNUQ 080456Z 02007KT 10SM FEW012 15/12 A2986 RMK AO2 SLP115 T01500122

2010/08/08 04:56
KNXP 080456Z AUTO 22010KT CLR 28/02 A2986 RMK AO2 SLP073 T02830017 $

2010/08/08 04:56
KNYG 080456Z AUTO 31005KT 10SM CLR 20/18 A3001 RMK AO2 SLP162 T02000178 402940194 $

2010/08/08 04:55
KPOE 080455Z AUTO 19005KT 10SM CLR 28/24 A2992 RMK AO2 SLP130 T02780244 403500233

2010/08/08 04:56
KSGH 080456Z AUTO 00000KT 7SM CLR 17/17 A3002 RMK AO2 T01720172 402830133 SLP160 $

2010/08/08 04:56
MUGM 080456Z 34004KT 9999 FEW020 28/24 A2998 RMK SLP151 T02830239 403170256

2010/08/08 04:50
OAUZ 080450Z 09003KT 9000 SCT140 35/10 Q1005 BLU/

2010/08/08 04:56
TJSJ 080456Z 10007G14KT 10SM SCT025 SCT036 28/24 A2997 RMK AO2 SLP149 VCSH SW T02830239

2010/08/08 04:58
ETNN 080458Z 23007KT 3500 SHRA SCT019 BKN022 BKN036 16/15 Q1015 YLO

2010/08/08 04:53
KLOR 080453Z AUTO 00000KT 9SM CLR 24/23 A2993 RMK AO2 SLP129 T02440228 403440244 TSNO PNO $ 

2010/08/08 04:50
KDMA 080450Z AUTO 16015G22KT 10SM BKN065 24/17 A2998 RMK AO2 PK WND 17027/0430 DZB0423E0450 SLP094 VISNO RWY12 CHINO RWY12 $

2010/08/08 04:52
KDMA 080452Z AUTO 16014KT 10SM -DZ BKN065 24/17 A2998 RMK AO2 PK WND 17027/0430 DZB0423 SLP094 VISNO RWY12 CHINO RWY12 $

2010/08/08 04:55
CYUS 080455Z AUTO ///// 9SM CLR 09/ A2985

2010/08/08 04:55
EBBL 080455Z 27004KT 7000 FEW007 SCT011 BKN055 15/15 Q1015 GRN

2010/08/08 04:57
EGUN 080457Z AUTO 33007KT 9999 BKN006 OVC016 14/14 A3007 RMK AO2 CIG 005V009 SLP172

2010/08/08 04:57
EHKD 080457Z AUTO 33003KT 9999NDV SCT011/// SCT013/// BKN020/// 16/15 Q1015 GRN

2010/08/08 04:54
ETAD 080454Z AUTO 21005KT 9999 SCT037 SCT060 OVC080 15/14 A3000 RMK AO2 RAE0448DZB0448E0454 SLP148 $

2010/08/08 04:56
ETOU 080456Z AUTO 14003KT 9999 SCT050 OVC065 17/15 A2999 RMK AO2 RAE0456 SLP153

2010/08/08 04:50
KDMA 080450Z AUTO 16015G22KT 10SM BKN065 24/17 A2998 RMK AO2 PK WND 17027/0430 DZB0423E0450 SLP094 VISNO RWY12 CHINO RWY12 $

2010/08/08 04:52
KDMA 080452Z AUTO 16014KT 10SM -DZ BKN065 24/17 A2998 RMK AO2 PK WND 17027/0430 DZB0423 SLP094 VISNO RWY12 CHINO RWY12 $

2010/08/08 04:53
PAED 080453Z 22008KT 10SM SCT011 BKN047 OVC055 12/11 A2975 RMK AO2A SLP076

2010/08/08 04:46
RJFN 080446Z 07011KT 9999 FEW010 BKN020 29/24 Q1011 RMK 2CU010 5CU020 A2988

2010/08/08 04:58
RODN 080458Z 18007KT 9999 FEW017 BKN037 BKN100 BKN200 29/27 A2963 RMK AO2A RAE0458 SLP032

2010/08/08 04:50
VECC 080450Z 16004KT 5000 HZ FEW018 SCT025 32/27 Q1003 NOSIG

2010/08/08 04:50
K3A6 080450Z AUTO 36001KT 16/09 A2987 RMK AO1 SLP102 T01590095 

2010/08/08 05:00
FBSK 080500Z 16006KT CAVOK 06/04 Q1026 NOSIG

2010/08/08 04:56
KSMP 080456Z AUTO VRB04KT 1/4SM FG BKN002 OVC006 11/11 A2997 RMK AO2 SLP141 P0002 T01060106 TSNO $ 

2010/08/08 04:50
EGDL 080450Z 32006KT 9999 SCT035 12/11 Q1020 BLU NOSIG

2010/08/08 04:50
EGDR 080450Z 04003KT 9999 FEW025 12/11 Q1022 BLU

2010/08/08 04:50
EGNJ 080450Z 35004KT 9999 FEW012 13/12 Q1019

2010/08/08 04:50
EGNS 080450Z 31005KT 280V360 9999 FEW012 13/10 Q1020

2010/08/08 04:50
EGPA 080450Z AUTO 30008KT 4600NDV BR SCT015/// BKN021/// BKN024/// 12/11 Q1019

2010/08/08 04:50
EGPC 080450Z AUTO 27004KT 9999NDV SCT016/// OVC031/// 11/11 Q1019

2010/08/08 04:50
EGPE 080450Z AUTO 23003KT 9999NDV OVC040/// 12/10 Q1020

2010/08/08 04:50
EGPL 080450Z AUTO 17006KT 9999NDV NCD 10/10 Q1019

2010/08/08 04:50
EGPM 080450Z AUTO 28008KT 9999NDV RA BKN011/// 12/11 Q1017

2010/08/08 04:50
EGPO 080450Z AUTO 00000KT 9999NDV NCD 09/07 Q1019

2010/08/08 04:50
EGQK 080450Z 23004KT 9999 FEW030 BKN038 13/09 Q1020 BLU TEMPO SCT022 WHT

2010/08/08 04:50
EGQL 080450Z 15005KT 9999 FEW022 OVC026 14/11 Q1020 BLU

2010/08/08 04:50
EGQS 080450Z 25004KT 9999 FEW020 BKN040 12/10 Q1019 BLU

2010/08/08 04:55
EGUL 080455Z AUTO 32005KT 9999 FEW006 OVC011 14/14 A3006 RMK AO2 CIG 010V015 OVC V BKN SLP181 T01440138

2010/08/08 04:55
EGVA 080455Z AUTO 36005KT 9999 CLR 13/13 A3012 RMK AO2 SLP200 T01340127 $

2010/08/08 04:50
EGVN 080450Z 29002KT 9999 FEW012 SCT016 BKN032 14/12 Q1020 BECMG FEW016

2010/08/08 04:50
EGXC 080450Z 31006KT CAVOK 12/11 Q1019 BLU

2010/08/08 04:50
EGXW 080450Z 33008KT 5000 BR FEW060 12/11 Q1019 WHT

2010/08/08 04:50
EDLP 080450Z 12003KT CAVOK 15/15 Q1014 RMK RWY24 TRL60 PB ATIS F

2010/08/08 04:50
EDNY 080450Z 00000KT CAVOK 13/12 Q1018 RMK ATIS C

2010/08/08 04:50
EDXW 080450Z AUTO 25003KT 9999NDV BR FEW007/// SCT013/// 17/15 Q1014 RMK ATIS INFO B

2010/08/08 04:50
EGNJ 080450Z 35004KT 9999 FEW012 13/12 Q1019

2010/08/08 04:50
EGPA 080450Z AUTO 30008KT 4600NDV BR SCT015/// BKN021/// BKN024/// 12/11 Q1019

2010/08/08 04:50
EGPC 080450Z AUTO 27004KT 9999NDV SCT016/// OVC031/// 11/11 Q1019

2010/08/08 04:50
EGPE 080450Z AUTO 23003KT 9999NDV OVC040/// 12/10 Q1020

2010/08/08 04:50
EGPL 080450Z AUTO 17006KT 9999NDV NCD 10/10 Q1019

2010/08/08 04:50
EGPM 080450Z AUTO 28008KT 9999NDV RA BKN011/// 12/11 Q1017

2010/08/08 04:50
EGPO 080450Z AUTO 00000KT 9999NDV NCD 09/07 Q1019

2010/08/08 04:55
EGVA 080455Z AUTO 36005KT 9999 CLR 13/13 A3012 RMK AO2 SLP200 T01340127 $

2010/08/08 04:50
EGVN 080450Z 29002KT 9999 FEW012 SCT016 BKN032 14/12 Q1020 BECMG FEW016

2010/08/08 04:55
EHKD 080455Z AUTO 33003KT 9999NDV FEW015/// SCT022/// BKN044/// 16/15 Q1015 WHT

2010/08/08 05:00
GVAC 080500Z 04003KT 9999 BKN017 25/20 Q1013 NOSIG

2010/08/08 04:50
LGBL 080450Z 00000KT CAVOK 25/17 Q1010 NOSIG BLU

2010/08/08 04:50
LGLR 080450Z 00000KT 9999 FEW035 21/16 Q1011 NOSIG BLU

2010/08/08 04:50
LGPZ 080450Z 00000KT CAVOK 20/19 Q1013 NOSIG BLU

2010/08/08 04:50
LGRX 080450Z 00000KT CAVOK 21/18 Q1011 NOSIG BLU

2010/08/08 04:50
LGSR 080450Z 00000KT CAVOK 25/21 Q1008 NOSIG BLU

2010/08/08 04:50
LGSY 080450Z 00000KT CAVOK 25/21 Q1009 NOSIG BLU

2010/08/08 04:50
LGTG 080450Z 00000KT CAVOK 24/16 Q1010 NOSIG BLU

2010/08/08 04:50
LOXT 080450Z 24005KT 20KM FEW050SC SCT060SC BKN080AC 15/14 Q1017 RMK OVC

2010/08/08 05:00
LRBM 080500Z VRB02KT 9999 FEW034 19/17 Q1016

2010/08/08 04:56
KMHS 080456Z AUTO VRB03KT 10SM SCT085 21/08 A2992 RMK AO2 SLP115 T02110078 TSNO 

2010/08/08 04:54
KAPN 080454Z AUTO 00000KT 10SM SCT049 17/16 A2982 RMK AO2 SLP098 T01670156 402500067 

2010/08/08 04:56
KP28 080456Z AUTO 15006KT 29/22 A2983 RMK AO2 SLP081 T02940217 PWINO TSNO

2010/08/08 04:56
KGNR 080456Z AUTO 00000KT 09/05 A2999 RMK AO1 SLP158 T00940050 401830061

2010/08/08 04:56
KCDJ 080456Z AUTO 15003KT 27/21 A2989 RMK AO2 SLP103 T02670211 PWINO TSNO

2010/08/08 04:56
KGFA 080456Z AUTO 00000KT 10SM CLR 19/06 A2977 RMK AO2 SLP079 T01890061 $

2010/08/08 04:56
KD07 080456Z AUTO 00000KT 27/12 A2976 RMK AO2 SLP056 T02670122 PWINO TSNO

2010/08/08 04:56
K2WX 080456Z AUTO 23013KT 23/11 A2977 RMK AO1 SLP055 T02330106

2010/08/08 04:56
KSPD 080456Z AUTO 21009KT 22/17 A2996 RMK AO2 SLP075 T02220172 PWINO TSNO

2010/08/08 04:56
KINS 080456Z AUTO 07005KT 10SM 27/10 A2984 RMK AO2 SLP048 T02670100 TSNO $

2010/08/08 04:56
KNRS 080456Z AUTO 23005KT 10SM OVC017 17/13 A2993 RMK AO2 SLP134 T01670133 TSNO $

2010/08/08 04:53
KGNT 080453Z AUTO 36005KT 16/14 A3023 RMK AO2 SLP142 T01610139 PWINO TSNO

2010/08/08 04:56
KFSD 080456Z 20012G17KT 10SM CLR 27/23 A2971 RMK AO2 SLP047 T02670228

2010/08/08 04:56
KLWS 080456Z 25004KT 10SM CLR 24/08 A2977 RMK AO2 SLP070 T02440078

2010/08/08 04:52
KCDD 080452Z AUTO 00000KT 5SM BR SCT032 19/19 A2973 RMK AO2

2010/08/08 04:53
KFOZ 080453Z AUTO 00000KT 10SM CLR 16/15 A2972 RMK AO2 TSNO

2010/08/08 04:53
KBFW 080453Z AUTO 08003KT 10SM SCT060 18/14 A2973 RMK AO2 LTG DSNT S AND SW

2010/08/08 04:50
K3A6 080450Z AUTO 36001KT 16/09 A2987 RMK AO1 SLP102 T01590095

2010/08/08 04:55
KLDM 080455Z AUTO 22009KT 10SM BKN039 24/21 A2983 RMK AO2

2010/08/08 04:55
KPHN 080455Z AUTO 00000KT 10SM SCT100 SCT110 19/16 A2993 RMK AO2

2010/08/08 04:55
KRMY 080455Z AUTO 19003KT 10SM CLR 21/17 A2993 RMK AO2

2010/08/08 04:56
KOSC 080456Z AUTO 21004KT 10SM CLR 19/17 A2985 RMK AO2

2010/08/08 04:54
KTTF 080454Z AUTO 21004KT 7SM CLR 21/17 A2994 RMK AO2

2010/08/08 04:55
KMCD 080455Z AUTO 00000KT 10SM CLR 20/17 A2978 RMK AO2

2010/08/08 04:57
KFPK 080457Z AUTO 19005KT 10SM CLR 19/17 A2991 RMK AO2

2010/08/08 04:55
KCVX 080455Z AUTO 20007KT 10SM SCT120 22/18 A2979 RMK AO2

2010/08/08 04:54
KMOP 080454Z AUTO 18004KT 10SM SCT120 22/19 A2987 RMK AO2

2010/08/08 04:54
KFKS 080454Z AUTO 20005KT 10SM OVC032 23/20 A2979 RMK AO2

2010/08/08 04:54
KCAD 080454Z AUTO 22006KT 10SM OVC037 22/20 A2986 RMK AO2

2010/08/08 04:55
KMGN 080455Z AUTO 00000KT 10SM SCT031 OVC038 22/17 A2978 RMK AO2

2010/08/08 04:55
KSLH 080455Z AUTO 18003KT 10SM SCT090 18/17 A2978 RMK AO2

2010/08/08 04:55
KSJX 080455Z AUTO 20006KT 10SM CLR 22/20 A2977 RMK AO2

2010/08/08 04:55
KHAI 080455Z AUTO 19005KT 7SM CLR 19/18 A2994 RMK AO2

2010/08/08 04:56
KLWA 080456Z AUTO 20007KT 10SM BKN065 BKN085 23/17 A2990 RMK AO2

2010/08/08 04:57
KDRM 080457Z AUTO 16004KT 7SM CLR 16/15 A2978 RMK AO2

2010/08/08 04:54
KVLL 080454Z AUTO 21006KT 10SM CLR 22/15 A2995 RMK AO2

2010/08/08 04:55
KGOV 080455Z AUTO 22005KT 10SM SCT085 SCT120 21/18 A2985 RMK AO2

2010/08/08 04:54
KPZQ 080454Z AUTO 20005KT 10SM SCT041 20/15 A2981 RMK AO2

2010/08/08 04:55
KCFS 080455Z AUTO 00000KT 10SM SCT120 20/16 A2989 RMK AO2

2010/08/08 04:54
KHYX 080454Z AUTO 21007KT 10SM SCT120 21/16 A2989 RMK AO2

2010/08/08 04:55
KOZW 080455Z AUTO 21005KT 10SM CLR 20/16 A2993 RMK AO2

2010/08/08 04:55
KRNP 080455Z AUTO 21005KT 10SM BKN120 21/17 A2991 RMK AO2

2010/08/08 04:54
KDUH 080454Z AUTO 20003KT 10SM CLR 21/15 A2996 RMK AO2

2010/08/08 04:55
KISQ 080455Z AUTO 00000KT 7SM BKN100 22/19 A2975 RMK AO2

2010/08/08 04:55
KJYM 080455Z AUTO 20004KT 7SM CLR 21/17 A2996 RMK AO2

2010/08/08 05:04
KBAX 080504Z AUTO 22005KT 10SM BKN060 OVC080 21/16 A2989 RMK AO2

2010/08/08 04:55
KIRS 080455Z AUTO 19004KT 7SM CLR 19/17 A2995 RMK AO2

2010/08/08 04:55
KAMN 080455Z AUTO 19004KT 10SM SCT110 20/17 A2988 RMK AO2

2010/08/08 04:55
KACB 080455Z AUTO 18004KT 10SM BKN048 23/20 A2980 RMK AO2

2010/08/08 04:54
KRQB 080454Z AUTO 18006KT 10SM OVC046 22/18 A2987 RMK AO2

2010/08/08 04:55
KERY 080455Z AUTO 20005KT 4SM BR SCT085 20/19 A2976 RMK AO2

2010/08/08 04:55
KOEB 080455Z AUTO 20005KT 10SM CLR 21/18 A2995 RMK AO2

2010/08/08 04:56
K4I3 080456Z AUTO 00000KT 10SM CLR 18/16 A3002 RMK AO2

2010/08/08 04:55
KAUM 080455Z AUTO 20008KT 10SM SCT080 23/21 A2976 RMK AO2

2010/08/08 04:55
KFFX 080455Z AUTO 20003KT 10SM OVC048 22/20 A2986 RMK AO2

2010/08/08 04:54
KCNB 080454Z AUTO 21006KT 10SM CLR 26/23 A2966 RMK AO2 LTG DSNT NE T02620230

2010/08/08 04:55
KCKN 080455Z AUTO 10004KT 10SM CLR 22/21 A2966 RMK AO2

2010/08/08 05:02
KCFE 080502Z AUTO 02008KT 10SM SCT020 BKN042 26/22 A2971 RMK AO2 LTG DSNT N AND W T02560216

2010/08/08 04:57
KCQM 080457Z AUTO 00000KT 10SM SCT024 17/16 A2973 RMK AO2

2010/08/08 04:55
KDTL 080455Z AUTO 14003KT 10SM CLR 21/16 A2969 RMK AO2

2010/08/08 04:55
KBDH 080455Z AUTO 00000KT 10SM TS SCT050 SCT090 26/22 A2968 RMK AO2 LTG DSNT N AND NE

2010/08/08 04:55
KCBG 080455Z AUTO 00000KT 10SM -RA SCT013 SCT035 19/17 A2968 RMK AO2 P0005 LTG DSNT E THRU W

2010/08/08 04:57
KADC 080457Z AUTO 00000KT 10SM CLR 18/17 A2967 RMK AO2 LTG DSNT S

2010/08/08 04:55
KHAF 080455Z AUTO 15007KT 1 1/4SM BR OVC003 12/11 A2990 RMK AO2

2010/08/08 04:55
KCKC 080455Z AUTO 13003KT 10SM SCT042 SCT065 15/12 A2977 RMK AO2

2010/08/08 04:55
KJYG 080455Z AUTO 18007KT 10SM CLR 26/26 A2972 RMK AO2 LTG DSNT NW

2010/08/08 04:56
KCOQ 080456Z AUTO 07006KT 10SM -VCTSRA SCT017 SCT024 BKN036 19/17 A2970 RMK AO2 LTG DSNT NE THRU S

2010/08/08 04:58
KACQ 080458Z AUTO 19010KT 10SM BKN060 25/22 A2976 RMK AO2 LTG DSNT NW

2010/08/08 04:55
KRGK 080455Z AUTO 22009G17KT 10SM SCT070 27/22 A2971 RMK AO2 LTG DSNT N

2010/08/08 04:54
KFSE 080454Z AUTO 00000KT 10SM CLR 20/19 A2967 RMK AO2

2010/08/08 04:55
KY70 080455Z AUTO 21008KT 10SM CLR 21/18 A2989 RMK AO2 T02130177

2010/08/08 04:50
KUKT 080450Z AUTO 00000KT 10SM BKN060 BKN075 18/15 A3003 RMK AO1

2010/08/08 04:54
KCDA 080454Z AUTO 00000KT 10SM CLR 08/06 A3002 RMK AO2

2010/08/08 04:59
KSAW 080459Z AUTO 00000KT 10SM SCT100 SCT120 17/14 A2975 RMK AO2 LTG DSNT SW

2010/08/08 04:56
KMHS 080456Z AUTO VRB03KT 10SM SCT085 21/08 A2992 RMK AO2 SLP115 T02110078 TSNO

2010/08/08 04:53
KRNM 080453Z 26005KT 10SM CLR 13/11 A2992 RMK AO2 SLP122 T01280106

2010/08/08 04:54
KSBN 080454Z 19007KT 10SM OVC095 22/17 A2994 RMK AO2 SLP133 T02220172 402780167

2010/08/08 04:53
KUIL 080453Z AUTO 29004KT 1 3/4SM BR OVC002 12/12 A2994 RMK AO2 CIG 001V005 SLP140 T01220117 TSNO

2010/08/08 04:52
KMLF 080452Z AUTO 00000KT 10SM SCT090 BKN110 17/13 A3007 RMK AO2 RAB11E44 SLP120 P0000 T01670128 TSNO

2010/08/08 04:53
KLOR 080453Z AUTO 00000KT 9SM CLR 24/23 A2993 RMK AO2 SLP129 T02440228 403440244 TSNO PNO $

2010/08/08 04:56
KSMP 080456Z AUTO VRB04KT 1/4SM FG BKN002 OVC006 11/11 A2997 RMK AO2 SLP141 P0002 T01060106 TSNO $

2010/08/08 04:54
KAPN 080454Z AUTO 00000KT 10SM SCT049 17/16 A2982 RMK AO2 SLP098 T01670156 402500067

2010/08/08 04:52
KCDD 080452Z AUTO 00000KT 5SM BR SCT032 19/19 A2973 RMK AO2

2010/08/08 04:53
KFOZ 080453Z AUTO 00000KT 10SM CLR 16/15 A2972 RMK AO2 TSNO

2010/08/08 04:53
KBFW 080453Z AUTO 08003KT 10SM SCT060 18/14 A2973 RMK AO2 LTG DSNT S AND SW

2010/08/08 04:55
KGTB 080455Z AUTO 16007KT 10SM CLR 15/11 A2997 RMK AO2 SLP148 T01510114 402220088

2010/08/08 04:58
KMEI 080458Z 00000KT 6SM BR CLR 25/24 A2992 RMK AO2 SLP126 T02500244

2010/08/08 04:54
KNFG 080454Z AUTO 00000KT 10SM BKN015 13/11 A2992 RMK AO2 SLP129 T01280106 TSNO $

2010/08/08 04:53
KNQX 080453Z AUTO 17003KT 10SM FEW020 30/25 A2998 RMK AO2 SLP151 T03000250 403390283 $

2010/08/08 04:52
KNRB 080452Z AUTO 00000KT 10SM BKN029 BKN036 26/23 A2994 RMK AO2 SLP136 T02610233 403440250

2010/08/08 04:55
KPAM 080455Z AUTO 12003KT 10SM CLR 26/26 A2991 RMK AO2 DZE0404 SLP131 P0000 T02580256 $

2010/08/08 04:55
KPSM 080455Z 20003KT 10SM SCT250 14/13 A3000 RMK AO2A SLP161 T01390126 402370111

2010/08/08 04:55
KSSC 080455Z 24005KT 10SM CLR 26/23 A2993 RMK AO2A SLP135 T02570233 403310224 $

2010/08/08 04:45
KSWF 080445Z 00000KT 20SM SKC 17/13 A3002

2010/08/08 04:55
PGUA 080455Z AUTO 07011KT 10SM FEW015 SCT060 29/25 A2981 RMK AO2 SLP077 T02890245 VISNO RWY24L $

2010/08/08 04:55
KLDM 080455Z AUTO 22009KT 10SM BKN039 24/21 A2983 RMK AO2

2010/08/08 04:55
KPHN 080455Z AUTO 00000KT 10SM SCT100 SCT110 19/16 A2993 RMK AO2

2010/08/08 04:55
KRMY 080455Z AUTO 19003KT 10SM CLR 21/17 A2993 RMK AO2

2010/08/08 04:56
KOSC 080456Z AUTO 21004KT 10SM CLR 19/17 A2985 RMK AO2

2010/08/08 04:54
KTTF 080454Z AUTO 21004KT 7SM CLR 21/17 A2994 RMK AO2

2010/08/08 04:55
KMCD 080455Z AUTO 00000KT 10SM CLR 20/17 A2978 RMK AO2

2010/08/08 04:57
KFPK 080457Z AUTO 19005KT 10SM CLR 19/17 A2991 RMK AO2

2010/08/08 04:55
KCVX 080455Z AUTO 20007KT 10SM SCT120 22/18 A2979 RMK AO2

2010/08/08 04:54
KMOP 080454Z AUTO 18004KT 10SM SCT120 22/19 A2987 RMK AO2

2010/08/08 04:54
KFKS 080454Z AUTO 20005KT 10SM OVC032 23/20 A2979 RMK AO2

2010/08/08 04:54
KCAD 080454Z AUTO 22006KT 10SM OVC037 22/20 A2986 RMK AO2

2010/08/08 04:55
KMGN 080455Z AUTO 00000KT 10SM SCT031 OVC038 22/17 A2978 RMK AO2

2010/08/08 04:55
KSLH 080455Z AUTO 18003KT 10SM SCT090 18/17 A2978 RMK AO2

2010/08/08 04:55
KSJX 080455Z AUTO 20006KT 10SM CLR 22/20 A2977 RMK AO2

2010/08/08 04:55
KHAI 080455Z AUTO 19005KT 7SM CLR 19/18 A2994 RMK AO2

2010/08/08 04:56
KLWA 080456Z AUTO 20007KT 10SM BKN065 BKN085 23/17 A2990 RMK AO2

2010/08/08 04:57
KDRM 080457Z AUTO 16004KT 7SM CLR 16/15 A2978 RMK AO2

2010/08/08 04:54
KVLL 080454Z AUTO 21006KT 10SM CLR 22/15 A2995 RMK AO2

2010/08/08 04:55
KGOV 080455Z AUTO 22005KT 10SM SCT085 SCT120 21/18 A2985 RMK AO2

2010/08/08 04:54
KPZQ 080454Z AUTO 20005KT 10SM SCT041 20/15 A2981 RMK AO2

2010/08/08 04:55
KCFS 080455Z AUTO 00000KT 10SM SCT120 20/16 A2989 RMK AO2

2010/08/08 04:54
KHYX 080454Z AUTO 21007KT 10SM SCT120 21/16 A2989 RMK AO2

2010/08/08 04:55
KOZW 080455Z AUTO 21005KT 10SM CLR 20/16 A2993 RMK AO2

2010/08/08 04:55
KRNP 080455Z AUTO 21005KT 10SM BKN120 21/17 A2991 RMK AO2

2010/08/08 04:54
KDUH 080454Z AUTO 20003KT 10SM CLR 21/15 A2996 RMK AO2

2010/08/08 04:55
KISQ 080455Z AUTO 00000KT 7SM BKN100 22/19 A2975 RMK AO2

2010/08/08 04:55
KJYM 080455Z AUTO 20004KT 7SM CLR 21/17 A2996 RMK AO2

2010/08/08 05:04
KBAX 080504Z AUTO 22005KT 10SM BKN060 OVC080 21/16 A2989 RMK AO2

2010/08/08 04:55
KIRS 080455Z AUTO 19004KT 7SM CLR 19/17 A2995 RMK AO2

2010/08/08 04:55
KAMN 080455Z AUTO 19004KT 10SM SCT110 20/17 A2988 RMK AO2

2010/08/08 04:55
KACB 080455Z AUTO 18004KT 10SM BKN048 23/20 A2980 RMK AO2

2010/08/08 04:54
KRQB 080454Z AUTO 18006KT 10SM OVC046 22/18 A2987 RMK AO2

2010/08/08 04:55
KERY 080455Z AUTO 20005KT 4SM BR SCT085 20/19 A2976 RMK AO2

2010/08/08 04:55
KOEB 080455Z AUTO 20005KT 10SM CLR 21/18 A2995 RMK AO2

2010/08/08 04:56
K4I3 080456Z AUTO 00000KT 10SM CLR 18/16 A3002 RMK AO2

2010/08/08 04:55
KAUM 080455Z AUTO 20008KT 10SM SCT080 23/21 A2976 RMK AO2

2010/08/08 04:55
KFFX 080455Z AUTO 20003KT 10SM OVC048 22/20 A2986 RMK AO2

2010/08/08 04:54
KCNB 080454Z AUTO 21006KT 10SM CLR 26/23 A2966 RMK AO2 LTG DSNT NE T02620230

2010/08/08 04:55
KCKN 080455Z AUTO 10004KT 10SM CLR 22/21 A2966 RMK AO2

2010/08/08 05:02
KCFE 080502Z AUTO 02008KT 10SM SCT020 BKN042 26/22 A2971 RMK AO2 LTG DSNT N AND W T02560216

2010/08/08 04:57
KCQM 080457Z AUTO 00000KT 10SM SCT024 17/16 A2973 RMK AO2

2010/08/08 04:55
KDTL 080455Z AUTO 14003KT 10SM CLR 21/16 A2969 RMK AO2

2010/08/08 04:55
KBDH 080455Z AUTO 00000KT 10SM TS SCT050 SCT090 26/22 A2968 RMK AO2 LTG DSNT N AND NE

2010/08/08 04:55
KCBG 080455Z AUTO 00000KT 10SM -RA SCT013 SCT035 19/17 A2968 RMK AO2 P0005 LTG DSNT E THRU W

2010/08/08 04:57
KADC 080457Z AUTO 00000KT 10SM CLR 18/17 A2967 RMK AO2 LTG DSNT S

2010/08/08 04:55
KHAF 080455Z AUTO 15007KT 1 1/4SM BR OVC003 12/11 A2990 RMK AO2

2010/08/08 04:55
KCKC 080455Z AUTO 13003KT 10SM SCT042 SCT065 15/12 A2977 RMK AO2

2010/08/08 04:55
KJYG 080455Z AUTO 18007KT 10SM CLR 26/26 A2972 RMK AO2 LTG DSNT NW

2010/08/08 04:56
KCOQ 080456Z AUTO 07006KT 10SM -VCTSRA SCT017 SCT024 BKN036 19/17 A2970 RMK AO2 LTG DSNT NE THRU S

2010/08/08 04:58
KACQ 080458Z AUTO 19010KT 10SM BKN060 25/22 A2976 RMK AO2 LTG DSNT NW

2010/08/08 04:55
KRGK 080455Z AUTO 22009G17KT 10SM SCT070 27/22 A2971 RMK AO2 LTG DSNT N

2010/08/08 04:54
KFSE 080454Z AUTO 00000KT 10SM CLR 20/19 A2967 RMK AO2

2010/08/08 04:55
KY70 080455Z AUTO 21008KT 10SM CLR 21/18 A2989 RMK AO2 T02130177

2010/08/08 04:50
KUKT 080450Z AUTO 00000KT 10SM BKN060 BKN075 18/15 A3003 RMK AO1

2010/08/08 04:54
KCDA 080454Z AUTO 00000KT 10SM CLR 08/06 A3002 RMK AO2

2010/08/08 04:59
KSAW 080459Z AUTO 00000KT 10SM SCT100 SCT120 17/14 A2975 RMK AO2 LTG DSNT SW

2010/08/08 04:55
K4M9 080455Z AUTO 00000KT 10SM 25/20 A2992 RMK AO2

2010/08/08 04:55
KBVU 080455Z AUTO 17008KT 10SM CLR 31/12 A2981 RMK AO2

2010/08/08 04:52
KGLW 080452Z AUTO 00000KT 7SM CLR 19/18 A2998 RMK AO2 T01920177

2010/08/08 04:55
KJVL 080455Z AUTO 20009KT 10SM CLR 24/18 A2986 RMK AO2 T02350182

2010/08/08 04:55
KLNL 080455Z AUTO 18004KT 7SM VCTS BKN110 19/18 A2978 RMK AO2 LTG DSNT SE THRU W P0004 T01910182 402590051

2010/08/08 04:55
KLUM 080455Z AUTO 20012KT 10SM SCT065 25/21 A2971 RMK AO2 LTG DSNT N AND NW

2010/08/08 04:55
KMAN 080455Z AUTO 00000KT 10SM CLR 21/10 A2976 RMK AO1

2010/08/08 04:55
KMCJ 080455Z AUTO 20003KT 10SM CLR 28/25 A2989 RMK AO1

2010/08/08 04:55
KMDZ 080455Z AUTO 19009KT 10SM BKN032 BKN039 BKN075 23/21 A2978 RMK AO2

2010/08/08 04:55
KMRJ 080455Z AUTO 18005KT 10SM CLR 22/19 A2985 RMK AO2 T02150187

2010/08/08 04:55
KMWC 080455Z AUTO 21007KT 10SM CLR 21/17 A2985 RMK AO2

2010/08/08 04:55
KOEO 080455Z AUTO 21009KT 10SM SCT044 27/22 A2969 RMK AO2

2010/08/08 04:55
KPCZ 080455Z AUTO 21010G15KT 10SM SCT038 24/20 A2979 RMK AO2 T02410195

2010/08/08 04:52
KPDC 080452Z AUTO 17005KT 10SM CLR 25/21 A2980 RMK AO2 T02450214

2010/08/08 04:55
KRCX 080455Z AUTO 19013KT 10SM VCTS SCT023 BKN036 OVC120 25/22 A2972 RMK AO2 LTG DSNT ALQS T02450220

2010/08/08 04:56
KRNH 080456Z AUTO 21010KT 10SM SCT045 26/22 A2970 RMK AO2 T02550217

2010/08/08 04:55
KSNC 080455Z AUTO 19003KT 10SM CLR 18/ A3004 RMK AO2

2010/08/08 04:55
KUNI 080455Z AUTO 00000KT 10SM CLR 20/15 A3000 RMK AO2

2010/08/08 04:56
KY50 080456Z AUTO 19006KT 10SM BKN027 BKN032 23/19 A2982 RMK AO2 T02330194 403000111 SLP087

2010/08/08 05:01
PADM 080501Z AUTO 21004KT 10SM BKN019 OVC023 13/11 A2971 RMK AO2 TSNO T01270105 SLP047 $

2010/08/08 04:57
PAGH 080457Z AUTO 06003KT 9SM -RA BKN015 OVC021 13/12 A2960 RMK AO2 RAB00 SLP053 P0002 T01330122

2010/08/08 04:56
PAMB 080456Z AUTO 23008KT 10SM BKN011 11/09 A2973 RMK AO2 PWINO TSNO T01050094 CIG 009V014 SLP071 $

2010/08/08 04:56
PAOH 080456Z AUTO 00000KT 4SM -RA BR FEW004 OVC019 12/12 A2986 RMK AO2 TSNO T01220122 RAE0359B25 P0000 SLP113 $

2010/08/08 04:57
PAVA 080457Z AUTO 19007KT 10SM OVC017 12/09 A2966 RMK AO2 SLP046 T01220094

2010/08/08 04:56
PPIZ 080456Z AUTO 07018KT 10SM SCT016 09/06 A2971 RMK AO2 TSNO T00880055 SLP063 $

2010/08/08 04:53
PAED 080453Z 22008KT 10SM SCT011 BKN047 OVC055 12/11 A2975

2010/08/08 04:54
KROX 080454Z AUTO 10004KT 10SM BKN039 19/17 A2969 RMK AO2

2010/08/08 04:54
KRRT 080454Z AUTO 11006KT 10SM SCT043 19/17 A2971 RMK AO2 TSNO

2010/08/08 04:53
KRZN 080453Z AUTO 15009KT 5SM RA SCT008 BKN018 OVC045 20/18 A2971 RMK AO2 P0107 T01950184

2010/08/08 04:54
KSAZ 080454Z AUTO 00000KT 7SM CLR 20/20 A2968 RMK AO2 LTG DSNT S

2010/08/08 04:53
KSGS 080453Z AUTO 21008KT 10SM CLR 27/21 A2970 RMK AO2 LTG DSNT NE T02700212

2010/08/08 04:55
KSPR 080455Z AUTO 21007KT 10SM SCT026 SCT033 31/25 A2994 RMK A01

2010/08/08 04:55
KSRR 080455Z AUTO 28003KT 10SM CLR 17/11 A3023 RMK AO2

2010/08/08 04:53
KTEW 080453Z AUTO 00000KT 10SM CLR 19/16 A2993 RMK AO2

2010/08/08 04:56
K14Y 080456Z AUTO 08003KT 7SM SCT042 20/19 A2968 RMK AO2 LTG DSNT SE AND S T02000190

2010/08/08 04:55
K1A6 080455Z AUTO 00000KT 7SM CLR 20/20 A3001 RMK AO2

2010/08/08 04:55
K1P1 080455Z AUTO 00000KT 3/4SM BR VV005 09/09 A3002 RMK AO2 T00940085

2010/08/08 04:55
K46D 080455Z AUTO 00000KT 10SM CLR 19/18 A2969 RMK AO2

2010/08/08 04:50
KAEL 080450Z AUTO 20008KT 10SM BKN060 25/21 A2976 RMK AO2

2010/08/08 04:55
KAIG 080455Z AUTO 20007KT 7SM SCT024 SCT030 21/19 A2979 RMK AO2

2010/08/08 04:56
KAJO 080456Z AUTO 27010KT 10SM CLR 16/13 A2990 RMK AO2 T01610133 SLP120 $

2010/08/08 04:55
KANE 080455Z AUTO 20012G18KT 10SM SCT050 28/23 A2968 RMK AO2

2010/08/08 04:53
KAQP 080453Z AUTO 18004KT 10SM CLR 25/25 A2964 RMK AO2 LTG DSNT E

2010/08/08 04:51
KARV 080451Z AUTO 21005KT 10SM -RA SCT060 BKN095 OVC120 18/17 A2979 RMK AO2 P0011 T01800165

2010/08/08 04:55
KATW 080455Z AUTO 19004KT 10SM CLR 22/19 A2981 RMK AO2

2010/08/08 04:55
KBBF 080455Z AUTO 17015KT 10SM FEW025 30/26 A2990 RMK A01

2010/08/08 04:55
KBBG 080455Z AUTO 14006KT 10SM CLR 25/21 A2994 RMK AO2

2010/08/08 04:55
KBQX 080455Z AUTO 17015KT 10SM FEW024 30/26 A2990 RMK A01

2010/08/08 04:55
KBUU 080455Z AUTO 21005KT 10SM CLR 19/18 A2987 RMK AO2 T01920180

2010/08/08 04:51
KBWP 080451Z AUTO 04004KT 10SM CLR 21/19 A2964 RMK AO1 T02100191

2010/08/08 04:55
KCMB 080455Z AUTO 21011KT 10SM FEW026 32/25 A2993 RMK A01

2010/08/08 04:55
KCMR 080455Z AUTO 14006KT 10SM FEW120 14/12 A3022 RMK AO1

2010/08/08 04:55
KCMY 080455Z AUTO 21003KT 10SM CLR 24/21 A2978 RMK AO2 T02360207 402850120

2010/08/08 04:55
KCRH 080455Z AUTO 20013KT 10SM FEW027 31/25 A2993 RMK A01

2010/08/08 04:50
KCVH 080450Z AUTO 25007KT 10SM BKN013 13/11 A2990 RMK AO1

2010/08/08 04:55
KCWA 080455Z AUTO 18007KT 10SM SCT030 OVC038 22/21 A2980 RMK AO2 LTG DSNT W T02200210

2010/08/08 04:56
KDIJ 080456Z AUTO 07003KT 10SM CLR 10/07 A3003 RMK AO2 T01000066 SLP086 $

2010/08/08 04:55
KDLL 080455Z AUTO 20009G14KT 10SM CLR 22/18 A2981 RMK AO2 T02220179

2010/08/08 04:55
KDLP 080455Z AUTO 24012KT 10SM FEW027 FEW034 33/25 A2993 RMK A01

2010/08/08 04:56
KDVP 080456Z AUTO 19013G16KT 10SM CLR 25/21 A2974 RMK AO2 LTG DSNT N T02460205

2010/08/08 04:54
KDXX 080454Z AUTO 00000KT 7SM CLR 24/24 A2964 RMK AO2 LTG DSNT E

2010/08/08 04:54
KTOB 080454Z AUTO 20010G15KT 10SM BKN060 OVC075 25/22 A2977 RMK AO2

2010/08/08 04:55
KVAF 080455Z AUTO 21012KT 10SM FEW024 30/24 A2990 RMK A01

2010/08/08 04:55
KVBS 080455Z AUTO VRB06G12KT 170V230 10SM CLR 31/24 A2992 RMK A01

2010/08/08 04:53
KVES 080453Z AUTO 00000KT 10SM CLR 17/16 A3000 RMK AO2 T01660161

2010/08/08 04:56
KVVV 080456Z AUTO 00000KT 10SM CLR 26/23 A2964 RMK AO2 LTG DSNT E

2010/08/08 04:49
KVWU 080449Z AUTO 08004KT 10SM CLR 18/17 A2969 RMK AO2

2010/08/08 04:56
KXVG 080456Z AUTO 00000KT 5SM BR CLR 18/18 A2968 RMK AO2 LTG DSNT SE

2010/08/08 04:55
KY63 080455Z AUTO 14004KT 10SM CLR 23/21 A2965 RMK AO2 LTG DSNT SE T02300205

2010/08/08 04:56
PAGN 080456Z AUTO 00000KT BKN014 OVC036 RMK AO2 PWINO TSNO SLPNO $

2010/08/08 04:56
PATQ 080456Z AUTO 06018KT 10SM -RA OVC009 06/04 A2977 RMK AO2 TSNO T00550044 P0000 SLP086 $

2010/08/08 04:56
KNSE 080456Z AUTO 00000KT 5SM BR SCT100 26/24 A2992 RMK AO2 SLP116 T02610244 $

2010/08/08 04:56
KSGH 080456Z AUTO 00000KT 7SM CLR 17/17 A3002 RMK AO2 T01720172 402830133 SLP160 $

2010/08/08 04:53
KFLL 080453Z COR 00000KT 10SM FEW035 28/24 A2997 RMK AO2 SLP150 T02830244 403280261 PNO $

2010/08/08 04:54
KPHL 080454Z 18006KT 10SM FEW100 SCT250 24/20 A3001 RMK AO2 SLP162 T02390200 403110194 $

2010/08/08 04:56
KGFA 080456Z AUTO 00000KT 10SM CLR 19/06 A2977 RMK AO2 SLP079 T01890061 $

2010/08/08 04:56
KSDF 080456Z 00000KT 9SM CLR 24/16 A2998 RMK AO2 SLP145 T02440156 403220200 $

2010/08/08 04:53
K04W 080453Z AUTO 02009KT 10SM VCTS SCT110 21/19 A2967 RMK AO2 LTG DSNT E AND SE T02070188

2010/08/08 04:55
K21D 080455Z AUTO 20009KT 10SM SCT047 26/21 A2970 RMK AO2 LTG DSNT W THRU NE

2010/08/08 04:56
KART 080456Z AUTO 18003KT 10SM CLR 16/11 A2996 RMK AO2 SLP142 T01560111 402280072

2010/08/08 04:56
KBED 080456Z AUTO 00000KT 10SM CLR 13/10 A3001 RMK AO2 SLP172 T01330100 402780111

2010/08/08 04:54
KBJI 080454Z AUTO 00000KT 10SM CLR 19/19 A2968 RMK AO2

2010/08/08 04:56
KBJJ 080456Z AUTO 00000KT 6SM BR CLR 16/15 A3002 RMK AO2 SLP162 T01610150 402670139

2010/08/08 04:54
KC29 080454Z AUTO 21008KT 10SM CLR 23/19 A2984 RMK AO2 T02300185 402920140

2010/08/08 04:56
KCTB 080456Z AUTO 25011KT 10SM CLR 18/06 A2980 RMK AO2 SLP057 T01780061 PWINO

2010/08/08 04:56
KCXY 080456Z AUTO 00000KT 10SM CLR 21/17 A3000 RMK AO2 SLP156 T02110172 402830172

2010/08/08 04:53
KD39 080453Z AUTO 00000KT 10SM VCTS CLR 23/19 A2967 RMK AO2 LTG DSNT E AND S T02300192

2010/08/08 04:56
KDAY 080456Z 15007KT 10SM CLR 21/15 A3002 RMK AO2 SLP159 T02060150 402890150

2010/08/08 04:56
KELZ 080456Z AUTO 00000KT 10SM CLR 13/09 A3007 RMK AO2 SLP179 T01280089 402170094

2010/08/08 04:56
KGON 080456Z AUTO 00000KT 10SM CLR 18/16 A3002 RMK AO2 SLP165 T01780161 402560144

2010/08/08 04:55
KHFF 080455Z AUTO 00000KT 10SM FEW085 24/23 A2998 RMK AO2 SLP150 T02420226 403220225 $

2010/08/08 04:56
KHPN 080456Z 17004KT 10SM CLR 20/18 A3000 RMK AO2 SLP155 T02000178 402830150

2010/08/08 04:56
KHWV 080456Z AUTO 20005KT 10SM CLR 23/20 A3003 RMK AO2 SLP167 T02280200 402670133 PWINO $

2010/08/08 04:56
KHYA 080456Z 20004KT 10SM CLR 22/19 A3003 RMK AO2 SLP171 T02170189 402440122

2010/08/08 04:56
KISP 080456Z 19006KT 10SM CLR 23/18 A3001 RMK AO2 SLP159 T02330183 402670150

2010/08/08 04:56
KITH 080456Z AUTO 08006KT 10SM CLR 13/11 A3003 RMK AO2 T01270111 SLP168

2010/08/08 04:56
KJXN 080456Z 20006KT 10SM CLR 18/17 A2994 RMK AO2 SLP134 T01830167 402670122

2010/08/08 04:56
KLRD 080456Z AUTO 16012KT 10SM CLR 32/22 A2990 RMK AO2 T03160216 403940261 SLP112

2010/08/08 04:56
KMDT 080456Z 00000KT 10SM SCT075 22/17 A2999 RMK AO2 SLP153 T02220172 402890178

2010/08/08 04:56
KOWB 080456Z AUTO 00000KT 10SM CLR 22/18 A2996 RMK AO2 T02160183 403110183 SLP142

2010/08/08 04:56
KSGH 080456Z AUTO 00000KT 7SM CLR 17/17 A3002 RMK AO2 T01720172 402830133 SLP160 $

2010/08/08 04:58
KSGJ 080458Z AUTO 18003KT 10SM SCT045 BKN070 25/24 A2994 RMK AO2 SLP139 T02500239 403390244

2010/08/08 04:55
KSME 080455Z AUTO 00000KT 4SM BR 19/19 A3000 RMK AO2

2010/08/08 04:56
KTZR 080456Z AUTO 00000KT 10SM CLR 17/16 A3001 RMK AO2

2010/08/08 04:55
KY51 080455Z AUTO 18007KT 7SM CLR 22/21 A2981 RMK AO1 T02220210

2010/08/08 04:56
KWJF 080456Z 23013G19KT 10SM CLR 23/04 A2987 RMK AO2 SLP093 T02280039

2010/08/08 04:56
PAFS 080456Z AUTO 00000KT 10SM FEW036 SCT080 12/10 A2971 RMK AO2 TSNO T01220100 SLP069 $

2010/08/08 04:56
PAGN 080456Z AUTO 00000KT BKN014 OVC036 RMK AO2 PWINO TSNO SLPNO $

2010/08/08 04:56
PAHC 080456Z AUTO 21006KT 10SM FEW015 BKN021 OVC028 13/11 A2968 RMK AO2 TSNO T01270105 BKN V OVC SLPNO $

2010/08/08 04:56
PAIG 080456Z AUTO 22007KT 10SM OVC021 12/09 A2979 RMK AO2 PWINO TSNO T01160094 SLP090 $

2010/08/08 04:56
PAMO 080456Z AUTO 19011KT 10SM SCT008 BKN020 OVC037 13/12 A2966 RMK AO2 TSNO T01270116 RAB05E41 P0001 SLP043 $

2010/08/08 04:56
PAOO 080456Z AUTO 14012KT 10SM OVC011 11/09 A2964 RMK AO2 TSNO T01050088 SLP037 $

2010/08/08 04:56
PAPM 080456Z AUTO 20005KT 10SM -RA OVC013 10/09 A2972 RMK AO2 TSNO T01000088 P0000 SLP066 $

2010/08/08 04:56
PARS 080456Z AUTO 21005KT 10SM BKN021 OVC027 13/11 A2968 RMK AO2 TSNO T01270105 BKN V SCT SLP055 $

2010/08/08 04:56
PARY 080456Z AUTO 20007KT 10SM BKN035 OVC043 13/11 A2965 RMK AO2 PWINO TSNO T01330105 BKN V SCT SLP046

2010/08/08 04:53
KLOR 080453Z AUTO 00000KT 9SM CLR 24/23 A2993 RMK AO2 SLP129 T02440228 403440244 TSNO PNO $

2010/08/08 04:50
KDMA 080450Z AUTO 16015G22KT 10SM BKN065 24/17 A2998 RMK AO2 PK WND 17027/0430 DZB0423E0450 SLP094 VISNO RWY12 CHINO RWY12 $

2010/08/08 04:52
KDMA 080452Z AUTO 16014KT 10SM -DZ BKN065 24/17 A2998 RMK AO2 PK WND 17027/0430 DZB0423 SLP094 VISNO RWY12 CHINO RWY12 $

2010/08/08 04:53
PAED 080453Z 22008KT 10SM SCT011 BKN047 OVC055 12/11 A2975 RMK AO2A SLP076

2010/08/08 04:56
KNBC 080456Z AUTO 00000KT 7SM CLR 26/24 A2992 RMK AO2 SLP134 T02560239 403170239

2010/08/08 04:56
KNUW 080456Z 24004KT 4SM BR OVC003 16/15 A2990 RMK AO2 DZE23RAB23E31 SLP129 P0001 T01590149 $

2010/08/08 04:56
KNMM 080456Z AUTO 00000KT 6SM BR FEW075 25/23 A2992 RMK AO2 SLP137 T02500233 $

2010/08/08 04:56
KNXX 080456Z AUTO 23003KT 10SM FEW070 22/14 A3003 RMK AO2 SLP171 T02220144 402940156 $

2010/08/08 04:56
KINS 080456Z AUTO 07005KT 10SM 27/10 A2984 RMK AO2 SLP048 T02670100 TSNO $

2010/08/08 04:56
KHLR 080456Z AUTO 15008KT 10SM CLR 31/22 A2991 RMK AO2 SLP116 T03060217 403830283 $

2010/08/08 04:56
KNRS 080456Z AUTO 23005KT 10SM OVC017 17/13 A2993 RMK AO2 SLP134 T01670133 TSNO $

2010/08/08 04:56
PHBK 080456Z AUTO 29004KT 10SM BKN043 29/20 A3003 RMK AO2 SLP172 T02890200 TSNO $

2010/08/08 04:56
KNTD 080456Z 28004KT 8SM OVC009 15/13 A2988 RMK AO2 SLP120 T01500133 $

2010/08/08 04:56
KNID 080456Z AUTO 18010KT CLR 27/02 A2978 RMK AO2 SLP063 T02720017 TSNO $

2010/08/08 04:56
KNLC 080456Z AUTO 32010KT 10SM CLR 25/11 A2975 RMK AO2 SLP074 T02500111 TSNO $

2010/08/08 04:55
KFAF 080455Z AUTO 11003KT 10SM -DZ CLR 24/24 A2999 RMK AO2 DZB0436 SLP156 P0000 T02410240 403090225 $

2010/08/08 04:55
KLFI 080455Z 10004KT 10SM SCT008 25/23 A3000 RMK AO2A SLP159 T02450233 402930230

2010/08/08 04:55
KMCF 080455Z AUTO 24003KT 10SM CLR 29/26 A2996 RMK AO2 SLP146 T02910262 403230264

2010/08/08 04:56
KFHU 080456Z AUTO 25008KT 10SM CLR 18/17 A3013 RMK AO2 VIS M1/4 WEST RAE15 SLP142 P0000 T01830172 TSNO $

2010/08/08 04:55
KADW 080455Z AUTO 18003KT 10SM CLR 21/16 A3000 RMK AO2 SLP161 T02080162 $

2010/08/08 04:55
KBKF 080455Z 16009KT 25SM SCT110 BKN220 20/14 A3005 RMK SLP100

2010/08/08 04:55
KCVS 080455Z AUTO 17004KT 10SM CLR 21/21 A3001 RMK AO2 SLP113 T02140214 $

2010/08/08 04:55
KFCS 080455Z AUTO 11004KT 10SM SCT130 20/15 A3006 RMK AO2 SLP056 T02000150

2010/08/08 04:55
KLSV 080455Z AUTO 16016KT 10SM CLR 33/13 A2976 RMK AO2 SLP050 T03320133 PWINO

2010/08/08 04:56
KNJK 080456Z AUTO 28010KT 10SM CLR 31/03 A2969 RMK AO2 SLP070 T03110033 TSNO

2010/08/08 04:54
KNKT 080454Z 11003KT 6SM BR CLR 24/23 A2997 RMK AO2 SLP144 T02440233 403110228

2010/08/08 04:52
KNZY 080452Z 21004KT 10SM BKN018 18/12 A2991 RMK AO2 SLP128 T01830122 $

2010/08/08 04:55
KPSM 080455Z 20003KT 10SM SCT250 14/13 A3000 RMK AO2A SLP161 T01390126 402370111

2010/08/08 04:55
KTCM 080455Z AUTO 18005KT 10SM FEW010 OVC080 17/16 A2992 RMK AO2 SLP132 T01650155

2010/08/08 04:55
KVBG 080455Z AUTO 02005KT 10SM OVC007 13/12 A2991 RMK AO2 SLP121 T01280117 TSNO CHINO RWY12 VISNO RWY12 $

2010/08/08 04:55
KXMR 080455Z AUTO 19004KT 10SM CLR 26/25 A2994 RMK AO2 SLP141 T02620247 403280253 $

2010/08/08 04:56
PMDY 080456Z AUTO 09008KT 10SM FEW028 28/21 A3019 RMK AO2 TSNO T02830211 SLP532

2010/08/08 04:55
KGTB 080455Z AUTO 16007KT 10SM CLR 15/11 A2997 RMK AO2 SLP148 T01510114 402220088

2010/08/08 04:54
KNFG 080454Z AUTO 00000KT 10SM BKN015 13/11 A2992 RMK AO2 SLP129 T01280106 TSNO $

2010/08/08 04:53
KNIP 080453Z 27004KT 10SM BKN026 OVC150 25/24 A2995 RMK AO2 SLP136 T02500239 403440244

2010/08/08 04:53
KNQX 080453Z AUTO 17003KT 10SM FEW020 30/25 A2998 RMK AO2 SLP151 T03000250 403390283 $

2010/08/08 04:52
KNRB 080452Z AUTO 00000KT 10SM BKN029 BKN036 26/23 A2994 RMK AO2 SLP136 T02610233 403440250

2010/08/08 04:52
KNZY 080452Z 21004KT 10SM BKN018 18/12 A2991 RMK AO2 SLP128 T01830122 $

2010/08/08 04:55
KPAM 080455Z AUTO 12003KT 10SM CLR 26/26 A2991 RMK AO2 DZE0404 SLP131 P0000 T02580256 $

2010/08/08 04:55
KPOB 080455Z AUTO 00000KT 10SM CLR 25/24 A2997 RMK AO2 SLP147 T02470240 403200230 $

2010/08/08 04:55
KPSM 080455Z 20003KT 10SM SCT250 14/13 A3000 RMK AO2A SLP161 T01390126 402370111

2010/08/08 04:55
KRCA 080455Z AUTO 32003KT 10SM CLR 21/14 A2982 RMK AO2 SLP069 T02080142 $

2010/08/08 04:55
KSKA 080455Z AUTO 28008KT 10SM SCT150 20/08 A2982 RMK AO2 SLP083 T01960082

2010/08/08 04:55
KSLI 080455Z AUTO 18003KT 7SM CLR 16/14 A2990 RMK AO2 SLP128 T01560136

2010/08/08 04:53
KRNM 080453Z 26005KT 10SM CLR 13/11 A2992 RMK AO2 SLP122 T01280106

2010/08/08 04:54
KSBN 080454Z 19007KT 10SM OVC095 22/17 A2994 RMK AO2 SLP133 T02220172 402780167

2010/08/08 04:53
KUIL 080453Z AUTO 29004KT 1 3/4SM BR OVC002 12/12 A2994 RMK AO2 CIG 001V005 SLP140 T01220117 TSNO

2010/08/08 04:52
KMLF 080452Z AUTO 00000KT 10SM SCT090 BKN110 17/13 A3007 RMK AO2 RAB11E44 SLP120 P0000 T01670128 TSNO

2010/08/08 04:56
KSMP 080456Z AUTO VRB04KT 1/4SM FG BKN002 OVC006 11/11 A2997 RMK AO2 SLP141 P0002 T01060106 TSNO $

2010/08/08 04:54
KAPN 080454Z AUTO 00000KT 10SM SCT049 17/16 A2982 RMK AO2 SLP098 T01670156 402500067

2010/08/08 04:56
KP28 080456Z AUTO 15006KT 29/22 A2983 RMK AO2 SLP081 T02940217 PWINO TSNO

2010/08/08 04:56
KGNR 080456Z AUTO 00000KT 09/05 A2999 RMK AO1 SLP158 T00940050 401830061

2010/08/08 04:56
KCDJ 080456Z AUTO 15003KT 27/21 A2989 RMK AO2 SLP103 T02670211 PWINO TSNO

2010/08/08 04:56
KD07 080456Z AUTO 00000KT 27/12 A2976 RMK AO2 SLP056 T02670122 PWINO TSNO

2010/08/08 04:56
K2WX 080456Z AUTO 23013KT 23/11 A2977 RMK AO1 SLP055 T02330106

2010/08/08 04:56
KSPD 080456Z AUTO 21009KT 22/17 A2996 RMK AO2 SLP075 T02220172 PWINO TSNO

2010/08/08 04:56
KBZN 080456Z 00000KT 10SM SCT110 19/08 A2992 RMK AO2 SLP087 T01940078

2010/08/08 04:55
KDVK 080455Z AUTO 00000KT 10SM CLR 18/17 A3000 RMK AO1

2010/08/08 04:56
TJSJ 080456Z 10007G14KT 10SM SCT025 SCT036 28/24 A2997 RMK AO2 SLP149 VCSH SW T02830239

2010/08/08 04:53
KGNT 080453Z AUTO 36005KT 16/14 A3023 RMK AO2 SLP142 T01610139 PWINO TSNO

2010/08/08 04:56
KFSD 080456Z 20012G17KT 10SM CLR 27/23 A2971 RMK AO2 SLP047 T02670228

2010/08/08 04:54
KFWA 080454Z 20003KT 10SM CLR 19/17 A2998 RMK AO2 SLP148 T01940172 402720150

2010/08/08 04:54
KGSO 080454Z 00000KT 8SM CLR 23/19 A3003 RMK AO2 SLP156 T02280189 403060217

2010/08/08 04:54
KIKW 080454Z AUTO 19005KT 10SM SCT110 21/17 A2987 RMK AO2 T02130166 402870077

2010/08/08 04:58
KLYV 080458Z AUTO 19007KT 10SM CLR 24/21 A2973 RMK AO2

2010/08/08 04:54
KRFD 080454Z 19006KT 10SM CLR 21/18 A2990 RMK AO2 SLP119 T02110183

2010/08/08 04:54
KROA 080454Z 00000KT 10SM BKN080 23/17 A3006 RMK AO2 SLP166 T02280172 402940167 $

2010/08/08 04:54
KROS 080454Z AUTO 17004KT 10SM VCTS SCT020 SCT040 SCT065 19/18 A2967 RMK AO2 LTG DSNT NE THRU SW P0001 T01940178

2010/08/08 04:55
KSCF 080455Z AUTO 25006KT 10SM SCT024 SCT039 31/26 A2989 RMK A01

2010/08/08 04:56
KSHV 080456Z 18006KT 10SM BKN290 28/24 A2988 RMK AO2 SLP112 T02830239

2010/08/08 04:58
KSYN 080458Z AUTO 21007KT 10SM SCT050 26/21 A2970 RMK AO2 LTG DSNT NE T02590214

2010/08/08 04:53
KTKC 080453Z AUTO 20010G16KT 10SM CLR 25/21 A2969 RMK AO2 LTG DSNT NE T02520211

2010/08/08 04:56
KABQ 080456Z 33009KT 10SM SCT095 23/12 A3012 RMK AO2 SLP106 T02280122

2010/08/08 04:54
KRIC 080454Z 00000KT 10SM CLR 23/17 A3000 RMK AO2 SLP161 T02280172 403110200

2010/08/08 04:56
KJAX 080456Z 27003KT 10SM FEW025 BKN150 OVC250 24/23 A2993 RMK AO2 SLP134 OCNL LTGIC DSNT SE CB DSNT SE T02440233 403390244

2010/08/08 04:53
K29G 080453Z AUTO 00000KT 10SM CLR 19/14 A3002 RMK AO2 T01910137 PWINO

2010/08/08 04:54
KAVP 080454Z 11003KT 10SM CLR 17/12 A3002 RMK AO2 SLP154 T01720117 402830144

2010/08/08 04:56
KCAE 080456Z 00000KT 5SM BR CLR 26/24 A2995 RMK AO2 SLP137 T02610244 403390228

2010/08/08 04:56
KCHS 080456Z 00000KT 7SM CLR 26/24 A2994 RMK AO2 SLP137 T02560239 403280233

2010/08/08 04:55
KCLI 080455Z AUTO 21005KT 10SM CLR 23/20 A2979 RMK AO2

2010/08/08 04:56
KLWS 080456Z 25004KT 10SM CLR 24/08 A2977 RMK AO2 SLP070 T02440078

2010/08/08 04:56
TJSJ 080456Z 10007G14KT 10SM SCT025 SCT036 28/24 A2997 RMK AO2 SLP149 VCSH SW T02830239

2010/08/08 04:54
KACY 080454Z 16004KT 10SM FEW100 23/21 A3003 RMK AO2 SLP167 T02330206 403000156

2010/08/08 04:56
KCHS 080456Z 00000KT 7SM CLR 26/24 A2994 RMK AO2 SLP137 T02560239 403280233

2010/08/08 04:54
KSYR 080454Z 15003KT 10SM FEW250 16/12 A2999 RMK AO2 SLP151 T01560117 402440122

2010/08/08 04:50
K3A6 080450Z AUTO 36001KT 16/09 A2987 RMK AO1 SLP102 T01590095

2010/08/08 04:56
KMHS 080456Z AUTO VRB03KT 10SM SCT085 21/08 A2992 RMK AO2 SLP115 T02110078 TSNO

2010/08/08 04:55
KSNC 080455Z AUTO 19003KT 10SM CLR 18/ A3004 RMK AO2

2010/08/08 04:58
KMEI 080458Z 00000KT 6SM BR CLR 25/24 A2992 RMK AO2 SLP126 T02500244

2010/08/08 04:45
KSWF 080445Z 00000KT 20SM SKC 17/13 A3002

2010/08/08 04:55
K4M9 080455Z AUTO 00000KT 10SM 25/20 A2992 RMK AO2

2010/08/08 04:55
KBVU 080455Z AUTO 17008KT 10SM CLR 31/12 A2981 RMK AO2

2010/08/08 04:52
KGLW 080452Z AUTO 00000KT 7SM CLR 19/18 A2998 RMK AO2 T01920177

2010/08/08 04:55
KJVL 080455Z AUTO 20009KT 10SM CLR 24/18 A2986 RMK AO2 T02350182

2010/08/08 04:55
KLNL 080455Z AUTO 18004KT 7SM VCTS BKN110 19/18 A2978 RMK AO2 LTG DSNT SE THRU W P0004 T01910182 402590051

2010/08/08 04:55
KLUM 080455Z AUTO 20012KT 10SM SCT065 25/21 A2971 RMK AO2 LTG DSNT N AND NW

2010/08/08 04:55
KMAN 080455Z AUTO 00000KT 10SM CLR 21/10 A2976 RMK AO1

2010/08/08 04:55
KMCJ 080455Z AUTO 20003KT 10SM CLR 28/25 A2989 RMK AO1

2010/08/08 04:55
KMDZ 080455Z AUTO 19009KT 10SM BKN032 BKN039 BKN075 23/21 A2978 RMK AO2

2010/08/08 04:55
KMRJ 080455Z AUTO 18005KT 10SM CLR 22/19 A2985 RMK AO2 T02150187

2010/08/08 04:55
KMWC 080455Z AUTO 21007KT 10SM CLR 21/17 A2985 RMK AO2

2010/08/08 04:55
KOEO 080455Z AUTO 21009KT 10SM SCT044 27/22 A2969 RMK AO2

2010/08/08 04:55
KPCZ 080455Z AUTO 21010G15KT 10SM SCT038 24/20 A2979 RMK AO2 T02410195

2010/08/08 04:52
KPDC 080452Z AUTO 17005KT 10SM CLR 25/21 A2980 RMK AO2 T02450214

2010/08/08 04:55
KRCX 080455Z AUTO 19013KT 10SM VCTS SCT023 BKN036 OVC120 25/22 A2972 RMK AO2 LTG DSNT ALQS T02450220

2010/08/08 04:56
KRNH 080456Z AUTO 21010KT 10SM SCT045 26/22 A2970 RMK AO2 T02550217

2010/08/08 04:55
KUNI 080455Z AUTO 00000KT 10SM CLR 20/15 A3000 RMK AO2

2010/08/08 04:56
KY50 080456Z AUTO 19006KT 10SM BKN027 BKN032 23/19 A2982 RMK AO2 T02330194 403000111 SLP087

2010/08/08 05:01
PADM 080501Z AUTO 21004KT 10SM BKN019 OVC023 13/11 A2971 RMK AO2 TSNO T01270105 SLP047 $

2010/08/08 04:56
PAMB 080456Z AUTO 23008KT 10SM BKN011 11/09 A2973 RMK AO2 PWINO TSNO T01050094 CIG 009V014 SLP071 $

2010/08/08 04:56
PAOH 080456Z AUTO 00000KT 4SM -RA BR FEW004 OVC019 12/12 A2986 RMK AO2 TSNO T01220122 RAE0359B25 P0000 SLP113 $

2010/08/08 04:56
PPIZ 080456Z AUTO 07018KT 10SM SCT016 09/06 A2971 RMK AO2 TSNO T00880055 SLP063 $

2010/08/08 04:56
PATQ 080456Z AUTO 06018KT 10SM -RA OVC009 06/04 A2977 RMK AO2 TSNO T00550044 P0000 SLP086 $

2010/08/08 04:54
KDYT 080454Z AUTO 06012KT 10SM -VCTSRA BKN004 BKN020 OVC036 18/17 A2972 RMK AO2 LTG DSNT ALQDS

2010/08/08 04:55
KEFK 080455Z AUTO 21005KT 10SM BKN060 08/07 A3000 RMK AO2

2010/08/08 04:55
KEFT 080455Z AUTO 20012KT 10SM CLR 22/19 A2986 RMK AO2 T02190188 402810183

2010/08/08 04:51
KEGV 080451Z AUTO 21004KT 10SM RA SCT047 BKN095 OVC120 19/19 A2977 RMK AO2 P0014 T01860187

2010/08/08 04:55
KEHC 080455Z AUTO 19010KT 10SM SCT027 SCT032 31/24 A2994 RMK A01

2010/08/08 04:55
KEIR 080455Z AUTO 18010KT 10SM FEW025 30/24 A2995 RMK A01

2010/08/08 04:56
KEKQ 080456Z AUTO 00000KT 2SM BR 17/17 A3001 RMK AO2 T01720172 403050155 SLP160 $

2010/08/08 04:53
KELO 080453Z AUTO 13003KT 10SM OVC026 19/16 A2973 RMK AO2

2010/08/08 04:55
KEMK 080455Z AUTO 18010KT 10SM FEW024 FEW029 30/25 A2994 RMK A01

2010/08/08 04:52
KETB 080452Z AUTO 21004KT 10SM CLR 22/18 A2984 RMK AO2 T02210176

2010/08/08 04:54
KETH 080454Z AUTO 00000KT 10SM CLR 22/21 A2968 RMK AO2 LTG DSNT E

2010/08/08 04:52
KEVM 080452Z AUTO 00000KT 10SM BKN070 OVC090 18/16 A2972 RMK AO1

2010/08/08 04:54
KEZS 080454Z AUTO 19003KT 10SM SCT038 OVC090 23/21 A2978 RMK AO2 LTG DSNT NW T02330205

2010/08/08 04:54
KFBL 080454Z AUTO 17006KT 10SM SCT060 BKN070 25/21 A2973 RMK AO2 LTG DSNT NE

2010/08/08 05:01
KFKA 080501Z AUTO 21008G16KT 10SM CLR 24/22 A2979 RMK AO2 T02430220

2010/08/08 04:59
KFSO 080459Z AUTO 15004KT 10SM CLR 12/10 A2997 RMK AO2

2010/08/08 04:55
KGUL 080455Z AUTO 10SM FEW024 30/25 A2995 RMK A01

2010/08/08 04:54
KGYL 080454Z AUTO 18007KT 10SM BKN048 BKN075 25/22 A2968 RMK AO2 LTG DSNT NE AND NW T02470215

2010/08/08 04:52
KHCD 080452Z AUTO 18006KT 10SM CLR 24/21 A2968 RMK AO2 T02400206 TSNO

2010/08/08 04:54
KHCO 080454Z AUTO 11008KT 10SM CLR 21/19 A2968 RMK AO2

2010/08/08 04:55
KHFJ 080455Z AUTO 00000KT 10SM CLR 24/22 A2989 RMK AO1

2010/08/08 04:50
KHQI 080450Z AUTO 15007KT 130V200 10SM 30/25 A2994 RMK A01

2010/08/08 04:51
KHZX 080451Z AUTO 08005KT 7SM CLR 20/19 A2970 RMK AO2 LTG DSNT SE

2010/08/08 04:55
KIPN 080455Z AUTO 25011KT 10SM CLR 30/25 A2995 RMK A01

2010/08/08 04:54
KJKJ 080454Z AUTO 20003KT 10SM CLR 23/22 A2964 RMK AO2

2010/08/08 04:55
KJMR 080455Z AUTO 25006KT 10SM CLR 18/17 A2968 RMK AO2 LTG DSNT E THRU S P0053

2010/08/08 04:55
KLCK 080455Z AUTO 00000KT 10SM CLR 20/17 A3000 RMK AO2 T02010170

2010/08/08 04:52
KLJF 080452Z AUTO 19003KT 10SM VCTS SCT041 SCT050 SCT090 26/23 A2968 RMK AO2 LTG DSNT W THRU E

2010/08/08 04:54
KLVN 080454Z AUTO 20007KT 10SM CLR 25/22 A2970 RMK AO2 LTG DSNT N AND NE

2010/08/08 04:53
KLXL 080453Z AUTO 00000KT 10SM BKN034 BKN041 BKN050 20/18 A2967 RMK AO2

2010/08/08 04:56
KM89 080456Z AUTO 00000KT 1 3/4SM -TSRA BR BKN002 BKN011 OVC085 25/24 A2990 RMK AO2 T02500244 LTG DSNT NW RAB31 P0025 SLP136

2010/08/08 04:55
KMDJ 080455Z AUTO 23012KT 10SM CLR 31/25 A2995 RMK A01

2010/08/08 04:55
KMIU 080455Z AUTO 19020KT 10SM FEW025 30/26 A2991 RMK A01

2010/08/08 04:52
KMJQ 080452Z AUTO 19010KT 10SM CLR 24/22 A2975 RMK AO2

2010/08/08 04:54
KMVE 080454Z AUTO 22005KT 10SM VCTS SCT060 SCT070 26/24 A2964 RMK AO2 LTG DSNT NE

2010/08/08 04:55
KMWO 080455Z AUTO 00000KT 10SM CLR 20/19 A3001 RMK AO2

2010/08/08 04:55
KMZG 080455Z AUTO 00000KT 10SM 30/25 A2991 RMK A01

2010/08/08 04:50
KMZH 080450Z AUTO 05005KT 10SM CLR 18/17 A2967 RMK AO2 LTG DSNT NE THRU S

2010/08/08 04:50
KONA 080450Z AUTO 22006KT 10SM SCT090 26/20 A2974 RMK AO2

2010/08/08 04:54
KONZ 080454Z AUTO 23006KT 10SM CLR 23/17 A2994 RMK AO2

2010/08/08 04:54
KORB 080454Z AUTO 00000KT 10SM CLR 16/14 A2970 RMK AO2

2010/08/08 04:53
KOVL 080453Z AUTO 18005KT 10SM VCTS SCT055 SCT070 24/21 A2967 RMK AO2 LTG DSNT N T02370205

2010/08/08 04:53
KOWA 080453Z AUTO 19010KT 10SM BKN065 25/22 A2973 RMK AO2

2010/08/08 04:53
KPEX 080453Z AUTO 17005KT 10SM TSRA BKN035 BKN047 BKN065 24/21 A2969 RMK AO2 LTG DSNT E SW AND W T02420209

2010/08/08 04:52
KPVB 080452Z AUTO 18008KT 10SM CLR 22/20 A2986 RMK AO1 T02180195

2010/08/08 04:55
KRCM 080455Z AUTO 00000KT 10SM CLR 24/22 A2988 RMK AO2

2010/08/08 04:55
KSSC 080455Z 24005KT 10SM CLR 26/23 A2993 RMK AO2A SLP135 T02570233 403310224 $

2010/08/08 04:55
KTCM 080455Z AUTO 18005KT 10SM FEW010 OVC080 17/16 A2992 RMK AO2 SLP132 T01650155

2010/08/08 04:55
KTIK 080455Z 14006KT 10SM CLR 29/22 A2986 RMK AO2A SLP096 T02850225

2010/08/08 04:56
KABH 080456Z AUTO 05007KT 10SM BKN070 OVC095 18/15 A3010 RMK AO2 RAB40E51 SLP105 P0000 T01780150 $

2010/08/08 04:56
KNFL 080456Z AUTO 26003KT 10SM CLR 25/03 A2984 RMK AO2 SLP082 T02500028 TSNO

2010/08/08 04:55
KGBK 080455Z AUTO 18010KT 10SM CLR 30/25 A2996 RMK A01

2010/08/08 04:55
KMHR 080455Z AUTO 20004KT 10SM CLR 18/11 A2975 RMK AO1

2010/08/08 04:53
KMRT 080453Z AUTO 00000KT 10SM CLR 16/15 A3004 RMK AO2 T01620150

2010/08/08 04:56
KNTU 080456Z 00000KT 10SM FEW007 SCT060 24/23 A2998 RMK AO2 SLP155 T02390228 402940222 $

2010/08/08 04:57
KNJM 080457Z AUTO 05003KT 10SM CLR 26/24 A2996 RMK AO2 SLP149 T02560239 403000228

2010/08/08 04:56
K79J 080456Z AUTO 00000KT 7SM CLR 27/23 A2993 RMK AO2 SLP127 T02670233 TSNO PNO $

2010/08/08 04:55
KGRK 080455Z 15009KT 7SM FEW200 31/21 A2989 RMK SLP098

2010/08/08 04:55
KNBG 080455Z AUTO 00000KT 10SM CLR 28/24 A2994 RMK AO2 SLP138 T02830244 PWINO $

2010/08/08 04:56
KNGP 080456Z AUTO 20009G18KT 10SM CLR 28/26 A2990 RMK AO2 SLP123 T02830261 VISNO $

2010/08/08 04:55
KNKX 080455Z 27003KT 10SM SCT020 16/12 A2992 RMK AO2 SLP126 T01560117

2010/08/08 04:56
KNPA 080456Z AUTO 00000KT 10SM TS CLR 26/24 A2990 RMK AO2 TSE00B41 SLP128 T02610239

2010/08/08 04:56
KNQI 080456Z AUTO 16009KT 9SM CLR 29/24 A2990 RMK AO2 SLP122 T02890239

2010/08/08 04:56
KNTU 080456Z 00000KT 10SM FEW007 SCT060 24/23 A2998 RMK AO2 SLP155 T02390228 402940222 $

2010/08/08 04:56
KNUQ 080456Z 02007KT 10SM FEW012 15/12 A2986 RMK AO2 SLP115 T01500122

2010/08/08 04:56
KNXP 080456Z AUTO 22010KT CLR 28/02 A2986 RMK AO2 SLP073 T02830017 $

2010/08/08 04:56
KNYG 080456Z AUTO 31005KT 10SM CLR 20/18 A3001 RMK AO2 SLP162 T02000178 402940194 $

2010/08/08 04:55
KPOE 080455Z AUTO 19005KT 10SM CLR 28/24 A2992 RMK AO2 SLP130 T02780244 403500233

2010/08/08 04:55
KADW 080455Z AUTO 18003KT 10SM CLR 21/16 A3000 RMK AO2 SLP161 T02080162 $

2010/08/08 04:55
KLFI 080455Z 10004KT 10SM SCT008 25/23 A3000 RMK AO2A SLP159 T02450233 402930230

2010/08/08 04:55
KMCF 080455Z AUTO 24003KT 10SM CLR 29/26 A2996 RMK AO2 SLP146 T02910262 403230264

2010/08/08 04:55
KNBG 080455Z AUTO 00000KT 10SM CLR 28/24 A2994 RMK AO2 SLP138 T02830244 PWINO $

2010/08/08 04:56
KNGP 080456Z AUTO 20009G18KT 10SM CLR 28/26 A2990 RMK AO2 SLP123 T02830261 VISNO $

2010/08/08 04:54
KNKT 080454Z 11003KT 6SM BR CLR 24/23 A2997 RMK AO2 SLP144 T02440233 403110228

2010/08/08 04:56
KNPA 080456Z AUTO 00000KT 10SM TS CLR 26/24 A2990 RMK AO2 TSE00B41 SLP128 T02610239

2010/08/08 04:56
KNTU 080456Z 00000KT 10SM FEW007 SCT060 24/23 A2998 RMK AO2 SLP155 T02390228 402940222 $

2010/08/08 04:55
KPAM 080455Z AUTO 12003KT 10SM CLR 26/26 A2991 RMK AO2 DZE0404 SLP131 P0000 T02580256 $

2010/08/08 04:55
KGTB 080455Z AUTO 16007KT 10SM CLR 15/11 A2997 RMK AO2 SLP148 T01510114 402220088

2010/08/08 04:54
KNFG 080454Z AUTO 00000KT 10SM BKN015 13/11 A2992 RMK AO2 SLP129 T01280106 TSNO $

2010/08/08 04:53
KNQX 080453Z AUTO 17003KT 10SM FEW020 30/25 A2998 RMK AO2 SLP151 T03000250 403390283 $

2010/08/08 04:52
KNRB 080452Z AUTO 00000KT 10SM BKN029 BKN036 26/23 A2994 RMK AO2 SLP136 T02610233 403440250

2010/08/08 04:55
KPAM 080455Z AUTO 12003KT 10SM CLR 26/26 A2991 RMK AO2 DZE0404 SLP131 P0000 T02580256 $

2010/08/08 04:55
KPSM 080455Z 20003KT 10SM SCT250 14/13 A3000 RMK AO2A SLP161 T01390126 402370111

2010/08/08 04:55
KSSC 080455Z 24005KT 10SM CLR 26/23 A2993 RMK AO2A SLP135 T02570233 403310224 $

2010/08/08 04:55
PGUA 080455Z AUTO 07011KT 10SM FEW015 SCT060 29/25 A2981 RMK AO2 SLP077 T02890245 VISNO RWY24L $

2010/08/08 04:58
K0J4 080458Z AUTO 00000KT 10SM CLR 26/24 A2995 RMK AO2 SLP136 T02610244 403440261 $

2010/08/08 04:55
EBBL 080455Z 27004KT 7000 FEW007 SCT011 BKN055 15/15 Q1015 GRN

2010/08/08 04:50
EDNY 080450Z 00000KT CAVOK 13/12 Q1018 RMK ATIS C

2010/08/08 04:50
EDXW 080450Z AUTO 25003KT 9999NDV BR FEW007/// SCT013/// 17/15 Q1014 RMK ATIS INFO B

2010/08/08 04:50
EDLN 080450Z VRB03KT 2500 RA BR SCT004 BKN017 17/17 Q1014 RMK ATIS A

2010/08/08 04:50
EDLP 080450Z 12003KT CAVOK 15/15 Q1014 RMK RWY24 TRL60 PB ATIS F

2010/08/08 04:50
EDLW 080450Z VRB01KT 7000 NSC 16/15 Q1015 RMK ATIS D

2010/08/08 04:50
LGPZ 080450Z 00000KT CAVOK 20/19 Q1013 NOSIG BLU

2010/08/08 04:50
LGRX 080450Z 00000KT CAVOK 21/18 Q1011 NOSIG BLU

2010/08/08 04:50
LGSR 080450Z 00000KT CAVOK 25/21 Q1008 NOSIG BLU

2010/08/08 04:58
RODN 080458Z 18007KT 9999 FEW017 BKN037 BKN100 BKN200 29/27 A2963 RMK AO2A RAE0458 SLP032

2010/08/08 04:46
RJFN 080446Z 07011KT 9999 FEW010 BKN020 29/24 Q1011 RMK 2CU010 5CU020 A2988

2010/08/08 04:57
EHKD 080457Z AUTO 33003KT 9999NDV SCT011/// SCT013/// BKN020/// 16/15 Q1015 GRN

2010/08/08 04:52
MMGL 080452Z 00000KT 12SM SCT100 BKN300 18/16 A3018 RMK 8/038

2010/08/08 04:46
MMPR 080446Z 01004KT 12SM SKC 28/25 A2987

2010/08/08 04:46
MMZC 080446Z 19008KT 10SM FEW100 OVC200 17/10 A3028 RMK 8/037

2010/08/08 04:52
MMGL 080452Z 00000KT 12SM SCT100 BKN300 18/16 A3018 RMK 8/038

2010/08/08 04:55
EHAM 080455Z 31003KT 3500 R27/0650V1700D R18R/0400V0650D BCFG FEW009 FEW015TCU 14/14 Q1015 TEMPO 0800

2010/08/08 04:55
EHBK 080455Z AUTO 26004KT 210V300 9999NDV FEW004 SCT005 BKN007 15/15 Q1015 REDZ BECMG 4000 BR

2010/08/08 04:55
EHGG 080455Z AUTO 29001KT 1900NDV BR SCT006 BKN008 OVC010 16/15 Q1014 BECMG 0800 FG

2010/08/08 04:55
EHKD 080455Z AUTO 33003KT 9999NDV FEW015/// SCT022/// BKN044/// 16/15 Q1015 WHT

2010/08/08 04:55
EHRD 080455Z 28001KT 0450 0100NE R24/0200N FG FEW011 13/13 Q1015 BECMG 2500 BR

2010/08/08 04:50
EGNJ 080450Z 35004KT 9999 FEW012 13/12 Q1019

2010/08/08 04:50
EGNS 080450Z 31005KT 280V360 9999 FEW012 13/10 Q1020

2010/08/08 04:50
EGPA 080450Z AUTO 30008KT 4600NDV BR SCT015/// BKN021/// BKN024/// 12/11 Q1019

2010/08/08 04:50
EGPC 080450Z AUTO 27004KT 9999NDV SCT016/// OVC031/// 11/11 Q1019

2010/08/08 04:50
EGPC 080450Z AUTO 27004KT 9999NDV SCT016/// OVC031/// 11/11 Q1019

2010/08/08 04:50
EGPE 080450Z AUTO 23003KT 9999NDV OVC040/// 12/10 Q1020

2010/08/08 04:50
EGPL 080450Z AUTO 17006KT 9999NDV NCD 10/10 Q1019

2010/08/08 04:50
EGPM 080450Z AUTO 28008KT 9999NDV RA BKN011/// 12/11 Q1017

2010/08/08 04:50
EGPO 080450Z AUTO 00000KT 9999NDV NCD 09/07 Q1019

2010/08/08 04:54
ETAD 080454Z AUTO 21005KT 9999 SCT037 SCT060 OVC080 15/14 A3000 RMK AO2 RAE0448DZB0448E0454 SLP148 $

2010/08/08 04:57
EGUN 080457Z AUTO 33007KT 9999 BKN006 OVC016 14/14 A3007 RMK AO2 CIG 005V009 SLP172

2010/08/08 04:58
RODN 080458Z 18007KT 9999 FEW017 BKN037 BKN100 BKN200 29/27 A2963 RMK AO2A RAE0458 SLP032

2010/08/08 04:51
KP58 080451Z AUTO 23005KT 22/16 A2986 RMK AO2 SLP103 T02170161 402670128 PWINO TSNO 

2010/08/08 04:59
NSTU 080459Z 09017KT 10SM SCT018 SCT040 BKN100 27/25 A2992 RMK SLP134 T02690246

2010/08/08 05:00
DNMM 080500Z 25009KT 8000 SCT010 25/24 Q1014 NOSIG

2010/08/08 05:00
FOOL 080500Z 16006KT 130V190 9999 SCT008 OVC033 24/22 Q1014 NOSIG

2010/08/08 05:00
UBBL 080500Z 13004KT 9999 NSC 30/21 Q1010 NOSIG RMK G/O SC07

2010/08/08 04:50
EGNJ 080450Z 35004KT 9999 FEW012 13/12 Q1019

2010/08/08 04:50
EGPE 080450Z AUTO 23003KT 9999NDV OVC040/// 12/10 Q1020

2010/08/08 05:00
GVSV 080500Z 08007KT 9999 FEW020 24/20 Q1014 NOSIG

2010/08/08 05:00
LWSK 080500Z 00000KT 9999 FEW050 20/16 Q1015 NOSIG

2010/08/08 04:55
EHAK 080455Z AUTO 01006KT 330V050 9999NDV FEW006/// BKN039/// 16/15 Q1015

2010/08/08 04:55
EHDV 080455Z AUTO 34007KT 9999NDV FEW009/// 17/14 Q1016

2010/08/08 04:55
EHFD 080455Z AUTO VRB07KT 9999NDV FEW005/// SCT012/// 17/15 Q1016

2010/08/08 04:55
EHFZ 080455Z AUTO 34012KT 9999NDV FEW009/// 17/14 Q1015

2010/08/08 04:55
EHJA 080455Z AUTO 34008KT 9999NDV NCD 16/14 Q1016

2010/08/08 04:55
EHKV 080455Z AUTO 35010KT 9999NDV FEW008/// 17/14 Q1015

2010/08/08 04:55
EHMA 080455Z AUTO 33007KT 9999NDV ///////// 17/16 Q1014

2010/08/08 04:55
EHMG 080455Z AUTO 34013KT 9999NDV FEW006/// SCT030/// BKN039/// 17/15 Q1014

2010/08/08 04:55
EHPG 080455Z AUTO 35013KT 330V030 9999NDV FEW004/// SCT006/// 17/15 Q1015

2010/08/08 04:55
EHQE 080455Z AUTO 33011KT 9999NDV BKN000/// BKN007/// OVC009/// 17/15 Q1015

2010/08/08 04:50
EGPA 080450Z AUTO 30008KT 4600NDV BR SCT015/// BKN021/// BKN024/// 12/11 Q1019

2010/08/08 04:50
EGPC 080450Z AUTO 27004KT 9999NDV SCT016/// OVC031/// 11/11 Q1019

2010/08/08 04:50
EGPL 080450Z AUTO 17006KT 9999NDV NCD 10/10 Q1019

2010/08/08 04:50
EGPM 080450Z AUTO 28008KT 9999NDV RA BKN011/// 12/11 Q1017

2010/08/08 04:50
EGPO 080450Z AUTO 00000KT 9999NDV NCD 09/07 Q1019

2010/08/08 04:55
OPLA 080455Z 18008KT 5000 FU SCT040 SCT100 33/26 Q1004 NOSIG

2010/08/08 05:00
OPPS 080500Z NW-10KT 0600 RAIN BKN006ST FEW030TCU SCT030 OVC100 25/25 Q1006.3

2010/08/08 05:00
OPRN 080500Z 23004KT 1500 BR FEW025TCU SCT030 BKN100 27/25 Q1006.7

2010/08/08 05:00
OPSK 080500Z 00000KT 4000 HZ FEW040 BKN100 31/27 1001 RH 79

2010/08/08 04:50
EGVN 080450Z 29002KT 9999 FEW012 SCT016 BKN032 14/12 Q1020 BECMG FEW016

2010/08/08 05:00
LZKC 080500Z AUTO 18004KT 140V230 //// ////// 19/17 Q1015

2010/08/08 05:00
LZLU 080500Z AUTO 22004KT 160V290 //// ////// 16/15 Q1016

2010/08/08 05:00
LZNI 080500Z AUTO 25006KT 9999 ////// 16/15 Q1016

2010/08/08 05:00
LZPE 080500Z AUTO VRB01KT 4600 -RA ////// 15/14 Q1016

2010/08/08 04:56
PASY 080456Z AUTO 27023G29KT 10SM OVC003 10/09 A2904 RMK AO2 PK WND 27031/0414 SLP832 T01000094 TSNO PNO $ 

2010/08/08 04:58
CWOB 080458Z AUTO ///// 0SM CLR 05/ A2946

2010/08/08 04:57
CWZZ 080457Z AUTO ///// 8SM BKN016 OVC047 OVC061 OVC082 08/ A2923

2010/08/08 04:59
EHGR 080459Z AUTO 26003KT 4700NDV BR BKN006 OVC008 15/14 Q1015 YLO

2010/08/08 04:59
EHVK 080459Z AUTO 27005KT 5000NDV BR FEW005 BKN006 BKN010 16/15 Q1015 YLO

2010/08/08 04:59
EHWO 080459Z AUTO 24006KT 3300NDV +RADZ FEW004 SCT006 BKN013 FEW015CB 16/15 Q1015 YLO

2010/08/08 04:58
ETNN 080458Z 23007KT 3500 SHRA SCT019 BKN022 BKN036 16/15 Q1015 YLO

2010/08/08 04:50
KQEI 080450Z AUTO 30005KT 7SM BKN033 30/21 A2998 RMK A02

2010/08/08 04:50
KQEJ 080450Z AUTO 20002KT 7SM CLR 31/20 A2996 RMK A02

2010/08/08 04:50
KQEP 080450Z AUTO 02003KT 7SM FEW030 SCT034 BKN065 31/21 A2989 RMK A02

2010/08/08 04:50
KQEQ 080450Z AUTO 24007KT 7SM SCT034 31/21 A2984 RMK A02

2010/08/08 04:50
KQER 080450Z AUTO 29003KT 7SM FEW036 30/20 A2994 RMK A02

2010/08/08 04:50
KQEX 080450Z AUTO 07001KT 7SM SCT050 32/19 A2979 RMK A02

2010/08/08 04:50
KQFB 080450Z AUTO 30011KT 7SM FEW044 32/19 A2995 RMK A02

2010/08/08 04:50
KQFU 080450Z AUTO 01002KT 7SM OVC055 30/22 A2994 RMK A02

2010/08/08 04:50
KQFW 080450Z AUTO 05004KT 7SM CLR 30/22 A2993 RMK A02

2010/08/08 04:55
KQA4 080455Z AUTO 01003KT 8000 HZ FEW250 36/01 A2979 RMK AO2 SLP988 T03570014

2010/08/08 04:55
KQAQ 080455Z 35012G20KT 5000 DU HZ FEW000 FEW150 38/05 A2960 RMK DU FEW000 SLP018 PA +421 DA +3118

2010/08/08 04:55
KQDP 080455Z AUTO RMK AO2 SLPNO $

2010/08/08 04:55
KQTO 080455Z 32013KT 9999 SCT180 37/02 A2957 RMK SLP011

2010/08/08 04:55
KQTX 080455Z VRB03KT 8000 HZ SCT150 37/01 A2966 RMK SLP015

2010/08/08 04:56
KQSB 080456Z AUTO 22006KT 8000 CLR 33/08 A2979 RMK AO2 SLP987 T03300079 $

2010/08/08 05:00
KQEN 080500Z AUTO 07005KT 7SM FEW007 BKN029 BKN055 24/19 A3048 RMK A02

2010/08/08 05:00
KQER 080500Z AUTO 25004KT 7SM SCT065 30/20 A2994 RMK A02

2010/08/08 05:00
KQES 080500Z AUTO 32002KT 7SM CLR 28/21 A2990 RMK A02

2010/08/08 05:00
KQEY 080500Z AUTO 26001KT 7SM SCT055 32/19 A2963 RMK A02

2010/08/08 04:53
KRYT 080453Z AUTO 00000KT 10SM CLR 20/16 A3001 RMK AO2 SLP150 T02000156 403000161 $ 

2010/08/08 04:56
K79J 080456Z AUTO 00000KT 7SM CLR 27/23 A2993 RMK AO2 SLP127 T02670233 TSNO PNO $

2010/08/08 04:55
KDMA 080455Z AUTO 15013KT 10SM -DZ BKN065 24/17 A2998 RMK AO2 PK WND 17027/0430 LTG DSNT NW AND N DZB0423 SLP095 P0002 T02410173 VISNO RWY12 CHINO RWY12 $

2010/08/08 04:50
KEFD 080450Z 00000KT 10SM SKC 27/25 A2994

2010/08/08 04:55
KFCS 080455Z AUTO 11004KT 10SM SCT130 20/15 A3006 RMK AO2 SLP056 T02000150

2010/08/08 04:56
KFHU 080456Z AUTO 25008KT 10SM CLR 18/17 A3013 RMK AO2 VIS M1/4 WEST RAE15 SLP142 P0000 T01830172 TSNO $

2010/08/08 04:55
KGRK 080455Z 15009KT 7SM FEW200 31/21 A2989 RMK SLP098

2010/08/08 04:56
KHLR 080456Z AUTO 15008KT 10SM CLR 31/22 A2991 RMK AO2 SLP116 T03060217 403830283 $

2010/08/08 04:55
KHOP 080455Z AUTO 09004KT 10SM CLR 23/18 A2996 RMK AO2 SLP141 T02290177

2010/08/08 04:55
KLSV 080455Z AUTO 16016KT 10SM CLR 33/13 A2976 RMK AO2 SLP050 T03320133 PWINO

2010/08/08 04:56
KNBC 080456Z AUTO 00000KT 7SM CLR 26/24 A2992 RMK AO2 SLP134 T02560239 403170239

2010/08/08 04:55
KNBG 080455Z AUTO 00000KT 10SM CLR 28/24 A2994 RMK AO2 SLP138 T02830244 PWINO $

2010/08/08 04:56
KNJK 080456Z AUTO 28010KT 10SM CLR 31/03 A2969 RMK AO2 SLP070 T03110033 TSNO

2010/08/08 04:57
KNJM 080457Z AUTO 05003KT 10SM CLR 26/24 A2996 RMK AO2 SLP149 T02560239 403000228

2010/08/08 04:56
KNRS 080456Z AUTO 23005KT 10SM OVC017 17/13 A2993 RMK AO2 SLP134 T01670133 TSNO $

2010/08/08 04:56
KNUQ 080456Z 02007KT 10SM FEW012 15/12 A2986 RMK AO2 SLP115 T01500122

2010/08/08 04:56
PPIZ 080456Z AUTO 07018KT 10SM SCT016 09/06 A2971 RMK AO2 TSNO T00880055 SLP063 $

2010/08/08 04:56
KNGP 080456Z AUTO 20009G18KT 10SM CLR 28/26 A2990 RMK AO2 SLP123 T02830261 VISNO $

2010/08/08 04:54
KNKT 080454Z 11003KT 6SM BR CLR 24/23 A2997 RMK AO2 SLP144 T02440233 403110228

2010/08/08 04:55
KNKX 080455Z 27003KT 10SM SCT020 16/12 A2992 RMK AO2 SLP126 T01560117

2010/08/08 04:56
KNMM 080456Z AUTO 00000KT 6SM BR FEW075 25/23 A2992 RMK AO2 SLP137 T02500233 $

2010/08/08 04:56
KNPA 080456Z AUTO 00000KT 10SM TS CLR 26/24 A2990 RMK AO2 TSE00B41 SLP128 T02610239

2010/08/08 04:56
KNQI 080456Z AUTO 16009KT 9SM CLR 29/24 A2990 RMK AO2 SLP122 T02890239

2010/08/08 04:56
KNSE 080456Z AUTO 00000KT 5SM BR SCT100 26/24 A2992 RMK AO2 SLP116 T02610244 $

2010/08/08 04:56
KNTU 080456Z 00000KT 10SM FEW007 SCT060 24/23 A2998 RMK AO2 SLP155 T02390228 402940222 $

2010/08/08 04:56
KNUW 080456Z 24004KT 4SM BR OVC003 16/15 A2990 RMK AO2 DZE23RAB23E31 SLP129 P0001 T01590149 $

2010/08/08 04:56
KNXP 080456Z AUTO 22010KT CLR 28/02 A2986 RMK AO2 SLP073 T02830017 $

2010/08/08 04:56
KNXX 080456Z AUTO 23003KT 10SM FEW070 22/14 A3003 RMK AO2 SLP171 T02220144 402940156 $

2010/08/08 04:56
KNYG 080456Z AUTO 31005KT 10SM CLR 20/18 A3001 RMK AO2 SLP162 T02000178 402940194 $

2010/08/08 04:55
KPOE 080455Z AUTO 19005KT 10SM CLR 28/24 A2992 RMK AO2 SLP130 T02780244 403500233

2010/08/08 04:56
KSGH 080456Z AUTO 00000KT 7SM CLR 17/17 A3002 RMK AO2 T01720172 402830133 SLP160 $

2010/08/08 04:55
KVBG 080455Z AUTO 02005KT 10SM OVC007 13/12 A2991 RMK AO2 SLP121 T01280117 TSNO CHINO RWY12 VISNO RWY12 $

2010/08/08 05:00
SBBR 080500Z 25003KT CAVOK 16/06 Q1022

2010/08/08 04:56
KBIH 080456Z AUTO 15014KT 10SM CLR 25/M01 A2986 RMK AO2 SLP057 T02501011 TSNO 

2010/08/08 05:00
GQNN 080500Z 31004KT 6000 FEW010 25/22 Q1010 TEMPO SCT010

2010/08/08 05:00
LDLO 080500Z 02003KT CAVOK 21/17 Q1017

2010/08/08 05:00
SUMU 080500Z 00000KT 0050 R24/0900 R19/0150 FG BKN001 06/06 Q1021 TEMPO 0300 FG

2010/08/08 05:00
SULS 080500 00000KT 0040 FG NSC 06/06 Q1021

2010/08/08 04:55
KDMA 080455Z AUTO 15013KT 10SM -DZ BKN065 24/17 A2998 RMK AO2 PK WND 17027/0430 LTG DSNT NW AND N DZB0423 SLP095 P0002 T02410173 VISNO RWY12 CHINO RWY12 $

2010/08/08 04:56
KHLR 080456Z AUTO 15008KT 10SM CLR 31/22 A2991 RMK AO2 SLP116 T03060217 403830283 $

2010/08/08 04:55
KHOP 080455Z AUTO 09004KT 10SM CLR 23/18 A2996 RMK AO2 SLP141 T02290177

2010/08/08 04:56
KNBC 080456Z AUTO 00000KT 7SM CLR 26/24 A2992 RMK AO2 SLP134 T02560239 403170239

2010/08/08 04:56
KNFL 080456Z AUTO 26003KT 10SM CLR 25/03 A2984 RMK AO2 SLP082 T02500028 TSNO

2010/08/08 04:56
KNID 080456Z AUTO 18010KT CLR 27/02 A2978 RMK AO2 SLP063 T02720017 TSNO $

2010/08/08 04:56
KNMM 080456Z AUTO 00000KT 6SM BR FEW075 25/23 A2992 RMK AO2 SLP137 T02500233 $

2010/08/08 04:56
KNRS 080456Z AUTO 23005KT 10SM OVC017 17/13 A2993 RMK AO2 SLP134 T01670133 TSNO $

2010/08/08 04:56
KNUW 080456Z 24004KT 4SM BR OVC003 16/15 A2990 RMK AO2 DZE23RAB23E31 SLP129 P0001 T01590149 $

2010/08/08 04:56
KNXX 080456Z AUTO 23003KT 10SM FEW070 22/14 A3003 RMK AO2 SLP171 T02220144 402940156 $

2010/08/08 04:52
KNZY 080452Z 21004KT 10SM BKN018 18/12 A2991 RMK AO2 SLP128 T01830122 $

2010/08/08 05:00
MHLC 080500Z 16002KT 9999 BKN022CB SCT080 26/24 Q1013 A2991 NOSIG

2010/08/08 05:00
MHLM 080500Z 00000KT 9999 FEW024 BKN080 27/27 Q1013 A2991 NOSIG

2010/08/08 05:00
MHTG 080500Z 12002KT 9999 BKN026 FEW028CB BKN250 21/20 Q1019 A3009 NOSIG

2010/08/08 05:00
OLBA 080500Z 24004KT 8000 SCT026 28/23 Q1011 NOSIG

2010/08/08 04:56
PHBK 080456Z AUTO 29004KT 10SM BKN043 29/20 A3003 RMK AO2 SLP172 T02890200 TSNO $

2010/08/08 05:00
GOOY 080500Z VRB03KT 9999 SCT013 27/22 Q1011 NOSIG

2010/08/08 04:56
KLWA 080456Z AUTO 20007KT 10SM BKN065 BKN085 23/17 A2990 RMK AO2

2010/08/08 04:55
KMCD 080455Z AUTO 00000KT 10SM CLR 20/17 A2978 RMK AO2

2010/08/08 04:55
KMGN 080455Z AUTO 00000KT 10SM SCT031 OVC038 22/17 A2978 RMK AO2

2010/08/08 04:54
KMOP 080454Z AUTO 18004KT 10SM SCT120 22/19 A2987 RMK AO2

2010/08/08 04:55
KOEB 080455Z AUTO 20005KT 10SM CLR 21/18 A2995 RMK AO2

2010/08/08 04:56
KOSC 080456Z AUTO 21004KT 10SM CLR 19/17 A2985 RMK AO2

2010/08/08 04:55
KOZW 080455Z AUTO 21005KT 10SM CLR 20/16 A2993 RMK AO2

2010/08/08 04:55
KPHN 080455Z AUTO 00000KT 10SM SCT100 SCT110 19/16 A2993 RMK AO2

2010/08/08 04:54
KPZQ 080454Z AUTO 20005KT 10SM SCT041 20/15 A2981 RMK AO2

2010/08/08 04:55
KRGK 080455Z AUTO 22009G17KT 10SM SCT070 27/22 A2971 RMK AO2 LTG DSNT N

2010/08/08 04:55
KRMY 080455Z AUTO 19003KT 10SM CLR 21/17 A2993 RMK AO2

2010/08/08 04:55
KRNP 080455Z AUTO 21005KT 10SM BKN120 21/17 A2991 RMK AO2

2010/08/08 04:54
KRQB 080454Z AUTO 18006KT 10SM OVC046 22/18 A2987 RMK AO2

2010/08/08 04:59
KSAW 080459Z AUTO 00000KT 10SM SCT100 SCT120 17/14 A2975 RMK AO2 LTG DSNT SW

2010/08/08 04:54
KSBN 080454Z 19007KT 10SM OVC095 22/17 A2994 RMK AO2 SLP133 T02220172 402780167

2010/08/08 04:55
KSJX 080455Z AUTO 20006KT 10SM CLR 22/20 A2977 RMK AO2

2010/08/08 04:55
KSLH 080455Z AUTO 18003KT 10SM SCT090 18/17 A2978 RMK AO2

2010/08/08 04:54
KTTF 080454Z AUTO 21004KT 7SM CLR 21/17 A2994 RMK AO2

2010/08/08 04:50
KUKT 080450Z AUTO 00000KT 10SM BKN060 BKN075 18/15 A3003 RMK AO1

2010/08/08 04:54
KVLL 080454Z AUTO 21006KT 10SM CLR 22/15 A2995 RMK AO2

2010/08/08 04:55
KY70 080455Z AUTO 21008KT 10SM CLR 21/18 A2989 RMK AO2 T02130177

2010/08/08 04:55
KAWG 080455Z AUTO 18006KT 7SM CLR 24/21 A2987 RMK AO2

2010/08/08 04:55
KAXA 080455Z AUTO 19009KT 10SM CLR 25/22 A2976 RMK AO2

2010/08/08 04:55
KBNW 080455Z AUTO 19010KT 10SM SCT095 26/22 A2981 RMK AO2

2010/08/08 04:55
KCAV 080455Z AUTO 18008KT 7SM CLR 26/22 A2979 RMK AO2

2010/08/08 04:55
KCBF 080455Z AUTO 17008KT 10SM CLR 26/21 A2980 RMK AO2

2010/08/08 04:55
KCIN 080455Z AUTO 19008KT 10SM CLR 25/21 A2981 RMK AO2

2010/08/08 04:55
KCKP 080455Z AUTO 18008KT 10SM CLR 25/22 A2976 RMK AO2

2010/08/08 04:55
KCNC 080455Z AUTO 19007KT 10SM CLR 24/20 A2986 RMK AO2

2010/08/08 04:55
KCSQ 080455Z AUTO 17010KT 10SM CLR 24/22 A2986 RMK AO2

2010/08/08 04:55
KDEH 080455Z AUTO 18007KT 10SM CLR 25/21 A2982 RMK AO2

2010/08/08 04:55
KDNS 080455Z AUTO 18008KT 10SM CLR 26/21 A2982 RMK AO2

2010/08/08 04:55
KEBS 080455Z AUTO 19008KT 10SM SCT090 25/21 A2980 RMK AO2

2010/08/08 04:55
KEOK 080455Z AUTO 18005KT 10SM CLR 26/20 A2989 RMK AO2

2010/08/08 04:55
KFFL 080455Z AUTO 19005KT 7SM CLR 23/22 A2987 RMK AO2

2010/08/08 04:55
KFSW 080455Z AUTO 17007KT 10SM CLR 25/20 A2989 RMK AO2

2010/08/08 04:55
KFXY 080455Z AUTO 19010KT 10SM CLR 25/21 A2977 RMK AO2

2010/08/08 04:55
KGGI 080455Z AUTO 20008KT 10SM CLR 25/21 A2986 RMK AO2

2010/08/08 04:55
KHNR 080455Z AUTO 17008KT 10SM CLR 24/22 A2984 RMK AO2

2010/08/08 04:55
KI75 080455Z AUTO 18007KT 10SM CLR 23/20 A2986 RMK AO2

2010/08/08 04:55
KICL 080455Z AUTO 17006KT 10SM CLR 26/21 A2983 RMK AO2

2010/08/08 04:55
KIIB 080455Z AUTO 17007KT 10SM CLR 22/21 A2983 RMK AO1

2010/08/08 04:55
KIKV 080455Z AUTO 19008KT 10SM CLR 26/21 A2983 RMK AO2

2010/08/08 04:55
KLRJ 080455Z AUTO 19006KT 10SM CLR 25/22 A2974 RMK AO2

2010/08/08 04:55
KMPZ 080455Z AUTO 18007KT 7SM CLR 23/21 A2987 RMK AO2

2010/08/08 04:55
KMUT 080455Z AUTO 00000KT 7SM CLR 23/21 A2986 RMK AO2

2010/08/08 04:55
KMXO 080455Z AUTO 16003KT 7SM CLR 22/20 A2985 RMK AO2

2010/08/08 04:55
KOOA 080455Z AUTO 19006KT 10SM CLR 24/22 A2986 RMK AO2

2010/08/08 04:55
KORC 080455Z AUTO 18007KT 10SM CLR 25/25 A2975 RMK AO2

2010/08/08 04:55
KOXV 080455Z AUTO 19005KT 10SM CLR 25/21 A2985 RMK AO2

2010/08/08 04:55
KPEA 080455Z AUTO 10SM CLR A2985 RMK AO2

2010/08/08 04:55
KPRO 080455Z AUTO 18007KT 10SM BKN085 24/23 A2981 RMK AO2

2010/08/08 04:55
KRDK 080455Z AUTO 17006KT 10SM CLR 26/22 A2981 RMK AO2

2010/08/08 04:55
KRPD 080455Z AUTO 23008G15KT 10SM TS CLR 25/22 A2973 RMK AO2 LTG DSNT ALQS T02500218

2010/08/08 04:55
KRRL 080455Z AUTO 20004KT 10SM VCTS SCT029 BKN075 22/21 A2979 RMK AO2 LTG DSNT NW THRU E T02200207

2010/08/08 04:55
KRYV 080455Z AUTO 18003KT 10SM CLR 22/18 A2985 RMK AO2

2010/08/08 04:55
KSDA 080455Z AUTO 16007KT 10SM CLR 26/22 A2982 RMK AO2

2010/08/08 04:55
KSHL 080455Z AUTO 19008KT 10SM CLR 25/22 A2976 RMK AO2

2010/08/08 04:55
KSTE 080455Z AUTO 19011G15KT 10SM CLR 23/19 A2980 RMK AO2

2010/08/08 04:58
PADU 080458Z 16015G23KT 10SM -RA FEW030 SCT036 OVC070 14/12 A2960 RMK AO2 PRESFR SLP028 RH P0002 T01440117

2010/08/08 04:58
PAGA 080458Z AUTO 21006KT 10SM FEW024 BKN034 OVC065 14/12 A2965 RMK AO2 RAE27 SLPNO P0001 T01390122

2010/08/08 04:45
PAHV 080445Z 00000KT 30SM BKN040 BKN100 15/11 A2974 RMK EPC SH VC S-N

2010/08/08 04:57
PAIW 080457Z AUTO 04008KT 10SM OVC006 09/07 A2965 RMK AO2 SLP135 T00890072

2010/08/08 04:56
PAJZ 080456Z AUTO 20008KT 10SM OVC037 13/11 A2979 RMK AO2 PWINO TSNO T01270105 SLP076 $

2010/08/08 04:56
PAKI 080456Z AUTO 16012KT 10SM +RA OVC012 10/09 A2966 RMK AO2 TSNO T01000094 P0000 SLP046 $

2010/08/08 04:56
PALG 080456Z AUTO 00000KT 10SM BKN008 OVC020 12/11 A2971 RMK AO2 TSNO T01160105 CIG 006V009 SLP063 $

2010/08/08 04:53
PAMR 080453Z COR 21005KT 10SM -RA BR SCT020 BKN040 13/11 A2975 RMK AO2 SLP075 P0001 T01280106 $

2010/08/08 04:58
PATE 080458Z AUTO 03005KT 10SM -RA BKN024 OVC039 14/12 A2959 RMK AO2 RAB27 SLP033 P0000 T01440117

2010/08/08 04:56
K4I3 080456Z AUTO 00000KT 10SM CLR 18/16 A3002 RMK AO2

2010/08/08 04:55
KACB 080455Z AUTO 18004KT 10SM BKN048 23/20 A2980 RMK AO2

2010/08/08 04:58
KACQ 080458Z AUTO 19010KT 10SM BKN060 25/22 A2976 RMK AO2 LTG DSNT NW

2010/08/08 04:57
KADC 080457Z AUTO 00000KT 10SM CLR 18/17 A2967 RMK AO2 LTG DSNT S

2010/08/08 04:55
KAMN 080455Z AUTO 19004KT 10SM SCT110 20/17 A2988 RMK AO2

2010/08/08 04:55
KAUM 080455Z AUTO 20008KT 10SM SCT080 23/21 A2976 RMK AO2

2010/08/08 05:04
KBAX 080504Z AUTO 22005KT 10SM BKN060 OVC080 21/16 A2989 RMK AO2

2010/08/08 04:55
KBDH 080455Z AUTO 00000KT 10SM TS SCT050 SCT090 26/22 A2968 RMK AO2 LTG DSNT N AND NE

2010/08/08 04:53
KBFW 080453Z AUTO 08003KT 10SM SCT060 18/14 A2973 RMK AO2 LTG DSNT S AND SW

2010/08/08 04:54
KCAD 080454Z AUTO 22006KT 10SM OVC037 22/20 A2986 RMK AO2

2010/08/08 04:55
KCBG 080455Z AUTO 00000KT 10SM -RA SCT013 SCT035 19/17 A2968 RMK AO2 P0005 LTG DSNT E THRU W

2010/08/08 04:54
KCDA 080454Z AUTO 00000KT 10SM CLR 08/06 A3002 RMK AO2

2010/08/08 04:52
KCDD 080452Z AUTO 00000KT 5SM BR SCT032 19/19 A2973 RMK AO2

2010/08/08 05:02
KCFE 080502Z AUTO 02008KT 10SM SCT020 BKN042 26/22 A2971 RMK AO2 LTG DSNT N AND W T02560216

2010/08/08 04:55
KCFS 080455Z AUTO 00000KT 10SM SCT120 20/16 A2989 RMK AO2

2010/08/08 04:55
KCKC 080455Z AUTO 13003KT 10SM SCT042 SCT065 15/12 A2977 RMK AO2

2010/08/08 04:55
KCKN 080455Z AUTO 10004KT 10SM CLR 22/21 A2966 RMK AO2

2010/08/08 04:54
KCNB 080454Z AUTO 21006KT 10SM CLR 26/23 A2966 RMK AO2 LTG DSNT NE T02620230

2010/08/08 04:56
KCOQ 080456Z AUTO 07006KT 10SM -VCTSRA SCT017 SCT024 BKN036 19/17 A2970 RMK AO2 LTG DSNT NE THRU S

2010/08/08 04:57
KCQM 080457Z AUTO 00000KT 10SM SCT024 17/16 A2973 RMK AO2

2010/08/08 04:55
KCVX 080455Z AUTO 20007KT 10SM SCT120 22/18 A2979 RMK AO2

2010/08/08 04:57
KDRM 080457Z AUTO 16004KT 7SM CLR 16/15 A2978 RMK AO2

2010/08/08 04:55
KDTL 080455Z AUTO 14003KT 10SM CLR 21/16 A2969 RMK AO2

2010/08/08 04:54
KDUH 080454Z AUTO 20003KT 10SM CLR 21/15 A2996 RMK AO2

2010/08/08 04:55
KERY 080455Z AUTO 20005KT 4SM BR SCT085 20/19 A2976 RMK AO2

2010/08/08 04:55
KFFX 080455Z AUTO 20003KT 10SM OVC048 22/20 A2986 RMK AO2

2010/08/08 04:54
KFKS 080454Z AUTO 20005KT 10SM OVC032 23/20 A2979 RMK AO2

2010/08/08 04:53
KFOZ 080453Z AUTO 00000KT 10SM CLR 16/15 A2972 RMK AO2 TSNO

2010/08/08 04:57
KFPK 080457Z AUTO 19005KT 10SM CLR 19/17 A2991 RMK AO2

2010/08/08 04:56
KFSD 080456Z 20012G17KT 10SM CLR 27/23 A2971 RMK AO2 SLP047 T02670228

2010/08/08 04:54
KFSE 080454Z AUTO 00000KT 10SM CLR 20/19 A2967 RMK AO2

2010/08/08 04:55
KGOV 080455Z AUTO 22005KT 10SM SCT085 SCT120 21/18 A2985 RMK AO2

2010/08/08 04:55
KHAF 080455Z AUTO 15007KT 1 1/4SM BR OVC003 12/11 A2990 RMK AO2

2010/08/08 04:55
KHAI 080455Z AUTO 19005KT 7SM CLR 19/18 A2994 RMK AO2

2010/08/08 04:54
KHYX 080454Z AUTO 21007KT 10SM SCT120 21/16 A2989 RMK AO2

2010/08/08 04:55
KIRS 080455Z AUTO 19004KT 7SM CLR 19/17 A2995 RMK AO2

2010/08/08 04:55
KISQ 080455Z AUTO 00000KT 7SM BKN100 22/19 A2975 RMK AO2

2010/08/08 04:55
KJYG 080455Z AUTO 18007KT 10SM CLR 26/26 A2972 RMK AO2 LTG DSNT NW

2010/08/08 04:55
KJYM 080455Z AUTO 20004KT 7SM CLR 21/17 A2996 RMK AO2

2010/08/08 04:55
KLDM 080455Z AUTO 22009KT 10SM BKN039 24/21 A2983 RMK AO2

2010/08/08 04:55
KSUW 080455Z AUTO 03006KT 10SM -RA SCT004 BKN019 OVC075 17/16 A2971 RMK AO2 P0058

2010/08/08 04:55
KTNU 080455Z AUTO 20006KT 10SM CLR 25/20 A2985 RMK AO2

2010/08/08 04:55
KTVK 080455Z AUTO 10SM CLR 22/21 A2989 RMK AO2

2010/08/08 04:55
KUES 080455Z AUTO 20007KT 10SM CLR 21/17 A2987 RMK AO2 T02090170

2010/08/08 04:55
KUNU 080455Z AUTO 19007KT 10SM SCT032 22/18 A2985 RMK AO2 T02160180

2010/08/08 04:55
KVTI 080455Z AUTO 17005KT 7SM CLR 23/23 A2983 RMK AO2

2010/08/08 04:50
KDMA 080450Z AUTO 16015G22KT 10SM BKN065 24/17 A2998 RMK AO2 PK WND 17027/0430 DZB0423E0450 SLP094 VISNO RWY12 CHINO RWY12 $

2010/08/08 04:52
KDMA 080452Z AUTO 16014KT 10SM -DZ BKN065 24/17 A2998 RMK AO2 PK WND 17027/0430 DZB0423 SLP094 VISNO RWY12 CHINO RWY12 $

2010/08/08 04:59
KBML 080459Z AUTO 00000KT 2SM BR BKN001 06/06 A3003 RMK AO2 VIS 1V5

2010/08/08 04:59
KNGU 080459Z 07003KT 9SM SCT007 25/23 A3000 RMK AO2 SLP160 T02500233 403000239 $ 

2010/08/08 04:59
EHGR 080459Z AUTO 26003KT 4700NDV BR BKN006 OVC008 15/14 Q1015 YLO

2010/08/08 04:59
EHVK 080459Z AUTO 27005KT 5000NDV BR FEW005 BKN006 BKN010 16/15 Q1015 YLO

2010/08/08 04:59
EHWO 080459Z AUTO 24006KT 3300NDV +RADZ FEW004 SCT006 BKN013 FEW015CB 16/15 Q1015 YLO

2010/08/08 05:00
SBGL 080500Z 07002KT CAVOK 16/13 Q1018

2010/08/08 05:00
SBFZ 080500Z 10010KT 9999 SCT017 24/21 Q1015

2010/08/08 05:00
SBFL 080500Z 29005KT CAVOK 14/13 Q1017

2010/08/08 05:00
TFFF 080500Z AUTO 04003KT 9999NDV NCD 25/24 Q1013

2010/08/08 04:59
CZCP 080459Z AUTO 06016KT 5/8SM CLR 07/ A2956

2010/08/08 04:59
CYHE 080459Z AUTO 26007KT 200V270 9SM BKN016 OVC036 OVC087 17/16 A2988

2010/08/08 05:00
LBSF 080500Z 27004MPS 6000 SCT026 BKN040 20/18 Q1016 NOSIG

2010/08/08 05:00
LBWN 080500Z 26003MPS CAVOK 24/21 Q1012 NOSIG

2010/08/08 05:00
LBBG 080500Z VRB01MPS CAVOK 26/21 Q1011 NOSIG

2010/08/08 05:00
LBPD 080500Z VRB01MPS 9999 FEW070 22/19 Q1013 NOSIG

2010/08/08 05:00
LBGO 080500Z 00000MPS 6000 SCT050 20/20 Q1014 NOSIG

2010/08/08 05:00
LUKK 080500Z VRB02KT 170V240 6000 SCT050CB 24/22 Q1013 08150060 NOSIG

2010/08/08 05:00
SVMI 080500Z 00000KT 9999 FEW016 27/24 Q1013 NOSIG

2010/08/08 05:00
RPLC 080500Z 18005KT 7000 - RA SCT025 OVC080 25/24 Q1006 A2972 LGT RA CONTUS

2010/08/08 05:00
DIAP 080500Z 24004KT 8000 FEW006 BKN012 25/24 Q1014 BECMG SCT012 BKN070

2010/08/08 05:00
LDSP 080500Z 31009KT 280V350 CAVOK 21/13 Q1016 NOSIG 

2010/08/08 05:00
LDPL 080500Z 02004KT CAVOK 19/11 Q1017 NOSIG 

2010/08/08 05:00
LDDU 080500Z 01012KT 330V060 CAVOK 21/11 Q1015 NOSIG 

2010/08/08 05:00
LDZA 080500Z VRB01KT CAVOK 16/14 Q1017 NOSIG 

2010/08/08 05:00
LDZD 080500Z 00000KT CAVOK 17/16 Q1016 

2010/08/08 05:00
LDOS 080500Z 32003KT 9999 FEW030 16/15 Q1018

2010/08/08 05:00
UTTT 080500Z 33005MPS CAVOK 33/12 Q1007 R08R/CLRD70 NOSIG

2010/08/08 05:00
GOOY 080500Z VRB03KT 9999 SCT013 27/22 Q1011 NOSIG

2010/08/08 05:00
TFFR 080500Z 11004KT 9999 VCSH FEW023 26/23 Q1013 TEMPO 4000 SHRA

2010/08/08 04:56
KMEH 080456Z AUTO 00000KT 10SM FEW090 17/09 A2994 RMK AO2 SLP113 T01720089 TSNO 

2010/08/08 05:00
NWWW 080500Z AUTO 15008KT 110V190 9999NDV BKN043/// 22/12 Q1016

2010/08/08 05:00
VHHH 080500Z 12011KT 090V150 9999 FEW025 SCT035 33/24 Q1003 NOSIG

2010/08/08 04:55
KMWN 080455Z 26030KT 120SM FEW035 BKN250 04/03 RMK PTCHY VLY FG NW-NE 

2010/08/08 05:00
VHHH 080500Z 12011KT 090V150 9999 FEW025 SCT035 33/24 Q1003 NOSIG

2010/08/08 05:00
RCTP 080500Z 02021KT 9999 FEW020 SCT040 BKN150 33/26 Q1002 NOSIG

2010/08/08 05:00
RCKH 080500Z 24010KT 190V270 9999 FEW018 BKN120 32/27 Q1001 NOSIG

2010/08/08 05:00
RCSS 080500Z 08010KT 040V110 9999 FEW020 SCT025 BKN050 31/24 Q1002 NOSIG

2010/08/08 05:00
VMMC 080500Z 05006KT 320V160 9999 FEW012 SCT025 BKN080 31/26 Q1003 NOSIG

2010/08/08 05:00
RPLL 080500Z 24010KT 9000 SCT023 BKN090 30/25 Q1006 RERA RMK A2971

2010/08/08 05:00
RPVM 080500Z 20006KT 9999 FEW020 OVC250 32/25 Q1008 A2979

2010/08/08 05:00
RPMD 080500Z 18004KT 9999 FEW015CB BKN090 BKN290 31/26 Q1008 CB E

2010/08/08 05:00
RPLB 080500Z 23018KT 7000 -RA SCT018 OVC080 29/25 Q1006 LGT RA CONTUS

2010/08/08 05:00
RPLI 080500Z 18006KT 500 RA SCT020 OVC100 25/25 Q1004 RERA

2010/08/08 05:00
RPMZ 080500Z 00000KT 9999 FEW018CB BKN120 32/26 Q1010 CB N SE

2010/08/08 05:00
WSSS 080500Z 20007KT 150V250 9999 FEW020TCU SCT022 BKN300 31/25 Q1010 NOSIG

2010/08/08 05:00
KNRB 080500Z AUTO 00000KT 10SM SCT029 BKN038 BKN047 26/23 A2994 RMK AO2 

2010/08/08 05:00
SBGR 080500Z 10002KT 6000 NSC 10/10 Q1020

2010/08/08 05:00
KCLM 080500Z AUTO 00000KT 1 3/4SM BR BKN001 OVC007 14/14 A2992 RMK AO2

2010/08/08 04:59
KM89 080459Z AUTO 00000KT 3SM -TSRA BR BKN002 BKN011 BKN085 25/24 A2990 RMK AO2 BKN V SCT LTG DSNT W AND NW P0000

2010/08/08 04:55
KDMA 080455Z AUTO 15013KT 10SM -DZ BKN065 24/17 A2998 RMK AO2 PK WND 17027/0430 LTG DSNT NW AND N DZB0423 SLP095 P0002 T02410173 VISNO RWY12 CHINO RWY12 $

2010/08/08 04:50
KEFD 080450Z 00000KT 10SM SKC 27/25 A2994

2010/08/08 04:55
KHXD 080455Z AUTO 00000KT 3SM BR CLR 25/25 A2994 RMK AO2 P0000

2010/08/08 04:55
KNBG 080455Z AUTO 00000KT 10SM CLR 28/24 A2994 RMK AO2 SLP138 T02830244 PWINO $

2010/08/08 04:56
KNMM 080456Z AUTO 00000KT 6SM BR FEW075 25/23 A2992 RMK AO2 SLP137 T02500233 $

2010/08/08 04:56
KNSE 080456Z AUTO 00000KT 5SM BR SCT100 26/24 A2992 RMK AO2 SLP116 T02610244 $

2010/08/08 04:56
KNXX 080456Z AUTO 23003KT 10SM FEW070 22/14 A3003 RMK AO2 SLP171 T02220144 402940156 $

2010/08/08 04:51
KP58 080451Z AUTO 23005KT 22/16 A2986 RMK AO2 SLP103 T02170161 402670128 PWINO TSNO

2010/08/08 04:56
KBIH 080456Z AUTO 15014KT 10SM CLR 25/M01 A2986 RMK AO2 SLP057 T02501011 TSNO

2010/08/08 04:56
KMEH 080456Z AUTO 00000KT 10SM FEW090 17/09 A2994 RMK AO2 SLP113 T01720089 TSNO

2010/08/08 04:55
KMWN 080455Z 26030KT 120SM FEW035 BKN250 04/03 RMK PTCHY VLY FG NW-NE

2010/08/08 05:00
SBRF 080500Z 26003KT 9999 SCT020 20/18 Q1017

2010/08/08 05:00
SBNT 080500Z 19005KT 9999 FEW020 22/20 Q1016

2010/08/08 05:00
SBFI 080500Z 16006KT CAVOK 13/11 Q1016

2010/08/08 05:00
SBBR 080500Z 25003KT CAVOK 16/06 Q1022

2010/08/08 05:00
SBCY 080500Z 32001KT CAVOK 20/13 Q1014

2010/08/08 05:00
SBSL 080500Z 09004KT CAVOK 26/23 Q1013

2010/08/08 05:00
SBFL 080500Z 29005KT CAVOK 14/13 Q1017

2010/08/08 04:50
KDMA 080450Z AUTO 16015G22KT 10SM BKN065 24/17 A2998 RMK AO2 PK WND 17027/0430 DZB0423E0450 SLP094 VISNO RWY12 CHINO RWY12 $

2010/08/08 04:52
KDMA 080452Z AUTO 16014KT 10SM -DZ BKN065 24/17 A2998 RMK AO2 PK WND 17027/0430 DZB0423 SLP094 VISNO RWY12 CHINO RWY12 $

2010/08/08 05:00
KNRB 080500Z AUTO 00000KT 10SM SCT029 BKN038 BKN047 26/23 A2994 RMK AO2

2010/08/08 05:00
SBMO 080500Z 27002KT 9999 SCT016 SCT100 19/18 Q1018

2010/08/08 05:00
SBSV 080500Z 16005KT 9999 SCT017 23/17 Q1018

2010/08/08 04:53
KRYT 080453Z AUTO 00000KT 10SM CLR 20/16 A3001 RMK AO2 SLP150 T02000156 403000161 $

2010/08/08 04:56
KNGP 080456Z AUTO 20009G18KT 10SM CLR 28/26 A2990 RMK AO2 SLP123 T02830261 VISNO $

2010/08/08 04:54
KNKT 080454Z 11003KT 6SM BR CLR 24/23 A2997 RMK AO2 SLP144 T02440233 403110228

2010/08/08 04:55
KNKX 080455Z 27003KT 10SM SCT020 16/12 A2992 RMK AO2 SLP126 T01560117

2010/08/08 04:56
KNMM 080456Z AUTO 00000KT 6SM BR FEW075 25/23 A2992 RMK AO2 SLP137 T02500233 $

2010/08/08 04:56
KNPA 080456Z AUTO 00000KT 10SM TS CLR 26/24 A2990 RMK AO2 TSE00B41 SLP128 T02610239

2010/08/08 04:56
KNQI 080456Z AUTO 16009KT 9SM CLR 29/24 A2990 RMK AO2 SLP122 T02890239

2010/08/08 04:56
KNTU 080456Z 00000KT 10SM FEW007 SCT060 24/23 A2998 RMK AO2 SLP155 T02390228 402940222 $

2010/08/08 04:56
KNUW 080456Z 24004KT 4SM BR OVC003 16/15 A2990 RMK AO2 DZE23RAB23E31 SLP129 P0001 T01590149 $

2010/08/08 04:56
KNXP 080456Z AUTO 22010KT CLR 28/02 A2986 RMK AO2 SLP073 T02830017 $

2010/08/08 04:56
KNXX 080456Z AUTO 23003KT 10SM FEW070 22/14 A3003 RMK AO2 SLP171 T02220144 402940156 $

2010/08/08 04:56
KNYG 080456Z AUTO 31005KT 10SM CLR 20/18 A3001 RMK AO2 SLP162 T02000178 402940194 $

2010/08/08 04:55
KPOE 080455Z AUTO 19005KT 10SM CLR 28/24 A2992 RMK AO2 SLP130 T02780244 403500233

2010/08/08 04:55
KVBG 080455Z AUTO 02005KT 10SM OVC007 13/12 A2991 RMK AO2 SLP121 T01280117 TSNO CHINO RWY12 VISNO RWY12 $

2010/08/08 04:56
K79J 080456Z AUTO 00000KT 7SM CLR 27/23 A2993 RMK AO2 SLP127 T02670233 TSNO PNO $

2010/08/08 04:55
KDMA 080455Z AUTO 15013KT 10SM -DZ BKN065 24/17 A2998 RMK AO2 PK WND 17027/0430 LTG DSNT NW AND N DZB0423 SLP095 P0002 T02410173 VISNO RWY12 CHINO RWY12 $

2010/08/08 04:55
KFCS 080455Z AUTO 11004KT 10SM SCT130 20/15 A3006 RMK AO2 SLP056 T02000150

2010/08/08 04:56
KFHU 080456Z AUTO 25008KT 10SM CLR 18/17 A3013 RMK AO2 VIS M1/4 WEST RAE15 SLP142 P0000 T01830172 TSNO $

2010/08/08 04:55
KGRK 080455Z 15009KT 7SM FEW200 31/21 A2989 RMK SLP098

2010/08/08 04:56
KHLR 080456Z AUTO 15008KT 10SM CLR 31/22 A2991 RMK AO2 SLP116 T03060217 403830283 $

2010/08/08 04:55
KHOP 080455Z AUTO 09004KT 10SM CLR 23/18 A2996 RMK AO2 SLP141 T02290177

2010/08/08 04:55
KLSV 080455Z AUTO 16016KT 10SM CLR 33/13 A2976 RMK AO2 SLP050 T03320133 PWINO

2010/08/08 04:56
KNBC 080456Z AUTO 00000KT 7SM CLR 26/24 A2992 RMK AO2 SLP134 T02560239 403170239

2010/08/08 04:55
KNBG 080455Z AUTO 00000KT 10SM CLR 28/24 A2994 RMK AO2 SLP138 T02830244 PWINO $

2010/08/08 04:56
KNJK 080456Z AUTO 28010KT 10SM CLR 31/03 A2969 RMK AO2 SLP070 T03110033 TSNO

2010/08/08 04:57
KNJM 080457Z AUTO 05003KT 10SM CLR 26/24 A2996 RMK AO2 SLP149 T02560239 403000228

2010/08/08 04:56
KNRS 080456Z AUTO 23005KT 10SM OVC017 17/13 A2993 RMK AO2 SLP134 T01670133 TSNO $

2010/08/08 04:56
KNUQ 080456Z 02007KT 10SM FEW012 15/12 A2986 RMK AO2 SLP115 T01500122

2010/08/08 04:55
KDMA 080455Z AUTO 15013KT 10SM -DZ BKN065 24/17 A2998 RMK AO2 PK WND 17027/0430 LTG DSNT NW AND N DZB0423 SLP095 P0002 T02410173 VISNO RWY12 CHINO RWY12 $

2010/08/08 04:56
KHLR 080456Z AUTO 15008KT 10SM CLR 31/22 A2991 RMK AO2 SLP116 T03060217 403830283 $

2010/08/08 04:55
KHOP 080455Z AUTO 09004KT 10SM CLR 23/18 A2996 RMK AO2 SLP141 T02290177

2010/08/08 04:56
KNBC 080456Z AUTO 00000KT 7SM CLR 26/24 A2992 RMK AO2 SLP134 T02560239 403170239

2010/08/08 04:56
KNFL 080456Z AUTO 26003KT 10SM CLR 25/03 A2984 RMK AO2 SLP082 T02500028 TSNO

2010/08/08 04:56
KNID 080456Z AUTO 18010KT CLR 27/02 A2978 RMK AO2 SLP063 T02720017 TSNO $

2010/08/08 04:56
KNMM 080456Z AUTO 00000KT 6SM BR FEW075 25/23 A2992 RMK AO2 SLP137 T02500233 $

2010/08/08 04:56
KNRS 080456Z AUTO 23005KT 10SM OVC017 17/13 A2993 RMK AO2 SLP134 T01670133 TSNO $

2010/08/08 04:56
KNUW 080456Z 24004KT 4SM BR OVC003 16/15 A2990 RMK AO2 DZE23RAB23E31 SLP129 P0001 T01590149 $

2010/08/08 04:56
KNXX 080456Z AUTO 23003KT 10SM FEW070 22/14 A3003 RMK AO2 SLP171 T02220144 402940156 $

2010/08/08 04:52
KNZY 080452Z 21004KT 10SM BKN018 18/12 A2991 RMK AO2 SLP128 T01830122 $

2010/08/08 05:00
SBGR 080500Z 10002KT 6000 NSC 10/10 Q1020

2010/08/08 04:56
KFSD 080456Z 20012G17KT 10SM CLR 27/23 A2971 RMK AO2 SLP047 T02670228

2010/08/08 04:54
KPZQ 080454Z AUTO 20005KT 10SM SCT041 20/15 A2981 RMK AO2

2010/08/08 04:54
KSBN 080454Z 19007KT 10SM OVC095 22/17 A2994 RMK AO2 SLP133 T02220172 402780167

2010/08/08 04:56
PHNY 080456Z AUTO 03013KT 10SM CLR 23/19 A3010 RMK AO2 TSNO T02270194 SLP174 $

2010/08/08 04:55
KCKP 080455Z AUTO 18008KT 10SM CLR 25/22 A2976 RMK AO2

2010/08/08 04:55
KVTI 080455Z AUTO 17005KT 7SM CLR 23/23 A2983 RMK AO2

2010/08/08 04:55
KMWN 080455Z 26030KT 120SM FEW035 BKN250 04/03 RMK PTCHY VLY FG NW-NE

2010/08/08 04:56
PHBK 080456Z AUTO 29004KT 10SM BKN043 29/20 A3003 RMK AO2 SLP172 T02890200 TSNO $

2010/08/08 04:59
KNGU 080459Z 07003KT 9SM SCT007 25/23 A3000 RMK AO2 SLP160 T02500233 403000239 $

2010/08/08 04:55
KDMA 080455Z AUTO 15013KT 10SM -DZ BKN065 24/17 A2998 RMK AO2 PK WND 17027/0430 LTG DSNT NW AND N DZB0423 SLP095 P0002 T02410173 VISNO RWY12 CHINO RWY12 $

2010/08/08 04:55
KNBG 080455Z AUTO 00000KT 10SM CLR 28/24 A2994 RMK AO2 SLP138 T02830244 PWINO $

2010/08/08 04:56
KNMM 080456Z AUTO 00000KT 6SM BR FEW075 25/23 A2992 RMK AO2 SLP137 T02500233 $

2010/08/08 04:56
KNXX 080456Z AUTO 23003KT 10SM FEW070 22/14 A3003 RMK AO2 SLP171 T02220144 402940156 $

2010/08/08 05:00
SBMQ 080500Z 00000KT 9999 VCTS FEW017 FEW030CB SCT100 25/25 Q1013

2010/08/08 05:00
SBBE 080500Z 10005KT CAVOK 25/22 Q1013

2010/08/08 05:00
SBGO 080500Z 32003KT CAVOK 16/12 Q1018 

2010/08/08 04:50
LTAC 080450Z 01008KT CAVOK 28/03 Q1013 NOSIG

2010/08/08 04:50
LTAF 080450Z /////KT 5000 BR FEW035 29/22 Q1008 NOSIG

2010/08/08 04:50
LTAI 080450Z 00000KT CAVOK 26/19 Q1008 NOSIG

2010/08/08 04:50
LTBA 080450Z 34005KT 320V040 CAVOK 27/24 Q1010 NOSIG

2010/08/08 04:50
LTBJ 080450Z VRB02KT CAVOK 24/19 Q1010 NOSIG

2010/08/08 04:50
LTBS 080450Z 06004KT 020V100 CAVOK 26/22 Q1008 NOSIG

2010/08/08 04:59
KBML 080459Z AUTO 00000KT 2SM BR BKN001 06/06 A3003 RMK AO2 VIS 1V5

2010/08/08 05:00
KCLM 080500Z AUTO 00000KT 1 3/4SM BR BKN001 OVC007 14/14 A2992 RMK AO2

2010/08/08 04:59
KM89 080459Z AUTO 00000KT 3SM -TSRA BR BKN002 BKN011 BKN085 25/24 A2990 RMK AO2 BKN V SCT LTG DSNT W AND NW P0000

2010/08/08 05:00
SBSN 080500Z 00000KT 9999 FEW013 SCT100 24/22 Q1013

2010/08/08 05:00
SBTE 080500Z 30003KT CAVOK 24/22 Q1013

2010/08/08 04:58
PADU 080458Z 16015G23KT 10SM -RA FEW030 SCT036 OVC070 14/12 A2960 RMK AO2 PRESFR SLP028 RH P0002 T01440117

2010/08/08 04:58
PAGA 080458Z AUTO 21006KT 10SM FEW024 BKN034 OVC065 14/12 A2965 RMK AO2 RAE27 SLPNO P0001 T01390122

2010/08/08 04:45
PAHV 080445Z 00000KT 30SM BKN040 BKN100 15/11 A2974 RMK EPC SH VC S-N

2010/08/08 04:57
PAIW 080457Z AUTO 04008KT 10SM OVC006 09/07 A2965 RMK AO2 SLP135 T00890072

2010/08/08 04:56
PAJZ 080456Z AUTO 20008KT 10SM OVC037 13/11 A2979 RMK AO2 PWINO TSNO T01270105 SLP076 $

2010/08/08 04:56
PAKI 080456Z AUTO 16012KT 10SM +RA OVC012 10/09 A2966 RMK AO2 TSNO T01000094 P0000 SLP046 $

2010/08/08 04:56
PALG 080456Z AUTO 00000KT 10SM BKN008 OVC020 12/11 A2971 RMK AO2 TSNO T01160105 CIG 006V009 SLP063 $

2010/08/08 04:53
PAMR 080453Z COR 21005KT 10SM -RA BR SCT020 BKN040 13/11 A2975 RMK AO2 SLP075 P0001 T01280106 $

2010/08/08 04:58
PATE 080458Z AUTO 03005KT 10SM -RA BKN024 OVC039 14/12 A2959 RMK AO2 RAB27 SLP033 P0000 T01440117

2010/08/08 04:56
K4I3 080456Z AUTO 00000KT 10SM CLR 18/16 A3002 RMK AO2

2010/08/08 04:55
KACB 080455Z AUTO 18004KT 10SM BKN048 23/20 A2980 RMK AO2

2010/08/08 04:58
KACQ 080458Z AUTO 19010KT 10SM BKN060 25/22 A2976 RMK AO2 LTG DSNT NW

2010/08/08 04:57
KADC 080457Z AUTO 00000KT 10SM CLR 18/17 A2967 RMK AO2 LTG DSNT S

2010/08/08 04:55
KAMN 080455Z AUTO 19004KT 10SM SCT110 20/17 A2988 RMK AO2

2010/08/08 04:55
KAUM 080455Z AUTO 20008KT 10SM SCT080 23/21 A2976 RMK AO2

2010/08/08 04:55
KBDH 080455Z AUTO 00000KT 10SM TS SCT050 SCT090 26/22 A2968 RMK AO2 LTG DSNT N AND NE

2010/08/08 04:53
KBFW 080453Z AUTO 08003KT 10SM SCT060 18/14 A2973 RMK AO2 LTG DSNT S AND SW

2010/08/08 04:54
KCAD 080454Z AUTO 22006KT 10SM OVC037 22/20 A2986 RMK AO2

2010/08/08 04:55
KCBG 080455Z AUTO 00000KT 10SM -RA SCT013 SCT035 19/17 A2968 RMK AO2 P0005 LTG DSNT E THRU W

2010/08/08 04:54
KCDA 080454Z AUTO 00000KT 10SM CLR 08/06 A3002 RMK AO2

2010/08/08 04:52
KCDD 080452Z AUTO 00000KT 5SM BR SCT032 19/19 A2973 RMK AO2

2010/08/08 04:55
KCFS 080455Z AUTO 00000KT 10SM SCT120 20/16 A2989 RMK AO2

2010/08/08 04:55
KCKC 080455Z AUTO 13003KT 10SM SCT042 SCT065 15/12 A2977 RMK AO2

2010/08/08 04:55
KCKN 080455Z AUTO 10004KT 10SM CLR 22/21 A2966 RMK AO2

2010/08/08 04:54
KCNB 080454Z AUTO 21006KT 10SM CLR 26/23 A2966 RMK AO2 LTG DSNT NE T02620230

2010/08/08 04:56
KCOQ 080456Z AUTO 07006KT 10SM -VCTSRA SCT017 SCT024 BKN036 19/17 A2970 RMK AO2 LTG DSNT NE THRU S

2010/08/08 04:57
KCQM 080457Z AUTO 00000KT 10SM SCT024 17/16 A2973 RMK AO2

2010/08/08 04:55
KCVX 080455Z AUTO 20007KT 10SM SCT120 22/18 A2979 RMK AO2

2010/08/08 04:57
KDRM 080457Z AUTO 16004KT 7SM CLR 16/15 A2978 RMK AO2

2010/08/08 04:55
KDTL 080455Z AUTO 14003KT 10SM CLR 21/16 A2969 RMK AO2

2010/08/08 04:54
KDUH 080454Z AUTO 20003KT 10SM CLR 21/15 A2996 RMK AO2

2010/08/08 04:55
KERY 080455Z AUTO 20005KT 4SM BR SCT085 20/19 A2976 RMK AO2

2010/08/08 04:55
KFFX 080455Z AUTO 20003KT 10SM OVC048 22/20 A2986 RMK AO2

2010/08/08 04:54
KFKS 080454Z AUTO 20005KT 10SM OVC032 23/20 A2979 RMK AO2

2010/08/08 04:53
KFOZ 080453Z AUTO 00000KT 10SM CLR 16/15 A2972 RMK AO2 TSNO

2010/08/08 04:57
KFPK 080457Z AUTO 19005KT 10SM CLR 19/17 A2991 RMK AO2

2010/08/08 04:54
KFSE 080454Z AUTO 00000KT 10SM CLR 20/19 A2967 RMK AO2

2010/08/08 04:55
KGOV 080455Z AUTO 22005KT 10SM SCT085 SCT120 21/18 A2985 RMK AO2

2010/08/08 04:55
KHAF 080455Z AUTO 15007KT 1 1/4SM BR OVC003 12/11 A2990 RMK AO2

2010/08/08 04:55
KHAI 080455Z AUTO 19005KT 7SM CLR 19/18 A2994 RMK AO2

2010/08/08 04:54
KHYX 080454Z AUTO 21007KT 10SM SCT120 21/16 A2989 RMK AO2

2010/08/08 04:55
KIRS 080455Z AUTO 19004KT 7SM CLR 19/17 A2995 RMK AO2

2010/08/08 04:55
KISQ 080455Z AUTO 00000KT 7SM BKN100 22/19 A2975 RMK AO2

2010/08/08 04:55
KJYG 080455Z AUTO 18007KT 10SM CLR 26/26 A2972 RMK AO2 LTG DSNT NW

2010/08/08 04:55
KJYM 080455Z AUTO 20004KT 7SM CLR 21/17 A2996 RMK AO2

2010/08/08 04:55
KLDM 080455Z AUTO 22009KT 10SM BKN039 24/21 A2983 RMK AO2

2010/08/08 04:56
KLWA 080456Z AUTO 20007KT 10SM BKN065 BKN085 23/17 A2990 RMK AO2

2010/08/08 04:55
KMCD 080455Z AUTO 00000KT 10SM CLR 20/17 A2978 RMK AO2

2010/08/08 04:55
KMGN 080455Z AUTO 00000KT 10SM SCT031 OVC038 22/17 A2978 RMK AO2

2010/08/08 04:54
KMOP 080454Z AUTO 18004KT 10SM SCT120 22/19 A2987 RMK AO2

2010/08/08 04:55
OPLA 080455Z 18008KT 5000 FU SCT040 SCT100 33/26 Q1004 NOSIG

2010/08/08 05:00
OPRN 080500Z 23004KT 1500 BR FEW025TCU SCT030 BKN100 27/25 Q1006.7

2010/08/08 05:00
OPSK 080500Z 00000KT 4000 HZ FEW040 BKN100 31/27 1001 RH 79

2010/08/08 05:00
UTTT 080500Z 33005MPS CAVOK 33/12 Q1007 R08R/CLRD70 NOSIG

2010/08/08 05:00
SBLO 080500Z 25003KT CAVOK 11/08 Q1019

2010/08/08 04:51
KP58 080451Z AUTO 23005KT 22/16 A2986 RMK AO2 SLP103 T02170161 402670128 PWINO TSNO

2010/08/08 04:56
KBIH 080456Z AUTO 15014KT 10SM CLR 25/M01 A2986 RMK AO2 SLP057 T02501011 TSNO

2010/08/08 04:56
KMEH 080456Z AUTO 00000KT 10SM FEW090 17/09 A2994 RMK AO2 SLP113 T01720089 TSNO

2010/08/08 05:04
KBAX 080504Z AUTO 22005KT 10SM BKN060 OVC080 21/16 A2989 RMK AO2

2010/08/08 05:02
KCFE 080502Z AUTO 02008KT 10SM SCT020 BKN042 26/22 A2971 RMK AO2 LTG DSNT N AND W T02560216

2010/08/08 04:55
KOEB 080455Z AUTO 20005KT 10SM CLR 21/18 A2995 RMK AO2

2010/08/08 04:56
KOSC 080456Z AUTO 21004KT 10SM CLR 19/17 A2985 RMK AO2

2010/08/08 04:55
KOZW 080455Z AUTO 21005KT 10SM CLR 20/16 A2993 RMK AO2

2010/08/08 04:55
KPHN 080455Z AUTO 00000KT 10SM SCT100 SCT110 19/16 A2993 RMK AO2

2010/08/08 04:55
KRGK 080455Z AUTO 22009G17KT 10SM SCT070 27/22 A2971 RMK AO2 LTG DSNT N

2010/08/08 04:55
KRMY 080455Z AUTO 19003KT 10SM CLR 21/17 A2993 RMK AO2

2010/08/08 04:55
KRNP 080455Z AUTO 21005KT 10SM BKN120 21/17 A2991 RMK AO2

2010/08/08 04:54
KRQB 080454Z AUTO 18006KT 10SM OVC046 22/18 A2987 RMK AO2

2010/08/08 04:59
KSAW 080459Z AUTO 00000KT 10SM SCT100 SCT120 17/14 A2975 RMK AO2 LTG DSNT SW

2010/08/08 04:55
KSJX 080455Z AUTO 20006KT 10SM CLR 22/20 A2977 RMK AO2

2010/08/08 04:55
KSLH 080455Z AUTO 18003KT 10SM SCT090 18/17 A2978 RMK AO2

2010/08/08 04:54
KTTF 080454Z AUTO 21004KT 7SM CLR 21/17 A2994 RMK AO2

2010/08/08 04:50
KUKT 080450Z AUTO 00000KT 10SM BKN060 BKN075 18/15 A3003 RMK AO1

2010/08/08 04:54
KVLL 080454Z AUTO 21006KT 10SM CLR 22/15 A2995 RMK AO2

2010/08/08 04:55
KY70 080455Z AUTO 21008KT 10SM CLR 21/18 A2989 RMK AO2 T02130177

2010/08/08 04:56
KNSE 080456Z AUTO 00000KT 5SM BR SCT100 26/24 A2992 RMK AO2 SLP116 T02610244 $

2010/08/08 04:56
KSGH 080456Z AUTO 00000KT 7SM CLR 17/17 A3002 RMK AO2 T01720172 402830133 SLP160 $

2010/08/08 04:50
KEFD 080450Z 00000KT 10SM SKC 27/25 A2994

2010/08/08 04:56
PPIZ 080456Z AUTO 07018KT 10SM SCT016 09/06 A2971 RMK AO2 TSNO T00880055 SLP063 $

2010/08/08 04:55
KAWG 080455Z AUTO 18006KT 7SM CLR 24/21 A2987 RMK AO2

2010/08/08 04:55
KAXA 080455Z AUTO 19009KT 10SM CLR 25/22 A2976 RMK AO2

2010/08/08 04:55
KBNW 080455Z AUTO 19010KT 10SM SCT095 26/22 A2981 RMK AO2

2010/08/08 04:55
KCAV 080455Z AUTO 18008KT 7SM CLR 26/22 A2979 RMK AO2

2010/08/08 04:55
KCBF 080455Z AUTO 17008KT 10SM CLR 26/21 A2980 RMK AO2

2010/08/08 04:55
KCIN 080455Z AUTO 19008KT 10SM CLR 25/21 A2981 RMK AO2

2010/08/08 04:55
KCNC 080455Z AUTO 19007KT 10SM CLR 24/20 A2986 RMK AO2

2010/08/08 04:55
KCSQ 080455Z AUTO 17010KT 10SM CLR 24/22 A2986 RMK AO2

2010/08/08 04:55
KDEH 080455Z AUTO 18007KT 10SM CLR 25/21 A2982 RMK AO2

2010/08/08 04:55
KDNS 080455Z AUTO 18008KT 10SM CLR 26/21 A2982 RMK AO2

2010/08/08 04:55
KEBS 080455Z AUTO 19008KT 10SM SCT090 25/21 A2980 RMK AO2

2010/08/08 04:55
KEOK 080455Z AUTO 18005KT 10SM CLR 26/20 A2989 RMK AO2

2010/08/08 04:55
KFFL 080455Z AUTO 19005KT 7SM CLR 23/22 A2987 RMK AO2

2010/08/08 04:55
KFSW 080455Z AUTO 17007KT 10SM CLR 25/20 A2989 RMK AO2

2010/08/08 04:55
KFXY 080455Z AUTO 19010KT 10SM CLR 25/21 A2977 RMK AO2

2010/08/08 04:55
KGGI 080455Z AUTO 20008KT 10SM CLR 25/21 A2986 RMK AO2

2010/08/08 04:55
KHNR 080455Z AUTO 17008KT 10SM CLR 24/22 A2984 RMK AO2

2010/08/08 04:55
KICL 080455Z AUTO 17006KT 10SM CLR 26/21 A2983 RMK AO2

2010/08/08 04:55
KIIB 080455Z AUTO 17007KT 10SM CLR 22/21 A2983 RMK AO1

2010/08/08 04:55
KIKV 080455Z AUTO 19008KT 10SM CLR 26/21 A2983 RMK AO2

2010/08/08 04:55
KLRJ 080455Z AUTO 19006KT 10SM CLR 25/22 A2974 RMK AO2

2010/08/08 04:55
KMPZ 080455Z AUTO 18007KT 7SM CLR 23/21 A2987 RMK AO2

2010/08/08 04:55
KMUT 080455Z AUTO 00000KT 7SM CLR 23/21 A2986 RMK AO2

2010/08/08 04:55
KMXO 080455Z AUTO 16003KT 7SM CLR 22/20 A2985 RMK AO2

2010/08/08 04:55
KOOA 080455Z AUTO 19006KT 10SM CLR 24/22 A2986 RMK AO2

2010/08/08 04:55
KORC 080455Z AUTO 18007KT 10SM CLR 25/25 A2975 RMK AO2

2010/08/08 04:55
KOXV 080455Z AUTO 19005KT 10SM CLR 25/21 A2985 RMK AO2

2010/08/08 04:55
KPEA 080455Z AUTO 10SM CLR A2985 RMK AO2

2010/08/08 04:55
KPRO 080455Z AUTO 18007KT 10SM BKN085 24/23 A2981 RMK AO2

2010/08/08 04:55
KRDK 080455Z AUTO 17006KT 10SM CLR 26/22 A2981 RMK AO2

2010/08/08 04:55
KRPD 080455Z AUTO 23008G15KT 10SM TS CLR 25/22 A2973 RMK AO2 LTG DSNT ALQS T02500218

2010/08/08 04:55
KRRL 080455Z AUTO 20004KT 10SM VCTS SCT029 BKN075 22/21 A2979 RMK AO2 LTG DSNT NW THRU E T02200207

2010/08/08 04:55
KRYV 080455Z AUTO 18003KT 10SM CLR 22/18 A2985 RMK AO2

2010/08/08 04:55
KSDA 080455Z AUTO 16007KT 10SM CLR 26/22 A2982 RMK AO2

2010/08/08 04:55
KSHL 080455Z AUTO 19008KT 10SM CLR 25/22 A2976 RMK AO2

2010/08/08 04:55
KSTE 080455Z AUTO 19011G15KT 10SM CLR 23/19 A2980 RMK AO2

2010/08/08 04:55
KSUW 080455Z AUTO 03006KT 10SM -RA SCT004 BKN019 OVC075 17/16 A2971 RMK AO2 P0058

2010/08/08 04:55
KTNU 080455Z AUTO 20006KT 10SM CLR 25/20 A2985 RMK AO2

2010/08/08 04:55
KTVK 080455Z AUTO 10SM CLR 22/21 A2989 RMK AO2

2010/08/08 04:50
LTAJ 080450Z 00000KT CAVOK 26/09 Q1011 NOSIG

2010/08/08 04:50
LTAN 080450Z 12003KT CAVOK 22/07 Q1013 NOSIG

2010/08/08 04:50
LTAU 080450Z 03003KT CAVOK 20/13 Q1014 NOSIG

2010/08/08 04:50
LTCC 080450Z VRB02KT CAVOK 29/04 Q1010 NOSIG

2010/08/08 04:50
LTCE 080450Z VRB02KT 9999 FEW030 20/08 Q1021 NOSIG

2010/08/08 04:50
LTCG 080450Z 24008KT 9999 SCT017 BKN030 28/18 Q1009 NOSIG

2010/08/08 04:50
LTCI 080450Z 32003KT 270V010 9999 FEW040 24/09 Q1019 NOSIG

2010/08/08 04:50
LTFE 080450Z VRB02KT 8000 NSC 25/21 Q1009 NOSIG

2010/08/08 04:55
KUES 080455Z AUTO 20007KT 10SM CLR 21/17 A2987 RMK AO2 T02090170

2010/08/08 04:55
KUNU 080455Z AUTO 19007KT 10SM SCT032 22/18 A2985 RMK AO2 T02160180

2010/08/08 04:50
KEFD 080450Z 00000KT 10SM SKC 27/25 A2994

2010/08/08 04:55
KHXD 080455Z AUTO 00000KT 3SM BR CLR 25/25 A2994 RMK AO2 P0000

2010/08/08 04:56
KNSE 080456Z AUTO 00000KT 5SM BR SCT100 26/24 A2992 RMK AO2 SLP116 T02610244 $

2010/08/08 04:50
LCEN 080450Z 31006KT CAVOK 25/20 Q1009 NOSIG

2010/08/08 05:00
KNEL 080500Z AUTO 00000KT 10SM CLR 19/17 A3001 RMK AO2 SLP161 T01940172 401940194 $ 

2010/08/08 04:50
EGOM 080450Z AUTO 07002KT 8000NDV BR FEW032/// BKN037/// BKN060/// 11/11 Q1019

2010/08/08 04:50
EGOP 080450Z AUTO 36004KT 0150NDV // BKN001/// 11/11 Q1021

2010/08/08 04:50
EGVN 080450Z 29002KT 9999 FEW012 SCT016 BKN032 14/12 Q1020 WHT BECMG FEW016 BLU

2010/08/08 04:50
EGXX 080450Z AUTO 33013KT 9999NDV // FEW023/// 14/13 Q1019

2010/08/08 04:55
KDLF 080455Z AUTO 12010KT 10SM CLR 31/18 A2987 RMK AO2 SLP098 T03130184

2010/08/08 04:56
KFHU 080456Z AUTO 25008KT 10SM CLR 18/17 A3013 RMK AO2 VIS M1/4 WEST RAE15 SLP142 P0000 T01830172 TSNO $

2010/08/08 04:55
KHRT 080455Z AUTO 04003KT 10SM FEW120 SCT160 26/25 A2991 RMK AO2 SLP129 T02580251 $

2010/08/08 04:55
KLUF 080455Z AUTO 36007KT 7SM CLR 29/19 A2981 RMK AO2 SLP072 T02890186 $

2010/08/08 04:56
KNLC 080456Z AUTO 32010KT 10SM CLR 25/11 A2975 RMK AO2 SLP074 T02500111 TSNO $

2010/08/08 04:56
KNTD 080456Z 28004KT 8SM OVC009 15/13 A2988 RMK AO2 SLP120 T01500133 $

2010/08/08 04:55
KTBN 080455Z AUTO 14005KT 10SM CLR 23/ A2995 RMK AO2 SLP121 T0231 $

2010/08/08 04:50
MUCM 080450Z 07004KT 040V100 9000 FEW025 25/22 Q1016

2010/08/08 04:55
MUHA 080455Z 08002KT 9000 SKC 25/23 Q1015

2010/08/08 04:50
MUHG 080450Z VRB02KT 8000 SKC 24/22 Q1015

2010/08/08 04:51
MUVR 080451Z 00000KT 9000 FEW018 23/21 Q1016

2010/08/08 04:59
NSTU 080459Z 09017KT 10SM SCT018 SCT040 BKN100 27/25 A2992 RMK SLP134 T02690246

2010/08/08 05:00
OJAI 080500Z 00000KT CAVOK 25/12 Q1013 NOSIG

2010/08/08 05:00
OJAM 080500Z 00000KT 3500 FU NSC 28/04 Q1013 NOSIG

2010/08/08 04:58
PAGA 080458Z AUTO 21006KT 10SM FEW024 BKN034 OVC065 14/12 A2965 RMK AO2 RAE27 SLPNO P0001 T01390122

2010/08/08 04:56
PASY 080456Z AUTO 27023G29KT 10SM OVC003 10/09 A2904 RMK AO2 PK WND 27031/0414 SLP832 T01000094 TSNO PNO $

2010/08/08 05:00
TFFF 080500Z AUTO 04003KT 9999NDV NCD 25/24 Q1013

2010/08/08 05:00
TFFR 080500Z 11004KT 9999 VCSH FEW023 26/23 Q1013 TEMPO 4000 SHRA

2010/08/08 05:00
WSAP 080500Z 18006KT 9999 FEW018 FEW020TCU BKN300 32/24 Q1009

2010/08/08 05:00
OJAI 080500Z 00000KT CAVOK 25/12 Q1013 NOSIG

2010/08/08 05:00
OJAM 080500Z 00000KT 3500 FU NSC 28/04 Q1013 NOSIG

2010/08/08 05:00
LZIB 080500Z 28006KT 250V310 9999 FEW009 SCT028 BKN090 17/14 Q1016

2010/08/08 05:00
LZKZ 080500Z 20006KT 170V240 9999 SCT006 BKN009 15/14 Q1016 NOSIG

2010/08/08 05:00
LZTT 080500Z 25004KT 9999 FEW013 14/12 Q1015 NOSIG

2010/08/08 04:50
EGHQ 080450Z 02004KT 9999 FEW025 13/11 Q1022

2010/08/08 04:50
EGEC 080450Z AUTO 30004KT 9999NDV // BKN011/// 12/11 Q1020

2010/08/08 04:50
EGPU 080450Z AUTO 27003KT 0650NDV FG NSC 08/08 Q1020

2010/08/08 05:00
OJAI 080500Z 00000KT CAVOK 25/12 Q1013 NOSIG

2010/08/08 05:00
OJAM 080500Z 00000KT 3500 FU NSC 28/04 Q1013 NOSIG

2010/08/08 05:00
LHBP 080500Z 22006KT 9999 BKN012 OVC020 17/15 Q1017 NOSIG

2010/08/08 04:50
EGPI 080450Z AUTO 36003KT 9999NDV // BKN011/// 10/10 Q1020

2010/08/08 05:00
HSSS 080500Z 25019KT 4000MSA 26/21 Q1009

2010/08/08 05:00
LZPP 080500Z 17002KT 5000 -RA SCT005 OVC010 16/15 Q1016

2010/08/08 05:00
LZSL 080500Z 00000KT 9999 -DZ BKN006 BKN016 15/13 Q1016

2010/08/08 05:00
LZZI 080500Z 26003KT 9999 SCT007 BKN020 15/14 Q1016

2010/08/08 05:00
NWWL 080500Z AUTO 12012KT 100V160 9999NDV FEW028/// BKN056/// 23/17 Q1015

2010/08/08 05:00
UBBN 080500Z 23004KT 9999 SCT100 29/12 Q1013 R14R/CLRD60 NOSIG RMK G/O QFE685

2010/08/08 05:00
NWWU 080500Z AUTO 10008KT 9999NDV BKN047/// BKN058/// 24/17 Q1015

2010/08/08 05:00
RKTN 080500Z 01003KT 9999 SCT030 32/20 Q1009 NOSIG

2010/08/08 05:00
DTTB 080500Z 24002KT CAVOK 17/15 Q1019

2010/08/08 05:00
DTTK 080500Z 01002KT 8000 FEW023 22/15 Q1017

2010/08/08 05:00
DTTN 080500Z 00000KT 9999 FEW020 14/12 Q1019 RAS

2010/08/08 05:00
NWWM 080500Z 11004KT 060V160 9999 FEW033 22/14 Q1016 NOSIG

2010/08/08 04:50
EGDX 080450Z AUTO 31003KT 9999NDV // BKN033/// 12/10 Q1021

2010/08/08 05:00
SBCG 080500Z 07010KT CAVOK 17/06 Q1017

2010/08/08 05:00
OEDF 080500Z 12002KT CAVOK 36/12 Q0999 NOSIG

2010/08/08 05:00
OEDR 080500Z 28004KT 8000 SKC 37/18 Q0997 NOSIG

2010/08/08 05:00
OEJN 080500Z 14004KT CAVOK 33/26 Q1001 NOSIG

2010/08/08 05:00
OEMA 080500Z 00000KT CAVOK 36/02 Q1007 NOSIG

2010/08/08 05:00
OERK 080500Z 32004KT CAVOK 34/05 Q1006 NOSIG

2010/08/08 05:00
UBBY 080500Z VRB02KT 9999 FEW100 26/15 Q1016 NOSIG RMK R33/CLRD70 G/O

2010/08/08 05:00
SBBE 080500Z 10005KT CAVOK 25/22 Q1013

2010/08/08 05:00
SBBR 080500Z 25003KT CAVOK 16/06 Q1022

2010/08/08 05:00
SBCF 080500Z 00000KT CAVOK 13/09 Q1021

2010/08/08 05:00
SBCT 080500Z 05002KT 3000 BR NSC 06/06 Q1020

2010/08/08 05:00
SBCY 080500Z 32001KT CAVOK 20/13 Q1014

2010/08/08 05:00
SBEG 080500Z 00000KT CAVOK 24/23 Q1014

2010/08/08 05:00
SBFI 080500Z 16006KT CAVOK 13/11 Q1016

2010/08/08 05:00
SBFL 080500Z 29005KT CAVOK 14/13 Q1017

2010/08/08 05:00
SBFZ 080500Z 10010KT 9999 SCT017 24/21 Q1015

2010/08/08 05:00
SBGL 080500Z 07002KT CAVOK 16/13 Q1018

2010/08/08 05:00
SBGR 080500Z 10002KT 6000 NSC 10/10 Q1020

2010/08/08 05:00
SBMO 080500Z 27002KT 9999 SCT016 SCT100 19/18 Q1018

2010/08/08 05:00
SBMQ 080500Z 00000KT 9999 VCTS FEW017 FEW030CB SCT100 25/25 Q1013

2010/08/08 05:00
SBNT 080500Z 19005KT 9999 FEW020 22/20 Q1016

2010/08/08 05:00
SBPA 080500Z 15001KT 7000 BKN007 10/09 Q1018

2010/08/08 05:00
SBPA 080500Z 15001KT 9999 BKN007 10/09 Q1018

2010/08/08 05:00
SBPV 080500Z 00000KT CAVOK 21/18 Q1013

2010/08/08 05:00
SBRF 080500Z 26003KT 9999 SCT020 20/18 Q1017

2010/08/08 05:00
SBSL 080500Z 09004KT CAVOK 26/23 Q1013

2010/08/08 05:00
SBSN 080500Z 00000KT 9999 FEW013 SCT100 24/22 Q1013

2010/08/08 05:00
SBSV 080500Z 16005KT 9999 SCT017 23/17 Q1018

2010/08/08 05:00
SBTE 080500Z 30003KT CAVOK 24/22 Q1013

2010/08/08 05:00
SGAS 080500Z 16008KT CAVOK 16/11 Q1014

2010/08/08 05:00
SGES 080500Z 09006KT CAVOK 14/13 Q1016

2010/08/08 05:00
SOCA 080500Z 16002KT 9999 FEW021 25/23 Q1013 NOSIG

2010/08/08 05:00
SULS 080500Z 00000KT 0040 FG NSC 06/06 Q1021

2010/08/08 05:00
SUMU 080500Z 00000KT 0050 R24/0900 R19/0150 FG BKN001 06/06 Q1021 TEMPO 0300 FG

2010/08/08 05:00
SVMI 080500Z 00000KT 9999 FEW016 27/24 Q1013 NOSIG

2010/08/08 04:56
KHLR 080456Z AUTO 15008KT 10SM CLR 31/22 A2991 RMK AO2 SLP116 T03060217 403830283 $

2010/08/08 04:59
NSTU 080459Z 09017KT 10SM SCT018 SCT040 BKN100 27/25 A2992 RMK SLP134 T02690246

2010/08/08 04:56
PHBK 080456Z AUTO 29004KT 10SM BKN043 29/20 A3003 RMK AO2 SLP172 T02890200 TSNO $

2010/08/08 04:56
PHNY 080456Z AUTO 03013KT 10SM CLR 23/19 A3010 RMK AO2 TSNO T02270194 SLP174 $

2010/08/08 04:55
RJTY 080455Z AUTO 18010KT 9999 CLR 30/22 A3003 RMK AO2 SLP161 T03000223 $

2010/08/08 04:55
KQBS 080455Z 27004KT 6000 DU HZ FEW010 BKN180 36/06 A2946 RMK FU FEW010 SLP983 WND/ALSTG/SLP/QNH ESTMD QNH997

2010/08/08 04:55
KQIR 080455Z VRB03KT 9999 BKN150 35/17 A2952 RMK AO2A SLP996 T03540171

2010/08/08 04:55
KQL5 080455Z 06004KT 9999 -RA SCT025 OVC050 27/23 A2971 RMK AO2A SLP030 WND DATA ESTMD ALSTG/SLP ESTMD

2010/08/08 04:55
KQPV 080455Z AUTO 34011G16KT 7000 CLR 36/02 A2965 RMK AO2 SLP034 T03610024 $

2010/08/08 04:55
KQQY 080455Z AUTO 00000KT 9999 BKN070 23/19 A3005 RMK AO2 SLP160 T02320187 $

2010/08/08 04:55
KQXF 080455Z AUTO 03006G13KT 8000 FEW200 38/02 A2957 RMK AO2 LTG DSNT W SLP001 T03800022 $

2010/08/08 04:55
KQXJ 080455Z 31012KT 1600 BLDU SCT100 38/03 A2950 RMK SLP992 PA+412 DA+3193

2010/08/08 05:10
KQEV 080510Z AUTO 24002KT 7SM CLR 33/18 A2982 RMK A02

2010/08/08 04:57
PHNG 080457Z AUTO 07005KT 10SM FEW019 BKN060 26/22 A3007 RMK AO2 SLP177 T02610222 $ 

2010/08/08 05:00
SCEL 080500Z 36006KT CAVOK 04/01 Q1026 NOSIG

2010/08/08 05:00
SCTC 080500Z VRB01KT 0400 FG SCT015 03/03 Q1029

2010/08/08 05:00
SCTE 080500Z 00000KT 9999 SCT070 02/02 Q1027 NOSIG

2010/08/08 05:00
SCON 080500Z AUTO 01003KT 330V040 9999 ///030 07/05 Q1024

2010/08/08 05:00
SCFT 080500Z AUTO 30003KT 270V010 CAVOK 05/M00 Q1023

2010/08/08 05:00
SCBA 080500Z AUTO 30015KT 9999 -RA VV/// 03/00 Q1014

2010/08/08 05:00
SCAR 080500Z 12005KT 9999 OVC021 14/08 Q1017

2010/08/08 05:00
SCDA 080500Z 00000KT 9999 OVC022 13/09 Q1018

2010/08/08 05:00
SCFA 080500Z 13006KT 9999 BKN015 11/08 Q1016

2010/08/08 05:00
SCAT 080500Z 14004KT 060V180 5000 HZ SKC 08/06 Q1019

2010/08/08 05:00
SCSE 080500Z 11006KT CAVOK 07/06 Q1021 NEFO PLAYA SKC

2010/08/08 05:00
SCVM 080500Z 03006KT 9999 FEW050 08/06 Q1025

2010/08/08 05:00
SCEL 080500Z 36006KT CAVOK 04/01 Q1026 NOSIG

2010/08/08 05:00
ORSU 080500Z 06011KT CAVOK 36/07 Q1011 

2010/08/08 05:01
CYZY 080501Z AUTO 00000KT 9SM OVC061 14/12 A2969 RMK SLP062 DENSITY ALT 2900FT

2010/08/08 05:00
SLLP 080500Z 04004KT 010V070 9999 SKC 01/M12 Q1039

2010/08/08 05:00
SLVR 080500Z 32007KT 5000 FU NSC 17/13 Q1013

2010/08/08 05:00
SLCB 080500Z 00000KT 9999 SKC 08/01 Q1024

2010/08/08 05:01
KPLN 080501Z AUTO 13005KT 8SM -RA FEW009 BKN036 OVC090 18/18 A2978 RMK AO2 P0000

2010/08/08 05:00
PAKT 080500Z 00000KT 10SM FEW022 BKN036 OVC070 14/12 A2990 RMK AO2

2010/08/08 04:59
KIWA 080459Z AUTO 32014KT 10SM CLR 33/17 A2985 RMK AO2

2010/08/08 05:02
K47A 080502Z AUTO 00000KT 7SM CLR 25/21 A3001 RMK AO2 LTG DSNT SW

2010/08/08 05:00
KAVC 080500Z AUTO 00000KT 7SM BKN049 BKN090 22/20 A3006 RMK AO2

2010/08/08 05:00
KBCB 080500Z AUTO 12003KT 10SM CLR 22/19 A3011 RMK AO2 PWINO

2010/08/08 05:00
KCPK 080500Z AUTO 00000KT 3/4SM +RA OVC002 21/20 A3000 RMK AO2

2010/08/08 04:59
KEDE 080459Z AUTO 00000KT 5SM BR SCT016 SCT090 24/23 A2996 RMK AO2

2010/08/08 04:59
KEXX 080459Z AUTO 00000KT 5SM BR CLR 21/21 A3000 RMK AO2

2010/08/08 05:00
KFQD 080500Z AUTO 00000KT 7SM SCT070 BKN085 22/21 A3002 RMK AO2

2010/08/08 05:01
KFYJ 080501Z AUTO 00000KT 7SM CLR 21/21 A3001 RMK AO1

2010/08/08 05:00
KGEV 080500Z AUTO 00000KT 7SM CLR 18/16 A3013 RMK AO2

2010/08/08 04:59
KHDC 080459Z AUTO 24003KT 10SM CLR 30/28 A2994 RMK AO2

2010/08/08 05:01
KHLX 080501Z AUTO 00000KT 10SM CLR 20/19 A3012 RMK AO2

2010/08/08 04:59
KHRJ 080459Z AUTO 00000KT 7SM SCT100 25/23 A2997 RMK AO2

2010/08/08 04:59
KJNX 080459Z AUTO 00000KT 10SM SCT100 23/23 A2997 RMK AO2

2010/08/08 05:01
KMFV 080501Z AUTO 00000KT 2 1/2SM BR 23/22 A3001 RMK AO2

2010/08/08 05:00
KMQI 080500Z AUTO 08005KT 7SM CLR 26/26 A2998 RMK AO2

2010/08/08 05:00
KONX 080500Z AUTO 00000KT 7SM BKN009 BKN015 26/24 A2999 RMK AO2

2010/08/08 05:00
KPGV 080500Z AUTO 00000KT 7SM OVC100 24/23 A2999 RMK AO2

2010/08/08 05:01
KPTB 080501Z AUTO 00000KT 7SM CLR 20/ A3000 RMK AO2

2010/08/08 05:00
KRUQ 080500Z AUTO 00000KT 5SM BR CLR 21/20 A3001 RMK AO2

2010/08/08 04:55
KSPF 080455Z AUTO 29005G18KT 10SM SCT090 BKN120 18/14 A2993 RMK AO2

2010/08/08 05:00
KUKF 080500Z AUTO 00000KT 5SM CLR 20/19 A3006 RMK AO1

2010/08/08 04:55
KVVG 080455Z AUTO 00000KT 27/25 A2995 RMK AO2

2010/08/08 04:56
PAVC 080456Z AUTO 18014KT 1SM BR 11/10 A2981 RMK AO2 PWINO TSNO T01110100 P0001 SLP096 $

2010/08/08 05:00
SBRP 080500Z 11002KT CAVOK 15/11 Q1018

2010/08/08 05:00
SBSP 080500Z 00000KT 0500 R17/0500 R35/0400 FG VV002 12/12 Q1021

2010/08/08 05:00
SBPS 080500Z 33004KT 6000 -RA SCT020 BKN050 17/17 Q1020

2010/08/08 05:00
SBVT 080500Z 30002KT CAVOK 18/15 Q1019

2010/08/08 05:00
FAVV 080500Z AUTO 34004KT //// // ////// 02/M00 Q1024

2010/08/08 05:00
FAJB 080500Z AUTO 00000KT //// // ////// 05/01 Q1027

2010/08/08 05:00
FASI 080500Z AUTO 00000KT //// // ////// 03/M00 Q1027

2010/08/08 05:00
FAGC 080500Z AUTO 01006KT //// // ////// 08/02 Q1027

2010/08/08 05:00
SBCG 080500Z 07010KT CAVOK 17/06 Q1017

2010/08/08 05:00
SGAS 080500Z 16008KT CAVOK 16/11 Q1014

2010/08/08 05:00
SGES 080500Z 09006KT CAVOK 14/13 Q1016

2010/08/08 04:50
LSMA 080450Z AUTO VRB02KT 9999NDV BKN084 OVC120 14/12 Q1019 RMK WHT

2010/08/08 04:50
LSMD 080450Z AUTO VRB01KT 9999NDV SCT074 BKN100 BKN130 14/12 Q1018 RMK WHT

2010/08/08 04:50
LSME 080450Z AUTO VRB01KT 9999NDV BKN078 BKN120 BKN140 14/12 Q1019 RMK WHT

2010/08/08 04:50
LSMM 080450Z AUTO VRB02KT 9999NDV BKN087 OVC100 12/11 Q1019 RMK WHT

2010/08/08 04:50
LSMP 080450Z AUTO 00000KT 9999NDV BKN130 14/12 Q1019 RMK WHT

2010/08/08 05:00
FAJS 080500Z 32007KT 8000 NSC 09/02 Q1028 NOSIG

2010/08/08 04:56
PTKR 080456Z 02010KT 15SM FEW017CB BKN120 OVC300 30/24 A2979 RMK CB NW-NE SLP087 T02980240

2010/08/08 04:55
EHAM 080455Z 31003KT 3500 R27/0650V1700D R18R/0400V0650D BCFG FEW009 FEW015TCU 14/14 Q1015 TEMPO 0800

2010/08/08 04:55
EHBK 080455Z AUTO 26004KT 210V300 9999NDV FEW004 SCT005 BKN007 15/15 Q1015 REDZ BECMG 4000 BR

2010/08/08 04:55
EHGG 080455Z AUTO 29001KT 1900NDV BR SCT006 BKN008 OVC010 16/15 Q1014 BECMG 0800 FG

2010/08/08 04:55
EHRD 080455Z 28001KT 0450 0100NE R24/0200N FG FEW011 13/13 Q1015 BECMG 2500 BR

2010/08/08 05:00
LEJR 080500Z VRB02KT CAVOK 25/13 Q1015

2010/08/08 05:00
LRBM 080500Z VRB02KT 9999 FEW034 19/17 Q1016

2010/08/08 04:50
LCRA 080450Z 28003KT 9999 FEW020 26/21 Q1008 NOSIG

2010/08/08 05:00
UBBB 080500Z 30008KT CAVOK 31/23 Q1010 NOSIG RMK R88CLRD70

2010/08/08 05:01
CYZY 080501Z AUTO 00000KT 9SM OVC061 14/12 A2969 RMK SLP062 DENSITY ALT 2900FT

2010/08/08 05:00
SBJP 080500Z 24011KT 9999 FEW010 BKN020 BKN070 22/20 Q1017 

2010/08/08 04:50
EGNJ 080450Z 35004KT 9999 FEW012 13/12 Q1019

2010/08/08 04:50
EGPE 080450Z AUTO 23003KT 9999NDV OVC040/// 12/10 Q1020

2010/08/08 04:50
EGVN 080450Z 29002KT 9999 FEW012 SCT016 BKN032 14/12 Q1020 BECMG FEW016

2010/08/08 04:50
EGPA 080450Z AUTO 30008KT 4600NDV BR SCT015/// BKN021/// BKN024/// 12/11 Q1019

2010/08/08 04:50
EGPC 080450Z AUTO 27004KT 9999NDV SCT016/// OVC031/// 11/11 Q1019

2010/08/08 04:50
EGPL 080450Z AUTO 17006KT 9999NDV NCD 10/10 Q1019

2010/08/08 04:50
EGPM 080450Z AUTO 28008KT 9999NDV RA BKN011/// 12/11 Q1017

2010/08/08 04:50
EGPO 080450Z AUTO 00000KT 9999NDV NCD 09/07 Q1019

2010/08/08 04:55
EHAK 080455Z AUTO 01006KT 330V050 9999NDV FEW006/// BKN039/// 16/15 Q1015

2010/08/08 04:55
EHDV 080455Z AUTO 34007KT 9999NDV FEW009/// 17/14 Q1016

2010/08/08 04:55
EHFD 080455Z AUTO VRB07KT 9999NDV FEW005/// SCT012/// 17/15 Q1016

2010/08/08 04:55
EHFZ 080455Z AUTO 34012KT 9999NDV FEW009/// 17/14 Q1015

2010/08/08 04:55
EHJA 080455Z AUTO 34008KT 9999NDV NCD 16/14 Q1016

2010/08/08 04:55
EHKV 080455Z AUTO 35010KT 9999NDV FEW008/// 17/14 Q1015

2010/08/08 04:55
EHMA 080455Z AUTO 33007KT 9999NDV ///////// 17/16 Q1014

2010/08/08 04:55
EHMG 080455Z AUTO 34013KT 9999NDV FEW006/// SCT030/// BKN039/// 17/15 Q1014

2010/08/08 04:55
EHPG 080455Z AUTO 35013KT 330V030 9999NDV FEW004/// SCT006/// 17/15 Q1015

2010/08/08 04:55
EHQE 080455Z AUTO 33011KT 9999NDV BKN000/// BKN007/// OVC009/// 17/15 Q1015

2010/08/08 04:55
EHEH 080455Z AUTO 22001KT 0250NDV FG OVC007 13/13 Q1015 RED

2010/08/08 04:55
EHKD 080455Z AUTO 33003KT 9999NDV FEW015/// SCT022/// BKN044/// 16/15 Q1015 WHT

2010/08/08 04:50
EGDL 080450Z 32006KT 9999 SCT035 12/11 Q1020 NOSIG

2010/08/08 04:50
EGVN 080450Z 29002KT 9999 FEW012 SCT016 BKN032 14/12 Q1020 BECMG FEW016

2010/08/08 04:50
EGXC 080450Z 31006KT CAVOK 12/11 Q1019

2010/08/08 04:50
EEPU 080450Z 17006KT 110V210 8000 NSC 23/21 Q1013

2010/08/08 04:55
OPLA 080455Z 18008KT 5000 FU SCT040 SCT100 33/26 Q1004 NOSIG

2010/08/08 05:00
OPPS 080500Z NW-10KT 0600 RAIN BKN006ST FEW030TCU SCT030 OVC100 25/25 Q1006.3

2010/08/08 05:00
OPRN 080500Z 23004KT 1500 BR FEW025TCU SCT030 BKN100 27/25 Q1006.7

2010/08/08 05:00
OPSK 080500Z 00000KT 4000 HZ FEW040 BKN100 31/27 1001 RH 79

2010/08/08 04:45
KSWF 080445Z 00000KT 20SM SKC 17/13 A3002

2010/08/08 04:55
EBBL 080455Z 26004KT 6000 SCT007 BKN055 15/14 Q1015 GRN

2010/08/08 04:55
EBFN 080455Z 32007KT 9999 FEW011 SCT016 BKN032 17/15 Q1016 WHT

2010/08/08 04:55
EBFS 080455Z 28005KT 6000 SCT006 SCT012 BKN017 13/13 Q1017 YLO

2010/08/08 04:50
EGDX 080450Z AUTO 31003KT 9999NDV // BKN033/// 12/10 Q1021

2010/08/08 04:50
EGEC 080450Z AUTO 30004KT 9999NDV // BKN011/// 12/11 Q1020

2010/08/08 04:50
EGOM 080450Z AUTO 07002KT 8000NDV BR FEW032/// BKN037/// BKN060/// 11/11 Q1019

2010/08/08 04:50
EGOP 080450Z AUTO 36004KT 0150NDV // BKN001/// 11/11 Q1021

2010/08/08 04:50
EGPU 080450Z AUTO 27003KT 0650NDV FG NSC 08/08 Q1020

2010/08/08 04:50
EGVN 080450Z 29002KT 9999 FEW012 SCT016 BKN032 14/12 Q1020 WHT BECMG FEW016 BLU

2010/08/08 04:50
EGXX 080450Z AUTO 33013KT 9999NDV // FEW023/// 14/13 Q1019

2010/08/08 05:00
EPKT 080500Z 20003KT 150V240 CAVOK 15/13 Q1014

2010/08/08 05:00
EPRZ 080500Z 22006KT CAVOK 17/17 Q1015

2010/08/08 05:00
EPWR 080500Z 30008KT 4000 -RADZ BKN004 17/17 Q1015

2010/08/08 05:00
LBBG 080500Z VRB01MPS CAVOK 26/21 Q1011 NOSIG

2010/08/08 05:00
LBGO 080500Z 00000MPS 6000 SCT050 20/20 Q1014 NOSIG

2010/08/08 05:00
LBPD 080500Z VRB01MPS 9999 FEW070 22/19 Q1013 NOSIG

2010/08/08 05:00
LBSF 080500Z 27004MPS 6000 SCT026 BKN040 20/18 Q1016 NOSIG

2010/08/08 05:00
LBWN 080500Z 26003MPS CAVOK 24/21 Q1012 NOSIG

2010/08/08 05:00
LDDU 080500Z 01012KT 330V060 CAVOK 21/11 Q1015 NOSIG

2010/08/08 05:00
LDPL 080500Z 02004KT CAVOK 19/11 Q1017 NOSIG

2010/08/08 05:00
LDSP 080500Z 31009KT 280V350 CAVOK 21/13 Q1016 NOSIG

2010/08/08 05:00
LDZA 080500Z VRB01KT CAVOK 16/14 Q1017 NOSIG

2010/08/08 05:00
LDZD 080500Z 00000KT CAVOK 17/16 Q1016

2010/08/08 05:00
LHBP 080500Z 22006KT 9999 BKN012 OVC020 17/15 Q1017 NOSIG

2010/08/08 05:00
LWSK 080500Z 00000KT 9999 FEW050 20/16 Q1015 NOSIG

2010/08/08 05:00
LZIB 080500Z 28006KT 250V310 9999 FEW009 SCT028 BKN090 17/14 Q1016

2010/08/08 05:00
LZTT 080500Z 25004KT 9999 FEW013 14/12 Q1015 NOSIG

2010/08/08 05:00
KCLM 080500Z AUTO 00000KT 1 3/4SM BR BKN001 OVC007 14/14 A2992

2010/08/08 05:00
SCAR 080500Z 12005KT 9999 OVC021 14/08 Q1017

2010/08/08 05:00
SCDA 080500Z 00000KT 9999 OVC022 13/09 Q1018

2010/08/08 05:00
SCFA 080500Z 13006KT 9999 BKN015 11/08 Q1016

2010/08/08 05:00
SCAT 080500Z 14004KT 060V180 5000 HZ SKC 08/06 Q1019

2010/08/08 05:00
SCSE 080500Z 11006KT CAVOK 07/06 Q1021 NEFO PLAYA SKC

2010/08/08 05:00
SCEL 080500Z 36006KT CAVOK 04/01 Q1026 NOSIG

2010/08/08 05:00
SCTC 080500Z VRB01KT 0400 FG SCT015 03/03 Q1029

2010/08/08 05:00
SCTE 080500Z 00000KT 9999 SCT070 02/02 Q1027 NOSIG

2010/08/08 05:00
SCBA 080500Z AUTO 30015KT 9999 -RA VV/// 03/00 Q1014

2010/08/08 04:45
KSWF 080445Z 00000KT 20SM SKC 17/13 A3002

2010/08/08 05:00
UKBB 080500Z 15002MPS CAVOK 25/17 Q1014 88CLRD95 NOSIG

2010/08/08 05:00
UKHH 080500Z 00000MPS CAVOK 27/14 Q1017 080///65 NOSIG

2010/08/08 05:00
UKOO 080500Z 04002MPS CAVOK 26/24 Q1012 34090070 NOSIG

2010/08/08 05:00
UKDE 080500Z 12004MPS 050V180 CAVOK 29/09 Q1015 20CLRD70 NOSIG

2010/08/08 05:00
UKDD 080500Z 06004MPS CAVOK 26/12 Q1015 08090070 NOSIG

2010/08/08 05:00
UKFF 080500Z 11001MPS CAVOK 28/15 Q1011 01010070 NOSIG

2010/08/08 05:00
UKLL 080500Z 00000MPS CAVOK 19/18 Q1015 13210360 NOSIG

2010/08/08 05:00
UKCC 080500Z 10005MPS CAVOK 32/08 Q1016 08090070 NOSIG

2010/08/08 05:00
UKDR 080500Z 07004MPS CAVOK 26/14 Q1014 1809//70 NOSIG

2010/08/08 05:00
UBBG 080500Z 34005KT 9999 FEW100 28/15 Q1013 NOSIG RMK R30R/CLRD70 

2010/08/08 05:00
KCLM 080500Z AUTO 00000KT 1 3/4SM BR BKN001 OVC007 14/14 A2992

2010/08/08 05:00
WSSL 080500Z 19005KT 160V250 9999 FEW020 BKN300 32/21 Q1009 RMK 0430Z Q1009 

2010/08/08 05:00
LATI 080500Z 16004KT CAVOK 19/19 Q1014 NOSIG

2010/08/08 04:55
TXKF 080455Z 17014KT 9999 FEW014 SCT025 BKN300 27/24 Q1016

2010/08/08 05:00
FMMI 080500Z 15009KT 110V180 9999 FEW010 SCT016 BKN020 13/11 Q1027 NOSIG

2010/08/08 04:45
LHDC 080445Z 17003KT CAVOK 16/15 Q1017 NOSIG

2010/08/08 04:45
LHKE 080445Z 28001MPS 9999 FEW033 16/14 Q1017 NOSIG RMK BLU

2010/08/08 04:45
LHPA 080445Z 20002MPS 9999 SCT040 BKN083 16/15 Q1018 NOSIG RMK BLU

2010/08/08 04:45
LHPP 080445Z 11001KT CAVOK 16/15 Q1019

2010/08/08 04:45
LHPR 080445Z 25004KT 9999 FEW026 BKN083 16/15 Q1017

2010/08/08 04:45
LHSM 080445Z 00000KT 4000 VCFG FEW005 BKN030 17/16 Q1018 NOSIG

2010/08/08 04:45
LHSN 080445Z 23001MPS 9999 FEW020 17/15 Q1017 NOSIG RMK BLU

2010/08/08 04:45
LHUD 080445Z 33003KT CAVOK 16/16 Q1018

2010/08/08 05:00
OMAA 080500Z 13012KT 110V170 6000 NSC 38/13 Q0998 A2948 NOSIG

2010/08/08 05:00
OMAD 080500Z 14007KT 9000 NSC 33/23 Q0998 A2949

2010/08/08 05:00
OMAL 080500Z 14011KT CAVOK 36/13 Q1002 A2959

2010/08/08 05:00
OMDB 080500Z 19006KT 150V220 CAVOK 38/16 Q0999 NOSIG

2010/08/08 05:00
OMDW 080500Z 16019KT 6000 NSC 38/12 Q0999 TEMPO 4000 BLDU

2010/08/08 05:00
OMFJ 080500Z 12007KT 7000 NSC 34/27 Q1000 A2953

2010/08/08 05:00
OMRK 080500Z 33003KT CAVOK 38/29 Q0998 A2949

2010/08/08 05:00
OMSJ 080500Z 18006KT CAVOK 39/15 Q0999

2010/08/08 04:55
EBBL 080455Z 26004KT 6000 SCT007 BKN055 15/14 Q1015 GRN

2010/08/08 04:55
EBFN 080455Z 32007KT 9999 FEW011 SCT016 BKN032 17/15 Q1016 WHT

2010/08/08 04:55
EBFS 080455Z 28005KT 6000 SCT006 SCT012 BKN017 13/13 Q1017 YLO

2010/08/08 04:50
EDLN 080450Z VRB03KT 2500 RA BR SCT004 BKN017 17/17 Q1014 RMK ATIS A

2010/08/08 04:50
EDLP 080450Z 12003KT CAVOK 15/15 Q1014 RMK RWY24 TRL60 PB ATIS F

2010/08/08 04:50
EDNY 080450Z 00000KT CAVOK 13/12 Q1018 RMK ATIS C

2010/08/08 04:50
EDXW 080450Z AUTO 25003KT 9999NDV BR FEW007/// SCT013/// 17/15 Q1014 RMK ATIS INFO B

2010/08/08 04:55
EHKD 080455Z AUTO 33003KT 9999NDV FEW015/// SCT022/// BKN044/// 16/15 Q1015 WHT

2010/08/08 05:00
MHLC 080500Z 16002KT 9999 BKN022CB SCT080 26/24 Q1013 A2991 NOSIG

2010/08/08 04:56
MUGM 080456Z 34004KT 9999 FEW020 28/24 A2998 RMK SLP151 T02830239 403170256

2010/08/08 04:55
MUHA 080455Z 08002KT 9000 SKC 25/23 Q1015

2010/08/08 04:59
NSTU 080459Z 09017KT 10SM SCT018 SCT040 BKN100 27/25 A2992 RMK SLP134 T02690246

2010/08/08 05:00
NTAA 080500Z 28005KT 9999 SCT016 BKN050 26/22 Q1017 WS ALL RWY NOSIG

2010/08/08 05:00
NWWW 080500Z AUTO 15008KT 110V190 9999NDV BKN043/// 22/12 Q1016

2010/08/08 04:58
PAGA 080458Z AUTO 21006KT 10SM FEW024 BKN034 OVC065 14/12 A2965 RMK AO2 RAE27 SLPNO P0001 T01390122

2010/08/08 04:55
PALU 080455Z AUTO 08014KT 7SM 11/11 A2964 RMK AO1 T01060106

2010/08/08 04:56
PASY 080456Z AUTO 27023G29KT 10SM OVC003 10/09 A2904 RMK AO2 PK WND 27031/0414 SLP832 T01000094 TSNO PNO $

2010/08/08 04:55
PATL 080455Z AUTO 22004KT 10SM SCT040 SCT050 12/09 A2970 RMK AO1 T01220095

2010/08/08 05:00
PKWA 080500Z AUTO 08012KT 10SM SCT019 SCT025 30/23 A2979 RMK AO2 T03040227

2010/08/08 04:52
PTYA 080452Z 04007KT 12SM SCT015CB BKN130 OVC300 30/25 A2977 RMK CB VC SW-NW SLP081 T02950249

2010/08/08 05:00
RCKH 080500Z 24010KT 190V270 9999 FEW018 BKN120 32/27 Q1001 NOSIG

2010/08/08 05:00
RCTP 080500Z 02021KT 9999 FEW020 SCT040 BKN150 33/26 Q1002 NOSIG

2010/08/08 05:00
RJOI 080500Z 17004KT 9999 FEW025 SCT230 31/22 A2987 RMK SLP115 FIRST T03110217

2010/08/08 05:00
SOCA 080500Z 16002KT 9999 FEW021 25/23 Q1013 NOSIG

2010/08/08 05:00
SVMI 080500Z 00000KT 9999 FEW016 27/24 Q1013 NOSIG

2010/08/08 05:00
TFFF 080500Z AUTO 04003KT 9999NDV NCD 25/24 Q1013

2010/08/08 05:00
TFFR 080500Z 11004KT 9999 VCSH FEW023 26/23 Q1013 TEMPO 4000 SHRA

2010/08/08 05:00
VHHH 080500Z 12011KT 090V150 9999 FEW025 SCT035 33/24 Q1003 NOSIG

2010/08/08 05:00
WBGR 080500Z 27007KT 9999 SCT014 SCT150 BKN300 31/26 Q1008

2010/08/08 05:00
WBGS 080500Z 21003KT 9999 SCT016 SCT150 BKN300 30/23 Q1008

2010/08/08 05:00
WBGY 080500Z 11004KT 9999 SCT020 BKN150 27/23 Q1008

2010/08/08 05:00
WBKL 080500Z 21006KT 9999 FEW014 BKN290 31/26 Q1008

2010/08/08 05:00
WBKS 080500Z 21007KT 9999 FEW016 SCT140 BKN270 34/22 Q1007

2010/08/08 05:00
WBKT 080500Z 24011G21KT 9999 FEW016 BKN270 32/22 Q1007

2010/08/08 05:00
WBKW 080500Z 18009KT 9999 FEW017 SCT140 BKN280 30/24 Q1008

2010/08/08 05:02
K2W6 080502Z AUTO 00000KT 10SM CLR 20/17 A3001 RMK AO1

2010/08/08 05:00
K2G4 080500Z AUTO 00000KT 10SM BKN060 18/10 A3012 RMK AO1

2010/08/08 05:02
KCBE 080502Z AUTO 36003KT 10SM SCT090 20/16 A3007 RMK AO1

2010/08/08 05:00
KCGE 080500Z AUTO 00000KT 10SM CLR 20/20 A3001 RMK AO1

2010/08/08 05:01
KDMW 080501Z AUTO 00000KT 10SM SCT070 BKN095 23/16 A3003 RMK AO2

2010/08/08 05:05
KCGS 080505Z AUTO 00000KT 10SM BKN090 21/18 A3001 RMK AO1

2010/08/08 05:00
YAMB 080500Z AUTO 11003KT 9999NDV // NCD 22/00 Q1018

2010/08/08 05:00
YBCG 080500Z AUTO 06009KT 9999NDV // NCD 20/10 Q1018

2010/08/08 05:00
YBHM 080500Z AUTO 15013KT //// // ////// 21/14 Q1016

2010/08/08 05:00
YBMA 080500Z 35012KT CAVOK 30/M04 Q1011

2010/08/08 05:00
YBRK 080500Z 05008KT CAVOK 23/09 Q1017

2010/08/08 05:00
YBRM 080500Z 17009KT CAVOK 30/M05 Q1013

2010/08/08 05:00
YCIN 080500Z AUTO 17009KT //// // ////// 30/02 Q1012

2010/08/08 05:05
YFRT 080505Z AUTO 23033KT //// // ////// 13/06 Q1015

2010/08/08 05:00
YMAV 080500Z AUTO 02012KT 9999NDV // NCD 15/06 Q1015

2010/08/08 05:00
YMHB 080500Z 36009KT 9999 FEW040 SCT050 13/02 Q1016

2010/08/08 05:00
YMLT 080500Z AUTO 29001KT 9999NDV // SCT012 SCT030 BKN075 09/07 Q1017

2010/08/08 05:00
YPEA 080500Z AUTO 19007KT 9999NDV // NCD 17/06 Q1026

2010/08/08 05:00
YPGV 080500Z 14009KT 9999 SCT017 SCT035 27/22 Q1009

2010/08/08 05:00
YPKG 080500Z 21014KT CAVOK 15/01 Q1022

2010/08/08 05:00
YPPD 080500Z 02010KT CAVOK 29/02 Q1014

2010/08/08 05:00
YSCB 080500Z 36009KT 9999 FEW040 12/M06 Q1018 NOSIG

2010/08/08 05:00
YSDU 080500Z AUTO 30008KT 9999NDV // ////// 15/04 Q1018

2010/08/08 05:00
YSNF 080500Z 23012KT 9999 FEW027 16/11 Q1016

2010/08/08 05:00
YSRI 080500Z AUTO 06008KT 9999NDV // NCD 17/03 Q1018

2010/08/08 05:00
YWLM 080500Z 12009KT 9999 FEW035 16/08 Q1019

2010/08/08 05:00
YAMB 080500Z AUTO 11003KT 9999NDV // NCD 22/00 Q1018

2010/08/08 05:00
YBCG 080500Z AUTO 06009KT 9999NDV // NCD 20/10 Q1018

2010/08/08 05:00
YBHM 080500Z AUTO 15013KT //// // ////// 21/14 Q1016

2010/08/08 05:00
YBMA 080500Z 35012KT CAVOK 30/M04 Q1011

2010/08/08 05:00
YBRK 080500Z 05008KT CAVOK 23/09 Q1017

2010/08/08 05:00
YBRM 080500Z 17009KT CAVOK 30/M05 Q1013

2010/08/08 05:00
YCIN 080500Z AUTO 17009KT //// // ////// 30/02 Q1012

2010/08/08 05:05
YFRT 080505Z AUTO 23033KT //// // ////// 13/06 Q1015

2010/08/08 05:00
YMAV 080500Z AUTO 02012KT 9999NDV // NCD 15/06 Q1015

2010/08/08 05:00
YMHB 080500Z 36009KT 9999 FEW040 SCT050 13/02 Q1016

2010/08/08 05:00
YMLT 080500Z AUTO 29001KT 9999NDV // SCT012 SCT030 BKN075 09/07 Q1017

2010/08/08 05:00
YPEA 080500Z AUTO 19007KT 9999NDV // NCD 17/06 Q1026

2010/08/08 05:00
YPGV 080500Z 14009KT 9999 SCT017 SCT035 27/22 Q1009

2010/08/08 05:00
YPKG 080500Z 21014KT CAVOK 15/01 Q1022

2010/08/08 05:00
YPPD 080500Z 02010KT CAVOK 29/02 Q1014

2010/08/08 05:00
YSCB 080500Z 36009KT 9999 FEW040 12/M06 Q1018 NOSIG

2010/08/08 05:00
YSDU 080500Z AUTO 30008KT 9999NDV // ////// 15/04 Q1018

2010/08/08 05:00
YSNF 080500Z 23012KT 9999 FEW027 16/11 Q1016

2010/08/08 05:00
YSRI 080500Z AUTO 06008KT 9999NDV // NCD 17/03 Q1018

2010/08/08 05:00
YWLM 080500Z 12009KT 9999 FEW035 16/08 Q1019

2010/08/08 05:06
KESN 080506Z AUTO 00000KT 10SM CLR 21/20 A3004 RMK AO2

2010/08/08 05:02
KFDK 080502Z AUTO 00000KT 10SM CLR 20/16 A3002 RMK AO2

2010/08/08 05:02
KW29 080502Z AUTO 00000KT 10SM CLR 21/20 A3000 RMK AO1

2010/08/08 05:03
KFME 080503Z AUTO 00000KT 7SM BKN090 BKN110 16/16 A3002 RMK AO1

2010/08/08 05:03
KMTN 080503Z AUTO 00000KT 10SM CLR 21/18 A3001 RMK AO2

2010/08/08 04:50
VECC 080450Z 16004KT 5000 HZ FEW018 SCT025 32/27 Q1003 NOSIG

2010/08/08 05:00
FMCZ 080500Z 14013KT 9999 SCT020 BKN060 26/20 Q1017

2010/08/08 04:50
ETUO 080450Z AUTO 00000KT 1900NDV // FEW100/// BKN170/// 16/15 Q1014

2010/08/08 05:03
CYZY 080503Z AUTO 00000KT 9SM -RA OVC061 14/12 A2968 RMK SLP061 DENSITY ALT 2900FT

2010/08/08 05:01
PAIK 080501Z AUTO 12005KT 10SM FEW038 OVC090 16/11 A2959 RMK AO2 SLP060 T01560106

2010/08/08 05:01
PAKF 080501Z AUTO 16021G31KT 10SM -RA FEW021 BKN042 OVC085 12/11 A2973 RMK AO2 PK WND 17031/0455 SLP160 P0002 T01220111

2010/08/08 04:56
PANW 080456Z AUTO 21013KT 10SM SCT009 OVC014 12/09 A2978 RMK AO2 PWINO TSNO T01160094 SLP062 $

2010/08/08 04:45
CWSK 080445Z AUTO 17003KT 16/15 RMK AO1 T01630146

2010/08/08 05:00
KNEL 080500Z AUTO 00000KT 10SM CLR 19/17 A3001 RMK AO2 SLP161 T01940172 401940194 $

2010/08/08 05:00
K2G4 080500Z AUTO 00000KT 10SM BKN060 18/10 A3012 RMK AO1

2010/08/08 05:00
KCGE 080500Z AUTO 00000KT 10SM CLR 20/20 A3001 RMK AO1

2010/08/08 05:02
K2W6 080502Z AUTO 00000KT 10SM CLR 20/17 A3001 RMK AO1

2010/08/08 05:02
KCBE 080502Z AUTO 36003KT 10SM SCT090 20/16 A3007 RMK AO1

2010/08/08 05:01
KDMW 080501Z AUTO 00000KT 10SM SCT070 BKN095 23/16 A3003 RMK AO2

2010/08/08 05:05
KCGS 080505Z AUTO 00000KT 10SM BKN090 21/18 A3001 RMK AO1

2010/08/08 05:06
KESN 080506Z AUTO 00000KT 10SM CLR 21/20 A3004 RMK AO2

2010/08/08 05:03
KFME 080503Z AUTO 00000KT 7SM BKN090 BKN110 16/16 A3002 RMK AO1

2010/08/08 05:02
KFDK 080502Z AUTO 00000KT 10SM CLR 20/16 A3002 RMK AO2

2010/08/08 05:02
KW29 080502Z AUTO 00000KT 10SM CLR 21/20 A3000 RMK AO1

2010/08/08 05:03
KMTN 080503Z AUTO 00000KT 10SM CLR 21/18 A3001 RMK AO2

2010/08/08 05:00
SBKP 080500Z 11008KT CAVOK 11/07 Q1020

2010/08/08 05:00
MNMG 080500Z 00000KT 9999 FEW022 SCT070 26/24 Q1012 A2990 NOSIG

2010/08/08 05:00
UBBL 080500Z 13004KT 9999 NSC 30/21 Q1010 NOSIG RMK G/O SC07

2010/08/08 04:56
PTKR 080456Z 02010KT 15SM FEW017CB BKN120 OVC300 30/24 A2979 RMK CB NW-NE SLP087 T02980240

2010/08/08 04:52
PTYA 080452Z 04007KT 12SM SCT015CB BKN130 OVC300 30/25 A2977 RMK CB VC SW-NW SLP081 T02950249

2010/08/08 05:00
SUMU 080500Z 00000KT 0050 R24/0900 R19/0150 FG BKN001 06/06 Q1021 TEMPO 0300 FG

2010/08/08 05:00
SULS 080500 00000KT 0040 FG NSC 06/06 Q1021

2010/08/08 05:00
HKJK 080500Z 19003KT 9999 SCT017 BKN080 15/14 Q1023 NOSIG

2010/08/08 05:00
FOOL 080500Z 16006KT 130V190 9999 SCT008 OVC033 24/22 Q1014 NOSIG

2010/08/08 05:00
SKBQ 080500Z 00000KT 9999 BKN012 26/25 A2990

2010/08/08 05:00
PAKT 080500Z 00000KT 10SM FEW022 BKN036 OVC070 14/12 A2990

2010/08/08 05:03
CYZY 080503Z AUTO 00000KT 9SM -RA OVC061 14/12 A2968 RMK SLP061 DENSITY ALT 2900FT

2010/08/08 04:55
KNYL 080455Z 16009KT 10SM CLR 32/12 A2970 RMK AO2 SLP053 T03170122

2010/08/08 05:00
SKBO 080500Z VRB02KT 9999 SCT020 SCT080 13/10 A3037 NOSIG

2010/08/08 05:00
SKBQ 080500Z 00000KT 9999 BKN012 26/25 A2990

2010/08/08 05:00
SKCL 080500Z 04004KT 9999 FEW020 BKN090 21/18 A3005

2010/08/08 05:00
SKRG 080500Z 00000KT 9999 FEW010 BKN080 16/15 A3031

2010/08/08 05:00
SKSP 080500Z 05006KT 9999 FEW015 BKN200 29/26 A2989

2010/08/08 05:00
SKPE 080500Z VRB02KT 9999 SCT015 SCT070 19/18 A3015

2010/08/08 05:02
K47A 080502Z AUTO 00000KT 7SM CLR 25/21 A3001 RMK AO2 LTG DSNT SW

2010/08/08 05:01
KFYJ 080501Z AUTO 00000KT 7SM CLR 21/21 A3001 RMK AO1

2010/08/08 05:01
KHLX 080501Z AUTO 00000KT 10SM CLR 20/19 A3012 RMK AO2

2010/08/08 05:01
KMFV 080501Z AUTO 00000KT 2 1/2SM BR 23/22 A3001 RMK AO2

2010/08/08 05:01
KPTB 080501Z AUTO 00000KT 7SM CLR 20/ A3000 RMK AO2

2010/08/08 05:02
K2W6 080502Z AUTO 00000KT 10SM CLR 20/17 A3001 RMK AO1

2010/08/08 05:05
KCGS 080505Z AUTO 00000KT 10SM BKN090 21/18 A3001 RMK AO1

2010/08/08 05:02
KFDK 080502Z AUTO 00000KT 10SM CLR 20/16 A3002 RMK AO2

2010/08/08 05:02
KW29 080502Z AUTO 00000KT 10SM CLR 21/20 A3000 RMK AO1

2010/08/08 05:03
KMTN 080503Z AUTO 00000KT 10SM CLR 21/18 A3001 RMK AO2

2010/08/08 05:01
PAIK 080501Z AUTO 12005KT 10SM FEW038 OVC090 16/11 A2959 RMK AO2 SLP060 T01560106

2010/08/08 05:02
KCBE 080502Z AUTO 36003KT 10SM SCT090 20/16 A3007 RMK AO1

2010/08/08 05:06
KESN 080506Z AUTO 00000KT 10SM CLR 21/20 A3004 RMK AO2

2010/08/08 04:56
PHNY 080456Z AUTO 03013KT 10SM CLR 23/19 A3010 RMK AO2 TSNO T02270194 SLP174 $

2010/08/08 04:59
KJNX 080459Z AUTO 00000KT 10SM SCT100 23/23 A2997 RMK AO2

2010/08/08 05:01
KPLN 080501Z AUTO 13005KT 8SM -RA FEW009 BKN036 OVC090 18/18 A2978 RMK AO2 P0000

2010/08/08 05:00
PAKT 080500Z 00000KT 10SM FEW022 BKN036 OVC070 14/12 A2990 RMK AO2

2010/08/08 05:00
KNEL 080500Z AUTO 00000KT 10SM CLR 19/17 A3001 RMK AO2 SLP161 T01940172 401940194 $

2010/08/08 04:55
KDLF 080455Z AUTO 12010KT 10SM CLR 31/18 A2987 RMK AO2 SLP098 T03130184

2010/08/08 04:56
KFHU 080456Z AUTO 25008KT 10SM CLR 18/17 A3013 RMK AO2 VIS M1/4 WEST RAE15 SLP142 P0000 T01830172 TSNO $

2010/08/08 04:55
KHRT 080455Z AUTO 04003KT 10SM FEW120 SCT160 26/25 A2991 RMK AO2 SLP129 T02580251 $

2010/08/08 04:55
KLUF 080455Z AUTO 36007KT 7SM CLR 29/19 A2981 RMK AO2 SLP072 T02890186 $

2010/08/08 04:56
KNLC 080456Z AUTO 32010KT 10SM CLR 25/11 A2975 RMK AO2 SLP074 T02500111 TSNO $

2010/08/08 04:56
KNTD 080456Z 28004KT 8SM OVC009 15/13 A2988 RMK AO2 SLP120 T01500133 $

2010/08/08 04:55
KTBN 080455Z AUTO 14005KT 10SM CLR 23/ A2995 RMK AO2 SLP121 T0231 $

2010/08/08 04:56
PASY 080456Z AUTO 27023G29KT 10SM OVC003 10/09 A2904 RMK AO2 PK WND 27031/0414 SLP832 T01000094 TSNO PNO $

2010/08/08 04:56
KHLR 080456Z AUTO 15008KT 10SM CLR 31/22 A2991 RMK AO2 SLP116 T03060217 403830283 $

2010/08/08 04:56
PHBK 080456Z AUTO 29004KT 10SM BKN043 29/20 A3003 RMK AO2 SLP172 T02890200 TSNO $

2010/08/08 04:58
PAGA 080458Z AUTO 21006KT 10SM FEW024 BKN034 OVC065 14/12 A2965 RMK AO2 RAE27 SLPNO P0001 T01390122

2010/08/08 04:59
KIWA 080459Z AUTO 32014KT 10SM CLR 33/17 A2985 RMK AO2

2010/08/08 05:00
KAVC 080500Z AUTO 00000KT 7SM BKN049 BKN090 22/20 A3006 RMK AO2

2010/08/08 05:00
KBCB 080500Z AUTO 12003KT 10SM CLR 22/19 A3011 RMK AO2 PWINO

2010/08/08 05:00
KCPK 080500Z AUTO 00000KT 3/4SM +RA OVC002 21/20 A3000 RMK AO2

2010/08/08 04:59
KEDE 080459Z AUTO 00000KT 5SM BR SCT016 SCT090 24/23 A2996 RMK AO2

2010/08/08 04:59
KEXX 080459Z AUTO 00000KT 5SM BR CLR 21/21 A3000 RMK AO2

2010/08/08 05:00
KFQD 080500Z AUTO 00000KT 7SM SCT070 BKN085 22/21 A3002 RMK AO2

2010/08/08 05:00
KGEV 080500Z AUTO 00000KT 7SM CLR 18/16 A3013 RMK AO2

2010/08/08 04:59
KHDC 080459Z AUTO 24003KT 10SM CLR 30/28 A2994 RMK AO2

2010/08/08 04:59
KHRJ 080459Z AUTO 00000KT 7SM SCT100 25/23 A2997 RMK AO2

2010/08/08 05:00
KMQI 080500Z AUTO 08005KT 7SM CLR 26/26 A2998 RMK AO2

2010/08/08 05:00
KONX 080500Z AUTO 00000KT 7SM BKN009 BKN015 26/24 A2999 RMK AO2

2010/08/08 05:00
KPGV 080500Z AUTO 00000KT 7SM OVC100 24/23 A2999 RMK AO2

2010/08/08 05:00
KRUQ 080500Z AUTO 00000KT 5SM BR CLR 21/20 A3001 RMK AO2

2010/08/08 04:55
KSPF 080455Z AUTO 29005G18KT 10SM SCT090 BKN120 18/14 A2993 RMK AO2

2010/08/08 05:00
KUKF 080500Z AUTO 00000KT 5SM CLR 20/19 A3006 RMK AO1

2010/08/08 04:55
KVVG 080455Z AUTO 00000KT 27/25 A2995 RMK AO2

2010/08/08 05:00
K2G4 080500Z AUTO 00000KT 10SM BKN060 18/10 A3012 RMK AO1

2010/08/08 04:56
PANW 080456Z AUTO 21013KT 10SM SCT009 OVC014 12/09 A2978 RMK AO2 PWINO TSNO T01160094 SLP062 $

2010/08/08 04:50
LTAH 080450Z 31006KT CAVOK 22/16 Q1015 RMK RWY13 33005KT 300V360

2010/08/08 04:55
EBBL 080455Z 26004KT 6000 SCT007 BKN055 15/14 Q1015 GRN

2010/08/08 04:55
EBFN 080455Z 32007KT 9999 FEW011 SCT016 BKN032 17/15 Q1016 WHT

2010/08/08 04:55
EBFS 080455Z 28005KT 6000 SCT006 SCT012 BKN017 13/13 Q1017 YLO

2010/08/08 05:02
KAST 080502Z AUTO 00000KT 3SM -RA BR OVC005 15/14 A2995 RMK AO2 VIS 2 RWY 08 P0001 

2010/08/08 05:00
MNMG 080500Z 00000KT 9999 FEW022 SCT070 26/24 Q1012 A2990 NOSIG

2010/08/08 04:50
LCRA 080450Z 28003KT 9999 FEW020 26/21 Q1008 NOSIG

2010/08/08 04:50
EGPU 080450Z AUTO 27003KT 0650NDV FG NSC 08/08 Q1020

2010/08/08 04:45
LHDC 080445Z 17003KT CAVOK 16/15 Q1017 NOSIG

2010/08/08 04:45
LHKE 080445Z 28001MPS 9999 FEW033 16/14 Q1017 NOSIG RMK BLU

2010/08/08 04:45
LHPP 080445Z 11001KT CAVOK 16/15 Q1019

2010/08/08 04:45
LHSN 080445Z 23001MPS 9999 FEW020 17/15 Q1017 NOSIG RMK BLU

2010/08/08 04:45
LHUD 080445Z 33003KT CAVOK 16/16 Q1018

2010/08/08 04:45
MMQT 080445Z RTD 09004KT 7SM -RA BKN020 OVC120 17/17 A3027 RMK 60195 8/47/

2010/08/08 05:00
LEAS 080500Z 09006KT 060V120 9999 SCT017 BKN030 19/16 Q1020 NOSIG

2010/08/08 05:00
LEBB 080500Z 10004KT 7000 SCT018 BKN035 18/16 Q1021 NOSIG

2010/08/08 05:00
LEGE 080500Z 00000KT 7000 NSC 20/19 Q1018

2010/08/08 05:00
LEST 080500Z VRB02KT CAVOK 14/13 Q1018 NOSIG

2010/08/08 05:00
LEZG 080500Z 28012KT 9999 FEW050 20/14 Q1019

2010/08/08 05:00
LESO 080500Z 00000KT 9999 SCT020 BKN040 19/16 Q1021

2010/08/08 05:00
LEVT 080500Z 15001KT 9999 BKN017 15/14 Q1022

2010/08/08 05:00
LERS 080500Z 04003KT 350V080 9999 FEW035 20/17 Q1018

2010/08/08 05:00
LEMH 080500Z 33004KT 9999 FEW025 20/18 Q1019

2010/08/08 05:00
LEAM 080500Z 30003KT 270V350 9999 FEW090 27/08 Q1016

2010/08/08 05:00
LEGR 080500Z 13004KT 100V170 9999 FEW100 23/16 Q1019

2010/08/08 05:00
SBKP 080500Z 11008KT CAVOK 11/07 Q1020

2010/08/08 05:00
LEMD 080500Z VRB02KT CAVOK 23/13 Q1019 NOSIG

2010/08/08 05:00
LEBL 080500Z 32004KT 300V360 CAVOK 21/18 Q1018 NOSIG

2010/08/08 05:00
LEPA 080500Z VRB01KT CAVOK 17/16 Q1019 NOSIG

2010/08/08 05:00
LEZL 080500Z 15002KT CAVOK 26/14 Q1015 NOSIG

2010/08/08 05:00
LEMG 080500Z VRB01KT 9999 FEW020 25/20 Q1017 NOSIG

2010/08/08 05:00
LEVC 080500Z VRB02KT CAVOK 21/17 Q1018 NOSIG

2010/08/08 05:00
LEAL 080500Z VRB01KT CAVOK 22/14 Q1018 NOSIG

2010/08/08 05:00
LEIB 080500Z 00000KT CAVOK 20/18 Q1018 NOSIG

2010/08/08 05:00
LEVX 080500Z 20008KT CAVOK 17/14 Q1015

2010/08/08 05:00
LEAB 080500Z 14009KT CAVOK 19/10 Q1021 NOSIG

2010/08/08 05:00
LEBZ 080500Z 30001KT CAVOK 26/14 Q1015

2010/08/08 05:00
LELN 080500Z 35005KT CAVOK 14/07 Q1021

2010/08/08 05:00
LETO 080500Z 02004KT CAVOK 22/11 Q1019 NOSIG

2010/08/08 05:00
LEVD 080500Z 06005KT CAVOK 14/11 Q1020

2010/08/08 05:00
LEVS 080500Z 07005KT 020V140 CAVOK 24/14 Q1019

2010/08/08 05:00
GCLP 080500Z 01018KT 9999 FEW020 21/15 Q1011 NOSIG

2010/08/08 05:00
GCXO 080500Z 30016KT 9999 BKN010 16/14 Q1016 NOSIG

2010/08/08 05:00
GCTS 080500Z 02003KT 9999 FEW020 20/16 Q1014 NOSIG

2010/08/08 05:00
GCRR 080500Z 34017KT 9999 FEW015 22/18 Q1012

2010/08/08 05:00
GCFV 080500Z 01013KT 9999 FEW025 22/17 Q1012

2010/08/08 05:01
KPLN 080501Z AUTO 13005KT 8SM -RA FEW009 BKN036 OVC090 18/18 A2978

2010/08/08 05:00
BIAR 080500Z 24001KT CAVOK 08/06 Q1014

2010/08/08 05:00
BIEG 080500Z 00000KT 9999 VCSH SCT026 BKN037 09/07 Q1016

2010/08/08 05:00
BIKF 080500Z 36001KT 9999 FEW030 SCT070 BKN090 11/09 Q1013

2010/08/08 05:00
BIRK 080500Z VRB02KT 9999 SCT032 BKN063 12/08 Q1012

2010/08/08 05:00
LEBA 080500Z VRB01KT CAVOK 26/14 Q1016

2010/08/08 05:00
LEDA 080500Z 08010KT 9999 FEW035 21/16 Q1018

2010/08/08 05:00
LEJR 080500Z VRB02KT CAVOK 25/13 Q1015

2010/08/08 05:00
LELL 080500Z VRB02KT CAVOK 19/16 Q1018

2010/08/08 05:00
LEPP 080500Z VRB02KT 9999 FEW015 14/13 Q1021

2010/08/08 05:00
LEXJ 080500Z 11005KT 9999 FEW020 OVC026 19/17 Q1021

2010/08/08 05:00
LCLK 080500Z VRB01KT 9999 FEW025 29/23 Q1008 NOSIG

2010/08/08 05:00
LCPH 080500Z 33006KT 300V360 9999 FEW020 28/23 Q1008

2010/08/08 05:00
PAKT 080500Z 00000KT 10SM FEW022 BKN036 OVC070 14/12 A2990

2010/08/08 05:00
FLLS 080500Z 11004KT CAVOK 10/10 Q1024

2010/08/08 05:00
EPGD 080500Z 21003KT 170V260 9999 BKN017 19/17 Q1010

2010/08/08 05:00
EPKK 080500Z 23005KT 9999 SCT030 BKN060 16/14 Q1015

2010/08/08 05:00
EPPO 080500Z 28007KT 9000 -DZ SCT004 BKN008 16/16 Q1013

2010/08/08 05:00
EPWA 080500Z 27004KT 250V320 CAVOK 17/16 Q1012 NOSIG

2010/08/08 04:50
ETUO 080450Z AUTO 00000KT 1900NDV // FEW100/// BKN170/// 16/15 Q1014

2010/08/08 05:00
LATI 080500Z 16004KT CAVOK 19/19 Q1014 NOSIG

2010/08/08 05:00
LEJR 080500Z VRB02KT CAVOK 25/13 Q1015

2010/08/08 04:45
LHDC 080445Z 17003KT CAVOK 16/15 Q1017 NOSIG

2010/08/08 04:45
LHKE 080445Z 28001MPS 9999 FEW033 16/14 Q1017 NOSIG RMK BLU

2010/08/08 04:45
LHPA 080445Z 20002MPS 9999 SCT040 BKN083 16/15 Q1018 NOSIG RMK BLU

2010/08/08 04:45
LHPP 080445Z 11001KT CAVOK 16/15 Q1019

2010/08/08 04:45
LHSN 080445Z 23001MPS 9999 FEW020 17/15 Q1017 NOSIG RMK BLU

2010/08/08 04:45
LHUD 080445Z 33003KT CAVOK 16/16 Q1018

2010/08/08 05:00
LKCV 080500Z 00000KT 9999 -RA SCT037 BKN070 OVC100 16/15 Q1016 NOSIG RMK BLU BLU

2010/08/08 05:00
LKKV 080500Z VRB01KT CAVOK 13/10 Q1017

2010/08/08 05:00
LKMT 080500Z 26005KT 220V280 9999 FEW031 BKN047 16/15 Q1015 NOSIG

2010/08/08 05:00
LKNA 080500Z 29009KT 9999 BKN034 BKN100 14/14 Q1016 NOSIG RMK BLU BLU

2010/08/08 05:00
LKPD 080500Z 28005KT 9999 SCT007 BKN050 OVC090 15/15 Q1016 NOSIG RMK BLU BLU

2010/08/08 05:00
LKPO 080500Z 16004KT 6000 OVC008 15/15 Q1015 NOSIG RMK GRN GRN

2010/08/08 05:00
LKPR 080500Z 21006KT 170V230 CAVOK 15/14 Q1016 NOSIG

2010/08/08 05:00
LKTB 080500Z 29006KT 9999 FEW005 BKN023 16/15 Q1015 NOSIG

2010/08/08 05:00
LYBE 080500Z 29003KT CAVOK 18/17 Q1018 NOSIG

2010/08/08 05:00
LYNI 080500Z 33009KT 300V360 9999 SCT013 BKN033 20/17 Q1017 NOSIG

2010/08/08 05:00
LYPG 080500Z 04003KT CAVOK 20/15 Q1015 NOSIG

2010/08/08 05:00
LYTV 080500Z VRB02KT CAVOK 15/14 Q1015 NOSIG

2010/08/08 05:00
LUKK 080500Z VRB02KT 170V240 6000 SCT050CB 24/22 Q1013 08150060 NOSIG

2010/08/08 05:00
UBBB 080500Z 30008KT CAVOK 31/23 Q1010 NOSIG RMK R88CLRD70

2010/08/08 05:00
UHHH 080500Z METAR 00000MPS 9999 FEW033CB SCT100 BKN200 26/14 Q1011 NOSIG

2010/08/08 05:00
UKBB 080500Z 15002MPS CAVOK 25/17 Q1014 88CLRD95 NOSIG

2010/08/08 05:00
UKFF 080500Z 11001MPS CAVOK 28/15 Q1011 01010070 NOSIG

2010/08/08 05:00
UKLL 080500Z 00000MPS CAVOK 19/18 Q1015 13210360 NOSIG

2010/08/08 05:00
UKOO 080500Z 04002MPS CAVOK 26/24 Q1012 34090070 NOSIG

2010/08/08 05:00
UTTT 080500Z 33005MPS CAVOK 33/12 Q1007 R08R/CLRD70 NOSIG

2010/08/08 04:56
KNXF 080456Z AUTO 00000KT 10SM OVC015 17/12 A2992 RMK AO2 SLP215 T01670122 TSNO 

2010/08/08 05:00
FMNA 080500Z 160//KT 9999 FEW013 24/14 Q1017

2010/08/08 05:00
FMSD 080500Z 08012KT 5000 -RA SCT017 BKN033 19/19 Q1026

2010/08/08 05:00
FMMT 080500Z 24006KT 9999 VCSH FEW017 SCT033 20/18 Q1023

2010/08/08 05:00
FMMI 080500Z 15009KT 110V180 9999 FEW010 SCT016 BKN020 13/11 Q1027 NOSIG

2010/08/08 04:50
EGXD 080450Z AUTO 27003KT 9999NDV // BKN070/// 11/11 Q1020

2010/08/08 05:00
FMNM 080500Z 22004KT 9999 FEW040 SCT100 24/14 Q1019

2010/08/08 05:00
FMNA 080500Z 160//KT 9999 FEW013 24/14 Q1017

2010/08/08 05:00
FMSD 080500Z 08012KT 5000 -RA SCT017 BKN033 19/19 Q1026

2010/08/08 05:00
FMMT 080500Z 24006KT 9999 VCSH FEW017 SCT033 20/18 Q1023

2010/08/08 05:00
FMMI 080500Z 15009KT 110V180 9999 FEW010 SCT016 BKN020 13/11 Q1027 NOSIG

2010/08/08 04:52
CYPR 080452Z AUTO 14002KT 9SM FEW023 BKN027 OVC039 12/11 A2994 RMK SLP139 TS/LTNG TEMPO UNAVBL

2010/08/08 05:00
LEAB 080500Z 14009KT CAVOK 19/10 Q1021 NOSIG

2010/08/08 05:00
LEAL 080500Z VRB01KT CAVOK 22/14 Q1018 NOSIG

2010/08/08 05:00
LEAM 080500Z 30003KT 270V350 9999 FEW090 27/08 Q1016

2010/08/08 05:00
LEAS 080500Z 09006KT 060V120 9999 SCT017 BKN030 19/16 Q1020 NOSIG

2010/08/08 05:00
LEBB 080500Z 10004KT 7000 SCT018 BKN035 18/16 Q1021 NOSIG

2010/08/08 05:00
LEBZ 080500Z 30001KT CAVOK 26/14 Q1015

2010/08/08 05:00
LEGE 080500Z 00000KT 7000 NSC 20/19 Q1018

2010/08/08 05:00
LEGR 080500Z 13004KT 100V170 9999 FEW100 23/16 Q1019

2010/08/08 05:00
LEMH 080500Z 33004KT 9999 FEW025 20/18 Q1019

2010/08/08 05:00
LERS 080500Z 04003KT 350V080 9999 FEW035 20/17 Q1018

2010/08/08 05:00
LESO 080500Z 00000KT 9999 SCT020 BKN040 19/16 Q1021

2010/08/08 05:00
LEST 080500Z VRB02KT CAVOK 14/13 Q1018 NOSIG

2010/08/08 05:00
LETO 080500Z 02004KT CAVOK 22/11 Q1019 NOSIG

2010/08/08 05:00
LEVD 080500Z 06005KT CAVOK 14/11 Q1020

2010/08/08 05:00
LEVS 080500Z 07005KT 020V140 CAVOK 24/14 Q1019

2010/08/08 05:00
LEVT 080500Z 15001KT 9999 BKN017 15/14 Q1022

2010/08/08 05:00
LEZG 080500Z 28012KT 9999 FEW050 20/14 Q1019

2010/08/08 05:00
LFBC 080500Z AUTO 00000KT 9999NDV NSC 14/13 Q1021

2010/08/08 05:00
LFBF 080500Z AUTO 24006KT 210V270 9999NDV // NSC 17/14 Q1020

2010/08/08 05:00
LFBG 080500Z AUTO 25003KT 9999NDV NSC 14/13 Q1020

2010/08/08 05:00
LFBM 080500Z AUTO 32002KT 8000NDV VV/// 15/14 Q1021

2010/08/08 05:00
LFKS 080500Z AUTO 27006KT 9999NDV NSC 19/10 Q1018

2010/08/08 05:00
LFMI 080500Z AUTO 05003KT 9999NDV NSC 16/13 Q1017

2010/08/08 05:00
LFMO 080500Z AUTO 00000KT 9999NDV NSC 14/08 Q1017

2010/08/08 05:00
LFMY 080500Z AUTO 06004KT 9999NDV NSC 14/11 Q1017

2010/08/08 05:00
LFSD 080500Z AUTO 00000KT 9999NDV NSC 15/14 Q1018

2010/08/08 05:00
LFSI 080500Z AUTO VRB02KT 9999NDV SCT047 BKN054 15/14 Q1018

2010/08/08 05:00
LFSO 080500Z AUTO 32003KT 9999NDV BKN009 BKN015 OVC037 16/15 Q1017

2010/08/08 05:00
LFSX 080500Z AUTO 07002KT 9999NDV NSC 14/13 Q1018

2010/08/08 05:00
BIEG 080500Z 00000KT 9999 VCSH SCT026 BKN037 09/07 Q1016

2010/08/08 05:00
BIKF 080500Z 36001KT 9999 FEW030 SCT070 BKN090 11/09 Q1013

2010/08/08 05:00
BIRK 080500Z VRB02KT 9999 SCT032 BKN063 12/08 Q1012

2010/08/08 04:55
KHUA 080455Z AUTO RMK AO2 SLPNO PWINO PNO TSNO $

2010/08/08 05:00
KNEL 080500Z AUTO 00000KT 10SM CLR 19/17 A3001 RMK AO2 SLP161 T01940172 401940194 $

2010/08/08 04:59
KNGU 080459Z 07003KT 9SM SCT007 25/23 A3000 RMK AO2 SLP160 T02500233 403000239 $

2010/08/08 04:55
KNYL 080455Z 16009KT 10SM CLR 32/12 A2970 RMK AO2 SLP053 T03170122

2010/08/08 04:55
KVAD 080455Z 00000KT 10SM CLR 25/25 A2994 RMK AO2A SLP137 T02500245 $

2010/08/08 05:00
LKKV 080500Z VRB01KT CAVOK 13/10 Q1017

2010/08/08 05:00
MNMG 080500Z 00000KT 9999 FEW022 SCT070 26/24 Q1012 A2990 NOSIG

2010/08/08 05:00
NTAA 080500Z 28005KT 9999 SCT016 BKN050 26/22 Q1017 WS ALL RWY NOSIG

2010/08/08 05:00
OEDR 080500Z 28004KT 8000 SKC 37/18 Q0997 NOSIG

2010/08/08 05:00
OEMA 080500Z 00000KT CAVOK 36/02 Q1007 NOSIG

2010/08/08 05:00
OERK 080500Z 32004KT CAVOK 34/05 Q1006 NOSIG

2010/08/08 05:00
ORSU 080500Z 06011KT CAVOK 36/07 Q1011

2010/08/08 05:00
RJAW 080500Z 10008KT 070V140 9999 SCT015 BKN080 BKN230 28/25 Q1012 RMK 3CU015 5AC080 A2990

2010/08/08 05:00
RJSM 080500Z 11008KT 9999 FEW015 SCT045 BKN250 27/23 Q1013 RERA RMK 1CU015 4SC045 A2992 FCST 0511 TEMPO 0511 -SHRA FEW015CU BKN025CU FEW025TCU/ TS AFT 05Z

2010/08/08 05:00
SCON 080500Z AUTO 01003KT 330V040 9999 ///030 07/05 Q1024

2010/08/08 05:00
SCSE 080500Z 11006KT CAVOK 07/06 Q1021 NEFO PLAYA SKC

2010/08/08 05:00
TAPA 080500Z 08010KT 9999 FEW018 28/23 Q1014

2010/08/08 05:00
WSAP 080500Z 18006KT 9999 FEW018 FEW020TCU BKN300 32/24 Q1009

2010/08/08 05:00
WSSS 080500Z 20007KT 150V250 9999 FEW020TCU SCT022 BKN300 31/25 Q1010 NOSIG

2010/08/08 04:55
KCLS 080455Z AUTO 00000KT 10SM OVC050 17/15 A2995 RMK AO2

2010/08/08 05:15
KFDW 080515Z AUTO 05004KT 10SM CLR 26/21 A2997 RMK AO1

2010/08/08 05:02
KBML 080502Z AUTO 00000KT 1SM BR BKN001 06/05 A3003 RMK AO2

2010/08/08 05:02
KDLH 080502Z 08003KT 5SM -TSRA BR SCT004 BKN019 OVC044CB 17/16 A2973 RMK AO2 FRQ LTGICCC NE-SE TS NE-SE MOV E P0000 PNO $

2010/08/08 05:02
KDTS 080502Z AUTO 00000KT 10SM VCTS CLR 28/23 A2990 RMK AO2 LTG DSNT S AND SW TSB0456

2010/08/08 05:00
DIAP 080500Z 24004KT 8000 FEW006 BKN012 25/24 Q1014 BECMG SCT012 BKN070

2010/08/08 05:00
UTTT 080500Z 33005MPS CAVOK 33/12 Q1007 R08R/CLRD70 NOSIG

2010/08/08 05:00
SARF 080500Z 18005KT CAVOK 12/10 Q1016

2010/08/08 05:00
SBAR 080500Z 00000KT CAVOK 20/19 Q1018

2010/08/08 05:00
LBSF 080500Z 27004MPS 6000 SCT026 BKN040 20/18 Q1016 NOSIG

2010/08/08 05:00
LBWN 080500Z 26003MPS CAVOK 24/21 Q1012 NOSIG

2010/08/08 05:00
LBBG 080500Z VRB01MPS CAVOK 26/21 Q1011 NOSIG

2010/08/08 05:00
LBPD 080500Z VRB01MPS 9999 FEW070 22/19 Q1013 NOSIG

2010/08/08 05:00
LBGO 080500Z 00000MPS 6000 SCT050 20/20 Q1014 NOSIG

2010/08/08 05:00
SVMI 080500Z 00000KT 9999 FEW016 27/24 Q1013 NOSIG

2010/08/08 05:00
SAZM 080500Z 00000KT 7000 NSC 02/01 Q1022

2010/08/08 05:00
FBSK 080500Z 16006KT CAVOK 06/04 Q1026 NOSIG

2010/08/08 05:00
FBFT 080500Z VRB01KT CAVOK 06/03 Q1026

2010/08/08 05:00
FBKE 080500Z /////KT CAVOK 13/06 Q1023

2010/08/08 05:00
FBMN 080500Z 11005KT CAVOK 12/03 Q1024

2010/08/08 05:00
FABL 080500Z VRB01KT CAVOK 01/M01 Q1025 NOSIG

2010/08/08 05:00
FACT 080500Z 34019KT 4000 RA SCT004 BKN009 OVC021 12/11 Q1015 NOSIG

2010/08/08 05:00
FAEL 080500Z 35013KT CAVOK 24/M02 Q1010

2010/08/08 05:00
FAGG 080500Z 32007KT 9999 FEW027 12/08 Q1012

2010/08/08 05:00
FAJS 080500Z 32007KT 8000 NSC 09/02 Q1028 NOSIG

2010/08/08 05:00
FAKN 080500Z 27002KT CAVOK 10/08 Q1025 NOSIG

2010/08/08 05:00
FALA 080500Z 00000KT 4000 BR NSC 06/03 Q1027 BECMG 7000

2010/08/08 05:00
FALE 080500Z 02008KT CAVOK 15/12 Q1018 NOSIG

2010/08/08 05:00
FAMM 080500Z 04004KT CAVOK 09/00 Q1025 NOSIG

2010/08/08 05:00
FAPN 080500Z AUTO 19002KT //// // ////// 05/01 Q1026

2010/08/08 05:00
FAPP 080500Z 18001KT 8000 NSC 05/03 Q1026 NOSIG

2010/08/08 05:00
FAUP 080500Z 02008KT CAVOK 12/M01 Q1020 NOSIG

2010/08/08 05:00
WBKK 080500Z 26010KT 9999 FEW015 SCT140 BKN280 31/26 Q1008 NOSIG

2010/08/08 05:00
WMKJ 080500Z 23006KT 9999 SCT018TCU BKN300 31/23 Q1009

2010/08/08 05:00
WMKK 080500Z 17005KT 150V250 9999 FEW017CB SCT140 BKN270 29/26 Q1009 NOSIG

2010/08/08 05:00
WMKP 080500Z 17001KT 9999 FEW020 SCT140 BKN270 30/26 Q1009 NOSIG

2010/08/08 05:00
WMSA 080500Z 19002KT 9999 SCT018 BKN280 33/25 Q1009

2010/08/08 05:00
LHBP 080500Z 22006KT 9999 BKN012 OVC020 17/15 Q1017 NOSIG

2010/08/08 05:00
LUKK 080500Z VRB02KT 170V240 6000 SCT050CB 24/22 Q1013 08150060 NOSIG

2010/08/08 05:00
SAAR 080500Z 18005KT CAVOK 05/03 Q1021

2010/08/08 05:00
SACO 080500Z 23003KT CAVOK 03/M01 Q1023

2010/08/08 05:00
SAEZ 080500Z 14002KT 0100 R11/0150N RMID/0150N R29/0150N FG SCT007 02/02 Q1022

2010/08/08 05:00
SAME 080500Z 00000KT CAVOK 06/M02 Q1022

2010/08/08 05:00
SARF 080500Z 18005KT CAVOK 12/10 Q1016

2010/08/08 05:00
SARI 080500Z 05006KT CAVOK 15/14 Q1018

2010/08/08 05:00
SASA 080500Z 09004KT CAVOK 02/M01 Q1019

2010/08/08 05:00
SAVC 080500Z 32006KT CAVOK 08/M02 Q1015

2010/08/08 05:00
SAWG 080500Z 32022G32KT CAVOK 06/M05 Q0997

2010/08/08 05:00
SAZM 080500Z 00000KT 7000 NSC 02/01 Q1022

2010/08/08 05:00
SAZN 080500Z 23002KT CAVOK M01/M04 Q1024

2010/08/08 04:50
EGHQ 080450Z 02004KT 9999 FEW025 13/11 Q1022

2010/08/08 05:00
RPLC 080500Z 18005KT 7000 - RA SCT025 OVC080 25/24 Q1006 A2972 LGT RA CONTUS 

2010/08/08 05:00
RKTN 080500Z 01003KT 9999 SCT030 32/20 Q1009 NOSIG

2010/08/08 04:50
EGPI 080450Z AUTO 36003KT 9999NDV // BKN011/// 10/10 Q1020

2010/08/08 05:00
SBMO 080500Z 27002KT 9999 SCT016 SCT100 19/18 Q1018 

2010/08/08 05:00
FBSK 080500Z 16006KT CAVOK 06/04 Q1026 NOSIG

2010/08/08 05:00
FBFT 080500Z VRB01KT CAVOK 06/03 Q1026

2010/08/08 05:00
FBKE 080500Z /////KT CAVOK 13/06 Q1023

2010/08/08 05:00
FBMN 080500Z 11005KT CAVOK 12/03 Q1024

2010/08/08 04:50
ETUO 080450Z AUTO 00000KT 1900NDV // FEW100/// BKN170/// 16/15 Q1014

2010/08/08 05:00
LFBC 080500Z AUTO 00000KT 9999NDV NSC 14/13 Q1021

2010/08/08 05:00
LFBF 080500Z AUTO 24006KT 210V270 9999NDV // NSC 17/14 Q1020

2010/08/08 05:00
LFBG 080500Z AUTO 25003KT 9999NDV NSC 14/13 Q1020

2010/08/08 05:00
LFBM 080500Z AUTO 32002KT 8000NDV VV/// 15/14 Q1021

2010/08/08 05:00
LFKS 080500Z AUTO 27006KT 9999NDV NSC 19/10 Q1018

2010/08/08 05:00
LFMI 080500Z AUTO 05003KT 9999NDV NSC 16/13 Q1017

2010/08/08 05:00
LFMO 080500Z AUTO 00000KT 9999NDV NSC 14/08 Q1017

2010/08/08 05:00
LFMY 080500Z AUTO 06004KT 9999NDV NSC 14/11 Q1017

2010/08/08 05:00
LFOA 080500Z AUTO 27002KT 9999NDV BKN031 OVC060 15/14 Q1019

2010/08/08 05:00
LFOC 080500Z AUTO 27006KT 9999NDV NSC 12/11 Q1019

2010/08/08 05:00
LFOE 080500Z AUTO 27007KT 6000NDV OVC003 14/14 Q1019

2010/08/08 05:00
LFOJ 080500Z AUTO 28005KT 9999NDV NSC 12/11 Q1019

2010/08/08 05:00
LFPC 080500Z 27006KT 240V300 9999 OVC013 15/14 Q1018

2010/08/08 05:00
LFPG 080500Z 30008KT 9999 BKN008 15/14 Q1018 NOSIG

2010/08/08 05:00
LFPO 080500Z 28005KT 9999 FEW012 14/13 Q1019 NOSIG

2010/08/08 05:00
LFPV 080500Z AUTO 28005KT 9999NDV BKN005 BKN009 13/13 Q1019

2010/08/08 05:00
LFQI 080500Z AUTO 26006KT 9999NDV OVC004 15/14 Q1017

2010/08/08 05:00
LFQQ 080500Z 28004KT 9000 SCT005 SCT015 BKN050 15/15 Q1016 NOSIG

2010/08/08 05:00
LFRB 080500Z 31002KT 0250 R07/0375V0650D FG SCT001 13/12 Q1021 TEMPO BKN003

2010/08/08 05:00
LFRS 080500Z 30001KT 9999 R03/1000V1900U MIFG NSC 12/11 Q1021 NOSIG

2010/08/08 05:00
LFSD 080500Z AUTO 00000KT 9999NDV NSC 15/14 Q1018

2010/08/08 05:00
LFSI 080500Z AUTO VRB02KT 9999NDV SCT047 BKN054 15/14 Q1018

2010/08/08 05:00
LFSO 080500Z AUTO 32003KT 9999NDV BKN009 BKN015 OVC037 16/15 Q1017

2010/08/08 05:00
LFSX 080500Z AUTO 07002KT 9999NDV NSC 14/13 Q1018

2010/08/08 05:00
LFYR 080500Z AUTO VRB02KT //// // ///////// 17/14 Q1019

2010/08/08 05:00
LEBA 080500Z VRB01KT CAVOK 26/14 Q1016

2010/08/08 05:00
LEBL 080500Z 32004KT 300V360 CAVOK 21/18 Q1018 NOSIG

2010/08/08 05:00
LEIB 080500Z 00000KT CAVOK 20/18 Q1018 NOSIG

2010/08/08 05:00
LELN 080500Z 35005KT CAVOK 14/07 Q1021

2010/08/08 05:00
LEMD 080500Z VRB02KT CAVOK 23/13 Q1019 NOSIG

2010/08/08 05:00
LEMG 080500Z VRB01KT 9999 FEW020 25/20 Q1017 NOSIG

2010/08/08 05:00
LEPA 080500Z VRB01KT CAVOK 17/16 Q1019 NOSIG

2010/08/08 05:00
LEPP 080500Z VRB02KT 9999 FEW015 14/13 Q1021

2010/08/08 05:00
LEVC 080500Z VRB02KT CAVOK 21/17 Q1018 NOSIG

2010/08/08 05:00
LEVX 080500Z 20008KT CAVOK 17/14 Q1015

2010/08/08 05:00
LEXJ 080500Z 11005KT 9999 FEW020 OVC026 19/17 Q1021

2010/08/08 05:00
LEZL 080500Z 15002KT CAVOK 26/14 Q1015 NOSIG

2010/08/08 05:00
LFOA 080500Z AUTO 27002KT 9999NDV BKN031 OVC060 15/14 Q1019

2010/08/08 05:00
LFOC 080500Z AUTO 27006KT 9999NDV NSC 12/11 Q1019

2010/08/08 05:00
LFOE 080500Z AUTO 27007KT 6000NDV OVC003 14/14 Q1019

2010/08/08 05:00
LFOJ 080500Z AUTO 28005KT 9999NDV NSC 12/11 Q1019

2010/08/08 05:00
LFPC 080500Z 27006KT 240V300 9999 OVC013 15/14 Q1018

2010/08/08 05:00
LFPO 080500Z 28005KT 9999 FEW012 14/13 Q1019 NOSIG

2010/08/08 05:00
LFPV 080500Z AUTO 28005KT 9999NDV BKN005 BKN009 13/13 Q1019

2010/08/08 05:00
LFQI 080500Z AUTO 26006KT 9999NDV OVC004 15/14 Q1017

2010/08/08 05:00
LFQQ 080500Z 28004KT 9000 SCT005 SCT015 BKN050 15/15 Q1016 NOSIG

2010/08/08 05:00
LFRS 080500Z 30001KT 9999 R03/1000V1900U MIFG NSC 12/11 Q1021 NOSIG

2010/08/08 05:00
LFYR 080500Z AUTO VRB02KT //// // ///////// 17/14 Q1019

2010/08/08 05:00
LRBS 080500Z VRB02KT 8000 NSC 23/22 Q1013 NOSIG

2010/08/08 05:00
LRCK 080500Z 32003KT 3000 BR NSC 26/26 Q1012 BECMG 5000

2010/08/08 05:00
LROP 080500Z VRB02KT 7000 NSC 22/22 Q1012 8809//95 NOSIG

2010/08/08 05:00
LRSB 080500Z 00000KT 5000 -RA BR FEW008 SCT009 OVC012 19/18 Q1017

2010/08/08 05:00
LRTR 080500Z VRB02KT CAVOK 18/17 Q1017

2010/08/08 05:03
KNPA 080503Z AUTO 00000KT 10SM CLR 26/24 A2990 RMK AO2 TSE0457 

2010/08/08 05:00
FYGB 080500Z AUTO 29001KT //// // ////// 07/M00 Q1025

2010/08/08 05:00
FYGF 080500Z 00000KT CAVOK 05/01 Q1025

2010/08/08 05:00
FYKT 080500Z AUTO 32003KT //// // ////// 15/M01 Q1021

2010/08/08 05:00
FYLZ 080500Z AUTO 15007KT //// // ////// 09/06 Q1021

2010/08/08 05:00
FYML 080500Z AUTO 08004KT //// // ////// ///// Q1023

2010/08/08 05:00
FYOA 080500Z AUTO 08004KT //// // ////// 14/02 Q1020

2010/08/08 05:00
FYOJ 080500Z AUTO 00000KT //// // ////// 10/M01 Q1021

2010/08/08 05:00
FYOW 080500Z AUTO 12002KT //// // ////// 11/M01 Q1023

2010/08/08 05:00
FYRU 080500Z 05010KT CAVOK 13/04 Q1022

2010/08/08 05:00
FYWB 080500Z AUTO 05002KT //// // ////// 11/10 Q1021

2010/08/08 05:00
FYWH 080500Z AUTO 27002KT //// // ////// 09/M04 Q1027

2010/08/08 05:00
FYWW 080500Z 10004KT CAVOK 13/M02 Q1025

2010/08/08 05:00
FBFT 080500Z VRB01KT CAVOK 06/03 Q1026 

2010/08/08 05:00
FBKE 080500Z /////KT CAVOK 13/06 Q1023

2010/08/08 05:00
FBMN 080500Z 11005KT CAVOK 12/03 Q1024

2010/08/08 05:00
FBSK 080500Z 16006KT CAVOK 06/04 Q1026 NOSIG

2010/08/08 05:00
RJOT 080500Z VRB02KT 9999 FEW015 BKN/// 30/20 Q1012

2010/08/08 05:00
RJOW 080500Z 01007KT 9999 FEW040 31/22 Q1011

2010/08/08 05:00
RJOY 080500Z 11007KT 9999 FEW025 BKN045 33/19 Q1012

2010/08/08 05:00
RJSA 080500Z 30008KT 260V330 9999 FEW025 BKN/// 31/23 Q1014

2010/08/08 05:00
RJSC 080500Z VRB09KT 9999 FEW035 SCT050 34/24 Q1013

2010/08/08 05:00
RJSF 080500Z 21006KT 9999 FEW030CB BKN040 BKN/// 32/22 Q1016

2010/08/08 05:00
RJSI 080500Z 19008KT 9999 -SHRA FEW030 FEW040CB SCT080 BKN/// 32/23 Q1014

2010/08/08 05:00
RJSK 080500Z 29005KT 240V340 9999 FEW017 SCT020 30/25 Q1014

2010/08/08 05:00
RJSR 080500Z 28005KT 250V320 9999 FEW025 30/24 Q1014

2010/08/08 05:00
RJSN 080500Z 35011KT 9999 FEW030 FEW040TCU BKN/// 32/24 Q1013

2010/08/08 05:00
RJSS 080500Z 16011KT 9999 FEW030CB 31/24 Q1013

2010/08/08 05:00
RJSY 080500Z 33007KT 270V010 9999 FEW025 30/22 Q1013

2010/08/08 05:00
RJTF 080500Z 20007KT 150V240 9999 FEW030 BKN130 BKN/// 31/21 Q1015

2010/08/08 05:00
RJTH 080500Z 03008KT 350V060 9999 FEW020 SCT100 BKN/// 28/25 Q1015 RERA

2010/08/08 05:00
RJTI 080500Z 21007KT 9999 FEW020 BKN140 BKN/// 30/20 Q1014

2010/08/08 05:00
RJTO 080500Z VRB01KT 9999 FEW012 SCT020 BKN/// 27/24 Q1015

2010/08/08 05:00
RJTT 080500Z 20011KT 160V220 9999 -SHRA FEW020 SCT030 BKN130 31/21 Q1014

2010/08/08 05:00
ROAH 080500Z 17014G24KT 9999 SHRA FEW015 SCT020 SCT025TCU BKN100 29/26 Q1002

2010/08/08 05:00
ROIG 080500Z 03014KT 9999 FEW020 SCT040 BKN/// 31/25 Q0999

2010/08/08 05:00
ROMY 080500Z 09017KT 9999 -SHRA FEW015 BKN020 30/26 Q0999

2010/08/08 05:00
RJFG 080500Z 10014KT 9999 FEW005 SCT008 BKN010 27/25 Q1010

2010/08/08 05:00
RJFK 080500Z 08011KT 040V110 9999 FEW025 30/22 Q1011

2010/08/08 05:00
RJFM 080500Z 08010KT 9999 R27/1200VP1800U -SHRA FEW007 BKN025 BKN040 27/25 Q1010

2010/08/08 05:00
RJFO 080500Z 10007KT 9999 FEW020 28/25 Q1011

2010/08/08 05:00
RJFR 080500Z 08017KT 050V130 9999 FEW025 30/22 Q1010

2010/08/08 05:00
RJFT 080500Z 11015KT 9999 FEW040 32/21 Q1010

2010/08/08 05:00
RJFU 080500Z 29005KT 250V330 9999 FEW025 34/24 Q1009

2010/08/08 05:00
RJGG 080500Z 17013KT 9999 FEW020 FEW025TCU SCT070 BKN150 30/25 Q1014 NOSIG

2010/08/08 05:00
RJKA 080500Z 14011KT 9999 FEW020 SCT025 BKN030 30/25 Q1004

2010/08/08 05:00
RJNT 080500Z 36011KT 9999 FEW030 BKN/// 32/22 Q1012

2010/08/08 05:00
RJNW 080500Z 08005KT 030V140 9999 FEW030 BKN/// 32/21 Q1014

2010/08/08 05:00
RJNS 080500Z 13009KT 9999 FEW003 SCT020 BKN150 29/23 Q1015

2010/08/08 05:00
RJOA 080500Z 14007KT 100V190 9999 FEW035 30/17 Q1013

2010/08/08 05:00
RJOB 080500Z 13011KT 070V150 9999 FEW035 BKN180 29/20 Q1013

2010/08/08 05:00
RJOC 080500Z 02010KT 9999 FEW030 33/22 Q1010

2010/08/08 05:00
RJOH 080500Z 06014KT 9999 FEW030 32/24 Q1010

2010/08/08 05:00
RJOK 080500Z 16009KT 9999 FEW020 FEW025CB SCT060 BKN/// 30/24 Q1012

2010/08/08 05:00
RJOM 080500Z 34011KT 9999 FEW025 FEW030TCU 33/22 Q1011

2010/08/08 05:00
RJOO 080500Z VRB04KT 9999 FEW025 BKN045 BKN/// 33/18 Q1012

2010/08/08 05:00
RJOR 080500Z 04014KT 9999 FEW035 SCT/// 32/22 Q1011

2010/08/08 05:00
RJAA 080500Z 15010KT 9999 FEW030 BKN/// 31/24 Q1014 NOSIG

2010/08/08 05:00
RJAF 080500Z 18009KT 9999 FEW040 SCT080 BKN150 28/16 Q1017

2010/08/08 05:00
RJBB 080500Z 25008KT 9999 FEW020 SCT/// 32/21 Q1012 NOSIG

2010/08/08 05:00
RJBD 080500Z 18005KT 130V220 9999 FEW015 SCT045 BKN/// 32/22 Q1013

2010/08/08 05:00
RJBE 080500Z 24011KT 9999 FEW025 30/22 Q1012

2010/08/08 05:00
RJBH 080500Z 21010KT 9999 FEW030 33/19 Q1010

2010/08/08 05:00
RJBT 080500Z 18007KT 140V210 9999 FEW025 SCT035 BKN/// 32/20 Q1012

2010/08/08 05:00
RJCB 080500Z 14010KT 9999 FEW015 FEW025CB SCT030 29/24 Q1012

2010/08/08 05:00
RJCC 080500Z 18008KT 9999 -SHRA FEW012 BKN050 BKN070 29/24 Q1012

2010/08/08 05:00
RJCH 080500Z 23008KT 9999 FEW010 SCT025 BKN045 27/25 Q1013

2010/08/08 05:00
RJCK 080500Z 22006KT 180V250 9999 FEW002 BKN025 22/19 Q1013

2010/08/08 05:00
RJCM 080500Z 05005KT 010V080 9999 FEW010 SCT019 BKN030 25/21 Q1013

2010/08/08 05:00
RJCN 080500Z 07006KT 9999 SCT008 BKN010 22/19 Q1014

2010/08/08 05:00
RJCW 080500Z 35008KT 9999 FEW020 24/20 Q1013

2010/08/08 05:00
RJDC 080500Z 09015KT 9999 FEW025 FEW025TCU 31/21 Q1010

2010/08/08 05:00
RJDT 080500Z 14009KT 9999 FEW020 30/22 Q1010

2010/08/08 05:00
RJEB 080500Z 08008KT 050V110 9999 FEW025 23/21 Q1013

2010/08/08 05:00
RJEC 080500Z 32004KT 9999 FEW020 SCT040 BKN060 26/23 Q1013

2010/08/08 05:00
RJFS 080500Z VRB04KT 9999 FEW040 34/24 Q1008

2010/08/08 05:00
RJFF 080500Z 08006KT 360V140 9999 FEW030 FEW035TCU SCT040 33/22 Q1008

2010/08/08 05:00
RORS 080500Z 09019KT 9999 SCT018 31/25 Q0999

2010/08/08 05:00
RJAH 080500Z 21009KT 9999 FEW030 BKN250 33/24 Q1013

2010/08/08 05:00
OIAW 080500Z 11006KT 7000 FEW040 SCT100 35/12 Q0998 A2948

2010/08/08 05:00
OIFM 080500Z 27004KT 7000 SKC 24/00 Q1019 A3009

2010/08/08 05:00
OIKB 080500Z 18006KT 5000 HZ NSC 35/27 Q0999 A2951

2010/08/08 05:00
OIKK 080500Z 00000KT CAVOK 21/M03 Q1018 A3007

2010/08/08 05:00
OIMM 080500Z 34010KT CAVOK 31/M00 Q1013 A2993

2010/08/08 05:00
OISS 080500Z 24004KT CAVOK 29/03 Q1015 A2999

2010/08/08 05:00
OITT 080500Z 10006KT 9999 FEW035 SCT090 27/07 Q1018 A3007

2010/08/08 05:00
OIZH 080500Z 01004KT 8000 NSC 30/M01 Q1011 A2985

2010/08/08 05:00
YSTW 080500Z AUTO 27005KT 9999NDV // NCD 16/01 Q1018

2010/08/08 05:00
YSWG 080500Z 36005KT 9999 FEW040 13/03 Q1018

2010/08/08 05:00
YTEF 080500Z AUTO 19009KT //// // ////// 26/M03 Q1016

2010/08/08 05:00
YTNK 080500Z 20003KT CAVOK 25/M07 Q1012

2010/08/08 05:00
YTRE 080500Z AUTO 14009KT //// // ////// 17/08 Q1018

2010/08/08 05:00
YWGT 080500Z AUTO 33004KT //// // ////// 12/02 Q1018

2010/08/08 05:00
YWHA 080500Z AUTO 32015KT 9999NDV // BKN110 18/02 Q1011

2010/08/08 05:00
YWLM 080500Z 12009KT 9999 FEW035 16/08 Q1019

2010/08/08 05:00
LFAQ 080500Z AUTO 27006KT 7000NDV BKN003 OVC009 14/14 Q1017

2010/08/08 05:00
LFBU 080500Z AUTO 29004KT 9999NDV NSC 13/12 Q1020

2010/08/08 05:00
LFLN 080500Z AUTO 28004KT 9999NDV NSC 15/13 Q1019

2010/08/08 05:00
LFPM 080500Z 25004KT 9999 FEW013 14/13 Q1018

2010/08/08 05:00
LFRH 080500Z 32004KT 9999 FEW026 11/10 Q1021

2010/08/08 05:00
LFRQ 080500Z 32003KT CAVOK 13/12 Q1022 NOSIG

2010/08/08 05:00
LFRT 080500Z 29005KT 9999 BKN026 15/14 Q1021

2010/08/08 05:00
LFSD 080500Z AUTO 00000KT 9999NDV NSC 15/14 Q1018

2010/08/08 05:00
LFTW 080500Z AUTO 00000KT 9999NDV NSC 19/09 Q1017

2010/08/08 05:00
LFBA 080500Z 28005KT 9999 FEW010 16/15 Q1020 TEMPO 7000 BKN010

2010/08/08 05:00
LFBE 080500Z 27005KT CAVOK 15/14 Q1020 NOSIG

2010/08/08 05:00
LFGJ 080500Z AUTO 11004KT 9999NDV NSC 15/13 Q1018

2010/08/08 05:00
LFJR 080500Z AUTO 32003KT 270V360 9000NDV OVC005/// 14/13 Q1020 

2010/08/08 05:00
LFMD 080500Z AUTO 36004KT 320V030 9999NDV NSC 16/14 Q1017

2010/08/08 05:00
LFMH 080500Z 16002KT 9999 FEW050 15/12 Q1019 NOSIG

2010/08/08 05:00
LFPN 080500Z 28005KT 9999 SCT005 14/13 Q1019

2010/08/08 05:00
LFRC 080500Z AUTO 32004KT 9999NDV FEW008 14/14 Q1020

2010/08/08 05:00
LFRG 080500Z AUTO 01003KT 9999NDV BKN009 BKN013 BKN019 16/15 Q1019

2010/08/08 05:00
LFRK 080500Z 25008KT 9999 FEW013 13/13 Q1019 NOSIG

2010/08/08 05:00
LFBD 080500Z 00000KT 9999 R05/1000V1700U FEW023 16/14 Q1021 NOSIG

2010/08/08 05:00
LFBI 080500Z 32005KT 9999 SCT033 14/12 Q1020 NOSIG

2010/08/08 05:00
LFBL 080500Z 36004KT 9999 FEW015 14/12 Q1020 NOSIG

2010/08/08 05:00
LFBO 080500Z 26007KT CAVOK 17/13 Q1020 NOSIG

2010/08/08 05:00
LFBP 080500Z 30003KT 9999 FEW005 BKN010 16/16 Q1021 NOSIG

2010/08/08 05:00
LFBT 080500Z 24004KT 9999 FEW010 15/14 Q1022

2010/08/08 05:00
LFBZ 080500Z AUTO 12003KT 090V160 9999NDV NSC 16/15 Q1021

2010/08/08 05:00
LFJL 080500Z AUTO 29011KT 9999NDV FEW012 SCT022 BKN052 15/13 Q1017

2010/08/08 05:00
LFLB 080500Z 17003KT CAVOK 13/11 Q1019

2010/08/08 05:00
LFLL 080500Z 18004KT CAVOK 16/12 Q1018 NOSIG

2010/08/08 05:00
LFLS 080500Z 10007KT 9999 FEW060 SCT100 13/11 Q1019 NOSIG

2010/08/08 05:00
LFLX 080500Z 34004KT 9999 BKN025 18/15 Q1019 NOSIG

2010/08/08 05:00
LFLY 080500Z 16003KT CAVOK 16/12 Q1018 NOSIG

2010/08/08 05:00
LFMK 080500Z 28008KT CAVOK 18/14 Q1020 NOSIG

2010/08/08 05:00
LFML 080500Z VRB01KT CAVOK 17/14 Q1017 NOSIG

2010/08/08 05:00
LFOH 080500Z AUTO 35007KT 9999NDV OVC009 16/14 Q1019

2010/08/08 05:00
LFOP 080500Z 27004KT 6000 OVC003 14/14 Q1019 NOSIG

2010/08/08 05:00
LFPB 080500Z AUTO 30006KT 270V330 9999NDV OVC009 16/14 Q1018

2010/08/08 05:00
LFRD 080500Z AUTO 30005KT 9999NDV BKN012 15/14 Q1021

2010/08/08 05:00
LFRN 080500Z AUTO 29003KT 1600NDV BR NSC 12/11 Q1020

2010/08/08 05:00
LFRO 080500Z AUTO 28004KT 6000NDV FEW007 SCT022 14/13 Q1021

2010/08/08 05:00
LFRZ 080500Z AUTO 30003KT 9999NDV NSC 12/11 Q1021

2010/08/08 05:00
LFSB 080500Z 20004KT 9999 VCSH FEW050 BKN100 15/13 Q1017 TEMPO 8000 -SHRA

2010/08/08 05:00
LFSN 080500Z 29004KT 260V330 9999 SCT012 SCT046 BKN053 17/15 Q1017 NOSIG

2010/08/08 05:00
LFST 080500Z 22003KT 9999 FEW043 FEW050CB BKN073 17/13 Q1016 NOSIG

2010/08/08 05:00
LFTH 080500Z AUTO 04003KT 9999NDV NSC 14/10 Q1016

2010/08/08 05:00
OPSK 080500Z 00000KT 4000 HZ FEW040 BKN100 31/27 1001 RH 79

2010/08/08 05:00
LFBD 080500Z 00000KT 9999 R05/1000V1700U FEW023 16/14 Q1021 NOSIG

2010/08/08 05:00
LFBI 080500Z 32005KT 9999 SCT033 14/12 Q1020 NOSIG

2010/08/08 05:00
LFBL 080500Z 36004KT 9999 FEW015 14/12 Q1020 NOSIG

2010/08/08 05:00
LFBO 080500Z 26007KT CAVOK 17/13 Q1020 NOSIG

2010/08/08 05:00
LFBP 080500Z 30003KT 9999 FEW005 BKN010 16/16 Q1021 NOSIG

2010/08/08 05:00
LFBT 080500Z 24004KT 9999 FEW010 15/14 Q1022

2010/08/08 05:00
LFBZ 080500Z AUTO 12003KT 090V160 9999NDV NSC 16/15 Q1021

2010/08/08 05:00
LFLB 080500Z 17003KT CAVOK 13/11 Q1019

2010/08/08 05:00
LFLL 080500Z 18004KT CAVOK 16/12 Q1018 NOSIG

2010/08/08 05:00
LFLS 080500Z 10007KT 9999 FEW060 SCT100 13/11 Q1019 NOSIG

2010/08/08 05:00
LFLX 080500Z 34004KT 9999 BKN025 18/15 Q1019 NOSIG

2010/08/08 05:00
LFLY 080500Z 16003KT CAVOK 16/12 Q1018 NOSIG

2010/08/08 05:00
LFMK 080500Z 28008KT CAVOK 18/14 Q1020 NOSIG

2010/08/08 05:00
LFML 080500Z VRB01KT CAVOK 17/14 Q1017 NOSIG

2010/08/08 05:00
LFOH 080500Z AUTO 35007KT 9999NDV OVC009 16/14 Q1019

2010/08/08 05:00
LFOP 080500Z 27004KT 6000 OVC003 14/14 Q1019 NOSIG

2010/08/08 05:00
LFPG 080500Z 30008KT 9999 BKN008 15/14 Q1018 NOSIG

2010/08/08 05:00
LFRB 080500Z 31002KT 0250 R07/0375V0650D FG SCT001 13/12 Q1021 TEMPO BKN003

2010/08/08 05:00
LFRD 080500Z AUTO 30005KT 9999NDV BKN012 15/14 Q1021

2010/08/08 05:00
LFRN 080500Z AUTO 29003KT 1600NDV BR NSC 12/11 Q1020

2010/08/08 05:00
LFRO 080500Z AUTO 28004KT 6000NDV FEW007 SCT022 14/13 Q1021

2010/08/08 05:00
LFRZ 080500Z AUTO 30003KT 9999NDV NSC 12/11 Q1021

2010/08/08 05:00
LFSB 080500Z 20004KT 9999 VCSH FEW050 BKN100 15/13 Q1017 TEMPO 8000 -SHRA

2010/08/08 05:00
LFSN 080500Z 29004KT 260V330 9999 SCT012 SCT046 BKN053 17/15 Q1017 NOSIG

2010/08/08 05:00
LFST 080500Z 22003KT 9999 FEW043 FEW050CB BKN073 17/13 Q1016 NOSIG

2010/08/08 05:00
LFTH 080500Z AUTO 04003KT 9999NDV NSC 14/10 Q1016

2010/08/08 05:00
LECO 080500Z VRB01KT 9999 FEW030 15/15 Q1018

2010/08/08 05:00
RKSI 080500Z 23009KT 180V260 9999 FEW030 31/23 Q1010 NOSIG

2010/08/08 05:00
RKSS 080500Z 21006KT 9999 FEW030 33/18 Q1009 NOSIG 

2010/08/08 05:00
RKPC 080500Z 30010KT 9999 SCT020 31/23 Q1009 WS ALL RWY NOSIG 

2010/08/08 05:00
RKPK 080500Z 20010KT 9999 SCT030 32/21 Q1010 NOSIG 

2010/08/08 05:00
RKTU 080500Z 23004KT 9999 SCT030 32/22 Q1010 NOSIG 

2010/08/08 05:00
RKTN 080500Z 01003KT 9999 SCT030 32/20 Q1009 NOSIG

2010/08/08 05:00
RKJB 080500Z 23004KT 190V270 9999 SCT040 31/21 Q1010 NOSIG 

2010/08/08 05:00
RKNY 080500Z 10003KT 080V140 9999 SCT025 26/22 Q1009 NOSIG 

2010/08/08 05:00
LFLL 080500Z 18004KT CAVOK 16/12 Q1018 NOSIG

2010/08/08 05:00
LFPG 080500Z 30008KT 9999 BKN008 15/14 Q1018 NOSIG

2010/08/08 05:00
LFPO 080500Z 28005KT 9999 FEW012 14/13 Q1019 NOSIG

2010/08/08 05:00
LFQQ 080500Z 28004KT 9000 SCT005 SCT015 BKN050 15/15 Q1016 NOSIG

2010/08/08 05:00
LFRB 080500Z 31002KT 0250 R07/0375V0650D FG SCT001 13/12 Q1021 TEMPO BKN003

2010/08/08 05:00
LFRS 080500Z 30001KT 9999 R03/1000V1900U MIFG NSC 12/11 Q1021 NOSIG

2010/08/08 05:00
LFBD 080500Z 00000KT 9999 R05/1000V1700U FEW023 16/14 Q1021 NOSIG

2010/08/08 05:00
LFBH 080500Z AUTO 02005KT 9999NDV BKN038 16/14 Q1021

2010/08/08 05:00
LFBI 080500Z 32005KT 9999 SCT033 14/12 Q1020 NOSIG

2010/08/08 05:00
LFBL 080500Z 36004KT 9999 FEW015 14/12 Q1020 NOSIG

2010/08/08 05:00
LFBO 080500Z 26007KT CAVOK 17/13 Q1020 NOSIG

2010/08/08 05:00
LFBP 080500Z 30003KT 9999 FEW005 BKN010 16/16 Q1021 NOSIG

2010/08/08 05:00
LFBT 080500Z 24004KT 9999 FEW010 15/14 Q1022

2010/08/08 05:00
LFBZ 080500Z AUTO 12003KT 090V160 9999NDV NSC 16/15 Q1021

2010/08/08 05:00
LFLB 080500Z 17003KT CAVOK 13/11 Q1019

2010/08/08 05:00
LFLX 080500Z 34004KT 9999 BKN025 18/15 Q1019 NOSIG

2010/08/08 05:00
LFML 080500Z VRB01KT CAVOK 17/14 Q1017 NOSIG

2010/08/08 05:00
LFKB 080500Z 20006KT 9999 FEW020 19/15 Q1017 NOSIG

2010/08/08 05:00
LFKC 080500Z 22006KT CAVOK 17/14 Q1018

2010/08/08 05:00
LFKF 080500Z AUTO 04002KT 9999NDV NCD 13/11 Q1018

2010/08/08 05:00
LFKJ 080500Z 03005KT CAVOK 16/13 Q1018 NOSIG

2010/08/08 05:00
LFLC 080500Z 01003KT 350V050 CAVOK 15/13 Q1019 NOSIG

2010/08/08 05:00
LFMP 080500Z VRB02KT 9999 SCT060 21/14 Q1017 NOSIG

2010/08/08 05:00
LFMV 080500Z AUTO 20001KT 9999NDV NSC 14/11 Q1017

2010/08/08 05:00
LFSL 080500Z AUTO 00000KT 9999NDV NSC 12/11 Q1020

2010/08/08 05:00
LFCR 080500Z AUTO 00000KT 9999NDV NSC 13/12 Q1020

2010/08/08 05:00
LFJL 080500Z AUTO 29011KT 9999NDV FEW012 SCT022 BKN052 15/13 Q1017

2010/08/08 05:00
LFLP 080500Z AUTO VRB03KT 9999NDV NSC 14/11 Q1020

2010/08/08 05:00
LFLS 080500Z 10007KT 9999 FEW060 SCT100 13/11 Q1019 NOSIG

2010/08/08 05:00
LFLY 080500Z 16003KT CAVOK 16/12 Q1018 NOSIG

2010/08/08 05:00
LFMT 080500Z 34001KT CAVOK 17/13 Q1017 NOSIG

2010/08/08 05:00
LFMU 080500Z AUTO 29003KT 9999NDV NSC 16/13 Q1018

2010/08/08 05:00
LFOB 080500Z 27009KT 8000 OVC005 15/14 Q1018 NOSIG

2010/08/08 05:00
LFOH 080500Z AUTO 35007KT 9999NDV OVC009 16/14 Q1019

2010/08/08 05:00
LFOK 080500Z AUTO 24007KT 9999NDV FEW045 SCT062 15/14 Q1018

2010/08/08 05:00
LFOP 080500Z 27004KT 6000 OVC003 14/14 Q1019 NOSIG

2010/08/08 05:00
LFPB 080500Z AUTO 30006KT 270V330 9999NDV OVC009 16/14 Q1018

2010/08/08 05:00
LFSN 080500Z 29004KT 260V330 9999 SCT012 SCT046 BKN053 17/15 Q1017 NOSIG

2010/08/08 05:00
LFMI 080500Z AUTO 05003KT 9999NDV NSC 16/13 Q1017

2010/08/08 05:00
LFMK 080500Z 28008KT CAVOK 18/14 Q1020 NOSIG

2010/08/08 05:00
LFRD 080500Z AUTO 30005KT 9999NDV BKN012 15/14 Q1021

2010/08/08 05:00
LFRN 080500Z AUTO 29003KT 1600NDV BR NSC 12/11 Q1020

2010/08/08 05:00
LFRO 080500Z AUTO 28004KT 6000NDV FEW007 SCT022 14/13 Q1021

2010/08/08 05:00
LFRZ 080500Z AUTO 30003KT 9999NDV NSC 12/11 Q1021

2010/08/08 05:00
LFSB 080500Z 20004KT 9999 VCSH FEW050 BKN100 15/13 Q1017 TEMPO 8000 -SHRA

2010/08/08 05:00
LFST 080500Z 22003KT 9999 FEW043 FEW050CB BKN073 17/13 Q1016 NOSIG

2010/08/08 05:00
LFTH 080500Z AUTO 04003KT 9999NDV NSC 14/10 Q1016

2010/08/08 05:00
OIAA 080500Z 33004KT 9999 FEW040 SCT100 36/13 Q0998

2010/08/08 05:00
OIBK 080500Z 12010KT 4000 BR SKC 35/31 Q0998 A2948

2010/08/08 05:00
OICC 080500Z 00000KT CAVOK 29/03 Q1015 A3000 867.2

2010/08/08 05:00
OIGG 080500Z 27004KT CAVOK 28/21 Q1010 A2985

2010/08/08 05:00
OIIE 080500Z 21006KT CAVOK 29/M03 Q1015 A2997

2010/08/08 05:00
OITR 080500Z 25004KT 9999 SCT035 24/11 Q1017 A3003

2010/08/08 05:00
OIYY 080500Z 30008KT CAVOK 28/M10 Q1016 A3002

2010/08/08 05:00
OICK 080500Z 11010KT CAVOK 32/M00 Q1013 A2992

2010/08/08 05:00
OINZ 080500Z VRB02KT CAVOK 29/18 Q1010 A2983

2010/08/08 05:00
OISR 080500Z 12004KT 9999 FEW040 35/16 Q1003 A2962

2010/08/08 05:00
OITL 080500Z 00000KT CAVOK 21/09 Q1019 A3009

2010/08/08 05:00
LESA 080500Z 00000KT CAVOK 16/14 Q1019

2010/08/08 05:00
KNEL 080500Z AUTO 00000KT 10SM CLR 19/17 A3001 RMK AO2 SLP161 T01940172 401940194 $

2010/08/08 04:56
KNFL 080456Z AUTO 26003KT 10SM CLR 25/03 A2984 RMK AO2 SLP082 T02500028 TSNO

2010/08/08 04:59
KNGU 080459Z 07003KT 9SM SCT007 25/23 A3000 RMK AO2 SLP160 T02500233 403000239 $

2010/08/08 04:56
KNID 080456Z AUTO 18010KT CLR 27/02 A2978 RMK AO2 SLP063 T02720017 TSNO $

2010/08/08 04:56
KNLC 080456Z AUTO 32010KT 10SM CLR 25/11 A2975 RMK AO2 SLP074 T02500111 TSNO $

2010/08/08 04:56
KNTD 080456Z 28004KT 8SM OVC009 15/13 A2988 RMK AO2 SLP120 T01500133 $

2010/08/08 04:55
KNYL 080455Z 16009KT 10SM CLR 32/12 A2970 RMK AO2 SLP053 T03170122

2010/08/08 04:52
KNZY 080452Z 21004KT 10SM BKN018 18/12 A2991 RMK AO2 SLP128 T01830122 $

2010/08/08 04:56
KOSC 080456Z AUTO 21004KT 10SM CLR 19/17 A2985 RMK AO2

2010/08/08 04:55
KTBN 080455Z AUTO 14005KT 10SM CLR 23/ A2995 RMK AO2 SLP121 T0231 $

2010/08/08 04:55
KVAD 080455Z 00000KT 10SM CLR 25/25 A2994 RMK AO2A SLP137 T02500245 $

2010/08/08 05:00
SKRG 080500Z 00000KT 9999 FEW010 BKN080 16/15 A3031

2010/08/08 05:00
SKSP 080500Z 05006KT 9999 FEW015 BKN200 29/26 A2989

2010/08/08 04:50
EGXD 080450Z AUTO 27003KT 9999NDV // BKN070/// 11/11 Q1020

2010/08/08 05:00
LFBA 080500Z 28005KT 9999 FEW010 16/15 Q1020 TEMPO 7000 BKN010

2010/08/08 05:00
LFBE 080500Z 27005KT CAVOK 15/14 Q1020 NOSIG

2010/08/08 05:00
LFCR 080500Z AUTO 00000KT 9999NDV NSC 13/12 Q1020

2010/08/08 05:00
LFGJ 080500Z AUTO 11004KT 9999NDV NSC 15/13 Q1018

2010/08/08 05:00
LFJL 080500Z AUTO 29011KT 9999NDV FEW012 SCT022 BKN052 15/13 Q1017

2010/08/08 05:00
LFKB 080500Z 20006KT 9999 FEW020 19/15 Q1017 NOSIG

2010/08/08 05:00
LFKC 080500Z 22006KT CAVOK 17/14 Q1018

2010/08/08 05:00
LFKF 080500Z AUTO 04002KT 9999NDV NCD 13/11 Q1018

2010/08/08 05:00
LFKJ 080500Z 03005KT CAVOK 16/13 Q1018 NOSIG

2010/08/08 05:00
LFLC 080500Z 01003KT 350V050 CAVOK 15/13 Q1019 NOSIG

2010/08/08 05:00
LFMD 080500Z AUTO 36004KT 320V030 9999NDV NSC 16/14 Q1017

2010/08/08 05:00
LFMH 080500Z 16002KT 9999 FEW050 15/12 Q1019 NOSIG

2010/08/08 05:00
LFMP 080500Z VRB02KT 9999 SCT060 21/14 Q1017 NOSIG

2010/08/08 05:00
LFMT 080500Z 34001KT CAVOK 17/13 Q1017 NOSIG

2010/08/08 05:00
LFMU 080500Z AUTO 29003KT 9999NDV NSC 16/13 Q1018

2010/08/08 05:00
LFOB 080500Z 27009KT 8000 OVC005 15/14 Q1018 NOSIG

2010/08/08 05:00
LFPB 080500Z AUTO 30006KT 270V330 9999NDV OVC009 16/14 Q1018

2010/08/08 05:00
LFPN 080500Z 28005KT 9999 SCT005 14/13 Q1019

2010/08/08 05:00
LFRC 080500Z AUTO 32004KT 9999NDV FEW008 14/14 Q1020

2010/08/08 05:00
LFRK 080500Z 25008KT 9999 FEW013 13/13 Q1019 NOSIG

2010/08/08 05:00
LFSL 080500Z AUTO 00000KT 9999NDV NSC 12/11 Q1020

2010/08/08 04:50
LGAD 080450Z 00000KT CAVOK 19/17 Q1013

2010/08/08 04:50
LGIR 080450Z 17006KT CAVOK 21/17 Q1010 NOSIG

2010/08/08 04:50
LGKO 080450Z 31006KT 8000 FEW006 24/22 Q1009

2010/08/08 04:50
LGKR 080450Z 00000KT CAVOK 21/18 Q1012 NOSIG

2010/08/08 04:50
LGLM 080450Z VRB02KT 8000 FEW010 24/23 Q1009

2010/08/08 04:50
LGSM 080450Z 00000KT 9999 FEW020 24/20 Q1008

2010/08/08 04:50
LGTS 080450Z 31008KT CAVOK 25/21 Q1011 NOSIG

2010/08/08 04:56
KNBC 080456Z AUTO 00000KT 7SM CLR 26/24 A2992 RMK AO2 SLP134 T02560239 403170239

2010/08/08 04:59
KNGU 080459Z 07003KT 9SM SCT007 25/23 A3000 RMK AO2 SLP160 T02500233 403000239 $

2010/08/08 04:57
KNJM 080457Z AUTO 05003KT 10SM CLR 26/24 A2996 RMK AO2 SLP149 T02560239 403000228

2010/08/08 04:55
KVAD 080455Z 00000KT 10SM CLR 25/25 A2994 RMK AO2A SLP137 T02500245 $

2010/08/08 05:00
SCAR 080500Z 12005KT 9999 OVC021 14/08 Q1017

2010/08/08 05:00
SCBA 080500Z AUTO 30015KT 9999 -RA VV/// 03/00 Q1014

2010/08/08 05:00
SCDA 080500Z 00000KT 9999 OVC022 13/09 Q1018

2010/08/08 05:00
SCEL 080500Z 36006KT CAVOK 04/01 Q1026 NOSIG

2010/08/08 05:00
SCFA 080500Z 13006KT 9999 BKN015 11/08 Q1016

2010/08/08 05:00
SCTE 080500Z 00000KT 9999 SCT070 02/02 Q1027 NOSIG

2010/08/08 05:00
SKBQ 080500Z 00000KT 9999 BKN012 26/25 A2990

2010/08/08 05:00
SKSP 080500Z 05006KT 9999 FEW015 BKN200 29/26 A2989

2010/08/08 05:00
TFFF 080500Z AUTO 04003KT 9999NDV NCD 25/24 Q1013

2010/08/08 05:00
TFFR 080500Z 11004KT 9999 VCSH FEW023 26/23 Q1013 TEMPO 4000 SHRA

2010/08/08 04:55
KQPD 080455Z AUTO 08004KT 9999 CLR 34/12 A2966 RMK AO2 SLP947 T03420116 $

2010/08/08 04:55
KQQS 080455Z AUTO VRB03KT 9999 SCT160 23/11 A3011 RMK AO2 SLP086 T02270105

2010/08/08 04:59
CYHE 080459Z AUTO 26007KT 200V270 9SM BKN016 OVC036 OVC087 17/16 A2988

2010/08/08 04:52
CYPR 080452Z AUTO 14002KT 9SM FEW023 BKN027 OVC039 12/11 A2994 RMK SLP139 TS/LTNG TEMPO UNAVBL

2010/08/08 05:01
CYZY 080501Z AUTO 00000KT 9SM OVC061 14/12 A2969 RMK SLP062 DENSITY ALT 2900FT

2010/08/08 05:03
CYZY 080503Z AUTO 00000KT 9SM -RA OVC061 14/12 A2968 RMK SLP061 DENSITY ALT 2900FT

2010/08/08 05:01
EGUN 080501Z AUTO 33009KT 9999 BKN005 OVC016 14/14 A3007 RMK AO2 CIG 005V009 SLP172

2010/08/08 05:01
EHEH 080501Z AUTO 21001KT 0800NDV FG OVC007 14/13 Q1015 AMB

2010/08/08 05:03
EHVK 080503Z AUTO 27005KT 6000NDV BR FEW006 SCT007 BKN032 16/15 Q1015 GRN

2010/08/08 04:59
ETIC 080459Z AUTO 00000KT 1600 BR CLR 09/09 A3004 RMK AO2 SLP170

2010/08/08 05:02
KDTS 080502Z AUTO 00000KT 10SM VCTS CLR 28/23 A2990 RMK AO2 LTG DSNT S AND SW TSB0456

2010/08/08 05:02
KFAF 080502Z AUTO 11003KT 10SM CLR 24/24 A2999 RMK AO2 DZE0502 SLP156 $

2010/08/08 05:00
KNRB 080500Z AUTO 00000KT 10SM SCT029 BKN038 BKN047 26/23 A2994 RMK AO2

2010/08/08 04:56
PKMR 080456Z 07006KT 20SM FEW016 SCT300 31/25 A2976 RMK SLP080 T03080245  

2010/08/08 05:00
TGPY 080500Z 00000KT 9999 SCT018 26/24 Q1012 JP-N

2010/08/08 05:00
WBKK 080500Z 26010KT 9999 FEW015 SCT140 BKN280 31/26 Q1008 NOSIG

2010/08/08 05:00
WBSB 080500Z 21009KT 9999 FEW017 BKN300 32/24 Q1008 NOSIG

2010/08/08 05:00
WMKK 080500Z 17005KT 150V250 9999 FEW017CB SCT140 BKN270 29/26 Q1009 NOSIG

2010/08/08 05:00
WMKP 080500Z 17001KT 9999 FEW020 SCT140 BKN270 30/26 Q1009 NOSIG

2010/08/08 05:00
WSSL 080500Z 19005KT 160V250 9999 FEW020 BKN300 32/21 Q1009

2010/08/08 05:00
WSSS 080500Z 20007KT 150V250 9999 FEW020TCU SCT022 BKN300 31/25 Q1010 NOSIG

2010/08/08 05:00
MHSR 080500Z 00000KT 2000 -DZ BKN004 OVC090 20/20 2 KM TD CL PCPN HZ

2010/08/08 05:00
ZBAA 080500Z 20002MPS 130V260 CAVOK 30/19 Q1003 NOSIG

2010/08/08 05:00
ZBSJ 080500Z 10003MPS 2500 R33/1400 HZ NSC 28/23 Q1003 NOSIG

2010/08/08 05:00
ZBTJ 080500Z 21002MPS 3000 BR NSC 29/22 Q1003 NOSIG

2010/08/08 05:00
ZBYN 080500Z 20001MPS 6000 NSC 29/18 Q1007 NOSIG

2010/08/08 05:00
ZGGG 080500Z VRB01MPS 9000 FEW023 BKN040 32/25 Q1004 NOSIG

2010/08/08 05:00
ZSHC 080500Z 09003MPS 040V160 9999 BKN025 32/21 Q1005 NOSIG

2010/08/08 05:00
ZSPD 080500Z 09005MPS 060V140 9999 BKN020 30/25 Q1006 NOSIG

2010/08/08 05:00
ZSSS 080500Z 13005MPS 090V160 9999 SCT040 32/21 Q1006 NOSIG

2010/08/08 05:00
ZWSH 080500Z 11002MPS 9000 BKN040 29/12 Q1010 NOSIG

2010/08/08 05:00
ZWWW 080500Z VRB01MPS CAVOK 27/10 Q1009 NOSIG

2010/08/08 05:00
ZYTL 080500Z 17005MPS 120V190 4000 TSRA BR BKN005 BKN033 SCT040CB 22/21 Q1006 NOSIG

2010/08/08 05:00
ZYTX 080500Z 27001MPS 6000 OVC023 23/22 Q1004 NOSIG

2010/08/08 04:50
PAWI 080450Z 05017G22KT 10SM FEW036 OVC047 08/06 A2976 RMK VIA PHONE

2010/08/08 05:02
KAST 080502Z AUTO 00000KT 3SM -RA BR OVC005 15/14 A2995

2010/08/08 05:00
ZGKL 080500Z VRB02MPS 8000 FEW036 33/23 Q1004 NOSIG

2010/08/08 05:00
ZGNN 080500Z VRB01MPS 9999 SCT026 SCT046 33/24 Q1004 NOSIG

2010/08/08 05:00
ZGOW 080500Z 13005MPS 9999 FEW033 32/24 Q1003 NOSIG

2010/08/08 05:00
ZGSZ 080500Z 06002MPS 360V120 9999 BKN033 FEW033TCU 33/23 Q1003 NOSIG

2010/08/08 05:00
ZLXY 080500Z VRB02MPS 3000 HZ SKC 32/22 Q1005 NOSIG

2010/08/08 05:00
ZMUB 080500Z 34009MPS 9999 BKN033 11/01 Q1013 NOSIG RMK QFE652.5 50

2010/08/08 05:00
ZPPP 080500Z VRB02MPS 9999 FEW026TCU SCT026 SCT050 25/15 Q1016 NOSIG

2010/08/08 05:00
ZSAM 080500Z 03005MPS 9999 BKN040 32/22 Q1003 NOSIG

2010/08/08 05:00
ZSFZ 080500Z 04010MPS 9999 FEW023 32/23 Q1004 NOSIG

2010/08/08 05:00
ZSNB 080500Z 15003MPS 110V200 9999 SCT030 33/20 Q1005 NOSIG

2010/08/08 05:00
ZSQD 080500Z 19007G12MPS 160V220 9999 SCT026 29/22 Q1006 NOSIG

2010/08/08 05:00
ZUUU 080500Z VRB01MPS 9999 FEW026 SCT026TCU 35/21 Q1005 NOSIG

2010/08/08 05:00
UGTB 080500Z 00000KT 9999 SKC 28/13 Q1016 NOSIG RMK 31CLRD80

2010/08/08 05:00
UGSB 080500Z 11013KT 9999 FEW023 27/18 Q1009 NOSIG= METAR UGKO METAR UGKO 080500Z 09006KT 9999 ST100 27/19 Q1011 NOSIG

2010/08/08 04:55
ETIH 080455Z AUTO 00000KT 9999 BKN130 09/09 A3007 RMK AO2 SLP176 T00930093 $

2010/08/08 05:00
LFBA 080500Z 28005KT 9999 FEW010 16/15 Q1020 TEMPO 7000 BKN010

2010/08/08 05:00
LFBE 080500Z 27005KT CAVOK 15/14 Q1020 NOSIG

2010/08/08 05:00
LFCR 080500Z AUTO 00000KT 9999NDV NSC 13/12 Q1020

2010/08/08 05:00
LFGJ 080500Z AUTO 11004KT 9999NDV NSC 15/13 Q1018

2010/08/08 05:00
LFKB 080500Z 20006KT 9999 FEW020 19/15 Q1017 NOSIG

2010/08/08 05:00
LFKC 080500Z 22006KT CAVOK 17/14 Q1018

2010/08/08 05:00
LFKF 080500Z AUTO 04002KT 9999NDV NCD 13/11 Q1018

2010/08/08 05:00
LFKJ 080500Z 03005KT CAVOK 16/13 Q1018 NOSIG

2010/08/08 05:00
LFLC 080500Z 01003KT 350V050 CAVOK 15/13 Q1019 NOSIG

2010/08/08 05:00
LFLN 080500Z AUTO 28004KT 9999NDV NSC 15/13 Q1019

2010/08/08 05:00
LFMD 080500Z AUTO 36004KT 320V030 9999NDV NSC 16/14 Q1017

2010/08/08 05:00
LFMH 080500Z 16002KT 9999 FEW050 15/12 Q1019 NOSIG

2010/08/08 05:00
LFMP 080500Z VRB02KT 9999 SCT060 21/14 Q1017 NOSIG

2010/08/08 05:00
LFMT 080500Z 34001KT CAVOK 17/13 Q1017 NOSIG

2010/08/08 05:00
LFMU 080500Z AUTO 29003KT 9999NDV NSC 16/13 Q1018

2010/08/08 05:00
LFOB 080500Z 27009KT 8000 OVC005 15/14 Q1018 NOSIG

2010/08/08 05:00
LFPM 080500Z 25004KT 9999 FEW013 14/13 Q1018

2010/08/08 05:00
LFPN 080500Z 28005KT 9999 SCT005 14/13 Q1019

2010/08/08 05:00
LFQB 080500Z 27004KT 9999 SCT038 BKN060 15/14 Q1017

2010/08/08 05:00
LFQG 080500Z 29003KT 9999 BKN046 15/15 Q1019

2010/08/08 05:00
LFRC 080500Z AUTO 32004KT 9999NDV FEW008 14/14 Q1020

2010/08/08 05:00
LFRH 080500Z 32004KT 9999 FEW026 11/10 Q1021

2010/08/08 05:00
LFRK 080500Z 25008KT 9999 FEW013 13/13 Q1019 NOSIG

2010/08/08 05:00
LFRM 080500Z VRB02KT 5000 FEW005 12/11 Q1020

2010/08/08 05:00
LFRQ 080500Z 32003KT CAVOK 13/12 Q1022 NOSIG

2010/08/08 05:00
LFRT 080500Z 29005KT 9999 BKN026 15/14 Q1021

2010/08/08 05:00
LFSL 080500Z AUTO 00000KT 9999NDV NSC 12/11 Q1020

2010/08/08 05:00
LFTW 080500Z AUTO 00000KT 9999NDV NSC 19/09 Q1017

2010/08/08 05:02
KAST 080502Z AUTO 00000KT 3SM -RA BR OVC005 15/14 A2995

2010/08/08 05:00
OIAG 080500Z 15010KT 9999 BKN040 38/12 Q0999 A2950

2010/08/08 05:00
OIAM 080500Z 13010KT 9999 SCT040 36/26 Q0997 A2946

2010/08/08 05:00
OICI 080500Z 19010KT 9999 FEW040 BKN100 33/02 Q1013 A2993 864.3

2010/08/08 05:00
OIKQ 080500Z 08018KT 7000 SKC 34/28 Q0999 A2951

2010/08/08 05:00
OINN 080500Z 00000KT CAVOK 30/19 Q1009 A2980

2010/08/08 05:00
OINR 080500Z 36006KT CAVOK 30/20 Q1008 A2979

2010/08/08 05:00
OISL 080500Z 00000KT CAVOK 30/08 Q1006 A2971

2010/08/08 05:00
OISY 080500Z 33004KT 9999 FEW045 BKN090 26/09 Q1020 A3014

2010/08/08 05:00
OITZ 080500Z 16006KT CAVOK 25/M02 Q1019 A3011

2010/08/08 04:59
K0R3 080459Z AUTO 00000KT 27/26 A2993 RMK AO2 PWINO

2010/08/08 05:00
K1A5 080500Z AUTO 00000KT 3SM BR 20/18 A3007 RMK AO2 SKY OBSCURED T01950181

2010/08/08 05:00
K2G4 080500Z AUTO 00000KT 10SM BKN060 18/10 A3012 RMK AO1

2010/08/08 05:02
K2W6 080502Z AUTO 00000KT 10SM CLR 20/17 A3001 RMK AO1

2010/08/08 05:00
K3A1 080500Z AUTO 00000KT 10SM CLR 22/22 A2997 RMK AO2 T02170218 TSNO

2010/08/08 05:00
K3J7 080500Z AUTO 00000KT 7SM CLR 25/23 A2994 RMK AO2 T02450230

2010/08/08 04:58
K4A9 080458Z AUTO 00000KT 10SM CLR 23/20 A2996 RMK AO2 T02250202

2010/08/08 05:00
K4R4 080500Z AUTO 00000KT 10SM CLR 28/25 A2992 RMK AO2 T02780248

2010/08/08 04:58
K8A0 080458Z AUTO 15003KT 10SM CLR 25/18 A2995 RMK AO2

2010/08/08 05:00
KACP 080500Z AUTO 00000KT 10SM CLR 27/26 A2992 RMK AO2

2010/08/08 05:00
KAFP 080500Z AUTO 00000KT 5SM BR CLR 24/23 A2998 RMK AO2 T02380231

2010/08/08 05:00
KALX 080500Z AUTO 00000KT 10SM CLR 26/23 A2995 RMK AO1

2010/08/08 05:02
KASJ 080502Z AUTO 00000KT 7SM CLR 21/19 A3000 RMK AO2

2010/08/08 05:00
KAYS 080500Z AUTO 00000KT 5SM BKN008 26/25 A2982 RMK AO1 LTG DSNT S

2010/08/08 05:02
KBGE 080502Z AUTO 00000KT 7SM CLR 24/23 A2992 RMK AO2

2010/08/08 05:00
KBQK 080500Z AUTO 00000KT M1/4SM VV000 25/24 A2993 RMK AO1 T02450241 PNO

2010/08/08 05:02
KCBE 080502Z AUTO 36003KT 10SM SCT090 20/16 A3007 RMK AO1

2010/08/08 05:00
KCCO 080500Z AUTO 00000KT 2 1/2SM CLR 23/22 A2998 RMK AO1

2010/08/08 05:00
KCDH 080500Z AUTO 00000KT 10SM CLR 25/24 A2989 RMK AO2

2010/08/08 05:00
KCGE 080500Z AUTO 00000KT 10SM CLR 20/20 A3001 RMK AO1

2010/08/08 05:05
KCGS 080505Z AUTO 00000KT 10SM BKN090 21/18 A3001 RMK AO1

2010/08/08 04:59
KCJR 080459Z AUTO 00000KT 10SM CLR 19/18 A3002 RMK AO2

2010/08/08 05:00
KCPC 080500Z AUTO 00000KT 1 1/2SM BR SCT001 24/24 A2995 RMK AO2 T02400237 403270225

2010/08/08 05:00
KCTJ 080500Z AUTO 00000KT 10SM CLR 24/23 A2998 RMK AO2 T02430233

2010/08/08 05:01
KCWF 080501Z AUTO 20003KT 10SM CLR 28/25 A2993 RMK AO2 PWINO

2010/08/08 05:00
KCWV 080500Z AUTO 00000KT 7SM CLR 26/26 A2994 RMK AO2 T02550256

2010/08/08 04:58
KDBN 080458Z AUTO 00000KT 4SM CLR 24/24 A2993 RMK AO1

2010/08/08 05:02
KFDK 080502Z AUTO 00000KT 10SM CLR 20/16 A3002 RMK AO2

2010/08/08 05:01
KDMW 080501Z AUTO 00000KT 10SM SCT070 BKN095 23/16 A3003 RMK AO2

2010/08/08 04:58
KDNN 080458Z AUTO 00000KT 10SM CLR 23/22 A2996 RMK AO2

2010/08/08 05:01
KDPL 080501Z AUTO 00000KT 3SM BR CLR 23/23 A2998 RMK AO2

2010/08/08 05:00
KDRI 080500Z AUTO 20003KT 10SM CLR 26/26 A2994 RMK AO2

2010/08/08 04:55
KEMV 080455Z AUTO 00000KT 10SM CLR 20/18 A3001 RMK AO2

2010/08/08 05:06
KESN 080506Z AUTO 00000KT 10SM CLR 21/20 A3004 RMK AO2

2010/08/08 05:00
KEYF 080500Z AUTO 00000KT 5SM BR CLR 24/23 A2996 RMK AO2 T02400232

2010/08/08 04:57
KEZF 080457Z AUTO 00000KT 10SM CLR 20/19 A2999 RMK AO2 T01980193

2010/08/08 05:00
KF24 080500Z AUTO 15004KT 10SM CLR 27/25 A2993 RMK AO2 LTG DSNT N T02720246

2010/08/08 05:00
KFFA 080500Z AUTO 00000KT 3SM BR CLR 24/24 A2998 RMK AO2 T02430236

2010/08/08 05:00
KFKN 080500Z AUTO 00000KT 10SM CLR 21/19 A3000 RMK AO1

2010/08/08 05:03
KFME 080503Z AUTO 00000KT 7SM BKN090 BKN110 16/16 A3002 RMK AO1

2010/08/08 04:55
KGHG 080455Z AUTO 00000KT 10SM CLR 15/14 A3004 RMK AO2

2010/08/08 05:00
KGWW 080500Z AUTO 00000KT 7SM CLR 23/22 A2998 RMK AO2 T02260220

2010/08/08 05:00
KHNZ 080500Z AUTO 00000KT 7SM SCT075 SCT090 22/20 A3001 RMK AO2 T02150198 403050202

2010/08/08 04:58
KHOE 080458Z AUTO 00000KT 5SM HZ SCT001 24/ A2995 RMK AO2 T0244

2010/08/08 05:00
KHSP 080500Z AUTO 19007KT 10SM SCT037 BKN047 BKN055 18/14 A3020 RMK AO2

2010/08/08 05:00
KHWY 080500Z AUTO 00000KT 10SM CLR 16/15 A3000 RMK AO2

2010/08/08 05:00
KIPJ 080500Z AUTO 00000KT 7SM SCT080 21/20 A3001 RMK AO2 T02100196 403110206

2010/08/08 05:00
KISO 080500Z AUTO 00000KT 4SM BR SCT011 25/24 A2998 RMK AO2 T02450236

2010/08/08 05:00
KIXA 080500Z AUTO 00000KT 2 1/2SM BR CLR 21/21 A2998 RMK AO2 T02120210

2010/08/08 05:00
KJES 080500Z AUTO 27004KT 1SM BR OVC002 24/24 A2993 RMK AO2 T02430243

2010/08/08 05:00
KJGG 080500Z AUTO 00000KT 7SM CLR 22/21 A3001 RMK AO1

2010/08/08 05:00
KJKA 080500Z AUTO 00000KT 10SM CLR 29/25 A2991 RMK AO2 LTG DSNT SW AND W T02900254

2010/08/08 05:00
KJYO 080500Z AUTO 25003KT 10SM CLR 21/16 A3001 RMK AO2

2010/08/08 05:00
KLDJ 080500Z AUTO 00000KT 7SM CLR 23/18 A3000 RMK AO2 T02250175 402860175

2010/08/08 05:00
KLHZ 080500Z AUTO 00000KT 5SM BR SCT080 23/21 A3000 RMK AO2 T02250210

2010/08/08 05:00
KLKU 080500Z AUTO 00000KT 10SM CLR 16/14 A3001 RMK AO2

2010/08/08 05:00
KLWB 080500Z AUTO 00000KT 10SM SCT046 BKN060 BKN065 18/16 A3010 RMK AO2

2010/08/08 05:00
KMGR 080500Z AUTO 06004KT 7SM CLR 26/24 A2995 RMK AO2

2010/08/08 05:01
KMLJ 080501Z AUTO 00000KT 3SM BR CLR 25/25 A2994 RMK AO2

2010/08/08 05:01
KMRN 080501Z AUTO 00000KT 7SM SCT060 22/21 A3008 RMK AO2

2010/08/08 05:03
KMTN 080503Z AUTO 00000KT 10SM CLR 21/18 A3001 RMK AO2

2010/08/08 05:02
KMWK 080502Z AUTO 00000KT 7SM CLR 21/18 A3003 RMK AO2

2010/08/08 05:01
KOCW 080501Z AUTO 00000KT 5SM CLR 26/21 A2999 RMK AO2

2010/08/08 05:00
KSIF 080500Z AUTO 00000KT 4SM BR CLR 19/19 A3002 RMK AO2 T01930191

2010/08/08 05:00
KSUT 080500Z AUTO 00000KT 7SM CLR 23/22 A2995 RMK AO2

2010/08/08 05:00
KSVH 080500Z AUTO 00000KT 5SM BR SCT080 21/21 A3001 RMK AO2 T02100211

2010/08/08 05:01
KTDF 080501Z AUTO 00000KT 20/20 A3002 RMK AO1

2010/08/08 05:00
KTMA 080500Z AUTO 00000KT 10SM SCT005 SCT008 25/24 A2994 RMK AO2 T02500242

2010/08/08 05:01
KTNB 080501Z AUTO 00000KT 1 3/4SM BR VV007 16/16 A3014 RMK AO2

2010/08/08 05:00
KTPF 080500Z AUTO 26003KT 10SM CLR 29/26 A2996 RMK AO2

2010/08/08 05:04
KTTA 080504Z AUTO 35003KT 5SM BR SCT060 SCT070 23/23 A2999 RMK AO2

2010/08/08 05:00
KUNV 080500Z AUTO 00000KT 10SM CLR 17/13 A3005 RMK AO2 T01650127

2010/08/08 04:58
KVUJ 080458Z AUTO 00000KT 7SM SCT046 BKN050 OVC090 23/22 A2999 RMK AO2

2010/08/08 05:02
KW29 080502Z AUTO 00000KT 10SM CLR 21/20 A3000 RMK AO1

2010/08/08 04:59
KW99 080459Z AUTO 00000KT 10SM SCT065 17/14 A3005 RMK AO2

2010/08/08 05:00
KW45 080500Z AUTO 00000KT 10SM BKN090 19/18 A3003 RMK AO2 T01870182

2010/08/08 05:00
KWDR 080500Z AUTO 00000KT 4SM CLR 25/23 A3002 RMK AO1

2010/08/08 05:00
K3I2 080500Z AUTO 00000KT 10SM CLR 16/16 A3002 RMK AO2

2010/08/08 05:00
KUXL 080500Z AUTO 00000KT 10SM SCT024 28/26 A2993 RMK AO2

2010/08/08 05:02
KBIJ 080502Z AUTO 00000KT 5SM HZ CLR 25/ A2992 RMK AO2

2010/08/08 05:02
KDQH 080502Z AUTO 00000KT 7SM BKN006 26/24 A2995 RMK AO1

2010/08/08 05:00
KGAO 080500Z AUTO 00000KT 10SM CLR 29/26 A2994 RMK AO2

2010/08/08 05:02
KHBI 080502Z AUTO 00000KT 10SM SCT060 22/20 A3003 RMK AO2

2010/08/08 05:02
KHQU 080502Z AUTO 00000KT 4SM CLR 24/22 A2999 RMK AO1

2010/08/08 05:00
KI16 080500Z AUTO 00000KT 5SM BR CLR 17/17 A3007 RMK AO2

2010/08/08 05:01
KIDI 080501Z AUTO 00000KT 10SM CLR 15/15 A3006 RMK AO2

2010/08/08 05:00
KIER 080500Z AUTO 00000KT 10SM CLR 26/26 A2990 RMK AO2 PWINO

2010/08/08 05:00
KJFZ 080500Z AUTO 00000KT 10SM CLR 20/17 A3008 RMK

2010/08/08 05:00
KJQF 080500Z AUTO 00000KT 5SM HZ CLR 23/20 A3000 RMK AO2 T02290201

2010/08/08 04:55
KLGC 080455Z AUTO 00000KT 10SM CLR 23/23 A2995 RMK AO1

2010/08/08 05:00
KLNP 080500Z AUTO 00000KT 10SM CLR 20/15 A3009 RMK AO1

2010/08/08 05:00
KLOM 080500Z AUTO 00000KT 10SM SCT070 18/17 A3001 RMK AO1 T01780166

2010/08/08 05:00
KMDQ 080500Z AUTO 00000KT 10SM CLR 23/22 A2995 RMK AO2 T02310215

2010/08/08 05:00
KMKJ 080500Z AUTO 00000KT 7SM BKN060 18/07 A3015 RMK AO1

2010/08/08 05:00
KMMU 080500Z AUTO 00000KT 10SM CLR 16/15 A3000 RMK AO2 T01550145

2010/08/08 05:00
KMQS 080500Z AUTO 00000KT 10SM FEW060 20/19 A3004 RMK AO2

2010/08/08 05:00
KMTV 080500Z AUTO 00000KT 3SM BR CLR 20/20 A3004 RMK AO2

2010/08/08 05:00
KOBE 080500Z AUTO 00000KT 10SM CLR 25/24 A2997 RMK AO2 LTG DSNT NW

2010/08/08 05:00
KOKV 080500Z AUTO 00000KT 10SM SCT100 20/16 A3002 RMK AO2 T02010159

2010/08/08 05:00
KOMH 080500Z AUTO 00000KT 10SM CLR 18/17 A3003 RMK AO2 T01810171

2010/08/08 05:00
KOPN 080500Z AUTO 00000KT 7SM CLR 26/25 A2997 RMK AO1

2010/08/08 05:00
KPCM 080500Z AUTO 19003KT 10SM CLR 28/26 A2998 RMK AO2

2010/08/08 05:00
KPSK 080500Z AUTO 00000KT 5SM HZ CLR 21/17 A3010 RMK AO2

2010/08/08 05:00
KRCZ 080500Z AUTO 00000KT 7SM SCT040 SCT050 24/23 A2998 RMK AO2 T02420231

2010/08/08 05:00
KRMN 080500Z AUTO 00000KT 7SM CLR 16/16 A3004 RMK AO2

2010/08/08 05:00
KSFQ 080500Z AUTO 00000KT 7SM OVC004 22/21 A3000 RMK AO2

2010/08/08 05:00
KSHD 080500Z AUTO 00000KT 10SM CLR 19/17 A3005 RMK AO2

2010/08/08 05:00
KTBR 080500Z AUTO 00000KT 4SM BR CLR 25/25 A2993 RMK AO2 T02470245

2010/08/08 05:00
KTVI 080500Z AUTO 23003KT 5SM BR CLR 25/25 A2993 RMK AO2 LTG DSNT SE T02500245

2010/08/08 04:55
KVAD 080455Z 00000KT 10SM CLR 25/25 A2994 RMK AO2A SLP137 T02500245 $

2010/08/08 04:56
KVDF 080456Z AUTO 00000KT 10SM CLR 27/26 A2996 RMK AO2

2010/08/08 05:00
KVDI 080500Z AUTO 00000KT 10SM CLR 25/24 A2994 RMK AO2

2010/08/08 05:00
KVJI 080500Z AUTO 00000KT 7SM CLR 21/19 A3007 RMK AO2 TSNO

2010/08/08 05:00
KW22 080500Z AUTO 00000KT 10SM FEW070 16/16 A3007 RMK AO2

2010/08/08 05:03
KIZG 080503Z AUTO 00000KT 2SM BR CLR 08/08 A3001 RMK AO2

2010/08/08 05:04
KCRE 080504Z AUTO 00000KT 1 3/4SM BR CLR 24/24 A2994 RMK AO2

2010/08/08 05:03
KM89 080503Z AUTO 00000KT 3SM -RA BR SCT002 BKN011 BKN085 25/24 A2990 RMK AO2 BKN V SCT LTG DSNT W AND NW TSE03 P0000

2010/08/08 05:04
KPHF 080504Z 09003KT 1 1/4SM BR FEW001 21/21 A3000 RMK AO2

2010/08/08 05:02
KAST 080502Z AUTO 00000KT 3SM -RA BR OVC005 15/14 A2995 RMK AO2 VIS 2 RWY 08 P0001

2010/08/08 04:50
EGEC 080450Z AUTO 30004KT 9999NDV // BKN011/// 12/11 Q1020

2010/08/08 04:50
EGPU 080450Z AUTO 27003KT 0650NDV FG NSC 08/08 Q1020

2010/08/08 05:00
NWWW 080500Z AUTO 15008KT 110V190 9999NDV BKN043/// 22/12 Q1016

2010/08/08 05:00
UBBN 080500Z 23004KT 9999 SCT100 29/12 Q1013 R14R/CLRD60 NOSIG RMK G/O QFE685

2010/08/08 04:55
ETIH 080455Z AUTO 00000KT 9999 BKN130 09/09 A3007 RMK AO2 SLP176 T00930093 $

2010/08/08 05:00
LFLD 080500Z 32004KT 260V360 9999 BKN033 17/15 Q1019

2010/08/08 05:00
LFLN 080500Z AUTO 28004KT 9999NDV NSC 15/13 Q1019

2010/08/08 05:00
LFLV 080500Z 00000KT 9999 SCT053 13/12 Q1019

2010/08/08 05:00
LFOW 080500Z 26005KT 9999 OVC004 15/15 Q1017 NOSIG

2010/08/08 05:00
LFPM 080500Z 25004KT 9999 FEW013 14/13 Q1018

2010/08/08 05:00
LFQB 080500Z 27004KT 9999 SCT038 BKN060 15/14 Q1017

2010/08/08 05:00
LFQG 080500Z 29003KT 9999 BKN046 15/15 Q1019

2010/08/08 05:00
LFRH 080500Z 32004KT 9999 FEW026 11/10 Q1021

2010/08/08 05:00
LFRI 080500Z 36004KT CAVOK 12/11 Q1021

2010/08/08 05:00
LFRM 080500Z VRB02KT 5000 FEW005 12/11 Q1020

2010/08/08 05:00
LFRQ 080500Z 32003KT CAVOK 13/12 Q1022 NOSIG

2010/08/08 05:00
LFRT 080500Z 29005KT 9999 BKN026 15/14 Q1021

2010/08/08 05:00
LFTW 080500Z AUTO 00000KT 9999NDV NSC 19/09 Q1017

2010/08/08 05:00
LFXA 080500Z VRB01KT CAVOK 15/12 Q1019

2010/08/08 04:50
LGAL 080450Z VRB02KT CAVOK 23/19 Q1010

2010/08/08 04:50
LGEL 080450Z 00000KT CAVOK 26/15 Q1009

2010/08/08 04:50
LGHI 080450Z 00000KT 9999 FEW008 24/18 Q1010

2010/08/08 04:50
LGKF 080450Z 33004KT 9999 FEW020 22/16 Q1012

2010/08/08 04:50
LGKL 080450Z 30007KT CAVOK 19/16 Q1010

2010/08/08 04:50
LGKV 080450Z 00000KT CAVOK 22/17 Q1009

2010/08/08 04:50
LGKZ 080450Z 00000KT CAVOK 21/12 Q1015

2010/08/08 04:50
LGMK 080450Z 00000KT CAVOK 24/23 Q1010

2010/08/08 04:50
LGMT 080450Z 00000KT CAVOK 26/19 Q1010

2010/08/08 04:50
LGSA 080450Z 27014KT CAVOK 25/17 Q1010

2010/08/08 04:50
LGZA 080450Z 00000KT CAVOK 20/14 Q1012

2010/08/08 05:00
LJLJ 080500Z VRB02KT 9999 FEW002 13/12 Q1019 NOSIG

2010/08/08 05:00
LJMB 080500Z 00000KT CAVOK 13/13 Q1018

2010/08/08 05:00
LJPZ 080500Z 12007KT CAVOK 16/13 Q1017

2010/08/08 05:00
VHHH 080500Z 12011KT 090V150 9999 FEW025 SCT035 33/24 Q1003 NOSIG

2010/08/08 05:00
RCTP 080500Z 02021KT 9999 FEW020 SCT040 BKN150 33/26 Q1002 NOSIG

2010/08/08 05:00
RCKH 080500Z 24010KT 190V270 9999 FEW018 BKN120 32/27 Q1001 NOSIG

2010/08/08 05:00
RCSS 080500Z 08010KT 040V110 9999 FEW020 SCT025 BKN050 31/24 Q1002 NOSIG

2010/08/08 05:00
VMMC 080500Z 05006KT 320V160 9999 FEW012 SCT025 BKN080 31/26 Q1003 NOSIG

2010/08/08 05:00
RPLL 080500Z 24010KT 9000 SCT023 BKN090 30/25 Q1006 RERA RMK A2971

2010/08/08 05:00
RPVM 080500Z 20006KT 9999 FEW020 OVC250 32/25 Q1008 A2979

2010/08/08 05:00
RPMD 080500Z 18004KT 9999 FEW015CB BKN090 BKN290 31/26 Q1008 CB E

2010/08/08 05:00
RPLB 080500Z 23018KT 7000 -RA SCT018 OVC080 29/25 Q1006 LGT RA CONTUS

2010/08/08 05:00
RPLI 080500Z 18006KT 500 RA SCT020 OVC100 25/25 Q1004 RERA

2010/08/08 05:00
RPMZ 080500Z 00000KT 9999 FEW018CB BKN120 32/26 Q1010 CB N SE

2010/08/08 05:00
RPLL 080500Z 24010KT 9000 SCT023 BKN090 30/25 Q1006 RERA RMK A2971

2010/08/08 05:00
RPLB 080500Z 23018KT 7000 -RA SCT018 OVC080 29/25 Q1006 LGT RA CONTUS

2010/08/08 05:00
RPVM 080500Z 20006KT 9999 FEW020 OVC250 32/25 Q1008 A2979

2010/08/08 05:00
RPMZ 080500Z 00000KT 9999 FEW018CB BKN120 32/26 Q1010 CB N SE

2010/08/08 05:00
WSSS 080500Z 20007KT 150V250 9999 FEW020TCU SCT022 BKN300 31/25 Q1010 NOSIG

2010/08/08 04:56
PKMR 080456Z 07006KT 20SM FEW016 SCT300 31/25 A2976 RMK SLP080 T03080245

2010/08/08 04:55
KCLS 080455Z AUTO 00000KT 10SM OVC050 17/15 A2995 RMK AO2

2010/08/08 04:59
K0R3 080459Z AUTO 00000KT 27/26 A2993 RMK AO2 PWINO

2010/08/08 05:00
K1A5 080500Z AUTO 00000KT 3SM BR 20/18 A3007 RMK AO2 SKY OBSCURED T01950181

2010/08/08 05:00
K2G4 080500Z AUTO 00000KT 10SM BKN060 18/10 A3012 RMK AO1

2010/08/08 05:00
K3A1 080500Z AUTO 00000KT 10SM CLR 22/22 A2997 RMK AO2 T02170218 TSNO

2010/08/08 05:00
K3J7 080500Z AUTO 00000KT 7SM CLR 25/23 A2994 RMK AO2 T02450230

2010/08/08 04:58
K4A9 080458Z AUTO 00000KT 10SM CLR 23/20 A2996 RMK AO2 T02250202

2010/08/08 05:00
K4R4 080500Z AUTO 00000KT 10SM CLR 28/25 A2992 RMK AO2 T02780248

2010/08/08 04:58
K8A0 080458Z AUTO 15003KT 10SM CLR 25/18 A2995 RMK AO2

2010/08/08 05:00
KACP 080500Z AUTO 00000KT 10SM CLR 27/26 A2992 RMK AO2

2010/08/08 05:00
KAFP 080500Z AUTO 00000KT 5SM BR CLR 24/23 A2998 RMK AO2 T02380231

2010/08/08 05:00
KALX 080500Z AUTO 00000KT 10SM CLR 26/23 A2995 RMK AO1

2010/08/08 05:00
KBQK 080500Z AUTO 00000KT M1/4SM VV000 25/24 A2993 RMK AO1 T02450241 PNO

2010/08/08 05:00
KCCO 080500Z AUTO 00000KT 2 1/2SM CLR 23/22 A2998 RMK AO1

2010/08/08 05:00
KCDH 080500Z AUTO 00000KT 10SM CLR 25/24 A2989 RMK AO2

2010/08/08 04:59
KCJR 080459Z AUTO 00000KT 10SM CLR 19/18 A3002 RMK AO2

2010/08/08 05:00
KCPC 080500Z AUTO 00000KT 1 1/2SM BR SCT001 24/24 A2995 RMK AO2 T02400237 403270225

2010/08/08 05:00
KCTJ 080500Z AUTO 00000KT 10SM CLR 24/23 A2998 RMK AO2 T02430233

2010/08/08 05:00
KCWV 080500Z AUTO 00000KT 7SM CLR 26/26 A2994 RMK AO2 T02550256

2010/08/08 04:58
KDNN 080458Z AUTO 00000KT 10SM CLR 23/22 A2996 RMK AO2

2010/08/08 05:00
KDRI 080500Z AUTO 20003KT 10SM CLR 26/26 A2994 RMK AO2

2010/08/08 04:55
KEMV 080455Z AUTO 00000KT 10SM CLR 20/18 A3001 RMK AO2

2010/08/08 05:00
KEYF 080500Z AUTO 00000KT 5SM BR CLR 24/23 A2996 RMK AO2 T02400232

2010/08/08 04:57
KEZF 080457Z AUTO 00000KT 10SM CLR 20/19 A2999 RMK AO2 T01980193

2010/08/08 05:00
KF24 080500Z AUTO 15004KT 10SM CLR 27/25 A2993 RMK AO2 LTG DSNT N T02720246

2010/08/08 05:00
KFFA 080500Z AUTO 00000KT 3SM BR CLR 24/24 A2998 RMK AO2 T02430236

2010/08/08 05:00
KFKN 080500Z AUTO 00000KT 10SM CLR 21/19 A3000 RMK AO1

2010/08/08 04:55
KGHG 080455Z AUTO 00000KT 10SM CLR 15/14 A3004 RMK AO2

2010/08/08 05:00
KGWW 080500Z AUTO 00000KT 7SM CLR 23/22 A2998 RMK AO2 T02260220

2010/08/08 05:00
KHNZ 080500Z AUTO 00000KT 7SM SCT075 SCT090 22/20 A3001 RMK AO2 T02150198 403050202

2010/08/08 04:58
KHOE 080458Z AUTO 00000KT 5SM HZ SCT001 24/ A2995 RMK AO2 T0244

2010/08/08 05:00
KHSP 080500Z AUTO 19007KT 10SM SCT037 BKN047 BKN055 18/14 A3020 RMK AO2

2010/08/08 05:00
KHWY 080500Z AUTO 00000KT 10SM CLR 16/15 A3000 RMK AO2

2010/08/08 05:00
KIPJ 080500Z AUTO 00000KT 7SM SCT080 21/20 A3001 RMK AO2 T02100196 403110206

2010/08/08 05:00
KISO 080500Z AUTO 00000KT 4SM BR SCT011 25/24 A2998 RMK AO2 T02450236

2010/08/08 05:00
KIXA 080500Z AUTO 00000KT 2 1/2SM BR CLR 21/21 A2998 RMK AO2 T02120210

2010/08/08 05:00
KJES 080500Z AUTO 27004KT 1SM BR OVC002 24/24 A2993 RMK AO2 T02430243

2010/08/08 05:00
KJGG 080500Z AUTO 00000KT 7SM CLR 22/21 A3001 RMK AO1

2010/08/08 05:00
KJKA 080500Z AUTO 00000KT 10SM CLR 29/25 A2991 RMK AO2 LTG DSNT SW AND W T02900254

2010/08/08 05:00
KJYO 080500Z AUTO 25003KT 10SM CLR 21/16 A3001 RMK AO2

2010/08/08 05:00
KLDJ 080500Z AUTO 00000KT 7SM CLR 23/18 A3000 RMK AO2 T02250175 402860175

2010/08/08 05:00
KLHZ 080500Z AUTO 00000KT 5SM BR SCT080 23/21 A3000 RMK AO2 T02250210

2010/08/08 05:00
KLKU 080500Z AUTO 00000KT 10SM CLR 16/14 A3001 RMK AO2

2010/08/08 05:00
KLWB 080500Z AUTO 00000KT 10SM SCT046 BKN060 BKN065 18/16 A3010 RMK AO2

2010/08/08 05:00
KMGR 080500Z AUTO 06004KT 7SM CLR 26/24 A2995 RMK AO2

2010/08/08 05:00
KSIF 080500Z AUTO 00000KT 4SM BR CLR 19/19 A3002 RMK AO2 T01930191

2010/08/08 05:00
KSUT 080500Z AUTO 00000KT 7SM CLR 23/22 A2995 RMK AO2

2010/08/08 05:00
KSVH 080500Z AUTO 00000KT 5SM BR SCT080 21/21 A3001 RMK AO2 T02100211

2010/08/08 05:00
KTMA 080500Z AUTO 00000KT 10SM SCT005 SCT008 25/24 A2994 RMK AO2 T02500242

2010/08/08 05:00
KTPF 080500Z AUTO 26003KT 10SM CLR 29/26 A2996 RMK AO2

2010/08/08 05:00
KUNV 080500Z AUTO 00000KT 10SM CLR 17/13 A3005 RMK AO2 T01650127

2010/08/08 05:02
KCBE 080502Z AUTO 36003KT 10SM SCT090 20/16 A3007 RMK AO1

2010/08/08 05:06
KESN 080506Z AUTO 00000KT 10SM CLR 21/20 A3004 RMK AO2

2010/08/08 05:15
KFDW 080515Z AUTO 05004KT 10SM CLR 26/21 A2997 RMK AO1

2010/08/08 05:02
K2W6 080502Z AUTO 00000KT 10SM CLR 20/17 A3001 RMK AO1

2010/08/08 05:02
KASJ 080502Z AUTO 00000KT 7SM CLR 21/19 A3000 RMK AO2

2010/08/08 05:02
KBGE 080502Z AUTO 00000KT 7SM CLR 24/23 A2992 RMK AO2

2010/08/08 05:05
KCGS 080505Z AUTO 00000KT 10SM BKN090 21/18 A3001 RMK AO1

2010/08/08 05:01
KCWF 080501Z AUTO 20003KT 10SM CLR 28/25 A2993 RMK AO2 PWINO

2010/08/08 05:02
KFDK 080502Z AUTO 00000KT 10SM CLR 20/16 A3002 RMK AO2

2010/08/08 05:01
KDPL 080501Z AUTO 00000KT 3SM BR CLR 23/23 A2998 RMK AO2

2010/08/08 05:01
KMLJ 080501Z AUTO 00000KT 3SM BR CLR 25/25 A2994 RMK AO2

2010/08/08 05:01
KMRN 080501Z AUTO 00000KT 7SM SCT060 22/21 A3008 RMK AO2

2010/08/08 05:03
KMTN 080503Z AUTO 00000KT 10SM CLR 21/18 A3001 RMK AO2

2010/08/08 05:02
KMWK 080502Z AUTO 00000KT 7SM CLR 21/18 A3003 RMK AO2

2010/08/08 05:01
KOCW 080501Z AUTO 00000KT 5SM CLR 26/21 A2999 RMK AO2

2010/08/08 05:01
KTDF 080501Z AUTO 00000KT 20/20 A3002 RMK AO1

2010/08/08 05:01
KTNB 080501Z AUTO 00000KT 1 3/4SM BR VV007 16/16 A3014 RMK AO2

2010/08/08 05:04
KTTA 080504Z AUTO 35003KT 5SM BR SCT060 SCT070 23/23 A2999 RMK AO2

2010/08/08 05:02
KW29 080502Z AUTO 00000KT 10SM CLR 21/20 A3000 RMK AO1

2010/08/08 05:02
KBIJ 080502Z AUTO 00000KT 5SM HZ CLR 25/ A2992 RMK AO2

2010/08/08 05:02
KDQH 080502Z AUTO 00000KT 7SM BKN006 26/24 A2995 RMK AO1

2010/08/08 05:02
KHBI 080502Z AUTO 00000KT 10SM SCT060 22/20 A3003 RMK AO2

2010/08/08 05:02
KHQU 080502Z AUTO 00000KT 4SM CLR 24/22 A2999 RMK AO1

2010/08/08 05:01
KIDI 080501Z AUTO 00000KT 10SM CLR 15/15 A3006 RMK AO2

2010/08/08 04:55
KHUA 080455Z AUTO RMK AO2 SLPNO PWINO PNO TSNO $

2010/08/08 05:00
KNEL 080500Z AUTO 00000KT 10SM CLR 19/17 A3001 RMK AO2 SLP161 T01940172 401940194 $

2010/08/08 04:59
KNGU 080459Z 07003KT 9SM SCT007 25/23 A3000 RMK AO2 SLP160 T02500233 403000239 $

2010/08/08 04:55
KNYL 080455Z 16009KT 10SM CLR 32/12 A2970 RMK AO2 SLP053 T03170122

2010/08/08 04:55
KVAD 080455Z 00000KT 10SM CLR 25/25 A2994 RMK AO2A SLP137 T02500245 $

2010/08/08 05:00
KNEL 080500Z AUTO 00000KT 10SM CLR 19/17 A3001 RMK AO2 SLP161 T01940172 401940194 $

2010/08/08 04:56
KNFL 080456Z AUTO 26003KT 10SM CLR 25/03 A2984 RMK AO2 SLP082 T02500028 TSNO

2010/08/08 04:59
KNGU 080459Z 07003KT 9SM SCT007 25/23 A3000 RMK AO2 SLP160 T02500233 403000239 $

2010/08/08 04:56
KNID 080456Z AUTO 18010KT CLR 27/02 A2978 RMK AO2 SLP063 T02720017 TSNO $

2010/08/08 04:56
KNLC 080456Z AUTO 32010KT 10SM CLR 25/11 A2975 RMK AO2 SLP074 T02500111 TSNO $

2010/08/08 04:56
KNTD 080456Z 28004KT 8SM OVC009 15/13 A2988 RMK AO2 SLP120 T01500133 $

2010/08/08 04:55
KNYL 080455Z 16009KT 10SM CLR 32/12 A2970 RMK AO2 SLP053 T03170122

2010/08/08 04:52
KNZY 080452Z 21004KT 10SM BKN018 18/12 A2991 RMK AO2 SLP128 T01830122 $

2010/08/08 04:55
KTBN 080455Z AUTO 14005KT 10SM CLR 23/ A2995 RMK AO2 SLP121 T0231 $

2010/08/08 04:55
KVAD 080455Z 00000KT 10SM CLR 25/25 A2994 RMK AO2A SLP137 T02500245 $

2010/08/08 04:56
KNBC 080456Z AUTO 00000KT 7SM CLR 26/24 A2992 RMK AO2 SLP134 T02560239 403170239

2010/08/08 04:59
KNGU 080459Z 07003KT 9SM SCT007 25/23 A3000 RMK AO2 SLP160 T02500233 403000239 $

2010/08/08 04:57
KNJM 080457Z AUTO 05003KT 10SM CLR 26/24 A2996 RMK AO2 SLP149 T02560239 403000228

2010/08/08 04:55
KVAD 080455Z 00000KT 10SM CLR 25/25 A2994 RMK AO2A SLP137 T02500245 $

2010/08/08 04:55
KVAD 080455Z 00000KT 10SM CLR 25/25 A2994 RMK AO2A SLP137 T02500245 $

2010/08/08 05:00
KAYS 080500Z AUTO 00000KT 5SM BKN008 26/25 A2982 RMK AO1 LTG DSNT S

2010/08/08 04:58
KDBN 080458Z AUTO 00000KT 4SM CLR 24/24 A2993 RMK AO1

2010/08/08 05:00
KJQF 080500Z AUTO 00000KT 5SM HZ CLR 23/20 A3000 RMK AO2 T02290201

2010/08/08 05:00
SAWG 080500Z 32022G32KT CAVOK 06/M05 Q0997

2010/08/08 05:00
MROC 080500Z 23003KT 0500 FG BKN001 20/20 A3009 TEMPO 1200 BR

2010/08/08 05:00
FALA 080500Z 00000KT 4000 BR NSC 06/03 Q1027 BECMG 7000

2010/08/08 05:00
FBFT 080500Z VRB01KT CAVOK 06/03 Q1026

2010/08/08 05:00
FBKE 080500Z /////KT CAVOK 13/06 Q1023

2010/08/08 05:00
FBMN 080500Z 11005KT CAVOK 12/03 Q1024

2010/08/08 05:00
FBSK 080500Z 16006KT CAVOK 06/04 Q1026 NOSIG

2010/08/08 05:00
FYWB 080500Z AUTO 05002KT //// // ////// 11/10 Q1021

2010/08/08 05:00
FYWH 080500Z AUTO 27002KT //// // ////// 09/M04 Q1027

2010/08/08 05:02
KDTS 080502Z AUTO 00000KT 10SM VCTS CLR 28/23 A2990 RMK AO2 LTG DSNT S AND SW TSB0456

2010/08/08 05:03
KNPA 080503Z AUTO 00000KT 10SM CLR 26/24 A2990 RMK AO2 TSE0457

2010/08/08 05:02
KDTS 080502Z AUTO 00000KT 10SM VCTS CLR 28/23 A2990 RMK AO2 LTG DSNT S AND SW TSB0456

2010/08/08 05:02
KFAF 080502Z AUTO 11003KT 10SM CLR 24/24 A2999 RMK AO2 DZE0502 SLP156 $

2010/08/08 05:00
KNRB 080500Z AUTO 00000KT 10SM SCT029 BKN038 BKN047 26/23 A2994 RMK AO2

2010/08/08 05:00
FMNM 080500Z 22004KT 9999 FEW040 SCT100 24/14 Q1019

2010/08/08 05:00
FOOL 080500Z 16006KT 130V190 9999 SCT008 OVC033 24/22 Q1014 NOSIG

2010/08/08 05:00
GOOY 080500Z VRB03KT 9999 SCT013 27/22 Q1011 NOSIG

2010/08/08 05:00
UBBY 080500Z VRB02KT 9999 FEW100 26/15 Q1016 NOSIG RMK R33/CLRD70 G/O

2010/08/08 05:00
SAVC 080500Z 32006KT CAVOK 08/M02 Q1015

2010/08/08 05:00
SAEZ 080500Z 14002KT 0100 R11/0150N RMID/0150N R29/0150N FG SCT007 02/02 Q1022

2010/08/08 04:56
KNXF 080456Z AUTO 00000KT 10SM OVC015 17/12 A2992 RMK AO2 SLP215 T01670122 TSNO

2010/08/08 05:02
KAST 080502Z AUTO 00000KT 3SM -RA BR OVC005 15/14 A2995 RMK AO2 VIS 2 RWY 08 P0001

2010/08/08 05:02
KDLH 080502Z 08003KT 5SM -TSRA BR SCT004 BKN019 OVC044CB 17/16 A2973 RMK AO2 FRQ LTGICCC NE-SE TS NE-SE MOV E P0000 PNO $

2010/08/08 05:00
OEDF 080500Z 12002KT CAVOK 36/12 Q0999 NOSIG

2010/08/08 05:00
OEDR 080500Z 28004KT 8000 SKC 37/18 Q0997 NOSIG

2010/08/08 05:00
OEJN 080500Z 14004KT CAVOK 33/26 Q1001 NOSIG

2010/08/08 05:00
OEMA 080500Z 00000KT CAVOK 36/02 Q1007 NOSIG

2010/08/08 05:00
OERK 080500Z 32004KT CAVOK 34/05 Q1006 NOSIG

2010/08/08 05:00
FMNA 080500Z 160//KT 9999 FEW013 24/14 Q1017

2010/08/08 05:00
FMSD 080500Z 08012KT 5000 -RA SCT017 BKN033 19/19 Q1026

2010/08/08 05:00
FMMT 080500Z 24006KT 9999 VCSH FEW017 SCT033 20/18 Q1023

2010/08/08 05:00
FMMI 080500Z 15009KT 110V180 9999 FEW010 SCT016 BKN020 13/11 Q1027 NOSIG

2010/08/08 05:00
MROC 080500Z 23003KT 0500 FG BKN001 20/20 A3009 TEMPO 1200 BR

2010/08/08 04:58
KVUJ 080458Z AUTO 00000KT 7SM SCT046 BKN050 OVC090 23/22 A2999 RMK AO2

2010/08/08 04:59
KW99 080459Z AUTO 00000KT 10SM SCT065 17/14 A3005 RMK AO2

2010/08/08 04:56
KOSC 080456Z AUTO 21004KT 10SM CLR 19/17 A2985 RMK AO2

2010/08/08 05:00
KW45 080500Z AUTO 00000KT 10SM BKN090 19/18 A3003 RMK AO2 T01870182

2010/08/08 05:00
KWDR 080500Z AUTO 00000KT 4SM CLR 25/23 A3002 RMK AO1

2010/08/08 05:00
K3I2 080500Z AUTO 00000KT 10SM CLR 16/16 A3002 RMK AO2

2010/08/08 05:00
KUXL 080500Z AUTO 00000KT 10SM SCT024 28/26 A2993 RMK AO2

2010/08/08 05:00
KGAO 080500Z AUTO 00000KT 10SM CLR 29/26 A2994 RMK AO2

2010/08/08 05:00
KI16 080500Z AUTO 00000KT 5SM BR CLR 17/17 A3007 RMK AO2

2010/08/08 05:00
KIER 080500Z AUTO 00000KT 10SM CLR 26/26 A2990 RMK AO2 PWINO

2010/08/08 05:00
KJFZ 080500Z AUTO 00000KT 10SM CLR 20/17 A3008 RMK

2010/08/08 04:55
KLGC 080455Z AUTO 00000KT 10SM CLR 23/23 A2995 RMK AO1

2010/08/08 05:00
KLNP 080500Z AUTO 00000KT 10SM CLR 20/15 A3009 RMK AO1

2010/08/08 05:00
KLOM 080500Z AUTO 00000KT 10SM SCT070 18/17 A3001 RMK AO1 T01780166

2010/08/08 05:00
KMDQ 080500Z AUTO 00000KT 10SM CLR 23/22 A2995 RMK AO2 T02310215

2010/08/08 05:00
KMKJ 080500Z AUTO 00000KT 7SM BKN060 18/07 A3015 RMK AO1

2010/08/08 05:00
KMMU 080500Z AUTO 00000KT 10SM CLR 16/15 A3000 RMK AO2 T01550145

2010/08/08 05:00
KMQS 080500Z AUTO 00000KT 10SM FEW060 20/19 A3004 RMK AO2

2010/08/08 05:00
KMTV 080500Z AUTO 00000KT 3SM BR CLR 20/20 A3004 RMK AO2

2010/08/08 05:00
KOBE 080500Z AUTO 00000KT 10SM CLR 25/24 A2997 RMK AO2 LTG DSNT NW

2010/08/08 05:00
KOKV 080500Z AUTO 00000KT 10SM SCT100 20/16 A3002 RMK AO2 T02010159

2010/08/08 05:00
KOMH 080500Z AUTO 00000KT 10SM CLR 18/17 A3003 RMK AO2 T01810171

2010/08/08 05:00
KOPN 080500Z AUTO 00000KT 7SM CLR 26/25 A2997 RMK AO1

2010/08/08 05:00
KPCM 080500Z AUTO 19003KT 10SM CLR 28/26 A2998 RMK AO2

2010/08/08 05:00
KPSK 080500Z AUTO 00000KT 5SM HZ CLR 21/17 A3010 RMK AO2

2010/08/08 05:00
KRCZ 080500Z AUTO 00000KT 7SM SCT040 SCT050 24/23 A2998 RMK AO2 T02420231

2010/08/08 05:00
KRMN 080500Z AUTO 00000KT 7SM CLR 16/16 A3004 RMK AO2

2010/08/08 05:00
KSFQ 080500Z AUTO 00000KT 7SM OVC004 22/21 A3000 RMK AO2

2010/08/08 05:00
KSHD 080500Z AUTO 00000KT 10SM CLR 19/17 A3005 RMK AO2

2010/08/08 05:00
KTBR 080500Z AUTO 00000KT 4SM BR CLR 25/25 A2993 RMK AO2 T02470245

2010/08/08 05:00
KTVI 080500Z AUTO 23003KT 5SM BR CLR 25/25 A2993 RMK AO2 LTG DSNT SE T02500245

2010/08/08 04:56
KVDF 080456Z AUTO 00000KT 10SM CLR 27/26 A2996 RMK AO2

2010/08/08 05:00
KVDI 080500Z AUTO 00000KT 10SM CLR 25/24 A2994 RMK AO2

2010/08/08 05:00
KVJI 080500Z AUTO 00000KT 7SM CLR 21/19 A3007 RMK AO2 TSNO

2010/08/08 05:00
KW22 080500Z AUTO 00000KT 10SM FEW070 16/16 A3007 RMK AO2

2010/08/08 05:00
DIAP 080500Z 24004KT 8000 FEW006 BKN012 25/24 Q1014 BECMG SCT012 BKN070

2010/08/08 05:00
DNMM 080500Z 25009KT 8000 SCT010 25/24 Q1014 NOSIG

2010/08/08 05:00
DXXX 080500Z 22007KT 8000 BKN008 BKN090 25/24 Q1013 NOSIG

2010/08/08 05:00
SPHI 080500Z 17012KT CAVOK 15/12 Q1012 RMK PP000

2010/08/08 05:00
SPIM 080500Z 17006KT 7000 SCT007 OVC013 14/12 Q1016 NOSIG RMK PP000

2010/08/08 05:00
SPQT 080500Z /////KT 5000 HZ FEW030 23/22 Q1014 TEMPO 2000 BR RMK PP000

2010/08/08 05:00
SPQU 080500Z 01005KT CAVOK 12/M11 Q1027 RMK PP000

2010/08/08 05:00
SPRU 080500Z 16008KT 6000 OVC011 15/12 Q1015 RMK BR BIRDS HAZARD RWY20 PP000

2010/08/08 05:00
SPSO 080500Z 08005KT 8000 SKC 12/10 Q1015 RMK PP000

2010/08/08 05:00
SPTN 080500Z VRB01KT 7000 OVC012 11/08 Q1015 RMK PP000

2010/08/08 05:00
HKJK 080500Z 19003KT 9999 SCT017 BKN080 15/14 Q1023 NOSIG

2010/08/08 05:00
HRYR 080500Z 00000KT CAVOK 17/13 Q1021 NOSIG

2010/08/08 05:00
SACO 080500Z 23003KT CAVOK 03/M01 Q1023

2010/08/08 05:00
SAME 080500Z 00000KT CAVOK 06/M02 Q1022

2010/08/08 04:53
PABR 080453Z 07018KT 3SM -RA BR OVC005 04/04 A2985

2010/08/08 04:53
PACD 080453Z AUTO 15025G31KT 7SM -RA OVC003 11/11 A2972

2010/08/08 04:55
PAED 080455Z 22007KT 10SM FEW011 BKN047 OVC055 12/11 A2975

2010/08/08 04:55
PAEI 080455Z AUTO 00000KT 10SM CLR 16/11 A2966

2010/08/08 04:53
PAEN 080453Z 20011KT 10SM OVC060 14/11 A2975

2010/08/08 04:53
PAFA 080453Z 00000KT 10SM FEW045 SCT085 BKN130 16/13 A2965

2010/08/08 04:56
PAFS 080456Z AUTO 00000KT 10SM FEW036 SCT080 12/10 A2971

2010/08/08 04:53
PAJN 080453Z 06006KT 2SM -RA BR FEW005 BKN020 OVC031 12/11 A2985

2010/08/08 04:54
PAKN 080454Z 21005KT 10SM BKN012 BKN045 11/09 A2978

2010/08/08 04:53
PAKT 080453Z 00000KT 10SM FEW012 BKN021 OVC033 14/12 A2990

2010/08/08 04:53
PANC 080453Z 20004KT 10SM -RA FEW011 BKN040 OVC055 12/11 A2975

2010/08/08 04:53
PAOM 080453Z 24007KT 10SM BKN009 OVC020 13/11 A2959

2010/08/08 04:53
PAOR 080453Z AUTO 25004KT 10SM SCT050 BKN080 14/09 A2966

2010/08/08 04:53
PAOT 080453Z 29014G21KT 10SM FEW003 BKN040 BKN080 OVC180 11/10 A2957

2010/08/08 04:56
PARY 080456Z AUTO 20007KT 10SM BKN035 OVC043 13/11 A2965

2010/08/08 04:53
PASC 080453Z 07021KT 10SM OVC005 04/03 A2975

2010/08/08 04:53
PASI 080453Z 21004KT 10SM BKN012 OVC017 13/12 A2988

2010/08/08 04:56
PATQ 080456Z AUTO 06018KT 10SM -RA OVC009 06/04 A2977

2010/08/08 04:56
PAVD 080456Z 00000KT 10SM FEW010 SCT030 OVC040 11/08 A2979

2010/08/08 04:56
PAWG 080456Z 00000KT 2SM SCT013 OVC023 12/11 A2989

2010/08/08 05:00
FLLS 080500Z 11004KT CAVOK 10/10 Q1024

2010/08/08 05:00
FNLU 080500Z 00000KT 9999 FEW020 BKN028 20/19 Q1014 NSG

2010/08/08 05:00
FQBR 080500Z 24007KT 9999 FEW019 BKN080 21/20 Q1020

2010/08/08 05:00
FQMA 080500Z 00000KT 3000 BR NSC 14/13 Q1021 NOSIG

2010/08/08 05:00
FVHA 080500Z 10004KT 8000 SKC 09/05 Q1026 NOSIG

2010/08/08 05:00
GCFV 080500Z 01013KT 9999 FEW025 22/17 Q1012

2010/08/08 05:00
GCLP 080500Z 01018KT 9999 FEW020 21/15 Q1011 NOSIG

2010/08/08 05:00
GCRR 080500Z 34017KT 9999 FEW015 22/18 Q1012

2010/08/08 05:00
GCTS 080500Z 02003KT 9999 FEW020 20/16 Q1014 NOSIG

2010/08/08 05:00
GCXO 080500Z 30016KT 9999 BKN010 16/14 Q1016 NOSIG

2010/08/08 05:00
GEML 080500Z 09002KT 8000 FEW010 SCT025 24/22 Q1017

2010/08/08 05:02
KBML 080502Z AUTO 00000KT 1SM BR BKN001 06/05 A3003 RMK AO2

2010/08/08 05:03
KIZG 080503Z AUTO 00000KT 2SM BR CLR 08/08 A3001 RMK AO2

2010/08/08 05:04
KCRE 080504Z AUTO 00000KT 1 3/4SM BR CLR 24/24 A2994 RMK AO2

2010/08/08 05:03
KM89 080503Z AUTO 00000KT 3SM -RA BR SCT002 BKN011 BKN085 25/24 A2990 RMK AO2 BKN V SCT LTG DSNT W AND NW TSE03 P0000

2010/08/08 05:04
KPHF 080504Z 09003KT 1 1/4SM BR FEW001 21/21 A3000 RMK AO2

2010/08/08 05:00
SARI 080500Z 05006KT CAVOK 15/14 Q1018

2010/08/08 05:00
MROC 080500Z 23003KT 0500 FG BKN001 20/20 A3009 TEMPO 1200 BR

2010/08/08 05:00
HECA 080500Z 03009KT 6000 NSC 26/21 Q1011 NOSIG

2010/08/08 04:50
HLLB 080450Z 36007KT 9999 SCT015 21/18 Q1014

2010/08/08 04:50
HLLT 080450Z 13002KT CAVOK 23/15 Q1016

2010/08/08 05:00
HSSS 080500Z 25019KT 4000MSA 26/21 Q1009

2010/08/08 05:00
OJAI 080500Z 00000KT CAVOK 25/12 Q1013 NOSIG

2010/08/08 05:00
OJAM 080500Z 00000KT 3500 FU NSC 28/04 Q1013 NOSIG

2010/08/08 05:00
OLBA 080500Z 24004KT 8000 SCT026 28/23 Q1011 NOSIG

2010/08/08 05:00
MKJP 080500Z 14002KT 9999 FEW022 BKN240 28/20 Q1014

2010/08/08 05:00
SPME 080500Z 26004KT 9999 OVC020 23/22 Q1014 RMK BIRD HAZARD RWY 32/14 PP000

2010/08/08 05:00
MKJS 080500Z 15004KT 9999 FEW024CB 28/23 Q1014

2010/08/08 05:00
GQNN 080500Z 31004KT 6000 FEW010 25/22 Q1010 TEMPO SCT010

2010/08/08 05:00
FMMI 080500Z 15009KT 110V180 9999 FEW010 SCT016 BKN020 13/11 Q1027 NOSIG

2010/08/08 05:00
LCLK 080500Z VRB01KT 9999 FEW025 29/23 Q1008 NOSIG

2010/08/08 05:00
LCPH 080500Z 33006KT 300V360 9999 FEW020 28/23 Q1008

2010/08/08 05:00
MKJS 080500Z 15004KT 9999 FEW024CB 28/23 Q1014

2010/08/08 05:00
OEDF 080500Z 12002KT CAVOK 36/12 Q0999 NOSIG

2010/08/08 05:00
OEDR 080500Z 28004KT 8000 SKC 37/18 Q0997 NOSIG

2010/08/08 05:00
OEJN 080500Z 14004KT CAVOK 33/26 Q1001 NOSIG

2010/08/08 05:00
OEMA 080500Z 00000KT CAVOK 36/02 Q1007 NOSIG

2010/08/08 05:00
OERK 080500Z 32004KT CAVOK 34/05 Q1006 NOSIG

2010/08/08 05:00
OIAA 080500Z 33004KT 9999 FEW040 SCT100 36/13 Q0998

2010/08/08 05:00
OIAW 080500Z 11006KT 7000 FEW040 SCT100 35/12 Q0998 A2948

2010/08/08 05:00
OIBK 080500Z 12010KT 4000 BR SKC 35/31 Q0998 A2948

2010/08/08 05:00
OICC 080500Z 00000KT CAVOK 29/03 Q1015 A3000 867.2

2010/08/08 05:00
OICK 080500Z 11010KT CAVOK 32/M00 Q1013 A2992

2010/08/08 05:00
OIFM 080500Z 27004KT 7000 SKC 24/00 Q1019 A3009

2010/08/08 05:00
OIGG 080500Z 27004KT CAVOK 28/21 Q1010 A2985

2010/08/08 05:00
OIKB 080500Z 18006KT 5000 HZ NSC 35/27 Q0999 A2951

2010/08/08 05:00
OIKK 080500Z 00000KT CAVOK 21/M03 Q1018 A3007

2010/08/08 05:00
OIMM 080500Z 34010KT CAVOK 31/M00 Q1013 A2993

2010/08/08 05:00
OINZ 080500Z VRB02KT CAVOK 29/18 Q1010 A2983

2010/08/08 05:00
OISS 080500Z 24004KT CAVOK 29/03 Q1015 A2999

2010/08/08 05:00
OITL 080500Z 00000KT CAVOK 21/09 Q1019 A3009

2010/08/08 05:00
OITR 080500Z 25004KT 9999 SCT035 24/11 Q1017 A3003

2010/08/08 05:00
OITT 080500Z 10006KT 9999 FEW035 SCT090 27/07 Q1018 A3007

2010/08/08 05:00
OIYY 080500Z 30008KT CAVOK 28/M10 Q1016 A3002

2010/08/08 05:00
OIZH 080500Z 01004KT 8000 NSC 30/M01 Q1011 A2985

2010/08/08 05:00
OKBK 080500Z 35008KT 5000 -HZ SKC 38/06 Q0999 NOSIG

2010/08/08 05:00
OSAP 080500Z 27005KT 8000 NSC 28/09 Q1009

2010/08/08 05:00
OSDI 080500Z 00000KT CAVOK 26/07 Q1011

2010/08/08 05:00
OSLK 080500Z 03002KT 8000 27/18 Q1009

2010/08/08 05:00
OMAA 080500Z 13012KT 110V170 6000 NSC 38/13 Q0998 A2948 NOSIG

2010/08/08 05:00
OMAL 080500Z 14011KT CAVOK 36/13 Q1002 A2959

2010/08/08 05:00
OMDB 080500Z 19006KT 150V220 CAVOK 38/16 Q0999 NOSIG

2010/08/08 05:00
OMFJ 080500Z 12007KT 7000 NSC 34/27 Q1000 A2953

2010/08/08 05:00
OMRK 080500Z 33003KT CAVOK 38/29 Q0998 A2949

2010/08/08 05:00
OMSJ 080500Z 18006KT CAVOK 39/15 Q0999

2010/08/08 05:00
OYAA 080500Z 21012KT 8000 NSC 31/21 Q1004 NOSIG

2010/08/08 05:00
OMAD 080500Z 14007KT 9000 NSC 33/23 Q0998 A2949

2010/08/08 05:00
SBAR 080500Z 00000KT CAVOK 20/19 Q1018

2010/08/08 05:00
SBCT 080500Z 05002KT 3000 BR NSC 06/06 Q1020

2010/08/08 05:00
SBCY 080500Z 32001KT CAVOK 20/13 Q1014

2010/08/08 05:00
SBFL 080500Z 29005KT CAVOK 14/13 Q1017

2010/08/08 05:00
SBGO 080500Z 32003KT CAVOK 16/12 Q1018

2010/08/08 05:00
SBBE 080500Z 10005KT CAVOK 25/22 Q1013

2010/08/08 05:00
SBBR 080500Z 25003KT CAVOK 16/06 Q1022

2010/08/08 05:00
SBBV 080500Z 03003KT 8000 -RA FEW004 SCT020 FEW025TCU BKN070 24/23 Q1015

2010/08/08 05:00
SBCF 080500Z 00000KT CAVOK 13/09 Q1021

2010/08/08 05:00
SBCG 080500Z 07010KT CAVOK 17/06 Q1017

2010/08/08 05:00
SBEG 080500Z 00000KT CAVOK 24/23 Q1014

2010/08/08 05:00
SBFI 080500Z 16006KT CAVOK 13/11 Q1016

2010/08/08 05:00
SBFZ 080500Z 10010KT 9999 SCT017 24/21 Q1015

2010/08/08 05:00
SBGL 080500Z 07002KT CAVOK 16/13 Q1018

2010/08/08 05:00
SBGR 080500Z 10002KT 6000 NSC 10/10 Q1020

2010/08/08 05:00
SBKP 080500Z 11008KT CAVOK 11/07 Q1020

2010/08/08 05:00
SBNT 080500Z 19005KT 9999 FEW020 22/20 Q1016

2010/08/08 05:00
SBPA 080500Z 15001KT 9999 BKN007 10/09 Q1018

2010/08/08 05:00
SBPS 080500Z 33004KT 6000 -RA SCT020 BKN050 17/17 Q1020

2010/08/08 05:00
SBRF 080500Z 26003KT 9999 SCT020 20/18 Q1017

2010/08/08 05:00
SBSL 080500Z 09004KT CAVOK 26/23 Q1013

2010/08/08 05:00
SBSN 080500Z 00000KT 9999 FEW013 SCT100 24/22 Q1013

2010/08/08 05:00
SBSV 080500Z 16005KT 9999 SCT017 23/17 Q1018

2010/08/08 05:00
SBPA 080500Z 15001KT 7000 BKN007 10/09 Q1018

2010/08/08 05:00
SBRP 080500Z 11002KT CAVOK 15/11 Q1018

2010/08/08 04:50
MUCM 080450Z 07004KT 040V100 9000 FEW025 25/22 Q1016

2010/08/08 04:55
MUHA 080455Z 08002KT 9000 SKC 25/23 Q1015

2010/08/08 04:51
MUVR 080451Z 00000KT 9000 FEW018 23/21 Q1016

2010/08/08 04:59
MYEG 080459Z AUTO 10005KT 10SM CLR 27/23 A3000 RMK AO2

2010/08/08 05:00
MYNN 080500Z 00000KT 9999 FEW012CB SCT015 28/26 A2999

2010/08/08 05:00
SBMA 080500Z 00000KT CAVOK 25/22 Q1013

2010/08/08 05:00
SBMN 080500Z 30005KT CAVOK 28/23 Q1013

2010/08/08 05:00
SBMO 080500Z 27002KT 9999 SCT016 SCT100 19/18 Q1018

2010/08/08 05:00
SBMQ 080500Z 00000KT 9999 VCTS FEW017 FEW030CB SCT100 25/25 Q1013

2010/08/08 05:00
SBPV 080500Z 00000KT CAVOK 21/18 Q1013

2010/08/08 05:00
SBRB 080500Z 00000KT 5000 FU NSC 21/17 Q1014

2010/08/08 05:00
SBSJ 080500Z 00000KT CAVOK 11/10 Q1020

2010/08/08 05:00
SBSP 080500Z 00000KT 0500 R17/0500 R35/0400 FG VV002 12/12 Q1021

2010/08/08 05:00
SBTE 080500Z 30003KT CAVOK 24/22 Q1013

2010/08/08 05:00
SBVT 080500Z 30002KT CAVOK 18/15 Q1019

2010/08/08 05:00
MDPC 080500Z 04010KT 9999 FEW020 28/25 Q1013

2010/08/08 05:00
MDSD 080500Z 01004KT 9999 FEW018 24/22 Q1015

2010/08/08 05:00
MDST 080500Z 07004KT 9999 SCT014 26/26 Q1015

2010/08/08 05:00
TAPA 080500Z 08010KT 9999 FEW018 28/23 Q1014

2010/08/08 04:53
TIST 080453Z AUTO 09010KT 10SM SCT095 28/23 A2996 RMK AO2 SLP145 T02830233 TSNO $

2010/08/08 04:53
TISX 080453Z AUTO 08010KT 10SM FEW026 SCT034 28/23 A2996 RMK AO2 SLP144 T02830233 TSNO $

2010/08/08 04:56
TJSJ 080456Z 10007G14KT 10SM SCT025 SCT036 28/24 A2997 RMK AO2 SLP149 VCSH SW T02830239

2010/08/08 04:53
PABI 080453Z 32006KT 10SM FEW030 SCT050 BKN080 BKN180 17/09 A2969

2010/08/08 04:55
PACZ 080455Z AUTO 20010KT 10SM OVC008 11/09 A2961

2010/08/08 04:56
PADK 080456Z 24022G26KT 3SM OVC006 11/09 A2932

2010/08/08 04:51
PADL 080451Z 19010KT SCT017 BKN028 11/08 A2978

2010/08/08 04:53
PADQ 080453Z 30006KT 10SM SCT010 OVC022 13/11 A2978

2010/08/08 04:55
PAEH 080455Z AUTO 16013KT 10SM SCT038 OVC070 09/07 A2970

2010/08/08 04:58
PAGA 080458Z AUTO 21006KT 10SM FEW024 BKN034 OVC065 14/12 A2965

2010/08/08 04:55
PAIM 080455Z AUTO 00000KT 10SM BKN042 BKN048 BKN080 14/12 A2963

2010/08/08 04:55
PALU 080455Z AUTO 08014KT 7SM 11/11 A2964

2010/08/08 04:55
PASV 080455Z AUTO 23004KT 5SM BKN008 BKN018 OVC024 11/10 A2974

2010/08/08 04:56
PASY 080456Z AUTO 27023G29KT 10SM OVC003 10/09 A2904

2010/08/08 04:55
PATL 080455Z AUTO 22004KT 10SM SCT040 SCT050 12/09 A2970

2010/08/08 05:00
TFFF 080500Z AUTO 04003KT 9999NDV NCD 25/24 Q1013

2010/08/08 05:00
TFFR 080500Z 11004KT 9999 VCSH FEW023 26/23 Q1013 TEMPO 4000 SHRA

2010/08/08 05:00
MGPB 080500Z 00000KT 9999 FEW016 25/25 Q1012 A2988

2010/08/08 05:00
MGSJ 080500Z 00000KT 9999 FEW018 BKN090 25/24 Q1014 A2994

2010/08/08 05:00
MHLC 080500Z 16002KT 9999 BKN022CB SCT080 26/24 Q1013 A2991 NOSIG

2010/08/08 05:00
MHLM 080500Z 00000KT 9999 FEW024 BKN080 27/27 Q1013 A2991 NOSIG

2010/08/08 05:00
MHTG 080500Z 12002KT 9999 BKN026 FEW028CB BKN250 21/20 Q1019 A3009 NOSIG

2010/08/08 05:00
MPTO 080500Z 00000KT 9999 FEW018CB SCT090 26/24 Q1012 NOSIG

2010/08/08 04:50
MSLP 080450Z 04002KT 9999 FEW020 FEW037CB 26/24 Q1013 CB LTGIC TO SE

2010/08/08 04:50
MSLP 080450Z 04002KT 9999 FEW020 FEW037CB 26/24 Q1013 A2992 CB LTGIC TO SE

2010/08/08 04:50
MSSS 080450Z 00000KT 9999 FEW013 FEW040CB SCT300 23/22 Q1017 CB NE

2010/08/08 04:50
MSSS 080450Z 00000KT 9999 FEW013 FEW040CB SCT300 23/22 Q1017 A3003 CB LTGIC TO NE

2010/08/08 04:50
MUCM 080450Z 07004KT 040V100 9000 FEW025 25/22 Q1016

2010/08/08 04:56
MUGM 080456Z 34004KT 9999 FEW020 28/24 A2998 RMK SLP151 T02830239 403170256

2010/08/08 04:55
MUHA 080455Z 08002KT 9000 SKC 25/23 Q1015

2010/08/08 04:51
MUVR 080451Z 00000KT 9000 FEW018 23/21 Q1016

2010/08/08 05:00
MGGT 080500Z 00000KT 9999 SCT014 18/17 Q1025 A3027 VOL/ PACAYA EN ACTIVIDAD

2010/08/08 05:00
MGGT 080500Z 00000KT 9999 SCT014 18/17 Q1025 A3027 VOL. PACAYA EN ACTIVIDAD

2010/08/08 05:00
MGHT 080500Z 00000KT 9999 OVC020 17/16 QFE 818/7

2010/08/08 05:00
MGHT 080500Z 00000KT 9999 OVC020 17/16 QFE 818.7

2010/08/08 05:00
MHSR 080500Z 00000KT 2000 -DZ BKN004 OVC090 20/20 2 KM TD CL PCPN HZ

2010/08/08 05:00
MNMG 080500Z 00000KT 9999 FEW022 SCT070 26/24 Q1012 A2990 NOSIG

2010/08/08 04:50
MSAC 080450Z 00000KT 9999 SCT030 SCT100 BKN200 25/25 Q1011 SH NE/SE

2010/08/08 05:00
RCKH 080500Z 24010KT 190V270 9999 FEW018 BKN120 32/27 Q1001 NOSIG

2010/08/08 05:00
RCSS 080500Z 08010KT 040V110 9999 FEW020 SCT025 BKN050 31/24 Q1002 NOSIG

2010/08/08 05:00
RCTP 080500Z 02021KT 9999 FEW020 SCT040 BKN150 33/26 Q1002 NOSIG

2010/08/08 05:03
EHVK 080503Z AUTO 27005KT 6000NDV BR FEW006 SCT007 BKN032 16/15 Q1015 GRN

2010/08/08 05:01
EHEH 080501Z AUTO 21001KT 0800NDV FG OVC007 14/13 Q1015 AMB

2010/08/08 04:53
TIST 080453Z AUTO 09010KT 10SM SCT095 28/23 A2996

2010/08/08 04:53
TISX 080453Z AUTO 08010KT 10SM FEW026 SCT034 28/23 A2996

2010/08/08 04:56
TJSJ 080456Z 10007G14KT 10SM SCT025 SCT036 28/24 A2997

2010/08/08 05:00
ZBAA 080500Z 20002MPS 130V260 CAVOK 30/19 Q1003 NOSIG

2010/08/08 05:00
ZBTJ 080500Z 21002MPS 3000 BR NSC 29/22 Q1003 NOSIG

2010/08/08 05:00
ZBYN 080500Z 20001MPS 6000 NSC 29/18 Q1007 NOSIG

2010/08/08 05:00
ZGGG 080500Z VRB01MPS 9000 FEW023 BKN040 32/25 Q1004 NOSIG

2010/08/08 05:00
ZGNN 080500Z VRB01MPS 9999 SCT026 SCT046 33/24 Q1004 NOSIG

2010/08/08 05:00
ZGSZ 080500Z 06002MPS 360V120 9999 BKN033 FEW033TCU 33/23 Q1003 NOSIG

2010/08/08 05:00
ZMUB 080500Z 34009MPS 9999 BKN033 11/01 Q1013 NOSIG RMK QFE652.5 50

2010/08/08 05:00
ZPPP 080500Z VRB02MPS 9999 FEW026TCU SCT026 SCT050 25/15 Q1016 NOSIG

2010/08/08 05:00
ZSAM 080500Z 03005MPS 9999 BKN040 32/22 Q1003 NOSIG

2010/08/08 05:00
ZSHC 080500Z 09003MPS 040V160 9999 BKN025 32/21 Q1005 NOSIG

2010/08/08 05:00
ZSPD 080500Z 09005MPS 060V140 9999 BKN020 30/25 Q1006 NOSIG

2010/08/08 05:00
ZSSS 080500Z 13005MPS 090V160 9999 SCT040 32/21 Q1006 NOSIG

2010/08/08 05:00
ZUUU 080500Z VRB01MPS 9999 FEW026 SCT026TCU 35/21 Q1005 NOSIG

2010/08/08 05:00
ZWWW 080500Z VRB01MPS CAVOK 27/10 Q1009 NOSIG

2010/08/08 05:00
ZYTL 080500Z 17005MPS 120V190 4000 TSRA BR BKN005 BKN033 SCT040CB 22/21 Q1006 NOSIG

2010/08/08 05:00
EPGD 080500Z 21003KT 170V260 9999 BKN017 19/17 Q1010

2010/08/08 05:00
EPKK 080500Z 23005KT 9999 SCT030 BKN060 16/14 Q1015

2010/08/08 05:00
EPKT 080500Z 20003KT 150V240 CAVOK 15/13 Q1014

2010/08/08 05:00
EPPO 080500Z 28007KT 9000 -DZ SCT004 BKN008 16/16 Q1013

2010/08/08 05:00
EPRZ 080500Z 22006KT CAVOK 17/17 Q1015

2010/08/08 05:00
EPWA 080500Z 27004KT 250V320 CAVOK 17/16 Q1012 NOSIG

2010/08/08 05:00
UKBB 080500Z 15002MPS CAVOK 25/17 Q1014 88CLRD95 NOSIG

2010/08/08 05:00
UKLL 080500Z 00000MPS CAVOK 19/18 Q1015 13210360 NOSIG

2010/08/08 05:00
UKOO 080500Z 04002MPS CAVOK 26/24 Q1012 34090070 NOSIG

2010/08/08 04:53
PHJR 080453Z VRB05KT 10SM CLR 27/19 A3006

2010/08/08 04:53
PHKO 080453Z 25008KT 10SM FEW018 BKN048 OVC055 26/22 A3001

2010/08/08 04:53
PHLI 080453Z 06010KT 10SM FEW019 BKN055 26/21 A3008

2010/08/08 04:53
PHNL 080453Z 06013KT 10SM FEW028 SCT040 SCT055 27/19 A3005

2010/08/08 04:54
PHOG 080454Z 06012G19KT 10SM FEW025 SCT049 SCT070 26/20 A3004

2010/08/08 04:53
PHTO 080453Z 07011KT 10SM SCT011 BKN020 OVC030 24/22 A3006

2010/08/08 05:00
LBBG 080500Z VRB01MPS CAVOK 26/21 Q1011 NOSIG

2010/08/08 05:00
LBPD 080500Z VRB01MPS 9999 FEW070 22/19 Q1013 NOSIG

2010/08/08 05:00
LBSF 080500Z 27004MPS 6000 SCT026 BKN040 20/18 Q1016 NOSIG

2010/08/08 05:00
LBWN 080500Z 26003MPS CAVOK 24/21 Q1012 NOSIG

2010/08/08 05:00
LHBP 080500Z 22006KT 9999 BKN012 OVC020 17/15 Q1017 NOSIG

2010/08/08 05:00
LRBS 080500Z VRB02KT 8000 NSC 23/22 Q1013 NOSIG

2010/08/08 05:00
LRCK 080500Z 32003KT 3000 BR NSC 26/26 Q1012 BECMG 5000

2010/08/08 05:00
LROP 080500Z VRB02KT 7000 NSC 22/22 Q1012 8809//95 NOSIG

2010/08/08 05:00
LRTR 080500Z VRB02KT CAVOK 18/17 Q1017

2010/08/08 05:00
LATI 080500Z 16004KT CAVOK 19/19 Q1014 NOSIG

2010/08/08 05:00
LDDU 080500Z 01012KT 330V060 CAVOK 21/11 Q1015 NOSIG

2010/08/08 05:00
LDOS 080500Z 32003KT 9999 FEW030 16/15 Q1018

2010/08/08 05:00
LDPL 080500Z 02004KT CAVOK 19/11 Q1017 NOSIG

2010/08/08 05:00
LDSP 080500Z 31009KT 280V350 CAVOK 21/13 Q1016 NOSIG

2010/08/08 05:00
LDZA 080500Z VRB01KT CAVOK 16/14 Q1017 NOSIG

2010/08/08 05:00
LDZD 080500Z 00000KT CAVOK 17/16 Q1016

2010/08/08 05:00
LKMT 080500Z 26005KT 220V280 9999 FEW031 BKN047 16/15 Q1015 NOSIG

2010/08/08 05:00
LKPR 080500Z 21006KT 170V230 CAVOK 15/14 Q1016 NOSIG

2010/08/08 05:00
LKTB 080500Z 29006KT 9999 FEW005 BKN023 16/15 Q1015 NOSIG

2010/08/08 05:00
LQSA 080500Z VRB02KT 8000 FEW025 BKN055 15/14 Q1020 NOSIG

2010/08/08 05:00
LWOH 080500Z 28003KT 9999 SCT050 14/13 Q1017

2010/08/08 05:00
LWSK 080500Z 00000KT 9999 FEW050 20/16 Q1015 NOSIG

2010/08/08 05:00
LYBE 080500Z 29003KT CAVOK 18/17 Q1018 NOSIG

2010/08/08 05:00
LYNI 080500Z 33009KT 300V360 9999 SCT013 BKN033 20/17 Q1017 NOSIG

2010/08/08 05:00
LYPG 080500Z 04003KT CAVOK 20/15 Q1015 NOSIG

2010/08/08 05:00
LYTV 080500Z VRB02KT CAVOK 15/14 Q1015 NOSIG

2010/08/08 05:00
LZIB 080500Z 28006KT 250V310 9999 FEW009 SCT028 BKN090 17/14 Q1016

2010/08/08 05:00
LZKZ 080500Z 20006KT 170V240 9999 SCT006 BKN009 15/14 Q1016 NOSIG

2010/08/08 05:00
LZTT 080500Z 25004KT 9999 FEW013 14/12 Q1015 NOSIG

2010/08/08 05:00
LFBD 080500Z 00000KT 9999 R05/1000V1700U FEW023 16/14 Q1021 NOSIG

2010/08/08 05:00
LFBH 080500Z AUTO 02005KT 9999NDV BKN038 16/14 Q1021

2010/08/08 05:00
LFBI 080500Z 32005KT 9999 SCT033 14/12 Q1020 NOSIG

2010/08/08 05:00
LFBO 080500Z 26007KT CAVOK 17/13 Q1020 NOSIG

2010/08/08 05:00
LFBP 080500Z 30003KT 9999 FEW005 BKN010 16/16 Q1021 NOSIG

2010/08/08 05:00
LFBT 080500Z 24004KT 9999 FEW010 15/14 Q1022

2010/08/08 05:00
LFBZ 080500Z AUTO 12003KT 090V160 9999NDV NSC 16/15 Q1021

2010/08/08 05:00
LFGJ 080500Z AUTO 11004KT 9999NDV NSC 15/13 Q1018

2010/08/08 05:00
LFKB 080500Z 20006KT 9999 FEW020 19/15 Q1017 NOSIG

2010/08/08 05:00
LFKC 080500Z 22006KT CAVOK 17/14 Q1018

2010/08/08 05:00
LFKJ 080500Z 03005KT CAVOK 16/13 Q1018 NOSIG

2010/08/08 05:00
LFLB 080500Z 17003KT CAVOK 13/11 Q1019

2010/08/08 05:00
LFLC 080500Z 01003KT 350V050 CAVOK 15/13 Q1019 NOSIG

2010/08/08 05:00
LFLL 080500Z 18004KT CAVOK 16/12 Q1018 NOSIG

2010/08/08 05:00
LFLS 080500Z 10007KT 9999 FEW060 SCT100 13/11 Q1019 NOSIG

2010/08/08 05:00
LFLY 080500Z 16003KT CAVOK 16/12 Q1018 NOSIG

2010/08/08 05:00
LFMD 080500Z AUTO 36004KT 320V030 9999NDV NSC 16/14 Q1017

2010/08/08 05:00
LFMH 080500Z 16002KT 9999 FEW050 15/12 Q1019 NOSIG

2010/08/08 05:01
EGUN 080501Z AUTO 33009KT 9999 BKN005 OVC016 14/14 A3007 RMK AO2 CIG 005V009 SLP172

2010/08/08 05:00
LFML 080500Z VRB01KT CAVOK 17/14 Q1017 NOSIG

2010/08/08 05:00
LFMP 080500Z VRB02KT 9999 SCT060 21/14 Q1017 NOSIG

2010/08/08 05:00
LFMT 080500Z 34001KT CAVOK 17/13 Q1017 NOSIG

2010/08/08 05:00
LFOB 080500Z 27009KT 8000 OVC005 15/14 Q1018 NOSIG

2010/08/08 05:00
LFOH 080500Z AUTO 35007KT 9999NDV OVC009 16/14 Q1019

2010/08/08 05:00
LFPB 080500Z AUTO 30006KT 270V330 9999NDV OVC009 16/14 Q1018

2010/08/08 05:00
LFPG 080500Z 30008KT 9999 BKN008 15/14 Q1018 NOSIG

2010/08/08 05:00
LFPN 080500Z 28005KT 9999 SCT005 14/13 Q1019

2010/08/08 05:00
LFPO 080500Z 28005KT 9999 FEW012 14/13 Q1019 NOSIG

2010/08/08 05:00
LFQQ 080500Z 28004KT 9000 SCT005 SCT015 BKN050 15/15 Q1016 NOSIG

2010/08/08 05:00
LFRB 080500Z 31002KT 0250 R07/0375V0650D FG SCT001 13/12 Q1021 TEMPO BKN003

2010/08/08 05:00
LFRC 080500Z AUTO 32004KT 9999NDV FEW008 14/14 Q1020

2010/08/08 05:00
LFRD 080500Z AUTO 30005KT 9999NDV BKN012 15/14 Q1021

2010/08/08 05:00
LFRK 080500Z 25008KT 9999 FEW013 13/13 Q1019 NOSIG

2010/08/08 05:00
LFRN 080500Z AUTO 29003KT 1600NDV BR NSC 12/11 Q1020

2010/08/08 05:00
LFRO 080500Z AUTO 28004KT 6000NDV FEW007 SCT022 14/13 Q1021

2010/08/08 05:00
LFRQ 080500Z 32003KT CAVOK 13/12 Q1022 NOSIG

2010/08/08 05:00
LFRS 080500Z 30001KT 9999 R03/1000V1900U MIFG NSC 12/11 Q1021 NOSIG

2010/08/08 05:00
LFRT 080500Z 29005KT 9999 BKN026 15/14 Q1021

2010/08/08 05:00
LFRZ 080500Z AUTO 30003KT 9999NDV NSC 12/11 Q1021

2010/08/08 05:00
LFSB 080500Z 20004KT 9999 VCSH FEW050 BKN100 15/13 Q1017 TEMPO 8000 -SHRA

2010/08/08 05:00
LFSN 080500Z 29004KT 260V330 9999 SCT012 SCT046 BKN053 17/15 Q1017 NOSIG

2010/08/08 05:00
LFST 080500Z 22003KT 9999 FEW043 FEW050CB BKN073 17/13 Q1016 NOSIG

2010/08/08 05:00
LFTW 080500Z AUTO 00000KT 9999NDV NSC 19/09 Q1017

2010/08/08 05:00
LFBA 080500Z 28005KT 9999 FEW010 16/15 Q1020 TEMPO 7000 BKN010

2010/08/08 05:00
LFBC 080500Z AUTO 00000KT 9999NDV NSC 14/13 Q1021

2010/08/08 05:00
LFBL 080500Z 36004KT 9999 FEW015 14/12 Q1020 NOSIG

2010/08/08 05:00
LFBM 080500Z AUTO 32002KT 8000NDV VV/// 15/14 Q1021

2010/08/08 05:00
LFKF 080500Z AUTO 04002KT 9999NDV NCD 13/11 Q1018

2010/08/08 05:00
LFOE 080500Z AUTO 27007KT 6000NDV OVC003 14/14 Q1019

2010/08/08 05:00
LFOP 080500Z 27004KT 6000 OVC003 14/14 Q1019 NOSIG

2010/08/08 05:00
LFPB 080500Z AUTO 30006KT 270V330 9999NDV OVC009 16/14 Q1018

2010/08/08 05:00
LFPG 080500Z 30008KT 9999 BKN008 15/14 Q1018 NOSIG

2010/08/08 05:00
LFPV 080500Z AUTO 28005KT 9999NDV BKN005 BKN009 13/13 Q1019

2010/08/08 05:00
LFQB 080500Z 27004KT 9999 SCT038 BKN060 15/14 Q1017

2010/08/08 05:00
LFQQ 080500Z 28004KT 9000 SCT005 SCT015 BKN050 15/15 Q1016 NOSIG

2010/08/08 05:00
LFRH 080500Z 32004KT 9999 FEW026 11/10 Q1021

2010/08/08 05:00
LFRM 080500Z VRB02KT 5000 FEW005 12/11 Q1020

2010/08/08 05:00
LFSD 080500Z AUTO 00000KT 9999NDV NSC 15/14 Q1018

2010/08/08 05:00
LFSI 080500Z AUTO VRB02KT 9999NDV SCT047 BKN054 15/14 Q1018

2010/08/08 05:00
LFSL 080500Z AUTO 00000KT 9999NDV NSC 12/11 Q1020

2010/08/08 05:00
LFSO 080500Z AUTO 32003KT 9999NDV BKN009 BKN015 OVC037 16/15 Q1017

2010/08/08 05:00
LFSX 080500Z AUTO 07002KT 9999NDV NSC 14/13 Q1018

2010/08/08 05:00
LFTH 080500Z AUTO 04003KT 9999NDV NSC 14/10 Q1016

2010/08/08 04:54
PGSN 080454Z 07013KT 10SM FEW022 SCT060 31/24 A2980

2010/08/08 04:55
PGUA 080455Z AUTO 07011KT 10SM FEW015 SCT060 29/25 A2981

2010/08/08 04:54
PGUM 080454Z 08012KT 10SM FEW022TCU SCT050 31/25 A2980

2010/08/08 05:00
PKWA 080500Z AUTO 08012KT 10SM SCT019 SCT025 30/23 A2979

2010/08/08 04:50
LGAD 080450Z 00000KT CAVOK 19/17 Q1013

2010/08/08 04:50
LGIR 080450Z 17006KT CAVOK 21/17 Q1010 NOSIG

2010/08/08 04:50
LGKO 080450Z 31006KT 8000 FEW006 24/22 Q1009

2010/08/08 04:50
LGKR 080450Z 00000KT CAVOK 21/18 Q1012 NOSIG

2010/08/08 04:50
LGLM 080450Z VRB02KT 8000 FEW010 24/23 Q1009

2010/08/08 04:50
LGSM 080450Z 00000KT 9999 FEW020 24/20 Q1008

2010/08/08 04:50
LGTS 080450Z 31008KT CAVOK 25/21 Q1011 NOSIG

2010/08/08 05:00
TBPB 080500Z 04009KT 6000 SHRA FEW012CB SCT016 BKN036 25/24 Q1013

2010/08/08 04:55
FJDG 080455Z 12012KT 9999 FEW020 FEW250 29/25 A2988 RMK SLP115 T02860248

2010/08/08 05:00
FMMI 080500Z 15009KT 110V180 9999 FEW010 SCT016 BKN020 13/11 Q1027 NOSIG

2010/08/08 05:00
FMMT 080500Z 24006KT 9999 VCSH FEW017 SCT033 20/18 Q1023

2010/08/08 05:00
WBGG 080500Z 15002KT 9999 FEW014 BKN150 29/24 Q1008 NOSIG

2010/08/08 05:00
WBKK 080500Z 26010KT 9999 FEW015 SCT140 BKN280 31/26 Q1008 NOSIG

2010/08/08 05:00
WBSB 080500Z 21009KT 9999 FEW017 BKN300 32/24 Q1008 NOSIG

2010/08/08 04:55
KQMG 080455Z AUTO 17009KT 10SM FEW095 SCT110 OVC130 28/13 A3004 RMK AO2 WSHFT 0343 SLP081 T02770126

2010/08/08 04:55
KQTO 080455Z 32013KT 9999 SCT180 37/02 A2957 RMK SLP011

2010/08/08 04:55
KQTU 080455Z 32010G16KT 9999 FEW120 35/01 A2968 RMK SLP029

2010/08/08 04:55
KQTX 080455Z VRB03KT 8000 HZ SCT150 37/01 A2966 RMK SLP015

2010/08/08 04:55
KQTZ 080455Z 34009G16KT 6000 DU HZ SCT200 37/04 A2958 RMK SLP012 QNH1001MB WND DATA ESTMD ALSTG/SLP ESTMD

2010/08/08 04:55
KQXJ 080455Z 31012KT 1600 BLDU SCT100 38/03 A2950 RMK SLP992 PA+412 DA+3193

2010/08/08 04:55
KQAJ 080455Z 30010KT 9999 CLR 34/01 A2972 RMK SLP048 WND DATA ESTMD ALSTG/SLP ESTMD

2010/08/08 04:55
KQAQ 080455Z 35012G20KT 5000 DU HZ FEW000 FEW150 38/05 A2960 RMK DU FEW000 SLP018 PA +421 DA +3118

2010/08/08 04:55
KQPD 080455Z AUTO 08004KT 9999 CLR 34/12 A2966 RMK AO2 SLP947 T03420116 $

2010/08/08 04:55
KQSL 080455Z 33010G18KT 5000 DU HZ SCT180 38/M02 A2966 RMK SLP030 Q1004MB

2010/08/08 04:55
KQTI 080455Z AUTO 31016G22KT 9999 CLR 38/00 A2972 RMK AO2 SLP033 T03781001

2010/08/08 05:00
RJAA 080500Z 15010KT 9999 FEW030 BKN/// 31/24 Q1014 NOSIG

2010/08/08 05:00
RJAH 080500Z 21009KT 9999 FEW030 BKN250 33/24 Q1013

2010/08/08 05:00
RJCC 080500Z 18008KT 9999 -SHRA FEW012 BKN050 BKN070 29/24 Q1012

2010/08/08 05:00
RJCH 080500Z 23008KT 9999 FEW010 SCT025 BKN045 27/25 Q1013

2010/08/08 05:00
RJFK 080500Z 08011KT 040V110 9999 FEW025 30/22 Q1011

2010/08/08 05:00
RJFT 080500Z 11015KT 9999 FEW040 32/21 Q1010

2010/08/08 05:00
RJFU 080500Z 29005KT 250V330 9999 FEW025 34/24 Q1009

2010/08/08 05:00
RJOO 080500Z VRB04KT 9999 FEW025 BKN045 BKN/// 33/18 Q1012

2010/08/08 05:00
RJSS 080500Z 16011KT 9999 FEW030CB 31/24 Q1013

2010/08/08 05:00
RJTT 080500Z 20011KT 160V220 9999 -SHRA FEW020 SCT030 BKN130 31/21 Q1014

2010/08/08 04:55
RODN 080455Z 15008KT 9999 -RA FEW017 SCT029 BKN038 BKN100 29/27 A2963 RMK AO2A RAB0444 FEW V SCT SLP032 P0000 T02900265

2010/08/08 04:55
PGRO 080455Z 08010KT 7SM SCT020 30/25 A2980

2010/08/08 04:54
PGSN 080454Z 07013KT 10SM FEW022 SCT060 31/24 A2980

2010/08/08 04:54
PGUM 080454Z 08012KT 10SM FEW022TCU SCT050 31/25 A2980

2010/08/08 04:50
PGWT 080450Z 09010KT 7SM BKN015CB 32/25 A2980

2010/08/08 04:56
PKMR 080456Z 07006KT 20SM FEW016 SCT300 31/25 A2976

2010/08/08 05:00
PKWA 080500Z AUTO 08012KT 10SM SCT019 SCT025 30/23 A2979

2010/08/08 04:50
PTKK 080450Z VRB05KT 15SM FEW014CB SCT120 OVC280 32/26 A2974

2010/08/08 04:56
PTKR 080456Z 02010KT 15SM FEW017CB BKN120 OVC300 30/24 A2979

2010/08/08 04:50
PTRO 080450Z 33005KT 15SM BKN016CB BKN120 OVC300 29/23 A2981

2010/08/08 04:55
PTTP 080455Z 08008KT 15SM SCT018 OVC300 31/25 A2977

2010/08/08 04:52
PTYA 080452Z 04007KT 12SM SCT015CB BKN130 OVC300 30/25 A2977

2010/08/08 05:00
RJAF 080500Z 18009KT 9999 FEW040 SCT080 BKN150 28/16 Q1017

2010/08/08 05:00
RJAW 080500Z 10008KT 070V140 9999 SCT015 BKN080 BKN230 28/25 Q1012 RMK 3CU015 5AC080 A2990

2010/08/08 05:00
RJBD 080500Z 18005KT 130V220 9999 FEW015 SCT045 BKN/// 32/22 Q1013

2010/08/08 05:00
RJCB 080500Z 14010KT 9999 FEW015 FEW025CB SCT030 29/24 Q1012

2010/08/08 05:00
RJCK 080500Z 22006KT 180V250 9999 FEW002 BKN025 22/19 Q1013

2010/08/08 05:00
RJCM 080500Z 05005KT 010V080 9999 FEW010 SCT019 BKN030 25/21 Q1013

2010/08/08 05:00
RJCN 080500Z 07006KT 9999 SCT008 BKN010 22/19 Q1014

2010/08/08 05:00
RJCW 080500Z 35008KT 9999 FEW020 24/20 Q1013

2010/08/08 05:00
RJDC 080500Z 09015KT 9999 FEW025 FEW025TCU 31/21 Q1010

2010/08/08 05:00
RJDT 080500Z 14009KT 9999 FEW020 30/22 Q1010

2010/08/08 05:00
RJEB 080500Z 08008KT 050V110 9999 FEW025 23/21 Q1013

2010/08/08 05:00
RJEC 080500Z 32004KT 9999 FEW020 SCT040 BKN060 26/23 Q1013

2010/08/08 05:00
RJFG 080500Z 10014KT 9999 FEW005 SCT008 BKN010 27/25 Q1010

2010/08/08 05:00
RJFM 080500Z 08010KT 9999 R27/1200VP1800U -SHRA FEW007 BKN025 BKN040 27/25 Q1010

2010/08/08 05:00
RJFO 080500Z 10007KT 9999 FEW020 28/25 Q1011

2010/08/08 05:00
RJFR 080500Z 08017KT 050V130 9999 FEW025 30/22 Q1010

2010/08/08 05:00
RJKA 080500Z 14011KT 9999 FEW020 SCT025 BKN030 30/25 Q1004

2010/08/08 05:02
KDLH 080502Z 08003KT 5SM -TSRA BR SCT004 BKN019 OVC044CB 17/16 A2973

2010/08/08 05:00
RJOT 080500Z VRB02KT 9999 FEW015 BKN/// 30/20 Q1012

2010/08/08 05:00
RJOY 080500Z 11007KT 9999 FEW025 BKN045 33/19 Q1012

2010/08/08 05:00
RJSA 080500Z 30008KT 260V330 9999 FEW025 BKN/// 31/23 Q1014

2010/08/08 05:00
RJSC 080500Z VRB09KT 9999 FEW035 SCT050 34/24 Q1013

2010/08/08 05:00
RJSI 080500Z 19008KT 9999 -SHRA FEW030 FEW040CB SCT080 BKN/// 32/23 Q1014

2010/08/08 05:00
RJTF 080500Z 20007KT 150V240 9999 FEW030 BKN130 BKN/// 31/21 Q1015

2010/08/08 05:00
RJTH 080500Z 03008KT 350V060 9999 FEW020 SCT100 BKN/// 28/25 Q1015 RERA

2010/08/08 05:00
RJTI 080500Z 21007KT 9999 FEW020 BKN140 BKN/// 30/20 Q1014

2010/08/08 05:00
RJTO 080500Z VRB01KT 9999 FEW012 SCT020 BKN/// 27/24 Q1015

2010/08/08 04:55
RJTY 080455Z AUTO 18010KT 9999 CLR 30/22 A3003 RMK AO2 SLP161 T03000223 $

2010/08/08 05:00
RJNT 080500Z 36011KT 9999 FEW030 BKN/// 32/22 Q1012

2010/08/08 05:00
RJOA 080500Z 14007KT 100V190 9999 FEW035 30/17 Q1013

2010/08/08 05:00
RJOB 080500Z 13011KT 070V150 9999 FEW035 BKN180 29/20 Q1013

2010/08/08 05:00
RJOC 080500Z 02010KT 9999 FEW030 33/22 Q1010

2010/08/08 05:00
RJOI 080500Z 17004KT 9999 FEW025 SCT230 31/22 A2987 RMK SLP115 FIRST T03110217

2010/08/08 05:00
RJOK 080500Z 16009KT 9999 FEW020 FEW025CB SCT060 BKN/// 30/24 Q1012

2010/08/08 05:00
RJOM 080500Z 34011KT 9999 FEW025 FEW030TCU 33/22 Q1011

2010/08/08 05:00
RJOR 080500Z 04014KT 9999 FEW035 SCT/// 32/22 Q1011

2010/08/08 05:00
RKNY 080500Z 10003KT 080V140 9999 SCT025 26/22 Q1009 NOSIG

2010/08/08 05:00
RKPC 080500Z 30010KT 9999 SCT020 31/23 Q1009 WS ALL RWY NOSIG

2010/08/08 05:00
RKPK 080500Z 20010KT 9999 SCT030 32/21 Q1010 NOSIG

2010/08/08 05:00
RKSI 080500Z 23009KT 180V260 9999 FEW030 31/23 Q1010 NOSIG

2010/08/08 05:00
RKSS 080500Z 21006KT 9999 FEW030 33/18 Q1009 NOSIG

2010/08/08 05:00
RKTU 080500Z 23004KT 9999 SCT030 32/22 Q1010 NOSIG

2010/08/08 05:00
RKTN 080500Z 01003KT 9999 SCT030 32/20 Q1009 NOSIG

2010/08/08 05:00
LCLK 080500Z VRB01KT 9999 FEW025 29/23 Q1008 NOSIG

2010/08/08 05:00
LCPH 080500Z 33006KT 300V360 9999 FEW020 28/23 Q1008

2010/08/08 04:50
BGBW 080450Z AUTO 22002KT 9999NDV -SHRA FEW085/// BKN130/// BKN150/// 11/07 Q1013

2010/08/08 04:50
BGGH 080450Z AUTO 02003KT 9999NDV -RA OVC069/// 11/08 Q1012

2010/08/08 04:50
BGJN 080450Z AUTO VRB01KT 9999NDV NCD 06/01 Q1014

2010/08/08 04:50
BGSF 080450Z 05007KT 9999 FEW200 05/02 Q1014

2010/08/08 04:55
BGTL 080455Z AUTO 14021KT 9999 FEW017 OVC042 04/00 A2990 RMK AO2 PK WND 15031/0400 SLP131 T00430003 $

2010/08/08 05:00
BIAR 080500Z 24001KT CAVOK 08/06 Q1014

2010/08/08 05:00
BIEG 080500Z 00000KT 9999 VCSH SCT026 BKN037 09/07 Q1016

2010/08/08 05:00
BIKF 080500Z 36001KT 9999 FEW030 SCT070 BKN090 11/09 Q1013

2010/08/08 05:00
BIRK 080500Z VRB02KT 9999 SCT032 BKN063 12/08 Q1012

2010/08/08 05:00
GVAC 080500Z 04003KT 9999 BKN017 25/20 Q1013 NOSIG

2010/08/08 05:00
LPLA 080500Z 07005KT 9999 FEW020 20/18 Q1024

2010/08/08 04:55
TXKF 080455Z 17014KT 9999 FEW014 SCT025 BKN300 27/24 Q1016

2010/08/08 04:55
PGRO 080455Z 08010KT 7SM SCT020 30/25 A2980

2010/08/08 04:54
PGSN 080454Z 07013KT 10SM FEW022 SCT060 31/24 A2980 RMK AO2 SLP089 T03060244 $

2010/08/08 04:55
PGUA 080455Z AUTO 07011KT 10SM FEW015 SCT060 29/25 A2981 RMK AO2 SLP077 T02890245 VISNO RWY24L $

2010/08/08 04:54
PGUM 080454Z 08012KT 10SM FEW022TCU SCT050 31/25 A2980 RMK AO2 RAB38E47 SLP083 TCU NE MOV W P0000 T03060250 $

2010/08/08 04:50
PGWT 080450Z 09010KT 7SM BKN015CB 32/25 A2980 RMK CB NE MOV W WIND DATA ESTIMATED

2010/08/08 04:53
PHJR 080453Z VRB05KT 10SM CLR 27/19 A3006 RMK AO2 SLP184 T02720189

2010/08/08 04:54
PHMK 080454Z AUTO 04012G19KT 10SM CLR 24/21 A3006 RMK AO2 SLP182 T02440206 TSNO

2010/08/08 04:56
PKMR 080456Z 07006KT 20SM FEW016 SCT300 31/25 A2976 RMK SLP080 T03080245

2010/08/08 05:00
PKWA 080500Z AUTO 08012KT 10SM SCT019 SCT025 30/23 A2979 RMK AO2 T03040227

2010/08/08 04:56
PMDY 080456Z AUTO 09008KT 10SM FEW028 28/21 A3019 RMK AO2 TSNO T02830211 SLP532

2010/08/08 04:50
PTKK 080450Z VRB05KT 15SM FEW014CB SCT120 OVC280 32/26 A2974 RMK CB N SLP072 T03190256

2010/08/08 04:56
PTKR 080456Z 02010KT 15SM FEW017CB BKN120 OVC300 30/24 A2979 RMK CB NW-NE SLP087 T02980240

2010/08/08 04:50
PTRO 080450Z 33005KT 15SM BKN016CB BKN120 OVC300 29/23 A2981 RMK CB VC ALQDS

2010/08/08 04:55
PTTP 080455Z 08008KT 15SM SCT018 OVC300 31/25 A2977 RMK SLP079 T03060246

2010/08/08 04:52
PTYA 080452Z 04007KT 12SM SCT015CB BKN130 OVC300 30/25 A2977 RMK CB VC SW-NW SLP081 T02950249

2010/08/08 04:56
KABQ 080456Z 33009KT 10SM SCT095 23/12 A3012

2010/08/08 04:52
KATL 080452Z 00000KT 9SM CLR 26/23 A2997

2010/08/08 04:53
KBGR 080453Z 00000KT 9SM BKN080 12/10 A3000

2010/08/08 04:53
KBHM 080453Z 00000KT 10SM FEW100 28/21 A2995

2010/08/08 04:53
KBNA 080453Z 07003KT 8SM CLR 25/18 A2997

2010/08/08 04:54
KBOS 080454Z 00000KT 10SM CLR 18/12 A3002

2010/08/08 04:54
KBWI 080454Z 00000KT 10SM BKN100 21/16 A3000

2010/08/08 04:56
KCHS 080456Z 00000KT 7SM CLR 26/24 A2994

2010/08/08 04:51
KCLE 080451Z 18007KT 10SM BKN250 21/15 A3000

2010/08/08 04:52
KCLT 080452Z 06005KT 9SM CLR 25/19 A3000

2010/08/08 04:52
KCVG 080452Z 18003KT 10SM CLR 21/15 A2999

2010/08/08 04:53
KDEN 080453Z COR 15011G23KT 10SM SCT110 BKN200 20/16 A3004

2010/08/08 04:53
KDEN 080453Z 15011G23KT 10SM SCT110 BKN200 20/16 A3004

2010/08/08 04:53
KDFW 080453Z 18009KT 10SM CLR 31/20 A2985

2010/08/08 04:53
KDTW 080453Z 22007KT 6SM HZ SCT200 21/17 A2995

2010/08/08 04:51
KEWR 080451Z 19005KT 10SM CLR 23/18 A3000

2010/08/08 04:53
KFLL 080453Z COR 00000KT 10SM FEW035 28/24 A2997

2010/08/08 04:53
KFLL 080453Z 00000KT 10SM CLR 28/24 A2997

2010/08/08 04:52
KIAD 080452Z 00000KT 10SM CLR 20/16 A3000

2010/08/08 04:53
KIAH 080453Z 18005KT 10SM CLR 29/24 A2991

2010/08/08 04:54
KIND 080454Z 17003KT 9SM CLR 22/17 A2997

2010/08/08 04:56
KJAX 080456Z 27003KT 10SM FEW025 BKN150 OVC250 24/23 A2993

2010/08/08 04:51
KJFK 080451Z 21012KT 10SM CLR 23/20 A3001

2010/08/08 04:56
KLAS 080456Z 17013G20KT 10SM FEW120 SCT150 33/13 A2975

2010/08/08 04:53
KLAX 080453Z 27008KT 10SM BKN012 16/12 A2990

2010/08/08 04:51
KLGA 080451Z 18007KT 10SM CLR 24/19 A2999

2010/08/08 04:53
KLIT 080453Z 00000KT 10SM BKN055 BKN250 27/24 A2991

2010/08/08 04:53
KLOU 080453Z 00000KT 10SM CLR 23/17 A2998

2010/08/08 04:53
KMCI 080453Z 17008KT 10SM FEW250 27/21 A2986

2010/08/08 04:53
KMCO 080453Z 23005KT 10SM FEW100 BKN140 OVC180 27/24 A2995

2010/08/08 04:53
KMEM 080453Z 19003KT 10SM FEW070 28/24 A2992

2010/08/08 04:53
KMIA 080453Z 00000KT 10SM FEW040 SCT130 BKN250 28/25 A2999

2010/08/08 04:53
KMSP 080453Z 21009KT 9SM BKN050 28/22 A2970

2010/08/08 05:00
RPLB 080500Z 23018KT 7000 -RA SCT018 OVC080 29/25 Q1006 LGT RA CONTUS

2010/08/08 05:00
RPLC 080500Z 18005KT 7000 - RA SCT025 OVC080 25/24 Q1006 A2972 LGT RA CONTUS

2010/08/08 05:00
RPLL 080500Z 24010KT 9000 SCT023 BKN090 30/25 Q1006 RERA RMK A2971

2010/08/08 05:00
RPMD 080500Z 18004KT 9999 FEW015CB BKN090 BKN290 31/26 Q1008 CB E

2010/08/08 05:00
RPMZ 080500Z 00000KT 9999 FEW018CB BKN120 32/26 Q1010 CB N SE

2010/08/08 05:00
RPVM 080500Z 20006KT 9999 FEW020 OVC250 32/25 Q1008 A2979

2010/08/08 05:00
LPLA 080500Z 07005KT 9999 FEW020 20/18 Q1024

2010/08/08 05:00
UBBB 080500Z 30008KT CAVOK 31/23 Q1010 NOSIG RMK R88CLRD70

2010/08/08 05:00
UBBG 080500Z 34005KT 9999 FEW100 28/15 Q1013 NOSIG RMK R30R/CLRD70

2010/08/08 05:00
UTTT 080500Z 33005MPS CAVOK 33/12 Q1007 R08R/CLRD70 NOSIG

2010/08/08 05:00
SKBO 080500Z VRB02KT 9999 SCT020 SCT080 13/10 A3037 NOSIG

2010/08/08 05:00
SKBQ 080500Z 00000KT 9999 BKN012 26/25 A2990

2010/08/08 05:00
SKCL 080500Z 04004KT 9999 FEW020 BKN090 21/18 A3005

2010/08/08 05:00
SKRG 080500Z 00000KT 9999 FEW010 BKN080 16/15 A3031

2010/08/08 05:00
SKSP 080500Z 05006KT 9999 FEW015 BKN200 29/26 A2989

2010/08/08 05:00
SOCA 080500Z 16002KT 9999 FEW021 25/23 Q1013 NOSIG

2010/08/08 05:00
SPIM 080500Z 17006KT 7000 SCT007 OVC013 14/12 Q1016 NOSIG RMK PP000

2010/08/08 05:00
SVMI 080500Z 00000KT 9999 FEW016 27/24 Q1013 NOSIG

2010/08/08 04:53
KMSY 080453Z 25007KT 10SM FEW050 SCT250 29/25 A2993

2010/08/08 04:53
KOAK 080453Z 26012KT 10SM FEW005 BKN008 15/12 A2987

2010/08/08 04:52
KOKC 080452Z 16009KT 10SM CLR 29/22 A2986

2010/08/08 04:53
KONT 080453Z 25008KT 10SM CLR 17/12 A2990

2010/08/08 04:51
KORD 080451Z 20006KT 10SM CLR 23/19 A2990

2010/08/08 04:51
KORF 080451Z 10004KT 7SM FEW005 25/23 A2999

2010/08/08 04:53
KPBI 080453Z COR 21004KT 10SM FEW039 SCT090 27/24 A2996

2010/08/08 04:53
KPBI 080453Z 21004KT 10SM FEW039 SCT090 27/26 A2996

2010/08/08 04:54
KPHF 080454Z 00000KT 1/2SM FG VV001 22/22 A3000

2010/08/08 04:54
KPHL 080454Z 18006KT 10SM FEW100 SCT250 24/20 A3001

2010/08/08 04:51
KPHX 080451Z 07012KT 10SM FEW055 SCT110 BKN130 BKN160 BKN250 29/21 A2980

2010/08/08 04:51
KPIT 080451Z 00000KT 10SM FEW250 17/13 A3003

2010/08/08 04:51
KRDU 080451Z 06003KT 9SM FEW050 SCT075 24/19 A2999

2010/08/08 04:51
KSAN 080451Z VRB03KT 10SM FEW010 OVC018 17/13 A2993

2010/08/08 04:53
KSEA 080453Z 20004KT 10SM FEW006 BKN014 OVC075 17/16 A2992

2010/08/08 04:56
KSFO 080456Z 24007KT 10SM FEW006 14/10 A2986

2010/08/08 04:51
KSTL 080451Z 14008KT 8SM CLR 25/18 A2994

2010/08/08 04:51
KTEB 080451Z 00000KT 10SM CLR 23/18 A2998

2010/08/08 04:53
KTPA 080453Z 24007KT 10SM FEW025 SCT130 SCT250 29/24 A2996

2010/08/08 05:00
SCAR 080500Z 12005KT 9999 OVC021 14/08 Q1017

2010/08/08 05:00
SCBA 080500Z AUTO 30015KT 9999 -RA VV/// 03/00 Q1014

2010/08/08 05:00
SCDA 080500Z 00000KT 9999 OVC022 13/09 Q1018

2010/08/08 05:00
SCEL 080500Z 36006KT CAVOK 04/01 Q1026 NOSIG

2010/08/08 05:00
SCFA 080500Z 13006KT 9999 BKN015 11/08 Q1016

2010/08/08 05:00
SCTE 080500Z 00000KT 9999 SCT070 02/02 Q1027 NOSIG

2010/08/08 05:00
SGAS 080500Z 16008KT CAVOK 16/11 Q1014

2010/08/08 05:00
SGES 080500Z 09006KT CAVOK 14/13 Q1016

2010/08/08 05:00
SLCB 080500Z 00000KT 9999 SKC 08/01 Q1024

2010/08/08 05:00
SLLP 080500Z 04004KT 010V070 9999 SKC 01/M12 Q1039

2010/08/08 05:00
SLVR 080500Z 32007KT 5000 FU NSC 17/13 Q1013

2010/08/08 05:00
SULS 080500Z 00000KT 0040 FG NSC 06/06 Q1021

2010/08/08 05:00
SULS 080500 00000KT 0040 FG NSC 06/06 Q1021

2010/08/08 05:00
SUMU 080500Z 00000KT 0050 R24/0900 R19/0150 FG BKN001 06/06 Q1021 TEMPO 0300 FG

2010/08/08 05:00
SKPE 080500Z VRB02KT 9999 SCT015 SCT070 19/18 A3015

2010/08/08 05:00
SCSE 080500Z 11006KT CAVOK 07/06 Q1021 NEFO PLAYA SKC

2010/08/08 05:00
SCTC 080500Z VRB01KT 0400 FG SCT015 03/03 Q1029

2010/08/08 05:00
LEAL 080500Z VRB01KT CAVOK 22/14 Q1018 NOSIG

2010/08/08 05:00
LEAM 080500Z 30003KT 270V350 9999 FEW090 27/08 Q1016

2010/08/08 05:00
LEAS 080500Z 09006KT 060V120 9999 SCT017 BKN030 19/16 Q1020 NOSIG

2010/08/08 05:00
LEBB 080500Z 10004KT 7000 SCT018 BKN035 18/16 Q1021 NOSIG

2010/08/08 05:00
LEBL 080500Z 32004KT 300V360 CAVOK 21/18 Q1018 NOSIG

2010/08/08 05:00
LECO 080500Z VRB01KT 9999 FEW030 15/15 Q1018

2010/08/08 05:00
LEGE 080500Z 00000KT 7000 NSC 20/19 Q1018

2010/08/08 05:00
LEGR 080500Z 13004KT 100V170 9999 FEW100 23/16 Q1019

2010/08/08 05:00
LEIB 080500Z 00000KT CAVOK 20/18 Q1018 NOSIG

2010/08/08 05:00
LEJR 080500Z VRB02KT CAVOK 25/13 Q1015

2010/08/08 05:00
LELL 080500Z VRB02KT CAVOK 19/16 Q1018

2010/08/08 05:00
LEMD 080500Z VRB02KT CAVOK 23/13 Q1019 NOSIG

2010/08/08 05:00
LEMG 080500Z VRB01KT 9999 FEW020 25/20 Q1017 NOSIG

2010/08/08 05:00
LEMH 080500Z 33004KT 9999 FEW025 20/18 Q1019

2010/08/08 05:00
LEPA 080500Z VRB01KT CAVOK 17/16 Q1019 NOSIG

2010/08/08 05:00
LEPP 080500Z VRB02KT 9999 FEW015 14/13 Q1021

2010/08/08 05:00
LERS 080500Z 04003KT 350V080 9999 FEW035 20/17 Q1018

2010/08/08 05:00
LESO 080500Z 00000KT 9999 SCT020 BKN040 19/16 Q1021

2010/08/08 05:00
LEST 080500Z VRB02KT CAVOK 14/13 Q1018 NOSIG

2010/08/08 05:00
LETO 080500Z 02004KT CAVOK 22/11 Q1019 NOSIG

2010/08/08 05:00
LEVC 080500Z VRB02KT CAVOK 21/17 Q1018 NOSIG

2010/08/08 05:00
LEVD 080500Z 06005KT CAVOK 14/11 Q1020

2010/08/08 05:00
LEVS 080500Z 07005KT 020V140 CAVOK 24/14 Q1019

2010/08/08 05:00
LEVT 080500Z 15001KT 9999 BKN017 15/14 Q1022

2010/08/08 05:00
LEVX 080500Z 20008KT CAVOK 17/14 Q1015

2010/08/08 05:00
LEXJ 080500Z 11005KT 9999 FEW020 OVC026 19/17 Q1021

2010/08/08 05:00
LEZG 080500Z 28012KT 9999 FEW050 20/14 Q1019

2010/08/08 05:00
LEZL 080500Z 15002KT CAVOK 26/14 Q1015 NOSIG

2010/08/08 05:00
DTMB 080500Z 35009KT CAVOK 24/14 Q1018 NOSIG

2010/08/08 05:00
DTTA 080500Z 27004KT 9999 FEW033 21/16 Q1018 NOSIG

2010/08/08 05:00
DTTB 080500Z 24002KT CAVOK 17/15 Q1019

2010/08/08 05:00
DTTG 080500Z 08014KT 8000 SCT030 25/21 Q1016 NOSIG

2010/08/08 05:00
DTTJ 080500Z 07008KT 6000 FEW020 26/23 Q1016 NOSIG

2010/08/08 05:00
DTTK 080500Z 01002KT 8000 FEW023 22/15 Q1017

2010/08/08 05:00
DTTN 080500Z 00000KT 9999 FEW020 14/12 Q1019 RAS

2010/08/08 05:00
DTTX 080500Z 02004KT 9999 SCT033 24/19 Q1017 NOSIG

2010/08/08 05:00
UKBB 080500Z 15002MPS CAVOK 25/17 Q1014 88CLRD95 NOSIG

2010/08/08 05:00
UKCC 080500Z 10005MPS CAVOK 32/08 Q1016 08090070 NOSIG

2010/08/08 05:00
UKDD 080500Z 06004MPS CAVOK 26/12 Q1015 08090070 NOSIG

2010/08/08 05:00
UKDE 080500Z 12004MPS 050V180 CAVOK 29/09 Q1015 20CLRD70 NOSIG

2010/08/08 05:00
UKDR 080500Z 07004MPS CAVOK 26/14 Q1014 1809//70 NOSIG

2010/08/08 05:00
UKFF 080500Z 11001MPS CAVOK 28/15 Q1011 01010070 NOSIG

2010/08/08 05:00
UKHH 080500Z 00000MPS CAVOK 27/14 Q1017 080///65 NOSIG

2010/08/08 05:00
UKLL 080500Z 00000MPS CAVOK 19/18 Q1015 13210360 NOSIG

2010/08/08 05:00
UKOO 080500Z 04002MPS CAVOK 26/24 Q1012 34090070 NOSIG

2010/08/08 04:50
EDDS 080450Z 20002KT CAVOK 14/12 Q1017 TEMPO 4000 RA

2010/08/08 04:50
EDMA 080450Z 15003KT CAVOK 12/11 Q1018

2010/08/08 04:50
EGPK 080450Z 12002KT 9999 FEW045 09/08 Q1020

2010/08/08 04:55
EGUL 080455Z AUTO 32005KT 9999 FEW006 OVC011 14/14 A3006 RMK AO2 CIG 010V015 OVC V BKN SLP181 T01440138

2010/08/08 04:55
EGUN 080455Z AUTO 33008KT 9999 SCT007 OVC016 14/14 A3007 RMK AO2 RAB0353E0404 CIG 013V020 CIG 011 RWY11 SLP172 P0000 T01430143

2010/08/08 04:55
EGVA 080455Z AUTO 36005KT 9999 CLR 13/13 A3012 RMK AO2 SLP200 T01340127 $

2010/08/08 04:55
ETAD 080455Z AUTO 21005KT 9999 SCT035 SCT060 OVC080 15/14 A3000 RMK AO2 RAE0448DZB0448E0454 SLP148 P0004 T01480142 $

2010/08/08 04:55
ETAR 080455Z AUTO 00000KT 9999 BKN070 BKN090 15/15 A3000 RMK AO2 RAE0414DZB0414E0417 SLP152 P0002 T01500150 $

2010/08/08 04:55
KQIR 080455Z VRB03KT 9999 BKN150 35/17 A2952 RMK AO2A SLP996 T03540171

2010/08/08 05:00
LEMO 080500Z 00000KT CAVOK 27/14 Q1015 NOSIG

2010/08/08 04:50
LIRN 080450Z VRB02KT CAVOK 19/15 Q1016

2010/08/08 04:55
LIYW 080455Z AUTO 03003KT 9999 CLR 18/17 A3004 RMK AO2 SLP171 T01760174

2010/08/08 05:00
LPLA 080500Z 07005KT 9999 FEW020 20/18 Q1024

2010/08/08 04:50
LTAC 080450Z 01008KT CAVOK 28/03 Q1013 NOSIG

2010/08/08 04:57
PHNG 080457Z AUTO 07005KT 10SM FEW019 BKN060 26/22 A3007 RMK AO2 SLP177 T02610222 $

2010/08/08 04:55
FJDG 080455Z 12012KT 9999 FEW020 FEW250 29/25 A2988 RMK SLP115 T02860248

2010/08/08 04:56
PHBK 080456Z AUTO 29004KT 10SM BKN043 29/20 A3003 RMK AO2 SLP172 T02890200 TSNO $

2010/08/08 04:55
PHHI 080455Z AUTO 07005KT 10SM FEW026 BKN041 OVC050 25/19 A3008 RMK AO2 SLP174 T02460191 $

2010/08/08 05:00
PKWA 080500Z AUTO 08012KT 10SM SCT019 SCT025 30/23 A2979 RMK AO2 T03040227

2010/08/08 04:56
PMDY 080456Z AUTO 09008KT 10SM FEW028 28/21 A3019 RMK AO2 TSNO T02830211 SLP532

2010/08/08 05:00
RJOI 080500Z 17004KT 9999 FEW025 SCT230 31/22 A2987 RMK SLP115 FIRST T03110217

2010/08/08 04:55
RJTY 080455Z AUTO 18010KT 9999 CLR 30/22 A3003 RMK AO2 SLP161 T03000223 $

2010/08/08 05:00
RKPK 080500Z 20010KT 9999 SCT030 32/21 Q1010 NOSIG

2010/08/08 04:55
RKSO 080455Z 23006KT 9999 CLR 32/26 A2982 RMK AO2A SLP098 T03250256 $

2010/08/08 04:55
RODN 080455Z 15008KT 9999 -RA FEW017 SCT029 BKN038 BKN100 29/27 A2963 RMK AO2A RAB0444 FEW V SCT SLP032 P0000 T02900265

2010/08/08 04:50
BGAA 080450Z AUTO 07002KT 9999NDV BKN230/// 08/03 Q1014

2010/08/08 04:50
BGMQ 080450Z AUTO 11013KT 340V140 9999NDV NCD 15/05 Q1010

2010/08/08 04:50
BGSS 080450Z AUTO 00000KT 9999NDV NCD 13/06 Q1011

2010/08/08 04:50
BGUK 080450Z AUTO VRB01KT 9999NDV ///028/// 10/07 Q1016 RMK ///

2010/08/08 05:00
BKPR 080500Z 31004KT 8000 FEW010 SCT030 18/15 Q1017 NOSIG RMK BLU

2010/08/08 05:00
DTKA 080500Z 08004KT 9999 FEW020 17/16 Q1018 NOSIG RAS

2010/08/08 04:50
EDDE 080450Z 20006KT CAVOK 14/12 Q1015 NOSIG

2010/08/08 04:50
EDFH 080450Z 27005KT 220V290 5000 -SHRA FEW015 SCT024TCU BKN045 14/12 Q1016 RERA

2010/08/08 04:50
EDLV 080450Z VRB02KT 3000 BR BKN003 16/16 Q1015 RERA

2010/08/08 04:50
EDSB 080450Z VRB02KT 9999 VCSH FEW012 SCT026 BKN050 16/15 Q1017

2010/08/08 04:50
EDTL 080450Z 21006KT 9999 FEW038 FEW050CB SCT070 17/13 Q1016

2010/08/08 04:50
EEPU 080450Z 17006KT 110V210 8000 NSC 23/21 Q1013

2010/08/08 04:50
EETU 080450Z 12005KT 5000 BR NSC 22/20 Q1013

2010/08/08 04:50
EFET 080450Z AUTO 32001KT CAVOK 15/12 Q1017

2010/08/08 04:50
EFJO 080450Z AUTO 16009KT 130V210 8000 SKC 24/21 Q1016

2010/08/08 04:50
EFKA 080450Z AUTO 33005KT 300V360 CAVOK 19/18 Q1013

2010/08/08 04:50
EFKI 080450Z AUTO 08003KT CAVOK 19/18 Q1016

2010/08/08 04:50
EFKS 080450Z AUTO 09002KT 0600 -RA FG VV003 16/15 Q1017

2010/08/08 04:50
EFKT 080450Z AUTO 10001KT 9999 SCT003 16/14 Q1017

2010/08/08 04:50
EFLP 080450Z 12004KT 080V150 8000 FEW085 25/19 Q1016

2010/08/08 04:50
EFMI 080450Z AUTO 13006KT 090V160 8000 SKC 24/21 Q1015

2010/08/08 04:50
EFSA 080450Z AUTO 15005KT 120V190 9000NDV NCD 24/20 Q1016

2010/08/08 04:50
EFSI 080450Z AUTO 35005KT 320V020 5000 BR BKN001 18/18 Q1012

2010/08/08 04:50
EFUT 080450Z AUTO 13007KT CAVOK 24/20 Q1015

2010/08/08 04:50
EFVR 080450Z AUTO 13005KT 9000 SKC 23/21 Q1015

2010/08/08 04:50
EGCN 080450Z 30006KT CAVOK 12/11 Q1020

2010/08/08 04:50
EGDX 080450Z AUTO 31003KT 9999NDV // BKN033/// 12/10 Q1021

2010/08/08 04:50
EGEC 080450Z AUTO 30004KT 9999NDV // BKN011/// 12/11 Q1020

2010/08/08 04:50
EGOM 080450Z AUTO 07002KT 8000NDV BR FEW032/// BKN037/// BKN060/// 11/11 Q1019

2010/08/08 04:50
EGOP 080450Z AUTO 36004KT 0150NDV // BKN001/// 11/11 Q1021

2010/08/08 04:50
EGPI 080450Z AUTO 36003KT 9999NDV // BKN011/// 10/10 Q1020

2010/08/08 04:50
EGVN 080450Z 29002KT 9999 FEW012 SCT016 BKN032 14/12 Q1020 WHT BECMG FEW016 BLU

2010/08/08 04:50
EGVN 080450Z 29002KT 9999 FEW012 SCT016 BKN032 14/12 Q1020 BECMG FEW016

2010/08/08 04:50
EGXC 080450Z 31006KT CAVOK 12/11 Q1019

2010/08/08 04:50
EGXC 080450Z 31006KT CAVOK 12/11 Q1019 BLU

2010/08/08 04:50
EGXD 080450Z AUTO 27003KT 9999NDV // BKN070/// 11/11 Q1020

2010/08/08 04:50
EGXW 080450Z 33008KT 5000 BR FEW060 12/11 Q1019 WHT

2010/08/08 04:50
EGXX 080450Z AUTO 33013KT 9999NDV // FEW023/// 14/13 Q1019

2010/08/08 04:50
EKGF 080450Z 34012KT 9999 FEW007 16/16 Q1016

2010/08/08 04:50
ENHE 080450Z 05019KT 9999 FEW005 12/12 Q1018

2010/08/08 05:00
EPWR 080500Z 30008KT 4000 -RADZ BKN004 17/17 Q1015

2010/08/08 04:50
ESGR 080450Z AUTO 31002KT 9999NDV FEW084/// 16/16 Q1013

2010/08/08 04:50
ESMQ 080450Z AUTO 35006KT 9999NDV FEW002/// OVC004/// 16/16 Q1010

2010/08/08 04:50
ESMT 080450Z AUTO VRB01KT 9999NDV -RA SCT080/// 16/15 Q1012

2010/08/08 04:50
ESNG 080450Z AUTO 26003KT 9999NDV NCD 13/12 Q1017

2010/08/08 04:50
ESNK 080450Z AUTO 00000KT 9999NDV NCD 16/15 Q1013 REDZ RERA

2010/08/08 04:50
ESNL 080450Z AUTO VRB01KT 9999NDV FEW064/// BKN100/// 15/13 Q1017

2010/08/08 04:50
ESNX 080450Z AUTO 30003KT 9999NDV NCD 14/13 Q1017

2010/08/08 04:50
ESNY 080450Z AUTO 30004KT 8000 -SHRA SCT033 BKN041 16/16 Q1014

2010/08/08 04:50
ESOE 080450Z AUTO 34007KT 9999NDV BKN044/// 16/15 Q1013

2010/08/08 04:50
ESSL 080450Z 02006KT 8000 BR OVC002 15/15 Q1011

2010/08/08 04:50
ESTA 080450Z AUTO 01004KT 9999NDV SCT100/// 17/16 Q1012

2010/08/08 04:50
ESTL 080450Z AUTO 29005KT 9000NDV BR OVC090/// 16/16 Q1012

2010/08/08 04:50
ESUT 080450Z AUTO 00000KT 0150NDV R33/0300 FG VV000 09/09 Q1018

2010/08/08 04:55
ETOU 080455Z AUTO 00000KT 9999 -RA SCT048 OVC070 17/15 A2999 RMK AO2 RAB0427 SLP153 P0000 T01650146

2010/08/08 04:50
ETUO 080450Z AUTO 00000KT 1900NDV // FEW100/// BKN170/// 16/15 Q1014

2010/08/08 04:50
EVLA 080450Z AUTO 00000KT 7000 NSC 19/19 Q1010

2010/08/08 04:50
EVVA 080450Z AUTO VRB03KT 9999 -RA FEW019 19/18 Q1010

2010/08/08 04:50
EYKA 080450Z 13005KT 080V160 CAVOK 20/20 Q1012

2010/08/08 04:50
EYPA 080450Z 11003KT 5000 BR NSC 20/20 Q1010

2010/08/08 05:00
FAGC 080500Z AUTO 01006KT //// // ////// 08/02 Q1027

2010/08/08 05:00
FAJB 080500Z AUTO 00000KT //// // ////// 05/01 Q1027

2010/08/08 05:00
FAMM 080500Z 04004KT CAVOK 09/00 Q1025 NOSIG

2010/08/08 05:00
FAPP 080500Z 18001KT 8000 NSC 05/03 Q1026 NOSIG

2010/08/08 05:00
FASI 080500Z AUTO 00000KT //// // ////// 03/M00 Q1027

2010/08/08 05:00
FAVV 080500Z AUTO 34004KT //// // ////// 02/M00 Q1024

2010/08/08 05:00
FMNA 080500Z 160//KT 9999 FEW013 24/14 Q1017

2010/08/08 05:00
FMSD 080500Z 08012KT 5000 -RA SCT017 BKN033 19/19 Q1026

2010/08/08 05:00
FQLC 080500Z 13008KT 9999 BKN017 13/11 Q1024

2010/08/08 05:00
FQNP 080500Z 23006KT 9999 FEW020 19/18 Q1021

2010/08/08 05:00
FQQL 080500Z VRB02KT 9999 FEW020 BKN100 18/16 Q1021

2010/08/08 05:00
FQTT 080500Z 00000KT 9999 SCT025 BKN100 21/15 Q1021

2010/08/08 05:00
FYML 080500Z AUTO 08004KT //// // ////// ///// Q1023

2010/08/08 05:00
FYOA 080500Z AUTO 08004KT //// // ////// 14/02 Q1020

2010/08/08 05:00
FYOJ 080500Z AUTO 00000KT //// // ////// 10/M01 Q1021

2010/08/08 05:00
FYOW 080500Z AUTO 12002KT //// // ////// 11/M01 Q1023

2010/08/08 05:00
FYWW 080500Z 10004KT CAVOK 13/M02 Q1025

2010/08/08 05:02
KCBE 080502Z AUTO 36003KT 10SM SCT090 20/16 A3007 RMK AO1

2010/08/08 04:55
KEGI 080455Z AUTO 00000KT 10SM FEW120 25/24 A2991 RMK AO2 SLP130 T02520240 $

2010/08/08 05:06
KESN 080506Z AUTO 00000KT 10SM CLR 21/20 A3004 RMK AO2

2010/08/08 05:03
KFME 080503Z AUTO 00000KT 7SM BKN090 BKN110 16/16 A3002 RMK AO1

2010/08/08 04:55
KGYH 080455Z AUTO 00000KT 10SM SCT047 SCT055 BKN075 27/20 A3000 RMK AO2

2010/08/08 05:00
LBGO 080500Z 00000MPS 6000 SCT050 20/20 Q1014 NOSIG

2010/08/08 05:00
LDLO 080500Z 02003KT CAVOK 21/17 Q1017

2010/08/08 05:00
LEAB 080500Z 14009KT CAVOK 19/10 Q1021 NOSIG

2010/08/08 05:00
LEBA 080500Z VRB01KT CAVOK 26/14 Q1016

2010/08/08 05:00
LEBZ 080500Z 30001KT CAVOK 26/14 Q1015

2010/08/08 05:00
LELN 080500Z 35005KT CAVOK 14/07 Q1021

2010/08/08 05:00
LESA 080500Z 00000KT CAVOK 16/14 Q1019

2010/08/08 05:00
LETO 080500Z 02004KT CAVOK 22/11 Q1019 NOSIG

2010/08/08 05:00
LFBE 080500Z 27005KT CAVOK 15/14 Q1020 NOSIG

2010/08/08 05:00
LFBG 080500Z AUTO 25003KT 9999NDV NSC 14/13 Q1020

2010/08/08 05:00
LFCR 080500Z AUTO 00000KT 9999NDV NSC 13/12 Q1020

2010/08/08 05:00
LFJL 080500Z AUTO 29011KT 9999NDV FEW012 SCT022 BKN052 15/13 Q1017

2010/08/08 05:00
LFLX 080500Z 34004KT 9999 BKN025 18/15 Q1019 NOSIG

2010/08/08 05:00
LFMI 080500Z AUTO 05003KT 9999NDV NSC 16/13 Q1017

2010/08/08 05:00
LFMK 080500Z 28008KT CAVOK 18/14 Q1020 NOSIG

2010/08/08 05:00
LFMO 080500Z AUTO 00000KT 9999NDV NSC 14/08 Q1017

2010/08/08 05:00
LFMU 080500Z AUTO 29003KT 9999NDV NSC 16/13 Q1018

2010/08/08 05:00
LFMV 080500Z AUTO 20001KT 9999NDV NSC 14/11 Q1017

2010/08/08 05:00
LFOA 080500Z AUTO 27002KT 9999NDV BKN031 OVC060 15/14 Q1019

2010/08/08 05:00
LFOJ 080500Z AUTO 28005KT 9999NDV NSC 12/11 Q1019

2010/08/08 05:00
LFOK 080500Z AUTO 24007KT 9999NDV FEW045 SCT062 15/14 Q1018

2010/08/08 05:00
LFQI 080500Z AUTO 26006KT 9999NDV OVC004 15/14 Q1017

2010/08/08 05:00
LKCV 080500Z 00000KT 9999 -RA SCT037 BKN070 OVC100 16/15 Q1016 NOSIG RMK BLU BLU

2010/08/08 05:00
LKKV 080500Z VRB01KT CAVOK 13/10 Q1017

2010/08/08 05:00
LKNA 080500Z 29009KT 9999 BKN034 BKN100 14/14 Q1016 NOSIG RMK BLU BLU

2010/08/08 05:00
LKPD 080500Z 28005KT 9999 SCT007 BKN050 OVC090 15/15 Q1016 NOSIG RMK BLU BLU

2010/08/08 05:00
LKPO 080500Z 16004KT 6000 OVC008 15/15 Q1015 NOSIG RMK GRN GRN

2010/08/08 04:50
LLIB 080450Z 01002KT 6000 SKC 27/19 Q1011

2010/08/08 04:50
LLSD 080450Z 36002KT 9999 SCT020 29/23 Q1009

2010/08/08 04:50
LOXT 080450Z 24005KT 20KM FEW050SC SCT060SC BKN080AC 15/14 Q1017 RMK OVC

2010/08/08 04:50
LOXZ 080450Z VRB02KT 0100 FG FEW050SC 09/08 Q1020 RMK FEW

2010/08/08 05:00
LQBK 080500Z 18002KT CAVOK 16/15 Q1017 NOSIG

2010/08/08 05:00
LQMO 080500Z 00000KT 9999 FEW045 16/14 Q1015

2010/08/08 04:50
LTAZ 080450Z 11005KT 090V150 CAVOK 24/08 Q1013

2010/08/08 04:50
LTBR 080450Z 24002KT 8000 NSC 23/19 Q1012 NOSIG

2010/08/08 04:50
LTBU 080450Z 04008KT CAVOK 25/22 Q1011

2010/08/08 04:50
LTCF 080450Z 00000KT CAVOK 16/09 Q1022

2010/08/08 04:50
LTFH 080450Z VRB02KT 9999 FEW036 26/23 Q1009 NOSIG

2010/08/08 04:50
LTFJ 080450Z VRB02KT 3200 BR SCT018 26/24 Q1011 BECMG 6000

2010/08/08 05:00
LZKC 080500Z AUTO 18004KT 140V230 //// ////// 19/17 Q1015

2010/08/08 05:00
LZLU 080500Z AUTO 22004KT 160V290 //// ////// 16/15 Q1016

2010/08/08 05:00
LZNI 080500Z AUTO 25006KT 9999 ////// 16/15 Q1016

2010/08/08 05:00
LZPE 080500Z AUTO VRB01KT 4600 -RA ////// 15/14 Q1016

2010/08/08 05:00
LZPP 080500Z 17002KT 5000 -RA SCT005 OVC010 16/15 Q1016

2010/08/08 05:00
LZSL 080500Z 00000KT 9999 -DZ BKN006 BKN016 15/13 Q1016

2010/08/08 04:51
KABE 080451Z 00000KT 10SM FEW065 18/15 A3001

2010/08/08 04:53
KAGC 080453Z 17005KT 10SM CLR 18/14 A3003

2010/08/08 04:54
KAKR 080454Z AUTO 00000KT 10SM CLR 18/14 A3001

2010/08/08 04:51
KALB 080451Z 00000KT 10SM SCT180 14/11 A3002

2010/08/08 04:56
KART 080456Z AUTO 18003KT 10SM CLR 16/11 A2996

2010/08/08 04:54
KAVP 080454Z 11003KT 10SM CLR 17/12 A3002

2010/08/08 04:53
KBAF 080453Z 00000KT 10SM CLR 14/12 A3001

2010/08/08 04:51
KBDL 080451Z 00000KT 10SM CLR 17/12 A3000

2010/08/08 04:52
KBDR 080452Z 23006KT 10SM CLR 23/20 A3000

2010/08/08 04:56
KBED 080456Z AUTO 00000KT 10SM CLR 13/10 A3001

2010/08/08 04:54
KBTV 080454Z 00000KT 10SM CLR 13/11 A2998

2010/08/08 04:54
KBUF 080454Z 17005KT 10SM FEW070 SCT085 BKN250 17/11 A2997

2010/08/08 04:53
KBVY 080453Z AUTO 00000KT 10SM CLR 13/09 A3001

2010/08/08 04:56
KCAE 080456Z 00000KT 5SM BR CLR 26/24 A2995

2010/08/08 04:51
KCAK 080451Z 17004KT 10SM SCT150 19/14 A3002

2010/08/08 04:55
KCEF 080455Z AUTO 00000KT 10SM CLR 14/12 A3000

2010/08/08 04:51
KCMH 080451Z 00000KT 10SM CLR 19/17 A3000

2010/08/08 04:53
KCRQ 080453Z AUTO 00000KT 10SM OVC014 17/13 A2991

2010/08/08 04:54
KCRW 080454Z 00000KT 8SM CLR 19/17 A3002

2010/08/08 04:56
KDAY 080456Z 15007KT 10SM CLR 21/15 A3002

2010/08/08 04:55
KDOV 080455Z AUTO 16004KT 10SM FEW095 23/22 A2999

2010/08/08 04:51
KERI 080451Z 17008KT 10SM CLR 19/12 A2998

2010/08/08 04:53
KEWB 080453Z AUTO 00000KT 10SM R05/5000VP6000FT CLR 16/15 A3002

2010/08/08 05:02
KFDK 080502Z AUTO 00000KT 10SM CLR 20/16 A3002

2010/08/08 04:53
KFVE 080453Z AUTO 17004KT 10SM CLR 09/06 A2992

2010/08/08 04:56
KGON 080456Z AUTO 00000KT 10SM CLR 18/16 A3002

2010/08/08 04:54
KGSO 080454Z 00000KT 8SM CLR 23/19 A3003

2010/08/08 04:53
KGSP 080453Z AUTO 01003KT 9SM CLR 24/21 A2999

2010/08/08 04:56
KHPN 080456Z 17004KT 10SM CLR 20/18 A3000

2010/08/08 04:51
KHTS 080451Z 00000KT 8SM CLR 18/17 A3000

2010/08/08 04:53
KHUL 080453Z AUTO 20003KT 10SM CLR 08/06 A2996

2010/08/08 04:53
KHVN 080453Z AUTO 00000KT 10SM CLR 23/20 A3001

2010/08/08 04:53
KIAG 080453Z AUTO 18006KT 10SM FEW090 19/14 A2996

2010/08/08 05:00
LZZI 080500Z 26003KT 9999 SCT007 BKN020 15/14 Q1016

2010/08/08 05:00
UHHH 080500Z 00000MPS 9999 FEW033CB SCT100 BKN200 26/14 Q1011 NOSIG

2010/08/08 05:00
MGTK 080500Z 00000KT CAVOK 25/24 Q1014 A2994

2010/08/08 04:50
MMLO 080450Z 00000KT 7SM SCT030 BKN080 OVC200 16/15 A3026 RMK 65015 8/473

2010/08/08 04:50
MUHG 080450Z VRB02KT 8000 SKC 24/22 Q1015

2010/08/08 04:54
OAHR 080454Z 02012KT CAVOK 33/M01 Q1009 RMK FEW FEW080 VIS MIN 9999 BLU

2010/08/08 05:00
OIIE 080500Z 21006KT CAVOK 29/M03 Q1015 A2997

2010/08/08 05:00
OSDZ 080500Z 34014KT CAVOK 32/08 Q1009

2010/08/08 05:00
OSKL 080500Z 33010KT CAVOK 34/02 Q1007

2010/08/08 05:00
OYSQ 080500Z 18040G50KT 9999 FEW018 29/23 Q1008

2010/08/08 05:00
RJBB 080500Z 25008KT 9999 FEW020 SCT/// 32/21 Q1012 NOSIG

2010/08/08 05:00
RJBH 080500Z 21010KT 9999 FEW030 33/19 Q1010

2010/08/08 05:00
RJBT 080500Z 18007KT 140V210 9999 FEW025 SCT035 BKN/// 32/20 Q1012

2010/08/08 05:00
RJFS 080500Z VRB04KT 9999 FEW040 34/24 Q1008

2010/08/08 05:00
RJGG 080500Z 17013KT 9999 FEW020 FEW025TCU SCT070 BKN150 30/25 Q1014 NOSIG

2010/08/08 05:00
RJNW 080500Z 08005KT 030V140 9999 FEW030 BKN/// 32/21 Q1014

2010/08/08 05:00
RJOW 080500Z 01007KT 9999 FEW040 31/22 Q1011

2010/08/08 05:00
RJSF 080500Z 21006KT 9999 FEW030CB BKN040 BKN/// 32/22 Q1016

2010/08/08 05:00
RJSR 080500Z 28005KT 250V320 9999 FEW025 30/24 Q1014

2010/08/08 05:00
RJSY 080500Z 33007KT 270V010 9999 FEW025 30/22 Q1013

2010/08/08 05:00
ROIG 080500Z 03014KT 9999 FEW020 SCT040 BKN/// 31/25 Q0999

2010/08/08 05:00
ROMY 080500Z 09017KT 9999 -SHRA FEW015 BKN020 30/26 Q0999

2010/08/08 05:00
RORS 080500Z 09019KT 9999 SCT018 31/25 Q0999

2010/08/08 05:00
RPLI 080500Z 18006KT 500 RA SCT020 OVC100 25/25 Q1004 RERA

2010/08/08 05:00
UBBN 080500Z 23004KT 9999 SCT100 29/12 Q1013 R14R/CLRD60 NOSIG RMK G/O QFE685

2010/08/08 05:00
WBGB 080500Z 19004KT 9999 FEW014 BKN300 32/25 Q1008

2010/08/08 05:00
WBGR 080500Z 27007KT 9999 SCT014 SCT150 BKN300 31/26 Q1008

2010/08/08 05:00
WBGS 080500Z 21003KT 9999 SCT016 SCT150 BKN300 30/23 Q1008

2010/08/08 05:00
WBGY 080500Z 11004KT 9999 SCT020 BKN150 27/23 Q1008

2010/08/08 05:00
WBKL 080500Z 21006KT 9999 FEW014 BKN290 31/26 Q1008

2010/08/08 05:00
WBKS 080500Z 21007KT 9999 FEW016 SCT140 BKN270 34/22 Q1007

2010/08/08 05:00
WBKT 080500Z 24011G21KT 9999 FEW016 BKN270 32/22 Q1007

2010/08/08 05:00
WBKW 080500Z 18009KT 9999 FEW017 SCT140 BKN280 30/24 Q1008

2010/08/08 05:00
YSTW 080500Z AUTO 27005KT 9999NDV // NCD 16/01 Q1018

2010/08/08 05:00
YSWG 080500Z 36005KT 9999 FEW040 13/03 Q1018

2010/08/08 05:00
YTEF 080500Z AUTO 19009KT //// // ////// 26/M03 Q1016

2010/08/08 05:00
YTNK 080500Z 20003KT CAVOK 25/M07 Q1012

2010/08/08 05:00
YTRE 080500Z AUTO 14009KT //// // ////// 17/08 Q1018

2010/08/08 05:00
YWGT 080500Z AUTO 33004KT //// // ////// 12/02 Q1018

2010/08/08 05:00
YWHA 080500Z AUTO 32015KT 9999NDV // BKN110 18/02 Q1011

2010/08/08 05:00
YWLM 080500Z 12009KT 9999 FEW035 16/08 Q1019

2010/08/08 05:00
ZBSJ 080500Z 10003MPS 2500 R33/1400 HZ NSC 28/23 Q1003 NOSIG

2010/08/08 05:00
ZGKL 080500Z VRB02MPS 8000 FEW036 33/23 Q1004 NOSIG

2010/08/08 05:00
ZGOW 080500Z 13005MPS 9999 FEW033 32/24 Q1003 NOSIG

2010/08/08 05:00
ZLXY 080500Z VRB02MPS 3000 HZ SKC 32/22 Q1005 NOSIG

2010/08/08 05:00
ZSQD 080500Z 19007G12MPS 160V220 9999 SCT026 29/22 Q1006 NOSIG

2010/08/08 05:00
ZWSH 080500Z 11002MPS 9000 BKN040 29/12 Q1010 NOSIG

2010/08/08 05:00
ZYTX 080500Z 27001MPS 6000 OVC023 23/22 Q1004 NOSIG

2010/08/08 04:51
KILG 080451Z 20004KT 10SM CLR 23/21 A3001

2010/08/08 04:53
KILM 080453Z AUTO 01003KT 5SM BR CLR 24/22 A2995

2010/08/08 04:54
KINT 080454Z 00000KT 10SM OVC080 23/17 A3003

2010/08/08 04:55
KLSV 080455Z AUTO 16016KT 10SM CLR 33/13 A2976

2010/08/08 04:53
KLUK 080453Z AUTO 00000KT 9SM CLR 19/18 A3000

2010/08/08 04:54
KLWM 080454Z AUTO 00000KT 10SM CLR 15/08 A3003

2010/08/08 04:56
KMDT 080456Z 00000KT 10SM SCT075 22/17 A2999

2010/08/08 04:53
KMSS 080453Z AUTO 20005KT 10SM OVC065 15/12 A2993

2010/08/08 04:54
KORH 080454Z AUTO 21004KT 10SM CLR 17/09 A3003

2010/08/08 04:55
KPQI 080455Z AUTO 22004KT 10SM CLR 09/04 A2992

2010/08/08 04:55
KPSM 080455Z 20003KT 10SM SCT250 14/13 A3000

2010/08/08 04:51
KPVD 080451Z 00000KT 10SM FEW250 19/16 A3003

2010/08/08 04:51
KPWM 080451Z AUTO 00000KT 10SM CLR 13/13 A3000

2010/08/08 04:54
KRIC 080454Z 00000KT 10SM CLR 23/17 A3000

2010/08/08 04:54
KROC 080454Z 22005KT 10SM FEW080 SCT200 14/11 A2999

2010/08/08 04:54
KSYR 080454Z 15003KT 10SM FEW250 16/12 A2999

2010/08/08 04:55
KWRI 080455Z AUTO 24005KT 10SM CLR 21/20 A2999

2010/08/08 04:53
KAMA 080453Z 15009KT 10SM CLR 25/18 A2997

2010/08/08 04:53
KAUS 080453Z 18008KT 10SM CLR 28/24 A2990

2010/08/08 04:53
KBPT 080453Z AUTO 21003KT 10SM CLR 27/25 A2992

2010/08/08 04:53
KBRO 080453Z AUTO 16005KT 10SM CLR 27/25 A2992

2010/08/08 04:53
KBTR 080453Z 24008KT 10SM FEW040 SCT250 28/25 A2992

2010/08/08 04:53
KCHA 080453Z 00000KT 10SM CLR 26/22 A2996

2010/08/08 04:51
KCRP 080451Z 17006KT 10SM CLR 27/24 A2991

2010/08/08 04:53
KDAL 080453Z 19008KT 10SM CLR 32/20 A2985

2010/08/08 04:53
KDRT 080453Z AUTO 12009KT 10SM FEW100 31/18 A2985

2010/08/08 04:51
KELP 080451Z 18007G20KT 10SM FEW100 SCT300 28/13 A3002

2010/08/08 04:53
KEYW 080453Z AUTO 20003KT 10SM SCT021 30/26 A2999

2010/08/08 04:53
KFPR 080453Z AUTO 00000KT 10SM FEW032 26/25 A2997

2010/08/08 04:53
KFTW 080453Z 18008KT 10SM CLR 31/20 A2985

2010/08/08 04:53
KFTY 080453Z 00000KT 5SM BR CLR 24/23 A2997

2010/08/08 04:53
KFXE 080453Z 00000KT 10SM FEW095 27/24 A2998

2010/08/08 04:52
KGLS 080452Z AUTO 19007KT 10SM CLR 30/24 A2992

2010/08/08 04:53
KGPT 080453Z AUTO 00000KT 10SM CLR 30/26 A2990

2010/08/08 04:53
KHOU 080453Z 18003KT 10SM CLR 28/24 A2991

2010/08/08 04:52
KHRL 080452Z 14006KT 10SM CLR 26/25 A2991

2010/08/08 04:53
KHSV 080453Z 09005KT 10SM CLR 26/18 A2994

2010/08/08 04:53
KLCH 080453Z AUTO 00000KT 10SM CLR 28/26 A2992

2010/08/08 04:56
KLRD 080456Z AUTO 16012KT 10SM CLR 32/22 A2990

2010/08/08 04:53
KMAF 080453Z 18007KT 10SM CLR 29/13 A2995

2010/08/08 04:53
KMFE 080453Z 14009KT 10SM CLR 28/24 A2991

2010/08/08 04:53
KMGM 080453Z 12003KT 10SM SCT070 BKN100 OVC250 26/23 A2992

2010/08/08 04:56
KMOB 080456Z 00000KT 10SM TS FEW025CB SCT045 27/24 A2992

2010/08/08 04:53
KNEW 080453Z AUTO 24010KT 10SM CLR 31/25 A2993

2010/08/08 04:53
KOPF 080453Z AUTO 00000KT 10SM FEW110 28/25 A2999

2010/08/08 04:53
KPDK 080453Z AUTO 00000KT 10SM CLR 25/22 A2998

2010/08/08 04:53
KPIE 080453Z AUTO 23004KT 10SM CLR 28/24 A2996

2010/08/08 04:53
KPNS 080453Z AUTO 25004KT 9SM BKN100 OVC120 27/24 A2990

2010/08/08 04:53
KRSW 080453Z AUTO 00000KT 10SM CLR 28/25 A2997

2010/08/08 04:53
KSAT 080453Z 16008KT 10SM FEW250 29/21 A2993

2010/08/08 04:53
KSAV 080453Z 36003KT 8SM FEW015 25/24 A2993

2010/08/08 04:56
KSHV 080456Z 18006KT 10SM BKN290 28/24 A2988

2010/08/08 04:53
KSSI 080453Z AUTO 00000KT 9SM CLR 26/24 A2992

2010/08/08 04:53
KTMB 080453Z AUTO 00000KT 10SM CLR 28/24 A2999

2010/08/08 04:53
KTUL 080453Z 14010KT 10SM CLR 28/22 A2984

2010/08/08 04:53
KTYS 080453Z 00000KT 9SM CLR 22/19 A2997

2010/08/08 05:00
LEAS 080500Z 09006KT 060V120 9999 SCT017 BKN030 19/16 Q1020 NOSIG

2010/08/08 05:00
LEBB 080500Z 10004KT 7000 SCT018 BKN035 18/16 Q1021 NOSIG

2010/08/08 05:00
LEGE 080500Z 00000KT 7000 NSC 20/19 Q1018

2010/08/08 05:00
LEST 080500Z VRB02KT CAVOK 14/13 Q1018 NOSIG

2010/08/08 05:00
LEZG 080500Z 28012KT 9999 FEW050 20/14 Q1019

2010/08/08 05:00
LESO 080500Z 00000KT 9999 SCT020 BKN040 19/16 Q1021

2010/08/08 05:00
LEVT 080500Z 15001KT 9999 BKN017 15/14 Q1022

2010/08/08 05:00
LERS 080500Z 04003KT 350V080 9999 FEW035 20/17 Q1018

2010/08/08 05:00
LEMH 080500Z 33004KT 9999 FEW025 20/18 Q1019

2010/08/08 05:00
LEAM 080500Z 30003KT 270V350 9999 FEW090 27/08 Q1016

2010/08/08 05:00
LEGR 080500Z 13004KT 100V170 9999 FEW100 23/16 Q1019

2010/08/08 05:02
KDLH 080502Z 08003KT 5SM -TSRA BR SCT004 BKN019 OVC044CB 17/16 A2973

2010/08/08 04:53
KAZO 080453Z AUTO 20009KT 9SM CLR 22/18 A2993

2010/08/08 04:53
KBDE 080453Z AUTO 11004KT 10SM CLR 18/15 A2970

2010/08/08 04:53
KBTL 080453Z AUTO 20008KT 9SM CLR 21/18 A2993

2010/08/08 04:53
KBTM 080453Z AUTO 20004KT 10SM CLR 13/10 A2999

2010/08/08 04:55
KCIU 080455Z AUTO 19005KT 10SM BKN095 17/15 A2978

2010/08/08 04:53
KCMX 080453Z AUTO 07007KT 10SM FEW050 BKN090 17/14 A2974

2010/08/08 04:54
KCOS 080454Z 11013KT 10SM SCT120 22/12 A3010

2010/08/08 04:53
KCPR 080453Z AUTO 29006KT 10SM FEW090 BKN110 23/06 A3001

2010/08/08 04:53
KDET 080453Z 22005KT 10SM CLR 22/17 A2994

2010/08/08 04:55
KDLH 080455Z 09005KT 5SM -TSRA BR FEW004 BKN031CB OVC046 18/16 A2974

2010/08/08 04:54
KDSM 080454Z 19008KT 10SM CLR 26/21 A2983

2010/08/08 04:53
KELO 080453Z AUTO 13003KT 10SM OVC026 19/16 A2973

2010/08/08 04:53
KFAR 080453Z 18004KT 9SM CLR 23/21 A2964

2010/08/08 04:53
KFNT 080453Z AUTO 20005KT 9SM FEW100 21/17 A2992

2010/08/08 04:53
KGFK 080453Z 15003KT 10SM CLR 22/20 A2963

2010/08/08 04:53
KGRB 080453Z AUTO 18005KT 7SM CLR 22/20 A2979

2010/08/08 04:53
KGRR 080453Z AUTO 20007KT 9SM CLR 23/18 A2990

2010/08/08 04:53
KICT 080453Z 15008KT 10SM FEW100 SCT200 28/22 A2984

2010/08/08 04:55
KINL 080455Z AUTO 00000KT 10SM FEW090 17/16 A2971

2010/08/08 04:52
KISN 080452Z 00000KT 10SM CLR 21/16 A2968

2010/08/08 04:54
KLEX 080454Z 12003KT 10SM CLR 22/14 A3001

2010/08/08 04:53
KMBS 080453Z 20008KT 10SM BKN110 22/17 A2989

2010/08/08 04:51
KMDW 080451Z 22006KT 10SM CLR 24/18 A2990

2010/08/08 04:54
KMKC 080454Z 17007KT 10SM CLR 28/21 A2985

2010/08/08 04:52
KMKE 080452Z 22011KT 10SM FEW090 23/18 A2985

2010/08/08 04:52
KMLI 080452Z 19008KT 9SM CLR 24/19 A2987

2010/08/08 04:54
KMOT 080454Z AUTO 21007KT 10SM CLR 23/18 A2966

2010/08/08 04:52
KOMA 080452Z 16011KT 10SM CLR 27/23 A2979

2010/08/08 04:55
KPHN 080455Z AUTO 00000KT 10SM SCT100 SCT110 19/16 A2993

2010/08/08 04:54
KPIA 080454Z 19007KT 7SM CLR 23/19 A2992

2010/08/08 04:53
KPTK 080453Z 21004KT 10SM SCT150 22/16 A2993

2010/08/08 04:53
KPUB 080453Z AUTO 04006KT 10SM FEW120 22/18 A2998

2010/08/08 04:59
KSAW 080459Z AUTO 00000KT 10SM SCT100 SCT120 17/14 A2975

2010/08/08 04:56
KSDF 080456Z 00000KT 9SM CLR 24/16 A2998

2010/08/08 04:52
KSGF 080452Z 16007KT 10SM CLR 26/21 A2992

2010/08/08 04:53
KSTP 080453Z AUTO 20008KT 10SM CLR 28/22 A2969

2010/08/08 04:54
KSUS 080454Z 00000KT 8SM CLR 25/18 A2991

2010/08/08 04:52
KTOL 080452Z 19005KT 10SM CLR 19/16 A2996

2010/08/08 04:54
KAPN 080454Z AUTO 00000KT 10SM SCT049 17/16 A2982

2010/08/08 05:00
OIBJ 080500Z 06010KT 9999 FEW040 38/05 Q1005 A2970

2010/08/08 05:00
OIBS 080500Z 08010KT 3000 BR SKC 34/30 Q0999 A2950

2010/08/08 05:00
OIHR 080500Z 03004KT CAVOK 22/03 Q1020 A3014

2010/08/08 05:00
OIKR 080500Z 33010KT CAVOK 24/M01 Q1018 A3007

2010/08/08 05:00
OING 080500Z 00000KT 9999 FEW030 30/24 Q1011 A2987

2010/08/08 05:00
OIZB 080500Z 32020KT 5000 SA SKC 35/00 Q1002 A2959

2010/08/08 05:00
OIZI 080500Z 28004KT 6000 NSC 36/M07 Q1004 A2967

2010/08/08 05:00
WBKK 080500Z 26010KT 9999 FEW015 SCT140 BKN280 31/26 Q1008 NOSIG

2010/08/08 05:00
WMKJ 080500Z 23006KT 9999 SCT018TCU BKN300 31/23 Q1009

2010/08/08 05:00
WMKK 080500Z 17005KT 150V250 9999 FEW017CB SCT140 BKN270 29/26 Q1009 NOSIG

2010/08/08 05:00
WMKP 080500Z 17001KT 9999 FEW020 SCT140 BKN270 30/26 Q1009 NOSIG

2010/08/08 05:00
WMSA 080500Z 19002KT 9999 SCT018 BKN280 33/25 Q1009

2010/08/08 05:00
UGTB 080500Z 00000KT 9999 SKC 28/13 Q1016 NOSIG RMK 31CLRD80

2010/08/08 05:00
UGSB 080500Z 11013KT 9999 FEW023 27/18 Q1009 NOSIG= METAR UGKO METAR UGKO 080500Z 09006KT 9999 ST100 27/19 Q1011 NOSIG

2010/08/08 05:00
UTDD 080500Z 21002MPS 160V260 9999 FEW066CB BKN120 31/14 Q1007 09CLRD70 NOSIG RMK QFE688/0918

2010/08/08 05:00
UTDL 080500Z 07007MPS 9999 FEW100 31/17 Q1005 NOSIG RMK QFE716 8809//70

2010/08/08 05:00
UAAA 080500Z 12002MPS 030V150 9999 FEW100 28/14 Q1009 88CLRD65 NOSIG

2010/08/08 05:00
UACC 080500Z 31003MPS 260V350 8000 FEW233 29/10 Q1012 220/0070 NOSIG RMK QFE728/0971

2010/08/08 05:00
UAKK 080500Z VRB01MPS CAVOK 27/08 Q1013 050///70 NOSIG RMK QFE713/0950

2010/08/08 05:00
UARR 080500Z 02005MPS CAVOK 31/10 Q1016 04CLRD70 NOSIG RMK QFE758/1011

2010/08/08 05:00
UATE 080500Z 05005MPS CAVOK 35/07 Q1010 120///70 NOSIG RMK QFE755/1007

2010/08/08 05:00
UATG 080500Z 12001MPS CAVOK 31/13 Q1012 32CLRD70 NOSIG RMK QFE761/1015 

2010/08/08 05:00
UATT 080500Z 05003MPS 020V090 9999 NSC 31/10 Q1016 13CLRD70 NOSIG RMK QFE742/0990

2010/08/08 05:00
UAUU 080500Z 35002MPS 290V360 7000 NSC 31/12 Q1013 33CLRD70 NOSIG RMK QFE744/0992

2010/08/08 05:00
UDYZ 080500Z VRB02MPS 9999 SKC 26/11 Q1013 09010070 NOSIG

2010/08/08 05:00
UDSG 080500Z VRB01MPS 9999 NSC 20/10 Q1018 02CLRD70 NOSIG

2010/08/08 05:00
UTAA 080500Z 32007MPS 9999 SKC 34/08 Q1010 NOSIG

2010/08/08 05:00
UTAK 080500Z 32003MPS CAVOK 30/16 Q1010 NOSIG

2010/08/08 05:00
UTAM 080500Z 32004MPS CAVOK 32/11 Q1005 NOSIG

2010/08/08 05:00
UTAT 080500Z VRB02MPS CAVOK 33/20 Q1007 NOSIG

2010/08/08 05:00
UTAV 080500Z 27002MPS CAVOK 32/14 Q1004

2010/08/08 05:00
OBBI 080500Z VRB03KT CAVOK 38/20 Q0998 NOSIG

2010/08/08 05:00
OEDF 080500Z 12002KT CAVOK 36/12 Q0999 NOSIG

2010/08/08 05:00
OEDR 080500Z 28004KT 8000 SKC 37/18 Q0997 NOSIG

2010/08/08 05:00
OTBD 080500Z VRB02KT 5000 DU NSC 38/16 Q1000 NOSIG

2010/08/08 05:00
OKBK 080500Z 35008KT 5000 -HZ SKC 38/06 Q0999 NOSIG

2010/08/08 05:00
TFFF 080500Z AUTO 04003KT 9999NDV NCD 25/24 Q1013

2010/08/08 04:53
KBFI 080453Z COR 18004KT 10SM BKN010 OVC041 18/16 A2991

2010/08/08 04:53
KBFI 080453Z 18004KT 10SM SCT010 SCT041 OVC075 18/16 A2991

2010/08/08 04:53
KBIL 080453Z 23003KT 10SM CLR 21/12 A2982

2010/08/08 04:53
KBKE 080453Z AUTO 24004KT 10SM CLR 16/09 A2990

2010/08/08 04:53
KBLI 080453Z 17004KT 6SM BR OVC014 17/16 A2989

2010/08/08 04:53
KBOI 080453Z 17003KT 10SM CLR 25/04 A2978

2010/08/08 04:53
KCLM 080453Z AUTO 31003KT 2SM BR OVC001 14/14 A2992

2010/08/08 04:56
KCTB 080456Z AUTO 25011KT 10SM CLR 18/06 A2980

2010/08/08 04:56
KDUG 080456Z AUTO 35011KT 10SM FEW044 23/18 A3010

2010/08/08 04:53
KFAT 080453Z 31011KT 10SM CLR 27/10 A2975

2010/08/08 04:55
KGDV 080455Z AUTO 34006KT 10SM CLR 21/10 A2974

2010/08/08 04:53
KGEG 080453Z 23007KT 10SM BKN140 OVC200 22/08 A2981

2010/08/08 04:53
KGGW 080453Z AUTO 04009KT 10SM CLR 20/13 A2968

2010/08/08 04:53
KGLH 080453Z AUTO 00000KT 6SM BR CLR 26/24 A2990

2010/08/08 04:55
KGPI 080455Z 30004KT 10SM CLR 17/09 A2980

2010/08/08 04:53
KGTF 080453Z 00000KT 10SM CLR 18/04 A2979

2010/08/08 04:53
KGWO 080453Z AUTO 00000KT 7SM CLR 24/24 A2991

2010/08/08 04:53
KHLN 080453Z AUTO 25003KT 10SM FEW120 23/06 A2983

2010/08/08 04:53
KHQM 080453Z AUTO 24006KT 5SM BR OVC005 14/13 A2994

2010/08/08 04:53
KHVR 080453Z AUTO 16005KT 10SM CLR 16/08 A2971

2010/08/08 04:53
KIPL 080453Z AUTO 27003KT 10SM CLR 31/02 A2969

2010/08/08 04:53
KLBB 080453Z 13007KT 10SM FEW250 24/18 A2997

2010/08/08 04:53
KMSO 080453Z AUTO 00000KT 10SM CLR 19/05 A2984

2010/08/08 04:52
KMWH 080452Z AUTO 34004KT 10SM SCT090 BKN110 22/10 A2980

2010/08/08 04:56
KNUW 080456Z 24004KT 4SM BR OVC003 16/15 A2990

2010/08/08 04:53
KOLF 080453Z AUTO 00000KT 10SM CLR 19/16 A2969

2010/08/08 04:54
KOLM 080454Z AUTO 21009KT 10SM BKN048 16/14 A2992

2010/08/08 04:54
KOLS 080454Z AUTO 02004KT 10SM FEW090 SCT120 20/18 A3008

2010/08/08 04:55
KOLV 080455Z AUTO 00000KT 5SM CLR 26/26 A2992

2010/08/08 04:53
KPAE 080453Z AUTO 18008KT 10SM OVC018 17/15 A2991

2010/08/08 04:53
KPDX 080453Z 32007KT 10SM FEW020 SCT040 OVC060 19/15 A2992

2010/08/08 04:53
KPMD 080453Z AUTO 23010KT 10SM CLR 23/M01 A2989

2010/08/08 04:55
KRNO 080455Z VRB06KT 10SM SCT090 BKN120 BKN150 23/02 A2990

2010/08/08 04:53
KRNT 080453Z AUTO 14003KT 10SM BKN014 BKN020 OVC080 18/17 A2991

2010/08/08 04:53
KSAC 080453Z 19008KT 10SM CLR 19/12 A2975

2010/08/08 04:55
KSCK 080455Z AUTO 31005KT 10SM CLR 22/13 A2976

2010/08/08 04:53
KSDM 080453Z AUTO 00000KT 10SM FEW014 13/12 A2992

2010/08/08 04:53
KSFF 080453Z AUTO 27004KT 10SM CLR 24/08 A2979

2010/08/08 04:53
KSJC 080453Z 28003KT 10SM FEW012 16/11 A2986

2010/08/08 04:53
KSLC 080453Z 17018G25KT 10SM FEW070 SCT120 24/10 A2992

2010/08/08 04:53
KSMF 080453Z 17011KT 10SM CLR 19/12 A2973

2010/08/08 04:53
KTIW 080453Z AUTO 24004KT 10SM OVC011 16/15 A2992

2010/08/08 04:53
KTUS 080453Z 14014KT 10SM SCT120 25/17 A2999

2010/08/08 05:02
KDLH 080502Z 08003KT 5SM -TSRA BR SCT004 BKN019 OVC044CB 17/16 A2973

2010/08/08 05:00
OIBA 080500Z 07012KT 3500 HZ FEW020 34/30 Q0998 A2948

2010/08/08 05:00
OIBV 080500Z 11012KT 5000 BR FEW025 34/31 Q0998 A2947 84

2010/08/08 05:00
OIFS 080500Z 00000KT 9999 FEW035 24/01 Q1022 A3021 798.2

2010/08/08 05:00
OIIP 080500Z 00000KT CAVOK 28/08 Q1016

2010/08/08 05:00
OIMB 080500Z 04014KT CAVOK 28/07 Q1014 A2995

2010/08/08 05:00
OIMN 080500Z 00000KT CAVOK 24/05 Q1016 A3003

2010/08/08 05:00
OIMT 080500Z 03008KT CAVOK 34/M07 Q1009 A2981

2010/08/08 05:00
OIZJ 080500Z 08014KT 7000 NSC 31/28 Q1000 A2954

2010/08/08 05:00
YBAS 080500Z 08006KT CAVOK 22/M08 Q1013

2010/08/08 05:00
YBBN 080500Z 05010KT 9999 FEW048 20/08 Q1018 NOSIG

2010/08/08 05:00
YBCS 080500Z 10013KT 9999 FEW030 BKN050 24/15 Q1014

2010/08/08 05:00
YBTL 080500Z 07013KT 9999 FEW045 24/14 Q1015

2010/08/08 05:00
YMML 080500Z 01018KT 9999 FEW035 SCT110 12/03 Q1016 FM0500 MOD TURB BLW 5000FT

2010/08/08 05:00
YPAD 080500Z 36011KT 9999 VCSH SCT040 SCT070 BKN090 13/06 Q1012 NOSIG

2010/08/08 05:00
YPCC 080500Z 12015KT 9999 FEW026 28/22 Q1012

2010/08/08 05:00
YPDN 080500Z 31012KT CAVOK 31/15 Q1010 NOSIG

2010/08/08 05:00
YPKU 080500Z AUTO 13006KT 9999NDV // NCD 31/M03 Q1011

2010/08/08 05:00
YPLM 080500Z 13006KT CAVOK 26/M02 Q1016

2010/08/08 05:00
YPPH 080500Z 19012KT 9999 FEW040 18/04 Q1026 NOSIG

2010/08/08 05:00
YPTN 080500Z AUTO 04005KT 9999NDV // NCD 32/M01 Q1010

2010/08/08 05:00
YPXM 080500Z AUTO 12013KT 9999NDV // SCT019 26/20 Q1013

2010/08/08 05:00
YSSY 080500Z 08010KT CAVOK 16/04 Q1019 NOSIG

2010/08/08 04:54
KACY 080454Z 16004KT 10SM FEW100 23/21 A3003

2010/08/08 04:53
KAUG 080453Z AUTO 00000KT 10SM OVC070 13/12 A3001

2010/08/08 04:54
KAVL 080454Z AUTO 00000KT 6SM BR CLR 21/20 A3008

2010/08/08 04:53
KBGM 080453Z AUTO 00000KT 10SM CLR 16/09 A3006

2010/08/08 04:51
KBKW 080451Z AUTO 00000KT 8SM CLR 18/14 A3009

2010/08/08 05:02
KCBE 080502Z AUTO 36003KT 10SM SCT090 20/16 A3007

2010/08/08 04:51
KCON 080451Z AUTO 00000KT 10SM CLR 10/09 A3002

2010/08/08 04:52
KDCA 080452Z 20005KT 10SM SCT085 24/16 A3000

2010/08/08 04:51
KEKN 080451Z AUTO 00000KT 6SM BR BKN070 15/14 A3010

2010/08/08 05:06
KESN 080506Z AUTO 00000KT 10SM CLR 21/20 A3004

2010/08/08 04:53
KGFL 080453Z AUTO 00000KT 10SM CLR 11/11 A3001

2010/08/08 04:53
KGSP 080453Z AUTO 01003KT 9SM CLR 24/21 A2999

2010/08/08 04:54
KIPT 080454Z AUTO 35003KT 10SM FEW065 17/12 A3002

2010/08/08 04:54
KLYH 080454Z AUTO 00000KT 9SM CLR 19/18 A3004

2010/08/08 04:53
KMHT 080453Z 17003KT 10SM CLR 16/10 A3000

2010/08/08 04:51
KMPV 080451Z AUTO 00000KT 10SM CLR 09/08 A3004

2010/08/08 04:55
KMWN 080455Z 26030KT 120SM FEW035 BKN250 04/03

2010/08/08 04:55
KMYR 080455Z AUTO 00000KT 6SM CLR 24/24 A2998

2010/08/08 04:51
KNYC 080451Z AUTO VRB04KT 10SM CLR 23/18 A3003

2010/08/08 04:54
KPNE 080454Z 00000KT 10SM CLR 23/19 A3002

2010/08/08 04:54
KROA 080454Z 00000KT 10SM BKN080 23/17 A3006

2010/08/08 04:53
KSMQ 080453Z AUTO 00000KT 9SM FEW090 17/16 A2999

2010/08/08 04:54
KWAL 080454Z AUTO 00000KT 10SM CLR 23/21 A3001

2010/08/08 04:53
KAAF 080453Z AUTO 00000KT 9SM CLR 27/26 A2992

2010/08/08 04:53
KABR 080453Z AUTO 00000KT 10SM CLR 24/21 A2965

2010/08/08 04:51
KACT 080451Z 19012KT 10SM CLR 31/21 A2987

2010/08/08 04:53
KAGS 080453Z AUTO 00000KT 4SM BR CLR 25/24 A2994

2010/08/08 04:51
KAHN 080451Z AUTO 00000KT 6SM BR CLR 24/23 A2998

2010/08/08 04:53
KALI 080453Z AUTO 16006KT 10SM CLR 27/24 A2990

2010/08/08 04:53
KAUS 080453Z 18008KT 10SM CLR 28/24 A2990

2010/08/08 04:51
KBVE 080451Z AUTO 26006KT 10SM FEW031 SCT045 30/26 A2994

2010/08/08 04:55
KCAO 080455Z AUTO 22008KT 10SM CLR 25/14 A3002

2010/08/08 04:53
KCDS 080453Z AUTO 17007KT 10SM CLR 27/21 A2989

2010/08/08 04:53
KCLL 080453Z AUTO 18005KT 10SM CLR 29/23 A2990

2010/08/08 04:53
KCNM 080453Z AUTO 16006KT 10SM FEW110 28/14 A2994

2010/08/08 04:53
KCOT 080453Z AUTO 14008G14KT 10SM CLR 29/23 A2988

2010/08/08 04:51
KCSG 080451Z AUTO 20004KT 10SM CLR 27/22 A2994

2010/08/08 04:53
KCTY 080453Z AUTO 04003KT 25/24 A2994

2010/08/08 04:53
KDAB 080453Z 00000KT 10SM FEW015 SCT140 OVC250 26/24 A2995

2010/08/08 04:53
KDHT 080453Z AUTO 18009KT 10SM CLR 24/17 A2998

2010/08/08 04:53
KECP 080453Z AUTO 00000KT 6SM BR CLR 26/25 A2991

2010/08/08 04:53
KELD 080453Z AUTO 00000KT 7SM CLR 25/24 A2989

2010/08/08 04:51
KELP 080451Z 18007G20KT 10SM FEW100 SCT300 28/13 A3002

2010/08/08 04:53
KESF 080453Z AUTO 00000KT 10SM CLR 26/24 A2991

2010/08/08 04:53
KFSM 080453Z 07006KT 10SM BKN060 26/24 A2987

2010/08/08 04:53
KFYV 080453Z AUTO 00000KT 10SM CLR 23/22 A2992

2010/08/08 04:53
KGAG 080453Z AUTO 17012KT 10SM CLR 29/19 A2986

2010/08/08 04:51
KGDP 080451Z AUTO 05003KT 10SM CLR 27/11 A3013

2010/08/08 04:53
KHBR 080453Z AUTO 18009KT 10SM CLR 29/21 A2986

2010/08/08 04:51
KHDO 080451Z AUTO 15011KT 10SM CLR 29/22 A2992

2010/08/08 04:53
KHOT 080453Z AUTO 10005KT 10SM FEW020 BKN044 BKN060 28/24 A2992

2010/08/08 04:53
KHRO 080453Z AUTO 14005KT 8SM CLR 25/22 A2994

2010/08/08 04:53
KINK 080453Z AUTO 15012G19KT 10SM CLR 29/14 A2992

2010/08/08 04:54
KIPT 080454Z AUTO 35003KT 10SM FEW065 17/12 A3002

2010/08/08 05:00
YBAS 080500Z 08006KT CAVOK 22/M08 Q1013

2010/08/08 05:00
YBBN 080500Z 05010KT 9999 FEW048 20/08 Q1018 NOSIG

2010/08/08 05:00
YBCS 080500Z 10013KT 9999 FEW030 BKN050 24/15 Q1014

2010/08/08 05:00
YBTL 080500Z 07013KT 9999 FEW045 24/14 Q1015

2010/08/08 05:00
YMML 080500Z 01018KT 9999 FEW035 SCT110 12/03 Q1016 FM0500 MOD TURB BLW 5000FT

2010/08/08 05:00
YPAD 080500Z 36011KT 9999 VCSH SCT040 SCT070 BKN090 13/06 Q1012 NOSIG

2010/08/08 05:00
YPCC 080500Z 12015KT 9999 FEW026 28/22 Q1012

2010/08/08 05:00
YPDN 080500Z 31012KT CAVOK 31/15 Q1010 NOSIG

2010/08/08 05:00
YPKU 080500Z AUTO 13006KT 9999NDV // NCD 31/M03 Q1011

2010/08/08 05:00
YPLM 080500Z 13006KT CAVOK 26/M02 Q1016

2010/08/08 05:00
YPPH 080500Z 19012KT 9999 FEW040 18/04 Q1026 NOSIG

2010/08/08 05:00
YPTN 080500Z AUTO 04005KT 9999NDV // NCD 32/M01 Q1010

2010/08/08 05:00
YPXM 080500Z AUTO 12013KT 9999NDV // SCT019 26/20 Q1013

2010/08/08 05:00
YSSY 080500Z 08010KT CAVOK 16/04 Q1019 NOSIG

2010/08/08 04:54
KJAN 080454Z 00000KT 10SM CLR 26/24 A2993

2010/08/08 04:53
KJBR 080453Z AUTO 05003KT 10SM CLR 25/20 A2991

2010/08/08 04:51
KJCT 080451Z AUTO 17010KT 10SM CLR 30/18 A2992

2010/08/08 04:53
KLFK 080453Z AUTO 14004KT 10SM CLR 28/24 A2990

2010/08/08 04:53
KLFT 080453Z AUTO 21003KT 10SM CLR 27/24 A2993

2010/08/08 04:53
KMCN 080453Z AUTO 00000KT 10SM CLR 25/23 A2994

2010/08/08 04:58
KMEI 080458Z 00000KT 6SM BR CLR 25/24 A2992

2010/08/08 04:53
KMLC 080453Z AUTO 00000KT 10SM SCT070 28/23 A2987

2010/08/08 04:53
KMLU 080453Z 00000KT 10SM CLR 27/25 A2991

2010/08/08 04:53
KMWL 080453Z AUTO 15006KT 10SM CLR 29/19 A2986

2010/08/08 04:53
KPBF 080453Z AUTO 09003KT 9SM CLR 26/24 A2991

2010/08/08 04:53
KPNC 080453Z AUTO 15013KT 10SM CLR 29/22 A2983

2010/08/08 04:53
KPSX 080453Z AUTO 20014G21KT 10SM CLR 31/25 A2991

2010/08/08 04:53
KPWA 080453Z AUTO 15011G18KT 10SM CLR 31/22 A2986

2010/08/08 04:53
KRMG 080453Z AUTO 00000KT 10SM CLR 23/20 A2995

2010/08/08 04:53
KRSL 080453Z AUTO 17012KT 10SM CLR 27/22 A2981

2010/08/08 04:56
KSHV 080456Z 18006KT 10SM BKN290 28/24 A2988

2010/08/08 04:52
KSPS 080452Z AUTO 19008KT 10SM CLR 29/21 A2984

2010/08/08 04:53
KTLH 080453Z 00000KT 10SM CLR 25/24 A2992

2010/08/08 04:53
KTOP 080453Z AUTO 16006KT 10SM CLR 28/23 A2984

2010/08/08 04:53
KTRI 080453Z 00000KT 7SM SCT070 19/17 A3002

2010/08/08 04:53
KTUP 080453Z AUTO 00000KT 6SM BR BKN080 27/25 A2992

2010/08/08 04:51
KVCT 080451Z AUTO 18005KT 10SM CLR 27/26 A2991

2010/08/08 04:53
KVGT 080453Z AUTO 19013KT 10SM CLR 32/13 A2977

2010/08/08 05:00
ZBHH 080500Z 24004MPS 6000 SCT040 FEW040CB 24/17 Q1009 NOSIG

2010/08/08 05:00
ZGHA 080500Z 27003MPS 250V320 9999 FEW030 34/26 Q1003 NOSIG

2010/08/08 05:00
ZHCC 080500Z VRB02MPS 5000 HZ SCT040 31/25 Q1004 NOSIG

2010/08/08 05:00
ZHHH 080500Z 14004MPS 100V160 9999 SCT028 32/29 Q1004 NOSIG

2010/08/08 05:00
ZJHK 080500Z 04003MPS 010V070 9999 FEW016 FEW023TCU 27/25 Q1003 NOSIG

2010/08/08 05:00
ZJSY 080500Z 15003MPS 110V180 9999 SCT018 30/25 Q1002 NOSIG

2010/08/08 05:00
ZLLL 080500Z 16003MPS 080V210 9999 SCT023 27/13 Q1013 NOSIG

2010/08/08 05:00
ZSNJ 080500Z 11005MPS 070V140 9999 BKN020 34/19 Q1005 NOSIG

2010/08/08 05:00
ZSOF 080500Z 16003MPS 130V210 9999 FEW023 34/25 Q1004 NOSIG

2010/08/08 05:00
ZUCK 080500Z 12002MPS 9999 FEW030 34/19 Q1005 NOSIG

2010/08/08 05:00
ZYCC 080500Z 15004MPS 110V170 9999 SCT020 BKN030 21/18 Q1005 NOSIG

2010/08/08 05:00
ZYHB 080500Z 12003MPS 090V170 9999 FEW010 SCT033 22/17 Q1005 NOSIG

2010/08/08 04:53
KAIA 080453Z AUTO 20007KT 10SM CLR 23/12 A2988

2010/08/08 04:54
KALO 080454Z AUTO 20009KT 10SM CLR 24/22 A2980

2010/08/08 04:52
KALS 080452Z AUTO VRB03KT 10SM FEW100 18/09 A3024

2010/08/08 04:50
KANW 080450Z AUTO 17003KT 10SM CLR 23/17 A2980

2010/08/08 04:53
KBBW 080453Z AUTO 00000KT 10SM CLR 23/22 A2982

2010/08/08 04:53
KBFF 080453Z AUTO 00000KT 10SM CLR 28/10 A2988

2010/08/08 04:50
KBIE 080450Z AUTO 16008KT 10SM CLR 27/22 A2980

2010/08/08 04:52
KBIS 080452Z AUTO 04004KT 10SM CLR 22/18 A2969

2010/08/08 04:53
KBPI 080453Z AUTO 32007KT 10SM CLR 16/03 A3011

2010/08/08 04:53
KBRL 080453Z AUTO 19008KT 10SM CLR 24/21 A2989

2010/08/08 04:53
KCAG 080453Z AUTO 14003KT 10SM SCT110 13/12 A3019

2010/08/08 04:53
KCGI 080453Z AUTO 09003KT 10SM CLR 23/18 A2993

2010/08/08 04:52
KCID 080452Z AUTO 18008KT 6SM BR CLR 22/21 A2985

2010/08/08 04:55
KCNK 080455Z AUTO 17011KT 10SM CLR 28/21 A2981

2010/08/08 04:52
KCNU 080452Z AUTO 15005KT 10SM CLR 26/23 A2987

2010/08/08 04:54
KCOU 080454Z AUTO 13005KT 10SM CLR 23/21 A2992

2010/08/08 04:53
KCYS 080453Z AUTO 33006KT 10SM SCT100 BKN120 21/08 A3008

2010/08/08 04:53
KDBQ 080453Z AUTO 20009KT 8SM CLR 22/19 A2986

2010/08/08 04:52
KDDC 080452Z AUTO 16008KT 10SM CLR 27/18 A2985

2010/08/08 04:55
KDVL 080455Z AUTO 11006KT 10SM CLR 23/18 A2966

2010/08/08 04:55
KEAR 080455Z AUTO 17009KT 10SM CLR 26/21 A2983

2010/08/08 04:54
KEVV 080454Z AUTO 05003KT 10SM CLR 20/17 A2997

2010/08/08 04:53
KFNB 080453Z AUTO 15006KT 9SM CLR 25/23 A2982

2010/08/08 04:56
KFSD 080456Z 20012G17KT 10SM CLR 27/23 A2971

2010/08/08 04:54
KFWA 080454Z 20003KT 10SM CLR 19/17 A2998

2010/08/08 04:53
KGCC 080453Z AUTO 05003KT 10SM CLR 19/10 A2992

2010/08/08 04:54
KGCK 080454Z AUTO 16007KT 10SM CLR 25/19 A2987

2010/08/08 04:53
KGJT 080453Z AUTO 34003KT 10SM BKN085 OVC110 18/14 A3010

2010/08/08 04:53
KGLD 080453Z AUTO 00000KT 10SM CLR 23/20 A2991

2010/08/08 04:55
KGPZ 080455Z AUTO 09003KT 10SM CLR 20/18 A2971

2010/08/08 04:53
KGRI 080453Z AUTO 18009KT 10SM CLR 26/21 A2980

2010/08/08 04:55
KHON 080455Z AUTO 25006KT 10SM CLR 26/21 A2966

2010/08/08 04:50
EGDX 080450Z AUTO 31003KT 9999NDV // BKN033/// 12/10 Q1021

2010/08/08 04:50
EGEC 080450Z AUTO 30004KT 9999NDV // BKN011/// 12/11 Q1020

2010/08/08 04:50
EGOM 080450Z AUTO 07002KT 8000NDV BR FEW032/// BKN037/// BKN060/// 11/11 Q1019

2010/08/08 04:50
EGOP 080450Z AUTO 36004KT 0150NDV // BKN001/// 11/11 Q1021

2010/08/08 04:50
EGPU 080450Z AUTO 27003KT 0650NDV FG NSC 08/08 Q1020

2010/08/08 04:50
EGVN 080450Z 29002KT 9999 FEW012 SCT016 BKN032 14/12 Q1020 WHT BECMG FEW016 BLU

2010/08/08 04:50
EGXD 080450Z AUTO 27003KT 9999NDV // BKN070/// 11/11 Q1020

2010/08/08 04:50
EGXX 080450Z AUTO 33013KT 9999NDV // FEW023/// 14/13 Q1019

2010/08/08 05:00
LPAZ 080500Z 07003KT 010V170 9999 FEW020 19/17 Q1021

2010/08/08 05:00
LPLA 080500Z 07005KT 9999 FEW020 20/18 Q1024

2010/08/08 05:00
LPPD 080500Z 04005KT 360V070 9999 SCT018 BKN050 19/17 Q1022

2010/08/08 04:55
KDLF 080455Z AUTO 12010KT 10SM CLR 31/18 A2987 RMK AO2 SLP098 T03130184

2010/08/08 04:55
KHRT 080455Z AUTO 04003KT 10SM FEW120 SCT160 26/25 A2991 RMK AO2 SLP129 T02580251 $

2010/08/08 04:59
KIWA 080459Z AUTO 32014KT 10SM CLR 33/17 A2985 RMK AO2

2010/08/08 04:55
KLUF 080455Z AUTO 36007KT 7SM CLR 29/19 A2981 RMK AO2 SLP072 T02890186 $

2010/08/08 05:00
KNRB 080500Z AUTO 00000KT 10SM SCT029 BKN038 BKN047 26/23 A2994 RMK AO2

2010/08/08 04:53
KHSI 080453Z AUTO 17006KT 10SM CLR 26/21 A2981

2010/08/08 04:53
KHTL 080453Z AUTO 20008KT 10SM SCT095 BKN120 21/18 A2986

2010/08/08 04:53
KIML 080453Z AUTO 21007KT 10SM CLR 27/19 A2988

2010/08/08 04:55
KIRK 080455Z AUTO 18007KT 10SM CLR 23/21 A2991

2010/08/08 04:55
KJAC 080455Z AUTO 32003KT 10SM CLR 12/04 A3008

2010/08/08 04:53
KJKL 080453Z AUTO 00000KT 10SM CLR 22/15 A3002

2010/08/08 04:53
KJLN 080453Z 16005KT 9SM CLR 26/23 A2989

2010/08/08 04:59
KJNX 080459Z AUTO 00000KT 10SM SCT100 23/23 A2997

2010/08/08 04:53
KLAN 080453Z 20005KT 9SM CLR 21/17 A2992

2010/08/08 04:53
KLBF 080453Z AUTO 11006KT 10SM CLR 22/21 A2984

2010/08/08 04:54
KLNK 080454Z AUTO 18009KT 9SM CLR 26/23 A2978

2010/08/08 04:53
KLXV 080453Z AUTO 08010KT 3SM -RA BR SCT031 BKN044 OVC065 09/08 A3040

2010/08/08 04:53
KMCK 080453Z AUTO 02003KT 10SM CLR 24/22 A2983

2010/08/08 04:53
KMCW 080453Z AUTO 20011KT 8SM CLR 24/22 A2979

2010/08/08 04:52
KMFD 080452Z 16004KT 10SM CLR 18/14 A3002

2010/08/08 04:52
KMHK 080452Z AUTO 18005KT 10SM CLR 28/22 A2981

2010/08/08 04:55
KMKG 080455Z 20009KT 10SM SCT060 25/22 A2987

2010/08/08 04:53
KMSN 080453Z 19007KT 10SM CLR 23/19 A2984

2010/08/08 04:53
KODX 080453Z AUTO 20005KT 10SM CLR 24/22 A2978

2010/08/08 04:50
KONL 080450Z AUTO 35003KT 10SM CLR 24/22 A2978

2010/08/08 04:53
KOTM 080453Z AUTO 19007KT 5SM BR CLR 23/22 A2986

2010/08/08 04:53
KPAH 080453Z AUTO 00000KT 7SM CLR 24/17 A2993

2010/08/08 04:53
KPKD 080453Z AUTO 00000KT 10SM CLR 19/17 A2968

2010/08/08 04:52
KRAP 080452Z AUTO 01008KT 10SM CLR 21/14 A2982

2010/08/08 04:54
KRFD 080454Z 19006KT 10SM CLR 21/18 A2990

2010/08/08 04:53
KRIW 080453Z AUTO 05008KT 10SM CLR 23/06 A2998

2010/08/08 04:54
KRST 080454Z AUTO 20011KT 8SM VCTS FEW080 24/22 A2978

2010/08/08 04:53
KSHR 080453Z AUTO 14008KT 10SM CLR 18/11 A2986

2010/08/08 04:53
KSLN 080453Z AUTO 16009KT 10SM CLR 28/21 A2981

2010/08/08 04:52
KSPI 080452Z AUTO 16005KT 10SM CLR 22/18 A2993

2010/08/08 04:54
KSBN 080454Z 19007KT 10SM OVC095 22/17 A2994

2010/08/08 04:53
KSTC 080453Z AUTO 00000KT 10SM -TSRA SCT043 BKN065 OVC095 23/21 A2968

2010/08/08 04:52
KSUX 080452Z 17007KT 10SM CLR 26/22 A2974

2010/08/08 04:53
KTCS 080453Z AUTO 30011KT 10SM CLR 26/13 A3004

2010/08/08 04:55
KUDG 080455Z 00000KT 5SM CLR 23/22 A2998

2010/08/08 04:54
KUIN 080454Z AUTO 17007KT 7SM CLR 24/19 A2991

2010/08/08 04:53
KVIH 080453Z AUTO 13007KT 10SM CLR 24/21 A2993

2010/08/08 04:52
KVTN 080452Z AUTO 20003KT 10SM CLR 21/18 A2980

2010/08/08 04:51
KYNG 080451Z 16006KT 10SM BKN150 BKN250 18/12 A3002

