2010/08/08 05:59
MYEG 080559Z AUTO 09005KT 10SM CLR 27/23 A2998 RMK AO2 

2010/08/08 05:59
MYEG 080559Z AUTO 09005KT 10SM CLR 27/23 A2998 RMK AO2

2010/08/08 05:50
KQEV 080550Z AUTO 23001KT 7SM FEW049 33/18 A2981 RMK A02

2010/08/08 05:55
KFDW 080555Z AUTO 05004KT 10SM CLR 26/21 A2997 RMK AO1

2010/08/08 05:55
KFDW 080555Z AUTO 05004KT 10SM CLR 26/21 A2997 RMK AO1

2010/08/08 05:45
K2G4 080545Z AUTO 00000KT 10SM CLR 17/10 A3012 RMK AO1

2010/08/08 05:45
KCGS 080545Z AUTO 00000KT 10SM BKN080 BKN100 21/18 A3000 RMK AO1

2010/08/08 05:45
KCBE 080545Z AUTO 01004KT 10SM CLR 19/15 A3007 RMK AO1

2010/08/08 05:51
KESN 080551Z AUTO 00000KT 10SM CLR 21/20 A3003 RMK AO2

2010/08/08 05:45
KFDK 080545Z AUTO 00000KT 10SM CLR 18/17 A3003 RMK AO2

2010/08/08 05:45
KFME 080545Z AUTO 00000KT 7SM BKN100 BKN120 15/15 A3002 RMK AO1

2010/08/08 05:45
KW29 080545Z AUTO 00000KT 10SM CLR 21/18 A2999 RMK AO1

2010/08/08 05:45
KMTN 080545Z AUTO 00000KT 10SM CLR 21/19 A3000 RMK AO2

2010/08/08 05:55
KRQO 080555Z AUTO 00000KT 10SM CLR 27/21 A2986 RMK AO2

2010/08/08 05:45
KPWM 080545Z AUTO 00000KT 1 3/4SM BR CLR 13/12 A3000 RMK AO2 VIS 3/4V5 $

2010/08/08 05:45
KSTP 080545Z AUTO 21009KT 10SM VCTS SCT055 28/22 A2968 RMK AO2 LTG DSNT N AND NE TSB39

2010/08/08 05:45
KVTA 080545Z AUTO 00000KT 1 3/4SM BR CLR 16/16 A3001 RMK AO2 VIS 1V4

2010/08/08 05:45
KNPA 080545Z AUTO 23003KT 10SM TS BKN100 26/24 A2990 RMK AO2 TSE0457B05E32B39 

2010/08/08 05:50
EEPU 080550Z 18006KT 140V210 8000 NSC 25/21 Q1012

2010/08/08 05:46
CWOB 080546Z AUTO ///// 0SM CLR 04/ A2947

2010/08/08 05:46
CWZZ 080546Z AUTO ///// 9SM BKN014 OVC054 OVC080 08/ A2928

2010/08/08 05:46
CYHE 080546Z AUTO 27006KT 9SM FEW020 BKN032 OVC044 17/16 A2988

2010/08/08 05:45
CWWA 080545Z AUTO 00000KT 15/14 RMK AO1 T01530143

2010/08/08 05:45
KSWF 080545Z 00000KT 20SM SKC 16/13 A3003

2010/08/08 05:45
KSFY 080545Z AUTO 17006KT 10SM CLR 22/19 A2987 RMK AO2

2010/08/08 05:45
PAAQ 080545Z AUTO 00000KT 1 3/4SM -RA BR BKN011 OVC019 11/11 A2979 RMK AO2 RAB00 P0003 TSNO

2010/08/08 05:45
PAPM 080545Z AUTO 10007KT 8SM -RA SCT019 BKN037 OVC044 11/09 A2970 RMK AO2 TSNO P0000 $

2010/08/08 05:45
PAVL 080545Z AUTO 27008KT 2SM -RA BR OVC001 10/09 A2959 RMK AO2 P0000 TSNO

2010/08/08 05:46
KBCE 080546Z AUTO 00000KT 10SM BKN015 11/09 A3027 RMK AO2 $

2010/08/08 05:46
KHOT 080546Z AUTO 00000KT 8SM BKN015 BKN048 OVC070 27/26 A2993 RMK AO2 LTG DSNT S TSB21E36RAB11E46 P0002

2010/08/08 05:45
KCBE 080545Z AUTO 01004KT 10SM CLR 19/15 A3007 RMK AO1

2010/08/08 05:45
KCGS 080545Z AUTO 00000KT 10SM BKN080 BKN100 21/18 A3000 RMK AO1

2010/08/08 05:45
K2G4 080545Z AUTO 00000KT 10SM CLR 17/10 A3012 RMK AO1

2010/08/08 05:51
KESN 080551Z AUTO 00000KT 10SM CLR 21/20 A3003 RMK AO2

2010/08/08 05:45
KFDK 080545Z AUTO 00000KT 10SM CLR 18/17 A3003 RMK AO2

2010/08/08 05:45
KFME 080545Z AUTO 00000KT 7SM BKN100 BKN120 15/15 A3002 RMK AO1

2010/08/08 05:45
KW29 080545Z AUTO 00000KT 10SM CLR 21/18 A2999 RMK AO1

2010/08/08 05:45
KMTN 080545Z AUTO 00000KT 10SM CLR 21/19 A3000 RMK AO2

2010/08/08 05:45
KNPA 080545Z AUTO 23003KT 10SM TS BKN100 26/24 A2990 RMK AO2 TSE0457B05E32B39

2010/08/08 05:45
KPWM 080545Z AUTO 00000KT 1 3/4SM BR CLR 13/12 A3000 RMK AO2 VIS 3/4V5 $

2010/08/08 05:45
KSTP 080545Z AUTO 21009KT 10SM VCTS SCT055 28/22 A2968 RMK AO2 LTG DSNT N AND NE TSB39

2010/08/08 05:45
KVTA 080545Z AUTO 00000KT 1 3/4SM BR CLR 16/16 A3001 RMK AO2 VIS 1V4

2010/08/08 05:45
PAAQ 080545Z AUTO 00000KT 1 3/4SM -RA BR BKN011 OVC019 11/11 A2979 RMK AO2 RAB00 P0003 TSNO

2010/08/08 05:45
PAPM 080545Z AUTO 10007KT 8SM -RA SCT019 BKN037 OVC044 11/09 A2970 RMK AO2 TSNO P0000 $

2010/08/08 05:45
PAVL 080545Z AUTO 27008KT 2SM -RA BR OVC001 10/09 A2959 RMK AO2 P0000 TSNO

2010/08/08 05:46
KBCE 080546Z AUTO 00000KT 10SM BKN015 11/09 A3027 RMK AO2 $

2010/08/08 05:46
KHOT 080546Z AUTO 00000KT 8SM BKN015 BKN048 OVC070 27/26 A2993 RMK AO2 LTG DSNT S TSB21E36RAB11E46 P0002

2010/08/08 05:45
KCBE 080545Z AUTO 01004KT 10SM CLR 19/15 A3007 RMK AO1

2010/08/08 05:51
KESN 080551Z AUTO 00000KT 10SM CLR 21/20 A3003 RMK AO2

2010/08/08 05:45
KSFY 080545Z AUTO 17006KT 10SM CLR 22/19 A2987 RMK AO2

2010/08/08 05:45
KCGS 080545Z AUTO 00000KT 10SM BKN080 BKN100 21/18 A3000 RMK AO1

2010/08/08 05:45
K2G4 080545Z AUTO 00000KT 10SM CLR 17/10 A3012 RMK AO1

2010/08/08 05:45
KFDK 080545Z AUTO 00000KT 10SM CLR 18/17 A3003 RMK AO2

2010/08/08 05:45
KW29 080545Z AUTO 00000KT 10SM CLR 21/18 A2999 RMK AO1

2010/08/08 05:45
KMTN 080545Z AUTO 00000KT 10SM CLR 21/19 A3000 RMK AO2

2010/08/08 05:55
KRQO 080555Z AUTO 00000KT 10SM CLR 27/21 A2986 RMK AO2

2010/08/08 05:45
KSWF 080545Z 00000KT 20SM SKC 16/13 A3003

2010/08/08 05:45
KQSL 080545Z 33015G26KT 1600 DU HZ SCT000 41/M01 A2965 RMK Q1004MB

2010/08/08 05:45
KCBE 080545Z AUTO 01004KT 10SM CLR 19/15 A3007 RMK AO1

2010/08/08 05:45
KFME 080545Z AUTO 00000KT 7SM BKN100 BKN120 15/15 A3002 RMK AO1

2010/08/08 05:45
KFDK 080545Z AUTO 00000KT 10SM CLR 18/17 A3003

2010/08/08 05:45
YPKG 080545Z 20016G27KT 9999 -SHRA BKN050 15/03 Q1022

2010/08/08 05:45
KPWM 080545Z AUTO 00000KT 1 3/4SM BR CLR 13/12 A3000

2010/08/08 05:46
KNGP 080546Z AUTO 21009G37KT 160V250 10SM FEW019 28/26 A2990 RMK AO2 VISNO $ 

2010/08/08 05:45
KSTP 080545Z AUTO 21009KT 10SM VCTS SCT055 28/22 A2968

2010/08/08 05:45
KCBE 080545Z AUTO 01004KT 10SM CLR 19/15 A3007

2010/08/08 05:45
KPWM 080545Z AUTO 00000KT 1 3/4SM BR CLR 13/12 A3000

2010/08/08 05:45
KMTN 080545Z AUTO 00000KT 10SM CLR 21/19 A3000

2010/08/08 05:45
KSTP 080545Z AUTO 21009KT 10SM VCTS SCT055 28/22 A2968

2010/08/08 05:47
KCQT 080547Z AUTO 00000KT 10SM SCT012 18/13 A2990 RMK AO2 SLP124 T01780128 10228 20178 51017 TSNO $ 

2010/08/08 05:47
KFLG 080547Z AUTO 00000KT 1 1/4SM BR OVC001 13/13 A3024 RMK AO2 TSNO 

2010/08/08 05:45
K2G4 080545Z AUTO 00000KT 10SM CLR 17/10 A3012 RMK AO1

2010/08/08 05:45
KCBE 080545Z AUTO 01004KT 10SM CLR 19/15 A3007 RMK AO1

2010/08/08 05:55
KCCA 080555Z AUTO 00000KT 8SM OVC095 26/23 A2993 RMK AO2

2010/08/08 05:45
KCGS 080545Z AUTO 00000KT 10SM BKN080 BKN100 21/18 A3000 RMK AO1

2010/08/08 05:45
KFDK 080545Z AUTO 00000KT 10SM CLR 18/17 A3003 RMK AO2

2010/08/08 05:51
KESN 080551Z AUTO 00000KT 10SM CLR 21/20 A3003 RMK AO2

2010/08/08 05:45
KFME 080545Z AUTO 00000KT 7SM BKN100 BKN120 15/15 A3002 RMK AO1

2010/08/08 05:45
KMTN 080545Z AUTO 00000KT 10SM CLR 21/19 A3000 RMK AO2

2010/08/08 05:55
KOLV 080555Z AUTO 00000KT 5SM CLR 26/26 A2992 RMK A01 P000

2010/08/08 05:45
KW29 080545Z AUTO 00000KT 10SM CLR 21/18 A2999 RMK AO1

2010/08/08 05:45
PAEL 080545Z 00000KT 7SM OVC012 12/12 A2985 RMK NOSPECI LAST

2010/08/08 05:47
KCEC 080547Z AUTO 14007KT 1SM BR VV001 13/12 A2992 RMK AO2

2010/08/08 05:47
CYHE 080547Z AUTO 27004KT 250V320 9SM -DZ FEW020 BKN032 OVC042 17/16 A2988

2010/08/08 05:50
MSLP 080550Z 00000KT 9999 FEW027 SCT080 26/24 Q1012 A2990

2010/08/08 05:50
MSSS 080550Z 00000KT 9999 SCT027 FEW040CB 23/22 Q1016 A3003 CB LTGIC TO N/E

2010/08/08 05:46
KHOT 080546Z AUTO 00000KT 8SM BKN015 BKN048 OVC070 27/26 A2993

2010/08/08 05:47
KFLG 080547Z AUTO 00000KT 1 1/4SM BR OVC001 13/13 A3024

2010/08/08 05:45
YPKG 080545Z 20016G27KT 9999 -SHRA BKN050 15/03 Q1022

2010/08/08 05:46
KHOT 080546Z AUTO 00000KT 8SM BKN015 BKN048 OVC070 27/26 A2993

2010/08/08 05:46
KNGP 080546Z AUTO 21009G37KT 160V250 10SM FEW019 28/26 A2990

2010/08/08 05:47
KFLG 080547Z AUTO 00000KT 1 1/4SM BR OVC001 13/13 A3024

2010/08/08 05:47
KFLG 080547Z AUTO 00000KT 1 1/4SM BR OVC001 13/13 A3024

2010/08/08 05:49
LEPA 080549Z 05003KT 020V080 CAVOK 19/17 Q1018 NOSIG

2010/08/08 05:47
CYCY 080547Z AUTO 00000KT 8SM OVC004 OVC056 OVC079 OVC094 03/03 A2992

2010/08/08 05:48
KCLM 080548Z AUTO 28006KT 3SM BR OVC001 14/14 A2992 RMK AO2

2010/08/08 05:47
KM89 080547Z AUTO 36003KT 3SM -VCTSRA BR SCT002 BKN023 OVC048 26/24 A2991 RMK AO2 BKN V SCT TSE03B04 P0011

2010/08/08 05:48
KSTC 080548Z AUTO VRB03KT 8SM BKN036 BKN043 22/21 A2969 RMK AO2 LTG DSNT ALQDS TSE19B26E42RAE0455 P0000 403170150

2010/08/08 05:48
KTIW 080548Z AUTO 23006KT 10SM SCT012 BKN018 OVC024 16/14 A2992 RMK AO2

2010/08/08 05:53
KPYX 080553Z AUTO 16009KT 10SM CLR 26/19 A2990 RMK AO2

2010/08/08 05:45
K1H2 080545Z AUTO 00000KT 7SM CLR 19/18 A2997 RMK AO2 T01920180 10282 20192 402990166

2010/08/08 05:45
K3LF 080545Z AUTO 14006KT 7SM CLR 21/17 A2995 RMK AO2

2010/08/08 05:45
K3T5 080545Z AUTO 19004KT 10SM CLR 27/25 A2991 RMK AO2 T02720245 10321 20272 403520241

2010/08/08 05:45
KAJG 080545Z AUTO 00000KT 1/4SM FG VV002 18/18 A2996 RMK AO2 T01820178 10274 20176 402920153

2010/08/08 05:45
KALN 080545Z AUTO 00000KT 7SM CLR 22/20 A2995 RMK AO2 T02180196 10291 20210 403130175

2010/08/08 05:45
KAQO 080545Z AUTO 16003KT CLR 29/21 A2994 RMK AO2 PWINO

2010/08/08 05:45
KARM 080545Z AUTO 00000KT 10SM CLR 27/25 A2992 RMK AO2 T02690248 10335 20268 403750256

2010/08/08 05:47
KASW 080547Z AUTO 00000KT 10SM CLR 22/18 A2997 RMK AO2 T02150180 10261 20196 402810146

2010/08/08 05:45
KAXH 080545Z AUTO 00000KT 10SM CLR 25/24 A2992 RMK AO2 T02510238 10309 20250

2010/08/08 05:45
KBKS 080545Z AUTO 15007KT 10SM CLR 28/24 A2990 RMK AO1 T02760242 10339 20276 403780255

2010/08/08 05:46
KBPC 080546Z AUTO 17015G19KT 10SM CLR 27/18 A2989 RMK AO2

2010/08/08 05:45
KC75 080545Z AUTO 17004KT 7SM CLR 22/19 A2991 RMK AO2 T02200190 10280 20218 402950175

2010/08/08 05:45
KDZB 080545Z AUTO 17011G15KT 7SM CLR 29/21 A2990 RMK AO2 T02850213 10349 20285 403700258

2010/08/08 05:45
KERV 080545Z AUTO 14008KT 10SM CLR 28/21 A2997 RMK AO2 T02750210 10345 20275 403600233

2010/08/08 05:45
KGNC 080545Z AUTO 19006KT 10SM CLR 25/14 A2999 RMK AO2 T02510136 10358 20251 403720202

2010/08/08 05:47
KGPM 080547Z AUTO 19005KT 10SM CLR 31/20 A2988 RMK AO2

2010/08/08 05:46
KHQZ 080546Z AUTO 16004KT 10SM CLR 27/22 A2987 RMK AO2

2010/08/08 05:46
KORG 080546Z AUTO 00000KT 10SM CLR 28/26 A2993 RMK AO2

2010/08/08 05:45
KOXI 080545Z AUTO 19005KT 7SM BKN090 21/18 A2993 RMK AO1 T02050180

2010/08/08 05:47
KPSN 080547Z AUTO 17005KT 28/23 A2991 RMK AO2 PWINO

2010/08/08 05:45
KBYY 080545Z AUTO 00000KT 10SM CLR 27/26 A2991 RMK AO2 T02680255 10320 20268 403380257

2010/08/08 05:45
KCPT 080545Z AUTO 16006KT 10SM CLR 28/22 A2990 RMK AO2

2010/08/08 05:45
KCUL 080545Z AUTO 00000KT 5SM BR CLR 17/16 A2996 RMK AO2 T01730157 10265 20168 402950150

2010/08/08 05:45
KCVB 080545Z AUTO 14004KT 10SM CLR 28/22 A2994 RMK AO2 T02780223 10352 20278 403690233

2010/08/08 05:45
KCWC 080545Z AUTO 16006KT 10SM CLR 29/22 A2985 RMK AO2 T02920220 10355 20290 403880233

2010/08/08 05:45
KDKB 080545Z AUTO 20007KT 7SM CLR 21/17 A2990 RMK AO2 T02060171 10260 20206 402790154

2010/08/08 05:45
KDKR 080545Z AUTO 00000KT 10SM CLR 27/24 A2993 RMK AO2

2010/08/08 05:45
KDNV 080545Z AUTO 17004KT 7SM CLR 18/17 A2994 RMK AO2 T01840167 10255 20183 402760141

2010/08/08 05:47
KDUX 080547Z AUTO 16008KT 10SM CLR 24/17 A2996 RMK AO2 T02390174

2010/08/08 05:50
KEBG 080550Z AUTO 16006KT 10SM CLR 28/25 A2990 RMK AO2 T02770247

2010/08/08 05:45
KECU 080545Z AUTO 14010KT 10SM CLR 28/19 A3003 RMK AO2

2010/08/08 05:45
KENL 080545Z AUTO 09003KT 7SM CLR 20/17 A2996 RMK AO2 6//// T01950174

2010/08/08 05:45
KFEP 080545Z AUTO 17007KT 10SM CLR 24/20 A2990 RMK AO2 T02360199 10265 20216 402800167

2010/08/08 05:45
KFWC 080545Z AUTO 00000KT 7SM CLR 19/18 A2996 RMK AO2

2010/08/08 05:45
KGBG 080545Z AUTO 17005KT 7SM CLR 22/19 A2990 RMK AO2

2010/08/08 05:45
KGOP 080545Z AUTO 17005KT 10SM CLR 28/21 A2992 RMK AO2

2010/08/08 05:45
KGWB 080545Z AUTO 00000KT 7SM CLR 19/16 A2997 RMK AO2

2010/08/08 05:45
KGYB 080545Z AUTO 20005KT 10SM CLR 27/24 A2995 RMK AO2 T02710236 10339 20271 403550246

2010/08/08 05:45
KGYI 080545Z AUTO 16008KT 10SM CLR 31/21 A2986 RMK AO2 T03070213 10376 20301

2010/08/08 05:45
KHHF 080545Z AUTO 19015G23KT 10SM CLR 29/20 A2987 RMK AO2 T02920196 10360 20290 403710212

2010/08/08 05:45
KHSB 080545Z AUTO 00000KT 7SM CLR 18/16 A2995 RMK AO2

2010/08/08 05:45
KIGQ 080545Z AUTO 20005KT 7SM CLR 22/17 A2992 RMK AO2

2010/08/08 05:45
KIJX 080545Z AUTO 16006KT 7SM CLR 24/18 A2993 RMK AO2 T02360180 10282 20227 402980167

2010/08/08 05:45
KINJ 080545Z AUTO 17007KT 10SM CLR 29/20 A2988 RMK AO2 T02880204 10359 20287 403700243

2010/08/08 05:45
KJAS 080545Z AUTO 00000KT 10SM CLR 27/25 A2994 RMK AO2 T02740250 10328 20272 403600236

2010/08/08 05:45
KJDD 080545Z AUTO 00000KT 10SM CLR 28/23 A2989 RMK AO2

2010/08/08 05:45
KJSO 080545Z AUTO 18006KT 10SM CLR 27/24 A2993 RMK AO2 T02730240 10340 20273 403500240

2010/08/08 05:45
KJXI 080545Z AUTO 18004KT 10SM CLR 28/24 A2990 RMK AO2

2010/08/08 05:45
KLBR 080545Z AUTO 10004KT 10SM CLR 27/23 A2987 RMK AO2 T02730225 10335 20266 403600230

2010/08/08 05:45
KLNC 080545Z AUTO 20003KT 10SM CLR 28/23 A2987 RMK AO2 T02760225 10355 20276 403680236

2010/08/08 05:45
KLOT 080545Z AUTO 20005KT 7SM CLR 21/19 A2990 RMK AO2 T02060186 10266 20206 402800154

2010/08/08 05:45
KLUD 080545Z AUTO 18012KT 10SM CLR 30/19 A2987 RMK AO2 T03010190 10361 20300 403660230

2010/08/08 05:47
KM30 080547Z AUTO 00000KT 5SM BR CLR 20/17 A2994 RMK AO2

2010/08/08 05:45
KPNT 080545Z AUTO 19007KT 7SM CLR 24/18 A2993 RMK AO2

2010/08/08 05:45
KRPJ 080545Z AUTO 17004KT 5SM BR CLR 20/18 A2990 RMK AO2 T01970183 10263 20196 402800150

2010/08/08 05:45
KRSV 080545Z AUTO 00000KT 4SM BR CLR 18/17 A2998 RMK AO2 T01800173 10278 20179 403040153

2010/08/08 05:49
LEPA 080549Z 05003KT 020V080 CAVOK 19/17 Q1018 NOSIG

2010/08/08 05:45
KFDK 080545Z AUTO 00000KT 10SM CLR 18/17 A3003

2010/08/08 05:47
KCQT 080547Z AUTO 00000KT 10SM SCT012 18/13 A2990 RMK AO2 SLP124 T01780128 10228 20178 51017 TSNO $

2010/08/08 05:46
KNGP 080546Z AUTO 21009G37KT 160V250 10SM FEW019 28/26 A2990 RMK AO2 VISNO $

2010/08/08 05:47
KFLG 080547Z AUTO 00000KT 1 1/4SM BR OVC001 13/13 A3024 RMK AO2 TSNO

2010/08/08 05:47
KFLG 080547Z AUTO 00000KT 1 1/4SM BR OVC001 13/13 A3024 RMK AO2 TSNO

2010/08/08 05:48
KSTC 080548Z AUTO VRB03KT 8SM BKN036 BKN043 22/21 A2969 RMK AO2 LTG DSNT ALQDS TSE19B26E42RAE0455 P0000 403170150

2010/08/08 05:45
KIGQ 080545Z AUTO 20005KT 7SM CLR 22/17 A2992 RMK AO2

2010/08/08 05:45
KIJX 080545Z AUTO 16006KT 7SM CLR 24/18 A2993 RMK AO2 T02360180 10282 20227 402980167

2010/08/08 05:45
KINJ 080545Z AUTO 17007KT 10SM CLR 29/20 A2988 RMK AO2 T02880204 10359 20287 403700243

2010/08/08 05:45
KJAS 080545Z AUTO 00000KT 10SM CLR 27/25 A2994 RMK AO2 T02740250 10328 20272 403600236

2010/08/08 05:45
KJDD 080545Z AUTO 00000KT 10SM CLR 28/23 A2989 RMK AO2

2010/08/08 05:45
KJSO 080545Z AUTO 18006KT 10SM CLR 27/24 A2993 RMK AO2 T02730240 10340 20273 403500240

2010/08/08 05:45
KJXI 080545Z AUTO 18004KT 10SM CLR 28/24 A2990 RMK AO2

2010/08/08 05:45
KLBR 080545Z AUTO 10004KT 10SM CLR 27/23 A2987 RMK AO2 T02730225 10335 20266 403600230

2010/08/08 05:45
KLNC 080545Z AUTO 20003KT 10SM CLR 28/23 A2987 RMK AO2 T02760225 10355 20276 403680236

2010/08/08 05:45
KLOT 080545Z AUTO 20005KT 7SM CLR 21/19 A2990 RMK AO2 T02060186 10266 20206 402800154

2010/08/08 05:45
KLUD 080545Z AUTO 18012KT 10SM CLR 30/19 A2987 RMK AO2 T03010190 10361 20300 403660230

2010/08/08 05:47
KM30 080547Z AUTO 00000KT 5SM BR CLR 20/17 A2994 RMK AO2

2010/08/08 05:45
KPNT 080545Z AUTO 19007KT 7SM CLR 24/18 A2993 RMK AO2

2010/08/08 05:45
KRPJ 080545Z AUTO 17004KT 5SM BR CLR 20/18 A2990 RMK AO2 T01970183 10263 20196 402800150

2010/08/08 05:45
KRSV 080545Z AUTO 00000KT 4SM BR CLR 18/17 A2998 RMK AO2 T01800173 10278 20179 403040153

2010/08/08 05:45
KCBE 080545Z AUTO 01004KT 10SM CLR 19/15 A3007 RMK AO1

2010/08/08 05:51
KESN 080551Z AUTO 00000KT 10SM CLR 21/20 A3003 RMK AO2

2010/08/08 05:47
KCQT 080547Z AUTO 00000KT 10SM SCT012 18/13 A2990 RMK AO2 SLP124 T01780128 10228 20178 51017 TSNO $

2010/08/08 05:47
KPSN 080547Z AUTO 17005KT 28/23 A2991 RMK AO2 PWINO

2010/08/08 05:45
KCUL 080545Z AUTO 00000KT 5SM BR CLR 17/16 A2996 RMK AO2 T01730157 10265 20168 402950150

2010/08/08 05:46
KNGP 080546Z AUTO 21009G37KT 160V250 10SM FEW019 28/26 A2990 RMK AO2 VISNO $

2010/08/08 05:47
KCEC 080547Z AUTO 14007KT 1SM BR VV001 13/12 A2992 RMK AO2

2010/08/08 05:48
KCLM 080548Z AUTO 28006KT 3SM BR OVC001 14/14 A2992 RMK AO2

2010/08/08 05:47
KM89 080547Z AUTO 36003KT 3SM -VCTSRA BR SCT002 BKN023 OVC048 26/24 A2991 RMK AO2 BKN V SCT TSE03B04 P0011

2010/08/08 05:48
KTIW 080548Z AUTO 23006KT 10SM SCT012 BKN018 OVC024 16/14 A2992 RMK AO2

2010/08/08 05:45
K2G4 080545Z AUTO 00000KT 10SM CLR 17/10 A3012 RMK AO1

2010/08/08 05:55
KCCA 080555Z AUTO 00000KT 8SM OVC095 26/23 A2993 RMK AO2

2010/08/08 05:45
KCGS 080545Z AUTO 00000KT 10SM BKN080 BKN100 21/18 A3000 RMK AO1

2010/08/08 05:45
KFDK 080545Z AUTO 00000KT 10SM CLR 18/17 A3003 RMK AO2

2010/08/08 05:45
KMTN 080545Z AUTO 00000KT 10SM CLR 21/19 A3000 RMK AO2

2010/08/08 05:55
KOLV 080555Z AUTO 00000KT 5SM CLR 26/26 A2992 RMK A01 P000

2010/08/08 05:45
KW29 080545Z AUTO 00000KT 10SM CLR 21/18 A2999 RMK AO1

2010/08/08 05:45
PAEL 080545Z 00000KT 7SM OVC012 12/12 A2985 RMK NOSPECI LAST

2010/08/08 05:53
KPYX 080553Z AUTO 16009KT 10SM CLR 26/19 A2990 RMK AO2

2010/08/08 05:45
K1H2 080545Z AUTO 00000KT 7SM CLR 19/18 A2997 RMK AO2 T01920180 10282 20192 402990166

2010/08/08 05:45
K3LF 080545Z AUTO 14006KT 7SM CLR 21/17 A2995 RMK AO2

2010/08/08 05:45
K3T5 080545Z AUTO 19004KT 10SM CLR 27/25 A2991 RMK AO2 T02720245 10321 20272 403520241

2010/08/08 05:45
KAJG 080545Z AUTO 00000KT 1/4SM FG VV002 18/18 A2996 RMK AO2 T01820178 10274 20176 402920153

2010/08/08 05:45
KALN 080545Z AUTO 00000KT 7SM CLR 22/20 A2995 RMK AO2 T02180196 10291 20210 403130175

2010/08/08 05:45
KAQO 080545Z AUTO 16003KT CLR 29/21 A2994 RMK AO2 PWINO

2010/08/08 05:45
KARM 080545Z AUTO 00000KT 10SM CLR 27/25 A2992 RMK AO2 T02690248 10335 20268 403750256

2010/08/08 05:47
KASW 080547Z AUTO 00000KT 10SM CLR 22/18 A2997 RMK AO2 T02150180 10261 20196 402810146

2010/08/08 05:45
KAXH 080545Z AUTO 00000KT 10SM CLR 25/24 A2992 RMK AO2 T02510238 10309 20250

2010/08/08 05:45
KBKS 080545Z AUTO 15007KT 10SM CLR 28/24 A2990 RMK AO1 T02760242 10339 20276 403780255

2010/08/08 05:46
KBPC 080546Z AUTO 17015G19KT 10SM CLR 27/18 A2989 RMK AO2

2010/08/08 05:45
KC75 080545Z AUTO 17004KT 7SM CLR 22/19 A2991 RMK AO2 T02200190 10280 20218 402950175

2010/08/08 05:45
KDZB 080545Z AUTO 17011G15KT 7SM CLR 29/21 A2990 RMK AO2 T02850213 10349 20285 403700258

2010/08/08 05:45
KERV 080545Z AUTO 14008KT 10SM CLR 28/21 A2997 RMK AO2 T02750210 10345 20275 403600233

2010/08/08 05:45
KGNC 080545Z AUTO 19006KT 10SM CLR 25/14 A2999 RMK AO2 T02510136 10358 20251 403720202

2010/08/08 05:47
KGPM 080547Z AUTO 19005KT 10SM CLR 31/20 A2988 RMK AO2

2010/08/08 05:46
KHQZ 080546Z AUTO 16004KT 10SM CLR 27/22 A2987 RMK AO2

2010/08/08 05:46
KORG 080546Z AUTO 00000KT 10SM CLR 28/26 A2993 RMK AO2

2010/08/08 05:45
KOXI 080545Z AUTO 19005KT 7SM BKN090 21/18 A2993 RMK AO1 T02050180

2010/08/08 05:45
KBYY 080545Z AUTO 00000KT 10SM CLR 27/26 A2991 RMK AO2 T02680255 10320 20268 403380257

2010/08/08 05:45
KCPT 080545Z AUTO 16006KT 10SM CLR 28/22 A2990 RMK AO2

2010/08/08 05:45
KCVB 080545Z AUTO 14004KT 10SM CLR 28/22 A2994 RMK AO2 T02780223 10352 20278 403690233

2010/08/08 05:45
KCWC 080545Z AUTO 16006KT 10SM CLR 29/22 A2985 RMK AO2 T02920220 10355 20290 403880233

2010/08/08 05:45
KDKB 080545Z AUTO 20007KT 7SM CLR 21/17 A2990 RMK AO2 T02060171 10260 20206 402790154

2010/08/08 05:45
KDKR 080545Z AUTO 00000KT 10SM CLR 27/24 A2993 RMK AO2

2010/08/08 05:45
KDNV 080545Z AUTO 17004KT 7SM CLR 18/17 A2994 RMK AO2 T01840167 10255 20183 402760141

2010/08/08 05:47
KDUX 080547Z AUTO 16008KT 10SM CLR 24/17 A2996 RMK AO2 T02390174

2010/08/08 05:50
KEBG 080550Z AUTO 16006KT 10SM CLR 28/25 A2990 RMK AO2 T02770247

2010/08/08 05:45
KECU 080545Z AUTO 14010KT 10SM CLR 28/19 A3003 RMK AO2

2010/08/08 05:45
KENL 080545Z AUTO 09003KT 7SM CLR 20/17 A2996 RMK AO2 6//// T01950174

2010/08/08 05:45
KFEP 080545Z AUTO 17007KT 10SM CLR 24/20 A2990 RMK AO2 T02360199 10265 20216 402800167

2010/08/08 05:45
KFWC 080545Z AUTO 00000KT 7SM CLR 19/18 A2996 RMK AO2

2010/08/08 05:45
KGBG 080545Z AUTO 17005KT 7SM CLR 22/19 A2990 RMK AO2

2010/08/08 05:45
KGOP 080545Z AUTO 17005KT 10SM CLR 28/21 A2992 RMK AO2

2010/08/08 05:45
KGWB 080545Z AUTO 00000KT 7SM CLR 19/16 A2997 RMK AO2

2010/08/08 05:45
KGYB 080545Z AUTO 20005KT 10SM CLR 27/24 A2995 RMK AO2 T02710236 10339 20271 403550246

2010/08/08 05:45
KGYI 080545Z AUTO 16008KT 10SM CLR 31/21 A2986 RMK AO2 T03070213 10376 20301

2010/08/08 05:45
KHHF 080545Z AUTO 19015G23KT 10SM CLR 29/20 A2987 RMK AO2 T02920196 10360 20290 403710212

2010/08/08 05:45
KHSB 080545Z AUTO 00000KT 7SM CLR 18/16 A2995 RMK AO2

2010/08/08 05:48
KJDN 080548Z AUTO 20003KT 17/09 A2974 RMK AO2 SLP054 T01720094 10311 20172 51007 PWINO TSNO 

2010/08/08 05:49
LEPA 080549Z 05003KT 020V080 CAVOK 19/17 Q1018 NOSIG

2010/08/08 05:47
MMMX 080547Z 00000KT 6SM SCT020 BKN080 BKN200 16/15 A3033 NOSIG RMK SLP084 52009 900 8/463 HZY LWR SC

2010/08/08 05:48
KIGM 080548Z AUTO 14010KT 10SM CLR 25/13 A2993 RMK AO2 SLP061 T02500128 10322 20250 50010 TSNO 

2010/08/08 05:46
CWOB 080546Z AUTO ///// 0SM CLR 04/ A2947

2010/08/08 05:46
CWZZ 080546Z AUTO ///// 9SM BKN014 OVC054 OVC080 08/ A2928

2010/08/08 05:46
CYHE 080546Z AUTO 27006KT 9SM FEW020 BKN032 OVC044 17/16 A2988

2010/08/08 05:47
CYHE 080547Z AUTO 27004KT 250V320 9SM -DZ FEW020 BKN032 OVC042 17/16 A2988

2010/08/08 05:47
EGUL 080547Z AUTO 32006KT 9999 FEW006 BKN015 OVC033 15/14 A3008 RMK AO2 SLP186

2010/08/08 05:45
EHDL 080545Z AUTO 29003KT 0350NDV FG BKN000 OVC002 16/15 Q1014 RED

2010/08/08 05:46
EHVK 080546Z AUTO 26004KT 4500NDV BR FEW003 15/14 Q1015 GRN

2010/08/08 05:45
EHWO 080545Z AUTO 25006KT 3000NDV BR FEW002 SCT008 BKN010 16/15 Q1015 YLO

2010/08/08 05:49
EHWO 080549Z AUTO 25005KT 3800NDV BR FEW002 SCT009 BKN011 16/15 Q1015 GRN

2010/08/08 05:49
ETAD 080549Z AUTO 23007KT 9999 OVC002 15/15 A3001 RMK AO2 SLP151 $

2010/08/08 05:45
ETIC 080545Z AUTO 00000KT 6000 BR SCT001 11/11 A3004 RMK AO2 SLP168

2010/08/08 05:45
KGSB 080545Z AUTO 00000KT 6SM R08/5000V5500FT BR BKN025 23/23 A2996 RMK AO2 BKN V SCT SLP143

2010/08/08 05:45
KNPA 080545Z AUTO 23003KT 10SM TS BKN100 26/24 A2990 RMK AO2 TSE0457B05E32B39

2010/08/08 05:45
KRDR 080545Z AUTO 00000KT 5SM R17/3500VP6000FT BR CLR 20/20 A2965 RMK AO2 SLP053 $

2010/08/08 05:47
KSLI 080547Z AUTO 17003KT 10SM BKN020 15/14 A2991 RMK AO2 SLP131

2010/08/08 05:48
KSSC 080548Z 00000KT 8SM R22/5500FT CLR 25/23 A2993 RMK AO2A SLP133 $

2010/08/08 05:47
KCEC 080547Z AUTO 14007KT 1SM BR VV001 13/12 A2992

2010/08/08 05:50
MSSS 080550Z 00000KT 9999 SCT023 FEW040CB 23/22 Q1016 CB NE/E

2010/08/08 05:50
MSLP 080550Z 00000KT 9999 FEW027 SCT080 26/24 Q1012

2010/08/08 05:50
HLLB 080550Z 36007KT 9999 SCT015 24/19 Q1014

2010/08/08 05:50
EKVG 080550Z AUTO 15007KT 9999NDV SCT012/// SCT028/// BKN084/// BKN120/// 10/08 Q1016 RMK SCT010/// BKN027/// BKN084/// BKN160/// WIND 850FT 12012KT

2010/08/08 05:49
CYHE 080549Z AUTO 27006KT 250V320 9SM FEW020 BKN032 OVC042 17/16 A2988

2010/08/08 05:49
KAGS 080549Z AUTO 00000KT 6SM BR CLR 24/23 A2993 RMK AO2

2010/08/08 05:49
KLBT 080549Z AUTO 00000KT 6SM BR BKN015 24/23 A2995 RMK AO2 $

2010/08/08 05:49
KPWM 080549Z AUTO 00000KT 3SM BR CLR 13/12 A3000 RMK AO2 $

2010/08/08 05:47
KBBD 080547Z AUTO 15007KT 10SM CLR 28/18 A2994 RMK AO2 51016 T02830183

2010/08/08 05:45
KMDD 080545Z AUTO 17007KT 7SM CLR 29/14 A2996 RMK AO2 T02910140 10367 20291

2010/08/08 05:50
KMNZ 080550Z AUTO 18006KT 10SM CLR 28/20 A2992 RMK AO2 T02780200

2010/08/08 05:45
KMWA 080545Z AUTO 12004KT 7SM CLR 24/17 A2997 RMK AO2 T02350173 10310 20223 403280179

2010/08/08 05:45
KPEQ 080545Z AUTO 13008KT 10SM CLR 30/16 A2991 RMK AO2 T02950160 10395 20295 404010206

2010/08/08 05:45
KPEZ 080545Z AUTO 14007KT 10SM CLR 27/23 A2993 RMK AO2 T02740231 10351 20274 403730236

2010/08/08 05:48
KPKV 080548Z AUTO 17004KT 10SM CLR 26/24 A2991 RMK AO2 T02600235

2010/08/08 05:45
KRAS 080545Z AUTO 17011G15KT 10SM CLR 29/26 A2993 RMK AO2

2010/08/08 05:45
KRBO 080545Z AUTO 16006KT 10SM CLR 28/25 A2991 RMK AO2 T02750252 10331 20275 403680252

2010/08/08 05:45
KRPH 080545Z AUTO 14004KT 10SM CLR 29/20 A2985 RMK AO2 T02860198 10358 20280 403750221

2010/08/08 05:45
KRYW 080545Z AUTO 16005KT M1/4SM HZ VV000 28/22 A2994 RMK AO2

2010/08/08 05:45
KSAR 080545Z AUTO 12004KT 5SM BR CLR 22/19 A2995 RMK AO2

2010/08/08 05:46
KSLO 080546Z AUTO 13004KT 7SM CLR 22/17 A2996 RMK AO2 T02150170 10276 20215

2010/08/08 05:46
KSNK 080546Z AUTO 15009KT 10SM CLR 28/16 A2995 RMK AO2 T02810159 10362 20281 403760222

2010/08/08 05:45
KSWW 080545Z AUTO 15009KT 10SM CLR 29/18 A2996 RMK AO1 T02860175 10336 20286 403820243

2010/08/08 05:45
KT65 080545Z AUTO 18010KT 7SM CLR 28/25 A2990 RMK AO2 T02800248 10328 20280 403520263

2010/08/08 05:45
KT82 080545Z AUTO 18006KT 10SM CLR 27/20 A2998 RMK AO1 T02670200 10334 20259

2010/08/08 05:45
KTAZ 080545Z AUTO 15005KT 7SM CLR 21/18 A2994 RMK AO2

2010/08/08 05:45
KTIP 080545Z AUTO 18004KT 7SM CLR 20/18 A2997 RMK AO2 T01950184 10273 20195

2010/08/08 05:45
KUVA 080545Z AUTO 13009KT 10SM CLR 30/24 A2991 RMK AO2 T02970241 10366 20297 403790232

2010/08/08 05:50
EKVG 080550Z AUTO 15007KT 9999NDV SCT012/// SCT028/// BKN084/// BKN120/// 10/08 Q1016 RMK SCT010/// BKN027/// BKN084/// BKN160/// WIND 850FT 12012KT

2010/08/08 05:50
EYKA 080550Z 17009KT 130V190 9999 SCT008 BKN190 20/20 Q1013

2010/08/08 05:50
EYPA 080550Z 19005KT 5000 BR NSC 21/21 Q1010

2010/08/08 05:50
EETN 080550Z 13006KT 100V180 5000 BR NSC 25/21 Q1011 NOSIG

2010/08/08 05:49
EHWO 080549Z AUTO 25005KT 3800NDV BR FEW002 SCT009 BKN011 16/15 Q1015 GRN

2010/08/08 05:45
EHDL 080545Z AUTO 29003KT 0350NDV FG BKN000 OVC002 16/15 Q1014 RED

2010/08/08 05:45
EHWO 080545Z AUTO 25006KT 3000NDV BR FEW002 SCT008 BKN010 16/15 Q1015 YLO

2010/08/08 05:46
EHVK 080546Z AUTO 26004KT 4500NDV BR FEW003 15/14 Q1015 GRN

2010/08/08 05:47
EGUL 080547Z AUTO 32006KT 9999 FEW006 BKN015 OVC033 15/14 A3008 RMK AO2 SLP186

2010/08/08 05:49
ETAD 080549Z AUTO 23007KT 9999 OVC002 15/15 A3001 RMK AO2 SLP151 $

2010/08/08 05:45
KSWF 080545Z 00000KT 20SM SKC 16/13 A3003

2010/08/08 05:49
CYCY 080549Z AUTO 00000KT 7SM OVC003 OVC052 OVC079 OVC094 03/03 A2992

2010/08/08 05:50
EYVI 080550Z 11006KT CAVOK 23/17 Q1013 NOSIG

2010/08/08 05:45
K1H2 080545Z AUTO 00000KT 7SM CLR 19/18 A2997

2010/08/08 05:45
KC75 080545Z AUTO 17004KT 7SM CLR 22/19 A2991

2010/08/08 05:45
KDKB 080545Z AUTO 20007KT 7SM CLR 21/17 A2990

2010/08/08 05:45
KDNV 080545Z AUTO 17004KT 7SM CLR 18/17 A2994

2010/08/08 05:45
KENL 080545Z AUTO 09003KT 7SM CLR 20/17 A2996

2010/08/08 05:45
KFEP 080545Z AUTO 17007KT 10SM CLR 24/20 A2990

2010/08/08 05:45
KFWC 080545Z AUTO 00000KT 7SM CLR 19/18 A2996

2010/08/08 05:45
KGBG 080545Z AUTO 17005KT 7SM CLR 22/19 A2990

2010/08/08 05:45
KHSB 080545Z AUTO 00000KT 7SM CLR 18/16 A2995

2010/08/08 05:45
KIGQ 080545Z AUTO 20005KT 7SM CLR 22/17 A2992

2010/08/08 05:45
KIJX 080545Z AUTO 16006KT 7SM CLR 24/18 A2993

2010/08/08 05:45
KLOT 080545Z AUTO 20005KT 7SM CLR 21/19 A2990

2010/08/08 05:45
KPNT 080545Z AUTO 19007KT 7SM CLR 24/18 A2993

2010/08/08 05:48
KCLM 080548Z AUTO 28006KT 3SM BR OVC001 14/14 A2992

2010/08/08 05:48
KTIW 080548Z AUTO 23006KT 10SM SCT012 BKN018 OVC024 16/14 A2992

2010/08/08 05:45
KBYY 080545Z AUTO 00000KT 10SM CLR 27/26 A2991

2010/08/08 05:45
KLNC 080545Z AUTO 20003KT 10SM CLR 28/23 A2987

2010/08/08 05:48
KSTC 080548Z AUTO VRB03KT 8SM BKN036 BKN043 22/21 A2969

2010/08/08 05:48
KIGM 080548Z AUTO 14010KT 10SM CLR 25/13 A2993

2010/08/08 05:48
KJDN 080548Z AUTO 20003KT 17/09 A2974

2010/08/08 05:45
KSWF 080545Z 00000KT 20SM SKC 16/13 A3003

2010/08/08 05:50
EYPA 080550Z 19005KT 5000 BR NSC 21/21 Q1010

2010/08/08 05:50
EETU 080550Z 13007KT 6000 NSC 24/20 Q1013

2010/08/08 05:45
LMML 080545Z 31004KT 280V340 9999 FEW012 21/20 Q1016 NOSIG 

2010/08/08 05:50
EYKA 080550Z 17009KT 130V190 9999 SCT008 BKN190 20/20 Q1013

2010/08/08 05:45
KALN 080545Z AUTO 00000KT 7SM CLR 22/20 A2995

2010/08/08 05:48
KSTC 080548Z AUTO VRB03KT 8SM BKN036 BKN043 22/21 A2969

2010/08/08 05:48
KCLM 080548Z AUTO 28006KT 3SM BR OVC001 14/14 A2992

2010/08/08 05:48
KTIW 080548Z AUTO 23006KT 10SM SCT012 BKN018 OVC024 16/14 A2992

2010/08/08 05:50
EETN 080550Z 13006KT 100V180 5000 BR NSC 25/21 Q1011 NOSIG

2010/08/08 05:50
KQEN 080550Z AUTO 09003KT 7SM BKN035 24/19 A3048 RMK A02

2010/08/08 05:50
KQES 080550Z AUTO 31011KT 7SM CLR 27/21 A2990 RMK A02

2010/08/08 05:50
KQEY 080550Z AUTO 31007KT 7SM FEW070 32/18 A2962 RMK A02

2010/08/08 06:00
KQEV 080600Z AUTO 34003KT 7SM FEW049 34/18 A2981 RMK A02

2010/08/08 05:48
KSTC 080548Z AUTO VRB03KT 8SM BKN036 BKN043 22/21 A2969

2010/08/08 05:50
NSTU 080550Z 09018KT 10SM SCT018 BKN040 27/25 A2993 RMK SLP137 60001 8/800 T02680246 10283 20261 51008

2010/08/08 05:50
FHAW 080550Z 15015KT 9999 FEW020 SCT040 24/19 Q1016 BLU

2010/08/08 05:55
KGGE 080555Z AUTO 00000KT 7SM CLR 23/23 A2993 RMK AO2

2010/08/08 05:50
KFHR 080550Z AUTO 21003KT 2 1/2SM BR BKN001 OVC005 14/14 A2990 RMK AO2

2010/08/08 05:50
KIMT 080550Z AUTO 19008KT 6SM TSRA BR OVC020 21/19 A2974 RMK AO2 LTG DSNT SE-SW TSB0459E14B44 P0010 402720083

2010/08/08 05:50
KPAE 080550Z AUTO 20005KT 3SM BR BKN008 OVC016 16/15 A2991 RMK AO2 CIG 004V010

2010/08/08 05:48
KJDN 080548Z AUTO 20003KT 17/09 A2974 RMK AO2 SLP054 T01720094 10311 20172 51007 PWINO TSNO

2010/08/08 05:48
KIGM 080548Z AUTO 14010KT 10SM CLR 25/13 A2993 RMK AO2 SLP061 T02500128 10322 20250 50010 TSNO

2010/08/08 05:48
KEHA 080548Z AUTO 19009KT 24/16 RMK AO1 PK WND 14 000 T02390162

2010/08/08 05:50
EYSA 080550Z 16006KT CAVOK 22/19 Q1012

2010/08/08 05:51
EKVG 080551Z 15007KT 9999 FEW012 SCT028 BKN085 10/08 Q1016 RMK/RWY 13-31 CLOSED DUE WIP NOTAM E0050/10 WIND 850FT 12012KT

2010/08/08 06:00
MGHT 080600Z 00000KT 9999 FEW020 16/16 QFE 818.9

2010/08/08 06:00
MGPB 080600Z 00000KT 9999 FEW016 25/25 Q1012 A2988

2010/08/08 06:00
MGGT 080600Z 36006KT 9999 BKN012 18/17 Q1025 A3027 VOL.PACAYA EN ACTIVIDAD

2010/08/08 06:00
MGSJ 080600Z 00000KT CAVOK 25/24 Q1013 A2991 BKN090

2010/08/08 05:48
KJDN 080548Z AUTO 20003KT 17/09 A2974 RMK AO2 SLP054 T01720094 10311 20172 51007 PWINO TSNO

2010/08/08 05:48
KIGM 080548Z AUTO 14010KT 10SM CLR 25/13 A2993 RMK AO2 SLP061 T02500128 10322 20250 50010 TSNO

2010/08/08 05:48
KEHA 080548Z AUTO 19009KT 24/16 RMK AO1 PK WND 14 000 T02390162

2010/08/08 05:49
KAGS 080549Z AUTO 00000KT 6SM BR CLR 24/23 A2993 RMK AO2

2010/08/08 05:49
KLBT 080549Z AUTO 00000KT 6SM BR BKN015 24/23 A2995 RMK AO2 $

2010/08/08 05:49
KPWM 080549Z AUTO 00000KT 3SM BR CLR 13/12 A3000 RMK AO2 $

2010/08/08 05:50
KFHR 080550Z AUTO 21003KT 2 1/2SM BR BKN001 OVC005 14/14 A2990 RMK AO2

2010/08/08 05:50
KIMT 080550Z AUTO 19008KT 6SM TSRA BR OVC020 21/19 A2974 RMK AO2 LTG DSNT SE-SW TSB0459E14B44 P0010 402720083

2010/08/08 05:50
KPAE 080550Z AUTO 20005KT 3SM BR BKN008 OVC016 16/15 A2991 RMK AO2 CIG 004V010

2010/08/08 05:45
KGSB 080545Z AUTO 00000KT 6SM R08/5000V5500FT BR BKN025 23/23 A2996 RMK AO2 BKN V SCT SLP143

2010/08/08 05:45
KNPA 080545Z AUTO 23003KT 10SM TS BKN100 26/24 A2990 RMK AO2 TSE0457B05E32B39

2010/08/08 05:45
KRDR 080545Z AUTO 00000KT 5SM R17/3500VP6000FT BR CLR 20/20 A2965 RMK AO2 SLP053 $

2010/08/08 05:47
KSLI 080547Z AUTO 17003KT 10SM BKN020 15/14 A2991 RMK AO2 SLP131

2010/08/08 05:48
KSSC 080548Z 00000KT 8SM R22/5500FT CLR 25/23 A2993 RMK AO2A SLP133 $

2010/08/08 05:47
KBBD 080547Z AUTO 15007KT 10SM CLR 28/18 A2994 RMK AO2 51016 T02830183

2010/08/08 05:45
KMDD 080545Z AUTO 17007KT 7SM CLR 29/14 A2996 RMK AO2 T02910140 10367 20291

2010/08/08 05:50
KMNZ 080550Z AUTO 18006KT 10SM CLR 28/20 A2992 RMK AO2 T02780200

2010/08/08 05:45
KMWA 080545Z AUTO 12004KT 7SM CLR 24/17 A2997 RMK AO2 T02350173 10310 20223 403280179

2010/08/08 05:45
KPEQ 080545Z AUTO 13008KT 10SM CLR 30/16 A2991 RMK AO2 T02950160 10395 20295 404010206

2010/08/08 05:45
KPEZ 080545Z AUTO 14007KT 10SM CLR 27/23 A2993 RMK AO2 T02740231 10351 20274 403730236

2010/08/08 05:48
KPKV 080548Z AUTO 17004KT 10SM CLR 26/24 A2991 RMK AO2 T02600235

2010/08/08 05:45
KRAS 080545Z AUTO 17011G15KT 10SM CLR 29/26 A2993 RMK AO2

2010/08/08 05:45
KRBO 080545Z AUTO 16006KT 10SM CLR 28/25 A2991 RMK AO2 T02750252 10331 20275 403680252

2010/08/08 05:45
KRPH 080545Z AUTO 14004KT 10SM CLR 29/20 A2985 RMK AO2 T02860198 10358 20280 403750221

2010/08/08 05:45
KRYW 080545Z AUTO 16005KT M1/4SM HZ VV000 28/22 A2994 RMK AO2

2010/08/08 05:45
KSAR 080545Z AUTO 12004KT 5SM BR CLR 22/19 A2995 RMK AO2

2010/08/08 05:46
KSLO 080546Z AUTO 13004KT 7SM CLR 22/17 A2996 RMK AO2 T02150170 10276 20215

2010/08/08 05:46
KSNK 080546Z AUTO 15009KT 10SM CLR 28/16 A2995 RMK AO2 T02810159 10362 20281 403760222

2010/08/08 05:45
KSWW 080545Z AUTO 15009KT 10SM CLR 29/18 A2996 RMK AO1 T02860175 10336 20286 403820243

2010/08/08 05:45
KT65 080545Z AUTO 18010KT 7SM CLR 28/25 A2990 RMK AO2 T02800248 10328 20280 403520263

2010/08/08 05:45
KT82 080545Z AUTO 18006KT 10SM CLR 27/20 A2998 RMK AO1 T02670200 10334 20259

2010/08/08 05:45
KTAZ 080545Z AUTO 15005KT 7SM CLR 21/18 A2994 RMK AO2

2010/08/08 05:45
KTIP 080545Z AUTO 18004KT 7SM CLR 20/18 A2997 RMK AO2 T01950184 10273 20195

2010/08/08 05:45
KUVA 080545Z AUTO 13009KT 10SM CLR 30/24 A2991 RMK AO2 T02970241 10366 20297 403790232

2010/08/08 05:55
KGGE 080555Z AUTO 00000KT 7SM CLR 23/23 A2993 RMK AO2

2010/08/08 05:51
EKVG 080551Z 15007KT 9999 FEW012 SCT028 BKN085 10/08 Q1016 RMK/RWY 13-31 CLOSED DUE WIP NOTAM E0050/10 WIND 850FT 12012KT

2010/08/08 05:45
LMML 080545Z 31004KT 280V340 9999 FEW012 21/20 Q1016 NOSIG

2010/08/08 05:51
KSAN 080551Z 22004KT 10SM OVC018 17/12 A2994 RMK AO2 SLP137 T01720122 10194 20167 51015 $ 

2010/08/08 05:49
KPWM 080549Z AUTO 00000KT 3SM BR CLR 13/12 A3000

2010/08/08 05:49
KAGS 080549Z AUTO 00000KT 6SM BR CLR 24/23 A2993

2010/08/08 05:49
KAGS 080549Z AUTO 00000KT 6SM BR CLR 24/23 A2993

2010/08/08 05:49
KPWM 080549Z AUTO 00000KT 3SM BR CLR 13/12 A3000

2010/08/08 05:50
PAWI 080550Z 05015KT 10SM BKN042 OVC055 08/06 A2976 RMK VIA PHONE

2010/08/08 05:50
HLLB 080550Z 36007KT 9999 SCT015 24/19 Q1014 

2010/08/08 05:50
HLLB 080550Z 36007KT 9999 SCT015 24/19 Q1014 

2010/08/08 05:50
HLLB 080550Z 36007KT 9999 SCT015 24/19 Q1014 

2010/08/08 05:50
HLLB 080550Z 36007KT 9999 SCT015 24/19 Q1014 

2010/08/08 05:45
LMML 080545Z 31004KT 280V340 9999 FEW012 21/20 Q1016 NOSIG 

2010/08/08 06:00
BKPR 080600Z 36006KT 8000 FEW015 SCT030 20/15 Q1018 NOSIG RMK BLU

2010/08/08 05:50
EYVI 080550Z 11006KT CAVOK 23/17 Q1013 NOSIG

2010/08/08 05:50
EYSA 080550Z 16006KT CAVOK 22/19 Q1012

2010/08/08 05:50
LLBG 080550Z 33003KT 9999 SCT023 29/23 Q1009 NOSIG

2010/08/08 05:50
LLOV 080550Z 29004KT CAVOK 28/19 Q1011

2010/08/08 05:50
LLET 080550Z 02014KT CAVOK 33/19 Q1007

2010/08/08 05:50
LLHA 080550Z 32005KT 9999 SCT025 29/22 Q1010

2010/08/08 05:50
LLIB 080550Z 14003KT 6000 SKC 28/19 Q1011

2010/08/08 05:50
LLSD 080550Z 30004KT 9999 SCT020 29/23 Q1009

2010/08/08 05:51
CWZZ 080551Z AUTO ///// 9SM OVC009 OVC054 OVC080 08/ A2928

2010/08/08 05:51
KP59 080551Z AUTO 24004KT 18/13 A2975 RMK AO2 SLP068 T01780133 10222 20178 55003 PWINO TSNO $ 

2010/08/08 05:51
KCON 080551Z AUTO 00000KT 10SM CLR 10/09 A3003 RMK AO2 SLP167 T01000089 10217 20094 52006 

2010/08/08 05:51
KVCT 080551Z AUTO 18005KT 10SM CLR 27/26 A2991 RMK AO2 SLP127 6//// T02720256 10322 20267 403500244 51010 PNO $ 

2010/08/08 06:00
FAJS 080600Z 32012KT 8000 NSC 10/04 Q1028 NOSIG

2010/08/08 05:51
KBAZ 080551Z AUTO 18008KT 10SM CLR 27/23 A2992 RMK AO2 SLP120 T02720228 10350 20272 403720239 51016

2010/08/08 05:47
KGVT 080547Z AUTO 17005KT 10SM CLR 30/21 A2988 RMK AO2

2010/08/08 05:51
KHDO 080551Z AUTO 15011KT 10SM CLR 28/23 A2994 RMK AO2 SLP119 T02830233 10356 20283 403780233 51014

2010/08/08 05:45
KTYQ 080545Z AUTO 00000KT 1/4SM FG VV002 17/16 A2999 RMK AO2

2010/08/08 05:46
KXBP 080546Z AUTO 17007KT 10SM CLR 29/20 A2987 RMK AO2 T02920199 10366 20290 403750232

2010/08/08 05:50
PAWI 080550Z 05015KT 10SM BKN042 OVC055 08/06 A2976 RMK VIA PHONE

2010/08/08 05:47
K1F0 080547Z AUTO 00000KT 10SM CLR 28/23 A2984 RMK AO2

2010/08/08 05:51
KACT 080551Z 19012KT 10SM CLR 30/22 A2988 RMK AO2 SLP110 T03000217 10367 20300 403890267 51014

2010/08/08 05:51
KAHN 080551Z AUTO 00000KT 5SM BR CLR 24/22 A2997 RMK AO2 SLP140 T02440222 10283 20233 58001

2010/08/08 05:51
KALB 080551Z 00000KT 10SM SCT180 14/11 A3002 RMK AO2 SLP164 T01440111 10228 20139 51003

2010/08/08 05:51
KASH 080551Z 30003KT 10SM CLR 13/09 A3003 RMK AO2 51007 T01270094 10227 20127 SLP171

2010/08/08 05:51
KAVX 080551Z AUTO VRB04KT 1 1/4SM BR OVC001 12/12 A2993 RMK AO2 SLPNO T01170117 10167 20111 51014 TSNO

2010/08/08 05:51
KBDL 080551Z 00000KT 10SM CLR 16/12 A3001 RMK AO2 SLP160 T01560122 10250 20150 51004 $

2010/08/08 05:51
KBGD 080551Z AUTO 17014G22KT 10SM CLR 28/18 A2992 RMK AO2 SLP078 T02830178 10356 20283 403720222 50004

2010/08/08 05:51
KBKW 080551Z AUTO 00000KT 8SM CLR 18/14 A3008 RMK AO2 SLP154 T01780139 10228 20172 58004

2010/08/08 05:51
KCAK 080551Z 16005KT 10SM CLR 18/14 A3002 RMK AO2 SLP157 T01830144 10239 20183 58001

2010/08/08 05:51
KCLE 080551Z 18006KT 10SM SCT250 20/15 A3001 RMK AO2 SLP155 8/001 T02000150 10250 20189 55000

2010/08/08 05:51
KCMH 080551Z 00000KT 10SM CLR 20/16 A3000 RMK AO2 SLP152 T02000156 10267 20189 50001

2010/08/08 05:51
KCSG 080551Z AUTO 21003KT 10SM CLR 26/22 A2994 RMK AO2 SLP131 T02610222 10344 20261 56004

2010/08/08 05:51
KDAW 080551Z AUTO 00000KT 10SM CLR 11/09 A3001 RMK AO2 SLP160 T01110089 10200 20111 53004

2010/08/08 05:50
KDUA 080550Z AUTO 17004KT 10SM SCT070 28/23 A2987 RMK AO2 LTG DSNT NE AND E

2010/08/08 05:52
KDUC 080552Z AUTO 17004KT 10SM CLR 29/22 A2985 RMK AO2

2010/08/08 05:51
KEKN 080551Z AUTO 00000KT 5SM BR BKN055 OVC070 16/15 A3010 RMK AO2 SLP184 T01560150 10222 20144 53001 TSNO

2010/08/08 05:51
KELP 080551Z 21009KT 10SM FEW100 SCT220 BKN300 28/12 A3002 RMK AO2 SLP082 T02830122 10367 20278 51024

2010/08/08 05:51
KERI 080551Z 17008KT 10SM CLR 21/12 A2998 RMK AO2 SLP147 T02060117 10222 20189 58002

2010/08/08 05:51
KEWR 080551Z 19007KT 10SM CLR 23/19 A3000 RMK AO2 SLP159 T02280189 10261 20222 51006 $

2010/08/08 05:51
KHTS 080551Z 00000KT 8SM CLR 18/17 A3000 RMK AO2 SLP150 T01780167 10261 20178 58001

2010/08/08 05:51
KILG 080551Z 18004KT 10SM CLR 23/21 A3001 RMK AO2 SLP161 T02280206 10261 20228 51004

2010/08/08 05:48
KIZA 080548Z AUTO 00000KT 10SM CLR 12/10 A2990 RMK AO2

2010/08/08 05:51
KJFK 080551Z 22008KT 10SM SCT200 23/20 A3002 RMK AO2 SLP164 T02280200 10250 20228 51005

2010/08/08 05:49
KL35 080549Z AUTO 00000KT 10SM CLR 10/M05 A3012 RMK AO2

2010/08/08 05:51
KLGA 080551Z 20010KT 10SM CLR 24/19 A3000 RMK AO2 SLP157 T02440189 10261 20244 51005

2010/08/08 05:51
KLGU 080551Z AUTO 00000KT 10SM CLR 17/08 A2995 RMK AO2 SLP085 T01720083 10300 20172 51021

2010/08/08 05:50
KLRU 080550Z AUTO 25011G17KT 10SM CLR 26/12 A3007 RMK AO2

2010/08/08 05:51
KMDW 080551Z 21007KT 9SM CLR 24/17 A2990 RMK AO2 SLP114 T02390167 10272 20239 402890189 56002 $

2010/08/08 05:51
KMPV 080551Z AUTO 00000KT 10SM CLR 09/08 A3005 RMK AO2 SLP176 T00940078 10150 20083 53000

2010/08/08 05:51
KMYL 080551Z AUTO 00000KT 10SM CLR 14/06 A2993 RMK AO2 SLP093 T01440061 10256 20133 51010

2010/08/08 05:50
KONM 080550Z AUTO 02012KT 10SM CLR 24/13 A3007 RMK AO2 T02380132 10350 20238

2010/08/08 05:51
CYHE 080551Z AUTO 27007KT 250V320 9SM -DZ FEW020 BKN032 OVC042 17/16 A2988

2010/08/08 05:50
KONP 080550Z AUTO 00000KT 1 1/4SM BR OVC001 14/14 A2998 RMK AO1

2010/08/08 05:51
KORD 080551Z 21008KT 10SM CLR 24/18 A2990 RMK AO2 SLP118 T02390183 10272 20228 402830167 56002

2010/08/08 05:51
KOXR 080551Z AUTO 24003KT 10SM OVC008 16/13 A2990 RMK AO2 SLP123 T01560128 10189 20156 51014

2010/08/08 05:51
KPHX 080551Z 00000KT 10SM BKN150 29/21 A2981 RMK AO2 SLP076 OCNL LTGIC DSNT NE CB DSNT NE 60005 T02890206 10356 20272 51019 $

2010/08/08 05:51
KPIT 080551Z 00000KT 10SM FEW250 17/13 A3003 RMK AO2 SLP169 T01670128 10250 20161 50001

2010/08/08 05:51
KPVD 080551Z 00000KT 10SM CLR 18/16 A3004 RMK AO2 SLP170 T01780161 10228 20172 51005

2010/08/08 05:51
KPWM 080551Z AUTO 00000KT 3SM BR CLR 13/12 A3000 RMK AO2 SLP160 T01280122 10183 20122 51001 $

2010/08/08 05:51
KRDU 080551Z 00000KT 8SM FEW075 23/19 A2999 RMK AO2 SLP149 T02330194 10283 20233 58001

2010/08/08 05:51
KROW 080551Z AUTO 00000KT 10SM CLR 24/14 A2996 RMK AO2 SLP073 T02440139 10344 20239 51016 TSNO

2010/08/08 05:51
KSJT 080551Z AUTO 17006KT 10SM CLR 31/16 A2992 RMK AO2 SLP100 T03060161 10383 20306 404000250 51018

2010/08/08 05:51
KSLK 080551Z AUTO 00000KT 10SM CLR 07/06 A2999 RMK AO2 SLP157 T00670056 10161 20061 57000

2010/08/08 05:51
KSMO 080551Z AUTO VRB03KT 10SM OVC012 16/12 A2991 RMK AO2 SLP127 T01610122 10189 20161 53012

2010/08/08 05:51
KSTL 080551Z 15009KT 7SM CLR 26/17 A2994 RMK AO2 SLP124 T02610167 10300 20250 403220206 51004

2010/08/08 05:51
KTEB 080551Z 18006KT 10SM CLR 23/18 A2999 RMK AO2 SLP154 T02280178 10256 20211 51005

2010/08/08 05:51
KVNY 080551Z 09006KT 10SM CLR 16/12 A2990 RMK AO2 SLP117 T01610122 10267 20161 51019

2010/08/08 05:51
KYNG 080551Z 15006KT 10SM BKN150 19/12 A3002 RMK AO2 SLP158 8/070 T01890117 10217 20156 58001

2010/08/08 05:50
KVLD 080550Z AUTO 00000KT 1 3/4SM BR FEW002 24/24 A2993 RMK AO2

2010/08/08 05:50
PAGH 080550Z AUTO 10003KT 10SM FEW009 BKN022 OVC029 13/13 A2961 RMK AO2 RAE14 P0000

2010/08/08 05:51
KASX 080551Z AUTO 24006KT 7SM VCTS -RA FEW001 BKN021 19/19 A2974 RMK AO2 LTG DSNT N AND NW TSE16B17E32B45 P0011 402670100

2010/08/08 05:51
KBFI 080551Z 22006KT 10SM BKN011 BKN020 OVC095 17/14 A2991 RMK AO2

2010/08/08 05:48
KSSC 080548Z 00000KT 8SM R22/5500FT CLR 25/23 A2993 RMK AO2A SLP133 $

2010/08/08 05:51
KWVI 080551Z AUTO 19004KT 10SM OVC005 13/11 A2990 RMK AO2 CIG 005V009 $

2010/08/08 05:50
LSZH 080550Z 24002KT 9999 -SHRA FEW040 BKN090 15/13 Q1019 NOSIG

2010/08/08 05:50
LSGG 080550Z VRB02KT 9999 FEW060 SCT120 15/13 Q1019 NOSIG

2010/08/08 05:50
LSZB 080550Z 11005KT 9999 FEW060 SCT120 15/14 Q1019 NOSIG

2010/08/08 05:50
LSZA 080550Z 01003KT CAVOK 15/15 Q1018 NOSIG

2010/08/08 05:50
LSMS 080550Z VRB01KT 9999 -SHRA BKN110 15/10 Q1020

2010/08/08 06:00
SBAR 080600Z 25003KT CAVOK 20/19 Q1017

2010/08/08 05:50
FHAW 080550Z 15015KT 9999 FEW020 SCT040 24/19 Q1016 BLU

2010/08/08 06:00
SBSJ 080600Z 00000KT 8000 SCT0006 10/10 Q1020

2010/08/08 06:00
GLRB 080600Z 26003KT 9999 BKN014 25/24 Q1014 NOSIG

2010/08/08 05:51
KSMX 080551Z AUTO 00000KT 10SM OVC006 12/11 A2991 RMK AO2 SLP131 T01220106 10178 20122 51010 TSNO 

2010/08/08 05:51
KSNT 080551Z AUTO 20003KT 10/02 A3004 RMK AO2 SLP079 T01000022 10233 20083 51012 PWINO TSNO 

2010/08/08 05:50
KPAE 080550Z AUTO 20005KT 3SM BR BKN008 OVC016 16/15 A2991

2010/08/08 05:51
KDAG 080551Z AUTO 26015KT 10SM CLR 27/M01 A2982 RMK AO2 SLP069 T02671011 10372 20267 51023 TSNO 

2010/08/08 05:51
KORF 080551Z 10003KT 7SM BKN009 25/23 A2999 RMK AO2 SLP156 T02500233 10256 20239 52002 $ 

2010/08/08 05:51
KCRP 080551Z 17007KT 10SM FEW018 27/25 A2991 RMK AO2 SLP126 T02720250 10317 20267 403500244 50009 

2010/08/08 05:51
KBVE 080551Z AUTO 26005KT 10SM SCT032 BKN039 BKN047 30/25 A2993 RMK AO2 SLP135 T03000250 10317 20300 403330250 58000 TSNO 

2010/08/08 05:51
KATT 080551Z AUTO 18007KT 10SM CLR 28/22 A2992 RMK AO2 SLP116 T02830222 10350 20283 403670250 51014 

2010/08/08 05:51
KABE 080551Z 00000KT 10SM SCT080 SCT090 17/16 A3001 RMK AO2 SLP159 T01720156 10256 20172 51004 

2010/08/08 06:00
OKBK 080600Z 36006KT 6000 SKC 40/07 Q0999 NOSIG

2010/08/08 05:51
KNTU 080551Z 00000KT 10SM BKN010 BKN060 24/23 A2999 RMK AO2 $ 

2010/08/08 05:50
KPAE 080550Z AUTO 20005KT 3SM BR BKN008 OVC016 16/15 A2991

2010/08/08 06:00
GLRB 080600Z 26003KT 9999 BKN014 25/24 Q1014 NOSIG

2010/08/08 05:50
LSZH 080550Z 24002KT 9999 -SHRA FEW040 BKN090 15/13 Q1019 NOSIG

2010/08/08 05:50
LSGG 080550Z VRB02KT 9999 FEW060 SCT120 15/13 Q1019 NOSIG

2010/08/08 05:50
LSZB 080550Z 11005KT 9999 FEW060 SCT120 15/14 Q1019 NOSIG

2010/08/08 05:50
LSZA 080550Z 01003KT CAVOK 15/15 Q1018 NOSIG

2010/08/08 05:50
LSMS 080550Z VRB01KT 9999 -SHRA BKN110 15/10 Q1020

2010/08/08 05:51
KHSE 080551Z AUTO 07004KT 10SM CLR 24/24 A2996 RMK AO2 SLP145 T02440244 10261 20244 58001 TSNO 

2010/08/08 05:51
KJCT 080551Z AUTO 17007KT 10SM CLR 29/19 A2994 RMK AO2 SLP095 T02890189 10350 20289 403720244 51012 TSNO 

2010/08/08 05:55
KQFS 080555Z AUTO VRB05KT 9999 BKN045 34/19 A2982 RMK AO2 SLP094 T03380189 10324 20243 57013 PWINO PNO $

2010/08/08 05:55
KQW3 080555Z AUTO VRB05KT 9999 BKN060 26/21 A2984 RMK AO2 SLP050

2010/08/08 05:50
EDDF 080550Z 19005KT 9999 VCSH FEW025 FEW040TCU SCT050 BKN090 17/14 Q1016 NOSIG

2010/08/08 05:50
EDDH 080550Z 23001KT 9999 BKN045 BKN120 18/16 Q1014 NOSIG

2010/08/08 05:50
EDDK 080550Z 23003KT 6000 SHRA FEW004 SCT015CB BKN020 17/16 Q1014 TEMPO 3000 +SHRA BKN010CB

2010/08/08 05:50
EDDL 080550Z 24005KT 3000 VCTS SHRA BR FEW005 SCT010 BKN020CB 17/16 Q1014 BECMG 5000 NSW

2010/08/08 05:50
EDDM 080550Z 21005KT CAVOK 13/12 Q1018 NOSIG

2010/08/08 05:50
EDDN 080550Z VRB02KT CAVOK 13/12 Q1017 NOSIG

2010/08/08 05:50
EDDS 080550Z 28005KT 9999 -SHRA FEW040CB BKN060 15/12 Q1018 TEMPO 4000 SHRA

2010/08/08 05:50
EDDT 080550Z 28003KT CAVOK 17/14 Q1014 NOSIG

2010/08/08 05:50
EDDV 080550Z 36002KT 9999 FEW035 BKN060 17/15 Q1014 NOSIG

2010/08/08 05:50
EDDB 080550Z 27003KT CAVOK 17/15 Q1014 NOSIG

2010/08/08 05:50
EDDC 080550Z 20005KT CAVOK 16/15 Q1015 NOSIG

2010/08/08 05:50
EDDE 080550Z 18004KT CAVOK 15/12 Q1016 NOSIG

2010/08/08 05:50
EDDG 080550Z 30001KT 2200 1200E R25/1300U BCFG BR FEW030 SCT100 15/15 Q1014 NOSIG

2010/08/08 05:50
EDDP 080550Z 23006KT CAVOK 17/13 Q1014 NOSIG

2010/08/08 05:50
EDDR 080550Z 27008KT 9999 FEW020 SCT060 17/14 Q1016 NOSIG

2010/08/08 05:50
EDDW 080550Z 25002KT 9999 FEW038 BKN046 18/17 Q1014 NOSIG

2010/08/08 05:53
GCLP 080553Z 36013KT 9999 FEW020 23/08 Q1010 NOSIG

2010/08/08 06:00
MGGT 080600Z 36006KT 9999 BKN012 18/17 Q1025 A3027 VOL/PACAYA EN ACTIVIDAD

2010/08/08 06:00
MGSJ 080600Z 00000KT CAVOK 25/24 Q1013 A2991 BKN090

2010/08/08 05:47
MMMX 080547Z 00000KT 6SM SCT020 BKN080 BKN200 16/15 A3033 NOSIG RMK SLP084 52009 900 8/463 HZY LWR SC

2010/08/08 05:50
MSSS 080550Z 00000KT 9999 SCT027 FEW040CB 23/22 Q1016 A3003 CB LTGIC TO N/E

2010/08/08 05:50
NSTU 080550Z 09018KT 10SM SCT018 BKN040 27/25 A2993 RMK SLP137 60001 8/800 T02680246 10283 20261 51008

2010/08/08 05:45
KGSB 080545Z AUTO 00000KT 6SM R08/5000V5500FT BR BKN025 23/23 A2996 RMK AO2 BKN V SCT SLP143

2010/08/08 05:51
KLSF 080551Z AUTO 00000KT 8SM R33/5500FT CLR 24/23 A2993 RMK AO2 SLP134 PNO $

2010/08/08 05:46
KNGP 080546Z AUTO 21009G37KT 160V250 10SM FEW019 28/26 A2990 RMK AO2 VISNO $

2010/08/08 05:45
KNPA 080545Z AUTO 23003KT 10SM TS BKN100 26/24 A2990 RMK AO2 TSE0457B05E32B39

2010/08/08 05:48
KSSC 080548Z 00000KT 8SM R22/5500FT CLR 25/23 A2993 RMK AO2A SLP133 $

2010/08/08 05:52
CYAM 080552Z 03004KT 15SM BKN018 OVC050 RMK CU6SC2 CIG RAG

2010/08/08 05:51
KNYC 080551Z VRB06G14KT 10SM CLR 23/18 A3003 RMK AO2 SLP158 T02330178 10250 20228 51004 

2010/08/08 05:50
EDDB 080550Z 27003KT CAVOK 17/15 Q1014 NOSIG

2010/08/08 05:50
EDDC 080550Z 20005KT CAVOK 16/15 Q1015 NOSIG

2010/08/08 05:50
EDDE 080550Z 18004KT CAVOK 15/12 Q1016 NOSIG

2010/08/08 05:50
EDDF 080550Z 19005KT 9999 VCSH FEW025 FEW040TCU SCT050 BKN090 17/14 Q1016 NOSIG

2010/08/08 05:50
EDDG 080550Z 30001KT 2200 1200E R25/1300U BCFG BR FEW030 SCT100 15/15 Q1014 NOSIG

2010/08/08 05:50
EDDH 080550Z 23001KT 9999 BKN045 BKN120 18/16 Q1014 NOSIG

2010/08/08 05:50
EDDK 080550Z 23003KT 6000 SHRA FEW004 SCT015CB BKN020 17/16 Q1014 TEMPO 3000 +SHRA BKN010CB

2010/08/08 05:50
EDDL 080550Z 24005KT 3000 VCTS SHRA BR FEW005 SCT010 BKN020CB 17/16 Q1014 BECMG 5000 NSW

2010/08/08 05:50
EDDM 080550Z 21005KT CAVOK 13/12 Q1018 NOSIG

2010/08/08 05:50
EDDN 080550Z VRB02KT CAVOK 13/12 Q1017 NOSIG

2010/08/08 05:50
EDDP 080550Z 23006KT CAVOK 17/13 Q1014 NOSIG

2010/08/08 05:50
EDDR 080550Z 27008KT 9999 FEW020 SCT060 17/14 Q1016 NOSIG

2010/08/08 05:50
EDDS 080550Z 28005KT 9999 -SHRA FEW040CB BKN060 15/12 Q1018 TEMPO 4000 SHRA

2010/08/08 05:50
EDDT 080550Z 28003KT CAVOK 17/14 Q1014 NOSIG

2010/08/08 05:50
EDDV 080550Z 36002KT 9999 FEW035 BKN060 17/15 Q1014 NOSIG

2010/08/08 05:50
EDDW 080550Z 25002KT 9999 FEW038 BKN046 18/17 Q1014 NOSIG

2010/08/08 05:50
EKVG 080550Z AUTO 15007KT 9999NDV SCT012/// SCT028/// BKN084/// BKN120/// 10/08 Q1016 RMK SCT010/// BKN027/// BKN084/// BKN160/// WIND 850FT 12012KT

2010/08/08 05:51
EKVG 080551Z 15007KT 9999 FEW012 SCT028 BKN085 10/08 Q1016 RMK/RWY 13-31 CLOSED DUE WIP NOTAM E0050/10 WIND 850FT 12012KT

2010/08/08 05:50
LSGG 080550Z VRB02KT 9999 FEW060 SCT120 15/13 Q1019 NOSIG

2010/08/08 05:50
LSZA 080550Z 01003KT CAVOK 15/15 Q1018 NOSIG

2010/08/08 05:50
LSZB 080550Z 11005KT 9999 FEW060 SCT120 15/14 Q1019 NOSIG

2010/08/08 05:50
LSZH 080550Z 24002KT 9999 -SHRA FEW040 BKN090 15/13 Q1019 NOSIG

2010/08/08 05:50
EDDB 080550Z 27003KT CAVOK 17/15 Q1014 NOSIG

2010/08/08 05:50
EDDE 080550Z 18004KT CAVOK 15/12 Q1016 NOSIG

2010/08/08 05:50
EDDF 080550Z 19005KT 9999 VCSH FEW025 FEW040TCU SCT050 BKN090 17/14 Q1016 NOSIG

2010/08/08 05:50
EDDH 080550Z 23001KT 9999 BKN045 BKN120 18/16 Q1014 NOSIG

2010/08/08 05:50
EDDK 080550Z 23003KT 6000 SHRA FEW004 SCT015CB BKN020 17/16 Q1014 TEMPO 3000 +SHRA BKN010CB

2010/08/08 05:50
EDDL 080550Z 24005KT 3000 VCTS SHRA BR FEW005 SCT010 BKN020CB 17/16 Q1014 BECMG 5000 NSW

2010/08/08 05:50
EDDM 080550Z 21005KT CAVOK 13/12 Q1018 NOSIG

2010/08/08 05:50
EDDN 080550Z VRB02KT CAVOK 13/12 Q1017 NOSIG

2010/08/08 05:50
EDDP 080550Z 23006KT CAVOK 17/13 Q1014 NOSIG

2010/08/08 05:50
EDDR 080550Z 27008KT 9999 FEW020 SCT060 17/14 Q1016 NOSIG

2010/08/08 05:50
EDDS 080550Z 28005KT 9999 -SHRA FEW040CB BKN060 15/12 Q1018 TEMPO 4000 SHRA

2010/08/08 05:50
EDDT 080550Z 28003KT CAVOK 17/14 Q1014 NOSIG

2010/08/08 05:50
EDDV 080550Z 36002KT 9999 FEW035 BKN060 17/15 Q1014 NOSIG

2010/08/08 05:50
EDDW 080550Z 25002KT 9999 FEW038 BKN046 18/17 Q1014 NOSIG

2010/08/08 05:50
EKVG 080550Z AUTO 15007KT 9999NDV SCT012/// SCT028/// BKN084/// BKN120/// 10/08 Q1016 RMK SCT010/// BKN027/// BKN084/// BKN160/// WIND 850FT 12012KT

2010/08/08 05:51
EKVG 080551Z 15007KT 9999 FEW012 SCT028 BKN085 10/08 Q1016 RMK/RWY 13-31 CLOSED DUE WIP NOTAM E0050/10 WIND 850FT 12012KT

2010/08/08 05:45
LMML 080545Z 31004KT 280V340 9999 FEW012 21/20 Q1016 NOSIG

2010/08/08 06:00
LPLA 080600Z 04005KT 9999 FEW020 SCT040 20/18 Q1024

2010/08/08 05:50
LSGG 080550Z VRB02KT 9999 FEW060 SCT120 15/13 Q1019 NOSIG

2010/08/08 05:50
LSZA 080550Z 01003KT CAVOK 15/15 Q1018 NOSIG

2010/08/08 05:50
LSZB 080550Z 11005KT 9999 FEW060 SCT120 15/14 Q1019 NOSIG

2010/08/08 05:50
LSZH 080550Z 24002KT 9999 -SHRA FEW040 BKN090 15/13 Q1019 NOSIG

2010/08/08 05:52
KN60 080552Z AUTO 00000KT 20/18 A2969 RMK AO1 SLP042 T02000178 10294 20183 402940167 53004 

2010/08/08 05:52
KCZZ 080552Z AUTO 03003KT 11/07 A2992 RMK AO2 SLP101 T01060072 10261 20106 51014 PWINO TSNO 

2010/08/08 05:52
KREO 080552Z AUTO 07007KT 21/01 A2986 RMK AO2 SLP068 T02060011 10322 20194 51013 PWINO TSNO 

2010/08/08 05:52
CYNM 080552Z AUTO 16004KT 9SM BKN002 10/09 A2969

2010/08/08 05:52
KBLU 080552Z AUTO 00000KT 10SM CLR 17/05 A3004 RMK AO2 SLP084 T01670050 10228 20167 53001 TSNO 

2010/08/08 05:50
KU24 080550Z 13008KT 30SM SCT110 OVC250 16/12 RMK SLP105 NOSPECI 60004 T01630124 10233 20155 50014 

2010/08/08 05:53
KSAT 080553Z 15010KT 10SM FEW250 28/23 A2994 RMK AO2 SLP118 T02780228 10344 20278 403560256 51017

2010/08/08 05:52
KSGF 080552Z 15009KT 10SM CLR 26/21 A2992 RMK AO2 SLP116 T02560206 10306 20250 403170206 50004

2010/08/08 05:53
KSNL 080553Z AUTO 14007KT 10SM CLR 28/23 A2987 RMK AO2

2010/08/08 05:55
KSOP 080555Z AUTO 00000KT 7SM CLR 23/22 A2997 RMK AO1 10280 20230 57003

2010/08/08 05:52
KSPI 080552Z AUTO 17007KT 10SM CLR 23/18 A2994 RMK AO2 SLP133 60001 T02280178 10278 20222 403000167 53004

2010/08/08 05:52
KSPS 080552Z AUTO 19008KT 10SM CLR 29/21 A2984 RMK AO2 SLP086 P0004 60023 T02940206 10356 20278 403890222 50006

2010/08/08 05:50
KSRE 080550Z AUTO 14006KT 10SM CLR 27/23 A2987 RMK AO2 LTG DSNT SE

2010/08/08 05:53
KSSF 080553Z AUTO 15004KT 10SM CLR 28/23 A2992 RMK AO2 SLP117 T02780233 10361 20278 403780250 51015

2010/08/08 05:52
KSUX 080552Z 18009KT 10SM CLR 26/22 A2975 RMK AO2 SLP063 T02560217 10306 20256 403170200 51005

2010/08/08 05:45
KSVC 080545Z AUTO 35006KT 10SM CLR 20/14 A3016 RMK AO2

2010/08/08 05:48
K4O4 080548Z AUTO 16004KT 7SM SCT090 BKN110 27/23 A2989 RMK AO2 LTG DSNT E AND NW

2010/08/08 05:51
KADH 080551Z AUTO 13006KT 10SM CLR 26/21 A2987 RMK AO2

2010/08/08 05:50
KADM 080550Z AUTO 00000KT 10SM CLR 27/23 A2985 RMK AO2

2010/08/08 05:53
KAEX 080553Z 00000KT 10SM CLR 27/24 A2990 RMK AO2 SLP125 T02670244 10328 20261 403670239 51007

2010/08/08 05:50
KAFK 080550Z AUTO 18010KT 10SM CLR 25/23 A2981 RMK AO2 T02500225 10305 20249 403210206

2010/08/08 05:52
KAFN 080552Z AUTO 00000KT 10SM CLR 11/09 A3005 RMK AO2 SLP179 T01060094 10183 20100 51005

2010/08/08 05:53
KALI 080553Z AUTO 17008KT 10SM CLR 27/24 A2990 RMK AO2 SLP122 T02670244 10322 20267 403610233 50010

2010/08/08 05:45
KALM 080545Z AUTO 18005KT 10SM SCT100 25/12 A3001 RMK AO2

2010/08/08 05:52
KALS 080552Z AUTO 08007KT 10SM OVC095 15/11 A3024 RMK AO2 SLP135 60000 T01500111 10272 20144 51021 $

2010/08/08 05:50
KANW 080550Z AUTO 00000KT 10SM CLR 22/17 A2981 RMK AO2 T02170165 10340 20217 403540194

2010/08/08 05:52
KAQW 080552Z AUTO 00000KT 9SM CLR 10/09 A3004 RMK AO2 SLP174 T01000094 10178 20100 51005

2010/08/08 05:53
KARA 080553Z AUTO 00000KT 10SM CLR 27/25 A2993 RMK AO2 SLP135 T02670250 10322 20267 403440250 50003 $

2010/08/08 05:53
KASD 080553Z AUTO 00000KT 10SM CLR 29/26 A2991 RMK AO2 SLP127 T02940256 10322 20289 403500250 50003

2010/08/08 05:50
KATS 080550Z AUTO 21005KT 10SM CLR 25/15 A2998 RMK AO2

2010/08/08 05:50
KAUH 080550Z AUTO 17010KT 10SM CLR 26/20 A2980 RMK AO2 T02580201 10320 20258 403310210

2010/08/08 05:50
KAUN 080550Z AUTO 14005KT 10SM CLR 23/11 A2982 RMK AO1

2010/08/08 05:53
KAUS 080553Z 18008KT 10SM FEW120 28/23 A2991 RMK AO2 SLP115 T02780228 10350 20278 403670250 51014

2010/08/08 05:50
KAXS 080550Z AUTO 16005KT 10SM CLR 28/21 A2986 RMK AO2 T02820205 10366 20279 403740235

2010/08/08 05:50
KAXX 080550Z AUTO 00000KT 10SM CLR 10/10 A3033 RMK AO2

2010/08/08 05:52
KBDR 080552Z 20010KT 10SM CLR 23/21 A3000 RMK AO2 SLP160 T02330206 10256 20233 51004

2010/08/08 05:53
KBFM 080553Z AUTO 00000KT 10SM BKN100 27/24 A2992 RMK AO2 SLP131 T02670239 10283 20256 403440250 50000 TSNO $

2010/08/08 05:50
KBIE 080550Z AUTO 17008KT 10SM CLR 26/23 A2982 RMK AO2 T02620227 10327 20261 403350209

2010/08/08 05:52
KBIS 080552Z AUTO 06003KT 10SM CLR 20/17 A2971 RMK AO2 SLP049 T02000172 10317 20200 403220167 53012

2010/08/08 05:52
KBLF 080552Z AUTO 15003KT 10SM CLR 19/16 A3011 RMK AO2 SLP157 T01940156 10244 20189 58003

2010/08/08 05:52
KBLH 080552Z AUTO 18010KT 10SM CLR 34/07 A2971 RMK AO2 SLP054 T03390067 10394 20339 51022

2010/08/08 05:52
KBML 080552Z AUTO 00000KT 1/4SM FG VV001 07/07 A3003 RMK AO2 SLP172 T00720067 10144 20056 51001

2010/08/08 05:53
KBMQ 080553Z AUTO 18006KT 10SM CLR 28/21 A2995 RMK AO2 SLP119 T02830211 10339 20283 403560256 51013 $

2010/08/08 05:53
KBPT 080553Z AUTO 19005KT 10SM CLR 27/25 A2991 RMK AO2 SLP128 T02670250 10317 20261 403560244 50003

2010/08/08 05:53
KBRO 080553Z 16005KT 10SM FEW021 28/26 A2991 RMK AO2 SLP128 T02780256 10317 20272 403610261 50009 $

2010/08/08 05:52
KTAN 080552Z AUTO 00000KT 7SM CLR 16/15 A3001 RMK AO2 SLP162 T01560150 10217 20133 51004

2010/08/08 05:54
KTMK 080554Z AUTO 00000KT 2 1/2SM DZ BKN007 OVC012 16/16 A2995 RMK AO2

2010/08/08 05:52
KTOL 080552Z 19003KT 9SM CLR 18/16 A2996 RMK AO2 SLP140 T01830156 10256 20183 58001

2010/08/08 05:53
KTQH 080553Z AUTO 11004KT 10SM CLR 24/23 A2989 RMK AO2

2010/08/08 05:52
KTRM 080552Z AUTO 32013G19KT 10SM CLR 30/08 A2966 RMK AO2 SLP046 T03000078 10394 20300 51017

2010/08/08 05:55
KUDG 080555Z 36003KT 4SM CLR 23/21 A2997 RMK AO1 10290 20230 57003

2010/08/08 05:53
KUTS 080553Z AUTO 19008KT 10SM CLR 28/23 A2991 RMK AO2 SLP122 T02780233 10328 20278 403670250 51011

2010/08/08 05:52
KVTN 080552Z AUTO 00000KT 10SM CLR 21/18 A2981 RMK AO2 SLP068 T02110178 10350 20200 403610194 52010

2010/08/08 05:53
KWDG 080553Z AUTO 15009KT 10SM CLR 27/23 A2986 RMK AO2

2010/08/08 05:48
KWWR 080548Z AUTO 17012G16KT 10SM CLR 30/20 A2989 RMK AO2 T03010200 10351 20270 403620235

2010/08/08 05:50
KBTA 080550Z AUTO 17009KT 10SM CLR 26/21 A2979 RMK AO2 T02620214 10304 20261 403150210

2010/08/08 05:50
KBVN 080550Z AUTO 00000KT 10SM CLR 24/22 A2979 RMK AO2 T02400215 10317 20240 403280197

2010/08/08 05:45
KBVS 080545Z AUTO 19003KT 1 3/4SM OVC002 17/17 A2991 RMK A01 P003

2010/08/08 05:52
KCFV 080552Z AUTO 15005KT 8SM CLR 27/24 A2987 RMK AO2 SLP103 T02670239 10328 20261 403390239 51003

2010/08/08 05:50
KCHK 080550Z AUTO 15005KT 10SM CLR 28/23 A2985 RMK AO2

2010/08/08 05:52
KCKV 080552Z AUTO 04003KT 6SM HZ CLR 21/18 A2996 RMK AO2 SLP137 T02060178 10289 20206 403330178 50002

2010/08/08 05:50
KCLK 080550Z AUTO 16008KT 10SM CLR 28/19 A2986 RMK AO2

2010/08/08 05:53
KCLL 080553Z AUTO 19007KT 10SM CLR 28/23 A2990 RMK AO2 SLP120 T02830228 10361 20283 403720261 51011

2010/08/08 05:52
KCNU 080552Z AUTO 15006KT 9SM CLR 26/23 A2987 RMK AO2 SLP101 T02560233 10322 20256 403280222 50003

2010/08/08 05:53
KCOT 080553Z AUTO 14008KT 10SM CLR 28/23 A2989 RMK AO2 SLP113 T02830228 10361 20283 403830233 51015

2010/08/08 05:50
KCQB 080550Z AUTO 12003KT 7SM 27/24 A2986 RMK AO2 TSNO

2010/08/08 05:52
KCQX 080552Z AUTO 20007KT 10SM CLR 21/18 A3005 RMK AO2 SLP178 T02060183 10217 20206 51004

2010/08/08 05:50
KCUH 080550Z AUTO 15005KT 10SM CLR 28/24 A2985 RMK AO2

2010/08/08 05:52
KCVG 080552Z 00000KT 10SM CLR 22/15 A3000 RMK AO2 SLP147 T02170150 10278 20200 51001

2010/08/08 05:53
KCXO 080553Z AUTO 00000KT 10SM CLR 26/24 A2991 RMK AO2 SLP125 T02610239 10317 20256 403610256 50010 TSNO

2010/08/08 05:52
KDCA 080552Z 15004KT 10SM SCT095 23/16 A3000 RMK AO2 SLP159 T02280156 10272 20228 50004

2010/08/08 05:52
KDDC 080552Z AUTO 15009KT 10SM CLR 26/18 A2986 RMK AO2 SLP073 T02610183 10333 20250 403830206 53003

2010/08/08 05:53
KDRT 080553Z AUTO 13007KT 10SM CLR 31/19 A2987 RMK AO2 SLP096 T03060189 10372 20306 403830239 51020

2010/08/08 05:50
KDVO 080550Z AUTO 00000KT 10SM CLR 12/11 A2983 RMK AO2

2010/08/08 05:53
KDWH 080553Z 18005KT 10SM CLR 28/24 A2991 RMK AO2 SLP126 T02780244 10306 20272 403560261 50010

2010/08/08 05:53
KESF 080553Z AUTO 00000KT 8SM CLR 26/24 A2991 RMK AO2 SLP128 T02560239 10300 20256 403610239 51007

2010/08/08 05:52
KEST 080552Z AUTO 19010KT 8SM CLR 24/22 A2975 RMK AO2 SLP064 T02440222 10283 20239 403000178 51001

2010/08/08 05:50
KFET 080550Z AUTO 16008KT 10SM CLR 27/22 A2978 RMK AO2 T02660216 10310 20266 403210221

2010/08/08 05:52
KFIT 080552Z AUTO 00000KT 10SM CLR 13/11 A3003 RMK AO2 SLP169 T01330106 10222 20133 51002

2010/08/08 05:54
KGCD 080554Z AUTO 30008KT 10SM CLR 20/09 A2992 RMK AO2 T02010087 10292 20201

2010/08/08 05:51
KGCM 080551Z AUTO 10006KT 10SM CLR 24/23 A2989 RMK AO2

2010/08/08 05:51
KGMJ 080551Z AUTO 00000KT 10SM CLR 24/22 A2989 RMK AO2

2010/08/08 05:53
KGPT 080553Z AUTO 00000KT 10SM FEW043 30/26 A2990 RMK AO2 SLP126 T03000261 10339 20294 403670267 50007

2010/08/08 05:53
KHBG 080553Z AUTO 00000KT 10SM FEW044 27/25 A2991 RMK AO2 RAE0459 SLP125 P0000 60000 T02670250 10317 20256 403610256 58001

2010/08/08 05:52
KHIE 080552Z AUTO 00000KT 10SM CLR 07/07 A3002 RMK AO2 SLP168 60000 T00670067 10150 20067 53001

2010/08/08 05:52
KARR 080552Z AUTO 20006KT 8SM CLR 22/18 A2991 RMK AO2 SLP122 T02170183 10267 20211 402780156 56002

2010/08/08 05:52
KATL 080552Z 09004KT 8SM CLR 25/23 A2997 RMK AO2 SLP137 T02500228 10306 20250 56004

2010/08/08 05:52
KCID 080552Z AUTO 18007KT 5SM BR CLR 22/21 A2985 RMK AO2 SLP102 T02220211 10267 20222 402780178 53003 $

2010/08/08 05:52
KCLT 080552Z 08006KT 9SM BKN046 26/19 A2999 RMK AO2 SLP145 T02560194 10294 20228 58004

2010/08/08 05:52
KDPA 080552Z 19007KT 8SM CLR 22/18 A2990 RMK AO2 SLP118 T02220183 10267 20217 402780161 55003

2010/08/08 05:52
KDVN 080552Z AUTO 19010KT 7SM CLR 23/19 A2988 RMK AO2 SLP113 T02330189 10272 20228 402780189 53002

2010/08/08 05:52
KGLS 080552Z AUTO 19008KT 10SM FEW025 29/24 A2992 RMK AO2 SLP133 T02940244 10311 20294 403330283 51007

2010/08/08 05:55
KGLY 080555Z AUTO 16003KT 9SM CLR 25/22 A2989 RMK AO2

2010/08/08 05:52
KHRL 080552Z 14004KT 10SM CLR 26/25 A2990 RMK AO2 SLP125 T02610250 10328 20261 403610244 50010 $

2010/08/08 05:52
KIOW 080552Z AUTO 00000KT 5SM BR FEW100 23/22 A2986 RMK AO2 SLP108 T02280217 10283 20222 402940194 53004 $

2010/08/08 05:55
KLZZ 080555Z AUTO 16004KT 10SM CLR 28/21 A2992 RMK AO2

2010/08/08 05:55
KMEZ 080555Z AUTO 00000KT 4SM BR CLR 26/25 A2993 RMK AO2 LTG DSNT W

2010/08/08 05:52
KMKE 080552Z 22011KT 9SM CLR 23/18 A2986 RMK AO2 SLP105 T02280183 10272 20228 402890178 55004

2010/08/08 05:52
KMLI 080552Z 20008KT 9SM CLR 24/19 A2987 RMK AO2 SLP110 T02390194 10283 20239 402890200 53001

2010/08/08 05:52
KMWH 080552Z AUTO 26004KT 10SM BKN110 21/11 A2981 RMK AO2 SLP087 T02110111 10289 20211 51015

2010/08/08 05:55
KPAN 080555Z AUTO 00000KT 10SM OVC090 19/13 A3012 RMK AO1

2010/08/08 05:55
KPSO 080555Z AUTO 00000KT 10SM SCT027 SCT045 SCT110 14/13 A3028 RMK AO2

2010/08/08 05:52
KPWK 080552Z AUTO 20006KT 10SM CLR 24/18 A2990 RMK AO2 SLP121 T02390183 10278 20239 402890172 56002

2010/08/08 05:52
KUGN 080552Z AUTO 22008KT 9SM CLR 23/18 A2988 RMK AO2 SLP103 60000 T02280178 10261 20228 402830172 55003

2010/08/08 05:50
KOJA 080550Z AUTO 16007KT 10SM CLR 28/22 A2987 RMK AO2

2010/08/08 05:52
KOKB 080552Z AUTO 24003KT 10SM OVC017 18/13 A2991 RMK AO2 SLP129 T01780133 10211 20167 51017 $

2010/08/08 05:52
KOKC 080552Z 16008KT 10SM CLR 28/22 A2986 RMK AO2 SLP090 T02830222 10350 20283 403560233 50007 $

2010/08/08 05:51
KOKM 080551Z AUTO 00000KT 10SM CLR 26/25 A2986 RMK AO1

2010/08/08 05:52
KOMA 080552Z 16009KT 10SM CLR 27/23 A2979 RMK AO2 SLP077 T02670228 10322 20267 403280228 51005

2010/08/08 05:52
KORE 080552Z AUTO 00000KT 10SM CLR 12/11 A3003 RMK AO2 SLP170 T01170111 10194 20117 51001

2010/08/08 05:50
KORS 080550Z AUTO 00000KT 10SM OVC034 16/16 A2987 RMK AO2

2010/08/08 05:52
KOUN 080552Z AUTO 15008KT 10SM CLR 30/22 A2986 RMK AO2

2010/08/08 05:53
KPIL 080553Z AUTO 16009KT 10SM CLR 30/26 A2991 RMK AO2 SLP128 T03000256 10328 20300 403670278 50008

2010/08/08 05:50
KPLU 080550Z AUTO 23003KT 10SM FEW019 FEW033 BKN048 17/16 A2991 RMK AO2

2010/08/08 05:52
KPPF 080552Z AUTO 00000KT 9SM CLR 26/24 A2988 RMK AO2 SLP105 T02610239 10322 20261 403390233 51003

2010/08/08 05:53
KPQL 080553Z AUTO 00000KT 6SM -RA BR SCT045 SCT060 BKN085 26/25 A2991 RMK AO2 LTG DSNT SE TSE47RAB27 SLP129 P0003 60047 T02560250 10306 20250 403560250 50003

2010/08/08 05:53
KPSX 080553Z AUTO 19014G22KT 10SM CLR 31/24 A2991 RMK AO2 SLP127 T03060244 10328 20300 403500289 50007

2010/08/08 05:50
KPTS 080550Z AUTO 18005KT 10SM CLR 28/24 A2987 RMK AO2 T02760244 10332 20276 403320227

2010/08/08 05:48
KPVJ 080548Z AUTO 17004KT 10SM CLR 28/22 A2985 RMK AO2

2010/08/08 05:52
KPYM 080552Z AUTO 00000KT 10SM CLR 19/17 A3004 RMK AO2 SLP171 T01890167 10228 20167 51004

2010/08/08 05:52
KRAP 080552Z AUTO 35020G27KT 10SM CLR 22/13 A2985 RMK AO2 PK WND 34029/0539 SLP076 T02170128 10322 20206 53013 $

2010/08/08 05:53
KRKP 080553Z AUTO 18009G17KT 10SM SCT020 SCT026 29/26 A2990 RMK AO2 SLP125 T02940256 10311 20289 403440267 50006

2010/08/08 05:51
KRKR 080551Z AUTO 00000KT 10SM SCT100 28/27 A2988 RMK AO2 LTG DSNT SW

2010/08/08 05:53
KHOU 080553Z 17004KT 10SM CLR 27/24 A2991 RMK AO2 SLP132 T02720244 10317 20272 403500261 50008

2010/08/08 05:52
KHUT 080552Z AUTO 15008KT 10SM CLR 28/22 A2986 RMK AO2 SLP082 T02830222 10350 20278 403780206 53006

2010/08/08 05:52
KIAD 080552Z 00000KT 10SM CLR 18/16 A3000 RMK AO2 SLP157 T01780156 10267 20178 51004 $

2010/08/08 05:53
KIAH 080553Z 19003KT 10SM CLR 29/24 A2991 RMK AO2 SLP128 T02890244 10328 20289 403670272 50009

2010/08/08 05:50
KIDP 080550Z AUTO 16004KT 7SM CLR 24/22 A2986 RMK AO2

2010/08/08 05:52
KIEN 080552Z AUTO 00000KT 10SM CLR 22/15 A2983 RMK AO2 SLP061 T02170150 10350 20206 51007

2010/08/08 05:52
KIJD 080552Z AUTO 00000KT 10SM CLR 14/13 A3004 RMK AO2 SLP170 T01390133 10222 20139 51006

2010/08/08 05:52
KISN 080552Z 32004KT 10SM CLR 18/16 A2970 RMK AO2 SLP047 T01830156 10306 20183 403170172 53006

2010/08/08 05:51
KJSV 080551Z AUTO 07003KT 10SM CLR 24/22 A2988 RMK AO2

2010/08/08 05:50
KLAM 080550Z AUTO 21005KT 10SM CLR 18/11 A3024 RMK AO2

2010/08/08 05:53
KLBX 080553Z AUTO 00000KT 8SM CLR 26/25 A2992 RMK AO2 SLP131 T02610250 10311 20261 403330256 50007 $

2010/08/08 05:53
KLCH 080553Z AUTO 00000KT 10SM CLR 27/25 A2992 RMK AO2 SLP138 T02670250 10317 20267 403440244 50004 $

2010/08/08 05:53
KLFK 080553Z AUTO 17004KT 10SM CLR 28/24 A2991 RMK AO2 SLP122 T02780244 10350 20272 403720239 51008

2010/08/08 05:53
KLFT 080553Z AUTO 21004KT 10SM CLR 27/24 A2992 RMK AO2 SLP132 T02670244 10306 20267 403500250 50003

2010/08/08 05:53
KLVJ 080553Z AUTO 17003KT 10SM CLR 28/24 A2993 RMK AO2 SLP133 T02780244 10317 20278 403390261 50007

2010/08/08 05:52
KLWC 080552Z AUTO 13005KT 7SM CLR 24/23 A2985 RMK AO2 SLP099 T02390228 10322 20239 403440194 51003

2010/08/08 05:53
KMCB 080553Z AUTO 00000KT 7SM FEW044 25/23 A2993 RMK AO2 SLP129 T02500233 10289 20250 403390233 51004

2010/08/08 05:52
KMDH 080552Z AUTO 00000KT 5SM BR FEW090 19/17 A2995 RMK AO2 SLP137 T01940172 10300 20194 403330167 50003

2010/08/08 05:52
KMEB 080552Z AUTO 00000KT 8SM CLR 24/22 A2996 RMK AO2 SLP143 T02390217 10294 20233 58001

2010/08/08 05:52
KMFD 080552Z 16005KT 10SM CLR 18/14 A3002 RMK AO2 SLP157 T01830144 10244 20172 55000

2010/08/08 05:53
KMFE 080553Z AUTO 15009KT 10SM CLR 27/25 A2991 RMK AO2 SLP125 T02720250 10333 20272 403610256 50010 $

2010/08/08 05:52
KMHK 080552Z AUTO 19007KT 10SM CLR 28/22 A2982 RMK AO2 SLP085 T02780222 10322 20278 403560217 53002 $

2010/08/08 05:53
KMSY 080553Z 24005KT 10SM FEW050 SCT250 28/25 A2992 RMK AO2 SLP133 T02830250 10317 20283 403500267 50001

2010/08/08 05:55
KMYR 080555Z AUTO 00000KT 5SM CLR 24/22 A2996 RMK AO1 57007

2010/08/08 05:53
KNEW 080553Z AUTO 25011KT 10SM CLR 31/25 A2992 RMK AO2 SLP125 T03060250 10311 20300 403500294 50001 TSNO

2010/08/08 05:55
KOAJ 080555Z AUTO 00000KT 5SM FEW018 22/21 A2996 RMK AO1 10250 20220 57003

2010/08/08 05:55
KOCF 080555Z AUTO 00000KT 10SM BKN100 25/24 A2995 RMK AO1 LTG DSNT SW 60014 10290 20240 54000

2010/08/08 06:00
FAJS 080600Z 32012KT 8000 NSC 10/04 Q1028 NOSIG

2010/08/08 05:52
PTRO 080552Z 30006KT 15SM BKN016CB BKN120 OVC300 29/23 A2981 RMK CB VC ALQDS 

2010/08/08 05:50
BGSF 080550Z 06007KT 9999 FEW200 05/02 Q1013

2010/08/08 05:50
BGBW 080550Z AUTO 08002KT 9999NDV FEW100/// BKN130/// 12/07 Q1013

2010/08/08 05:50
BGGH 080550Z AUTO 02005KT 9999NDV -RA OVC060/// 10/07 Q1012

2010/08/08 05:50
BGJN 080550Z AUTO VRB01KT 9999NDV NCD 07/01 Q1013

2010/08/08 05:48
KEHA 080548Z AUTO 19009KT 24/16 RMK AO1 PK WND 14 000 T02390162

2010/08/08 05:51
KSAN 080551Z 22004KT 10SM OVC018 17/12 A2994 RMK AO2 SLP137 T01720122 10194 20167 51015 $

2010/08/08 05:51
KP59 080551Z AUTO 24004KT 18/13 A2975 RMK AO2 SLP068 T01780133 10222 20178 55003 PWINO TSNO $

2010/08/08 05:51
KCON 080551Z AUTO 00000KT 10SM CLR 10/09 A3003 RMK AO2 SLP167 T01000089 10217 20094 52006

2010/08/08 05:51
KVCT 080551Z AUTO 18005KT 10SM CLR 27/26 A2991 RMK AO2 SLP127 6//// T02720256 10322 20267 403500244 51010 PNO $

2010/08/08 05:51
KSMX 080551Z AUTO 00000KT 10SM OVC006 12/11 A2991 RMK AO2 SLP131 T01220106 10178 20122 51010 TSNO

2010/08/08 05:51
KSNT 080551Z AUTO 20003KT 10/02 A3004 RMK AO2 SLP079 T01000022 10233 20083 51012 PWINO TSNO

2010/08/08 05:51
KDAG 080551Z AUTO 26015KT 10SM CLR 27/M01 A2982 RMK AO2 SLP069 T02671011 10372 20267 51023 TSNO

2010/08/08 05:51
KCRP 080551Z 17007KT 10SM FEW018 27/25 A2991 RMK AO2 SLP126 T02720250 10317 20267 403500244 50009

2010/08/08 05:51
KORF 080551Z 10003KT 7SM BKN009 25/23 A2999 RMK AO2 SLP156 T02500233 10256 20239 52002 $

2010/08/08 05:51
KBVE 080551Z AUTO 26005KT 10SM SCT032 BKN039 BKN047 30/25 A2993 RMK AO2 SLP135 T03000250 10317 20300 403330250 58000 TSNO

2010/08/08 05:51
KABE 080551Z 00000KT 10SM SCT080 SCT090 17/16 A3001 RMK AO2 SLP159 T01720156 10256 20172 51004

2010/08/08 05:51
KATT 080551Z AUTO 18007KT 10SM CLR 28/22 A2992 RMK AO2 SLP116 T02830222 10350 20283 403670250 51014

2010/08/08 05:51
KHSE 080551Z AUTO 07004KT 10SM CLR 24/24 A2996 RMK AO2 SLP145 T02440244 10261 20244 58001 TSNO

2010/08/08 05:51
KJCT 080551Z AUTO 17007KT 10SM CLR 29/19 A2994 RMK AO2 SLP095 T02890189 10350 20289 403720244 51012 TSNO

2010/08/08 05:51
KNYC 080551Z VRB06G14KT 10SM CLR 23/18 A3003 RMK AO2 SLP158 T02330178 10250 20228 51004

2010/08/08 05:52
KCZZ 080552Z AUTO 03003KT 11/07 A2992 RMK AO2 SLP101 T01060072 10261 20106 51014 PWINO TSNO

2010/08/08 05:52
KN60 080552Z AUTO 00000KT 20/18 A2969 RMK AO1 SLP042 T02000178 10294 20183 402940167 53004

2010/08/08 05:52
KREO 080552Z AUTO 07007KT 21/01 A2986 RMK AO2 SLP068 T02060011 10322 20194 51013 PWINO TSNO

2010/08/08 05:52
KBLU 080552Z AUTO 00000KT 10SM CLR 17/05 A3004 RMK AO2 SLP084 T01670050 10228 20167 53001 TSNO

2010/08/08 05:50
KU24 080550Z 13008KT 30SM SCT110 OVC250 16/12 RMK SLP105 NOSPECI 60004 T01630124 10233 20155 50014

2010/08/08 05:50
ESGG 080550Z 01005KT 9999 SCT002 BKN105 16/15 Q1013

2010/08/08 05:50
ESGJ 080550Z AUTO 35006KT 9999NDV BKN016/// 15/13 Q1012 RERA

2010/08/08 05:50
ESMK 080550Z AUTO 32006KT 9999NDV -DZ SCT035/// BKN045/// OVC051/// 17/15 Q1011 RERA

2010/08/08 05:50
ESMQ 080550Z AUTO 35004KT 9999NDV OVC002/// 16/16 Q1010

2010/08/08 05:50
ESMS 080550Z 34006KT 9000 -RA BR BKN088 17/16 Q1012

2010/08/08 05:50
ESMT 080550Z AUTO VRB02KT 9999NDV BKN081/// 16/15 Q1012

2010/08/08 05:50
ESMX 080550Z AUTO 35007KT 5000NDV RA FEW004/// OVC005/// 15/14 Q1011 REDZ

2010/08/08 05:50
ESTA 080550Z AUTO 32005KT 9999NDV FEW099/// 18/16 Q1012

2010/08/08 05:50
ESTL 080550Z AUTO 31005KT 9999NDV -RA BKN089/// 17/16 Q1012

2010/08/08 05:51
KNTU 080551Z 00000KT 10SM BKN010 BKN060 24/23 A2999 RMK AO2 $

2010/08/08 05:52
PTRO 080552Z 30006KT 15SM BKN016CB BKN120 OVC300 29/23 A2981 RMK CB VC ALQDS

2010/08/08 05:50
EDDF 080550Z 19005KT 9999 VCSH FEW025 FEW040TCU SCT050 BKN090 17/14 Q1016 NOSIG

2010/08/08 05:50
EDDH 080550Z 23001KT 9999 BKN045 BKN120 18/16 Q1014 NOSIG

2010/08/08 05:50
EDDK 080550Z 23003KT 6000 SHRA FEW004 SCT015CB BKN020 17/16 Q1014 TEMPO 3000 +SHRA BKN010CB

2010/08/08 05:50
EDDL 080550Z 24005KT 3000 VCTS SHRA BR FEW005 SCT010 BKN020CB 17/16 Q1014 BECMG 5000 NSW

2010/08/08 05:50
EDDM 080550Z 21005KT CAVOK 13/12 Q1018 NOSIG

2010/08/08 05:50
EDDN 080550Z VRB02KT CAVOK 13/12 Q1017 NOSIG

2010/08/08 05:50
EDDS 080550Z 28005KT 9999 -SHRA FEW040CB BKN060 15/12 Q1018 TEMPO 4000 SHRA

2010/08/08 05:50
EDDT 080550Z 28003KT CAVOK 17/14 Q1014 NOSIG

2010/08/08 05:50
EDDV 080550Z 36002KT 9999 FEW035 BKN060 17/15 Q1014 NOSIG

2010/08/08 05:50
KVLD 080550Z AUTO 00000KT 1 3/4SM BR FEW002 24/24 A2993 RMK AO2

2010/08/08 05:51
KASX 080551Z AUTO 24006KT 7SM VCTS -RA FEW001 BKN021 19/19 A2974 RMK AO2 LTG DSNT N AND NW TSE16B17E32B45 P0011 402670100

2010/08/08 05:51
KBFI 080551Z 22006KT 10SM BKN011 BKN020 OVC095 17/14 A2991 RMK AO2

2010/08/08 05:51
KWVI 080551Z AUTO 19004KT 10SM OVC005 13/11 A2990 RMK AO2 CIG 005V009 $

2010/08/08 05:50
EDDB 080550Z 27003KT CAVOK 17/15 Q1014 NOSIG

2010/08/08 05:50
EDDC 080550Z 20005KT CAVOK 16/15 Q1015 NOSIG

2010/08/08 05:50
EDDE 080550Z 18004KT CAVOK 15/12 Q1016 NOSIG

2010/08/08 05:50
EDDG 080550Z 30001KT 2200 1200E R25/1300U BCFG BR FEW030 SCT100 15/15 Q1014 NOSIG

2010/08/08 05:50
EDDP 080550Z 23006KT CAVOK 17/13 Q1014 NOSIG

2010/08/08 05:50
EDDR 080550Z 27008KT 9999 FEW020 SCT060 17/14 Q1016 NOSIG

2010/08/08 05:50
EDDW 080550Z 25002KT 9999 FEW038 BKN046 18/17 Q1014 NOSIG

2010/08/08 05:52
KSPS 080552Z AUTO 19008KT 10SM CLR 29/21 A2984 RMK AO2 SLP086 P0004 60023 T02940206 10356 20278 403890222 50006

2010/08/08 05:52
KALS 080552Z AUTO 08007KT 10SM OVC095 15/11 A3024 RMK AO2 SLP135 60000 T01500111 10272 20144 51021 $

2010/08/08 05:52
KBDR 080552Z 20010KT 10SM CLR 23/21 A3000 RMK AO2 SLP160 T02330206 10256 20233 51004

2010/08/08 05:52
KTOL 080552Z 19003KT 9SM CLR 18/16 A2996 RMK AO2 SLP140 T01830156 10256 20183 58001

2010/08/08 05:52
KVTN 080552Z AUTO 00000KT 10SM CLR 21/18 A2981 RMK AO2 SLP068 T02110178 10350 20200 403610194 52010

2010/08/08 05:53
KCLL 080553Z AUTO 19007KT 10SM CLR 28/23 A2990 RMK AO2 SLP120 T02830228 10361 20283 403720261 51011

2010/08/08 05:52
KCNU 080552Z AUTO 15006KT 9SM CLR 26/23 A2987 RMK AO2 SLP101 T02560233 10322 20256 403280222 50003

2010/08/08 05:53
KDRT 080553Z AUTO 13007KT 10SM CLR 31/19 A2987 RMK AO2 SLP096 T03060189 10372 20306 403830239 51020

2010/08/08 05:52
KMFD 080552Z 16005KT 10SM CLR 18/14 A3002 RMK AO2 SLP157 T01830144 10244 20172 55000

2010/08/08 05:52
KMHK 080552Z AUTO 19007KT 10SM CLR 28/22 A2982 RMK AO2 SLP085 T02780222 10322 20278 403560217 53002 $

2010/08/08 05:52
KSGF 080552Z 15009KT 10SM CLR 26/21 A2992 RMK AO2 SLP116 T02560206 10306 20250 403170206 50004

2010/08/08 05:53
KSNL 080553Z AUTO 14007KT 10SM CLR 28/23 A2987 RMK AO2

2010/08/08 05:55
KSOP 080555Z AUTO 00000KT 7SM CLR 23/22 A2997 RMK AO1 10280 20230 57003

2010/08/08 05:52
KSPI 080552Z AUTO 17007KT 10SM CLR 23/18 A2994 RMK AO2 SLP133 60001 T02280178 10278 20222 403000167 53004

2010/08/08 05:50
KSRE 080550Z AUTO 14006KT 10SM CLR 27/23 A2987 RMK AO2 LTG DSNT SE

2010/08/08 05:53
KSSF 080553Z AUTO 15004KT 10SM CLR 28/23 A2992 RMK AO2 SLP117 T02780233 10361 20278 403780250 51015

2010/08/08 05:52
KSUX 080552Z 18009KT 10SM CLR 26/22 A2975 RMK AO2 SLP063 T02560217 10306 20256 403170200 51005

2010/08/08 05:45
KSVC 080545Z AUTO 35006KT 10SM CLR 20/14 A3016 RMK AO2

2010/08/08 05:48
K4O4 080548Z AUTO 16004KT 7SM SCT090 BKN110 27/23 A2989 RMK AO2 LTG DSNT E AND NW

2010/08/08 05:51
KADH 080551Z AUTO 13006KT 10SM CLR 26/21 A2987 RMK AO2

2010/08/08 05:50
KADM 080550Z AUTO 00000KT 10SM CLR 27/23 A2985 RMK AO2

2010/08/08 05:53
KAEX 080553Z 00000KT 10SM CLR 27/24 A2990 RMK AO2 SLP125 T02670244 10328 20261 403670239 51007

2010/08/08 05:50
KAFK 080550Z AUTO 18010KT 10SM CLR 25/23 A2981 RMK AO2 T02500225 10305 20249 403210206

2010/08/08 05:52
KAFN 080552Z AUTO 00000KT 10SM CLR 11/09 A3005 RMK AO2 SLP179 T01060094 10183 20100 51005

2010/08/08 05:53
KALI 080553Z AUTO 17008KT 10SM CLR 27/24 A2990 RMK AO2 SLP122 T02670244 10322 20267 403610233 50010

2010/08/08 05:45
KALM 080545Z AUTO 18005KT 10SM SCT100 25/12 A3001 RMK AO2

2010/08/08 05:50
KANW 080550Z AUTO 00000KT 10SM CLR 22/17 A2981 RMK AO2 T02170165 10340 20217 403540194

2010/08/08 05:52
KAQW 080552Z AUTO 00000KT 9SM CLR 10/09 A3004 RMK AO2 SLP174 T01000094 10178 20100 51005

2010/08/08 05:53
KARA 080553Z AUTO 00000KT 10SM CLR 27/25 A2993 RMK AO2 SLP135 T02670250 10322 20267 403440250 50003 $

2010/08/08 05:53
KASD 080553Z AUTO 00000KT 10SM CLR 29/26 A2991 RMK AO2 SLP127 T02940256 10322 20289 403500250 50003

2010/08/08 05:50
KATS 080550Z AUTO 21005KT 10SM CLR 25/15 A2998 RMK AO2

2010/08/08 05:50
KAUH 080550Z AUTO 17010KT 10SM CLR 26/20 A2980 RMK AO2 T02580201 10320 20258 403310210

2010/08/08 05:50
KAUN 080550Z AUTO 14005KT 10SM CLR 23/11 A2982 RMK AO1

2010/08/08 05:53
KAUS 080553Z 18008KT 10SM FEW120 28/23 A2991 RMK AO2 SLP115 T02780228 10350 20278 403670250 51014

2010/08/08 05:50
KAXS 080550Z AUTO 16005KT 10SM CLR 28/21 A2986 RMK AO2 T02820205 10366 20279 403740235

2010/08/08 05:50
KAXX 080550Z AUTO 00000KT 10SM CLR 10/10 A3033 RMK AO2

2010/08/08 05:53
KBFM 080553Z AUTO 00000KT 10SM BKN100 27/24 A2992 RMK AO2 SLP131 T02670239 10283 20256 403440250 50000 TSNO $

2010/08/08 05:50
KBIE 080550Z AUTO 17008KT 10SM CLR 26/23 A2982 RMK AO2 T02620227 10327 20261 403350209

2010/08/08 05:52
KBIS 080552Z AUTO 06003KT 10SM CLR 20/17 A2971 RMK AO2 SLP049 T02000172 10317 20200 403220167 53012

2010/08/08 05:52
KBLF 080552Z AUTO 15003KT 10SM CLR 19/16 A3011 RMK AO2 SLP157 T01940156 10244 20189 58003

2010/08/08 05:52
KBLH 080552Z AUTO 18010KT 10SM CLR 34/07 A2971 RMK AO2 SLP054 T03390067 10394 20339 51022

2010/08/08 05:52
KBML 080552Z AUTO 00000KT 1/4SM FG VV001 07/07 A3003 RMK AO2 SLP172 T00720067 10144 20056 51001

2010/08/08 05:53
KBMQ 080553Z AUTO 18006KT 10SM CLR 28/21 A2995 RMK AO2 SLP119 T02830211 10339 20283 403560256 51013 $

2010/08/08 05:53
KBPT 080553Z AUTO 19005KT 10SM CLR 27/25 A2991 RMK AO2 SLP128 T02670250 10317 20261 403560244 50003

2010/08/08 05:53
KBRO 080553Z 16005KT 10SM FEW021 28/26 A2991 RMK AO2 SLP128 T02780256 10317 20272 403610261 50009 $

2010/08/08 05:52
KTAN 080552Z AUTO 00000KT 7SM CLR 16/15 A3001 RMK AO2 SLP162 T01560150 10217 20133 51004

2010/08/08 05:54
KTMK 080554Z AUTO 00000KT 2 1/2SM DZ BKN007 OVC012 16/16 A2995 RMK AO2

2010/08/08 05:53
KTQH 080553Z AUTO 11004KT 10SM CLR 24/23 A2989 RMK AO2

2010/08/08 05:52
KTRM 080552Z AUTO 32013G19KT 10SM CLR 30/08 A2966 RMK AO2 SLP046 T03000078 10394 20300 51017

2010/08/08 05:55
KUDG 080555Z 36003KT 4SM CLR 23/21 A2997 RMK AO1 10290 20230 57003

2010/08/08 05:51
KSAN 080551Z 22004KT 10SM OVC018 17/12 A2994 RMK AO2 SLP137 T01720122 10194 20167 51015 $

2010/08/08 05:51
KP59 080551Z AUTO 24004KT 18/13 A2975 RMK AO2 SLP068 T01780133 10222 20178 55003 PWINO TSNO $

2010/08/08 05:51
KCON 080551Z AUTO 00000KT 10SM CLR 10/09 A3003 RMK AO2 SLP167 T01000089 10217 20094 52006

2010/08/08 05:51
KVCT 080551Z AUTO 18005KT 10SM CLR 27/26 A2991 RMK AO2 SLP127 6//// T02720256 10322 20267 403500244 51010 PNO $

2010/08/08 05:51
KALB 080551Z 00000KT 10SM SCT180 14/11 A3002 RMK AO2 SLP164 T01440111 10228 20139 51003

2010/08/08 05:51
KBDL 080551Z 00000KT 10SM CLR 16/12 A3001 RMK AO2 SLP160 T01560122 10250 20150 51004 $

2010/08/08 05:51
KBKW 080551Z AUTO 00000KT 8SM CLR 18/14 A3008 RMK AO2 SLP154 T01780139 10228 20172 58004

2010/08/08 05:51
KCAK 080551Z 16005KT 10SM CLR 18/14 A3002 RMK AO2 SLP157 T01830144 10239 20183 58001

2010/08/08 05:51
KEKN 080551Z AUTO 00000KT 5SM BR BKN055 OVC070 16/15 A3010 RMK AO2 SLP184 T01560150 10222 20144 53001 TSNO

2010/08/08 05:51
KELP 080551Z 21009KT 10SM FEW100 SCT220 BKN300 28/12 A3002 RMK AO2 SLP082 T02830122 10367 20278 51024

2010/08/08 05:51
KHTS 080551Z 00000KT 8SM CLR 18/17 A3000 RMK AO2 SLP150 T01780167 10261 20178 58001

2010/08/08 05:48
KIZA 080548Z AUTO 00000KT 10SM CLR 12/10 A2990 RMK AO2

2010/08/08 05:51
KMYL 080551Z AUTO 00000KT 10SM CLR 14/06 A2993 RMK AO2 SLP093 T01440061 10256 20133 51010

2010/08/08 05:51
KOXR 080551Z AUTO 24003KT 10SM OVC008 16/13 A2990 RMK AO2 SLP123 T01560128 10189 20156 51014

2010/08/08 05:51
KPVD 080551Z 00000KT 10SM CLR 18/16 A3004 RMK AO2 SLP170 T01780161 10228 20172 51005

2010/08/08 05:51
KROW 080551Z AUTO 00000KT 10SM CLR 24/14 A2996 RMK AO2 SLP073 T02440139 10344 20239 51016 TSNO

2010/08/08 05:51
KTEB 080551Z 18006KT 10SM CLR 23/18 A2999 RMK AO2 SLP154 T02280178 10256 20211 51005

2010/08/08 05:51
KYNG 080551Z 15006KT 10SM BKN150 19/12 A3002 RMK AO2 SLP158 8/070 T01890117 10217 20156 58001

2010/08/08 05:51
KSMX 080551Z AUTO 00000KT 10SM OVC006 12/11 A2991 RMK AO2 SLP131 T01220106 10178 20122 51010 TSNO

2010/08/08 05:51
KSNT 080551Z AUTO 20003KT 10/02 A3004 RMK AO2 SLP079 T01000022 10233 20083 51012 PWINO TSNO

2010/08/08 05:51
KCRP 080551Z 17007KT 10SM FEW018 27/25 A2991 RMK AO2 SLP126 T02720250 10317 20267 403500244 50009

2010/08/08 05:51
KORF 080551Z 10003KT 7SM BKN009 25/23 A2999 RMK AO2 SLP156 T02500233 10256 20239 52002 $

2010/08/08 05:51
KBVE 080551Z AUTO 26005KT 10SM SCT032 BKN039 BKN047 30/25 A2993 RMK AO2 SLP135 T03000250 10317 20300 403330250 58000 TSNO

2010/08/08 05:51
KABE 080551Z 00000KT 10SM SCT080 SCT090 17/16 A3001 RMK AO2 SLP159 T01720156 10256 20172 51004

2010/08/08 05:51
KATT 080551Z AUTO 18007KT 10SM CLR 28/22 A2992 RMK AO2 SLP116 T02830222 10350 20283 403670250 51014

2010/08/08 05:51
KHSE 080551Z AUTO 07004KT 10SM CLR 24/24 A2996 RMK AO2 SLP145 T02440244 10261 20244 58001 TSNO

2010/08/08 05:51
KNYC 080551Z VRB06G14KT 10SM CLR 23/18 A3003 RMK AO2 SLP158 T02330178 10250 20228 51004

2010/08/08 05:52
KCID 080552Z AUTO 18007KT 5SM BR CLR 22/21 A2985 RMK AO2 SLP102 T02220211 10267 20222 402780178 53003 $

2010/08/08 05:55
KLZZ 080555Z AUTO 16004KT 10SM CLR 28/21 A2992 RMK AO2

2010/08/08 05:52
KCZZ 080552Z AUTO 03003KT 11/07 A2992 RMK AO2 SLP101 T01060072 10261 20106 51014 PWINO TSNO

2010/08/08 05:52
KN60 080552Z AUTO 00000KT 20/18 A2969 RMK AO1 SLP042 T02000178 10294 20183 402940167 53004

2010/08/08 05:52
KREO 080552Z AUTO 07007KT 21/01 A2986 RMK AO2 SLP068 T02060011 10322 20194 51013 PWINO TSNO

2010/08/08 05:52
KBLU 080552Z AUTO 00000KT 10SM CLR 17/05 A3004 RMK AO2 SLP084 T01670050 10228 20167 53001 TSNO

2010/08/08 05:50
KU24 080550Z 13008KT 30SM SCT110 OVC250 16/12 RMK SLP105 NOSPECI 60004 T01630124 10233 20155 50014

2010/08/08 05:50
KPTS 080550Z AUTO 18005KT 10SM CLR 28/24 A2987 RMK AO2 T02760244 10332 20276 403320227

2010/08/08 05:53
KSAT 080553Z 15010KT 10SM FEW250 28/23 A2994 RMK AO2 SLP118 T02780228 10344 20278 403560256 51017

2010/08/08 05:50
OAKB 080550Z VRB02KT 6000 SCT030 BKN140 25/19 Q1014 NOSIG RMK WHT WHT

2010/08/08 05:51
KBAZ 080551Z AUTO 18008KT 10SM CLR 27/23 A2992 RMK AO2 SLP120 T02720228 10350 20272 403720239 51016

2010/08/08 05:47
KGVT 080547Z AUTO 17005KT 10SM CLR 30/21 A2988 RMK AO2

2010/08/08 05:51
KHDO 080551Z AUTO 15011KT 10SM CLR 28/23 A2994 RMK AO2 SLP119 T02830233 10356 20283 403780233 51014

2010/08/08 05:45
KTYQ 080545Z AUTO 00000KT 1/4SM FG VV002 17/16 A2999 RMK AO2

2010/08/08 05:46
KXBP 080546Z AUTO 17007KT 10SM CLR 29/20 A2987 RMK AO2 T02920199 10366 20290 403750232

2010/08/08 05:50
PAWI 080550Z 05015KT 10SM BKN042 OVC055 08/06 A2976 RMK VIA PHONE

2010/08/08 05:47
K1F0 080547Z AUTO 00000KT 10SM CLR 28/23 A2984 RMK AO2

2010/08/08 05:51
KACT 080551Z 19012KT 10SM CLR 30/22 A2988 RMK AO2 SLP110 T03000217 10367 20300 403890267 51014

2010/08/08 05:51
KAHN 080551Z AUTO 00000KT 5SM BR CLR 24/22 A2997 RMK AO2 SLP140 T02440222 10283 20233 58001

2010/08/08 05:51
KASH 080551Z 30003KT 10SM CLR 13/09 A3003 RMK AO2 51007 T01270094 10227 20127 SLP171

2010/08/08 05:51
KAVX 080551Z AUTO VRB04KT 1 1/4SM BR OVC001 12/12 A2993 RMK AO2 SLPNO T01170117 10167 20111 51014 TSNO

2010/08/08 05:51
KBGD 080551Z AUTO 17014G22KT 10SM CLR 28/18 A2992 RMK AO2 SLP078 T02830178 10356 20283 403720222 50004

2010/08/08 05:51
KCLE 080551Z 18006KT 10SM SCT250 20/15 A3001 RMK AO2 SLP155 8/001 T02000150 10250 20189 55000

2010/08/08 05:51
KCMH 080551Z 00000KT 10SM CLR 20/16 A3000 RMK AO2 SLP152 T02000156 10267 20189 50001

2010/08/08 05:51
KCSG 080551Z AUTO 21003KT 10SM CLR 26/22 A2994 RMK AO2 SLP131 T02610222 10344 20261 56004

2010/08/08 05:51
KDAW 080551Z AUTO 00000KT 10SM CLR 11/09 A3001 RMK AO2 SLP160 T01110089 10200 20111 53004

2010/08/08 05:50
KDUA 080550Z AUTO 17004KT 10SM SCT070 28/23 A2987 RMK AO2 LTG DSNT NE AND E

2010/08/08 05:52
KDUC 080552Z AUTO 17004KT 10SM CLR 29/22 A2985 RMK AO2

2010/08/08 05:51
KERI 080551Z 17008KT 10SM CLR 21/12 A2998 RMK AO2 SLP147 T02060117 10222 20189 58002

2010/08/08 05:51
KEWR 080551Z 19007KT 10SM CLR 23/19 A3000 RMK AO2 SLP159 T02280189 10261 20222 51006 $

2010/08/08 05:51
KILG 080551Z 18004KT 10SM CLR 23/21 A3001 RMK AO2 SLP161 T02280206 10261 20228 51004

2010/08/08 05:51
KJFK 080551Z 22008KT 10SM SCT200 23/20 A3002 RMK AO2 SLP164 T02280200 10250 20228 51005

2010/08/08 05:49
KL35 080549Z AUTO 00000KT 10SM CLR 10/M05 A3012 RMK AO2

2010/08/08 05:51
KLGA 080551Z 20010KT 10SM CLR 24/19 A3000 RMK AO2 SLP157 T02440189 10261 20244 51005

2010/08/08 05:51
KLGU 080551Z AUTO 00000KT 10SM CLR 17/08 A2995 RMK AO2 SLP085 T01720083 10300 20172 51021

2010/08/08 05:50
KLRU 080550Z AUTO 25011G17KT 10SM CLR 26/12 A3007 RMK AO2

2010/08/08 05:51
KMDW 080551Z 21007KT 9SM CLR 24/17 A2990 RMK AO2 SLP114 T02390167 10272 20239 402890189 56002 $

2010/08/08 05:51
KMPV 080551Z AUTO 00000KT 10SM CLR 09/08 A3005 RMK AO2 SLP176 T00940078 10150 20083 53000

2010/08/08 05:50
KONM 080550Z AUTO 02012KT 10SM CLR 24/13 A3007 RMK AO2 T02380132 10350 20238

2010/08/08 05:50
KONP 080550Z AUTO 00000KT 1 1/4SM BR OVC001 14/14 A2998 RMK AO1

2010/08/08 05:51
KORD 080551Z 21008KT 10SM CLR 24/18 A2990 RMK AO2 SLP118 T02390183 10272 20228 402830167 56002

2010/08/08 05:51
KPHX 080551Z 00000KT 10SM BKN150 29/21 A2981 RMK AO2 SLP076 OCNL LTGIC DSNT NE CB DSNT NE 60005 T02890206 10356 20272 51019 $

2010/08/08 05:51
KPIT 080551Z 00000KT 10SM FEW250 17/13 A3003 RMK AO2 SLP169 T01670128 10250 20161 50001

2010/08/08 05:51
KPWM 080551Z AUTO 00000KT 3SM BR CLR 13/12 A3000 RMK AO2 SLP160 T01280122 10183 20122 51001 $

2010/08/08 05:51
KRDU 080551Z 00000KT 8SM FEW075 23/19 A2999 RMK AO2 SLP149 T02330194 10283 20233 58001

2010/08/08 05:51
KSJT 080551Z AUTO 17006KT 10SM CLR 31/16 A2992 RMK AO2 SLP100 T03060161 10383 20306 404000250 51018

2010/08/08 05:51
KSLK 080551Z AUTO 00000KT 10SM CLR 07/06 A2999 RMK AO2 SLP157 T00670056 10161 20061 57000

2010/08/08 05:51
KSMO 080551Z AUTO VRB03KT 10SM OVC012 16/12 A2991 RMK AO2 SLP127 T01610122 10189 20161 53012

2010/08/08 05:51
KSTL 080551Z 15009KT 7SM CLR 26/17 A2994 RMK AO2 SLP124 T02610167 10300 20250 403220206 51004

2010/08/08 05:51
KVNY 080551Z 09006KT 10SM CLR 16/12 A2990 RMK AO2 SLP117 T01610122 10267 20161 51019

2010/08/08 05:51
KDAG 080551Z AUTO 26015KT 10SM CLR 27/M01 A2982 RMK AO2 SLP069 T02671011 10372 20267 51023 TSNO

2010/08/08 05:51
KJCT 080551Z AUTO 17007KT 10SM CLR 29/19 A2994 RMK AO2 SLP095 T02890189 10350 20289 403720244 51012 TSNO

2010/08/08 05:52
KARR 080552Z AUTO 20006KT 8SM CLR 22/18 A2991 RMK AO2 SLP122 T02170183 10267 20211 402780156 56002

2010/08/08 05:52
KATL 080552Z 09004KT 8SM CLR 25/23 A2997 RMK AO2 SLP137 T02500228 10306 20250 56004

2010/08/08 05:52
KCLT 080552Z 08006KT 9SM BKN046 26/19 A2999 RMK AO2 SLP145 T02560194 10294 20228 58004

2010/08/08 05:52
KDPA 080552Z 19007KT 8SM CLR 22/18 A2990 RMK AO2 SLP118 T02220183 10267 20217 402780161 55003

2010/08/08 05:52
KDVN 080552Z AUTO 19010KT 7SM CLR 23/19 A2988 RMK AO2 SLP113 T02330189 10272 20228 402780189 53002

2010/08/08 05:52
KGLS 080552Z AUTO 19008KT 10SM FEW025 29/24 A2992 RMK AO2 SLP133 T02940244 10311 20294 403330283 51007

2010/08/08 05:55
KGLY 080555Z AUTO 16003KT 9SM CLR 25/22 A2989 RMK AO2

2010/08/08 05:52
KHRL 080552Z 14004KT 10SM CLR 26/25 A2990 RMK AO2 SLP125 T02610250 10328 20261 403610244 50010 $

2010/08/08 05:52
KIOW 080552Z AUTO 00000KT 5SM BR FEW100 23/22 A2986 RMK AO2 SLP108 T02280217 10283 20222 402940194 53004 $

2010/08/08 05:55
KMEZ 080555Z AUTO 00000KT 4SM BR CLR 26/25 A2993 RMK AO2 LTG DSNT W

2010/08/08 05:52
KMKE 080552Z 22011KT 9SM CLR 23/18 A2986 RMK AO2 SLP105 T02280183 10272 20228 402890178 55004

2010/08/08 05:52
KMLI 080552Z 20008KT 9SM CLR 24/19 A2987 RMK AO2 SLP110 T02390194 10283 20239 402890200 53001

2010/08/08 05:52
KMWH 080552Z AUTO 26004KT 10SM BKN110 21/11 A2981 RMK AO2 SLP087 T02110111 10289 20211 51015

2010/08/08 05:55
KPAN 080555Z AUTO 00000KT 10SM OVC090 19/13 A3012 RMK AO1

2010/08/08 05:55
KPSO 080555Z AUTO 00000KT 10SM SCT027 SCT045 SCT110 14/13 A3028 RMK AO2

2010/08/08 05:52
KPWK 080552Z AUTO 20006KT 10SM CLR 24/18 A2990 RMK AO2 SLP121 T02390183 10278 20239 402890172 56002

2010/08/08 05:52
KUGN 080552Z AUTO 22008KT 9SM CLR 23/18 A2988 RMK AO2 SLP103 60000 T02280178 10261 20228 402830172 55003

2010/08/08 05:50
KOJA 080550Z AUTO 16007KT 10SM CLR 28/22 A2987 RMK AO2

2010/08/08 05:52
KOKB 080552Z AUTO 24003KT 10SM OVC017 18/13 A2991 RMK AO2 SLP129 T01780133 10211 20167 51017 $

2010/08/08 05:52
KOKC 080552Z 16008KT 10SM CLR 28/22 A2986 RMK AO2 SLP090 T02830222 10350 20283 403560233 50007 $

2010/08/08 05:51
KOKM 080551Z AUTO 00000KT 10SM CLR 26/25 A2986 RMK AO1

2010/08/08 05:52
KOMA 080552Z 16009KT 10SM CLR 27/23 A2979 RMK AO2 SLP077 T02670228 10322 20267 403280228 51005

2010/08/08 05:52
KORE 080552Z AUTO 00000KT 10SM CLR 12/11 A3003 RMK AO2 SLP170 T01170111 10194 20117 51001

2010/08/08 05:50
KORS 080550Z AUTO 00000KT 10SM OVC034 16/16 A2987 RMK AO2

2010/08/08 05:52
KOUN 080552Z AUTO 15008KT 10SM CLR 30/22 A2986 RMK AO2

2010/08/08 05:53
KPIL 080553Z AUTO 16009KT 10SM CLR 30/26 A2991 RMK AO2 SLP128 T03000256 10328 20300 403670278 50008

2010/08/08 05:50
KPLU 080550Z AUTO 23003KT 10SM FEW019 FEW033 BKN048 17/16 A2991 RMK AO2

2010/08/08 05:52
KPPF 080552Z AUTO 00000KT 9SM CLR 26/24 A2988 RMK AO2 SLP105 T02610239 10322 20261 403390233 51003

2010/08/08 05:53
KPQL 080553Z AUTO 00000KT 6SM -RA BR SCT045 SCT060 BKN085 26/25 A2991 RMK AO2 LTG DSNT SE TSE47RAB27 SLP129 P0003 60047 T02560250 10306 20250 403560250 50003

2010/08/08 05:53
KPSX 080553Z AUTO 19014G22KT 10SM CLR 31/24 A2991 RMK AO2 SLP127 T03060244 10328 20300 403500289 50007

2010/08/08 05:48
KPVJ 080548Z AUTO 17004KT 10SM CLR 28/22 A2985 RMK AO2

2010/08/08 05:52
KPYM 080552Z AUTO 00000KT 10SM CLR 19/17 A3004 RMK AO2 SLP171 T01890167 10228 20167 51004

2010/08/08 05:52
KRAP 080552Z AUTO 35020G27KT 10SM CLR 22/13 A2985 RMK AO2 PK WND 34029/0539 SLP076 T02170128 10322 20206 53013 $

2010/08/08 05:53
KRKP 080553Z AUTO 18009G17KT 10SM SCT020 SCT026 29/26 A2990 RMK AO2 SLP125 T02940256 10311 20289 403440267 50006

2010/08/08 05:51
KRKR 080551Z AUTO 00000KT 10SM SCT100 28/27 A2988 RMK AO2 LTG DSNT SW

2010/08/08 05:48
KSSC 080548Z 00000KT 8SM R22/5500FT CLR 25/23 A2993 RMK AO2A SLP133 $

2010/08/08 05:51
KNTU 080551Z 00000KT 10SM BKN010 BKN060 24/23 A2999 RMK AO2 $

2010/08/08 05:50
EFHK 080550Z 06007KT 8000 FEW050CB SCT100 BKN150 26/21 Q1012 NOSIG

2010/08/08 05:50
EFJY 080550Z AUTO 14002KT CAVOK 23/20 Q1013

2010/08/08 05:50
EFKU 080550Z AUTO 10005KT 060V130 CAVOK 24/20 Q1014

2010/08/08 05:50
EFOU 080550Z AUTO 10003KT CAVOK 21/20 Q1015

2010/08/08 05:50
EFRO 080550Z AUTO 05004KT CAVOK 18/16 Q1017

2010/08/08 05:50
EFTP 080550Z 13005KT 100V180 8000 BKN100 23/21 Q1012

2010/08/08 05:50
EFTU 080550Z AUTO 12004KT 100V170 CAVOK 22/20 Q1011

2010/08/08 05:50
EFVA 080550Z AUTO 05006KT 020V090 9999 FEW003 SCT180 ///// Q////

2010/08/08 05:53
KUTS 080553Z AUTO 19008KT 10SM CLR 28/23 A2991 RMK AO2 SLP122 T02780233 10328 20278 403670250 51011

2010/08/08 05:53
KWDG 080553Z AUTO 15009KT 10SM CLR 27/23 A2986 RMK AO2

2010/08/08 05:48
KWWR 080548Z AUTO 17012G16KT 10SM CLR 30/20 A2989 RMK AO2 T03010200 10351 20270 403620235

2010/08/08 05:50
KBTA 080550Z AUTO 17009KT 10SM CLR 26/21 A2979 RMK AO2 T02620214 10304 20261 403150210

2010/08/08 05:50
KBVN 080550Z AUTO 00000KT 10SM CLR 24/22 A2979 RMK AO2 T02400215 10317 20240 403280197

2010/08/08 05:45
KBVS 080545Z AUTO 19003KT 1 3/4SM OVC002 17/17 A2991 RMK A01 P003

2010/08/08 05:52
KCFV 080552Z AUTO 15005KT 8SM CLR 27/24 A2987 RMK AO2 SLP103 T02670239 10328 20261 403390239 51003

2010/08/08 05:50
KCHK 080550Z AUTO 15005KT 10SM CLR 28/23 A2985 RMK AO2

2010/08/08 05:52
KCKV 080552Z AUTO 04003KT 6SM HZ CLR 21/18 A2996 RMK AO2 SLP137 T02060178 10289 20206 403330178 50002

2010/08/08 05:50
KCLK 080550Z AUTO 16008KT 10SM CLR 28/19 A2986 RMK AO2

2010/08/08 05:53
KCOT 080553Z AUTO 14008KT 10SM CLR 28/23 A2989 RMK AO2 SLP113 T02830228 10361 20283 403830233 51015

2010/08/08 05:50
KCQB 080550Z AUTO 12003KT 7SM 27/24 A2986 RMK AO2 TSNO

2010/08/08 05:52
KCQX 080552Z AUTO 20007KT 10SM CLR 21/18 A3005 RMK AO2 SLP178 T02060183 10217 20206 51004

2010/08/08 05:50
KCUH 080550Z AUTO 15005KT 10SM CLR 28/24 A2985 RMK AO2

2010/08/08 05:52
KCVG 080552Z 00000KT 10SM CLR 22/15 A3000 RMK AO2 SLP147 T02170150 10278 20200 51001

2010/08/08 05:53
KCXO 080553Z AUTO 00000KT 10SM CLR 26/24 A2991 RMK AO2 SLP125 T02610239 10317 20256 403610256 50010 TSNO

2010/08/08 05:52
KDCA 080552Z 15004KT 10SM SCT095 23/16 A3000 RMK AO2 SLP159 T02280156 10272 20228 50004

2010/08/08 05:52
KDDC 080552Z AUTO 15009KT 10SM CLR 26/18 A2986 RMK AO2 SLP073 T02610183 10333 20250 403830206 53003

2010/08/08 05:50
KDVO 080550Z AUTO 00000KT 10SM CLR 12/11 A2983 RMK AO2

2010/08/08 05:53
KDWH 080553Z 18005KT 10SM CLR 28/24 A2991 RMK AO2 SLP126 T02780244 10306 20272 403560261 50010

2010/08/08 05:53
KESF 080553Z AUTO 00000KT 8SM CLR 26/24 A2991 RMK AO2 SLP128 T02560239 10300 20256 403610239 51007

2010/08/08 05:52
KEST 080552Z AUTO 19010KT 8SM CLR 24/22 A2975 RMK AO2 SLP064 T02440222 10283 20239 403000178 51001

2010/08/08 05:50
KFET 080550Z AUTO 16008KT 10SM CLR 27/22 A2978 RMK AO2 T02660216 10310 20266 403210221

2010/08/08 05:52
KFIT 080552Z AUTO 00000KT 10SM CLR 13/11 A3003 RMK AO2 SLP169 T01330106 10222 20133 51002

2010/08/08 05:54
KGCD 080554Z AUTO 30008KT 10SM CLR 20/09 A2992 RMK AO2 T02010087 10292 20201

2010/08/08 05:51
KGCM 080551Z AUTO 10006KT 10SM CLR 24/23 A2989 RMK AO2

2010/08/08 05:51
KGMJ 080551Z AUTO 00000KT 10SM CLR 24/22 A2989 RMK AO2

2010/08/08 05:53
KGPT 080553Z AUTO 00000KT 10SM FEW043 30/26 A2990 RMK AO2 SLP126 T03000261 10339 20294 403670267 50007

2010/08/08 05:53
KHBG 080553Z AUTO 00000KT 10SM FEW044 27/25 A2991 RMK AO2 RAE0459 SLP125 P0000 60000 T02670250 10317 20256 403610256 58001

2010/08/08 05:52
KHIE 080552Z AUTO 00000KT 10SM CLR 07/07 A3002 RMK AO2 SLP168 60000 T00670067 10150 20067 53001

2010/08/08 05:53
KHOU 080553Z 17004KT 10SM CLR 27/24 A2991 RMK AO2 SLP132 T02720244 10317 20272 403500261 50008

2010/08/08 05:52
KHUT 080552Z AUTO 15008KT 10SM CLR 28/22 A2986 RMK AO2 SLP082 T02830222 10350 20278 403780206 53006

2010/08/08 05:52
KIAD 080552Z 00000KT 10SM CLR 18/16 A3000 RMK AO2 SLP157 T01780156 10267 20178 51004 $

2010/08/08 05:53
KIAH 080553Z 19003KT 10SM CLR 29/24 A2991 RMK AO2 SLP128 T02890244 10328 20289 403670272 50009

2010/08/08 05:50
KIDP 080550Z AUTO 16004KT 7SM CLR 24/22 A2986 RMK AO2

2010/08/08 05:52
KIEN 080552Z AUTO 00000KT 10SM CLR 22/15 A2983 RMK AO2 SLP061 T02170150 10350 20206 51007

2010/08/08 05:52
KIJD 080552Z AUTO 00000KT 10SM CLR 14/13 A3004 RMK AO2 SLP170 T01390133 10222 20139 51006

2010/08/08 05:52
KISN 080552Z 32004KT 10SM CLR 18/16 A2970 RMK AO2 SLP047 T01830156 10306 20183 403170172 53006

2010/08/08 05:51
KJSV 080551Z AUTO 07003KT 10SM CLR 24/22 A2988 RMK AO2

2010/08/08 05:50
KLAM 080550Z AUTO 21005KT 10SM CLR 18/11 A3024 RMK AO2

2010/08/08 05:53
KLBX 080553Z AUTO 00000KT 8SM CLR 26/25 A2992 RMK AO2 SLP131 T02610250 10311 20261 403330256 50007 $

2010/08/08 05:53
KLCH 080553Z AUTO 00000KT 10SM CLR 27/25 A2992 RMK AO2 SLP138 T02670250 10317 20267 403440244 50004 $

2010/08/08 05:53
KLFK 080553Z AUTO 17004KT 10SM CLR 28/24 A2991 RMK AO2 SLP122 T02780244 10350 20272 403720239 51008

2010/08/08 05:53
KLFT 080553Z AUTO 21004KT 10SM CLR 27/24 A2992 RMK AO2 SLP132 T02670244 10306 20267 403500250 50003

2010/08/08 05:53
KLVJ 080553Z AUTO 17003KT 10SM CLR 28/24 A2993 RMK AO2 SLP133 T02780244 10317 20278 403390261 50007

2010/08/08 05:52
KLWC 080552Z AUTO 13005KT 7SM CLR 24/23 A2985 RMK AO2 SLP099 T02390228 10322 20239 403440194 51003

2010/08/08 05:53
KMCB 080553Z AUTO 00000KT 7SM FEW044 25/23 A2993 RMK AO2 SLP129 T02500233 10289 20250 403390233 51004

2010/08/08 05:52
KMDH 080552Z AUTO 00000KT 5SM BR FEW090 19/17 A2995 RMK AO2 SLP137 T01940172 10300 20194 403330167 50003

2010/08/08 05:52
KMEB 080552Z AUTO 00000KT 8SM CLR 24/22 A2996 RMK AO2 SLP143 T02390217 10294 20233 58001

2010/08/08 05:53
KMFE 080553Z AUTO 15009KT 10SM CLR 27/25 A2991 RMK AO2 SLP125 T02720250 10333 20272 403610256 50010 $

2010/08/08 05:53
KMSY 080553Z 24005KT 10SM FEW050 SCT250 28/25 A2992 RMK AO2 SLP133 T02830250 10317 20283 403500267 50001

2010/08/08 05:55
KMYR 080555Z AUTO 00000KT 5SM CLR 24/22 A2996 RMK AO1 57007

2010/08/08 05:53
KNEW 080553Z AUTO 25011KT 10SM CLR 31/25 A2992 RMK AO2 SLP125 T03060250 10311 20300 403500294 50001 TSNO

2010/08/08 05:55
KOAJ 080555Z AUTO 00000KT 5SM FEW018 22/21 A2996 RMK AO1 10250 20220 57003

2010/08/08 05:55
KOCF 080555Z AUTO 00000KT 10SM BKN100 25/24 A2995 RMK AO1 LTG DSNT SW 60014 10290 20240 54000

2010/08/08 05:53
GCLP 080553Z 36013KT 9999 FEW020 23/08 Q1010 NOSIG

2010/08/08 05:50
LLBG 080550Z 33003KT 9999 SCT023 29/23 Q1009 NOSIG

2010/08/08 05:50
LLET 080550Z 02014KT CAVOK 33/19 Q1007

2010/08/08 05:50
LLOV 080550Z 29004KT CAVOK 28/19 Q1011

2010/08/08 05:52
KSDB 080552Z AUTO 22003KT 10SM CLR 16/03 A3001 RMK AO2 SLP112 T01610028 10233 20150 51009 TSNO $ 

2010/08/08 05:52
KNRB 080552Z AUTO 22003KT 10SM BKN026 BKN042 26/23 A2993 RMK AO2 SLP133 60000 T02560233 10261 20250 50000 

2010/08/08 05:52
KABI 080552Z 16008KT 10SM CLR 28/19 A2992 RMK AO2 SLP101 T02780194 10356 20278 403720233 51013 $ 

2010/08/08 05:50
EYSA 080550Z 16006KT CAVOK 22/19 Q1012

2010/08/08 05:50
EDDB 080550Z 27003KT CAVOK 17/15 Q1014 NOSIG

2010/08/08 05:50
EDDC 080550Z 20005KT CAVOK 16/15 Q1015 NOSIG

2010/08/08 05:50
EDDG 080550Z 30001KT 2200 1200E R25/1300U BCFG BR FEW030 SCT100 15/15 Q1014 NOSIG

2010/08/08 05:50
EDDP 080550Z 23006KT CAVOK 17/13 Q1014 NOSIG

2010/08/08 05:50
EDDR 080550Z 27008KT 9999 FEW020 SCT060 17/14 Q1016 NOSIG

2010/08/08 05:50
EDDT 080550Z 28003KT CAVOK 17/14 Q1014 NOSIG

2010/08/08 05:50
EDDV 080550Z 36002KT 9999 FEW035 BKN060 17/15 Q1014 NOSIG

2010/08/08 05:50
EDDW 080550Z 25002KT 9999 FEW038 BKN046 18/17 Q1014 NOSIG

2010/08/08 05:52
MMGL 080552Z 00000KT 12SM SCT100 BKN300 18/16 A3018 RMK SLP095 52010 911 8/038

2010/08/08 05:52
MMPR 080552Z 01003KT 12SM SKC 28/25 A2987 RMK SLP118 52022 905

2010/08/08 05:51
MMSP 080551Z 07006KT 8SM FEW015 SCT020 BKN080 19/15 A3026 RMK SLP096 52011 900 8/460 CI

2010/08/08 05:51
PTKK 080551Z VRB05KT 15SM -SHRA SCT014CB BKN120 OVC280 30/25 A2973 RMK SHRAB45 CB ALQDS SLP071 60000 8/371 T03040248 10322 20300 57007

2010/08/08 05:50
BGSF 080550Z 06007KT 9999 FEW200 05/02 Q1013

2010/08/08 05:50
BGBW 080550Z AUTO 08002KT 9999NDV FEW100/// BKN130/// 12/07 Q1013

2010/08/08 05:50
BGGH 080550Z AUTO 02005KT 9999NDV -RA OVC060/// 10/07 Q1012

2010/08/08 05:50
BGJN 080550Z AUTO VRB01KT 9999NDV NCD 07/01 Q1013

2010/08/08 05:50
ESGG 080550Z 01005KT 9999 SCT002 BKN105 16/15 Q1013

2010/08/08 05:50
ESGJ 080550Z AUTO 35006KT 9999NDV BKN016/// 15/13 Q1012 RERA

2010/08/08 05:50
ESMK 080550Z AUTO 32006KT 9999NDV -DZ SCT035/// BKN045/// OVC051/// 17/15 Q1011 RERA

2010/08/08 05:50
ESMQ 080550Z AUTO 35004KT 9999NDV OVC002/// 16/16 Q1010

2010/08/08 05:50
ESMS 080550Z 34006KT 9000 -RA BR BKN088 17/16 Q1012

2010/08/08 05:50
ESMT 080550Z AUTO VRB02KT 9999NDV BKN081/// 16/15 Q1012

2010/08/08 05:50
ESMX 080550Z AUTO 35007KT 5000NDV RA FEW004/// OVC005/// 15/14 Q1011 REDZ

2010/08/08 05:50
ESTA 080550Z AUTO 32005KT 9999NDV FEW099/// 18/16 Q1012

2010/08/08 05:50
ESTL 080550Z AUTO 31005KT 9999NDV -RA BKN089/// 17/16 Q1012

2010/08/08 05:51
KBFI 080551Z 22006KT 10SM BKN011 BKN020 OVC095 17/14 A2991

2010/08/08 05:45
KMWA 080545Z AUTO 12004KT 7SM CLR 24/17 A2997

2010/08/08 05:45
KSAR 080545Z AUTO 12004KT 5SM BR CLR 22/19 A2995

2010/08/08 05:46
KSLO 080546Z AUTO 13004KT 7SM CLR 22/17 A2996

2010/08/08 05:45
KTAZ 080545Z AUTO 15005KT 7SM CLR 21/18 A2994

2010/08/08 05:45
KTIP 080545Z AUTO 18004KT 7SM CLR 20/18 A2997

2010/08/08 05:48
KEHA 080548Z AUTO 19009KT 24/16

2010/08/08 05:50
HLLB 080550Z 36007KT 9999 SCT015 24/19 Q1014 

2010/08/08 05:52
KNHK 080552Z AUTO 00000KT 10SM CLR 20/18 A2999 RMK AO2 SLP155 T02000178 10261 20200 50002 

2010/08/08 05:48
KIZA 080548Z AUTO 00000KT 10SM CLR 12/10 A2990

2010/08/08 05:50
KVLD 080550Z AUTO 00000KT 1 3/4SM BR FEW002 24/24 A2993

2010/08/08 05:51
KBFI 080551Z 22006KT 10SM BKN011 BKN020 OVC095 17/14 A2991

2010/08/08 05:50
LXGB 080550Z 10009KT 9999 FEW013 SCT140 BKN250 24/20 Q1017 NOSIG

2010/08/08 05:50
BGBW 080550Z AUTO 08002KT 9999NDV FEW100/// BKN130/// 12/07 Q1013

2010/08/08 05:50
BGGH 080550Z AUTO 02005KT 9999NDV -RA OVC060/// 10/07 Q1012

2010/08/08 05:50
BGJN 080550Z AUTO VRB01KT 9999NDV NCD 07/01 Q1013

2010/08/08 05:50
BGSF 080550Z 06007KT 9999 FEW200 05/02 Q1013

2010/08/08 05:50
EFKU 080550Z AUTO 10005KT 060V130 CAVOK 24/20 Q1014

2010/08/08 05:55
KBLV 080555Z AUTO 00000KT 10SM R14R/5500VP6000FT CLR 22/19 A2994 RMK AO2 SLP136 T02160191 10289 20216 403060182 51005

2010/08/08 05:55
KLRF 080555Z AUTO 00000KT 10SM CLR 26/25 A2991 RMK AO2 SLP126 T02640248 10304 20263 403360237 51005

2010/08/08 05:55
KMGE 080555Z AUTO 00000KT 10SM CLR 25/22 A2998 RMK AO2 SLP139 T02500224 10305 20249 57005 VISNO RWY11 CHINO RWY11 $

2010/08/08 05:55
KRDR 080555Z AUTO 00000KT 7SM R17/4500VP6000FT CLR 20/20 A2965 RMK AO2 SLP054 T01960196 10289 20196 403070155 53006 $

2010/08/08 05:50
LLBG 080550Z 33003KT 9999 SCT023 29/23 Q1009 NOSIG

2010/08/08 05:50
LLET 080550Z 02014KT CAVOK 33/19 Q1007

2010/08/08 05:50
LLOV 080550Z 29004KT CAVOK 28/19 Q1011

2010/08/08 06:00
LPLA 080600Z 04005KT 9999 FEW020 SCT040 20/18 Q1024

2010/08/08 06:00
MGGT 080600Z 36006KT 9999 BKN012 18/17 Q1025 A3027 VOL/PACAYA EN ACTIVIDAD

2010/08/08 06:00
MGHT 080600Z 00000KT 9999 FEW020 16/16 QFE 818/9

2010/08/08 06:00
MGPB 080600Z 00000KT 9999 FEW016 25/25 Q1012 A2988

2010/08/08 06:00
MGSJ 080600Z 00000KT CAVOK 25/24 Q1013 A2991 BKN090

2010/08/08 05:50
MSAC 080550Z 07003KT 9999 SCT030 SCT100 BKN180 25/25 Q1011

2010/08/08 05:50
MSLP 080550Z 00000KT 9999 FEW027 SCT080 26/24 Q1012 A2990

2010/08/08 05:50
MSSS 080550Z 00000KT 9999 SCT027 FEW040CB 23/22 Q1016 A3003 CB LTGIC TO N/E

2010/08/08 05:50
NSTU 080550Z 09018KT 10SM SCT018 BKN040 27/25 A2993 RMK SLP137 60001 8/800 T02680246 10283 20261 51008

2010/08/08 05:50
OAFZ 080550Z 04003KT 9999 SCT120 35/02 Q1013 BLU/

2010/08/08 06:00
OKBK 080600Z 36006KT 6000 SKC 40/07 Q0999 NOSIG

2010/08/08 05:55
KRDR 080555Z AUTO 00000KT 7SM R17/4500VP6000FT CLR 20/20 A2965 RMK AO2 SLP054 T01960196 10289 20196 403070155 53006 $

2010/08/08 05:50
MSLP 080550Z 00000KT 9999 FEW027 SCT080 26/24 Q1012 A2990

2010/08/08 05:52
K9V9 080552Z AUTO 26005KT 24/19 A2973 RMK AO2 SLP049 T02440194 10333 20239 403500228 51010 PWINO TSNO 

2010/08/08 05:50
K4HV 080550Z 00000KT 10SM BKN080 16/14 RMK NOSPECI T01560144 10244 20156 53005 

2010/08/08 05:53
KCUT 080553Z AUTO 06004KT 10SM CLR 17/10 A3000 RMK AO2 SLP084 T01720100 10256 20156 53006 TSNO 

2010/08/08 05:53
KTRI 080553Z 00000KT 7SM SCT055 19/17 A3002 RMK AO2 SLP145 T01940167 10272 20183 58003 

2010/08/08 05:50
K4BL 080550Z 18004KT 40SM SCT020 OVC100 16/13 RMK SLP131 NOSPECI 60001 8/27/ T01610133 10183 20156 51007 

2010/08/08 05:53
KSAV 080553Z 00000KT 8SM FEW015 25/24 A2992 RMK AO2 SLP132 T02500239 10289 20250 58005 

2010/08/08 05:53
KTYS 080553Z 00000KT 9SM CLR 22/19 A2997 RMK AO2 SLP135 T02170194 10300 20217 58001 

2010/08/08 05:53
KLND 080553Z AUTO 26005KT 10SM CLR 21/03 A2998 RMK AO2 SLP071 T02110033 10300 20206 51005 

2010/08/08 05:53
KHTL 080553Z AUTO 22008KT 10SM SCT090 21/19 A2986 RMK AO2 SLP106 T02110189 10244 20206 55007 

2010/08/08 05:53
KFAR 080553Z 18004KT 10SM CLR 23/19 A2964 RMK AO2 SLP032 T02280189 10306 20228 403170183 51005 

2010/08/08 05:53
KMSN 080553Z 19008G16KT 9SM CLR 23/19 A2984 RMK AO2 SLP098 T02330189 10267 20233 402830150 55005 

2010/08/08 05:53
KCQC 080553Z AUTO 30006KT 10SM FEW100 17/11 A3021 RMK AO2 SLP121 T01720106 10261 20161 51010 TSNO 

2010/08/08 05:53
KRTN 080553Z AUTO 00000KT 10SM FEW120 19/12 A3012 RMK AO2 SLP092 T01940122 10294 20189 51012 TSNO 

2010/08/08 05:51
KGDP 080551Z AUTO 25015KT 10SM SCT080 BKN110 24/12 A3015 RMK AO2 WSHFT 0521 SLP110 T02440117 10294 20244 51015 TSNO 

2010/08/08 05:53
KBEH 080553Z AUTO 19007KT 10SM CLR 22/18 A2991 RMK AO2 SLP122 T02220178 10261 20222 56004

2010/08/08 05:53
KBFD 080553Z AUTO 00000KT 10SM CLR 09/09 A3007 RMK AO2 SLP176 T00940089 10189 20094 53003

2010/08/08 05:53
KBFF 080553Z AUTO 19005KT 10SM SCT120 27/10 A2990 RMK AO2 SLP063 T02670100 10344 20250 51015

2010/08/08 05:53
KBFI 080553Z 22006KT 10SM BKN011 BKN020 OVC095 17/14 A2991 RMK AO2 SLP127 60007 T01720144 10183 20172 51005

2010/08/08 05:53
KBGM 080553Z AUTO 16003KT 10SM CLR 15/10 A3006 RMK AO2 SLP171 T01500100 10217 20150 51001

2010/08/08 05:53
KBGR 080553Z 00000KT 10SM SCT080 11/10 A3001 RMK AO2 SLP159 T01110100 10161 20094 51002

2010/08/08 05:53
KBHK 080553Z AUTO 33003KT 10SM CLR 21/11 A2978 RMK AO2 SLP055 T02060106 10322 20194 50004

2010/08/08 05:53
KBHM 080553Z 00000KT 10SM CLR 27/20 A2994 RMK AO2 SLP128 T02670200 10333 20267 403560244 58006

2010/08/08 05:53
KBIL 080553Z 24007KT 10SM CLR 20/12 A2982 RMK AO2 SLP060 T02000117 10233 20189 53002 $

2010/08/08 05:53
KBIV 080553Z AUTO 20010KT 10SM FEW070 24/17 A2989 RMK AO2 SLP115 T02440172 10267 20233 56005

2010/08/08 05:53
KBKE 080553Z AUTO 00000KT 10SM CLR 14/09 A2990 RMK AO2 SLP105 T01440089 10283 20144 51017

2010/08/08 05:53
KBKL 080553Z 17007KT 10SM CLR 22/15 A2997 RMK AO2 SLP145 T02220150 10261 20222 55001

2010/08/08 05:53
KBKV 080553Z AUTO 00000KT 10SM FEW028 SCT055 BKN070 27/24 A2994 RMK AO2 LTG DSNT N SLP138 T02670244 10283 20267 58005

2010/08/08 05:53
KBLI 080553Z AUTO 16004KT 10SM OVC003 17/16 A2989 RMK AO2 SLP126 60003 T01670156 10172 20167 58002

2010/08/08 05:53
KBMG 080553Z AUTO 00000KT 7SM CLR 17/17 A2998 RMK AO2 SLP145 T01720167 10256 20161 51003

2010/08/08 05:53
KBNA 080553Z 04003KT 8SM CLR 23/18 A2996 RMK AO2 SLP138 T02330183 10300 20233 403330194 58001 $

2010/08/08 05:53
KBOI 080553Z 13006KT 10SM CLR 24/04 A2979 RMK AO2 SLP055 T02440044 10322 20233 51010 $

2010/08/08 05:55
KBOW 080555Z AUTO 00000KT 10SM CLR 25/25 A2996 RMK AO2 LTG DSNT NW

2010/08/08 05:53
KBPI 080553Z AUTO 17006KT 10SM CLR 14/04 A3012 RMK AO2 SLP100 T01440039 10244 20133 53008 TSNO

2010/08/08 05:53
KBPK 080553Z AUTO 12003KT 8SM BKN047 26/21 A2993 RMK AO2 SLP124 T02560211 10306 20256 403170211 51009

2010/08/08 05:53
KBRD 080553Z AUTO 00000KT 10SM CLR 21/18 A2968 RMK AO2 SLP043 60029 T02060183 10256 20200 402720139 50011

2010/08/08 05:53
KBRL 080553Z AUTO 19007KT 9SM CLR 24/20 A2989 RMK AO2 SLP115 T02440200 10289 20244 403110183 51004

2010/08/08 05:53
KBTL 080553Z AUTO 20007KT 9SM SCT095 21/17 A2994 RMK AO2 SLP132 T02060172 10250 20206 55003 TSNO

2010/08/08 05:53
KBTM 080553Z AUTO 17006KT 10SM CLR 12/09 A2999 RMK AO2 SLP104 60004 T01220094 10250 20122 50008

2010/08/08 05:53
KBUR 080553Z 18004KT 10SM CLR 16/12 A2990 RMK AO2 SLP114 T01610122 10244 20161 51019

2010/08/08 05:51
KBVE 080551Z AUTO 26005KT 10SM SCT032 BKN039 BKN047 30/25 A2993 RMK AO2 SLP135 T03000250 10317 20300 403330250 58000 TSNO

2010/08/08 05:53
KBVO 080553Z AUTO 00000KT 10SM CLR 26/23 A2986 RMK AO2 SLP099 T02610233 10322 20244 403390228 51004

2010/08/08 05:53
KBVY 080553Z AUTO 00000KT 10SM CLR 12/09 A3001 RMK AO2 SLP158 T01220094 10222 20122 51004

2010/08/08 05:53
KBWG 080553Z AUTO 00000KT 7SM CLR 21/19 A2997 RMK AO2 SLP144 T02060189 10283 20206 403170183 50002

2010/08/08 05:53
KBYG 080553Z AUTO 19006KT 10SM CLR 17/10 A2997 RMK AO2 SLP088 T01670100 10239 20156 50004

2010/08/08 05:53
KBYI 080553Z AUTO 00000KT 10SM CLR 17/09 A2987 RMK AO2 SLP073 T01670089 10283 20156 50010

2010/08/08 05:53
KCAG 080553Z AUTO 12003KT 10SM FEW065 OVC090 14/12 A3017 RMK AO2 SLP140 60006 T01390122 10161 20133 58004

2010/08/08 05:53
KCCR 080553Z AUTO 19013KT 10SM CLR 15/11 A2980 RMK AO2 SLP078 T01500106 10261 20150 50009 TSNO

2010/08/08 05:53
KCDC 080553Z AUTO 26012G16KT 10SM VCTS BKN090 OVC110 18/09 A3011 RMK AO2 TSB47 SLP124 T01830094 10267 20172 51020

2010/08/08 05:55
KCDN 080555Z AUTO 03003KT 5SM BR CLR 25/24 A2996 RMK A02 P000

2010/08/08 05:59
K36U 080559Z AUTO 29004KT 10SM CLR 16/09 A3008 RMK AO2

2010/08/08 05:50
KPMV 080550Z AUTO 17010KT 10SM CLR 27/23 A2980 RMK AO2 T02660228 10312 20266 403260215

2010/08/08 05:53
KAAF 080553Z AUTO 00000KT 8SM CLR 27/26 A2990 RMK AO2 SLP124 T02670256 10283 20267 58009

2010/08/08 05:53
KABR 080553Z AUTO 35005KT 10SM CLR 24/22 A2966 RMK AO2 SLP032 T02390217 10333 20228 403440206 51010

2010/08/08 05:53
KABY 080553Z 00000KT 9SM CLR 24/24 A2995 RMK AO2 SLP138 60005 T02440239 10261 20244 55002

2010/08/08 05:53
KACK 080553Z AUTO 18011KT 10SM CLR 21/18 A3005 RMK AO2 SLP176 T02060178 10206 20189 52004 TSNO

2010/08/08 05:53
KACV 080553Z AUTO 00000KT 1SM R32/5000VP6000FT BR VV001 12/12 A2995 RMK AO2 SLP147 T01220122 10150 20122 50004

2010/08/08 05:53
KADG 080553Z AUTO 23004KT 7SM CLR 18/16 A2996 RMK AO2 SLP142 T01830161 10256 20183 58003

2010/08/08 05:53
KAFW 080553Z 19004KT 10SM CLR 31/21 A2985 RMK AO2 SLP090 T03060206 10372 20300 403890256 51010

2010/08/08 05:53
KAGC 080553Z 15003KT 6SM HZ CLR 19/14 A3003 RMK AO2 SLP166 T01890139 10250 20172 50002

2010/08/08 05:53
KAGS 080553Z AUTO 00000KT 6SM BR CLR 24/23 A2993 RMK AO2 SLP132 T02390233 10289 20239 56006

2010/08/08 05:53
KAIA 080553Z AUTO 20019G28KT 10SM FEW120 27/09 A2989 RMK AO2 PK WND 22036/0531 SLP062 T02720094 10344 20217 51013

2010/08/08 05:53
KAKO 080553Z AUTO 14008KT 10SM FEW120 22/12 A2996 RMK AO2 SLP074 60000 T02170122 10328 20200 58001 TSNO

2010/08/08 05:53
KALW 080553Z AUTO 18011KT 10SM CLR 23/11 A2984 RMK AO2 SLP094 T02280106 10311 20228 51026

2010/08/08 05:53
KAMA 080553Z AUTO 16010KT 10SM CLR 26/17 A2997 RMK AO2 SLP086 T02560172 10328 20244 403440211 51006 TSNO

2010/08/08 05:53
KAMG 080553Z AUTO 00000KT 6SM BR BKN002 OVC010 24/23 A2994 RMK AO2 SLP135 T02390233 10256 20233 53000

2010/08/08 05:53
KAMW 080553Z AUTO 19010KT 10SM CLR 25/21 A2982 RMK AO2 SLP086 T02500211 10289 20228 403060183 50001

2010/08/08 05:53
KANB 080553Z AUTO 00000KT 10SM CLR 26/21 A2994 RMK AO2 SLP126 T02560211 10322 20250 403440222 58003

2010/08/08 05:53
KAOH 080553Z AUTO 17007KT 10SM CLR 19/16 A2999 RMK AO2 SLP150 T01890161 10250 20189 57001 $

2010/08/08 05:53
KAOO 080553Z AUTO 00000KT 5SM BR CLR 15/14 A3007 RMK AO2 SLP174 T01500139 10222 20150 51004

2010/08/08 05:53
KAPA 080553Z 18008KT 10SM BKN100 21/12 A3007 RMK AO2 SLP097 T02060117 10261 20194 51010

2010/08/08 05:53
KAPF 080553Z AUTO 00000KT 10SM FEW026 29/26 A2996 RMK AO2 SLP145 T02890256 10306 20289 58006

2010/08/08 05:53
KARB 080553Z AUTO 00000KT 7SM CLR 18/16 A2994 RMK AO2 SLP133 T01830161 10250 20167 58001 $

2010/08/08 05:53
KASE 080553Z 00000KT 10SM 11/11 A3025 RMK AO2 SLP127 6//// T01110111 10178 20111 58002 $

2010/08/08 05:53
KASX 080553Z AUTO 24005KT 7SM VCTS -RA FEW001 BKN021 19/19 A2975 RMK AO2 LTG DSNT N AND NW TSE16B17E32B45 SLP070 P0011 60039 T01890189 10206 20183 402670100 51013

2010/08/08 05:53
KATY 080553Z AUTO 18004KT 7SM CLR 24/23 A2969 RMK AO2 SLP038 T02390233 10311 20239 403280200 51006

2010/08/08 05:53
KAUG 080553Z AUTO 00000KT 10SM CLR 13/12 A3001 RMK AO2 SLP161 T01280122 10178 20128 50001

2010/08/08 05:53
KAWM 080553Z AUTO 00000KT 8SM CLR 26/25 A2990 RMK AO2 SLP118 T02610250 10322 20261 403440233 50003

2010/08/08 05:53
KAXN 080553Z AUTO 15003KT 10SM CLR 23/22 A2969 RMK AO2 SLP044 60006 T02280217 10283 20206 403000172 55000

2010/08/08 05:53
KAZO 080553Z AUTO 19008KT 9SM BKN090 22/18 A2993 RMK AO2 SLP130 T02170178 10256 20217 55004

2010/08/08 05:53
KBAF 080553Z 00000KT 10SM CLR 13/12 A3002 RMK AO2 SLP163 T01280117 10228 20128 52003

2010/08/08 05:53
KBBW 080553Z AUTO 15005KT 10SM CLR 24/22 A2982 RMK AO2 SLP068 T02440217 10317 20222 403220194 50005

2010/08/08 05:53
KBCE 080553Z AUTO 00000KT 10SM SCT012 BKN017 11/09 A3027 RMK AO2 SLP157 T01060094 10156 20100 51009 $

2010/08/08 05:53
KBDE 080553Z AUTO 08003KT 10SM CLR 17/15 A2971 RMK AO2 SLP058 T01670150 10228 20167 402500106 53001

2010/08/08 05:53
KCDR 080553Z AUTO 11003KT 10SM -RA FEW080 BKN120 23/14 A2983 RMK AO2 RAB01E24B43 SLP067 P0000 60000 T02330144 10344 20211 53012

2010/08/08 05:53
KCDS 080553Z AUTO 17007KT 10SM CLR 26/20 A2989 RMK AO2 SLP090 T02560200 10344 20256 403720222 50008

2010/08/08 05:53
KCDW 080553Z AUTO 00000KT 10SM CLR 19/17 A3001 RMK AO2 SLP166 T01940172 10261 20189 51004 TSNO

2010/08/08 05:53
KCEW 080553Z AUTO 00000KT 4SM BR CLR 24/24 A2993 RMK AO2 SLP130 T02440239 10256 20239 403560239 56006

2010/08/08 05:53
KCEZ 080553Z AUTO 30005KT 10SM SCT070 16/15 A3016 RMK AO2 SLP141 60008 T01560150 10194 20156 55002

2010/08/08 05:53
KCGI 080553Z AUTO 08003KT 10SM CLR 23/18 A2993 RMK AO2 SLP131 T02330178 10317 20211 403330183 51005 TSNO

2010/08/08 05:53
KCHO 080553Z AUTO 00000KT 10SM CLR 17/16 A3002 RMK AO2 SLP157 T01720156 10261 20172 50003 TSNO

2010/08/08 05:53
KCKB 080553Z AUTO 00000KT 8SM CLR 15/14 A3004 RMK AO2 SLP160 T01500139 10244 20150 50002 TSNO

2010/08/08 05:55
KCKI 080555Z AUTO 00000KT 23/23 A2993 RMK AO2 P0001 PWINO

2010/08/08 05:53
KCLM 080553Z AUTO 28006KT 4SM BR OVC001 14/14 A2992 RMK AO2 SLP130 60000 T01440139 10161 20144 50004

2010/08/08 05:50
PAHZ 080550Z 00000KT 2SM -RA VV001 11/11 A2974 RMK NOSPECI

2010/08/08 05:52
PATA 080552Z AUTO 16003KT 10SM BKN043 OVC060 15/12 A2966 RMK AO2 RAB15E36 SLP045 P0001 60005 T01500117 10183 20150 53010 TSNO

2010/08/08 05:53
PHJR 080553Z 06004KT 10SM CLR 26/19 A3007 RMK AO2 SLP190 T02610189 10317 20261 53014

2010/08/08 05:50
EKKA 080550Z 33003KT 4500 BR SCT003 BKN160 16/15 Q1014

2010/08/08 05:50
EKSP 080550Z 29002KT 5000 -RA BR SCT022 BKN030 17/16 Q1014

2010/08/08 05:50
EKCH 080550Z 32008KT 280V340 9999 -RA FEW008 BKN045 19/18 Q1012 TEMPO BKN008

2010/08/08 05:50
EKBI 080550Z 33003KT 7000 BKN090 16/16 Q1015

2010/08/08 05:50
EKYT 080550Z 01004KT CAVOK 18/16 Q1014 RMK FEW120 BKN160

2010/08/08 05:50
EKRK 080550Z AUTO 31006KT 9999NDV FEW009/// BKN110/// 18/17 Q1012

2010/08/08 05:50
EKAH 080550Z AUTO 28005KT 5000NDV FEW220/// 16/15 Q1014

2010/08/08 05:50
EKEB 080550Z AUTO 06003KT 3300NDV BR OVC023/// 17/16 Q1014

2010/08/08 05:50
EKRN 080550Z AUTO 30009KT 9000NDV -RA OVC053/// 17/16 Q1011 RERA

2010/08/08 05:50
EKVD 080550Z AUTO 30004KT //// ///////// 17/16 Q1014

2010/08/08 05:50
EGHH 080550Z 31004KT 9999 BKN037 13/12 Q1020

2010/08/08 05:50
EGMC 080550Z 33006KT 9999 FEW009 BKN012 16/14 Q1018

2010/08/08 05:50
EGBB 080550Z 33004KT 8000 SCT017 14/12 Q1020

2010/08/08 05:50
EGCC 080550Z 26003KT 6000 FEW010 BKN030 15/14 Q1020

2010/08/08 05:50
EGKK 080550Z 33006KT 9999 BKN019 15/13 Q1019

2010/08/08 05:50
EGLL 080550Z 32004KT 290V010 9999 BKN022 15/13 Q1020

2010/08/08 05:50
EGPF 080550Z 25005KT 9999 SCT016 BKN024 12/10 Q1020

2010/08/08 05:50
EGPK 080550Z VRB02KT 9999 FEW015 10/09 Q1020

2010/08/08 05:50
EGSS 080550Z 34007KT 6000 BKN005 15/14 Q1019

2010/08/08 05:50
ESKN 080550Z 04009KT 5000 BR VV003 16/15 Q1011

2010/08/08 05:50
ESOE 080550Z AUTO 02007KT 9999NDV SCT038/// BKN110/// 16/14 Q1013

2010/08/08 05:50
ESOK 080550Z AUTO 35003KT 9999NDV SCT100/// 17/16 Q1014

2010/08/08 05:50
ESOW 080550Z AUTO 01008KT 9999NDV OVC035/// 16/14 Q1012

2010/08/08 05:50
ESSA 080550Z 01008KT 2000 BR OVC002 16/16 Q1011 TEMPO 5000

2010/08/08 05:50
ESSB 080550Z AUTO 01004KT 4600NDV BR OVC001/// 16/16 Q1011

2010/08/08 05:50
ESSP 080550Z AUTO 01006KT 9999NDV OVC006/// 16/15 Q1011

2010/08/08 05:50
ESSV 080550Z 09003KT 060V120 9999 2000NE VCFG BKN002 18/18 Q1009

2010/08/08 05:50
ESNG 080550Z AUTO 30003KT 9999NDV BKN051/// 14/13 Q1017

2010/08/08 05:50
ESNK 080550Z AUTO 00000KT 6000NDV -RA FEW025/// 16/15 Q1014

2010/08/08 05:50
ESNN 080550Z AUTO 32003KT 7000NDV -RA BKN044/// 16/15 Q1014

2010/08/08 05:50
ESNO 080550Z AUTO 01005KT 330V060 9999NDV -RA SCT063/// BKN081/// 16/14 Q1013

2010/08/08 05:50
ESNQ 080550Z 00000KT CAVOK 14/12 Q1018

2010/08/08 05:50
ESNS 080550Z AUTO VRB01KT 9999NDV RA ////// 17/16 Q1016 REDZ

2010/08/08 05:50
ESNU 080550Z 02006KT 350V050 CAVOK 17/14 Q1013

2010/08/08 05:50
ESNZ 080550Z AUTO 28005KT 4100NDV VV002 14/14 Q1015

2010/08/08 05:50
ESUT 080550Z AUTO VRB01KT 7000NDV VV002 10/10 Q1017

2010/08/08 06:00
SPIM 080600Z 17006KT 7000 SCT010 OVC015 14/12 Q1015 NOSIG RMK PP000

2010/08/08 05:50
EGHQ 080550Z 01005KT 9999 FEW025 13/12 Q1022

2010/08/08 05:50
EGJB 080550Z 35005KT 9999 FEW005 15/14 Q1021

2010/08/08 05:50
EGJJ 080550Z 00000KT 9999 FEW008 15/15 Q1021 NOSIG

2010/08/08 05:50
EGTE 080550Z 03002KT CAVOK 11/11 Q1021

2010/08/08 05:50
ESGL 080550Z AUTO VRB02KT 9999NDV FEW100/// 18/// Q1013

2010/08/08 05:50
ESGR 080550Z AUTO 34004KT 9999NDV FEW062/// BKN110/// 16/15 Q1012

2010/08/08 05:50
ESNL 080550Z AUTO 33007KT 9999NDV -RA FEW057/// SCT100/// 15/14 Q1015

2010/08/08 05:50
ESNX 080550Z AUTO 31001KT 9999NDV NCD 15/14 Q1017

2010/08/08 05:50
ESNY 080550Z AUTO 30006KT 9999 -RA BKN025 BKN081 16/16 Q1013

2010/08/08 05:50
ESDF 080550Z AUTO 33004KT 9999NDV OVC008/// 17/15 Q1010

2010/08/08 05:50
ESPA 080550Z AUTO 36003KT 330V040 9999NDV FEW130/// SCT170/// 19/16 Q1016

2010/08/08 05:50
ESSL 080550Z AUTO 02007KT 2900NDV DZ VV003 15/15 Q1012 RERA

2010/08/08 05:50
EKGF 080550Z 35012KT 9999 FEW008 16/16 Q1016

2010/08/08 05:50
EKHN 080550Z AUTO 03007KT 7000NDV BKN003/// BKN024/// 17/13 Q1016

2010/08/08 05:50
EKHR 080550Z AUTO 36011KT 9999NDV FEW004/// BKN006/// OVC008/// 17/17 Q1014

2010/08/08 05:50
LSGC 080550Z 00000KT 9999 FEW040 BKN075 13/11 Q1020

2010/08/08 05:50
LSGS 080550Z VRB01KT 9999 -SHRA BKN110 15/10 Q1020

2010/08/08 05:50
LSZG 080550Z 22002KT 9999 FEW060 SCT100 15/12 Q1019 NOSIG

2010/08/08 05:50
LSZS 080550Z 19002KT 9999 OVC070 04/04 Q1023

2010/08/08 06:00
ZMUB 080600Z 32009MPS 280V360 9999 BKN033 11/02 Q1012 NOSIG RMK QFE652.2 56

2010/08/08 05:54
KBTV 080554Z 12003KT 10SM CLR 12/10 A2998 RMK AO2 SLP152 T01170100 10178 20117 53002 

2010/08/08 05:53
KBNO 080553Z AUTO 15006KT 10SM CLR 17/04 A2990 RMK AO2 SLP088 T01670044 10294 20167 53013 TSNO $ 

2010/08/08 05:53
KDNK 080553Z AUTO 21006KT 10SM CLR 27/23 A2991 RMK AO2 SLP125 6//// T02720233 10328 20272 51006 PNO $ 

2010/08/08 05:53
KP92 080553Z AUTO 22004KT 30/25 A2992 RMK AO2 SLP132 T03000250 10317 20300 403280272 50003 PWINO TSNO 

2010/08/08 05:53
KLAX 080553Z 24004KT 10SM BKN012 16/12 A2991 RMK AO2 SLP127 T01610122 10183 20161 51015 

2010/08/08 05:53
KCTY 080553Z AUTO 00000KT 25/24 A2993 RMK AO2 SLP134 60017 T02500244 10272 20244 50001 PWINO TSNO 

2010/08/08 05:53
KSGR 080553Z AUTO 18006KT 10SM CLR 27/24 A2991 RMK AO2 SLP136 T02670244 10317 20267 403500256 51009 TSNO 

2010/08/08 05:53
KOVE 080553Z AUTO 14007KT 10SM CLR 26/12 A2974 RMK AO2 SLP071 T02560122 10339 20256 50013 TSNO $ 

2010/08/08 05:53
KNIP 080553Z 21003KT 10SM SCT043 BKN150 OVC250 25/24 A2993 RMK AO2 SLP132 60003 T02500239 10256 20244 50000 

2010/08/08 05:54
PGUM 080554Z 07011KT 10SM SCT024 SCT029CB 31/24 A2979 RMK AO2 SLP081 CB S MOV W 8543501 60000 T03060244 10317 20294 56009 $ 

2010/08/08 05:53
KCHA 080553Z 04003KT 10SM CLR 26/21 A2996 RMK AO2 SLP135 T02560206 10322 20250 50000 

2010/08/08 05:50
OAKB 080550Z VRB02KT 6000 SCT030 BKN140 25/19 Q1014 NOSIG RMK WHT WHT

2010/08/08 05:50
EFHF 080550Z 09003KT 8000 FEW050 BKN100 26/21 Q1012

2010/08/08 05:50
EFKA 080550Z AUTO 01005KT 340V050 CAVOK 20/18 Q1012

2010/08/08 05:50
EFKK 080550Z AUTO 02006KT 350V050 CAVOK 20/18 Q1013

2010/08/08 05:50
EFMA 080550Z AUTO 00000KT CAVOK ///// Q////

2010/08/08 05:50
EFPO 080550Z AUTO VRB02KT CAVOK 22/18 Q1011

2010/08/08 05:50
EFSI 080550Z AUTO 04004KT 010V070 CAVOK 19/18 Q1012

2010/08/08 05:50
LXGB 080550Z 10009KT 9999 FEW013 SCT140 BKN250 24/20 Q1017 NOSIG

2010/08/08 05:53
CYNM 080553Z AUTO 16005KT 9SM BKN001 10/09 A2969

2010/08/08 05:50
LSGC 080550Z 00000KT 9999 FEW040 BKN075 13/11 Q1020

2010/08/08 05:50
LSGS 080550Z VRB01KT 9999 -SHRA BKN110 15/10 Q1020

2010/08/08 05:50
LSZG 080550Z 22002KT 9999 FEW060 SCT100 15/12 Q1019 NOSIG

2010/08/08 05:50
LSZS 080550Z 19002KT 9999 OVC070 04/04 Q1023

2010/08/08 05:50
EDDC 080550Z 20005KT CAVOK 16/15 Q1015 NOSIG

2010/08/08 05:50
EDDG 080550Z 30001KT 2200 1200E R25/1300U BCFG BR FEW030 SCT100 15/15 Q1014 NOSIG

2010/08/08 05:50
EGAA 080550Z 19002KT 9999 FEW010 SCT024 10/10 Q1021

2010/08/08 05:50
EGAC 080550Z 18003KT 9999 FEW012 SCT024 13/10 Q1021

2010/08/08 05:50
EGBB 080550Z 33004KT 8000 SCT017 14/12 Q1020

2010/08/08 05:50
EGCC 080550Z 26003KT 6000 FEW010 BKN030 15/14 Q1020

2010/08/08 05:50
EGFF 080550Z 35004KT 9999 SCT022 SCT028 BKN036 13/11 Q1021

2010/08/08 05:50
EGGD 080550Z 36005KT 320V020 9999 BKN033 14/12 Q1021

2010/08/08 05:50
EGGP 080550Z 27012KT 9999 BKN014 15/12 Q1020

2010/08/08 05:50
EGHH 080550Z 31004KT 9999 BKN037 13/12 Q1020

2010/08/08 05:50
EGHI 080550Z 31003KT 280V340 9999 FEW022 SCT035 14/11 Q1020

2010/08/08 05:50
EGJB 080550Z 35005KT 9999 FEW005 15/14 Q1021

2010/08/08 05:50
EGJJ 080550Z 00000KT 9999 FEW008 15/15 Q1021 NOSIG

2010/08/08 05:50
EGKK 080550Z 33006KT 9999 BKN019 15/13 Q1019

2010/08/08 05:50
EGLC 080550Z AUTO VRB02KT 9999 SCT009/// OVC024/// 15/13 Q1019

2010/08/08 05:50
EGLL 080550Z 32004KT 290V010 9999 BKN022 15/13 Q1020

2010/08/08 05:50
EGMC 080550Z 33006KT 9999 FEW009 BKN012 16/14 Q1018

2010/08/08 05:50
EGNT 080550Z 00000KT 9999 BKN045 13/11 Q1020

2010/08/08 05:50
EGNV 080550Z 31005KT 9999 FEW015 SCT045 13/12 Q1020

2010/08/08 05:50
EGNX 080550Z 32005KT CAVOK 14/11 Q1020

2010/08/08 05:50
EGPB 080550Z AUTO 29007KT 9999NDV OVC018/// 12/09 Q1018

2010/08/08 05:50
EGPF 080550Z 25005KT 9999 SCT016 BKN024 12/10 Q1020

2010/08/08 05:50
EGPK 080550Z VRB02KT 9999 FEW015 10/09 Q1020

2010/08/08 05:50
EGSS 080550Z 34007KT 6000 BKN005 15/14 Q1019

2010/08/08 05:50
EGTE 080550Z 03002KT CAVOK 11/11 Q1021

2010/08/08 05:50
EKKA 080550Z 33003KT 4500 BR SCT003 BKN160 16/15 Q1014

2010/08/08 05:50
EKSP 080550Z 29002KT 5000 -RA BR SCT022 BKN030 17/16 Q1014

2010/08/08 05:50
EKVD 080550Z AUTO 30004KT //// ///////// 17/16 Q1014

2010/08/08 05:50
LXGB 080550Z 10009KT 9999 FEW013 SCT140 BKN250 24/20 Q1017 NOSIG

2010/08/08 05:53
KMGM 080553Z 12004KT 10SM SCT070 BKN100 OVC250 25/23 A2992 RMK AO2 SLP128 T02500233 10328 20250 403560250 55004 

2010/08/08 05:53
KTUP 080553Z AUTO 00000KT 5SM BR CLR 26/24 A2991 RMK AO2 SLP122 T02610244 10306 20261 403330239 58003 

2010/08/08 05:53
KBTR 080553Z 25005KT 10SM FEW040 28/25 A2992 RMK AO2 SLP129 OCNL LTGIC CB DSNT N T02780250 10328 20278 403440244 50006 

2010/08/08 05:53
KTCS 080553Z AUTO 29008KT 10SM CLR 25/14 A3005 RMK AO2 SLP081 T02500139 10333 20250 51020 TSNO 

2010/08/08 05:53
KMCN 080553Z AUTO 00000KT 6SM BR FEW024 24/23 A2995 RMK AO2 SLP134 T02440233 10300 20244 53001 TSNO 

2010/08/08 05:50
EGYP 080550Z 31015KT CAVOK 05/M01 Q1002 BLU

2010/08/08 05:52
KP69 080552Z AUTO 00000KT 18/14 A2982 RMK AO2 SLP076 T01830139 10311 20183 51024 PWINO TSNO 

2010/08/08 05:53
KP68 080553Z AUTO 22004KT 18/M12 A2999 RMK AO2 SLP062 T01831122 10311 20156 51019 PWINO TSNO 

2010/08/08 05:53
KOQT 080553Z AUTO 00000KT 6SM BR CLR 21/19 A2999 RMK AO2 SLP137 T02110194 10283 20206 58003 TSNO 

2010/08/08 05:53
KMWT 080553Z AUTO 12003KT 10SM FEW110 27/23 A2989 RMK AO2 SLP108 T02670233 10300 20256 403330228 50003 TSNO 

2010/08/08 05:53
KTLH 080553Z 00000KT 10SM SCT095 24/24 A2992 RMK AO2 SLP130 60001 T02440239 10272 20244 58005 

2010/08/08 05:53
KDAB 080553Z 00000KT 10SM FEW090 OVC250 26/24 A2994 RMK AO2 SLP137 60000 T02560244 10272 20256 58006 

2010/08/08 05:50
EKCH 080550Z 32008KT 280V340 9999 -RA FEW008 BKN045 19/18 Q1012 TEMPO BKN008

2010/08/08 05:50
EKBI 080550Z 33003KT 7000 BKN090 16/16 Q1015

2010/08/08 05:50
EKYT 080550Z 01004KT CAVOK 18/16 Q1014 RMK FEW120 BKN160

2010/08/08 05:50
EKRK 080550Z AUTO 31006KT 9999NDV FEW009/// BKN110/// 18/17 Q1012

2010/08/08 05:50
EKAH 080550Z AUTO 28005KT 5000NDV FEW220/// 16/15 Q1014

2010/08/08 05:50
EKEB 080550Z AUTO 06003KT 3300NDV BR OVC023/// 17/16 Q1014

2010/08/08 05:50
EKRN 080550Z AUTO 30009KT 9000NDV -RA OVC053/// 17/16 Q1011 RERA

2010/08/08 05:50
EGGD 080550Z 36005KT 320V020 9999 BKN033 14/12 Q1021

2010/08/08 05:50
EGGP 080550Z 27012KT 9999 BKN014 15/12 Q1020

2010/08/08 05:50
EGHI 080550Z 31003KT 280V340 9999 FEW022 SCT035 14/11 Q1020 

2010/08/08 05:50
EGNT 080550Z 00000KT 9999 BKN045 13/11 Q1020

2010/08/08 05:50
EGNV 080550Z 31005KT 9999 FEW015 SCT045 13/12 Q1020

2010/08/08 05:50
EGPB 080550Z AUTO 29007KT 9999NDV OVC018/// 12/09 Q1018

2010/08/08 06:00
GVAC 080600Z 02003KT 9999 BKN016 25/20 Q1013 NOSIG

2010/08/08 05:50
HLLT 080550Z 12002KT CAVOK 26/14 Q1016

2010/08/08 05:50
EGBB 080550Z 33004KT 8000 SCT017 14/12 Q1020

2010/08/08 05:50
EGCC 080550Z 26003KT 6000 FEW010 BKN030 15/14 Q1020

2010/08/08 05:50
EGKK 080550Z 33006KT 9999 BKN019 15/13 Q1019

2010/08/08 05:50
EGLL 080550Z 32004KT 290V010 9999 BKN022 15/13 Q1020

2010/08/08 05:50
EGPF 080550Z 25005KT 9999 SCT016 BKN024 12/10 Q1020

2010/08/08 05:50
EGPK 080550Z VRB02KT 9999 FEW015 10/09 Q1020

2010/08/08 05:50
EGSS 080550Z 34007KT 6000 BKN005 15/14 Q1019

2010/08/08 05:50
HLLT 080550Z 12002KT CAVOK 26/14 Q1016

2010/08/08 05:50
EGAA 080550Z 19002KT 9999 FEW010 SCT024 10/10 Q1021

2010/08/08 05:50
EGAC 080550Z 18003KT 9999 FEW012 SCT024 13/10 Q1021

2010/08/08 05:50
EGFF 080550Z 35004KT 9999 SCT022 SCT028 BKN036 13/11 Q1021

2010/08/08 05:50
EGGW 080550Z 35005KT 300V040 7000 SCT007 BKN012 15/13 Q1019

2010/08/08 05:50
EGLC 080550Z AUTO VRB02KT 9999 SCT009/// OVC024/// 15/13 Q1019

2010/08/08 05:50
EGNM 080550Z 00000KT CAVOK 13/10 Q1020

2010/08/08 05:50
EGNX 080550Z 32005KT CAVOK 14/11 Q1020

2010/08/08 05:50
EGPD 080550Z VRB03KT 9999 BKN040 12/10 Q1019 NOSIG

2010/08/08 05:50
ESKN 080550Z 04009KT 5000 BR VV003 16/15 Q1011

2010/08/08 05:50
ESOE 080550Z AUTO 02007KT 9999NDV SCT038/// BKN110/// 16/14 Q1013

2010/08/08 05:50
ESOK 080550Z AUTO 35003KT 9999NDV SCT100/// 17/16 Q1014

2010/08/08 05:50
ESOW 080550Z AUTO 01008KT 9999NDV OVC035/// 16/14 Q1012

2010/08/08 05:50
ESSA 080550Z 01008KT 2000 BR OVC002 16/16 Q1011 TEMPO 5000

2010/08/08 05:50
ESSB 080550Z AUTO 01004KT 4600NDV BR OVC001/// 16/16 Q1011

2010/08/08 05:50
ESSP 080550Z AUTO 01006KT 9999NDV OVC006/// 16/15 Q1011

2010/08/08 05:50
ESSV 080550Z 09003KT 060V120 9999 2000NE VCFG BKN002 18/18 Q1009

2010/08/08 05:50
EFHK 080550Z 06007KT 8000 FEW050CB SCT100 BKN150 26/21 Q1012 NOSIG

2010/08/08 05:50
EFJY 080550Z AUTO 14002KT CAVOK 23/20 Q1013

2010/08/08 05:50
EFKU 080550Z AUTO 10005KT 060V130 CAVOK 24/20 Q1014

2010/08/08 05:50
EFOU 080550Z AUTO 10003KT CAVOK 21/20 Q1015

2010/08/08 05:50
EFRO 080550Z AUTO 05004KT CAVOK 18/16 Q1017

2010/08/08 05:50
EFTP 080550Z 13005KT 100V180 8000 BKN100 23/21 Q1012

2010/08/08 05:50
EFTU 080550Z AUTO 12004KT 100V170 CAVOK 22/20 Q1011

2010/08/08 05:50
EFVA 080550Z AUTO 05006KT 020V090 9999 FEW003 SCT180 ///// Q////

2010/08/08 05:50
EGHQ 080550Z 01005KT 9999 FEW025 13/12 Q1022

2010/08/08 05:50
EGJB 080550Z 35005KT 9999 FEW005 15/14 Q1021

2010/08/08 05:50
EGJJ 080550Z 00000KT 9999 FEW008 15/15 Q1021 NOSIG

2010/08/08 05:50
EGTE 080550Z 03002KT CAVOK 11/11 Q1021

2010/08/08 05:50
EFHF 080550Z 09003KT 8000 FEW050 BKN100 26/21 Q1012

2010/08/08 05:50
EFKA 080550Z AUTO 01005KT 340V050 CAVOK 20/18 Q1012

2010/08/08 05:50
EFKK 080550Z AUTO 02006KT 350V050 CAVOK 20/18 Q1013

2010/08/08 05:50
EFMA 080550Z AUTO 00000KT CAVOK ///// Q////

2010/08/08 05:50
EFPO 080550Z AUTO VRB02KT CAVOK 22/18 Q1011

2010/08/08 05:50
EFSI 080550Z AUTO 04004KT 010V070 CAVOK 19/18 Q1012

2010/08/08 05:50
EKVD 080550Z AUTO 30004KT //// ///////// 17/16 Q1014

2010/08/08 05:50
ESDF 080550Z AUTO 33004KT 9999NDV OVC008/// 17/15 Q1010

2010/08/08 05:50
ESPA 080550Z AUTO 36003KT 330V040 9999NDV FEW130/// SCT170/// 19/16 Q1016

2010/08/08 05:50
ESSL 080550Z AUTO 02007KT 2900NDV DZ VV003 15/15 Q1012 RERA

2010/08/08 05:50
ESGL 080550Z AUTO VRB02KT 9999NDV FEW100/// 18/// Q1013

2010/08/08 05:50
ESGR 080550Z AUTO 34004KT 9999NDV FEW062/// BKN110/// 16/15 Q1012

2010/08/08 05:50
ESNL 080550Z AUTO 33007KT 9999NDV -RA FEW057/// SCT100/// 15/14 Q1015

2010/08/08 05:50
ESNX 080550Z AUTO 31001KT 9999NDV NCD 15/14 Q1017

2010/08/08 05:50
ESNY 080550Z AUTO 30006KT 9999 -RA BKN025 BKN081 16/16 Q1013

2010/08/08 05:50
ESNG 080550Z AUTO 30003KT 9999NDV BKN051/// 14/13 Q1017

2010/08/08 05:50
ESNK 080550Z AUTO 00000KT 6000NDV -RA FEW025/// 16/15 Q1014

2010/08/08 05:50
ESNN 080550Z AUTO 32003KT 7000NDV -RA BKN044/// 16/15 Q1014

2010/08/08 05:50
ESNO 080550Z AUTO 01005KT 330V060 9999NDV -RA SCT063/// BKN081/// 16/14 Q1013

2010/08/08 05:50
ESNQ 080550Z 00000KT CAVOK 14/12 Q1018

2010/08/08 05:50
ESNS 080550Z AUTO VRB01KT 9999NDV RA ////// 17/16 Q1016 REDZ

2010/08/08 05:50
ESNU 080550Z 02006KT 350V050 CAVOK 17/14 Q1013

2010/08/08 05:50
ESNZ 080550Z AUTO 28005KT 4100NDV VV002 14/14 Q1015

2010/08/08 05:50
ESUT 080550Z AUTO VRB01KT 7000NDV VV002 10/10 Q1017

2010/08/08 05:50
EGHH 080550Z 31004KT 9999 BKN037 13/12 Q1020

2010/08/08 05:50
EGMC 080550Z 33006KT 9999 FEW009 BKN012 16/14 Q1018

2010/08/08 05:50
EKGF 080550Z 35012KT 9999 FEW008 16/16 Q1016

2010/08/08 05:50
EKHN 080550Z AUTO 03007KT 7000NDV BKN003/// BKN024/// 17/13 Q1016

2010/08/08 05:50
EKHR 080550Z AUTO 36011KT 9999NDV FEW004/// BKN006/// OVC008/// 17/17 Q1014

2010/08/08 05:50
EKKA 080550Z 33003KT 4500 BR SCT003 BKN160 16/15 Q1014

2010/08/08 05:50
EKSP 080550Z 29002KT 5000 -RA BR SCT022 BKN030 17/16 Q1014

2010/08/08 05:50
HLLT 080550Z 12002KT CAVOK 26/14 Q1016

2010/08/08 05:53
KMSY 080553Z 24005KT 10SM FEW050 SCT250 28/25 A2992 RMK AO2 SLP133 T02830250 10317 20283 403500267 50001 

2010/08/08 05:53
KNUI 080553Z AUTO 00000KT 9SM CLR 19/18 A2999 RMK AO2 SLP154 T01940183 10250 20194 50001 $ 

2010/08/08 05:54
KJAN 080554Z 00000KT 10SM CLR 26/24 A2992 RMK AO2 SLP126 T02560239 10300 20256 403500250 50003 

2010/08/08 05:53
KELY 080553Z AUTO 15018G29KT 10SM CLR 19/04 A3006 RMK AO2 PK WND 14032/0530 SLP065 T01890044 10294 20189 51017 

2010/08/08 05:53
K40J 080553Z AUTO 00000KT 24/24 A2992 RMK AO2 SLP131 T02440239 10250 20244 50000 PWINO TSNO 

2010/08/08 05:53
KSDM 080553Z AUTO 00000KT 10SM OVC012 16/12 A2993 RMK AO2 SLP132 T01560122 10194 20133 51015 TSNO $ 

2010/08/08 05:50
EETN 080550Z 13006KT 100V180 5000 BR NSC 25/21 Q1011 NOSIG

2010/08/08 05:50
EETU 080550Z 13007KT 6000 NSC 24/20 Q1013

2010/08/08 05:50
EFHK 080550Z 06007KT 8000 FEW050CB SCT100 BKN150 26/21 Q1012 NOSIG

2010/08/08 05:50
ESSA 080550Z 01008KT 2000 BR OVC002 16/16 Q1011 TEMPO 5000

2010/08/08 05:50
EVLA 080550Z AUTO 00000KT 8000 NSC 20/20 Q1010

2010/08/08 05:50
EVRA 080550Z 07006KT 9999 FEW045CB BKN090 22/18 Q1011 NOSIG

2010/08/08 05:50
EYKA 080550Z 17009KT 130V190 9999 SCT008 BKN190 20/20 Q1013

2010/08/08 05:50
EYPA 080550Z 19005KT 5000 BR NSC 21/21 Q1010

2010/08/08 05:50
EYVI 080550Z 11006KT CAVOK 23/17 Q1013 NOSIG

2010/08/08 05:53
BGTL 080553Z AUTO 13022KT 9999 UP OVC031 04/01 A2990 RMK AO2 PK WND 14028/0523 UPB0553 SLP130 $

2010/08/08 05:51
CWZZ 080551Z AUTO ///// 9SM OVC009 OVC054 OVC080 08/ A2928

2010/08/08 05:52
CYAM 080552Z 03004KT 15SM BKN018 OVC050 RMK CU6SC2 CIG RAG

2010/08/08 05:47
CYCY 080547Z AUTO 00000KT 8SM OVC004 OVC056 OVC079 OVC094 03/03 A2992

2010/08/08 05:49
CYCY 080549Z AUTO 00000KT 7SM OVC003 OVC052 OVC079 OVC094 03/03 A2992

2010/08/08 05:49
CYHE 080549Z AUTO 27006KT 250V320 9SM FEW020 BKN032 OVC042 17/16 A2988

2010/08/08 05:51
CYHE 080551Z AUTO 27007KT 250V320 9SM -DZ FEW020 BKN032 OVC042 17/16 A2988

2010/08/08 05:52
CYNM 080552Z AUTO 16004KT 9SM BKN002 10/09 A2969

2010/08/08 05:51
EGUL 080551Z AUTO 32005KT 9999 BKN014 OVC033 15/14 A3008 RMK AO2 CIG 012V018 SLP187

2010/08/08 05:53
GCLP 080553Z 36013KT 9999 FEW020 23/08 Q1010 NOSIG

2010/08/08 05:51
KLSF 080551Z AUTO 00000KT 8SM R33/5500FT CLR 24/23 A2993 RMK AO2 SLP134 PNO $

2010/08/08 05:46
KNGP 080546Z AUTO 21009G37KT 160V250 10SM FEW019 28/26 A2990 RMK AO2 VISNO $

2010/08/08 05:51
KNTU 080551Z 00000KT 10SM BKN010 BKN060 24/23 A2999 RMK AO2 $

2010/08/08 05:53
KSSC 080553Z 00000KT 8SM R22/5500VP6000FT CLR 25/23 A2993 RMK AO2A SLP133 $

2010/08/08 05:49
LEPA 080549Z 05003KT 020V080 CAVOK 19/17 Q1018 NOSIG

2010/08/08 05:51
PAED 080551Z 21005KT 10SM OVC048 12/11 A2976 RMK AO2A DZB0536E0551 SLP080

2010/08/08 05:50
EDFE 080550Z 18003KT 9999 VCSH FEW060 BKN080 17/14 Q1015

2010/08/08 05:50
EDFH 080550Z 24004KT 210V290 9999 FEW001 15/13 Q1016

2010/08/08 05:50
EDFM 080550Z 16005KT 120V200 9999 FEW040 BKN050 16/14 Q1016

2010/08/08 05:50
EDLV 080550Z VRB02KT 3500 BR SCT004 16/16 Q1015

2010/08/08 05:50
EDTL 080550Z 14003KT 9999 FEW035 FEW045CB SCT090 18/14 Q1016

2010/08/08 05:50
ENAL 080550Z AUTO 00000KT 4200NDV -RA FEW007/// SCT047/// BKN061/// 15/13 Q1016

2010/08/08 05:50
ENCN 080550Z 06003KT CAVOK 16/12 Q1015

2010/08/08 05:50
ENHD 080550Z AUTO 33003KT 6000NDV FEW005/// SCT019/// 14/13 Q1016

2010/08/08 05:50
ENRO 080550Z AUTO 00000KT 3600NDV VV001 03/03 Q1017

2010/08/08 05:50
ENRY 080550Z 00000KT CAVOK 15/13 Q1015

2010/08/08 05:50
ENSB 080550Z 29006KT 9999 FEW010 BKN025 08/04 Q1012 

2010/08/08 05:50
ENTC 080550Z 22003KT 180V250 9999 BKN009 OVC013 12/10 Q1019

2010/08/08 05:50
ENTO 080550Z 01005KT 9999 FEW040 15/12 Q1015

2010/08/08 05:50
ENAT 080550Z 06003KT 9999 FEW010 OVC018 15/12 Q1018 

2010/08/08 05:50
ENEV 080550Z AUTO 36003KT 320V050 7000NDV BR BKN001/// BKN004/// OVC011/// 11/10 Q1019 

2010/08/08 05:50
ENKB 080550Z AUTO 26008KT 9999NDV SCT100/// 15/14 Q1016

2010/08/08 05:50
ENKR 080550Z AUTO 09006KT 9999NDV OVC009/// 17/14 Q1018 

2010/08/08 05:50
ENNA 080550Z 36004KT 9999 FEW005 SCT110 15/13 Q1018 

2010/08/08 05:50
ENEK 080550Z 35015KT 9999 SCT007 BKN035 15/14 Q1016 W16/S3

2010/08/08 05:50
ENGC 080550Z 23017KT 0500 FG VV002 13/13 Q1014

2010/08/08 05:50
ENHE 080550Z 05018KT 9999 BKN006 12/12 Q1018

2010/08/08 05:50
ENOA 080550Z 26013KT 9999 -DZ SCT008 BKN012 14/12 Q1015

2010/08/08 05:51
KSAD 080551Z AUTO 00000KT 10SM CLR 27/17 A2995 RMK AO2 SLP087 T02720167 10322 20272 51016 TSNO 

2010/08/08 06:00
NIUE 080600Z AUTO 08004KT //// ////// 23/20 Q1018

2010/08/08 05:50
EDOP 080550Z 27003KT CAVOK 16/13 Q1014

2010/08/08 05:50
EDAH 080550Z 26004KT 230V290 6000 RA OVC013 16/15 Q1013

2010/08/08 05:50
EDGS 080550Z 20008KT 6000 -RA BKN045 13/13 Q1016

2010/08/08 05:50
EDHL 080550Z 25002KT 8000 BKN042 17/17 Q1014

2010/08/08 05:50
EDJA 080550Z VRB03KT CAVOK 14/11 Q1019

2010/08/08 05:50
EDLN 080550Z 29008KT 3000 -RA BR SCT008 BKN035 16/16 Q1015 RERA

2010/08/08 05:50
EDLP 080550Z 13003KT 070V180 CAVOK 16/14 Q1014

2010/08/08 05:50
EDLW 080550Z VRB03KT 5000 -SHRA NSC 17/16 Q1015

2010/08/08 05:50
EDMA 080550Z 16002KT CAVOK 13/12 Q1018

2010/08/08 05:50
EDNY 080550Z VRB02KT 9999 FEW075 13/12 Q1018

2010/08/08 05:50
EDQM 080550Z AUTO 20006KT 9999NDV FEW140/// 16/11 Q1017

2010/08/08 05:50
EDSB 080550Z VRB03G32KT 9999 VCSH FEW017 SCT032 BKN066 16/15 Q1017

2010/08/08 05:50
EDXW 080550Z AUTO 29005KT 3400NDV -DZ FEW002/// SCT010/// 17/15 Q1014

2010/08/08 05:50
EFOU 080550Z AUTO 10003KT CAVOK 21/20 Q1015

2010/08/08 05:53
KBUR 080553Z 18004KT 10SM CLR 16/12 A2990 RMK AO2 SLP114 T01610122 10244 20161 51019

2010/08/08 05:55
KCEF 080555Z AUTO 00000KT 10SM CLR 13/12 A3001 RMK AO2 SLP164 T01310117 10218 20131 52003

2010/08/08 05:55
KEGI 080555Z AUTO 00000KT 9SM R18/5500VP6000FT CLR 25/24 A2991 RMK AO2 SLP129 T02460238 10254 20246 403500246 57005 $

2010/08/08 05:55
KGUS 080555Z AUTO 17005KT 10SM CLR 20/19 A2996 RMK AO2 SLP142 T01960194 10258 20196 50000

2010/08/08 05:55
KHMN 080555Z AUTO 15007KT 10SM SCT100 28/12 A3000 RMK AO2 SLP064 T02760122 10353 20267 51021 $

2010/08/08 05:55
KHST 080555Z AUTO 00000KT 10SM CLR 27/25 A2997 RMK AO2 SLP150 60000 T02690246 10287 20266 58007

2010/08/08 05:55
KIAB 080555Z AUTO 15008KT 10SM OVC230 28/22 A2986 RMK AO2 SLP095 T02760220 10331 20276 403600228 53006 $

2010/08/08 05:55
KMMT 080555Z AUTO 00000KT 5SM R32/4000V5000FT BR CLR 24/23 A2994 RMK AO2 SLP138 T02380230 10286 20238 58003

2010/08/08 05:51
KSAN 080551Z 22004KT 10SM OVC018 17/12 A2994 RMK AO2 SLP137 T01720122 10194 20167 51015 $

2010/08/08 05:55
KSUU 080555Z AUTO 25022KT 10SM CLR 14/11 A2975 RMK AO2 PK WND 25029/0455 SLP076 T01430114 10258 20142 53009 RVRNO $

2010/08/08 05:55
KSVN 080555Z AUTO 00000KT 2 1/4SM 24/24 A2992 RMK AO2 SLP131 58008

2010/08/08 05:55
KSZL 080555Z AUTO 13004KT 10SM CLR 24/21 A2988 RMK AO2 SLP112 T02380212 10301 20237 51005 PNO $

2010/08/08 05:50
OAKB 080550Z VRB02KT 6000 SCT030 BKN140 25/19 Q1014 NOSIG RMK WHT WHT

2010/08/08 05:53
PHJR 080553Z 06004KT 10SM CLR 26/19 A3007 RMK AO2 SLP190 T02610189 10317 20261 53014

2010/08/08 05:53
KLXV 080553Z AUTO 06005KT 10SM BKN120 09/08 A3038 RMK AO2 RAE06 SLP110 P0001 60011 T00940083 10172 20089 50011 TSNO 

2010/08/08 05:54
KROC 080554Z 20003KT 10SM FEW080 SCT200 15/11 A2999 RMK AO2 SLP152 T01500111 10211 20144 58001 $ 

2010/08/08 05:54
KCAR 080554Z AUTO 24003KT 10SM CLR 09/07 A2994 RMK AO2 SLP144 T00890067 10139 20089 51005 

2010/08/08 05:54
KFWA 080554Z 19003KT 10SM CLR 18/17 A2998 RMK AO2 SLP146 T01830167 10250 20183 58000 

2010/08/08 05:50
ENAN 080550Z 25005KT 9999 BKN012 12/09 Q1019

2010/08/08 05:50
ENBR 080550Z 20003KT 9999 FEW003 SCT020 BKN030 14/13 Q1016 NOSIG 

2010/08/08 05:50
ENBO 080550Z 32002KT 0500 FG VV010 11/11 Q1018

2010/08/08 05:50
ENDU 080550Z VRB01KT 0400 FG NSC 10/09 Q1019 BECMG 1200 BCFG

2010/08/08 05:50
ENOL 080550Z 11005KT CAVOK 15/13 Q1015

2010/08/08 05:50
ENZV 080550Z 27001KT 9999 SCT027 BKN034 16/14 Q1016 NOSIG

2010/08/08 05:54
KAVP 080554Z 11004KT 10SM FEW050 17/12 A3002 RMK AO2 SLP156 T01670117 10244 20167 53003 

2010/08/08 05:54
K12N 080554Z AUTO 00000KT 16/14 A3002 RMK AO2 SLP159 T01560144 10228 20156 51002 PWINO TSNO 

2010/08/08 05:54
KMQE 080554Z AUTO 19009KT 17/16 A3003 RMK AO1 SLP175 T01720156 10217 20167 51002 

2010/08/08 05:54
KNKT 080554Z AUTO 00000KT 7SM CLR 25/23 A2996 RMK AO2 SLP142 T02500233 10272 20244 58002 

2010/08/08 05:54
KRIC 080554Z 00000KT 10SM CLR 22/18 A3000 RMK AO2 SLP160 T02220178 10272 20217 58001 

2010/08/08 05:53
KCMI 080553Z AUTO 00000KT 7SM CLR 19/17 A2997 RMK AO2 SLP143 T01890172 10267 20189 402940150 53006

2010/08/08 05:53
KCMX 080553Z AUTO 08006KT 10SM OVC100 17/14 A2974 RMK AO2 SLP068 60000 T01720139 10200 20172 55006

2010/08/08 05:53
KCNM 080553Z AUTO 16007KT 10SM CLR 25/14 A2995 RMK AO2 SLP079 T02500144 10350 20250 51021 $

2010/08/08 05:53
KCNO 080553Z 26004KT 8SM CLR 14/12 A2991 RMK AO2 SLP125 T01440122 10272 20144 51021

2010/08/08 05:53
KCNY 080553Z AUTO 32006KT 10SM OVC095 17/14 A3008 RMK AO2 SLP130 60002 T01720139 10200 20172 51010

2010/08/08 05:53
KCPR 080553Z AUTO 31008KT 10SM FEW110 21/08 A3002 RMK AO2 SLP083 T02110083 10317 20211 51014 $

2010/08/08 05:53
KCPS 080553Z AUTO 16005KT 7SM HZ CLR 22/18 A2993 RMK AO2 SLP131 T02170178 10278 20211 403060167 50005

2010/08/08 05:53
KCRE 080553Z AUTO 00000KT 5SM BR CLR 24/24 A2993 RMK AO2 SLP137 T02440239 10272 20239 58005

2010/08/08 05:53
KCRG 080553Z AUTO 00000KT 10SM SCT027 BKN036 24/24 A2993 RMK AO2 SLP133 60001 T02440239 10250 20244 58000

2010/08/08 05:51
KCRP 080551Z 17007KT 10SM FEW018 27/25 A2991 RMK AO2 SLP126 T02720250 10317 20267 403500244 50009

2010/08/08 05:53
KCRQ 080553Z AUTO 00000KT 10SM OVC014 17/13 A2992 RMK AO2 SLP128 T01720128 10200 20172 51017 TSNO

2010/08/08 05:53
KCRS 080553Z AUTO 19007KT 10SM CLR 28/23 A2987 RMK AO2 SLP109 T02830228 10361 20283 403780256 51012

2010/08/08 05:53
KCSM 080553Z AUTO 17011KT 10SM CLR 29/20 A2990 RMK AO2 SLP093 T02940200 10367 20294 403780233 51008

2010/08/08 05:53
KCSV 080553Z AUTO 00000KT 4SM BR CLR 19/18 A3003 RMK AO2 SLP147 T01940178 10267 20194 403000183 58004

2010/08/08 05:53
KCUB 080553Z AUTO 00000KT 6SM HZ CLR 26/23 A2995 RMK AO2 SLP138 T02610233 10306 20256 58002

2010/08/08 05:53
KCYS 080553Z AUTO 17008KT 10SM OVC085 21/08 A3010 RMK AO2 SLP088 60000 T02060083 10272 20200 53014 TSNO $

2010/08/08 05:51
KDAG 080551Z AUTO 26015KT 10SM CLR 27/M01 A2982 RMK AO2 SLP069 T02671011 10372 20267 51023 TSNO

2010/08/08 05:53
KDAL 080553Z 20007KT 10SM CLR 32/20 A2985 RMK AO2 SLP101 T03220200 10372 20322 403890267 51012

2010/08/08 05:53
KDAN 080553Z AUTO 00000KT 6SM BR CLR 19/17 A3001 RMK AO2 SLP151 T01890172 10272 20189 58001

2010/08/08 05:53
KDBQ 080553Z AUTO 21010KT 8SM CLR 22/19 A2986 RMK AO2 SLP105 T02170194 10256 20217 402720172 56002

2010/08/08 05:53
KDCU 080553Z AUTO 00000KT 10SM CLR 23/19 A2993 RMK AO2 SLP128 T02280189 10322 20228 403560222 58003 $

2010/08/08 05:53
KDEN 080553Z 17010KT 10SM SCT110 BKN200 19/15 A3003 RMK AO2 SLP079 OCNL LTGICCC DSNT NE CB DSNT NE MOV E 60007 T01940150 10278 20194 50011

2010/08/08 05:53
KDEQ 080553Z AUTO 04004KT 10SM SCT060 27/24 A2987 RMK AO2 LTG DSNT E AND SE SLP107 T02670239 10344 20261 403560233 51009

2010/08/08 05:53
KDET 080553Z 23006KT 10SM FEW110 22/17 A2994 RMK AO2 SLP134 60000 T02220167 10256 20217 55000

2010/08/08 05:53
KDEW 080553Z AUTO 00000KT 10SM CLR 19/09 A2980 RMK AO2 SLP077 T01890089 10283 20178 51013

2010/08/08 05:53
KFRG 080553Z AUTO 21006KT 10SM CLR 23/21 A3002 RMK AO2 SLP164 T02330206 10244 20228 51006

2010/08/08 05:53
KFSM 080553Z 06005KT 10SM R25/0600VP6000FT SCT046 BKN070 BKN095 26/24 A2988 RMK AO2 LTG DSNT E SLP111 T02610239 10283 20256 403440244 53005

2010/08/08 05:53
KFST 080553Z AUTO 16012KT 10SM CLR 28/16 A2995 RMK AO2 SLP083 T02780156 10356 20278 403830217 50011

2010/08/08 05:53
KFTW 080553Z 18010KT 10SM CLR 31/20 A2985 RMK AO2 SLP098 T03060200 10361 20300 403780244 51011

2010/08/08 05:53
KFTY 080553Z 00000KT 4SM BR CLR 24/23 A2996 RMK AO2 SLP135 T02440228 10317 20239 56004

2010/08/08 05:53
KFUL 080553Z 18004KT 10SM BKN020 17/13 A2990 RMK AO2 SLP124 T01670128 10228 20167 51019

2010/08/08 05:53
KFVE 080553Z AUTO 19005KT 10SM SCT085 09/06 A2992 RMK AO2 SLP130 T00940056 10133 20089 50002

2010/08/08 05:53
KFWN 080553Z AUTO 00000KT 10SM CLR 14/13 A3002 RMK AO2 SLP162 T01440133 10244 20139 51003

2010/08/08 05:53
KFXE 080553Z 00000KT 10SM CLR 27/24 A2996 RMK AO2 SLP146 T02720244 10278 20256 58009 $

2010/08/08 05:54
KWAL 080554Z AUTO 00000KT 10SM CLR 23/21 A3001 RMK AO2 SLP157 T02280211 10250 20222 58001 TSNO 

2010/08/08 05:54
K1V4 080554Z AUTO 09/08 A3000 RMK AO2 SLP157 T00890083 10161 20089 53002 PWINO TSNO 

2010/08/08 05:54
KDMH 080554Z AUTO 25/16 A3000 RMK AO2 SLP158 T02500156 10283 20250 50003 PWINO TSNO 

2010/08/08 05:53
KFYV 080553Z AUTO 00000KT 10SM FEW060 23/22 A2992 RMK AO2 SLP114 T02330217 10278 20228 403280206 50001

2010/08/08 05:53
KGAG 080553Z AUTO 17013KT 10SM CLR 28/19 A2988 RMK AO2 SLP081 T02830194 10350 20261 403610211 53008

2010/08/08 05:53
KGCC 080553Z AUTO 31003KT 10SM CLR 14/11 A2992 RMK AO2 SLP083 T01440111 10267 20144 50005

2010/08/08 05:53
KGEG 080553Z 25008KT 10SM FEW080 BKN140 OVC200 21/08 A2981 RMK AO2 SLP077 T02060083 10289 20206 51011

2010/08/08 05:53
KGEY 080553Z AUTO 00000KT 10SM CLR 21/07 A2987 RMK AO2 SLP073 60000 T02060072 10283 20206 50009

2010/08/08 05:53
KGEZ 080553Z AUTO 11004KT 10SM CLR 16/14 A2997 RMK AO2 SLP141 T01610144 10267 20161 50001

2010/08/08 05:53
KGFK 080553Z 00000KT 10SM CLR 22/21 A2964 RMK AO2 SLP032 T02220206 10294 20217 403060161 51006

2010/08/08 05:53
KGFL 080553Z AUTO 00000KT 10SM OVC080 12/11 A3001 RMK AO2 SLP163 T01220111 10206 20100 51003

2010/08/08 05:53
KGGG 080553Z AUTO 19006KT 10SM CLR 28/24 A2990 RMK AO2 SLP115 T02830239 10350 20283 403560239 51012

2010/08/08 05:53
KGGW 080553Z AUTO 06009KT 10SM CLR 20/12 A2969 RMK AO2 SLP040 T02000122 10317 20194 53004 TSNO

2010/08/08 05:53
KGIF 080553Z AUTO 23004KT 10SM CLR 27/25 A2996 RMK AO2 SLP143 T02670250 10283 20267 58007 TSNO

2010/08/08 05:53
KGJT 080553Z AUTO 00000KT 10SM OVC095 18/14 A3010 RMK AO2 SLP126 60000 T01780144 10244 20178 50000

2010/08/08 05:53
KGKJ 080553Z AUTO 00000KT 10SM CLR 19/11 A3003 RMK AO2 SLP161 T01890106 10217 20183 56001

2010/08/08 05:53
KGKY 080553Z AUTO 19007KT 10SM CLR 29/21 A2987 RMK AO2 SLP102 T02940206 10361 20289 403780250 51012

2010/08/08 05:53
KGLD 080553Z AUTO 00000KT 10SM CLR 23/16 A2992 RMK AO2 SLP078 T02330156 10289 20217 51011

2010/08/08 05:53
KGLH 080553Z AUTO 00000KT 7SM FEW075 26/24 A2990 RMK AO2 SLP130 T02560244 10300 20250 403170239 51004

2010/08/08 05:53
KGLR 080553Z AUTO 22007KT 10SM SCT110 21/18 A2983 RMK AO2 SLP095 T02060183 10244 20200 56007

2010/08/08 05:53
KINK 080553Z AUTO 14009KT 10SM CLR 28/15 A2992 RMK AO2 SLP078 T02830150 10378 20283 403940228 51017 TSNO

2010/08/08 05:53
KIPL 080553Z AUTO 25006KT 10SM CLR 28/04 A2969 RMK AO2 SLP056 T02830039 10406 20278 51020

2010/08/08 05:53
KITR 080553Z AUTO 21003KT 10SM FEW120 21/18 A2994 RMK AO2 LTG DSNT S RAB0456E06 SLP076 P0000 60000 T02060178 10278 20206 50003 $

2010/08/08 05:53
KIWI 080553Z AUTO 00000KT 10SM CLR 10/09 A3002 RMK AO2 SLP165 T01000094 10178 20100 50001

2010/08/08 05:53
KIXD 080553Z AUTO 15007KT 10SM CLR 26/21 A2988 RMK AO2 SLP102 T02610211 10311 20256 403330217 51002

2010/08/08 05:53
KJBR 080553Z AUTO 00000KT 10SM CLR 24/21 A2991 RMK AO2 SLP125 T02440206 10322 20244 403390222 50005

2010/08/08 05:51
KJCT 080551Z AUTO 17007KT 10SM CLR 29/19 A2994 RMK AO2 SLP095 T02890189 10350 20289 403720244 51012 TSNO

2010/08/08 05:53
KJEF 080553Z AUTO 10005KT 10SM CLR 25/21 A2990 RMK AO2 SLP110 T02500211 10311 20244 403220206 51007

2010/08/08 05:53
KJER 080553Z AUTO 10008KT 10SM CLR 21/09 A2987 RMK AO2 SLP075 T02060094 10294 20200 51013

2010/08/08 05:51
KJFK 080551Z COR 22008KT 10SM SCT100 23/20 A3002 RMK AO2 SLP164 T02280200 10250 20228 51005

2010/08/08 05:53
KJKL 080553Z AUTO 00000KT 10SM CLR 21/15 A3002 RMK AO2 SLP150 T02060150 10250 20206 58002

2010/08/08 05:53
KJLN 080553Z 15005KT 9SM CLR 26/23 A2989 RMK AO2 SLP108 6//// T02610233 403170222 50002

2010/08/08 05:50
KJYR 080550Z AUTO 19009KT 10SM CLR 25/22 A2980 RMK AO2

2010/08/08 05:55
KJZI 080555Z AUTO 00000KT 5SM BR CLR 24/24 A2992 RMK A02 P000

2010/08/08 05:53
KLAA 080553Z AUTO 00000KT 10SM SCT120 22/19 A2989 RMK AO2 LTG DSNT NE SLP066 60003 T02170189 10339 20217 51018

2010/08/08 05:53
KLAN 080553Z 19008KT 9SM CLR 21/17 A2992 RMK AO2 SLP125 T02110172 10256 20206 57003

2010/08/08 05:53
KLAR 080553Z AUTO 01005KT 10SM OVC075 16/09 A3017 RMK AO2 RAB19E52 SLP096 P0000 60000 T01610089 10244 20156 53004

2010/08/08 05:53
KLAW 080553Z AUTO 16003KT 10SM CLR 28/22 A2985 RMK AO2 SLP091 T02830217 10367 20283 403830222 51007

2010/08/08 05:52
KABI 080552Z 16008KT 10SM CLR 28/19 A2992 RMK AO2 SLP101 T02780194 10356 20278 403720233 51013 $

2010/08/08 05:52
KSDB 080552Z AUTO 22003KT 10SM CLR 16/03 A3001 RMK AO2 SLP112 T01610028 10233 20150 51009 TSNO $

2010/08/08 05:52
K9V9 080552Z AUTO 26005KT 24/19 A2973 RMK AO2 SLP049 T02440194 10333 20239 403500228 51010 PWINO TSNO

2010/08/08 05:50
K4HV 080550Z 00000KT 10SM BKN080 16/14 RMK NOSPECI T01560144 10244 20156 53005

2010/08/08 05:53
KTRI 080553Z 00000KT 7SM SCT055 19/17 A3002 RMK AO2 SLP145 T01940167 10272 20183 58003

2010/08/08 05:53
KCUT 080553Z AUTO 06004KT 10SM CLR 17/10 A3000 RMK AO2 SLP084 T01720100 10256 20156 53006 TSNO

2010/08/08 05:50
K4BL 080550Z 18004KT 40SM SCT020 OVC100 16/13 RMK SLP131 NOSPECI 60001 8/27/ T01610133 10183 20156 51007

2010/08/08 05:53
KSAV 080553Z 00000KT 8SM FEW015 25/24 A2992 RMK AO2 SLP132 T02500239 10289 20250 58005

2010/08/08 05:53
KTYS 080553Z 00000KT 9SM CLR 22/19 A2997 RMK AO2 SLP135 T02170194 10300 20217 58001

2010/08/08 05:53
KFAR 080553Z 18004KT 10SM CLR 23/19 A2964 RMK AO2 SLP032 T02280189 10306 20228 403170183 51005

2010/08/08 05:53
KLND 080553Z AUTO 26005KT 10SM CLR 21/03 A2998 RMK AO2 SLP071 T02110033 10300 20206 51005

2010/08/08 05:53
KHTL 080553Z AUTO 22008KT 10SM SCT090 21/19 A2986 RMK AO2 SLP106 T02110189 10244 20206 55007

2010/08/08 05:53
KMSN 080553Z 19008G16KT 9SM CLR 23/19 A2984 RMK AO2 SLP098 T02330189 10267 20233 402830150 55005

2010/08/08 05:53
KRTN 080553Z AUTO 00000KT 10SM FEW120 19/12 A3012 RMK AO2 SLP092 T01940122 10294 20189 51012 TSNO

2010/08/08 05:53
KCQC 080553Z AUTO 30006KT 10SM FEW100 17/11 A3021 RMK AO2 SLP121 T01720106 10261 20161 51010 TSNO

2010/08/08 05:51
KGDP 080551Z AUTO 25015KT 10SM SCT080 BKN110 24/12 A3015 RMK AO2 WSHFT 0521 SLP110 T02440117 10294 20244 51015 TSNO

2010/08/08 05:53
KBNO 080553Z AUTO 15006KT 10SM CLR 17/04 A2990 RMK AO2 SLP088 T01670044 10294 20167 53013 TSNO $

2010/08/08 05:54
KBTV 080554Z 12003KT 10SM CLR 12/10 A2998 RMK AO2 SLP152 T01170100 10178 20117 53002

2010/08/08 05:53
KDNK 080553Z AUTO 21006KT 10SM CLR 27/23 A2991 RMK AO2 SLP125 6//// T02720233 10328 20272 51006 PNO $

2010/08/08 05:53
KLAX 080553Z 24004KT 10SM BKN012 16/12 A2991 RMK AO2 SLP127 T01610122 10183 20161 51015

2010/08/08 05:53
KP92 080553Z AUTO 22004KT 30/25 A2992 RMK AO2 SLP132 T03000250 10317 20300 403280272 50003 PWINO TSNO

2010/08/08 05:53
KCTY 080553Z AUTO 00000KT 25/24 A2993 RMK AO2 SLP134 60017 T02500244 10272 20244 50001 PWINO TSNO

2010/08/08 05:53
KCHA 080553Z 04003KT 10SM CLR 26/21 A2996 RMK AO2 SLP135 T02560206 10322 20250 50000

2010/08/08 05:53
KSGR 080553Z AUTO 18006KT 10SM CLR 27/24 A2991 RMK AO2 SLP136 T02670244 10317 20267 403500256 51009 TSNO

2010/08/08 05:53
KOVE 080553Z AUTO 14007KT 10SM CLR 26/12 A2974 RMK AO2 SLP071 T02560122 10339 20256 50013 TSNO $

2010/08/08 05:54
PGUM 080554Z 07011KT 10SM SCT024 SCT029CB 31/24 A2979 RMK AO2 SLP081 CB S MOV W 8543501 60000 T03060244 10317 20294 56009 $

2010/08/08 05:53
KTUP 080553Z AUTO 00000KT 5SM BR CLR 26/24 A2991 RMK AO2 SLP122 T02610244 10306 20261 403330239 58003

2010/08/08 05:53
KBTR 080553Z 25005KT 10SM FEW040 28/25 A2992 RMK AO2 SLP129 OCNL LTGIC CB DSNT N T02780250 10328 20278 403440244 50006

2010/08/08 05:53
KMCN 080553Z AUTO 00000KT 6SM BR FEW024 24/23 A2995 RMK AO2 SLP134 T02440233 10300 20244 53001 TSNO

2010/08/08 05:53
KTCS 080553Z AUTO 29008KT 10SM CLR 25/14 A3005 RMK AO2 SLP081 T02500139 10333 20250 51020 TSNO

2010/08/08 05:53
KMGM 080553Z 12004KT 10SM SCT070 BKN100 OVC250 25/23 A2992 RMK AO2 SLP128 T02500233 10328 20250 403560250 55004

2010/08/08 05:52
KP69 080552Z AUTO 00000KT 18/14 A2982 RMK AO2 SLP076 T01830139 10311 20183 51024 PWINO TSNO

2010/08/08 05:53
KGUY 080553Z AUTO 19010KT 10SM CLR 26/17 A2989 RMK AO2 SLP061 T02560172 10378 20256 403890206 50007

2010/08/08 05:53
KGVL 080553Z AUTO 00000KT 7SM CLR 24/22 A3002 RMK AO2 SLP147 T02440222 10289 20239 50000 $

2010/08/08 05:53
KGWO 080553Z AUTO 00000KT 5SM BR CLR 24/24 A2991 RMK AO2 SLP127 T02390239 10300 20239 403170239 52003

2010/08/08 05:53
KGZH 080553Z AUTO 00000KT 4SM BR CLR 24/24 A2992 RMK AO2 SLP129 P0004 60038 T02440244 10283 20244 403440244 58007

2010/08/08 05:53
KHAO 080553Z AUTO 00000KT 10SM CLR 17/16 A3000 RMK AO2 SLP154 T01670156 10289 20167 51002

2010/08/08 05:53
KHBR 080553Z AUTO 19009KT 10SM CLR 29/22 A2987 RMK AO2 SLP089 T02890217 10372 20289 403780228 51005

2010/08/08 05:50
KHDE 080550Z AUTO 18005KT 10SM CLR 25/21 A2982 RMK AO2 T02520210 10325 20250 403370205

2010/08/08 05:53
KHEI 080553Z AUTO 35003KT 10SM CLR 19/13 A2978 RMK AO2 SLP063 T01890128 10317 20156 53012

2010/08/08 05:53
KHFD 080553Z AUTO 00000KT 10SM CLR 20/17 A3000 RMK AO2 SLP160 T02000167 10244 20200 51008

2010/08/08 05:53
KHGR 080553Z AUTO 00000KT 10SM SCT090 23/14 A3001 RMK AO2 SLP166 T02280144 10283 20217 51003

2010/08/08 05:53
KHHR 080553Z AUTO 24003KT 10SM SCT013 17/13 A2991 RMK AO2 SLP127 T01720128 10200 20167 51016 $

2010/08/08 05:53
KHIB 080553Z AUTO 10003KT 10SM CLR 18/16 A2971 RMK AO2 SLP057 T01780161 10250 20178 402720083 50001

2010/08/08 05:53
KHIO 080553Z AUTO 00000KT 10SM FEW028 OVC044 18/16 A2992 RMK AO2 RAB23E36 SLP131 P0000 60000 T01830156 10233 20178 51009

2010/08/08 05:50
KHJH 080550Z AUTO 17007KT 10SM CLR 27/22 A2981 RMK AO2 T02660220 10330 20266 403400207

2010/08/08 05:53
KHJO 080553Z AUTO 32009KT 10SM CLR 24/11 A2975 RMK AO2 SLP075 T02440111 10350 20244 51017 $

2010/08/08 05:53
KHKA 080553Z AUTO 00000KT 6SM HZ CLR 24/19 A2992 RMK AO2 SLP128 T02440194 10311 20244 403440206 51004

2010/08/08 05:53
KDFI 080553Z AUTO 00000KT 10SM CLR 19/16 A2996 RMK AO2 SLP142 T01940156 10256 20189 58001

2010/08/08 05:53
KDFW 080553Z 19009KT 10SM CLR 31/20 A2985 RMK AO2 SLP098 T03110200 10361 20311 403830261 51011 $

2010/08/08 05:53
KDGW 080553Z AUTO 32010KT 10SM BKN120 24/07 A2999 RMK AO2 SLP078 T02440067 10333 20233 51024

2010/08/08 05:53
KDHN 080553Z AUTO 00000KT 8SM CLR 25/24 A2996 RMK AO2 SLP138 T02500239 10256 20244 403440244 56010 $

2010/08/08 05:53
KDHT 080553Z AUTO 18008KT 10SM CLR 22/17 A2999 RMK AO2 SLP086 T02220172 10339 20222 403560206 51013

2010/08/08 05:53
KDKK 080553Z AUTO 19011KT 10SM OVC095 22/11 A2997 RMK AO2 SLP146 T02170106 10217 20150 58003

2010/08/08 05:53
KDLN 080553Z AUTO 21008KT 10SM CLR 12/08 A2996 RMK AO2 SLP098 60000 T01220078 10233 20111 53008 $

2010/08/08 05:53
KDLS 080553Z AUTO 31008G18KT 10SM SCT110 22/13 A2984 RMK AO2 SLP103 60000 T02220128 10283 20217 51012

2010/08/08 05:53
KDMN 080553Z AUTO 22005KT 10SM CLR 25/13 A3005 RMK AO2 SLP089 T02500133 10328 20250 51019

2010/08/08 05:53
KDMO 080553Z AUTO 16005KT 10SM CLR 24/21 A2990 RMK AO2 SLP115 T02390206 10306 20239 403280206 50003

2010/08/08 05:53
KDNL 080553Z AUTO 00000KT 10SM CLR 27/23 A2995 RMK AO2 SLP134 T02670228 10300 20267 58005 $

2010/08/08 05:53
KDRO 080553Z AUTO 09004KT 10SM BKN085 OVC100 15/14 A3020 RMK AO2 RAE23 SLP145 P0000 60000 T01500139 10233 20150 58005

2010/08/08 05:53
KDTN 080553Z AUTO 17004KT 10SM CLR 29/24 A2989 RMK AO2 SLP119 60000 T02890239 10311 20278 403610250 51012

2010/08/08 05:53
KDTO 080553Z AUTO 18007KT 10SM CLR 30/21 A2985 RMK AO2 SLP097 T03000206 10361 20300 403780239 51009

2010/08/08 05:53
KDTS 080553Z AUTO 00000KT 10SM CLR 27/23 A2989 RMK AO2 TSB0456E11 SLP121 T02720233 10300 20267 403390267 58005

2010/08/08 05:53
KDTW 080553Z 21007KT 6SM HZ FEW080 SCT220 20/17 A2995 RMK AO2 SLP137 T02000167 10261 20200 58001 $

2010/08/08 05:53
KDVT 080553Z AUTO 09006KT 10SM CLR 28/17 A2983 RMK AO2 LTG DSNT NE AND E SLP075 60000 T02830172 10328 20283 50014

2010/08/08 05:53
KDXR 080553Z AUTO 00000KT 10SM CLR 21/19 A3002 RMK AO2 SLP162 T02060189 10244 20183 51003

2010/08/08 05:53
KLBB 080553Z 15007KT 10SM SCT200 24/17 A2997 RMK AO2 SLP088 T02440167 10344 20233 403560211 51013 $

2010/08/08 05:53
KLBF 080553Z AUTO 17003KT 10SM CLR 23/22 A2983 RMK AO2 SLP068 T02280217 10322 20222 403390200 50007

2010/08/08 05:50
KLCG 080550Z AUTO 20003KT 10SM CLR 24/22 A2976 RMK AO2 T02390220 10303 20239 403150193

2010/08/08 05:53
KLEB 080553Z AUTO 00000KT 10SM CLR 11/08 A3001 RMK AO2 SLP158 T01060083 10178 20100 51006

2010/08/08 05:53
KLEE 080553Z AUTO 28003KT 10SM CLR 28/26 A2995 RMK AO2 SLP139 60000 T02780261 10294 20267 58002 TSNO

2010/08/08 05:53
KLGB 080553Z AUTO 00000KT 10SM CLR 17/13 A2991 RMK AO2 SLP127 T01670128 10228 20167 51019 TSNO

2010/08/08 05:51
KLHM 080551Z AUTO 14010KT 10SM CLR 22/12 A2973 RMK AO1 T02220122 10343 20221

2010/08/08 05:53
KLHQ 080553Z AUTO 00000KT 8SM CLR 16/15 A3001 RMK AO2 SLP157 T01610150 10256 20156 58000

2010/08/08 05:53
KLHX 080553Z AUTO 04004KT 10SM SCT110 22/17 A2994 RMK AO2 SLP070 60000 T02170167 10289 20217 50010 $

2010/08/08 05:53
KLIT 080553Z 15003KT 10SM SCT060 BKN250 26/24 A2991 RMK AO2 SLP127 OCNL LTG DSNT S-SW T02610244 10311 20261 403440250 50004

2010/08/08 05:55
KLKR 080555Z AUTO 00000KT 3SM BR CLR 22/22 A2997 RMK AO2

2010/08/08 05:53
KLLQ 080553Z AUTO 00000KT 9SM CLR 27/25 A2993 RMK AO2 SLP130 60000 T02670250 10300 20267 403330244 52004

2010/08/08 05:53
KLMT 080553Z AUTO 32008KT 10SM FEW090 17/08 A2997 RMK AO2 SLP109 T01720078 10278 20167 51020

2010/08/08 05:53
KLNS 080553Z AUTO 00000KT 9SM BKN070 OVC090 21/17 A3001 RMK AO2 SLP157 T02060167 10256 20200 50004

2010/08/08 05:53
KLOL 080553Z AUTO 35014KT 10SM CLR 28/01 A2984 RMK AO2 SLP052 T02780006 10361 20250 53018

2010/08/08 05:53
KLOU 080553Z 00000KT 10SM CLR 22/17 A2998 RMK AO2 SLP147 T02220172 10289 20217 51002

2010/08/08 05:53
KLOZ 080553Z AUTO 00000KT 7SM CLR 18/17 A3001 RMK AO2 SLP149 T01780167 10261 20178 58001

2010/08/08 05:53
KLPR 080553Z AUTO 19003KT 10SM CLR 19/15 A3000 RMK AO2 SLP153 T01890150 10256 20183 53000

2010/08/08 05:53
KLSE 080553Z AUTO 19011KT 10SM BKN085 25/22 A2976 RMK AO2 SLP065 T02500222 10289 20250 403060172 55001

2010/08/08 05:53
KLUK 080553Z AUTO 00000KT 8SM CLR 18/17 A3000 RMK AO2 SLP154 T01830172 10261 20183 51003

2010/08/08 05:53
KLVK 080553Z AUTO 31011KT 10SM CLR 13/11 A2982 RMK AO2 SLP096 T01330111 10272 20133 50014

2010/08/08 05:53
KLVM 080553Z AUTO 27012KT 10SM CLR 19/06 A2990 RMK AO2 SLP078 60000 T01890061 10244 20189 51014

2010/08/08 05:53
KLVS 080553Z AUTO 20006KT 10SM CLR 17/11 A3019 RMK AO2 SLP101 60000 T01720111 10261 20156 51011

2010/08/08 05:53
KLWD 080553Z AUTO 17006KT 10SM CLR 23/21 A2987 RMK AO2 SLP103 T02280206 10289 20228 403110194 50003

2010/08/08 05:53
KLWV 080553Z AUTO 00000KT 5SM BR CLR 20/18 A2995 RMK AO2 SLP139 T02000178 10278 20194 403060172 51003

2010/08/08 05:50
KLXN 080550Z AUTO 15006KT 10SM CLR 25/22 A2982 RMK AO2 T02520218 10333 20251 403470210

2010/08/08 05:53
KLXT 080553Z AUTO 17008KT 10SM CLR 26/21 A2988 RMK AO2 SLP106 T02610206 10300 20261 403170217 52002

2010/08/08 05:53
KMAE 080553Z AUTO 33007KT 10SM CLR 20/11 A2977 RMK AO2 SLP077 T02000111 10339 20200 51014 $

2010/08/08 05:53
KMAF 080553Z AUTO 15005KT 10SM CLR 26/14 A2996 RMK AO2 SLP090 T02610139 10361 20261 403780228 51019

2010/08/08 05:53
KMAI 080553Z AUTO 00000KT 8SM CLR 26/24 A2991 RMK AO2 SLP125 60000 T02610244 10278 20256 403440244 55006

2010/08/08 05:55
KMAO 080555Z AUTO 04003KT 4SM BR CLR 23/23 A2993 RMK AO2

2010/08/08 05:53
KMBS 080553Z 21007KT 10SM SCT120 22/17 A2989 RMK AO2 SLP117 T02220172 10261 20217 55003

2010/08/08 05:53
KMCE 080553Z AUTO 26006KT 10SM CLR 18/11 A2976 RMK AO2 SLP076 T01830111 10328 20183 51014 $

2010/08/08 05:53
KMCI 080553Z 17008KT 10SM FEW250 26/21 A2986 RMK AO2 SLP099 T02610211 10311 20261 403330222 51002

2010/08/08 05:53
KMCK 080553Z AUTO 00000KT 10SM CLR 24/22 A2982 RMK AO2 SLP068 T02390217 10328 20239 403500194 50007

2010/08/08 05:53
KENW 080553Z AUTO 22008KT 10SM CLR 23/18 A2988 RMK AO2 SLP111 T02280183 10261 20222 402830150 55004

2010/08/08 05:48
MMCZ 080548Z 00000KT 7SM FEW015 BKN200 24/24 A2994 RMK SLP130 57014 909 8/408

2010/08/08 05:45
MMTP 080545Z 00000KT 10SM SCT030TCU BKN250 26/24 A2991 RMK SLP105 57004 970 8/250 DZ E 12

2010/08/08 05:45
MMUN 080545Z 09005KT 7SM FEW300 27/24 A2994 RMK SLP134 51003 903 8/008 RA AT THE CITY

2010/08/08 05:53
KEPH 080553Z AUTO 30015KT 10SM -RA FEW075 OVC100 20/13 A2979 RMK AO2 RAB31 SLP080 P0000 60000 T02000128 10289 20194 53011

2010/08/08 05:53
KEQY 080553Z AUTO 05004KT 7SM CLR 23/21 A2997 RMK AO2 SLP146 T02280211 10283 20228 58004

2010/08/08 05:53
KEVW 080553Z AUTO 21007KT 10SM CLR 13/07 A3012 RMK AO2 SLP103 60000 T01280067 10178 20111 50001

2010/08/08 05:53
KEWB 080553Z AUTO 00000KT 3/4SM R05/P6000FT BR CLR 15/14 A3003 RMK AO2 SLP169 T01500144 10211 20144 51005

2010/08/08 05:53
KEYE 080553Z AUTO 00000KT 6SM BR CLR 21/19 A2998 RMK AO2 SLP145 T02110189 10272 20206 51002

2010/08/08 05:53
KEYW 080553Z AUTO 19004KT 10SM SCT019 SCT033 30/26 A2996 RMK AO2 SLP146 T03000256 10311 20300 58011

2010/08/08 05:53
KFAT 080553Z 32009KT 10SM CLR 25/11 A2976 RMK AO2 SLP073 T02500106 10356 20250 51015

2010/08/08 05:53
KFAY 080553Z AUTO 03003KT 8SM CLR 23/21 A2995 RMK AO2 SLP137 T02280206 10294 20228 58002

2010/08/08 05:53
KFCM 080553Z AUTO 21007KT 9SM -RA BKN055 26/22 A2968 RMK AO2 LTG DSNT NE RAB48 SLP043 P0000 60000 T02610217 10306 20261 403110194 58004

2010/08/08 05:53
KFDR 080553Z AUTO 19006KT 10SM 29/21 A2983 RMK AO2 SLP079 T02890211 10378 20283 403830228 50005

2010/08/08 05:53
KFDY 080553Z AUTO 17005KT 10SM CLR 18/16 A2997 RMK AO2 SLP142 T01780156 10244 20178 58002

2010/08/08 05:53
KFFC 080553Z AUTO 00000KT 5SM BR CLR 23/21 A2997 RMK AO2 SLP139 T02280211 10306 20228 56005

2010/08/08 05:53
KFFT 080553Z AUTO 00000KT 9SM CLR 18/17 A2998 RMK AO2 SLP145 T01780167 10272 20178 58000

2010/08/08 05:53
KFHR 080553Z AUTO 00000KT 7SM BKN001 OVC005 14/14 A2990 RMK AO2 SLP127 60004 T01440139 10167 20144 53002

2010/08/08 05:53
KFLD 080553Z AUTO 21007KT 10SM CLR 23/18 A2983 RMK AO2 SLP096 T02280183 10261 20228 402830150 55001

2010/08/08 05:53
KFLL 080553Z 00000KT 10SM SCT047 28/25 A2996 RMK AO2 SLP144 6//// T02780250 10283 20261 58007 PNO $

2010/08/08 05:53
KFLO 080553Z AUTO 01003KT 4SM BR SCT120 24/23 A2994 RMK AO2 SLP135 60011 T02390228 10294 20239 58003

2010/08/08 05:53
KFMN 080553Z AUTO 14005KT 10SM CLR 16/14 A3014 RMK AO2 RAE0455 SLP151 P0000 60009 T01610144 10211 20156 58003

2010/08/08 05:53
KFMY 080553Z AUTO 00000KT 10SM CLR 28/25 A2995 RMK AO2 SLP143 T02830250 10300 20278 58006 $

2010/08/08 05:53
KFNB 080553Z AUTO 16005KT 8SM CLR 24/23 A2982 RMK AO2 SLP088 T02440233 10306 20244 403280183 51005

2010/08/08 05:53
KFNT 080553Z AUTO 20007KT 9SM CLR 21/17 A2991 RMK AO2 SLP124 T02110167 10250 20211 58002

2010/08/08 05:53
KFOE 080553Z AUTO 17008KT 10SM CLR 26/23 A2984 RMK AO2 SLP092 T02610228 10317 20261 403440211 58001

2010/08/08 05:53
KFOK 080553Z AUTO 18003KT 10SM CLR 20/18 A3004 RMK AO2 SLP171 T02000178 10222 20194 51006 TSNO

2010/08/08 05:53
KFPR 080553Z AUTO 00000KT 10SM CLR 26/25 A2995 RMK AO2 SLP140 60000 T02610250 10261 20256 58009

2010/08/08 05:53
KGMU 080553Z AUTO 03006KT 8SM CLR 25/20 A3001 RMK AO2 SLP149 T02500200 10300 20239 50001

2010/08/08 05:53
KGNV 080553Z AUTO 20003KT 10SM BKN100 25/24 A2994 RMK AO2 SLP133 60042 T02500239 10250 20239 50000

2010/08/08 05:53
KGOK 080553Z AUTO 14007KT 10SM CLR 28/23 A2984 RMK AO2 SLP091 T02830233 10350 20283 403670244 50007

2010/08/08 05:53
KGRB 080553Z AUTO 21006KT 10SM FEW095 23/19 A2979 RMK AO2 SLP084 T02280194 10261 20217 402890139 55003 $

2010/08/08 05:53
KGRI 080553Z AUTO 18009KT 10SM CLR 25/21 A2980 RMK AO2 SLP070 T02500211 10322 20250 403390211 50003

2010/08/08 05:53
KGRR 080553Z AUTO 21009KT 9SM BKN055 23/18 A2990 RMK AO2 SLP119 T02280178 10256 20217 56004 $

2010/08/08 05:53
KGSH 080553Z AUTO 18006KT 8SM FEW110 21/17 A2995 RMK AO2 SLP136 T02060172 10256 20200 56005

2010/08/08 05:53
KGSP 080553Z AUTO 00000KT 9SM FEW050 BKN080 24/21 A2999 RMK AO2 SLP142 T02390211 10278 20239 50000

2010/08/08 05:53
KGTF 080553Z 20007KT 10SM CLR 16/05 A2981 RMK AO2 SLP062 T01610050 10300 20161 51018

2010/08/08 05:53
KGUP 080553Z AUTO 00000KT 10SM CLR 16/13 A3021 RMK AO2 SLP080 60020 T01560133 10172 20150 51003

2010/08/08 05:53
KP68 080553Z AUTO 22004KT 18/M12 A2999 RMK AO2 SLP062 T01831122 10311 20156 51019 PWINO TSNO

2010/08/08 05:53
KOQT 080553Z AUTO 00000KT 6SM BR CLR 21/19 A2999 RMK AO2 SLP137 T02110194 10283 20206 58003 TSNO

2010/08/08 05:53
KTLH 080553Z 00000KT 10SM SCT095 24/24 A2992 RMK AO2 SLP130 60001 T02440239 10272 20244 58005

2010/08/08 05:53
KMWT 080553Z AUTO 12003KT 10SM FEW110 27/23 A2989 RMK AO2 SLP108 T02670233 10300 20256 403330228 50003 TSNO

2010/08/08 05:53
KDAB 080553Z 00000KT 10SM FEW090 OVC250 26/24 A2994 RMK AO2 SLP137 60000 T02560244 10272 20256 58006

2010/08/08 05:53
KELY 080553Z AUTO 15018G29KT 10SM CLR 19/04 A3006 RMK AO2 PK WND 14032/0530 SLP065 T01890044 10294 20189 51017

2010/08/08 05:54
KJAN 080554Z 00000KT 10SM CLR 26/24 A2992 RMK AO2 SLP126 T02560239 10300 20256 403500250 50003

2010/08/08 05:53
KMSY 080553Z 24005KT 10SM FEW050 SCT250 28/25 A2992 RMK AO2 SLP133 T02830250 10317 20283 403500267 50001

2010/08/08 05:53
K40J 080553Z AUTO 00000KT 24/24 A2992 RMK AO2 SLP131 T02440239 10250 20244 50000 PWINO TSNO

2010/08/08 05:53
KSDM 080553Z AUTO 00000KT 10SM OVC012 16/12 A2993 RMK AO2 SLP132 T01560122 10194 20133 51015 TSNO $

2010/08/08 05:51
KSAD 080551Z AUTO 00000KT 10SM CLR 27/17 A2995 RMK AO2 SLP087 T02720167 10322 20272 51016 TSNO

2010/08/08 05:54
KCAR 080554Z AUTO 24003KT 10SM CLR 09/07 A2994 RMK AO2 SLP144 T00890067 10139 20089 51005

2010/08/08 05:53
KLXV 080553Z AUTO 06005KT 10SM BKN120 09/08 A3038 RMK AO2 RAE06 SLP110 P0001 60011 T00940083 10172 20089 50011 TSNO

2010/08/08 05:54
KFWA 080554Z 19003KT 10SM CLR 18/17 A2998 RMK AO2 SLP146 T01830167 10250 20183 58000

2010/08/08 05:54
KROC 080554Z 20003KT 10SM FEW080 SCT200 15/11 A2999 RMK AO2 SLP152 T01500111 10211 20144 58001 $

2010/08/08 05:53
KSLN 080553Z AUTO 16009KT 10SM CLR 28/21 A2982 RMK AO2 SLP079 T02780211 10350 20272 403720206 53004

2010/08/08 05:53
KSMF 080553Z 16009KT 10SM CLR 17/12 A2973 RMK AO2 SLP067 T01720117 10311 20172 51009

2010/08/08 05:53
KSMQ 080553Z AUTO 00000KT 6SM BR CLR 17/16 A2999 RMK AO2 SLP156 T01670156 10228 20161 51007

2010/08/08 05:53
KSNA 080553Z 15005KT 10SM OVC014 19/13 A2991 RMK AO2 SLP127 T01890128 10222 20183 51018

2010/08/08 05:53
KSNS 080553Z AUTO 27005KT 9SM OVC006 13/12 A2990 RMK AO2 SLP132 T01330117 10167 20133 50009

2010/08/08 05:53
KSNY 080553Z AUTO 23009KT 10SM -RA CLR 24/16 A2996 RMK AO2 RAB46 SLP077 P0000 60000 T02440156 10344 20244 51015

2010/08/08 05:50
KSOW 080550Z AUTO 19003KT 10SM FEW110 14/12 A3023 RMK AO2

2010/08/08 05:55
KSPA 080555Z AUTO 35003KT 10SM SCT047 BKN075 23/23 A2999 RMK AO2

2010/08/08 05:53
KSPB 080553Z AUTO 31004KT 10SM BKN055 OVC070 18/16 A2992 RMK AO2 SLP130 60000 T01780156 10222 20178 51008

2010/08/08 05:53
KSPG 080553Z AUTO 27003KT 10SM CLR 30/25 A2993 RMK AO2 SLP135 T03000250 10311 20300 58003

2010/08/08 05:53
KSPW 080553Z AUTO 20010G17KT 10SM CLR 25/22 A2975 RMK AO2 SLP061 T02500222 10283 20239 403000178 58001

2010/08/08 05:53
KSRQ 080553Z AUTO 27007KT 10SM CLR 29/23 A2994 RMK AO2 SLP137 T02940233 10300 20294 58005 TSNO

2010/08/08 05:53
KSSI 080553Z AUTO 29003KT 8SM OVC009 26/24 A2992 RMK AO2 CIG 006V011 SLP132 T02560244 10267 20250 55003

2010/08/08 05:53
KSTC 080553Z AUTO 07003KT 8SM BKN039 22/21 A2969 RMK AO2 LTG DSNT ALQDS TSE19B26E42RAE0455 SLP055 P0000 60033 T02170211 10294 20217 403170150 55003

2010/08/08 05:53
KSTJ 080553Z 17006KT 9SM CLR 26/21 A2984 RMK AO2 SLP096 T02560211 10311 20256 403220211 51004

2010/08/08 05:53
KSTP 080553Z AUTO 21009G14KT 10SM VCTS FEW055 SCT090 SCT110 28/22 A2968 RMK AO2 LTG DSNT NW-NE TSB39 SLP044 T02780217 10306 20278 403170189 58004

2010/08/08 05:53
KSTS 080553Z AUTO 14004KT 10SM SCT004 12/11 A2982 RMK AO2 SLP090 T01220111 10211 20122 51012

2010/08/08 05:51
KSUN 080551Z AUTO 33009KT 10SM CLR 17/01 A2995 RMK AO2

2010/08/08 05:53
KSWO 080553Z AUTO 15007KT 10SM CLR 29/23 A2984 RMK AO2 SLP090 T02890233 10356 20283 403780250 51007

2010/08/08 05:50
KSZT 080550Z AUTO 05003KT 10SM SCT110 18/13 A2978 RMK AO2

2010/08/08 05:53
KTCC 080553Z AUTO 21011KT 10SM CLR 25/13 A2997 RMK AO2 SLP073 T02500128 10344 20239 51015

2010/08/08 05:53
KTCL 080553Z AUTO 00000KT 4SM BR BKN060 27/24 A2991 RMK AO2 SLP125 T02670244 10306 20261 403500233 55003

2010/08/08 05:53
KTDZ 080553Z AUTO 19005KT 10SM CLR 19/16 A2997 RMK AO2 SLP142 T01940156 10261 20189 55002

2010/08/08 05:50
KTEX 080550Z AUTO 08003KT 10SM SCT065 BKN075 OVC090 13/12 A3033 RMK AO2

2010/08/08 05:53
KTHV 080553Z AUTO 19006KT 10SM SCT070 BKN095 22/15 A3001 RMK AO2 SLP160 T02220150 10256 20211 51005

2010/08/08 05:53
KTIW 080553Z AUTO 23005KT 10SM FEW012 BKN018 OVC031 16/14 A2992 RMK AO2 SLP131 60000 T01560144 10167 20156 51004

2010/08/08 05:53
KMPO 080553Z AUTO 00000KT 10SM FEW085 14/11 A3006 RMK AO2 SLP170 T01390106 10222 20133 50000 $

2010/08/08 05:53
KMRB 080553Z AUTO 00000KT 10SM CLR 18/15 A3001 RMK AO2 SLP157 T01780150 10261 20172 50004

2010/08/08 05:53
KMSL 080553Z AUTO 00000KT 10SM CLR 23/21 A2993 RMK AO2 SLP128 T02330206 10333 20228 403610222 58004

2010/08/08 05:53
KMSO 080553Z AUTO 00000KT 10SM CLR 18/06 A2985 RMK AO2 SLP089 T01780056 10300 20172 51016

2010/08/08 05:53
KMSP 080553Z 19007KT 9SM SCT055 BKN080 27/22 A2968 RMK AO2 SLP044 CONS LTGIC DSNT W-NW AND N-NE T02720217 10311 20272 403170200 58007

2010/08/08 05:53
KMSS 080553Z AUTO 21005KT 10SM FEW060 14/12 A2993 RMK AO2 SLP135 T01440117 10178 20133 58004

2010/08/08 05:53
KMTH 080553Z AUTO 19003KT 10SM FEW021 29/24 A2996 RMK AO2 LTG DSNT N SLP145 T02940244 10306 20294 58010

2010/08/08 05:53
KMTJ 080553Z AUTO 11003KT 10SM BKN100 BKN120 17/16 A3017 RMK AO2 SLP137 60014 T01670156 10211 20167 58001

2010/08/08 05:53
KMTO 080553Z AUTO 15003KT 7SM CLR 21/18 A2996 RMK AO2 SLP141 T02060183 10267 20200 402890167 51004

2010/08/08 05:55
KDYB 080555Z AUTO 00000KT 7SM CLR 23/23 A2992 RMK AO1

2010/08/08 05:53
KECP 080553Z AUTO 06003KT 7SM FEW024 26/25 A2989 RMK AO2 LTG DSNT SW SLP133 60000 T02610250 10261 20256 403440250 58007 $

2010/08/08 05:53
KEET 080553Z AUTO 14003KT 8SM BKN065 27/23 A2993 RMK AO2 SLP127 T02720228 10317 20256 403390233 55000

2010/08/08 05:53
KELD 080553Z AUTO 00000KT 6SM BR FEW055 SCT070 25/24 A2990 RMK AO2 SLP122 60001 T02500244 10267 20250 403440239 51011

2010/08/08 05:53
KELM 080553Z AUTO 00000KT 10SM CLR 11/11 A3003 RMK AO2 SLP167 T01110106 10194 20106 53004

2010/08/08 05:53
KELN 080553Z AUTO 30009KT 10SM SCT110 17/12 A2986 RMK AO2 SLP102 60000 T01720122 10233 20172 50006

2010/08/08 05:53
KEMP 080553Z AUTO 17008KT 8SM CLR 26/22 A2986 RMK AO2 SLP098 T02560217 10322 20256 403390200 52001

2010/08/08 05:53
KHKS 080553Z AUTO 00000KT 10SM CLR 27/24 A2993 RMK AO2 SLP124 T02670244 10311 20261 403440250 50004

2010/08/08 05:53
KHKY 080553Z AUTO 00000KT 6SM BR SCT070 21/21 A3002 RMK AO2 SLP141 T02110206 10272 20211 58003

2010/08/08 05:53
KHLC 080553Z AUTO 19008KT 10SM CLR 28/17 A2982 RMK AO2 SLP067 T02780172 10367 20267 403780200 50008

2010/08/08 05:53
KHLG 080553Z AUTO A3004 RMK AO2 SLPNO 6//// 54000 PWINO FZRANO $

2010/08/08 05:53
KHLN 080553Z AUTO 27005KT 10SM CLR 21/07 A2984 RMK AO2 SLP085 T02110067 10294 20206 51019

2010/08/08 05:53
KHOT 080553Z AUTO 15005KT 8SM BKN015 BKN020 OVC070 27/26 A2993 RMK AO2 LTG DSNT S TSB21E36RAB11E46 SLP126 P0002 60002 T02670256 10328 20267 403440239 53010

2010/08/08 05:53
KHQM 080553Z AUTO 26009KT 9SM OVC005 14/13 A2995 RMK AO2 SLP144 60001 T01390128 10161 20139 51007

2010/08/08 05:53
KHRI 080553Z AUTO 22010KT 10SM SCT095 22/09 A2981 RMK AO2 SLP089 T02220094 10322 20222 51025

2010/08/08 05:53
KHRO 080553Z AUTO 12006KT 7SM CLR 24/22 A2995 RMK AO2 SLP124 T02440217 10306 20244 403220200 51006

2010/08/08 05:53
KHSI 080553Z AUTO 17005KT 10SM CLR 26/21 A2982 RMK AO2 SLP074 T02560211 10328 20256 403390200 53006

2010/08/08 05:53
KHSV 080553Z 09005KT 10SM CLR 25/19 A2992 RMK AO2 SLP123 T02500194 10339 20250 403720217 58006

2010/08/08 05:53
KHUF 080553Z 00000KT 6SM BR CLR 18/17 A2997 RMK AO2 SLP146 T01780172 10267 20178 51004

2010/08/08 05:53
KHUL 080553Z AUTO 21003KT 10SM CLR 08/06 A2997 RMK AO2 SLP149 T00780056 10150 20061 51006

2010/08/08 05:53
KHVN 080553Z AUTO 21006KT 10SM CLR 24/21 A3001 RMK AO2 SLP162 T02390206 10250 20211 51004

2010/08/08 05:53
KHVR 080553Z AUTO 21003KT 10SM CLR 15/09 A2972 RMK AO2 SLP048 60000 T01500094 10317 20150 51010

2010/08/08 05:53
KHWO 080553Z AUTO 00000KT 10SM CLR 28/24 A2998 RMK AO2 SLP152 T02830244 10283 20267 58007 $

2010/08/08 05:53
KHYR 080553Z AUTO 07005KT 10SM -RA BKN031 BKN120 20/19 A2974 RMK AO2 LTG DSNT SE RAB0455 SLP065 P0002 60113 T02000189 10228 20200 402830106 50013

2010/08/08 05:53
KHZY 080553Z AUTO 18005KT 10SM CLR 18/14 A3001 RMK AO2 SLP156 T01780139 10217 20161 58001

2010/08/08 05:53
KIAG 080553Z AUTO 18008KT 10SM FEW065 OVC095 20/14 A2995 RMK AO2 SLP137 T02000144 10211 20178 58006

2010/08/08 05:50
KIBM 080550Z AUTO 25005KT 10SM BKN120 21/16 A3000 RMK AO2 T02140156 10292 20214

2010/08/08 05:53
KICR 080553Z AUTO 21003KT 10SM CLR 24/17 A2976 RMK AO2 SLP056 T02390167 10350 20217 403670217 53011 TSNO

2010/08/08 05:53
KICT 080553Z 15007KT 10SM SCT200 27/22 A2985 RMK AO2 SLP091 T02720222 10328 20272 403610233 53005

2010/08/08 05:53
KIDA 080553Z AUTO 20008KT 10SM CLR 22/08 A2992 RMK AO2 SLP081 60000 T02170078 10311 20133 53012

2010/08/08 05:53
KILM 080553Z AUTO 00000KT 3SM BR CLR 24/23 A2994 RMK AO2 SLP140 60001 T02390228 10272 20239 58000

2010/08/08 05:53
KIML 080553Z AUTO 26005KT 10SM CLR 26/17 A2987 RMK AO2 SLP070 T02560167 10344 20244 50009

2010/08/08 05:53
KMCO 080553Z 23004KT 10SM FEW030 FEW100 SCT180 OVC200 27/24 A2994 RMK AO2 SLP137 T02670239 10272 20267 58008

2010/08/08 05:53
KMCW 080553Z AUTO 20009KT 8SM CLR 24/22 A2980 RMK AO2 SLP075 T02390217 10283 20228 403000167 55002

2010/08/08 05:53
KMVY 080553Z AUTO 20007KT 10SM CLR 23/19 A3005 RMK AO2 SLP173 T02280189 10228 20172 51005

2010/08/08 05:53
KMWL 080553Z AUTO 15008KT 10SM CLR 28/19 A2986 RMK AO2 SLP095 T02780194 10356 20272 403890228 50010

2010/08/08 05:53
KMYF 080553Z AUTO 25003KT 10SM OVC013 17/13 A2993 RMK AO2 SLP130 T01670128 10200 20161 51016 TSNO

2010/08/08 05:53
KMYV 080553Z AUTO 16008KT 10SM CLR 20/13 A2973 RMK AO2 SLP069 T02000133 10339 20200 51013

2010/08/08 05:53
KOAK 080553Z 26011KT 10SM FEW005 SCT008 SCT011 15/12 A2986 RMK AO2 SLP110 T01500117 10194 20144 50005

2010/08/08 05:53
KODO 080553Z AUTO 17011KT 10SM CLR 29/14 A2997 RMK AO2 SLP090 T02890139 10367 20289 403780244 51017 $

2010/08/08 05:53
KODX 080553Z AUTO 20006KT 10SM CLR 24/22 A2978 RMK AO2 SLP068 T02390217 10322 20239 403280200 50003

2010/08/08 05:50
KOGA 080550Z AUTO 27004KT 10SM CLR 24/17 A2988 RMK AO2 T02420166 10345 20239

2010/08/08 05:53
KOGB 080553Z AUTO 00000KT 4SM BR CLR 25/24 A2994 RMK AO2 SLP135 T02500239 10294 20244 58005

2010/08/08 05:53
KOGD 080553Z AUTO 16005KT 10SM CLR 21/08 A2994 RMK AO2 SLP073 T02110083 10283 20211 51014

2010/08/08 05:53
KOJC 080553Z AUTO 15006KT 10SM CLR 26/21 A2987 RMK AO2 SLP101 T02560211 10306 20250 403280217 52003

2010/08/08 05:53
KOLF 080553Z AUTO 00000KT 10SM CLR 18/15 A2970 RMK AO2 SLP047 T01830150 10311 20183 51011

2010/08/08 05:53
KOMK 080553Z AUTO 30006KT 10SM CLR 19/11 A2978 RMK AO2 SLP077 T01940111 10256 20194 50006

2010/08/08 05:50
KONL 080550Z AUTO 25004KT 10SM CLR 25/23 A2978 RMK AO2 T02450225 10325 20242 403400195

2010/08/08 05:53
KONO 080553Z AUTO 33012KT 10SM CLR 24/08 A2977 RMK AO2 SLP062 T02440083 10317 20228 51014

2010/08/08 05:53
KONT 080553Z 25007KT 10SM CLR 16/12 A2990 RMK AO2 SLP116 T01610122 10272 20161 51020

2010/08/08 05:53
KRNT 080553Z AUTO 22005KT 8SM -RA FEW013 BKN027 OVC055 17/16 A2990 RMK AO2 RAB42 SLP131 P0000 60014 T01720156 10178 20172 50004

2010/08/08 05:53
KRSL 080553Z AUTO 17011KT 10SM CLR 26/22 A2982 RMK AO2 SLP074 T02610222 10339 20261 403610206 53008 $

2010/08/08 05:53
KRSW 080553Z AUTO 00000KT 10SM CLR 27/24 A2996 RMK AO2 SLP141 T02720244 10294 20272 58005

2010/08/08 05:53
KRUE 080553Z AUTO 00000KT 9SM CLR 28/23 A2990 RMK AO2 SLP116 T02780233 10322 20272 403500233 51006

2010/08/08 05:53
KRVS 080553Z AUTO 14003KT 10SM CLR 27/23 A2985 RMK AO2 SLP109 T02720228 10333 20272 403500256 50005

2010/08/08 05:53
KRWF 080553Z AUTO 21012KT 10SM SCT060 SCT070 26/22 A2966 RMK AO2 SLP036 T02610222 10294 20244 403170178 58006

2010/08/08 05:53
KRWI 080553Z AUTO 00000KT 6SM BR CLR 23/22 A2998 RMK AO2 SLP150 60000 T02330217 10278 20233 58000

2010/08/08 05:53
KRWL 080553Z AUTO 25003KT 10SM BKN110 14/10 A3015 RMK AO2 RAE0454 SLP108 6//// T01440100 10239 20139 58005 PNO $

2010/08/08 05:53
KRXE 080553Z AUTO 07004KT 10SM CLR 14/09 A2993 RMK AO2 SLP092 60000 T01390089 10289 20139 53008

2010/08/08 05:53
KSAC 080553Z 19008G15KT 10SM CLR 17/11 A2975 RMK AO2 SLP074 T01720111 10300 20172 51010

2010/08/08 05:53
KSAF 080553Z AUTO 01009KT 10SM SCT100 21/12 A3017 RMK AO2 SLP100 T02060117 10317 20206 51015

2010/08/08 05:51
KSAN 080551Z 22004KT 10SM OVC018 17/12 A2994 RMK AO2 SLP137 T01720122 10194 20167 51015 $

2010/08/08 05:53
KSBA 080553Z 16003KT 10SM OVC009 14/12 A2989 RMK AO2 SLP120 T01440122 10178 20144 51013

2010/08/08 05:53
KSBM 080553Z AUTO 21005KT 10SM CLR 21/19 A2983 RMK AO2 SLP096 T02110189 10261 20211 402890144 55001

2010/08/08 05:53
KSDL 080553Z 05011KT 10SM CLR 28/20 A2985 RMK AO2 LTG DSNT NE AND E RAE24 SLP081 P0000 60000 T02830200 10350 20278 50018

2010/08/08 05:53
KSEA 080553Z 27007KT 10SM BKN006 BKN010 OVC019 16/15 A2992 RMK AO2 CIG 002V008 SLP138 60013 T01610150 10172 20161 51005

2010/08/08 05:53
KSEG 080553Z AUTO 00000KT 7SM CLR 16/15 A3002 RMK AO2 SLP164 T01610150 10228 20156 51003

2010/08/08 05:50
KSEZ 080550Z AUTO 00000KT 10SM CLR 18/16 A3009 RMK AO2 T01840156 10200 20180

2010/08/08 05:53
PAYA 080553Z 00000KT 10SM SCT012 BKN035 OVC055 13/11 A2984 RMK AO2 SLP105 BAY TWR WND 115MMKT T01330111 10150 20133 51002

2010/08/08 05:53
PAAQ 080553Z AUTO 00000KT 1 3/4SM -RA BR SCT011 OVC019 11/11 A2979 RMK AO2 RAB00 SLP083 P0003 60003 T01110106 10156 20111 51010 TSNO

2010/08/08 05:53
PABE 080553Z 19008KT 10SM OVC019 11/09 A2970 RMK AO2 SLP058 T01110094 10128 20111 58003

2010/08/08 05:53
PABI 080553Z AUTO 28006KT 10SM OVC050 16/10 A2971 RMK AO2 SLP061 T01560100 10194 20156 53010 TSNO $

2010/08/08 05:53
PABR 080553Z 07018KT 2 1/2SM BR OVC005 04/04 A2986 RMK AO2 RAE0457B13E25 SLP112 P0000 60000 T00390039 10050 20039 51009

2010/08/08 05:53
PABT 080553Z 00000KT 10SM SCT030 BKN048 BKN075 14/11 A2964 RMK AO2 SLP043 60000 T01440106 10161 20144 53011 $

2010/08/08 05:53
PACD 080553Z AUTO 14026G33KT 10SM -RA BKN003 OVC075 11/11 A2970 RMK AO2 PK WND 15035/0525 SLP057 P0001 60001 T01060106 10139 20106 56022 TSNO

2010/08/08 05:53
PACV 080553Z 07003KT 10SM -RA SCT015 BKN030 OVC035 10/09 A2981 RMK AO2 RAB08 SLP094 P0000 60005 T01000094 10139 20100 55001

2010/08/08 05:53
PADE 080553Z AUTO 31006KT 10SM CLR 13/10 A2960 RMK AO2 SLP022 T01330100 10156 20133 51006 TSNO

2010/08/08 05:53
PADQ 080553Z 33006KT 10SM FEW010 BKN024 OVC032 13/11 A2979 RMK AO2 SLP088 60001 T01280111 10139 20122 53004

2010/08/08 05:53
PAEG 080553Z AUTO 00000KT 10SM SCT075 OVC100 13/12 A2963 RMK AO2 RAE45 SLP036 P0003 60013 T01280117 10217 20128 51015 TSNO

2010/08/08 05:53
PAEN 080553Z AUTO 20010KT 10SM OVC060 13/11 A2976 RMK AO2 SLP079 60004 T01330106 10144 20128 53003 TSNO $

2010/08/08 05:53
PAFA 080553Z 30005KT 10SM FEW045 BKN080 BKN130 14/13 A2966 RMK AO2 SLP049 SH DSNT SE AND SW 60005 T01440133 10206 20144 51012

2010/08/08 05:53
PAGK 080553Z AUTO 15005KT 10SM SCT045 BKN065 OVC100 14/08 A2968 RMK AO2 SLP052 T01440078 10189 20144 53008 TSNO

2010/08/08 05:53
PAGY 080553Z AUTO 21008KT 10SM SCT050 OVC060 13/10 A2981 RMK AO2 SLP096 T01330100 10144 20117 51007 TSNO

2010/08/08 05:53
PAHO 080553Z AUTO 10SM OVC080 11/11 A2978 RMK AO2 SLP084 60004 T01110106 10122 20111 55001 TSNO $

2010/08/08 05:53
PAIL 080553Z AUTO 00000KT 10SM OVC020 11/09 A2980 RMK AO2 SLP094 60001 T01060094 10117 20100 53005 TSNO

2010/08/08 05:53
PAJN 080553Z 06006KT 3SM -RA BR FEW005 BKN027 OVC040 12/11 A2986 RMK AO2 TWR VIS 10 SLP111 MTNS OBSCD ALQDS P0001 60012 T01170111 10133 20117 53007

2010/08/08 05:53
PAKT 080553Z AUTO 00000KT 10SM OVC033 14/12 A2991 RMK AO2 SLP129 T01390117 10150 20139 53005 TSNO

2010/08/08 05:53
PAKV 080553Z AUTO 00000KT 9SM -RA FEW022 SCT028 OVC037 13/13 A2968 RMK AO2 SLP052 P0003 60047 T01330128 10144 20133 53006 TSNO

2010/08/08 05:53
PAKW 080553Z AUTO 00000KT 7SM -RA OVC004 12/11 A2990 RMK AO2 CIG 003V007 SLP125 P0002 60003 T01220111 10133 20122 53008 TSNO

2010/08/08 05:53
PALH 080553Z 17004KT 10SM BKN045 OVC060 13/11 A2977 RMK AO2 RAE16 SLP082 P0000 60007 T01330106 10144 20133 53005

2010/08/08 05:53
PAMC 080553Z 19003KT 10SM SCT025 OVC060 13/11 A2971 RMK AO2 SLP063 60000 T01280106 10133 20128 53004

2010/08/08 05:54
KAAO 080554Z AUTO 16008KT 10SM CLR 28/22 A2986 RMK AO2 SLP092 T02780217 10328 20278 403610206 53005

2010/08/08 05:55
KAEG 080555Z AUTO 35009KT 10SM CLR 19/12 A3017 RMK AO1

2010/08/08 05:55
KAIK 080555Z AUTO 00000KT 5SM HZ CLR 23/ A2998 RMK AO2 PNO

2010/08/08 05:55
KAIZ 080555Z AUTO 18003KT 10SM CLR 23/21 A2994 RMK AO1 10300 20230 52007

2010/08/08 05:54
KAKH 080554Z AUTO 00000KT 7SM SCT044 22/19 A2999 RMK AO2 SLP146 T02220194 10278 20222 58003

2010/08/08 05:54
KAKR 080554Z AUTO 17003KT 10SM CLR 18/14 A3001 RMK AO2 SLP155 T01780144 10239 20178 58003

2010/08/08 05:54
KALO 080554Z AUTO 19010KT 10SM CLR 24/22 A2980 RMK AO2 SLP083 T02390217 10283 20233 402940189 58001

2010/08/08 05:54
KAPC 080554Z AUTO 21013KT 10SM BKN007 13/12 A2982 RMK AO2 SLP089 T01330122 10194 20128 50011

2010/08/08 05:51
KNTU 080551Z 00000KT 10SM BKN010 BKN060 24/23 A2999 RMK AO2 $

2010/08/08 05:55
KCGC 080555Z AUTO 00000KT 6SM SCT015 BKN044 26/25 A2994 RMK

2010/08/08 05:53
KSFB 080553Z AUTO 00000KT 10SM FEW026 27/25 A2994 RMK AO2 RAE20 SLP138 P0001 60002 T02670250 10272 20267 58001

2010/08/08 05:53
KSFF 080553Z AUTO 27003KT 10SM CLR 23/08 A2979 RMK AO2 SLP072 T02280083 10300 20228 51013

2010/08/08 05:53
KSHN 080553Z AUTO 24009KT 10SM OVC005 14/14 A2989 RMK AO2 SLP123 60000 T01440139 10178 20144 51004

2010/08/08 05:53
KSHR 080553Z AUTO 17007KT 10SM CLR 18/11 A2986 RMK AO2 SLP070 60001 T01830111 10261 20167 55010

2010/08/08 05:53
KSIY 080553Z AUTO 03008KT 10SM 20/08 A2992 RMK AO2 SLP118 T02000083 10311 20200 51021 $

2010/08/08 05:53
KSJC 080553Z 11007KT 10SM FEW011 16/11 A2985 RMK AO2 SLP108 T01560106 10244 20150 50012

2010/08/08 05:53
KSLC 080553Z 17009KT 10SM FEW070 SCT120 23/11 A2992 RMK AO2 SLP072 T02280106 10272 20228 51012

2010/08/08 05:53
KOPF 080553Z AUTO 00000KT 10SM SCT043 28/26 A2997 RMK AO2 SLP149 6//// T02780256 10278 20267 58007 $

2010/08/08 05:51
KORF 080551Z 10003KT 7SM BKN009 25/23 A2999 RMK AO2 SLP156 T02500233 10256 20239 52002 $

2010/08/08 05:53
KORL 080553Z AUTO 22004KT 10SM CLR 27/25 A2994 RMK AO2 SLP141 T02670250 10278 20267 58006

2010/08/08 05:53
KOSH 080553Z AUTO 21010G15KT 10SM CLR 24/18 A2981 RMK AO2 SLP078 T02390178 10261 20228 402830144 55002

2010/08/08 05:53
KOSU 080553Z AUTO 00000KT 10SM CLR 19/16 A3000 RMK AO2 SLP153 T01890161 10256 20178 50000

2010/08/08 05:53
KOTM 080553Z AUTO 19008KT 5SM BR CLR 23/22 A2986 RMK AO2 SLP103 T02280217 10289 20228 403000189 51003

2010/08/08 05:53
KOVS 080553Z AUTO 20005KT 10SM CLR 23/21 A2981 RMK AO2 SLP091 T02280206 10278 20228 403000161 55004

2010/08/08 05:53
KOWD 080553Z AUTO 00000KT 10SM CLR 12/09 A3002 RMK AO2 SLP166 T01170094 10233 20106 51004 $

2010/08/08 05:53
KOXB 080553Z AUTO 00000KT 7SM CLR 21/21 A3000 RMK AO2 SLP159 T02110206 10244 20206 58001

2010/08/08 05:53
KPAE 080553Z AUTO 21006KT 3SM BR BKN008 OVC016 16/15 A2991 RMK AO2 CIG 004V010 SLP128 60006 T01610150 10178 20161 51003

2010/08/08 05:53
KPAH 080553Z AUTO 00000KT 7SM CLR 23/17 A2993 RMK AO2 SLP132 T02280167 10322 20217 403440178 51004

2010/08/08 05:53
KPBF 080553Z AUTO 00000KT 8SM CLR 26/24 A2991 RMK AO2 LTG DSNT NW SLP126 T02560244 10306 20256 403280239 51006

2010/08/08 05:53
KPBG 080553Z AUTO 21004KT 10SM CLR 12/09 A2996 RMK AO2 SLP144 T01170094 10167 20106 50000

2010/08/08 05:53
KPBI 080553Z 21004KT 10SM FEW039 SCT100 27/24 A2995 RMK AO2 SLP140 T02740237 10289 20272 58014 $

2010/08/08 05:53
KPDK 080553Z AUTO 00000KT 10SM CLR 24/22 A2998 RMK AO2 SLP129 T02440222 10300 20244 56003 $

2010/08/08 05:53
KPDT 080553Z AUTO 25010KT 10SM FEW120 21/08 A2984 RMK AO2 SLP088 T02060078 10306 20206 53020

2010/08/08 05:53
KPDX 080553Z 33005KT 10SM FEW020 BKN042 OVC050 19/16 A2992 RMK AO2 SLP131 60000 T01890156 10239 20189 50007

2010/08/08 05:53
KPEO 080553Z AUTO 00000KT CLR 14/12 A3002 RMK AO2 SLP163 T01390117 10194 20117 53002 $

2010/08/08 05:53
KPGA 080553Z AUTO 00000KT 10SM CLR 17/15 A3008 RMK AO2 SLP139 T01670150 10206 20167 50005

2010/08/08 05:53
KPGD 080553Z AUTO 20003KT 10SM CLR 27/25 A2998 RMK AO2 SLP151 T02720250 10300 20272 58006 TSNO

2010/08/08 05:53
KPHD 080553Z AUTO 13003KT 7SM CLR 16/14 A3002 RMK AO2 SLP161 T01610139 10233 20161 58001

2010/08/08 05:53
KPIE 080553Z AUTO 27004KT 10SM CLR 28/24 A2994 RMK AO2 SLP140 60001 T02830244 10294 20278 58002

2010/08/08 05:53
KPIH 080553Z AUTO 19012KT 10SM CLR 24/04 A2991 RMK AO2 SLP074 T02390044 10311 20200 51014

2010/08/08 05:53
KPIR 080553Z AUTO 20004KT 10SM CLR 24/17 A2970 RMK AO2 SLP039 T02440172 10339 20222 403440206 51005

2010/08/08 05:53
KPKB 080553Z AUTO 00000KT 8SM CLR 17/16 A3005 RMK AO2 SLP168 T01670156 10256 20167 50002

2010/08/08 05:53
KPKD 080553Z AUTO 13003KT 10SM BKN040 19/17 A2969 RMK AO2 SLP048 T01890167 10272 20183 402830133 53005

2010/08/08 05:53
KTKI 080553Z AUTO 17003KT 10SM CLR 29/22 A2986 RMK AO2 SLP102 T02940217 10356 20294 403780239 51009

2010/08/08 05:53
KTMB 080553Z AUTO 00000KT 10SM CLR 28/24 A2997 RMK AO2 SLP147 T02830244 10289 20278 58008

2010/08/08 05:53
KMEM 080553Z 00000KT 10SM FEW045 28/24 A2991 RMK AO2 SLP124 T02830244 10328 20278 403560250 50002 $

2010/08/08 05:53
KMFR 080553Z AUTO 00000KT 10SM CLR 23/12 A2988 RMK AO2 SLP108 T02280117 10317 20217 51016

2010/08/08 05:53
KMGW 080553Z AUTO 00000KT 7SM CLR 16/14 A3006 RMK AO2 SLP170 T01610144 10256 20161 50003

2010/08/08 05:53
KMGY 080553Z AUTO 00000KT 10SM CLR 21/15 A3000 RMK AO2 SLP150 T02060150 10256 20194 58000

2010/08/08 05:53
KMHE 080553Z AUTO 25006KT 10SM CLR 25/21 A2969 RMK AO2 SLP041 T02500211 10328 20250 403330217 51010 TSNO

2010/08/08 05:53
KMHT 080553Z 00000KT 10SM CLR 15/10 A3001 RMK AO2 SLP171 T01500100 10233 20150 51006

2010/08/08 05:53
KMIA 080553Z 20003KT 10SM FEW040 BKN130 BKN250 28/25 A2997 RMK AO2 SLP148 T02830250 10289 20278 58007 $

2010/08/08 05:53
KMIC 080553Z VRB05KT 10SM BKN026 BKN045 OVC070 27/21 A2968 RMK AO2 LTG DSNT N-E TSB16E47 SLP045 T02720206 10311 20261 403220178 53002

2010/08/08 05:53
KMIE 080553Z AUTO 18003KT 10SM CLR 19/16 A2999 RMK AO2 SLP145 T01940161 10256 20183 50000

2010/08/08 05:53
KMIW 080553Z AUTO 19011KT 10SM CLR 24/21 A2981 RMK AO2 SLP085 T02440211 10283 20244 402940183 58002

2010/08/08 05:53
KMKL 080553Z AUTO 00000KT 10SM CLR 23/21 A2992 RMK AO2 SLP126 T02330206 10311 20228 403440194 50000

2010/08/08 05:53
KMKO 080553Z AUTO 15006KT 10SM CLR 26/23 A2987 RMK AO2 SLP107 T02560228 10311 20250 403220239 51002

2010/08/08 05:53
KMLB 080553Z AUTO 21006KT 10SM CLR 25/24 A2994 RMK AO2 SLP138 T02500244 10267 20250 58008

2010/08/08 05:53
KMLC 080553Z AUTO 00000KT 10SM FEW065 27/22 A2987 RMK AO2 LTG DSNT SE SLP102 60000 T02720222 10339 20272 403670239 51004

2010/08/08 05:50
KMLE 080550Z AUTO 15005KT 10SM CLR 26/21 A2979 RMK AO2 T02620210 10316 20262 403250208

2010/08/08 05:53
KMLP 080553Z AUTO 24005KT 10SM CLR 14/06 A2998 RMK AO2 SLP062 T01390056 10183 20139 50004 TSNO

2010/08/08 05:53
KMLS 080553Z AUTO 22007KT 10SM CLR 22/11 A2976 RMK AO2 SLP052 T02170111 10328 20211 53003

2010/08/08 05:53
KMLT 080553Z AUTO 00000KT 10SM CLR 08/06 A3000 RMK AO2 SLP163 T00780056 10172 20078 51003

2010/08/08 05:53
KMLU 080553Z 00000KT 10SM BKN085 28/24 A2991 RMK AO2 SLP127 T02780244 10328 20272 403610256 53005

2010/08/08 05:50
KMMH 080550Z AUTO 00000KT 10SM CLR 10/M00 A3011 RMK AO1

2010/08/08 05:53
KMMK 080553Z AUTO 00000KT 10SM CLR 17/16 A3001 RMK AO2 SLP161 T01670156 10217 20167 51005

2010/08/08 05:53
KMMV 080553Z AUTO 22004KT 10SM FEW037 SCT050 OVC060 18/14 A2993 RMK AO2 SLP132 60000 T01830144 10244 20183 51010

2010/08/08 05:53
KMNN 080553Z AUTO 18006KT 10SM CLR 18/16 A3000 RMK AO2 SLP156 T01780156 10244 20172 56000

2010/08/08 05:53
KMOD 080553Z AUTO 35007KT 10SM CLR 23/13 A2975 RMK AO2 SLP073 T02330133 10328 20233 51010

2010/08/08 05:53
KVPC 080553Z AUTO 00000KT 6SM BR CLR 23/22 A2996 RMK AO2 SLP132 T02280222 10289 20228 58003

2010/08/08 05:53
KVPZ 080553Z AUTO 20004KT 9SM CLR 20/18 A2994 RMK AO2 SLP134 T02000183 10261 20200 402780156 55001

2010/08/08 05:53
KVRB 080553Z 20004KT 10SM CLR 26/24 A2994 RMK AO2 SLP138 T02560244 10261 20256 58011

2010/08/08 05:53
KVUO 080553Z AUTO 33006KT 10SM OVC037 19/16 A2992 RMK AO2 SLP130 60000 T01890156 10239 20189 51007

2010/08/08 05:53
KWRL 080553Z AUTO 35004KT 10SM CLR 21/09 A2990 RMK AO2 SLP075 T02110089 10289 20200 50010

2010/08/08 05:53
KWST 080553Z AUTO 00000KT 10SM BKN085 18/16 A3004 RMK AO2 SLP170 T01780161 10228 20172 51004

2010/08/08 05:53
KWVI 080553Z AUTO 19004KT 10SM OVC005 13/11 A2990 RMK AO2 SLP123 T01280111 10172 20128 51002 $

2010/08/08 05:53
KXNA 080553Z AUTO 00000KT 10SM CLR 24/22 A2992 RMK AO2 SLP114 T02440217 10294 20239 403220217 50003

2010/08/08 05:53
KYIP 080553Z 20008KT 8SM CLR 20/16 A2995 RMK AO2 SLP134 60000 T02000161 10256 20194 58001

2010/08/08 05:53
KYKM 080553Z AUTO 36008KT 10SM OVC110 21/12 A2984 RMK AO2 RAE0456 SLP095 P0000 60000 T02060122 10278 20206 51010 $

2010/08/08 05:53
KZZV 080553Z AUTO 00000KT 6SM BR CLR 17/16 A3002 RMK AO2 SLP159 T01720161 10256 20167 51001

2010/08/08 05:53
KPSP 080553Z 31015G21KT 10SM FEW090 30/06 A2970 RMK AO2 SLP053 T03000061 10389 20300 51014

2010/08/08 05:53
KPTK 080553Z 20004KT 10SM SCT150 21/16 A2993 RMK AO2 SLP127 T02110161 10250 20211 57002

2010/08/08 05:50
KPTT 080550Z AUTO 17010KT 10SM CLR 28/21 A2986 RMK AO2

2010/08/08 05:53
KPUB 080553Z AUTO 33006KT 10SM SCT110 21/17 A2999 RMK AO2 SLP081 60000 T02110167 10250 20211 53012 $

2010/08/08 05:53
KPUC 080553Z AUTO 09007KT 10SM CLR 16/10 A3015 RMK AO2 SLP141 T01560100 10217 20156 50010

2010/08/08 05:53
KPUW 080553Z AUTO 00000KT 10SM CLR 19/08 A2985 RMK AO2 SLP091 T01940078 10272 20194 51010

2010/08/08 05:53
KPWA 080553Z AUTO 16013KT 10SM CLR 31/21 A2986 RMK AO2 SLP089 T03060206 10356 20306 403670239 51006

2010/08/08 05:53
KRAC 080553Z AUTO 22008KT 9SM CLR 23/19 A2988 RMK AO2 SLP112 T02330189 10272 20233 402940183 55004

2010/08/08 05:53
KRAL 080553Z AUTO 00000KT 10SM CLR 17/13 A2990 RMK AO2 SLP113 T01670128 10278 20167 51021

2010/08/08 05:53
KRBD 080553Z 18007KT 10SM CLR 30/21 A2987 RMK AO2 SLP102 T03000206 10361 20300 403780244 51011

2010/08/08 05:53
KRBG 080553Z AUTO 01005KT 10SM CLR 21/13 A2992 RMK AO2 SLP130 T02060133 10289 20206 51017

2010/08/08 05:53
KRDD 080553Z AUTO 21004KT 10SM CLR 28/12 A2974 RMK AO2 SLP064 T02830122 10378 20278 51029

2010/08/08 05:53
KRHI 080553Z AUTO 28004KT 2 1/2SM +TSRA BR OVC029 18/17 A2985 RMK AO2 LTG DSNT ALQDS PRESRR SLP100 P0026 60093 T01780172 10250 20178 402830100 53018

2010/08/08 05:53
KRIW 080553Z AUTO 15003KT 10SM CLR 20/06 A2998 RMK AO2 SLP077 T02000061 10283 20200 50007

2010/08/08 05:53
KRME 080553Z AUTO 10005KT 10SM CLR 14/12 A3003 RMK AO2 SLP166 T01390122 10206 20133 55000

2010/08/08 05:53
KRMG 080553Z AUTO 03003KT 10SM CLR 23/21 A2995 RMK AO2 SLP129 T02330206 10333 20233 50000

2010/08/08 05:53
PAMR 080553Z 20003KT 10SM -RA BR SCT020 BKN040 12/11 A2976 RMK AO2 SLP078 P0000 60008 T01220106 10139 20122 53004 $

2010/08/08 05:53
PANC 080553Z 17004KT 10SM -RA FEW011 SCT040 OVC080 12/11 A2976 RMK AO2 SLP078 P0000 60006 T01220111 10139 20122 53006

2010/08/08 05:53
PANN 080553Z AUTO 00000KT 10SM OVC100 15/10 A2966 RMK AO2 SLP048 T01500100 10211 20150 53014 TSNO

2010/08/08 05:53
PANT 080553Z AUTO 24004KT 10SM OVC025 14/11 A2991 RMK AO2 SLP130 T01390111 10161 20139 53006 TSNO

2010/08/08 05:53
PAOM 080553Z 25005KT 10SM OVC009 13/10 A2960 RMK AO2 SLP022 T01280100 10139 20128 53001

2010/08/08 05:53
PAOR 080553Z 00000KT 10SM FEW050 BKN075 BKN120 13/09 A2966 RMK AO2 SLP046 SHRA DSNT S TCU DSNT N T01330094 10194 20133 53006

2010/08/08 05:53
PAOT 080553Z 30016KT 10SM FEW003 BKN032 BKN080 OVC180 11/10 A2958 RMK AO2 SLP015 T01060100 10128 20106 53005

2010/08/08 05:53
PAPB 080553Z AUTO 18017KT 5SM BR OVC003 10/10 A2933 RMK AO2 RAE15 SLP917 P0000 60046 T01000100 10106 20100 56033 TSNO

2010/08/08 05:53
PAQT 080553Z AUTO 06016G22KT 10SM OVC008 04/04 A2979 RMK AO2 SLP087 60001 T00440039 10067 20044 53012 TSNO

2010/08/08 05:53
PASC 080553Z 07018G26KT 10SM OVC005 04/03 A2976 RMK AO2 PK WND 06029/0503 SLP077 60000 T00390028 10061 20039 51008

2010/08/08 05:53
PASI 080553Z 22004KT 10SM FEW009 BKN036 OVC055 13/12 A2989 RMK AO2 SLP123 60002 T01330117 10150 20128 53010

2010/08/08 05:53
PASN 080553Z AUTO 17014KT 1 1/2SM BR OVC003 08/08 A2928 RMK AO2 RAE18 SLP916 P0000 60038 T00830083 10094 20083 56037 TSNO

2010/08/08 05:53
PASO 080553Z AUTO 00000KT 10SM OVC085 11/11 A2977 RMK AO2 SLP082 60005 T01110106 10133 20111 55000 TSNO

2010/08/08 05:53
PATK 080553Z AUTO 19003KT 10SM OVC015 13/11 A2975 RMK AO2 SLP078 60000 T01280106 10167 20128 53009 TSNO

2010/08/08 05:53
PATO 080553Z AUTO VRB04KT 10SM -RA OVC031 09/09 A2979 RMK AO2 SLP087 P0002 60011 T00940094 10122 20094 53003 TSNO

2010/08/08 05:53
PAVL 080553Z AUTO 27008KT 1 1/2SM -RA BR OVC001 10/09 A2959 RMK AO2 SLP021 P0000 60000 T01000094 10117 20094 53006 TSNO

2010/08/08 05:53
PAWD 080553Z AUTO 00000KT 10SM -RA BKN008 OVC017 11/10 A2977 RMK AO2 SLP082 P0002 60021 T01110100 10122 20111 53002 TSNO

2010/08/08 05:53
KTOI 080553Z AUTO 00000KT 6SM BR SCT002 24/23 A2994 RMK AO2 SLP131 60055 T02440233 10283 20233 403560233 53000

2010/08/08 05:53
KTOP 080553Z AUTO 17006KT 10SM CLR 28/23 A2984 RMK AO2 SLP091 T02830228 10328 20278 403560217 51002

2010/08/08 05:53
KTOR 080553Z AUTO 28006KT 10SM FEW090 27/08 A2989 RMK AO2 SLP056 60000 T02670078 10350 20267 51008

2010/08/08 05:53
KTPA 080553Z 24008KT 10SM FEW025 SCT130 BKN250 29/24 A2994 RMK AO2 SLP138 TCU DSNT NW T02940244 10300 20289 58004

2010/08/08 05:50
KTRK 080550Z AUTO 13006KT 10SM CLR 12/05 A3004 RMK AO2

2010/08/08 05:53
KTRL 080553Z AUTO 17004KT 10SM CLR 29/21 A2987 RMK AO2 SLP107 T02890211 10361 20289 403830250 51010

2010/08/08 05:53
KTTD 080553Z AUTO 27003KT 10SM FEW039 OVC048 19/16 A2990 RMK AO2 SLP124 60000 T01890156 10239 20189 50007

2010/08/08 05:53
KTTN 080553Z AUTO 19004KT 10SM BKN075 BKN095 21/17 A3001 RMK AO2 SLP153 T02110167 10278 20211 51005

2010/08/08 05:53
KTUL 080553Z 14007KT 10SM CLR 27/23 A2985 RMK AO2 SLP098 T02720228 10322 20272 403390256 51006

2010/08/08 05:53
KTUS 080553Z 04005KT 10SM VCTS OVC070 24/18 A3001 RMK AO2 LTG DSNT W TSB41 SLP117 T02440178 10306 20239 51032 $

2010/08/08 05:53
KTVC 080553Z AUTO 00000KT 8SM BKN034 22/20 A2979 RMK AO2 SLP085 60018 T02170200 10244 20211 56008

2010/08/08 05:53
KTVL 080553Z AUTO 20007KT 10SM CLR 16/06 A3005 RMK AO2 SLP108 60001 T01610056 10256 20133 50005

2010/08/08 05:53
KTVR 080553Z AUTO 13003KT 8SM CLR 26/24 A2990 RMK AO2 SLP130 T02610244 10294 20261 403500233 58001

2010/08/08 05:53
KTWF 080553Z AUTO 18005KT 10SM CLR 21/08 A2988 RMK AO2 SLP059 T02060078 10300 20194 51010

2010/08/08 05:53
KTXK 080553Z AUTO 17004KT 10SM CLR 28/23 A2989 RMK AO2 LTG DSNT N SLP115 T02780233 10306 20256 403560228 53007

2010/08/08 05:53
KTYR 080553Z AUTO 19008KT 10SM CLR 29/23 A2991 RMK AO2 SLP118 T02940228 10361 20283 403720250 51013

2010/08/08 05:53
KUAO 080553Z AUTO 05004KT 10SM BKN036 BKN047 OVC060 20/16 A2992 RMK AO2 SLP130 T02000161 10250 20200 51010

2010/08/08 05:53
KUNO 080553Z AUTO 00000KT 10SM BKN060 24/18 A2997 RMK AO2 SLP132 T02440183 10311 20244 403330183 51008

2010/08/08 05:53
KUUU 080553Z AUTO 16004KT 10SM CLR 21/20 A3004 RMK AO2 SLP172 T02060200 10217 20183 51005

2010/08/08 05:53
KVCB 080553Z AUTO 23012KT 10SM CLR 18/11 A2974 RMK AO2 SLP070 T01780111 10322 20178 51010

2010/08/08 05:53
KVEL 080553Z AUTO 28004KT 10SM CLR 15/13 A3013 RMK AO2 SLP141 60001 T01500133 10172 20150 50003

2010/08/08 05:53
KVGT 080553Z AUTO 17010KT 10SM CLR 32/13 A2978 RMK AO2 SLP043 T03170133 10361 20311 51014 TSNO

2010/08/08 05:53
KVIH 080553Z AUTO 15006KT 10SM CLR 23/19 A2993 RMK AO2 SLP123 T02280194 10294 20228 403110194 51006

2010/08/08 05:53
KVLD 080553Z AUTO 00000KT 1 1/4SM BR FEW002 24/24 A2993 RMK AO2 SLP140 60000 T02440239 10272 20244 58000

2010/08/08 05:53
KPMD 080553Z AUTO 20012KT 10SM CLR 23/M02 A2989 RMK AO2 SLP090 T02281022 10306 20222 51014

2010/08/08 05:53
KPMP 080553Z AUTO 24003KT 10SM RA CLR 27/25 A2996 RMK AO2 SLP146 P0000 60000 T02720250 10278 20256 58009

2010/08/08 05:50
KPNA 080550Z AUTO 30004KT 10SM CLR 12/07 A3013 RMK AO2 T01240066 10247 20124 402570094

2010/08/08 05:53
KPNC 080553Z AUTO 15009KT 10SM CLR 28/22 A2984 RMK AO2 SLP089 T02830222 10333 20283 403440239 53004

2010/08/08 05:53
KPNS 080553Z AUTO 00000KT 8SM OVC100 27/25 A2990 RMK AO2 RAB0456E05 SLP126 P0000 60029 T02670250 10272 20244 403610244 58003 $

2010/08/08 05:53
KPOF 080553Z AUTO 04003KT 8SM CLR 22/20 A2993 RMK AO2 SLP128 T02220200 10306 20217 403390200 53006

2010/08/08 05:53
KPOU 080553Z 00000KT 10SM CLR 14/13 A3000 RMK AO2 SLP155 T01390128 10233 20133 53005

2010/08/08 05:53
KPRB 080553Z AUTO 20006KT 10SM CLR 14/10 A2988 RMK AO2 SLP112 T01390100 10239 20139 51019 TSNO $

2010/08/08 05:53
KPRC 080553Z AUTO 21004KT 10SM CLR 16/14 A3010 RMK AO2 SLP132 T01610144 10206 20161 50006

2010/08/08 05:53
KPSC 080553Z AUTO 29004KT 10SM OVC085 23/11 A2980 RMK AO2 SLP087 T02280106 10339 20222 51023

2010/08/08 05:55
KARG 080555Z AUTO 01003KT 7SM CLR 24/20 A2992 RMK AO1 10310 20240 52007

2010/08/08 05:55
KAUO 080555Z AUTO 18005KT 10SM CLR 26/23 A2994 RMK AO1 10310 20260 57007

2010/08/08 05:54
KAUW 080554Z AUTO 21009KT 9SM BKN080 BKN095 23/21 A2978 RMK AO2 LTG DSNT N AND NE SLP080 60016 T02280206 10256 20217 402830128 53004

2010/08/08 05:54
KAVL 080554Z AUTO 12003KT 5SM BR CLR 21/19 A3007 RMK AO2 SLP153 T02060194 10256 20206 58003 TSNO

2010/08/08 05:55
KAWO 080555Z AUTO 13005KT 10SM 17/16 A2991 RMK AO1 60003 10190 20160 54000

2010/08/08 05:55
KBBP 080555Z AUTO 00000KT 3SM BR CLR 23/22 A2995 RMK AO2

2010/08/08 05:54
KBFL 080554Z AUTO 35010KT 10SM CLR 26/05 A2976 RMK AO2 SLP071 T02610050 10356 20261 51018

2010/08/08 05:55
KBHB 080555Z AUTO 00000KT 10SM BKN075 12/11 A3001 RMK AO1 10170 20120 52003

2010/08/08 05:55
KBID 080555Z AUTO 20006KT 10SM BKN080 22/19 A3003 RMK AO1 10220 20210 52003

2010/08/08 05:55
KBKX 080555Z AUTO 19008KT 10SM CLR 24/23 A2972 RMK AO1 10310 20240 52003

2010/08/08 05:55
KBLM 080555Z AUTO 00000KT 10SM CLR 21/17 A3004 RMK AO1 10240 20210 52003

2010/08/08 05:55
KBNL 080555Z AUTO 00000KT 6SM BR CLR 24/24 A2994 RMK AO2

2010/08/08 05:54
KBOS 080554Z 18005KT 10SM CLR 17/14 A3002 RMK AO2 SLP166 T01720139 10250 20172 51004

2010/08/08 05:55
KBTP 080555Z AUTO 00000KT 10SM CLR 15/13 A3004 RMK AO1 10220 20140

2010/08/08 05:54
KBUF 080554Z 17006KT 10SM FEW070 SCT085 BKN220 17/11 A2997 RMK AO2 SLP145 T01720106 10217 20161 58005

2010/08/08 05:54
KBUY 080554Z AUTO 00000KT 7SM CLR 22/19 A2999 RMK AO2 SLP150 T02170194 10261 20217 50000

2010/08/08 05:55
KBVX 080555Z AUTO 00000KT 10SM CLR 26/22 A2992 RMK AO1 10320 20240 52003

2010/08/08 05:55
KBWD 080555Z AUTO 16005KT 10SM CLR 28/20 A2992 RMK AO2

2010/08/08 05:54
KBWI 080554Z 00000KT 10SM BKN100 20/16 A2999 RMK AO2 SLP155 T02000161 10267 20194 50003

2010/08/08 05:54
KCEU 080554Z AUTO 00000KT 8SM SCT090 OVC110 26/22 A3000 RMK AO2 SLP145 60000 T02610217 10294 20250 50001

2010/08/08 05:55
KCGZ 080555Z AUTO 22008KT 10SM FEW120 31/14 A2986 RMK AO1 10360 20310 52020

2010/08/08 05:55
KCIC 080555Z AUTO 14008KT 10SM CLR 27/12 A2972 RMK AO1

2010/08/08 05:50
EGCN 080550Z 31008KT CAVOK 13/12 Q1021

2010/08/08 05:50
EGDL 080550Z 34005KT 9999 SCT016 OVC032 13/12 Q1021 NOSIG

2010/08/08 05:50
EGSH 080550Z 33006KT 300V360 9999 BKN006 16/14 Q1018

2010/08/08 05:50
EGVN 080550Z 31005KT 9999 FEW012 BKN018 14/13 Q1020 NOSIG

2010/08/08 05:50
LOWW 080550Z 29011KT 9999 -SHRA FEW033 BKN065 17/13 Q1017 NOSIG

2010/08/08 05:50
LOWL 080550Z 26003KT 8000 VCFG FEW008 SCT280 14/13 Q1018 NOSIG

2010/08/08 05:50
LOWS 080550Z 15010KT 9999 FEW010 14/11 Q1019 NOSIG

2010/08/08 05:50
LOWI 080550Z 00000KT 9999 FEW007 SCT011 BKN070 12/11 Q1021 TEMPO BKN012

2010/08/08 05:50
LOWG 080550Z VRB01KT 0400 R17/0400N R35/0800V1500D BCFG BKN002 14/14 Q1019 BECMG TL0730 9999 NSW

2010/08/08 05:50
LOWK 080550Z VRB01KT 8000 SCT006 OVC008 14/13 Q1020 NOSIG

2010/08/08 05:51
PTKK 080551Z VRB05KT 15SM -SHRA SCT014CB BKN120 OVC280 30/25 A2973 RMK SHRAB45 CB ALQDS SLP071 60000 8/371 T03040248 10322 20300 57007

2010/08/08 05:54
PGUM 080554Z 07011KT 10SM SCT024 SCT029CB 31/24 A2979 RMK AO2 SLP081 CB S MOV W 8543501 60000 T03060244 10317 20294 56009 $

2010/08/08 05:54
PGSN 080554Z 09016KT 10SM SCT020 31/26 A2980 RMK AO2 SLP086 VCSH SE 60000 T03060256 10311 20294 56013 $

2010/08/08 05:53
PGRO 080553Z 07011KT 7SM VCSH SCT025 29/25 A2980 RMK VCSH E

2010/08/08 05:50
LOXZ 080550Z VRB02KT 0800 FG FEW120AC 10/10 Q1020 BECMG 9999 RMK FEW

2010/08/08 05:50
ENAL 080550Z AUTO 00000KT 4200NDV -RA FEW007/// SCT047/// BKN061/// 15/13 Q1016

2010/08/08 05:50
ENCN 080550Z 06003KT CAVOK 16/12 Q1015

2010/08/08 05:50
ENHD 080550Z AUTO 33003KT 6000NDV FEW005/// SCT019/// 14/13 Q1016

2010/08/08 05:50
ENRO 080550Z AUTO 00000KT 3600NDV VV001 03/03 Q1017

2010/08/08 05:50
ENRY 080550Z 00000KT CAVOK 15/13 Q1015

2010/08/08 05:50
ENSB 080550Z 29006KT 9999 FEW010 BKN025 08/04 Q1012 

2010/08/08 05:50
ENTC 080550Z 22003KT 180V250 9999 BKN009 OVC013 12/10 Q1019

2010/08/08 05:50
ENTO 080550Z 01005KT 9999 FEW040 15/12 Q1015

2010/08/08 05:50
EBAW 080550Z 25006KT 4500 BR BKN005 BKN040 16/14 Q1016 TEMPO SHRA

2010/08/08 05:50
EBBR 080550Z 25006KT 6000 SCT005 BKN006 15/14 Q1016 TEMPO 4500 BR

2010/08/08 05:50
EBCI 080550Z 25006KT 2800 BR SCT003 BKN004 14/12 Q1017 TEMPO -SHRA

2010/08/08 05:50
EBLG 080550Z 26007KT 9999 SCT005 SCT044 14/13 Q1016 TEMPO BKN005

2010/08/08 05:50
EBOS 080550Z 33010KT 9999 FEW010 SCT013 18/14 Q1017 NOSIG

2010/08/08 05:50
ELLX 080550Z 27007KT 230V300 9999 FEW006 14/12 Q1017 NOSIG

2010/08/08 05:50
EGYP 080550Z 31015KT CAVOK 05/M01 Q1002 BLU

2010/08/08 05:50
ENAN 080550Z 25005KT 9999 BKN012 12/09 Q1019

2010/08/08 05:50
ENBR 080550Z 20003KT 9999 FEW003 SCT020 BKN030 14/13 Q1016 NOSIG 

2010/08/08 05:50
ENBO 080550Z 32002KT 0500 FG VV010 11/11 Q1018

2010/08/08 05:50
ENDU 080550Z VRB01KT 0400 FG NSC 10/09 Q1019 BECMG 1200 BCFG

2010/08/08 05:50
ENOL 080550Z 11005KT CAVOK 15/13 Q1015

2010/08/08 05:50
ENZV 080550Z 27001KT 9999 SCT027 BKN034 16/14 Q1016 NOSIG

2010/08/08 05:50
EGJA 080550Z 35008KT 9999 BKN040 15/14 Q1021

2010/08/08 05:53
KRTN 080553Z AUTO 00000KT 10SM FEW120 19/12 A3012 RMK AO2 SLP092 T01940122 10294 20189 51012 TSNO

2010/08/08 05:53
PHJR 080553Z 06004KT 10SM CLR 26/19 A3007 RMK AO2 SLP190 T02610189 10317 20261 53014

2010/08/08 05:59
K36U 080559Z AUTO 29004KT 10SM CLR 16/09 A3008 RMK AO2

2010/08/08 05:50
KPMV 080550Z AUTO 17010KT 10SM CLR 27/23 A2980 RMK AO2 T02660228 10312 20266 403260215

2010/08/08 05:53
KABR 080553Z AUTO 35005KT 10SM CLR 24/22 A2966 RMK AO2 SLP032 T02390217 10333 20228 403440206 51010

2010/08/08 05:53
KABY 080553Z 00000KT 9SM CLR 24/24 A2995 RMK AO2 SLP138 60005 T02440239 10261 20244 55002

2010/08/08 05:53
KACK 080553Z AUTO 18011KT 10SM CLR 21/18 A3005 RMK AO2 SLP176 T02060178 10206 20189 52004 TSNO

2010/08/08 05:53
KACV 080553Z AUTO 00000KT 1SM R32/5000VP6000FT BR VV001 12/12 A2995 RMK AO2 SLP147 T01220122 10150 20122 50004

2010/08/08 05:53
KADG 080553Z AUTO 23004KT 7SM CLR 18/16 A2996 RMK AO2 SLP142 T01830161 10256 20183 58003

2010/08/08 05:53
KAFW 080553Z 19004KT 10SM CLR 31/21 A2985 RMK AO2 SLP090 T03060206 10372 20300 403890256 51010

2010/08/08 05:53
KAGC 080553Z 15003KT 6SM HZ CLR 19/14 A3003 RMK AO2 SLP166 T01890139 10250 20172 50002

2010/08/08 05:53
KAGS 080553Z AUTO 00000KT 6SM BR CLR 24/23 A2993 RMK AO2 SLP132 T02390233 10289 20239 56006

2010/08/08 05:53
KAIA 080553Z AUTO 20019G28KT 10SM FEW120 27/09 A2989 RMK AO2 PK WND 22036/0531 SLP062 T02720094 10344 20217 51013

2010/08/08 05:53
KAKO 080553Z AUTO 14008KT 10SM FEW120 22/12 A2996 RMK AO2 SLP074 60000 T02170122 10328 20200 58001 TSNO

2010/08/08 05:53
KALW 080553Z AUTO 18011KT 10SM CLR 23/11 A2984 RMK AO2 SLP094 T02280106 10311 20228 51026

2010/08/08 05:53
KAMA 080553Z AUTO 16010KT 10SM CLR 26/17 A2997 RMK AO2 SLP086 T02560172 10328 20244 403440211 51006 TSNO

2010/08/08 05:53
KAMG 080553Z AUTO 00000KT 6SM BR BKN002 OVC010 24/23 A2994 RMK AO2 SLP135 T02390233 10256 20233 53000

2010/08/08 05:53
KAMW 080553Z AUTO 19010KT 10SM CLR 25/21 A2982 RMK AO2 SLP086 T02500211 10289 20228 403060183 50001

2010/08/08 05:53
KANB 080553Z AUTO 00000KT 10SM CLR 26/21 A2994 RMK AO2 SLP126 T02560211 10322 20250 403440222 58003

2010/08/08 05:53
KAOH 080553Z AUTO 17007KT 10SM CLR 19/16 A2999 RMK AO2 SLP150 T01890161 10250 20189 57001 $

2010/08/08 05:53
KAOO 080553Z AUTO 00000KT 5SM BR CLR 15/14 A3007 RMK AO2 SLP174 T01500139 10222 20150 51004

2010/08/08 05:53
KAPA 080553Z 18008KT 10SM BKN100 21/12 A3007 RMK AO2 SLP097 T02060117 10261 20194 51010

2010/08/08 05:53
KAPF 080553Z AUTO 00000KT 10SM FEW026 29/26 A2996 RMK AO2 SLP145 T02890256 10306 20289 58006

2010/08/08 05:53
KARB 080553Z AUTO 00000KT 7SM CLR 18/16 A2994 RMK AO2 SLP133 T01830161 10250 20167 58001 $

2010/08/08 05:53
KASE 080553Z 00000KT 10SM 11/11 A3025 RMK AO2 SLP127 6//// T01110111 10178 20111 58002 $

2010/08/08 05:53
KASX 080553Z AUTO 24005KT 7SM VCTS -RA FEW001 BKN021 19/19 A2975 RMK AO2 LTG DSNT N AND NW TSE16B17E32B45 SLP070 P0011 60039 T01890189 10206 20183 402670100 51013

2010/08/08 05:53
KATY 080553Z AUTO 18004KT 7SM CLR 24/23 A2969 RMK AO2 SLP038 T02390233 10311 20239 403280200 51006

2010/08/08 05:53
KAUG 080553Z AUTO 00000KT 10SM CLR 13/12 A3001 RMK AO2 SLP161 T01280122 10178 20128 50001

2010/08/08 05:53
KAWM 080553Z AUTO 00000KT 8SM CLR 26/25 A2990 RMK AO2 SLP118 T02610250 10322 20261 403440233 50003

2010/08/08 05:53
KAXN 080553Z AUTO 15003KT 10SM CLR 23/22 A2969 RMK AO2 SLP044 60006 T02280217 10283 20206 403000172 55000

2010/08/08 05:53
KAZO 080553Z AUTO 19008KT 9SM BKN090 22/18 A2993 RMK AO2 SLP130 T02170178 10256 20217 55004

2010/08/08 05:53
KBAF 080553Z 00000KT 10SM CLR 13/12 A3002 RMK AO2 SLP163 T01280117 10228 20128 52003

2010/08/08 05:53
KBBW 080553Z AUTO 15005KT 10SM CLR 24/22 A2982 RMK AO2 SLP068 T02440217 10317 20222 403220194 50005

2010/08/08 05:53
KBCE 080553Z AUTO 00000KT 10SM SCT012 BKN017 11/09 A3027 RMK AO2 SLP157 T01060094 10156 20100 51009 $

2010/08/08 05:53
KBDE 080553Z AUTO 08003KT 10SM CLR 17/15 A2971 RMK AO2 SLP058 T01670150 10228 20167 402500106 53001

2010/08/08 05:53
KBEH 080553Z AUTO 19007KT 10SM CLR 22/18 A2991 RMK AO2 SLP122 T02220178 10261 20222 56004

2010/08/08 05:53
KBFD 080553Z AUTO 00000KT 10SM CLR 09/09 A3007 RMK AO2 SLP176 T00940089 10189 20094 53003

2010/08/08 05:53
KBFI 080553Z 22006KT 10SM BKN011 BKN020 OVC095 17/14 A2991 RMK AO2 SLP127 60007 T01720144 10183 20172 51005

2010/08/08 05:53
KBGM 080553Z AUTO 16003KT 10SM CLR 15/10 A3006 RMK AO2 SLP171 T01500100 10217 20150 51001

2010/08/08 05:53
KBGR 080553Z 00000KT 10SM SCT080 11/10 A3001 RMK AO2 SLP159 T01110100 10161 20094 51002

2010/08/08 05:53
KBHK 080553Z AUTO 33003KT 10SM CLR 21/11 A2978 RMK AO2 SLP055 T02060106 10322 20194 50004

2010/08/08 05:53
KBHM 080553Z 00000KT 10SM CLR 27/20 A2994 RMK AO2 SLP128 T02670200 10333 20267 403560244 58006

2010/08/08 05:53
KBIV 080553Z AUTO 20010KT 10SM FEW070 24/17 A2989 RMK AO2 SLP115 T02440172 10267 20233 56005

2010/08/08 05:53
KBKE 080553Z AUTO 00000KT 10SM CLR 14/09 A2990 RMK AO2 SLP105 T01440089 10283 20144 51017

2010/08/08 05:53
KBKL 080553Z 17007KT 10SM CLR 22/15 A2997 RMK AO2 SLP145 T02220150 10261 20222 55001

2010/08/08 05:53
KBKV 080553Z AUTO 00000KT 10SM FEW028 SCT055 BKN070 27/24 A2994 RMK AO2 LTG DSNT N SLP138 T02670244 10283 20267 58005

2010/08/08 05:53
KBLI 080553Z AUTO 16004KT 10SM OVC003 17/16 A2989 RMK AO2 SLP126 60003 T01670156 10172 20167 58002

2010/08/08 05:53
KBMG 080553Z AUTO 00000KT 7SM CLR 17/17 A2998 RMK AO2 SLP145 T01720167 10256 20161 51003

2010/08/08 05:53
KBNA 080553Z 04003KT 8SM CLR 23/18 A2996 RMK AO2 SLP138 T02330183 10300 20233 403330194 58001 $

2010/08/08 05:53
KBOI 080553Z 13006KT 10SM CLR 24/04 A2979 RMK AO2 SLP055 T02440044 10322 20233 51010 $

2010/08/08 05:55
KBOW 080555Z AUTO 00000KT 10SM CLR 25/25 A2996 RMK AO2 LTG DSNT NW

2010/08/08 05:53
KBPI 080553Z AUTO 17006KT 10SM CLR 14/04 A3012 RMK AO2 SLP100 T01440039 10244 20133 53008 TSNO

2010/08/08 05:53
KBPK 080553Z AUTO 12003KT 8SM BKN047 26/21 A2993 RMK AO2 SLP124 T02560211 10306 20256 403170211 51009

2010/08/08 05:53
KBRD 080553Z AUTO 00000KT 10SM CLR 21/18 A2968 RMK AO2 SLP043 60029 T02060183 10256 20200 402720139 50011

2010/08/08 05:53
KBRL 080553Z AUTO 19007KT 9SM CLR 24/20 A2989 RMK AO2 SLP115 T02440200 10289 20244 403110183 51004

2010/08/08 05:53
KBTL 080553Z AUTO 20007KT 9SM SCT095 21/17 A2994 RMK AO2 SLP132 T02060172 10250 20206 55003 TSNO

2010/08/08 05:53
KBTM 080553Z AUTO 17006KT 10SM CLR 12/09 A2999 RMK AO2 SLP104 60004 T01220094 10250 20122 50008

2010/08/08 05:53
KBUR 080553Z 18004KT 10SM CLR 16/12 A2990 RMK AO2 SLP114 T01610122 10244 20161 51019

2010/08/08 05:53
KBVO 080553Z AUTO 00000KT 10SM CLR 26/23 A2986 RMK AO2 SLP099 T02610233 10322 20244 403390228 51004

2010/08/08 05:53
KBVY 080553Z AUTO 00000KT 10SM CLR 12/09 A3001 RMK AO2 SLP158 T01220094 10222 20122 51004

2010/08/08 05:53
KBWG 080553Z AUTO 00000KT 7SM CLR 21/19 A2997 RMK AO2 SLP144 T02060189 10283 20206 403170183 50002

2010/08/08 05:53
KBYG 080553Z AUTO 19006KT 10SM CLR 17/10 A2997 RMK AO2 SLP088 T01670100 10239 20156 50004

2010/08/08 05:53
KBYI 080553Z AUTO 00000KT 10SM CLR 17/09 A2987 RMK AO2 SLP073 T01670089 10283 20156 50010

2010/08/08 05:53
KCAG 080553Z AUTO 12003KT 10SM FEW065 OVC090 14/12 A3017 RMK AO2 SLP140 60006 T01390122 10161 20133 58004

2010/08/08 05:53
KCCR 080553Z AUTO 19013KT 10SM CLR 15/11 A2980 RMK AO2 SLP078 T01500106 10261 20150 50009 TSNO

2010/08/08 05:53
KCDC 080553Z AUTO 26012G16KT 10SM VCTS BKN090 OVC110 18/09 A3011 RMK AO2 TSB47 SLP124 T01830094 10267 20172 51020

2010/08/08 05:55
KCDN 080555Z AUTO 03003KT 5SM BR CLR 25/24 A2996 RMK A02 P000

2010/08/08 05:53
KCDS 080553Z AUTO 17007KT 10SM CLR 26/20 A2989 RMK AO2 SLP090 T02560200 10344 20256 403720222 50008

2010/08/08 05:53
KCDW 080553Z AUTO 00000KT 10SM CLR 19/17 A3001 RMK AO2 SLP166 T01940172 10261 20189 51004 TSNO

2010/08/08 05:51
KCRP 080551Z 17007KT 10SM FEW018 27/25 A2991 RMK AO2 SLP126 T02720250 10317 20267 403500244 50009

2010/08/08 05:53
KCRQ 080553Z AUTO 00000KT 10SM OVC014 17/13 A2992 RMK AO2 SLP128 T01720128 10200 20172 51017 TSNO

2010/08/08 05:53
KDAL 080553Z 20007KT 10SM CLR 32/20 A2985 RMK AO2 SLP101 T03220200 10372 20322 403890267 51012

2010/08/08 05:53
KDBQ 080553Z AUTO 21010KT 8SM CLR 22/19 A2986 RMK AO2 SLP105 T02170194 10256 20217 402720172 56002

2010/08/08 05:53
KMGM 080553Z 12004KT 10SM SCT070 BKN100 OVC250 25/23 A2992 RMK AO2 SLP128 T02500233 10328 20250 403560250 55004

2010/08/08 05:53
KGCC 080553Z AUTO 31003KT 10SM CLR 14/11 A2992 RMK AO2 SLP083 T01440111 10267 20144 50005

2010/08/08 05:53
KGEG 080553Z 25008KT 10SM FEW080 BKN140 OVC200 21/08 A2981 RMK AO2 SLP077 T02060083 10289 20206 51011

2010/08/08 05:53
KJBR 080553Z AUTO 00000KT 10SM CLR 24/21 A2991 RMK AO2 SLP125 T02440206 10322 20244 403390222 50005

2010/08/08 05:53
KJLN 080553Z 15005KT 9SM CLR 26/23 A2989 RMK AO2 SLP108 6//// T02610233 403170222 50002

2010/08/08 05:53
KLAN 080553Z 19008KT 9SM CLR 21/17 A2992 RMK AO2 SLP125 T02110172 10256 20206 57003

2010/08/08 05:53
KLBB 080553Z 15007KT 10SM SCT200 24/17 A2997 RMK AO2 SLP088 T02440167 10344 20233 403560211 51013 $

2010/08/08 05:53
KLIT 080553Z 15003KT 10SM SCT060 BKN250 26/24 A2991 RMK AO2 SLP127 OCNL LTG DSNT S-SW T02610244 10311 20261 403440250 50004

2010/08/08 05:53
KLWD 080553Z AUTO 17006KT 10SM CLR 23/21 A2987 RMK AO2 SLP103 T02280206 10289 20228 403110194 50003

2010/08/08 05:53
KGRR 080553Z AUTO 21009KT 9SM BKN055 23/18 A2990 RMK AO2 SLP119 T02280178 10256 20217 56004 $

2010/08/08 05:53
KFAT 080553Z 32009KT 10SM CLR 25/11 A2976 RMK AO2 SLP073 T02500106 10356 20250 51015

2010/08/08 05:53
KFMN 080553Z AUTO 14005KT 10SM CLR 16/14 A3014 RMK AO2 RAE0455 SLP151 P0000 60009 T01610144 10211 20156 58003

2010/08/08 05:53
KFNB 080553Z AUTO 16005KT 8SM CLR 24/23 A2982 RMK AO2 SLP088 T02440233 10306 20244 403280183 51005

2010/08/08 05:53
KFNT 080553Z AUTO 20007KT 9SM CLR 21/17 A2991 RMK AO2 SLP124 T02110167 10250 20211 58002

2010/08/08 05:53
KDMN 080553Z AUTO 22005KT 10SM CLR 25/13 A3005 RMK AO2 SLP089 T02500133 10328 20250 51019

2010/08/08 05:53
KEMP 080553Z AUTO 17008KT 8SM CLR 26/22 A2986 RMK AO2 SLP098 T02560217 10322 20256 403390200 52001

2010/08/08 05:53
KHLC 080553Z AUTO 19008KT 10SM CLR 28/17 A2982 RMK AO2 SLP067 T02780172 10367 20267 403780200 50008

2010/08/08 05:53
KHSI 080553Z AUTO 17005KT 10SM CLR 26/21 A2982 RMK AO2 SLP074 T02560211 10328 20256 403390200 53006

2010/08/08 05:53
KHSV 080553Z 09005KT 10SM CLR 25/19 A2992 RMK AO2 SLP123 T02500194 10339 20250 403720217 58006

2010/08/08 05:53
KHVR 080553Z AUTO 21003KT 10SM CLR 15/09 A2972 RMK AO2 SLP048 60000 T01500094 10317 20150 51010

2010/08/08 05:52
KP69 080552Z AUTO 00000KT 18/14 A2982 RMK AO2 SLP076 T01830139 10311 20183 51024 PWINO TSNO

2010/08/08 05:53
KP68 080553Z AUTO 22004KT 18/M12 A2999 RMK AO2 SLP062 T01831122 10311 20156 51019 PWINO TSNO

2010/08/08 05:53
KOQT 080553Z AUTO 00000KT 6SM BR CLR 21/19 A2999 RMK AO2 SLP137 T02110194 10283 20206 58003 TSNO

2010/08/08 05:53
KTLH 080553Z 00000KT 10SM SCT095 24/24 A2992 RMK AO2 SLP130 60001 T02440239 10272 20244 58005

2010/08/08 05:53
KMWT 080553Z AUTO 12003KT 10SM FEW110 27/23 A2989 RMK AO2 SLP108 T02670233 10300 20256 403330228 50003 TSNO

2010/08/08 05:53
KDAB 080553Z 00000KT 10SM FEW090 OVC250 26/24 A2994 RMK AO2 SLP137 60000 T02560244 10272 20256 58006

2010/08/08 05:53
KNUI 080553Z AUTO 00000KT 9SM CLR 19/18 A2999 RMK AO2 SLP154 T01940183 10250 20194 50001 $

2010/08/08 05:53
KELY 080553Z AUTO 15018G29KT 10SM CLR 19/04 A3006 RMK AO2 PK WND 14032/0530 SLP065 T01890044 10294 20189 51017

2010/08/08 05:54
KJAN 080554Z 00000KT 10SM CLR 26/24 A2992 RMK AO2 SLP126 T02560239 10300 20256 403500250 50003

2010/08/08 05:53
KMLU 080553Z 00000KT 10SM BKN085 28/24 A2991 RMK AO2 SLP127 T02780244 10328 20272 403610256 53005

2010/08/08 05:50
ENBN 080550Z 36007KT 9999 FEW003 14/13 Q1016

2010/08/08 05:50
ENHF 080550Z AUTO 03006KT //// BKN009/// OVC016/// 11/10 Q1018

2010/08/08 06:00
LQBK 080600Z 17004KT CAVOK 18/15 Q1018 NOSIG

2010/08/08 05:53
PAAQ 080553Z AUTO 00000KT 1 3/4SM -RA BR SCT011 OVC019 11/11 A2979 RMK AO2 RAB00 SLP083 P0003 60003 T01110106 10156 20111 51010 TSNO

2010/08/08 05:53
PABR 080553Z 07018KT 2 1/2SM BR OVC005 04/04 A2986 RMK AO2 RAE0457B13E25 SLP112 P0000 60000 T00390039 10050 20039 51009

2010/08/08 05:53
PACV 080553Z 07003KT 10SM -RA SCT015 BKN030 OVC035 10/09 A2981 RMK AO2 RAB08 SLP094 P0000 60005 T01000094 10139 20100 55001

2010/08/08 05:53
PADE 080553Z AUTO 31006KT 10SM CLR 13/10 A2960 RMK AO2 SLP022 T01330100 10156 20133 51006 TSNO

2010/08/08 05:53
PAEG 080553Z AUTO 00000KT 10SM SCT075 OVC100 13/12 A2963 RMK AO2 RAE45 SLP036 P0003 60013 T01280117 10217 20128 51015 TSNO

2010/08/08 05:53
PAEN 080553Z AUTO 20010KT 10SM OVC060 13/11 A2976 RMK AO2 SLP079 60004 T01330106 10144 20128 53003 TSNO $

2010/08/08 05:53
PAGK 080553Z AUTO 15005KT 10SM SCT045 BKN065 OVC100 14/08 A2968 RMK AO2 SLP052 T01440078 10189 20144 53008 TSNO

2010/08/08 05:53
PAGY 080553Z AUTO 21008KT 10SM SCT050 OVC060 13/10 A2981 RMK AO2 SLP096 T01330100 10144 20117 51007 TSNO

2010/08/08 05:53
PAIL 080553Z AUTO 00000KT 10SM OVC020 11/09 A2980 RMK AO2 SLP094 60001 T01060094 10117 20100 53005 TSNO

2010/08/08 05:53
PAKT 080553Z AUTO 00000KT 10SM OVC033 14/12 A2991 RMK AO2 SLP129 T01390117 10150 20139 53005 TSNO

2010/08/08 05:53
PAKV 080553Z AUTO 00000KT 9SM -RA FEW022 SCT028 OVC037 13/13 A2968 RMK AO2 SLP052 P0003 60047 T01330128 10144 20133 53006 TSNO

2010/08/08 05:53
PAKW 080553Z AUTO 00000KT 7SM -RA OVC004 12/11 A2990 RMK AO2 CIG 003V007 SLP125 P0002 60003 T01220111 10133 20122 53008 TSNO

2010/08/08 05:53
PALH 080553Z 17004KT 10SM BKN045 OVC060 13/11 A2977 RMK AO2 RAE16 SLP082 P0000 60007 T01330106 10144 20133 53005

2010/08/08 05:53
KBUR 080553Z 18004KT 10SM CLR 16/12 A2990 RMK AO2 SLP114 T01610122 10244 20161 51019

2010/08/08 05:53
PHJR 080553Z 06004KT 10SM CLR 26/19 A3007 RMK AO2 SLP190 T02610189 10317 20261 53014

2010/08/08 05:54
KAAO 080554Z AUTO 16008KT 10SM CLR 28/22 A2986 RMK AO2 SLP092 T02780217 10328 20278 403610206 53005

2010/08/08 05:55
KAEG 080555Z AUTO 35009KT 10SM CLR 19/12 A3017 RMK AO1

2010/08/08 05:55
KAIK 080555Z AUTO 00000KT 5SM HZ CLR 23/ A2998 RMK AO2 PNO

2010/08/08 05:55
KAIZ 080555Z AUTO 18003KT 10SM CLR 23/21 A2994 RMK AO1 10300 20230 52007

2010/08/08 05:54
KAKH 080554Z AUTO 00000KT 7SM SCT044 22/19 A2999 RMK AO2 SLP146 T02220194 10278 20222 58003

2010/08/08 05:54
KAKR 080554Z AUTO 17003KT 10SM CLR 18/14 A3001 RMK AO2 SLP155 T01780144 10239 20178 58003

2010/08/08 05:54
KALO 080554Z AUTO 19010KT 10SM CLR 24/22 A2980 RMK AO2 SLP083 T02390217 10283 20233 402940189 58001

2010/08/08 05:54
KAPC 080554Z AUTO 21013KT 10SM BKN007 13/12 A2982 RMK AO2 SLP089 T01330122 10194 20128 50011

2010/08/08 05:55
KARG 080555Z AUTO 01003KT 7SM CLR 24/20 A2992 RMK AO1 10310 20240 52007

2010/08/08 05:55
KAUO 080555Z AUTO 18005KT 10SM CLR 26/23 A2994 RMK AO1 10310 20260 57007

2010/08/08 05:54
KAUW 080554Z AUTO 21009KT 9SM BKN080 BKN095 23/21 A2978 RMK AO2 LTG DSNT N AND NE SLP080 60016 T02280206 10256 20217 402830128 53004

2010/08/08 05:54
KAVL 080554Z AUTO 12003KT 5SM BR CLR 21/19 A3007 RMK AO2 SLP153 T02060194 10256 20206 58003 TSNO

2010/08/08 05:55
KAWO 080555Z AUTO 13005KT 10SM 17/16 A2991 RMK AO1 60003 10190 20160 54000

2010/08/08 05:55
KBBP 080555Z AUTO 00000KT 3SM BR CLR 23/22 A2995 RMK AO2

2010/08/08 05:54
KBFL 080554Z AUTO 35010KT 10SM CLR 26/05 A2976 RMK AO2 SLP071 T02610050 10356 20261 51018

2010/08/08 05:55
KBHB 080555Z AUTO 00000KT 10SM BKN075 12/11 A3001 RMK AO1 10170 20120 52003

2010/08/08 05:55
KBID 080555Z AUTO 20006KT 10SM BKN080 22/19 A3003 RMK AO1 10220 20210 52003

2010/08/08 05:55
KBKX 080555Z AUTO 19008KT 10SM CLR 24/23 A2972 RMK AO1 10310 20240 52003

2010/08/08 05:55
KBLM 080555Z AUTO 00000KT 10SM CLR 21/17 A3004 RMK AO1 10240 20210 52003

2010/08/08 05:55
KBNL 080555Z AUTO 00000KT 6SM BR CLR 24/24 A2994 RMK AO2

2010/08/08 05:53
KCEW 080553Z AUTO 00000KT 4SM BR CLR 24/24 A2993 RMK AO2 SLP130 T02440239 10256 20239 403560239 56006

2010/08/08 05:53
KCEZ 080553Z AUTO 30005KT 10SM SCT070 16/15 A3016 RMK AO2 SLP141 60008 T01560150 10194 20156 55002

2010/08/08 05:53
KCGI 080553Z AUTO 08003KT 10SM CLR 23/18 A2993 RMK AO2 SLP131 T02330178 10317 20211 403330183 51005 TSNO

2010/08/08 05:53
KCHO 080553Z AUTO 00000KT 10SM CLR 17/16 A3002 RMK AO2 SLP157 T01720156 10261 20172 50003 TSNO

2010/08/08 05:53
KCKB 080553Z AUTO 00000KT 8SM CLR 15/14 A3004 RMK AO2 SLP160 T01500139 10244 20150 50002 TSNO

2010/08/08 05:55
KCKI 080555Z AUTO 00000KT 23/23 A2993 RMK AO2 P0001 PWINO

2010/08/08 05:53
KCLM 080553Z AUTO 28006KT 4SM BR OVC001 14/14 A2992 RMK AO2 SLP130 60000 T01440139 10161 20144 50004

2010/08/08 05:50
PAHZ 080550Z 00000KT 2SM -RA VV001 11/11 A2974 RMK NOSPECI

2010/08/08 05:52
PATA 080552Z AUTO 16003KT 10SM BKN043 OVC060 15/12 A2966 RMK AO2 RAB15E36 SLP045 P0001 60005 T01500117 10183 20150 53010 TSNO

2010/08/08 05:53
PHJR 080553Z 06004KT 10SM CLR 26/19 A3007 RMK AO2 SLP190 T02610189 10317 20261 53014

2010/08/08 05:53
KSGR 080553Z AUTO 18006KT 10SM CLR 27/24 A2991 RMK AO2 SLP136 T02670244 10317 20267 403500256 51009 TSNO

2010/08/08 05:53
KOVE 080553Z AUTO 14007KT 10SM CLR 26/12 A2974 RMK AO2 SLP071 T02560122 10339 20256 50013 TSNO $

2010/08/08 05:53
KCMI 080553Z AUTO 00000KT 7SM CLR 19/17 A2997 RMK AO2 SLP143 T01890172 10267 20189 402940150 53006

2010/08/08 05:53
KCMX 080553Z AUTO 08006KT 10SM OVC100 17/14 A2974 RMK AO2 SLP068 60000 T01720139 10200 20172 55006

2010/08/08 05:53
KCNM 080553Z AUTO 16007KT 10SM CLR 25/14 A2995 RMK AO2 SLP079 T02500144 10350 20250 51021 $

2010/08/08 05:53
KCNO 080553Z 26004KT 8SM CLR 14/12 A2991 RMK AO2 SLP125 T01440122 10272 20144 51021

2010/08/08 05:53
KCPR 080553Z AUTO 31008KT 10SM FEW110 21/08 A3002 RMK AO2 SLP083 T02110083 10317 20211 51014 $

2010/08/08 05:53
KCPS 080553Z AUTO 16005KT 7SM HZ CLR 22/18 A2993 RMK AO2 SLP131 T02170178 10278 20211 403060167 50005

2010/08/08 05:53
KCRE 080553Z AUTO 00000KT 5SM BR CLR 24/24 A2993 RMK AO2 SLP137 T02440239 10272 20239 58005

2010/08/08 05:53
KCRG 080553Z AUTO 00000KT 10SM SCT027 BKN036 24/24 A2993 RMK AO2 SLP133 60001 T02440239 10250 20244 58000

2010/08/08 05:53
KCRS 080553Z AUTO 19007KT 10SM CLR 28/23 A2987 RMK AO2 SLP109 T02830228 10361 20283 403780256 51012

2010/08/08 05:53
KCSM 080553Z AUTO 17011KT 10SM CLR 29/20 A2990 RMK AO2 SLP093 T02940200 10367 20294 403780233 51008

2010/08/08 05:53
KCSV 080553Z AUTO 00000KT 4SM BR CLR 19/18 A3003 RMK AO2 SLP147 T01940178 10267 20194 403000183 58004

2010/08/08 05:53
KCUB 080553Z AUTO 00000KT 6SM HZ CLR 26/23 A2995 RMK AO2 SLP138 T02610233 10306 20256 58002

2010/08/08 05:53
KCYS 080553Z AUTO 17008KT 10SM OVC085 21/08 A3010 RMK AO2 SLP088 60000 T02060083 10272 20200 53014 TSNO $

2010/08/08 05:51
KDAG 080551Z AUTO 26015KT 10SM CLR 27/M01 A2982 RMK AO2 SLP069 T02671011 10372 20267 51023 TSNO

2010/08/08 05:53
KDAN 080553Z AUTO 00000KT 6SM BR CLR 19/17 A3001 RMK AO2 SLP151 T01890172 10272 20189 58001

2010/08/08 05:53
KDCU 080553Z AUTO 00000KT 10SM CLR 23/19 A2993 RMK AO2 SLP128 T02280189 10322 20228 403560222 58003 $

2010/08/08 05:53
KDEN 080553Z 17010KT 10SM SCT110 BKN200 19/15 A3003 RMK AO2 SLP079 OCNL LTGICCC DSNT NE CB DSNT NE MOV E 60007 T01940150 10278 20194 50011

2010/08/08 05:53
KDEQ 080553Z AUTO 04004KT 10SM SCT060 27/24 A2987 RMK AO2 LTG DSNT E AND SE SLP107 T02670239 10344 20261 403560233 51009

2010/08/08 05:53
KDET 080553Z 23006KT 10SM FEW110 22/17 A2994 RMK AO2 SLP134 60000 T02220167 10256 20217 55000

2010/08/08 05:53
KDEW 080553Z AUTO 00000KT 10SM CLR 19/09 A2980 RMK AO2 SLP077 T01890089 10283 20178 51013

2010/08/08 05:53
KFRG 080553Z AUTO 21006KT 10SM CLR 23/21 A3002 RMK AO2 SLP164 T02330206 10244 20228 51006

2010/08/08 05:53
KFSM 080553Z 06005KT 10SM R25/0600VP6000FT SCT046 BKN070 BKN095 26/24 A2988 RMK AO2 LTG DSNT E SLP111 T02610239 10283 20256 403440244 53005

2010/08/08 05:50
EFJO 080550Z AUTO 16007KT 130V200 8000 SKC 25/21 Q1016

2010/08/08 05:50
EFLP 080550Z AUTO 12006KT 090V170 8000 SKC 26/18 Q1015

2010/08/08 05:50
EFMI 080550Z AUTO 14007KT 090V180 8000 SKC 26/21 Q1014

2010/08/08 05:50
EFSA 080550Z AUTO 16006KT 130V200 8000NDV NCD 26/19 Q1015

2010/08/08 05:50
EFUT 080550Z AUTO 13006KT CAVOK 26/20 Q1014

2010/08/08 05:50
EFVR 080550Z AUTO 13005KT 8000 SKC 25/21 Q1015

2010/08/08 05:53
KFFC 080553Z AUTO 00000KT 5SM BR CLR 23/21 A2997 RMK AO2 SLP139 T02280211 10306 20228 56005

2010/08/08 05:53
KFFT 080553Z AUTO 00000KT 9SM CLR 18/17 A2998 RMK AO2 SLP145 T01780167 10272 20178 58000

2010/08/08 05:53
KFHR 080553Z AUTO 00000KT 7SM BKN001 OVC005 14/14 A2990 RMK AO2 SLP127 60004 T01440139 10167 20144 53002

2010/08/08 05:53
KFLD 080553Z AUTO 21007KT 10SM CLR 23/18 A2983 RMK AO2 SLP096 T02280183 10261 20228 402830150 55001

2010/08/08 05:53
KFLL 080553Z 00000KT 10SM SCT047 28/25 A2996 RMK AO2 SLP144 6//// T02780250 10283 20261 58007 PNO $

2010/08/08 05:53
KFLO 080553Z AUTO 01003KT 4SM BR SCT120 24/23 A2994 RMK AO2 SLP135 60011 T02390228 10294 20239 58003

2010/08/08 05:53
KFMY 080553Z AUTO 00000KT 10SM CLR 28/25 A2995 RMK AO2 SLP143 T02830250 10300 20278 58006 $

2010/08/08 05:53
KFOE 080553Z AUTO 17008KT 10SM CLR 26/23 A2984 RMK AO2 SLP092 T02610228 10317 20261 403440211 58001

2010/08/08 05:53
KFOK 080553Z AUTO 18003KT 10SM CLR 20/18 A3004 RMK AO2 SLP171 T02000178 10222 20194 51006 TSNO

2010/08/08 05:53
KFPR 080553Z AUTO 00000KT 10SM CLR 26/25 A2995 RMK AO2 SLP140 60000 T02610250 10261 20256 58009

2010/08/08 05:53
KDFI 080553Z AUTO 00000KT 10SM CLR 19/16 A2996 RMK AO2 SLP142 T01940156 10256 20189 58001

2010/08/08 05:53
KDFW 080553Z 19009KT 10SM CLR 31/20 A2985 RMK AO2 SLP098 T03110200 10361 20311 403830261 51011 $

2010/08/08 05:53
KDGW 080553Z AUTO 32010KT 10SM BKN120 24/07 A2999 RMK AO2 SLP078 T02440067 10333 20233 51024

2010/08/08 05:53
KDHN 080553Z AUTO 00000KT 8SM CLR 25/24 A2996 RMK AO2 SLP138 T02500239 10256 20244 403440244 56010 $

2010/08/08 05:53
KDHT 080553Z AUTO 18008KT 10SM CLR 22/17 A2999 RMK AO2 SLP086 T02220172 10339 20222 403560206 51013

2010/08/08 05:53
KDKK 080553Z AUTO 19011KT 10SM OVC095 22/11 A2997 RMK AO2 SLP146 T02170106 10217 20150 58003

2010/08/08 05:53
KDLN 080553Z AUTO 21008KT 10SM CLR 12/08 A2996 RMK AO2 SLP098 60000 T01220078 10233 20111 53008 $

2010/08/08 05:53
KDLS 080553Z AUTO 31008G18KT 10SM SCT110 22/13 A2984 RMK AO2 SLP103 60000 T02220128 10283 20217 51012

2010/08/08 05:53
KDMO 080553Z AUTO 16005KT 10SM CLR 24/21 A2990 RMK AO2 SLP115 T02390206 10306 20239 403280206 50003

2010/08/08 05:53
KDNL 080553Z AUTO 00000KT 10SM CLR 27/23 A2995 RMK AO2 SLP134 T02670228 10300 20267 58005 $

2010/08/08 05:53
KDRO 080553Z AUTO 09004KT 10SM BKN085 OVC100 15/14 A3020 RMK AO2 RAE23 SLP145 P0000 60000 T01500139 10233 20150 58005

2010/08/08 05:53
KDTN 080553Z AUTO 17004KT 10SM CLR 29/24 A2989 RMK AO2 SLP119 60000 T02890239 10311 20278 403610250 51012

2010/08/08 05:53
KDTO 080553Z AUTO 18007KT 10SM CLR 30/21 A2985 RMK AO2 SLP097 T03000206 10361 20300 403780239 51009

2010/08/08 05:53
KDTW 080553Z 21007KT 6SM HZ FEW080 SCT220 20/17 A2995 RMK AO2 SLP137 T02000167 10261 20200 58001 $

2010/08/08 05:53
KDVT 080553Z AUTO 09006KT 10SM CLR 28/17 A2983 RMK AO2 LTG DSNT NE AND E SLP075 60000 T02830172 10328 20283 50014

2010/08/08 05:53
KDXR 080553Z AUTO 00000KT 10SM CLR 21/19 A3002 RMK AO2 SLP162 T02060189 10244 20183 51003

2010/08/08 05:55
KDYB 080555Z AUTO 00000KT 7SM CLR 23/23 A2992 RMK AO1

2010/08/08 05:53
KECP 080553Z AUTO 06003KT 7SM FEW024 26/25 A2989 RMK AO2 LTG DSNT SW SLP133 60000 T02610250 10261 20256 403440250 58007 $

2010/08/08 05:53
KEET 080553Z AUTO 14003KT 8SM BKN065 27/23 A2993 RMK AO2 SLP127 T02720228 10317 20256 403390233 55000

2010/08/08 05:53
KELD 080553Z AUTO 00000KT 6SM BR FEW055 SCT070 25/24 A2990 RMK AO2 SLP122 60001 T02500244 10267 20250 403440239 51011

2010/08/08 05:53
KELM 080553Z AUTO 00000KT 10SM CLR 11/11 A3003 RMK AO2 SLP167 T01110106 10194 20106 53004

2010/08/08 05:53
KELN 080553Z AUTO 30009KT 10SM SCT110 17/12 A2986 RMK AO2 SLP102 60000 T01720122 10233 20172 50006

2010/08/08 05:53
KHKS 080553Z AUTO 00000KT 10SM CLR 27/24 A2993 RMK AO2 SLP124 T02670244 10311 20261 403440250 50004

2010/08/08 05:53
KHKY 080553Z AUTO 00000KT 6SM BR SCT070 21/21 A3002 RMK AO2 SLP141 T02110206 10272 20211 58003

2010/08/08 05:53
KVLD 080553Z AUTO 00000KT 1 1/4SM BR FEW002 24/24 A2993 RMK AO2 SLP140 60000 T02440239 10272 20244 58000

2010/08/08 05:53
KPMD 080553Z AUTO 20012KT 10SM CLR 23/M02 A2989 RMK AO2 SLP090 T02281022 10306 20222 51014

2010/08/08 05:53
KPMP 080553Z AUTO 24003KT 10SM RA CLR 27/25 A2996 RMK AO2 SLP146 P0000 60000 T02720250 10278 20256 58009

2010/08/08 05:50
KPNA 080550Z AUTO 30004KT 10SM CLR 12/07 A3013 RMK AO2 T01240066 10247 20124 402570094

2010/08/08 05:53
KPNC 080553Z AUTO 15009KT 10SM CLR 28/22 A2984 RMK AO2 SLP089 T02830222 10333 20283 403440239 53004

2010/08/08 05:53
KPNS 080553Z AUTO 00000KT 8SM OVC100 27/25 A2990 RMK AO2 RAB0456E05 SLP126 P0000 60029 T02670250 10272 20244 403610244 58003 $

2010/08/08 05:53
KPOU 080553Z 00000KT 10SM CLR 14/13 A3000 RMK AO2 SLP155 T01390128 10233 20133 53005

2010/08/08 05:53
KPRB 080553Z AUTO 20006KT 10SM CLR 14/10 A2988 RMK AO2 SLP112 T01390100 10239 20139 51019 TSNO $

2010/08/08 05:53
KPRC 080553Z AUTO 21004KT 10SM CLR 16/14 A3010 RMK AO2 SLP132 T01610144 10206 20161 50006

2010/08/08 05:53
KPSC 080553Z AUTO 29004KT 10SM OVC085 23/11 A2980 RMK AO2 SLP087 T02280106 10339 20222 51023

2010/08/08 05:53
KPSP 080553Z 31015G21KT 10SM FEW090 30/06 A2970 RMK AO2 SLP053 T03000061 10389 20300 51014

2010/08/08 05:53
KPTK 080553Z 20004KT 10SM SCT150 21/16 A2993 RMK AO2 SLP127 T02110161 10250 20211 57002

2010/08/08 05:50
KPTT 080550Z AUTO 17010KT 10SM CLR 28/21 A2986 RMK AO2

2010/08/08 05:53
KPUB 080553Z AUTO 33006KT 10SM SCT110 21/17 A2999 RMK AO2 SLP081 60000 T02110167 10250 20211 53012 $

2010/08/08 05:53
KPUC 080553Z AUTO 09007KT 10SM CLR 16/10 A3015 RMK AO2 SLP141 T01560100 10217 20156 50010

2010/08/08 05:53
KPUW 080553Z AUTO 00000KT 10SM CLR 19/08 A2985 RMK AO2 SLP091 T01940078 10272 20194 51010

2010/08/08 05:53
KPWA 080553Z AUTO 16013KT 10SM CLR 31/21 A2986 RMK AO2 SLP089 T03060206 10356 20306 403670239 51006

2010/08/08 05:53
KRAC 080553Z AUTO 22008KT 9SM CLR 23/19 A2988 RMK AO2 SLP112 T02330189 10272 20233 402940183 55004

2010/08/08 05:53
KRAL 080553Z AUTO 00000KT 10SM CLR 17/13 A2990 RMK AO2 SLP113 T01670128 10278 20167 51021

2010/08/08 05:53
KRBD 080553Z 18007KT 10SM CLR 30/21 A2987 RMK AO2 SLP102 T03000206 10361 20300 403780244 51011

2010/08/08 05:53
KRBG 080553Z AUTO 01005KT 10SM CLR 21/13 A2992 RMK AO2 SLP130 T02060133 10289 20206 51017

2010/08/08 05:53
KRDD 080553Z AUTO 21004KT 10SM CLR 28/12 A2974 RMK AO2 SLP064 T02830122 10378 20278 51029

2010/08/08 05:53
KRHI 080553Z AUTO 28004KT 2 1/2SM +TSRA BR OVC029 18/17 A2985 RMK AO2 LTG DSNT ALQDS PRESRR SLP100 P0026 60093 T01780172 10250 20178 402830100 53018

2010/08/08 05:53
KRME 080553Z AUTO 10005KT 10SM CLR 14/12 A3003 RMK AO2 SLP166 T01390122 10206 20133 55000

2010/08/08 05:54
PHMK 080554Z AUTO 07007G18KT 10SM CLR 24/21 A3008 RMK AO2 SLP188 60000 T02390206 10289 20239 53016 TSNO

2010/08/08 05:53
PAMR 080553Z 20003KT 10SM -RA BR SCT020 BKN040 12/11 A2976 RMK AO2 SLP078 P0000 60008 T01220106 10139 20122 53004 $

2010/08/08 05:53
PAPB 080553Z AUTO 18017KT 5SM BR OVC003 10/10 A2933 RMK AO2 RAE15 SLP917 P0000 60046 T01000100 10106 20100 56033 TSNO

2010/08/08 05:53
PASC 080553Z 07018G26KT 10SM OVC005 04/03 A2976 RMK AO2 PK WND 06029/0503 SLP077 60000 T00390028 10061 20039 51008

2010/08/08 05:53
PASI 080553Z 22004KT 10SM FEW009 BKN036 OVC055 13/12 A2989 RMK AO2 SLP123 60002 T01330117 10150 20128 53010

2010/08/08 05:53
PASO 080553Z AUTO 00000KT 10SM OVC085 11/11 A2977 RMK AO2 SLP082 60005 T01110106 10133 20111 55000 TSNO

2010/08/08 05:53
PATO 080553Z AUTO VRB04KT 10SM -RA OVC031 09/09 A2979 RMK AO2 SLP087 P0002 60011 T00940094 10122 20094 53003 TSNO

2010/08/08 05:53
PAVL 080553Z AUTO 27008KT 1 1/2SM -RA BR OVC001 10/09 A2959 RMK AO2 SLP021 P0000 60000 T01000094 10117 20094 53006 TSNO

2010/08/08 05:53
PAWD 080553Z AUTO 00000KT 10SM -RA BKN008 OVC017 11/10 A2977 RMK AO2 SLP082 P0002 60021 T01110100 10122 20111 53002 TSNO

2010/08/08 05:51
PAED 080551Z 21005KT 10SM OVC048 12/11 A2976

2010/08/08 05:53
KFST 080553Z AUTO 16012KT 10SM CLR 28/16 A2995 RMK AO2 SLP083 T02780156 10356 20278 403830217 50011

2010/08/08 05:53
KFTW 080553Z 18010KT 10SM CLR 31/20 A2985 RMK AO2 SLP098 T03060200 10361 20300 403780244 51011

2010/08/08 05:53
KFTY 080553Z 00000KT 4SM BR CLR 24/23 A2996 RMK AO2 SLP135 T02440228 10317 20239 56004

2010/08/08 05:53
KFUL 080553Z 18004KT 10SM BKN020 17/13 A2990 RMK AO2 SLP124 T01670128 10228 20167 51019

2010/08/08 05:53
KFVE 080553Z AUTO 19005KT 10SM SCT085 09/06 A2992 RMK AO2 SLP130 T00940056 10133 20089 50002

2010/08/08 05:53
KFWN 080553Z AUTO 00000KT 10SM CLR 14/13 A3002 RMK AO2 SLP162 T01440133 10244 20139 51003

2010/08/08 05:53
KFXE 080553Z 00000KT 10SM CLR 27/24 A2996 RMK AO2 SLP146 T02720244 10278 20256 58009 $

2010/08/08 05:53
KFYV 080553Z AUTO 00000KT 10SM FEW060 23/22 A2992 RMK AO2 SLP114 T02330217 10278 20228 403280206 50001

2010/08/08 05:53
KGAG 080553Z AUTO 17013KT 10SM CLR 28/19 A2988 RMK AO2 SLP081 T02830194 10350 20261 403610211 53008

2010/08/08 05:53
KGEY 080553Z AUTO 00000KT 10SM CLR 21/07 A2987 RMK AO2 SLP073 60000 T02060072 10283 20206 50009

2010/08/08 05:53
KGEZ 080553Z AUTO 11004KT 10SM CLR 16/14 A2997 RMK AO2 SLP141 T01610144 10267 20161 50001

2010/08/08 05:53
KGFK 080553Z 00000KT 10SM CLR 22/21 A2964 RMK AO2 SLP032 T02220206 10294 20217 403060161 51006

2010/08/08 05:53
KGFL 080553Z AUTO 00000KT 10SM OVC080 12/11 A3001 RMK AO2 SLP163 T01220111 10206 20100 51003

2010/08/08 05:53
KGGG 080553Z AUTO 19006KT 10SM CLR 28/24 A2990 RMK AO2 SLP115 T02830239 10350 20283 403560239 51012

2010/08/08 05:53
KGGW 080553Z AUTO 06009KT 10SM CLR 20/12 A2969 RMK AO2 SLP040 T02000122 10317 20194 53004 TSNO

2010/08/08 05:53
KGIF 080553Z AUTO 23004KT 10SM CLR 27/25 A2996 RMK AO2 SLP143 T02670250 10283 20267 58007 TSNO

2010/08/08 05:53
KGJT 080553Z AUTO 00000KT 10SM OVC095 18/14 A3010 RMK AO2 SLP126 60000 T01780144 10244 20178 50000

2010/08/08 05:53
KGKJ 080553Z AUTO 00000KT 10SM CLR 19/11 A3003 RMK AO2 SLP161 T01890106 10217 20183 56001

2010/08/08 05:53
KGKY 080553Z AUTO 19007KT 10SM CLR 29/21 A2987 RMK AO2 SLP102 T02940206 10361 20289 403780250 51012

2010/08/08 05:53
KGLD 080553Z AUTO 00000KT 10SM CLR 23/16 A2992 RMK AO2 SLP078 T02330156 10289 20217 51011

2010/08/08 05:53
KGLH 080553Z AUTO 00000KT 7SM FEW075 26/24 A2990 RMK AO2 SLP130 T02560244 10300 20250 403170239 51004

2010/08/08 05:53
KGLR 080553Z AUTO 22007KT 10SM SCT110 21/18 A2983 RMK AO2 SLP095 T02060183 10244 20200 56007

2010/08/08 05:53
KINK 080553Z AUTO 14009KT 10SM CLR 28/15 A2992 RMK AO2 SLP078 T02830150 10378 20283 403940228 51017 TSNO

2010/08/08 05:53
KIPL 080553Z AUTO 25006KT 10SM CLR 28/04 A2969 RMK AO2 SLP056 T02830039 10406 20278 51020

2010/08/08 05:53
KITR 080553Z AUTO 21003KT 10SM FEW120 21/18 A2994 RMK AO2 LTG DSNT S RAB0456E06 SLP076 P0000 60000 T02060178 10278 20206 50003 $

2010/08/08 05:53
KIWI 080553Z AUTO 00000KT 10SM CLR 10/09 A3002 RMK AO2 SLP165 T01000094 10178 20100 50001

2010/08/08 05:53
KIXD 080553Z AUTO 15007KT 10SM CLR 26/21 A2988 RMK AO2 SLP102 T02610211 10311 20256 403330217 51002

2010/08/08 05:51
KJCT 080551Z AUTO 17007KT 10SM CLR 29/19 A2994 RMK AO2 SLP095 T02890189 10350 20289 403720244 51012 TSNO

2010/08/08 05:53
KJEF 080553Z AUTO 10005KT 10SM CLR 25/21 A2990 RMK AO2 SLP110 T02500211 10311 20244 403220206 51007

2010/08/08 05:53
KJER 080553Z AUTO 10008KT 10SM CLR 21/09 A2987 RMK AO2 SLP075 T02060094 10294 20200 51013

2010/08/08 05:51
KJFK 080551Z COR 22008KT 10SM SCT100 23/20 A3002 RMK AO2 SLP164 T02280200 10250 20228 51005

2010/08/08 05:53
KJKL 080553Z AUTO 00000KT 10SM CLR 21/15 A3002 RMK AO2 SLP150 T02060150 10250 20206 58002

2010/08/08 05:50
KJYR 080550Z AUTO 19009KT 10SM CLR 25/22 A2980 RMK AO2

2010/08/08 05:55
KJZI 080555Z AUTO 00000KT 5SM BR CLR 24/24 A2992 RMK A02 P000

2010/08/08 05:53
KLAA 080553Z AUTO 00000KT 10SM SCT120 22/19 A2989 RMK AO2 LTG DSNT NE SLP066 60003 T02170189 10339 20217 51018

2010/08/08 05:50
BGSF 080550Z 06007KT 9999 FEW200 05/02 Q1013

2010/08/08 05:50
BGBW 080550Z AUTO 08002KT 9999NDV FEW100/// BKN130/// 12/07 Q1013

2010/08/08 05:50
BGGH 080550Z AUTO 02005KT 9999NDV -RA OVC060/// 10/07 Q1012

2010/08/08 05:50
BGJN 080550Z AUTO VRB01KT 9999NDV NCD 07/01 Q1013

2010/08/08 05:50
BGSS 080550Z AUTO 26002KT 9999NDV NCD 12/06 Q1011

2010/08/08 05:50
BGAA 080550Z AUTO 06001KT 9999NDV BKN230/// 07/04 Q1013

2010/08/08 05:50
BGMQ 080550Z AUTO 25007KT 210V270 9999NDV BKN220/// 12/07 Q1012

2010/08/08 05:50
BGUK 080550Z AUTO 07005KT 050V180 9999NDV ///028/// 09/06 Q1015 RMK /// 

2010/08/08 05:50
BGPT 080550Z AUTO 36003KT //// OVC150/// 09/08 Q1011

2010/08/08 05:52
KABI 080552Z 16008KT 10SM CLR 28/19 A2992 RMK AO2 SLP101 T02780194 10356 20278 403720233 51013 $

2010/08/08 05:52
KSDB 080552Z AUTO 22003KT 10SM CLR 16/03 A3001 RMK AO2 SLP112 T01610028 10233 20150 51009 TSNO $

2010/08/08 05:52
K9V9 080552Z AUTO 26005KT 24/19 A2973 RMK AO2 SLP049 T02440194 10333 20239 403500228 51010 PWINO TSNO

2010/08/08 05:50
K4HV 080550Z 00000KT 10SM BKN080 16/14 RMK NOSPECI T01560144 10244 20156 53005

2010/08/08 05:53
KTRI 080553Z 00000KT 7SM SCT055 19/17 A3002 RMK AO2 SLP145 T01940167 10272 20183 58003

2010/08/08 05:53
KCUT 080553Z AUTO 06004KT 10SM CLR 17/10 A3000 RMK AO2 SLP084 T01720100 10256 20156 53006 TSNO

2010/08/08 05:50
K4BL 080550Z 18004KT 40SM SCT020 OVC100 16/13 RMK SLP131 NOSPECI 60001 8/27/ T01610133 10183 20156 51007

2010/08/08 05:53
KSAV 080553Z 00000KT 8SM FEW015 25/24 A2992 RMK AO2 SLP132 T02500239 10289 20250 58005

2010/08/08 05:53
KTYS 080553Z 00000KT 9SM CLR 22/19 A2997 RMK AO2 SLP135 T02170194 10300 20217 58001

2010/08/08 05:53
KFAR 080553Z 18004KT 10SM CLR 23/19 A2964 RMK AO2 SLP032 T02280189 10306 20228 403170183 51005

2010/08/08 05:53
KLND 080553Z AUTO 26005KT 10SM CLR 21/03 A2998 RMK AO2 SLP071 T02110033 10300 20206 51005

2010/08/08 05:53
KHTL 080553Z AUTO 22008KT 10SM SCT090 21/19 A2986 RMK AO2 SLP106 T02110189 10244 20206 55007

2010/08/08 05:53
KMSN 080553Z 19008G16KT 9SM CLR 23/19 A2984 RMK AO2 SLP098 T02330189 10267 20233 402830150 55005

2010/08/08 05:53
KCQC 080553Z AUTO 30006KT 10SM FEW100 17/11 A3021 RMK AO2 SLP121 T01720106 10261 20161 51010 TSNO

2010/08/08 05:51
KGDP 080551Z AUTO 25015KT 10SM SCT080 BKN110 24/12 A3015 RMK AO2 WSHFT 0521 SLP110 T02440117 10294 20244 51015 TSNO

2010/08/08 05:53
PHTO 080553Z 09006KT 10SM OVC065 23/21 A3008 RMK AO2 SLP185 T02330206 10283 20233 53017

2010/08/08 05:53
PHKO 080553Z 21005KT 10SM OVC060 26/21 A3003 RMK AO2 SLP169 T02560211 10278 20256 53013

2010/08/08 05:53
PHLI 080553Z 04013KT 10SM FEW016 SCT022 BKN028 25/21 A3010 RMK AO2 SLP188 60000 T02500211 10294 20250 53011

2010/08/08 05:53
KAAF 080553Z AUTO 00000KT 8SM CLR 27/26 A2990 RMK AO2 SLP124 T02670256 10283 20267 58009

2010/08/08 05:53
KBFF 080553Z AUTO 19005KT 10SM SCT120 27/10 A2990 RMK AO2 SLP063 T02670100 10344 20250 51015

2010/08/08 05:53
KBIL 080553Z 24007KT 10SM CLR 20/12 A2982 RMK AO2 SLP060 T02000117 10233 20189 53002 $

2010/08/08 05:51
KBVE 080551Z AUTO 26005KT 10SM SCT032 BKN039 BKN047 30/25 A2993 RMK AO2 SLP135 T03000250 10317 20300 403330250 58000 TSNO

2010/08/08 05:53
KCDR 080553Z AUTO 11003KT 10SM -RA FEW080 BKN120 23/14 A2983 RMK AO2 RAB01E24B43 SLP067 P0000 60000 T02330144 10344 20211 53012

2010/08/08 05:53
KBNO 080553Z AUTO 15006KT 10SM CLR 17/04 A2990 RMK AO2 SLP088 T01670044 10294 20167 53013 TSNO $

2010/08/08 05:54
KBTV 080554Z 12003KT 10SM CLR 12/10 A2998 RMK AO2 SLP152 T01170100 10178 20117 53002

2010/08/08 05:53
KLAX 080553Z 24004KT 10SM BKN012 16/12 A2991 RMK AO2 SLP127 T01610122 10183 20161 51015

2010/08/08 05:53
KP92 080553Z AUTO 22004KT 30/25 A2992 RMK AO2 SLP132 T03000250 10317 20300 403280272 50003 PWINO TSNO

2010/08/08 05:53
KCTY 080553Z AUTO 00000KT 25/24 A2993 RMK AO2 SLP134 60017 T02500244 10272 20244 50001 PWINO TSNO

2010/08/08 05:53
KCHA 080553Z 04003KT 10SM CLR 26/21 A2996 RMK AO2 SLP135 T02560206 10322 20250 50000

2010/08/08 05:53
KTUP 080553Z AUTO 00000KT 5SM BR CLR 26/24 A2991 RMK AO2 SLP122 T02610244 10306 20261 403330239 58003

2010/08/08 05:53
KBTR 080553Z 25005KT 10SM FEW040 28/25 A2992 RMK AO2 SLP129 OCNL LTGIC CB DSNT N T02780250 10328 20278 403440244 50006

2010/08/08 05:53
KMCN 080553Z AUTO 00000KT 6SM BR FEW024 24/23 A2995 RMK AO2 SLP134 T02440233 10300 20244 53001 TSNO

2010/08/08 05:53
KTCS 080553Z AUTO 29008KT 10SM CLR 25/14 A3005 RMK AO2 SLP081 T02500139 10333 20250 51020 TSNO

2010/08/08 05:53
KCNY 080553Z AUTO 32006KT 10SM OVC095 17/14 A3008 RMK AO2 SLP130 60002 T01720139 10200 20172 51010

2010/08/08 05:53
KLAR 080553Z AUTO 01005KT 10SM OVC075 16/09 A3017 RMK AO2 RAB19E52 SLP096 P0000 60000 T01610089 10244 20156 53004

2010/08/08 05:53
KLAW 080553Z AUTO 16003KT 10SM CLR 28/22 A2985 RMK AO2 SLP091 T02830217 10367 20283 403830222 51007

2010/08/08 05:53
KLBF 080553Z AUTO 17003KT 10SM CLR 23/22 A2983 RMK AO2 SLP068 T02280217 10322 20222 403390200 50007

2010/08/08 05:50
KLCG 080550Z AUTO 20003KT 10SM CLR 24/22 A2976 RMK AO2 T02390220 10303 20239 403150193

2010/08/08 05:53
KLEB 080553Z AUTO 00000KT 10SM CLR 11/08 A3001 RMK AO2 SLP158 T01060083 10178 20100 51006

2010/08/08 05:53
KLEE 080553Z AUTO 28003KT 10SM CLR 28/26 A2995 RMK AO2 SLP139 60000 T02780261 10294 20267 58002 TSNO

2010/08/08 05:53
KLGB 080553Z AUTO 00000KT 10SM CLR 17/13 A2991 RMK AO2 SLP127 T01670128 10228 20167 51019 TSNO

2010/08/08 05:51
KLHM 080551Z AUTO 14010KT 10SM CLR 22/12 A2973 RMK AO1 T02220122 10343 20221

2010/08/08 05:53
KLHQ 080553Z AUTO 00000KT 8SM CLR 16/15 A3001 RMK AO2 SLP157 T01610150 10256 20156 58000

2010/08/08 05:53
KLHX 080553Z AUTO 04004KT 10SM SCT110 22/17 A2994 RMK AO2 SLP070 60000 T02170167 10289 20217 50010 $

2010/08/08 05:55
KLKR 080555Z AUTO 00000KT 3SM BR CLR 22/22 A2997 RMK AO2

2010/08/08 05:53
KLLQ 080553Z AUTO 00000KT 9SM CLR 27/25 A2993 RMK AO2 SLP130 60000 T02670250 10300 20267 403330244 52004

2010/08/08 05:53
KLMT 080553Z AUTO 32008KT 10SM FEW090 17/08 A2997 RMK AO2 SLP109 T01720078 10278 20167 51020

2010/08/08 05:53
KLNS 080553Z AUTO 00000KT 9SM BKN070 OVC090 21/17 A3001 RMK AO2 SLP157 T02060167 10256 20200 50004

2010/08/08 05:53
KLOL 080553Z AUTO 35014KT 10SM CLR 28/01 A2984 RMK AO2 SLP052 T02780006 10361 20250 53018

2010/08/08 05:53
KLOU 080553Z 00000KT 10SM CLR 22/17 A2998 RMK AO2 SLP147 T02220172 10289 20217 51002

2010/08/08 05:53
KLOZ 080553Z AUTO 00000KT 7SM CLR 18/17 A3001 RMK AO2 SLP149 T01780167 10261 20178 58001

2010/08/08 05:53
KLPR 080553Z AUTO 19003KT 10SM CLR 19/15 A3000 RMK AO2 SLP153 T01890150 10256 20183 53000

2010/08/08 05:53
KLSE 080553Z AUTO 19011KT 10SM BKN085 25/22 A2976 RMK AO2 SLP065 T02500222 10289 20250 403060172 55001

2010/08/08 05:53
KLUK 080553Z AUTO 00000KT 8SM CLR 18/17 A3000 RMK AO2 SLP154 T01830172 10261 20183 51003

2010/08/08 05:53
KLVK 080553Z AUTO 31011KT 10SM CLR 13/11 A2982 RMK AO2 SLP096 T01330111 10272 20133 50014

2010/08/08 05:53
KLVM 080553Z AUTO 27012KT 10SM CLR 19/06 A2990 RMK AO2 SLP078 60000 T01890061 10244 20189 51014

2010/08/08 05:53
KLVS 080553Z AUTO 20006KT 10SM CLR 17/11 A3019 RMK AO2 SLP101 60000 T01720111 10261 20156 51011

2010/08/08 05:53
KLWV 080553Z AUTO 00000KT 5SM BR CLR 20/18 A2995 RMK AO2 SLP139 T02000178 10278 20194 403060172 51003

2010/08/08 05:50
KLXN 080550Z AUTO 15006KT 10SM CLR 25/22 A2982 RMK AO2 T02520218 10333 20251 403470210

2010/08/08 05:53
KLXT 080553Z AUTO 17008KT 10SM CLR 26/21 A2988 RMK AO2 SLP106 T02610206 10300 20261 403170217 52002

2010/08/08 05:53
KMAE 080553Z AUTO 33007KT 10SM CLR 20/11 A2977 RMK AO2 SLP077 T02000111 10339 20200 51014 $

2010/08/08 05:53
KMAF 080553Z AUTO 15005KT 10SM CLR 26/14 A2996 RMK AO2 SLP090 T02610139 10361 20261 403780228 51019

2010/08/08 05:53
KMAI 080553Z AUTO 00000KT 8SM CLR 26/24 A2991 RMK AO2 SLP125 60000 T02610244 10278 20256 403440244 55006

2010/08/08 05:55
KMAO 080555Z AUTO 04003KT 4SM BR CLR 23/23 A2993 RMK AO2

2010/08/08 05:53
KMBS 080553Z 21007KT 10SM SCT120 22/17 A2989 RMK AO2 SLP117 T02220172 10261 20217 55003

2010/08/08 05:53
KMCE 080553Z AUTO 26006KT 10SM CLR 18/11 A2976 RMK AO2 SLP076 T01830111 10328 20183 51014 $

2010/08/08 05:53
KMCI 080553Z 17008KT 10SM FEW250 26/21 A2986 RMK AO2 SLP099 T02610211 10311 20261 403330222 51002

2010/08/08 05:53
KMCK 080553Z AUTO 00000KT 10SM CLR 24/22 A2982 RMK AO2 SLP068 T02390217 10328 20239 403500194 50007

2010/08/08 05:53
KGMU 080553Z AUTO 03006KT 8SM CLR 25/20 A3001 RMK AO2 SLP149 T02500200 10300 20239 50001

2010/08/08 05:53
KGNV 080553Z AUTO 20003KT 10SM BKN100 25/24 A2994 RMK AO2 SLP133 60042 T02500239 10250 20239 50000

2010/08/08 05:50
ENAT 080550Z 06003KT 9999 FEW010 OVC018 15/12 Q1018 

2010/08/08 05:50
ENEV 080550Z AUTO 36003KT 320V050 7000NDV BR BKN001/// BKN004/// OVC011/// 11/10 Q1019 

2010/08/08 05:50
ENKB 080550Z AUTO 26008KT 9999NDV SCT100/// 15/14 Q1016

2010/08/08 05:50
ENKR 080550Z AUTO 09006KT 9999NDV OVC009/// 17/14 Q1018 

2010/08/08 05:50
ENNA 080550Z 36004KT 9999 FEW005 SCT110 15/13 Q1018 

2010/08/08 05:50
ENEK 080550Z 35015KT 9999 SCT007 BKN035 15/14 Q1016 W16/S3

2010/08/08 05:50
ENGC 080550Z 23017KT 0500 FG VV002 13/13 Q1014

2010/08/08 05:50
ENHE 080550Z 05018KT 9999 BKN006 12/12 Q1018

2010/08/08 05:50
ENOA 080550Z 26013KT 9999 -DZ SCT008 BKN012 14/12 Q1015

2010/08/08 05:53
KHLG 080553Z AUTO A3004 RMK AO2 SLPNO 6//// 54000 PWINO FZRANO $

2010/08/08 05:53
KHLN 080553Z AUTO 27005KT 10SM CLR 21/07 A2984 RMK AO2 SLP085 T02110067 10294 20206 51019

2010/08/08 05:53
KHOT 080553Z AUTO 15005KT 8SM BKN015 BKN020 OVC070 27/26 A2993 RMK AO2 LTG DSNT S TSB21E36RAB11E46 SLP126 P0002 60002 T02670256 10328 20267 403440239 53010

2010/08/08 05:53
KHQM 080553Z AUTO 26009KT 9SM OVC005 14/13 A2995 RMK AO2 SLP144 60001 T01390128 10161 20139 51007

2010/08/08 05:53
KHRI 080553Z AUTO 22010KT 10SM SCT095 22/09 A2981 RMK AO2 SLP089 T02220094 10322 20222 51025

2010/08/08 05:53
KHRO 080553Z AUTO 12006KT 7SM CLR 24/22 A2995 RMK AO2 SLP124 T02440217 10306 20244 403220200 51006

2010/08/08 05:53
KHUF 080553Z 00000KT 6SM BR CLR 18/17 A2997 RMK AO2 SLP146 T01780172 10267 20178 51004

2010/08/08 05:53
KHUL 080553Z AUTO 21003KT 10SM CLR 08/06 A2997 RMK AO2 SLP149 T00780056 10150 20061 51006

2010/08/08 05:53
KHVN 080553Z AUTO 21006KT 10SM CLR 24/21 A3001 RMK AO2 SLP162 T02390206 10250 20211 51004

2010/08/08 05:53
KHWO 080553Z AUTO 00000KT 10SM CLR 28/24 A2998 RMK AO2 SLP152 T02830244 10283 20267 58007 $

2010/08/08 05:53
KHYR 080553Z AUTO 07005KT 10SM -RA BKN031 BKN120 20/19 A2974 RMK AO2 LTG DSNT SE RAB0455 SLP065 P0002 60113 T02000189 10228 20200 402830106 50013

2010/08/08 05:53
KHZY 080553Z AUTO 18005KT 10SM CLR 18/14 A3001 RMK AO2 SLP156 T01780139 10217 20161 58001

2010/08/08 05:50
KIBM 080550Z AUTO 25005KT 10SM BKN120 21/16 A3000 RMK AO2 T02140156 10292 20214

2010/08/08 05:53
KICR 080553Z AUTO 21003KT 10SM CLR 24/17 A2976 RMK AO2 SLP056 T02390167 10350 20217 403670217 53011 TSNO

2010/08/08 05:53
KICT 080553Z 15007KT 10SM SCT200 27/22 A2985 RMK AO2 SLP091 T02720222 10328 20272 403610233 53005

2010/08/08 05:53
KIDA 080553Z AUTO 20008KT 10SM CLR 22/08 A2992 RMK AO2 SLP081 60000 T02170078 10311 20133 53012

2010/08/08 05:53
KILM 080553Z AUTO 00000KT 3SM BR CLR 24/23 A2994 RMK AO2 SLP140 60001 T02390228 10272 20239 58000

2010/08/08 05:53
KIML 080553Z AUTO 26005KT 10SM CLR 26/17 A2987 RMK AO2 SLP070 T02560167 10344 20244 50009

2010/08/08 05:53
KMSY 080553Z 24005KT 10SM FEW050 SCT250 28/25 A2992 RMK AO2 SLP133 T02830250 10317 20283 403500267 50001

2010/08/08 05:53
KMCO 080553Z 23004KT 10SM FEW030 FEW100 SCT180 OVC200 27/24 A2994 RMK AO2 SLP137 T02670239 10272 20267 58008

2010/08/08 05:53
KMCW 080553Z AUTO 20009KT 8SM CLR 24/22 A2980 RMK AO2 SLP075 T02390217 10283 20228 403000167 55002

2010/08/08 05:53
KMEM 080553Z 00000KT 10SM FEW045 28/24 A2991 RMK AO2 SLP124 T02830244 10328 20278 403560250 50002 $

2010/08/08 05:53
KMFR 080553Z AUTO 00000KT 10SM CLR 23/12 A2988 RMK AO2 SLP108 T02280117 10317 20217 51016

2010/08/08 05:53
KMGW 080553Z AUTO 00000KT 7SM CLR 16/14 A3006 RMK AO2 SLP170 T01610144 10256 20161 50003

2010/08/08 05:53
KMGY 080553Z AUTO 00000KT 10SM CLR 21/15 A3000 RMK AO2 SLP150 T02060150 10256 20194 58000

2010/08/08 05:53
KMHE 080553Z AUTO 25006KT 10SM CLR 25/21 A2969 RMK AO2 SLP041 T02500211 10328 20250 403330217 51010 TSNO

2010/08/08 05:53
KMHT 080553Z 00000KT 10SM CLR 15/10 A3001 RMK AO2 SLP171 T01500100 10233 20150 51006

2010/08/08 05:53
KMIA 080553Z 20003KT 10SM FEW040 BKN130 BKN250 28/25 A2997 RMK AO2 SLP148 T02830250 10289 20278 58007 $

2010/08/08 05:53
KMIC 080553Z VRB05KT 10SM BKN026 BKN045 OVC070 27/21 A2968 RMK AO2 LTG DSNT N-E TSB16E47 SLP045 T02720206 10311 20261 403220178 53002

2010/08/08 05:53
KMIE 080553Z AUTO 18003KT 10SM CLR 19/16 A2999 RMK AO2 SLP145 T01940161 10256 20183 50000

2010/08/08 05:53
KMIW 080553Z AUTO 19011KT 10SM CLR 24/21 A2981 RMK AO2 SLP085 T02440211 10283 20244 402940183 58002

2010/08/08 05:53
KMKL 080553Z AUTO 00000KT 10SM CLR 23/21 A2992 RMK AO2 SLP126 T02330206 10311 20228 403440194 50000

2010/08/08 05:53
KMKO 080553Z AUTO 15006KT 10SM CLR 26/23 A2987 RMK AO2 SLP107 T02560228 10311 20250 403220239 51002

2010/08/08 05:53
KMLB 080553Z AUTO 21006KT 10SM CLR 25/24 A2994 RMK AO2 SLP138 T02500244 10267 20250 58008

2010/08/08 05:53
PAJN 080553Z 06006KT 3SM -RA BR FEW005 BKN027 OVC040 12/11 A2986 RMK AO2 TWR VIS 10 SLP111 MTNS OBSCD ALQDS P0001 60012 T01170111 10133 20117 53007

2010/08/08 05:53
PAMC 080553Z 19003KT 10SM SCT025 OVC060 13/11 A2971 RMK AO2 SLP063 60000 T01280106 10133 20128 53004

2010/08/08 05:51
KSAD 080551Z AUTO 00000KT 10SM CLR 27/17 A2995 RMK AO2 SLP087 T02720167 10322 20272 51016 TSNO

2010/08/08 05:51
KSAN 080551Z 22004KT 10SM OVC018 17/12 A2994 RMK AO2 SLP137 T01720122 10194 20167 51015 $

2010/08/08 05:54
KCAR 080554Z AUTO 24003KT 10SM CLR 09/07 A2994 RMK AO2 SLP144 T00890067 10139 20089 51005

2010/08/08 05:53
KLXV 080553Z AUTO 06005KT 10SM BKN120 09/08 A3038 RMK AO2 RAE06 SLP110 P0001 60011 T00940083 10172 20089 50011 TSNO

2010/08/08 05:54
KFWA 080554Z 19003KT 10SM CLR 18/17 A2998 RMK AO2 SLP146 T01830167 10250 20183 58000

2010/08/08 05:54
KROC 080554Z 20003KT 10SM FEW080 SCT200 15/11 A2999 RMK AO2 SLP152 T01500111 10211 20144 58001 $

2010/08/08 05:54
KMQE 080554Z AUTO 19009KT 17/16 A3003 RMK AO1 SLP175 T01720156 10217 20167 51002

2010/08/08 05:54
KAVP 080554Z 11004KT 10SM FEW050 17/12 A3002 RMK AO2 SLP156 T01670117 10244 20167 53003

2010/08/08 05:54
K12N 080554Z AUTO 00000KT 16/14 A3002 RMK AO2 SLP159 T01560144 10228 20156 51002 PWINO TSNO

2010/08/08 05:54
K1V4 080554Z AUTO 09/08 A3000 RMK AO2 SLP157 T00890083 10161 20089 53002 PWINO TSNO

2010/08/08 05:54
KRIC 080554Z 00000KT 10SM CLR 22/18 A3000 RMK AO2 SLP160 T02220178 10272 20217 58001

2010/08/08 05:54
KBUF 080554Z 17006KT 10SM FEW070 SCT085 BKN220 17/11 A2997 RMK AO2 SLP145 T01720106 10217 20161 58005

2010/08/08 05:54
KDMH 080554Z AUTO 25/16 A3000 RMK AO2 SLP158 T02500156 10283 20250 50003 PWINO TSNO

2010/08/08 05:54
KWAL 080554Z AUTO 00000KT 10SM CLR 23/21 A3001 RMK AO2 SLP157 T02280211 10250 20222 58001 TSNO

2010/08/08 05:51
KNTU 080551Z 00000KT 10SM BKN010 BKN060 24/23 A2999 RMK AO2 $

2010/08/08 05:51
KLSF 080551Z AUTO 00000KT 8SM R33/5500FT CLR 24/23 A2993 RMK AO2 SLP134 PNO $

2010/08/08 05:46
KNGP 080546Z AUTO 21009G37KT 160V250 10SM FEW019 28/26 A2990 RMK AO2 VISNO $

2010/08/08 05:51
KNTU 080551Z 00000KT 10SM BKN010 BKN060 24/23 A2999 RMK AO2 $

2010/08/08 05:53
KSSC 080553Z 00000KT 8SM R22/5500VP6000FT CLR 25/23 A2993 RMK AO2A SLP133 $

2010/08/08 05:51
PAED 080551Z 21005KT 10SM OVC048 12/11 A2976 RMK AO2A DZB0536E0551 SLP080

2010/08/08 05:53
KMLC 080553Z AUTO 00000KT 10SM FEW065 27/22 A2987 RMK AO2 LTG DSNT SE SLP102 60000 T02720222 10339 20272 403670239 51004

2010/08/08 05:50
KMLE 080550Z AUTO 15005KT 10SM CLR 26/21 A2979 RMK AO2 T02620210 10316 20262 403250208

2010/08/08 05:53
KMLP 080553Z AUTO 24005KT 10SM CLR 14/06 A2998 RMK AO2 SLP062 T01390056 10183 20139 50004 TSNO

2010/08/08 05:53
KMLS 080553Z AUTO 22007KT 10SM CLR 22/11 A2976 RMK AO2 SLP052 T02170111 10328 20211 53003

2010/08/08 05:53
KMLT 080553Z AUTO 00000KT 10SM CLR 08/06 A3000 RMK AO2 SLP163 T00780056 10172 20078 51003

2010/08/08 05:50
KMMH 080550Z AUTO 00000KT 10SM CLR 10/M00 A3011 RMK AO1

2010/08/08 05:53
KMMK 080553Z AUTO 00000KT 10SM CLR 17/16 A3001 RMK AO2 SLP161 T01670156 10217 20167 51005

2010/08/08 05:53
KMMV 080553Z AUTO 22004KT 10SM FEW037 SCT050 OVC060 18/14 A2993 RMK AO2 SLP132 60000 T01830144 10244 20183 51010

2010/08/08 05:53
KMNN 080553Z AUTO 18006KT 10SM CLR 18/16 A3000 RMK AO2 SLP156 T01780156 10244 20172 56000

2010/08/08 05:53
KMOD 080553Z AUTO 35007KT 10SM CLR 23/13 A2975 RMK AO2 SLP073 T02330133 10328 20233 51010

2010/08/08 05:53
KVPC 080553Z AUTO 00000KT 6SM BR CLR 23/22 A2996 RMK AO2 SLP132 T02280222 10289 20228 58003

2010/08/08 05:53
KVPZ 080553Z AUTO 20004KT 9SM CLR 20/18 A2994 RMK AO2 SLP134 T02000183 10261 20200 402780156 55001

2010/08/08 05:53
KVRB 080553Z 20004KT 10SM CLR 26/24 A2994 RMK AO2 SLP138 T02560244 10261 20256 58011

2010/08/08 05:53
KVUO 080553Z AUTO 33006KT 10SM OVC037 19/16 A2992 RMK AO2 SLP130 60000 T01890156 10239 20189 51007

2010/08/08 05:53
KWRL 080553Z AUTO 35004KT 10SM CLR 21/09 A2990 RMK AO2 SLP075 T02110089 10289 20200 50010

2010/08/08 05:53
KWST 080553Z AUTO 00000KT 10SM BKN085 18/16 A3004 RMK AO2 SLP170 T01780161 10228 20172 51004

2010/08/08 05:53
KWVI 080553Z AUTO 19004KT 10SM OVC005 13/11 A2990 RMK AO2 SLP123 T01280111 10172 20128 51002 $

2010/08/08 05:53
KXNA 080553Z AUTO 00000KT 10SM CLR 24/22 A2992 RMK AO2 SLP114 T02440217 10294 20239 403220217 50003

2010/08/08 05:53
KYIP 080553Z 20008KT 8SM CLR 20/16 A2995 RMK AO2 SLP134 60000 T02000161 10256 20194 58001

2010/08/08 05:53
KZZV 080553Z AUTO 00000KT 6SM BR CLR 17/16 A3002 RMK AO2 SLP159 T01720161 10256 20167 51001

2010/08/08 05:53
KSLN 080553Z AUTO 16009KT 10SM CLR 28/21 A2982 RMK AO2 SLP079 T02780211 10350 20272 403720206 53004

2010/08/08 05:53
KSMF 080553Z 16009KT 10SM CLR 17/12 A2973 RMK AO2 SLP067 T01720117 10311 20172 51009

2010/08/08 05:53
KSMQ 080553Z AUTO 00000KT 6SM BR CLR 17/16 A2999 RMK AO2 SLP156 T01670156 10228 20161 51007

2010/08/08 05:53
KSNA 080553Z 15005KT 10SM OVC014 19/13 A2991 RMK AO2 SLP127 T01890128 10222 20183 51018

2010/08/08 05:53
KSNS 080553Z AUTO 27005KT 9SM OVC006 13/12 A2990 RMK AO2 SLP132 T01330117 10167 20133 50009

2010/08/08 05:53
KSNY 080553Z AUTO 23009KT 10SM -RA CLR 24/16 A2996 RMK AO2 RAB46 SLP077 P0000 60000 T02440156 10344 20244 51015

2010/08/08 05:55
KSPA 080555Z AUTO 35003KT 10SM SCT047 BKN075 23/23 A2999 RMK AO2

2010/08/08 05:53
KSPB 080553Z AUTO 31004KT 10SM BKN055 OVC070 18/16 A2992 RMK AO2 SLP130 60000 T01780156 10222 20178 51008

2010/08/08 05:53
KSPG 080553Z AUTO 27003KT 10SM CLR 30/25 A2993 RMK AO2 SLP135 T03000250 10311 20300 58003

2010/08/08 05:53
KSPW 080553Z AUTO 20010G17KT 10SM CLR 25/22 A2975 RMK AO2 SLP061 T02500222 10283 20239 403000178 58001

2010/08/08 05:53
KSRQ 080553Z AUTO 27007KT 10SM CLR 29/23 A2994 RMK AO2 SLP137 T02940233 10300 20294 58005 TSNO

2010/08/08 05:53
KSSI 080553Z AUTO 29003KT 8SM OVC009 26/24 A2992 RMK AO2 CIG 006V011 SLP132 T02560244 10267 20250 55003

2010/08/08 05:53
KSTJ 080553Z 17006KT 9SM CLR 26/21 A2984 RMK AO2 SLP096 T02560211 10311 20256 403220211 51004

2010/08/08 05:53
KSTP 080553Z AUTO 21009G14KT 10SM VCTS FEW055 SCT090 SCT110 28/22 A2968 RMK AO2 LTG DSNT NW-NE TSB39 SLP044 T02780217 10306 20278 403170189 58004

2010/08/08 05:53
KSTS 080553Z AUTO 14004KT 10SM SCT004 12/11 A2982 RMK AO2 SLP090 T01220111 10211 20122 51012

2010/08/08 05:53
KRSW 080553Z AUTO 00000KT 10SM CLR 27/24 A2996 RMK AO2 SLP141 T02720244 10294 20272 58005

2010/08/08 05:53
KRUE 080553Z AUTO 00000KT 9SM CLR 28/23 A2990 RMK AO2 SLP116 T02780233 10322 20272 403500233 51006

2010/08/08 05:53
KRVS 080553Z AUTO 14003KT 10SM CLR 27/23 A2985 RMK AO2 SLP109 T02720228 10333 20272 403500256 50005

2010/08/08 05:53
KRWF 080553Z AUTO 21012KT 10SM SCT060 SCT070 26/22 A2966 RMK AO2 SLP036 T02610222 10294 20244 403170178 58006

2010/08/08 05:53
KRWI 080553Z AUTO 00000KT 6SM BR CLR 23/22 A2998 RMK AO2 SLP150 60000 T02330217 10278 20233 58000

2010/08/08 05:53
KRWL 080553Z AUTO 25003KT 10SM BKN110 14/10 A3015 RMK AO2 RAE0454 SLP108 6//// T01440100 10239 20139 58005 PNO $

2010/08/08 05:53
KRXE 080553Z AUTO 07004KT 10SM CLR 14/09 A2993 RMK AO2 SLP092 60000 T01390089 10289 20139 53008

2010/08/08 05:53
KSAC 080553Z 19008G15KT 10SM CLR 17/11 A2975 RMK AO2 SLP074 T01720111 10300 20172 51010

2010/08/08 05:53
KSAF 080553Z AUTO 01009KT 10SM SCT100 21/12 A3017 RMK AO2 SLP100 T02060117 10317 20206 51015

2010/08/08 05:53
KSBA 080553Z 16003KT 10SM OVC009 14/12 A2989 RMK AO2 SLP120 T01440122 10178 20144 51013

2010/08/08 05:53
KSBM 080553Z AUTO 21005KT 10SM CLR 21/19 A2983 RMK AO2 SLP096 T02110189 10261 20211 402890144 55001

2010/08/08 05:53
KSDL 080553Z 05011KT 10SM CLR 28/20 A2985 RMK AO2 LTG DSNT NE AND E RAE24 SLP081 P0000 60000 T02830200 10350 20278 50018

2010/08/08 05:53
KSEG 080553Z AUTO 00000KT 7SM CLR 16/15 A3002 RMK AO2 SLP164 T01610150 10228 20156 51003

2010/08/08 05:50
KSEZ 080550Z AUTO 00000KT 10SM CLR 18/16 A3009 RMK AO2 T01840156 10200 20180

2010/08/08 05:53
KSFB 080553Z AUTO 00000KT 10SM FEW026 27/25 A2994 RMK AO2 RAE20 SLP138 P0001 60002 T02670250 10272 20267 58001

2010/08/08 05:53
KSFF 080553Z AUTO 27003KT 10SM CLR 23/08 A2979 RMK AO2 SLP072 T02280083 10300 20228 51013

2010/08/08 05:53
KSHN 080553Z AUTO 24009KT 10SM OVC005 14/14 A2989 RMK AO2 SLP123 60000 T01440139 10178 20144 51004

2010/08/08 05:53
KSHR 080553Z AUTO 17007KT 10SM CLR 18/11 A2986 RMK AO2 SLP070 60001 T01830111 10261 20167 55010

2010/08/08 05:53
KSIY 080553Z AUTO 03008KT 10SM 20/08 A2992 RMK AO2 SLP118 T02000083 10311 20200 51021 $

2010/08/08 05:53
KSJC 080553Z 11007KT 10SM FEW011 16/11 A2985 RMK AO2 SLP108 T01560106 10244 20150 50012

2010/08/08 05:53
KSLC 080553Z 17009KT 10SM FEW070 SCT120 23/11 A2992 RMK AO2 SLP072 T02280106 10272 20228 51012

2010/08/08 05:53
KOPF 080553Z AUTO 00000KT 10SM SCT043 28/26 A2997 RMK AO2 SLP149 6//// T02780256 10278 20267 58007 $

2010/08/08 05:53
KORL 080553Z AUTO 22004KT 10SM CLR 27/25 A2994 RMK AO2 SLP141 T02670250 10278 20267 58006

2010/08/08 05:53
KOSH 080553Z AUTO 21010G15KT 10SM CLR 24/18 A2981 RMK AO2 SLP078 T02390178 10261 20228 402830144 55002

2010/08/08 05:53
KOSU 080553Z AUTO 00000KT 10SM CLR 19/16 A3000 RMK AO2 SLP153 T01890161 10256 20178 50000

2010/08/08 05:53
KOTM 080553Z AUTO 19008KT 5SM BR CLR 23/22 A2986 RMK AO2 SLP103 T02280217 10289 20228 403000189 51003

2010/08/08 05:53
KOVS 080553Z AUTO 20005KT 10SM CLR 23/21 A2981 RMK AO2 SLP091 T02280206 10278 20228 403000161 55004

2010/08/08 05:53
KOWD 080553Z AUTO 00000KT 10SM CLR 12/09 A3002 RMK AO2 SLP166 T01170094 10233 20106 51004 $

2010/08/08 05:53
KOXB 080553Z AUTO 00000KT 7SM CLR 21/21 A3000 RMK AO2 SLP159 T02110206 10244 20206 58001

2010/08/08 05:53
KPAE 080553Z AUTO 21006KT 3SM BR BKN008 OVC016 16/15 A2991 RMK AO2 CIG 004V010 SLP128 60006 T01610150 10178 20161 51003

2010/08/08 05:53
KPAH 080553Z AUTO 00000KT 7SM CLR 23/17 A2993 RMK AO2 SLP132 T02280167 10322 20217 403440178 51004

2010/08/08 05:53
KPBF 080553Z AUTO 00000KT 8SM CLR 26/24 A2991 RMK AO2 LTG DSNT NW SLP126 T02560244 10306 20256 403280239 51006

2010/08/08 05:53
KPBG 080553Z AUTO 21004KT 10SM CLR 12/09 A2996 RMK AO2 SLP144 T01170094 10167 20106 50000

2010/08/08 05:53
KPBI 080553Z 21004KT 10SM FEW039 SCT100 27/24 A2995 RMK AO2 SLP140 T02740237 10289 20272 58014 $

2010/08/08 05:54
KBOS 080554Z 18005KT 10SM CLR 17/14 A3002 RMK AO2 SLP166 T01720139 10250 20172 51004

2010/08/08 05:55
KBTP 080555Z AUTO 00000KT 10SM CLR 15/13 A3004 RMK AO1 10220 20140

2010/08/08 05:54
KBUY 080554Z AUTO 00000KT 7SM CLR 22/19 A2999 RMK AO2 SLP150 T02170194 10261 20217 50000

2010/08/08 05:55
KBVX 080555Z AUTO 00000KT 10SM CLR 26/22 A2992 RMK AO1 10320 20240 52003

2010/08/08 05:55
KBWD 080555Z AUTO 16005KT 10SM CLR 28/20 A2992 RMK AO2

2010/08/08 05:54
KBWI 080554Z 00000KT 10SM BKN100 20/16 A2999 RMK AO2 SLP155 T02000161 10267 20194 50003

2010/08/08 05:54
KCEU 080554Z AUTO 00000KT 8SM SCT090 OVC110 26/22 A3000 RMK AO2 SLP145 60000 T02610217 10294 20250 50001

2010/08/08 05:55
KCGZ 080555Z AUTO 22008KT 10SM FEW120 31/14 A2986 RMK AO1 10360 20310 52020

2010/08/08 05:55
KCIC 080555Z AUTO 14008KT 10SM CLR 27/12 A2972 RMK AO1

2010/08/08 05:50
ESGP 080550Z 36003KT 9999 BR BKN150 16/16 Q1013

2010/08/08 05:50
ENBN 080550Z 36007KT 9999 FEW003 14/13 Q1016

2010/08/08 05:50
ENHF 080550Z AUTO 03006KT //// BKN009/// OVC016/// 11/10 Q1018

2010/08/08 05:53
KYKM 080553Z AUTO 36008KT 10SM OVC110 21/12 A2984 RMK AO2 RAE0456 SLP095 P0000 60000 T02060122 10278 20206 51010 $

2010/08/08 05:50
KSOW 080550Z AUTO 19003KT 10SM FEW110 14/12 A3023 RMK AO2

2010/08/08 05:53
KSTC 080553Z AUTO 07003KT 8SM BKN039 22/21 A2969 RMK AO2 LTG DSNT ALQDS TSE19B26E42RAE0455 SLP055 P0000 60033 T02170211 10294 20217 403170150 55003

2010/08/08 05:53
KODX 080553Z AUTO 20006KT 10SM CLR 24/22 A2978 RMK AO2 SLP068 T02390217 10322 20239 403280200 50003

2010/08/08 05:51
KSAN 080551Z 22004KT 10SM OVC018 17/12 A2994 RMK AO2 SLP137 T01720122 10194 20167 51015 $

2010/08/08 05:53
KSEA 080553Z 27007KT 10SM BKN006 BKN010 OVC019 16/15 A2992 RMK AO2 CIG 002V008 SLP138 60013 T01610150 10172 20161 51005

2010/08/08 05:51
KORF 080551Z 10003KT 7SM BKN009 25/23 A2999 RMK AO2 SLP156 T02500233 10256 20239 52002 $

2010/08/08 05:53
KPDX 080553Z 33005KT 10SM FEW020 BKN042 OVC050 19/16 A2992 RMK AO2 SLP131 60000 T01890156 10239 20189 50007

2010/08/08 05:53
KPGA 080553Z AUTO 00000KT 10SM CLR 17/15 A3008 RMK AO2 SLP139 T01670150 10206 20167 50005

2010/08/08 05:53
KTUS 080553Z 04005KT 10SM VCTS OVC070 24/18 A3001 RMK AO2 LTG DSNT W TSB41 SLP117 T02440178 10306 20239 51032 $

2010/08/08 05:53
KPOF 080553Z AUTO 04003KT 8SM CLR 22/20 A2993 RMK AO2 SLP128 T02220200 10306 20217 403390200 53006

2010/08/08 05:53
KRIW 080553Z AUTO 15003KT 10SM CLR 20/06 A2998 RMK AO2 SLP077 T02000061 10283 20200 50007

2010/08/08 05:53
KRMG 080553Z AUTO 03003KT 10SM CLR 23/21 A2995 RMK AO2 SLP129 T02330206 10333 20233 50000

2010/08/08 05:53
K40J 080553Z AUTO 00000KT 24/24 A2992 RMK AO2 SLP131 T02440239 10250 20244 50000 PWINO TSNO

2010/08/08 05:53
KSDM 080553Z AUTO 00000KT 10SM OVC012 16/12 A2993 RMK AO2 SLP132 T01560122 10194 20133 51015 TSNO $

2010/08/08 05:54
PHOG 080554Z 05012KT 10SM FEW049 SCT060 26/19 A3006 RMK AO2 SLP183 60000 T02560189 10322 20256 53020

2010/08/08 05:53
PANC 080553Z 17004KT 10SM -RA FEW011 SCT040 OVC080 12/11 A2976 RMK AO2 SLP078 P0000 60006 T01220111 10139 20122 53006

2010/08/08 05:53
PANN 080553Z AUTO 00000KT 10SM OVC100 15/10 A2966 RMK AO2 SLP048 T01500100 10211 20150 53014 TSNO

2010/08/08 05:53
PANT 080553Z AUTO 24004KT 10SM OVC025 14/11 A2991 RMK AO2 SLP130 T01390111 10161 20139 53006 TSNO

2010/08/08 05:53
PAOM 080553Z 25005KT 10SM OVC009 13/10 A2960 RMK AO2 SLP022 T01280100 10139 20128 53001

2010/08/08 05:53
PAOR 080553Z 00000KT 10SM FEW050 BKN075 BKN120 13/09 A2966 RMK AO2 SLP046 SHRA DSNT S TCU DSNT N T01330094 10194 20133 53006

2010/08/08 05:53
PAOT 080553Z 30016KT 10SM FEW003 BKN032 BKN080 OVC180 11/10 A2958 RMK AO2 SLP015 T01060100 10128 20106 53005

2010/08/08 05:53
PAQT 080553Z AUTO 06016G22KT 10SM OVC008 04/04 A2979 RMK AO2 SLP087 60001 T00440039 10067 20044 53012 TSNO

2010/08/08 05:53
PASN 080553Z AUTO 17014KT 1 1/2SM BR OVC003 08/08 A2928 RMK AO2 RAE18 SLP916 P0000 60038 T00830083 10094 20083 56037 TSNO

2010/08/08 05:53
PATK 080553Z AUTO 19003KT 10SM OVC015 13/11 A2975 RMK AO2 SLP078 60000 T01280106 10167 20128 53009 TSNO

2010/08/08 05:53
PAYA 080553Z 00000KT 10SM SCT012 BKN035 OVC055 13/11 A2984 RMK AO2 SLP105 BAY TWR WND 115MMKT T01330111 10150 20133 51002

2010/08/08 05:53
PABE 080553Z 19008KT 10SM OVC019 11/09 A2970 RMK AO2 SLP058 T01110094 10128 20111 58003

2010/08/08 05:53
PABT 080553Z 00000KT 10SM SCT030 BKN048 BKN075 14/11 A2964 RMK AO2 SLP043 60000 T01440106 10161 20144 53011 $

2010/08/08 05:53
PACD 080553Z AUTO 14026G33KT 10SM -RA BKN003 OVC075 11/11 A2970 RMK AO2 PK WND 15035/0525 SLP057 P0001 60001 T01060106 10139 20106 56022 TSNO

2010/08/08 05:53
PADQ 080553Z 33006KT 10SM FEW010 BKN024 OVC032 13/11 A2979 RMK AO2 SLP088 60001 T01280111 10139 20122 53004

2010/08/08 05:53
PAFA 080553Z 30005KT 10SM FEW045 BKN080 BKN130 14/13 A2966 RMK AO2 SLP049 SH DSNT SE AND SW 60005 T01440133 10206 20144 51012

2010/08/08 05:53
PAHO 080553Z AUTO 10SM OVC080 11/11 A2978 RMK AO2 SLP084 60004 T01110106 10122 20111 55001 TSNO $

2010/08/08 05:53
KPDK 080553Z AUTO 00000KT 10SM CLR 24/22 A2998 RMK AO2 SLP129 T02440222 10300 20244 56003 $

2010/08/08 05:53
KPDT 080553Z AUTO 25010KT 10SM FEW120 21/08 A2984 RMK AO2 SLP088 T02060078 10306 20206 53020

2010/08/08 05:53
KPEO 080553Z AUTO 00000KT CLR 14/12 A3002 RMK AO2 SLP163 T01390117 10194 20117 53002 $

2010/08/08 05:53
KPGD 080553Z AUTO 20003KT 10SM CLR 27/25 A2998 RMK AO2 SLP151 T02720250 10300 20272 58006 TSNO

2010/08/08 05:53
KPHD 080553Z AUTO 13003KT 7SM CLR 16/14 A3002 RMK AO2 SLP161 T01610139 10233 20161 58001

2010/08/08 05:53
KPIE 080553Z AUTO 27004KT 10SM CLR 28/24 A2994 RMK AO2 SLP140 60001 T02830244 10294 20278 58002

2010/08/08 05:53
KPIH 080553Z AUTO 19012KT 10SM CLR 24/04 A2991 RMK AO2 SLP074 T02390044 10311 20200 51014

2010/08/08 05:53
KPIR 080553Z AUTO 20004KT 10SM CLR 24/17 A2970 RMK AO2 SLP039 T02440172 10339 20222 403440206 51005

2010/08/08 05:53
KPKB 080553Z AUTO 00000KT 8SM CLR 17/16 A3005 RMK AO2 SLP168 T01670156 10256 20167 50002

2010/08/08 05:53
KPKD 080553Z AUTO 13003KT 10SM BKN040 19/17 A2969 RMK AO2 SLP048 T01890167 10272 20183 402830133 53005

2010/08/08 05:53
KTKI 080553Z AUTO 17003KT 10SM CLR 29/22 A2986 RMK AO2 SLP102 T02940217 10356 20294 403780239 51009

2010/08/08 05:53
KTMB 080553Z AUTO 00000KT 10SM CLR 28/24 A2997 RMK AO2 SLP147 T02830244 10289 20278 58008

2010/08/08 05:53
KTOI 080553Z AUTO 00000KT 6SM BR SCT002 24/23 A2994 RMK AO2 SLP131 60055 T02440233 10283 20233 403560233 53000

2010/08/08 05:53
KTOP 080553Z AUTO 17006KT 10SM CLR 28/23 A2984 RMK AO2 SLP091 T02830228 10328 20278 403560217 51002

2010/08/08 05:53
KTOR 080553Z AUTO 28006KT 10SM FEW090 27/08 A2989 RMK AO2 SLP056 60000 T02670078 10350 20267 51008

2010/08/08 05:53
KTPA 080553Z 24008KT 10SM FEW025 SCT130 BKN250 29/24 A2994 RMK AO2 SLP138 TCU DSNT NW T02940244 10300 20289 58004

2010/08/08 05:50
KTRK 080550Z AUTO 13006KT 10SM CLR 12/05 A3004 RMK AO2

2010/08/08 05:53
KTRL 080553Z AUTO 17004KT 10SM CLR 29/21 A2987 RMK AO2 SLP107 T02890211 10361 20289 403830250 51010

2010/08/08 05:53
KTTD 080553Z AUTO 27003KT 10SM FEW039 OVC048 19/16 A2990 RMK AO2 SLP124 60000 T01890156 10239 20189 50007

2010/08/08 05:53
KTTN 080553Z AUTO 19004KT 10SM BKN075 BKN095 21/17 A3001 RMK AO2 SLP153 T02110167 10278 20211 51005

2010/08/08 05:53
KTUL 080553Z 14007KT 10SM CLR 27/23 A2985 RMK AO2 SLP098 T02720228 10322 20272 403390256 51006

2010/08/08 05:53
KTVC 080553Z AUTO 00000KT 8SM BKN034 22/20 A2979 RMK AO2 SLP085 60018 T02170200 10244 20211 56008

2010/08/08 05:53
KTVL 080553Z AUTO 20007KT 10SM CLR 16/06 A3005 RMK AO2 SLP108 60001 T01610056 10256 20133 50005

2010/08/08 05:53
KTVR 080553Z AUTO 13003KT 8SM CLR 26/24 A2990 RMK AO2 SLP130 T02610244 10294 20261 403500233 58001

2010/08/08 05:53
KTWF 080553Z AUTO 18005KT 10SM CLR 21/08 A2988 RMK AO2 SLP059 T02060078 10300 20194 51010

2010/08/08 05:53
KTXK 080553Z AUTO 17004KT 10SM CLR 28/23 A2989 RMK AO2 LTG DSNT N SLP115 T02780233 10306 20256 403560228 53007

2010/08/08 05:53
KTYR 080553Z AUTO 19008KT 10SM CLR 29/23 A2991 RMK AO2 SLP118 T02940228 10361 20283 403720250 51013

2010/08/08 05:53
KUAO 080553Z AUTO 05004KT 10SM BKN036 BKN047 OVC060 20/16 A2992 RMK AO2 SLP130 T02000161 10250 20200 51010

2010/08/08 05:53
KUNO 080553Z AUTO 00000KT 10SM BKN060 24/18 A2997 RMK AO2 SLP132 T02440183 10311 20244 403330183 51008

2010/08/08 05:53
KUUU 080553Z AUTO 16004KT 10SM CLR 21/20 A3004 RMK AO2 SLP172 T02060200 10217 20183 51005

2010/08/08 05:53
KVCB 080553Z AUTO 23012KT 10SM CLR 18/11 A2974 RMK AO2 SLP070 T01780111 10322 20178 51010

2010/08/08 05:53
KVEL 080553Z AUTO 28004KT 10SM CLR 15/13 A3013 RMK AO2 SLP141 60001 T01500133 10172 20150 50003

2010/08/08 05:53
KVGT 080553Z AUTO 17010KT 10SM CLR 32/13 A2978 RMK AO2 SLP043 T03170133 10361 20311 51014 TSNO

2010/08/08 05:53
KVIH 080553Z AUTO 15006KT 10SM CLR 23/19 A2993 RMK AO2 SLP123 T02280194 10294 20228 403110194 51006

2010/08/08 05:55
KCGC 080555Z AUTO 00000KT 6SM SCT015 BKN044 26/25 A2994 RMK

2010/08/08 05:52
KNRB 080552Z AUTO 22003KT 10SM BKN026 BKN042 26/23 A2993 RMK AO2 SLP133 60000 T02560233 10261 20250 50000

2010/08/08 05:52
KNHK 080552Z AUTO 00000KT 10SM CLR 20/18 A2999 RMK AO2 SLP155 T02000178 10261 20200 50002

2010/08/08 05:52
KNFW 080552Z AUTO 17010KT 10SM CLR 31/19 A2990 RMK AO2 SLP108 T03110189 10372 20306 403890261 51012 $

2010/08/08 05:55
KBLV 080555Z AUTO 00000KT 10SM R14R/5500VP6000FT CLR 22/19 A2994 RMK AO2 SLP136 T02160191 10289 20216 403060182 51005

2010/08/08 05:55
KLRF 080555Z AUTO 00000KT 10SM CLR 26/25 A2991 RMK AO2 SLP126 T02640248 10304 20263 403360237 51005

2010/08/08 05:55
KMGE 080555Z AUTO 00000KT 10SM CLR 25/22 A2998 RMK AO2 SLP139 T02500224 10305 20249 57005 VISNO RWY11 CHINO RWY11 $

2010/08/08 05:55
KRDR 080555Z AUTO 00000KT 7SM R17/4500VP6000FT CLR 20/20 A2965 RMK AO2 SLP054 T01960196 10289 20196 403070155 53006 $

2010/08/08 05:55
KRDR 080555Z AUTO 00000KT 7SM R17/4500VP6000FT CLR 20/20 A2965 RMK AO2 SLP054 T01960196 10289 20196 403070155 53006 $

2010/08/08 05:53
PHNL 080553Z 05008KT 10SM FEW028 SCT045 27/19 A3006 RMK AO2 SLP179 T02670194 10317 20267 53012

2010/08/08 05:53
KDNK 080553Z AUTO 21006KT 10SM CLR 27/23 A2991 RMK AO2 SLP125 6//// T02720233 10328 20272 51006 PNO $

2010/08/08 05:53
KNQX 080553Z AUTO 14003KT 10SM BKN042 BKN075 30/25 A2996 RMK AO2 SLP143 6//// T03000250 10311 20294 58010 $

2010/08/08 05:53
KNIP 080553Z 21003KT 10SM SCT043 BKN150 OVC250 25/24 A2993 RMK AO2 SLP132 60003 T02500239 10256 20244 50000

2010/08/08 05:53
KDTS 080553Z AUTO 00000KT 10SM CLR 27/23 A2989 RMK AO2 TSB0456E11 SLP121 T02720233 10300 20267 403390267 58005

2010/08/08 05:53
KIAG 080553Z AUTO 18008KT 10SM FEW065 OVC095 20/14 A2995 RMK AO2 SLP137 T02000144 10211 20178 58006

2010/08/08 05:53
PABI 080553Z AUTO 28006KT 10SM OVC050 16/10 A2971 RMK AO2 SLP061 T01560100 10194 20156 53010 TSNO $

2010/08/08 05:55
KCEF 080555Z AUTO 00000KT 10SM CLR 13/12 A3001 RMK AO2 SLP164 T01310117 10218 20131 52003

2010/08/08 05:55
KGUS 080555Z AUTO 17005KT 10SM CLR 20/19 A2996 RMK AO2 SLP142 T01960194 10258 20196 50000

2010/08/08 05:55
KHMN 080555Z AUTO 15007KT 10SM SCT100 28/12 A3000 RMK AO2 SLP064 T02760122 10353 20267 51021 $

2010/08/08 05:55
KHST 080555Z AUTO 00000KT 10SM CLR 27/25 A2997 RMK AO2 SLP150 60000 T02690246 10287 20266 58007

2010/08/08 05:55
KIAB 080555Z AUTO 15008KT 10SM OVC230 28/22 A2986 RMK AO2 SLP095 T02760220 10331 20276 403600228 53006 $

2010/08/08 05:55
KMMT 080555Z AUTO 00000KT 5SM R32/4000V5000FT BR CLR 24/23 A2994 RMK AO2 SLP138 T02380230 10286 20238 58003

2010/08/08 05:55
KSUU 080555Z AUTO 25022KT 10SM CLR 14/11 A2975 RMK AO2 PK WND 25029/0455 SLP076 T01430114 10258 20142 53009 RVRNO $

2010/08/08 05:55
KSVN 080555Z AUTO 00000KT 2 1/4SM 24/24 A2992 RMK AO2 SLP131 58008

2010/08/08 05:55
KSZL 080555Z AUTO 13004KT 10SM CLR 24/21 A2988 RMK AO2 SLP112 T02380212 10301 20237 51005 PNO $

2010/08/08 05:54
KNKT 080554Z AUTO 00000KT 7SM CLR 25/23 A2996 RMK AO2 SLP142 T02500233 10272 20244 58002

2010/08/08 05:53
KGOK 080553Z AUTO 14007KT 10SM CLR 28/23 A2984 RMK AO2 SLP091 T02830233 10350 20283 403670244 50007

2010/08/08 05:53
KGRB 080553Z AUTO 21006KT 10SM FEW095 23/19 A2979 RMK AO2 SLP084 T02280194 10261 20217 402890139 55003 $

2010/08/08 05:53
KGRI 080553Z AUTO 18009KT 10SM CLR 25/21 A2980 RMK AO2 SLP070 T02500211 10322 20250 403390211 50003

2010/08/08 05:53
KGSH 080553Z AUTO 18006KT 8SM FEW110 21/17 A2995 RMK AO2 SLP136 T02060172 10256 20200 56005

2010/08/08 05:53
KGSP 080553Z AUTO 00000KT 9SM FEW050 BKN080 24/21 A2999 RMK AO2 SLP142 T02390211 10278 20239 50000

2010/08/08 05:53
KGTF 080553Z 20007KT 10SM CLR 16/05 A2981 RMK AO2 SLP062 T01610050 10300 20161 51018

2010/08/08 05:53
KGUP 080553Z AUTO 00000KT 10SM CLR 16/13 A3021 RMK AO2 SLP080 60020 T01560133 10172 20150 51003

2010/08/08 05:53
KGUY 080553Z AUTO 19010KT 10SM CLR 26/17 A2989 RMK AO2 SLP061 T02560172 10378 20256 403890206 50007

2010/08/08 05:53
KGVL 080553Z AUTO 00000KT 7SM CLR 24/22 A3002 RMK AO2 SLP147 T02440222 10289 20239 50000 $

2010/08/08 05:53
KGWO 080553Z AUTO 00000KT 5SM BR CLR 24/24 A2991 RMK AO2 SLP127 T02390239 10300 20239 403170239 52003

2010/08/08 05:53
KGZH 080553Z AUTO 00000KT 4SM BR CLR 24/24 A2992 RMK AO2 SLP129 P0004 60038 T02440244 10283 20244 403440244 58007

2010/08/08 05:53
KHAO 080553Z AUTO 00000KT 10SM CLR 17/16 A3000 RMK AO2 SLP154 T01670156 10289 20167 51002

2010/08/08 05:53
KHBR 080553Z AUTO 19009KT 10SM CLR 29/22 A2987 RMK AO2 SLP089 T02890217 10372 20289 403780228 51005

2010/08/08 05:50
KHDE 080550Z AUTO 18005KT 10SM CLR 25/21 A2982 RMK AO2 T02520210 10325 20250 403370205

2010/08/08 05:53
KHEI 080553Z AUTO 35003KT 10SM CLR 19/13 A2978 RMK AO2 SLP063 T01890128 10317 20156 53012

2010/08/08 05:53
KHFD 080553Z AUTO 00000KT 10SM CLR 20/17 A3000 RMK AO2 SLP160 T02000167 10244 20200 51008

2010/08/08 05:53
KHGR 080553Z AUTO 00000KT 10SM SCT090 23/14 A3001 RMK AO2 SLP166 T02280144 10283 20217 51003

2010/08/08 05:53
KHHR 080553Z AUTO 24003KT 10SM SCT013 17/13 A2991 RMK AO2 SLP127 T01720128 10200 20167 51016 $

2010/08/08 05:53
KHIB 080553Z AUTO 10003KT 10SM CLR 18/16 A2971 RMK AO2 SLP057 T01780161 10250 20178 402720083 50001

2010/08/08 05:53
KHIO 080553Z AUTO 00000KT 10SM FEW028 OVC044 18/16 A2992 RMK AO2 RAB23E36 SLP131 P0000 60000 T01830156 10233 20178 51009

2010/08/08 05:50
KHJH 080550Z AUTO 17007KT 10SM CLR 27/22 A2981 RMK AO2 T02660220 10330 20266 403400207

2010/08/08 05:53
KHJO 080553Z AUTO 32009KT 10SM CLR 24/11 A2975 RMK AO2 SLP075 T02440111 10350 20244 51017 $

2010/08/08 05:53
KHKA 080553Z AUTO 00000KT 6SM HZ CLR 24/19 A2992 RMK AO2 SLP128 T02440194 10311 20244 403440206 51004

2010/08/08 05:53
KENW 080553Z AUTO 22008KT 10SM CLR 23/18 A2988 RMK AO2 SLP111 T02280183 10261 20222 402830150 55004

2010/08/08 05:53
KEPH 080553Z AUTO 30015KT 10SM -RA FEW075 OVC100 20/13 A2979 RMK AO2 RAB31 SLP080 P0000 60000 T02000128 10289 20194 53011

2010/08/08 05:53
KEQY 080553Z AUTO 05004KT 7SM CLR 23/21 A2997 RMK AO2 SLP146 T02280211 10283 20228 58004

2010/08/08 05:53
KEVW 080553Z AUTO 21007KT 10SM CLR 13/07 A3012 RMK AO2 SLP103 60000 T01280067 10178 20111 50001

2010/08/08 05:53
KEWB 080553Z AUTO 00000KT 3/4SM R05/P6000FT BR CLR 15/14 A3003 RMK AO2 SLP169 T01500144 10211 20144 51005

2010/08/08 05:53
KEYE 080553Z AUTO 00000KT 6SM BR CLR 21/19 A2998 RMK AO2 SLP145 T02110189 10272 20206 51002

2010/08/08 05:53
KEYW 080553Z AUTO 19004KT 10SM SCT019 SCT033 30/26 A2996 RMK AO2 SLP146 T03000256 10311 20300 58011

2010/08/08 05:53
KFAY 080553Z AUTO 03003KT 8SM CLR 23/21 A2995 RMK AO2 SLP137 T02280206 10294 20228 58002

2010/08/08 05:53
KFCM 080553Z AUTO 21007KT 9SM -RA BKN055 26/22 A2968 RMK AO2 LTG DSNT NE RAB48 SLP043 P0000 60000 T02610217 10306 20261 403110194 58004

2010/08/08 05:53
KFDR 080553Z AUTO 19006KT 10SM 29/21 A2983 RMK AO2 SLP079 T02890211 10378 20283 403830228 50005

2010/08/08 05:53
KFDY 080553Z AUTO 17005KT 10SM CLR 18/16 A2997 RMK AO2 SLP142 T01780156 10244 20178 58002

2010/08/08 05:51
KSUN 080551Z AUTO 33009KT 10SM CLR 17/01 A2995 RMK AO2

2010/08/08 05:53
KSWO 080553Z AUTO 15007KT 10SM CLR 29/23 A2984 RMK AO2 SLP090 T02890233 10356 20283 403780250 51007

2010/08/08 05:50
KSZT 080550Z AUTO 05003KT 10SM SCT110 18/13 A2978 RMK AO2

2010/08/08 05:53
KTCC 080553Z AUTO 21011KT 10SM CLR 25/13 A2997 RMK AO2 SLP073 T02500128 10344 20239 51015

2010/08/08 05:53
KTCL 080553Z AUTO 00000KT 4SM BR BKN060 27/24 A2991 RMK AO2 SLP125 T02670244 10306 20261 403500233 55003

2010/08/08 05:53
KTDZ 080553Z AUTO 19005KT 10SM CLR 19/16 A2997 RMK AO2 SLP142 T01940156 10261 20189 55002

2010/08/08 05:50
KTEX 080550Z AUTO 08003KT 10SM SCT065 BKN075 OVC090 13/12 A3033 RMK AO2

2010/08/08 05:53
KTHV 080553Z AUTO 19006KT 10SM SCT070 BKN095 22/15 A3001 RMK AO2 SLP160 T02220150 10256 20211 51005

2010/08/08 05:53
KTIW 080553Z AUTO 23005KT 10SM FEW012 BKN018 OVC031 16/14 A2992 RMK AO2 SLP131 60000 T01560144 10167 20156 51004

2010/08/08 05:53
KMPO 080553Z AUTO 00000KT 10SM FEW085 14/11 A3006 RMK AO2 SLP170 T01390106 10222 20133 50000 $

2010/08/08 05:53
KMRB 080553Z AUTO 00000KT 10SM CLR 18/15 A3001 RMK AO2 SLP157 T01780150 10261 20172 50004

2010/08/08 05:53
KMSL 080553Z AUTO 00000KT 10SM CLR 23/21 A2993 RMK AO2 SLP128 T02330206 10333 20228 403610222 58004

2010/08/08 05:53
KMSO 080553Z AUTO 00000KT 10SM CLR 18/06 A2985 RMK AO2 SLP089 T01780056 10300 20172 51016

2010/08/08 05:53
KMSP 080553Z 19007KT 9SM SCT055 BKN080 27/22 A2968 RMK AO2 SLP044 CONS LTGIC DSNT W-NW AND N-NE T02720217 10311 20272 403170200 58007

2010/08/08 05:53
KMSS 080553Z AUTO 21005KT 10SM FEW060 14/12 A2993 RMK AO2 SLP135 T01440117 10178 20133 58004

2010/08/08 05:53
KMTH 080553Z AUTO 19003KT 10SM FEW021 29/24 A2996 RMK AO2 LTG DSNT N SLP145 T02940244 10306 20294 58010

2010/08/08 05:53
KMTJ 080553Z AUTO 11003KT 10SM BKN100 BKN120 17/16 A3017 RMK AO2 SLP137 60014 T01670156 10211 20167 58001

2010/08/08 05:53
KMTO 080553Z AUTO 15003KT 7SM CLR 21/18 A2996 RMK AO2 SLP141 T02060183 10267 20200 402890167 51004

2010/08/08 05:53
KMVY 080553Z AUTO 20007KT 10SM CLR 23/19 A3005 RMK AO2 SLP173 T02280189 10228 20172 51005

2010/08/08 05:53
KMWL 080553Z AUTO 15008KT 10SM CLR 28/19 A2986 RMK AO2 SLP095 T02780194 10356 20272 403890228 50010

2010/08/08 05:53
KMYF 080553Z AUTO 25003KT 10SM OVC013 17/13 A2993 RMK AO2 SLP130 T01670128 10200 20161 51016 TSNO

2010/08/08 05:53
KMYV 080553Z AUTO 16008KT 10SM CLR 20/13 A2973 RMK AO2 SLP069 T02000133 10339 20200 51013

2010/08/08 05:53
KOAK 080553Z 26011KT 10SM FEW005 SCT008 SCT011 15/12 A2986 RMK AO2 SLP110 T01500117 10194 20144 50005

2010/08/08 05:53
KODO 080553Z AUTO 17011KT 10SM CLR 29/14 A2997 RMK AO2 SLP090 T02890139 10367 20289 403780244 51017 $

2010/08/08 05:50
KOGA 080550Z AUTO 27004KT 10SM CLR 24/17 A2988 RMK AO2 T02420166 10345 20239

2010/08/08 05:53
KOGB 080553Z AUTO 00000KT 4SM BR CLR 25/24 A2994 RMK AO2 SLP135 T02500239 10294 20244 58005

2010/08/08 05:53
KOGD 080553Z AUTO 16005KT 10SM CLR 21/08 A2994 RMK AO2 SLP073 T02110083 10283 20211 51014

2010/08/08 05:53
KOJC 080553Z AUTO 15006KT 10SM CLR 26/21 A2987 RMK AO2 SLP101 T02560211 10306 20250 403280217 52003

2010/08/08 05:53
KOLF 080553Z AUTO 00000KT 10SM CLR 18/15 A2970 RMK AO2 SLP047 T01830150 10311 20183 51011

2010/08/08 05:53
KOMK 080553Z AUTO 30006KT 10SM CLR 19/11 A2978 RMK AO2 SLP077 T01940111 10256 20194 50006

2010/08/08 05:50
KONL 080550Z AUTO 25004KT 10SM CLR 25/23 A2978 RMK AO2 T02450225 10325 20242 403400195

2010/08/08 05:53
KONO 080553Z AUTO 33012KT 10SM CLR 24/08 A2977 RMK AO2 SLP062 T02440083 10317 20228 51014

2010/08/08 05:53
KONT 080553Z 25007KT 10SM CLR 16/12 A2990 RMK AO2 SLP116 T01610122 10272 20161 51020

2010/08/08 05:53
KRNT 080553Z AUTO 22005KT 8SM -RA FEW013 BKN027 OVC055 17/16 A2990 RMK AO2 RAB42 SLP131 P0000 60014 T01720156 10178 20172 50004

2010/08/08 05:53
KRSL 080553Z AUTO 17011KT 10SM CLR 26/22 A2982 RMK AO2 SLP074 T02610222 10339 20261 403610206 53008 $

2010/08/08 05:50
OAKB 080550Z VRB02KT 6000 SCT030 BKN140 25/19 Q1014 NOSIG RMK WHT WHT

2010/08/08 05:50
EDDF 080550Z 19005KT 9999 VCSH FEW025 FEW040TCU SCT050 BKN090 17/14 Q1016 NOSIG

2010/08/08 05:50
EDDH 080550Z 23001KT 9999 BKN045 BKN120 18/16 Q1014 NOSIG

2010/08/08 05:50
EDDK 080550Z 23003KT 6000 SHRA FEW004 SCT015CB BKN020 17/16 Q1014 TEMPO 3000 +SHRA BKN010CB

2010/08/08 05:50
EDDL 080550Z 24005KT 3000 VCTS SHRA BR FEW005 SCT010 BKN020CB 17/16 Q1014 BECMG 5000 NSW

2010/08/08 05:50
EDDM 080550Z 21005KT CAVOK 13/12 Q1018 NOSIG

2010/08/08 05:50
EDDN 080550Z VRB02KT CAVOK 13/12 Q1017 NOSIG

2010/08/08 05:50
EDDS 080550Z 28005KT 9999 -SHRA FEW040CB BKN060 15/12 Q1018 TEMPO 4000 SHRA

2010/08/08 05:50
EDDW 080550Z 25002KT 9999 FEW038 BKN046 18/17 Q1014 NOSIG

2010/08/08 05:50
EDFE 080550Z 18003KT 9999 VCSH FEW060 BKN080 17/14 Q1015

2010/08/08 05:50
EDFM 080550Z 16005KT 120V200 9999 FEW040 BKN050 16/14 Q1016

2010/08/08 05:50
EDHL 080550Z 25002KT 8000 BKN042 17/17 Q1014

2010/08/08 05:50
EDJA 080550Z VRB03KT CAVOK 14/11 Q1019

2010/08/08 05:50
EDLN 080550Z 29008KT 3000 -RA BR SCT008 BKN035 16/16 Q1015 RERA

2010/08/08 05:50
EDLP 080550Z 13003KT 070V180 CAVOK 16/14 Q1014

2010/08/08 05:50
EDLW 080550Z VRB03KT 5000 -SHRA NSC 17/16 Q1015

2010/08/08 05:50
EDMA 080550Z 16002KT CAVOK 13/12 Q1018

2010/08/08 05:50
EDQM 080550Z AUTO 20006KT 9999NDV FEW140/// 16/11 Q1017

2010/08/08 05:50
EDNY 080550Z VRB02KT 9999 FEW075 13/12 Q1018

2010/08/08 05:50
EDXW 080550Z AUTO 29005KT 3400NDV -DZ FEW002/// SCT010/// 17/15 Q1014

2010/08/08 05:50
EKAH 080550Z AUTO 28005KT 5000NDV FEW220/// 16/15 Q1014

2010/08/08 05:50
EKBI 080550Z 33003KT 7000 BKN090 16/16 Q1015

2010/08/08 05:50
EKCH 080550Z 32008KT 280V340 9999 -RA FEW008 BKN045 19/18 Q1012 TEMPO BKN008

2010/08/08 05:50
EKEB 080550Z AUTO 06003KT 3300NDV BR OVC023/// 17/16 Q1014

2010/08/08 05:50
EKKA 080550Z 33003KT 4500 BR SCT003 BKN160 16/15 Q1014

2010/08/08 05:50
EKRK 080550Z AUTO 31006KT 9999NDV FEW009/// BKN110/// 18/17 Q1012

2010/08/08 05:50
EKRN 080550Z AUTO 30009KT 9000NDV -RA OVC053/// 17/16 Q1011 RERA

2010/08/08 05:50
EKSP 080550Z 29002KT 5000 -RA BR SCT022 BKN030 17/16 Q1014

2010/08/08 05:50
EKVD 080550Z AUTO 30004KT //// ///////// 17/16 Q1014

2010/08/08 05:51
EKVG 080551Z 15007KT 9999 FEW012 SCT028 BKN085 10/08 Q1016 RMK/RWY 13-31 CLOSED DUE WIP NOTAM E0050/10 WIND 850FT 12012KT

2010/08/08 05:50
EKVG 080550Z AUTO 15007KT 9999NDV SCT012/// SCT028/// BKN084/// BKN120/// 10/08 Q1016 RMK SCT010/// BKN027/// BKN084/// BKN160/// WIND 850FT 12012KT

2010/08/08 05:50
EKYT 080550Z 01004KT CAVOK 18/16 Q1014 RMK FEW120 BKN160

2010/08/08 05:54
KRSP 080554Z AUTO VRB04KT 10SM CLR 21/12 A3006 RMK AO2 SLP171 T02060122 10244 20200 50001 $ 

2010/08/08 05:54
KNFG 080554Z AUTO 00000KT OVC015 15/12 A2992 RMK AO2 SLP131 T01500122 10206 20122 51019 TSNO $ 

2010/08/08 05:54
KGSO 080554Z 00000KT 8SM CLR 22/19 A3002 RMK AO2 SLP152 T02220189 10272 20222 58002 

2010/08/08 05:54
KBKB 080554Z AUTO VRB03KT 10SM CLR 27/24 A2989 RMK AO2 SLP147 T02720244 10339 20272 51006 $ 

2010/08/08 05:54
KROA 080554Z 00000KT 9SM FEW080 22/18 A3006 RMK AO2 SLP165 T02170178 10256 20211 58001 $ 

2010/08/08 05:50
EETN 080550Z 13006KT 100V180 5000 BR NSC 25/21 Q1011 NOSIG

2010/08/08 05:50
EFHF 080550Z 09003KT 8000 FEW050 BKN100 26/21 Q1012

2010/08/08 05:50
EFHK 080550Z 06007KT 8000 FEW050CB SCT100 BKN150 26/21 Q1012 NOSIG

2010/08/08 05:50
EFJY 080550Z AUTO 14002KT CAVOK 23/20 Q1013

2010/08/08 05:50
EFKK 080550Z AUTO 02006KT 350V050 CAVOK 20/18 Q1013

2010/08/08 05:50
EFKU 080550Z AUTO 10005KT 060V130 CAVOK 24/20 Q1014

2010/08/08 05:50
EFMA 080550Z AUTO 00000KT CAVOK ///// Q////

2010/08/08 05:50
EFOU 080550Z AUTO 10003KT CAVOK 21/20 Q1015

2010/08/08 05:50
EFPO 080550Z AUTO VRB02KT CAVOK 22/18 Q1011

2010/08/08 05:50
EFRO 080550Z AUTO 05004KT CAVOK 18/16 Q1017

2010/08/08 05:50
EFTP 080550Z 13005KT 100V180 8000 BKN100 23/21 Q1012

2010/08/08 05:50
EFTU 080550Z AUTO 12004KT 100V170 CAVOK 22/20 Q1011

2010/08/08 05:50
EFVA 080550Z AUTO 05006KT 020V090 9999 FEW003 SCT180 ///// Q////

2010/08/08 05:50
ENBO 080550Z 32002KT 0500 FG VV010 11/11 Q1018

2010/08/08 05:50
ENBR 080550Z 20003KT 9999 FEW003 SCT020 BKN030 14/13 Q1016 NOSIG

2010/08/08 05:50
ENCN 080550Z 06003KT CAVOK 16/12 Q1015

2010/08/08 05:50
ENHD 080550Z AUTO 33003KT 6000NDV FEW005/// SCT019/// 14/13 Q1016

2010/08/08 05:50
ENKR 080550Z AUTO 09006KT 9999NDV OVC009/// 17/14 Q1018

2010/08/08 05:50
ENSB 080550Z 29006KT 9999 FEW010 BKN025 08/04 Q1012

2010/08/08 05:50
ENTC 080550Z 22003KT 180V250 9999 BKN009 OVC013 12/10 Q1019

2010/08/08 05:50
ENZV 080550Z 27001KT 9999 SCT027 BKN034 16/14 Q1016 NOSIG

2010/08/08 05:50
EVRA 080550Z 07006KT 9999 FEW045CB BKN090 22/18 Q1011 NOSIG

2010/08/08 05:50
EYVI 080550Z 11006KT CAVOK 23/17 Q1013 NOSIG

2010/08/08 05:50
LXGB 080550Z 10009KT 9999 FEW013 SCT140 BKN250 24/20 Q1017 NOSIG

2010/08/08 05:53
BGTL 080553Z AUTO 13022KT 9999 UP OVC031 04/01 A2990 RMK AO2 PK WND 14028/0523 UPB0553 SLP130 $

2010/08/08 05:51
EGUL 080551Z AUTO 32005KT 9999 BKN014 OVC033 15/14 A3008 RMK AO2 CIG 012V018 SLP187

2010/08/08 05:50
ENAL 080550Z AUTO 00000KT 4200NDV -RA FEW007/// SCT047/// BKN061/// 15/13 Q1016

2010/08/08 05:50
ENAN 080550Z 25005KT 9999 BKN012 12/09 Q1019

2010/08/08 05:50
ENAT 080550Z 06003KT 9999 FEW010 OVC018 15/12 Q1018

2010/08/08 05:50
ENDU 080550Z VRB01KT 0400 FG NSC 10/09 Q1019 BECMG 1200 BCFG

2010/08/08 05:50
ENEK 080550Z 35015KT 9999 SCT007 BKN035 15/14 Q1016 W16/S3

2010/08/08 05:50
ENEV 080550Z AUTO 36003KT 320V050 7000NDV BR BKN001/// BKN004/// OVC011/// 11/10 Q1019

2010/08/08 05:50
ENGC 080550Z 23017KT 0500 FG VV002 13/13 Q1014

2010/08/08 05:50
ENKB 080550Z AUTO 26008KT 9999NDV SCT100/// 15/14 Q1016

2010/08/08 05:50
ENNA 080550Z 36004KT 9999 FEW005 SCT110 15/13 Q1018

2010/08/08 05:50
ENOA 080550Z 26013KT 9999 -DZ SCT008 BKN012 14/12 Q1015

2010/08/08 05:50
ENOL 080550Z 11005KT CAVOK 15/13 Q1015

2010/08/08 05:50
ENRO 080550Z AUTO 00000KT 3600NDV VV001 03/03 Q1017

2010/08/08 05:50
ENRY 080550Z 00000KT CAVOK 15/13 Q1015

2010/08/08 05:50
ENTO 080550Z 01005KT 9999 FEW040 15/12 Q1015

2010/08/08 05:50
ESDF 080550Z AUTO 33004KT 9999NDV OVC008/// 17/15 Q1010

2010/08/08 05:50
ESGG 080550Z 01005KT 9999 SCT002 BKN105 16/15 Q1013

2010/08/08 05:50
ESGJ 080550Z AUTO 35006KT 9999NDV BKN016/// 15/13 Q1012 RERA

2010/08/08 05:50
ESKN 080550Z 04009KT 5000 BR VV003 16/15 Q1011

2010/08/08 05:50
ESMK 080550Z AUTO 32006KT 9999NDV -DZ SCT035/// BKN045/// OVC051/// 17/15 Q1011 RERA

2010/08/08 05:50
ESMS 080550Z 34006KT 9000 -RA BR BKN088 17/16 Q1012

2010/08/08 05:50
ESMX 080550Z AUTO 35007KT 5000NDV RA FEW004/// OVC005/// 15/14 Q1011 REDZ

2010/08/08 05:50
ESNN 080550Z AUTO 32003KT 7000NDV -RA BKN044/// 16/15 Q1014

2010/08/08 05:50
ESNO 080550Z AUTO 01005KT 330V060 9999NDV -RA SCT063/// BKN081/// 16/14 Q1013

2010/08/08 05:50
ESNQ 080550Z 00000KT CAVOK 14/12 Q1018

2010/08/08 05:50
ESNS 080550Z AUTO VRB01KT 9999NDV RA ////// 17/16 Q1016 REDZ

2010/08/08 05:50
ESNU 080550Z 02006KT 350V050 CAVOK 17/14 Q1013

2010/08/08 05:50
ESOK 080550Z AUTO 35003KT 9999NDV SCT100/// 17/16 Q1014

2010/08/08 05:50
ESOW 080550Z AUTO 01008KT 9999NDV OVC035/// 16/14 Q1012

2010/08/08 05:50
ESPA 080550Z AUTO 36003KT 330V040 9999NDV FEW130/// SCT170/// 19/16 Q1016

2010/08/08 05:50
ESSA 080550Z 01008KT 2000 BR OVC002 16/16 Q1011 TEMPO 5000

2010/08/08 05:50
ESSB 080550Z AUTO 01004KT 4600NDV BR OVC001/// 16/16 Q1011

2010/08/08 05:50
ESSP 080550Z AUTO 01006KT 9999NDV OVC006/// 16/15 Q1011

2010/08/08 05:50
ESSV 080550Z 09003KT 060V120 9999 2000NE VCFG BKN002 18/18 Q1009

2010/08/08 05:50
LSGC 080550Z 00000KT 9999 FEW040 BKN075 13/11 Q1020

2010/08/08 05:50
LSGG 080550Z VRB02KT 9999 FEW060 SCT120 15/13 Q1019 NOSIG

2010/08/08 05:50
LSGS 080550Z VRB01KT 9999 -SHRA BKN110 15/10 Q1020

2010/08/08 05:50
LSZA 080550Z 01003KT CAVOK 15/15 Q1018 NOSIG

2010/08/08 05:50
LSZB 080550Z 11005KT 9999 FEW060 SCT120 15/14 Q1019 NOSIG

2010/08/08 05:50
LSZG 080550Z 22002KT 9999 FEW060 SCT100 15/12 Q1019 NOSIG

2010/08/08 05:50
LSZH 080550Z 24002KT 9999 -SHRA FEW040 BKN090 15/13 Q1019 NOSIG

2010/08/08 05:50
LSZS 080550Z 19002KT 9999 OVC070 04/04 Q1023

2010/08/08 05:50
EGLL 080550Z 32004KT 290V010 9999 BKN022 15/13 Q1020 NOSIG

2010/08/08 05:50
EGAA 080550Z 19002KT 9999 FEW010 SCT024 10/10 Q1021

2010/08/08 05:50
EGBB 080550Z 33004KT 8000 SCT017 14/12 Q1020

2010/08/08 05:50
EGCC 080550Z 26003KT 6000 FEW010 BKN030 15/14 Q1020

2010/08/08 05:50
EGFF 080550Z 35004KT 9999 SCT022 SCT028 BKN036 13/11 Q1021

2010/08/08 05:50
EGGD 080550Z 36005KT 320V020 9999 BKN033 14/12 Q1021

2010/08/08 05:50
EGGP 080550Z 27012KT 9999 BKN014 15/12 Q1020

2010/08/08 05:50
EGGW 080550Z 35005KT 300V040 7000 SCT007 BKN012 15/13 Q1019

2010/08/08 05:50
EGHH 080550Z 31004KT 9999 BKN037 13/12 Q1020

2010/08/08 05:50
EGHI 080550Z 31003KT 280V340 9999 FEW022 SCT035 14/11 Q1020

2010/08/08 05:50
EGJB 080550Z 35005KT 9999 FEW005 15/14 Q1021

2010/08/08 05:50
EGJJ 080550Z 00000KT 9999 FEW008 15/15 Q1021 NOSIG

2010/08/08 05:50
EGKK 080550Z 33006KT 9999 BKN019 15/13 Q1019

2010/08/08 05:50
EGLL 080550Z 32004KT 290V010 9999 BKN022 15/13 Q1020

2010/08/08 05:50
EGMC 080550Z 33006KT 9999 FEW009 BKN012 16/14 Q1018

2010/08/08 05:50
EGNM 080550Z 00000KT CAVOK 13/10 Q1020

2010/08/08 05:50
EGNT 080550Z 00000KT 9999 BKN045 13/11 Q1020

2010/08/08 05:50
EGNV 080550Z 31005KT 9999 FEW015 SCT045 13/12 Q1020

2010/08/08 05:50
EGNX 080550Z 32005KT CAVOK 14/11 Q1020

2010/08/08 05:50
EGPB 080550Z AUTO 29007KT 9999NDV OVC018/// 12/09 Q1018

2010/08/08 05:50
EGPD 080550Z VRB03KT 9999 BKN040 12/10 Q1019 NOSIG

2010/08/08 05:50
EGPF 080550Z 25005KT 9999 SCT016 BKN024 12/10 Q1020

2010/08/08 05:50
EGPK 080550Z VRB02KT 9999 FEW015 10/09 Q1020

2010/08/08 05:50
EGTE 080550Z 03002KT CAVOK 11/11 Q1021

2010/08/08 05:50
EGAC 080550Z 18003KT 9999 FEW012 SCT024 13/10 Q1021

2010/08/08 05:50
EGGP 080550Z 27012KT 9999 BKN014 15/12 Q1020

2010/08/08 05:50
EGGW 080550Z 35005KT 300V040 7000 SCT007 BKN012 15/13 Q1019

2010/08/08 05:50
EGLC 080550Z AUTO VRB02KT 9999 SCT009/// OVC024/// 15/13 Q1019

2010/08/08 05:50
EGNT 080550Z 00000KT 9999 BKN045 13/11 Q1020

2010/08/08 05:50
EGPF 080550Z 25005KT 9999 SCT016 BKN024 12/10 Q1020

2010/08/08 05:50
EGSS 080550Z 34007KT 6000 BKN005 15/14 Q1019

2010/08/08 05:50
EFJO 080550Z AUTO 16007KT 130V200 8000 SKC 25/21 Q1016

2010/08/08 05:50
EFLP 080550Z AUTO 12006KT 090V170 8000 SKC 26/18 Q1015

2010/08/08 05:50
EFMI 080550Z AUTO 14007KT 090V180 8000 SKC 26/21 Q1014

2010/08/08 05:50
EFSA 080550Z AUTO 16006KT 130V200 8000NDV NCD 26/19 Q1015

2010/08/08 05:50
EFUT 080550Z AUTO 13006KT CAVOK 26/20 Q1014

2010/08/08 05:50
EFVR 080550Z AUTO 13005KT 8000 SKC 25/21 Q1015

2010/08/08 05:50
LOXZ 080550Z VRB02KT 0800 FG FEW120AC 10/10 Q1020 BECMG 9999 RMK FEW

2010/08/08 05:50
EBAW 080550Z 25006KT 4500 BR BKN005 BKN040 16/14 Q1016 TEMPO SHRA

2010/08/08 05:50
EBBR 080550Z 25006KT 6000 SCT005 BKN006 15/14 Q1016 TEMPO 4500 BR

2010/08/08 05:50
EBCI 080550Z 25006KT 2800 BR SCT003 BKN004 14/12 Q1017 TEMPO -SHRA

2010/08/08 05:50
EBLG 080550Z 26007KT 9999 SCT005 SCT044 14/13 Q1016 TEMPO BKN005

2010/08/08 05:50
EBOS 080550Z 33010KT 9999 FEW010 SCT013 18/14 Q1017 NOSIG

2010/08/08 05:50
ELLX 080550Z 27007KT 230V300 9999 FEW006 14/12 Q1017 NOSIG

2010/08/08 05:50
LOWW 080550Z 29011KT 9999 -SHRA FEW033 BKN065 17/13 Q1017 NOSIG

2010/08/08 05:50
LOWL 080550Z 26003KT 8000 VCFG FEW008 SCT280 14/13 Q1018 NOSIG

2010/08/08 05:50
LOWS 080550Z 15010KT 9999 FEW010 14/11 Q1019 NOSIG

2010/08/08 05:50
LOWI 080550Z 00000KT 9999 FEW007 SCT011 BKN070 12/11 Q1021 TEMPO BKN012

2010/08/08 05:50
LOWG 080550Z VRB01KT 0400 R17/0400N R35/0800V1500D BCFG BKN002 14/14 Q1019 BECMG TL0730 9999 NSW

2010/08/08 05:50
LOWK 080550Z VRB01KT 8000 SCT006 OVC008 14/13 Q1020 NOSIG

2010/08/08 05:50
EGCN 080550Z 31008KT CAVOK 13/12 Q1021

2010/08/08 05:50
EGDL 080550Z 34005KT 9999 SCT016 OVC032 13/12 Q1021 NOSIG

2010/08/08 05:50
EGSH 080550Z 33006KT 300V360 9999 BKN006 16/14 Q1018

2010/08/08 05:50
EGVN 080550Z 31005KT 9999 FEW012 BKN018 14/13 Q1020 NOSIG

2010/08/08 06:00
FNLU 080600Z 00000KT 3000 BR BKN022 OVC028 20/19 Q1015 NSG

2010/08/08 05:50
EGJA 080550Z 35008KT 9999 BKN040 15/14 Q1021

2010/08/08 05:50
EDAH 080550Z 26004KT 230V290 6000 RA OVC013 16/15 Q1013

2010/08/08 05:50
EDGS 080550Z 20008KT 6000 -RA BKN045 13/13 Q1016

2010/08/08 05:50
EDHL 080550Z 25002KT 8000 BKN042 17/17 Q1014

2010/08/08 05:50
EDJA 080550Z VRB03KT CAVOK 14/11 Q1019

2010/08/08 05:50
EDLN 080550Z 29008KT 3000 -RA BR SCT008 BKN035 16/16 Q1015 RERA

2010/08/08 05:50
EDLP 080550Z 13003KT 070V180 CAVOK 16/14 Q1014

2010/08/08 05:50
EDLW 080550Z VRB03KT 5000 -SHRA NSC 17/16 Q1015

2010/08/08 05:50
EDMA 080550Z 16002KT CAVOK 13/12 Q1018

2010/08/08 05:50
EDNY 080550Z VRB02KT 9999 FEW075 13/12 Q1018

2010/08/08 05:50
EDQM 080550Z AUTO 20006KT 9999NDV FEW140/// 16/11 Q1017

2010/08/08 05:50
EDSB 080550Z VRB03G32KT 9999 VCSH FEW017 SCT032 BKN066 16/15 Q1017

2010/08/08 05:50
EDXW 080550Z AUTO 29005KT 3400NDV -DZ FEW002/// SCT010/// 17/15 Q1014

2010/08/08 05:48
K4O4 080548Z AUTO 16004KT 7SM SCT090 BKN110 27/23 A2989 RMK AO2 LTG DSNT E AND NW

2010/08/08 05:55
KBAD 080555Z AUTO 17005KT 10SM CLR 27/24 A2990 RMK AO2 SLP124 T02690241 10312 20269 403590239 51012

2010/08/08 05:55
KBLV 080555Z AUTO 00000KT 10SM R14R/5500VP6000FT CLR 22/19 A2994 RMK AO2 SLP136 T02160191 10289 20216 403060182 51005

2010/08/08 05:55
KCEF 080555Z AUTO 00000KT 10SM CLR 13/12 A3001 RMK AO2 SLP164 T01310117 10218 20131 52003

2010/08/08 05:55
KDAA 080555Z AUTO 00000KT 10SM CLR 17/16 A3000 RMK AO2 SLP159 T01730157 10244 20172 50004

2010/08/08 05:55
KEDW 080555Z AUTO 21010KT 10SM CLR 21/06 A2985 RMK AO2 SLP063 T02130058 10325 20213 51015

2010/08/08 05:55
KGRF 080555Z AUTO 17005KT 10SM BKN060 16/14 A2992 RMK AO2 SLP133 60009 T01570144 10179 20157 53005

2010/08/08 05:55
KGSB 080555Z AUTO 00000KT 7SM R08/5000V5500FT SCT025 23/23 A2995 RMK AO2 SLP142 60113 T02290229 10290 20227 58001

2010/08/08 05:55
KGUS 080555Z AUTO 17005KT 10SM CLR 20/19 A2996 RMK AO2 SLP142 T01960194 10258 20196 50000

2010/08/08 05:55
KHMN 080555Z AUTO 15007KT 10SM SCT100 28/12 A3000 RMK AO2 SLP064 T02760122 10353 20267 51021 $

2010/08/08 05:55
KHST 080555Z AUTO 00000KT 10SM CLR 27/25 A2997 RMK AO2 SLP150 60000 T02690246 10287 20266 58007

2010/08/08 05:55
KIAB 080555Z AUTO 15008KT 10SM OVC230 28/22 A2986 RMK AO2 SLP095 T02760220 10331 20276 403600228 53006 $

2010/08/08 05:55
KLRF 080555Z AUTO 00000KT 10SM CLR 26/25 A2991 RMK AO2 SLP126 T02640248 10304 20263 403360237 51005

2010/08/08 05:55
KMGE 080555Z AUTO 00000KT 10SM CLR 25/22 A2998 RMK AO2 SLP139 T02500224 10305 20249 57005 VISNO RWY11 CHINO RWY11 $

2010/08/08 05:55
KMMT 080555Z AUTO 00000KT 5SM R32/4000V5000FT BR CLR 24/23 A2994 RMK AO2 SLP138 T02380230 10286 20238 58003

2010/08/08 05:55
KSVN 080555Z AUTO 00000KT 2 1/4SM 24/24 A2992 RMK AO2 SLP131 58008

2010/08/08 05:54
KCOU 080554Z AUTO 13005KT 10SM CLR 23/21 A2991 RMK AO2 SLP120 T02280211 10289 20228 403060189 50004 TSNO 

2010/08/08 05:54
KMTP 080554Z AUTO VRB03KT 22/19 A3004 RMK AO2 SLP172 T0270194 10222 20211 52005 PWINO TSNO 

2010/08/08 05:54
KACY 080554Z 16003KT 10SM CLR 22/20 A3003 RMK AO2 SLP166 T02220200 10256 20222 50003 

2010/08/08 05:55
CYUS 080555Z AUTO ///// 9SM CLR 09/ A2985

2010/08/08 05:50
EGAA 080550Z 19002KT 9999 FEW010 SCT024 10/10 Q1021

2010/08/08 05:50
EGAC 080550Z 18003KT 9999 FEW012 SCT024 13/10 Q1021

2010/08/08 05:50
EGBB 080550Z 33004KT 8000 SCT017 14/12 Q1020

2010/08/08 05:50
EGCC 080550Z 26003KT 6000 FEW010 BKN030 15/14 Q1020

2010/08/08 05:50
EGDL 080550Z 34005KT 9999 SCT016 OVC032 13/12 Q1021 NOSIG

2010/08/08 05:50
EGFF 080550Z 35004KT 9999 SCT022 SCT028 BKN036 13/11 Q1021

2010/08/08 05:50
EGGD 080550Z 36005KT 320V020 9999 BKN033 14/12 Q1021

2010/08/08 05:50
EGGP 080550Z 27012KT 9999 BKN014 15/12 Q1020

2010/08/08 05:50
EGGW 080550Z 35005KT 300V040 7000 SCT007 BKN012 15/13 Q1019

2010/08/08 05:50
EGHH 080550Z 31004KT 9999 BKN037 13/12 Q1020

2010/08/08 05:50
EGHI 080550Z 31003KT 280V340 9999 FEW022 SCT035 14/11 Q1020

2010/08/08 05:50
EGJB 080550Z 35005KT 9999 FEW005 15/14 Q1021

2010/08/08 05:50
EGJJ 080550Z 00000KT 9999 FEW008 15/15 Q1021 NOSIG

2010/08/08 05:50
EGKK 080550Z 33006KT 9999 BKN019 15/13 Q1019

2010/08/08 05:50
EGLC 080550Z AUTO VRB02KT 9999 SCT009/// OVC024/// 15/13 Q1019

2010/08/08 05:50
EGLL 080550Z 32004KT 290V010 9999 BKN022 15/13 Q1020

2010/08/08 05:50
EGMC 080550Z 33006KT 9999 FEW009 BKN012 16/14 Q1018

2010/08/08 05:50
EGNM 080550Z 00000KT CAVOK 13/10 Q1020

2010/08/08 05:50
EGNT 080550Z 00000KT 9999 BKN045 13/11 Q1020

2010/08/08 05:50
EGNV 080550Z 31005KT 9999 FEW015 SCT045 13/12 Q1020

2010/08/08 05:50
EGNX 080550Z 32005KT CAVOK 14/11 Q1020

2010/08/08 05:50
EGPB 080550Z AUTO 29007KT 9999NDV OVC018/// 12/09 Q1018

2010/08/08 05:50
EGPD 080550Z VRB03KT 9999 BKN040 12/10 Q1019 NOSIG

2010/08/08 05:50
EGPF 080550Z 25005KT 9999 SCT016 BKN024 12/10 Q1020

2010/08/08 05:50
EGPK 080550Z VRB02KT 9999 FEW015 10/09 Q1020

2010/08/08 05:50
EGSH 080550Z 33006KT 300V360 9999 BKN006 16/14 Q1018

2010/08/08 05:50
EGSS 080550Z 34007KT 6000 BKN005 15/14 Q1019

2010/08/08 05:50
EGTE 080550Z 03002KT CAVOK 11/11 Q1021

2010/08/08 05:50
EGVN 080550Z 31005KT 9999 FEW012 BKN018 14/13 Q1020 NOSIG

2010/08/08 05:50
EBBR 080550Z 25006KT 6000 SCT005 BKN006 15/14 Q1016 TEMPO 4500 BR

2010/08/08 05:50
EDAH 080550Z 26004KT 230V290 6000 RA OVC013 16/15 Q1013

2010/08/08 05:50
EDHL 080550Z 25002KT 8000 BKN042 17/17 Q1014

2010/08/08 05:50
EDLN 080550Z 29008KT 3000 -RA BR SCT008 BKN035 16/16 Q1015 RERA

2010/08/08 05:50
EDLP 080550Z 13003KT 070V180 CAVOK 16/14 Q1014

2010/08/08 05:50
EDLW 080550Z VRB03KT 5000 -SHRA NSC 17/16 Q1015

2010/08/08 05:50
EDMA 080550Z 16002KT CAVOK 13/12 Q1018

2010/08/08 05:50
EDNY 080550Z VRB02KT 9999 FEW075 13/12 Q1018

2010/08/08 05:50
EDQM 080550Z AUTO 20006KT 9999NDV FEW140/// 16/11 Q1017

2010/08/08 05:50
EDSB 080550Z VRB03G32KT 9999 VCSH FEW017 SCT032 BKN066 16/15 Q1017

2010/08/08 05:50
EDTL 080550Z 14003KT 9999 FEW035 FEW045CB SCT090 18/14 Q1016

2010/08/08 05:50
EDXW 080550Z AUTO 29005KT 3400NDV -DZ FEW002/// SCT010/// 17/15 Q1014

2010/08/08 05:50
EGGW 080550Z 35005KT 300V040 7000 SCT007 BKN012 15/13 Q1019

2010/08/08 05:50
EGNM 080550Z 00000KT CAVOK 13/10 Q1020

2010/08/08 05:50
EGPD 080550Z VRB03KT 9999 BKN040 12/10 Q1019 NOSIG

2010/08/08 05:55
EHEH 080555Z AUTO 25003KT 5000NDV BR BKN006 OVC007 15/15 Q1015 YLO

2010/08/08 05:50
EKAH 080550Z AUTO 28005KT 5000NDV FEW220/// 16/15 Q1014

2010/08/08 05:50
EKBI 080550Z 33003KT 7000 BKN090 16/16 Q1015

2010/08/08 05:50
EKCH 080550Z 32008KT 280V340 9999 -RA FEW008 BKN045 19/18 Q1012 TEMPO BKN008

2010/08/08 05:50
EKEB 080550Z AUTO 06003KT 3300NDV BR OVC023/// 17/16 Q1014

2010/08/08 05:50
EKRK 080550Z AUTO 31006KT 9999NDV FEW009/// BKN110/// 18/17 Q1012

2010/08/08 05:50
EKRN 080550Z AUTO 30009KT 9000NDV -RA OVC053/// 17/16 Q1011 RERA

2010/08/08 05:50
EKYT 080550Z 01004KT CAVOK 18/16 Q1014 RMK FEW120 BKN160

2010/08/08 06:00
GVAC 080600Z 02003KT 9999 BKN016 25/20 Q1013 NOSIG

2010/08/08 05:50
EBBR 080550Z 25006KT 6000 SCT005 BKN006 15/14 Q1016 TEMPO 4500 BR

2010/08/08 05:50
EDAH 080550Z 26004KT 230V290 6000 RA OVC013 16/15 Q1013

2010/08/08 05:50
EDHL 080550Z 25002KT 8000 BKN042 17/17 Q1014

2010/08/08 05:50
EDLN 080550Z 29008KT 3000 -RA BR SCT008 BKN035 16/16 Q1015 RERA

2010/08/08 05:50
EDLP 080550Z 13003KT 070V180 CAVOK 16/14 Q1014

2010/08/08 05:50
EDLW 080550Z VRB03KT 5000 -SHRA NSC 17/16 Q1015

2010/08/08 05:50
EDMA 080550Z 16002KT CAVOK 13/12 Q1018

2010/08/08 05:50
EDNY 080550Z VRB02KT 9999 FEW075 13/12 Q1018

2010/08/08 05:50
EDOP 080550Z 27003KT CAVOK 16/13 Q1014

2010/08/08 05:50
EDQM 080550Z AUTO 20006KT 9999NDV FEW140/// 16/11 Q1017

2010/08/08 05:50
EDSB 080550Z VRB03G32KT 9999 VCSH FEW017 SCT032 BKN066 16/15 Q1017

2010/08/08 05:50
EDTL 080550Z 14003KT 9999 FEW035 FEW045CB SCT090 18/14 Q1016

2010/08/08 05:50
EDXW 080550Z AUTO 29005KT 3400NDV -DZ FEW002/// SCT010/// 17/15 Q1014

2010/08/08 05:50
EGJJ 080550Z 00000KT 9999 FEW008 15/15 Q1021 NOSIG

2010/08/08 05:55
EHEH 080555Z AUTO 25003KT 5000NDV BR BKN006 OVC007 15/15 Q1015 YLO

2010/08/08 05:50
EKAH 080550Z AUTO 28005KT 5000NDV FEW220/// 16/15 Q1014

2010/08/08 05:50
EKBI 080550Z 33003KT 7000 BKN090 16/16 Q1015

2010/08/08 05:50
EKCH 080550Z 32008KT 280V340 9999 -RA FEW008 BKN045 19/18 Q1012 TEMPO BKN008

2010/08/08 05:50
EKEB 080550Z AUTO 06003KT 3300NDV BR OVC023/// 17/16 Q1014

2010/08/08 05:50
EKKA 080550Z 33003KT 4500 BR SCT003 BKN160 16/15 Q1014

2010/08/08 05:50
EKRK 080550Z AUTO 31006KT 9999NDV FEW009/// BKN110/// 18/17 Q1012

2010/08/08 05:50
EKRN 080550Z AUTO 30009KT 9000NDV -RA OVC053/// 17/16 Q1011 RERA

2010/08/08 05:50
EKSP 080550Z 29002KT 5000 -RA BR SCT022 BKN030 17/16 Q1014

2010/08/08 05:50
EKVD 080550Z AUTO 30004KT //// ///////// 17/16 Q1014

2010/08/08 05:50
EKYT 080550Z 01004KT CAVOK 18/16 Q1014 RMK FEW120 BKN160

2010/08/08 05:50
EBAW 080550Z 25006KT 4500 BR BKN005 BKN040 16/14 Q1016 TEMPO SHRA

2010/08/08 05:50
EBCI 080550Z 25006KT 2800 BR SCT003 BKN004 14/12 Q1017 TEMPO -SHRA

2010/08/08 05:50
EBLG 080550Z 26007KT 9999 SCT005 SCT044 14/13 Q1016 TEMPO BKN005

2010/08/08 05:50
EBOS 080550Z 33010KT 9999 FEW010 SCT013 18/14 Q1017 NOSIG

2010/08/08 05:50
EDFH 080550Z 24004KT 210V290 9999 FEW001 15/13 Q1016

2010/08/08 05:50
EDOP 080550Z 27003KT CAVOK 16/13 Q1014

2010/08/08 05:50
EGDL 080550Z 34005KT 9999 SCT016 OVC032 13/12 Q1021 NOSIG

2010/08/08 05:50
EGSH 080550Z 33006KT 300V360 9999 BKN006 16/14 Q1018

2010/08/08 05:50
EGVN 080550Z 31005KT 9999 FEW012 BKN018 14/13 Q1020 NOSIG

2010/08/08 05:50
ELLX 080550Z 27007KT 230V300 9999 FEW006 14/12 Q1017 NOSIG

2010/08/08 05:50
ENAT 080550Z 06003KT 9999 FEW010 OVC018 15/12 Q1018

2010/08/08 05:50
ENEV 080550Z AUTO 36003KT 320V050 7000NDV BR BKN001/// BKN004/// OVC011/// 11/10 Q1019

2010/08/08 05:50
ENHD 080550Z AUTO 33003KT 6000NDV FEW005/// SCT019/// 14/13 Q1016

2010/08/08 05:50
ENHE 080550Z 05018KT 9999 BKN006 12/12 Q1018

2010/08/08 05:50
ENKB 080550Z AUTO 26008KT 9999NDV SCT100/// 15/14 Q1016

2010/08/08 05:50
ENKR 080550Z AUTO 09006KT 9999NDV OVC009/// 17/14 Q1018

2010/08/08 05:50
ENNA 080550Z 36004KT 9999 FEW005 SCT110 15/13 Q1018

2010/08/08 05:50
ENRY 080550Z 00000KT CAVOK 15/13 Q1015

2010/08/08 05:50
ENSB 080550Z 29006KT 9999 FEW010 BKN025 08/04 Q1012

2010/08/08 05:50
LOWG 080550Z VRB01KT 0400 R17/0400N R35/0800V1500D BCFG BKN002 14/14 Q1019 BECMG TL0730 9999 NSW

2010/08/08 05:50
LOWI 080550Z 00000KT 9999 FEW007 SCT011 BKN070 12/11 Q1021 TEMPO BKN012

2010/08/08 05:50
LOWK 080550Z VRB01KT 8000 SCT006 OVC008 14/13 Q1020 NOSIG

2010/08/08 05:50
LOWL 080550Z 26003KT 8000 VCFG FEW008 SCT280 14/13 Q1018 NOSIG

2010/08/08 05:50
LOWS 080550Z 15010KT 9999 FEW010 14/11 Q1019 NOSIG

2010/08/08 05:50
LOWW 080550Z 29011KT 9999 -SHRA FEW033 BKN065 17/13 Q1017 NOSIG

2010/08/08 05:55
KBAD 080555Z AUTO 17005KT 10SM CLR 27/24 A2990 RMK AO2 SLP124 T02690241 10312 20269 403590239 51012

2010/08/08 05:53
KBAF 080553Z 00000KT 10SM CLR 13/12 A3002 RMK AO2 SLP163 T01280117 10228 20128 52003

2010/08/08 05:55
KCBM 080555Z AUTO 00000KT 10SM CLR 25/25 A2990 RMK AO2 SLP125 60000 T02540249 10289 20252 403360242 58003 $

2010/08/08 05:55
KDAA 080555Z AUTO 00000KT 10SM CLR 17/16 A3000 RMK AO2 SLP159 T01730157 10244 20172 50004

2010/08/08 05:53
KDTS 080553Z AUTO 00000KT 10SM CLR 27/23 A2989 RMK AO2 TSB0456E11 SLP121 T02720233 10300 20267 403390267 58005

2010/08/08 05:55
KEDW 080555Z AUTO 21010KT 10SM CLR 21/06 A2985 RMK AO2 SLP063 T02130058 10325 20213 51015

2010/08/08 05:55
KGRF 080555Z AUTO 17005KT 10SM BKN060 16/14 A2992 RMK AO2 SLP133 60009 T01570144 10179 20157 53005

2010/08/08 05:55
KGSB 080555Z AUTO 00000KT 7SM R08/5000V5500FT SCT025 23/23 A2995 RMK AO2 SLP142 60113 T02290229 10290 20227 58001

2010/08/08 05:55
KLSF 080555Z AUTO 11003KT 7SM R33/5000V5500FT CLR 24/23 A2993 RMK AO2 SLP134 T02410231 10318 20241 56004 PNO $

2010/08/08 05:55
KOFF 080555Z AUTO 16009KT 10SM CLR 26/23 A2979 RMK AO2 SLP070 T02620233 10315 20262 52003 $

2010/08/08 05:55
KRIV 080555Z AUTO 00000KT 10SM CLR 15/10 A2991 RMK AO2 SLP126 T01540101 10288 20154 51019

2010/08/08 05:53
KTOI 080553Z AUTO 00000KT 6SM BR SCT002 24/23 A2994 RMK AO2 SLP131 60055 T02440233 10283 20233 403560233 53000

2010/08/08 05:50
OAMS 080550Z 26012KT 9999 FEW150 38/02 Q1005 BLU/BLU/

2010/08/08 05:53
TIST 080553Z AUTO 08008KT 10SM BKN095 28/23 A2994 RMK AO2 SLP139 T02830233 10289 20283 58015 TSNO $

2010/08/08 05:53
TISX 080553Z AUTO 10008KT 9SM -RA SCT025 BKN033 27/23 A2994 RMK AO2 RAB46 SLP138 P0000 60000 T02720233 10283 20272 58014 TSNO $

2010/08/08 06:00
LWOH 080600Z 00000KT CAVOK 18/14 Q1017

2010/08/08 05:55
ETAD 080555Z AUTO 23007KT 9999 OVC002 15/15 A3001 RMK AO2 SLP152 60014 T01510149 10180 20147 53003 $

2010/08/08 05:55
KAFF 080555Z AUTO 23008KT 10SM SCT095 18/13 A3014 RMK AO2 SLP067 60004 T01840129 10261 20168 51013

2010/08/08 05:55
KBIX 080555Z AUTO 00000KT 10SM CLR 29/26 A2991 RMK AO2 SLP129 60007 T02870258 10323 20287 403500266 50006 $

2010/08/08 05:55
KDYS 080555Z AUTO 17010KT 10SM CLR 27/20 A2991 RMK AO2 SLP099 T02730196 10351 20268 403730223 51012 $

2010/08/08 05:55
KFBG 080555Z 11003KT 10SM CLR 24/22 A2996 RMK AO2A SLP144 60000 T02420221 10290 20240 57001 $

2010/08/08 05:55
KFFO 080555Z 00000KT 10SM CLR 19/17 A3000 RMK AO2A SLP155 10260 20183 50000

2010/08/08 05:55
KMTC 080555Z AUTO 21006KT 10SM BKN100 21/17 A2993 RMK AO2 SLP138 T02100170 10242 20197 53001 $

2010/08/08 05:55
KMUI 080555Z AUTO 00000KT 10SM CLR 19/17 A3001 RMK AO2 SLP162 T01870171 10223 20187 53003 $

2010/08/08 05:55
KMXF 080555Z AUTO 15003KT 10SM CLR 26/24 A2991 RMK AO2 SLP128 60008 T02620238 10337 20259 403560250 55005

2010/08/08 05:55
KOZR 080555Z AUTO 00000KT 10SM SCT230 24/24 A2992 RMK AO2 SLP129 T02430243 10256 20242 403340242 56009

2010/08/08 05:55
KRND 080555Z AUTO 17007KT 10SM CLR 26/23 A2993 RMK AO2 SLP125 T02650230 10344 20265 403620250 51017

2010/08/08 05:55
KSKF 080555Z AUTO 15009KT 10SM CLR 28/ A2992 RMK AO2 SLP121 T0277 10353 20277 403700241 51017 $

2010/08/08 06:00
LQBK 080600Z 17004KT CAVOK 18/15 Q1018 NOSIG

2010/08/08 05:53
PABI 080553Z AUTO 28006KT 10SM OVC050 16/10 A2971 RMK AO2 SLP061 T01560100 10194 20156 53010 TSNO $

2010/08/08 05:53
PASC 080553Z 07018G26KT 10SM OVC005 04/03 A2976 RMK AO2 PK WND 06029/0503 SLP077 60000 T00390028 10061 20039 51008

2010/08/08 05:55
KBAD 080555Z AUTO 17005KT 10SM CLR 27/24 A2990 RMK AO2 SLP124 T02690241 10312 20269 403590239 51012

2010/08/08 05:55
KBIX 080555Z AUTO 00000KT 10SM CLR 29/26 A2991 RMK AO2 SLP129 60007 T02870258 10323 20287 403500266 50006 $

2010/08/08 05:53
KBRO 080553Z 16005KT 10SM FEW021 28/26 A2991 RMK AO2 SLP128 T02780256 10317 20272 403610261 50009 $

2010/08/08 05:55
KDOV 080555Z AUTO 17004KT 10SM CLR 22/22 A2999 RMK AO2 SLP158 T02190216 10250 20219 51003

2010/08/08 05:53
KFLL 080553Z 00000KT 10SM SCT047 28/25 A2996 RMK AO2 SLP144 6//// T02780250 10283 20261 58007 PNO $

2010/08/08 05:55
KGSB 080555Z AUTO 00000KT 7SM R08/5000V5500FT SCT025 23/23 A2995 RMK AO2 SLP142 60113 T02290229 10290 20227 58001

2010/08/08 05:55
KHST 080555Z AUTO 00000KT 10SM CLR 27/25 A2997 RMK AO2 SLP150 60000 T02690246 10287 20266 58007

2010/08/08 05:51
KJFK 080551Z COR 22008KT 10SM SCT100 23/20 A3002 RMK AO2 SLP164 T02280200 10250 20228 51005

2010/08/08 05:51
KJFK 080551Z 22008KT 10SM SCT200 23/20 A3002 RMK AO2 SLP164 T02280200 10250 20228 51005

2010/08/08 05:53
KMCO 080553Z 23004KT 10SM FEW030 FEW100 SCT180 OVC200 27/24 A2994 RMK AO2 SLP137 T02670239 10272 20267 58008

2010/08/08 05:55
KOFF 080555Z AUTO 16009KT 10SM CLR 26/23 A2979 RMK AO2 SLP070 T02620233 10315 20262 52003 $

2010/08/08 05:53
KPBI 080553Z 21004KT 10SM FEW039 SCT100 27/24 A2995 RMK AO2 SLP140 T02740237 10289 20272 58014 $

2010/08/08 06:00
SPIM 080600Z 17006KT 7000 SCT010 OVC015 14/12 Q1015 NOSIG RMK PP000

2010/08/08 05:53
TIST 080553Z AUTO 08008KT 10SM BKN095 28/23 A2994 RMK AO2 SLP139 T02830233 10289 20283 58015 TSNO $

2010/08/08 05:53
TISX 080553Z AUTO 10008KT 9SM -RA SCT025 BKN033 27/23 A2994 RMK AO2 RAB46 SLP138 P0000 60000 T02720233 10283 20272 58014 TSNO $

2010/08/08 05:55
KQDD 080555Z AUTO VRB02KT 9999 CLR 27/13 A2997 RMK AO2 SLP147

2010/08/08 05:55
KQGX 080555Z 13015KT 9000 HZ SCT250 40/14 A2950 RMK AO2A SLP990 58004 $

2010/08/08 05:55
KQHY 080555Z AUTO 08001KT 11SM BKN120 26/24 A2994 RMK AO2 LTG DSNT SE SLP136 60002 T02550237 10263 20253 58002

2010/08/08 05:55
KQLD 080555Z AUTO VRB01KT 9999 BKN130 BKN150 21/15 A3021 RMK AO2 SLP119 T02130147 10208 20154 52004

2010/08/08 05:55
KQMG 080555Z AUTO 17006KT 10SM SCT110 BKN130 BKN140 27/13 A3005 RMK AO2 SLP084 T02700132 10355 20320 51026

2010/08/08 05:55
KQON 080555Z AUTO 33009KT 7000 BKN190 38/04 A2968 RMK AO2 SLP031 T03820040 10358 20312 53003

2010/08/08 05:55
KQRH 080555Z AUTO 05004KT 9999 CLR 35/22 A2967 RMK AO2 SLP045

2010/08/08 05:55
KQTO 080555Z 33015G20KT 6000 BLDU FEW000 SCT160 40/03 A2958 RMK DU FEW000 SLP014 53002

2010/08/08 05:55
KQTU 080555Z 32012G16KT 9999 FEW120 37/01 A2968 RMK SLP030 52005

2010/08/08 05:55
KQTZ 080555Z 36013G28KT 2400 DU HZ FEW000 FEW200 41/02 A2958 RMK PK WND 36028/51 DU FEW000 SLP010 QNH1001MB WND DATA ESTMD ALSTG/SLP ESTMD 50002

2010/08/08 05:50
NSTU 080550Z 09018KT 10SM SCT018 BKN040 27/25 A2993 RMK SLP137 60001 8/800 T02680246 10283 20261 51008

2010/08/08 05:54
PGSN 080554Z 09016KT 10SM SCT020 31/26 A2980 RMK AO2 SLP086 VCSH SE 60000 T03060256 10311 20294 56013 $

2010/08/08 05:53
PHJR 080553Z 06004KT 10SM CLR 26/19 A3007 RMK AO2 SLP190 T02610189 10317 20261 53014

2010/08/08 05:53
PHKO 080553Z 21005KT 10SM OVC060 26/21 A3003 RMK AO2 SLP169 T02560211 10278 20256 53013

2010/08/08 05:54
PHMK 080554Z AUTO 07007G18KT 10SM CLR 24/21 A3008 RMK AO2 SLP188 60000 T02390206 10289 20239 53016 TSNO

2010/08/08 05:53
PHNL 080553Z 05008KT 10SM FEW028 SCT045 27/19 A3006 RMK AO2 SLP179 T02670194 10317 20267 53012

2010/08/08 05:54
PHOG 080554Z 05012KT 10SM FEW049 SCT060 26/19 A3006 RMK AO2 SLP183 60000 T02560189 10322 20256 53020

2010/08/08 05:53
PHTO 080553Z 09006KT 10SM OVC065 23/21 A3008 RMK AO2 SLP185 T02330206 10283 20233 53017

2010/08/08 05:51
PTKK 080551Z VRB05KT 15SM -SHRA SCT014CB BKN120 OVC280 30/25 A2973 RMK SHRAB45 CB ALQDS SLP071 60000 8/371 T03040248 10322 20300 57007

2010/08/08 05:55
KAFF 080555Z AUTO 23008KT 10SM SCT095 18/13 A3014 RMK AO2 SLP067 60004 T01840129 10261 20168 51013

2010/08/08 05:55
KBIX 080555Z AUTO 00000KT 10SM CLR 29/26 A2991 RMK AO2 SLP129 60007 T02870258 10323 20287 403500266 50006 $

2010/08/08 05:55
KCBM 080555Z AUTO 00000KT 10SM CLR 25/25 A2990 RMK AO2 SLP125 60000 T02540249 10289 20252 403360242 58003 $

2010/08/08 05:55
KCOF 080555Z AUTO 21007KT 10SM CLR 27/ A2994 RMK AO2 SLP139 T0269 10274 20267 58007

2010/08/08 05:55
KDOV 080555Z AUTO 17004KT 10SM CLR 22/22 A2999 RMK AO2 SLP158 T02190216 10250 20219 51003

2010/08/08 05:55
KDYS 080555Z AUTO 17010KT 10SM CLR 27/20 A2991 RMK AO2 SLP099 T02730196 10351 20268 403730223 51012 $

2010/08/08 05:55
KFBG 080555Z 11003KT 10SM CLR 24/22 A2996 RMK AO2A SLP144 60000 T02420221 10290 20240 57001 $

2010/08/08 05:55
KFFO 080555Z 00000KT 10SM CLR 19/17 A3000 RMK AO2A SLP155 10260 20183 50000

2010/08/08 05:55
KHIF 080555Z AUTO 10013KT 10SM CLR 20/09 A2996 RMK AO2 SLP029 T02020093 10280 20202 51012

2010/08/08 05:55
KLHW 080555Z AUTO 00000KT 10SM CLR 25/24 A2992 RMK AO2 SLP131 T02450240 10275 20245 57004

2010/08/08 05:55
KLSF 080555Z AUTO 11003KT 7SM R33/5000V5500FT CLR 24/23 A2993 RMK AO2 SLP134 T02410231 10318 20241 56004 PNO $

2010/08/08 05:55
KMTC 080555Z AUTO 21006KT 10SM BKN100 21/17 A2993 RMK AO2 SLP138 T02100170 10242 20197 53001 $

2010/08/08 05:55
KMUI 080555Z AUTO 00000KT 10SM CLR 19/17 A3001 RMK AO2 SLP162 T01870171 10223 20187 53003 $

2010/08/08 05:55
KMUO 080555Z AUTO 31005KT 7SM R30/4500V5500FT CLR 22/04 A2979 RMK AO2 SLP056 T02160040 10327 20216 52006

2010/08/08 05:55
KMXF 080555Z AUTO 15003KT 10SM CLR 26/24 A2991 RMK AO2 SLP128 60008 T02620238 10337 20259 403560250 55005

2010/08/08 05:54
KWAL 080554Z AUTO 00000KT 10SM CLR 23/21 A3001 RMK AO2 SLP157 T02280211 10250 20222 58001 TSNO 

2010/08/08 05:53
K6R6 080553Z AUTO 10005KT 28/18 A2991 RMK AO2 SLP088 T02780178 10339 20278 403560211 51014 PWINO TSNO 

2010/08/08 05:50
NZSP 080550Z 15008KT 9999 IC SKC M67/ A2817 RMK CLN AIR 13006KT ALL WNDS GRID

2010/08/08 06:00
MHSR 080600Z 00000KT 2000 BR BKN004 OVC020 20/20 REDZ 2 KM TD CL BR HZ

2010/08/08 05:55
ETAR 080555Z AUTO 23003KT 9999 BKN055 17/15 A3000 RMK AO2 SLP153 60004 70004 T01660147 10169 20148 53002 $

2010/08/08 05:55
KCOF 080555Z AUTO 21007KT 10SM CLR 27/ A2994 RMK AO2 SLP139 T0269 10274 20267 58007

2010/08/08 05:55
KDOV 080555Z AUTO 17004KT 10SM CLR 22/22 A2999 RMK AO2 SLP158 T02190216 10250 20219 51003

2010/08/08 05:55
KHIF 080555Z AUTO 10013KT 10SM CLR 20/09 A2996 RMK AO2 SLP029 T02020093 10280 20202 51012

2010/08/08 05:55
KLHW 080555Z AUTO 00000KT 10SM CLR 25/24 A2992 RMK AO2 SLP131 T02450240 10275 20245 57004

2010/08/08 05:55
KMUO 080555Z AUTO 31005KT 7SM R30/4500V5500FT CLR 22/04 A2979 RMK AO2 SLP056 T02160040 10327 20216 52006

2010/08/08 05:52
KNFW 080552Z AUTO 17010KT 10SM CLR 31/19 A2990 RMK AO2 SLP108 T03110189 10372 20306 403890261 51012 $

2010/08/08 05:52
KNHK 080552Z AUTO 00000KT 10SM CLR 20/18 A2999 RMK AO2 SLP155 T02000178 10261 20200 50002

2010/08/08 05:55
KSLI 080555Z AUTO 17003KT 10SM BKN020 15/14 A2991 RMK AO2 SLP130 T01540138 10203 20151 51018

2010/08/08 05:55
KSSC 080555Z 00000KT 9SM R22/5500VP6000FT CLR 25/23 A2993 RMK AO2A SLP133 60000 T02480231 10297 20248 58004 $

2010/08/08 05:55
KTIK 080555Z 14005KT 10SM CLR 28/23 A2986 RMK AO2A SLP096 T02760225 10342 20276 403570244 51008

2010/08/08 05:55
KVOK 080555Z 13004KT 10SM BKN150 22/21 A2980 RMK AO2A SLP086 T02190210 10262 20217 402800130 53002 $

2010/08/08 05:55
KWRI 080555Z AUTO 24005KT 10SM CLR 20/20 A3000 RMK AO2 SLP158 60000 T02020197 10263 20202 51005 $

2010/08/08 05:55
PAEI 080555Z AUTO 00000KT 10SM BKN085 BKN140 15/11 A2967 RMK AO2 SLP048 T01470106 10198 20145 52008 $

2010/08/08 05:55
RODN 080555Z 17010KT 9999 SCT019 BKN045 31/26 A2961 RMK AO2A RAE0458 SLP026 P0000 60011 T03050264 10309 20263 58014

2010/08/08 05:52
MMGL 080552Z 00000KT 12SM SCT100 BKN300 18/16 A3018 RMK SLP095 52010 911 8/038

2010/08/08 05:52
MMPR 080552Z 01003KT 12SM SKC 28/25 A2987 RMK SLP118 52022 905

2010/08/08 05:51
MMSP 080551Z 07006KT 8SM FEW015 SCT020 BKN080 19/15 A3026 RMK SLP096 52011 900 8/460 CI

2010/08/08 05:45
MMTP 080545Z 00000KT 10SM SCT030TCU BKN250 26/24 A2991 RMK SLP105 57004 970 8/250 DZ E 12

2010/08/08 05:45
MMUN 080545Z 09005KT 7SM FEW300 27/24 A2994 RMK SLP134 51003 903 8/008 RA AT THE CITY

2010/08/08 05:55
PAEI 080555Z AUTO 00000KT 10SM BKN085 BKN140 15/11 A2967 RMK AO2 SLP048 T01470106 10198 20145 52008 $

2010/08/08 05:53
PHJR 080553Z 06004KT 10SM CLR 26/19 A3007 RMK AO2 SLP190 T02610189 10317 20261 53014

2010/08/08 05:51
PTKK 080551Z VRB05KT 15SM -SHRA SCT014CB BKN120 OVC280 30/25 A2973 RMK SHRAB45 CB ALQDS SLP071 60000 8/371 T03040248 10322 20300 57007

2010/08/08 05:52
PTRO 080552Z 30006KT 15SM BKN016CB BKN120 OVC300 29/23 A2981 RMK CB VC ALQDS

2010/08/08 05:55
RKSO 080555Z 26006KT 9999 CLR 33/27 A2981 RMK AO2A SLP096 T03280266 10328 20277 56012 $

2010/08/08 05:55
RODN 080555Z 17010KT 9999 SCT019 BKN045 31/26 A2961 RMK AO2A RAE0458 SLP026 P0000 60011 T03050264 10309 20263 58014

2010/08/08 05:55
KEGI 080555Z AUTO 00000KT 9SM R18/5500VP6000FT CLR 25/24 A2991 RMK AO2 SLP129 T02460238 10254 20246 403500246 57005 $

2010/08/08 05:52
KNHK 080552Z AUTO 00000KT 10SM CLR 20/18 A2999 RMK AO2 SLP155 T02000178 10261 20200 50002

2010/08/08 05:55
KOFF 080555Z AUTO 16009KT 10SM CLR 26/23 A2979 RMK AO2 SLP070 T02620233 10315 20262 52003 $

2010/08/08 05:55
KOZR 080555Z AUTO 00000KT 10SM SCT230 24/24 A2992 RMK AO2 SLP129 T02430243 10256 20242 403340242 56009

2010/08/08 05:55
KRIV 080555Z AUTO 00000KT 10SM CLR 15/10 A2991 RMK AO2 SLP126 T01540101 10288 20154 51019

2010/08/08 05:55
KRND 080555Z AUTO 17007KT 10SM CLR 26/23 A2993 RMK AO2 SLP125 T02650230 10344 20265 403620250 51017

2010/08/08 05:55
KSKF 080555Z AUTO 15009KT 10SM CLR 28/ A2992 RMK AO2 SLP121 T0277 10353 20277 403700241 51017 $

2010/08/08 05:55
KSLI 080555Z AUTO 17003KT 10SM BKN020 15/14 A2991 RMK AO2 SLP130 T01540138 10203 20151 51018

2010/08/08 05:55
KSSC 080555Z 00000KT 9SM R22/5500VP6000FT CLR 25/23 A2993 RMK AO2A SLP133 60000 T02480231 10297 20248 58004 $

2010/08/08 05:55
KSUU 080555Z AUTO 25022KT 10SM CLR 14/11 A2975 RMK AO2 PK WND 25029/0455 SLP076 T01430114 10258 20142 53009 RVRNO $

2010/08/08 05:55
KSZL 080555Z AUTO 13004KT 10SM CLR 24/21 A2988 RMK AO2 SLP112 T02380212 10301 20237 51005 PNO $

2010/08/08 05:55
KTIK 080555Z 14005KT 10SM CLR 28/23 A2986 RMK AO2A SLP096 T02760225 10342 20276 403570244 51008

2010/08/08 05:55
KVOK 080555Z 13004KT 10SM BKN150 22/21 A2980 RMK AO2A SLP086 T02190210 10262 20217 402800130 53002 $

2010/08/08 05:55
KWRI 080555Z AUTO 24005KT 10SM CLR 20/20 A3000 RMK AO2 SLP158 60000 T02020197 10263 20202 51005 $

2010/08/08 06:00
SPIM 080600Z 17006KT 7000 SCT010 OVC015 14/12 Q1015 NOSIG RMK PP000

2010/08/08 05:55
KDRA 080555Z AUTO 09012KT 10SM CLR 28/07 A2984 RMK AO2 SLP050 T02780067 10344 20272 50010 TSNO $ 

2010/08/08 05:55
KMBG 080555Z AUTO 13003KT 10SM CLR 22/15 A2968 RMK AO2 SLP037 T02170150 10328 20189 403440189 51006 TSNO 

2010/08/08 05:54
KRFD 080554Z 20008KT 10SM CLR 21/18 A2989 RMK AO2 SLP117 T02110183 10267 20211 402830167 56002 

2010/08/08 05:50
EGJA 080550Z 35008KT 9999 BKN040 15/14 Q1021

2010/08/08 05:55
EGUN 080555Z AUTO 34009KT 9999 OVC031 15/15 A3008 RMK AO2 SLP177 60000 T01470147 10155 20142 53007

2010/08/08 05:50
ENAL 080550Z AUTO 00000KT 4200NDV -RA FEW007/// SCT047/// BKN061/// 15/13 Q1016

2010/08/08 05:50
ENAN 080550Z 25005KT 9999 BKN012 12/09 Q1019

2010/08/08 05:50
ENBN 080550Z 36007KT 9999 FEW003 14/13 Q1016

2010/08/08 05:50
ENBO 080550Z 32002KT 0500 FG VV010 11/11 Q1018

2010/08/08 05:50
ENBR 080550Z 20003KT 9999 FEW003 SCT020 BKN030 14/13 Q1016 NOSIG

2010/08/08 05:50
ENCN 080550Z 06003KT CAVOK 16/12 Q1015

2010/08/08 05:50
ENDU 080550Z VRB01KT 0400 FG NSC 10/09 Q1019 BECMG 1200 BCFG

2010/08/08 05:50
ENEK 080550Z 35015KT 9999 SCT007 BKN035 15/14 Q1016 W16/S3

2010/08/08 05:50
ENGC 080550Z 23017KT 0500 FG VV002 13/13 Q1014

2010/08/08 05:50
ENHF 080550Z AUTO 03006KT //// BKN009/// OVC016/// 11/10 Q1018

2010/08/08 05:50
ENOA 080550Z 26013KT 9999 -DZ SCT008 BKN012 14/12 Q1015

2010/08/08 05:50
ENOL 080550Z 11005KT CAVOK 15/13 Q1015

2010/08/08 05:50
ENRO 080550Z AUTO 00000KT 3600NDV VV001 03/03 Q1017

2010/08/08 05:50
ENTC 080550Z 22003KT 180V250 9999 BKN009 OVC013 12/10 Q1019

2010/08/08 05:50
ENTO 080550Z 01005KT 9999 FEW040 15/12 Q1015

2010/08/08 05:50
ENZV 080550Z 27001KT 9999 SCT027 BKN034 16/14 Q1016 NOSIG

2010/08/08 05:55
ETAD 080555Z AUTO 23007KT 9999 OVC002 15/15 A3001 RMK AO2 SLP152 60014 T01510149 10180 20147 53003 $

2010/08/08 05:55
ETAR 080555Z AUTO 23003KT 9999 BKN055 17/15 A3000 RMK AO2 SLP153 60004 70004 T01660147 10169 20148 53002 $

2010/08/08 05:55
ETEB 080555Z AUTO 23004KT 9999 BKN140 12/12 A3005 RMK AO2 SLP168 60000 T01230121 10128 20118 56003

2010/08/08 05:55
ETOU 080555Z AUTO 00000KT 9000 -RA BR FEW002 OVC045 16/15 A3000 RMK AO2 RAE0456B0540 SLP157 P0004 60004 T01640150 10182 20164 53001

2010/08/08 06:00
LQBK 080600Z 17004KT CAVOK 18/15 Q1018 NOSIG

2010/08/08 05:54
KBOS 080554Z 18005KT 10SM CLR 17/14 A3002 RMK AO2 SLP166 T01720139 10250 20172 51004

2010/08/08 05:55
KCOF 080555Z AUTO 21007KT 10SM CLR 27/ A2994 RMK AO2 SLP139 T0269 10274 20267 58007

2010/08/08 05:53
KDAB 080553Z 00000KT 10SM FEW090 OVC250 26/24 A2994 RMK AO2 SLP137 60000 T02560244 10272 20256 58006

2010/08/08 05:55
KLFI 080555Z 13005KT 10SM OVC008 25/23 A2999 RMK AO2A SLP158 60000 T02480232 10258 20241 50000

2010/08/08 05:52
KNHK 080552Z AUTO 00000KT 10SM CLR 20/18 A2999 RMK AO2 SLP155 T02000178 10261 20200 50002

2010/08/08 05:53
KNIP 080553Z 21003KT 10SM SCT043 BKN150 OVC250 25/24 A2993 RMK AO2 SLP132 60003 T02500239 10256 20244 50000

2010/08/08 05:54
KNKT 080554Z AUTO 00000KT 7SM CLR 25/23 A2996 RMK AO2 SLP142 T02500233 10272 20244 58002

2010/08/08 05:53
KNQX 080553Z AUTO 14003KT 10SM BKN042 BKN075 30/25 A2996 RMK AO2 SLP143 6//// T03000250 10311 20294 58010 $

2010/08/08 05:52
KNRB 080552Z AUTO 22003KT 10SM BKN026 BKN042 26/23 A2993 RMK AO2 SLP133 60000 T02560233 10261 20250 50000

2010/08/08 05:54
KPHL 080554Z 22004KT 10SM SCT080 SCT250 23/20 A3001 RMK AO2 SLP163 T02330200 10283 20233 51005 $

2010/08/08 05:55
KPOB 080555Z AUTO 00000KT 10SM CLR 25/24 A2997 RMK AO2 SLP146 T02460240 10286 20239 58002 $

2010/08/08 05:53
KSAV 080553Z 00000KT 8SM FEW015 25/24 A2992 RMK AO2 SLP132 T02500239 10289 20250 58005

2010/08/08 05:55
KSSC 080555Z 00000KT 9SM R22/5500VP6000FT CLR 25/23 A2993 RMK AO2A SLP133 60000 T02480231 10297 20248 58004 $

2010/08/08 05:54
KSYR 080554Z 15003KT 10SM FEW250 14/11 A3000 RMK AO2 SLP153 T01440111 10211 20144 53001

2010/08/08 05:55
KWRI 080555Z AUTO 24005KT 10SM CLR 20/20 A3000 RMK AO2 SLP158 60000 T02020197 10263 20202 51005 $

2010/08/08 05:56
KCHS 080556Z 00000KT 7SM CLR 25/24 A2992 RMK AO2 SLP131 T02500239 10283 20250 58005 

2010/08/08 05:55
KMRF 080555Z AUTO 30005KT 10SM CLR A3011 RMK AO1 52020

2010/08/08 05:54
KMRY 080554Z AUTO 22005KT 9SM OVC006 13/11 A2990 RMK AO2 SLP138 T01280106 10156 20128 50008

2010/08/08 05:55
KMSV 080555Z AUTO 00000KT 10SM BKN070 12/10 A3005 RMK AO1 10220 20120 52003

2010/08/08 05:55
KMTW 080555Z 23006KT 10SM CLR 23/18 A2981 RMK AO1 10260 20230 57003

2010/08/08 05:54
KMVL 080554Z AUTO 00000KT 10SM CLR 08/07 A3002 RMK AO2 SLP168 T00830072 10156 20083 53001

2010/08/08 05:55
KMVN 080555Z AUTO 00000KT 8SM CLR 20/17 A2997 RMK AO1 52007

2010/08/08 05:55
KOCH 080555Z AUTO 18004KT 10SM CLR 28/24 A2990 RMK AO1 10360 20280 403700230 52010

2010/08/08 05:54
KOFP 080554Z AUTO 00000KT 10SM CLR 21/18 A3002 RMK AO2 SLP162 T02060178 10267 20206 53001

2010/08/08 05:55
KOKK 080555Z AUTO 16004KT 9SM CLR 19/13 A2997 RMK AO1 10270 20190

2010/08/08 05:54
KOLM 080554Z AUTO 20006KT 10SM BKN046 OVC055 16/14 A2992 RMK AO2 SLP131 60001 T01560144 10178 20156 50004

2010/08/08 05:54
KOLS 080554Z AUTO 00000KT 10SM FEW039 SCT120 21/18 A3008 RMK AO2 RAB03E12B31E40 SLP118 P0000 60021 T02060178 10300 20200 53006

2010/08/08 05:55
KOLU 080555Z AUTO 18011G17KT 10SM CLR 27/22 A2978 RMK AO1 10310 20270 52003

2010/08/08 05:54
KORH 080554Z AUTO 22006KT 10SM CLR 16/11 A3004 RMK AO2 SLP170 T01560111 10211 20156 55001

2010/08/08 05:55
KOTG 080555Z AUTO 20014G18KT 10SM CLR 24/18 A2975 RMK AO1 10280 20240 52003

2010/08/08 05:55
KOTH 080555Z 34004KT 1 1/2SM OVC004 15/15 A2999 RMK AO1 10180 20140 52007

2010/08/08 05:54
KPHF 080554Z 10003KT 7SM CLR 23/23 A2999 RMK AO2 SLP156 T02280228 10250 20211 50000

2010/08/08 05:54
KPHL 080554Z 22004KT 10SM SCT080 SCT250 23/20 A3001 RMK AO2 SLP163 T02330200 10283 20233 51005 $

2010/08/08 05:54
KPIA 080554Z 19007KT 7SM CLR 22/19 A2992 RMK AO2 SLP127 T02220189 10278 20222 402940178 53003

2010/08/08 05:55
KPIB 080555Z AUTO 02003KT 10SM SCT060 25/22 A2993 RMK AO1 10320 20250 57003

2010/08/08 05:55
KFAM 080555Z AUTO 00000KT 10SM CLR 22/18 A2998 RMK AO1 10300 20220 52007

2010/08/08 05:54
KFIG 080554Z AUTO 34003KT 10SM CLR 12/11 A3007 RMK AO2 SLP175 T01220111 10222 20122 53002

2010/08/08 05:55
KFKL 080555Z AUTO 17004KT 10SM CLR 16/12 A3007 RMK AO1 10220 20150

2010/08/08 05:55
KFLP 080555Z AUTO 00000KT 10SM CLR 26/22 A2993 RMK AO1 10310 20260 52007

2010/08/08 05:55
KFMH 080555Z AUTO 20005KT 10SM CLR 19/18 A3005 RMK AO2

2010/08/08 05:55
KFNL 080555Z AUTO 13004KT 10SM CLR 24/11 A3001 RMK AO1 10300 20230 52017

2010/08/08 05:55
KFOD 080555Z AUTO 20014G21KT 10SM CLR 24/22 A2978 RMK AO1 10280 20240 54000

2010/08/08 05:55
KFRM 080555Z 20012G16KT 10SM FEW075 25/22 A2975 RMK AO1 10290 20240 57003

2010/08/08 05:54
KFZY 080554Z AUTO 00000KT 7SM CLR 12/11 A2999 RMK AO2 SLP155 T01220111 10189 20117 53003

2010/08/08 05:55
KGAD 080555Z AUTO 00000KT 10SM CLR 23/21 A2994 RMK AO1 10310 20230 57003

2010/08/08 05:55
KGAI 080555Z 00000KT 10SM CLR 18/17 A3004 RMK AO1 10270 20180 52003

2010/08/08 05:55
KGBD 080555Z AUTO 16007KT 10SM CLR 26/21 A2985 RMK AO1 10360 20260 52007

2010/08/08 05:54
KGCK 080554Z AUTO 16007KT 10SM CLR 25/19 A2988 RMK AO2 SLP074 T02500194 10356 20250 403720194 51009

2010/08/08 05:54
KGCN 080554Z AUTO 00000KT 10SM CLR 11/09 A3020 RMK AO2 SLP163 T01060094 10194 20106 50006

2010/08/08 05:55
KGDV 080555Z AUTO 33004KT 10SM CLR 21/10 A2975 RMK AO1 10320 20210 52010

2010/08/08 05:54
KGED 080554Z AUTO 00000KT 9SM CLR 21/20 A3001 RMK AO2 SLP162 T02110200 10261 20206 51001

2010/08/08 05:55
KGPZ 080555Z AUTO 00000KT 10SM CLR 19/17 A2970 RMK AO1 10240 20190 52003

2010/08/08 05:55
KGTR 080555Z 00000KT 10SM CLR 25/24 A2991 RMK AO1 54000

2010/08/08 05:55
KGTU 080555Z 18009G14KT 10SM CLR 29/21 A2994 RMK AO1

2010/08/08 05:55
KGUC 080555Z AUTO 00000KT 10SM FEW065 OVC090 14/08 A3029 RMK AO1 60003 10230 20140 52020

2010/08/08 05:55
KGXY 080555Z AUTO 15006KT 10SM BKN120 22/16 A3000 RMK AO1 10330 20220 52014

2010/08/08 05:55
KGYH 080555Z AUTO 03003KT 10SM SCT042 SCT050 BKN120 27/20 A2999 RMK AO2

2010/08/08 05:55
KHDN 080555Z 15006KT 10SM FEW070 13/11 A3019 RMK AO1 10160 20130 57003

2010/08/08 05:54
KIMT 080554Z AUTO 19008KT 5SM TSRA BR OVC020 21/20 A2975 RMK AO2 LTG DSNT SE-SW TSB0459E14B44 SLP068 P0011 60013 T02060200 10239 20200 402720083 57003

2010/08/08 05:54
KIND 080554Z 00000KT 9SM CLR 22/17 A2996 RMK AO2 SLP139 T02170167 10272 20211 50002

2010/08/08 05:54
KINT 080554Z AUTO 00000KT 10SM CLR 23/17 A3002 RMK AO2 SLP153 T02280172 10267 20222 58003

2010/08/08 05:54
KIPT 080554Z AUTO 00000KT 10SM CLR 16/12 A3001 RMK AO2 SLP160 T01560122 10244 20156 50004

2010/08/08 05:54
KISW 080554Z AUTO 19007KT 10SM CLR 23/19 A2981 RMK AO2 SLP088 T02280194 10261 20228 402890133 53002 TSNO

2010/08/08 05:55
KIWD 080555Z AUTO 00000KT 9SM VCTS FEW047 BKN065 OVC090 19/18 A2974 RMK AO1 LTG DSNT E TSB03E18B31 P0020 60044 10240 20190 402700090 54000

2010/08/08 05:54
KIZG 080554Z AUTO 00000KT 10SM CLR 08/07 A3001 RMK AO2 SLP163 T00780072 10117 20072 58001

2010/08/08 05:55
KJAC 080555Z AUTO 09004KT 10SM CLR 10/05 A3009 RMK AO1 52014

2010/08/08 05:55
KJHW 080555Z AUTO 19006KT 10SM CLR 15/11 A3003 RMK AO1 10200 20140

2010/08/08 05:54
KJST 080554Z AUTO 00000KT 10SM CLR 17/12 A3008 RMK AO2 SLP176 T01670117 10206 20161 50002

2010/08/08 05:55
KKLS 080555Z AUTO 34003KT 10SM OVC016 17/15 A2993 RMK AO1 60001 10180 20170 52007

2010/08/08 05:54
KLAF 080554Z AUTO 00000KT 8SM CLR 21/18 A2996 RMK AO2 SLP139 T02060183 10272 20200 51003

2010/08/08 05:55
KLBL 080555Z 20008KT 10SM CLR 26/18 A2989 RMK AO1 10370 20260 54000

2010/08/08 05:54
KLBT 080554Z AUTO 00000KT 7SM BKN015 24/23 A2995 RMK AO2 SLP138 T02390228 10278 20239 56005 $

2010/08/08 05:55
KLCI 080555Z AUTO 25003KT 10SM CLR 14/10 A3000 RMK AO1 10190 20130 52003

2010/08/08 05:55
KLEW 080555Z 00000KT 10SM CLR 09/08 A3002 RMK AO1 10170 20090 54000

2010/08/08 05:54
KLEX 080554Z 13003KT 10SM CLR 21/14 A3000 RMK AO2 SLP149 T02110144 10272 20189 58000

2010/08/08 05:55
KLGD 080555Z AUTO 30013KT 10SM CLR 21/08 A2986 RMK AO1 10290 20210 52017

2010/08/08 05:55
KLKV 080555Z AUTO 35010KT 10SM CLR 18/04 A2999 RMK AO1 10290 20160

2010/08/08 05:54
KLNK 080554Z AUTO 19008KT 9SM CLR 26/22 A2980 RMK AO2 SLP075 T02610222 10317 20256 403330200 53005

2010/08/08 05:55
KLPC 080555Z AUTO 33003KT 10SM OVC010 14/11 A2991 RMK AO1 10180 20130 52010 PNO

2010/08/08 05:55
KLQK 080555Z AUTO 7SM BKN085 23/21 A2999 RMK AO2 6//// T02270212 10280 20218 403230211 PNO

2010/08/08 05:55
KLRO 080555Z AUTO 00000KT 2SM BR CLR 23/23 A2992 RMK AO2

2010/08/08 05:55
KLUX 080555Z AUTO 03003KT 7SM OVC033 23/23 A2998 RMK AO2

2010/08/08 05:54
KLWM 080554Z AUTO 00000KT 10SM CLR 15/09 A3004 RMK AO2 SLP170 T01500089 10239 20144 51005

2010/08/08 05:54
KLWT 080554Z AUTO 23007KT 10SM FEW110 18/08 A2984 RMK AO2 SLP064 T01830083 10278 20161 53008

2010/08/08 05:54
KLYH 080554Z AUTO 00000KT 8SM CLR 18/17 A3004 RMK AO2 SLP163 T01830172 10239 20178 58002

2010/08/08 05:55
KMBL 080555Z AUTO 23008KT 10SM BKN035 BKN100 24/18 A2982 RMK AO1 10240 20230 402700110 57007

2010/08/08 05:55
KMER 080555Z AUTO 25006KT 10SM CLR 21/13 A2976 RMK AO1

2010/08/08 05:54
KMFI 080554Z AUTO 19007KT 9SM FEW075 22/20 A2979 RMK AO2 SLP080 T02220200 10256 20217 402780144 51003

2010/08/08 05:54
KMGJ 080554Z AUTO 00000KT 10SM CLR 13/12 A3001 RMK AO2 SLP162 T01330117 10222 20133 53007

2010/08/08 05:54
KMIV 080554Z AUTO 00000KT 10SM FEW100 19/18 A2999 RMK AO2 SLP155 T01940178 10250 20189 51003

2010/08/08 05:55
KMJX 080555Z AUTO 00000KT 10SM CLR 16/13 A3001 RMK AO1 10240 20160 52003

2010/08/08 05:54
KMKC 080554Z 18007KT 10SM CLR 28/21 A2986 RMK AO2 SLP100 T02780206 10322 20278 403390222 53004

2010/08/08 05:55
KMKT 080555Z AUTO 21012G20KT 10SM BKN060 BKN070 26/22 A2970 RMK AO1 10290 20250 57007

2010/08/08 05:55
KMML 080555Z AUTO 22013KT 10SM CLR 26/23 A2967 RMK AO1 10300 20260 54000

2010/08/08 05:55
KMNI 080555Z AUTO 00000KT 4SM BR CLR 23/23 A2993 RMK AO2

2010/08/08 05:55
KMNM 080555Z AUTO 24004KT 8SM FEW080 22/20 A2976 RMK AO1 LTG DSNT NW 60061 10240 20210 402700130 57010

2010/08/08 05:54
KMOT 080554Z AUTO 22008KT 10SM CLR 22/18 A2966 RMK AO2 SLP034 T02220178 10317 20217 403170172 51004

2010/08/08 05:55
KHEF 080555Z AUTO 00000KT 4SM CLR 17/16 A3001 RMK AO1 10260 20170 52003

2010/08/08 05:55
KHEZ 080555Z AUTO 17003KT 10SM CLR 26/23 A2992 RMK AO1 10320 20260 54000

2010/08/08 05:55
KHNB 080555Z AUTO 00000KT 9SM CLR 18/18 A2998 RMK AO1 10270 20180 403000160 52007

2010/08/08 05:54
KHWD 080554Z AUTO 31005KT 10SM FEW012 14/11 A2985 RMK AO2 SLP118 T01440111 10206 20144 50006 $

2010/08/08 05:55
KHYI 080555Z AUTO 19007KT 10SM CLR 27/23 A2993 RMK AO1 10350 20270 403600250 52017

2010/08/08 05:55
KHYS 080555Z AUTO 19005KT 10SM CLR 26/18 A2985 RMK AO1 10370 20260 52014

2010/08/08 05:55
KHYW 080555Z AUTO 00000KT 3SM BR CLR 23/ A2993 RMK AO2

2010/08/08 05:55
KILE 080555Z AUTO 18007KT 10SM CLR 28/22 A2990 RMK AO1 10360 20280 403700260 52014

2010/08/08 05:54
KILN 080554Z AUTO 00000KT 10SM CLR 18/16 A3000 RMK AO2 SLP152 T01780156 10250 20167 58001

2010/08/08 05:55
KCIU 080555Z AUTO 00000KT 10SM FEW017 SCT070 BKN095 18/16 A2977 RMK AO1 10210 20170 402400070 57014

2010/08/08 05:55
KCOD 080555Z 16008KT 10SM CLR 17/08 A2994 RMK AO1 10250 20160 57007

2010/08/08 05:55
KCOE 080555Z AUTO 25006KT 10SM CLR 21/08 A2981 RMK AO1 10280 20200 52014

2010/08/08 05:54
KCOS 080554Z 09007KT 10SM BKN110 19/15 A3012 RMK AO2 SLP097 T01940150 10294 20194 51016

2010/08/08 05:55
KCQW 080555Z AUTO 00000KT 2 1/2SM BR CLR 23/22 A2996 RMK AO2

2010/08/08 05:54
KCRW 080554Z 00000KT 8SM CLR 18/17 A3001 RMK AO2 SLP154 VLY FG T01830172 10256 20183 50000

2010/08/08 05:55
KCVN 080555Z 16009KT 10SM CLR 23/15 A3003 RMK AO1 10330 20230 52014

2010/08/08 05:55
KCVO 080555Z AUTO 28009KT 10SM OVC075 18/13 A2994 RMK AO1 10250 20180 52014

2010/08/08 05:55
KCWI 080555Z 19006KT 10SM CLR 21/19 A2990 RMK AO1 10270 20210 52003

2010/08/08 05:55
KDCM 080555Z AUTO 03003KT 5SM BR BKN042 BKN048 23/23 A2998 RMK AO2 LTG DSNT SE AND SW

2010/08/08 05:54
KDDH 080554Z AUTO 00000KT 10SM CLR 10/09 A3003 RMK AO2 SLP169 T01000094 10167 20100 51004

2010/08/08 05:54
KDEC 080554Z AUTO 17006KT 9SM CLR 22/17 A2997 RMK AO2 SLP141 T02220172 10278 20217 403000161 53005

2010/08/08 05:54
KDSM 080554Z 19009KT 10SM FEW090 25/21 A2982 RMK AO2 SLP089 T02500206 10300 20250 403220211 50001

2010/08/08 05:54
KDSV 080554Z AUTO 14011KT 10SM CLR 14/11 A3003 RMK AO2 SLP175 T01440111 10217 20139 50004 $

2010/08/08 05:55
KDVL 080555Z AUTO 00000KT 10SM CLR 21/18 A2966 RMK AO1 10280 20210 54000

2010/08/08 05:54
KDYL 080554Z AUTO 00000KT 10SM SCT065 BKN090 19/16 A3001 RMK AO2 SLP156 T01940161 10239 20183 50005 TSNO

2010/08/08 05:55
KDYR 080555Z AUTO 08003KT 10SM CLR 23/18 A2992 RMK AO1 10310 20220 54000

2010/08/08 05:55
KEAR 080555Z AUTO 19010KT 10SM CLR 26/21 A2983 RMK AO1 10320 20250 52007

2010/08/08 05:54
KECG 080554Z AUTO 08003KT 5SM BR BKN011 25/24 A2999 RMK AO2 SLP154 T02500244 10261 20244 53000

2010/08/08 05:55
KEDC 080555Z AUTO 19006KT 10SM CLR 27/23 A2992 RMK AO1

2010/08/08 05:55
KEEN 080555Z AUTO 00000KT 10SM CLR 11/09 A3004 RMK AO1 10180 20110 52010

2010/08/08 05:55
KEGE 080555Z AUTO 00000KT 10SM BKN120 15/14 A3021 RMK AO1 52014

2010/08/08 05:55
KEHR 080555Z AUTO 00000KT 7SM CLR 18/13 A2996 RMK AO1 10280 20170 403000150 54000

2010/08/08 05:55
KENV 080555Z AUTO 20009KT 10SM CLR 23/04 A2984 RMK AO1

2010/08/08 05:55
KEOE 080555Z AUTO 00000KT 10SM CLR 25/23 A2999 RMK AO2

2010/08/08 05:55
KESC 080555Z AUTO 24005KT 10SM FEW070 BKN085 BKN110 21/18 A2976 RMK AO1 10240 20210 402600120 57003

2010/08/08 05:54
KEUG 080554Z 00000KT 10SM FEW040 17/14 A2993 RMK AO2 SLP134 T01720139 10283 20172 51016

2010/08/08 05:55
KEUL 080555Z AUTO 34005KT 10SM CLR 19/10 A2979 RMK AO1 10320 20180 52014

2010/08/08 05:54
KEVV 080554Z AUTO 00000KT 10SM CLR 20/17 A2997 RMK AO2 SLP144 T02000167 10283 20189 403220167 52002

2010/08/08 05:55
KEWK 080555Z AUTO 16008KT 10SM CLR 27/20 A2983 RMK AO1 10340 20270 52003

2010/08/08 05:54
KEWN 080554Z AUTO 03004KT 5SM BR CLR 25/24 A2997 RMK AO2 SLP148 60003 T02500239 10283 20250 58002

2010/08/08 05:55
KSMN 080555Z AUTO 00000KT 10SM CLR 15/08 A2991 RMK AO1 10290 20150 52020

2010/08/08 05:55
KSPL 080555Z AUTO 14011KT 29/27 A2991 RMK AO2 PWINO PNO

2010/08/08 05:55
KRKD 080555Z AUTO 00000KT 10SM CLR 10/08 A3002 RMK AO1 10170 20100 52003

2010/08/08 05:54
KRKS 080554Z AUTO 16014KT 10SM CLR 16/06 A3011 RMK AO2 SLP108 T01610056 10228 20156 52002

2010/08/08 05:54
KROC 080554Z 20003KT 10SM FEW080 SCT200 15/11 A2999 RMK AO2 SLP152 T01500111 10211 20144 58001 $

2010/08/08 05:54
KRST 080554Z AUTO 20010G17KT 8SM FEW075 24/22 A2977 RMK AO2 TSE0459 SLP071 T02440217 10272 20233 402890172 58001

2010/08/08 05:55
KRUT 080555Z 14005KT 10SM CLR 12/08 A3002 RMK AO1 10190 20110 52003

2010/08/08 05:54
KSBY 080554Z AUTO 00000KT 10SM CLR 21/20 A3000 RMK AO2 SLP162 T02110200 10256 20211 58001

2010/08/08 05:55
KSDY 080555Z AUTO 00000KT 10SM CLR 18/15 A2971 RMK AO1 10320 20180 52007

2010/08/08 05:54
KSET 080554Z AUTO 07004KT 7SM CLR 22/19 A2992 RMK AO2 SLP127 T02220194 10289 20211 403170183 51004

2010/08/08 05:55
KSFM 080555Z 00000KT 10SM CLR 09/09 A3002 RMK AO1 10170 20090 52003

2010/08/08 05:55
KSFZ 080555Z 00000KT 10SM CLR 14/14 A3002 RMK AO1 10170 20140 52003

2010/08/08 05:55
KSGT 080555Z 15004KT 26/24 A2991 RMK AO1 10310 20260 52003

2010/08/08 05:55
KSGU 080555Z AUTO 30003KT 10SM OVC100 24/13 A2994 RMK AO1 LTG DSNT SW TSE0559B15E43 10270 20230 52010

2010/08/08 05:54
KSJN 080554Z AUTO 16006KT 10SM CLR 17/13 A3017 RMK AO2 SLP130 60000 T01670133 10172 20161 58003 $

2010/08/08 05:55
KSKX 080555Z AUTO 28003KT 10SM BKN080 16/08 A3025 RMK AO1 10290 20160 52017

2010/08/08 05:55
KSLG 080555Z AUTO 10005KT 10SM CLR 24/21 A2992 RMK AO1 10290 20230 52003

2010/08/08 05:53
KPQN 080553Z AUTO 22010G17KT 10SM CLR 25/23 A2972 RMK AO2

2010/08/08 05:54
KFGN 080554Z AUTO 15005KT 10SM CLR 21/17 A2969 RMK AO2

2010/08/08 05:53
KPNM 080553Z AUTO 10003KT 4SM TSBR SCT009 SCT050 BKN070 20/18 A2970 RMK AO2 P0013 LTG DSNT ALQDS

2010/08/08 05:53
KPWC 080553Z AUTO 00000KT 4SM BR CLR 18/17 A2971 RMK AO2

2010/08/08 05:53
KFFM 080553Z AUTO 07005KT 10SM SCT060 21/19 A2963 RMK AO2

2010/08/08 05:53
KGDB 080553Z AUTO 19003KT 7SM CLR 23/22 A2968 RMK AO2 LTG DSNT NE AND E T02320223 10295 20232 403080175

2010/08/08 05:53
KAIT 080553Z AUTO 00000KT 2SM BR BKN001 18/16 A2968 RMK AO2 LTG DSNT SE AND S

2010/08/08 05:54
KGHW 080554Z AUTO 17003KT 7SM VCTS CLR 23/21 A2970 RMK AO2 LTG DSNT SE

2010/08/08 05:53
KMWM 080553Z AUTO 19012KT 10SM CLR 25/22 A2971 RMK AO2

2010/08/08 05:55
KULM 080555Z AUTO 20012G18KT 10SM SCT055 25/22 A2968 RMK AO2 LTG DSNT N AND NE

2010/08/08 05:53
KBBB 080553Z AUTO 20006KT 7SM CLR 24/23 A2969 RMK AO2 LTG DSNT E AND SE

2010/08/08 05:53
KTWM 080553Z AUTO 05004KT 10SM SCT003 SCT011 BKN018 17/14 A2971 RMK AO2 P0037 LTG DSNT NE

2010/08/08 05:55
KMGG 080555Z AUTO 00000KT 10SM -VCTSRA BKN041 BKN048 BKN060 25/22 A2970 RMK AO2 LTG DSNT SW THRU NE T02500221 10290 20240 403010152

2010/08/08 05:49
KMOX 080549Z AUTO 16005KT 4SM BR CLR 24/24 A2962 RMK AO2 LTG DSNT E

2010/08/08 05:54
KONZ 080554Z AUTO 21007KT 10SM CLR 23/17 A2994 RMK AO2

2010/08/08 05:54
KTEW 080554Z AUTO 00000KT 7SM CLR 18/16 A2993 RMK AO2

2010/08/08 05:50
KCVH 080550Z AUTO 26005KT 10SM OVC011 13/11 A2989 RMK AO1

2010/08/08 05:56
KDVP 080556Z AUTO 20014KT 10SM CLR 25/21 A2973 RMK AO2 T02480205 10285 20246 402960172

2010/08/08 05:54
KDYT 080554Z AUTO 06011KT 10SM BKN004 BKN009 19/17 A2972 RMK AO2 LTG DSNT S

2010/08/08 05:59
KFSO 080559Z AUTO 16005KT 10SM SCT070 12/10 A2996 RMK AO2

2010/08/08 05:54
KFBL 080554Z AUTO 19007KT 10SM VCTS SCT060 25/21 A2972 RMK AO2 LTG DSNT N

2010/08/08 05:58
KLYV 080558Z AUTO 19008KT 10SM CLR 23/21 A2972 RMK AO2

2010/08/08 05:56
KEFK 080556Z AUTO 20004KT 10SM SCT060 08/07 A3000 RMK AO2

2010/08/08 05:54
KRRT 080554Z AUTO 12006KT 10SM SCT043 18/16 A2970 RMK AO2 TSNO

2010/08/08 05:55
KTOB 080555Z AUTO 21010KT 10SM CLR 24/22 A2976 RMK AO2 LTG DSNT N

2010/08/08 05:54
KLXL 080554Z AUTO 00000KT 10SM BKN030 BKN038 BKN060 20/18 A2967 RMK AO2

2010/08/08 05:52
KEVM 080552Z AUTO 00000KT 10SM CLR 17/15 A2970 RMK AO1

2010/08/08 05:54
KELO 080554Z AUTO 00000KT 10SM BKN060 OVC075 18/16 A2974 RMK AO2

2010/08/08 05:55
KANE 080555Z AUTO 36003KT 10SM BKN037 22/21 A2971 RMK AO2 P0001

2010/08/08 05:55
KROX 080555Z AUTO 11004KT 10SM CLR 18/17 A2969 RMK AO2

2010/08/08 05:55
KSQI 080555Z AUTO 19003KT 10SM CLR 22/19 A2990 RMK AO1 10270 20220 402900170 54000

2010/08/08 05:55
KSUE 080555Z AUTO 23009KT 10SM CLR 23/20 A2977 RMK AO1 60002 10230 20220 57007

2010/08/08 05:54
KSUS 080554Z AUTO 00000KT 8SM CLR 24/18 A2991 RMK AO2 SLP120 T02390183 10311 20233 403280172 51004

2010/08/08 05:54
KSYR 080554Z 15003KT 10SM FEW250 14/11 A3000 RMK AO2 SLP153 T01440111 10211 20144 53001

2010/08/08 05:54
KTAD 080554Z AUTO 31004KT 10SM FEW080 19/15 A3007 RMK AO2 SLP086 T01940150 10256 20172 51008

2010/08/08 05:50
KTIF 080550Z AUTO 21006KT 10SM CLR 23/20 A2984 RMK AO2 T02320195 10348 20232 403550188

2010/08/08 05:55
KTME 080555Z AUTO 00000KT 10SM 26/26 A2993 RMK AO2

2010/08/08 05:55
KTPL 080555Z 19009KT 10SM CLR 28/23 A2991 RMK AO1 10340 20280 52017

2010/08/08 05:54
KTQE 080554Z AUTO 17006KT 9SM CLR 25/23 A2977 RMK AO2 SLP065 T02500228 10306 20239 403170200 51005

2010/08/08 05:55
KTSP 080555Z AUTO 26007KT 10SM CLR 18/04 A2998 RMK AO2

2010/08/08 05:55
KTVF 080555Z AUTO 09006KT 10SM CLR 20/18 A2967 RMK AO1 10260 20200 52003

2010/08/08 05:56
KUCP 080556Z AUTO 00000KT 8SM CLR 15/14 A3003 RMK AO2 50002 T01500144 10222 20150 SLP179

2010/08/08 05:54
KUIN 080554Z AUTO 16006KT 7SM CLR 23/19 A2991 RMK AO2 SLP119 T02280194 10289 20228 403000183 52003

2010/08/08 05:55
KUTA 080555Z AUTO 17003KT 7SM CLR 26/23 A2992 RMK AO2

2010/08/08 05:54
KUZA 080554Z AUTO 00000KT 7SM SCT047 23/20 A2999 RMK AO2 SLP141 T02280200 10283 20222 58003

2010/08/08 05:54
KVAY 080554Z AUTO 00000KT 10SM SCT080 19/18 A3001 RMK AO2 SLP162 T01940183 10256 20194 51005

2010/08/08 05:55
KVBT 080555Z AUTO 13004KT 10SM CLR 24/21 A2990 RMK AO1 10310 20240 52003

2010/08/08 05:55
KVIS 080555Z AUTO 31003KT 10SM CLR 23/16 A2975 RMK AO1 10340 20230 52017

2010/08/08 05:54
KVSF 080554Z AUTO 00000KT 10SM CLR 11/10 A3004 RMK AO2 SLP173 T01060100 10200 20100 51005

2010/08/08 05:54
KVTA 080554Z AUTO 00000KT 2SM BR CLR 16/16 A3001 RMK AO2 SLP157 T01610156 10244 20156 50000

2010/08/08 05:54
KWLD 080554Z AUTO 15008KT 10SM CLR 27/23 A2986 RMK AO2 SLP095 T02720228 10333 20272 403500239 52003

2010/08/08 05:55
KWVL 080555Z AUTO 00000KT 10SM CLR 10/08 A2997 RMK AO1 10170 20100 52003

2010/08/08 05:55
KWWD 080555Z AUTO 16005KT 10SM CLR 22/22 A3002 RMK AO1 10250 20220 52003

2010/08/08 05:55
KX40 080555Z AUTO 00000KT 7SM -TSRA SCT026 SCT044 OVC100 27/26 A2995 RMK AO2 LTG DSNT SW P0020 T02710260

2010/08/08 05:55
KYKN 080555Z AUTO 22008KT 10SM CLR 27/22 A2973 RMK AO1 10320 20270 52010

2010/08/08 05:54
PGWT 080554Z 09008KT 7SM FEW015 SCT080 31/25 A2979 RMK WIND DATA ESTIMATED

2010/08/08 05:54
KPLN 080554Z AUTO 15003KT 4SM BR CLR 17/17 A2978 RMK AO2 RAE03 SLP082 P0000 60011 T01720167 10233 20167 56013

2010/08/08 05:54
KPNE 080554Z 16003KT 10SM SCT075 23/19 A3002 RMK AO2 SLP165 T02330194 10272 20228 51006

2010/08/08 05:55
KPQI 080555Z AUTO 21004KT 10SM CLR 11/04 A2993 RMK AO1 10150 20090 52007

2010/08/08 05:55
KPRX 080555Z 13006KT 10SM BKN110 28/24 A2987 RMK AO1 10360 20280 403700230 54000

2010/08/08 05:54
KPSF 080554Z AUTO 00000KT 10SM CLR 12/10 A3003 RMK AO2 SLP152 T01170100 10183 20111 51002

2010/08/08 05:55
KPTN 080555Z AUTO 00000KT 10SM FEW025 26/16 A2996 RMK AO1 10310 20260 52003

2010/08/08 05:55
KPTV 080555Z AUTO 14004KT 10SM CLR 22/08 A2979 RMK AO1 10340 20220 52020

2010/08/08 05:54
KPTW 080554Z AUTO 00000KT 10SM FEW070 21/17 A3002 RMK AO2 SLP160 T02060167 10272 20200 50003

2010/08/08 05:55
KPVC 080555Z 20006KT 10SM CLR 19/17 A3004 RMK AO1 10210 20190 52007

2010/08/08 05:55
KPVU 080555Z 15010KT 10SM CLR 22/11 A3001 RMK AO1

2010/08/08 05:55
KPWG 080555Z AUTO 19008KT 10SM CLR 29/22 A2989 RMK AO1 10370 20290 403800270 52010

2010/08/08 05:55
KPWT 080555Z AUTO 19005KT 10SM OVC009 14/12 A2993 RMK AO1 60005 10170 20140 52003

2010/08/08 05:54
KRBL 080554Z AUTO 19007KT 10SM CLR 26/14 A2974 RMK AO2 SLP064 T02610144 10356 20256 51021

2010/08/08 05:55
KRBW 080555Z AUTO 00000KT 4SM BR CLR 23/23 A2993 RMK AO2

2010/08/08 05:54
KRDG 080554Z 00000KT 10SM BKN070 22/17 A3000 RMK AO2 SLP160 T02170172 10272 20211 51004

2010/08/08 05:58
KSYN 080558Z AUTO 21007KT 10SM VCTS CLR 26/21 A2970 RMK AO2 LTG DSNT N T02610212 10295 20249 403050166

2010/08/08 05:56
KVVV 080556Z AUTO 00000KT 10SM CLR 25/23 A2965 RMK AO2

2010/08/08 06:01
KFKA 080601Z AUTO 21009KT 10SM CLR 24/22 A2979 RMK AO2 LTG DSNT NW T02420217

2010/08/08 05:55
KROS 080555Z AUTO 06006KT 10SM TS BKN030 BKN037 20/18 A2972 RMK AO2 LTG DSNT SE AND SW 60002 T01950183 10270 20191 402800141

2010/08/08 05:52
KHCD 080552Z AUTO 19006KT 10SM SCT048 SCT065 SCT090 24/21 A2968 RMK AO2 T02350207 TSNO

2010/08/08 05:53
KSGS 080553Z AUTO 21007KT 10SM TS CLR 27/22 A2969 RMK AO2 LTG DSNT N AND NE T02660215 10306 20266 403200191

2010/08/08 05:52
KMJQ 080552Z AUTO 19009G14KT 10SM CLR 24/22 A2974 RMK AO2

2010/08/08 05:55
KHCO 080555Z AUTO 12005KT 10SM SCT055 21/19 A2968 RMK AO2

2010/08/08 05:54
KLVN 080554Z AUTO 19006KT 10SM VCTS SCT050 SCT075 25/22 A2970 RMK AO2 LTG DSNT NW THRU E

2010/08/08 05:53
KPEX 080553Z AUTO 25003KT 10SM -TSRA SCT029 BKN045 BKN055 24/19 A2969 RMK AO2 LTG DSNT ALQS P0002 60003 T02360191 10294 20232 403030156

2010/08/08 05:55
KJMR 080555Z AUTO 09003KT 10SM VCTS SCT023 SCT060 18/17 A2972 RMK AO2 LTG DSNT SE THRU SW

2010/08/08 05:55
KJKJ 080555Z AUTO 00000KT 10SM CLR 23/21 A2964 RMK AO2

2010/08/08 05:54
KMVE 080554Z AUTO 22004KT 7SM SCT050 25/24 A2964 RMK AO2 LTG DSNT NE

2010/08/08 05:53
KTKC 080553Z AUTO 21012G16KT 10SM CLR 25/21 A2969 RMK AO2 LTG DSNT NE AND E T02500210 10285 20250 403010181

2010/08/08 05:54
KGYL 080554Z AUTO 19007KT 10SM BKN050 BKN065 25/22 A2968 RMK AO2 LTG DSNT NW THRU NE T02450217 10288 20245 402970172

2010/08/08 05:54
KDXX 080554Z AUTO 00000KT 5SM BR CLR 23/23 A2964 RMK AO2

2010/08/08 05:51
KHZX 080551Z AUTO 00000KT 4SM CLR 18/17 A2971 RMK AO2 LTG DSNT S

2010/08/08 05:52
KCDD 080552Z AUTO 00000KT 4SM BR SCT032 19/19 A2975 RMK AO2

2010/08/08 05:54
KSAZ 080554Z AUTO 00000KT 10SM BKN025 OVC032 20/20 A2968 RMK AO2 P0001

2010/08/08 05:51
KONA 080551Z AUTO 21006KT 10SM BKN070 OVC090 25/20 A2974 RMK AO2 LTG DSNT NW

2010/08/08 05:53
KFOZ 080553Z AUTO 00000KT 10SM CLR 17/16 A2971 RMK AO2

2010/08/08 05:54
KAQP 080554Z AUTO 17003KT 7SM CLR 24/24 A2964 RMK AO2 LTG DSNT E

2010/08/08 05:54
KETH 080554Z AUTO 13003KT 10SM CLR 21/21 A2968 RMK AO2

2010/08/08 05:54
KOVL 080554Z AUTO 21003KT 10SM SCT049 SCT055 BKN070 24/21 A2967 RMK AO2 LTG DSNT N AND NE T02370206 10272 20237 403060167

2010/08/08 05:53
KLJF 080553Z AUTO 02003KT 10SM VCTS BKN024 BKN041 BKN055 23/22 A2971 RMK AO2 LTG DSNT ALQDS

2010/08/08 05:56
KXVG 080556Z AUTO 00000KT 7SM BKN055 18/18 A2967 RMK AO2 LTG DSNT SE

2010/08/08 05:54
KORB 080554Z AUTO 00000KT 10SM BKN018 BKN047 17/14 A2970 RMK AO2

2010/08/08 05:51
KMZH 080551Z AUTO 00000KT 10SM CLR 18/18 A2970 RMK AO2 LTG DSNT S AND SW

2010/08/08 05:53
KBFW 080553Z AUTO 10004KT 10SM SCT024 SCT060 17/14 A2972 RMK AO2

2010/08/08 05:49
KVWU 080549Z AUTO 07006KT 10SM SCT040 18/17 A2970 RMK AO2

2010/08/08 05:50
KAEL 080550Z AUTO 19007KT 10SM SCT060 25/21 A2975 RMK AO2 LTG DSNT N

2010/08/08 05:54
KOWA 080554Z AUTO 19010G16KT 10SM SCT055 SCT080 24/21 A2972 RMK AO2 LTG DSNT N

2010/08/08 05:53
K29G 080553Z AUTO 00000KT 10SM CLR 18/13 A3001 RMK AO2 T01840134 PWINO

2010/08/08 05:53
KMRT 080553Z AUTO 00000KT 7SM CLR 16/15 A3003 RMK AO2 T01610149 10236 20161 402750138

2010/08/08 05:54
KIKW 080554Z AUTO 20006KT 10SM BKN100 22/17 A2986 RMK AO2 T02150166 10256 20210

2010/08/08 05:54
PAHN 080554Z AUTO VRB06KT 10SM OVC013 13/11 A2982 RMK AO2 SLP102 T01330106 10150 20133 53006 TSNO

2010/08/08 05:54
PAKN 080554Z 21005KT 10SM BKN010 OVC040 11/09 A2978 RMK AO2 SLP085 T01060089 10122 20106 53004

2010/08/08 05:53
KMSN 080553Z 19008G16KT 9SM CLR 23/19 A2984 RMK AO2 SLP098 T02330189 10267 20233 402830150 55005

2010/08/08 05:53
KMWT 080553Z AUTO 12003KT 10SM FEW110 27/23 A2989 RMK AO2 SLP108 T02670233 10300 20256 403330228 50003 TSNO

2010/08/08 05:53
KOVE 080553Z AUTO 14007KT 10SM CLR 26/12 A2974 RMK AO2 SLP071 T02560122 10339 20256 50013 TSNO $

2010/08/08 05:55
KRNO 080555Z 02004KT 10SM FEW090 SCT120 BKN150 23/02 A2993 RMK AO2 SLP078 60000 T02280022 10294 20228 53010

2010/08/08 05:53
KSAV 080553Z 00000KT 8SM FEW015 25/24 A2992 RMK AO2 SLP132 T02500239 10289 20250 58005

2010/08/08 05:55
KSCK 080555Z AUTO 29005KT 10SM CLR 20/12 A2975 RMK AO2 SLP075 T02000122 10317 20200 50009 $

2010/08/08 05:53
KSGR 080553Z AUTO 18006KT 10SM CLR 27/24 A2991 RMK AO2 SLP136 T02670244 10317 20267 403500256 51009 TSNO

2010/08/08 05:53
KTLH 080553Z 00000KT 10SM SCT095 24/24 A2992 RMK AO2 SLP130 60001 T02440239 10272 20244 58005

2010/08/08 05:53
KTRI 080553Z 00000KT 7SM SCT055 19/17 A3002 RMK AO2 SLP145 T01940167 10272 20183 58003

2010/08/08 05:53
KTYS 080553Z 00000KT 9SM CLR 22/19 A2997 RMK AO2 SLP135 T02170194 10300 20217 58001

2010/08/08 06:00
KVTP 080600Z AUTO 25014G27KT 10SM CLR 11/06 A3039 RMK AO2

2010/08/08 05:50
KWYS 080550Z AUTO 00000KT 10SM CLR 08/08 A3008 RMK AO2

2010/08/08 05:53
KLAX 080553Z 24004KT 10SM BKN012 16/12 A2991 RMK AO2 SLP127 T01610122 10183 20161 51015

2010/08/08 05:56
K20V 080556Z AUTO 08006KT 10SM -RA SCT029 BKN070 OVC080 12/09 A3026 RMK AO2 P0004

2010/08/08 05:53
K4BM 080553Z AUTO 19004KT 10SM -RA 09/08 A3050 RMK AO2 LTG DSNT NE AND NW

2010/08/08 05:52
K5SM 080552Z AUTO 15003KT 10SM -DZ 09/09 A3044 RMK AO2

2010/08/08 05:54
K7BM 080554Z AUTO 29005KT 7SM -RA SCT023 BKN047 OVC060 13/08 A3039 RMK AO2

2010/08/08 05:52
KABI 080552Z 16008KT 10SM CLR 28/19 A2992 RMK AO2 SLP101 T02780194 10356 20278 403720233 51013 $

2010/08/08 05:58
KBDU 080558Z AUTO 32003KT 10SM CLR 23/12 A3002 RMK AO2

2010/08/08 05:56
KBMI 080556Z AUTO 19007KT 7SM CLR 20/18 A2996 RMK AO2 PWINO 53002 T02000177 10272 20200 403000155 SLP132 $

2010/08/08 05:56
KBOK 080556Z AUTO 16004KT 1/2SM FG OVC001 13/13 A2993 RMK AO2 51014 T01330133 10227 20127 SLP136

2010/08/08 05:53
KBTR 080553Z 25005KT 10SM FEW040 28/25 A2992 RMK AO2 SLP129 OCNL LTGIC CB DSNT N T02780250 10328 20278 403440244 50006

2010/08/08 05:54
KBTV 080554Z 12003KT 10SM CLR 12/10 A2998 RMK AO2 SLP152 T01170100 10178 20117 53002

2010/08/08 05:57
KCCU 080557Z AUTO 14004KT 1/4SM DZ OVC001 08/05 A3053 RMK AO2

2010/08/08 05:53
KCHA 080553Z 04003KT 10SM CLR 26/21 A2996 RMK AO2 SLP135 T02560206 10322 20250 50000

2010/08/08 05:55
KCMA 080555Z AUTO 19003KT 10SM OVC010 16/13 A2989 RMK AO2 SLP131 T01610128 10206 20161 51015 TSNO

2010/08/08 05:55
KCNK 080555Z AUTO 17011KT 10SM CLR 27/21 A2982 RMK AO2 SLP077 T02720211 10333 20272 403610217 53005

2010/08/08 06:02
KCPW 080602Z AUTO 22004KT M1/4SM FG OVC001 07/06 A3052 RMK AO2

2010/08/08 05:53
KDAB 080553Z 00000KT 10SM FEW090 OVC250 26/24 A2994 RMK AO2 SLP137 60000 T02560244 10272 20256 58006

2010/08/08 05:55
KDLH 080555Z 14009KT 10SM SCT002 SCT095 17/16 A2972 RMK AO2 TSE13RAE15 SLP062 OCNL LTG DSNT E FRQ LTG DSNT S-SW P0000 6//// T01720161 10189 20172 402500139 50004 PNO $

2010/08/08 05:55
KEAT 080555Z AUTO 30008KT 10SM BKN100 OVC110 18/13 A2983 RMK AO2 RAB01E36 SLP093 P0000 60000 T01830128 10250 20178 50006

2010/08/08 05:54
KFWA 080554Z 19003KT 10SM CLR 18/17 A2998 RMK AO2 SLP146 T01830167 10250 20183 58000

2010/08/08 05:55
KGPI 080555Z AUTO 00000KT 10SM CLR 15/09 A2981 RMK AO2 SLP078 T01500094 10283 20139 51015

2010/08/08 05:55
KIRK 080555Z AUTO 18005KT 9SM CLR 22/21 A2991 RMK AO2 SLP121 T02220206 10283 20222 403060178 51005

2010/08/08 05:55
KLIC 080555Z AUTO 11009KT 070V130 10SM CLR 19/12 A3002 RMK AO2 SLP076 60029 T01940122 10283 20167 50002

2010/08/08 05:55
KLLJ 080555Z AUTO 00000KT 10SM FEW090 16/07 A2992 RMK AO2 SLP077 T01560067 10289 20144 51017 $

2010/08/08 05:53
KLND 080553Z AUTO 26005KT 10SM CLR 21/03 A2998 RMK AO2 SLP071 T02110033 10300 20206 51005

2010/08/08 05:53
KLXV 080553Z AUTO 06005KT 10SM BKN120 09/08 A3038 RMK AO2 RAE06 SLP110 P0001 60011 T00940083 10172 20089 50011 TSNO

2010/08/08 05:55
KMKG 080555Z 20009KT 10SM BKN055 OVC070 25/22 A2987 RMK AO2 SLP110 T02500217 10261 20244 56004

2010/08/08 06:00
LEJR 080600Z VRB02KT 9999 FEW055 24/13 Q1015

2010/08/08 05:46
MMMZ 080546Z 01004KT 10SM FEW080 SCT220 27/23 A2988 RMK SLP128 52013 918 8/063

2010/08/08 06:00
RPLC 080600Z VRB03KT 9999 FEW020 SCT090 OVC270 26/24 Q1006 A2971 NOSIG 

2010/08/08 05:50
EFET 080550Z AUTO 00000KT CAVOK 17/12 Q1017

2010/08/08 05:50
EFIV 080550Z AUTO VRB01KT CAVOK 19/16 Q1017

2010/08/08 05:50
EFKE 080550Z AUTO 01004KT CAVOK 19/17 Q1016

2010/08/08 05:50
EFKI 080550Z AUTO 06002KT CAVOK 20/18 Q1015

2010/08/08 05:50
EFKS 080550Z AUTO 08003KT 7000 OVC002 16/16 Q1017

2010/08/08 05:50
EFKT 080550Z AUTO VRB01KT CAVOK 18/15 Q1017

2010/08/08 06:00
SBEG 080600Z 00000KT CAVOK 24/22 Q1013

2010/08/08 06:00
SBCF 080600Z 00000KT CAVOK 12/09 Q1021

2010/08/08 05:50
LGAD 080550Z 00000KT CAVOK 24/20 Q1013

2010/08/08 05:50
LGIR 080550Z 16005KT CAVOK 26/18 Q1010 NOSIG

2010/08/08 05:50
LGKL 080550Z 33004KT CAVOK 23/16 Q1010

2010/08/08 05:50
LGKO 080550Z 31007KT 9000 SCT008 26/23 Q1009

2010/08/08 05:50
LGKR 080550Z 00000KT CAVOK 24/17 Q1012 NOSIG

2010/08/08 05:50
LGLM 080550Z VRB03KT 8000 FEW010 26/24 Q1009

2010/08/08 05:50
LGSA 080550Z 27013KT CAVOK 27/16 Q1010

2010/08/08 05:50
LGSM 080550Z 00000KT 9999 FEW018 25/22 Q1009

2010/08/08 05:50
LGTS 080550Z 31010KT CAVOK 26/21 Q1011 NOSIG

2010/08/08 05:50
EGDL 080550Z 34005KT 9999 SCT016 OVC032 13/12 Q1021 WHT NOSIG

2010/08/08 05:50
EGQK 080550Z 22003KT 9999 FEW018 BKN038 13/09 Q1019 BLU TEMPO SCT022 WHT

2010/08/08 05:50
EGQL 080550Z 14006KT 9999 OVC025 14/10 Q1020 BLU

2010/08/08 05:50
EGQS 080550Z 25004KT 9999 FEW020 BKN040 12/10 Q1019 BLU

2010/08/08 05:50
EGVN 080550Z 31005KT 9999 FEW012 BKN018 14/13 Q1020 WHT NOSIG

2010/08/08 05:50
EGXC 080550Z 32008KT CAVOK 12/11 Q1019 BLU

2010/08/08 05:50
EGYD 080550Z 32010KT 5000 BR FEW008 12/11 Q1020 WHT BECMG 9999 NSW BLU

2010/08/08 05:55
ETOU 080555Z AUTO 00000KT 9000 -RA BR FEW002 OVC045 16/15 A3000 RMK AO2 RAE0456B0540 SLP157 P0004 60004 T01640150 10182 20164 53001

2010/08/08 05:55
KBAB 080555Z AUTO 14007KT 10SM CLR 21/13 A2973 RMK AO2 SLP068 T02110130 10325 20207 51012 $

2010/08/08 05:55
KFMH 080555Z AUTO 20005KT 10SM CLR 19/18 A3005 RMK AO2

2010/08/08 05:55
KFTK 080555Z AUTO 00000KT 10SM CLR 21/17 A2999 RMK AO2 SLP149 T02120174 10285 20204 51002 $

2010/08/08 05:55
KGTB 080555Z AUTO 17007KT 10SM CLR 16/11 A2997 RMK AO2 SLP151 T01570105 10185 20148 53001

2010/08/08 05:55
KLFI 080555Z 13005KT 10SM OVC008 25/23 A2999 RMK AO2A SLP158 60000 T02480232 10258 20241 50000

2010/08/08 05:53
KNIP 080553Z 21003KT 10SM SCT043 BKN150 OVC250 25/24 A2993 RMK AO2 SLP132 60003 T02500239 10256 20244 50000

2010/08/08 05:54
KNKT 080554Z AUTO 00000KT 7SM CLR 25/23 A2996 RMK AO2 SLP142 T02500233 10272 20244 58002

2010/08/08 05:53
KNQX 080553Z AUTO 14003KT 10SM BKN042 BKN075 30/25 A2996 RMK AO2 SLP143 6//// T03000250 10311 20294 58010 $

2010/08/08 05:52
KNRB 080552Z AUTO 22003KT 10SM BKN026 BKN042 26/23 A2993 RMK AO2 SLP133 60000 T02560233 10261 20250 50000

2010/08/08 05:55
KPOB 080555Z AUTO 00000KT 10SM CLR 25/24 A2997 RMK AO2 SLP146 T02460240 10286 20239 58002 $

2010/08/08 05:55
KSKA 080555Z AUTO 30010KT 10SM SCT090 BKN110 BKN150 19/09 A2982 RMK AO2 CIG 090 RWY05 SLP084 T01870094 10281 20187 51011

2010/08/08 05:55
MHSC 080555Z AUTO 34003KT 9999 SCT049 22/22 A3000 RMK AO2 SLP116 60056 T02210219 10232 20221 403160212 58003 $

2010/08/08 05:55
PGUA 080555Z AUTO 06011KT 10SM CLR 29/25 A2980 RMK AO2 SLP073 T02910254 10297 20283 56010 VISNO RWY24L $

2010/08/08 05:55
PHHI 080555Z AUTO 07007KT 10SM SCT048 BKN055 24/19 A3009 RMK AO2 SLP177 60000 T02420190 10281 20241 52012 $

2010/08/08 05:56
KABQ 080556Z 35008KT 10SM FEW095 23/12 A3014 RMK AO2 SLP108 T02280122 10328 20228 51017 

2010/08/08 05:55
KVBG 080555Z AUTO 02006KT 10SM OVC005 13/12 A2991 RMK AO2 SLP121 T01280117 10161 20128 50008 TSNO CHINO RWY12 VISNO RWY12 $ 

2010/08/08 05:55
KAST 080555Z AUTO 30005KT 5SM BR OVC003 15/14 A2995 RMK AO2 RAE39 SLP140 P0002 60004 T01500139 10167 20150 50003 

2010/08/08 05:55
KNBG 080555Z AUTO 00000KT 10SM CLR 28/24 A2993 RMK AO2 SLP134 T02830244 10306 20272 403560256 50003 PWINO $ 

2010/08/08 05:55
KPOE 080555Z AUTO 22004KT 10SM CLR 27/24 A2992 RMK AO2 SLP130 T02720239 10328 20272 51007 

2010/08/08 05:56
KJAX 080556Z 00000KT 10SM FEW003 SCT025 SCT150 OVC250 24/23 A2992 RMK AO2 SLP133 60006 T02440233 10250 20244 58000 

2010/08/08 05:56
TJSJ 080556Z 11005KT 10SM FEW025 SCT031 SCT046 28/24 A2996 RMK AO2 RAB45E54 SLP143 P0000 60000 T02830239 10289 20278 58013 

2010/08/08 05:50
HLLT 080550Z 12002KT CAVOK 26/14 Q1016

2010/08/08 05:50
LIBD 080550Z 31007KT 9999 FEW025 22/15 Q1016

2010/08/08 05:45
LIBR 080545Z 34014G24KT 9999 SCT020 22/16 Q1015 NOSIG

2010/08/08 05:50
LICC 080550Z VRB03KT CAVOK 22/15 Q1016

2010/08/08 05:50
LICJ 080550Z 06005KT 030V100 9999 FEW030 25/18 Q1017

2010/08/08 05:50
LIPB 080550Z 09002KT CAVOK 14/12 Q1019

2010/08/08 05:50
LIPE 080550Z 22003KT CAVOK 20/15 Q1017

2010/08/08 05:45
LIPH 080545Z 04003KT CAVOK 20/18 Q1017

2010/08/08 05:50
LIPK 080550Z VRB02KT CAVOK 19/14 Q1016

2010/08/08 05:50
LIPQ 080550Z VRB01KT 9999 FEW060 18/15 Q1017

2010/08/08 05:45
LIPR 080545Z 00000KT CAVOK 18/18 Q1016

2010/08/08 05:45
LIPX 080545Z 00000KT CAVOK 18/18 Q1017

2010/08/08 05:50
LIPZ 080550Z 02006KT CAVOK 20/18 Q1017

2010/08/08 05:50
LIEA 080550Z VRB01KT CAVOK 17/16 Q1019

2010/08/08 05:45
LIEE 080545Z 31005KT CAVOK 16/11 Q1018 NOSIG

2010/08/08 05:50
LIEO 080550Z VRB02KT CAVOK 18/16 Q1019

2010/08/08 05:50
LIMC 080550Z 00000KT CAVOK 17/14 Q1017 NOSIG

2010/08/08 05:50
LIME 080550Z 01004KT 320V030 CAVOK 18/14 Q1018

2010/08/08 05:50
LIMF 080550Z 00000KT CAVOK 18/14 1018

2010/08/08 05:50
LIMJ 080550Z 06007KT 9999 SCT028 22/18 Q1017

2010/08/08 05:50
LIML 080550Z VRB02KT CAVOK 20/15 Q1017 NOSIG

2010/08/08 05:45
LIRA 080545Z 36004KT CAVOK 19/16 Q1017

2010/08/08 05:50
LIRF 080550Z VRB03KT CAVOK 21/15 Q1017 NOSIG

2010/08/08 05:50
LIRN 080550Z VRB03KT CAVOK 21/16 Q1016

2010/08/08 05:45
LIRP 080545Z 12003KT 9999 FEW015 SCT040 16/15 Q1018 NOSIG

2010/08/08 05:50
LIRQ 080550Z VRB02KT 9999 FEW015 BKN030 19/16 Q1018

2010/08/08 05:55
KPHP 080555Z AUTO 26003KT 10SM CLR 20/17 A2976 RMK AO2 SLP053 T02000172 10350 20200 53006 TSNO 

2010/08/08 05:56
KNJK 080556Z AUTO 28006KT 10SM CLR 29/02 A2970 RMK AO2 SLP071 T02940017 10406 20294 51020 TSNO 

2010/08/08 06:00
FAVV 080600Z AUTO 34001KT //// // ////// 05/01 Q1025

2010/08/08 06:00
FAJB 080600Z AUTO 00000KT //// // ////// 09/02 Q1028

2010/08/08 06:00
FASI 080600Z AUTO 00000KT //// // ////// 05/02 Q1028

2010/08/08 06:00
FAGC 080600Z AUTO 32003KT //// // ////// 10/03 Q1027

2010/08/08 05:50
EGNS 080550Z 33005KT 280V340 9999 FEW012 13/10 Q1020 NOSIG

2010/08/08 05:50
EFET 080550Z AUTO 00000KT CAVOK 17/12 Q1017

2010/08/08 05:50
EFIV 080550Z AUTO VRB01KT CAVOK 19/16 Q1017

2010/08/08 05:50
EFKE 080550Z AUTO 01004KT CAVOK 19/17 Q1016

2010/08/08 05:50
EFKI 080550Z AUTO 06002KT CAVOK 20/18 Q1015

2010/08/08 05:50
EFKS 080550Z AUTO 08003KT 7000 OVC002 16/16 Q1017

2010/08/08 05:50
EFKT 080550Z AUTO VRB01KT CAVOK 18/15 Q1017

2010/08/08 05:50
ESGP 080550Z 36003KT 9999 BR BKN150 16/16 Q1013

2010/08/08 05:50
LGAD 080550Z 00000KT CAVOK 24/20 Q1013

2010/08/08 05:50
LGIR 080550Z 16005KT CAVOK 26/18 Q1010 NOSIG

2010/08/08 05:50
LGKL 080550Z 33004KT CAVOK 23/16 Q1010

2010/08/08 05:50
LGKO 080550Z 31007KT 9000 SCT008 26/23 Q1009

2010/08/08 05:50
LGKR 080550Z 00000KT CAVOK 24/17 Q1012 NOSIG

2010/08/08 05:50
LGLM 080550Z VRB03KT 8000 FEW010 26/24 Q1009

2010/08/08 05:50
LGSA 080550Z 27013KT CAVOK 27/16 Q1010

2010/08/08 05:50
LGSM 080550Z 00000KT 9999 FEW018 25/22 Q1009

2010/08/08 05:50
LGTS 080550Z 31010KT CAVOK 26/21 Q1011 NOSIG

2010/08/08 06:00
RPLC 080600Z VRB03KT 9999 FEW020 SCT090 OVC270 26/24 Q1006 A2971 NOSIG

2010/08/08 05:56
KSHV 080556Z 19005KT 10SM SCT290 28/24 A2989 RMK AO2 SLP118 T02780244 10300 20278 403670244 51012 

2010/08/08 05:55
KAAT 080555Z AUTO 20006G19KT 10SM OVC110 22/06 A2998 RMK AO2 SLP104 T02170056 10306 20206 53031 TSNO 

2010/08/08 05:55
KANJ 080555Z AUTO 00000KT 10SM OVC019 18/16 A2977 RMK AO2 RAB18E48 SLP076 P0001 60001 T01830161 10222 20183 56008 

2010/08/08 05:55
OAHR 080555Z 01015KT CAVOK 34/M01 Q1009 RMK FEW FEW080 VIS MIN 9999 BLU

2010/08/08 05:54
KWAL 080554Z AUTO 00000KT 10SM CLR 23/21 A3001 RMK AO2 SLP157 T02280211 10250 20222 58001 TSNO 

2010/08/08 05:56
KSDF 080556Z 00000KT 9SM CLR 24/16 A2998 RMK AO2 SLP145 T02390156 10294 20233 51003 $ 

2010/08/08 05:53
KRQE 080553Z AUTO 00000KT 8SM BKN003 14/13 A3023 RMK AO2 SLP125 60001 T01440133 10178 20144 53004 TSNO 

2010/08/08 05:55
EHDL 080555Z AUTO 29004KT 1700NDV BR SCT001 BKN003 OVC004 16/15 Q1014 RED

2010/08/08 05:55
EHEH 080555Z AUTO 25003KT 5000NDV BR BKN006 OVC007 15/15 Q1015 YLO

2010/08/08 05:55
EHGR 080555Z AUTO 25005KT 3500NDV BR FEW003 OVC004 15/15 Q1015 REDZ YLO

2010/08/08 05:55
EHLW 080555Z AUTO 36004KT 9999NDV BKN023 BKN035 BKN042 17/16 Q1014 WHT

2010/08/08 05:55
EHVK 080555Z AUTO 27005KT 4700NDV BR FEW130 15/15 Q1015 GRN

2010/08/08 05:55
EHWO 080555Z AUTO 24005KT 3800NDV BR FEW009 SCT011 BKN013 16/16 Q1015 GRN

2010/08/08 06:00
OYSY 080600Z 20007KT 150V230 CAVOK 33/18 Q1007

2010/08/08 06:00
LWSK 080600Z 28003KT 9999 FEW050 23/16 Q1015 NOSIG

2010/08/08 06:00
OYRN 080600Z 09009KT CAVOK 29/23 Q1005

2010/08/08 06:00
OYHD 080600Z 28004KT 6000 BKN030 34/29 Q1002

2010/08/08 05:50
HLLM 080550Z 07004KT 7000 FEW020 27/20 Q1017

2010/08/08 05:50
EGNS 080550Z 33005KT 280V340 9999 FEW012 13/10 Q1020 NOSIG

2010/08/08 05:55
EGUL 080555Z AUTO 31006KT 9999 BKN012 BKN017 OVC032 15/14 A3008 RMK AO2 CIG 012V016 SLP187 T01480140 10156 20144 53009

2010/08/08 05:56
ETIC 080556Z AUTO 00000KT 6000 BR SCT001 11/11 A3004 RMK AO2 SLP168 T01080108 10108 20077 56004

2010/08/08 05:50
LIBD 080550Z 31007KT 9999 FEW025 22/15 Q1016

2010/08/08 05:45
LIBR 080545Z 34014G24KT 9999 SCT020 22/16 Q1015 NOSIG

2010/08/08 05:50
LICC 080550Z VRB03KT CAVOK 22/15 Q1016

2010/08/08 05:50
LIEA 080550Z VRB01KT CAVOK 17/16 Q1019

2010/08/08 05:45
LIEE 080545Z 31005KT CAVOK 16/11 Q1018 NOSIG

2010/08/08 05:50
LIEO 080550Z VRB02KT CAVOK 18/16 Q1019

2010/08/08 05:50
LIMC 080550Z 00000KT CAVOK 17/14 Q1017 NOSIG

2010/08/08 05:50
LIME 080550Z 01004KT 320V030 CAVOK 18/14 Q1018

2010/08/08 05:50
LIMF 080550Z 00000KT CAVOK 18/14 1018

2010/08/08 05:50
LIMJ 080550Z 06007KT 9999 SCT028 22/18 Q1017

2010/08/08 05:50
LIML 080550Z VRB02KT CAVOK 20/15 Q1017 NOSIG

2010/08/08 05:50
LIPB 080550Z 09002KT CAVOK 14/12 Q1019

2010/08/08 05:50
LIPE 080550Z 22003KT CAVOK 20/15 Q1017

2010/08/08 05:45
LIPH 080545Z 04003KT CAVOK 20/18 Q1017

2010/08/08 05:50
LIPK 080550Z VRB02KT CAVOK 19/14 Q1016

2010/08/08 05:50
LIPQ 080550Z VRB01KT 9999 FEW060 18/15 Q1017

2010/08/08 05:45
LIPR 080545Z 00000KT CAVOK 18/18 Q1016

2010/08/08 05:45
LIPX 080545Z 00000KT CAVOK 18/18 Q1017

2010/08/08 05:50
LIPZ 080550Z 02006KT CAVOK 20/18 Q1017

2010/08/08 05:45
LIRA 080545Z 36004KT CAVOK 19/16 Q1017

2010/08/08 05:50
LIRF 080550Z VRB03KT CAVOK 21/15 Q1017 NOSIG

2010/08/08 05:50
LIRN 080550Z VRB03KT CAVOK 21/16 Q1016

2010/08/08 05:45
LIRP 080545Z 12003KT 9999 FEW015 SCT040 16/15 Q1018 NOSIG

2010/08/08 05:50
LIRQ 080550Z VRB02KT 9999 FEW015 BKN030 19/16 Q1018

2010/08/08 06:00
LWOH 080600Z 00000KT CAVOK 18/14 Q1017

2010/08/08 05:55
KADW 080555Z AUTO 18004KT 10SM CLR 20/17 A3000 RMK AO2 SLP161 T02040165 10258 20197 51004 $

2010/08/08 05:55
KBAB 080555Z AUTO 14007KT 10SM CLR 21/13 A2973 RMK AO2 SLP068 T02110130 10325 20207 51012 $

2010/08/08 05:55
KCVS 080555Z AUTO 17004KT 10SM CLR 21/21 A3002 RMK AO2 SLP114 T02100210 10326 20210 51015 $

2010/08/08 05:55
KEND 080555Z AUTO 13008KT 10SM CLR 28/22 A2985 RMK AO2 SLP089 T02790223 10359 20279 403760232 51008 $

2010/08/08 05:55
KFAF 080555Z AUTO 11003KT 10SM CLR 24/24 A2999 RMK AO2 DZE0502 SLP156 P0000 60000 T02410241 10277 20225 50000 $

2010/08/08 05:55
KFMH 080555Z AUTO 20005KT 10SM CLR 19/18 A3005 RMK AO2

2010/08/08 05:55
KFRI 080555Z AUTO 17013G19KT 10SM CLR 28/22 A2982 RMK AO2 SLP080 T02800220 10327 20280 55000

2010/08/08 05:55
KFSI 080555Z AUTO 18006KT 10SM CLR 29/21 A2984 RMK AO2 SLP081 T02890214 10363 20285 403760225 51005

2010/08/08 05:55
KFTK 080555Z AUTO 00000KT 10SM CLR 21/17 A2999 RMK AO2 SLP149 T02120174 10285 20204 51002 $

2010/08/08 05:55
KHFF 080555Z AUTO 00000KT 8SM R22/5000VP6000FT CLR 23/22 A2998 RMK AO2 SLP149 T02320220 10282 20231 58001 $

2010/08/08 05:55
KLFI 080555Z 13005KT 10SM OVC008 25/23 A2999 RMK AO2A SLP158 60000 T02480232 10258 20241 50000

2010/08/08 05:55
KLTS 080555Z AUTO 15005KT 10SM CLR 26/22 A2985 RMK AO2 SLP087 T02590219 10362 20259 50005 $

2010/08/08 05:55
KMCF 080555Z AUTO 00000KT 10SM CLR 29/26 A2994 RMK AO2 SLP142 T02900265 10298 20290 58003

2010/08/08 05:55
KMIB 080555Z AUTO 23003KT 10SM CLR 19/17 A2966 RMK AO2 SLP037 T01920172 10298 20192 403000159 52004

2010/08/08 05:52
KNFW 080552Z AUTO 17010KT 10SM CLR 31/19 A2990 RMK AO2 SLP108 T03110189 10372 20306 403890261 51012 $

2010/08/08 05:55
BGTL 080555Z AUTO 13021G29KT 9999 -DZ OVC031 04/01 A2990 RMK AO2 PK WND 13029/0553 UPB0553E0554RAB0554E0555DZB0555 SLP129 P0000 60000 T00400008 10055 20040 56005 $

2010/08/08 05:50
EFKI 080550Z AUTO 06002KT CAVOK 20/18 Q1015

2010/08/08 05:55
KCVS 080555Z AUTO 17004KT 10SM CLR 21/21 A3002 RMK AO2 SLP114 T02100210 10326 20210 51015 $

2010/08/08 05:55
KFAF 080555Z AUTO 11003KT 10SM CLR 24/24 A2999 RMK AO2 DZE0502 SLP156 P0000 60000 T02410241 10277 20225 50000 $

2010/08/08 05:55
KFRI 080555Z AUTO 17013G19KT 10SM CLR 28/22 A2982 RMK AO2 SLP080 T02800220 10327 20280 55000

2010/08/08 05:55
KFSI 080555Z AUTO 18006KT 10SM CLR 29/21 A2984 RMK AO2 SLP081 T02890214 10363 20285 403760225 51005

2010/08/08 05:55
KLTS 080555Z AUTO 15005KT 10SM CLR 26/22 A2985 RMK AO2 SLP087 T02590219 10362 20259 50005 $

2010/08/08 05:55
KMCF 080555Z AUTO 00000KT 10SM CLR 29/26 A2994 RMK AO2 SLP142 T02900265 10298 20290 58003

2010/08/08 05:55
KMIB 080555Z AUTO 23003KT 10SM CLR 19/17 A2966 RMK AO2 SLP037 T01920172 10298 20192 403000159 52004

2010/08/08 05:55
KPAM 080555Z AUTO 00000KT 9SM CLR 26/25 A2990 RMK AO2 SLP126 60034 T02560253 10279 20253 403340253 58008 $

2010/08/08 05:55
KRCA 080555Z AUTO 36016KT 10SM SCT150 OVC230 22/12 A2986 RMK AO2 PK WND 36028/0524 SLP081 T02230121 10319 20207 53014 $

2010/08/08 05:55
KTCM 080555Z AUTO 22006KT 10SM OVC046 16/15 A2992 RMK AO2 SLP134 60011 T01590148 10179 20159 53004

2010/08/08 06:00
MHSR 080600Z 00000KT 2000 BR BKN004 OVC020 20/20 REDZ 2 KM TD CL BR HZ

2010/08/08 05:50
OAUZ 080550Z 31007KT 7000 SCT200 36/13 Q1005 WHT

2010/08/08 05:55
PAED 080555Z 21004KT 10SM OVC048 12/10 A2976 RMK AO2A DZB0536E0551 SLP080 P0000 60006 T01230105 10132 20123 53005

2010/08/08 05:54
KNAK 080554Z AUTO 00000KT 10SM FEW100 23/18 A2999 RMK AO2 SLP157 60005 T02280183 10278 20222 50002 TSNO 

2010/08/08 05:56
K8D3 080556Z AUTO 00000KT 23/22 A2964 RMK AO2 SLP013 T02280217 10317 20228 403330172 51005 PWINO TSNO 

2010/08/08 05:56
KGNR 080556Z AUTO 00000KT 09/05 A2998 RMK AO1 SLP156 T00940050 10128 20094 58001 

2010/08/08 05:56
KABH 080556Z AUTO 05006KT 10SM CLR 18/13 A3009 RMK AO2 SLP100 60006 T01830133 10278 20178 403170133 50013 $ 

2010/08/08 05:56
KNUQ 080556Z 06003KT 10SM CLR 15/12 A2985 RMK AO2 SLP112 T01500122 10217 20144 50009 

2010/08/08 05:56
KMHS 080556Z AUTO 02003KT 10SM FEW085 20/08 A2994 RMK AO2 SLP121 T02000078 10289 20194 51022 TSNO 

2010/08/08 05:55
KHON 080555Z AUTO 28006KT 10SM CLR 25/21 A2967 RMK AO2 SLP035 60000 T02500206 10328 20250 403330228 53009 TSNO 

2010/08/08 05:56
KP53 080556Z AUTO 22003KT 22/19 A2974 RMK AO2 SLP067 T02170189 10233 20206 55005 PWINO TSNO 

2010/08/08 05:56
KNFE 080556Z AUTO 00000KT 1SM BR VV008 23/21 A2999 RMK AO2 SLP158 T02330211 10256 20228 53001 $ 

2010/08/08 05:56
K9L2 080556Z AUTO 22016G22KT 10SM CLR 23/02 A2984 RMK AO2 SLP074 T02280017 10328 20228 50013 $ 

2010/08/08 05:56
KNTU 080556Z 00000KT 10SM BKN010 BKN060 24/23 A2999 RMK AO2 SLP156 T02390233 10256 20239 53001 $ 

2010/08/08 05:50
EGDL 080550Z 34005KT 9999 SCT016 OVC032 13/12 Q1021 WHT NOSIG

2010/08/08 05:50
EGQK 080550Z 22003KT 9999 FEW018 BKN038 13/09 Q1019 BLU TEMPO SCT022 WHT

2010/08/08 05:50
EGQL 080550Z 14006KT 9999 OVC025 14/10 Q1020 BLU

2010/08/08 05:50
EGQS 080550Z 25004KT 9999 FEW020 BKN040 12/10 Q1019 BLU

2010/08/08 05:50
EGVN 080550Z 31005KT 9999 FEW012 BKN018 14/13 Q1020 WHT NOSIG

2010/08/08 05:50
EGXC 080550Z 32008KT CAVOK 12/11 Q1019 BLU

2010/08/08 05:50
EGYD 080550Z 32010KT 5000 BR FEW008 12/11 Q1020 WHT BECMG 9999 NSW BLU

2010/08/08 05:55
EHDL 080555Z AUTO 29004KT 1700NDV BR SCT001 BKN003 OVC004 16/15 Q1014 RED

2010/08/08 05:55
EHGR 080555Z AUTO 25005KT 3500NDV BR FEW003 OVC004 15/15 Q1015 REDZ YLO

2010/08/08 05:55
EHVK 080555Z AUTO 27005KT 4700NDV BR FEW130 15/15 Q1015 GRN

2010/08/08 05:55
EHWO 080555Z AUTO 24005KT 3800NDV BR FEW009 SCT011 BKN013 16/16 Q1015 GRN

2010/08/08 06:00
LEJR 080600Z VRB02KT 9999 FEW055 24/13 Q1015

2010/08/08 05:50
LGAD 080550Z 00000KT CAVOK 24/20 Q1013

2010/08/08 05:50
LGIR 080550Z 16005KT CAVOK 26/18 Q1010 NOSIG

2010/08/08 05:50
LGKL 080550Z 33004KT CAVOK 23/16 Q1010

2010/08/08 05:50
LGKO 080550Z 31007KT 9000 SCT008 26/23 Q1009

2010/08/08 05:50
LGKR 080550Z 00000KT CAVOK 24/17 Q1012 NOSIG

2010/08/08 05:50
LGLM 080550Z VRB03KT 8000 FEW010 26/24 Q1009

2010/08/08 05:50
LGSA 080550Z 27013KT CAVOK 27/16 Q1010

2010/08/08 05:50
LGSM 080550Z 00000KT 9999 FEW018 25/22 Q1009

2010/08/08 05:50
LGTS 080550Z 31010KT CAVOK 26/21 Q1011 NOSIG

2010/08/08 05:50
LICJ 080550Z 06005KT 030V100 9999 FEW030 25/18 Q1017

2010/08/08 05:55
LIYW 080555Z AUTO 00000KT 9999 CLR 20/18 A3005 RMK AO2 SLP173 T01990180 10199 20169 53003

2010/08/08 06:00
LWSK 080600Z 28003KT 9999 FEW050 23/16 Q1015 NOSIG

2010/08/08 05:50
EBAW 080550Z 25006KT 4500 BR BKN005 BKN040 16/14 Q1016 TEMPO SHRA

2010/08/08 05:50
EBCI 080550Z 25006KT 2800 BR SCT003 BKN004 14/12 Q1017 TEMPO -SHRA

2010/08/08 05:50
EBLG 080550Z 26007KT 9999 SCT005 SCT044 14/13 Q1016 TEMPO BKN005

2010/08/08 05:50
EBOS 080550Z 33010KT 9999 FEW010 SCT013 18/14 Q1017 NOSIG

2010/08/08 05:50
EDFH 080550Z 24004KT 210V290 9999 FEW001 15/13 Q1016

2010/08/08 05:55
EHBK 080555Z AUTO 25006KT 220V290 9000NDV SCT004 BKN006 OVC007 15/15 Q1015 REDZ BECMG BKN040

2010/08/08 05:55
EHDL 080555Z AUTO 29004KT 1700NDV BR SCT001 BKN003 OVC004 16/15 Q1014 RED

2010/08/08 05:55
EHGR 080555Z AUTO 25005KT 3500NDV BR FEW003 OVC004 15/15 Q1015 REDZ YLO

2010/08/08 05:55
EHLW 080555Z AUTO 36004KT 9999NDV BKN023 BKN035 BKN042 17/16 Q1014 WHT

2010/08/08 05:55
EHVK 080555Z AUTO 27005KT 4700NDV BR FEW130 15/15 Q1015 GRN

2010/08/08 05:55
EHWO 080555Z AUTO 24005KT 3800NDV BR FEW009 SCT011 BKN013 16/16 Q1015 GRN

2010/08/08 05:50
ELLX 080550Z 27007KT 230V300 9999 FEW006 14/12 Q1017 NOSIG

2010/08/08 05:55
ETAD 080555Z AUTO 23007KT 9999 OVC002 15/15 A3001 RMK AO2 SLP152 60014 T01510149 10180 20147 53003 $

2010/08/08 05:55
ETAR 080555Z AUTO 23003KT 9999 BKN055 17/15 A3000 RMK AO2 SLP153 60004 70004 T01660147 10169 20148 53002 $

2010/08/08 05:55
ETEB 080555Z AUTO 23004KT 9999 BKN140 12/12 A3005 RMK AO2 SLP168 60000 T01230121 10128 20118 56003

2010/08/08 05:56
ETIC 080556Z AUTO 00000KT 6000 BR SCT001 11/11 A3004 RMK AO2 SLP168 T01080108 10108 20077 56004

2010/08/08 05:55
ETOU 080555Z AUTO 00000KT 9000 -RA BR FEW002 OVC045 16/15 A3000 RMK AO2 RAE0456B0540 SLP157 P0004 60004 T01640150 10182 20164 53001

2010/08/08 05:55
KCAO 080555Z AUTO 22008KT 10SM CLR 23/14 A3003 RMK AO2 SLP081 T02330144 10344 20233 51009 TSNO 

2010/08/08 05:53
KRNM 080553Z 28004KT 10SM CLR 12/11 A2993 RMK AO2 SLP124 T01220106 10250 20117 51017 

2010/08/08 05:56
KNBT 080556Z AUTO 09008KT 6SM HZ CLR 28/24 A2995 RMK AO2 SLP145 T02830239 10289 20278 58002 TSNO $ 

2010/08/08 05:56
KFLG 080556Z AUTO 00000KT 1 1/4SM BR OVC001 13/13 A3024 RMK AO2 SLP157 T01330128 10161 20128 50004 TSNO 

2010/08/08 05:56
KLWS 080556Z 23004KT 10SM CLR 23/08 A2978 RMK AO2 SLP075 T02330083 10322 20211 51018 

2010/08/08 05:56
KWMC 080556Z AUTO 26010KT 10SM CLR 22/M01 A2987 RMK AO2 SLP059 60000 T02171006 10328 20161 53014 

2010/08/08 05:56
KSXT 080556Z AUTO 34009G16KT 8SM CLR 13/12 A2998 RMK AO2 SLP113 T01330122 10222 20133 50003 TSNO 

2010/08/08 05:56
PASY 080556Z AUTO 28023G28KT 8SM OVC001 10/09 A2905 RMK AO2 PK WND 26031/0514 SLP837 6//// T01000094 10106 20100 53007 TSNO PNO $ 

2010/08/08 05:56
PAPG 080556Z 00000KT 4SM SCT005 BKN018 OVC024 12/11 A2988 RMK AO1 WEA

2010/08/08 05:56
PAPH 080556Z AUTO 36003KT 10SM OVC080 12/09 A2980 RMK AO1 10130 20110 57010 PNO

2010/08/08 05:56
PAPN 080556Z AUTO 00000KT 9SM FEW017 BKN022 09/09 A2981 RMK AO2 PWINO TSNO 56004 T00940088 10116 20094 SLP097

2010/08/08 05:56
PARC 080556Z AUTO 13003KT 10SM SCT022 SCT035 OVC060 10/05 A2967 RMK AO1 PNO

2010/08/08 05:56
PASA 080556Z AUTO 06007KT 3/4SM OVC003 09/07 A2961 RMK AO1 10090 20080 57010 PNO

2010/08/08 05:56
PASD 080556Z AUTO 18012KT 10SM BKN013 BKN019 OVC023 11/10 A2982 RMK AO1 10150 20110 57003 PNO

2010/08/08 05:56
PASH 080556Z AUTO 34006KT 10SM OVC003 08/07 A2965 RMK AO1 10090 20080 54000 PNO

2010/08/08 05:56
PASK 080556Z AUTO 25007KT 10SM BKN011 OVC080 14/11 A2958 RMK AO1 10160 20140 52003 PNO

2010/08/08 05:56
PASL 080556Z AUTO 00000KT 10SM BKN030 BKN035 OVC047 12/10 A2975 RMK AO1 10140 20120 54000 PNO

2010/08/08 05:56
PASM 080556Z AUTO 19007KT 10SM OVC039 12/09 A2966 RMK AO1 10140 20120 54000 PNO

2010/08/08 05:56
PASX 080556Z AUTO 00000KT 10SM FEW018 BKN024 OVC060 13/10 A2977 RMK AO1 10130 20120 52007 PNO

2010/08/08 05:56
PATG 080556Z AUTO 18006KT 10SM OVC010 11/09 A2974 RMK AO1 10120 20110 57003 PNO

2010/08/08 05:56
PAUN 080556Z AUTO 25006KT 10SM SCT015 BKN025 BKN070 14/09 A2962 RMK AO1 10160 20140 52007 PNO

2010/08/08 05:56
PAVD 080556Z 09003KT 5SM FEW010 SCT030 OVC040 10/08 A2980 RMK AO1 0547Z WEA

2010/08/08 05:56
PAWG 080556Z 00000KT 3SM BKN020 OVC027 12/11 A2990 RMK AO1 WEA

2010/08/08 05:56
PAWS 080556Z AUTO 00000KT 7SM FEW011 SCT016 BKN036 11/10 A2977 RMK AO1 10150 20110 52007 PNO

2010/08/08 05:56
PAZK 080556Z AUTO 24007KT 10SM FEW039 BKN048 OVC060 08/06 A2974 RMK AO1 10140 20080 52007 PNO

2010/08/08 05:56
KITH 080556Z AUTO 08003KT 10SM CLR 13/11 A3004 RMK AO2 53002 T01270105 10194 20116 SLP170

2010/08/08 05:56
KJXN 080556Z 22004KT 10SM CLR 18/17 A2994 RMK AO2 SLP134 T01830167 10239 20183 55004

2010/08/08 05:56
KLRD 080556Z AUTO 16015KT 10SM CLR 31/23 A2991 RMK AO2 51017 T03050233 10372 20305 SLP114

2010/08/08 05:56
KMDT 080556Z 00000KT 9SM FEW065 21/17 A2999 RMK AO2 SLP155 T02110172 10256 20211 53005

2010/08/08 05:56
KOWB 080556Z AUTO 00000KT 9SM CLR 20/18 A2997 RMK AO2 53002 T02000177 10294 20200 SLP143

2010/08/08 05:56
KSGH 080556Z AUTO 00000KT 8SM CLR 17/16 A3002 RMK AO2 56000 T01720161 10250 20166 SLP157 $

2010/08/08 05:58
KSGJ 080558Z AUTO 15003KT 10SM SCT026 OVC070 26/24 A2994 RMK AO2 SLP136 60002 T02560244 10261 20250 50001

2010/08/08 05:55
KSME 080555Z AUTO 00000KT 5SM BR 19/18 A2999 RMK AO2

2010/08/08 05:55
KTKV 080555Z AUTO 01006KT 3/4SM +RA OVC004 18/17 A2984 RMK AO2 P0295

2010/08/08 05:56
KUKI 080556Z AUTO 00000KT 10SM CLR 19/11 A2981 RMK AO2 SLP087 60000 T01940111 10328 20189 51017

2010/08/08 05:53
KUNI 080553Z AUTO 00000KT 10SM CLR 19/15 A3000 RMK AO2

2010/08/08 05:55
KY51 080555Z AUTO 17004KT 7SM CLR 22/21 A2981 RMK AO1 T02180207 10261 20218

2010/08/08 05:56
TJSJ 080556Z 11005KT 10SM FEW025 SCT031 SCT046 28/24 A2996 RMK AO2 RAB45E54 SLP143 P0000 60000 T02830239 10289 20278 58013

2010/08/08 05:56
PAAK 080556Z AUTO 18014G21KT 5SM OVC007 11/08 A2939 RMK AO1 10130 20110 57020 PNO

2010/08/08 05:56
PABL 080556Z AUTO 32004KT 10SM OVC065 14/09 A2961 RMK AO1 10160 20140 52003 PNO

2010/08/08 05:56
PABV 080556Z AUTO 04003KT 10SM OVC013 12/08 A2977 RMK AO1 10140 20110 52007 PNO

2010/08/08 05:56
PACM 080556Z AUTO 18006KT 10SM OVC017 12/09 A2963 RMK AO2 TSNO 56006 60000 T01220094 10133 20116 RAB20E30 P0000 SLP029 $

2010/08/08 05:56
PADK 080556Z 24031G36KT 4SM OVC008 11/09 A2931 RMK AO1 10130 20110 57010 PNO

2010/08/08 05:56
PADL 080556Z 18004KT 10SM BKN011 10/08 A2978 RMK AO1 10130 20100 52003 PNO TSNO

2010/08/08 05:56
PAEM 080556Z AUTO 00000KT 5SM FEW030 FEW039 OVC049 13/10 A2959 RMK AO1 10140 20120 57003 PNO

2010/08/08 05:56
PAFE 080556Z AUTO 09006KT 10SM FEW020 SCT026 OVC035 12/10 A2990 RMK AO1 10140 20120 52007 PNO

2010/08/08 05:56
PAFM 080556Z AUTO 00000KT 10SM BKN050 OVC100 13/11 A2961 RMK AO1 10140 20130 52010 PNO

2010/08/08 05:56
PAGL 080556Z AUTO 27006KT 10SM SCT021 BKN036 OVC049 15/12 A2963 RMK AO1 10170 20150 52003 PNO

2010/08/08 05:56
PAGM 080556Z AUTO 04012KT 1 1/4SM OVC003 08/06 A2961 RMK AO1 10090 20080 57007

2010/08/08 05:56
PAGS 080556Z AUTO 00000KT 10SM FEW031 OVC043 12/11 A2986 RMK AO1 10140 20120 52007 PNO

2010/08/08 05:56
PAHP 080556Z AUTO 14010KT 10SM OVC010 11/08 A2959 RMK AO1 10120 20110 57014 PNO TSNO

2010/08/08 05:56
PAHY 080556Z AUTO 00000KT 10SM OVC015 13/11 A2992 RMK AO1 10140 20130 52007 PNO

2010/08/08 05:56
PAII 080556Z AUTO 22004KT 10SM OVC004 09/08 A2984 RMK AO1 10110 20090 57003 PNO

2010/08/08 05:56
PAIN 080556Z AUTO 00000KT 10SM OVC065 14/08 A2969 RMK AO1 10160 20140 52010 PNO

2010/08/08 05:56
PAJC 080556Z AUTO 35004KT 10SM BKN017 OVC025 14/11 A2979 RMK AO1 10160 20140 57007 PNO

2010/08/08 05:56
PAKK 080556Z AUTO 23004KT 10SM BKN017 OVC065 15/11 A2958 RMK AO1 10160 20140 52007 PNO

2010/08/08 05:56
PAKP 080556Z AUTO 05006KT 10SM BKN041 OVC050 09/07 A2961 RMK AO1 10110 20090 52010

2010/08/08 05:56
PAMD 080556Z AUTO 21007KT 7SM BKN010 OVC015 12/09 A2981 RMK AO1 10130 20120 54000 PNO

2010/08/08 05:56
PAMH 080556Z 22005KT 10SM OVC075 12/09 A2969 RMK AO1 PNO

2010/08/08 05:56
PAMM 080556Z AUTO 20006KT 10SM BKN017 BKN024 OVC029 14/10 A2993 RMK AO1 10150 20140 52003 PNO

2010/08/08 05:56
PAMY 080556Z 16014KT 10SM OVC012 10/07 A2959 RMK AO1 10130 20100 57017

2010/08/08 05:56
PANI 080556Z AUTO 00000KT 10SM FEW015 OVC023 12/09 A2972 RMK AO1 10120 20120 52003 PNO

2010/08/08 05:56
PANV 080556Z AUTO 19006KT 10SM FEW013 BKN033 13/11 A2966 RMK AO1 10140 20120 52003 PNO

2010/08/08 05:56
PAOU 080556Z AUTO 00000KT 5SM BR CLR 12/11 A2974 RMK AO2 PWINO TSNO 56017 T01220111 10138 20105 SLP075 $

2010/08/08 05:55
PACZ 080555Z AUTO 21004KT 10SM OVC008 11/09 A2960 RMK AO1 T01060089

2010/08/08 05:55
PALU 080555Z AUTO 08015KT 10SM 11/11 A2964 RMK AO1 T01060106

2010/08/08 05:55
PATC 080555Z AUTO 01017KT 2 1/2SM OVC006 08/07 A2962 RMK AO1 T00830073

2010/08/08 05:55
PAIM 080555Z AUTO 00000KT 10SM BKN050 OVC080 13/12 A2964 RMK AO1 T01330123

2010/08/08 05:55
PATL 080555Z AUTO 22006KT 10SM BKN060 12/09 A2971 RMK AO1 T01170095

2010/08/08 05:55
PAEH 080555Z AUTO 11005KT 10SM BKN048 OVC050 09/08 A2969 RMK AO1 T00940078

2010/08/08 05:55
PASV 080555Z AUTO 20004KT 2 1/2SM SCT005 OVC012 10/10 A2974 RMK AO1 T01000101

2010/08/08 06:00
LEMO 080600Z 05001KT CAVOK 27/14 Q1015 NOSIG

2010/08/08 05:52
KEVM 080552Z AUTO 00000KT 10SM CLR 17/15 A2970 RMK AO1

2010/08/08 05:54
KELO 080554Z AUTO 00000KT 10SM BKN060 OVC075 18/16 A2974 RMK AO2

2010/08/08 05:55
KANE 080555Z AUTO 36003KT 10SM BKN037 22/21 A2971 RMK AO2 P0001

2010/08/08 05:55
KROX 080555Z AUTO 11004KT 10SM CLR 18/17 A2969 RMK AO2

2010/08/08 05:58
KSYN 080558Z AUTO 21007KT 10SM VCTS CLR 26/21 A2970 RMK AO2 LTG DSNT N T02610212 10295 20249 403050166

2010/08/08 05:56
KVVV 080556Z AUTO 00000KT 10SM CLR 25/23 A2965 RMK AO2

2010/08/08 05:55
KROS 080555Z AUTO 06006KT 10SM TS BKN030 BKN037 20/18 A2972 RMK AO2 LTG DSNT SE AND SW 60002 T01950183 10270 20191 402800141

2010/08/08 05:52
KHCD 080552Z AUTO 19006KT 10SM SCT048 SCT065 SCT090 24/21 A2968 RMK AO2 T02350207 TSNO

2010/08/08 05:53
KSGS 080553Z AUTO 21007KT 10SM TS CLR 27/22 A2969 RMK AO2 LTG DSNT N AND NE T02660215 10306 20266 403200191

2010/08/08 05:52
KMJQ 080552Z AUTO 19009G14KT 10SM CLR 24/22 A2974 RMK AO2

2010/08/08 05:55
KHCO 080555Z AUTO 12005KT 10SM SCT055 21/19 A2968 RMK AO2

2010/08/08 05:54
KLVN 080554Z AUTO 19006KT 10SM VCTS SCT050 SCT075 25/22 A2970 RMK AO2 LTG DSNT NW THRU E

2010/08/08 05:53
KPEX 080553Z AUTO 25003KT 10SM -TSRA SCT029 BKN045 BKN055 24/19 A2969 RMK AO2 LTG DSNT ALQS P0002 60003 T02360191 10294 20232 403030156

2010/08/08 05:55
KJMR 080555Z AUTO 09003KT 10SM VCTS SCT023 SCT060 18/17 A2972 RMK AO2 LTG DSNT SE THRU SW

2010/08/08 05:55
KJKJ 080555Z AUTO 00000KT 10SM CLR 23/21 A2964 RMK AO2

2010/08/08 05:54
KMVE 080554Z AUTO 22004KT 7SM SCT050 25/24 A2964 RMK AO2 LTG DSNT NE

2010/08/08 05:53
KTKC 080553Z AUTO 21012G16KT 10SM CLR 25/21 A2969 RMK AO2 LTG DSNT NE AND E T02500210 10285 20250 403010181

2010/08/08 05:54
KGYL 080554Z AUTO 19007KT 10SM BKN050 BKN065 25/22 A2968 RMK AO2 LTG DSNT NW THRU NE T02450217 10288 20245 402970172

2010/08/08 05:54
KDXX 080554Z AUTO 00000KT 5SM BR CLR 23/23 A2964 RMK AO2

2010/08/08 05:51
KHZX 080551Z AUTO 00000KT 4SM CLR 18/17 A2971 RMK AO2 LTG DSNT S

2010/08/08 05:52
KCDD 080552Z AUTO 00000KT 4SM BR SCT032 19/19 A2975 RMK AO2

2010/08/08 05:54
KSAZ 080554Z AUTO 00000KT 10SM BKN025 OVC032 20/20 A2968 RMK AO2 P0001

2010/08/08 05:51
KONA 080551Z AUTO 21006KT 10SM BKN070 OVC090 25/20 A2974 RMK AO2 LTG DSNT NW

2010/08/08 05:53
KFOZ 080553Z AUTO 00000KT 10SM CLR 17/16 A2971 RMK AO2

2010/08/08 05:54
KAQP 080554Z AUTO 17003KT 7SM CLR 24/24 A2964 RMK AO2 LTG DSNT E

2010/08/08 05:54
KETH 080554Z AUTO 13003KT 10SM CLR 21/21 A2968 RMK AO2

2010/08/08 05:54
KOVL 080554Z AUTO 21003KT 10SM SCT049 SCT055 BKN070 24/21 A2967 RMK AO2 LTG DSNT N AND NE T02370206 10272 20237 403060167

2010/08/08 05:53
KLJF 080553Z AUTO 02003KT 10SM VCTS BKN024 BKN041 BKN055 23/22 A2971 RMK AO2 LTG DSNT ALQDS

2010/08/08 05:56
KXVG 080556Z AUTO 00000KT 7SM BKN055 18/18 A2967 RMK AO2 LTG DSNT SE

2010/08/08 05:54
KORB 080554Z AUTO 00000KT 10SM BKN018 BKN047 17/14 A2970 RMK AO2

2010/08/08 05:51
KMZH 080551Z AUTO 00000KT 10SM CLR 18/18 A2970 RMK AO2 LTG DSNT S AND SW

2010/08/08 05:53
KBFW 080553Z AUTO 10004KT 10SM SCT024 SCT060 17/14 A2972 RMK AO2

2010/08/08 05:49
KVWU 080549Z AUTO 07006KT 10SM SCT040 18/17 A2970 RMK AO2

2010/08/08 05:50
KAEL 080550Z AUTO 19007KT 10SM SCT060 25/21 A2975 RMK AO2 LTG DSNT N

2010/08/08 05:54
KOWA 080554Z AUTO 19010G16KT 10SM SCT055 SCT080 24/21 A2972 RMK AO2 LTG DSNT N

2010/08/08 05:53
K29G 080553Z AUTO 00000KT 10SM CLR 18/13 A3001 RMK AO2 T01840134 PWINO

2010/08/08 05:53
KMRT 080553Z AUTO 00000KT 7SM CLR 16/15 A3003 RMK AO2 T01610149 10236 20161 402750138

2010/08/08 05:54
KIKW 080554Z AUTO 20006KT 10SM BKN100 22/17 A2986 RMK AO2 T02150166 10256 20210

2010/08/08 05:55
KDRA 080555Z AUTO 09012KT 10SM CLR 28/07 A2984 RMK AO2 SLP050 T02780067 10344 20272 50010 TSNO $

2010/08/08 05:54
KWAL 080554Z AUTO 00000KT 10SM CLR 23/21 A3001 RMK AO2 SLP157 T02280211 10250 20222 58001 TSNO

2010/08/08 05:54
KWAL 080554Z AUTO 00000KT 10SM CLR 23/21 A3001 RMK AO2 SLP157 T02280211 10250 20222 58001 TSNO

2010/08/08 06:01
KFKA 080601Z AUTO 21009KT 10SM CLR 24/22 A2979 RMK AO2 LTG DSNT NW T02420217

2010/08/08 05:54
KMQE 080554Z AUTO 19009KT 17/16 A3003 RMK AO1 SLP175 T01720156 10217 20167 51002

2010/08/08 05:54
KAVP 080554Z 11004KT 10SM FEW050 17/12 A3002 RMK AO2 SLP156 T01670117 10244 20167 53003

2010/08/08 05:54
K12N 080554Z AUTO 00000KT 16/14 A3002 RMK AO2 SLP159 T01560144 10228 20156 51002 PWINO TSNO

2010/08/08 05:54
K1V4 080554Z AUTO 09/08 A3000 RMK AO2 SLP157 T00890083 10161 20089 53002 PWINO TSNO

2010/08/08 05:54
KRIC 080554Z 00000KT 10SM CLR 22/18 A3000 RMK AO2 SLP160 T02220178 10272 20217 58001

2010/08/08 05:54
KDMH 080554Z AUTO 25/16 A3000 RMK AO2 SLP158 T02500156 10283 20250 50003 PWINO TSNO

2010/08/08 05:54
KWAL 080554Z AUTO 00000KT 10SM CLR 23/21 A3001 RMK AO2 SLP157 T02280211 10250 20222 58001 TSNO

2010/08/08 05:54
KGSO 080554Z 00000KT 8SM CLR 22/19 A3002 RMK AO2 SLP152 T02220189 10272 20222 58002

2010/08/08 05:54
KROA 080554Z 00000KT 9SM FEW080 22/18 A3006 RMK AO2 SLP165 T02170178 10256 20211 58001 $

2010/08/08 05:54
KBKB 080554Z AUTO VRB03KT 10SM CLR 27/24 A2989 RMK AO2 SLP147 T02720244 10339 20272 51006 $

2010/08/08 05:54
KCOU 080554Z AUTO 13005KT 10SM CLR 23/21 A2991 RMK AO2 SLP120 T02280211 10289 20228 403060189 50004 TSNO

2010/08/08 05:54
KACY 080554Z 16003KT 10SM CLR 22/20 A3003 RMK AO2 SLP166 T02220200 10256 20222 50003

2010/08/08 05:54
KMTP 080554Z AUTO VRB03KT 22/19 A3004 RMK AO2 SLP172 T0270194 10222 20211 52005 PWINO TSNO

2010/08/08 05:53
K6R6 080553Z AUTO 10005KT 28/18 A2991 RMK AO2 SLP088 T02780178 10339 20278 403560211 51014 PWINO TSNO

2010/08/08 05:53
KPQN 080553Z AUTO 22010G17KT 10SM CLR 25/23 A2972 RMK AO2

2010/08/08 05:54
KFGN 080554Z AUTO 15005KT 10SM CLR 21/17 A2969 RMK AO2

2010/08/08 05:53
KPNM 080553Z AUTO 10003KT 4SM TSBR SCT009 SCT050 BKN070 20/18 A2970 RMK AO2 P0013 LTG DSNT ALQDS

2010/08/08 05:53
KPWC 080553Z AUTO 00000KT 4SM BR CLR 18/17 A2971 RMK AO2

2010/08/08 05:53
KFFM 080553Z AUTO 07005KT 10SM SCT060 21/19 A2963 RMK AO2

2010/08/08 05:53
KGDB 080553Z AUTO 19003KT 7SM CLR 23/22 A2968 RMK AO2 LTG DSNT NE AND E T02320223 10295 20232 403080175

2010/08/08 05:53
KAIT 080553Z AUTO 00000KT 2SM BR BKN001 18/16 A2968 RMK AO2 LTG DSNT SE AND S

2010/08/08 05:54
KGHW 080554Z AUTO 17003KT 7SM VCTS CLR 23/21 A2970 RMK AO2 LTG DSNT SE

2010/08/08 05:53
KMWM 080553Z AUTO 19012KT 10SM CLR 25/22 A2971 RMK AO2

2010/08/08 05:55
KULM 080555Z AUTO 20012G18KT 10SM SCT055 25/22 A2968 RMK AO2 LTG DSNT N AND NE

2010/08/08 05:53
KBBB 080553Z AUTO 20006KT 7SM CLR 24/23 A2969 RMK AO2 LTG DSNT E AND SE

2010/08/08 05:53
KTWM 080553Z AUTO 05004KT 10SM SCT003 SCT011 BKN018 17/14 A2971 RMK AO2 P0037 LTG DSNT NE

2010/08/08 05:55
KMGG 080555Z AUTO 00000KT 10SM -VCTSRA BKN041 BKN048 BKN060 25/22 A2970 RMK AO2 LTG DSNT SW THRU NE T02500221 10290 20240 403010152

2010/08/08 05:49
KMOX 080549Z AUTO 16005KT 4SM BR CLR 24/24 A2962 RMK AO2 LTG DSNT E

2010/08/08 05:54
KONZ 080554Z AUTO 21007KT 10SM CLR 23/17 A2994 RMK AO2

2010/08/08 05:54
KTEW 080554Z AUTO 00000KT 7SM CLR 18/16 A2993 RMK AO2

2010/08/08 05:50
KCVH 080550Z AUTO 26005KT 10SM OVC011 13/11 A2989 RMK AO1

2010/08/08 05:56
KDVP 080556Z AUTO 20014KT 10SM CLR 25/21 A2973 RMK AO2 T02480205 10285 20246 402960172

2010/08/08 05:54
KDYT 080554Z AUTO 06011KT 10SM BKN004 BKN009 19/17 A2972 RMK AO2 LTG DSNT S

2010/08/08 05:59
KFSO 080559Z AUTO 16005KT 10SM SCT070 12/10 A2996 RMK AO2

2010/08/08 05:54
KFBL 080554Z AUTO 19007KT 10SM VCTS SCT060 25/21 A2972 RMK AO2 LTG DSNT N

2010/08/08 05:58
KLYV 080558Z AUTO 19008KT 10SM CLR 23/21 A2972 RMK AO2

2010/08/08 05:56
KEFK 080556Z AUTO 20004KT 10SM SCT060 08/07 A3000 RMK AO2

2010/08/08 05:54
KRRT 080554Z AUTO 12006KT 10SM SCT043 18/16 A2970 RMK AO2 TSNO

2010/08/08 05:55
KTOB 080555Z AUTO 21010KT 10SM CLR 24/22 A2976 RMK AO2 LTG DSNT N

2010/08/08 05:54
KLXL 080554Z AUTO 00000KT 10SM BKN030 BKN038 BKN060 20/18 A2967 RMK AO2

2010/08/08 05:55
PACZ 080555Z AUTO 21004KT 10SM OVC008 11/09 A2960 RMK AO1 T01060089

2010/08/08 05:55
PALU 080555Z AUTO 08015KT 10SM 11/11 A2964 RMK AO1 T01060106

2010/08/08 05:55
PATC 080555Z AUTO 01017KT 2 1/2SM OVC006 08/07 A2962 RMK AO1 T00830073

2010/08/08 05:55
PAIM 080555Z AUTO 00000KT 10SM BKN050 OVC080 13/12 A2964 RMK AO1 T01330123

2010/08/08 05:55
PATL 080555Z AUTO 22006KT 10SM BKN060 12/09 A2971 RMK AO1 T01170095

2010/08/08 05:55
PAEH 080555Z AUTO 11005KT 10SM BKN048 OVC050 09/08 A2969 RMK AO1 T00940078

2010/08/08 05:55
PASV 080555Z AUTO 20004KT 2 1/2SM SCT005 OVC012 10/10 A2974 RMK AO1 T01000101

2010/08/08 05:55
KMBG 080555Z AUTO 13003KT 10SM CLR 22/15 A2968 RMK AO2 SLP037 T02170150 10328 20189 403440189 51006 TSNO

2010/08/08 05:54
KRFD 080554Z 20008KT 10SM CLR 21/18 A2989 RMK AO2 SLP117 T02110183 10267 20211 402830167 56002

2010/08/08 05:56
KCHS 080556Z 00000KT 7SM CLR 25/24 A2992 RMK AO2 SLP131 T02500239 10283 20250 58005

2010/08/08 05:55
KAST 080555Z AUTO 30005KT 5SM BR OVC003 15/14 A2995 RMK AO2 RAE39 SLP140 P0002 60004 T01500139 10167 20150 50003

2010/08/08 05:56
KABQ 080556Z 35008KT 10SM FEW095 23/12 A3014 RMK AO2 SLP108 T02280122 10328 20228 51017

2010/08/08 05:55
KVBG 080555Z AUTO 02006KT 10SM OVC005 13/12 A2991 RMK AO2 SLP121 T01280117 10161 20128 50008 TSNO CHINO RWY12 VISNO RWY12 $

2010/08/08 05:56
TJSJ 080556Z 11005KT 10SM FEW025 SCT031 SCT046 28/24 A2996 RMK AO2 RAB45E54 SLP143 P0000 60000 T02830239 10289 20278 58013

2010/08/08 05:55
KPOE 080555Z AUTO 22004KT 10SM CLR 27/24 A2992 RMK AO2 SLP130 T02720239 10328 20272 51007

2010/08/08 05:56
KJAX 080556Z 00000KT 10SM FEW003 SCT025 SCT150 OVC250 24/23 A2992 RMK AO2 SLP133 60006 T02440233 10250 20244 58000

2010/08/08 05:55
KPHP 080555Z AUTO 26003KT 10SM CLR 20/17 A2976 RMK AO2 SLP053 T02000172 10350 20200 53006 TSNO

2010/08/08 05:56
KSHV 080556Z 19005KT 10SM SCT290 28/24 A2989 RMK AO2 SLP118 T02780244 10300 20278 403670244 51012

2010/08/08 05:55
KANJ 080555Z AUTO 00000KT 10SM OVC019 18/16 A2977 RMK AO2 RAB18E48 SLP076 P0001 60001 T01830161 10222 20183 56008

2010/08/08 05:55
KAAT 080555Z AUTO 20006G19KT 10SM OVC110 22/06 A2998 RMK AO2 SLP104 T02170056 10306 20206 53031 TSNO

2010/08/08 05:56
KSDF 080556Z 00000KT 9SM CLR 24/16 A2998 RMK AO2 SLP145 T02390156 10294 20233 51003 $

2010/08/08 05:53
KRQE 080553Z AUTO 00000KT 8SM BKN003 14/13 A3023 RMK AO2 SLP125 60001 T01440133 10178 20144 53004 TSNO

2010/08/08 05:54
KNAK 080554Z AUTO 00000KT 10SM FEW100 23/18 A2999 RMK AO2 SLP157 60005 T02280183 10278 20222 50002 TSNO

2010/08/08 05:56
K8D3 080556Z AUTO 00000KT 23/22 A2964 RMK AO2 SLP013 T02280217 10317 20228 403330172 51005 PWINO TSNO

2010/08/08 05:56
KGNR 080556Z AUTO 00000KT 09/05 A2998 RMK AO1 SLP156 T00940050 10128 20094 58001

2010/08/08 05:56
KNUQ 080556Z 06003KT 10SM CLR 15/12 A2985 RMK AO2 SLP112 T01500122 10217 20144 50009

2010/08/08 05:56
KMHS 080556Z AUTO 02003KT 10SM FEW085 20/08 A2994 RMK AO2 SLP121 T02000078 10289 20194 51022 TSNO

2010/08/08 05:55
KHON 080555Z AUTO 28006KT 10SM CLR 25/21 A2967 RMK AO2 SLP035 60000 T02500206 10328 20250 403330228 53009 TSNO

2010/08/08 05:56
K9L2 080556Z AUTO 22016G22KT 10SM CLR 23/02 A2984 RMK AO2 SLP074 T02280017 10328 20228 50013 $

2010/08/08 05:56
KP53 080556Z AUTO 22003KT 22/19 A2974 RMK AO2 SLP067 T02170189 10233 20206 55005 PWINO TSNO

2010/08/08 05:56
KNFE 080556Z AUTO 00000KT 1SM BR VV008 23/21 A2999 RMK AO2 SLP158 T02330211 10256 20228 53001 $

2010/08/08 05:56
KNTU 080556Z 00000KT 10SM BKN010 BKN060 24/23 A2999 RMK AO2 SLP156 T02390233 10256 20239 53001 $

2010/08/08 05:55
KCAO 080555Z AUTO 22008KT 10SM CLR 23/14 A3003 RMK AO2 SLP081 T02330144 10344 20233 51009 TSNO

2010/08/08 05:56
KLWS 080556Z 23004KT 10SM CLR 23/08 A2978 RMK AO2 SLP075 T02330083 10322 20211 51018

2010/08/08 05:56
KNBT 080556Z AUTO 09008KT 6SM HZ CLR 28/24 A2995 RMK AO2 SLP145 T02830239 10289 20278 58002 TSNO $

2010/08/08 05:53
KRNM 080553Z 28004KT 10SM CLR 12/11 A2993 RMK AO2 SLP124 T01220106 10250 20117 51017

2010/08/08 05:56
KFLG 080556Z AUTO 00000KT 1 1/4SM BR OVC001 13/13 A3024 RMK AO2 SLP157 T01330128 10161 20128 50004 TSNO

2010/08/08 05:56
KSXT 080556Z AUTO 34009G16KT 8SM CLR 13/12 A2998 RMK AO2 SLP113 T01330122 10222 20133 50003 TSNO

2010/08/08 05:56
KWMC 080556Z AUTO 26010KT 10SM CLR 22/M01 A2987 RMK AO2 SLP059 60000 T02171006 10328 20161 53014

2010/08/08 05:50
LGHI 080550Z 00000KT CAVOK 26/20 Q1010

2010/08/08 05:50
LGKF 080550Z 33008KT 9999 FEW020 25/19 Q1012

2010/08/08 05:50
LGKZ 080550Z 00000KT CAVOK 22/10 Q1015

2010/08/08 05:50
LGMK 080550Z 03005KT CAVOK 25/22 Q1010

2010/08/08 05:50
LGNX 080550Z 00000KT 9999 FEW018 26/22 Q1010

2010/08/08 05:50
LGPA 080550Z 00000KT CAVOK 26/21 Q1009

2010/08/08 05:50
LGSO 080550Z 00000KT CAVOK 26/23 Q1010

2010/08/08 05:54
KUZA 080554Z AUTO 00000KT 7SM SCT047 23/20 A2999 RMK AO2 SLP141 T02280200 10283 20222 58003

2010/08/08 05:54
KVAY 080554Z AUTO 00000KT 10SM SCT080 19/18 A3001 RMK AO2 SLP162 T01940183 10256 20194 51005

2010/08/08 05:55
KVBT 080555Z AUTO 13004KT 10SM CLR 24/21 A2990 RMK AO1 10310 20240 52003

2010/08/08 05:55
KVIS 080555Z AUTO 31003KT 10SM CLR 23/16 A2975 RMK AO1 10340 20230 52017

2010/08/08 05:54
KVSF 080554Z AUTO 00000KT 10SM CLR 11/10 A3004 RMK AO2 SLP173 T01060100 10200 20100 51005

2010/08/08 05:54
KVTA 080554Z AUTO 00000KT 2SM BR CLR 16/16 A3001 RMK AO2 SLP157 T01610156 10244 20156 50000

2010/08/08 05:54
KWLD 080554Z AUTO 15008KT 10SM CLR 27/23 A2986 RMK AO2 SLP095 T02720228 10333 20272 403500239 52003

2010/08/08 05:55
KWVL 080555Z AUTO 00000KT 10SM CLR 10/08 A2997 RMK AO1 10170 20100 52003

2010/08/08 05:55
KWWD 080555Z AUTO 16005KT 10SM CLR 22/22 A3002 RMK AO1 10250 20220 52003

2010/08/08 05:55
KX40 080555Z AUTO 00000KT 7SM -TSRA SCT026 SCT044 OVC100 27/26 A2995 RMK AO2 LTG DSNT SW P0020 T02710260

2010/08/08 05:55
KYKN 080555Z AUTO 22008KT 10SM CLR 27/22 A2973 RMK AO1 10320 20270 52010

2010/08/08 05:54
KPLN 080554Z AUTO 15003KT 4SM BR CLR 17/17 A2978 RMK AO2 RAE03 SLP082 P0000 60011 T01720167 10233 20167 56013

2010/08/08 05:54
KPNE 080554Z 16003KT 10SM SCT075 23/19 A3002 RMK AO2 SLP165 T02330194 10272 20228 51006

2010/08/08 05:55
KPQI 080555Z AUTO 21004KT 10SM CLR 11/04 A2993 RMK AO1 10150 20090 52007

2010/08/08 05:55
KPRX 080555Z 13006KT 10SM BKN110 28/24 A2987 RMK AO1 10360 20280 403700230 54000

2010/08/08 05:54
KPSF 080554Z AUTO 00000KT 10SM CLR 12/10 A3003 RMK AO2 SLP152 T01170100 10183 20111 51002

2010/08/08 05:55
KPTN 080555Z AUTO 00000KT 10SM FEW025 26/16 A2996 RMK AO1 10310 20260 52003

2010/08/08 05:55
KPTV 080555Z AUTO 14004KT 10SM CLR 22/08 A2979 RMK AO1 10340 20220 52020

2010/08/08 05:54
KPTW 080554Z AUTO 00000KT 10SM FEW070 21/17 A3002 RMK AO2 SLP160 T02060167 10272 20200 50003

2010/08/08 05:55
KPVC 080555Z 20006KT 10SM CLR 19/17 A3004 RMK AO1 10210 20190 52007

2010/08/08 05:55
KPVU 080555Z 15010KT 10SM CLR 22/11 A3001 RMK AO1

2010/08/08 05:55
KPWG 080555Z AUTO 19008KT 10SM CLR 29/22 A2989 RMK AO1 10370 20290 403800270 52010

2010/08/08 05:55
KPWT 080555Z AUTO 19005KT 10SM OVC009 14/12 A2993 RMK AO1 60005 10170 20140 52003

2010/08/08 05:54
KRBL 080554Z AUTO 19007KT 10SM CLR 26/14 A2974 RMK AO2 SLP064 T02610144 10356 20256 51021

2010/08/08 05:55
KRBW 080555Z AUTO 00000KT 4SM BR CLR 23/23 A2993 RMK AO2

2010/08/08 05:54
KRDG 080554Z 00000KT 10SM BKN070 22/17 A3000 RMK AO2 SLP160 T02170172 10272 20211 51004

2010/08/08 05:55
KRKD 080555Z AUTO 00000KT 10SM CLR 10/08 A3002 RMK AO1 10170 20100 52003

2010/08/08 05:54
KRKS 080554Z AUTO 16014KT 10SM CLR 16/06 A3011 RMK AO2 SLP108 T01610056 10228 20156 52002

2010/08/08 05:54
KRST 080554Z AUTO 20010G17KT 8SM FEW075 24/22 A2977 RMK AO2 TSE0459 SLP071 T02440217 10272 20233 402890172 58001

2010/08/08 05:55
KRUT 080555Z 14005KT 10SM CLR 12/08 A3002 RMK AO1 10190 20110 52003

2010/08/08 05:54
KSBY 080554Z AUTO 00000KT 10SM CLR 21/20 A3000 RMK AO2 SLP162 T02110200 10256 20211 58001

2010/08/08 05:55
KSDY 080555Z AUTO 00000KT 10SM CLR 18/15 A2971 RMK AO1 10320 20180 52007

2010/08/08 05:54
KSET 080554Z AUTO 07004KT 7SM CLR 22/19 A2992 RMK AO2 SLP127 T02220194 10289 20211 403170183 51004

2010/08/08 05:55
KSFM 080555Z 00000KT 10SM CLR 09/09 A3002 RMK AO1 10170 20090 52003

2010/08/08 05:55
KSFZ 080555Z 00000KT 10SM CLR 14/14 A3002 RMK AO1 10170 20140 52003

2010/08/08 05:55
KSGT 080555Z 15004KT 26/24 A2991 RMK AO1 10310 20260 52003

2010/08/08 05:55
KSGU 080555Z AUTO 30003KT 10SM OVC100 24/13 A2994 RMK AO1 LTG DSNT SW TSE0559B15E43 10270 20230 52010

2010/08/08 05:54
KSJN 080554Z AUTO 16006KT 10SM CLR 17/13 A3017 RMK AO2 SLP130 60000 T01670133 10172 20161 58003 $

2010/08/08 05:55
KSKX 080555Z AUTO 28003KT 10SM BKN080 16/08 A3025 RMK AO1 10290 20160 52017

2010/08/08 05:55
KSLG 080555Z AUTO 10005KT 10SM CLR 24/21 A2992 RMK AO1 10290 20230 52003

2010/08/08 05:55
KLFI 080555Z 13005KT 10SM OVC008 25/23 A2999 RMK AO2A SLP158 60000 T02480232 10258 20241 50000

2010/08/08 05:55
KLTS 080555Z AUTO 15005KT 10SM CLR 26/22 A2985 RMK AO2 SLP087 T02590219 10362 20259 50005 $

2010/08/08 05:55
KMCF 080555Z AUTO 00000KT 10SM CLR 29/26 A2994 RMK AO2 SLP142 T02900265 10298 20290 58003

2010/08/08 05:55
KMIB 080555Z AUTO 23003KT 10SM CLR 19/17 A2966 RMK AO2 SLP037 T01920172 10298 20192 403000159 52004

2010/08/08 05:52
KNFW 080552Z AUTO 17010KT 10SM CLR 31/19 A2990 RMK AO2 SLP108 T03110189 10372 20306 403890261 51012 $

2010/08/08 05:55
KCVS 080555Z AUTO 17004KT 10SM CLR 21/21 A3002 RMK AO2 SLP114 T02100210 10326 20210 51015 $

2010/08/08 05:55
KFAF 080555Z AUTO 11003KT 10SM CLR 24/24 A2999 RMK AO2 DZE0502 SLP156 P0000 60000 T02410241 10277 20225 50000 $

2010/08/08 05:55
KFRI 080555Z AUTO 17013G19KT 10SM CLR 28/22 A2982 RMK AO2 SLP080 T02800220 10327 20280 55000

2010/08/08 05:55
KFSI 080555Z AUTO 18006KT 10SM CLR 29/21 A2984 RMK AO2 SLP081 T02890214 10363 20285 403760225 51005

2010/08/08 05:55
KLTS 080555Z AUTO 15005KT 10SM CLR 26/22 A2985 RMK AO2 SLP087 T02590219 10362 20259 50005 $

2010/08/08 05:55
KMCF 080555Z AUTO 00000KT 10SM CLR 29/26 A2994 RMK AO2 SLP142 T02900265 10298 20290 58003

2010/08/08 05:55
KMIB 080555Z AUTO 23003KT 10SM CLR 19/17 A2966 RMK AO2 SLP037 T01920172 10298 20192 403000159 52004

2010/08/08 05:55
KPAM 080555Z AUTO 00000KT 9SM CLR 26/25 A2990 RMK AO2 SLP126 60034 T02560253 10279 20253 403340253 58008 $

2010/08/08 05:55
KRCA 080555Z AUTO 36016KT 10SM SCT150 OVC230 22/12 A2986 RMK AO2 PK WND 36028/0524 SLP081 T02230121 10319 20207 53014 $

2010/08/08 05:55
KTCM 080555Z AUTO 22006KT 10SM OVC046 16/15 A2992 RMK AO2 SLP134 60011 T01590148 10179 20159 53004

2010/08/08 05:55
PAED 080555Z 21004KT 10SM OVC048 12/10 A2976 RMK AO2A DZB0536E0551 SLP080 P0000 60006 T01230105 10132 20123 53005

2010/08/08 05:56
PMDY 080556Z AUTO 07009KT 10SM CLR 28/21 A3020 RMK AO2 TSNO 53005 T02770211 10300 20272 SLP536

2010/08/08 05:56
KNID 080556Z AUTO 18011KT FEW085 26/02 A2979 RMK AO2 SLP065 T02610022 10367 20261 51015 TSNO $

2010/08/08 05:56
KABH 080556Z AUTO 05006KT 10SM CLR 18/13 A3009 RMK AO2 SLP100 60006 T01830133 10278 20178 403170133 50013 $

2010/08/08 05:56
KNUQ 080556Z 06003KT 10SM CLR 15/12 A2985 RMK AO2 SLP112 T01500122 10217 20144 50009

2010/08/08 05:56
K9L2 080556Z AUTO 22016G22KT 10SM CLR 23/02 A2984 RMK AO2 SLP074 T02280017 10328 20228 50013 $

2010/08/08 05:56
KNTU 080556Z 00000KT 10SM BKN010 BKN060 24/23 A2999 RMK AO2 SLP156 T02390233 10256 20239 53001 $

2010/08/08 05:56
KNBT 080556Z AUTO 09008KT 6SM HZ CLR 28/24 A2995 RMK AO2 SLP145 T02830239 10289 20278 58002 TSNO $

2010/08/08 05:55
PACZ 080555Z AUTO 21004KT 10SM OVC008 11/09 A2960 RMK AO1 T01060089

2010/08/08 05:55
PALU 080555Z AUTO 08015KT 10SM 11/11 A2964 RMK AO1 T01060106

2010/08/08 05:55
PATC 080555Z AUTO 01017KT 2 1/2SM OVC006 08/07 A2962 RMK AO1 T00830073

2010/08/08 05:55
PAIM 080555Z AUTO 00000KT 10SM BKN050 OVC080 13/12 A2964 RMK AO1 T01330123

2010/08/08 05:55
PATL 080555Z AUTO 22006KT 10SM BKN060 12/09 A2971 RMK AO1 T01170095

2010/08/08 05:55
PAEH 080555Z AUTO 11005KT 10SM BKN048 OVC050 09/08 A2969 RMK AO1 T00940078

2010/08/08 05:55
PASV 080555Z AUTO 20004KT 2 1/2SM SCT005 OVC012 10/10 A2974 RMK AO1 T01000101

2010/08/08 05:56
KAND 080556Z AUTO 32004KT 8SM OVC040 24/21 A2998 RMK AO2 SLP140 T02440211 10294 20239 50000

2010/08/08 05:55
KARW 080555Z AUTO 00000KT 5SM BR CLR 26/24 A2991 RMK AO2

2010/08/08 05:55
KBDN 080555Z AUTO 35005KT 10SM CLR 17/09 A2997 RMK AO2

2010/08/08 05:55
KBKN 080555Z AUTO 15009KT 10SM CLR 28/23 A2983 RMK AO2

2010/08/08 05:56
KCEC 080556Z AUTO 14007KT 1SM BR VV001 13/13 A2992 RMK AO2 SLP133 T01280128 10161 20128 51002

2010/08/08 05:56
KDIK 080556Z AUTO 16003KT 10SM CLR 19/14 A2974 RMK AO2 SLP051 T01890139 10322 20167 51007

2010/08/08 05:56
KDUG 080556Z AUTO 35008KT 10SM CLR 21/17 A3010 RMK AO2 SLP128 60000 T02110167 10306 20211 51020

2010/08/08 05:56
KDUJ 080556Z AUTO 00000KT 10SM CLR 14/12 A3006 RMK AO2 SLP168 T01440117 10206 20133 53000

2010/08/08 05:56
KEAU 080556Z AUTO 20006KT 10SM SCT050 BKN065 26/22 A2971 RMK AO2 LTG DSNT NW-NE SLP054 T02560217 10272 20250 402830144 53002

2010/08/08 05:56
KEED 080556Z AUTO 17014G22KT 10SM FEW060 SCT110 34/16 A2974 RMK AO2 RAB42E52 SLP036 P0000 60000 T03440156 10389 20344 53019 TSNO

2010/08/08 05:55
KEIK 080555Z AUTO 05005KT 10SM CLR 21/15 A3000 RMK AO2

2010/08/08 05:56
KEKO 080556Z AUTO 03003KT 10SM CLR 22/02 A2991 RMK AO2 SLP059 T02220017 10328 20222 51015

2010/08/08 05:56
KGRD 080556Z AUTO 00000KT 10SM OVC039 24/22 A2999 RMK AO2 SLP145 T02390222 10294 20233 55001

2010/08/08 05:56
KHND 080556Z AUTO 16016KT 10SM CLR 31/13 A2983 RMK AO2 51014 T03110133 10366 20311 LTG DSNT S-W SLP042

2010/08/08 05:55
KHVS 080555Z AUTO 00000KT 7SM SCT095 22/ A2996 RMK AO2

2010/08/08 05:55
KIFP 080555Z AUTO 28022G30KT 10SM VCTS BKN100 OVC110 31/16 A2975 RMK AO2 LTG DSNT ALQDS

2010/08/08 05:56
KIGX 080556Z AUTO 00000KT 9SM CLR 23/18 A2999 RMK AO2 SLP149 T02280183 10278 20228 58002

2010/08/08 05:56
KJMS 080556Z AUTO 00000KT 10SM CLR 21/19 A2967 RMK AO2 SLP039 T02060189 10306 20206 403170172 50006

2010/08/08 05:56
KLAS 080556Z 17012G20KT 10SM FEW120CB BKN180 32/13 A2976 RMK AO2 SLP044 CB SE-S AND DSNT W MOV NE LTG DSNT SE-S AND W T03220133 10367 20322 51015

2010/08/08 05:56
KLNR 080556Z AUTO 23004KT 8SM CLR 23/19 A2982 RMK AO2 SLP089 T02330189 10272 20222 402890156 55006

2010/08/08 05:56
KM19 080556Z AUTO 00000KT 10SM CLR 26/22 A2992 RMK AO2 53002 T02610216 SLP128

2010/08/08 05:55
KMKS 080555Z AUTO 00000KT 4SM BR SCT034 23/23 A2993 RMK AO2 TSNO

2010/08/08 05:56
KMQY 080556Z AUTO 00000KT 9SM CLR 22/19 A2997 RMK AO2 55001 T02160194 10316 20216 403550200 SLP137 $

2010/08/08 05:56
KMRH 080556Z AUTO 03004KT 7SM CLR 25/23 A2995 RMK AO2 SLP142 T02500233 10272 20250 58002 TSNO

2010/08/08 05:55
KNQA 080555Z AUTO 00000KT 10SM CLR 25/23 A2991 RMK

2010/08/08 05:55
KO22 080555Z AUTO 00000KT 10SM CLR 19/09 A2986 RMK AO1

2010/08/08 05:55
KPVF 080555Z AUTO 00000KT 10SM CLR 20/10 A2988 RMK AO1

2010/08/08 05:55
KRCE 080555Z AUTO 16008KT 10SM CLR 28/22 A2987 RMK AO2

2010/08/08 05:56
KRDM 080556Z AUTO 02004KT 10SM CLR 17/09 A2994 RMK AO2 SLP115 T01720089 10283 20172 51016 $

2010/08/08 05:56
KSBP 080556Z AUTO 32005KT 10SM OVC014 14/11 A2990 RMK AO2 SLP125 T01390111 10206 20128 50009 $

2010/08/08 05:56
KSLE 080556Z AUTO 29006KT 10SM BKN039 BKN050 OVC065 19/14 A2991 RMK AO2 SLP127 60000 T01890139 10256 20189 51009

2010/08/08 05:56
KSRC 080556Z AUTO 00000KT CLR 26/24 A2992 RMK AO2 TSNO 50004 T02550244 10327 20261 SLP132 $

2010/08/08 05:56
KTPH 080556Z AUTO 36003KT 10SM CLR 14/M14 A3000 RMK AO2 SLP087 T01441139 10294 20144 51016

2010/08/08 05:55
KVQQ 080555Z AUTO 00000KT 10SM FEW019 23/23 A2993 RMK AO2

2010/08/08 05:56
KWJF 080556Z 24013KT 10SM CLR 23/03 A2987 RMK AO2 SLP094 T02280033 10311 20228 51012

2010/08/08 05:56
PAAK 080556Z AUTO 18014G21KT 5SM OVC007 11/08 A2939 RMK AO1 10130 20110 57020 PNO

2010/08/08 05:56
PACM 080556Z AUTO 18006KT 10SM OVC017 12/09 A2963 RMK AO2 TSNO 56006 60000 T01220094 10133 20116 RAB20E30 P0000 SLP029 $

2010/08/08 05:56
PAHP 080556Z AUTO 14010KT 10SM OVC010 11/08 A2959 RMK AO1 10120 20110 57014 PNO TSNO

2010/08/08 05:55
KFMH 080555Z AUTO 20005KT 10SM CLR 19/18 A3005 RMK AO2

2010/08/08 05:54
KNFG 080554Z AUTO 00000KT OVC015 15/12 A2992 RMK AO2 SLP131 T01500122 10206 20122 51019 TSNO $

2010/08/08 05:54
KRSP 080554Z AUTO VRB04KT 10SM CLR 21/12 A3006 RMK AO2 SLP171 T02060122 10244 20200 50001 $

2010/08/08 05:54
KBKB 080554Z AUTO VRB03KT 10SM CLR 27/24 A2989 RMK AO2 SLP147 T02720244 10339 20272 51006 $

2010/08/08 05:55
KBAD 080555Z AUTO 17005KT 10SM CLR 27/24 A2990 RMK AO2 SLP124 T02690241 10312 20269 403590239 51012

2010/08/08 05:55
KBLV 080555Z AUTO 00000KT 10SM R14R/5500VP6000FT CLR 22/19 A2994 RMK AO2 SLP136 T02160191 10289 20216 403060182 51005

2010/08/08 05:55
KCEF 080555Z AUTO 00000KT 10SM CLR 13/12 A3001 RMK AO2 SLP164 T01310117 10218 20131 52003

2010/08/08 05:55
KDAA 080555Z AUTO 00000KT 10SM CLR 17/16 A3000 RMK AO2 SLP159 T01730157 10244 20172 50004

2010/08/08 05:55
KEDW 080555Z AUTO 21010KT 10SM CLR 21/06 A2985 RMK AO2 SLP063 T02130058 10325 20213 51015

2010/08/08 05:55
KGRF 080555Z AUTO 17005KT 10SM BKN060 16/14 A2992 RMK AO2 SLP133 60009 T01570144 10179 20157 53005

2010/08/08 05:55
KGSB 080555Z AUTO 00000KT 7SM R08/5000V5500FT SCT025 23/23 A2995 RMK AO2 SLP142 60113 T02290229 10290 20227 58001

2010/08/08 05:55
KGUS 080555Z AUTO 17005KT 10SM CLR 20/19 A2996 RMK AO2 SLP142 T01960194 10258 20196 50000

2010/08/08 05:55
KHMN 080555Z AUTO 15007KT 10SM SCT100 28/12 A3000 RMK AO2 SLP064 T02760122 10353 20267 51021 $

2010/08/08 05:55
KHST 080555Z AUTO 00000KT 10SM CLR 27/25 A2997 RMK AO2 SLP150 60000 T02690246 10287 20266 58007

2010/08/08 05:55
KIAB 080555Z AUTO 15008KT 10SM OVC230 28/22 A2986 RMK AO2 SLP095 T02760220 10331 20276 403600228 53006 $

2010/08/08 05:55
KLRF 080555Z AUTO 00000KT 10SM CLR 26/25 A2991 RMK AO2 SLP126 T02640248 10304 20263 403360237 51005

2010/08/08 05:55
KMGE 080555Z AUTO 00000KT 10SM CLR 25/22 A2998 RMK AO2 SLP139 T02500224 10305 20249 57005 VISNO RWY11 CHINO RWY11 $

2010/08/08 05:55
KMMT 080555Z AUTO 00000KT 5SM R32/4000V5000FT BR CLR 24/23 A2994 RMK AO2 SLP138 T02380230 10286 20238 58003

2010/08/08 05:55
KSVN 080555Z AUTO 00000KT 2 1/4SM 24/24 A2992 RMK AO2 SLP131 58008

2010/08/08 05:54
KFZY 080554Z AUTO 00000KT 7SM CLR 12/11 A2999 RMK AO2 SLP155 T01220111 10189 20117 53003

2010/08/08 05:54
KECG 080554Z AUTO 08003KT 5SM BR BKN011 25/24 A2999 RMK AO2 SLP154 T02500244 10261 20244 53000

2010/08/08 05:55
KBAD 080555Z AUTO 17005KT 10SM CLR 27/24 A2990 RMK AO2 SLP124 T02690241 10312 20269 403590239 51012

2010/08/08 05:55
KCBM 080555Z AUTO 00000KT 10SM CLR 25/25 A2990 RMK AO2 SLP125 60000 T02540249 10289 20252 403360242 58003 $

2010/08/08 05:55
KDAA 080555Z AUTO 00000KT 10SM CLR 17/16 A3000 RMK AO2 SLP159 T01730157 10244 20172 50004

2010/08/08 05:53
KDTS 080553Z AUTO 00000KT 10SM CLR 27/23 A2989 RMK AO2 TSB0456E11 SLP121 T02720233 10300 20267 403390267 58005

2010/08/08 05:55
KEDW 080555Z AUTO 21010KT 10SM CLR 21/06 A2985 RMK AO2 SLP063 T02130058 10325 20213 51015

2010/08/08 05:55
KGRF 080555Z AUTO 17005KT 10SM BKN060 16/14 A2992 RMK AO2 SLP133 60009 T01570144 10179 20157 53005

2010/08/08 05:55
KGSB 080555Z AUTO 00000KT 7SM R08/5000V5500FT SCT025 23/23 A2995 RMK AO2 SLP142 60113 T02290229 10290 20227 58001

2010/08/08 05:55
KLSF 080555Z AUTO 11003KT 7SM R33/5000V5500FT CLR 24/23 A2993 RMK AO2 SLP134 T02410231 10318 20241 56004 PNO $

2010/08/08 05:55
KOFF 080555Z AUTO 16009KT 10SM CLR 26/23 A2979 RMK AO2 SLP070 T02620233 10315 20262 52003 $

2010/08/08 05:55
KRIV 080555Z AUTO 00000KT 10SM CLR 15/10 A2991 RMK AO2 SLP126 T01540101 10288 20154 51019

2010/08/08 05:55
KAFF 080555Z AUTO 23008KT 10SM SCT095 18/13 A3014 RMK AO2 SLP067 60004 T01840129 10261 20168 51013

2010/08/08 05:55
KBIX 080555Z AUTO 00000KT 10SM CLR 29/26 A2991 RMK AO2 SLP129 60007 T02870258 10323 20287 403500266 50006 $

2010/08/08 05:55
KDYS 080555Z AUTO 17010KT 10SM CLR 27/20 A2991 RMK AO2 SLP099 T02730196 10351 20268 403730223 51012 $

2010/08/08 05:55
KFBG 080555Z 11003KT 10SM CLR 24/22 A2996 RMK AO2A SLP144 60000 T02420221 10290 20240 57001 $

2010/08/08 05:56
TJSJ 080556Z 11005KT 10SM FEW025 SCT031 SCT046 28/24 A2996 RMK AO2 RAB45E54 SLP143 P0000 60000 T02830239 10289 20278 58013

2010/08/08 05:56
PADK 080556Z 24031G36KT 4SM OVC008 11/09 A2931 RMK AO1 10130 20110 57010 PNO

2010/08/08 05:54
KNAK 080554Z AUTO 00000KT 10SM FEW100 23/18 A2999 RMK AO2 SLP157 60005 T02280183 10278 20222 50002 TSNO

2010/08/08 05:56
K8D3 080556Z AUTO 00000KT 23/22 A2964 RMK AO2 SLP013 T02280217 10317 20228 403330172 51005 PWINO TSNO

2010/08/08 05:56
KGNR 080556Z AUTO 00000KT 09/05 A2998 RMK AO1 SLP156 T00940050 10128 20094 58001

2010/08/08 05:56
KMHS 080556Z AUTO 02003KT 10SM FEW085 20/08 A2994 RMK AO2 SLP121 T02000078 10289 20194 51022 TSNO

2010/08/08 05:55
KHON 080555Z AUTO 28006KT 10SM CLR 25/21 A2967 RMK AO2 SLP035 60000 T02500206 10328 20250 403330228 53009 TSNO

2010/08/08 05:56
KP53 080556Z AUTO 22003KT 22/19 A2974 RMK AO2 SLP067 T02170189 10233 20206 55005 PWINO TSNO

2010/08/08 05:55
KCAO 080555Z AUTO 22008KT 10SM CLR 23/14 A3003 RMK AO2 SLP081 T02330144 10344 20233 51009 TSNO

2010/08/08 05:56
KLWS 080556Z 23004KT 10SM CLR 23/08 A2978 RMK AO2 SLP075 T02330083 10322 20211 51018

2010/08/08 05:53
KRNM 080553Z 28004KT 10SM CLR 12/11 A2993 RMK AO2 SLP124 T01220106 10250 20117 51017

2010/08/08 05:56
KFLG 080556Z AUTO 00000KT 1 1/4SM BR OVC001 13/13 A3024 RMK AO2 SLP157 T01330128 10161 20128 50004 TSNO

2010/08/08 05:56
KSXT 080556Z AUTO 34009G16KT 8SM CLR 13/12 A2998 RMK AO2 SLP113 T01330122 10222 20133 50003 TSNO

2010/08/08 05:56
KWMC 080556Z AUTO 26010KT 10SM CLR 22/M01 A2987 RMK AO2 SLP059 60000 T02171006 10328 20161 53014

2010/08/08 05:52
KNZY 080552Z 17003KT 10SM OVC018 19/13 A2992 RMK AO2 SLP130 T01890128 10217 20178 51015 $

2010/08/08 05:54
KWAL 080554Z AUTO 00000KT 10SM CLR 23/21 A3001 RMK AO2 SLP157 T02280211 10250 20222 58001 TSNO

2010/08/08 05:54
KWAL 080554Z AUTO 00000KT 10SM CLR 23/21 A3001 RMK AO2 SLP157 T02280211 10250 20222 58001 TSNO

2010/08/08 05:54
KIMT 080554Z AUTO 19008KT 5SM TSRA BR OVC020 21/20 A2975 RMK AO2 LTG DSNT SE-SW TSB0459E14B44 SLP068 P0011 60013 T02060200 10239 20200 402720083 57003

2010/08/08 05:54
KIND 080554Z 00000KT 9SM CLR 22/17 A2996 RMK AO2 SLP139 T02170167 10272 20211 50002

2010/08/08 05:54
KINT 080554Z AUTO 00000KT 10SM CLR 23/17 A3002 RMK AO2 SLP153 T02280172 10267 20222 58003

2010/08/08 05:54
KIPT 080554Z AUTO 00000KT 10SM CLR 16/12 A3001 RMK AO2 SLP160 T01560122 10244 20156 50004

2010/08/08 05:54
KISW 080554Z AUTO 19007KT 10SM CLR 23/19 A2981 RMK AO2 SLP088 T02280194 10261 20228 402890133 53002 TSNO

2010/08/08 05:55
KIWD 080555Z AUTO 00000KT 9SM VCTS FEW047 BKN065 OVC090 19/18 A2974 RMK AO1 LTG DSNT E TSB03E18B31 P0020 60044 10240 20190 402700090 54000

2010/08/08 05:54
KIZG 080554Z AUTO 00000KT 10SM CLR 08/07 A3001 RMK AO2 SLP163 T00780072 10117 20072 58001

2010/08/08 05:55
KJAC 080555Z AUTO 09004KT 10SM CLR 10/05 A3009 RMK AO1 52014

2010/08/08 05:55
KJHW 080555Z AUTO 19006KT 10SM CLR 15/11 A3003 RMK AO1 10200 20140

2010/08/08 05:54
KJST 080554Z AUTO 00000KT 10SM CLR 17/12 A3008 RMK AO2 SLP176 T01670117 10206 20161 50002

2010/08/08 05:55
KKLS 080555Z AUTO 34003KT 10SM OVC016 17/15 A2993 RMK AO1 60001 10180 20170 52007

2010/08/08 05:54
KLAF 080554Z AUTO 00000KT 8SM CLR 21/18 A2996 RMK AO2 SLP139 T02060183 10272 20200 51003

2010/08/08 05:55
KLBL 080555Z 20008KT 10SM CLR 26/18 A2989 RMK AO1 10370 20260 54000

2010/08/08 05:54
KLBT 080554Z AUTO 00000KT 7SM BKN015 24/23 A2995 RMK AO2 SLP138 T02390228 10278 20239 56005 $

2010/08/08 05:55
KLCI 080555Z AUTO 25003KT 10SM CLR 14/10 A3000 RMK AO1 10190 20130 52003

2010/08/08 05:55
KLEW 080555Z 00000KT 10SM CLR 09/08 A3002 RMK AO1 10170 20090 54000

2010/08/08 05:55
KLGD 080555Z AUTO 30013KT 10SM CLR 21/08 A2986 RMK AO1 10290 20210 52017

2010/08/08 05:55
KLKV 080555Z AUTO 35010KT 10SM CLR 18/04 A2999 RMK AO1 10290 20160

2010/08/08 05:54
KLNK 080554Z AUTO 19008KT 9SM CLR 26/22 A2980 RMK AO2 SLP075 T02610222 10317 20256 403330200 53005

2010/08/08 05:55
KLPC 080555Z AUTO 33003KT 10SM OVC010 14/11 A2991 RMK AO1 10180 20130 52010 PNO

2010/08/08 05:55
KLQK 080555Z AUTO 7SM BKN085 23/21 A2999 RMK AO2 6//// T02270212 10280 20218 403230211 PNO

2010/08/08 05:55
KLRO 080555Z AUTO 00000KT 2SM BR CLR 23/23 A2992 RMK AO2

2010/08/08 05:55
KLUX 080555Z AUTO 03003KT 7SM OVC033 23/23 A2998 RMK AO2

2010/08/08 05:54
KLWM 080554Z AUTO 00000KT 10SM CLR 15/09 A3004 RMK AO2 SLP170 T01500089 10239 20144 51005

2010/08/08 05:54
KLWT 080554Z AUTO 23007KT 10SM FEW110 18/08 A2984 RMK AO2 SLP064 T01830083 10278 20161 53008

2010/08/08 05:55
KMBL 080555Z AUTO 23008KT 10SM BKN035 BKN100 24/18 A2982 RMK AO1 10240 20230 402700110 57007

2010/08/08 05:55
KMER 080555Z AUTO 25006KT 10SM CLR 21/13 A2976 RMK AO1

2010/08/08 05:54
KMFI 080554Z AUTO 19007KT 9SM FEW075 22/20 A2979 RMK AO2 SLP080 T02220200 10256 20217 402780144 51003

2010/08/08 05:54
KMGJ 080554Z AUTO 00000KT 10SM CLR 13/12 A3001 RMK AO2 SLP162 T01330117 10222 20133 53007

2010/08/08 05:54
KMIV 080554Z AUTO 00000KT 10SM FEW100 19/18 A2999 RMK AO2 SLP155 T01940178 10250 20189 51003

2010/08/08 05:55
KMJX 080555Z AUTO 00000KT 10SM CLR 16/13 A3001 RMK AO1 10240 20160 52003

2010/08/08 05:54
KMKC 080554Z 18007KT 10SM CLR 28/21 A2986 RMK AO2 SLP100 T02780206 10322 20278 403390222 53004

2010/08/08 05:55
KMKT 080555Z AUTO 21012G20KT 10SM BKN060 BKN070 26/22 A2970 RMK AO1 10290 20250 57007

2010/08/08 05:55
KMML 080555Z AUTO 22013KT 10SM CLR 26/23 A2967 RMK AO1 10300 20260 54000

2010/08/08 05:55
KMNI 080555Z AUTO 00000KT 4SM BR CLR 23/23 A2993 RMK AO2

2010/08/08 05:55
KMNM 080555Z AUTO 24004KT 8SM FEW080 22/20 A2976 RMK AO1 LTG DSNT NW 60061 10240 20210 402700130 57010

2010/08/08 05:54
KMOT 080554Z AUTO 22008KT 10SM CLR 22/18 A2966 RMK AO2 SLP034 T02220178 10317 20217 403170172 51004

2010/08/08 05:55
KMRF 080555Z AUTO 30005KT 10SM CLR A3011 RMK AO1 52020

2010/08/08 05:54
KMRY 080554Z AUTO 22005KT 9SM OVC006 13/11 A2990 RMK AO2 SLP138 T01280106 10156 20128 50008

2010/08/08 05:53
KBAF 080553Z 00000KT 10SM CLR 13/12 A3002 RMK AO2 SLP163 T01280117 10228 20128 52003

2010/08/08 05:53
KTOI 080553Z AUTO 00000KT 6SM BR SCT002 24/23 A2994 RMK AO2 SLP131 60055 T02440233 10283 20233 403560233 53000

2010/08/08 05:53
TIST 080553Z AUTO 08008KT 10SM BKN095 28/23 A2994 RMK AO2 SLP139 T02830233 10289 20283 58015 TSNO $

2010/08/08 05:53
TISX 080553Z AUTO 10008KT 9SM -RA SCT025 BKN033 27/23 A2994 RMK AO2 RAB46 SLP138 P0000 60000 T02720233 10283 20272 58014 TSNO $

2010/08/08 05:53
PASC 080553Z 07018G26KT 10SM OVC005 04/03 A2976 RMK AO2 PK WND 06029/0503 SLP077 60000 T00390028 10061 20039 51008

2010/08/08 05:53
KBRO 080553Z 16005KT 10SM FEW021 28/26 A2991 RMK AO2 SLP128 T02780256 10317 20272 403610261 50009 $

2010/08/08 05:53
KFLL 080553Z 00000KT 10SM SCT047 28/25 A2996 RMK AO2 SLP144 6//// T02780250 10283 20261 58007 PNO $

2010/08/08 05:51
KJFK 080551Z COR 22008KT 10SM SCT100 23/20 A3002 RMK AO2 SLP164 T02280200 10250 20228 51005

2010/08/08 05:51
KJFK 080551Z 22008KT 10SM SCT200 23/20 A3002 RMK AO2 SLP164 T02280200 10250 20228 51005

2010/08/08 05:53
KMCO 080553Z 23004KT 10SM FEW030 FEW100 SCT180 OVC200 27/24 A2994 RMK AO2 SLP137 T02670239 10272 20267 58008

2010/08/08 05:53
KPBI 080553Z 21004KT 10SM FEW039 SCT100 27/24 A2995 RMK AO2 SLP140 T02740237 10289 20272 58014 $

2010/08/08 05:53
TIST 080553Z AUTO 08008KT 10SM BKN095 28/23 A2994 RMK AO2 SLP139 T02830233 10289 20283 58015 TSNO $

2010/08/08 05:53
TISX 080553Z AUTO 10008KT 9SM -RA SCT025 BKN033 27/23 A2994 RMK AO2 RAB46 SLP138 P0000 60000 T02720233 10283 20272 58014 TSNO $

2010/08/08 05:53
PHJR 080553Z 06004KT 10SM CLR 26/19 A3007 RMK AO2 SLP190 T02610189 10317 20261 53014

2010/08/08 05:54
PHMK 080554Z AUTO 07007G18KT 10SM CLR 24/21 A3008 RMK AO2 SLP188 60000 T02390206 10289 20239 53016 TSNO

2010/08/08 05:54
PAHN 080554Z AUTO VRB06KT 10SM OVC013 13/11 A2982 RMK AO2 SLP102 T01330106 10150 20133 53006 TSNO

2010/08/08 05:54
PAKN 080554Z 21005KT 10SM BKN010 OVC040 11/09 A2978 RMK AO2 SLP085 T01060089 10122 20106 53004

2010/08/08 05:53
KOVE 080553Z AUTO 14007KT 10SM CLR 26/12 A2974 RMK AO2 SLP071 T02560122 10339 20256 50013 TSNO $

2010/08/08 05:53
KSGR 080553Z AUTO 18006KT 10SM CLR 27/24 A2991 RMK AO2 SLP136 T02670244 10317 20267 403500256 51009 TSNO

2010/08/08 05:50
KWYS 080550Z AUTO 00000KT 10SM CLR 08/08 A3008 RMK AO2

2010/08/08 05:56
K20V 080556Z AUTO 08006KT 10SM -RA SCT029 BKN070 OVC080 12/09 A3026 RMK AO2 P0004

2010/08/08 05:52
K5SM 080552Z AUTO 15003KT 10SM -DZ 09/09 A3044 RMK AO2

2010/08/08 05:54
K7BM 080554Z AUTO 29005KT 7SM -RA SCT023 BKN047 OVC060 13/08 A3039 RMK AO2

2010/08/08 05:58
KBDU 080558Z AUTO 32003KT 10SM CLR 23/12 A3002 RMK AO2

2010/08/08 05:56
KBMI 080556Z AUTO 19007KT 7SM CLR 20/18 A2996 RMK AO2 PWINO 53002 T02000177 10272 20200 403000155 SLP132 $

2010/08/08 05:56
KBOK 080556Z AUTO 16004KT 1/2SM FG OVC001 13/13 A2993 RMK AO2 51014 T01330133 10227 20127 SLP136

2010/08/08 05:57
KCCU 080557Z AUTO 14004KT 1/4SM DZ OVC001 08/05 A3053 RMK AO2

2010/08/08 05:55
KCMA 080555Z AUTO 19003KT 10SM OVC010 16/13 A2989 RMK AO2 SLP131 T01610128 10206 20161 51015 TSNO

2010/08/08 05:55
KEAT 080555Z AUTO 30008KT 10SM BKN100 OVC110 18/13 A2983 RMK AO2 RAB01E36 SLP093 P0000 60000 T01830128 10250 20178 50006

2010/08/08 05:55
KLLJ 080555Z AUTO 00000KT 10SM FEW090 16/07 A2992 RMK AO2 SLP077 T01560067 10289 20144 51017 $

2010/08/08 05:54
KBOS 080554Z 18005KT 10SM CLR 17/14 A3002 RMK AO2 SLP166 T01720139 10250 20172 51004

2010/08/08 05:54
KPHL 080554Z 22004KT 10SM SCT080 SCT250 23/20 A3001 RMK AO2 SLP163 T02330200 10283 20233 51005 $

2010/08/08 05:55
KFMH 080555Z AUTO 20005KT 10SM CLR 19/18 A3005 RMK AO2

2010/08/08 05:56
KSDF 080556Z 00000KT 9SM CLR 24/16 A2998 RMK AO2 SLP145 T02390156 10294 20233 51003 $

2010/08/08 05:55
K0A9 080555Z AUTO 06003KT 10SM FEW060 19/17 A3003 RMK

2010/08/08 05:56
K1M4 080556Z AUTO 00000KT 3SM BR CLR 24/23 A2996 RMK AO2 58004 T02380233 10311 20233 SLP141

2010/08/08 05:56
KOFK 080556Z AUTO 19014KT 10SM CLR 26/21 A2977 RMK AO2 SLP064 T02560211 10311 20256 403280206 53004

2010/08/08 05:55
KOZR 080555Z AUTO 00000KT 10SM SCT230 24/24 A2992 RMK AO2 SLP129 T02430243 10256 20242 403340242 56009

2010/08/08 05:55
KPVF 080555Z AUTO 00000KT 10SM CLR 20/10 A2988 RMK AO1

2010/08/08 05:55
KRCE 080555Z AUTO 16008KT 10SM CLR 28/22 A2987 RMK AO2

2010/08/08 05:56
KRDM 080556Z AUTO 02004KT 10SM CLR 17/09 A2994 RMK AO2 SLP115 T01720089 10283 20172 51016 $

2010/08/08 05:56
KSBP 080556Z AUTO 32005KT 10SM OVC014 14/11 A2990 RMK AO2 SLP125 T01390111 10206 20128 50009 $

2010/08/08 05:56
KSFO 080556Z 27007KT 10SM FEW006 14/10 A2985 RMK AO2 SLP107 T01440100 10189 20139 50008

2010/08/08 05:56
KSLE 080556Z AUTO 29006KT 10SM BKN039 BKN050 OVC065 19/14 A2991 RMK AO2 SLP127 60000 T01890139 10256 20189 51009

2010/08/08 05:55
KSMS 080555Z AUTO 05004KT 2 1/2SM BR CLR 23/23 A2995 RMK AO2

2010/08/08 05:56
KSRC 080556Z AUTO 00000KT CLR 26/24 A2992 RMK AO2 TSNO 50004 T02550244 10327 20261 SLP132 $

2010/08/08 05:55
KSSC 080555Z 00000KT 9SM R22/5500VP6000FT CLR 25/23 A2993 RMK AO2A SLP133 60000 T02480231 10297 20248 58004 $

2010/08/08 05:56
KTPH 080556Z AUTO 36003KT 10SM CLR 14/M14 A3000 RMK AO2 SLP087 T01441139 10294 20144 51016

2010/08/08 05:55
KVQQ 080555Z AUTO 00000KT 10SM FEW019 23/23 A2993 RMK AO2

2010/08/08 05:56
KWJF 080556Z 24013KT 10SM CLR 23/03 A2987 RMK AO2 SLP094 T02280033 10311 20228 51012

2010/08/08 05:56
PAAK 080556Z AUTO 18014G21KT 5SM OVC007 11/08 A2939 RMK AO1 10130 20110 57020 PNO

2010/08/08 05:56
PACM 080556Z AUTO 18006KT 10SM OVC017 12/09 A2963 RMK AO2 TSNO 56006 60000 T01220094 10133 20116 RAB20E30 P0000 SLP029 $

2010/08/08 05:56
PAHP 080556Z AUTO 14010KT 10SM OVC010 11/08 A2959 RMK AO1 10120 20110 57014 PNO TSNO

2010/08/08 05:56
KSDF 080556Z 00000KT 9SM CLR 24/16 A2998 RMK AO2 SLP145 T02390156 10294 20233 51003 $

2010/08/08 05:53
K04W 080553Z AUTO 00000KT 10SM BKN041 BKN047 OVC075 21/20 A2971 RMK AO2 LTG DSNT S AND SW 60023 T02090196 10270 20206 402870131

2010/08/08 05:55
K21D 080555Z AUTO 25005G14KT 10SM TS BKN047 BKN055 BKN070 26/21 A2971 RMK AO2 LTG DSNT NW THRU E

2010/08/08 05:56
KART 080556Z AUTO 18003KT 10SM CLR 16/11 A2997 RMK AO2 SLP145 T01610106 10189 20156 53002

2010/08/08 05:56
KBED 080556Z AUTO 00000KT 10SM CLR 12/10 A3001 RMK AO2 SLP173 T01220100 10222 20122 51002

2010/08/08 05:54
KBJI 080554Z AUTO 00000KT 7SM CLR 19/19 A2968 RMK AO2

2010/08/08 05:56
KBJJ 080556Z AUTO 20003KT 8SM CLR 16/15 A3002 RMK AO2 SLP160 T01610150 10222 20161 58001

2010/08/08 05:56
KBZN 080556Z AUTO 18006KT 10SM CLR 17/08 A2992 RMK AO2 SLP085 T01720083 10261 20161 50013

2010/08/08 05:54
KC29 080554Z AUTO 20006KT 10SM CLR 23/19 A2985 RMK AO2 T02270185 10265 20227

2010/08/08 05:56
KCTB 080556Z AUTO 26010KT 10SM CLR 18/06 A2980 RMK AO2 SLP057 T01780056 10267 20178 51008 PWINO

2010/08/08 05:56
KCXY 080556Z AUTO 25003KT 10SM BKN065 BKN095 21/16 A3000 RMK AO2 SLP158 T02060161 10256 20200 53004

2010/08/08 05:53
KD39 080553Z AUTO 10003KT 10SM VCTS BKN030 BKN045 BKN050 23/20 A2967 RMK AO2 LTG DSNT E AND SE 60001 T02280200 10307 20225 403210158

2010/08/08 05:56
KDAY 080556Z 15005KT 10SM CLR 20/14 A3002 RMK AO2 SLP157 60000 T02000144 10267 20194 56002

2010/08/08 05:55
KDVK 080555Z AUTO 00000KT 10SM CLR 18/16 A3000 RMK AO1

2010/08/08 05:56
KELZ 080556Z AUTO 00000KT 10SM CLR 13/08 A3008 RMK AO2 SLP179 T01280083 10172 20117 51004

2010/08/08 05:56
KGON 080556Z AUTO 00000KT 10SM BKN080 18/17 A3002 RMK AO2 SLP165 T01830167 10233 20178 51004

2010/08/08 05:56
KHPN 080556Z 16003KT 10SM CLR 21/18 A3001 RMK AO2 SLP155 T02060183 10239 20194 51003

2010/08/08 05:56
KHWV 080556Z AUTO 19005KT 10SM CLR 23/20 A3003 RMK AO2 SLP167 T02280200 10233 20211 51005 PWINO $

2010/08/08 05:56
KHYA 080556Z 20008KT 10SM CLR 22/19 A3004 RMK AO2 SLP172 T02220189 10222 20211 51004

2010/08/08 05:56
KISP 080556Z 19007KT 10SM FEW250 23/18 A3001 RMK AO2 SLP160 T02280183 10233 20228 51006

2010/08/08 05:55
K0A9 080555Z AUTO 06003KT 10SM FEW060 19/17 A3003 RMK

2010/08/08 05:56
K1M4 080556Z AUTO 00000KT 3SM BR CLR 24/23 A2996 RMK AO2 58004 T02380233 10311 20233 SLP141

2010/08/08 05:56
KAND 080556Z AUTO 32004KT 8SM OVC040 24/21 A2998 RMK AO2 SLP140 T02440211 10294 20239 50000

2010/08/08 05:55
KARW 080555Z AUTO 00000KT 5SM BR CLR 26/24 A2991 RMK AO2

2010/08/08 05:55
KBDN 080555Z AUTO 35005KT 10SM CLR 17/09 A2997 RMK AO2

2010/08/08 05:55
KBIX 080555Z AUTO 00000KT 10SM CLR 29/26 A2991 RMK AO2 SLP129 60007 T02870258 10323 20287 403500266 50006 $

2010/08/08 05:55
KBKN 080555Z AUTO 15009KT 10SM CLR 28/23 A2983 RMK AO2

2010/08/08 05:56
KCEC 080556Z AUTO 14007KT 1SM BR VV001 13/13 A2992 RMK AO2 SLP133 T01280128 10161 20128 51002

2010/08/08 05:55
KCEF 080555Z AUTO 00000KT 10SM CLR 13/12 A3001 RMK AO2 SLP164 T01310117 10218 20131 52003

2010/08/08 05:56
KDIK 080556Z AUTO 16003KT 10SM CLR 19/14 A2974 RMK AO2 SLP051 T01890139 10322 20167 51007

2010/08/08 05:56
KDUG 080556Z AUTO 35008KT 10SM CLR 21/17 A3010 RMK AO2 SLP128 60000 T02110167 10306 20211 51020

2010/08/08 05:56
KDUJ 080556Z AUTO 00000KT 10SM CLR 14/12 A3006 RMK AO2 SLP168 T01440117 10206 20133 53000

2010/08/08 05:56
KEAU 080556Z AUTO 20006KT 10SM SCT050 BKN065 26/22 A2971 RMK AO2 LTG DSNT NW-NE SLP054 T02560217 10272 20250 402830144 53002

2010/08/08 05:56
KEED 080556Z AUTO 17014G22KT 10SM FEW060 SCT110 34/16 A2974 RMK AO2 RAB42E52 SLP036 P0000 60000 T03440156 10389 20344 53019 TSNO

2010/08/08 05:55
KEIK 080555Z AUTO 05005KT 10SM CLR 21/15 A3000 RMK AO2

2010/08/08 05:56
KEKO 080556Z AUTO 03003KT 10SM CLR 22/02 A2991 RMK AO2 SLP059 T02220017 10328 20222 51015

2010/08/08 05:55
KFBG 080555Z 11003KT 10SM CLR 24/22 A2996 RMK AO2A SLP144 60000 T02420221 10290 20240 57001 $

2010/08/08 05:56
KGRD 080556Z AUTO 00000KT 10SM OVC039 24/22 A2999 RMK AO2 SLP145 T02390222 10294 20233 55001

2010/08/08 05:55
KGUS 080555Z AUTO 17005KT 10SM CLR 20/19 A2996 RMK AO2 SLP142 T01960194 10258 20196 50000

2010/08/08 05:56
KHND 080556Z AUTO 16016KT 10SM CLR 31/13 A2983 RMK AO2 51014 T03110133 10366 20311 LTG DSNT S-W SLP042

2010/08/08 05:55
KHVS 080555Z AUTO 00000KT 7SM SCT095 22/ A2996 RMK AO2

2010/08/08 05:55
KIFP 080555Z AUTO 28022G30KT 10SM VCTS BKN100 OVC110 31/16 A2975 RMK AO2 LTG DSNT ALQDS

2010/08/08 05:56
KIGX 080556Z AUTO 00000KT 9SM CLR 23/18 A2999 RMK AO2 SLP149 T02280183 10278 20228 58002

2010/08/08 05:56
KINW 080556Z AUTO 10SM OVC120 16/15 A3014 RMK AO2 SLP153 T01610150 10172 20161 50005 $

2010/08/08 05:56
KJMS 080556Z AUTO 00000KT 10SM CLR 21/19 A2967 RMK AO2 SLP039 T02060189 10306 20206 403170172 50006

2010/08/08 05:56
KLAS 080556Z 17012G20KT 10SM FEW120CB BKN180 32/13 A2976 RMK AO2 SLP044 CB SE-S AND DSNT W MOV NE LTG DSNT SE-S AND W T03220133 10367 20322 51015

2010/08/08 05:56
KLNR 080556Z AUTO 23004KT 8SM CLR 23/19 A2982 RMK AO2 SLP089 T02330189 10272 20222 402890156 55006

2010/08/08 05:55
KLRF 080555Z AUTO 00000KT 10SM CLR 26/25 A2991 RMK AO2 SLP126 T02640248 10304 20263 403360237 51005

2010/08/08 05:56
KM19 080556Z AUTO 00000KT 10SM CLR 26/22 A2992 RMK AO2 53002 T02610216 SLP128

2010/08/08 05:55
KMKS 080555Z AUTO 00000KT 4SM BR SCT034 23/23 A2993 RMK AO2 TSNO

2010/08/08 05:55
KMMT 080555Z AUTO 00000KT 5SM R32/4000V5000FT BR CLR 24/23 A2994 RMK AO2 SLP138 T02380230 10286 20238 58003

2010/08/08 05:56
KMOB 080556Z 21003KT 10SM FEW050 27/24 A2992 RMK AO2 TSE20 SLP130 FRQ LTGIC DSNT SW CB DSNT SW T02670239 10289 20267 403670256 51000

2010/08/08 05:56
KMQY 080556Z AUTO 00000KT 9SM CLR 22/19 A2997 RMK AO2 55001 T02160194 10316 20216 403550200 SLP137 $

2010/08/08 05:56
KMRH 080556Z AUTO 03004KT 7SM CLR 25/23 A2995 RMK AO2 SLP142 T02500233 10272 20250 58002 TSNO

2010/08/08 05:55
KMXF 080555Z AUTO 15003KT 10SM CLR 26/24 A2991 RMK AO2 SLP128 60008 T02620238 10337 20259 403560250 55005

2010/08/08 05:55
KNQA 080555Z AUTO 00000KT 10SM CLR 25/23 A2991 RMK

2010/08/08 05:55
KO22 080555Z AUTO 00000KT 10SM CLR 19/09 A2986 RMK AO1

2010/08/08 05:54
PGWT 080554Z 09008KT 7SM FEW015 SCT080 31/25 A2979 RMK WIND DATA ESTIMATED

2010/08/08 05:54
PGWT 080554Z 09008KT 7SM FEW015 SCT080 31/25 A2979 RMK WIND DATA ESTIMATED

2010/08/08 05:54
PGSN 080554Z 09016KT 10SM SCT020 31/26 A2980 RMK AO2 SLP086 VCSH SE 60000 T03060256 10311 20294 56013 $

2010/08/08 05:51
PTKK 080551Z VRB05KT 15SM -SHRA SCT014CB BKN120 OVC280 30/25 A2973 RMK SHRAB45 CB ALQDS SLP071 60000 8/371 T03040248 10322 20300 57007

2010/08/08 05:55
KHYW 080555Z AUTO 00000KT 3SM BR CLR 23/ A2993 RMK AO2

2010/08/08 05:55
KILE 080555Z AUTO 18007KT 10SM CLR 28/22 A2990 RMK AO1 10360 20280 403700260 52014

2010/08/08 05:54
KILN 080554Z AUTO 00000KT 10SM CLR 18/16 A3000 RMK AO2 SLP152 T01780156 10250 20167 58001

2010/08/08 05:55
KCIU 080555Z AUTO 00000KT 10SM FEW017 SCT070 BKN095 18/16 A2977 RMK AO1 10210 20170 402400070 57014

2010/08/08 05:55
KCOD 080555Z 16008KT 10SM CLR 17/08 A2994 RMK AO1 10250 20160 57007

2010/08/08 05:55
KCOE 080555Z AUTO 25006KT 10SM CLR 21/08 A2981 RMK AO1 10280 20200 52014

2010/08/08 05:55
KCQW 080555Z AUTO 00000KT 2 1/2SM BR CLR 23/22 A2996 RMK AO2

2010/08/08 05:55
KCVN 080555Z 16009KT 10SM CLR 23/15 A3003 RMK AO1 10330 20230 52014

2010/08/08 05:55
KCVO 080555Z AUTO 28009KT 10SM OVC075 18/13 A2994 RMK AO1 10250 20180 52014

2010/08/08 05:55
KCWI 080555Z 19006KT 10SM CLR 21/19 A2990 RMK AO1 10270 20210 52003

2010/08/08 05:55
KDCM 080555Z AUTO 03003KT 5SM BR BKN042 BKN048 23/23 A2998 RMK AO2 LTG DSNT SE AND SW

2010/08/08 05:54
KDDH 080554Z AUTO 00000KT 10SM CLR 10/09 A3003 RMK AO2 SLP169 T01000094 10167 20100 51004

2010/08/08 05:54
KDEC 080554Z AUTO 17006KT 9SM CLR 22/17 A2997 RMK AO2 SLP141 T02220172 10278 20217 403000161 53005

2010/08/08 05:54
KDSV 080554Z AUTO 14011KT 10SM CLR 14/11 A3003 RMK AO2 SLP175 T01440111 10217 20139 50004 $

2010/08/08 05:54
KDYL 080554Z AUTO 00000KT 10SM SCT065 BKN090 19/16 A3001 RMK AO2 SLP156 T01940161 10239 20183 50005 TSNO

2010/08/08 05:55
KDYR 080555Z AUTO 08003KT 10SM CLR 23/18 A2992 RMK AO1 10310 20220 54000

2010/08/08 05:55
KEDC 080555Z AUTO 19006KT 10SM CLR 27/23 A2992 RMK AO1

2010/08/08 05:55
KEEN 080555Z AUTO 00000KT 10SM CLR 11/09 A3004 RMK AO1 10180 20110 52010

2010/08/08 05:55
KEGE 080555Z AUTO 00000KT 10SM BKN120 15/14 A3021 RMK AO1 52014

2010/08/08 05:55
KEHR 080555Z AUTO 00000KT 7SM CLR 18/13 A2996 RMK AO1 10280 20170 403000150 54000

2010/08/08 05:55
KENV 080555Z AUTO 20009KT 10SM CLR 23/04 A2984 RMK AO1

2010/08/08 05:55
KEOE 080555Z AUTO 00000KT 10SM CLR 25/23 A2999 RMK AO2

2010/08/08 05:55
KESC 080555Z AUTO 24005KT 10SM FEW070 BKN085 BKN110 21/18 A2976 RMK AO1 10240 20210 402600120 57003

2010/08/08 05:54
KEUG 080554Z 00000KT 10SM FEW040 17/14 A2993 RMK AO2 SLP134 T01720139 10283 20172 51016

2010/08/08 05:55
KEUL 080555Z AUTO 34005KT 10SM CLR 19/10 A2979 RMK AO1 10320 20180 52014

2010/08/08 05:54
KEVV 080554Z AUTO 00000KT 10SM CLR 20/17 A2997 RMK AO2 SLP144 T02000167 10283 20189 403220167 52002

2010/08/08 05:55
KEWK 080555Z AUTO 16008KT 10SM CLR 27/20 A2983 RMK AO1 10340 20270 52003

2010/08/08 05:54
KEWN 080554Z AUTO 03004KT 5SM BR CLR 25/24 A2997 RMK AO2 SLP148 60003 T02500239 10283 20250 58002

2010/08/08 05:55
KSMN 080555Z AUTO 00000KT 10SM CLR 15/08 A2991 RMK AO1 10290 20150 52020

2010/08/08 05:55
KSPL 080555Z AUTO 14011KT 29/27 A2991 RMK AO2 PWINO PNO

2010/08/08 05:55
KSQI 080555Z AUTO 19003KT 10SM CLR 22/19 A2990 RMK AO1 10270 20220 402900170 54000

2010/08/08 05:55
KSUE 080555Z AUTO 23009KT 10SM CLR 23/20 A2977 RMK AO1 60002 10230 20220 57007

2010/08/08 05:54
KTAD 080554Z AUTO 31004KT 10SM FEW080 19/15 A3007 RMK AO2 SLP086 T01940150 10256 20172 51008

2010/08/08 05:50
KTIF 080550Z AUTO 21006KT 10SM CLR 23/20 A2984 RMK AO2 T02320195 10348 20232 403550188

2010/08/08 05:55
KTME 080555Z AUTO 00000KT 10SM 26/26 A2993 RMK AO2

2010/08/08 05:55
KTPL 080555Z 19009KT 10SM CLR 28/23 A2991 RMK AO1 10340 20280 52017

2010/08/08 05:54
KTQE 080554Z AUTO 17006KT 9SM CLR 25/23 A2977 RMK AO2 SLP065 T02500228 10306 20239 403170200 51005

2010/08/08 05:55
KTSP 080555Z AUTO 26007KT 10SM CLR 18/04 A2998 RMK AO2

2010/08/08 05:55
KTVF 080555Z AUTO 09006KT 10SM CLR 20/18 A2967 RMK AO1 10260 20200 52003

2010/08/08 05:56
KUCP 080556Z AUTO 00000KT 8SM CLR 15/14 A3003 RMK AO2 50002 T01500144 10222 20150 SLP179

2010/08/08 05:54
KUIN 080554Z AUTO 16006KT 7SM CLR 23/19 A2991 RMK AO2 SLP119 T02280194 10289 20228 403000183 52003

2010/08/08 05:55
KUTA 080555Z AUTO 17003KT 7SM CLR 26/23 A2992 RMK AO2

2010/08/08 05:55
KFFO 080555Z 00000KT 10SM CLR 19/17 A3000 RMK AO2A SLP155 10260 20183 50000

2010/08/08 05:55
KMTC 080555Z AUTO 21006KT 10SM BKN100 21/17 A2993 RMK AO2 SLP138 T02100170 10242 20197 53001 $

2010/08/08 05:55
KMUI 080555Z AUTO 00000KT 10SM CLR 19/17 A3001 RMK AO2 SLP162 T01870171 10223 20187 53003 $

2010/08/08 05:55
KMXF 080555Z AUTO 15003KT 10SM CLR 26/24 A2991 RMK AO2 SLP128 60008 T02620238 10337 20259 403560250 55005

2010/08/08 05:55
KOZR 080555Z AUTO 00000KT 10SM SCT230 24/24 A2992 RMK AO2 SLP129 T02430243 10256 20242 403340242 56009

2010/08/08 05:55
KRND 080555Z AUTO 17007KT 10SM CLR 26/23 A2993 RMK AO2 SLP125 T02650230 10344 20265 403620250 51017

2010/08/08 05:55
KSKF 080555Z AUTO 15009KT 10SM CLR 28/ A2992 RMK AO2 SLP121 T0277 10353 20277 403700241 51017 $

2010/08/08 05:53
PABI 080553Z AUTO 28006KT 10SM OVC050 16/10 A2971 RMK AO2 SLP061 T01560100 10194 20156 53010 TSNO $

2010/08/08 05:55
KBAD 080555Z AUTO 17005KT 10SM CLR 27/24 A2990 RMK AO2 SLP124 T02690241 10312 20269 403590239 51012

2010/08/08 05:55
KBIX 080555Z AUTO 00000KT 10SM CLR 29/26 A2991 RMK AO2 SLP129 60007 T02870258 10323 20287 403500266 50006 $

2010/08/08 05:55
KDOV 080555Z AUTO 17004KT 10SM CLR 22/22 A2999 RMK AO2 SLP158 T02190216 10250 20219 51003

2010/08/08 05:55
KGSB 080555Z AUTO 00000KT 7SM R08/5000V5500FT SCT025 23/23 A2995 RMK AO2 SLP142 60113 T02290229 10290 20227 58001

2010/08/08 05:55
KHST 080555Z AUTO 00000KT 10SM CLR 27/25 A2997 RMK AO2 SLP150 60000 T02690246 10287 20266 58007

2010/08/08 05:55
KOFF 080555Z AUTO 16009KT 10SM CLR 26/23 A2979 RMK AO2 SLP070 T02620233 10315 20262 52003 $

2010/08/08 05:53
PHNL 080553Z 05008KT 10SM FEW028 SCT045 27/19 A3006 RMK AO2 SLP179 T02670194 10317 20267 53012

2010/08/08 05:55
KAFF 080555Z AUTO 23008KT 10SM SCT095 18/13 A3014 RMK AO2 SLP067 60004 T01840129 10261 20168 51013

2010/08/08 05:55
KBIX 080555Z AUTO 00000KT 10SM CLR 29/26 A2991 RMK AO2 SLP129 60007 T02870258 10323 20287 403500266 50006 $

2010/08/08 05:55
KCBM 080555Z AUTO 00000KT 10SM CLR 25/25 A2990 RMK AO2 SLP125 60000 T02540249 10289 20252 403360242 58003 $

2010/08/08 05:55
KCOF 080555Z AUTO 21007KT 10SM CLR 27/ A2994 RMK AO2 SLP139 T0269 10274 20267 58007

2010/08/08 05:55
KDOV 080555Z AUTO 17004KT 10SM CLR 22/22 A2999 RMK AO2 SLP158 T02190216 10250 20219 51003

2010/08/08 05:55
KDYS 080555Z AUTO 17010KT 10SM CLR 27/20 A2991 RMK AO2 SLP099 T02730196 10351 20268 403730223 51012 $

2010/08/08 05:55
KFBG 080555Z 11003KT 10SM CLR 24/22 A2996 RMK AO2A SLP144 60000 T02420221 10290 20240 57001 $

2010/08/08 05:55
KFFO 080555Z 00000KT 10SM CLR 19/17 A3000 RMK AO2A SLP155 10260 20183 50000

2010/08/08 05:55
KHIF 080555Z AUTO 10013KT 10SM CLR 20/09 A2996 RMK AO2 SLP029 T02020093 10280 20202 51012

2010/08/08 05:55
KLHW 080555Z AUTO 00000KT 10SM CLR 25/24 A2992 RMK AO2 SLP131 T02450240 10275 20245 57004

2010/08/08 05:55
KLSF 080555Z AUTO 11003KT 7SM R33/5000V5500FT CLR 24/23 A2993 RMK AO2 SLP134 T02410231 10318 20241 56004 PNO $

2010/08/08 05:55
KMTC 080555Z AUTO 21006KT 10SM BKN100 21/17 A2993 RMK AO2 SLP138 T02100170 10242 20197 53001 $

2010/08/08 05:55
KMUI 080555Z AUTO 00000KT 10SM CLR 19/17 A3001 RMK AO2 SLP162 T01870171 10223 20187 53003 $

2010/08/08 05:55
KMUO 080555Z AUTO 31005KT 7SM R30/4500V5500FT CLR 22/04 A2979 RMK AO2 SLP056 T02160040 10327 20216 52006

2010/08/08 05:55
KMXF 080555Z AUTO 15003KT 10SM CLR 26/24 A2991 RMK AO2 SLP128 60008 T02620238 10337 20259 403560250 55005

2010/08/08 05:55
KCOF 080555Z AUTO 21007KT 10SM CLR 27/ A2994 RMK AO2 SLP139 T0269 10274 20267 58007

2010/08/08 05:55
KDOV 080555Z AUTO 17004KT 10SM CLR 22/22 A2999 RMK AO2 SLP158 T02190216 10250 20219 51003

2010/08/08 05:55
KHIF 080555Z AUTO 10013KT 10SM CLR 20/09 A2996 RMK AO2 SLP029 T02020093 10280 20202 51012

2010/08/08 05:55
KLHW 080555Z AUTO 00000KT 10SM CLR 25/24 A2992 RMK AO2 SLP131 T02450240 10275 20245 57004

2010/08/08 05:50
LGAL 080550Z VRB02KT 9999 FEW030 SCT080 26/17 Q1010

2010/08/08 05:50
LGEL 080550Z 00000KT CAVOK 30/15 Q1009

2010/08/08 05:50
LGKV 080550Z 00000KT CAVOK 24/19 Q1010

2010/08/08 05:50
LGMT 080550Z 00000KT CAVOK 28/22 Q1010

2010/08/08 05:50
LGPZ 080550Z 00000KT 9999 FEW008 24/20 Q1013 NOSIG

2010/08/08 05:50
LGRX 080550Z 00000KT CAVOK 24/20 Q1011 NOSIG

2010/08/08 05:50
LGSR 080550Z 36005KT CAVOK 27/20 Q1008 NOSIG

2010/08/08 05:50
LGZA 080550Z 00000KT CAVOK 23/16 Q1012

2010/08/08 05:55
KGTB 080555Z AUTO 17007KT 10SM CLR 16/11 A2997 RMK AO2 SLP151 T01570105 10185 20148 53001

2010/08/08 05:55
KLFI 080555Z 13005KT 10SM OVC008 25/23 A2999 RMK AO2A SLP158 60000 T02480232 10258 20241 50000

2010/08/08 05:53
KNIP 080553Z 21003KT 10SM SCT043 BKN150 OVC250 25/24 A2993 RMK AO2 SLP132 60003 T02500239 10256 20244 50000

2010/08/08 05:54
KNKT 080554Z AUTO 00000KT 7SM CLR 25/23 A2996 RMK AO2 SLP142 T02500233 10272 20244 58002

2010/08/08 05:53
KNQX 080553Z AUTO 14003KT 10SM BKN042 BKN075 30/25 A2996 RMK AO2 SLP143 6//// T03000250 10311 20294 58010 $

2010/08/08 05:52
KNRB 080552Z AUTO 22003KT 10SM BKN026 BKN042 26/23 A2993 RMK AO2 SLP133 60000 T02560233 10261 20250 50000

2010/08/08 05:55
KPOB 080555Z AUTO 00000KT 10SM CLR 25/24 A2997 RMK AO2 SLP146 T02460240 10286 20239 58002 $

2010/08/08 05:55
KSKA 080555Z AUTO 30010KT 10SM SCT090 BKN110 BKN150 19/09 A2982 RMK AO2 CIG 090 RWY05 SLP084 T01870094 10281 20187 51011

2010/08/08 05:55
MHSC 080555Z AUTO 34003KT 9999 SCT049 22/22 A3000 RMK AO2 SLP116 60056 T02210219 10232 20221 403160212 58003 $

2010/08/08 05:55
PGUA 080555Z AUTO 06011KT 10SM CLR 29/25 A2980 RMK AO2 SLP073 T02910254 10297 20283 56010 VISNO RWY24L $

2010/08/08 05:55
PHHI 080555Z AUTO 07007KT 10SM SCT048 BKN055 24/19 A3009 RMK AO2 SLP177 60000 T02420190 10281 20241 52012 $

2010/08/08 05:55
KVBG 080555Z AUTO 02006KT 10SM OVC005 13/12 A2991 RMK AO2 SLP121 T01280117 10161 20128 50008 TSNO CHINO RWY12 VISNO RWY12 $

2010/08/08 05:55
KNKX 080555Z 00000KT 10SM OVC015 17/13 A2992 RMK AO2 SLP128 T01670128 10211 20139 51016

2010/08/08 05:55
KPOE 080555Z AUTO 22004KT 10SM CLR 27/24 A2992 RMK AO2 SLP130 T02720239 10328 20272 51007

2010/08/08 05:55
KNBG 080555Z AUTO 00000KT 10SM CLR 28/24 A2993 RMK AO2 SLP134 T02830244 10306 20272 403560256 50003 PWINO $

2010/08/08 05:56
KNJK 080556Z AUTO 28006KT 10SM CLR 29/02 A2970 RMK AO2 SLP071 T02940017 10406 20294 51020 TSNO

2010/08/08 05:55
KBIX 080555Z AUTO 00000KT 10SM CLR 29/26 A2991 RMK AO2 SLP129 60007 T02870258 10323 20287 403500266 50006 $

2010/08/08 05:55
KCEF 080555Z AUTO 00000KT 10SM CLR 13/12 A3001 RMK AO2 SLP164 T01310117 10218 20131 52003

2010/08/08 05:55
KFBG 080555Z 11003KT 10SM CLR 24/22 A2996 RMK AO2A SLP144 60000 T02420221 10290 20240 57001 $

2010/08/08 05:55
KGUS 080555Z AUTO 17005KT 10SM CLR 20/19 A2996 RMK AO2 SLP142 T01960194 10258 20196 50000

2010/08/08 05:55
KLRF 080555Z AUTO 00000KT 10SM CLR 26/25 A2991 RMK AO2 SLP126 T02640248 10304 20263 403360237 51005

2010/08/08 05:55
KMMT 080555Z AUTO 00000KT 5SM R32/4000V5000FT BR CLR 24/23 A2994 RMK AO2 SLP138 T02380230 10286 20238 58003

2010/08/08 05:55
KMXF 080555Z AUTO 15003KT 10SM CLR 26/24 A2991 RMK AO2 SLP128 60008 T02620238 10337 20259 403560250 55005

2010/08/08 05:55
KOZR 080555Z AUTO 00000KT 10SM SCT230 24/24 A2992 RMK AO2 SLP129 T02430243 10256 20242 403340242 56009

2010/08/08 05:55
KSSC 080555Z 00000KT 9SM R22/5500VP6000FT CLR 25/23 A2993 RMK AO2A SLP133 60000 T02480231 10297 20248 58004 $

2010/08/08 05:55
KADW 080555Z AUTO 18004KT 10SM CLR 20/17 A3000 RMK AO2 SLP161 T02040165 10258 20197 51004 $

2010/08/08 05:55
KBAB 080555Z AUTO 14007KT 10SM CLR 21/13 A2973 RMK AO2 SLP068 T02110130 10325 20207 51012 $

2010/08/08 05:55
KCVS 080555Z AUTO 17004KT 10SM CLR 21/21 A3002 RMK AO2 SLP114 T02100210 10326 20210 51015 $

2010/08/08 05:55
KEND 080555Z AUTO 13008KT 10SM CLR 28/22 A2985 RMK AO2 SLP089 T02790223 10359 20279 403760232 51008 $

2010/08/08 05:55
KFAF 080555Z AUTO 11003KT 10SM CLR 24/24 A2999 RMK AO2 DZE0502 SLP156 P0000 60000 T02410241 10277 20225 50000 $

2010/08/08 05:55
KFRI 080555Z AUTO 17013G19KT 10SM CLR 28/22 A2982 RMK AO2 SLP080 T02800220 10327 20280 55000

2010/08/08 05:55
KFSI 080555Z AUTO 18006KT 10SM CLR 29/21 A2984 RMK AO2 SLP081 T02890214 10363 20285 403760225 51005

2010/08/08 05:55
KFTK 080555Z AUTO 00000KT 10SM CLR 21/17 A2999 RMK AO2 SLP149 T02120174 10285 20204 51002 $

2010/08/08 05:55
KHFF 080555Z AUTO 00000KT 8SM R22/5000VP6000FT CLR 23/22 A2998 RMK AO2 SLP149 T02320220 10282 20231 58001 $

2010/08/08 05:56
KSDF 080556Z 00000KT 9SM CLR 24/16 A2998 RMK AO2 SLP145 T02390156 10294 20233 51003 $

2010/08/08 05:53
K04W 080553Z AUTO 00000KT 10SM BKN041 BKN047 OVC075 21/20 A2971 RMK AO2 LTG DSNT S AND SW 60023 T02090196 10270 20206 402870131

2010/08/08 05:55
K21D 080555Z AUTO 25005G14KT 10SM TS BKN047 BKN055 BKN070 26/21 A2971 RMK AO2 LTG DSNT NW THRU E

2010/08/08 05:56
KART 080556Z AUTO 18003KT 10SM CLR 16/11 A2997 RMK AO2 SLP145 T01610106 10189 20156 53002

2010/08/08 05:56
KBED 080556Z AUTO 00000KT 10SM CLR 12/10 A3001 RMK AO2 SLP173 T01220100 10222 20122 51002

2010/08/08 05:54
KBJI 080554Z AUTO 00000KT 7SM CLR 19/19 A2968 RMK AO2

2010/08/08 05:56
KBJJ 080556Z AUTO 20003KT 8SM CLR 16/15 A3002 RMK AO2 SLP160 T01610150 10222 20161 58001

2010/08/08 05:54
KC29 080554Z AUTO 20006KT 10SM CLR 23/19 A2985 RMK AO2 T02270185 10265 20227

2010/08/08 05:56
KCTB 080556Z AUTO 26010KT 10SM CLR 18/06 A2980 RMK AO2 SLP057 T01780056 10267 20178 51008 PWINO

2010/08/08 05:56
KCXY 080556Z AUTO 25003KT 10SM BKN065 BKN095 21/16 A3000 RMK AO2 SLP158 T02060161 10256 20200 53004

2010/08/08 05:53
KD39 080553Z AUTO 10003KT 10SM VCTS BKN030 BKN045 BKN050 23/20 A2967 RMK AO2 LTG DSNT E AND SE 60001 T02280200 10307 20225 403210158

2010/08/08 05:56
KDAY 080556Z 15005KT 10SM CLR 20/14 A3002 RMK AO2 SLP157 60000 T02000144 10267 20194 56002

2010/08/08 05:56
KELZ 080556Z AUTO 00000KT 10SM CLR 13/08 A3008 RMK AO2 SLP179 T01280083 10172 20117 51004

2010/08/08 05:56
KGON 080556Z AUTO 00000KT 10SM BKN080 18/17 A3002 RMK AO2 SLP165 T01830167 10233 20178 51004

2010/08/08 05:56
KHPN 080556Z 16003KT 10SM CLR 21/18 A3001 RMK AO2 SLP155 T02060183 10239 20194 51003

2010/08/08 05:56
KHWV 080556Z AUTO 19005KT 10SM CLR 23/20 A3003 RMK AO2 SLP167 T02280200 10233 20211 51005 PWINO $

2010/08/08 05:56
KHYA 080556Z 20008KT 10SM CLR 22/19 A3004 RMK AO2 SLP172 T02220189 10222 20211 51004

2010/08/08 05:56
KISP 080556Z 19007KT 10SM FEW250 23/18 A3001 RMK AO2 SLP160 T02280183 10233 20228 51006

2010/08/08 05:56
KITH 080556Z AUTO 08003KT 10SM CLR 13/11 A3004 RMK AO2 53002 T01270105 10194 20116 SLP170

2010/08/08 05:56
KJXN 080556Z 22004KT 10SM CLR 18/17 A2994 RMK AO2 SLP134 T01830167 10239 20183 55004

2010/08/08 05:56
KLRD 080556Z AUTO 16015KT 10SM CLR 31/23 A2991 RMK AO2 51017 T03050233 10372 20305 SLP114

2010/08/08 05:56
KMDT 080556Z 00000KT 9SM FEW065 21/17 A2999 RMK AO2 SLP155 T02110172 10256 20211 53005

2010/08/08 05:56
KOWB 080556Z AUTO 00000KT 9SM CLR 20/18 A2997 RMK AO2 53002 T02000177 10294 20200 SLP143

2010/08/08 05:56
KSGH 080556Z AUTO 00000KT 8SM CLR 17/16 A3002 RMK AO2 56000 T01720161 10250 20166 SLP157 $

2010/08/08 05:58
KSGJ 080558Z AUTO 15003KT 10SM SCT026 OVC070 26/24 A2994 RMK AO2 SLP136 60002 T02560244 10261 20250 50001

2010/08/08 05:55
KSME 080555Z AUTO 00000KT 5SM BR 19/18 A2999 RMK AO2

2010/08/08 05:56
KUKI 080556Z AUTO 00000KT 10SM CLR 19/11 A2981 RMK AO2 SLP087 60000 T01940111 10328 20189 51017

2010/08/08 05:53
KUNI 080553Z AUTO 00000KT 10SM CLR 19/15 A3000 RMK AO2

2010/08/08 05:55
KY51 080555Z AUTO 17004KT 7SM CLR 22/21 A2981 RMK AO1 T02180207 10261 20218

2010/08/08 05:56
PAAK 080556Z AUTO 18014G21KT 5SM OVC007 11/08 A2939 RMK AO1 10130 20110 57020 PNO

2010/08/08 05:56
PABL 080556Z AUTO 32004KT 10SM OVC065 14/09 A2961 RMK AO1 10160 20140 52003 PNO

2010/08/08 05:56
PABV 080556Z AUTO 04003KT 10SM OVC013 12/08 A2977 RMK AO1 10140 20110 52007 PNO

2010/08/08 05:56
PACM 080556Z AUTO 18006KT 10SM OVC017 12/09 A2963 RMK AO2 TSNO 56006 60000 T01220094 10133 20116 RAB20E30 P0000 SLP029 $

2010/08/08 05:56
PADL 080556Z 18004KT 10SM BKN011 10/08 A2978 RMK AO1 10130 20100 52003 PNO TSNO

2010/08/08 05:56
PAEM 080556Z AUTO 00000KT 5SM FEW030 FEW039 OVC049 13/10 A2959 RMK AO1 10140 20120 57003 PNO

2010/08/08 05:56
PAFE 080556Z AUTO 09006KT 10SM FEW020 SCT026 OVC035 12/10 A2990 RMK AO1 10140 20120 52007 PNO

2010/08/08 05:55
KMUO 080555Z AUTO 31005KT 7SM R30/4500V5500FT CLR 22/04 A2979 RMK AO2 SLP056 T02160040 10327 20216 52006

2010/08/08 05:52
KNFW 080552Z AUTO 17010KT 10SM CLR 31/19 A2990 RMK AO2 SLP108 T03110189 10372 20306 403890261 51012 $

2010/08/08 05:52
KNHK 080552Z AUTO 00000KT 10SM CLR 20/18 A2999 RMK AO2 SLP155 T02000178 10261 20200 50002

2010/08/08 05:55
KSLI 080555Z AUTO 17003KT 10SM BKN020 15/14 A2991 RMK AO2 SLP130 T01540138 10203 20151 51018

2010/08/08 05:55
KSSC 080555Z 00000KT 9SM R22/5500VP6000FT CLR 25/23 A2993 RMK AO2A SLP133 60000 T02480231 10297 20248 58004 $

2010/08/08 05:55
KTIK 080555Z 14005KT 10SM CLR 28/23 A2986 RMK AO2A SLP096 T02760225 10342 20276 403570244 51008

2010/08/08 05:55
KVOK 080555Z 13004KT 10SM BKN150 22/21 A2980 RMK AO2A SLP086 T02190210 10262 20217 402800130 53002 $

2010/08/08 05:55
KWRI 080555Z AUTO 24005KT 10SM CLR 20/20 A3000 RMK AO2 SLP158 60000 T02020197 10263 20202 51005 $

2010/08/08 05:55
PAEI 080555Z AUTO 00000KT 10SM BKN085 BKN140 15/11 A2967 RMK AO2 SLP048 T01470106 10198 20145 52008 $

2010/08/08 05:52
KNHK 080552Z AUTO 00000KT 10SM CLR 20/18 A2999 RMK AO2 SLP155 T02000178 10261 20200 50002

2010/08/08 05:55
KOFF 080555Z AUTO 16009KT 10SM CLR 26/23 A2979 RMK AO2 SLP070 T02620233 10315 20262 52003 $

2010/08/08 05:55
KOZR 080555Z AUTO 00000KT 10SM SCT230 24/24 A2992 RMK AO2 SLP129 T02430243 10256 20242 403340242 56009

2010/08/08 05:55
KRIV 080555Z AUTO 00000KT 10SM CLR 15/10 A2991 RMK AO2 SLP126 T01540101 10288 20154 51019

2010/08/08 05:55
KRND 080555Z AUTO 17007KT 10SM CLR 26/23 A2993 RMK AO2 SLP125 T02650230 10344 20265 403620250 51017

2010/08/08 05:55
KSKF 080555Z AUTO 15009KT 10SM CLR 28/ A2992 RMK AO2 SLP121 T0277 10353 20277 403700241 51017 $

2010/08/08 05:55
KSLI 080555Z AUTO 17003KT 10SM BKN020 15/14 A2991 RMK AO2 SLP130 T01540138 10203 20151 51018

2010/08/08 05:55
KSSC 080555Z 00000KT 9SM R22/5500VP6000FT CLR 25/23 A2993 RMK AO2A SLP133 60000 T02480231 10297 20248 58004 $

2010/08/08 05:55
KSUU 080555Z AUTO 25022KT 10SM CLR 14/11 A2975 RMK AO2 PK WND 25029/0455 SLP076 T01430114 10258 20142 53009 RVRNO $

2010/08/08 05:55
KSZL 080555Z AUTO 13004KT 10SM CLR 24/21 A2988 RMK AO2 SLP112 T02380212 10301 20237 51005 PNO $

2010/08/08 05:55
KTIK 080555Z 14005KT 10SM CLR 28/23 A2986 RMK AO2A SLP096 T02760225 10342 20276 403570244 51008

2010/08/08 05:55
KVOK 080555Z 13004KT 10SM BKN150 22/21 A2980 RMK AO2A SLP086 T02190210 10262 20217 402800130 53002 $

2010/08/08 05:55
KWRI 080555Z AUTO 24005KT 10SM CLR 20/20 A3000 RMK AO2 SLP158 60000 T02020197 10263 20202 51005 $

2010/08/08 05:55
KCOF 080555Z AUTO 21007KT 10SM CLR 27/ A2994 RMK AO2 SLP139 T0269 10274 20267 58007

2010/08/08 05:55
KLFI 080555Z 13005KT 10SM OVC008 25/23 A2999 RMK AO2A SLP158 60000 T02480232 10258 20241 50000

2010/08/08 05:52
KNHK 080552Z AUTO 00000KT 10SM CLR 20/18 A2999 RMK AO2 SLP155 T02000178 10261 20200 50002

2010/08/08 05:53
KNIP 080553Z 21003KT 10SM SCT043 BKN150 OVC250 25/24 A2993 RMK AO2 SLP132 60003 T02500239 10256 20244 50000

2010/08/08 05:54
KNKT 080554Z AUTO 00000KT 7SM CLR 25/23 A2996 RMK AO2 SLP142 T02500233 10272 20244 58002

2010/08/08 05:53
KNQX 080553Z AUTO 14003KT 10SM BKN042 BKN075 30/25 A2996 RMK AO2 SLP143 6//// T03000250 10311 20294 58010 $

2010/08/08 05:52
KNRB 080552Z AUTO 22003KT 10SM BKN026 BKN042 26/23 A2993 RMK AO2 SLP133 60000 T02560233 10261 20250 50000

2010/08/08 05:55
KPOB 080555Z AUTO 00000KT 10SM CLR 25/24 A2997 RMK AO2 SLP146 T02460240 10286 20239 58002 $

2010/08/08 05:55
KSSC 080555Z 00000KT 9SM R22/5500VP6000FT CLR 25/23 A2993 RMK AO2A SLP133 60000 T02480231 10297 20248 58004 $

2010/08/08 05:55
KWRI 080555Z AUTO 24005KT 10SM CLR 20/20 A3000 RMK AO2 SLP158 60000 T02020197 10263 20202 51005 $

2010/08/08 05:55
KBAB 080555Z AUTO 14007KT 10SM CLR 21/13 A2973 RMK AO2 SLP068 T02110130 10325 20207 51012 $

2010/08/08 05:55
KFTK 080555Z AUTO 00000KT 10SM CLR 21/17 A2999 RMK AO2 SLP149 T02120174 10285 20204 51002 $

2010/08/08 05:56
PAFM 080556Z AUTO 00000KT 10SM BKN050 OVC100 13/11 A2961 RMK AO1 10140 20130 52010 PNO

2010/08/08 05:56
PAGL 080556Z AUTO 27006KT 10SM SCT021 BKN036 OVC049 15/12 A2963 RMK AO1 10170 20150 52003 PNO

2010/08/08 05:56
PAGM 080556Z AUTO 04012KT 1 1/4SM OVC003 08/06 A2961 RMK AO1 10090 20080 57007

2010/08/08 05:56
PAGS 080556Z AUTO 00000KT 10SM FEW031 OVC043 12/11 A2986 RMK AO1 10140 20120 52007 PNO

2010/08/08 05:56
PAHP 080556Z AUTO 14010KT 10SM OVC010 11/08 A2959 RMK AO1 10120 20110 57014 PNO TSNO

2010/08/08 05:56
PAHY 080556Z AUTO 00000KT 10SM OVC015 13/11 A2992 RMK AO1 10140 20130 52007 PNO

2010/08/08 05:56
PAII 080556Z AUTO 22004KT 10SM OVC004 09/08 A2984 RMK AO1 10110 20090 57003 PNO

2010/08/08 05:56
PAIN 080556Z AUTO 00000KT 10SM OVC065 14/08 A2969 RMK AO1 10160 20140 52010 PNO

2010/08/08 05:56
PAJC 080556Z AUTO 35004KT 10SM BKN017 OVC025 14/11 A2979 RMK AO1 10160 20140 57007 PNO

2010/08/08 05:56
PAKK 080556Z AUTO 23004KT 10SM BKN017 OVC065 15/11 A2958 RMK AO1 10160 20140 52007 PNO

2010/08/08 05:56
PAKP 080556Z AUTO 05006KT 10SM BKN041 OVC050 09/07 A2961 RMK AO1 10110 20090 52010

2010/08/08 05:56
PAMD 080556Z AUTO 21007KT 7SM BKN010 OVC015 12/09 A2981 RMK AO1 10130 20120 54000 PNO

2010/08/08 05:56
PAMH 080556Z 22005KT 10SM OVC075 12/09 A2969 RMK AO1 PNO

2010/08/08 05:56
PAMM 080556Z AUTO 20006KT 10SM BKN017 BKN024 OVC029 14/10 A2993 RMK AO1 10150 20140 52003 PNO

2010/08/08 05:56
PAMY 080556Z 16014KT 10SM OVC012 10/07 A2959 RMK AO1 10130 20100 57017

2010/08/08 05:56
PANI 080556Z AUTO 00000KT 10SM FEW015 OVC023 12/09 A2972 RMK AO1 10120 20120 52003 PNO

2010/08/08 05:56
PANV 080556Z AUTO 19006KT 10SM FEW013 BKN033 13/11 A2966 RMK AO1 10140 20120 52003 PNO

2010/08/08 05:56
PAOU 080556Z AUTO 00000KT 5SM BR CLR 12/11 A2974 RMK AO2 PWINO TSNO 56017 T01220111 10138 20105 SLP075 $

2010/08/08 05:56
PAPG 080556Z 00000KT 4SM SCT005 BKN018 OVC024 12/11 A2988 RMK AO1 WEA

2010/08/08 05:56
PAPH 080556Z AUTO 36003KT 10SM OVC080 12/09 A2980 RMK AO1 10130 20110 57010 PNO

2010/08/08 05:56
PARC 080556Z AUTO 13003KT 10SM SCT022 SCT035 OVC060 10/05 A2967 RMK AO1 PNO

2010/08/08 05:56
PASA 080556Z AUTO 06007KT 3/4SM OVC003 09/07 A2961 RMK AO1 10090 20080 57010 PNO

2010/08/08 05:56
PASD 080556Z AUTO 18012KT 10SM BKN013 BKN019 OVC023 11/10 A2982 RMK AO1 10150 20110 57003 PNO

2010/08/08 05:56
PASH 080556Z AUTO 34006KT 10SM OVC003 08/07 A2965 RMK AO1 10090 20080 54000 PNO

2010/08/08 05:56
PASK 080556Z AUTO 25007KT 10SM BKN011 OVC080 14/11 A2958 RMK AO1 10160 20140 52003 PNO

2010/08/08 05:56
PASL 080556Z AUTO 00000KT 10SM BKN030 BKN035 OVC047 12/10 A2975 RMK AO1 10140 20120 54000 PNO

2010/08/08 05:56
PASM 080556Z AUTO 19007KT 10SM OVC039 12/09 A2966 RMK AO1 10140 20120 54000 PNO

2010/08/08 05:56
PASX 080556Z AUTO 00000KT 10SM FEW018 BKN024 OVC060 13/10 A2977 RMK AO1 10130 20120 52007 PNO

2010/08/08 05:56
PATG 080556Z AUTO 18006KT 10SM OVC010 11/09 A2974 RMK AO1 10120 20110 57003 PNO

2010/08/08 05:56
PAUN 080556Z AUTO 25006KT 10SM SCT015 BKN025 BKN070 14/09 A2962 RMK AO1 10160 20140 52007 PNO

2010/08/08 05:56
PAVD 080556Z 09003KT 5SM FEW010 SCT030 OVC040 10/08 A2980 RMK AO1 0547Z WEA

2010/08/08 05:56
PAWG 080556Z 00000KT 3SM BKN020 OVC027 12/11 A2990 RMK AO1 WEA

2010/08/08 05:56
PAWS 080556Z AUTO 00000KT 7SM FEW011 SCT016 BKN036 11/10 A2977 RMK AO1 10150 20110 52007 PNO

2010/08/08 05:56
PAZK 080556Z AUTO 24007KT 10SM FEW039 BKN048 OVC060 08/06 A2974 RMK AO1 10140 20080 52007 PNO

2010/08/08 05:56
KNFE 080556Z AUTO 00000KT 1SM BR VV008 23/21 A2999 RMK AO2 SLP158 T02330211 10256 20228 53001 $

2010/08/08 05:54
KGSO 080554Z 00000KT 8SM CLR 22/19 A3002 RMK AO2 SLP152 T02220189 10272 20222 58002

2010/08/08 05:54
KROA 080554Z 00000KT 9SM FEW080 22/18 A3006 RMK AO2 SLP165 T02170178 10256 20211 58001 $

2010/08/08 05:54
KCOU 080554Z AUTO 13005KT 10SM CLR 23/21 A2991 RMK AO2 SLP120 T02280211 10289 20228 403060189 50004 TSNO

2010/08/08 05:54
KLEX 080554Z 13003KT 10SM CLR 21/14 A3000 RMK AO2 SLP149 T02110144 10272 20189 58000

2010/08/08 05:54
KLYH 080554Z AUTO 00000KT 8SM CLR 18/17 A3004 RMK AO2 SLP163 T01830172 10239 20178 58002

2010/08/08 05:54
KORH 080554Z AUTO 22006KT 10SM CLR 16/11 A3004 RMK AO2 SLP170 T01560111 10211 20156 55001

2010/08/08 05:54
KPIA 080554Z 19007KT 7SM CLR 22/19 A2992 RMK AO2 SLP127 T02220189 10278 20222 402940178 53003

2010/08/08 05:55
KGPZ 080555Z AUTO 00000KT 10SM CLR 19/17 A2970 RMK AO1 10240 20190 52003

2010/08/08 05:54
KCOS 080554Z 09007KT 10SM BKN110 19/15 A3012 RMK AO2 SLP097 T01940150 10294 20194 51016

2010/08/08 05:54
KCRW 080554Z 00000KT 8SM CLR 18/17 A3001 RMK AO2 SLP154 VLY FG T01830172 10256 20183 50000

2010/08/08 05:54
KDSM 080554Z 19009KT 10SM FEW090 25/21 A2982 RMK AO2 SLP089 T02500206 10300 20250 403220211 50001

2010/08/08 05:55
KDVL 080555Z AUTO 00000KT 10SM CLR 21/18 A2966 RMK AO1 10280 20210 54000

2010/08/08 05:55
KEAR 080555Z AUTO 19010KT 10SM CLR 26/21 A2983 RMK AO1 10320 20250 52007

2010/08/08 05:54
KSUS 080554Z AUTO 00000KT 8SM CLR 24/18 A2991 RMK AO2 SLP120 T02390183 10311 20233 403280172 51004

2010/08/08 05:54
KSYR 080554Z 15003KT 10SM FEW250 14/11 A3000 RMK AO2 SLP153 T01440111 10211 20144 53001

2010/08/08 05:54
KROC 080554Z 20003KT 10SM FEW080 SCT200 15/11 A2999 RMK AO2 SLP152 T01500111 10211 20144 58001 $

2010/08/08 05:54
KACY 080554Z 16003KT 10SM CLR 22/20 A3003 RMK AO2 SLP166 T02220200 10256 20222 50003

2010/08/08 05:54
KMTP 080554Z AUTO VRB03KT 22/19 A3004 RMK AO2 SLP172 T0270194 10222 20211 52005 PWINO TSNO

2010/08/08 05:53
PHKO 080553Z 21005KT 10SM OVC060 26/21 A3003 RMK AO2 SLP169 T02560211 10278 20256 53013

2010/08/08 05:54
PHOG 080554Z 05012KT 10SM FEW049 SCT060 26/19 A3006 RMK AO2 SLP183 60000 T02560189 10322 20256 53020

2010/08/08 05:53
PHTO 080553Z 09006KT 10SM OVC065 23/21 A3008 RMK AO2 SLP185 T02330206 10283 20233 53017

2010/08/08 05:53
K6R6 080553Z AUTO 10005KT 28/18 A2991 RMK AO2 SLP088 T02780178 10339 20278 403560211 51014 PWINO TSNO

2010/08/08 05:53
KMSN 080553Z 19008G16KT 9SM CLR 23/19 A2984 RMK AO2 SLP098 T02330189 10267 20233 402830150 55005

2010/08/08 05:53
KMWT 080553Z AUTO 12003KT 10SM FEW110 27/23 A2989 RMK AO2 SLP108 T02670233 10300 20256 403330228 50003 TSNO

2010/08/08 05:55
KRNO 080555Z 02004KT 10SM FEW090 SCT120 BKN150 23/02 A2993 RMK AO2 SLP078 60000 T02280022 10294 20228 53010

2010/08/08 05:53
KSAV 080553Z 00000KT 8SM FEW015 25/24 A2992 RMK AO2 SLP132 T02500239 10289 20250 58005

2010/08/08 05:55
KSCK 080555Z AUTO 29005KT 10SM CLR 20/12 A2975 RMK AO2 SLP075 T02000122 10317 20200 50009 $

2010/08/08 05:53
KTLH 080553Z 00000KT 10SM SCT095 24/24 A2992 RMK AO2 SLP130 60001 T02440239 10272 20244 58005

2010/08/08 05:53
KTRI 080553Z 00000KT 7SM SCT055 19/17 A3002 RMK AO2 SLP145 T01940167 10272 20183 58003

2010/08/08 05:53
KTYS 080553Z 00000KT 9SM CLR 22/19 A2997 RMK AO2 SLP135 T02170194 10300 20217 58001

2010/08/08 05:53
KLAX 080553Z 24004KT 10SM BKN012 16/12 A2991 RMK AO2 SLP127 T01610122 10183 20161 51015

2010/08/08 05:53
K4BM 080553Z AUTO 19004KT 10SM -RA 09/08 A3050 RMK AO2 LTG DSNT NE AND NW

2010/08/08 05:52
KABI 080552Z 16008KT 10SM CLR 28/19 A2992 RMK AO2 SLP101 T02780194 10356 20278 403720233 51013 $

2010/08/08 05:53
KBTR 080553Z 25005KT 10SM FEW040 28/25 A2992 RMK AO2 SLP129 OCNL LTGIC CB DSNT N T02780250 10328 20278 403440244 50006

2010/08/08 05:54
KBTV 080554Z 12003KT 10SM CLR 12/10 A2998 RMK AO2 SLP152 T01170100 10178 20117 53002

2010/08/08 05:53
KCHA 080553Z 04003KT 10SM CLR 26/21 A2996 RMK AO2 SLP135 T02560206 10322 20250 50000

2010/08/08 05:55
KMSV 080555Z AUTO 00000KT 10SM BKN070 12/10 A3005 RMK AO1 10220 20120 52003

2010/08/08 05:55
KMTW 080555Z 23006KT 10SM CLR 23/18 A2981 RMK AO1 10260 20230 57003

2010/08/08 05:54
KMVL 080554Z AUTO 00000KT 10SM CLR 08/07 A3002 RMK AO2 SLP168 T00830072 10156 20083 53001

2010/08/08 05:55
KMVN 080555Z AUTO 00000KT 8SM CLR 20/17 A2997 RMK AO1 52007

2010/08/08 05:55
KOCH 080555Z AUTO 18004KT 10SM CLR 28/24 A2990 RMK AO1 10360 20280 403700230 52010

2010/08/08 05:54
KOFP 080554Z AUTO 00000KT 10SM CLR 21/18 A3002 RMK AO2 SLP162 T02060178 10267 20206 53001

2010/08/08 05:55
KOKK 080555Z AUTO 16004KT 9SM CLR 19/13 A2997 RMK AO1 10270 20190

2010/08/08 05:54
KOLM 080554Z AUTO 20006KT 10SM BKN046 OVC055 16/14 A2992 RMK AO2 SLP131 60001 T01560144 10178 20156 50004

2010/08/08 05:54
KOLS 080554Z AUTO 00000KT 10SM FEW039 SCT120 21/18 A3008 RMK AO2 RAB03E12B31E40 SLP118 P0000 60021 T02060178 10300 20200 53006

2010/08/08 05:55
KOLU 080555Z AUTO 18011G17KT 10SM CLR 27/22 A2978 RMK AO1 10310 20270 52003

2010/08/08 05:55
KOTG 080555Z AUTO 20014G18KT 10SM CLR 24/18 A2975 RMK AO1 10280 20240 52003

2010/08/08 05:55
KOTH 080555Z 34004KT 1 1/2SM OVC004 15/15 A2999 RMK AO1 10180 20140 52007

2010/08/08 05:54
KPHF 080554Z 10003KT 7SM CLR 23/23 A2999 RMK AO2 SLP156 T02280228 10250 20211 50000

2010/08/08 05:54
KPHL 080554Z 22004KT 10SM SCT080 SCT250 23/20 A3001 RMK AO2 SLP163 T02330200 10283 20233 51005 $

2010/08/08 05:55
KPIB 080555Z AUTO 02003KT 10SM SCT060 25/22 A2993 RMK AO1 10320 20250 57003

2010/08/08 05:55
KFAM 080555Z AUTO 00000KT 10SM CLR 22/18 A2998 RMK AO1 10300 20220 52007

2010/08/08 05:54
KFIG 080554Z AUTO 34003KT 10SM CLR 12/11 A3007 RMK AO2 SLP175 T01220111 10222 20122 53002

2010/08/08 05:55
KFKL 080555Z AUTO 17004KT 10SM CLR 16/12 A3007 RMK AO1 10220 20150

2010/08/08 05:55
KFLP 080555Z AUTO 00000KT 10SM CLR 26/22 A2993 RMK AO1 10310 20260 52007

2010/08/08 05:55
KFMH 080555Z AUTO 20005KT 10SM CLR 19/18 A3005 RMK AO2

2010/08/08 05:55
KFNL 080555Z AUTO 13004KT 10SM CLR 24/11 A3001 RMK AO1 10300 20230 52017

2010/08/08 05:55
KFOD 080555Z AUTO 20014G21KT 10SM CLR 24/22 A2978 RMK AO1 10280 20240 54000

2010/08/08 05:55
KFRM 080555Z 20012G16KT 10SM FEW075 25/22 A2975 RMK AO1 10290 20240 57003

2010/08/08 05:55
KGAD 080555Z AUTO 00000KT 10SM CLR 23/21 A2994 RMK AO1 10310 20230 57003

2010/08/08 05:55
KGAI 080555Z 00000KT 10SM CLR 18/17 A3004 RMK AO1 10270 20180 52003

2010/08/08 05:55
KGBD 080555Z AUTO 16007KT 10SM CLR 26/21 A2985 RMK AO1 10360 20260 52007

2010/08/08 05:54
KGCK 080554Z AUTO 16007KT 10SM CLR 25/19 A2988 RMK AO2 SLP074 T02500194 10356 20250 403720194 51009

2010/08/08 05:54
KGCN 080554Z AUTO 00000KT 10SM CLR 11/09 A3020 RMK AO2 SLP163 T01060094 10194 20106 50006

2010/08/08 05:55
KGDV 080555Z AUTO 33004KT 10SM CLR 21/10 A2975 RMK AO1 10320 20210 52010

2010/08/08 05:54
KGED 080554Z AUTO 00000KT 9SM CLR 21/20 A3001 RMK AO2 SLP162 T02110200 10261 20206 51001

2010/08/08 05:55
KGTR 080555Z 00000KT 10SM CLR 25/24 A2991 RMK AO1 54000

2010/08/08 05:55
KGTU 080555Z 18009G14KT 10SM CLR 29/21 A2994 RMK AO1

2010/08/08 05:55
KGUC 080555Z AUTO 00000KT 10SM FEW065 OVC090 14/08 A3029 RMK AO1 60003 10230 20140 52020

2010/08/08 05:55
KGXY 080555Z AUTO 15006KT 10SM BKN120 22/16 A3000 RMK AO1 10330 20220 52014

2010/08/08 05:55
KGYH 080555Z AUTO 03003KT 10SM SCT042 SCT050 BKN120 27/20 A2999 RMK AO2

2010/08/08 05:55
KHDN 080555Z 15006KT 10SM FEW070 13/11 A3019 RMK AO1 10160 20130 57003

2010/08/08 05:55
KHEF 080555Z AUTO 00000KT 4SM CLR 17/16 A3001 RMK AO1 10260 20170 52003

2010/08/08 05:55
KHEZ 080555Z AUTO 17003KT 10SM CLR 26/23 A2992 RMK AO1 10320 20260 54000

2010/08/08 05:55
KHNB 080555Z AUTO 00000KT 9SM CLR 18/18 A2998 RMK AO1 10270 20180 403000160 52007

2010/08/08 05:54
KHWD 080554Z AUTO 31005KT 10SM FEW012 14/11 A2985 RMK AO2 SLP118 T01440111 10206 20144 50006 $

2010/08/08 05:55
KHYI 080555Z AUTO 19007KT 10SM CLR 27/23 A2993 RMK AO1 10350 20270 403600250 52017

2010/08/08 05:55
KHYS 080555Z AUTO 19005KT 10SM CLR 26/18 A2985 RMK AO1 10370 20260 52014

2010/08/08 06:02
KCPW 080602Z AUTO 22004KT M1/4SM FG OVC001 07/06 A3052 RMK AO2

2010/08/08 06:00
KVTP 080600Z AUTO 25014G27KT 10SM CLR 11/06 A3039 RMK AO2

2010/08/08 05:55
KCNK 080555Z AUTO 17011KT 10SM CLR 27/21 A2982 RMK AO2 SLP077 T02720211 10333 20272 403610217 53005

2010/08/08 05:53
KDAB 080553Z 00000KT 10SM FEW090 OVC250 26/24 A2994 RMK AO2 SLP137 60000 T02560244 10272 20256 58006

2010/08/08 05:55
KDLH 080555Z 14009KT 10SM SCT002 SCT095 17/16 A2972 RMK AO2 TSE13RAE15 SLP062 OCNL LTG DSNT E FRQ LTG DSNT S-SW P0000 6//// T01720161 10189 20172 402500139 50004 PNO $

2010/08/08 05:54
KFWA 080554Z 19003KT 10SM CLR 18/17 A2998 RMK AO2 SLP146 T01830167 10250 20183 58000

2010/08/08 05:55
KGPI 080555Z AUTO 00000KT 10SM CLR 15/09 A2981 RMK AO2 SLP078 T01500094 10283 20139 51015

2010/08/08 05:55
KIRK 080555Z AUTO 18005KT 9SM CLR 22/21 A2991 RMK AO2 SLP121 T02220206 10283 20222 403060178 51005

2010/08/08 05:55
KLIC 080555Z AUTO 11009KT 070V130 10SM CLR 19/12 A3002 RMK AO2 SLP076 60029 T01940122 10283 20167 50002

2010/08/08 05:53
KLND 080553Z AUTO 26005KT 10SM CLR 21/03 A2998 RMK AO2 SLP071 T02110033 10300 20206 51005

2010/08/08 05:53
KLXV 080553Z AUTO 06005KT 10SM BKN120 09/08 A3038 RMK AO2 RAE06 SLP110 P0001 60011 T00940083 10172 20089 50011 TSNO

2010/08/08 05:55
KMKG 080555Z 20009KT 10SM BKN055 OVC070 25/22 A2987 RMK AO2 SLP110 T02500217 10261 20244 56004

2010/08/08 05:55
KDRA 080555Z AUTO 09012KT 10SM CLR 28/07 A2984 RMK AO2 SLP050 T02780067 10344 20272 50010 TSNO $

2010/08/08 05:55
KMBG 080555Z AUTO 13003KT 10SM CLR 22/15 A2968 RMK AO2 SLP037 T02170150 10328 20189 403440189 51006 TSNO

2010/08/08 05:54
KRFD 080554Z 20008KT 10SM CLR 21/18 A2989 RMK AO2 SLP117 T02110183 10267 20211 402830167 56002

2010/08/08 05:53
KDAB 080553Z 00000KT 10SM FEW090 OVC250 26/24 A2994 RMK AO2 SLP137 60000 T02560244 10272 20256 58006

2010/08/08 05:53
KSAV 080553Z 00000KT 8SM FEW015 25/24 A2992 RMK AO2 SLP132 T02500239 10289 20250 58005

2010/08/08 05:54
KSYR 080554Z 15003KT 10SM FEW250 14/11 A3000 RMK AO2 SLP153 T01440111 10211 20144 53001

2010/08/08 05:56
KCHS 080556Z 00000KT 7SM CLR 25/24 A2992 RMK AO2 SLP131 T02500239 10283 20250 58005

2010/08/08 05:55
KAST 080555Z AUTO 30005KT 5SM BR OVC003 15/14 A2995 RMK AO2 RAE39 SLP140 P0002 60004 T01500139 10167 20150 50003

2010/08/08 05:56
KABQ 080556Z 35008KT 10SM FEW095 23/12 A3014 RMK AO2 SLP108 T02280122 10328 20228 51017

2010/08/08 05:56
TJSJ 080556Z 11005KT 10SM FEW025 SCT031 SCT046 28/24 A2996 RMK AO2 RAB45E54 SLP143 P0000 60000 T02830239 10289 20278 58013

2010/08/08 05:56
KJAX 080556Z 00000KT 10SM FEW003 SCT025 SCT150 OVC250 24/23 A2992 RMK AO2 SLP133 60006 T02440233 10250 20244 58000

2010/08/08 05:55
KPHP 080555Z AUTO 26003KT 10SM CLR 20/17 A2976 RMK AO2 SLP053 T02000172 10350 20200 53006 TSNO

2010/08/08 05:56
KSHV 080556Z 19005KT 10SM SCT290 28/24 A2989 RMK AO2 SLP118 T02780244 10300 20278 403670244 51012

2010/08/08 05:55
KANJ 080555Z AUTO 00000KT 10SM OVC019 18/16 A2977 RMK AO2 RAB18E48 SLP076 P0001 60001 T01830161 10222 20183 56008

2010/08/08 05:55
KAAT 080555Z AUTO 20006G19KT 10SM OVC110 22/06 A2998 RMK AO2 SLP104 T02170056 10306 20206 53031 TSNO

2010/08/08 05:53
KRQE 080553Z AUTO 00000KT 8SM BKN003 14/13 A3023 RMK AO2 SLP125 60001 T01440133 10178 20144 53004 TSNO

2010/08/08 05:56
KINW 080556Z AUTO 10SM OVC120 16/15 A3014 RMK AO2 SLP153 T01610150 10172 20161 50005 $

2010/08/08 05:56
KMOB 080556Z 21003KT 10SM FEW050 27/24 A2992 RMK AO2 TSE20 SLP130 FRQ LTGIC DSNT SW CB DSNT SW T02670239 10289 20267 403670256 51000

2010/08/08 05:56
KOFK 080556Z AUTO 19014KT 10SM CLR 26/21 A2977 RMK AO2 SLP064 T02560211 10311 20256 403280206 53004

2010/08/08 05:56
KSFO 080556Z 27007KT 10SM FEW006 14/10 A2985 RMK AO2 SLP107 T01440100 10189 20139 50008

2010/08/08 05:55
KSMS 080555Z AUTO 05004KT 2 1/2SM BR CLR 23/23 A2995 RMK AO2

2010/08/08 05:56
KBZN 080556Z AUTO 18006KT 10SM CLR 17/08 A2992 RMK AO2 SLP085 T01720083 10261 20161 50013

2010/08/08 05:55
KDVK 080555Z AUTO 00000KT 10SM CLR 18/16 A3000 RMK AO1

2010/08/08 05:55
KTKV 080555Z AUTO 01006KT 3/4SM +RA OVC004 18/17 A2984 RMK AO2 P0295

2010/08/08 05:50
EBAW 080550Z 25006KT 4500 BR BKN005 BKN040 16/14 Q1016 TEMPO SHRA

2010/08/08 05:50
EBBR 080550Z 25006KT 6000 SCT005 BKN006 15/14 Q1016 TEMPO 4500 BR

2010/08/08 05:50
EBCI 080550Z 25006KT 2800 BR SCT003 BKN004 14/12 Q1017 TEMPO -SHRA

2010/08/08 05:50
EBLG 080550Z 26007KT 9999 SCT005 SCT044 14/13 Q1016 TEMPO BKN005

2010/08/08 05:50
EBOS 080550Z 33010KT 9999 FEW010 SCT013 18/14 Q1017 NOSIG

2010/08/08 05:50
ELLX 080550Z 27007KT 230V300 9999 FEW006 14/12 Q1017 NOSIG

2010/08/08 05:50
LOWG 080550Z VRB01KT 0400 R17/0400N R35/0800V1500D BCFG BKN002 14/14 Q1019 BECMG TL0730 9999 NSW

2010/08/08 05:50
LOWI 080550Z 00000KT 9999 FEW007 SCT011 BKN070 12/11 Q1021 TEMPO BKN012

2010/08/08 05:50
LOWK 080550Z VRB01KT 8000 SCT006 OVC008 14/13 Q1020 NOSIG

2010/08/08 05:50
LOWL 080550Z 26003KT 8000 VCFG FEW008 SCT280 14/13 Q1018 NOSIG

2010/08/08 05:50
LOWS 080550Z 15010KT 9999 FEW010 14/11 Q1019 NOSIG

2010/08/08 05:50
LOWW 080550Z 29011KT 9999 -SHRA FEW033 BKN065 17/13 Q1017 NOSIG

2010/08/08 05:50
EFIV 080550Z AUTO VRB01KT CAVOK 19/16 Q1017

2010/08/08 05:50
EFKE 080550Z AUTO 01004KT CAVOK 19/17 Q1016

2010/08/08 05:50
LGAD 080550Z 00000KT CAVOK 24/20 Q1013

2010/08/08 05:50
LGIR 080550Z 16005KT CAVOK 26/18 Q1010 NOSIG

2010/08/08 05:50
LGKL 080550Z 33004KT CAVOK 23/16 Q1010

2010/08/08 05:50
LGKO 080550Z 31007KT 9000 SCT008 26/23 Q1009

2010/08/08 05:50
LGKR 080550Z 00000KT CAVOK 24/17 Q1012 NOSIG

2010/08/08 05:50
LGLM 080550Z VRB03KT 8000 FEW010 26/24 Q1009

2010/08/08 05:50
LGSA 080550Z 27013KT CAVOK 27/16 Q1010

2010/08/08 05:50
LGSM 080550Z 00000KT 9999 FEW018 25/22 Q1009

2010/08/08 05:50
LGTS 080550Z 31010KT CAVOK 26/21 Q1011 NOSIG

2010/08/08 05:45
LIBR 080545Z 34014G24KT 9999 SCT020 22/16 Q1015 NOSIG

2010/08/08 05:45
LIEE 080545Z 31005KT CAVOK 16/11 Q1018 NOSIG

2010/08/08 05:50
LIBD 080550Z 31007KT 9999 FEW025 22/15 Q1016

2010/08/08 05:50
LICC 080550Z VRB03KT CAVOK 22/15 Q1016

2010/08/08 05:50
LICJ 080550Z 06005KT 030V100 9999 FEW030 25/18 Q1017

2010/08/08 05:50
LIEA 080550Z VRB01KT CAVOK 17/16 Q1019

2010/08/08 05:50
LIEO 080550Z VRB02KT CAVOK 18/16 Q1019

2010/08/08 05:50
LIMC 080550Z 00000KT CAVOK 17/14 Q1017 NOSIG

2010/08/08 05:50
LIME 080550Z 01004KT 320V030 CAVOK 18/14 Q1018

2010/08/08 05:50
LIMF 080550Z 00000KT CAVOK 18/14 1018

2010/08/08 05:50
LIMJ 080550Z 06007KT 9999 SCT028 22/18 Q1017

2010/08/08 05:50
LIML 080550Z VRB02KT CAVOK 20/15 Q1017 NOSIG

2010/08/08 05:50
LIMC 080550Z 00000KT CAVOK 17/14 Q1017 NOSIG

2010/08/08 05:45
LIPH 080545Z 04003KT CAVOK 20/18 Q1017

2010/08/08 05:45
LIPR 080545Z 00000KT CAVOK 18/18 Q1016

2010/08/08 05:45
LIPX 080545Z 00000KT CAVOK 18/18 Q1017

2010/08/08 05:45
LIRA 080545Z 36004KT CAVOK 19/16 Q1017

2010/08/08 05:45
LIRP 080545Z 12003KT 9999 FEW015 SCT040 16/15 Q1018 NOSIG

2010/08/08 05:50
LIPB 080550Z 09002KT CAVOK 14/12 Q1019

2010/08/08 05:50
LIPE 080550Z 22003KT CAVOK 20/15 Q1017

2010/08/08 05:50
LIPK 080550Z VRB02KT CAVOK 19/14 Q1016

2010/08/08 05:50
LIPQ 080550Z VRB01KT 9999 FEW060 18/15 Q1017

2010/08/08 05:50
LIPZ 080550Z 02006KT CAVOK 20/18 Q1017

2010/08/08 05:50
LIRF 080550Z VRB03KT CAVOK 21/15 Q1017 NOSIG

2010/08/08 05:50
LIRQ 080550Z VRB02KT 9999 FEW015 BKN030 19/16 Q1018

2010/08/08 05:45
LIPX 080545Z 00000KT CAVOK 18/18 Q1017

2010/08/08 05:48
MMCZ 080548Z 00000KT 7SM FEW015 BKN200 24/24 A2994 RMK SLP130 57014 909 8/408

2010/08/08 05:52
MMGL 080552Z 00000KT 12SM SCT100 BKN300 18/16 A3018 RMK SLP095 52010 911 8/038

2010/08/08 05:46
MMMZ 080546Z 01004KT 10SM FEW080 SCT220 27/23 A2988 RMK SLP128 52013 918 8/063

2010/08/08 05:52
MMPR 080552Z 01003KT 12SM SKC 28/25 A2987 RMK SLP118 52022 905

2010/08/08 05:45
MMTP 080545Z 00000KT 10SM SCT030TCU BKN250 26/24 A2991 RMK SLP105 57004 970 8/250 DZ E 12

2010/08/08 05:45
MMUN 080545Z 09005KT 7SM FEW300 27/24 A2994 RMK SLP134 51003 903 8/008 RA AT THE CITY

2010/08/08 05:52
MMGL 080552Z 00000KT 12SM SCT100 BKN300 18/16 A3018 RMK SLP095 52010 911 8/038

2010/08/08 05:51
MMSP 080551Z 07006KT 8SM FEW015 SCT020 BKN080 19/15 A3026 RMK SLP096 52011 900 8/460 CI

2010/08/08 05:55
EHBK 080555Z AUTO 25006KT 220V290 9000NDV SCT004 BKN006 OVC007 15/15 Q1015 REDZ BECMG BKN040

2010/08/08 05:55
EHDL 080555Z AUTO 29004KT 1700NDV BR SCT001 BKN003 OVC004 16/15 Q1014 RED

2010/08/08 05:55
EHEH 080555Z AUTO 25003KT 5000NDV BR BKN006 OVC007 15/15 Q1015 YLO

2010/08/08 05:55
EHGR 080555Z AUTO 25005KT 3500NDV BR FEW003 OVC004 15/15 Q1015 REDZ YLO

2010/08/08 05:55
EHLW 080555Z AUTO 36004KT 9999NDV BKN023 BKN035 BKN042 17/16 Q1014 WHT

2010/08/08 05:55
EHVK 080555Z AUTO 27005KT 4700NDV BR FEW130 15/15 Q1015 GRN

2010/08/08 05:55
EHWO 080555Z AUTO 24005KT 3800NDV BR FEW009 SCT011 BKN013 16/16 Q1015 GRN

2010/08/08 05:50
ENBN 080550Z 36007KT 9999 FEW003 14/13 Q1016

2010/08/08 05:50
ENHF 080550Z AUTO 03006KT //// BKN009/// OVC016/// 11/10 Q1018

2010/08/08 05:52
KNHK 080552Z AUTO 00000KT 10SM CLR 20/18 A2999 RMK AO2 SLP155 T02000178 10261 20200 50002 

2010/08/08 05:56
KP28 080556Z AUTO 14006KT 29/22 A2984 RMK AO2 SLP082 T02890217 10339 20289 403720222 51007 PWINO TSNO 

2010/08/08 05:56
KINS 080556Z AUTO 10012KT 10SM 27/11 A2985 RMK AO2 SLP049 60000 T02720106 10333 20261 51014 TSNO $ 

2010/08/08 05:56
KCDJ 080556Z AUTO 00000KT 26/21 A2989 RMK AO2 SLP103 T02560211 10311 20250 403330211 51004 PWINO TSNO 

2010/08/08 05:56
KCAE 080556Z 00000KT 6SM BR CLR 26/24 A2993 RMK AO2 SLP132 T02560239 10306 20256 58004 

2010/08/08 05:56
KAQV 080556Z AUTO 00000KT 10SM CLR 27/25 A2991 RMK AO2 SLP123 T02720250 10333 20267 51006 

2010/08/08 05:56
KNPA 080556Z AUTO 22003KT 10SM TS BKN100 26/24 A2989 RMK AO2 TSE0457B05E32B39 SLP123 T02610239 10283 20256 403500256 58011 

2010/08/08 05:56
KNGP 080556Z AUTO 10SM FEW019 28/26 A2990 RMK AO2 SLP123 T02780261 10294 20278 403220250 51008 VISNO $ 

2010/08/08 05:56
KNQI 080556Z AUTO 16007KT 9SM CLR 28/24 A2990 RMK AO2 SLP123 T02830244 10333 20283 403830256 51010 

2010/08/08 05:56
KHLR 080556Z AUTO 15007KT 10SM CLR 30/23 A2991 RMK AO2 SLP118 T03000228 10367 20300 51012 $ 

2010/08/08 05:50
ESGP 080550Z 36003KT 9999 BR BKN150 16/16 Q1013

2010/08/08 05:50
EGNS 080550Z 33005KT 280V340 9999 FEW012 13/10 Q1020 NOSIG

2010/08/08 05:50
EGSH 080550Z 33006KT 300V360 9999 BKN006 16/14 Q1018

2010/08/08 05:50
EGDL 080550Z 34005KT 9999 SCT016 OVC032 13/12 Q1021 WHT NOSIG

2010/08/08 05:50
EGDL 080550Z 34005KT 9999 SCT016 OVC032 13/12 Q1021 NOSIG

2010/08/08 05:50
EGJA 080550Z 35008KT 9999 BKN040 15/14 Q1021

2010/08/08 05:50
EGQK 080550Z 22003KT 9999 FEW018 BKN038 13/09 Q1019 BLU TEMPO SCT022 WHT

2010/08/08 05:50
EGQL 080550Z 14006KT 9999 OVC025 14/10 Q1020 BLU

2010/08/08 05:50
EGQS 080550Z 25004KT 9999 FEW020 BKN040 12/10 Q1019 BLU

2010/08/08 05:55
CYQD 080555Z 09007KT 15SM -SHRA SCT035 BKN070 RMK SC3AC2 CB EMBD OCNL LTNG DIST E-SE

2010/08/08 05:50
LGAL 080550Z VRB02KT 9999 FEW030 SCT080 26/17 Q1010

2010/08/08 05:50
LGEL 080550Z 00000KT CAVOK 30/15 Q1009

2010/08/08 05:50
LGKV 080550Z 00000KT CAVOK 24/19 Q1010

2010/08/08 05:50
LGMT 080550Z 00000KT CAVOK 28/22 Q1010

2010/08/08 05:50
LGPZ 080550Z 00000KT 9999 FEW008 24/20 Q1013 NOSIG

2010/08/08 05:50
LGRX 080550Z 00000KT CAVOK 24/20 Q1011 NOSIG

2010/08/08 05:50
LGSR 080550Z 36005KT CAVOK 27/20 Q1008 NOSIG

2010/08/08 05:50
LGZA 080550Z 00000KT CAVOK 23/16 Q1012

2010/08/08 05:50
LGHI 080550Z 00000KT CAVOK 26/20 Q1010

2010/08/08 05:50
LGKF 080550Z 33008KT 9999 FEW020 25/19 Q1012

2010/08/08 05:50
LGKZ 080550Z 00000KT CAVOK 22/10 Q1015

2010/08/08 05:50
LGMK 080550Z 03005KT CAVOK 25/22 Q1010

2010/08/08 05:50
LGNX 080550Z 00000KT 9999 FEW018 26/22 Q1010

2010/08/08 05:50
LGPA 080550Z 00000KT CAVOK 26/21 Q1009

2010/08/08 05:50
LGSO 080550Z 00000KT CAVOK 26/23 Q1010

2010/08/08 05:50
EEKE 080550Z 31008KT 270V340 9999 BKN049CB 21/21 Q1012 RETS

2010/08/08 05:50
LSMA 080550Z AUTO 17003KT 140V310 9999NDV -RA FEW018 BKN065 OVC083 14/13 Q1019 RERA RMK WHT

2010/08/08 05:50
LSMD 080550Z AUTO VRB01KT 9999NDV -RA SCT072 BKN110 BKN130 16/13 Q1019 RMK WHT

2010/08/08 05:50
LSME 080550Z AUTO 21003KT 9999NDV -RA FEW047 BKN072 BKN085 15/13 Q1019 RMK WHT

2010/08/08 05:50
LSMM 080550Z AUTO VRB02KT 9999NDV -RA FEW073 OVC088 13/12 Q1020 RMK WHT

2010/08/08 05:50
LSMP 080550Z AUTO VRB01KT 9999NDV BKN087 14/13 Q1019 RMK WHT

2010/08/08 05:55
EHAM 080555Z 32003KT 6000 FEW015 16/16 Q1015 BECMG 9999

2010/08/08 05:55
EHBK 080555Z AUTO 25006KT 220V290 9000NDV SCT004 BKN006 OVC007 15/15 Q1015 REDZ BECMG BKN040

2010/08/08 05:55
EHGG 080555Z AUTO 20003KT 160V230 3700NDV BR BKN003 OVC004 16/16 Q1014 BECMG 5000 NSW SCT004

2010/08/08 05:55
EHRD 080555Z VRB02KT 4000 BR FEW011 17/17 Q1015 BECMG 9999 NSW

2010/08/08 05:56
K2WX 080556Z AUTO 20007KT 23/11 A2974 RMK AO1 SLP042 T02330106 10317 20206 50009 

2010/08/08 05:56
KGNA 080556Z AUTO 00000KT 18/13 A2973 RMK AO2 SLP064 T01780128 10194 20161 402000100 55002 PWINO TSNO 

2010/08/08 05:56
KALK 080556Z AUTO 25005KT 10SM FEW100 18/17 A3014 RMK AO2 TSE03 SLP122 60150 T01780172 10278 20161 58002 $ 

2010/08/08 05:56
PHBK 080556Z AUTO 28005KT 10SM FEW049 28/20 A3005 RMK AO2 SLP179 T02830200 10306 20283 53013 TSNO $ 

2010/08/08 05:56
KD07 080556Z AUTO 27005KT 23/16 A2980 RMK AO2 SLP069 T02280156 10311 20228 53014 PWINO TSNO 

2010/08/08 05:56
KSPD 080556Z AUTO 21012KT 24/16 A2996 RMK AO2 SLP069 T02440156 10317 20217 50004 PWINO TSNO 

2010/08/08 05:53
KUIL 080553Z AUTO 28005KT 2 1/2SM BR OVC004 12/12 A2994 RMK AO2 CIG 002V008 SLP140 60001 T01220117 10156 20122 51010 TSNO 

2010/08/08 05:56
KNCA 080556Z AUTO A2995 RMK AO2 SLP145 6//// 58003 PWINO FZRANO TSNO $ 

2010/08/08 05:54
KAKQ 080554Z AUTO 00000KT 8SM CLR 20/18 A3000 RMK AO2 SLP156 T02000183 10261 20194 53001 TSNO $ 

2010/08/08 05:55
KADW 080555Z AUTO 18004KT 10SM CLR 20/17 A3000 RMK AO2 SLP161 T02040165 10258 20197 51004 $

2010/08/08 05:55
KBKF 080555Z 17011KT 25SM FEW070 SCT140 BKN220 20/14 A3005 RMK SLP097 60001 51008

2010/08/08 05:55
KEND 080555Z AUTO 13008KT 10SM CLR 28/22 A2985 RMK AO2 SLP089 T02790223 10359 20279 403760232 51008 $

2010/08/08 05:55
KFCS 080555Z AUTO 11005KT 10SM FEW120 SCT220 20/15 A3009 RMK AO2 SLP066 T01980149 10290 20194 53016

2010/08/08 05:55
KGRK 080555Z 15010KT 7SM FEW200 30/23 A2989 RMK SLP098 51014

2010/08/08 05:55
KLSV 080555Z AUTO 16014KT 10SM CLR 33/14 A2976 RMK AO2 SLP047 T03300140 10368 20328 51013 PWINO

2010/08/08 05:52
KNZY 080552Z 17003KT 10SM OVC018 19/13 A2992 RMK AO2 SLP130 T01890128 10217 20178 51015 $

2010/08/08 05:55
KPSM 080555Z 00000KT 10SM SCT250 14/13 A3001 RMK AO2A SLP163 T01390131 10182 20136 53004

2010/08/08 05:56
KSGH 080556Z AUTO 00000KT 8SM CLR 17/16 A3002 RMK AO2 56000 T01720161 10250 20166 SLP157 $

2010/08/08 05:56
KWJF 080556Z 24013KT 10SM CLR 23/03 A2987 RMK AO2 SLP094 T02280033 10311 20228 51012

2010/08/08 05:55
KXMR 080555Z AUTO 24004KT 10SM CLR 26/25 A2993 RMK AO2 SLP136 T02610248 10267 20259 58008 $

2010/08/08 05:56
MUGM 080556Z 35004KT 9999 CLR 28/24 A2998 RMK SLP150 T02780239 10300 20278 57005

2010/08/08 05:55
OAHR 080555Z 01015KT CAVOK 34/M01 Q1009 RMK FEW FEW080 VIS MIN 9999 BLU

2010/08/08 05:56
PMDY 080556Z AUTO 07009KT 10SM CLR 28/21 A3020 RMK AO2 TSNO 53005 T02770211 10300 20272 SLP536

2010/08/08 05:50
TJPS 080550Z 00000KT 8SM FEW030 FEW060 26/23 A2995

2010/08/08 05:56
TJSJ 080556Z 11005KT 10SM FEW025 SCT031 SCT046 28/24 A2996 RMK AO2 RAB45E54 SLP143 P0000 60000 T02830239 10289 20278 58013

2010/08/08 06:00
SBGL 080600Z 07002KT CAVOK 15/13 Q1019

2010/08/08 05:53
K6R6 080553Z AUTO 10005KT 28/18 A2991 RMK AO2 SLP088 T02780178 10339 2278 403560211 51014 PWINO TSNO 

2010/08/08 05:56
KNYG 080556Z AUTO 30006KT 10SM CLR 19/18 A3001 RMK AO2 SLP162 T01940178 10267 20194 50004 $ 

2010/08/08 05:50
ENVA 080550Z 11005KT CAVOK 13/09 Q1016 NOSIG 

2010/08/08 05:50
BGBW 080550Z AUTO 08002KT 9999NDV FEW100/// BKN130/// 12/07 Q1013

2010/08/08 05:50
BGGH 080550Z AUTO 02005KT 9999NDV -RA OVC060/// 10/07 Q1012

2010/08/08 05:50
BGJN 080550Z AUTO VRB01KT 9999NDV NCD 07/01 Q1013

2010/08/08 05:50
BGSF 080550Z 06007KT 9999 FEW200 05/02 Q1013

2010/08/08 05:55
BGTL 080555Z AUTO 13021G29KT 9999 -DZ OVC031 04/01 A2990 RMK AO2 PK WND 13029/0553 UPB0553E0554RAB0554E0555DZB0555 SLP129 P0000 60000 T00400008 10055 20040 56005 $

2010/08/08 06:00
SBAR 080600Z 25003KT CAVOK 20/19 Q1017

2010/08/08 06:00
SBCF 080600Z 00000KT CAVOK 12/09 Q1021

2010/08/08 06:00
SBEG 080600Z 00000KT CAVOK 24/22 Q1013

2010/08/08 06:00
SBSJ 080600Z 00000KT 8000 SCT0006 10/10 Q1020

2010/08/08 06:00
SPIM 080600Z 17006KT 7000 SCT010 OVC015 14/12 Q1015 NOSIG RMK PP000

2010/08/08 06:00
SVBC 080600Z 00000KT 9999 SCT010CB/S 23/22 Q1015

2010/08/08 05:55
KQA4 080555Z AUTO 36003KT 8000 HZ FEW250 36/01 A2979 RMK AO2 SLP986 T03620014 10302 20275 57002

2010/08/08 05:55
KQAR 080555Z AUTO VRB01KT 7SM CLR 37/02 A2963 RMK AO2 SLP974 T03650019 10340 20274 52008 $

2010/08/08 05:55
KQAY 080555Z AUTO 36007KT 6000 CLR 41/04 A2951 RMK AO2 SLP989 T04080042 10389 20331 52007 $

2010/08/08 05:55
KQBL 080555Z AUTO 00000KT 4SM BKN120 25/24 A2994 RMK AO2 LTG DSNT SE SLP137 60057 T02540244 10259 20251 50001

2010/08/08 05:55
KQC3 080555Z AUTO 09008KT 9999 FEW023 25/17 A3009 RMK AO2 SLP091 T02530171 10188 20172 52003 PNO $

2010/08/08 05:55
KQDM 080555Z AUTO 18002KT 7SM -SHRA FEW033 BKN075 21/16 A3015 RMK AO2 LTG DSNT N SLP124 60002 T02060159 10170 20160 50004 PWINO PNO $

2010/08/08 05:55
KQDX 080555Z AUTO VRB05KT 9000 37/12 A2970 RMK AO2 SLP978 T03680117 10328 20300 52004 $

2010/08/08 05:55
KQQR 080555Z AUTO 00000KT 6000 FEW002 SCT005 BKN007 BKN011 22/21 A2990 RMK AO2 SLP075 60041 T02180207 10228 20216 52004 $

2010/08/08 05:55
KQSA 080555Z VRB02KT 9999 FEW050 FEW100 BKN200 29/17 A2991 RMK SLP297 WND DATA ESTMD ALSTG/SLP ESTMD 58003

2010/08/08 05:55
KQWM 080555Z 31010KT 3200 DU FEW150 38/04 A2955 RMK SLP993 QNH1000 53005

2010/08/08 05:55
KQXR 080555Z AUTO 09011G16KT 8000 CLR 43/M04 A2948 RMK AO2 SLP982 T04331045 10409 20342 52007 $

2010/08/08 05:56
CYPH 080556Z AUTO 24009KT 9SM OVC005 08/08 A2936

2010/08/08 05:54
KSBN 080554Z 19008KT 9SM BKN080 OVC100 23/18 A2994 RMK AO2 SLP131 T02280178 10261 20222 56005 

2010/08/08 05:50
VECC 080550Z 12006KT 5000 HZ SCT018 SCT025 33/27 Q1003 NOSIG

2010/08/08 05:54
KWAL 080554Z AUTO 00000KT 10SM CLR 23/21 A3001 RMK AO2 SLP157 T02280211 10250 20222 58001 TSNO 

2010/08/08 05:55
KGTB 080555Z AUTO 17007KT 10SM CLR 16/11 A2997 RMK AO2 SLP151 T01570105 10185 20148 53001

2010/08/08 05:56
KNID 080556Z AUTO 18011KT FEW085 26/02 A2979 RMK AO2 SLP065 T02610022 10367 20261 51015 TSNO $

2010/08/08 05:53
KNIP 080553Z 21003KT 10SM SCT043 BKN150 OVC250 25/24 A2993 RMK AO2 SLP132 60003 T02500239 10256 20244 50000

2010/08/08 05:54
KNKT 080554Z AUTO 00000KT 7SM CLR 25/23 A2996 RMK AO2 SLP142 T02500233 10272 20244 58002

2010/08/08 05:53
KNQX 080553Z AUTO 14003KT 10SM BKN042 BKN075 30/25 A2996 RMK AO2 SLP143 6//// T03000250 10311 20294 58010 $

2010/08/08 05:52
KNRB 080552Z AUTO 22003KT 10SM BKN026 BKN042 26/23 A2993 RMK AO2 SLP133 60000 T02560233 10261 20250 50000

2010/08/08 05:56
KNTU 080556Z 00000KT 10SM BKN010 BKN060 24/23 A2999 RMK AO2 SLP156 T02390233 10256 20239 53001 $

2010/08/08 05:52
KNZY 080552Z 17003KT 10SM OVC018 19/13 A2992 RMK AO2 SLP130 T01890128 10217 20178 51015 $

2010/08/08 05:55
KPAM 080555Z AUTO 00000KT 9SM CLR 26/25 A2990 RMK AO2 SLP126 60034 T02560253 10279 20253 403340253 58008 $

2010/08/08 05:55
KPOB 080555Z AUTO 00000KT 10SM CLR 25/24 A2997 RMK AO2 SLP146 T02460240 10286 20239 58002 $

2010/08/08 05:55
KPSM 080555Z 00000KT 10SM SCT250 14/13 A3001 RMK AO2A SLP163 T01390131 10182 20136 53004

2010/08/08 05:55
KRCA 080555Z AUTO 36016KT 10SM SCT150 OVC230 22/12 A2986 RMK AO2 PK WND 36028/0524 SLP081 T02230121 10319 20207 53014 $

2010/08/08 05:56
KSGH 080556Z AUTO 00000KT 8SM CLR 17/16 A3002 RMK AO2 56000 T01720161 10250 20166 SLP157 $

2010/08/08 05:55
KSKA 080555Z AUTO 30010KT 10SM SCT090 BKN110 BKN150 19/09 A2982 RMK AO2 CIG 090 RWY05 SLP084 T01870094 10281 20187 51011

2010/08/08 05:55
KTCM 080555Z AUTO 22006KT 10SM OVC046 16/15 A2992 RMK AO2 SLP134 60011 T01590148 10179 20159 53004

2010/08/08 06:00
SBFI 080600Z 13008KT CAVOK 12/11 Q1015

2010/08/08 05:50
EDLN 080550Z 29008KT 3000 -RA BR SCT008 BKN035 16/16 Q1015 RERA RMK ATIS C

2010/08/08 05:50
EDXW 080550Z AUTO 29005KT 3400NDV -DZ FEW002/// SCT010/// 17/15 Q1014 RMK ATIS INFO B

2010/08/08 05:55
EHAM 080555Z 32003KT 6000 FEW015 16/16 Q1015 BECMG 9999

2010/08/08 05:55
EHBK 080555Z AUTO 25006KT 220V290 9000NDV SCT004 BKN006 OVC007 15/15 Q1015 REDZ BECMG BKN040

2010/08/08 05:55
EHGG 080555Z AUTO 20003KT 160V230 3700NDV BR BKN003 OVC004 16/16 Q1014 BECMG 5000 NSW SCT004

2010/08/08 05:55
EHLW 080555Z AUTO 36004KT 9999NDV BKN023 BKN035 BKN042 17/16 Q1014 WHT

2010/08/08 05:55
EHRD 080555Z VRB02KT 4000 BR FEW011 17/17 Q1015 BECMG 9999 NSW

2010/08/08 05:55
ETIK 080555Z 00000KT 9999 BKN110 14/14 A3005 RMK AO2A SLP165 60000 T01430141 10143 20108 58002 $

2010/08/08 06:00
LEMO 080600Z 05001KT CAVOK 27/14 Q1015 NOSIG

2010/08/08 05:50
LGAL 080550Z VRB02KT 9999 FEW030 SCT080 26/17 Q1010

2010/08/08 05:50
LGEL 080550Z 00000KT CAVOK 30/15 Q1009

2010/08/08 05:50
LGHI 080550Z 00000KT CAVOK 26/20 Q1010

2010/08/08 05:50
LGKF 080550Z 33008KT 9999 FEW020 25/19 Q1012

2010/08/08 05:50
LGKV 080550Z 00000KT CAVOK 24/19 Q1010

2010/08/08 05:50
LGKZ 080550Z 00000KT CAVOK 22/10 Q1015

2010/08/08 05:50
LGMK 080550Z 03005KT CAVOK 25/22 Q1010

2010/08/08 05:50
LGMT 080550Z 00000KT CAVOK 28/22 Q1010

2010/08/08 05:50
LGPZ 080550Z 00000KT 9999 FEW008 24/20 Q1013 NOSIG

2010/08/08 05:50
LGRX 080550Z 00000KT CAVOK 24/20 Q1011 NOSIG

2010/08/08 05:50
LGSO 080550Z 00000KT CAVOK 26/23 Q1010

2010/08/08 05:50
LGSR 080550Z 36005KT CAVOK 27/20 Q1008 NOSIG

2010/08/08 05:50
LGZA 080550Z 00000KT CAVOK 23/16 Q1012

2010/08/08 05:48
MMAA 080548Z 34009 7SM SCT010TCU SCT070 BKN300 26/24 A2990 RMK SLP125 52021 907 8/262 RA N

2010/08/08 05:48
MMCZ 080548Z 00000KT 7SM FEW015 BKN200 24/24 A2994 RMK SLP130 57014 909 8/408

2010/08/08 05:46
MMMZ 080546Z 01004KT 10SM FEW080 SCT220 27/23 A2988 RMK SLP128 52013 918 8/063

2010/08/08 05:55
MMQT 080555Z RTD 29002KT 7SM BKN020 OVC120 17/17 A3029 RMK 60165 8/47/ -RA E21

2010/08/08 05:56
MUGM 080556Z 35004KT 9999 CLR 28/24 A2998 RMK SLP150 T02780239 10300 20278 57005

2010/08/08 05:55
PACZ 080555Z AUTO 21004KT 10SM OVC008 11/09 A2960 RMK AO1 T01060089

2010/08/08 05:55
PAED 080555Z 21004KT 10SM OVC048 12/10 A2976 RMK AO2A DZB0536E0551 SLP080 P0000 60006 T01230105 10132 20123 53005

2010/08/08 05:55
PAEH 080555Z AUTO 11005KT 10SM BKN048 OVC050 09/08 A2969 RMK AO1 T00940078

2010/08/08 05:55
PAIM 080555Z AUTO 00000KT 10SM BKN050 OVC080 13/12 A2964 RMK AO1 T01330123

2010/08/08 05:55
PALU 080555Z AUTO 08015KT 10SM 11/11 A2964 RMK AO1 T01060106

2010/08/08 05:56
PASY 080556Z AUTO 28023G28KT 8SM OVC001 10/09 A2905 RMK AO2 PK WND 26031/0514 SLP837 6//// T01000094 10106 20100 53007 TSNO PNO $

2010/08/08 05:55
PATC 080555Z AUTO 01017KT 2 1/2SM OVC006 08/07 A2962 RMK AO1 T00830073

2010/08/08 05:55
PATL 080555Z AUTO 22006KT 10SM BKN060 12/09 A2971 RMK AO1 T01170095

2010/08/08 05:55
PGUA 080555Z AUTO 06011KT 10SM CLR 29/25 A2980 RMK AO2 SLP073 T02910254 10297 20283 56010 VISNO RWY24L $

2010/08/08 05:55
PHHI 080555Z AUTO 07007KT 10SM SCT048 BKN055 24/19 A3009 RMK AO2 SLP177 60000 T02420190 10281 20241 52012 $

2010/08/08 05:55
RJTY 080555Z AUTO 18011KT 9999 CLR 30/22 A3002 RMK AO2 SLP158 60000 T02950221 10305 20282 57011 $

2010/08/08 05:55
KNBG 080555Z AUTO 00000KT 10SM CLR 28/24 A2993 RMK AO2 SLP134 T02830244 10306 20272 403560256 50003 PWINO $

2010/08/08 05:54
KNFG 080554Z AUTO 00000KT OVC015 15/12 A2992 RMK AO2 SLP131 T01500122 10206 20122 51019 TSNO $

2010/08/08 05:56
KNID 080556Z AUTO 18011KT FEW085 26/02 A2979 RMK AO2 SLP065 T02610022 10367 20261 51015 TSNO $

2010/08/08 05:56
KNJK 080556Z AUTO 28006KT 10SM CLR 29/02 A2970 RMK AO2 SLP071 T02940017 10406 20294 51020 TSNO

2010/08/08 05:55
KNKX 080555Z 00000KT 10SM OVC015 17/13 A2992 RMK AO2 SLP128 T01670128 10211 20139 51016

2010/08/08 05:56
KNTU 080556Z 00000KT 10SM BKN010 BKN060 24/23 A2999 RMK AO2 SLP156 T02390233 10256 20239 53001 $

2010/08/08 05:56
KNUQ 080556Z 06003KT 10SM CLR 15/12 A2985 RMK AO2 SLP112 T01500122 10217 20144 50009

2010/08/08 05:56
KNYG 080556Z AUTO 30006KT 10SM CLR 19/18 A3001 RMK AO2 SLP162 T01940178 10267 20194 50004 $

2010/08/08 05:55
KPOE 080555Z AUTO 22004KT 10SM CLR 27/24 A2992 RMK AO2 SLP130 T02720239 10328 20272 51007

2010/08/08 05:55
KVBG 080555Z AUTO 02006KT 10SM OVC005 13/12 A2991 RMK AO2 SLP121 T01280117 10161 20128 50008 TSNO CHINO RWY12 VISNO RWY12 $

2010/08/08 06:00
LEMO 080600Z 05001KT CAVOK 27/14 Q1015 NOSIG

2010/08/08 06:00
MDPC 080600Z 04010KT 9999 FEW020 28/25 Q1013

2010/08/08 06:00
MDPP 080600Z 00000KT 9999 FEW016 25/25 Q1010 DU/ ALL QDS

2010/08/08 06:00
MDSD 080600Z 01004KT 9999 FEW018 24/22 Q1014

2010/08/08 06:00
MDST 080600Z 09004KT 9999 SCT016 25/24 Q1015

2010/08/08 06:00
OSDI 080600Z 00000KT CAVOK 27/17 Q1011

2010/08/08 06:00
OSLK 080600Z 03002KT 7000 29/22 Q1008

2010/08/08 05:56
PASY 080556Z AUTO 28023G28KT 8SM OVC001 10/09 A2905 RMK AO2 PK WND 26031/0514 SLP837 6//// T01000094 10106 20100 53007 TSNO PNO $

2010/08/08 05:56
KNXP 080556Z AUTO 22013KT CLR 28/01 A2987 RMK AO2 SLP075 T02780011 10356 20278 51012 $ 

2010/08/08 05:56
KNFL 080556Z AUTO 19006KT 10SM CLR 22/02 A2987 RMK AO2 SLP090 T02170022 10344 20206 53025 TSNO 

2010/08/08 05:56
PARS 080556Z AUTO 22005KT 10SM FEW026 BKN035 12/11 A2968 RMK AO2 TSNO 53002 60000 T01220105 10138 20122 SLP055 $

2010/08/08 05:56
PARY 080556Z AUTO 19007KT 10SM FEW038 BKN110 13/10 A2967 RMK AO2 PWINO TSNO 53010 60002 T01270100 10166 20127 SLP050

2010/08/08 05:56
PATQ 080556Z AUTO 06019KT 8SM -RA OVC007 05/04 A2977 RMK AO2 TSNO 51005 60001 T00500044 10072 20050 P0001 SLP088 $

2010/08/08 05:57
PAWR 080557Z 18003KT 2SM -RA BR OVC004 11/11 A2981 RMK SLP095 NOSPECI

2010/08/08 05:54
KOWA 080554Z AUTO 19010G16KT 10SM SCT055 SCT080 24/21 A2972 RMK AO2 LTG DSNT N

2010/08/08 05:53
KPEX 080553Z AUTO 25003KT 10SM -TSRA SCT029 BKN045 BKN055 24/19 A2969 RMK AO2 LTG DSNT ALQS P0002 60003 T02360191 10294 20232 403030156

2010/08/08 05:53
KPNM 080553Z AUTO 10003KT 4SM TSBR SCT009 SCT050 BKN070 20/18 A2970 RMK AO2 P0013 LTG DSNT ALQDS

2010/08/08 05:53
KPQN 080553Z AUTO 22010G17KT 10SM CLR 25/23 A2972 RMK AO2

2010/08/08 05:53
KPWC 080553Z AUTO 00000KT 4SM BR CLR 18/17 A2971 RMK AO2

2010/08/08 05:55
KRCM 080555Z AUTO 15004KT 10SM CLR 23/22 A2987 RMK AO2

2010/08/08 05:54
KRFD 080554Z 20008KT 10SM CLR 21/18 A2989 RMK AO2 SLP117 T02110183 10267 20211 402830167 56002

2010/08/08 05:54
KROA 080554Z 00000KT 9SM FEW080 22/18 A3006 RMK AO2 SLP165 T02170178 10256 20211 58001 $

2010/08/08 05:55
KROS 080555Z AUTO 06006KT 10SM TS BKN030 BKN037 20/18 A2972 RMK AO2 LTG DSNT SE AND SW 60002 T01950183 10270 20191 402800141

2010/08/08 05:55
KROX 080555Z AUTO 11004KT 10SM CLR 18/17 A2969 RMK AO2

2010/08/08 05:54
KRRT 080554Z AUTO 12006KT 10SM SCT043 18/16 A2970 RMK AO2 TSNO

2010/08/08 05:54
KSAZ 080554Z AUTO 00000KT 10SM BKN025 OVC032 20/20 A2968 RMK AO2 P0001

2010/08/08 05:53
KSGS 080553Z AUTO 21007KT 10SM TS CLR 27/22 A2969 RMK AO2 LTG DSNT N AND NE T02660215 10306 20266 403200191

2010/08/08 05:56
KSHV 080556Z 19005KT 10SM SCT290 28/24 A2989 RMK AO2 SLP118 T02780244 10300 20278 403670244 51012

2010/08/08 05:55
KSRR 080555Z AUTO 23009KT 10SM CLR 19/11 A3023 RMK AO2

2010/08/08 05:58
KSYN 080558Z AUTO 21007KT 10SM VCTS CLR 26/21 A2970 RMK AO2 LTG DSNT N T02610212 10295 20249 403050166

2010/08/08 05:54
KTEW 080554Z AUTO 00000KT 7SM CLR 18/16 A2993 RMK AO2

2010/08/08 05:53
KTKC 080553Z AUTO 21012G16KT 10SM CLR 25/21 A2969 RMK AO2 LTG DSNT NE AND E T02500210 10285 20250 403010181

2010/08/08 05:55
KTOB 080555Z AUTO 21010KT 10SM CLR 24/22 A2976 RMK AO2 LTG DSNT N

2010/08/08 05:53
KTWM 080553Z AUTO 05004KT 10SM SCT003 SCT011 BKN018 17/14 A2971 RMK AO2 P0037 LTG DSNT NE

2010/08/08 05:55
KULM 080555Z AUTO 20012G18KT 10SM SCT055 25/22 A2968 RMK AO2 LTG DSNT N AND NE

2010/08/08 05:56
KVVV 080556Z AUTO 00000KT 10SM CLR 25/23 A2965 RMK AO2

2010/08/08 05:49
KVWU 080549Z AUTO 07006KT 10SM SCT040 18/17 A2970 RMK AO2

2010/08/08 05:56
KXVG 080556Z AUTO 00000KT 7SM BKN055 18/18 A2967 RMK AO2 LTG DSNT SE

2010/08/08 05:56
PAGN 080556Z AUTO VRB03KT SCT007 BKN022 OVC030 18/17 RMK AO2 PWINO TSNO 5//// T01830172 SLPNO $

2010/08/08 05:56
PATQ 080556Z AUTO 06019KT 8SM -RA OVC007 05/04 A2977 RMK AO2 TSNO 51005 60001 T00500044 10072 20050 P0001 SLP088 $

2010/08/08 05:54
KGHW 080554Z AUTO 17003KT 7SM VCTS CLR 23/21 A2970 RMK AO2 LTG DSNT SE

2010/08/08 05:54
KGSO 080554Z 00000KT 8SM CLR 22/19 A3002 RMK AO2 SLP152 T02220189 10272 20222 58002

2010/08/08 05:54
KGYL 080554Z AUTO 19007KT 10SM BKN050 BKN065 25/22 A2968 RMK AO2 LTG DSNT NW THRU NE T02450217 10288 20245 402970172

2010/08/08 05:52
KHCD 080552Z AUTO 19006KT 10SM SCT048 SCT065 SCT090 24/21 A2968 RMK AO2 T02350207 TSNO

2010/08/08 05:55
KHCO 080555Z AUTO 12005KT 10SM SCT055 21/19 A2968 RMK AO2

2010/08/08 05:55
KHFF 080555Z AUTO 00000KT 8SM R22/5000VP6000FT CLR 23/22 A2998 RMK AO2 SLP149 T02320220 10282 20231 58001 $

2010/08/08 05:51
KHZX 080551Z AUTO 00000KT 4SM CLR 18/17 A2971 RMK AO2 LTG DSNT S

2010/08/08 05:54
KIKW 080554Z AUTO 20006KT 10SM BKN100 22/17 A2986 RMK AO2 T02150166 10256 20210

2010/08/08 05:55
KJKJ 080555Z AUTO 00000KT 10SM CLR 23/21 A2964 RMK AO2

2010/08/08 05:55
KJMR 080555Z AUTO 09003KT 10SM VCTS SCT023 SCT060 18/17 A2972 RMK AO2 LTG DSNT SE THRU SW

2010/08/08 05:56
KABQ 080556Z 35008KT 10SM FEW095 23/12 A3014 RMK AO2 SLP108 T02280122 10328 20228 51017

2010/08/08 05:54
KRIC 080554Z 00000KT 10SM CLR 22/18 A3000 RMK AO2 SLP160 T02220178 10272 20217 58001

2010/08/08 05:56
KJAX 080556Z 00000KT 10SM FEW003 SCT025 SCT150 OVC250 24/23 A2992 RMK AO2 SLP133 60006 T02440233 10250 20244 58000

2010/08/08 05:55
K1P1 080555Z AUTO 00000KT 7SM CLR 08/07 A3002 RMK AO2 T00810074

2010/08/08 05:53
K29G 080553Z AUTO 00000KT 10SM CLR 18/13 A3001 RMK AO2 T01840134 PWINO

2010/08/08 05:50
KAEL 080550Z AUTO 19007KT 10SM SCT060 25/21 A2975 RMK AO2 LTG DSNT N

2010/08/08 05:53
KAIT 080553Z AUTO 00000KT 2SM BR BKN001 18/16 A2968 RMK AO2 LTG DSNT SE AND S

2010/08/08 05:56
KAJO 080556Z AUTO 28007KT 10SM CLR 16/14 A2991 RMK AO2 51023 T01550138 10255 20155 SLP122 $

2010/08/08 05:55
KANE 080555Z AUTO 36003KT 10SM BKN037 22/21 A2971 RMK AO2 P0001

2010/08/08 05:54
KAQP 080554Z AUTO 17003KT 7SM CLR 24/24 A2964 RMK AO2 LTG DSNT E

2010/08/08 05:54
KAVP 080554Z 11004KT 10SM FEW050 17/12 A3002 RMK AO2 SLP156 T01670117 10244 20167 53003

2010/08/08 05:53
KBBB 080553Z AUTO 20006KT 7SM CLR 24/23 A2969 RMK AO2 LTG DSNT E AND SE

2010/08/08 05:55
KBBG 080555Z AUTO 13006KT 10SM BKN050 25/21 A2995 RMK AO2

2010/08/08 05:53
KBFW 080553Z AUTO 10004KT 10SM SCT024 SCT060 17/14 A2972 RMK AO2

2010/08/08 05:52
KCDD 080552Z AUTO 00000KT 4SM BR SCT032 19/19 A2975 RMK AO2

2010/08/08 05:56
KCHS 080556Z 00000KT 7SM CLR 25/24 A2992 RMK AO2 SLP131 T02500239 10283 20250 58005

2010/08/08 05:55
KCMR 080555Z AUTO 14006KT 10SM CLR 13/12 A3022 RMK AO1

2010/08/08 05:50
KCVH 080550Z AUTO 26005KT 10SM OVC011 13/11 A2989 RMK AO1

2010/08/08 05:56
KDIJ 080556Z AUTO 14003KT 10SM CLR 09/07 A3004 RMK AO2 51005 T00940066 10244 20088 SLP089 $

2010/08/08 05:56
KDVP 080556Z AUTO 20014KT 10SM CLR 25/21 A2973 RMK AO2 T02480205 10285 20246 402960172

2010/08/08 05:54
KDXX 080554Z AUTO 00000KT 5SM BR CLR 23/23 A2964 RMK AO2

2010/08/08 05:54
KDYT 080554Z AUTO 06011KT 10SM BKN004 BKN009 19/17 A2972 RMK AO2 LTG DSNT S

2010/08/08 05:56
KEFK 080556Z AUTO 20004KT 10SM SCT060 08/07 A3000 RMK AO2

2010/08/08 05:54
KELO 080554Z AUTO 00000KT 10SM BKN060 OVC075 18/16 A2974 RMK AO2

2010/08/08 05:54
KETH 080554Z AUTO 13003KT 10SM CLR 21/21 A2968 RMK AO2

2010/08/08 05:52
KEVM 080552Z AUTO 00000KT 10SM CLR 17/15 A2970 RMK AO1

2010/08/08 05:55
KFAF 080555Z AUTO 11003KT 10SM CLR 24/24 A2999 RMK AO2 DZE0502 SLP156 P0000 60000 T02410241 10277 20225 50000 $

2010/08/08 05:54
KFBL 080554Z AUTO 19007KT 10SM VCTS SCT060 25/21 A2972 RMK AO2 LTG DSNT N

2010/08/08 05:53
KFFM 080553Z AUTO 07005KT 10SM SCT060 21/19 A2963 RMK AO2

2010/08/08 05:54
KFGN 080554Z AUTO 15005KT 10SM CLR 21/17 A2969 RMK AO2

2010/08/08 06:01
KFKA 080601Z AUTO 21009KT 10SM CLR 24/22 A2979 RMK AO2 LTG DSNT NW T02420217

2010/08/08 05:53
KFOZ 080553Z AUTO 00000KT 10SM CLR 17/16 A2971 RMK AO2

2010/08/08 05:59
KFSO 080559Z AUTO 16005KT 10SM SCT070 12/10 A2996 RMK AO2

2010/08/08 05:53
KGDB 080553Z AUTO 19003KT 7SM CLR 23/22 A2968 RMK AO2 LTG DSNT NE AND E T02320223 10295 20232 403080175

2010/08/08 05:56
PAFS 080556Z AUTO 16003KT 10SM FEW036 SCT080 12/09 A2972 RMK AO2 TSNO 53005 60000 T01160094 10127 20116 SLP071 $

2010/08/08 05:56
PAGN 080556Z AUTO VRB03KT SCT007 BKN022 OVC030 18/17 RMK AO2 PWINO TSNO 5//// T01830172 SLPNO $

2010/08/08 05:56
PAHC 080556Z AUTO 20004KT 1 3/4SM -RA BR FEW003 BKN011 OVC019 12/11 A2969 RMK AO2 TSNO 53003 60000 T01160105 10133 20116 CIG 006V013 RAB44 P0000 SLP056 $

2010/08/08 05:56
PAIG 080556Z AUTO 21007KT 10SM SCT020 OVC031 12/09 A2979 RMK AO2 PWINO TSNO 53003 T01160088 10122 20116 SLP093 $

2010/08/08 05:56
PAMO 080556Z AUTO 18007KT 10SM FEW009 OVC023 12/11 A2966 RMK AO2 TSNO 57001 60001 T01220105 10150 20122 OVC V BKN RAB04E15 P0000 SLP043 $

2010/08/08 05:56
PAOO 080556Z AUTO 13013KT 10SM OVC011 11/09 A2962 RMK AO2 TSNO 58016 T01050088 10116 20094 SLP031 $

2010/08/08 05:56
PAPM 080556Z AUTO 11006KT 10SM -RA BKN019 OVC042 11/09 A2970 RMK AO2 TSNO 58016 60000 T01050088 10105 20094 BKN V SCT P0000 SLP059 $

2010/08/08 05:55
KLFI 080555Z 13005KT 10SM OVC008 25/23 A2999 RMK AO2A SLP158 60000 T02480232 10258 20241 50000

2010/08/08 05:53
KLJF 080553Z AUTO 02003KT 10SM VCTS BKN024 BKN041 BKN055 23/22 A2971 RMK AO2 LTG DSNT ALQDS

2010/08/08 05:54
KLVN 080554Z AUTO 19006KT 10SM VCTS SCT050 SCT075 25/22 A2970 RMK AO2 LTG DSNT NW THRU E

2010/08/08 05:54
KLXL 080554Z AUTO 00000KT 10SM BKN030 BKN038 BKN060 20/18 A2967 RMK AO2

2010/08/08 05:58
KLYV 080558Z AUTO 19008KT 10SM CLR 23/21 A2972 RMK AO2

2010/08/08 05:56
KM89 080556Z AUTO 04004KT 5SM -TSRA BR SCT002 SCT025 OVC046 26/24 A2991 RMK AO2 51012 60036 T02550244 10350 20250 403610244 TSE03B04 P0011 SLP139

2010/08/08 05:55
KMCF 080555Z AUTO 00000KT 10SM CLR 29/26 A2994 RMK AO2 SLP142 T02900265 10298 20290 58003

2010/08/08 05:55
KMGG 080555Z AUTO 00000KT 10SM -VCTSRA BKN041 BKN048 BKN060 25/22 A2970 RMK AO2 LTG DSNT SW THRU NE T02500221 10290 20240 403010152

2010/08/08 05:52
KMJQ 080552Z AUTO 19009G14KT 10SM CLR 24/22 A2974 RMK AO2

2010/08/08 05:49
KMOX 080549Z AUTO 16005KT 4SM BR CLR 24/24 A2962 RMK AO2 LTG DSNT E

2010/08/08 05:53
KMRT 080553Z AUTO 00000KT 7SM CLR 16/15 A3003 RMK AO2 T01610149 10236 20161 402750138

2010/08/08 05:54
KMVE 080554Z AUTO 22004KT 7SM SCT050 25/24 A2964 RMK AO2 LTG DSNT NE

2010/08/08 05:53
KMWM 080553Z AUTO 19012KT 10SM CLR 25/22 A2971 RMK AO2

2010/08/08 05:51
KMZH 080551Z AUTO 00000KT 10SM CLR 18/18 A2970 RMK AO2 LTG DSNT S AND SW

2010/08/08 05:56
KNTU 080556Z 00000KT 10SM BKN010 BKN060 24/23 A2999 RMK AO2 SLP156 T02390233 10256 20239 53001 $

2010/08/08 05:51
KONA 080551Z AUTO 21006KT 10SM BKN070 OVC090 25/20 A2974 RMK AO2 LTG DSNT NW

2010/08/08 05:54
KONZ 080554Z AUTO 21007KT 10SM CLR 23/17 A2994 RMK AO2

2010/08/08 05:54
KORB 080554Z AUTO 00000KT 10SM BKN018 BKN047 17/14 A2970 RMK AO2

2010/08/08 05:54
KOVL 080554Z AUTO 21003KT 10SM SCT049 SCT055 BKN070 24/21 A2967 RMK AO2 LTG DSNT N AND NE T02370206 10272 20237 403060167

2010/08/08 05:55
KMHR 080555Z AUTO 15004KT 10SM CLR 18/10 A2977 RMK AO1

2010/08/08 05:55
KMIU 080555Z AUTO 18018KT 10SM CLR 30/25 A2990 RMK A01

2010/08/08 05:55
KMWO 080555Z AUTO 00000KT 10SM CLR 17/16 A3000 RMK AO2

2010/08/08 05:55
KMZG 080555Z AUTO 00000KT 10SM 30/24 A2990 RMK A01

2010/08/08 05:52
KPVB 080552Z AUTO 18009KT 10SM CLR 22/20 A2986 RMK AO1 T02200195 10257 20215 402750181

2010/08/08 05:53
KRZN 080553Z AUTO 00000KT 10SM CLR 19/18 A2973 RMK AO2 60226 T01930183 10267 20193 402800137

2010/08/08 05:55
KSCF 080555Z AUTO 25006KT 10SM FEW026 SCT034 31/25 A2988 RMK A01

2010/08/08 05:55
KSPR 080555Z AUTO 21010KT 10SM FEW027 FEW035 31/25 A2993 RMK A01

2010/08/08 05:57
KTZR 080557Z AUTO 00000KT 10SM CLR 16/15 A3001 RMK AO2

2010/08/08 05:55
KVAF 080555Z AUTO 21011KT 10SM CLR 30/25 A2989 RMK A01

2010/08/08 05:55
KVBS 080555Z AUTO VRB06G12KT 10SM FEW027 31/25 A2991 RMK A01

2010/08/08 05:53
KVES 080553Z AUTO 00000KT 7SM CLR 16/16 A3000 RMK AO2 T01630158

2010/08/08 05:55
KY63 080555Z AUTO 14004KT 10SM CLR 23/22 A2965 RMK AO2 LTG DSNT E T02330215 10290 20225 403090185

2010/08/08 05:56
K14Y 080556Z AUTO 00000KT 10SM SCT026 SCT042 20/19 A2969 RMK AO2 LTG DSNT SE AND S 60014 T02030187 10287 20198 403110157

2010/08/08 05:55
K1A6 080555Z AUTO 00000KT 5SM BR CLR 19/19 A3001 RMK AO2

2010/08/08 05:55
K46D 080555Z AUTO 22003KT 10SM CLR 18/18 A2969 RMK AO2

2010/08/08 05:55
KAIG 080555Z AUTO 35012G23KT 4SM +RA SCT013 BKN032 OVC070 20/19 A2984 RMK AO2 P0015

2010/08/08 05:51
KARV 080551Z AUTO 21007KT 5SM +RA SCT019 BKN037 OVC046 18/17 A2982 RMK AO2 P0012 T01800167

2010/08/08 05:55
KATW 080555Z AUTO 23011KT 10SM SCT035 23/19 A2981 RMK AO2

2010/08/08 05:55
KBBF 080555Z AUTO 17017KT 10SM CLR 30/26 A2989 RMK A01

2010/08/08 05:55
KBQX 080555Z AUTO 18017KT 10SM FEW024 30/25 A2990 RMK A01

2010/08/08 05:55
KBUU 080555Z AUTO 20005KT 10SM CLR 20/18 A2987 RMK AO2 T01990181 10242 20191 402690126

2010/08/08 05:51
KBWP 080551Z AUTO 08003KT 10SM CLR 20/18 A2964 RMK AO1 T02040180 10288 20204 403120177

2010/08/08 05:55
KCLI 080555Z AUTO 21009KT 10SM CLR 23/19 A2979 RMK AO2

2010/08/08 05:55
KCMB 080555Z AUTO 21012KT 10SM FEW027 32/25 A2993 RMK A01

2010/08/08 05:55
KCMY 080555Z AUTO 00000KT 10SM SCT090 24/21 A2978 RMK AO2 LTG DSNT NW T02350206 10265 20235

2010/08/08 05:55
KCRH 080555Z AUTO 20008G15KT 10SM FEW027 31/25 A2993 RMK A01

2010/08/08 05:55
KCWA 080555Z AUTO 19009KT 10SM SCT019 SCT032 BKN080 22/21 A2980 RMK AO2 60004 T02200210 10247 20205 402680127

2010/08/08 05:55
KDLL 080555Z AUTO 20007KT 10SM CLR 22/18 A2983 RMK AO2 T02220182 10260 20218 402820144

2010/08/08 05:55
KDLP 080555Z AUTO 23012KT 10SM FEW029 FEW035 32/26 A2992 RMK A01

2010/08/08 06:00
KEDU 080600Z AUTO 21007KT 10SM CLR 17/12 A2972 RMK AO1

2010/08/08 05:55
KEFT 080555Z AUTO 20013KT 10SM CLR 22/19 A2986 RMK AO2 T02200188 10263 20218

2010/08/08 05:51
KEGV 080551Z AUTO 25008KT 5SM +RA BKN005 BKN010 OVC060 18/18 A2982 RMK AO2 P0016 T01770178

2010/08/08 05:55
KEHC 080555Z AUTO 20010KT 10SM FEW024 31/25 A2994 RMK A01

2010/08/08 05:55
KEIR 080555Z AUTO 18011KT 10SM FEW026 FEW033 30/25 A2994 RMK A01

2010/08/08 05:56
KEKQ 080556Z AUTO 00000KT 1 1/2SM BR 17/17 A3001 RMK AO2 58001 T01660166 10261 20166 SLP158 $

2010/08/08 05:55
KEMK 080555Z AUTO 23008KT 10SM FEW023 FEW029 SCT036 30/25 A2993 RMK A01

2010/08/08 05:52
KETB 080552Z AUTO 22009KT 10SM CLR 23/18 A2985 RMK AO2 T02250176 10255 20218 402800144

2010/08/08 05:54
KEZS 080554Z AUTO 22003KT 10SM CLR 24/21 A2978 RMK AO2 LTG DSNT N T02350207 10272 20228 402900145

2010/08/08 05:55
KGBK 080555Z AUTO 17012KT 10SM CLR 30/25 A2994 RMK A01

2010/08/08 05:55
KGUL 080555Z AUTO 10SM FEW023 30/25 A2994 RMK A01

2010/08/08 05:55
KHFJ 080555Z AUTO 13005KT 10SM CLR 24/22 A2988 RMK AO1

2010/08/08 05:50
KHQI 080550Z AUTO VRB06G12KT 10SM 30/25 A2993 RMK A01

2010/08/08 05:55
KIPN 080555Z AUTO 25012KT 10SM SCT025 SCT035 SCT046 30/25 A2993 RMK A01

2010/08/08 05:56
KIWA 080556Z AUTO 02008KT 10SM CLR 32/18 A2985 RMK AO2 LTG DSNT N

2010/08/08 05:55
KLCK 080555Z AUTO 00000KT 10SM CLR 19/16 A3000 RMK AO2 T01920162 10278 20187 402950154

2010/08/08 05:55
KMDJ 080555Z AUTO 24011KT 10SM CLR 31/25 A2995 RMK A01

2010/08/08 05:55
KINL 080555Z AUTO 00000KT 10SM FEW090 15/14 A2972 RMK AO2 SLP063 T01500144 10211 20150 402440067 53001 

2010/08/08 05:57
CYBC 080557Z AUTO 23009KT 9SM FEW033 FEW041 BKN053 OVC093 12/09 A2977

2010/08/08 05:57
KNJM 080557Z AUTO 04004KT 10SM CLR 25/24 A2995 RMK AO2 SLP145 T02500239 10267 20250 58004 

2010/08/08 06:00
LQSA 080600Z VRB02KT 9999 FEW025 SCT034 16/14 Q1020 NOSIG

2010/08/08 06:00
OPKC 080600Z 33006KTS 6000 FEW020 BKN100 31/26 Q1002 NOSIG

2010/08/08 06:00
OSDI 080600Z 00000KT CAVOK 27/17 Q1011

2010/08/08 06:00
OSAP 080600Z 27006KT CAVOK 31/09 Q1009

2010/08/08 06:00
OSLK 080600Z 03002KT 7000 29/22 Q1008

2010/08/08 06:00
OSKL 080600Z 30015KT CAVOK 37/M00 Q1007

2010/08/08 06:00
UBBB 080600Z 32008KT CAVOK 32/19 Q1011 NOSIG RMK R88CLRD70

2010/08/08 05:55
EHEH 080555Z AUTO 25003KT 5000NDV BR BKN006 OVC007 15/15 Q1015 YLO

2010/08/08 05:55
EHKD 080555Z AUTO 36004KT 9999NDV FEW021/// BKN066/// OVC087/// 17/15 Q1015 BLU WHT TEMPO GRN SCT018 BKN040 TEMPO SCT008 SCT015CB BKN040

2010/08/08 05:58
CWOB 080558Z AUTO ///// 0SM CLR 05/ A2947

2010/08/08 05:50
LGHI 080550Z 00000KT CAVOK 26/20 Q1010

2010/08/08 05:50
LGKF 080550Z 33008KT 9999 FEW020 25/19 Q1012

2010/08/08 05:50
LGKZ 080550Z 00000KT CAVOK 22/10 Q1015

2010/08/08 05:50
LGMK 080550Z 03005KT CAVOK 25/22 Q1010

2010/08/08 05:50
LGNX 080550Z 00000KT 9999 FEW018 26/22 Q1010

2010/08/08 05:50
LGPA 080550Z 00000KT CAVOK 26/21 Q1009

2010/08/08 05:50
LGSO 080550Z 00000KT CAVOK 26/23 Q1010

2010/08/08 05:50
HLLM 080550Z 07004KT 7000 FEW020 27/20 Q1017

2010/08/08 05:50
VECC 080550Z 12006KT 5000 HZ SCT018 SCT025 33/27 Q1003 NOSIG

2010/08/08 05:50
VEPT 080550Z 11005KT 3000 HZ SCT018 SCT025 35/25 Q1002 NOSIG

2010/08/08 05:50
VGEG 080550Z 21004KT 6000 SCT016 FEW028CB BKN100 29/25 Q1004 NOSIG

2010/08/08 05:50
VNKT 080550Z 00000KT 8000 FEW020 SCT025 BKN100 27/XX Q1011 NOSIG

2010/08/08 05:50
LGAD 080550Z 00000KT CAVOK 24/20 Q1013

2010/08/08 05:50
LGIR 080550Z 16005KT CAVOK 26/18 Q1010 NOSIG

2010/08/08 05:50
LGKL 080550Z 33004KT CAVOK 23/16 Q1010

2010/08/08 05:50
LGKO 080550Z 31007KT 9000 SCT008 26/23 Q1009

2010/08/08 05:50
LGKR 080550Z 00000KT CAVOK 24/17 Q1012 NOSIG

2010/08/08 05:50
LGLM 080550Z VRB03KT 8000 FEW010 26/24 Q1009

2010/08/08 05:50
LGSA 080550Z 27013KT CAVOK 27/16 Q1010

2010/08/08 05:50
LGSM 080550Z 00000KT 9999 FEW018 25/22 Q1009

2010/08/08 05:50
LGTS 080550Z 31010KT CAVOK 26/21 Q1011 NOSIG

2010/08/08 05:50
LGAL 080550Z VRB02KT 9999 FEW030 SCT080 26/17 Q1010

2010/08/08 05:50
LGEL 080550Z 00000KT CAVOK 30/15 Q1009

2010/08/08 05:50
LGKV 080550Z 00000KT CAVOK 24/19 Q1010

2010/08/08 05:50
LGMT 080550Z 00000KT CAVOK 28/22 Q1010

2010/08/08 05:50
LGPZ 080550Z 00000KT 9999 FEW008 24/20 Q1013 NOSIG

2010/08/08 05:50
LGRX 080550Z 00000KT CAVOK 24/20 Q1011 NOSIG

2010/08/08 05:50
LGSR 080550Z 36005KT CAVOK 27/20 Q1008 NOSIG

2010/08/08 05:50
LGZA 080550Z 00000KT CAVOK 23/16 Q1012

2010/08/08 05:56
KSMP 080556Z AUTO VRB03KT 1/4SM FG BKN002 OVC006 11/11 A2997 RMK AO2 SLP140 P0020 60026 T01060106 10117 20106 50001 TSNO $ 

2010/08/08 05:56
KGFA 080556Z AUTO 21007KT 10SM CLR 18/06 A2979 RMK AO2 SLP084 T01830056 10300 20172 403110133 51016 $ 

2010/08/08 06:00
FIMP 080600Z 13019KT 9999 SCT019 23/16 Q1025

2010/08/08 06:00
SBBR 080600Z 23002KT CAVOK 15/07 Q1022

2010/08/08 05:51
KNTU 080551Z 00000KT 10SM BKN010 BKN060 24/23 A2999 RMK AO2 $

2010/08/08 05:53
KSSC 080553Z 00000KT 8SM R22/5500VP6000FT CLR 25/23 A2993 RMK AO2A SLP133 $

2010/08/08 05:55
KQBS 080555Z 27005KT 6000 DU HZ FEW010 SCT180 40/05 A2947 RMK FU FEW010 SLP986 WND/ALSTG/SLP/QNH ESTMD QNH998 52003

2010/08/08 05:55
KQCQ 080555Z 32010KT 9000 HZ SCT200 41/04 A2952 RMK SLP995

2010/08/08 05:55
KQDP 080555Z AUTO RMK AO2 SLPNO $

2010/08/08 05:55
KQSB 080555Z AUTO 24005KT 7000 CLR 35/05 A2979 RMK AO2 SLP985 T03500054 10332 20274 54000 $

2010/08/08 05:55
KQYU 080555Z AUTO 06013G24KT 9999 FEW150 33/M01 A2984 RMK AO2 SLP021 T03321006 10279 20263 57005

2010/08/08 05:56
KQB6 080556Z AUTO 17003KT 12SM FEW039 BKN100 20/16 A2986 RMK AO2 SLP030 T01990157 10198 20179 51006 PNO $

2010/08/08 05:50
K3A6 080550Z AUTO 36002KT 15/09 A2988 RMK AO1 SLP106 T01520095 10281 20152 54000 

2010/08/08 06:00
ORSU 080600Z 09008KT 9999 FEW045 SCT080 37/05 Q1011 

2010/08/08 05:54
KWAL 080554Z AUTO 00000KT 10SM CLR 23/21 A3001 RMK AO2 SLP157 T02280211 10250 20222 58001 TSNO 

2010/08/08 05:53
KLOR 080553Z AUTO 00000KT 10SM CLR 24/23 A2992 RMK AO2 SLP127 6//// T02440228 10256 20244 56010 TSNO PNO $ 

2010/08/08 05:51
KP58 080551Z AUTO 23004KT 22/18 A2986 RMK AO2 SLP103 T02170178 10239 20217 56002 PWINO TSNO 

2010/08/08 05:54
KAPN 080554Z AUTO 21005KT 10SM CLR 19/16 A2981 RMK AO2 SLP093 T01940156 10228 20161 58009 

2010/08/08 05:52
KMLF 080552Z AUTO 25008KT 10SM BKN080 16/11 A3004 RMK AO2 SLP111 60000 T01610111 10256 20156 50000 TSNO 

2010/08/08 05:56
KFPK 080556Z AUTO 19004KT 10SM CLR 18/17 A2991 RMK AO2

2010/08/08 05:55
KCVX 080555Z AUTO 19006KT 10SM SCT029 SCT036 22/19 A2979 RMK AO2

2010/08/08 05:55
KMOP 080555Z AUTO 19003KT 10SM SCT050 BKN100 21/20 A2987 RMK AO2

2010/08/08 05:54
KFKS 080554Z AUTO 20009KT 10SM OVC038 23/19 A2980 RMK AO2

2010/08/08 05:54
KCAD 080554Z AUTO 21007KT 10SM SCT033 SCT048 SCT065 22/20 A2985 RMK AO2

2010/08/08 05:54
KMGN 080554Z AUTO 00000KT 10SM OVC025 22/18 A2978 RMK AO2

2010/08/08 05:55
KSLH 080555Z AUTO 20003KT 10SM SCT040 SCT048 SCT065 20/18 A2977 RMK AO2

2010/08/08 05:55
KSJX 080555Z AUTO 22008KT 10SM CLR 22/20 A2977 RMK AO2

2010/08/08 05:55
KHAI 080555Z AUTO 19005KT 7SM CLR 19/18 A2994 RMK AO2

2010/08/08 05:56
KLWA 080556Z AUTO 20008KT 10SM CLR 22/17 A2990 RMK AO2

2010/08/08 05:57
KDRM 080557Z AUTO 16003KT 10SM CLR 18/17 A2977 RMK AO2

2010/08/08 05:54
KVLL 080554Z AUTO 22004KT 10SM SCT100 22/15 A2996 RMK AO2

2010/08/08 05:55
KGOV 080555Z AUTO 21004KT 10SM SCT075 SCT110 20/18 A2984 RMK AO2

2010/08/08 05:54
KPZQ 080554Z AUTO 22005KT 2 1/2SM -RA SCT009 BKN036 OVC100 18/16 A2980 RMK AO2 VIS 1V5

2010/08/08 05:55
KCFS 080555Z AUTO 20003KT 10SM SCT120 19/16 A2989 RMK AO2

2010/08/08 05:54
KHYX 080554Z AUTO 21009KT 10SM SCT110 21/16 A2988 RMK AO2

2010/08/08 05:55
KOZW 080555Z AUTO 21004KT 7SM CLR 20/16 A2993 RMK AO2

2010/08/08 05:55
KRNP 080555Z AUTO 20006KT 10SM BKN120 21/17 A2990 RMK AO2

2010/08/08 05:54
KDUH 080554Z AUTO 20004KT 10SM CLR 20/15 A2995 RMK AO2

2010/08/08 05:55
KISQ 080555Z AUTO 22003KT 10SM BKN110 22/19 A2975 RMK AO2

2010/08/08 05:55
KJYM 080555Z AUTO 19005KT 7SM CLR 20/17 A2996 RMK AO2

2010/08/08 06:04
KBAX 080604Z AUTO 19004KT 10SM SCT047 SCT050 SCT080 19/17 A2988 RMK AO2

2010/08/08 05:55
KIRS 080555Z AUTO 19005KT 7SM CLR 19/17 A2994 RMK AO2

2010/08/08 05:54
KAMN 080554Z AUTO 20005KT 10SM CLR 20/17 A2987 RMK AO2

2010/08/08 05:55
KACB 080555Z AUTO 18003KT 10SM OVC032 23/19 A2980 RMK AO2

2010/08/08 05:54
KRQB 080554Z AUTO 19005KT 10SM OVC050 22/18 A2987 RMK AO2

2010/08/08 05:55
KERY 080555Z AUTO 23003KT 3SM BR OVC003 21/19 A2977 RMK AO2

2010/08/08 05:55
KOEB 080555Z AUTO 21005KT 10SM CLR 21/17 A2994 RMK AO2

2010/08/08 05:56
K4I3 080556Z AUTO 00000KT 10SM CLR 18/16 A3002 RMK AO2

2010/08/08 05:55
KAUM 080555Z AUTO 19007KT 7SM BKN060 23/21 A2976 RMK AO2 LTG DSNT N

2010/08/08 05:55
KFFX 080555Z AUTO 18003KT 10SM OVC050 22/20 A2986 RMK AO2

2010/08/08 05:54
KCNB 080554Z AUTO 22009KT 10SM CLR 26/23 A2966 RMK AO2 T02620230 10310 20250 403260172

2010/08/08 05:55
KCKN 080555Z AUTO 11004KT 10SM CLR 22/20 A2966 RMK AO2

2010/08/08 06:02
KCFE 080602Z AUTO 00000KT 10SM VCTS BKN043 BKN050 OVC100 25/22 A2970 RMK AO2 LTG DSNT W THRU E T02540215

2010/08/08 05:57
KCQM 080557Z AUTO 00000KT 10SM CLR 17/16 A2972 RMK AO2

2010/08/08 05:55
KDTL 080555Z AUTO 00000KT 10SM CLR 20/16 A2968 RMK AO2

2010/08/08 05:55
KBDH 080555Z AUTO 00000KT 7SM CLR 25/22 A2969 RMK AO2 LTG DSNT NE AND E

2010/08/08 05:55
KCBG 080555Z AUTO 20005KT 10SM -TSRA SCT100 20/18 A2969 RMK AO2 LTG DSNT ALQDS

2010/08/08 05:57
KADC 080557Z AUTO 06003KT 10SM CLR 17/17 A2968 RMK AO2

2010/08/08 05:55
KHAF 080555Z AUTO 15007KT 1 1/2SM BR OVC003 12/12 A2989 RMK AO2

2010/08/08 05:55
KCKC 080555Z AUTO 03003KT 10SM CLR 14/12 A2979 RMK AO2

2010/08/08 05:55
KJYG 080555Z AUTO 18006KT 10SM CLR 26/26 A2971 RMK AO2 LTG DSNT NE

2010/08/08 05:56
KCOQ 080556Z AUTO 10009KT 1/2SM FG OVC002 19/17 A2972 RMK AO2 LTG DSNT S

2010/08/08 05:58
KACQ 080558Z AUTO 20013G18KT 10SM BKN047 BKN055 BKN070 25/22 A2975 RMK AO2 LTG DSNT NE

2010/08/08 05:55
KRGK 080555Z AUTO 23008G15KT 10SM VCTS CLR 27/22 A2970 RMK AO2 LTG DSNT N AND NW

2010/08/08 05:54
KFSE 080554Z AUTO 00000KT 5SM BR CLR 19/18 A2966 RMK AO2

2010/08/08 05:55
KY70 080555Z AUTO 21007KT 10SM CLR 21/18 A2989 RMK AO2 T02110178 10253 20211 402950117

2010/08/08 05:50
KUKT 080550Z AUTO 00000KT 10SM FEW060 SCT090 17/15 A3002 RMK AO1

2010/08/08 05:54
KCDA 080554Z AUTO 00000KT 10SM CLR 08/06 A3002 RMK AO2

2010/08/08 05:55
KLDM 080555Z AUTO 23012G17KT 10SM SCT039 24/21 A2983 RMK AO2

2010/08/08 05:55
KPHN 080555Z AUTO 21004KT 10SM BKN090 OVC110 20/16 A2992 RMK AO2

2010/08/08 05:55
KRMY 080555Z AUTO 18003KT 10SM CLR 20/17 A2993 RMK AO2

2010/08/08 05:56
KOSC 080556Z AUTO 21006KT 10SM SCT065 BKN110 20/17 A2984 RMK AO2

2010/08/08 05:54
KTTF 080554Z AUTO 21003KT 7SM CLR 21/17 A2994 RMK AO2

2010/08/08 05:55
KMCD 080555Z AUTO 20003KT 10SM CLR 21/17 A2977 RMK AO2

2010/08/08 05:59
KSAW 080559Z AUTO 28003KT 10SM SCT060 BKN120 17/14 A2975 RMK AO2

2010/08/08 05:55
KGTB 080555Z AUTO 17007KT 10SM CLR 16/11 A2997 RMK AO2 SLP151 T01570105 10185 20148 53001

2010/08/08 05:58
KMEI 080558Z 00000KT 6SM R01/5000VP6000FT BR CLR 24/24 A2991 RMK AO2 SLP124 T02440244 10278 20244 403440233 56003

2010/08/08 05:53
KNQX 080553Z AUTO 14003KT 10SM BKN042 BKN075 30/25 A2996 RMK AO2 SLP143 6//// T03000250 10311 20294 58010 $

2010/08/08 05:52
KNRB 080552Z AUTO 22003KT 10SM BKN026 BKN042 26/23 A2993 RMK AO2 SLP133 60000 T02560233 10261 20250 50000

2010/08/08 05:55
KPAM 080555Z AUTO 00000KT 9SM CLR 26/25 A2990 RMK AO2 SLP126 60034 T02560253 10279 20253 403340253 58008 $

2010/08/08 05:55
KPSM 080555Z 00000KT 10SM SCT250 14/13 A3001 RMK AO2A SLP163 T01390131 10182 20136 53004

2010/08/08 05:56
KY50 080556Z AUTO 19005KT 10SM CLR 22/19 A2982 RMK AO2 56003 T02220194 10266 20222 SLP087

2010/08/08 05:55
PGUA 080555Z AUTO 06011KT 10SM CLR 29/25 A2980 RMK AO2 SLP073 T02910254 10297 20283 56010 VISNO RWY24L $

2010/08/08 05:57
PAGH 080557Z AUTO 10003KT 10SM FEW009 BKN019 OVC024 14/13 A2961 RMK AO2 RAE14 SLP055 P0000 60010 T01390128 10150 20128 51006

2010/08/08 05:57
PAIW 080557Z AUTO 04010KT 10SM OVC006 09/07 A2965 RMK AO2 SLP134 T00890072 10094 20089 56003

2010/08/08 05:56
PAMB 080556Z AUTO 24005KT 10SM OVC009 10/08 A2973 RMK AO2 PWINO TSNO 55000 T01000083 10127 20100 SLP070 $

2010/08/08 05:56
PAOH 080556Z AUTO 00000KT 10SM OVC021 12/12 A2987 RMK AO2 TSNO 53007 60000 T01220122 10138 20122 RAE0458 P0000 SLP116 $

2010/08/08 05:57
PAVA 080557Z AUTO 16007KT 10SM SCT011 OVC017 12/10 A2965 RMK AO2 SLP043 T01170100 10128 20117 56008

2010/08/08 05:56
PPIZ 080556Z AUTO 07014KT 10SM CLR 08/06 A2971 RMK AO2 TSNO 53007 60000 T00830055 10100 20083 SLP066 $

2010/08/08 05:58
KAVX 080558Z AUTO 17004KT 3/4SM BR OVC001 12/12 A2993 RMK AO2 TSNO

2010/08/08 05:58
KVLD 080558Z AUTO 00000KT 3/4SM BR VV001 24/24 A2993 RMK AO2

2010/08/08 05:55
KOEB 080555Z AUTO 21005KT 10SM CLR 21/17 A2994 RMK AO2

2010/08/08 05:56
K4I3 080556Z AUTO 00000KT 10SM CLR 18/16 A3002 RMK AO2

2010/08/08 05:55
KAUM 080555Z AUTO 19007KT 7SM BKN060 23/21 A2976 RMK AO2 LTG DSNT N

2010/08/08 05:55
KFFX 080555Z AUTO 18003KT 10SM OVC050 22/20 A2986 RMK AO2

2010/08/08 05:54
KCNB 080554Z AUTO 22009KT 10SM CLR 26/23 A2966 RMK AO2 T02620230 10310 20250 403260172

2010/08/08 05:55
KCKN 080555Z AUTO 11004KT 10SM CLR 22/20 A2966 RMK AO2

2010/08/08 06:02
KCFE 080602Z AUTO 00000KT 10SM VCTS BKN043 BKN050 OVC100 25/22 A2970 RMK AO2 LTG DSNT W THRU E T02540215

2010/08/08 05:57
KCQM 080557Z AUTO 00000KT 10SM CLR 17/16 A2972 RMK AO2

2010/08/08 05:55
KDTL 080555Z AUTO 00000KT 10SM CLR 20/16 A2968 RMK AO2

2010/08/08 05:55
KBDH 080555Z AUTO 00000KT 7SM CLR 25/22 A2969 RMK AO2 LTG DSNT NE AND E

2010/08/08 05:55
KCBG 080555Z AUTO 20005KT 10SM -TSRA SCT100 20/18 A2969 RMK AO2 LTG DSNT ALQDS

2010/08/08 05:57
KADC 080557Z AUTO 06003KT 10SM CLR 17/17 A2968 RMK AO2

2010/08/08 05:55
KHAF 080555Z AUTO 15007KT 1 1/2SM BR OVC003 12/12 A2989 RMK AO2

2010/08/08 05:55
KCKC 080555Z AUTO 03003KT 10SM CLR 14/12 A2979 RMK AO2

2010/08/08 05:55
KJYG 080555Z AUTO 18006KT 10SM CLR 26/26 A2971 RMK AO2 LTG DSNT NE

2010/08/08 05:56
KCOQ 080556Z AUTO 10009KT 1/2SM FG OVC002 19/17 A2972 RMK AO2 LTG DSNT S

2010/08/08 05:58
KACQ 080558Z AUTO 20013G18KT 10SM BKN047 BKN055 BKN070 25/22 A2975 RMK AO2 LTG DSNT NE

2010/08/08 05:55
KRGK 080555Z AUTO 23008G15KT 10SM VCTS CLR 27/22 A2970 RMK AO2 LTG DSNT N AND NW

2010/08/08 05:54
KFSE 080554Z AUTO 00000KT 5SM BR CLR 19/18 A2966 RMK AO2

2010/08/08 05:55
KY70 080555Z AUTO 21007KT 10SM CLR 21/18 A2989 RMK AO2 T02110178 10253 20211 402950117

2010/08/08 05:50
KUKT 080550Z AUTO 00000KT 10SM FEW060 SCT090 17/15 A3002 RMK AO1

2010/08/08 05:54
KCDA 080554Z AUTO 00000KT 10SM CLR 08/06 A3002 RMK AO2

2010/08/08 05:55
KLDM 080555Z AUTO 23012G17KT 10SM SCT039 24/21 A2983 RMK AO2

2010/08/08 05:55
KPHN 080555Z AUTO 21004KT 10SM BKN090 OVC110 20/16 A2992 RMK AO2

2010/08/08 05:55
KRMY 080555Z AUTO 18003KT 10SM CLR 20/17 A2993 RMK AO2

2010/08/08 05:56
KOSC 080556Z AUTO 21006KT 10SM SCT065 BKN110 20/17 A2984 RMK AO2

2010/08/08 05:54
KTTF 080554Z AUTO 21003KT 7SM CLR 21/17 A2994 RMK AO2

2010/08/08 05:55
KMCD 080555Z AUTO 20003KT 10SM CLR 21/17 A2977 RMK AO2

2010/08/08 05:50
K3A6 080550Z AUTO 36002KT 15/09 A2988 RMK AO1 SLP106 T01520095 10281 20152 54000

2010/08/08 05:59
KSAW 080559Z AUTO 28003KT 10SM SCT060 BKN120 17/14 A2975 RMK AO2

2010/08/08 05:53
KUIL 080553Z AUTO 28005KT 2 1/2SM BR OVC004 12/12 A2994 RMK AO2 CIG 002V008 SLP140 60001 T01220117 10156 20122 51010 TSNO

2010/08/08 05:53
K6R6 080553Z AUTO 10005KT 28/18 A2991 RMK AO2 SLP088 T02780178 10339 2278 403560211 51014 PWINO TSNO

2010/08/08 05:54
KSBN 080554Z 19008KT 9SM BKN080 OVC100 23/18 A2994 RMK AO2 SLP131 T02280178 10261 20222 56005

2010/08/08 05:54
KWAL 080554Z AUTO 00000KT 10SM CLR 23/21 A3001 RMK AO2 SLP157 T02280211 10250 20222 58001 TSNO

2010/08/08 05:55
KINL 080555Z AUTO 00000KT 10SM FEW090 15/14 A2972 RMK AO2 SLP063 T01500144 10211 20150 402440067 53001

2010/08/08 05:56
KSMP 080556Z AUTO VRB03KT 1/4SM FG BKN002 OVC006 11/11 A2997 RMK AO2 SLP140 P0020 60026 T01060106 10117 20106 50001 TSNO $

2010/08/08 05:54
KWAL 080554Z AUTO 00000KT 10SM CLR 23/21 A3001 RMK AO2 SLP157 T02280211 10250 20222 58001 TSNO

2010/08/08 05:53
KLOR 080553Z AUTO 00000KT 10SM CLR 24/23 A2992 RMK AO2 SLP127 6//// T02440228 10256 20244 56010 TSNO PNO $

2010/08/08 05:51
KP58 080551Z AUTO 23004KT 22/18 A2986 RMK AO2 SLP103 T02170178 10239 20217 56002 PWINO TSNO

2010/08/08 05:54
KAPN 080554Z AUTO 21005KT 10SM CLR 19/16 A2981 RMK AO2 SLP093 T01940156 10228 20161 58009

2010/08/08 05:52
KMLF 080552Z AUTO 25008KT 10SM BKN080 16/11 A3004 RMK AO2 SLP111 60000 T01610111 10256 20156 50000 TSNO

2010/08/08 05:56
KAQV 080556Z AUTO 00000KT 10SM CLR 27/25 A2991 RMK AO2 SLP123 T02720250 10333 20267 51006

2010/08/08 05:56
KCDJ 080556Z AUTO 00000KT 26/21 A2989 RMK AO2 SLP103 T02560211 10311 20250 403330211 51004 PWINO TSNO

2010/08/08 05:56
KP28 080556Z AUTO 14006KT 29/22 A2984 RMK AO2 SLP082 T02890217 10339 20289 403720222 51007 PWINO TSNO

2010/08/08 05:56
KCAE 080556Z 00000KT 6SM BR CLR 26/24 A2993 RMK AO2 SLP132 T02560239 10306 20256 58004

2010/08/08 05:56
KINS 080556Z AUTO 10012KT 10SM 27/11 A2985 RMK AO2 SLP049 60000 T02720106 10333 20261 51014 TSNO $

2010/08/08 05:56
KNGP 080556Z AUTO 10SM FEW019 28/26 A2990 RMK AO2 SLP123 T02780261 10294 20278 403220250 51008 VISNO $

2010/08/08 05:56
KNRS 080556Z AUTO 23004KT 10SM OVC017 16/13 A2993 RMK AO2 SLP136 T01560128 10183 20156 51015 TSNO $

2010/08/08 05:56
KALK 080556Z AUTO 25005KT 10SM FEW100 18/17 A3014 RMK AO2 TSE03 SLP122 60150 T01780172 10278 20161 58002 $

2010/08/08 05:56
KSPD 080556Z AUTO 21012KT 24/16 A2996 RMK AO2 SLP069 T02440156 10317 20217 50004 PWINO TSNO

2010/08/08 05:56
K2WX 080556Z AUTO 20007KT 23/11 A2974 RMK AO1 SLP042 T02330106 10317 20206 50009

2010/08/08 05:56
KD07 080556Z AUTO 27005KT 23/16 A2980 RMK AO2 SLP069 T02280156 10311 20228 53014 PWINO TSNO

2010/08/08 05:56
KGNA 080556Z AUTO 00000KT 18/13 A2973 RMK AO2 SLP064 T01780128 10194 20161 402000100 55002 PWINO TSNO

2010/08/08 05:54
KAKQ 080554Z AUTO 00000KT 8SM CLR 20/18 A3000 RMK AO2 SLP156 T02000183 10261 20194 53001 TSNO $

2010/08/08 05:56
KNXP 080556Z AUTO 22013KT CLR 28/01 A2987 RMK AO2 SLP075 T02780011 10356 20278 51012 $

2010/08/08 05:56
KGFA 080556Z AUTO 21007KT 10SM CLR 18/06 A2979 RMK AO2 SLP084 T01830056 10300 20172 403110133 51016 $

2010/08/08 05:56
KFPK 080556Z AUTO 19004KT 10SM CLR 18/17 A2991 RMK AO2

2010/08/08 05:55
KCVX 080555Z AUTO 19006KT 10SM SCT029 SCT036 22/19 A2979 RMK AO2

2010/08/08 05:55
KMOP 080555Z AUTO 19003KT 10SM SCT050 BKN100 21/20 A2987 RMK AO2

2010/08/08 05:54
KFKS 080554Z AUTO 20009KT 10SM OVC038 23/19 A2980 RMK AO2

2010/08/08 05:54
KCAD 080554Z AUTO 21007KT 10SM SCT033 SCT048 SCT065 22/20 A2985 RMK AO2

2010/08/08 05:54
KMGN 080554Z AUTO 00000KT 10SM OVC025 22/18 A2978 RMK AO2

2010/08/08 05:55
KSLH 080555Z AUTO 20003KT 10SM SCT040 SCT048 SCT065 20/18 A2977 RMK AO2

2010/08/08 05:55
KSJX 080555Z AUTO 22008KT 10SM CLR 22/20 A2977 RMK AO2

2010/08/08 05:55
KHAI 080555Z AUTO 19005KT 7SM CLR 19/18 A2994 RMK AO2

2010/08/08 05:56
KLWA 080556Z AUTO 20008KT 10SM CLR 22/17 A2990 RMK AO2

2010/08/08 05:57
KDRM 080557Z AUTO 16003KT 10SM CLR 18/17 A2977 RMK AO2

2010/08/08 05:54
KVLL 080554Z AUTO 22004KT 10SM SCT100 22/15 A2996 RMK AO2

2010/08/08 05:55
KGOV 080555Z AUTO 21004KT 10SM SCT075 SCT110 20/18 A2984 RMK AO2

2010/08/08 05:54
KPZQ 080554Z AUTO 22005KT 2 1/2SM -RA SCT009 BKN036 OVC100 18/16 A2980 RMK AO2 VIS 1V5

2010/08/08 05:55
KCFS 080555Z AUTO 20003KT 10SM SCT120 19/16 A2989 RMK AO2

2010/08/08 05:54
KHYX 080554Z AUTO 21009KT 10SM SCT110 21/16 A2988 RMK AO2

2010/08/08 05:55
KOZW 080555Z AUTO 21004KT 7SM CLR 20/16 A2993 RMK AO2

2010/08/08 05:55
KRNP 080555Z AUTO 20006KT 10SM BKN120 21/17 A2990 RMK AO2

2010/08/08 05:54
KDUH 080554Z AUTO 20004KT 10SM CLR 20/15 A2995 RMK AO2

2010/08/08 05:55
KISQ 080555Z AUTO 22003KT 10SM BKN110 22/19 A2975 RMK AO2

2010/08/08 05:55
KJYM 080555Z AUTO 19005KT 7SM CLR 20/17 A2996 RMK AO2

2010/08/08 06:04
KBAX 080604Z AUTO 19004KT 10SM SCT047 SCT050 SCT080 19/17 A2988 RMK AO2

2010/08/08 05:55
KIRS 080555Z AUTO 19005KT 7SM CLR 19/17 A2994 RMK AO2

2010/08/08 05:54
KAMN 080554Z AUTO 20005KT 10SM CLR 20/17 A2987 RMK AO2

2010/08/08 05:55
KACB 080555Z AUTO 18003KT 10SM OVC032 23/19 A2980 RMK AO2

2010/08/08 05:54
KRQB 080554Z AUTO 19005KT 10SM OVC050 22/18 A2987 RMK AO2

2010/08/08 05:55
KERY 080555Z AUTO 23003KT 3SM BR OVC003 21/19 A2977 RMK AO2

2010/08/08 05:54
KNKT 080554Z AUTO 00000KT 7SM CLR 25/23 A2996 RMK AO2 SLP142 T02500233 10272 20244 58002

2010/08/08 05:53
KNQX 080553Z AUTO 14003KT 10SM BKN042 BKN075 30/25 A2996 RMK AO2 SLP143 6//// T03000250 10311 20294 58010 $

2010/08/08 05:52
KNRB 080552Z AUTO 22003KT 10SM BKN026 BKN042 26/23 A2993 RMK AO2 SLP133 60000 T02560233 10261 20250 50000

2010/08/08 05:56
KNTU 080556Z 00000KT 10SM BKN010 BKN060 24/23 A2999 RMK AO2 SLP156 T02390233 10256 20239 53001 $

2010/08/08 05:52
KNZY 080552Z 17003KT 10SM OVC018 19/13 A2992 RMK AO2 SLP130 T01890128 10217 20178 51015 $

2010/08/08 05:55
KPAM 080555Z AUTO 00000KT 9SM CLR 26/25 A2990 RMK AO2 SLP126 60034 T02560253 10279 20253 403340253 58008 $

2010/08/08 05:55
KPOB 080555Z AUTO 00000KT 10SM CLR 25/24 A2997 RMK AO2 SLP146 T02460240 10286 20239 58002 $

2010/08/08 05:55
KPSM 080555Z 00000KT 10SM SCT250 14/13 A3001 RMK AO2A SLP163 T01390131 10182 20136 53004

2010/08/08 05:55
KRCA 080555Z AUTO 36016KT 10SM SCT150 OVC230 22/12 A2986 RMK AO2 PK WND 36028/0524 SLP081 T02230121 10319 20207 53014 $

2010/08/08 05:55
KSKA 080555Z AUTO 30010KT 10SM SCT090 BKN110 BKN150 19/09 A2982 RMK AO2 CIG 090 RWY05 SLP084 T01870094 10281 20187 51011

2010/08/08 05:55
KTCM 080555Z AUTO 22006KT 10SM OVC046 16/15 A2992 RMK AO2 SLP134 60011 T01590148 10179 20159 53004

2010/08/08 05:56
KNTD 080556Z 00000KT 10SM OVC009 15/14 A2989 RMK AO2 SLP121 T01500139 10183 20150 51014 $

2010/08/08 05:55
KNBG 080555Z AUTO 00000KT 10SM CLR 28/24 A2993 RMK AO2 SLP134 T02830244 10306 20272 403560256 50003 PWINO $

2010/08/08 05:54
KNFG 080554Z AUTO 00000KT OVC015 15/12 A2992 RMK AO2 SLP131 T01500122 10206 20122 51019 TSNO $

2010/08/08 05:56
KNID 080556Z AUTO 18011KT FEW085 26/02 A2979 RMK AO2 SLP065 T02610022 10367 20261 51015 TSNO $

2010/08/08 05:56
KNJK 080556Z AUTO 28006KT 10SM CLR 29/02 A2970 RMK AO2 SLP071 T02940017 10406 20294 51020 TSNO

2010/08/08 05:55
KNKX 080555Z 00000KT 10SM OVC015 17/13 A2992 RMK AO2 SLP128 T01670128 10211 20139 51016

2010/08/08 05:56
KNTU 080556Z 00000KT 10SM BKN010 BKN060 24/23 A2999 RMK AO2 SLP156 T02390233 10256 20239 53001 $

2010/08/08 05:56
KNUQ 080556Z 06003KT 10SM CLR 15/12 A2985 RMK AO2 SLP112 T01500122 10217 20144 50009

2010/08/08 05:56
KNYG 080556Z AUTO 30006KT 10SM CLR 19/18 A3001 RMK AO2 SLP162 T01940178 10267 20194 50004 $

2010/08/08 05:55
KPOE 080555Z AUTO 22004KT 10SM CLR 27/24 A2992 RMK AO2 SLP130 T02720239 10328 20272 51007

2010/08/08 05:55
KVBG 080555Z AUTO 02006KT 10SM OVC005 13/12 A2991 RMK AO2 SLP121 T01280117 10161 20128 50008 TSNO CHINO RWY12 VISNO RWY12 $

2010/08/08 05:56
PASY 080556Z AUTO 28023G28KT 8SM OVC001 10/09 A2905 RMK AO2 PK WND 26031/0514 SLP837 6//// T01000094 10106 20100 53007 TSNO PNO $

2010/08/08 05:55
KMHR 080555Z AUTO 15004KT 10SM CLR 18/10 A2977 RMK AO1

2010/08/08 05:55
KGBK 080555Z AUTO 17012KT 10SM CLR 30/25 A2994 RMK A01

2010/08/08 05:56
KNFL 080556Z AUTO 19006KT 10SM CLR 22/02 A2987 RMK AO2 SLP090 T02170022 10344 20206 53025 TSNO

2010/08/08 05:56
KNXP 080556Z AUTO 22013KT CLR 28/01 A2987 RMK AO2 SLP075 T02780011 10356 20278 51012 $

2010/08/08 05:57
KNJM 080557Z AUTO 04004KT 10SM CLR 25/24 A2995 RMK AO2 SLP145 T02500239 10267 20250 58004

2010/08/08 05:58
K0J4 080558Z AUTO 00000KT 10SM CLR 26/24 A2993 RMK AO2 SLP132 T02560239 10283 20256 58006 $

2010/08/08 05:56
KNBC 080556Z AUTO 00000KT 7SM CLR 26/24 A2992 RMK AO2 SLP131 T02560239 10289 20250 58006

2010/08/08 05:55
KGTB 080555Z AUTO 17007KT 10SM CLR 16/11 A2997 RMK AO2 SLP151 T01570105 10185 20148 53001

2010/08/08 05:53
KNQX 080553Z AUTO 14003KT 10SM BKN042 BKN075 30/25 A2996 RMK AO2 SLP143 6//// T03000250 10311 20294 58010 $

2010/08/08 05:52
KNRB 080552Z AUTO 22003KT 10SM BKN026 BKN042 26/23 A2993 RMK AO2 SLP133 60000 T02560233 10261 20250 50000

2010/08/08 05:55
KPAM 080555Z AUTO 00000KT 9SM CLR 26/25 A2990 RMK AO2 SLP126 60034 T02560253 10279 20253 403340253 58008 $

2010/08/08 05:56
KAQV 080556Z AUTO 00000KT 10SM CLR 27/25 A2991 RMK AO2 SLP123 T02720250 10333 20267 51006

2010/08/08 05:56
KPRN 080556Z AUTO 00000KT 9SM CLR 26/24 A2992 RMK AO2 SLP126 60002 T02560244 10289 20250 55011 $

2010/08/08 05:56
KNXX 080556Z AUTO 00000KT 10SM FEW095 22/15 A3002 RMK AO2 SLP170 T02170150 10267 20217 50005 $

2010/08/08 05:56
KNMM 080556Z AUTO 00000KT 10SM CLR 25/23 A2991 RMK AO2 SLP134 T02500233 10261 20244 403560239 56006 $

2010/08/08 05:56
KNDZ 080556Z AUTO 00000KT 8SM FEW002 27/23 A2991 RMK AO2 SLP113 60022 T02670233 10272 20267 403780267 58003 PWINO $

2010/08/08 05:56
K79J 080556Z AUTO 00000KT 8SM CLR 26/23 A2991 RMK AO2 SLP123 6//// T02610233 10294 20261 403500261 58004 TSNO PNO $

2010/08/08 05:56
KNQI 080556Z AUTO 16007KT 9SM CLR 28/24 A2990 RMK AO2 SLP123 T02830244 10333 20283 403830256 51010

2010/08/08 05:56
KINS 080556Z AUTO 10012KT 10SM 27/11 A2985 RMK AO2 SLP049 60000 T02720106 10333 20261 51014 TSNO $

2010/08/08 05:56
KNPA 080556Z AUTO 22003KT 10SM TS BKN100 26/24 A2989 RMK AO2 TSE0457B05E32B39 SLP123 T02610239 10283 20256 403500256 58011

2010/08/08 05:56
KHLR 080556Z AUTO 15007KT 10SM CLR 30/23 A2991 RMK AO2 SLP118 T03000228 10367 20300 51012 $

2010/08/08 05:56
KNGP 080556Z AUTO 10SM FEW019 28/26 A2990 RMK AO2 SLP123 T02780261 10294 20278 403220250 51008 VISNO $

2010/08/08 05:56
KNRS 080556Z AUTO 23004KT 10SM OVC017 16/13 A2993 RMK AO2 SLP136 T01560128 10183 20156 51015 TSNO $

2010/08/08 05:56
PHBK 080556Z AUTO 28005KT 10SM FEW049 28/20 A3005 RMK AO2 SLP179 T02830200 10306 20283 53013 TSNO $

2010/08/08 05:56
KNCA 080556Z AUTO A2995 RMK AO2 SLP145 6//// 58003 PWINO FZRANO TSNO $

2010/08/08 05:55
KADW 080555Z AUTO 18004KT 10SM CLR 20/17 A3000 RMK AO2 SLP161 T02040165 10258 20197 51004 $

2010/08/08 05:55
KBKF 080555Z 17011KT 25SM FEW070 SCT140 BKN220 20/14 A3005 RMK SLP097 60001 51008

2010/08/08 05:55
KEND 080555Z AUTO 13008KT 10SM CLR 28/22 A2985 RMK AO2 SLP089 T02790223 10359 20279 403760232 51008 $

2010/08/08 05:55
KFCS 080555Z AUTO 11005KT 10SM FEW120 SCT220 20/15 A3009 RMK AO2 SLP066 T01980149 10290 20194 53016

2010/08/08 05:55
KGRK 080555Z 15010KT 7SM FEW200 30/23 A2989 RMK SLP098 51014

2010/08/08 05:55
KLSV 080555Z AUTO 16014KT 10SM CLR 33/14 A2976 RMK AO2 SLP047 T03300140 10368 20328 51013 PWINO

2010/08/08 05:52
KNZY 080552Z 17003KT 10SM OVC018 19/13 A2992 RMK AO2 SLP130 T01890128 10217 20178 51015 $

2010/08/08 05:55
KPSM 080555Z 00000KT 10SM SCT250 14/13 A3001 RMK AO2A SLP163 T01390131 10182 20136 53004

2010/08/08 05:55
KXMR 080555Z AUTO 24004KT 10SM CLR 26/25 A2993 RMK AO2 SLP136 T02610248 10267 20259 58008 $

2010/08/08 05:56
PMDY 080556Z AUTO 07009KT 10SM CLR 28/21 A3020 RMK AO2 TSNO 53005 T02770211 10300 20272 SLP536

2010/08/08 05:56
KNYG 080556Z AUTO 30006KT 10SM CLR 19/18 A3001 RMK AO2 SLP162 T01940178 10267 20194 50004 $

2010/08/08 05:55
KFAF 080555Z AUTO 11003KT 10SM CLR 24/24 A2999 RMK AO2 DZE0502 SLP156 P0000 60000 T02410241 10277 20225 50000 $

2010/08/08 05:56
KFHU 080556Z AUTO 00000KT 10SM OVC110 19/17 A3012 RMK AO2 CIG 090 WEST SLP136 60130 T01890172 10267 20178 50007 TSNO $

2010/08/08 05:55
KLFI 080555Z 13005KT 10SM OVC008 25/23 A2999 RMK AO2A SLP158 60000 T02480232 10258 20241 50000

2010/08/08 05:55
KMCF 080555Z AUTO 00000KT 10SM CLR 29/26 A2994 RMK AO2 SLP142 T02900265 10298 20290 58003

2010/08/08 05:53
KMRT 080553Z AUTO 00000KT 7SM CLR 16/15 A3003 RMK AO2 T01610149 10236 20161 402750138

2010/08/08 05:56
KNTU 080556Z 00000KT 10SM BKN010 BKN060 24/23 A2999 RMK AO2 SLP156 T02390233 10256 20239 53001 $

2010/08/08 05:55
KGTB 080555Z AUTO 17007KT 10SM CLR 16/11 A2997 RMK AO2 SLP151 T01570105 10185 20148 53001

2010/08/08 05:56
KNID 080556Z AUTO 18011KT FEW085 26/02 A2979 RMK AO2 SLP065 T02610022 10367 20261 51015 TSNO $

2010/08/08 05:53
KNIP 080553Z 21003KT 10SM SCT043 BKN150 OVC250 25/24 A2993 RMK AO2 SLP132 60003 T02500239 10256 20244 50000

2010/08/08 05:57
PAWR 080557Z 18003KT 2SM -RA BR OVC004 11/11 A2981 RMK SLP095 NOSPECI

2010/08/08 05:54
KOWA 080554Z AUTO 19010G16KT 10SM SCT055 SCT080 24/21 A2972 RMK AO2 LTG DSNT N

2010/08/08 05:53
KPEX 080553Z AUTO 25003KT 10SM -TSRA SCT029 BKN045 BKN055 24/19 A2969 RMK AO2 LTG DSNT ALQS P0002 60003 T02360191 10294 20232 403030156

2010/08/08 05:53
KPNM 080553Z AUTO 10003KT 4SM TSBR SCT009 SCT050 BKN070 20/18 A2970 RMK AO2 P0013 LTG DSNT ALQDS

2010/08/08 05:53
KPQN 080553Z AUTO 22010G17KT 10SM CLR 25/23 A2972 RMK AO2

2010/08/08 05:53
KPWC 080553Z AUTO 00000KT 4SM BR CLR 18/17 A2971 RMK AO2

2010/08/08 05:55
KRCM 080555Z AUTO 15004KT 10SM CLR 23/22 A2987 RMK AO2

2010/08/08 05:55
KROX 080555Z AUTO 11004KT 10SM CLR 18/17 A2969 RMK AO2

2010/08/08 05:54
KRRT 080554Z AUTO 12006KT 10SM SCT043 18/16 A2970 RMK AO2 TSNO

2010/08/08 05:54
KSAZ 080554Z AUTO 00000KT 10SM BKN025 OVC032 20/20 A2968 RMK AO2 P0001

2010/08/08 05:53
KSGS 080553Z AUTO 21007KT 10SM TS CLR 27/22 A2969 RMK AO2 LTG DSNT N AND NE T02660215 10306 20266 403200191

2010/08/08 05:55
KSRR 080555Z AUTO 23009KT 10SM CLR 19/11 A3023 RMK AO2

2010/08/08 05:54
KTEW 080554Z AUTO 00000KT 7SM CLR 18/16 A2993 RMK AO2

2010/08/08 05:55
KTOB 080555Z AUTO 21010KT 10SM CLR 24/22 A2976 RMK AO2 LTG DSNT N

2010/08/08 05:53
KTWM 080553Z AUTO 05004KT 10SM SCT003 SCT011 BKN018 17/14 A2971 RMK AO2 P0037 LTG DSNT NE

2010/08/08 05:55
KULM 080555Z AUTO 20012G18KT 10SM SCT055 25/22 A2968 RMK AO2 LTG DSNT N AND NE

2010/08/08 05:56
KVVV 080556Z AUTO 00000KT 10SM CLR 25/23 A2965 RMK AO2

2010/08/08 05:49
KVWU 080549Z AUTO 07006KT 10SM SCT040 18/17 A2970 RMK AO2

2010/08/08 05:56
KXVG 080556Z AUTO 00000KT 7SM BKN055 18/18 A2967 RMK AO2 LTG DSNT SE

2010/08/08 05:56
PAGN 080556Z AUTO VRB03KT SCT007 BKN022 OVC030 18/17 RMK AO2 PWINO TSNO 5//// T01830172 SLPNO $

2010/08/08 05:56
PATQ 080556Z AUTO 06019KT 8SM -RA OVC007 05/04 A2977 RMK AO2 TSNO 51005 60001 T00500044 10072 20050 P0001 SLP088 $

2010/08/08 05:54
KGHW 080554Z AUTO 17003KT 7SM VCTS CLR 23/21 A2970 RMK AO2 LTG DSNT SE

2010/08/08 05:54
KGYL 080554Z AUTO 19007KT 10SM BKN050 BKN065 25/22 A2968 RMK AO2 LTG DSNT NW THRU NE T02450217 10288 20245 402970172

2010/08/08 05:52
KHCD 080552Z AUTO 19006KT 10SM SCT048 SCT065 SCT090 24/21 A2968 RMK AO2 T02350207 TSNO

2010/08/08 05:55
KHCO 080555Z AUTO 12005KT 10SM SCT055 21/19 A2968 RMK AO2

2010/08/08 05:55
KHFF 080555Z AUTO 00000KT 8SM R22/5000VP6000FT CLR 23/22 A2998 RMK AO2 SLP149 T02320220 10282 20231 58001 $

2010/08/08 05:51
KHZX 080551Z AUTO 00000KT 4SM CLR 18/17 A2971 RMK AO2 LTG DSNT S

2010/08/08 05:55
KJKJ 080555Z AUTO 00000KT 10SM CLR 23/21 A2964 RMK AO2

2010/08/08 05:55
KJMR 080555Z AUTO 09003KT 10SM VCTS SCT023 SCT060 18/17 A2972 RMK AO2 LTG DSNT SE THRU SW

2010/08/08 05:53
KLJF 080553Z AUTO 02003KT 10SM VCTS BKN024 BKN041 BKN055 23/22 A2971 RMK AO2 LTG DSNT ALQDS

2010/08/08 05:54
KLVN 080554Z AUTO 19006KT 10SM VCTS SCT050 SCT075 25/22 A2970 RMK AO2 LTG DSNT NW THRU E

2010/08/08 05:54
KLXL 080554Z AUTO 00000KT 10SM BKN030 BKN038 BKN060 20/18 A2967 RMK AO2

2010/08/08 05:56
KM89 080556Z AUTO 04004KT 5SM -TSRA BR SCT002 SCT025 OVC046 26/24 A2991 RMK AO2 51012 60036 T02550244 10350 20250 403610244 TSE03B04 P0011 SLP139

2010/08/08 05:55
KMGG 080555Z AUTO 00000KT 10SM -VCTSRA BKN041 BKN048 BKN060 25/22 A2970 RMK AO2 LTG DSNT SW THRU NE T02500221 10290 20240 403010152

2010/08/08 05:52
KMJQ 080552Z AUTO 19009G14KT 10SM CLR 24/22 A2974 RMK AO2

2010/08/08 05:49
KMOX 080549Z AUTO 16005KT 4SM BR CLR 24/24 A2962 RMK AO2 LTG DSNT E

2010/08/08 05:54
KMVE 080554Z AUTO 22004KT 7SM SCT050 25/24 A2964 RMK AO2 LTG DSNT NE

2010/08/08 05:53
KMWM 080553Z AUTO 19012KT 10SM CLR 25/22 A2971 RMK AO2

2010/08/08 05:51
KMZH 080551Z AUTO 00000KT 10SM CLR 18/18 A2970 RMK AO2 LTG DSNT S AND SW

2010/08/08 05:51
KONA 080551Z AUTO 21006KT 10SM BKN070 OVC090 25/20 A2974 RMK AO2 LTG DSNT NW

2010/08/08 05:54
KONZ 080554Z AUTO 21007KT 10SM CLR 23/17 A2994 RMK AO2

2010/08/08 05:54
KORB 080554Z AUTO 00000KT 10SM BKN018 BKN047 17/14 A2970 RMK AO2

2010/08/08 05:58
KMEI 080558Z 00000KT 6SM R01/5000VP6000FT BR CLR 24/24 A2991 RMK AO2 SLP124 T02440244 10278 20244 403440233 56003

2010/08/08 05:56
KY50 080556Z AUTO 19005KT 10SM CLR 22/19 A2982 RMK AO2 56003 T02220194 10266 20222 SLP087

2010/08/08 05:57
PAIW 080557Z AUTO 04010KT 10SM OVC006 09/07 A2965 RMK AO2 SLP134 T00890072 10094 20089 56003

2010/08/08 05:56
PAMB 080556Z AUTO 24005KT 10SM OVC009 10/08 A2973 RMK AO2 PWINO TSNO 55000 T01000083 10127 20100 SLP070 $

2010/08/08 05:56
PAOH 080556Z AUTO 00000KT 10SM OVC021 12/12 A2987 RMK AO2 TSNO 53007 60000 T01220122 10138 20122 RAE0458 P0000 SLP116 $

2010/08/08 05:56
PPIZ 080556Z AUTO 07014KT 10SM CLR 08/06 A2971 RMK AO2 TSNO 53007 60000 T00830055 10100 20083 SLP066 $

2010/08/08 05:58
KAVX 080558Z AUTO 17004KT 3/4SM BR OVC001 12/12 A2993 RMK AO2 TSNO

2010/08/08 05:58
KVLD 080558Z AUTO 00000KT 3/4SM BR VV001 24/24 A2993 RMK AO2

2010/08/08 05:52
KNHK 080552Z AUTO 00000KT 10SM CLR 20/18 A2999 RMK AO2 SLP155 T02000178 10261 20200 50002

2010/08/08 05:56
KPRN 080556Z AUTO 00000KT 9SM CLR 26/24 A2992 RMK AO2 SLP126 60002 T02560244 10289 20250 55011 $

2010/08/08 05:56
KPRN 080556Z AUTO 00000KT 9SM CLR 26/24 A2992 RMK AO2 SLP126 60002 T02560244 10289 20250 55011 $

2010/08/08 05:53
KLOR 080553Z AUTO 00000KT 10SM CLR 24/23 A2992 RMK AO2 SLP127 6//// T02440228 10256 20244 56010 TSNO PNO $

2010/08/08 05:56
KCDJ 080556Z AUTO 00000KT 26/21 A2989 RMK AO2 SLP103 T02560211 10311 20250 403330211 51004 PWINO TSNO

2010/08/08 05:56
KP28 080556Z AUTO 14006KT 29/22 A2984 RMK AO2 SLP082 T02890217 10339 20289 403720222 51007 PWINO TSNO

2010/08/08 05:56
KCAE 080556Z 00000KT 6SM BR CLR 26/24 A2993 RMK AO2 SLP132 T02560239 10306 20256 58004

2010/08/08 05:56
KALK 080556Z AUTO 25005KT 10SM FEW100 18/17 A3014 RMK AO2 TSE03 SLP122 60150 T01780172 10278 20161 58002 $

2010/08/08 05:56
KSPD 080556Z AUTO 21012KT 24/16 A2996 RMK AO2 SLP069 T02440156 10317 20217 50004 PWINO TSNO

2010/08/08 05:56
K2WX 080556Z AUTO 20007KT 23/11 A2974 RMK AO1 SLP042 T02330106 10317 20206 50009

2010/08/08 05:56
KD07 080556Z AUTO 27005KT 23/16 A2980 RMK AO2 SLP069 T02280156 10311 20228 53014 PWINO TSNO

2010/08/08 05:56
KGNA 080556Z AUTO 00000KT 18/13 A2973 RMK AO2 SLP064 T01780128 10194 20161 402000100 55002 PWINO TSNO

2010/08/08 05:54
KAKQ 080554Z AUTO 00000KT 8SM CLR 20/18 A3000 RMK AO2 SLP156 T02000183 10261 20194 53001 TSNO $

2010/08/08 05:56
TJSJ 080556Z 11005KT 10SM FEW025 SCT031 SCT046 28/24 A2996 RMK AO2 RAB45E54 SLP143 P0000 60000 T02830239 10289 20278 58013

2010/08/08 05:56
KABQ 080556Z 35008KT 10SM FEW095 23/12 A3014 RMK AO2 SLP108 T02280122 10328 20228 51017

2010/08/08 05:54
KRIC 080554Z 00000KT 10SM CLR 22/18 A3000 RMK AO2 SLP160 T02220178 10272 20217 58001

2010/08/08 05:56
KJAX 080556Z 00000KT 10SM FEW003 SCT025 SCT150 OVC250 24/23 A2992 RMK AO2 SLP133 60006 T02440233 10250 20244 58000

2010/08/08 05:53
K29G 080553Z AUTO 00000KT 10SM CLR 18/13 A3001 RMK AO2 T01840134 PWINO

2010/08/08 05:54
KAVP 080554Z 11004KT 10SM FEW050 17/12 A3002 RMK AO2 SLP156 T01670117 10244 20167 53003

2010/08/08 05:56
KCHS 080556Z 00000KT 7SM CLR 25/24 A2992 RMK AO2 SLP131 T02500239 10283 20250 58005

2010/08/08 05:54
KRFD 080554Z 20008KT 10SM CLR 21/18 A2989 RMK AO2 SLP117 T02110183 10267 20211 402830167 56002

2010/08/08 05:54
KROA 080554Z 00000KT 9SM FEW080 22/18 A3006 RMK AO2 SLP165 T02170178 10256 20211 58001 $

2010/08/08 05:55
KROS 080555Z AUTO 06006KT 10SM TS BKN030 BKN037 20/18 A2972 RMK AO2 LTG DSNT SE AND SW 60002 T01950183 10270 20191 402800141

2010/08/08 05:56
KSHV 080556Z 19005KT 10SM SCT290 28/24 A2989 RMK AO2 SLP118 T02780244 10300 20278 403670244 51012

2010/08/08 05:58
KSYN 080558Z AUTO 21007KT 10SM VCTS CLR 26/21 A2970 RMK AO2 LTG DSNT N T02610212 10295 20249 403050166

2010/08/08 05:53
KTKC 080553Z AUTO 21012G16KT 10SM CLR 25/21 A2969 RMK AO2 LTG DSNT NE AND E T02500210 10285 20250 403010181

2010/08/08 05:54
KGSO 080554Z 00000KT 8SM CLR 22/19 A3002 RMK AO2 SLP152 T02220189 10272 20222 58002

2010/08/08 05:54
KIKW 080554Z AUTO 20006KT 10SM BKN100 22/17 A2986 RMK AO2 T02150166 10256 20210

2010/08/08 05:58
KLYV 080558Z AUTO 19008KT 10SM CLR 23/21 A2972 RMK AO2

2010/08/08 05:55
KSCF 080555Z AUTO 25006KT 10SM FEW026 SCT034 31/25 A2988 RMK A01

2010/08/08 05:55
KCLI 080555Z AUTO 21009KT 10SM CLR 23/19 A2979 RMK AO2

2010/08/08 05:50
K3A6 080550Z AUTO 36002KT 15/09 A2988 RMK AO1 SLP106 T01520095 10281 20152 54000

2010/08/08 05:55
KPSM 080555Z 00000KT 10SM SCT250 14/13 A3001 RMK AO2A SLP163 T01390131 10182 20136 53004

2010/08/08 05:55
PGUA 080555Z AUTO 06011KT 10SM CLR 29/25 A2980 RMK AO2 SLP073 T02910254 10297 20283 56010 VISNO RWY24L $

2010/08/08 05:53
KUIL 080553Z AUTO 28005KT 2 1/2SM BR OVC004 12/12 A2994 RMK AO2 CIG 002V008 SLP140 60001 T01220117 10156 20122 51010 TSNO

2010/08/08 05:53
K6R6 080553Z AUTO 10005KT 28/18 A2991 RMK AO2 SLP088 T02780178 10339 2278 403560211 51014 PWINO TSNO

2010/08/08 05:54
KSBN 080554Z 19008KT 9SM BKN080 OVC100 23/18 A2994 RMK AO2 SLP131 T02280178 10261 20222 56005

2010/08/08 05:54
KWAL 080554Z AUTO 00000KT 10SM CLR 23/21 A3001 RMK AO2 SLP157 T02280211 10250 20222 58001 TSNO

2010/08/08 05:55
KINL 080555Z AUTO 00000KT 10SM FEW090 15/14 A2972 RMK AO2 SLP063 T01500144 10211 20150 402440067 53001

2010/08/08 05:56
KSMP 080556Z AUTO VRB03KT 1/4SM FG BKN002 OVC006 11/11 A2997 RMK AO2 SLP140 P0020 60026 T01060106 10117 20106 50001 TSNO $

2010/08/08 05:54
KWAL 080554Z AUTO 00000KT 10SM CLR 23/21 A3001 RMK AO2 SLP157 T02280211 10250 20222 58001 TSNO

2010/08/08 05:51
KP58 080551Z AUTO 23004KT 22/18 A2986 RMK AO2 SLP103 T02170178 10239 20217 56002 PWINO TSNO

2010/08/08 05:54
KAPN 080554Z AUTO 21005KT 10SM CLR 19/16 A2981 RMK AO2 SLP093 T01940156 10228 20161 58009

2010/08/08 05:52
KMLF 080552Z AUTO 25008KT 10SM BKN080 16/11 A3004 RMK AO2 SLP111 60000 T01610111 10256 20156 50000 TSNO

2010/08/08 05:56
KNSE 080556Z AUTO 00000KT 3SM BR SCT002 26/24 A2991 RMK AO2 SLP114 60011 T02560239 10272 20256 403720256 57003 $

2010/08/08 05:56
KSGH 080556Z AUTO 00000KT 8SM CLR 17/16 A3002 RMK AO2 56000 T01720161 10250 20166 SLP157 $

2010/08/08 05:56
KWJF 080556Z 24013KT 10SM CLR 23/03 A2987 RMK AO2 SLP094 T02280033 10311 20228 51012

2010/08/08 05:50
TJPS 080550Z 00000KT 8SM FEW030 FEW060 26/23 A2995

2010/08/08 05:55
K1P1 080555Z AUTO 00000KT 7SM CLR 08/07 A3002 RMK AO2 T00810074

2010/08/08 05:50
KAEL 080550Z AUTO 19007KT 10SM SCT060 25/21 A2975 RMK AO2 LTG DSNT N

2010/08/08 05:53
KAIT 080553Z AUTO 00000KT 2SM BR BKN001 18/16 A2968 RMK AO2 LTG DSNT SE AND S

2010/08/08 05:56
KAJO 080556Z AUTO 28007KT 10SM CLR 16/14 A2991 RMK AO2 51023 T01550138 10255 20155 SLP122 $

2010/08/08 05:55
KANE 080555Z AUTO 36003KT 10SM BKN037 22/21 A2971 RMK AO2 P0001

2010/08/08 05:54
KAQP 080554Z AUTO 17003KT 7SM CLR 24/24 A2964 RMK AO2 LTG DSNT E

2010/08/08 05:53
KBBB 080553Z AUTO 20006KT 7SM CLR 24/23 A2969 RMK AO2 LTG DSNT E AND SE

2010/08/08 05:55
KBBG 080555Z AUTO 13006KT 10SM BKN050 25/21 A2995 RMK AO2

2010/08/08 05:53
KBFW 080553Z AUTO 10004KT 10SM SCT024 SCT060 17/14 A2972 RMK AO2

2010/08/08 05:52
KCDD 080552Z AUTO 00000KT 4SM BR SCT032 19/19 A2975 RMK AO2

2010/08/08 05:55
KCMR 080555Z AUTO 14006KT 10SM CLR 13/12 A3022 RMK AO1

2010/08/08 05:50
KCVH 080550Z AUTO 26005KT 10SM OVC011 13/11 A2989 RMK AO1

2010/08/08 05:56
KDIJ 080556Z AUTO 14003KT 10SM CLR 09/07 A3004 RMK AO2 51005 T00940066 10244 20088 SLP089 $

2010/08/08 05:56
KDVP 080556Z AUTO 20014KT 10SM CLR 25/21 A2973 RMK AO2 T02480205 10285 20246 402960172

2010/08/08 05:54
KDXX 080554Z AUTO 00000KT 5SM BR CLR 23/23 A2964 RMK AO2

2010/08/08 05:54
KDYT 080554Z AUTO 06011KT 10SM BKN004 BKN009 19/17 A2972 RMK AO2 LTG DSNT S

2010/08/08 05:56
KEFK 080556Z AUTO 20004KT 10SM SCT060 08/07 A3000 RMK AO2

2010/08/08 05:54
KELO 080554Z AUTO 00000KT 10SM BKN060 OVC075 18/16 A2974 RMK AO2

2010/08/08 05:54
KETH 080554Z AUTO 13003KT 10SM CLR 21/21 A2968 RMK AO2

2010/08/08 05:52
KEVM 080552Z AUTO 00000KT 10SM CLR 17/15 A2970 RMK AO1

2010/08/08 05:54
KFBL 080554Z AUTO 19007KT 10SM VCTS SCT060 25/21 A2972 RMK AO2 LTG DSNT N

2010/08/08 05:53
KFFM 080553Z AUTO 07005KT 10SM SCT060 21/19 A2963 RMK AO2

2010/08/08 05:54
KFGN 080554Z AUTO 15005KT 10SM CLR 21/17 A2969 RMK AO2

2010/08/08 06:01
KFKA 080601Z AUTO 21009KT 10SM CLR 24/22 A2979 RMK AO2 LTG DSNT NW T02420217

2010/08/08 05:53
KFOZ 080553Z AUTO 00000KT 10SM CLR 17/16 A2971 RMK AO2

2010/08/08 05:59
KFSO 080559Z AUTO 16005KT 10SM SCT070 12/10 A2996 RMK AO2

2010/08/08 05:53
KGDB 080553Z AUTO 19003KT 7SM CLR 23/22 A2968 RMK AO2 LTG DSNT NE AND E T02320223 10295 20232 403080175

2010/08/08 05:56
PAFS 080556Z AUTO 16003KT 10SM FEW036 SCT080 12/09 A2972 RMK AO2 TSNO 53005 60000 T01160094 10127 20116 SLP071 $

2010/08/08 05:56
PAGN 080556Z AUTO VRB03KT SCT007 BKN022 OVC030 18/17 RMK AO2 PWINO TSNO 5//// T01830172 SLPNO $

2010/08/08 05:56
PAHC 080556Z AUTO 20004KT 1 3/4SM -RA BR FEW003 BKN011 OVC019 12/11 A2969 RMK AO2 TSNO 53003 60000 T01160105 10133 20116 CIG 006V013 RAB44 P0000 SLP056 $

2010/08/08 05:56
PAIG 080556Z AUTO 21007KT 10SM SCT020 OVC031 12/09 A2979 RMK AO2 PWINO TSNO 53003 T01160088 10122 20116 SLP093 $

2010/08/08 05:56
PAMO 080556Z AUTO 18007KT 10SM FEW009 OVC023 12/11 A2966 RMK AO2 TSNO 57001 60001 T01220105 10150 20122 OVC V BKN RAB04E15 P0000 SLP043 $

2010/08/08 05:56
PAOO 080556Z AUTO 13013KT 10SM OVC011 11/09 A2962 RMK AO2 TSNO 58016 T01050088 10116 20094 SLP031 $

2010/08/08 05:56
PAPM 080556Z AUTO 11006KT 10SM -RA BKN019 OVC042 11/09 A2970 RMK AO2 TSNO 58016 60000 T01050088 10105 20094 BKN V SCT P0000 SLP059 $

2010/08/08 05:56
PARS 080556Z AUTO 22005KT 10SM FEW026 BKN035 12/11 A2968 RMK AO2 TSNO 53002 60000 T01220105 10138 20122 SLP055 $

2010/08/08 05:56
PARY 080556Z AUTO 19007KT 10SM FEW038 BKN110 13/10 A2967 RMK AO2 PWINO TSNO 53010 60002 T01270100 10166 20127 SLP050

2010/08/08 05:56
PATQ 080556Z AUTO 06019KT 8SM -RA OVC007 05/04 A2977 RMK AO2 TSNO 51005 60001 T00500044 10072 20050 P0001 SLP088 $

2010/08/08 05:54
KOVL 080554Z AUTO 21003KT 10SM SCT049 SCT055 BKN070 24/21 A2967 RMK AO2 LTG DSNT N AND NE T02370206 10272 20237 403060167

2010/08/08 05:56
KSGH 080556Z AUTO 00000KT 8SM CLR 17/16 A3002 RMK AO2 56000 T01720161 10250 20166 SLP157 $

2010/08/08 05:55
KMIU 080555Z AUTO 18018KT 10SM CLR 30/25 A2990 RMK A01

2010/08/08 05:55
KMWO 080555Z AUTO 00000KT 10SM CLR 17/16 A3000 RMK AO2

2010/08/08 05:55
KMZG 080555Z AUTO 00000KT 10SM 30/24 A2990 RMK A01

2010/08/08 05:52
KPVB 080552Z AUTO 18009KT 10SM CLR 22/20 A2986 RMK AO1 T02200195 10257 20215 402750181

2010/08/08 05:53
KRZN 080553Z AUTO 00000KT 10SM CLR 19/18 A2973 RMK AO2 60226 T01930183 10267 20193 402800137

2010/08/08 05:55
KSPR 080555Z AUTO 21010KT 10SM FEW027 FEW035 31/25 A2993 RMK A01

2010/08/08 05:57
KTZR 080557Z AUTO 00000KT 10SM CLR 16/15 A3001 RMK AO2

2010/08/08 05:55
KVAF 080555Z AUTO 21011KT 10SM CLR 30/25 A2989 RMK A01

2010/08/08 05:55
KVBS 080555Z AUTO VRB06G12KT 10SM FEW027 31/25 A2991 RMK A01

2010/08/08 05:53
KVES 080553Z AUTO 00000KT 7SM CLR 16/16 A3000 RMK AO2 T01630158

2010/08/08 05:55
KY63 080555Z AUTO 14004KT 10SM CLR 23/22 A2965 RMK AO2 LTG DSNT E T02330215 10290 20225 403090185

2010/08/08 05:56
K14Y 080556Z AUTO 00000KT 10SM SCT026 SCT042 20/19 A2969 RMK AO2 LTG DSNT SE AND S 60014 T02030187 10287 20198 403110157

2010/08/08 05:55
K1A6 080555Z AUTO 00000KT 5SM BR CLR 19/19 A3001 RMK AO2

2010/08/08 05:55
K46D 080555Z AUTO 22003KT 10SM CLR 18/18 A2969 RMK AO2

2010/08/08 05:55
KAIG 080555Z AUTO 35012G23KT 4SM +RA SCT013 BKN032 OVC070 20/19 A2984 RMK AO2 P0015

2010/08/08 05:51
KARV 080551Z AUTO 21007KT 5SM +RA SCT019 BKN037 OVC046 18/17 A2982 RMK AO2 P0012 T01800167

2010/08/08 05:55
KATW 080555Z AUTO 23011KT 10SM SCT035 23/19 A2981 RMK AO2

2010/08/08 05:55
KBBF 080555Z AUTO 17017KT 10SM CLR 30/26 A2989 RMK A01

2010/08/08 05:55
KBQX 080555Z AUTO 18017KT 10SM FEW024 30/25 A2990 RMK A01

2010/08/08 05:55
KBUU 080555Z AUTO 20005KT 10SM CLR 20/18 A2987 RMK AO2 T01990181 10242 20191 402690126

2010/08/08 05:51
KBWP 080551Z AUTO 08003KT 10SM CLR 20/18 A2964 RMK AO1 T02040180 10288 20204 403120177

2010/08/08 05:55
KCMB 080555Z AUTO 21012KT 10SM FEW027 32/25 A2993 RMK A01

2010/08/08 05:55
KCMY 080555Z AUTO 00000KT 10SM SCT090 24/21 A2978 RMK AO2 LTG DSNT NW T02350206 10265 20235

2010/08/08 05:55
KCRH 080555Z AUTO 20008G15KT 10SM FEW027 31/25 A2993 RMK A01

2010/08/08 05:55
KCWA 080555Z AUTO 19009KT 10SM SCT019 SCT032 BKN080 22/21 A2980 RMK AO2 60004 T02200210 10247 20205 402680127

2010/08/08 05:55
KDLL 080555Z AUTO 20007KT 10SM CLR 22/18 A2983 RMK AO2 T02220182 10260 20218 402820144

2010/08/08 05:55
KDLP 080555Z AUTO 23012KT 10SM FEW029 FEW035 32/26 A2992 RMK A01

2010/08/08 05:55
KEFT 080555Z AUTO 20013KT 10SM CLR 22/19 A2986 RMK AO2 T02200188 10263 20218

2010/08/08 05:51
KEGV 080551Z AUTO 25008KT 5SM +RA BKN005 BKN010 OVC060 18/18 A2982 RMK AO2 P0016 T01770178

2010/08/08 05:55
KEHC 080555Z AUTO 20010KT 10SM FEW024 31/25 A2994 RMK A01

2010/08/08 05:55
KEIR 080555Z AUTO 18011KT 10SM FEW026 FEW033 30/25 A2994 RMK A01

2010/08/08 05:56
KEKQ 080556Z AUTO 00000KT 1 1/2SM BR 17/17 A3001 RMK AO2 58001 T01660166 10261 20166 SLP158 $

2010/08/08 05:55
KEMK 080555Z AUTO 23008KT 10SM FEW023 FEW029 SCT036 30/25 A2993 RMK A01

2010/08/08 05:52
KETB 080552Z AUTO 22009KT 10SM CLR 23/18 A2985 RMK AO2 T02250176 10255 20218 402800144

2010/08/08 05:54
KEZS 080554Z AUTO 22003KT 10SM CLR 24/21 A2978 RMK AO2 LTG DSNT N T02350207 10272 20228 402900145

2010/08/08 05:55
KGUL 080555Z AUTO 10SM FEW023 30/25 A2994 RMK A01

2010/08/08 05:55
KHFJ 080555Z AUTO 13005KT 10SM CLR 24/22 A2988 RMK AO1

2010/08/08 05:50
KHQI 080550Z AUTO VRB06G12KT 10SM 30/25 A2993 RMK A01

2010/08/08 05:55
KIPN 080555Z AUTO 25012KT 10SM SCT025 SCT035 SCT046 30/25 A2993 RMK A01

2010/08/08 05:56
KIWA 080556Z AUTO 02008KT 10SM CLR 32/18 A2985 RMK AO2 LTG DSNT N

2010/08/08 05:55
KLCK 080555Z AUTO 00000KT 10SM CLR 19/16 A3000 RMK AO2 T01920162 10278 20187 402950154

2010/08/08 05:55
KMDJ 080555Z AUTO 24011KT 10SM CLR 31/25 A2995 RMK A01

2010/08/08 05:56
KGFA 080556Z AUTO 21007KT 10SM CLR 18/06 A2979 RMK AO2 SLP084 T01830056 10300 20172 403110133 51016 $

2010/08/08 06:00
OPKC 080600Z 33006KTS 6000 FEW020 BKN100 31/26 Q1002 NOSIG

2010/08/08 05:50
EDXW 080550Z AUTO 29005KT 3400NDV -DZ FEW002/// SCT010/// 17/15 Q1014 RMK ATIS INFO B

2010/08/08 05:50
EDLN 080550Z 29008KT 3000 -RA BR SCT008 BKN035 16/16 Q1015 RERA RMK ATIS C

2010/08/08 05:55
KINL 080555Z AUTO 00000KT 10SM FEW090 15/14 A2972 RMK AO2 SLP063 T01500144 10211 20150 402440067 53001 

2010/08/08 05:50
ENVA 080550Z 11005KT CAVOK 13/09 Q1016 NOSIG

2010/08/08 05:50
LGKZ 080550Z 00000KT CAVOK 22/10 Q1015

2010/08/08 05:50
LGMK 080550Z 03005KT CAVOK 25/22 Q1010

2010/08/08 05:50
LGPZ 080550Z 00000KT 9999 FEW008 24/20 Q1013 NOSIG

2010/08/08 05:50
LGRX 080550Z 00000KT CAVOK 24/20 Q1011 NOSIG

2010/08/08 05:50
LGZA 080550Z 00000KT CAVOK 23/16 Q1012

2010/08/08 05:50
LGAL 080550Z VRB02KT 9999 FEW030 SCT080 26/17 Q1010

2010/08/08 05:50
LGEL 080550Z 00000KT CAVOK 30/15 Q1009

2010/08/08 05:50
LGKF 080550Z 33008KT 9999 FEW020 25/19 Q1012

2010/08/08 05:50
LGKV 080550Z 00000KT CAVOK 24/19 Q1010

2010/08/08 05:50
LGMT 080550Z 00000KT CAVOK 28/22 Q1010

2010/08/08 05:50
LGSR 080550Z 36005KT CAVOK 27/20 Q1008 NOSIG

2010/08/08 05:48
MMAA 080548Z 34009 7SM SCT010TCU SCT070 BKN300 26/24 A2990 RMK SLP125 52021 907 8/262 RA N

2010/08/08 05:45
MMTO 080545Z 00000KT 4SM BKN010 BKN070 14/12 A3040 RMK SLP080 52008 908 8/57/ HZ

2010/08/08 05:55
EHAM 080555Z 32003KT 6000 FEW015 16/16 Q1015 BECMG 9999

2010/08/08 05:55
EHGG 080555Z AUTO 20003KT 160V230 3700NDV BR BKN003 OVC004 16/16 Q1014 BECMG 5000 NSW SCT004

2010/08/08 05:55
EHKD 080555Z AUTO 36004KT 9999NDV FEW021/// BKN066/// OVC087/// 17/15 Q1015 BLU WHT TEMPO GRN SCT018 BKN040 TEMPO SCT008 SCT015CB BKN040

2010/08/08 05:55
EHRD 080555Z VRB02KT 4000 BR FEW011 17/17 Q1015 BECMG 9999 NSW

2010/08/08 06:00
SBCT 080600Z 17003KT 3000 BR NSC 06/06 Q1020

2010/08/08 06:00
SBFI 080600Z 13008KT CAVOK 12/11 Q1015

2010/08/08 05:50
EGCC 080550Z 26003KT 6000 FEW010 BKN030 15/14 Q1020 TEMPO BKN006

2010/08/08 05:50
EGSH 080550Z 33006KT 300V360 9999 BKN006 16/14 Q1018 TEMPO BKN010

2010/08/08 05:48
MMPB 080548Z 00000KT 10SM -DZ OVC012 15/14 A3037 RMK 6//// 8/7// HZY

2010/08/08 05:50
EDHL 080550Z 25002KT 8000 BKN042 17/17 Q1014 RMK B

2010/08/08 05:50
EDLP 080550Z 13003KT 070V180 CAVOK 16/14 Q1014 RMK RWY24 TRL60 PB ATIS H

2010/08/08 05:50
EDLW 080550Z VRB03KT 5000 -SHRA NSC 17/16 Q1015 RMK ATIS F

2010/08/08 05:50
EDNY 080550Z VRB02KT 9999 FEW075 13/12 Q1018 RMK ATIS E

2010/08/08 05:50
EGHD 080550Z 00000KT 9999 FEW012 12/11 Q1022

2010/08/08 05:50
EGNH 080550Z 28006KT 9999 SCT008 BKN015 16/14 Q1020

2010/08/08 05:50
EGNJ 080550Z 25004KT 9999 FEW012 13/11 Q1020

2010/08/08 05:50
EGPC 080550Z AUTO 25004KT 9999NDV SCT029/// BKN036/// 11/11 Q1019

2010/08/08 05:50
EGPE 080550Z 00000KT 9999 FEW030 BKN040 12/10 Q1020

2010/08/08 05:50
EGPL 080550Z AUTO 18006KT 9999NDV FEW014/// SCT020/// 12/11 Q1019

2010/08/08 05:50
EGPM 080550Z AUTO 28010KT 9999NDV OVC015/// 12/10 Q1017

2010/08/08 05:50
EGPO 080550Z AUTO 00000KT 9999NDV NCD 10/08 Q1019

2010/08/08 05:55
EGVA 080555Z AUTO 31004KT 9999 FEW016 OVC030 14/13 A3013 RMK AO2 SLP204 T01440132 10151 20130 53010 $

2010/08/08 05:55
EHKD 080555Z AUTO 36004KT 9999NDV FEW021/// BKN066/// OVC087/// 17/15 Q1015 BLU WHT TEMPO GRN SCT018 BKN040 TEMPO SCT008 SCT015CB BKN040

2010/08/08 05:50
ENVA 080550Z 11005KT CAVOK 13/09 Q1016 NOSIG

2010/08/08 05:50
LGBL 080550Z 30005KT CAVOK 24/20 Q1010 NOSIG BLU

2010/08/08 05:50
LGLR 080550Z 00000KT CAVOK 23/16 Q1011 NOSIG BLU

2010/08/08 05:50
LGPZ 080550Z 00000KT 9999 FEW008 24/20 Q1013 NOSIG BLU

2010/08/08 05:50
LGRX 080550Z 00000KT CAVOK 24/20 Q1011 NOSIG BLU

2010/08/08 05:50
LGSR 080550Z 36005KT CAVOK 27/20 Q1008 NOSIG BLU

2010/08/08 05:50
LGSY 080550Z 09004KT 9999 FEW010 27/21 Q1009 NOSIG BLU

2010/08/08 05:50
LGTG 080550Z 30005KT CAVOK 27/15 Q1010 NOSIG BLU

2010/08/08 05:50
LOXT 080550Z 25003KT 20KM FEW050SC BKN060SC 16/14 Q1017 RMK OVC

2010/08/08 06:00
LQSA 080600Z VRB02KT 9999 FEW025 SCT034 16/14 Q1020 NOSIG

2010/08/08 05:50
EGDL 080550Z 34005KT 9999 SCT016 OVC032 13/12 Q1021 WHT NOSIG

2010/08/08 05:50
EGHD 080550Z 00000KT 9999 FEW012 12/11 Q1022

2010/08/08 05:50
EGJA 080550Z 35008KT 9999 BKN040 15/14 Q1021

2010/08/08 05:50
EGNH 080550Z 28006KT 9999 SCT008 BKN015 16/14 Q1020

2010/08/08 05:50
EGNJ 080550Z 25004KT 9999 FEW012 13/11 Q1020

2010/08/08 05:50
EGNS 080550Z 33005KT 280V340 9999 FEW012 13/10 Q1020 NOSIG

2010/08/08 05:50
EGPA 080550Z AUTO 30005KT 9999NDV BKN020/// 13/12 Q1019

2010/08/08 05:50
EGPC 080550Z AUTO 25004KT 9999NDV SCT029/// BKN036/// 11/11 Q1019

2010/08/08 05:50
EGPE 080550Z 00000KT 9999 FEW030 BKN040 12/10 Q1020

2010/08/08 05:50
EGPL 080550Z AUTO 18006KT 9999NDV FEW014/// SCT020/// 12/11 Q1019

2010/08/08 05:50
EGPM 080550Z AUTO 28010KT 9999NDV OVC015/// 12/10 Q1017

2010/08/08 05:50
EGPO 080550Z AUTO 00000KT 9999NDV NCD 10/08 Q1019

2010/08/08 05:50
EGQK 080550Z 22003KT 9999 FEW018 BKN038 13/09 Q1019 BLU TEMPO SCT022 WHT

2010/08/08 05:50
EGQL 080550Z 14006KT 9999 OVC025 14/10 Q1020 BLU

2010/08/08 05:50
EGQS 080550Z 25004KT 9999 FEW020 BKN040 12/10 Q1019 BLU

2010/08/08 05:55
EGUL 080555Z AUTO 31006KT 9999 BKN012 BKN017 OVC032 15/14 A3008 RMK AO2 CIG 012V016 SLP187 T01480140 10156 20144 53009

2010/08/08 05:55
EGUN 080555Z AUTO 34009KT 9999 OVC031 15/15 A3008 RMK AO2 SLP177 60000 T01470147 10155 20142 53007

2010/08/08 05:55
EGVA 080555Z AUTO 31004KT 9999 FEW016 OVC030 14/13 A3013 RMK AO2 SLP204 T01440132 10151 20130 53010 $

2010/08/08 05:50
EGVN 080550Z 31005KT 9999 FEW012 BKN018 14/13 Q1020 WHT NOSIG

2010/08/08 05:50
EGXC 080550Z 32008KT CAVOK 12/11 Q1019 BLU

2010/08/08 05:50
EGYD 080550Z 32010KT 5000 BR FEW008 12/11 Q1020 WHT BECMG 9999 NSW BLU

2010/08/08 05:53
K6R6 080553Z AUTO 10005KT 28/18 A2991 RMK AO2 SLP088 T02780178 10339 20278 403560211 51014 PWINO TSNO 

2010/08/08 05:55
EHAK 080555Z AUTO 01006KT 340V060 9999NDV FEW021/// SCT039/// 16/15 Q1016

2010/08/08 05:55
EHDV 080555Z AUTO 35008KT 9999NDV FEW000/// SCT010/// 17/15 Q1016

2010/08/08 05:55
EHFD 080555Z AUTO 36008KT 290V080 9999NDV FEW006/// 17/14 Q1016

2010/08/08 05:55
EHFZ 080555Z AUTO 34012KT 9999NDV 17/14 Q1016

2010/08/08 05:55
EHJA 080555Z AUTO 31010KT 9999NDV FEW009/// 16/14 Q1016

2010/08/08 05:55
EHKV 080555Z AUTO 33013KT 9999NDV FEW008/// SCT015/// 17/14 Q1016

2010/08/08 05:55
EHMA 080555Z AUTO 32009KT 9999NDV ///////// 17/15 Q1014

2010/08/08 05:55
EHMG 080555Z AUTO 34014KT 9999NDV FEW006/// 17/15 Q1014

2010/08/08 05:55
EHPG 080555Z AUTO 34013KT 9999NDV FEW004/// SCT007/// 17/15 Q1016

2010/08/08 05:55
EHQE 080555Z AUTO 34013KT 9999NDV BKN000/// BKN007/// OVC010/// 17/15 Q1015

2010/08/08 06:00
FOOL 080600Z 15008KT 8000 SCT008 OVC030 24/22 Q1016 NOSIG

2010/08/08 05:50
EGPA 080550Z AUTO 30005KT 9999NDV BKN020/// 13/12 Q1019

2010/08/08 05:50
EGPC 080550Z AUTO 25004KT 9999NDV SCT029/// BKN036/// 11/11 Q1019

2010/08/08 05:50
EGPL 080550Z AUTO 18006KT 9999NDV FEW014/// SCT020/// 12/11 Q1019

2010/08/08 05:50
EGPM 080550Z AUTO 28010KT 9999NDV OVC015/// 12/10 Q1017

2010/08/08 05:50
EGPO 080550Z AUTO 00000KT 9999NDV NCD 10/08 Q1019

2010/08/08 06:00
UBBN 080600Z 15004KT 9999 NSC 31/10 Q1012 R14R/CLRD60 NOSIG RMK G/O QFE684

2010/08/08 06:00
OPKC 080600Z 33006KTS 6000 FEW020 BKN100 31/26 Q1002 NOSIG

2010/08/08 05:55
OPLA 080555Z 23007KT 5000 FU SCT040 SCT100 34/26 Q1004 NOSIG

2010/08/08 06:00
OPRN 080600Z 23006KT 3000 DZ FEW010ST SCT030 BKN100 FEW025TCU 27/25 Q1006.6

2010/08/08 05:50
EGHD 080550Z 00000KT 9999 FEW012 12/11 Q1022

2010/08/08 05:50
EGNH 080550Z 28006KT 9999 SCT008 BKN015 16/14 Q1020

2010/08/08 05:50
EGNJ 080550Z 25004KT 9999 FEW012 13/11 Q1020

2010/08/08 05:50
EGPE 080550Z 00000KT 9999 FEW030 BKN040 12/10 Q1020

2010/08/08 06:00
DNMM 080600Z 27015KT 8000 BKN010 25/24 Q1014 NOSIG

2010/08/08 05:53
KGNT 080553Z AUTO 00000KT 15/14 A3022 RMK AO2 SLP138 60004 T01500139 10178 20150 50006 PWINO TSNO 

2010/08/08 05:58
KLSF 080558Z AUTO 11003KT 7SM R33/5000VP6000FT CLR 24/23 A2993 RMK AO2 SLP134 PNO $

2010/08/08 05:58
CWOB 080558Z AUTO ///// 0SM CLR 05/ A2947

2010/08/08 05:57
CYBC 080557Z AUTO 23009KT 9SM FEW033 FEW041 BKN053 OVC093 12/09 A2977

2010/08/08 05:53
CYNM 080553Z AUTO 16005KT 9SM BKN001 10/09 A2969

2010/08/08 05:56
CYPH 080556Z AUTO 24009KT 9SM OVC005 08/08 A2936

2010/08/08 05:55
CYQD 080555Z 09007KT 15SM -SHRA SCT035 BKN070 RMK SC3AC2 CB EMBD OCNL LTNG DIST E-SE

2010/08/08 05:55
CYUS 080555Z AUTO ///// 9SM CLR 09/ A2985

2010/08/08 05:53
EGVA 080553Z AUTO 32005KT 9999 FEW016 OVC030 14/13 A3013 RMK AO2 SLP203 $

2010/08/08 05:56
EGVA 080556Z AUTO 32004KT 9999 FEW016 OVC029 14/13 A3013 RMK AO2 SLP204 $

2010/08/08 05:56
EHDL 080556Z AUTO 30005KT 1900NDV BR BKN001 OVC003 16/15 Q1014 RED

2010/08/08 05:50
ETGG 080550Z 30004KT 5000 BR BKN006 OVC011 17/16 Q1014 YLO

2010/08/08 05:55
ETNJ 080555Z 13002KT 4000 BR FEW007 BKN060 16/16 Q1014 GRN

2010/08/08 05:57
ETOU 080557Z AUTO 18003KT 4800 -RA BR FEW002 OVC045 16/15 A3000 RMK AO2 SLP156

2010/08/08 05:55
KEGI 080555Z AUTO 00000KT 9SM R18/5500FT CLR 25/24 A2991 RMK AO2 SLP129 $

2010/08/08 05:58
KLSF 080558Z AUTO 11003KT 7SM R33/5000VP6000FT CLR 24/23 A2993 RMK AO2 SLP134 PNO $

2010/08/08 05:51
RJCJ 080551Z 20004KT 160V240 9999 FEW010 FEW035TCU SCT080 29/24 Q1012 RMK 1ST010 2TCU035 4AC080 A2989 TCU NW-NE MOV E

2010/08/08 05:53
KRYT 080553Z AUTO 00000KT 10SM CLR 19/14 A3001 RMK AO2 SLP150 T01940144 10256 20194 51001 $ 

2010/08/08 06:00
OYAS 080600Z 21006KT 8000 NSC 32/23 Q1007

2010/08/08 06:00
SBGR 080600Z 00000KT 7000 NSC 09/09 Q1020

2010/08/08 05:56
K79J 080556Z AUTO 00000KT 8SM CLR 26/23 A2991 RMK AO2 SLP123 6//// T02610233 10294 20261 403500261 58004 TSNO PNO $

2010/08/08 05:55
KBKF 080555Z 17011KT 25SM FEW070 SCT140 BKN220 20/14 A3005 RMK SLP097 60001 51008

2010/08/08 05:55
KDMA 080555Z AUTO 10010KT 10SM VCTS OVC095 24/17 A2999 RMK AO2 DZE0502 SLP096 P0000 60002 T02390171 10313 20231 51029 VISNO RWY12 CHINO RWY12 $

2010/08/08 05:55
KFCS 080555Z AUTO 11005KT 10SM FEW120 SCT220 20/15 A3009 RMK AO2 SLP066 T01980149 10290 20194 53016

2010/08/08 05:56
KFHU 080556Z AUTO 00000KT 10SM OVC110 19/17 A3012 RMK AO2 CIG 090 WEST SLP136 60130 T01890172 10267 20178 50007 TSNO $

2010/08/08 05:55
KGRK 080555Z 15010KT 7SM FEW200 30/23 A2989 RMK SLP098 51014

2010/08/08 05:56
KHLR 080556Z AUTO 15007KT 10SM CLR 30/23 A2991 RMK AO2 SLP118 T03000228 10367 20300 51012 $

2010/08/08 05:55
KHOP 080555Z AUTO 05004KT 10SM CLR 22/18 A2996 RMK AO2 SLP141 T02210176 10299 20219 403330185 51003

2010/08/08 05:56
KIWA 080556Z AUTO 02008KT 10SM CLR 32/18 A2985 RMK AO2 LTG DSNT N

2010/08/08 05:55
KLSV 080555Z AUTO 16014KT 10SM CLR 33/14 A2976 RMK AO2 SLP047 T03300140 10368 20328 51013 PWINO

2010/08/08 05:55
KNBG 080555Z AUTO 00000KT 10SM CLR 28/24 A2993 RMK AO2 SLP134 T02830244 10306 20272 403560256 50003 PWINO $

2010/08/08 05:56
KNJK 080556Z AUTO 28006KT 10SM CLR 29/02 A2970 RMK AO2 SLP071 T02940017 10406 20294 51020 TSNO

2010/08/08 05:57
KNJM 080557Z AUTO 04004KT 10SM CLR 25/24 A2995 RMK AO2 SLP145 T02500239 10267 20250 58004

2010/08/08 05:56
KNUQ 080556Z 06003KT 10SM CLR 15/12 A2985 RMK AO2 SLP112 T01500122 10217 20144 50009

2010/08/08 05:56
PPIZ 080556Z AUTO 07014KT 10SM CLR 08/06 A2971 RMK AO2 TSNO 53007 60000 T00830055 10100 20083 SLP066 $

2010/08/08 05:54
KNFG 080554Z AUTO 00000KT OVC015 15/12 A2992 RMK AO2 SLP131 T01500122 10206 20122 51019 TSNO $

2010/08/08 05:52
KNHK 080552Z AUTO 00000KT 10SM CLR 20/18 A2999 RMK AO2 SLP155 T02000178 10261 20200 50002

2010/08/08 05:55
KNKX 080555Z 00000KT 10SM OVC015 17/13 A2992 RMK AO2 SLP128 T01670128 10211 20139 51016

2010/08/08 05:56
KNMM 080556Z AUTO 00000KT 10SM CLR 25/23 A2991 RMK AO2 SLP134 T02500233 10261 20244 403560239 56006 $

2010/08/08 05:56
KNPA 080556Z AUTO 22003KT 10SM TS BKN100 26/24 A2989 RMK AO2 TSE0457B05E32B39 SLP123 T02610239 10283 20256 403500256 58011

2010/08/08 05:56
KNQI 080556Z AUTO 16007KT 9SM CLR 28/24 A2990 RMK AO2 SLP123 T02830244 10333 20283 403830256 51010

2010/08/08 05:56
KNSE 080556Z AUTO 00000KT 3SM BR SCT002 26/24 A2991 RMK AO2 SLP114 60011 T02560239 10272 20256 403720256 57003 $

2010/08/08 05:56
KNTD 080556Z 00000KT 10SM OVC009 15/14 A2989 RMK AO2 SLP121 T01500139 10183 20150 51014 $

2010/08/08 05:56
KNYG 080556Z AUTO 30006KT 10SM CLR 19/18 A3001 RMK AO2 SLP162 T01940178 10267 20194 50004 $

2010/08/08 05:52
KNZY 080552Z 17003KT 10SM OVC018 19/13 A2992 RMK AO2 SLP130 T01890128 10217 20178 51015 $

2010/08/08 05:55
KPOE 080555Z AUTO 22004KT 10SM CLR 27/24 A2992 RMK AO2 SLP130 T02720239 10328 20272 51007

2010/08/08 05:55
KTTS 080555Z 24005KT 10SM FEW020 SCT140 OVC200 27/26 A2994 RMK SLP139 1CU /0/ 3AC 5CS /7/ 58007

2010/08/08 05:55
KVBG 080555Z AUTO 02006KT 10SM OVC005 13/12 A2991 RMK AO2 SLP121 T01280117 10161 20128 50008 TSNO CHINO RWY12 VISNO RWY12 $

2010/08/08 05:56
KVPS 080556Z 32004KT 7SM R19/5500FT FEW020 SCT110 SCT250 25/25 A2991 RMK AO2A LTG DSNT S SLP128 T02500248 10257 20248 403380244 58004 $

2010/08/08 06:00
SBBR 080600Z 23002KT CAVOK 15/07 Q1022

2010/08/08 05:55
KDMA 080555Z AUTO 10010KT 10SM VCTS OVC095 24/17 A2999 RMK AO2 DZE0502 SLP096 P0000 60002 T02390171 10313 20231 51029 VISNO RWY12 CHINO RWY12 $

2010/08/08 05:56
KFHU 080556Z AUTO 00000KT 10SM OVC110 19/17 A3012 RMK AO2 CIG 090 WEST SLP136 60130 T01890172 10267 20178 50007 TSNO $

2010/08/08 05:56
KHLR 080556Z AUTO 15007KT 10SM CLR 30/23 A2991 RMK AO2 SLP118 T03000228 10367 20300 51012 $

2010/08/08 05:55
KHOP 080555Z AUTO 05004KT 10SM CLR 22/18 A2996 RMK AO2 SLP141 T02210176 10299 20219 403330185 51003

2010/08/08 05:52
KNHK 080552Z AUTO 00000KT 10SM CLR 20/18 A2999 RMK AO2 SLP155 T02000178 10261 20200 50002

2010/08/08 05:56
KNPA 080556Z AUTO 22003KT 10SM TS BKN100 26/24 A2989 RMK AO2 TSE0457B05E32B39 SLP123 T02610239 10283 20256 403500256 58011

2010/08/08 05:56
KNQI 080556Z AUTO 16007KT 9SM CLR 28/24 A2990 RMK AO2 SLP123 T02830244 10333 20283 403830256 51010

2010/08/08 05:56
KNSE 080556Z AUTO 00000KT 3SM BR SCT002 26/24 A2991 RMK AO2 SLP114 60011 T02560239 10272 20256 403720256 57003 $

2010/08/08 05:56
KNTD 080556Z 00000KT 10SM OVC009 15/14 A2989 RMK AO2 SLP121 T01500139 10183 20150 51014 $

2010/08/08 05:52
KNZY 080552Z 17003KT 10SM OVC018 19/13 A2992 RMK AO2 SLP130 T01890128 10217 20178 51015 $

2010/08/08 05:55
KTTS 080555Z 24005KT 10SM FEW020 SCT140 OVC200 27/26 A2994 RMK SLP139 1CU /0/ 3AC 5CS /7/ 58007

2010/08/08 05:56
KVPS 080556Z 32004KT 7SM R19/5500FT FEW020 SCT110 SCT250 25/25 A2991 RMK AO2A LTG DSNT S SLP128 T02500248 10257 20248 403380244 58004 $

2010/08/08 06:00
ORSU 080600Z 09008KT 9999 FEW045 SCT080 37/05 Q1011

2010/08/08 06:00
OSAP 080600Z 27006KT CAVOK 31/09 Q1009

2010/08/08 05:56
KBIH 080556Z AUTO 15011KT 10SM CLR 24/00 A2988 RMK AO2 SLP061 T02390000 10333 20239 51019 TSNO 

2010/08/08 05:59
KLAX 080559Z 26005KT 9SM FEW014 16/12 A2991 RMK AO2 

2010/08/08 06:00
LZKC 080600Z 17006KT 120V240 9999 FEW050 20/16 Q1015

2010/08/08 06:00
LZLU 080600Z 22004KT 9999 BKN006 BKN030 16/15 Q1016

2010/08/08 06:00
LZNI 080600Z 27005KT 240V300 9999 BKN004 OVC016 17/16 Q1016

2010/08/08 06:00
LZPE 080600Z 22004KT 190V250 9999 OVC008 16/14 Q1016

2010/08/08 06:00
GOOY 080600Z VRB03KT 9999 BKN013 27/22 Q1011 NOSIG

2010/08/08 05:55
KCBF 080555Z AUTO 17006KT 10SM CLR 25/20 A2981 RMK AO2

2010/08/08 05:55
KCBG 080555Z AUTO 20005KT 10SM -TSRA SCT100 20/18 A2969 RMK AO2 LTG DSNT ALQDS

2010/08/08 05:54
KCDA 080554Z AUTO 00000KT 10SM CLR 08/06 A3002 RMK AO2

2010/08/08 06:02
KCFE 080602Z AUTO 00000KT 10SM VCTS BKN043 BKN050 OVC100 25/22 A2970 RMK AO2 LTG DSNT W THRU E T02540215

2010/08/08 05:55
KCFS 080555Z AUTO 20003KT 10SM SCT120 19/16 A2989 RMK AO2

2010/08/08 05:55
KCIN 080555Z AUTO 19009KT 10SM CLR 25/21 A2980 RMK AO2

2010/08/08 05:55
KCKC 080555Z AUTO 03003KT 10SM CLR 14/12 A2979 RMK AO2

2010/08/08 05:55
KCKN 080555Z AUTO 11004KT 10SM CLR 22/20 A2966 RMK AO2

2010/08/08 05:55
KCKP 080555Z AUTO 20007KT 10SM CLR 25/22 A2976 RMK AO2

2010/08/08 05:54
KCNB 080554Z AUTO 22009KT 10SM CLR 26/23 A2966 RMK AO2 T02620230 10310 20250 403260172

2010/08/08 05:55
KCNC 080555Z AUTO 19007KT 10SM CLR 23/20 A2985 RMK AO2

2010/08/08 05:56
KCOQ 080556Z AUTO 10009KT 1/2SM FG OVC002 19/17 A2972 RMK AO2 LTG DSNT S

2010/08/08 05:57
KCQM 080557Z AUTO 00000KT 10SM CLR 17/16 A2972 RMK AO2

2010/08/08 05:55
KCSQ 080555Z AUTO 18009KT 10SM CLR 23/22 A2985 RMK AO2

2010/08/08 05:55
KCVX 080555Z AUTO 19006KT 10SM SCT029 SCT036 22/19 A2979 RMK AO2

2010/08/08 05:55
KDEH 080555Z AUTO 20005KT 10SM CLR 25/21 A2982 RMK AO2

2010/08/08 05:55
KDNS 080555Z AUTO 18009G14KT 10SM CLR 26/21 A2981 RMK AO2

2010/08/08 05:57
KDRM 080557Z AUTO 16003KT 10SM CLR 18/17 A2977 RMK AO2

2010/08/08 05:55
KDTL 080555Z AUTO 00000KT 10SM CLR 20/16 A2968 RMK AO2

2010/08/08 05:54
KDUH 080554Z AUTO 20004KT 10SM CLR 20/15 A2995 RMK AO2

2010/08/08 05:55
KEBS 080555Z AUTO 19011KT 10SM SCT070 25/21 A2979 RMK AO2

2010/08/08 05:55
KEOK 080555Z AUTO 16004KT 7SM CLR 25/20 A2989 RMK AO2

2010/08/08 05:55
KERY 080555Z AUTO 23003KT 3SM BR OVC003 21/19 A2977 RMK AO2

2010/08/08 05:55
KFFL 080555Z AUTO 19005KT 7SM CLR 23/22 A2988 RMK AO2

2010/08/08 05:55
KFFX 080555Z AUTO 18003KT 10SM OVC050 22/20 A2986 RMK AO2

2010/08/08 05:54
KFKS 080554Z AUTO 20009KT 10SM OVC038 23/19 A2980 RMK AO2

2010/08/08 05:55
KRRL 080555Z AUTO 04007KT 10SM SCT010 BKN020 OVC055 20/18 A2983 RMK AO2 LTG DSNT ALQS T02000183 10226 20200 402680110

2010/08/08 05:55
KRYV 080555Z AUTO 18004KT 10SM CLR 22/18 A2986 RMK AO2

2010/08/08 05:59
KSAW 080559Z AUTO 28003KT 10SM SCT060 BKN120 17/14 A2975 RMK AO2

2010/08/08 05:54
KSBN 080554Z 19008KT 9SM BKN080 OVC100 23/18 A2994 RMK AO2 SLP131 T02280178 10261 20222 56005

2010/08/08 05:55
KSDA 080555Z AUTO 16006KT 10SM CLR 26/22 A2982 RMK AO2

2010/08/08 05:55
KSHL 080555Z AUTO 20011KT 10SM SCT060 25/23 A2975 RMK AO2

2010/08/08 05:55
KSJX 080555Z AUTO 22008KT 10SM CLR 22/20 A2977 RMK AO2

2010/08/08 05:55
KSLH 080555Z AUTO 20003KT 10SM SCT040 SCT048 SCT065 20/18 A2977 RMK AO2

2010/08/08 05:55
KSTE 080555Z AUTO 19008G15KT 10SM SCT036 23/19 A2980 RMK AO2

2010/08/08 05:55
KSUW 080555Z AUTO 00000KT 7SM OVC002 18/17 A2970 RMK AO2 P0004

2010/08/08 05:55
KTNU 080555Z AUTO 20008KT 10SM CLR 25/20 A2984 RMK AO2

2010/08/08 05:54
KTTF 080554Z AUTO 21003KT 7SM CLR 21/17 A2994 RMK AO2

2010/08/08 05:55
KTVK 080555Z AUTO 10SM CLR 22/21 A2989 RMK AO2

2010/08/08 05:55
KUES 080555Z AUTO 21007KT 10SM CLR 21/17 A2987 RMK AO2 T02110166 10237 20208 402690134

2010/08/08 05:50
KUKT 080550Z AUTO 00000KT 10SM FEW060 SCT090 17/15 A3002 RMK AO1

2010/08/08 05:55
KUNU 080555Z AUTO 19007KT 10SM CLR 22/18 A2986 RMK AO2 T02160177 10247 20211 402770146

2010/08/08 05:54
KVLL 080554Z AUTO 22004KT 10SM SCT100 22/15 A2996 RMK AO2

2010/08/08 05:55
KVTI 080555Z AUTO 16005KT 7SM CLR 22/22 A2983 RMK AO2

2010/08/08 05:55
KY70 080555Z AUTO 21007KT 10SM CLR 21/18 A2989 RMK AO2 T02110178 10253 20211 402950117

2010/08/08 05:56
KFPK 080556Z AUTO 19004KT 10SM CLR 18/17 A2991 RMK AO2

2010/08/08 05:54
KFSE 080554Z AUTO 00000KT 5SM BR CLR 19/18 A2966 RMK AO2

2010/08/08 05:55
KFSW 080555Z AUTO 18007KT 10SM CLR 25/20 A2989 RMK AO2

2010/08/08 05:55
KFXY 080555Z AUTO 20009KT 10SM CLR 24/21 A2977 RMK AO2

2010/08/08 05:55
KGGI 080555Z AUTO 20007KT 10SM CLR 25/21 A2985 RMK AO2

2010/08/08 05:55
KGOV 080555Z AUTO 21004KT 10SM SCT075 SCT110 20/18 A2984 RMK AO2

2010/08/08 05:55
KHAF 080555Z AUTO 15007KT 1 1/2SM BR OVC003 12/12 A2989 RMK AO2

2010/08/08 05:55
KHAI 080555Z AUTO 19005KT 7SM CLR 19/18 A2994 RMK AO2

2010/08/08 05:55
KHNR 080555Z AUTO 17008KT 10SM CLR 23/22 A2984 RMK AO2

2010/08/08 05:54
KHYX 080554Z AUTO 21009KT 10SM SCT110 21/16 A2988 RMK AO2

2010/08/08 05:55
K4M9 080555Z AUTO 04004KT 10SM 24/21 A2992 RMK AO2

2010/08/08 05:55
KBVU 080555Z AUTO 16013KT 10SM CLR 31/13 A2982 RMK AO2 LTG DSNT SW

2010/08/08 05:52
KGLW 080552Z AUTO 00000KT 5SM BR CLR 18/17 A2998 RMK AO2 T01840173 10270 20181 403080176

2010/08/08 05:55
KJVL 080555Z AUTO 20009KT 10SM CLR 23/18 A2986 RMK AO2 T02320182 10270 20232 402940167

2010/08/08 05:55
KLNL 080555Z AUTO 22003KT 7SM TSRA SCT005 BKN020 OVC095 19/18 A2982 RMK AO2 LTG DSNT ALQS P0006 60022 T01850176 10207 20185

2010/08/08 05:55
KLUM 080555Z AUTO 20006KT 10SM VCTS SCT065 SCT080 25/21 A2973 RMK AO2 LTG DSNT N AND W

2010/08/08 05:55
KMAN 080555Z AUTO 33005KT 10SM CLR 21/10 A2978 RMK AO1

2010/08/08 05:55
KMCJ 080555Z AUTO 22004KT 10SM CLR 28/25 A2989 RMK AO1

2010/08/08 05:55
KMDZ 080555Z AUTO 18009KT 10SM SCT012 SCT065 23/21 A2977 RMK AO2

2010/08/08 05:55
KMRJ 080555Z AUTO 20010KT 10SM CLR 22/19 A2985 RMK AO2 T02230192 10267 20211 402820180

2010/08/08 05:55
KMWC 080555Z AUTO 22006KT 10SM CLR 21/16 A2986 RMK AO2

2010/08/08 05:55
KOEO 080555Z AUTO 07007KT 4SM +RA SCT015 SCT037 BKN060 23/21 A2971 RMK AO2 P0009

2010/08/08 05:55
KPBH 080555Z AUTO 30004KT 7SM +TSRA BKN005 BKN014 OVC038 20/19 A2983 RMK AO2 LTG DSNT ALQDS

2010/08/08 05:55
KPCZ 080555Z AUTO 20007KT 10SM SCT028 24/19 A2979 RMK AO2 T02410192 10275 20238 403050139

2010/08/08 05:52
KPDC 080552Z AUTO 17007KT 10SM CLR 25/22 A2980 RMK AO2 T02450219 10281 20245 402950176

2010/08/08 05:55
KRCX 080555Z AUTO 33012G34KT 1SM +TSRA BKN005 OVC017 21/20 A2980 RMK AO2 VIS 1/2V5 LTG DSNT ALQS P0040 60040 T02120196 10245 20212 402800140

2010/08/08 05:56
KRNH 080556Z AUTO 35007KT 10SM SCT020 BKN046 BKN050 25/22 A2972 RMK AO2 T02510217 10284 20251 402850152

2010/08/08 05:55
KRPD 080555Z AUTO 23003KT 7SM VCTSRA SCT031 BKN050 OVC070 19/18 A2976 RMK AO2 LTG DSNT ALQS P0030 60030 T01920175 10255 20191 402840145

2010/08/08 05:55
KSNC 080555Z AUTO 19004KT 10SM CLR 19/ A3004 RMK AO2

2010/08/08 06:01
PADM 080601Z AUTO 19005KT 7SM BKN008 OVC015 12/11 A2971 RMK AO2 TSNO 53001 60001 T01160105 10133 20116 CIG 006V012 RAB0519E0544 P0000 SLP048 $

2010/08/08 05:58
PADU 080558Z AUTO 17015G19KT 10SM -RA BKN034 OVC044 16/13 A2957 RMK AO2 SLP017 P0003 60006 T01560128 10183 20144 58038

2010/08/08 05:58
PAGA 080558Z AUTO 20003KT 10SM FEW027 BKN039 OVC047 14/12 A2966 RMK AO2 SLPNO 6//// T01390117 10161 20133 51010

2010/08/08 05:56
PAJZ 080556Z AUTO 20012KT 10SM FEW015 OVC046 12/10 A2980 RMK AO2 PWINO TSNO 53007 T01160100 10161 20116 SLP079 $

2010/08/08 05:56
PAKI 080556Z AUTO 15012KT 10SM +RA OVC012 10/09 A2964 RMK AO2 TSNO 58016 60000 T01000094 10111 20100 P0000 SLP040 $

2010/08/08 05:56
PALG 080556Z AUTO 00000KT 10SM BKN009 BKN014 OVC024 12/11 A2970 RMK AO2 TSNO 53001 60003 T01160105 10127 20116 CIG 006V012 SLP062 $

2010/08/08 05:58
PATE 080558Z AUTO 36009KT 10SM FEW070 14/11 A2960 RMK AO2 RAE04 SLP034 P0000 60000 T01390106 10161 20139 55000

2010/08/08 05:56
K4I3 080556Z AUTO 00000KT 10SM CLR 18/16 A3002 RMK AO2

2010/08/08 05:55
KACB 080555Z AUTO 18003KT 10SM OVC032 23/19 A2980 RMK AO2

2010/08/08 05:58
KACQ 080558Z AUTO 20013G18KT 10SM BKN047 BKN055 BKN070 25/22 A2975 RMK AO2 LTG DSNT NE

2010/08/08 05:57
KADC 080557Z AUTO 06003KT 10SM CLR 17/17 A2968 RMK AO2

2010/08/08 05:54
KAMN 080554Z AUTO 20005KT 10SM CLR 20/17 A2987 RMK AO2

2010/08/08 05:55
KAUM 080555Z AUTO 19007KT 7SM BKN060 23/21 A2976 RMK AO2 LTG DSNT N

2010/08/08 05:55
KAWG 080555Z AUTO 19006KT 7SM CLR 23/21 A2987 RMK AO2

2010/08/08 05:55
KAXA 080555Z AUTO 19010G15KT 10SM CLR 25/22 A2976 RMK AO2

2010/08/08 06:04
KBAX 080604Z AUTO 19004KT 10SM SCT047 SCT050 SCT080 19/17 A2988 RMK AO2

2010/08/08 05:55
KBDH 080555Z AUTO 00000KT 7SM CLR 25/22 A2969 RMK AO2 LTG DSNT NE AND E

2010/08/08 05:55
KBNW 080555Z AUTO 20008KT 10SM CLR 26/21 A2981 RMK AO2

2010/08/08 05:54
KCAD 080554Z AUTO 21007KT 10SM SCT033 SCT048 SCT065 22/20 A2985 RMK AO2

2010/08/08 05:56
KCAE 080556Z 00000KT 6SM BR CLR 26/24 A2993 RMK AO2 SLP132 T02560239 10306 20256 58004

2010/08/08 05:55
KCAV 080555Z AUTO 18008KT 10SM CLR 25/22 A2978 RMK AO2

2010/08/08 05:55
KI75 080555Z AUTO 17007KT 10SM CLR 23/20 A2985 RMK AO2

2010/08/08 05:55
KICL 080555Z AUTO 18004KT 10SM CLR 26/21 A2983 RMK AO2

2010/08/08 05:55
KIIB 080555Z AUTO 17006KT 7SM CLR 22/21 A2983 RMK AO1

2010/08/08 05:55
KIKV 080555Z AUTO 20010KT 10SM CLR 26/21 A2982 RMK AO2

2010/08/08 05:55
KIRS 080555Z AUTO 19005KT 7SM CLR 19/17 A2994 RMK AO2

2010/08/08 05:55
KISQ 080555Z AUTO 22003KT 10SM BKN110 22/19 A2975 RMK AO2

2010/08/08 05:55
KJYG 080555Z AUTO 18006KT 10SM CLR 26/26 A2971 RMK AO2 LTG DSNT NE

2010/08/08 05:55
KJYM 080555Z AUTO 19005KT 7SM CLR 20/17 A2996 RMK AO2

2010/08/08 05:55
KLDM 080555Z AUTO 23012G17KT 10SM SCT039 24/21 A2983 RMK AO2

2010/08/08 05:55
KLRJ 080555Z AUTO 19007KT 10SM SCT075 25/22 A2975 RMK AO2

2010/08/08 05:56
KLWA 080556Z AUTO 20008KT 10SM CLR 22/17 A2990 RMK AO2

2010/08/08 05:55
KMCD 080555Z AUTO 20003KT 10SM CLR 21/17 A2977 RMK AO2

2010/08/08 05:54
KMGN 080554Z AUTO 00000KT 10SM OVC025 22/18 A2978 RMK AO2

2010/08/08 05:55
KMOP 080555Z AUTO 19003KT 10SM SCT050 BKN100 21/20 A2987 RMK AO2

2010/08/08 05:55
KMPZ 080555Z AUTO 19007KT 7SM CLR 23/20 A2988 RMK AO2

2010/08/08 05:55
KMUT 080555Z AUTO 18003KT 7SM CLR 23/21 A2987 RMK AO2

2010/08/08 05:55
KMXO 080555Z AUTO 15005KT 7SM CLR 22/20 A2985 RMK AO2

2010/08/08 05:55
KOEB 080555Z AUTO 21005KT 10SM CLR 21/17 A2994 RMK AO2

2010/08/08 05:55
KOOA 080555Z AUTO 18005KT 10SM CLR 23/21 A2986 RMK AO2

2010/08/08 05:55
KORC 080555Z AUTO 19008KT 10SM SCT065 25/25 A2975 RMK AO2

2010/08/08 05:56
KOSC 080556Z AUTO 21006KT 10SM SCT065 BKN110 20/17 A2984 RMK AO2

2010/08/08 05:55
KOXV 080555Z AUTO 19005KT 10SM CLR 25/20 A2985 RMK AO2

2010/08/08 05:55
KOZW 080555Z AUTO 21004KT 7SM CLR 20/16 A2993 RMK AO2

2010/08/08 05:55
KPEA 080555Z AUTO 10SM CLR A2985 RMK AO2

2010/08/08 05:55
KPHN 080555Z AUTO 21004KT 10SM BKN090 OVC110 20/16 A2992 RMK AO2

2010/08/08 05:55
KPRO 080555Z AUTO 18008KT 10SM SCT085 23/23 A2980 RMK AO2

2010/08/08 05:54
KPZQ 080554Z AUTO 22005KT 2 1/2SM -RA SCT009 BKN036 OVC100 18/16 A2980 RMK AO2 VIS 1V5

2010/08/08 05:55
KRDK 080555Z AUTO 17004KT 7SM SCT090 26/22 A2981 RMK AO2

2010/08/08 05:55
KRGK 080555Z AUTO 23008G15KT 10SM VCTS CLR 27/22 A2970 RMK AO2 LTG DSNT N AND NW

2010/08/08 05:55
KRMY 080555Z AUTO 18003KT 10SM CLR 20/17 A2993 RMK AO2

2010/08/08 05:55
KRNP 080555Z AUTO 20006KT 10SM BKN120 21/17 A2990 RMK AO2

2010/08/08 05:54
KRQB 080554Z AUTO 19005KT 10SM OVC050 22/18 A2987 RMK AO2

2010/08/08 05:53
KSSC 080553Z 00000KT 8SM R22/5500VP6000FT CLR 25/23 A2993 RMK AO2A SLP133 $

2010/08/08 06:00
SBSV 080600Z 16004KT 9999 SCT017 23/17 Q1018

2010/08/08 06:00
SBNT 080600Z 18005KT 9999 FEW020 22/20 Q1015

2010/08/08 06:00
SBRB 080600Z 00000KT 5000 FU NSC 21/16 Q1014 

2010/08/08 06:00
SBBR 080600Z 23002KT CAVOK 15/07 Q1022

2010/08/08 06:00
SBBE 080600Z 10003KT CAVOK 25/22 Q1012

2010/08/08 06:00
SBSP 080600Z 00000KT 0500 R17/0450 R35/0450 FG VV002 12/12 Q1021

2010/08/08 06:00
SBPV 080600Z 00000KT CAVOK 21/18 Q1012

2010/08/08 06:00
GQNN 080600Z 30004KT 6000 FEW010 25/22 Q1010 TEMPO SCT010

2010/08/08 05:51
RJCJ 080551Z 20004KT 160V240 9999 FEW010 FEW035TCU SCT080 29/24 Q1012 RMK 1ST010 2TCU035 4AC080 A2989 TCU NW-NE MOV E

2010/08/08 05:59
KLAX 080559Z 26005KT 9SM FEW014 16/12 A2991

2010/08/08 05:56
EHDL 080556Z AUTO 30005KT 1900NDV BR BKN001 OVC003 16/15 Q1014 RED

2010/08/08 05:56
EGVA 080556Z AUTO 32004KT 9999 FEW016 OVC029 14/13 A3013 RMK AO2 SLP204 $

2010/08/08 05:53
EGVA 080553Z AUTO 32005KT 9999 FEW016 OVC030 14/13 A3013 RMK AO2 SLP203 $

2010/08/08 06:00
GOOY 080600Z VRB03KT 9999 BKN013 27/22 Q1011 NOSIG

2010/08/08 06:00
WSAP 080600Z 17008KT 9999 FEW020 FEW022TCU BKN300 31/24 Q1008

2010/08/08 06:00
TFFF 080600Z AUTO 02003KT 9999NDV NCD 25/24 Q1012

2010/08/08 06:00
SBKP 080600Z 10009KT CAVOK 10/07 Q1019

2010/08/08 05:58
KVLD 080558Z AUTO 00000KT 3/4SM BR VV001 24/24 A2993

2010/08/08 05:50
LGKP 080550Z 32020KT 9999 FEW018 28/20 Q1008

2010/08/08 06:00
OPPS 080600Z NW-10KT 0600 RAIN BKN006ST FEW030TCU SCT030 OVC100 25/25 Q1006.1

2010/08/08 06:00
OPPS 080600Z NW-10KT 0600 RAIN BKN006ST FEW030TCU SCT030 OVC100 25/25 Q1006.1

2010/08/08 06:00
LUBL 080600Z 26005KT 230V290 9999 SCT030CB 23/20 Q1014 RWY33

2010/08/08 06:00
UBBL 080600Z 12006KT 9999 NSC 32/22 Q1010 NOSIG RMK G/O SC07

2010/08/08 05:59
KLAX 080559Z 26005KT 9SM FEW014 16/12 A2991

2010/08/08 06:00
OPNH 080600Z 31505KT 4000 FU SCT030 SCT100 32/28 Q1001

2010/08/08 06:00
LBSF 080600Z 26004MPS 8000 SCT039 BKN046 19/17 Q1016 NOSIG

2010/08/08 06:00
LBWN 080600Z 30004MPS 240V330 CAVOK 25/20 Q1012 NOSIG

2010/08/08 06:00
LBBG 080600Z VRB02MPS 9999 FEW033 28/21 Q1012 NOSIG

2010/08/08 06:00
LBPD 080600Z VRB02MPS 9999 SCT070 24/19 Q1013 NOSIG

2010/08/08 06:00
LBGO 080600Z 00000MPS 9999 SCT050 SCT070 22/20 Q1014 NOSIG

2010/08/08 06:00
GVNP 080600Z 01004KT 9999 FEW030 24/21 Q1013 NOSIG

2010/08/08 06:00
DIAP 080600Z 23005KT 8000 FEW006 BKN012 25/24 Q1014 NOSIG

2010/08/08 06:00
UTTT 080600Z 35004MPS CAVOK 35/10 Q1006 R08R/CLRD70 NOSIG

2010/08/08 05:56
KMEH 080556Z AUTO 00000KT 10SM CLR 14/08 A2995 RMK AO2 SLP120 T01390083 10244 20139 51013 TSNO 

2010/08/08 05:59
KLAX 080559Z 26005KT 9SM FEW014 16/12 A2991

2010/08/08 06:00
LUKK 080600Z 16003KT 100V240 8000 -SHRA BKN033CB 25/22 Q1013 26150060 NOSIG

2010/08/08 06:00
WSSS 080600Z 19006KT 160V250 9999 FEW020TCU BKN300 32/25 Q1008 NOSIG

2010/08/08 05:54
KWAL 080554Z AUTO 00000KT 10SM CLR 23/21 A3001 RMK AO2 SLP157 T02280211 10250 20222 58001 TSNO 

2010/08/08 05:55
KINL 080555Z AUTO 00000KT 10SM FEW090 15/14 A2972 RMK AO2 SLP063 T01500144 10211 20150 402440067 53001 

2010/08/08 06:00
LDLO 080600Z 03002KT CAVOK 23/17 Q1017

2010/08/08 06:00
NWWW 080600Z AUTO 16008KT 9999NDV BKN041/// 22/12 Q1017

2010/08/08 05:56
KHLR 080556Z AUTO 15007KT 10SM CLR 30/23 A2991 RMK AO2 SLP118 T03000228 10367 20300 51012 $

2010/08/08 05:55
PGUA 080555Z AUTO 06011KT 10SM CLR 29/25 A2980 RMK AO2 SLP073 T02910254 10297 20283 56010 VISNO RWY24L $

2010/08/08 05:54
PGUM 080554Z 07011KT 10SM SCT024 SCT029CB 31/24 A2979 RMK AO2 SLP081 CB S MOV W 8543501 60000 T03060244 10317 20294 56009 $

2010/08/08 05:56
PHBK 080556Z AUTO 28005KT 10SM FEW049 28/20 A3005 RMK AO2 SLP179 T02830200 10306 20283 53013 TSNO $

2010/08/08 05:55
PHHI 080555Z AUTO 07007KT 10SM SCT048 BKN055 24/19 A3009 RMK AO2 SLP177 60000 T02420190 10281 20241 52012 $

2010/08/08 05:55
RJTY 080555Z AUTO 18011KT 9999 CLR 30/22 A3002 RMK AO2 SLP158 60000 T02950221 10305 20282 57011 $

2010/08/08 05:55
RODN 080555Z 17010KT 9999 SCT019 BKN045 31/26 A2961 RMK AO2A RAE0458 SLP026 P0000 60011 T03050264 10309 20263 58014

2010/08/08 05:56
K79J 080556Z AUTO 00000KT 8SM CLR 26/23 A2991 RMK AO2 SLP123 6//// T02610233 10294 20261 403500261 58004 TSNO PNO $

2010/08/08 05:55
KLUF 080555Z AUTO 00000KT 10SM BKN150 30/18 A2982 RMK AO2 SLP074 T02960181 10336 20287 51014 $

2010/08/08 05:56
KNBC 080556Z AUTO 00000KT 7SM CLR 26/24 A2992 RMK AO2 SLP131 T02560239 10289 20250 58006

2010/08/08 05:56
KNFL 080556Z AUTO 19006KT 10SM CLR 22/02 A2987 RMK AO2 SLP090 T02170022 10344 20206 53025 TSNO

2010/08/08 05:56
KNMM 080556Z AUTO 00000KT 10SM CLR 25/23 A2991 RMK AO2 SLP134 T02500233 10261 20244 403560239 56006 $

2010/08/08 05:56
KNRS 080556Z AUTO 23004KT 10SM OVC017 16/13 A2993 RMK AO2 SLP136 T01560128 10183 20156 51015 TSNO $

2010/08/08 05:56
KNXP 080556Z AUTO 22013KT CLR 28/01 A2987 RMK AO2 SLP075 T02780011 10356 20278 51012 $

2010/08/08 05:56
KNXX 080556Z AUTO 00000KT 10SM FEW095 22/15 A3002 RMK AO2 SLP170 T02170150 10267 20217 50005 $

2010/08/08 05:55
KTBN 080555Z AUTO 15004KT 10SM CLR 23/ A2995 RMK AO2 SLP120 60000 T0225 10301 20225 403240198 50008 $

2010/08/08 06:00
MHLC 080600Z 15002KT 9999 SCT022CB SCT080 26/24 Q1012 A2990 NOSIG

2010/08/08 06:00
MHLM 080600Z 00000KT 9999 FEW024 BKN250 27/27 Q1013 A2991 NOSIG

2010/08/08 06:00
MHTG 080600Z 13002KT 9999 BKN026 SCT250 21/20 Q1019 A3009 NOSIG

2010/08/08 05:51
MUVR 080551Z 00000KT 9000 FEW018 23/21 Q1016

2010/08/08 06:00
OEDR 080600Z 00000KT 8000 SKC 39/17 Q0997 NOSIG

2010/08/08 06:00
OEMA 080600Z 05003KT 8000 FEW045 SCT100 38/02 Q1007 NOSIG

2010/08/08 06:00
OERK 080600Z 29006KT 8000 SKC 38/05 Q1006 NOSIG

2010/08/08 06:00
OERY 080600Z 34006KT 5000 DU SKC 38/05 Q1007 NOSIG

2010/08/08 05:58
PAGA 080558Z AUTO 20003KT 10SM FEW027 BKN039 OVC047 14/12 A2966 RMK AO2 SLPNO 6//// T01390117 10161 20133 51010

2010/08/08 05:56
PHBK 080556Z AUTO 28005KT 10SM FEW049 28/20 A3005 RMK AO2 SLP179 T02830200 10306 20283 53013 TSNO $

2010/08/08 05:54
KACY 080554Z 16003KT 10SM CLR 22/20 A3003 RMK AO2 SLP166 T02220200 10256 20222 50003

2010/08/08 05:55
KADW 080555Z AUTO 18004KT 10SM CLR 20/17 A3000 RMK AO2 SLP161 T02040165 10258 20197 51004 $

2010/08/08 05:56
KCHS 080556Z 00000KT 7SM CLR 25/24 A2992 RMK AO2 SLP131 T02500239 10283 20250 58005

2010/08/08 05:55
KMCF 080555Z AUTO 00000KT 10SM CLR 29/26 A2994 RMK AO2 SLP142 T02900265 10298 20290 58003

2010/08/08 05:56
KNBC 080556Z AUTO 00000KT 7SM CLR 26/24 A2992 RMK AO2 SLP131 T02560239 10289 20250 58006

2010/08/08 05:55
KNBG 080555Z AUTO 00000KT 10SM CLR 28/24 A2993 RMK AO2 SLP134 T02830244 10306 20272 403560256 50003 PWINO $

2010/08/08 05:52
KNHK 080552Z AUTO 00000KT 10SM CLR 20/18 A2999 RMK AO2 SLP155 T02000178 10261 20200 50002

2010/08/08 05:57
KNJM 080557Z AUTO 04004KT 10SM CLR 25/24 A2995 RMK AO2 SLP145 T02500239 10267 20250 58004

2010/08/08 05:56
KNPA 080556Z AUTO 22003KT 10SM TS BKN100 26/24 A2989 RMK AO2 TSE0457B05E32B39 SLP123 T02610239 10283 20256 403500256 58011

2010/08/08 05:56
KNTU 080556Z 00000KT 10SM BKN010 BKN060 24/23 A2999 RMK AO2 SLP156 T02390233 10256 20239 53001 $

2010/08/08 05:55
KPAM 080555Z AUTO 00000KT 9SM CLR 26/25 A2990 RMK AO2 SLP126 60034 T02560253 10279 20253 403340253 58008 $

2010/08/08 05:56
KVPS 080556Z 32004KT 7SM R19/5500FT FEW020 SCT110 SCT250 25/25 A2991 RMK AO2A LTG DSNT S SLP128 T02500248 10257 20248 403380244 58004 $

2010/08/08 06:00
MDSD 080600Z 01004KT 9999 FEW018 24/22 Q1014

2010/08/08 05:56
MUGM 080556Z 35004KT 9999 CLR 28/24 A2998 RMK SLP150 T02780239 10300 20278 57005

2010/08/08 05:50
KQEI 080550Z AUTO 16002KT 7SM FEW031 SCT095 30/21 A2998 RMK A02

2010/08/08 05:50
KQEJ 080550Z AUTO 21004KT 7SM SCT065 BKN085 31/21 A2996 RMK A02

2010/08/08 05:50
KQEP 080550Z AUTO 27001KT 7SM BKN036 33/21 A2988 RMK A02

2010/08/08 05:50
KQEQ 080550Z AUTO 22004KT 7SM FEW120 31/21 A2984 RMK A02

2010/08/08 05:50
KQER 080550Z AUTO 04004KT 7SM FEW037 SCT060 30/20 A2993 RMK A02

2010/08/08 05:50
KQEW 080550Z AUTO 15005KT 7SM FEW037 30/20 A2985 RMK A02

2010/08/08 05:50
KQEX 080550Z AUTO 07004KT 7SM BKN047 32/18 A2977 RMK A02

2010/08/08 05:50
KQFB 080550Z AUTO 30005KT 7SM CLR 33/19 A2994 RMK A02

2010/08/08 05:50
KQFU 080550Z AUTO 06005KT 7SM OVC005 31/22 A2994 RMK A02

2010/08/08 05:50
KQFW 080550Z AUTO 30004KT 7SM CLR 31/21 A2993 RMK A02

2010/08/08 05:55
KQGV 080555Z 32010G15KT 4000 HZ CLR 40/04 A2954 RMK SLP990 51003

2010/08/08 05:55
KQPV 080555Z AUTO 35013G19KT 7000 CLR 39/04 A2966 RMK AO2 SLP036 T03850035 10370 20330 52006 $

2010/08/08 05:55
KQXF 080555Z AUTO 03005G14KT 9000 CLR 42/02 A2957 RMK AO2 SLP001 T04240024 52003 $

2010/08/08 06:00
TFFR 080600Z 06002KT 9999 VCSH FEW023 SCT083 26/22 Q1013 TEMPO 4000 SHRA

2010/08/08 05:52
KMWN 080552Z 26033KT 120SM FEW180 OVC250 04/03 RMK PTCHY VLY FG ALQDS BINOVC 10047 20036 

2010/08/08 05:59
CYPH 080559Z AUTO 24010KT 9SM OVC004 08/08 A2936

2010/08/08 06:00
OEDF 080600Z VRB02KT CAVOK 39/11 Q0999 NOSIG

2010/08/08 06:00
OEDR 080600Z 00000KT 8000 SKC 39/17 Q0997 NOSIG

2010/08/08 06:00
OEMA 080600Z 05003KT 8000 FEW045 SCT100 38/02 Q1007 NOSIG

2010/08/08 06:00
OERK 080600Z 29006KT 8000 SKC 38/05 Q1006 NOSIG

2010/08/08 06:00
OERY 080600Z 34006KT 5000 DU SKC 38/05 Q1007 NOSIG

2010/08/08 06:00
SBFL 080600Z 26005KT CAVOK 14/13 Q1017

2010/08/08 06:00
SBCG 080600Z 08011KT CAVOK 17/06 Q1017

2010/08/08 05:53
KRIL 080553Z AUTO 00000KT 10SM OVC095 16/14 A3014 RMK AO2 SLP138 60003 T01610144 10194 20161 58000 TSNO 

2010/08/08 06:00
SCAR 080600Z 00000KT 9999 OVC021 14/08 Q1016

2010/08/08 06:00
SCDA 080600Z 26004KT 9999 OVC022 13/09 Q1017

2010/08/08 06:00
SCFA 080600Z 10003KT 9999 SCT014 10/08 Q1016

2010/08/08 06:00
SCSE 080600Z 15006KT CAVOK 07/06 Q1020 NEFO PLAYA SKC

2010/08/08 06:00
SCEL 080600Z VRB02KT CAVOK 03/01 Q1025 NOSIG

2010/08/08 06:00
KNEL 080600Z AUTO 00000KT 8SM CLR 18/16 A3002 RMK AO2 SLP162 T01830161 10250 20183 50009 $ 

2010/08/08 05:56
KNLC 080556Z AUTO 32007KT 10SM CLR 22/10 A2975 RMK AO2 SLP073 T02220100 10361 20222 50015 TSNO $ 

2010/08/08 06:00
NWWM 080600Z 14003KT 090V170 9999 BKN046 22/14 Q1017 NOSIG

2010/08/08 06:00
NWWL 080600Z AUTO 13009KT 100V160 9999NDV FEW029/// SCT037/// BKN056/// 22/16 Q1016

2010/08/08 06:00
NWWU 080600Z AUTO 10009KT 9999NDV FEW019/// OVC038/// 24/19 Q1015

2010/08/08 06:00
SCEL 080600Z VRB02KT CAVOK 03/01 Q1025 NOSIG

2010/08/08 06:00
SCTC 080600Z 00000KT 0600 FG SCT015 03/03 Q1029

2010/08/08 06:00
SCTE 080600Z 36003KT 9999 SCT070 02/02 Q1028 NOSIG

2010/08/08 06:00
SCON 080600Z AUTO 03003KT 350V060 CAVOK 07/06 Q1024

2010/08/08 06:00
SCFT 080600Z AUTO 28005KT 220V300 CAVOK 04/M00 Q1023

2010/08/08 06:00
SCBA 080600Z AUTO 30018KT CAVOK 03/00 Q1014

2010/08/08 06:00
SCCI 080600Z 27006KT 9999 BKN016 OVC060 02/M00 Q0996 NOSIG

2010/08/08 05:55
KDMA 080555Z AUTO 10010KT 10SM VCTS OVC095 24/17 A2999 RMK AO2 DZE0502 SLP096 P0000 60002 T02390171 10313 20231 51029 VISNO RWY12 CHINO RWY12 $

2010/08/08 05:55
KHXD 080555Z AUTO 00000KT 2 1/2SM BR CLR 25/25 A2992 RMK AO2 P0000

2010/08/08 05:55
KNBG 080555Z AUTO 00000KT 10SM CLR 28/24 A2993 RMK AO2 SLP134 T02830244 10306 20272 403560256 50003 PWINO $

2010/08/08 05:54
KNFG 080554Z AUTO 00000KT OVC015 15/12 A2992 RMK AO2 SLP131 T01500122 10206 20122 51019 TSNO $

2010/08/08 05:56
KNMM 080556Z AUTO 00000KT 10SM CLR 25/23 A2991 RMK AO2 SLP134 T02500233 10261 20244 403560239 56006 $

2010/08/08 05:56
KNSE 080556Z AUTO 00000KT 3SM BR SCT002 26/24 A2991 RMK AO2 SLP114 60011 T02560239 10272 20256 403720256 57003 $

2010/08/08 06:00
KRHP 080600Z AUTO 00000KT 18/17 A3004 RMK AO2 PWINO

2010/08/08 05:55
KSPF 080555Z AUTO 22006KT 10SM CLR 18/13 A2993 RMK AO2

2010/08/08 05:55
KTTS 080555Z 24005KT 10SM FEW020 SCT140 OVC200 27/26 A2994 RMK SLP139 1CU /0/ 3AC 5CS /7/ 58007

2010/08/08 06:00
KBML 080600Z AUTO 00000KT 1SM BR OVC001 07/07 A3003 RMK AO2 VIS 1/4V3

2010/08/08 06:00
KSTP 080600Z AUTO 20010KT 10SM FEW055 SCT090 SCT110 28/22 A2968 RMK AO2 TSE0554

2010/08/08 05:59
PAVL 080559Z AUTO 28006KT 3SM BR OVC001 09/09 A2959 RMK AO2 RAE54 TSNO

2010/08/08 06:00
SBGR 080600Z 00000KT 7000 NSC 09/09 Q1020

2010/08/08 06:00
SBRP 080600Z 14002KT CAVOK 15/10 Q1018

2010/08/08 05:53
KGNT 080553Z AUTO 00000KT 15/14 A3022 RMK AO2 SLP138 60004 T01500139 10178 20150 50006 PWINO TSNO

2010/08/08 05:52
KMWN 080552Z 26033KT 120SM FEW180 OVC250 04/03 RMK PTCHY VLY FG ALQDS BINOVC 10047 20036

2010/08/08 06:00
KNEL 080600Z AUTO 00000KT 8SM CLR 18/16 A3002 RMK AO2 SLP162 T01830161 10250 20183 50009 $

2010/08/08 06:00
SBFZ 080600Z 10011KT 9999 SCT017 24/22 Q1015

2010/08/08 06:00
SBJP 080600Z 24007KT 9999 SCT020 BKN070 21/20 Q1017 

2010/08/08 05:59
KLAX 080559Z 26005KT 9SM FEW014 16/12 A2991 RMK AO2

2010/08/08 05:55
KINL 080555Z AUTO 00000KT 10SM FEW090 15/14 A2972 RMK AO2 SLP063 T01500144 10211 20150 402440067 53001

2010/08/08 05:53
K6R6 080553Z AUTO 10005KT 28/18 A2991 RMK AO2 SLP088 T02780178 10339 20278 403560211 51014 PWINO TSNO

2010/08/08 05:56
KBIH 080556Z AUTO 15011KT 10SM CLR 24/00 A2988 RMK AO2 SLP061 T02390000 10333 20239 51019 TSNO

2010/08/08 05:56
KMEH 080556Z AUTO 00000KT 10SM CLR 14/08 A2995 RMK AO2 SLP120 T01390083 10244 20139 51013 TSNO

2010/08/08 05:54
KWAL 080554Z AUTO 00000KT 10SM CLR 23/21 A3001 RMK AO2 SLP157 T02280211 10250 20222 58001 TSNO

2010/08/08 05:55
KINL 080555Z AUTO 00000KT 10SM FEW090 15/14 A2972 RMK AO2 SLP063 T01500144 10211 20150 402440067 53001

2010/08/08 05:53
KRIL 080553Z AUTO 00000KT 10SM OVC095 16/14 A3014 RMK AO2 SLP138 60003 T01610144 10194 20161 58000 TSNO

2010/08/08 06:00
SBLO 080600Z 24003KT CAVOK 11/08 Q1019

2010/08/08 06:00
SBKP 080600Z 10009KT CAVOK 10/07 Q1019

2010/08/08 06:00
PLCH 080600Z 00000KT 15KM BKN016 25/24 Q1013

2010/08/08 06:00
SBMO 080600Z 25002KT 9999 FEW017 SCT100 19/18 Q1018

2010/08/08 05:54
PGUM 080554Z 07011KT 10SM SCT024 SCT029CB 31/24 A2979 RMK AO2 SLP081 CB S MOV W 8543501 60000 T03060244 10317 20294 56009 $

2010/08/08 06:00
SBMQ 080600Z 00000KT 9999 FEW017 SCT100 25/25 Q1013

2010/08/08 05:53
KSSC 080553Z 00000KT 8SM R22/5500VP6000FT CLR 25/23 A2993 RMK AO2A SLP133 $

2010/08/08 05:58
KLSF 080558Z AUTO 11003KT 7SM R33/5000VP6000FT CLR 24/23 A2993 RMK AO2 SLP134 PNO $

2010/08/08 05:56
KNLC 080556Z AUTO 32007KT 10SM CLR 22/10 A2975 RMK AO2 SLP073 T02220100 10361 20222 50015 TSNO $

2010/08/08 06:00
SBCY 080600Z 35004KT CAVOK 20/13 Q1014

2010/08/08 05:53
KRYT 080553Z AUTO 00000KT 10SM CLR 19/14 A3001 RMK AO2 SLP150 T01940144 10256 20194 51001 $

2010/08/08 05:55
KDMA 080555Z AUTO 10010KT 10SM VCTS OVC095 24/17 A2999 RMK AO2 DZE0502 SLP096 P0000 60002 T02390171 10313 20231 51029 VISNO RWY12 CHINO RWY12 $

2010/08/08 05:56
KFHU 080556Z AUTO 00000KT 10SM OVC110 19/17 A3012 RMK AO2 CIG 090 WEST SLP136 60130 T01890172 10267 20178 50007 TSNO $

2010/08/08 05:56
KHLR 080556Z AUTO 15007KT 10SM CLR 30/23 A2991 RMK AO2 SLP118 T03000228 10367 20300 51012 $

2010/08/08 05:55
KHOP 080555Z AUTO 05004KT 10SM CLR 22/18 A2996 RMK AO2 SLP141 T02210176 10299 20219 403330185 51003

2010/08/08 05:52
KNHK 080552Z AUTO 00000KT 10SM CLR 20/18 A2999 RMK AO2 SLP155 T02000178 10261 20200 50002

2010/08/08 05:56
KNPA 080556Z AUTO 22003KT 10SM TS BKN100 26/24 A2989 RMK AO2 TSE0457B05E32B39 SLP123 T02610239 10283 20256 403500256 58011

2010/08/08 05:56
KNQI 080556Z AUTO 16007KT 9SM CLR 28/24 A2990 RMK AO2 SLP123 T02830244 10333 20283 403830256 51010

2010/08/08 05:56
KNTD 080556Z 00000KT 10SM OVC009 15/14 A2989 RMK AO2 SLP121 T01500139 10183 20150 51014 $

2010/08/08 05:52
KNZY 080552Z 17003KT 10SM OVC018 19/13 A2992 RMK AO2 SLP130 T01890128 10217 20178 51015 $

2010/08/08 05:56
KVPS 080556Z 32004KT 7SM R19/5500FT FEW020 SCT110 SCT250 25/25 A2991 RMK AO2A LTG DSNT S SLP128 T02500248 10257 20248 403380244 58004 $

2010/08/08 05:54
KNFG 080554Z AUTO 00000KT OVC015 15/12 A2992 RMK AO2 SLP131 T01500122 10206 20122 51019 TSNO $

2010/08/08 05:52
KNHK 080552Z AUTO 00000KT 10SM CLR 20/18 A2999 RMK AO2 SLP155 T02000178 10261 20200 50002

2010/08/08 05:55
KNKX 080555Z 00000KT 10SM OVC015 17/13 A2992 RMK AO2 SLP128 T01670128 10211 20139 51016

2010/08/08 05:56
KNMM 080556Z AUTO 00000KT 10SM CLR 25/23 A2991 RMK AO2 SLP134 T02500233 10261 20244 403560239 56006 $

2010/08/08 05:56
KNPA 080556Z AUTO 22003KT 10SM TS BKN100 26/24 A2989 RMK AO2 TSE0457B05E32B39 SLP123 T02610239 10283 20256 403500256 58011

2010/08/08 05:56
KNQI 080556Z AUTO 16007KT 9SM CLR 28/24 A2990 RMK AO2 SLP123 T02830244 10333 20283 403830256 51010

2010/08/08 05:56
KNTD 080556Z 00000KT 10SM OVC009 15/14 A2989 RMK AO2 SLP121 T01500139 10183 20150 51014 $

2010/08/08 05:56
KNYG 080556Z AUTO 30006KT 10SM CLR 19/18 A3001 RMK AO2 SLP162 T01940178 10267 20194 50004 $

2010/08/08 05:52
KNZY 080552Z 17003KT 10SM OVC018 19/13 A2992 RMK AO2 SLP130 T01890128 10217 20178 51015 $

2010/08/08 05:55
KPOE 080555Z AUTO 22004KT 10SM CLR 27/24 A2992 RMK AO2 SLP130 T02720239 10328 20272 51007

2010/08/08 05:55
KVBG 080555Z AUTO 02006KT 10SM OVC005 13/12 A2991 RMK AO2 SLP121 T01280117 10161 20128 50008 TSNO CHINO RWY12 VISNO RWY12 $

2010/08/08 05:56
KVPS 080556Z 32004KT 7SM R19/5500FT FEW020 SCT110 SCT250 25/25 A2991 RMK AO2A LTG DSNT S SLP128 T02500248 10257 20248 403380244 58004 $

2010/08/08 05:56
K79J 080556Z AUTO 00000KT 8SM CLR 26/23 A2991 RMK AO2 SLP123 6//// T02610233 10294 20261 403500261 58004 TSNO PNO $

2010/08/08 05:55
KBKF 080555Z 17011KT 25SM FEW070 SCT140 BKN220 20/14 A3005 RMK SLP097 60001 51008

2010/08/08 05:55
KDMA 080555Z AUTO 10010KT 10SM VCTS OVC095 24/17 A2999 RMK AO2 DZE0502 SLP096 P0000 60002 T02390171 10313 20231 51029 VISNO RWY12 CHINO RWY12 $

2010/08/08 05:55
KFCS 080555Z AUTO 11005KT 10SM FEW120 SCT220 20/15 A3009 RMK AO2 SLP066 T01980149 10290 20194 53016

2010/08/08 05:56
KFHU 080556Z AUTO 00000KT 10SM OVC110 19/17 A3012 RMK AO2 CIG 090 WEST SLP136 60130 T01890172 10267 20178 50007 TSNO $

2010/08/08 05:55
KGRK 080555Z 15010KT 7SM FEW200 30/23 A2989 RMK SLP098 51014

2010/08/08 05:56
KHLR 080556Z AUTO 15007KT 10SM CLR 30/23 A2991 RMK AO2 SLP118 T03000228 10367 20300 51012 $

2010/08/08 05:55
KHOP 080555Z AUTO 05004KT 10SM CLR 22/18 A2996 RMK AO2 SLP141 T02210176 10299 20219 403330185 51003

2010/08/08 05:55
KLSV 080555Z AUTO 16014KT 10SM CLR 33/14 A2976 RMK AO2 SLP047 T03300140 10368 20328 51013 PWINO

2010/08/08 05:55
OPLA 080555Z 23007KT 5000 FU SCT040 SCT100 34/26 Q1004 NOSIG

2010/08/08 06:00
OPNH 080600Z 31505KT 4000 FU SCT030 SCT100 32/28 Q1001

2010/08/08 06:00
OPPS 080600Z NW-10KT 0600 RAIN BKN006ST FEW030TCU SCT030 OVC100 25/25 Q1006.1

2010/08/08 06:00
OPRN 080600Z 23006KT 3000 DZ FEW010ST SCT030 BKN100 FEW025TCU 27/25 Q1006.6

2010/08/08 06:00
UTTT 080600Z 35004MPS CAVOK 35/10 Q1006 R08R/CLRD70 NOSIG

2010/08/08 06:00
KBML 080600Z AUTO 00000KT 1SM BR OVC001 07/07 A3003 RMK AO2 VIS 1/4V3

2010/08/08 06:00
KSTP 080600Z AUTO 20010KT 10SM FEW055 SCT090 SCT110 28/22 A2968 RMK AO2 TSE0554

2010/08/08 05:59
PAVL 080559Z AUTO 28006KT 3SM BR OVC001 09/09 A2959 RMK AO2 RAE54 TSNO

2010/08/08 05:53
KRIL 080553Z AUTO 00000KT 10SM OVC095 16/14 A3014 RMK AO2 SLP138 60003 T01610144 10194 20161 58000 TSNO

2010/08/08 06:00
SBFL 080600Z 26005KT CAVOK 14/13 Q1017

2010/08/08 05:55
KSNC 080555Z AUTO 19004KT 10SM CLR 19/ A3004 RMK AO2

2010/08/08 05:53
KGNT 080553Z AUTO 00000KT 15/14 A3022 RMK AO2 SLP138 60004 T01500139 10178 20150 50006 PWINO TSNO

2010/08/08 05:56
PHNY 080556Z AUTO 04007KT 10SM CLR 22/19 A3012 RMK AO2 TSNO 53011 60000 T02220188 10266 20222 SLP177 $

2010/08/08 05:56
KCAE 080556Z 00000KT 6SM BR CLR 26/24 A2993 RMK AO2 SLP132 T02560239 10306 20256 58004

2010/08/08 05:55
KCKP 080555Z AUTO 20007KT 10SM CLR 25/22 A2976 RMK AO2

2010/08/08 05:54
KSBN 080554Z 19008KT 9SM BKN080 OVC100 23/18 A2994 RMK AO2 SLP131 T02280178 10261 20222 56005

2010/08/08 05:55
KVTI 080555Z AUTO 16005KT 7SM CLR 22/22 A2983 RMK AO2

2010/08/08 05:54
KPZQ 080554Z AUTO 22005KT 2 1/2SM -RA SCT009 BKN036 OVC100 18/16 A2980 RMK AO2 VIS 1V5

2010/08/08 05:54
KACY 080554Z 16003KT 10SM CLR 22/20 A3003 RMK AO2 SLP166 T02220200 10256 20222 50003

2010/08/08 05:56
KCHS 080556Z 00000KT 7SM CLR 25/24 A2992 RMK AO2 SLP131 T02500239 10283 20250 58005

2010/08/08 05:52
KMWN 080552Z 26033KT 120SM FEW180 OVC250 04/03 RMK PTCHY VLY FG ALQDS BINOVC 10047 20036

2010/08/08 05:55
KBDH 080555Z AUTO 00000KT 7SM CLR 25/22 A2969 RMK AO2 LTG DSNT NE AND E

2010/08/08 05:55
KBNW 080555Z AUTO 20008KT 10SM CLR 26/21 A2981 RMK AO2

2010/08/08 05:54
KCAD 080554Z AUTO 21007KT 10SM SCT033 SCT048 SCT065 22/20 A2985 RMK AO2

2010/08/08 05:55
KCAV 080555Z AUTO 18008KT 10SM CLR 25/22 A2978 RMK AO2

2010/08/08 05:55
KCBF 080555Z AUTO 17006KT 10SM CLR 25/20 A2981 RMK AO2

2010/08/08 05:55
KCBG 080555Z AUTO 20005KT 10SM -TSRA SCT100 20/18 A2969 RMK AO2 LTG DSNT ALQDS

2010/08/08 05:54
KCDA 080554Z AUTO 00000KT 10SM CLR 08/06 A3002 RMK AO2

2010/08/08 05:55
KCFS 080555Z AUTO 20003KT 10SM SCT120 19/16 A2989 RMK AO2

2010/08/08 05:55
KCIN 080555Z AUTO 19009KT 10SM CLR 25/21 A2980 RMK AO2

2010/08/08 05:55
KCKC 080555Z AUTO 03003KT 10SM CLR 14/12 A2979 RMK AO2

2010/08/08 05:55
KCKN 080555Z AUTO 11004KT 10SM CLR 22/20 A2966 RMK AO2

2010/08/08 05:54
KCNB 080554Z AUTO 22009KT 10SM CLR 26/23 A2966 RMK AO2 T02620230 10310 20250 403260172

2010/08/08 05:55
KCNC 080555Z AUTO 19007KT 10SM CLR 23/20 A2985 RMK AO2

2010/08/08 05:56
KCOQ 080556Z AUTO 10009KT 1/2SM FG OVC002 19/17 A2972 RMK AO2 LTG DSNT S

2010/08/08 05:57
KCQM 080557Z AUTO 00000KT 10SM CLR 17/16 A2972 RMK AO2

2010/08/08 05:55
KCSQ 080555Z AUTO 18009KT 10SM CLR 23/22 A2985 RMK AO2

2010/08/08 05:55
KCVX 080555Z AUTO 19006KT 10SM SCT029 SCT036 22/19 A2979 RMK AO2

2010/08/08 05:55
KDEH 080555Z AUTO 20005KT 10SM CLR 25/21 A2982 RMK AO2

2010/08/08 05:55
KDNS 080555Z AUTO 18009G14KT 10SM CLR 26/21 A2981 RMK AO2

2010/08/08 05:57
KDRM 080557Z AUTO 16003KT 10SM CLR 18/17 A2977 RMK AO2

2010/08/08 05:55
KDTL 080555Z AUTO 00000KT 10SM CLR 20/16 A2968 RMK AO2

2010/08/08 05:54
KDUH 080554Z AUTO 20004KT 10SM CLR 20/15 A2995 RMK AO2

2010/08/08 05:55
KEBS 080555Z AUTO 19011KT 10SM SCT070 25/21 A2979 RMK AO2

2010/08/08 05:55
KEOK 080555Z AUTO 16004KT 7SM CLR 25/20 A2989 RMK AO2

2010/08/08 05:55
KERY 080555Z AUTO 23003KT 3SM BR OVC003 21/19 A2977 RMK AO2

2010/08/08 05:55
KFFL 080555Z AUTO 19005KT 7SM CLR 23/22 A2988 RMK AO2

2010/08/08 05:55
KFFX 080555Z AUTO 18003KT 10SM OVC050 22/20 A2986 RMK AO2

2010/08/08 05:54
KFKS 080554Z AUTO 20009KT 10SM OVC038 23/19 A2980 RMK AO2

2010/08/08 05:55
KRRL 080555Z AUTO 04007KT 10SM SCT010 BKN020 OVC055 20/18 A2983 RMK AO2 LTG DSNT ALQS T02000183 10226 20200 402680110

2010/08/08 05:55
KRYV 080555Z AUTO 18004KT 10SM CLR 22/18 A2986 RMK AO2

2010/08/08 05:59
KSAW 080559Z AUTO 28003KT 10SM SCT060 BKN120 17/14 A2975 RMK AO2

2010/08/08 05:55
KSDA 080555Z AUTO 16006KT 10SM CLR 26/22 A2982 RMK AO2

2010/08/08 05:55
KSHL 080555Z AUTO 20011KT 10SM SCT060 25/23 A2975 RMK AO2

2010/08/08 05:55
KSJX 080555Z AUTO 22008KT 10SM CLR 22/20 A2977 RMK AO2

2010/08/08 05:55
KSLH 080555Z AUTO 20003KT 10SM SCT040 SCT048 SCT065 20/18 A2977 RMK AO2

2010/08/08 05:55
KSTE 080555Z AUTO 19008G15KT 10SM SCT036 23/19 A2980 RMK AO2

2010/08/08 05:55
KSUW 080555Z AUTO 00000KT 7SM OVC002 18/17 A2970 RMK AO2 P0004

2010/08/08 05:55
KTNU 080555Z AUTO 20008KT 10SM CLR 25/20 A2984 RMK AO2

2010/08/08 05:54
KTTF 080554Z AUTO 21003KT 7SM CLR 21/17 A2994 RMK AO2

2010/08/08 05:55
KTVK 080555Z AUTO 10SM CLR 22/21 A2989 RMK AO2

2010/08/08 05:55
KUES 080555Z AUTO 21007KT 10SM CLR 21/17 A2987 RMK AO2 T02110166 10237 20208 402690134

2010/08/08 05:50
KUKT 080550Z AUTO 00000KT 10SM FEW060 SCT090 17/15 A3002 RMK AO1

2010/08/08 05:55
KUNU 080555Z AUTO 19007KT 10SM CLR 22/18 A2986 RMK AO2 T02160177 10247 20211 402770146

2010/08/08 05:54
KVLL 080554Z AUTO 22004KT 10SM SCT100 22/15 A2996 RMK AO2

2010/08/08 05:55
KY70 080555Z AUTO 21007KT 10SM CLR 21/18 A2989 RMK AO2 T02110178 10253 20211 402950117

2010/08/08 05:56
KFPK 080556Z AUTO 19004KT 10SM CLR 18/17 A2991 RMK AO2

2010/08/08 05:54
KFSE 080554Z AUTO 00000KT 5SM BR CLR 19/18 A2966 RMK AO2

2010/08/08 05:55
KFSW 080555Z AUTO 18007KT 10SM CLR 25/20 A2989 RMK AO2

2010/08/08 05:55
KFXY 080555Z AUTO 20009KT 10SM CLR 24/21 A2977 RMK AO2

2010/08/08 05:55
KGGI 080555Z AUTO 20007KT 10SM CLR 25/21 A2985 RMK AO2

2010/08/08 05:55
KGOV 080555Z AUTO 21004KT 10SM SCT075 SCT110 20/18 A2984 RMK AO2

2010/08/08 05:55
KHAF 080555Z AUTO 15007KT 1 1/2SM BR OVC003 12/12 A2989 RMK AO2

2010/08/08 05:55
KHAI 080555Z AUTO 19005KT 7SM CLR 19/18 A2994 RMK AO2

2010/08/08 05:55
KHNR 080555Z AUTO 17008KT 10SM CLR 23/22 A2984 RMK AO2

2010/08/08 05:54
KHYX 080554Z AUTO 21009KT 10SM SCT110 21/16 A2988 RMK AO2

2010/08/08 05:55
KNBG 080555Z AUTO 00000KT 10SM CLR 28/24 A2993 RMK AO2 SLP134 T02830244 10306 20272 403560256 50003 PWINO $

2010/08/08 05:56
KNJK 080556Z AUTO 28006KT 10SM CLR 29/02 A2970 RMK AO2 SLP071 T02940017 10406 20294 51020 TSNO

2010/08/08 05:57
KNJM 080557Z AUTO 04004KT 10SM CLR 25/24 A2995 RMK AO2 SLP145 T02500239 10267 20250 58004

2010/08/08 05:56
KNUQ 080556Z 06003KT 10SM CLR 15/12 A2985 RMK AO2 SLP112 T01500122 10217 20144 50009

2010/08/08 05:56
K79J 080556Z AUTO 00000KT 8SM CLR 26/23 A2991 RMK AO2 SLP123 6//// T02610233 10294 20261 403500261 58004 TSNO PNO $

2010/08/08 05:55
KLUF 080555Z AUTO 00000KT 10SM BKN150 30/18 A2982 RMK AO2 SLP074 T02960181 10336 20287 51014 $

2010/08/08 05:56
KNBC 080556Z AUTO 00000KT 7SM CLR 26/24 A2992 RMK AO2 SLP131 T02560239 10289 20250 58006

2010/08/08 05:56
KNFL 080556Z AUTO 19006KT 10SM CLR 22/02 A2987 RMK AO2 SLP090 T02170022 10344 20206 53025 TSNO

2010/08/08 05:56
KNMM 080556Z AUTO 00000KT 10SM CLR 25/23 A2991 RMK AO2 SLP134 T02500233 10261 20244 403560239 56006 $

2010/08/08 05:56
KNRS 080556Z AUTO 23004KT 10SM OVC017 16/13 A2993 RMK AO2 SLP136 T01560128 10183 20156 51015 TSNO $

2010/08/08 05:56
KNXP 080556Z AUTO 22013KT CLR 28/01 A2987 RMK AO2 SLP075 T02780011 10356 20278 51012 $

2010/08/08 05:56
KNXX 080556Z AUTO 00000KT 10SM FEW095 22/15 A3002 RMK AO2 SLP170 T02170150 10267 20217 50005 $

2010/08/08 05:55
KTBN 080555Z AUTO 15004KT 10SM CLR 23/ A2995 RMK AO2 SLP120 60000 T0225 10301 20225 403240198 50008 $

2010/08/08 05:56
PHBK 080556Z AUTO 28005KT 10SM FEW049 28/20 A3005 RMK AO2 SLP179 T02830200 10306 20283 53013 TSNO $

2010/08/08 05:56
KHLR 080556Z AUTO 15007KT 10SM CLR 30/23 A2991 RMK AO2 SLP118 T03000228 10367 20300 51012 $

2010/08/08 05:55
PGUA 080555Z AUTO 06011KT 10SM CLR 29/25 A2980 RMK AO2 SLP073 T02910254 10297 20283 56010 VISNO RWY24L $

2010/08/08 05:56
PHBK 080556Z AUTO 28005KT 10SM FEW049 28/20 A3005 RMK AO2 SLP179 T02830200 10306 20283 53013 TSNO $

2010/08/08 05:55
PHHI 080555Z AUTO 07007KT 10SM SCT048 BKN055 24/19 A3009 RMK AO2 SLP177 60000 T02420190 10281 20241 52012 $

2010/08/08 05:55
KADW 080555Z AUTO 18004KT 10SM CLR 20/17 A3000 RMK AO2 SLP161 T02040165 10258 20197 51004 $

2010/08/08 05:55
KMCF 080555Z AUTO 00000KT 10SM CLR 29/26 A2994 RMK AO2 SLP142 T02900265 10298 20290 58003

2010/08/08 05:56
KNBC 080556Z AUTO 00000KT 7SM CLR 26/24 A2992 RMK AO2 SLP131 T02560239 10289 20250 58006

2010/08/08 05:55
KNBG 080555Z AUTO 00000KT 10SM CLR 28/24 A2993 RMK AO2 SLP134 T02830244 10306 20272 403560256 50003 PWINO $

2010/08/08 05:52
KNHK 080552Z AUTO 00000KT 10SM CLR 20/18 A2999 RMK AO2 SLP155 T02000178 10261 20200 50002

2010/08/08 05:57
KNJM 080557Z AUTO 04004KT 10SM CLR 25/24 A2995 RMK AO2 SLP145 T02500239 10267 20250 58004

2010/08/08 05:56
KNPA 080556Z AUTO 22003KT 10SM TS BKN100 26/24 A2989 RMK AO2 TSE0457B05E32B39 SLP123 T02610239 10283 20256 403500256 58011

2010/08/08 05:56
KNTU 080556Z 00000KT 10SM BKN010 BKN060 24/23 A2999 RMK AO2 SLP156 T02390233 10256 20239 53001 $

2010/08/08 05:55
KPAM 080555Z AUTO 00000KT 9SM CLR 26/25 A2990 RMK AO2 SLP126 60034 T02560253 10279 20253 403340253 58008 $

2010/08/08 05:56
KVPS 080556Z 32004KT 7SM R19/5500FT FEW020 SCT110 SCT250 25/25 A2991 RMK AO2A LTG DSNT S SLP128 T02500248 10257 20248 403380244 58004 $

2010/08/08 05:55
KDMA 080555Z AUTO 10010KT 10SM VCTS OVC095 24/17 A2999 RMK AO2 DZE0502 SLP096 P0000 60002 T02390171 10313 20231 51029 VISNO RWY12 CHINO RWY12 $

2010/08/08 05:55
KNBG 080555Z AUTO 00000KT 10SM CLR 28/24 A2993 RMK AO2 SLP134 T02830244 10306 20272 403560256 50003 PWINO $

2010/08/08 05:54
KNFG 080554Z AUTO 00000KT OVC015 15/12 A2992 RMK AO2 SLP131 T01500122 10206 20122 51019 TSNO $

2010/08/08 05:56
KNMM 080556Z AUTO 00000KT 10SM CLR 25/23 A2991 RMK AO2 SLP134 T02500233 10261 20244 403560239 56006 $

2010/08/08 06:00
KNEL 080600Z AUTO 00000KT 8SM CLR 18/16 A3002 RMK AO2 SLP162 T01830161 10250 20183 50009 $

2010/08/08 05:50
LTAD 080550Z VRB02KT CAVOK 29/08 Q1012 NOSIG RMK RWY29 VRB03KT

2010/08/08 05:50
LTAG 080550Z 14006KT 9999 SCT035 30/23 Q1008 NOSIG

2010/08/08 05:50
LTAH 080550Z 33009KT 300V360 CAVOK 25/15 Q1015 RMK RWY13 33012KT

2010/08/08 05:50
LTAJ 080550Z 29010KT CAVOK 30/08 Q1011 NOSIG

2010/08/08 05:50
LTAN 080550Z 17004KT CAVOK 27/10 Q1013 NOSIG RMK RWY19 14005KT

2010/08/08 05:50
LTAN 080550Z 17004KT CAVOK 27/10 Q1013 NOSIG

2010/08/08 05:50
LTAP 080550Z 03010KT 9999 FEW040 32/04 Q1010 NOSIG RMK RWY23 03009KT

2010/08/08 05:50
LTAT 080550Z 08002KT CAVOK 28/02 Q1012 NOSIG RMK RWY03 VRB02KT

2010/08/08 05:50
LTAU 080550Z 00000KT CAVOK 25/13 Q1014 NOSIG RMK RWY07 04003KT 340V090

2010/08/08 05:50
LTAU 080550Z 00000KT CAVOK 25/13 Q1014 NOSIG

2010/08/08 05:50
LTBF 080550Z VRB02KT CAVOK 26/21 Q1011 NOSIG RMK RWY18 09003KT 050V130

2010/08/08 05:50
LTBG 080550Z 04007KT 020V080 CAVOK 28/23 Q1010 NOSIG RMK RWY18 04007KT 010V070

2010/08/08 05:50
LTBI 080550Z 26010KT CAVOK 25/15 Q1013 NOSIG RMK RWY09 25011KT

2010/08/08 05:50
LTBL 080550Z 00000KT CAVOK 27/22 Q1010 NOSIG RMK RWY17 VRB01KT

2010/08/08 05:50
LTBQ 080550Z 28006KT 250V310 9999 SCT013 27/23 Q1010 NOSIG RMK RWY09 26005KT 220V300

2010/08/08 05:50
LTCC 080550Z VRB05KT 040V110 CAVOK 31/06 Q1010 NOSIG RMK RWY16 VRB03KT

2010/08/08 05:50
LTCC 080550Z VRB05KT 040V110 CAVOK 31/06 Q1010 NOSIG

2010/08/08 05:50
LTCE 080550Z VRB02KT 9999 FEW030 24/08 Q1020 NOSIG RMK RWY08R 04003KT 350V090 RWY26R /////KT RWY08L 08003KT 040V150

2010/08/08 05:50
LTCE 080550Z VRB02KT 9999 FEW030 24/08 Q1020 NOSIG

2010/08/08 05:50
LTCG 080550Z 29005KT 250V330 9999 FEW020 SCT033 29/23 Q1009 NOSIG

2010/08/08 05:50
LTCI 080550Z 25005KT CAVOK 24/13 Q1019 NOSIG

2010/08/08 05:50
LTFE 080550Z VRB02KT CAVOK 27/22 Q1009 NOSIG

2010/08/08 06:01
PADM 080601Z AUTO 19005KT 7SM BKN008 OVC015 12/11 A2971 RMK AO2 TSNO 53001 60001 T01160105 10133 20116 CIG 006V012 RAB0519E0544 P0000 SLP048 $

2010/08/08 06:04
KBAX 080604Z AUTO 19004KT 10SM SCT047 SCT050 SCT080 19/17 A2988 RMK AO2

2010/08/08 06:02
KCFE 080602Z AUTO 00000KT 10SM VCTS BKN043 BKN050 OVC100 25/22 A2970 RMK AO2 LTG DSNT W THRU E T02540215

2010/08/08 05:55
KINL 080555Z AUTO 00000KT 10SM FEW090 15/14 A2972 RMK AO2 SLP063 T01500144 10211 20150 402440067 53001

2010/08/08 05:53
K6R6 080553Z AUTO 10005KT 28/18 A2991 RMK AO2 SLP088 T02780178 10339 20278 403560211 51014 PWINO TSNO

2010/08/08 05:56
KBIH 080556Z AUTO 15011KT 10SM CLR 24/00 A2988 RMK AO2 SLP061 T02390000 10333 20239 51019 TSNO

2010/08/08 05:56
KMEH 080556Z AUTO 00000KT 10SM CLR 14/08 A2995 RMK AO2 SLP120 T01390083 10244 20139 51013 TSNO

2010/08/08 05:54
KWAL 080554Z AUTO 00000KT 10SM CLR 23/21 A3001 RMK AO2 SLP157 T02280211 10250 20222 58001 TSNO

2010/08/08 05:55
KINL 080555Z AUTO 00000KT 10SM FEW090 15/14 A2972 RMK AO2 SLP063 T01500144 10211 20150 402440067 53001

2010/08/08 05:50
LTAC 080550Z 01009KT CAVOK 30/04 Q1013 NOSIG

2010/08/08 05:50
LTAF 080550Z /////KT 5000 HZ SCT035 30/22 Q1008 BECMG 9999 NSW

2010/08/08 05:50
LTAI 080550Z VRB01KT 9999 FEW030 30/18 Q1008 NOSIG

2010/08/08 05:50
LTBA 080550Z VRB06KT 9999 SCT035 28/23 Q1010 NOSIG

2010/08/08 05:50
LTBJ 080550Z VRB02KT CAVOK 26/20 Q1010 NOSIG

2010/08/08 05:50
LTBS 080550Z 01005KT 340V050 CAVOK 28/22 Q1008 BECMG 21012KT

2010/08/08 05:56
KPRN 080556Z AUTO 00000KT 9SM CLR 26/24 A2992 RMK AO2 SLP126 60002 T02560244 10289 20250 55011 $

2010/08/08 05:55
K4M9 080555Z AUTO 04004KT 10SM 24/21 A2992 RMK AO2

2010/08/08 05:55
KBVU 080555Z AUTO 16013KT 10SM CLR 31/13 A2982 RMK AO2 LTG DSNT SW

2010/08/08 05:52
KGLW 080552Z AUTO 00000KT 5SM BR CLR 18/17 A2998 RMK AO2 T01840173 10270 20181 403080176

2010/08/08 05:55
KJVL 080555Z AUTO 20009KT 10SM CLR 23/18 A2986 RMK AO2 T02320182 10270 20232 402940167

2010/08/08 05:55
KLNL 080555Z AUTO 22003KT 7SM TSRA SCT005 BKN020 OVC095 19/18 A2982 RMK AO2 LTG DSNT ALQS P0006 60022 T01850176 10207 20185

2010/08/08 05:55
KLUM 080555Z AUTO 20006KT 10SM VCTS SCT065 SCT080 25/21 A2973 RMK AO2 LTG DSNT N AND W

2010/08/08 05:55
KMAN 080555Z AUTO 33005KT 10SM CLR 21/10 A2978 RMK AO1

2010/08/08 05:55
KMCJ 080555Z AUTO 22004KT 10SM CLR 28/25 A2989 RMK AO1

2010/08/08 05:55
KMDZ 080555Z AUTO 18009KT 10SM SCT012 SCT065 23/21 A2977 RMK AO2

2010/08/08 05:55
KMRJ 080555Z AUTO 20010KT 10SM CLR 22/19 A2985 RMK AO2 T02230192 10267 20211 402820180

2010/08/08 05:55
KMWC 080555Z AUTO 22006KT 10SM CLR 21/16 A2986 RMK AO2

2010/08/08 05:55
KOEO 080555Z AUTO 07007KT 4SM +RA SCT015 SCT037 BKN060 23/21 A2971 RMK AO2 P0009

2010/08/08 05:55
KPBH 080555Z AUTO 30004KT 7SM +TSRA BKN005 BKN014 OVC038 20/19 A2983 RMK AO2 LTG DSNT ALQDS

2010/08/08 05:55
KPCZ 080555Z AUTO 20007KT 10SM SCT028 24/19 A2979 RMK AO2 T02410192 10275 20238 403050139

2010/08/08 05:52
KPDC 080552Z AUTO 17007KT 10SM CLR 25/22 A2980 RMK AO2 T02450219 10281 20245 402950176

2010/08/08 05:55
KRCX 080555Z AUTO 33012G34KT 1SM +TSRA BKN005 OVC017 21/20 A2980 RMK AO2 VIS 1/2V5 LTG DSNT ALQS P0040 60040 T02120196 10245 20212 402800140

2010/08/08 05:56
KRNH 080556Z AUTO 35007KT 10SM SCT020 BKN046 BKN050 25/22 A2972 RMK AO2 T02510217 10284 20251 402850152

2010/08/08 05:55
KRPD 080555Z AUTO 23003KT 7SM VCTSRA SCT031 BKN050 OVC070 19/18 A2976 RMK AO2 LTG DSNT ALQS P0030 60030 T01920175 10255 20191 402840145

2010/08/08 05:58
PADU 080558Z AUTO 17015G19KT 10SM -RA BKN034 OVC044 16/13 A2957 RMK AO2 SLP017 P0003 60006 T01560128 10183 20144 58038

2010/08/08 05:58
PAGA 080558Z AUTO 20003KT 10SM FEW027 BKN039 OVC047 14/12 A2966 RMK AO2 SLPNO 6//// T01390117 10161 20133 51010

2010/08/08 05:56
PAJZ 080556Z AUTO 20012KT 10SM FEW015 OVC046 12/10 A2980 RMK AO2 PWINO TSNO 53007 T01160100 10161 20116 SLP079 $

2010/08/08 05:56
PAKI 080556Z AUTO 15012KT 10SM +RA OVC012 10/09 A2964 RMK AO2 TSNO 58016 60000 T01000094 10111 20100 P0000 SLP040 $

2010/08/08 05:56
PALG 080556Z AUTO 00000KT 10SM BKN009 BKN014 OVC024 12/11 A2970 RMK AO2 TSNO 53001 60003 T01160105 10127 20116 CIG 006V012 SLP062 $

2010/08/08 05:58
PATE 080558Z AUTO 36009KT 10SM FEW070 14/11 A2960 RMK AO2 RAE04 SLP034 P0000 60000 T01390106 10161 20139 55000

2010/08/08 05:56
KNSE 080556Z AUTO 00000KT 3SM BR SCT002 26/24 A2991 RMK AO2 SLP114 60011 T02560239 10272 20256 403720256 57003 $

2010/08/08 05:55
KTTS 080555Z 24005KT 10SM FEW020 SCT140 OVC200 27/26 A2994 RMK SLP139 1CU /0/ 3AC 5CS /7/ 58007

2010/08/08 05:56
KNSE 080556Z AUTO 00000KT 3SM BR SCT002 26/24 A2991 RMK AO2 SLP114 60011 T02560239 10272 20256 403720256 57003 $

2010/08/08 05:55
KTTS 080555Z 24005KT 10SM FEW020 SCT140 OVC200 27/26 A2994 RMK SLP139 1CU /0/ 3AC 5CS /7/ 58007

2010/08/08 05:56
KIWA 080556Z AUTO 02008KT 10SM CLR 32/18 A2985 RMK AO2 LTG DSNT N

2010/08/08 05:56
PPIZ 080556Z AUTO 07014KT 10SM CLR 08/06 A2971 RMK AO2 TSNO 53007 60000 T00830055 10100 20083 SLP066 $

2010/08/08 05:56
K4I3 080556Z AUTO 00000KT 10SM CLR 18/16 A3002 RMK AO2

2010/08/08 05:55
KACB 080555Z AUTO 18003KT 10SM OVC032 23/19 A2980 RMK AO2

2010/08/08 05:58
KACQ 080558Z AUTO 20013G18KT 10SM BKN047 BKN055 BKN070 25/22 A2975 RMK AO2 LTG DSNT NE

2010/08/08 05:57
KADC 080557Z AUTO 06003KT 10SM CLR 17/17 A2968 RMK AO2

2010/08/08 05:54
KAMN 080554Z AUTO 20005KT 10SM CLR 20/17 A2987 RMK AO2

2010/08/08 05:55
KAUM 080555Z AUTO 19007KT 7SM BKN060 23/21 A2976 RMK AO2 LTG DSNT N

2010/08/08 05:55
KAWG 080555Z AUTO 19006KT 7SM CLR 23/21 A2987 RMK AO2

2010/08/08 05:55
KAXA 080555Z AUTO 19010G15KT 10SM CLR 25/22 A2976 RMK AO2

2010/08/08 05:55
KICL 080555Z AUTO 18004KT 10SM CLR 26/21 A2983 RMK AO2

2010/08/08 05:55
KIIB 080555Z AUTO 17006KT 7SM CLR 22/21 A2983 RMK AO1

2010/08/08 05:55
KIKV 080555Z AUTO 20010KT 10SM CLR 26/21 A2982 RMK AO2

2010/08/08 05:55
KIRS 080555Z AUTO 19005KT 7SM CLR 19/17 A2994 RMK AO2

2010/08/08 05:55
KISQ 080555Z AUTO 22003KT 10SM BKN110 22/19 A2975 RMK AO2

2010/08/08 05:55
KJYG 080555Z AUTO 18006KT 10SM CLR 26/26 A2971 RMK AO2 LTG DSNT NE

2010/08/08 05:55
KJYM 080555Z AUTO 19005KT 7SM CLR 20/17 A2996 RMK AO2

2010/08/08 05:55
KLDM 080555Z AUTO 23012G17KT 10SM SCT039 24/21 A2983 RMK AO2

2010/08/08 05:55
KLRJ 080555Z AUTO 19007KT 10SM SCT075 25/22 A2975 RMK AO2

2010/08/08 05:56
KLWA 080556Z AUTO 20008KT 10SM CLR 22/17 A2990 RMK AO2

2010/08/08 05:55
KMCD 080555Z AUTO 20003KT 10SM CLR 21/17 A2977 RMK AO2

2010/08/08 05:54
KMGN 080554Z AUTO 00000KT 10SM OVC025 22/18 A2978 RMK AO2

2010/08/08 05:55
KMOP 080555Z AUTO 19003KT 10SM SCT050 BKN100 21/20 A2987 RMK AO2

2010/08/08 05:55
KMPZ 080555Z AUTO 19007KT 7SM CLR 23/20 A2988 RMK AO2

2010/08/08 05:55
KMUT 080555Z AUTO 18003KT 7SM CLR 23/21 A2987 RMK AO2

2010/08/08 05:55
KMXO 080555Z AUTO 15005KT 7SM CLR 22/20 A2985 RMK AO2

2010/08/08 05:55
KOEB 080555Z AUTO 21005KT 10SM CLR 21/17 A2994 RMK AO2

2010/08/08 05:55
KOOA 080555Z AUTO 18005KT 10SM CLR 23/21 A2986 RMK AO2

2010/08/08 05:55
KORC 080555Z AUTO 19008KT 10SM SCT065 25/25 A2975 RMK AO2

2010/08/08 05:56
KOSC 080556Z AUTO 21006KT 10SM SCT065 BKN110 20/17 A2984 RMK AO2

2010/08/08 05:55
KOXV 080555Z AUTO 19005KT 10SM CLR 25/20 A2985 RMK AO2

2010/08/08 05:55
KOZW 080555Z AUTO 21004KT 7SM CLR 20/16 A2993 RMK AO2

2010/08/08 05:55
KPEA 080555Z AUTO 10SM CLR A2985 RMK AO2

2010/08/08 05:55
KPHN 080555Z AUTO 21004KT 10SM BKN090 OVC110 20/16 A2992 RMK AO2

2010/08/08 05:55
KPRO 080555Z AUTO 18008KT 10SM SCT085 23/23 A2980 RMK AO2

2010/08/08 05:55
KRDK 080555Z AUTO 17004KT 7SM SCT090 26/22 A2981 RMK AO2

2010/08/08 05:55
KRGK 080555Z AUTO 23008G15KT 10SM VCTS CLR 27/22 A2970 RMK AO2 LTG DSNT N AND NW

2010/08/08 05:55
KRMY 080555Z AUTO 18003KT 10SM CLR 20/17 A2993 RMK AO2

2010/08/08 05:55
KRNP 080555Z AUTO 20006KT 10SM BKN120 21/17 A2990 RMK AO2

2010/08/08 05:54
KRQB 080554Z AUTO 19005KT 10SM OVC050 22/18 A2987 RMK AO2

2010/08/08 05:58
PAGA 080558Z AUTO 20003KT 10SM FEW027 BKN039 OVC047 14/12 A2966 RMK AO2 SLPNO 6//// T01390117 10161 20133 51010

2010/08/08 05:55
KHXD 080555Z AUTO 00000KT 2 1/2SM BR CLR 25/25 A2992 RMK AO2 P0000

2010/08/08 05:56
KNSE 080556Z AUTO 00000KT 3SM BR SCT002 26/24 A2991 RMK AO2 SLP114 60011 T02560239 10272 20256 403720256 57003 $

2010/08/08 06:00
KRHP 080600Z AUTO 00000KT 18/17 A3004 RMK AO2 PWINO

2010/08/08 05:55
KSPF 080555Z AUTO 22006KT 10SM CLR 18/13 A2993 RMK AO2

2010/08/08 05:55
KTTS 080555Z 24005KT 10SM FEW020 SCT140 OVC200 27/26 A2994 RMK SLP139 1CU /0/ 3AC 5CS /7/ 58007

2010/08/08 05:59
KLAX 080559Z 26005KT 9SM FEW014 16/12 A2991 RMK AO2

2010/08/08 06:00
SBTE 080600Z 20001KT CAVOK 24/22 Q1013

2010/08/08 05:50
EGDR 080550Z 34004KT 9999 FEW025 SCT200 13/12 Q1022 BLU

2010/08/08 05:50
EGOM 080550Z AUTO 06001KT 9999NDV // SCT021/// SCT028/// BKN036/// 11/11 Q1019

2010/08/08 05:50
EGOP 080550Z AUTO 33008KT 0450NDV // BKN001/// 12/12 Q1022

2010/08/08 05:50
EGXW 080550Z 33009KT CAVOK 12/11 Q1019 BLU

2010/08/08 05:50
EGXX 080550Z AUTO 33012KT 9999NDV // NCD 15/13 Q1019

2010/08/08 06:00
SBRF 080600Z 25004KT 9999 SCT020 20/18 Q1016

2010/08/08 05:50
EDHL 080550Z 25002KT 8000 BKN042 17/17 Q1014 RMK B

2010/08/08 05:50
EDLP 080550Z 13003KT 070V180 CAVOK 16/14 Q1014 RMK RWY24 TRL60 PB ATIS H

2010/08/08 05:50
EDLW 080550Z VRB03KT 5000 -SHRA NSC 17/16 Q1015 RMK ATIS F

2010/08/08 05:50
EDNY 080550Z VRB02KT 9999 FEW075 13/12 Q1018 RMK ATIS E

2010/08/08 05:50
LGKP 080550Z 32020KT 9999 FEW018 28/20 Q1008

2010/08/08 05:50
LGPZ 080550Z 00000KT 9999 FEW008 24/20 Q1013 NOSIG BLU

2010/08/08 05:50
LGRX 080550Z 00000KT CAVOK 24/20 Q1011 NOSIG BLU

2010/08/08 05:50
LGSR 080550Z 36005KT CAVOK 27/20 Q1008 NOSIG BLU

2010/08/08 05:50
LCEN 080550Z 31005KT 9999 FEW025 28/20 Q1009 NOSIG

2010/08/08 05:50
EGHD 080550Z 00000KT 9999 FEW012 12/11 Q1022

2010/08/08 05:50
EGNH 080550Z 28006KT 9999 SCT008 BKN015 16/14 Q1020

2010/08/08 05:50
EGNJ 080550Z 25004KT 9999 FEW012 13/11 Q1020

2010/08/08 05:50
EGPA 080550Z AUTO 30005KT 9999NDV BKN020/// 13/12 Q1019

2010/08/08 05:50
EGPC 080550Z AUTO 25004KT 9999NDV SCT029/// BKN036/// 11/11 Q1019

2010/08/08 05:50
EGPC 080550Z AUTO 25004KT 9999NDV SCT029/// BKN036/// 11/11 Q1019

2010/08/08 05:50
EGPE 080550Z 00000KT 9999 FEW030 BKN040 12/10 Q1020

2010/08/08 05:50
EGPL 080550Z AUTO 18006KT 9999NDV FEW014/// SCT020/// 12/11 Q1019

2010/08/08 05:50
EGPM 080550Z AUTO 28010KT 9999NDV OVC015/// 12/10 Q1017

2010/08/08 05:50
EGPO 080550Z AUTO 00000KT 9999NDV NCD 10/08 Q1019

2010/08/08 06:00
SBSN 080600Z 10002KT 9999 FEW015 24/22 Q1012

2010/08/08 06:00
SBGO 080600Z 00000KT CAVOK 16/12 Q1018 

2010/08/08 06:00
SBCG 080600Z 08011KT CAVOK 17/06 Q1017

2010/08/08 06:00
SBVT 080600Z 33002KT CAVOK 17/15 Q1019

2010/08/08 06:00
SBMN 080600Z 32004KT CAVOK 27/24 Q1012

2010/08/08 06:00
OSDI 080600Z 00000KT CAVOK 27/17 Q1011

2010/08/08 06:00
OSAP 080600Z 27006KT CAVOK 31/09 Q1009

2010/08/08 06:00
OSLK 080600Z 03002KT 7000 29/22 Q1008

2010/08/08 06:00
OSDZ 080600Z 32012KT CAVOK 33/10 Q1008

2010/08/08 06:00
OSKL 080600Z 30015KT CAVOK 37/M00 Q1007

2010/08/08 06:00
SVMI 080600Z 11001KT 9999 FEW016 27/23 Q1012 NOSIG

2010/08/08 06:00
LDSP 080600Z VRB02KT CAVOK 24/12 Q1016 NOSIG 

2010/08/08 06:00
LDPL 080600Z 00000KT CAVOK 22/15 Q1017 NOSIG 

2010/08/08 06:00
LDDU 080600Z 03014KT 350V060 CAVOK 23/12 Q1015 NOSIG 

2010/08/08 06:00
LDZA 080600Z VRB01KT 9999 FEW004 18/16 Q1018 NOSIG 

2010/08/08 06:00
LDZD 080600Z VRB01KT CAVOK 22/18 Q1017 

2010/08/08 06:00
LDRI 080600Z VRB01KT CAVOK 22/14 Q1017

2010/08/08 06:00
LDOS 080600Z VRB01KT 9999 FEW033 19/17 Q1018

2010/08/08 06:00
OJAI 080600Z 00000KT 7000 NSC 27/14 Q1013 NOSIG

2010/08/08 06:00
OJAM 080600Z 03006KT 4000 HZ NSC 31/07 Q1013 NOSIG

2010/08/08 06:00
UBBY 080600Z VRB03KT 9999 FEW100 28/15 Q1016 NOSIG RMK R33/CLRD70 G/O

2010/08/08 06:00
OJAI 080600Z 00000KT 7000 NSC 27/14 Q1013 NOSIG

2010/08/08 06:00
OJAM 080600Z 03006KT 4000 HZ NSC 31/07 Q1013 NOSIG

2010/08/08 06:00
WSSL 080600Z 17006KT 130V210 9999 FEW020 FEW022TCU BKN300 32/22 Q1008 RMK 0530Z Q1009 

2010/08/08 06:00
LZIB 080600Z 28009KT 9999 FEW010 SCT060 BKN100 17/14 Q1016

2010/08/08 06:00
LZKZ 080600Z 25006KT 9999 BKN007 16/14 Q1016 NOSIG

2010/08/08 06:00
LZTT 080600Z 25009KT 9999 FEW016 16/12 Q1016 NOSIG

2010/08/08 05:50
EGPU 080550Z AUTO 22003KT 9999NDV // FEW011/// 11/11 Q1020

2010/08/08 06:00
LZPP 080600Z 19003KT 5000 -RA SCT005 OVC010 16/15 Q1016

2010/08/08 06:00
LZSL 080600Z 06002KT 9999 SCT006 OVC020 15/14 Q1015

2010/08/08 06:00
LZZI 080600Z VRB02KT 9999 SCT007 BKN020 BKN035 16/14 Q1016

2010/08/08 06:00
LHBP 080600Z 25006KT 230V290 9999 -RA BKN012 OVC022 17/15 Q1017 NOSIG

2010/08/08 06:00
DTTB 080600Z 00000KT CAVOK 22/18 Q1019

2010/08/08 06:00
DTTD 080600Z 08002KT 9999 FEW026 24/16 Q1017

2010/08/08 06:00
DTTK 080600Z 03002KT 9999 FEW023 22/16 Q1018

2010/08/08 06:00
DTTL 080600Z 31004KT CAVOK 23/18 Q1018

2010/08/08 06:00
DTTN 080600Z 00000KT 9999 FEW020 18/14 Q1019

2010/08/08 06:00
DTTR 080600Z 15008KT CAVOK 28/03 Q1016

2010/08/08 05:50
EGDX 080550Z AUTO 04003KT 9999NDV // OVC034/// 12/10 Q1021

2010/08/08 05:50
EGXD 080550Z AUTO 33005KT 9999NDV // OVC060/// 13/13 Q1020

2010/08/08 05:55
EBBL 080555Z 25005KT 4500 BR SCT004 OVC006 15/15 Q1016 YLO

2010/08/08 05:55
EBFN 080555Z 33007KT 9999 FEW010 SCT018 18/16 Q1017 WHT

2010/08/08 05:55
EBFS 080555Z 25006KT 3000 -DZ BR SCT003 BKN005 BKN007 13/13 Q1017 YLO

2010/08/08 05:50
EDHL 080550Z 25002KT 8000 BKN042 17/17 Q1014 RMK B

2010/08/08 05:50
EDLN 080550Z 29008KT 3000 -RA BR SCT008 BKN035 16/16 Q1015 RERA RMK ATIS C

2010/08/08 05:50
EDLP 080550Z 13003KT 070V180 CAVOK 16/14 Q1014 RMK RWY24 TRL60 PB ATIS H

2010/08/08 05:50
EDLW 080550Z VRB03KT 5000 -SHRA NSC 17/16 Q1015 RMK ATIS F

2010/08/08 05:50
EDNY 080550Z VRB02KT 9999 FEW075 13/12 Q1018 RMK ATIS E

2010/08/08 05:50
EDXW 080550Z AUTO 29005KT 3400NDV -DZ FEW002/// SCT010/// 17/15 Q1014 RMK ATIS INFO B

2010/08/08 05:55
EHAM 080555Z 32003KT 6000 FEW015 16/16 Q1015 BECMG 9999

2010/08/08 05:55
EHGG 080555Z AUTO 20003KT 160V230 3700NDV BR BKN003 OVC004 16/16 Q1014 BECMG 5000 NSW SCT004

2010/08/08 05:55
EHKD 080555Z AUTO 36004KT 9999NDV FEW021/// BKN066/// OVC087/// 17/15 Q1015 BLU WHT TEMPO GRN SCT018 BKN040 TEMPO SCT008 SCT015CB BKN040

2010/08/08 05:55
EHRD 080555Z VRB02KT 4000 BR FEW011 17/17 Q1015 BECMG 9999 NSW

2010/08/08 05:55
ETIK 080555Z 00000KT 9999 BKN110 14/14 A3005 RMK AO2A SLP165 60000 T01430141 10143 20108 58002 $

2010/08/08 06:00
UKBB 080600Z VRB01MPS CAVOK 29/15 Q1014 88CLRD95 NOSIG

2010/08/08 06:00
UKHH 080600Z 07003MPS CAVOK 30/10 Q1017 080///65 NOSIG

2010/08/08 06:00
UKOO 080600Z VRB02MPS CAVOK 30/20 Q1012 34090070 NOSIG

2010/08/08 06:00
UKDE 080600Z 13005MPS 070V180 CAVOK 32/11 Q1015 20CLRD70 NOSIG

2010/08/08 06:00
UKDD 080600Z 09003MPS CAVOK 30/14 Q1015 08090070 NOSIG

2010/08/08 06:00
UKFF 080600Z 06002MPS 030V100 CAVOK 32/13 Q1011 01010070 NOSIG

2010/08/08 06:00
UKLL 080600Z 00000MPS CAVOK 21/19 Q1015 13210360 NOSIG

2010/08/08 06:00
UKCC 080600Z 10005MPS CAVOK 34/10 Q1016 08090070 NOSIG

2010/08/08 06:00
UKDR 080600Z 10004MPS 070V140 CAVOK 30/16 Q1015 1809//70 NOSIG

2010/08/08 06:00
UBBG 080600Z 34004KT 9999 FEW100 29/15 Q1013 NOSIG RMK R30R/CLRD70 

2010/08/08 06:00
SCAR 080600Z 00000KT 9999 OVC021 14/08 Q1016

2010/08/08 06:00
SCDA 080600Z 26004KT 9999 OVC022 13/09 Q1017

2010/08/08 06:00
SCFA 080600Z 10003KT 9999 SCT014 10/08 Q1016

2010/08/08 06:00
SCSE 080600Z 15006KT CAVOK 07/06 Q1020 NEFO PLAYA SKC

2010/08/08 06:00
SCEL 080600Z VRB02KT CAVOK 03/01 Q1025 NOSIG

2010/08/08 06:00
SCTC 080600Z 00000KT 0600 FG SCT015 03/03 Q1029

2010/08/08 06:00
SCTE 080600Z 36003KT 9999 SCT070 02/02 Q1028 NOSIG

2010/08/08 06:00
SCBA 080600Z AUTO 30018KT CAVOK 03/00 Q1014

2010/08/08 06:00
SCCI 080600Z 27006KT 9999 BKN016 OVC060 02/M00 Q0996 NOSIG

2010/08/08 06:00
VHHH 080600Z 12011KT 090V170 9999 FEW025 SCT060 33/24 Q1003 NOSIG

2010/08/08 06:00
SBBE 080600Z 10003KT CAVOK 25/22 Q1012

2010/08/08 06:00
SBBR 080600Z 23002KT CAVOK 15/07 Q1022

2010/08/08 06:00
SBCG 080600Z 08011KT CAVOK 17/06 Q1017

2010/08/08 06:00
SBCT 080600Z 17003KT 3000 BR NSC 06/06 Q1020

2010/08/08 06:00
SBCY 080600Z 35004KT CAVOK 20/13 Q1014

2010/08/08 06:00
SBFI 080600Z 13008KT CAVOK 12/11 Q1015

2010/08/08 06:00
SBFL 080600Z 26005KT CAVOK 14/13 Q1017

2010/08/08 06:00
SBGL 080600Z 07002KT CAVOK 15/13 Q1019

2010/08/08 06:00
SBGR 080600Z 00000KT 7000 NSC 09/09 Q1020

2010/08/08 06:00
SBJP 080600Z 24007KT 9999 SCT020 BKN070 21/20 Q1017

2010/08/08 06:00
SBKP 080600Z 10009KT CAVOK 10/07 Q1019

2010/08/08 06:00
SBLO 080600Z 24003KT CAVOK 11/08 Q1019

2010/08/08 06:00
SBNT 080600Z 18005KT 9999 FEW020 22/20 Q1015

2010/08/08 06:00
SBPA 080600Z 09003KT 5000 BR BKN007 10/10 Q1018

2010/08/08 06:00
SBPV 080600Z 00000KT CAVOK 21/18 Q1012

2010/08/08 06:00
SBRB 080600Z 00000KT 5000 FU NSC 21/16 Q1014

2010/08/08 06:00
SBRF 080600Z 25004KT 9999 SCT020 20/18 Q1016

2010/08/08 06:00
SBRP 080600Z 14002KT CAVOK 15/10 Q1018

2010/08/08 06:00
SBSP 080600Z 00000KT 0500 R17/0450 R35/0450 FG VV002 12/12 Q1021

2010/08/08 06:00
SBSV 080600Z 16004KT 9999 SCT017 23/17 Q1018

2010/08/08 06:00
SBTE 080600Z 20001KT CAVOK 24/22 Q1013

2010/08/08 06:00
SCAR 080600Z 00000KT 9999 OVC021 14/08 Q1016

2010/08/08 06:00
SCBA 080600Z AUTO 30018KT CAVOK 03/00 Q1014

2010/08/08 06:00
SCCI 080600Z 27006KT 9999 BKN016 OVC060 02/M00 Q0996 NOSIG

2010/08/08 06:00
SCDA 080600Z 26004KT 9999 OVC022 13/09 Q1017

2010/08/08 06:00
SCEL 080600Z VRB02KT CAVOK 03/01 Q1025 NOSIG

2010/08/08 06:00
SCFA 080600Z 10003KT 9999 SCT014 10/08 Q1016

2010/08/08 06:00
SCON 080600Z AUTO 03003KT 350V060 CAVOK 07/06 Q1024

2010/08/08 06:00
SCSE 080600Z 15006KT CAVOK 07/06 Q1020 NEFO PLAYA SKC

2010/08/08 06:00
SCTE 080600Z 36003KT 9999 SCT070 02/02 Q1028 NOSIG

2010/08/08 06:00
FLLS 080600Z 09006KT CAVOK 13/09 Q1025 NOSIG

2010/08/08 06:00
PAHC 080600Z AUTO VRB04KT 3SM BR FEW003 BKN013 OVC019 12/11 A2969 RMK AO2 TSNO RAE0557 $

2010/08/08 06:00
PAVA 080600Z AUTO 14006KT 10SM BKN013 OVC017 12/10 A2965 RMK AO2

2010/08/08 05:59
KLAX 080559Z 26005KT 9SM FEW014 16/12 A2991 RMK AO2

2010/08/08 06:01
KFHR 080601Z AUTO 00000KT 10SM OVC005 15/14 A2990 RMK AO2

2010/08/08 06:01
KPAE 080601Z AUTO 21009KT 2 1/2SM BR OVC006 16/15 A2991 RMK AO2 CIG 003V010

2010/08/08 05:56
PAVC 080556Z AUTO 19014KT 1SM BR 11/10 A2981 RMK AO2 PWINO TSNO 56006 60002 T01050100 10144 20105 SLP094 $

2010/08/08 06:02
K47A 080602Z AUTO 00000KT 7SM CLR 24/21 A2999 RMK AO2 LTG DSNT SW

2010/08/08 06:00
KAVC 080600Z AUTO 00000KT 10SM CLR 22/20 A3004 RMK AO2

2010/08/08 06:00
KBCB 080600Z AUTO 00000KT 7SM CLR 19/19 A3010 RMK AO2 PWINO

2010/08/08 06:00
KCPK 080600Z AUTO 00000KT 1 3/4SM RA OVC002 22/22 A3000 RMK AO2

2010/08/08 06:00
KCWF 080600Z AUTO 17003KT 10SM CLR 26/26 A2992 RMK AO2 PWINO

2010/08/08 06:00
KDPL 080600Z AUTO 00000KT 3SM BR SCT095 23/22 A2997 RMK AO2

2010/08/08 05:59
KEDE 080559Z AUTO 00000KT 2SM BR SCT014 SCT020 BKN085 23/23 A2996 RMK AO2

2010/08/08 05:59
KEXX 080559Z AUTO 00000KT 7SM CLR 21/20 A2999 RMK AO2

2010/08/08 06:00
KFQD 080600Z AUTO 00000KT 7SM SCT070 23/19 A3001 RMK AO2

2010/08/08 06:00
KGEV 080600Z AUTO 00000KT 7SM CLR 18/16 A3012 RMK AO2

2010/08/08 06:00
KHLX 080600Z AUTO 16003KT 7SM CLR 19/19 A3011 RMK AO2

2010/08/08 05:59
KHRJ 080559Z AUTO 00000KT 7SM SCT049 SCT060 24/23 A2997 RMK AO2

2010/08/08 06:01
KHUM 080601Z AUTO 00000KT 10SM CLR 27/27 A2992 RMK AO2

2010/08/08 05:59
KJNX 080559Z AUTO 00000KT 10SM BKN100 22/22 A2997 RMK AO2

2010/08/08 06:01
KMFV 080601Z AUTO 00000KT 3SM BR CLR 23/22 A3000 RMK AO2

2010/08/08 06:00
KONX 080600Z AUTO 00000KT 5SM BR CLR 25/24 A2999 RMK AO2

2010/08/08 06:00
KPGV 080600Z AUTO 09003KT 7SM OVC090 24/24 A2999 RMK AO2

2010/08/08 06:01
KPTB 080601Z AUTO 00000KT 7SM CLR 19/ A3000 RMK AO2

2010/08/08 05:53
KRIL 080553Z AUTO 00000KT 10SM OVC095 16/14 A3014 RMK AO2 SLP138 60003 T01610144 10194 20161 58000 TSNO

2010/08/08 06:00
KUKF 080600Z AUTO 00000KT 2 1/2SM BKN065 19/19 A3005 RMK AO1

2010/08/08 05:55
KVVG 080555Z AUTO 28006KT +RA 27/25 A2994 RMK AO2

2010/08/08 06:00
SBGL 080600Z 07002KT CAVOK 15/13 Q1019

2010/08/08 06:00
SBSL 080600Z 07004KT CAVOK 26/23 Q1013

2010/08/08 05:50
EEKE 080550Z 31008KT 270V340 9999 BKN049CB 21/21 Q1012 RETS

2010/08/08 05:50
EEPU 080550Z 18006KT 140V210 8000 NSC 25/21 Q1012

2010/08/08 05:50
EETU 080550Z 13007KT 6000 NSC 24/20 Q1013

2010/08/08 06:00
SBPS 080600Z 31005KT 6000 -RA FEW020 BKN050 17/16 Q1019

2010/08/08 06:00
FAVV 080600Z AUTO 34001KT //// // ////// 05/01 Q1025

2010/08/08 06:00
FAJB 080600Z AUTO 00000KT //// // ////// 09/02 Q1028

2010/08/08 06:00
FASI 080600Z AUTO 00000KT //// // ////// 05/02 Q1028

2010/08/08 06:00
FAGC 080600Z AUTO 32003KT //// // ////// 10/03 Q1027

2010/08/08 05:55
EHAM 080555Z 32003KT 6000 FEW015 16/16 Q1015 BECMG 9999

2010/08/08 05:55
EHBK 080555Z AUTO 25006KT 220V290 9000NDV SCT004 BKN006 OVC007 15/15 Q1015 REDZ BECMG BKN040

2010/08/08 05:55
EHGG 080555Z AUTO 20003KT 160V230 3700NDV BR BKN003 OVC004 16/16 Q1014 BECMG 5000 NSW SCT004

2010/08/08 05:55
EHRD 080555Z VRB02KT 4000 BR FEW011 17/17 Q1015 BECMG 9999 NSW

2010/08/08 05:50
LSMA 080550Z AUTO 17003KT 140V310 9999NDV -RA FEW018 BKN065 OVC083 14/13 Q1019 RERA RMK WHT

2010/08/08 05:50
LSMD 080550Z AUTO VRB01KT 9999NDV -RA SCT072 BKN110 BKN130 16/13 Q1019 RMK WHT

2010/08/08 05:50
LSME 080550Z AUTO 21003KT 9999NDV -RA FEW047 BKN072 BKN085 15/13 Q1019 RMK WHT

2010/08/08 05:50
LSMM 080550Z AUTO VRB02KT 9999NDV -RA FEW073 OVC088 13/12 Q1020 RMK WHT

2010/08/08 05:50
LSMP 080550Z AUTO VRB01KT 9999NDV BKN087 14/13 Q1019 RMK WHT

2010/08/08 06:00
HKJK 080600Z 17005KT 9999 SCT017 BKN080 15/13 Q1024 NOSIG

2010/08/08 05:48
MMCZ 080548Z 00000KT 7SM FEW015 BKN200 24/24 A2994 RMK SLP130 57014 909 8/408

2010/08/08 05:56
MMMD 080556Z 11005KT 7SM SKC 25/24 A2994 RMK SLP143 52017 901

2010/08/08 05:45
MMTP 080545Z 00000KT 10SM SCT030TCU BKN250 26/24 A2991 RMK SLP105 57004 970 8/250 DZ E 12

2010/08/08 05:45
MMUN 080545Z 09005KT 7SM FEW300 27/24 A2994 RMK SLP134 51003 903 8/008 RA AT THE CITY

2010/08/08 05:55
EHEH 080555Z AUTO 25003KT 5000NDV BR BKN006 OVC007 15/15 Q1015 YLO

2010/08/08 05:55
EHKD 080555Z AUTO 36004KT 9999NDV FEW021/// BKN066/// OVC087/// 17/15 Q1015 BLU WHT TEMPO GRN SCT018 BKN040 TEMPO SCT008 SCT015CB BKN040

2010/08/08 06:00
MDPP 080600Z 00000KT 9999 FEW016 25/25 Q1010 DU/ ALL QDS

2010/08/08 06:00
MDST 080600Z 09004KT 9999 SCT016 25/24 Q1015

2010/08/08 06:00
MDPC 080600Z 04010KT 9999 FEW020 28/25 Q1013

2010/08/08 06:00
MDSD 080600Z 01004KT 9999 FEW018 24/22 Q1014=

2010/08/08 06:00
SKBQ 080600Z 00000KT 9999 FEW012 26/5 A2988

2010/08/08 06:00
SKCG 080600Z VRB02KT 9999 BKN015 29/25 A2987

2010/08/08 06:00
SKRG 080600Z 00000KT 9999 FEW010 SCT080 15/15 A3031

2010/08/08 06:00
SKPE 080600Z VRB02KT 9999 SCT015 SCT070 19/18 A3015

2010/08/08 06:00
SKBQ 080600Z 00000KT 9999 FEW012 26/5 A2988

2010/08/08 06:00
MROC 080600Z 00000KT 4000 -RA BR SCT003 BKN010 20/20 A3008 NOSIG

2010/08/08 05:50
ENVA 080550Z 11005KT CAVOK 13/09 Q1016 NOSIG 

2010/08/08 06:00
MROC 080600Z 00000KT 4000 -RA BR SCT003 BKN010 20/20 A3008 NOSIG

2010/08/08 05:50
EGNH 080550Z 28006KT 9999 SCT008 BKN015 16/14 Q1020

2010/08/08 05:50
EGNJ 080550Z 25004KT 9999 FEW012 13/11 Q1020

2010/08/08 05:50
EGPE 080550Z 00000KT 9999 FEW030 BKN040 12/10 Q1020

2010/08/08 05:50
LCRA 080550Z 31003KT 9999 FEW020 28/16 Q1008

2010/08/08 06:00
MKJP 080600Z 34003KT 9999 FEW022 BKN240 28/21 Q1014

2010/08/08 06:00
MROC 080600Z 00000KT 4000 -RA BR SCT003 BKN010 20/20 A3008 NOSIG

2010/08/08 05:55
EHAK 080555Z AUTO 01006KT 340V060 9999NDV FEW021/// SCT039/// 16/15 Q1016

2010/08/08 05:55
EHDV 080555Z AUTO 35008KT 9999NDV FEW000/// SCT010/// 17/15 Q1016

2010/08/08 05:55
EHFD 080555Z AUTO 36008KT 290V080 9999NDV FEW006/// 17/14 Q1016

2010/08/08 05:55
EHFZ 080555Z AUTO 34012KT 9999NDV 17/14 Q1016

2010/08/08 05:55
EHJA 080555Z AUTO 31010KT 9999NDV FEW009/// 16/14 Q1016

2010/08/08 05:55
EHKV 080555Z AUTO 33013KT 9999NDV FEW008/// SCT015/// 17/14 Q1016

2010/08/08 05:55
EHMA 080555Z AUTO 32009KT 9999NDV ///////// 17/15 Q1014

2010/08/08 05:55
EHMG 080555Z AUTO 34014KT 9999NDV FEW006/// 17/15 Q1014

2010/08/08 05:55
EHPG 080555Z AUTO 34013KT 9999NDV FEW004/// SCT007/// 17/15 Q1016

2010/08/08 05:55
EHQE 080555Z AUTO 34013KT 9999NDV BKN000/// BKN007/// OVC010/// 17/15 Q1015

2010/08/08 05:50
EGPA 080550Z AUTO 30005KT 9999NDV BKN020/// 13/12 Q1019

2010/08/08 05:50
EGPC 080550Z AUTO 25004KT 9999NDV SCT029/// BKN036/// 11/11 Q1019

2010/08/08 05:50
EGPL 080550Z AUTO 18006KT 9999NDV FEW014/// SCT020/// 12/11 Q1019

2010/08/08 05:50
EGPM 080550Z AUTO 28010KT 9999NDV OVC015/// 12/10 Q1017

2010/08/08 05:50
EGPO 080550Z AUTO 00000KT 9999NDV NCD 10/08 Q1019

2010/08/08 06:00
SKBO 080600Z VRB02KT 99999 SCT020 SCT080 13/11 A3035 NOSIG

2010/08/08 05:56
MMMD 080556Z 11005KT 7SM SKC 25/24 A2994 RMK SLP143 52017 901

2010/08/08 05:45
MMUN 080545Z 09005KT 7SM FEW300 27/24 A2994 RMK SLP134 51003 903 8/008 RA AT THE CITY

2010/08/08 05:45
MMTP 080545Z 00000KT 10SM SCT030TCU BKN250 26/24 A2991 RMK SLP105 57004 970 8/250 DZ E 12

2010/08/08 05:48
MMCZ 080548Z 00000KT 7SM FEW015 BKN200 24/24 A2994 RMK SLP130 57014 909 8/408

2010/08/08 06:00
LQSA 080600Z VRB02KT 9999 FEW025 SCT034 16/14 Q1020 NOSIG

2010/08/08 06:00
UBBN 080600Z 15004KT 9999 NSC 31/10 Q1012 R14R/CLRD60 NOSIG RMK G/O QFE684

2010/08/08 06:00
SBBV 080600Z 34003KT 8000 VCSH SCT020 FEW025TCU BKN080 24/22 Q1013

2010/08/08 06:00
UBBB 080600Z 32008KT CAVOK 32/19 Q1011 NOSIG RMK R88CLRD70

2010/08/08 05:50
EGDL 080550Z 34005KT 9999 SCT016 OVC032 13/12 Q1021 NOSIG

2010/08/08 05:50
EGVN 080550Z 31005KT 9999 FEW012 BKN018 14/13 Q1020 NOSIG

2010/08/08 05:50
EGXC 080550Z 32008KT CAVOK 12/11 Q1019

2010/08/08 05:50
EGYD 080550Z 32010KT 5000 BR FEW008 12/11 Q1020 BECMG 9999 NSW

2010/08/08 05:50
LGKP 080550Z 32020KT 9999 FEW018 28/20 Q1008

2010/08/08 06:00
RPLL 080600Z 22011KT 8000 -SHRA SCT023 OVC090 29/26 Q1006 LGT SHRA RMK A2971

2010/08/08 06:00
RPLB 080600Z 23020G32KT 8000 -RA SCT018 OVC080 29/25 Q1005 LGT RA INTMT

2010/08/08 06:00
RPMZ 080600Z 06004KT 9999 FEW018CB BKN120 32/26 Q1009 CB N SE

2010/08/08 06:00
HRYR 080600Z 00000KT CAVOK 21/13 Q1022 NOSIG

2010/08/08 06:00
HRZA 080600Z 00000KT 9999 SCT023 19/14 Q1022 NOSIG

2010/08/08 06:00
HRYG 080600Z 00000KT 9999 FEW020 20/14 Q1021 NOSIG

2010/08/08 05:50
EGHD 080550Z 00000KT 9999 FEW012 12/11 Q1022

2010/08/08 06:00
FOOL 080600Z 15008KT 8000 SCT008 OVC030 24/22 Q1016 NOSIG

2010/08/08 05:55
EBBL 080555Z 25005KT 4500 BR SCT004 OVC006 15/15 Q1016 YLO

2010/08/08 05:55
EBFN 080555Z 33007KT 9999 FEW010 SCT018 18/16 Q1017 WHT

2010/08/08 05:55
EBFS 080555Z 25006KT 3000 -DZ BR SCT003 BKN005 BKN007 13/13 Q1017 YLO

2010/08/08 05:50
EGDR 080550Z 34004KT 9999 FEW025 SCT200 13/12 Q1022 BLU

2010/08/08 05:50
EGDX 080550Z AUTO 04003KT 9999NDV // OVC034/// 12/10 Q1021

2010/08/08 05:50
EGOM 080550Z AUTO 06001KT 9999NDV // SCT021/// SCT028/// BKN036/// 11/11 Q1019

2010/08/08 05:50
EGOP 080550Z AUTO 33008KT 0450NDV // BKN001/// 12/12 Q1022

2010/08/08 05:50
EGPA 080550Z AUTO 30005KT 9999NDV BKN020/// 13/12 Q1019

2010/08/08 05:50
EGPU 080550Z AUTO 22003KT 9999NDV // FEW011/// 11/11 Q1020

2010/08/08 05:50
EGXW 080550Z 33009KT CAVOK 12/11 Q1019 BLU

2010/08/08 05:50
EGXX 080550Z AUTO 33012KT 9999NDV // NCD 15/13 Q1019

2010/08/08 06:00
EPKK 080600Z 25005KT 9999 BKN033 17/15 Q1015

2010/08/08 06:00
LBBG 080600Z VRB02MPS 9999 FEW033 28/21 Q1012 NOSIG

2010/08/08 06:00
LBGO 080600Z 00000MPS 9999 SCT050 SCT070 22/20 Q1014 NOSIG

2010/08/08 06:00
LBPD 080600Z VRB02MPS 9999 SCT070 24/19 Q1013 NOSIG

2010/08/08 06:00
LBSF 080600Z 26004MPS 8000 SCT039 BKN046 19/17 Q1016 NOSIG

2010/08/08 06:00
LBWN 080600Z 30004MPS 240V330 CAVOK 25/20 Q1012 NOSIG

2010/08/08 06:00
LDDU 080600Z 03014KT 350V060 CAVOK 23/12 Q1015 NOSIG

2010/08/08 06:00
LDPL 080600Z 00000KT CAVOK 22/15 Q1017 NOSIG

2010/08/08 06:00
LDRI 080600Z VRB01KT CAVOK 22/14 Q1017

2010/08/08 06:00
LDSP 080600Z VRB02KT CAVOK 24/12 Q1016 NOSIG

2010/08/08 06:00
LDZA 080600Z VRB01KT 9999 FEW004 18/16 Q1018 NOSIG

2010/08/08 06:00
LDZD 080600Z VRB01KT CAVOK 22/18 Q1017

2010/08/08 05:50
LGKP 080550Z 32020KT 9999 FEW018 28/20 Q1008

2010/08/08 06:00
LHBP 080600Z 25006KT 230V290 9999 -RA BKN012 OVC022 17/15 Q1017 NOSIG

2010/08/08 06:00
LZIB 080600Z 28009KT 9999 FEW010 SCT060 BKN100 17/14 Q1016

2010/08/08 06:00
LZTT 080600Z 25009KT 9999 FEW016 16/12 Q1016 NOSIG

2010/08/08 05:56
KNUW 080556Z 26004KT 6SM BR BKN005 OVC015 16/15 A2991 RMK AO2 SLP130 60010 T01620152 10178 20156 51005 $ 

2010/08/08 06:00
LQMO 080600Z VRB01KT 9999 FEW050 20/14 Q1015

2010/08/08 06:00
KSTP 080600Z AUTO 20010KT 10SM FEW055 SCT090 SCT110 28/22 A2968

2010/08/08 06:00
CQCM 080600Z 17007KT 11SM SCT280 42/09 A2952 RMK WND/ALTM ESTD CI3 CI VRY THN T04160087 FIRST OBS

2010/08/08 06:00
DTTB 080600Z 00000KT CAVOK 22/18 Q1019

2010/08/08 06:00
DTTD 080600Z 08002KT 9999 FEW026 24/16 Q1017

2010/08/08 06:00
DTTK 080600Z 03002KT 9999 FEW023 22/16 Q1018

2010/08/08 06:00
DTTL 080600Z 31004KT CAVOK 23/18 Q1018

2010/08/08 06:00
DTTN 080600Z 00000KT 9999 FEW020 18/14 Q1019

2010/08/08 06:00
DTTR 080600Z 15008KT CAVOK 28/03 Q1016

2010/08/08 06:00
FDMS 080600Z 00000KT CAVOK 12/09 Q1022 NOSIG

2010/08/08 06:00
SCIE 080600Z 19004KT 5000 BR SKC 03/02 Q1028

2010/08/08 06:00
SCIE 080600Z 19004KT 5000 BR SKC 03/02 Q1028

2010/08/08 06:00
SCIE 080600Z 19004KT 5000 BR SKC 03/02 Q1028

2010/08/08 06:00
KSTP 080600Z AUTO 20010KT 10SM FEW055 SCT090 SCT110 28/22 A2968

2010/08/08 06:01
CYCY 080601Z AUTO 00000KT 3SM OVC001 OVC044 OVC079 OVC094 03/03 A2992

2010/08/08 06:00
LUKK 080600Z 16003KT 100V240 8000 -SHRA BKN033CB 25/22 Q1013 26150060 NOSIG

2010/08/08 06:00
UBBB 080600Z 32008KT CAVOK 32/19 Q1011 NOSIG RMK R88CLRD70

2010/08/08 06:00
UHHH 080600Z METAR 13002MPS 9999 SCT033CB SCT100 BKN200 24/19 Q1011 NOSIG

2010/08/08 06:00
UKBB 080600Z VRB01MPS CAVOK 29/15 Q1014 88CLRD95 NOSIG

2010/08/08 06:00
UKFF 080600Z 06002MPS 030V100 CAVOK 32/13 Q1011 01010070 NOSIG

2010/08/08 06:00
UKLL 080600Z 00000MPS CAVOK 21/19 Q1015 13210360 NOSIG

2010/08/08 06:00
UKOO 080600Z VRB02MPS CAVOK 30/20 Q1012 34090070 NOSIG

2010/08/08 06:00
UTTT 080600Z 35004MPS CAVOK 35/10 Q1006 R08R/CLRD70 NOSIG

2010/08/08 06:00
MDSD 080600Z 01004KT 9999 FEW018 24/22 Q1014

2010/08/08 06:00
MHLC 080600Z 15002KT 9999 SCT022CB SCT080 26/24 Q1012 A2990 NOSIG

2010/08/08 05:48
MMPB 080548Z 00000KT 10SM -DZ OVC012 15/14 A3037 RMK 6//// 8/7// HZY

2010/08/08 05:45
MMTO 080545Z 00000KT 4SM BKN010 BKN070 14/12 A3040 RMK SLP080 52008 908 8/57/ HZ

2010/08/08 05:55
MUHA 080555Z 00000KT 9000 SKC 25/23 Q1015

2010/08/08 06:00
NTAA 080600Z 27005KT 9999 FEW020 26/22 Q1017 WS ALL RWY NOSIG

2010/08/08 06:00
NWWW 080600Z AUTO 16008KT 9999NDV BKN041/// 22/12 Q1017

2010/08/08 05:58
PAGA 080558Z AUTO 20003KT 10SM FEW027 BKN039 OVC047 14/12 A2966 RMK AO2 SLPNO 6//// T01390117 10161 20133 51010

2010/08/08 06:00
PKWA 080600Z AUTO 08010KT 10SM SCT021 30/23 A2980 RMK AO2 T02970230

2010/08/08 06:00
PLCH 080600Z 00000KT 15KM BKN016 25/24 Q1013

2010/08/08 06:00
RJOI 080600Z 17006KT 9999 FEW025 BKN040 32/22 A2987 RMK SLP115 T03170217 10317 20289 56012

2010/08/08 06:00
SOCA 080600Z 25001KT 9999 FEW020 24/23 Q1013 NOSIG

2010/08/08 06:00
SVMI 080600Z 11001KT 9999 FEW016 27/23 Q1012 NOSIG

2010/08/08 06:00
TFFF 080600Z AUTO 02003KT 9999NDV NCD 25/24 Q1012

2010/08/08 06:00
TFFR 080600Z 06002KT 9999 VCSH FEW023 SCT083 26/22 Q1013 TEMPO 4000 SHRA

2010/08/08 06:00
VHHH 080600Z 12011KT 090V170 9999 FEW025 SCT060 33/24 Q1003 NOSIG

2010/08/08 05:55
KDLF 080555Z AUTO 13008KT 10SM CLR 30/19 A2989 RMK AO2 SLP103 T03010193 10375 20301 403800234 51018

2010/08/08 05:55
KHRT 080555Z AUTO 00000KT 10SM BKN120 26/26 A2990 RMK AO2 SLP126 60001 T02560256 10260 20254 403380247 58002 $

2010/08/08 05:55
KHUA 080555Z AUTO RMK AO2 SLPNO PWINO PNO TSNO $

2010/08/08 06:00
KNEL 080600Z AUTO 00000KT 8SM CLR 18/16 A3002 RMK AO2 SLP162 T01830161 10250 20183 50009 $

2010/08/08 05:56
KNLC 080556Z AUTO 32007KT 10SM CLR 22/10 A2975 RMK AO2 SLP073 T02220100 10361 20222 50015 TSNO $

2010/08/08 05:55
KVAD 080555Z 00000KT 6SM R18/4500V5500FT BR FEW002 24/24 A2993 RMK AO2A VIS 1 RWY36 SLP133 60018 T02450243 10251 20245 50000 $

2010/08/08 06:00
MROC 080600Z 00000KT 4000 -RA BR SCT003 BKN010 20/20 A3008 NOSIG

2010/08/08 05:50
MUCM 080550Z 10002KT 9000 FEW020 25/23 Q1016

2010/08/08 05:50
MUCU 080550Z 36004KT CAVOK 27/23 Q1017

2010/08/08 05:55
MUHA 080555Z 00000KT 9000 SKC 25/23 Q1015

2010/08/08 05:50
MUHG 080550Z 00000KT 8000 SKC 23/22 Q1015

2010/08/08 06:00
NTAA 080600Z 27005KT 9999 FEW020 26/22 Q1017 WS ALL RWY NOSIG

2010/08/08 06:00
OJAI 080600Z 00000KT 7000 NSC 27/14 Q1013 NOSIG

2010/08/08 06:00
OJAM 080600Z 03006KT 4000 HZ NSC 31/07 Q1013 NOSIG

2010/08/08 06:00
OLBA 080600Z 24006KT 8000 FEW026 29/23 Q1011 NOSIG

2010/08/08 05:58
ROTM 080558Z 16011KT 9999 SCT015 BKN030 OVC150 30/28 A2962 RMK SHRAB02E10 SLP015 P0000 60036 T0300278 10300 20244 58007

2010/08/08 06:00
SCON 080600Z AUTO 03003KT 350V060 CAVOK 07/06 Q1024

2010/08/08 06:00
SCSE 080600Z 15006KT CAVOK 07/06 Q1020 NEFO PLAYA SKC

2010/08/08 06:00
TFFF 080600Z AUTO 02003KT 9999NDV NCD 25/24 Q1012

2010/08/08 06:00
TFFR 080600Z 06002KT 9999 VCSH FEW023 SCT083 26/22 Q1013 TEMPO 4000 SHRA

2010/08/08 06:00
WSAP 080600Z 17008KT 9999 FEW020 FEW022TCU BKN300 31/24 Q1008

2010/08/08 06:00
WSSS 080600Z 19006KT 160V250 9999 FEW020TCU BKN300 32/25 Q1008 NOSIG

2010/08/08 05:55
KQHT 080555Z 29010KT 9999 FEW160 31/02 A2979 RMK A02A SLP049 58010

2010/08/08 05:55
KQQY 080555Z AUTO 00000KT 9999 SCT070 BKN120 23/19 A3004 RMK AO2 SLP152 T02280188 10268 20228 58007 $

2010/08/08 05:55
KQSD 080555Z 02003KT 9999 FEW090 SCT150 27/13 A2997 RMK AO2A SLP046 60004 52004

2010/08/08 05:55
KQTX 080555Z VRB02KT 8000 FU HZ SCT080 40/02 A2966 RMK SLP013 51001

2010/08/08 05:56
KQRY 080556Z AUTO VRB04KT 9999 FEW017 BKN150 21/16 A3009 RMK AO2 SLP095 T02120161 10198 20168 52006 PWINO $

2010/08/08 06:00
FMCZ 080600Z 13011KT 9999 SCT020 SCT060 26/19 Q1018

2010/08/08 05:50
EGXJ 080550Z AUTO 33005KT 7000NDV // FEW004/// 12/11 Q1019

2010/08/08 05:50
EGDM 080550Z AUTO 33008KT 9999NDV OVC032/// 14/11 Q1020

2010/08/08 05:50
EGXT 080550Z AUTO 32008KT 9999NDV NCD 13/11 Q1019

2010/08/08 05:50
EGXG 080550Z AUTO 32004KT 9999NDV BKN070/// 13/11 Q1020

2010/08/08 05:50
EGWU 080550Z AUTO 33003KT 9999NDV // OVC020/// 15/13 Q1019

2010/08/08 05:50
EGDY 080550Z AUTO 29003KT 9999NDV SCT021/// OVC036/// 14/12 Q1020

2010/08/08 05:50
EGXZ 080550Z AUTO 31004KT 9999NDV OVC070/// 13/11 Q1020

2010/08/08 05:50
EGOS 080550Z AUTO 27004KT 9999NDV FEW012/// BKN020/// 13/11 Q1021

2010/08/08 05:50
EGOV 080550Z AUTO 09002KT 9999NDV NCD 09/09 Q1021

2010/08/08 05:50
ETUO 080550Z AUTO 00000KT 2500NDV // BKN060/// BKN170/// 16/16 Q1014

2010/08/08 06:00
FMMI 080600Z 14010KT 090V180 9999 SCT016 16/11 Q1027 NOSIG

2010/08/08 05:57
PHNG 080557Z AUTO 06008KT 10SM FEW018 OVC060 26/22 A3008 RMK AO2 SLP181 6//// T02560222 10289 20256 53012 $ 

2010/08/08 06:01
PAIK 080601Z AUTO 10005KT 10SM FEW050 OVC075 14/10 A2960 RMK AO2 RAB0546E00 SLP063 P0000 60000 T01440100 10172 20144 53006

2010/08/08 05:45
CWSK 080545Z AUTO 13001KT 16/15 RMK AO1 T01610146

2010/08/08 06:01
PAAQ 080601Z AUTO 00000KT 2 1/2SM -RA BR BKN011 OVC019 12/11 A2979 RMK AO2 P0000 TSNO

2010/08/08 06:01
PAKF 080601Z AUTO 21021G30KT 10SM -RA OVC090 16/14 A2970 RMK AO2 PK WND 15034/0542 WSHFT 0547 P0001

2010/08/08 06:01
PAKV 080601Z AUTO 00000KT 8SM -RA FEW022 BKN028 OVC035 13/13 A2968 RMK AO2 P0000 TSNO

2010/08/08 06:00
SKCL 080600Z VRB02KT 9999 SCT020 BKN090 21/18 A3004

2010/08/08 06:02
K47A 080602Z AUTO 00000KT 7SM CLR 24/21 A2999 RMK AO2 LTG DSNT SW

2010/08/08 06:01
KHUM 080601Z AUTO 00000KT 10SM CLR 27/27 A2992 RMK AO2

2010/08/08 06:01
KMFV 080601Z AUTO 00000KT 3SM BR CLR 23/22 A3000 RMK AO2

2010/08/08 06:01
KPTB 080601Z AUTO 00000KT 7SM CLR 19/ A3000 RMK AO2

2010/08/08 06:01
PAIK 080601Z AUTO 10005KT 10SM FEW050 OVC075 14/10 A2960 RMK AO2 RAB0546E00 SLP063 P0000 60000 T01440100 10172 20144 53006

2010/08/08 06:00
UBBL 080600Z 12006KT 9999 NSC 32/22 Q1010 NOSIG RMK G/O SC07

2010/08/08 06:00
LUBL 080600Z 26005KT 230V290 9999 SCT030CB 23/20 Q1014 RWY33

2010/08/08 06:00
SAZS 080600Z 32014KT 9999 FEW025 02/M04 Q1024

2010/08/08 06:00
PAHC 080600Z AUTO VRB04KT 3SM BR FEW003 BKN013 OVC019 12/11 A2969 RMK AO2 TSNO RAE0557 $

2010/08/08 06:01
KFHR 080601Z AUTO 00000KT 10SM OVC005 15/14 A2990 RMK AO2

2010/08/08 06:01
KPAE 080601Z AUTO 21009KT 2 1/2SM BR OVC006 16/15 A2991 RMK AO2 CIG 003V010

2010/08/08 06:01
PAAQ 080601Z AUTO 00000KT 2 1/2SM -RA BR BKN011 OVC019 12/11 A2979 RMK AO2 P0000 TSNO

2010/08/08 06:01
PAKV 080601Z AUTO 00000KT 8SM -RA FEW022 BKN028 OVC035 13/13 A2968 RMK AO2 P0000 TSNO

2010/08/08 05:55
KDLF 080555Z AUTO 13008KT 10SM CLR 30/19 A2989 RMK AO2 SLP103 T03010193 10375 20301 403800234 51018

2010/08/08 05:55
KHRT 080555Z AUTO 00000KT 10SM BKN120 26/26 A2990 RMK AO2 SLP126 60001 T02560256 10260 20254 403380247 58002 $

2010/08/08 05:55
KHUA 080555Z AUTO RMK AO2 SLPNO PWINO PNO TSNO $

2010/08/08 06:00
KNEL 080600Z AUTO 00000KT 8SM CLR 18/16 A3002 RMK AO2 SLP162 T01830161 10250 20183 50009 $

2010/08/08 05:56
KNLC 080556Z AUTO 32007KT 10SM CLR 22/10 A2975 RMK AO2 SLP073 T02220100 10361 20222 50015 TSNO $

2010/08/08 05:55
KVAD 080555Z 00000KT 6SM R18/4500V5500FT BR FEW002 24/24 A2993 RMK AO2A VIS 1 RWY36 SLP133 60018 T02450243 10251 20245 50000 $

2010/08/08 06:00
KAVC 080600Z AUTO 00000KT 10SM CLR 22/20 A3004 RMK AO2

2010/08/08 06:00
KBCB 080600Z AUTO 00000KT 7SM CLR 19/19 A3010 RMK AO2 PWINO

2010/08/08 06:00
KCPK 080600Z AUTO 00000KT 1 3/4SM RA OVC002 22/22 A3000 RMK AO2

2010/08/08 06:00
KCWF 080600Z AUTO 17003KT 10SM CLR 26/26 A2992 RMK AO2 PWINO

2010/08/08 06:00
KDPL 080600Z AUTO 00000KT 3SM BR SCT095 23/22 A2997 RMK AO2

2010/08/08 05:59
KEDE 080559Z AUTO 00000KT 2SM BR SCT014 SCT020 BKN085 23/23 A2996 RMK AO2

2010/08/08 05:59
KEXX 080559Z AUTO 00000KT 7SM CLR 21/20 A2999 RMK AO2

2010/08/08 06:00
KFQD 080600Z AUTO 00000KT 7SM SCT070 23/19 A3001 RMK AO2

2010/08/08 06:00
KGEV 080600Z AUTO 00000KT 7SM CLR 18/16 A3012 RMK AO2

2010/08/08 06:00
KHLX 080600Z AUTO 16003KT 7SM CLR 19/19 A3011 RMK AO2

2010/08/08 05:59
KHRJ 080559Z AUTO 00000KT 7SM SCT049 SCT060 24/23 A2997 RMK AO2

2010/08/08 06:00
KONX 080600Z AUTO 00000KT 5SM BR CLR 25/24 A2999 RMK AO2

2010/08/08 06:00
KPGV 080600Z AUTO 09003KT 7SM OVC090 24/24 A2999 RMK AO2

2010/08/08 05:53
KRIL 080553Z AUTO 00000KT 10SM OVC095 16/14 A3014 RMK AO2 SLP138 60003 T01610144 10194 20161 58000 TSNO

2010/08/08 06:00
KUKF 080600Z AUTO 00000KT 2 1/2SM BKN065 19/19 A3005 RMK AO1

2010/08/08 05:55
KVVG 080555Z AUTO 28006KT +RA 27/25 A2994 RMK AO2

2010/08/08 06:00
SARF 080600Z 18006KT CAVOK 12/10 Q1016

2010/08/08 06:00
OEDF 080600Z VRB02KT CAVOK 39/11 Q0999 NOSIG

2010/08/08 06:00
OEDR 080600Z 00000KT 8000 SKC 39/17 Q0997 NOSIG

2010/08/08 06:00
OEMA 080600Z 05003KT 8000 FEW045 SCT100 38/02 Q1007 NOSIG

2010/08/08 06:00
OERK 080600Z 29006KT 8000 SKC 38/05 Q1006 NOSIG

2010/08/08 06:00
OERY 080600Z 34006KT 5000 DU SKC 38/05 Q1007 NOSIG

2010/08/08 06:00
DIAP 080600Z 23005KT 8000 FEW006 BKN012 25/24 Q1014 NOSIG

2010/08/08 06:00
LUKK 080600Z 16003KT 100V240 8000 -SHRA BKN033CB 25/22 Q1013 26150060 NOSIG

2010/08/08 06:00
SUMU 080600Z 00000KT 0050 R24/1200 R19/0250 FG BKN002 04/04 Q1021 TEMPO 0300 FG

2010/08/08 06:00
SULS 080600Z 00000KT 0040 FG NSC 06/06 Q1021

2010/08/08 06:00
UTTT 080600Z 35004MPS CAVOK 35/10 Q1006 R08R/CLRD70 NOSIG

2010/08/08 05:59
KLAX 080559Z 26005KT 9SM FEW014 16/12 A2991 RMK AO2

2010/08/08 05:55
KNYL 080555Z 15010KT 10SM CLR 31/16 A2971 RMK AO2 SLP055 T03060156 10389 20306 51016

2010/08/08 05:56
KNUW 080556Z 26004KT 6SM BR BKN005 OVC015 16/15 A2991 RMK AO2 SLP130 60010 T01620152 10178 20156 51005 $

2010/08/08 05:59
KJNX 080559Z AUTO 00000KT 10SM BKN100 22/22 A2997 RMK AO2

2010/08/08 06:00
LBSF 080600Z 26004MPS 8000 SCT039 BKN046 19/17 Q1016 NOSIG

2010/08/08 06:00
LBWN 080600Z 30004MPS 240V330 CAVOK 25/20 Q1012 NOSIG

2010/08/08 06:00
LBBG 080600Z VRB02MPS 9999 FEW033 28/21 Q1012 NOSIG

2010/08/08 06:00
LBPD 080600Z VRB02MPS 9999 SCT070 24/19 Q1013 NOSIG

2010/08/08 06:00
LBGO 080600Z 00000MPS 9999 SCT050 SCT070 22/20 Q1014 NOSIG

2010/08/08 06:00
SVMI 080600Z 11001KT 9999 FEW016 27/23 Q1012 NOSIG

2010/08/08 06:00
LHBP 080600Z 25006KT 230V290 9999 -RA BKN012 OVC022 17/15 Q1017 NOSIG

2010/08/08 05:55
EBBL 080555Z 25005KT 4500 BR SCT004 OVC006 15/15 Q1016 YLO

2010/08/08 05:55
EBFN 080555Z 33007KT 9999 FEW010 SCT018 18/16 Q1017 WHT

2010/08/08 05:55
EBFS 080555Z 25006KT 3000 -DZ BR SCT003 BKN005 BKN007 13/13 Q1017 YLO

2010/08/08 05:45
LHDC 080545Z 22004KT CAVOK 18/15 Q1017 NOSIG

2010/08/08 05:45
LHKE 080545Z 29002MPS 9999 BKN040 17/15 Q1017 NOSIG RMK BLU

2010/08/08 05:45
LHPA 080545Z 19003MPS 9999 FEW040 BKN083 17/15 Q1019 NOSIG RMK BLU

2010/08/08 05:45
LHPP 080545Z 12001KT CAVOK 18/16 Q1019

2010/08/08 05:45
LHPR 080545Z 26006KT 9999 FEW026 BKN083 17/16 Q1017

2010/08/08 05:45
LHSM 080545Z 00000KT 9999 FEW005 BKN035 17/16 Q1018 BECMG 8000 NSW

2010/08/08 05:45
LHSN 080545Z 26002MPS 9999 FEW020 BKN035 18/15 Q1017 NOSIG RMK BLU

2010/08/08 05:45
LHUD 080545Z 35004KT CAVOK 19/16 Q1018

2010/08/08 06:00
OYSN 080600Z VRB02KT 8000 NSC 24/10 Q1022

2010/08/08 05:50
LCRA 080550Z 31003KT 9999 FEW020 28/16 Q1008

2010/08/08 05:56
MMMD 080556Z 11005KT 7SM SKC 25/24 A2994 RMK SLP143 52017 901

2010/08/08 05:50
EGDM 080550Z AUTO 33008KT 9999NDV OVC032/// 14/11 Q1020

2010/08/08 05:50
EGDR 080550Z 34004KT 9999 FEW025 SCT200 13/12 Q1022 BLU

2010/08/08 05:50
EGDY 080550Z AUTO 29003KT 9999NDV SCT021/// OVC036/// 14/12 Q1020

2010/08/08 05:50
EGOS 080550Z AUTO 27004KT 9999NDV FEW012/// BKN020/// 13/11 Q1021

2010/08/08 05:50
EGOV 080550Z AUTO 09002KT 9999NDV NCD 09/09 Q1021

2010/08/08 05:50
EGPU 080550Z AUTO 22003KT 9999NDV // FEW011/// 11/11 Q1020

2010/08/08 06:00
YSTW 080600Z AUTO 28003KT 9999NDV // NCD 16/M00 Q1018

2010/08/08 06:00
YSWG 080600Z 33004KT 9999 FEW040 11/03 Q1018

2010/08/08 06:00
YTEF 080600Z AUTO 16009KT //// // ////// 28/M06 Q1015

2010/08/08 06:00
YTNK 080600Z 23007KT CAVOK 25/M08 Q1012

2010/08/08 06:00
YTRE 080600Z AUTO 12007KT //// // ////// 16/07 Q1019

2010/08/08 06:00
YWGT 080600Z AUTO 07003KT //// // ////// 12/02 Q1018

2010/08/08 06:00
YWHA 080600Z AUTO 29012KT 9999NDV // SCT036 BKN068 OVC076 18/03 Q1011

2010/08/08 06:00
YWLM 080600Z AUTO 11009KT 9999NDV // NCD 15/08 Q1019

2010/08/08 06:00
GCLP 080600Z 36010KT 9999 FEW020 23/08 Q1010 NOSIG

2010/08/08 06:00
GCXO 080600Z 30018KT 9999 BKN008 16/14 Q1016 NOSIG

2010/08/08 06:00
GCTS 080600Z 32003KT 9999 SCT046 20/16 Q1014 NOSIG

2010/08/08 06:00
GCRR 080600Z 34013KT 9999 FEW015 22/18 Q1012

2010/08/08 06:00
GCFV 080600Z 36012KT 9999 FEW025 22/18 Q1012

2010/08/08 06:00
LEAS 080600Z 08009KT 050V120 9999 SCT014 BKN026 19/16 Q1020 NOSIG

2010/08/08 06:00
LEBB 080600Z 09003KT 050V120 8000 SCT018 BKN032 18/16 Q1021 NOSIG

2010/08/08 06:00
LECO 080600Z 00000KT 9999 FEW030 15/15 Q1019

2010/08/08 06:00
LEGE 080600Z 00000KT 9999 SCT036 21/19 Q1018

2010/08/08 06:00
LEST 080600Z 02003KT CAVOK 14/13 Q1018 NOSIG

2010/08/08 06:00
LEZG 080600Z 29011KT 9999 FEW045 20/14 Q1019

2010/08/08 06:00
LESO 080600Z 13003KT 100V160 9999 FEW020 SCT040 19/16 Q1021

2010/08/08 06:00
LEVT 080600Z 00000KT 9999 FEW009 OVC020 16/14 Q1022

2010/08/08 06:00
LERS 080600Z VRB02KT 9999 FEW035 22/18 Q1018

2010/08/08 06:00
LEMH 080600Z VRB02KT 9999 FEW018 22/20 Q1019

2010/08/08 06:00
LEAM 080600Z VRB02KT 9999 FEW040 SCT090 26/08 Q1017

2010/08/08 06:00
LEGR 080600Z 00000KT 9999 FEW100 23/16 Q1019

2010/08/08 06:00
LEMD 080600Z 00000KT 9999 FEW050 24/13 Q1019 NOSIG

2010/08/08 06:00
LEBL 080600Z 32004KT 250V350 9999 FEW020 22/18 Q1018 NOSIG

2010/08/08 06:00
LEPA 080600Z 04003KT 330V070 CAVOK 19/17 Q1019 NOSIG

2010/08/08 06:00
LEZL 080600Z VRB02KT CAVOK 26/17 Q1015 NOSIG

2010/08/08 06:00
LEMG 080600Z 00000KT 9999 FEW020 SCT080 25/20 Q1017 NOSIG

2010/08/08 06:00
LEVC 080600Z 00000KT CAVOK 22/18 Q1018 NOSIG

2010/08/08 06:00
LEAL 080600Z 00000KT CAVOK 23/14 Q1018 NOSIG

2010/08/08 06:00
LEIB 080600Z 00000KT CAVOK 22/19 Q1018 NOSIG

2010/08/08 06:00
LELC 080600Z 00000KT CAVOK 21/17 Q1018 NOSIG

2010/08/08 06:00
LEVX 080600Z 20008KT CAVOK 17/14 Q1015

2010/08/08 06:01
KPAE 080601Z AUTO 21009KT 2 1/2SM BR OVC006 16/15 A2991

2010/08/08 06:00
LATI 080600Z 14004KT CAVOK 22/21 Q1015 NOSIG

2010/08/08 05:50
EGEC 080550Z AUTO 30007KT 9999NDV // FEW015/// 12/12 Q1020

2010/08/08 06:00
GCHI 080600Z 35020KT 9999 FEW024 21/16 Q1015

2010/08/08 06:00
GCLA 080600Z 32004KT 280V030 9999 FEW030 21/15 Q1015

2010/08/08 06:00
GEML 080600Z 07003KT 020V110 9999 FEW014 SCT026 24/21 Q1017

2010/08/08 05:50
EGPI 080550Z AUTO 06001KT 9999NDV // NSC 10/10 Q1020

2010/08/08 06:00
LEAB 080600Z 12009KT CAVOK 19/10 Q1021 NOSIG

2010/08/08 06:00
LEBZ 080600Z 00000KT CAVOK 25/15 Q1015

2010/08/08 06:00
LELN 080600Z 00000KT CAVOK 13/07 Q1021

2010/08/08 06:00
LESA 080600Z 00000KT CAVOK 16/15 Q1020

2010/08/08 06:00
LETO 080600Z 05002KT CAVOK 23/12 Q1019 NOSIG

2010/08/08 06:00
LEVD 080600Z 05005KT CAVOK 14/11 Q1020

2010/08/08 06:00
LEVS 080600Z 10006KT 060V130 CAVOK 24/14 Q1020

2010/08/08 06:00
TFFF 080600Z AUTO 02003KT 9999NDV NCD 25/24 Q1012

2010/08/08 06:00
LEBA 080600Z VRB02KT CAVOK 25/14 Q1017

2010/08/08 06:00
LEDA 080600Z VRB02KT 9999 FEW030 22/15 Q1019

2010/08/08 06:00
LEJR 080600Z VRB02KT 9999 FEW055 24/13 Q1015

2010/08/08 06:00
LELL 080600Z 00000KT CAVOK 20/17 Q1018

2010/08/08 06:00
LEPP 080600Z 09001KT 9999 FEW015 15/13 Q1021

2010/08/08 06:00
LEXJ 080600Z 12005KT 9999 FEW020 OVC026 19/17 Q1021

2010/08/08 06:00
LYBE 080600Z 34003KT 9999 SCT006 19/17 Q1018 NOSIG

2010/08/08 06:00
LYBT 080600Z 34003KT 310V060 CAVOK 19/18 Q1018 NOSIG

2010/08/08 06:00
LYKV 080600Z VRB01KT 9999 BKN040 18/16 Q1018 NOSIG

2010/08/08 06:00
LYNI 080600Z 32008KT 290V360 9999 SCT010 BKN033 20/17 Q1017 NOSIG

2010/08/08 06:00
LYPG 080600Z 03003KT 340V070 CAVOK 22/14 Q1015 NOSIG

2010/08/08 06:00
LYTV 080600Z VRB01KT CAVOK 21/16 Q1015 NOSIG

2010/08/08 06:00
LYUZ 080600Z 32006KT 3000 BR OVC017 14/14 Q1021

2010/08/08 06:00
LYVR 080600Z VRB01KT 8000 FEW006 20/18 Q1018

2010/08/08 06:00
LKKV 080600Z VRB02KT CAVOK 14/11 Q1017

2010/08/08 06:00
LKMT 080600Z 23007KT 9999 -RA FEW015 OVC035 16/14 Q1015 NOSIG

2010/08/08 06:00
LKPR 080600Z 21007KT 9999 BKN046 15/14 Q1016 NOSIG

2010/08/08 06:00
LKTB 080600Z 27004KT 230V300 9999 SCT020 BKN050 17/15 Q1016 NOSIG

2010/08/08 06:00
BIAR 080600Z 31001KT CAVOK 08/07 Q1015

2010/08/08 06:00
BIEG 080600Z 04004KT 9999 BKN030 09/07 Q1016

2010/08/08 06:00
BIKF 080600Z 01004KT 9999 -SHRA FEW041 BKN065 12/09 Q1013

2010/08/08 06:00
BIRK 080600Z 27003KT 9999 SCT032 BKN065 12/09 Q1012

2010/08/08 05:50
EGDM 080550Z AUTO 33008KT 9999NDV OVC032/// 14/11 Q1020

2010/08/08 05:50
EGDY 080550Z AUTO 29003KT 9999NDV SCT021/// OVC036/// 14/12 Q1020

2010/08/08 05:50
EGEC 080550Z AUTO 30007KT 9999NDV // FEW015/// 12/12 Q1020

2010/08/08 05:50
EGOV 080550Z AUTO 09002KT 9999NDV NCD 09/09 Q1021

2010/08/08 05:50
EGXD 080550Z AUTO 33005KT 9999NDV // OVC060/// 13/13 Q1020

2010/08/08 05:50
EGXG 080550Z AUTO 32004KT 9999NDV BKN070/// 13/11 Q1020

2010/08/08 05:50
EGXT 080550Z AUTO 32008KT 9999NDV NCD 13/11 Q1019

2010/08/08 06:00
EPGD 080600Z 16004KT 120V200 9999 FEW006 BKN013 19/18 Q1011

2010/08/08 06:00
EPKT 080600Z 23007KT 9999 SCT008 BKN013 16/14 Q1015

2010/08/08 06:00
EPPO 080600Z 28007KT 9999 BKN006 17/17 Q1013

2010/08/08 06:00
EPRZ 080600Z 28007KT 9999 SCT030 19/16 Q1015

2010/08/08 06:00
EPWA 080600Z 29006KT 250V330 CAVOK 19/17 Q1012 NOSIG

2010/08/08 06:00
EPWR 080600Z 29009KT 260V320 3500 DZ BKN004 OVC007 16/16 Q1015

2010/08/08 05:45
LHDC 080545Z 22004KT CAVOK 18/15 Q1017 NOSIG

2010/08/08 05:45
LHKE 080545Z 29002MPS 9999 BKN040 17/15 Q1017 NOSIG RMK BLU

2010/08/08 05:45
LHPA 080545Z 19003MPS 9999 FEW040 BKN083 17/15 Q1019 NOSIG RMK BLU

2010/08/08 05:45
LHPP 080545Z 12001KT CAVOK 18/16 Q1019

2010/08/08 05:45
LHSN 080545Z 26002MPS 9999 FEW020 BKN035 18/15 Q1017 NOSIG RMK BLU

2010/08/08 05:45
LHUD 080545Z 35004KT CAVOK 19/16 Q1018

2010/08/08 06:00
LKKV 080600Z VRB02KT CAVOK 14/11 Q1017

2010/08/08 06:00
LKMT 080600Z 23007KT 9999 -RA FEW015 OVC035 16/14 Q1015 NOSIG

2010/08/08 06:00
LKPR 080600Z 21007KT 9999 BKN046 15/14 Q1016 NOSIG

2010/08/08 06:00
LKTB 080600Z 27004KT 230V300 9999 SCT020 BKN050 17/15 Q1016 NOSIG

2010/08/08 06:00
LQMO 080600Z VRB01KT 9999 FEW050 20/14 Q1015

2010/08/08 06:00
LYBE 080600Z 34003KT 9999 SCT006 19/17 Q1018 NOSIG

2010/08/08 06:00
LYNI 080600Z 32008KT 290V360 9999 SCT010 BKN033 20/17 Q1017 NOSIG

2010/08/08 06:00
LYPG 080600Z 03003KT 340V070 CAVOK 22/14 Q1015 NOSIG

2010/08/08 06:00
LYTV 080600Z VRB01KT CAVOK 21/16 Q1015 NOSIG

2010/08/08 06:01
KPAE 080601Z AUTO 21009KT 2 1/2SM BR OVC006 16/15 A2991

2010/08/08 05:50
EGOS 080550Z AUTO 27004KT 9999NDV FEW012/// BKN020/// 13/11 Q1021

2010/08/08 05:50
EGWU 080550Z AUTO 33003KT 9999NDV // OVC020/// 15/13 Q1019

2010/08/08 05:50
EGXJ 080550Z AUTO 33005KT 7000NDV // FEW004/// 12/11 Q1019

2010/08/08 05:50
EGXZ 080550Z AUTO 31004KT 9999NDV OVC070/// 13/11 Q1020

2010/08/08 05:50
ETUO 080550Z AUTO 00000KT 2500NDV // BKN060/// BKN170/// 16/16 Q1014

2010/08/08 06:00
LFBC 080600Z AUTO 00000KT 9999NDV FEW025 BKN035 14/13 Q1021

2010/08/08 06:00
LFBF 080600Z AUTO 25006KT 220V280 9999NDV // NSC 17/15 Q1021

2010/08/08 06:00
LFBG 080600Z AUTO 27002KT 9999NDV FEW006 15/13 Q1021

2010/08/08 06:00
LFBM 080600Z AUTO 00000KT 9999NDV FEW024 SCT220 15/15 Q1021

2010/08/08 06:00
LFKS 080600Z AUTO 27005KT 9999NDV NSC 21/11 Q1018

2010/08/08 06:00
LFMI 080600Z AUTO 03003KT 9999NDV NSC 20/13 Q1017

2010/08/08 06:00
LFMO 080600Z AUTO VRB01KT 9999NDV NSC 19/09 Q1018

2010/08/08 06:00
LFMY 080600Z AUTO VRB02KT 9999NDV NSC 18/12 Q1018

2010/08/08 06:00
LFOA 080600Z AUTO 30003KT 9999NDV SCT032 BKN038 BKN045 17/15 Q1019

2010/08/08 06:00
LFOC 080600Z AUTO 27005KT 9999NDV NSC 14/13 Q1020

2010/08/08 06:00
LFOE 080600Z AUTO 27007KT 6000NDV OVC003 15/14 Q1019

2010/08/08 06:00
LFOJ 080600Z AUTO 27005KT 9999NDV NSC 14/13 Q1020

2010/08/08 06:00
LFPC 080600Z 29005KT 260V320 9999 OVC010 15/14 Q1018

2010/08/08 06:00
LFPV 080600Z AUTO 30010KT 4100NDV BR OVC003 14/13 Q1019

2010/08/08 06:00
LFQI 080600Z AUTO 28007KT 8000NDV OVC003 15/15 Q1017

2010/08/08 06:00
LFSD 080600Z AUTO 33005KT 9999NDV NSC 18/15 Q1018

2010/08/08 06:00
LFSF 080600Z AUTO 29005KT 260V330 9999NDV FEW011 BKN056 OVC086 16/13 Q1017

2010/08/08 06:00
LFSO 080600Z AUTO 32008KT 9999NDV BKN048/// OVC058/// //////TCU 16/13 Q1018

2010/08/08 06:00
LFSX 080600Z AUTO 00000KT 9999NDV SCT049 BKN078 OVC100 15/13 Q1018

2010/08/08 06:00
LFYR 080600Z AUTO VRB01KT //// // ///////// 17/13 Q1020

2010/08/08 06:00
LEAL 080600Z 00000KT CAVOK 23/14 Q1018 NOSIG

2010/08/08 06:00
LEAM 080600Z VRB02KT 9999 FEW040 SCT090 26/08 Q1017

2010/08/08 06:00
LEAS 080600Z 08009KT 050V120 9999 SCT014 BKN026 19/16 Q1020 NOSIG

2010/08/08 06:00
LEBB 080600Z 09003KT 050V120 8000 SCT018 BKN032 18/16 Q1021 NOSIG

2010/08/08 06:00
LEBL 080600Z 32004KT 250V350 9999 FEW020 22/18 Q1018 NOSIG

2010/08/08 06:00
LECO 080600Z 00000KT 9999 FEW030 15/15 Q1019

2010/08/08 06:00
LEGE 080600Z 00000KT 9999 SCT036 21/19 Q1018

2010/08/08 06:00
LEGR 080600Z 00000KT 9999 FEW100 23/16 Q1019

2010/08/08 06:00
LEIB 080600Z 00000KT CAVOK 22/19 Q1018 NOSIG

2010/08/08 06:00
LELC 080600Z 00000KT CAVOK 21/17 Q1018 NOSIG

2010/08/08 06:00
LEMD 080600Z 00000KT 9999 FEW050 24/13 Q1019 NOSIG

2010/08/08 06:00
LEMG 080600Z 00000KT 9999 FEW020 SCT080 25/20 Q1017 NOSIG

2010/08/08 06:00
LEMH 080600Z VRB02KT 9999 FEW018 22/20 Q1019

2010/08/08 06:00
LEPA 080600Z 04003KT 330V070 CAVOK 19/17 Q1019 NOSIG

2010/08/08 06:00
LERS 080600Z VRB02KT 9999 FEW035 22/18 Q1018

2010/08/08 06:00
LESO 080600Z 13003KT 100V160 9999 FEW020 SCT040 19/16 Q1021

2010/08/08 06:00
LEST 080600Z 02003KT CAVOK 14/13 Q1018 NOSIG

2010/08/08 06:00
LEVC 080600Z 00000KT CAVOK 22/18 Q1018 NOSIG

2010/08/08 06:00
LEVT 080600Z 00000KT 9999 FEW009 OVC020 16/14 Q1022

2010/08/08 06:00
LEVX 080600Z 20008KT CAVOK 17/14 Q1015

2010/08/08 06:00
LEZG 080600Z 29011KT 9999 FEW045 20/14 Q1019

2010/08/08 06:00
LEZL 080600Z VRB02KT CAVOK 26/17 Q1015 NOSIG

2010/08/08 06:00
LFSI 080600Z AUTO VRB03KT 9999NDV FEW006 SCT043 16/15 Q1018

2010/08/08 06:00
LKCV 080600Z 20001KT 9999 SCT037 BKN045 OVC090 16/15 Q1016 NOSIG RMK BLU BLU

2010/08/08 06:00
LKNA 080600Z 29009KT 9999 SCT034 BKN100 15/14 Q1017 NOSIG RMK BLU BLU

2010/08/08 06:00
LKPD 080600Z 28005KT 9999 FEW007 BKN080 BKN100 16/15 Q1016 NOSIG RMK BLU BLU

2010/08/08 06:00
LKPO 080600Z 17004KT 6000 OVC010 16/15 Q1016 NOSIG RMK GRN GRN

2010/08/08 06:00
NWWW 080600Z AUTO 16008KT 9999NDV BKN041/// 22/12 Q1017

2010/08/08 06:02
KIZG 080602Z AUTO 00000KT 1 1/4SM BR CLR 07/07 A3002 RMK AO2

2010/08/08 06:03
KDLH 080603Z 13009KT 1/2SM BR SCT002 SCT120 17/16 A2972 RMK AO2 SFC VIS 2 PNO $

2010/08/08 06:03
KECG 080603Z AUTO 06004KT 5SM BR FEW006 BKN011 25/24 A2999 RMK AO2

2010/08/08 06:03
KFCM 080603Z AUTO VRB04KT 8SM -TSRA BKN055 26/22 A2967 RMK AO2 LTG DSNT N TSB0557 P0001

2010/08/08 06:03
KGWO 080603Z AUTO 00000KT 1 3/4SM BR CLR 24/23 A2991 RMK AO2

2010/08/08 06:03
KRNT 080603Z AUTO VRB03KT 10SM FEW013 BKN045 OVC050 17/16 A2991 RMK AO2 RAE0554

2010/08/08 06:03
KSEA 080603Z 26005KT 10SM SCT006 OVC019 16/14 A2992 RMK AO2

2010/08/08 06:03
KSTS 080603Z AUTO 00000KT 10SM BKN004 12/11 A2982 RMK AO2

2010/08/08 06:03
KVLD 080603Z AUTO 00000KT 1 1/4SM BR SCT001 24/23 A2993 RMK AO2

2010/08/08 06:02
PATO 080602Z AUTO 10005KT 9SM -RA OVC029 09/09 A2979 RMK AO2 P0001 T00940089 TSNO

2010/08/08 05:50
EGPU 080550Z AUTO 22003KT 9999NDV // FEW011/// 11/11 Q1020

2010/08/08 05:45
MMMY 080545Z 11006KT 12SM SKC 26/23 A2991 RMK SLP119 53020 905

2010/08/08 05:58
PWAK 080558Z 12010KT 7SM FEW020 SCT035 29/24 A2991 RMK AO2A RS DIST S MOV SLOWLY W 

2010/08/08 06:00
WSSS 080600Z 19006KT 160V250 9999 FEW020TCU BKN300 32/25 Q1008 NOSIG

2010/08/08 06:00
SPHI 080600Z 17012KT CAVOK 15/12 Q1016 RMK PP000 BIRD HAZARD RWY 19/01

2010/08/08 06:00
SPIM 080600Z 17006KT 7000 SCT010 OVC015 14/12 Q1015 NOSIG RMK PP000

2010/08/08 06:00
SPQT 080600Z /////KT 2000 BR SCT015 22/20 Q1013 TEMPO 1000 BCFG NOSIG RMK PP000

2010/08/08 06:00
SPQU 080600Z 06011KT CAVOK 11/M15 Q1026 RMK PP000

2010/08/08 06:00
SPRU 080600Z 17007KT 6000 OVC011 15/12 Q1015 RMK BR BIRDS HAZARD RWY20 PP000

2010/08/08 06:00
SPSO 080600Z 10004KT 8000 SKC 12/10 Q1015 RMK PP000

2010/08/08 06:00
SPTN 080600Z 05005KT 7000 OVC012 11/08 Q1014 RMK PP000

2010/08/08 06:00
SPZO 080600Z 00000KT 9999 SKC 03/M11 Q1034 RMK PP000

2010/08/08 06:00
KF24 080600Z AUTO 00000KT 10SM CLR 27/24 A2994 RMK AO2 T02710241 10310 20268 403310250

2010/08/08 06:00
KFFA 080600Z AUTO 00000KT 2SM BR CLR 24/24 A2998 RMK AO2 T02430237 10250 20242

2010/08/08 06:00
KFKN 080600Z AUTO 00000KT 1/4SM OVC002 22/21 A2999 RMK AO1

2010/08/08 05:58
KFVX 080558Z AUTO 00000KT 4SM BR CLR 20/19 A2998 RMK AO2

2010/08/08 05:55
KGHG 080555Z AUTO 20003KT 10SM CLR 15/14 A3004 RMK AO2

2010/08/08 06:00
KGWW 080600Z AUTO 00000KT 5SM BR CLR 23/22 A2997 RMK AO2 T02250220 10276 20223

2010/08/08 06:01
KHDC 080601Z AUTO 25003KT 10SM CLR 29/28 A2993 RMK AO2

2010/08/08 06:00
KHNZ 080600Z AUTO 00000KT 7SM CLR 21/20 A3000 RMK AO2 T02080198 10264 20206

2010/08/08 05:58
KHOE 080558Z AUTO 00000KT 1/2SM FG OVC001 24/ A2994 RMK AO2 T0241

2010/08/08 06:00
KHSP 080600Z AUTO 19006KT 10SM CLR 17/14 A3020 RMK AO2

2010/08/08 05:55
KCLS 080555Z AUTO 00000KT 10SM SCT012 OVC048 17/15 A2994 RMK AO2

2010/08/08 06:15
KFDW 080615Z AUTO 05004KT 10SM CLR 26/21 A2996 RMK AO1

2010/08/08 05:53
KMSP 080553Z COR 19007KT 9SM SCT055 BKN080 27/22 A2968 RMK AO2 SLP044 CONS LTGIC DSNT N-NE AND S-W T02720217 10311 20272 403170200 58007

2010/08/08 05:56
PANW 080556Z AUTO 21011KT 10SM OVC012 11/08 A2979 RMK AO2 PWINO TSNO 53007 T01050083 10144 20105 SLP064 $

2010/08/08 05:58
PTTP 080558Z 08003KT 15SM SCT018 OVC300 29/27 A2978 RMK SLP082 8/101 T02890273 10317 20277 55000

2010/08/08 05:58
PTKR 080558Z 36003KT 15SM SCT018TCU BKN120 OVC300 30/24 A2977 RMK TCU NE-SE AND SW SLP082 8/278 T03000242 10306 20283 57019

2010/08/08 06:00
OPKC 080600Z 33006KTS 6000 FEW020 BKN100 31/26 Q1002 NOSIG

2010/08/08 05:55
OPLA 080555Z 23007KT 5000 FU SCT040 SCT100 34/26 Q1004 NOSIG

2010/08/08 06:00
OPRN 080600Z 23006KT 3000 DZ FEW010ST SCT030 BKN100 FEW025TCU 27/25 Q1006.6

2010/08/08 06:00
KHWY 080600Z AUTO 00000KT 10SM CLR 16/14 A3000 RMK AO2

2010/08/08 06:00
KIPJ 080600Z AUTO 00000KT 5SM BR SCT080 20/19 A3000 RMK AO2 T02040192 10264 20204

2010/08/08 06:00
KISO 080600Z AUTO 00000KT 3SM BR 24/24 A2997 RMK AO2 SKY OBSCURED 60049 T02440236 10281 20243

2010/08/08 06:00
KIXA 080600Z AUTO 00000KT 2 1/2SM BR CLR 21/21 A2997 RMK AO2 T02100208 10271 20210

2010/08/08 06:00
KJES 080600Z AUTO 29003KT 3/4SM BR OVC002 24/24 A2993 RMK AO2 T02420242 10265 20240 403420236

2010/08/08 06:00
KJGG 080600Z AUTO 00000KT 5SM CLR 23/22 A3000 RMK AO1

2010/08/08 06:00
KJKA 080600Z AUTO 00000KT 10SM VCTS CLR 28/26 A2991 RMK AO2 LTG DSNT S THRU W T02840259

2010/08/08 06:00
KLDJ 080600Z AUTO 00000KT 7SM CLR 22/18 A3000 RMK AO2 T02220184 10263 20222

2010/08/08 06:00
KLHZ 080600Z AUTO 00000KT 7SM CLR 23/21 A2999 RMK AO2 T02280211

2010/08/08 06:00
KLWB 080600Z AUTO 02003KT 10SM SCT039 SCT050 17/16 A3010 RMK AO2

2010/08/08 06:00
KMGR 080600Z AUTO 00000KT 7SM CLR 25/24 A2994 RMK AO2

2010/08/08 06:01
KMLJ 080601Z AUTO 00000KT 4SM BR CLR 24/24 A2994 RMK AO2

2010/08/08 06:00
KMQI 080600Z AUTO 07004KT 7SM CLR 26/26 A2998 RMK AO2

2010/08/08 06:01
KMRN 080601Z AUTO 32003KT 5SM BR SCT065 21/21 A3007 RMK AO2

2010/08/08 06:02
KMWK 080602Z AUTO 00000KT 5SM BR CLR 20/18 A3003 RMK AO2

2010/08/08 06:01
KOCW 080601Z AUTO 00000KT 4SM HZ CLR 24/19 A2998 RMK AO2

2010/08/08 06:00
KRUQ 080600Z AUTO 00000KT 1 3/4SM BR VV007 21/19 A2999 RMK AO2

2010/08/08 06:00
KSIF 080600Z AUTO 00000KT 1 1/4SM BR SCT090 18/18 A3001 RMK AO2 T01840183 10244 20181

2010/08/08 06:01
KTDF 080601Z AUTO 00000KT 20/20 A3001 RMK AO1

2010/08/08 06:00
KTPF 080600Z AUTO 25003KT 10SM CLR 29/26 A2994 RMK AO2

2010/08/08 06:04
KTTA 080604Z AUTO 00000KT 5SM BR SCT065 SCT080 23/22 A2998 RMK AO2

2010/08/08 06:00
KUNV 080600Z AUTO 00000KT 10SM CLR 16/13 A3004 RMK AO2 T01600125

2010/08/08 05:58
KVUJ 080558Z AUTO 00000KT 7SM CLR 23/21 A2997 RMK AO2

2010/08/08 05:59
K0R3 080559Z AUTO 00000KT 27/26 A2992 RMK AO2 PWINO

2010/08/08 06:00
K1A5 080600Z AUTO 00000KT 1 3/4SM BR SCT048 19/18 A3006 RMK AO2 VIS 1V2 1/2 T01890175 10267 20189

2010/08/08 06:00
K3A1 080600Z AUTO 00000KT 10SM CLR 22/22 A2997 RMK AO2 T02170218 10300 20217 TSNO

2010/08/08 05:59
K3I2 080559Z AUTO 00000KT 7SM CLR 16/16 A3002 RMK AO2

2010/08/08 06:00
K3J7 080600Z AUTO 00000KT 5SM BR CLR 24/23 A2994 RMK AO2 T02400228

2010/08/08 05:58
K4A9 080558Z AUTO 00000KT 10SM CLR 22/20 A2995 RMK AO2 T02210202

2010/08/08 06:00
K4R4 080600Z AUTO 23003KT 10SM CLR 27/25 A2992 RMK AO2 T02730253 10295 20267 403610265

2010/08/08 05:58
K8A0 080558Z AUTO 12004KT 10SM CLR 26/18 A2995 RMK AO2

2010/08/08 06:00
KACP 080600Z AUTO 00000KT 10SM CLR 26/26 A2991 RMK AO2

2010/08/08 06:00
KAFP 080600Z AUTO 00000KT 5SM BR CLR 23/23 A2996 RMK AO2 T02290227 10285 20229

2010/08/08 06:00
KALX 080600Z AUTO 00000KT 7SM CLR 25/23 A2995 RMK AO1

2010/08/08 06:02
KASJ 080602Z AUTO 00000KT 7SM CLR 21/19 A2999 RMK AO2

2010/08/08 06:00
KAYS 080600Z AUTO 00000KT 5SM OVC008 26/25 A2983 RMK AO1

2010/08/08 06:02
KBGE 080602Z AUTO 00000KT 7SM CLR 24/23 A2992 RMK AO2

2010/08/08 06:00
KBQK 080600Z AUTO 26003KT 4SM SCT002 25/25 A2993 RMK AO1 6//// T02500246 10266 20243 403260242 PNO

2010/08/08 06:00
KCCO 080600Z AUTO 00000KT 3SM CLR 22/22 A2997 RMK AO1

2010/08/08 06:00
KCDH 080600Z AUTO 00000KT 10SM FEW047 25/24 A2990 RMK AO2

2010/08/08 05:59
KCJR 080559Z AUTO 00000KT 7SM CLR 18/17 A3001 RMK AO2

2010/08/08 06:00
KCPC 080600Z AUTO 00000KT 1SM BR SCT001 24/23 A2994 RMK AO2 T02350232 10285 20234

2010/08/08 06:00
KCTJ 080600Z AUTO 00000KT 10SM CLR 24/23 A2998 RMK AO2 T02370229 10291 20237 403380212

2010/08/08 06:00
KCWV 080600Z AUTO 00000KT 5SM BR CLR 25/25 A2993 RMK AO2 T02470247

2010/08/08 05:58
KDBN 080558Z AUTO 00000KT 4SM CLR 24/24 A2993 RMK AO1

2010/08/08 05:58
KDNN 080558Z AUTO 00000KT 10SM CLR 22/22 A2996 RMK AO2

2010/08/08 06:01
KDQH 080601Z AUTO 00000KT 5SM BKN006 26/24 A2993 RMK AO1

2010/08/08 06:00
KDRI 080600Z AUTO 20005KT 10SM CLR 26/26 A2994 RMK AO2

2010/08/08 05:55
KEMV 080555Z AUTO 00000KT 10SM SCT003 20/18 A3000 RMK AO2

2010/08/08 06:00
KEYF 080600Z AUTO 00000KT 5SM BR SCT015 24/23 A2996 RMK AO2 T02350230

2010/08/08 05:57
KEZF 080557Z AUTO 00000KT 10SM CLR 19/19 A2999 RMK AO2 T01920190

2010/08/08 06:00
OPNH 080600Z 31505KT 4000 FU SCT030 SCT100 32/28 Q1001

2010/08/08 06:00
UKBB 080600Z VRB01MPS CAVOK 29/15 Q1014 88CLRD95 NOSIG

2010/08/08 06:00
UKHH 080600Z 07003MPS CAVOK 30/10 Q1017 080///65 NOSIG

2010/08/08 06:00
UKOO 080600Z VRB02MPS CAVOK 30/20 Q1012 34090070 NOSIG

2010/08/08 06:00
UKDE 080600Z 13005MPS 070V180 CAVOK 32/11 Q1015 20CLRD70 NOSIG

2010/08/08 06:00
UKDD 080600Z 09003MPS CAVOK 30/14 Q1015 08090070 NOSIG

2010/08/08 06:00
UKFF 080600Z 06002MPS 030V100 CAVOK 32/13 Q1011 01010070 NOSIG

2010/08/08 06:00
UKLL 080600Z 00000MPS CAVOK 21/19 Q1015 13210360 NOSIG

2010/08/08 06:00
UKCC 080600Z 10005MPS CAVOK 34/10 Q1016 08090070 NOSIG

2010/08/08 06:00
UKDR 080600Z 10004MPS 070V140 CAVOK 30/16 Q1015 1809//70 NOSIG

2010/08/08 06:00
UBBY 080600Z VRB03KT 9999 FEW100 28/15 Q1016 NOSIG RMK R33/CLRD70 G/O

2010/08/08 05:45
LHDC 080545Z 22004KT CAVOK 18/15 Q1017 NOSIG

2010/08/08 05:45
LHKE 080545Z 29002MPS 9999 BKN040 17/15 Q1017 NOSIG RMK BLU

2010/08/08 05:45
LHPA 080545Z 19003MPS 9999 FEW040 BKN083 17/15 Q1019 NOSIG RMK BLU

2010/08/08 05:45
LHPP 080545Z 12001KT CAVOK 18/16 Q1019

2010/08/08 05:45
LHPR 080545Z 26006KT 9999 FEW026 BKN083 17/16 Q1017

2010/08/08 05:45
LHSM 080545Z 00000KT 9999 FEW005 BKN035 17/16 Q1018 BECMG 8000 NSW

2010/08/08 05:45
LHSN 080545Z 26002MPS 9999 FEW020 BKN035 18/15 Q1017 NOSIG RMK BLU

2010/08/08 05:45
LHUD 080545Z 35004KT CAVOK 19/16 Q1018

2010/08/08 06:00
MKJS 080600Z 00000KT 9999 VCTS FEW024CB 28/22 Q1014

2010/08/08 06:00
SARI 080600Z 05005KT CAVOK 14/14 Q1018

2010/08/08 06:00
FLLS 080600Z 09006KT CAVOK 13/09 Q1025 NOSIG

2010/08/08 06:00
UBBG 080600Z 34004KT 9999 FEW100 29/15 Q1013 NOSIG RMK R30R/CLRD70 

2010/08/08 06:00
TFFR 080600Z 06002KT 9999 VCSH FEW023 SCT083 26/22 Q1013 TEMPO 4000 SHRA

2010/08/08 06:00
TFFF 080600Z AUTO 02003KT 9999NDV NCD 25/24 Q1012

2010/08/08 06:00
SAWG 080600Z 25019G31KT 9999 SCT030 04/M02 Q1000

2010/08/08 06:00
OPPS 080600Z NW-10KT 0600 RAIN BKN006ST FEW030TCU SCT030 OVC100 25/25 Q1006.1

2010/08/08 06:00
MKJS 080600Z 00000KT 9999 VCTS FEW024CB 28/22 Q1014

2010/08/08 05:50
EGPI 080550Z AUTO 06001KT 9999NDV // NSC 10/10 Q1020

2010/08/08 06:05
LIBG 080605Z 29005KT 240V320 CAVOK 24/16 Q1015 RMK VIS MIN 9999

2010/08/08 06:00
FABL 080600Z 00000KT CAVOK 04/01 Q1025 NOSIG

2010/08/08 06:00
FACT 080600Z 32014KT 4500 -RA SCT004 BKN009 OVC029 12/11 Q1016 NOSIG

2010/08/08 06:00
FAEL 080600Z 33014KT CAVOK 26/M03 Q1010

2010/08/08 06:00
FAGG 080600Z 32011KT 9999 FEW030 15/05 Q1012

2010/08/08 06:00
FAJS 080600Z 32012KT 8000 NSC 10/04 Q1028 NOSIG

2010/08/08 06:00
FAKN 080600Z 26003KT CAVOK 12/08 Q1025 NOSIG

2010/08/08 06:00
FALA 080600Z 00000KT 3500 BR NSC 07/04 Q1028 BECMG 7000

2010/08/08 06:00
FALE 080600Z 03009KT CAVOK 17/12 Q1018 NOSIG

2010/08/08 06:00
FAMM 080600Z 04003KT CAVOK 11/01 Q1026 NOSIG

2010/08/08 06:00
FAPE 080600Z 24018KT CAVOK 14/12 Q1012 NOSIG

2010/08/08 06:00
FAPP 080600Z 19003KT 8000 NSC 08/05 Q1026 NOSIG

2010/08/08 06:00
FAUP 080600Z 35008KT CAVOK 14/M01 Q1020 NOSIG

2010/08/08 06:00
FYGB 080600Z AUTO 25001KT //// // ////// 07/M02 Q1026

2010/08/08 06:00
FYGF 080600Z 02003KT CAVOK 06/02 Q1026

2010/08/08 06:00
FYKM 080600Z 00000KT CAVOK 11/09 Q1021

2010/08/08 06:00
FYKT 080600Z AUTO 31004KT //// // ////// 16/M01 Q1022

2010/08/08 06:00
FYLZ 080600Z AUTO 14007KT //// // ////// 09/06 Q1021

2010/08/08 06:00
FYML 080600Z AUTO 06003KT //// // ////// ///// Q1024

2010/08/08 06:00
FYOA 080600Z 10004KT CAVOK 14/03 Q1021

2010/08/08 06:00
FYOJ 080600Z AUTO 36002KT //// // ////// 11/M01 Q1022

2010/08/08 06:00
FYOW 080600Z AUTO 11003KT //// // ////// 14/M00 Q1024

2010/08/08 06:00
FYRU 080600Z 09006KT CAVOK 13/05 Q1023

2010/08/08 06:00
FYWB 080600Z 11004KT 080V140 4500 VV/// 11/10 Q1020 

2010/08/08 06:00
FYWH 080600Z 27004KT CAVOK 08/M03 Q1028

2010/08/08 06:00
FYWW 080600Z 10004KT CAVOK 13/M02 Q1026

2010/08/08 06:00
MZBZ 080600Z 00000KT 9999 FEW005 BKN260 26/26 A2989 Q1012 NOSIG

2010/08/08 06:00
FBFT 080600Z 00000KT CAVOK 10/06 Q1027 

2010/08/08 06:00
FBKE 080600Z 11012KT CAVOK 16/06 Q1024

2010/08/08 06:00
FBMN 080600Z 11007KT CAVOK 13/05 Q1025

2010/08/08 06:00
FBSK 080600Z 14004KT CAVOK 09/05 Q1026 NOSIG

2010/08/08 06:00
LKKV 080600Z VRB02KT CAVOK 14/11 Q1017

2010/08/08 06:00
LKMT 080600Z 23007KT 9999 -RA FEW015 OVC035 16/14 Q1015 NOSIG

2010/08/08 06:00
LKPR 080600Z 21007KT 9999 BKN046 15/14 Q1016 NOSIG

2010/08/08 06:00
LKTB 080600Z 27004KT 230V300 9999 SCT020 BKN050 17/15 Q1016 NOSIG

2010/08/08 06:00
LQMO 080600Z VRB01KT 9999 FEW050 20/14 Q1015

2010/08/08 05:50
EGEC 080550Z AUTO 30007KT 9999NDV // FEW015/// 12/12 Q1020

2010/08/08 06:00
SACO 080600Z 29005KT CAVOK 04/00 Q1022

2010/08/08 06:00
SAME 080600Z 00000KT CAVOK 05/M01 Q1022

2010/08/08 06:00
SARE 080600Z 18005KT CAVOK 10/08 Q1016

2010/08/08 06:00
SARF 080600Z 18006KT CAVOK 12/10 Q1016

2010/08/08 06:00
SARI 080600Z 05005KT CAVOK 14/14 Q1018

2010/08/08 06:00
SASA 080600Z 25003KT CAVOK 04/M00 Q1019

2010/08/08 06:00
SAVC 080600Z 29014KT CAVOK 09/M01 Q1014

2010/08/08 06:00
SAWG 080600Z 25019G31KT 9999 SCT030 04/M02 Q1000

2010/08/08 06:00
SAZN 080600Z 00000KT CAVOK M01/M06 Q1025

2010/08/08 06:00
SAZS 080600Z 32014KT 9999 FEW025 02/M04 Q1024

2010/08/08 06:00
FIMR 080600Z 14025KT 9999 SCT018 24/13 Q1023

2010/08/08 06:00
OIAW 080600Z 18004KT 7000 NSC 38/16 Q0998 A2949

2010/08/08 06:00
OIFM 080600Z 12004KT 7000 SKC 28/M02 Q1019 A3009

2010/08/08 06:00
OIKB 080600Z 17008KT 6000 NSC 35/28 Q0999 A2952

2010/08/08 06:00
OIKK 080600Z 33006KT CAVOK 24/M04 Q1018 A3007

2010/08/08 06:00
OIMM 080600Z 35010KT CAVOK 33/01 Q1013 A2993

2010/08/08 06:00
OISS 080600Z 00000KT CAVOK 31/01 Q1015 A2998

2010/08/08 06:00
OITT 080600Z 09010KT 9999 FEW035 SCT090 29/10 Q1018 A3008

2010/08/08 06:00
OIZH 080600Z 34010KT 8000 NSC 32/M05 Q1010 A2985

2010/08/08 06:00
RJFG 080600Z 10012KT 060V130 9999 FEW008 SCT010 BKN015 27/25 Q1009

2010/08/08 06:00
RJFK 080600Z 11009KT 090V160 9999 FEW025 29/22 Q1010

2010/08/08 06:00
RJFM 080600Z 09009KT 9999 -SHRA FEW005 SCT030 BKN070 28/26 Q1010

2010/08/08 06:00
RJFO 080600Z 09009KT 9999 FEW025 28/24 Q1011

2010/08/08 06:00
RJFR 080600Z 08019KT 9999 FEW025 30/22 Q1009

2010/08/08 06:00
RJFT 080600Z 10015KT 9999 FEW040 33/22 Q1009

2010/08/08 06:00
RJFU 080600Z 36008KT 9999 FEW035 33/24 Q1008

2010/08/08 06:00
RJGG 080600Z 16010KT 9999 -SHRA FEW015 SCT025 FEW025TCU BKN070 30/25 Q1014 NOSIG

2010/08/08 06:00
RJKA 080600Z 19012KT 9999 FEW020 SCT040 BKN070 31/25 Q1004

2010/08/08 06:00
RJNT 080600Z 36010KT 9999 FEW030 SCT100 BKN/// 32/22 Q1012

2010/08/08 06:00
RJNW 080600Z 09009KT 9999 FEW030 BKN100 BKN/// 31/21 Q1014

2010/08/08 06:00
RJNS 080600Z 15005KT 110V180 9999 FEW015 SCT040 BKN150 28/21 Q1015

2010/08/08 06:00
RJOA 080600Z 13006KT 080V180 9999 FEW035 FEW040TCU 31/18 Q1013

2010/08/08 06:00
RJOB 080600Z 10009KT 9999 FEW035 SCT180 29/20 Q1013

2010/08/08 06:00
RJOC 080600Z 01011KT 9999 FEW030 32/22 Q1010

2010/08/08 06:00
RJOH 080600Z 05016KT 9999 FEW030 32/24 Q1010

2010/08/08 06:00
RJOK 080600Z 16011KT 9999 FEW020 FEW025CB SCT060 BKN080 30/24 Q1012

2010/08/08 06:00
RJOM 080600Z 33006KT 300V360 9999 FEW025 FEW030TCU 32/22 Q1011

2010/08/08 06:00
RJOO 080600Z 10010KT 060V120 9999 FEW025 SCT045 32/20 Q1011

2010/08/08 06:00
RJOR 080600Z 15010KT 100V190 9999 FEW035 35/20 Q1010

2010/08/08 06:00
RORS 080600Z 11018KT 9999 SCT018 30/25 Q0998

2010/08/08 06:00
RJAH 080600Z 17009KT 9999 FEW030 SCT150 BKN230 31/25 Q1013

2010/08/08 06:00
RJAA 080600Z 17008KT 9999 FEW020 SCT030 BKN/// 29/23 Q1014 NOSIG

2010/08/08 06:00
RJAF 080600Z 18007KT 9999 FEW040 FEW050CB SCT080 BKN160 29/17 Q1017

2010/08/08 06:00
RJBB 080600Z 25010KT 9999 FEW020 31/21 Q1012 NOSIG

2010/08/08 06:00
RJBD 080600Z VRB02KT 9999 FEW015 SCT045 BKN/// 31/22 Q1013

2010/08/08 06:00
RJBE 080600Z 24011KT 9999 FEW025 30/22 Q1012

2010/08/08 06:00
RJBH 080600Z 21010KT 9999 FEW030 FEW030CB 33/20 Q1010

2010/08/08 06:00
RJBT 080600Z VRB05KT 9999 FEW025 BKN/// 33/21 Q1012

2010/08/08 06:00
RJCB 080600Z 13012KT 9999 FEW010 FEW020CB SCT025 27/23 Q1013

2010/08/08 06:00
RJCC 080600Z 17007KT 140V200 9999 FEW012 SCT050TCU 29/23 Q1012

2010/08/08 06:00
RJCH 080600Z 26005KT 230V320 9999 FEW009 SCT030 BKN/// 29/26 Q1013

2010/08/08 06:00
RJCK 080600Z 19010KT 9999 FEW005 BKN025 21/17 Q1014

2010/08/08 06:00
RJCM 080600Z 07005KT 9999 FEW013 BKN034 25/21 Q1013

2010/08/08 06:00
RJCN 080600Z 05006KT 010V100 9999 FEW005 BKN009 BKN012 21/19 Q1014

2010/08/08 06:00
RJCW 080600Z 01007KT 9999 FEW020 23/20 Q1013

2010/08/08 06:00
RJDC 080600Z 09018KT 9999 FEW025 30/21 Q1010

2010/08/08 06:00
RJDT 080600Z 13006KT 9999 FEW020 30/22 Q1010

2010/08/08 06:00
RJEB 080600Z 10008KT 9999 BR FEW001 SCT003 22/20 Q1013

2010/08/08 06:00
RJEC 080600Z VRB01KT 9999 FEW005 SCT035 BKN060 27/23 Q1013

2010/08/08 06:00
RJFS 080600Z 23005KT 170V280 9999 FEW040 FEW040TCU 35/23 Q1008

2010/08/08 06:00
RJFF 080600Z 06005KT 310V120 9999 FEW025 FEW035TCU SCT040 33/22 Q1008

2010/08/08 06:00
RJOT 080600Z 10006KT 040V150 9999 FEW015 BKN/// 32/21 Q1012

2010/08/08 06:00
RJOW 080600Z 01009KT 9999 FEW040 30/23 Q1010

2010/08/08 06:00
RJOY 080600Z VRB04KT 9999 FEW025 SCT040 34/20 Q1012

2010/08/08 06:00
RJSA 080600Z 28008KT 9999 FEW020 SCT030 30/23 Q1014

2010/08/08 06:00
RJSC 080600Z 13007KT 9999 -SHRA FEW030 FEW040CB SCT045 32/24 Q1013 RETS

2010/08/08 06:00
RJSF 080600Z 21004KT 160V260 9999 FEW030 BKN/// 31/22 Q1015

2010/08/08 06:00
RJSI 080600Z 21005KT 9999 FEW030 SCT120 BKN/// 30/23 Q1013

2010/08/08 06:00
RJSK 080600Z 27005KT 230V330 9999 FEW020 30/25 Q1014

2010/08/08 06:00
RJSR 080600Z 30006KT 260V330 9999 FEW025 31/25 Q1014

2010/08/08 06:00
RJSN 080600Z 01014KT 9999 FEW030 FEW040TCU BKN/// 32/22 Q1012

2010/08/08 06:00
RJSS 080600Z 15011KT 9999 FEW030CB 30/24 Q1013

2010/08/08 06:00
RJSY 080600Z 33006KT 290V020 9999 FEW025 BKN/// 30/22 Q1013

2010/08/08 06:00
RJTF 080600Z 20007KT 170V250 9999 FEW030 BKN160 BKN/// 30/21 Q1014

2010/08/08 06:00
RJTH 080600Z VRB05KT 9999 SCT020 BKN/// 28/26 Q1015

2010/08/08 06:00
RJTI 080600Z 20010KT 9999 FEW020 BKN140 29/22 Q1014

2010/08/08 06:00
RJTO 080600Z VRB02KT 9999 FEW012 BKN/// 27/25 Q1015

2010/08/08 06:00
RJTT 080600Z 20011KT 9999 FEW020 FEW030CB BKN140 30/22 Q1014

2010/08/08 06:00
ROAH 080600Z 17015KT 9999 FEW015 SCT020 BKN/// 31/26 Q1002

2010/08/08 06:00
ROIG 080600Z 03017KT 9999 FEW020 FEW025TCU BKN/// 31/26 Q0998

2010/08/08 06:00
ROMY 080600Z 12015G27KT 9999 FEW015 BKN020 29/26 Q0999

2010/08/08 05:50
OAKN 080550Z 18006KT 9000 DU FEW120 BKN180 35/07 Q1006 BLU NOSIG RMK A2972 DA6600

2010/08/08 06:00
UGTB 080600Z 00000KT 9999 SKC 30/14 Q1016 NOSIG RMK 31CLRD80

2010/08/08 06:00
UGKO 080600Z 00000KT 9999 SKC 28/20 Q1011 NOSIG

2010/08/08 06:00
UGSB 080600Z 11008KT 9999 FEW023 29/18 Q1009 NOSIG

2010/08/08 06:00
LPFR 080600Z 09016KT CAVOK 27/15 Q1014

2010/08/08 06:00
LPMA 080600Z 01004KT 240V050 9999 FEW016 20/15 Q1015 RS31006KT 0502003KT 2336006KT

2010/08/08 06:00
LPPR 080600Z 00000KT 8000 SCT250 18/16 Q1014

2010/08/08 06:00
LPPS 080600Z 36008KT 9999 FEW015 BKN030 20/15 Q1016

2010/08/08 06:00
LPPT 080600Z 25004KT CAVOK 23/15 Q1015 NOSIG

2010/08/08 06:00
FBSK 080600Z 14004KT CAVOK 09/05 Q1026 NOSIG

2010/08/08 06:00
LFAQ 080600Z AUTO 29006KT 7000NDV BKN003 BKN013 OVC041 15/15 Q1018

2010/08/08 06:00
LFBU 080600Z AUTO 28003KT 9999NDV NSC 14/13 Q1021

2010/08/08 06:00
LFLN 080600Z AUTO 27005KT 9999NDV NSC 17/14 Q1019

2010/08/08 06:00
LFPM 080600Z 26004KT 9999 FEW013 16/14 Q1019

2010/08/08 06:00
LFRH 080600Z 33004KT 9999 SCT029 12/12 Q1022

2010/08/08 06:00
LFRQ 080600Z 32004KT 9999 FEW016 SCT023 14/13 Q1022 NOSIG

2010/08/08 06:00
LFRT 080600Z 30004KT 9999 BKN026 15/15 Q1021

2010/08/08 06:00
LFSD 080600Z AUTO 33005KT 9999NDV NSC 18/15 Q1018

2010/08/08 06:00
LFTW 080600Z AUTO VRB02KT 9999NDV NSC 21/09 Q1018

2010/08/08 06:00
OIAA 080600Z 00000KT CAVOK 40/12 Q0998

2010/08/08 06:00
OIBK 080600Z 11010KT 4000 HZ SKC 36/30 Q0998 A2949

2010/08/08 06:00
OICC 080600Z 36004KT CAVOK 31/02 Q1015 A2999 866.9

2010/08/08 06:00
OIGG 080600Z 28004KT CAVOK 30/22 Q1010 A2983

2010/08/08 06:00
OIIE 080600Z 13010KT CAVOK 30/M00 Q1015 A2997

2010/08/08 06:00
OIYY 080600Z 32008KT CAVOK 30/M04 Q1015 A3000

2010/08/08 06:00
OJAQ 080600Z 36019KT 5000 DU NSC 32/21 Q1008

2010/08/08 06:00
TGPY 080600Z 00000KT 9999 SCT018 26/25 Q1012

2010/08/08 06:00
LRBS 080600Z 28004KT 260V320 CAVOK 25/21 Q1013 NOSIG

2010/08/08 06:00
LRCK 080600Z 36006KT 320V040 6000 SCT007 28/27 Q1013 NOSIG

2010/08/08 06:00
LROP 080600Z 26005KT 230V280 CAVOK 25/23 Q1012 8809//95 NOSIG

2010/08/08 06:00
LRSB 080600Z VRB02KT 3500 -DZ BR FEW003 SCT006 OVC017 19/19 Q1017

2010/08/08 06:00
LRTR 080600Z 35003KT 310V040 CAVOK 21/18 Q1018

2010/08/08 05:50
LFBA 080550Z 29006KT 9999 BKN006 17/16 Q1020 BECMG FEW015

2010/08/08 06:00
LFBE 080600Z 28005KT 9999 FEW020 16/14 Q1020 NOSIG

2010/08/08 06:00
LFGJ 080600Z AUTO VRB02KT 9999NDV NSC 16/13 Q1018

2010/08/08 06:00
LFJR 080600Z AUTO 30004KT 240V350 9999NDV OVC006/// 15/13 Q1021 

2010/08/08 06:00
LFMD 080600Z AUTO 36003KT 320V030 9999NDV NSC 19/15 Q1017

2010/08/08 06:00
LFMH 080600Z VRB02KT 9999 FEW050 17/13 Q1019 NOSIG

2010/08/08 06:00
LFRC 080600Z AUTO 32004KT 280V350 9999NDV FEW008 15/14 Q1020

2010/08/08 06:00
LFRG 080600Z AUTO 01003KT 9999NDV SCT008 SCT012 16/15 Q1020

2010/08/08 06:00
LFRK 080600Z 27007KT 9999 FEW020 14/13 Q1020 NOSIG

2010/08/08 06:00
OJAQ 080600Z 36019KT 5000 DU NSC 32/21 Q1008

2010/08/08 06:00
OIBB 080600Z 03006KT 8000 HZ FEW040 36/28 Q0998 A2948

2010/08/08 06:00
OICK 080600Z 06012KT CAVOK 34/M00 Q1013 A2992

2010/08/08 06:00
OICS 080600Z 34006KT CAVOK 31/M00 Q1016 A3003

2010/08/08 06:00
OINZ 080600Z 29006KT CAVOK 33/18 Q1010 A2983

2010/08/08 06:00
OISR 080600Z 00000KT 9999 FEW040 39/17 Q1003 A2962

2010/08/08 06:00
LFLL 080600Z 15006KT 9999 FEW030 SCT090 17/12 Q1018 NOSIG

2010/08/08 06:00
LFMN 080600Z 33008KT 9999 FEW018 20/13 Q1017 NOSIG

2010/08/08 06:00
LFPG 080600Z 29009KT 9999 BKN006 15/14 Q1019 NOSIG

2010/08/08 06:00
LFPO 080600Z 30009KT 9999 BKN006 15/14 Q1019 NOSIG

2010/08/08 06:00
LFQQ 080600Z 29006KT 6000 FEW005 SCT110 15/15 Q1017 TEMPO BKN007

2010/08/08 06:00
LFRB 080600Z VRB03KT 0200 R07/0450N FG VV/// 13/12 Q1022 TEMPO BKN003

2010/08/08 06:00
LFRS 080600Z 28001KT CAVOK 13/12 Q1021 NOSIG

2010/08/08 06:00
LFBD 080600Z 00000KT 9999 BKN025 17/15 Q1021 NOSIG

2010/08/08 06:00
LFBH 080600Z AUTO 02005KT 9999NDV OVC037 16/14 Q1021

2010/08/08 06:00
LFBI 080600Z 33006KT 9999 FEW036 15/13 Q1020 NOSIG

2010/08/08 06:00
LFBL 080600Z 34005KT 320V020 9999 SCT017 14/13 Q1020 NOSIG

2010/08/08 06:00
LFBO 080600Z 27010KT CAVOK 18/14 Q1020 NOSIG

2010/08/08 06:00
LFBP 080600Z 31004KT 9999 BKN010 16/16 Q1022 BECMG SCT025

2010/08/08 06:00
LFBT 080600Z 26005KT 210V310 9999 BKN007 16/14 Q1022 BECMG CAVOK

2010/08/08 06:00
LFBZ 080600Z AUTO 11005KT 9999NDV NSC 17/16 Q1021

2010/08/08 06:00
LFLB 080600Z 19004KT CAVOK 15/13 Q1019 NOSIG

2010/08/08 06:00
LFLX 080600Z 35005KT 9999 BKN043 18/15 Q1019 NOSIG

2010/08/08 06:00
LFML 080600Z 16002KT CAVOK 20/13 Q1017 NOSIG

2010/08/08 06:00
RKSI 080600Z 23009KT 9999 FEW030 31/22 Q1010 NOSIG

2010/08/08 06:00
RKSS 080600Z 29010KT 9999 FEW030 32/19 Q1009 NOSIG 

2010/08/08 06:00
RKPC 080600Z 32010KT 9999 SCT020 31/24 Q1009 WS ALL RWY NOSIG 

2010/08/08 06:00
RKPK 080600Z 18008KT 9999 FEW030 SCT200 33/19 Q1009 NOSIG 

2010/08/08 06:00
RKTU 080600Z 23004KT 9999 SCT030 32/20 Q1009 NOSIG 

2010/08/08 06:00
RKTN 080600Z 33005KT 9999 SCT030 33/22 Q1008 NOSIG

2010/08/08 06:00
RKJB 080600Z 22006KT 9999 SCT040 31/21 Q1009 NOSIG 

2010/08/08 06:00
RKNY 080600Z 23007KT 7000 -SHRA FEW010 SCT025 25/22 Q1009 NOSIG 

2010/08/08 06:00
LFCR 080600Z AUTO 00000KT 9999NDV NSC 16/14 Q1021

2010/08/08 06:00
LFJL 080600Z AUTO 31008KT 9999NDV FEW011/// BKN078/// BKN090/// //////TCU 15/13 Q1017

2010/08/08 06:00
LFLP 080600Z AUTO VRB02KT 9999NDV BKN078 BKN092 OVC120 15/11 Q1020

2010/08/08 06:00
LFLS 080600Z 09008KT 9999 SCT058 17/13 Q1019 NOSIG

2010/08/08 06:00
LFLY 080600Z VRB02KT CAVOK 17/12 Q1018 NOSIG

2010/08/08 06:00
LFMT 080600Z 00000KT CAVOK 20/13 Q1018 NOSIG

2010/08/08 06:00
LFMU 080600Z AUTO 27006KT 9999NDV NSC 20/14 Q1018

2010/08/08 06:00
LFOB 080600Z 31008KT 9999 BKN006 16/14 Q1018 NOSIG

2010/08/08 06:00
LFOH 080600Z AUTO 36006KT 9999NDV BKN008 17/14 Q1019

2010/08/08 06:00
LFOK 080600Z AUTO 28006KT 9999NDV NSC 15/14 Q1018

2010/08/08 06:00
LFOP 080600Z 29005KT 260V330 4000 BR OVC003 15/14 Q1019 NOSIG

2010/08/08 06:00
LFPB 080600Z AUTO 28006KT 9999NDV OVC008 15/14 Q1018

2010/08/08 06:00
LFSN 080600Z 31008KT 270V350 9999 BKN012 BKN053 17/13 Q1017 NOSIG

2010/08/08 06:00
LFMI 080600Z AUTO 03003KT 9999NDV NSC 20/13 Q1017

2010/08/08 06:00
LFMK 080600Z 24004KT 200V310 CAVOK 19/14 Q1020 NOSIG

2010/08/08 06:00
LFRD 080600Z AUTO 22003KT 9999NDV FEW013 BKN024 16/14 Q1021

2010/08/08 06:00
LFRN 080600Z AUTO 29004KT 9999NDV NSC 13/13 Q1021

2010/08/08 06:00
LFRO 080600Z AUTO VRB02KT 9999NDV SCT011 SCT017 14/14 Q1021

2010/08/08 06:00
LFRZ 080600Z AUTO 30003KT 270V330 9999NDV NSC 13/12 Q1021

2010/08/08 06:00
LFST 080600Z VRB02KT 9999 FEW043 BKN076 17/13 Q1017 NOSIG

2010/08/08 06:00
LFTH 080600Z VRB02KT CAVOK 18/11 Q1017 NOSIG

2010/08/08 06:00
LFKB 080600Z 22006KT 9999 FEW020 22/15 Q1018 NOSIG

2010/08/08 06:00
LFKC 080600Z 17004KT 130V210 CAVOK 22/14 Q1018 NOSIG

2010/08/08 06:00
LFKF 080600Z AUTO 00000KT 9999NDV NCD 17/14 Q1018

2010/08/08 06:00
LFKJ 080600Z 05005KT CAVOK 18/13 Q1018 NOSIG

2010/08/08 06:00
LFLC 080600Z 00000KT CAVOK 16/14 Q1020 NOSIG

2010/08/08 06:00
LFMP 080600Z 28005KT 250V320 9999 FEW060 24/14 Q1018 NOSIG

2010/08/08 06:00
LFMV 080600Z AUTO 00000KT 9999NDV NSC 19/10 Q1017

2010/08/08 06:00
LFSL 080600Z AUTO 30005KT 9999NDV NSC 15/11 Q1020

2010/08/08 06:00
ZBAA 080600Z 22002MPS 150V280 CAVOK 31/20 Q1003 NOSIG

2010/08/08 06:00
ZBSJ 080600Z 10002MPS 2000 R33/1400 HZ NSC 28/23 Q1003 NOSIG

2010/08/08 06:00
ZBTJ 080600Z 14002MPS 080V250 3000 HZ NSC 29/22 Q1003 NOSIG

2010/08/08 06:00
ZBYN 080600Z 13002MPS 8000 NSC 30/18 Q1006 NOSIG

2010/08/08 06:00
ZGGG 080600Z VRB01MPS 9999 FEW023 BKN050 33/24 Q1003 NOSIG

2010/08/08 06:00
ZSHC 080600Z 09004MPS 060V170 9999 BKN025 33/22 Q1004 NOSIG

2010/08/08 06:00
ZSPD 080600Z 10006MPS 070V130 9999 BKN020 30/25 Q1006 NOSIG

2010/08/08 06:00
ZSSS 080600Z 12004MPS 090V160 CAVOK 33/21 Q1005 NOSIG

2010/08/08 06:00
ZWSH 080600Z 13002MPS 090V180 CAVOK 29/17 Q1010 NOSIG

2010/08/08 06:00
ZWWW 080600Z 01003MPS 340V040 CAVOK 28/09 Q1009 NOSIG

2010/08/08 06:00
ZYTL 080600Z 18003MPS 170V240 4000 +TSRA BR BKN005 BKN033 SCT040CB 22/21 Q1006 NOSIG

2010/08/08 06:00
LEAS 080600Z 08009KT 050V120 9999 SCT014 BKN026 19/16 Q1020 NOSIG

2010/08/08 06:00
LEBB 080600Z 09003KT 050V120 8000 SCT018 BKN032 18/16 Q1021 NOSIG

2010/08/08 06:00
LECO 080600Z 00000KT 9999 FEW030 15/15 Q1019

2010/08/08 06:00
LEGE 080600Z 00000KT 9999 SCT036 21/19 Q1018

2010/08/08 06:00
LEST 080600Z 02003KT CAVOK 14/13 Q1018 NOSIG

2010/08/08 06:00
LEZG 080600Z 29011KT 9999 FEW045 20/14 Q1019

2010/08/08 06:00
LESO 080600Z 13003KT 100V160 9999 FEW020 SCT040 19/16 Q1021

2010/08/08 06:00
LEVT 080600Z 00000KT 9999 FEW009 OVC020 16/14 Q1022

2010/08/08 06:00
LERS 080600Z VRB02KT 9999 FEW035 22/18 Q1018

2010/08/08 06:00
LEMH 080600Z VRB02KT 9999 FEW018 22/20 Q1019

2010/08/08 06:00
LEAM 080600Z VRB02KT 9999 FEW040 SCT090 26/08 Q1017

2010/08/08 06:00
LEGR 080600Z 00000KT 9999 FEW100 23/16 Q1019

2010/08/08 06:00
TTPP 080600Z 00000KT 9999 FEW016 25/24 Q1012 NOSIG

2010/08/08 06:00
TTCP 080600Z 00000KT 9999 FEW016 26/22 Q1012 NOSIG

2010/08/08 06:00
ZGKL 080600Z 16003MPS 110V200 8000 SCT043 34/23 Q1003 NOSIG

2010/08/08 06:00
ZGNN 080600Z VRB01MPS 9999 BKN026 SCT046 33/23 Q1003 NOSIG

2010/08/08 06:00
ZGOW 080600Z 14004MPS 9999 FEW026 31/24 Q1003 NOSIG

2010/08/08 06:00
ZGSZ 080600Z 25003MPS 230V290 8000 FEW030 FEW033TCU BKN050 33/24 Q1002 NOSIG

2010/08/08 06:00
ZLXY 080600Z VRB02MPS 3000 HZ SCT090 33/22 Q1004 NOSIG

2010/08/08 06:00
ZMUB 080600Z 32009MPS 280V360 9999 BKN033 11/02 Q1012 NOSIG RMK QFE652.2 56

2010/08/08 06:00
ZPPP 080600Z 15003MPS 110V220 9999 FEW026TCU FEW026 SCT050 24/15 Q1015 NOSIG

2010/08/08 06:00
ZSAM 080600Z 04004MPS 9999 SCT026 BKN047 32/22 Q1002 NOSIG

2010/08/08 06:00
ZSFZ 080600Z 05010MPS 9999 FEW023 32/23 Q1003 NOSIG

2010/08/08 06:00
ZSNB 080600Z 15004MPS 110V190 9999 SCT030 33/19 Q1004 NOSIG

2010/08/08 06:00
ZSQD 080600Z 17008MPS 9999 SCT026 29/22 Q1006 NOSIG

2010/08/08 06:00
ZUUU 080600Z VRB01MPS 9999 FEW026 SCT026TCU 35/23 Q1004 NOSIG

2010/08/08 05:55
KDLF 080555Z AUTO 13008KT 10SM CLR 30/19 A2989 RMK AO2 SLP103 T03010193 10375 20301 403800234 51018

2010/08/08 05:55
KHRT 080555Z AUTO 00000KT 10SM BKN120 26/26 A2990 RMK AO2 SLP126 60001 T02560256 10260 20254 403380247 58002 $

2010/08/08 05:55
KLUF 080555Z AUTO 00000KT 10SM BKN150 30/18 A2982 RMK AO2 SLP074 T02960181 10336 20287 51014 $

2010/08/08 05:56
KNBC 080556Z AUTO 00000KT 7SM CLR 26/24 A2992 RMK AO2 SLP131 T02560239 10289 20250 58006

2010/08/08 05:56
KNRS 080556Z AUTO 23004KT 10SM OVC017 16/13 A2993 RMK AO2 SLP136 T01560128 10183 20156 51015 TSNO $

2010/08/08 06:00
KNEL 080600Z AUTO 00000KT 8SM CLR 18/16 A3002 RMK AO2 SLP162 T01830161 10250 20183 50009 $

2010/08/08 05:56
KNFL 080556Z AUTO 19006KT 10SM CLR 22/02 A2987 RMK AO2 SLP090 T02170022 10344 20206 53025 TSNO

2010/08/08 05:56
KNLC 080556Z AUTO 32007KT 10SM CLR 22/10 A2975 RMK AO2 SLP073 T02220100 10361 20222 50015 TSNO $

2010/08/08 05:56
KNUW 080556Z 26004KT 6SM BR BKN005 OVC015 16/15 A2991 RMK AO2 SLP130 60010 T01620152 10178 20156 51005 $

2010/08/08 05:56
KNXP 080556Z AUTO 22013KT CLR 28/01 A2987 RMK AO2 SLP075 T02780011 10356 20278 51012 $

2010/08/08 05:56
KNXX 080556Z AUTO 00000KT 10SM FEW095 22/15 A3002 RMK AO2 SLP170 T02170150 10267 20217 50005 $

2010/08/08 05:55
KNYL 080555Z 15010KT 10SM CLR 31/16 A2971 RMK AO2 SLP055 T03060156 10389 20306 51016

2010/08/08 05:56
KOSC 080556Z AUTO 21006KT 10SM SCT065 BKN110 20/17 A2984 RMK AO2

2010/08/08 05:55
KTBN 080555Z AUTO 15004KT 10SM CLR 23/ A2995 RMK AO2 SLP120 60000 T0225 10301 20225 403240198 50008 $

2010/08/08 05:55
KVAD 080555Z 00000KT 6SM R18/4500V5500FT BR FEW002 24/24 A2993 RMK AO2A VIS 1 RWY36 SLP133 60018 T02450243 10251 20245 50000 $

2010/08/08 06:00
SKRG 080600Z 00000KT 9999 FEW010 SCT080 15/15 A3031

2010/08/08 05:55
KQD9 080555Z 16001KT 9999 -SHRA FEW007 SCT013 BKN065 OVC090 24/21 A2989 RMK SLP067 WND DATA ESTMD ALSTG/SLP ESTMD 60003 50002

2010/08/08 05:55
KQL5 080555Z VRB03KT 9999 SCT025 BKN040 OVC045 28/23 A2970 RMK AO2A SLP026 WND DATA ESTMD ALSTG/SLP ESTMD 60000 50002

2010/08/08 05:55
KQLE 080555Z 20007KT 9000 DU FEW250 34/03 A2973 RMK SLP992 T03350025 10335 20284 52012 PA3122 DA5950

2010/08/08 05:55
KQPD 080555Z AUTO 07004KT 9000 CLR 36/08 A2966 RMK AO2 SLP944 T03590080 10311 20280 57002 $

2010/08/08 05:55
KQQS 080555Z AUTO 07004KT 9999 FEW180 24/11 A3009 RMK AO2 SLP077 T02350111 10240 20169 50001

2010/08/08 05:55
KQSL 080555Z 33013G25KT 1200 DU HZ FEW000 SCT010 SCT180 42/M01 A2966 RMK DU FEW000 SCT010 SLP027 Q1004MB 52002

2010/08/08 05:55
KQXJ 080555Z 32015KT 4400 BLDU FEW100 41/03 A2950 RMK SLP991 PA+412 DA+3513

2010/08/08 05:54
KVAD 080554Z 00000KT 7SM R18/5000V5500FT FEW002 24/24 A2993 RMK AO2A VIS 1 RWY36 SLP134 $

2010/08/08 06:00
SARF 080600Z 18006KT CAVOK 12/10 Q1016

2010/08/08 06:00
SAZS 080600Z 32014KT 9999 FEW025 02/M04 Q1024

2010/08/08 06:00
SBBV 080600Z 34003KT 8000 VCSH SCT020 FEW025TCU BKN080 24/22 Q1013

2010/08/08 06:00
SBFZ 080600Z 10011KT 9999 SCT017 24/22 Q1015

2010/08/08 06:00
SBGO 080600Z 00000KT CAVOK 16/12 Q1018

2010/08/08 06:00
SBMA 080600Z 00000KT CAVOK 24/22 Q1012

2010/08/08 06:00
SBMN 080600Z 32004KT CAVOK 27/24 Q1012

2010/08/08 06:00
SBMO 080600Z 25002KT 9999 FEW017 SCT100 19/18 Q1018

2010/08/08 06:00
SBMQ 080600Z 00000KT 9999 FEW017 SCT100 25/25 Q1013

2010/08/08 06:00
SBSL 080600Z 07004KT CAVOK 26/23 Q1013

2010/08/08 06:00
SBSN 080600Z 10002KT 9999 FEW015 24/22 Q1012

2010/08/08 06:00
SBVT 080600Z 33002KT CAVOK 17/15 Q1019

2010/08/08 06:00
SCIE 080600Z 19004KT 5000 BR SKC 03/02 Q1028

2010/08/08 06:00
SKBO 080600Z VRB02KT 99999 SCT020 SCT080 13/11 A3035 NOSIG

2010/08/08 06:00
SKBQ 080600Z 00000KT 9999 FEW012 26/5 A2988

2010/08/08 06:00
SKCG 080600Z VRB02KT 9999 BKN015 29/25 A2987

2010/08/08 06:00
SKCL 080600Z VRB02KT 9999 SCT020 BKN090 21/18 A3004

2010/08/08 06:00
SKPE 080600Z VRB02KT 9999 SCT015 SCT070 19/18 A3015

2010/08/08 06:00
SKRG 080600Z 00000KT 9999 FEW010 SCT080 15/15 A3031

2010/08/08 06:00
SOCA 080600Z 25001KT 9999 FEW020 24/23 Q1013 NOSIG

2010/08/08 06:00
SPHI 080600Z 17012KT CAVOK 15/12 Q1016 RMK PP000 BIRD HAZARD RWY 19/01

2010/08/08 06:00
SPRU 080600Z 17007KT 6000 OVC011 15/12 Q1015 RMK BR BIRDS HAZARD RWY20 PP000

2010/08/08 06:00
SPZO 080600Z 00000KT 9999 SKC 03/M11 Q1034 RMK PP000

2010/08/08 06:00
SULS 080600Z 00000KT 0040 FG NSC 06/06 Q1021

2010/08/08 06:00
SUMU 080600Z 00000KT 0050 R24/1200 R19/0250 FG BKN002 04/04 Q1021 TEMPO 0300 FG

2010/08/08 06:00
SVMI 080600Z 11001KT 9999 FEW016 27/23 Q1012 NOSIG

2010/08/08 05:50
ETUO 080550Z AUTO 00000KT 2500NDV // BKN060/// BKN170/// 16/16 Q1014

2010/08/08 06:00
LFBC 080600Z AUTO 00000KT 9999NDV FEW025 BKN035 14/13 Q1021

2010/08/08 06:00
LFBF 080600Z AUTO 25006KT 220V280 9999NDV // NSC 17/15 Q1021

2010/08/08 06:00
LFBG 080600Z AUTO 27002KT 9999NDV FEW006 15/13 Q1021

2010/08/08 06:00
LFBM 080600Z AUTO 00000KT 9999NDV FEW024 SCT220 15/15 Q1021

2010/08/08 06:00
LFKS 080600Z AUTO 27005KT 9999NDV NSC 21/11 Q1018

2010/08/08 06:00
LFLD 080600Z 34004KT 300V360 9999 BKN033 17/15 Q1020

2010/08/08 06:00
LFLM 080600Z VRB02KT 9999 FEW043 SCT066 16/14 Q1018

2010/08/08 06:00
LFLW 080600Z 10005KT CAVOK 13/12 Q1021

2010/08/08 06:00
LFMI 080600Z AUTO 03003KT 9999NDV NSC 20/13 Q1017

2010/08/08 06:00
LFMO 080600Z AUTO VRB01KT 9999NDV NSC 19/09 Q1018

2010/08/08 06:00
LFMY 080600Z AUTO VRB02KT 9999NDV NSC 18/12 Q1018

2010/08/08 06:00
LFOA 080600Z AUTO 30003KT 9999NDV SCT032 BKN038 BKN045 17/15 Q1019

2010/08/08 06:00
LFOC 080600Z AUTO 27005KT 9999NDV NSC 14/13 Q1020

2010/08/08 06:00
LFOE 080600Z AUTO 27007KT 6000NDV OVC003 15/14 Q1019

2010/08/08 06:00
LFOJ 080600Z AUTO 27005KT 9999NDV NSC 14/13 Q1020

2010/08/08 06:00
LFPC 080600Z 29005KT 260V320 9999 OVC010 15/14 Q1018

2010/08/08 06:00
LFPV 080600Z AUTO 30010KT 4100NDV BR OVC003 14/13 Q1019

2010/08/08 06:00
LFQI 080600Z AUTO 28007KT 8000NDV OVC003 15/15 Q1017

2010/08/08 06:00
LFSD 080600Z AUTO 33005KT 9999NDV NSC 18/15 Q1018

2010/08/08 06:00
LFSF 080600Z AUTO 29005KT 260V330 9999NDV FEW011 BKN056 OVC086 16/13 Q1017

2010/08/08 06:00
LFSI 080600Z AUTO VRB03KT 9999NDV FEW006 SCT043 16/15 Q1018

2010/08/08 06:00
LFSO 080600Z AUTO 32008KT 9999NDV BKN048/// OVC058/// //////TCU 16/13 Q1018

2010/08/08 06:00
LFSX 080600Z AUTO 00000KT 9999NDV SCT049 BKN078 OVC100 15/13 Q1018

2010/08/08 06:00
LFYR 080600Z AUTO VRB01KT //// // ///////// 17/13 Q1020

2010/08/08 06:01
CYCY 080601Z AUTO 00000KT 3SM OVC001 OVC044 OVC079 OVC094 03/03 A2992

2010/08/08 05:59
CYPH 080559Z AUTO 24010KT 9SM OVC004 08/08 A2936

2010/08/08 05:59
EHLW 080559Z AUTO 35004KT 9999NDV FEW023 SCT026 BKN030 17/16 Q1014 BLU

2010/08/08 05:58
EHVK 080558Z AUTO 28005KT 5000NDV BR NCD 15/15 Q1015 WHT

2010/08/08 06:01
KEGI 080601Z AUTO 00000KT 9SM R18/5500VP6000FT CLR 25/24 A2992 RMK AO2 SLP130 $

2010/08/08 06:01
KGSB 080601Z AUTO 00000KT 7SM R08/5000V5500FT BKN025 23/23 A2995 RMK AO2 SLP142

2010/08/08 05:54
KVAD 080554Z 00000KT 7SM R18/5000V5500FT FEW002 24/24 A2993 RMK AO2A VIS 1 RWY36 SLP134 $

2010/08/08 06:05
LIBG 080605Z 29005KT 240V320 CAVOK 24/16 Q1015 RMK VIS MIN 9999

2010/08/08 05:55
PKMR 080555Z 08009KT 15SM FEW016 SCT300 30/24 A2977 RMK SLP085 8/101 T02960239 10311 20296 55000  

2010/08/08 06:00
MYNN 080600Z 13005KT 9999 SCT015 28/23 A2997

2010/08/08 06:00
ORMM 080600Z 26008KT 8000 SCT040 40/07 Q09985

2010/08/08 06:00
ORBI 080600Z 35018KT 2000 BLDU NSC 42/M01 Q1002 BECMG 1500

2010/08/08 06:00
OIAM 080600Z 18010KT 9999 SCT040 38/25 Q0997 A2947

2010/08/08 06:00
OICI 080600Z 06008KT 9999 FEW040 BKN100 35/01 Q1013 A2994 864.5

2010/08/08 06:00
OIKQ 080600Z 11016KT 7000 SKC 36/28 Q0999 A2952

2010/08/08 06:00
OINN 080600Z VRB02KT CAVOK 31/22 Q1009 A2980

2010/08/08 06:00
OINR 080600Z 36008KT CAVOK 30/22 Q1009 A2980

2010/08/08 06:00
OISL 080600Z 00000KT CAVOK 36/08 Q1006 A2971

2010/08/08 06:00
OISY 080600Z 35006KT CAVOK 27/03 Q1020 A3014

2010/08/08 06:03
ETSB 080603Z 22006KT 6000 BKN005 14/13 Q1016 YLO

2010/08/08 05:55
ETIH 080555Z AUTO 00000KT 9999 SCT120 BKN150 11/11 A3007 RMK AO2 SLP178 T01150114 10115 20085 56003 $

2010/08/08 06:00
LATI 080600Z 14004KT CAVOK 22/21 Q1015 NOSIG

2010/08/08 06:00
LEAB 080600Z 12009KT CAVOK 19/10 Q1021 NOSIG

2010/08/08 06:00
LEBA 080600Z VRB02KT CAVOK 25/14 Q1017

2010/08/08 06:00
LEBZ 080600Z 00000KT CAVOK 25/15 Q1015

2010/08/08 06:00
LELN 080600Z 00000KT CAVOK 13/07 Q1021

2010/08/08 06:00
LEPP 080600Z 09001KT 9999 FEW015 15/13 Q1021

2010/08/08 06:00
LESA 080600Z 00000KT CAVOK 16/15 Q1020

2010/08/08 06:00
LETO 080600Z 05002KT CAVOK 23/12 Q1019 NOSIG

2010/08/08 06:00
LEVD 080600Z 05005KT CAVOK 14/11 Q1020

2010/08/08 06:00
LEVS 080600Z 10006KT 060V130 CAVOK 24/14 Q1020

2010/08/08 06:00
LEXJ 080600Z 12005KT 9999 FEW020 OVC026 19/17 Q1021

2010/08/08 06:00
LFKB 080600Z 22006KT 9999 FEW020 22/15 Q1018 NOSIG

2010/08/08 06:00
LFKC 080600Z 17004KT 130V210 CAVOK 22/14 Q1018 NOSIG

2010/08/08 06:00
LFKF 080600Z AUTO 00000KT 9999NDV NCD 17/14 Q1018

2010/08/08 06:00
LFKJ 080600Z 05005KT CAVOK 18/13 Q1018 NOSIG

2010/08/08 06:00
LFLC 080600Z 00000KT CAVOK 16/14 Q1020 NOSIG

2010/08/08 06:00
LFLD 080600Z 34004KT 300V360 9999 BKN033 17/15 Q1020

2010/08/08 06:00
LFLM 080600Z VRB02KT 9999 FEW043 SCT066 16/14 Q1018

2010/08/08 06:00
LFLV 080600Z 00000KT 9999 SCT040 16/15 Q1020

2010/08/08 06:00
LFLW 080600Z 10005KT CAVOK 13/12 Q1021

2010/08/08 06:00
LFLY 080600Z VRB02KT CAVOK 17/12 Q1018 NOSIG

2010/08/08 06:00
LFMP 080600Z 28005KT 250V320 9999 FEW060 24/14 Q1018 NOSIG

2010/08/08 06:00
LFMU 080600Z AUTO 27006KT 9999NDV NSC 20/14 Q1018

2010/08/08 06:00
LFOH 080600Z AUTO 36006KT 9999NDV BKN008 17/14 Q1019

2010/08/08 06:00
LFPB 080600Z AUTO 28006KT 9999NDV OVC008 15/14 Q1018

2010/08/08 06:00
LFSL 080600Z AUTO 30005KT 9999NDV NSC 15/11 Q1020

2010/08/08 06:00
LRBS 080600Z 28004KT 260V320 CAVOK 25/21 Q1013 NOSIG

2010/08/08 06:00
LRTR 080600Z 35003KT 310V040 CAVOK 21/18 Q1018

2010/08/08 06:00
OIBJ 080600Z 09012KT 9999 FEW040 40/05 Q1005 A2970

2010/08/08 06:00
OIBS 080600Z 12012KT 3000 BR FEW035 34/31 Q0999 A2950

2010/08/08 06:00
OIHR 080600Z 10006KT CAVOK 26/03 Q1020 A3014

2010/08/08 06:00
OIKR 080600Z 28010KT CAVOK 26/00 Q1018 A3006

2010/08/08 06:00
OING 080600Z 25012KT 9999 FEW030 32/21 Q1010 A2985

2010/08/08 06:00
OIZB 080600Z 35020KT 6000 SKC 37/02 Q1001 A2959

2010/08/08 06:00
OIZI 080600Z 24004KT 6000 NSC 38/M06 Q1004 A2966

2010/08/08 06:00
LFCR 080600Z AUTO 00000KT 9999NDV NSC 16/14 Q1021

2010/08/08 06:00
LFGJ 080600Z AUTO VRB02KT 9999NDV NSC 16/13 Q1018

2010/08/08 06:00
LFJL 080600Z AUTO 31008KT 9999NDV FEW011/// BKN078/// BKN090/// //////TCU 15/13 Q1017

2010/08/08 06:00
LFLL 080600Z 15006KT 9999 FEW030 SCT090 17/12 Q1018 NOSIG

2010/08/08 06:00
LFLS 080600Z 09008KT 9999 SCT058 17/13 Q1019 NOSIG

2010/08/08 06:00
LFMH 080600Z VRB02KT 9999 FEW050 17/13 Q1019 NOSIG

2010/08/08 06:00
LFMN 080600Z 33008KT 9999 FEW018 20/13 Q1017 NOSIG

2010/08/08 06:00
LFMT 080600Z 00000KT CAVOK 20/13 Q1018 NOSIG

2010/08/08 06:00
LFOB 080600Z 31008KT 9999 BKN006 16/14 Q1018 NOSIG

2010/08/08 06:00
LFOP 080600Z 29005KT 260V330 4000 BR OVC003 15/14 Q1019 NOSIG

2010/08/08 06:00
LFOW 080600Z 27004KT 9999 OVC004 15/15 Q1017 NOSIG

2010/08/08 06:00
LFPG 080600Z 29009KT 9999 BKN006 15/14 Q1019 NOSIG

2010/08/08 06:00
LFPO 080600Z 30009KT 9999 BKN006 15/14 Q1019 NOSIG

2010/08/08 06:00
LFQB 080600Z 29005KT 260V330 9999 SCT018 SCT033 17/15 Q1018

2010/08/08 06:00
LFQG 080600Z VRB03KT 9999 OVC046 16/15 Q1019

2010/08/08 06:00
LFQQ 080600Z 29006KT 6000 FEW005 SCT110 15/15 Q1017 TEMPO BKN007

2010/08/08 06:00
LFRB 080600Z VRB03KT 0200 R07/0450N FG VV/// 13/12 Q1022 TEMPO BKN003

2010/08/08 06:00
LFRI 080600Z 01004KT CAVOK 14/13 Q1021

2010/08/08 06:00
LFRJ 080600Z AUTO 28004KT 250V310 0350NDV FG VV/// 14/14 Q1022

2010/08/08 06:00
LFRK 080600Z 27007KT 9999 FEW020 14/13 Q1020 NOSIG

2010/08/08 06:00
LFRM 080600Z 00000KT 3000 BR SCT004 13/13 Q1021

2010/08/08 06:00
LFRS 080600Z 28001KT CAVOK 13/12 Q1021 NOSIG

2010/08/08 06:00
LFSN 080600Z 31008KT 270V350 9999 BKN012 BKN053 17/13 Q1017 NOSIG

2010/08/08 06:00
LFST 080600Z VRB02KT 9999 FEW043 BKN076 17/13 Q1017 NOSIG

2010/08/08 06:00
LFXA 080600Z VRB01KT CAVOK 17/12 Q1019

2010/08/08 06:00
LRCK 080600Z 36006KT 320V040 6000 SCT007 28/27 Q1013 NOSIG

2010/08/08 06:00
LROP 080600Z 26005KT 230V280 CAVOK 25/23 Q1012 8809//95 NOSIG

2010/08/08 06:00
LRSB 080600Z VRB02KT 3500 -DZ BR FEW003 SCT006 OVC017 19/19 Q1017

2010/08/08 05:55
ETIH 080555Z AUTO 00000KT 9999 SCT120 BKN150 11/11 A3007 RMK AO2 SLP178 T01150114 10115 20085 56003 $

2010/08/08 06:00
LFCR 080600Z AUTO 00000KT 9999NDV NSC 16/14 Q1021

2010/08/08 06:00
LFJL 080600Z AUTO 31008KT 9999NDV FEW011/// BKN078/// BKN090/// //////TCU 15/13 Q1017

2010/08/08 06:00
LFKB 080600Z 22006KT 9999 FEW020 22/15 Q1018 NOSIG

2010/08/08 06:00
LFKC 080600Z 17004KT 130V210 CAVOK 22/14 Q1018 NOSIG

2010/08/08 06:00
LFKF 080600Z AUTO 00000KT 9999NDV NCD 17/14 Q1018

2010/08/08 06:00
LFKJ 080600Z 05005KT CAVOK 18/13 Q1018 NOSIG

2010/08/08 06:00
LFLC 080600Z 00000KT CAVOK 16/14 Q1020 NOSIG

2010/08/08 06:00
LFLS 080600Z 09008KT 9999 SCT058 17/13 Q1019 NOSIG

2010/08/08 06:00
LFLV 080600Z 00000KT 9999 SCT040 16/15 Q1020

2010/08/08 06:00
LFLY 080600Z VRB02KT CAVOK 17/12 Q1018 NOSIG

2010/08/08 06:00
LFMP 080600Z 28005KT 250V320 9999 FEW060 24/14 Q1018 NOSIG

2010/08/08 06:00
LFMT 080600Z 00000KT CAVOK 20/13 Q1018 NOSIG

2010/08/08 06:00
LFMU 080600Z AUTO 27006KT 9999NDV NSC 20/14 Q1018

2010/08/08 06:00
LFOB 080600Z 31008KT 9999 BKN006 16/14 Q1018 NOSIG

2010/08/08 06:00
LFOH 080600Z AUTO 36006KT 9999NDV BKN008 17/14 Q1019

2010/08/08 06:00
LFOP 080600Z 29005KT 260V330 4000 BR OVC003 15/14 Q1019 NOSIG

2010/08/08 06:00
LFOW 080600Z 27004KT 9999 OVC004 15/15 Q1017 NOSIG

2010/08/08 06:00
LFPB 080600Z AUTO 28006KT 9999NDV OVC008 15/14 Q1018

2010/08/08 06:00
LFQB 080600Z 29005KT 260V330 9999 SCT018 SCT033 17/15 Q1018

2010/08/08 06:00
LFQG 080600Z VRB03KT 9999 OVC046 16/15 Q1019

2010/08/08 06:00
LFRI 080600Z 01004KT CAVOK 14/13 Q1021

2010/08/08 06:00
LFRM 080600Z 00000KT 3000 BR SCT004 13/13 Q1021

2010/08/08 06:00
LFRS 080600Z 28001KT CAVOK 13/12 Q1021 NOSIG

2010/08/08 06:00
LFSL 080600Z AUTO 30005KT 9999NDV NSC 15/11 Q1020

2010/08/08 06:00
LFSN 080600Z 31008KT 270V350 9999 BKN012 BKN053 17/13 Q1017 NOSIG

2010/08/08 06:00
LFST 080600Z VRB02KT 9999 FEW043 BKN076 17/13 Q1017 NOSIG

2010/08/08 06:00
LFXA 080600Z VRB01KT CAVOK 17/12 Q1019

2010/08/08 06:00
KUXL 080600Z AUTO 00000KT 10SM CLR 27/26 A2992 RMK AO2

2010/08/08 06:03
KFYJ 080603Z AUTO 09003KT 7SM CLR 22/21 A3001 RMK AO1

2010/08/08 06:00
KGAO 080600Z AUTO 25003KT 10SM CLR 28/26 A2993 RMK AO2

2010/08/08 06:02
KHQU 080602Z AUTO 00000KT 3SM CLR 23/22 A2998 RMK AO1

2010/08/08 06:00
KI16 080600Z AUTO 00000KT 5SM BR CLR 17/17 A3007 RMK AO2

2010/08/08 06:00
KIDI 080600Z AUTO 00000KT 10SM CLR 14/14 A3006 RMK AO2

2010/08/08 06:00
KIER 080600Z AUTO 00000KT 10SM CLR 25/25 A2991 RMK AO2 PWINO

2010/08/08 06:00
KJFZ 080600Z AUTO 00000KT 10SM CLR 21/17 A3007 RMK

2010/08/08 06:00
KJQF 080600Z AUTO 00000KT 5SM BR CLR 23/20 A2998 RMK AO2 T02250198

2010/08/08 06:00
KJYO 080600Z AUTO 00000KT 10SM CLR 22/15 A3001 RMK AO2

2010/08/08 05:55
KLGC 080555Z AUTO 00000KT 10SM CLR 23/23 A2995 RMK AO1

2010/08/08 06:00
KLKU 080600Z AUTO 00000KT 10SM CLR 16/14 A3000 RMK AO2

2010/08/08 06:00
KLNP 080600Z AUTO 00000KT 10SM SCT050 19/14 A3008 RMK AO1

2010/08/08 06:00
KLOM 080600Z AUTO 00000KT 10SM CLR 18/17 A3000 RMK AO1 T01820169 10247 20175

2010/08/08 06:00
KMDQ 080600Z AUTO 00000KT 10SM CLR 22/21 A2994 RMK AO2 T02210207

2010/08/08 06:00
KMKJ 080600Z AUTO 00000KT 7SM CLR 18/07 A3014 RMK AO1

2010/08/08 06:00
KMMU 080600Z AUTO 00000KT 7SM SCT080 15/15 A3001 RMK AO2 T01500145

2010/08/08 06:00
KMQS 080600Z AUTO 00000KT 10SM CLR 19/19 A3004 RMK AO2

2010/08/08 06:00
KMTV 080600Z AUTO 00000KT 1 3/4SM BR VV007 19/19 A3004 RMK AO2

2010/08/08 06:00
KOBE 080600Z AUTO 00000KT 10SM CLR 25/24 A2996 RMK AO2

2010/08/08 06:00
KOKV 080600Z AUTO 00000KT 10SM SCT090 21/16 A3003 RMK AO2 T02060162

2010/08/08 06:00
KOMH 080600Z AUTO 00000KT 10SM CLR 18/17 A3002 RMK AO2 T01750172

2010/08/08 06:00
KOPN 080600Z AUTO 00000KT 5SM CLR 26/24 A2997 RMK AO1

2010/08/08 06:00
KPCM 080600Z AUTO 00000KT 10SM CLR 27/25 A2996 RMK AO2

2010/08/08 06:00
KPSK 080600Z AUTO 00000KT 4SM BR CLR 19/17 A3010 RMK AO2

2010/08/08 06:00
KRCZ 080600Z AUTO 00000KT 7SM CLR 24/23 A2996 RMK AO2 T02440230 10292 20240

2010/08/08 06:00
KRMN 080600Z AUTO 00000KT 7SM CLR 15/15 A3004 RMK AO2

2010/08/08 06:00
KSFQ 080600Z AUTO 00000KT M1/4SM FG OVC002 23/23 A3000 RMK AO2

2010/08/08 06:00
KSHD 080600Z AUTO 00000KT 10SM CLR 18/16 A3005 RMK AO2

2010/08/08 06:00
KSUT 080600Z AUTO 36003KT 7SM SCT013 23/22 A2993 RMK AO2

2010/08/08 06:00
KSVH 080600Z AUTO 00000KT 5SM BR SCT080 21/21 A3000 RMK AO2 T02100211 10254 20206

2010/08/08 06:00
KTBR 080600Z AUTO 00000KT 5SM BR CLR 24/24 A2992 RMK AO2 T02430240 10292 20242 403120238

2010/08/08 06:00
KTMA 080600Z AUTO 00000KT 3SM BR CLR 24/24 A2993 RMK AO2 T02440240

2010/08/08 06:00
KTVI 080600Z AUTO 00000KT 4SM BR OVC003 25/24 A2992 RMK AO2 T02480242

2010/08/08 05:56
KVDF 080556Z AUTO 00000KT 10SM CLR 27/25 A2994 RMK AO2

2010/08/08 06:00
KVDI 080600Z AUTO 00000KT 10SM CLR 25/23 A2994 RMK AO2

2010/08/08 06:00
KVJI 080600Z AUTO 00000KT 7SM CLR 20/19 A3005 RMK AO2 TSNO

2010/08/08 06:00
KW45 080600Z AUTO 00000KT 10SM SCT070 18/18 A3004 RMK AO2 T01820182 10259 20181 403050160

2010/08/08 06:00
KW99 080600Z AUTO 16003KT 10SM SCT065 OVC085 18/15 A3005 RMK AO2

2010/08/08 06:00
SCIE 080600Z 19004KT 5000 BR SKC 03/02 Q1028

2010/08/08 06:00
SCAR 080600Z 00000KT 9999 OVC021 14/08 Q1016

2010/08/08 06:00
SCDA 080600Z 26004KT 9999 OVC022 13/09 Q1017

2010/08/08 06:00
SCFA 080600Z 10003KT 9999 SCT014 10/08 Q1016

2010/08/08 06:00
SCSE 080600Z 15006KT CAVOK 07/06 Q1020 NEFO PLAYA SKC

2010/08/08 06:00
SCEL 080600Z VRB02KT CAVOK 03/01 Q1025 NOSIG

2010/08/08 06:00
SCTC 080600Z 00000KT 0600 FG SCT015 03/03 Q1029

2010/08/08 06:00
SCTE 080600Z 36003KT 9999 SCT070 02/02 Q1028 NOSIG

2010/08/08 06:00
SCBA 080600Z AUTO 30018KT CAVOK 03/00 Q1014

2010/08/08 06:00
SCCI 080600Z 27006KT 9999 BKN016 OVC060 02/M00 Q0996 NOSIG

2010/08/08 06:00
SAME 080600Z 00000KT CAVOK 05/M01 Q1022

2010/08/08 06:00
SACO 080600Z 29005KT CAVOK 04/00 Q1022

2010/08/08 06:00
SAVC 080600Z 29014KT CAVOK 09/M01 Q1014

2010/08/08 06:00
UGTB 080600Z 00000KT 9999 SKC 30/14 Q1016 NOSIG RMK 31CLRD80

2010/08/08 06:00
UGKO 080600Z 00000KT 9999 SKC 28/20 Q1011 NOSIG

2010/08/08 06:00
UGSB 080600Z 11008KT 9999 FEW023 29/18 Q1009 NOSIG

2010/08/08 06:00
DNMM 080600Z 27015KT 8000 BKN010 25/24 Q1014 NOSIG

2010/08/08 06:00
FMMI 080600Z 14010KT 090V180 9999 SCT016 16/11 Q1027 NOSIG

2010/08/08 06:00
LFLL 080600Z 15006KT 9999 FEW030 SCT090 17/12 Q1018 NOSIG

2010/08/08 06:00
LFMN 080600Z 33008KT 9999 FEW018 20/13 Q1017 NOSIG

2010/08/08 06:00
LFPG 080600Z 29009KT 9999 BKN006 15/14 Q1019 NOSIG

2010/08/08 06:00
LFPO 080600Z 30009KT 9999 BKN006 15/14 Q1019 NOSIG

2010/08/08 06:00
LFQQ 080600Z 29006KT 6000 FEW005 SCT110 15/15 Q1017 TEMPO BKN007

2010/08/08 06:00
LFRB 080600Z VRB03KT 0200 R07/0450N FG VV/// 13/12 Q1022 TEMPO BKN003

2010/08/08 06:00
LFRS 080600Z 28001KT CAVOK 13/12 Q1021 NOSIG

2010/08/08 05:58
PTKR 080558Z 36003KT 15SM SCT018TCU BKN120 OVC300 30/24 A2977 RMK TCU NE-SE AND SW SLP082 8/278 T03000242 10306 20283 57019

2010/08/08 05:58
PTTP 080558Z 08003KT 15SM SCT018 OVC300 29/27 A2978 RMK SLP082 8/101 T02890273 10317 20277 55000

2010/08/08 05:55
PKMR 080555Z 08009KT 15SM FEW016 SCT300 30/24 A2977 RMK SLP085 8/101 T02960239 10311 20296 55000

2010/08/08 05:55
KCLS 080555Z AUTO 00000KT 10SM SCT012 OVC048 17/15 A2994 RMK AO2

2010/08/08 05:53
KMSP 080553Z COR 19007KT 9SM SCT055 BKN080 27/22 A2968 RMK AO2 SLP044 CONS LTGIC DSNT N-NE AND S-W T02720217 10311 20272 403170200 58007

2010/08/08 05:56
PANW 080556Z AUTO 21011KT 10SM OVC012 11/08 A2979 RMK AO2 PWINO TSNO 53007 T01050083 10144 20105 SLP064 $

2010/08/08 06:00
KUXL 080600Z AUTO 00000KT 10SM CLR 27/26 A2992 RMK AO2

2010/08/08 06:00
KGAO 080600Z AUTO 25003KT 10SM CLR 28/26 A2993 RMK AO2

2010/08/08 06:00
KI16 080600Z AUTO 00000KT 5SM BR CLR 17/17 A3007 RMK AO2

2010/08/08 06:00
KIDI 080600Z AUTO 00000KT 10SM CLR 14/14 A3006 RMK AO2

2010/08/08 06:00
KIER 080600Z AUTO 00000KT 10SM CLR 25/25 A2991 RMK AO2 PWINO

2010/08/08 06:00
KJFZ 080600Z AUTO 00000KT 10SM CLR 21/17 A3007 RMK

2010/08/08 06:00
KJYO 080600Z AUTO 00000KT 10SM CLR 22/15 A3001 RMK AO2

2010/08/08 05:55
KLGC 080555Z AUTO 00000KT 10SM CLR 23/23 A2995 RMK AO1

2010/08/08 06:00
KLKU 080600Z AUTO 00000KT 10SM CLR 16/14 A3000 RMK AO2

2010/08/08 06:00
KLNP 080600Z AUTO 00000KT 10SM SCT050 19/14 A3008 RMK AO1

2010/08/08 06:00
KLOM 080600Z AUTO 00000KT 10SM CLR 18/17 A3000 RMK AO1 T01820169 10247 20175

2010/08/08 06:00
KMDQ 080600Z AUTO 00000KT 10SM CLR 22/21 A2994 RMK AO2 T02210207

2010/08/08 06:00
KMKJ 080600Z AUTO 00000KT 7SM CLR 18/07 A3014 RMK AO1

2010/08/08 06:00
KMMU 080600Z AUTO 00000KT 7SM SCT080 15/15 A3001 RMK AO2 T01500145

2010/08/08 06:00
KMQS 080600Z AUTO 00000KT 10SM CLR 19/19 A3004 RMK AO2

2010/08/08 06:00
KMTV 080600Z AUTO 00000KT 1 3/4SM BR VV007 19/19 A3004 RMK AO2

2010/08/08 06:00
KOBE 080600Z AUTO 00000KT 10SM CLR 25/24 A2996 RMK AO2

2010/08/08 06:00
KOKV 080600Z AUTO 00000KT 10SM SCT090 21/16 A3003 RMK AO2 T02060162

2010/08/08 06:00
KOMH 080600Z AUTO 00000KT 10SM CLR 18/17 A3002 RMK AO2 T01750172

2010/08/08 06:00
KOPN 080600Z AUTO 00000KT 5SM CLR 26/24 A2997 RMK AO1

2010/08/08 06:00
KPCM 080600Z AUTO 00000KT 10SM CLR 27/25 A2996 RMK AO2

2010/08/08 06:00
KPSK 080600Z AUTO 00000KT 4SM BR CLR 19/17 A3010 RMK AO2

2010/08/08 06:00
KRCZ 080600Z AUTO 00000KT 7SM CLR 24/23 A2996 RMK AO2 T02440230 10292 20240

2010/08/08 06:00
KRMN 080600Z AUTO 00000KT 7SM CLR 15/15 A3004 RMK AO2

2010/08/08 06:00
KSFQ 080600Z AUTO 00000KT M1/4SM FG OVC002 23/23 A3000 RMK AO2

2010/08/08 06:00
KSHD 080600Z AUTO 00000KT 10SM CLR 18/16 A3005 RMK AO2

2010/08/08 06:00
KSUT 080600Z AUTO 36003KT 7SM SCT013 23/22 A2993 RMK AO2

2010/08/08 06:00
KSVH 080600Z AUTO 00000KT 5SM BR SCT080 21/21 A3000 RMK AO2 T02100211 10254 20206

2010/08/08 06:00
KTBR 080600Z AUTO 00000KT 5SM BR CLR 24/24 A2992 RMK AO2 T02430240 10292 20242 403120238

2010/08/08 06:00
KTMA 080600Z AUTO 00000KT 3SM BR CLR 24/24 A2993 RMK AO2 T02440240

2010/08/08 06:00
KTVI 080600Z AUTO 00000KT 4SM BR OVC003 25/24 A2992 RMK AO2 T02480242

2010/08/08 05:56
KVDF 080556Z AUTO 00000KT 10SM CLR 27/25 A2994 RMK AO2

2010/08/08 06:00
KVDI 080600Z AUTO 00000KT 10SM CLR 25/23 A2994 RMK AO2

2010/08/08 06:00
KVJI 080600Z AUTO 00000KT 7SM CLR 20/19 A3005 RMK AO2 TSNO

2010/08/08 06:00
KW45 080600Z AUTO 00000KT 10SM SCT070 18/18 A3004 RMK AO2 T01820182 10259 20181 403050160

2010/08/08 06:00
KW99 080600Z AUTO 16003KT 10SM SCT065 OVC085 18/15 A3005 RMK AO2

2010/08/08 05:56
KOSC 080556Z AUTO 21006KT 10SM SCT065 BKN110 20/17 A2984 RMK AO2

2010/08/08 06:03
KDLH 080603Z 13009KT 1/2SM BR SCT002 SCT120 17/16 A2972 RMK AO2 SFC VIS 2 PNO $

2010/08/08 06:03
KSEA 080603Z 26005KT 10SM SCT006 OVC019 16/14 A2992 RMK AO2

2010/08/08 06:01
KMLJ 080601Z AUTO 00000KT 4SM BR CLR 24/24 A2994 RMK AO2

2010/08/08 06:01
KMRN 080601Z AUTO 32003KT 5SM BR SCT065 21/21 A3007 RMK AO2

2010/08/08 06:02
KMWK 080602Z AUTO 00000KT 5SM BR CLR 20/18 A3003 RMK AO2

2010/08/08 06:01
KOCW 080601Z AUTO 00000KT 4SM HZ CLR 24/19 A2998 RMK AO2

2010/08/08 06:01
KTDF 080601Z AUTO 00000KT 20/20 A3001 RMK AO1

2010/08/08 06:04
KTTA 080604Z AUTO 00000KT 5SM BR SCT065 SCT080 23/22 A2998 RMK AO2

2010/08/08 06:02
KASJ 080602Z AUTO 00000KT 7SM CLR 21/19 A2999 RMK AO2

2010/08/08 06:02
KBGE 080602Z AUTO 00000KT 7SM CLR 24/23 A2992 RMK AO2

2010/08/08 06:01
KDQH 080601Z AUTO 00000KT 5SM BKN006 26/24 A2993 RMK AO1

2010/08/08 06:01
KHDC 080601Z AUTO 25003KT 10SM CLR 29/28 A2993 RMK AO2

2010/08/08 06:15
KFDW 080615Z AUTO 05004KT 10SM CLR 26/21 A2996 RMK AO1

2010/08/08 06:03
KFYJ 080603Z AUTO 09003KT 7SM CLR 22/21 A3001 RMK AO1

2010/08/08 06:02
KHQU 080602Z AUTO 00000KT 3SM CLR 23/22 A2998 RMK AO1

2010/08/08 05:50
LFBA 080550Z 29006KT 9999 BKN006 17/16 Q1020 BECMG FEW015

2010/08/08 06:00
LFBE 080600Z 28005KT 9999 FEW020 16/14 Q1020 NOSIG

2010/08/08 06:00
LFGJ 080600Z AUTO VRB02KT 9999NDV NSC 16/13 Q1018

2010/08/08 06:00
LFJR 080600Z AUTO 30004KT 240V350 9999NDV OVC006/// 15/13 Q1021 

2010/08/08 06:00
LFMD 080600Z AUTO 36003KT 320V030 9999NDV NSC 19/15 Q1017

2010/08/08 06:00
LFMH 080600Z VRB02KT 9999 FEW050 17/13 Q1019 NOSIG

2010/08/08 06:00
LFRC 080600Z AUTO 32004KT 280V350 9999NDV FEW008 15/14 Q1020

2010/08/08 06:00
LFRG 080600Z AUTO 01003KT 9999NDV SCT008 SCT012 16/15 Q1020

2010/08/08 06:00
LFRK 080600Z 27007KT 9999 FEW020 14/13 Q1020 NOSIG

2010/08/08 06:00
SMJP 080600Z 00000KT 9999 SCT005 25/24 Q1013 NOSIG

2010/08/08 06:00
KAYS 080600Z AUTO 00000KT 5SM OVC008 26/25 A2983 RMK AO1

2010/08/08 05:58
KDBN 080558Z AUTO 00000KT 4SM CLR 24/24 A2993 RMK AO1

2010/08/08 06:00
KJQF 080600Z AUTO 00000KT 5SM BR CLR 23/20 A2998 RMK AO2 T02250198

2010/08/08 06:03
KECG 080603Z AUTO 06004KT 5SM BR FEW006 BKN011 25/24 A2999 RMK AO2

2010/08/08 06:01
KGSB 080601Z AUTO 00000KT 7SM R08/5000V5500FT BKN025 23/23 A2995 RMK AO2 SLP142

2010/08/08 05:54
KVAD 080554Z 00000KT 7SM R18/5000V5500FT FEW002 24/24 A2993 RMK AO2A VIS 1 RWY36 SLP134 $

2010/08/08 06:00
LRBS 080600Z 28004KT 260V320 CAVOK 25/21 Q1013 NOSIG

2010/08/08 06:00
LRCK 080600Z 36006KT 320V040 6000 SCT007 28/27 Q1013 NOSIG

2010/08/08 06:00
LROP 080600Z 26005KT 230V280 CAVOK 25/23 Q1012 8809//95 NOSIG

2010/08/08 06:00
LRSB 080600Z VRB02KT 3500 -DZ BR FEW003 SCT006 OVC017 19/19 Q1017

2010/08/08 06:00
LRTR 080600Z 35003KT 310V040 CAVOK 21/18 Q1018

2010/08/08 06:00
FOOL 080600Z 15008KT 8000 SCT008 OVC030 24/22 Q1016 NOSIG

2010/08/08 06:00
GCHI 080600Z 35020KT 9999 FEW024 21/16 Q1015

2010/08/08 06:00
GCLA 080600Z 32004KT 280V030 9999 FEW030 21/15 Q1015

2010/08/08 06:00
GEML 080600Z 07003KT 020V110 9999 FEW014 SCT026 24/21 Q1017

2010/08/08 06:00
LEBA 080600Z VRB02KT CAVOK 25/14 Q1017

2010/08/08 06:00
LEDA 080600Z VRB02KT 9999 FEW030 22/15 Q1019

2010/08/08 06:00
LEJR 080600Z VRB02KT 9999 FEW055 24/13 Q1015

2010/08/08 06:00
LELL 080600Z 00000KT CAVOK 20/17 Q1018

2010/08/08 06:00
LEPP 080600Z 09001KT 9999 FEW015 15/13 Q1021

2010/08/08 06:00
LEXJ 080600Z 12005KT 9999 FEW020 OVC026 19/17 Q1021

2010/08/08 06:00
RKSI 080600Z 23009KT 9999 FEW030 31/22 Q1010 NOSIG

2010/08/08 06:00
RKSS 080600Z 29010KT 9999 FEW030 32/19 Q1009 NOSIG 

2010/08/08 06:00
RKPC 080600Z 32010KT 9999 SCT020 31/24 Q1009 WS ALL RWY NOSIG 

2010/08/08 06:00
RKPK 080600Z 18008KT 9999 FEW030 SCT200 33/19 Q1009 NOSIG 

2010/08/08 06:00
RKTU 080600Z 23004KT 9999 SCT030 32/20 Q1009 NOSIG 

2010/08/08 06:00
RKTN 080600Z 33005KT 9999 SCT030 33/22 Q1008 NOSIG

2010/08/08 06:00
RKJB 080600Z 22006KT 9999 SCT040 31/21 Q1009 NOSIG 

2010/08/08 06:00
RKNY 080600Z 23007KT 7000 -SHRA FEW010 SCT025 25/22 Q1009 NOSIG 

2010/08/08 06:00
KHWY 080600Z AUTO 00000KT 10SM CLR 16/14 A3000 RMK AO2

2010/08/08 06:00
KIPJ 080600Z AUTO 00000KT 5SM BR SCT080 20/19 A3000 RMK AO2 T02040192 10264 20204

2010/08/08 06:00
KISO 080600Z AUTO 00000KT 3SM BR 24/24 A2997 RMK AO2 SKY OBSCURED 60049 T02440236 10281 20243

2010/08/08 06:00
KIXA 080600Z AUTO 00000KT 2 1/2SM BR CLR 21/21 A2997 RMK AO2 T02100208 10271 20210

2010/08/08 06:00
KJES 080600Z AUTO 29003KT 3/4SM BR OVC002 24/24 A2993 RMK AO2 T02420242 10265 20240 403420236

2010/08/08 06:00
KJGG 080600Z AUTO 00000KT 5SM CLR 23/22 A3000 RMK AO1

2010/08/08 06:00
KJKA 080600Z AUTO 00000KT 10SM VCTS CLR 28/26 A2991 RMK AO2 LTG DSNT S THRU W T02840259

2010/08/08 06:00
KLDJ 080600Z AUTO 00000KT 7SM CLR 22/18 A3000 RMK AO2 T02220184 10263 20222

2010/08/08 06:00
KLHZ 080600Z AUTO 00000KT 7SM CLR 23/21 A2999 RMK AO2 T02280211

2010/08/08 06:00
KLWB 080600Z AUTO 02003KT 10SM SCT039 SCT050 17/16 A3010 RMK AO2

2010/08/08 06:00
KMGR 080600Z AUTO 00000KT 7SM CLR 25/24 A2994 RMK AO2

2010/08/08 06:00
KMQI 080600Z AUTO 07004KT 7SM CLR 26/26 A2998 RMK AO2

2010/08/08 06:00
KRUQ 080600Z AUTO 00000KT 1 3/4SM BR VV007 21/19 A2999 RMK AO2

2010/08/08 06:00
KSIF 080600Z AUTO 00000KT 1 1/4SM BR SCT090 18/18 A3001 RMK AO2 T01840183 10244 20181

2010/08/08 06:00
KTPF 080600Z AUTO 25003KT 10SM CLR 29/26 A2994 RMK AO2

2010/08/08 06:00
KUNV 080600Z AUTO 00000KT 10SM CLR 16/13 A3004 RMK AO2 T01600125

2010/08/08 05:58
KVUJ 080558Z AUTO 00000KT 7SM CLR 23/21 A2997 RMK AO2

2010/08/08 05:59
K0R3 080559Z AUTO 00000KT 27/26 A2992 RMK AO2 PWINO

2010/08/08 06:00
K1A5 080600Z AUTO 00000KT 1 3/4SM BR SCT048 19/18 A3006 RMK AO2 VIS 1V2 1/2 T01890175 10267 20189

2010/08/08 06:00
K3A1 080600Z AUTO 00000KT 10SM CLR 22/22 A2997 RMK AO2 T02170218 10300 20217 TSNO

2010/08/08 05:59
K3I2 080559Z AUTO 00000KT 7SM CLR 16/16 A3002 RMK AO2

2010/08/08 06:00
K3J7 080600Z AUTO 00000KT 5SM BR CLR 24/23 A2994 RMK AO2 T02400228

2010/08/08 05:58
K4A9 080558Z AUTO 00000KT 10SM CLR 22/20 A2995 RMK AO2 T02210202

2010/08/08 06:00
K4R4 080600Z AUTO 23003KT 10SM CLR 27/25 A2992 RMK AO2 T02730253 10295 20267 403610265

2010/08/08 05:58
K8A0 080558Z AUTO 12004KT 10SM CLR 26/18 A2995 RMK AO2

2010/08/08 06:00
KACP 080600Z AUTO 00000KT 10SM CLR 26/26 A2991 RMK AO2

2010/08/08 06:00
KAFP 080600Z AUTO 00000KT 5SM BR CLR 23/23 A2996 RMK AO2 T02290227 10285 20229

2010/08/08 06:00
KALX 080600Z AUTO 00000KT 7SM CLR 25/23 A2995 RMK AO1

2010/08/08 06:00
KBQK 080600Z AUTO 26003KT 4SM SCT002 25/25 A2993 RMK AO1 6//// T02500246 10266 20243 403260242 PNO

2010/08/08 06:00
KCCO 080600Z AUTO 00000KT 3SM CLR 22/22 A2997 RMK AO1

2010/08/08 06:00
KCDH 080600Z AUTO 00000KT 10SM FEW047 25/24 A2990 RMK AO2

2010/08/08 05:59
KCJR 080559Z AUTO 00000KT 7SM CLR 18/17 A3001 RMK AO2

2010/08/08 06:00
KCPC 080600Z AUTO 00000KT 1SM BR SCT001 24/23 A2994 RMK AO2 T02350232 10285 20234

2010/08/08 06:00
KCTJ 080600Z AUTO 00000KT 10SM CLR 24/23 A2998 RMK AO2 T02370229 10291 20237 403380212

2010/08/08 06:00
KCWV 080600Z AUTO 00000KT 5SM BR CLR 25/25 A2993 RMK AO2 T02470247

2010/08/08 05:58
KDNN 080558Z AUTO 00000KT 10SM CLR 22/22 A2996 RMK AO2

2010/08/08 06:00
KDRI 080600Z AUTO 20005KT 10SM CLR 26/26 A2994 RMK AO2

2010/08/08 05:55
KEMV 080555Z AUTO 00000KT 10SM SCT003 20/18 A3000 RMK AO2

2010/08/08 06:00
KEYF 080600Z AUTO 00000KT 5SM BR SCT015 24/23 A2996 RMK AO2 T02350230

2010/08/08 05:57
KEZF 080557Z AUTO 00000KT 10SM CLR 19/19 A2999 RMK AO2 T01920190

2010/08/08 06:00
KF24 080600Z AUTO 00000KT 10SM CLR 27/24 A2994 RMK AO2 T02710241 10310 20268 403310250

2010/08/08 06:00
KFFA 080600Z AUTO 00000KT 2SM BR CLR 24/24 A2998 RMK AO2 T02430237 10250 20242

2010/08/08 06:00
KFKN 080600Z AUTO 00000KT 1/4SM OVC002 22/21 A2999 RMK AO1

2010/08/08 05:58
KFVX 080558Z AUTO 00000KT 4SM BR CLR 20/19 A2998 RMK AO2

2010/08/08 05:55
KGHG 080555Z AUTO 20003KT 10SM CLR 15/14 A3004 RMK AO2

2010/08/08 06:00
KGWW 080600Z AUTO 00000KT 5SM BR CLR 23/22 A2997 RMK AO2 T02250220 10276 20223

2010/08/08 06:00
KHNZ 080600Z AUTO 00000KT 7SM CLR 21/20 A3000 RMK AO2 T02080198 10264 20206

2010/08/08 05:58
KHOE 080558Z AUTO 00000KT 1/2SM FG OVC001 24/ A2994 RMK AO2 T0241

2010/08/08 06:00
KHSP 080600Z AUTO 19006KT 10SM CLR 17/14 A3020 RMK AO2

2010/08/08 05:55
KDLF 080555Z AUTO 13008KT 10SM CLR 30/19 A2989 RMK AO2 SLP103 T03010193 10375 20301 403800234 51018

2010/08/08 05:55
KHRT 080555Z AUTO 00000KT 10SM BKN120 26/26 A2990 RMK AO2 SLP126 60001 T02560256 10260 20254 403380247 58002 $

2010/08/08 05:55
KLUF 080555Z AUTO 00000KT 10SM BKN150 30/18 A2982 RMK AO2 SLP074 T02960181 10336 20287 51014 $

2010/08/08 05:56
KNBC 080556Z AUTO 00000KT 7SM CLR 26/24 A2992 RMK AO2 SLP131 T02560239 10289 20250 58006

2010/08/08 05:56
KNRS 080556Z AUTO 23004KT 10SM OVC017 16/13 A2993 RMK AO2 SLP136 T01560128 10183 20156 51015 TSNO $

2010/08/08 06:00
KNEL 080600Z AUTO 00000KT 8SM CLR 18/16 A3002 RMK AO2 SLP162 T01830161 10250 20183 50009 $

2010/08/08 05:56
KNFL 080556Z AUTO 19006KT 10SM CLR 22/02 A2987 RMK AO2 SLP090 T02170022 10344 20206 53025 TSNO

2010/08/08 05:56
KNLC 080556Z AUTO 32007KT 10SM CLR 22/10 A2975 RMK AO2 SLP073 T02220100 10361 20222 50015 TSNO $

2010/08/08 05:56
KNUW 080556Z 26004KT 6SM BR BKN005 OVC015 16/15 A2991 RMK AO2 SLP130 60010 T01620152 10178 20156 51005 $

2010/08/08 05:56
KNXP 080556Z AUTO 22013KT CLR 28/01 A2987 RMK AO2 SLP075 T02780011 10356 20278 51012 $

2010/08/08 05:56
KNXX 080556Z AUTO 00000KT 10SM FEW095 22/15 A3002 RMK AO2 SLP170 T02170150 10267 20217 50005 $

2010/08/08 05:55
KNYL 080555Z 15010KT 10SM CLR 31/16 A2971 RMK AO2 SLP055 T03060156 10389 20306 51016

2010/08/08 05:55
KTBN 080555Z AUTO 15004KT 10SM CLR 23/ A2995 RMK AO2 SLP120 60000 T0225 10301 20225 403240198 50008 $

2010/08/08 05:55
KVAD 080555Z 00000KT 6SM R18/4500V5500FT BR FEW002 24/24 A2993 RMK AO2A VIS 1 RWY36 SLP133 60018 T02450243 10251 20245 50000 $

2010/08/08 05:58
PWAK 080558Z 12010KT 7SM FEW020 SCT035 29/24 A2991 RMK AO2A RS DIST S MOV SLOWLY W

2010/08/08 06:00
FLLS 080600Z 09006KT CAVOK 13/09 Q1025 NOSIG

2010/08/08 06:00
FNLU 080600Z 00000KT 3000 BR BKN022 OVC028 20/19 Q1015 NSG

2010/08/08 06:00
FQBR 080600Z 24008KT 9999 FEW019 BKN080 21/19 Q1021

2010/08/08 06:00
FQMA 080600Z 00000KT 4000 BR NSC 18/15 Q1022 NOSIG

2010/08/08 06:00
FVHA 080600Z 12009KT CAVOK 11/06 Q1027 NOSIG

2010/08/08 06:00
LEMD 080600Z 00000KT 9999 FEW050 24/13 Q1019 NOSIG

2010/08/08 06:00
LEBL 080600Z 32004KT 250V350 9999 FEW020 22/18 Q1018 NOSIG

2010/08/08 06:00
LEPA 080600Z 04003KT 330V070 CAVOK 19/17 Q1019 NOSIG

2010/08/08 06:00
LEZL 080600Z VRB02KT CAVOK 26/17 Q1015 NOSIG

2010/08/08 06:00
LEMG 080600Z 00000KT 9999 FEW020 SCT080 25/20 Q1017 NOSIG

2010/08/08 06:00
LEVC 080600Z 00000KT CAVOK 22/18 Q1018 NOSIG

2010/08/08 06:00
LEAL 080600Z 00000KT CAVOK 23/14 Q1018 NOSIG

2010/08/08 06:00
LEIB 080600Z 00000KT CAVOK 22/19 Q1018 NOSIG

2010/08/08 06:00
LELC 080600Z 00000KT CAVOK 21/17 Q1018 NOSIG

2010/08/08 06:00
LEVX 080600Z 20008KT CAVOK 17/14 Q1015

2010/08/08 06:02
KIZG 080602Z AUTO 00000KT 1 1/4SM BR CLR 07/07 A3002 RMK AO2

2010/08/08 06:03
KFCM 080603Z AUTO VRB04KT 8SM -TSRA BKN055 26/22 A2967 RMK AO2 LTG DSNT N TSB0557 P0001

2010/08/08 06:03
KGWO 080603Z AUTO 00000KT 1 3/4SM BR CLR 24/23 A2991 RMK AO2

2010/08/08 06:03
KRNT 080603Z AUTO VRB03KT 10SM FEW013 BKN045 OVC050 17/16 A2991 RMK AO2 RAE0554

2010/08/08 06:03
KSTS 080603Z AUTO 00000KT 10SM BKN004 12/11 A2982 RMK AO2

2010/08/08 06:03
KVLD 080603Z AUTO 00000KT 1 1/4SM BR SCT001 24/23 A2993 RMK AO2

2010/08/08 06:02
PATO 080602Z AUTO 10005KT 9SM -RA OVC029 09/09 A2979 RMK AO2 P0001 T00940089 TSNO

2010/08/08 05:50
NZSP 080550Z 15008KT 9999 IC SKC M67/ A2817 RMK CLN AIR 13006KT ALL WNDS GRID

2010/08/08 06:00
OIBA 080600Z 06010KT 4000 HZ NSC 34/30 Q0998 A2949

2010/08/08 06:00
OIFS 080600Z 18004KT 9999 FEW035 24/M00 Q1022 A3021 798.2

2010/08/08 06:00
OIIP 080600Z 00000KT CAVOK 29/08 Q1016

2010/08/08 06:00
OIMB 080600Z 05012KT CAVOK 30/09 Q1014 A2995

2010/08/08 06:00
OIMN 080600Z 00000KT CAVOK 29/08 Q1016 A3002

2010/08/08 06:00
OIZJ 080600Z 08014KT 7000 NSC 31/28 Q1000 A2954

2010/08/08 06:00
HKJK 080600Z 17005KT 9999 SCT017 BKN080 15/13 Q1024 NOSIG

2010/08/08 06:00
HRYR 080600Z 00000KT CAVOK 21/13 Q1022 NOSIG

2010/08/08 06:00
LKCV 080600Z 20001KT 9999 SCT037 BKN045 OVC090 16/15 Q1016 NOSIG

2010/08/08 06:00
LKKB 080600Z 22004KT CAVOK 16/15 Q1016 NOSIG

2010/08/08 06:00
LKLN 080600Z AUTO 00000KT CAVOK 15/14 Q1017

2010/08/08 06:00
LKNA 080600Z 29009KT 9999 SCT034 BKN100 15/14 Q1017 NOSIG

2010/08/08 06:00
LKPD 080600Z 28005KT 9999 FEW007 BKN080 BKN100 16/15 Q1016 NOSIG

2010/08/08 06:00
LKPO 080600Z 17004KT 6000 OVC010 16/15 Q1016 NOSIG

2010/08/08 06:00
GCFV 080600Z 36012KT 9999 FEW025 22/18 Q1012

2010/08/08 06:00
GCHI 080600Z 35020KT 9999 FEW024 21/16 Q1015

2010/08/08 06:00
GCLA 080600Z 32004KT 280V030 9999 FEW030 21/15 Q1015

2010/08/08 06:00
GCLP 080600Z 36010KT 9999 FEW020 23/08 Q1010 NOSIG

2010/08/08 06:00
GCRR 080600Z 34013KT 9999 FEW015 22/18 Q1012

2010/08/08 06:00
GCTS 080600Z 32003KT 9999 SCT046 20/16 Q1014 NOSIG

2010/08/08 06:00
GCXO 080600Z 30018KT 9999 BKN008 16/14 Q1016 NOSIG

2010/08/08 06:00
GEML 080600Z 07003KT 020V110 9999 FEW014 SCT026 24/21 Q1017

2010/08/08 06:00
GQNN 080600Z 30004KT 6000 FEW010 25/22 Q1010 TEMPO SCT010

2010/08/08 06:00
LFAQ 080600Z AUTO 29006KT 7000NDV BKN003 BKN013 OVC041 15/15 Q1018

2010/08/08 06:00
LFBU 080600Z AUTO 28003KT 9999NDV NSC 14/13 Q1021

2010/08/08 06:00
LFLN 080600Z AUTO 27005KT 9999NDV NSC 17/14 Q1019

2010/08/08 06:00
LFPM 080600Z 26004KT 9999 FEW013 16/14 Q1019

2010/08/08 06:00
LFRH 080600Z 33004KT 9999 SCT029 12/12 Q1022

2010/08/08 06:00
LFRQ 080600Z 32004KT 9999 FEW016 SCT023 14/13 Q1022 NOSIG

2010/08/08 06:00
LFRT 080600Z 30004KT 9999 BKN026 15/15 Q1021

2010/08/08 06:00
LFSD 080600Z AUTO 33005KT 9999NDV NSC 18/15 Q1018

2010/08/08 06:00
LFTW 080600Z AUTO VRB02KT 9999NDV NSC 21/09 Q1018

2010/08/08 06:00
ZBHH 080600Z 23003MPS 6000 SCT040 FEW040TCU 25/17 Q1008 NOSIG

2010/08/08 06:00
ZGHA 080600Z 29003MPS 250V350 9999 SCT033 35/27 Q1002 NOSIG

2010/08/08 06:00
ZHCC 080600Z 16003MPS 100V200 5000 HZ SCT040 31/25 Q1003 NOSIG

2010/08/08 06:00
ZHHH 080600Z 15004MPS 9999 FEW025TCU 33/28 Q1003 NOSIG

2010/08/08 06:00
ZJHK 080600Z 06003MPS 9999 FEW016 28/24 Q1002 NOSIG

2010/08/08 06:00
ZJSY 080600Z 18003MPS 130V210 9999 FEW018 30/25 Q1001 NOSIG

2010/08/08 06:00
ZLLL 080600Z VRB02G07MPS 9999 SCT023 28/13 Q1012 NOSIG

2010/08/08 06:00
ZSNJ 080600Z 12004MPS 080V180 9999 BKN020 34/19 Q1004 NOSIG

2010/08/08 06:00
ZSOF 080600Z 16003MPS 120V200 9999 FEW023 34/26 Q1003 NOSIG

2010/08/08 06:00
ZUCK 080600Z 10003MPS 040V180 9999 FEW030 35/19 Q1004 NOSIG

2010/08/08 06:00
ZYCC 080600Z 18004MPS 150V210 9999 OVC030 21/17 Q1005 NOSIG

2010/08/08 06:00
ZYHB 080600Z 15005MPS 110V190 9999 SCT020 SCT033 24/18 Q1005 NOSIG

2010/08/08 06:00
LEAB 080600Z 12009KT CAVOK 19/10 Q1021 NOSIG

2010/08/08 06:00
LEBZ 080600Z 00000KT CAVOK 25/15 Q1015

2010/08/08 06:00
LELN 080600Z 00000KT CAVOK 13/07 Q1021

2010/08/08 06:00
LESA 080600Z 00000KT CAVOK 16/15 Q1020

2010/08/08 06:00
LETO 080600Z 05002KT CAVOK 23/12 Q1019 NOSIG

2010/08/08 06:00
LEVD 080600Z 05005KT CAVOK 14/11 Q1020

2010/08/08 06:00
LEVS 080600Z 10006KT 060V130 CAVOK 24/14 Q1020

2010/08/08 06:00
SARE 080600Z 18005KT CAVOK 10/08 Q1016

2010/08/08 05:50
HLLB 080550Z 36007KT 9999 SCT015 24/19 Q1014

2010/08/08 05:50
HLLS 080550Z 06015KT CAVOK 25/09 Q1016

2010/08/08 05:50
HLLT 080550Z 12002KT CAVOK 26/14 Q1016

2010/08/08 06:00
GOOY 080600Z VRB03KT 9999 BKN013 27/22 Q1011 NOSIG

2010/08/08 06:00
DIAP 080600Z 23005KT 8000 FEW006 BKN012 25/24 Q1014 NOSIG

2010/08/08 06:00
DNMM 080600Z 27015KT 8000 BKN010 25/24 Q1014 NOSIG

2010/08/08 06:00
DXXX 080600Z 21009KT 8000 BKN008 BKN090 25/24 Q1014 TEMPO 4000 RA BKN006 BKN080

2010/08/08 06:00
FALA 080600Z 00000KT 3500 BR NSC 07/04 Q1028 BECMG 7000

2010/08/08 06:00
FBFT 080600Z 00000KT CAVOK 10/06 Q1027

2010/08/08 06:00
FBKE 080600Z 11012KT CAVOK 16/06 Q1024

2010/08/08 06:00
FBMN 080600Z 11007KT CAVOK 13/05 Q1025

2010/08/08 06:00
FBSK 080600Z 14004KT CAVOK 09/05 Q1026 NOSIG

2010/08/08 06:00
FDMS 080600Z 00000KT CAVOK 12/09 Q1022 NOSIG

2010/08/08 06:00
FYWB 080600Z 11004KT 080V140 4500 VV/// 11/10 Q1020

2010/08/08 06:00
FYWH 080600Z 27004KT CAVOK 08/M03 Q1028

2010/08/08 06:00
LRAR 080600Z 33004KT 290V350 CAVOK 20/17 Q1018

2010/08/08 06:00
LRBM 080600Z 26006KT 9999 FEW060 19/16 Q1016

2010/08/08 06:00
LRCL 080600Z 00000KT 9999 FEW020 BKN045 19/16 Q1018 0821//95

2010/08/08 06:00
LROD 080600Z VRB02KT CAVOK 20/16 Q1018

2010/08/08 06:00
LRSM 080600Z AUTO 24004KT 170V280 9999 NCD 20/16 Q1017

2010/08/08 06:00
LRTM 080600Z 25004KT 220V290 5000 BR SCT008 BKN010 19/18 Q1017 0729//95

2010/08/08 06:00
FIMP 080600Z 13019KT 9999 SCT019 23/16 Q1025

2010/08/08 06:00
FABL 080600Z 00000KT CAVOK 04/01 Q1025 NOSIG

2010/08/08 06:00
FACT 080600Z 32014KT 4500 -RA SCT004 BKN009 OVC029 12/11 Q1016 NOSIG

2010/08/08 06:00
FAEL 080600Z 33014KT CAVOK 26/M03 Q1010

2010/08/08 06:00
FAGG 080600Z 32011KT 9999 FEW030 15/05 Q1012

2010/08/08 06:00
FAJS 080600Z 32012KT 8000 NSC 10/04 Q1028 NOSIG

2010/08/08 06:00
FAKN 080600Z 26003KT CAVOK 12/08 Q1025 NOSIG

2010/08/08 06:00
FALA 080600Z 00000KT 3500 BR NSC 07/04 Q1028 BECMG 7000

2010/08/08 06:00
FALE 080600Z 03009KT CAVOK 17/12 Q1018 NOSIG

2010/08/08 06:00
FAMM 080600Z 04003KT CAVOK 11/01 Q1026 NOSIG

2010/08/08 06:00
FAPE 080600Z 24018KT CAVOK 14/12 Q1012 NOSIG

2010/08/08 06:00
FAPP 080600Z 19003KT 8000 NSC 08/05 Q1026 NOSIG

2010/08/08 06:00
FAUP 080600Z 35008KT CAVOK 14/M01 Q1020 NOSIG

2010/08/08 06:00
FYGB 080600Z AUTO 25001KT //// // ////// 07/M02 Q1026

2010/08/08 06:00
FYGF 080600Z 02003KT CAVOK 06/02 Q1026

2010/08/08 06:00
FYKM 080600Z 00000KT CAVOK 11/09 Q1021

2010/08/08 06:00
FYKT 080600Z AUTO 31004KT //// // ////// 16/M01 Q1022

2010/08/08 06:00
FYLZ 080600Z AUTO 14007KT //// // ////// 09/06 Q1021

2010/08/08 06:00
FYML 080600Z AUTO 06003KT //// // ////// ///// Q1024

2010/08/08 06:00
FYOA 080600Z 10004KT CAVOK 14/03 Q1021

2010/08/08 06:00
FYOJ 080600Z AUTO 36002KT //// // ////// 11/M01 Q1022

2010/08/08 06:00
FYOW 080600Z AUTO 11003KT //// // ////// 14/M00 Q1024

2010/08/08 06:00
FYRU 080600Z 09006KT CAVOK 13/05 Q1023

2010/08/08 06:00
FYWB 080600Z 11004KT 080V140 4500 VV/// 11/10 Q1020 

2010/08/08 06:00
FYWH 080600Z 27004KT CAVOK 08/M03 Q1028

2010/08/08 06:00
FYWW 080600Z 10004KT CAVOK 13/M02 Q1026

2010/08/08 05:50
HLLB 080550Z 36007KT 9999 SCT015 24/19 Q1014

2010/08/08 05:50
HLLT 080550Z 12002KT CAVOK 26/14 Q1016

2010/08/08 05:53
PABR 080553Z 07018KT 2 1/2SM BR OVC005 04/04 A2986

2010/08/08 05:53
PACD 080553Z AUTO 14026G33KT 10SM -RA BKN003 OVC075 11/11 A2970

2010/08/08 05:55
PAED 080555Z 21004KT 10SM OVC048 12/10 A2976

2010/08/08 05:55
PAEI 080555Z AUTO 00000KT 10SM BKN085 BKN140 15/11 A2967

2010/08/08 05:53
PAEN 080553Z AUTO 20010KT 10SM OVC060 13/11 A2976

2010/08/08 05:53
PAFA 080553Z 30005KT 10SM FEW045 BKN080 BKN130 14/13 A2966

2010/08/08 05:56
PAFS 080556Z AUTO 16003KT 10SM FEW036 SCT080 12/09 A2972

2010/08/08 05:53
PAJN 080553Z 06006KT 3SM -RA BR FEW005 BKN027 OVC040 12/11 A2986

2010/08/08 05:54
PAKN 080554Z 21005KT 10SM BKN010 OVC040 11/09 A2978

2010/08/08 05:53
PAKT 080553Z AUTO 00000KT 10SM OVC033 14/12 A2991

2010/08/08 05:53
PANC 080553Z 17004KT 10SM -RA FEW011 SCT040 OVC080 12/11 A2976

2010/08/08 05:53
PAOM 080553Z 25005KT 10SM OVC009 13/10 A2960

2010/08/08 05:53
PAOR 080553Z 00000KT 10SM FEW050 BKN075 BKN120 13/09 A2966

2010/08/08 05:53
PAOT 080553Z 30016KT 10SM FEW003 BKN032 BKN080 OVC180 11/10 A2958

2010/08/08 05:56
PARY 080556Z AUTO 19007KT 10SM FEW038 BKN110 13/10 A2967

2010/08/08 05:53
PASC 080553Z 07018G26KT 10SM OVC005 04/03 A2976

2010/08/08 05:53
PASI 080553Z 22004KT 10SM FEW009 BKN036 OVC055 13/12 A2989

2010/08/08 05:56
PATQ 080556Z AUTO 06019KT 8SM -RA OVC007 05/04 A2977

2010/08/08 05:56
PAVD 080556Z 09003KT 5SM FEW010 SCT030 OVC040 10/08 A2980

2010/08/08 05:56
PAWG 080556Z 00000KT 3SM BKN020 OVC027 12/11 A2990

2010/08/08 06:00
TTPP 080600Z 00000KT 9999 FEW016 25/24 Q1012 NOSIG

2010/08/08 06:00
TTCP 080600Z 00000KT 9999 FEW016 26/22 Q1012 NOSIG

2010/08/08 06:00
OJAI 080600Z 00000KT 7000 NSC 27/14 Q1013 NOSIG

2010/08/08 06:00
OJAM 080600Z 03006KT 4000 HZ NSC 31/07 Q1013 NOSIG

2010/08/08 06:00
OLBA 080600Z 24006KT 8000 FEW026 29/23 Q1011 NOSIG

2010/08/08 06:00
OYAA 080600Z 22010KT 8000 NSC 31/21 Q1004

2010/08/08 06:00
OYHD 080600Z 28004KT 6000 BKN030 34/29 Q1002

2010/08/08 06:00
OYSN 080600Z VRB02KT 8000 NSC 24/10 Q1022

2010/08/08 06:00
OEDF 080600Z VRB02KT CAVOK 39/11 Q0999 NOSIG

2010/08/08 06:00
OEDR 080600Z 00000KT 8000 SKC 39/17 Q0997 NOSIG

2010/08/08 06:00
OEMA 080600Z 05003KT 8000 FEW045 SCT100 38/02 Q1007 NOSIG

2010/08/08 06:00
OERK 080600Z 29006KT 8000 SKC 38/05 Q1006 NOSIG

2010/08/08 06:00
OIAA 080600Z 00000KT CAVOK 40/12 Q0998

2010/08/08 06:00
OIAW 080600Z 18004KT 7000 NSC 38/16 Q0998 A2949

2010/08/08 06:00
OIBB 080600Z 03006KT 8000 HZ FEW040 36/28 Q0998 A2948

2010/08/08 06:00
OIBK 080600Z 11010KT 4000 HZ SKC 36/30 Q0998 A2949

2010/08/08 06:00
OICC 080600Z 36004KT CAVOK 31/02 Q1015 A2999 866.9

2010/08/08 06:00
OICK 080600Z 06012KT CAVOK 34/M00 Q1013 A2992

2010/08/08 06:00
OICS 080600Z 34006KT CAVOK 31/M00 Q1016 A3003

2010/08/08 06:00
OIFM 080600Z 12004KT 7000 SKC 28/M02 Q1019 A3009

2010/08/08 06:00
OIGG 080600Z 28004KT CAVOK 30/22 Q1010 A2983

2010/08/08 06:00
OIKB 080600Z 17008KT 6000 NSC 35/28 Q0999 A2952

2010/08/08 06:00
OIKK 080600Z 33006KT CAVOK 24/M04 Q1018 A3007

2010/08/08 06:00
OIMM 080600Z 35010KT CAVOK 33/01 Q1013 A2993

2010/08/08 06:00
OINZ 080600Z 29006KT CAVOK 33/18 Q1010 A2983

2010/08/08 06:00
OISS 080600Z 00000KT CAVOK 31/01 Q1015 A2998

2010/08/08 06:00
OITT 080600Z 09010KT 9999 FEW035 SCT090 29/10 Q1018 A3008

2010/08/08 06:00
OIYY 080600Z 32008KT CAVOK 30/M04 Q1015 A3000

2010/08/08 06:00
OIZH 080600Z 34010KT 8000 NSC 32/M05 Q1010 A2985

2010/08/08 06:00
OKBK 080600Z 36006KT 6000 SKC 40/07 Q0999 NOSIG

2010/08/08 06:00
ORBI 080600Z 35018KT 2000 BLDU NSC 42/M01 Q1002 BECMG 1500

2010/08/08 06:00
ORMM 080600Z 26008KT 8000 SCT040 40/07 Q09985

2010/08/08 06:00
OSAP 080600Z 27006KT CAVOK 31/09 Q1009

2010/08/08 06:00
OSDI 080600Z 00000KT CAVOK 27/17 Q1011

2010/08/08 06:00
OSLK 080600Z 03002KT 7000 29/22 Q1008

2010/08/08 06:00
OJAQ 080600Z 36019KT 5000 DU NSC 32/21 Q1008

2010/08/08 06:00
SBBE 080600Z 10003KT CAVOK 25/22 Q1012

2010/08/08 06:00
SBBR 080600Z 23002KT CAVOK 15/07 Q1022

2010/08/08 06:00
SBBV 080600Z 34003KT 8000 VCSH SCT020 FEW025TCU BKN080 24/22 Q1013

2010/08/08 06:00
SBCF 080600Z 00000KT CAVOK 12/09 Q1021

2010/08/08 06:00
SBCG 080600Z 08011KT CAVOK 17/06 Q1017

2010/08/08 06:00
SBEG 080600Z 00000KT CAVOK 24/22 Q1013

2010/08/08 06:00
SBFI 080600Z 13008KT CAVOK 12/11 Q1015

2010/08/08 06:00
SBFZ 080600Z 10011KT 9999 SCT017 24/22 Q1015

2010/08/08 06:00
SBGL 080600Z 07002KT CAVOK 15/13 Q1019

2010/08/08 06:00
SBGR 080600Z 00000KT 7000 NSC 09/09 Q1020

2010/08/08 06:00
SBKP 080600Z 10009KT CAVOK 10/07 Q1019

2010/08/08 06:00
SBNT 080600Z 18005KT 9999 FEW020 22/20 Q1015

2010/08/08 06:00
SBPA 080600Z 09003KT 5000 BR BKN007 10/10 Q1018

2010/08/08 06:00
SBPS 080600Z 31005KT 6000 -RA FEW020 BKN050 17/16 Q1019

2010/08/08 06:00
SBRF 080600Z 25004KT 9999 SCT020 20/18 Q1016

2010/08/08 06:00
SBSL 080600Z 07004KT CAVOK 26/23 Q1013

2010/08/08 06:00
SBSN 080600Z 10002KT 9999 FEW015 24/22 Q1012

2010/08/08 06:00
SBSV 080600Z 16004KT 9999 SCT017 23/17 Q1018

2010/08/08 06:05
LIBG 080605Z 29005KT 240V320 CAVOK 24/16 Q1015 RMK VIS MIN 9999

2010/08/08 06:00
SBLO 080600Z 24003KT CAVOK 11/08 Q1019

2010/08/08 06:00
SBMA 080600Z 00000KT CAVOK 24/22 Q1012

2010/08/08 06:00
SBMN 080600Z 32004KT CAVOK 27/24 Q1012

2010/08/08 06:00
SBMO 080600Z 25002KT 9999 FEW017 SCT100 19/18 Q1018

2010/08/08 06:00
SBMQ 080600Z 00000KT 9999 FEW017 SCT100 25/25 Q1013

2010/08/08 06:00
SBPV 080600Z 00000KT CAVOK 21/18 Q1012

2010/08/08 06:00
SBRB 080600Z 00000KT 5000 FU NSC 21/16 Q1014

2010/08/08 06:00
SBSJ 080600Z 00000KT 8000 SCT0006 10/10 Q1020

2010/08/08 06:00
SBSP 080600Z 00000KT 0500 R17/0450 R35/0450 FG VV002 12/12 Q1021

2010/08/08 06:00
SBTE 080600Z 20001KT CAVOK 24/22 Q1013

2010/08/08 06:00
SBVT 080600Z 33002KT CAVOK 17/15 Q1019

2010/08/08 06:00
SBAR 080600Z 25003KT CAVOK 20/19 Q1017

2010/08/08 06:00
SBCT 080600Z 17003KT 3000 BR NSC 06/06 Q1020

2010/08/08 06:00
SBCY 080600Z 35004KT CAVOK 20/13 Q1014

2010/08/08 06:00
SBFL 080600Z 26005KT CAVOK 14/13 Q1017

2010/08/08 06:00
SBGO 080600Z 00000KT CAVOK 16/12 Q1018

2010/08/08 06:00
SBJP 080600Z 24007KT 9999 SCT020 BKN070 21/20 Q1017

2010/08/08 06:00
SBRP 080600Z 14002KT CAVOK 15/10 Q1018

2010/08/08 05:53
PABI 080553Z AUTO 28006KT 10SM OVC050 16/10 A2971

2010/08/08 05:55
PACZ 080555Z AUTO 21004KT 10SM OVC008 11/09 A2960

2010/08/08 05:56
PADK 080556Z 24031G36KT 4SM OVC008 11/09 A2931

2010/08/08 05:56
PADL 080556Z 18004KT 10SM BKN011 10/08 A2978

2010/08/08 05:53
PADQ 080553Z 33006KT 10SM FEW010 BKN024 OVC032 13/11 A2979

2010/08/08 05:55
PAEH 080555Z AUTO 11005KT 10SM BKN048 OVC050 09/08 A2969

2010/08/08 05:58
PAGA 080558Z AUTO 20003KT 10SM FEW027 BKN039 OVC047 14/12 A2966

2010/08/08 05:55
PAIM 080555Z AUTO 00000KT 10SM BKN050 OVC080 13/12 A2964

2010/08/08 05:55
PALU 080555Z AUTO 08015KT 10SM 11/11 A2964

2010/08/08 05:55
PASV 080555Z AUTO 20004KT 2 1/2SM SCT005 OVC012 10/10 A2974

2010/08/08 05:56
PASY 080556Z AUTO 28023G28KT 8SM OVC001 10/09 A2905

2010/08/08 05:55
PATC 080555Z AUTO 01017KT 2 1/2SM OVC006 08/07 A2962

2010/08/08 05:55
PATL 080555Z AUTO 22006KT 10SM BKN060 12/09 A2971

2010/08/08 05:50
MUCM 080550Z 10002KT 9000 FEW020 25/23 Q1016

2010/08/08 05:50
MUCU 080550Z 36004KT CAVOK 27/23 Q1017

2010/08/08 05:55
MUHA 080555Z 00000KT 9000 SKC 25/23 Q1015

2010/08/08 05:51
MUVR 080551Z 00000KT 9000 FEW018 23/21 Q1016

2010/08/08 05:59
MYEG 080559Z AUTO 09005KT 10SM CLR 27/23 A2998 RMK AO2

2010/08/08 06:00
MDPC 080600Z 04010KT 9999 FEW020 28/25 Q1013

2010/08/08 06:00
MDPP 080600Z 00000KT 9999 FEW016 25/25 Q1010 DU/ ALL QDS

2010/08/08 06:00
MDSD 080600Z 01004KT 9999 FEW018 24/22 Q1014

2010/08/08 06:00
MDST 080600Z 09004KT 9999 SCT016 25/24 Q1015

2010/08/08 05:53
TIST 080553Z AUTO 08008KT 10SM BKN095 28/23 A2994 RMK AO2 SLP139 T02830233 10289 20283 58015 TSNO $

2010/08/08 05:53
TISX 080553Z AUTO 10008KT 9SM -RA SCT025 BKN033 27/23 A2994 RMK AO2 RAB46 SLP138 P0000 60000 T02720233 10283 20272 58014 TSNO $

2010/08/08 05:50
TJPS 080550Z 00000KT 8SM FEW030 FEW060 26/23 A2995

2010/08/08 05:56
TJSJ 080556Z 11005KT 10SM FEW025 SCT031 SCT046 28/24 A2996 RMK AO2 RAB45E54 SLP143 P0000 60000 T02830239 10289 20278 58013

2010/08/08 05:50
LFBA 080550Z 29006KT 9999 BKN006 17/16 Q1020 BECMG FEW015

2010/08/08 06:00
LFBD 080600Z 00000KT 9999 BKN025 17/15 Q1021 NOSIG

2010/08/08 06:00
LFBE 080600Z 28005KT 9999 FEW020 16/14 Q1020 NOSIG

2010/08/08 06:00
LFBI 080600Z 33006KT 9999 FEW036 15/13 Q1020 NOSIG

2010/08/08 06:00
LFBL 080600Z 34005KT 320V020 9999 SCT017 14/13 Q1020 NOSIG

2010/08/08 06:00
LFBO 080600Z 27010KT CAVOK 18/14 Q1020 NOSIG

2010/08/08 06:00
LFBP 080600Z 31004KT 9999 BKN010 16/16 Q1022 BECMG SCT025

2010/08/08 06:00
LFBT 080600Z 26005KT 210V310 9999 BKN007 16/14 Q1022 BECMG CAVOK

2010/08/08 06:00
LFBZ 080600Z AUTO 11005KT 9999NDV NSC 17/16 Q1021

2010/08/08 06:00
LFLB 080600Z 19004KT CAVOK 15/13 Q1019 NOSIG

2010/08/08 06:00
LFLN 080600Z AUTO 27005KT 9999NDV NSC 17/14 Q1019

2010/08/08 06:00
LFLX 080600Z 35005KT 9999 BKN043 18/15 Q1019 NOSIG

2010/08/08 06:00
LFMD 080600Z AUTO 36003KT 320V030 9999NDV NSC 19/15 Q1017

2010/08/08 06:00
LFMK 080600Z 24004KT 200V310 CAVOK 19/14 Q1020 NOSIG

2010/08/08 06:00
LFML 080600Z 16002KT CAVOK 20/13 Q1017 NOSIG

2010/08/08 06:00
LFRC 080600Z AUTO 32004KT 280V350 9999NDV FEW008 15/14 Q1020

2010/08/08 06:00
LFRD 080600Z AUTO 22003KT 9999NDV FEW013 BKN024 16/14 Q1021

2010/08/08 06:00
LFRH 080600Z 33004KT 9999 SCT029 12/12 Q1022

2010/08/08 06:00
LFRN 080600Z AUTO 29004KT 9999NDV NSC 13/13 Q1021

2010/08/08 06:00
LFRO 080600Z AUTO VRB02KT 9999NDV SCT011 SCT017 14/14 Q1021

2010/08/08 06:00
LFRQ 080600Z 32004KT 9999 FEW016 SCT023 14/13 Q1022 NOSIG

2010/08/08 06:00
LFRT 080600Z 30004KT 9999 BKN026 15/15 Q1021

2010/08/08 06:00
LFRZ 080600Z AUTO 30003KT 270V330 9999NDV NSC 13/12 Q1021

2010/08/08 06:00
LFTH 080600Z VRB02KT CAVOK 18/11 Q1017 NOSIG

2010/08/08 06:00
LPFR 080600Z 09016KT CAVOK 27/15 Q1014

2010/08/08 06:00
LPPR 080600Z 00000KT 8000 SCT250 18/16 Q1014

2010/08/08 06:00
LPPS 080600Z 36008KT 9999 FEW015 BKN030 20/15 Q1016

2010/08/08 06:00
LPPT 080600Z 25004KT CAVOK 23/15 Q1015 NOSIG

2010/08/08 05:58
EHVK 080558Z AUTO 28005KT 5000NDV BR NCD 15/15 Q1015 WHT

2010/08/08 05:50
LFBA 080550Z 29006KT 9999 BKN006 17/16 Q1020 BECMG FEW015

2010/08/08 06:00
LFBD 080600Z 00000KT 9999 BKN025 17/15 Q1021 NOSIG

2010/08/08 06:00
LFBE 080600Z 28005KT 9999 FEW020 16/14 Q1020 NOSIG

2010/08/08 06:00
LFBL 080600Z 34005KT 320V020 9999 SCT017 14/13 Q1020 NOSIG

2010/08/08 06:00
LFBO 080600Z 27010KT CAVOK 18/14 Q1020 NOSIG

2010/08/08 06:00
LFBP 080600Z 31004KT 9999 BKN010 16/16 Q1022 BECMG SCT025

2010/08/08 06:00
LFBT 080600Z 26005KT 210V310 9999 BKN007 16/14 Q1022 BECMG CAVOK

2010/08/08 06:00
LFGJ 080600Z AUTO VRB02KT 9999NDV NSC 16/13 Q1018

2010/08/08 06:00
LFLB 080600Z 19004KT CAVOK 15/13 Q1019 NOSIG

2010/08/08 06:00
LFLL 080600Z 15006KT 9999 FEW030 SCT090 17/12 Q1018 NOSIG

2010/08/08 06:00
LFLX 080600Z 35005KT 9999 BKN043 18/15 Q1019 NOSIG

2010/08/08 06:00
LFMD 080600Z AUTO 36003KT 320V030 9999NDV NSC 19/15 Q1017

2010/08/08 06:00
LFMH 080600Z VRB02KT 9999 FEW050 17/13 Q1019 NOSIG

2010/08/08 06:00
LFMK 080600Z 24004KT 200V310 CAVOK 19/14 Q1020 NOSIG

2010/08/08 06:00
LFMN 080600Z 33008KT 9999 FEW018 20/13 Q1017 NOSIG

2010/08/08 06:00
LFPG 080600Z 29009KT 9999 BKN006 15/14 Q1019 NOSIG

2010/08/08 06:00
LFPO 080600Z 30009KT 9999 BKN006 15/14 Q1019 NOSIG

2010/08/08 06:00
LFQQ 080600Z 29006KT 6000 FEW005 SCT110 15/15 Q1017 TEMPO BKN007

2010/08/08 06:00
LFRB 080600Z VRB03KT 0200 R07/0450N FG VV/// 13/12 Q1022 TEMPO BKN003

2010/08/08 06:00
LFRC 080600Z AUTO 32004KT 280V350 9999NDV FEW008 15/14 Q1020

2010/08/08 06:00
LFRD 080600Z AUTO 22003KT 9999NDV FEW013 BKN024 16/14 Q1021

2010/08/08 06:00
LFRJ 080600Z AUTO 28004KT 250V310 0350NDV FG VV/// 14/14 Q1022

2010/08/08 06:00
LFRK 080600Z 27007KT 9999 FEW020 14/13 Q1020 NOSIG

2010/08/08 06:00
LFRN 080600Z AUTO 29004KT 9999NDV NSC 13/13 Q1021

2010/08/08 06:00
LFRO 080600Z AUTO VRB02KT 9999NDV SCT011 SCT017 14/14 Q1021

2010/08/08 06:00
LFRZ 080600Z AUTO 30003KT 270V330 9999NDV NSC 13/12 Q1021

2010/08/08 06:00
LFTH 080600Z VRB02KT CAVOK 18/11 Q1017 NOSIG

2010/08/08 06:00
TFFF 080600Z AUTO 02003KT 9999NDV NCD 25/24 Q1012

2010/08/08 06:00
TFFR 080600Z 06002KT 9999 VCSH FEW023 SCT083 26/22 Q1013 TEMPO 4000 SHRA

2010/08/08 05:59
EHLW 080559Z AUTO 35004KT 9999NDV FEW023 SCT026 BKN030 17/16 Q1014 BLU

2010/08/08 06:00
BIAR 080600Z 31001KT CAVOK 08/07 Q1015

2010/08/08 06:00
BIEG 080600Z 04004KT 9999 BKN030 09/07 Q1016

2010/08/08 06:00
BIKF 080600Z 01004KT 9999 -SHRA FEW041 BKN065 12/09 Q1013

2010/08/08 06:00
BIRK 080600Z 27003KT 9999 SCT032 BKN065 12/09 Q1012

2010/08/08 05:55
FJDG 080555Z 12014KT 9999 FEW020 SCT250 29/25 A2987 RMK SLP112 8/101 T02920247 10292 20266 50000

2010/08/08 05:56
KNUW 080556Z 26004KT 6SM BR BKN005 OVC015 16/15 A2991 RMK AO2 SLP130 60010 T01620152 10178 20156 51005 $

2010/08/08 05:55
KNYL 080555Z 15010KT 10SM CLR 31/16 A2971 RMK AO2 SLP055 T03060156 10389 20306 51016

2010/08/08 06:00
LKKV 080600Z VRB02KT CAVOK 14/11 Q1017

2010/08/08 06:00
MKJP 080600Z 34003KT 9999 FEW022 BKN240 28/21 Q1014

2010/08/08 06:00
MKJS 080600Z 00000KT 9999 VCTS FEW024CB 28/22 Q1014

2010/08/08 06:00
MZBZ 080600Z 00000KT 9999 FEW005 BKN260 26/26 A2989 Q1012 NOSIG

2010/08/08 06:00
OIAW 080600Z 18004KT 7000 NSC 38/16 Q0998 A2949

2010/08/08 06:00
OIFM 080600Z 12004KT 7000 SKC 28/M02 Q1019 A3009

2010/08/08 06:00
OIKB 080600Z 17008KT 6000 NSC 35/28 Q0999 A2952

2010/08/08 06:00
OIKK 080600Z 33006KT CAVOK 24/M04 Q1018 A3007

2010/08/08 06:00
OIMM 080600Z 35010KT CAVOK 33/01 Q1013 A2993

2010/08/08 06:00
OISS 080600Z 00000KT CAVOK 31/01 Q1015 A2998

2010/08/08 06:00
OITT 080600Z 09010KT 9999 FEW035 SCT090 29/10 Q1018 A3008

2010/08/08 06:00
OIZH 080600Z 34010KT 8000 NSC 32/M05 Q1010 A2985

2010/08/08 06:00
OJAQ 080600Z 36019KT 5000 DU NSC 32/21 Q1008

2010/08/08 05:58
PWAK 080558Z 12010KT 7SM FEW020 SCT035 29/24 A2991 RMK AO2A RS DIST S MOV SLOWLY W

2010/08/08 06:00
RJAW 080600Z 15009KT 9999 FEW015 SCT100 28/24 Q1012 RMK 2CU015 3AC100 A2990

2010/08/08 06:00
RJSM 080600Z 11009KT 9999 FEW020 BKN230 30/22 Q1013 RMK 1CU020 A2993 FCST 0612 TEMPO 0612 -SHRA FEW015CU BKN025CU FEW025TCU

2010/08/08 06:00
TGPY 080600Z 00000KT 9999 SCT018 26/25 Q1012

2010/08/08 06:00
MGPB 080600Z 00000KT 9999 FEW016 25/25 Q1012 A2988

2010/08/08 06:00
MGSJ 080600Z 00000KT CAVOK 25/24 Q1013 A2991 BKN090

2010/08/08 06:00
MHLC 080600Z 15002KT 9999 SCT022CB SCT080 26/24 Q1012 A2990 NOSIG

2010/08/08 06:00
MHLM 080600Z 00000KT 9999 FEW024 BKN250 27/27 Q1013 A2991 NOSIG

2010/08/08 06:00
MHTG 080600Z 13002KT 9999 BKN026 SCT250 21/20 Q1019 A3009 NOSIG

2010/08/08 06:00
MROC 080600Z 00000KT 4000 -RA BR SCT003 BKN010 20/20 A3008 NOSIG

2010/08/08 05:50
MSLP 080550Z 00000KT 9999 FEW027 SCT080 26/24 Q1012

2010/08/08 05:50
MSLP 080550Z 00000KT 9999 FEW027 SCT080 26/24 Q1012 A2990

2010/08/08 05:50
MSSS 080550Z 00000KT 9999 SCT023 FEW040CB 23/22 Q1016 CB NE/E

2010/08/08 05:50
MSSS 080550Z 00000KT 9999 SCT027 FEW040CB 23/22 Q1016 A3003 CB LTGIC TO N/E

2010/08/08 06:00
MZBZ 080600Z 00000KT 9999 FEW005 BKN260 26/26 A2989 Q1012 NOSIG

2010/08/08 05:50
MUCM 080550Z 10002KT 9000 FEW020 25/23 Q1016

2010/08/08 05:50
MUCU 080550Z 36004KT CAVOK 27/23 Q1017

2010/08/08 05:56
MUGM 080556Z 35004KT 9999 CLR 28/24 A2998 RMK SLP150 T02780239 10300 20278 57005

2010/08/08 05:55
MUHA 080555Z 00000KT 9000 SKC 25/23 Q1015

2010/08/08 05:51
MUVR 080551Z 00000KT 9000 FEW018 23/21 Q1016

2010/08/08 06:00
MGGT 080600Z 36006KT 9999 BKN012 18/17 Q1025 A3027 VOL/PACAYA EN ACTIVIDAD

2010/08/08 06:00
MGGT 080600Z 36006KT 9999 BKN012 18/17 Q1025 A3027 VOL.PACAYA EN ACTIVIDAD

2010/08/08 06:00
MGHT 080600Z 00000KT 9999 FEW020 16/16 QFE 818/9

2010/08/08 06:00
MGHT 080600Z 00000KT 9999 FEW020 16/16 QFE 818.9

2010/08/08 06:00
MHSR 080600Z 00000KT 2000 BR BKN004 OVC020 20/20 REDZ 2 KM TD CL BR HZ

2010/08/08 05:50
MSAC 080550Z 07003KT 9999 SCT030 SCT100 BKN180 25/25 Q1011

2010/08/08 06:00
ZBAA 080600Z 22002MPS 150V280 CAVOK 31/20 Q1003 NOSIG

2010/08/08 06:00
ZBTJ 080600Z 14002MPS 080V250 3000 HZ NSC 29/22 Q1003 NOSIG

2010/08/08 06:00
ZBYN 080600Z 13002MPS 8000 NSC 30/18 Q1006 NOSIG

2010/08/08 06:00
ZGGG 080600Z VRB01MPS 9999 FEW023 BKN050 33/24 Q1003 NOSIG

2010/08/08 06:00
ZGNN 080600Z VRB01MPS 9999 BKN026 SCT046 33/23 Q1003 NOSIG

2010/08/08 06:00
ZGSZ 080600Z 25003MPS 230V290 8000 FEW030 FEW033TCU BKN050 33/24 Q1002 NOSIG

2010/08/08 06:00
ZMUB 080600Z 32009MPS 280V360 9999 BKN033 11/02 Q1012 NOSIG RMK QFE652.2 56

2010/08/08 06:00
ZPPP 080600Z 15003MPS 110V220 9999 FEW026TCU FEW026 SCT050 24/15 Q1015 NOSIG

2010/08/08 06:00
ZSAM 080600Z 04004MPS 9999 SCT026 BKN047 32/22 Q1002 NOSIG

2010/08/08 06:00
ZSHC 080600Z 09004MPS 060V170 9999 BKN025 33/22 Q1004 NOSIG

2010/08/08 06:00
ZSPD 080600Z 10006MPS 070V130 9999 BKN020 30/25 Q1006 NOSIG

2010/08/08 06:00
ZSSS 080600Z 12004MPS 090V160 CAVOK 33/21 Q1005 NOSIG

2010/08/08 06:00
ZUUU 080600Z VRB01MPS 9999 FEW026 SCT026TCU 35/23 Q1004 NOSIG

2010/08/08 06:00
ZWWW 080600Z 01003MPS 340V040 CAVOK 28/09 Q1009 NOSIG

2010/08/08 06:00
ZYTL 080600Z 18003MPS 170V240 4000 +TSRA BR BKN005 BKN033 SCT040CB 22/21 Q1006 NOSIG

2010/08/08 05:53
TIST 080553Z AUTO 08008KT 10SM BKN095 28/23 A2994

2010/08/08 05:53
TISX 080553Z AUTO 10008KT 9SM -RA SCT025 BKN033 27/23 A2994

2010/08/08 05:50
TJPS 080550Z 00000KT 8SM FEW030 FEW060 26/23 A2995

2010/08/08 05:56
TJSJ 080556Z 11005KT 10SM FEW025 SCT031 SCT046 28/24 A2996

2010/08/08 06:04
CYNM 080604Z AUTO 17005KT 2 1/8SM OVC000 10/09 A2969 RMK VSBY VRBL 0.6V8.0

2010/08/08 06:04
CYCY 080604Z AUTO 00000KT 2 3/8SM OVC001 OVC044 OVC079 03/03 A2992

2010/08/08 06:00
EPGD 080600Z 16004KT 120V200 9999 FEW006 BKN013 19/18 Q1011

2010/08/08 06:00
EPKK 080600Z 25005KT 9999 BKN033 17/15 Q1015

2010/08/08 06:00
EPKT 080600Z 23007KT 9999 SCT008 BKN013 16/14 Q1015

2010/08/08 06:00
EPPO 080600Z 28007KT 9999 BKN006 17/17 Q1013

2010/08/08 06:00
EPRZ 080600Z 28007KT 9999 SCT030 19/16 Q1015

2010/08/08 06:00
EPWA 080600Z 29006KT 250V330 CAVOK 19/17 Q1012 NOSIG

2010/08/08 06:00
UKBB 080600Z VRB01MPS CAVOK 29/15 Q1014 88CLRD95 NOSIG

2010/08/08 06:00
UKLL 080600Z 00000MPS CAVOK 21/19 Q1015 13210360 NOSIG

2010/08/08 06:00
UKOO 080600Z VRB02MPS CAVOK 30/20 Q1012 34090070 NOSIG

2010/08/08 06:00
LBBG 080600Z VRB02MPS 9999 FEW033 28/21 Q1012 NOSIG

2010/08/08 06:00
LBPD 080600Z VRB02MPS 9999 SCT070 24/19 Q1013 NOSIG

2010/08/08 06:00
LBSF 080600Z 26004MPS 8000 SCT039 BKN046 19/17 Q1016 NOSIG

2010/08/08 06:00
LBWN 080600Z 30004MPS 240V330 CAVOK 25/20 Q1012 NOSIG

2010/08/08 06:00
LHBP 080600Z 25006KT 230V290 9999 -RA BKN012 OVC022 17/15 Q1017 NOSIG

2010/08/08 06:00
LRBS 080600Z 28004KT 260V320 CAVOK 25/21 Q1013 NOSIG

2010/08/08 06:00
LRCK 080600Z 36006KT 320V040 6000 SCT007 28/27 Q1013 NOSIG

2010/08/08 06:00
LROP 080600Z 26005KT 230V280 CAVOK 25/23 Q1012 8809//95 NOSIG

2010/08/08 06:00
LRTR 080600Z 35003KT 310V040 CAVOK 21/18 Q1018

2010/08/08 05:53
PHJR 080553Z 06004KT 10SM CLR 26/19 A3007

2010/08/08 05:53
PHKO 080553Z 21005KT 10SM OVC060 26/21 A3003

2010/08/08 05:53
PHLI 080553Z 04013KT 10SM FEW016 SCT022 BKN028 25/21 A3010

2010/08/08 05:53
PHNL 080553Z 05008KT 10SM FEW028 SCT045 27/19 A3006

2010/08/08 05:54
PHOG 080554Z 05012KT 10SM FEW049 SCT060 26/19 A3006

2010/08/08 05:53
PHTO 080553Z 09006KT 10SM OVC065 23/21 A3008

2010/08/08 06:00
LATI 080600Z 14004KT CAVOK 22/21 Q1015 NOSIG

2010/08/08 06:00
LDDU 080600Z 03014KT 350V060 CAVOK 23/12 Q1015 NOSIG

2010/08/08 06:00
LDOS 080600Z VRB01KT 9999 FEW033 19/17 Q1018

2010/08/08 06:00
LDPL 080600Z 00000KT CAVOK 22/15 Q1017 NOSIG

2010/08/08 06:00
LDRI 080600Z VRB01KT CAVOK 22/14 Q1017

2010/08/08 06:00
LDSP 080600Z VRB02KT CAVOK 24/12 Q1016 NOSIG

2010/08/08 06:00
LDZA 080600Z VRB01KT 9999 FEW004 18/16 Q1018 NOSIG

2010/08/08 06:00
LDZD 080600Z VRB01KT CAVOK 22/18 Q1017

2010/08/08 06:00
LKMT 080600Z 23007KT 9999 -RA FEW015 OVC035 16/14 Q1015 NOSIG

2010/08/08 06:00
LKPR 080600Z 21007KT 9999 BKN046 15/14 Q1016 NOSIG

2010/08/08 06:00
LKTB 080600Z 27004KT 230V300 9999 SCT020 BKN050 17/15 Q1016 NOSIG

2010/08/08 06:00
LQSA 080600Z VRB02KT 9999 FEW025 SCT034 16/14 Q1020 NOSIG

2010/08/08 06:00
LWOH 080600Z 00000KT CAVOK 18/14 Q1017

2010/08/08 06:00
LWSK 080600Z 28003KT 9999 FEW050 23/16 Q1015 NOSIG

2010/08/08 06:00
LYBE 080600Z 34003KT 9999 SCT006 19/17 Q1018 NOSIG

2010/08/08 06:00
LYNI 080600Z 32008KT 290V360 9999 SCT010 BKN033 20/17 Q1017 NOSIG

2010/08/08 06:00
LYPG 080600Z 03003KT 340V070 CAVOK 22/14 Q1015 NOSIG

2010/08/08 06:00
LYTV 080600Z VRB01KT CAVOK 21/16 Q1015 NOSIG

2010/08/08 06:00
LZIB 080600Z 28009KT 9999 FEW010 SCT060 BKN100 17/14 Q1016

2010/08/08 06:00
LZKZ 080600Z 25006KT 9999 BKN007 16/14 Q1016 NOSIG

2010/08/08 06:00
LZTT 080600Z 25009KT 9999 FEW016 16/12 Q1016 NOSIG

2010/08/08 06:00
LPFR 080600Z 09016KT CAVOK 27/15 Q1014

2010/08/08 06:00
LPPR 080600Z 00000KT 8000 SCT250 18/16 Q1014

2010/08/08 06:00
LPPS 080600Z 36008KT 9999 FEW015 BKN030 20/15 Q1016

2010/08/08 06:00
LPPT 080600Z 25004KT CAVOK 23/15 Q1015 NOSIG

2010/08/08 06:00
LFBD 080600Z 00000KT 9999 BKN025 17/15 Q1021 NOSIG

2010/08/08 06:00
LFBH 080600Z AUTO 02005KT 9999NDV OVC037 16/14 Q1021

2010/08/08 06:00
LFBI 080600Z 33006KT 9999 FEW036 15/13 Q1020 NOSIG

2010/08/08 06:00
LFBO 080600Z 27010KT CAVOK 18/14 Q1020 NOSIG

2010/08/08 06:00
LFBP 080600Z 31004KT 9999 BKN010 16/16 Q1022 BECMG SCT025

2010/08/08 06:00
LFBT 080600Z 26005KT 210V310 9999 BKN007 16/14 Q1022 BECMG CAVOK

2010/08/08 06:00
LFBZ 080600Z AUTO 11005KT 9999NDV NSC 17/16 Q1021

2010/08/08 06:00
LFGJ 080600Z AUTO VRB02KT 9999NDV NSC 16/13 Q1018

2010/08/08 06:00
LFKB 080600Z 22006KT 9999 FEW020 22/15 Q1018 NOSIG

2010/08/08 06:00
LFKC 080600Z 17004KT 130V210 CAVOK 22/14 Q1018 NOSIG

2010/08/08 06:00
LFKJ 080600Z 05005KT CAVOK 18/13 Q1018 NOSIG

2010/08/08 06:00
LFLB 080600Z 19004KT CAVOK 15/13 Q1019 NOSIG

2010/08/08 06:00
LFLC 080600Z 00000KT CAVOK 16/14 Q1020 NOSIG

2010/08/08 06:00
LFLL 080600Z 15006KT 9999 FEW030 SCT090 17/12 Q1018 NOSIG

2010/08/08 06:00
LFLS 080600Z 09008KT 9999 SCT058 17/13 Q1019 NOSIG

2010/08/08 06:00
LFLY 080600Z VRB02KT CAVOK 17/12 Q1018 NOSIG

2010/08/08 06:00
LFMH 080600Z VRB02KT 9999 FEW050 17/13 Q1019 NOSIG

2010/08/08 06:00
OIAA 080600Z 00000KT CAVOK 40/12 Q0998

2010/08/08 06:00
OIBK 080600Z 11010KT 4000 HZ SKC 36/30 Q0998 A2949

2010/08/08 06:00
OICC 080600Z 36004KT CAVOK 31/02 Q1015 A2999 866.9

2010/08/08 06:00
OIGG 080600Z 28004KT CAVOK 30/22 Q1010 A2983

2010/08/08 06:00
OIIE 080600Z 13010KT CAVOK 30/M00 Q1015 A2997

2010/08/08 06:00
OIYY 080600Z 32008KT CAVOK 30/M04 Q1015 A3000

2010/08/08 06:00
OOMS 080600Z 28008KT 240V320 CAVOK 36/24 Q1000 NOSIG

2010/08/08 05:50
OOSA 080550Z 19009KT 160V230 6000 FEW006 BKN010 OVC020 26/23 Q1004 NOSIG RH81 RMK05

2010/08/08 06:00
LFML 080600Z 16002KT CAVOK 20/13 Q1017 NOSIG

2010/08/08 06:00
LFMN 080600Z 33008KT 9999 FEW018 20/13 Q1017 NOSIG

2010/08/08 06:00
LFMP 080600Z 28005KT 250V320 9999 FEW060 24/14 Q1018 NOSIG

2010/08/08 06:00
LFMT 080600Z 00000KT CAVOK 20/13 Q1018 NOSIG

2010/08/08 06:00
LFOB 080600Z 31008KT 9999 BKN006 16/14 Q1018 NOSIG

2010/08/08 06:00
LFOH 080600Z AUTO 36006KT 9999NDV BKN008 17/14 Q1019

2010/08/08 06:00
LFPB 080600Z AUTO 28006KT 9999NDV OVC008 15/14 Q1018

2010/08/08 06:00
LFPG 080600Z 29009KT 9999 BKN006 15/14 Q1019 NOSIG

2010/08/08 06:00
LFPO 080600Z 30009KT 9999 BKN006 15/14 Q1019 NOSIG

2010/08/08 06:00
LFQQ 080600Z 29006KT 6000 FEW005 SCT110 15/15 Q1017 TEMPO BKN007

2010/08/08 06:00
LFRB 080600Z VRB03KT 0200 R07/0450N FG VV/// 13/12 Q1022 TEMPO BKN003

2010/08/08 06:00
LFRD 080600Z AUTO 22003KT 9999NDV FEW013 BKN024 16/14 Q1021

2010/08/08 06:00
LFRK 080600Z 27007KT 9999 FEW020 14/13 Q1020 NOSIG

2010/08/08 06:00
LFRN 080600Z AUTO 29004KT 9999NDV NSC 13/13 Q1021

2010/08/08 06:00
LFRO 080600Z AUTO VRB02KT 9999NDV SCT011 SCT017 14/14 Q1021

2010/08/08 06:00
LFRS 080600Z 28001KT CAVOK 13/12 Q1021 NOSIG

2010/08/08 06:00
LFRZ 080600Z AUTO 30003KT 270V330 9999NDV NSC 13/12 Q1021

2010/08/08 06:00
LFSB 080600Z 13004KT 100V190 9999 FEW050CB SCT100 17/13 Q1018 NOSIG

2010/08/08 06:00
LFSF 080600Z AUTO 29005KT 260V330 9999NDV FEW011 BKN056 OVC086 16/13 Q1017

2010/08/08 06:00
LFSN 080600Z 31008KT 270V350 9999 BKN012 BKN053 17/13 Q1017 NOSIG

2010/08/08 06:00
LFST 080600Z VRB02KT 9999 FEW043 BKN076 17/13 Q1017 NOSIG

2010/08/08 05:54
PGSN 080554Z 09016KT 10SM SCT020 31/26 A2980

2010/08/08 05:55
PGUA 080555Z AUTO 06011KT 10SM CLR 29/25 A2980

2010/08/08 05:54
PGUM 080554Z 07011KT 10SM SCT024 SCT029CB 31/24 A2979

2010/08/08 06:00
PKWA 080600Z AUTO 08010KT 10SM SCT021 30/23 A2980

2010/08/08 05:58
PWAK 080558Z 12010KT 7SM FEW020 SCT035 29/24 A2991

2010/08/08 06:00
LFBC 080600Z AUTO 00000KT 9999NDV FEW025 BKN035 14/13 Q1021

2010/08/08 06:00
LFBL 080600Z 34005KT 320V020 9999 SCT017 14/13 Q1020 NOSIG

2010/08/08 06:00
LFBM 080600Z AUTO 00000KT 9999NDV FEW024 SCT220 15/15 Q1021

2010/08/08 06:00
LFKF 080600Z AUTO 00000KT 9999NDV NCD 17/14 Q1018

2010/08/08 06:00
LFLD 080600Z 34004KT 300V360 9999 BKN033 17/15 Q1020

2010/08/08 06:00
LFLV 080600Z 00000KT 9999 SCT040 16/15 Q1020

2010/08/08 06:00
LFOE 080600Z AUTO 27007KT 6000NDV OVC003 15/14 Q1019

2010/08/08 06:00
LFOP 080600Z 29005KT 260V330 4000 BR OVC003 15/14 Q1019 NOSIG

2010/08/08 06:00
LFPB 080600Z AUTO 28006KT 9999NDV OVC008 15/14 Q1018

2010/08/08 06:00
LFPG 080600Z 29009KT 9999 BKN006 15/14 Q1019 NOSIG

2010/08/08 06:00
LFPV 080600Z AUTO 30010KT 4100NDV BR OVC003 14/13 Q1019

2010/08/08 06:00
LFQB 080600Z 29005KT 260V330 9999 SCT018 SCT033 17/15 Q1018

2010/08/08 06:00
LFQQ 080600Z 29006KT 6000 FEW005 SCT110 15/15 Q1017 TEMPO BKN007

2010/08/08 06:00
LFRM 080600Z 00000KT 3000 BR SCT004 13/13 Q1021

2010/08/08 06:00
LFSD 080600Z AUTO 33005KT 9999NDV NSC 18/15 Q1018

2010/08/08 06:00
LFSI 080600Z AUTO VRB03KT 9999NDV FEW006 SCT043 16/15 Q1018

2010/08/08 06:00
LFSL 080600Z AUTO 30005KT 9999NDV NSC 15/11 Q1020

2010/08/08 06:00
LFSO 080600Z AUTO 32008KT 9999NDV BKN048/// OVC058/// //////TCU 16/13 Q1018

2010/08/08 06:00
LFSX 080600Z AUTO 00000KT 9999NDV SCT049 BKN078 OVC100 15/13 Q1018

2010/08/08 06:00
LFTH 080600Z VRB02KT CAVOK 18/11 Q1017 NOSIG

2010/08/08 06:00
FIMR 080600Z 14025KT 9999 SCT018 24/13 Q1023

2010/08/08 06:00
FMMI 080600Z 14010KT 090V180 9999 SCT016 16/11 Q1027 NOSIG

2010/08/08 05:55
KQMG 080555Z AUTO 17006KT 10SM SCT110 BKN130 BKN140 27/13 A3005 RMK AO2 SLP084 T02700132 10355 20320 51026

2010/08/08 05:55
KQTO 080555Z 33015G20KT 6000 BLDU FEW000 SCT160 40/03 A2958 RMK DU FEW000 SLP014 53002

2010/08/08 05:55
KQTU 080555Z 32012G16KT 9999 FEW120 37/01 A2968 RMK SLP030 52005

2010/08/08 05:55
KQTX 080555Z VRB02KT 8000 FU HZ SCT080 40/02 A2966 RMK SLP013 51001

2010/08/08 05:55
KQTZ 080555Z 36013G28KT 2400 DU HZ FEW000 FEW200 41/02 A2958 RMK PK WND 36028/51 DU FEW000 SLP010 QNH1001MB WND DATA ESTMD ALSTG/SLP ESTMD 50002

2010/08/08 05:55
KQXJ 080555Z 32015KT 4400 BLDU FEW100 41/03 A2950 RMK SLP991 PA+412 DA+3513

2010/08/08 06:00
ORBI 080600Z 35018KT 2000 BLDU NSC 42/M01 Q1002 BECMG 1500

2010/08/08 05:55
KQPD 080555Z AUTO 07004KT 9000 CLR 36/08 A2966 RMK AO2 SLP944 T03590080 10311 20280 57002 $

2010/08/08 05:55
KQSL 080555Z 33013G25KT 1200 DU HZ FEW000 SCT010 SCT180 42/M01 A2966 RMK DU FEW000 SCT010 SLP027 Q1004MB 52002

2010/08/08 06:00
RJAA 080600Z 17008KT 9999 FEW020 SCT030 BKN/// 29/23 Q1014 NOSIG

2010/08/08 06:00
RJAH 080600Z 17009KT 9999 FEW030 SCT150 BKN230 31/25 Q1013

2010/08/08 06:00
RJCC 080600Z 17007KT 140V200 9999 FEW012 SCT050TCU 29/23 Q1012

2010/08/08 06:00
RJCH 080600Z 26005KT 230V320 9999 FEW009 SCT030 BKN/// 29/26 Q1013

2010/08/08 06:00
RJFK 080600Z 11009KT 090V160 9999 FEW025 29/22 Q1010

2010/08/08 06:00
RJFT 080600Z 10015KT 9999 FEW040 33/22 Q1009

2010/08/08 06:00
RJFU 080600Z 36008KT 9999 FEW035 33/24 Q1008

2010/08/08 06:00
RJOO 080600Z 10010KT 060V120 9999 FEW025 SCT045 32/20 Q1011

2010/08/08 06:00
RJSS 080600Z 15011KT 9999 FEW030CB 30/24 Q1013

2010/08/08 06:00
RJTT 080600Z 20011KT 9999 FEW020 FEW030CB BKN140 30/22 Q1014

2010/08/08 05:55
RODN 080555Z 17010KT 9999 SCT019 BKN045 31/26 A2961 RMK AO2A RAE0458 SLP026 P0000 60011 T03050264 10309 20263 58014

2010/08/08 06:00
RJAF 080600Z 18007KT 9999 FEW040 FEW050CB SCT080 BKN160 29/17 Q1017

2010/08/08 06:00
RJBD 080600Z VRB02KT 9999 FEW015 SCT045 BKN/// 31/22 Q1013

2010/08/08 06:00
RJCB 080600Z 13012KT 9999 FEW010 FEW020CB SCT025 27/23 Q1013

2010/08/08 06:00
RJCK 080600Z 19010KT 9999 FEW005 BKN025 21/17 Q1014

2010/08/08 06:00
RJCM 080600Z 07005KT 9999 FEW013 BKN034 25/21 Q1013

2010/08/08 06:00
RJCN 080600Z 05006KT 010V100 9999 FEW005 BKN009 BKN012 21/19 Q1014

2010/08/08 06:00
RJCW 080600Z 01007KT 9999 FEW020 23/20 Q1013

2010/08/08 06:00
RJDC 080600Z 09018KT 9999 FEW025 30/21 Q1010

2010/08/08 06:00
RJDT 080600Z 13006KT 9999 FEW020 30/22 Q1010

2010/08/08 06:00
RJEB 080600Z 10008KT 9999 BR FEW001 SCT003 22/20 Q1013

2010/08/08 06:00
RJEC 080600Z VRB01KT 9999 FEW005 SCT035 BKN060 27/23 Q1013

2010/08/08 06:00
RJFG 080600Z 10012KT 060V130 9999 FEW008 SCT010 BKN015 27/25 Q1009

2010/08/08 06:00
RJFM 080600Z 09009KT 9999 -SHRA FEW005 SCT030 BKN070 28/26 Q1010

2010/08/08 06:00
RJFO 080600Z 09009KT 9999 FEW025 28/24 Q1011

2010/08/08 06:00
RJFR 080600Z 08019KT 9999 FEW025 30/22 Q1009

2010/08/08 06:00
RJKA 080600Z 19012KT 9999 FEW020 SCT040 BKN070 31/25 Q1004

2010/08/08 06:00
RJNT 080600Z 36010KT 9999 FEW030 SCT100 BKN/// 32/22 Q1012

2010/08/08 06:00
RJOA 080600Z 13006KT 080V180 9999 FEW035 FEW040TCU 31/18 Q1013

2010/08/08 06:00
RJOB 080600Z 10009KT 9999 FEW035 SCT180 29/20 Q1013

2010/08/08 06:00
RJOC 080600Z 01011KT 9999 FEW030 32/22 Q1010

2010/08/08 06:00
RJOI 080600Z 17006KT 9999 FEW025 BKN040 32/22 A2987 RMK SLP115 T03170217 10317 20289 56012

2010/08/08 06:00
RJOK 080600Z 16011KT 9999 FEW020 FEW025CB SCT060 BKN080 30/24 Q1012

2010/08/08 06:00
RJOM 080600Z 33006KT 300V360 9999 FEW025 FEW030TCU 32/22 Q1011

2010/08/08 06:00
RJOR 080600Z 15010KT 100V190 9999 FEW035 35/20 Q1010

2010/08/08 05:53
PGRO 080553Z 07011KT 7SM VCSH SCT025 29/25 A2980

2010/08/08 05:54
PGSN 080554Z 09016KT 10SM SCT020 31/26 A2980

2010/08/08 05:54
PGUM 080554Z 07011KT 10SM SCT024 SCT029CB 31/24 A2979

2010/08/08 05:54
PGWT 080554Z 09008KT 7SM FEW015 SCT080 31/25 A2979

2010/08/08 05:55
PKMR 080555Z 08009KT 15SM FEW016 SCT300 30/24 A2977

2010/08/08 06:00
PKWA 080600Z AUTO 08010KT 10SM SCT021 30/23 A2980

2010/08/08 05:51
PTKK 080551Z VRB05KT 15SM -SHRA SCT014CB BKN120 OVC280 30/25 A2973

2010/08/08 05:58
PTKR 080558Z 36003KT 15SM SCT018TCU BKN120 OVC300 30/24 A2977

2010/08/08 05:52
PTRO 080552Z 30006KT 15SM BKN016CB BKN120 OVC300 29/23 A2981

2010/08/08 05:58
PTTP 080558Z 08003KT 15SM SCT018 OVC300 29/27 A2978

2010/08/08 05:58
PWAK 080558Z 12010KT 7SM FEW020 SCT035 29/24 A2991

2010/08/08 06:00
RJOT 080600Z 10006KT 040V150 9999 FEW015 BKN/// 32/21 Q1012

2010/08/08 06:00
RJOY 080600Z VRB04KT 9999 FEW025 SCT040 34/20 Q1012

2010/08/08 06:00
RJSA 080600Z 28008KT 9999 FEW020 SCT030 30/23 Q1014

2010/08/08 06:00
RJSC 080600Z 13007KT 9999 -SHRA FEW030 FEW040CB SCT045 32/24 Q1013 RETS

2010/08/08 06:00
RJSI 080600Z 21005KT 9999 FEW030 SCT120 BKN/// 30/23 Q1013

2010/08/08 06:00
RJTF 080600Z 20007KT 170V250 9999 FEW030 BKN160 BKN/// 30/21 Q1014

2010/08/08 06:00
RJTH 080600Z VRB05KT 9999 SCT020 BKN/// 28/26 Q1015

2010/08/08 06:00
RJTI 080600Z 20010KT 9999 FEW020 BKN140 29/22 Q1014

2010/08/08 06:00
RJTO 080600Z VRB02KT 9999 FEW012 BKN/// 27/25 Q1015

2010/08/08 05:55
RJTY 080555Z AUTO 18011KT 9999 CLR 30/22 A3002 RMK AO2 SLP158 60000 T02950221 10305 20282 57011 $

2010/08/08 06:00
RKNY 080600Z 23007KT 7000 -SHRA FEW010 SCT025 25/22 Q1009 NOSIG

2010/08/08 06:00
RKPC 080600Z 32010KT 9999 SCT020 31/24 Q1009 WS ALL RWY NOSIG

2010/08/08 06:00
RKPK 080600Z 18008KT 9999 FEW030 SCT200 33/19 Q1009 NOSIG

2010/08/08 06:00
RKSI 080600Z 23009KT 9999 FEW030 31/22 Q1010 NOSIG

2010/08/08 06:00
RKSS 080600Z 29010KT 9999 FEW030 32/19 Q1009 NOSIG

2010/08/08 06:00
RKTN 080600Z 33005KT 9999 SCT030 33/22 Q1008 NOSIG

2010/08/08 06:00
RKTU 080600Z 23004KT 9999 SCT030 32/20 Q1009 NOSIG

2010/08/08 05:50
BGBW 080550Z AUTO 08002KT 9999NDV FEW100/// BKN130/// 12/07 Q1013

2010/08/08 05:50
BGGH 080550Z AUTO 02005KT 9999NDV -RA OVC060/// 10/07 Q1012

2010/08/08 05:50
BGJN 080550Z AUTO VRB01KT 9999NDV NCD 07/01 Q1013

2010/08/08 05:50
BGSF 080550Z 06007KT 9999 FEW200 05/02 Q1013

2010/08/08 05:55
BGTL 080555Z AUTO 13021G29KT 9999 -DZ OVC031 04/01 A2990 RMK AO2 PK WND 13029/0553 UPB0553E0554RAB0554E0555DZB0555 SLP129 P0000 60000 T00400008 10055 20040 56005 $

2010/08/08 06:00
BIAR 080600Z 31001KT CAVOK 08/07 Q1015

2010/08/08 06:00
BIEG 080600Z 04004KT 9999 BKN030 09/07 Q1016

2010/08/08 06:00
BIKF 080600Z 01004KT 9999 -SHRA FEW041 BKN065 12/09 Q1013

2010/08/08 06:00
BIRK 080600Z 27003KT 9999 SCT032 BKN065 12/09 Q1012

2010/08/08 06:00
GVAC 080600Z 02003KT 9999 BKN016 25/20 Q1013 NOSIG

2010/08/08 06:00
LPLA 080600Z 04005KT 9999 FEW020 SCT040 20/18 Q1024

2010/08/08 05:53
PGRO 080553Z 07011KT 7SM VCSH SCT025 29/25 A2980 RMK VCSH E

2010/08/08 05:54
PGSN 080554Z 09016KT 10SM SCT020 31/26 A2980 RMK AO2 SLP086 VCSH SE 60000 T03060256 10311 20294 56013 $

2010/08/08 05:55
PGUA 080555Z AUTO 06011KT 10SM CLR 29/25 A2980 RMK AO2 SLP073 T02910254 10297 20283 56010 VISNO RWY24L $

2010/08/08 05:54
PGUM 080554Z 07011KT 10SM SCT024 SCT029CB 31/24 A2979 RMK AO2 SLP081 CB S MOV W 8543501 60000 T03060244 10317 20294 56009 $

2010/08/08 05:54
PGWT 080554Z 09008KT 7SM FEW015 SCT080 31/25 A2979 RMK WIND DATA ESTIMATED

2010/08/08 05:53
PHJR 080553Z 06004KT 10SM CLR 26/19 A3007 RMK AO2 SLP190 T02610189 10317 20261 53014

2010/08/08 05:54
PHMK 080554Z AUTO 07007G18KT 10SM CLR 24/21 A3008 RMK AO2 SLP188 60000 T02390206 10289 20239 53016 TSNO

2010/08/08 05:55
PKMR 080555Z 08009KT 15SM FEW016 SCT300 30/24 A2977 RMK SLP085 8/101 T02960239 10311 20296 55000

2010/08/08 06:00
PKWA 080600Z AUTO 08010KT 10SM SCT021 30/23 A2980 RMK AO2 T02970230

2010/08/08 06:00
PLCH 080600Z 00000KT 15KM BKN016 25/24 Q1013

2010/08/08 05:56
PMDY 080556Z AUTO 07009KT 10SM CLR 28/21 A3020 RMK AO2 TSNO 53005 T02770211 10300 20272 SLP536

2010/08/08 05:51
PTKK 080551Z VRB05KT 15SM -SHRA SCT014CB BKN120 OVC280 30/25 A2973 RMK SHRAB45 CB ALQDS SLP071 60000 8/371 T03040248 10322 20300 57007

2010/08/08 05:58
PTKR 080558Z 36003KT 15SM SCT018TCU BKN120 OVC300 30/24 A2977 RMK TCU NE-SE AND SW SLP082 8/278 T03000242 10306 20283 57019

2010/08/08 05:52
PTRO 080552Z 30006KT 15SM BKN016CB BKN120 OVC300 29/23 A2981 RMK CB VC ALQDS

2010/08/08 05:58
PTTP 080558Z 08003KT 15SM SCT018 OVC300 29/27 A2978 RMK SLP082 8/101 T02890273 10317 20277 55000

2010/08/08 05:58
PWAK 080558Z 12010KT 7SM FEW020 SCT035 29/24 A2991 RMK AO2A RS DIST S MOV SLOWLY W

2010/08/08 06:00
RPLB 080600Z 23020G32KT 8000 -RA SCT018 OVC080 29/25 Q1005 LGT RA INTMT

2010/08/08 06:00
RPLC 080600Z VRB03KT 9999 FEW020 SCT090 OVC270 26/24 Q1006 A2971 NOSIG

2010/08/08 06:00
RPLL 080600Z 22011KT 8000 -SHRA SCT023 OVC090 29/26 Q1006 LGT SHRA RMK A2971

2010/08/08 06:00
RPMZ 080600Z 06004KT 9999 FEW018CB BKN120 32/26 Q1009 CB N SE

2010/08/08 06:00
LPFR 080600Z 09016KT CAVOK 27/15 Q1014

2010/08/08 06:00
LPLA 080600Z 04005KT 9999 FEW020 SCT040 20/18 Q1024

2010/08/08 06:00
LPMA 080600Z 01004KT 240V050 9999 FEW016 20/15 Q1015 RS31006KT 0502003KT 2336006KT

2010/08/08 06:00
LPPR 080600Z 00000KT 8000 SCT250 18/16 Q1014

2010/08/08 06:00
LPPS 080600Z 36008KT 9999 FEW015 BKN030 20/15 Q1016

2010/08/08 06:00
LPPT 080600Z 25004KT CAVOK 23/15 Q1015 NOSIG

2010/08/08 06:00
UBBB 080600Z 32008KT CAVOK 32/19 Q1011 NOSIG RMK R88CLRD70

2010/08/08 06:00
UBBG 080600Z 34004KT 9999 FEW100 29/15 Q1013 NOSIG RMK R30R/CLRD70

2010/08/08 06:00
UTTT 080600Z 35004MPS CAVOK 35/10 Q1006 R08R/CLRD70 NOSIG

2010/08/08 06:00
SCAR 080600Z 00000KT 9999 OVC021 14/08 Q1016

2010/08/08 06:00
SCBA 080600Z AUTO 30018KT CAVOK 03/00 Q1014

2010/08/08 06:00
SCCI 080600Z 27006KT 9999 BKN016 OVC060 02/M00 Q0996 NOSIG

2010/08/08 06:00
SCDA 080600Z 26004KT 9999 OVC022 13/09 Q1017

2010/08/08 06:00
SCEL 080600Z VRB02KT CAVOK 03/01 Q1025 NOSIG

2010/08/08 06:00
SCFA 080600Z 10003KT 9999 SCT014 10/08 Q1016

2010/08/08 06:00
SCIE 080600Z 19004KT 5000 BR SKC 03/02 Q1028

2010/08/08 06:00
SCTE 080600Z 36003KT 9999 SCT070 02/02 Q1028 NOSIG

2010/08/08 06:00
SULS 080600Z 00000KT 0040 FG NSC 06/06 Q1021

2010/08/08 06:00
SUMU 080600Z 00000KT 0050 R24/1200 R19/0250 FG BKN002 04/04 Q1021 TEMPO 0300 FG

2010/08/08 06:00
SKBO 080600Z VRB02KT 99999 SCT020 SCT080 13/11 A3035 NOSIG

2010/08/08 06:00
SKBQ 080600Z 00000KT 9999 FEW012 26/5 A2988

2010/08/08 06:00
SKCG 080600Z VRB02KT 9999 BKN015 29/25 A2987

2010/08/08 06:00
SKCL 080600Z VRB02KT 9999 SCT020 BKN090 21/18 A3004

2010/08/08 06:00
SKRG 080600Z 00000KT 9999 FEW010 SCT080 15/15 A3031

2010/08/08 06:00
SOCA 080600Z 25001KT 9999 FEW020 24/23 Q1013 NOSIG

2010/08/08 06:00
SPIM 080600Z 17006KT 7000 SCT010 OVC015 14/12 Q1015 NOSIG RMK PP000

2010/08/08 06:00
SPQT 080600Z /////KT 2000 BR SCT015 22/20 Q1013 TEMPO 1000 BCFG NOSIG RMK PP000

2010/08/08 06:00
SPQU 080600Z 06011KT CAVOK 11/M15 Q1026 RMK PP000

2010/08/08 06:00
SPSO 080600Z 10004KT 8000 SKC 12/10 Q1015 RMK PP000

2010/08/08 06:00
SPTN 080600Z 05005KT 7000 OVC012 11/08 Q1014 RMK PP000

2010/08/08 06:00
SPZO 080600Z 00000KT 9999 SKC 03/M11 Q1034 RMK PP000

2010/08/08 06:00
SVBC 080600Z 00000KT 9999 SCT010CB/S 23/22 Q1015

2010/08/08 06:00
SVMI 080600Z 11001KT 9999 FEW016 27/23 Q1012 NOSIG

2010/08/08 06:00
SKPE 080600Z VRB02KT 9999 SCT015 SCT070 19/18 A3015

2010/08/08 05:56
KABQ 080556Z 35008KT 10SM FEW095 23/12 A3014

2010/08/08 05:52
KATL 080552Z 09004KT 8SM CLR 25/23 A2997

2010/08/08 05:53
KBGR 080553Z 00000KT 10SM SCT080 11/10 A3001

2010/08/08 05:53
KBHM 080553Z 00000KT 10SM CLR 27/20 A2994

2010/08/08 05:53
KBNA 080553Z 04003KT 8SM CLR 23/18 A2996

2010/08/08 05:54
KBOS 080554Z 18005KT 10SM CLR 17/14 A3002

2010/08/08 05:54
KBWI 080554Z 00000KT 10SM BKN100 20/16 A2999

2010/08/08 05:56
KCHS 080556Z 00000KT 7SM CLR 25/24 A2992

2010/08/08 05:51
KCLE 080551Z 18006KT 10SM SCT250 20/15 A3001

2010/08/08 05:52
KCLT 080552Z 08006KT 9SM BKN046 26/19 A2999

2010/08/08 05:52
KCVG 080552Z 00000KT 10SM CLR 22/15 A3000

2010/08/08 05:53
KDEN 080553Z 17010KT 10SM SCT110 BKN200 19/15 A3003

2010/08/08 05:53
KDFW 080553Z 19009KT 10SM CLR 31/20 A2985

2010/08/08 05:53
KDTW 080553Z 21007KT 6SM HZ FEW080 SCT220 20/17 A2995

2010/08/08 05:51
KEWR 080551Z 19007KT 10SM CLR 23/19 A3000

2010/08/08 05:53
KFLL 080553Z 00000KT 10SM SCT047 28/25 A2996

2010/08/08 05:52
KIAD 080552Z 00000KT 10SM CLR 18/16 A3000

2010/08/08 05:53
KIAH 080553Z 19003KT 10SM CLR 29/24 A2991

2010/08/08 05:54
KIND 080554Z 00000KT 9SM CLR 22/17 A2996

2010/08/08 05:56
KJAX 080556Z 00000KT 10SM FEW003 SCT025 SCT150 OVC250 24/23 A2992

2010/08/08 05:51
KJFK 080551Z COR 22008KT 10SM SCT100 23/20 A3002

2010/08/08 05:51
KJFK 080551Z 22008KT 10SM SCT200 23/20 A3002

2010/08/08 05:56
KLAS 080556Z 17012G20KT 10SM FEW120CB BKN180 32/13 A2976

2010/08/08 05:53
KLAX 080553Z 24004KT 10SM BKN012 16/12 A2991

2010/08/08 05:51
KLGA 080551Z 20010KT 10SM CLR 24/19 A3000

2010/08/08 05:53
KLIT 080553Z 15003KT 10SM SCT060 BKN250 26/24 A2991

2010/08/08 05:53
KLOU 080553Z 00000KT 10SM CLR 22/17 A2998

2010/08/08 05:53
KMCI 080553Z 17008KT 10SM FEW250 26/21 A2986

2010/08/08 05:53
KMCO 080553Z 23004KT 10SM FEW030 FEW100 SCT180 OVC200 27/24 A2994

2010/08/08 05:53
KMEM 080553Z 00000KT 10SM FEW045 28/24 A2991

2010/08/08 05:53
KMIA 080553Z 20003KT 10SM FEW040 BKN130 BKN250 28/25 A2997

2010/08/08 05:53
KMSP 080553Z COR 19007KT 9SM SCT055 BKN080 27/22 A2968

2010/08/08 06:00
SCSE 080600Z 15006KT CAVOK 07/06 Q1020 NEFO PLAYA SKC

2010/08/08 06:00
SCTC 080600Z 00000KT 0600 FG SCT015 03/03 Q1029

2010/08/08 06:00
OERY 080600Z 34006KT 5000 DU SKC 38/05 Q1007 NOSIG

2010/08/08 06:00
LEAL 080600Z 00000KT CAVOK 23/14 Q1018 NOSIG

2010/08/08 06:00
LEAM 080600Z VRB02KT 9999 FEW040 SCT090 26/08 Q1017

2010/08/08 06:00
LEAS 080600Z 08009KT 050V120 9999 SCT014 BKN026 19/16 Q1020 NOSIG

2010/08/08 06:00
LEBB 080600Z 09003KT 050V120 8000 SCT018 BKN032 18/16 Q1021 NOSIG

2010/08/08 06:00
LEBL 080600Z 32004KT 250V350 9999 FEW020 22/18 Q1018 NOSIG

2010/08/08 06:00
LECO 080600Z 00000KT 9999 FEW030 15/15 Q1019

2010/08/08 06:00
LEGE 080600Z 00000KT 9999 SCT036 21/19 Q1018

2010/08/08 06:00
LEGR 080600Z 00000KT 9999 FEW100 23/16 Q1019

2010/08/08 06:00
LEIB 080600Z 00000KT CAVOK 22/19 Q1018 NOSIG

2010/08/08 06:00
LEJR 080600Z VRB02KT 9999 FEW055 24/13 Q1015

2010/08/08 06:00
LELC 080600Z 00000KT CAVOK 21/17 Q1018 NOSIG

2010/08/08 06:00
LELL 080600Z 00000KT CAVOK 20/17 Q1018

2010/08/08 06:00
LEMD 080600Z 00000KT 9999 FEW050 24/13 Q1019 NOSIG

2010/08/08 06:00
LEMG 080600Z 00000KT 9999 FEW020 SCT080 25/20 Q1017 NOSIG

2010/08/08 06:00
LEMH 080600Z VRB02KT 9999 FEW018 22/20 Q1019

2010/08/08 06:00
LEPA 080600Z 04003KT 330V070 CAVOK 19/17 Q1019 NOSIG

2010/08/08 06:00
LEPP 080600Z 09001KT 9999 FEW015 15/13 Q1021

2010/08/08 06:00
LERS 080600Z VRB02KT 9999 FEW035 22/18 Q1018

2010/08/08 06:00
LESO 080600Z 13003KT 100V160 9999 FEW020 SCT040 19/16 Q1021

2010/08/08 06:00
LEST 080600Z 02003KT CAVOK 14/13 Q1018 NOSIG

2010/08/08 06:00
LETO 080600Z 05002KT CAVOK 23/12 Q1019 NOSIG

2010/08/08 06:00
LEVC 080600Z 00000KT CAVOK 22/18 Q1018 NOSIG

2010/08/08 06:00
LEVD 080600Z 05005KT CAVOK 14/11 Q1020

2010/08/08 06:00
LEVS 080600Z 10006KT 060V130 CAVOK 24/14 Q1020

2010/08/08 06:00
LEVT 080600Z 00000KT 9999 FEW009 OVC020 16/14 Q1022

2010/08/08 06:00
LEVX 080600Z 20008KT CAVOK 17/14 Q1015

2010/08/08 06:00
LEXJ 080600Z 12005KT 9999 FEW020 OVC026 19/17 Q1021

2010/08/08 06:00
LEZG 080600Z 29011KT 9999 FEW045 20/14 Q1019

2010/08/08 06:00
LEZL 080600Z VRB02KT CAVOK 26/17 Q1015 NOSIG

2010/08/08 06:00
DTMB 080600Z 34009KT CAVOK 24/17 Q1018 NOSIG

2010/08/08 06:00
DTTA 080600Z 00000KT 9999 FEW033 23/17 Q1018 NOSIG

2010/08/08 06:00
DTTB 080600Z 00000KT CAVOK 22/18 Q1019

2010/08/08 06:00
DTTD 080600Z 08002KT 9999 FEW026 24/16 Q1017

2010/08/08 06:00
DTTG 080600Z 08012KT 8000 FEW020 SCT030 26/21 Q1017 NOSIG

2010/08/08 06:00
DTTJ 080600Z 07012KT 6000 FEW020 27/22 Q1016 NOSIG

2010/08/08 06:00
DTTK 080600Z 03002KT 9999 FEW023 22/16 Q1018

2010/08/08 06:00
DTTL 080600Z 31004KT CAVOK 23/18 Q1018

2010/08/08 06:00
DTTN 080600Z 00000KT 9999 FEW020 18/14 Q1019

2010/08/08 06:00
DTTR 080600Z 15008KT CAVOK 28/03 Q1016

2010/08/08 06:00
DTTX 080600Z 03008KT 9999 SCT033 25/18 Q1017 NOSIG

2010/08/08 06:00
DTTZ 080600Z 07014KT 9999 FEW030 27/23 Q1015 NOSIG

2010/08/08 06:00
UKBB 080600Z VRB01MPS CAVOK 29/15 Q1014 88CLRD95 NOSIG

2010/08/08 06:00
UKCC 080600Z 10005MPS CAVOK 34/10 Q1016 08090070 NOSIG

2010/08/08 06:00
UKDD 080600Z 09003MPS CAVOK 30/14 Q1015 08090070 NOSIG

2010/08/08 06:00
UKDE 080600Z 13005MPS 070V180 CAVOK 32/11 Q1015 20CLRD70 NOSIG

2010/08/08 06:00
UKDR 080600Z 10004MPS 070V140 CAVOK 30/16 Q1015 1809//70 NOSIG

2010/08/08 06:00
UKFF 080600Z 06002MPS 030V100 CAVOK 32/13 Q1011 01010070 NOSIG

2010/08/08 06:00
UKHH 080600Z 07003MPS CAVOK 30/10 Q1017 080///65 NOSIG

2010/08/08 06:00
UKLL 080600Z 00000MPS CAVOK 21/19 Q1015 13210360 NOSIG

2010/08/08 06:00
UKOO 080600Z VRB02MPS CAVOK 30/20 Q1012 34090070 NOSIG

2010/08/08 05:53
KMSP 080553Z 19007KT 9SM SCT055 BKN080 27/22 A2968

2010/08/08 05:53
KMSY 080553Z 24005KT 10SM FEW050 SCT250 28/25 A2992

2010/08/08 05:53
KOAK 080553Z 26011KT 10SM FEW005 SCT008 SCT011 15/12 A2986

2010/08/08 05:52
KOKC 080552Z 16008KT 10SM CLR 28/22 A2986

2010/08/08 05:53
KONT 080553Z 25007KT 10SM CLR 16/12 A2990

2010/08/08 05:51
KORD 080551Z 21008KT 10SM CLR 24/18 A2990

2010/08/08 05:51
KORF 080551Z 10003KT 7SM BKN009 25/23 A2999

2010/08/08 05:53
KPBI 080553Z 21004KT 10SM FEW039 SCT100 27/24 A2995

2010/08/08 05:54
KPHF 080554Z 10003KT 7SM CLR 23/23 A2999

2010/08/08 05:54
KPHL 080554Z 22004KT 10SM SCT080 SCT250 23/20 A3001

2010/08/08 05:51
KPHX 080551Z 00000KT 10SM BKN150 29/21 A2981

2010/08/08 05:51
KPIT 080551Z 00000KT 10SM FEW250 17/13 A3003

2010/08/08 05:51
KRDU 080551Z 00000KT 8SM FEW075 23/19 A2999

2010/08/08 05:51
KSAN 080551Z 22004KT 10SM OVC018 17/12 A2994

2010/08/08 05:53
KSEA 080553Z 27007KT 10SM BKN006 BKN010 OVC019 16/15 A2992

2010/08/08 05:56
KSFO 080556Z 27007KT 10SM FEW006 14/10 A2985

2010/08/08 05:51
KSTL 080551Z 15009KT 7SM CLR 26/17 A2994

2010/08/08 05:51
KTEB 080551Z 18006KT 10SM CLR 23/18 A2999

2010/08/08 05:53
KTPA 080553Z 24008KT 10SM FEW025 SCT130 BKN250 29/24 A2994

2010/08/08 05:50
EDAH 080550Z 26004KT 230V290 6000 RA OVC013 16/15 Q1013

2010/08/08 05:50
EDDS 080550Z 28005KT 9999 -SHRA FEW040CB BKN060 15/12 Q1018 TEMPO 4000 SHRA

2010/08/08 05:50
EDMA 080550Z 16002KT CAVOK 13/12 Q1018

2010/08/08 05:50
EGPK 080550Z VRB02KT 9999 FEW015 10/09 Q1020

2010/08/08 05:55
EGUL 080555Z AUTO 31006KT 9999 BKN012 BKN017 OVC032 15/14 A3008 RMK AO2 CIG 012V016 SLP187 T01480140 10156 20144 53009

2010/08/08 05:55
EGUN 080555Z AUTO 34009KT 9999 OVC031 15/15 A3008 RMK AO2 SLP177 60000 T01470147 10155 20142 53007

2010/08/08 05:55
EGVA 080555Z AUTO 31004KT 9999 FEW016 OVC030 14/13 A3013 RMK AO2 SLP204 T01440132 10151 20130 53010 $

2010/08/08 05:55
ETAD 080555Z AUTO 23007KT 9999 OVC002 15/15 A3001 RMK AO2 SLP152 60014 T01510149 10180 20147 53003 $

2010/08/08 05:55
ETAR 080555Z AUTO 23003KT 9999 BKN055 17/15 A3000 RMK AO2 SLP153 60004 70004 T01660147 10169 20148 53002 $

2010/08/08 05:55
KQHT 080555Z 29010KT 9999 FEW160 31/02 A2979 RMK A02A SLP049 58010

2010/08/08 06:00
LEMO 080600Z 05001KT CAVOK 27/14 Q1015 NOSIG

2010/08/08 05:50
LIRN 080550Z VRB03KT CAVOK 21/16 Q1016

2010/08/08 05:55
LIYW 080555Z AUTO 00000KT 9999 CLR 20/18 A3005 RMK AO2 SLP173 T01990180 10199 20169 53003

2010/08/08 06:00
LPLA 080600Z 04005KT 9999 FEW020 SCT040 20/18 Q1024

2010/08/08 05:50
LTAC 080550Z 01009KT CAVOK 30/04 Q1013 NOSIG

2010/08/08 05:50
LTAG 080550Z 14006KT 9999 SCT035 30/23 Q1008 NOSIG

2010/08/08 05:57
PHNG 080557Z AUTO 06008KT 10SM FEW018 OVC060 26/22 A3008 RMK AO2 SLP181 6//// T02560222 10289 20256 53012 $

2010/08/08 05:56
PHBK 080556Z AUTO 28005KT 10SM FEW049 28/20 A3005 RMK AO2 SLP179 T02830200 10306 20283 53013 TSNO $

2010/08/08 05:55
PHHI 080555Z AUTO 07007KT 10SM SCT048 BKN055 24/19 A3009 RMK AO2 SLP177 60000 T02420190 10281 20241 52012 $

2010/08/08 06:00
PKWA 080600Z AUTO 08010KT 10SM SCT021 30/23 A2980 RMK AO2 T02970230

2010/08/08 05:56
PMDY 080556Z AUTO 07009KT 10SM CLR 28/21 A3020 RMK AO2 TSNO 53005 T02770211 10300 20272 SLP536

2010/08/08 05:58
PWAK 080558Z 12010KT 7SM FEW020 SCT035 29/24 A2991 RMK AO2A RS DIST S MOV SLOWLY W

2010/08/08 06:00
RJOI 080600Z 17006KT 9999 FEW025 BKN040 32/22 A2987 RMK SLP115 T03170217 10317 20289 56012

2010/08/08 05:55
RJTY 080555Z AUTO 18011KT 9999 CLR 30/22 A3002 RMK AO2 SLP158 60000 T02950221 10305 20282 57011 $

2010/08/08 06:00
RKPK 080600Z 18008KT 9999 FEW030 SCT200 33/19 Q1009 NOSIG

2010/08/08 05:55
RKSO 080555Z 26006KT 9999 CLR 33/27 A2981 RMK AO2A SLP096 T03280266 10328 20277 56012 $

2010/08/08 05:55
RODN 080555Z 17010KT 9999 SCT019 BKN045 31/26 A2961 RMK AO2A RAE0458 SLP026 P0000 60011 T03050264 10309 20263 58014

2010/08/08 06:00
LPAZ 080600Z 03004KT 9999 FEW014 19/17 Q1021

2010/08/08 06:00
LPHR 080600Z 03009KT 9999 FEW013 BKN030 22/16 Q1023

2010/08/08 06:00
LPLA 080600Z 04005KT 9999 FEW020 SCT040 20/18 Q1024

2010/08/08 06:00
LPPD 080600Z 04006KT 9999 FEW020 SCT050 19/16 Q1022

2010/08/08 05:50
BGAA 080550Z AUTO 06001KT 9999NDV BKN230/// 07/04 Q1013

2010/08/08 05:50
BGMQ 080550Z AUTO 25007KT 210V270 9999NDV BKN220/// 12/07 Q1012

2010/08/08 05:50
BGSS 080550Z AUTO 26002KT 9999NDV NCD 12/06 Q1011

2010/08/08 05:50
BGUK 080550Z AUTO 07005KT 050V180 9999NDV ///028/// 09/06 Q1015 RMK ///

2010/08/08 06:00
BKPR 080600Z 36006KT 8000 FEW015 SCT030 20/15 Q1018 NOSIG RMK BLU

2010/08/08 06:00
CQCM 080600Z 17007KT 11SM SCT280 42/09 A2952 RMK WND/ALTM ESTD CI3 CI VRY THN T04160087 FIRST OBS

2010/08/08 06:00
DTKA 080600Z 08002KT 9999 FEW020 18/17 Q1018 NOSIG

2010/08/08 06:00
DTTF 080600Z 03012KT 9999 FEW033 23/18 Q1017 NOSIG

2010/08/08 05:50
EDDE 080550Z 18004KT CAVOK 15/12 Q1016 NOSIG

2010/08/08 05:50
EDFH 080550Z 24004KT 210V290 9999 FEW001 15/13 Q1016

2010/08/08 05:50
EDGS 080550Z 20008KT 6000 -RA BKN045 13/13 Q1016

2010/08/08 05:50
EDLV 080550Z VRB02KT 3500 BR SCT004 16/16 Q1015

2010/08/08 05:50
EDOP 080550Z 27003KT CAVOK 16/13 Q1014

2010/08/08 05:50
EDSB 080550Z VRB03G32KT 9999 VCSH FEW017 SCT032 BKN066 16/15 Q1017

2010/08/08 05:50
EDTL 080550Z 14003KT 9999 FEW035 FEW045CB SCT090 18/14 Q1016

2010/08/08 05:50
EEKE 080550Z 31008KT 270V340 9999 BKN049CB 21/21 Q1012 RETS

2010/08/08 05:50
EEPU 080550Z 18006KT 140V210 8000 NSC 25/21 Q1012

2010/08/08 05:50
EETU 080550Z 13007KT 6000 NSC 24/20 Q1013

2010/08/08 05:50
EFET 080550Z AUTO 00000KT CAVOK 17/12 Q1017

2010/08/08 05:50
EFJO 080550Z AUTO 16007KT 130V200 8000 SKC 25/21 Q1016

2010/08/08 05:50
EFKA 080550Z AUTO 01005KT 340V050 CAVOK 20/18 Q1012

2010/08/08 05:50
EFKI 080550Z AUTO 06002KT CAVOK 20/18 Q1015

2010/08/08 05:50
EFKS 080550Z AUTO 08003KT 7000 OVC002 16/16 Q1017

2010/08/08 05:50
EFKT 080550Z AUTO VRB01KT CAVOK 18/15 Q1017

2010/08/08 05:50
EFLP 080550Z AUTO 12006KT 090V170 8000 SKC 26/18 Q1015

2010/08/08 05:50
EFMI 080550Z AUTO 14007KT 090V180 8000 SKC 26/21 Q1014

2010/08/08 05:50
EFSA 080550Z AUTO 16006KT 130V200 8000NDV NCD 26/19 Q1015

2010/08/08 05:50
EFSI 080550Z AUTO 04004KT 010V070 CAVOK 19/18 Q1012

2010/08/08 05:50
EFUT 080550Z AUTO 13006KT CAVOK 26/20 Q1014

2010/08/08 05:50
EFVR 080550Z AUTO 13005KT 8000 SKC 25/21 Q1015

2010/08/08 05:50
EGCN 080550Z 31008KT CAVOK 13/12 Q1021

2010/08/08 05:50
EGDX 080550Z AUTO 04003KT 9999NDV // OVC034/// 12/10 Q1021

2010/08/08 05:50
EGEC 080550Z AUTO 30007KT 9999NDV // FEW015/// 12/12 Q1020

2010/08/08 05:50
EGOM 080550Z AUTO 06001KT 9999NDV // SCT021/// SCT028/// BKN036/// 11/11 Q1019

2010/08/08 05:50
EGOP 080550Z AUTO 33008KT 0450NDV // BKN001/// 12/12 Q1022

2010/08/08 05:50
EGPI 080550Z AUTO 06001KT 9999NDV // NSC 10/10 Q1020

2010/08/08 05:50
EGVN 080550Z 31005KT 9999 FEW012 BKN018 14/13 Q1020 WHT NOSIG

2010/08/08 05:50
EGVN 080550Z 31005KT 9999 FEW012 BKN018 14/13 Q1020 NOSIG

2010/08/08 05:50
EGWU 080550Z AUTO 33003KT 9999NDV // OVC020/// 15/13 Q1019

2010/08/08 05:50
EGXC 080550Z 32008KT CAVOK 12/11 Q1019

2010/08/08 05:50
EGXC 080550Z 32008KT CAVOK 12/11 Q1019 BLU

2010/08/08 05:50
EGXD 080550Z AUTO 33005KT 9999NDV // OVC060/// 13/13 Q1020

2010/08/08 05:50
EGXG 080550Z AUTO 32004KT 9999NDV BKN070/// 13/11 Q1020

2010/08/08 05:50
EGXJ 080550Z AUTO 33005KT 7000NDV // FEW004/// 12/11 Q1019

2010/08/08 05:50
EGXT 080550Z AUTO 32008KT 9999NDV NCD 13/11 Q1019

2010/08/08 05:50
EGXW 080550Z 33009KT CAVOK 12/11 Q1019 BLU

2010/08/08 05:50
EGXX 080550Z AUTO 33012KT 9999NDV // NCD 15/13 Q1019

2010/08/08 05:50
EGXZ 080550Z AUTO 31004KT 9999NDV OVC070/// 13/11 Q1020

2010/08/08 05:50
EGYD 080550Z 32010KT 5000 BR FEW008 12/11 Q1020 BECMG 9999 NSW

2010/08/08 05:50
EGYD 080550Z 32010KT 5000 BR FEW008 12/11 Q1020 WHT BECMG 9999 NSW BLU

2010/08/08 05:50
EKGF 080550Z 35012KT 9999 FEW008 16/16 Q1016

2010/08/08 05:50
ENHE 080550Z 05018KT 9999 BKN006 12/12 Q1018

2010/08/08 06:00
EPWR 080600Z 29009KT 260V320 3500 DZ BKN004 OVC007 16/16 Q1015

2010/08/08 05:50
ESGR 080550Z AUTO 34004KT 9999NDV FEW062/// BKN110/// 16/15 Q1012

2010/08/08 05:50
ESMQ 080550Z AUTO 35004KT 9999NDV OVC002/// 16/16 Q1010

2010/08/08 05:50
ESMT 080550Z AUTO VRB02KT 9999NDV BKN081/// 16/15 Q1012

2010/08/08 05:50
ESNG 080550Z AUTO 30003KT 9999NDV BKN051/// 14/13 Q1017

2010/08/08 05:50
ESNK 080550Z AUTO 00000KT 6000NDV -RA FEW025/// 16/15 Q1014

2010/08/08 05:50
ESNL 080550Z AUTO 33007KT 9999NDV -RA FEW057/// SCT100/// 15/14 Q1015

2010/08/08 05:50
ESNX 080550Z AUTO 31001KT 9999NDV NCD 15/14 Q1017

2010/08/08 05:50
ESNY 080550Z AUTO 30006KT 9999 -RA BKN025 BKN081 16/16 Q1013

2010/08/08 05:50
ESOE 080550Z AUTO 02007KT 9999NDV SCT038/// BKN110/// 16/14 Q1013

2010/08/08 05:50
ESSL 080550Z AUTO 02007KT 2900NDV DZ VV003 15/15 Q1012 RERA

2010/08/08 05:50
ESTA 080550Z AUTO 32005KT 9999NDV FEW099/// 18/16 Q1012

2010/08/08 05:50
ESTL 080550Z AUTO 31005KT 9999NDV -RA BKN089/// 17/16 Q1012

2010/08/08 05:50
ESUT 080550Z AUTO VRB01KT 7000NDV VV002 10/10 Q1017

2010/08/08 05:55
ETOU 080555Z AUTO 00000KT 9000 -RA BR FEW002 OVC045 16/15 A3000 RMK AO2 RAE0456B0540 SLP157 P0004 60004 T01640150 10182 20164 53001

2010/08/08 05:50
ETUO 080550Z AUTO 00000KT 2500NDV // BKN060/// BKN170/// 16/16 Q1014

2010/08/08 05:50
EVLA 080550Z AUTO 00000KT 8000 NSC 20/20 Q1010

2010/08/08 05:50
EVVA 080550Z AUTO 17006KT 9999 FEW019 20/19 Q1010

2010/08/08 05:50
EYKA 080550Z 17009KT 130V190 9999 SCT008 BKN190 20/20 Q1013

2010/08/08 05:50
EYPA 080550Z 19005KT 5000 BR NSC 21/21 Q1010

2010/08/08 06:00
FAGC 080600Z AUTO 32003KT //// // ////// 10/03 Q1027

2010/08/08 06:00
FAJB 080600Z AUTO 00000KT //// // ////// 09/02 Q1028

2010/08/08 06:00
FAMM 080600Z 04003KT CAVOK 11/01 Q1026 NOSIG

2010/08/08 06:00
FAPP 080600Z 19003KT 8000 NSC 08/05 Q1026 NOSIG

2010/08/08 06:00
FASI 080600Z AUTO 00000KT //// // ////// 05/02 Q1028

2010/08/08 06:00
FAVV 080600Z AUTO 34001KT //// // ////// 05/01 Q1025

2010/08/08 06:00
FQLC 080600Z 14011KT 9999 FEW005 BKN020 14/11 Q1026

2010/08/08 06:00
FQNP 080600Z 19005KT 9999 FEW020 19/17 Q1022

2010/08/08 06:00
FQQL 080600Z 31003KT 9999 FEW020 BKN100 20/17 Q1022

2010/08/08 06:00
FQTT 080600Z 00000KT 9999 SCT025 BKN100 22/16 Q1023

2010/08/08 06:00
FYML 080600Z AUTO 06003KT //// // ////// ///// Q1024

2010/08/08 06:00
FYOA 080600Z 10004KT CAVOK 14/03 Q1021

2010/08/08 06:00
FYOJ 080600Z AUTO 36002KT //// // ////// 11/M01 Q1022

2010/08/08 06:00
FYOW 080600Z AUTO 11003KT //// // ////// 14/M00 Q1024

2010/08/08 06:00
FYWW 080600Z 10004KT CAVOK 13/M02 Q1026

2010/08/08 05:50
HLLM 080550Z 07004KT 7000 FEW020 27/20 Q1017

2010/08/08 05:55
KEGI 080555Z AUTO 00000KT 9SM R18/5500VP6000FT CLR 25/24 A2991 RMK AO2 SLP129 T02460238 10254 20246 403500246 57005 $

2010/08/08 05:51
KESN 080551Z AUTO 00000KT 10SM CLR 21/20 A3003 RMK AO2

2010/08/08 05:55
KGYH 080555Z AUTO 03003KT 10SM SCT042 SCT050 BKN120 27/20 A2999 RMK AO2

2010/08/08 06:00
LBGO 080600Z 00000MPS 9999 SCT050 SCT070 22/20 Q1014 NOSIG

2010/08/08 06:00
LDLO 080600Z 03002KT CAVOK 23/17 Q1017

2010/08/08 06:00
LEAB 080600Z 12009KT CAVOK 19/10 Q1021 NOSIG

2010/08/08 06:00
LEBA 080600Z VRB02KT CAVOK 25/14 Q1017

2010/08/08 06:00
LEBZ 080600Z 00000KT CAVOK 25/15 Q1015

2010/08/08 06:00
LELN 080600Z 00000KT CAVOK 13/07 Q1021

2010/08/08 06:00
LESA 080600Z 00000KT CAVOK 16/15 Q1020

2010/08/08 06:00
LETO 080600Z 05002KT CAVOK 23/12 Q1019 NOSIG

2010/08/08 06:00
LFBG 080600Z AUTO 27002KT 9999NDV FEW006 15/13 Q1021

2010/08/08 06:00
LFCR 080600Z AUTO 00000KT 9999NDV NSC 16/14 Q1021

2010/08/08 06:00
LFJL 080600Z AUTO 31008KT 9999NDV FEW011/// BKN078/// BKN090/// //////TCU 15/13 Q1017

2010/08/08 06:00
LFLX 080600Z 35005KT 9999 BKN043 18/15 Q1019 NOSIG

2010/08/08 06:00
LFMI 080600Z AUTO 03003KT 9999NDV NSC 20/13 Q1017

2010/08/08 06:00
LFMK 080600Z 24004KT 200V310 CAVOK 19/14 Q1020 NOSIG

2010/08/08 06:00
LFMO 080600Z AUTO VRB01KT 9999NDV NSC 19/09 Q1018

2010/08/08 06:00
LFMU 080600Z AUTO 27006KT 9999NDV NSC 20/14 Q1018

2010/08/08 06:00
LFMV 080600Z AUTO 00000KT 9999NDV NSC 19/10 Q1017

2010/08/08 06:00
LFOA 080600Z AUTO 30003KT 9999NDV SCT032 BKN038 BKN045 17/15 Q1019

2010/08/08 06:00
LFOJ 080600Z AUTO 27005KT 9999NDV NSC 14/13 Q1020

2010/08/08 06:00
LFOK 080600Z AUTO 28006KT 9999NDV NSC 15/14 Q1018

2010/08/08 06:00
LFQI 080600Z AUTO 28007KT 8000NDV OVC003 15/15 Q1017

2010/08/08 05:50
LGHI 080550Z 00000KT CAVOK 26/20 Q1010

2010/08/08 05:50
LGNX 080550Z 00000KT 9999 FEW018 26/22 Q1010

2010/08/08 05:50
LGPA 080550Z 00000KT CAVOK 26/21 Q1009

2010/08/08 05:50
LGSO 080550Z 00000KT CAVOK 26/23 Q1010

2010/08/08 06:00
LKCV 080600Z 20001KT 9999 SCT037 BKN045 OVC090 16/15 Q1016 NOSIG RMK BLU BLU

2010/08/08 06:00
LKKV 080600Z VRB02KT CAVOK 14/11 Q1017

2010/08/08 06:00
LKNA 080600Z 29009KT 9999 SCT034 BKN100 15/14 Q1017 NOSIG RMK BLU BLU

2010/08/08 06:00
LKPD 080600Z 28005KT 9999 FEW007 BKN080 BKN100 16/15 Q1016 NOSIG RMK BLU BLU

2010/08/08 06:00
LKPO 080600Z 17004KT 6000 OVC010 16/15 Q1016 NOSIG RMK GRN GRN

2010/08/08 05:50
LLIB 080550Z 14003KT 6000 SKC 28/19 Q1011

2010/08/08 05:50
LLSD 080550Z 30004KT 9999 SCT020 29/23 Q1009

2010/08/08 05:50
LOXT 080550Z 25003KT 20KM FEW050SC BKN060SC 16/14 Q1017 RMK OVC

2010/08/08 05:50
LOXZ 080550Z VRB02KT 0800 FG FEW120AC 10/10 Q1020 BECMG 9999 RMK FEW

2010/08/08 06:00
LQBK 080600Z 17004KT CAVOK 18/15 Q1018 NOSIG

2010/08/08 06:00
LQMO 080600Z VRB01KT 9999 FEW050 20/14 Q1015

2010/08/08 05:50
LTAB 080550Z VRB02KT CAVOK 30/05 Q1012 NOSIG RMK RWY06 00000KT

2010/08/08 05:50
LTAE 080550Z 36004KT CAVOK 30/07 Q1012 NOSIG RMK RWY21 05003KT

2010/08/08 05:50
LTAZ 080550Z 09005KT CAVOK 27/07 Q1013

2010/08/08 05:50
LTBR 080550Z 22003KT 8000 NSC 26/20 Q1012 NOSIG RMK RWY07 18004KT

2010/08/08 05:50
LTBR 080550Z 22003KT 8000 NSC 26/20 Q1012 NOSIG

2010/08/08 05:50
LTBU 080550Z 02012KT 9999 FEW025 27/22 Q1011 RMK RWY23 36010KT

2010/08/08 05:50
LTBU 080550Z 02012KT 9999 FEW025 27/22 Q1011

2010/08/08 05:50
LTCF 080550Z 00000KT CAVOK 21/08 Q1022

2010/08/08 05:50
LTFH 080550Z VRB01KT 9999 FEW030 28/24 Q1009 NOSIG

2010/08/08 05:50
LTFJ 080550Z VRB01KT 6000 SCT035 28/24 Q1011 NOSIG

2010/08/08 06:00
LZKC 080600Z 17006KT 120V240 9999 FEW050 20/16 Q1015

2010/08/08 06:00
LZLU 080600Z 22004KT 9999 BKN006 BKN030 16/15 Q1016

2010/08/08 06:00
LZNI 080600Z 27005KT 240V300 9999 BKN004 OVC016 17/16 Q1016

2010/08/08 06:00
LZPE 080600Z 22004KT 190V250 9999 OVC008 16/14 Q1016

2010/08/08 06:00
LZPP 080600Z 19003KT 5000 -RA SCT005 OVC010 16/15 Q1016

2010/08/08 06:00
LZSL 080600Z 06002KT 9999 SCT006 OVC020 15/14 Q1015

2010/08/08 06:00
LZZI 080600Z VRB02KT 9999 SCT007 BKN020 BKN035 16/14 Q1016

2010/08/08 06:00
UHHH 080600Z 13002MPS 9999 SCT033CB SCT100 BKN200 24/19 Q1011 NOSIG

2010/08/08 06:00
MGTK 080600Z 00000KT CAVOK 25/24 Q1014 A2994

2010/08/08 05:55
MMQT 080555Z RTD 29002KT 7SM BKN020 OVC120 17/17 A3029 RMK 60165 8/47/ -RA E21

2010/08/08 05:50
MUHG 080550Z 00000KT 8000 SKC 23/22 Q1015

2010/08/08 05:55
OAHR 080555Z 01015KT CAVOK 34/M01 Q1009 RMK FEW FEW080 VIS MIN 9999 BLU

2010/08/08 06:00
OIIE 080600Z 13010KT CAVOK 30/M00 Q1015 A2997

2010/08/08 06:00
OSDZ 080600Z 32012KT CAVOK 33/10 Q1008

2010/08/08 06:00
OSKL 080600Z 30015KT CAVOK 37/M00 Q1007

2010/08/08 06:00
OYSQ 080600Z 19035G49KT 9999 FEW018 30/24 Q1008

2010/08/08 06:00
RJBB 080600Z 25010KT 9999 FEW020 31/21 Q1012 NOSIG

2010/08/08 06:00
RJBH 080600Z 21010KT 9999 FEW030 FEW030CB 33/20 Q1010

2010/08/08 06:00
RJBT 080600Z VRB05KT 9999 FEW025 BKN/// 33/21 Q1012

2010/08/08 06:00
RJFS 080600Z 23005KT 170V280 9999 FEW040 FEW040TCU 35/23 Q1008

2010/08/08 06:00
RJGG 080600Z 16010KT 9999 -SHRA FEW015 SCT025 FEW025TCU BKN070 30/25 Q1014 NOSIG

2010/08/08 06:00
RJNW 080600Z 09009KT 9999 FEW030 BKN100 BKN/// 31/21 Q1014

2010/08/08 06:00
RJOW 080600Z 01009KT 9999 FEW040 30/23 Q1010

2010/08/08 06:00
RJSF 080600Z 21004KT 160V260 9999 FEW030 BKN/// 31/22 Q1015

2010/08/08 06:00
RJSR 080600Z 30006KT 260V330 9999 FEW025 31/25 Q1014

2010/08/08 06:00
RJSY 080600Z 33006KT 290V020 9999 FEW025 BKN/// 30/22 Q1013

2010/08/08 06:00
ROIG 080600Z 03017KT 9999 FEW020 FEW025TCU BKN/// 31/26 Q0998

2010/08/08 06:00
ROMY 080600Z 12015G27KT 9999 FEW015 BKN020 29/26 Q0999

2010/08/08 06:00
RORS 080600Z 11018KT 9999 SCT018 30/25 Q0998

2010/08/08 05:58
ROTM 080558Z 16011KT 9999 SCT015 BKN030 OVC150 30/28 A2962 RMK SHRAB02E10 SLP015 P0000 60036 T0300278 10300 20244 58007

2010/08/08 06:00
UBBN 080600Z 15004KT 9999 NSC 31/10 Q1012 R14R/CLRD60 NOSIG RMK G/O QFE684

2010/08/08 06:00
YSTW 080600Z AUTO 28003KT 9999NDV // NCD 16/M00 Q1018

2010/08/08 06:00
YSWG 080600Z 33004KT 9999 FEW040 11/03 Q1018

2010/08/08 06:00
YTEF 080600Z AUTO 16009KT //// // ////// 28/M06 Q1015

2010/08/08 06:00
YTNK 080600Z 23007KT CAVOK 25/M08 Q1012

2010/08/08 06:00
YTRE 080600Z AUTO 12007KT //// // ////// 16/07 Q1019

2010/08/08 06:00
YWGT 080600Z AUTO 07003KT //// // ////// 12/02 Q1018

2010/08/08 06:00
YWHA 080600Z AUTO 29012KT 9999NDV // SCT036 BKN068 OVC076 18/03 Q1011

2010/08/08 06:00
YWLM 080600Z AUTO 11009KT 9999NDV // NCD 15/08 Q1019

2010/08/08 06:00
ZBSJ 080600Z 10002MPS 2000 R33/1400 HZ NSC 28/23 Q1003 NOSIG

2010/08/08 06:00
ZGKL 080600Z 16003MPS 110V200 8000 SCT043 34/23 Q1003 NOSIG

2010/08/08 06:00
ZGOW 080600Z 14004MPS 9999 FEW026 31/24 Q1003 NOSIG

2010/08/08 06:00
ZLXY 080600Z VRB02MPS 3000 HZ SCT090 33/22 Q1004 NOSIG

2010/08/08 06:00
ZSQD 080600Z 17008MPS 9999 SCT026 29/22 Q1006 NOSIG

2010/08/08 06:00
ZWSH 080600Z 13002MPS 090V180 CAVOK 29/17 Q1010 NOSIG

2010/08/08 05:45
LHDC 080545Z 22004KT CAVOK 18/15 Q1017 NOSIG

2010/08/08 05:45
LHKE 080545Z 29002MPS 9999 BKN040 17/15 Q1017 NOSIG RMK BLU

2010/08/08 05:45
LHPP 080545Z 12001KT CAVOK 18/16 Q1019

2010/08/08 05:45
LHSN 080545Z 26002MPS 9999 FEW020 BKN035 18/15 Q1017 NOSIG RMK BLU

2010/08/08 05:45
LHUD 080545Z 35004KT CAVOK 19/16 Q1018

2010/08/08 05:51
KABE 080551Z 00000KT 10SM SCT080 SCT090 17/16 A3001

2010/08/08 05:53
KAGC 080553Z 15003KT 6SM HZ CLR 19/14 A3003

2010/08/08 05:54
KAKR 080554Z AUTO 17003KT 10SM CLR 18/14 A3001

2010/08/08 05:51
KALB 080551Z 00000KT 10SM SCT180 14/11 A3002

2010/08/08 05:56
KART 080556Z AUTO 18003KT 10SM CLR 16/11 A2997

2010/08/08 05:54
KAVP 080554Z 11004KT 10SM FEW050 17/12 A3002

2010/08/08 05:53
KBAF 080553Z 00000KT 10SM CLR 13/12 A3002

2010/08/08 05:51
KBDL 080551Z 00000KT 10SM CLR 16/12 A3001

2010/08/08 05:52
KBDR 080552Z 20010KT 10SM CLR 23/21 A3000

2010/08/08 05:56
KBED 080556Z AUTO 00000KT 10SM CLR 12/10 A3001

2010/08/08 05:54
KBTV 080554Z 12003KT 10SM CLR 12/10 A2998

2010/08/08 05:54
KBUF 080554Z 17006KT 10SM FEW070 SCT085 BKN220 17/11 A2997

2010/08/08 05:53
KBVY 080553Z AUTO 00000KT 10SM CLR 12/09 A3001

2010/08/08 05:56
KCAE 080556Z 00000KT 6SM BR CLR 26/24 A2993

2010/08/08 05:51
KCAK 080551Z 16005KT 10SM CLR 18/14 A3002

2010/08/08 05:55
KCEF 080555Z AUTO 00000KT 10SM CLR 13/12 A3001

2010/08/08 05:51
KCMH 080551Z 00000KT 10SM CLR 20/16 A3000

2010/08/08 05:53
KCRQ 080553Z AUTO 00000KT 10SM OVC014 17/13 A2992

2010/08/08 05:54
KCRW 080554Z 00000KT 8SM CLR 18/17 A3001

2010/08/08 05:56
KDAY 080556Z 15005KT 10SM CLR 20/14 A3002

2010/08/08 05:55
KDOV 080555Z AUTO 17004KT 10SM CLR 22/22 A2999

2010/08/08 05:51
KERI 080551Z 17008KT 10SM CLR 21/12 A2998

2010/08/08 05:53
KEWB 080553Z AUTO 00000KT 3/4SM R05/P6000FT BR CLR 15/14 A3003

2010/08/08 05:53
KFVE 080553Z AUTO 19005KT 10SM SCT085 09/06 A2992

2010/08/08 05:56
KGON 080556Z AUTO 00000KT 10SM BKN080 18/17 A3002

2010/08/08 05:54
KGSO 080554Z 00000KT 8SM CLR 22/19 A3002

2010/08/08 05:53
KGSP 080553Z AUTO 00000KT 9SM FEW050 BKN080 24/21 A2999

2010/08/08 05:56
KHPN 080556Z 16003KT 10SM CLR 21/18 A3001

2010/08/08 05:51
KHTS 080551Z 00000KT 8SM CLR 18/17 A3000

2010/08/08 05:53
KHUL 080553Z AUTO 21003KT 10SM CLR 08/06 A2997

2010/08/08 05:53
KHVN 080553Z AUTO 21006KT 10SM CLR 24/21 A3001

2010/08/08 05:53
KIAG 080553Z AUTO 18008KT 10SM FEW065 OVC095 20/14 A2995

2010/08/08 05:51
KILG 080551Z 18004KT 10SM CLR 23/21 A3001

2010/08/08 05:53
KILM 080553Z AUTO 00000KT 3SM BR CLR 24/23 A2994

2010/08/08 05:54
KINT 080554Z AUTO 00000KT 10SM CLR 23/17 A3002

2010/08/08 05:55
KLSV 080555Z AUTO 16014KT 10SM CLR 33/14 A2976

2010/08/08 05:53
KLUK 080553Z AUTO 00000KT 8SM CLR 18/17 A3000

2010/08/08 05:54
KLWM 080554Z AUTO 00000KT 10SM CLR 15/09 A3004

2010/08/08 05:56
KMDT 080556Z 00000KT 9SM FEW065 21/17 A2999

2010/08/08 05:53
KMSS 080553Z AUTO 21005KT 10SM FEW060 14/12 A2993

2010/08/08 05:54
KORH 080554Z AUTO 22006KT 10SM CLR 16/11 A3004

2010/08/08 05:55
KPQI 080555Z AUTO 21004KT 10SM CLR 11/04 A2993

2010/08/08 05:55
KPSM 080555Z 00000KT 10SM SCT250 14/13 A3001

2010/08/08 05:51
KPVD 080551Z 00000KT 10SM CLR 18/16 A3004

2010/08/08 05:51
KPWM 080551Z AUTO 00000KT 3SM BR CLR 13/12 A3000

2010/08/08 05:54
KRIC 080554Z 00000KT 10SM CLR 22/18 A3000

2010/08/08 05:54
KROC 080554Z 20003KT 10SM FEW080 SCT200 15/11 A2999

2010/08/08 05:54
KSYR 080554Z 15003KT 10SM FEW250 14/11 A3000

2010/08/08 05:55
KWRI 080555Z AUTO 24005KT 10SM CLR 20/20 A3000

2010/08/08 06:00
WBKK 080600Z 26007KT 9999 FEW015 SCT140 BKN270 32/27 Q1007 NOSIG

2010/08/08 06:00
WMKJ 080600Z 24005KT 9999 FEW017CB BKN280 32/24 Q1008

2010/08/08 06:00
WMKK 080600Z 15004KT 9999 FEW018 SCT140 BKN270 30/26 Q1008 NOSIG

2010/08/08 06:00
WMKP 080600Z 19004KT 9999 FEW020 SCT140 BKN270 31/26 Q1008 NOSIG

2010/08/08 06:00
WMSA 080600Z 23003KT 9999 SCT018 BKN280 33/25 Q1008

2010/08/08 05:50
EGUW 080550Z AUTO 33009KT 9999NDV BKN005/// BKN012/// 15/14 Q1018

2010/08/08 05:50
EGVP 080550Z AUTO 33004KT 9999NDV // OVC033/// 14/12 Q1020

2010/08/08 05:50
EGUB 080550Z AUTO 31005KT 8000NDV // OVC023/// 14/13 Q1020

2010/08/08 05:50
EGXE 080550Z AUTO 32003KT 9999NDV OVC050/// 13/12 Q1020

2010/08/08 05:50
EGYM 080550Z AUTO 34008KT 9999NDV BKN010/// BKN021/// 15/14 Q1018

2010/08/08 05:50
EGXU 080550Z AUTO 30005KT 9999NDV // SCT070/// 13/11 Q1020

2010/08/08 05:50
EGVO 080550Z AUTO 30004KT 9999NDV SCT007/// SCT024/// 13/13 Q1020

2010/08/08 06:00
UGTB 080600Z 00000KT 9999 SKC 30/14 Q1016 NOSIG RMK 31CLRD80

2010/08/08 06:00
UGKO 080600Z 00000KT 9999 SKC 28/20 Q1011 NOSIG

2010/08/08 06:00
UGSB 080600Z 11008KT 9999 FEW023 29/18 Q1009 NOSIG

2010/08/08 06:00
UDYZ 080600Z VRB01MPS 9999 SKC 27/12 Q1013 09010070 NOSIG

2010/08/08 06:00
UDSG 080600Z VRB02MPS 9999 NSC 25/09 Q1018 02CLRD70 NOSIG

2010/08/08 06:00
UAAA 080600Z 09003MPS 010V150 9999 FEW100 30/11 Q1008 88CLRD65 NOSIG

2010/08/08 06:00
UACC 080600Z 33003MPS 300V360 9999 SCT040 30/09 Q1011 220/0070 NOSIG RMK QFE727/0970

2010/08/08 06:00
UAKK 080600Z 04003MPS 010V150 CAVOK 28/09 Q1012 050///70 NOSIG RMK QFE712/0950

2010/08/08 06:00
UARR 080600Z 01005MPS CAVOK 33/10 Q1016 04CLRD70 NOSIG RMK QFE758/1011

2010/08/08 06:00
UATE 080600Z 05006MPS 030V090 CAVOK 37/04 Q1009 120///70 NOSIG RMK QFE755/1007

2010/08/08 06:00
UATG 080600Z 12002MPS CAVOK 34/13 Q1012 14CLRD70 NOSIG RMK QFE761/1015 

2010/08/08 06:00
UATT 080600Z 05003MPS 010V110 9999 NSC 33/08 Q1016 13CLRD70 NOSIG RMK QFE742/0990

2010/08/08 06:00
UAUU 080600Z 34003MPS 290V360 8000 NSC 32/11 Q1013 33CLRD70 NOSIG RMK QFE744/0992

2010/08/08 06:00
UTAA 080600Z 32007MPS 9999 SKC 35/05 Q1009 NOSIG

2010/08/08 06:00
UTAM 080600Z 32004MPS CAVOK 34/12 Q1005 NOSIG

2010/08/08 06:00
UTAT 080600Z VRB01MPS CAVOK 35/18 Q1007 NOSIG

2010/08/08 06:00
UTAV 080600Z 29001MPS CAVOK 34/17 Q1004

2010/08/08 06:00
UTDD 080600Z VRB01MPS 9999 SCT066CB BKN120 33/12 Q1007 09CLRD70 NOSIG RMK QFE688/0917

2010/08/08 06:00
UTDL 080600Z 06006G09MPS 9999 FEW050 FEW100 32/16 Q1005 NOSIG RMK QFE716 8809//70

2010/08/08 06:00
OIBL 080600Z 10010KT 4000 HZ SKC 35/29 Q0998 A2949

2010/08/08 06:00
OIBQ 080600Z 00000KT 5000 BR FEW040 36/29 Q0998 A2948

2010/08/08 06:00
OIIK 080600Z 15004KT CAVOK 28/00 Q1017 A3006

2010/08/08 06:00
OITM 080600Z 13010KT 9999 FEW042 30/08 Q1017 A3004

2010/08/08 05:53
KAMA 080553Z AUTO 16010KT 10SM CLR 26/17 A2997

2010/08/08 05:53
KAUS 080553Z 18008KT 10SM FEW120 28/23 A2991

2010/08/08 05:53
KBPT 080553Z AUTO 19005KT 10SM CLR 27/25 A2991

2010/08/08 06:00
KBQK 080600Z AUTO 26003KT 4SM SCT002 25/25 A2993

2010/08/08 05:53
KBRO 080553Z 16005KT 10SM FEW021 28/26 A2991

2010/08/08 05:53
KBTR 080553Z 25005KT 10SM FEW040 28/25 A2992

2010/08/08 05:53
KCHA 080553Z 04003KT 10SM CLR 26/21 A2996

2010/08/08 05:51
KCRP 080551Z 17007KT 10SM FEW018 27/25 A2991

2010/08/08 05:53
KDAL 080553Z 20007KT 10SM CLR 32/20 A2985

2010/08/08 05:53
KDRT 080553Z AUTO 13007KT 10SM CLR 31/19 A2987

2010/08/08 05:51
KELP 080551Z 21009KT 10SM FEW100 SCT220 BKN300 28/12 A3002

2010/08/08 05:53
KEYW 080553Z AUTO 19004KT 10SM SCT019 SCT033 30/26 A2996

2010/08/08 05:53
KFPR 080553Z AUTO 00000KT 10SM CLR 26/25 A2995

2010/08/08 05:53
KFTW 080553Z 18010KT 10SM CLR 31/20 A2985

2010/08/08 05:53
KFTY 080553Z 00000KT 4SM BR CLR 24/23 A2996

2010/08/08 05:53
KFXE 080553Z 00000KT 10SM CLR 27/24 A2996

2010/08/08 05:52
KGLS 080552Z AUTO 19008KT 10SM FEW025 29/24 A2992

2010/08/08 05:53
KGPT 080553Z AUTO 00000KT 10SM FEW043 30/26 A2990

2010/08/08 05:53
KHOU 080553Z 17004KT 10SM CLR 27/24 A2991

2010/08/08 05:52
KHRL 080552Z 14004KT 10SM CLR 26/25 A2990

2010/08/08 05:53
KHSV 080553Z 09005KT 10SM CLR 25/19 A2992

2010/08/08 05:53
KLCH 080553Z AUTO 00000KT 10SM CLR 27/25 A2992

2010/08/08 05:56
KLRD 080556Z AUTO 16015KT 10SM CLR 31/23 A2991

2010/08/08 05:53
KMAF 080553Z AUTO 15005KT 10SM CLR 26/14 A2996

2010/08/08 05:53
KMFE 080553Z AUTO 15009KT 10SM CLR 27/25 A2991

2010/08/08 05:53
KMGM 080553Z 12004KT 10SM SCT070 BKN100 OVC250 25/23 A2992

2010/08/08 05:56
KMOB 080556Z 21003KT 10SM FEW050 27/24 A2992

2010/08/08 05:53
KNEW 080553Z AUTO 25011KT 10SM CLR 31/25 A2992

2010/08/08 05:53
KOPF 080553Z AUTO 00000KT 10SM SCT043 28/26 A2997

2010/08/08 05:53
KPDK 080553Z AUTO 00000KT 10SM CLR 24/22 A2998

2010/08/08 05:53
KPIE 080553Z AUTO 27004KT 10SM CLR 28/24 A2994

2010/08/08 05:53
KPNS 080553Z AUTO 00000KT 8SM OVC100 27/25 A2990

2010/08/08 05:53
KRSW 080553Z AUTO 00000KT 10SM CLR 27/24 A2996

2010/08/08 05:53
KSAT 080553Z 15010KT 10SM FEW250 28/23 A2994

2010/08/08 05:53
KSAV 080553Z 00000KT 8SM FEW015 25/24 A2992

2010/08/08 05:56
KSHV 080556Z 19005KT 10SM SCT290 28/24 A2989

2010/08/08 05:53
KSSI 080553Z AUTO 29003KT 8SM OVC009 26/24 A2992

2010/08/08 05:53
KTMB 080553Z AUTO 00000KT 10SM CLR 28/24 A2997

2010/08/08 05:53
KTUL 080553Z 14007KT 10SM CLR 27/23 A2985

2010/08/08 05:53
KTYS 080553Z 00000KT 9SM CLR 22/19 A2997

2010/08/08 06:04
CYPH 080604Z AUTO 22011KT 8SM OVC003 08/08 A2936

2010/08/08 06:00
YBAS 080600Z 15008KT CAVOK 22/M09 Q1013

2010/08/08 06:00
YBBN 080600Z 06008KT 9999 FEW045 19/09 Q1018 NOSIG

2010/08/08 06:00
YBCS 080600Z 10012KT 9999 FEW030 BKN045 24/15 Q1014 NOSIG

2010/08/08 06:00
YBTL 080600Z 10013KT 9999 FEW045 24/15 Q1015 NOSIG

2010/08/08 06:00
YMML 080600Z 01018KT 9999 FEW035 12/03 Q1016 FM0600 MOD TURB BLW 5000FT

2010/08/08 06:00
YPAD 080600Z 02005KT CAVOK 12/07 Q1012

2010/08/08 06:00
YPCC 080600Z 12015KT 9999 FEW026 28/21 Q1012

2010/08/08 06:00
YPDN 080600Z 33010KT CAVOK 31/16 Q1009 NOSIG

2010/08/08 06:00
YPKU 080600Z AUTO 25005KT 9999NDV // NCD 31/01 Q1010

2010/08/08 06:00
YPLM 080600Z 14005KT CAVOK 27/M04 Q1015

2010/08/08 06:00
YPPH 080600Z 18010KT 9999 FEW042 18/05 Q1025 NOSIG

2010/08/08 06:00
YPTN 080600Z AUTO 13005KT 9999NDV // NCD 32/M02 Q1010

2010/08/08 06:00
YPXM 080600Z AUTO 12012KT 9999NDV // SCT020 26/20 Q1012

2010/08/08 06:00
YSSY 080600Z 06011KT CAVOK 16/05 Q1019 NOSIG

2010/08/08 05:53
KAZO 080553Z AUTO 19008KT 9SM BKN090 22/18 A2993

2010/08/08 05:53
KBDE 080553Z AUTO 08003KT 10SM CLR 17/15 A2971

2010/08/08 05:53
KBTL 080553Z AUTO 20007KT 9SM SCT095 21/17 A2994

2010/08/08 05:53
KBTM 080553Z AUTO 17006KT 10SM CLR 12/09 A2999

2010/08/08 05:55
KCIU 080555Z AUTO 00000KT 10SM FEW017 SCT070 BKN095 18/16 A2977

2010/08/08 05:53
KCMX 080553Z AUTO 08006KT 10SM OVC100 17/14 A2974

2010/08/08 05:54
KCOS 080554Z 09007KT 10SM BKN110 19/15 A3012

2010/08/08 05:53
KCPR 080553Z AUTO 31008KT 10SM FEW110 21/08 A3002

2010/08/08 05:53
KDET 080553Z 23006KT 10SM FEW110 22/17 A2994

2010/08/08 05:55
KDLH 080555Z 14009KT 10SM SCT002 SCT095 17/16 A2972

2010/08/08 05:54
KDSM 080554Z 19009KT 10SM FEW090 25/21 A2982

2010/08/08 05:54
KELO 080554Z AUTO 00000KT 10SM BKN060 OVC075 18/16 A2974

2010/08/08 05:53
KFAR 080553Z 18004KT 10SM CLR 23/19 A2964

2010/08/08 05:53
KFNT 080553Z AUTO 20007KT 9SM CLR 21/17 A2991

2010/08/08 05:53
KGFK 080553Z 00000KT 10SM CLR 22/21 A2964

2010/08/08 05:53
KGRB 080553Z AUTO 21006KT 10SM FEW095 23/19 A2979

2010/08/08 05:53
KGRR 080553Z AUTO 21009KT 9SM BKN055 23/18 A2990

2010/08/08 05:53
KICT 080553Z 15007KT 10SM SCT200 27/22 A2985

2010/08/08 05:52
KISN 080552Z 32004KT 10SM CLR 18/16 A2970

2010/08/08 05:54
KLEX 080554Z 13003KT 10SM CLR 21/14 A3000

2010/08/08 05:53
KMBS 080553Z 21007KT 10SM SCT120 22/17 A2989

2010/08/08 05:51
KMDW 080551Z 21007KT 9SM CLR 24/17 A2990

2010/08/08 05:54
KMKC 080554Z 18007KT 10SM CLR 28/21 A2986

2010/08/08 05:52
KMKE 080552Z 22011KT 9SM CLR 23/18 A2986

2010/08/08 05:52
KMLI 080552Z 20008KT 9SM CLR 24/19 A2987

2010/08/08 05:54
KMOT 080554Z AUTO 22008KT 10SM CLR 22/18 A2966

2010/08/08 05:52
KOMA 080552Z 16009KT 10SM CLR 27/23 A2979

2010/08/08 05:55
KPHN 080555Z AUTO 21004KT 10SM BKN090 OVC110 20/16 A2992

2010/08/08 06:00
LKCV 080600Z 20001KT 9999 SCT037 BKN045 OVC090 16/15 Q1016 NOSIG

2010/08/08 06:00
LKKB 080600Z 22004KT CAVOK 16/15 Q1016 NOSIG

2010/08/08 06:00
LKLN 080600Z AUTO 00000KT CAVOK 15/14 Q1017

2010/08/08 06:00
LKNA 080600Z 29009KT 9999 SCT034 BKN100 15/14 Q1017 NOSIG

2010/08/08 06:00
LKPD 080600Z 28005KT 9999 FEW007 BKN080 BKN100 16/15 Q1016 NOSIG

2010/08/08 06:00
LKPO 080600Z 17004KT 6000 OVC010 16/15 Q1016 NOSIG

2010/08/08 06:00
LJLJ 080600Z VRB01KT 9999 FEW002 16/13 Q1019 NOSIG

2010/08/08 06:00
LJMB 080600Z VRB01KT CAVOK 16/15 Q1018

2010/08/08 06:00
LJPZ 080600Z 12005KT 090V150 CAVOK 18/14 Q1017

2010/08/08 06:00
LRAR 080600Z 33004KT 290V350 CAVOK 20/17 Q1018

2010/08/08 06:00
LRBM 080600Z 26006KT 9999 FEW060 19/16 Q1016

2010/08/08 06:00
LRCL 080600Z 00000KT 9999 FEW020 BKN045 19/16 Q1018 0821//95

2010/08/08 06:00
LROD 080600Z VRB02KT CAVOK 20/16 Q1018

2010/08/08 06:00
LRSM 080600Z AUTO 24004KT 170V280 9999 NCD 20/16 Q1017

2010/08/08 06:00
LRTM 080600Z 25004KT 220V290 5000 BR SCT008 BKN010 19/18 Q1017 0729//95

2010/08/08 06:00
LCLK 080600Z 13004KT 080V180 9999 FEW025 29/23 Q1008 NOSIG

2010/08/08 06:00
LCPH 080600Z 28009KT 250V320 9999 FEW022 29/23 Q1008

2010/08/08 06:00
LJCE 080600Z 29004KT 260V340 4000 BR FEW001 BKN005 16/15 Q1018 RMK YLO

2010/08/08 06:00
LRBC 080600Z 00000KT 7000 BKN046 24/21 Q1014

2010/08/08 06:00
LRCV 080600Z AUTO 30004KT 260V350 8000 SCT100 21/19 Q1014

2010/08/08 06:00
LRIA 080600Z VRB02KT CAVOK 23/19 Q1015

2010/08/08 06:00
LRSV 080600Z 29004KT CAVOK 22/19 Q1016

2010/08/08 06:00
LRTC 080600Z 35008KT 9999 FEW010 SCT028CB 27/26 Q1012

2010/08/08 05:50
EGWU 080550Z AUTO 33003KT 9999NDV // OVC020/// 15/13 Q1019

2010/08/08 06:00
YBAS 080600Z 15008KT CAVOK 22/M09 Q1013

2010/08/08 06:00
YBBN 080600Z 06008KT 9999 FEW045 19/09 Q1018 NOSIG

2010/08/08 06:00
YBCS 080600Z 10012KT 9999 FEW030 BKN045 24/15 Q1014 NOSIG

2010/08/08 06:00
YBTL 080600Z 10013KT 9999 FEW045 24/15 Q1015 NOSIG

2010/08/08 06:00
YMML 080600Z 01018KT 9999 FEW035 12/03 Q1016 FM0600 MOD TURB BLW 5000FT

2010/08/08 06:00
YPAD 080600Z 02005KT CAVOK 12/07 Q1012

2010/08/08 06:00
YPCC 080600Z 12015KT 9999 FEW026 28/21 Q1012

2010/08/08 06:00
YPDN 080600Z 33010KT CAVOK 31/16 Q1009 NOSIG

2010/08/08 06:00
YPKU 080600Z AUTO 25005KT 9999NDV // NCD 31/01 Q1010

2010/08/08 06:00
YPLM 080600Z 14005KT CAVOK 27/M04 Q1015

2010/08/08 06:00
YPPH 080600Z 18010KT 9999 FEW042 18/05 Q1025 NOSIG

2010/08/08 06:00
YPTN 080600Z AUTO 13005KT 9999NDV // NCD 32/M02 Q1010

2010/08/08 06:00
YPXM 080600Z AUTO 12012KT 9999NDV // SCT020 26/20 Q1012

2010/08/08 06:00
YSSY 080600Z 06011KT CAVOK 16/05 Q1019 NOSIG

2010/08/08 05:54
KPIA 080554Z 19007KT 7SM CLR 22/19 A2992

2010/08/08 05:53
KPTK 080553Z 20004KT 10SM SCT150 21/16 A2993

2010/08/08 05:53
KPUB 080553Z AUTO 33006KT 10SM SCT110 21/17 A2999

2010/08/08 05:59
KSAW 080559Z AUTO 28003KT 10SM SCT060 BKN120 17/14 A2975

2010/08/08 05:56
KSDF 080556Z 00000KT 9SM CLR 24/16 A2998

2010/08/08 05:52
KSGF 080552Z 15009KT 10SM CLR 26/21 A2992

2010/08/08 05:53
KSTP 080553Z AUTO 21009G14KT 10SM VCTS FEW055 SCT090 SCT110 28/22 A2968

2010/08/08 05:54
KSUS 080554Z AUTO 00000KT 8SM CLR 24/18 A2991

2010/08/08 05:52
KTOL 080552Z 19003KT 9SM CLR 18/16 A2996

2010/08/08 05:54
KAPN 080554Z AUTO 21005KT 10SM CLR 19/16 A2981

2010/08/08 05:55
KINL 080555Z AUTO 00000KT 10SM FEW090 15/14 A2972

2010/08/08 05:53
KBFI 080553Z 22006KT 10SM BKN011 BKN020 OVC095 17/14 A2991

2010/08/08 05:53
KBIL 080553Z 24007KT 10SM CLR 20/12 A2982

2010/08/08 05:53
KBKE 080553Z AUTO 00000KT 10SM CLR 14/09 A2990

2010/08/08 05:53
KBLI 080553Z AUTO 16004KT 10SM OVC003 17/16 A2989

2010/08/08 05:53
KBOI 080553Z 13006KT 10SM CLR 24/04 A2979

2010/08/08 05:53
KCLM 080553Z AUTO 28006KT 4SM BR OVC001 14/14 A2992

2010/08/08 05:56
KCTB 080556Z AUTO 26010KT 10SM CLR 18/06 A2980

2010/08/08 05:56
KDUG 080556Z AUTO 35008KT 10SM CLR 21/17 A3010

2010/08/08 05:53
KFAT 080553Z 32009KT 10SM CLR 25/11 A2976

2010/08/08 05:55
KGDV 080555Z AUTO 33004KT 10SM CLR 21/10 A2975

2010/08/08 05:53
KGEG 080553Z 25008KT 10SM FEW080 BKN140 OVC200 21/08 A2981

2010/08/08 05:53
KGGW 080553Z AUTO 06009KT 10SM CLR 20/12 A2969

2010/08/08 05:53
KGLH 080553Z AUTO 00000KT 7SM FEW075 26/24 A2990

2010/08/08 05:55
KGPI 080555Z AUTO 00000KT 10SM CLR 15/09 A2981

2010/08/08 05:53
KGTF 080553Z 20007KT 10SM CLR 16/05 A2981

2010/08/08 05:53
KGWO 080553Z AUTO 00000KT 5SM BR CLR 24/24 A2991

2010/08/08 05:53
KHLN 080553Z AUTO 27005KT 10SM CLR 21/07 A2984

2010/08/08 05:53
KHQM 080553Z AUTO 26009KT 9SM OVC005 14/13 A2995

2010/08/08 05:53
KHVR 080553Z AUTO 21003KT 10SM CLR 15/09 A2972

2010/08/08 05:53
KIPL 080553Z AUTO 25006KT 10SM CLR 28/04 A2969

2010/08/08 05:53
KLBB 080553Z 15007KT 10SM SCT200 24/17 A2997

2010/08/08 05:53
KMSO 080553Z AUTO 00000KT 10SM CLR 18/06 A2985

2010/08/08 05:52
KMWH 080552Z AUTO 26004KT 10SM BKN110 21/11 A2981

2010/08/08 05:53
KOLF 080553Z AUTO 00000KT 10SM CLR 18/15 A2970

2010/08/08 05:54
KOLM 080554Z AUTO 20006KT 10SM BKN046 OVC055 16/14 A2992

2010/08/08 05:54
KOLS 080554Z AUTO 00000KT 10SM FEW039 SCT120 21/18 A3008

2010/08/08 05:55
KOLV 080555Z AUTO 00000KT 5SM CLR 26/26 A2992

2010/08/08 05:53
KPAE 080553Z AUTO 21006KT 3SM BR BKN008 OVC016 16/15 A2991

2010/08/08 05:53
KPDX 080553Z 33005KT 10SM FEW020 BKN042 OVC050 19/16 A2992

2010/08/08 05:53
KPMD 080553Z AUTO 20012KT 10SM CLR 23/M02 A2989

2010/08/08 05:55
KRNO 080555Z 02004KT 10SM FEW090 SCT120 BKN150 23/02 A2993

2010/08/08 05:53
KRNT 080553Z AUTO 22005KT 8SM -RA FEW013 BKN027 OVC055 17/16 A2990

2010/08/08 05:53
KSAC 080553Z 19008G15KT 10SM CLR 17/11 A2975

2010/08/08 05:55
KSCK 080555Z AUTO 29005KT 10SM CLR 20/12 A2975

2010/08/08 05:53
KSDM 080553Z AUTO 00000KT 10SM OVC012 16/12 A2993

2010/08/08 05:53
KSFF 080553Z AUTO 27003KT 10SM CLR 23/08 A2979

2010/08/08 05:53
KSJC 080553Z 11007KT 10SM FEW011 16/11 A2985

2010/08/08 05:53
KSLC 080553Z 17009KT 10SM FEW070 SCT120 23/11 A2992

2010/08/08 05:53
KSMF 080553Z 16009KT 10SM CLR 17/12 A2973

2010/08/08 05:53
KTIW 080553Z AUTO 23005KT 10SM FEW012 BKN018 OVC031 16/14 A2992

2010/08/08 05:53
KTUS 080553Z 04005KT 10SM VCTS OVC070 24/18 A3001

2010/08/08 05:56
KNUW 080556Z 26004KT 6SM BR BKN005 OVC015 16/15 A2991

2010/08/08 05:54
KACY 080554Z 16003KT 10SM CLR 22/20 A3003

2010/08/08 05:53
KAUG 080553Z AUTO 00000KT 10SM CLR 13/12 A3001

2010/08/08 05:54
KAVL 080554Z AUTO 12003KT 5SM BR CLR 21/19 A3007

2010/08/08 05:53
KBGM 080553Z AUTO 16003KT 10SM CLR 15/10 A3006

2010/08/08 05:51
KBKW 080551Z AUTO 00000KT 8SM CLR 18/14 A3008

2010/08/08 05:51
KCON 080551Z AUTO 00000KT 10SM CLR 10/09 A3003

2010/08/08 05:52
KDCA 080552Z 15004KT 10SM SCT095 23/16 A3000

2010/08/08 05:51
KEKN 080551Z AUTO 00000KT 5SM BR BKN055 OVC070 16/15 A3010

2010/08/08 05:51
KESN 080551Z AUTO 00000KT 10SM CLR 21/20 A3003

2010/08/08 05:53
KGFL 080553Z AUTO 00000KT 10SM OVC080 12/11 A3001

2010/08/08 05:53
KGSP 080553Z AUTO 00000KT 9SM FEW050 BKN080 24/21 A2999

2010/08/08 06:00
KIPJ 080600Z AUTO 00000KT 5SM BR SCT080 20/19 A3000

2010/08/08 05:54
KIPT 080554Z AUTO 00000KT 10SM CLR 16/12 A3001

2010/08/08 05:54
KLYH 080554Z AUTO 00000KT 8SM CLR 18/17 A3004

2010/08/08 05:53
KMHT 080553Z 00000KT 10SM CLR 15/10 A3001

2010/08/08 05:51
KMPV 080551Z AUTO 00000KT 10SM CLR 09/08 A3005

2010/08/08 05:52
KMWN 080552Z 26033KT 120SM FEW180 OVC250 04/03

2010/08/08 05:55
KMYR 080555Z AUTO 00000KT 5SM CLR 24/22 A2996

2010/08/08 05:51
KNYC 080551Z VRB06G14KT 10SM CLR 23/18 A3003

2010/08/08 05:54
KPNE 080554Z 16003KT 10SM SCT075 23/19 A3002

2010/08/08 05:54
KROA 080554Z 00000KT 9SM FEW080 22/18 A3006

2010/08/08 05:53
KSMQ 080553Z AUTO 00000KT 6SM BR CLR 17/16 A2999

2010/08/08 05:54
KWAL 080554Z AUTO 00000KT 10SM CLR 23/21 A3001

2010/08/08 05:53
KAAF 080553Z AUTO 00000KT 8SM CLR 27/26 A2990

2010/08/08 05:53
KABR 080553Z AUTO 35005KT 10SM CLR 24/22 A2966

2010/08/08 05:51
KACT 080551Z 19012KT 10SM CLR 30/22 A2988

2010/08/08 05:53
KAGS 080553Z AUTO 00000KT 6SM BR CLR 24/23 A2993

2010/08/08 05:51
KAHN 080551Z AUTO 00000KT 5SM BR CLR 24/22 A2997

2010/08/08 05:53
KALI 080553Z AUTO 17008KT 10SM CLR 27/24 A2990

2010/08/08 05:53
KAUS 080553Z 18008KT 10SM FEW120 28/23 A2991

2010/08/08 06:00
KAYS 080600Z AUTO 00000KT 5SM OVC008 26/25 A2983

2010/08/08 05:51
KBVE 080551Z AUTO 26005KT 10SM SCT032 BKN039 BKN047 30/25 A2993

2010/08/08 05:55
KCAO 080555Z AUTO 22008KT 10SM CLR 23/14 A3003

2010/08/08 05:53
KCDS 080553Z AUTO 17007KT 10SM CLR 26/20 A2989

2010/08/08 05:53
KCLL 080553Z AUTO 19007KT 10SM CLR 28/23 A2990

2010/08/08 05:53
KCNM 080553Z AUTO 16007KT 10SM CLR 25/14 A2995

2010/08/08 05:53
KCOT 080553Z AUTO 14008KT 10SM CLR 28/23 A2989

2010/08/08 05:51
KCSG 080551Z AUTO 21003KT 10SM CLR 26/22 A2994

2010/08/08 05:53
KCTY 080553Z AUTO 00000KT 25/24 A2993

2010/08/08 05:53
KDAB 080553Z 00000KT 10SM FEW090 OVC250 26/24 A2994

2010/08/08 05:53
KDHT 080553Z AUTO 18008KT 10SM CLR 22/17 A2999

2010/08/08 05:53
KECP 080553Z AUTO 06003KT 7SM FEW024 26/25 A2989

2010/08/08 05:53
KELD 080553Z AUTO 00000KT 6SM BR FEW055 SCT070 25/24 A2990

2010/08/08 05:51
KELP 080551Z 21009KT 10SM FEW100 SCT220 BKN300 28/12 A3002

2010/08/08 05:53
KESF 080553Z AUTO 00000KT 8SM CLR 26/24 A2991

2010/08/08 05:53
KFSM 080553Z 06005KT 10SM R25/0600VP6000FT SCT046 BKN070 BKN095 26/24 A2988

2010/08/08 05:53
KFYV 080553Z AUTO 00000KT 10SM FEW060 23/22 A2992

2010/08/08 05:53
KGAG 080553Z AUTO 17013KT 10SM CLR 28/19 A2988

2010/08/08 05:51
KGDP 080551Z AUTO 25015KT 10SM SCT080 BKN110 24/12 A3015

2010/08/08 05:53
KHBR 080553Z AUTO 19009KT 10SM CLR 29/22 A2987

2010/08/08 05:51
KHDO 080551Z AUTO 15011KT 10SM CLR 28/23 A2994

2010/08/08 05:53
KHOT 080553Z AUTO 15005KT 8SM BKN015 BKN020 OVC070 27/26 A2993

2010/08/08 05:53
KHRO 080553Z AUTO 12006KT 7SM CLR 24/22 A2995

2010/08/08 06:00
TBPB 080600Z 03004KT 9999 FEW012CB SCT016 BKN036 25/24 Q1012

2010/08/08 05:53
KINK 080553Z AUTO 14009KT 10SM CLR 28/15 A2992

2010/08/08 05:54
KIPT 080554Z AUTO 00000KT 10SM CLR 16/12 A3001

2010/08/08 05:54
KJAN 080554Z 00000KT 10SM CLR 26/24 A2992

2010/08/08 05:53
KJBR 080553Z AUTO 00000KT 10SM CLR 24/21 A2991

2010/08/08 05:51
KJCT 080551Z AUTO 17007KT 10SM CLR 29/19 A2994

2010/08/08 05:53
KLFK 080553Z AUTO 17004KT 10SM CLR 28/24 A2991

2010/08/08 05:53
KLFT 080553Z AUTO 21004KT 10SM CLR 27/24 A2992

2010/08/08 05:53
KMCN 080553Z AUTO 00000KT 6SM BR FEW024 24/23 A2995

2010/08/08 05:58
KMEI 080558Z 00000KT 6SM R01/5000VP6000FT BR CLR 24/24 A2991

2010/08/08 05:53
KMLC 080553Z AUTO 00000KT 10SM FEW065 27/22 A2987

2010/08/08 05:53
KMLU 080553Z 00000KT 10SM BKN085 28/24 A2991

2010/08/08 05:53
KMWL 080553Z AUTO 15008KT 10SM CLR 28/19 A2986

2010/08/08 05:53
KPBF 080553Z AUTO 00000KT 8SM CLR 26/24 A2991

2010/08/08 05:53
KPNC 080553Z AUTO 15009KT 10SM CLR 28/22 A2984

2010/08/08 05:53
KPSX 080553Z AUTO 19014G22KT 10SM CLR 31/24 A2991

2010/08/08 05:53
KPWA 080553Z AUTO 16013KT 10SM CLR 31/21 A2986

2010/08/08 05:53
KRMG 080553Z AUTO 03003KT 10SM CLR 23/21 A2995

2010/08/08 05:53
KRSL 080553Z AUTO 17011KT 10SM CLR 26/22 A2982

2010/08/08 05:56
KSHV 080556Z 19005KT 10SM SCT290 28/24 A2989

2010/08/08 05:52
KSPS 080552Z AUTO 19008KT 10SM CLR 29/21 A2984

2010/08/08 05:53
KTLH 080553Z 00000KT 10SM SCT095 24/24 A2992

2010/08/08 05:53
KTOP 080553Z AUTO 17006KT 10SM CLR 28/23 A2984

2010/08/08 05:53
KTRI 080553Z 00000KT 7SM SCT055 19/17 A3002

2010/08/08 05:53
KTUP 080553Z AUTO 00000KT 5SM BR CLR 26/24 A2991

2010/08/08 05:51
KVCT 080551Z AUTO 18005KT 10SM CLR 27/26 A2991

2010/08/08 05:53
KVGT 080553Z AUTO 17010KT 10SM CLR 32/13 A2978

2010/08/08 05:58
KVUJ 080558Z AUTO 00000KT 7SM CLR 23/21 A2997

2010/08/08 06:00
FBSK 080600Z 14004KT CAVOK 09/05 Q1026 NOSIG

2010/08/08 06:00
FBFT 080600Z 00000KT CAVOK 10/06 Q1027

2010/08/08 06:00
FBKE 080600Z 11012KT CAVOK 16/06 Q1024

2010/08/08 06:00
FBMN 080600Z 11007KT CAVOK 13/05 Q1025

2010/08/08 05:53
KAIA 080553Z AUTO 20019G28KT 10SM FEW120 27/09 A2989

2010/08/08 05:54
KALO 080554Z AUTO 19010KT 10SM CLR 24/22 A2980

2010/08/08 05:52
KALS 080552Z AUTO 08007KT 10SM OVC095 15/11 A3024

2010/08/08 05:50
KANW 080550Z AUTO 00000KT 10SM CLR 22/17 A2981

2010/08/08 05:53
KBBW 080553Z AUTO 15005KT 10SM CLR 24/22 A2982

2010/08/08 05:53
KBFF 080553Z AUTO 19005KT 10SM SCT120 27/10 A2990

2010/08/08 05:50
KBIE 080550Z AUTO 17008KT 10SM CLR 26/23 A2982

2010/08/08 05:52
KBIS 080552Z AUTO 06003KT 10SM CLR 20/17 A2971

2010/08/08 05:53
KBPI 080553Z AUTO 17006KT 10SM CLR 14/04 A3012

2010/08/08 05:53
KBRL 080553Z AUTO 19007KT 9SM CLR 24/20 A2989

2010/08/08 05:53
KCAG 080553Z AUTO 12003KT 10SM FEW065 OVC090 14/12 A3017

2010/08/08 05:53
KCGI 080553Z AUTO 08003KT 10SM CLR 23/18 A2993

2010/08/08 05:52
KCID 080552Z AUTO 18007KT 5SM BR CLR 22/21 A2985

2010/08/08 05:55
KCNK 080555Z AUTO 17011KT 10SM CLR 27/21 A2982

2010/08/08 05:52
KCNU 080552Z AUTO 15006KT 9SM CLR 26/23 A2987

2010/08/08 05:54
KCOU 080554Z AUTO 13005KT 10SM CLR 23/21 A2991

2010/08/08 05:53
KCYS 080553Z AUTO 17008KT 10SM OVC085 21/08 A3010

2010/08/08 05:53
KDBQ 080553Z AUTO 21010KT 8SM CLR 22/19 A2986

2010/08/08 05:52
KDDC 080552Z AUTO 15009KT 10SM CLR 26/18 A2986

2010/08/08 05:55
KDVL 080555Z AUTO 00000KT 10SM CLR 21/18 A2966

2010/08/08 05:55
KEAR 080555Z AUTO 19010KT 10SM CLR 26/21 A2983

2010/08/08 05:54
KEVV 080554Z AUTO 00000KT 10SM CLR 20/17 A2997

2010/08/08 05:53
KFNB 080553Z AUTO 16005KT 8SM CLR 24/23 A2982

2010/08/08 05:54
KFWA 080554Z 19003KT 10SM CLR 18/17 A2998

2010/08/08 05:53
KGCC 080553Z AUTO 31003KT 10SM CLR 14/11 A2992

2010/08/08 05:54
KGCK 080554Z AUTO 16007KT 10SM CLR 25/19 A2988

2010/08/08 05:53
KGJT 080553Z AUTO 00000KT 10SM OVC095 18/14 A3010

2010/08/08 05:53
KGLD 080553Z AUTO 00000KT 10SM CLR 23/16 A2992

2010/08/08 05:55
KGPZ 080555Z AUTO 00000KT 10SM CLR 19/17 A2970

2010/08/08 05:53
KGRI 080553Z AUTO 18009KT 10SM CLR 25/21 A2980

2010/08/08 05:55
KHON 080555Z AUTO 28006KT 10SM CLR 25/21 A2967

2010/08/08 05:53
KHSI 080553Z AUTO 17005KT 10SM CLR 26/21 A2982

2010/08/08 05:53
KHTL 080553Z AUTO 22008KT 10SM SCT090 21/19 A2986

2010/08/08 05:53
KIML 080553Z AUTO 26005KT 10SM CLR 26/17 A2987

2010/08/08 05:55
KIRK 080555Z AUTO 18005KT 9SM CLR 22/21 A2991

2010/08/08 05:55
KJAC 080555Z AUTO 09004KT 10SM CLR 10/05 A3009

2010/08/08 05:53
KJKL 080553Z AUTO 00000KT 10SM CLR 21/15 A3002

2010/08/08 05:53
KJLN 080553Z 15005KT 9SM CLR 26/23 A2989

2010/08/08 05:59
KJNX 080559Z AUTO 00000KT 10SM BKN100 22/22 A2997

2010/08/08 05:53
KLAN 080553Z 19008KT 9SM CLR 21/17 A2992

2010/08/08 05:53
KLBF 080553Z AUTO 17003KT 10SM CLR 23/22 A2983

2010/08/08 05:53
KLND 080553Z AUTO 26005KT 10SM CLR 21/03 A2998

2010/08/08 05:54
KLNK 080554Z AUTO 19008KT 9SM CLR 26/22 A2980

2010/08/08 05:53
KLXV 080553Z AUTO 06005KT 10SM BKN120 09/08 A3038

2010/08/08 05:53
KMCK 080553Z AUTO 00000KT 10SM CLR 24/22 A2982

2010/08/08 05:53
KMCW 080553Z AUTO 20009KT 8SM CLR 24/22 A2980

2010/08/08 05:52
KMFD 080552Z 16005KT 10SM CLR 18/14 A3002

2010/08/08 05:52
KMHK 080552Z AUTO 19007KT 10SM CLR 28/22 A2982

2010/08/08 05:55
KMKG 080555Z 20009KT 10SM BKN055 OVC070 25/22 A2987

2010/08/08 05:53
KMSN 080553Z 19008G16KT 9SM CLR 23/19 A2984

2010/08/08 05:53
KODX 080553Z AUTO 20006KT 10SM CLR 24/22 A2978

2010/08/08 05:50
KONL 080550Z AUTO 25004KT 10SM CLR 25/23 A2978

2010/08/08 05:53
KOTM 080553Z AUTO 19008KT 5SM BR CLR 23/22 A2986

2010/08/08 05:53
KPAH 080553Z AUTO 00000KT 7SM CLR 23/17 A2993

2010/08/08 05:53
KPKD 080553Z AUTO 13003KT 10SM BKN040 19/17 A2969

2010/08/08 05:52
KRAP 080552Z AUTO 35020G27KT 10SM CLR 22/13 A2985

2010/08/08 05:54
KRFD 080554Z 20008KT 10SM CLR 21/18 A2989

2010/08/08 05:53
KRIW 080553Z AUTO 15003KT 10SM CLR 20/06 A2998

2010/08/08 05:54
KRST 080554Z AUTO 20010G17KT 8SM FEW075 24/22 A2977

2010/08/08 05:53
KSHR 080553Z AUTO 17007KT 10SM CLR 18/11 A2986

2010/08/08 05:53
KSLN 080553Z AUTO 16009KT 10SM CLR 28/21 A2982

2010/08/08 05:52
KSPI 080552Z AUTO 17007KT 10SM CLR 23/18 A2994

2010/08/08 05:56
PHNY 080556Z AUTO 04007KT 10SM CLR 22/19 A3012 RMK AO2 TSNO 53011 60000 T02220188 10266 20222 SLP177 $

2010/08/08 05:58
PWAK 080558Z 12010KT 7SM FEW020 SCT035 29/24 A2991 RMK AO2A RS DIST S MOV SLOWLY W

2010/08/08 06:00
RJOO 080600Z 10010KT 060V120 9999 FEW025 SCT045 32/20 Q1011

2010/08/08 06:00
RJSM 080600Z 11009KT 9999 FEW020 BKN230 30/22 Q1013 RMK 1CU020 A2993 FCST 0612 TEMPO 0612 -SHRA FEW015CU BKN025CU FEW025TCU

2010/08/08 06:00
RJTT 080600Z 20011KT 9999 FEW020 FEW030CB BKN140 30/22 Q1014

2010/08/08 06:00
MKJP 080600Z 34003KT 9999 FEW022 BKN240 28/21 Q1014

2010/08/08 06:00
MKJS 080600Z 00000KT 9999 VCTS FEW024CB 28/22 Q1014

2010/08/08 05:56
MMMD 080556Z 11005KT 7SM SKC 25/24 A2994 RMK SLP143 52017 901

2010/08/08 05:45
MMMY 080545Z 11006KT 12SM SKC 26/23 A2991 RMK SLP119 53020 905

2010/08/08 06:00
MROC 080600Z 00000KT 4000 -RA BR SCT003 BKN010 20/20 A3008 NOSIG

2010/08/08 06:00
MYNN 080600Z 13005KT 9999 SCT015 28/23 A2997

2010/08/08 06:00
MZBZ 080600Z 00000KT 9999 FEW005 BKN260 26/26 A2989 Q1012 NOSIG

2010/08/08 05:58
PTYA 080558Z 07008KT 12SM SCT015CB BKN130 OVC300 30/24 A2976 RMK CB VC W MOV SW SLP079 60002 8/371 T03010241 10308 20290 58010

2010/08/08 05:58
PWAK 080558Z 12010KT 7SM FEW020 SCT035 29/24 A2991 RMK AO2A RS DIST S MOV SLOWLY W

2010/08/08 06:00
RJAA 080600Z 17008KT 9999 FEW020 SCT030 BKN/// 29/23 Q1014 NOSIG

2010/08/08 06:00
RJCC 080600Z 17007KT 140V200 9999 FEW012 SCT050TCU 29/23 Q1012

2010/08/08 06:00
RJFF 080600Z 06005KT 310V120 9999 FEW025 FEW035TCU SCT040 33/22 Q1008

2010/08/08 06:00
RJFK 080600Z 11009KT 090V160 9999 FEW025 29/22 Q1010

2010/08/08 06:00
RJOO 080600Z 10010KT 060V120 9999 FEW025 SCT045 32/20 Q1011

2010/08/08 06:00
RJTT 080600Z 20011KT 9999 FEW020 FEW030CB BKN140 30/22 Q1014

2010/08/08 06:00
RKSS 080600Z 29010KT 9999 FEW030 32/19 Q1009 NOSIG

2010/08/08 06:00
ROAH 080600Z 17015KT 9999 FEW015 SCT020 BKN/// 31/26 Q1002

2010/08/08 06:00
SKBO 080600Z VRB02KT 99999 SCT020 SCT080 13/11 A3035 NOSIG

2010/08/08 06:00
SKBQ 080600Z 00000KT 9999 FEW012 26/5 A2988

2010/08/08 06:00
SKCG 080600Z VRB02KT 9999 BKN015 29/25 A2987

2010/08/08 06:00
SKCL 080600Z VRB02KT 9999 SCT020 BKN090 21/18 A3004

2010/08/08 06:00
SVMG 080600Z 07002KT 9999 FEW010 BKN080 25/24 Q1012 TEMPO

2010/08/08 06:00
TGPY 080600Z 00000KT 9999 SCT018 26/25 Q1012

2010/08/08 06:00
TTCP 080600Z 00000KT 9999 FEW016 26/22 Q1012 NOSIG

2010/08/08 06:00
TTPP 080600Z 00000KT 9999 FEW016 25/24 Q1012 NOSIG

2010/08/08 06:00
ZGGG 080600Z VRB01MPS 9999 FEW023 BKN050 33/24 Q1003 NOSIG

2010/08/08 05:55
KVAD 080555Z 00000KT 6SM R18/4500V5500FT BR FEW002 24/24 A2993 RMK AO2A VIS 1 RWY36 SLP133 60018 T02450243 10251 20245 50000 $

2010/08/08 06:00
MKJP 080600Z 34003KT 9999 FEW022 BKN240 28/21 Q1014

2010/08/08 06:00
MKJS 080600Z 00000KT 9999 VCTS FEW024CB 28/22 Q1014

2010/08/08 06:00
MYNN 080600Z 13005KT 9999 SCT015 28/23 A2997

2010/08/08 06:00
SAZS 080600Z 32014KT 9999 FEW025 02/M04 Q1024

2010/08/08 06:00
SCAR 080600Z 00000KT 9999 OVC021 14/08 Q1016

2010/08/08 06:00
SCBA 080600Z AUTO 30018KT CAVOK 03/00 Q1014

2010/08/08 06:00
SCDA 080600Z 26004KT 9999 OVC022 13/09 Q1017

2010/08/08 06:00
SCEL 080600Z VRB02KT CAVOK 03/01 Q1025 NOSIG

2010/08/08 06:00
SCFA 080600Z 10003KT 9999 SCT014 10/08 Q1016

2010/08/08 06:00
SCIE 080600Z 19004KT 5000 BR SKC 03/02 Q1028

2010/08/08 06:00
SCTE 080600Z 36003KT 9999 SCT070 02/02 Q1028 NOSIG

2010/08/08 06:00
SKBQ 080600Z 00000KT 9999 FEW012 26/5 A2988

2010/08/08 06:00
SKCG 080600Z VRB02KT 9999 BKN015 29/25 A2987

2010/08/08 06:00
SPHI 080600Z 17012KT CAVOK 15/12 Q1016 RMK PP000 BIRD HAZARD RWY 19/01

2010/08/08 06:00
SPQU 080600Z 06011KT CAVOK 11/M15 Q1026 RMK PP000

2010/08/08 06:00
SPRU 080600Z 17007KT 6000 OVC011 15/12 Q1015 RMK BR BIRDS HAZARD RWY20 PP000

2010/08/08 06:00
SPSO 080600Z 10004KT 8000 SKC 12/10 Q1015 RMK PP000

2010/08/08 06:00
TFFF 080600Z AUTO 02003KT 9999NDV NCD 25/24 Q1012

2010/08/08 06:00
TFFR 080600Z 06002KT 9999 VCSH FEW023 SCT083 26/22 Q1013 TEMPO 4000 SHRA

2010/08/08 06:00
TTPP 080600Z 00000KT 9999 FEW016 25/24 Q1012 NOSIG

2010/08/08 05:54
KSBN 080554Z 19008KT 9SM BKN080 OVC100 23/18 A2994

2010/08/08 05:53
KSTC 080553Z AUTO 07003KT 8SM BKN039 22/21 A2969

2010/08/08 05:52
KSUX 080552Z 18009KT 10SM CLR 26/22 A2975

2010/08/08 05:53
KTCS 080553Z AUTO 29008KT 10SM CLR 25/14 A3005

2010/08/08 06:01
KTDF 080601Z AUTO 00000KT 20/20 A3001

2010/08/08 05:55
KUDG 080555Z 36003KT 4SM CLR 23/21 A2997

2010/08/08 05:54
KUIN 080554Z AUTO 16006KT 7SM CLR 23/19 A2991

2010/08/08 05:53
KVIH 080553Z AUTO 15006KT 10SM CLR 23/19 A2993

2010/08/08 05:52
KVTN 080552Z AUTO 00000KT 10SM CLR 21/18 A2981

2010/08/08 05:51
KYNG 080551Z 15006KT 10SM BKN150 19/12 A3002

2010/08/08 05:55
KAST 080555Z AUTO 30005KT 5SM BR OVC003 15/14 A2995

2010/08/08 05:54
KBFL 080554Z AUTO 35010KT 10SM CLR 26/05 A2976

2010/08/08 05:52
KBLU 080552Z AUTO 00000KT 10SM CLR 17/05 A3004

2010/08/08 05:56
KBZN 080556Z AUTO 18006KT 10SM CLR 17/08 A2992

2010/08/08 05:53
KCNY 080553Z AUTO 32006KT 10SM OVC095 17/14 A3008

2010/08/08 05:52
KCZZ 080552Z AUTO 03003KT 11/07 A2992

2010/08/08 05:55
KDRA 080555Z AUTO 09012KT 10SM CLR 28/07 A2984

2010/08/08 05:53
KELY 080553Z AUTO 15018G29KT 10SM CLR 19/04 A3006

2010/08/08 05:54
KEUG 080554Z 00000KT 10SM FEW040 17/14 A2993

2010/08/08 05:56
KFLG 080556Z AUTO 00000KT 1 1/4SM BR OVC001 13/13 A3024

2010/08/08 05:56
KINW 080556Z AUTO 10SM OVC120 16/15 A3014

2010/08/08 05:59
KJNX 080559Z AUTO 00000KT 10SM BKN100 22/22 A2997

2010/08/08 05:53
KLGB 080553Z AUTO 00000KT 10SM CLR 17/13 A2991

2010/08/08 05:56
KLWS 080556Z 23004KT 10SM CLR 23/08 A2978

2010/08/08 05:53
KMFR 080553Z AUTO 00000KT 10SM CLR 23/12 A2988

2010/08/08 05:56
KMHS 080556Z AUTO 02003KT 10SM FEW085 20/08 A2994

2010/08/08 05:56
KNUQ 080556Z 06003KT 10SM CLR 15/12 A2985

2010/08/08 05:54
KOLM 080554Z AUTO 20006KT 10SM BKN046 OVC055 16/14 A2992

2010/08/08 05:53
KPDT 080553Z AUTO 25010KT 10SM FEW120 21/08 A2984

2010/08/08 05:53
KPGA 080553Z AUTO 00000KT 10SM CLR 17/15 A3008

2010/08/08 05:53
KPIH 080553Z AUTO 19012KT 10SM CLR 24/04 A2991

2010/08/08 05:53
KPUC 080553Z AUTO 09007KT 10SM CLR 16/10 A3015

2010/08/08 05:54
KRBL 080554Z AUTO 19007KT 10SM CLR 26/14 A2974

2010/08/08 05:53
KRDD 080553Z AUTO 21004KT 10SM CLR 28/12 A2974

2010/08/08 05:52
KSDB 080552Z AUTO 22003KT 10SM CLR 16/03 A3001

2010/08/08 05:53
KSHN 080553Z AUTO 24009KT 10SM OVC005 14/14 A2989

2010/08/08 05:54
KSJN 080554Z AUTO 16006KT 10SM CLR 17/13 A3017

2010/08/08 05:53
KSLC 080553Z 17009KT 10SM FEW070 SCT120 23/11 A2992

2010/08/08 05:51
KSMX 080551Z AUTO 00000KT 10SM OVC006 12/11 A2991

2010/08/08 05:50
KSOW 080550Z AUTO 19003KT 10SM FEW110 14/12 A3023

2010/08/08 05:50
KTRK 080550Z AUTO 13006KT 10SM CLR 12/05 A3004

2010/08/08 05:56
KWMC 080556Z AUTO 26010KT 10SM CLR 22/M01 A2987

2010/08/08 05:53
KYKM 080553Z AUTO 36008KT 10SM OVC110 21/12 A2984

2010/08/08 05:56
KBIH 080556Z AUTO 15011KT 10SM CLR 24/00 A2988

2010/08/08 05:56
KMEH 080556Z AUTO 00000KT 10SM CLR 14/08 A2995

2010/08/08 05:52
KMLF 080552Z AUTO 25008KT 10SM BKN080 16/11 A3004

2010/08/08 05:56
KSMP 080556Z AUTO VRB03KT 1/4SM FG BKN002 OVC006 11/11 A2997

2010/08/08 05:53
KUIL 080553Z AUTO 28005KT 2 1/2SM BR OVC004 12/12 A2994

2010/08/08 05:51
KABE 080551Z 00000KT 10SM SCT080 SCT090 17/16 A3001

2010/08/08 05:53
KACK 080553Z AUTO 18011KT 10SM CLR 21/18 A3005

2010/08/08 05:54
KACY 080554Z 16003KT 10SM CLR 22/20 A3003

2010/08/08 05:53
KAGC 080553Z 15003KT 6SM HZ CLR 19/14 A3003

2010/08/08 05:53
KAGS 080553Z AUTO 00000KT 6SM BR CLR 24/23 A2993

2010/08/08 05:54
KAKR 080554Z AUTO 17003KT 10SM CLR 18/14 A3001

2010/08/08 05:51
KALB 080551Z 00000KT 10SM SCT180 14/11 A3002

2010/08/08 05:56
KAND 080556Z AUTO 32004KT 8SM OVC040 24/21 A2998

2010/08/08 05:53
KAOO 080553Z AUTO 00000KT 5SM BR CLR 15/14 A3007

2010/08/08 05:56
KART 080556Z AUTO 18003KT 10SM CLR 16/11 A2997

2010/08/08 05:54
KAVL 080554Z AUTO 12003KT 5SM BR CLR 21/19 A3007

2010/08/08 05:54
KAVP 080554Z 11004KT 10SM FEW050 17/12 A3002

2010/08/08 05:53
KBAF 080553Z 00000KT 10SM CLR 13/12 A3002

2010/08/08 05:51
KBDL 080551Z 00000KT 10SM CLR 16/12 A3001

2010/08/08 05:52
KBDR 080552Z 20010KT 10SM CLR 23/21 A3000

2010/08/08 05:56
KBED 080556Z AUTO 00000KT 10SM CLR 12/10 A3001

2010/08/08 05:53
KBFD 080553Z AUTO 00000KT 10SM CLR 09/09 A3007

2010/08/08 05:53
KBGM 080553Z AUTO 16003KT 10SM CLR 15/10 A3006

2010/08/08 05:53
KBGR 080553Z 00000KT 10SM SCT080 11/10 A3001

2010/08/08 05:53
KBKL 080553Z 17007KT 10SM CLR 22/15 A2997

2010/08/08 05:51
KBKW 080551Z AUTO 00000KT 8SM CLR 18/14 A3008

2010/08/08 05:54
KBOS 080554Z 18005KT 10SM CLR 17/14 A3002

2010/08/08 05:54
KBTV 080554Z 12003KT 10SM CLR 12/10 A2998

2010/08/08 05:54
KBUF 080554Z 17006KT 10SM FEW070 SCT085 BKN220 17/11 A2997

2010/08/08 05:53
KBVY 080553Z AUTO 00000KT 10SM CLR 12/09 A3001

2010/08/08 05:54
KBWI 080554Z 00000KT 10SM BKN100 20/16 A2999

2010/08/08 05:56
KCAE 080556Z 00000KT 6SM BR CLR 26/24 A2993

2010/08/08 05:51
KCAK 080551Z 16005KT 10SM CLR 18/14 A3002

2010/08/08 05:54
KCAR 080554Z AUTO 24003KT 10SM CLR 09/07 A2994

2010/08/08 05:55
KCEF 080555Z AUTO 00000KT 10SM CLR 13/12 A3001

2010/08/08 05:53
KCHO 080553Z AUTO 00000KT 10SM CLR 17/16 A3002

2010/08/08 05:56
KCHS 080556Z 00000KT 7SM CLR 25/24 A2992

2010/08/08 05:53
KCKB 080553Z AUTO 00000KT 8SM CLR 15/14 A3004

2010/08/08 06:00
WBKK 080600Z 26007KT 9999 FEW015 SCT140 BKN270 32/27 Q1007 NOSIG

2010/08/08 06:00
WBSB 080600Z 22009KT 9999 SCT018 BKN300 34/23 Q1007 NOSIG

2010/08/08 06:00
WMKK 080600Z 15004KT 9999 FEW018 SCT140 BKN270 30/26 Q1008 NOSIG

2010/08/08 06:00
WMKP 080600Z 19004KT 9999 FEW020 SCT140 BKN270 31/26 Q1008 NOSIG

2010/08/08 06:00
WSSL 080600Z 17006KT 130V210 9999 FEW020 FEW022TCU BKN300 32/22 Q1008

2010/08/08 06:00
WSSS 080600Z 19006KT 160V250 9999 FEW020TCU BKN300 32/25 Q1008 NOSIG

2010/08/08 05:51
KCLE 080551Z 18006KT 10SM SCT250 20/15 A3001

2010/08/08 05:52
KCLT 080552Z 08006KT 9SM BKN046 26/19 A2999

2010/08/08 05:51
KCMH 080551Z 00000KT 10SM CLR 20/16 A3000

2010/08/08 05:54
KCRW 080554Z 00000KT 8SM CLR 18/17 A3001

2010/08/08 05:52
KCVG 080552Z 00000KT 10SM CLR 22/15 A3000

2010/08/08 05:53
KDAN 080553Z AUTO 00000KT 6SM BR CLR 19/17 A3001

2010/08/08 05:56
KDAY 080556Z 15005KT 10SM CLR 20/14 A3002

2010/08/08 05:52
KDCA 080552Z 15004KT 10SM SCT095 23/16 A3000

2010/08/08 05:56
KDUJ 080556Z AUTO 00000KT 10SM CLR 14/12 A3006

2010/08/08 05:54
KECG 080554Z AUTO 08003KT 5SM BR BKN011 25/24 A2999

2010/08/08 05:51
KEKN 080551Z AUTO 00000KT 5SM BR BKN055 OVC070 16/15 A3010

2010/08/08 05:53
KELM 080553Z AUTO 00000KT 10SM CLR 11/11 A3003

2010/08/08 05:51
KERI 080551Z 17008KT 10SM CLR 21/12 A2998

2010/08/08 05:53
KEWB 080553Z AUTO 00000KT 3/4SM R05/P6000FT BR CLR 15/14 A3003

2010/08/08 05:54
KEWN 080554Z AUTO 03004KT 5SM BR CLR 25/24 A2997

2010/08/08 05:51
KEWR 080551Z 19007KT 10SM CLR 23/19 A3000

2010/08/08 05:53
KFAY 080553Z AUTO 03003KT 8SM CLR 23/21 A2995

2010/08/08 05:53
KFLO 080553Z AUTO 01003KT 4SM BR SCT120 24/23 A2994

2010/08/08 05:53
KFRG 080553Z AUTO 21006KT 10SM CLR 23/21 A3002

2010/08/08 05:53
KFVE 080553Z AUTO 19005KT 10SM SCT085 09/06 A2992

2010/08/08 05:53
KGFL 080553Z AUTO 00000KT 10SM OVC080 12/11 A3001

2010/08/08 05:56
KGON 080556Z AUTO 00000KT 10SM BKN080 18/17 A3002

2010/08/08 05:54
KGSO 080554Z 00000KT 8SM CLR 22/19 A3002

2010/08/08 05:53
KGSP 080553Z AUTO 00000KT 9SM FEW050 BKN080 24/21 A2999

2010/08/08 05:53
KHFD 080553Z AUTO 00000KT 10SM CLR 20/17 A3000

2010/08/08 05:53
KHKY 080553Z AUTO 00000KT 6SM BR SCT070 21/21 A3002

2010/08/08 05:56
KHPN 080556Z 16003KT 10SM CLR 21/18 A3001

2010/08/08 05:51
KHTS 080551Z 00000KT 8SM CLR 18/17 A3000

2010/08/08 05:53
KHVN 080553Z AUTO 21006KT 10SM CLR 24/21 A3001

2010/08/08 05:56
KHYA 080556Z 20008KT 10SM CLR 22/19 A3004

2010/08/08 05:52
KIAD 080552Z 00000KT 10SM CLR 18/16 A3000

2010/08/08 05:53
KIAG 080553Z AUTO 18008KT 10SM FEW065 OVC095 20/14 A2995

2010/08/08 05:51
KILG 080551Z 18004KT 10SM CLR 23/21 A3001

2010/08/08 05:53
KILM 080553Z AUTO 00000KT 3SM BR CLR 24/23 A2994

2010/08/08 05:54
KINT 080554Z AUTO 00000KT 10SM CLR 23/17 A3002

2010/08/08 05:54
KIPT 080554Z AUTO 00000KT 10SM CLR 16/12 A3001

2010/08/08 05:56
KISP 080556Z 19007KT 10SM FEW250 23/18 A3001

2010/08/08 05:51
KJFK 080551Z COR 22008KT 10SM SCT100 23/20 A3002

2010/08/08 05:51
KJFK 080551Z 22008KT 10SM SCT200 23/20 A3002

2010/08/08 05:54
KJST 080554Z AUTO 00000KT 10SM CLR 17/12 A3008

2010/08/08 05:55
KLCK 080555Z AUTO 00000KT 10SM CLR 19/16 A3000

2010/08/08 05:53
KLEB 080553Z AUTO 00000KT 10SM CLR 11/08 A3001

2010/08/08 05:51
KLGA 080551Z 20010KT 10SM CLR 24/19 A3000

2010/08/08 05:53
KLUK 080553Z AUTO 00000KT 8SM CLR 18/17 A3000

2010/08/08 05:54
KLWM 080554Z AUTO 00000KT 10SM CLR 15/09 A3004

2010/08/08 05:54
KLYH 080554Z AUTO 00000KT 8SM CLR 18/17 A3004

2010/08/08 05:56
KMDT 080556Z 00000KT 9SM FEW065 21/17 A2999

2010/08/08 05:52
KMFD 080552Z 16005KT 10SM CLR 18/14 A3002

2010/08/08 05:53
KMGW 080553Z AUTO 00000KT 7SM CLR 16/14 A3006

2010/08/08 05:53
KMHT 080553Z 00000KT 10SM CLR 15/10 A3001

2010/08/08 05:54
KMIV 080554Z AUTO 00000KT 10SM FEW100 19/18 A2999

2010/08/08 05:53
KMRB 080553Z AUTO 00000KT 10SM CLR 18/15 A3001

2010/08/08 05:53
KMSS 080553Z AUTO 21005KT 10SM FEW060 14/12 A2993

2010/08/08 05:55
KMYR 080555Z AUTO 00000KT 5SM CLR 24/22 A2996

2010/08/08 05:54
KNKT 080554Z AUTO 00000KT 7SM CLR 25/23 A2996

2010/08/08 05:51
KORF 080551Z 10003KT 7SM BKN009 25/23 A2999

2010/08/08 05:54
KORH 080554Z AUTO 22006KT 10SM CLR 16/11 A3004

2010/08/08 05:54
KPHF 080554Z 10003KT 7SM CLR 23/23 A2999

2010/08/08 05:54
KPHL 080554Z 22004KT 10SM SCT080 SCT250 23/20 A3001

2010/08/08 05:51
KPIT 080551Z 00000KT 10SM FEW250 17/13 A3003

2010/08/08 05:53
KPKB 080553Z AUTO 00000KT 8SM CLR 17/16 A3005

2010/08/08 05:53
KPOU 080553Z 00000KT 10SM CLR 14/13 A3000

2010/08/08 05:55
KPQI 080555Z AUTO 21004KT 10SM CLR 11/04 A2993

2010/08/08 05:55
KPSM 080555Z 00000KT 10SM SCT250 14/13 A3001

2010/08/08 05:51
KPVD 080551Z 00000KT 10SM CLR 18/16 A3004

2010/08/08 05:51
KPWM 080551Z AUTO 00000KT 3SM BR CLR 13/12 A3000

2010/08/08 05:54
KRDG 080554Z 00000KT 10SM BKN070 22/17 A3000

2010/08/08 05:51
KRDU 080551Z 00000KT 8SM FEW075 23/19 A2999

2010/08/08 05:54
KRIC 080554Z 00000KT 10SM CLR 22/18 A3000

2010/08/08 05:54
KROA 080554Z 00000KT 9SM FEW080 22/18 A3006

2010/08/08 05:54
KROC 080554Z 20003KT 10SM FEW080 SCT200 15/11 A2999

2010/08/08 05:53
KRWI 080553Z AUTO 00000KT 6SM BR CLR 23/22 A2998

2010/08/08 05:53
KSAV 080553Z 00000KT 8SM FEW015 25/24 A2992

2010/08/08 05:54
KSBY 080554Z AUTO 00000KT 10SM CLR 21/20 A3000

2010/08/08 05:51
KSLK 080551Z AUTO 00000KT 10SM CLR 07/06 A2999

2010/08/08 05:54
KSYR 080554Z 15003KT 10SM FEW250 14/11 A3000

2010/08/08 05:51
KTEB 080551Z 18006KT 10SM CLR 23/18 A2999

2010/08/08 05:52
KTOL 080552Z 19003KT 9SM CLR 18/16 A2996

2010/08/08 05:53
KTTN 080553Z AUTO 19004KT 10SM BKN075 BKN095 21/17 A3001

2010/08/08 05:55
KWRI 080555Z AUTO 24005KT 10SM CLR 20/20 A3000

2010/08/08 05:51
KYNG 080551Z 15006KT 10SM BKN150 19/12 A3002

2010/08/08 05:53
KZZV 080553Z AUTO 00000KT 6SM BR CLR 17/16 A3002

2010/08/08 06:00
RJFR 080600Z 08019KT 9999 FEW025 30/22 Q1009

2010/08/08 06:00
RJAA 080600Z 17008KT 9999 FEW020 SCT030 BKN/// 29/23 Q1014 NOSIG

2010/08/08 06:00
RJBB 080600Z 25010KT 9999 FEW020 31/21 Q1012 NOSIG

2010/08/08 06:00
RJTT 080600Z 20011KT 9999 FEW020 FEW030CB BKN140 30/22 Q1014

2010/08/08 06:00
RJOO 080600Z 10010KT 060V120 9999 FEW025 SCT045 32/20 Q1011

2010/08/08 06:00
RJFF 080600Z 06005KT 310V120 9999 FEW025 FEW035TCU SCT040 33/22 Q1008

2010/08/08 06:00
RJGG 080600Z 16010KT 9999 -SHRA FEW015 SCT025 FEW025TCU BKN070 30/25 Q1014 NOSIG

2010/08/08 06:00
RJFK 080600Z 11009KT 090V160 9999 FEW025 29/22 Q1010

2010/08/08 06:00
RJFU 080600Z 36008KT 9999 FEW035 33/24 Q1008

2010/08/08 06:00
RJCH 080600Z 26005KT 230V320 9999 FEW009 SCT030 BKN/// 29/26 Q1013

2010/08/08 06:00
RJNS 080600Z 15005KT 110V180 9999 FEW015 SCT040 BKN150 28/21 Q1015

2010/08/08 06:00
RJAA 080600Z 17008KT 9999 FEW020 SCT030 BKN/// 29/23 Q1014 NOSIG

2010/08/08 06:00
RJBB 080600Z 25010KT 9999 FEW020 31/21 Q1012 NOSIG

2010/08/08 06:00
RJTT 080600Z 20011KT 9999 FEW020 FEW030CB BKN140 30/22 Q1014

2010/08/08 06:00
RJOO 080600Z 10010KT 060V120 9999 FEW025 SCT045 32/20 Q1011

2010/08/08 06:00
RJGG 080600Z 16010KT 9999 -SHRA FEW015 SCT025 FEW025TCU BKN070 30/25 Q1014 NOSIG

2010/08/08 06:00
RJSN 080600Z 01014KT 9999 FEW030 FEW040TCU BKN/// 32/22 Q1012

2010/08/08 06:00
RJCH 080600Z 26005KT 230V320 9999 FEW009 SCT030 BKN/// 29/26 Q1013

2010/08/08 06:00
RJSA 080600Z 28008KT 9999 FEW020 SCT030 30/23 Q1014

2010/08/08 06:00
RJSF 080600Z 21004KT 160V260 9999 FEW030 BKN/// 31/22 Q1015

2010/08/08 06:00
RJAA 080600Z 17008KT 9999 FEW020 SCT030 BKN/// 29/23 Q1014 NOSIG

2010/08/08 06:00
RJBB 080600Z 25010KT 9999 FEW020 31/21 Q1012 NOSIG

2010/08/08 06:00
RJTT 080600Z 20011KT 9999 FEW020 FEW030CB BKN140 30/22 Q1014

2010/08/08 06:00
RJOO 080600Z 10010KT 060V120 9999 FEW025 SCT045 32/20 Q1011

2010/08/08 06:00
ROAH 080600Z 17015KT 9999 FEW015 SCT020 BKN/// 31/26 Q1002

2010/08/08 06:00
RJGG 080600Z 16010KT 9999 -SHRA FEW015 SCT025 FEW025TCU BKN070 30/25 Q1014 NOSIG

2010/08/08 06:00
RJOT 080600Z 10006KT 040V150 9999 FEW015 BKN/// 32/21 Q1012

2010/08/08 06:00
RJFO 080600Z 09009KT 9999 FEW025 28/24 Q1011

2010/08/08 06:00
RJFF 080600Z 06005KT 310V120 9999 FEW025 FEW035TCU SCT040 33/22 Q1008

2010/08/08 06:00
RJCC 080600Z 17007KT 140V200 9999 FEW012 SCT050TCU 29/23 Q1012

2010/08/08 06:00
RJFK 080600Z 11009KT 090V160 9999 FEW025 29/22 Q1010

2010/08/08 06:00
RJSN 080600Z 01014KT 9999 FEW030 FEW040TCU BKN/// 32/22 Q1012

2010/08/08 06:00
RJFT 080600Z 10015KT 9999 FEW040 33/22 Q1009

2010/08/08 06:00
RJFU 080600Z 36008KT 9999 FEW035 33/24 Q1008

2010/08/08 06:00
RJCH 080600Z 26005KT 230V320 9999 FEW009 SCT030 BKN/// 29/26 Q1013

2010/08/08 06:00
RJSS 080600Z 15011KT 9999 FEW030CB 30/24 Q1013

2010/08/08 06:00
RJOA 080600Z 13006KT 080V180 9999 FEW035 FEW040TCU 31/18 Q1013

2010/08/08 06:00
RJOB 080600Z 10009KT 9999 FEW035 SCT180 29/20 Q1013

2010/08/08 05:52
KABI 080552Z 16008KT 10SM CLR 28/19 A2992

2010/08/08 05:56
KABQ 080556Z 35008KT 10SM FEW095 23/12 A3014

2010/08/08 05:53
KABY 080553Z 00000KT 9SM CLR 24/24 A2995

2010/08/08 05:51
KACT 080551Z 19012KT 10SM CLR 30/22 A2988

2010/08/08 05:53
KAEX 080553Z 00000KT 10SM CLR 27/24 A2990

2010/08/08 05:53
KAFW 080553Z 19004KT 10SM CLR 31/21 A2985

2010/08/08 05:51
KAHN 080551Z AUTO 00000KT 5SM BR CLR 24/22 A2997

2010/08/08 05:53
KALI 080553Z AUTO 17008KT 10SM CLR 27/24 A2990

2010/08/08 05:53
KAMA 080553Z AUTO 16010KT 10SM CLR 26/17 A2997

2010/08/08 05:53
KANB 080553Z AUTO 00000KT 10SM CLR 26/21 A2994

2010/08/08 05:53
KAPF 080553Z AUTO 00000KT 10SM FEW026 29/26 A2996

2010/08/08 05:52
KATL 080552Z 09004KT 8SM CLR 25/23 A2997

2010/08/08 05:53
KAUS 080553Z 18008KT 10SM FEW120 28/23 A2991

2010/08/08 05:53
KBFM 080553Z AUTO 00000KT 10SM BKN100 27/24 A2992

2010/08/08 05:53
KBHM 080553Z 00000KT 10SM CLR 27/20 A2994

2010/08/08 05:53
KBNA 080553Z 04003KT 8SM CLR 23/18 A2996

2010/08/08 05:53
KBPT 080553Z AUTO 19005KT 10SM CLR 27/25 A2991

2010/08/08 06:00
KBQK 080600Z AUTO 26003KT 4SM SCT002 25/25 A2993

2010/08/08 05:53
KBRO 080553Z 16005KT 10SM FEW021 28/26 A2991

2010/08/08 05:53
KBTR 080553Z 25005KT 10SM FEW040 28/25 A2992

2010/08/08 05:53
KCEW 080553Z AUTO 00000KT 4SM BR CLR 24/24 A2993

2010/08/08 05:53
KCHA 080553Z 04003KT 10SM CLR 26/21 A2996

2010/08/08 05:53
KCLL 080553Z AUTO 19007KT 10SM CLR 28/23 A2990

2010/08/08 05:53
KCNM 080553Z AUTO 16007KT 10SM CLR 25/14 A2995

2010/08/08 05:51
KCRP 080551Z 17007KT 10SM FEW018 27/25 A2991

2010/08/08 05:51
KCSG 080551Z AUTO 21003KT 10SM CLR 26/22 A2994

2010/08/08 05:53
KCSV 080553Z AUTO 00000KT 4SM BR CLR 19/18 A3003

2010/08/08 05:53
KDAB 080553Z 00000KT 10SM FEW090 OVC250 26/24 A2994

2010/08/08 05:53
KDAL 080553Z 20007KT 10SM CLR 32/20 A2985

2010/08/08 05:53
KDFW 080553Z 19009KT 10SM CLR 31/20 A2985

2010/08/08 05:53
KDHN 080553Z AUTO 00000KT 8SM CLR 25/24 A2996

2010/08/08 05:55
KDLF 080555Z AUTO 13008KT 10SM CLR 30/19 A2989

2010/08/08 05:53
KDMN 080553Z AUTO 22005KT 10SM CLR 25/13 A3005

2010/08/08 05:51
KELP 080551Z 21009KT 10SM FEW100 SCT220 BKN300 28/12 A3002

2010/08/08 06:00
SCAT 080600Z VRB02KT 5000 HZ SKC 07/05 Q1017

2010/08/08 05:53
KESF 080553Z AUTO 00000KT 8SM CLR 26/24 A2991

2010/08/08 05:53
KEYW 080553Z AUTO 19004KT 10SM SCT019 SCT033 30/26 A2996

2010/08/08 05:53
KFLL 080553Z 00000KT 10SM SCT047 28/25 A2996

2010/08/08 05:53
KFSM 080553Z 06005KT 10SM R25/0600VP6000FT SCT046 BKN070 BKN095 26/24 A2988

2010/08/08 05:53
KFTW 080553Z 18010KT 10SM CLR 31/20 A2985

2010/08/08 05:53
KFTY 080553Z 00000KT 4SM BR CLR 24/23 A2996

2010/08/08 05:53
KGGG 080553Z AUTO 19006KT 10SM CLR 28/24 A2990

2010/08/08 05:52
KGLS 080552Z AUTO 19008KT 10SM FEW025 29/24 A2992

2010/08/08 05:53
KGNV 080553Z AUTO 20003KT 10SM BKN100 25/24 A2994

2010/08/08 05:53
KGPT 080553Z AUTO 00000KT 10SM FEW043 30/26 A2990

2010/08/08 05:53
KGUP 080553Z AUTO 00000KT 10SM CLR 16/13 A3021

2010/08/08 05:53
KGWO 080553Z AUTO 00000KT 5SM BR CLR 24/24 A2991

2010/08/08 05:53
KHOT 080553Z AUTO 15005KT 8SM BKN015 BKN020 OVC070 27/26 A2993

2010/08/08 05:53
KHOU 080553Z 17004KT 10SM CLR 27/24 A2991

2010/08/08 05:52
KHRL 080552Z 14004KT 10SM CLR 26/25 A2990

2010/08/08 05:53
KHRO 080553Z AUTO 12006KT 7SM CLR 24/22 A2995

2010/08/08 05:53
KHSV 080553Z 09005KT 10SM CLR 25/19 A2992

2010/08/08 05:53
KIAH 080553Z 19003KT 10SM CLR 29/24 A2991

2010/08/08 05:53
KINK 080553Z AUTO 14009KT 10SM CLR 28/15 A2992

2010/08/08 05:54
KJAN 080554Z 00000KT 10SM CLR 26/24 A2992

2010/08/08 05:56
KJAX 080556Z 00000KT 10SM FEW003 SCT025 SCT150 OVC250 24/23 A2992

2010/08/08 05:53
KJBR 080553Z AUTO 00000KT 10SM CLR 24/21 A2991

2010/08/08 05:53
KLBB 080553Z 15007KT 10SM SCT200 24/17 A2997

2010/08/08 05:53
KLCH 080553Z AUTO 00000KT 10SM CLR 27/25 A2992

2010/08/08 05:53
KLFT 080553Z AUTO 21004KT 10SM CLR 27/24 A2992

2010/08/08 05:53
KLIT 080553Z 15003KT 10SM SCT060 BKN250 26/24 A2991

2010/08/08 05:56
KLRD 080556Z AUTO 16015KT 10SM CLR 31/23 A2991

2010/08/08 05:50
KLRU 080550Z AUTO 25011G17KT 10SM CLR 26/12 A3007

2010/08/08 05:53
KMAF 080553Z AUTO 15005KT 10SM CLR 26/14 A2996

2010/08/08 05:53
KMCN 080553Z AUTO 00000KT 6SM BR FEW024 24/23 A2995

2010/08/08 05:53
KMCO 080553Z 23004KT 10SM FEW030 FEW100 SCT180 OVC200 27/24 A2994

2010/08/08 05:58
KMEI 080558Z 00000KT 6SM R01/5000VP6000FT BR CLR 24/24 A2991

2010/08/08 05:53
KMEM 080553Z 00000KT 10SM FEW045 28/24 A2991

2010/08/08 05:53
KMFE 080553Z AUTO 15009KT 10SM CLR 27/25 A2991

2010/08/08 05:53
KMGM 080553Z 12004KT 10SM SCT070 BKN100 OVC250 25/23 A2992

2010/08/08 05:53
KMIA 080553Z 20003KT 10SM FEW040 BKN130 BKN250 28/25 A2997

2010/08/08 05:53
KMKL 080553Z AUTO 00000KT 10SM CLR 23/21 A2992

2010/08/08 05:53
KMLB 080553Z AUTO 21006KT 10SM CLR 25/24 A2994

2010/08/08 05:53
KMLC 080553Z AUTO 00000KT 10SM FEW065 27/22 A2987

2010/08/08 05:53
KMLU 080553Z 00000KT 10SM BKN085 28/24 A2991

2010/08/08 05:56
KMOB 080556Z 21003KT 10SM FEW050 27/24 A2992

2010/08/08 05:53
KMSL 080553Z AUTO 00000KT 10SM CLR 23/21 A2993

2010/08/08 05:53
KMSY 080553Z 24005KT 10SM FEW050 SCT250 28/25 A2992

2010/08/08 05:53
KNEW 080553Z AUTO 25011KT 10SM CLR 31/25 A2992

2010/08/08 05:56
KNGP 080556Z AUTO 10SM FEW019 28/26 A2990

2010/08/08 05:52
KOKC 080552Z 16008KT 10SM CLR 28/22 A2986

2010/08/08 05:53
KPBI 080553Z 21004KT 10SM FEW039 SCT100 27/24 A2995

2010/08/08 05:53
KPDK 080553Z AUTO 00000KT 10SM CLR 24/22 A2998

2010/08/08 05:53
KPIE 080553Z AUTO 27004KT 10SM CLR 28/24 A2994

2010/08/08 05:53
KPNS 080553Z AUTO 00000KT 8SM OVC100 27/25 A2990

2010/08/08 05:51
KROW 080551Z AUTO 00000KT 10SM CLR 24/14 A2996

2010/08/08 05:53
KRSW 080553Z AUTO 00000KT 10SM CLR 27/24 A2996

2010/08/08 05:53
KSAT 080553Z 15010KT 10SM FEW250 28/23 A2994

2010/08/08 05:53
KSFB 080553Z AUTO 00000KT 10SM FEW026 27/25 A2994

2010/08/08 05:56
KSHV 080556Z 19005KT 10SM SCT290 28/24 A2989

2010/08/08 05:51
KSJT 080551Z AUTO 17006KT 10SM CLR 31/16 A2992

2010/08/08 05:53
KSRQ 080553Z AUTO 27007KT 10SM CLR 29/23 A2994

2010/08/08 05:53
KSSI 080553Z AUTO 29003KT 8SM OVC009 26/24 A2992

2010/08/08 05:53
KTCC 080553Z AUTO 21011KT 10SM CLR 25/13 A2997

2010/08/08 05:53
KTCL 080553Z AUTO 00000KT 4SM BR BKN060 27/24 A2991

2010/08/08 05:53
KTCS 080553Z AUTO 29008KT 10SM CLR 25/14 A3005

2010/08/08 05:53
KTLH 080553Z 00000KT 10SM SCT095 24/24 A2992

2010/08/08 05:53
KTPA 080553Z 24008KT 10SM FEW025 SCT130 BKN250 29/24 A2994

2010/08/08 05:53
KTRI 080553Z 00000KT 7SM SCT055 19/17 A3002

2010/08/08 05:53
KTUL 080553Z 14007KT 10SM CLR 27/23 A2985

2010/08/08 05:53
KTUP 080553Z AUTO 00000KT 5SM BR CLR 26/24 A2991

2010/08/08 05:53
KTXK 080553Z AUTO 17004KT 10SM CLR 28/23 A2989

2010/08/08 05:53
KTYR 080553Z AUTO 19008KT 10SM CLR 29/23 A2991

2010/08/08 05:53
KTYS 080553Z 00000KT 9SM CLR 22/19 A2997

2010/08/08 05:51
KVCT 080551Z AUTO 18005KT 10SM CLR 27/26 A2991

2010/08/08 05:53
KVLD 080553Z AUTO 00000KT 1 1/4SM BR FEW002 24/24 A2993

2010/08/08 05:53
KVRB 080553Z 20004KT 10SM CLR 26/24 A2994

2010/08/08 05:53
TIST 080553Z AUTO 08008KT 10SM BKN095 28/23 A2994

2010/08/08 05:53
TISX 080553Z AUTO 10008KT 9SM -RA SCT025 BKN033 27/23 A2994

2010/08/08 05:50
TJPS 080550Z 00000KT 8SM FEW030 FEW060 26/23 A2995

2010/08/08 05:56
TJSJ 080556Z 11005KT 10SM FEW025 SCT031 SCT046 28/24 A2996

2010/08/08 05:53
KABR 080553Z AUTO 35005KT 10SM CLR 24/22 A2966

2010/08/08 05:54
KALO 080554Z AUTO 19010KT 10SM CLR 24/22 A2980

2010/08/08 05:53
KASE 080553Z 00000KT 10SM 11/11 A3025

2010/08/08 05:53
KATY 080553Z AUTO 18004KT 7SM CLR 24/23 A2969

2010/08/08 05:53
KAXN 080553Z AUTO 15003KT 10SM CLR 23/22 A2969

2010/08/08 05:53
KAZO 080553Z AUTO 19008KT 9SM BKN090 22/18 A2993

2010/08/08 05:53
KBDE 080553Z AUTO 08003KT 10SM CLR 17/15 A2971

2010/08/08 05:53
KBFF 080553Z AUTO 19005KT 10SM SCT120 27/10 A2990

2010/08/08 05:52
KBIS 080552Z AUTO 06003KT 10SM CLR 20/17 A2971

2010/08/08 05:55
KBKF 080555Z 17011KT 25SM FEW070 SCT140 BKN220 20/14 A3005

2010/08/08 05:53
KBRL 080553Z AUTO 19007KT 9SM CLR 24/20 A2989

2010/08/08 05:53
KBTL 080553Z AUTO 20007KT 9SM SCT095 21/17 A2994

2010/08/08 05:53
KCGI 080553Z AUTO 08003KT 10SM CLR 23/18 A2993

2010/08/08 05:52
KCID 080552Z AUTO 18007KT 5SM BR CLR 22/21 A2985

2010/08/08 05:55
KCIU 080555Z AUTO 00000KT 10SM FEW017 SCT070 BKN095 18/16 A2977

2010/08/08 05:53
KCMI 080553Z AUTO 00000KT 7SM CLR 19/17 A2997

2010/08/08 05:53
KCMX 080553Z AUTO 08006KT 10SM OVC100 17/14 A2974

2010/08/08 05:54
KCOS 080554Z 09007KT 10SM BKN110 19/15 A3012

2010/08/08 05:54
KCOU 080554Z AUTO 13005KT 10SM CLR 23/21 A2991

2010/08/08 05:53
KCPR 080553Z AUTO 31008KT 10SM FEW110 21/08 A3002

2010/08/08 05:53
KCYS 080553Z AUTO 17008KT 10SM OVC085 21/08 A3010

2010/08/08 05:52
KDDC 080552Z AUTO 15009KT 10SM CLR 26/18 A2986

2010/08/08 05:54
KDEC 080554Z AUTO 17006KT 9SM CLR 22/17 A2997

2010/08/08 05:53
KDEN 080553Z 17010KT 10SM SCT110 BKN200 19/15 A3003

2010/08/08 05:53
KDET 080553Z 23006KT 10SM FEW110 22/17 A2994

2010/08/08 05:55
KDLH 080555Z 14009KT 10SM SCT002 SCT095 17/16 A2972

2010/08/08 05:54
KDSM 080554Z 19009KT 10SM FEW090 25/21 A2982

2010/08/08 05:53
KDTW 080553Z 21007KT 6SM HZ FEW080 SCT220 20/17 A2995

2010/08/08 05:56
KEAU 080556Z AUTO 20006KT 10SM SCT050 BKN065 26/22 A2971

2010/08/08 05:55
KEGE 080555Z AUTO 00000KT 10SM BKN120 15/14 A3021

2010/08/08 05:54
KELO 080554Z AUTO 00000KT 10SM BKN060 OVC075 18/16 A2974

2010/08/08 05:54
KEVV 080554Z AUTO 00000KT 10SM CLR 20/17 A2997

2010/08/08 05:53
KFAR 080553Z 18004KT 10SM CLR 23/19 A2964

2010/08/08 05:53
KFNT 080553Z AUTO 20007KT 9SM CLR 21/17 A2991

2010/08/08 05:54
KFWA 080554Z 19003KT 10SM CLR 18/17 A2998

2010/08/08 05:54
KGCK 080554Z AUTO 16007KT 10SM CLR 25/19 A2988

2010/08/08 05:53
KGFK 080553Z 00000KT 10SM CLR 22/21 A2964

2010/08/08 05:53
KGJT 080553Z AUTO 00000KT 10SM OVC095 18/14 A3010

2010/08/08 05:53
KGRB 080553Z AUTO 21006KT 10SM FEW095 23/19 A2979

2010/08/08 05:53
KGRI 080553Z AUTO 18009KT 10SM CLR 25/21 A2980

2010/08/08 05:53
KGRR 080553Z AUTO 21009KT 9SM BKN055 23/18 A2990

2010/08/08 05:53
KHIB 080553Z AUTO 10003KT 10SM CLR 18/16 A2971

2010/08/08 05:55
KHON 080555Z AUTO 28006KT 10SM CLR 25/21 A2967

2010/08/08 05:53
KHUF 080553Z 00000KT 6SM BR CLR 18/17 A2997

2010/08/08 05:52
KHUT 080552Z AUTO 15008KT 10SM CLR 28/22 A2986

2010/08/08 05:53
KICT 080553Z 15007KT 10SM SCT200 27/22 A2985

2010/08/08 05:54
KIND 080554Z 00000KT 9SM CLR 22/17 A2996

2010/08/08 05:55
KIRK 080555Z AUTO 18005KT 9SM CLR 22/21 A2991

2010/08/08 05:55
KJAC 080555Z AUTO 09004KT 10SM CLR 10/05 A3009

2010/08/08 05:53
KJLN 080553Z 15005KT 9SM CLR 26/23 A2989

2010/08/08 05:56
KJMS 080556Z AUTO 00000KT 10SM CLR 21/19 A2967

2010/08/08 05:56
KJXN 080556Z 22004KT 10SM CLR 18/17 A2994

2010/08/08 05:53
KLAN 080553Z 19008KT 9SM CLR 21/17 A2992

2010/08/08 05:53
KLAR 080553Z AUTO 01005KT 10SM OVC075 16/09 A3017

2010/08/08 05:53
KLBF 080553Z AUTO 17003KT 10SM CLR 23/22 A2983

2010/08/08 05:55
KLBL 080555Z 20008KT 10SM CLR 26/18 A2989

2010/08/08 05:54
KLEX 080554Z 13003KT 10SM CLR 21/14 A3000

2010/08/08 05:54
KLNK 080554Z AUTO 19008KT 9SM CLR 26/22 A2980

2010/08/08 05:53
KLOU 080553Z 00000KT 10SM CLR 22/17 A2998

2010/08/08 05:53
KLOZ 080553Z AUTO 00000KT 7SM CLR 18/17 A3001

2010/08/08 05:53
KLSE 080553Z AUTO 19011KT 10SM BKN085 25/22 A2976

2010/08/08 05:53
KMBS 080553Z 21007KT 10SM SCT120 22/17 A2989

2010/08/08 05:53
KMCI 080553Z 17008KT 10SM FEW250 26/21 A2986

2010/08/08 05:51
KMDW 080551Z 21007KT 9SM CLR 24/17 A2990

2010/08/08 05:52
KMHK 080552Z AUTO 19007KT 10SM CLR 28/22 A2982

2010/08/08 05:54
KMKC 080554Z 18007KT 10SM CLR 28/21 A2986

2010/08/08 05:52
KMKE 080552Z 22011KT 9SM CLR 23/18 A2986

2010/08/08 05:55
KMKG 080555Z 20009KT 10SM BKN055 OVC070 25/22 A2987

2010/08/08 05:52
KMLI 080552Z 20008KT 9SM CLR 24/19 A2987

2010/08/08 05:54
KMOT 080554Z AUTO 22008KT 10SM CLR 22/18 A2966

2010/08/08 05:53
KMSN 080553Z 19008G16KT 9SM CLR 23/19 A2984

2010/08/08 05:53
KMSP 080553Z COR 19007KT 9SM SCT055 BKN080 27/22 A2968

2010/08/08 05:53
KMSP 080553Z 19007KT 9SM SCT055 BKN080 27/22 A2968

2010/08/08 05:55
KOFF 080555Z AUTO 16009KT 10SM CLR 26/23 A2979

2010/08/08 05:52
KOMA 080552Z 16009KT 10SM CLR 27/23 A2979

2010/08/08 05:51
KORD 080551Z 21008KT 10SM CLR 24/18 A2990

2010/08/08 05:53
KOSH 080553Z AUTO 21010G15KT 10SM CLR 24/18 A2981

2010/08/08 05:53
KOTM 080553Z AUTO 19008KT 5SM BR CLR 23/22 A2986

2010/08/08 05:56
KOWB 080556Z AUTO 00000KT 9SM CLR 20/18 A2997

2010/08/08 05:53
KPAH 080553Z AUTO 00000KT 7SM CLR 23/17 A2993

2010/08/08 05:54
KPIA 080554Z 19007KT 7SM CLR 22/19 A2992

2010/08/08 05:53
KPIR 080553Z AUTO 20004KT 10SM CLR 24/17 A2970

2010/08/08 05:54
KPLN 080554Z AUTO 15003KT 4SM BR CLR 17/17 A2978

2010/08/08 05:53
KPTK 080553Z 20004KT 10SM SCT150 21/16 A2993

2010/08/08 05:53
KPUB 080553Z AUTO 33006KT 10SM SCT110 21/17 A2999

2010/08/08 05:52
KRAP 080552Z AUTO 35020G27KT 10SM CLR 22/13 A2985

2010/08/08 05:54
KRFD 080554Z 20008KT 10SM CLR 21/18 A2989

2010/08/08 05:54
KRKS 080554Z AUTO 16014KT 10SM CLR 16/06 A3011

2010/08/08 05:54
KRST 080554Z AUTO 20010G17KT 8SM FEW075 24/22 A2977

2010/08/08 05:59
KSAW 080559Z AUTO 28003KT 10SM SCT060 BKN120 17/14 A2975

2010/08/08 05:56
KSDF 080556Z 00000KT 9SM CLR 24/16 A2998

2010/08/08 05:53
KSDM 080553Z AUTO 00000KT 10SM OVC012 16/12 A2993

2010/08/08 05:52
KSGF 080552Z 15009KT 10SM CLR 26/21 A2992

2010/08/08 05:53
KSLN 080553Z AUTO 16009KT 10SM CLR 28/21 A2982

2010/08/08 05:52
KSPI 080552Z AUTO 17007KT 10SM CLR 23/18 A2994

2010/08/08 05:53
KSTC 080553Z AUTO 07003KT 8SM BKN039 22/21 A2969

2010/08/08 05:53
KSTJ 080553Z 17006KT 9SM CLR 26/21 A2984

2010/08/08 05:51
KSTL 080551Z 15009KT 7SM CLR 26/17 A2994

2010/08/08 05:53
KSTP 080553Z AUTO 21009G14KT 10SM VCTS FEW055 SCT090 SCT110 28/22 A2968

2010/08/08 05:54
KSUS 080554Z AUTO 00000KT 8SM CLR 24/18 A2991

2010/08/08 05:52
KSUX 080552Z 18009KT 10SM CLR 26/22 A2975

2010/08/08 05:53
KTVC 080553Z AUTO 00000KT 8SM BKN034 22/20 A2979

2010/08/08 05:54
KUIN 080554Z AUTO 16006KT 7SM CLR 23/19 A2991

2010/08/08 05:53
KWRL 080553Z AUTO 35004KT 10SM CLR 21/09 A2990

2010/08/08 05:53
KYIP 080553Z 20008KT 8SM CLR 20/16 A2995

2010/08/08 05:54
KAPN 080554Z AUTO 21005KT 10SM CLR 19/16 A2981

2010/08/08 05:55
KINL 080555Z AUTO 00000KT 10SM FEW090 15/14 A2972

2010/08/08 05:54
KSBN 080554Z 19008KT 9SM BKN080 OVC100 23/18 A2994

2010/08/08 05:55
KGZL 080555Z AUTO 11006KT 10SM CLR 25/24 A2987 RMK AO2 LTG DSNT S AND SW

2010/08/08 05:55
KHRT 080555Z AUTO 00000KT 10SM BKN120 26/26 A2990 RMK AO2 SLP126 60001 T02560256 10260 20254 403380247 58002 $

2010/08/08 05:55
KLUF 080555Z AUTO 00000KT 10SM BKN150 30/18 A2982 RMK AO2 SLP074 T02960181 10336 20287 51014 $

2010/08/08 05:56
KNXX 080556Z AUTO 00000KT 10SM FEW095 22/15 A3002 RMK AO2 SLP170 T02170150 10267 20217 50005 $

2010/08/08 06:15
KRQO 080615Z AUTO 00000KT 10SM CLR 27/21 A2986 RMK AO2

2010/08/08 05:55
KVAD 080555Z 00000KT 6SM R18/4500V5500FT BR FEW002 24/24 A2993 RMK AO2A VIS 1 RWY36 SLP133 60018 T02450243 10251 20245 50000 $

2010/08/08 06:06
KSGJ 080606Z AUTO 16003KT 10SM BKN024 OVC075 26/24 A2994 RMK AO2

2010/08/08 05:54
KVAD 080554Z 00000KT 7SM R18/5000V5500FT FEW002 24/24 A2993 RMK AO2A VIS 1 RWY36 SLP134 $

2010/08/08 06:00
LRBC 080600Z 00000KT 7000 BKN046 24/21 Q1014

2010/08/08 06:00
LRCV 080600Z AUTO 30004KT 260V350 8000 SCT100 21/19 Q1014

2010/08/08 06:00
LRIA 080600Z VRB02KT CAVOK 23/19 Q1015

2010/08/08 06:00
LRSV 080600Z 29004KT CAVOK 22/19 Q1016

2010/08/08 06:00
LRTC 080600Z 35008KT 9999 FEW010 SCT028CB 27/26 Q1012

2010/08/08 06:00
LCLK 080600Z 13004KT 080V180 9999 FEW025 29/23 Q1008 NOSIG

2010/08/08 06:00
LCPH 080600Z 28009KT 250V320 9999 FEW022 29/23 Q1008

2010/08/08 06:00
OEJN 080600Z 18005KT CAVOK 35/27 Q1002 NOSIG

2010/08/08 06:00
OYSN 080600Z VRB02KT 8000 NSC 24/10 Q1022

2010/08/08 06:00
LEBG 080600Z 05011KT 7000 FEW003 13/12 Q1022

2010/08/08 06:00
LEHC 080600Z VRB02KT 9999 FEW045 20/17 Q1020

2010/08/08 05:50
OAKN 080550Z 18006KT 9000 DU FEW120 BKN180 35/07 Q1006 BLU NOSIG RMK A2972 DA6600

2010/08/08 06:00
SGAS 080600Z 16006KT CAVOK 16/11 Q1014

2010/08/08 06:00
SGES 080600Z 09006KT CAVOK 14/13 Q1016

2010/08/08 06:00
ZBAA 080600Z 22002MPS 150V280 CAVOK 31/20 Q1003 NOSIG

2010/08/08 06:00
ZBSJ 080600Z 10002MPS 2000 R33/1400 HZ NSC 28/23 Q1003 NOSIG

2010/08/08 06:00
ZBTJ 080600Z 14002MPS 080V250 3000 HZ NSC 29/22 Q1003 NOSIG

2010/08/08 06:00
ZBYN 080600Z 13002MPS 8000 NSC 30/18 Q1006 NOSIG

2010/08/08 06:00
ZGGG 080600Z VRB01MPS 9999 FEW023 BKN050 33/24 Q1003 NOSIG

2010/08/08 06:00
ZSHC 080600Z 09004MPS 060V170 9999 BKN025 33/22 Q1004 NOSIG

2010/08/08 06:00
ZSPD 080600Z 10006MPS 070V130 9999 BKN020 30/25 Q1006 NOSIG

2010/08/08 06:00
ZSSS 080600Z 12004MPS 090V160 CAVOK 33/21 Q1005 NOSIG

2010/08/08 06:00
ZWSH 080600Z 13002MPS 090V180 CAVOK 29/17 Q1010 NOSIG

2010/08/08 06:00
ZWWW 080600Z 01003MPS 340V040 CAVOK 28/09 Q1009 NOSIG

2010/08/08 06:00
ZYTL 080600Z 18003MPS 170V240 4000 +TSRA BR BKN005 BKN033 SCT040CB 22/21 Q1006 NOSIG

2010/08/08 06:00
SARP 080600Z 14003KT CAVOK 14/11 Q1015

2010/08/08 06:00
SCAT 080600Z VRB02KT 5000 HZ SKC 07/05 Q1017

2010/08/08 05:50
EGDM 080550Z AUTO 33008KT 9999NDV OVC032/// 14/11 Q1020

2010/08/08 05:50
EGDY 080550Z AUTO 29003KT 9999NDV SCT021/// OVC036/// 14/12 Q1020

2010/08/08 05:50
EGOV 080550Z AUTO 09002KT 9999NDV NCD 09/09 Q1021

2010/08/08 05:50
EGWU 080550Z AUTO 33003KT 9999NDV // OVC020/// 15/13 Q1019

2010/08/08 05:50
EGXT 080550Z AUTO 32008KT 9999NDV NCD 13/11 Q1019

2010/08/08 06:00
UDYZ 080600Z VRB01MPS 9999 SKC 27/12 Q1013 09010070 NOSIG

2010/08/08 06:00
UDSG 080600Z VRB02MPS 9999 NSC 25/09 Q1018 02CLRD70 NOSIG

2010/08/08 05:50
EGWU 080550Z AUTO 33003KT 9999NDV // OVC020/// 15/13 Q1019

2010/08/08 06:00
VHHH 080600Z 12011KT 090V170 9999 FEW025 SCT060 33/24 Q1003 NOSIG

2010/08/08 06:00
YPAD 080600Z 02005KT CAVOK 12/07 Q1012 INTER 0730/0900 30020G30KT 5000 SHRA BKN030

2010/08/08 06:00
YPAD 080600Z 02005KT CAVOK 12/07 Q1012 INTER 0730/0900 30020G30KT 5000 SHRA BKN030

2010/08/08 06:00
YPAD 080600Z 02005KT CAVOK 12/07 Q1012 INTER 0730/0900 30020G30KT 5000 SHRA BKN030

2010/08/08 06:00
YPAD 080600Z 02005KT CAVOK 12/07 Q1012 INTER 0730/0900 30020G30KT 5000 SHRA BKN030

2010/08/08 05:53
KACV 080553Z AUTO 00000KT 1SM R32/5000VP6000FT BR VV001 12/12 A2995

2010/08/08 05:53
KALW 080553Z AUTO 18011KT 10SM CLR 23/11 A2984

2010/08/08 05:53
KBFI 080553Z 22006KT 10SM BKN011 BKN020 OVC095 17/14 A2991

2010/08/08 05:54
KBFL 080554Z AUTO 35010KT 10SM CLR 26/05 A2976

2010/08/08 05:53
KBIL 080553Z 24007KT 10SM CLR 20/12 A2982

2010/08/08 05:53
KBKE 080553Z AUTO 00000KT 10SM CLR 14/09 A2990

2010/08/08 05:53
KBLI 080553Z AUTO 16004KT 10SM OVC003 17/16 A2989

2010/08/08 05:53
KBOI 080553Z 13006KT 10SM CLR 24/04 A2979

2010/08/08 05:53
KBTM 080553Z AUTO 17006KT 10SM CLR 12/09 A2999

2010/08/08 05:53
KBUR 080553Z 18004KT 10SM CLR 16/12 A2990

2010/08/08 05:53
KBYI 080553Z AUTO 00000KT 10SM CLR 17/09 A2987

2010/08/08 05:56
KBZN 080556Z AUTO 18006KT 10SM CLR 17/08 A2992

2010/08/08 05:53
KCDC 080553Z AUTO 26012G16KT 10SM VCTS BKN090 OVC110 18/09 A3011

2010/08/08 05:56
KCEC 080556Z AUTO 14007KT 1SM BR VV001 13/13 A2992

2010/08/08 05:53
KCLM 080553Z AUTO 28006KT 4SM BR OVC001 14/14 A2992

2010/08/08 05:56
KCTB 080556Z AUTO 26010KT 10SM CLR 18/06 A2980

2010/08/08 05:56
KEKO 080556Z AUTO 03003KT 10SM CLR 22/02 A2991

2010/08/08 05:54
KEUG 080554Z 00000KT 10SM FEW040 17/14 A2993

2010/08/08 05:53
KFAT 080553Z 32009KT 10SM CLR 25/11 A2976

2010/08/08 05:56
KFLG 080556Z AUTO 00000KT 1 1/4SM BR OVC001 13/13 A3024

2010/08/08 05:54
KGCN 080554Z AUTO 00000KT 10SM CLR 11/09 A3020

2010/08/08 05:53
KGEG 080553Z 25008KT 10SM FEW080 BKN140 OVC200 21/08 A2981

2010/08/08 05:53
KGGW 080553Z AUTO 06009KT 10SM CLR 20/12 A2969

2010/08/08 05:53
KGTF 080553Z 20007KT 10SM CLR 16/05 A2981

2010/08/08 05:53
KHLN 080553Z AUTO 27005KT 10SM CLR 21/07 A2984

2010/08/08 05:53
KHQM 080553Z AUTO 26009KT 9SM OVC005 14/13 A2995

2010/08/08 05:53
KIDA 080553Z AUTO 20008KT 10SM CLR 22/08 A2992

2010/08/08 05:56
KIWA 080556Z AUTO 02008KT 10SM CLR 32/18 A2985

2010/08/08 05:56
KLAS 080556Z 17012G20KT 10SM FEW120CB BKN180 32/13 A2976

2010/08/08 05:53
KLAX 080553Z 24004KT 10SM BKN012 16/12 A2991

2010/08/08 05:53
KLGB 080553Z AUTO 00000KT 10SM CLR 17/13 A2991

2010/08/08 06:00
SANT 080600Z 27004KT 8000 06/02 Q1020

2010/08/08 06:00
SARP 080600Z 14003KT CAVOK 14/11 Q1015

2010/08/08 06:03
KSEA 080603Z 26005KT 10SM SCT006 OVC019 16/14 A2992

2010/08/08 05:53
KLMT 080553Z AUTO 32008KT 10SM FEW090 17/08 A2997

2010/08/08 05:53
KLVM 080553Z AUTO 27012KT 10SM CLR 19/06 A2990

2010/08/08 05:53
KMFR 080553Z AUTO 00000KT 10SM CLR 23/12 A2988

2010/08/08 05:53
KMLS 080553Z AUTO 22007KT 10SM CLR 22/11 A2976

2010/08/08 05:54
KMRY 080554Z AUTO 22005KT 9SM OVC006 13/11 A2990

2010/08/08 05:53
KMSO 080553Z AUTO 00000KT 10SM CLR 18/06 A2985

2010/08/08 05:53
KMYV 080553Z AUTO 16008KT 10SM CLR 20/13 A2973

2010/08/08 05:56
KNTD 080556Z 00000KT 10SM OVC009 15/14 A2989

2010/08/08 05:53
KOAK 080553Z 26011KT 10SM FEW005 SCT008 SCT011 15/12 A2986

2010/08/08 05:53
KOGD 080553Z AUTO 16005KT 10SM CLR 21/08 A2994

2010/08/08 05:54
KOLM 080554Z AUTO 20006KT 10SM BKN046 OVC055 16/14 A2992

2010/08/08 05:53
KONT 080553Z 25007KT 10SM CLR 16/12 A2990

2010/08/08 05:55
KOTH 080555Z 34004KT 1 1/2SM OVC004 15/15 A2999

2010/08/08 05:53
KPAE 080553Z AUTO 21006KT 3SM BR BKN008 OVC016 16/15 A2991

2010/08/08 05:53
KPDX 080553Z 33005KT 10SM FEW020 BKN042 OVC050 19/16 A2992

2010/08/08 05:51
KPHX 080551Z 00000KT 10SM BKN150 29/21 A2981

2010/08/08 05:53
KPIH 080553Z AUTO 19012KT 10SM CLR 24/04 A2991

2010/08/08 05:53
KPMD 080553Z AUTO 20012KT 10SM CLR 23/M02 A2989

2010/08/08 05:53
KPRB 080553Z AUTO 20006KT 10SM CLR 14/10 A2988

2010/08/08 05:53
KPRC 080553Z AUTO 21004KT 10SM CLR 16/14 A3010

2010/08/08 05:53
KPSP 080553Z 31015G21KT 10SM FEW090 30/06 A2970

2010/08/08 05:54
KRBL 080554Z AUTO 19007KT 10SM CLR 26/14 A2974

2010/08/08 05:53
KRDD 080553Z AUTO 21004KT 10SM CLR 28/12 A2974

2010/08/08 05:56
KRDM 080556Z AUTO 02004KT 10SM CLR 17/09 A2994

2010/08/08 05:55
KRNO 080555Z 02004KT 10SM FEW090 SCT120 BKN150 23/02 A2993

2010/08/08 05:53
KRNT 080553Z AUTO 22005KT 8SM -RA FEW013 BKN027 OVC055 17/16 A2990

2010/08/08 05:53
KSAC 080553Z 19008G15KT 10SM CLR 17/11 A2975

2010/08/08 05:51
KSAN 080551Z 22004KT 10SM OVC018 17/12 A2994

2010/08/08 05:53
KSBA 080553Z 16003KT 10SM OVC009 14/12 A2989

2010/08/08 05:56
KSBP 080556Z AUTO 32005KT 10SM OVC014 14/11 A2990

2010/08/08 05:55
KSCK 080555Z AUTO 29005KT 10SM CLR 20/12 A2975

2010/08/08 05:53
KSEA 080553Z 27007KT 10SM BKN006 BKN010 OVC019 16/15 A2992

2010/08/08 05:53
KSFF 080553Z AUTO 27003KT 10SM CLR 23/08 A2979

2010/08/08 05:56
KSFO 080556Z 27007KT 10SM FEW006 14/10 A2985

2010/08/08 05:53
KSHR 080553Z AUTO 17007KT 10SM CLR 18/11 A2986

2010/08/08 05:53
KSJC 080553Z 11007KT 10SM FEW011 16/11 A2985

2010/08/08 05:53
KSLC 080553Z 17009KT 10SM FEW070 SCT120 23/11 A2992

2010/08/08 05:53
KSMF 080553Z 16009KT 10SM CLR 17/12 A2973

2010/08/08 05:51
KSMX 080551Z AUTO 00000KT 10SM OVC006 12/11 A2991

2010/08/08 05:53
KSNA 080553Z 15005KT 10SM OVC014 19/13 A2991

2010/08/08 05:53
KSNS 080553Z AUTO 27005KT 9SM OVC006 13/12 A2990

2010/08/08 05:53
KTIW 080553Z AUTO 23005KT 10SM FEW012 BKN018 OVC031 16/14 A2992

2010/08/08 05:53
KTUS 080553Z 04005KT 10SM VCTS OVC070 24/18 A3001

2010/08/08 05:53
KTVL 080553Z AUTO 20007KT 10SM CLR 16/06 A3005

2010/08/08 05:53
KTWF 080553Z AUTO 18005KT 10SM CLR 21/08 A2988

2010/08/08 05:56
KUKI 080556Z AUTO 00000KT 10SM CLR 19/11 A2981

2010/08/08 05:53
KYKM 080553Z AUTO 36008KT 10SM OVC110 21/12 A2984

2010/08/08 05:50
EGXE 080550Z AUTO 32003KT 9999NDV OVC050/// 13/12 Q1020

2010/08/08 06:00
LEGT 080600Z 09005KT CAVOK 24/14 Q1019

2010/08/08 06:00
LELO 080600Z 29007KT CAVOK 16/13 Q1021

2010/08/08 06:00
LERI 080600Z 27001KT CAVOK 18/17 Q1018 NOSIG

2010/08/08 06:00
LERT 080600Z 11012KT CAVOK 28/02 Q1015 NOSIG

2010/08/08 06:00
LFCG 080600Z VRB01KT CAVOK 15/13 Q1022

2010/08/08 06:00
LFDB 080600Z 29006KT 250V310 CAVOK 17/14 Q1020

2010/08/08 06:00
LFDH 080600Z VRB02KT 9999 BKN008 16/15 Q1021

2010/08/08 05:53
LFHP 080553Z 00000KT 9999 FEW033 12/12 Q1021

2010/08/08 06:00
LFOF 080600Z 26004KT 5000 SCT003 14/13 Q1020 TEMPO 1000 BR BKN003

2010/08/08 06:00
LFOI 080600Z 32003KT 290V350 8000 BKN010 16/15 Q1018

2010/08/08 06:00
LFOR 080600Z 32005KT 270V350 1000 BR BKN003 13/13 Q1020

2010/08/08 06:00
LFPM 080600Z 26004KT 9999 FEW013 16/14 Q1019

2010/08/08 06:00
LFTW 080600Z AUTO VRB02KT 9999NDV NSC 21/09 Q1018

2010/08/08 06:00
LJLJ 080600Z VRB01KT 9999 FEW002 16/13 Q1019 NOSIG

2010/08/08 06:00
LJMB 080600Z VRB01KT CAVOK 16/15 Q1018

2010/08/08 06:00
LJPZ 080600Z 12005KT 090V150 CAVOK 18/14 Q1017

2010/08/08 06:00
LPPD 080600Z 04006KT 9999 FEW020 SCT050 19/16 Q1022

2010/08/08 06:00
LRAR 080600Z 33004KT 290V350 CAVOK 20/17 Q1018

2010/08/08 06:00
LRBC 080600Z 00000KT 7000 BKN046 24/21 Q1014

2010/08/08 06:00
LRBM 080600Z 26006KT 9999 FEW060 19/16 Q1016

2010/08/08 06:00
LRCL 080600Z 00000KT 9999 FEW020 BKN045 19/16 Q1018 0821//95

2010/08/08 06:00
LRCV 080600Z AUTO 30004KT 260V350 8000 SCT100 21/19 Q1014

2010/08/08 06:00
LRIA 080600Z VRB02KT CAVOK 23/19 Q1015

2010/08/08 06:00
LROD 080600Z VRB02KT CAVOK 20/16 Q1018

2010/08/08 06:00
LRSM 080600Z AUTO 24004KT 170V280 9999 NCD 20/16 Q1017

2010/08/08 06:00
LRSV 080600Z 29004KT CAVOK 22/19 Q1016

2010/08/08 06:00
LRTC 080600Z 35008KT 9999 FEW010 SCT028CB 27/26 Q1012

2010/08/08 06:00
LRTM 080600Z 25004KT 220V290 5000 BR SCT008 BKN010 19/18 Q1017 0729//95

2010/08/08 06:00
CBBC 080600Z AUTO 00000KT 9SM BKN035 BKN075 OVC096 A2993

2010/08/08 06:00
CYKA 080600Z 08002KT 40SM FEW060 BKN140 18/13 A2977 RMK CU2AC3 SLP080

2010/08/08 06:00
CYLW 080600Z AUTO 14007KT OVC110 19/09 A2979 RMK SLP085 DENSITY ALT 2300FT WX MISG VIS MISG ICG MISG

2010/08/08 06:00
CYMA 080600Z 00000KT 20SM FEW050 BKN240 14/11 A2964 RMK SC2CI0 CLIMAT 22.5/13.8/0.6MM SLP047

2010/08/08 06:00
CYQH 080600Z 29009KT 30SM BKN030 16/10 A2964 RMK SC6 CLIMAT 22.1 / 16.0 SLP039

2010/08/08 06:00
CYQU 080600Z 23011KT 25SM FEW100 SCT250 15/07 A2964 RMK AC1CI0 SLP038

2010/08/08 06:00
CYWL 080600Z 12002KT 15SM FEW030 FEW220 13/11 A2979 RMK CU2CI0 SLP089

2010/08/08 06:00
CYXJ 080600Z 26008KT 15SM FEW070 FEW100 16/08 A2959 RMK AC2AC1 SLP023

2010/08/08 06:00
CYXT 080600Z 18008KT 20SM FEW036 BKN060 15/10 A2988 RMK SC2SC5 SLP121

2010/08/08 06:00
CYXY 080600Z 15008KT 40SM BKN060 BKN090 14/09 A2970 RMK SC5AC2 SLP069

2010/08/08 06:00
CYYD 080600Z AUTO 30006KT 260V330 9SM BKN061 OVC074 16/09 A2979 RMK SLP088 DENSITY ALT 2300FT

2010/08/08 06:00
CYYE 080600Z 21007KT 15SM OVC060 17/09 A2951 RMK SC8 SLP998

2010/08/08 06:00
CYYF 080600Z 02002KT 15SM SCT090 BKN140 OVC240 20/10 A2979 RMK AC3AC2CI1 SLP083

2010/08/08 06:00
CYZY 080600Z AUTO VRB02KT 9SM SCT061 OVC078 14/13 A2969 RMK SLP062 DENSITY ALT 2900FT

2010/08/08 06:00
CYOD 080600Z CCA 20003KT 15SM FEW060CB FEW240 18/15 A2962 RMK CB1CI1 CB DIST SW MOVG NE WITH ONCL LGTNG SLP030

2010/08/08 06:00
CWEU 080600Z 16002KT 30SM FEW003 FEW035 BKN100 02/01 A2981 RMK CF1SC2AC4 SLP097

2010/08/08 06:00
CWFD 080600Z AUTO 09007G15KT 9SM 08/ RMK ALTM MISG

2010/08/08 06:00
CWKP 080600Z AUTO 30011KT 08/ A2952 RMK SLP017

2010/08/08 06:00
CWRH 080600Z AUTO ///// 04/ A2929 RMK SLP943

2010/08/08 06:00
CWSA 080600Z AUTO 28006KT 9SM CLR 16/13 A3005 RMK SLP177

2010/08/08 06:00
CWTU 080600Z AUTO 25007KT 09/ A2964 RMK SLP044

2010/08/08 06:00
CWXR 080600Z AUTO 29012KT 09/ A2952 RMK SLP004

2010/08/08 06:00
CWYM 080600Z AUTO 07031G41KT 05/ RMK ALTM MISG SLP078

2010/08/08 06:00
CYPD 080600Z AUTO 28004KT 9SM CLR 12/08 A3002 RMK SLP170

2010/08/08 06:00
CZPC 080600Z AUTO 27008KT 9SM CLR 14/11 A2980 RMK SLP075

2010/08/08 06:00
CZUM 080600Z AUTO 19006KT 9SM FEW048 08/06 A2963 RMK SLP047

2010/08/08 06:00
CWCA 080600Z 20005KT 15SM FEW030 FEW080 11/10 A2965 RMK SC1AC2 SLP041

2010/08/08 06:00
CWCL 080600Z AUTO 25004KT 9SM FEW063 FEW076 11/10 A2982 RMK SLP098

2010/08/08 06:00
CWIL 080600Z AUTO 16016KT 11/ A2977 RMK SLP087

2010/08/08 06:00
CWKM 080600Z AUTO 03003KT 05/ A2981 RMK SLP099

2010/08/08 06:00
CWKW 080600Z AUTO 14004KT 06/ A2918 RMK SLP899

2010/08/08 06:00
CWLI 080600Z AUTO 03013KT 08/ A2958 RMK SLP029

2010/08/08 06:00
CWLX 080600Z AUTO 05005KT 11/ A2982 RMK SLP109

2010/08/08 06:00
CWLY 080600Z AUTO 20016G28KT 9SM CLR 19/12 A2978 RMK SLP084

2010/08/08 06:00
CWOB 080600Z AUTO ///// 0SM CLR 05/ A2947 RMK SLP013

2010/08/08 06:00
CWPX 080600Z AUTO ///// 15/ A2962 RMK SLP042

2010/08/08 06:00
CWRX 080600Z AUTO 36009KT 08/ A2983

2010/08/08 06:00
CWUP 080600Z AUTO 26002KT 02/ A2986 RMK SLP136

2010/08/08 06:00
CWUW 080600Z AUTO ///// 9SM CLR 06/ A2982 RMK SLP125

2010/08/08 06:00
CWVH 080600Z AUTO 35013KT 07/ A2962 RMK SLP047

2010/08/08 06:00
CWYK 080600Z AUTO ///// 05/ A2936 RMK SLP966

2010/08/08 06:00
CWZZ 080600Z AUTO ///// 9SM BKN009 OVC053 OVC082 08/ A2927 RMK SLP929

2010/08/08 06:00
CZBF 080600Z 00000KT 15SM SKC 07/05 A2992 RMK SLP135

2010/08/08 06:00
CZCP 080600Z AUTO 06013KT 3/4SM CLR 07/ A2958 RMK SLP024

2010/08/08 06:00
CWHN 080600Z AUTO 27003KT 3 1/2SM CLR 15/14 A2961 RMK SLP029

2010/08/08 06:00
CYBK 080600Z 00000KT 15SM FEW050 07/04 A2987 RMK SC1 SLP116

2010/08/08 06:00
CYBR 080600Z 10003KT 15SM SKC 19/19 A2963 RMK OCNL LTGCG DIST NW SLP034

2010/08/08 06:00
CYBU 080600Z AUTO 31005KT 8SM CLR 15/15 A2960 RMK SLP030 DENSITY ALT 1800FT

2010/08/08 06:00
CYDN 080600Z AUTO 36005KT 220V020 9SM BKN120 21/18 A2958 RMK SLP017 DENSITY ALT 2300FT

2010/08/08 06:00
CYEN 080600Z 29006KT 15SM FEW220 17/14 A2968 RMK CS1 SLP050

2010/08/08 06:00
CYET 080600Z AUTO 28004KT 270V340 9SM FEW080 BKN090 14/10 A2970 RMK SLP055

2010/08/08 06:00
CYKJ 080600Z AUTO 11008KT 9SM OVC029 15/13 A2964 RMK SLP048 DENSITY ALT 2300FT

2010/08/08 06:00
CYLL 080600Z AUTO 25007KT 6SM BR CLR 15/13 A2964 RMK SLP038 DENSITY ALT 3000FT

2010/08/08 06:00
CYNE 080600Z AUTO 09006KT 9SM FEW073 BKN095 18/13 A2965 RMK SLP042

2010/08/08 06:00
CYOJ 080600Z 00000KT 8SM FEW030 FEW080 BKN250 18/15 A2947 RMK SC1AC1CI1 FU SLP982

2010/08/08 06:00
CYPA 080600Z 00000KT 15SM FEW250 17/16 A2963 RMK CI0 SLP036

2010/08/08 06:00
CYPY 080600Z AUTO 14003KT 110V170 9SM CLR 19/16 A2950 RMK SLP994

2010/08/08 06:00
CYQF 080600Z 25007KT 15SM FEW250 12/10 A2971 RMK CI1 SLP062

2010/08/08 06:00
CYQL 080600Z AUTO 25007KT 9SM CLR 14/11 A2973 RMK SLP057

2010/08/08 06:00
CYQR 080600Z 33008KT 15SM SKC 16/14 A2968 RMK SLP051

2010/08/08 06:00
CYQW 080600Z AUTO 14003KT 9SM CLR 15/14 A2966 RMK SLP050 DENSITY ALT 2500FT

2010/08/08 06:00
CYVC 080600Z 00000KT 15SM BKN250 17/15 A2961 RMK CI6 SLP031

2010/08/08 06:00
CYXD 080600Z AUTO 24006KT 9SM OVC088 19/12 A2965 RMK SLP036

2010/08/08 06:00
CYYL 080600Z AUTO 11005KT 9SM OVC210 16/09 A2971 RMK SLP068 DENSITY ALT 1800FT

2010/08/08 06:00
CYYN 080600Z AUTO 19007KT 9SM CLR 16/13 A2970 RMK SLP051

2010/08/08 06:00
CYZH 080600Z AUTO 06002KT 9SM CLR 17/14 A2959 RMK SLP022

2010/08/08 06:00
CYBC 080600Z AUTO 22010KT 9SM FEW033 FEW041 BKN053 OVC093 12/09 A2977 RMK SLP083

2010/08/08 06:00
CYBN 080600Z AUTO 19009G15KT 9SM CLR 20/12 A2989 RMK SLP121

2010/08/08 06:00
CYGQ 080600Z 00000KT 15SM SKC 14/11 A2975 RMK SLP078

2010/08/08 06:00
CYHM 080600Z 22006KT 15SM BKN053 19/16 A2994 RMK SC7 SLP138

2010/08/08 06:00
CYKF 080600Z AUTO 20007KT 9SM FEW045 BKN110 17/13 A2994 RMK SLP137 DENSITY ALT 1500FT

2010/08/08 06:00
CYKL 080600Z AUTO 22010KT 9SM CLR 07/06 A2952 RMK SLP013

2010/08/08 06:00
CYKZ 080600Z 20005KT 15SM SCT051 19/12 A2993 RMK SC3 SLP133

2010/08/08 06:00
CYOO 080600Z AUTO 16002KT 9SM SCT049 BKN071 BKN110 16/15 A2992 RMK SLP134 DENSITY ALT 600FT

2010/08/08 06:00
CYQA 080600Z AUTO 16005KT 9SM BKN051 OVC110 16/14 A2988 RMK SLP119 DENSITY ALT 1300FT

2010/08/08 06:00
CYQK 080600Z 11004KT 15SM SKC 18/15 A2973 RMK SLP066

2010/08/08 06:00
CYSB 080600Z 19003KT 15SM FEW060 SCT095 16/14 A2982 RMK SC1AC2 SLP100

2010/08/08 06:00
CYSC 080600Z AUTO VRB02KT 9SM CLR 06/06 A2996 RMK SLP154 PCPN 0.5MM PAST HR

2010/08/08 06:00
CYVO 080600Z AUTO 26002KT 9SM SCT044 BKN057 15/11 A2976 RMK SLP085

2010/08/08 06:00
CYVQ 080600Z 00000KT 30SM FEW060 FEW100 BKN280 19/11 A2958 RMK SC1AC1CI2 SLP017

2010/08/08 06:00
CYXL 080600Z 00000KT 15SM SKC 15/13 A2974 RMK SLP074

2010/08/08 06:00
CYXU 080600Z 21006KT 15SM FEW100 20/17 A2995 RMK AC2 SLP138

2010/08/08 06:00
CYYB 080600Z 17004KT 15SM OVC050 16/11 A2984 RMK SC8 SLP106

2010/08/08 06:00
CYYH 080600Z 14009KT 15SM SCT250 11/05 A2985 RMK CI0 LAST OBS/NEXT 081400Z. SLP111

2010/08/08 06:00
CYYU 080600Z 26005KT 15SM BKN075 15/11 A2971 RMK AC6 SLP065

2010/08/08 06:00
CYDB 080600Z AUTO 05003KT 9SM SCT050 10/08 A2968 RMK SLP072

2010/08/08 06:00
CYDQ 080600Z AUTO 23010KT 9SM BKN096 17/09 A2960 RMK SLP028 DENSITY ALT 3200FT

2010/08/08 06:00
CYEV 080600Z 31007KT 2SM -DZ BR OVC006 10/10 A2962 RMK ST8 SLP034

2010/08/08 06:00
CYHE 080600Z AUTO 28005KT 250V310 3 1/2SM DZ OVC029 17/16 A2988 RMK SLP118

2010/08/08 06:00
CYIV 080600Z 08006KT 15SM BKN055 BKN090 BKN250 16/09 A2973 RMK SC5AC1CI0 SLP070

2010/08/08 06:00
CYKY 080600Z 12007KT 15SM FEW260 17/14 A2967 RMK CI2 SLP042

2010/08/08 06:00
CYQD 080600Z 09006KT 15SM -SHRA SCT035 BKN070 17/16 A2960 RMK SC3AC2 CB EMBD OCNL LTNG DIST E-SE SLP027

2010/08/08 06:00
CYQZ 080600Z AUTO VRB02KT 9SM FEW066 BKN089 16/12 A2975 RMK SLP081 DENSITY ALT 2500FT

2010/08/08 06:00
CYRV 080600Z AUTO 00000KT 9SM BKN081 16/16 A2978 RMK SLP084

2010/08/08 06:00
CYUA 080600Z AUTO 36009KT 1 1/2SM RA OVC004 OVC017 08/ A2972 RMK SLP068

2010/08/08 06:00
CYXC 080600Z 19007KT 25SM SCT075 BKN120 16/12 A2982 RMK CU3AC4 SLP090

2010/08/08 06:00
CYXE 080600Z 22005KT 6SM BR SKC 16/16 A2965 RMK SLP040

2010/08/08 06:00
CYXS 080600Z AUTO 19005KT 9SM FEW066 OVC093 14/11 A2974 RMK SLP079 DENSITY ALT 2800FT

2010/08/08 06:00
CYZP 080600Z AUTO 24006KT 9SM OVC043 14/10 A2995 RMK SLP142

2010/08/08 06:00
CYAY 080600Z AUTO 25015G22KT 9SM CLR 13/10 A2973 RMK SLP069 MAX WND 25024KT AT 0532Z

2010/08/08 06:00
CYCX 080600Z AUTO 20007KT 9SM 11/07 A2999 RMK SLP157

2010/08/08 06:00
CYGW 080600Z 18010KT 10SM SKC 09/08 A2945 RMK SLP973

2010/08/08 06:00
CYSJ 080600Z 00000KT 15SM SKC 07/04 A3003 RMK SLP169

2010/08/08 06:00
CYYG 080600Z 23002KT 15SM SKC 13/11 A3000 RMK SLP158

2010/08/08 06:00
CYCB 080600Z 16015G20KT 15SM BKN060 BKN130 14/09 A2967 RMK SC6AC1 FU SLP048

2010/08/08 06:00
CYCO 080600Z 25006KT 5SM FU BKN035 BKN080 17/16 A2951 RMK SC3AC2 SLP994

2010/08/08 06:00
CYFS 080600Z 30010G15KT 15SM TS BKN060CB OVC210 19/16 A2945 RMK CB7CI1 FU SLP975

2010/08/08 06:00
CYHK 080600Z AUTO 19004KT 9SM CLR 11/08 A2982 RMK SLP103

2010/08/08 06:00
CYHY 080600Z 10005KT 14SM FEW050 SCT230 19/16 A2943 RMK SC2CI0 FU SLP969

2010/08/08 06:00
CYRT 080600Z 36004KT 15SM FEW240 09/07 A2983 RMK CI0 SLP102

2010/08/08 06:00
CYTE 080600Z AUTO 08013G19KT 9SM BKN037 BKN067 12/08 A2953 RMK SLP004

2010/08/08 06:00
CYVM 080600Z AUTO 05004KT 1/8SM VV001 04/04 A2991 RMK SLP130

2010/08/08 06:00
CYZS 080600Z 36018G24KT 15SM SCT050 10/06 A2962 RMK SC4 SLP034

2010/08/08 06:00
CWRF 080600Z AUTO ///// 08/ A2973

2010/08/08 06:00
CWVD 080600Z AUTO ///// 09/ A2988 RMK SLP149

2010/08/08 06:00
CYCY 080600Z AUTO 00000KT 3 1/2SM BKN003 OVC044 OVC079 OVC094 03/03 A2992 RMK SLP135

2010/08/08 06:00
CYED 080600Z AUTO 25005KT 8SM OVC092 17/14 A2965 RMK SLP038

2010/08/08 06:00
CYEK 080600Z AUTO 27008KT 9SM CLR 10/09 A2983 RMK SLP103

2010/08/08 06:00
CYIO 080600Z 15005KT 30SM FEW030 FEW080 FEW200 06/03 A2986 RMK SC0AC0CI1 CALL-OUT SLP117

2010/08/08 06:00
CYOD 080600Z 20003KT 15SM FEW060CB FEW240 18/15 A2962 RMK CB1CI2 CB DIST SW MOVG NE WITH ONCL LGTNG SLP030

2010/08/08 06:00
CYPE 080600Z 22008KT 15SM FEW250 15/08 A2956 RMK CI1 SLP012

2010/08/08 06:00
CYQV 080600Z AUTO 26007KT 9SM CLR 19/16 A2961 RMK SLP027

2010/08/08 06:00
CYSF 080600Z AUTO 07005KT 1 3/4SM BR SCT046 16/15 A2965 RMK SLP046 DENSITY ALT 1400FT

2010/08/08 06:00
CYTH 080600Z 09008KT 15SM BKN220 16/07 A2975 RMK CI6 SLP080

2010/08/08 06:00
CYUS 080600Z AUTO ///// 9SM CLR 08/ A2984 RMK SLP110

2010/08/08 06:00
CYUX 080600Z AUTO 01010KT 9SM CLR 07/02 A2987 RMK SLP115

2010/08/08 06:00
CYXH 080600Z AUTO 22004KT 200V260 8SM CLR 16/12 A2969 RMK SLP048

2010/08/08 06:00
CYAM 080600Z 04004KT 15SM OVC018 19/17 A2977 RMK SC8 CVCTV CLD EMBD CIG RAG SLP081

2010/08/08 06:00
CYGP 080600Z 00000KT 15SM SKC 08/06 A2988 RMK SLP120

2010/08/08 06:00
CYHD 080600Z AUTO 10003KT 9SM CLR 16/15 A2973 RMK SLP072

2010/08/08 06:00
CYHU 080600Z AUTO 19004KT 9SM SCT056 BKN069 OVC081 14/10 A2991 RMK SLP131 RVR MISG

2010/08/08 06:00
CYMO 080600Z AUTO 13002KT 9SM OVC065 12/11 A2961 RMK SLP029

2010/08/08 06:00
CYNA 080600Z AUTO 26011G17KT 9SM CLR 12/08 A2982 RMK SLP097

2010/08/08 06:00
CYPQ 080600Z AUTO ///// 9SM FEW078 BKN097 14/14 A2992 RMK SLP132

2010/08/08 06:00
CYQT 080600Z 36003KT 15SM FEW060 BKN090 16/14 A2975 RMK SC2AC4 SLP076

2010/08/08 06:00
CYRJ 080600Z 23014G26KT 20SM BKN050 15/07 A2973 RMK SC5 SLP070

2010/08/08 06:00
CYTS 080600Z 26004KT 15SM FEW070 15/10 A2974 RMK AC2 SLP074

2010/08/08 06:00
CYTZ 080600Z AUTO 25003KT 9SM BKN056 OVC069 19/15 A2992 RMK SLP132 DENSITY ALT 700FT RVR MISG

2010/08/08 06:00
CYVP 080600Z 24010G15KT 5SM -RA BR OVC034 10/07 A2928 RMK SC8 SLP915

2010/08/08 06:00
CYVV 080600Z 18008KT 15SM FEW050 19/15 A2986 RMK SC1 SLP110

2010/08/08 06:00
CYWA 080600Z AUTO 00000KT 9SM FEW093 13/11 A2985 RMK SLP112

2010/08/08 06:00
CYXR 080600Z AUTO 23007KT 9SM CLR 14/11 A2977 RMK SLP077

2010/08/08 06:00
CYZE 080600Z AUTO 17005KT 9SM CLR 18/17 A2978 RMK SLP087 DENSITY ALT 1200FT

2010/08/08 06:00
CYZR 080600Z AUTO 18005KT 9SM SCT091 OVC120 20/17 A2991 RMK SLP127 DENSITY ALT 1300FT

2010/08/08 06:00
CYBG 080600Z 18011G16KT 15SM BKN040 BKN075 16/06 A2978 RMK SC6AC2 SLP086

2010/08/08 06:00
CYEG 080600Z 18002KT 15SM OVC097 14/14 A2967 RMK AC8 SLP047

2010/08/08 06:00
CYFB 080600Z 07007KT 15SM SCT037 BKN063 11/05 A2947 RMK SC3SC4 SLP980

2010/08/08 06:00
CYFC 080600Z AUTO 22003KT 9SM CLR 08/06 A2999 RMK SLP158 RVR MISG

2010/08/08 06:00
CYGL 080600Z 20010KT 8SM -RA OVC003 07/07 A2952 RMK SF8 SLP005

2010/08/08 06:00
CYHZ 080600Z 20006KT 15SM SKC 10/08 A3006 RMK SLP179

2010/08/08 06:00
CYJT 080600Z 32004KT 15SM SKC 13/10 A2993 RMK SLP135

2010/08/08 06:00
CYMX 080600Z 24002KT 25SM SCT060 15/09 A2992 RMK SC2 SLP132

2010/08/08 06:00
CYOW 080600Z 22004KT 15SM FEW040 BKN220 16/13 A2991 RMK CF1CI6 SLP129

2010/08/08 06:00
CYQB 080600Z 25002KT 15SM BKN100 13/09 A2990 RMK AC7 SLP127

2010/08/08 06:00
CYQG 080600Z 22006KT 10SM FEW160 BKN250 22/17 A2994 RMK AC2CI2 SLP137

2010/08/08 06:00
CYQM 080600Z 22006KT 15SM SCT120 09/07 A3000 RMK AC3 SLP160

2010/08/08 06:00
CYQQ 080600Z 21002KT 1SM -RA BR BKN003 OVC025 16/16 A2989 RMK SF6SC2 SLP124

2010/08/08 06:00
CYQX 080600Z 24010G15KT 20SM FEW078 12/08 A2991 RMK AC1 SLP128

2010/08/08 06:00
CYQY 080600Z 21005KT 15SM SKC 12/09 A3001 RMK SLP164

2010/08/08 06:00
CYTR 080600Z 20008KT 15SM FEW055 FEW090 20/12 A2993 RMK SC1AC1 SLP134

2010/08/08 06:00
CYUL 080600Z 21012KT 15SM FEW060 BKN075 BKN240 17/12 A2991 RMK SC2AC4CI1 SLP129

2010/08/08 06:00
CYVR 080600Z 09003KT 15SM FEW005 BKN010 OVC025 17/14 A2990 RMK SF2SC5SC1 SLP124

2010/08/08 06:00
CYWG 080600Z 15008KT 15SM FEW120 19/16 A2964 RMK AC1 SLP038

2010/08/08 06:00
CYXX 080600Z 34002KT 2 1/2SM -RA BR BKN007 OVC020 17/13 A2990 RMK SF6SC2 CIG VRB 5-9 PCPN VRY LGT SLP124

2010/08/08 06:00
CYYC 080600Z 22002KT 15SM SCT120 15/10 A2975 RMK AC2 SLP067

2010/08/08 06:00
CYYJ 080600Z 13003KT 8SM FEW003 FEW007 OVC052 15/15 A2988 RMK SF1SF2SC6 SLP120

2010/08/08 06:00
CYYQ 080600Z 33006KT 15SM FEW120 09/08 A2984 RMK AC2 SLP107

2010/08/08 06:00
CYYR 080600Z 26005KT 15SM FEW100 FEW260 11/06 A2968 RMK AC1CI0 SLP051

2010/08/08 06:00
CYYT 080600Z 27012KT 15SM SKC 14/11 A2993 RMK SLP135

2010/08/08 06:00
CYYZ 080600Z 20004KT 15SM FEW110 BKN260 19/12 A2992 RMK AC2CI1 SLP132

2010/08/08 06:00
CYZF 080600Z 09003KT 4SM FU FEW080 SCT110 BKN250 19/14 A2950 RMK AC2AC2CI1 SLP994

2010/08/08 06:00
CYZV 080600Z 18010KT 15SM FEW080 13/09 A2977 RMK AC2 SLP083

2010/08/08 06:00
CYZX 080600Z 00000KT 15SM SKC 11/10 A3005 RMK WNDY HILL 22004KT SLP175

2010/08/08 06:00
CYAH 080600Z AUTO 21004KT 180V240 9SM OVC032 07/05 A2955 RMK SLP018

2010/08/08 06:00
CYBX 080600Z 27005KT 15SM SKC 11/09 A2975 RMK SLP076

2010/08/08 06:00
CYGV 080600Z AUTO 25006KT 9SM CLR 10/07 A2980 RMK SLP093

2010/08/08 06:00
CYMH 080600Z AUTO 29005KT 9SM CLR 12/08 A2966 RMK SLP046

2010/08/08 06:00
CYMT 080600Z 23004KT 6SM -RA OVC060 09/08 A2973 RMK SC8 SLP075

2010/08/08 06:00
CYNM 080600Z AUTO 17004KT 7SM OVC000 10/09 A2969 RMK SLP060

2010/08/08 06:00
CYOY 080600Z AUTO 36004KT 9SM OVC091 09/07 A2989 RMK SLP125

2010/08/08 06:00
CYPH 080600Z AUTO 24010KT 9SM OVC004 08/08 A2936 RMK SLP945

2010/08/08 06:00
CYQI 080600Z 22012KT 15SM SKC 15/13 A3008 RMK SLP185

2010/08/08 06:00
CYUY 080600Z 24005KT 15SM FEW080 12/09 A2976 RMK AC1 SLP082

2010/08/08 06:00
CYWK 080600Z 21009KT 15SM BKN051 09/05 A2963 RMK SC6 SLP045

2010/08/08 06:03
KDLH 080603Z 13009KT 1/2SM BR SCT002 SCT120 17/16 A2972

2010/08/08 05:53
PABR 080553Z 07018KT 2 1/2SM BR OVC005 04/04 A2986

2010/08/08 05:53
PABT 080553Z 00000KT 10SM SCT030 BKN048 BKN075 14/11 A2964

2010/08/08 05:53
PACV 080553Z 07003KT 10SM -RA SCT015 BKN030 OVC035 10/09 A2981

2010/08/08 05:56
PADL 080556Z 18004KT 10SM BKN011 10/08 A2978

2010/08/08 05:58
PADU 080558Z AUTO 17015G19KT 10SM -RA BKN034 OVC044 16/13 A2957

2010/08/08 05:53
PAEN 080553Z AUTO 20010KT 10SM OVC060 13/11 A2976

2010/08/08 05:58
PAGA 080558Z AUTO 20003KT 10SM FEW027 BKN039 OVC047 14/12 A2966

2010/08/08 05:53
PAGK 080553Z AUTO 15005KT 10SM SCT045 BKN065 OVC100 14/08 A2968

2010/08/08 05:53
PAGY 080553Z AUTO 21008KT 10SM SCT050 OVC060 13/10 A2981

2010/08/08 05:53
PAIL 080553Z AUTO 00000KT 10SM OVC020 11/09 A2980

2010/08/08 05:54
PAKN 080554Z 21005KT 10SM BKN010 OVC040 11/09 A2978

2010/08/08 05:53
PAKT 080553Z AUTO 00000KT 10SM OVC033 14/12 A2991

2010/08/08 05:53
PASC 080553Z 07018G26KT 10SM OVC005 04/03 A2976

2010/08/08 05:53
PASI 080553Z 22004KT 10SM FEW009 BKN036 OVC055 13/12 A2989

2010/08/08 05:52
PATA 080552Z AUTO 16003KT 10SM BKN043 OVC060 15/12 A2966

2010/08/08 05:56
PAUN 080556Z AUTO 25006KT 10SM SCT015 BKN025 BKN070 14/09 A2962

2010/08/08 05:56
PAVD 080556Z 09003KT 5SM FEW010 SCT030 OVC040 10/08 A2980

2010/08/08 05:54
PHMK 080554Z AUTO 07007G18KT 10SM CLR 24/21 A3008

2010/08/08 05:56
PMDY 080556Z AUTO 07009KT 10SM CLR 28/21 A3020

2010/08/08 06:03
KRNT 080603Z AUTO VRB03KT 10SM FEW013 BKN045 OVC050 17/16 A2991

2010/08/08 05:56
KNUW 080556Z 26004KT 6SM BR BKN005 OVC015 16/15 A2991 RMK AO2 SLP130 60010 T01620152 10178 20156 51005 $

2010/08/08 05:55
KNYL 080555Z 15010KT 10SM CLR 31/16 A2971 RMK AO2 SLP055 T03060156 10389 20306 51016

2010/08/08 05:55
KWRB 080555Z 00000KT 10SM CLR 25/24 A2994 RMK AO2A SLP137 T02460243 10299 20246 53002

2010/08/08 05:59
MYEG 080559Z AUTO 09005KT 10SM CLR 27/23 A2998 RMK AO2

2010/08/08 06:00
MYNN 080600Z 13005KT 9999 SCT015 28/23 A2997

2010/08/08 05:50
OAKN 080550Z 18006KT 9000 DU FEW120 BKN180 35/07 Q1006 BLU NOSIG RMK A2972 DA6600

2010/08/08 06:00
ORBI 080600Z 35018KT 2000 BLDU NSC 42/M01 Q1002 BECMG 1500

2010/08/08 06:00
ORMM 080600Z 26008KT 8000 SCT040 40/07 Q09985

2010/08/08 05:57
PHNG 080557Z AUTO 06008KT 10SM FEW018 OVC060 26/22 A3008 RMK AO2 SLP181 6//// T02560222 10289 20256 53012 $

2010/08/08 06:00
TBPB 080600Z 03004KT 9999 FEW012CB SCT016 BKN036 25/24 Q1012

2010/08/08 06:00
TTCP 080600Z 00000KT 9999 FEW016 26/22 Q1012 NOSIG

2010/08/08 06:00
TTPP 080600Z 00000KT 9999 FEW016 25/24 Q1012 NOSIG

2010/08/08 06:00
UACC 080600Z 33003MPS 300V360 9999 SCT040 30/09 Q1011 220/0070 NOSIG RMK QFE727/0970

2010/08/08 06:00
UATT 080600Z 05003MPS 010V110 9999 NSC 33/08 Q1016 13CLRD70 NOSIG RMK QFE742/0990

2010/08/08 06:00
WMKJ 080600Z 24005KT 9999 FEW017CB BKN280 32/24 Q1008

2010/08/08 06:00
WMKK 080600Z 15004KT 9999 FEW018 SCT140 BKN270 30/26 Q1008 NOSIG

2010/08/08 06:00
WMKP 080600Z 19004KT 9999 FEW020 SCT140 BKN270 31/26 Q1008 NOSIG

2010/08/08 06:00
WMSA 080600Z 23003KT 9999 SCT018 BKN280 33/25 Q1008

2010/08/08 06:00
ZBHH 080600Z 23003MPS 6000 SCT040 FEW040TCU 25/17 Q1008 NOSIG

2010/08/08 06:00
ZHHH 080600Z 15004MPS 9999 FEW025TCU 33/28 Q1003 NOSIG

2010/08/08 06:00
ZSNJ 080600Z 12004MPS 080V180 9999 BKN020 34/19 Q1004 NOSIG

2010/08/08 06:00
ZUCK 080600Z 10003MPS 040V180 9999 FEW030 35/19 Q1004 NOSIG

2010/08/08 06:00
ZWSH 080600Z 13002MPS 090V180 CAVOK 29/17 Q1010 NOSIG

2010/08/08 06:00
UKLI 080600Z 00000MPS 9999 BKN033 BKN100 20/19 Q1015 28090070 NOSIG

2010/08/08 06:00
UKON 080600Z 07006MPS CAVOK 29/17 Q1012 05090075 NOSIG

2010/08/08 06:00
UKCM 080600Z 03005MPS 010V070 CAVOK 33/08 Q1014 02010065 NOSIG

2010/08/08 06:00
UKCW 080600Z 05002MPS 360V090 CAVOK 32/08 Q1016 0909//70 NOSIG

2010/08/08 06:00
UKLU 080600Z 12004MPS 9999 FEW006 19/16 Q1016 10090070 NOSIG

2010/08/08 06:00
UKKK 080600Z VRB01MPS 8000 SKC 29/15 Q1014 08CLRD70 NOSIG

2010/08/08 06:00
UKKM 080600Z 15003MPS CAVOK 29/14 Q1014

2010/08/08 06:00
UKLN 080600Z VRB01MPS CAVOK 21/19 Q1015 3309//70 NOSIG

2010/08/08 06:00
TGPY 080600Z 00000KT 9999 SCT018 26/25 Q1012

2010/08/08 05:55
EHSC 080555Z AUTO 35013G16KT 9999 17/15 Q1016 W04/S3

2010/08/08 05:55
EHJR 080555Z AUTO 35011G12KT //// 17/14 Q1016 W17/S3

2010/08/08 05:55
EHSA 080555Z AUTO 35014G15KT 9999 17/16 Q1016 W19/S3

2010/08/08 05:50
EGPH 080550Z 25004KT 9999 SCT018 13/11 Q1020

2010/08/08 06:00
LEBG 080600Z 05011KT 7000 FEW003 13/12 Q1022

2010/08/08 06:00
LEHC 080600Z VRB02KT 9999 FEW045 20/17 Q1020

2010/08/08 06:00
WBKK 080600Z 26007KT 9999 FEW015 SCT140 BKN270 32/27 Q1007 NOSIG

2010/08/08 06:00
WMKJ 080600Z 24005KT 9999 FEW017CB BKN280 32/24 Q1008

2010/08/08 06:00
WMKK 080600Z 15004KT 9999 FEW018 SCT140 BKN270 30/26 Q1008 NOSIG

2010/08/08 06:00
WMKP 080600Z 19004KT 9999 FEW020 SCT140 BKN270 31/26 Q1008 NOSIG

2010/08/08 06:00
WMSA 080600Z 23003KT 9999 SCT018 BKN280 33/25 Q1008

2010/08/08 06:03
KECG 080603Z AUTO 06004KT 5SM BR FEW006 BKN011 25/24 A2999

2010/08/08 06:03
KGWO 080603Z AUTO 00000KT 1 3/4SM BR CLR 24/23 A2991

2010/08/08 05:55
LIMU 080555Z 03006KT 9999 BKN023TCU 22/19 Q1018 RMK BKN QUK 2 QUL 1 S VIS MAR 30 KM VIS MIN 9999

2010/08/08 05:55
LIVD 080555Z 00000KT CAVOK 12/11 Q1022 RMK FEW FEW070 VIS MIN 9999

2010/08/08 05:55
LIVO 080555Z 00000KT 9999 SCT015 12/12 Q1019 RMK SCT VIS MIN 9999

2010/08/08 05:55
LIVR 080555Z 35002KT CAVOK 11/10 Q1023 RMK SKC MON LIB VIS MIN 9999

2010/08/08 05:55
LIVT 080555Z 03002KT CAVOK 21/17 Q1016 RMK FEW FEW120 QUK 0 QUL 0 VIS MAR 20 KM VIS MIN 9999

2010/08/08 05:50
LIBF 080550Z 28005KT CAVOK 23/14 Q1016 RMK VIS MIN 9999

2010/08/08 05:50
LIEA 080550Z VRB01KT CAVOK 17/16 Q1019 RMK VIS MIN 9999

2010/08/08 05:55
LIED 080555Z 33004KT CAVOK 15/13 Q1017 RMK SKC VIS MIN 9999 BLU

2010/08/08 05:50
LIEO 080550Z VRB02KT CAVOK 18/16 Q1019 RMK VIS MIN 9999

2010/08/08 05:50
LIMA 080550Z 00000KT CAVOK 16/13 Q1017 RMK VIS MIN 9999

2010/08/08 05:55
LIRE 080555Z 36006KT CAVOK 20/18 Q1017 RMK SKC VIS MIN 9999 WIND THR31 35008KT BLU

2010/08/08 05:55
LIRH 080555Z 00000KT CAVOK 17/15 Q1017 RMK SKC MON LIB NC VIS MIN 9999 WIND THR16 00000KT BLU

2010/08/08 05:55
LIRL 080555Z 00000KT CAVOK 18/16 Q1017 RMK SKC MON LIB NC VIS MIN 9999 BLU

2010/08/08 05:55
LIRM 080555Z 04002KT CAVOK 20/18 Q1017 RMK SKC VIS MIN 9999 WIND THR06 01002KT BLU

2010/08/08 05:55
LIRS 080555Z 02002KT CAVOK 16/12 Q1018 RMK SKC VIS MIN 9999 WIND THR21 /////KT BLU

2010/08/08 05:50
LIRU 080550Z 00000KT CAVOK 21/19 Q1017 RMK VIS MIN 9999

2010/08/08 05:55
LIRV 080555Z 05005KT CAVOK 20/16 Q1019 RMK SKC MON E SE LIB NC VIS MIN 9999 BLU

2010/08/08 05:55
LIRX 080555Z 18001KT CAVOK 19/16 Q1017 RMK SKC VIS MIN 9999N VIS MAR 20 KM

2010/08/08 05:50
LIRZ 080550Z 35004KT 320V020 CAVOK 17/16 Q1019 RMK VIS MIN 9999

2010/08/08 05:50
LIBC 080550Z VRB03KT CAVOK 24/14 Q1016 RMK VIS MIN 9999

2010/08/08 05:50
LIBD 080550Z 31007KT 9999 FEW025 22/15 Q1016 RMK VIS MIN 9999

2010/08/08 05:55
LIBN 080555Z 32005KT 9999 FEW025 22/19 Q1015 RMK FEW VIS MIN 9999 WIND THR14 32006KT BLU

2010/08/08 05:50
LIBP 080550Z VRB01KT CAVOK 19/16 Q1017 RMK VIS MIN 9999

2010/08/08 05:45
LIBR 080545Z 34014G24KT 9999 SCT020 22/16 Q1015 NOSIG RMK SCT VIS MIN 9999 WIND THR13 /////KT WIND THR31 32016KT BLU

2010/08/08 05:55
LIBV 080555Z 35010KT CAVOK 21/17 Q1015 RMK SKC VIS MIN 9999 WIND THR14 34009KT BLU

2010/08/08 05:50
LICA 080550Z VRB01KT 9999 FEW030 21/18 Q1016 RMK VIS MIN 9999

2010/08/08 05:50
LICC 080550Z VRB03KT CAVOK 22/15 Q1016 RMK VIS MIN 9999

2010/08/08 05:50
LICD 080550Z 33008KT CAVOK 24/18 Q1017 RMK VIS MIN 9999

2010/08/08 05:55
LICG 080555Z 36011KT 9999 FEW020 22/20 Q1017 RMK FEW VIS MIN 9999 WIND THR08 /////KT WIND THR21 36008KT BLU

2010/08/08 05:50
LICJ 080550Z 06005KT 030V100 9999 FEW030 25/18 Q1017 RMK VIS MIN 9999

2010/08/08 05:50
LICR 080550Z 36010KT 9999 FEW020 25/16 Q1016 RMK VIS MIN 9999

2010/08/08 05:55
LICT 080555Z 00000KT 9999 FEW025 22/20 Q1016 RMK FEW VIS MIN 9999 WIND THR13 05001KT BLU

2010/08/08 05:55
LICZ 080555Z 27002KT CAVOK 22/19 Q1016 RMK SKC VIS MIN 9999 WIND THR28 ///// KT BLU

2010/08/08 05:50
LIMG 080550Z 28004KT 240V310 9999 FEW050 18/11 Q1017 RMK VIS MIN 9999

2010/08/08 05:50
LIMP 080550Z 23004KT CAVOK 18/12 Q1017 RMK VIS MIN 9999

2010/08/08 05:55
LIMS 080555Z 26008KT CAVOK 18/15 Q1017 RMK SKC VIS MIN 9999 WIND THR30 24005KT BLU

2010/08/08 05:50
LIMZ 080550Z VRB03KT CAVOK 15/13 Q1018 RMK VIS MIN 9999

2010/08/08 05:50
LIPB 080550Z 09002KT CAVOK 14/12 Q1019 RMK MON LIB VIS MIN 9999

2010/08/08 05:55
LIPC 080555Z 28002KT CAVOK 18/16 Q1017 RMK SKC VIS MIN 9999 WIND THR12 29003KT BLU

2010/08/08 05:55
LIPF 080555Z 00000KT 7000 NSC 17/17 Q1016 RMK SKC VIS MIN 7000

2010/08/08 05:45
LIPH 080545Z 04003KT CAVOK 20/18 Q1017 RMK SKC VIS MIN 9999 WIND THR07 /////KT BLU

2010/08/08 05:55
LIPL 080555Z 04001KT CAVOK 17/16 Q1016 RMK SKC VIS MIN 9999 BLK BLU

2010/08/08 05:50
LIPO 080550Z 05004KT CAVOK 20/15 Q1017 RMK VIS MIN 9999

2010/08/08 05:50
LIPQ 080550Z VRB01KT 9999 FEW060 18/15 Q1017

2010/08/08 05:45
LIPR 080545Z 00000KT CAVOK 18/18 Q1016 RMK SKC VIS MIN 9999 WIND THR31 00000KT BLU

2010/08/08 05:55
LIPS 080555Z 04004KT CAVOK 21/17 Q1017 RMK SKC VIS MIN 9999 BLU

2010/08/08 05:45
LIPX 080545Z 00000KT CAVOK 18/18 Q1017 RMK SKC VIS MIN 9999 BLU

2010/08/08 05:50
LIPY 080550Z 19003KT 160V220 CAVOK 20/17 Q1017 RMK VIS MIN 9999

2010/08/08 06:00
OEJN 080600Z 18005KT CAVOK 35/27 Q1002 NOSIG

2010/08/08 06:00
OYSN 080600Z VRB02KT 8000 NSC 24/10 Q1022

2010/08/08 06:00
VTBS 080600Z 22007KT 150V260 9999 SCT025 SCT120 BKN300 33/21 Q1004 NOSIG

2010/08/08 06:00
VTBD 080600Z 23006KT 9999 FEW020 BKN120 BKN300 33/21 Q1004 NOSIG

2010/08/08 06:00
VTCC 080600Z 17004KT 9999 FEW025TCU SCT035 32/23 Q1006 A2970 TCU S

2010/08/08 06:00
VTBU 080600Z 23006KT 9999 FEW020 BKN300 33/25 Q1005 A2969

2010/08/08 06:00
VTSS 080600Z 24011KT 9999 FEW018CB SCT020 BKN300 32/22 Q1007 A2975 CB S

2010/08/08 06:00
VTSP 080600Z 26018KT 9000 FEW015 BKN300 31/23 Q1008 A2978

2010/08/08 06:00
VLVT 080600Z 22004KT 8000 HZ SCT016 SCT040 31/24 Q100

2010/08/08 06:00
VYYY 080600Z 29007KT 7000 BKN015 FEW020CB BKN110 26/25 Q 1004

2010/08/08 06:00
VVNB 080600Z 01005KT 290V090 9999 FEW026 BKN230 33/24 Q1003 NOSIG

2010/08/08 06:00
VDPP 080600Z 27009KT 9999 SCT017 BKN120 29/21 Q1003

2010/08/08 06:00
VVDN 080600Z 04005KT 8000 FEW015 BKN270 32/23 Q1003 NOSIG

2010/08/08 06:00
VDSR 080600Z 28010KT 9999 SCT015 FEW017TCU SCT040 32/23 Q1003

2010/08/08 06:00
VVPB 080600Z 35008KT 9999 FEW015CB BKN050 31/25 Q1003 NOSIG RMK CB/S/SW

2010/08/08 06:03
KVLD 080603Z AUTO 00000KT 1 1/4SM BR SCT001 24/23 A2993

2010/08/08 06:03
KDLH 080603Z 13009KT 1/2SM BR SCT002 SCT120 17/16 A2972

2010/08/08 06:05
K2G4 080605Z AUTO 00000KT 10SM CLR 17/10 A3012 RMK AO1

2010/08/08 06:03
KRNT 080603Z AUTO VRB03KT 10SM FEW013 BKN045 OVC050 17/16 A2991

2010/08/08 06:03
KSEA 080603Z 26005KT 10SM SCT006 OVC019 16/14 A2992

2010/08/08 06:00
OMAA 080600Z 14014KT 7000 NSC 40/11 Q0998 A2948 NOSIG

2010/08/08 06:00
OMAD 080600Z 13009KT 9000 NSC 39/14 Q0998 A2950

2010/08/08 06:00
OMAL 080600Z 16015KT CAVOK 39/12 Q1001 A2958

2010/08/08 06:00
OMDB 080600Z 19006KT 160V240 CAVOK 41/13 Q0999 NOSIG

2010/08/08 06:00
OMDW 080600Z 16017KT 8000 NSC 40/10 Q0999 NOSIG

2010/08/08 06:00
OMFJ 080600Z 11010KT 050V120 8000 NSC 34/28 Q1000 A2953

2010/08/08 06:00
OMRK 080600Z 00000KT CAVOK 39/26 Q0998 A2949

2010/08/08 06:00
OMSJ 080600Z 19005KT 140V240 CAVOK 41/13 Q0999

2010/08/08 05:50
LIBF 080550Z 28005KT CAVOK 23/14 Q1016 RMK VIS MIN 9999

2010/08/08 05:50
LIEA 080550Z VRB01KT CAVOK 17/16 Q1019 RMK VIS MIN 9999

2010/08/08 05:55
LIED 080555Z 33004KT CAVOK 15/13 Q1017 RMK SKC VIS MIN 9999 BLU

2010/08/08 05:50
LIEO 080550Z VRB02KT CAVOK 18/16 Q1019 RMK VIS MIN 9999

2010/08/08 05:50
LIMA 080550Z 00000KT CAVOK 16/13 Q1017 RMK VIS MIN 9999

2010/08/08 05:55
LIRE 080555Z 36006KT CAVOK 20/18 Q1017 RMK SKC VIS MIN 9999 WIND THR31 35008KT BLU

2010/08/08 05:55
LIRH 080555Z 00000KT CAVOK 17/15 Q1017 RMK SKC MON LIB NC VIS MIN 9999 WIND THR16 00000KT BLU

2010/08/08 05:55
LIRL 080555Z 00000KT CAVOK 18/16 Q1017 RMK SKC MON LIB NC VIS MIN 9999 BLU

2010/08/08 05:55
LIRM 080555Z 04002KT CAVOK 20/18 Q1017 RMK SKC VIS MIN 9999 WIND THR06 01002KT BLU

2010/08/08 05:55
LIRS 080555Z 02002KT CAVOK 16/12 Q1018 RMK SKC VIS MIN 9999 WIND THR21 /////KT BLU

2010/08/08 05:50
LIRU 080550Z 00000KT CAVOK 21/19 Q1017 RMK VIS MIN 9999

2010/08/08 05:55
LIRV 080555Z 05005KT CAVOK 20/16 Q1019 RMK SKC MON E SE LIB NC VIS MIN 9999 BLU

2010/08/08 05:55
LIRX 080555Z 18001KT CAVOK 19/16 Q1017 RMK SKC VIS MIN 9999N VIS MAR 20 KM

2010/08/08 05:50
LIRZ 080550Z 35004KT 320V020 CAVOK 17/16 Q1019 RMK VIS MIN 9999

2010/08/08 06:00
OOMS 080600Z 28008KT 240V320 CAVOK 36/24 Q1000 NOSIG

2010/08/08 05:50
OOSA 080550Z 19009KT 160V230 6000 FEW006 BKN010 OVC020 26/23 Q1004 NOSIG RH81 RMK05

2010/08/08 05:55
LIMU 080555Z 03006KT 9999 BKN023TCU 22/19 Q1018 RMK BKN QUK 2 QUL 1 S VIS MAR 30 KM VIS MIN 9999

2010/08/08 05:55
LIVD 080555Z 00000KT CAVOK 12/11 Q1022 RMK FEW FEW070 VIS MIN 9999

2010/08/08 05:55
LIVO 080555Z 00000KT 9999 SCT015 12/12 Q1019 RMK SCT VIS MIN 9999

2010/08/08 05:55
LIVR 080555Z 35002KT CAVOK 11/10 Q1023 RMK SKC MON LIB VIS MIN 9999

2010/08/08 05:55
LIVT 080555Z 03002KT CAVOK 21/17 Q1016 RMK FEW FEW120 QUK 0 QUL 0 VIS MAR 20 KM VIS MIN 9999

2010/08/08 05:50
LIMG 080550Z 28004KT 240V310 9999 FEW050 18/11 Q1017 RMK VIS MIN 9999

2010/08/08 05:50
LIMP 080550Z 23004KT CAVOK 18/12 Q1017 RMK VIS MIN 9999

2010/08/08 05:55
LIMS 080555Z 26008KT CAVOK 18/15 Q1017 RMK SKC VIS MIN 9999 WIND THR30 24005KT BLU

2010/08/08 05:50
LIMZ 080550Z VRB03KT CAVOK 15/13 Q1018 RMK VIS MIN 9999

2010/08/08 05:50
LIPB 080550Z 09002KT CAVOK 14/12 Q1019 RMK MON LIB VIS MIN 9999

2010/08/08 05:55
LIPC 080555Z 28002KT CAVOK 18/16 Q1017 RMK SKC VIS MIN 9999 WIND THR12 29003KT BLU

2010/08/08 05:55
LIPF 080555Z 00000KT 7000 NSC 17/17 Q1016 RMK SKC VIS MIN 7000

2010/08/08 05:45
LIPH 080545Z 04003KT CAVOK 20/18 Q1017 RMK SKC VIS MIN 9999 WIND THR07 /////KT BLU

2010/08/08 05:55
LIPL 080555Z 04001KT CAVOK 17/16 Q1016 RMK SKC VIS MIN 9999 BLK BLU

2010/08/08 05:50
LIPO 080550Z 05004KT CAVOK 20/15 Q1017 RMK VIS MIN 9999

2010/08/08 05:50
LIPQ 080550Z VRB01KT 9999 FEW060 18/15 Q1017

2010/08/08 05:45
LIPR 080545Z 00000KT CAVOK 18/18 Q1016 RMK SKC VIS MIN 9999 WIND THR31 00000KT BLU

2010/08/08 05:55
LIPS 080555Z 04004KT CAVOK 21/17 Q1017 RMK SKC VIS MIN 9999 BLU

2010/08/08 05:45
LIPX 080545Z 00000KT CAVOK 18/18 Q1017 RMK SKC VIS MIN 9999 BLU

2010/08/08 05:50
LIPY 080550Z 19003KT 160V220 CAVOK 20/17 Q1017 RMK VIS MIN 9999

2010/08/08 06:03
KDLH 080603Z 13009KT 1/2SM BR SCT002 SCT120 17/16 A2972

2010/08/08 06:00
SGAS 080600Z 16006KT CAVOK 16/11 Q1014

2010/08/08 06:00
SGES 080600Z 09006KT CAVOK 14/13 Q1016

2010/08/08 06:04
KCGE 080604Z AUTO 00000KT 7SM CLR 20/20 A3001 RMK AO1

2010/08/08 06:05
KCGS 080605Z AUTO 00000KT 10SM BKN080 21/17 A3000 RMK AO1

2010/08/08 06:05
K2W6 080605Z AUTO 00000KT 10SM CLR 19/17 A3001 RMK AO1

2010/08/08 06:06
KCBE 080606Z AUTO 02004KT 10SM BKN070 BKN085 19/16 A3007 RMK AO1

2010/08/08 06:07
KDMW 080607Z AUTO 00000KT 10SM SCT070 SCT080 BKN095 23/16 A3003 RMK AO2

2010/08/08 05:50
EGDM 080550Z AUTO 33008KT 9999NDV OVC032/// 14/11 Q1020

2010/08/08 05:50
EGDR 080550Z 34004KT 9999 FEW025 SCT200 13/12 Q1022 BLU

2010/08/08 05:50
EGDX 080550Z AUTO 04003KT 9999NDV // OVC034/// 12/10 Q1021

2010/08/08 05:50
EGDY 080550Z AUTO 29003KT 9999NDV SCT021/// OVC036/// 14/12 Q1020

2010/08/08 05:50
EGEC 080550Z AUTO 30007KT 9999NDV // FEW015/// 12/12 Q1020

2010/08/08 05:50
EGOM 080550Z AUTO 06001KT 9999NDV // SCT021/// SCT028/// BKN036/// 11/11 Q1019

2010/08/08 05:50
EGOP 080550Z AUTO 33008KT 0450NDV // BKN001/// 12/12 Q1022

2010/08/08 05:50
EGOS 080550Z AUTO 27004KT 9999NDV FEW012/// BKN020/// 13/11 Q1021

2010/08/08 05:50
EGOV 080550Z AUTO 09002KT 9999NDV NCD 09/09 Q1021

2010/08/08 05:50
EGPU 080550Z AUTO 22003KT 9999NDV // FEW011/// 11/11 Q1020

2010/08/08 05:50
EGUB 080550Z AUTO 31005KT 8000NDV // OVC023/// 14/13 Q1020

2010/08/08 05:50
EGUW 080550Z AUTO 33009KT 9999NDV BKN005/// BKN012/// 15/14 Q1018

2010/08/08 05:50
EGVO 080550Z AUTO 30004KT 9999NDV SCT007/// SCT024/// 13/13 Q1020

2010/08/08 05:50
EGVP 080550Z AUTO 33004KT 9999NDV // OVC033/// 14/12 Q1020

2010/08/08 05:50
EGWU 080550Z AUTO 33003KT 9999NDV // OVC020/// 15/13 Q1019

2010/08/08 05:50
EGXD 080550Z AUTO 33005KT 9999NDV // OVC060/// 13/13 Q1020

2010/08/08 05:50
EGXE 080550Z AUTO 32003KT 9999NDV OVC050/// 13/12 Q1020

2010/08/08 05:50
EGXG 080550Z AUTO 32004KT 9999NDV BKN070/// 13/11 Q1020

2010/08/08 05:50
EGXJ 080550Z AUTO 33005KT 7000NDV // FEW004/// 12/11 Q1019

2010/08/08 05:50
EGXT 080550Z AUTO 32008KT 9999NDV NCD 13/11 Q1019

2010/08/08 05:50
EGXU 080550Z AUTO 30005KT 9999NDV // SCT070/// 13/11 Q1020

2010/08/08 05:50
EGXW 080550Z 33009KT CAVOK 12/11 Q1019 BLU

2010/08/08 05:50
EGXX 080550Z AUTO 33012KT 9999NDV // NCD 15/13 Q1019

2010/08/08 05:50
EGXZ 080550Z AUTO 31004KT 9999NDV OVC070/// 13/11 Q1020

2010/08/08 05:50
EGYM 080550Z AUTO 34008KT 9999NDV BKN010/// BKN021/// 15/14 Q1018

2010/08/08 06:03
KSEA 080603Z 26005KT 10SM SCT006 OVC019 16/14 A2992

2010/08/08 06:00
YAMB 080600Z AUTO 30005KT 9999NDV // NCD 22/M01 Q1019

2010/08/08 06:00
YBCG 080600Z AUTO 04009KT 9999NDV // NCD 19/10 Q1018

2010/08/08 06:00
YBHM 080600Z AUTO 15013KT //// // ////// 20/14 Q1016

2010/08/08 06:00
YBMA 080600Z AUTO 32008KT 9999NDV // NCD 29/M05 Q1010

2010/08/08 06:00
YBRK 080600Z 09009KT CAVOK 23/10 Q1017

2010/08/08 06:00
YBRM 080600Z 17007KT CAVOK 30/M03 Q1012

2010/08/08 06:00
YCIN 080600Z AUTO 18010KT //// // ////// 30/02 Q1012

2010/08/08 06:00
YFRT 080600Z AUTO 22017KT //// // ////// 13/07 Q1016

2010/08/08 06:00
YMAV 080600Z AUTO 03013KT 9999NDV // NCD 14/04 Q1015

2010/08/08 06:00
YMHB 080600Z 36008KT 9999 FEW040 12/02 Q1016

2010/08/08 06:00
YMLT 080600Z AUTO 32005KT 9999NDV // SCT031 SCT038 OVC069 09/06 Q1017

2010/08/08 06:00
YPEA 080600Z AUTO 21005KT 9999NDV // SCT047 17/06 Q1025

2010/08/08 06:00
YPGV 080600Z 15010KT 9999 FEW017 SCT023 27/22 Q1009

2010/08/08 06:00
YPKG 080600Z 20015KT 9999 VCSH BKN050 15/04 Q1022

2010/08/08 06:00
YPPD 080600Z 36012KT CAVOK 30/00 Q1013

2010/08/08 06:00
YSCB 080600Z 35008KT 9999 FEW040 11/M05 Q1018 NOSIG

2010/08/08 06:00
YSDU 080600Z AUTO 31008KT 9999NDV // NCD 14/04 Q1018

2010/08/08 06:00
YSNF 080600Z 23011KT 9999 SCT030 16/10 Q1016

2010/08/08 06:00
YSRI 080600Z AUTO 04007KT 9999NDV // NCD 17/03 Q1018

2010/08/08 06:00
YWLM 080600Z AUTO 11009KT 9999NDV // NCD 15/08 Q1019

2010/08/08 06:00
YAMB 080600Z AUTO 30005KT 9999NDV // NCD 22/M01 Q1019

2010/08/08 06:00
YBCG 080600Z AUTO 04009KT 9999NDV // NCD 19/10 Q1018

2010/08/08 06:00
YBHM 080600Z AUTO 15013KT //// // ////// 20/14 Q1016

2010/08/08 06:00
YBMA 080600Z AUTO 32008KT 9999NDV // NCD 29/M05 Q1010

2010/08/08 06:00
YBRK 080600Z 09009KT CAVOK 23/10 Q1017

2010/08/08 06:00
YBRM 080600Z 17007KT CAVOK 30/M03 Q1012

2010/08/08 06:00
YCIN 080600Z AUTO 18010KT //// // ////// 30/02 Q1012

2010/08/08 06:00
YFRT 080600Z AUTO 22017KT //// // ////// 13/07 Q1016

2010/08/08 06:00
YMAV 080600Z AUTO 03013KT 9999NDV // NCD 14/04 Q1015

2010/08/08 06:00
YMHB 080600Z 36008KT 9999 FEW040 12/02 Q1016

2010/08/08 06:00
YMLT 080600Z AUTO 32005KT 9999NDV // SCT031 SCT038 OVC069 09/06 Q1017

2010/08/08 06:00
YPEA 080600Z AUTO 21005KT 9999NDV // SCT047 17/06 Q1025

2010/08/08 06:00
YPGV 080600Z 15010KT 9999 FEW017 SCT023 27/22 Q1009

2010/08/08 06:00
YPKG 080600Z 20015KT 9999 VCSH BKN050 15/04 Q1022

2010/08/08 06:00
YPPD 080600Z 36012KT CAVOK 30/00 Q1013

2010/08/08 06:00
YSCB 080600Z 35008KT 9999 FEW040 11/M05 Q1018 NOSIG

2010/08/08 06:00
YSDU 080600Z AUTO 31008KT 9999NDV // NCD 14/04 Q1018

2010/08/08 06:00
YSNF 080600Z 23011KT 9999 SCT030 16/10 Q1016

2010/08/08 06:00
YSRI 080600Z AUTO 04007KT 9999NDV // NCD 17/03 Q1018

2010/08/08 06:00
YWLM 080600Z AUTO 11009KT 9999NDV // NCD 15/08 Q1019

2010/08/08 06:06
KFDK 080606Z AUTO 00000KT 10SM CLR 18/17 A3002 RMK AO2

2010/08/08 06:06
KMTN 080606Z AUTO 00000KT 10SM CLR 21/18 A3000 RMK AO2

2010/08/08 06:12
KESN 080612Z AUTO 00000KT 10SM CLR 20/20 A3003 RMK AO2

2010/08/08 06:06
KW29 080606Z AUTO 16003KT 10SM CLR 21/19 A2999 RMK AO1

2010/08/08 06:09
KFME 080609Z AUTO 00000KT 5SM SCT100 SCT120 15/15 A3002 RMK AO1

2010/08/08 06:00
FMCZ 080600Z 13011KT 9999 SCT020 SCT060 26/19 Q1018

2010/08/08 06:00
FMEE 080600Z 13019KT 9999 VCSH BKN020 22/17 Q1025 TEMPO 6000 SHRA

2010/08/08 06:00
NZAA 080600Z 28016KT 9999 SHRA SCT020 BKN038TCU 11/07 Q1004 TEMPO 7000 SHRA 

2010/08/08 06:00
NZWN 080600Z 22036KT 6000 RA FEW020 SCT025 BKN030 09/06 Q0999 WS R16 NOSIG 

2010/08/08 06:00
NZCH 080600Z 21015KT 8000 RA SCT013 BKN018 BKN023 06/05 Q1005 TEMPO 4000 RA BKN012 

2010/08/08 06:00
CWEU 080600Z CCA 16002KT 30SM FEW003 FEW035 BKN100 02/01 A2981 RMK CF1SC2AC4 SLP097

2010/08/08 06:00
SEQU 080600Z 18002KT 3000 BR SCT003 BKN015 10/09 Q1028 RMK A3036 TEMPO 4000

2010/08/08 06:00
SEGU 080600Z 22004KT 9999 FEW100 23/18 Q1013 NOSIG

2010/08/08 06:00
SEMT 080600Z 23003KT 9999 SCT100 23/19 Q1014

2010/08/08 06:05
KEWB 080605Z AUTO 00000KT 2SM BR CLR 16/14 A3003 RMK AO2 VIS 3/4V5

2010/08/08 06:05
KMPV 080605Z AUTO 00000KT 2SM BR SCT001 09/08 A3005 RMK AO2

2010/08/08 06:05
PAVA 080605Z AUTO 14007KT 10SM SCT013 OVC017 12/10 A2965 RMK AO2

2010/08/08 06:05
PAVL 080605Z AUTO 27006KT 1 3/4SM -RA BR OVC001 09/09 A2960 RMK AO2 P0000 TSNO

2010/08/08 06:03
KTNB 080603Z AUTO 00000KT 1SM BR VV007 16/15 A3013 RMK AO2

2010/08/08 06:00
KW22 080600Z AUTO 00000KT 10SM FEW070 16/16 A3007 RMK AO2

2010/08/08 06:00
KWDR 080600Z AUTO 00000KT 4SM CLR 24/22 A3001 RMK AO1

2010/08/08 06:00
KXLL 080600Z AUTO 00000KT 7SM BKN075 OVC090 21/18 A3002 RMK AO2 T02060176

2010/08/08 06:00
KXSA 080600Z AUTO 00000KT 7SM CLR 19/18 A3000 RMK AO2

2010/08/08 06:00
NZAA 080600Z 28016KT 9999 SHRA SCT020 BKN038TCU 11/07 Q1004 TEMPO 7000 SHRA 

2010/08/08 06:00
NZWN 080600Z 22036KT 6000 RA FEW020 SCT025 BKN030 09/06 Q0999 WS R16 NOSIG 

2010/08/08 06:00
NZCH 080600Z 21015KT 8000 RA SCT013 BKN018 BKN023 06/05 Q1005 TEMPO 4000 RA BKN012 

2010/08/08 05:51
KABE 080551Z 00000KT 10SM SCT080 SCT090 17/16 A3001

2010/08/08 05:51
KALB 080551Z 00000KT 10SM SCT180 14/11 A3002

2010/08/08 05:56
KART 080556Z AUTO 18003KT 10SM CLR 16/11 A2997

2010/08/08 05:54
KAVP 080554Z 11004KT 10SM FEW050 17/12 A3002

2010/08/08 05:51
KBDL 080551Z 00000KT 10SM CLR 16/12 A3001

2010/08/08 05:52
KBDR 080552Z 20010KT 10SM CLR 23/21 A3000

2010/08/08 05:54
KBTV 080554Z 12003KT 10SM CLR 12/10 A2998

2010/08/08 05:54
KBUF 080554Z 17006KT 10SM FEW070 SCT085 BKN220 17/11 A2997

2010/08/08 05:56
KCAE 080556Z 00000KT 6SM BR CLR 26/24 A2993

2010/08/08 05:51
KCAK 080551Z 16005KT 10SM CLR 18/14 A3002

2010/08/08 05:51
KCMH 080551Z 00000KT 10SM CLR 20/16 A3000

2010/08/08 05:53
KCRQ 080553Z AUTO 00000KT 10SM OVC014 17/13 A2992

2010/08/08 05:54
KCRW 080554Z 00000KT 8SM CLR 18/17 A3001

2010/08/08 05:56
KDAY 080556Z 15005KT 10SM CLR 20/14 A3002

2010/08/08 05:51
KERI 080551Z 17008KT 10SM CLR 21/12 A2998

2010/08/08 05:54
KGSO 080554Z 00000KT 8SM CLR 22/19 A3002

2010/08/08 05:53
KGSP 080553Z AUTO 00000KT 9SM FEW050 BKN080 24/21 A2999

2010/08/08 05:51
KHTS 080551Z 00000KT 8SM CLR 18/17 A3000

2010/08/08 05:53
KHUL 080553Z AUTO 21003KT 10SM CLR 08/06 A2997

2010/08/08 05:53
KIAG 080553Z AUTO 18008KT 10SM FEW065 OVC095 20/14 A2995

2010/08/08 05:51
KILG 080551Z 18004KT 10SM CLR 23/21 A3001

2010/08/08 05:53
KILM 080553Z AUTO 00000KT 3SM BR CLR 24/23 A2994

2010/08/08 05:53
KMSS 080553Z AUTO 21005KT 10SM FEW060 14/12 A2993

2010/08/08 05:54
KORH 080554Z AUTO 22006KT 10SM CLR 16/11 A3004

2010/08/08 05:51
KPVD 080551Z 00000KT 10SM CLR 18/16 A3004

2010/08/08 05:51
KPWM 080551Z AUTO 00000KT 3SM BR CLR 13/12 A3000

2010/08/08 05:54
KRIC 080554Z 00000KT 10SM CLR 22/18 A3000

2010/08/08 05:54
KROC 080554Z 20003KT 10SM FEW080 SCT200 15/11 A2999

2010/08/08 05:54
KSYR 080554Z 15003KT 10SM FEW250 14/11 A3000

2010/08/08 06:00
UTAA 080600Z 32007MPS 9999 SKC 35/05 Q1009 NOSIG

2010/08/08 06:00
UTAM 080600Z 32004MPS CAVOK 34/12 Q1005 NOSIG

2010/08/08 06:00
UTAT 080600Z VRB01MPS CAVOK 35/18 Q1007 NOSIG

2010/08/08 06:00
UTAV 080600Z 29001MPS CAVOK 34/17 Q1004

2010/08/08 05:55
EHJR 080555Z AUTO 35011G12KT //// 17/14 Q1016 W17/S3

2010/08/08 06:05
K2G4 080605Z AUTO 00000KT 10SM CLR 17/10 A3012 RMK AO1

2010/08/08 06:05
K2W6 080605Z AUTO 00000KT 10SM CLR 19/17 A3001 RMK AO1

2010/08/08 06:06
KCBE 080606Z AUTO 02004KT 10SM BKN070 BKN085 19/16 A3007 RMK AO1

2010/08/08 06:04
KCGE 080604Z AUTO 00000KT 7SM CLR 20/20 A3001 RMK AO1

2010/08/08 06:05
KCGS 080605Z AUTO 00000KT 10SM BKN080 21/17 A3000 RMK AO1

2010/08/08 06:07
KDMW 080607Z AUTO 00000KT 10SM SCT070 SCT080 BKN095 23/16 A3003 RMK AO2

2010/08/08 06:06
KFDK 080606Z AUTO 00000KT 10SM CLR 18/17 A3002 RMK AO2

2010/08/08 06:09
KFME 080609Z AUTO 00000KT 5SM SCT100 SCT120 15/15 A3002 RMK AO1

2010/08/08 06:06
KMTN 080606Z AUTO 00000KT 10SM CLR 21/18 A3000 RMK AO2

2010/08/08 06:06
KW29 080606Z AUTO 16003KT 10SM CLR 21/19 A2999 RMK AO1

2010/08/08 06:12
KESN 080612Z AUTO 00000KT 10SM CLR 20/20 A3003 RMK AO2

2010/08/08 05:55
EHSC 080555Z AUTO 35013G16KT 9999 17/15 Q1016 W04/S3

2010/08/08 05:55
EHSA 080555Z AUTO 35014G15KT 9999 17/16 Q1016 W19/S3

2010/08/08 06:00
UAAA 080600Z 09003MPS 010V150 9999 FEW100 30/11 Q1008 88CLRD65 NOSIG

2010/08/08 06:00
UACC 080600Z 33003MPS 300V360 9999 SCT040 30/09 Q1011 220/0070 NOSIG RMK QFE727/0970

2010/08/08 06:00
UAKK 080600Z 04003MPS 010V150 CAVOK 28/09 Q1012 050///70 NOSIG RMK QFE712/0950

2010/08/08 06:00
UARR 080600Z 01005MPS CAVOK 33/10 Q1016 04CLRD70 NOSIG RMK QFE758/1011

2010/08/08 06:00
UATE 080600Z 05006MPS 030V090 CAVOK 37/04 Q1009 120///70 NOSIG RMK QFE755/1007

2010/08/08 06:00
UATG 080600Z 12002MPS CAVOK 34/13 Q1012 14CLRD70 NOSIG RMK QFE761/1015 

2010/08/08 06:00
UATT 080600Z 05003MPS 010V110 9999 NSC 33/08 Q1016 13CLRD70 NOSIG RMK QFE742/0990

2010/08/08 06:00
UAUU 080600Z 34003MPS 290V360 8000 NSC 32/11 Q1013 33CLRD70 NOSIG RMK QFE744/0992

2010/08/08 06:00
CXCH 080600Z AUTO 11/10 RMK AO1 T01100102

2010/08/08 06:00
CXCK 080600Z AUTO 00000KT 12/ RMK AO1 T0117

2010/08/08 06:00
CXET 080600Z AUTO 19005KT 17/12 RMK AO1 SLP122 T01740119 57007

2010/08/08 06:00
CXHA 080600Z AUTO 24005KT 23/18 RMK AO1 SLP128 T02320182 52001

2010/08/08 06:00
CXHF 080600Z AUTO 12/11 RMK AO1 T01230111

2010/08/08 06:00
CXIB 080600Z AUTO 26007KT 15/10 RMK AO1 SLP152 T01480100 53010

2010/08/08 06:00
CXMI 080600Z AUTO 25014KT 15/10 RMK AO1 PK WND 25017/0543 SLP179 T01470098 53008

2010/08/08 06:00
CXMY 080600Z AUTO 07/06 RMK AO1 T00660058

2010/08/08 06:00
CXOX 080600Z AUTO 14003KT 16/15 RMK AO1 SLP027 T01640151 50004

2010/08/08 06:00
CXRH 080600Z AUTO 25010G15KT 14/10 RMK AO1 18 0507Z T01370102

2010/08/08 06:00
CXSR 080600Z AUTO 21009KT 13/07 RMK AO1 SLP024 T01250070 51006

2010/08/08 06:00
CXSW 080600Z AUTO 28007KT RMK AO1 

2010/08/08 06:00
CXCK 080600Z AUTO 00000KT 12/ RMK AO1 T0117

2010/08/08 06:00
CXET 080600Z AUTO 19005KT 17/12 RMK AO1 SLP122 T01740119 57007

2010/08/08 06:00
CXHA 080600Z AUTO 24005KT 23/18 RMK AO1 SLP128 T02320182 52001

2010/08/08 06:00
CXHF 080600Z AUTO 12/11 RMK AO1 T01230111

2010/08/08 06:00
CXIB 080600Z AUTO 26007KT 15/10 RMK AO1 SLP152 T01480100 53010

2010/08/08 06:00
CXMI 080600Z AUTO 25014KT 15/10 RMK AO1 PK WND 25017/0543 SLP179 T01470098 53008

2010/08/08 06:00
CXMY 080600Z AUTO 07/06 RMK AO1 T00660058

2010/08/08 06:00
CXOX 080600Z AUTO 14003KT 16/15 RMK AO1 SLP027 T01640151 50004

2010/08/08 06:00
CXRH 080600Z AUTO 25010G15KT 14/10 RMK AO1 18 0507Z T01370102

2010/08/08 06:00
CXSR 080600Z AUTO 21009KT 13/07 RMK AO1 SLP024 T01250070 51006

2010/08/08 06:00
CXSW 080600Z AUTO 28007KT RMK AO1 

2010/08/08 06:00
CXCK 080600Z AUTO 00000KT 12/ RMK AO1 T0117

2010/08/08 06:00
CXET 080600Z AUTO 19005KT 17/12 RMK AO1 SLP122 T01740119 57007

2010/08/08 06:00
CXHA 080600Z AUTO 24005KT 23/18 RMK AO1 SLP128 T02320182 52001

2010/08/08 06:00
CXHF 080600Z AUTO 12/11 RMK AO1 T01230111

2010/08/08 06:00
CXIB 080600Z AUTO 26007KT 15/10 RMK AO1 SLP152 T01480100 53010

2010/08/08 06:00
CXMI 080600Z AUTO 25014KT 15/10 RMK AO1 PK WND 25017/0543 SLP179 T01470098 53008

2010/08/08 06:00
CXMY 080600Z AUTO 07/06 RMK AO1 T00660058

2010/08/08 06:00
CXOX 080600Z AUTO 14003KT 16/15 RMK AO1 SLP027 T01640151 50004

2010/08/08 06:00
CXRH 080600Z AUTO 25010G15KT 14/10 RMK AO1 18 0507Z T01370102

2010/08/08 06:00
CXSR 080600Z AUTO 21009KT 13/07 RMK AO1 SLP024 T01250070 51006

2010/08/08 06:00
CXSW 080600Z AUTO 28007KT RMK AO1 

2010/08/08 06:00
CXMI 080600Z AUTO 25014KT 15/10 RMK AO1 PK WND 25017/0543 SLP179 T01470098 53008

2010/08/08 06:00
CXMY 080600Z AUTO 07/06 RMK AO1 T00660058

2010/08/08 06:00
CXOX 080600Z AUTO 14003KT 16/15 RMK AO1 SLP027 T01640151 50004

2010/08/08 06:00
FABL 080600Z 00000KT CAVOK 04/01 Q1025 NOSIG

2010/08/08 06:00
FAJS 080600Z 32012KT 8000 NSC 10/04 Q1028 NOSIG

2010/08/08 06:00
FDMS 080600Z 00000KT CAVOK 12/09 Q1022 NOSIG

2010/08/08 06:00
FLLS 080600Z 09006KT CAVOK 13/09 Q1025 NOSIG

2010/08/08 06:00
FQBR 080600Z 24008KT 9999 FEW019 BKN080 21/19 Q1021

2010/08/08 06:00
FQMA 080600Z 00000KT 4000 BR NSC 18/15 Q1022 NOSIG

2010/08/08 06:00
FYWH 080600Z 27004KT CAVOK 08/M03 Q1028

2010/08/08 06:00
CWBU 080600Z AUTO 33004KT 15/15 RMK AO1 SLP026 T01500145 52008

2010/08/08 06:00
UKLI 080600Z 00000MPS 9999 BKN033 BKN100 20/19 Q1015 28090070 NOSIG

2010/08/08 06:00
UKON 080600Z 07006MPS CAVOK 29/17 Q1012 05090075 NOSIG

2010/08/08 06:00
UKCM 080600Z 03005MPS 010V070 CAVOK 33/08 Q1014 02010065 NOSIG

2010/08/08 06:00
UKCW 080600Z 05002MPS 360V090 CAVOK 32/08 Q1016 0909//70 NOSIG

2010/08/08 06:00
UKLU 080600Z 12004MPS 9999 FEW006 19/16 Q1016 10090070 NOSIG

2010/08/08 06:00
UKKK 080600Z VRB01MPS 8000 SKC 29/15 Q1014 08CLRD70 NOSIG

2010/08/08 06:00
UKKM 080600Z 15003MPS CAVOK 29/14 Q1014

2010/08/08 06:00
UKLN 080600Z VRB01MPS CAVOK 21/19 Q1015 3309//70 NOSIG

2010/08/08 06:00
CWDC 080600Z AUTO 11003KT 18/15 RMK AO1 SLP031 T01840149 51009

2010/08/08 06:00
CWEH 080600Z AUTO 14003KT 17/10 RMK AO1 SLP055 T01670100 51003

2010/08/08 06:00
CWKO 080600Z AUTO 36004KT 19/13 RMK AO1 SLP059 T01900130 51004

2010/08/08 06:00
CWOY 080600Z AUTO 26005KT 18/15 RMK AO1 SLP035 T01790150 51008

2010/08/08 06:00
CWCT 080600Z AUTO 24007KT 16/13 RMK AO1 SLP046 T01550126 51011

2010/08/08 06:00
CWCT 080600Z AUTO 24007KT 16/13 RMK AO1 SLP046 T01550126 51011

2010/08/08 06:00
CWVT 080600Z AUTO 18002KT 16/15 RMK AO1 8002 SLP026 T01600152 50052

2010/08/08 06:00
CWZW 080600Z AUTO 27004KT 14/08 RMK AO1 SLP072 T01400084 53012

2010/08/08 06:00
CWVT 080600Z AUTO 18002KT 16/15 RMK AO1 8002 SLP026 T01600152 50052

2010/08/08 06:00
CWZW 080600Z AUTO 27004KT 14/08 RMK AO1 SLP072 T01400084 53012

2010/08/08 06:00
CWZW 080600Z AUTO 27004KT 14/08 RMK AO1 SLP072 T01400084 53012

2010/08/08 06:00
CWRM 080600Z AUTO 04001KT 11/10 RMK AO1 1008 SLP059 T01070099 50003

2010/08/08 06:00
CWEQ 080600Z AUTO 18002KT 15/14 RMK AO1 SLP016 T01540144 56002

2010/08/08 06:00
CWLP 080600Z AUTO 27009KT 12/11 RMK AO1 PK WND 27017/0508 SLP139 T01180113 51004

2010/08/08 06:00
CWZG 080600Z AUTO 22005KT 13/08 RMK AO1 SLP078 T01260079 51010

2010/08/08 06:00
SEQU 080600Z 18002KT 3000 BR SCT003 BKN015 10/09 Q1028 RMK A3036 TEMPO 4000

2010/08/08 06:00
SEGU 080600Z 22004KT 9999 FEW100 23/18 Q1013 NOSIG

2010/08/08 06:00
SEMT 080600Z 23003KT 9999 SCT100 23/19 Q1014

2010/08/08 06:00
CAHR 080600Z AUTO 22005KT 13/10 RMK AO1 SLP155 T01250103 51006

2010/08/08 06:00
CZSP 080600Z AUTO 22005KT 12/10 RMK AO1 SLP148 T01240102 51008

2010/08/08 06:00
CWEB 080600Z AUTO 27006KT 12/12 RMK AO1 SLP135 T01230119 51006

2010/08/08 06:00
CWEL 080600Z AUTO 14008KT 15/15 RMK AO1 SLP112 T01470146 50004

2010/08/08 06:00
CWEZ 080600Z AUTO 22008KT 13/13 RMK AO1 0000 SLP117 T01290125 50006

2010/08/08 06:00
CWFF 080600Z AUTO 25006KT 16/14 RMK AO1 3005 SLP033 T01620144 50002

2010/08/08 06:00
CWGB 080600Z AUTO 13009KT 15/14 RMK AO1 0006 SLP118 T01450136 50002

2010/08/08 06:00
CWGD 080600Z AUTO 20011KT 22/18 RMK AO1 PK WND 18017/0512 SLP115 T02170180 58005

2010/08/08 06:00
CWGL 080600Z AUTO 21017KT 21/17 RMK AO1 PK WND 23021/0522 SLP126 T02120172 58008

2010/08/08 06:00
CWGM 080600Z AUTO 27001KT 14/08 RMK AO1 T01410078

2010/08/08 06:00
CWGM 080600Z AUTO 27001KT 14/08 RMK AO1 T01410078

2010/08/08 06:00
CWGM 080600Z AUTO 27001KT 14/08 RMK AO1 T01410078

2010/08/08 06:00
CWNE 080600Z AUTO 24014KT 18/08 RMK AO1 PK WND 25017/0527 SLP142 T01770082 51004

2010/08/08 06:00
CWNM 080600Z AUTO 18/17 RMK AO1 1009 SLP081 T01800170 50002

2010/08/08 06:00
CWNP 080600Z AUTO 33001KT 19/16 RMK AO1 SLP076 T01870162 51011

2010/08/08 06:00
CWOC 080600Z AUTO 28004KT 12/08 RMK AO1 SLP125 T01160080 53005

2010/08/08 06:00
CWOD 080600Z AUTO 33010KT 13/ RMK AO1 4PAST HR 3011 PK WND 34020/0538 SLP063 P0002 T0127 50004

2010/08/08 06:00
CWPE 080600Z AUTO 23002KT 10/09 RMK AO1 SLP165 T00990090 53006

2010/08/08 06:00
CWPF 080600Z AUTO 21010KT 12/12 RMK AO1 0000 SLP115 T01180118 50012

2010/08/08 06:00
CWPR 080600Z AUTO 31002KT 16/ RMK AO1 SLP107 T0160 51004

2010/08/08 06:00
CWPZ 080600Z AUTO 31003KT 15/08 RMK AO1 SLP086 T01450077 53010

2010/08/08 06:00
CWEP 080600Z AUTO 25010KT 14/11 RMK AO1 SLP151 T01370114 52009

2010/08/08 06:00
CWER 080600Z AUTO 26006KT RMK AO1 

2010/08/08 06:00
CWDM 080600Z AUTO 24010KT 10/07 RMK AO1 SLP093 T00980071 53016

2010/08/08 06:00
CWWE 080600Z AUTO 24006KT 08/08 RMK AO1 SLP186 T00830075 52011

2010/08/08 06:00
CWNH 080600Z AUTO 19008KT 14/07 RMK AO1 SLP107 T01380068 50000

2010/08/08 06:00
CWSF 080600Z AUTO 19011G19KT 13/06 RMK AO1 PK WND 21022/0535 SLP098 T01270061 56003

2010/08/08 06:00
CWBV 080600Z AUTO 26008KT 14/10 RMK AO1 SLP180 T01410096 51011

2010/08/08 06:00
CWHO 080600Z AUTO 24008KT 11/08 RMK AO1 SLP019 T01100078 53008

2010/08/08 06:00
CWRN 080600Z AUTO 25008KT 14/09 RMK AO1 SLP169 T01380092 51010

2010/08/08 06:00
CWBY 080600Z AUTO 21003KT 10/08 RMK AO1 SLP098 T01040076 52007

2010/08/08 06:00
CWWB 080600Z AUTO 21007KT 22/15 RMK AO1 SLP127 T02240146 56008

2010/08/08 06:00
CWWB 080600Z AUTO 21007KT 22/15 RMK AO1 SLP127 T02240146 56008

2010/08/08 06:00
CWNC 080600Z AUTO 00000KT 16/14 RMK AO1 SLP127 T01630142 58004

2010/08/08 06:00
CWNZ 080600Z AUTO 26005KT 13/10 RMK AO1 SLP065 T01330103 50002

2010/08/08 06:00
CWDV 080600Z AUTO 00033KT 10/08 RMK AO1 SLP081 T01010075 53002

2010/08/08 06:00
CTRA 080600Z AUTO 06001KT 15/14 RMK AO1 SLP064 T01540139 58001

2010/08/08 06:00
CWTA 080600Z AUTO 20004KT 16/10 RMK AO1 SLP134 T01630101 58009

2010/08/08 06:00
CWTN 080600Z AUTO 36001KT 12/10 RMK AO1 SLP121 T01160103 58002

2010/08/08 06:00
CWTY 080600Z AUTO 22014KT 16/10 RMK AO1 PK WND 22017/0559 SLP120 T01620096 58007

2010/08/08 06:00
CWUS 080600Z AUTO 29004KT 20/09 RMK AO1 SLP087 T02020089 51009

2010/08/08 06:00
CWUX 080600Z AUTO 21010KT 15/06 RMK AO1 PK WND 21017/0548 SLP083 T01490064 58004

2010/08/08 06:00
CWVF 080600Z AUTO 11006KT 17/ RMK AO1 T0166

2010/08/08 06:00
CWVI 080600Z AUTO 36002KT 17/14 RMK AO1 SLP025 T01680142 51009

2010/08/08 06:00
CWVU 080600Z AUTO 20011G17KT 16/13 RMK AO1 PK WND 21019/0523 SLP176 T01610130 52005

2010/08/08 06:00
CWVV 080600Z AUTO 16003KT 14/13 RMK AO1 8000 SLP121 T01420130 50008

2010/08/08 06:00
CWWA 080600Z AUTO 07001KT 15/14 RMK AO1 2PAST HR 5000 SLP123 P0001 T01530143 50012

2010/08/08 06:00
CWWK 080600Z AUTO 10001KT 17/16 RMK AO1 0000 SLP129 T01710159 50006

2010/08/08 06:00
CWTN 080600Z AUTO 36001KT 12/10 RMK AO1 SLP121 T01160103 58002

2010/08/08 06:00
CWTY 080600Z AUTO 22014KT 16/10 RMK AO1 PK WND 22017/0559 SLP120 T01620096 58007

2010/08/08 06:00
CWUS 080600Z AUTO 29004KT 20/09 RMK AO1 SLP087 T02020089 51009

2010/08/08 06:00
CWUX 080600Z AUTO 21010KT 15/06 RMK AO1 PK WND 21017/0548 SLP083 T01490064 58004

2010/08/08 06:00
CWVF 080600Z AUTO 11006KT 17/ RMK AO1 T0166

2010/08/08 06:00
CWVI 080600Z AUTO 36002KT 17/14 RMK AO1 SLP025 T01680142 51009

2010/08/08 06:00
CWVU 080600Z AUTO 20011G17KT 16/13 RMK AO1 PK WND 21019/0523 SLP176 T01610130 52005

2010/08/08 06:00
CWVV 080600Z AUTO 16003KT 14/13 RMK AO1 8000 SLP121 T01420130 50008

2010/08/08 06:00
CWWA 080600Z AUTO 07001KT 15/14 RMK AO1 2PAST HR 5000 SLP123 P0001 T01530143 50012

2010/08/08 06:00
CWWK 080600Z AUTO 10001KT 17/16 RMK AO1 0000 SLP129 T01710159 50006

2010/08/08 06:00
CXLB 080600Z AUTO 26006KT 13/10 RMK AO1 SLP183 T01270097 53009

2010/08/08 06:00
CXTD 080600Z AUTO 22008KT 12/08 RMK AO1 SLP170 T01200083 52009

2010/08/08 06:00
CXZV 080600Z AUTO 20002KT 12/09 RMK AO1 SLP081 T01210093 50000

2010/08/08 06:00
CWAQ 080600Z AUTO 24002KT 14/12 RMK AO1 T01380115

2010/08/08 06:00
CWBO 080600Z AUTO 28010KT 18/12 RMK AO1 SLP042 T01770117 51012

2010/08/08 06:00
CWBS 080600Z AUTO 19013KT 16/ RMK AO1 PK WND 19019/0515 T0158

2010/08/08 06:00
CWBT 080600Z AUTO 28002KT 05/05 RMK AO1 SLP095 T00460046 53007

2010/08/08 06:00
CWCJ 080600Z AUTO 07005KT 12/11 RMK AO1 SLP072 T01200107 58006

2010/08/08 06:00
CWDJ 080600Z AUTO 33007KT 16/14 RMK AO1 SLP047 T01590138 51011

2010/08/08 06:00
CWJO 080600Z AUTO 21013KT 16/07 RMK AO1 PK WND 23023/0503 SLP086 T01590071 58004

2010/08/08 06:00
CWJR 080600Z AUTO 03001KT 17/ RMK AO1 1007 SLP089 T0172 50014

2010/08/08 06:00
CWJT 080600Z AUTO 31001KT 12/10 RMK AO1 SLP122 T01220097 55002

2010/08/08 06:00
CWJV 080600Z AUTO 01001KT 16/14 RMK AO1 SLP081 T01610137 51013

2010/08/08 06:00
CWJW 080600Z AUTO 16003KT 13/11 RMK AO1 1009 SLP079 T01280107 50003

2010/08/08 06:00
CWKH 080600Z AUTO 15/ RMK AO1 T0146

2010/08/08 06:00
CWMM 080600Z AUTO 36002KT 15/15 RMK AO1 9PAST HR 8001 SLP126 P0004 T01520147 50032

2010/08/08 06:00
CWJV 080600Z AUTO 01001KT 16/14 RMK AO1 SLP081 T01610137 51013

2010/08/08 06:00
CWJW 080600Z AUTO 16003KT 13/11 RMK AO1 1009 SLP079 T01280107 50003

2010/08/08 06:00
CWKH 080600Z AUTO 15/ RMK AO1 T0146

2010/08/08 06:00
CWMM 080600Z AUTO 36002KT 15/15 RMK AO1 9PAST HR 8001 SLP126 P0004 T01520147 50032

2010/08/08 06:00
CWXL 080600Z AUTO 23003KT 15/12 RMK AO1 T01500116

2010/08/08 06:00
CWYJ 080600Z AUTO 23003KT 14/14 RMK AO1 4PAST HR M P0002 T01440141 50022

2010/08/08 06:00
CWZA 080600Z AUTO 01001KT 17/16 RMK AO1 0000 SLP120 T01660160 50002

2010/08/08 06:00
CWZO 080600Z AUTO 17008KT RMK AO1 

2010/08/08 06:00
CWZS 080600Z AUTO 17004KT 12/07 RMK AO1 SLP108 T01150065 58003

2010/08/08 06:00
CXHM 080600Z AUTO 24003KT 20/14 RMK AO1 T02000143

2010/08/08 06:00
CXKE 080600Z AUTO 21004KT 16/11 RMK AO1 SLP127 T01570111 56001

2010/08/08 06:00
CWQH 080600Z AUTO 14004KT 10/08 RMK AO1 T00950080

2010/08/08 06:00
CWQK 080600Z AUTO 24014KT RMK AO1 

2010/08/08 06:00
CWRY 080600Z AUTO 29002KT 13/08 RMK AO1 SLP063 T01260080 51010

2010/08/08 06:00
CWRZ 080600Z AUTO 28007KT 10/07 RMK AO1 SLP118 T00970066 53001

2010/08/08 06:00
CWSD 080600Z AUTO 22006KT 10/09 RMK AO1 SLP152 T01040085 51006

2010/08/08 06:00
CWSG 080600Z AUTO 19009KT 14/06 RMK AO1 SLP094 T01370059 58008

2010/08/08 06:00
CWSK 080600Z AUTO 17002KT 16/15 RMK AO1 SLP116 T01610147 52004

2010/08/08 06:00
CWSL 080600Z AUTO 36006KT 19/17 RMK AO1 SLP084 T01850165 50007

2010/08/08 06:00
CWSP 080600Z AUTO 29014KT 13/12 RMK AO1 PK WND 30018/0513 SLP125 T01250122 53006

2010/08/08 06:00
CWST 080600Z AUTO 22013G19KT 16/06 RMK AO1 PK WND 23026/0512 T01580062

2010/08/08 06:00
CWSP 080600Z AUTO 29014KT 13/12 RMK AO1 PK WND 30018/0513 SLP125 T01250122 53006

2010/08/08 06:00
CWST 080600Z AUTO 22013G19KT 16/06 RMK AO1 PK WND 23026/0512 T01580062

2010/08/08 06:00
CWGT 080600Z AUTO 14013KT 16/15 RMK AO1 PK WND 14018/0511 SLP114 T01590147 51010

2010/08/08 06:00
CWGW 080600Z AUTO 16002KT 14/13 RMK AO1 SLP097 T01420126 51013

2010/08/08 06:00
CWHL 080600Z AUTO 14004KT 11/ RMK AO1 SLP132 T0113 53002

2010/08/08 06:00
CWHQ 080600Z AUTO 00000KT 09/08 RMK AO1 T00860084

2010/08/08 06:00
CWIS 080600Z AUTO 21008KT 10/06 RMK AO1 SLP125 T00980056 58002

2010/08/08 06:00
CWJC 080600Z AUTO 11/07 RMK AO1 SLP096 T01070067 53004

2010/08/08 06:00
CWJH 080600Z AUTO 09001KT 15/14 RMK AO1 SLP050 T01490140 51004

2010/08/08 05:58
PTYA 080558Z 07008KT 12SM SCT015CB BKN130 OVC300 30/24 A2976 RMK CB VC W MOV SW SLP079 60002 8/371 T03010241 10308 20290 58010

2010/08/08 05:54
KVAD 080554Z 00000KT 7SM R18/5000V5500FT FEW002 24/24 A2993 RMK AO2A VIS 1 RWY36 SLP134 $

2010/08/08 06:00
CXRH 080600Z AUTO 25010G15KT 14/10 RMK AO1 18 0507Z T01370102

2010/08/08 06:00
CXSR 080600Z AUTO 21009KT 13/07 RMK AO1 SLP024 T01250070 51006

2010/08/08 06:00
CXSW 080600Z AUTO 28007KT RMK AO1 

2010/08/08 06:00
CXRH 080600Z AUTO 25010G15KT 14/10 RMK AO1 18 0507Z T01370102

2010/08/08 06:00
CXSR 080600Z AUTO 21009KT 13/07 RMK AO1 SLP024 T01250070 51006

2010/08/08 06:00
CXSW 080600Z AUTO 28007KT RMK AO1 

2010/08/08 06:06
KSGJ 080606Z AUTO 16003KT 10SM BKN024 OVC075 26/24 A2994 RMK AO2

2010/08/08 06:05
KEWB 080605Z AUTO 00000KT 2SM BR CLR 16/14 A3003 RMK AO2 VIS 3/4V5

2010/08/08 06:05
KMPV 080605Z AUTO 00000KT 2SM BR SCT001 09/08 A3005 RMK AO2

2010/08/08 06:05
PAVL 080605Z AUTO 27006KT 1 3/4SM -RA BR OVC001 09/09 A2960 RMK AO2 P0000 TSNO

2010/08/08 05:56
PHNY 080556Z AUTO 04007KT 10SM CLR 22/19 A3012 RMK AO2 TSNO 53011 60000 T02220188 10266 20222 SLP177 $

2010/08/08 06:15
KRQO 080615Z AUTO 00000KT 10SM CLR 27/21 A2986 RMK AO2

2010/08/08 06:03
KTNB 080603Z AUTO 00000KT 1SM BR VV007 16/15 A3013 RMK AO2

2010/08/08 06:05
K2G4 080605Z AUTO 00000KT 10SM CLR 17/10 A3012 RMK AO1

2010/08/08 06:05
K2W6 080605Z AUTO 00000KT 10SM CLR 19/17 A3001 RMK AO1

2010/08/08 06:05
KCGS 080605Z AUTO 00000KT 10SM BKN080 21/17 A3000 RMK AO1

2010/08/08 06:06
KFDK 080606Z AUTO 00000KT 10SM CLR 18/17 A3002 RMK AO2

2010/08/08 06:06
KMTN 080606Z AUTO 00000KT 10SM CLR 21/18 A3000 RMK AO2

2010/08/08 06:06
KW29 080606Z AUTO 16003KT 10SM CLR 21/19 A2999 RMK AO1

2010/08/08 05:55
KGZL 080555Z AUTO 11006KT 10SM CLR 25/24 A2987 RMK AO2 LTG DSNT S AND SW

2010/08/08 06:00
KW22 080600Z AUTO 00000KT 10SM FEW070 16/16 A3007 RMK AO2

2010/08/08 06:00
KWDR 080600Z AUTO 00000KT 4SM CLR 24/22 A3001 RMK AO1

2010/08/08 06:00
KXLL 080600Z AUTO 00000KT 7SM BKN075 OVC090 21/18 A3002 RMK AO2 T02060176

2010/08/08 06:00
KXSA 080600Z AUTO 00000KT 7SM CLR 19/18 A3000 RMK AO2

2010/08/08 06:06
KCBE 080606Z AUTO 02004KT 10SM BKN070 BKN085 19/16 A3007 RMK AO1

2010/08/08 06:12
KESN 080612Z AUTO 00000KT 10SM CLR 20/20 A3003 RMK AO2

2010/08/08 05:56
KNUW 080556Z 26004KT 6SM BR BKN005 OVC015 16/15 A2991 RMK AO2 SLP130 60010 T01620152 10178 20156 51005 $

2010/08/08 05:55
KNYL 080555Z 15010KT 10SM CLR 31/16 A2971 RMK AO2 SLP055 T03060156 10389 20306 51016

2010/08/08 05:58
PWAK 080558Z 12010KT 7SM FEW020 SCT035 29/24 A2991 RMK AO2A RS DIST S MOV SLOWLY W

2010/08/08 05:55
KHRT 080555Z AUTO 00000KT 10SM BKN120 26/26 A2990 RMK AO2 SLP126 60001 T02560256 10260 20254 403380247 58002 $

2010/08/08 05:55
KLUF 080555Z AUTO 00000KT 10SM BKN150 30/18 A2982 RMK AO2 SLP074 T02960181 10336 20287 51014 $

2010/08/08 05:56
KNXX 080556Z AUTO 00000KT 10SM FEW095 22/15 A3002 RMK AO2 SLP170 T02170150 10267 20217 50005 $

2010/08/08 05:55
KVAD 080555Z 00000KT 6SM R18/4500V5500FT BR FEW002 24/24 A2993 RMK AO2A VIS 1 RWY36 SLP133 60018 T02450243 10251 20245 50000 $

2010/08/08 05:58
PWAK 080558Z 12010KT 7SM FEW020 SCT035 29/24 A2991 RMK AO2A RS DIST S MOV SLOWLY W

2010/08/08 05:55
KVAD 080555Z 00000KT 6SM R18/4500V5500FT BR FEW002 24/24 A2993 RMK AO2A VIS 1 RWY36 SLP133 60018 T02450243 10251 20245 50000 $

2010/08/08 06:00
TTPP 080600Z 00000KT 9999 FEW016 25/24 Q1012 NOSIG

2010/08/08 05:56
KNUW 080556Z 26004KT 6SM BR BKN005 OVC015 16/15 A2991 RMK AO2 SLP130 60010 T01620152 10178 20156 51005 $

2010/08/08 05:55
KNYL 080555Z 15010KT 10SM CLR 31/16 A2971 RMK AO2 SLP055 T03060156 10389 20306 51016

2010/08/08 05:55
KWRB 080555Z 00000KT 10SM CLR 25/24 A2994 RMK AO2A SLP137 T02460243 10299 20246 53002

2010/08/08 05:57
PHNG 080557Z AUTO 06008KT 10SM FEW018 OVC060 26/22 A3008 RMK AO2 SLP181 6//// T02560222 10289 20256 53012 $

2010/08/08 06:00
TTPP 080600Z 00000KT 9999 FEW016 25/24 Q1012 NOSIG

2010/08/08 06:00
HECA 080600Z 03009KT 9999 SCT025 27/20 Q1011 NOSIG

2010/08/08 06:00
YPAD 080600Z 02005KT CAVOK 12/07 Q1012 INTER 0730/0900 30020G30KT 5000 SHRA BKN030

2010/08/08 06:00
YBAS 080600Z 15008KT CAVOK 22/M09 Q1013

2010/08/08 06:00
YBBN 080600Z 06008KT 9999 FEW045 19/09 Q1018 NOSIG

2010/08/08 06:00
YBCS 080600Z 10012KT 9999 FEW030 BKN045 24/15 Q1014 NOSIG

2010/08/08 06:00
YBTL 080600Z 10013KT 9999 FEW045 24/15 Q1015 NOSIG

2010/08/08 06:00
YMML 080600Z 01018KT 9999 FEW035 12/03 Q1016 FM0600 MOD TURB BLW 5000FT

2010/08/08 06:00
YPAD 080600Z 02005KT CAVOK 12/07 Q1012

2010/08/08 06:00
YPCC 080600Z 12015KT 9999 FEW026 28/21 Q1012

2010/08/08 06:00
YPDN 080600Z 33010KT CAVOK 31/16 Q1009 NOSIG

2010/08/08 06:00
YPLM 080600Z 14005KT CAVOK 27/M04 Q1015

2010/08/08 06:00
YPPH 080600Z 18010KT 9999 FEW042 18/05 Q1025 NOSIG

2010/08/08 06:00
YPTN 080600Z AUTO 13005KT 9999NDV // NCD 32/M02 Q1010

2010/08/08 06:00
YPXM 080600Z AUTO 12012KT 9999NDV // SCT020 26/20 Q1012

2010/08/08 06:00
YSSY 080600Z 06011KT CAVOK 16/05 Q1019 NOSIG

2010/08/08 06:00
OEJN 080600Z 18005KT CAVOK 35/27 Q1002 NOSIG

2010/08/08 06:00
OMAA 080600Z 14014KT 7000 NSC 40/11 Q0998 A2948 NOSIG

2010/08/08 06:00
OMAL 080600Z 16015KT CAVOK 39/12 Q1001 A2958

2010/08/08 06:00
OMDB 080600Z 19006KT 160V240 CAVOK 41/13 Q0999 NOSIG

2010/08/08 06:00
OMFJ 080600Z 11010KT 050V120 8000 NSC 34/28 Q1000 A2953

2010/08/08 06:00
OMRK 080600Z 00000KT CAVOK 39/26 Q0998 A2949

2010/08/08 06:00
OMSJ 080600Z 19005KT 140V240 CAVOK 41/13 Q0999

2010/08/08 06:00
OOMS 080600Z 28008KT 240V320 CAVOK 36/24 Q1000 NOSIG

2010/08/08 05:50
OOSA 080550Z 19009KT 160V230 6000 FEW006 BKN010 OVC020 26/23 Q1004 NOSIG RH81 RMK05

2010/08/08 06:00
OMAD 080600Z 13009KT 9000 NSC 39/14 Q0998 A2950

2010/08/08 05:50
OAKN 080550Z 18006KT 9000 DU FEW120 BKN180 35/07 Q1006 BLU NOSIG RMK A2972 DA6600

2010/08/08 06:00
UAAA 080600Z 09003MPS 010V150 9999 FEW100 30/11 Q1008 88CLRD65 NOSIG

2010/08/08 06:00
UACC 080600Z 33003MPS 300V360 9999 SCT040 30/09 Q1011 220/0070 NOSIG RMK QFE727/0970

2010/08/08 06:00
UAKK 080600Z 04003MPS 010V150 CAVOK 28/09 Q1012 050///70 NOSIG RMK QFE712/0950

2010/08/08 06:00
UARR 080600Z 01005MPS CAVOK 33/10 Q1016 04CLRD70 NOSIG RMK QFE758/1011

2010/08/08 06:00
UATE 080600Z 05006MPS 030V090 CAVOK 37/04 Q1009 120///70 NOSIG RMK QFE755/1007

2010/08/08 06:00
UATG 080600Z 12002MPS CAVOK 34/13 Q1012 14CLRD70 NOSIG RMK QFE761/1015

2010/08/08 06:00
UATT 080600Z 05003MPS 010V110 9999 NSC 33/08 Q1016 13CLRD70 NOSIG RMK QFE742/0990

2010/08/08 06:00
UAUU 080600Z 34003MPS 290V360 8000 NSC 32/11 Q1013 33CLRD70 NOSIG RMK QFE744/0992

2010/08/08 06:00
UTDD 080600Z VRB01MPS 9999 SCT066CB BKN120 33/12 Q1007 09CLRD70 NOSIG RMK QFE688/0917

2010/08/08 06:00
TBPB 080600Z 03004KT 9999 FEW012CB SCT016 BKN036 25/24 Q1012

2010/08/08 06:00
TGPY 080600Z 00000KT 9999 SCT018 26/25 Q1012

2010/08/08 06:00
TTCP 080600Z 00000KT 9999 FEW016 26/22 Q1012 NOSIG

2010/08/08 06:00
TTPP 080600Z 00000KT 9999 FEW016 25/24 Q1012 NOSIG

2010/08/08 06:00
MKJP 080600Z 34003KT 9999 FEW022 BKN240 28/21 Q1014

2010/08/08 06:00
MKJS 080600Z 00000KT 9999 VCTS FEW024CB 28/22 Q1014

2010/08/08 06:00
MYNN 080600Z 13005KT 9999 SCT015 28/23 A2997

2010/08/08 06:00
ZHHH 080600Z 15004MPS 9999 FEW025TCU 33/28 Q1003 NOSIG

2010/08/08 06:00
ZLLL 080600Z VRB02G07MPS 9999 SCT023 28/13 Q1012 NOSIG

2010/08/08 06:00
ZSNJ 080600Z 12004MPS 080V180 9999 BKN020 34/19 Q1004 NOSIG

2010/08/08 06:00
ZSOF 080600Z 16003MPS 120V200 9999 FEW023 34/26 Q1003 NOSIG

2010/08/08 06:00
ZUCK 080600Z 10003MPS 040V180 9999 FEW030 35/19 Q1004 NOSIG

2010/08/08 06:00
ZYHB 080600Z 15005MPS 110V190 9999 SCT020 SCT033 24/18 Q1005 NOSIG

2010/08/08 06:00
CYBG 080600Z 18011G16KT 15SM BKN040 BKN075 16/06 A2978 RMK SC6AC2 SLP086

2010/08/08 06:00
CYDQ 080600Z AUTO 23010KT 9SM BKN096 17/09 A2960 RMK SLP028 DENSITY ALT 3200FT

2010/08/08 06:00
CYEG 080600Z 18002KT 15SM OVC097 14/14 A2967 RMK AC8 SLP047

2010/08/08 06:00
CYFB 080600Z 07007KT 15SM SCT037 BKN063 11/05 A2947 RMK SC3SC4 SLP980

2010/08/08 06:00
CYFC 080600Z AUTO 22003KT 9SM CLR 08/06 A2999 RMK SLP158 RVR MISG

2010/08/08 06:00
CYGL 080600Z 20010KT 8SM -RA OVC003 07/07 A2952 RMK SF8 SLP005

2010/08/08 06:00
CYHZ 080600Z 20006KT 15SM SKC 10/08 A3006 RMK SLP179

2010/08/08 06:00
CYJT 080600Z 32004KT 15SM SKC 13/10 A2993 RMK SLP135

2010/08/08 06:00
CYKL 080600Z AUTO 22010KT 9SM CLR 07/06 A2952 RMK SLP013

2010/08/08 06:00
CYMH 080600Z AUTO 29005KT 9SM CLR 12/08 A2966 RMK SLP046

2010/08/08 06:00
CYMX 080600Z 24002KT 25SM SCT060 15/09 A2992 RMK SC2 SLP132

2010/08/08 06:00
CYOW 080600Z 22004KT 15SM FEW040 BKN220 16/13 A2991 RMK CF1CI6 SLP129

2010/08/08 06:00
CYQB 080600Z 25002KT 15SM BKN100 13/09 A2990 RMK AC7 SLP127

2010/08/08 06:00
CYQG 080600Z 22006KT 10SM FEW160 BKN250 22/17 A2994 RMK AC2CI2 SLP137

2010/08/08 06:00
CYQM 080600Z 22006KT 15SM SCT120 09/07 A3000 RMK AC3 SLP160

2010/08/08 06:00
CYQQ 080600Z 21002KT 1SM -RA BR BKN003 OVC025 16/16 A2989 RMK SF6SC2 SLP124

2010/08/08 06:00
CYQX 080600Z 24010G15KT 20SM FEW078 12/08 A2991 RMK AC1 SLP128

2010/08/08 06:00
CYQY 080600Z 21005KT 15SM SKC 12/09 A3001 RMK SLP164

2010/08/08 06:00
CYSJ 080600Z 00000KT 15SM SKC 07/04 A3003 RMK SLP169

2010/08/08 06:00
CYTE 080600Z AUTO 08013G19KT 9SM BKN037 BKN067 12/08 A2953 RMK SLP004

2010/08/08 06:00
CYTR 080600Z 20008KT 15SM FEW055 FEW090 20/12 A2993 RMK SC1AC1 SLP134

2010/08/08 06:00
CYUL 080600Z 21012KT 15SM FEW060 BKN075 BKN240 17/12 A2991 RMK SC2AC4CI1 SLP129

2010/08/08 06:00
CYUY 080600Z 24005KT 15SM FEW080 12/09 A2976 RMK AC1 SLP082

2010/08/08 06:00
CYVP 080600Z 24010G15KT 5SM -RA BR OVC034 10/07 A2928 RMK SC8 SLP915

2010/08/08 06:00
CYVR 080600Z 09003KT 15SM FEW005 BKN010 OVC025 17/14 A2990 RMK SF2SC5SC1 SLP124

2010/08/08 06:00
CYWG 080600Z 15008KT 15SM FEW120 19/16 A2964 RMK AC1 SLP038

2010/08/08 06:00
CYWK 080600Z 21009KT 15SM BKN051 09/05 A2963 RMK SC6 SLP045

2010/08/08 06:00
CYXU 080600Z 21006KT 15SM FEW100 20/17 A2995 RMK AC2 SLP138

2010/08/08 06:00
CYXX 080600Z 34002KT 2 1/2SM -RA BR BKN007 OVC020 17/13 A2990 RMK SF6SC2 CIG VRB 5-9 PCPN VRY LGT SLP124

2010/08/08 06:00
CYXY 080600Z 15008KT 40SM BKN060 BKN090 14/09 A2970 RMK SC5AC2 SLP069

2010/08/08 06:00
CYYC 080600Z 22002KT 15SM SCT120 15/10 A2975 RMK AC2 SLP067

2010/08/08 06:00
CYYJ 080600Z 13003KT 8SM FEW003 FEW007 OVC052 15/15 A2988 RMK SF1SF2SC6 SLP120

2010/08/08 06:00
CYYQ 080600Z 33006KT 15SM FEW120 09/08 A2984 RMK AC2 SLP107

2010/08/08 06:00
CYYR 080600Z 26005KT 15SM FEW100 FEW260 11/06 A2968 RMK AC1CI0 SLP051

2010/08/08 06:00
CYYT 080600Z 27012KT 15SM SKC 14/11 A2993 RMK SLP135

2010/08/08 06:00
CYYZ 080600Z 20004KT 15SM FEW110 BKN260 19/12 A2992 RMK AC2CI1 SLP132

2010/08/08 06:00
CYZF 080600Z 09003KT 4SM FU FEW080 SCT110 BKN250 19/14 A2950 RMK AC2AC2CI1 SLP994

2010/08/08 06:00
CYZV 080600Z 18010KT 15SM FEW080 13/09 A2977 RMK AC2 SLP083

2010/08/08 06:00
CYZX 080600Z 00000KT 15SM SKC 11/10 A3005 RMK WNDY HILL 22004KT SLP175

2010/08/08 06:00
CYZY 080600Z AUTO VRB02KT 9SM SCT061 OVC078 14/13 A2969 RMK SLP062 DENSITY ALT 2900FT

2010/08/08 06:00
CZBF 080600Z 00000KT 15SM SKC 07/05 A2992 RMK SLP135

2010/08/08 06:00
EPSC 080600Z 27007KT 6000 -RA SCT002 SCT013 16/16 Q1013

2010/08/08 06:00
UKKK 080600Z VRB01MPS 8000 SKC 29/15 Q1014 08CLRD70 NOSIG

2010/08/08 06:00
LRAR 080600Z 33004KT 290V350 CAVOK 20/17 Q1018

2010/08/08 06:00
LRTC 080600Z 35008KT 9999 FEW010 SCT028CB 27/26 Q1012

2010/08/08 06:00
LRTM 080600Z 25004KT 220V290 5000 BR SCT008 BKN010 19/18 Q1017 0729//95

2010/08/08 06:00
LJLJ 080600Z VRB01KT 9999 FEW002 16/13 Q1019 NOSIG

2010/08/08 06:00
LJMB 080600Z VRB01KT CAVOK 16/15 Q1018

2010/08/08 06:00
LJPZ 080600Z 12005KT 090V150 CAVOK 18/14 Q1017

2010/08/08 06:00
LPAZ 080600Z 03004KT 9999 FEW014 19/17 Q1021

2010/08/08 06:00
LPPD 080600Z 04006KT 9999 FEW020 SCT050 19/16 Q1022

2010/08/08 06:00
LFRC 080600Z AUTO 32004KT 280V350 9999NDV FEW008 15/14 Q1020

2010/08/08 06:00
LFRQ 080600Z 32004KT 9999 FEW016 SCT023 14/13 Q1022 NOSIG

2010/08/08 06:00
LFRT 080600Z 30004KT 9999 BKN026 15/15 Q1021

2010/08/08 06:00
LFTW 080600Z AUTO VRB02KT 9999NDV NSC 21/09 Q1018

2010/08/08 06:00
LFMD 080600Z AUTO 36003KT 320V030 9999NDV NSC 19/15 Q1017

2010/08/08 05:50
LFBA 080550Z 29006KT 9999 BKN006 17/16 Q1020 BECMG FEW015

2010/08/08 06:00
LFRH 080600Z 33004KT 9999 SCT029 12/12 Q1022

2010/08/08 06:00
FIMP 080600Z 13019KT 9999 SCT019 23/16 Q1025

2010/08/08 05:55
FJDG 080555Z 12014KT 9999 FEW020 SCT250 29/25 A2987 RMK SLP112 8/101 T02920247 10292 20266 50000

2010/08/08 06:00
FMCZ 080600Z 13011KT 9999 SCT020 SCT060 26/19 Q1018

2010/08/08 06:00
FMEE 080600Z 13019KT 9999 VCSH BKN020 22/17 Q1025 TEMPO 6000 SHRA

2010/08/08 06:00
VYYY 080600Z 29007KT 7000 BKN015 FEW020CB BKN110 26/25 Q 1004

2010/08/08 06:00
WBGG 080600Z 23005KT 9999 FEW016 BKN150 31/23 Q1007 NOSIG

2010/08/08 06:00
WBKK 080600Z 26007KT 9999 FEW015 SCT140 BKN270 32/27 Q1007 NOSIG

2010/08/08 06:00
WBSB 080600Z 22009KT 9999 SCT018 BKN300 34/23 Q1007 NOSIG

2010/08/08 05:45
LIBR 080545Z 34014G24KT 9999 SCT020 22/16 Q1015 NOSIG RMK SCT VIS MIN 9999 WIND THR13 /////KT WIND THR31 32016KT BLU

2010/08/08 05:45
LIPH 080545Z 04003KT CAVOK 20/18 Q1017 RMK SKC VIS MIN 9999 WIND THR07 /////KT BLU

2010/08/08 05:45
LIPR 080545Z 00000KT CAVOK 18/18 Q1016 RMK SKC VIS MIN 9999 WIND THR31 00000KT BLU

2010/08/08 05:45
LIPX 080545Z 00000KT CAVOK 18/18 Q1017 RMK SKC VIS MIN 9999 BLU

2010/08/08 05:50
LIBC 080550Z VRB03KT CAVOK 24/14 Q1016 RMK VIS MIN 9999

2010/08/08 05:50
LIBD 080550Z 31007KT 9999 FEW025 22/15 Q1016 RMK VIS MIN 9999

2010/08/08 05:50
LIBP 080550Z VRB01KT CAVOK 19/16 Q1017 RMK VIS MIN 9999

2010/08/08 05:50
LICA 080550Z VRB01KT 9999 FEW030 21/18 Q1016 RMK VIS MIN 9999

2010/08/08 05:50
LICC 080550Z VRB03KT CAVOK 22/15 Q1016 RMK VIS MIN 9999

2010/08/08 05:55
LICG 080555Z 36011KT 9999 FEW020 22/20 Q1017 RMK FEW VIS MIN 9999 WIND THR08 /////KT WIND THR21 36008KT BLU

2010/08/08 05:50
LICJ 080550Z 06005KT 030V100 9999 FEW030 25/18 Q1017 RMK VIS MIN 9999

2010/08/08 05:50
LICR 080550Z 36010KT 9999 FEW020 25/16 Q1016 RMK VIS MIN 9999

2010/08/08 05:55
LICT 080555Z 00000KT 9999 FEW025 22/20 Q1016 RMK FEW VIS MIN 9999 WIND THR13 05001KT BLU

2010/08/08 05:50
LIEA 080550Z VRB01KT CAVOK 17/16 Q1019 RMK VIS MIN 9999

2010/08/08 05:50
LIEO 080550Z VRB02KT CAVOK 18/16 Q1019 RMK VIS MIN 9999

2010/08/08 05:50
LIMG 080550Z 28004KT 240V310 9999 FEW050 18/11 Q1017 RMK VIS MIN 9999

2010/08/08 05:50
LIPB 080550Z 09002KT CAVOK 14/12 Q1019 RMK MON LIB VIS MIN 9999

2010/08/08 05:50
LIPO 080550Z 05004KT CAVOK 20/15 Q1017 RMK VIS MIN 9999

2010/08/08 05:50
LIPY 080550Z 19003KT 160V220 CAVOK 20/17 Q1017 RMK VIS MIN 9999

2010/08/08 05:50
LIRZ 080550Z 35004KT 320V020 CAVOK 17/16 Q1019 RMK VIS MIN 9999

2010/08/08 05:55
LIMS 080555Z 26008KT CAVOK 18/15 Q1017 RMK SKC VIS MIN 9999 WIND THR30 24005KT BLU

2010/08/08 05:55
LIMU 080555Z 03006KT 9999 BKN023TCU 22/19 Q1018 RMK BKN QUK 2 QUL 1 S VIS MAR 30 KM VIS MIN 9999

2010/08/08 05:55
LIPC 080555Z 28002KT CAVOK 18/16 Q1017 RMK SKC VIS MIN 9999 WIND THR12 29003KT BLU

2010/08/08 05:55
LIPF 080555Z 00000KT 7000 NSC 17/17 Q1016 RMK SKC VIS MIN 7000

2010/08/08 05:55
LIPL 080555Z 04001KT CAVOK 17/16 Q1016 RMK SKC VIS MIN 9999 BLK BLU

2010/08/08 05:55
LIPS 080555Z 04004KT CAVOK 21/17 Q1017 RMK SKC VIS MIN 9999 BLU

2010/08/08 05:55
LIBN 080555Z 32005KT 9999 FEW025 22/19 Q1015 RMK FEW VIS MIN 9999 WIND THR14 32006KT BLU

2010/08/08 05:55
LIBV 080555Z 35010KT CAVOK 21/17 Q1015 RMK SKC VIS MIN 9999 WIND THR14 34009KT BLU

2010/08/08 05:50
LICD 080550Z 33008KT CAVOK 24/18 Q1017 RMK VIS MIN 9999

2010/08/08 05:55
LICZ 080555Z 27002KT CAVOK 22/19 Q1016 RMK SKC VIS MIN 9999 WIND THR28 ///// KT BLU

2010/08/08 05:55
LIED 080555Z 33004KT CAVOK 15/13 Q1017 RMK SKC VIS MIN 9999 BLU

2010/08/08 05:45
LIPX 080545Z 00000KT CAVOK 18/18 Q1017 RMK SKC VIS MIN 9999 BLU

2010/08/08 05:55
LIRE 080555Z 36006KT CAVOK 20/18 Q1017 RMK SKC VIS MIN 9999 WIND THR31 35008KT BLU

2010/08/08 05:55
LIRH 080555Z 00000KT CAVOK 17/15 Q1017 RMK SKC MON LIB NC VIS MIN 9999 WIND THR16 00000KT BLU

2010/08/08 05:55
LIRL 080555Z 00000KT CAVOK 18/16 Q1017 RMK SKC MON LIB NC VIS MIN 9999 BLU

2010/08/08 05:55
LIRS 080555Z 02002KT CAVOK 16/12 Q1018 RMK SKC VIS MIN 9999 WIND THR21 /////KT BLU

2010/08/08 05:50
LIRU 080550Z 00000KT CAVOK 21/19 Q1017 RMK VIS MIN 9999

2010/08/08 05:55
LIRV 080555Z 05005KT CAVOK 20/16 Q1019 RMK SKC MON E SE LIB NC VIS MIN 9999 BLU

2010/08/08 05:55
LIRX 080555Z 18001KT CAVOK 19/16 Q1017 RMK SKC VIS MIN 9999N VIS MAR 20 KM

2010/08/08 05:50
LIRZ 080550Z 35004KT 320V020 CAVOK 17/16 Q1019 RMK VIS MIN 9999

2010/08/08 05:55
LIVD 080555Z 00000KT CAVOK 12/11 Q1022 RMK FEW FEW070 VIS MIN 9999

2010/08/08 05:55
LIVO 080555Z 00000KT 9999 SCT015 12/12 Q1019 RMK SCT VIS MIN 9999

2010/08/08 05:55
LIVR 080555Z 35002KT CAVOK 11/10 Q1023 RMK SKC MON LIB VIS MIN 9999

2010/08/08 05:55
LIVT 080555Z 03002KT CAVOK 21/17 Q1016 RMK FEW FEW120 QUK 0 QUL 0 VIS MAR 20 KM VIS MIN 9999

2010/08/08 06:00
RJAW 080600Z 15009KT 9999 FEW015 SCT100 28/24 Q1012 RMK 2CU015 3AC100 A2990

2010/08/08 06:00
LCLK 080600Z 13004KT 080V180 9999 FEW025 29/23 Q1008 NOSIG

2010/08/08 06:00
LCPH 080600Z 28009KT 250V320 9999 FEW022 29/23 Q1008

2010/08/08 05:45
MMMY 080545Z 11006KT 12SM SKC 26/23 A2991 RMK SLP119 53020 905

2010/08/08 05:58
PTYA 080558Z 07008KT 12SM SCT015CB BKN130 OVC300 30/24 A2976 RMK CB VC W MOV SW SLP079 60002 8/371 T03010241 10308 20290 58010

2010/08/08 06:00
LPAZ 080600Z 03004KT 9999 FEW014 19/17 Q1021

2010/08/08 06:00
LPHR 080600Z 03009KT 9999 FEW013 BKN030 22/16 Q1023

2010/08/08 06:00
LPPD 080600Z 04006KT 9999 FEW020 SCT050 19/16 Q1022

2010/08/08 06:00
UAAA 080600Z 09003MPS 010V150 9999 FEW100 30/11 Q1008 88CLRD65 NOSIG

2010/08/08 06:00
UACC 080600Z 33003MPS 300V360 9999 SCT040 30/09 Q1011 220/0070 NOSIG RMK QFE727/0970

2010/08/08 06:00
UARR 080600Z 01005MPS CAVOK 33/10 Q1016 04CLRD70 NOSIG RMK QFE758/1011

2010/08/08 06:00
UATE 080600Z 05006MPS 030V090 CAVOK 37/04 Q1009 120///70 NOSIG RMK QFE755/1007

2010/08/08 06:00
UATG 080600Z 12002MPS CAVOK 34/13 Q1012 14CLRD70 NOSIG RMK QFE761/1015

2010/08/08 06:00
UATT 080600Z 05003MPS 010V110 9999 NSC 33/08 Q1016 13CLRD70 NOSIG RMK QFE742/0990

2010/08/08 06:00
UTAA 080600Z 32007MPS 9999 SKC 35/05 Q1009 NOSIG

2010/08/08 06:00
UTAT 080600Z VRB01MPS CAVOK 35/18 Q1007 NOSIG

2010/08/08 06:00
UTAV 080600Z 29001MPS CAVOK 34/17 Q1004

2010/08/08 06:00
UTDD 080600Z VRB01MPS 9999 SCT066CB BKN120 33/12 Q1007 09CLRD70 NOSIG RMK QFE688/0917

2010/08/08 06:00
UTDL 080600Z 06006G09MPS 9999 FEW050 FEW100 32/16 Q1005 NOSIG RMK QFE716 8809//70

2010/08/08 06:00
UTAM 080600Z 32004MPS CAVOK 34/12 Q1005 NOSIG

2010/08/08 06:00
SGAS 080600Z 16006KT CAVOK 16/11 Q1014

2010/08/08 06:00
SGES 080600Z 09006KT CAVOK 14/13 Q1016

2010/08/08 06:00
SVMG 080600Z 07002KT 9999 FEW010 BKN080 25/24 Q1012 TEMPO

2010/08/08 06:00
SMJP 080600Z 00000KT 9999 SCT005 25/24 Q1013 NOSIG

2010/08/08 05:50
EGPH 080550Z 25004KT 9999 SCT018 13/11 Q1020

2010/08/08 06:00
UKCW 080600Z 05002MPS 360V090 CAVOK 32/08 Q1016 0909//70 NOSIG

2010/08/08 06:00
UKKK 080600Z VRB01MPS 8000 SKC 29/15 Q1014 08CLRD70 NOSIG

2010/08/08 06:00
UKKM 080600Z 15003MPS CAVOK 29/14 Q1014

2010/08/08 06:00
UKLI 080600Z 00000MPS 9999 BKN033 BKN100 20/19 Q1015 28090070 NOSIG

2010/08/08 06:00
UKLN 080600Z VRB01MPS CAVOK 21/19 Q1015 3309//70 NOSIG

2010/08/08 06:00
UKLU 080600Z 12004MPS 9999 FEW006 19/16 Q1016 10090070 NOSIG

2010/08/08 06:00
UKON 080600Z 07006MPS CAVOK 29/17 Q1012 05090075 NOSIG

2010/08/08 06:00
LERT 080600Z 11012KT CAVOK 28/02 Q1015 NOSIG

2010/08/08 05:55
LICZ 080555Z 27002KT CAVOK 22/19 Q1016 RMK SKC VIS MIN 9999 WIND THR28 ///// KT BLU

2010/08/08 05:55
FJDG 080555Z 12014KT 9999 FEW020 SCT250 29/25 A2987 RMK SLP112 8/101 T02920247 10292 20266 50000

2010/08/08 06:00
CWCA 080600Z 20005KT 15SM FEW030 FEW080 11/10 A2965 RMK SC1AC2 SLP041

2010/08/08 06:00
CWCL 080600Z AUTO 25004KT 9SM FEW063 FEW076 11/10 A2982 RMK SLP098

2010/08/08 06:00
CWEU 080600Z 16002KT 30SM FEW003 FEW035 BKN100 02/01 A2981 RMK CF1SC2AC4 SLP097

2010/08/08 06:00
CWFD 080600Z AUTO 09007G15KT 9SM 08/ RMK ALTM MISG

2010/08/08 06:00
CWHN 080600Z AUTO 27003KT 3 1/2SM CLR 15/14 A2961 RMK SLP029

2010/08/08 06:00
CWIL 080600Z AUTO 16016KT 11/ A2977 RMK SLP087

2010/08/08 06:00
CWKM 080600Z AUTO 03003KT 05/ A2981 RMK SLP099

2010/08/08 06:00
CWKW 080600Z AUTO 14004KT 06/ A2918 RMK SLP899

2010/08/08 06:00
CWLI 080600Z AUTO 03013KT 08/ A2958 RMK SLP029

2010/08/08 06:00
CWLX 080600Z AUTO 05005KT 11/ A2982 RMK SLP109

2010/08/08 06:00
CWLY 080600Z AUTO 20016G28KT 9SM CLR 19/12 A2978 RMK SLP084

2010/08/08 06:00
CWOB 080600Z AUTO ///// 0SM CLR 05/ A2947 RMK SLP013

2010/08/08 06:00
CWRH 080600Z AUTO ///// 04/ A2929 RMK SLP943

2010/08/08 06:00
CWRX 080600Z AUTO 36009KT 08/ A2983

2010/08/08 06:00
CWSA 080600Z AUTO 28006KT 9SM CLR 16/13 A3005 RMK SLP177

2010/08/08 06:00
CWTU 080600Z AUTO 25007KT 09/ A2964 RMK SLP044

2010/08/08 06:00
CWUP 080600Z AUTO 26002KT 02/ A2986 RMK SLP136

2010/08/08 06:00
CWUW 080600Z AUTO ///// 9SM CLR 06/ A2982 RMK SLP125

2010/08/08 06:00
CWVD 080600Z AUTO ///// 09/ A2988 RMK SLP149

2010/08/08 06:00
CWVH 080600Z AUTO 35013KT 07/ A2962 RMK SLP047

2010/08/08 06:00
CWXR 080600Z AUTO 29012KT 09/ A2952 RMK SLP004

2010/08/08 06:00
CWYK 080600Z AUTO ///// 05/ A2936 RMK SLP966

2010/08/08 06:00
CWYM 080600Z AUTO 07031G41KT 05/ RMK ALTM MISG SLP078

2010/08/08 06:00
CWZZ 080600Z AUTO ///// 9SM BKN009 OVC053 OVC082 08/ A2927 RMK SLP929

2010/08/08 06:00
CYAH 080600Z AUTO 21004KT 180V240 9SM OVC032 07/05 A2955 RMK SLP018

2010/08/08 06:00
CYAM 080600Z 04004KT 15SM OVC018 19/17 A2977 RMK SC8 CVCTV CLD EMBD CIG RAG SLP081

2010/08/08 06:00
CYAY 080600Z AUTO 25015G22KT 9SM CLR 13/10 A2973 RMK SLP069 MAX WND 25024KT AT 0532Z

2010/08/08 06:00
CYBC 080600Z AUTO 22010KT 9SM FEW033 FEW041 BKN053 OVC093 12/09 A2977 RMK SLP083

2010/08/08 06:00
CYBK 080600Z 00000KT 15SM FEW050 07/04 A2987 RMK SC1 SLP116

2010/08/08 06:00
CYBN 080600Z AUTO 19009G15KT 9SM CLR 20/12 A2989 RMK SLP121

2010/08/08 06:00
CYBR 080600Z 10003KT 15SM SKC 19/19 A2963 RMK OCNL LTGCG DIST NW SLP034

2010/08/08 06:00
CYBU 080600Z AUTO 31005KT 8SM CLR 15/15 A2960 RMK SLP030 DENSITY ALT 1800FT

2010/08/08 06:00
CYBX 080600Z 27005KT 15SM SKC 11/09 A2975 RMK SLP076

2010/08/08 06:00
CYCB 080600Z 16015G20KT 15SM BKN060 BKN130 14/09 A2967 RMK SC6AC1 FU SLP048

2010/08/08 06:00
CYCO 080600Z 25006KT 5SM FU BKN035 BKN080 17/16 A2951 RMK SC3AC2 SLP994

2010/08/08 06:00
CYCX 080600Z AUTO 20007KT 9SM 11/07 A2999 RMK SLP157

2010/08/08 06:00
CYCY 080600Z AUTO 00000KT 3 1/2SM BKN003 OVC044 OVC079 OVC094 03/03 A2992 RMK SLP135

2010/08/08 06:00
CYDB 080600Z AUTO 05003KT 9SM SCT050 10/08 A2968 RMK SLP072

2010/08/08 06:00
CYDN 080600Z AUTO 36005KT 220V020 9SM BKN120 21/18 A2958 RMK SLP017 DENSITY ALT 2300FT

2010/08/08 06:00
CYED 080600Z AUTO 25005KT 8SM OVC092 17/14 A2965 RMK SLP038

2010/08/08 06:00
CYEK 080600Z AUTO 27008KT 9SM CLR 10/09 A2983 RMK SLP103

2010/08/08 06:00
CYEN 080600Z 29006KT 15SM FEW220 17/14 A2968 RMK CS1 SLP050

2010/08/08 06:00
CYET 080600Z AUTO 28004KT 270V340 9SM FEW080 BKN090 14/10 A2970 RMK SLP055

2010/08/08 06:00
CYEV 080600Z 31007KT 2SM -DZ BR OVC006 10/10 A2962 RMK ST8 SLP034

2010/08/08 06:00
CYFS 080600Z 30010G15KT 15SM TS BKN060CB OVC210 19/16 A2945 RMK CB7CI1 FU SLP975

2010/08/08 06:00
CYGP 080600Z 00000KT 15SM SKC 08/06 A2988 RMK SLP120

2010/08/08 06:00
CYGQ 080600Z 00000KT 15SM SKC 14/11 A2975 RMK SLP078

2010/08/08 06:00
CYGV 080600Z AUTO 25006KT 9SM CLR 10/07 A2980 RMK SLP093

2010/08/08 06:00
CYGW 080600Z 18010KT 10SM SKC 09/08 A2945 RMK SLP973

2010/08/08 06:00
CYHD 080600Z AUTO 10003KT 9SM CLR 16/15 A2973 RMK SLP072

2010/08/08 06:00
CYHE 080600Z AUTO 28005KT 250V310 3 1/2SM DZ OVC029 17/16 A2988 RMK SLP118

2010/08/08 06:00
CYHK 080600Z AUTO 19004KT 9SM CLR 11/08 A2982 RMK SLP103

2010/08/08 06:00
CYHM 080600Z 22006KT 15SM BKN053 19/16 A2994 RMK SC7 SLP138

2010/08/08 06:00
CYHU 080600Z AUTO 19004KT 9SM SCT056 BKN069 OVC081 14/10 A2991 RMK SLP131 RVR MISG

2010/08/08 06:00
CYHY 080600Z 10005KT 14SM FEW050 SCT230 19/16 A2943 RMK SC2CI0 FU SLP969

2010/08/08 06:00
SLLP 080600Z VRB02KT 9999 SKC 02/M10 Q1039

2010/08/08 06:00
SLVR 080600Z 33007KT 6000 NSC 17/14 Q1013

2010/08/08 06:00
SLCB 080600Z 00000KT 9999 SKC 08/00 Q1024

2010/08/08 06:00
CYIO 080600Z 15005KT 30SM FEW030 FEW080 FEW200 06/03 A2986 RMK SC0AC0CI1 CALL-OUT SLP117

2010/08/08 06:00
CYIV 080600Z 08006KT 15SM BKN055 BKN090 BKN250 16/09 A2973 RMK SC5AC1CI0 SLP070

2010/08/08 06:00
CYKA 080600Z 08002KT 40SM FEW060 BKN140 18/13 A2977 RMK CU2AC3 SLP080

2010/08/08 06:00
CYKF 080600Z AUTO 20007KT 9SM FEW045 BKN110 17/13 A2994 RMK SLP137 DENSITY ALT 1500FT

2010/08/08 06:00
CYKJ 080600Z AUTO 11008KT 9SM OVC029 15/13 A2964 RMK SLP048 DENSITY ALT 2300FT

2010/08/08 06:00
CYKY 080600Z 12007KT 15SM FEW260 17/14 A2967 RMK CI2 SLP042

2010/08/08 06:00
CYKZ 080600Z 20005KT 15SM SCT051 19/12 A2993 RMK SC3 SLP133

2010/08/08 06:00
CYLL 080600Z AUTO 25007KT 6SM BR CLR 15/13 A2964 RMK SLP038 DENSITY ALT 3000FT

2010/08/08 06:00
CYLW 080600Z AUTO 14007KT OVC110 19/09 A2979 RMK SLP085 DENSITY ALT 2300FT WX MISG VIS MISG ICG MISG

2010/08/08 06:00
CYMA 080600Z 00000KT 20SM FEW050 BKN240 14/11 A2964 RMK SC2CI0 CLIMAT 22.5/13.8/0.6MM SLP047

2010/08/08 06:00
CYMO 080600Z AUTO 13002KT 9SM OVC065 12/11 A2961 RMK SLP029

2010/08/08 06:00
CYMT 080600Z 23004KT 6SM -RA OVC060 09/08 A2973 RMK SC8 SLP075

2010/08/08 06:00
CYNA 080600Z AUTO 26011G17KT 9SM CLR 12/08 A2982 RMK SLP097

2010/08/08 06:00
CYNE 080600Z AUTO 09006KT 9SM FEW073 BKN095 18/13 A2965 RMK SLP042

2010/08/08 06:00
CYNM 080600Z AUTO 17004KT 7SM OVC000 10/09 A2969 RMK SLP060

2010/08/08 06:00
CYOD 080600Z 20003KT 15SM FEW060CB FEW240 18/15 A2962 RMK CB1CI2 CB DIST SW MOVG NE WITH ONCL LGTNG SLP030

2010/08/08 06:00
CYOJ 080600Z 00000KT 8SM FEW030 FEW080 BKN250 18/15 A2947 RMK SC1AC1CI1 FU SLP982

2010/08/08 06:00
CYOY 080600Z AUTO 36004KT 9SM OVC091 09/07 A2989 RMK SLP125

2010/08/08 06:00
CYPA 080600Z 00000KT 15SM FEW250 17/16 A2963 RMK CI0 SLP036

2010/08/08 06:00
CYPE 080600Z 22008KT 15SM FEW250 15/08 A2956 RMK CI1 SLP012

2010/08/08 06:00
CYPH 080600Z AUTO 24010KT 9SM OVC004 08/08 A2936 RMK SLP945

2010/08/08 06:00
CYPQ 080600Z AUTO ///// 9SM FEW078 BKN097 14/14 A2992 RMK SLP132

2010/08/08 06:00
CYPY 080600Z AUTO 14003KT 110V170 9SM CLR 19/16 A2950 RMK SLP994

2010/08/08 06:00
CYQA 080600Z AUTO 16005KT 9SM BKN051 OVC110 16/14 A2988 RMK SLP119 DENSITY ALT 1300FT

2010/08/08 06:00
CYQD 080600Z 09006KT 15SM -SHRA SCT035 BKN070 17/16 A2960 RMK SC3AC2 CB EMBD OCNL LTNG DIST E-SE SLP027

2010/08/08 06:00
CYQF 080600Z 25007KT 15SM FEW250 12/10 A2971 RMK CI1 SLP062

2010/08/08 06:00
CYQH 080600Z 29009KT 30SM BKN030 16/10 A2964 RMK SC6 CLIMAT 22.1 / 16.0 SLP039

2010/08/08 06:00
CYQI 080600Z 22012KT 15SM SKC 15/13 A3008 RMK SLP185

2010/08/08 06:00
CYQK 080600Z 11004KT 15SM SKC 18/15 A2973 RMK SLP066

2010/08/08 06:00
CYQL 080600Z AUTO 25007KT 9SM CLR 14/11 A2973 RMK SLP057

2010/08/08 06:00
CYQR 080600Z 33008KT 15SM SKC 16/14 A2968 RMK SLP051

2010/08/08 06:00
CYQT 080600Z 36003KT 15SM FEW060 BKN090 16/14 A2975 RMK SC2AC4 SLP076

2010/08/08 06:00
CYQU 080600Z 23011KT 25SM FEW100 SCT250 15/07 A2964 RMK AC1CI0 SLP038

2010/08/08 06:00
CYQV 080600Z AUTO 26007KT 9SM CLR 19/16 A2961 RMK SLP027

2010/08/08 06:00
CYQW 080600Z AUTO 14003KT 9SM CLR 15/14 A2966 RMK SLP050 DENSITY ALT 2500FT

2010/08/08 06:00
CYQZ 080600Z AUTO VRB02KT 9SM FEW066 BKN089 16/12 A2975 RMK SLP081 DENSITY ALT 2500FT

2010/08/08 06:00
CYRJ 080600Z 23014G26KT 20SM BKN050 15/07 A2973 RMK SC5 SLP070

2010/08/08 06:00
CYRT 080600Z 36004KT 15SM FEW240 09/07 A2983 RMK CI0 SLP102

2010/08/08 06:00
CYRV 080600Z AUTO 00000KT 9SM BKN081 16/16 A2978 RMK SLP084

2010/08/08 06:00
CYSB 080600Z 19003KT 15SM FEW060 SCT095 16/14 A2982 RMK SC1AC2 SLP100

2010/08/08 06:00
CYSC 080600Z AUTO VRB02KT 9SM CLR 06/06 A2996 RMK SLP154 PCPN 0.5MM PAST HR

2010/08/08 06:00
CYSF 080600Z AUTO 07005KT 1 3/4SM BR SCT046 16/15 A2965 RMK SLP046 DENSITY ALT 1400FT

2010/08/08 06:00
CYTH 080600Z 09008KT 15SM BKN220 16/07 A2975 RMK CI6 SLP080

2010/08/08 06:00
CYTS 080600Z 26004KT 15SM FEW070 15/10 A2974 RMK AC2 SLP074

2010/08/08 06:00
CYTZ 080600Z AUTO 25003KT 9SM BKN056 OVC069 19/15 A2992 RMK SLP132 DENSITY ALT 700FT RVR MISG

2010/08/08 06:00
CYUA 080600Z AUTO 36009KT 1 1/2SM RA OVC004 OVC017 08/ A2972 RMK SLP068

2010/08/08 06:00
CYUS 080600Z AUTO ///// 9SM CLR 08/ A2984 RMK SLP110

2010/08/08 06:00
CYUX 080600Z AUTO 01010KT 9SM CLR 07/02 A2987 RMK SLP115

2010/08/08 06:00
CYVC 080600Z 00000KT 15SM BKN250 17/15 A2961 RMK CI6 SLP031

2010/08/08 06:00
CYVM 080600Z AUTO 05004KT 1/8SM VV001 04/04 A2991 RMK SLP130

2010/08/08 06:00
CYVO 080600Z AUTO 26002KT 9SM SCT044 BKN057 15/11 A2976 RMK SLP085

2010/08/08 06:00
CYVQ 080600Z 00000KT 30SM FEW060 FEW100 BKN280 19/11 A2958 RMK SC1AC1CI2 SLP017

2010/08/08 06:00
CYVV 080600Z 18008KT 15SM FEW050 19/15 A2986 RMK SC1 SLP110

2010/08/08 06:00
CYWA 080600Z AUTO 00000KT 9SM FEW093 13/11 A2985 RMK SLP112

2010/08/08 06:00
CYWL 080600Z 12002KT 15SM FEW030 FEW220 13/11 A2979 RMK CU2CI0 SLP089

2010/08/08 06:00
CYXC 080600Z 19007KT 25SM SCT075 BKN120 16/12 A2982 RMK CU3AC4 SLP090

2010/08/08 06:00
CYXD 080600Z AUTO 24006KT 9SM OVC088 19/12 A2965 RMK SLP036

2010/08/08 06:00
CYXE 080600Z 22005KT 6SM BR SKC 16/16 A2965 RMK SLP040

2010/08/08 06:00
CYXH 080600Z AUTO 22004KT 200V260 8SM CLR 16/12 A2969 RMK SLP048

2010/08/08 06:00
CYXJ 080600Z 26008KT 15SM FEW070 FEW100 16/08 A2959 RMK AC2AC1 SLP023

2010/08/08 06:00
CYXL 080600Z 00000KT 15SM SKC 15/13 A2974 RMK SLP074

2010/08/08 06:00
CYXR 080600Z AUTO 23007KT 9SM CLR 14/11 A2977 RMK SLP077

2010/08/08 06:00
CYXS 080600Z AUTO 19005KT 9SM FEW066 OVC093 14/11 A2974 RMK SLP079 DENSITY ALT 2800FT

2010/08/08 06:00
CYXT 080600Z 18008KT 20SM FEW036 BKN060 15/10 A2988 RMK SC2SC5 SLP121

2010/08/08 06:00
CYYB 080600Z 17004KT 15SM OVC050 16/11 A2984 RMK SC8 SLP106

2010/08/08 06:00
CYYD 080600Z AUTO 30006KT 260V330 9SM BKN061 OVC074 16/09 A2979 RMK SLP088 DENSITY ALT 2300FT

2010/08/08 06:00
CYYE 080600Z 21007KT 15SM OVC060 17/09 A2951 RMK SC8 SLP998

2010/08/08 06:00
CYYF 080600Z 02002KT 15SM SCT090 BKN140 OVC240 20/10 A2979 RMK AC3AC2CI1 SLP083

2010/08/08 06:00
CYYG 080600Z 23002KT 15SM SKC 13/11 A3000 RMK SLP158

2010/08/08 06:00
CYYH 080600Z 14009KT 15SM SCT250 11/05 A2985 RMK CI0 LAST OBS/NEXT 081400Z. SLP111

2010/08/08 06:00
CYYL 080600Z AUTO 11005KT 9SM OVC210 16/09 A2971 RMK SLP068 DENSITY ALT 1800FT

2010/08/08 06:00
CYYN 080600Z AUTO 19007KT 9SM CLR 16/13 A2970 RMK SLP051

2010/08/08 06:00
CYYU 080600Z 26005KT 15SM BKN075 15/11 A2971 RMK AC6 SLP065

2010/08/08 06:00
CYZE 080600Z AUTO 17005KT 9SM CLR 18/17 A2978 RMK SLP087 DENSITY ALT 1200FT

2010/08/08 06:00
CYZH 080600Z AUTO 06002KT 9SM CLR 17/14 A2959 RMK SLP022

2010/08/08 06:00
CYZP 080600Z AUTO 24006KT 9SM OVC043 14/10 A2995 RMK SLP142

2010/08/08 06:00
CYZR 080600Z AUTO 18005KT 9SM SCT091 OVC120 20/17 A2991 RMK SLP127 DENSITY ALT 1300FT

2010/08/08 06:00
CYZS 080600Z 36018G24KT 15SM SCT050 10/06 A2962 RMK SC4 SLP034

2010/08/08 06:00
CZCP 080600Z AUTO 06013KT 3/4SM CLR 07/ A2958 RMK SLP024

2010/08/08 06:00
CZPC 080600Z AUTO 27008KT 9SM CLR 14/11 A2980 RMK SLP075

2010/08/08 06:00
CZUM 080600Z AUTO 19006KT 9SM FEW048 08/06 A2963 RMK SLP047

2010/08/08 05:50
EGUB 080550Z AUTO 31005KT 8000NDV // OVC023/// 14/13 Q1020

2010/08/08 05:50
EGUW 080550Z AUTO 33009KT 9999NDV BKN005/// BKN012/// 15/14 Q1018

2010/08/08 05:50
EGVO 080550Z AUTO 30004KT 9999NDV SCT007/// SCT024/// 13/13 Q1020

2010/08/08 05:50
EGVP 080550Z AUTO 33004KT 9999NDV // OVC033/// 14/12 Q1020

2010/08/08 05:50
EGXE 080550Z AUTO 32003KT 9999NDV OVC050/// 13/12 Q1020

2010/08/08 05:50
EGXU 080550Z AUTO 30005KT 9999NDV // SCT070/// 13/11 Q1020

2010/08/08 05:50
EGYM 080550Z AUTO 34008KT 9999NDV BKN010/// BKN021/// 15/14 Q1018

2010/08/08 06:00
EPLL 080600Z 22006KT 1500 BR OVC001 17/17 Q1013

2010/08/08 06:06
KCBE 080606Z AUTO 02004KT 10SM BKN070 BKN085 19/16 A3007 RMK AO1

2010/08/08 06:12
KESN 080612Z AUTO 00000KT 10SM CLR 20/20 A3003 RMK AO2

2010/08/08 06:09
KFME 080609Z AUTO 00000KT 5SM SCT100 SCT120 15/15 A3002 RMK AO1

2010/08/08 06:00
LEGT 080600Z 09005KT CAVOK 24/14 Q1019

2010/08/08 06:00
LERI 080600Z 27001KT CAVOK 18/17 Q1018 NOSIG

2010/08/08 06:00
LFBE 080600Z 28005KT 9999 FEW020 16/14 Q1020 NOSIG

2010/08/08 05:50
LIMP 080550Z 23004KT CAVOK 18/12 Q1017 RMK VIS MIN 9999

2010/08/08 05:50
LIMZ 080550Z VRB03KT CAVOK 15/13 Q1018 RMK VIS MIN 9999

2010/08/08 05:55
LIRM 080555Z 04002KT CAVOK 20/18 Q1017 RMK SKC VIS MIN 9999 WIND THR06 01002KT BLU

2010/08/08 06:00
LKCV 080600Z 20001KT 9999 SCT037 BKN045 OVC090 16/15 Q1016 NOSIG

2010/08/08 06:00
LKKB 080600Z 22004KT CAVOK 16/15 Q1016 NOSIG

2010/08/08 06:00
LKLN 080600Z AUTO 00000KT CAVOK 15/14 Q1017

2010/08/08 06:00
LKNA 080600Z 29009KT 9999 SCT034 BKN100 15/14 Q1017 NOSIG

2010/08/08 06:00
LKPD 080600Z 28005KT 9999 FEW007 BKN080 BKN100 16/15 Q1016 NOSIG

2010/08/08 06:00
LKPO 080600Z 17004KT 6000 OVC010 16/15 Q1016 NOSIG

2010/08/08 06:00
UDYZ 080600Z VRB01MPS 9999 SKC 27/12 Q1013 09010070 NOSIG

2010/08/08 06:00
YPKU 080600Z AUTO 25005KT 9999NDV // NCD 31/01 Q1010

2010/08/08 06:00
ZBHH 080600Z 23003MPS 6000 SCT040 FEW040TCU 25/17 Q1008 NOSIG

2010/08/08 06:00
ZGHA 080600Z 29003MPS 250V350 9999 SCT033 35/27 Q1002 NOSIG

2010/08/08 06:00
ZJHK 080600Z 06003MPS 9999 FEW016 28/24 Q1002 NOSIG

2010/08/08 06:00
ZYCC 080600Z 18004MPS 150V210 9999 OVC030 21/17 Q1005 NOSIG

2010/08/08 06:00
CWEU 080600Z CCA 16002KT 30SM FEW003 FEW035 BKN100 02/01 A2981 RMK CF1SC2AC4 SLP097

2010/08/08 06:00
CYOD 080600Z CCA 20003KT 15SM FEW060CB FEW240 18/15 A2962 RMK CB1CI1 CB DIST SW MOVG NE WITH ONCL LGTNG SLP030

2010/08/08 05:50
EGUB 080550Z AUTO 31005KT 8000NDV // OVC023/// 14/13 Q1020

2010/08/08 05:50
EGUW 080550Z AUTO 33009KT 9999NDV BKN005/// BKN012/// 15/14 Q1018

2010/08/08 05:50
EGVO 080550Z AUTO 30004KT 9999NDV SCT007/// SCT024/// 13/13 Q1020

2010/08/08 05:50
EGVP 080550Z AUTO 33004KT 9999NDV // OVC033/// 14/12 Q1020

2010/08/08 05:50
EGXU 080550Z AUTO 30005KT 9999NDV // SCT070/// 13/11 Q1020

2010/08/08 05:50
EGYM 080550Z AUTO 34008KT 9999NDV BKN010/// BKN021/// 15/14 Q1018

2010/08/08 06:00
LEBG 080600Z 05011KT 7000 FEW003 13/12 Q1022

2010/08/08 05:50
LIEO 080550Z VRB02KT CAVOK 18/16 Q1019 RMK VIS MIN 9999

2010/08/08 05:55
LIPF 080555Z 00000KT 7000 NSC 17/17 Q1016 RMK SKC VIS MIN 7000

2010/08/08 05:55
LIPL 080555Z 04001KT CAVOK 17/16 Q1016 RMK SKC VIS MIN 9999 BLK BLU

2010/08/08 05:45
LIPX 080545Z 00000KT CAVOK 18/18 Q1017 RMK SKC VIS MIN 9999 BLU

2010/08/08 05:50
LIPY 080550Z 19003KT 160V220 CAVOK 20/17 Q1017 RMK VIS MIN 9999

2010/08/08 05:55
LIRL 080555Z 00000KT CAVOK 18/16 Q1017 RMK SKC MON LIB NC VIS MIN 9999 BLU

2010/08/08 05:55
LIRM 080555Z 04002KT CAVOK 20/18 Q1017 RMK SKC VIS MIN 9999 WIND THR06 01002KT BLU

2010/08/08 05:50
LIRU 080550Z 00000KT CAVOK 21/19 Q1017 RMK VIS MIN 9999

2010/08/08 06:00
LKKV 080600Z VRB02KT CAVOK 14/11 Q1017 RMK REG QNH 1012

2010/08/08 06:00
LKMT 080600Z 23007KT 9999 -RA FEW015 OVC035 16/14 Q1015 NOSIG RMK REG QNH 1012

2010/08/08 06:00
LKPR 080600Z 21007KT 9999 BKN046 15/14 Q1016 NOSIG RMK REG QNH 1012

2010/08/08 06:00
LKTB 080600Z 27004KT 230V300 9999 SCT020 BKN050 17/15 Q1016 NOSIG RMK REG QNH 1012

2010/08/08 06:00
LPAZ 080600Z 03004KT 9999 FEW014 19/17 Q1021

2010/08/08 06:00
LPHR 080600Z 03009KT 9999 FEW013 BKN030 22/16 Q1023

2010/08/08 05:55
LIBN 080555Z 32005KT 9999 FEW025 22/19 Q1015 RMK FEW VIS MIN 9999 WIND THR14 32006KT BLU

2010/08/08 05:50
LICD 080550Z 33008KT CAVOK 24/18 Q1017 RMK VIS MIN 9999

2010/08/08 05:55
LICG 080555Z 36011KT 9999 FEW020 22/20 Q1017 RMK FEW VIS MIN 9999 WIND THR08 /////KT WIND THR21 36008KT BLU

2010/08/08 05:50
LICR 080550Z 36010KT 9999 FEW020 25/16 Q1016 RMK VIS MIN 9999

2010/08/08 05:50
LIEA 080550Z VRB01KT CAVOK 17/16 Q1019 RMK VIS MIN 9999

2010/08/08 05:50
LIMG 080550Z 28004KT 240V310 9999 FEW050 18/11 Q1017 RMK VIS MIN 9999

2010/08/08 05:55
LIMS 080555Z 26008KT CAVOK 18/15 Q1017 RMK SKC VIS MIN 9999 WIND THR30 24005KT BLU

2010/08/08 05:55
LIPC 080555Z 28002KT CAVOK 18/16 Q1017 RMK SKC VIS MIN 9999 WIND THR12 29003KT BLU

2010/08/08 05:45
LIPH 080545Z 04003KT CAVOK 20/18 Q1017 RMK SKC VIS MIN 9999 WIND THR07 /////KT BLU

2010/08/08 05:45
LIPR 080545Z 00000KT CAVOK 18/18 Q1016 RMK SKC VIS MIN 9999 WIND THR31 00000KT BLU

2010/08/08 05:55
LIRE 080555Z 36006KT CAVOK 20/18 Q1017 RMK SKC VIS MIN 9999 WIND THR31 35008KT BLU

2010/08/08 05:55
LIRV 080555Z 05005KT CAVOK 20/16 Q1019 RMK SKC MON E SE LIB NC VIS MIN 9999 BLU

2010/08/08 05:55
LIRX 080555Z 18001KT CAVOK 19/16 Q1017 RMK SKC VIS MIN 9999N VIS MAR 20 KM

2010/08/08 05:50
EGPH 080550Z 25004KT 9999 SCT018 13/11 Q1020

2010/08/08 05:55
LIBV 080555Z 35010KT CAVOK 21/17 Q1015 RMK SKC VIS MIN 9999 WIND THR14 34009KT BLU

2010/08/08 05:55
LICT 080555Z 00000KT 9999 FEW025 22/20 Q1016 RMK FEW VIS MIN 9999 WIND THR13 05001KT BLU

2010/08/08 05:55
LIED 080555Z 33004KT CAVOK 15/13 Q1017 RMK SKC VIS MIN 9999 BLU

2010/08/08 05:55
LIMU 080555Z 03006KT 9999 BKN023TCU 22/19 Q1018 RMK BKN QUK 2 QUL 1 S VIS MAR 30 KM VIS MIN 9999

2010/08/08 05:50
LIPB 080550Z 09002KT CAVOK 14/12 Q1019 RMK MON LIB VIS MIN 9999

2010/08/08 05:55
LIPS 080555Z 04004KT CAVOK 21/17 Q1017 RMK SKC VIS MIN 9999 BLU

2010/08/08 05:55
LIRH 080555Z 00000KT CAVOK 17/15 Q1017 RMK SKC MON LIB NC VIS MIN 9999 WIND THR16 00000KT BLU

2010/08/08 05:55
LIRS 080555Z 02002KT CAVOK 16/12 Q1018 RMK SKC VIS MIN 9999 WIND THR21 /////KT BLU

2010/08/08 05:50
LIRZ 080550Z 35004KT 320V020 CAVOK 17/16 Q1019 RMK VIS MIN 9999

2010/08/08 05:55
LIVO 080555Z 00000KT 9999 SCT015 12/12 Q1019 RMK SCT VIS MIN 9999

2010/08/08 05:55
LIVT 080555Z 03002KT CAVOK 21/17 Q1016 RMK FEW FEW120 QUK 0 QUL 0 VIS MAR 20 KM VIS MIN 9999

2010/08/08 06:06
CYNM 080606Z AUTO 17005KT 1SM OVC000 10/09 A2969 RMK VSBY VRBL 0.3V8.0

2010/08/08 06:04
FMEP 080604Z 12019KT 9999 FEW013 22/17 Q1025

2010/08/08 06:00
DAAG 080600Z 10001KT CAVOK 18/16 Q1018

2010/08/08 06:00
DABB 080600Z 18003KT 9999 FEW026 17/15 Q1018

2010/08/08 06:00
DABC 080600Z 00000KT CAVOK 19/13 Q1020

2010/08/08 06:00
DAUH 080600Z 00000KT CAVOK 30/09 Q1013

2010/08/08 06:00
DAUZ 080600Z 06011KT CAVOK 25/10 Q1017

2010/08/08 06:00
WBGR 080600Z 27008KT 9999 FEW014 BKN300 31/26 Q1007

2010/08/08 06:00
WBGS 080600Z 22004KT 9999 SCT018 SCT150 BKN300 31/22 Q1007

2010/08/08 06:00
WBGY 080600Z 10003KT 9999 SCT022 BKN150 28/23 Q1008

2010/08/08 06:00
WBKL 080600Z 26005KT 9999 FEW014 SCT140 BKN290 32/26 Q1007

2010/08/08 06:00
WBKS 080600Z 17005KT 9999 FEW016 BKN270 34/22 Q1006

2010/08/08 06:00
WBKT 080600Z 24013KT 9999 FEW016 BKN270 32/21 Q1006

2010/08/08 06:00
WBKW 080600Z 18009KT 9999 FEW017 SCT140 BKN280 31/24 Q1007

2010/08/08 06:00
UMBB 080600Z 17002MPS 6000 OVC008CB 20/19 Q1014 R29/CLRD// NOSIG

2010/08/08 06:00
UMGG 080600Z 13004MPS CAVOK 27/15 Q1016 R10/CLRD// NOSIG

2010/08/08 06:00
UMII 080600Z 12003G06MPS 2500 FU OVC100 27/15 Q1016 TEMPO 2000 

2010/08/08 06:00
UMMG 080600Z 00000MPS 6000 BKN023 OVC066 20/20 Q1011 NOSIG

2010/08/08 06:00
UMMM 080600Z 13003MPS 5000 HZ SCT200 25/17 Q1014 R12/CLRD// NOSIG RMK QFE740

2010/08/08 06:00
UMMS 080600Z 15002MPS 090V190 5000 BR NSC 26/17 Q1014 R13/CLRD// NOSIG

2010/08/08 06:00
UMOO 080600Z 15004MPS 2800 HZ NSC 26/16 Q1014 R13/CLRD// NOSIG

2010/08/08 06:00
TBPB 080600Z 03004KT 9999 FEW012CB SCT016 BKN036 25/24 Q1012

2010/08/08 06:00
FOGR 080600Z 00000KT 8000 FEW003 SCT006 OVC020 22/22 Q1016

2010/08/08 06:00
FOON 080600Z 15004KT 8000 BKN016 OVC023 21/21 Q1018

2010/08/08 06:00
OIII 080600Z 21012KT CAVOK 30/02 Q1016 A3002 881.3

2010/08/08 06:00
LPFR 080600Z 09016KT CAVOK 27/15 Q1014

2010/08/08 06:00
LPMA 080600Z 01004KT 240V050 9999 FEW016 20/15 Q1015 RS31006KT 0502003KT 2336006KT

2010/08/08 06:00
LPPR 080600Z 00000KT 8000 SCT250 18/16 Q1014

2010/08/08 06:00
LPPS 080600Z 36008KT 9999 FEW015 BKN030 20/15 Q1016

2010/08/08 06:00
LPPT 080600Z 25004KT CAVOK 23/15 Q1015 NOSIG

2010/08/08 06:00
BIAR 080600Z 31001KT CAVOK 08/07 Q1015

2010/08/08 06:00
BIEG 080600Z 04004KT 9999 BKN030 09/07 Q1016

2010/08/08 06:00
BIKF 080600Z 01004KT 9999 -SHRA FEW041 BKN065 12/09 Q1013

2010/08/08 06:00
BIRK 080600Z 27003KT 9999 SCT032 BKN065 12/09 Q1012

2010/08/08 06:00
BIKF 080600Z 01004KT 9999 -SHRA FEW041 BKN065 12/09 Q1013

2010/08/08 06:00
UAAA 080600Z 09003MPS 010V150 9999 FEW100 30/11 Q1008 88CLRD65 NOSIG

2010/08/08 06:00
UACC 080600Z 33003MPS 300V360 9999 SCT040 30/09 Q1011 220/0070 NOSIG RMK QFE727/0970

2010/08/08 06:00
UATE 080600Z 05006MPS 030V090 CAVOK 37/04 Q1009 120///70 NOSIG RMK QFE755/1007

2010/08/08 06:00
UATT 080600Z 05003MPS 010V110 9999 NSC 33/08 Q1016 13CLRD70 NOSIG RMK QFE742/0990

2010/08/08 06:00
UKKK 080600Z VRB01MPS 8000 SKC 29/15 Q1014 08CLRD70 NOSIG

2010/08/08 06:00
UTAA 080600Z 32007MPS 9999 SKC 35/05 Q1009 NOSIG

2010/08/08 06:00
UTDD 080600Z VRB01MPS 9999 SCT066CB BKN120 33/12 Q1007 09CLRD70 NOSIG RMK QFE688/0917

2010/08/08 06:00
VTBD 080600Z 23006KT 9999 FEW020 BKN120 BKN300 33/21 Q1004 NOSIG

2010/08/08 05:55
KQIR 080555Z 30006KT 9999 SCT150 40/11 A2952 RMK AO2A SLP994 T03950113 10395 20291 50008

2010/08/08 05:55
KQXJ 080555Z COR 32015KT 4400 BLDU FEW100 41/03 A2950 RMK SLP991 50000 PA+412 DA+3513 COR 0610

2010/08/08 06:00
FBFT 080600Z 00000KT CAVOK 10/06 Q1027

2010/08/08 06:00
FBKE 080600Z 11012KT CAVOK 16/06 Q1024

2010/08/08 06:00
FBMN 080600Z 11007KT CAVOK 13/05 Q1025

2010/08/08 06:00
FBSK 080600Z 14004KT CAVOK 09/05 Q1026 NOSIG

2010/08/08 06:00
DAAD 080600Z 00000KT CAVOK 26/17 Q1019

2010/08/08 06:00
DAAE 080600Z 26006KT CAVOK 18/16 Q1018

2010/08/08 06:00
DAAP 080600Z 09008KT CAVOK 27/11 Q1016

2010/08/08 06:00
DAAS 080600Z 34002KT CAVOK 20/11 Q1022

2010/08/08 06:00
DAAV 080600Z 00000KT CAVOK 18/15 Q1017

2010/08/08 06:00
DABT 080600Z 36004KT CAVOK 17/13 Q1020

2010/08/08 06:00
DAMH 080600Z 16008KT CAVOK 28/11 Q1014

2010/08/08 06:00
DAOF 080600Z 01008KT 4000 -RA SCT040 BKN100 27/20 Q1012

2010/08/08 06:00
DAOI 080600Z 00000KT CAVOK 24/11 Q1016

2010/08/08 06:00
DAOR 080600Z 11008KT 2000 HZ NSC 31/10 Q1019

2010/08/08 06:00
DATF 080600Z 10014KT CAVOK 27/07 Q1017

2010/08/08 06:00
DAUA 080600Z 03010KT 8000 NSC 30/M02 Q1012

2010/08/08 06:00
DAUB 080600Z 13018KT CAVOK 31/17 Q1012

2010/08/08 06:00
DAUE 080600Z 00000KT CAVOK 27/12 Q1015

2010/08/08 06:00
DAUG 080600Z 00000KT 6000 NSC 30/12 Q1016

2010/08/08 06:00
DAUI 080600Z 06016KT CAVOK 33/09 Q1012

2010/08/08 06:00
DAUK 080600Z 00000KT CAVOK 27/10 Q1013

2010/08/08 06:00
DAUO 080600Z /////KT CAVOK 27/21 Q1014

2010/08/08 06:00
DAUT 080600Z 04006KT CAVOK 30/06 Q1014

2010/08/08 06:00
FBSK 080600Z 14004KT CAVOK 09/05 Q1026 NOSIG

2010/08/08 06:00
VTBS 080600Z 22007KT 150V260 9999 SCT025 SCT120 BKN300 33/21 Q1004 NOSIG

2010/08/08 06:00
VTBD 080600Z 23006KT 9999 FEW020 BKN120 BKN300 33/21 Q1004 NOSIG

2010/08/08 06:00
VTCC 080600Z 17004KT 9999 FEW025TCU SCT035 32/23 Q1006 A2970 TCU S

2010/08/08 06:00
VTBU 080600Z 23006KT 9999 FEW020 BKN300 33/25 Q1005 A2969

2010/08/08 06:00
VTSS 080600Z 24011KT 9999 FEW018CB SCT020 BKN300 32/22 Q1007 A2975 CB S

2010/08/08 06:00
VTSP 080600Z 26018KT 9000 FEW015 BKN300 31/23 Q1008 A2978

2010/08/08 06:00
VLVT 080600Z 22004KT 8000 HZ SCT016 SCT040 31/24 Q100

2010/08/08 06:00
VYYY 080600Z 29007KT 7000 BKN015 FEW020CB BKN110 26/25 Q 1004

2010/08/08 06:00
VVNB 080600Z 01005KT 290V090 9999 FEW026 BKN230 33/24 Q1003 NOSIG

2010/08/08 06:00
VDPP 080600Z 27009KT 9999 SCT017 BKN120 29/21 Q1003

2010/08/08 06:00
VVDN 080600Z 04005KT 8000 FEW015 BKN270 32/23 Q1003 NOSIG

2010/08/08 06:00
VDSR 080600Z 28010KT 9999 SCT015 FEW017TCU SCT040 32/23 Q1003

2010/08/08 06:00
VVPB 080600Z 35008KT 9999 FEW015CB BKN050 31/25 Q1003 NOSIG RMK CB/S/SW

2010/08/08 05:50
LIBC 080550Z VRB03KT CAVOK 24/14 Q1016 RMK VIS MIN 9999

2010/08/08 05:50
LIBD 080550Z 31007KT 9999 FEW025 22/15 Q1016 RMK VIS MIN 9999

2010/08/08 05:55
LIBH 080555Z 30006KT CAVOK 21/19 Q1015 RMK SKC QUK 1 QUL 0 VIS MAR 20 KM VIS MIN 9999

2010/08/08 05:50
LIBP 080550Z VRB01KT CAVOK 19/16 Q1017 RMK VIS MIN 9999

2010/08/08 05:45
LIBR 080545Z 34014G24KT 9999 SCT020 22/16 Q1015 NOSIG RMK SCT VIS MIN 9999 WIND THR13 /////KT WIND THR31 32016KT BLU

2010/08/08 05:50
LICA 080550Z VRB01KT 9999 FEW030 21/18 Q1016 RMK VIS MIN 9999

2010/08/08 05:50
LICC 080550Z VRB03KT CAVOK 22/15 Q1016 RMK VIS MIN 9999

2010/08/08 05:55
LICF 080555Z 02005KT 9999 FEW030 23/22 Q1016 RMK FEW QUK 1 QUL 0 VIS MAR 20 KM MON LIB NC VIS MIN 9999

2010/08/08 05:50
LICJ 080550Z 06005KT 030V100 9999 FEW030 25/18 Q1017 RMK VIS MIN 9999

2010/08/08 05:55
LICL 080555Z 07002KT CAVOK 22/18 Q1016 RMK SKC QUK 1 QUL 0 VIS MAR 12 KM VIS MIN 9999

2010/08/08 05:55
LICZ 080555Z 27002KT CAVOK 22/19 Q1016 RMK SKC VIS MIN 9999 WIND THR28 ///// KT BLU

2010/08/08 05:55
LIEB 080555Z 30008KT CAVOK 21/18 Q1016 RMK SKC QUK 2 QUL 0 VIS MAR 30 KM MON LIB VIS MIN 9999

2010/08/08 05:55
LIEC 080555Z 06009KT 9999 FEW020 23/19 Q1017 RMK FEW QUK 1 QUL 0 VIS MAR 25 KM VIS MIN 9999

2010/08/08 05:55
LIEE 080555Z 31005KT CAVOK 16/11 Q1018 RMK VIS MIN 9999 WIND THR14 33005KT BLU

2010/08/08 05:55
LIVD 080555Z 00000KT CAVOK 12/11 Q1022 RMK FEW FEW070 VIS MIN 9999

2010/08/08 05:55
LIVR 080555Z 35002KT CAVOK 11/10 Q1023 RMK SKC MON LIB VIS MIN 9999

2010/08/08 06:00
OIMT 080600Z 09004KT CAVOK 35/M05 Q1009 A2981

2010/08/08 05:50
OITR 080550Z 02004KT 9999 FEW035 30/11 Q1017 A3004

2010/08/08 06:03
KBIJ 080603Z AUTO 00000KT 5SM HZ CLR 24/ A2992 RMK AO2

2010/08/08 05:55
KBXK 080555Z AUTO 13007KT 10SM CLR 27/18 A2982 RMK AO1

2010/08/08 06:15
KCCA 080615Z AUTO 00000KT 8SM OVC095 26/23 A2993 RMK AO2

2010/08/08 06:15
KOLV 080615Z AUTO 00000KT 3SM CLR 26/26 A2992 RMK A01 P000

2010/08/08 05:55
KMZZ 080555Z AUTO 00000KT 7SM CLR 17/16 A2998 RMK AO2

2010/08/08 06:06
KBCE 080606Z AUTO 00000KT 10SM BKN012 11/09 A3027 RMK AO2 $

2010/08/08 06:07
KHOT 080607Z AUTO 09004KT 7SM SCT015 BKN080 27/26 A2992 RMK AO2 LTG DSNT S

2010/08/08 06:07
KIMT 080607Z AUTO 18007KT 7SM -RA OVC024 21/19 A2975 RMK AO2 TSE01 P0002 TSNO

2010/08/08 06:07
KMPV 080607Z AUTO 00000KT 3/4SM BR VV001 09/08 A3005 RMK AO2

2010/08/08 06:07
KRHI 080607Z AUTO 00000KT 2 1/2SM +RA BR OVC023 18/17 A2985 RMK AO2 TSE01 P0009 TSNO

2010/08/08 06:06
PAKW 080606Z AUTO 00000KT 10SM OVC006 12/11 A2990 RMK AO2 RAE0554 CIG 003V009 TSNO

2010/08/08 05:50
EGPH 080550Z 25004KT 9999 SCT018 13/11 Q1020

2010/08/08 06:00
SAEZ 080600Z 14001KT 0100 R11/0125N RMID/0125 R29/0125 FG SCT005 02/02 Q1021

2010/08/08 06:00
UMBB 080600Z 17002MPS 6000 OVC008CB 20/19 Q1014 R29/CLRD// NOSIG

2010/08/08 06:00
UMGG 080600Z 13004MPS CAVOK 27/15 Q1016 R10/CLRD// NOSIG

2010/08/08 06:00
UMII 080600Z 12003G06MPS 2500 FU OVC100 27/15 Q1016 TEMPO 2000 

2010/08/08 06:00
UMMG 080600Z 00000MPS 6000 BKN023 OVC066 20/20 Q1011 NOSIG

2010/08/08 06:00
UMMM 080600Z 13003MPS 5000 HZ SCT200 25/17 Q1014 R12/CLRD// NOSIG RMK QFE740

2010/08/08 06:00
UMMS 080600Z 15002MPS 090V190 5000 BR NSC 26/17 Q1014 R13/CLRD// NOSIG

2010/08/08 06:00
UMOO 080600Z 15004MPS 2800 HZ NSC 26/16 Q1014 R13/CLRD// NOSIG

2010/08/08 06:00
LPFR 080600Z 09016KT CAVOK 27/15 Q1014

2010/08/08 06:00
LPMA 080600Z 01004KT 240V050 9999 FEW016 20/15 Q1015 RS31006KT 0502003KT 2336006KT

2010/08/08 06:00
LPPR 080600Z 00000KT 8000 SCT250 18/16 Q1014

2010/08/08 06:00
LPPS 080600Z 36008KT 9999 FEW015 BKN030 20/15 Q1016

2010/08/08 06:00
LPPT 080600Z 25004KT CAVOK 23/15 Q1015 NOSIG

2010/08/08 05:50
LIMG 080550Z 28004KT 240V310 9999 FEW050 18/11 Q1017 RMK VIS MIN 9999

2010/08/08 05:50
LIMP 080550Z 23004KT CAVOK 18/12 Q1017 RMK VIS MIN 9999

2010/08/08 05:55
LIMS 080555Z 26008KT CAVOK 18/15 Q1017 RMK SKC VIS MIN 9999 WIND THR30 24005KT BLU

2010/08/08 05:50
LIMZ 080550Z VRB03KT CAVOK 15/13 Q1018 RMK VIS MIN 9999

2010/08/08 05:50
LIPB 080550Z 09002KT CAVOK 14/12 Q1019 RMK MON LIB VIS MIN 9999

2010/08/08 05:55
LIPC 080555Z 28002KT CAVOK 18/16 Q1017 RMK SKC VIS MIN 9999 WIND THR12 29003KT BLU

2010/08/08 05:55
LIPF 080555Z 00000KT 7000 NSC 17/17 Q1016 RMK SKC VIS MIN 7000

2010/08/08 05:45
LIPH 080545Z 04003KT CAVOK 20/18 Q1017 RMK SKC VIS MIN 9999 WIND THR07 /////KT BLU

2010/08/08 05:55
LIPL 080555Z 04001KT CAVOK 17/16 Q1016 RMK SKC VIS MIN 9999 BLK BLU

2010/08/08 05:50
LIPO 080550Z 05004KT CAVOK 20/15 Q1017 RMK VIS MIN 9999

2010/08/08 05:50
LIPQ 080550Z VRB01KT 9999 FEW060 18/15 Q1017

2010/08/08 05:45
LIPR 080545Z 00000KT CAVOK 18/18 Q1016 RMK SKC VIS MIN 9999 WIND THR31 00000KT BLU

2010/08/08 05:55
LIPS 080555Z 04004KT CAVOK 21/17 Q1017 RMK SKC VIS MIN 9999 BLU

2010/08/08 05:45
LIPX 080545Z 00000KT CAVOK 18/18 Q1017 RMK SKC VIS MIN 9999 BLU

2010/08/08 05:50
LIPY 080550Z 19003KT 160V220 CAVOK 20/17 Q1017 RMK VIS MIN 9999

2010/08/08 06:00
FOGR 080600Z 00000KT 8000 FEW003 SCT006 OVC020 22/22 Q1016

2010/08/08 06:00
FOON 080600Z 15004KT 8000 BKN016 OVC023 21/21 Q1018

2010/08/08 06:00
LPAZ 080600Z 03004KT 9999 FEW014 19/17 Q1021

2010/08/08 06:00
LPHR 080600Z 03009KT 9999 FEW013 BKN030 22/16 Q1023

2010/08/08 06:00
LPLA 080600Z 04005KT 9999 FEW020 SCT040 20/18 Q1024

2010/08/08 06:00
LPPD 080600Z 04006KT 9999 FEW020 SCT050 19/16 Q1022

2010/08/08 05:55
LIMU 080555Z 03006KT 9999 BKN023TCU 22/19 Q1018 RMK BKN QUK 2 QUL 1 S VIS MAR 30 KM VIS MIN 9999

2010/08/08 05:55
LIVD 080555Z 00000KT CAVOK 12/11 Q1022 RMK FEW FEW070 VIS MIN 9999

2010/08/08 05:55
LIVO 080555Z 00000KT 9999 SCT015 12/12 Q1019 RMK SCT VIS MIN 9999

2010/08/08 05:55
LIVR 080555Z 35002KT CAVOK 11/10 Q1023 RMK SKC MON LIB VIS MIN 9999

2010/08/08 05:55
LIVT 080555Z 03002KT CAVOK 21/17 Q1016 RMK FEW FEW120 QUK 0 QUL 0 VIS MAR 20 KM VIS MIN 9999

2010/08/08 05:50
EGUB 080550Z AUTO 31005KT 8000NDV // OVC023/// 14/13 Q1020

2010/08/08 05:50
LIBC 080550Z VRB03KT CAVOK 24/14 Q1016 RMK VIS MIN 9999

2010/08/08 05:50
LIBD 080550Z 31007KT 9999 FEW025 22/15 Q1016 RMK VIS MIN 9999

2010/08/08 05:55
LIBN 080555Z 32005KT 9999 FEW025 22/19 Q1015 RMK FEW VIS MIN 9999 WIND THR14 32006KT BLU

2010/08/08 05:50
LIBP 080550Z VRB01KT CAVOK 19/16 Q1017 RMK VIS MIN 9999

2010/08/08 05:45
LIBR 080545Z 34014G24KT 9999 SCT020 22/16 Q1015 NOSIG RMK SCT VIS MIN 9999 WIND THR13 /////KT WIND THR31 32016KT BLU

2010/08/08 05:55
LIBV 080555Z 35010KT CAVOK 21/17 Q1015 RMK SKC VIS MIN 9999 WIND THR14 34009KT BLU

2010/08/08 05:50
LICA 080550Z VRB01KT 9999 FEW030 21/18 Q1016 RMK VIS MIN 9999

2010/08/08 05:50
LICC 080550Z VRB03KT CAVOK 22/15 Q1016 RMK VIS MIN 9999

2010/08/08 05:50
LICD 080550Z 33008KT CAVOK 24/18 Q1017 RMK VIS MIN 9999

2010/08/08 05:55
LICG 080555Z 36011KT 9999 FEW020 22/20 Q1017 RMK FEW VIS MIN 9999 WIND THR08 /////KT WIND THR21 36008KT BLU

2010/08/08 05:50
LICJ 080550Z 06005KT 030V100 9999 FEW030 25/18 Q1017 RMK VIS MIN 9999

2010/08/08 05:50
LICR 080550Z 36010KT 9999 FEW020 25/16 Q1016 RMK VIS MIN 9999

2010/08/08 05:55
LICT 080555Z 00000KT 9999 FEW025 22/20 Q1016 RMK FEW VIS MIN 9999 WIND THR13 05001KT BLU

2010/08/08 05:55
LICZ 080555Z 27002KT CAVOK 22/19 Q1016 RMK SKC VIS MIN 9999 WIND THR28 ///// KT BLU

2010/08/08 06:00
SLLP 080600Z VRB02KT 9999 SKC 02/M10 Q1039

2010/08/08 06:00
SLVR 080600Z 33007KT 6000 NSC 17/14 Q1013

2010/08/08 06:00
SLCB 080600Z 00000KT 9999 SKC 08/00 Q1024

2010/08/08 06:00
SLCO 080600Z 00000KT 8000 SKC 18/17 Q1014

2010/08/08 06:00
UEEE 080600Z 15002MPS CAVOK 23/10 Q1008 NOSIG RMK QFE747 2309//60

2010/08/08 06:00
UELL 080600Z 19005MPS 9999 SCT033CB BKN200 23/07 Q1012 NOSIG RMK QFE684 08CLRD70

2010/08/08 06:00
UERP 080600Z 13002MPS 9999 SCT018CB OVC024 10/04 Q1004 NOSIG RMK QFE709 17290255

2010/08/08 06:00
UERR 080600Z 24003MPS 9999 BKN033 12/05 Q1007 NOSIG RMK QFE724 24CLRD60

2010/08/08 06:00
UEST 080600Z 09006MPS CAVOK 14/09 Q1010 NOSIG RMK QFE757

2010/08/08 05:50
LIBF 080550Z 28005KT CAVOK 23/14 Q1016 RMK VIS MIN 9999

2010/08/08 05:50
LIEA 080550Z VRB01KT CAVOK 17/16 Q1019 RMK VIS MIN 9999

2010/08/08 05:55
LIED 080555Z 33004KT CAVOK 15/13 Q1017 RMK SKC VIS MIN 9999 BLU

2010/08/08 05:50
LIEO 080550Z VRB02KT CAVOK 18/16 Q1019 RMK VIS MIN 9999

2010/08/08 05:50
LIMA 080550Z 00000KT CAVOK 16/13 Q1017 RMK VIS MIN 9999

2010/08/08 05:55
LIRE 080555Z 36006KT CAVOK 20/18 Q1017 RMK SKC VIS MIN 9999 WIND THR31 35008KT BLU

2010/08/08 05:55
LIRH 080555Z 00000KT CAVOK 17/15 Q1017 RMK SKC MON LIB NC VIS MIN 9999 WIND THR16 00000KT BLU

2010/08/08 05:55
LIRL 080555Z 00000KT CAVOK 18/16 Q1017 RMK SKC MON LIB NC VIS MIN 9999 BLU

2010/08/08 05:55
LIRM 080555Z 04002KT CAVOK 20/18 Q1017 RMK SKC VIS MIN 9999 WIND THR06 01002KT BLU

2010/08/08 05:55
LIRS 080555Z 02002KT CAVOK 16/12 Q1018 RMK SKC VIS MIN 9999 WIND THR21 /////KT BLU

2010/08/08 05:50
LIRU 080550Z 00000KT CAVOK 21/19 Q1017 RMK VIS MIN 9999

2010/08/08 05:55
LIRV 080555Z 05005KT CAVOK 20/16 Q1019 RMK SKC MON E SE LIB NC VIS MIN 9999 BLU

2010/08/08 05:55
LIRX 080555Z 18001KT CAVOK 19/16 Q1017 RMK SKC VIS MIN 9999N VIS MAR 20 KM

2010/08/08 05:50
LIRZ 080550Z 35004KT 320V020 CAVOK 17/16 Q1019 RMK VIS MIN 9999

2010/08/08 06:00
EIDW 080600Z 25004KT 220V290 9999 FEW025 BKN034 13/11 Q1022 NOSIG

2010/08/08 06:00
EINN 080600Z 10001KT 8000 MIFG FEW008 SCT034 BKN200 12/12 Q1023 NOSIG

2010/08/08 06:00
EICK 080600Z 32007KT 9999 FEW016 BKN034 10/10 Q1023 NOSIG

2010/08/08 06:00
URKA 080600Z 07005MPS CAVOK 29/16 Q1010 NOSIG RMK 065

2010/08/08 06:00
URKK 080600Z 07005MPS CAVOK 28/12 Q1011 NOSIG RMK QFE755 SC070

2010/08/08 06:00
URKM 080600Z 11002MPS CAVOK 29/17 Q1011 RMK QFE739

2010/08/08 06:00
URML 080600Z 34004MPS 9999 SKC 31/21 Q1011 NOSIG RMK QFE758 / 07

2010/08/08 06:00
URMM 080600Z 00000MPS 9999 SKC 29/14 Q1013 NOSIG RMK / SC070

2010/08/08 06:00
URMN 080600Z 25002MPS 9999 FEW260 30/12 Q1013 NOSIG RMK / QFE723 SC07

2010/08/08 06:00
URMT 080600Z 10004MPS CAVOK 31/06 Q1014 NOSIG RMK QFE720 SC07

2010/08/08 06:00
URRR 080600Z 06005MPS CAVOK 33/09 Q1014 NOSIG RMK SC070

2010/08/08 06:00
URSS 080600Z 08001MPS 9999 FEW033 31/22 Q1009 NOSIG RMK / QFE755 06CLRD70

2010/08/08 06:00
URWA 080600Z 07003MPS CAVOK 35/10 Q1012 NOSIG RMK SC07

2010/08/08 06:00
URWI 080600Z 04002MPS 9999 SKC 32/17 Q1014 NOSIG

2010/08/08 06:00
URWW 080600Z 07006MPS CAVOK 33/09 Q1016 NOSIG RMK SC070

2010/08/08 06:00
UHHH 080600Z 13002MPS 9999 SCT033CB SCT100 BKN200 24/19 Q1011 NOSIG RMK QFE752/1003 23090060

2010/08/08 06:00
UHMA 080600Z 10005MPS 9999 BKN027 OVC080 11/08 Q1003 NOSIG RMK QFE749/0998 880///70

2010/08/08 06:00
UHNN 080600Z 28003MPS 9999 SCT033 27/20 Q1010 NOSIG RMK QFE752 290///60

2010/08/08 06:00
UHPP 080600Z 32007MPS 300V360 9999 FEW040 22/05 Q1004 NOSIG RMK QFE749/0999 MT OBS SC070

2010/08/08 06:00
UHSH 080600Z 32004MPS 9999 FEW030 23/11 Q1011 RMK QFE755 31090070

2010/08/08 06:00
UHSS 080600Z 20006MPS 9999 SCT040 24/20 Q1013 NOSIG RMK QFE758/1011 19CLRD70

2010/08/08 06:00
UHWW 080600Z 00000MPS 9999 SCT016 OVC033CB 22/21 Q1010 NOSIG RMK QFE757/1009 7529//60

2010/08/08 06:00
FBSK 080600Z 14004KT CAVOK 09/05 Q1026 NOSIG

2010/08/08 06:00
FBFT 080600Z 00000KT CAVOK 10/06 Q1027

2010/08/08 06:00
FBKE 080600Z 11012KT CAVOK 16/06 Q1024

2010/08/08 06:00
FBMN 080600Z 11007KT CAVOK 13/05 Q1025

2010/08/08 05:58
PTYA 080558Z 07008KT 12SM SCT015CB BKN130 OVC300 30/24 A2976

2010/08/08 05:55
KLGC 080555Z AUTO 00000KT 10SM CLR 23/23 A2995

2010/08/08 06:05
KEWB 080605Z AUTO 00000KT 2SM BR CLR 16/14 A3003

2010/08/08 06:06
KFDK 080606Z AUTO 00000KT 10SM CLR 18/17 A3002

2010/08/08 06:00
KMMU 080600Z AUTO 00000KT 7SM SCT080 15/15 A3001

2010/08/08 06:00
KWDR 080600Z AUTO 00000KT 4SM CLR 24/22 A3001

2010/08/08 05:55
KLGC 080555Z AUTO 00000KT 10SM CLR 23/23 A2995

2010/08/08 06:00
KOPN 080600Z AUTO 00000KT 5SM CLR 26/24 A2997

2010/08/08 06:05
KMPV 080605Z AUTO 00000KT 2SM BR SCT001 09/08 A3005

2010/08/08 06:00
MZBZ 080600Z 00000KT 9999 FEW005 BKN260 26/26 A2989 NOSIG

2010/08/08 06:06
KCBE 080606Z AUTO 02004KT 10SM BKN070 BKN085 19/16 A3007

2010/08/08 06:12
KESN 080612Z AUTO 00000KT 10SM CLR 20/20 A3003

2010/08/08 06:00
KJQF 080600Z AUTO 00000KT 5SM BR CLR 23/20 A2998

2010/08/08 05:55
KWRB 080555Z 00000KT 10SM CLR 25/24 A2994

2010/08/08 06:07
CYNM 080607Z AUTO 17005KT 3/4SM OVC000 10/09 A2969 RMK VSBY VRBL 0.3V7.0

2010/08/08 06:07
KNRB 080607Z AUTO 19003KT 10SM SCT026 BKN042 26/23 A2992 RMK AO2 

2010/08/08 06:05
KEWB 080605Z AUTO 00000KT 2SM BR CLR 16/14 A3003

2010/08/08 06:00
UNAA 080600Z 19006MPS 9999 SCT030CB BKN200 25/16 Q1004 NOSIG RMK QFE731 201///60

2010/08/08 06:00
UNBB 080600Z 28006MPS CAVOK 26/16 Q1005 NOSIG RMK QFE732

2010/08/08 06:00
UNEE 080600Z 23007MPS 7000 SCT023CB OVC066 22/18 Q1001 NOSIG RMK QFE728 23CLRD60

2010/08/08 06:00
UNKL 080600Z 22005G08MPS 9999 -SHRA VCTS BKN033CB OVC083 17/13 Q0999 TEMPO 24012G17MPS -TSRAGR RMK QFE724 29////60

2010/08/08 06:00
UNNT 080600Z 28007MPS CAVOK 28/17 Q1002 NOSIG RMK QFE742/0989 25090070

2010/08/08 06:00
UNOO 080600Z 30004MPS 270V330 3500 FU SCT033CB BKN200 25/18 Q1008 NOSIG 25CLRD06 RMK QFE748

2010/08/08 06:00
UNWW 080600Z 21007MPS 9999 SCT030CB OVC130 23/18 Q1006 NOSIG RMK QFE727 19CLRD70

2010/08/08 06:00
USTR 080600Z 34005MPS CAVOK 22/12 Q1015 NOSIG RMK QFE752/1002 30CLRD65 03CLRD65

2010/08/08 06:00
USHH 080600Z 33002G07MPS 280V020 9999 BKN024 OVC080 15/09 Q1015 NOSIG RMK QFE757 SC06

2010/08/08 06:00
VTCH 080600Z VRB02KT 9999 FEW020 SCT030 BKN300 32/22 Q1003

2010/08/08 06:00
VTPH 080600Z 11005KT 9999 FEW030 BKN300 32/24 Q1004

2010/08/08 06:00
VTPO 080600Z 25005KT 9999 BKN022 BKN300 32/26 Q1003

2010/08/08 06:00
VTSB 080600Z 26012KT 8000 FEW020 BKN300 33/21 Q1006 A2972

2010/08/08 06:00
VTSM 080600Z 27011KT 9999 SCT020 BKN300 32/24 Q1006 A2974

2010/08/08 06:00
VTSG 080600Z 24012KT 9999 SCT020 31/24 Q1008/A2976 RWY32 INFO H

2010/08/08 06:00
ULLI 080600Z 12004MPS 7000 NSC 26/17 Q1016 NOSIG

2010/08/08 06:00
UUDD 080600Z 06002MPS 0400 R14R/0450N R14L/0500N FU VV004 28/19 Q1021 NOSIG

2010/08/08 06:00
UUEE 080600Z 08002MPS 0900 R25R/0900N FU VV003 27/19 Q1021 TEMPO 0500 FU

2010/08/08 06:00
UUMO 080600Z 10001MPS 0400 R26/0400 FU VV003 25/18 Q1021 NOSIG RMK QBB110 QFE750/1001 SC060

2010/08/08 06:00
VTCT 080600Z 11005KT 9999 BKN025 BKN100 30/23 Q1005 A2968 RMK/RWY03 INFO G

2010/08/08 06:00
VTUK 080600Z 01007KT 9999 FEW018TCU BKN020 30/25 Q1003 A2962 TCU E RWY03 INFO H

2010/08/08 06:00
UUBP 080600Z 11003MPS 3000 FU SCT/// 27/15 Q1018 NOSIG

2010/08/08 06:00
URKA 080600Z 07005MPS CAVOK 29/16 Q1010 NOSIG RMK  065

2010/08/08 06:00
URKK 080600Z 07005MPS CAVOK 28/12 Q1011 NOSIG RMK QFE755 SC070

2010/08/08 06:00
URKM 080600Z 11002MPS CAVOK 29/17 Q1011 RMK QFE739

2010/08/08 06:00
URML 080600Z 34004MPS 9999 SKC 31/21 Q1011 NOSIG RMK QFE758 / 07

2010/08/08 06:00
URMM 080600Z 00000MPS 9999 SKC 29/14 Q1013 NOSIG RMK / SC070

2010/08/08 06:00
URMN 080600Z 25002MPS 9999 FEW260 30/12 Q1013 NOSIG RMK / QFE723 SC07

2010/08/08 06:00
URMT 080600Z 10004MPS CAVOK 31/06 Q1014 NOSIG RMK QFE720 SC07

2010/08/08 06:00
URRR 080600Z 06005MPS CAVOK 33/09 Q1014 NOSIG RMK SC070

2010/08/08 06:00
URSS 080600Z 08001MPS 9999 FEW033 31/22 Q1009 NOSIG RMK / QFE755 06CLRD70

2010/08/08 06:00
URWA 080600Z 07003MPS CAVOK 35/10 Q1012 NOSIG RMK SC07

2010/08/08 06:00
URWI 080600Z 04002MPS 9999 SKC 32/17 Q1014 NOSIG

2010/08/08 06:00
URWW 080600Z 07006MPS CAVOK 33/09 Q1016 NOSIG RMK SC070

2010/08/08 06:00
ULAA 080600Z 16003MPS 110V230 CAVOK 23/18 Q1018 NOSIG RMK QFE762/1017 SC070

2010/08/08 06:00
ULKK 080600Z VRB01MPS 6000 BKN099 26/20 Q1022 NOSIG RMK QFE761

2010/08/08 06:00
ULMM 080600Z 00000MPS CAVOK 17/13 Q1018 NOSIG RMK QFE756 14090070

2010/08/08 06:00
ULWW 080600Z VRB02MPS 2500 HZ BKN/// 26/21 Q1021 NOSIG RMK QFE755

2010/08/08 06:00
UMKK 080600Z 21003MPS 180V240 P8000 NSC 20/18 Q1011 R24/CLRD65 NOSIG RMK QFE757/1009

2010/08/08 06:00
UUOB 080600Z 05002MPS CAVOK 27/13 Q1018 NOSIG RMK SC065

2010/08/08 06:00
UUOK 080600Z 01001MPS 6000 FEW200 28/15 Q1017 NOSIG

2010/08/08 06:00
UUOO 080600Z VRB02MPS 4300 HZ SKC 31/10 Q1018 NOSIG RMK 13090070

2010/08/08 06:00
UWGG 080600Z 00000MPS 0800 R36L/0800N FU BKN005 BKN230 30/17 Q1021 TEMPO 0500 FU VV003 36090070 RMK QBB160 QFE759

2010/08/08 06:00
URKA 080600Z 07005MPS CAVOK 29/16 Q1010 NOSIG RMK 065

2010/08/08 06:00
URKK 080600Z 07005MPS CAVOK 28/12 Q1011 NOSIG RMK QFE755 SC070

2010/08/08 06:00
URKM 080600Z 11002MPS CAVOK 29/17 Q1011 RMK QFE739

2010/08/08 06:00
URML 080600Z 34004MPS 9999 SKC 31/21 Q1011 NOSIG RMK QFE758 / 07

2010/08/08 06:00
URMM 080600Z 00000MPS 9999 SKC 29/14 Q1013 NOSIG RMK / SC070

2010/08/08 06:00
URMN 080600Z 25002MPS 9999 FEW260 30/12 Q1013 NOSIG RMK / QFE723 SC07

2010/08/08 06:00
URMT 080600Z 10004MPS CAVOK 31/06 Q1014 NOSIG RMK QFE720 SC07

2010/08/08 06:00
URRR 080600Z 06005MPS CAVOK 33/09 Q1014 NOSIG RMK SC070

2010/08/08 06:00
URSS 080600Z 08001MPS 9999 FEW033 31/22 Q1009 NOSIG RMK / QFE755 06CLRD70

2010/08/08 06:00
URWA 080600Z 07003MPS CAVOK 35/10 Q1012 NOSIG RMK SC07

2010/08/08 06:00
URWI 080600Z 04002MPS 9999 SKC 32/17 Q1014 NOSIG

2010/08/08 06:00
URWW 080600Z 07006MPS CAVOK 33/09 Q1016 NOSIG RMK SC070

2010/08/08 06:00
VTCP 080600Z 19003KT 9999 SCT025 BKN120 32/23 Q1003

2010/08/08 06:00
ULDD 080600Z 30006MPS 9999 FEW010 SCT/// 08/04 Q1022 NOSIG RMK QFE766

2010/08/08 06:00
UOHH 080600Z 05004MPS 9999 BKN020 09/05 Q1015 NOSIG RMK QFE755

2010/08/08 06:00
UOOO 080600Z 36005G07MPS 9999 BKN010CB 10/08 Q1006 TEMPO 0700 FG VV003 RMK QFE740 010///60

2010/08/08 06:00
USCM 080600Z 34003MPS 5000 FU SKC 29/14 Q1017 NOSIG 01090065 RMK QFE724

2010/08/08 06:00
UWUU 080600Z 35004MPS 310V010 CAVOK 29/15 Q1017 82010060 NOSIG RMK QFE752/1002

2010/08/08 06:00
USCC 080600Z 35006G09MPS 3000 HZ BKN200 27/17 Q1015 NOSIG RMK QFE741 09000070

2010/08/08 06:00
USDD 080600Z 32008G11MPS 9999 SCT042CB BKN100 11/05 Q1018 NOSIG RMK QFE759/1012 SC060

2010/08/08 06:00
USMU 080600Z 36005MPS 9999 OVC011 12/09 Q1008 NOSIG RMK QFE750 27250355

2010/08/08 06:00
USNN 080600Z 34005G10MPS 2400 -SHRA FEW010 BKN020CB OVC066 15/14 Q1005 TEMPO 2000 SHRA RMK QFE750 SC065

2010/08/08 06:00
USRK 080600Z 33008G11MPS 6000 BKN023CB BKN200 16/11 Q1008 NOSIG RMK QFE750 350///60

2010/08/08 06:00
USRR 080600Z 35009G13MPS 7000 SCT037CB SCT042 16/11 Q1010 NOSIG RMK QFE752 25////60

2010/08/08 06:00
USSS 080600Z 03004MPS 350V080 2200 FU BKN016 OVC200 24/13 Q1017 TEMPO 35009MPS RMK QFE742 260///70

2010/08/08 06:00
UHMM 080600Z 33004MPS 9999 SCT046 OVC200 19/08 Q1007 NOSIG RMK QFE740 88010070

2010/08/08 06:00
VTUD 080600Z VRB02KT 9999 FEW021TCU SCT030 31/25 Q1003 A2963 TCU NE INFO I RWY30

2010/08/08 06:00
VTUU 080600Z 25009KT 9999 BKN022 BKN300 31/24 Q1002 A2961 NOSIG

2010/08/08 06:00
VTBO 080600Z 23008KT 9999 BKN012 30/25 Q1005

2010/08/08 05:50
LIBC 080550Z VRB03KT CAVOK 24/14 Q1016 RMK VIS MIN 9999

2010/08/08 05:50
LIBD 080550Z 31007KT 9999 FEW025 22/15 Q1016 RMK VIS MIN 9999

2010/08/08 05:55
LIBN 080555Z 32005KT 9999 FEW025 22/19 Q1015 RMK FEW VIS MIN 9999 WIND THR14 32006KT BLU

2010/08/08 05:50
LIBP 080550Z VRB01KT CAVOK 19/16 Q1017 RMK VIS MIN 9999

2010/08/08 05:45
LIBR 080545Z 34014G24KT 9999 SCT020 22/16 Q1015 NOSIG RMK SCT VIS MIN 9999 WIND THR13 /////KT WIND THR31 32016KT BLU

2010/08/08 05:55
LIBV 080555Z 35010KT CAVOK 21/17 Q1015 RMK SKC VIS MIN 9999 WIND THR14 34009KT BLU

2010/08/08 05:50
LICA 080550Z VRB01KT 9999 FEW030 21/18 Q1016 RMK VIS MIN 9999

2010/08/08 05:50
LICC 080550Z VRB03KT CAVOK 22/15 Q1016 RMK VIS MIN 9999

2010/08/08 05:50
LICD 080550Z 33008KT CAVOK 24/18 Q1017 RMK VIS MIN 9999

2010/08/08 05:55
LICG 080555Z 36011KT 9999 FEW020 22/20 Q1017 RMK FEW VIS MIN 9999 WIND THR08 /////KT WIND THR21 36008KT BLU

2010/08/08 05:50
LICJ 080550Z 06005KT 030V100 9999 FEW030 25/18 Q1017 RMK VIS MIN 9999

2010/08/08 05:50
LICR 080550Z 36010KT 9999 FEW020 25/16 Q1016 RMK VIS MIN 9999

2010/08/08 05:55
LICT 080555Z 00000KT 9999 FEW025 22/20 Q1016 RMK FEW VIS MIN 9999 WIND THR13 05001KT BLU

2010/08/08 05:55
LICZ 080555Z 27002KT CAVOK 22/19 Q1016 RMK SKC VIS MIN 9999 WIND THR28 ///// KT BLU

2010/08/08 06:00
USPP 080600Z 36006MPS CAVOK 25/11 Q1020 NOSIG 03090060 RMK QFE754/1006

2010/08/08 06:00
UWKD 080600Z 04004G07MPS CAVOK 33/14 Q1020 NOSIG RMK QFE755/1007 11CLRD70

2010/08/08 06:00
UWKE 080600Z 03006MPS 7000 OVC200 29/18 Q1019 NOSIG RMK QFE748/0997 04090070

2010/08/08 06:00
UWKS 080600Z 00000MPS 9999 VCTS FEW033CB SCT066 28/17 Q1021 NOSIG RMK QFE751 SC0.60

2010/08/08 06:00
UWLL 080600Z 36003MPS 7000 NSC 30/13 Q1019 NOSIG RMK QFE752/1003 SC065

2010/08/08 06:00
UWLW 080600Z 35002MPS 8000 SCT100 30/20 Q1019 NOSIG 20CLRD60 RMK QFE759

2010/08/08 06:00
UWOR 080600Z VRB02MPS CAVOK 30/09 Q1019 25CLRD65 NOSIG RMK QFE739/0985

2010/08/08 06:00
UWOO 080600Z 25002MPS 170V320 P5000 SKC 33/12 Q1016 26CLRD65 NOSIG RMK QFE752/1002

2010/08/08 06:00
UWPP 080600Z 03003MPS 5000 SCT200 29/14 Q1019 NOSIG RMK QFE749 11090060

2010/08/08 06:00
UWSS 080600Z VRB02MPS CAVOK 32/13 Q1018 NOSIG RMK QFE750 300///60

2010/08/08 06:00
UWWW 080600Z 01002MPS 010V080 CAVOK 32/09 Q1019 NOSIG RMK QFE751/1001 05CLRD60 15//99//

2010/08/08 06:00
UIAA 080600Z VRB02MPS 9999 SCT040CB OVC100 21/12 Q1004 NOSIG RMK QFE695 29CLRD70

2010/08/08 06:00
UIBB 080600Z 16006MPS 9999 BKN040CB 15/05 Q1007 NOSIG RMK QFE713/0951 30CLRD60

2010/08/08 06:00
UIII 080600Z 35002MPS 260V360 9999 SCT033 18/03 Q1010 NOSIG RMK QFE713/0951 30CLRD60

2010/08/08 06:00
UIUU 080600Z 32006MPS 9999 BKN036CB 14/05 Q1009 NOSIG RMK QFE713/0951

2010/08/08 06:00
EIDW 080600Z 25004KT 220V290 9999 FEW025 BKN034 13/11 Q1022 NOSIG

2010/08/08 06:00
EINN 080600Z 10001KT 8000 MIFG FEW008 SCT034 BKN200 12/12 Q1023 NOSIG

2010/08/08 06:00
EICK 080600Z 32007KT 9999 FEW016 BKN034 10/10 Q1023 NOSIG

2010/08/08 06:00
UUYH 080600Z 04003MPS 9999 OVC011 11/07 Q1024 NOSIG RMK QFE 756 36CLRD60

2010/08/08 06:00
UUYS 080600Z 34004MPS 9999 OVC018 08/04 Q1026 NOSIG RMK QFE762 32CLRD60

2010/08/08 06:00
WMBA 080600Z 16002KT 9000 -SHRA FEW017CB SCT020 BKN280 30/27 Q1008

2010/08/08 06:00
WMKA 080600Z 25011KT 220V300 9999 FEW017CB SCT020 BKN280 31/28 Q1007

2010/08/08 06:00
WMKB 080600Z 23004KT 9000 FEW017CB SCT140 BKN270 31/25 Q1007 NOSIG

2010/08/08 06:00
WMKC 080600Z 20006KT 9999 SCT018 SCT140 BKN220 32/23 Q1007

2010/08/08 06:00
WMKD 080600Z 20005KT 9999 FEW019 SCT160 BKN280 32/25 Q1007 NOSIG

2010/08/08 06:00
WMKI 080600Z 02004KT 9999 SCT020 BKN130 BKN270 31/24 Q1008

2010/08/08 06:00
WMKL 080600Z 26007KT 9999 FEW017CB SCT023 BKN280 31/27 Q1008 RESHRA

2010/08/08 06:00
WMKM 080600Z 25003KT 8000 FEW017CB SCT140 BKN270 29/26 Q1009 RETS

2010/08/08 06:00
WMKN 080600Z 10004KT 9999 SCT018 OVC220 31/26 Q1008

2010/08/08 06:00
UHHH 080600Z 13002MPS 9999 SCT033CB SCT100 BKN200 24/19 Q1011 NOSIG RMK QFE752/1003 23090060

2010/08/08 06:00
UHMA 080600Z 10005MPS 9999 BKN027 OVC080 11/08 Q1003 NOSIG RMK QFE749/0998 880///70

2010/08/08 06:00
UHNN 080600Z 28003MPS 9999 SCT033 27/20 Q1010 NOSIG RMK QFE752 290///60

2010/08/08 06:00
UHPP 080600Z 32007MPS 300V360 9999 FEW040 22/05 Q1004 NOSIG RMK QFE749/0999 MT OBS SC070

2010/08/08 06:00
UHSH 080600Z 32004MPS 9999 FEW030 23/11 Q1011 RMK QFE755 31090070

2010/08/08 06:00
UHSS 080600Z 20006MPS 9999 SCT040 24/20 Q1013 NOSIG RMK QFE758/1011 19CLRD70

2010/08/08 06:00
UHWW 080600Z 00000MPS 9999 SCT016 OVC033CB 22/21 Q1010 NOSIG RMK QFE757/1009 7529//60

2010/08/08 06:00
UEEE 080600Z 15002MPS CAVOK 23/10 Q1008 NOSIG RMK QFE747 2309//60

2010/08/08 06:00
UELL 080600Z 19005MPS 9999 SCT033CB BKN200 23/07 Q1012 NOSIG RMK QFE684 08CLRD70

2010/08/08 06:00
UERP 080600Z 13002MPS 9999 SCT018CB OVC024 10/04 Q1004 NOSIG RMK QFE709 17290255

2010/08/08 06:00
UERR 080600Z 24003MPS 9999 BKN033 12/05 Q1007 NOSIG RMK QFE724 24CLRD60

2010/08/08 06:00
UEST 080600Z 09006MPS CAVOK 14/09 Q1010 NOSIG RMK QFE757

2010/08/08 06:00
USPP 080600Z 36006MPS CAVOK 25/11 Q1020 NOSIG 03090060 RMK QFE754/1006

2010/08/08 06:00
UWKD 080600Z 04004G07MPS CAVOK 33/14 Q1020 NOSIG RMK QFE755/1007 11CLRD70

2010/08/08 06:00
UWKE 080600Z 03006MPS 7000 OVC200 29/18 Q1019 NOSIG RMK  QFE748/0997 04090070

2010/08/08 06:00
UWKS 080600Z 00000MPS 9999 VCTS FEW033CB SCT066 28/17 Q1021 NOSIG RMK QFE751 SC0.60

2010/08/08 06:00
UWLL 080600Z 36003MPS 7000 NSC 30/13 Q1019 NOSIG RMK QFE752/1003 SC065

2010/08/08 06:00
UWLW 080600Z 35002MPS 8000 SCT100 30/20 Q1019 NOSIG 20CLRD60 RMK QFE759

2010/08/08 06:00
UWOR 080600Z VRB02MPS CAVOK 30/09 Q1019 25CLRD65 NOSIG RMK QFE739/0985

2010/08/08 06:00
UWOO 080600Z 25002MPS 170V320 P5000 SKC 33/12 Q1016 26CLRD65 NOSIG RMK QFE752/1002

2010/08/08 06:00
UWPP 080600Z 03003MPS 5000 SCT200 29/14 Q1019 NOSIG RMK QFE749 11090060

2010/08/08 06:00
UWSS 080600Z VRB02MPS CAVOK 32/13 Q1018 NOSIG RMK QFE750 300///60

2010/08/08 06:00
UWWW 080600Z 01002MPS 010V080 CAVOK 32/09 Q1019 NOSIG RMK QFE751/1001 05CLRD60 15//99//

2010/08/08 06:00
KMMU 080600Z AUTO 00000KT 7SM SCT080 15/15 A3001

2010/08/08 06:06
KMTN 080606Z AUTO 00000KT 10SM CLR 21/18 A3000

2010/08/08 06:00
DAOB 080600Z 00000KT CAVOK 20/11 Q1020

2010/08/08 06:00
GABS 080600Z VRB02KT 8000 TSRA FEW023 FEW033CB SCT100 24/24 Q1013 BECMG NSW

2010/08/08 06:00
GOOY 080600Z VRB03KT 9999 BKN013 27/22 Q1011 NOSIG

2010/08/08 06:00
DIAP 080600Z 23005KT 8000 FEW006 BKN012 25/24 Q1014 NOSIG

2010/08/08 06:00
GQNN 080600Z 30004KT 6000 FEW010 25/22 Q1010 TEMPO SCT010

2010/08/08 06:00
GVAC 080600Z 02003KT 9999 BKN016 25/20 Q1013 NOSIG

2010/08/08 06:00
GLRB 080600Z 26003KT 9999 BKN014 25/24 Q1014 NOSIG

2010/08/08 06:00
TLPL 080600Z 10015KT 9999 SCT018 28/25 Q1012

2010/08/08 06:01
KGSB 080601Z AUTO 00000KT 7SM R08/5000V5500FT BKN025 23/23 A2995 RMK AO2 SLP142

2010/08/08 06:03
KLFI 080603Z 12005KT 10SM BKN008 25/23 A2999 RMK AO2A SLP157

2010/08/08 06:01
CZCP 080601Z AUTO 06013KT 5/8SM CLR 07/ A2958

2010/08/08 06:00
UELL 080600Z 19005MPS 9999 SCT033CB BKN200 23/07 Q1012 NOSIG RMK QFE684 08CLRD70

2010/08/08 06:00
UHHH 080600Z 13002MPS 9999 SCT033CB SCT100 BKN200 24/19 Q1011 NOSIG RMK QFE752/1003 23090060

2010/08/08 06:00
UHMA 080600Z 10005MPS 9999 BKN027 OVC080 11/08 Q1003 NOSIG RMK QFE749/0998 880///70

2010/08/08 06:00
UHNN 080600Z 28003MPS 9999 SCT033 27/20 Q1010 NOSIG RMK QFE752 290///60

2010/08/08 06:00
UHPP 080600Z 32007MPS 300V360 9999 FEW040 22/05 Q1004 NOSIG RMK QFE749/0999 MT OBS SC070

2010/08/08 06:00
UHSS 080600Z 20006MPS 9999 SCT040 24/20 Q1013 NOSIG RMK QFE758/1011 19CLRD70

2010/08/08 06:00
UHWW 080600Z 00000MPS 9999 SCT016 OVC033CB 22/21 Q1010 NOSIG RMK QFE757/1009 7529//60

2010/08/08 06:00
ULWW 080600Z VRB02MPS 2500 HZ BKN/// 26/21 Q1021 NOSIG RMK QFE755

2010/08/08 06:00
UMGG 080600Z 13004MPS CAVOK 27/15 Q1016 R10/D NOSIG

2010/08/08 06:00
UMII 080600Z 12003G06MPS 2500 FU OVC100 27/15 Q1016 TEMPO 2000

2010/08/08 06:00
UMKK 080600Z 21003MPS 180V240 P8000 NSC 20/18 Q1011 R24/65D NOSIG RMK QFE757/1009

2010/08/08 06:00
UMMM 080600Z 13003MPS 5000 HZ SCT200 25/17 Q1014 R12/D NOSIG RMK QFE740

2010/08/08 06:00
UMMS 080600Z 15002MPS 090V190 5000 BR NSC 26/17 Q1014 R13/D NOSIG

2010/08/08 06:00
URKA 080600Z 07005MPS CAVOK 29/16 Q1010 NOSIG RMK 065

2010/08/08 06:00
URMM 080600Z 00000MPS 9999 SKC 29/14 Q1013 NOSIG RMK / SC070

2010/08/08 06:00
URSS 080600Z 08001MPS 9999 FEW033 31/22 Q1009 NOSIG RMK / QFE755 06CLRD70

2010/08/08 06:00
UWGG 080600Z 00000MPS 0800 R36L/0800N FU BKN005 BKN230 30/17 Q1021 TEMPO 0500 FU VV003 36090070 RMK QBB160 QFE759

2010/08/08 06:00
UWKD 080600Z 04004G07MPS CAVOK 33/14 Q1020 NOSIG RMK QFE755/1007 11CLRD70

2010/08/08 06:00
ZYTX 080600Z 31002MPS 6000 OVC023 24/22 Q1004 NOSIG

2010/08/08 06:07
CYUS 080607Z AUTO ///// 9SM CLR 08/ A2984

2010/08/08 06:07
CWZZ 080607Z AUTO ///// 9SM SCT009 SCT015 BKN053 08/ A2927

2010/08/08 06:00
USPP 080600Z 36006MPS CAVOK 25/11 Q1020 NOSIG 03090060 RMK QFE754/1006

2010/08/08 06:00
UWKD 080600Z 04004G07MPS CAVOK 33/14 Q1020 NOSIG RMK QFE755/1007 11CLRD70

2010/08/08 06:00
UWKE 080600Z 03006MPS 7000 OVC200 29/18 Q1019 NOSIG RMK QFE748/0997 04090070

2010/08/08 06:00
UWKS 080600Z 00000MPS 9999 VCTS FEW033CB SCT066 28/17 Q1021 NOSIG RMK QFE751 SC0.60

2010/08/08 06:00
UWLL 080600Z 36003MPS 7000 NSC 30/13 Q1019 NOSIG RMK QFE752/1003 SC065

2010/08/08 06:00
UWLW 080600Z 35002MPS 8000 SCT100 30/20 Q1019 NOSIG 20CLRD60 RMK QFE759

2010/08/08 06:00
UWOR 080600Z VRB02MPS CAVOK 30/09 Q1019 25CLRD65 NOSIG RMK QFE739/0985

2010/08/08 06:00
UWOO 080600Z 25002MPS 170V320 P5000 SKC 33/12 Q1016 26CLRD65 NOSIG RMK QFE752/1002

2010/08/08 06:00
UWPP 080600Z 03003MPS 5000 SCT200 29/14 Q1019 NOSIG RMK QFE749 11090060

2010/08/08 06:00
UWSS 080600Z VRB02MPS CAVOK 32/13 Q1018 NOSIG RMK QFE750 300///60

2010/08/08 06:00
UWWW 080600Z 01002MPS 010V080 CAVOK 32/09 Q1019 NOSIG RMK QFE751/1001 05CLRD60 15//99//

2010/08/08 06:00
OYAT 080600Z 14013KT CAVOK 32/16 Q1004

2010/08/08 06:00
GABS 080600Z VRB02KT 8000 TSRA FEW023 FEW033CB SCT100 24/24 Q1013 BECMG NSW

2010/08/08 06:00
GOOY 080600Z VRB03KT 9999 BKN013 27/22 Q1011 NOSIG

2010/08/08 06:00
DIAP 080600Z 23005KT 8000 FEW006 BKN012 25/24 Q1014 NOSIG

2010/08/08 06:00
GQNN 080600Z 30004KT 6000 FEW010 25/22 Q1010 TEMPO SCT010

2010/08/08 06:00
GVAC 080600Z 02003KT 9999 BKN016 25/20 Q1013 NOSIG

2010/08/08 06:00
GLRB 080600Z 26003KT 9999 BKN014 25/24 Q1014 NOSIG

2010/08/08 06:06
KRQE 080606Z AUTO 00000KT 9SM SCT003 OVC013 14/13 A3023 RMK AO2 TSNO 

