2010/08/10 06:59
MYEG 100659Z AUTO 11004KT 10SM CLR 27/24 A2994 RMK AO2 

2010/08/10 06:59
MYEG 100659Z AUTO 11004KT 10SM CLR 27/24 A2994 RMK AO2

2010/08/10 06:46
KBAX 100646Z AUTO 00000KT 4SM BR CLR 21/21 A2994 RMK AO2

2010/08/10 06:46
KBAX 100646Z AUTO 00000KT 4SM BR CLR 21/21 A2994 RMK AO2

2010/08/10 06:46
KBAX 100646Z AUTO 00000KT 4SM BR CLR 21/21 A2994 RMK AO2

2010/08/10 06:46
KBAX 100646Z AUTO 00000KT 4SM BR CLR 21/21 A2994 RMK AO2

2010/08/10 06:55
KFDW 100655Z AUTO 00000KT 10SM CLR 26/21 A3003 RMK AO1

2010/08/10 06:55
KFDW 100655Z AUTO 00000KT 10SM CLR 26/21 A3003 RMK AO1

2010/08/10 06:50
OAKB 100650Z 17003KT 9999 FEW090 BKN140 28/12 Q1014 NOSIG RMK BLU BLU

2010/08/10 06:55
KQTU 100655Z 32006KT 9000 HZ CLR 36/04 A2969 RMK SLP032

2010/08/10 06:45
GCXO 100645Z 28005KT 250V310 0500 R30/P2000 R12/0275V0700D FG BKN000 BKN100 17/17 Q1017 NOSIG

2010/08/10 06:45
CYPQ 100645Z AUTO ///// 1/8SM BKN012 BKN040 18/18 A2993

2010/08/10 06:45
KNBG 100645Z AUTO 00000KT 1 3/4SM BR CLR A2992 RMK AO2 PWINO FZRANO $ 

2010/08/10 06:55
KCCA 100655Z AUTO 00000KT 5SM BR CLR 26/26 A2995 RMK AO2

2010/08/10 06:50
OAKB 100650Z 17003KT 9999 FEW090 BKN140 28/12 Q1014 NOSIG RMK BLU BLU

2010/08/10 06:45
KBBW 100645Z AUTO 32013G18KT 3/4SM +TSRA BR SCT009 BKN018 OVC047 20/18 A3000 RMK AO2 PK WND 30035/0619 WSHFT 0610 LTG DSNT ALQDS RAB0555 P0056 $

2010/08/10 06:45
KEWB 100645Z AUTO 00000KT 9SM BKN060 BKN095 23/21 A2992 RMK AO2 LTG DSNT NE AND E TSB19E39RAE35 P0001

2010/08/10 06:45
KGLR 100645Z AUTO 30006KT 2 1/2SM BR OVC001 21/21 A2999 RMK AO2 CIG 001V005

2010/08/10 06:45
KPBG 100645Z AUTO 00000KT 3/4SM BR VV001 17/17 A2990 RMK AO2 P0001

2010/08/10 06:45
GCXO 100645Z 28005KT 250V310 0500 R30/P2000 R12/0275V0700D FG BKN000 BKN100 17/17 Q1017 NOSIG

2010/08/10 06:46
CYCX 100646Z AUTO 21004KT 1/2SM 16/16 A2981

2010/08/10 06:45
KMTC 100645Z AUTO 00000KT 1/2SM R19/0900V4500FT DZ FG CLR 21/21 A2994 RMK AO2 SLP141 $

2010/08/10 06:46
KMTC 100646Z AUTO 00000KT 3/4SM R19/0900V5000FT DZ BR CLR 21/21 A2994 RMK AO2 SLP141 $

2010/08/10 06:46
CWOB 100646Z AUTO ///// 1/8SM CLR 03/ A2977

2010/08/10 06:46
CYPQ 100646Z AUTO ///// 1/8SM BKN000 BKN012 BKN040 18/18 A2993

2010/08/10 06:45
KORG 100645Z AUTO 00000KT 7SM CLR 25/25 A2992 RMK AO2

2010/08/10 06:45
KPNT 100645Z AUTO 22005KT 10SM -TSRA 27/24 A2998 RMK AO2 LTG DSNT ALQDS

2010/08/10 06:53
KPYX 100653Z AUTO 17003KT 10SM CLR 23/18 A2999 RMK AO2 P0001

2010/08/10 06:45
KRCR 100645Z AUTO 00000KT 4SM BR SCT036 SCT044 SCT050 26/26 A2996 RMK AO2 P0001

2010/08/10 06:45
KSFY 100645Z AUTO 00000KT 7SM CLR 24/23 A2993 RMK AO2 LTG DSNT SE

2010/08/10 06:46
PACM 100646Z AUTO 18006KT 2SM -RA BR SCT016 BKN024 OVC090 11/09 A2932 RMK AO2 TSNO P0003 $

2010/08/10 06:46
KDSM 100646Z VRB06G17KT 3/4SM R31/2800VP6000FT +TSRA BR BKN006 BKN019 OVC060 23/22 A2998 RMK AO2 PK WND 03027/0623 RAB15 CONS LTGCGIC ALQDS TS ALQDS STNRY P0077

2010/08/10 06:46
KHIE 100646Z AUTO 00000KT 3SM BR OVC004 17/17 A2994 RMK AO2

2010/08/10 06:46
KYIP 100646Z 00000KT 1 1/4SM BR CLR 22/21 A2996 RMK AO2

2010/08/10 06:46
PACM 100646Z AUTO 18006KT 2SM -RA BR SCT016 BKN024 OVC090 11/09 A2932 RMK AO2 TSNO P0003 $

2010/08/10 06:45
KNBG 100645Z AUTO 00000KT 1 3/4SM BR CLR A2992 RMK AO2 PWINO FZRANO $

2010/08/10 06:45
KBBW 100645Z AUTO 32013G18KT 3/4SM +TSRA BR SCT009 BKN018 OVC047 20/18 A3000 RMK AO2 PK WND 30035/0619 WSHFT 0610 LTG DSNT ALQDS RAB0555 P0056 $

2010/08/10 06:45
KEWB 100645Z AUTO 00000KT 9SM BKN060 BKN095 23/21 A2992 RMK AO2 LTG DSNT NE AND E TSB19E39RAE35 P0001

2010/08/10 06:45
KGLR 100645Z AUTO 30006KT 2 1/2SM BR OVC001 21/21 A2999 RMK AO2 CIG 001V005

2010/08/10 06:45
KPBG 100645Z AUTO 00000KT 3/4SM BR VV001 17/17 A2990 RMK AO2 P0001

2010/08/10 06:46
PACM 100646Z AUTO 18006KT 2SM -RA BR SCT016 BKN024 OVC090 11/09 A2932 RMK AO2 TSNO P0003 $

2010/08/10 06:46
KHIE 100646Z AUTO 00000KT 3SM BR OVC004 17/17 A2994 RMK AO2

2010/08/10 06:46
KYIP 100646Z 00000KT 1 1/4SM BR CLR 22/21 A2996 RMK AO2

2010/08/10 06:46
PACM 100646Z AUTO 18006KT 2SM -RA BR SCT016 BKN024 OVC090 11/09 A2932 RMK AO2 TSNO P0003 $

2010/08/10 06:55
KCCA 100655Z AUTO 00000KT 5SM BR CLR 26/26 A2995 RMK AO2

2010/08/10 06:45
KORG 100645Z AUTO 00000KT 7SM CLR 25/25 A2992 RMK AO2

2010/08/10 06:45
KPNT 100645Z AUTO 22005KT 10SM -TSRA 27/24 A2998 RMK AO2 LTG DSNT ALQDS

2010/08/10 06:53
KPYX 100653Z AUTO 17003KT 10SM CLR 23/18 A2999 RMK AO2 P0001

2010/08/10 06:45
KRCR 100645Z AUTO 00000KT 4SM BR SCT036 SCT044 SCT050 26/26 A2996 RMK AO2 P0001

2010/08/10 06:45
KSFY 100645Z AUTO 00000KT 7SM CLR 24/23 A2993 RMK AO2 LTG DSNT SE

2010/08/10 06:46
KDSM 100646Z VRB06G17KT 3/4SM R31/2800VP6000FT +TSRA BR BKN006 BKN019 OVC060 23/22 A2998 RMK AO2 PK WND 03027/0623 RAB15 CONS LTGCGIC ALQDS TS ALQDS STNRY P0077

2010/08/10 06:46
CYSJ 100646Z 20005KT 1/4SM R23/2600FT/N FG VV002 15/ RMK FG8

2010/08/10 06:45
KEWB 100645Z AUTO 00000KT 9SM BKN060 BKN095 23/21 A2992

2010/08/10 06:45
KBBW 100645Z AUTO 32013G18KT 3/4SM +TSRA BR SCT009 BKN018 OVC047 20/18 A3000

2010/08/10 06:45
KEWB 100645Z AUTO 00000KT 9SM BKN060 BKN095 23/21 A2992

2010/08/10 06:46
KFWA 100646Z 00000KT 1/4SM FG CLR 22/22 A2997 RMK AO2 R23/3000FT 

2010/08/10 06:47
KCQT 100647Z AUTO 00000KT 8SM BKN007 18/14 A2991 RMK AO2 SLP124 T01780139 TSNO $ 

2010/08/10 06:45
KMWS 100645Z 12006G10KT 16/M01 RMK SNOW DEPTH M 

2010/08/10 06:45
KGNC 100645Z AUTO 00000KT 10SM CLR 21/19 A3005 RMK AO2 T02060191

2010/08/10 06:45
KGWB 100645Z AUTO 00000KT 1/2SM FG BKN001 BKN039 22/21 A2998 RMK AO2

2010/08/10 06:45
KHHF 100645Z AUTO 21006KT 10SM SCT110 25/19 A2997 RMK AO2 T02490194

2010/08/10 06:45
KINJ 100645Z AUTO 17003KT 10SM CLR 28/21 A2993 RMK AO2 T02770206

2010/08/10 06:45
KJAS 100645Z AUTO 00000KT 10SM CLR 27/25 A2995 RMK AO2 T02680250

2010/08/10 06:45
KJSO 100645Z AUTO 20003KT 10SM CLR 28/24 A2996 RMK AO2 T02750236

2010/08/10 06:45
KLBR 100645Z AUTO 00000KT 10SM CLR 25/22 A2991 RMK AO2 T02470219

2010/08/10 06:55
KOLV 100655Z AUTO 00000KT 7SM CLR 25/25 A2995 RMK A01 P000

2010/08/10 06:45
KOXI 100645Z AUTO 00000KT 1 3/4SM BKN027 OVC035 22/21 A2995 RMK AO1 VIS 3/4V5 T02210209

2010/08/10 06:47
KPSN 100647Z AUTO 00000KT 28/24 A2995 RMK AO2 PWINO

2010/08/10 06:45
KRPJ 100645Z AUTO 00000KT 7SM CLR 24/23 A2996 RMK AO2 LTG DSNT SE AND S T02380226

2010/08/10 06:45
K1H2 100645Z AUTO 00000KT 7SM SCT120 25/24 A2996 RMK AO2 LTG DSNT N T02540242

2010/08/10 06:45
K3LF 100645Z AUTO 00000KT 10SM BKN120 26/23 A2995 RMK AO2 LTG DSNT N

2010/08/10 06:45
K3T5 100645Z AUTO 00000KT 10SM CLR 27/25 A2993 RMK AO2 T02680246

2010/08/10 06:45
KAJG 100645Z AUTO 00000KT 3SM BR CLR 23/23 A2996 RMK AO2 T02300226

2010/08/10 06:45
KALN 100645Z AUTO 00000KT 7SM SCT120 27/26 A2995 RMK AO2 T02650256

2010/08/10 06:45
KAQO 100645Z AUTO 19007KT CLR 28/22 A2998 RMK AO2 PWINO

2010/08/10 06:45
KARM 100645Z AUTO 00000KT 10SM CLR 27/24 A2993 RMK AO2 T02650241

2010/08/10 06:47
KASW 100647Z AUTO 00000KT 1/4SM FG OVC004 23/23 A2998 RMK AO2 T02320229

2010/08/10 06:45
KBBD 100645Z AUTO 15007KT 10SM CLR 28/19 A2998 RMK

2010/08/10 06:45
KBKS 100645Z AUTO 00000KT 10SM SCT020 SCT031 28/26 A2992 RMK AO1 T02760258

2010/08/10 06:47
KBPC 100647Z AUTO 19006KT 10SM CLR 24/16 A2998 RMK AO2

2010/08/10 06:45
KBYY 100645Z AUTO 00000KT 10SM CLR 26/26 A2992 RMK AO2 T02630259

2010/08/10 06:45
KC75 100645Z AUTO 12003KT 10SM CLR 25/25 A2995 RMK AO2 LTG DSNT NE THRU SE T02520246

2010/08/10 06:45
KCPT 100645Z AUTO 16005KT 10SM CLR 28/22 A2995 RMK AO2

2010/08/10 06:45
KCUL 100645Z AUTO 00000KT 7SM CLR 23/21 A2994 RMK AO2 T02320212

2010/08/10 06:45
KCVB 100645Z AUTO 15003KT 10SM CLR 27/23 A2997 RMK AO2 T02700230

2010/08/10 06:47
KGLR 100647Z AUTO 30005KT 3SM BR OVC003 21/21 A2999 RMK AO2 CIG 001V006

2010/08/10 06:47
KSYR 100647Z 00000KT 2SM BR BKN020 OVC055 21/21 A2995 RMK AO2

2010/08/10 06:46
KDSM 100646Z COR VRB06G17KT 3/4SM R31/2800VP6000FT +TSRA BR BKN006 BKN019CB OVC060 23/22 A2998 RMK AO2 PK WND 03027/0623 RAB15 CONS LTGCGIC ALQDS TS ALQDS STNRY P0077

2010/08/10 06:47
KENW 100647Z AUTO 00000KT 1SM BR CLR 21/21 A2996 RMK AO2

2010/08/10 06:45
KCWC 100645Z AUTO 17008KT 10SM CLR 29/20 A2992 RMK AO2 T02920195

2010/08/10 06:45
KDKB 100645Z AUTO 00000KT 7SM CLR 24/21 A2996 RMK AO2 LTG DSNT SE AND S T02350207

2010/08/10 06:45
KDKR 100645Z AUTO 00000KT 10SM CLR 27/27 A2996 RMK AO2

2010/08/10 06:45
KDNV 100645Z AUTO 00000KT 7SM BKN110 26/24 A2992 RMK AO2 T02570235

2010/08/10 06:45
KDZB 100645Z AUTO 17006KT 7SM CLR 27/22 A2995 RMK AO2 T02720222

2010/08/10 06:45
KERV 100645Z AUTO 15006KT 10SM CLR 26/22 A3001 RMK AO2 T02610217

2010/08/10 06:47
LBGO 100647Z 27004MPS 230V320 CAVOK 24/18 Q1015 NOSIG

2010/08/10 06:46
CYSJ 100646Z 20005KT 1/4SM R23/2600FT/N FG VV002 15/ RMK FG8

2010/08/10 07:00
MPTO 100700Z 00000KT 9999 SCT018CB 27/25 Q1011 NOSIG

2010/08/10 06:47
LBGO 100647Z 27004MPS 230V320 CAVOK 24/18 Q1015 NOSIG

2010/08/10 06:46
KDSM 100646Z VRB06G17KT 3/4SM R31/2800VP6000FT +TSRA BR BKN006 BKN019 OVC060 23/22 A2998

2010/08/10 06:46
KFWA 100646Z 00000KT 1/4SM FG CLR 22/22 A2997

2010/08/10 06:47
CYZX 100647Z 36004KT 2SM -SHRA BR SCT002 OVC010 RMK SF4SF4 WNDY HILL 00000KT LTNG DIST W

2010/08/10 06:46
KDSM 100646Z VRB06G17KT 3/4SM R31/2800VP6000FT +TSRA BR BKN006 BKN019 OVC060 23/22 A2998

2010/08/10 06:46
KFWA 100646Z 00000KT 1/4SM FG CLR 22/22 A2997

2010/08/10 06:46
KYIP 100646Z 00000KT 1 1/4SM BR CLR 22/21 A2996

2010/08/10 06:48
CYUS 100648Z AUTO ///// 9SM CLR 11/ A2992

2010/08/10 06:46
KDSM 100646Z VRB06G17KT 3/4SM R31/2800VP6000FT +TSRA BR BKN006 BKN019 OVC060 23/22 A2998

2010/08/10 06:46
KFWA 100646Z 00000KT 1/4SM FG CLR 22/22 A2997

2010/08/10 06:47
KAPN 100647Z AUTO 00000KT 3/4SM BR VV001 19/18 A2995 RMK AO2 $ 

2010/08/10 06:49
HLLB 100649Z 31015KT 9999 BKN020 27/19 Q1012

2010/08/10 06:48
KJDN 100648Z AUTO 04005KT 18/16 A2981 RMK AO2 SLP078 T01780161 403390122 PWINO TSNO $ 

2010/08/10 06:45
CWWA 100645Z AUTO 00000KT 14/12 RMK AO1 T01400120

2010/08/10 06:45
KAXH 100645Z AUTO 00000KT 10SM CLR 25/24 A2993 RMK AO2 T02490236

2010/08/10 06:47
KDUX 100647Z AUTO 20007KT 10SM CLR 23/17 A3004 RMK AO2 T02250172

2010/08/10 06:49
KEBG 100649Z AUTO 00000KT 10SM SCT013 BKN020 BKN027 28/26 A2992 RMK AO2 T02780255

2010/08/10 06:45
KECU 100645Z AUTO 14013KT 10SM CLR 27/22 A3008 RMK AO2

2010/08/10 06:45
KENL 100645Z AUTO 00000KT 7SM CLR 25/23 A2996 RMK AO2 T02450231

2010/08/10 06:48
KENW 100648Z AUTO 00000KT 1 1/4SM BR CLR 21/20 A2996 RMK AO2 SLP138 T02060200

2010/08/10 06:45
KFEP 100645Z AUTO 03003KT 2 1/2SM BR CLR 24/22 A2997 RMK AO2 LTG DSNT SE T02360216

2010/08/10 06:45
KFOA 100645Z AUTO 00000KT 7SM CLR 27/26 A2996 RMK AO2 T02690262

2010/08/10 06:45
KFWC 100645Z AUTO 00000KT 7SM CLR 25/23 A2996 RMK AO2

2010/08/10 06:45
KGBG 100645Z AUTO 14003KT 5SM BR CLR 25/24 A2991 RMK AO2 LTG DSNT E

2010/08/10 06:45
KGOP 100645Z AUTO 18006KT 10SM CLR 28/21 A2996 RMK AO2

2010/08/10 06:45
KHSB 100645Z AUTO 00000KT 5SM BR CLR 24/22 A2995 RMK AO2

2010/08/10 06:45
KIGQ 100645Z AUTO 00000KT 10SM CLR 25/22 A2995 RMK AO2 LTG DSNT SW

2010/08/10 06:45
KIJX 100645Z AUTO 12007KT 10SM CLR 26/22 A2995 RMK AO2 LTG DSNT NE T02550218

2010/08/10 06:45
KIKK 100645Z AUTO 00000KT 10SM VCTS SCT080 28/23 A2995 RMK AO2 LTG DSNT SW THRU NW

2010/08/10 06:45
KJDD 100645Z AUTO 00000KT 10SM CLR 25/23 A2993 RMK AO2

2010/08/10 06:45
KJXI 100645Z AUTO 00000KT 10SM CLR 28/23 A2993 RMK AO2

2010/08/10 06:45
KLNC 100645Z AUTO 21003KT 10SM CLR 28/22 A2991 RMK AO2 T02760215

2010/08/10 06:45
KLOT 100645Z AUTO 10SM CLR 25/23 RMK AO2 LTG DSNT S AND SW T02480231 PWINO PNO

2010/08/10 06:45
KLUD 100645Z AUTO 18008KT 10SM CLR 30/18 A2993 RMK AO2 T02970184

2010/08/10 06:47
KM30 100647Z AUTO 00000KT 4SM BR CLR 25/23 A2994 RMK AO2

2010/08/10 06:45
KMDD 100645Z AUTO 14005KT 10SM CLR 22/20 A3002 RMK AO2 T02220196

2010/08/10 06:45
KPEQ 100645Z AUTO 13008KT 10SM CLR 26/18 A2997 RMK AO2 T02550176

2010/08/10 06:45
KPEZ 100645Z AUTO 00000KT 10SM CLR 26/23 A2996 RMK AO2 T02590229

2010/08/10 06:49
KPKV 100649Z AUTO 00000KT 10SM SCT021 SCT026 26/24 A2992 RMK AO2 T02640240

2010/08/10 06:45
KRSV 100645Z AUTO 00000KT 4SM BR CLR 24/23 A2996 RMK AO2 T02390231

2010/08/10 06:48
KCRQ 100648Z 00000KT 10SM BKN011 18/14 A2991 RMK AO2

2010/08/10 06:48
KHTS 100648Z AUTO 11003KT 3SM BR CLR 22/21 A2998 RMK AO2 TSNO

2010/08/10 06:48
KHYA 100648Z AUTO 01007KT 8SM VCTS -RA SCT010 BKN019 BKN060 22/20 A2992 RMK AO2 LTG DSNT W AND NW TSB48RAB32 P0000

2010/08/10 06:48
KOPF 100648Z AUTO 16009KT 10SM SCT020 SCT025 BKN070 26/24 A2988 RMK AO2 RAB0557E30 P0000

2010/08/10 06:48
KPDT 100648Z AUTO 30008KT 10SM CLR 17/06 A2987 RMK AO2 WSHFT 0628

2010/08/10 06:50
ETNG 100650Z 24004KT CAVOK 18/13 Q1015 NOSIG

2010/08/10 06:47
KCQT 100647Z AUTO 00000KT 8SM BKN007 18/14 A2991 RMK AO2 SLP124 T01780139 TSNO $

2010/08/10 06:45
KMWS 100645Z 12006G10KT 16/M01 RMK SNOW DEPTH M

2010/08/10 06:48
KJDN 100648Z AUTO 04005KT 18/16 A2981 RMK AO2 SLP078 T01780161 403390122 PWINO TSNO $

2010/08/10 06:46
KFWA 100646Z 00000KT 1/4SM FG CLR 22/22 A2997 RMK AO2 R23/3000FT

2010/08/10 06:47
KAPN 100647Z AUTO 00000KT 3/4SM BR VV001 19/18 A2995 RMK AO2 $

2010/08/10 06:45
KGNC 100645Z AUTO 00000KT 10SM CLR 21/19 A3005 RMK AO2 T02060191

2010/08/10 06:45
KGWB 100645Z AUTO 00000KT 1/2SM FG BKN001 BKN039 22/21 A2998 RMK AO2

2010/08/10 06:45
KHHF 100645Z AUTO 21006KT 10SM SCT110 25/19 A2997 RMK AO2 T02490194

2010/08/10 06:45
KINJ 100645Z AUTO 17003KT 10SM CLR 28/21 A2993 RMK AO2 T02770206

2010/08/10 06:45
KJAS 100645Z AUTO 00000KT 10SM CLR 27/25 A2995 RMK AO2 T02680250

2010/08/10 06:45
KJSO 100645Z AUTO 20003KT 10SM CLR 28/24 A2996 RMK AO2 T02750236

2010/08/10 06:45
KLBR 100645Z AUTO 00000KT 10SM CLR 25/22 A2991 RMK AO2 T02470219

2010/08/10 06:55
KOLV 100655Z AUTO 00000KT 7SM CLR 25/25 A2995 RMK A01 P000

2010/08/10 06:45
KOXI 100645Z AUTO 00000KT 1 3/4SM BKN027 OVC035 22/21 A2995 RMK AO1 VIS 3/4V5 T02210209

2010/08/10 06:45
KRPJ 100645Z AUTO 00000KT 7SM CLR 24/23 A2996 RMK AO2 LTG DSNT SE AND S T02380226

2010/08/10 06:45
K1H2 100645Z AUTO 00000KT 7SM SCT120 25/24 A2996 RMK AO2 LTG DSNT N T02540242

2010/08/10 06:45
K3LF 100645Z AUTO 00000KT 10SM BKN120 26/23 A2995 RMK AO2 LTG DSNT N

2010/08/10 06:45
K3T5 100645Z AUTO 00000KT 10SM CLR 27/25 A2993 RMK AO2 T02680246

2010/08/10 06:45
KAJG 100645Z AUTO 00000KT 3SM BR CLR 23/23 A2996 RMK AO2 T02300226

2010/08/10 06:45
KALN 100645Z AUTO 00000KT 7SM SCT120 27/26 A2995 RMK AO2 T02650256

2010/08/10 06:45
KAQO 100645Z AUTO 19007KT CLR 28/22 A2998 RMK AO2 PWINO

2010/08/10 06:45
KARM 100645Z AUTO 00000KT 10SM CLR 27/24 A2993 RMK AO2 T02650241

2010/08/10 06:47
KASW 100647Z AUTO 00000KT 1/4SM FG OVC004 23/23 A2998 RMK AO2 T02320229

2010/08/10 06:45
KBBD 100645Z AUTO 15007KT 10SM CLR 28/19 A2998 RMK

2010/08/10 06:45
KBKS 100645Z AUTO 00000KT 10SM SCT020 SCT031 28/26 A2992 RMK AO1 T02760258

2010/08/10 06:47
KBPC 100647Z AUTO 19006KT 10SM CLR 24/16 A2998 RMK AO2

2010/08/10 06:45
KBYY 100645Z AUTO 00000KT 10SM CLR 26/26 A2992 RMK AO2 T02630259

2010/08/10 06:45
KC75 100645Z AUTO 12003KT 10SM CLR 25/25 A2995 RMK AO2 LTG DSNT NE THRU SE T02520246

2010/08/10 06:45
KCPT 100645Z AUTO 16005KT 10SM CLR 28/22 A2995 RMK AO2

2010/08/10 06:45
KCVB 100645Z AUTO 15003KT 10SM CLR 27/23 A2997 RMK AO2 T02700230

2010/08/10 06:45
KCWC 100645Z AUTO 17008KT 10SM CLR 29/20 A2992 RMK AO2 T02920195

2010/08/10 06:45
KDKB 100645Z AUTO 00000KT 7SM CLR 24/21 A2996 RMK AO2 LTG DSNT SE AND S T02350207

2010/08/10 06:45
KDKR 100645Z AUTO 00000KT 10SM CLR 27/27 A2996 RMK AO2

2010/08/10 06:45
KDNV 100645Z AUTO 00000KT 7SM BKN110 26/24 A2992 RMK AO2 T02570235

2010/08/10 06:45
KDZB 100645Z AUTO 17006KT 7SM CLR 27/22 A2995 RMK AO2 T02720222

2010/08/10 06:45
KERV 100645Z AUTO 15006KT 10SM CLR 26/22 A3001 RMK AO2 T02610217

2010/08/10 06:45
KAXH 100645Z AUTO 00000KT 10SM CLR 25/24 A2993 RMK AO2 T02490236

2010/08/10 06:47
KDUX 100647Z AUTO 20007KT 10SM CLR 23/17 A3004 RMK AO2 T02250172

2010/08/10 06:49
KEBG 100649Z AUTO 00000KT 10SM SCT013 BKN020 BKN027 28/26 A2992 RMK AO2 T02780255

2010/08/10 06:45
KECU 100645Z AUTO 14013KT 10SM CLR 27/22 A3008 RMK AO2

2010/08/10 06:45
KENL 100645Z AUTO 00000KT 7SM CLR 25/23 A2996 RMK AO2 T02450231

2010/08/10 06:48
KENW 100648Z AUTO 00000KT 1 1/4SM BR CLR 21/20 A2996 RMK AO2 SLP138 T02060200

2010/08/10 06:45
KFEP 100645Z AUTO 03003KT 2 1/2SM BR CLR 24/22 A2997 RMK AO2 LTG DSNT SE T02360216

2010/08/10 06:45
KFOA 100645Z AUTO 00000KT 7SM CLR 27/26 A2996 RMK AO2 T02690262

2010/08/10 06:45
KFWC 100645Z AUTO 00000KT 7SM CLR 25/23 A2996 RMK AO2

2010/08/10 06:45
KGBG 100645Z AUTO 14003KT 5SM BR CLR 25/24 A2991 RMK AO2 LTG DSNT E

2010/08/10 06:45
KGOP 100645Z AUTO 18006KT 10SM CLR 28/21 A2996 RMK AO2

2010/08/10 06:45
KHSB 100645Z AUTO 00000KT 5SM BR CLR 24/22 A2995 RMK AO2

2010/08/10 06:45
KIGQ 100645Z AUTO 00000KT 10SM CLR 25/22 A2995 RMK AO2 LTG DSNT SW

2010/08/10 06:45
KIJX 100645Z AUTO 12007KT 10SM CLR 26/22 A2995 RMK AO2 LTG DSNT NE T02550218

2010/08/10 06:45
KIKK 100645Z AUTO 00000KT 10SM VCTS SCT080 28/23 A2995 RMK AO2 LTG DSNT SW THRU NW

2010/08/10 06:45
KJDD 100645Z AUTO 00000KT 10SM CLR 25/23 A2993 RMK AO2

2010/08/10 06:45
KJXI 100645Z AUTO 00000KT 10SM CLR 28/23 A2993 RMK AO2

2010/08/10 06:45
KLNC 100645Z AUTO 21003KT 10SM CLR 28/22 A2991 RMK AO2 T02760215

2010/08/10 06:45
KLOT 100645Z AUTO 10SM CLR 25/23 RMK AO2 LTG DSNT S AND SW T02480231 PWINO PNO

2010/08/10 06:45
KLUD 100645Z AUTO 18008KT 10SM CLR 30/18 A2993 RMK AO2 T02970184

2010/08/10 06:47
KM30 100647Z AUTO 00000KT 4SM BR CLR 25/23 A2994 RMK AO2

2010/08/10 06:45
KMDD 100645Z AUTO 14005KT 10SM CLR 22/20 A3002 RMK AO2 T02220196

2010/08/10 06:45
KPEQ 100645Z AUTO 13008KT 10SM CLR 26/18 A2997 RMK AO2 T02550176

2010/08/10 06:45
KPEZ 100645Z AUTO 00000KT 10SM CLR 26/23 A2996 RMK AO2 T02590229

2010/08/10 06:49
KPKV 100649Z AUTO 00000KT 10SM SCT021 SCT026 26/24 A2992 RMK AO2 T02640240

2010/08/10 06:45
KRSV 100645Z AUTO 00000KT 4SM BR CLR 24/23 A2996 RMK AO2 T02390231

2010/08/10 06:47
KCQT 100647Z AUTO 00000KT 8SM BKN007 18/14 A2991 RMK AO2 SLP124 T01780139 TSNO $

2010/08/10 06:47
KPSN 100647Z AUTO 00000KT 28/24 A2995 RMK AO2 PWINO

2010/08/10 06:45
KCUL 100645Z AUTO 00000KT 7SM CLR 23/21 A2994 RMK AO2 T02320212

2010/08/10 06:45
KMWS 100645Z 12006G10KT 16/M01 RMK SNOW DEPTH M

2010/08/10 06:48
KJDN 100648Z AUTO 04005KT 18/16 A2981 RMK AO2 SLP078 T01780161 403390122 PWINO TSNO $

2010/08/10 06:46
KFWA 100646Z 00000KT 1/4SM FG CLR 22/22 A2997 RMK AO2 R23/3000FT

2010/08/10 06:47
KSYR 100647Z 00000KT 2SM BR BKN020 OVC055 21/21 A2995 RMK AO2

2010/08/10 06:46
KDSM 100646Z COR VRB06G17KT 3/4SM R31/2800VP6000FT +TSRA BR BKN006 BKN019CB OVC060 23/22 A2998 RMK AO2 PK WND 03027/0623 RAB15 CONS LTGCGIC ALQDS TS ALQDS STNRY P0077

2010/08/10 06:47
KAPN 100647Z AUTO 00000KT 3/4SM BR VV001 19/18 A2995 RMK AO2 $

2010/08/10 06:48
KCRQ 100648Z 00000KT 10SM BKN011 18/14 A2991 RMK AO2

2010/08/10 06:48
KHTS 100648Z AUTO 11003KT 3SM BR CLR 22/21 A2998 RMK AO2 TSNO

2010/08/10 06:47
KGLR 100647Z AUTO 30005KT 3SM BR OVC003 21/21 A2999 RMK AO2 CIG 001V006

2010/08/10 06:47
KENW 100647Z AUTO 00000KT 1SM BR CLR 21/21 A2996 RMK AO2

2010/08/10 06:48
KHYA 100648Z AUTO 01007KT 8SM VCTS -RA SCT010 BKN019 BKN060 22/20 A2992 RMK AO2 LTG DSNT W AND NW TSB48RAB32 P0000

2010/08/10 06:48
KOPF 100648Z AUTO 16009KT 10SM SCT020 SCT025 BKN070 26/24 A2988 RMK AO2 RAB0557E30 P0000

2010/08/10 06:48
KPDT 100648Z AUTO 30008KT 10SM CLR 17/06 A2987 RMK AO2 WSHFT 0628

2010/08/10 06:49
HLLB 100649Z 31015KT 9999 BKN020 27/19 Q1012

2010/08/10 06:47
CYZX 100647Z 36004KT 2SM -SHRA BR SCT002 OVC010 RMK SF4SF4 WNDY HILL 00000KT LTNG DIST W

2010/08/10 06:47
KSYR 100647Z 00000KT 2SM BR BKN020 OVC055 21/21 A2995

2010/08/10 06:47
LBGO 100647Z 27004MPS 230V320 CAVOK 24/18 Q1015 NOSIG

2010/08/10 06:47
KAPN 100647Z AUTO 00000KT 3/4SM BR VV001 19/18 A2995

2010/08/10 06:46
KDSM 100646Z COR VRB06G17KT 3/4SM R31/2800VP6000FT +TSRA BR BKN006 BKN019CB OVC060 23/22 A2998

2010/08/10 06:48
KIGM 100648Z AUTO 00000KT 10SM CLR 24/02 A2998 RMK AO2 SLP076 T02390017 403500128 TSNO $ 

2010/08/10 06:47
KSYR 100647Z 00000KT 2SM BR BKN020 OVC055 21/21 A2995

2010/08/10 06:50
EEKE 100650Z 21012KT 9999 FEW007 BKN026CB 19/19 Q1014

2010/08/10 06:47
KAPN 100647Z AUTO 00000KT 3/4SM BR VV001 19/18 A2995

2010/08/10 06:46
KDSM 100646Z COR VRB06G17KT 3/4SM R31/2800VP6000FT +TSRA BR BKN006 BKN019CB OVC060 23/22 A2998

2010/08/10 06:47
KAPN 100647Z AUTO 00000KT 3/4SM BR VV001 19/18 A2995

2010/08/10 06:46
KDSM 100646Z COR VRB06G17KT 3/4SM R31/2800VP6000FT +TSRA BR BKN006 BKN019CB OVC060 23/22 A2998

2010/08/10 06:49
CYOY 100649Z AUTO 00000KT 1/8SM OVC001 OVC071 12/11 A2985

2010/08/10 06:47
KSYR 100647Z 00000KT 2SM BR BKN020 OVC055 21/21 A2995

2010/08/10 06:46
CWOB 100646Z AUTO ///// 1/8SM CLR 03/ A2977

2010/08/10 06:46
CYCX 100646Z AUTO 21004KT 1/2SM 16/16 A2981

2010/08/10 06:45
CYPQ 100645Z AUTO ///// 1/8SM BKN012 BKN040 18/18 A2993

2010/08/10 06:46
CYPQ 100646Z AUTO ///// 1/8SM BKN000 BKN012 BKN040 18/18 A2993

2010/08/10 06:46
CYSJ 100646Z 20005KT 1/4SM R23/2600FT/N FG VV002 15/ RMK FG8

2010/08/10 06:48
CYUS 100648Z AUTO ///// 9SM CLR 11/ A2992

2010/08/10 06:47
CYZX 100647Z 36004KT 2SM -SHRA BR SCT002 OVC010 RMK SF4SF4 WNDY

2010/08/10 06:46
EHVL 100646Z AUTO 20012KT 9999NDV SCT012 SCT016 BKN020 18/15 Q1011 GRN

2010/08/10 06:49
ETHF 100649Z VRB01KT 8000 VCFG FEW004 15/13 Q1017 BLU/BLU/

2010/08/10 06:45
GCXO 100645Z 28005KT 250V310 0500 R30/P2000 R12/0275V0700D FG BKN000 BKN100 17/17 Q1017 NOSIG

2010/08/10 06:45
KMTC 100645Z AUTO 00000KT 1/2SM R19/0900V4500FT DZ FG CLR 21/21 A2994 RMK AO2 SLP141 $

2010/08/10 06:46
KMTC 100646Z AUTO 00000KT 3/4SM R19/0900V5000FT DZ BR CLR 21/21 A2994 RMK AO2 SLP141 $

2010/08/10 06:48
KMTC 100648Z AUTO 00000KT 1SM R19/1000VP6000FT DZ BR CLR 21/21 A2994 RMK AO2 SLP142 $

2010/08/10 06:49
KMTC 100649Z AUTO 00000KT 1 1/4SM R19/1000VP6000FT DZ BR CLR 21/21 A2994 RMK AO2 VIS 1/2V5 SLP142 $

2010/08/10 06:45
KNBG 100645Z AUTO 00000KT 1 3/4SM BR CLR A2992 RMK AO2 PWINO FZRANO $

2010/08/10 07:00
MPTO 100700Z 00000KT 9999 SCT018CB 27/25 Q1011 NOSIG

2010/08/10 06:50
OAKB 100650Z 17003KT 9999 FEW090 BKN140 28/12 Q1014 NOSIG RMK BLU BLU

2010/08/10 06:50
NSTU 100650Z 13013KT 10SM SCT016 27/25 A2995 RMK SLP144 T02730254

2010/08/10 06:49
KART 100649Z AUTO 19004KT 5SM BR BKN013 21/19 A2993 RMK AO2

2010/08/10 06:49
KBMG 100649Z 00000KT 3/4SM BR CLR 22/21 A2996 RMK AO2

2010/08/10 06:49
KBRD 100649Z AUTO 00000KT 1 1/2SM BR CLR 21/19 A2996 RMK AO2

2010/08/10 06:46
KFWA 100646Z 00000KT 1/4SM FG CLR 22/22 A2997 RMK AO2 R23/3000FT

2010/08/10 06:49
KGRB 100649Z AUTO 00000KT 3/4SM BR CLR 22/21 A2996 RMK AO2 TSNO RVRNO

2010/08/10 06:49
KGSH 100649Z AUTO 00000KT 1/2SM FG BKN046 21/21 A2997 RMK AO2

2010/08/10 06:49
KPMP 100649Z AUTO 14015G19KT 10SM SCT018 BKN024 OVC040 27/24 A2989 RMK AO2 RAE07 P0000

2010/08/10 06:49
KYIP 100649Z 00000KT 3/4SM BR VV001 21/20 A2996 RMK AO2 RVRNO

2010/08/10 06:46
KGLE 100646Z AUTO 00000KT 10SM CLR 28/19 A2994 RMK AO2

2010/08/10 06:45
KRAS 100645Z AUTO 17005KT 10SM FEW019 30/27 A2995 RMK AO2

2010/08/10 06:45
KRBO 100645Z AUTO 00000KT 10SM CLR 28/26 A2993 RMK AO2 T02770260

2010/08/10 06:45
KRPH 100645Z AUTO 15006KT 10SM CLR 29/17 A2991 RMK AO2 T02870170

2010/08/10 06:45
KRYW 100645Z AUTO 19005KT M1/4SM HZ VV000 27/22 A2998 RMK AO2

2010/08/10 06:45
KSAR 100645Z AUTO 00000KT 7SM CLR 27/25 A2996 RMK AO2

2010/08/10 06:46
KSNK 100646Z AUTO 02009KT 10SM SCT120 24/21 A3000 RMK AO2 T02360213

2010/08/10 06:45
KSWW 100645Z AUTO 14005KT 10SM CLR 23/21 A3000 RMK AO1 T02330208

2010/08/10 06:45
KT65 100645Z AUTO 19005KT 7SM SCT015 SCT020 28/26 A2991 RMK AO2 LTG DSNT W T02830263

2010/08/10 06:45
KT82 100645Z AUTO 19005KT 10SM CLR 26/21 A3001 RMK AO1 T02550210

2010/08/10 06:45
KTAZ 100645Z AUTO 32003G14KT 10SM SCT110 27/25 A2995 RMK AO2 LTG DSNT NE

2010/08/10 06:45
KTIP 100645Z AUTO 22005KT 10SM VCTS BKN110 27/25 A2996 RMK AO2 LTG DSNT W THRU N T02680252

2010/08/10 06:45
KTYQ 100645Z AUTO 00000KT 5SM BR CLR 23/22 A2997 RMK AO2 LTG DSNT NW

2010/08/10 06:45
KUVA 100645Z AUTO 13010KT 10SM CLR 28/23 A2996 RMK AO2 T02760231

2010/08/10 06:46
KXBP 100646Z AUTO 19008KT 10SM CLR 29/19 A2993 RMK AO2 T02930188

2010/08/10 06:50
EYPA 100650Z 28005KT 9999 SCT023 19/14 Q1017 NOSIG

2010/08/10 06:50
EETN 100650Z 22010KT 9999 BKN015 20/17 Q1013 NOSIG

2010/08/10 07:00
LQMO 100700Z VRB01KT CAVOK 27/13 Q1013

2010/08/10 06:50
EYKA 100650Z 16003KT 130V190 CAVOK 20/19 Q1017

2010/08/10 06:50
PTRO 100650Z 17007KT 15SM FEW010 SCT016TCU BKN120 BKN300 29/25 A2986 RMK TCU VC ALQDS 

2010/08/10 06:47
CYZX 100647Z 36004KT 2SM -SHRA BR SCT002 OVC010 RMK SF4SF4 WNDY

2010/08/10 06:50
EYVI 100650Z VRB02KT 4000 BR BKN140 18/18 Q1017 NOSIG

2010/08/10 06:48
KCRQ 100648Z 00000KT 10SM BKN011 18/14 A2991

2010/08/10 06:48
KHTS 100648Z AUTO 11003KT 3SM BR CLR 22/21 A2998

2010/08/10 06:46
EHVL 100646Z AUTO 20012KT 9999NDV SCT012 SCT016 BKN020 18/15 Q1011 GRN

2010/08/10 06:48
KOPF 100648Z AUTO 16009KT 10SM SCT020 SCT025 BKN070 26/24 A2988

2010/08/10 06:45
K1H2 100645Z AUTO 00000KT 7SM SCT120 25/24 A2996

2010/08/10 06:45
KC75 100645Z AUTO 12003KT 10SM CLR 25/25 A2995

2010/08/10 06:45
KDKB 100645Z AUTO 00000KT 7SM CLR 24/21 A2996

2010/08/10 06:45
KDNV 100645Z AUTO 00000KT 7SM BKN110 26/24 A2992

2010/08/10 06:45
KENL 100645Z AUTO 00000KT 7SM CLR 25/23 A2996

2010/08/10 06:45
KFEP 100645Z AUTO 03003KT 2 1/2SM BR CLR 24/22 A2997

2010/08/10 06:45
KFOA 100645Z AUTO 00000KT 7SM CLR 27/26 A2996

2010/08/10 06:45
KFWC 100645Z AUTO 00000KT 7SM CLR 25/23 A2996

2010/08/10 06:45
KGBG 100645Z AUTO 14003KT 5SM BR CLR 25/24 A2991

2010/08/10 06:45
KHSB 100645Z AUTO 00000KT 5SM BR CLR 24/22 A2995

2010/08/10 06:45
KIGQ 100645Z AUTO 00000KT 10SM CLR 25/22 A2995

2010/08/10 06:45
KIJX 100645Z AUTO 12007KT 10SM CLR 26/22 A2995

2010/08/10 06:45
KIKK 100645Z AUTO 00000KT 10SM VCTS SCT080 28/23 A2995

2010/08/10 06:45
KLOT 100645Z AUTO 10SM CLR 25/23

2010/08/10 06:45
KPNT 100645Z AUTO 22005KT 10SM -TSRA 27/24 A2998

2010/08/10 06:45
KBYY 100645Z AUTO 00000KT 10SM CLR 26/26 A2992

2010/08/10 06:48
KPDT 100648Z AUTO 30008KT 10SM CLR 17/06 A2987

2010/08/10 06:48
KHTS 100648Z AUTO 11003KT 3SM BR CLR 22/21 A2998

2010/08/10 06:48
KHYA 100648Z AUTO 01007KT 8SM VCTS -RA SCT010 BKN019 BKN060 22/20 A2992

2010/08/10 06:45
KLNC 100645Z AUTO 21003KT 10SM CLR 28/22 A2991

2010/08/10 06:48
KIGM 100648Z AUTO 00000KT 10SM CLR 24/02 A2998

2010/08/10 06:48
KJDN 100648Z AUTO 04005KT 18/16 A2981

2010/08/10 06:45
KMWS 100645Z 12006G10KT 16/M01

2010/08/10 06:50
CYCX 100650Z AUTO 22004KT 1 1/2SM 16/16 A2981 RMK VSBY VRBL 0.9V3.5

2010/08/10 06:49
HLLB 100649Z 31015KT 9999 BKN020 27/19 Q1012

2010/08/10 06:50
EYPA 100650Z 28005KT 9999 SCT023 19/14 Q1017 NOSIG

2010/08/10 07:00
LQMO 100700Z VRB01KT CAVOK 27/13 Q1013

2010/08/10 06:50
EETU 100650Z AUTO 20011KT 9999NDV FEW020/// 20/16 Q1015

2010/08/10 06:50
EYKA 100650Z 16003KT 130V190 CAVOK 20/19 Q1017

2010/08/10 06:49
HLLB 100649Z 31015KT 9999 BKN020 27/19 Q1012

2010/08/10 06:45
LMML 100645Z VRB02KT CAVOK 27/11 Q1015 NOSIG 

2010/08/10 06:49
HLLB 100649Z 31015KT 9999 BKN020 27/19 Q1012

2010/08/10 06:45
LMML 100645Z VRB02KT CAVOK 27/11 Q1015 NOSIG 

2010/08/10 06:50
LLBG 100650Z VRB02KT 9999 SCT029 30/22 Q1007 NOSIG

2010/08/10 06:50
LLOV 100650Z 35003KT CAVOK 29/18 Q1009

2010/08/10 06:50
LLET 100650Z 03014KT CAVOK 32/19 Q1005

2010/08/10 06:50
LLHA 100650Z 27004KT 9999 SCT025 29/21 Q1007

2010/08/10 06:50
LLIB 100650Z 16003KT 9999 FEW025 29/19 Q1008

2010/08/10 06:50
LLSD 100650Z 23007KT 9999 SCT020 29/22 Q1007

2010/08/10 06:50
EETN 100650Z 22010KT 9999 BKN015 20/17 Q1013 NOSIG

2010/08/10 06:48
KCRQ 100648Z 00000KT 10SM BKN011 18/14 A2991

2010/08/10 06:45
KALN 100645Z AUTO 00000KT 7SM SCT120 27/26 A2995

2010/08/10 06:45
KIKK 100645Z AUTO 00000KT 10SM VCTS SCT080 28/23 A2995

2010/08/10 06:48
KHTS 100648Z AUTO 11003KT 3SM BR CLR 22/21 A2998

2010/08/10 06:45
KNBG 100645Z AUTO 00000KT 1 3/4SM BR CLR A2992 RMK AO2 PWINO FZRANO $

2010/08/10 06:47
KSYR 100647Z 00000KT 2SM BR BKN020 OVC055 21/21 A2995 RMK AO2

2010/08/10 06:51
CYHU 100651Z AUTO 17002KT 5SM HZ FEW004 17/ A2988 RMK SLP119 DENSITY ALT 300FT TD MISG RVR MISG

2010/08/10 06:48
KEHA 100648Z AUTO 23005KT 22/17 RMK AO1 PK WND 07 000 T02220167

2010/08/10 06:49
PAIG 100649Z AUTO 00000KT 2 1/2SM BR FEW013 BKN019 OVC028 11/11 A2965 RMK AO2 PWINO TSNO P0001 $

2010/08/10 06:50
KGLD 100650Z AUTO 34009KT 4SM TSRA BR BKN022 BKN100 19/18 A3001 RMK AO2 LTG DSNT NE AND NW TSB17RAB13 PRESFR P0004 403440189

2010/08/10 06:50
PAWR 100650Z 08012G21KT 1SM -RA BR VV006 12/12 A2986 RMK SLP112 NOSPECI

2010/08/10 06:50
PAHZ 100650Z 00000KT 15SM BKN005 BKN050 11/10 A2971 RMK LAST NOSPECI

2010/08/10 06:56
KMNZ 100656Z AUTO 18006KT 10SM CLR 27/19 A2995 RMK AO2

2010/08/10 06:45
KMWA 100645Z AUTO 00000KT 7SM CLR 28/25 A2997 RMK AO2 T02750251

2010/08/10 06:48
KPPQ 100648Z AUTO 20003KT 5SM BR SCT100 28/26 A2993 RMK AO2

2010/08/10 06:50
PGWT 100650Z 09005KT 7SM SCT016 BKN100 BKN160 29/25 A2990 RMK WIND DATA ESTIMATED

2010/08/10 06:48
KIGM 100648Z AUTO 00000KT 10SM CLR 24/02 A2998 RMK AO2 SLP076 T02390017 403500128 TSNO $

2010/08/10 06:48
KEHA 100648Z AUTO 23005KT 22/17 RMK AO1 PK WND 07 000 T02220167

2010/08/10 06:50
EYSA 100650Z 30005KT 280V360 CAVOK 20/16 Q1017

2010/08/10 06:50
PGRO 100650Z 06009KT 7SM FEW020 FEW150 28/25 A2990

2010/08/10 06:50
PTRO 100650Z 17007KT 15SM FEW010 SCT016TCU BKN120 BKN300 29/25 A2986 RMK TCU VC ALQDS

2010/08/10 06:50
PGWT 100650Z 09005KT 7SM SCT016 BKN100 BKN160 29/25 A2990 RMK WIND DATA ESTIMATED

2010/08/10 06:46
KFWA 100646Z 00000KT 1/4SM FG CLR 22/22 A2997 RMK AO2 R23/3000FT

2010/08/10 06:49
KART 100649Z AUTO 19004KT 5SM BR BKN013 21/19 A2993 RMK AO2

2010/08/10 06:49
KBMG 100649Z 00000KT 3/4SM BR CLR 22/21 A2996 RMK AO2

2010/08/10 06:49
KBRD 100649Z AUTO 00000KT 1 1/2SM BR CLR 21/19 A2996 RMK AO2

2010/08/10 06:49
KGRB 100649Z AUTO 00000KT 3/4SM BR CLR 22/21 A2996 RMK AO2 TSNO RVRNO

2010/08/10 06:49
KGSH 100649Z AUTO 00000KT 1/2SM FG BKN046 21/21 A2997 RMK AO2

2010/08/10 06:49
KPMP 100649Z AUTO 14015G19KT 10SM SCT018 BKN024 OVC040 27/24 A2989 RMK AO2 RAE07 P0000

2010/08/10 06:49
KYIP 100649Z 00000KT 3/4SM BR VV001 21/20 A2996 RMK AO2 RVRNO

2010/08/10 06:49
PAIG 100649Z AUTO 00000KT 2 1/2SM BR FEW013 BKN019 OVC028 11/11 A2965 RMK AO2 PWINO TSNO P0001 $

2010/08/10 06:50
KGLD 100650Z AUTO 34009KT 4SM TSRA BR BKN022 BKN100 19/18 A3001 RMK AO2 LTG DSNT NE AND NW TSB17RAB13 PRESFR P0004 403440189

2010/08/10 06:48
KIGM 100648Z AUTO 00000KT 10SM CLR 24/02 A2998 RMK AO2 SLP076 T02390017 403500128 TSNO $

2010/08/10 06:48
KEHA 100648Z AUTO 23005KT 22/17 RMK AO1 PK WND 07 000 T02220167

2010/08/10 06:46
KGLE 100646Z AUTO 00000KT 10SM CLR 28/19 A2994 RMK AO2

2010/08/10 06:45
KRAS 100645Z AUTO 17005KT 10SM FEW019 30/27 A2995 RMK AO2

2010/08/10 06:45
KRBO 100645Z AUTO 00000KT 10SM CLR 28/26 A2993 RMK AO2 T02770260

2010/08/10 06:45
KRPH 100645Z AUTO 15006KT 10SM CLR 29/17 A2991 RMK AO2 T02870170

2010/08/10 06:45
KRYW 100645Z AUTO 19005KT M1/4SM HZ VV000 27/22 A2998 RMK AO2

2010/08/10 06:45
KSAR 100645Z AUTO 00000KT 7SM CLR 27/25 A2996 RMK AO2

2010/08/10 06:46
KSNK 100646Z AUTO 02009KT 10SM SCT120 24/21 A3000 RMK AO2 T02360213

2010/08/10 06:45
KSWW 100645Z AUTO 14005KT 10SM CLR 23/21 A3000 RMK AO1 T02330208

2010/08/10 06:45
KT65 100645Z AUTO 19005KT 7SM SCT015 SCT020 28/26 A2991 RMK AO2 LTG DSNT W T02830263

2010/08/10 06:45
KT82 100645Z AUTO 19005KT 10SM CLR 26/21 A3001 RMK AO1 T02550210

2010/08/10 06:45
KTAZ 100645Z AUTO 32003G14KT 10SM SCT110 27/25 A2995 RMK AO2 LTG DSNT NE

2010/08/10 06:45
KTIP 100645Z AUTO 22005KT 10SM VCTS BKN110 27/25 A2996 RMK AO2 LTG DSNT W THRU N T02680252

2010/08/10 06:45
KTYQ 100645Z AUTO 00000KT 5SM BR CLR 23/22 A2997 RMK AO2 LTG DSNT NW

2010/08/10 06:45
KUVA 100645Z AUTO 13010KT 10SM CLR 28/23 A2996 RMK AO2 T02760231

2010/08/10 06:46
KXBP 100646Z AUTO 19008KT 10SM CLR 29/19 A2993 RMK AO2 T02930188

2010/08/10 06:50
PAWR 100650Z 08012G21KT 1SM -RA BR VV006 12/12 A2986 RMK SLP112 NOSPECI

2010/08/10 06:50
PAHZ 100650Z 00000KT 15SM BKN005 BKN050 11/10 A2971 RMK LAST NOSPECI

2010/08/10 06:56
KMNZ 100656Z AUTO 18006KT 10SM CLR 27/19 A2995 RMK AO2

2010/08/10 06:45
KMWA 100645Z AUTO 00000KT 7SM CLR 28/25 A2997 RMK AO2 T02750251

2010/08/10 06:48
KPPQ 100648Z AUTO 20003KT 5SM BR SCT100 28/26 A2993 RMK AO2

2010/08/10 06:45
KMTC 100645Z AUTO 00000KT 1/2SM R19/0900V4500FT DZ FG CLR 21/21 A2994 RMK AO2 SLP141 $

2010/08/10 06:46
KMTC 100646Z AUTO 00000KT 3/4SM R19/0900V5000FT DZ BR CLR 21/21 A2994 RMK AO2 SLP141 $

2010/08/10 06:48
KMTC 100648Z AUTO 00000KT 1SM R19/1000VP6000FT DZ BR CLR 21/21 A2994 RMK AO2 SLP142 $

2010/08/10 06:49
KMTC 100649Z AUTO 00000KT 1 1/4SM R19/1000VP6000FT DZ BR CLR 21/21 A2994 RMK AO2 VIS 1/2V5 SLP142 $

2010/08/10 06:45
KNBG 100645Z AUTO 00000KT 1 3/4SM BR CLR A2992 RMK AO2 PWINO FZRANO $

2010/08/10 06:50
LKPO 100650Z VRB01KT 6000 FEW004 17/15 Q1019 RMK WHT

2010/08/10 07:00
SBSJ 100700Z 00000KT 4000 BR BKN006 13/12 Q1024

2010/08/10 06:50
LLBG 100650Z VRB02KT 9999 SCT029 30/22 Q1007 NOSIG

2010/08/10 06:50
LLET 100650Z 03014KT CAVOK 32/19 Q1005

2010/08/10 06:50
LLOV 100650Z 35003KT CAVOK 29/18 Q1009

2010/08/10 06:50
OAKB 100650Z 17003KT 9999 FEW090 BKN140 28/12 Q1014 NOSIG RMK BLU BLU

2010/08/10 06:50
YSWG 100650Z 36008KT 8000 VCSH BKN060 12/09 Q1008

2010/08/10 06:45
LMML 100645Z VRB02KT CAVOK 27/11 Q1015 NOSIG

2010/08/10 06:49
KART 100649Z AUTO 19004KT 5SM BR BKN013 21/19 A2993

2010/08/10 06:49
KGRB 100649Z AUTO 00000KT 3/4SM BR CLR 22/21 A2996

2010/08/10 06:49
KART 100649Z AUTO 19004KT 5SM BR BKN013 21/19 A2993

2010/08/10 06:50
EYSA 100650Z 30005KT 280V360 CAVOK 20/16 Q1017

2010/08/10 07:00
OKBK 100700Z 03005KT 7000 NSC 41/20 Q1000 NOSIG

2010/08/10 06:50
EYVI 100650Z VRB02KT 4000 BR BKN140 18/18 Q1017 NOSIG

2010/08/10 06:49
KGRB 100649Z AUTO 00000KT 3/4SM BR CLR 22/21 A2996

2010/08/10 06:49
KYIP 100649Z 00000KT 3/4SM BR VV001 21/20 A2996

2010/08/10 06:51
KSAN 100651Z 27004KT 10SM OVC015 18/14 A2993 RMK AO2 SLP135 T01780144 

2010/08/10 07:00
ZMUB 100700Z 26004MPS 220V310 9999 FEW030CB SCT033 26/03 Q1005 NOSIG RMK QFE647.5 23

2010/08/10 06:50
KQEI 100650Z AUTO 14001KT 7SM FEW015 SCT065 BKN100 27/23 A2994 RMK A02

2010/08/10 06:50
KQEJ 100650Z AUTO 00002KT 7SM SCT085 BKN110 27/23 A2992 RMK A02

2010/08/10 06:50
KQEN 100650Z AUTO 10001KT 7SM BKN010 24/21 A3043 RMK A02

2010/08/10 06:50
KQEP 100650Z AUTO 10003KT 7SM FEW019 29/23 A2981 RMK A02

2010/08/10 06:50
KQEQ 100650Z AUTO 01006KT 7SM FEW017 BKN085 29/24 A2975 RMK A02

2010/08/10 06:50
KQER 100650Z AUTO 00000KT 7SM SCT010 BKN021 26/22 A2987 RMK A02

2010/08/10 06:50
KQES 100650Z AUTO 27003KT 1SM +SHRA BR OVC030 25/24 A2979 RMK A02

2010/08/10 06:50
KQEW 100650Z AUTO 32002KT 7SM -RA SCT004 BKN025 25/24 A2982 RMK A02

2010/08/10 06:50
KQEY 100650Z AUTO 14003KT 7SM -SHRA BKN007 BKN032 BKN055 26/23 A2955 RMK A02

2010/08/10 06:55
KQFS 100655Z AUTO 08006G14KT 9999 FEW090 BKN100 BKN130 29/22 A2978 RMK AO2 SLP080 T02870222 PWINO PNO $

2010/08/10 07:00
KQEV 100700Z AUTO 12001KT 7SM -RA OVC010 26/24 A2975 RMK A02

2010/08/10 06:52
CYFC 100652Z AUTO 00000KT 3SM BR OVC003 17/17 A2981 RMK SLP097 DENSITY ALT 400FT RVR MISG

2010/08/10 06:49
CYQI 100649Z 18003KT 3/8SM +SHRA FG VV002 RMK FG8 RVR RWY 24 2400 FT

2010/08/10 06:51
KDAG 100651Z AUTO 25008KT 10SM CLR 25/00 A2987 RMK AO2 SLP087 T02500000 TSNO 

2010/08/10 06:51
KP59 100651Z AUTO 25005KT 21/19 A2994 RMK AO2 SLP130 T02060194 PWINO TSNO 

2010/08/10 06:51
KSMX 100651Z AUTO 00000KT 9SM OVC004 12/11 A2993 RMK AO2 SLP138 T01220111 TSNO 

2010/08/10 06:51
KSNT 100651Z AUTO 00000KT 09/08 A3013 RMK AO2 SLP130 P0002 T00940083 401720078 PWINO TSNO 

2010/08/10 06:51
KJCT 100651Z AUTO 16011G16KT 10SM CLR 28/21 A2999 RMK AO2 SLP112 T02830211 TSNO 

2010/08/10 06:51
KBVE 100651Z AUTO 00000KT CLR 26/25 A2991 RMK AO2 SLP128 T02610250 TSNO $ 

2010/08/10 06:51
KORF 100651Z 22006KT 10SM CLR 25/23 A2998 RMK AO2 SLP150 T02500233 $ 

2010/08/10 06:51
KATT 100651Z AUTO VRB03KT 10SM CLR 28/23 A2995 RMK AO2 SLP125 T02780233 

2010/08/10 06:51
KBAZ 100651Z AUTO 00000KT 10SM CLR 25/23 A2994 RMK AO2 SLP129 T02500233

2010/08/10 06:51
KBGD 100651Z AUTO 20009KT 10SM CLR 25/14 A3001 RMK AO2 SLP109 T02500144

2010/08/10 06:51
KEKN 100651Z AUTO 00000KT 4SM BR FEW003 17/17 A3007 RMK AO2 SLP171 T01720167 TSNO

2010/08/10 06:51
KELP 100651Z 14012KT 10SM FEW160 27/14 A3003 RMK AO2 SLP088 T02720139 403560211

2010/08/10 06:51
KHDO 100651Z AUTO 15007KT 10SM CLR 27/23 A2998 RMK AO2 SLP132 T02720233

2010/08/10 06:51
KPHX 100651Z 26007KT 10SM FEW120 34/10 A2980 RMK AO2 SLP070 T03390100 404000272 $

2010/08/10 06:51
KRDU 100651Z 23005KT 10SM FEW150 SCT250 24/22 A3002 RMK AO2 SLP160 T02440217

2010/08/10 06:51
KROW 100651Z AUTO 15004KT 10SM CLR 22/17 A3003 RMK AO2 SLP100 T02220172 403330200 TSNO

2010/08/10 06:47
K1F0 100647Z AUTO 00000KT 10SM CLR 28/21 A2991 RMK AO2

2010/08/10 06:58
K36U 100658Z AUTO 00000KT 10SM CLR 09/04 A3012 RMK AO2

2010/08/10 06:48
K4O4 100648Z AUTO 00000KT 10SM CLR 25/22 A2993 RMK AO2

2010/08/10 06:51
KACT 100651Z 20011KT 10SM CLR 29/22 A2992 RMK AO2 SLP123 T02940217 $

2010/08/10 06:50
KADM 100650Z AUTO 00000KT 10SM CLR 26/22 A2992 RMK AO2

2010/08/10 06:50
KAFK 100650Z AUTO 20006KT 10SM CLR 26/23 A2986 RMK AO2 T02640226

2010/08/10 06:51
KAHN 100651Z AUTO 00000KT 4SM BR CLR 23/22 A3002 RMK AO2 SLP158 T02280217

2010/08/10 06:51
KALB 100651Z 18004KT 2SM BR SCT023 BKN037 BKN065 21/21 A2993 RMK AO2 SFC VIS 2 1/2 SLP133 T02110206

2010/08/10 06:51
KASH 100651Z AUTO 00000KT 5SM BR CLR 23/22 A2991 RMK AO2 T02270222 RAE49 P0004 SLP129

2010/08/10 06:50
KAUH 100650Z AUTO 13006KT 5SM BR CLR 26/25 A2986 RMK AO2 T02560245

2010/08/10 06:51
KAVX 100651Z AUTO 16003KT 10SM CLR 14/12 A2994 RMK AO2 SLP126 T01390117 TSNO

2010/08/10 06:51
KBDL 100651Z 00000KT 5SM -RA BR FEW015 BKN055 OVC110 22/21 A2992 RMK AO2 SLP129 P0002 T02220211

2010/08/10 06:51
KBKW 100651Z AUTO 00000KT 6SM HZ CLR 20/17 A3011 RMK AO2 SLP155 T02000167 $

2010/08/10 06:50
KCHK 100650Z AUTO 14003KT 10SM BKN090 28/22 A2992 RMK AO2

2010/08/10 06:51
KCLE 100651Z 28004KT 9SM FEW060 SCT080 25/20 A2997 RMK AO2 SLP139 T02500200

2010/08/10 06:51
KCMH 100651Z 17003KT 10SM FEW130 24/20 A2996 RMK AO2 SLP137 T02440200

2010/08/10 06:50
KCQB 100650Z AUTO 19007KT 10SM 28/21 A2992 RMK AO2 TSNO

2010/08/10 06:51
KCSG 100651Z AUTO 08003KT 9SM CLR 27/19 A2997 RMK AO2 SLP142 T02670194 TSNO

2010/08/10 06:51
KDAW 100651Z AUTO 00000KT 10SM -RA SCT070 OVC110 21/19 A2988 RMK AO2 SLP113 P0001 T02110194

2010/08/10 06:50
KDUA 100650Z AUTO 00000KT 10SM CLR 28/21 A2992 RMK AO2

2010/08/10 06:51
KERI 100651Z 15005KT 6SM HZ BKN080 BKN110 23/20 A2993 RMK AO2 RAB0559E25 SLP130 P0000 T02330200

2010/08/10 06:51
KEWR 100651Z 23010KT 10SM BKN150 BKN250 27/18 A2991 RMK AO2 SLP129 T02670183 $

2010/08/10 06:52
KGLS 100652Z AUTO 23004KT 10SM CLR 29/25 A2992 RMK AO2 SLP131 T02890250

2010/08/10 06:55
KGLY 100655Z AUTO 00000KT 10SM CLR 28/26 A2992 RMK AO2

2010/08/10 06:52
KHRL 100652Z AUTO 16004KT 10SM SCT021 SCT029 27/27 A2991 RMK AO2 SLP127 T02720267

2010/08/10 06:51
KHTS 100651Z AUTO 11003KT 3SM BR CLR 22/21 A2998 RMK AO2 SLP143 T02170206 TSNO

2010/08/10 06:51
KILG 100651Z 18005KT 10SM CLR 24/22 A2994 RMK AO2 SLP136 T02440217

2010/08/10 06:48
KIZA 100648Z AUTO 00000KT 10SM CLR 12/10 A2992 RMK AO2

2010/08/10 06:51
KJFK 100651Z 22005KT 9SM SCT140 BKN250 24/19 A2993 RMK AO2 SLP133 T02390194

2010/08/10 06:51
KJSV 100651Z AUTO 00000KT 10SM CLR 26/23 A2992 RMK AO2

2010/08/10 06:49
KL35 100649Z AUTO 00000KT 10SM CLR 08/M02 A3017 RMK AO2

2010/08/10 06:51
KLGA 100651Z 22005KT 10SM BKN140 BKN250 27/18 A2991 RMK AO2 SLP129 T02720183

2010/08/10 06:51
KLGU 100651Z AUTO 17005KT 10SM CLR 19/07 A3003 RMK AO2 SLP115 T01890072 402830117

2010/08/10 06:50
KLRU 100650Z AUTO 29005KT 10SM CLR 23/09 A3008 RMK AO2

2010/08/10 06:55
KLZZ 100655Z AUTO 17004KT 10SM CLR 27/22 A2996 RMK AO2

2010/08/10 06:51
KMDW 100651Z 00000KT 10SM CLR 26/22 A2994 RMK AO2 SLP127 OCNL LTGIC DSNT SW CB DSNT SW T02610217 PNO

2010/08/10 06:51
KMPV 100651Z AUTO 00000KT 1/4SM FG VV001 18/18 A2998 RMK AO2 SLP146 T01830178

2010/08/10 06:51
KMYL 100651Z AUTO 17004KT 10SM CLR 11/10 A2999 RMK AO2 LTG DSNT N AND NW TSB11E31RAE32 SLP120 P0000 T01110100 402560078

2010/08/10 06:50
KONM 100650Z AUTO 33004KT 10SM SCT110 22/12 A3009 RMK AO2 T02220115 403400168

2010/08/10 06:51
KONP 100651Z AUTO 00000KT 7SM OVC017 13/11 A3005 RMK AO1

2010/08/10 06:51
KORD 100651Z 00000KT 10SM CLR 25/23 A2995 RMK AO2 SLP136 T02500228

2010/08/10 06:51
KOXR 100651Z AUTO 32004KT 10SM OVC008 16/13 A2990 RMK AO2 SLP123 T01560133

2010/08/10 06:55
KPAN 100655Z AUTO 00000KT 10SM CLR 18/09 A3015 RMK AO1

2010/08/10 06:51
KPIT 100651Z 00000KT 6SM HZ SCT100 22/18 A2998 RMK AO2 SLP148 T02170178

2010/08/10 06:51
KPVD 100651Z 00000KT 10SM BKN075 OVC150 23/19 A2993 RMK AO2 RAB12E45 SLP133 P0000 T02280194

2010/08/10 06:51
KPWM 100651Z AUTO 28006KT 10SM CLR 22/19 A2986 RMK AO2 SLP113 T02170189

2010/08/10 06:51
KSJT 100651Z AUTO 25003KT 10SM CLR 29/17 A2997 RMK AO2 SLP117 T02890172

2010/08/10 06:51
KSLK 100651Z AUTO 00000KT 2SM BR BKN012 OVC033 19/19 A2996 RMK AO2 SLP134 T01940189

2010/08/10 06:51
KSMO 100651Z AUTO 00000KT 10SM OVC006 16/14 A2991 RMK AO2 SLP128 T01610139

2010/08/10 06:51
KSTL 100651Z 20004KT 9SM FEW150 SCT250 30/24 A2994 RMK AO2 SLP123 T03000244

2010/08/10 06:51
KTEB 100651Z 19003KT 10SM CLR 26/17 A2991 RMK AO2 SLP128 T02610167

2010/08/10 06:51
KVNY 100651Z AUTO 00000KT 10SM CLR 18/12 A2990 RMK AO2 SLP116 T01830117

2010/08/10 06:51
KYNG 100651Z 20004KT 10SM SCT049 BKN085 23/18 A2997 RMK AO2 SLP137 T02330178

2010/08/10 06:51
KATY 100651Z AUTO 13005KT 10SM BKN029 24/22 A2992 RMK AO2

2010/08/10 06:51
KDKK 100651Z AUTO 24003KT 4SM BR BKN060 OVC080 22/21 A2995 RMK AO2 $

2010/08/10 06:51
KGFL 100651Z AUTO 00000KT 1 1/2SM BR BKN034 20/20 A2992 RMK AO2

2010/08/10 06:51
KLEB 100651Z AUTO 00000KT 2SM BR OVC001 20/19 A2992 RMK AO2

2010/08/10 06:51
KOLF 100651Z AUTO 23017G24KT 10SM VCTS SCT095 24/16 A2984 RMK AO2 LTG DSNT E-SW TSB45 PRESRR 403280139

2010/08/10 06:50
PTTP 100650Z 12004KT 15SM BKN018 OVC130 27/25 A2985 RMK SLP106 T02670246 

2010/08/10 06:50
LSZH 100650Z VRB02KT 9999 FEW055 19/15 Q1018 NOSIG

2010/08/10 06:50
LSGG 100650Z VRB02KT 9999 FEW073 21/15 Q1018 NOSIG

2010/08/10 06:50
LSZB 100650Z VRB03KT 9999 SCT080 18/15 Q1018 NOSIG

2010/08/10 06:50
LSZA 100650Z VRB01KT 9999 SCT045 BKN060 20/18 Q1017 NOSIG

2010/08/10 06:52
LKLN 100652Z AUTO VRB01KT 0550 FG OVC001 13/13 Q1019

2010/08/10 07:00
LQSA 100700Z VRB02KT 9999 FEW030 17/14 Q1020 NOSIG

2010/08/10 06:46
MMCZ 100646Z 00000KT 7SM SKC 23/23 A2988

2010/08/10 06:50
LSMA 100650Z VRB02KT 9999 SCT077 BKN095 18/14 Q1018 RMK WHT

2010/08/10 06:50
LSMS 100650Z 09004KT 060V120 9999 FEW093 19/12 Q1019 RMK BLU

2010/08/10 06:52
CYFC 100652Z AUTO 00000KT 3SM BR OVC003 17/17 A2981 RMK SLP097 DENSITY ALT 400FT RVR MISG

2010/08/10 06:50
VECC 100650Z 16005KT 5000 HZ FEW020 SCT025 36/26 Q1002 NOSIG

2010/08/10 06:52
CYQA 100652Z AUTO 12002KT 1 1/4SM BR BKN002 OVC008 19/19 A2993 RMK SLP137 DENSITY ALT 1500FT

2010/08/10 06:51
KVCT 100651Z AUTO 00000KT 10SM CLR 26/26 A2992 RMK AO2 SLP130 T02610256 

2010/08/10 06:50
KGLD 100650Z AUTO 34009KT 4SM TSRA BR BKN022 BKN100 19/18 A3001

2010/08/10 07:00
BKPR 100700Z VRB03KT 9999 FEW030 20/14 Q1018 NOSIG RMK BLU

2010/08/10 06:50
EEKA 100650Z 20006KT 170V240 9999 SCT012 BKN030 19/17 Q1013

2010/08/10 06:50
LSZH 100650Z VRB02KT 9999 FEW055 19/15 Q1018 NOSIG

2010/08/10 06:50
LSGG 100650Z VRB02KT 9999 FEW073 21/15 Q1018 NOSIG

2010/08/10 06:50
LSZB 100650Z VRB03KT 9999 SCT080 18/15 Q1018 NOSIG

2010/08/10 06:50
LSZA 100650Z VRB01KT 9999 SCT045 BKN060 20/18 Q1017 NOSIG

2010/08/10 07:00
LQSA 100700Z VRB02KT 9999 FEW030 17/14 Q1020 NOSIG

2010/08/10 06:50
LSMA 100650Z VRB02KT 9999 SCT077 BKN095 18/14 Q1018 RMK WHT

2010/08/10 06:50
LSMS 100650Z 09004KT 060V120 9999 FEW093 19/12 Q1019 RMK BLU

2010/08/10 06:51
KHSE 100651Z AUTO 26006KT 10SM CLR 26/26 A3001 RMK AO2 SLP160 T02560256 TSNO 

2010/08/10 07:00
FAJS 100700Z 12011KT CAVOK 05/M03 Q1033 NOSIG

2010/08/10 06:50
EGYP 100650Z 29013KT 9999 SCT022 SCT048 M01/M02 Q1005 WHT

2010/08/10 06:51
KCRP 100651Z 00000KT 10SM FEW018 27/26 A2993 RMK AO2 SLP132 T02670256 

2010/08/10 06:51
KCON 100651Z AUTO 00000KT 4SM BR SCT036 OVC120 21/20 A2991 RMK AO2 SLP124 T02060200 

2010/08/10 06:50
ETNG 100650Z 24004KT CAVOK 18/13 Q1015 NOSIG

2010/08/10 06:47
LBGO 100647Z 27004MPS 230V320 CAVOK 24/18 Q1015 NOSIG

2010/08/10 06:45
LMML 100645Z VRB02KT CAVOK 27/11 Q1015 NOSIG

2010/08/10 07:00
LQMO 100700Z VRB01KT CAVOK 27/13 Q1013

2010/08/10 07:00
LQSA 100700Z VRB02KT 9999 FEW030 17/14 Q1020 NOSIG

2010/08/10 06:50
LSGG 100650Z VRB02KT 9999 FEW073 21/15 Q1018 NOSIG

2010/08/10 06:50
LSZA 100650Z VRB01KT 9999 SCT045 BKN060 20/18 Q1017 NOSIG

2010/08/10 06:50
LSZB 100650Z VRB03KT 9999 SCT080 18/15 Q1018 NOSIG

2010/08/10 06:50
LSZH 100650Z VRB02KT 9999 FEW055 19/15 Q1018 NOSIG

2010/08/10 06:48
KMTC 100648Z AUTO 00000KT 1SM R19/1000VP6000FT DZ BR CLR 21/21 A2994 RMK AO2 SLP142 $

2010/08/10 06:49
KMTC 100649Z AUTO 00000KT 1 1/4SM R19/1000VP6000FT DZ BR CLR 21/21 A2994 RMK AO2 VIS 1/2V5 SLP142 $

2010/08/10 06:50
KMTC 100650Z AUTO 00000KT 1 1/2SM R19/1000VP6000FT DZ BR CLR 21/21 A2994 RMK AO2 VIS 1/2V5 SLP142 $

2010/08/10 06:51
KMTC 100651Z AUTO 00000KT 2SM R19/1800VP6000FT DZ BR CLR 21/21 A2994 RMK AO2 VIS 3/4V5 SLP142 $

2010/08/10 06:52
KMTC 100652Z AUTO 00000KT 2 1/2SM R19/2200VP6000FT DZ BR CLR 21/21 A2994 RMK AO2 SLP142 $

2010/08/10 06:45
KNBG 100645Z AUTO 00000KT 1 3/4SM BR CLR A2992 RMK AO2 PWINO FZRANO $

2010/08/10 06:51
KCAK 100651Z 23004KT 8SM BKN065 OVC100 24/19 A2997 RMK AO2 SLP137 T02440194 

2010/08/10 06:50
EDDB 100650Z VRB01KT CAVOK 19/16 Q1017 NOSIG

2010/08/10 06:50
EDDC 100650Z 11002KT CAVOK 18/15 Q1017 NOSIG

2010/08/10 06:50
EDDE 100650Z 20003KT CAVOK 17/14 Q1017 NOSIG

2010/08/10 06:50
EDDG 100650Z 14005KT CAVOK 17/14 Q1015 NOSIG

2010/08/10 06:50
EDDP 100650Z 16005KT CAVOK 17/16 Q1017 NOSIG

2010/08/10 06:50
EDDR 100650Z VRB01KT CAVOK 19/12 Q1017 NOSIG

2010/08/10 06:50
EDDW 100650Z 14006KT CAVOK 18/14 Q1014 NOSIG

2010/08/10 06:50
EDDF 100650Z VRB01KT CAVOK 18/14 Q1016 NOSIG

2010/08/10 06:50
EDDH 100650Z 15006KT CAVOK 19/15 Q1015 NOSIG

2010/08/10 06:50
EDDK 100650Z 13005KT CAVOK 18/14 Q1015 NOSIG

2010/08/10 06:50
EDDL 100650Z 15005KT CAVOK 18/14 Q1015 NOSIG

2010/08/10 06:50
EDDM 100650Z 08002KT CAVOK 17/15 Q1018 NOSIG

2010/08/10 06:50
EDDN 100650Z 15001KT 9999 SCT045 BKN080 15/14 Q1017 NOSIG

2010/08/10 06:50
EDDS 100650Z 09002KT CAVOK 18/13 Q1018 NOSIG

2010/08/10 06:50
EDDT 100650Z VRB01KT CAVOK 20/16 Q1017 NOSIG

2010/08/10 06:50
EDDV 100650Z 18005KT CAVOK 19/13 Q1015 NOSIG

2010/08/10 06:53
CYKF 100653Z AUTO 22004KT 1/8SM FG VV002 20/20 A2996 RMK SLP142 DENSITY ALT 1800FT

2010/08/10 06:52
KN60 100652Z AUTO 05010KT 010V080 21/17 A2988 RMK AO1 SLP107 T02060172 

2010/08/10 06:52
KREO 100652Z AUTO 21008KT 21/M05 A2988 RMK AO2 SLP076 T02061050 PWINO TSNO 

2010/08/10 06:52
KBLU 100652Z AUTO 00000KT 10SM CLR 17/06 A3009 RMK AO2 SLP104 T01670056 TSNO 

2010/08/10 06:52
KABI 100652Z 17005KT 10SM CLR 29/18 A2998 RMK AO2 SLP118 T02890178 

2010/08/10 06:52
KSDB 100652Z AUTO 24005KT 10SM CLR 16/03 A3004 RMK AO2 SLP121 T01610028 402720150 TSNO 

2010/08/10 06:52
KNRB 100652Z 14010KT 10SM FEW022 28/22 A2995 RMK AO2 SLP142 T02830222 

2010/08/10 06:49
PAJZ 100649Z AUTO 16008KT 8SM BKN003 BKN021 OVC046 11/09 A2967 RMK AO2 PWINO TSNO BKN V SCT $

2010/08/10 06:50
KPMV 100650Z AUTO 17005KT 10SM CLR 28/25 A2986 RMK AO2 T02770246

2010/08/10 06:51
KADH 100651Z AUTO 19007KT 10SM CLR 28/18 A2993 RMK AO2

2010/08/10 06:52
KAFN 100652Z AUTO 20004KT 6SM BR SCT090 21/19 A2994 RMK AO2 SLP137 T02060194

2010/08/10 06:45
KALM 100645Z AUTO 00000KT 10SM CLR 24/10 A3003 RMK AO2

2010/08/10 06:52
KALS 100652Z AUTO 04003KT 10SM CLR 09/07 A3028 RMK AO2 SLPNO T00940072 402610094

2010/08/10 06:52
KAQW 100652Z AUTO 00000KT 4SM BR OVC003 21/20 A2995 RMK AO2 SLP137 T02060200

2010/08/10 06:52
KARR 100652Z AUTO 00000KT 10SM CLR 23/22 A2996 RMK AO2 SLP138 T02330222

2010/08/10 06:52
KATL 100652Z 12004KT 9SM SCT250 27/21 A3002 RMK AO2 SLP151 T02670211

2010/08/10 06:50
KATS 100650Z AUTO 16007KT 10SM CLR 23/15 A3002 RMK AO2

2010/08/10 06:50
KAUN 100650Z AUTO 13007KT 10SM CLR 22/11 A2990 RMK AO1

2010/08/10 06:50
KAXS 100650Z AUTO 12005KT 10SM CLR 27/20 A2993 RMK AO2 T02710195

2010/08/10 06:50
KAXX 100650Z AUTO 00000KT 10SM CLR 07/06 A3038 RMK AO2

2010/08/10 06:52
KBDR 100652Z AUTO 35003KT 10SM CLR 26/19 A2992 RMK AO2 SLP131 T02560189

2010/08/10 06:50
KBIE 100650Z AUTO 18006KT 10SM CLR 27/22 A2987 RMK AO2 T02710215

2010/08/10 06:52
KBIS 100652Z AUTO 05004KT 10SM CLR 23/18 A2987 RMK AO2 SLP100 T02330183

2010/08/10 06:52
KBLF 100652Z AUTO 25004KT 10SM FEW055 22/17 A3013 RMK AO2 SLP158 T02220167

2010/08/10 06:52
KBLH 100652Z AUTO 18005KT 10SM CLR 31/03 A2975 RMK AO2 SLP068 T03110033

2010/08/10 06:52
KBML 100652Z AUTO 00000KT 1/4SM FG FEW001 SCT010 15/15 A2993 RMK AO2 SLP132 T01500150

2010/08/10 06:50
KBTA 100650Z AUTO 08003KT 5SM BR CLR 26/25 A2986 RMK AO2 LTG DSNT NE T02640246

2010/08/10 06:50
KBVN 100650Z AUTO 12006KT 2SM BR OVC002 26/25 A2987 RMK AO2 LTG DSNT W AND NW T02560246

2010/08/10 06:45
KBVS 100645Z AUTO 00000KT 9SM FEW014 OVC047 14/13 A2996 RMK A01 P000

2010/08/10 06:52
KCFV 100652Z AUTO 00000KT 10SM CLR 27/22 A2991 RMK AO2 SLP119 T02720217

2010/08/10 06:52
KCID 100652Z AUTO 09003KT 9SM CLR 24/23 A2990 RMK AO2 LTG DSNT S SLP118 T02390228

2010/08/10 06:52
KCKV 100652Z AUTO 23003KT 7SM CLR 26/24 A2997 RMK AO2 SLP140 T02560239

2010/08/10 06:50
KCLK 100650Z AUTO 11005KT 10SM CLR 26/17 A2993 RMK AO2

2010/08/10 06:52
KCLT 100652Z 00000KT 8SM FEW250 25/21 A3004 RMK AO2 SLP164 T02500211

2010/08/10 06:52
KCNU 100652Z AUTO 19005KT 10SM CLR 27/21 A2992 RMK AO2 SLP116 T02670206

2010/08/10 06:52
KCQX 100652Z AUTO VRB05KT 8SM -RA FEW010 SCT017 BKN024 23/21 A2993 RMK AO2 LTG DSNT W RAB12 SLP135 P0000 T02280206

2010/08/10 06:50
KCUH 100650Z AUTO 00000KT 10SM CLR 27/21 A2992 RMK AO2

2010/08/10 06:52
KCVG 100652Z 20004KT 7SM CLR 25/21 A2997 RMK AO2 SLP137 T02500211

2010/08/10 06:52
KDCA 100652Z 18008KT 10SM BKN250 26/21 A2994 RMK AO2 SLP140 T02610206

2010/08/10 06:52
KDDC 100652Z AUTO 18004KT 10SM CLR 24/19 A2992 RMK AO2 SLP090 T02390189

2010/08/10 06:52
KDPA 100652Z 00000KT 8SM CLR 24/23 A2995 RMK AO2 SLP136 T02390228

2010/08/10 06:53
KDUC 100653Z AUTO 14005KT 10SM CLR 27/21 A2992 RMK AO2

2010/08/10 06:52
KDVN 100652Z AUTO 10005KT 9SM CLR 24/22 A2991 RMK AO2 SLP123 T02390222

2010/08/10 06:50
PTKK 100650Z 11008KT 15SM FEW014 BKN120 OVC280 29/25 A2982 RMK SLP101 T02890245

2010/08/10 06:51
KSAN 100651Z 27004KT 10SM OVC015 18/14 A2993 RMK AO2 SLP135 T01780144

2010/08/10 06:51
KDAG 100651Z AUTO 25008KT 10SM CLR 25/00 A2987 RMK AO2 SLP087 T02500000 TSNO

2010/08/10 06:51
KP59 100651Z AUTO 25005KT 21/19 A2994 RMK AO2 SLP130 T02060194 PWINO TSNO

2010/08/10 06:51
KSNT 100651Z AUTO 00000KT 09/08 A3013 RMK AO2 SLP130 P0002 T00940083 401720078 PWINO TSNO

2010/08/10 06:51
KSMX 100651Z AUTO 00000KT 9SM OVC004 12/11 A2993 RMK AO2 SLP138 T01220111 TSNO

2010/08/10 06:51
KBVE 100651Z AUTO 00000KT CLR 26/25 A2991 RMK AO2 SLP128 T02610250 TSNO $

2010/08/10 06:51
KJCT 100651Z AUTO 16011G16KT 10SM CLR 28/21 A2999 RMK AO2 SLP112 T02830211 TSNO

2010/08/10 06:51
KATT 100651Z AUTO VRB03KT 10SM CLR 28/23 A2995 RMK AO2 SLP125 T02780233

2010/08/10 06:51
KORF 100651Z 22006KT 10SM CLR 25/23 A2998 RMK AO2 SLP150 T02500233 $

2010/08/10 06:51
KVCT 100651Z AUTO 00000KT 10SM CLR 26/26 A2992 RMK AO2 SLP130 T02610256

2010/08/10 06:51
KHSE 100651Z AUTO 26006KT 10SM CLR 26/26 A3001 RMK AO2 SLP160 T02560256 TSNO

2010/08/10 06:51
KCRP 100651Z 00000KT 10SM FEW018 27/26 A2993 RMK AO2 SLP132 T02670256

2010/08/10 06:51
KCON 100651Z AUTO 00000KT 4SM BR SCT036 OVC120 21/20 A2991 RMK AO2 SLP124 T02060200

2010/08/10 06:51
KCAK 100651Z 23004KT 8SM BKN065 OVC100 24/19 A2997 RMK AO2 SLP137 T02440194

2010/08/10 06:52
KN60 100652Z AUTO 05010KT 010V080 21/17 A2988 RMK AO1 SLP107 T02060172

2010/08/10 06:52
KREO 100652Z AUTO 21008KT 21/M05 A2988 RMK AO2 SLP076 T02061050 PWINO TSNO

2010/08/10 06:52
KBLU 100652Z AUTO 00000KT 10SM CLR 17/06 A3009 RMK AO2 SLP104 T01670056 TSNO

2010/08/10 06:52
KABI 100652Z 17005KT 10SM CLR 29/18 A2998 RMK AO2 SLP118 T02890178

2010/08/10 06:52
KSDB 100652Z AUTO 24005KT 10SM CLR 16/03 A3004 RMK AO2 SLP121 T01610028 402720150 TSNO

2010/08/10 07:00
FAJS 100700Z 12011KT CAVOK 05/M03 Q1033 NOSIG

2010/08/10 06:53
EKVG 100653Z 26004KT 230V330 9999 FEW004 SCT022 11/10 Q1008 RMK/RWY 13-31 CLOSED DUE WIP NOTAM E0050/10 WIND 850FT 02004KT

2010/08/10 06:50
ESGG 100650Z 22011KT 9999 BKN015 16/13 Q1014

2010/08/10 06:50
ESGJ 100650Z 24010KT 9999 FEW013 SCT016 BKN019 15/12 Q1014

2010/08/10 06:50
ESGT 100650Z 21010KT 9999 SCT020 SCT035 17/13 Q1013

2010/08/10 06:50
ESMK 100650Z 25004KT CAVOK 18/12 Q1016

2010/08/10 06:50
ESMQ 100650Z 23007KT CAVOK 17/12 Q1015

2010/08/10 06:50
ESMS 100650Z 21003KT 160V260 CAVOK 18/13 Q1016

2010/08/10 06:50
ESMT 100650Z 23009KT 9999 FEW020 BKN040 18/14 Q1015

2010/08/10 06:50
ESMX 100650Z 25006KT 220V300 9999 FEW016 SCT040 OVC046 16/13 Q1015

2010/08/10 06:50
ESTA 100650Z 21007KT CAVOK 17/13 Q1016

2010/08/10 06:50
ESTL 100650Z VRB03KT CAVOK 18/13 Q1016

2010/08/10 06:50
EDDB 100650Z VRB01KT CAVOK 19/16 Q1017 NOSIG

2010/08/10 06:50
EDDC 100650Z 11002KT CAVOK 18/15 Q1017 NOSIG

2010/08/10 06:50
EDDE 100650Z 20003KT CAVOK 17/14 Q1017 NOSIG

2010/08/10 06:50
EDDG 100650Z 14005KT CAVOK 17/14 Q1015 NOSIG

2010/08/10 06:50
EDDP 100650Z 16005KT CAVOK 17/16 Q1017 NOSIG

2010/08/10 06:50
EDDR 100650Z VRB01KT CAVOK 19/12 Q1017 NOSIG

2010/08/10 06:50
EDDW 100650Z 14006KT CAVOK 18/14 Q1014 NOSIG

2010/08/10 06:50
EDDF 100650Z VRB01KT CAVOK 18/14 Q1016 NOSIG

2010/08/10 06:50
EDDH 100650Z 15006KT CAVOK 19/15 Q1015 NOSIG

2010/08/10 06:50
EDDK 100650Z 13005KT CAVOK 18/14 Q1015 NOSIG

2010/08/10 06:50
EDDL 100650Z 15005KT CAVOK 18/14 Q1015 NOSIG

2010/08/10 06:50
EDDM 100650Z 08002KT CAVOK 17/15 Q1018 NOSIG

2010/08/10 06:50
EDDN 100650Z 15001KT 9999 SCT045 BKN080 15/14 Q1017 NOSIG

2010/08/10 06:50
EDDS 100650Z 09002KT CAVOK 18/13 Q1018 NOSIG

2010/08/10 06:50
EDDT 100650Z VRB01KT CAVOK 20/16 Q1017 NOSIG

2010/08/10 06:50
EDDV 100650Z 18005KT CAVOK 19/13 Q1015 NOSIG

2010/08/10 06:50
EFHK 100650Z 20007KT 9999 -SHRA BKN009 FEW030CB 20/18 Q1011 NOSIG

2010/08/10 06:50
EFJY 100650Z 21005KT 180V260 9999 SCT014 SCT030 BKN055 18/16 Q1009

2010/08/10 06:50
EFKU 100650Z AUTO 19009KT 150V220 9999NDV FEW016 BKN068 20/15 Q1010

2010/08/10 06:50
EFRO 100650Z AUTO 01010KT 9999NDV FEW008 BKN011 BKN017 11/10 Q1010

2010/08/10 06:50
EFTP 100650Z 21007KT 9999 FEW012 18/16 Q1010

2010/08/10 06:50
EFTU 100650Z AUTO 25007KT 220V280 9999 FEW012 BKN016 OVC021 19/16 Q1010

2010/08/10 06:50
EFVA 100650Z 18001KT 9999 FEW003 SCT008 BKN022 18/18 Q1008

2010/08/10 06:50
BGBW 100650Z AUTO 08004KT 0550NDV FG BKN002/// BKN004/// 07/07 Q1009

2010/08/10 06:50
BGGH 100650Z AUTO 23004KT 4300NDV RA OVC016/// 09/09 Q1007

2010/08/10 06:50
BGJN 100650Z AUTO VRB01KT 9999NDV SCT017/// BKN021/// OVC027/// 08/04 Q1008

2010/08/10 06:50
EGYP 100650Z 29013KT 9999 SCT022 SCT048 M01/M02 Q1005 WHT

2010/08/10 06:50
PGWT 100650Z 09005KT 7SM SCT016 BKN100 BKN160 29/25 A2990 RMK WIND DATA ESTIMATED

2010/08/10 06:50
PTTP 100650Z 12004KT 15SM BKN018 OVC130 27/25 A2985 RMK SLP106 T02670246

2010/08/10 06:50
PTYA 100650Z 18008KT 12SM FEW016 FEW140 BKN300 32/24 A2984 RMK SLP105 T03200242

2010/08/10 06:50
PTKK 100650Z 11008KT 15SM FEW014 BKN120 OVC280 29/25 A2982 RMK SLP101 T02890245

2010/08/10 06:51
KBAZ 100651Z AUTO 00000KT 10SM CLR 25/23 A2994 RMK AO2 SLP129 T02500233

2010/08/10 06:51
KBGD 100651Z AUTO 20009KT 10SM CLR 25/14 A3001 RMK AO2 SLP109 T02500144

2010/08/10 06:51
KHDO 100651Z AUTO 15007KT 10SM CLR 27/23 A2998 RMK AO2 SLP132 T02720233

2010/08/10 06:51
KPHX 100651Z 26007KT 10SM FEW120 34/10 A2980 RMK AO2 SLP070 T03390100 404000272 $

2010/08/10 06:51
KRDU 100651Z 23005KT 10SM FEW150 SCT250 24/22 A3002 RMK AO2 SLP160 T02440217

2010/08/10 06:51
KDAG 100651Z AUTO 25008KT 10SM CLR 25/00 A2987 RMK AO2 SLP087 T02500000 TSNO

2010/08/10 06:47
K1F0 100647Z AUTO 00000KT 10SM CLR 28/21 A2991 RMK AO2

2010/08/10 06:58
K36U 100658Z AUTO 00000KT 10SM CLR 09/04 A3012 RMK AO2

2010/08/10 06:48
K4O4 100648Z AUTO 00000KT 10SM CLR 25/22 A2993 RMK AO2

2010/08/10 06:51
KACT 100651Z 20011KT 10SM CLR 29/22 A2992 RMK AO2 SLP123 T02940217 $

2010/08/10 06:50
KADM 100650Z AUTO 00000KT 10SM CLR 26/22 A2992 RMK AO2

2010/08/10 06:50
KAFK 100650Z AUTO 20006KT 10SM CLR 26/23 A2986 RMK AO2 T02640226

2010/08/10 06:51
KAHN 100651Z AUTO 00000KT 4SM BR CLR 23/22 A3002 RMK AO2 SLP158 T02280217

2010/08/10 06:51
KASH 100651Z AUTO 00000KT 5SM BR CLR 23/22 A2991 RMK AO2 T02270222 RAE49 P0004 SLP129

2010/08/10 06:50
KAUH 100650Z AUTO 13006KT 5SM BR CLR 26/25 A2986 RMK AO2 T02560245

2010/08/10 06:51
KAVX 100651Z AUTO 16003KT 10SM CLR 14/12 A2994 RMK AO2 SLP126 T01390117 TSNO

2010/08/10 06:50
KCHK 100650Z AUTO 14003KT 10SM BKN090 28/22 A2992 RMK AO2

2010/08/10 06:51
KCLE 100651Z 28004KT 9SM FEW060 SCT080 25/20 A2997 RMK AO2 SLP139 T02500200

2010/08/10 06:51
KCMH 100651Z 17003KT 10SM FEW130 24/20 A2996 RMK AO2 SLP137 T02440200

2010/08/10 06:50
KCQB 100650Z AUTO 19007KT 10SM 28/21 A2992 RMK AO2 TSNO

2010/08/10 06:51
KCSG 100651Z AUTO 08003KT 9SM CLR 27/19 A2997 RMK AO2 SLP142 T02670194 TSNO

2010/08/10 06:51
KDAW 100651Z AUTO 00000KT 10SM -RA SCT070 OVC110 21/19 A2988 RMK AO2 SLP113 P0001 T02110194

2010/08/10 06:50
KDUA 100650Z AUTO 00000KT 10SM CLR 28/21 A2992 RMK AO2

2010/08/10 06:51
KERI 100651Z 15005KT 6SM HZ BKN080 BKN110 23/20 A2993 RMK AO2 RAB0559E25 SLP130 P0000 T02330200

2010/08/10 06:51
KEWR 100651Z 23010KT 10SM BKN150 BKN250 27/18 A2991 RMK AO2 SLP129 T02670183 $

2010/08/10 06:52
KGLS 100652Z AUTO 23004KT 10SM CLR 29/25 A2992 RMK AO2 SLP131 T02890250

2010/08/10 06:55
KGLY 100655Z AUTO 00000KT 10SM CLR 28/26 A2992 RMK AO2

2010/08/10 06:52
KHRL 100652Z AUTO 16004KT 10SM SCT021 SCT029 27/27 A2991 RMK AO2 SLP127 T02720267

2010/08/10 06:51
KILG 100651Z 18005KT 10SM CLR 24/22 A2994 RMK AO2 SLP136 T02440217

2010/08/10 06:51
KJFK 100651Z 22005KT 9SM SCT140 BKN250 24/19 A2993 RMK AO2 SLP133 T02390194

2010/08/10 06:51
KJSV 100651Z AUTO 00000KT 10SM CLR 26/23 A2992 RMK AO2

2010/08/10 06:49
KL35 100649Z AUTO 00000KT 10SM CLR 08/M02 A3017 RMK AO2

2010/08/10 06:51
KLGA 100651Z 22005KT 10SM BKN140 BKN250 27/18 A2991 RMK AO2 SLP129 T02720183

2010/08/10 06:51
KLGU 100651Z AUTO 17005KT 10SM CLR 19/07 A3003 RMK AO2 SLP115 T01890072 402830117

2010/08/10 06:50
KLRU 100650Z AUTO 29005KT 10SM CLR 23/09 A3008 RMK AO2

2010/08/10 06:51
KMDW 100651Z 00000KT 10SM CLR 26/22 A2994 RMK AO2 SLP127 OCNL LTGIC DSNT SW CB DSNT SW T02610217 PNO

2010/08/10 06:51
KMPV 100651Z AUTO 00000KT 1/4SM FG VV001 18/18 A2998 RMK AO2 SLP146 T01830178

2010/08/10 06:50
KONM 100650Z AUTO 33004KT 10SM SCT110 22/12 A3009 RMK AO2 T02220115 403400168

2010/08/10 06:51
KONP 100651Z AUTO 00000KT 7SM OVC017 13/11 A3005 RMK AO1

2010/08/10 06:51
KORD 100651Z 00000KT 10SM CLR 25/23 A2995 RMK AO2 SLP136 T02500228

2010/08/10 06:55
KPAN 100655Z AUTO 00000KT 10SM CLR 18/09 A3015 RMK AO1

2010/08/10 06:51
KPIT 100651Z 00000KT 6SM HZ SCT100 22/18 A2998 RMK AO2 SLP148 T02170178

2010/08/10 06:51
KPWM 100651Z AUTO 28006KT 10SM CLR 22/19 A2986 RMK AO2 SLP113 T02170189

2010/08/10 06:51
KSJT 100651Z AUTO 25003KT 10SM CLR 29/17 A2997 RMK AO2 SLP117 T02890172

2010/08/10 06:51
KSLK 100651Z AUTO 00000KT 2SM BR BKN012 OVC033 19/19 A2996 RMK AO2 SLP134 T01940189

2010/08/10 06:51
KSMO 100651Z AUTO 00000KT 10SM OVC006 16/14 A2991 RMK AO2 SLP128 T01610139

2010/08/10 06:51
KSTL 100651Z 20004KT 9SM FEW150 SCT250 30/24 A2994 RMK AO2 SLP123 T03000244

2010/08/10 06:51
KATY 100651Z AUTO 13005KT 10SM BKN029 24/22 A2992 RMK AO2

2010/08/10 06:51
KDKK 100651Z AUTO 24003KT 4SM BR BKN060 OVC080 22/21 A2995 RMK AO2 $

2010/08/10 06:51
KGFL 100651Z AUTO 00000KT 1 1/2SM BR BKN034 20/20 A2992 RMK AO2

2010/08/10 06:51
KLEB 100651Z AUTO 00000KT 2SM BR OVC001 20/19 A2992 RMK AO2

2010/08/10 06:51
KOLF 100651Z AUTO 23017G24KT 10SM VCTS SCT095 24/16 A2984 RMK AO2 LTG DSNT E-SW TSB45 PRESRR 403280139

2010/08/10 06:49
PAJZ 100649Z AUTO 16008KT 8SM BKN003 BKN021 OVC046 11/09 A2967 RMK AO2 PWINO TSNO BKN V SCT $

2010/08/10 06:52
KNRB 100652Z 14010KT 10SM FEW022 28/22 A2995 RMK AO2 SLP142 T02830222

2010/08/10 06:51
KEKN 100651Z AUTO 00000KT 4SM BR FEW003 17/17 A3007 RMK AO2 SLP171 T01720167 TSNO

2010/08/10 06:51
KELP 100651Z 14012KT 10SM FEW160 27/14 A3003 RMK AO2 SLP088 T02720139 403560211

2010/08/10 06:51
KROW 100651Z AUTO 15004KT 10SM CLR 22/17 A3003 RMK AO2 SLP100 T02220172 403330200 TSNO

2010/08/10 06:51
KSAN 100651Z 27004KT 10SM OVC015 18/14 A2993 RMK AO2 SLP135 T01780144

2010/08/10 06:51
KP59 100651Z AUTO 25005KT 21/19 A2994 RMK AO2 SLP130 T02060194 PWINO TSNO

2010/08/10 06:51
KSNT 100651Z AUTO 00000KT 09/08 A3013 RMK AO2 SLP130 P0002 T00940083 401720078 PWINO TSNO

2010/08/10 06:51
KSMX 100651Z AUTO 00000KT 9SM OVC004 12/11 A2993 RMK AO2 SLP138 T01220111 TSNO

2010/08/10 06:51
KALB 100651Z 18004KT 2SM BR SCT023 BKN037 BKN065 21/21 A2993 RMK AO2 SFC VIS 2 1/2 SLP133 T02110206

2010/08/10 06:51
KBDL 100651Z 00000KT 5SM -RA BR FEW015 BKN055 OVC110 22/21 A2992 RMK AO2 SLP129 P0002 T02220211

2010/08/10 06:51
KBKW 100651Z AUTO 00000KT 6SM HZ CLR 20/17 A3011 RMK AO2 SLP155 T02000167 $

2010/08/10 06:51
KHTS 100651Z AUTO 11003KT 3SM BR CLR 22/21 A2998 RMK AO2 SLP143 T02170206 TSNO

2010/08/10 06:48
KIZA 100648Z AUTO 00000KT 10SM CLR 12/10 A2992 RMK AO2

2010/08/10 06:55
KLZZ 100655Z AUTO 17004KT 10SM CLR 27/22 A2996 RMK AO2

2010/08/10 06:51
KMYL 100651Z AUTO 17004KT 10SM CLR 11/10 A2999 RMK AO2 LTG DSNT N AND NW TSB11E31RAE32 SLP120 P0000 T01110100 402560078

2010/08/10 06:51
KOXR 100651Z AUTO 32004KT 10SM OVC008 16/13 A2990 RMK AO2 SLP123 T01560133

2010/08/10 06:51
KPVD 100651Z 00000KT 10SM BKN075 OVC150 23/19 A2993 RMK AO2 RAB12E45 SLP133 P0000 T02280194

2010/08/10 06:51
KTEB 100651Z 19003KT 10SM CLR 26/17 A2991 RMK AO2 SLP128 T02610167

2010/08/10 06:51
KYNG 100651Z 20004KT 10SM SCT049 BKN085 23/18 A2997 RMK AO2 SLP137 T02330178

2010/08/10 06:51
KBVE 100651Z AUTO 00000KT CLR 26/25 A2991 RMK AO2 SLP128 T02610250 TSNO $

2010/08/10 06:51
KATT 100651Z AUTO VRB03KT 10SM CLR 28/23 A2995 RMK AO2 SLP125 T02780233

2010/08/10 06:51
KORF 100651Z 22006KT 10SM CLR 25/23 A2998 RMK AO2 SLP150 T02500233 $

2010/08/10 06:51
KVCT 100651Z AUTO 00000KT 10SM CLR 26/26 A2992 RMK AO2 SLP130 T02610256

2010/08/10 06:51
KHSE 100651Z AUTO 26006KT 10SM CLR 26/26 A3001 RMK AO2 SLP160 T02560256 TSNO

2010/08/10 06:51
KCRP 100651Z 00000KT 10SM FEW018 27/26 A2993 RMK AO2 SLP132 T02670256

2010/08/10 06:51
KCON 100651Z AUTO 00000KT 4SM BR SCT036 OVC120 21/20 A2991 RMK AO2 SLP124 T02060200

2010/08/10 06:51
KCAK 100651Z 23004KT 8SM BKN065 OVC100 24/19 A2997 RMK AO2 SLP137 T02440194

2010/08/10 06:52
KN60 100652Z AUTO 05010KT 010V080 21/17 A2988 RMK AO1 SLP107 T02060172

2010/08/10 06:52
KREO 100652Z AUTO 21008KT 21/M05 A2988 RMK AO2 SLP076 T02061050 PWINO TSNO

2010/08/10 06:52
KBLU 100652Z AUTO 00000KT 10SM CLR 17/06 A3009 RMK AO2 SLP104 T01670056 TSNO

2010/08/10 06:52
KALS 100652Z AUTO 04003KT 10SM CLR 09/07 A3028 RMK AO2 SLPNO T00940072 402610094

2010/08/10 06:52
KBDR 100652Z AUTO 35003KT 10SM CLR 26/19 A2992 RMK AO2 SLP131 T02560189

2010/08/10 06:52
KCID 100652Z AUTO 09003KT 9SM CLR 24/23 A2990 RMK AO2 LTG DSNT S SLP118 T02390228

2010/08/10 06:52
KCNU 100652Z AUTO 19005KT 10SM CLR 27/21 A2992 RMK AO2 SLP116 T02670206

2010/08/10 06:52
KABI 100652Z 17005KT 10SM CLR 29/18 A2998 RMK AO2 SLP118 T02890178

2010/08/10 06:52
KSDB 100652Z AUTO 24005KT 10SM CLR 16/03 A3004 RMK AO2 SLP121 T01610028 402720150 TSNO

2010/08/10 06:51
KVNY 100651Z AUTO 00000KT 10SM CLR 18/12 A2990 RMK AO2 SLP116 T01830117

2010/08/10 06:51
KJCT 100651Z AUTO 16011G16KT 10SM CLR 28/21 A2999 RMK AO2 SLP112 T02830211 TSNO

2010/08/10 06:50
KPMV 100650Z AUTO 17005KT 10SM CLR 28/25 A2986 RMK AO2 T02770246

2010/08/10 06:51
KADH 100651Z AUTO 19007KT 10SM CLR 28/18 A2993 RMK AO2

2010/08/10 06:52
KAFN 100652Z AUTO 20004KT 6SM BR SCT090 21/19 A2994 RMK AO2 SLP137 T02060194

2010/08/10 06:45
KALM 100645Z AUTO 00000KT 10SM CLR 24/10 A3003 RMK AO2

2010/08/10 06:52
KAQW 100652Z AUTO 00000KT 4SM BR OVC003 21/20 A2995 RMK AO2 SLP137 T02060200

2010/08/10 06:52
KARR 100652Z AUTO 00000KT 10SM CLR 23/22 A2996 RMK AO2 SLP138 T02330222

2010/08/10 06:52
KATL 100652Z 12004KT 9SM SCT250 27/21 A3002 RMK AO2 SLP151 T02670211

2010/08/10 06:50
KATS 100650Z AUTO 16007KT 10SM CLR 23/15 A3002 RMK AO2

2010/08/10 06:50
KAUN 100650Z AUTO 13007KT 10SM CLR 22/11 A2990 RMK AO1

2010/08/10 06:50
KAXS 100650Z AUTO 12005KT 10SM CLR 27/20 A2993 RMK AO2 T02710195

2010/08/10 06:50
KAXX 100650Z AUTO 00000KT 10SM CLR 07/06 A3038 RMK AO2

2010/08/10 06:50
KBIE 100650Z AUTO 18006KT 10SM CLR 27/22 A2987 RMK AO2 T02710215

2010/08/10 06:52
KBIS 100652Z AUTO 05004KT 10SM CLR 23/18 A2987 RMK AO2 SLP100 T02330183

2010/08/10 06:52
KBLF 100652Z AUTO 25004KT 10SM FEW055 22/17 A3013 RMK AO2 SLP158 T02220167

2010/08/10 06:52
KBLH 100652Z AUTO 18005KT 10SM CLR 31/03 A2975 RMK AO2 SLP068 T03110033

2010/08/10 06:52
KBML 100652Z AUTO 00000KT 1/4SM FG FEW001 SCT010 15/15 A2993 RMK AO2 SLP132 T01500150

2010/08/10 06:50
KBTA 100650Z AUTO 08003KT 5SM BR CLR 26/25 A2986 RMK AO2 LTG DSNT NE T02640246

2010/08/10 06:50
KBVN 100650Z AUTO 12006KT 2SM BR OVC002 26/25 A2987 RMK AO2 LTG DSNT W AND NW T02560246

2010/08/10 06:45
KBVS 100645Z AUTO 00000KT 9SM FEW014 OVC047 14/13 A2996 RMK A01 P000

2010/08/10 06:52
KCFV 100652Z AUTO 00000KT 10SM CLR 27/22 A2991 RMK AO2 SLP119 T02720217

2010/08/10 06:52
KCKV 100652Z AUTO 23003KT 7SM CLR 26/24 A2997 RMK AO2 SLP140 T02560239

2010/08/10 06:50
KCLK 100650Z AUTO 11005KT 10SM CLR 26/17 A2993 RMK AO2

2010/08/10 06:52
KCLT 100652Z 00000KT 8SM FEW250 25/21 A3004 RMK AO2 SLP164 T02500211

2010/08/10 06:52
KCQX 100652Z AUTO VRB05KT 8SM -RA FEW010 SCT017 BKN024 23/21 A2993 RMK AO2 LTG DSNT W RAB12 SLP135 P0000 T02280206

2010/08/10 06:50
KCUH 100650Z AUTO 00000KT 10SM CLR 27/21 A2992 RMK AO2

2010/08/10 06:52
KCVG 100652Z 20004KT 7SM CLR 25/21 A2997 RMK AO2 SLP137 T02500211

2010/08/10 06:52
KDCA 100652Z 18008KT 10SM BKN250 26/21 A2994 RMK AO2 SLP140 T02610206

2010/08/10 06:52
KDDC 100652Z AUTO 18004KT 10SM CLR 24/19 A2992 RMK AO2 SLP090 T02390189

2010/08/10 06:52
KDPA 100652Z 00000KT 8SM CLR 24/23 A2995 RMK AO2 SLP136 T02390228

2010/08/10 06:53
KDUC 100653Z AUTO 14005KT 10SM CLR 27/21 A2992 RMK AO2

2010/08/10 06:52
KDVN 100652Z AUTO 10005KT 9SM CLR 24/22 A2991 RMK AO2 SLP123 T02390222

2010/08/10 06:50
EYSA 100650Z 30005KT 280V360 CAVOK 20/16 Q1017

2010/08/10 06:50
EDDB 100650Z VRB01KT CAVOK 19/16 Q1017 NOSIG

2010/08/10 06:50
EDDC 100650Z 11002KT CAVOK 18/15 Q1017 NOSIG

2010/08/10 06:50
EDDG 100650Z 14005KT CAVOK 17/14 Q1015 NOSIG

2010/08/10 06:50
EDDP 100650Z 16005KT CAVOK 17/16 Q1017 NOSIG

2010/08/10 06:50
EDDR 100650Z VRB01KT CAVOK 19/12 Q1017 NOSIG

2010/08/10 06:50
EDDT 100650Z VRB01KT CAVOK 20/16 Q1017 NOSIG

2010/08/10 06:50
EDDV 100650Z 18005KT CAVOK 19/13 Q1015 NOSIG

2010/08/10 06:50
EDDW 100650Z 14006KT CAVOK 18/14 Q1014 NOSIG

2010/08/10 06:46
MMCZ 100646Z 00000KT 7SM SKC 23/23 A2988

2010/08/10 07:00
SGAS 100700Z 18006KT CAVOK 10/07 Q1020

2010/08/10 07:00
SGES 100700Z 18004KT CAVOK 12/11 Q1019

2010/08/10 06:48
K4O4 100648Z AUTO 00000KT 10SM CLR 25/22 A2993 RMK AO2

2010/08/10 06:52
K9V9 100652Z AUTO 15014KT 24/22 A2985 RMK AO2 SLP090 T02390222 PWINO TSNO 

2010/08/10 06:51
KGDP 100651Z AUTO 05008KT 10SM CLR 22/14 A3017 RMK AO2 SLP128 T02220144 403220183 TSNO 

2010/08/10 06:46
KGLE 100646Z AUTO 00000KT 10SM CLR 28/19 A2994

2010/08/10 06:51
KOLF 100651Z AUTO 23017G24KT 10SM VCTS SCT095 24/16 A2984

2010/08/10 06:51
KGFL 100651Z AUTO 00000KT 1 1/2SM BR BKN034 20/20 A2992

2010/08/10 06:45
KMWA 100645Z AUTO 00000KT 7SM CLR 28/25 A2997

2010/08/10 06:48
KPPQ 100648Z AUTO 20003KT 5SM BR SCT100 28/26 A2993

2010/08/10 06:45
KSAR 100645Z AUTO 00000KT 7SM CLR 27/25 A2996

2010/08/10 06:45
KTAZ 100645Z AUTO 32003G14KT 10SM SCT110 27/25 A2995

2010/08/10 06:45
KTIP 100645Z AUTO 22005KT 10SM VCTS BKN110 27/25 A2996

2010/08/10 06:52
KNHK 100652Z AUTO 21007KT 10SM CLR 26/22 A2995 RMK AO2 SLP143 T02610217 $ 

2010/08/10 06:51
KABE 100651Z AUTO 00000KT 10SM CLR 24/20 A2993 RMK AO2 SLP131 T02440200 TSNO 

2010/08/10 06:53
EKVG 100653Z 26004KT 230V330 9999 FEW004 SCT022 11/10 Q1008 RMK/RWY 13-31 CLOSED DUE WIP NOTAM E0050/10 WIND 850FT 02004KT

2010/08/10 06:50
LSGC 100650Z 00000KT CAVOK 15/12 Q1020

2010/08/10 06:50
LSZG 100650Z VRB01KT CAVOK 17/15 Q1018 NOSIG

2010/08/10 06:50
LSZR 100650Z VRB01KT CAVOK 18/15 Q1018 NOSIG RMK C

2010/08/10 06:50
LSZS 100650Z 08002KT 9999 FEW020 SCT070 08/08 Q1023

2010/08/10 06:50
LSZC 100650Z VRB02KT 9999 SCT095 18/15 Q1018

2010/08/10 06:50
EFHK 100650Z 20007KT 9999 -SHRA BKN009 FEW030CB 20/18 Q1011 NOSIG

2010/08/10 06:50
EFJY 100650Z 21005KT 180V260 9999 SCT014 SCT030 BKN055 18/16 Q1009

2010/08/10 06:50
EFKU 100650Z AUTO 19009KT 150V220 9999NDV FEW016 BKN068 20/15 Q1010

2010/08/10 06:50
EFRO 100650Z AUTO 01010KT 9999NDV FEW008 BKN011 BKN017 11/10 Q1010

2010/08/10 06:50
EFTP 100650Z 21007KT 9999 FEW012 18/16 Q1010

2010/08/10 06:50
EFTU 100650Z AUTO 25007KT 220V280 9999 FEW012 BKN016 OVC021 19/16 Q1010

2010/08/10 06:50
EFVA 100650Z 18001KT 9999 FEW003 SCT008 BKN022 18/18 Q1008

2010/08/10 06:53
UMBB 100653Z 00000MPS 9000 TS BKN013CB 20/18 Q1017 TEMPO TSRA

2010/08/10 06:50
ESGG 100650Z 22011KT 9999 BKN015 16/13 Q1014

2010/08/10 06:50
ESGJ 100650Z 24010KT 9999 FEW013 SCT016 BKN019 15/12 Q1014

2010/08/10 06:50
ESGT 100650Z 21010KT 9999 SCT020 SCT035 17/13 Q1013

2010/08/10 06:50
ESMK 100650Z 25004KT CAVOK 18/12 Q1016

2010/08/10 06:50
ESMQ 100650Z 23007KT CAVOK 17/12 Q1015

2010/08/10 06:50
ESMS 100650Z 21003KT 160V260 CAVOK 18/13 Q1016

2010/08/10 06:50
ESMT 100650Z 23009KT 9999 FEW020 BKN040 18/14 Q1015

2010/08/10 06:50
ESMX 100650Z 25006KT 220V300 9999 FEW016 SCT040 OVC046 16/13 Q1015

2010/08/10 06:50
ESTA 100650Z 21007KT CAVOK 17/13 Q1016

2010/08/10 06:50
ESTL 100650Z VRB03KT CAVOK 18/13 Q1016

2010/08/10 06:48
KEHA 100648Z AUTO 23005KT 22/17

2010/08/10 06:53
CYWA 100653Z AUTO 26002KT 1SM CLR 14/14 A2991 RMK VSBY VRBL 0.6V3.5

2010/08/10 06:48
KIZA 100648Z AUTO 00000KT 10SM CLR 12/10 A2992

2010/08/10 06:51
KGFL 100651Z AUTO 00000KT 1 1/2SM BR BKN034 20/20 A2992

2010/08/10 06:52
KCZZ 100652Z AUTO 05004KT 11/06 A2994 RMK AO2 SLP110 T01110061 PWINO TSNO 

2010/08/10 06:52
KP69 100652Z AUTO 35003KT 16/16 A2987 RMK AO2 SLP094 T01560156 PWINO TSNO 

2010/08/10 06:51
KLEB 100651Z AUTO 00000KT 2SM BR OVC001 20/19 A2992

2010/08/10 06:51
KATY 100651Z AUTO 13005KT 10SM BKN029 24/22 A2992

2010/08/10 06:53
CYOY 100653Z AUTO 00000KT 1/2SM OVC001 OVC071 OVC092 13/11 A2985 RMK VSBY VRBL 0.2V9.+

2010/08/10 06:52
CYCY 100652Z AUTO 00000KT 1SM CLR 03/03 A2988

2010/08/10 06:50
OAKN 100650Z 22006KT 8000 DU SCT150 OVC250 36/02 Q1008 BLU TEMPO 6000 WHT RMK A2977 DA6700

2010/08/10 06:46
MMCZ 100646Z 00000KT 7SM SKC 23/23 A2988

2010/08/10 07:00
MPTO 100700Z 00000KT 9999 SCT018CB 27/25 Q1011 NOSIG

2010/08/10 06:50
NSTU 100650Z 13013KT 10SM SCT016 27/25 A2995 RMK SLP144 T02730254

2010/08/10 06:50
PTRO 100650Z 17007KT 15SM FEW010 SCT016TCU BKN120 BKN300 29/25 A2986 RMK TCU VC ALQDS

2010/08/10 06:55
KQHT 100655Z 24007G15KT 9999 FEW120 33/04 A2985 RMK A02A SLP070

2010/08/10 06:55
KQW3 100655Z AUTO 04001KT 9999 31/20 A2981 RMK AO2 SLP019

2010/08/10 07:00
SGAS 100700Z 18006KT CAVOK 10/07 Q1020

2010/08/10 07:00
SGES 100700Z 18004KT CAVOK 12/11 Q1019

2010/08/10 06:51
KNYC 100651Z VRB05KT 10SM CLR 27/18 A2995 RMK AO2 SLP132 T02670183 $ 

2010/08/10 06:50
BGBW 100650Z AUTO 08004KT 0550NDV FG BKN002/// BKN004/// 07/07 Q1009

2010/08/10 06:50
BGGH 100650Z AUTO 23004KT 4300NDV RA OVC016/// 09/09 Q1007

2010/08/10 06:50
BGJN 100650Z AUTO VRB01KT 9999NDV SCT017/// BKN021/// OVC027/// 08/04 Q1008

2010/08/10 06:50
EFKU 100650Z AUTO 19009KT 150V220 9999NDV FEW016 BKN068 20/15 Q1010

2010/08/10 06:55
KBLV 100655Z AUTO 14003KT 10SM CLR 26/26 A2994 RMK AO2 SLP135 T02650258

2010/08/10 06:55
KCEF 100655Z AUTO 00000KT 7SM -RA BKN065 OVC080 22/21 A2992 RMK AO2 DZB0559E0608 CIG 019 RWY05 SLP131 P0007 T02180214 $

2010/08/10 06:55
KGRF 100655Z AUTO 19007KT 160V230 10SM OVC011 14/11 A2998 RMK AO2 SLP152 T01390113

2010/08/10 06:55
KHMN 100655Z 00000KT 7SM R16/4500VP6000FT CLR 23/11 A3002 RMK AO2A SLP079 T02350113 403380185 $

2010/08/10 06:55
KLRF 100655Z AUTO 00000KT 10SM CLR 28/26 A2992 RMK AO2 SLP130 T02800260

2010/08/10 06:55
KMGE 100655Z AUTO 00000KT 10SM CLR 26/21 A3002 RMK AO2 SLP154 T02600214 $

2010/08/10 06:55
KRDR 100655Z AUTO 20004KT 10SM CLR 22/20 A2990 RMK AO2 SLP136 T02240203 $

2010/08/10 06:51
KSAN 100651Z 27004KT 10SM OVC015 18/14 A2993 RMK AO2 SLP135 T01780144

2010/08/10 06:50
LLBG 100650Z VRB02KT 9999 SCT029 30/22 Q1007 NOSIG

2010/08/10 06:50
LLET 100650Z 03014KT CAVOK 32/19 Q1005

2010/08/10 06:50
LLOV 100650Z 35003KT CAVOK 29/18 Q1009

2010/08/10 06:50
NSTU 100650Z 13013KT 10SM SCT016 27/25 A2995 RMK SLP144 T02730254

2010/08/10 06:50
OAFZ 100650Z VRB02KT 9999 BKN110 33/03 Q1014 BLU

2010/08/10 06:50
OAMS 100650Z 29010KT 9999 FEW160 38/01 Q1006 BLU/BLU/ TEMPO BLU

2010/08/10 07:00
OKBK 100700Z 03005KT 7000 NSC 41/20 Q1000 NOSIG

2010/08/10 06:50
TJPS 100650Z 00000KT 8SM SCT030 BKN060 26/26 A2993

2010/08/10 06:53
KP68 100653Z AUTO 11005KT 14/M07 A3007 RMK AO2 SLP098 T01441067 PWINO TSNO 

2010/08/10 06:53
KRNM 100653Z AUTO 27003KT 10SM CLR 12/09 A2992 RMK AO2 SLP121 T01220094 TSNO 

2010/08/10 06:53
KLXV 100653Z AUTO 00000KT 10SM CLR 06/04 A3043 RMK AO2 SLP163 T00560044 401780056 TSNO 

2010/08/10 06:53
KMSN 100653Z 00000KT 3SM BR CLR 22/22 A2995 RMK AO2 SLP136 T02220217 

2010/08/10 06:53
KTYS 100653Z 00000KT 9SM SCT120 27/22 A3000 RMK AO2 SLP144 T02720222 

2010/08/10 06:53
KCHA 100653Z 12003KT 10SM CLR 28/22 A2999 RMK AO2 SLP145 T02780222 $ 

2010/08/10 06:53
KDAB 100653Z 13005KT 10SM FEW020 27/23 A2994 RMK AO2 SLP136 T02670233 

2010/08/10 06:53
KNUI 100653Z AUTO 19005KT 10SM CLR 26/22 A2995 RMK AO2 SLP142 T02560222 

2010/08/10 06:53
KSDM 100653Z AUTO 25003KT 10SM CLR 14/13 A2993 RMK AO2 SLP130 T01440133 TSNO 

2010/08/10 06:53
KDNK 100653Z AUTO 00000KT 10SM CLR 26/23 A2993 RMK AO2 SLP130 T02560228 

2010/08/10 06:53
KTRI 100653Z 00000KT 5SM BR CLR 22/20 A3005 RMK AO2 SLP156 T02220200 

2010/08/10 06:53
KSAV 100653Z 15003KT 10SM CLR 27/24 A2999 RMK AO2 SLP153 T02670239 $ 

2010/08/10 06:53
KLAX 100653Z 25006KT 10SM OVC007 16/13 A2992 RMK AO2 SLP129 T01610133 $ 

2010/08/10 06:53
KSGR 100653Z AUTO 00000KT 10SM CLR 26/24 A2991 RMK AO2 SLP137 T02560239 TSNO 

2010/08/10 06:53
KHTL 100653Z AUTO 31004KT 4SM BR CLR 21/21 A2998 RMK AO2 SLP148 T02110206 

2010/08/10 06:53
KMCN 100653Z AUTO 13004KT 8SM CLR 25/22 A2999 RMK AO2 SLP151 T02500217 TSNO 

2010/08/10 06:53
KBNO 100653Z AUTO 27006KT 10SM FEW110 16/04 A2994 RMK AO2 SLP104 T01560039 TSNO 

2010/08/10 06:53
K40J 100653Z AUTO 06004KT 25/23 A2992 RMK AO2 SLP129 T02500233 PWINO TSNO 

2010/08/10 06:50
EDDB 100650Z VRB01KT CAVOK 19/16 Q1017 NOSIG

2010/08/10 06:50
EDDC 100650Z 11002KT CAVOK 18/15 Q1017 NOSIG

2010/08/10 06:50
EDDE 100650Z 20003KT CAVOK 17/14 Q1017 NOSIG

2010/08/10 06:50
EDDF 100650Z VRB01KT CAVOK 18/14 Q1016 NOSIG

2010/08/10 06:50
EDDG 100650Z 14005KT CAVOK 17/14 Q1015 NOSIG

2010/08/10 06:50
EDDH 100650Z 15006KT CAVOK 19/15 Q1015 NOSIG

2010/08/10 06:50
EDDK 100650Z 13005KT CAVOK 18/14 Q1015 NOSIG

2010/08/10 06:50
EDDL 100650Z 15005KT CAVOK 18/14 Q1015 NOSIG

2010/08/10 06:50
EDDM 100650Z 08002KT CAVOK 17/15 Q1018 NOSIG

2010/08/10 06:50
EDDN 100650Z 15001KT 9999 SCT045 BKN080 15/14 Q1017 NOSIG

2010/08/10 06:50
EDDP 100650Z 16005KT CAVOK 17/16 Q1017 NOSIG

2010/08/10 06:50
EDDR 100650Z VRB01KT CAVOK 19/12 Q1017 NOSIG

2010/08/10 06:50
EDDS 100650Z 09002KT CAVOK 18/13 Q1018 NOSIG

2010/08/10 06:50
EDDT 100650Z VRB01KT CAVOK 20/16 Q1017 NOSIG

2010/08/10 06:50
EDDV 100650Z 18005KT CAVOK 19/13 Q1015 NOSIG

2010/08/10 06:50
EDDW 100650Z 14006KT CAVOK 18/14 Q1014 NOSIG

2010/08/10 06:50
EKBI 100650Z 17006KT 130V200 CAVOK 16/14 Q1014

2010/08/10 06:50
EKCH 100650Z 20005KT 160V230 CAVOK 18/13 Q1016 NOSIG

2010/08/10 06:50
EKEB 100650Z AUTO 16011KT 120V190 9999NDV NCD 16/14 Q1013

2010/08/10 06:50
EKKA 100650Z 20009KT 150V230 CAVOK 18/13 Q1013 NOSIG RMK FEW220

2010/08/10 06:50
EKOD 100650Z 18005KT 150V210 CAVOK 17/14 Q1015

2010/08/10 06:50
EKRK 100650Z AUTO 15007KT 9999NDV NCD 17/12 Q1016

2010/08/10 06:50
EKRN 100650Z AUTO 13004KT 9999NDV BKN034/// 17/13 Q1017

2010/08/10 06:50
EKSN 100650Z 21011KT 9999 FEW022 SCT045 16/13 Q1013

2010/08/10 06:50
EKSP 100650Z 15008KT 9999 FEW035 SCT200 17/14 Q1014 NOSIG

2010/08/10 06:50
EKVD 100650Z AUTO 16009KT //// ///////// 17/13 Q1014

2010/08/10 06:53
EKVG 100653Z 26004KT 230V330 9999 FEW004 SCT022 11/10 Q1008 RMK/RWY 13-31 CLOSED DUE WIP NOTAM E0050/10 WIND 850FT 02004KT

2010/08/10 06:50
EKYT 100650Z 21007KT 9999 BKN045 17/12 Q1014 NOSIG

2010/08/10 07:00
LPLA 100700Z 00000KT 9999 FEW018 BKN035 21/17 Q1022

2010/08/10 06:53
KOVE 100653Z AUTO 12004KT 10SM CLR 23/11 A2983 RMK AO2 SLP103 T02330111 TSNO $ 

2010/08/10 06:50
EDDB 100650Z VRB01KT CAVOK 19/16 Q1017 NOSIG

2010/08/10 06:50
EDDC 100650Z 11002KT CAVOK 18/15 Q1017 NOSIG

2010/08/10 06:50
EDDE 100650Z 20003KT CAVOK 17/14 Q1017 NOSIG

2010/08/10 06:50
EDDF 100650Z VRB01KT CAVOK 18/14 Q1016 NOSIG

2010/08/10 06:50
EDDG 100650Z 14005KT CAVOK 17/14 Q1015 NOSIG

2010/08/10 06:50
EDDH 100650Z 15006KT CAVOK 19/15 Q1015 NOSIG

2010/08/10 06:50
EDDK 100650Z 13005KT CAVOK 18/14 Q1015 NOSIG

2010/08/10 06:50
EDDL 100650Z 15005KT CAVOK 18/14 Q1015 NOSIG

2010/08/10 06:50
EDDM 100650Z 08002KT CAVOK 17/15 Q1018 NOSIG

2010/08/10 06:50
EDDN 100650Z 15001KT 9999 SCT045 BKN080 15/14 Q1017 NOSIG

2010/08/10 06:50
EDDP 100650Z 16005KT CAVOK 17/16 Q1017 NOSIG

2010/08/10 06:50
EDDR 100650Z VRB01KT CAVOK 19/12 Q1017 NOSIG

2010/08/10 06:50
EDDS 100650Z 09002KT CAVOK 18/13 Q1018 NOSIG

2010/08/10 06:50
EDDT 100650Z VRB01KT CAVOK 20/16 Q1017 NOSIG

2010/08/10 06:50
EDDV 100650Z 18005KT CAVOK 19/13 Q1015 NOSIG

2010/08/10 06:50
EDDW 100650Z 14006KT CAVOK 18/14 Q1014 NOSIG

2010/08/10 06:50
EKBI 100650Z 17006KT 130V200 CAVOK 16/14 Q1014

2010/08/10 06:50
EKCH 100650Z 20005KT 160V230 CAVOK 18/13 Q1016 NOSIG

2010/08/10 06:50
EKEB 100650Z AUTO 16011KT 120V190 9999NDV NCD 16/14 Q1013

2010/08/10 06:50
EKKA 100650Z 20009KT 150V230 CAVOK 18/13 Q1013 NOSIG RMK FEW220

2010/08/10 06:50
EKRK 100650Z AUTO 15007KT 9999NDV NCD 17/12 Q1016

2010/08/10 06:50
EKSP 100650Z 15008KT 9999 FEW035 SCT200 17/14 Q1014 NOSIG

2010/08/10 06:53
EKVG 100653Z 26004KT 230V330 9999 FEW004 SCT022 11/10 Q1008 RMK/RWY 13-31 CLOSED DUE WIP NOTAM E0050/10 WIND 850FT 02004KT

2010/08/10 06:50
EKYT 100650Z 21007KT 9999 BKN045 17/12 Q1014 NOSIG

2010/08/10 06:50
ETNG 100650Z 24004KT CAVOK 18/13 Q1015 NOSIG

2010/08/10 06:50
LSGG 100650Z VRB02KT 9999 FEW073 21/15 Q1018 NOSIG

2010/08/10 06:50
LSZA 100650Z VRB01KT 9999 SCT045 BKN060 20/18 Q1017 NOSIG

2010/08/10 06:50
LSZB 100650Z VRB03KT 9999 SCT080 18/15 Q1018 NOSIG

2010/08/10 06:50
LSZH 100650Z VRB02KT 9999 FEW055 19/15 Q1018 NOSIG

2010/08/10 06:53
KOQT 100653Z AUTO 00000KT 5SM BR CLR 26/24 A3002 RMK AO2 SLP145 T02560239 TSNO 

2010/08/10 06:53
KMSY 100653Z 27004KT 9SM FEW015 BKN250 26/25 A2992 RMK AO2 SLP134 T02560250 

2010/08/10 06:50
LXGB 100650Z 30004KT CAVOK 23/15 Q1016 NOSIG

2010/08/10 07:00
OYAS 100700Z 00000KT 9000 FEW020 BKN090 34/25 Q1008

2010/08/10 06:53
KTCS 100653Z AUTO 30007KT 10SM CLR 23/12 A3008 RMK AO2 SLP096 T02330122 403220178 TSNO 

2010/08/10 06:53
KTLH 100653Z 10007KT 10SM CLR 27/23 A2992 RMK AO2 SLP132 T02670233 

2010/08/10 06:50
KDVO 100650Z AUTO 35004KT 10SM CLR 10/10 A2992 RMK AO2

2010/08/10 06:52
KEST 100652Z AUTO 12005KT 7SM CLR 24/23 A2993 RMK AO2 SLP125 T02390233

2010/08/10 06:50
KFET 100650Z AUTO 00000KT 7SM CLR 27/25 A2986 RMK AO2 T02670254

2010/08/10 06:52
KFIT 100652Z AUTO 00000KT 7SM SCT070 BKN090 OVC110 23/21 A2992 RMK AO2 RAB08E42 SLP128 P0001 T02280211

2010/08/10 06:50
KGCD 100650Z AUTO 25006KT 10SM CLR 17/01 A2994 RMK AO2 T01700013

2010/08/10 06:52
KGMJ 100652Z AUTO 00000KT 10SM CLR 27/21 A2993 RMK AO2

2010/08/10 06:50
KHDE 100650Z AUTO 16004KT 10SM SCT090 BKN120 25/21 A2990 RMK AO2 LTG DSNT N T02500205

2010/08/10 06:52
KHIE 100652Z AUTO 00000KT 4SM BR OVC004 17/17 A2994 RMK AO2 SLP133 T01670167

2010/08/10 06:50
KHJH 100650Z AUTO 18005KT 10SM CLR 27/22 A2987 RMK AO2 T02650215

2010/08/10 06:52
KHUT 100652Z AUTO 16010KT 10SM BKN100 BKN120 29/21 A2991 RMK AO2 SLP096 T02940206

2010/08/10 06:52
KIAD 100652Z 21004KT 7SM CLR 25/21 A2994 RMK AO2 SLP136 T02500211

2010/08/10 06:50
KIBM 100650Z AUTO 21003KT 10SM CLR 16/16 A3008 RMK AO2 T01570155 402960157

2010/08/10 06:50
KIDP 100650Z AUTO 19005KT 10SM CLR 25/21 A2991 RMK AO2

2010/08/10 06:52
KIEN 100652Z AUTO 13020G29KT 10SM -RA SCT110 19/17 A2990 RMK AO2 PK WND 15032/0611 TSB06E27 SLP084 P0002 T01940167 403560156

2010/08/10 06:52
KIJD 100652Z AUTO 00000KT 7SM BKN100 22/20 A2993 RMK AO2 RAE19 SLP133 P0000 T02170200

2010/08/10 06:52
KIOW 100652Z AUTO 00000KT 10SM FEW085 24/23 A2991 RMK AO2 LTG DSNT SW SLP122 T02440233

2010/08/10 06:52
KISN 100652Z 28003KT 10SM -TSRA BKN100 BKN120 21/17 A2982 RMK AO2 LTG DSNT ALQDS TSE0557B07RAB03E30B46GSB14E18 SLP086 P0008 T02110172

2010/08/10 06:50
KJYR 100650Z AUTO 14006KT 5SM BR CLR 25/24 A2986 RMK AO2

2010/08/10 06:50
KLAM 100650Z AUTO 00000KT 10SM CLR 20/07 A3028 RMK AO2

2010/08/10 06:50
KLCG 100650Z AUTO 13003KT 5SM BR OVC006 25/25 A2985 RMK AO2 LTG DSNT N T02510245

2010/08/10 06:51
KLHM 100651Z AUTO 14010KT 10SM CLR 22/12 A2982 RMK AO1 T02210120

2010/08/10 06:52
KLWC 100652Z AUTO 12005KT 10SM CLR 25/23 A2989 RMK AO2 SLP111 T02500228

2010/08/10 06:50
KLXN 100650Z AUTO 31020G27KT 10SM SCT023 SCT039 BKN050 22/19 A2996 RMK AO2 LTG DSNT SW THRU NE T02190187

2010/08/10 06:52
KMDH 100652Z AUTO 00000KT 4SM BR FEW090 26/23 A2995 RMK AO2 SLP137 T02560233 TSNO

2010/08/10 06:52
KMEB 100652Z AUTO 00000KT 10SM CLR 24/23 A3002 RMK AO2 SLP161 T02390233

2010/08/10 06:52
KMFD 100652Z AUTO 22004KT 7SM BKN044 24/18 A2998 RMK AO2 SLP140 T02440183

2010/08/10 06:52
KMHK 100652Z AUTO 22008KT 10SM CLR 29/21 A2987 RMK AO2 SLP100 T02940206

2010/08/10 06:52
KMKE 100652Z 00000KT 4SM BR FEW250 23/21 A2995 RMK AO2 SLP138 T02280211

2010/08/10 06:50
KMLE 100650Z AUTO 00000KT 10SM CLR 27/24 A2984 RMK AO2 T02730242

2010/08/10 06:52
KMLI 100652Z 09004KT 10SM CLR 25/23 A2990 RMK AO2 SLP121 T02500233

2010/08/10 06:50
KMMH 100650Z AUTO 00000KT 10SM CLR 11/02 A3017 RMK AO1

2010/08/10 06:52
KMWH 100652Z AUTO 31007KT 10SM CLR 20/09 A2979 RMK AO2 SLP081 T02000089

2010/08/10 06:55
KMYR 100655Z AUTO 20005KT 10SM SCT020 SCT027 BKN120 28/24 A3005 RMK AO1

2010/08/10 06:55
KOAJ 100655Z AUTO 00000KT 10SM CLR 23/22 A3003 RMK AO1

2010/08/10 06:50
KOGA 100650Z AUTO 01010G20KT 10SM RA SCT085 OVC120 19/17 A3000 RMK AO2 LTG DSNT NE AND S P0006 T01920165 403320176

2010/08/10 06:50
KOJA 100650Z AUTO 19003KT 10SM CLR 28/21 A2994 RMK AO2

2010/08/10 06:52
KOKB 100652Z AUTO 00000KT 8SM FEW011 13/12 A2991 RMK AO2 SLP127 T01330117 $

2010/08/10 06:52
KOKC 100652Z 16007KT 10SM CLR 27/21 A2993 RMK AO2 SLP114 T02670211 $

2010/08/10 06:51
KOKM 100651Z AUTO 21004KT 10SM CLR 29/22 A2993 RMK AO1

2010/08/10 06:52
KOMA 100652Z 13005KT 10SM FEW250 28/26 A2985 RMK AO2 SLP095 CONS LTG DSNT NW AND NE T02780256

2010/08/10 06:50
KONL 100650Z AUTO 13005KT 2 1/2SM BR BKN004 OVC021 24/23 A2988 RMK AO2 LTG DSNT ALQS T02370232

2010/08/10 06:52
KORE 100652Z AUTO 16003KT 6SM BR OVC095 22/21 A2993 RMK AO2 RAE20 SLP130 P0001 T02170206

2010/08/10 06:50
KORS 100650Z AUTO 18006KT 10SM BKN037 OVC043 14/12 A2993 RMK AO2

2010/08/10 06:50
KPLU 100650Z AUTO 28005KT 10SM OVC011 14/12 A2996 RMK AO2

2010/08/10 06:53
KESF 100653Z AUTO 00000KT 10SM CLR 26/24 A2994 RMK AO2 SLP138 T02560239

2010/08/10 06:53
KFAT 100653Z 31008KT 10SM CLR 24/14 A2981 RMK AO2 SLP091 T02440144

2010/08/10 06:53
KFAY 100653Z AUTO 18004KT 10SM CLR 24/23 A3001 RMK AO2 SLP154 T02440228

2010/08/10 06:53
KFCM 100653Z AUTO 11003KT 10SM CLR 25/21 A2993 RMK AO2 SLP127 T02500211

2010/08/10 06:53
KFFC 100653Z AUTO 00000KT 4SM BR CLR 23/21 A3001 RMK AO2 SLP154 T02280211

2010/08/10 06:53
KFHR 100653Z AUTO 22005KT 10SM FEW100 12/10 A2995 RMK AO2 SLP141 T01170100

2010/08/10 06:53
KFMN 100653Z AUTO 00000KT 10SM OVC120 19/08 A3015 RMK AO2 SLP147 T01890078 403110172

2010/08/10 06:53
KFSM 100653Z AUTO 00000KT 10SM CLR 28/25 A2992 RMK AO2 SLP123 T02830250

2010/08/10 06:53
KFTY 100653Z 00000KT 5SM BR CLR 24/22 A3001 RMK AO2 SLP151 T02390217

2010/08/10 06:53
KFUL 100653Z 00000KT 8SM CLR 17/13 A2990 RMK AO2 SLP125 T01670128

2010/08/10 06:53
KFYV 100653Z AUTO 18004KT 10SM CLR 24/22 A2998 RMK AO2 SLP132 T02390222

2010/08/10 06:53
KGEG 100653Z 18006KT 10SM BKN130 19/04 A2980 RMK AO2 SLP074 T01890044

2010/08/10 06:53
KGFK 100653Z 20004KT 10SM FEW250 22/20 A2989 RMK AO2 SLP117 T02220200

2010/08/10 06:53
KGLH 100653Z AUTO 16006KT 10SM CLR 25/24 A2994 RMK AO2 SLP142 T02500239

2010/08/10 06:53
KGLR 100653Z AUTO 31004KT 3SM BR OVC003 21/21 A2999 RMK AO2 CIG 001V006 SLP146 T02110211

2010/08/10 06:53
KGMU 100653Z AUTO 20003KT 9SM CLR 26/21 A3006 RMK AO2 SLP165 T02610211

2010/08/10 06:53
KGPT 100653Z AUTO 00000KT 5SM BR CLR 27/25 A2991 RMK AO2 SLP128 T02720250

2010/08/10 06:53
KGRB 100653Z AUTO 00000KT 1 3/4SM BR CLR 22/21 A2996 RMK AO2 SLP140 T02220211 TSNO

2010/08/10 06:53
KGRI 100653Z AUTO 14008KT 9SM CLR 26/24 A2986 RMK AO2 SLP089 T02610239

2010/08/10 06:53
KGRR 100653Z AUTO 00000KT 4SM BR CLR 21/20 A2997 RMK AO2 VIS 2 RWY 8R SLP144 T02110200

2010/08/10 06:53
KGSH 100653Z AUTO 02003KT 1/4SM FG BKN046 21/21 A2997 RMK AO2 SLP143 T02060206

2010/08/10 06:53
KGSP 100653Z AUTO 00000KT 10SM CLR 25/22 A3004 RMK AO2 SLP156 T02500222

2010/08/10 06:53
KGUP 100653Z AUTO 00000KT 10SM CLR 15/12 A3024 RMK AO2 SLP081 T01500117 402720117

2010/08/10 06:53
KGVL 100653Z AUTO 09003KT 10SM BKN100 26/21 A3007 RMK AO2 SLP162 T02610206

2010/08/10 06:53
KGWO 100653Z AUTO 00000KT 8SM CLR 24/24 A2995 RMK AO2 SLP137 T02440239

2010/08/10 06:53
KHBG 100653Z AUTO 00000KT 4SM BR CLR 24/24 A2994 RMK AO2 SLP135 T02440244

2010/08/10 06:53
KHEI 100653Z AUTO 10008KT 10SM CLR 19/15 A2984 RMK AO2 SLP080 T01940150 403390150

2010/08/10 06:53
KHGR 100653Z AUTO 15003KT 8SM CLR 26/19 A2994 RMK AO2 SLP141 T02610194

2010/08/10 06:53
KHIB 100653Z AUTO 00000KT 1/4SM FG VV001 17/17 A2998 RMK AO2 SLP146 T01720167

2010/08/10 06:53
KHIO 100653Z AUTO 33005KT 10SM SCT024 SCT036 13/10 A3000 RMK AO2 SLP156 T01330100 TSNO

2010/08/10 06:53
KHJO 100653Z AUTO 30007KT 10SM CLR 24/16 A2981 RMK AO2 SLP095 T02390156

2010/08/10 06:53
KHKA 100653Z AUTO 00000KT 5SM BR CLR 27/25 A2994 RMK AO2 SLP134 T02670250

2010/08/10 06:53
KPKD 100653Z AUTO 14005KT 10SM CLR 22/19 A2996 RMK AO2 SLP137 T02170189

2010/08/10 06:53
KPMD 100653Z AUTO 00000KT 10SM CLR 20/04 A2992 RMK AO2 SLP104 T02000039

2010/08/10 06:53
KPQL 100653Z AUTO 00000KT 4SM BR CLR 26/25 A2992 RMK AO2 SLP133 T02560250

2010/08/10 06:53
KPRB 100653Z AUTO A2990 RMK AO2 SLPNO PWINO FZRANO TSNO

2010/08/10 06:53
KPRC 100653Z AUTO 19007KT 10SM CLR 19/07 A3013 RMK AO2 SLP117 T01890072 402940117

2010/08/10 06:53
KPSC 100653Z AUTO 22005KT 10SM CLR 20/11 A2983 RMK AO2 SLP097 T02000106

2010/08/10 06:53
KPSP 100653Z AUTO 00000KT 10SM CLR 27/08 A2976 RMK AO2 SLP074 T02670083 TSNO

2010/08/10 06:53
KPSX 100653Z AUTO 20009G18KT 10SM CLR 31/26 A2991 RMK AO2 SLP127 T03060256

2010/08/10 06:53
KPUW 100653Z AUTO 23005KT 10SM CLR 17/04 A2986 RMK AO2 SLP096 T01720039

2010/08/10 06:53
KRAC 100653Z AUTO 00000KT 3SM BR CLR 22/21 A2996 RMK AO2 SLP141 T02220206

2010/08/10 06:53
KRBG 100653Z AUTO 02003KT 10SM CLR 18/12 A2997 RMK AO2 SLP146 T01780122

2010/08/10 06:53
KRHI 100653Z AUTO 00000KT 9SM CLR 17/16 A3002 RMK AO2 SLP158 T01720161

2010/08/10 06:50
KPNA 100650Z AUTO 29004KT 10SM CLR 08/05 A3021 RMK AO2 T00810046

2010/08/10 06:52
KPPF 100652Z AUTO 00000KT 10SM CLR 27/22 A2993 RMK AO2 SLP120 T02670217

2010/08/10 06:50
KPTS 100650Z AUTO 19004KT 10SM CLR 28/23 A2992 RMK AO2 T02760230

2010/08/10 06:47
KPVJ 100647Z AUTO 16003KT 10SM CLR 27/22 A2993 RMK AO2

2010/08/10 06:52
KPWK 100652Z AUTO 00000KT 10SM CLR 25/23 A2997 RMK AO2 SLP143 T02500228

2010/08/10 06:52
KPYM 100652Z AUTO VRB03KT 6SM VCTS HZ FEW018 BKN070 OVC095 23/20 A2993 RMK AO2 LTG DSNT SE TSB24RAE49 SLP132 P0018 T02280200

2010/08/10 06:52
KRAP 100652Z AUTO 17007KT 10SM CLR 21/16 A2990 RMK AO2 SLP090 T02110161 403330161

2010/08/10 06:52
KSGF 100652Z 16006KT 10SM CLR 27/23 A2995 RMK AO2 SLP126 T02720233

2010/08/10 06:53
KSNL 100653Z AUTO 18007KT 10SM CLR 28/20 A2994 RMK AO2

2010/08/10 06:55
KSOP 100655Z AUTO 23005KT 10SM CLR 25/23 A3002 RMK AO1

2010/08/10 06:52
KSPI 100652Z AUTO 18004KT 10SM CLR 25/22 A2994 RMK AO2 LTG DSNT N SLP131 T02500222

2010/08/10 06:52
KSPS 100652Z AUTO 17009KT 10SM CLR 29/19 A2991 RMK AO2 SLP109 P0006 T02890189

2010/08/10 06:50
KSRE 100650Z AUTO 16004KT 10SM CLR 27/19 A2993 RMK AO2

2010/08/10 06:52
KSUX 100652Z 11003KT 8SM CLR 25/24 A2984 RMK AO2 LTG DSNT NW RAE0557 SLP096 P0000 T02500239

2010/08/10 06:45
KSVC 100645Z AUTO 35007KT 10SM CLR 18/09 A3017 RMK AO2

2010/08/10 06:52
KTAN 100652Z AUTO 00000KT 5SM -RA BR FEW060 BKN075 OVC120 21/21 A2990 RMK AO2 LTG DSNT E TSB20E35RAE19B46 SLP125 P0014 T02110206

2010/08/10 06:54
KTMK 100654Z AUTO 00000KT 10SM OVC022 14/12 A3003 RMK AO2

2010/08/10 06:52
KTOL 100652Z 20003KT 1 3/4SM BR CLR 22/22 A2995 RMK AO2 SLP137 T02220217

2010/08/10 06:52
KTRM 100652Z AUTO 33008KT 10SM CLR 29/08 A2971 RMK AO2 SLP065 T02890083

2010/08/10 06:55
KUDG 100655Z 19003KT 7SM CLR 23/22 A3004 RMK AO1

2010/08/10 06:52
KUGN 100652Z AUTO 00000KT 1 3/4SM BR CLR 22/21 A2995 RMK AO2 SLP126 T02170206

2010/08/10 06:52
KVTN 100652Z AUTO 28006KT 10SM -RA SCT055 OVC100 21/19 A2990 RMK AO2 LTG DSNT SE-SW TSE15B18E38 SLP099 P0001 T02110194

2010/08/10 06:54
KWDG 100654Z AUTO 20004KT 10SM CLR 26/21 A2992 RMK AO2

2010/08/10 06:48
KWWR 100648Z AUTO 20007KT 10SM CLR 26/19 A2996 RMK AO2 T02600186

2010/08/10 06:52
KABI 100652Z 17005KT 10SM CLR 29/18 A2998 RMK AO2 SLP118 T02890178

2010/08/10 06:53
KABR 100653Z AUTO 15006KT 10SM CLR 24/22 A2988 RMK AO2 SLP105 T02390217

2010/08/10 06:53
KACV 100653Z AUTO 20007KT 10SM OVC005 12/10 A2994 RMK AO2 SLP145 T01170100

2010/08/10 06:53
KAEX 100653Z 00000KT 10SM CLR 27/24 A2992 RMK AO2 SLP132 T02720239

2010/08/10 06:53
KAGS 100653Z AUTO 00000KT 4SM BR CLR 23/22 A3001 RMK AO2 SLP159 T02280222 TSNO

2010/08/10 06:53
KALI 100653Z AUTO 00000KT 10SM CLR 27/26 A2993 RMK AO2 SLP130 T02670256

2010/08/10 06:53
KALW 100653Z AUTO 19010KT 10SM CLR 19/06 A2987 RMK AO2 SLP107 T01940061

2010/08/10 06:53
KAMA 100653Z AUTO 17011KT 10SM CLR 22/17 A3005 RMK AO2 SLP117 T02170172

2010/08/10 06:53
KAMW 100653Z AUTO 18006KT 10SM VCTS FEW060 SCT075 23/22 A2993 RMK AO2 LTG DSNT ALQDS RAB14E34 SLP123 P0000 T02330217

2010/08/10 06:53
KANB 100653Z AUTO 00000KT 7SM CLR 27/22 A2999 RMK AO2 SLP142 T02670217

2010/08/10 06:53
KAOO 100653Z AUTO 00000KT 7SM CLR 20/18 A3001 RMK AO2 SLP148 T02000178

2010/08/10 06:53
KASD 100653Z AUTO 00000KT 6SM BR FEW001 25/23 A2992 RMK AO2 SLP130 T02500233

2010/08/10 06:53
KASX 100653Z AUTO 22003KT 10SM CLR 20/19 A2996 RMK AO2 SLP143 T02000194

2010/08/10 06:53
KATY 100653Z AUTO 13006KT 10SM BKN029 24/22 A2991 RMK AO2 SLP114 T02390222

2010/08/10 06:53
KAUS 100653Z 21004KT 10SM CLR 27/24 A2994 RMK AO2 SLP125 T02670239

2010/08/10 06:53
KAWM 100653Z AUTO 00000KT 10SM CLR 26/25 A2993 RMK AO2 SLP128 T02610250

2010/08/10 06:53
KAXN 100653Z AUTO 14005KT 8SM CLR 23/21 A2996 RMK AO2 SLP137 T02280206 $

2010/08/10 06:53
KAZO 100653Z AUTO 00000KT 1/4SM FG VV001 20/19 A2997 RMK AO2 SLP146 T02000194

2010/08/10 06:53
KBDE 100653Z AUTO 19003KT 10SM CLR 22/20 A2992 RMK AO2 SLP126 T02170200

2010/08/10 06:53
KBEH 100653Z AUTO 00000KT 6SM BR CLR 21/20 A2995 RMK AO2 SLP138 T02110200

2010/08/10 06:53
KEPH 100653Z AUTO 33014G22KT 10SM FEW095 20/09 A2978 RMK AO2 SLP076 T02000094

2010/08/10 06:53
KEQY 100653Z AUTO 00000KT 8SM CLR 23/22 A3003 RMK AO2 SLP165 T02330222

2010/08/10 06:53
KMEM 100653Z 00000KT 10SM FEW250 28/24 A2994 RMK AO2 SLP134 T02830244

2010/08/10 06:55
KMEZ 100655Z AUTO 00000KT 10SM CLR 25/23 A2997 RMK AO2

2010/08/10 06:53
KMFE 100653Z AUTO 15007KT 9SM FEW020 28/26 A2992 RMK AO2 SLP128 T02830261 $

2010/08/10 06:53
KMFR 100653Z AUTO 00000KT 10SM CLR 20/09 A2993 RMK AO2 SLP124 T02000089

2010/08/10 06:53
KMHE 100653Z AUTO 15007KT 10SM OVC014 25/23 A2987 RMK AO2 SLP102 T02500233 TSNO

2010/08/10 06:53
KMIC 100653Z AUTO 00000KT 9SM CLR 23/21 A2993 RMK AO2 SLP127 T02280211

2010/08/10 06:53
KMIW 100653Z AUTO 17003KT 8SM BKN070 25/24 A2990 RMK AO2 LTG DSNT S-NW SLP115 T02500239

2010/08/10 06:53
KMKL 100653Z AUTO 00000KT 6SM BR CLR 27/25 A2995 RMK AO2 SLP136 T02670250

2010/08/10 06:53
KMMV 100653Z AUTO 24005KT 10SM BKN033 13/11 A3000 RMK AO2 SLP159 T01330111

2010/08/10 06:53
KMOD 100653Z AUTO 34007KT 10SM CLR 21/13 A2983 RMK AO2 SLP100 T02110133

2010/08/10 06:53
KMRB 100653Z AUTO 22004KT 9SM CLR 24/19 A2995 RMK AO2 SLP136 T02440189

2010/08/10 06:53
KMSL 100653Z AUTO 00000KT 4SM BR CLR 24/23 A2998 RMK AO2 SLP144 T02440233

2010/08/10 06:53
KMSP 100653Z 12003KT 10SM CLR 26/22 A2994 RMK AO2 SLP130 T02610222

2010/08/10 06:53
KMSY 100653Z 27004KT 9SM FEW015 BKN250 26/25 A2992 RMK AO2 SLP134 T02560250

2010/08/10 06:53
KMYF 100653Z AUTO 32003KT 10SM SCT011 17/14 A2992 RMK AO2 SLP129 T01720144 TSNO

2010/08/10 06:53
KMYV 100653Z AUTO 14005KT 10SM CLR 19/12 A2982 RMK AO2 SLP099 T01940117

2010/08/10 06:53
KNEW 100653Z AUTO 05007KT 9SM CLR 29/26 A2992 RMK AO2 SLP124 T02890256 TSNO

2010/08/10 06:53
KOAK 100653Z 34004KT 10SM OVC006 14/11 A2993 RMK AO2 SLP134 T01390111

2010/08/10 06:53
KODX 100653Z AUTO 13006KT 4SM BR OVC006 25/24 A2986 RMK AO2 LTG DSNT W-N TSE26 SLP097 T02500239

2010/08/10 06:53
KOMK 100653Z AUTO 35010G16KT 10SM BKN095 17/11 A2984 RMK AO2 SLP099 T01670106

2010/08/10 06:53
KONT 100653Z 22005KT 10SM CLR 18/13 A2991 RMK AO2 SLP114 T01830128

2010/08/10 06:51
KORF 100651Z 22006KT 10SM CLR 25/23 A2998 RMK AO2 SLP150 T02500233 $

2010/08/10 06:53
KOSH 100653Z AUTO 00000KT 5SM BR CLR 23/21 A2996 RMK AO2 SLP130 T02280211

2010/08/10 06:53
KOVS 100653Z AUTO 00000KT 1/4SM FG VV001 23/23 A2994 RMK AO2 SLP134 T02330228

2010/08/10 06:53
KPAE 100653Z AUTO 22005KT 10SM FEW011 BKN044 14/12 A2997 RMK AO2 SLP146 T01440122

2010/08/10 06:53
KPAH 100653Z AUTO 00000KT 7SM CLR 26/24 A2994 RMK AO2 SLP131 T02610244

2010/08/10 06:53
KPBF 100653Z AUTO 00000KT 10SM CLR 28/24 A2993 RMK AO2 SLP130 T02780239

2010/08/10 06:53
KPDK 100653Z AUTO 00000KT 10SM CLR 26/20 A3002 RMK AO2 SLP143 T02560200

2010/08/10 06:53
KPDT 100653Z AUTO 31009KT 10SM CLR 17/06 A2988 RMK AO2 WSHFT 0628 SLP104 T01670061

2010/08/10 06:53
KPDX 100653Z 34005KT 10SM OVC038 16/12 A3000 RMK AO2 SLP157 T01560117

2010/08/10 06:53
KPGA 100653Z AUTO 20005KT 10SM SCT120 25/01 A3003 RMK AO2 SLP100 T02500006 403220172

2010/08/10 06:53
KPIR 100653Z AUTO 10006KT 10SM CLR 24/23 A2984 RMK AO2 SLP087 T02390228

2010/08/10 06:53
KSPW 100653Z AUTO 10007KT 7SM SCT036 24/24 A2991 RMK AO2 SLP119 T02440239

2010/08/10 06:53
KSSF 100653Z AUTO 13003KT 10SM CLR 27/23 A2995 RMK AO2 SLP126 T02720233

2010/08/10 06:53
KSTC 100653Z AUTO 00000KT 7SM CLR 21/20 A2995 RMK AO2 SLP141 T02060200 $

2010/08/10 06:53
KSTP 100653Z AUTO 00000KT 10SM CLR 24/22 A2994 RMK AO2 SLP130 T02390222

2010/08/10 06:53
KSTS 100653Z AUTO 12005KT 10SM OVC004 12/11 A2989 RMK AO2 SLP117 T01220111

2010/08/10 06:53
KTCC 100653Z AUTO 21005KT 10SM FEW110 23/17 A3006 RMK AO2 SLP107 T02330167 403390183

2010/08/10 06:53
KTCL 100653Z AUTO 00000KT 6SM HZ CLR 27/24 A2995 RMK AO2 SLP139 T02720239

2010/08/10 06:53
KTIW 100653Z 25006KT 10SM BKN014 OVC019 13/11 A2997 RMK AO2 SLP147 T01330111

2010/08/10 06:53
KTOI 100653Z AUTO 00000KT 5SM BR CLR 24/23 A2996 RMK AO2 SLP139 T02390233

2010/08/10 06:53
KTTD 100653Z 30004KT 10SM OVC041 16/12 A2998 RMK AO2 SLP150 T01610117

2010/08/10 06:53
KBFD 100653Z AUTO 00000KT 1 3/4SM BR FEW070 BKN090 OVC110 19/18 A3002 RMK AO2 SLP147 T01890183

2010/08/10 06:53
KBFI 100653Z 20004KT 10SM BKN017 OVC055 15/12 A2997 RMK AO2 SLP147 T01500117

2010/08/10 06:53
KBFM 100653Z AUTO 36003KT 9SM CLR 27/24 A2994 RMK AO2 SLP137 T02670244

2010/08/10 06:53
KBHM 100653Z 00000KT 9SM FEW070 28/23 A2999 RMK AO2 SLP144 T02780233

2010/08/10 06:53
KBIV 100653Z AUTO 00000KT 2 1/2SM BR SCT001 21/19 A2997 RMK AO2 SLP144 T02110194

2010/08/10 06:53
KBKE 100653Z AUTO 18004KT 10SM CLR 13/08 A2991 RMK AO2 SLP108 T01330083

2010/08/10 06:53
KBLI 100653Z AUTO 17008KT 10SM OVC090 15/13 A2994 RMK AO2 SLP145 T01500128

2010/08/10 06:53
KBMQ 100653Z AUTO 18005KT 10SM CLR 27/22 A2999 RMK AO2 SLP132 T02720217 $

2010/08/10 06:53
KBNA 100653Z 00000KT 9SM BKN110 BKN200 26/24 A2998 RMK AO2 SLP143 T02610244

2010/08/10 06:55
KBOW 100655Z AUTO 09008KT 10SM CLR 24/23 A2992 RMK AO2

2010/08/10 06:53
KBPK 100653Z AUTO 00000KT 8SM CLR 27/24 A2995 RMK AO2 SLP126 T02720239

2010/08/10 06:53
KBPT 100653Z AUTO 00000KT 10SM CLR 26/25 A2991 RMK AO2 SLP129 T02610250

2010/08/10 06:53
KBRD 100653Z AUTO 00000KT 3SM BR CLR 21/19 A2996 RMK AO2 SLP138 T02060189

2010/08/10 06:53
KBRO 100653Z 17005KT 10SM CLR 28/26 A2991 RMK AO2 SLP128 T02830261

2010/08/10 06:53
KBTL 100653Z AUTO 00000KT 3SM BR CLR 21/21 A2998 RMK AO2 SLP148 T02110206

2010/08/10 06:51
KBVE 100651Z AUTO 00000KT CLR 26/25 A2991 RMK AO2 SLP128 T02610250 TSNO $

2010/08/10 06:53
KBWG 100653Z AUTO 13003KT 10SM CLR 27/23 A2997 RMK AO2 SLP142 T02670233

2010/08/10 06:51
KCAK 100651Z 23004KT 8SM BKN065 OVC100 24/19 A2997 RMK AO2 SLP137 T02440194

2010/08/10 06:53
KCCR 100653Z AUTO 22006KT 10SM CLR 15/09 A2988 RMK AO2 SLP105 T01500094

2010/08/10 06:55
KCDN 100655Z AUTO 00000KT 8SM CLR 25/24 A3003 RMK A02 P000

2010/08/10 06:55
KCKI 100655Z AUTO 00000KT 23/23 A3001 RMK AO2 PWINO

2010/08/10 06:53
KCLL 100653Z AUTO 19003KT 10SM CLR 28/23 A2993 RMK AO2 SLP130 T02830233

2010/08/10 06:53
KCLM 100653Z AUTO 29004KT 10SM OVC007 12/11 A2997 RMK AO2 SLP149 T01220106

2010/08/10 06:53
KCMI 100653Z AUTO 21005KT 8SM SCT075 OVC100 27/24 A2996 RMK AO2 LTG DSNT NW SLP138 T02670239

2010/08/10 06:53
KCMX 100653Z AUTO 00000KT 9SM CLR 17/16 A2996 RMK AO2 SLP143 T01670161 $

2010/08/10 06:53
KCNM 100653Z AUTO 22006KT 10SM CLR 21/16 A3000 RMK AO2 SLP100 T02060156 403440206

2010/08/10 06:53
KCOT 100653Z AUTO 14007KT 10SM CLR 27/24 A2993 RMK AO2 SLP126 T02720239

2010/08/10 06:51
KCRP 100651Z 00000KT 10SM FEW018 27/26 A2993 RMK AO2 SLP132 T02670256

2010/08/10 06:53
KCRQ 100653Z 00000KT 10SM BKN011 18/14 A2991 RMK AO2 SLP125 T01780144

2010/08/10 06:53
KCSV 100653Z AUTO 00000KT 8SM CLR 24/21 A3007 RMK AO2 SLP155 T02440206

2010/08/10 06:53
KCXO 100653Z AUTO 00000KT 10SM CLR 25/23 A2992 RMK AO2 SLP129 T02500233

2010/08/10 06:51
KDAG 100651Z AUTO 25008KT 10SM CLR 25/00 A2987 RMK AO2 SLP087 T02500000 TSNO

2010/08/10 06:53
KDAN 100653Z AUTO 22003KT 6SM BR CLR 23/21 A3001 RMK AO2 SLP149 T02330211

2010/08/10 06:53
KDBQ 100653Z AUTO 05003KT 9SM CLR 24/23 A2994 RMK AO2 SLP130 T02390233

2010/08/10 06:53
KDCU 100653Z AUTO 00000KT 5SM BR CLR 24/23 A2998 RMK AO2 SLP143 T02440228

2010/08/10 06:53
KDEW 100653Z AUTO 14006KT 10SM CLR 16/05 A2979 RMK AO2 SLP079 T01560050

2010/08/10 06:53
KDLS 100653Z AUTO 29013G20KT 10SM CLR 19/09 A2988 RMK AO2 SLP118 T01890089

2010/08/10 06:53
KDMN 100653Z AUTO 22004KT 10SM CLR 21/10 A3005 RMK AO2 SLP096 T02110100 403440167

2010/08/10 06:53
KDNL 100653Z AUTO 13003KT 10SM CLR 26/22 A3002 RMK AO2 SLP159 T02560217 $

2010/08/10 06:53
KDRT 100653Z AUTO 12010G16KT 10SM CLR 30/22 A2992 RMK AO2 SLP112 T03000222

2010/08/10 06:53
KDVT 100653Z 00000KT 10SM CLR 30/10 A2983 RMK AO2 SLP072 T03000100 403780244

2010/08/10 06:53
KDWH 100653Z AUTO 22003KT 10SM CLR 26/24 A2992 RMK AO2 SLP130 T02560239

2010/08/10 06:55
KDYB 100655Z AUTO 00000KT 10SM CLR 25/25 A3000 RMK AO1

2010/08/10 06:53
KELN 100653Z AUTO 32017G24KT 10SM CLR 16/09 A2986 RMK AO2 PK WND 32026/0623 SLP102 T01610089

2010/08/10 06:45
KNBG 100645Z AUTO 00000KT 1 3/4SM BR CLR A2992 RMK AO2 PWINO FZRANO $

2010/08/10 06:53
KTVC 100653Z AUTO 19003KT 7SM CLR 21/21 A2995 RMK AO2 SLP139 T02110206

2010/08/10 06:53
KTVL 100653Z AUTO 00000KT 10SM CLR 11/07 A3012 RMK AO2 SLP144 T01110072

2010/08/10 06:53
KTVR 100653Z AUTO 10003KT 6SM BR CLR 25/23 A2993 RMK AO2 SLP141 T02500233

2010/08/10 06:53
KUTS 100653Z AUTO 20004KT 1SM HZ CLR 27/23 A2994 RMK AO2 SLP130 T02720233

2010/08/10 06:53
KVCB 100653Z AUTO 21006KT 10SM CLR 17/12 A2982 RMK AO2 SLP097 T01720117

2010/08/10 06:53
KVGT 100653Z AUTO 33006KT 10SM CLR 27/M03 A2985 RMK AO2 SLP073 T02721033 TSNO

2010/08/10 06:53
KVPC 100653Z AUTO 00000KT 7SM CLR 24/22 A3001 RMK AO2 SLP147 T02390222

2010/08/10 06:53
KVPZ 100653Z AUTO 00000KT 10SM SCT036 BKN050 23/22 A2996 RMK AO2 SLP138 T02330222

2010/08/10 06:53
KVUO 100653Z AUTO 34004KT 10SM OVC037 16/12 A2999 RMK AO2 SLP156 T01560117

2010/08/10 06:53
KWVI 100653Z AUTO 09004KT 8SM OVC004 12/12 A2994 RMK AO2 SLP139 T01220117

2010/08/10 06:53
KXNA 100653Z AUTO 00000KT 10SM CLR 26/22 A2997 RMK AO2 SLP129 T02560217

2010/08/10 06:53
KYKM 100653Z AUTO 33014KT 10SM CLR 19/08 A2985 RMK AO2 SLP103 T01890083

2010/08/10 06:53
KHKS 100653Z AUTO 00000KT 10SM CLR 24/23 A2996 RMK AO2 SLP135 T02440233

2010/08/10 06:53
KHKY 100653Z AUTO 00000KT 8SM CLR 24/22 A3005 RMK AO2 SLP150 T02390222

2010/08/10 06:53
KHOT 100653Z AUTO 00000KT 10SM CLR 29/23 A2994 RMK AO2 SLP128 T02940233

2010/08/10 06:53
KHOU 100653Z 25005KT 10SM FEW250 28/24 A2991 RMK AO2 SLP132 T02780239

2010/08/10 06:53
KHQM 100653Z AUTO 27004KT 10SM OVC013 13/11 A3000 RMK AO2 SLP161 T01280106

2010/08/10 06:53
KHRI 100653Z AUTO 24013G21KT 10SM CLR 18/09 A2984 RMK AO2 SLP099 T01830094

2010/08/10 06:53
KHRO 100653Z AUTO 00000KT 9SM CLR 26/23 A2998 RMK AO2 SLP133 T02610233

2010/08/10 06:53
KHSI 100653Z AUTO 17007KT 10SM CLR 27/21 A2986 RMK AO2 SLP088 T02670211 $

2010/08/10 06:53
KHSV 100653Z 00000KT 5SM BR FEW200 26/24 A2998 RMK AO2 SLP142 T02560244

2010/08/10 06:53
KHYR 100653Z AUTO 00000KT 5SM BR CLR 18/17 A2999 RMK AO2 SLP149 T01780172

2010/08/10 06:53
KIAH 100653Z 00000KT 10SM FEW250 28/24 A2992 RMK AO2 SLP130 T02830244

2010/08/10 06:53
KICR 100653Z AUTO 12009KT 7SM BKN007 25/23 A2984 RMK AO2 SLP082 T02500228 TSNO

2010/08/10 06:53
KILM 100653Z AUTO 00000KT 10SM CLR 26/24 A3002 RMK AO2 SLP166 T02560239

2010/08/10 06:53
KJBR 100653Z AUTO 00000KT 10SM CLR 27/24 A2993 RMK AO2 SLP132 T02720244

2010/08/10 06:51
KJCT 100651Z AUTO 16011G16KT 10SM CLR 28/21 A2999 RMK AO2 SLP112 T02830211 TSNO

2010/08/10 06:55
KJZI 100655Z AUTO 00000KT 10SM CLR 27/27 A3000 RMK A02 P000

2010/08/10 06:53
KLBX 100653Z AUTO 00000KT 10SM CLR 26/24 A2992 RMK AO2 SLP133 T02560244

2010/08/10 06:53
KLCH 100653Z AUTO 00000KT 10SM CLR 26/25 A2992 RMK AO2 SLP138 T02610250

2010/08/10 06:53
KLFK 100653Z AUTO 00000KT 10SM CLR 28/24 A2992 RMK AO2 SLP127 T02780239

2010/08/10 06:53
KLFT 100653Z AUTO 00000KT 10SM CLR 25/24 A2993 RMK AO2 SLP134 T02500239

2010/08/10 06:53
KLGB 100653Z 29004KT 9SM CLR 16/14 A2991 RMK AO2 SLP127 T01610139

2010/08/10 06:53
KLIT 100653Z 18003KT 7SM SCT250 28/25 A2993 RMK AO2 SLP132 T02830250

2010/08/10 06:55
KLKR 100655Z AUTO 00000KT 1 3/4SM BR CLR 22/22 A3003 RMK AO2

2010/08/10 06:53
KLLQ 100653Z AUTO 00000KT 10SM CLR 27/24 A2995 RMK AO2 SLP136 T02670239

2010/08/10 06:53
KLMT 100653Z AUTO 26005KT 10SM SCT070 16/06 A2999 RMK AO2 SLP115 T01610056

2010/08/10 06:53
KLOL 100653Z AUTO VRB04KT 10SM CLR 24/M01 A2992 RMK AO2 SLP081 T02441011

2010/08/10 06:53
KLSE 100653Z AUTO 00000KT 9SM CLR 23/23 A2994 RMK AO2 SLP126 T02330228

2010/08/10 06:53
KLVJ 100653Z AUTO 26003KT 10SM CLR 27/24 A2993 RMK AO2 SLP134 T02670239

2010/08/10 06:53
KLVK 100653Z AUTO 29006KT 10SM CLR 13/11 A2989 RMK AO2 SLP121 T01280106 $

2010/08/10 06:53
KLVS 100653Z AUTO 06004KT 10SM CLR 14/13 A3026 RMK AO2 SLP138 T01390128 402890139

2010/08/10 06:53
KMAE 100653Z AUTO 30007KT 10SM CLR 21/16 A2982 RMK AO2 SLP095 T02110161

2010/08/10 06:53
KMCB 100653Z AUTO 00000KT 5SM BR CLR 24/22 A2996 RMK AO2 SLP139 T02390222

2010/08/10 06:53
KMCE 100653Z AUTO 33006KT 10SM CLR 21/14 A2982 RMK AO2 SLP096 T02110144

2010/08/10 06:53
KRKP 100653Z AUTO 17004KT 10SM CLR 29/26 A2991 RMK AO2 SLP131 T02890261

2010/08/10 06:53
KRMG 100653Z AUTO 00000KT 8SM CLR 25/23 A2999 RMK AO2 SLP144 T02500228

2010/08/10 06:53
KRNT 100653Z AUTO 19004KT 10SM SCT024 OVC032 16/12 A2996 RMK AO2 SLP151 T01560117

2010/08/10 06:53
KRUE 100653Z AUTO 00000KT 10SM CLR 28/24 A2992 RMK AO2 SLP122 T02780244

2010/08/10 06:53
KRWF 100653Z AUTO 10004KT 10SM CLR 24/22 A2991 RMK AO2 SLP122 T02390222

2010/08/10 06:53
KRWI 100653Z AUTO 00000KT 10SM CLR 23/22 A3000 RMK AO2 SLP158 T02330222

2010/08/10 06:53
KSAC 100653Z 19004KT 10SM CLR 16/12 A2984 RMK AO2 SLP105 T01610117

2010/08/10 06:53
KSAF 100653Z AUTO 36006KT 10SM CLR 15/11 A3020 RMK AO2 SLP118 T01500106 403110133

2010/08/10 06:51
KSAN 100651Z 27004KT 10SM OVC015 18/14 A2993 RMK AO2 SLP135 T01780144

2010/08/10 06:53
KSAT 100653Z 18007KT 10SM FEW015 27/24 A2997 RMK AO2 SLPNO T02720239

2010/08/10 06:53
KSBA 100653Z AUTO 13004KT 10SM CLR 14/13 A2989 RMK AO2 SLP120 T01440128

2010/08/10 06:53
KSBM 100653Z AUTO 00000KT 7SM CLR 22/22 A2996 RMK AO2 SLP139 T02220217

2010/08/10 06:53
KSDL 100653Z 00000KT 10SM CLR 32/12 A2984 RMK AO2 SLP075 T03220117 403890261

2010/08/10 06:53
KSEA 100653Z 21006KT 10SM BKN012 OVC065 14/12 A2997 RMK AO2 SLP155 T01390117

2010/08/10 06:53
KSFF 100653Z AUTO 00000KT 10SM CLR 16/05 A2980 RMK AO2 SLP077 T01610050

2010/08/10 06:53
KSHN 100653Z AUTO 23011KT 3SM BR OVC005 12/12 A2995 RMK AO2 CIG 004V008 SLP143 T01220117

2010/08/10 06:53
KSJC 100653Z 00000KT 10SM BKN009 15/12 A2992 RMK AO2 SLP130 T01500122

2010/08/10 06:53
KSMF 100653Z 15010KT 10SM CLR 17/12 A2982 RMK AO2 SLP096 T01720122

2010/08/10 06:53
KSNA 100653Z 25003KT 9SM CLR 18/13 A2991 RMK AO2 SLP126 T01830133

2010/08/10 06:53
KSNS 100653Z AUTO 31004KT 9SM OVC005 13/11 A2994 RMK AO2 SLP146 T01280111

2010/08/10 06:53
KSPB 100653Z AUTO 31004KT 10SM BKN036 13/11 A2999 RMK AO2 SLP155 T01330106

2010/08/10 06:52
PATA 100652Z AUTO 01003KT 10SM OVC090 14/13 A2960 RMK AO2 RAE03 SLP027 P0000 T01390128 TSNO

2010/08/10 06:53
PHJR 100653Z VRB04KT 10SM CLR 26/17 A3009 RMK AO2 SLP196 T02560172

2010/08/10 06:53
UMBB 100653Z 00000MPS 9000 TS BKN013CB 20/18 Q1017 TEMPO TSRA

2010/08/10 06:50
EKSB 100650Z 15006KT 130V190 9999 SCT040 17/12 Q1014

2010/08/10 06:50
EKSN 100650Z 21011KT 9999 FEW022 SCT045 16/13 Q1013

2010/08/10 06:50
EKVD 100650Z AUTO 16009KT //// ///////// 17/13 Q1014

2010/08/10 06:50
EKOD 100650Z 18005KT 150V210 CAVOK 17/14 Q1015

2010/08/10 06:50
EKKA 100650Z 20009KT 150V230 CAVOK 18/13 Q1013 NOSIG RMK FEW220

2010/08/10 06:50
EKSP 100650Z 15008KT 9999 FEW035 SCT200 17/14 Q1014 NOSIG

2010/08/10 06:50
EKCH 100650Z 20005KT 160V230 CAVOK 18/13 Q1016 NOSIG

2010/08/10 06:50
EKBI 100650Z 17006KT 130V200 CAVOK 16/14 Q1014

2010/08/10 06:50
EKYT 100650Z 21007KT 9999 BKN045 17/12 Q1014 NOSIG

2010/08/10 06:50
EKRK 100650Z AUTO 15007KT 9999NDV NCD 17/12 Q1016

2010/08/10 06:50
EKEB 100650Z AUTO 16011KT 120V190 9999NDV NCD 16/14 Q1013

2010/08/10 06:50
EKRN 100650Z AUTO 13004KT 9999NDV BKN034/// 17/13 Q1017

2010/08/10 06:50
EGBB 100650Z 21007KT 180V250 9999 SCT007 15/13 Q1009

2010/08/10 06:50
EGCC 100650Z 18007KT 9999 FEW018 13/12 Q1008

2010/08/10 06:50
EGKK 100650Z 24006KT 7000 RA FEW005 SCT011 BKN025 16/16 Q1011

2010/08/10 06:50
EGLL 100650Z 29010KT 9999 RA FEW009 SCT019 BKN022 14/12 Q1011

2010/08/10 06:50
EGPF 100650Z 12005KT 9999 -SHRA FEW010 SCT035 12/11 Q1004

2010/08/10 06:50
EGPH 100650Z 20008KT 9999 FEW016 SCT035 14/10 Q1004

2010/08/10 06:50
EGPK 100650Z 17007KT 9999 FEW009 SCT020CB SCT038 12/10 Q1004

2010/08/10 06:50
EGSS 100650Z 27004KT 8000 RADZ FEW012 SCT018 BKN028 15/14 Q1010

2010/08/10 06:50
ESDF 100650Z 24005KT CAVOK 17/11 Q1016

2010/08/10 06:50
ESPA 100650Z 01005KT 340V040 9999 BKN013 14/12 Q1010

2010/08/10 06:50
ESSL 100650Z 25008KT 9999 SCT013 BKN018 16/13 Q1013

2010/08/10 06:50
EGHH 100650Z 25004KT 9999 -RA FEW033 SCT040 14/12 Q1011

2010/08/10 06:50
EGKB 100650Z 24003KT 3000 RA BKN005 16/15 Q1011 

2010/08/10 06:50
EGMC 100650Z 23006KT 5000 -RA FEW007 BKN009 17/16 Q1010

2010/08/10 06:50
EGMH 100650Z 20014KT 9999 BKN007 18/16 Q1011 

2010/08/10 06:50
LSGC 100650Z 00000KT CAVOK 15/12 Q1020

2010/08/10 06:50
LSZG 100650Z VRB01KT CAVOK 17/15 Q1018 NOSIG

2010/08/10 06:50
LSZR 100650Z VRB01KT CAVOK 18/15 Q1018 NOSIG RMK C

2010/08/10 06:50
LSZS 100650Z 08002KT 9999 FEW020 SCT070 08/08 Q1023

2010/08/10 06:50
LSZC 100650Z VRB02KT 9999 SCT095 18/15 Q1018

2010/08/10 06:50
ESGL 100650Z AUTO 23011KT 9999NDV SCT011/// BKN015/// 17/16 Q1013

2010/08/10 06:50
ESGR 100650Z AUTO 24008KT 210V270 9999NDV FEW017/// 17/14 Q1013

2010/08/10 06:50
ESNL 100650Z AUTO 04005KT 350V080 4000NDV BR FEW007/// OVC010/// 13/12 Q1011

2010/08/10 06:50
ESNX 100650Z AUTO 03005KT 350V060 9999NDV NCD 14/10 Q1011

2010/08/10 06:50
ESNY 100650Z AUTO 00000KT 7000 SCT002 18/18 Q1008 REDZ

2010/08/10 07:00
SPIM 100700Z 17003KT 6000 FEW005 BKN010 13/12 Q1016 NOSIG RMK PP000

2010/08/10 06:50
EKGF 100650Z 17022KT 9999 SCT012TCU 17/17 Q1009

2010/08/10 06:50
EKHN 100650Z AUTO 17019KT 9999NDV NCD 18/14 Q1014

2010/08/10 06:50
EKHR 100650Z AUTO 17016KT 9999NDV NCD 18/15 Q1013

2010/08/10 06:50
ESNG 100650Z VRB02KT CAVOK 14/09 Q1012

2010/08/10 06:50
ESNK 100650Z 04003KT 350V100 9999 BKN014 16/14 Q1009

2010/08/10 06:50
ESNN 100650Z 05006KT 030V090 7000 BR FEW008 SCT010 BKN012 16/15 Q1009

2010/08/10 06:50
ESNO 100650Z 04004KT 360V090 3000 -DZ OVC005 15/13 Q1009

2010/08/10 06:50
ESNQ 100650Z VRB02KT 9999 FEW014 BKN030 12/10 Q1012

2010/08/10 06:50
ESNS 100650Z 02004KT 350V050 6000 RA FEW010 BKN020 13/12 Q1010

2010/08/10 06:50
ESNU 100650Z 02005KT 9999 FEW006 BKN009 15/13 Q1009

2010/08/10 06:50
ESNZ 100650Z 04006KT 8000 BR VV005 14/14 Q1010

2010/08/10 06:50
ESUT 100650Z AUTO 16009KT 9999NDV FEW023/// OVC061/// 14/10 Q1011

2010/08/10 06:50
EGHD 100650Z 00000KT 3000 -RA BR FEW000 BKN003 13/12 Q1012

2010/08/10 06:50
EGHE 100650Z 23019KT 6000 -RA FEW005 SCT010 BKN036 16/16 Q1010

2010/08/10 06:50
EGHQ 100650Z 17007KT 1900 DZ BR BKN007 12/12 Q1011

2010/08/10 06:50
EGJA 100650Z 28006KT 2000 -RADZ BR FEW000 BKN001 15/15 Q1013

2010/08/10 06:50
EGJB 100650Z 23011KT 9999 -RADZ FEW003 BKN005 BKN013 16/15 Q1013

2010/08/10 06:50
EGJJ 100650Z 25011KT 220V300 6000 -RADZ SCT001 BKN002 17/17 Q1013 TEMPO 3000

2010/08/10 06:50
EGTE 100650Z 18003KT 6000 RA FEW015 BKN020 13/12 Q1012

2010/08/10 06:50
EGTG 100650Z 21009KT 9999 SCT024 13/12 Q1011

2010/08/10 06:50
ESKN 100650Z 26011KT 9999 FEW016 BKN041 17/13 Q1012

2010/08/10 06:50
ESOE 100650Z 24010KT 9999 BKN012 16/14 Q1011

2010/08/10 06:50
ESOK 100650Z 23003KT 180V270 9999 BKN010 15/13 Q1011

2010/08/10 06:50
ESOW 100650Z 25009KT 9999 OVC007 16/15 Q1011

2010/08/10 06:50
ESSA 100650Z 24011KT 9999 FEW005 SCT007 BKN008 16/16 Q1010 BECMG BKN012

2010/08/10 06:50
ESSB 100650Z 24007KT 9999 BKN008 17/15 Q1011

2010/08/10 06:50
ESSD 100650Z 27008KT 9999 SCT013 BKN031 18/15 Q1009

2010/08/10 06:50
ESSP 100650Z 24010KT 9999 BKN016 16/13 Q1012

2010/08/10 06:50
ESSV 100650Z 25010KT 9999 SCT013 BKN020 16/13 Q1014

2010/08/10 06:50
EFHA 100650Z VRB05KT 9999 FEW016 BKN040CB 20/15 Q1010

2010/08/10 06:50
EFHF 100650Z 20009KT 170V230 8000 +SHRA SCT009 BKN012 SCT030CB 19/18 Q1011

2010/08/10 06:50
EFKA 100650Z 23007KT 4500NE SHRA BKN007 OVC012 18/17 Q1008

2010/08/10 06:50
EFKK 100650Z 30002KT 9999 BKN007 BKN020 19/18 Q1008

2010/08/10 06:50
EFMA 100650Z 23005KT 190V270 9999 -SHRA FEW007 BKN010 19/17 Q1009

2010/08/10 06:50
EFPO 100650Z 19004KT 160V230 8000 SHRA SCT005 BKN007 BKN015 18/17 Q1009

2010/08/10 06:50
EFSI 100650Z AUTO 18004KT 140V220 9999 FEW012 SCT025 19/17 Q1009

2010/08/10 06:50
EKVJ 100650Z 16008KT CAVOK 16/15 Q1014

2010/08/10 06:50
OAKN 100650Z 22006KT 8000 DU SCT150 OVC250 36/02 Q1008 BLU TEMPO 6000 WHT RMK A2977 DA6700

2010/08/10 07:00
SBRF 100700Z 15012KT 9999 SCT018 BKN070 25/19 Q1016

2010/08/10 06:53
UMBB 100653Z 00000MPS 9000 TS BKN013CB 20/18 Q1017 TEMPO TSRA

2010/08/10 06:53
K6R6 100653Z AUTO 25005KT 26/20 A2996 RMK AO2 SLP106 T02560200 PWINO TSNO 

2010/08/10 06:53
KCQC 100653Z AUTO 07005KT 10SM CLR 17/12 A3025 RMK AO2 SLP137 T01670122 402780133 TSNO 

2010/08/10 06:50
EKGF 100650Z 17022KT 9999 SCT012TCU 17/17 Q1009

2010/08/10 06:50
EKHN 100650Z AUTO 17019KT 9999NDV NCD 18/14 Q1014

2010/08/10 06:50
EKHR 100650Z AUTO 17016KT 9999NDV NCD 18/15 Q1013

2010/08/10 06:50
EKSB 100650Z 15006KT 130V190 9999 SCT040 17/12 Q1014

2010/08/10 06:50
EKSN 100650Z 21011KT 9999 FEW022 SCT045 16/13 Q1013

2010/08/10 06:50
EKVD 100650Z AUTO 16009KT //// ///////// 17/13 Q1014

2010/08/10 06:50
EKOD 100650Z 18005KT 150V210 CAVOK 17/14 Q1015

2010/08/10 06:50
ESNG 100650Z VRB02KT CAVOK 14/09 Q1012

2010/08/10 06:50
ESNK 100650Z 04003KT 350V100 9999 BKN014 16/14 Q1009

2010/08/10 06:50
ESNN 100650Z 05006KT 030V090 7000 BR FEW008 SCT010 BKN012 16/15 Q1009

2010/08/10 06:50
ESNO 100650Z 04004KT 360V090 3000 -DZ OVC005 15/13 Q1009

2010/08/10 06:50
ESNQ 100650Z VRB02KT 9999 FEW014 BKN030 12/10 Q1012

2010/08/10 06:50
ESNS 100650Z 02004KT 350V050 6000 RA FEW010 BKN020 13/12 Q1010

2010/08/10 06:50
ESNU 100650Z 02005KT 9999 FEW006 BKN009 15/13 Q1009

2010/08/10 06:50
ESNZ 100650Z 04006KT 8000 BR VV005 14/14 Q1010

2010/08/10 06:50
ESUT 100650Z AUTO 16009KT 9999NDV FEW023/// OVC061/// 14/10 Q1011

2010/08/10 06:50
BGBW 100650Z AUTO 08004KT 0550NDV FG BKN002/// BKN004/// 07/07 Q1009

2010/08/10 06:50
BGGH 100650Z AUTO 23004KT 4300NDV RA OVC016/// 09/09 Q1007

2010/08/10 06:50
BGJN 100650Z AUTO VRB01KT 9999NDV SCT017/// BKN021/// OVC027/// 08/04 Q1008

2010/08/10 06:50
EKCH 100650Z 20005KT 160V230 CAVOK 18/13 Q1016 NOSIG

2010/08/10 06:50
EKBI 100650Z 17006KT 130V200 CAVOK 16/14 Q1014

2010/08/10 06:50
EKYT 100650Z 21007KT 9999 BKN045 17/12 Q1014 NOSIG

2010/08/10 06:50
EKRK 100650Z AUTO 15007KT 9999NDV NCD 17/12 Q1016

2010/08/10 06:50
EKEB 100650Z AUTO 16011KT 120V190 9999NDV NCD 16/14 Q1013

2010/08/10 06:50
EKRN 100650Z AUTO 13004KT 9999NDV BKN034/// 17/13 Q1017

2010/08/10 06:50
EGAA 100650Z 24014KT 9999 -SHRA BKN008 12/11 Q1004

2010/08/10 06:50
EGAC 100650Z 20010KT 9999 VCSH FEW010 SCT018 BKN028 13/11 Q1004

2010/08/10 06:50
EGFF 100650Z 24010KT 9999 FEW023 BKN045 14/12 Q1011

2010/08/10 06:50
EGGW 100650Z 27009KT 7000 RA BKN020 13/11 Q1010

2010/08/10 06:50
EGLC 100650Z 23006KT 180V260 8000 SHRA FEW008 SCT028 BKN040 17/15 Q1010

2010/08/10 06:50
EGNM 100650Z 24004KT 9000 FEW015 SCT048 12/11 Q1007

2010/08/10 06:50
EGNX 100650Z 22012KT 9999 FEW018 SCT047 14/12 Q1009

2010/08/10 06:50
EGPD 100650Z 00000KT 9999 1500NE R34/P1500 VCFG NSC 11/10 Q1004 NOSIG

2010/08/10 06:50
ESKN 100650Z 26011KT 9999 FEW016 BKN041 17/13 Q1012

2010/08/10 06:50
ESOE 100650Z 24010KT 9999 BKN012 16/14 Q1011

2010/08/10 06:50
ESOK 100650Z 23003KT 180V270 9999 BKN010 15/13 Q1011

2010/08/10 06:50
ESOW 100650Z 25009KT 9999 OVC007 16/15 Q1011

2010/08/10 06:50
ESSA 100650Z 24011KT 9999 FEW005 SCT007 BKN008 16/16 Q1010 BECMG BKN012

2010/08/10 06:50
ESSB 100650Z 24007KT 9999 BKN008 17/15 Q1011

2010/08/10 06:50
ESSD 100650Z 27008KT 9999 SCT013 BKN031 18/15 Q1009

2010/08/10 06:50
ESSP 100650Z 24010KT 9999 BKN016 16/13 Q1012

2010/08/10 06:50
ESSV 100650Z 25010KT 9999 SCT013 BKN020 16/13 Q1014

2010/08/10 06:50
EFHA 100650Z VRB05KT 9999 FEW016 BKN040CB 20/15 Q1010

2010/08/10 06:50
EFHF 100650Z 20009KT 170V230 8000 +SHRA SCT009 BKN012 SCT030CB 19/18 Q1011

2010/08/10 06:50
EFKA 100650Z 23007KT 4500NE SHRA BKN007 OVC012 18/17 Q1008

2010/08/10 06:50
EFKK 100650Z 30002KT 9999 BKN007 BKN020 19/18 Q1008

2010/08/10 06:50
EFMA 100650Z 23005KT 190V270 9999 -SHRA FEW007 BKN010 19/17 Q1009

2010/08/10 06:50
EFPO 100650Z 19004KT 160V230 8000 SHRA SCT005 BKN007 BKN015 18/17 Q1009

2010/08/10 06:50
EFSI 100650Z AUTO 18004KT 140V220 9999 FEW012 SCT025 19/17 Q1009

2010/08/10 06:50
EGHD 100650Z 00000KT 3000 -RA BR FEW000 BKN003 13/12 Q1012

2010/08/10 06:50
EGHE 100650Z 23019KT 6000 -RA FEW005 SCT010 BKN036 16/16 Q1010

2010/08/10 06:50
EGHQ 100650Z 17007KT 1900 DZ BR BKN007 12/12 Q1011

2010/08/10 06:50
EGJA 100650Z 28006KT 2000 -RADZ BR FEW000 BKN001 15/15 Q1013

2010/08/10 06:50
EGJB 100650Z 23011KT 9999 -RADZ FEW003 BKN005 BKN013 16/15 Q1013

2010/08/10 06:50
EGJJ 100650Z 25011KT 220V300 6000 -RADZ SCT001 BKN002 17/17 Q1013 TEMPO 3000

2010/08/10 06:50
EGTE 100650Z 18003KT 6000 RA FEW015 BKN020 13/12 Q1012

2010/08/10 06:50
EGTG 100650Z 21009KT 9999 SCT024 13/12 Q1011

2010/08/10 06:50
EKKA 100650Z 20009KT 150V230 CAVOK 18/13 Q1013 NOSIG RMK FEW220

2010/08/10 06:50
EKSP 100650Z 15008KT 9999 FEW035 SCT200 17/14 Q1014 NOSIG

2010/08/10 06:50
ESDF 100650Z 24005KT CAVOK 17/11 Q1016

2010/08/10 06:50
ESPA 100650Z 01005KT 340V040 9999 BKN013 14/12 Q1010

2010/08/10 06:50
ESSL 100650Z 25008KT 9999 SCT013 BKN018 16/13 Q1013

2010/08/10 06:50
ESGL 100650Z AUTO 23011KT 9999NDV SCT011/// BKN015/// 17/16 Q1013

2010/08/10 06:50
ESGR 100650Z AUTO 24008KT 210V270 9999NDV FEW017/// 17/14 Q1013

2010/08/10 06:50
ESNL 100650Z AUTO 04005KT 350V080 4000NDV BR FEW007/// OVC010/// 13/12 Q1011

2010/08/10 06:50
ESNX 100650Z AUTO 03005KT 350V060 9999NDV NCD 14/10 Q1011

2010/08/10 06:50
ESNY 100650Z AUTO 00000KT 7000 SCT002 18/18 Q1008 REDZ

2010/08/10 06:50
EGHH 100650Z 25004KT 9999 -RA FEW033 SCT040 14/12 Q1011

2010/08/10 06:50
EGKB 100650Z 24003KT 3000 RA BKN005 16/15 Q1011 

2010/08/10 06:50
EGMC 100650Z 23006KT 5000 -RA FEW007 BKN009 17/16 Q1010

2010/08/10 06:50
EGMH 100650Z 20014KT 9999 BKN007 18/16 Q1011 

2010/08/10 06:50
EGBB 100650Z 21007KT 180V250 9999 SCT007 15/13 Q1009

2010/08/10 06:50
EGCC 100650Z 18007KT 9999 FEW018 13/12 Q1008

2010/08/10 06:50
EGKK 100650Z 24006KT 7000 RA FEW005 SCT011 BKN025 16/16 Q1011

2010/08/10 06:50
EGLL 100650Z 29010KT 9999 RA FEW009 SCT019 BKN022 14/12 Q1011

2010/08/10 06:50
EGPF 100650Z 12005KT 9999 -SHRA FEW010 SCT035 12/11 Q1004

2010/08/10 06:50
EGPH 100650Z 20008KT 9999 FEW016 SCT035 14/10 Q1004

2010/08/10 06:50
EGPK 100650Z 17007KT 9999 FEW009 SCT020CB SCT038 12/10 Q1004

2010/08/10 06:50
EGSS 100650Z 27004KT 8000 RADZ FEW012 SCT018 BKN028 15/14 Q1010

2010/08/10 06:50
EGGD 100650Z 22008KT 9999 FEW036 12/12 Q1011

2010/08/10 06:50
EGGP 100650Z 22007KT 9999 SCT032 15/12 Q1008

2010/08/10 06:50
EGHI 100650Z VRB01KT 9999 -RA FEW010 SCT023 BKN039 13/12 Q1011 

2010/08/10 06:50
EGNT 100650Z 00000KT 9999 FEW030 14/10 Q1006

2010/08/10 06:50
EGNV 100650Z 18006KT 9999 FEW045 BKN049 13/12 Q1007

2010/08/10 06:50
EGPB 100650Z 13008KT 9999 FEW010 FEW015CB SCT022 15/14 Q1004

2010/08/10 06:50
EKVJ 100650Z 16008KT CAVOK 16/15 Q1014

2010/08/10 06:50
HLLT 100650Z VRB03KT CAVOK 25/18 Q1016

2010/08/10 06:53
KMGM 100653Z 00000KT 9SM CLR 28/23 A2995 RMK AO2 SLP137 T02780228 

2010/08/10 06:53
KCUT 100653Z AUTO 22005KT 10SM CLR 17/14 A3005 RMK AO2 SLP104 T01670139 402720122 TSNO 

2010/08/10 06:53
KTUP 100653Z AUTO 00000KT 7SM CLR 26/24 A2995 RMK AO2 SLP135 T02560239 

2010/08/10 06:54
PGUM 100654Z 10007KT 10SM SCT025 BKN032 29/23 A2989 RMK AO2 SLP113 T02890233 

2010/08/10 06:53
KBTR 100653Z 00000KT 9SM FEW004 SCT020 BKN200 24/24 A2993 RMK AO2 SLP133 T02440244 

2010/08/10 06:53
KP92 100653Z AUTO 00000KT 25/24 A2992 RMK AO2 SLP131 T02500244 PWINO TSNO 

2010/08/10 06:53
KNIP 100653Z 13007KT 10SM FEW020 28/24 A2995 RMK AO2 SLP138 T02780244 

2010/08/10 06:54
KJAN 100654Z 00000KT 10SM CLR 24/23 A2995 RMK AO2 SLP136 T02440233 

2010/08/10 06:53
KMWT 100653Z AUTO 00000KT 10SM CLR 25/24 A2992 RMK AO2 SLP117 T02500239 TSNO 

2010/08/10 06:53
KRIL 100653Z AUTO 00000KT 10SM CLR 14/09 A3015 RMK AO2 SLP154 T01440094 402720133 TSNO 

2010/08/10 06:53
KFAR 100653Z 15007KT 10SM CLR 25/19 A2990 RMK AO2 SLP117 T02500189 

2010/08/10 06:54
KBTV 100654Z 00000KT 5SM BR CLR 18/18 A2991 RMK AO2 SLP127 T01830183 

2010/08/10 06:53
KCTY 100653Z AUTO 00000KT 25/24 A2992 RMK AO2 SLP131 T02500239 PWINO TSNO 

2010/08/10 06:50
EGAA 100650Z 24014KT 9999 -SHRA BKN008 12/11 Q1004

2010/08/10 06:50
EGAC 100650Z 20010KT 9999 VCSH FEW010 SCT018 BKN028 13/11 Q1004

2010/08/10 06:50
EGBB 100650Z 21007KT 180V250 9999 SCT007 15/13 Q1009

2010/08/10 06:50
EGCC 100650Z 18007KT 9999 FEW018 13/12 Q1008

2010/08/10 06:50
EGFF 100650Z 24010KT 9999 FEW023 BKN045 14/12 Q1011

2010/08/10 06:50
EGGD 100650Z 22008KT 9999 FEW036 12/12 Q1011

2010/08/10 06:50
EGGW 100650Z 27009KT 7000 RA BKN020 13/11 Q1010

2010/08/10 06:50
EGHE 100650Z 23019KT 6000 -RA FEW005 SCT010 BKN036 16/16 Q1010

2010/08/10 06:50
EGHH 100650Z 25004KT 9999 -RA FEW033 SCT040 14/12 Q1011

2010/08/10 06:50
EGHI 100650Z VRB01KT 9999 -RA FEW010 SCT023 BKN039 13/12 Q1011

2010/08/10 06:50
EGJB 100650Z 23011KT 9999 -RADZ FEW003 BKN005 BKN013 16/15 Q1013

2010/08/10 06:50
EGJJ 100650Z 25011KT 220V300 6000 -RADZ SCT001 BKN002 17/17 Q1013 TEMPO 3000

2010/08/10 06:50
EGKB 100650Z 24003KT 3000 RA BKN005 16/15 Q1011

2010/08/10 06:50
EGKK 100650Z 24006KT 7000 RA FEW005 SCT011 BKN025 16/16 Q1011

2010/08/10 06:50
EGLC 100650Z 23006KT 180V260 8000 SHRA FEW008 SCT028 BKN040 17/15 Q1010

2010/08/10 06:50
EGLL 100650Z 29010KT 9999 RA FEW009 SCT019 BKN022 14/12 Q1011

2010/08/10 06:50
EGMC 100650Z 23006KT 5000 -RA FEW007 BKN009 17/16 Q1010

2010/08/10 06:50
EGMH 100650Z 20014KT 9999 BKN007 18/16 Q1011

2010/08/10 06:50
EGNM 100650Z 24004KT 9000 FEW015 SCT048 12/11 Q1007

2010/08/10 06:50
EGNV 100650Z 18006KT 9999 FEW045 BKN049 13/12 Q1007

2010/08/10 06:50
EGNX 100650Z 22012KT 9999 FEW018 SCT047 14/12 Q1009

2010/08/10 06:50
EGPD 100650Z 00000KT 9999 1500NE R34/P1500 VCFG NSC 11/10 Q1004 NOSIG

2010/08/10 06:50
EGPF 100650Z 12005KT 9999 -SHRA FEW010 SCT035 12/11 Q1004

2010/08/10 06:50
EGPH 100650Z 20008KT 9999 FEW016 SCT035 14/10 Q1004

2010/08/10 06:50
EGPK 100650Z 17007KT 9999 FEW009 SCT020CB SCT038 12/10 Q1004

2010/08/10 06:50
EGSS 100650Z 27004KT 8000 RADZ FEW012 SCT018 BKN028 15/14 Q1010

2010/08/10 06:50
EGTE 100650Z 18003KT 6000 RA FEW015 BKN020 13/12 Q1012

2010/08/10 06:50
CYCX 100650Z AUTO 22004KT 1 1/2SM 16/16 A2981 RMK VSBY VRBL 0.9V3.5

2010/08/10 06:52
CYCY 100652Z AUTO 00000KT 1SM CLR 03/03 A2988

2010/08/10 06:52
CYFC 100652Z AUTO 00000KT 3SM BR OVC003 17/17 A2981 RMK SLP097 DENSITY ALT 400FT RVR MISG

2010/08/10 06:51
CYHU 100651Z AUTO 17002KT 5SM HZ FEW004 17/ A2988 RMK SLP119 DENSITY ALT 300FT TD MISG RVR MISG

2010/08/10 06:53
CYKF 100653Z AUTO 22004KT 1/8SM FG VV002 20/20 A2996 RMK SLP142 DENSITY ALT 1800FT

2010/08/10 06:49
CYOY 100649Z AUTO 00000KT 1/8SM OVC001 OVC071 12/11 A2985

2010/08/10 06:53
CYOY 100653Z AUTO 00000KT 1/2SM OVC001 OVC071 OVC092 13/11 A2985 RMK VSBY VRBL 0.2V9.+

2010/08/10 06:52
CYQA 100652Z AUTO 12002KT 1 1/4SM BR BKN002 OVC008 19/19 A2993 RMK SLP137 DENSITY ALT 1500FT

2010/08/10 06:49
CYQI 100649Z 18003KT 3/8SM +SHRA FG VV002 RMK FG8 RVR RWY 24 2400 FT

2010/08/10 06:53
CYWA 100653Z AUTO 26002KT 1SM CLR 14/14 A2991 RMK VSBY VRBL 0.6V3.5

2010/08/10 06:50
KMTC 100650Z AUTO 00000KT 1 1/2SM R19/1000VP6000FT DZ BR CLR 21/21 A2994 RMK AO2 VIS 1/2V5 SLP142 $

2010/08/10 06:51
KMTC 100651Z AUTO 00000KT 2SM R19/1800VP6000FT DZ BR CLR 21/21 A2994 RMK AO2 VIS 3/4V5 SLP142 $

2010/08/10 06:52
KMTC 100652Z AUTO 00000KT 2 1/2SM R19/2200VP6000FT DZ BR CLR 21/21 A2994 RMK AO2 SLP142 $

2010/08/10 06:54
KMTC 100654Z AUTO 00000KT 2SM R19/2200VP6000FT DZ BR CLR 21/21 A2994 RMK AO2 SLP142 $

2010/08/10 06:50
KVOK 100650Z 00000KT 1/4SM R27/0800V1000FT FG CLR 19/19 A2996 RMK AO2A SLP139

2010/08/10 06:50
LKPO 100650Z VRB01KT 6000 FEW004 17/15 Q1019 RMK WHT

2010/08/10 06:49
RJNT 100649Z 18006KT 9999 SHRA FEW015 SCT030 BKN040 26/25 Q1013 RMK 1CU015 3CU030 6CU040 A2993

2010/08/10 06:50
EGAA 100650Z 24014KT 9999 -SHRA BKN008 12/11 Q1004

2010/08/10 06:50
EGAC 100650Z 20010KT 9999 VCSH FEW010 SCT018 BKN028 13/11 Q1004

2010/08/10 06:50
EGBB 100650Z 21007KT 180V250 9999 SCT007 15/13 Q1009

2010/08/10 06:50
EGCC 100650Z 18007KT 9999 FEW018 13/12 Q1008

2010/08/10 06:50
EGFF 100650Z 24010KT 9999 FEW023 BKN045 14/12 Q1011

2010/08/10 06:50
EGGD 100650Z 22008KT 9999 FEW036 12/12 Q1011

2010/08/10 06:50
EGGW 100650Z 27009KT 7000 RA BKN020 13/11 Q1010

2010/08/10 06:50
EGHE 100650Z 23019KT 6000 -RA FEW005 SCT010 BKN036 16/16 Q1010

2010/08/10 06:50
EGHH 100650Z 25004KT 9999 -RA FEW033 SCT040 14/12 Q1011

2010/08/10 06:50
EGJB 100650Z 23011KT 9999 -RADZ FEW003 BKN005 BKN013 16/15 Q1013

2010/08/10 06:50
EGJJ 100650Z 25011KT 220V300 6000 -RADZ SCT001 BKN002 17/17 Q1013 TEMPO 3000

2010/08/10 06:50
EGKB 100650Z 24003KT 3000 RA BKN005 16/15 Q1011

2010/08/10 06:50
EGKK 100650Z 24006KT 7000 RA FEW005 SCT011 BKN025 16/16 Q1011

2010/08/10 06:50
EGLC 100650Z 23006KT 180V260 8000 SHRA FEW008 SCT028 BKN040 17/15 Q1010

2010/08/10 06:50
EGLL 100650Z 29010KT 9999 RA FEW009 SCT019 BKN022 14/12 Q1011

2010/08/10 06:50
EGMC 100650Z 23006KT 5000 -RA FEW007 BKN009 17/16 Q1010

2010/08/10 06:50
EGMH 100650Z 20014KT 9999 BKN007 18/16 Q1011

2010/08/10 06:50
EGNM 100650Z 24004KT 9000 FEW015 SCT048 12/11 Q1007

2010/08/10 06:50
EGNX 100650Z 22012KT 9999 FEW018 SCT047 14/12 Q1009

2010/08/10 06:50
EGPD 100650Z 00000KT 9999 1500NE R34/P1500 VCFG NSC 11/10 Q1004 NOSIG

2010/08/10 06:50
EGPF 100650Z 12005KT 9999 -SHRA FEW010 SCT035 12/11 Q1004

2010/08/10 06:50
EGPH 100650Z 20008KT 9999 FEW016 SCT035 14/10 Q1004

2010/08/10 06:50
EGPK 100650Z 17007KT 9999 FEW009 SCT020CB SCT038 12/10 Q1004

2010/08/10 06:50
EGSS 100650Z 27004KT 8000 RADZ FEW012 SCT018 BKN028 15/14 Q1010

2010/08/10 06:50
EGTE 100650Z 18003KT 6000 RA FEW015 BKN020 13/12 Q1012

2010/08/10 06:50
EKSB 100650Z 15006KT 130V190 9999 SCT040 17/12 Q1014

2010/08/10 06:55
TXKF 100655Z 17007KT 9999 FEW017 SCT180 BKN300 27/23 Q1020  

2010/08/10 06:50
NSTU 100650Z 13013KT 10SM SCT016 27/25 A2995 RMK SLP144 T02730254

2010/08/10 06:50
PTKK 100650Z 11008KT 15SM FEW014 BKN120 OVC280 29/25 A2982 RMK SLP101 T02890245

2010/08/10 06:50
EETN 100650Z 22010KT 9999 BKN015 20/17 Q1013 NOSIG

2010/08/10 06:50
EETU 100650Z AUTO 20011KT 9999NDV FEW020/// 20/16 Q1015

2010/08/10 06:50
EFHK 100650Z 20007KT 9999 -SHRA BKN009 FEW030CB 20/18 Q1011 NOSIG

2010/08/10 06:50
ESSA 100650Z 24011KT 9999 FEW005 SCT007 BKN008 16/16 Q1010 BECMG BKN012

2010/08/10 06:50
EVLA 100650Z 25012KT 9999 SCT027 19/14 Q1016

2010/08/10 06:50
EVRA 100650Z 20006KT 170V250 9999 SCT016 SCT019 20/16 Q1016 NOSIG

2010/08/10 06:50
EYKA 100650Z 16003KT 130V190 CAVOK 20/19 Q1017

2010/08/10 06:50
EYPA 100650Z 28005KT 9999 SCT023 19/14 Q1017 NOSIG

2010/08/10 06:50
EYVI 100650Z VRB02KT 4000 BR BKN140 18/18 Q1017 NOSIG

2010/08/10 06:50
EDAC 100650Z 18004KT 150V220 CAVOK 19/14 Q1017

2010/08/10 06:50
EDAH 100650Z VRB03KT 9999 SCT012 19/16 Q1016

2010/08/10 06:50
EDBC 100650Z 17005KT CAVOK 18/15 Q1016

2010/08/10 06:50
EDGS 100650Z 20006KT CAVOK 18/14 Q1017

2010/08/10 06:50
EDHL 100650Z 14005KT 110V170 CAVOK 18/18 Q1016

2010/08/10 06:50
EDJA 100650Z 22004KT 200V260 CAVOK 16/14 Q1019

2010/08/10 06:50
EDLN 100650Z VRB03KT CAVOK 17/16 Q1015

2010/08/10 06:50
EDLP 100650Z 17006KT CAVOK 19/11 Q1015

2010/08/10 06:50
EDLW 100650Z 18008KT CAVOK 18/13 Q1015

2010/08/10 06:50
EDMA 100650Z 23002KT CAVOK 17/15 Q1018

2010/08/10 06:50
EDNY 100650Z VRB02KT 9999 SCT055 17/14 Q1018

2010/08/10 06:50
EDQM 100650Z VRB01KT CAVOK 18/13 Q1018

2010/08/10 06:50
EDSB 100650Z 21004KT 180V240 CAVOK 17/14 Q1017

2010/08/10 06:50
EDXW 100650Z 16011KT 8000 NSC 18/16 Q1013

2010/08/10 06:50
ENAT 100650Z 14008KT 9999 FEW025 BKN050 15/09 Q1011 

2010/08/10 06:50
ENBL 100650Z VRB01KT 9999 FEW010 SCT025 BKN031 12/11 Q1009

2010/08/10 06:50
ENEV 100650Z 34005KT 300V030 9999 SCT006 BKN025 12/10 Q1010 

2010/08/10 06:50
ENFL 100650Z VRB01KT 9999 FEW010 BKN040 15/13 Q1009

2010/08/10 06:50
ENKB 100650Z 24003KT 9999 -RA SCT015 BKN093 14/12 Q1010

2010/08/10 06:50
ENKR 100650Z 02006KT 9999 BKN005 09/08 Q1013 

2010/08/10 06:50
ENML 100650Z 08004KT 9999 FEW010 BKN035 16/13 Q1010

2010/08/10 06:50
ENNA 100650Z 08004KT 9999 FEW015 BKN050 14/09 Q1012 

2010/08/10 07:00
TFFR 100700Z 04002KT 9999 SCT021 SCT048 25/24 Q1013 TEMPO 4000 SHRA

2010/08/10 06:51
KSAD 100651Z AUTO 32006KT 10SM CLR 27/11 A2996 RMK AO2 SLP086 T02670111 403610217 TSNO 

2010/08/10 06:50
ENAN 100650Z 02010KT 9999 FEW006 BKN008 11/10 Q1011 NOSIG

2010/08/10 06:50
ENBR 100650Z 00000KT 9999 FEW040 SCT050 15/11 Q1009 NOSIG 

2010/08/10 06:50
ENBO 100650Z 22004KT 180V260 9999 FEW002 BKN050 13/12 Q1010 TEMPO 4000 BR SCT003 BKN008 

2010/08/10 06:50
ENDU 100650Z VRB01KT 9999 FEW045 SCT060 11/09 Q1010 NOSIG

2010/08/10 06:50
ENOL 100650Z VRB02KT 9999 SCT003 BKN005 13/12 Q1011 TEMPO 3000 BR

2010/08/10 06:50
ENVA 100650Z 29003KT 9999 FEW003 SCT008 BKN015 14/13 Q1011 TEMPO BKN008 

2010/08/10 06:50
ENEK 100650Z 20008KT 9999 -RA SCT007 BKN060 16/15 Q1007 W16/S3

2010/08/10 06:50
ENHE 100650Z 04011KT 9999 OVC015 10/08 Q1012

2010/08/10 06:50
EDHI 100650Z 14004KT 080V170 CAVOK 18/16 Q1015

2010/08/10 06:50
EDMO 100650Z 22005KT CAVOK 17/14 Q1018

2010/08/10 06:50
EDOP 100650Z 15004KT CAVOK 18/16 Q1016

2010/08/10 06:50
EDVE 100650Z 16005KT 110V210 CAVOK 19/15 Q1016

2010/08/10 06:50
EDFE 100650Z VRB01KT CAVOK 17/14 Q1017

2010/08/10 06:50
EDFH 100650Z 20004KT 150V260 CAVOK 20/11 Q1017

2010/08/10 06:50
EDFM 100650Z 16006KT 130V190 CAVOK 19/14 Q1016

2010/08/10 06:50
EDLV 100650Z 19005KT 160V240 CAVOK 17/16 Q1015

2010/08/10 06:50
EDTL 100650Z 22005KT CAVOK 18/13 Q1017

2010/08/10 06:50
EDVK 100650Z 11003KT CAVOK 17/13 Q1017

2010/08/10 06:54
K1V4 100654Z AUTO 18/18 A2992 RMK AO2 SLP120 T01830178 PWINO TSNO 

2010/08/10 06:54
KMQE 100654Z AUTO 33007KT 21/21 A2992 RMK AO1 SLP135 P0003 T02060206 

2010/08/10 06:53
KRNM 100653Z AUTO 27003KT 10SM CLR 12/09 A2992 RMK AO2 SLP121 T01220094 TSNO 

2010/08/10 06:54
KNKT 100654Z AUTO 20005KT 10SM CLR 24/23 A3002 RMK AO2 SLP163 T02440233 

2010/08/10 06:50
ENBS 100650Z 20005KT 9999 BKN035 10/05 Q1013

2010/08/10 06:50
ENHK 100650Z 13004KT 9999 FEW025 BKN050 12/09 Q1012

2010/08/10 06:50
ENNK 100650Z 25003KT 9999 BKN050 13/11 Q1010 

2010/08/10 06:50
ENNM 100650Z 23003KT 3500 BKN002 12/11 Q1011

2010/08/10 06:54
KGSO 100654Z 20006KT 8SM CLR 25/21 A3004 RMK AO2 SLP160 T02500211 

2010/08/10 06:53
KELY 100653Z AUTO 20011KT 10SM CLR 16/M07 A3013 RMK AO2 SLP101 T01611067 

2010/08/10 06:54
KROA 100654Z 29003KT 9SM CLR 24/21 A3004 RMK AO2 SLP156 T02390206 

2010/08/10 06:54
KNAK 100654Z AUTO VRB03KT 9SM CLR 26/20 A2993 RMK AO2 SLP136 T02560200 TSNO 

2010/08/10 06:54
KNFG 100654Z 00000KT 6SM BR FEW015 11/09 A2992 RMK AO2 SLP129 T01110094 

2010/08/10 06:54
KBKB 100654Z AUTO 00000KT 10SM CLR 26/24 A2991 RMK AO2 SLP152 T02610239 $ 

2010/08/10 06:54
KCOU 100654Z AUTO 14005KT 10SM CLR 27/25 A2993 RMK AO2 SLP123 T02670250 TSNO $ 

2010/08/10 07:00
OYSY 100700Z 20010KT 160V230 CAVOK 37/14 Q1006

2010/08/10 06:50
ENMS 100650Z 09002KT 9999 1500SE FEW000 BKN004 14/11 Q1010 

2010/08/10 06:50
ENRM 100650Z VRB02KT 4500 BR BKN002 12/11 Q1011

2010/08/10 06:50
ENRS 100650Z 01014KT 9999 BKN004 10/10 Q1011

2010/08/10 06:50
ENSK 100650Z 25003KT 9999 SCT008 BKN010 12/10 Q1011

2010/08/10 06:50
ENSO 100650Z 11009KT 080V150 9999 FEW010 16/11 Q1009

2010/08/10 06:50
ENST 100650Z 23005KT 6000 3000NE DZ SCT001 BKN003 12/12 Q1011

2010/08/10 06:50
ENVD 100650Z 09005KT 9999 FEW005 BKN009 09/07 Q1013

2010/08/10 06:50
ENAL 100650Z 05009KT 9999 FEW010 BKN030 14/12 Q1010

2010/08/10 06:50
ENCN 100650Z 05002KT 9999 -RA BKN012 14/12 Q1011 REDZ

2010/08/10 06:50
ENHD 100650Z 12012KT 9999 BKN040 15/12 Q1009

2010/08/10 06:50
ENRO 100650Z 22002KT 9999 -DZ SCT002 BKN016 13/12 Q1010

2010/08/10 06:47
ENRY 100647Z 19010KT 160V230 9999 FEW014 17/13 Q1010 NOSIG

2010/08/10 06:50
ENSB 100650Z 27012KT 9999 FEW015 03/00 Q1005 NOSIG 

2010/08/10 06:50
ENTC 100650Z 03007KT 9999 FEW009 SCT015 BKN030 11/09 Q1011 TEMPO BKN014

2010/08/10 06:50
ENTO 100650Z 21008KT 9999 FEW005 16/12 Q1010

2010/08/10 06:55
CYPD 100655Z AUTO 24007KT 9SM SCT012 SCT018 BKN038 OVC050 18/16 A2984 RMK SLP107 DENSITY ALT 900FT

2010/08/10 06:55
PAEH 100655Z AUTO 18017G26KT 150V220 1SM OVC003 08/07 RMK AO1 2 T00830073

2010/08/10 06:53
KCDS 100653Z AUTO 21006KT 10SM FEW036 25/20 A2998 RMK AO2 TSE10B37E52RAB19E40 SLP120 P0000 T02500200

2010/08/10 06:53
KCDW 100653Z AUTO 00000KT 9SM CLR 26/19 A2993 RMK AO2 SLP137 T02560189 TSNO $

2010/08/10 06:53
KCEW 100653Z AUTO 00000KT 2 1/2SM BR CLR 23/23 A2994 RMK AO2 SLP136 T02330233

2010/08/10 06:53
KCEZ 100653Z AUTO 00000KT 10SM CLR 13/08 A3019 RMK AO2 SLP149 T01330083 402830133

2010/08/10 06:53
KCGI 100653Z AUTO 00000KT 5SM BR CLR 25/24 A2993 RMK AO2 SLP131 T02500239 TSNO

2010/08/10 06:53
KCHO 100653Z AUTO 18004KT 7SM CLR 24/22 A2997 RMK AO2 SLP138 T02440217 TSNO

2010/08/10 06:53
KCKB 100653Z 00000KT 4SM BR CLR 20/19 A3001 RMK AO2 SLP146 T02000189

2010/08/10 06:53
KCNO 100653Z 00000KT 8SM CLR 16/12 A2992 RMK AO2 SLP126 T01610122

2010/08/10 06:53
KCNY 100653Z AUTO 31003KT 10SM CLR 19/02 A3004 RMK AO2 SLP111 T01940017 403170139

2010/08/10 06:53
KCPR 100653Z AUTO 18009KT 10SM CLR 18/04 A3005 RMK AO2 SLP103 T01830039 403000133

2010/08/10 06:53
KCPS 100653Z AUTO 00000KT 6SM BR CLR 26/24 A2993 RMK AO2 SLP131 T02560244

2010/08/10 06:53
KCRE 100653Z AUTO 21007KT 10SM SCT019 SCT025 28/26 A3001 RMK AO2 SLP164 T02830256

2010/08/10 06:53
KCRG 100653Z AUTO 15006KT 10SM CLR 27/24 A2995 RMK AO2 SLP142 T02670239

2010/08/10 06:53
KCRS 100653Z AUTO 18006KT 10SM CLR 28/22 A2991 RMK AO2 SLP121 T02830222

2010/08/10 06:53
KCSM 100653Z AUTO 17009KT 10SM CLR 26/20 A2996 RMK AO2 SLP114 T02610200

2010/08/10 06:53
KCUB 100653Z AUTO 00000KT 10SM CLR 25/23 A3002 RMK AO2 SLP164 T02500228

2010/08/10 06:53
KCYS 100653Z AUTO 23004KT 10SM CLR 14/12 A3014 RMK AO2 SLP128 T01390117 402720133 TSNO

2010/08/10 06:53
KDAL 100653Z 19005KT 10SM FEW220 31/19 A2990 RMK AO2 SLP117 T03060194

2010/08/10 06:53
KDEN 100653Z 17006KT 10SM SCT110 BKN200 17/14 A3011 RMK AO2 SLP118 T01720139 402940172

2010/08/10 06:53
KDEQ 100653Z AUTO 00000KT 5SM BR CLR 25/24 A2990 RMK AO2 SLP119 T02500239

2010/08/10 06:53
KDET 100653Z 00000KT 9SM CLR 22/21 A2995 RMK AO2 SLP138 T02220206

2010/08/10 06:53
KDFI 100653Z AUTO 00000KT 1/4SM FG VV001 22/21 A2996 RMK AO2 SLP140 T02170211

2010/08/10 06:53
KFOE 100653Z AUTO 18006KT 10SM CLR 28/21 A2989 RMK AO2 SLP108 T02830206

2010/08/10 06:53
KFOK 100653Z AUTO 23008KT 7SM CLR 24/21 A2993 RMK AO2 SLP133 T02390211 TSNO

2010/08/10 06:53
KFPR 100653Z AUTO 15006KT 10SM FEW022 27/23 A2991 RMK AO2 SLP129 T02670228

2010/08/10 06:53
KFRG 100653Z AUTO 26005KT 10SM CLR 25/19 A2992 RMK AO2 SLP131 T02500194

2010/08/10 06:53
KFST 100653Z AUTO 18005KT 10SM CLR 22/19 A3001 RMK AO2 SLP109 T02220189

2010/08/10 06:53
KFTW 100653Z 19009KT 10SM CLR 30/20 A2990 RMK AO2 SLP114 T03000200

2010/08/10 06:53
KFVE 100653Z AUTO 29006KT 8SM CLR 16/14 A2982 RMK AO2 SLP096 T01560144

2010/08/10 06:53
KFWN 100653Z AUTO 00000KT 9SM FEW070 24/19 A2995 RMK AO2 SLP137 T02440189

2010/08/10 06:53
KFXE 100653Z 14009KT 10SM SCT015 SCT025 27/23 A2988 RMK AO2 RAE23 SLP121 P0000 T02670233

2010/08/10 06:53
KGAG 100653Z AUTO 30003KT 10SM CLR 24/18 A2995 RMK AO2 SLP108 T02390183

2010/08/10 06:53
KGCC 100653Z AUTO 00000KT 10SM CLR 17/11 A2997 RMK AO2 SLP097 T01720106 403390117

2010/08/10 06:53
KGEY 100653Z AUTO 22004KT 10SM SCT110 18/09 A2994 RMK AO2 SLP099 T01780094 403330161

2010/08/10 06:53
KGEZ 100653Z AUTO 19003KT 7SM SCT110 25/22 A2994 RMK AO2 SLP130 T02500222

2010/08/10 06:53
KGFL 100653Z AUTO 00000KT 3/4SM BR BKN034 20/20 A2992 RMK AO2 SLP128 T02000200

2010/08/10 06:53
KGGG 100653Z AUTO 22007KT 10SM CLR 29/22 A2992 RMK AO2 SLP123 T02890222

2010/08/10 06:53
KGGW 100653Z AUTO 27006KT 8SM -RA BKN050 OVC100 19/17 A2981 RMK AO2 RAB09 SLP080 P0001 T01940172 403280150 TSNO

2010/08/10 06:53
KGIF 100653Z AUTO 10009KT 10SM FEW020 26/23 A2992 RMK AO2 SLP128 T02560233 TSNO

2010/08/10 06:53
KGJT 100653Z AUTO 08004KT 10SM CLR 18/01 A3008 RMK AO2 SLP121 T01830011 403060172

2010/08/10 06:53
KGKJ 100653Z AUTO 00000KT 8SM SCT080 BKN110 23/18 A2998 RMK AO2 SLP139 T02330183

2010/08/10 06:53
KGKY 100653Z AUTO 18004KT 10SM CLR 27/21 A2991 RMK AO2 SLP119 T02720206

2010/08/10 06:53
KMSS 100653Z AUTO 22003KT 10SM OVC008 22/21 A2991 RMK AO2 SLP127 T02170211

2010/08/10 06:53
KMTH 100653Z AUTO 20007KT 3SM +RA BR SCT019 BKN025 OVC065 26/24 A2985 RMK AO2 LTG DSNT SW RAB29 SLP106 P0010 T02560244

2010/08/10 06:53
KMTJ 100653Z AUTO 13009KT 10SM CLR 17/07 A3019 RMK AO2 SLP143 T01720072 402830161

2010/08/10 06:53
KMTO 100653Z AUTO 20005KT 8SM BKN110 27/24 A2995 RMK AO2 SLP134 T02720244

2010/08/10 06:53
KMVY 100653Z AUTO 29007KT 6SM HZ FEW009 SCT060 BKN095 26/22 A2992 RMK AO2 LTG DSNT N SLP130 T02560217

2010/08/10 06:53
KMWL 100653Z AUTO 16005KT 10SM CLR 27/19 A2991 RMK AO2 SLP112 T02670194

2010/08/10 06:53
KODO 100653Z AUTO 09004KT 10SM CLR 22/19 A3003 RMK AO2 SLP118 T02170194 $

2010/08/10 06:53
KOGB 100653Z AUTO 00000KT 10SM CLR 25/24 A3002 RMK AO2 SLP162 T02500239

2010/08/10 06:53
KOGD 100653Z AUTO 15005KT 10SM CLR 19/05 A3000 RMK AO2 SLP099 T01940050 402890189

2010/08/10 06:53
KOJC 100653Z AUTO 18003KT 10SM CLR 27/23 A2991 RMK AO2 SLP112 T02670228

2010/08/10 06:53
KOLF 100653Z AUTO 22013G24KT 10SM VCTS BKN095 24/15 A2985 RMK AO2 WSHFT 0639 LTG DSNT E-SW TSB45 PRESRR SLP092 T02390150 403280139

2010/08/10 06:53
KONO 100653Z AUTO 34005KT 10SM CLR 20/13 A2984 RMK AO2 SLP090 T02000128 403170161

2010/08/10 06:53
KOPF 100653Z AUTO 15010KT 10SM SCT020 SCT025 SCT075 26/24 A2988 RMK AO2 RAB0557E30 SLP119 P0000 T02560244

2010/08/10 06:53
KORL 100653Z AUTO 09005KT 10SM CLR 26/24 A2992 RMK AO2 SLP135 T02560239

2010/08/10 06:53
KOSU 100653Z AUTO 22005KT 8SM SCT075 BKN090 25/21 A2997 RMK AO2 SLP138 T02500206 $

2010/08/10 06:53
KOTM 100653Z AUTO 09007KT 10SM TS BKN021 BKN027 OVC050 26/23 A2990 RMK AO2 LTG DSNT NW-E SLP116 T02560228

2010/08/10 06:53
KOUN 100653Z AUTO 16007KT 10SM CLR 29/21 A2994 RMK AO2

2010/08/10 06:53
KOWD 100653Z AUTO 00000KT 4SM -RA BR SCT046 OVC110 22/20 A2991 RMK AO2 SLP126 P0004 T02220200

2010/08/10 06:53
KOXB 100653Z AUTO 22003KT 10SM CLR 25/24 A2996 RMK AO2 SLP144 T02500239 $

2010/08/10 06:53
KPBG 100653Z AUTO 00000KT 1/2SM FG VV001 17/17 A2990 RMK AO2 SLP124 P0001 T01720167

2010/08/10 06:53
KPBI 100653Z 16010KT 10SM -RA SCT023CB BKN035 BKN060 27/23 A2989 RMK AO2 RAB03E11B49 SLP121 CB OHD-N MOV N P0000 T02670227

2010/08/10 06:53
KPEO 100653Z AUTO 21006KT 10SM SCT075 22/21 A2998 RMK AO2 RAE37 SLP143 P0002 T02170211 $

2010/08/10 06:53
KPGD 100653Z AUTO 08005KT 10SM CLR 24/23 A2989 RMK AO2 SLP122 T02440233 TSNO

2010/08/10 06:53
KPHD 100653Z AUTO 16003KT 4SM BR FEW085 OVC100 22/20 A2997 RMK AO2 SLP142 T02170200

2010/08/10 06:53
KPIE 100653Z AUTO 10006KT 10SM CLR 26/23 A2988 RMK AO2 SLP119 T02610233

2010/08/10 06:53
KPIH 100653Z AUTO 20006KT 10SM CLR 16/09 A3001 RMK AO2 SLP119 T01560094 402500133

2010/08/10 06:53
KPIL 100653Z AUTO 16008KT 10SM FEW018 31/27 A2991 RMK AO2 SLP129 T03060267

2010/08/10 06:53
KPKB 100653Z AUTO 00000KT 4SM BR CLR 21/19 A3001 RMK AO2 SLP153 T02060194

2010/08/10 06:53
KPMP 100653Z AUTO 15015G19KT 10SM BKN020 BKN030 OVC040 27/23 A2989 RMK AO2 RAE07 SLP121 P0000 T02670233

2010/08/10 06:53
KPNC 100653Z AUTO 16006KT 10SM CLR 30/21 A2990 RMK AO2 SLP107 T03000206

2010/08/10 06:53
KPNS 100653Z AUTO 00000KT 8SM CLR 26/24 A2992 RMK AO2 SLP134 T02610244

2010/08/10 06:53
KPOF 100653Z AUTO 00000KT 10SM CLR 26/24 A2993 RMK AO2 SLP129 T02610239

2010/08/10 06:53
KPOU 100653Z 00000KT 10SM FEW080 SCT100 23/20 A2993 RMK AO2 RAB33E53 SLP131 P0000 T02330200

2010/08/10 06:53
KPTK 100653Z 29005KT 6SM BR SCT140 23/22 A2995 RMK AO2 SLP136 T02280217

2010/08/10 06:50
KPTT 100650Z AUTO 20012KT 10SM SCT100 28/19 A2993 RMK AO2

2010/08/10 06:53
KPUB 100653Z AUTO 00000KT 10SM CLR 16/15 A3007 RMK AO2 SLP123 T01610150 402830161

2010/08/10 06:53
KPUC 100653Z AUTO 36005KT 10SM CLR 14/M01 A3013 RMK AO2 SLP169 T01391006 402610122 $

2010/08/10 06:53
KPWA 100653Z AUTO 18012KT 10SM CLR 28/20 A2992 RMK AO2 SLP112 T02830200

2010/08/10 06:53
KRAL 100653Z AUTO 00000KT 10SM CLR 19/13 A2991 RMK AO2 SLP112 T01890133

2010/08/10 06:53
KRBD 100653Z VRB05KT 10SM CLR 29/20 A2991 RMK AO2 SLP116 T02890200

2010/08/10 06:53
KAAF 100653Z AUTO 05004KT 10SM FEW026 27/24 A2989 RMK AO2 SLP122 T02670244

2010/08/10 06:53
KABY 100653Z 07005KT 10SM CLR 26/24 A2997 RMK AO2 SLP148 T02560239

2010/08/10 06:53
KACK 100653Z AUTO 29007KT 5SM BR SCT065 BKN080 22/22 A2992 RMK AO2 SLP133 T02220217 TSNO

2010/08/10 06:53
KADG 100653Z AUTO 00000KT 1/4SM FG BKN001 OVC008 21/20 A2997 RMK AO2 SLP146 T02110200

2010/08/10 06:53
KAFW 100653Z 19003KT 10SM CLR 29/20 A2990 RMK AO2 SLP106 T02940200 $

2010/08/10 06:53
KAGC 100653Z 16004KT 7SM CLR 22/19 A2999 RMK AO2 SLP147 T02220189

2010/08/10 06:53
KAIA 100653Z AUTO 12007KT 10SM CLR 18/16 A3000 RMK AO2 PK WND 11028/0556 TSB05E20RAE28 SLP108 P0001 T01780161 403330133

2010/08/10 06:53
KAKO 100653Z AUTO 30005KT 10SM OVC100 17/16 A3004 RMK AO2 SLP110 T01720156 403170167 TSNO

2010/08/10 06:53
KAMG 100653Z AUTO 11003KT 10SM CLR 25/24 A2997 RMK AO2 SLP144 T02500239

2010/08/10 06:53
KAOH 100653Z AUTO 00000KT 6SM BR CLR 24/22 A2997 RMK AO2 SLP139 T02390217

2010/08/10 06:53
KAPA 100653Z 00000KT 10SM SCT110 18/13 A3015 RMK AO2 SLP138 T01780128 402670161

2010/08/10 06:53
KAPF 100653Z AUTO 08007KT 10SM CLR 25/24 A2985 RMK AO2 SLP106 T02500239

2010/08/10 06:53
KARA 100653Z AUTO 08003KT 10SM CLR 26/24 A2993 RMK AO2 SLP134 T02560244

2010/08/10 06:53
KARB 100653Z AUTO 00000KT 1/4SM FG VV001 20/19 A2996 RMK AO2 SLP139 T02000194

2010/08/10 06:53
KASE 100653Z AUTO 19004KT 10SM BKN095 10/07 A3031 RMK AO2 SLP168 T01000072 402110100

2010/08/10 06:53
KAUG 100653Z AUTO 30003KT 10SM CLR 21/18 A2987 RMK AO2 SLP113 T02110178

2010/08/10 06:53
KBAF 100653Z 00000KT 6SM -RA BR FEW043 OVC090 22/21 A2992 RMK AO2 SLP128 P0007 T02170206

2010/08/10 06:53
KBBW 100653Z AUTO 31014G25KT 3/4SM +TSRA BR BKN007 BKN023 OVC044 19/18 A2998 RMK AO2 PK WND 30035/0619 WSHFT 0610 LTG DSNT ALQDS RAB0555 SLP127 P0077 T01940183 $

2010/08/10 06:53
KBCE 100653Z AUTO 27007KT 10SM CLR 07/03 A3029 RMK AO2 SLP157 T00720028 402220050

2010/08/10 06:53
KBFF 100653Z AUTO 14006KT 10SM CLR 18/17 A3003 RMK AO2 SLP124 T01830167 403170178

2010/08/10 06:53
KBGM 100653Z AUTO 27004KT 1 3/4SM BR FEW001 BKN060 OVC075 21/20 A3002 RMK AO2 SLP150 T02060200

2010/08/10 06:53
KBGR 100653Z 25003KT 5SM BR BKN100 19/19 A2985 RMK AO2 SLP104 P0001 T01940189

2010/08/10 06:53
KBHK 100653Z AUTO 25012KT 10SM CLR 22/13 A2985 RMK AO2 SLP075 T02220128 403560139

2010/08/10 06:53
KBIL 100653Z 21007KT 10SM CLR 17/15 A2992 RMK AO2 SLP099 T01670150 403060161

2010/08/10 06:53
KBKL 100653Z 24006KT 7SM FEW046 26/21 A2993 RMK AO2 SLP127 T02610211

2010/08/10 06:53
KBKV 100653Z AUTO 09004KT 10SM CLR 24/23 A2992 RMK AO2 SLP128 T02440228

2010/08/10 06:53
KBMG 100653Z 00000KT 1 1/4SM BR CLR 22/21 A2996 RMK AO2 SLP137 T02170211

2010/08/10 06:53
KBOI 100653Z 15003KT 10SM TS FEW110 22/13 A2985 RMK AO2 SLP081 T02170128 403220194

2010/08/10 06:53
KBPI 100653Z AUTO 08005KT 10SM CLR 08/03 A3020 RMK AO2 SLP138 T00780033 402560067 TSNO

2010/08/10 06:53
KBRL 100653Z AUTO 14003KT 10SM CLR 26/23 A2990 RMK AO2 SLP116 T02610228

2010/08/10 06:53
KBTM 100653Z AUTO 09004KT 10SM -RA OVC090 12/10 A3002 RMK AO2 RAB45 SLP120 P0000 T01220100 402390072

2010/08/10 06:53
KBUR 100653Z 09005KT 10SM CLR 18/13 A2990 RMK AO2 SLP114 T01780128

2010/08/10 06:53
KBVO 100653Z AUTO 00000KT 10SM CLR 24/22 A2991 RMK AO2 SLP116 T02390217

2010/08/10 06:53
KBVY 100653Z AUTO 00000KT 2 1/2SM -RA BR BKN048 OVC120 21/21 A2990 RMK AO2 SLP118 P0002 T02110206

2010/08/10 06:53
KBYG 100653Z AUTO 00000KT 10SM 15/11 A3002 RMK AO2 SLP108 T01500106 403220144 $

2010/08/10 06:53
KBYI 100653Z AUTO 07005KT 10SM CLR 15/12 A2997 RMK AO2 SLP119 T01500117 402610150

2010/08/10 06:53
KCAG 100653Z AUTO 00000KT 10SM CLR 09/08 A3020 RMK AO2 SLP172 T00940078 402440078

2010/08/10 06:53
KCDC 100653Z AUTO 15005KT 10SM CLR 16/02 A3013 RMK AO2 SLP134 T01560022 402670094

2010/08/10 06:53
KCDR 100653Z AUTO 20012KT 10SM SCT110 22/17 A2993 RMK AO2 SLP102 T02170172 403560150

2010/08/10 06:53
KGLD 100653Z AUTO 34011KT 5SM +TSRA BR BKN022 BKN100 19/18 A3001 RMK AO2 LTG DSNT NW-NE TSB17RAB13 SLP110 P0006 T01940178 403440189

2010/08/10 06:53
KGNV 100653Z AUTO 00000KT 10SM CLR 25/23 A2993 RMK AO2 SLP132 T02500233

2010/08/10 06:53
KGOK 100653Z AUTO 17007KT 10SM CLR 28/21 A2990 RMK AO2 SLP111 T02830206

2010/08/10 06:53
KGTF 100653Z 19007KT 10SM CLR 17/09 A2986 RMK AO2 SLP085 T01670094 403060117

2010/08/10 06:53
KGUY 100653Z AUTO 16005KT 10SM CLR 23/16 A2998 RMK AO2 SLP096 T02280161

2010/08/10 06:53
KGZH 100653Z AUTO 00000KT 3SM BR CLR 24/24 A2995 RMK AO2 SLP139 T02440239

2010/08/10 06:53
KHAO 100653Z AUTO 00000KT 5SM BR CLR 22/21 A2997 RMK AO2 SLP142 T02220211

2010/08/10 06:53
KHBR 100653Z AUTO 16006KT 10SM CLR 27/19 A2994 RMK AO2 SLP113 T02670189

2010/08/10 06:53
KHFD 100653Z AUTO 03003KT 8SM SCT090 24/20 A2991 RMK AO2 RAE08 SLP129 P0000 T02390200

2010/08/10 06:53
KHHR 100653Z AUTO 24005KT 10SM OVC008 17/14 A2991 RMK AO2 SLP129 T01670139

2010/08/10 06:53
KHLC 100653Z AUTO 26005KT 10SM CLR 25/19 A2988 RMK AO2 SLP092 T02500189 $

2010/08/10 06:53
KLNS 100653Z AUTO 17003KT 8SM CLR 24/19 A2993 RMK AO2 SLP132 T02440189

2010/08/10 06:53
KLOU 100653Z AUTO 00000KT 10SM CLR 28/24 A2996 RMK AO2 SLP137 T02830239

2010/08/10 06:53
KLOZ 100653Z AUTO 00000KT 6SM BR CLR 23/22 A3002 RMK AO2 SLP150 T02280222

2010/08/10 06:53
KLPR 100653Z AUTO 25003KT 7SM CLR 25/21 A2996 RMK AO2 SLP137 T02500206

2010/08/10 06:53
KLUK 100653Z AUTO 00000KT 3SM BR CLR 23/22 A2997 RMK AO2 SLP141 T02330222

2010/08/10 06:53
KLVM 100653Z AUTO 24013G19KT 10SM CLR 17/08 A2998 RMK AO2 PK WND 21028/0601 SLP101 T01670078 403000094

2010/08/10 06:53
KLWD 100653Z AUTO 18005KT 10SM CLR 27/26 A2989 RMK AO2 SLP109 T02720261

2010/08/10 06:53
KLWV 100653Z AUTO 00000KT 4SM BR CLR 26/24 A2994 RMK AO2 SLP134 T02610239

2010/08/10 06:53
KLXT 100653Z AUTO 19005KT 10SM CLR 29/22 A2992 RMK AO2 SLP117 T02940217

2010/08/10 06:53
KMAF 100653Z AUTO 12005KT 10SM CLR 22/19 A3001 RMK AO2 SLP112 T02170194

2010/08/10 06:53
KMAI 100653Z AUTO 00000KT 9SM CLR 25/22 A2993 RMK AO2 SLP133 T02500217 $

2010/08/10 06:53
KMBS 100653Z 32005KT 8SM CLR 22/21 A2995 RMK AO2 SLP138 T02220211

2010/08/10 06:53
KMCI 100653Z 18008KT 6SM HZ CLR 27/23 A2990 RMK AO2 SLP110 T02670228 $

2010/08/10 06:53
KMCK 100653Z AUTO 36008KT 10SM BKN100 21/19 A2995 RMK AO2 SLP111 T02110189

2010/08/10 06:53
KMCO 100653Z 09005KT 10SM FEW250 25/23 A2992 RMK AO2 SLP131 T02500228

2010/08/10 06:53
KMCW 100653Z AUTO 08004KT 7SM CLR 23/23 A2995 RMK AO2 SLP128 T02330228

2010/08/10 06:53
KMGW 100653Z AUTO 00000KT 3SM BR CLR 20/18 A3002 RMK AO2 SLP152 T02000183

2010/08/10 06:53
KMGY 100653Z AUTO 00000KT 8SM CLR 24/21 A2997 RMK AO2 SLP140 T02440211

2010/08/10 06:53
KMHT 100653Z 00000KT 1 1/2SM BR FEW044 BKN055 OVC095 22/21 A2988 RMK AO2 RAE44 SLP128 P0002 T02170211

2010/08/10 06:53
KMIA 100653Z 14008KT 9SM BKN015 BKN046 OVC060 26/24 A2988 RMK AO2 SLP118 T02610239 $

2010/08/10 06:53
KMIE 100653Z AUTO 00000KT 4SM BR CLR 23/22 A2997 RMK AO2 SLP136 T02330222

2010/08/10 06:53
KMKO 100653Z AUTO 14003KT 10SM CLR 26/19 A2993 RMK AO2 SLP125 T02560194

2010/08/10 06:53
KMLB 100653Z 13006G15KT 10SM BKN019 27/23 A2993 RMK AO2 SLP133 T02720233

2010/08/10 06:53
KMLC 100653Z AUTO 00000KT 10SM CLR 26/20 A2994 RMK AO2 SLP125 T02610200

2010/08/10 06:53
KMLP 100653Z AUTO VRB03KT 10SM CLR 12/04 A2999 RMK AO2 SLP066 T01220044 TSNO

2010/08/10 06:53
KMLS 100653Z AUTO 31007KT 10SM CLR 20/15 A2983 RMK AO2 SLP077 T02000150 403560172

2010/08/10 06:53
KMLT 100653Z AUTO 00000KT 10SM CLR 17/16 A2985 RMK AO2 SLP112 T01720161

2010/08/10 06:53
KMLU 100653Z AUTO A2994 RMK AO2 SLPNO PWINO FZRANO $

2010/08/10 06:53
KMMK 100653Z AUTO 00000KT 9SM CLR 23/20 A2992 RMK AO2 RAB00E14 SLP130 P0000 T02280200

2010/08/10 06:53
KMNN 100653Z AUTO 31006KT 9SM SCT049 BKN070 24/21 A2997 RMK AO2 SLP141 T02440206

2010/08/10 06:53
KMSO 100653Z AUTO 13007KT 10SM CLR 16/12 A2991 RMK AO2 SLP108 T01610117 402670122

2010/08/10 06:53
KRDD 100653Z AUTO 03003KT 10SM CLR 23/12 A2982 RMK AO2 SLP093 T02280122

2010/08/10 06:53
KRIW 100653Z AUTO 25004KT 10SM CLR 15/03 A3005 RMK AO2 SLP110 T01500028 403060150

2010/08/10 06:53
KRME 100653Z AUTO 00000KT 2SM BR SCT001 BKN007 OVC017 21/21 A2997 RMK AO2 SLP145 T02060206 $

2010/08/10 06:53
KRSL 100653Z AUTO 19009KT 10SM FEW095 27/21 A2988 RMK AO2 SLP091 T02670206

2010/08/10 06:53
KRSW 100653Z AUTO 10005KT 10SM BKN008 25/24 A2986 RMK AO2 CIG 006V010 SLP108 T02500239

2010/08/10 06:53
KRVS 100653Z 20003KT 10SM CLR 28/21 A2991 RMK AO2 SLP127 T02830206

2010/08/10 06:53
KRWL 100653Z AUTO 00000KT 10SM CLR 12/02 A3020 RMK AO2 SLP144 T01170017 402440111

2010/08/10 06:53
KRXE 100653Z AUTO 06004KT 10SM CLR 13/10 A3005 RMK AO2 SLP137 T01330100 402440128

2010/08/10 06:53
KSEG 100653Z AUTO 00000KT 7SM CLR 22/20 A2994 RMK AO2 SLP133 T02220200

2010/08/10 06:50
KSEZ 100650Z AUTO 04004KT 10SM CLR 22/09 A3011 RMK AO2 T02220085 403050189

2010/08/10 06:53
KSHR 100653Z AUTO 21008KT 10SM CLR 15/12 A2995 RMK AO2 SLP104 T01500117 403390122

2010/08/10 06:53
KSIY 100653Z AUTO 01009KT 10SM 19/07 A2994 RMK AO2 SLP126 T01940072 $

2010/08/10 06:53
KSLC 100653Z 16006KT 10SM CLR 19/04 A2999 RMK AO2 SLP102 T01890039 403060183

2010/08/10 06:53
KSLN 100653Z 18009KT 10SM FEW120 29/21 A2987 RMK AO2 SLP097 T02940206

2010/08/10 06:53
KSMQ 100653Z AUTO 00000KT 9SM CLR 23/20 A2991 RMK AO2 SLP125 T02330200

2010/08/10 06:53
KSNY 100653Z AUTO 04010KT 10SM CLR 18/16 A3003 RMK AO2 RAE37 SLP110 P0002 T01780161 403500172

2010/08/10 06:50
KSOW 100650Z AUTO 17004KT 10SM CLR 16/10 A3027 RMK AO2

2010/08/10 06:53
KSPG 100653Z AUTO 12012KT 10SM BKN065 28/24 A2987 RMK AO2 SLP114 T02780244

2010/08/10 06:53
KSRQ 100653Z AUTO 09006KT 10SM CLR 25/24 A2986 RMK AO2 SLP111 T02500244 TSNO

2010/08/10 06:53
KSSI 100653Z AUTO 13011KT 10SM CLR 28/23 A2997 RMK AO2 SLP149 T02830233

2010/08/10 06:53
KSTJ 100653Z AUTO 19003KT 10SM CLR 26/23 A2988 RMK AO2 SLP107 T02560228

2010/08/10 06:50
KSUN 100650Z AUTO 30007KT 10SM -DZ SCT055 SCT075 SCT090 12/11 A3005 RMK AO2

2010/08/10 06:53
KHLG 100653Z AUTO 00000KT 5SM HZ OVC110 22/19 A2999 RMK AO2 SLP146 T02220194

2010/08/10 06:53
KHLN 100653Z AUTO 00000KT 10SM BKN095 14/12 A2992 RMK AO2 SLP122 T01390122 402940111

2010/08/10 06:53
KHUF 100653Z 00000KT 4SM BR CLR 23/23 A2996 RMK AO2 SLP137 T02330228

2010/08/10 06:53
KHUL 100653Z AUTO 20004KT 9SM CLR 16/15 A2982 RMK AO2 SLP096 T01560150

2010/08/10 06:53
KHVN 100653Z AUTO 00000KT 10SM CLR 24/19 A2992 RMK AO2 SLP130 T02440194

2010/08/10 06:53
KHVR 100653Z AUTO 00000KT 10SM SCT120 17/15 A2980 RMK AO2 SLP072 T01720150 403280100

2010/08/10 06:53
KHWO 100653Z AUTO 13006KT 10SM FEW017 SCT047 26/26 A2990 RMK AO2 RAE0555 SLP123 P0000 T02610256 $

2010/08/10 06:53
KHZY 100653Z AUTO 15003KT 6SM BR SCT090 23/21 A2995 RMK AO2 SLP134 T02330211

2010/08/10 06:53
KIAG 100653Z AUTO 23004KT 4SM BR OVC060 22/21 A2994 RMK AO2 SLP132 T02170206

2010/08/10 06:53
KICT 100653Z 17007KT 10SM FEW150 SCT200 28/21 A2991 RMK AO2 SLP108 T02830211

2010/08/10 06:53
KIDA 100653Z AUTO 28003KT 10SM CLR 11/09 A3004 RMK AO2 SLP142 T01110094 402440111

2010/08/10 06:53
KIML 100653Z AUTO 36014G21KT 10SM CLR 19/18 A2994 RMK AO2 LTG DSNT S AND SW TSE36RAE31 SLP106 P0011 T01940178 403390183

2010/08/10 06:53
KIPL 100653Z AUTO 24004KT 10SM CLR 27/06 A2972 RMK AO2 SLP066 T02720061

2010/08/10 06:53
KITR 100653Z AUTO 04003KT 10SM FEW110 18/16 A3005 RMK AO2 LTG DSNT NE AND E TSE0556 SLP117 T01830161 403220183

2010/08/10 06:53
KIWI 100653Z AUTO 00000KT 8SM FEW120 20/19 A2988 RMK AO2 SLP116 T02000194

2010/08/10 06:53
KIXD 100653Z AUTO 16004KT 10SM CLR 27/22 A2992 RMK AO2 SLP114 T02670222

2010/08/10 06:53
KJEF 100653Z AUTO 11003KT 9SM CLR 28/26 A2991 RMK AO2 SLP113 T02780256

2010/08/10 06:53
KJER 100653Z AUTO 06011KT 10SM CLR 16/11 A2995 RMK AO2 SLP107 T01610111 402780150 $

2010/08/10 06:53
KJKL 100653Z AUTO 00000KT 9SM CLR 24/20 A3002 RMK AO2 SLP146 T02440200

2010/08/10 06:53
KJLN 100653Z AUTO 17005KT 10SM CLR 26/22 A2994 RMK AO2 SLP123 T02610217 $

2010/08/10 06:53
KLAA 100653Z AUTO VRB04KT 10SM CLR 21/18 A3000 RMK AO2 LTG DSNT E SLP105 T02110178 403390189

2010/08/10 06:53
KLAN 100653Z 00000KT 3SM R28L/0800VP6000FT BR MIFG CLR 19/19 A2997 RMK AO2 SLP145 T01940194

2010/08/10 06:53
KLAR 100653Z AUTO 24004KT 10SM CLR 11/09 A3022 RMK AO2 SLP129 T01060089 402500106

2010/08/10 06:53
KLAW 100653Z AUTO 18008KT 10SM CLR 29/21 A2991 RMK AO2 SLP111 T02890206

2010/08/10 06:53
KLBB 100653Z 11008KT 10SM FEW160 21/18 A3004 RMK AO2 SLP117 T02060178

2010/08/10 06:53
KLBF 100653Z AUTO 30009KT 10SM -TSRA BKN050 BKN095 19/19 A2996 RMK AO2 LTG DSNT NW-E TSE09B12 SLP117 P0007 T01940189

2010/08/10 06:53
KLEB 100653Z AUTO 00000KT 1 3/4SM BR OVC001 20/19 A2992 RMK AO2 SLP118 T02000189

2010/08/10 06:53
KLEE 100653Z AUTO 09008KT 10SM CLR 26/24 A2993 RMK AO2 SLP134 T02610239

2010/08/10 06:53
KLHQ 100653Z AUTO 12003KT 6SM BR BKN100 22/20 A2998 RMK AO2 SLP142 T02170200

2010/08/10 06:53
KLHX 100653Z AUTO 19004KT 10SM CLR 19/16 A3003 RMK AO2 SLP105 T01940161 403110183 $

2010/08/10 06:53
KSWO 100653Z AUTO 17007KT 10SM CLR 28/21 A2990 RMK AO2 SLP107 T02830206

2010/08/10 06:50
KSZT 100650Z AUTO 04004KT 10SM CLR 16/10 A2980 RMK AO2

2010/08/10 06:53
KTDZ 100653Z AUTO 00000KT 2 1/2SM BR CLR 23/22 A2996 RMK AO2 SLP139 T02280217

2010/08/10 06:50
KTEX 100650Z AUTO 12003KT 10SM SCT070 12/05 A3042 RMK AO2

2010/08/10 06:53
KTHV 100653Z AUTO 10003KT 6SM HZ CLR 23/21 A2994 RMK AO2 SLP135 T02330206

2010/08/10 06:50
KTIF 100650Z AUTO 27009G18KT 10SM -VCTSRA SCT044 BKN075 OVC100 20/18 A2995 RMK AO2 LTG DSNT ALQS P0020 T01950181

2010/08/10 06:53
KTKI 100653Z AUTO 00000KT 10SM CLR 27/22 A2991 RMK AO2 SLP121 T02670217

2010/08/10 06:53
KTMB 100653Z AUTO 16005KT 10SM FEW050 27/23 A2987 RMK AO2 SLP115 T02670233

2010/08/10 06:53
KTOP 100653Z AUTO 21004KT 10SM CLR 29/21 A2988 RMK AO2 SLP106 T02940211

2010/08/10 06:53
KTOR 100653Z AUTO 14010KT 10SM FEW110 18/16 A3001 RMK AO2 SLP116 T01830161 403060172

2010/08/10 06:53
KTPA 100653Z 07004KT 10SM FEW060 26/23 A2989 RMK AO2 SLP120 T02560233

2010/08/10 06:50
KTRK 100650Z AUTO 00000KT 10SM CLR 09/05 A3012 RMK AO2

2010/08/10 06:53
KTRL 100653Z AUTO 18005KT 10SM CLR 28/19 A2991 RMK AO2 SLP121 T02780194

2010/08/10 06:53
KTTN 100653Z AUTO 00000KT 8SM CLR 25/20 A2992 RMK AO2 SLP125 T02500200

2010/08/10 06:53
KTUL 100653Z 19009KT 10SM CLR 31/19 A2990 RMK AO2 SLP114 T03110194

2010/08/10 06:53
KTUS 100653Z 22003KT 10SM CLR 28/15 A2996 RMK AO2 SLP091 T02830150 403670250

2010/08/10 06:53
KTWF 100653Z AUTO 09008KT 10SM CLR 16/12 A2995 RMK AO2 SLP086 T01610117 403110139

2010/08/10 06:53
KTXK 100653Z AUTO 00000KT 10SM CLR 26/23 A2992 RMK AO2 SLP125 T02610233

2010/08/10 06:53
KTYR 100653Z 22007KT 10SM CLR 29/23 A2994 RMK AO2 SLP128 T02940228

2010/08/10 06:53
KUAO 100653Z AUTO 35006KT 10SM CLR 14/11 A2999 RMK AO2 SLP155 T01440111

2010/08/10 06:53
KUNO 100653Z AUTO 00000KT 10SM CLR 27/23 A2998 RMK AO2 SLP132 T02670233

2010/08/10 06:53
KUUU 100653Z AUTO 00000KT 9SM -RA FEW060 23/20 A2993 RMK AO2 RAB53 SLP132 P0000 T02280200

2010/08/10 06:53
KVEL 100653Z AUTO 27004KT 10SM CLR 14/03 A3010 RMK AO2 SLP134 T01440033 402890111

2010/08/10 06:53
KVIH 100653Z AUTO 19006KT 10SM CLR 26/23 A2994 RMK AO2 SLP125 T02560228

2010/08/10 06:53
KVLD 100653Z AUTO 06004KT 10SM CLR 25/23 A2995 RMK AO2 SLP148 T02500233

2010/08/10 06:53
KVRB 100653Z AUTO 13007KT 10SM CLR 26/23 A2992 RMK AO2 SLP130 T02610233

2010/08/10 06:53
KWRL 100653Z AUTO 18007KT 10SM BKN095 17/09 A2997 RMK AO2 SLP107 T01670089 403440139 $

2010/08/10 06:53
KWST 100653Z AUTO 02004KT 8SM BKN090 23/19 A2992 RMK AO2 SLP132 T02330194

2010/08/10 06:53
KYIP 100653Z 00000KT 1/2SM FG VV001 22/21 A2997 RMK AO2 SLP140 T02170206 RVRNO

2010/08/10 06:53
KZZV 100653Z AUTO 00000KT 6SM BR CLR 21/20 A2998 RMK AO2 SLP142 T02110200

2010/08/10 06:53
KDFW 100653Z 18007KT 10SM FEW250 30/19 A2990 RMK AO2 SLP114 T03000194

2010/08/10 06:53
KDGW 100653Z AUTO 13005KT 10SM CLR 16/14 A3003 RMK AO2 SLP106 T01610144 403170139

2010/08/10 06:53
KDHN 100653Z AUTO 08004KT 10SM CLR 26/22 A2999 RMK AO2 SLP147 T02560222

2010/08/10 06:54
KDEC 100654Z AUTO 32009KT 10SM FEW085 27/21 A2997 RMK AO2 LTG DSNT N SLP140 T02720206

2010/08/10 06:54
KDSM 100654Z 36006KT 3/4SM R31/4000VP6000FT +TSRA BR BKN004 OVC016CB 22/22 A2998 RMK AO2 PK WND 03027/0623 RAB15 SLP144 CONS LTGICCG ALQDS TS ALQDS STNRY P0097 T02220217

2010/08/10 06:54
KDSV 100654Z AUTO 00000KT 2SM -RA BR SCT017 SCT049 OVC060 22/21 A2998 RMK AO2 RAB0555 SLP156 P0004 T02170206 $

2010/08/10 06:55
KDVL 100655Z AUTO 28010G26KT 10SM SCT026 SCT120 25/19 A2993 RMK AO1 LTG DSNT NW

2010/08/10 06:54
KDYL 100654Z AUTO 20004KT 10SM CLR 24/20 A2993 RMK AO2 SLP127 T02440200 TSNO

2010/08/10 06:55
KDYR 100655Z AUTO 00000KT 9SM CLR 26/22 A2995 RMK AO1

2010/08/10 06:55
KE80 100655Z AUTO 35004KT 10SM BKN110 22/08 A3012 RMK AO2 T02210075

2010/08/10 06:55
KEAR 100655Z AUTO 19006KT 10SM CLR 25/22 A2990 RMK AO1

2010/08/10 06:54
KECG 100654Z AUTO 22003KT 10SM CLR 23/23 A2999 RMK AO2 SLP156 T02330233

2010/08/10 06:55
KEEN 100655Z AUTO 00000KT 2 1/2SM SCT065 BKN120 21/20 A2992 RMK AO1

2010/08/10 06:55
KEGE 100655Z AUTO 00000KT 10SM SCT100 16/09 A3024 RMK AO1

2010/08/10 06:55
KEHR 100655Z AUTO 00000KT 8SM CLR 24/21 A2996 RMK AO1

2010/08/10 06:55
KENV 100655Z AUTO 27007KT 10SM CLR 19/08 A2998 RMK AO1

2010/08/10 06:55
KESC 100655Z AUTO 00000KT 3SM CLR 19/17 A2997 RMK AO1

2010/08/10 06:54
KEUG 100654Z 05005KT 10SM FEW040 13/11 A2999 RMK AO2 SLP154 T01280106

2010/08/10 06:55
KEUL 100655Z AUTO 12014G18KT 10SM SCT120 21/12 A2982 RMK AO1

2010/08/10 06:54
KEVV 100654Z AUTO 00000KT 8SM CLR 26/23 A2995 RMK AO2 SLP137 T02560228

2010/08/10 06:55
KEWK 100655Z AUTO 18009KT 10SM CLR 28/19 A2989 RMK AO1

2010/08/10 06:54
KEWN 100654Z AUTO 24003KT 10SM CLR 24/23 A3002 RMK AO2 SLP166 T02440233

2010/08/10 06:55
KFAM 100655Z AUTO 12003KT 10SM CLR 26/24 A2998 RMK AO1

2010/08/10 06:54
KFIG 100654Z AUTO 00000KT 8SM BKN110 20/17 A3000 RMK AO2 SLP147 T02000172

2010/08/10 06:55
KFKL 100655Z AUTO 00000KT 9SM OVC090 22/19 A3001 RMK AO1 57010

2010/08/10 06:55
KFLP 100655Z AUTO 00000KT 10SM CLR 27/24 A2994 RMK AO1

2010/08/10 06:55
KFNL 100655Z AUTO 30003KT 10SM CLR 16/14 A3011 RMK AO1

2010/08/10 06:55
KFOD 100655Z AUTO 16004KT 9SM VCTS OVC038 25/25 A2992 RMK AO1 LTG DSNT SE TSB43

2010/08/10 06:55
KFRM 100655Z 11004KT 10SM CLR 23/22 A2995 RMK AO1

2010/08/10 06:54
KFZY 100654Z AUTO 00000KT 2 1/2SM BR BKN012 OVC047 21/19 A2994 RMK AO2 SLP136 T02060194

2010/08/10 06:55
KGAD 100655Z AUTO 00000KT 10SM CLR 24/23 A2999 RMK AO1

2010/08/10 06:55
KGAI 100655Z 00000KT 10SM CLR 26/21 A2997 RMK AO1

2010/08/10 06:55
KGBD 100655Z AUTO 18013G19KT 10SM SCT100 29/19 A2990 RMK AO1

2010/08/10 06:54
KGCK 100654Z 00000KT 10SM SCT100 SCT120 25/18 A2994 RMK AO2 RAB08E20 SLP095 P0000 T02500183

2010/08/10 06:54
KGCN 100654Z AUTO 00000KT 10SM CLR 09/07 A3024 RMK AO2 SLP153 T00940067 402560067

2010/08/10 06:55
KGDV 100655Z AUTO 31023G29KT 10SM CLR 21/16 A2981 RMK AO1

2010/08/10 06:54
KGED 100654Z AUTO 20004KT 7SM CLR 23/22 A2996 RMK AO2 SLP145 T02330217

2010/08/10 06:54
KAAO 100654Z AUTO 17009KT 10SM CLR 28/20 A2991 RMK AO2 SLP108 T02830200

2010/08/10 06:55
KAEG 100655Z AUTO 00000KT 10SM CLR 18/07 A3017 RMK AO1

2010/08/10 06:55
KAIK 100655Z AUTO 00000KT 10SM CLR 23/23 A3005 RMK AO2 PNO

2010/08/10 06:55
KAIZ 100655Z AUTO 00000KT 10SM CLR 25/23 A2995 RMK AO1

2010/08/10 06:54
KAKH 100654Z AUTO 00000KT 6SM BR OVC065 23/22 A3004 RMK AO2 SLP163 T02330217

2010/08/10 06:54
KAKR 100654Z AUTO 22006KT 10SM BKN070 25/19 A2996 RMK AO2 SLP134 T02500189

2010/08/10 06:54
KALO 100654Z 07004KT 6SM BR CLR 23/23 A2991 RMK AO2 SLP119 T02330233

2010/08/10 06:54
KAPC 100654Z AUTO 24003KT 10SM OVC009 12/11 A2990 RMK AO2 SLP115 T01220111 $

2010/08/10 06:55
KARG 100655Z AUTO 13003KT 10SM CLR 27/24 A2993 RMK AO1

2010/08/10 06:55
KAUO 100655Z AUTO 09004KT 10SM CLR 27/21 A2998 RMK AO1

2010/08/10 06:54
KAUW 100654Z AUTO 00000KT 6SM BR CLR 20/19 A2998 RMK AO2 SLP148 T02000194

2010/08/10 06:54
KAVL 100654Z AUTO 00000KT 4SM R34/5500VP6000FT BR CLR 21/20 A3012 RMK AO2 SLP170 T02060200

2010/08/10 06:55
KAWO 100655Z AUTO 00000KT 10SM 15/14 A2997 RMK AO1

2010/08/10 06:55
KBBP 100655Z AUTO 00000KT 7SM CLR 25/23 A3001 RMK AO2

2010/08/10 06:54
KBFL 100654Z AUTO 35007KT 10SM CLR 24/08 A2982 RMK AO2 SLP092 T02440078

2010/08/10 06:53
KDHT 100653Z AUTO 25004KT 10SM CLR 20/17 A3006 RMK AO2 SLP113 T02000172

2010/08/10 06:53
KDKK 100653Z AUTO 23004KT 4SM BR BKN060 OVC080 22/21 A2995 RMK AO2 SLP135 T02220206 $

2010/08/10 06:53
KDLN 100653Z AUTO 18007KT 10SM BKN070 OVC110 14/07 A3003 RMK AO2 SLP122 T01440072 402170089

2010/08/10 06:53
KDMO 100653Z AUTO 20005KT 10SM CLR 28/24 A2992 RMK AO2 SLP121 T02780244

2010/08/10 06:53
KDRO 100653Z AUTO 36003KT 10SM CLR 14/06 A3024 RMK AO2 SLP151 T01390061 402780133

2010/08/10 06:53
KDTN 100653Z AUTO 14005KT 10SM CLR 28/24 A2991 RMK AO2 SLP126 T02830239

2010/08/10 06:53
KDTO 100653Z AUTO 18004KT 10SM CLR 28/20 A2991 RMK AO2 SLP116 T02780200

2010/08/10 06:53
KDTS 100653Z AUTO 35006KT 10SM CLR 28/24 A2990 RMK AO2 SLP125 T02780239

2010/08/10 06:53
KDTW 100653Z 00000KT 3/4SM R04R/5500VP6000FT BR CLR 21/21 A2996 RMK AO2 TWR VIS 4 SLP140 T02110206

2010/08/10 06:53
KDXR 100653Z AUTO 06003KT 8SM FEW046 24/19 A2995 RMK AO2 SLP138 T02440189

2010/08/10 06:53
KECP 100653Z 00000KT 5SM BR CLR 26/24 A2991 RMK AO2 SLP138 T02560244

2010/08/10 06:53
KEEO 100653Z AUTO 04006KT 10SM CLR 09/05 A3021 RMK AO2 SLP165 T00940050 402390083 TSNO

2010/08/10 06:53
KEET 100653Z AUTO 00000KT 7SM CLR 27/24 A2997 RMK AO2 SLP139 T02670239

2010/08/10 06:53
KELD 100653Z AUTO 16007KT 10SM CLR 27/24 A2993 RMK AO2 SLP129 T02670239

2010/08/10 06:53
KELM 100653Z AUTO 30004KT 6SM BR SCT022 OVC090 22/20 A2998 RMK AO2 RAE52 SLP143 P0015 T02170200 $

2010/08/10 06:53
KEMP 100653Z AUTO 18008KT 10SM CLR 27/21 A2991 RMK AO2 SLP113 T02670206

2010/08/10 06:53
KEWB 100653Z AUTO 00000KT 8SM BKN060 BKN080 23/21 A2992 RMK AO2 LTG DSNT E TSB19E39RAE35 SLP129 P0001 T02280206

2010/08/10 06:53
KEYE 100653Z AUTO 00000KT 9SM CLR 27/22 A2996 RMK AO2 SLP134 T02670222

2010/08/10 06:53
KEYW 100653Z AUTO 26005KT 10SM FEW014 SCT065 26/23 A2985 RMK AO2 SLP108 T02610233 TSNO

2010/08/10 06:53
KFDR 100653Z AUTO 20004KT 10SM 29/20 A2990 RMK AO2 SLP103 T02940200

2010/08/10 06:53
KFDY 100653Z AUTO 00000KT 5SM BR FEW044 24/22 A2996 RMK AO2 SLP133 T02390217

2010/08/10 06:53
KFFT 100653Z AUTO 00000KT 7SM CLR 23/22 A2997 RMK AO2 SLP140 T02330222

2010/08/10 06:53
KFLD 100653Z AUTO 14003KT 5SM BR CLR 22/21 A2996 RMK AO2 SLP141 T02170206

2010/08/10 06:53
KFLL 100653Z 15011KT 10SM SCT017 SCT044 26/23 A2988 RMK AO2 RAE05 SLP116 P0000 T02610233

2010/08/10 06:53
KFLO 100653Z AUTO 00000KT 10SM FEW110 25/24 A3001 RMK AO2 SLP160 T02500239

2010/08/10 06:53
KFMY 100653Z AUTO 08004KT 10SM BKN010 25/24 A2985 RMK AO2 CIG 007V011 SLP110 T02500239

2010/08/10 06:53
KFNB 100653Z AUTO 18007KT 10SM CLR 27/23 A2986 RMK AO2 SLP099 T02720228

2010/08/10 06:53
KFNT 100653Z 00000KT 1/2SM FG 19/19 A2996 RMK AO2 SLP142 T01940189 RVRNO $

2010/08/10 06:53
KPQN 100653Z AUTO 13005KT 10SM CLR 24/23 A2992 RMK AO2

2010/08/10 06:54
KFGN 100654Z AUTO 00000KT 10SM CLR 24/22 A2988 RMK AO2

2010/08/10 06:53
KPNM 100653Z AUTO 00000KT 3SM BR CLR 20/19 A2995 RMK AO2

2010/08/10 06:53
KPWC 100653Z AUTO 00000KT 5SM BR CLR 18/17 A2997 RMK AO2

2010/08/10 06:53
KFFM 100653Z AUTO 12004KT 10SM CLR 24/21 A2990 RMK AO2

2010/08/10 06:52
KGDB 100652Z AUTO 10003KT 10SM CLR 23/22 A2993 RMK AO2 T02300220

2010/08/10 06:53
KAIT 100653Z AUTO 00000KT 7SM CLR 18/16 A2996 RMK AO2

2010/08/10 06:53
KGHW 100653Z AUTO 09004KT 7SM CLR 21/19 A2997 RMK AO2

2010/08/10 06:53
KMWM 100653Z AUTO 11005KT 10SM CLR 24/22 A2992 RMK AO2 LTG DSNT SE

2010/08/10 06:55
KULM 100655Z AUTO 12004KT 10SM CLR 24/22 A2992 RMK AO2

2010/08/10 06:53
KBBB 100653Z AUTO 13005KT 10SM CLR 23/22 A2996 RMK AO2

2010/08/10 06:53
KTWM 100653Z AUTO 00000KT 10SM CLR 19/17 A2995 RMK AO2

2010/08/10 06:55
KMGG 100655Z AUTO 00000KT 7SM CLR 20/20 A2995 RMK AO2 T02040198

2010/08/10 06:48
KMOX 100648Z AUTO 09006KT 7SM CLR 21/21 A2990 RMK AO2

2010/08/10 06:53
PAAQ 100653Z AUTO 17003KT 10SM OVC008 12/11 A2978 RMK AO2 SLP081 T01220106 TSNO

2010/08/10 06:53
PABE 100653Z 17012G25KT 4SM -RA BR OVC008 09/09 A2946 RMK AO2 SLP978 P0001 T00940089

2010/08/10 06:53
PABI 100653Z AUTO 20014G20KT 10SM FEW100 16/07 A2966 RMK AO2 SLP042 T01610067 TSNO

2010/08/10 06:55
KBHB 100655Z AUTO 00000KT 4SM BKN070 BKN110 18/18 A2984 RMK AO1

2010/08/10 06:55
KBID 100655Z AUTO 23006KT 10SM CLR 22/21 A2990 RMK AO1

2010/08/10 06:55
KBKX 100655Z AUTO 10007KT 10SM SCT029 24/22 A2993 RMK AO1

2010/08/10 06:55
KBLM 100655Z AUTO 24006KT 10SM CLR 24/19 A2995 RMK AO1

2010/08/10 06:55
KBNL 100655Z AUTO 00000KT 7SM CLR 24/24 A3002 RMK AO2

2010/08/10 06:54
KBOS 100654Z 19004KT 4SM -TSRA BKN048 OVC110 19/19 A2991 RMK AO2 TSB54 SLP127 TS N MOV E P0004 T01940189

2010/08/10 06:55
KBTP 100655Z AUTO 00000KT 8SM FEW110 22/19 A2999 RMK AO1 57007

2010/08/10 06:54
KBUF 100654Z 00000KT 4SM BR BKN060 BKN080 21/20 A2994 RMK AO2 SLP135 T02110200

2010/08/10 06:54
KBUY 100654Z AUTO 22004KT 7SM CLR 24/21 A3002 RMK AO2 SLP157 T02390206

2010/08/10 06:55
KBVX 100655Z AUTO 00000KT 10SM CLR 29/24 A2994 RMK AO1

2010/08/10 06:55
KBWD 100655Z AUTO 15006KT 10SM CLR 28/19 A2996 RMK AO2

2010/08/10 06:54
KBWI 100654Z 20003KT 10SM SCT250 25/20 A2993 RMK AO2 SLP133 T02500200

2010/08/10 06:54
KCEU 100654Z AUTO 00000KT 5SM BR SCT090 27/24 A3004 RMK AO2 SLP161 T02670244

2010/08/10 06:55
KCGC 100655Z AUTO 10005KT 10SM CLR 25/24 A2990 RMK

2010/08/10 06:55
KCGZ 100655Z AUTO 29006KT 10SM CLR 33/09 A2985 RMK AO1

2010/08/10 06:55
KCIU 100655Z AUTO 02009KT 7SM SCT025 19/19 A2996 RMK AO1

2010/08/10 06:55
KCOD 100655Z AUTO 27004KT 10SM FEW090 18/06 A3002 RMK AO1

2010/08/10 06:55
KCOE 100655Z AUTO 18006KT 10SM CLR 17/07 A2981 RMK AO1

2010/08/10 06:54
KCOS 100654Z AUTO 00000KT 10SM BKN110 18/12 A3016 RMK AO2 SLP127 T01780122 402610161 TSNO

2010/08/10 06:55
KCQW 100655Z AUTO 00000KT 1/4SM FG VV002 23/23 A3002 RMK AO2

2010/08/10 06:54
KCRW 100654Z 00000KT 4SM BR FEW001 21/20 A3000 RMK AO2 SLP148 DNS VLY FG T02110200

2010/08/10 06:55
KCVN 100655Z 19006KT 10SM BKN120 21/17 A3010 RMK AO1

2010/08/10 06:55
KCVO 100655Z AUTO 28011KT 10SM CLR 14/10 A3000 RMK AO1

2010/08/10 06:50
EGBJ 100650Z 21005KT 9999 FEW012 14/12 Q1010

2010/08/10 06:50
EGCN 100650Z 23005KT 9999 FEW015 15/12 Q1008

2010/08/10 06:50
EGSC 100650Z 24008KT 210V270 8000 RA FEW007 SCT037 15/12 Q1010

2010/08/10 06:50
EGSH 100650Z 25009KT 8000 -RA SCT024 17/16 Q1009

2010/08/10 06:54
KACY 100654Z 10SM CLR 25/23 A2996 RMK AO2 SLP143 T02500228 $ 

2010/08/10 06:54
KDMH 100654Z AUTO 27/21 A2993 RMK AO2 SLP136 T02670206 PWINO TSNO 

2010/08/10 06:53
PABR 100653Z 07018G23KT 7SM OVC002 02/02 A2985 RMK AO2 SLP109 T00220022

2010/08/10 06:53
PABT 100653Z 00000KT 10SM FEW055 OVC080 13/11 A2962 RMK AO2 SLP036 T01280111

2010/08/10 06:53
PACD 100653Z AUTO 11010KT 10SM BKN065 09/08 A2961 RMK AO2 SLP027 T00940083 TSNO

2010/08/10 06:53
PACV 100653Z 00000KT 10SM SCT010 BKN023 OVC031 12/12 A2991 RMK AO2 RAE43 SLP130 P0000 T01220117

2010/08/10 06:53
PADE 100653Z AUTO 15005KT 10SM BKN041 OVC060 13/11 A2942 RMK AO2 RAE49 SLP964 P0000 T01280111 TSNO

2010/08/10 06:50
PADL 100650Z 18005KT 3SM -RA BR SCT006 OVC016 10/09 A2962

2010/08/10 06:53
PAEG 100653Z AUTO 00000KT 10SM OVC120 13/09 A2962 RMK AO2 SLP030 T01280089 TSNO

2010/08/10 06:53
PAEN 100653Z 00000KT 10SM BKN005 BKN008 OVC047 13/12 A2977 RMK AO2 RAE14 SLP082 P0001 T01280117

2010/08/10 06:53
PAFA 100653Z 01003KT 10SM BKN090 BKN140 15/11 A2961 RMK AO2 SLP030 T01500111

2010/08/10 06:53
PAGY 100653Z AUTO 21017KT 10SM OVC048 14/10 A2994 RMK AO2 SLP138 T01440100 TSNO

2010/08/10 06:53
PAHO 100653Z AUTO VRB05KT 10SM OVC044 13/08 A2975 RMK AO2 SLP075 T01280083 TSNO

2010/08/10 06:53
PAIL 100653Z AUTO 10012KT 10SM OVC037 12/09 A2966 RMK AO2 SLP045 T01170089 TSNO

2010/08/10 06:53
PAJN 100653Z 09005KT 10SM FEW005 SCT025 OVC035 13/12 A3000 RMK AO2 SLP159 T01280117

2010/08/10 06:53
PAKT 100653Z AUTO 17004KT 10SM OVC050 12/12 A3004 RMK AO2 SLP172 T01220117 TSNO

2010/08/10 06:53
PAKV 100653Z AUTO 00000KT 10SM BKN039 OVC046 12/12 A2956 RMK AO2 RAE53 SLP010 P0001 T01220117 TSNO

2010/08/10 06:53
PAKW 100653Z AUTO 00000KT 10SM OVC010 13/12 A3002 RMK AO2 SLP164 T01280117 TSNO

2010/08/10 06:53
PALH 100653Z 26006KT 10SM -RA SCT007 BKN022 OVC027 13/11 A2978 RMK AO2 RAB52 SLP083 P0000 T01280106

2010/08/10 06:53
PAMC 100653Z 00000KT 10SM SCT027 BKN100 13/09 A2960 RMK AO2 RAE49 SLP025 P0000 T01280094

2010/08/10 06:53
PAMR 100653Z 24003KT 10SM BKN010 BKN020 OVC050 12/11 A2977 RMK AO2 RAB42E51 SLP080 P0000 T01220106

2010/08/10 06:53
PANC 100653Z 25007KT 10SM -RA FEW006 BKN030 OVC060 12/11 A2976 RMK AO2 SLP080 P0001 T01170111

2010/08/10 06:53
PANN 100653Z AUTO 06005KT 10SM CLR 13/10 A2959 RMK AO2 SLP025 T01330100 TSNO

2010/08/10 06:53
PANT 100653Z AUTO 12004KT 10SM BKN050 13/11 A3003 RMK AO2 SLP169 T01280111 TSNO

2010/08/10 06:53
PAOM 100653Z 08006KT 9SM -RA BKN026 OVC033 11/10 A2940 RMK AO2 SLP954 P0004 T01110100

2010/08/10 06:53
PAOR 100653Z 00000KT 10SM SCT080 SCT100 BKN150 13/12 A2970 RMK AO2 SLP057 T01330122

2010/08/10 06:53
PAOT 100653Z AUTO 12009KT 7SM -RA FEW028 BKN049 OVC085 14/13 A2944 RMK AO2 RAB52 SLP968 P0000 T01440133 TSNO

2010/08/10 06:53
PAPB 100653Z AUTO 25004KT 1/4SM FG VV001 07/07 A2944 RMK AO2 SLP957 T00720072 TSNO

2010/08/10 06:53
PAQT 100653Z AUTO 06010KT 6SM BR OVC006 03/03 A2978 RMK AO2 SLP086 T00280028 TSNO

2010/08/10 06:53
PASC 100653Z 06016KT 1 1/4SM R05/5500VP6000FT BR OVC003 03/03 A2973 RMK AO2 SLP068 T00330028

2010/08/10 06:53
PASI 100653Z 24007KT 10SM BKN018 OVC029 13/12 A3001 RMK AO2 SLP164 T01280117

2010/08/10 06:53
PASN 100653Z AUTO 27004KT 1/4SM FG BKN001 OVC005 08/08 A2940 RMK AO2 SLP955 T00830083 TSNO

2010/08/10 06:53
PASO 100653Z AUTO VRB06KT 10SM BKN047 OVC055 13/09 A2974 RMK AO2 SLP071 T01280094 TSNO

2010/08/10 06:53
PATK 100653Z AUTO 00000KT 10SM -RA OVC024 13/12 A2975 RMK AO2 SLP076 P0001 T01280117 TSNO

2010/08/10 06:53
PATO 100653Z AUTO 11012G22KT 080V140 9SM -RA FEW020 BKN033 OVC039 12/10 A2981 RMK AO2 PK WND 08030/0621 SLP096 P0001 T01220100 TSNO

2010/08/10 06:53
PAVL 100653Z AUTO 07010KT 7SM -RA BKN021 BKN028 OVC075 14/12 A2948 RMK AO2 SLP981 P0001 T01390122 TSNO

2010/08/10 06:53
PAWD 100653Z AUTO A2982 RMK AO2 SLP100 PWINO FZRANO TSNO $

2010/08/10 06:53
PAYA 100653Z 07005KT 2 1/2SM BR FEW005 OVC012 13/12 A2996 RMK AO2 RAE0559 SLP144 BAY TWR WND 140MMKT P0001 T01330117

2010/08/10 06:55
KCWI 100655Z 08006KT 4SM CLR 23/23 A2994 RMK AO1

2010/08/10 06:54
KDDH 100654Z AUTO 00000KT 4SM BR FEW036 OVC065 21/19 A2995 RMK AO2 SLP135 T02060194

2010/08/10 06:54
KAVP 100654Z 00000KT 10SM SCT110 23/18 A2996 RMK AO2 SLP133 T02330183 $ 

2010/08/10 06:53
PAVA 100653Z AUTO 19007KT 4SM -RA BR FEW003 BKN007 OVC015 10/10 A2935 RMK AO2 CIG 006V011 P0001

2010/08/10 06:54
KCAR 100654Z AUTO 00000KT 9SM CLR 16/14 A2981 RMK AO2 SLP096 T01560144 

2010/08/10 06:54
KRIC 100654Z 20003KT 9SM CLR 24/21 A2997 RMK AO2 SLP151 T02390211 $ 

2010/08/10 06:54
K12N 100654Z AUTO 00000KT 23/21 A2995 RMK AO2 SLP133 T02330206 PWINO TSNO 

2010/08/10 06:50
EBAW 100650Z 22007KT CAVOK 17/12 Q1014 NOSIG

2010/08/10 06:50
EBBR 100650Z 21005KT CAVOK 17/12 Q1015 NOSIG

2010/08/10 06:50
EBCI 100650Z 22005KT CAVOK 17/11 Q1015 NOSIG

2010/08/10 06:50
EBLG 100650Z 16004KT CAVOK 17/12 Q1015 NOSIG

2010/08/10 06:50
EBOS 100650Z 19008KT 9999 BKN020 16/12 Q1013 NOSIG

2010/08/10 06:50
ELLX 100650Z 17005KT 140V210 CAVOK 18/12 Q1016 NOSIG

2010/08/10 06:50
LOXZ 100650Z VRB02KT 15KM FEW007ST SCT270CI 16/13 Q1020 NOSIG RMK SCT

2010/08/10 06:52
K9V9 100652Z AUTO 15014KT 24/22 A2985 RMK AO2 SLP090 T02390222 PWINO TSNO

2010/08/10 06:51
KGDP 100651Z AUTO 05008KT 10SM CLR 22/14 A3017 RMK AO2 SLP128 T02220144 403220183 TSNO

2010/08/10 06:51
KABE 100651Z AUTO 00000KT 10SM CLR 24/20 A2993 RMK AO2 SLP131 T02440200 TSNO

2010/08/10 06:52
KP69 100652Z AUTO 35003KT 16/16 A2987 RMK AO2 SLP094 T01560156 PWINO TSNO

2010/08/10 06:52
KCZZ 100652Z AUTO 05004KT 11/06 A2994 RMK AO2 SLP110 T01110061 PWINO TSNO

2010/08/10 06:51
KNYC 100651Z VRB05KT 10SM CLR 27/18 A2995 RMK AO2 SLP132 T02670183 $

2010/08/10 06:53
KRNM 100653Z AUTO 27003KT 10SM CLR 12/09 A2992 RMK AO2 SLP121 T01220094 TSNO

2010/08/10 06:53
KP68 100653Z AUTO 11005KT 14/M07 A3007 RMK AO2 SLP098 T01441067 PWINO TSNO

2010/08/10 06:53
KLXV 100653Z AUTO 00000KT 10SM CLR 06/04 A3043 RMK AO2 SLP163 T00560044 401780056 TSNO

2010/08/10 06:53
KDAB 100653Z 13005KT 10SM FEW020 27/23 A2994 RMK AO2 SLP136 T02670233

2010/08/10 06:53
KMCN 100653Z AUTO 13004KT 8SM CLR 25/22 A2999 RMK AO2 SLP151 T02500217 TSNO

2010/08/10 06:53
KTRI 100653Z 00000KT 5SM BR CLR 22/20 A3005 RMK AO2 SLP156 T02220200

2010/08/10 06:53
KMSN 100653Z 00000KT 3SM BR CLR 22/22 A2995 RMK AO2 SLP136 T02220217

2010/08/10 06:53
KTYS 100653Z 00000KT 9SM SCT120 27/22 A3000 RMK AO2 SLP144 T02720222

2010/08/10 06:53
KSDM 100653Z AUTO 25003KT 10SM CLR 14/13 A2993 RMK AO2 SLP130 T01440133 TSNO

2010/08/10 06:53
KBNO 100653Z AUTO 27006KT 10SM FEW110 16/04 A2994 RMK AO2 SLP104 T01560039 TSNO

2010/08/10 06:53
KOVE 100653Z AUTO 12004KT 10SM CLR 23/11 A2983 RMK AO2 SLP103 T02330111 TSNO $

2010/08/10 06:53
KHTL 100653Z AUTO 31004KT 4SM BR CLR 21/21 A2998 RMK AO2 SLP148 T02110206

2010/08/10 06:53
K40J 100653Z AUTO 06004KT 25/23 A2992 RMK AO2 SLP129 T02500233 PWINO TSNO

2010/08/10 06:53
KLAX 100653Z 25006KT 10SM OVC007 16/13 A2992 RMK AO2 SLP129 T01610133 $

2010/08/10 06:53
KSGR 100653Z AUTO 00000KT 10SM CLR 26/24 A2991 RMK AO2 SLP137 T02560239 TSNO

2010/08/10 06:53
KCHA 100653Z 12003KT 10SM CLR 28/22 A2999 RMK AO2 SLP145 T02780222 $

2010/08/10 06:53
KOQT 100653Z AUTO 00000KT 5SM BR CLR 26/24 A3002 RMK AO2 SLP145 T02560239 TSNO

2010/08/10 06:53
KDNK 100653Z AUTO 00000KT 10SM CLR 26/23 A2993 RMK AO2 SLP130 T02560228

2010/08/10 06:53
KSAV 100653Z 15003KT 10SM CLR 27/24 A2999 RMK AO2 SLP153 T02670239 $

2010/08/10 06:53
KMSY 100653Z 27004KT 9SM FEW015 BKN250 26/25 A2992 RMK AO2 SLP134 T02560250

2010/08/10 06:53
KTLH 100653Z 10007KT 10SM CLR 27/23 A2992 RMK AO2 SLP132 T02670233

2010/08/10 06:53
KTCS 100653Z AUTO 30007KT 10SM CLR 23/12 A3008 RMK AO2 SLP096 T02330122 403220178 TSNO

2010/08/10 06:53
K6R6 100653Z AUTO 25005KT 26/20 A2996 RMK AO2 SLP106 T02560200 PWINO TSNO

2010/08/10 06:53
KCQC 100653Z AUTO 07005KT 10SM CLR 17/12 A3025 RMK AO2 SLP137 T01670122 402780133 TSNO

2010/08/10 06:53
KCUT 100653Z AUTO 22005KT 10SM CLR 17/14 A3005 RMK AO2 SLP104 T01670139 402720122 TSNO

2010/08/10 06:54
PGUM 100654Z 10007KT 10SM SCT025 BKN032 29/23 A2989 RMK AO2 SLP113 T02890233

2010/08/10 06:53
KMGM 100653Z 00000KT 9SM CLR 28/23 A2995 RMK AO2 SLP137 T02780228

2010/08/10 06:53
KTUP 100653Z AUTO 00000KT 7SM CLR 26/24 A2995 RMK AO2 SLP135 T02560239

2010/08/10 06:53
KBTR 100653Z 00000KT 9SM FEW004 SCT020 BKN200 24/24 A2993 RMK AO2 SLP133 T02440244

2010/08/10 06:53
KMWT 100653Z AUTO 00000KT 10SM CLR 25/24 A2992 RMK AO2 SLP117 T02500239 TSNO

2010/08/10 06:53
KFAR 100653Z 15007KT 10SM CLR 25/19 A2990 RMK AO2 SLP117 T02500189

2010/08/10 06:53
KP92 100653Z AUTO 00000KT 25/24 A2992 RMK AO2 SLP131 T02500244 PWINO TSNO

2010/08/10 06:54
KJAN 100654Z 00000KT 10SM CLR 24/23 A2995 RMK AO2 SLP136 T02440233

2010/08/10 06:53
KCTY 100653Z AUTO 00000KT 25/24 A2992 RMK AO2 SLP131 T02500239 PWINO TSNO

2010/08/10 06:50
LOWW 100650Z 35003KT 280V060 9999 FEW070 19/15 Q1018 NOSIG

2010/08/10 06:50
LOWL 100650Z 12003KT 060V170 CAVOK 17/14 Q1019 NOSIG

2010/08/10 06:50
LOWS 100650Z 14008KT 110V170 9999 FEW060 18/12 Q1018 NOSIG

2010/08/10 06:50
LOWI 100650Z 28003KT 240V330 9999 FEW050 16/13 Q1019 NOSIG

2010/08/10 06:50
LOWG 100650Z VRB02KT 9999 FEW030 19/16 Q1019 NOSIG

2010/08/10 06:50
LOWK 100650Z VRB02KT 9999 FEW003 BKN037 17/16 Q1020 NOSIG

2010/08/10 06:55
PWAK 100655Z 06014G19KT 10SM SCT024 29/24 A3000 RMK AO2A 

2010/08/10 06:50
ENAN 100650Z 02010KT 9999 FEW006 BKN008 11/10 Q1011 NOSIG

2010/08/10 06:50
ENBR 100650Z 00000KT 9999 FEW040 SCT050 15/11 Q1009 NOSIG 

2010/08/10 06:50
ENBO 100650Z 22004KT 180V260 9999 FEW002 BKN050 13/12 Q1010 TEMPO 4000 BR SCT003 BKN008 

2010/08/10 06:50
ENDU 100650Z VRB01KT 9999 FEW045 SCT060 11/09 Q1010 NOSIG

2010/08/10 06:50
ENOL 100650Z VRB02KT 9999 SCT003 BKN005 13/12 Q1011 TEMPO 3000 BR

2010/08/10 06:50
ENVA 100650Z 29003KT 9999 FEW003 SCT008 BKN015 14/13 Q1011 TEMPO BKN008 

2010/08/10 06:50
EGLF 100650Z 31007KT 8000 -RA FEW004 SCT006 BKN014 14/14 Q1011

2010/08/10 06:50
EFJO 100650Z 18007KT 140V220 9999 FEW022 SCT031 BKN065 21/15 Q1011

2010/08/10 06:50
EFLP 100650Z 22006KT 9999 RA FEW025 BKN031CB 18/17 Q1012

2010/08/10 06:50
EFMI 100650Z AUTO 21006KT 140V280 9999 FEW017 SCT020 BKN050 21/16 Q1011

2010/08/10 06:50
EFSA 100650Z AUTO 18008KT 130V220 9999NDV SCT020 BKN055 21/16 Q1011

2010/08/10 06:54
EFUT 100654Z 24009KT 200V270 6000 -SHRA BKN015 BKN045 18/17 Q1012

2010/08/10 06:50
EFVR 100650Z AUTO 21006KT 170V250 7000 RA FEW021 SCT030 BKN035 OVC055 19/17 Q1010

2010/08/10 06:50
EGDL 100650Z 20006KT 9999 RA SCT023 OVC050 11/10 Q1011 NOSIG

2010/08/10 06:50
EGWU 100650Z 29007KT 9000 RA FEW007 BKN022 OVC045 15/14 Q1010

2010/08/10 07:00
TFFR 100700Z 04002KT 9999 SCT021 SCT048 25/24 Q1013 TEMPO 4000 SHRA

2010/08/10 06:53
KRIL 100653Z AUTO 00000KT 10SM CLR 14/09 A3015 RMK AO2 SLP154 T01440094 402720133 TSNO

2010/08/10 06:54
KBTV 100654Z 00000KT 5SM BR CLR 18/18 A2991 RMK AO2 SLP127 T01830183

2010/08/10 06:53
KPQN 100653Z AUTO 13005KT 10SM CLR 24/23 A2992 RMK AO2

2010/08/10 06:54
KFGN 100654Z AUTO 00000KT 10SM CLR 24/22 A2988 RMK AO2

2010/08/10 06:53
KPNM 100653Z AUTO 00000KT 3SM BR CLR 20/19 A2995 RMK AO2

2010/08/10 06:53
KPWC 100653Z AUTO 00000KT 5SM BR CLR 18/17 A2997 RMK AO2

2010/08/10 06:53
KFFM 100653Z AUTO 12004KT 10SM CLR 24/21 A2990 RMK AO2

2010/08/10 06:52
KGDB 100652Z AUTO 10003KT 10SM CLR 23/22 A2993 RMK AO2 T02300220

2010/08/10 06:53
KAIT 100653Z AUTO 00000KT 7SM CLR 18/16 A2996 RMK AO2

2010/08/10 06:53
KGHW 100653Z AUTO 09004KT 7SM CLR 21/19 A2997 RMK AO2

2010/08/10 06:53
KMWM 100653Z AUTO 11005KT 10SM CLR 24/22 A2992 RMK AO2 LTG DSNT SE

2010/08/10 06:55
KULM 100655Z AUTO 12004KT 10SM CLR 24/22 A2992 RMK AO2

2010/08/10 06:53
KBBB 100653Z AUTO 13005KT 10SM CLR 23/22 A2996 RMK AO2

2010/08/10 06:53
KTWM 100653Z AUTO 00000KT 10SM CLR 19/17 A2995 RMK AO2

2010/08/10 06:55
KMGG 100655Z AUTO 00000KT 7SM CLR 20/20 A2995 RMK AO2 T02040198

2010/08/10 06:48
KMOX 100648Z AUTO 09006KT 7SM CLR 21/21 A2990 RMK AO2

2010/08/10 06:51
KSAD 100651Z AUTO 32006KT 10SM CLR 27/11 A2996 RMK AO2 SLP086 T02670111 403610217 TSNO

2010/08/10 06:54
K1V4 100654Z AUTO 18/18 A2992 RMK AO2 SLP120 T01830178 PWINO TSNO

2010/08/10 06:54
KMQE 100654Z AUTO 33007KT 21/21 A2992 RMK AO1 SLP135 P0003 T02060206

2010/08/10 06:54
KNAK 100654Z AUTO VRB03KT 9SM CLR 26/20 A2993 RMK AO2 SLP136 T02560200 TSNO

2010/08/10 06:54
KCOU 100654Z AUTO 14005KT 10SM CLR 27/25 A2993 RMK AO2 SLP123 T02670250 TSNO $

2010/08/10 06:54
KBKB 100654Z AUTO 00000KT 10SM CLR 26/24 A2991 RMK AO2 SLP152 T02610239 $

2010/08/10 06:54
KGSO 100654Z 20006KT 8SM CLR 25/21 A3004 RMK AO2 SLP160 T02500211

2010/08/10 06:53
KELY 100653Z AUTO 20011KT 10SM CLR 16/M07 A3013 RMK AO2 SLP101 T01611067

2010/08/10 06:54
KROA 100654Z 29003KT 9SM CLR 24/21 A3004 RMK AO2 SLP156 T02390206

2010/08/10 06:55
PAEH 100655Z AUTO 18017G26KT 150V220 1SM OVC003 08/07 RMK AO1 2 T00830073

2010/08/10 06:54
KACY 100654Z 10SM CLR 25/23 A2996 RMK AO2 SLP143 T02500228 $

2010/08/10 06:54
KDMH 100654Z AUTO 27/21 A2993 RMK AO2 SLP136 T02670206 PWINO TSNO

2010/08/10 06:54
KCAR 100654Z AUTO 00000KT 9SM CLR 16/14 A2981 RMK AO2 SLP096 T01560144

2010/08/10 06:54
KAVP 100654Z 00000KT 10SM SCT110 23/18 A2996 RMK AO2 SLP133 T02330183 $

2010/08/10 06:54
K12N 100654Z AUTO 00000KT 23/21 A2995 RMK AO2 SLP133 T02330206 PWINO TSNO

2010/08/10 06:54
KRIC 100654Z 20003KT 9SM CLR 24/21 A2997 RMK AO2 SLP151 T02390211 $

2010/08/10 06:50
ENEK 100650Z 20008KT 9999 -RA SCT007 BKN060 16/15 Q1007 W16/S3

2010/08/10 06:50
ENHE 100650Z 04011KT 9999 OVC015 10/08 Q1012

2010/08/10 06:50
ENAT 100650Z 14008KT 9999 FEW025 BKN050 15/09 Q1011 

2010/08/10 06:50
ENBL 100650Z VRB01KT 9999 FEW010 SCT025 BKN031 12/11 Q1009

2010/08/10 06:50
ENEV 100650Z 34005KT 300V030 9999 SCT006 BKN025 12/10 Q1010 

2010/08/10 06:50
ENFL 100650Z VRB01KT 9999 FEW010 BKN040 15/13 Q1009

2010/08/10 06:50
ENKB 100650Z 24003KT 9999 -RA SCT015 BKN093 14/12 Q1010

2010/08/10 06:50
ENKR 100650Z 02006KT 9999 BKN005 09/08 Q1013 

2010/08/10 06:50
ENML 100650Z 08004KT 9999 FEW010 BKN035 16/13 Q1010

2010/08/10 06:50
ENNA 100650Z 08004KT 9999 FEW015 BKN050 14/09 Q1012 

2010/08/10 06:50
ENBS 100650Z 20005KT 9999 BKN035 10/05 Q1013

2010/08/10 06:50
ENHK 100650Z 13004KT 9999 FEW025 BKN050 12/09 Q1012

2010/08/10 06:50
ENNK 100650Z 25003KT 9999 BKN050 13/11 Q1010 

2010/08/10 06:50
ENNM 100650Z 23003KT 3500 BKN002 12/11 Q1011

2010/08/10 06:52
K9V9 100652Z AUTO 15014KT 24/22 A2985 RMK AO2 SLP090 T02390222 PWINO TSNO

2010/08/10 06:51
KGDP 100651Z AUTO 05008KT 10SM CLR 22/14 A3017 RMK AO2 SLP128 T02220144 403220183 TSNO

2010/08/10 06:50
KPTS 100650Z AUTO 19004KT 10SM CLR 28/23 A2992 RMK AO2 T02760230

2010/08/10 06:52
KSPS 100652Z AUTO 17009KT 10SM CLR 29/19 A2991 RMK AO2 SLP109 P0006 T02890189

2010/08/10 06:52
KTOL 100652Z 20003KT 1 3/4SM BR CLR 22/22 A2995 RMK AO2 SLP137 T02220217

2010/08/10 06:52
KMFD 100652Z AUTO 22004KT 7SM BKN044 24/18 A2998 RMK AO2 SLP140 T02440183

2010/08/10 06:52
KMHK 100652Z AUTO 22008KT 10SM CLR 29/21 A2987 RMK AO2 SLP100 T02940206

2010/08/10 06:52
KVTN 100652Z AUTO 28006KT 10SM -RA SCT055 OVC100 21/19 A2990 RMK AO2 LTG DSNT SE-SW TSE15B18E38 SLP099 P0001 T02110194

2010/08/10 06:51
KABE 100651Z AUTO 00000KT 10SM CLR 24/20 A2993 RMK AO2 SLP131 T02440200 TSNO

2010/08/10 06:52
KP69 100652Z AUTO 35003KT 16/16 A2987 RMK AO2 SLP094 T01560156 PWINO TSNO

2010/08/10 06:52
KCZZ 100652Z AUTO 05004KT 11/06 A2994 RMK AO2 SLP110 T01110061 PWINO TSNO

2010/08/10 06:51
KNYC 100651Z VRB05KT 10SM CLR 27/18 A2995 RMK AO2 SLP132 T02670183 $

2010/08/10 06:52
KABI 100652Z 17005KT 10SM CLR 29/18 A2998 RMK AO2 SLP118 T02890178

2010/08/10 06:53
PHTO 100653Z 04003KT 10SM BKN060 24/18 A3010 RMK AO2 SLP191 T02390183

2010/08/10 06:53
PHKO 100653Z 06014G19KT 10SM FEW029 BKN050 OVC060 26/15 A3004 RMK AO2 SLP174 T02560150

2010/08/10 06:53
PHLI 100653Z 05013KT 10SM OVC065 25/19 A3012 RMK AO2 SLP198 T02500194

2010/08/10 06:51
KBVE 100651Z AUTO 00000KT CLR 26/25 A2991 RMK AO2 SLP128 T02610250 TSNO $

2010/08/10 06:51
KCAK 100651Z 23004KT 8SM BKN065 OVC100 24/19 A2997 RMK AO2 SLP137 T02440194

2010/08/10 06:53
KCLL 100653Z AUTO 19003KT 10SM CLR 28/23 A2993 RMK AO2 SLP130 T02830233

2010/08/10 06:51
KCRP 100651Z 00000KT 10SM FEW018 27/26 A2993 RMK AO2 SLP132 T02670256

2010/08/10 06:53
KCRQ 100653Z 00000KT 10SM BKN011 18/14 A2991 RMK AO2 SLP125 T01780144

2010/08/10 06:53
KDBQ 100653Z AUTO 05003KT 9SM CLR 24/23 A2994 RMK AO2 SLP130 T02390233

2010/08/10 06:53
KDMN 100653Z AUTO 22004KT 10SM CLR 21/10 A3005 RMK AO2 SLP096 T02110100 403440167

2010/08/10 06:53
KDRT 100653Z AUTO 12010G16KT 10SM CLR 30/22 A2992 RMK AO2 SLP112 T03000222

2010/08/10 06:53
KODX 100653Z AUTO 13006KT 4SM BR OVC006 25/24 A2986 RMK AO2 LTG DSNT W-N TSE26 SLP097 T02500239

2010/08/10 06:51
KORF 100651Z 22006KT 10SM CLR 25/23 A2998 RMK AO2 SLP150 T02500233 $

2010/08/10 06:53
KPDX 100653Z 34005KT 10SM OVC038 16/12 A3000 RMK AO2 SLP157 T01560117

2010/08/10 06:53
KPGA 100653Z AUTO 20005KT 10SM SCT120 25/01 A3003 RMK AO2 SLP100 T02500006 403220172

2010/08/10 06:53
KSTC 100653Z AUTO 00000KT 7SM CLR 21/20 A2995 RMK AO2 SLP141 T02060200 $

2010/08/10 06:53
KYKM 100653Z AUTO 33014KT 10SM CLR 19/08 A2985 RMK AO2 SLP103 T01890083

2010/08/10 06:53
KHSI 100653Z AUTO 17007KT 10SM CLR 27/21 A2986 RMK AO2 SLP088 T02670211 $

2010/08/10 06:53
KHSV 100653Z 00000KT 5SM BR FEW200 26/24 A2998 RMK AO2 SLP142 T02560244

2010/08/10 06:53
KJBR 100653Z AUTO 00000KT 10SM CLR 27/24 A2993 RMK AO2 SLP132 T02720244

2010/08/10 06:53
KLIT 100653Z 18003KT 7SM SCT250 28/25 A2993 RMK AO2 SLP132 T02830250

2010/08/10 06:53
KFAT 100653Z 31008KT 10SM CLR 24/14 A2981 RMK AO2 SLP091 T02440144

2010/08/10 06:53
KFMN 100653Z AUTO 00000KT 10SM OVC120 19/08 A3015 RMK AO2 SLP147 T01890078 403110172

2010/08/10 06:53
KGEG 100653Z 18006KT 10SM BKN130 19/04 A2980 RMK AO2 SLP074 T01890044

2010/08/10 06:53
KGRR 100653Z AUTO 00000KT 4SM BR CLR 21/20 A2997 RMK AO2 VIS 2 RWY 8R SLP144 T02110200

2010/08/10 06:53
KRMG 100653Z AUTO 00000KT 8SM CLR 25/23 A2999 RMK AO2 SLP144 T02500228

2010/08/10 06:51
KSAN 100651Z 27004KT 10SM OVC015 18/14 A2993 RMK AO2 SLP135 T01780144

2010/08/10 06:53
KSAT 100653Z 18007KT 10SM FEW015 27/24 A2997 RMK AO2 SLPNO T02720239

2010/08/10 06:53
KSEA 100653Z 21006KT 10SM BKN012 OVC065 14/12 A2997 RMK AO2 SLP155 T01390117

2010/08/10 06:51
KSAN 100651Z 27004KT 10SM OVC015 18/14 A2993 RMK AO2 SLP135 T01780144

2010/08/10 06:52
KIOW 100652Z AUTO 00000KT 10SM FEW085 24/23 A2991 RMK AO2 LTG DSNT SW SLP122 T02440233

2010/08/10 06:52
KISN 100652Z 28003KT 10SM -TSRA BKN100 BKN120 21/17 A2982 RMK AO2 LTG DSNT ALQDS TSE0557B07RAB03E30B46GSB14E18 SLP086 P0008 T02110172

2010/08/10 06:50
KJYR 100650Z AUTO 14006KT 5SM BR CLR 25/24 A2986 RMK AO2

2010/08/10 06:50
KLAM 100650Z AUTO 00000KT 10SM CLR 20/07 A3028 RMK AO2

2010/08/10 06:50
KLCG 100650Z AUTO 13003KT 5SM BR OVC006 25/25 A2985 RMK AO2 LTG DSNT N T02510245

2010/08/10 06:51
KLHM 100651Z AUTO 14010KT 10SM CLR 22/12 A2982 RMK AO1 T02210120

2010/08/10 06:52
KLWC 100652Z AUTO 12005KT 10SM CLR 25/23 A2989 RMK AO2 SLP111 T02500228

2010/08/10 06:50
KLXN 100650Z AUTO 31020G27KT 10SM SCT023 SCT039 BKN050 22/19 A2996 RMK AO2 LTG DSNT SW THRU NE T02190187

2010/08/10 06:52
KMDH 100652Z AUTO 00000KT 4SM BR FEW090 26/23 A2995 RMK AO2 SLP137 T02560233 TSNO

2010/08/10 06:52
KMEB 100652Z AUTO 00000KT 10SM CLR 24/23 A3002 RMK AO2 SLP161 T02390233

2010/08/10 06:52
KMKE 100652Z 00000KT 4SM BR FEW250 23/21 A2995 RMK AO2 SLP138 T02280211

2010/08/10 06:50
KMLE 100650Z AUTO 00000KT 10SM CLR 27/24 A2984 RMK AO2 T02730242

2010/08/10 06:52
KMLI 100652Z 09004KT 10SM CLR 25/23 A2990 RMK AO2 SLP121 T02500233

2010/08/10 06:50
KMMH 100650Z AUTO 00000KT 10SM CLR 11/02 A3017 RMK AO1

2010/08/10 06:52
KMWH 100652Z AUTO 31007KT 10SM CLR 20/09 A2979 RMK AO2 SLP081 T02000089

2010/08/10 06:52
KUGN 100652Z AUTO 00000KT 1 3/4SM BR CLR 22/21 A2995 RMK AO2 SLP126 T02170206

2010/08/10 06:54
KWDG 100654Z AUTO 20004KT 10SM CLR 26/21 A2992 RMK AO2

2010/08/10 06:48
KWWR 100648Z AUTO 20007KT 10SM CLR 26/19 A2996 RMK AO2 T02600186

2010/08/10 06:53
KABR 100653Z AUTO 15006KT 10SM CLR 24/22 A2988 RMK AO2 SLP105 T02390217

2010/08/10 06:53
KACV 100653Z AUTO 20007KT 10SM OVC005 12/10 A2994 RMK AO2 SLP145 T01170100

2010/08/10 06:53
KAEX 100653Z 00000KT 10SM CLR 27/24 A2992 RMK AO2 SLP132 T02720239

2010/08/10 06:53
KAGS 100653Z AUTO 00000KT 4SM BR CLR 23/22 A3001 RMK AO2 SLP159 T02280222 TSNO

2010/08/10 06:53
KALI 100653Z AUTO 00000KT 10SM CLR 27/26 A2993 RMK AO2 SLP130 T02670256

2010/08/10 06:53
KALW 100653Z AUTO 19010KT 10SM CLR 19/06 A2987 RMK AO2 SLP107 T01940061

2010/08/10 06:53
KAMA 100653Z AUTO 17011KT 10SM CLR 22/17 A3005 RMK AO2 SLP117 T02170172

2010/08/10 06:53
KAMW 100653Z AUTO 18006KT 10SM VCTS FEW060 SCT075 23/22 A2993 RMK AO2 LTG DSNT ALQDS RAB14E34 SLP123 P0000 T02330217

2010/08/10 06:53
KANB 100653Z AUTO 00000KT 7SM CLR 27/22 A2999 RMK AO2 SLP142 T02670217

2010/08/10 06:53
KAOO 100653Z AUTO 00000KT 7SM CLR 20/18 A3001 RMK AO2 SLP148 T02000178

2010/08/10 06:53
KASD 100653Z AUTO 00000KT 6SM BR FEW001 25/23 A2992 RMK AO2 SLP130 T02500233

2010/08/10 06:53
KASX 100653Z AUTO 22003KT 10SM CLR 20/19 A2996 RMK AO2 SLP143 T02000194

2010/08/10 06:53
KATY 100653Z AUTO 13006KT 10SM BKN029 24/22 A2991 RMK AO2 SLP114 T02390222

2010/08/10 06:53
KAUS 100653Z 21004KT 10SM CLR 27/24 A2994 RMK AO2 SLP125 T02670239

2010/08/10 06:53
KAWM 100653Z AUTO 00000KT 10SM CLR 26/25 A2993 RMK AO2 SLP128 T02610250

2010/08/10 06:53
KAXN 100653Z AUTO 14005KT 8SM CLR 23/21 A2996 RMK AO2 SLP137 T02280206 $

2010/08/10 06:53
KAZO 100653Z AUTO 00000KT 1/4SM FG VV001 20/19 A2997 RMK AO2 SLP146 T02000194

2010/08/10 06:53
KBDE 100653Z AUTO 19003KT 10SM CLR 22/20 A2992 RMK AO2 SLP126 T02170200

2010/08/10 06:53
KBEH 100653Z AUTO 00000KT 6SM BR CLR 21/20 A2995 RMK AO2 SLP138 T02110200

2010/08/10 06:53
KBFD 100653Z AUTO 00000KT 1 3/4SM BR FEW070 BKN090 OVC110 19/18 A3002 RMK AO2 SLP147 T01890183

2010/08/10 06:53
KBFI 100653Z 20004KT 10SM BKN017 OVC055 15/12 A2997 RMK AO2 SLP147 T01500117

2010/08/10 06:53
KBFM 100653Z AUTO 36003KT 9SM CLR 27/24 A2994 RMK AO2 SLP137 T02670244

2010/08/10 06:53
KBHM 100653Z 00000KT 9SM FEW070 28/23 A2999 RMK AO2 SLP144 T02780233

2010/08/10 06:53
KBIV 100653Z AUTO 00000KT 2 1/2SM BR SCT001 21/19 A2997 RMK AO2 SLP144 T02110194

2010/08/10 06:53
KBKE 100653Z AUTO 18004KT 10SM CLR 13/08 A2991 RMK AO2 SLP108 T01330083

2010/08/10 06:53
KAGC 100653Z 16004KT 7SM CLR 22/19 A2999 RMK AO2 SLP147 T02220189

2010/08/10 06:53
KAIA 100653Z AUTO 12007KT 10SM CLR 18/16 A3000 RMK AO2 PK WND 11028/0556 TSB05E20RAE28 SLP108 P0001 T01780161 403330133

2010/08/10 06:53
KAKO 100653Z AUTO 30005KT 10SM OVC100 17/16 A3004 RMK AO2 SLP110 T01720156 403170167 TSNO

2010/08/10 06:53
KAMG 100653Z AUTO 11003KT 10SM CLR 25/24 A2997 RMK AO2 SLP144 T02500239

2010/08/10 06:53
KAOH 100653Z AUTO 00000KT 6SM BR CLR 24/22 A2997 RMK AO2 SLP139 T02390217

2010/08/10 06:53
KAPA 100653Z 00000KT 10SM SCT110 18/13 A3015 RMK AO2 SLP138 T01780128 402670161

2010/08/10 06:53
KAPF 100653Z AUTO 08007KT 10SM CLR 25/24 A2985 RMK AO2 SLP106 T02500239

2010/08/10 06:53
KARA 100653Z AUTO 08003KT 10SM CLR 26/24 A2993 RMK AO2 SLP134 T02560244

2010/08/10 06:53
KARB 100653Z AUTO 00000KT 1/4SM FG VV001 20/19 A2996 RMK AO2 SLP139 T02000194

2010/08/10 06:53
KASE 100653Z AUTO 19004KT 10SM BKN095 10/07 A3031 RMK AO2 SLP168 T01000072 402110100

2010/08/10 06:53
KAUG 100653Z AUTO 30003KT 10SM CLR 21/18 A2987 RMK AO2 SLP113 T02110178

2010/08/10 06:53
KBAF 100653Z 00000KT 6SM -RA BR FEW043 OVC090 22/21 A2992 RMK AO2 SLP128 P0007 T02170206

2010/08/10 06:53
KBBW 100653Z AUTO 31014G25KT 3/4SM +TSRA BR BKN007 BKN023 OVC044 19/18 A2998 RMK AO2 PK WND 30035/0619 WSHFT 0610 LTG DSNT ALQDS RAB0555 SLP127 P0077 T01940183 $

2010/08/10 06:53
KBCE 100653Z AUTO 27007KT 10SM CLR 07/03 A3029 RMK AO2 SLP157 T00720028 402220050

2010/08/10 06:53
KBGM 100653Z AUTO 27004KT 1 3/4SM BR FEW001 BKN060 OVC075 21/20 A3002 RMK AO2 SLP150 T02060200

2010/08/10 06:53
KBGR 100653Z 25003KT 5SM BR BKN100 19/19 A2985 RMK AO2 SLP104 P0001 T01940189

2010/08/10 06:53
KBHK 100653Z AUTO 25012KT 10SM CLR 22/13 A2985 RMK AO2 SLP075 T02220128 403560139

2010/08/10 06:53
KBKL 100653Z 24006KT 7SM FEW046 26/21 A2993 RMK AO2 SLP127 T02610211

2010/08/10 06:53
KBKV 100653Z AUTO 09004KT 10SM CLR 24/23 A2992 RMK AO2 SLP128 T02440228

2010/08/10 06:53
KBMG 100653Z 00000KT 1 1/4SM BR CLR 22/21 A2996 RMK AO2 SLP137 T02170211

2010/08/10 06:53
KBOI 100653Z 15003KT 10SM TS FEW110 22/13 A2985 RMK AO2 SLP081 T02170128 403220194

2010/08/10 06:53
KBPI 100653Z AUTO 08005KT 10SM CLR 08/03 A3020 RMK AO2 SLP138 T00780033 402560067 TSNO

2010/08/10 06:53
KBRL 100653Z AUTO 14003KT 10SM CLR 26/23 A2990 RMK AO2 SLP116 T02610228

2010/08/10 06:53
KBTM 100653Z AUTO 09004KT 10SM -RA OVC090 12/10 A3002 RMK AO2 RAB45 SLP120 P0000 T01220100 402390072

2010/08/10 06:53
KBUR 100653Z 09005KT 10SM CLR 18/13 A2990 RMK AO2 SLP114 T01780128

2010/08/10 06:53
KBVO 100653Z AUTO 00000KT 10SM CLR 24/22 A2991 RMK AO2 SLP116 T02390217

2010/08/10 06:53
KBVY 100653Z AUTO 00000KT 2 1/2SM -RA BR BKN048 OVC120 21/21 A2990 RMK AO2 SLP118 P0002 T02110206

2010/08/10 06:53
KBYG 100653Z AUTO 00000KT 10SM 15/11 A3002 RMK AO2 SLP108 T01500106 403220144 $

2010/08/10 06:53
KBYI 100653Z AUTO 07005KT 10SM CLR 15/12 A2997 RMK AO2 SLP119 T01500117 402610150

2010/08/10 06:53
KCAG 100653Z AUTO 00000KT 10SM CLR 09/08 A3020 RMK AO2 SLP172 T00940078 402440078

2010/08/10 06:53
KCDC 100653Z AUTO 15005KT 10SM CLR 16/02 A3013 RMK AO2 SLP134 T01560022 402670094

2010/08/10 06:53
KCDS 100653Z AUTO 21006KT 10SM FEW036 25/20 A2998 RMK AO2 TSE10B37E52RAB19E40 SLP120 P0000 T02500200

2010/08/10 06:53
KCDW 100653Z AUTO 00000KT 9SM CLR 26/19 A2993 RMK AO2 SLP137 T02560189 TSNO $

2010/08/10 06:53
KCEW 100653Z AUTO 00000KT 2 1/2SM BR CLR 23/23 A2994 RMK AO2 SLP136 T02330233

2010/08/10 06:53
KCEZ 100653Z AUTO 00000KT 10SM CLR 13/08 A3019 RMK AO2 SLP149 T01330083 402830133

2010/08/10 06:53
KCGI 100653Z AUTO 00000KT 5SM BR CLR 25/24 A2993 RMK AO2 SLP131 T02500239 TSNO

2010/08/10 06:53
KCHO 100653Z AUTO 18004KT 7SM CLR 24/22 A2997 RMK AO2 SLP138 T02440217 TSNO

2010/08/10 06:53
KCKB 100653Z 00000KT 4SM BR CLR 20/19 A3001 RMK AO2 SLP146 T02000189

2010/08/10 06:53
KCNO 100653Z 00000KT 8SM CLR 16/12 A2992 RMK AO2 SLP126 T01610122

2010/08/10 06:53
KCPR 100653Z AUTO 18009KT 10SM CLR 18/04 A3005 RMK AO2 SLP103 T01830039 403000133

2010/08/10 06:53
KMSP 100653Z 12003KT 10SM CLR 26/22 A2994 RMK AO2 SLP130 T02610222

2010/08/10 06:53
KMSY 100653Z 27004KT 9SM FEW015 BKN250 26/25 A2992 RMK AO2 SLP134 T02560250

2010/08/10 06:53
KMYF 100653Z AUTO 32003KT 10SM SCT011 17/14 A2992 RMK AO2 SLP129 T01720144 TSNO

2010/08/10 06:53
KMYV 100653Z AUTO 14005KT 10SM CLR 19/12 A2982 RMK AO2 SLP099 T01940117

2010/08/10 06:53
KNEW 100653Z AUTO 05007KT 9SM CLR 29/26 A2992 RMK AO2 SLP124 T02890256 TSNO

2010/08/10 06:53
KOAK 100653Z 34004KT 10SM OVC006 14/11 A2993 RMK AO2 SLP134 T01390111

2010/08/10 06:53
KOMK 100653Z AUTO 35010G16KT 10SM BKN095 17/11 A2984 RMK AO2 SLP099 T01670106

2010/08/10 06:53
KONT 100653Z 22005KT 10SM CLR 18/13 A2991 RMK AO2 SLP114 T01830128

2010/08/10 06:53
KOSH 100653Z AUTO 00000KT 5SM BR CLR 23/21 A2996 RMK AO2 SLP130 T02280211

2010/08/10 06:53
KOVS 100653Z AUTO 00000KT 1/4SM FG VV001 23/23 A2994 RMK AO2 SLP134 T02330228

2010/08/10 06:53
KPAE 100653Z AUTO 22005KT 10SM FEW011 BKN044 14/12 A2997 RMK AO2 SLP146 T01440122

2010/08/10 06:53
KPAH 100653Z AUTO 00000KT 7SM CLR 26/24 A2994 RMK AO2 SLP131 T02610244

2010/08/10 06:53
KPBF 100653Z AUTO 00000KT 10SM CLR 28/24 A2993 RMK AO2 SLP130 T02780239

2010/08/10 06:53
KPDK 100653Z AUTO 00000KT 10SM CLR 26/20 A3002 RMK AO2 SLP143 T02560200

2010/08/10 06:53
KPDT 100653Z AUTO 31009KT 10SM CLR 17/06 A2988 RMK AO2 WSHFT 0628 SLP104 T01670061

2010/08/10 06:53
KPIR 100653Z AUTO 10006KT 10SM CLR 24/23 A2984 RMK AO2 SLP087 T02390228

2010/08/10 06:53
KSPW 100653Z AUTO 10007KT 7SM SCT036 24/24 A2991 RMK AO2 SLP119 T02440239

2010/08/10 06:53
KSSF 100653Z AUTO 13003KT 10SM CLR 27/23 A2995 RMK AO2 SLP126 T02720233

2010/08/10 06:53
KSTP 100653Z AUTO 00000KT 10SM CLR 24/22 A2994 RMK AO2 SLP130 T02390222

2010/08/10 06:53
KSTS 100653Z AUTO 12005KT 10SM OVC004 12/11 A2989 RMK AO2 SLP117 T01220111

2010/08/10 06:53
KTCC 100653Z AUTO 21005KT 10SM FEW110 23/17 A3006 RMK AO2 SLP107 T02330167 403390183

2010/08/10 06:53
KTCL 100653Z AUTO 00000KT 6SM HZ CLR 27/24 A2995 RMK AO2 SLP139 T02720239

2010/08/10 06:53
KTIW 100653Z 25006KT 10SM BKN014 OVC019 13/11 A2997 RMK AO2 SLP147 T01330111

2010/08/10 06:53
KTOI 100653Z AUTO 00000KT 5SM BR CLR 24/23 A2996 RMK AO2 SLP139 T02390233

2010/08/10 06:53
KTTD 100653Z 30004KT 10SM OVC041 16/12 A2998 RMK AO2 SLP150 T01610117

2010/08/10 06:53
KTVC 100653Z AUTO 19003KT 7SM CLR 21/21 A2995 RMK AO2 SLP139 T02110206

2010/08/10 06:53
KTVL 100653Z AUTO 00000KT 10SM CLR 11/07 A3012 RMK AO2 SLP144 T01110072

2010/08/10 06:53
KTVR 100653Z AUTO 10003KT 6SM BR CLR 25/23 A2993 RMK AO2 SLP141 T02500233

2010/08/10 06:53
KUTS 100653Z AUTO 20004KT 1SM HZ CLR 27/23 A2994 RMK AO2 SLP130 T02720233

2010/08/10 06:53
KVCB 100653Z AUTO 21006KT 10SM CLR 17/12 A2982 RMK AO2 SLP097 T01720117

2010/08/10 06:53
KVGT 100653Z AUTO 33006KT 10SM CLR 27/M03 A2985 RMK AO2 SLP073 T02721033 TSNO

2010/08/10 06:53
KVPC 100653Z AUTO 00000KT 7SM CLR 24/22 A3001 RMK AO2 SLP147 T02390222

2010/08/10 06:53
KVPZ 100653Z AUTO 00000KT 10SM SCT036 BKN050 23/22 A2996 RMK AO2 SLP138 T02330222

2010/08/10 06:53
KVUO 100653Z AUTO 34004KT 10SM OVC037 16/12 A2999 RMK AO2 SLP156 T01560117

2010/08/10 06:53
KWVI 100653Z AUTO 09004KT 8SM OVC004 12/12 A2994 RMK AO2 SLP139 T01220117

2010/08/10 06:53
KXNA 100653Z AUTO 00000KT 10SM CLR 26/22 A2997 RMK AO2 SLP129 T02560217

2010/08/10 06:53
KHKS 100653Z AUTO 00000KT 10SM CLR 24/23 A2996 RMK AO2 SLP135 T02440233

2010/08/10 06:53
KHKY 100653Z AUTO 00000KT 8SM CLR 24/22 A3005 RMK AO2 SLP150 T02390222

2010/08/10 06:53
KHOT 100653Z AUTO 00000KT 10SM CLR 29/23 A2994 RMK AO2 SLP128 T02940233

2010/08/10 06:53
KHOU 100653Z 25005KT 10SM FEW250 28/24 A2991 RMK AO2 SLP132 T02780239

2010/08/10 06:53
KHQM 100653Z AUTO 27004KT 10SM OVC013 13/11 A3000 RMK AO2 SLP161 T01280106

2010/08/10 06:53
KHRI 100653Z AUTO 24013G21KT 10SM CLR 18/09 A2984 RMK AO2 SLP099 T01830094

2010/08/10 06:53
KHRO 100653Z AUTO 00000KT 9SM CLR 26/23 A2998 RMK AO2 SLP133 T02610233

2010/08/10 06:53
KHYR 100653Z AUTO 00000KT 5SM BR CLR 18/17 A2999 RMK AO2 SLP149 T01780172

2010/08/10 06:50
LXGB 100650Z 30004KT CAVOK 23/15 Q1016 NOSIG

2010/08/10 06:45
KNBG 100645Z AUTO 00000KT 1 3/4SM BR CLR A2992 RMK AO2 PWINO FZRANO $

2010/08/10 06:50
KMTC 100650Z AUTO 00000KT 1 1/2SM R19/1000VP6000FT DZ BR CLR 21/21 A2994 RMK AO2 VIS 1/2V5 SLP142 $

2010/08/10 06:51
KMTC 100651Z AUTO 00000KT 2SM R19/1800VP6000FT DZ BR CLR 21/21 A2994 RMK AO2 VIS 3/4V5 SLP142 $

2010/08/10 06:52
KMTC 100652Z AUTO 00000KT 2 1/2SM R19/2200VP6000FT DZ BR CLR 21/21 A2994 RMK AO2 SLP142 $

2010/08/10 06:54
KMTC 100654Z AUTO 00000KT 2SM R19/2200VP6000FT DZ BR CLR 21/21 A2994 RMK AO2 SLP142 $

2010/08/10 06:50
KVOK 100650Z 00000KT 1/4SM R27/0800V1000FT FG CLR 19/19 A2996 RMK AO2A SLP139

2010/08/10 06:50
LIBD 100650Z 33004KT CAVOK 26/13 Q1014

2010/08/10 06:45
LIBR 100645Z 33022G34KT CAVOK 25/21 Q1013 NOSIG

2010/08/10 06:50
LICC 100650Z 23004KT CAVOK 25/17 Q1014

2010/08/10 06:50
LICJ 100650Z 30003KT CAVOK 25/19 Q1015

2010/08/10 06:50
LIPB 100650Z 14002KT 9999 FEW040 SCT060TCU 22/16 Q1018

2010/08/10 06:50
LIPE 100650Z 26005KT 230V300 CAVOK 23/19 Q1015

2010/08/10 06:45
LIPH 100645Z 05004KT CAVOK 25/20 Q1016

2010/08/10 06:50
LIPK 100650Z 00000KT CAVOK 23/18 Q1015

2010/08/10 06:50
LIPQ 100650Z VRB01KT CAVOK 23/19 Q1016

2010/08/10 06:45
LIPR 100645Z 25001KT CAVOK 23/22 Q1015

2010/08/10 06:45
LIPX 100645Z 07003KT 9999 FEW040 24/22 Q1015

2010/08/10 06:50
LIPZ 100650Z 01005KT CAVOK 23/19 Q1016

2010/08/10 06:55
KMYR 100655Z AUTO 20005KT 10SM SCT020 SCT027 BKN120 28/24 A3005 RMK AO1

2010/08/10 06:55
KOAJ 100655Z AUTO 00000KT 10SM CLR 23/22 A3003 RMK AO1

2010/08/10 06:50
KOGA 100650Z AUTO 01010G20KT 10SM RA SCT085 OVC120 19/17 A3000 RMK AO2 LTG DSNT NE AND S P0006 T01920165 403320176

2010/08/10 06:50
KOJA 100650Z AUTO 19003KT 10SM CLR 28/21 A2994 RMK AO2

2010/08/10 06:52
KOKB 100652Z AUTO 00000KT 8SM FEW011 13/12 A2991 RMK AO2 SLP127 T01330117 $

2010/08/10 06:52
KOKC 100652Z 16007KT 10SM CLR 27/21 A2993 RMK AO2 SLP114 T02670211 $

2010/08/10 06:51
KOKM 100651Z AUTO 21004KT 10SM CLR 29/22 A2993 RMK AO1

2010/08/10 06:52
KOMA 100652Z 13005KT 10SM FEW250 28/26 A2985 RMK AO2 SLP095 CONS LTG DSNT NW AND NE T02780256

2010/08/10 06:50
KONL 100650Z AUTO 13005KT 2 1/2SM BR BKN004 OVC021 24/23 A2988 RMK AO2 LTG DSNT ALQS T02370232

2010/08/10 06:52
KORE 100652Z AUTO 16003KT 6SM BR OVC095 22/21 A2993 RMK AO2 RAE20 SLP130 P0001 T02170206

2010/08/10 06:50
KORS 100650Z AUTO 18006KT 10SM BKN037 OVC043 14/12 A2993 RMK AO2

2010/08/10 06:50
KPLU 100650Z AUTO 28005KT 10SM OVC011 14/12 A2996 RMK AO2

2010/08/10 06:50
KPNA 100650Z AUTO 29004KT 10SM CLR 08/05 A3021 RMK AO2 T00810046

2010/08/10 06:52
KPPF 100652Z AUTO 00000KT 10SM CLR 27/22 A2993 RMK AO2 SLP120 T02670217

2010/08/10 06:47
KPVJ 100647Z AUTO 16003KT 10SM CLR 27/22 A2993 RMK AO2

2010/08/10 06:52
KPWK 100652Z AUTO 00000KT 10SM CLR 25/23 A2997 RMK AO2 SLP143 T02500228

2010/08/10 06:52
KPYM 100652Z AUTO VRB03KT 6SM VCTS HZ FEW018 BKN070 OVC095 23/20 A2993 RMK AO2 LTG DSNT SE TSB24RAE49 SLP132 P0018 T02280200

2010/08/10 06:52
KRAP 100652Z AUTO 17007KT 10SM CLR 21/16 A2990 RMK AO2 SLP090 T02110161 403330161

2010/08/10 06:52
KSGF 100652Z 16006KT 10SM CLR 27/23 A2995 RMK AO2 SLP126 T02720233

2010/08/10 06:53
KSNL 100653Z AUTO 18007KT 10SM CLR 28/20 A2994 RMK AO2

2010/08/10 06:55
KSOP 100655Z AUTO 23005KT 10SM CLR 25/23 A3002 RMK AO1

2010/08/10 06:52
KSPI 100652Z AUTO 18004KT 10SM CLR 25/22 A2994 RMK AO2 LTG DSNT N SLP131 T02500222

2010/08/10 06:50
KSRE 100650Z AUTO 16004KT 10SM CLR 27/19 A2993 RMK AO2

2010/08/10 06:52
KSUX 100652Z 11003KT 8SM CLR 25/24 A2984 RMK AO2 LTG DSNT NW RAE0557 SLP096 P0000 T02500239

2010/08/10 06:45
KSVC 100645Z AUTO 35007KT 10SM CLR 18/09 A3017 RMK AO2

2010/08/10 06:52
KTAN 100652Z AUTO 00000KT 5SM -RA BR FEW060 BKN075 OVC120 21/21 A2990 RMK AO2 LTG DSNT E TSB20E35RAE19B46 SLP125 P0014 T02110206

2010/08/10 06:54
KTMK 100654Z AUTO 00000KT 10SM OVC022 14/12 A3003 RMK AO2

2010/08/10 06:52
KTRM 100652Z AUTO 33008KT 10SM CLR 29/08 A2971 RMK AO2 SLP065 T02890083

2010/08/10 06:55
KUDG 100655Z 19003KT 7SM CLR 23/22 A3004 RMK AO1

2010/08/10 06:50
KDVO 100650Z AUTO 35004KT 10SM CLR 10/10 A2992 RMK AO2

2010/08/10 06:52
KEST 100652Z AUTO 12005KT 7SM CLR 24/23 A2993 RMK AO2 SLP125 T02390233

2010/08/10 06:50
KFET 100650Z AUTO 00000KT 7SM CLR 27/25 A2986 RMK AO2 T02670254

2010/08/10 06:52
KFIT 100652Z AUTO 00000KT 7SM SCT070 BKN090 OVC110 23/21 A2992 RMK AO2 RAB08E42 SLP128 P0001 T02280211

2010/08/10 06:50
KGCD 100650Z AUTO 25006KT 10SM CLR 17/01 A2994 RMK AO2 T01700013

2010/08/10 06:52
KGMJ 100652Z AUTO 00000KT 10SM CLR 27/21 A2993 RMK AO2

2010/08/10 06:50
KHDE 100650Z AUTO 16004KT 10SM SCT090 BKN120 25/21 A2990 RMK AO2 LTG DSNT N T02500205

2010/08/10 06:52
KHIE 100652Z AUTO 00000KT 4SM BR OVC004 17/17 A2994 RMK AO2 SLP133 T01670167

2010/08/10 06:50
KHJH 100650Z AUTO 18005KT 10SM CLR 27/22 A2987 RMK AO2 T02650215

2010/08/10 06:52
KHUT 100652Z AUTO 16010KT 10SM BKN100 BKN120 29/21 A2991 RMK AO2 SLP096 T02940206

2010/08/10 06:52
KIAD 100652Z 21004KT 7SM CLR 25/21 A2994 RMK AO2 SLP136 T02500211

2010/08/10 06:50
KIBM 100650Z AUTO 21003KT 10SM CLR 16/16 A3008 RMK AO2 T01570155 402960157

2010/08/10 06:50
KIDP 100650Z AUTO 19005KT 10SM CLR 25/21 A2991 RMK AO2

2010/08/10 06:52
KIEN 100652Z AUTO 13020G29KT 10SM -RA SCT110 19/17 A2990 RMK AO2 PK WND 15032/0611 TSB06E27 SLP084 P0002 T01940167 403560156

2010/08/10 06:52
KIJD 100652Z AUTO 00000KT 7SM BKN100 22/20 A2993 RMK AO2 RAE19 SLP133 P0000 T02170200

2010/08/10 06:52
KNHK 100652Z AUTO 21007KT 10SM CLR 26/22 A2995 RMK AO2 SLP143 T02610217 $

2010/08/10 06:52
KNFW 100652Z AUTO 19008KT 10SM CLR 30/19 A2994 RMK AO2 SLP123 T03000194

2010/08/10 06:53
PHNL 100653Z 06013G20KT 10SM FEW031 SCT041 26/17 A3008 RMK AO2 SLP186 T02610172

2010/08/10 06:55
KBLV 100655Z AUTO 14003KT 10SM CLR 26/26 A2994 RMK AO2 SLP135 T02650258

2010/08/10 06:55
KCEF 100655Z AUTO 00000KT 7SM -RA BKN065 OVC080 22/21 A2992 RMK AO2 DZB0559E0608 CIG 019 RWY05 SLP131 P0007 T02180214 $

2010/08/10 06:55
KGRF 100655Z AUTO 19007KT 160V230 10SM OVC011 14/11 A2998 RMK AO2 SLP152 T01390113

2010/08/10 06:55
KHMN 100655Z 00000KT 7SM R16/4500VP6000FT CLR 23/11 A3002 RMK AO2A SLP079 T02350113 403380185 $

2010/08/10 06:55
KLRF 100655Z AUTO 00000KT 10SM CLR 28/26 A2992 RMK AO2 SLP130 T02800260

2010/08/10 06:55
KMGE 100655Z AUTO 00000KT 10SM CLR 26/21 A3002 RMK AO2 SLP154 T02600214 $

2010/08/10 06:55
KRDR 100655Z AUTO 20004KT 10SM CLR 22/20 A2990 RMK AO2 SLP136 T02240203 $

2010/08/10 06:53
KDNK 100653Z AUTO 00000KT 10SM CLR 26/23 A2993 RMK AO2 SLP130 T02560228

2010/08/10 06:53
KNIP 100653Z 13007KT 10SM FEW020 28/24 A2995 RMK AO2 SLP138 T02780244

2010/08/10 06:53
KNQX 100653Z AUTO 25005KT 10SM FEW060 27/23 A2985 RMK AO2 TSE0554B06E46 SLP107 T02670233 $

2010/08/10 06:53
KIAG 100653Z AUTO 23004KT 4SM BR OVC060 22/21 A2994 RMK AO2 SLP132 T02170206

2010/08/10 06:53
KDTS 100653Z AUTO 35006KT 10SM CLR 28/24 A2990 RMK AO2 SLP125 T02780239

2010/08/10 06:53
PABI 100653Z AUTO 20014G20KT 10SM FEW100 16/07 A2966 RMK AO2 SLP042 T01610067 TSNO

2010/08/10 06:54
KNKT 100654Z AUTO 20005KT 10SM CLR 24/23 A3002 RMK AO2 SLP163 T02440233

2010/08/10 06:54
KBKB 100654Z AUTO 00000KT 10SM CLR 26/24 A2991 RMK AO2 SLP152 T02610239 $

2010/08/10 06:54
KNFG 100654Z 00000KT 6SM BR FEW015 11/09 A2992 RMK AO2 SLP129 T01110094

2010/08/10 06:54
KECG 100654Z AUTO 22003KT 10SM CLR 23/23 A2999 RMK AO2 SLP156 T02330233

2010/08/10 06:54
KFZY 100654Z AUTO 00000KT 2 1/2SM BR BKN012 OVC047 21/19 A2994 RMK AO2 SLP136 T02060194

2010/08/10 06:55
PAEH 100655Z AUTO 18017G26KT 150V220 1SM OVC003 08/07 RMK AO1 2 T00830073

2010/08/10 06:53
KLOU 100653Z AUTO 00000KT 10SM CLR 28/24 A2996 RMK AO2 SLP137 T02830239

2010/08/10 06:53
KLOZ 100653Z AUTO 00000KT 6SM BR CLR 23/22 A3002 RMK AO2 SLP150 T02280222

2010/08/10 06:53
KLPR 100653Z AUTO 25003KT 7SM CLR 25/21 A2996 RMK AO2 SLP137 T02500206

2010/08/10 06:53
KLUK 100653Z AUTO 00000KT 3SM BR CLR 23/22 A2997 RMK AO2 SLP141 T02330222

2010/08/10 06:53
KLVM 100653Z AUTO 24013G19KT 10SM CLR 17/08 A2998 RMK AO2 PK WND 21028/0601 SLP101 T01670078 403000094

2010/08/10 06:53
KLWV 100653Z AUTO 00000KT 4SM BR CLR 26/24 A2994 RMK AO2 SLP134 T02610239

2010/08/10 06:53
KLXT 100653Z AUTO 19005KT 10SM CLR 29/22 A2992 RMK AO2 SLP117 T02940217

2010/08/10 06:53
KMAF 100653Z AUTO 12005KT 10SM CLR 22/19 A3001 RMK AO2 SLP112 T02170194

2010/08/10 06:53
KMAI 100653Z AUTO 00000KT 9SM CLR 25/22 A2993 RMK AO2 SLP133 T02500217 $

2010/08/10 06:53
KMBS 100653Z 32005KT 8SM CLR 22/21 A2995 RMK AO2 SLP138 T02220211

2010/08/10 06:53
KMCI 100653Z 18008KT 6SM HZ CLR 27/23 A2990 RMK AO2 SLP110 T02670228 $

2010/08/10 06:53
KMCK 100653Z AUTO 36008KT 10SM BKN100 21/19 A2995 RMK AO2 SLP111 T02110189

2010/08/10 06:53
KMCO 100653Z 09005KT 10SM FEW250 25/23 A2992 RMK AO2 SLP131 T02500228

2010/08/10 06:53
KMCW 100653Z AUTO 08004KT 7SM CLR 23/23 A2995 RMK AO2 SLP128 T02330228

2010/08/10 06:53
KMGW 100653Z AUTO 00000KT 3SM BR CLR 20/18 A3002 RMK AO2 SLP152 T02000183

2010/08/10 06:53
KMGY 100653Z AUTO 00000KT 8SM CLR 24/21 A2997 RMK AO2 SLP140 T02440211

2010/08/10 06:53
KMHT 100653Z 00000KT 1 1/2SM BR FEW044 BKN055 OVC095 22/21 A2988 RMK AO2 RAE44 SLP128 P0002 T02170211

2010/08/10 06:53
KMIA 100653Z 14008KT 9SM BKN015 BKN046 OVC060 26/24 A2988 RMK AO2 SLP118 T02610239 $

2010/08/10 06:53
KMIE 100653Z AUTO 00000KT 4SM BR CLR 23/22 A2997 RMK AO2 SLP136 T02330222

2010/08/10 06:53
KMKO 100653Z AUTO 14003KT 10SM CLR 26/19 A2993 RMK AO2 SLP125 T02560194

2010/08/10 06:53
KMLB 100653Z 13006G15KT 10SM BKN019 27/23 A2993 RMK AO2 SLP133 T02720233

2010/08/10 06:53
KMLC 100653Z AUTO 00000KT 10SM CLR 26/20 A2994 RMK AO2 SLP125 T02610200

2010/08/10 06:53
KMLP 100653Z AUTO VRB03KT 10SM CLR 12/04 A2999 RMK AO2 SLP066 T01220044 TSNO

2010/08/10 06:53
KMLS 100653Z AUTO 31007KT 10SM CLR 20/15 A2983 RMK AO2 SLP077 T02000150 403560172

2010/08/10 06:53
KMLT 100653Z AUTO 00000KT 10SM CLR 17/16 A2985 RMK AO2 SLP112 T01720161

2010/08/10 06:53
KMMK 100653Z AUTO 00000KT 9SM CLR 23/20 A2992 RMK AO2 RAB00E14 SLP130 P0000 T02280200

2010/08/10 06:53
KMNN 100653Z AUTO 31006KT 9SM SCT049 BKN070 24/21 A2997 RMK AO2 SLP141 T02440206

2010/08/10 06:53
KMSO 100653Z AUTO 13007KT 10SM CLR 16/12 A2991 RMK AO2 SLP108 T01610117 402670122

2010/08/10 06:53
KMSS 100653Z AUTO 22003KT 10SM OVC008 22/21 A2991 RMK AO2 SLP127 T02170211

2010/08/10 06:53
KMTH 100653Z AUTO 20007KT 3SM +RA BR SCT019 BKN025 OVC065 26/24 A2985 RMK AO2 LTG DSNT SW RAB29 SLP106 P0010 T02560244

2010/08/10 06:53
KMTJ 100653Z AUTO 13009KT 10SM CLR 17/07 A3019 RMK AO2 SLP143 T01720072 402830161

2010/08/10 06:53
KMTO 100653Z AUTO 20005KT 8SM BKN110 27/24 A2995 RMK AO2 SLP134 T02720244

2010/08/10 06:53
KMVY 100653Z AUTO 29007KT 6SM HZ FEW009 SCT060 BKN095 26/22 A2992 RMK AO2 LTG DSNT N SLP130 T02560217

2010/08/10 06:53
KMWL 100653Z AUTO 16005KT 10SM CLR 27/19 A2991 RMK AO2 SLP112 T02670194

2010/08/10 06:53
KODO 100653Z AUTO 09004KT 10SM CLR 22/19 A3003 RMK AO2 SLP118 T02170194 $

2010/08/10 06:53
KOGB 100653Z AUTO 00000KT 10SM CLR 25/24 A3002 RMK AO2 SLP162 T02500239

2010/08/10 06:53
KOGD 100653Z AUTO 15005KT 10SM CLR 19/05 A3000 RMK AO2 SLP099 T01940050 402890189

2010/08/10 06:53
KOJC 100653Z AUTO 18003KT 10SM CLR 27/23 A2991 RMK AO2 SLP112 T02670228

2010/08/10 06:53
KOLF 100653Z AUTO 22013G24KT 10SM VCTS BKN095 24/15 A2985 RMK AO2 WSHFT 0639 LTG DSNT E-SW TSB45 PRESRR SLP092 T02390150 403280139

2010/08/10 06:53
KONO 100653Z AUTO 34005KT 10SM CLR 20/13 A2984 RMK AO2 SLP090 T02000128 403170161

2010/08/10 06:53
KOPF 100653Z AUTO 15010KT 10SM SCT020 SCT025 SCT075 26/24 A2988 RMK AO2 RAB0557E30 SLP119 P0000 T02560244

2010/08/10 06:53
KRNM 100653Z AUTO 27003KT 10SM CLR 12/09 A2992 RMK AO2 SLP121 T01220094 TSNO

2010/08/10 06:53
KP68 100653Z AUTO 11005KT 14/M07 A3007 RMK AO2 SLP098 T01441067 PWINO TSNO

2010/08/10 06:53
KLXV 100653Z AUTO 00000KT 10SM CLR 06/04 A3043 RMK AO2 SLP163 T00560044 401780056 TSNO

2010/08/10 06:53
KDAB 100653Z 13005KT 10SM FEW020 27/23 A2994 RMK AO2 SLP136 T02670233

2010/08/10 06:53
KMCN 100653Z AUTO 13004KT 8SM CLR 25/22 A2999 RMK AO2 SLP151 T02500217 TSNO

2010/08/10 06:53
KTRI 100653Z 00000KT 5SM BR CLR 22/20 A3005 RMK AO2 SLP156 T02220200

2010/08/10 06:53
KMSN 100653Z 00000KT 3SM BR CLR 22/22 A2995 RMK AO2 SLP136 T02220217

2010/08/10 06:53
KTYS 100653Z 00000KT 9SM SCT120 27/22 A3000 RMK AO2 SLP144 T02720222

2010/08/10 06:53
KSDM 100653Z AUTO 25003KT 10SM CLR 14/13 A2993 RMK AO2 SLP130 T01440133 TSNO

2010/08/10 06:53
KBNO 100653Z AUTO 27006KT 10SM FEW110 16/04 A2994 RMK AO2 SLP104 T01560039 TSNO

2010/08/10 06:53
KHTL 100653Z AUTO 31004KT 4SM BR CLR 21/21 A2998 RMK AO2 SLP148 T02110206

2010/08/10 06:53
KNUI 100653Z AUTO 19005KT 10SM CLR 26/22 A2995 RMK AO2 SLP142 T02560222

2010/08/10 06:53
K40J 100653Z AUTO 06004KT 25/23 A2992 RMK AO2 SLP129 T02500233 PWINO TSNO

2010/08/10 06:53
KLAX 100653Z 25006KT 10SM OVC007 16/13 A2992 RMK AO2 SLP129 T01610133 $

2010/08/10 06:53
KCHA 100653Z 12003KT 10SM CLR 28/22 A2999 RMK AO2 SLP145 T02780222 $

2010/08/10 06:53
KOQT 100653Z AUTO 00000KT 5SM BR CLR 26/24 A3002 RMK AO2 SLP145 T02560239 TSNO

2010/08/10 06:53
KSAV 100653Z 15003KT 10SM CLR 27/24 A2999 RMK AO2 SLP153 T02670239 $

2010/08/10 06:53
KTLH 100653Z 10007KT 10SM CLR 27/23 A2992 RMK AO2 SLP132 T02670233

2010/08/10 06:53
KTCS 100653Z AUTO 30007KT 10SM CLR 23/12 A3008 RMK AO2 SLP096 T02330122 403220178 TSNO

2010/08/10 06:53
K6R6 100653Z AUTO 25005KT 26/20 A2996 RMK AO2 SLP106 T02560200 PWINO TSNO

2010/08/10 06:53
KCQC 100653Z AUTO 07005KT 10SM CLR 17/12 A3025 RMK AO2 SLP137 T01670122 402780133 TSNO

2010/08/10 06:53
KAAF 100653Z AUTO 05004KT 10SM FEW026 27/24 A2989 RMK AO2 SLP122 T02670244

2010/08/10 06:53
KBFF 100653Z AUTO 14006KT 10SM CLR 18/17 A3003 RMK AO2 SLP124 T01830167 403170178

2010/08/10 06:53
KBIL 100653Z 21007KT 10SM CLR 17/15 A2992 RMK AO2 SLP099 T01670150 403060161

2010/08/10 06:53
KCDR 100653Z AUTO 20012KT 10SM SCT110 22/17 A2993 RMK AO2 SLP102 T02170172 403560150

2010/08/10 06:53
KCNY 100653Z AUTO 31003KT 10SM CLR 19/02 A3004 RMK AO2 SLP111 T01940017 403170139

2010/08/10 06:53
KDAL 100653Z 19005KT 10SM FEW220 31/19 A2990 RMK AO2 SLP117 T03060194

2010/08/10 06:53
KCUT 100653Z AUTO 22005KT 10SM CLR 17/14 A3005 RMK AO2 SLP104 T01670139 402720122 TSNO

2010/08/10 06:53
KMGM 100653Z 00000KT 9SM CLR 28/23 A2995 RMK AO2 SLP137 T02780228

2010/08/10 06:53
KTUP 100653Z AUTO 00000KT 7SM CLR 26/24 A2995 RMK AO2 SLP135 T02560239

2010/08/10 06:53
KBTR 100653Z 00000KT 9SM FEW004 SCT020 BKN200 24/24 A2993 RMK AO2 SLP133 T02440244

2010/08/10 06:53
KMWT 100653Z AUTO 00000KT 10SM CLR 25/24 A2992 RMK AO2 SLP117 T02500239 TSNO

2010/08/10 06:53
KFAR 100653Z 15007KT 10SM CLR 25/19 A2990 RMK AO2 SLP117 T02500189

2010/08/10 06:53
KP92 100653Z AUTO 00000KT 25/24 A2992 RMK AO2 SLP131 T02500244 PWINO TSNO

2010/08/10 06:54
KJAN 100654Z 00000KT 10SM CLR 24/23 A2995 RMK AO2 SLP136 T02440233

2010/08/10 06:53
KCTY 100653Z AUTO 00000KT 25/24 A2992 RMK AO2 SLP131 T02500239 PWINO TSNO

2010/08/10 06:54
KBTV 100654Z 00000KT 5SM BR CLR 18/18 A2991 RMK AO2 SLP127 T01830183

2010/08/10 06:53
KGCC 100653Z AUTO 00000KT 10SM CLR 17/11 A2997 RMK AO2 SLP097 T01720106 403390117

2010/08/10 06:53
KHLC 100653Z AUTO 26005KT 10SM CLR 25/19 A2988 RMK AO2 SLP092 T02500189 $

2010/08/10 06:53
KLWD 100653Z AUTO 18005KT 10SM CLR 27/26 A2989 RMK AO2 SLP109 T02720261

2010/08/10 06:53
KMLU 100653Z AUTO A2994 RMK AO2 SLPNO PWINO FZRANO $

2010/08/10 06:53
KPOF 100653Z AUTO 00000KT 10SM CLR 26/24 A2993 RMK AO2 SLP129 T02610239

2010/08/10 06:53
KRIW 100653Z AUTO 25004KT 10SM CLR 15/03 A3005 RMK AO2 SLP110 T01500028 403060150

2010/08/10 06:50
KSOW 100650Z AUTO 17004KT 10SM CLR 16/10 A3027 RMK AO2

2010/08/10 06:54
PGUM 100654Z 10007KT 10SM SCT025 BKN032 29/23 A2989 RMK AO2 SLP113 T02890233

2010/08/10 06:50
PTKK 100650Z 11008KT 15SM FEW014 BKN120 OVC280 29/25 A2982 RMK SLP101 T02890245

2010/08/10 06:54
PGSN 100654Z 09005KT 10SM FEW019 28/24 A2990 RMK AO2 SLP123 T02830239

2010/08/10 06:53
KSPG 100653Z AUTO 12012KT 10SM BKN065 28/24 A2987 RMK AO2 SLP114 T02780244

2010/08/10 06:53
KSRQ 100653Z AUTO 09006KT 10SM CLR 25/24 A2986 RMK AO2 SLP111 T02500244 TSNO

2010/08/10 06:53
KSSI 100653Z AUTO 13011KT 10SM CLR 28/23 A2997 RMK AO2 SLP149 T02830233

2010/08/10 06:53
KSTJ 100653Z AUTO 19003KT 10SM CLR 26/23 A2988 RMK AO2 SLP107 T02560228

2010/08/10 06:50
KSUN 100650Z AUTO 30007KT 10SM -DZ SCT055 SCT075 SCT090 12/11 A3005 RMK AO2

2010/08/10 06:53
KHLG 100653Z AUTO 00000KT 5SM HZ OVC110 22/19 A2999 RMK AO2 SLP146 T02220194

2010/08/10 06:53
KHLN 100653Z AUTO 00000KT 10SM BKN095 14/12 A2992 RMK AO2 SLP122 T01390122 402940111

2010/08/10 06:53
KHUF 100653Z 00000KT 4SM BR CLR 23/23 A2996 RMK AO2 SLP137 T02330228

2010/08/10 06:53
KHUL 100653Z AUTO 20004KT 9SM CLR 16/15 A2982 RMK AO2 SLP096 T01560150

2010/08/10 06:53
KHVN 100653Z AUTO 00000KT 10SM CLR 24/19 A2992 RMK AO2 SLP130 T02440194

2010/08/10 06:53
KHWO 100653Z AUTO 13006KT 10SM FEW017 SCT047 26/26 A2990 RMK AO2 RAE0555 SLP123 P0000 T02610256 $

2010/08/10 06:53
KHZY 100653Z AUTO 15003KT 6SM BR SCT090 23/21 A2995 RMK AO2 SLP134 T02330211

2010/08/10 06:53
KICT 100653Z 17007KT 10SM FEW150 SCT200 28/21 A2991 RMK AO2 SLP108 T02830211

2010/08/10 06:53
KIDA 100653Z AUTO 28003KT 10SM CLR 11/09 A3004 RMK AO2 SLP142 T01110094 402440111

2010/08/10 06:53
KIML 100653Z AUTO 36014G21KT 10SM CLR 19/18 A2994 RMK AO2 LTG DSNT S AND SW TSE36RAE31 SLP106 P0011 T01940178 403390183

2010/08/10 06:53
KIPL 100653Z AUTO 24004KT 10SM CLR 27/06 A2972 RMK AO2 SLP066 T02720061

2010/08/10 06:53
KITR 100653Z AUTO 04003KT 10SM FEW110 18/16 A3005 RMK AO2 LTG DSNT NE AND E TSE0556 SLP117 T01830161 403220183

2010/08/10 06:53
KIWI 100653Z AUTO 00000KT 8SM FEW120 20/19 A2988 RMK AO2 SLP116 T02000194

2010/08/10 06:53
KIXD 100653Z AUTO 16004KT 10SM CLR 27/22 A2992 RMK AO2 SLP114 T02670222

2010/08/10 06:53
KJEF 100653Z AUTO 11003KT 9SM CLR 28/26 A2991 RMK AO2 SLP113 T02780256

2010/08/10 06:53
KJER 100653Z AUTO 06011KT 10SM CLR 16/11 A2995 RMK AO2 SLP107 T01610111 402780150 $

2010/08/10 06:53
KJKL 100653Z AUTO 00000KT 9SM CLR 24/20 A3002 RMK AO2 SLP146 T02440200

2010/08/10 06:53
KLAA 100653Z AUTO VRB04KT 10SM CLR 21/18 A3000 RMK AO2 LTG DSNT E SLP105 T02110178 403390189

2010/08/10 06:53
KLAR 100653Z AUTO 24004KT 10SM CLR 11/09 A3022 RMK AO2 SLP129 T01060089 402500106

2010/08/10 06:53
KLAW 100653Z AUTO 18008KT 10SM CLR 29/21 A2991 RMK AO2 SLP111 T02890206

2010/08/10 06:53
KLBF 100653Z AUTO 30009KT 10SM -TSRA BKN050 BKN095 19/19 A2996 RMK AO2 LTG DSNT NW-E TSE09B12 SLP117 P0007 T01940189

2010/08/10 06:53
KLEB 100653Z AUTO 00000KT 1 3/4SM BR OVC001 20/19 A2992 RMK AO2 SLP118 T02000189

2010/08/10 06:53
KLEE 100653Z AUTO 09008KT 10SM CLR 26/24 A2993 RMK AO2 SLP134 T02610239

2010/08/10 06:53
KLHQ 100653Z AUTO 12003KT 6SM BR BKN100 22/20 A2998 RMK AO2 SLP142 T02170200

2010/08/10 06:53
KLHX 100653Z AUTO 19004KT 10SM CLR 19/16 A3003 RMK AO2 SLP105 T01940161 403110183 $

2010/08/10 06:53
KSWO 100653Z AUTO 17007KT 10SM CLR 28/21 A2990 RMK AO2 SLP107 T02830206

2010/08/10 06:50
KSZT 100650Z AUTO 04004KT 10SM CLR 16/10 A2980 RMK AO2

2010/08/10 06:53
KTDZ 100653Z AUTO 00000KT 2 1/2SM BR CLR 23/22 A2996 RMK AO2 SLP139 T02280217

2010/08/10 06:50
KTEX 100650Z AUTO 12003KT 10SM SCT070 12/05 A3042 RMK AO2

2010/08/10 06:53
KTHV 100653Z AUTO 10003KT 6SM HZ CLR 23/21 A2994 RMK AO2 SLP135 T02330206

2010/08/10 06:50
KTIF 100650Z AUTO 27009G18KT 10SM -VCTSRA SCT044 BKN075 OVC100 20/18 A2995 RMK AO2 LTG DSNT ALQS P0020 T01950181

2010/08/10 06:53
KTKI 100653Z AUTO 00000KT 10SM CLR 27/22 A2991 RMK AO2 SLP121 T02670217

2010/08/10 06:53
KTMB 100653Z AUTO 16005KT 10SM FEW050 27/23 A2987 RMK AO2 SLP115 T02670233

2010/08/10 06:53
KTOP 100653Z AUTO 21004KT 10SM CLR 29/21 A2988 RMK AO2 SLP106 T02940211

2010/08/10 06:53
KTOR 100653Z AUTO 14010KT 10SM FEW110 18/16 A3001 RMK AO2 SLP116 T01830161 403060172

2010/08/10 06:53
KTPA 100653Z 07004KT 10SM FEW060 26/23 A2989 RMK AO2 SLP120 T02560233

2010/08/10 06:50
KTRK 100650Z AUTO 00000KT 10SM CLR 09/05 A3012 RMK AO2

2010/08/10 06:53
KFLO 100653Z AUTO 00000KT 10SM FEW110 25/24 A3001 RMK AO2 SLP160 T02500239

2010/08/10 06:53
KFMY 100653Z AUTO 08004KT 10SM BKN010 25/24 A2985 RMK AO2 CIG 007V011 SLP110 T02500239

2010/08/10 06:53
PAAQ 100653Z AUTO 17003KT 10SM OVC008 12/11 A2978 RMK AO2 SLP081 T01220106 TSNO

2010/08/10 06:53
PABR 100653Z 07018G23KT 7SM OVC002 02/02 A2985 RMK AO2 SLP109 T00220022

2010/08/10 06:53
PACV 100653Z 00000KT 10SM SCT010 BKN023 OVC031 12/12 A2991 RMK AO2 RAE43 SLP130 P0000 T01220117

2010/08/10 06:53
PADE 100653Z AUTO 15005KT 10SM BKN041 OVC060 13/11 A2942 RMK AO2 RAE49 SLP964 P0000 T01280111 TSNO

2010/08/10 06:50
PADL 100650Z 18005KT 3SM -RA BR SCT006 OVC016 10/09 A2962

2010/08/10 06:53
PAEG 100653Z AUTO 00000KT 10SM OVC120 13/09 A2962 RMK AO2 SLP030 T01280089 TSNO

2010/08/10 06:53
PAEN 100653Z 00000KT 10SM BKN005 BKN008 OVC047 13/12 A2977 RMK AO2 RAE14 SLP082 P0001 T01280117

2010/08/10 06:53
PAGY 100653Z AUTO 21017KT 10SM OVC048 14/10 A2994 RMK AO2 SLP138 T01440100 TSNO

2010/08/10 06:53
PAIL 100653Z AUTO 10012KT 10SM OVC037 12/09 A2966 RMK AO2 SLP045 T01170089 TSNO

2010/08/10 06:53
PAKT 100653Z AUTO 17004KT 10SM OVC050 12/12 A3004 RMK AO2 SLP172 T01220117 TSNO

2010/08/10 06:53
PAKV 100653Z AUTO 00000KT 10SM BKN039 OVC046 12/12 A2956 RMK AO2 RAE53 SLP010 P0001 T01220117 TSNO

2010/08/10 06:53
PAKW 100653Z AUTO 00000KT 10SM OVC010 13/12 A3002 RMK AO2 SLP164 T01280117 TSNO

2010/08/10 06:53
PALH 100653Z 26006KT 10SM -RA SCT007 BKN022 OVC027 13/11 A2978 RMK AO2 RAB52 SLP083 P0000 T01280106

2010/08/10 06:53
PAMR 100653Z 24003KT 10SM BKN010 BKN020 OVC050 12/11 A2977 RMK AO2 RAB42E51 SLP080 P0000 T01220106

2010/08/10 06:53
PAPB 100653Z AUTO 25004KT 1/4SM FG VV001 07/07 A2944 RMK AO2 SLP957 T00720072 TSNO

2010/08/10 06:53
PASC 100653Z 06016KT 1 1/4SM R05/5500VP6000FT BR OVC003 03/03 A2973 RMK AO2 SLP068 T00330028

2010/08/10 06:53
PASI 100653Z 24007KT 10SM BKN018 OVC029 13/12 A3001 RMK AO2 SLP164 T01280117

2010/08/10 06:53
PASO 100653Z AUTO VRB06KT 10SM BKN047 OVC055 13/09 A2974 RMK AO2 SLP071 T01280094 TSNO

2010/08/10 06:53
PATO 100653Z AUTO 11012G22KT 080V140 9SM -RA FEW020 BKN033 OVC039 12/10 A2981 RMK AO2 PK WND 08030/0621 SLP096 P0001 T01220100 TSNO

2010/08/10 06:53
PAVL 100653Z AUTO 07010KT 7SM -RA BKN021 BKN028 OVC075 14/12 A2948 RMK AO2 SLP981 P0001 T01390122 TSNO

2010/08/10 06:53
PAWD 100653Z AUTO A2982 RMK AO2 SLP100 PWINO FZRANO TSNO $

2010/08/10 06:54
PHMK 100654Z AUTO 05016G21KT 10SM CLR 24/18 A3010 RMK AO2 SLP192 T02390183 TSNO

2010/08/10 06:55
KCWI 100655Z 08006KT 4SM CLR 23/23 A2994 RMK AO1

2010/08/10 06:54
KDDH 100654Z AUTO 00000KT 4SM BR FEW036 OVC065 21/19 A2995 RMK AO2 SLP135 T02060194

2010/08/10 06:54
KDEC 100654Z AUTO 32009KT 10SM FEW085 27/21 A2997 RMK AO2 LTG DSNT N SLP140 T02720206

2010/08/10 06:54
KDSV 100654Z AUTO 00000KT 2SM -RA BR SCT017 SCT049 OVC060 22/21 A2998 RMK AO2 RAB0555 SLP156 P0004 T02170206 $

2010/08/10 06:54
KDYL 100654Z AUTO 20004KT 10SM CLR 24/20 A2993 RMK AO2 SLP127 T02440200 TSNO

2010/08/10 06:55
KDYR 100655Z AUTO 00000KT 9SM CLR 26/22 A2995 RMK AO1

2010/08/10 06:55
KE80 100655Z AUTO 35004KT 10SM BKN110 22/08 A3012 RMK AO2 T02210075

2010/08/10 06:55
KEEN 100655Z AUTO 00000KT 2 1/2SM SCT065 BKN120 21/20 A2992 RMK AO1

2010/08/10 06:55
KEGE 100655Z AUTO 00000KT 10SM SCT100 16/09 A3024 RMK AO1

2010/08/10 06:55
KEHR 100655Z AUTO 00000KT 8SM CLR 24/21 A2996 RMK AO1

2010/08/10 06:55
KENV 100655Z AUTO 27007KT 10SM CLR 19/08 A2998 RMK AO1

2010/08/10 06:55
KESC 100655Z AUTO 00000KT 3SM CLR 19/17 A2997 RMK AO1

2010/08/10 06:54
KEUG 100654Z 05005KT 10SM FEW040 13/11 A2999 RMK AO2 SLP154 T01280106

2010/08/10 06:55
KEUL 100655Z AUTO 12014G18KT 10SM SCT120 21/12 A2982 RMK AO1

2010/08/10 06:54
KEVV 100654Z AUTO 00000KT 8SM CLR 26/23 A2995 RMK AO2 SLP137 T02560228

2010/08/10 06:55
KEWK 100655Z AUTO 18009KT 10SM CLR 28/19 A2989 RMK AO1

2010/08/10 06:54
KEWN 100654Z AUTO 24003KT 10SM CLR 24/23 A3002 RMK AO2 SLP166 T02440233

2010/08/10 06:55
KFAM 100655Z AUTO 12003KT 10SM CLR 26/24 A2998 RMK AO1

2010/08/10 06:54
KFIG 100654Z AUTO 00000KT 8SM BKN110 20/17 A3000 RMK AO2 SLP147 T02000172

2010/08/10 06:50
ENMS 100650Z 09002KT 9999 1500SE FEW000 BKN004 14/11 Q1010 

2010/08/10 06:50
ENRM 100650Z VRB02KT 4500 BR BKN002 12/11 Q1011

2010/08/10 06:50
ENRS 100650Z 01014KT 9999 BKN004 10/10 Q1011

2010/08/10 06:50
ENSK 100650Z 25003KT 9999 SCT008 BKN010 12/10 Q1011

2010/08/10 06:50
ENSO 100650Z 11009KT 080V150 9999 FEW010 16/11 Q1009

2010/08/10 06:50
ENST 100650Z 23005KT 6000 3000NE DZ SCT001 BKN003 12/12 Q1011

2010/08/10 06:50
ENVD 100650Z 09005KT 9999 FEW005 BKN009 09/07 Q1013

2010/08/10 06:50
LIEA 100650Z VRB01KT CAVOK 22/13 Q1016

2010/08/10 06:45
LIEE 100645Z 30002KT CAVOK 23/09 Q1015 NOSIG

2010/08/10 06:50
LIEO 100650Z 05006KT 360V070 CAVOK 26/13 Q1016

2010/08/10 06:50
LIMC 100650Z VRB02KT 9999 SCT060 22/18 Q1016 NOSIG

2010/08/10 06:50
LIME 100650Z 01005KT 9999 SCT070 21/17 Q1017

2010/08/10 06:50
LIMF 100650Z VRB02KT 9999 SCT080 21/17 1016

2010/08/10 06:50
LIMJ 100650Z 06005KT 9999 SCT020 24/20 Q1016

2010/08/10 06:50
LIML 100650Z VRB02KT CAVOK 23/18 Q1016 NOSIG

2010/08/10 06:45
LIRA 100645Z 01004KT CAVOK 23/17 Q1015

2010/08/10 06:50
LIRF 100650Z 06006KT CAVOK 25/16 Q1015 NOSIG

2010/08/10 06:50
LIRN 100650Z VRB03KT 9999 BKN070 23/18 Q1015

2010/08/10 06:45
LIRP 100645Z 14002KT 3000 BR NSC 20/20 Q1016 BECMG 5000 BR

2010/08/10 06:50
LIRQ 100650Z VRB03KT 8000 FEW030 23/19 Q1016

2010/08/10 06:54
KACY 100654Z 10SM CLR 25/23 A2996 RMK AO2 SLP143 T02500228 $

2010/08/10 06:54
KDMH 100654Z AUTO 27/21 A2993 RMK AO2 SLP136 T02670206 PWINO TSNO

2010/08/10 06:54
KCAR 100654Z AUTO 00000KT 9SM CLR 16/14 A2981 RMK AO2 SLP096 T01560144

2010/08/10 06:54
KAVP 100654Z 00000KT 10SM SCT110 23/18 A2996 RMK AO2 SLP133 T02330183 $

2010/08/10 06:54
K12N 100654Z AUTO 00000KT 23/21 A2995 RMK AO2 SLP133 T02330206 PWINO TSNO

2010/08/10 06:54
KRIC 100654Z 20003KT 9SM CLR 24/21 A2997 RMK AO2 SLP151 T02390211 $

2010/08/10 06:53
KCPS 100653Z AUTO 00000KT 6SM BR CLR 26/24 A2993 RMK AO2 SLP131 T02560244

2010/08/10 06:53
KCRE 100653Z AUTO 21007KT 10SM SCT019 SCT025 28/26 A3001 RMK AO2 SLP164 T02830256

2010/08/10 06:53
KCRG 100653Z AUTO 15006KT 10SM CLR 27/24 A2995 RMK AO2 SLP142 T02670239

2010/08/10 06:53
KCRS 100653Z AUTO 18006KT 10SM CLR 28/22 A2991 RMK AO2 SLP121 T02830222

2010/08/10 06:53
KCSM 100653Z AUTO 17009KT 10SM CLR 26/20 A2996 RMK AO2 SLP114 T02610200

2010/08/10 06:53
KCUB 100653Z AUTO 00000KT 10SM CLR 25/23 A3002 RMK AO2 SLP164 T02500228

2010/08/10 06:53
KCYS 100653Z AUTO 23004KT 10SM CLR 14/12 A3014 RMK AO2 SLP128 T01390117 402720133 TSNO

2010/08/10 06:53
KDEN 100653Z 17006KT 10SM SCT110 BKN200 17/14 A3011 RMK AO2 SLP118 T01720139 402940172

2010/08/10 06:53
KDEQ 100653Z AUTO 00000KT 5SM BR CLR 25/24 A2990 RMK AO2 SLP119 T02500239

2010/08/10 06:53
KDET 100653Z 00000KT 9SM CLR 22/21 A2995 RMK AO2 SLP138 T02220206

2010/08/10 06:53
KDFI 100653Z AUTO 00000KT 1/4SM FG VV001 22/21 A2996 RMK AO2 SLP140 T02170211

2010/08/10 06:53
KRIL 100653Z AUTO 00000KT 10SM CLR 14/09 A3015 RMK AO2 SLP154 T01440094 402720133 TSNO

2010/08/10 06:53
KFOE 100653Z AUTO 18006KT 10SM CLR 28/21 A2989 RMK AO2 SLP108 T02830206

2010/08/10 06:53
KFOK 100653Z AUTO 23008KT 7SM CLR 24/21 A2993 RMK AO2 SLP133 T02390211 TSNO

2010/08/10 06:53
KFPR 100653Z AUTO 15006KT 10SM FEW022 27/23 A2991 RMK AO2 SLP129 T02670228

2010/08/10 06:53
KFRG 100653Z AUTO 26005KT 10SM CLR 25/19 A2992 RMK AO2 SLP131 T02500194

2010/08/10 06:53
KFST 100653Z AUTO 18005KT 10SM CLR 22/19 A3001 RMK AO2 SLP109 T02220189

2010/08/10 06:53
KFTW 100653Z 19009KT 10SM CLR 30/20 A2990 RMK AO2 SLP114 T03000200

2010/08/10 06:53
KFVE 100653Z AUTO 29006KT 8SM CLR 16/14 A2982 RMK AO2 SLP096 T01560144

2010/08/10 06:53
KFWN 100653Z AUTO 00000KT 9SM FEW070 24/19 A2995 RMK AO2 SLP137 T02440189

2010/08/10 06:53
KFXE 100653Z 14009KT 10SM SCT015 SCT025 27/23 A2988 RMK AO2 RAE23 SLP121 P0000 T02670233

2010/08/10 06:53
KGAG 100653Z AUTO 30003KT 10SM CLR 24/18 A2995 RMK AO2 SLP108 T02390183

2010/08/10 06:53
KGEY 100653Z AUTO 22004KT 10SM SCT110 18/09 A2994 RMK AO2 SLP099 T01780094 403330161

2010/08/10 06:53
KGEZ 100653Z AUTO 19003KT 7SM SCT110 25/22 A2994 RMK AO2 SLP130 T02500222

2010/08/10 06:53
KGFL 100653Z AUTO 00000KT 3/4SM BR BKN034 20/20 A2992 RMK AO2 SLP128 T02000200

2010/08/10 06:53
KGGG 100653Z AUTO 22007KT 10SM CLR 29/22 A2992 RMK AO2 SLP123 T02890222

2010/08/10 06:53
KGGW 100653Z AUTO 27006KT 8SM -RA BKN050 OVC100 19/17 A2981 RMK AO2 RAB09 SLP080 P0001 T01940172 403280150 TSNO

2010/08/10 06:53
KGIF 100653Z AUTO 10009KT 10SM FEW020 26/23 A2992 RMK AO2 SLP128 T02560233 TSNO

2010/08/10 06:53
KGJT 100653Z AUTO 08004KT 10SM CLR 18/01 A3008 RMK AO2 SLP121 T01830011 403060172

2010/08/10 06:53
KGKJ 100653Z AUTO 00000KT 8SM SCT080 BKN110 23/18 A2998 RMK AO2 SLP139 T02330183

2010/08/10 06:53
KGKY 100653Z AUTO 18004KT 10SM CLR 27/21 A2991 RMK AO2 SLP119 T02720206

2010/08/10 06:53
KGLD 100653Z AUTO 34011KT 5SM +TSRA BR BKN022 BKN100 19/18 A3001 RMK AO2 LTG DSNT NW-NE TSB17RAB13 SLP110 P0006 T01940178 403440189

2010/08/10 06:53
KGNV 100653Z AUTO 00000KT 10SM CLR 25/23 A2993 RMK AO2 SLP132 T02500233

2010/08/10 06:53
KGOK 100653Z AUTO 17007KT 10SM CLR 28/21 A2990 RMK AO2 SLP111 T02830206

2010/08/10 06:53
KGTF 100653Z 19007KT 10SM CLR 17/09 A2986 RMK AO2 SLP085 T01670094 403060117

2010/08/10 06:53
KGUY 100653Z AUTO 16005KT 10SM CLR 23/16 A2998 RMK AO2 SLP096 T02280161

2010/08/10 06:53
KGZH 100653Z AUTO 00000KT 3SM BR CLR 24/24 A2995 RMK AO2 SLP139 T02440239

2010/08/10 06:53
KHAO 100653Z AUTO 00000KT 5SM BR CLR 22/21 A2997 RMK AO2 SLP142 T02220211

2010/08/10 06:53
KHBR 100653Z AUTO 16006KT 10SM CLR 27/19 A2994 RMK AO2 SLP113 T02670189

2010/08/10 06:53
KHFD 100653Z AUTO 03003KT 8SM SCT090 24/20 A2991 RMK AO2 RAE08 SLP129 P0000 T02390200

2010/08/10 06:53
KHHR 100653Z AUTO 24005KT 10SM OVC008 17/14 A2991 RMK AO2 SLP129 T01670139

2010/08/10 06:53
KLNS 100653Z AUTO 17003KT 8SM CLR 24/19 A2993 RMK AO2 SLP132 T02440189

2010/08/10 06:53
KIAH 100653Z 00000KT 10SM FEW250 28/24 A2992 RMK AO2 SLP130 T02830244

2010/08/10 06:53
KICR 100653Z AUTO 12009KT 7SM BKN007 25/23 A2984 RMK AO2 SLP082 T02500228 TSNO

2010/08/10 06:53
KILM 100653Z AUTO 00000KT 10SM CLR 26/24 A3002 RMK AO2 SLP166 T02560239

2010/08/10 06:51
KJCT 100651Z AUTO 16011G16KT 10SM CLR 28/21 A2999 RMK AO2 SLP112 T02830211 TSNO

2010/08/10 06:55
KJZI 100655Z AUTO 00000KT 10SM CLR 27/27 A3000 RMK A02 P000

2010/08/10 06:53
KLBX 100653Z AUTO 00000KT 10SM CLR 26/24 A2992 RMK AO2 SLP133 T02560244

2010/08/10 06:53
KLCH 100653Z AUTO 00000KT 10SM CLR 26/25 A2992 RMK AO2 SLP138 T02610250

2010/08/10 06:53
KLFK 100653Z AUTO 00000KT 10SM CLR 28/24 A2992 RMK AO2 SLP127 T02780239

2010/08/10 06:53
KLFT 100653Z AUTO 00000KT 10SM CLR 25/24 A2993 RMK AO2 SLP134 T02500239

2010/08/10 06:53
KLGB 100653Z 29004KT 9SM CLR 16/14 A2991 RMK AO2 SLP127 T01610139

2010/08/10 06:55
KLKR 100655Z AUTO 00000KT 1 3/4SM BR CLR 22/22 A3003 RMK AO2

2010/08/10 06:53
KLLQ 100653Z AUTO 00000KT 10SM CLR 27/24 A2995 RMK AO2 SLP136 T02670239

2010/08/10 06:53
KLMT 100653Z AUTO 26005KT 10SM SCT070 16/06 A2999 RMK AO2 SLP115 T01610056

2010/08/10 06:53
KLOL 100653Z AUTO VRB04KT 10SM CLR 24/M01 A2992 RMK AO2 SLP081 T02441011

2010/08/10 06:53
KLSE 100653Z AUTO 00000KT 9SM CLR 23/23 A2994 RMK AO2 SLP126 T02330228

2010/08/10 06:53
KLVJ 100653Z AUTO 26003KT 10SM CLR 27/24 A2993 RMK AO2 SLP134 T02670239

2010/08/10 06:53
KLVK 100653Z AUTO 29006KT 10SM CLR 13/11 A2989 RMK AO2 SLP121 T01280106 $

2010/08/10 06:53
KLVS 100653Z AUTO 06004KT 10SM CLR 14/13 A3026 RMK AO2 SLP138 T01390128 402890139

2010/08/10 06:53
KMAE 100653Z AUTO 30007KT 10SM CLR 21/16 A2982 RMK AO2 SLP095 T02110161

2010/08/10 06:53
KMCB 100653Z AUTO 00000KT 5SM BR CLR 24/22 A2996 RMK AO2 SLP139 T02390222

2010/08/10 06:53
KMCE 100653Z AUTO 33006KT 10SM CLR 21/14 A2982 RMK AO2 SLP096 T02110144

2010/08/10 06:53
KESF 100653Z AUTO 00000KT 10SM CLR 26/24 A2994 RMK AO2 SLP138 T02560239

2010/08/10 06:53
KFAY 100653Z AUTO 18004KT 10SM CLR 24/23 A3001 RMK AO2 SLP154 T02440228

2010/08/10 06:53
KFCM 100653Z AUTO 11003KT 10SM CLR 25/21 A2993 RMK AO2 SLP127 T02500211

2010/08/10 06:53
KFFC 100653Z AUTO 00000KT 4SM BR CLR 23/21 A3001 RMK AO2 SLP154 T02280211

2010/08/10 06:53
KFHR 100653Z AUTO 22005KT 10SM FEW100 12/10 A2995 RMK AO2 SLP141 T01170100

2010/08/10 06:53
KFSM 100653Z AUTO 00000KT 10SM CLR 28/25 A2992 RMK AO2 SLP123 T02830250

2010/08/10 06:53
KFTY 100653Z 00000KT 5SM BR CLR 24/22 A3001 RMK AO2 SLP151 T02390217

2010/08/10 06:53
KFUL 100653Z 00000KT 8SM CLR 17/13 A2990 RMK AO2 SLP125 T01670128

2010/08/10 06:53
KFYV 100653Z AUTO 18004KT 10SM CLR 24/22 A2998 RMK AO2 SLP132 T02390222

2010/08/10 06:53
KGFK 100653Z 20004KT 10SM FEW250 22/20 A2989 RMK AO2 SLP117 T02220200

2010/08/10 06:53
KGLH 100653Z AUTO 16006KT 10SM CLR 25/24 A2994 RMK AO2 SLP142 T02500239

2010/08/10 06:53
KGLR 100653Z AUTO 31004KT 3SM BR OVC003 21/21 A2999 RMK AO2 CIG 001V006 SLP146 T02110211

2010/08/10 06:53
KGMU 100653Z AUTO 20003KT 9SM CLR 26/21 A3006 RMK AO2 SLP165 T02610211

2010/08/10 06:53
KGPT 100653Z AUTO 00000KT 5SM BR CLR 27/25 A2991 RMK AO2 SLP128 T02720250

2010/08/10 06:53
KGRB 100653Z AUTO 00000KT 1 3/4SM BR CLR 22/21 A2996 RMK AO2 SLP140 T02220211 TSNO

2010/08/10 06:53
KGRI 100653Z AUTO 14008KT 9SM CLR 26/24 A2986 RMK AO2 SLP089 T02610239

2010/08/10 06:53
KGSH 100653Z AUTO 02003KT 1/4SM FG BKN046 21/21 A2997 RMK AO2 SLP143 T02060206

2010/08/10 06:53
KGSP 100653Z AUTO 00000KT 10SM CLR 25/22 A3004 RMK AO2 SLP156 T02500222

2010/08/10 06:53
KGUP 100653Z AUTO 00000KT 10SM CLR 15/12 A3024 RMK AO2 SLP081 T01500117 402720117

2010/08/10 06:53
KGVL 100653Z AUTO 09003KT 10SM BKN100 26/21 A3007 RMK AO2 SLP162 T02610206

2010/08/10 06:53
KGWO 100653Z AUTO 00000KT 8SM CLR 24/24 A2995 RMK AO2 SLP137 T02440239

2010/08/10 06:53
KHBG 100653Z AUTO 00000KT 4SM BR CLR 24/24 A2994 RMK AO2 SLP135 T02440244

2010/08/10 06:53
KHEI 100653Z AUTO 10008KT 10SM CLR 19/15 A2984 RMK AO2 SLP080 T01940150 403390150

2010/08/10 06:53
KRNM 100653Z AUTO 27003KT 10SM CLR 12/09 A2992 RMK AO2 SLP121 T01220094 TSNO

2010/08/10 06:53
KBLI 100653Z AUTO 17008KT 10SM OVC090 15/13 A2994 RMK AO2 SLP145 T01500128

2010/08/10 06:53
KBMQ 100653Z AUTO 18005KT 10SM CLR 27/22 A2999 RMK AO2 SLP132 T02720217 $

2010/08/10 06:53
KBNA 100653Z 00000KT 9SM BKN110 BKN200 26/24 A2998 RMK AO2 SLP143 T02610244

2010/08/10 06:55
KBOW 100655Z AUTO 09008KT 10SM CLR 24/23 A2992 RMK AO2

2010/08/10 06:53
KBPK 100653Z AUTO 00000KT 8SM CLR 27/24 A2995 RMK AO2 SLP126 T02720239

2010/08/10 06:53
KBPT 100653Z AUTO 00000KT 10SM CLR 26/25 A2991 RMK AO2 SLP129 T02610250

2010/08/10 06:53
KBRD 100653Z AUTO 00000KT 3SM BR CLR 21/19 A2996 RMK AO2 SLP138 T02060189

2010/08/10 06:53
PHJR 100653Z VRB04KT 10SM CLR 26/17 A3009 RMK AO2 SLP196 T02560172

2010/08/10 06:53
KBRO 100653Z 17005KT 10SM CLR 28/26 A2991 RMK AO2 SLP128 T02830261

2010/08/10 06:53
KBTL 100653Z AUTO 00000KT 3SM BR CLR 21/21 A2998 RMK AO2 SLP148 T02110206

2010/08/10 06:53
KBWG 100653Z AUTO 13003KT 10SM CLR 27/23 A2997 RMK AO2 SLP142 T02670233

2010/08/10 06:53
KCCR 100653Z AUTO 22006KT 10SM CLR 15/09 A2988 RMK AO2 SLP105 T01500094

2010/08/10 06:55
KCDN 100655Z AUTO 00000KT 8SM CLR 25/24 A3003 RMK A02 P000

2010/08/10 06:55
KCKI 100655Z AUTO 00000KT 23/23 A3001 RMK AO2 PWINO

2010/08/10 06:53
KCLM 100653Z AUTO 29004KT 10SM OVC007 12/11 A2997 RMK AO2 SLP149 T01220106

2010/08/10 06:53
KCMI 100653Z AUTO 21005KT 8SM SCT075 OVC100 27/24 A2996 RMK AO2 LTG DSNT NW SLP138 T02670239

2010/08/10 06:53
KCMX 100653Z AUTO 00000KT 9SM CLR 17/16 A2996 RMK AO2 SLP143 T01670161 $

2010/08/10 06:53
KCNM 100653Z AUTO 22006KT 10SM CLR 21/16 A3000 RMK AO2 SLP100 T02060156 403440206

2010/08/10 06:53
KCOT 100653Z AUTO 14007KT 10SM CLR 27/24 A2993 RMK AO2 SLP126 T02720239

2010/08/10 06:53
KCSV 100653Z AUTO 00000KT 8SM CLR 24/21 A3007 RMK AO2 SLP155 T02440206

2010/08/10 06:53
KCXO 100653Z AUTO 00000KT 10SM CLR 25/23 A2992 RMK AO2 SLP129 T02500233

2010/08/10 06:51
KDAG 100651Z AUTO 25008KT 10SM CLR 25/00 A2987 RMK AO2 SLP087 T02500000 TSNO

2010/08/10 06:53
KDAN 100653Z AUTO 22003KT 6SM BR CLR 23/21 A3001 RMK AO2 SLP149 T02330211

2010/08/10 06:53
KDCU 100653Z AUTO 00000KT 5SM BR CLR 24/23 A2998 RMK AO2 SLP143 T02440228

2010/08/10 06:53
KDEW 100653Z AUTO 14006KT 10SM CLR 16/05 A2979 RMK AO2 SLP079 T01560050

2010/08/10 06:53
KDLS 100653Z AUTO 29013G20KT 10SM CLR 19/09 A2988 RMK AO2 SLP118 T01890089

2010/08/10 06:53
KDNL 100653Z AUTO 13003KT 10SM CLR 26/22 A3002 RMK AO2 SLP159 T02560217 $

2010/08/10 06:53
KDVT 100653Z 00000KT 10SM CLR 30/10 A2983 RMK AO2 SLP072 T03000100 403780244

2010/08/10 06:53
KDWH 100653Z AUTO 22003KT 10SM CLR 26/24 A2992 RMK AO2 SLP130 T02560239

2010/08/10 06:55
KDYB 100655Z AUTO 00000KT 10SM CLR 25/25 A3000 RMK AO1

2010/08/10 06:53
KELN 100653Z AUTO 32017G24KT 10SM CLR 16/09 A2986 RMK AO2 PK WND 32026/0623 SLP102 T01610089

2010/08/10 06:53
KEPH 100653Z AUTO 33014G22KT 10SM FEW095 20/09 A2978 RMK AO2 SLP076 T02000094

2010/08/10 06:53
KEQY 100653Z AUTO 00000KT 8SM CLR 23/22 A3003 RMK AO2 SLP165 T02330222

2010/08/10 06:53
KMEM 100653Z 00000KT 10SM FEW250 28/24 A2994 RMK AO2 SLP134 T02830244

2010/08/10 06:55
KMEZ 100655Z AUTO 00000KT 10SM CLR 25/23 A2997 RMK AO2

2010/08/10 06:53
KMFE 100653Z AUTO 15007KT 9SM FEW020 28/26 A2992 RMK AO2 SLP128 T02830261 $

2010/08/10 06:53
KMFR 100653Z AUTO 00000KT 10SM CLR 20/09 A2993 RMK AO2 SLP124 T02000089

2010/08/10 06:53
KMHE 100653Z AUTO 15007KT 10SM OVC014 25/23 A2987 RMK AO2 SLP102 T02500233 TSNO

2010/08/10 06:53
KMIC 100653Z AUTO 00000KT 9SM CLR 23/21 A2993 RMK AO2 SLP127 T02280211

2010/08/10 06:53
KMIW 100653Z AUTO 17003KT 8SM BKN070 25/24 A2990 RMK AO2 LTG DSNT S-NW SLP115 T02500239

2010/08/10 06:53
KMKL 100653Z AUTO 00000KT 6SM BR CLR 27/25 A2995 RMK AO2 SLP136 T02670250

2010/08/10 06:53
KMMV 100653Z AUTO 24005KT 10SM BKN033 13/11 A3000 RMK AO2 SLP159 T01330111

2010/08/10 06:53
KMOD 100653Z AUTO 34007KT 10SM CLR 21/13 A2983 RMK AO2 SLP100 T02110133

2010/08/10 06:53
KMRB 100653Z AUTO 22004KT 9SM CLR 24/19 A2995 RMK AO2 SLP136 T02440189

2010/08/10 06:53
KMSL 100653Z AUTO 00000KT 4SM BR CLR 24/23 A2998 RMK AO2 SLP144 T02440233

2010/08/10 06:50
ENAL 100650Z 05009KT 9999 FEW010 BKN030 14/12 Q1010

2010/08/10 06:50
ENCN 100650Z 05002KT 9999 -RA BKN012 14/12 Q1011 REDZ

2010/08/10 06:50
ENHD 100650Z 12012KT 9999 BKN040 15/12 Q1009

2010/08/10 06:50
ENRO 100650Z 22002KT 9999 -DZ SCT002 BKN016 13/12 Q1010

2010/08/10 06:47
ENRY 100647Z 19010KT 160V230 9999 FEW014 17/13 Q1010 NOSIG

2010/08/10 06:50
ENSB 100650Z 27012KT 9999 FEW015 03/00 Q1005 NOSIG 

2010/08/10 06:50
ENTC 100650Z 03007KT 9999 FEW009 SCT015 BKN030 11/09 Q1011 TEMPO BKN014

2010/08/10 06:50
ENTO 100650Z 21008KT 9999 FEW005 16/12 Q1010

2010/08/10 06:53
KRNM 100653Z AUTO 27003KT 10SM CLR 12/09 A2992 RMK AO2 SLP121 T01220094 TSNO

2010/08/10 06:53
KTRL 100653Z AUTO 18005KT 10SM CLR 28/19 A2991 RMK AO2 SLP121 T02780194

2010/08/10 06:53
KTTN 100653Z AUTO 00000KT 8SM CLR 25/20 A2992 RMK AO2 SLP125 T02500200

2010/08/10 06:53
KTUL 100653Z 19009KT 10SM CLR 31/19 A2990 RMK AO2 SLP114 T03110194

2010/08/10 06:53
KTWF 100653Z AUTO 09008KT 10SM CLR 16/12 A2995 RMK AO2 SLP086 T01610117 403110139

2010/08/10 06:53
KTXK 100653Z AUTO 00000KT 10SM CLR 26/23 A2992 RMK AO2 SLP125 T02610233

2010/08/10 06:53
KTYR 100653Z 22007KT 10SM CLR 29/23 A2994 RMK AO2 SLP128 T02940228

2010/08/10 06:53
KUAO 100653Z AUTO 35006KT 10SM CLR 14/11 A2999 RMK AO2 SLP155 T01440111

2010/08/10 06:53
KUNO 100653Z AUTO 00000KT 10SM CLR 27/23 A2998 RMK AO2 SLP132 T02670233

2010/08/10 06:53
KUUU 100653Z AUTO 00000KT 9SM -RA FEW060 23/20 A2993 RMK AO2 RAB53 SLP132 P0000 T02280200

2010/08/10 06:53
KVEL 100653Z AUTO 27004KT 10SM CLR 14/03 A3010 RMK AO2 SLP134 T01440033 402890111

2010/08/10 06:53
KVIH 100653Z AUTO 19006KT 10SM CLR 26/23 A2994 RMK AO2 SLP125 T02560228

2010/08/10 06:53
KVLD 100653Z AUTO 06004KT 10SM CLR 25/23 A2995 RMK AO2 SLP148 T02500233

2010/08/10 06:53
KVRB 100653Z AUTO 13007KT 10SM CLR 26/23 A2992 RMK AO2 SLP130 T02610233

2010/08/10 06:53
KWRL 100653Z AUTO 18007KT 10SM BKN095 17/09 A2997 RMK AO2 SLP107 T01670089 403440139 $

2010/08/10 06:53
KWST 100653Z AUTO 02004KT 8SM BKN090 23/19 A2992 RMK AO2 SLP132 T02330194

2010/08/10 06:53
KYIP 100653Z 00000KT 1/2SM FG VV001 22/21 A2997 RMK AO2 SLP140 T02170206 RVRNO

2010/08/10 06:53
KZZV 100653Z AUTO 00000KT 6SM BR CLR 21/20 A2998 RMK AO2 SLP142 T02110200

2010/08/10 06:53
KDFW 100653Z 18007KT 10SM FEW250 30/19 A2990 RMK AO2 SLP114 T03000194

2010/08/10 06:53
KDGW 100653Z AUTO 13005KT 10SM CLR 16/14 A3003 RMK AO2 SLP106 T01610144 403170139

2010/08/10 06:53
KDHN 100653Z AUTO 08004KT 10SM CLR 26/22 A2999 RMK AO2 SLP147 T02560222

2010/08/10 06:53
KDHT 100653Z AUTO 25004KT 10SM CLR 20/17 A3006 RMK AO2 SLP113 T02000172

2010/08/10 06:53
KDKK 100653Z AUTO 23004KT 4SM BR BKN060 OVC080 22/21 A2995 RMK AO2 SLP135 T02220206 $

2010/08/10 06:53
KDLN 100653Z AUTO 18007KT 10SM BKN070 OVC110 14/07 A3003 RMK AO2 SLP122 T01440072 402170089

2010/08/10 06:53
KDMO 100653Z AUTO 20005KT 10SM CLR 28/24 A2992 RMK AO2 SLP121 T02780244

2010/08/10 06:53
KDRO 100653Z AUTO 36003KT 10SM CLR 14/06 A3024 RMK AO2 SLP151 T01390061 402780133

2010/08/10 06:53
KDTN 100653Z AUTO 14005KT 10SM CLR 28/24 A2991 RMK AO2 SLP126 T02830239

2010/08/10 06:53
KDTO 100653Z AUTO 18004KT 10SM CLR 28/20 A2991 RMK AO2 SLP116 T02780200

2010/08/10 06:53
KDTW 100653Z 00000KT 3/4SM R04R/5500VP6000FT BR CLR 21/21 A2996 RMK AO2 TWR VIS 4 SLP140 T02110206

2010/08/10 06:53
KDXR 100653Z AUTO 06003KT 8SM FEW046 24/19 A2995 RMK AO2 SLP138 T02440189

2010/08/10 06:53
KECP 100653Z 00000KT 5SM BR CLR 26/24 A2991 RMK AO2 SLP138 T02560244

2010/08/10 06:53
KEEO 100653Z AUTO 04006KT 10SM CLR 09/05 A3021 RMK AO2 SLP165 T00940050 402390083 TSNO

2010/08/10 06:53
KEET 100653Z AUTO 00000KT 7SM CLR 27/24 A2997 RMK AO2 SLP139 T02670239

2010/08/10 06:53
KELD 100653Z AUTO 16007KT 10SM CLR 27/24 A2993 RMK AO2 SLP129 T02670239

2010/08/10 06:53
KELM 100653Z AUTO 30004KT 6SM BR SCT022 OVC090 22/20 A2998 RMK AO2 RAE52 SLP143 P0015 T02170200 $

2010/08/10 06:53
KEWB 100653Z AUTO 00000KT 8SM BKN060 BKN080 23/21 A2992 RMK AO2 LTG DSNT E TSB19E39RAE35 SLP129 P0001 T02280206

2010/08/10 06:53
KEYE 100653Z AUTO 00000KT 9SM CLR 27/22 A2996 RMK AO2 SLP134 T02670222

2010/08/10 06:53
KEYW 100653Z AUTO 26005KT 10SM FEW014 SCT065 26/23 A2985 RMK AO2 SLP108 T02610233 TSNO

2010/08/10 06:53
KFDR 100653Z AUTO 20004KT 10SM 29/20 A2990 RMK AO2 SLP103 T02940200

2010/08/10 06:53
KFDY 100653Z AUTO 00000KT 5SM BR FEW044 24/22 A2996 RMK AO2 SLP133 T02390217

2010/08/10 06:53
KFFT 100653Z AUTO 00000KT 7SM CLR 23/22 A2997 RMK AO2 SLP140 T02330222

2010/08/10 06:53
KFLD 100653Z AUTO 14003KT 5SM BR CLR 22/21 A2996 RMK AO2 SLP141 T02170206

2010/08/10 06:53
KFLL 100653Z 15011KT 10SM SCT017 SCT044 26/23 A2988 RMK AO2 RAE05 SLP116 P0000 T02610233

2010/08/10 06:50
BGBW 100650Z AUTO 08004KT 0550NDV FG BKN002/// BKN004/// 07/07 Q1009

2010/08/10 06:50
BGGH 100650Z AUTO 23004KT 4300NDV RA OVC016/// 09/09 Q1007

2010/08/10 06:50
BGJN 100650Z AUTO VRB01KT 9999NDV SCT017/// BKN021/// OVC027/// 08/04 Q1008

2010/08/10 06:50
BGSS 100650Z AUTO 07001KT 9999NDV ///086/// ///120/// 09/09 Q1007 RMK /// /// 

2010/08/10 06:50
BGAA 100650Z AUTO 34001KT 0150NDV FG VV003/// 06/05 Q1008

2010/08/10 06:50
BGMQ 100650Z AUTO 32009KT 9999NDV BKN080/// 09/09 Q1005

2010/08/10 06:50
BGUK 100650Z AUTO 11001KT 0100NDV FG NCD 05/05 Q1009

2010/08/10 06:50
BGQQ 100650Z AUTO 25001KT 9999NDV NCD 03/03 Q1011

2010/08/10 06:50
BGPT 100650Z AUTO 15003KT //// FEW120/// OVC210/// 09/08 Q1008

2010/08/10 06:53
KORL 100653Z AUTO 09005KT 10SM CLR 26/24 A2992 RMK AO2 SLP135 T02560239

2010/08/10 06:53
KOSU 100653Z AUTO 22005KT 8SM SCT075 BKN090 25/21 A2997 RMK AO2 SLP138 T02500206 $

2010/08/10 06:53
KOTM 100653Z AUTO 09007KT 10SM TS BKN021 BKN027 OVC050 26/23 A2990 RMK AO2 LTG DSNT NW-E SLP116 T02560228

2010/08/10 06:53
KOUN 100653Z AUTO 16007KT 10SM CLR 29/21 A2994 RMK AO2

2010/08/10 06:53
KOWD 100653Z AUTO 00000KT 4SM -RA BR SCT046 OVC110 22/20 A2991 RMK AO2 SLP126 P0004 T02220200

2010/08/10 06:53
KOXB 100653Z AUTO 22003KT 10SM CLR 25/24 A2996 RMK AO2 SLP144 T02500239 $

2010/08/10 06:53
KPBG 100653Z AUTO 00000KT 1/2SM FG VV001 17/17 A2990 RMK AO2 SLP124 P0001 T01720167

2010/08/10 06:53
KPBI 100653Z 16010KT 10SM -RA SCT023CB BKN035 BKN060 27/23 A2989 RMK AO2 RAB03E11B49 SLP121 CB OHD-N MOV N P0000 T02670227

2010/08/10 06:53
KPEO 100653Z AUTO 21006KT 10SM SCT075 22/21 A2998 RMK AO2 RAE37 SLP143 P0002 T02170211 $

2010/08/10 06:53
KPGD 100653Z AUTO 08005KT 10SM CLR 24/23 A2989 RMK AO2 SLP122 T02440233 TSNO

2010/08/10 06:53
KPHD 100653Z AUTO 16003KT 4SM BR FEW085 OVC100 22/20 A2997 RMK AO2 SLP142 T02170200

2010/08/10 06:53
KPIE 100653Z AUTO 10006KT 10SM CLR 26/23 A2988 RMK AO2 SLP119 T02610233

2010/08/10 06:53
KPIH 100653Z AUTO 20006KT 10SM CLR 16/09 A3001 RMK AO2 SLP119 T01560094 402500133

2010/08/10 06:53
KPIL 100653Z AUTO 16008KT 10SM FEW018 31/27 A2991 RMK AO2 SLP129 T03060267

2010/08/10 06:53
KPKB 100653Z AUTO 00000KT 4SM BR CLR 21/19 A3001 RMK AO2 SLP153 T02060194

2010/08/10 06:53
KPMP 100653Z AUTO 15015G19KT 10SM BKN020 BKN030 OVC040 27/23 A2989 RMK AO2 RAE07 SLP121 P0000 T02670233

2010/08/10 06:53
KPNC 100653Z AUTO 16006KT 10SM CLR 30/21 A2990 RMK AO2 SLP107 T03000206

2010/08/10 06:53
KPNS 100653Z AUTO 00000KT 8SM CLR 26/24 A2992 RMK AO2 SLP134 T02610244

2010/08/10 06:53
KPOU 100653Z 00000KT 10SM FEW080 SCT100 23/20 A2993 RMK AO2 RAB33E53 SLP131 P0000 T02330200

2010/08/10 06:53
KPTK 100653Z 29005KT 6SM BR SCT140 23/22 A2995 RMK AO2 SLP136 T02280217

2010/08/10 06:50
KPTT 100650Z AUTO 20012KT 10SM SCT100 28/19 A2993 RMK AO2

2010/08/10 06:53
KPUB 100653Z AUTO 00000KT 10SM CLR 16/15 A3007 RMK AO2 SLP123 T01610150 402830161

2010/08/10 06:53
KPUC 100653Z AUTO 36005KT 10SM CLR 14/M01 A3013 RMK AO2 SLP169 T01391006 402610122 $

2010/08/10 06:53
KPWA 100653Z AUTO 18012KT 10SM CLR 28/20 A2992 RMK AO2 SLP112 T02830200

2010/08/10 06:53
KRAL 100653Z AUTO 00000KT 10SM CLR 19/13 A2991 RMK AO2 SLP112 T01890133

2010/08/10 06:53
KRBD 100653Z VRB05KT 10SM CLR 29/20 A2991 RMK AO2 SLP116 T02890200

2010/08/10 06:53
KRDD 100653Z AUTO 03003KT 10SM CLR 23/12 A2982 RMK AO2 SLP093 T02280122

2010/08/10 06:53
KRME 100653Z AUTO 00000KT 2SM BR SCT001 BKN007 OVC017 21/21 A2997 RMK AO2 SLP145 T02060206 $

2010/08/10 06:53
KRSL 100653Z AUTO 19009KT 10SM FEW095 27/21 A2988 RMK AO2 SLP091 T02670206

2010/08/10 06:53
KRSW 100653Z AUTO 10005KT 10SM BKN008 25/24 A2986 RMK AO2 CIG 006V010 SLP108 T02500239

2010/08/10 06:53
KRVS 100653Z 20003KT 10SM CLR 28/21 A2991 RMK AO2 SLP127 T02830206

2010/08/10 06:53
KRWL 100653Z AUTO 00000KT 10SM CLR 12/02 A3020 RMK AO2 SLP144 T01170017 402440111

2010/08/10 06:53
KRXE 100653Z AUTO 06004KT 10SM CLR 13/10 A3005 RMK AO2 SLP137 T01330100 402440128

2010/08/10 06:53
KSEG 100653Z AUTO 00000KT 7SM CLR 22/20 A2994 RMK AO2 SLP133 T02220200

2010/08/10 06:50
KSEZ 100650Z AUTO 04004KT 10SM CLR 22/09 A3011 RMK AO2 T02220085 403050189

2010/08/10 06:53
KSHR 100653Z AUTO 21008KT 10SM CLR 15/12 A2995 RMK AO2 SLP104 T01500117 403390122

2010/08/10 06:53
KSIY 100653Z AUTO 01009KT 10SM 19/07 A2994 RMK AO2 SLP126 T01940072 $

2010/08/10 06:53
KSLC 100653Z 16006KT 10SM CLR 19/04 A2999 RMK AO2 SLP102 T01890039 403060183

2010/08/10 06:53
KSLN 100653Z 18009KT 10SM FEW120 29/21 A2987 RMK AO2 SLP097 T02940206

2010/08/10 06:53
KSMQ 100653Z AUTO 00000KT 9SM CLR 23/20 A2991 RMK AO2 SLP125 T02330200

2010/08/10 06:53
KSNY 100653Z AUTO 04010KT 10SM CLR 18/16 A3003 RMK AO2 RAE37 SLP110 P0002 T01780161 403500172

2010/08/10 06:53
KHVR 100653Z AUTO 00000KT 10SM SCT120 17/15 A2980 RMK AO2 SLP072 T01720150 403280100

2010/08/10 06:53
KJLN 100653Z AUTO 17005KT 10SM CLR 26/22 A2994 RMK AO2 SLP123 T02610217 $

2010/08/10 06:53
KLAN 100653Z 00000KT 3SM R28L/0800VP6000FT BR MIFG CLR 19/19 A2997 RMK AO2 SLP145 T01940194

2010/08/10 06:53
KLBB 100653Z 11008KT 10SM FEW160 21/18 A3004 RMK AO2 SLP117 T02060178

2010/08/10 06:53
KTUS 100653Z 22003KT 10SM CLR 28/15 A2996 RMK AO2 SLP091 T02830150 403670250

2010/08/10 06:53
KEMP 100653Z AUTO 18008KT 10SM CLR 27/21 A2991 RMK AO2 SLP113 T02670206

2010/08/10 06:53
KFNB 100653Z AUTO 18007KT 10SM CLR 27/23 A2986 RMK AO2 SLP099 T02720228

2010/08/10 06:53
KFNT 100653Z 00000KT 1/2SM FG 19/19 A2996 RMK AO2 SLP142 T01940189 RVRNO $

2010/08/10 06:53
PABE 100653Z 17012G25KT 4SM -RA BR OVC008 09/09 A2946 RMK AO2 SLP978 P0001 T00940089

2010/08/10 06:53
PABT 100653Z 00000KT 10SM FEW055 OVC080 13/11 A2962 RMK AO2 SLP036 T01280111

2010/08/10 06:53
PACD 100653Z AUTO 11010KT 10SM BKN065 09/08 A2961 RMK AO2 SLP027 T00940083 TSNO

2010/08/10 06:53
PAFA 100653Z 01003KT 10SM BKN090 BKN140 15/11 A2961 RMK AO2 SLP030 T01500111

2010/08/10 06:53
PAHO 100653Z AUTO VRB05KT 10SM OVC044 13/08 A2975 RMK AO2 SLP075 T01280083 TSNO

2010/08/10 06:53
PAJN 100653Z 09005KT 10SM FEW005 SCT025 OVC035 13/12 A3000 RMK AO2 SLP159 T01280117

2010/08/10 06:53
PAMC 100653Z 00000KT 10SM SCT027 BKN100 13/09 A2960 RMK AO2 RAE49 SLP025 P0000 T01280094

2010/08/10 06:53
PANC 100653Z 25007KT 10SM -RA FEW006 BKN030 OVC060 12/11 A2976 RMK AO2 SLP080 P0001 T01170111

2010/08/10 06:53
PANN 100653Z AUTO 06005KT 10SM CLR 13/10 A2959 RMK AO2 SLP025 T01330100 TSNO

2010/08/10 06:53
PANT 100653Z AUTO 12004KT 10SM BKN050 13/11 A3003 RMK AO2 SLP169 T01280111 TSNO

2010/08/10 06:53
PAOM 100653Z 08006KT 9SM -RA BKN026 OVC033 11/10 A2940 RMK AO2 SLP954 P0004 T01110100

2010/08/10 06:53
PAOR 100653Z 00000KT 10SM SCT080 SCT100 BKN150 13/12 A2970 RMK AO2 SLP057 T01330122

2010/08/10 06:53
PAOT 100653Z AUTO 12009KT 7SM -RA FEW028 BKN049 OVC085 14/13 A2944 RMK AO2 RAB52 SLP968 P0000 T01440133 TSNO

2010/08/10 06:53
PAQT 100653Z AUTO 06010KT 6SM BR OVC006 03/03 A2978 RMK AO2 SLP086 T00280028 TSNO

2010/08/10 06:53
PASN 100653Z AUTO 27004KT 1/4SM FG BKN001 OVC005 08/08 A2940 RMK AO2 SLP955 T00830083 TSNO

2010/08/10 06:53
PATK 100653Z AUTO 00000KT 10SM -RA OVC024 13/12 A2975 RMK AO2 SLP076 P0001 T01280117 TSNO

2010/08/10 06:53
PAYA 100653Z 07005KT 2 1/2SM BR FEW005 OVC012 13/12 A2996 RMK AO2 RAE0559 SLP144 BAY TWR WND 140MMKT P0001 T01330117

2010/08/10 06:54
PHOG 100654Z 05013KT 10SM CLR 25/18 A3009 RMK AO2 SLP193 T02500183 $

2010/08/10 06:51
KSAD 100651Z AUTO 32006KT 10SM CLR 27/11 A2996 RMK AO2 SLP086 T02670111 403610217 TSNO

2010/08/10 06:54
K1V4 100654Z AUTO 18/18 A2992 RMK AO2 SLP120 T01830178 PWINO TSNO

2010/08/10 06:54
KMQE 100654Z AUTO 33007KT 21/21 A2992 RMK AO1 SLP135 P0003 T02060206

2010/08/10 06:54
KNAK 100654Z AUTO VRB03KT 9SM CLR 26/20 A2993 RMK AO2 SLP136 T02560200 TSNO

2010/08/10 06:54
KCOU 100654Z AUTO 14005KT 10SM CLR 27/25 A2993 RMK AO2 SLP123 T02670250 TSNO $

2010/08/10 06:54
KGSO 100654Z 20006KT 8SM CLR 25/21 A3004 RMK AO2 SLP160 T02500211

2010/08/10 06:53
KELY 100653Z AUTO 20011KT 10SM CLR 16/M07 A3013 RMK AO2 SLP101 T01611067

2010/08/10 06:54
KROA 100654Z 29003KT 9SM CLR 24/21 A3004 RMK AO2 SLP156 T02390206

2010/08/10 06:54
KDSM 100654Z 36006KT 3/4SM R31/4000VP6000FT +TSRA BR BKN004 OVC016CB 22/22 A2998 RMK AO2 PK WND 03027/0623 RAB15 SLP144 CONS LTGICCG ALQDS TS ALQDS STNRY P0097 T02220217

2010/08/10 06:55
KDVL 100655Z AUTO 28010G26KT 10SM SCT026 SCT120 25/19 A2993 RMK AO1 LTG DSNT NW

2010/08/10 06:55
KEAR 100655Z AUTO 19006KT 10SM CLR 25/22 A2990 RMK AO1

2010/08/10 06:54
KBUF 100654Z 00000KT 4SM BR BKN060 BKN080 21/20 A2994 RMK AO2 SLP135 T02110200

2010/08/10 06:54
KCOS 100654Z AUTO 00000KT 10SM BKN110 18/12 A3016 RMK AO2 SLP127 T01780122 402610161 TSNO

2010/08/10 06:54
KCRW 100654Z 00000KT 4SM BR FEW001 21/20 A3000 RMK AO2 SLP148 DNS VLY FG T02110200

2010/08/10 06:55
KFKL 100655Z AUTO 00000KT 9SM OVC090 22/19 A3001 RMK AO1 57010

2010/08/10 06:55
KFLP 100655Z AUTO 00000KT 10SM CLR 27/24 A2994 RMK AO1

2010/08/10 06:55
KFNL 100655Z AUTO 30003KT 10SM CLR 16/14 A3011 RMK AO1

2010/08/10 06:55
KFOD 100655Z AUTO 16004KT 9SM VCTS OVC038 25/25 A2992 RMK AO1 LTG DSNT SE TSB43

2010/08/10 06:55
KFRM 100655Z 11004KT 10SM CLR 23/22 A2995 RMK AO1

2010/08/10 06:55
KGAD 100655Z AUTO 00000KT 10SM CLR 24/23 A2999 RMK AO1

2010/08/10 06:55
KGAI 100655Z 00000KT 10SM CLR 26/21 A2997 RMK AO1

2010/08/10 06:55
KGBD 100655Z AUTO 18013G19KT 10SM SCT100 29/19 A2990 RMK AO1

2010/08/10 06:54
KGCK 100654Z 00000KT 10SM SCT100 SCT120 25/18 A2994 RMK AO2 RAB08E20 SLP095 P0000 T02500183

2010/08/10 06:54
KGCN 100654Z AUTO 00000KT 10SM CLR 09/07 A3024 RMK AO2 SLP153 T00940067 402560067

2010/08/10 06:55
KGDV 100655Z AUTO 31023G29KT 10SM CLR 21/16 A2981 RMK AO1

2010/08/10 06:54
KGED 100654Z AUTO 20004KT 7SM CLR 23/22 A2996 RMK AO2 SLP145 T02330217

2010/08/10 06:54
KAAO 100654Z AUTO 17009KT 10SM CLR 28/20 A2991 RMK AO2 SLP108 T02830200

2010/08/10 06:55
KAEG 100655Z AUTO 00000KT 10SM CLR 18/07 A3017 RMK AO1

2010/08/10 06:55
KAIK 100655Z AUTO 00000KT 10SM CLR 23/23 A3005 RMK AO2 PNO

2010/08/10 06:55
KAIZ 100655Z AUTO 00000KT 10SM CLR 25/23 A2995 RMK AO1

2010/08/10 06:54
KAKH 100654Z AUTO 00000KT 6SM BR OVC065 23/22 A3004 RMK AO2 SLP163 T02330217

2010/08/10 06:54
KAKR 100654Z AUTO 22006KT 10SM BKN070 25/19 A2996 RMK AO2 SLP134 T02500189

2010/08/10 06:54
KALO 100654Z 07004KT 6SM BR CLR 23/23 A2991 RMK AO2 SLP119 T02330233

2010/08/10 06:54
KAPC 100654Z AUTO 24003KT 10SM OVC009 12/11 A2990 RMK AO2 SLP115 T01220111 $

2010/08/10 06:55
KARG 100655Z AUTO 13003KT 10SM CLR 27/24 A2993 RMK AO1

2010/08/10 06:55
KAUO 100655Z AUTO 09004KT 10SM CLR 27/21 A2998 RMK AO1

2010/08/10 06:54
KAUW 100654Z AUTO 00000KT 6SM BR CLR 20/19 A2998 RMK AO2 SLP148 T02000194

2010/08/10 06:54
KAVL 100654Z AUTO 00000KT 4SM R34/5500VP6000FT BR CLR 21/20 A3012 RMK AO2 SLP170 T02060200

2010/08/10 06:55
KAWO 100655Z AUTO 00000KT 10SM 15/14 A2997 RMK AO1

2010/08/10 06:55
KBBP 100655Z AUTO 00000KT 7SM CLR 25/23 A3001 RMK AO2

2010/08/10 06:54
KBFL 100654Z AUTO 35007KT 10SM CLR 24/08 A2982 RMK AO2 SLP092 T02440078

2010/08/10 06:55
KBHB 100655Z AUTO 00000KT 4SM BKN070 BKN110 18/18 A2984 RMK AO1

2010/08/10 06:55
KBID 100655Z AUTO 23006KT 10SM CLR 22/21 A2990 RMK AO1

2010/08/10 06:55
KBKX 100655Z AUTO 10007KT 10SM SCT029 24/22 A2993 RMK AO1

2010/08/10 06:55
KBLM 100655Z AUTO 24006KT 10SM CLR 24/19 A2995 RMK AO1

2010/08/10 06:55
KBNL 100655Z AUTO 00000KT 7SM CLR 24/24 A3002 RMK AO2

2010/08/10 06:54
KBOS 100654Z 19004KT 4SM -TSRA BKN048 OVC110 19/19 A2991 RMK AO2 TSB54 SLP127 TS N MOV E P0004 T01940189

2010/08/10 06:55
KBTP 100655Z AUTO 00000KT 8SM FEW110 22/19 A2999 RMK AO1 57007

2010/08/10 06:54
KBUY 100654Z AUTO 22004KT 7SM CLR 24/21 A3002 RMK AO2 SLP157 T02390206

2010/08/10 06:55
KBVX 100655Z AUTO 00000KT 10SM CLR 29/24 A2994 RMK AO1

2010/08/10 06:55
KBWD 100655Z AUTO 15006KT 10SM CLR 28/19 A2996 RMK AO2

2010/08/10 06:54
KBWI 100654Z 20003KT 10SM SCT250 25/20 A2993 RMK AO2 SLP133 T02500200

2010/08/10 06:54
KCEU 100654Z AUTO 00000KT 5SM BR SCT090 27/24 A3004 RMK AO2 SLP161 T02670244

2010/08/10 06:55
KCGC 100655Z AUTO 10005KT 10SM CLR 25/24 A2990 RMK

2010/08/10 06:55
KCGZ 100655Z AUTO 29006KT 10SM CLR 33/09 A2985 RMK AO1

2010/08/10 06:55
KCIU 100655Z AUTO 02009KT 7SM SCT025 19/19 A2996 RMK AO1

2010/08/10 06:55
KCOD 100655Z AUTO 27004KT 10SM FEW090 18/06 A3002 RMK AO1

2010/08/10 06:55
KCOE 100655Z AUTO 18006KT 10SM CLR 17/07 A2981 RMK AO1

2010/08/10 06:55
KCQW 100655Z AUTO 00000KT 1/4SM FG VV002 23/23 A3002 RMK AO2

2010/08/10 06:55
KCVN 100655Z 19006KT 10SM BKN120 21/17 A3010 RMK AO1

2010/08/10 06:55
KCVO 100655Z AUTO 28011KT 10SM CLR 14/10 A3000 RMK AO1

2010/08/10 06:53
KHGR 100653Z AUTO 15003KT 8SM CLR 26/19 A2994 RMK AO2 SLP141 T02610194

2010/08/10 06:53
KHIB 100653Z AUTO 00000KT 1/4SM FG VV001 17/17 A2998 RMK AO2 SLP146 T01720167

2010/08/10 06:53
KHIO 100653Z AUTO 33005KT 10SM SCT024 SCT036 13/10 A3000 RMK AO2 SLP156 T01330100 TSNO

2010/08/10 06:53
KHJO 100653Z AUTO 30007KT 10SM CLR 24/16 A2981 RMK AO2 SLP095 T02390156

2010/08/10 06:53
KHKA 100653Z AUTO 00000KT 5SM BR CLR 27/25 A2994 RMK AO2 SLP134 T02670250

2010/08/10 06:53
KPKD 100653Z AUTO 14005KT 10SM CLR 22/19 A2996 RMK AO2 SLP137 T02170189

2010/08/10 06:53
KPMD 100653Z AUTO 00000KT 10SM CLR 20/04 A2992 RMK AO2 SLP104 T02000039

2010/08/10 06:53
KPQL 100653Z AUTO 00000KT 4SM BR CLR 26/25 A2992 RMK AO2 SLP133 T02560250

2010/08/10 06:53
KPRB 100653Z AUTO A2990 RMK AO2 SLPNO PWINO FZRANO TSNO

2010/08/10 06:53
KPRC 100653Z AUTO 19007KT 10SM CLR 19/07 A3013 RMK AO2 SLP117 T01890072 402940117

2010/08/10 06:53
KPSC 100653Z AUTO 22005KT 10SM CLR 20/11 A2983 RMK AO2 SLP097 T02000106

2010/08/10 06:53
KPSP 100653Z AUTO 00000KT 10SM CLR 27/08 A2976 RMK AO2 SLP074 T02670083 TSNO

2010/08/10 06:53
KPSX 100653Z AUTO 20009G18KT 10SM CLR 31/26 A2991 RMK AO2 SLP127 T03060256

2010/08/10 06:53
KPUW 100653Z AUTO 23005KT 10SM CLR 17/04 A2986 RMK AO2 SLP096 T01720039

2010/08/10 06:53
KRAC 100653Z AUTO 00000KT 3SM BR CLR 22/21 A2996 RMK AO2 SLP141 T02220206

2010/08/10 06:53
KRBG 100653Z AUTO 02003KT 10SM CLR 18/12 A2997 RMK AO2 SLP146 T01780122

2010/08/10 06:53
KRHI 100653Z AUTO 00000KT 9SM CLR 17/16 A3002 RMK AO2 SLP158 T01720161

2010/08/10 06:53
KRKP 100653Z AUTO 17004KT 10SM CLR 29/26 A2991 RMK AO2 SLP131 T02890261

2010/08/10 06:53
KRNT 100653Z AUTO 19004KT 10SM SCT024 OVC032 16/12 A2996 RMK AO2 SLP151 T01560117

2010/08/10 06:53
KRUE 100653Z AUTO 00000KT 10SM CLR 28/24 A2992 RMK AO2 SLP122 T02780244

2010/08/10 06:53
KRWF 100653Z AUTO 10004KT 10SM CLR 24/22 A2991 RMK AO2 SLP122 T02390222

2010/08/10 06:53
KRWI 100653Z AUTO 00000KT 10SM CLR 23/22 A3000 RMK AO2 SLP158 T02330222

2010/08/10 06:53
KSAC 100653Z 19004KT 10SM CLR 16/12 A2984 RMK AO2 SLP105 T01610117

2010/08/10 06:53
KSAF 100653Z AUTO 36006KT 10SM CLR 15/11 A3020 RMK AO2 SLP118 T01500106 403110133

2010/08/10 06:53
KSBA 100653Z AUTO 13004KT 10SM CLR 14/13 A2989 RMK AO2 SLP120 T01440128

2010/08/10 06:53
KSBM 100653Z AUTO 00000KT 7SM CLR 22/22 A2996 RMK AO2 SLP139 T02220217

2010/08/10 06:53
KSDL 100653Z 00000KT 10SM CLR 32/12 A2984 RMK AO2 SLP075 T03220117 403890261

2010/08/10 06:53
KSFF 100653Z AUTO 00000KT 10SM CLR 16/05 A2980 RMK AO2 SLP077 T01610050

2010/08/10 06:53
KSHN 100653Z AUTO 23011KT 3SM BR OVC005 12/12 A2995 RMK AO2 CIG 004V008 SLP143 T01220117

2010/08/10 06:53
KSJC 100653Z 00000KT 10SM BKN009 15/12 A2992 RMK AO2 SLP130 T01500122

2010/08/10 06:53
KSMF 100653Z 15010KT 10SM CLR 17/12 A2982 RMK AO2 SLP096 T01720122

2010/08/10 06:53
KSNA 100653Z 25003KT 9SM CLR 18/13 A2991 RMK AO2 SLP126 T01830133

2010/08/10 06:53
KSNS 100653Z AUTO 31004KT 9SM OVC005 13/11 A2994 RMK AO2 SLP146 T01280111

2010/08/10 06:53
KSPB 100653Z AUTO 31004KT 10SM BKN036 13/11 A2999 RMK AO2 SLP155 T01330106

2010/08/10 06:52
PATA 100652Z AUTO 01003KT 10SM OVC090 14/13 A2960 RMK AO2 RAE03 SLP027 P0000 T01390128 TSNO

2010/08/10 06:53
PHJR 100653Z VRB04KT 10SM CLR 26/17 A3009 RMK AO2 SLP196 T02560172

2010/08/10 06:50
TJPS 100650Z 00000KT 8SM SCT030 BKN060 26/26 A2993

2010/08/10 06:53
KOVE 100653Z AUTO 12004KT 10SM CLR 23/11 A2983 RMK AO2 SLP103 T02330111 TSNO $

2010/08/10 06:53
KSGR 100653Z AUTO 00000KT 10SM CLR 26/24 A2991 RMK AO2 SLP137 T02560239 TSNO

2010/08/10 06:53
KMSY 100653Z 27004KT 9SM FEW015 BKN250 26/25 A2992 RMK AO2 SLP134 T02560250

2010/08/10 06:53
KABY 100653Z 07005KT 10SM CLR 26/24 A2997 RMK AO2 SLP148 T02560239

2010/08/10 06:53
KACK 100653Z AUTO 29007KT 5SM BR SCT065 BKN080 22/22 A2992 RMK AO2 SLP133 T02220217 TSNO

2010/08/10 06:53
KADG 100653Z AUTO 00000KT 1/4SM FG BKN001 OVC008 21/20 A2997 RMK AO2 SLP146 T02110200

2010/08/10 06:53
KAFW 100653Z 19003KT 10SM CLR 29/20 A2990 RMK AO2 SLP106 T02940200 $

2010/08/10 06:50
EDDF 100650Z VRB01KT CAVOK 18/14 Q1016 NOSIG

2010/08/10 06:50
EDDH 100650Z 15006KT CAVOK 19/15 Q1015 NOSIG

2010/08/10 06:50
EDDK 100650Z 13005KT CAVOK 18/14 Q1015 NOSIG

2010/08/10 06:50
EDDL 100650Z 15005KT CAVOK 18/14 Q1015 NOSIG

2010/08/10 06:50
EDDM 100650Z 08002KT CAVOK 17/15 Q1018 NOSIG

2010/08/10 06:50
EDDN 100650Z 15001KT 9999 SCT045 BKN080 15/14 Q1017 NOSIG

2010/08/10 06:50
EDDS 100650Z 09002KT CAVOK 18/13 Q1018 NOSIG

2010/08/10 06:50
EDDW 100650Z 14006KT CAVOK 18/14 Q1014 NOSIG

2010/08/10 06:50
EDFE 100650Z VRB01KT CAVOK 17/14 Q1017

2010/08/10 06:50
EDFM 100650Z 16006KT 130V190 CAVOK 19/14 Q1016

2010/08/10 06:50
EDHI 100650Z 14004KT 080V170 CAVOK 18/16 Q1015

2010/08/10 06:50
EDHL 100650Z 14005KT 110V170 CAVOK 18/18 Q1016

2010/08/10 06:50
EDJA 100650Z 22004KT 200V260 CAVOK 16/14 Q1019

2010/08/10 06:50
EDLN 100650Z VRB03KT CAVOK 17/16 Q1015

2010/08/10 06:50
EDLP 100650Z 17006KT CAVOK 19/11 Q1015

2010/08/10 06:50
EDLW 100650Z 18008KT CAVOK 18/13 Q1015

2010/08/10 06:50
EDMA 100650Z 23002KT CAVOK 17/15 Q1018

2010/08/10 06:50
EDMO 100650Z 22005KT CAVOK 17/14 Q1018

2010/08/10 06:50
EDQM 100650Z VRB01KT CAVOK 18/13 Q1018

2010/08/10 06:50
EDVE 100650Z 16005KT 110V210 CAVOK 19/15 Q1016

2010/08/10 06:50
EKBI 100650Z 17006KT 130V200 CAVOK 16/14 Q1014

2010/08/10 06:50
EKCH 100650Z 20005KT 160V230 CAVOK 18/13 Q1016 NOSIG

2010/08/10 06:50
EKEB 100650Z AUTO 16011KT 120V190 9999NDV NCD 16/14 Q1013

2010/08/10 06:50
EKKA 100650Z 20009KT 150V230 CAVOK 18/13 Q1013 NOSIG RMK FEW220

2010/08/10 06:50
EKOD 100650Z 18005KT 150V210 CAVOK 17/14 Q1015

2010/08/10 06:50
EKRK 100650Z AUTO 15007KT 9999NDV NCD 17/12 Q1016

2010/08/10 06:50
EKRN 100650Z AUTO 13004KT 9999NDV BKN034/// 17/13 Q1017

2010/08/10 06:50
EKSB 100650Z 15006KT 130V190 9999 SCT040 17/12 Q1014

2010/08/10 06:50
EKSN 100650Z 21011KT 9999 FEW022 SCT045 16/13 Q1013

2010/08/10 06:50
EKSP 100650Z 15008KT 9999 FEW035 SCT200 17/14 Q1014 NOSIG

2010/08/10 06:50
EKVD 100650Z AUTO 16009KT //// ///////// 17/13 Q1014

2010/08/10 06:53
EKVG 100653Z 26004KT 230V330 9999 FEW004 SCT022 11/10 Q1008 RMK/RWY 13-31 CLOSED DUE WIP NOTAM E0050/10 WIND 850FT 02004KT

2010/08/10 06:50
EKVJ 100650Z 16008KT CAVOK 16/15 Q1014

2010/08/10 06:50
EKYT 100650Z 21007KT 9999 BKN045 17/12 Q1014 NOSIG

2010/08/10 06:50
EDNY 100650Z VRB02KT 9999 SCT055 17/14 Q1018

2010/08/10 06:50
EDVK 100650Z 11003KT CAVOK 17/13 Q1017

2010/08/10 06:50
EDXW 100650Z 16011KT 8000 NSC 18/16 Q1013

2010/08/10 06:50
EGMH 100650Z 20014KT 9999 BKN007 18/16 Q1011

2010/08/10 06:55
KBAD 100655Z AUTO 15005KT 10SM CLR 26/23 A2992 RMK AO2 SLP131 T02640233

2010/08/10 06:53
KBAF 100653Z 00000KT 6SM -RA BR FEW043 OVC090 22/21 A2992 RMK AO2 SLP128 P0007 T02170206

2010/08/10 06:53
KBUR 100653Z 09005KT 10SM CLR 18/13 A2990 RMK AO2 SLP114 T01780128

2010/08/10 06:55
KEGI 100655Z AUTO 00000KT 8SM R18/5500FT CLR 24/23 A2993 RMK AO2 SLP134 T02450235 $

2010/08/10 06:55
KGUS 100655Z AUTO 04003KT 9SM R23/5500VP6000FT CLR 22/22 A2996 RMK AO2 SLP138 T02250225

2010/08/10 06:55
KHST 100655Z AUTO 16004KT 10SM SCT060 26/24 A2988 RMK AO2 CLDS LWR RWY23 SLP120 T02640239

2010/08/10 06:55
KIAB 100655Z AUTO 16010KT 10SM CLR 29/21 A2991 RMK AO2 SLP111 T02890206 $

2010/08/10 06:55
KMMT 100655Z AUTO 00000KT 9SM R32/5500VP6000FT CLR 23/23 A3002 RMK AO2 SLP163 T02310225

2010/08/10 06:52
KNRB 100652Z 14010KT 10SM FEW022 28/22 A2995 RMK AO2 SLP142 T02830222

2010/08/10 06:55
KOFF 100655Z AUTO 09004KT 10SM CLR 26/26 A2985 RMK AO2 SLP088 T02600260 $

2010/08/10 06:55
KSUU 100655Z AUTO 25019G25KT 10SM CLR 13/11 A2983 RMK AO2 PK WND 24027/0602 SLP104 T01340113 RVRNO $

2010/08/10 06:55
KSZL 100655Z AUTO 17005KT 10SM CLR 27/25 A2991 RMK AO2 SLP119 T02710246 PNO $

2010/08/10 06:53
KTOI 100653Z AUTO 00000KT 5SM BR CLR 24/23 A2996 RMK AO2 SLP139 T02390233

2010/08/10 07:00
LPLA 100700Z 00000KT 9999 FEW018 BKN035 21/17 Q1022

2010/08/10 06:50
OAKN 100650Z 22006KT 8000 DU SCT150 OVC250 36/02 Q1008 BLU TEMPO 6000 WHT RMK A2977 DA6700

2010/08/10 06:50
OAUZ 100650Z 32003KT 9999 BKN150 37/03 Q1007 BLU

2010/08/10 06:53
PHJR 100653Z VRB04KT 10SM CLR 26/17 A3009 RMK AO2 SLP196 T02560172

2010/08/10 06:55
TXKF 100655Z 17007KT 9999 FEW017 SCT180 BKN300 27/23 Q1020 

2010/08/10 06:49
RJNT 100649Z 18006KT 9999 SHRA FEW015 SCT030 BKN040 26/25 Q1013 RMK 1CU015 3CU030 6CU040 A2993

2010/08/10 06:50
EETN 100650Z 22010KT 9999 BKN015 20/17 Q1013 NOSIG

2010/08/10 06:50
EFHF 100650Z 20009KT 170V230 8000 +SHRA SCT009 BKN012 SCT030CB 19/18 Q1011

2010/08/10 06:50
EFHK 100650Z 20007KT 9999 -SHRA BKN009 FEW030CB 20/18 Q1011 NOSIG

2010/08/10 06:50
EFJY 100650Z 21005KT 180V260 9999 SCT014 SCT030 BKN055 18/16 Q1009

2010/08/10 06:50
EFKK 100650Z 30002KT 9999 BKN007 BKN020 19/18 Q1008

2010/08/10 06:50
EFKU 100650Z AUTO 19009KT 150V220 9999NDV FEW016 BKN068 20/15 Q1010

2010/08/10 06:50
EFMA 100650Z 23005KT 190V270 9999 -SHRA FEW007 BKN010 19/17 Q1009

2010/08/10 06:50
EFPO 100650Z 19004KT 160V230 8000 SHRA SCT005 BKN007 BKN015 18/17 Q1009

2010/08/10 06:50
EFRO 100650Z AUTO 01010KT 9999NDV FEW008 BKN011 BKN017 11/10 Q1010

2010/08/10 06:50
EFTP 100650Z 21007KT 9999 FEW012 18/16 Q1010

2010/08/10 06:50
EFTU 100650Z AUTO 25007KT 220V280 9999 FEW012 BKN016 OVC021 19/16 Q1010

2010/08/10 06:50
EFVA 100650Z 18001KT 9999 FEW003 SCT008 BKN022 18/18 Q1008

2010/08/10 06:50
ENBO 100650Z 22004KT 180V260 9999 FEW002 BKN050 13/12 Q1010 TEMPO 4000 BR SCT003 BKN008

2010/08/10 06:50
ENBR 100650Z 00000KT 9999 FEW040 SCT050 15/11 Q1009 NOSIG

2010/08/10 06:50
ENCN 100650Z 05002KT 9999 -RA BKN012 14/12 Q1011 REDZ

2010/08/10 06:50
ENHD 100650Z 12012KT 9999 BKN040 15/12 Q1009

2010/08/10 06:50
ENKR 100650Z 02006KT 9999 BKN005 09/08 Q1013

2010/08/10 06:50
ENSB 100650Z 27012KT 9999 FEW015 03/00 Q1005 NOSIG

2010/08/10 06:50
ENTC 100650Z 03007KT 9999 FEW009 SCT015 BKN030 11/09 Q1011 TEMPO BKN014

2010/08/10 06:50
ENVA 100650Z 29003KT 9999 FEW003 SCT008 BKN015 14/13 Q1011 TEMPO BKN008

2010/08/10 06:50
EVRA 100650Z 20006KT 170V250 9999 SCT016 SCT019 20/16 Q1016 NOSIG

2010/08/10 06:50
EYVI 100650Z VRB02KT 4000 BR BKN140 18/18 Q1017 NOSIG

2010/08/10 06:50
LXGB 100650Z 30004KT CAVOK 23/15 Q1016 NOSIG

2010/08/10 07:00
SBFZ 100700Z 12006KT 9999 SCT017 25/23 Q1014

2010/08/10 07:00
SBEG 100700Z 00000KT CAVOK 23/22 Q1012

2010/08/10 06:50
ENNO 100650Z 00000KT 5000 BR BKN006 15/14 Q1010

2010/08/10 06:50
ENOV 100650Z VRB01KT 9999 FEW008 SCT014 BKN020 15/12 Q1010 

2010/08/10 06:50
ENSN 100650Z 20005KT 6000 FEW001 SCT003 BKN008 14/14 Q1010

2010/08/10 06:50
ENSR 100650Z 35003KT 9999 FEW010 SCT030 12/09 Q1011

2010/08/10 06:50
ENBN 100650Z 12002KT 6000 SCT002 BKN004 12/12 Q1011

2010/08/10 06:50
ENBV 100650Z 09007KT 9999 BKN035 10/08 Q1013

2010/08/10 06:50
ENFG 100650Z 18003KT 9999 SCT012 BKN016 13/11 Q1011

2010/08/10 06:50
ENHF 100650Z 06005KT 9999 BKN045 12/09 Q1011 

2010/08/10 06:50
ENRA 100650Z VRB02KT 9999 FEW040 BKN050 17/12 Q1010

2010/08/10 06:50
ENSH 100650Z 02015KT 9999 FEW010 SCT035 12/10 Q1010

2010/08/10 06:54
MMMX 100654Z 00000KT 5SM FEW090 SCT200 16/14 A3030 NOSIG RMK 8/032 HZY

2010/08/10 06:50
ENAL 100650Z 05009KT 9999 FEW010 BKN030 14/12 Q1010

2010/08/10 06:50
ENAN 100650Z 02010KT 9999 FEW006 BKN008 11/10 Q1011 NOSIG

2010/08/10 06:50
ENAT 100650Z 14008KT 9999 FEW025 BKN050 15/09 Q1011

2010/08/10 06:50
ENBL 100650Z VRB01KT 9999 FEW010 SCT025 BKN031 12/11 Q1009

2010/08/10 06:50
ENDU 100650Z VRB01KT 9999 FEW045 SCT060 11/09 Q1010 NOSIG

2010/08/10 06:50
ENEK 100650Z 20008KT 9999 -RA SCT007 BKN060 16/15 Q1007 W16/S3

2010/08/10 06:50
ENEV 100650Z 34005KT 300V030 9999 SCT006 BKN025 12/10 Q1010

2010/08/10 06:50
ENFL 100650Z VRB01KT 9999 FEW010 BKN040 15/13 Q1009

2010/08/10 06:50
ENKB 100650Z 24003KT 9999 -RA SCT015 BKN093 14/12 Q1010

2010/08/10 06:54
KRSP 100654Z AUTO VRB03KT 7SM CLR 23/19 A3001 RMK AO2 SLP150 T02330189 $ 

2010/08/10 06:54
KFWA 100654Z 00000KT 1/4SM FG CLR 23/22 A2997 RMK AO2 SLP142 R23/3000FT T02280222 

2010/08/10 06:50
ENML 100650Z 08004KT 9999 FEW010 BKN035 16/13 Q1010

2010/08/10 06:50
ENMS 100650Z 09002KT 9999 1500SE FEW000 BKN004 14/11 Q1010

2010/08/10 06:50
ENNA 100650Z 08004KT 9999 FEW015 BKN050 14/09 Q1012

2010/08/10 06:50
ENNK 100650Z 25003KT 9999 BKN050 13/11 Q1010

2010/08/10 06:50
ENNM 100650Z 23003KT 3500 BKN002 12/11 Q1011

2010/08/10 06:50
ENOL 100650Z VRB02KT 9999 SCT003 BKN005 13/12 Q1011 TEMPO 3000 BR

2010/08/10 06:50
ENRM 100650Z VRB02KT 4500 BR BKN002 12/11 Q1011

2010/08/10 06:50
ENRO 100650Z 22002KT 9999 -DZ SCT002 BKN016 13/12 Q1010

2010/08/10 06:50
ENRS 100650Z 01014KT 9999 BKN004 10/10 Q1011

2010/08/10 06:47
ENRY 100647Z 19010KT 160V230 9999 FEW014 17/13 Q1010 NOSIG

2010/08/10 06:50
ENSK 100650Z 25003KT 9999 SCT008 BKN010 12/10 Q1011

2010/08/10 06:50
ENSO 100650Z 11009KT 080V150 9999 FEW010 16/11 Q1009

2010/08/10 06:50
ENST 100650Z 23005KT 6000 3000NE DZ SCT001 BKN003 12/12 Q1011

2010/08/10 06:50
ENTO 100650Z 21008KT 9999 FEW005 16/12 Q1010

2010/08/10 06:50
ENVD 100650Z 09005KT 9999 FEW005 BKN009 09/07 Q1013

2010/08/10 06:54
KROC 100654Z 22003KT 2 1/2SM BR BKN060 OVC085 21/20 A2994 RMK AO2 SLP136 T02060200 

2010/08/10 06:54
KWAL 100654Z AUTO 24006KT 10SM CLR 24/22 A2997 RMK AO2 SLP146 T02390217 TSNO 

2010/08/10 06:50
ESDF 100650Z 24005KT CAVOK 17/11 Q1016

2010/08/10 06:50
ESGG 100650Z 22011KT 9999 BKN015 16/13 Q1014

2010/08/10 06:50
ESGJ 100650Z 24010KT 9999 FEW013 SCT016 BKN019 15/12 Q1014

2010/08/10 06:50
ESKN 100650Z 26011KT 9999 FEW016 BKN041 17/13 Q1012

2010/08/10 06:50
ESMK 100650Z 25004KT CAVOK 18/12 Q1016

2010/08/10 06:50
ESMS 100650Z 21003KT 160V260 CAVOK 18/13 Q1016

2010/08/10 06:50
ESMX 100650Z 25006KT 220V300 9999 FEW016 SCT040 OVC046 16/13 Q1015

2010/08/10 06:50
ESNN 100650Z 05006KT 030V090 7000 BR FEW008 SCT010 BKN012 16/15 Q1009

2010/08/10 06:50
ESNO 100650Z 04004KT 360V090 3000 -DZ OVC005 15/13 Q1009

2010/08/10 06:50
ESNQ 100650Z VRB02KT 9999 FEW014 BKN030 12/10 Q1012

2010/08/10 06:50
ESNS 100650Z 02004KT 350V050 6000 RA FEW010 BKN020 13/12 Q1010

2010/08/10 06:50
ESNU 100650Z 02005KT 9999 FEW006 BKN009 15/13 Q1009

2010/08/10 06:50
ESOK 100650Z 23003KT 180V270 9999 BKN010 15/13 Q1011

2010/08/10 06:50
ESOW 100650Z 25009KT 9999 OVC007 16/15 Q1011

2010/08/10 06:50
ESPA 100650Z 01005KT 340V040 9999 BKN013 14/12 Q1010

2010/08/10 06:50
ESSA 100650Z 24011KT 9999 FEW005 SCT007 BKN008 16/16 Q1010 BECMG BKN012

2010/08/10 06:50
ESSB 100650Z 24007KT 9999 BKN008 17/15 Q1011

2010/08/10 06:50
ESSD 100650Z 27008KT 9999 SCT013 BKN031 18/15 Q1009

2010/08/10 06:50
ESSP 100650Z 24010KT 9999 BKN016 16/13 Q1012

2010/08/10 06:50
ESSV 100650Z 25010KT 9999 SCT013 BKN020 16/13 Q1014

2010/08/10 06:50
LSGG 100650Z VRB02KT 9999 FEW073 22/15 Q1018 NOSIG

2010/08/10 06:50
LSGC 100650Z 00000KT CAVOK 15/12 Q1020

2010/08/10 06:50
LSGG 100650Z VRB02KT 9999 FEW073 21/15 Q1018 NOSIG

2010/08/10 06:50
LSZA 100650Z VRB01KT 9999 SCT045 BKN060 20/18 Q1017 NOSIG

2010/08/10 06:50
LSZB 100650Z VRB03KT 9999 SCT080 18/15 Q1018 NOSIG

2010/08/10 06:50
LSZG 100650Z VRB01KT CAVOK 17/15 Q1018 NOSIG

2010/08/10 06:50
LSZH 100650Z VRB02KT 9999 FEW055 19/15 Q1018 NOSIG

2010/08/10 06:50
LSZR 100650Z VRB01KT CAVOK 18/15 Q1018 NOSIG RMK C

2010/08/10 06:50
LSZS 100650Z 08002KT 9999 FEW020 SCT070 08/08 Q1023

2010/08/10 06:50
EGAA 100650Z 24014KT 9999 -SHRA BKN008 12/11 Q1004

2010/08/10 06:50
EGBB 100650Z 21007KT 180V250 9999 SCT007 15/13 Q1009

2010/08/10 06:50
EGCC 100650Z 18007KT 9999 FEW018 13/12 Q1008

2010/08/10 06:50
EGFF 100650Z 24010KT 9999 FEW023 BKN045 14/12 Q1011

2010/08/10 06:50
EGGD 100650Z 22008KT 9999 FEW036 12/12 Q1011

2010/08/10 06:50
EGGP 100650Z 22007KT 9999 SCT032 15/12 Q1008

2010/08/10 06:50
EGGW 100650Z 27009KT 7000 RA BKN020 13/11 Q1010

2010/08/10 06:50
EGHD 100650Z 00000KT 3000 -RA BR FEW000 BKN003 13/12 Q1012

2010/08/10 06:50
EGHH 100650Z 25004KT 9999 -RA FEW033 SCT040 14/12 Q1011

2010/08/10 06:50
EGHI 100650Z VRB01KT 9999 -RA FEW010 SCT023 BKN039 13/12 Q1011

2010/08/10 06:50
EGJB 100650Z 23011KT 9999 -RADZ FEW003 BKN005 BKN013 16/15 Q1013

2010/08/10 06:50
EGJJ 100650Z 25011KT 220V300 6000 -RADZ SCT001 BKN002 17/17 Q1013 TEMPO 3000

2010/08/10 06:50
EGKB 100650Z 24003KT 3000 RA BKN005 16/15 Q1011

2010/08/10 06:50
EGKK 100650Z 24006KT 7000 RA FEW005 SCT011 BKN025 16/16 Q1011

2010/08/10 06:50
EGLL 100650Z 29010KT 9999 RA FEW009 SCT019 BKN022 14/12 Q1011

2010/08/10 06:50
EGMC 100650Z 23006KT 5000 -RA FEW007 BKN009 17/16 Q1010

2010/08/10 06:50
EGNM 100650Z 24004KT 9000 FEW015 SCT048 12/11 Q1007

2010/08/10 06:50
EGNT 100650Z 00000KT 9999 FEW030 14/10 Q1006

2010/08/10 06:50
EGNV 100650Z 18006KT 9999 FEW045 BKN049 13/12 Q1007

2010/08/10 06:50
EGNX 100650Z 22012KT 9999 FEW018 SCT047 14/12 Q1009

2010/08/10 06:50
EGPB 100650Z 13008KT 9999 FEW010 FEW015CB SCT022 15/14 Q1004

2010/08/10 06:50
EGPD 100650Z 00000KT 9999 1500NE R34/P1500 VCFG NSC 11/10 Q1004 NOSIG

2010/08/10 06:50
EGPF 100650Z 12005KT 9999 -SHRA FEW010 SCT035 12/11 Q1004

2010/08/10 06:50
EGPH 100650Z 20008KT 9999 FEW016 SCT035 14/10 Q1004

2010/08/10 06:50
EGPK 100650Z 17007KT 9999 FEW009 SCT020CB SCT038 12/10 Q1004

2010/08/10 06:50
EGTE 100650Z 18003KT 6000 RA FEW015 BKN020 13/12 Q1012

2010/08/10 06:50
EGTG 100650Z 21009KT 9999 SCT024 13/12 Q1011

2010/08/10 06:50
EGAC 100650Z 20010KT 9999 VCSH FEW010 SCT018 BKN028 13/11 Q1004

2010/08/10 06:50
EGGP 100650Z 22007KT 9999 SCT032 15/12 Q1008

2010/08/10 06:50
EGGW 100650Z 27009KT 7000 RA BKN020 13/11 Q1010

2010/08/10 06:50
EGHE 100650Z 23019KT 6000 -RA FEW005 SCT010 BKN036 16/16 Q1010

2010/08/10 06:50
EGJA 100650Z 28006KT 2000 -RADZ BR FEW000 BKN001 15/15 Q1013

2010/08/10 06:50
EGLC 100650Z 23006KT 180V260 8000 SHRA FEW008 SCT028 BKN040 17/15 Q1010

2010/08/10 06:50
EGNT 100650Z 00000KT 9999 FEW030 14/10 Q1006

2010/08/10 06:50
EGPF 100650Z 12005KT 9999 -SHRA FEW010 SCT035 12/11 Q1004

2010/08/10 06:50
EGSS 100650Z 27004KT 8000 RADZ FEW012 SCT018 BKN028 15/14 Q1010

2010/08/10 06:50
ENBN 100650Z 12002KT 6000 SCT002 BKN004 12/12 Q1011

2010/08/10 06:50
ENBV 100650Z 09007KT 9999 BKN035 10/08 Q1013

2010/08/10 06:50
ENFG 100650Z 18003KT 9999 SCT012 BKN016 13/11 Q1011

2010/08/10 06:50
ENHF 100650Z 06005KT 9999 BKN045 12/09 Q1011 

2010/08/10 06:50
ENRA 100650Z VRB02KT 9999 FEW040 BKN050 17/12 Q1010

2010/08/10 06:50
ENSH 100650Z 02015KT 9999 FEW010 SCT035 12/10 Q1010

2010/08/10 06:50
ENNO 100650Z 00000KT 5000 BR BKN006 15/14 Q1010

2010/08/10 06:50
ENOV 100650Z VRB01KT 9999 FEW008 SCT014 BKN020 15/12 Q1010 

2010/08/10 06:50
ENSN 100650Z 20005KT 6000 FEW001 SCT003 BKN008 14/14 Q1010

2010/08/10 06:50
ENSR 100650Z 35003KT 9999 FEW010 SCT030 12/09 Q1011

2010/08/10 06:50
EDAC 100650Z 18004KT 150V220 CAVOK 19/14 Q1017

2010/08/10 06:50
EDAH 100650Z VRB03KT 9999 SCT012 19/16 Q1016

2010/08/10 06:50
EDFH 100650Z 20004KT 150V260 CAVOK 20/11 Q1017

2010/08/10 06:50
EDHI 100650Z 14004KT 080V170 CAVOK 18/16 Q1015

2010/08/10 06:50
EDHL 100650Z 14005KT 110V170 CAVOK 18/18 Q1016

2010/08/10 06:50
EDLN 100650Z VRB03KT CAVOK 17/16 Q1015

2010/08/10 06:50
EDLP 100650Z 17006KT CAVOK 19/11 Q1015

2010/08/10 06:50
EDLW 100650Z 18008KT CAVOK 18/13 Q1015

2010/08/10 06:50
EDMA 100650Z 23002KT CAVOK 17/15 Q1018

2010/08/10 06:50
EDMO 100650Z 22005KT CAVOK 17/14 Q1018

2010/08/10 06:50
EDNY 100650Z VRB02KT 9999 SCT055 17/14 Q1018

2010/08/10 06:50
EDOP 100650Z 15004KT CAVOK 18/16 Q1016

2010/08/10 06:50
EDQM 100650Z VRB01KT CAVOK 18/13 Q1018

2010/08/10 06:50
EDSB 100650Z 21004KT 180V240 CAVOK 17/14 Q1017

2010/08/10 06:50
EDTL 100650Z 22005KT CAVOK 18/13 Q1017

2010/08/10 06:50
EDVE 100650Z 16005KT 110V210 CAVOK 19/15 Q1016

2010/08/10 06:50
EDVK 100650Z 11003KT CAVOK 17/13 Q1017

2010/08/10 06:50
EDXW 100650Z 16011KT 8000 NSC 18/16 Q1013

2010/08/10 06:50
EGGP 100650Z 22007KT 9999 SCT032 15/12 Q1008

2010/08/10 06:50
EGHD 100650Z 00000KT 3000 -RA BR FEW000 BKN003 13/12 Q1012

2010/08/10 06:50
EGHI 100650Z VRB01KT 9999 -RA FEW010 SCT023 BKN039 13/12 Q1011

2010/08/10 06:50
EGJA 100650Z 28006KT 2000 -RADZ BR FEW000 BKN001 15/15 Q1013

2010/08/10 06:50
EGNT 100650Z 00000KT 9999 FEW030 14/10 Q1006

2010/08/10 06:50
EGNV 100650Z 18006KT 9999 FEW045 BKN049 13/12 Q1007

2010/08/10 06:50
EGPB 100650Z 13008KT 9999 FEW010 FEW015CB SCT022 15/14 Q1004

2010/08/10 06:50
EGTG 100650Z 21009KT 9999 SCT024 13/12 Q1011

2010/08/10 06:55
EHEH 100655Z AUTO 21006KT 9999NDV FEW057 17/13 Q1014 BLU BLU NOSIG

2010/08/10 06:50
EKVJ 100650Z 16008KT CAVOK 16/15 Q1014

2010/08/10 06:50
LXGB 100650Z 30004KT CAVOK 23/15 Q1016 NOSIG

2010/08/10 06:55
KBAD 100655Z AUTO 15005KT 10SM CLR 26/23 A2992 RMK AO2 SLP131 T02640233

2010/08/10 06:55
KBLV 100655Z AUTO 14003KT 10SM CLR 26/26 A2994 RMK AO2 SLP135 T02650258

2010/08/10 06:55
KCBM 100655Z AUTO 00000KT 10SM CLR 25/25 A2995 RMK AO2 SLP141 T02510249 $

2010/08/10 06:55
KCEF 100655Z AUTO 00000KT 7SM -RA BKN065 OVC080 22/21 A2992 RMK AO2 DZB0559E0608 CIG 019 RWY05 SLP131 P0007 T02180214 $

2010/08/10 06:55
KDAA 100655Z AUTO 13003KT 10SM CLR 23/21 A2994 RMK AO2 SLP141 T02340210

2010/08/10 06:55
KEDW 100655Z AUTO 23010KT 10SM CLR 23/04 A2988 RMK AO2 SLP070 T02280041

2010/08/10 06:50
KEFD 100650Z 23003KT 10SM FEW250 28/25 A2993

2010/08/10 06:55
KGRF 100655Z AUTO 19007KT 160V230 10SM OVC011 14/11 A2998 RMK AO2 SLP152 T01390113

2010/08/10 06:55
KGUS 100655Z AUTO 04003KT 9SM R23/5500VP6000FT CLR 22/22 A2996 RMK AO2 SLP138 T02250225

2010/08/10 06:55
KHMN 100655Z 00000KT 7SM R16/4500VP6000FT CLR 23/11 A3002 RMK AO2A SLP079 T02350113 403380185 $

2010/08/10 06:55
KHST 100655Z AUTO 16004KT 10SM SCT060 26/24 A2988 RMK AO2 CLDS LWR RWY23 SLP120 T02640239

2010/08/10 06:55
KIAB 100655Z AUTO 16010KT 10SM CLR 29/21 A2991 RMK AO2 SLP111 T02890206 $

2010/08/10 06:55
KLRF 100655Z AUTO 00000KT 10SM CLR 28/26 A2992 RMK AO2 SLP130 T02800260

2010/08/10 06:55
KMGE 100655Z AUTO 00000KT 10SM CLR 26/21 A3002 RMK AO2 SLP154 T02600214 $

2010/08/10 06:55
KMMT 100655Z AUTO 00000KT 9SM R32/5500VP6000FT CLR 23/23 A3002 RMK AO2 SLP163 T02310225

2010/08/10 06:50
EBOS 100650Z 19008KT 9999 BKN020 16/12 Q1013 NOSIG

2010/08/10 06:50
EDAC 100650Z 18004KT 150V220 CAVOK 19/14 Q1017

2010/08/10 06:50
EDAH 100650Z VRB03KT 9999 SCT012 19/16 Q1016

2010/08/10 06:50
EDFH 100650Z 20004KT 150V260 CAVOK 20/11 Q1017

2010/08/10 06:50
EDHI 100650Z 14004KT 080V170 CAVOK 18/16 Q1015

2010/08/10 06:50
EDHL 100650Z 14005KT 110V170 CAVOK 18/18 Q1016

2010/08/10 06:50
EDLN 100650Z VRB03KT CAVOK 17/16 Q1015

2010/08/10 06:50
EDLP 100650Z 17006KT CAVOK 19/11 Q1015

2010/08/10 06:50
EDLW 100650Z 18008KT CAVOK 18/13 Q1015

2010/08/10 06:50
EDMA 100650Z 23002KT CAVOK 17/15 Q1018

2010/08/10 06:50
EDMO 100650Z 22005KT CAVOK 17/14 Q1018

2010/08/10 06:50
EDNY 100650Z VRB02KT 9999 SCT055 17/14 Q1018

2010/08/10 06:50
EDOP 100650Z 15004KT CAVOK 18/16 Q1016

2010/08/10 06:50
EDQM 100650Z VRB01KT CAVOK 18/13 Q1018

2010/08/10 06:50
EDSB 100650Z 21004KT 180V240 CAVOK 17/14 Q1017

2010/08/10 06:50
EDTL 100650Z 22005KT CAVOK 18/13 Q1017

2010/08/10 06:50
EDVE 100650Z 16005KT 110V210 CAVOK 19/15 Q1016

2010/08/10 06:50
EDVK 100650Z 11003KT CAVOK 17/13 Q1017

2010/08/10 06:50
EDXW 100650Z 16011KT 8000 NSC 18/16 Q1013

2010/08/10 06:50
EGJJ 100650Z 25011KT 220V300 6000 -RADZ SCT001 BKN002 17/17 Q1013 TEMPO 3000

2010/08/10 06:55
EHEH 100655Z AUTO 21006KT 9999NDV FEW057 17/13 Q1014 BLU BLU NOSIG

2010/08/10 06:50
EKOD 100650Z 18005KT 150V210 CAVOK 17/14 Q1015

2010/08/10 06:50
EKRN 100650Z AUTO 13004KT 9999NDV BKN034/// 17/13 Q1017

2010/08/10 06:50
EKSB 100650Z 15006KT 130V190 9999 SCT040 17/12 Q1014

2010/08/10 06:50
EKSN 100650Z 21011KT 9999 FEW022 SCT045 16/13 Q1013

2010/08/10 06:50
EKVD 100650Z AUTO 16009KT //// ///////// 17/13 Q1014

2010/08/10 06:50
EKVJ 100650Z 16008KT CAVOK 16/15 Q1014

2010/08/10 06:55
KBIX 100655Z AUTO 04005KT 10SM CLR 26/26 A2992 RMK AO2 SLPNO T02610256 $

2010/08/10 06:55
KCBM 100655Z AUTO 00000KT 10SM CLR 25/25 A2995 RMK AO2 SLP141 T02510249 $

2010/08/10 06:55
KDAA 100655Z AUTO 13003KT 10SM CLR 23/21 A2994 RMK AO2 SLP141 T02340210

2010/08/10 06:53
KDTS 100653Z AUTO 35006KT 10SM CLR 28/24 A2990 RMK AO2 SLP125 T02780239

2010/08/10 06:55
KEDW 100655Z AUTO 23010KT 10SM CLR 23/04 A2988 RMK AO2 SLP070 T02280041

2010/08/10 06:55
KMTC 100655Z AUTO 00000KT 2SM R19/2200VP6000FT DZ BR CLR 21/21 A2994 RMK AO2 VIS 1V5 SLP142 P0000 T02070207 $

2010/08/10 06:55
KMUI 100655Z AUTO 00000KT 10SM BKN120 BKN170 23/22 A2994 RMK AO2 SLP134 T02340221 $

2010/08/10 06:55
KRIV 100655Z AUTO 00000KT 10SM CLR 16/11 A2992 RMK AO2 SLP127 T01620113

2010/08/10 06:55
KSLI 100655Z AUTO 00000KT 10SM CLR 15/14 A2991 RMK AO2 SLP131 T01530137

2010/08/10 06:55
KWRI 100655Z AUTO 21004KT 9SM CLR 23/22 A2991 RMK AO2 SLP130 T02320219 $

2010/08/10 06:53
PABI 100653Z AUTO 20014G20KT 10SM FEW100 16/07 A2966 RMK AO2 SLP042 T01610067 TSNO

2010/08/10 06:53
PASC 100653Z 06016KT 1 1/4SM R05/5500VP6000FT BR OVC003 03/03 A2973 RMK AO2 SLP068 T00330028

2010/08/10 06:53
TIST 100653Z AUTO 09005KT 10SM CLR 28/24 A2992 RMK AO2 SLP133 T02830244 TSNO

2010/08/10 06:53
TISX 100653Z AUTO 10004KT 10SM SCT021 SCT038 BKN055 27/24 A2993 RMK AO2 RAB42E52 SLP134 P0000 T02720244 TSNO

2010/08/10 06:55
TXKF 100655Z 17007KT 9999 FEW017 SCT180 BKN300 27/23 Q1020

2010/08/10 07:00
NIUE 100700Z AUTO 14009KT //// ////// 23/22 Q1018

2010/08/10 06:50
HLLT 100650Z VRB03KT CAVOK 25/18 Q1016

2010/08/10 06:50
LOXZ 100650Z VRB02KT 15KM FEW007ST SCT270CI 16/13 Q1020 NOSIG RMK SCT

2010/08/10 06:50
EBAW 100650Z 22007KT CAVOK 17/12 Q1014 NOSIG

2010/08/10 06:50
EBBR 100650Z 21005KT CAVOK 17/12 Q1015 NOSIG

2010/08/10 06:50
EBCI 100650Z 22005KT CAVOK 17/11 Q1015 NOSIG

2010/08/10 06:50
EBLG 100650Z 16004KT CAVOK 17/12 Q1015 NOSIG

2010/08/10 06:50
EBOS 100650Z 19008KT 9999 BKN020 16/12 Q1013 NOSIG

2010/08/10 06:50
ELLX 100650Z 17005KT 140V210 CAVOK 18/12 Q1016 NOSIG

2010/08/10 06:50
HLLT 100650Z VRB03KT CAVOK 25/18 Q1016

2010/08/10 06:50
EGLF 100650Z 31007KT 8000 -RA FEW004 SCT006 BKN014 14/14 Q1011

2010/08/10 06:50
LIEA 100650Z VRB01KT CAVOK 22/13 Q1016

2010/08/10 06:45
LIEE 100645Z 30002KT CAVOK 23/09 Q1015 NOSIG

2010/08/10 06:50
LIEO 100650Z 05006KT 360V070 CAVOK 26/13 Q1016

2010/08/10 06:50
LIMC 100650Z VRB02KT 9999 SCT060 22/18 Q1016 NOSIG

2010/08/10 06:50
LIME 100650Z 01005KT 9999 SCT070 21/17 Q1017

2010/08/10 06:50
LIMF 100650Z VRB02KT 9999 SCT080 21/17 1016

2010/08/10 06:50
LIMJ 100650Z 06005KT 9999 SCT020 24/20 Q1016

2010/08/10 06:50
LIML 100650Z VRB02KT CAVOK 23/18 Q1016 NOSIG

2010/08/10 06:45
LIRA 100645Z 01004KT CAVOK 23/17 Q1015

2010/08/10 06:50
LIRF 100650Z 06006KT CAVOK 25/16 Q1015 NOSIG

2010/08/10 06:50
LIRN 100650Z VRB03KT 9999 BKN070 23/18 Q1015

2010/08/10 06:45
LIRP 100645Z 14002KT 3000 BR NSC 20/20 Q1016 BECMG 5000 BR

2010/08/10 06:50
LIRQ 100650Z VRB03KT 8000 FEW030 23/19 Q1016

2010/08/10 06:50
EGWU 100650Z 29007KT 9000 RA FEW007 BKN022 OVC045 15/14 Q1010

2010/08/10 06:50
EGBJ 100650Z 21005KT 9999 FEW012 14/12 Q1010

2010/08/10 06:50
EGCN 100650Z 23005KT 9999 FEW015 15/12 Q1008

2010/08/10 06:50
EGSC 100650Z 24008KT 210V270 8000 RA FEW007 SCT037 15/12 Q1010

2010/08/10 06:50
EGSH 100650Z 25009KT 8000 -RA SCT024 17/16 Q1009

2010/08/10 06:50
LOWW 100650Z 35003KT 280V060 9999 FEW070 19/15 Q1018 NOSIG

2010/08/10 06:50
LOWL 100650Z 12003KT 060V170 CAVOK 17/14 Q1019 NOSIG

2010/08/10 06:50
LOWS 100650Z 14008KT 110V170 9999 FEW060 18/12 Q1018 NOSIG

2010/08/10 06:50
LOWI 100650Z 28003KT 240V330 9999 FEW050 16/13 Q1019 NOSIG

2010/08/10 06:50
LOWG 100650Z VRB02KT 9999 FEW030 19/16 Q1019 NOSIG

2010/08/10 06:50
LOWK 100650Z VRB02KT 9999 FEW003 BKN037 17/16 Q1020 NOSIG

2010/08/10 06:50
LIBD 100650Z 33004KT CAVOK 26/13 Q1014

2010/08/10 06:45
LIBR 100645Z 33022G34KT CAVOK 25/21 Q1013 NOSIG

2010/08/10 06:50
LICC 100650Z 23004KT CAVOK 25/17 Q1014

2010/08/10 06:50
LICJ 100650Z 30003KT CAVOK 25/19 Q1015

2010/08/10 06:50
LIPB 100650Z 14002KT 9999 FEW040 SCT060TCU 22/16 Q1018

2010/08/10 06:50
LIPE 100650Z 26005KT 230V300 CAVOK 23/19 Q1015

2010/08/10 06:45
LIPH 100645Z 05004KT CAVOK 25/20 Q1016

2010/08/10 06:50
LIPK 100650Z 00000KT CAVOK 23/18 Q1015

2010/08/10 06:50
LIPQ 100650Z VRB01KT CAVOK 23/19 Q1016

2010/08/10 06:45
LIPR 100645Z 25001KT CAVOK 23/22 Q1015

2010/08/10 06:45
LIPX 100645Z 07003KT 9999 FEW040 24/22 Q1015

2010/08/10 06:50
LIPZ 100650Z 01005KT CAVOK 23/19 Q1016

2010/08/10 06:50
EGDL 100650Z 20006KT 9999 RA SCT023 OVC050 11/10 Q1011 NOSIG

2010/08/10 06:50
EFJO 100650Z 18007KT 140V220 9999 FEW022 SCT031 BKN065 21/15 Q1011

2010/08/10 06:50
EFLP 100650Z 22006KT 9999 RA FEW025 BKN031CB 18/17 Q1012

2010/08/10 06:50
EFMI 100650Z AUTO 21006KT 140V280 9999 FEW017 SCT020 BKN050 21/16 Q1011

2010/08/10 06:50
EFSA 100650Z AUTO 18008KT 130V220 9999NDV SCT020 BKN055 21/16 Q1011

2010/08/10 06:54
EFUT 100654Z 24009KT 200V270 6000 -SHRA BKN015 BKN045 18/17 Q1012

2010/08/10 06:50
EFVR 100650Z AUTO 21006KT 170V250 7000 RA FEW021 SCT030 BKN035 OVC055 19/17 Q1010

2010/08/10 06:54
CYHZ 100654Z 20006KT 3/4SM R14/P6000FT/N R23/P6000FT/D BR VV001 17/ RMK FG8

2010/08/10 07:00
TFFR 100700Z 04002KT 9999 SCT021 SCT048 25/24 Q1013 TEMPO 4000 SHRA

2010/08/10 06:54
CYHE 100654Z AUTO 09003KT 040V110 5SM -RA OVC009 OVC021 OVC051 15/15 A2994

2010/08/10 06:54
CYRV 100654Z AUTO 00000KT 9SM BKN006 BKN022 OVC030 OVC076 16/16 A2986

2010/08/10 06:55
CYOY 100655Z AUTO 00000KT 1 3/8SM OVC001 OVC071 OVC092 12/11 A2985 RMK VSBY VRBL 0.4V9.+

2010/08/10 06:50
EBAW 100650Z 22007KT CAVOK 17/12 Q1014 NOSIG

2010/08/10 06:50
EBBR 100650Z 21005KT CAVOK 17/12 Q1015 NOSIG

2010/08/10 06:50
EBCI 100650Z 22005KT CAVOK 17/11 Q1015 NOSIG

2010/08/10 06:50
EBLG 100650Z 16004KT CAVOK 17/12 Q1015 NOSIG

2010/08/10 06:50
EBOS 100650Z 19008KT 9999 BKN020 16/12 Q1013 NOSIG

2010/08/10 06:50
EGBJ 100650Z 21005KT 9999 FEW012 14/12 Q1010

2010/08/10 06:50
EGSC 100650Z 24008KT 210V270 8000 RA FEW007 SCT037 15/12 Q1010

2010/08/10 06:50
EGSH 100650Z 25009KT 8000 -RA SCT024 17/16 Q1009

2010/08/10 06:55
EGUL 100655Z AUTO 25010KT 9999 -RA FEW011 SCT046 SCT085 15/14 A2981 RMK AO2 RAE0620B0635DZB0620E0635 SLP095 P0001 T01540136

2010/08/10 06:50
ELLX 100650Z 17005KT 140V210 CAVOK 18/12 Q1016 NOSIG

2010/08/10 06:50
ENAT 100650Z 14008KT 9999 FEW025 BKN050 15/09 Q1011

2010/08/10 06:50
ENBL 100650Z VRB01KT 9999 FEW010 SCT025 BKN031 12/11 Q1009

2010/08/10 06:50
ENEV 100650Z 34005KT 300V030 9999 SCT006 BKN025 12/10 Q1010

2010/08/10 06:50
ENFL 100650Z VRB01KT 9999 FEW010 BKN040 15/13 Q1009

2010/08/10 06:50
ENKB 100650Z 24003KT 9999 -RA SCT015 BKN093 14/12 Q1010

2010/08/10 06:50
ENKR 100650Z 02006KT 9999 BKN005 09/08 Q1013

2010/08/10 06:50
ENML 100650Z 08004KT 9999 FEW010 BKN035 16/13 Q1010

2010/08/10 06:50
ENNA 100650Z 08004KT 9999 FEW015 BKN050 14/09 Q1012

2010/08/10 06:45
LIBR 100645Z 33022G34KT CAVOK 25/21 Q1013 NOSIG

2010/08/10 06:50
LIPB 100650Z 14002KT 9999 FEW040 SCT060TCU 22/16 Q1018

2010/08/10 06:50
LIPK 100650Z 00000KT CAVOK 23/18 Q1015

2010/08/10 06:50
LIPQ 100650Z VRB01KT CAVOK 23/19 Q1016

2010/08/10 06:50
LOWG 100650Z VRB02KT 9999 FEW030 19/16 Q1019 NOSIG

2010/08/10 06:50
LOWI 100650Z 28003KT 240V330 9999 FEW050 16/13 Q1019 NOSIG

2010/08/10 06:50
LOWK 100650Z VRB02KT 9999 FEW003 BKN037 17/16 Q1020 NOSIG

2010/08/10 06:50
LOWL 100650Z 12003KT 060V170 CAVOK 17/14 Q1019 NOSIG

2010/08/10 06:50
LOWS 100650Z 14008KT 110V170 9999 FEW060 18/12 Q1018 NOSIG

2010/08/10 06:50
LOWW 100650Z 35003KT 280V060 9999 FEW070 19/15 Q1018 NOSIG

2010/08/10 06:55
KAFF 100655Z AUTO 36006KT 10SM BKN110 15/12 A3019 RMK AO2 SLP127 T01460117 402340138

2010/08/10 06:55
KDYS 100655Z AUTO 00000KT 10SM FEW220 27/19 A2996 RMK AO2 SLP118 T02670192 $

2010/08/10 06:55
KEND 100655Z AUTO 22008KT 10SM CLR 27/20 A2992 RMK AO2 SLP112 T02750202 $

2010/08/10 06:55
KFAF 100655Z AUTO 19003KT 10SM CLR 26/26 A2997 RMK AO2 SLP151 T02570257 $

2010/08/10 06:55
KFBG 100655Z VRB04KT 10SM CLR 25/24 A3001 RMK AO2A SLP160 T02550241 $

2010/08/10 06:55
KFSI 100655Z AUTO 19008KT 10SM CLR 29/20 A2991 RMK AO2 SLP099 T02910202

2010/08/10 06:55
KLHW 100655Z AUTO 00000KT 10SM CLR 25/24 A2997 RMK AO2 SLP150 T02460241

2010/08/10 06:55
KLSF 100655Z AUTO 00000KT 8SM R33/5500FT CLR 23/22 A2996 RMK AO2 SLP144 T02270217 PNO $

2010/08/10 06:55
KOZR 100655Z AUTO 05007KT 10SM CLR 24/24 A2994 RMK AO2 SLP135 T02430241 $

2010/08/10 06:55
KRND 100655Z AUTO 18004KT 10SM CLR 25/23 A2996 RMK AO2 SLP133 T02450230

2010/08/10 06:55
KVOK 100655Z 00000KT 1/4SM R27/0800V1000FT FG CLR 19/19 A2996 RMK AO2A SLP139 T01880188

2010/08/10 06:55
KWRB 100655Z AUTO 00000KT 10SM CLR 24/23 A2999 RMK AO2 SLP153 T02360231

2010/08/10 06:55
PGUA 100655Z AUTO 07008KT 10SM FEW019 27/24 A2990 RMK AO2 SLP106 T02700242 $

2010/08/10 06:55
RODN 100655Z 18014KT 9999 BKN020 OVC200 30/26 A2980 RMK AO2A SLP092 T02950261

2010/08/10 07:00
TFFR 100700Z 04002KT 9999 SCT021 SCT048 25/24 Q1013 TEMPO 4000 SHRA

2010/08/10 06:53
KRNM 100653Z AUTO 27003KT 10SM CLR 12/09 A2992 RMK AO2 SLP121 T01220094 TSNO 

2010/08/10 06:55
KQAJ 100655Z 34008KT 9999 CLR 39/05 A2969 RMK SLP037 WND DATA ESTMD ALSTG/SLP ESTMD

2010/08/10 06:55
KQAQ 100655Z 03005KT 8000 HZ FEW060 42/09 A2962 RMK SLP026 PA +401 DA +3557

2010/08/10 06:55
KQAR 100655Z AUTO 34005KT 10SM CLR 39/01 A2966 RMK AO2 SLP980 T03850006 $

2010/08/10 06:55
KQLD 100655Z AUTO 20004KT 9999 BKN095 BKN110 20/10 A3025 RMK AO2 SLP150 T01950098

2010/08/10 06:55
KQMG 100655Z AUTO 15011KT 10SM CLR 25/11 A3005 RMK AO2 SLP095 T02530112

2010/08/10 06:55
KQSL 100655Z 33004KT 9999 FEW170 42/04 A2966 RMK SLP031 Q1004MB

2010/08/10 06:55
KQTI 100655Z AUTO 12002KT 9999 FEW230 41/07 A2970 RMK AO2 SLP031 T04070066

2010/08/10 07:00
HAAB 100700Z 17004KT 6000 SCT002 BKN018 OVC070 15/13 Q1027 R/M MIST

2010/08/10 07:00
HAAB 100700Z 17004KT 6000 SCT002 BKN018 OVC070 15/13 Q1027 R/M MIST

2010/08/10 06:54
KWAL 100654Z AUTO 24006KT 10SM CLR 24/22 A2997 RMK AO2 SLP146 T02390217 TSNO 

2010/08/10 06:50
EGLF 100650Z 31007KT 8000 -RA FEW004 SCT006 BKN014 14/14 Q1011

2010/08/10 06:50
ENBR 100650Z 00000KT 9999 FEW040 SCT050 15/11 Q1009 NOSIG

2010/08/10 06:50
ENEK 100650Z 20008KT 9999 -RA SCT007 BKN060 16/15 Q1007 W16/S3

2010/08/10 06:50
ENHE 100650Z 04011KT 9999 OVC015 10/08 Q1012

2010/08/10 06:50
ENOL 100650Z VRB02KT 9999 SCT003 BKN005 13/12 Q1011 TEMPO 3000 BR

2010/08/10 06:55
ETEB 100655Z AUTO 00000KT 9999 CLR 18/14 A3006 RMK AO2 SLP167 T01770142

2010/08/10 06:50
LIBD 100650Z 33004KT CAVOK 26/13 Q1014

2010/08/10 06:50
LICC 100650Z 23004KT CAVOK 25/17 Q1014

2010/08/10 06:50
LICJ 100650Z 30003KT CAVOK 25/19 Q1015

2010/08/10 06:50
LIEA 100650Z VRB01KT CAVOK 22/13 Q1016

2010/08/10 06:45
LIEE 100645Z 30002KT CAVOK 23/09 Q1015 NOSIG

2010/08/10 06:50
LIEO 100650Z 05006KT 360V070 CAVOK 26/13 Q1016

2010/08/10 06:50
LIMC 100650Z VRB02KT 9999 SCT060 22/18 Q1016 NOSIG

2010/08/10 06:50
LIME 100650Z 01005KT 9999 SCT070 21/17 Q1017

2010/08/10 06:50
LIMF 100650Z VRB02KT 9999 SCT080 21/17 1016

2010/08/10 06:50
LIMJ 100650Z 06005KT 9999 SCT020 24/20 Q1016

2010/08/10 06:50
LIML 100650Z VRB02KT CAVOK 23/18 Q1016 NOSIG

2010/08/10 06:50
LIPE 100650Z 26005KT 230V300 CAVOK 23/19 Q1015

2010/08/10 06:45
LIPH 100645Z 05004KT CAVOK 25/20 Q1016

2010/08/10 06:45
LIPR 100645Z 25001KT CAVOK 23/22 Q1015

2010/08/10 06:45
LIPX 100645Z 07003KT 9999 FEW040 24/22 Q1015

2010/08/10 06:50
LIPZ 100650Z 01005KT CAVOK 23/19 Q1016

2010/08/10 06:45
LIRA 100645Z 01004KT CAVOK 23/17 Q1015

2010/08/10 06:50
LIRF 100650Z 06006KT CAVOK 25/16 Q1015 NOSIG

2010/08/10 06:50
LIRN 100650Z VRB03KT 9999 BKN070 23/18 Q1015

2010/08/10 06:45
LIRP 100645Z 14002KT 3000 BR NSC 20/20 Q1016 BECMG 5000 BR

2010/08/10 06:50
LIRQ 100650Z VRB03KT 8000 FEW030 23/19 Q1016

2010/08/10 06:55
KBAD 100655Z AUTO 15005KT 10SM CLR 26/23 A2992 RMK AO2 SLP131 T02640233

2010/08/10 06:55
KBIX 100655Z AUTO 04005KT 10SM CLR 26/26 A2992 RMK AO2 SLPNO T02610256 $

2010/08/10 06:54
KBOS 100654Z 19004KT 4SM -TSRA BKN048 OVC110 19/19 A2991 RMK AO2 TSB54 SLP127 TS N MOV E P0004 T01940189

2010/08/10 06:53
KBRO 100653Z 17005KT 10SM CLR 28/26 A2991 RMK AO2 SLP128 T02830261

2010/08/10 06:53
KFLL 100653Z 15011KT 10SM SCT017 SCT044 26/23 A2988 RMK AO2 RAE05 SLP116 P0000 T02610233

2010/08/10 06:55
KHST 100655Z AUTO 16004KT 10SM SCT060 26/24 A2988 RMK AO2 CLDS LWR RWY23 SLP120 T02640239

2010/08/10 06:51
KJFK 100651Z 22005KT 9SM SCT140 BKN250 24/19 A2993 RMK AO2 SLP133 T02390194

2010/08/10 06:53
KMCO 100653Z 09005KT 10SM FEW250 25/23 A2992 RMK AO2 SLP131 T02500228

2010/08/10 06:52
KNRB 100652Z 14010KT 10SM FEW022 28/22 A2995 RMK AO2 SLP142 T02830222

2010/08/10 06:55
KOFF 100655Z AUTO 09004KT 10SM CLR 26/26 A2985 RMK AO2 SLP088 T02600260 $

2010/08/10 06:53
KPBI 100653Z 16010KT 10SM -RA SCT023CB BKN035 BKN060 27/23 A2989 RMK AO2 RAB03E11B49 SLP121 CB OHD-N MOV N P0000 T02670227

2010/08/10 06:55
KWRI 100655Z AUTO 21004KT 9SM CLR 23/22 A2991 RMK AO2 SLP130 T02320219 $

2010/08/10 07:00
SPIM 100700Z 17003KT 6000 FEW005 BKN010 13/12 Q1016 NOSIG RMK PP000

2010/08/10 07:00
TFFR 100700Z 04002KT 9999 SCT021 SCT048 25/24 Q1013 TEMPO 4000 SHRA

2010/08/10 06:53
TIST 100653Z AUTO 09005KT 10SM CLR 28/24 A2992 RMK AO2 SLP133 T02830244 TSNO

2010/08/10 06:53
TISX 100653Z AUTO 10004KT 10SM SCT021 SCT038 BKN055 27/24 A2993 RMK AO2 RAB42E52 SLP134 P0000 T02720244 TSNO

2010/08/10 06:55
TXKF 100655Z 17007KT 9999 FEW017 SCT180 BKN300 27/23 Q1020

2010/08/10 06:50
EGDL 100650Z 20006KT 9999 RA SCT023 OVC050 11/10 Q1011 NOSIG

2010/08/10 06:50
EGWU 100650Z 29007KT 9000 RA FEW007 BKN022 OVC045 15/14 Q1010

2010/08/10 06:50
ENAL 100650Z 05009KT 9999 FEW010 BKN030 14/12 Q1010

2010/08/10 06:50
ENAN 100650Z 02010KT 9999 FEW006 BKN008 11/10 Q1011 NOSIG

2010/08/10 06:50
ENBO 100650Z 22004KT 180V260 9999 FEW002 BKN050 13/12 Q1010 TEMPO 4000 BR SCT003 BKN008

2010/08/10 06:50
ENBS 100650Z 20005KT 9999 BKN035 10/05 Q1013

2010/08/10 06:50
ENCN 100650Z 05002KT 9999 -RA BKN012 14/12 Q1011 REDZ

2010/08/10 06:50
ENDU 100650Z VRB01KT 9999 FEW045 SCT060 11/09 Q1010 NOSIG

2010/08/10 06:50
ENHD 100650Z 12012KT 9999 BKN040 15/12 Q1009

2010/08/10 06:50
ENHK 100650Z 13004KT 9999 FEW025 BKN050 12/09 Q1012

2010/08/10 06:50
ENMS 100650Z 09002KT 9999 1500SE FEW000 BKN004 14/11 Q1010

2010/08/10 06:50
ENNK 100650Z 25003KT 9999 BKN050 13/11 Q1010

2010/08/10 06:50
ENNM 100650Z 23003KT 3500 BKN002 12/11 Q1011

2010/08/10 06:50
ENRM 100650Z VRB02KT 4500 BR BKN002 12/11 Q1011

2010/08/10 06:50
ENRO 100650Z 22002KT 9999 -DZ SCT002 BKN016 13/12 Q1010

2010/08/10 06:50
ENRS 100650Z 01014KT 9999 BKN004 10/10 Q1011

2010/08/10 06:47
ENRY 100647Z 19010KT 160V230 9999 FEW014 17/13 Q1010 NOSIG

2010/08/10 06:50
ENSB 100650Z 27012KT 9999 FEW015 03/00 Q1005 NOSIG

2010/08/10 06:50
ENSK 100650Z 25003KT 9999 SCT008 BKN010 12/10 Q1011

2010/08/10 06:50
ENSO 100650Z 11009KT 080V150 9999 FEW010 16/11 Q1009

2010/08/10 06:50
ENST 100650Z 23005KT 6000 3000NE DZ SCT001 BKN003 12/12 Q1011

2010/08/10 06:50
ENTC 100650Z 03007KT 9999 FEW009 SCT015 BKN030 11/09 Q1011 TEMPO BKN014

2010/08/10 06:50
ENTO 100650Z 21008KT 9999 FEW005 16/12 Q1010

2010/08/10 06:50
ENVA 100650Z 29003KT 9999 FEW003 SCT008 BKN015 14/13 Q1011 TEMPO BKN008

2010/08/10 06:50
ENVD 100650Z 09005KT 9999 FEW005 BKN009 09/07 Q1013

2010/08/10 06:55
ETAD 100655Z AUTO 00000KT 9999 CLR 18/12 A3003 RMK AO2 SLPNO T01800118 VISNO RWY05 CHINO RWY05 $

2010/08/10 06:55
KEGI 100655Z AUTO 00000KT 8SM R18/5500FT CLR 24/23 A2993 RMK AO2 SLP134 T02450235 $

2010/08/10 06:55
KGTB 100655Z AUTO 25004KT 10SM SCT009 BKN025 21/20 A2994 RMK AO2 CIG 009 RWY03 SLP136 T02100200

2010/08/10 06:52
KNRB 100652Z 14010KT 10SM FEW022 28/22 A2995 RMK AO2 SLP142 T02830222

2010/08/10 06:55
KOFF 100655Z AUTO 09004KT 10SM CLR 26/26 A2985 RMK AO2 SLP088 T02600260 $

2010/08/10 06:55
KOZR 100655Z AUTO 05007KT 10SM CLR 24/24 A2994 RMK AO2 SLP135 T02430241 $

2010/08/10 06:55
KRDR 100655Z AUTO 20004KT 10SM CLR 22/20 A2990 RMK AO2 SLP136 T02240203 $

2010/08/10 06:55
KRIV 100655Z AUTO 00000KT 10SM CLR 16/11 A2992 RMK AO2 SLP127 T01620113

2010/08/10 06:55
KRND 100655Z AUTO 18004KT 10SM CLR 25/23 A2996 RMK AO2 SLP133 T02450230

2010/08/10 06:55
KSLI 100655Z AUTO 00000KT 10SM CLR 15/14 A2991 RMK AO2 SLP131 T01530137

2010/08/10 06:55
KSUU 100655Z AUTO 25019G25KT 10SM CLR 13/11 A2983 RMK AO2 PK WND 24027/0602 SLP104 T01340113 RVRNO $

2010/08/10 06:55
KSZL 100655Z AUTO 17005KT 10SM CLR 27/25 A2991 RMK AO2 SLP119 T02710246 PNO $

2010/08/10 06:55
KVOK 100655Z 00000KT 1/4SM R27/0800V1000FT FG CLR 19/19 A2996 RMK AO2A SLP139 T01880188

2010/08/10 06:55
KWRB 100655Z AUTO 00000KT 10SM CLR 24/23 A2999 RMK AO2 SLP153 T02360231

2010/08/10 06:55
KWRI 100655Z AUTO 21004KT 9SM CLR 23/22 A2991 RMK AO2 SLP130 T02320219 $

2010/08/10 07:00
SPIM 100700Z 17003KT 6000 FEW005 BKN010 13/12 Q1016 NOSIG RMK PP000

2010/08/10 06:50
ENZV 100650Z 15008KT 9999 FEW045 BKN062 16/12 Q1009 NOSIG

2010/08/10 06:53
KRTN 100653Z AUTO 06004KT 10SM CLR 16/14 A3021 RMK AO2 SLP131 T01560139 403170156 TSNO 

2010/08/10 06:55
KDRA 100655Z AUTO 04003KT 10SM CLR 23/M09 A2993 RMK AO2 SLP085 T02331089 TSNO 

2010/08/10 06:54
KRFD 100654Z 00000KT 8SM FEW026 24/22 A2996 RMK AO2 SLP138 T02400220 PNO $ 

2010/08/10 06:55
KANJ 100655Z AUTO 31003KT 5SM BR FEW036 20/19 A2995 RMK AO2 SLP138 T02000189 

2010/08/10 06:55
OAHR 100655Z 02014KT CAVOK 34/M01 Q1011 RMK SKC VIS MIN 9999 BLU

2010/08/10 06:55
KAFF 100655Z AUTO 36006KT 10SM BKN110 15/12 A3019 RMK AO2 SLP127 T01460117 402340138

2010/08/10 06:55
KBAB 100655Z AUTO 13004KT 10SM CLR 20/11 A2981 RMK AO2 SLP096 T02010111 $

2010/08/10 06:55
KBIX 100655Z AUTO 04005KT 10SM CLR 26/26 A2992 RMK AO2 SLPNO T02610256 $

2010/08/10 06:55
KDOV 100655Z AUTO 19010KT 10SM CLR 24/24 A2993 RMK AO2 SLP137 T02440236

2010/08/10 06:55
KDYS 100655Z AUTO 00000KT 10SM FEW220 27/19 A2996 RMK AO2 SLP118 T02670192 $

2010/08/10 06:55
KEND 100655Z AUTO 22008KT 10SM CLR 27/20 A2992 RMK AO2 SLP112 T02750202 $

2010/08/10 06:55
KFAF 100655Z AUTO 19003KT 10SM CLR 26/26 A2997 RMK AO2 SLP151 T02570257 $

2010/08/10 06:55
KFBG 100655Z VRB04KT 10SM CLR 25/24 A3001 RMK AO2A SLP160 T02550241 $

2010/08/10 06:55
KFSI 100655Z AUTO 19008KT 10SM CLR 29/20 A2991 RMK AO2 SLP099 T02910202

2010/08/10 06:55
KHFF 100655Z AUTO 00000KT 10SM CLR 24/23 A3004 RMK AO2 SLP168 T02410231 $

2010/08/10 06:55
KLHW 100655Z AUTO 00000KT 10SM CLR 25/24 A2997 RMK AO2 SLP150 T02460241

2010/08/10 06:55
KLSF 100655Z AUTO 00000KT 8SM R33/5500FT CLR 23/22 A2996 RMK AO2 SLP144 T02270217 PNO $

2010/08/10 06:55
KMTC 100655Z AUTO 00000KT 2SM R19/2200VP6000FT DZ BR CLR 21/21 A2994 RMK AO2 VIS 1V5 SLP142 P0000 T02070207 $

2010/08/10 06:55
KMUI 100655Z AUTO 00000KT 10SM BKN120 BKN170 23/22 A2994 RMK AO2 SLP134 T02340221 $

2010/08/10 06:55
KMXF 100655Z AUTO 00000KT 10SM CLR 27/25 A2994 RMK AO2 SLP138 T02700251

2010/08/10 06:55
KAST 100655Z AUTO 22004KT 10SM OVC022 13/12 A3001 RMK AO2 SLP163 T01330117 

2010/08/10 06:55
KMBG 100655Z AUTO 14008KT 10SM CLR 24/21 A2983 RMK AO2 SLP086 T02390211 TSNO 

2010/08/10 06:53
KRQE 100653Z AUTO 00000KT 10SM CLR 13/10 A3026 RMK AO2 SLP137 T01280100 402610106 TSNO 

2010/08/10 06:55
KNBG 100655Z AUTO 00000KT 3SM BR CLR A2992 RMK AO2 SLP132 PWINO FZRANO $ 

2010/08/10 06:55
KINL 100655Z AUTO 00000KT 10SM FEW090 18/18 A2994 RMK AO2 VIS 1 RWY 31 SLP135 T01780178 $ 

2010/08/10 06:55
KPOE 100655Z AUTO 00000KT 10SM CLR 26/23 A2993 RMK AO2 SLP133 T02610233 

2010/08/10 07:00
FAVV 100700Z AUTO 13005KT //// // ////// 04/M09 Q1031

2010/08/10 07:00
FAJB 100700Z AUTO 12004KT //// // ////// 07/M04 Q1032

2010/08/10 07:00
FASI 100700Z AUTO 10007KT //// // ////// 06/M02 Q1032

2010/08/10 07:00
FAGC 100700Z AUTO 12016KT //// // ////// 06/M03 Q1031

2010/08/10 06:55
KHEF 100655Z AUTO 18005KT 8SM 23/21 A2995 RMK AO1

2010/08/10 06:55
KHEZ 100655Z AUTO 00000KT 8SM CLR 24/22 A2996 RMK AO1

2010/08/10 06:55
KHNB 100655Z AUTO 00000KT 6SM CLR 24/23 A2995 RMK AO1

2010/08/10 06:54
KHWD 100654Z AUTO 35004KT 10SM OVC007 14/11 A2992 RMK AO2 SLP140 T01390106

2010/08/10 06:55
KHYI 100655Z AUTO 23004KT 10SM CLR A2995 RMK AO1

2010/08/10 06:55
KHYS 100655Z AUTO 20005KT 10SM FEW110 27/17 A2990 RMK AO1

2010/08/10 06:55
KHYW 100655Z AUTO 00000KT 7SM CLR 24/24 A3002 RMK AO2

2010/08/10 06:55
KILE 100655Z AUTO 19006KT 10SM CLR 26/21 A2993 RMK AO1

2010/08/10 06:54
KILN 100654Z AUTO 00000KT 7SM CLR 23/21 A2998 RMK AO2 SLP137 T02330211

2010/08/10 06:54
KIMT 100654Z AUTO 00000KT 7SM CLR 19/19 A2999 RMK AO2 SLP148 T01940189

2010/08/10 06:54
KIND 100654Z 24003KT 9SM OVC110 26/23 A2994 RMK AO2 SLP128 T02610228

2010/08/10 06:54
KINT 100654Z AUTO 22004KT 10SM CLR 26/21 A3005 RMK AO2 SLP161 T02610206

2010/08/10 06:54
KIPT 100654Z AUTO 00000KT 10SM CLR 23/18 A2994 RMK AO2 SLP132 T02280178

2010/08/10 06:54
KISW 100654Z AUTO 00000KT 7SM CLR 22/21 A2998 RMK AO2 SLP147 T02170211 TSNO $

2010/08/10 06:55
KIWD 100655Z AUTO 00000KT 6SM CLR 18/17 A2996 RMK AO1

2010/08/10 06:54
KIZG 100654Z AUTO 00000KT 10SM CLR 20/18 A2990 RMK AO2 SLP122 T02000183

2010/08/10 06:55
KJAC 100655Z 23003KT 10SM CLR 09/06 A3016 RMK AO1

2010/08/10 06:55
KJHW 100655Z AUTO 00000KT 5SM SCT065 BKN080 OVC090 21/19 A2999 RMK AO1 57007

2010/08/10 06:54
KJST 100654Z AUTO 27003KT 10SM FEW120 21/16 A3004 RMK AO2 SLP155 T02110161

2010/08/10 06:55
KKLS 100655Z AUTO 30006KT 10SM OVC015 14/11 A3000 RMK AO1

2010/08/10 06:54
KLAF 100654Z AUTO 00000KT 5SM BR SCT100 26/24 A2994 RMK AO2 SLP131 T02560244

2010/08/10 06:55
KLBL 100655Z 19008KT 10SM CLR 25/17 A2998 RMK AO1

2010/08/10 06:54
KLBT 100654Z AUTO 00000KT 10SM SCT009 24/23 A3001 RMK AO2 SLP161 T02440233

2010/08/10 06:55
KLCI 100655Z AUTO 00000KT 8SM BKN120 21/18 A2988 RMK AO1 P0001

2010/08/10 06:55
KLEW 100655Z 00000KT 10SM FEW110 21/18 A2990 RMK AO1

2010/08/10 06:54
KLEX 100654Z 17004KT 10SM CLR 24/21 A2999 RMK AO2 SLP144 T02440206

2010/08/10 06:55
KLGD 100655Z AUTO 30008KT 10SM SCT120 18/03 A2986 RMK AO1

2010/08/10 06:54
KLNK 100654Z 18003KT 10SM CLR 27/26 A2985 RMK AO2 SLP094 T02670256

2010/08/10 06:55
KLPC 100655Z AUTO 33004KT 10SM OVC007 13/11 A2993 RMK AO1 PNO

2010/08/10 06:54
KLWM 100654Z AUTO 22003KT 3SM -RA BR SCT003 BKN035 22/21 A2992 RMK AO2 SLP130 P0000 T02220211 $

2010/08/10 06:54
KLWT 100654Z AUTO 21008KT 10SM CLR 14/10 A2991 RMK AO2 SLP091 T01440100 402890100

2010/08/10 06:54
KLYH 100654Z AUTO 00000KT 6SM BR CLR 22/21 A3002 RMK AO2 SLP153 T02220211

2010/08/10 06:55
KPWG 100655Z AUTO 19009KT 10SM CLR 28/21 A2993 RMK AO1

2010/08/10 06:55
KPWT 100655Z AUTO 20005KT 10SM OVC007 13/10 A3000 RMK AO1

2010/08/10 06:54
KRBL 100654Z AUTO 00000KT 10SM CLR 24/16 A2983 RMK AO2 SLP096 T02390156

2010/08/10 06:54
KRDG 100654Z AUTO 00000KT CLR 26/19 A2992 RMK AO2 SLP134 T02610189 $

2010/08/10 06:55
KRKD 100655Z AUTO 00000KT 10SM BKN065 BKN080 20/18 A2986 RMK AO1

2010/08/10 06:52
KRKR 100652Z AUTO 00000KT 10SM CLR 28/24 A2993 RMK AO2

2010/08/10 06:54
KRKS 100654Z AUTO 25008KT 10SM CLR 14/00 A3019 RMK AO2 SLP136 T01390000 402720100

2010/08/10 06:54
KROC 100654Z 22003KT 2 1/2SM BR BKN060 OVC085 21/20 A2994 RMK AO2 SLP136 T02060200

2010/08/10 06:54
KRST 100654Z AUTO 13005KT 7SM CLR 23/22 A2997 RMK AO2 SLP139 T02280217

2010/08/10 06:55
KRUT 100655Z 17003KT 7SM BKN017 OVC022 21/19 A2993 RMK AO1

2010/08/10 06:54
KSBY 100654Z AUTO 20003KT 6SM BR CLR 23/23 A2996 RMK AO2 SLP148 T02330228 $

2010/08/10 06:55
KSDY 100655Z AUTO 06006KT 10SM SCT110 21/17 A2979 RMK AO1 LTG DSNT NW TSE26 P0003

2010/08/10 06:54
KSET 100654Z AUTO 00000KT 5SM BR CLR 27/26 A2992 RMK AO2 SLP125 T02720261

2010/08/10 06:55
KSFM 100655Z 23008KT 8SM FEW070 BKN100 OVC120 21/19 A2988 RMK AO1 P0001

2010/08/10 06:55
KSFZ 100655Z 00000KT 4SM FEW050 FEW065 SCT120 21/20 A2991 RMK AO1

2010/08/10 06:55
KSGT 100655Z 22003KT CLR 28/25 A2993 RMK AO1

2010/08/10 06:55
KSGU 100655Z AUTO 01003KT 10SM CLR 25/03 A2996 RMK AO1

2010/08/10 06:54
KSJN 100654Z AUTO 16008KT 10SM CLR 18/12 A3018 RMK AO2 SLP124 T01830117 402780128 $

2010/08/10 06:55
KMBL 100655Z AUTO 00000KT M1/4SM OVC001 20/19 A2997 RMK AO1

2010/08/10 06:54
KMFI 100654Z AUTO 05003KT 10SM CLR 22/19 A2998 RMK AO2 SLP145 T02170194

2010/08/10 06:54
KMGJ 100654Z AUTO 00000KT 10SM BKN080 BKN100 23/19 A2995 RMK AO2 SLP137 T02330189

2010/08/10 06:54
KMIV 100654Z AUTO 00000KT 9SM CLR 24/22 A2993 RMK AO2 SLP133 T02390217

2010/08/10 06:55
KMJX 100655Z AUTO 23007KT 10SM CLR 24/21 A2994 RMK AO1

2010/08/10 06:54
KMKC 100654Z 23003KT 10SM CLR 29/22 A2988 RMK AO2 SLP109 T02940222

2010/08/10 06:55
KMKT 100655Z AUTO 14006KT 10SM CLR 24/22 A2993 RMK AO1

2010/08/10 06:55
KMML 100655Z AUTO 14004KT 10SM BKN037 23/23 A2992 RMK AO1

2010/08/10 06:55
KMNI 100655Z AUTO 00000KT 10SM SCT014 25/25 A3001 RMK AO2

2010/08/10 06:55
KMNM 100655Z AUTO 00000KT 1 3/4SM CLR 22/20 A2996 RMK AO1

2010/08/10 06:54
KMOT 100654Z AUTO 07006KT 10SM OVC055 22/18 A2989 RMK AO2 PK WND 32033/0555 LTG DSNT NE TSE07 SLP112 T02220178

2010/08/10 06:55
KMRF 100655Z AUTO 05004KT 10SM CLR A3015 RMK AO1

2010/08/10 06:54
KMRY 100654Z AUTO 00000KT 10SM OVC005 12/10 A2994 RMK AO2 SLP152 T01170100

2010/08/10 06:55
KMSV 100655Z AUTO 01005KT 10SM FEW075 OVC100 21/18 A3000 RMK AO1

2010/08/10 06:55
KMTW 100655Z 00000KT 5SM CLR 21/21 A2995 RMK AO1

2010/08/10 06:54
KMVL 100654Z AUTO 00000KT 1/4SM FG VV001 17/17 A2995 RMK AO2 SLP138 T01720172

2010/08/10 06:55
KMVN 100655Z AUTO 00000KT 4SM SCT060 24/22 A2996 RMK AO1

2010/08/10 06:55
KOCH 100655Z AUTO 00000KT 10SM CLR 28/23 A2992 RMK AO1

2010/08/10 06:54
KOFP 100654Z AUTO 18004KT 10SM CLR 26/20 A2999 RMK AO2 SLP151 T02560200

2010/08/10 06:55
KOKK 100655Z AUTO 00000KT 4SM CLR 23/18 A2996 RMK AO1 54000

2010/08/10 06:54
KOLM 100654Z AUTO 22006KT 10SM OVC017 13/11 A2998 RMK AO2 SLP153 T01330111

2010/08/10 06:54
KOLS 100654Z AUTO 00000KT 10SM CLR 23/14 A3005 RMK AO2 SLP102 T02280144 403390183

2010/08/10 06:55
KOLU 100655Z AUTO 2SM OVC002 26/24 A2986 RMK AO1

2010/08/10 06:54
KORH 100654Z AUTO 31005KT 8SM SCT075 OVC110 21/20 A2995 RMK AO2 RAE52 SLP133 P0001 T02110200

2010/08/10 06:55
KOTG 100655Z AUTO 14004KT 7SM CLR 23/22 A2993 RMK AO1

2010/08/10 06:55
KOTH 100655Z 35009KT 10SM OVC015 13/11 A3005 RMK AO1

2010/08/10 06:54
KPHF 100654Z 23005KT 10SM CLR 25/24 A2998 RMK AO2 SLP151 T02500239 $

2010/08/10 06:54
KPHL 100654Z 20007KT 10SM CLR 26/21 A2993 RMK AO2 SLP136 T02610211

2010/08/10 06:55
KPIB 100655Z AUTO 00000KT 5SM CLR 24/22 A2996 RMK AO1

2010/08/10 06:54
KPLN 100654Z AUTO 00000KT 1/4SM FG OVC004 19/19 A2996 RMK AO2 SLP143 T01890189

2010/08/10 06:54
KPNE 100654Z 22005KT 10SM CLR 27/21 A2994 RMK AO2 SLP137 T02670211

2010/08/10 06:55
KPRX 100655Z 20004KT 10SM CLR 27/22 A2991 RMK AO1

2010/08/10 06:54
KPSF 100654Z AUTO 00000KT 6SM BR BKN055 OVC080 21/19 A2996 RMK AO2 SLP113 T02060189

2010/08/10 06:55
KPTN 100655Z AUTO 06005KT 10SM CLR 24/14 A2995 RMK AO1

2010/08/10 06:55
KPTV 100655Z AUTO 17004KT 10SM CLR 21/13 A2984 RMK AO1

2010/08/10 06:54
KPTW 100654Z AUTO 00000KT 8SM CLR 26/21 A2994 RMK AO2 SLP134 T02610206

2010/08/10 06:55
KPVC 100655Z 00000KT 3SM FEW047 SCT060 BKN090 20/18 A2991 RMK AO1 LTG DSNT SW P0010

2010/08/10 06:55
KPVU 100655Z 11004KT 10SM CLR 16/05 A3005 RMK AO1

2010/08/10 06:55
KVIS 100655Z AUTO 28004KT 10SM CLR 21/16 A2981 RMK AO1

2010/08/10 06:54
KVSF 100654Z AUTO 00000KT 3SM BR FEW037 OVC060 21/20 A2993 RMK AO2 RAB14E38 SLP131 P0000 T02060200

2010/08/10 06:54
KVTA 100654Z AUTO 00000KT 4SM BR FEW080 21/19 A2997 RMK AO2 SLP140 T02060194

2010/08/10 06:54
KWLD 100654Z AUTO 16007KT 10SM CLR 28/21 A2992 RMK AO2 SLP113 T02780211

2010/08/10 06:55
KWVL 100655Z AUTO 31006KT 10SM BKN085 21/17 A2983 RMK AO1

2010/08/10 06:55
KX40 100655Z AUTO 00000KT 10SM CLR 27/25 A2992 RMK AO2 T02650250

2010/08/10 06:55
KYKN 100655Z AUTO 07006KT 5SM FEW005 OVC011 24/23 A2985 RMK AO1 LTG DSNT SE

2010/08/10 06:55
KGPZ 100655Z AUTO 16003KT 9SM CLR 20/18 A2997 RMK AO1

2010/08/10 06:55
KGTR 100655Z 00000KT 3SM CLR 25/24 A2995 RMK AO1

2010/08/10 06:55
KGTU 100655Z 20010KT 10SM CLR 28/21 A2998 RMK AO1

2010/08/10 06:55
KGUC 100655Z AUTO 35004KT 10SM CLR 11/02 A3034 RMK AO1

2010/08/10 06:55
KGXY 100655Z AUTO 29004KT 10SM CLR 16/14 A3009 RMK AO1

2010/08/10 06:55
KGYH 100655Z AUTO 00000KT 10SM CLR 27/21 A3005 RMK AO2

2010/08/10 06:55
KHDN 100655Z 12010KT 10SM CLR 11/07 A3021 RMK AO1

2010/08/10 06:55
KSKX 100655Z AUTO 03005KT 10SM CLR 14/07 A3027 RMK AO1

2010/08/10 06:55
KSLG 100655Z AUTO 17004KT 10SM CLR 26/21 A2997 RMK AO1

2010/08/10 06:55
KSMN 100655Z AUTO 12006KT 10SM FEW050 SCT070 BKN075 14/11 A3006 RMK AO1 TSB06E21

2010/08/10 06:55
KSPA 100655Z AUTO 00000KT 10SM CLR 23/23 A3003 RMK AO2

2010/08/10 06:55
KSPL 100655Z AUTO 14009KT 29/27 A2990 RMK AO2 PWINO PNO

2010/08/10 06:55
KSQI 100655Z AUTO 10005KT 9SM FEW036 SCT044 24/23 A2995 RMK AO1

2010/08/10 06:55
KSUE 100655Z AUTO 00000KT 4SM CLR 21/21 A2996 RMK AO1

2010/08/10 06:54
KSUS 100654Z AUTO 00000KT 7SM CLR 27/25 A2991 RMK AO2 SLP118 T02670250

2010/08/10 06:54
KSYR 100654Z 14003KT 2SM BR BKN020 OVC055 21/21 A2995 RMK AO2 SLP135 T02060206

2010/08/10 06:54
KTAD 100654Z AUTO 31004KT 10SM CLR 18/12 A3013 RMK AO2 SLP116 T01830122 402720150

2010/08/10 06:55
KTPL 100655Z 17008KT 10SM CLR 26/22 A2994 RMK AO1

2010/08/10 06:54
KTQE 100654Z AUTO 00000KT 4SM BR CLR 25/24 A2984 RMK AO2 SLP090 T02500244

2010/08/10 06:55
KTSP 100655Z AUTO RMK AO2 PWINO PNO FZRANO TSNO

2010/08/10 06:55
KTVF 100655Z AUTO 16005KT 10SM CLR 21/18 A2991 RMK AO1

2010/08/10 06:56
KUCP 100656Z AUTO 00000KT 9SM FEW095 22/20 A2998 RMK AO2 T02160200 SLP155

2010/08/10 06:54
KUIN 100654Z AUTO 16005KT 10SM CLR 28/26 A2991 RMK AO2 SLP118 T02780256

2010/08/10 06:54
KUZA 100654Z AUTO 00000KT 6SM BR CLR 23/21 A3004 RMK AO2 SLP157 T02330211 $

2010/08/10 06:54
KVAY 100654Z AUTO 00000KT 7SM CLR 24/21 A2993 RMK AO2 SLP135 T02390211

2010/08/10 06:55
KVBT 100655Z AUTO 00000KT 10SM CLR 25/21 A2995 RMK AO1

2010/08/10 06:54
PAHN 100654Z AUTO 10011G15KT 10SM OVC015 14/11 A2995 RMK AO2 SLP145 T01440106 TSNO

2010/08/10 06:54
PAKN 100654Z 15011KT 10SM OVC021 11/09 A2961 RMK AO2 RAE20 SLP026 P0000 T01110094

2010/08/10 06:55
PAMK 100655Z AUTO 16009KT 10SM SCT021 BKN026 OVC090 11/08 A2944 RMK TSNO VIA AWOS PHONE

2010/08/10 06:54
PAIK 100654Z AUTO 10007KT 10SM FEW014 BKN060 OVC070 14/13 A2952 RMK AO2

2010/08/10 06:55
KVBG 100655Z AUTO 05004KT 10SM OVC003 13/12 A2993 RMK AO2 SLP128 T01280117 401780122 TSNO CHINO RWY12 VISNO RWY12 $ 

2010/08/10 06:50
EFET 100650Z AUTO 04006KT 5000 DZ FEW005 SCT008 BKN017 BKN034 10/09 Q1012

2010/08/10 06:50
EFIV 100650Z AUTO 02008KT 340V050 9999 OVC010 11/10 Q1012

2010/08/10 06:50
EFKE 100650Z 36012KT 9999 BKN015 14/10 Q1009

2010/08/10 06:50
EFKI 100650Z AUTO 21005KT 150V260 //// SCT013 BKN031 19/17 Q1009

2010/08/10 06:50
EFKS 100650Z AUTO 36003KT 9999 -RA OVC004 14/13 Q1008

2010/08/10 06:50
EFKT 100650Z AUTO 03004KT 340V080 9999 OVC012 12/09 Q1012

2010/08/10 06:50
ENZV 100650Z 15008KT 9999 FEW045 BKN062 16/12 Q1009 NOSIG

2010/08/10 06:50
LGAL 100650Z VRB03KT CAVOK 29/21 Q1011

2010/08/10 06:50
LGEL 100650Z 34009KT 9999 FEW030 31/18 Q1009

2010/08/10 06:50
LGKV 100650Z 00000KT CAVOK 29/21 Q1010

2010/08/10 06:50
LGMT 100650Z /////KT CAVOK 29/24 Q1008

2010/08/10 06:50
LGPZ 100650Z 00000KT 9999 FEW015 28/22 Q1011 NOSIG

2010/08/10 06:50
LGRX 100650Z 00000KT 9999 FEW025 29/20 Q1010 NOSIG

2010/08/10 06:50
LGSR 100650Z 35014KT CAVOK 30/21 Q1007 NOSIG

2010/08/10 06:50
LGZA 100650Z VRB03KT CAVOK 29/21 Q1010

2010/08/10 07:00
HAAB 100700Z 17004KT 6000 SCT002 BKN018 OVC070 15/13 Q1027 R/M MIST

2010/08/10 06:50
LGIR 100650Z 30013KT 9999 FEW020 BKN080 29/22 Q1008 NOSIG

2010/08/10 06:50
LGKL 100650Z 00000KT CAVOK 30/18 Q1009

2010/08/10 06:50
LGKO 100650Z 34009KT CAVOK 30/22 Q1006

2010/08/10 06:50
LGKR 100650Z 00000KT CAVOK 29/20 Q1009 NOSIG

2010/08/10 06:50
LGRP 100650Z 25008KT CAVOK 30/25 Q1005 NOSIG

2010/08/10 06:50
LGSA 100650Z 00000KT 9999 FEW030 SCT080 29/20 Q1010

2010/08/10 06:50
LGSM 100650Z 01010KT 320V040 CAVOK 30/21 Q1006

2010/08/10 06:50
LGTS 100650Z 31010KT CAVOK 28/17 Q1012 NOSIG

2010/08/10 06:47
MMML 100647Z 00000KT 10SM SKC 28/18 A2972

2010/08/10 07:00
RPLC 100700Z VRB10G30KT 9999 FEW025 OVC270 31/23 Q1008 A2979 RMK NOSIG 

2010/08/10 06:50
LGKC 100650Z 36007KT 320V060 CAVOK 29/22 Q1012

2010/08/10 06:50
LGKF 100650Z 00000KT 9999 FEW025 27/20 Q1010

2010/08/10 06:50
LGKP 100650Z 33027KT 9999 FEW010 29/21 Q1005

2010/08/10 06:50
LGKZ 100650Z 33014KT CAVOK 23/13 Q1016

2010/08/10 06:50
LGMK 100650Z 01019KT 9999 FEW018 28/23 Q1007

2010/08/10 06:50
LGNX 100650Z 36012KT 9999 FEW018 29/23 Q1008

2010/08/10 06:50
LGPA 100650Z 35015KT CAVOK 30/23 Q1007

2010/08/10 06:50
LGSO 100650Z 35015KT 9999 FEW020 29/21 Q1008

2010/08/10 07:00
SVBC 100700Z 00000KT C A V O K 26/21 Q1013

2010/08/10 06:50
LCRA 100650Z 11008KT 7000 HZ BKN016 SCT022 29/24 Q1006 BECMG 9999 NSW FEW020

2010/08/10 07:00
SBBE 100700Z 06006KT CAVOK 25/22 Q1012

2010/08/10 06:54
CYHZ 100654Z 20006KT 3/4SM R14/P6000FT/N R23/P6000FT/D BR VV001 17/ RMK FG8

2010/08/10 06:50
EGDL 100650Z 20006KT 9999 RA SCT023 OVC050 11/10 Q1011 WHT NOSIG

2010/08/10 06:50
EGDM 100650Z 27005KT 9999 -RA FEW007 BKN070 OVC100 13/12 Q1011 BLU TEMPO SCT008 GRN

2010/08/10 06:50
EGDR 100650Z 21010KT 0500 -DZ SCT000 OVC004 16/15 Q1011 RED

2010/08/10 06:50
EGDY 100650Z 25005KT 6000 RA FEW008 SCT035 OVC080 13/12 Q1012 WHT

2010/08/10 06:50
EGOS 100650Z 20004KT 9999 FEW010 BKN050 13/11 Q1009 BLU NOSIG

2010/08/10 06:50
EGOV 100650Z 23014KT 9999 FEW018 BKN060 14/12 Q1008 BLU NOSIG

2010/08/10 06:50
EGOW 100650Z 26008KT 9999 FEW015 BKN030 15/11 Q1008 BLU

2010/08/10 06:50
EGQK 100650Z 12002KT 9999 FEW020 SCT060 BKN150 12/10 Q1004 BLU NOSIG

2010/08/10 06:50
EGQL 100650Z 04002KT 9999 FEW018 BKN080 12/11 Q1004 BLU NOSIG

2010/08/10 06:50
EGQS 100650Z 17002KT CAVOK 11/10 Q1004 BLU NOSIG

2010/08/10 06:50
EGUW 100650Z 26009KT 9999 -RADZ FEW010TCU SCT020 BKN024 17/13 Q1010 WHT TEMPO 4000 +RA BKN006 YLO1

2010/08/10 06:50
EGVP 100650Z 32003KT 9999 FEW008 BKN033 OVC090 13/12 Q1011 BLU BECMG -RA BKN007 GRN

2010/08/10 06:50
EGWU 100650Z 29007KT 9000 RA FEW007 BKN022 OVC045 15/14 Q1010 WHT

2010/08/10 06:50
EGXC 100650Z 21005KT 9999 FEW009 BKN015 BKN250 16/15 Q1008 WHT TEMPO SCT014 GRN

2010/08/10 06:50
EGXD 100650Z 15005KT 9999 FEW020 BKN075 12/12 Q1007 BLU TEMPO SCT022 WHT

2010/08/10 06:50
EGXE 100650Z 17005KT 9999 FEW015 BKN070 12/11 Q1007 BLU TEMPO SCT022 WHT

2010/08/10 06:50
EGXG 100650Z 22001KT 9999 FEW015 BKN050 13/12 Q1007 BLU

2010/08/10 06:50
EGXJ 100650Z 25010KT 9999 FEW010 SCT030 BKN250 15/13 Q1008 BLU

2010/08/10 06:50
EGXT 100650Z 22008KT 9999 FEW007 BKN060 BKN120 15/13 Q1009 BLU NOSIG

2010/08/10 06:50
EGXU 100650Z 12002KT 9999 FEW015 BKN070 12/12 Q1007 BLU NOSIG

2010/08/10 06:50
EGXW 100650Z 23006KT 9999 FEW007 SCT012 BKN040 15/14 Q1008 GRN BECMG SCT018 WHT

2010/08/10 06:50
EGYD 100650Z 22010KT 9999 FEW008 SCT027 BKN220 15/13 Q1008 BLU TEMPO SCT012 GRN

2010/08/10 06:50
EGYM 100650Z 26011KT 9999 RA FEW005 SCT020 BKN050 14/12 Q1009 WHT TEMPO 6000 RA SCT010 GRN

2010/08/10 06:55
ETAD 100655Z AUTO 00000KT 9999 CLR 18/12 A3003 RMK AO2 SLPNO T01800118 VISNO RWY05 CHINO RWY05 $

2010/08/10 06:55
KBAB 100655Z AUTO 13004KT 10SM CLR 20/11 A2981 RMK AO2 SLP096 T02010111 $

2010/08/10 06:55
KCOF 100655Z AUTO 13011KT 10SM FEW020 26/ A2993 RMK AO2 SLP137 T0264

2010/08/10 06:55
KDOV 100655Z AUTO 19010KT 10SM CLR 24/24 A2993 RMK AO2 SLP137 T02440236

2010/08/10 06:55
KGTB 100655Z AUTO 25004KT 10SM SCT009 BKN025 21/20 A2994 RMK AO2 CIG 009 RWY03 SLP136 T02100200

2010/08/10 06:55
KMXF 100655Z AUTO 00000KT 10SM CLR 27/25 A2994 RMK AO2 SLP138 T02700251

2010/08/10 06:54
KNFG 100654Z 00000KT 6SM BR FEW015 11/09 A2992 RMK AO2 SLP129 T01110094

2010/08/10 06:52
KNFW 100652Z AUTO 19008KT 10SM CLR 30/19 A2994 RMK AO2 SLP123 T03000194

2010/08/10 06:52
KNHK 100652Z AUTO 21007KT 10SM CLR 26/22 A2995 RMK AO2 SLP143 T02610217 $

2010/08/10 06:53
KNIP 100653Z 13007KT 10SM FEW020 28/24 A2995 RMK AO2 SLP138 T02780244

2010/08/10 06:54
KNKT 100654Z AUTO 20005KT 10SM CLR 24/23 A3002 RMK AO2 SLP163 T02440233

2010/08/10 06:53
KNQX 100653Z AUTO 25005KT 10SM FEW060 27/23 A2985 RMK AO2 TSE0554B06E46 SLP107 T02670233 $

2010/08/10 06:55
KPOB 100655Z AUTO 25004KT 10SM CLR 25/25 A3001 RMK AO2 SLP162 T02510251 $

2010/08/10 06:55
KSSC 100655Z 00000KT 10SM CLR 25/24 A3000 RMK AO2A SLP158 T02500235 $

2010/08/10 06:55
KTIK 100655Z 17010KT 10SM CLR 27/21 A2993 RMK AO2A SLP118 T02740207

2010/08/10 06:55
PWAK 100655Z 06014G19KT 10SM SCT024 29/24 A3000 RMK AO2A

2010/08/10 07:00
FAVV 100700Z AUTO 13005KT //// // ////// 04/M09 Q1031

2010/08/10 07:00
FAJB 100700Z AUTO 12004KT //// // ////// 07/M04 Q1032

2010/08/10 07:00
FASI 100700Z AUTO 10007KT //// // ////// 06/M02 Q1032

2010/08/10 07:00
FAGC 100700Z AUTO 12016KT //// // ////// 06/M03 Q1031

2010/08/10 06:53
MMGL 100653Z 00000KT 10SM BKN020 BKN100 OVC300 20/17 A3012 RMK 8/473 VC CB N/W OCNL DROPS

2010/08/10 06:46
MMPR 100646Z 01007KT 10SM SCT008 BKN020CB OVC070 28/25 A2986 RMK 8/97/

2010/08/10 06:50
LGAD 100650Z 00000KT 9999 FEW020 28/22 Q1011

2010/08/10 06:56
KABQ 100656Z 00000KT 10SM FEW100 24/07 A3014 RMK AO2 SLP106 T02390072 403170178 

2010/08/10 06:55
KAAT 100655Z AUTO 25008KT 10SM CLR 13/04 A3001 RMK AO2 SLP119 T01330039 TSNO 

2010/08/10 06:56
KSDF 100656Z 00000KT 8SM CLR 29/23 A2995 RMK AO2 SLP136 T02890233 

2010/08/10 06:54
KMTP 100654Z AUTO 32004KT 23/20 A2993 RMK AO2 SLP136 T02330200 PWINO TSNO 

2010/08/10 06:56
CYYL 100656Z AUTO 14004KT 9SM SCT003 BKN013 BKN021 OVC025 14/14 A2990 RMK SLP137 DENSITY ALT 1300FT PCPN 0.8MM PAST HR

2010/08/10 06:55
KPHP 100655Z AUTO 18004KT 10SM OVC120 23/17 A2987 RMK AO2 SLP090 T02280167 403560161 TSNO 

2010/08/10 06:56
KJAX 100656Z 06003KT 10SM FEW022 26/23 A2995 RMK AO2 SLP142 T02560233 

2010/08/10 06:56
KCHS 100656Z 00000KT 10SM CLR 27/25 A3001 RMK AO2 SLP160 T02670250 

2010/08/10 06:56
TJSJ 100656Z 12005KT 10SM SCT050 27/24 A2994 RMK AO2 RAB08E19 SLP137 OCNL LTGIC DSNT N-SW CB DSNT N-SW P0000 T02670244 $ 

2010/08/10 06:55
KHON 100655Z AUTO 14005KT 8SM OVC028 24/23 A2986 RMK AO2 SLP098 T02440228 TSNO 

2010/08/10 06:54
MMMX 100654Z 00000KT 5SM FEW090 SCT200 16/14 A3030 NOSIG RMK 8/032 HZY

2010/08/10 06:55
PAEH 100655Z AUTO 18017G26KT 150V220 1SM OVC003 08/07 RMK AO1 2 T00830073

2010/08/10 06:55
PAEI 100655Z AUTO 06003KT 10SM BKN095 16/11 A2961 RMK AO2 SLP029 T01650107 $

2010/08/10 06:55
PGUA 100655Z AUTO 07008KT 10SM FEW019 27/24 A2990 RMK AO2 SLP106 T02700242 $

2010/08/10 06:55
PHHI 100655Z AUTO 08008KT 10SM OVC040 24/17 A3011 RMK AO2 SLP183 T02400174 $

2010/08/10 06:53
PHJR 100653Z VRB04KT 10SM CLR 26/17 A3009 RMK AO2 SLP196 T02560172

2010/08/10 06:50
PTKK 100650Z 11008KT 15SM FEW014 BKN120 OVC280 29/25 A2982 RMK SLP101 T02890245

2010/08/10 06:50
PTYA 100650Z 18008KT 12SM FEW016 FEW140 BKN300 32/24 A2984 RMK SLP105 T03200242

2010/08/10 06:55
PWAK 100655Z 06014G19KT 10SM SCT024 29/24 A3000 RMK AO2A

2010/08/10 06:55
RJTY 100655Z AUTO 17014KT 9999 SCT022 29/25 A3000 RMK AO2 SLP151 T02870246 $

2010/08/10 06:55
RODN 100655Z 18014KT 9999 BKN020 OVC200 30/26 A2980 RMK AO2A SLP092 T02950261

2010/08/10 07:00
TFFR 100700Z 04002KT 9999 SCT021 SCT048 25/24 Q1013 TEMPO 4000 SHRA

2010/08/10 06:55
TXKF 100655Z 17007KT 9999 FEW017 SCT180 BKN300 27/23 Q1020

2010/08/10 06:55
CYHE 100655Z AUTO 10004KT 5SM -RA OVC010 OVC021 15/15 A2994

2010/08/10 06:50
LGKC 100650Z 36007KT 320V060 CAVOK 29/22 Q1012

2010/08/10 06:50
LGKF 100650Z 00000KT 9999 FEW025 27/20 Q1010

2010/08/10 06:50
LGKP 100650Z 33027KT 9999 FEW010 29/21 Q1005

2010/08/10 06:50
LGKZ 100650Z 33014KT CAVOK 23/13 Q1016

2010/08/10 06:50
LGMK 100650Z 01019KT 9999 FEW018 28/23 Q1007

2010/08/10 06:50
LGNX 100650Z 36012KT 9999 FEW018 29/23 Q1008

2010/08/10 06:50
LGPA 100650Z 35015KT CAVOK 30/23 Q1007

2010/08/10 06:50
LGSO 100650Z 35015KT 9999 FEW020 29/21 Q1008

2010/08/10 06:50
LGIR 100650Z 30013KT 9999 FEW020 BKN080 29/22 Q1008 NOSIG

2010/08/10 06:50
LGKL 100650Z 00000KT CAVOK 30/18 Q1009

2010/08/10 06:50
LGKO 100650Z 34009KT CAVOK 30/22 Q1006

2010/08/10 06:50
LGKR 100650Z 00000KT CAVOK 29/20 Q1009 NOSIG

2010/08/10 06:50
LGRP 100650Z 25008KT CAVOK 30/25 Q1005 NOSIG

2010/08/10 06:50
LGSA 100650Z 00000KT 9999 FEW030 SCT080 29/20 Q1010

2010/08/10 06:50
LGSM 100650Z 01010KT 320V040 CAVOK 30/21 Q1006

2010/08/10 06:50
LGTS 100650Z 31010KT CAVOK 28/17 Q1012 NOSIG

2010/08/10 06:55
EHDL 100655Z AUTO 22007KT 9999NDV NCD 16/13 Q1014 BLU

2010/08/10 06:55
EHEH 100655Z AUTO 21006KT 9999NDV FEW057 17/13 Q1014 BLU BLU NOSIG

2010/08/10 06:55
EHGR 100655Z AUTO 21005KT 9999NDV FEW096 17/13 Q1014 BLU BLU TEMPO WHT TEMPO SCT020

2010/08/10 06:55
EHLW 100655Z AUTO 18007KT 7000NDV BR NCD 17/15 Q1012 WHT BLU TEMPO WHT 7000 FEW110 TEMPO SCT 015

2010/08/10 06:55
EHVK 100655Z AUTO 22008KT 9999NDV NCD 17/13 Q1014 BLU BLU NOSIG

2010/08/10 06:55
EHVL 100655Z AUTO 20013KT 9999NDV BKN013 BKN016 BKN021 18/15 Q1011 GRN

2010/08/10 06:55
EHWO 100655Z AUTO 22006KT 9999NDV SCT290 16/13 Q1013 BLU BLU TEMPO WHT SCT290 TEMPO SCT020

2010/08/10 06:50
EGNS 100650Z 23012KT 9999 FEW013 SCT017 14/11 Q1006 NOSIG

2010/08/10 06:50
EFET 100650Z AUTO 04006KT 5000 DZ FEW005 SCT008 BKN017 BKN034 10/09 Q1012

2010/08/10 06:50
EFIV 100650Z AUTO 02008KT 340V050 9999 OVC010 11/10 Q1012

2010/08/10 06:50
EFKE 100650Z 36012KT 9999 BKN015 14/10 Q1009

2010/08/10 06:50
EFKI 100650Z AUTO 21005KT 150V260 //// SCT013 BKN031 19/17 Q1009

2010/08/10 06:50
EFKS 100650Z AUTO 36003KT 9999 -RA OVC004 14/13 Q1008

2010/08/10 06:50
EFKT 100650Z AUTO 03004KT 340V080 9999 OVC012 12/09 Q1012

2010/08/10 06:50
LGAL 100650Z VRB03KT CAVOK 29/21 Q1011

2010/08/10 06:50
LGEL 100650Z 34009KT 9999 FEW030 31/18 Q1009

2010/08/10 06:50
LGKV 100650Z 00000KT CAVOK 29/21 Q1010

2010/08/10 06:50
LGMT 100650Z /////KT CAVOK 29/24 Q1008

2010/08/10 06:50
LGPZ 100650Z 00000KT 9999 FEW015 28/22 Q1011 NOSIG

2010/08/10 06:50
LGRX 100650Z 00000KT 9999 FEW025 29/20 Q1010 NOSIG

2010/08/10 06:50
LGSR 100650Z 35014KT CAVOK 30/21 Q1007 NOSIG

2010/08/10 06:50
LGZA 100650Z VRB03KT CAVOK 29/21 Q1010

2010/08/10 07:00
HAAB 100700Z 17004KT 6000 SCT002 BKN018 OVC070 15/13 Q1027 R/M MIST

2010/08/10 07:00
FNLU 100700Z 08004KT 5000 BKN023 22/19 Q1016 TEMPO 8000 NSW

2010/08/10 07:00
RPLC 100700Z VRB10G30KT 9999 FEW025 OVC270 31/23 Q1008 A2979 RMK NOSIG

2010/08/10 06:54
KWAL 100654Z AUTO 24006KT 10SM CLR 24/22 A2997 RMK AO2 SLP146 T02390217 TSNO 

2010/08/10 06:56
KSHV 100656Z 18003KT 10SM SCT290 28/23 A2991 RMK AO2 SLP124 T02780228 

2010/08/10 06:55
BGTL 100655Z AUTO 00000KT 9999 CLR 02/02 A2982 RMK AO2 SLP101 T00240020

2010/08/10 06:50
EFKI 100650Z AUTO 21005KT 150V260 //// SCT013 BKN031 19/17 Q1009

2010/08/10 06:55
ETAR 100655Z AUTO 00000KT 9999 CLR 16/14 A3003 RMK AO2 SLP164 T01560139 $

2010/08/10 06:55
ETOU 100655Z AUTO 00000KT 9999 CLR 18/14 A3003 RMK AO2 SLP166 T01810144

2010/08/10 06:55
KADW 100655Z AUTO 22008KT 10SM CLR 24/21 A2995 RMK AO2 SLP141 T02440209 $

2010/08/10 06:55
KDLF 100655Z AUTO 12016KT 10SM CLR 30/23 A2994 RMK AO2 SLP119 T02960227

2010/08/10 06:55
KFCS 100655Z AUTO 02006KT 10SM BKN110 17/12 A3013 RMK AO2 SLP126 T01650120 402590155

2010/08/10 06:55
KFTK 100655Z AUTO 00000KT 10SM CLR 26/25 A2997 RMK AO2 SLP141 T02610249 $

2010/08/10 06:55
KHIF 100655Z 09016G21KT 10SM CLR 19/05 A3002 RMK AO2A SLP067 T01950049 402770179

2010/08/10 06:55
KLTS 100655Z AUTO 12006KT 10SM CLR 27/21 A2992 RMK AO2 SLP111 T02680205 $

2010/08/10 06:55
KMUO 100655Z AUTO 14010KT 10SM FEW130 18/14 A2988 RMK AO2 SLP092 T01850141 403130170

2010/08/10 06:55
KXMR 100655Z AUTO 12007KT 10SM CLR 26/24 A2993 RMK AO2 SLP138 T02580242

2010/08/10 06:56
MUGM 100656Z 34006KT 9999 FEW025 SCT250 26/23 A2993 RMK SLP133 T02610228

2010/08/10 06:55
PAEI 100655Z AUTO 06003KT 10SM BKN095 16/11 A2961 RMK AO2 SLP029 T01650107 $

2010/08/10 06:55
PHHI 100655Z AUTO 08008KT 10SM OVC040 24/17 A3011 RMK AO2 SLP183 T02400174 $

2010/08/10 06:55
KADW 100655Z AUTO 22008KT 10SM CLR 24/21 A2995 RMK AO2 SLP141 T02440209 $

2010/08/10 06:55
KCOF 100655Z AUTO 13011KT 10SM FEW020 26/ A2993 RMK AO2 SLP137 T0264

2010/08/10 06:53
KDAB 100653Z 13005KT 10SM FEW020 27/23 A2994 RMK AO2 SLP136 T02670233

2010/08/10 06:55
KDOV 100655Z AUTO 19010KT 10SM CLR 24/24 A2993 RMK AO2 SLP137 T02440236

2010/08/10 06:55
KLFI 100655Z 23005KT 10SM CLR 25/23 A2997 RMK AO2A SLP152 T02540226

2010/08/10 06:55
KMCF 100655Z AUTO 08007KT 10SM SCT065 26/25 A2988 RMK AO2 SLP121 T02590251

2010/08/10 06:52
KNHK 100652Z AUTO 21007KT 10SM CLR 26/22 A2995 RMK AO2 SLP143 T02610217 $

2010/08/10 06:53
KNIP 100653Z 13007KT 10SM FEW020 28/24 A2995 RMK AO2 SLP138 T02780244

2010/08/10 06:54
KNKT 100654Z AUTO 20005KT 10SM CLR 24/23 A3002 RMK AO2 SLP163 T02440233

2010/08/10 06:53
KNQX 100653Z AUTO 25005KT 10SM FEW060 27/23 A2985 RMK AO2 TSE0554B06E46 SLP107 T02670233 $

2010/08/10 06:54
KPHL 100654Z 20007KT 10SM CLR 26/21 A2993 RMK AO2 SLP136 T02610211

2010/08/10 06:55
KPOB 100655Z AUTO 25004KT 10SM CLR 25/25 A3001 RMK AO2 SLP162 T02510251 $

2010/08/10 06:53
KSAV 100653Z 15003KT 10SM CLR 27/24 A2999 RMK AO2 SLP153 T02670239 $

2010/08/10 06:55
KSSC 100655Z 00000KT 10SM CLR 25/24 A3000 RMK AO2A SLP158 T02500235 $

2010/08/10 06:54
KSYR 100654Z 14003KT 2SM BR BKN020 OVC055 21/21 A2995 RMK AO2 SLP135 T02060206

2010/08/10 06:55
KVAD 100655Z AUTO 05003KT 10SM CLR 25/24 A2996 RMK AO2 SLP143 T02480239 $

2010/08/10 06:56
MUGM 100656Z 34006KT 9999 FEW025 SCT250 26/23 A2993 RMK SLP133 T02610228

2010/08/10 07:00
SBEG 100700Z 00000KT CAVOK 23/22 Q1012

2010/08/10 07:00
SBFZ 100700Z 12006KT 9999 SCT017 25/23 Q1014

2010/08/10 07:00
SBRF 100700Z 15012KT 9999 SCT018 BKN070 25/19 Q1016

2010/08/10 07:00
SBSJ 100700Z 00000KT 4000 BR BKN006 13/12 Q1024

2010/08/10 07:00
SGAS 100700Z 18006KT CAVOK 10/07 Q1020

2010/08/10 07:00
SGES 100700Z 18004KT CAVOK 12/11 Q1019

2010/08/10 07:00
SPIM 100700Z 17003KT 6000 FEW005 BKN010 13/12 Q1016 NOSIG RMK PP000

2010/08/10 06:55
EGUN 100655Z AUTO 27011KT 9999 -RA FEW012 SCT021 BKN065 OVC085 15/15 A2982 RMK AO2 FEW V SCT SLP088 P0002 T01480148

2010/08/10 06:50
ENBN 100650Z 12002KT 6000 SCT002 BKN004 12/12 Q1011

2010/08/10 06:50
ENBV 100650Z 09007KT 9999 BKN035 10/08 Q1013

2010/08/10 06:50
ENFG 100650Z 18003KT 9999 SCT012 BKN016 13/11 Q1011

2010/08/10 06:50
ENHF 100650Z 06005KT 9999 BKN045 12/09 Q1011

2010/08/10 06:50
ENNO 100650Z 00000KT 5000 BR BKN006 15/14 Q1010

2010/08/10 06:50
ENOV 100650Z VRB01KT 9999 FEW008 SCT014 BKN020 15/12 Q1010

2010/08/10 06:50
ENRA 100650Z VRB02KT 9999 FEW040 BKN050 17/12 Q1010

2010/08/10 06:50
ENSH 100650Z 02015KT 9999 FEW010 SCT035 12/10 Q1010

2010/08/10 06:50
ENSN 100650Z 20005KT 6000 FEW001 SCT003 BKN008 14/14 Q1010

2010/08/10 06:50
ENSR 100650Z 35003KT 9999 FEW010 SCT030 12/09 Q1011

2010/08/10 06:50
ENZV 100650Z 15008KT 9999 FEW045 BKN062 16/12 Q1009 NOSIG

2010/08/10 06:55
ETAR 100655Z AUTO 00000KT 9999 CLR 16/14 A3003 RMK AO2 SLP164 T01560139 $

2010/08/10 06:56
ETIC 100656Z AUTO 00000KT 9999 SCT047 14/14 A3007 RMK AO2 SLP176 T01370137

2010/08/10 06:55
ETOU 100655Z AUTO 00000KT 9999 CLR 18/14 A3003 RMK AO2 SLP166 T01810144

2010/08/10 06:50
LGKL 100650Z 00000KT CAVOK 30/18 Q1009

2010/08/10 06:50
LGKO 100650Z 34009KT CAVOK 30/22 Q1006

2010/08/10 06:50
LGKR 100650Z 00000KT CAVOK 29/20 Q1009 NOSIG

2010/08/10 06:50
LGRP 100650Z 25008KT CAVOK 30/25 Q1005 NOSIG

2010/08/10 06:50
LGSM 100650Z 01010KT 320V040 CAVOK 30/21 Q1006

2010/08/10 06:50
LGTS 100650Z 31010KT CAVOK 28/17 Q1012 NOSIG

2010/08/10 06:55
LIYW 100655Z AUTO 00000KT 9999 CLR 25/19 A3001 RMK AO2 SLP160 T02470187

2010/08/10 06:55
KCAO 100655Z AUTO 20006KT 10SM SCT120 22/16 A3010 RMK AO2 SLP108 T02170161 403440189 TSNO 

2010/08/10 07:00
MYNN 100700Z 23011G23KT 9000 +SHRA SCT020 OVC080 25/25 A2997

2010/08/10 06:56
KNYG 100656Z AUTO 22006KT 9SM CLR 26/20 A2995 RMK AO2 SLP144 T02610200 $ 

2010/08/10 06:56
KP53 100656Z AUTO 19004KT 18/17 A2996 RMK AO2 SLP145 T01780172 PWINO TSNO 

2010/08/10 06:50
EGBJ 100650Z 21005KT 9999 FEW012 14/12 Q1010

2010/08/10 06:50
EGDL 100650Z 20006KT 9999 RA SCT023 OVC050 11/10 Q1011 NOSIG

2010/08/10 06:50
EGGP 100650Z 22007KT 9999 SCT032 15/12 Q1008

2010/08/10 06:50
EGHD 100650Z 00000KT 3000 -RA BR FEW000 BKN003 13/12 Q1012

2010/08/10 06:50
EGJA 100650Z 28006KT 2000 -RADZ BR FEW000 BKN001 15/15 Q1013

2010/08/10 06:50
EGLF 100650Z 31007KT 8000 -RA FEW004 SCT006 BKN014 14/14 Q1011

2010/08/10 06:50
EGNS 100650Z 23012KT 9999 FEW013 SCT017 14/11 Q1006 NOSIG

2010/08/10 06:50
EGNT 100650Z 00000KT 9999 FEW030 14/10 Q1006

2010/08/10 06:50
EGOV 100650Z 23014KT 9999 FEW018 BKN060 14/12 Q1008 BLU NOSIG

2010/08/10 06:50
EGPB 100650Z 13008KT 9999 FEW010 FEW015CB SCT022 15/14 Q1004

2010/08/10 06:50
EGQS 100650Z 17002KT CAVOK 11/10 Q1004 BLU NOSIG

2010/08/10 06:50
EGSC 100650Z 24008KT 210V270 8000 RA FEW007 SCT037 15/12 Q1010

2010/08/10 06:50
EGSH 100650Z 25009KT 8000 -RA SCT024 17/16 Q1009

2010/08/10 06:50
EGTG 100650Z 21009KT 9999 SCT024 13/12 Q1011

2010/08/10 06:55
EGUL 100655Z AUTO 25010KT 9999 -RA FEW011 SCT046 SCT085 15/14 A2981 RMK AO2 RAE0620B0635DZB0620E0635 SLP095 P0001 T01540136

2010/08/10 06:55
EGUN 100655Z AUTO 27011KT 9999 -RA FEW012 SCT021 BKN065 OVC085 15/15 A2982 RMK AO2 FEW V SCT SLP088 P0002 T01480148

2010/08/10 06:50
EGWU 100650Z 29007KT 9000 RA FEW007 BKN022 OVC045 15/14 Q1010

2010/08/10 06:50
EGXC 100650Z 21005KT 9999 FEW009 BKN015 BKN250 16/15 Q1008 WHT TEMPO SCT014 GRN

2010/08/10 06:50
EGXG 100650Z 22001KT 9999 FEW015 BKN050 13/12 Q1007 BLU

2010/08/10 06:50
EGXJ 100650Z 25010KT 9999 FEW010 SCT030 BKN250 15/13 Q1008 BLU

2010/08/10 06:50
EGDM 100650Z 27005KT 9999 -RA FEW007 BKN070 OVC100 13/12 Q1011 BLU TEMPO SCT008 GRN

2010/08/10 06:50
EGNS 100650Z 23012KT 9999 FEW013 SCT017 14/11 Q1006 NOSIG

2010/08/10 06:50
EGOV 100650Z 23014KT 9999 FEW018 BKN060 14/12 Q1008 BLU NOSIG

2010/08/10 06:50
EGQS 100650Z 17002KT CAVOK 11/10 Q1004 BLU NOSIG

2010/08/10 06:50
EGXC 100650Z 21005KT 9999 FEW009 BKN015 BKN250 16/15 Q1008 WHT TEMPO SCT014 GRN

2010/08/10 06:50
EGXG 100650Z 22001KT 9999 FEW015 BKN050 13/12 Q1007 BLU

2010/08/10 06:50
EGXJ 100650Z 25010KT 9999 FEW010 SCT030 BKN250 15/13 Q1008 BLU

2010/08/10 06:50
LGAL 100650Z VRB03KT CAVOK 29/21 Q1011

2010/08/10 06:50
LGEL 100650Z 34009KT 9999 FEW030 31/18 Q1009

2010/08/10 06:50
LGIR 100650Z 30013KT 9999 FEW020 BKN080 29/22 Q1008 NOSIG

2010/08/10 06:50
LGKC 100650Z 36007KT 320V060 CAVOK 29/22 Q1012

2010/08/10 06:50
LGKF 100650Z 00000KT 9999 FEW025 27/20 Q1010

2010/08/10 06:50
LGKP 100650Z 33027KT 9999 FEW010 29/21 Q1005

2010/08/10 06:50
LGKV 100650Z 00000KT CAVOK 29/21 Q1010

2010/08/10 06:50
LGKZ 100650Z 33014KT CAVOK 23/13 Q1016

2010/08/10 06:50
LGMK 100650Z 01019KT 9999 FEW018 28/23 Q1007

2010/08/10 06:50
LGMT 100650Z /////KT CAVOK 29/24 Q1008

2010/08/10 06:50
LGPZ 100650Z 00000KT 9999 FEW015 28/22 Q1011 NOSIG

2010/08/10 06:50
LGRX 100650Z 00000KT 9999 FEW025 29/20 Q1010 NOSIG

2010/08/10 06:50
LGSA 100650Z 00000KT 9999 FEW030 SCT080 29/20 Q1010

2010/08/10 06:50
LGSO 100650Z 35015KT 9999 FEW020 29/21 Q1008

2010/08/10 06:50
LGSR 100650Z 35014KT CAVOK 30/21 Q1007 NOSIG

2010/08/10 06:50
LGZA 100650Z VRB03KT CAVOK 29/21 Q1010

2010/08/10 06:56
KGFA 100656Z AUTO 21009KT 10SM CLR 18/10 A2985 RMK AO2 SLP107 T01780100 

2010/08/10 06:56
KP28 100656Z AUTO 17008KT 29/20 A2990 RMK AO2 SLP100 T02890200 PWINO TSNO 

2010/08/10 06:56
KLWS 100656Z AUTO 13004KT 10SM CLR 19/03 A2978 RMK AO2 SLP076 T01940028 

2010/08/10 06:56
KCDJ 100656Z AUTO 00000KT 28/26 A2989 RMK AO2 SLP103 T02830256 PWINO TSNO 

2010/08/10 06:56
KWMC 100656Z AUTO 27008KT 10SM CLR 19/M01 A2994 RMK AO2 SLP087 P0001 T01941006 

2010/08/10 06:56
KNPA 100656Z AUTO 00000KT 8SM CLR 26/24 A2991 RMK AO2 SLP131 T02560239 

2010/08/10 06:56
KCAE 100656Z 00000KT 6SM BR CLR 24/23 A3001 RMK AO2 SLP159 T02440228 

2010/08/10 06:56
KNXP 100656Z AUTO 00000KT CLR 26/M01 A2993 RMK AO2 SLP096 T02561006 $ 

2010/08/10 06:56
KSXT 100656Z AUTO 01010KT 8SM CLR 11/08 A3000 RMK AO2 SLP128 T01110078 TSNO 

2010/08/10 06:56
KNFL 100656Z 01003KT 10SM CLR 22/04 A2994 RMK AO2 SLP112 T02170039 

2010/08/10 06:53
KLXV 100653Z AUTO 00000KT 10SM CLR 06/04 A3043 RMK AO2 SLP163 T00560044 401780056 TSNO

2010/08/10 06:55
KMAO 100655Z AUTO 00000KT 10SM CLR 25/25 A3001 RMK AO2

2010/08/10 06:51
KMDW 100651Z COR 00000KT 10SM FEW095 SCT250 26/22 A2994 RMK AO2 SLP127 OCNL LTGIC DSNT SW CB DSNT SW T02610217 PNO

2010/08/10 06:55
KMGG 100655Z AUTO 00000KT 7SM CLR 20/20 A2995 RMK AO2 T02040198

2010/08/10 06:55
KMKG 100655Z 00000KT 1/4SM FG VV001 21/20 A2997 RMK AO2 SLP144 T02110200

2010/08/10 06:55
KMKS 100655Z AUTO 00000KT 7SM CLR 24/24 A3000 RMK AO2 TSNO

2010/08/10 06:55
KMMT 100655Z AUTO 00000KT 9SM R32/5500VP6000FT CLR 23/23 A3002 RMK AO2 SLP163 T02310225

2010/08/10 06:48
KMOX 100648Z AUTO 09006KT 7SM CLR 21/21 A2990 RMK AO2

2010/08/10 06:53
KMSN 100653Z 00000KT 3SM BR CLR 22/22 A2995 RMK AO2 SLP136 T02220217

2010/08/10 06:53
KMWM 100653Z AUTO 11005KT 10SM CLR 24/22 A2992 RMK AO2 LTG DSNT SE

2010/08/10 06:53
KMWT 100653Z AUTO 00000KT 10SM CLR 25/24 A2992 RMK AO2 SLP117 T02500239 TSNO

2010/08/10 06:55
KNQA 100655Z AUTO 00000KT 10SM CLR 27/26 A2994 RMK

2010/08/10 06:55
KO22 100655Z AUTO 00000KT 10SM CLR 16/10 A2993 RMK AO1

2010/08/10 06:53
KOVE 100653Z AUTO 12004KT 10SM CLR 23/11 A2983 RMK AO2 SLP103 T02330111 TSNO $

2010/08/10 06:53
KPNM 100653Z AUTO 00000KT 3SM BR CLR 20/19 A2995 RMK AO2

2010/08/10 06:53
KPQN 100653Z AUTO 13005KT 10SM CLR 24/23 A2992 RMK AO2

2010/08/10 06:53
KPWC 100653Z AUTO 00000KT 5SM BR CLR 18/17 A2997 RMK AO2

2010/08/10 06:55
KRBW 100655Z AUTO 00000KT 10SM CLR 25/25 A3001 RMK AO2

2010/08/10 06:55
KRCE 100655Z AUTO 18008KT 10SM CLR 27/20 A2994 RMK AO2

2010/08/10 06:53
KRIL 100653Z AUTO 00000KT 10SM CLR 14/09 A3015 RMK AO2 SLP154 T01440094 402720133 TSNO

2010/08/10 06:55
KRNO 100655Z 01008KT 10SM CLR 21/03 A3000 RMK AO2 SLP103 T02110028

2010/08/10 06:54
KROA 100654Z 29003KT 9SM CLR 24/21 A3004 RMK AO2 SLP156 T02390206

2010/08/10 06:53
KSAV 100653Z 15003KT 10SM CLR 27/24 A2999 RMK AO2 SLP153 T02670239 $

2010/08/10 06:55
KSCK 100655Z 36006KT 10SM CLR 18/13 A2983 RMK AO2 SLP102 T01780128

2010/08/10 06:53
KSGR 100653Z AUTO 00000KT 10SM CLR 26/24 A2991 RMK AO2 SLP137 T02560239 TSNO

2010/08/10 06:55
KSMS 100655Z AUTO 00000KT 3SM BR CLR 23/23 A3002 RMK AO2

2010/08/10 06:53
KTLH 100653Z 10007KT 10SM CLR 27/23 A2992 RMK AO2 SLP132 T02670233

2010/08/10 06:55
KTME 100655Z AUTO 00000KT 10SM 26/26 A2994 RMK AO2

2010/08/10 06:53
KTRI 100653Z 00000KT 5SM BR CLR 22/20 A3005 RMK AO2 SLP156 T02220200

2010/08/10 06:53
KTWM 100653Z AUTO 00000KT 10SM CLR 19/17 A2995 RMK AO2

2010/08/10 06:53
KTYS 100653Z 00000KT 9SM SCT120 27/22 A3000 RMK AO2 SLP144 T02720222

2010/08/10 06:55
KULM 100655Z AUTO 12004KT 10SM CLR 24/22 A2992 RMK AO2

2010/08/10 06:55
KUTA 100655Z AUTO 00000KT 7SM CLR 26/25 A2994 RMK AO2

2010/08/10 06:59
KVTP 100659Z AUTO 27007KT 190V320 10SM CLR 09/07 A3046 RMK AO2

2010/08/10 06:50
KWYS 100650Z AUTO 00000KT M1/4SM FG OVC002 08/08 A3015 RMK AO2

2010/08/10 06:56
KSRC 100656Z AUTO 00000KT 9SM CLR 28/26 A2994 RMK AO2 TSNO T02770261 SLP137

2010/08/10 06:56
KTPH 100656Z AUTO 00000KT 10SM CLR 15/M11 A3007 RMK AO2 SLP111 T01501106

2010/08/10 06:56
KUKI 100656Z AUTO 00000KT 10SM CLR 18/11 A2987 RMK AO2 SLP105 T01780111

2010/08/10 06:55
KWRB 100655Z AUTO 00000KT 10SM CLR 24/23 A2999 RMK AO2 SLP153 T02360231

2010/08/10 06:56
PAAK 100656Z AUTO 29011G18KT 3/4SM OVC002 08/06 A2986 RMK AO1 PNO

2010/08/10 06:56
PACM 100656Z AUTO 18009KT 2SM -RA BR SCT020 BKN043 OVC100 11/09 A2932 RMK AO2 TSNO T01050094 P0004 SLP924 $

2010/08/10 06:56
PAHP 100656Z AUTO 18008KT 10SM BKN010 OVC017 11/07 A2929 RMK AO1 PNO TSNO

2010/08/10 06:56
K1M4 100656Z AUTO 00000KT 4SM BR CLR 24/24 A3001 RMK AO2 T02380238 SLP160

2010/08/10 06:56
KAND 100656Z AUTO 15003KT 10SM BKN100 26/21 A3003 RMK AO2 SLP155 T02560211

2010/08/10 06:55
KBIX 100655Z AUTO 04005KT 10SM CLR 26/26 A2992 RMK AO2 SLPNO T02610256 $

2010/08/10 06:56
KCEC 100656Z AUTO 00000KT 10SM OVC006 13/11 A2994 RMK AO2 SLP139 T01280111

2010/08/10 06:56
KDIK 100656Z AUTO 15013G17KT 10SM CLR 22/16 A2981 RMK AO2 SLP069 T02170161 403560161

2010/08/10 06:56
KDUG 100656Z AUTO 00000KT 10SM CLR 22/18 A3006 RMK AO2 SLP106 T02220183 403280178

2010/08/10 06:56
KDUJ 100656Z AUTO 00000KT 8SM OVC095 21/18 A3000 RMK AO2 RAB15E33 SLP144 P0000 T02060178

2010/08/10 06:56
KEAU 100656Z AUTO 00000KT 1 3/4SM BR CLR 21/20 A2994 RMK AO2 SLP134 P0001 T02060200

2010/08/10 06:56
KEKO 100656Z AUTO 00000KT 10SM BKN120 19/05 A2999 RMK AO2 SLP093 T01940050

2010/08/10 06:55
KFAF 100655Z AUTO 19003KT 10SM CLR 26/26 A2997 RMK AO2 SLP151 T02570257 $

2010/08/10 06:55
KFBG 100655Z VRB04KT 10SM CLR 25/24 A3001 RMK AO2A SLP160 T02550241 $

2010/08/10 06:56
KGRD 100656Z AUTO 00000KT 10SM CLR 23/22 A3004 RMK AO2 SLP163 T02330217

2010/08/10 06:55
KGTB 100655Z AUTO 25004KT 10SM SCT009 BKN025 21/20 A2994 RMK AO2 CIG 009 RWY03 SLP136 T02100200

2010/08/10 06:55
KHFF 100655Z AUTO 00000KT 10SM CLR 24/23 A3004 RMK AO2 SLP168 T02410231 $

2010/08/10 06:56
KIGX 100656Z AUTO 00000KT 9SM CLR 25/23 A3003 RMK AO2 SLP162 T02500228

2010/08/10 06:56
KINW 100656Z AUTO 22006KT 10SM BKN110 21/10 A3013 RMK AO2 SLP124 T02060100 403170156 $

2010/08/10 06:56
KJMS 100656Z AUTO 15003KT 10SM CLR 21/19 A2990 RMK AO2 SLP116 T02110189

2010/08/10 06:56
KLAS 100656Z 24007KT 10SM CLR 29/M06 A2982 RMK AO2 SLP068 T02941056

2010/08/10 06:56
KLNR 100656Z AUTO 00000KT M1/4SM FG VV001 23/22 A2995 RMK AO2 SLP131 T02330222

2010/08/10 06:56
KM19 100656Z AUTO 14004KT 10SM CLR A2994 RMK AO2 SLPNO $

2010/08/10 06:56
KMOB 100656Z 00000KT 10SM FEW250 26/24 A2994 RMK AO2 SLP136 T02560244

2010/08/10 06:56
KMQY 100656Z AUTO 14004KT 10SM CLR 26/24 A2999 RMK AO2 T02610238 SLP143 $

2010/08/10 06:56
KMRH 100656Z AUTO 23006KT 10SM CLR 27/24 A3002 RMK AO2 SLP166 T02720244 TSNO

2010/08/10 06:55
KMXF 100655Z AUTO 00000KT 10SM CLR 27/25 A2994 RMK AO2 SLP138 T02700251

2010/08/10 06:52
KNRB 100652Z 14010KT 10SM FEW022 28/22 A2995 RMK AO2 SLP142 T02830222

2010/08/10 06:56
KOFK 100656Z AUTO 11007KT 3/4SM BR OVC001 26/25 A2985 RMK AO2 SLP093 T02560250

2010/08/10 06:55
KOZR 100655Z AUTO 05007KT 10SM CLR 24/24 A2994 RMK AO2 SLP135 T02430241 $

2010/08/10 06:56
KRDM 100656Z AUTO 36006KT 10SM CLR 16/05 A2995 RMK AO2 SLP118 T01610050

2010/08/10 06:56
KSBP 100656Z 30004KT 10SM OVC006 13/12 A2993 RMK AO2 SLP133 T01330117 $

2010/08/10 06:56
KSFO 100656Z 30009KT 10SM FEW003 SCT009 BKN013 13/11 A2992 RMK AO2 SLP131 T01280106

2010/08/10 06:56
KSLE 100656Z AUTO 27004KT 10SM SCT041 14/11 A2998 RMK AO2 SLP152 T01440106 TSNO

2010/08/10 06:56
PASM 100656Z AUTO 17010G19KT 4SM BKN006 OVC016 09/08 A2939 RMK AO1 PNO

2010/08/10 06:56
PASX 100656Z AUTO 00000KT 10SM BKN006 OVC050 11/10 A2977 RMK AO1 PNO

2010/08/10 06:56
PATG 100656Z AUTO 20016KT 8SM OVC008 10/09 A2955 RMK AO1 PNO

2010/08/10 06:56
PAUN 100656Z AUTO 07005KT 10SM BKN029 BKN034 OVC080 12/08 A2945 RMK AO1 PNO

2010/08/10 06:56
PAVD 100656Z 00000KT 9SM OVC007 11/09 A2988 RMK AO1 PNO

2010/08/10 06:56
PAWG 100656Z AUTO 00000KT 1 1/4SM BKN031 OVC038 13/11 A3003 RMK AO1 WEA

2010/08/10 06:56
PAWN 100656Z AUTO 02006KT 10SM BKN031 BKN037 OVC110 13/11 A2950 RMK AO1 PNO

2010/08/10 06:56
PAWS 100656Z AUTO 00000KT 10SM OVC013 12/10 A2977 RMK AO1 PNO

2010/08/10 06:56
PAZK 100656Z AUTO 27006KT 10SM CLR 08/03 A2974 RMK AO1 PNO

2010/08/10 06:56
PAAK 100656Z AUTO 29011G18KT 3/4SM OVC002 08/06 A2986 RMK AO1 PNO

2010/08/10 06:56
PABL 100656Z AUTO 00000KT 7SM SCT018 BKN024 OVC033 13/12 A2947 RMK AO1 PNO

2010/08/10 06:56
PABV 100656Z AUTO 23004KT 10SM OVC010 12/08 A2977 RMK AO1 PNO

2010/08/10 06:56
PACM 100656Z AUTO 18009KT 2SM -RA BR SCT020 BKN043 OVC100 11/09 A2932 RMK AO2 TSNO T01050094 P0004 SLP924 $

2010/08/10 06:56
PADK 100656Z 14009KT 10SM BKN009 OVC036 09/08 A2988 RMK AO1 PNO

2010/08/10 06:56
PAEM 100656Z AUTO 12010KT 4SM SCT007 BKN016 OVC042 11/08 A2932 RMK AO1 PNO

2010/08/10 06:56
PAFE 100656Z AUTO 12004KT 10SM BKN016 OVC023 13/11 A3004 RMK AO1 PNO

2010/08/10 06:56
PAFM 100656Z AUTO 10005KT 10SM FEW011 BKN028 OVC046 13/11 A2956 RMK AO1 PNO

2010/08/10 06:56
PAGL 100656Z AUTO 10008KT 10SM BKN060 OVC080 12/09 A2948 RMK AO1 PNO

2010/08/10 06:56
PAGM 100656Z AUTO 04010KT 5SM BKN004 OVC013 08/07 A2940 RMK AO1

2010/08/10 06:56
PAGS 100656Z AUTO 00000KT 2 1/2SM FEW008 OVC016 13/12 A3000 RMK AO1 PNO

2010/08/10 06:56
PAHP 100656Z AUTO 18008KT 10SM BKN010 OVC017 11/07 A2929 RMK AO1 PNO TSNO

2010/08/10 06:56
PAHY 100656Z AUTO 33003KT 10SM SCT004 BKN011 OVC017 13/12 A3003 RMK AO1 PNO

2010/08/10 06:56
PAII 100656Z AUTO 24006KT 6SM SCT003 BKN011 OVC021 10/08 A2969 RMK AO1 PNO

2010/08/10 06:56
PAIN 100656Z AUTO 18004KT 10SM OVC048 13/08 A2968 RMK AO1 PNO

2010/08/10 06:56
PAJC 100656Z AUTO 25011G15KT 10SM FEW018 BKN028 OVC050 13/07 A2966 RMK AO1 PNO

2010/08/10 06:56
PAKK 100656Z AUTO 05003KT 10SM FEW030 SCT036 12/11 A2943 RMK AO1 PNO

2010/08/10 06:56
PAKP 100656Z AUTO 05006KT 10SM BKN004 OVC016 09/09 A2961 RMK AO1 P0001

2010/08/10 06:56
PAMD 100656Z AUTO 14005KT 10SM BKN019 OVC025 11/09 A2991 RMK AO1 PNO

2010/08/10 06:56
PAMH 100656Z RMK AO1 PNO

2010/08/10 06:56
PAMM 100656Z AUTO 00000KT 10SM SCT007 OVC017 12/10 A3005 RMK AO1 PNO

2010/08/10 06:56
PAMY 100656Z 22007KT 10SM FEW026 OVC036 09/07 A2933 RMK AO1

2010/08/10 06:56
PANI 100656Z AUTO 14006KT 10SM BKN050 OVC060 12/08 A2951 RMK AO1 PNO

2010/08/10 06:56
PANV 100656Z AUTO 12005KT 10SM SCT046 BKN050 OVC090 12/10 A2947 RMK AO1 PNO

2010/08/10 06:56
PAOU 100656Z AUTO 00000KT 1 3/4SM BR SCT004 BKN025 OVC032 10/09 A2964 RMK AO2 PWINO TSNO T01000088 SLP039 $

2010/08/10 06:56
PAPG 100656Z 00000KT 10SM BKN025 OVC030 12/11 A3001 RMK AO1 PNO

2010/08/10 06:56
PAPH 100656Z AUTO 08007KT 10SM FEW034 OVC046 11/09 A2964 RMK AO1 PNO

2010/08/10 06:56
PAPN 100656Z AUTO 00000KT 3SM BR FEW006 OVC020 11/09 A2966 RMK AO2 PWINO TSNO T01050094 SLP046

2010/08/10 06:56
PARC 100656Z AUTO 04004KT 10SM OVC050 11/08 A2962 RMK AO1 PNO

2010/08/10 06:56
PASA 100656Z AUTO 05009KT 10SM BKN006 OVC013 10/07 A2939 RMK AO1 PNO

2010/08/10 06:56
PASD 100656Z AUTO 21015KT 10SM BKN015 OVC022 10/08 A2969 RMK AO1 PNO

2010/08/10 06:56
PASH 100656Z AUTO 35003KT 10SM OVC060 12/11 A2945 RMK AO1 PNO

2010/08/10 06:56
PASK 100656Z AUTO 11011KT 10SM SCT055 BKN075 OVC090 14/12 A2949 RMK AO1 PNO

2010/08/10 06:56
PASL 100656Z AUTO 16007KT 10SM SCT085 OVC100 12/09 A2961 RMK AO1 PNO

2010/08/10 06:54
KONZ 100654Z AUTO 00000KT 2SM BR CLR 22/21 A2994 RMK AO2

2010/08/10 06:53
KTEW 100653Z AUTO 00000KT 3/4SM BR OVC001 18/18 A2996 RMK AO2

2010/08/10 06:50
KCVH 100650Z AUTO 27005KT 10SM OVC009 13/12 A2994 RMK AO1

2010/08/10 06:56
KDVP 100656Z AUTO 10004KT 5SM BR CLR 23/22 A2995 RMK AO2 T02320218

2010/08/10 06:54
KDYT 100654Z AUTO 00000KT 10SM CLR 24/22 A2994 RMK AO2

2010/08/10 06:59
KFSO 100659Z AUTO 00000KT 4SM BR CLR 17/17 A2991 RMK AO2

2010/08/10 06:54
KFBL 100654Z AUTO 00000KT 7SM CLR 21/19 A2995 RMK AO2 LTG DSNT S

2010/08/10 06:58
KLYV 100658Z AUTO 11003KT 7SM CLR 24/22 A2990 RMK AO2

2010/08/10 06:56
KEFK 100656Z AUTO 00000KT 1 3/4SM BR VV007 15/14 A2994 RMK AO2

2010/08/10 06:54
KRRT 100654Z AUTO 21005KT 10SM CLR 23/21 A2991 RMK AO2 TSNO

2010/08/10 06:55
KTOB 100655Z AUTO 11003KT 2SM BR CLR 21/19 A2996 RMK AO2

2010/08/10 06:54
KLXL 100654Z AUTO 00000KT 10SM CLR 19/18 A2994 RMK AO2

2010/08/10 06:52
KEVM 100652Z AUTO 00000KT 1/4SM FG VV002 17/16 A2996 RMK AO1

2010/08/10 06:54
KELO 100654Z AUTO 00000KT 10SM CLR 18/17 A2998 RMK AO2

2010/08/10 06:55
KANE 100655Z AUTO 00000KT 10SM CLR 22/21 A2995 RMK AO2

2010/08/10 06:55
KROX 100655Z AUTO 19006KT 10SM CLR 22/21 A2990 RMK AO2

2010/08/10 06:55
KSYN 100655Z AUTO 00000KT 1 1/4SM BR VV007 22/21 A2993 RMK AO2 VIS 1/2V2 1/2 T02160205

2010/08/10 06:56
KVVV 100656Z AUTO 12006KT 10SM CLR 24/22 A2991 RMK AO2

2010/08/10 07:02
KFKA 100702Z AUTO 00000KT 7SM CLR 24/23 A2997 RMK AO2 LTG DSNT SW T02350225

2010/08/10 06:55
KROS 100655Z AUTO 00000KT 10SM CLR 19/19 A2996 RMK AO2 T01940186

2010/08/10 06:52
KHCD 100652Z AUTO 11003KT 10SM CLR 22/21 A2994 RMK AO2 T02210205

2010/08/10 06:53
KSGS 100653Z AUTO 00000KT 10SM CLR 24/22 A2994 RMK AO2 T02430215

2010/08/10 06:52
KMJQ 100652Z AUTO 12003KT 7SM SCT023 22/22 A2994 RMK AO2

2010/08/10 06:55
KHCO 100655Z AUTO 17006KT 10SM CLR 23/22 A2990 RMK AO2

2010/08/10 06:54
KLVN 100654Z AUTO 00000KT 1/4SM FG VV002 19/19 A2994 RMK AO2 VIS M1/4V3

2010/08/10 06:53
KPEX 100653Z AUTO 09004KT 10SM CLR 24/21 A2995 RMK AO2 T02420211

2010/08/10 06:55
KJMR 100655Z AUTO 00000KT 4SM BR CLR 19/18 A2998 RMK AO2

2010/08/10 06:56
KENW 100656Z AUTO 00000KT 1/4SM FG CLR 21/20 A2996 RMK AO2

2010/08/10 06:54
KJKJ 100654Z AUTO 16004KT 10SM CLR 23/21 A2990 RMK AO2

2010/08/10 06:54
KMVE 100654Z AUTO 15003KT 7SM CLR 23/22 A2991 RMK AO2 LTG DSNT SE

2010/08/10 06:53
KTKC 100653Z AUTO 00000KT 10SM BKN038 OVC044 23/22 A2993 RMK AO2 T02300217

2010/08/10 06:54
KGYL 100654Z AUTO 00000KT 10SM CLR 22/21 A2993 RMK AO2 T02220207

2010/08/10 06:54
KDXX 100654Z AUTO 00000KT 10SM SCT031 22/22 A2991 RMK AO2

2010/08/10 06:51
KHZX 100651Z AUTO 00000KT 10SM CLR 18/18 A2998 RMK AO2

2010/08/10 06:52
KCDD 100652Z AUTO 00000KT 5SM BR CLR 19/19 A2997 RMK AO2

2010/08/10 06:54
KSAZ 100654Z AUTO 00000KT 10SM CLR 21/21 A2996 RMK AO2

2010/08/10 06:51
KONA 100651Z AUTO 00000KT M1/4SM FG OVC001 23/22 A2993 RMK AO2

2010/08/10 06:53
KFOZ 100653Z AUTO 00000KT 3/4SM BR VV005 19/18 A2997 RMK AO2 VIS 1/2V2

2010/08/10 06:53
KAQP 100653Z AUTO 14004KT 10SM CLR 23/23 A2991 RMK AO2

2010/08/10 06:54
KETH 100654Z AUTO 13006KT 10SM CLR 19/18 A2995 RMK AO2

2010/08/10 06:54
KOVL 100654Z AUTO 13004KT 10SM CLR 22/20 A2992 RMK AO2 T02230198

2010/08/10 06:53
KLJF 100653Z AUTO 00000KT 10SM CLR 22/22 A2994 RMK AO2

2010/08/10 06:56
KXVG 100656Z AUTO 00000KT 5SM BR CLR 17/17 A2995 RMK AO2

2010/08/10 06:54
KORB 100654Z AUTO 00000KT 10SM CLR 21/19 A2994 RMK AO2

2010/08/10 06:51
KMZH 100651Z AUTO 00000KT 1/4SM FG OVC001 18/18 A2995 RMK AO2

2010/08/10 06:53
KBFW 100653Z AUTO 00000KT 10SM CLR 17/16 A2996 RMK AO2

2010/08/10 06:49
KVWU 100649Z AUTO 00000KT 10SM CLR 20/18 A2994 RMK AO2

2010/08/10 06:50
KAEL 100650Z AUTO 11003KT 10SM CLR 23/22 A2995 RMK AO2 LTG DSNT SE

2010/08/10 06:54
KOWA 100654Z AUTO 10003KT 7SM CLR 22/21 A2994 RMK AO2

2010/08/10 06:53
K29G 100653Z AUTO 00000KT 10SM BKN048 BKN065 BKN110 24/19 A2997 RMK AO2 T02400186 PWINO

2010/08/10 06:53
KMRT 100653Z AUTO 23004KT 7SM SCT070 22/20 A3000 RMK AO2 T02240202

2010/08/10 06:54
KIKW 100654Z AUTO 30003KT 7SM CLR 22/20 A2994 RMK AO2 T02150202

2010/08/10 06:53
KLAX 100653Z 25006KT 10SM OVC007 16/13 A2992 RMK AO2 SLP129 T01610133 $

2010/08/10 06:54
KRIC 100654Z 20003KT 9SM CLR 24/21 A2997 RMK AO2 SLP151 T02390211 $

2010/08/10 06:53
K04W 100653Z AUTO 00000KT 10SM SCT002 20/19 A2996 RMK AO2 T02000193

2010/08/10 06:55
K0A9 100655Z AUTO 05004KT 10SM CLR 22/19 A3007 RMK

2010/08/10 06:53
K4BM 100653Z AUTO 28005KT 10SM 07/06 A3056 RMK AO2

2010/08/10 06:52
K5SM 100652Z AUTO 00000KT 10SM 08/03 A3052 RMK AO2

2010/08/10 06:54
K7BM 100654Z AUTO 30003KT 10SM CLR 13/03 A3045 RMK AO2

2010/08/10 06:53
KAIT 100653Z AUTO 00000KT 7SM CLR 18/16 A2996 RMK AO2

2010/08/10 06:55
KARW 100655Z AUTO 00000KT 10SM CLR 27/23 A2999 RMK AO2

2010/08/10 06:54
KAVP 100654Z 00000KT 10SM SCT110 23/18 A2996 RMK AO2 SLP133 T02330183 $

2010/08/10 06:53
KBBB 100653Z AUTO 13005KT 10SM CLR 23/22 A2996 RMK AO2

2010/08/10 06:55
KBDN 100655Z AUTO 00000KT 10SM CLR 15/03 A2999 RMK AO2

2010/08/10 06:58
KBDU 100658Z AUTO 00000KT 10SM CLR 18/16 A3012 RMK AO2

2010/08/10 06:56
KBMI 100656Z AUTO 20006KT 9SM TS CLR 24/22 A2997 RMK AO2 PWINO T02440222 LTG DSNT ALQDS WSHFT 0608 SLP131 $

2010/08/10 06:56
KBOK 100656Z AUTO 16004KT 5SM BR OVC002 12/11 A2995 RMK AO2 T01160111 401550111 SLP141

2010/08/10 06:53
KBTR 100653Z 00000KT 9SM FEW004 SCT020 BKN200 24/24 A2993 RMK AO2 SLP133 T02440244

2010/08/10 06:54
KBTV 100654Z 00000KT 5SM BR CLR 18/18 A2991 RMK AO2 SLP127 T01830183

2010/08/10 06:54
KC29 100654Z AUTO 00000KT M1/4SM VV000 21/19 A2996 RMK AO2 T02060194

2010/08/10 06:57
KCCU 100657Z AUTO 20011G20KT 10SM CLR 08/00 A3059 RMK AO2

2010/08/10 06:55
KCEF 100655Z AUTO 00000KT 7SM -RA BKN065 OVC080 22/21 A2992 RMK AO2 DZB0559E0608 CIG 019 RWY05 SLP131 P0007 T02180214 $

2010/08/10 06:53
KCHA 100653Z 12003KT 10SM CLR 28/22 A2999 RMK AO2 SLP145 T02780222 $

2010/08/10 06:55
KCIC 100655Z AUTO 15003KT 10SM CLR 23/09 A2982 RMK AO1

2010/08/10 06:55
KCMA 100655Z 00000KT 10SM CLR 15/13 A2990 RMK AO2 SLP132 T01500128

2010/08/10 06:55
KCNK 100655Z AUTO 18011KT 10SM CLR 28/21 A2988 RMK AO2 SLP096 T02780206

2010/08/10 07:02
KCPW 100702Z AUTO 23011KT 10SM CLR 07/01 A3058 RMK AO2

2010/08/10 06:53
KDAB 100653Z 13005KT 10SM FEW020 27/23 A2994 RMK AO2 SLP136 T02670233

2010/08/10 06:55
KDCM 100655Z AUTO 24003KT 7SM CLR 23/23 A3004 RMK AO2

2010/08/10 06:55
KDLH 100655Z 00000KT 10SM CLR 21/18 A2998 RMK AO2 SLP146 T02110183

2010/08/10 06:55
KEAT 100655Z AUTO 29014KT 10SM CLR 18/07 A2983 RMK AO2 SLP092 T01830072

2010/08/10 06:55
KEDC 100655Z AUTO 20005KT 10SM CLR 27/24 A2995 RMK AO1

2010/08/10 06:50
KEFD 100650Z 23003KT 10SM FEW250 28/25 A2993

2010/08/10 06:55
KEIK 100655Z AUTO 28004KT 7SM CLR 16/15 A3011 RMK AO2

2010/08/10 06:55
KEOE 100655Z AUTO 00000KT 10SM CLR 23/22 A3006 RMK AO2

2010/08/10 06:53
KFFM 100653Z AUTO 12004KT 10SM CLR 24/21 A2990 RMK AO2

2010/08/10 06:54
KFGN 100654Z AUTO 00000KT 10SM CLR 24/22 A2988 RMK AO2

2010/08/10 06:55
KFMH 100655Z AUTO 30008KT 2 1/2SM RA FEW003 SCT025 BKN039 21/20 A2994 RMK AO2 LTG DSNT NW-NE P0016

2010/08/10 06:52
KGDB 100652Z AUTO 10003KT 10SM CLR 23/22 A2993 RMK AO2 T02300220

2010/08/10 06:53
KGHW 100653Z AUTO 09004KT 7SM CLR 21/19 A2997 RMK AO2

2010/08/10 06:55
KGPI 100655Z AUTO 00000KT 10SM CLR 15/10 A2984 RMK AO2 SLP089 T01500100 402830072 $

2010/08/10 06:54
KGSO 100654Z 20006KT 8SM CLR 25/21 A3004 RMK AO2 SLP160 T02500211

2010/08/10 06:55
KGUS 100655Z AUTO 04003KT 9SM R23/5500VP6000FT CLR 22/22 A2996 RMK AO2 SLP138 T02250225

2010/08/10 06:55
KHVS 100655Z AUTO 00000KT 5SM CLR 23/ A3003 RMK AO2

2010/08/10 06:55
KIFP 100655Z AUTO 00000KT 10SM CLR 32/05 A2976 RMK AO2

2010/08/10 06:55
KIRK 100655Z AUTO 19007KT 10SM CLR 27/26 A2990 RMK AO2 SLP119 T02720256

2010/08/10 06:55
KLIC 100655Z AUTO 00000KT 10SM CLR 15/15 A3013 RMK AO2 SLP130 T01500150 402890150

2010/08/10 06:55
KLLJ 100655Z AUTO 23003KT 10SM SCT095 BKN120 11/09 A3008 RMK AO2 LTG DSNT NW SLP149 T01110094 401890111 $

2010/08/10 06:55
KLQK 100655Z AUTO 00000KT 1 3/4SM BR SCT120 24/23 A3004 RMK AO2 VIS 1V5 T02400232 PNO

2010/08/10 06:55
KLRF 100655Z AUTO 00000KT 10SM CLR 28/26 A2992 RMK AO2 SLP130 T02800260

2010/08/10 06:55
KLRO 100655Z AUTO 00000KT 9SM CLR 24/24 A3000 RMK AO2

2010/08/10 06:55
KLUX 100655Z AUTO 00000KT 7SM CLR 23/23 A3004 RMK AO2

2010/08/10 06:54
KWAL 100654Z AUTO 24006KT 10SM CLR 24/22 A2997 RMK AO2 SLP146 T02390217 TSNO

2010/08/10 06:54
KROC 100654Z 22003KT 2 1/2SM BR BKN060 OVC085 21/20 A2994 RMK AO2 SLP136 T02060200

2010/08/10 06:54
KFWA 100654Z 00000KT 1/4SM FG CLR 23/22 A2997 RMK AO2 SLP142 R23/3000FT T02280222

2010/08/10 06:53
KRTN 100653Z AUTO 06004KT 10SM CLR 16/14 A3021 RMK AO2 SLP131 T01560139 403170156 TSNO

2010/08/10 06:54
KRFD 100654Z 00000KT 8SM FEW026 24/22 A2996 RMK AO2 SLP138 T02400220 PNO $

2010/08/10 06:55
KDRA 100655Z AUTO 04003KT 10SM CLR 23/M09 A2993 RMK AO2 SLP085 T02331089 TSNO

2010/08/10 06:55
KANJ 100655Z AUTO 31003KT 5SM BR FEW036 20/19 A2995 RMK AO2 SLP138 T02000189

2010/08/10 06:55
KINL 100655Z AUTO 00000KT 10SM FEW090 18/18 A2994 RMK AO2 VIS 1 RWY 31 SLP135 T01780178 $

2010/08/10 06:55
KAST 100655Z AUTO 22004KT 10SM OVC022 13/12 A3001 RMK AO2 SLP163 T01330117

2010/08/10 06:53
KRQE 100653Z AUTO 00000KT 10SM CLR 13/10 A3026 RMK AO2 SLP137 T01280100 402610106 TSNO

2010/08/10 06:55
KMBG 100655Z AUTO 14008KT 10SM CLR 24/21 A2983 RMK AO2 SLP086 T02390211 TSNO

2010/08/10 06:55
KPOE 100655Z AUTO 00000KT 10SM CLR 26/23 A2993 RMK AO2 SLP133 T02610233

2010/08/10 06:55
KVBG 100655Z AUTO 05004KT 10SM OVC003 13/12 A2993 RMK AO2 SLP128 T01280117 401780122 TSNO CHINO RWY12 VISNO RWY12 $

2010/08/10 06:55
KAAT 100655Z AUTO 25008KT 10SM CLR 13/04 A3001 RMK AO2 SLP119 T01330039 TSNO

2010/08/10 06:56
KABQ 100656Z 00000KT 10SM FEW100 24/07 A3014 RMK AO2 SLP106 T02390072 403170178

2010/08/10 06:56
KSDF 100656Z 00000KT 8SM CLR 29/23 A2995 RMK AO2 SLP136 T02890233

2010/08/10 06:55
KHON 100655Z AUTO 14005KT 8SM OVC028 24/23 A2986 RMK AO2 SLP098 T02440228 TSNO

2010/08/10 06:55
KPHP 100655Z AUTO 18004KT 10SM OVC120 23/17 A2987 RMK AO2 SLP090 T02280167 403560161 TSNO

2010/08/10 06:56
TJSJ 100656Z 12005KT 10SM SCT050 27/24 A2994 RMK AO2 RAB08E19 SLP137 OCNL LTGIC DSNT N-SW CB DSNT N-SW P0000 T02670244 $

2010/08/10 06:56
KCHS 100656Z 00000KT 10SM CLR 27/25 A3001 RMK AO2 SLP160 T02670250

2010/08/10 06:56
KJAX 100656Z 06003KT 10SM FEW022 26/23 A2995 RMK AO2 SLP142 T02560233

2010/08/10 06:56
KSHV 100656Z 18003KT 10SM SCT290 28/23 A2991 RMK AO2 SLP124 T02780228

2010/08/10 06:55
KCAO 100655Z AUTO 20006KT 10SM SCT120 22/16 A3010 RMK AO2 SLP108 T02170161 403440189 TSNO

2010/08/10 06:54
KONZ 100654Z AUTO 00000KT 2SM BR CLR 22/21 A2994 RMK AO2

2010/08/10 06:53
KTEW 100653Z AUTO 00000KT 3/4SM BR OVC001 18/18 A2996 RMK AO2

2010/08/10 06:50
KCVH 100650Z AUTO 27005KT 10SM OVC009 13/12 A2994 RMK AO1

2010/08/10 06:56
KDVP 100656Z AUTO 10004KT 5SM BR CLR 23/22 A2995 RMK AO2 T02320218

2010/08/10 06:54
KDYT 100654Z AUTO 00000KT 10SM CLR 24/22 A2994 RMK AO2

2010/08/10 06:59
KFSO 100659Z AUTO 00000KT 4SM BR CLR 17/17 A2991 RMK AO2

2010/08/10 06:54
KFBL 100654Z AUTO 00000KT 7SM CLR 21/19 A2995 RMK AO2 LTG DSNT S

2010/08/10 06:58
KLYV 100658Z AUTO 11003KT 7SM CLR 24/22 A2990 RMK AO2

2010/08/10 06:56
KEFK 100656Z AUTO 00000KT 1 3/4SM BR VV007 15/14 A2994 RMK AO2

2010/08/10 06:54
KRRT 100654Z AUTO 21005KT 10SM CLR 23/21 A2991 RMK AO2 TSNO

2010/08/10 06:55
KTOB 100655Z AUTO 11003KT 2SM BR CLR 21/19 A2996 RMK AO2

2010/08/10 06:54
KLXL 100654Z AUTO 00000KT 10SM CLR 19/18 A2994 RMK AO2

2010/08/10 06:52
KEVM 100652Z AUTO 00000KT 1/4SM FG VV002 17/16 A2996 RMK AO1

2010/08/10 06:54
KELO 100654Z AUTO 00000KT 10SM CLR 18/17 A2998 RMK AO2

2010/08/10 06:55
KANE 100655Z AUTO 00000KT 10SM CLR 22/21 A2995 RMK AO2

2010/08/10 06:55
KROX 100655Z AUTO 19006KT 10SM CLR 22/21 A2990 RMK AO2

2010/08/10 06:55
KSYN 100655Z AUTO 00000KT 1 1/4SM BR VV007 22/21 A2993 RMK AO2 VIS 1/2V2 1/2 T02160205

2010/08/10 06:56
KVVV 100656Z AUTO 12006KT 10SM CLR 24/22 A2991 RMK AO2

2010/08/10 06:55
KROS 100655Z AUTO 00000KT 10SM CLR 19/19 A2996 RMK AO2 T01940186

2010/08/10 06:52
KHCD 100652Z AUTO 11003KT 10SM CLR 22/21 A2994 RMK AO2 T02210205

2010/08/10 06:53
KSGS 100653Z AUTO 00000KT 10SM CLR 24/22 A2994 RMK AO2 T02430215

2010/08/10 06:52
KMJQ 100652Z AUTO 12003KT 7SM SCT023 22/22 A2994 RMK AO2

2010/08/10 06:55
KHCO 100655Z AUTO 17006KT 10SM CLR 23/22 A2990 RMK AO2

2010/08/10 06:54
KLVN 100654Z AUTO 00000KT 1/4SM FG VV002 19/19 A2994 RMK AO2 VIS M1/4V3

2010/08/10 06:53
KPEX 100653Z AUTO 09004KT 10SM CLR 24/21 A2995 RMK AO2 T02420211

2010/08/10 06:55
KJMR 100655Z AUTO 00000KT 4SM BR CLR 19/18 A2998 RMK AO2

2010/08/10 06:54
KJKJ 100654Z AUTO 16004KT 10SM CLR 23/21 A2990 RMK AO2

2010/08/10 06:54
KMVE 100654Z AUTO 15003KT 7SM CLR 23/22 A2991 RMK AO2 LTG DSNT SE

2010/08/10 06:53
KTKC 100653Z AUTO 00000KT 10SM BKN038 OVC044 23/22 A2993 RMK AO2 T02300217

2010/08/10 06:54
KGYL 100654Z AUTO 00000KT 10SM CLR 22/21 A2993 RMK AO2 T02220207

2010/08/10 06:54
KDXX 100654Z AUTO 00000KT 10SM SCT031 22/22 A2991 RMK AO2

2010/08/10 06:51
KHZX 100651Z AUTO 00000KT 10SM CLR 18/18 A2998 RMK AO2

2010/08/10 06:52
KCDD 100652Z AUTO 00000KT 5SM BR CLR 19/19 A2997 RMK AO2

2010/08/10 06:54
KSAZ 100654Z AUTO 00000KT 10SM CLR 21/21 A2996 RMK AO2

2010/08/10 06:51
KONA 100651Z AUTO 00000KT M1/4SM FG OVC001 23/22 A2993 RMK AO2

2010/08/10 06:53
KFOZ 100653Z AUTO 00000KT 3/4SM BR VV005 19/18 A2997 RMK AO2 VIS 1/2V2

2010/08/10 06:53
KAQP 100653Z AUTO 14004KT 10SM CLR 23/23 A2991 RMK AO2

2010/08/10 06:54
KETH 100654Z AUTO 13006KT 10SM CLR 19/18 A2995 RMK AO2

2010/08/10 06:54
KOVL 100654Z AUTO 13004KT 10SM CLR 22/20 A2992 RMK AO2 T02230198

2010/08/10 06:53
KLJF 100653Z AUTO 00000KT 10SM CLR 22/22 A2994 RMK AO2

2010/08/10 06:56
KXVG 100656Z AUTO 00000KT 5SM BR CLR 17/17 A2995 RMK AO2

2010/08/10 06:54
KORB 100654Z AUTO 00000KT 10SM CLR 21/19 A2994 RMK AO2

2010/08/10 06:51
KMZH 100651Z AUTO 00000KT 1/4SM FG OVC001 18/18 A2995 RMK AO2

2010/08/10 06:53
KBFW 100653Z AUTO 00000KT 10SM CLR 17/16 A2996 RMK AO2

2010/08/10 06:49
KVWU 100649Z AUTO 00000KT 10SM CLR 20/18 A2994 RMK AO2

2010/08/10 06:50
KAEL 100650Z AUTO 11003KT 10SM CLR 23/22 A2995 RMK AO2 LTG DSNT SE

2010/08/10 06:54
KOWA 100654Z AUTO 10003KT 7SM CLR 22/21 A2994 RMK AO2

2010/08/10 06:53
K29G 100653Z AUTO 00000KT 10SM BKN048 BKN065 BKN110 24/19 A2997 RMK AO2 T02400186 PWINO

2010/08/10 06:53
KMRT 100653Z AUTO 23004KT 7SM SCT070 22/20 A3000 RMK AO2 T02240202

2010/08/10 06:54
KIKW 100654Z AUTO 30003KT 7SM CLR 22/20 A2994 RMK AO2 T02150202

2010/08/10 06:56
KP53 100656Z AUTO 19004KT 18/17 A2996 RMK AO2 SLP145 T01780172 PWINO TSNO

2010/08/10 06:56
KWMC 100656Z AUTO 27008KT 10SM CLR 19/M01 A2994 RMK AO2 SLP087 P0001 T01941006

2010/08/10 06:56
KLWS 100656Z AUTO 13004KT 10SM CLR 19/03 A2978 RMK AO2 SLP076 T01940028

2010/08/10 06:56
KSXT 100656Z AUTO 01010KT 8SM CLR 11/08 A3000 RMK AO2 SLP128 T01110078 TSNO

2010/08/10 06:56
KCAE 100656Z 00000KT 6SM BR CLR 24/23 A3001 RMK AO2 SLP159 T02440228

2010/08/10 06:56
KNXP 100656Z AUTO 00000KT CLR 26/M01 A2993 RMK AO2 SLP096 T02561006 $

2010/08/10 06:56
KP28 100656Z AUTO 17008KT 29/20 A2990 RMK AO2 SLP100 T02890200 PWINO TSNO

2010/08/10 06:56
KCDJ 100656Z AUTO 00000KT 28/26 A2989 RMK AO2 SLP103 T02830256 PWINO TSNO

2010/08/10 06:56
KGFA 100656Z AUTO 21009KT 10SM CLR 18/10 A2985 RMK AO2 SLP107 T01780100

2010/08/10 06:53
KRNM 100653Z AUTO 27003KT 10SM CLR 12/09 A2992 RMK AO2 SLP121 T01220094 TSNO

2010/08/10 06:54
KWAL 100654Z AUTO 24006KT 10SM CLR 24/22 A2997 RMK AO2 SLP146 T02390217 TSNO

2010/08/10 06:54
KMTP 100654Z AUTO 32004KT 23/20 A2993 RMK AO2 SLP136 T02330200 PWINO TSNO

2010/08/10 06:54
KWAL 100654Z AUTO 24006KT 10SM CLR 24/22 A2997 RMK AO2 SLP146 T02390217 TSNO

2010/08/10 06:56
KNQI 100656Z AUTO 00000KT 8SM CLR 28/26 A2992 RMK AO2 SLP128 T02830256 $ 

2010/08/10 07:02
KFKA 100702Z AUTO 00000KT 7SM CLR 24/23 A2997 RMK AO2 LTG DSNT SW T02350225

2010/08/10 06:55
KBAD 100655Z AUTO 15005KT 10SM CLR 26/23 A2992 RMK AO2 SLP131 T02640233

2010/08/10 06:55
KGUS 100655Z AUTO 04003KT 9SM R23/5500VP6000FT CLR 22/22 A2996 RMK AO2 SLP138 T02250225

2010/08/10 06:55
KHST 100655Z AUTO 16004KT 10SM SCT060 26/24 A2988 RMK AO2 CLDS LWR RWY23 SLP120 T02640239

2010/08/10 06:55
KIAB 100655Z AUTO 16010KT 10SM CLR 29/21 A2991 RMK AO2 SLP111 T02890206 $

2010/08/10 06:55
KMMT 100655Z AUTO 00000KT 9SM R32/5500VP6000FT CLR 23/23 A3002 RMK AO2 SLP163 T02310225

2010/08/10 06:52
KNRB 100652Z 14010KT 10SM FEW022 28/22 A2995 RMK AO2 SLP142 T02830222

2010/08/10 06:55
KOFF 100655Z AUTO 09004KT 10SM CLR 26/26 A2985 RMK AO2 SLP088 T02600260 $

2010/08/10 06:55
KSUU 100655Z AUTO 25019G25KT 10SM CLR 13/11 A2983 RMK AO2 PK WND 24027/0602 SLP104 T01340113 RVRNO $

2010/08/10 06:55
KSZL 100655Z AUTO 17005KT 10SM CLR 27/25 A2991 RMK AO2 SLP119 T02710246 PNO $

2010/08/10 06:54
KRSP 100654Z AUTO VRB03KT 7SM CLR 23/19 A3001 RMK AO2 SLP150 T02330189 $

2010/08/10 06:55
KBAD 100655Z AUTO 15005KT 10SM CLR 26/23 A2992 RMK AO2 SLP131 T02640233

2010/08/10 06:55
KBLV 100655Z AUTO 14003KT 10SM CLR 26/26 A2994 RMK AO2 SLP135 T02650258

2010/08/10 06:55
KCBM 100655Z AUTO 00000KT 10SM CLR 25/25 A2995 RMK AO2 SLP141 T02510249 $

2010/08/10 06:55
KCEF 100655Z AUTO 00000KT 7SM -RA BKN065 OVC080 22/21 A2992 RMK AO2 DZB0559E0608 CIG 019 RWY05 SLP131 P0007 T02180214 $

2010/08/10 06:55
KDAA 100655Z AUTO 13003KT 10SM CLR 23/21 A2994 RMK AO2 SLP141 T02340210

2010/08/10 06:55
KEDW 100655Z AUTO 23010KT 10SM CLR 23/04 A2988 RMK AO2 SLP070 T02280041

2010/08/10 06:55
KGRF 100655Z AUTO 19007KT 160V230 10SM OVC011 14/11 A2998 RMK AO2 SLP152 T01390113

2010/08/10 06:55
KGUS 100655Z AUTO 04003KT 9SM R23/5500VP6000FT CLR 22/22 A2996 RMK AO2 SLP138 T02250225

2010/08/10 06:55
KHMN 100655Z 00000KT 7SM R16/4500VP6000FT CLR 23/11 A3002 RMK AO2A SLP079 T02350113 403380185 $

2010/08/10 06:55
KHST 100655Z AUTO 16004KT 10SM SCT060 26/24 A2988 RMK AO2 CLDS LWR RWY23 SLP120 T02640239

2010/08/10 06:55
KIAB 100655Z AUTO 16010KT 10SM CLR 29/21 A2991 RMK AO2 SLP111 T02890206 $

2010/08/10 06:55
KLRF 100655Z AUTO 00000KT 10SM CLR 28/26 A2992 RMK AO2 SLP130 T02800260

2010/08/10 06:55
KMGE 100655Z AUTO 00000KT 10SM CLR 26/21 A3002 RMK AO2 SLP154 T02600214 $

2010/08/10 06:55
KMMT 100655Z AUTO 00000KT 9SM R32/5500VP6000FT CLR 23/23 A3002 RMK AO2 SLP163 T02310225

2010/08/10 06:55
KBIX 100655Z AUTO 04005KT 10SM CLR 26/26 A2992 RMK AO2 SLPNO T02610256 $

2010/08/10 06:55
KCBM 100655Z AUTO 00000KT 10SM CLR 25/25 A2995 RMK AO2 SLP141 T02510249 $

2010/08/10 06:55
KDAA 100655Z AUTO 13003KT 10SM CLR 23/21 A2994 RMK AO2 SLP141 T02340210

2010/08/10 06:53
KDTS 100653Z AUTO 35006KT 10SM CLR 28/24 A2990 RMK AO2 SLP125 T02780239

2010/08/10 06:55
KEDW 100655Z AUTO 23010KT 10SM CLR 23/04 A2988 RMK AO2 SLP070 T02280041

2010/08/10 06:55
KMTC 100655Z AUTO 00000KT 2SM R19/2200VP6000FT DZ BR CLR 21/21 A2994 RMK AO2 VIS 1V5 SLP142 P0000 T02070207 $

2010/08/10 06:55
KMUI 100655Z AUTO 00000KT 10SM BKN120 BKN170 23/22 A2994 RMK AO2 SLP134 T02340221 $

2010/08/10 06:55
KRIV 100655Z AUTO 00000KT 10SM CLR 16/11 A2992 RMK AO2 SLP127 T01620113

2010/08/10 06:55
KSLI 100655Z AUTO 00000KT 10SM CLR 15/14 A2991 RMK AO2 SLP131 T01530137

2010/08/10 06:55
KWRI 100655Z AUTO 21004KT 9SM CLR 23/22 A2991 RMK AO2 SLP130 T02320219 $

2010/08/10 06:53
PABI 100653Z AUTO 20014G20KT 10SM FEW100 16/07 A2966 RMK AO2 SLP042 T01610067 TSNO

2010/08/10 06:55
KAFF 100655Z AUTO 36006KT 10SM BKN110 15/12 A3019 RMK AO2 SLP127 T01460117 402340138

2010/08/10 06:55
KDYS 100655Z AUTO 00000KT 10SM FEW220 27/19 A2996 RMK AO2 SLP118 T02670192 $

2010/08/10 06:55
KEND 100655Z AUTO 22008KT 10SM CLR 27/20 A2992 RMK AO2 SLP112 T02750202 $

2010/08/10 06:55
KFAF 100655Z AUTO 19003KT 10SM CLR 26/26 A2997 RMK AO2 SLP151 T02570257 $

2010/08/10 06:55
KFBG 100655Z VRB04KT 10SM CLR 25/24 A3001 RMK AO2A SLP160 T02550241 $

2010/08/10 06:55
KFSI 100655Z AUTO 19008KT 10SM CLR 29/20 A2991 RMK AO2 SLP099 T02910202

2010/08/10 06:55
KSMN 100655Z AUTO 12006KT 10SM FEW050 SCT070 BKN075 14/11 A3006 RMK AO1 TSB06E21

2010/08/10 06:55
KSPA 100655Z AUTO 00000KT 10SM CLR 23/23 A3003 RMK AO2

2010/08/10 06:55
KSPL 100655Z AUTO 14009KT 29/27 A2990 RMK AO2 PWINO PNO

2010/08/10 06:55
KSQI 100655Z AUTO 10005KT 9SM FEW036 SCT044 24/23 A2995 RMK AO1

2010/08/10 06:55
KSUE 100655Z AUTO 00000KT 4SM CLR 21/21 A2996 RMK AO1

2010/08/10 06:54
KTAD 100654Z AUTO 31004KT 10SM CLR 18/12 A3013 RMK AO2 SLP116 T01830122 402720150

2010/08/10 06:55
KTPL 100655Z 17008KT 10SM CLR 26/22 A2994 RMK AO1

2010/08/10 06:54
KTQE 100654Z AUTO 00000KT 4SM BR CLR 25/24 A2984 RMK AO2 SLP090 T02500244

2010/08/10 06:55
KTSP 100655Z AUTO RMK AO2 PWINO PNO FZRANO TSNO

2010/08/10 06:55
KTVF 100655Z AUTO 16005KT 10SM CLR 21/18 A2991 RMK AO1

2010/08/10 06:56
KUCP 100656Z AUTO 00000KT 9SM FEW095 22/20 A2998 RMK AO2 T02160200 SLP155

2010/08/10 06:54
KUIN 100654Z AUTO 16005KT 10SM CLR 28/26 A2991 RMK AO2 SLP118 T02780256

2010/08/10 06:54
KUZA 100654Z AUTO 00000KT 6SM BR CLR 23/21 A3004 RMK AO2 SLP157 T02330211 $

2010/08/10 06:54
KVAY 100654Z AUTO 00000KT 7SM CLR 24/21 A2993 RMK AO2 SLP135 T02390211

2010/08/10 06:55
KVBT 100655Z AUTO 00000KT 10SM CLR 25/21 A2995 RMK AO1

2010/08/10 06:50
KEFD 100650Z 23003KT 10SM FEW250 28/25 A2993

2010/08/10 06:53
PASC 100653Z 06016KT 1 1/4SM R05/5500VP6000FT BR OVC003 03/03 A2973 RMK AO2 SLP068 T00330028

2010/08/10 06:53
TIST 100653Z AUTO 09005KT 10SM CLR 28/24 A2992 RMK AO2 SLP133 T02830244 TSNO

2010/08/10 06:53
TISX 100653Z AUTO 10004KT 10SM SCT021 SCT038 BKN055 27/24 A2993 RMK AO2 RAB42E52 SLP134 P0000 T02720244 TSNO

2010/08/10 06:54
KBOS 100654Z 19004KT 4SM -TSRA BKN048 OVC110 19/19 A2991 RMK AO2 TSB54 SLP127 TS N MOV E P0004 T01940189

2010/08/10 06:53
KBRO 100653Z 17005KT 10SM CLR 28/26 A2991 RMK AO2 SLP128 T02830261

2010/08/10 06:53
KFLL 100653Z 15011KT 10SM SCT017 SCT044 26/23 A2988 RMK AO2 RAE05 SLP116 P0000 T02610233

2010/08/10 06:51
KJFK 100651Z 22005KT 9SM SCT140 BKN250 24/19 A2993 RMK AO2 SLP133 T02390194

2010/08/10 06:53
KMCO 100653Z 09005KT 10SM FEW250 25/23 A2992 RMK AO2 SLP131 T02500228

2010/08/10 06:53
KPBI 100653Z 16010KT 10SM -RA SCT023CB BKN035 BKN060 27/23 A2989 RMK AO2 RAB03E11B49 SLP121 CB OHD-N MOV N P0000 T02670227

2010/08/10 06:53
TIST 100653Z AUTO 09005KT 10SM CLR 28/24 A2992 RMK AO2 SLP133 T02830244 TSNO

2010/08/10 06:53
TISX 100653Z AUTO 10004KT 10SM SCT021 SCT038 BKN055 27/24 A2993 RMK AO2 RAB42E52 SLP134 P0000 T02720244 TSNO

2010/08/10 06:54
PAHN 100654Z AUTO 10011G15KT 10SM OVC015 14/11 A2995 RMK AO2 SLP145 T01440106 TSNO

2010/08/10 06:54
PAKN 100654Z 15011KT 10SM OVC021 11/09 A2961 RMK AO2 RAE20 SLP026 P0000 T01110094

2010/08/10 06:55
PAMK 100655Z AUTO 16009KT 10SM SCT021 BKN026 OVC090 11/08 A2944 RMK TSNO VIA AWOS PHONE

2010/08/10 06:53
KRTN 100653Z AUTO 06004KT 10SM CLR 16/14 A3021 RMK AO2 SLP131 T01560139 403170156 TSNO

2010/08/10 06:55
KHFF 100655Z AUTO 00000KT 10SM CLR 24/23 A3004 RMK AO2 SLP168 T02410231 $

2010/08/10 06:56
KSDF 100656Z 00000KT 8SM CLR 29/23 A2995 RMK AO2 SLP136 T02890233

2010/08/10 06:53
K04W 100653Z AUTO 00000KT 10SM SCT002 20/19 A2996 RMK AO2 T02000193

2010/08/10 06:55
K0A9 100655Z AUTO 05004KT 10SM CLR 22/19 A3007 RMK

2010/08/10 06:52
K5SM 100652Z AUTO 00000KT 10SM 08/03 A3052 RMK AO2

2010/08/10 06:54
K7BM 100654Z AUTO 30003KT 10SM CLR 13/03 A3045 RMK AO2

2010/08/10 06:53
KAIT 100653Z AUTO 00000KT 7SM CLR 18/16 A2996 RMK AO2

2010/08/10 06:55
KARW 100655Z AUTO 00000KT 10SM CLR 27/23 A2999 RMK AO2

2010/08/10 06:53
KBBB 100653Z AUTO 13005KT 10SM CLR 23/22 A2996 RMK AO2

2010/08/10 06:55
KBDN 100655Z AUTO 00000KT 10SM CLR 15/03 A2999 RMK AO2

2010/08/10 06:58
KBDU 100658Z AUTO 00000KT 10SM CLR 18/16 A3012 RMK AO2

2010/08/10 06:56
KBMI 100656Z AUTO 20006KT 9SM TS CLR 24/22 A2997 RMK AO2 PWINO T02440222 LTG DSNT ALQDS WSHFT 0608 SLP131 $

2010/08/10 06:56
KBOK 100656Z AUTO 16004KT 5SM BR OVC002 12/11 A2995 RMK AO2 T01160111 401550111 SLP141

2010/08/10 06:54
KC29 100654Z AUTO 00000KT M1/4SM VV000 21/19 A2996 RMK AO2 T02060194

2010/08/10 06:57
KCCU 100657Z AUTO 20011G20KT 10SM CLR 08/00 A3059 RMK AO2

2010/08/10 06:55
KCIC 100655Z AUTO 15003KT 10SM CLR 23/09 A2982 RMK AO1

2010/08/10 06:55
KPOE 100655Z AUTO 00000KT 10SM CLR 26/23 A2993 RMK AO2 SLP133 T02610233

2010/08/10 06:55
KVBG 100655Z AUTO 05004KT 10SM OVC003 13/12 A2993 RMK AO2 SLP128 T01280117 401780122 TSNO CHINO RWY12 VISNO RWY12 $

2010/08/10 06:55
KBAB 100655Z AUTO 13004KT 10SM CLR 20/11 A2981 RMK AO2 SLP096 T02010111 $

2010/08/10 06:55
KCOF 100655Z AUTO 13011KT 10SM FEW020 26/ A2993 RMK AO2 SLP137 T0264

2010/08/10 06:55
KDOV 100655Z AUTO 19010KT 10SM CLR 24/24 A2993 RMK AO2 SLP137 T02440236

2010/08/10 06:55
KGTB 100655Z AUTO 25004KT 10SM SCT009 BKN025 21/20 A2994 RMK AO2 CIG 009 RWY03 SLP136 T02100200

2010/08/10 06:55
KMXF 100655Z AUTO 00000KT 10SM CLR 27/25 A2994 RMK AO2 SLP138 T02700251

2010/08/10 06:54
KNFG 100654Z 00000KT 6SM BR FEW015 11/09 A2992 RMK AO2 SLP129 T01110094

2010/08/10 06:52
KNFW 100652Z AUTO 19008KT 10SM CLR 30/19 A2994 RMK AO2 SLP123 T03000194

2010/08/10 06:52
KNHK 100652Z AUTO 21007KT 10SM CLR 26/22 A2995 RMK AO2 SLP143 T02610217 $

2010/08/10 06:53
KNIP 100653Z 13007KT 10SM FEW020 28/24 A2995 RMK AO2 SLP138 T02780244

2010/08/10 06:54
KNKT 100654Z AUTO 20005KT 10SM CLR 24/23 A3002 RMK AO2 SLP163 T02440233

2010/08/10 06:53
KNQX 100653Z AUTO 25005KT 10SM FEW060 27/23 A2985 RMK AO2 TSE0554B06E46 SLP107 T02670233 $

2010/08/10 06:55
KPOB 100655Z AUTO 25004KT 10SM CLR 25/25 A3001 RMK AO2 SLP162 T02510251 $

2010/08/10 06:55
KSSC 100655Z 00000KT 10SM CLR 25/24 A3000 RMK AO2A SLP158 T02500235 $

2010/08/10 06:55
KTIK 100655Z 17010KT 10SM CLR 27/21 A2993 RMK AO2A SLP118 T02740207

2010/08/10 06:55
PWAK 100655Z 06014G19KT 10SM SCT024 29/24 A3000 RMK AO2A

2010/08/10 06:55
KCEF 100655Z AUTO 00000KT 7SM -RA BKN065 OVC080 22/21 A2992 RMK AO2 DZB0559E0608 CIG 019 RWY05 SLP131 P0007 T02180214 $

2010/08/10 06:55
KGUS 100655Z AUTO 04003KT 9SM R23/5500VP6000FT CLR 22/22 A2996 RMK AO2 SLP138 T02250225

2010/08/10 06:55
KLRF 100655Z AUTO 00000KT 10SM CLR 28/26 A2992 RMK AO2 SLP130 T02800260

2010/08/10 06:55
KMMT 100655Z AUTO 00000KT 9SM R32/5500VP6000FT CLR 23/23 A3002 RMK AO2 SLP163 T02310225

2010/08/10 06:55
PWAK 100655Z 06014G19KT 10SM SCT024 29/24 A3000 RMK AO2A

2010/08/10 06:55
KADW 100655Z AUTO 22008KT 10SM CLR 24/21 A2995 RMK AO2 SLP141 T02440209 $

2010/08/10 06:55
KDLF 100655Z AUTO 12016KT 10SM CLR 30/23 A2994 RMK AO2 SLP119 T02960227

2010/08/10 06:55
KFCS 100655Z AUTO 02006KT 10SM BKN110 17/12 A3013 RMK AO2 SLP126 T01650120 402590155

2010/08/10 06:55
KFTK 100655Z AUTO 00000KT 10SM CLR 26/25 A2997 RMK AO2 SLP141 T02610249 $

2010/08/10 06:55
KHIF 100655Z 09016G21KT 10SM CLR 19/05 A3002 RMK AO2A SLP067 T01950049 402770179

2010/08/10 06:55
KLTS 100655Z AUTO 12006KT 10SM CLR 27/21 A2992 RMK AO2 SLP111 T02680205 $

2010/08/10 06:55
KMUO 100655Z AUTO 14010KT 10SM FEW130 18/14 A2988 RMK AO2 SLP092 T01850141 403130170

2010/08/10 06:55
KXMR 100655Z AUTO 12007KT 10SM CLR 26/24 A2993 RMK AO2 SLP138 T02580242

2010/08/10 06:55
PAEI 100655Z AUTO 06003KT 10SM BKN095 16/11 A2961 RMK AO2 SLP029 T01650107 $

2010/08/10 06:55
PHHI 100655Z AUTO 08008KT 10SM OVC040 24/17 A3011 RMK AO2 SLP183 T02400174 $

2010/08/10 06:55
KADW 100655Z AUTO 22008KT 10SM CLR 24/21 A2995 RMK AO2 SLP141 T02440209 $

2010/08/10 06:55
KCOF 100655Z AUTO 13011KT 10SM FEW020 26/ A2993 RMK AO2 SLP137 T0264

2010/08/10 06:55
KDOV 100655Z AUTO 19010KT 10SM CLR 24/24 A2993 RMK AO2 SLP137 T02440236

2010/08/10 06:55
KLFI 100655Z 23005KT 10SM CLR 25/23 A2997 RMK AO2A SLP152 T02540226

2010/08/10 06:55
KMCF 100655Z AUTO 08007KT 10SM SCT065 26/25 A2988 RMK AO2 SLP121 T02590251

2010/08/10 06:52
KNHK 100652Z AUTO 21007KT 10SM CLR 26/22 A2995 RMK AO2 SLP143 T02610217 $

2010/08/10 06:53
KNIP 100653Z 13007KT 10SM FEW020 28/24 A2995 RMK AO2 SLP138 T02780244

2010/08/10 06:54
KNKT 100654Z AUTO 20005KT 10SM CLR 24/23 A3002 RMK AO2 SLP163 T02440233

2010/08/10 06:53
KNQX 100653Z AUTO 25005KT 10SM FEW060 27/23 A2985 RMK AO2 TSE0554B06E46 SLP107 T02670233 $

2010/08/10 06:55
KPOB 100655Z AUTO 25004KT 10SM CLR 25/25 A3001 RMK AO2 SLP162 T02510251 $

2010/08/10 06:55
KSSC 100655Z 00000KT 10SM CLR 25/24 A3000 RMK AO2A SLP158 T02500235 $

2010/08/10 06:53
KBAF 100653Z 00000KT 6SM -RA BR FEW043 OVC090 22/21 A2992 RMK AO2 SLP128 P0007 T02170206

2010/08/10 06:53
KBUR 100653Z 09005KT 10SM CLR 18/13 A2990 RMK AO2 SLP114 T01780128

2010/08/10 06:53
KTOI 100653Z AUTO 00000KT 5SM BR CLR 24/23 A2996 RMK AO2 SLP139 T02390233

2010/08/10 06:53
PHJR 100653Z VRB04KT 10SM CLR 26/17 A3009 RMK AO2 SLP196 T02560172

2010/08/10 06:55
KMBL 100655Z AUTO 00000KT M1/4SM OVC001 20/19 A2997 RMK AO1

2010/08/10 06:54
KMFI 100654Z AUTO 05003KT 10SM CLR 22/19 A2998 RMK AO2 SLP145 T02170194

2010/08/10 06:54
KMGJ 100654Z AUTO 00000KT 10SM BKN080 BKN100 23/19 A2995 RMK AO2 SLP137 T02330189

2010/08/10 06:54
KMIV 100654Z AUTO 00000KT 9SM CLR 24/22 A2993 RMK AO2 SLP133 T02390217

2010/08/10 06:55
KMJX 100655Z AUTO 23007KT 10SM CLR 24/21 A2994 RMK AO1

2010/08/10 06:54
KMKC 100654Z 23003KT 10SM CLR 29/22 A2988 RMK AO2 SLP109 T02940222

2010/08/10 06:55
KMKT 100655Z AUTO 14006KT 10SM CLR 24/22 A2993 RMK AO1

2010/08/10 06:55
KMML 100655Z AUTO 14004KT 10SM BKN037 23/23 A2992 RMK AO1

2010/08/10 06:55
KMNI 100655Z AUTO 00000KT 10SM SCT014 25/25 A3001 RMK AO2

2010/08/10 06:55
KMNM 100655Z AUTO 00000KT 1 3/4SM CLR 22/20 A2996 RMK AO1

2010/08/10 06:54
KMOT 100654Z AUTO 07006KT 10SM OVC055 22/18 A2989 RMK AO2 PK WND 32033/0555 LTG DSNT NE TSE07 SLP112 T02220178

2010/08/10 06:55
KMRF 100655Z AUTO 05004KT 10SM CLR A3015 RMK AO1

2010/08/10 06:54
KMRY 100654Z AUTO 00000KT 10SM OVC005 12/10 A2994 RMK AO2 SLP152 T01170100

2010/08/10 06:55
KMSV 100655Z AUTO 01005KT 10SM FEW075 OVC100 21/18 A3000 RMK AO1

2010/08/10 06:55
KMTW 100655Z 00000KT 5SM CLR 21/21 A2995 RMK AO1

2010/08/10 06:54
KMVL 100654Z AUTO 00000KT 1/4SM FG VV001 17/17 A2995 RMK AO2 SLP138 T01720172

2010/08/10 06:55
KMVN 100655Z AUTO 00000KT 4SM SCT060 24/22 A2996 RMK AO1

2010/08/10 06:55
KOCH 100655Z AUTO 00000KT 10SM CLR 28/23 A2992 RMK AO1

2010/08/10 06:54
KOFP 100654Z AUTO 18004KT 10SM CLR 26/20 A2999 RMK AO2 SLP151 T02560200

2010/08/10 06:55
KOKK 100655Z AUTO 00000KT 4SM CLR 23/18 A2996 RMK AO1 54000

2010/08/10 06:54
KOLM 100654Z AUTO 22006KT 10SM OVC017 13/11 A2998 RMK AO2 SLP153 T01330111

2010/08/10 06:54
KOLS 100654Z AUTO 00000KT 10SM CLR 23/14 A3005 RMK AO2 SLP102 T02280144 403390183

2010/08/10 06:55
KOLU 100655Z AUTO 2SM OVC002 26/24 A2986 RMK AO1

2010/08/10 06:55
KOTG 100655Z AUTO 14004KT 7SM CLR 23/22 A2993 RMK AO1

2010/08/10 06:55
KOTH 100655Z 35009KT 10SM OVC015 13/11 A3005 RMK AO1

2010/08/10 06:54
KPHF 100654Z 23005KT 10SM CLR 25/24 A2998 RMK AO2 SLP151 T02500239 $

2010/08/10 06:54
KPHL 100654Z 20007KT 10SM CLR 26/21 A2993 RMK AO2 SLP136 T02610211

2010/08/10 06:55
KPIB 100655Z AUTO 00000KT 5SM CLR 24/22 A2996 RMK AO1

2010/08/10 06:54
KPLN 100654Z AUTO 00000KT 1/4SM FG OVC004 19/19 A2996 RMK AO2 SLP143 T01890189

2010/08/10 06:54
KPNE 100654Z 22005KT 10SM CLR 27/21 A2994 RMK AO2 SLP137 T02670211

2010/08/10 06:55
KPRX 100655Z 20004KT 10SM CLR 27/22 A2991 RMK AO1

2010/08/10 06:54
KPSF 100654Z AUTO 00000KT 6SM BR BKN055 OVC080 21/19 A2996 RMK AO2 SLP113 T02060189

2010/08/10 06:55
KPTN 100655Z AUTO 06005KT 10SM CLR 24/14 A2995 RMK AO1

2010/08/10 06:55
KPTV 100655Z AUTO 17004KT 10SM CLR 21/13 A2984 RMK AO1

2010/08/10 06:54
KPTW 100654Z AUTO 00000KT 8SM CLR 26/21 A2994 RMK AO2 SLP134 T02610206

2010/08/10 06:55
KPVC 100655Z 00000KT 3SM FEW047 SCT060 BKN090 20/18 A2991 RMK AO1 LTG DSNT SW P0010

2010/08/10 06:55
KPVU 100655Z 11004KT 10SM CLR 16/05 A3005 RMK AO1

2010/08/10 06:55
KVIS 100655Z AUTO 28004KT 10SM CLR 21/16 A2981 RMK AO1

2010/08/10 06:54
KVSF 100654Z AUTO 00000KT 3SM BR FEW037 OVC060 21/20 A2993 RMK AO2 RAB14E38 SLP131 P0000 T02060200

2010/08/10 06:54
KVTA 100654Z AUTO 00000KT 4SM BR FEW080 21/19 A2997 RMK AO2 SLP140 T02060194

2010/08/10 06:54
KWLD 100654Z AUTO 16007KT 10SM CLR 28/21 A2992 RMK AO2 SLP113 T02780211

2010/08/10 06:55
KWVL 100655Z AUTO 31006KT 10SM BKN085 21/17 A2983 RMK AO1

2010/08/10 06:55
KX40 100655Z AUTO 00000KT 10SM CLR 27/25 A2992 RMK AO2 T02650250

2010/08/10 06:55
KYKN 100655Z AUTO 07006KT 5SM FEW005 OVC011 24/23 A2985 RMK AO1 LTG DSNT SE

2010/08/10 06:55
KGTR 100655Z 00000KT 3SM CLR 25/24 A2995 RMK AO1

2010/08/10 06:55
KGTU 100655Z 20010KT 10SM CLR 28/21 A2998 RMK AO1

2010/08/10 06:55
KGUC 100655Z AUTO 35004KT 10SM CLR 11/02 A3034 RMK AO1

2010/08/10 06:56
KNGP 100656Z AUTO 10SM FEW017 29/27 A2991 RMK AO2 SLP128 T02890272 $ 

2010/08/10 06:50
EEKA 100650Z 20006KT 170V240 9999 SCT012 BKN030 19/17 Q1013

2010/08/10 06:50
EEKE 100650Z 21012KT 9999 FEW007 BKN026CB 19/19 Q1014

2010/08/10 06:50
EETU 100650Z AUTO 20011KT 9999NDV FEW020/// 20/16 Q1015

2010/08/10 06:55
KVAD 100655Z AUTO 05003KT 10SM CLR 25/24 A2996 RMK AO2 SLP143 T02480239 $

2010/08/10 06:55
KWRB 100655Z AUTO 00000KT 10SM CLR 24/23 A2999 RMK AO2 SLP153 T02360231

2010/08/10 06:55
KBIX 100655Z AUTO 04005KT 10SM CLR 26/26 A2992 RMK AO2 SLPNO T02610256 $

2010/08/10 06:55
KFAF 100655Z AUTO 19003KT 10SM CLR 26/26 A2997 RMK AO2 SLP151 T02570257 $

2010/08/10 06:55
KFBG 100655Z VRB04KT 10SM CLR 25/24 A3001 RMK AO2A SLP160 T02550241 $

2010/08/10 06:55
KGTB 100655Z AUTO 25004KT 10SM SCT009 BKN025 21/20 A2994 RMK AO2 CIG 009 RWY03 SLP136 T02100200

2010/08/10 06:55
KMXF 100655Z AUTO 00000KT 10SM CLR 27/25 A2994 RMK AO2 SLP138 T02700251

2010/08/10 06:52
KNRB 100652Z 14010KT 10SM FEW022 28/22 A2995 RMK AO2 SLP142 T02830222

2010/08/10 06:55
KOZR 100655Z AUTO 05007KT 10SM CLR 24/24 A2994 RMK AO2 SLP135 T02430241 $

2010/08/10 06:56
PMDY 100656Z AUTO 04008KT 10SM FEW025 26/21 A3021 RMK AO2 TSNO T02550205 SLP539

2010/08/10 06:56
KNDZ 100656Z AUTO 00000KT 10SM CLR 27/23 A2993 RMK AO2 SLP118 T02720228 PWINO $

2010/08/10 06:56
KNYG 100656Z AUTO 22006KT 9SM CLR 26/20 A2995 RMK AO2 SLP144 T02610200 $

2010/08/10 06:56
KNXP 100656Z AUTO 00000KT CLR 26/M01 A2993 RMK AO2 SLP096 T02561006 $

2010/08/10 06:56
KPRN 100656Z AUTO 00000KT 10SM CLR 26/23 A2995 RMK AO2 SLP133 T02610233 $

2010/08/10 06:56
KNMM 100656Z AUTO 00000KT 7SM CLR 26/23 A2995 RMK AO2 SLP148 T02560233 $

2010/08/10 06:56
K79J 100656Z AUTO 00000KT 5SM BR CLR 25/23 A2994 RMK AO2 SLP132 T02500228 TSNO PNO $

2010/08/10 06:56
KNFL 100656Z 01003KT 10SM CLR 22/04 A2994 RMK AO2 SLP112 T02170039

2010/08/10 06:56
KNPA 100656Z AUTO 00000KT 8SM CLR 26/24 A2991 RMK AO2 SLP131 T02560239

2010/08/10 06:55
KLHW 100655Z AUTO 00000KT 10SM CLR 25/24 A2997 RMK AO2 SLP150 T02460241

2010/08/10 06:55
KLSF 100655Z AUTO 00000KT 8SM R33/5500FT CLR 23/22 A2996 RMK AO2 SLP144 T02270217 PNO $

2010/08/10 06:55
KOZR 100655Z AUTO 05007KT 10SM CLR 24/24 A2994 RMK AO2 SLP135 T02430241 $

2010/08/10 06:55
KRND 100655Z AUTO 18004KT 10SM CLR 25/23 A2996 RMK AO2 SLP133 T02450230

2010/08/10 06:55
KVOK 100655Z 00000KT 1/4SM R27/0800V1000FT FG CLR 19/19 A2996 RMK AO2A SLP139 T01880188

2010/08/10 06:55
KWRB 100655Z AUTO 00000KT 10SM CLR 24/23 A2999 RMK AO2 SLP153 T02360231

2010/08/10 06:55
PGUA 100655Z AUTO 07008KT 10SM FEW019 27/24 A2990 RMK AO2 SLP106 T02700242 $

2010/08/10 06:55
KBAD 100655Z AUTO 15005KT 10SM CLR 26/23 A2992 RMK AO2 SLP131 T02640233

2010/08/10 06:55
KBIX 100655Z AUTO 04005KT 10SM CLR 26/26 A2992 RMK AO2 SLPNO T02610256 $

2010/08/10 06:55
KHST 100655Z AUTO 16004KT 10SM SCT060 26/24 A2988 RMK AO2 CLDS LWR RWY23 SLP120 T02640239

2010/08/10 06:52
KNRB 100652Z 14010KT 10SM FEW022 28/22 A2995 RMK AO2 SLP142 T02830222

2010/08/10 06:55
KOFF 100655Z AUTO 09004KT 10SM CLR 26/26 A2985 RMK AO2 SLP088 T02600260 $

2010/08/10 06:55
KWRI 100655Z AUTO 21004KT 9SM CLR 23/22 A2991 RMK AO2 SLP130 T02320219 $

2010/08/10 06:55
KGTB 100655Z AUTO 25004KT 10SM SCT009 BKN025 21/20 A2994 RMK AO2 CIG 009 RWY03 SLP136 T02100200

2010/08/10 06:52
KNRB 100652Z 14010KT 10SM FEW022 28/22 A2995 RMK AO2 SLP142 T02830222

2010/08/10 06:55
KOFF 100655Z AUTO 09004KT 10SM CLR 26/26 A2985 RMK AO2 SLP088 T02600260 $

2010/08/10 06:55
KOZR 100655Z AUTO 05007KT 10SM CLR 24/24 A2994 RMK AO2 SLP135 T02430241 $

2010/08/10 06:55
KRDR 100655Z AUTO 20004KT 10SM CLR 22/20 A2990 RMK AO2 SLP136 T02240203 $

2010/08/10 06:55
KRIV 100655Z AUTO 00000KT 10SM CLR 16/11 A2992 RMK AO2 SLP127 T01620113

2010/08/10 06:55
KRND 100655Z AUTO 18004KT 10SM CLR 25/23 A2996 RMK AO2 SLP133 T02450230

2010/08/10 06:55
KSLI 100655Z AUTO 00000KT 10SM CLR 15/14 A2991 RMK AO2 SLP131 T01530137

2010/08/10 06:55
KSUU 100655Z AUTO 25019G25KT 10SM CLR 13/11 A2983 RMK AO2 PK WND 24027/0602 SLP104 T01340113 RVRNO $

2010/08/10 06:55
KSZL 100655Z AUTO 17005KT 10SM CLR 27/25 A2991 RMK AO2 SLP119 T02710246 PNO $

2010/08/10 06:55
KVOK 100655Z 00000KT 1/4SM R27/0800V1000FT FG CLR 19/19 A2996 RMK AO2A SLP139 T01880188

2010/08/10 06:55
KWRB 100655Z AUTO 00000KT 10SM CLR 24/23 A2999 RMK AO2 SLP153 T02360231

2010/08/10 06:55
KWRI 100655Z AUTO 21004KT 9SM CLR 23/22 A2991 RMK AO2 SLP130 T02320219 $

2010/08/10 06:55
KAFF 100655Z AUTO 36006KT 10SM BKN110 15/12 A3019 RMK AO2 SLP127 T01460117 402340138

2010/08/10 06:55
KBAB 100655Z AUTO 13004KT 10SM CLR 20/11 A2981 RMK AO2 SLP096 T02010111 $

2010/08/10 06:55
KBIX 100655Z AUTO 04005KT 10SM CLR 26/26 A2992 RMK AO2 SLPNO T02610256 $

2010/08/10 06:55
KDOV 100655Z AUTO 19010KT 10SM CLR 24/24 A2993 RMK AO2 SLP137 T02440236

2010/08/10 06:55
KDYS 100655Z AUTO 00000KT 10SM FEW220 27/19 A2996 RMK AO2 SLP118 T02670192 $

2010/08/10 06:55
KEND 100655Z AUTO 22008KT 10SM CLR 27/20 A2992 RMK AO2 SLP112 T02750202 $

2010/08/10 06:55
KFAF 100655Z AUTO 19003KT 10SM CLR 26/26 A2997 RMK AO2 SLP151 T02570257 $

2010/08/10 06:55
KFBG 100655Z VRB04KT 10SM CLR 25/24 A3001 RMK AO2A SLP160 T02550241 $

2010/08/10 06:55
KFSI 100655Z AUTO 19008KT 10SM CLR 29/20 A2991 RMK AO2 SLP099 T02910202

2010/08/10 06:55
KLHW 100655Z AUTO 00000KT 10SM CLR 25/24 A2997 RMK AO2 SLP150 T02460241

2010/08/10 06:55
KLSF 100655Z AUTO 00000KT 8SM R33/5500FT CLR 23/22 A2996 RMK AO2 SLP144 T02270217 PNO $

2010/08/10 06:55
KMTC 100655Z AUTO 00000KT 2SM R19/2200VP6000FT DZ BR CLR 21/21 A2994 RMK AO2 VIS 1V5 SLP142 P0000 T02070207 $

2010/08/10 06:55
KMUI 100655Z AUTO 00000KT 10SM BKN120 BKN170 23/22 A2994 RMK AO2 SLP134 T02340221 $

2010/08/10 06:55
KMXF 100655Z AUTO 00000KT 10SM CLR 27/25 A2994 RMK AO2 SLP138 T02700251

2010/08/10 06:55
KNBG 100655Z AUTO 00000KT 3SM BR CLR A2992 RMK AO2 SLP132 PWINO FZRANO $

2010/08/10 06:55
KNKX 100655Z 28003KT 10SM BKN010 17/14 A2992 RMK AO2 SLP125 T01670139

2010/08/10 06:52
KNZY 100652Z 31003KT 10SM BKN015 20/14 A2991 RMK AO2 SLP128 T02000139 $

2010/08/10 06:56
KHLR 100656Z AUTO 16006KT 10SM CLR 29/22 A2994 RMK AO2 SLP129 T02890217 $ 

2010/08/10 06:56
KGNR 100656Z AUTO 00000KT 17/16 A2988 RMK AO1 SLP115 T01670156 

2010/08/10 06:53
KTYS 100653Z 00000KT 9SM SCT120 27/22 A3000 RMK AO2 SLP144 T02720222

2010/08/10 06:55
KHON 100655Z AUTO 14005KT 8SM OVC028 24/23 A2986 RMK AO2 SLP098 T02440228 TSNO

2010/08/10 06:55
KPHP 100655Z AUTO 18004KT 10SM OVC120 23/17 A2987 RMK AO2 SLP090 T02280167 403560161 TSNO

2010/08/10 06:56
TJSJ 100656Z 12005KT 10SM SCT050 27/24 A2994 RMK AO2 RAB08E19 SLP137 OCNL LTGIC DSNT N-SW CB DSNT N-SW P0000 T02670244 $

2010/08/10 06:56
KCHS 100656Z 00000KT 10SM CLR 27/25 A3001 RMK AO2 SLP160 T02670250

2010/08/10 06:56
KJAX 100656Z 06003KT 10SM FEW022 26/23 A2995 RMK AO2 SLP142 T02560233

2010/08/10 06:56
KSHV 100656Z 18003KT 10SM SCT290 28/23 A2991 RMK AO2 SLP124 T02780228

2010/08/10 06:53
KDAB 100653Z 13005KT 10SM FEW020 27/23 A2994 RMK AO2 SLP136 T02670233

2010/08/10 06:53
KSAV 100653Z 15003KT 10SM CLR 27/24 A2999 RMK AO2 SLP153 T02670239 $

2010/08/10 06:54
KSYR 100654Z 14003KT 2SM BR BKN020 OVC055 21/21 A2995 RMK AO2 SLP135 T02060206

2010/08/10 06:56
KINW 100656Z AUTO 22006KT 10SM BKN110 21/10 A3013 RMK AO2 SLP124 T02060100 403170156 $

2010/08/10 06:56
KMOB 100656Z 00000KT 10SM FEW250 26/24 A2994 RMK AO2 SLP136 T02560244

2010/08/10 06:56
KOFK 100656Z AUTO 11007KT 3/4SM BR OVC001 26/25 A2985 RMK AO2 SLP093 T02560250

2010/08/10 06:56
KSFO 100656Z 30009KT 10SM FEW003 SCT009 BKN013 13/11 A2992 RMK AO2 SLP131 T01280106

2010/08/10 06:55
KCAO 100655Z AUTO 20006KT 10SM SCT120 22/16 A3010 RMK AO2 SLP108 T02170161 403440189 TSNO

2010/08/10 06:56
PADK 100656Z 14009KT 10SM BKN009 OVC036 09/08 A2988 RMK AO1 PNO

2010/08/10 06:56
KP53 100656Z AUTO 19004KT 18/17 A2996 RMK AO2 SLP145 T01780172 PWINO TSNO

2010/08/10 06:56
KWMC 100656Z AUTO 27008KT 10SM CLR 19/M01 A2994 RMK AO2 SLP087 P0001 T01941006

2010/08/10 06:56
KLWS 100656Z AUTO 13004KT 10SM CLR 19/03 A2978 RMK AO2 SLP076 T01940028

2010/08/10 06:56
KSXT 100656Z AUTO 01010KT 8SM CLR 11/08 A3000 RMK AO2 SLP128 T01110078 TSNO

2010/08/10 06:56
KCAE 100656Z 00000KT 6SM BR CLR 24/23 A3001 RMK AO2 SLP159 T02440228

2010/08/10 06:56
KP28 100656Z AUTO 17008KT 29/20 A2990 RMK AO2 SLP100 T02890200 PWINO TSNO

2010/08/10 06:56
KCDJ 100656Z AUTO 00000KT 28/26 A2989 RMK AO2 SLP103 T02830256 PWINO TSNO

2010/08/10 06:54
PAIK 100654Z AUTO 10007KT 10SM FEW014 BKN060 OVC070 14/13 A2952 RMK AO2

2010/08/10 06:56
KENW 100656Z AUTO 00000KT 1/4SM FG CLR 21/20 A2996 RMK AO2

2010/08/10 06:56
PANI 100656Z AUTO 14006KT 10SM BKN050 OVC060 12/08 A2951 RMK AO1 PNO

2010/08/10 06:56
PANV 100656Z AUTO 12005KT 10SM SCT046 BKN050 OVC090 12/10 A2947 RMK AO1 PNO

2010/08/10 06:56
PAOU 100656Z AUTO 00000KT 1 3/4SM BR SCT004 BKN025 OVC032 10/09 A2964 RMK AO2 PWINO TSNO T01000088 SLP039 $

2010/08/10 06:56
PAPG 100656Z 00000KT 10SM BKN025 OVC030 12/11 A3001 RMK AO1 PNO

2010/08/10 06:56
PAPH 100656Z AUTO 08007KT 10SM FEW034 OVC046 11/09 A2964 RMK AO1 PNO

2010/08/10 06:56
PARC 100656Z AUTO 04004KT 10SM OVC050 11/08 A2962 RMK AO1 PNO

2010/08/10 06:56
PASA 100656Z AUTO 05009KT 10SM BKN006 OVC013 10/07 A2939 RMK AO1 PNO

2010/08/10 06:56
PASD 100656Z AUTO 21015KT 10SM BKN015 OVC022 10/08 A2969 RMK AO1 PNO

2010/08/10 06:56
PASH 100656Z AUTO 35003KT 10SM OVC060 12/11 A2945 RMK AO1 PNO

2010/08/10 06:56
PASK 100656Z AUTO 11011KT 10SM SCT055 BKN075 OVC090 14/12 A2949 RMK AO1 PNO

2010/08/10 06:56
PASL 100656Z AUTO 16007KT 10SM SCT085 OVC100 12/09 A2961 RMK AO1 PNO

2010/08/10 06:56
KNSE 100656Z AUTO 00000KT 5SM HZ CLR 26/23 A2993 RMK AO2 SLP119 T02610228 $

2010/08/10 06:56
KGFA 100656Z AUTO 21009KT 10SM CLR 18/10 A2985 RMK AO2 SLP107 T01780100

2010/08/10 06:55
KGXY 100655Z AUTO 29004KT 10SM CLR 16/14 A3009 RMK AO1

2010/08/10 06:55
KGYH 100655Z AUTO 00000KT 10SM CLR 27/21 A3005 RMK AO2

2010/08/10 06:55
KHDN 100655Z 12010KT 10SM CLR 11/07 A3021 RMK AO1

2010/08/10 06:55
KHEF 100655Z AUTO 18005KT 8SM 23/21 A2995 RMK AO1

2010/08/10 06:55
KHEZ 100655Z AUTO 00000KT 8SM CLR 24/22 A2996 RMK AO1

2010/08/10 06:55
KHNB 100655Z AUTO 00000KT 6SM CLR 24/23 A2995 RMK AO1

2010/08/10 06:54
KHWD 100654Z AUTO 35004KT 10SM OVC007 14/11 A2992 RMK AO2 SLP140 T01390106

2010/08/10 06:55
KHYI 100655Z AUTO 23004KT 10SM CLR A2995 RMK AO1

2010/08/10 06:55
KHYS 100655Z AUTO 20005KT 10SM FEW110 27/17 A2990 RMK AO1

2010/08/10 06:55
KHYW 100655Z AUTO 00000KT 7SM CLR 24/24 A3002 RMK AO2

2010/08/10 06:55
KILE 100655Z AUTO 19006KT 10SM CLR 26/21 A2993 RMK AO1

2010/08/10 06:54
KILN 100654Z AUTO 00000KT 7SM CLR 23/21 A2998 RMK AO2 SLP137 T02330211

2010/08/10 06:54
KIMT 100654Z AUTO 00000KT 7SM CLR 19/19 A2999 RMK AO2 SLP148 T01940189

2010/08/10 06:54
KIND 100654Z 24003KT 9SM OVC110 26/23 A2994 RMK AO2 SLP128 T02610228

2010/08/10 06:54
KINT 100654Z AUTO 22004KT 10SM CLR 26/21 A3005 RMK AO2 SLP161 T02610206

2010/08/10 06:54
KIPT 100654Z AUTO 00000KT 10SM CLR 23/18 A2994 RMK AO2 SLP132 T02280178

2010/08/10 06:54
KISW 100654Z AUTO 00000KT 7SM CLR 22/21 A2998 RMK AO2 SLP147 T02170211 TSNO $

2010/08/10 06:55
KIWD 100655Z AUTO 00000KT 6SM CLR 18/17 A2996 RMK AO1

2010/08/10 06:54
KIZG 100654Z AUTO 00000KT 10SM CLR 20/18 A2990 RMK AO2 SLP122 T02000183

2010/08/10 06:55
KJAC 100655Z 23003KT 10SM CLR 09/06 A3016 RMK AO1

2010/08/10 06:55
KJHW 100655Z AUTO 00000KT 5SM SCT065 BKN080 OVC090 21/19 A2999 RMK AO1 57007

2010/08/10 06:54
KJST 100654Z AUTO 27003KT 10SM FEW120 21/16 A3004 RMK AO2 SLP155 T02110161

2010/08/10 06:55
KKLS 100655Z AUTO 30006KT 10SM OVC015 14/11 A3000 RMK AO1

2010/08/10 06:54
KLAF 100654Z AUTO 00000KT 5SM BR SCT100 26/24 A2994 RMK AO2 SLP131 T02560244

2010/08/10 06:55
KLBL 100655Z 19008KT 10SM CLR 25/17 A2998 RMK AO1

2010/08/10 06:54
KLBT 100654Z AUTO 00000KT 10SM SCT009 24/23 A3001 RMK AO2 SLP161 T02440233

2010/08/10 06:55
KLCI 100655Z AUTO 00000KT 8SM BKN120 21/18 A2988 RMK AO1 P0001

2010/08/10 06:55
KLEW 100655Z 00000KT 10SM FEW110 21/18 A2990 RMK AO1

2010/08/10 06:55
KLGD 100655Z AUTO 30008KT 10SM SCT120 18/03 A2986 RMK AO1

2010/08/10 06:54
KLNK 100654Z 18003KT 10SM CLR 27/26 A2985 RMK AO2 SLP094 T02670256

2010/08/10 06:55
KLPC 100655Z AUTO 33004KT 10SM OVC007 13/11 A2993 RMK AO1 PNO

2010/08/10 06:54
KLWM 100654Z AUTO 22003KT 3SM -RA BR SCT003 BKN035 22/21 A2992 RMK AO2 SLP130 P0000 T02220211 $

2010/08/10 06:54
KLWT 100654Z AUTO 21008KT 10SM CLR 14/10 A2991 RMK AO2 SLP091 T01440100 402890100

2010/08/10 06:55
KPWG 100655Z AUTO 19009KT 10SM CLR 28/21 A2993 RMK AO1

2010/08/10 06:55
KPWT 100655Z AUTO 20005KT 10SM OVC007 13/10 A3000 RMK AO1

2010/08/10 06:54
KRBL 100654Z AUTO 00000KT 10SM CLR 24/16 A2983 RMK AO2 SLP096 T02390156

2010/08/10 06:54
KRDG 100654Z AUTO 00000KT CLR 26/19 A2992 RMK AO2 SLP134 T02610189 $

2010/08/10 06:55
KRKD 100655Z AUTO 00000KT 10SM BKN065 BKN080 20/18 A2986 RMK AO1

2010/08/10 06:52
KRKR 100652Z AUTO 00000KT 10SM CLR 28/24 A2993 RMK AO2

2010/08/10 06:54
KRKS 100654Z AUTO 25008KT 10SM CLR 14/00 A3019 RMK AO2 SLP136 T01390000 402720100

2010/08/10 06:54
KRST 100654Z AUTO 13005KT 7SM CLR 23/22 A2997 RMK AO2 SLP139 T02280217

2010/08/10 06:55
KRUT 100655Z 17003KT 7SM BKN017 OVC022 21/19 A2993 RMK AO1

2010/08/10 06:54
KSBY 100654Z AUTO 20003KT 6SM BR CLR 23/23 A2996 RMK AO2 SLP148 T02330228 $

2010/08/10 06:55
KSDY 100655Z AUTO 06006KT 10SM SCT110 21/17 A2979 RMK AO1 LTG DSNT NW TSE26 P0003

2010/08/10 06:54
KSET 100654Z AUTO 00000KT 5SM BR CLR 27/26 A2992 RMK AO2 SLP125 T02720261

2010/08/10 06:55
KSFM 100655Z 23008KT 8SM FEW070 BKN100 OVC120 21/19 A2988 RMK AO1 P0001

2010/08/10 06:55
KSFZ 100655Z 00000KT 4SM FEW050 FEW065 SCT120 21/20 A2991 RMK AO1

2010/08/10 06:55
KSGT 100655Z 22003KT CLR 28/25 A2993 RMK AO1

2010/08/10 06:55
KSGU 100655Z AUTO 01003KT 10SM CLR 25/03 A2996 RMK AO1

2010/08/10 06:54
KSJN 100654Z AUTO 16008KT 10SM CLR 18/12 A3018 RMK AO2 SLP124 T01830117 402780128 $

2010/08/10 06:55
KSKX 100655Z AUTO 03005KT 10SM CLR 14/07 A3027 RMK AO1

2010/08/10 06:55
KSLG 100655Z AUTO 17004KT 10SM CLR 26/21 A2997 RMK AO1

2010/08/10 06:54
KWAL 100654Z AUTO 24006KT 10SM CLR 24/22 A2997 RMK AO2 SLP146 T02390217 TSNO

2010/08/10 06:54
KROC 100654Z 22003KT 2 1/2SM BR BKN060 OVC085 21/20 A2994 RMK AO2 SLP136 T02060200

2010/08/10 06:54
KFWA 100654Z 00000KT 1/4SM FG CLR 23/22 A2997 RMK AO2 SLP142 R23/3000FT T02280222

2010/08/10 06:54
KORH 100654Z AUTO 31005KT 8SM SCT075 OVC110 21/20 A2995 RMK AO2 RAE52 SLP133 P0001 T02110200

2010/08/10 06:55
KGPZ 100655Z AUTO 16003KT 9SM CLR 20/18 A2997 RMK AO1

2010/08/10 06:54
KLEX 100654Z 17004KT 10SM CLR 24/21 A2999 RMK AO2 SLP144 T02440206

2010/08/10 06:54
KLYH 100654Z AUTO 00000KT 6SM BR CLR 22/21 A3002 RMK AO2 SLP153 T02220211

2010/08/10 06:54
KROC 100654Z 22003KT 2 1/2SM BR BKN060 OVC085 21/20 A2994 RMK AO2 SLP136 T02060200

2010/08/10 06:54
KSUS 100654Z AUTO 00000KT 7SM CLR 27/25 A2991 RMK AO2 SLP118 T02670250

2010/08/10 06:54
KSYR 100654Z 14003KT 2SM BR BKN020 OVC055 21/21 A2995 RMK AO2 SLP135 T02060206

2010/08/10 06:54
KRFD 100654Z 00000KT 8SM FEW026 24/22 A2996 RMK AO2 SLP138 T02400220 PNO $

2010/08/10 06:55
KDRA 100655Z AUTO 04003KT 10SM CLR 23/M09 A2993 RMK AO2 SLP085 T02331089 TSNO

2010/08/10 06:55
KANJ 100655Z AUTO 31003KT 5SM BR FEW036 20/19 A2995 RMK AO2 SLP138 T02000189

2010/08/10 06:55
KINL 100655Z AUTO 00000KT 10SM FEW090 18/18 A2994 RMK AO2 VIS 1 RWY 31 SLP135 T01780178 $

2010/08/10 06:55
KAST 100655Z AUTO 22004KT 10SM OVC022 13/12 A3001 RMK AO2 SLP163 T01330117

2010/08/10 06:53
KRQE 100653Z AUTO 00000KT 10SM CLR 13/10 A3026 RMK AO2 SLP137 T01280100 402610106 TSNO

2010/08/10 06:55
KMBG 100655Z AUTO 14008KT 10SM CLR 24/21 A2983 RMK AO2 SLP086 T02390211 TSNO

2010/08/10 06:55
KAAT 100655Z AUTO 25008KT 10SM CLR 13/04 A3001 RMK AO2 SLP119 T01330039 TSNO

2010/08/10 06:56
KABQ 100656Z 00000KT 10SM FEW100 24/07 A3014 RMK AO2 SLP106 T02390072 403170178

2010/08/10 06:53
KLAX 100653Z 25006KT 10SM OVC007 16/13 A2992 RMK AO2 SLP129 T01610133 $

2010/08/10 06:54
KRIC 100654Z 20003KT 9SM CLR 24/21 A2997 RMK AO2 SLP151 T02390211 $

2010/08/10 06:53
K4BM 100653Z AUTO 28005KT 10SM 07/06 A3056 RMK AO2

2010/08/10 06:54
KAVP 100654Z 00000KT 10SM SCT110 23/18 A2996 RMK AO2 SLP133 T02330183 $

2010/08/10 06:53
KBTR 100653Z 00000KT 9SM FEW004 SCT020 BKN200 24/24 A2993 RMK AO2 SLP133 T02440244

2010/08/10 06:54
KBTV 100654Z 00000KT 5SM BR CLR 18/18 A2991 RMK AO2 SLP127 T01830183

2010/08/10 06:53
KCHA 100653Z 12003KT 10SM CLR 28/22 A2999 RMK AO2 SLP145 T02780222 $

2010/08/10 06:55
KCNK 100655Z AUTO 18011KT 10SM CLR 28/21 A2988 RMK AO2 SLP096 T02780206

2010/08/10 06:53
KDAB 100653Z 13005KT 10SM FEW020 27/23 A2994 RMK AO2 SLP136 T02670233

2010/08/10 06:55
KDLH 100655Z 00000KT 10SM CLR 21/18 A2998 RMK AO2 SLP146 T02110183

2010/08/10 06:55
KGPI 100655Z AUTO 00000KT 10SM CLR 15/10 A2984 RMK AO2 SLP089 T01500100 402830072 $

2010/08/10 06:54
KGSO 100654Z 20006KT 8SM CLR 25/21 A3004 RMK AO2 SLP160 T02500211

2010/08/10 06:55
KIRK 100655Z AUTO 19007KT 10SM CLR 27/26 A2990 RMK AO2 SLP119 T02720256

2010/08/10 06:55
KLIC 100655Z AUTO 00000KT 10SM CLR 15/15 A3013 RMK AO2 SLP130 T01500150 402890150

2010/08/10 06:53
KLXV 100653Z AUTO 00000KT 10SM CLR 06/04 A3043 RMK AO2 SLP163 T00560044 401780056 TSNO

2010/08/10 06:55
KMKG 100655Z 00000KT 1/4SM FG VV001 21/20 A2997 RMK AO2 SLP144 T02110200

2010/08/10 06:53
KMSN 100653Z 00000KT 3SM BR CLR 22/22 A2995 RMK AO2 SLP136 T02220217

2010/08/10 06:53
KMWT 100653Z AUTO 00000KT 10SM CLR 25/24 A2992 RMK AO2 SLP117 T02500239 TSNO

2010/08/10 06:55
KRNO 100655Z 01008KT 10SM CLR 21/03 A3000 RMK AO2 SLP103 T02110028

2010/08/10 06:54
KROA 100654Z 29003KT 9SM CLR 24/21 A3004 RMK AO2 SLP156 T02390206

2010/08/10 06:53
KSAV 100653Z 15003KT 10SM CLR 27/24 A2999 RMK AO2 SLP153 T02670239 $

2010/08/10 06:55
KSCK 100655Z 36006KT 10SM CLR 18/13 A2983 RMK AO2 SLP102 T01780128

2010/08/10 06:55
KSMS 100655Z AUTO 00000KT 3SM BR CLR 23/23 A3002 RMK AO2

2010/08/10 06:53
KTLH 100653Z 10007KT 10SM CLR 27/23 A2992 RMK AO2 SLP132 T02670233

2010/08/10 06:53
KTRI 100653Z 00000KT 5SM BR CLR 22/20 A3005 RMK AO2 SLP156 T02220200

2010/08/10 06:53
KRNM 100653Z AUTO 27003KT 10SM CLR 12/09 A2992 RMK AO2 SLP121 T01220094 TSNO

2010/08/10 06:54
KWAL 100654Z AUTO 24006KT 10SM CLR 24/22 A2997 RMK AO2 SLP146 T02390217 TSNO

2010/08/10 06:54
KMTP 100654Z AUTO 32004KT 23/20 A2993 RMK AO2 SLP136 T02330200 PWINO TSNO

2010/08/10 06:54
KWAL 100654Z AUTO 24006KT 10SM CLR 24/22 A2997 RMK AO2 SLP146 T02390217 TSNO

2010/08/10 06:56
KDUG 100656Z AUTO 00000KT 10SM CLR 22/18 A3006 RMK AO2 SLP106 T02220183 403280178

2010/08/10 06:56
KDUJ 100656Z AUTO 00000KT 8SM OVC095 21/18 A3000 RMK AO2 RAB15E33 SLP144 P0000 T02060178

2010/08/10 06:56
KEAU 100656Z AUTO 00000KT 1 3/4SM BR CLR 21/20 A2994 RMK AO2 SLP134 P0001 T02060200

2010/08/10 06:56
KEKO 100656Z AUTO 00000KT 10SM BKN120 19/05 A2999 RMK AO2 SLP093 T01940050

2010/08/10 06:56
KGRD 100656Z AUTO 00000KT 10SM CLR 23/22 A3004 RMK AO2 SLP163 T02330217

2010/08/10 06:55
KHFF 100655Z AUTO 00000KT 10SM CLR 24/23 A3004 RMK AO2 SLP168 T02410231 $

2010/08/10 06:56
KIGX 100656Z AUTO 00000KT 9SM CLR 25/23 A3003 RMK AO2 SLP162 T02500228

2010/08/10 06:56
KJMS 100656Z AUTO 15003KT 10SM CLR 21/19 A2990 RMK AO2 SLP116 T02110189

2010/08/10 06:56
KLAS 100656Z 24007KT 10SM CLR 29/M06 A2982 RMK AO2 SLP068 T02941056

2010/08/10 06:56
KLNR 100656Z AUTO 00000KT M1/4SM FG VV001 23/22 A2995 RMK AO2 SLP131 T02330222

2010/08/10 06:56
KM19 100656Z AUTO 14004KT 10SM CLR A2994 RMK AO2 SLPNO $

2010/08/10 06:56
KMQY 100656Z AUTO 14004KT 10SM CLR 26/24 A2999 RMK AO2 T02610238 SLP143 $

2010/08/10 06:56
KMRH 100656Z AUTO 23006KT 10SM CLR 27/24 A3002 RMK AO2 SLP166 T02720244 TSNO

2010/08/10 06:56
KRDM 100656Z AUTO 36006KT 10SM CLR 16/05 A2995 RMK AO2 SLP118 T01610050

2010/08/10 06:56
KSBP 100656Z 30004KT 10SM OVC006 13/12 A2993 RMK AO2 SLP133 T01330117 $

2010/08/10 06:56
KSLE 100656Z AUTO 27004KT 10SM SCT041 14/11 A2998 RMK AO2 SLP152 T01440106 TSNO

2010/08/10 06:56
PASM 100656Z AUTO 17010G19KT 4SM BKN006 OVC016 09/08 A2939 RMK AO1 PNO

2010/08/10 06:56
PASX 100656Z AUTO 00000KT 10SM BKN006 OVC050 11/10 A2977 RMK AO1 PNO

2010/08/10 06:56
PATG 100656Z AUTO 20016KT 8SM OVC008 10/09 A2955 RMK AO1 PNO

2010/08/10 06:56
PAUN 100656Z AUTO 07005KT 10SM BKN029 BKN034 OVC080 12/08 A2945 RMK AO1 PNO

2010/08/10 06:56
PAVD 100656Z 00000KT 9SM OVC007 11/09 A2988 RMK AO1 PNO

2010/08/10 06:56
PAWG 100656Z AUTO 00000KT 1 1/4SM BKN031 OVC038 13/11 A3003 RMK AO1 WEA

2010/08/10 06:56
PAWN 100656Z AUTO 02006KT 10SM BKN031 BKN037 OVC110 13/11 A2950 RMK AO1 PNO

2010/08/10 06:56
PAWS 100656Z AUTO 00000KT 10SM OVC013 12/10 A2977 RMK AO1 PNO

2010/08/10 06:56
PAZK 100656Z AUTO 27006KT 10SM CLR 08/03 A2974 RMK AO1 PNO

2010/08/10 06:56
PAAK 100656Z AUTO 29011G18KT 3/4SM OVC002 08/06 A2986 RMK AO1 PNO

2010/08/10 06:56
PABL 100656Z AUTO 00000KT 7SM SCT018 BKN024 OVC033 13/12 A2947 RMK AO1 PNO

2010/08/10 06:56
PABV 100656Z AUTO 23004KT 10SM OVC010 12/08 A2977 RMK AO1 PNO

2010/08/10 06:56
PACM 100656Z AUTO 18009KT 2SM -RA BR SCT020 BKN043 OVC100 11/09 A2932 RMK AO2 TSNO T01050094 P0004 SLP924 $

2010/08/10 06:56
PAEM 100656Z AUTO 12010KT 4SM SCT007 BKN016 OVC042 11/08 A2932 RMK AO1 PNO

2010/08/10 06:56
PAFE 100656Z AUTO 12004KT 10SM BKN016 OVC023 13/11 A3004 RMK AO1 PNO

2010/08/10 06:56
PAFM 100656Z AUTO 10005KT 10SM FEW011 BKN028 OVC046 13/11 A2956 RMK AO1 PNO

2010/08/10 06:56
PAGL 100656Z AUTO 10008KT 10SM BKN060 OVC080 12/09 A2948 RMK AO1 PNO

2010/08/10 06:56
PAGM 100656Z AUTO 04010KT 5SM BKN004 OVC013 08/07 A2940 RMK AO1

2010/08/10 06:56
PAGS 100656Z AUTO 00000KT 2 1/2SM FEW008 OVC016 13/12 A3000 RMK AO1 PNO

2010/08/10 06:56
PAHP 100656Z AUTO 18008KT 10SM BKN010 OVC017 11/07 A2929 RMK AO1 PNO TSNO

2010/08/10 06:56
PAHY 100656Z AUTO 33003KT 10SM SCT004 BKN011 OVC017 13/12 A3003 RMK AO1 PNO

2010/08/10 06:56
PAII 100656Z AUTO 24006KT 6SM SCT003 BKN011 OVC021 10/08 A2969 RMK AO1 PNO

2010/08/10 06:56
PAIN 100656Z AUTO 18004KT 10SM OVC048 13/08 A2968 RMK AO1 PNO

2010/08/10 06:56
PAJC 100656Z AUTO 25011G15KT 10SM FEW018 BKN028 OVC050 13/07 A2966 RMK AO1 PNO

2010/08/10 06:56
PAKK 100656Z AUTO 05003KT 10SM FEW030 SCT036 12/11 A2943 RMK AO1 PNO

2010/08/10 06:56
PAKP 100656Z AUTO 05006KT 10SM BKN004 OVC016 09/09 A2961 RMK AO1 P0001

2010/08/10 06:56
PAMD 100656Z AUTO 14005KT 10SM BKN019 OVC025 11/09 A2991 RMK AO1 PNO

2010/08/10 06:56
PAMH 100656Z RMK AO1 PNO

2010/08/10 06:56
PAMM 100656Z AUTO 00000KT 10SM SCT007 OVC017 12/10 A3005 RMK AO1 PNO

2010/08/10 06:56
PAMY 100656Z 22007KT 10SM FEW026 OVC036 09/07 A2933 RMK AO1

2010/08/10 06:55
KCMA 100655Z 00000KT 10SM CLR 15/13 A2990 RMK AO2 SLP132 T01500128

2010/08/10 06:55
KDCM 100655Z AUTO 24003KT 7SM CLR 23/23 A3004 RMK AO2

2010/08/10 06:55
KEAT 100655Z AUTO 29014KT 10SM CLR 18/07 A2983 RMK AO2 SLP092 T01830072

2010/08/10 06:55
KEDC 100655Z AUTO 20005KT 10SM CLR 27/24 A2995 RMK AO1

2010/08/10 06:50
KEFD 100650Z 23003KT 10SM FEW250 28/25 A2993

2010/08/10 06:55
KEIK 100655Z AUTO 28004KT 7SM CLR 16/15 A3011 RMK AO2

2010/08/10 06:55
KEOE 100655Z AUTO 00000KT 10SM CLR 23/22 A3006 RMK AO2

2010/08/10 06:53
KFFM 100653Z AUTO 12004KT 10SM CLR 24/21 A2990 RMK AO2

2010/08/10 06:54
KFGN 100654Z AUTO 00000KT 10SM CLR 24/22 A2988 RMK AO2

2010/08/10 06:55
KFMH 100655Z AUTO 30008KT 2 1/2SM RA FEW003 SCT025 BKN039 21/20 A2994 RMK AO2 LTG DSNT NW-NE P0016

2010/08/10 06:52
KGDB 100652Z AUTO 10003KT 10SM CLR 23/22 A2993 RMK AO2 T02300220

2010/08/10 06:53
KGHW 100653Z AUTO 09004KT 7SM CLR 21/19 A2997 RMK AO2

2010/08/10 06:55
KHVS 100655Z AUTO 00000KT 5SM CLR 23/ A3003 RMK AO2

2010/08/10 06:55
KIFP 100655Z AUTO 00000KT 10SM CLR 32/05 A2976 RMK AO2

2010/08/10 06:55
KLLJ 100655Z AUTO 23003KT 10SM SCT095 BKN120 11/09 A3008 RMK AO2 LTG DSNT NW SLP149 T01110094 401890111 $

2010/08/10 06:55
KLQK 100655Z AUTO 00000KT 1 3/4SM BR SCT120 24/23 A3004 RMK AO2 VIS 1V5 T02400232 PNO

2010/08/10 06:55
KLRO 100655Z AUTO 00000KT 9SM CLR 24/24 A3000 RMK AO2

2010/08/10 06:55
KLUX 100655Z AUTO 00000KT 7SM CLR 23/23 A3004 RMK AO2

2010/08/10 06:55
KMAO 100655Z AUTO 00000KT 10SM CLR 25/25 A3001 RMK AO2

2010/08/10 06:51
KMDW 100651Z COR 00000KT 10SM FEW095 SCT250 26/22 A2994 RMK AO2 SLP127 OCNL LTGIC DSNT SW CB DSNT SW T02610217 PNO

2010/08/10 06:55
KMGG 100655Z AUTO 00000KT 7SM CLR 20/20 A2995 RMK AO2 T02040198

2010/08/10 06:55
KMKS 100655Z AUTO 00000KT 7SM CLR 24/24 A3000 RMK AO2 TSNO

2010/08/10 06:48
KMOX 100648Z AUTO 09006KT 7SM CLR 21/21 A2990 RMK AO2

2010/08/10 06:53
KMWM 100653Z AUTO 11005KT 10SM CLR 24/22 A2992 RMK AO2 LTG DSNT SE

2010/08/10 06:55
KNQA 100655Z AUTO 00000KT 10SM CLR 27/26 A2994 RMK

2010/08/10 06:55
KO22 100655Z AUTO 00000KT 10SM CLR 16/10 A2993 RMK AO1

2010/08/10 06:53
KOVE 100653Z AUTO 12004KT 10SM CLR 23/11 A2983 RMK AO2 SLP103 T02330111 TSNO $

2010/08/10 06:53
KPNM 100653Z AUTO 00000KT 3SM BR CLR 20/19 A2995 RMK AO2

2010/08/10 06:53
KPQN 100653Z AUTO 13005KT 10SM CLR 24/23 A2992 RMK AO2

2010/08/10 06:53
KPWC 100653Z AUTO 00000KT 5SM BR CLR 18/17 A2997 RMK AO2

2010/08/10 06:55
KRBW 100655Z AUTO 00000KT 10SM CLR 25/25 A3001 RMK AO2

2010/08/10 06:55
KRCE 100655Z AUTO 18008KT 10SM CLR 27/20 A2994 RMK AO2

2010/08/10 06:53
KRIL 100653Z AUTO 00000KT 10SM CLR 14/09 A3015 RMK AO2 SLP154 T01440094 402720133 TSNO

2010/08/10 06:53
KSGR 100653Z AUTO 00000KT 10SM CLR 26/24 A2991 RMK AO2 SLP137 T02560239 TSNO

2010/08/10 06:55
KTME 100655Z AUTO 00000KT 10SM 26/26 A2994 RMK AO2

2010/08/10 06:53
KTWM 100653Z AUTO 00000KT 10SM CLR 19/17 A2995 RMK AO2

2010/08/10 06:55
KULM 100655Z AUTO 12004KT 10SM CLR 24/22 A2992 RMK AO2

2010/08/10 06:55
KUTA 100655Z AUTO 00000KT 7SM CLR 26/25 A2994 RMK AO2

2010/08/10 06:59
KVTP 100659Z AUTO 27007KT 190V320 10SM CLR 09/07 A3046 RMK AO2

2010/08/10 06:50
KWYS 100650Z AUTO 00000KT M1/4SM FG OVC002 08/08 A3015 RMK AO2

2010/08/10 06:54
KPHL 100654Z 20007KT 10SM CLR 26/21 A2993 RMK AO2 SLP136 T02610211

2010/08/10 06:56
KSRC 100656Z AUTO 00000KT 9SM CLR 28/26 A2994 RMK AO2 TSNO T02770261 SLP137

2010/08/10 06:56
KTPH 100656Z AUTO 00000KT 10SM CLR 15/M11 A3007 RMK AO2 SLP111 T01501106

2010/08/10 06:56
KUKI 100656Z AUTO 00000KT 10SM CLR 18/11 A2987 RMK AO2 SLP105 T01780111

2010/08/10 06:56
PAAK 100656Z AUTO 29011G18KT 3/4SM OVC002 08/06 A2986 RMK AO1 PNO

2010/08/10 06:56
PACM 100656Z AUTO 18009KT 2SM -RA BR SCT020 BKN043 OVC100 11/09 A2932 RMK AO2 TSNO T01050094 P0004 SLP924 $

2010/08/10 06:56
PAHP 100656Z AUTO 18008KT 10SM BKN010 OVC017 11/07 A2929 RMK AO1 PNO TSNO

2010/08/10 06:56
K1M4 100656Z AUTO 00000KT 4SM BR CLR 24/24 A3001 RMK AO2 T02380238 SLP160

2010/08/10 06:56
KAND 100656Z AUTO 15003KT 10SM BKN100 26/21 A3003 RMK AO2 SLP155 T02560211

2010/08/10 06:56
KCEC 100656Z AUTO 00000KT 10SM OVC006 13/11 A2994 RMK AO2 SLP139 T01280111

2010/08/10 06:56
KDIK 100656Z AUTO 15013G17KT 10SM CLR 22/16 A2981 RMK AO2 SLP069 T02170161 403560161

2010/08/10 07:02
KCPW 100702Z AUTO 23011KT 10SM CLR 07/01 A3058 RMK AO2

2010/08/10 06:50
OAKN 100650Z 22006KT 8000 DU SCT150 OVC250 36/02 Q1008 BLU TEMPO 6000 WHT RMK A2977 DA6700

2010/08/10 06:50
EBAW 100650Z 22007KT CAVOK 17/12 Q1014 NOSIG

2010/08/10 06:50
EBBR 100650Z 21005KT CAVOK 17/12 Q1015 NOSIG

2010/08/10 06:50
EBCI 100650Z 22005KT CAVOK 17/11 Q1015 NOSIG

2010/08/10 06:50
EBLG 100650Z 16004KT CAVOK 17/12 Q1015 NOSIG

2010/08/10 06:50
EBOS 100650Z 19008KT 9999 BKN020 16/12 Q1013 NOSIG

2010/08/10 06:50
ELLX 100650Z 17005KT 140V210 CAVOK 18/12 Q1016 NOSIG

2010/08/10 06:50
EGDL 100650Z 20006KT 9999 RA SCT023 OVC050 11/10 Q1011 WHT NOSIG

2010/08/10 06:50
EGDR 100650Z 21010KT 0500 -DZ SCT000 OVC004 16/15 Q1011 RED

2010/08/10 06:50
EGDY 100650Z 25005KT 6000 RA FEW008 SCT035 OVC080 13/12 Q1012 WHT

2010/08/10 06:50
EGOS 100650Z 20004KT 9999 FEW010 BKN050 13/11 Q1009 BLU NOSIG

2010/08/10 06:50
EGQK 100650Z 12002KT 9999 FEW020 SCT060 BKN150 12/10 Q1004 BLU NOSIG

2010/08/10 06:50
EGQL 100650Z 04002KT 9999 FEW018 BKN080 12/11 Q1004 BLU NOSIG

2010/08/10 06:50
EGUW 100650Z 26009KT 9999 -RADZ FEW010TCU SCT020 BKN024 17/13 Q1010 WHT TEMPO 4000 +RA BKN006 YLO1

2010/08/10 06:50
EGVP 100650Z 32003KT 9999 FEW008 BKN033 OVC090 13/12 Q1011 BLU BECMG -RA BKN007 GRN

2010/08/10 06:50
EGWU 100650Z 29007KT 9000 RA FEW007 BKN022 OVC045 15/14 Q1010 WHT

2010/08/10 06:50
EGXD 100650Z 15005KT 9999 FEW020 BKN075 12/12 Q1007 BLU TEMPO SCT022 WHT

2010/08/10 06:50
EGXE 100650Z 17005KT 9999 FEW015 BKN070 12/11 Q1007 BLU TEMPO SCT022 WHT

2010/08/10 06:50
EGXT 100650Z 22008KT 9999 FEW007 BKN060 BKN120 15/13 Q1009 BLU NOSIG

2010/08/10 06:50
EGXU 100650Z 12002KT 9999 FEW015 BKN070 12/12 Q1007 BLU NOSIG

2010/08/10 06:50
EGXW 100650Z 23006KT 9999 FEW007 SCT012 BKN040 15/14 Q1008 GRN BECMG SCT018 WHT

2010/08/10 06:50
EGYD 100650Z 22010KT 9999 FEW008 SCT027 BKN220 15/13 Q1008 BLU TEMPO SCT012 GRN

2010/08/10 06:50
EGYM 100650Z 26011KT 9999 RA FEW005 SCT020 BKN050 14/12 Q1009 WHT TEMPO 6000 RA SCT010 GRN

2010/08/10 06:55
EHGR 100655Z AUTO 21005KT 9999NDV FEW096 17/13 Q1014 BLU BLU TEMPO WHT TEMPO SCT020

2010/08/10 06:50
LGAD 100650Z 00000KT 9999 FEW020 28/22 Q1011

2010/08/10 06:50
EGDL 100650Z 20006KT 9999 RA SCT023 OVC050 11/10 Q1011 WHT NOSIG

2010/08/10 06:50
EGDM 100650Z 27005KT 9999 -RA FEW007 BKN070 OVC100 13/12 Q1011 BLU TEMPO SCT008 GRN

2010/08/10 06:50
EGDR 100650Z 21010KT 0500 -DZ SCT000 OVC004 16/15 Q1011 RED

2010/08/10 06:50
EGDY 100650Z 25005KT 6000 RA FEW008 SCT035 OVC080 13/12 Q1012 WHT

2010/08/10 06:50
EGOS 100650Z 20004KT 9999 FEW010 BKN050 13/11 Q1009 BLU NOSIG

2010/08/10 06:50
EGQK 100650Z 12002KT 9999 FEW020 SCT060 BKN150 12/10 Q1004 BLU NOSIG

2010/08/10 06:50
EGQL 100650Z 04002KT 9999 FEW018 BKN080 12/11 Q1004 BLU NOSIG

2010/08/10 06:50
EGTC 100650Z 23007KT 9999 FEW045 12/11 Q1010

2010/08/10 06:50
EGUW 100650Z 26009KT 9999 -RADZ FEW010TCU SCT020 BKN024 17/13 Q1010 WHT TEMPO 4000 +RA BKN006 YLO1

2010/08/10 06:50
EGVP 100650Z 32003KT 9999 FEW008 BKN033 OVC090 13/12 Q1011 BLU BECMG -RA BKN007 GRN

2010/08/10 06:50
EGWU 100650Z 29007KT 9000 RA FEW007 BKN022 OVC045 15/14 Q1010 WHT

2010/08/10 06:50
EGXD 100650Z 15005KT 9999 FEW020 BKN075 12/12 Q1007 BLU TEMPO SCT022 WHT

2010/08/10 06:50
EGXE 100650Z 17005KT 9999 FEW015 BKN070 12/11 Q1007 BLU TEMPO SCT022 WHT

2010/08/10 06:50
EGXT 100650Z 22008KT 9999 FEW007 BKN060 BKN120 15/13 Q1009 BLU NOSIG

2010/08/10 06:50
EGXU 100650Z 12002KT 9999 FEW015 BKN070 12/12 Q1007 BLU NOSIG

2010/08/10 06:50
EGXW 100650Z 23006KT 9999 FEW007 SCT012 BKN040 15/14 Q1008 GRN BECMG SCT018 WHT

2010/08/10 06:50
EGYD 100650Z 22010KT 9999 FEW008 SCT027 BKN220 15/13 Q1008 BLU TEMPO SCT012 GRN

2010/08/10 06:50
EGYM 100650Z 26011KT 9999 RA FEW005 SCT020 BKN050 14/12 Q1009 WHT TEMPO 6000 RA SCT010 GRN

2010/08/10 06:50
EKVD 100650Z 16009KT CAVOK 17/13 Q1014

2010/08/10 06:55
KADW 100655Z AUTO 22008KT 10SM CLR 24/21 A2995 RMK AO2 SLP141 T02440209 $

2010/08/10 06:55
KBKF 100655Z 18006KT 25SM SCT120 BKN220 16/13 A3013 RMK SLP136

2010/08/10 06:55
KCOF 100655Z AUTO 13011KT 10SM FEW020 26/ A2993 RMK AO2 SLP137 T0264

2010/08/10 06:55
KCVS 100655Z 19004KT 10SM OVC170 21/17 A3008 RMK AO2A SLP139 T0206170 403120185 $

2010/08/10 06:55
KDLF 100655Z AUTO 12016KT 10SM CLR 30/23 A2994 RMK AO2 SLP119 T02960227

2010/08/10 06:55
KFCS 100655Z AUTO 02006KT 10SM BKN110 17/12 A3013 RMK AO2 SLP126 T01650120 402590155

2010/08/10 06:55
KFRI 100655Z AUTO 18012KT 10SM CLR 30/21 A2987 RMK AO2 SLP090 T02980205

2010/08/10 06:55
KFTK 100655Z AUTO 00000KT 10SM CLR 26/25 A2997 RMK AO2 SLP141 T02610249 $

2010/08/10 06:55
KGRK 100655Z 15006KT 7SM FEW060 28/22 A2993 RMK SLP110

2010/08/10 06:55
KHIF 100655Z 09016G21KT 10SM CLR 19/05 A3002 RMK AO2A SLP067 T01950049 402770179

2010/08/10 06:55
KLFI 100655Z 23005KT 10SM CLR 25/23 A2997 RMK AO2A SLP152 T02540226

2010/08/10 06:55
KLTS 100655Z AUTO 12006KT 10SM CLR 27/21 A2992 RMK AO2 SLP111 T02680205 $

2010/08/10 06:55
KMCF 100655Z AUTO 08007KT 10SM SCT065 26/25 A2988 RMK AO2 SLP121 T02590251

2010/08/10 06:55
KMIB 100655Z AUTO 09011KT 10SM FEW065 21/18 A2987 RMK AO2 RAB0559E0625DZB0625E0628 TSB0600E0615 SLP106 P0002 T02110177

2010/08/10 06:55
KMUO 100655Z AUTO 14010KT 10SM FEW130 18/14 A2988 RMK AO2 SLP092 T01850141 403130170

2010/08/10 06:52
KNFW 100652Z AUTO 19008KT 10SM CLR 30/19 A2994 RMK AO2 SLP123 T03000194

2010/08/10 06:50
LOWG 100650Z VRB02KT 9999 FEW030 19/16 Q1019 NOSIG

2010/08/10 06:50
LOWI 100650Z 28003KT 240V330 9999 FEW050 16/13 Q1019 NOSIG

2010/08/10 06:50
LOWK 100650Z VRB02KT 9999 FEW003 BKN037 17/16 Q1020 NOSIG

2010/08/10 06:50
LOWL 100650Z 12003KT 060V170 CAVOK 17/14 Q1019 NOSIG

2010/08/10 06:50
LOWS 100650Z 14008KT 110V170 9999 FEW060 18/12 Q1018 NOSIG

2010/08/10 06:50
LOWW 100650Z 35003KT 280V060 9999 FEW070 19/15 Q1018 NOSIG

2010/08/10 06:50
EFIV 100650Z AUTO 02008KT 340V050 9999 OVC010 11/10 Q1012

2010/08/10 06:50
EFKE 100650Z 36012KT 9999 BKN015 14/10 Q1009

2010/08/10 06:50
ENZV 100650Z 15008KT 9999 FEW045 BKN062 16/12 Q1009 NOSIG

2010/08/10 06:50
LGKP 100650Z 33027KT 9999 FEW010 29/21 Q1005

2010/08/10 06:50
LGKZ 100650Z 33014KT CAVOK 23/13 Q1016

2010/08/10 06:50
LGMK 100650Z 01019KT 9999 FEW018 28/23 Q1007

2010/08/10 06:50
LGPZ 100650Z 00000KT 9999 FEW015 28/22 Q1011 NOSIG

2010/08/10 06:50
LGRX 100650Z 00000KT 9999 FEW025 29/20 Q1010 NOSIG

2010/08/10 06:50
LGZA 100650Z VRB03KT CAVOK 29/21 Q1010

2010/08/10 06:50
LGAD 100650Z 00000KT 9999 FEW020 28/22 Q1011

2010/08/10 06:50
LGAL 100650Z VRB03KT CAVOK 29/21 Q1011

2010/08/10 06:50
LGEL 100650Z 34009KT 9999 FEW030 31/18 Q1009

2010/08/10 06:50
LGIR 100650Z 30013KT 9999 FEW020 BKN080 29/22 Q1008 NOSIG

2010/08/10 06:50
LGKF 100650Z 00000KT 9999 FEW025 27/20 Q1010

2010/08/10 06:50
LGKL 100650Z 00000KT CAVOK 30/18 Q1009

2010/08/10 06:50
LGKO 100650Z 34009KT CAVOK 30/22 Q1006

2010/08/10 06:50
LGKR 100650Z 00000KT CAVOK 29/20 Q1009 NOSIG

2010/08/10 06:50
LGKV 100650Z 00000KT CAVOK 29/21 Q1010

2010/08/10 06:50
LGMT 100650Z /////KT CAVOK 29/24 Q1008

2010/08/10 06:50
LGRP 100650Z 25008KT CAVOK 30/25 Q1005 NOSIG

2010/08/10 06:50
LGSA 100650Z 00000KT 9999 FEW030 SCT080 29/20 Q1010

2010/08/10 06:50
LGSM 100650Z 01010KT 320V040 CAVOK 30/21 Q1006

2010/08/10 06:50
LGSR 100650Z 35014KT CAVOK 30/21 Q1007 NOSIG

2010/08/10 06:50
LGTS 100650Z 31010KT CAVOK 28/17 Q1012 NOSIG

2010/08/10 06:50
LIBD 100650Z 33004KT CAVOK 26/13 Q1014

2010/08/10 06:50
LICC 100650Z 23004KT CAVOK 25/17 Q1014

2010/08/10 06:50
LICJ 100650Z 30003KT CAVOK 25/19 Q1015

2010/08/10 06:50
LIEA 100650Z VRB01KT CAVOK 22/13 Q1016

2010/08/10 06:50
LIEO 100650Z 05006KT 360V070 CAVOK 26/13 Q1016

2010/08/10 06:50
LIMC 100650Z VRB02KT 9999 SCT060 22/18 Q1016 NOSIG

2010/08/10 06:50
LIME 100650Z 01005KT 9999 SCT070 21/17 Q1017

2010/08/10 06:50
LIMF 100650Z VRB02KT 9999 SCT080 21/17 1016

2010/08/10 06:50
LIMJ 100650Z 06005KT 9999 SCT020 24/20 Q1016

2010/08/10 06:50
LIML 100650Z VRB02KT CAVOK 23/18 Q1016 NOSIG

2010/08/10 06:45
LIBR 100645Z 33022G34KT CAVOK 25/21 Q1013 NOSIG

2010/08/10 06:45
LIEE 100645Z 30002KT CAVOK 23/09 Q1015 NOSIG

2010/08/10 06:50
LIPB 100650Z 14002KT 9999 FEW040 SCT060TCU 22/16 Q1018

2010/08/10 06:50
LIPE 100650Z 26005KT 230V300 CAVOK 23/19 Q1015

2010/08/10 06:50
LIPK 100650Z 00000KT CAVOK 23/18 Q1015

2010/08/10 06:50
LIPQ 100650Z VRB01KT CAVOK 23/19 Q1016

2010/08/10 06:50
LIPZ 100650Z 01005KT CAVOK 23/19 Q1016

2010/08/10 06:50
LIRF 100650Z 06006KT CAVOK 25/16 Q1015 NOSIG

2010/08/10 06:50
LIRQ 100650Z VRB03KT 8000 FEW030 23/19 Q1016

2010/08/10 06:45
LIPH 100645Z 05004KT CAVOK 25/20 Q1016

2010/08/10 06:45
LIPR 100645Z 25001KT CAVOK 23/22 Q1015

2010/08/10 06:45
LIPX 100645Z 07003KT 9999 FEW040 24/22 Q1015

2010/08/10 06:45
LIRA 100645Z 01004KT CAVOK 23/17 Q1015

2010/08/10 06:45
LIRP 100645Z 14002KT 3000 BR NSC 20/20 Q1016 BECMG 5000 BR

2010/08/10 06:50
LIMC 100650Z VRB02KT 9999 SCT060 22/18 Q1016 NOSIG

2010/08/10 06:45
LIPX 100645Z 07003KT 9999 FEW040 24/22 Q1015

2010/08/10 06:50
LCRA 100650Z 11008KT 7000 HZ BKN016 SCT022 29/24 Q1006 BECMG 9999 NSW FEW020

2010/08/10 06:47
MMML 100647Z 00000KT 10SM SKC 28/18 A2972

2010/08/10 06:55
EHDL 100655Z AUTO 22007KT 9999NDV NCD 16/13 Q1014 BLU

2010/08/10 06:55
EHEH 100655Z AUTO 21006KT 9999NDV FEW057 17/13 Q1014 BLU BLU NOSIG

2010/08/10 06:55
EHGR 100655Z AUTO 21005KT 9999NDV FEW096 17/13 Q1014 BLU BLU TEMPO WHT TEMPO SCT020

2010/08/10 06:55
EHLW 100655Z AUTO 18007KT 7000NDV BR NCD 17/15 Q1012 WHT BLU TEMPO WHT 7000 FEW110 TEMPO SCT 015

2010/08/10 06:55
EHVK 100655Z AUTO 22008KT 9999NDV NCD 17/13 Q1014 BLU BLU NOSIG

2010/08/10 06:55
EHVL 100655Z AUTO 20013KT 9999NDV BKN013 BKN016 BKN021 18/15 Q1011 GRN

2010/08/10 06:55
EHWO 100655Z AUTO 22006KT 9999NDV SCT290 16/13 Q1013 BLU BLU TEMPO WHT SCT290 TEMPO SCT020

2010/08/10 06:50
ENDU 100650Z VRB01KT 9999 FEW045 SCT060 11/09 Q1011 NOSIG

2010/08/10 06:50
ENBN 100650Z 12002KT 6000 SCT002 BKN004 12/12 Q1011

2010/08/10 06:50
ENBV 100650Z 09007KT 9999 BKN035 10/08 Q1013

2010/08/10 06:50
ENFG 100650Z 18003KT 9999 SCT012 BKN016 13/11 Q1011

2010/08/10 06:50
ENHF 100650Z 06005KT 9999 BKN045 12/09 Q1011

2010/08/10 06:50
ENNO 100650Z 00000KT 5000 BR BKN006 15/14 Q1010

2010/08/10 06:50
ENOV 100650Z VRB01KT 9999 FEW008 SCT014 BKN020 15/12 Q1010

2010/08/10 06:50
ENRA 100650Z VRB02KT 9999 FEW040 BKN050 17/12 Q1010

2010/08/10 06:50
ENSH 100650Z 02015KT 9999 FEW010 SCT035 12/10 Q1010

2010/08/10 06:50
ENSN 100650Z 20005KT 6000 FEW001 SCT003 BKN008 14/14 Q1010

2010/08/10 06:50
ENSR 100650Z 35003KT 9999 FEW010 SCT030 12/09 Q1011

2010/08/10 06:50
EGLF 100650Z 31007KT 8000 -RA FEW004 SCT006 BKN014 14/14 Q1011

2010/08/10 06:50
EGLF 100650Z 31007KT 8000 -RA FEW004 SCT006 BKN014 14/14 Q1011 RERA

2010/08/10 06:50
EGLL 100650Z 29010KT 9999 RA FEW009 SCT019 BKN022 14/12 Q1011 NOSIG

2010/08/10 06:50
EGPB 100650Z 13008KT 9999 FEW010 FEW015CB SCT022 15/14 Q1004 NOSIG

2010/08/10 06:50
EGBJ 100650Z 21005KT 9999 FEW012 14/12 Q1010

2010/08/10 06:50
EGDL 100650Z 20006KT 9999 RA SCT023 OVC050 11/10 Q1011 WHT NOSIG

2010/08/10 06:50
EGDL 100650Z 20006KT 9999 RA SCT023 OVC050 11/10 Q1011 NOSIG

2010/08/10 06:50
EGDM 100650Z 27005KT 9999 -RA FEW007 BKN070 OVC100 13/12 Q1011 BLU TEMPO SCT008 GRN

2010/08/10 06:50
EGDR 100650Z 21010KT 0500 -DZ SCT000 OVC004 16/15 Q1011 RED

2010/08/10 06:50
EGDY 100650Z 25005KT 6000 RA FEW008 SCT035 OVC080 13/12 Q1012 WHT

2010/08/10 06:50
EGOS 100650Z 20004KT 9999 FEW010 BKN050 13/11 Q1009 BLU NOSIG

2010/08/10 06:50
EGOV 100650Z 23014KT 9999 FEW018 BKN060 14/12 Q1008 BLU NOSIG

2010/08/10 06:50
EGQK 100650Z 12002KT 9999 FEW020 SCT060 BKN150 12/10 Q1004 BLU NOSIG

2010/08/10 06:50
EGQL 100650Z 04002KT 9999 FEW018 BKN080 12/11 Q1004 BLU NOSIG

2010/08/10 06:50
EGQS 100650Z 17002KT CAVOK 11/10 Q1004 BLU NOSIG

2010/08/10 06:50
EGSC 100650Z 24008KT 210V270 8000 RA FEW007 SCT037 15/12 Q1010

2010/08/10 06:50
EGNS 100650Z 23012KT 9999 FEW013 SCT017 14/11 Q1006 NOSIG

2010/08/10 06:50
EGSH 100650Z 25009KT 8000 -RA SCT024 17/16 Q1009

2010/08/10 06:56
KMHS 100656Z AUTO 00000KT 10SM CLR 16/11 A2997 RMK AO2 SLP135 T01560106 TSNO 

2010/08/10 06:56
K9L2 100656Z AUTO VRB04KT 10SM CLR 23/03 A2989 RMK AO2 SLP099 T02330033 403500122 $ 

2010/08/10 06:56
K2WX 100656Z AUTO 16010KT 21/12 A2978 RMK AO1 SLP055 T02110122 403610167 

2010/08/10 06:56
KNTU 100656Z 23003KT 10SM FEW200 24/23 A2997 RMK AO2 SLP151 T02390228 $ 

2010/08/10 06:56
KSPD 100656Z AUTO 00000KT 21/17 A3006 RMK AO2 SLP106 T02060167 403330178 PWINO TSNO 

2010/08/10 06:56
KNFE 100656Z AUTO 00000KT 2SM HZ CLR 23/21 A2998 RMK AO2 SLP155 T02330206 $ 

2010/08/10 06:56
KINS 100656Z VRB04KT 10SM CLR 23/M05 A2992 RMK AO2 SLP080 T02281050 403390128 

2010/08/10 06:56
KFSD 100656Z 12009KT 10SM FEW012 BKN037 25/23 A2988 RMK AO2 SLP105 T02500233 $ 

2010/08/10 06:56
KNCA 100656Z AUTO 00000KT 10SM 24/23 A3003 RMK AO2 SLP169 T02390233 $ 

2010/08/10 06:56
KD07 100656Z AUTO 17008KT 20/16 A2986 RMK AO2 SLP092 T02000156 403330167 PWINO TSNO 

2010/08/10 07:00
SBFL 100700Z 00000KT 9999 SCT025 14/11 Q1025

2010/08/10 06:50
LSGS 100650Z 08005KT 060V130 9999 SCT090 20/12 Q1019

2010/08/10 06:56
KALK 100656Z AUTO 21008KT 10SM CLR 22/14 A3013 RMK AO2 SLP107 T02170139 403060178 $ 

2010/08/10 06:56
KNBT 100656Z AUTO 22004KT 8SM CLR 27/24 A3001 RMK AO2 SLP166 T02670244 TSNO 

2010/08/10 06:53
KLND 100653Z AUTO 22009KT 10SM CLR 17/02 A3006 RMK AO2 SLP106 T01720022 403110128 

2010/08/10 06:54
KAKQ 100654Z AUTO 00000KT 9SM CLR 24/21 A2998 RMK AO2 SLP151 T02390211 TSNO 

2010/08/10 06:56
KNUQ 100656Z AUTO 03005KT 10SM OVC010 14/12 A2993 RMK AO2 SLP136 T01440122 TSNO 

2010/08/10 06:56
KNUW 100656Z 23007KT 8SM FEW008 BKN012 OVC045 14/12 A2996 RMK AO2 SLP148 T01430116 $ 

2010/08/10 06:56
PHBK 100656Z AUTO 16005KT 10SM BKN055 27/16 A3008 RMK AO2 SLP189 T02720156 TSNO $ 

2010/08/10 06:56
KGNA 100656Z AUTO 00000KT 16/14 A2994 RMK AO2 SLP135 T01560139 PWINO TSNO 

2010/08/10 06:50
EBAW 100650Z 22007KT CAVOK 17/12 Q1014 NOSIG

2010/08/10 06:50
EBBR 100650Z 21005KT CAVOK 17/12 Q1015 NOSIG

2010/08/10 06:50
EBCI 100650Z 22005KT CAVOK 17/11 Q1015 NOSIG

2010/08/10 06:50
EBLG 100650Z 16004KT CAVOK 17/12 Q1015 NOSIG

2010/08/10 06:55
EHBK 100655Z AUTO 20006KT 9999NDV NSC 18/13 Q1015 NOSIG

2010/08/10 06:55
EHDL 100655Z AUTO 22007KT 9999NDV NCD 16/13 Q1014 BLU

2010/08/10 06:55
EHGG 100655Z AUTO 19008KT 170V230 9999NDV NSC 16/13 Q1013 NOSIG

2010/08/10 06:55
EHGR 100655Z AUTO 21005KT 9999NDV FEW096 17/13 Q1014 BLU BLU TEMPO WHT TEMPO SCT020

2010/08/10 06:55
EHLW 100655Z AUTO 18007KT 7000NDV BR NCD 17/15 Q1012 WHT BLU TEMPO WHT 7000 FEW110 TEMPO SCT 015

2010/08/10 06:55
EHRD 100655Z 21011KT 9999 SCT009 BKN011 17/15 Q1013 BECMG SCT012

2010/08/10 06:55
EHVK 100655Z AUTO 22008KT 9999NDV NCD 17/13 Q1014 BLU BLU NOSIG

2010/08/10 06:55
EHVL 100655Z AUTO 20013KT 9999NDV BKN013 BKN016 BKN021 18/15 Q1011 GRN

2010/08/10 06:55
EHWO 100655Z AUTO 22006KT 9999NDV SCT290 16/13 Q1013 BLU BLU TEMPO WHT SCT290 TEMPO SCT020

2010/08/10 06:50
ELLX 100650Z 17005KT 140V210 CAVOK 18/12 Q1016 NOSIG

2010/08/10 06:55
ETAD 100655Z AUTO 00000KT 9999 CLR 18/12 A3003 RMK AO2 SLPNO T01800118 VISNO RWY05 CHINO RWY05 $

2010/08/10 06:55
ETAR 100655Z AUTO 00000KT 9999 CLR 16/14 A3003 RMK AO2 SLP164 T01560139 $

2010/08/10 06:55
ETEB 100655Z AUTO 00000KT 9999 CLR 18/14 A3006 RMK AO2 SLP167 T01770142

2010/08/10 06:56
ETIC 100656Z AUTO 00000KT 9999 SCT047 14/14 A3007 RMK AO2 SLP176 T01370137

2010/08/10 06:55
ETOU 100655Z AUTO 00000KT 9999 CLR 18/14 A3003 RMK AO2 SLP166 T01810144

2010/08/10 06:55
KBKF 100655Z 18006KT 25SM SCT120 BKN220 16/13 A3013 RMK SLP136

2010/08/10 06:55
KCVS 100655Z 19004KT 10SM OVC170 21/17 A3008 RMK AO2A SLP139 T0206170 403120185 $

2010/08/10 06:55
KFMH 100655Z AUTO 30008KT 2 1/2SM RA FEW003 SCT025 BKN039 21/20 A2994 RMK AO2 LTG DSNT NW-NE P0016

2010/08/10 06:55
KFRI 100655Z AUTO 18012KT 10SM CLR 30/21 A2987 RMK AO2 SLP090 T02980205

2010/08/10 06:55
KGRK 100655Z 15006KT 7SM FEW060 28/22 A2993 RMK SLP110

2010/08/10 06:55
KLFI 100655Z 23005KT 10SM CLR 25/23 A2997 RMK AO2A SLP152 T02540226

2010/08/10 06:55
KLSV 100655Z AUTO 04005KT 10SM CLR 27/M00 A2984 RMK AO2 SLP090 T02661001 PWINO

2010/08/10 06:55
KMCF 100655Z AUTO 08007KT 10SM SCT065 26/25 A2988 RMK AO2 SLP121 T02590251

2010/08/10 06:55
KMIB 100655Z AUTO 09011KT 10SM FEW065 21/18 A2987 RMK AO2 RAB0559E0625DZB0625E0628 TSB0600E0615 SLP106 P0002 T02110177

2010/08/10 06:55
KPAM 100655Z AUTO 05003KT 10SM CLR 27/26 A2990 RMK AO2 SLP127 T02700257 $

2010/08/10 06:55
KPSM 100655Z 21005KT 7SM -RA SCT045 OVC100 21/20 A2988 RMK AO2A SLP119 P0003 T02090204

2010/08/10 06:55
KSKA 100655Z AUTO 19003KT 10SM CLR 17/07 A2980 RMK AO2 CIG 170 RWY05 SLP079 T01690071

2010/08/10 06:55
KTCM 100655Z AUTO 22005KT 10SM OVC013 14/11 A2998 RMK AO2 SLP153 T01410113

2010/08/10 06:55
KVAD 100655Z AUTO 05003KT 10SM CLR 25/24 A2996 RMK AO2 SLP143 T02480239 $

2010/08/10 06:55
MHSC 100655Z AUTO 03003KT 9999 BKN060 22/20 A2997 RMK AO2 SLP105 T02180202 $

2010/08/10 06:55
OAHR 100655Z 02014KT CAVOK 34/M01 Q1011 RMK SKC VIS MIN 9999 BLU

2010/08/10 06:56
KAQV 100656Z AUTO 00000KT 10SM CLR 26/24 A2992 RMK AO2 SLP128 T02610239 

2010/08/10 06:50
LGAD 100650Z 00000KT 9999 FEW020 28/22 Q1011

2010/08/10 06:50
LGAL 100650Z VRB03KT CAVOK 29/21 Q1011

2010/08/10 06:50
LGEL 100650Z 34009KT 9999 FEW030 31/18 Q1009

2010/08/10 06:50
LGKV 100650Z 00000KT CAVOK 29/21 Q1010

2010/08/10 06:50
LGMT 100650Z /////KT CAVOK 29/24 Q1008

2010/08/10 06:50
LGPZ 100650Z 00000KT 9999 FEW015 28/22 Q1011 NOSIG

2010/08/10 06:50
LGRX 100650Z 00000KT 9999 FEW025 29/20 Q1010 NOSIG

2010/08/10 06:50
LGSR 100650Z 35014KT CAVOK 30/21 Q1007 NOSIG

2010/08/10 06:50
LGZA 100650Z VRB03KT CAVOK 29/21 Q1010

2010/08/10 06:50
LSMD 100650Z VRB02KT 9999 SCT054 BKN086 18/15 Q1018 RMK WHT

2010/08/10 06:50
LSME 100650Z AUTO 00000KT 9999NDV FEW077 18/14 Q1018 RMK BLU

2010/08/10 06:50
LSMM 100650Z AUTO VRB02KT 9999NDV SCT068 BKN100 16/14 Q1019 RMK WHT

2010/08/10 06:50
EGTC 100650Z 23007KT 9999 FEW045 12/11 Q1010

2010/08/10 06:55
EHAM 100655Z 19010KT 170V230 9999 FEW011 BKN012 BKN015 17/15 Q1012 BECMG SCT012

2010/08/10 06:55
EHBK 100655Z AUTO 20006KT 9999NDV NSC 18/13 Q1015 NOSIG

2010/08/10 06:55
EHGG 100655Z AUTO 19008KT 170V230 9999NDV NSC 16/13 Q1013 NOSIG

2010/08/10 06:55
EHRD 100655Z 21011KT 9999 SCT009 BKN011 17/15 Q1013 BECMG SCT012

2010/08/10 06:50
HLLT 100650Z VRB03KT CAVOK 25/18 Q1016

2010/08/10 06:50
LGKC 100650Z 36007KT 320V060 CAVOK 29/22 Q1012

2010/08/10 06:50
LGKF 100650Z 00000KT 9999 FEW025 27/20 Q1010

2010/08/10 06:50
LGKP 100650Z 33027KT 9999 FEW010 29/21 Q1005

2010/08/10 06:50
LGKZ 100650Z 33014KT CAVOK 23/13 Q1016

2010/08/10 06:50
LGMK 100650Z 01019KT 9999 FEW018 28/23 Q1007

2010/08/10 06:50
LGNX 100650Z 36012KT 9999 FEW018 29/23 Q1008

2010/08/10 06:50
LGPA 100650Z 35015KT CAVOK 30/23 Q1007

2010/08/10 06:50
LGSO 100650Z 35015KT 9999 FEW020 29/21 Q1008

2010/08/10 07:00
LWOH 100700Z 35009KT CAVOK 23/14 Q1017

2010/08/10 07:00
OPPS 100700Z N--08 4000 HZ SCT030 SCT100 33/26 Q1003.9

2010/08/10 06:53
KGNT 100653Z AUTO 00000KT 15/11 A3025 RMK AO2 SLP152 T01500106 402780100 PWINO TSNO 

2010/08/10 06:53
KUIL 100653Z AUTO 00000KT 8SM OVC011 12/11 A2998 RMK AO2 SLP151 T01220111 TSNO 

2010/08/10 07:00
FASK 100700Z 15020KT CAVOK 06/// Q1032

2010/08/10 06:54
KNFG 100654Z 00000KT 6SM BR FEW015 11/09 A2992 RMK AO2 SLP129 T01110094

2010/08/10 06:52
KNHK 100652Z AUTO 21007KT 10SM CLR 26/22 A2995 RMK AO2 SLP143 T02610217 $

2010/08/10 06:53
KNIP 100653Z 13007KT 10SM FEW020 28/24 A2995 RMK AO2 SLP138 T02780244

2010/08/10 06:54
KNKT 100654Z AUTO 20005KT 10SM CLR 24/23 A3002 RMK AO2 SLP163 T02440233

2010/08/10 06:53
KNQX 100653Z AUTO 25005KT 10SM FEW060 27/23 A2985 RMK AO2 TSE0554B06E46 SLP107 T02670233 $

2010/08/10 06:56
KNYG 100656Z AUTO 22006KT 9SM CLR 26/20 A2995 RMK AO2 SLP144 T02610200 $

2010/08/10 06:52
KNZY 100652Z 31003KT 10SM BKN015 20/14 A2991 RMK AO2 SLP128 T02000139 $

2010/08/10 06:55
KPAM 100655Z AUTO 05003KT 10SM CLR 27/26 A2990 RMK AO2 SLP127 T02700257 $

2010/08/10 06:55
KPOB 100655Z AUTO 25004KT 10SM CLR 25/25 A3001 RMK AO2 SLP162 T02510251 $

2010/08/10 06:55
KPSM 100655Z 21005KT 7SM -RA SCT045 OVC100 21/20 A2988 RMK AO2A SLP119 P0003 T02090204

2010/08/10 06:55
KSKA 100655Z AUTO 19003KT 10SM CLR 17/07 A2980 RMK AO2 CIG 170 RWY05 SLP079 T01690071

2010/08/10 06:55
KSKF 100655Z 16005KT 10SM CLR 27/24 A2995 RMK AO2A SLP132 T0265 $

2010/08/10 06:55
KSSC 100655Z 00000KT 10SM CLR 25/24 A3000 RMK AO2A SLP158 T02500235 $

2010/08/10 06:55
KTCM 100655Z AUTO 22005KT 10SM OVC013 14/11 A2998 RMK AO2 SLP153 T01410113

2010/08/10 06:55
KTIK 100655Z 17010KT 10SM CLR 27/21 A2993 RMK AO2A SLP118 T02740207

2010/08/10 06:55
KVAD 100655Z AUTO 05003KT 10SM CLR 25/24 A2996 RMK AO2 SLP143 T02480239 $

2010/08/10 06:55
KQAY 100655Z AUTO VRB04KT 9000 CLR 40/20 A2955 RMK AO2 SLP000 T04040196 $

2010/08/10 06:55
KQBL 100655Z AUTO 36002KT 9SM CLR 27/23 A2995 RMK AO2 SLP140 T02660232

2010/08/10 06:55
KQC3 100655Z AUTO 11005KT 9999 CLR 26/15 A3012 RMK AO2 SLP100 T02570153 PNO $

2010/08/10 06:55
KQDM 100655Z AUTO 32004KT 9SM FEW085 BKN100 26/05 A3016 RMK AO2 LTG DSNT SE SLP099 T02560045 PWINO $

2010/08/10 06:55
KQDX 100655Z AUTO VRB02KT 7000 37/00 A2974 RMK AO2 SLP988 T03691005 $

2010/08/10 06:55
KQGV 100655Z 35009KT 9999 BKN150 40/03 A2957 RMK SLP001

2010/08/10 06:55
KQGX 100655Z 17009KT 8000 HZ CLR 42/17 A2954 RMK AO2A SLP002

2010/08/10 06:55
KQIR 100655Z 11009KT 9999 CLR 41/17 A2953 RMK AO2A SLP999 T04070174

2010/08/10 06:55
KQQR 100655Z AUTO 13003KT 9999 CLR 29/20 A2988 RMK AO2 SLP045 T02910198 $

2010/08/10 06:55
KQSA 100655Z VRB03KT 9999 FEW070 BKN160 31/14 A2992 RMK SLP305 WND DATA ESTMD ALSTG/SLP ESTMD

2010/08/10 06:55
KQTX 100655Z 32006KT 9000 HZ FEW080 43/01 A2965 RMK SLP013

2010/08/10 06:55
KQTZ 100655Z VRB05KT 8000 DU HZ CLR 43/06 A2960 RMK SLP017 QNH1001MB WND DATA ESTMD ALTSG/SLP ESTMD

2010/08/10 06:55
KQYU 100655Z AUTO 05012G22KT 9999 FEW160 33/M01 A2991 RMK AO2 SLP048 T03281012

2010/08/10 06:56
KQON 100656Z AUTO RMK AO2 SLPNO $

2010/08/10 07:00
OYAT 100700Z 15013KT CAVOK 32/16 Q1003

2010/08/10 07:00
OYMB 100700Z 24008KT CAVOK 35/12 Q1006

2010/08/10 07:00
OYHD 100700Z 33010KT 7000 SCT029 34/31 Q1004

2010/08/10 06:54
KWAL 100654Z AUTO 24006KT 10SM CLR 24/22 A2997 RMK AO2 SLP146 T02390217 TSNO 

2010/08/10 06:55
KY63 100655Z AUTO 14005KT 10SM CLR 24/21 A2993 RMK AO2 T02360211

2010/08/10 06:55
PGUA 100655Z AUTO 07008KT 10SM FEW019 27/24 A2990 RMK AO2 SLP106 T02700242 $

2010/08/10 06:56
TJSJ 100656Z 12005KT 10SM SCT050 27/24 A2994 RMK AO2 RAB08E19 SLP137 OCNL LTGIC DSNT N-SW CB DSNT N-SW P0000 T02670244 $

2010/08/10 06:55
KLDM 100655Z AUTO 00000KT 1/4SM FG OVC001 21/20 A2997 RMK AO2

2010/08/10 06:55
KPHN 100655Z AUTO 00000KT 1/4SM FG OVC001 18/18 A2995 RMK AO2

2010/08/10 06:55
KRMY 100655Z AUTO 00000KT 1/4SM FG BKN001 OVC007 20/19 A2997 RMK AO2

2010/08/10 06:56
KOSC 100656Z AUTO 00000KT BKN001 OVC010 21/19 A2994 RMK AO2 PWINO

2010/08/10 06:53
KTTF 100653Z AUTO 00000KT M1/4SM FG OVC001 21/21 A2994 RMK AO2

2010/08/10 06:55
KMCD 100655Z AUTO 00000KT 2 1/2SM HZ CLR 21/18 A2996 RMK AO2 VIS 2V3

2010/08/10 06:56
KABQ 100656Z 00000KT 10SM FEW100 24/07 A3014 RMK AO2 SLP106 T02390072 403170178

2010/08/10 06:56
KJAX 100656Z 06003KT 10SM FEW022 26/23 A2995 RMK AO2 SLP142 T02560233

2010/08/10 06:55
K1A6 100655Z AUTO 00000KT 5SM BR CLR 24/24 A3003 RMK AO2

2010/08/10 06:53
K29G 100653Z AUTO 00000KT 10SM BKN048 BKN065 BKN110 24/19 A2997 RMK AO2 T02400186 PWINO

2010/08/10 06:55
K46D 100655Z AUTO 17008KT 10SM CLR 22/20 A2991 RMK AO2

2010/08/10 06:50
KAEL 100650Z AUTO 11003KT 10SM CLR 23/22 A2995 RMK AO2 LTG DSNT SE

2010/08/10 06:55
KAIG 100655Z AUTO 00000KT 7SM CLR 17/16 A3001 RMK AO2

2010/08/10 06:56
KAJO 100656Z AUTO 26006KT 10SM CLR 17/14 A2991 RMK AO2 T01660138 SLP123 $

2010/08/10 06:55
KANE 100655Z AUTO 00000KT 10SM CLR 22/21 A2995 RMK AO2

2010/08/10 06:53
KAQP 100653Z AUTO 14004KT 10SM CLR 23/23 A2991 RMK AO2

2010/08/10 06:51
KARV 100651Z AUTO 00000KT 10SM CLR 18/17 A3002 RMK AO2 T01800165

2010/08/10 06:55
KBBF 100655Z AUTO 19012KT 10SM SCT020 30/27 A2989 RMK A01

2010/08/10 06:53
KBFW 100653Z AUTO 00000KT 10SM CLR 17/16 A2996 RMK AO2

2010/08/10 06:55
KBQX 100655Z AUTO 18008KT 10SM FEW020 30/26 A2991 RMK A01

2010/08/10 06:50
KBWP 100650Z AUTO 14006KT 10SM CLR 22/20 A2991 RMK AO1 T02200195

2010/08/10 06:56
KCAE 100656Z 00000KT 6SM BR CLR 24/23 A3001 RMK AO2 SLP159 T02440228

2010/08/10 06:52
KCDD 100652Z AUTO 00000KT 5SM BR CLR 19/19 A2997 RMK AO2

2010/08/10 06:56
KCHS 100656Z 00000KT 10SM CLR 27/25 A3001 RMK AO2 SLP160 T02670250

2010/08/10 06:55
KCLI 100655Z AUTO 00000KT 10SM CLR 21/19 A2997 RMK AO2

2010/08/10 06:55
KCMB 100655Z AUTO 27004KT 10SM CLR 31/25 A2992 RMK A01

2010/08/10 06:55
KCMY 100655Z AUTO 00000KT 1/2SM FG OVC001 21/21 A2996 RMK AO2 T02120205

2010/08/10 06:55
KCRH 100655Z AUTO 28005KT 10SM CLR 30/25 A2992 RMK A01

2010/08/10 06:50
KCVH 100650Z AUTO 27005KT 10SM OVC009 13/12 A2994 RMK AO1

2010/08/10 06:55
KCWA 100655Z AUTO 01006KT 10SM CLR 22/20 A3000 RMK AO2 T02170200

2010/08/10 06:56
KDIJ 100656Z AUTO 13003KT 10SM FEW050 10/08 A3013 RMK AO2 T01000077 402380094 SLP123 $

2010/08/10 06:55
KDLL 100655Z AUTO 00000KT M1/4SM FG VV000 22/21 A2996 RMK AO2 T02150209

2010/08/10 06:56
KDVP 100656Z AUTO 10004KT 5SM BR CLR 23/22 A2995 RMK AO2 T02320218

2010/08/10 06:54
KDXX 100654Z AUTO 00000KT 10SM SCT031 22/22 A2991 RMK AO2

2010/08/10 06:54
KDYT 100654Z AUTO 00000KT 10SM CLR 24/22 A2994 RMK AO2

2010/08/10 07:00
KEDU 100700Z AUTO 18006KT 10SM CLR 15/12 A2981 RMK AO1

2010/08/10 06:56
KEFK 100656Z AUTO 00000KT 1 3/4SM BR VV007 15/14 A2994 RMK AO2

2010/08/10 06:55
KEFT 100655Z AUTO 00000KT 10SM CLR 24/23 A2995 RMK AO2 T02420225

2010/08/10 06:51
KEGV 100651Z AUTO 00000KT 1/2SM FG OVC003 16/16 A3002 RMK AO2 VIS 1/4V4 T01620163

2010/08/10 06:55
KEHC 100655Z AUTO 00000KT 10SM SCT026 30/25 A2992 RMK A01

2010/08/10 06:55
KEIR 100655Z AUTO 00000KT 10SM SCT070 29/26 A2991 RMK A01

2010/08/10 06:56
KEKQ 100656Z AUTO 00000KT 1 3/4SM BR CLR 23/22 A3002 RMK AO2 T02270222 SLP158

2010/08/10 06:54
KELO 100654Z AUTO 00000KT 10SM CLR 18/17 A2998 RMK AO2

2010/08/10 06:55
KEMK 100655Z AUTO 19005KT 10SM CLR 30/25 A2992 RMK A01

2010/08/10 06:51
KMZH 100651Z AUTO 00000KT 1/4SM FG OVC001 18/18 A2995 RMK AO2

2010/08/10 06:51
KONA 100651Z AUTO 00000KT M1/4SM FG OVC001 23/22 A2993 RMK AO2

2010/08/10 06:54
KONZ 100654Z AUTO 00000KT 2SM BR CLR 22/21 A2994 RMK AO2

2010/08/10 06:54
KORB 100654Z AUTO 00000KT 10SM CLR 21/19 A2994 RMK AO2

2010/08/10 06:54
KOVL 100654Z AUTO 13004KT 10SM CLR 22/20 A2992 RMK AO2 T02230198

2010/08/10 06:56
KSDF 100656Z 00000KT 8SM CLR 29/23 A2995 RMK AO2 SLP136 T02890233

2010/08/10 06:57
K14Y 100657Z AUTO 00000KT 10SM CLR 22/20 A2996 RMK AO2 T02160201

2010/08/10 06:55
K1P1 100655Z AUTO 32004KT 5SM BR SCT120 21/19 A2990 RMK AO2 T02050192

2010/08/10 06:55
K21D 100655Z AUTO 00000KT 10SM CLR 21/20 A2995 RMK AO2

2010/08/10 06:56
KART 100656Z AUTO 19005KT 6SM BR BKN013 21/20 A2993 RMK AO2 SLP129 T02060200

2010/08/10 06:55
KATW 100655Z AUTO 30003KT 2SM BR CLR 23/22 A2997 RMK AO2

2010/08/10 06:55
KBBG 100655Z AUTO 00000KT 10SM CLR 28/22 A2998 RMK AO2

2010/08/10 06:56
KBED 100656Z 23004KT 3SM -RA BR BKN049 BKN070 22/21 A2990 RMK AO2 SLP133 P0002 T02220211

2010/08/10 06:54
KBJI 100654Z AUTO 00000KT 10SM CLR 21/20 A2995 RMK AO2

2010/08/10 06:56
KBJJ 100656Z AUTO 00000KT 6SM BR CLR 22/20 A2998 RMK AO2 SLP140 T02220200

2010/08/10 06:55
KBKN 100655Z AUTO 00000KT 10SM FEW100 27/21 A2989 RMK AO2

2010/08/10 06:55
KBUU 100655Z AUTO 00000KT 1SM BR VV007 19/19 A2996 RMK AO2 T01890186

2010/08/10 06:56
KBZN 100656Z AUTO 14007KT 10SM BKN080 14/10 A3000 RMK AO2 SLP123 T01390100 402830100

2010/08/10 06:56
KCTB 100656Z AUTO 00000KT 10SM CLR 16/10 A2985 RMK AO2 SLP077 T01560100 402780094 PWINO

2010/08/10 06:56
KCXY 100656Z AUTO 00000KT 8SM CLR 27/21 A2992 RMK AO2 SLP129 T02720206

2010/08/10 06:53
KD39 100653Z AUTO 10003KT 10SM CLR 23/21 A2995 RMK AO2 T02280208

2010/08/10 06:56
KDAY 100656Z 23005KT 7SM FEW050 26/21 A2999 RMK AO2 SLP143 T02560206

2010/08/10 06:55
KDVK 100655Z AUTO 20005KT 7SM CLR 24/23 A3000 RMK AO1

2010/08/10 06:56
KEED 100656Z AUTO 25006KT 10SM CLR 32/M01 A2977 RMK AO2 SLP045 T03221011 TSNO

2010/08/10 06:56
KELZ 100656Z AUTO 00000KT 4SM BR BKN070 OVC085 19/18 A3003 RMK AO2 RAE0559 SLP155 P0000 T01890183

2010/08/10 06:54
KEZS 100654Z AUTO 00000KT 10SM CLR 22/20 A2997 RMK AO2 T02160199

2010/08/10 06:55
KGGE 100655Z AUTO 00000KT 10SM SCT020 SCT027 SCT032 25/25 A3002 RMK AO2

2010/08/10 06:56
KGON 100656Z AUTO 34003KT 10SM CLR 24/19 A2991 RMK AO2 SLP127 T02440194

2010/08/10 06:55
KHFJ 100655Z AUTO 00000KT 10SM CLR 27/22 A2993 RMK AO1

2010/08/10 06:56
KHND 100656Z AUTO 17007KT 10SM CLR 27/M04 A2989 RMK AO2 T02721038 403720194 SLP068

2010/08/10 06:56
KHPN 100656Z VRB05KT 10SM CLR 26/17 A2992 RMK AO2 SLP124 T02610172

2010/08/10 06:56
KHWV 100656Z AUTO 23005KT 9SM CLR 25/21 A2992 RMK AO2 SLP130 T02500211

2010/08/10 06:56
KHYA 100656Z AUTO 34007KT 9SM VCTS -RA FEW010 BKN019 OVC060 22/19 A2993 RMK AO2 LTG DSNT NW TSB48RAB32 PRESRR SLP137 P0000 T02170194

2010/08/10 06:56
KISP 100656Z 24009KT 10SM SCT150 BKN250 25/17 A2991 RMK AO2 SLP125 T02500172

2010/08/10 06:56
KITH 100656Z AUTO 00000KT 5SM -RA BR BKN035 OVC048 22/20 A3000 RMK AO2 T02160200 RAB29 P0000 SLP151

2010/08/10 06:56
KIWA 100656Z AUTO 16003KT 10SM SCT120 31/11 A2985 RMK AO2

2010/08/10 06:56
KJXN 100656Z 00000KT 3/4SM BR VV001 21/21 A2997 RMK AO2 SLP145 T02060206 $

2010/08/10 06:55
KLCK 100655Z AUTO 00000KT 7SM CLR 23/21 A2996 RMK AO2 T02310205

2010/08/10 06:56
KLRD 100656Z AUTO 16011KT 10SM CLR 29/25 A2995 RMK AO2 T02940250 SLP126

2010/08/10 06:56
KMDT 100656Z 14003KT 7SM SCT200 BKN250 27/22 A2991 RMK AO2 SLP127 T02670217

2010/08/10 06:55
KMWO 100655Z AUTO 00000KT 3SM BR CLR 23/22 A2998 RMK AO2

2010/08/10 06:56
KOWB 100656Z AUTO 00000KT 9SM CLR 28/25 A2995 RMK AO2 T02770250 SLP136

2010/08/10 06:54
KPHL 100654Z COR 20007KT 10SM SCT180 BKN250 26/21 A2993 RMK AO2 SLP136 T02610211

2010/08/10 06:52
KPVB 100652Z AUTO 06003KT 10SM CLR 24/23 A2994 RMK AO1 T02410226

2010/08/10 06:55
KPVF 100655Z AUTO 00000KT 10SM FEW046 19/09 A2996 RMK AO1

2010/08/10 06:56
KSGH 100656Z AUTO 21004KT 5SM BR CLR 23/23 A2999 RMK AO2 T02330227 SLP146 $

2010/08/10 06:58
KSGJ 100658Z AUTO 14007KT 10SM CLR 27/23 A2996 RMK AO2 SLP143 T02720233

2010/08/10 06:53
KUNI 100653Z AUTO 00000KT 7SM CLR 23/18 A2997 RMK AO2

2010/08/10 06:55
KVQQ 100655Z AUTO 00000KT 10SM CLR 24/24 A2995 RMK AO2 LTG DSNT SE AND NW

2010/08/10 06:56
KWJF 100656Z 27012KT 10SM CLR 23/M06 A2991 RMK AO2 SLP108 T02331061

2010/08/10 06:55
KY51 100655Z AUTO 09004KT 10SM CLR 23/22 A2997 RMK AO1 T02270217

2010/08/10 06:54
KOWA 100654Z AUTO 10003KT 7SM CLR 22/21 A2994 RMK AO2

2010/08/10 06:53
KPEX 100653Z AUTO 09004KT 10SM CLR 24/21 A2995 RMK AO2 T02420211

2010/08/10 06:54
KRFD 100654Z 00000KT 8SM FEW026 24/22 A2996 RMK AO2 SLP138 T02400220 PNO $

2010/08/10 06:55
KROS 100655Z AUTO 00000KT 10SM CLR 19/19 A2996 RMK AO2 T01940186

2010/08/10 06:55
KROX 100655Z AUTO 19006KT 10SM CLR 22/21 A2990 RMK AO2

2010/08/10 06:54
KRRT 100654Z AUTO 21005KT 10SM CLR 23/21 A2991 RMK AO2 TSNO

2010/08/10 06:53
KRZN 100653Z AUTO 00000KT 10SM CLR 21/19 A2997 RMK AO2 T02080194

2010/08/10 06:54
KSAZ 100654Z AUTO 00000KT 10SM CLR 21/21 A2996 RMK AO2

2010/08/10 06:55
KSCF 100655Z AUTO 10008KT 10SM CLR 29/26 A2986 RMK A01

2010/08/10 06:53
KSGS 100653Z AUTO 00000KT 10SM CLR 24/22 A2994 RMK AO2 T02430215

2010/08/10 06:56
KSHV 100656Z 18003KT 10SM SCT290 28/23 A2991 RMK AO2 SLP124 T02780228

2010/08/10 06:55
KSPR 100655Z AUTO 13008KT 10SM FEW018 30/26 A2990 RMK A01

2010/08/10 06:55
KSYN 100655Z AUTO 00000KT 1 1/4SM BR VV007 22/21 A2993 RMK AO2 VIS 1/2V2 1/2 T02160205

2010/08/10 06:53
KTEW 100653Z AUTO 00000KT 3/4SM BR OVC001 18/18 A2996 RMK AO2

2010/08/10 06:53
KTKC 100653Z AUTO 00000KT 10SM BKN038 OVC044 23/22 A2993 RMK AO2 T02300217

2010/08/10 06:55
KTOB 100655Z AUTO 11003KT 2SM BR CLR 21/19 A2996 RMK AO2

2010/08/10 06:58
KTQH 100658Z AUTO 00000KT 10SM CLR 23/22 A2995 RMK AO2

2010/08/10 06:55
KVAF 100655Z AUTO 23009KT 10SM SCT020 30/25 A2988 RMK A01

2010/08/10 06:55
KVBS 100655Z AUTO 24006KT 10SM FEW023 31/25 A2991 RMK A01

2010/08/10 06:53
KVES 100653Z AUTO 00000KT 3SM BR CLR 21/21 A2998 RMK AO2 T02130210

2010/08/10 06:56
KVVV 100656Z AUTO 12006KT 10SM CLR 24/22 A2991 RMK AO2

2010/08/10 06:49
KVWU 100649Z AUTO 00000KT 10SM CLR 20/18 A2994 RMK AO2

2010/08/10 06:56
KXVG 100656Z AUTO 00000KT 5SM BR CLR 17/17 A2995 RMK AO2

2010/08/10 06:56
PAGN 100656Z AUTO 00000KT FEW008 BKN015 OVC029 RMK AO2 PWINO TSNO SLPNO $

2010/08/10 06:56
PATQ 100656Z AUTO 07016G22KT 4SM -RA BR OVC007 03/02 A2977 RMK AO2 TSNO T00270022 P0000 SLP087 $

2010/08/10 06:56
PAFS 100656Z AUTO VRB03KT 8SM FEW029 OVC048 12/10 A2962 RMK AO2 TSNO T01160100 SLP039 $

2010/08/10 06:56
PAGN 100656Z AUTO 00000KT FEW008 BKN015 OVC029 RMK AO2 PWINO TSNO SLPNO $

2010/08/10 06:56
PAHC 100656Z AUTO 00000KT 10SM -RA OVC029 12/11 A2948 RMK AO2 TSNO T01160105 OVC V BKN RAE25B50 P0000 SLP987 $

2010/08/10 06:56
PAIG 100656Z AUTO 00000KT 2 1/2SM BR FEW013 BKN019 OVC030 11/11 A2963 RMK AO2 PWINO TSNO T01050105 BKN V SCT P0001 SLP039 $

2010/08/10 06:56
PAMO 100656Z AUTO 14017KT 2 1/2SM RA BR OVC003 10/10 A2938 RMK AO2 TSNO T01000100 CIG 001V007 P0001 SLP947 $

2010/08/10 06:56
PAOO 100656Z AUTO 17014KT 10SM OVC007 09/08 A2934 RMK AO2 TSNO T00940083 SLP937 $

2010/08/10 06:56
PAPM 100656Z AUTO 18018KT 1 1/4SM BR BKN008 OVC095 09/09 A2950 RMK AO2 TSNO T00940088 CIG 004V013 SLP991 $

2010/08/10 06:56
PARS 100656Z AUTO 18009KT 1 3/4SM -RA BR FEW003 BKN010 OVC014 10/09 A2946 RMK AO2 TSNO T01000094 CIG 006V012 P0000 SLP980 $

2010/08/10 06:56
PARY 100656Z AUTO 06006KT 10SM BKN080 BKN090 13/10 A2958 RMK AO2 PWINO TSNO T01270100 SLP022

2010/08/10 06:56
PATQ 100656Z AUTO 07016G22KT 4SM -RA BR OVC007 03/02 A2977 RMK AO2 TSNO T00270022 P0000 SLP087 $

2010/08/10 06:52
KETB 100652Z AUTO 00000KT 10SM CLR 21/20 A2996 RMK AO2 T02100200

2010/08/10 06:54
KETH 100654Z AUTO 13006KT 10SM CLR 19/18 A2995 RMK AO2

2010/08/10 06:52
KEVM 100652Z AUTO 00000KT 1/4SM FG VV002 17/16 A2996 RMK AO1

2010/08/10 06:54
KFBL 100654Z AUTO 00000KT 7SM CLR 21/19 A2995 RMK AO2 LTG DSNT S

2010/08/10 07:02
KFKA 100702Z AUTO 00000KT 7SM CLR 24/23 A2997 RMK AO2 LTG DSNT SW T02350225

2010/08/10 06:53
KFOZ 100653Z AUTO 00000KT 3/4SM BR VV005 19/18 A2997 RMK AO2 VIS 1/2V2

2010/08/10 06:59
KFSO 100659Z AUTO 00000KT 4SM BR CLR 17/17 A2991 RMK AO2

2010/08/10 06:54
KFWA 100654Z 00000KT 1/4SM FG CLR 23/22 A2997 RMK AO2 SLP142 R23/3000FT T02280222

2010/08/10 06:55
KGBK 100655Z AUTO 00000KT 10SM CLR 31/25 A2992 RMK A01

2010/08/10 06:52
KGLW 100652Z AUTO 00000KT 5SM BR CLR 24/23 A2998 RMK AO2 T02430231

2010/08/10 06:55
KGUL 100655Z AUTO 10SM CLR 30/24 A2993 RMK A01

2010/08/10 06:54
KGYL 100654Z AUTO 00000KT 10SM CLR 22/21 A2993 RMK AO2 T02220207

2010/08/10 06:52
KHCD 100652Z AUTO 11003KT 10SM CLR 22/21 A2994 RMK AO2 T02210205

2010/08/10 06:55
KHCO 100655Z AUTO 17006KT 10SM CLR 23/22 A2990 RMK AO2

2010/08/10 06:50
KHQI 100650Z AUTO 00000KT 10SM 30/25 A2992 RMK A01

2010/08/10 06:51
KHZX 100651Z AUTO 00000KT 10SM CLR 18/18 A2998 RMK AO2

2010/08/10 06:54
KIKW 100654Z AUTO 30003KT 7SM CLR 22/20 A2994 RMK AO2 T02150202

2010/08/10 06:55
KIPN 100655Z AUTO VRB05KT 10SM CLR 29/25 A2989 RMK A01

2010/08/10 06:54
KJKJ 100654Z AUTO 16004KT 10SM CLR 23/21 A2990 RMK AO2

2010/08/10 06:55
KJMR 100655Z AUTO 00000KT 4SM BR CLR 19/18 A2998 RMK AO2

2010/08/10 06:55
KJVL 100655Z AUTO 00000KT 1/4SM FG VV002 23/22 A2995 RMK AO2 T02310216

2010/08/10 06:55
KLFI 100655Z 23005KT 10SM CLR 25/23 A2997 RMK AO2A SLP152 T02540226

2010/08/10 06:53
KLJF 100653Z AUTO 00000KT 10SM CLR 22/22 A2994 RMK AO2

2010/08/10 06:55
KLNL 100655Z AUTO 00000KT 5SM BR CLR 14/13 A3003 RMK AO2 T01400134

2010/08/10 06:55
KLUM 100655Z AUTO 00000KT 7SM CLR 22/21 A2997 RMK AO2

2010/08/10 06:54
KLVN 100654Z AUTO 00000KT 1/4SM FG VV002 19/19 A2994 RMK AO2 VIS M1/4V3

2010/08/10 06:54
KLXL 100654Z AUTO 00000KT 10SM CLR 19/18 A2994 RMK AO2

2010/08/10 06:58
KLYV 100658Z AUTO 11003KT 7SM CLR 24/22 A2990 RMK AO2

2010/08/10 06:56
KM89 100656Z AUTO 00000KT 7SM CLR 27/26 A2992 RMK AO2 T02660255 SLP143 $

2010/08/10 06:55
KMCF 100655Z AUTO 08007KT 10SM SCT065 26/25 A2988 RMK AO2 SLP121 T02590251

2010/08/10 06:55
KMDJ 100655Z AUTO 00000KT 10SM CLR 29/24 A2991 RMK A01

2010/08/10 06:55
KMHR 100655Z AUTO 15006KT 10SM CLR 15/11 A2985 RMK AO1

2010/08/10 06:55
KMIU 100655Z AUTO 17015KT BKN018 BKN025 BKN030 30/27 A2991 RMK A01

2010/08/10 06:52
KMJQ 100652Z AUTO 12003KT 7SM SCT023 22/22 A2994 RMK AO2

2010/08/10 06:53
KMRT 100653Z AUTO 23004KT 7SM SCT070 22/20 A3000 RMK AO2 T02240202

2010/08/10 06:54
KMVE 100654Z AUTO 15003KT 7SM CLR 23/22 A2991 RMK AO2 LTG DSNT SE

2010/08/10 06:55
KMZG 100655Z AUTO 00000KT 10SM CLR 30/26 A2990 RMK A01

2010/08/10 06:56
KFPK 100656Z AUTO 00000KT 1/4SM FG OVC001 19/18 A2995 RMK AO2

2010/08/10 06:55
KCVX 100655Z AUTO 26004KT 4SM BR BKN007 22/21 A2998 RMK AO2

2010/08/10 06:54
KMOP 100654Z AUTO 00000KT 7SM CLR 21/21 A2996 RMK AO2

2010/08/10 06:54
KFKS 100654Z AUTO 00000KT 4SM BR CLR 20/19 A2996 RMK AO2

2010/08/10 06:54
KCAD 100654Z AUTO 00000KT 1/4SM FG OVC001 18/17 A2999 RMK AO2

2010/08/10 06:54
KMGN 100654Z AUTO 26003KT 4SM BR OVC007 24/22 A2996 RMK AO2

2010/08/10 06:55
KSLH 100655Z AUTO 00000KT 1/2SM FG BKN001 OVC012 18/18 A2995 RMK AO2

2010/08/10 06:55
KSJX 100655Z AUTO 30003KT 1 1/2SM BR OVC002 22/21 A2996 RMK AO2

2010/08/10 06:55
KHAI 100655Z AUTO 00000KT 1/2SM FG VV005 21/21 A2997 RMK AO2

2010/08/10 06:56
KLWA 100656Z AUTO 00000KT 4SM BR CLR 20/20 A2996 RMK AO2

2010/08/10 06:57
KDRM 100657Z AUTO 00000KT 1/4SM FG OVC001 17/17 A2995 RMK AO2

2010/08/10 06:54
KVLL 100654Z AUTO 00000KT 5SM BR CLR 22/20 A2998 RMK AO2

2010/08/10 06:55
KGOV 100655Z AUTO 00000KT 1/4SM FG OVC001 20/20 A2999 RMK AO2

2010/08/10 06:51
KPZQ 100651Z AUTO 00000KT 7SM CLR 18/17 A2996 RMK AO2

2010/08/10 06:55
KCFS 100655Z AUTO 27003KT 5SM BR CLR 21/21 A2994 RMK AO2

2010/08/10 06:54
KHYX 100654Z AUTO 30003KT 7SM CLR 21/20 A2994 RMK AO2

2010/08/10 06:55
KOZW 100655Z AUTO 24003KT 1 3/4SM BR VV007 21/20 A2997 RMK AO2

2010/08/10 06:55
KRNP 100655Z AUTO 00000KT 1/2SM FG VV005 20/20 A2996 RMK AO2

2010/08/10 06:54
KDUH 100654Z AUTO 00000KT 1/2SM FG VV005 21/19 A2996 RMK AO2

2010/08/10 06:55
KISQ 100655Z AUTO 00000KT 3SM BR CLR 19/18 A2997 RMK AO2

2010/08/10 06:55
KJYM 100655Z AUTO 00000KT M1/4SM FG OVC001 19/19 A2998 RMK AO2

2010/08/10 07:05
KBAX 100705Z AUTO 24003KT 2 1/2SM BR CLR 21/21 A2994 RMK AO2

2010/08/10 06:55
KIRS 100655Z AUTO 00000KT 3SM BR CLR 21/20 A2997 RMK AO2

2010/08/10 06:55
KAMN 100655Z AUTO 00000KT 1/4SM FG OVC001 19/18 A2995 RMK AO2

2010/08/10 06:55
KACB 100655Z AUTO 00000KT M1/4SM FG OVC001 22/21 A2996 RMK AO2

2010/08/10 06:54
KRQB 100654Z AUTO 00000KT M1/4SM FG OVC001 19/19 A2998 RMK AO2

2010/08/10 06:55
KERY 100655Z AUTO 35003KT 2 1/2SM BR SCT090 19/19 A2998 RMK AO2

2010/08/10 06:55
KOEB 100655Z AUTO 00000KT 1 1/4SM BR VV007 21/20 A2998 RMK AO2

2010/08/10 06:56
K4I3 100656Z AUTO 24003KT 10SM SCT050 23/20 A2998 RMK AO2

2010/08/10 06:55
KAUM 100655Z AUTO 10003KT 10SM CLR 22/22 A2995 RMK AO2 LTG DSNT S

2010/08/10 06:55
KFFX 100655Z AUTO 00000KT M1/4SM FG OVC002 20/20 A2997 RMK AO2

2010/08/10 06:54
KCNB 100654Z AUTO 00000KT 3SM BR CLR 22/22 A2992 RMK AO2 T02210215

2010/08/10 06:55
KCKN 100655Z AUTO 16005KT 10SM CLR 21/19 A2991 RMK AO2

2010/08/10 07:03
KCFE 100703Z AUTO 00000KT 10SM CLR 22/20 A2995 RMK AO2 T02150200

2010/08/10 06:57
KCQM 100657Z AUTO 00000KT 7SM CLR 19/18 A2997 RMK AO2

2010/08/10 06:55
KDTL 100655Z AUTO 00000KT 10SM CLR 23/17 A2996 RMK AO2

2010/08/10 06:55
KBDH 100655Z AUTO 12005KT 7SM CLR 23/22 A2994 RMK AO2

2010/08/10 06:55
KCBG 100655Z AUTO 00000KT 10SM CLR 21/19 A2994 RMK AO2

2010/08/10 06:57
KADC 100657Z AUTO 00000KT 10SM CLR 18/17 A2995 RMK AO2

2010/08/10 06:55
KHAF 100655Z AUTO 00000KT 5SM BR OVC003 11/10 A2994 RMK AO2

2010/08/10 06:55
KCKC 100655Z AUTO 33004KT 10SM CLR 16/13 A3001 RMK AO2

2010/08/10 06:54
KJYG 100654Z AUTO 00000KT 7SM CLR 24/24 A2993 RMK AO2

2010/08/10 06:56
KCOQ 100656Z AUTO 00000KT 10SM CLR 19/17 A2998 RMK AO2

2010/08/10 06:58
KACQ 100658Z AUTO 11005KT 10SM CLR 22/21 A2996 RMK AO2

2010/08/10 06:55
KRGK 100655Z AUTO 00000KT 3SM BR CLR 22/21 A2993 RMK AO2

2010/08/10 06:54
KFSE 100654Z AUTO 16004KT 10SM CLR 19/18 A2993 RMK AO2

2010/08/10 06:55
KY70 100655Z AUTO 00000KT 1/2SM FG BKN003 21/20 A2995 RMK AO2 T02070202

2010/08/10 06:50
KUKT 100650Z AUTO 00000KT 10SM CLR 24/20 A2995 RMK AO1

2010/08/10 06:54
KCDA 100654Z AUTO 00000KT M1/4SM FG OVC002 16/14 A2996 RMK AO2

2010/08/10 06:57
KTOL 100657Z 00000KT 1SM BR VV001 22/21 A2996 RMK AO2 RVRNO

2010/08/10 06:57
KGRR 100657Z AUTO 00000KT 1 1/4SM BR CLR 21/20 A2997 RMK AO2

2010/08/10 06:57
K2W6 100657Z AUTO 21006KT 10SM CLR 25/21 A2997 RMK AO1

2010/08/10 06:55
KCGE 100655Z AUTO 18003KT 10SM CLR 25/25 A2996 RMK AO1

2010/08/10 06:58
KCBE 100658Z AUTO 00000KT 10SM CLR 21/20 A3001 RMK AO1

2010/08/10 06:55
K2G4 100655Z AUTO 24005KT 10SM CLR 20/15 A3009 RMK AO1

2010/08/10 06:58
KDMW 100658Z AUTO 00000KT 7SM CLR 25/22 A2997 RMK AO2

2010/08/10 06:58
KFDK 100658Z AUTO 00000KT 7SM CLR 24/22 A2995 RMK AO2

2010/08/10 06:57
KMTN 100657Z AUTO 17006KT 10SM CLR 26/22 A2994 RMK AO2

2010/08/10 06:56
K79J 100656Z AUTO 00000KT 5SM BR CLR 25/23 A2994 RMK AO2 SLP132 T02500228 TSNO PNO $

2010/08/10 06:55
KFHU 100655Z 23006KT 10SM SKC 23/14 A3011 RMK SLP124

2010/08/10 06:56
KNPA 100656Z AUTO 00000KT 8SM CLR 26/24 A2991 RMK AO2 SLP131 T02560239

2010/08/10 06:56
KNXP 100656Z AUTO 00000KT CLR 26/M01 A2993 RMK AO2 SLP096 T02561006 $

2010/08/10 06:56
KNYG 100656Z AUTO 22006KT 9SM CLR 26/20 A2995 RMK AO2 SLP144 T02610200 $

2010/08/10 06:52
KNZY 100652Z 31003KT 10SM BKN015 20/14 A2991 RMK AO2 SLP128 T02000139 $

2010/08/10 06:55
KRCA 100655Z 21006KT 10SM BKN180 23/15 A2989 RMK AO2A SLP090 T02290154 403300183 $

2010/08/10 06:55
KSKF 100655Z 16005KT 10SM CLR 27/24 A2995 RMK AO2A SLP132 T0265 $

2010/08/10 06:55
KVBG 100655Z AUTO 05004KT 10SM OVC003 13/12 A2993 RMK AO2 SLP128 T01280117 401780122 TSNO CHINO RWY12 VISNO RWY12 $

2010/08/10 06:57
KVPS 100657Z 35005KT 10SM SKC 26/24 A2992 RMK AO2A SLP131 T02570238 $

2010/08/10 07:00
MDSD 100700Z 01004KT 9999 FEW018 24/23 Q1013

2010/08/10 07:00
MDST 100700Z 00000KT 9999 FEW016 24/24 Q1013

2010/08/10 07:00
MYNN 100700Z 23011G23KT 9000 +SHRA SCT020 OVC080 25/25 A2997

2010/08/10 07:00
OLBA 100700Z VRB05KT 8000 SCT026 29/22 Q1009 NOSIG

2010/08/10 07:00
OSAP 100700Z 26011KT CAVOK 30/20 Q1007

2010/08/10 07:00
OSDI 100700Z 22004KT CAVOK 29/18 Q1009

2010/08/10 07:00
OSLK 100700Z 18004KT 9999 FEW026 SCT030 30/21 Q1007

2010/08/10 06:55
PAED 100655Z 27008KT 10SM OVC007 12/10 A2977 RMK AO2A CIG 006V011 SLP082 T01170105

2010/08/10 06:56
PMDY 100656Z AUTO 04008KT 10SM FEW025 26/21 A3021 RMK AO2 TSNO T02550205 SLP539

2010/08/10 07:00
OPKC 100700Z 26007KT 7000 BKN020 32/26 Q1003 NOSIG

2010/08/10 07:00
OSDI 100700Z 22004KT CAVOK 29/18 Q1009

2010/08/10 07:00
OSAP 100700Z 26011KT CAVOK 30/20 Q1007

2010/08/10 07:00
OSLK 100700Z 18004KT 9999 FEW026 SCT030 30/21 Q1007

2010/08/10 07:00
OSDZ 100700Z 00000KT CAVOK 33/16 Q1006

2010/08/10 07:00
OSKL 100700Z VRB03KT CAVOK 35/04 Q1006

2010/08/10 06:55
EHEH 100655Z AUTO 21006KT 9999NDV FEW057 17/13 Q1014 BLU BLU NOSIG

2010/08/10 06:55
EHKD 100655Z AUTO 21010KT 9999NDV FEW018/// OVC022/// 18/16 Q1011 WHT WHT BECMG BLU BECMG 9999 SCT025 SCT100 BKN200

2010/08/10 07:00
FIMP 100700Z 08014KT 9999 SCT019 25/16 Q1024

2010/08/10 06:57
YAMB 100657Z AUTO 00000KT 6000NDV // BKN004 OVC115 18/18 Q1017

2010/08/10 07:03
KESN 100703Z AUTO 21003KT 10SM CLR 24/24 A2998 RMK AO2

2010/08/10 07:00
KFME 100700Z AUTO 19003KT 5SM CLR 20/20 A2996 RMK AO1

2010/08/10 06:58
KW29 100658Z AUTO 19006KT 10SM CLR 26/21 A2994 RMK AO1

2010/08/10 07:00
KCGS 100700Z AUTO 19004KT 10SM CLR 27/21 A2994 RMK AO1

2010/08/10 06:56
KALK 100656Z AUTO 21008KT 10SM CLR 22/14 A3013 RMK AO2 SLP107 T02170139 403060178 $ 

2010/08/10 07:00
SBBR 100700Z 25003KT CAVOK 13/04 Q1022 

2010/08/10 06:56
KSMP 100656Z AUTO VRB05KT M1/4SM FG VV001 09/08 A2997 RMK AO2 SLP145 T00890083 TSNO $ 

2010/08/10 06:57
KNJM 100657Z AUTO 22006KT 10SM CLR 27/25 A3002 RMK AO2 SLP169 T02720250 

2010/08/10 06:53
KRNM 100653Z AUTO 27003KT 10SM CLR 12/09 A2992 RMK AO2 SLP121 T01220094 TSNO 

2010/08/10 06:57
CYCY 100657Z AUTO 00000KT 5/8SM CLR 03/03 A2988

2010/08/10 06:58
CWOB 100658Z AUTO ///// 1/8SM CLR 03/ A2977

2010/08/10 06:54
KSBN 100654Z 00000KT 6SM BR CLR 22/20 A2996 RMK AO2 SLP141 T02220200 

2010/08/10 06:50
VECC 100650Z 16005KT 5000 HZ FEW020 SCT025 36/26 Q1002 NOSIG

2010/08/10 06:50
VEPT 100650Z 03002KT 3000 HZ SCT018 SCT025 FEW030CB BKN100 34/26 Q1002 NOSIG

2010/08/10 06:50
VGEG 100650Z 20008KT 4000 TSRA SCT009 FEW028CB BKN090 30/28 Q1002 TEMPO TS/RA

2010/08/10 06:50
VGZR 100650Z 18004KT 5000 HZ SCT012 FEW025CB BKN100 34/28 Q1002 TEMPO TSRA

2010/08/10 06:50
VNKT 100650Z 00000KT 8000 FEW020TCU SCT030 28/XX Q1012 NOSIG

2010/08/10 06:50
ETUO 100650Z 11003KT CAVOK 18/13 Q1015 BLU

2010/08/10 06:50
EDHL 100650Z 14005KT 110V170 CAVOK 18/18 Q1016 RMK I

2010/08/10 06:50
EDLN 100650Z VRB03KT CAVOK 17/16 Q1015 RMK ATIS E

2010/08/10 06:50
EDLP 100650Z 17006KT CAVOK 19/11 Q1015 RMK RWY24 TRL60 OK ATIS J

2010/08/10 06:50
EDLW 100650Z 18008KT CAVOK 18/13 Q1015 RMK ATIS H

2010/08/10 06:50
EDNY 100650Z VRB02KT 9999 SCT055 17/14 Q1018 RMK ATIS G

2010/08/10 06:50
EDXW 100650Z 16011KT 8000 NSC 18/16 Q1013 RMK ATIS INFO B

2010/08/10 06:50
EGTC 100650Z 23007KT 9999 FEW045 12/11 Q1010

2010/08/10 06:55
EGXW 100655Z 24007KT 9999 FEW007 SCT012 BKN040 15/14 Q1008 BLACKGRN BECMG SCT018 WHT

2010/08/10 06:55
EHAM 100655Z 19010KT 170V230 9999 FEW011 BKN012 BKN015 17/15 Q1012 BECMG SCT012

2010/08/10 06:55
EHBK 100655Z AUTO 20006KT 9999NDV NSC 18/13 Q1015 NOSIG

2010/08/10 06:55
EHDL 100655Z AUTO 22007KT 9999NDV NCD 16/13 Q1014 BLU

2010/08/10 06:55
EHGG 100655Z AUTO 19008KT 170V230 9999NDV NSC 16/13 Q1013 NOSIG

2010/08/10 06:55
EHKD 100655Z AUTO 21010KT 9999NDV FEW018/// OVC022/// 18/16 Q1011 WHT WHT BECMG BLU BECMG 9999 SCT025 SCT100 BKN200

2010/08/10 06:55
EHLW 100655Z AUTO 18007KT 7000NDV BR NCD 17/15 Q1012 WHT BLU TEMPO WHT 7000 FEW110 TEMPO SCT 015

2010/08/10 06:55
EHRD 100655Z 21011KT 9999 SCT009 BKN011 17/15 Q1013 BECMG SCT012

2010/08/10 06:55
EHVK 100655Z AUTO 22008KT 9999NDV NCD 17/13 Q1014 BLU BLU NOSIG

2010/08/10 06:55
EHVL 100655Z AUTO 20013KT 9999NDV BKN013 BKN016 BKN021 18/15 Q1011 GRN

2010/08/10 06:55
EHWO 100655Z AUTO 22006KT 9999NDV SCT290 16/13 Q1013 BLU BLU TEMPO WHT SCT290 TEMPO SCT020

2010/08/10 06:55
ETIK 100655Z AUTO 00000KT 9999 CLR 17/16 A3006 RMK AO2 SLP171 T01660164 $

2010/08/10 06:55
ETOR 100655Z 17006KT 9999 FEW080 22/15 A3002 RMK BLU

2010/08/10 06:50
LOXT 100650Z VRB03KT 50KM FEW090AC 19/15 Q1019 NOSIG RMK FEW

2010/08/10 07:00
LWOH 100700Z 35009KT CAVOK 23/14 Q1017

2010/08/10 06:54
KLSF 100654Z AUTO 00000KT 8SM R33/5500FT CLR 23/22 A2996 RMK AO2 SLP144 PNO $

2010/08/10 06:54
KMTC 100654Z AUTO 00000KT 2SM R19/2200VP6000FT DZ BR CLR 21/21 A2994 RMK AO2 SLP142 $

2010/08/10 06:56
KMTC 100656Z AUTO 00000KT 1 3/4SM R19/2200VP6000FT DZ BR CLR 21/21 A2994 RMK AO2 VIS 1V5 SLP142 $

2010/08/10 06:58
KMTC 100658Z AUTO 00000KT 1 1/2SM R19/1800V4500FT DZ BR CLR 21/21 A2994 RMK AO2 VIS 3/4V4 SLP142 $

2010/08/10 06:50
BGBW 100650Z AUTO 08004KT 0550NDV FG BKN002/// BKN004/// 07/07 Q1009

2010/08/10 06:50
BGGH 100650Z AUTO 23004KT 4300NDV RA OVC016/// 09/09 Q1007

2010/08/10 06:50
BGJN 100650Z AUTO VRB01KT 9999NDV SCT017/// BKN021/// OVC027/// 08/04 Q1008

2010/08/10 06:55
BGTL 100655Z AUTO 00000KT 9999 CLR 02/02 A2982 RMK AO2 SLP101 T00240020

2010/08/10 06:54
CYHE 100654Z AUTO 09003KT 040V110 5SM -RA OVC009 OVC021 OVC051 15/15 A2994

2010/08/10 06:55
CYHE 100655Z AUTO 10004KT 5SM -RA OVC010 OVC021 15/15 A2994

2010/08/10 06:54
CYHZ 100654Z 20006KT 3/4SM R14/P6000FT/N R23/P6000FT/D BR VV001 17/ RMK FG8

2010/08/10 06:55
CYOY 100655Z AUTO 00000KT 1 3/8SM OVC001 OVC071 OVC092 12/11 A2985 RMK VSBY VRBL 0.4V9.+

2010/08/10 06:54
CYRV 100654Z AUTO 00000KT 9SM BKN006 BKN022 OVC030 OVC076 16/16 A2986

2010/08/10 06:56
CYYL 100656Z AUTO 14004KT 9SM SCT003 BKN013 BKN021 OVC025 14/14 A2990 RMK SLP137 DENSITY ALT 1300FT PCPN 0.8MM PAST HR

2010/08/10 06:54
KLSF 100654Z AUTO 00000KT 8SM R33/5500FT CLR 23/22 A2996 RMK AO2 SLP144 PNO $

2010/08/10 06:56
KMTC 100656Z AUTO 00000KT 1 3/4SM R19/2200VP6000FT DZ BR CLR 21/21 A2994 RMK AO2 VIS 1V5 SLP142 $

2010/08/10 06:58
KMTC 100658Z AUTO 00000KT 1 1/2SM R19/1800V4500FT DZ BR CLR 21/21 A2994 RMK AO2 VIS 3/4V4 SLP142 $

2010/08/10 06:56
RKJK 100656Z AUTO 05007KT 9999 -DZ FEW024 27/26 A2970 RMK AO2 DZB0656 SLP059 $

2010/08/10 07:00
OYRN 100700Z 11009KT CAVOK 29/24 Q1005

2010/08/10 07:00
UBBN 100700Z 12012KT 9999 FEW100 33/07 Q1011 R14R/CLRD60 NOSIG RMK G/O QFE684

2010/08/10 07:00
UBBB 100700Z 36004KT 9999 FEW060CB BKN100 34/20 Q1011 NOSIG RMK R88CLRD70

2010/08/10 06:53
KLOR 100653Z AUTO 00000KT 5SM BR CLR 23/22 A2993 RMK AO2 SLP132 T02330217 TSNO PNO $ 

2010/08/10 06:50
K3A6 100650Z AUTO 36001KT 15/09 A2990 RMK AO1 SLP137 T01470092 403190115 

2010/08/10 06:50
KHMS 100650Z 30013KT 15SM BKN250 20/08 A2979 RMK SLP086 T01970080 RSNK 13.9/35009KT 

2010/08/10 06:52
KMLF 100652Z AUTO 21005KT 10SM CLR 13/M01 A3007 RMK AO2 SLP124 T01281006 402940111 TSNO 

2010/08/10 07:00
SBCG 100700Z 15007KT CAVOK 15/11 Q1018

2010/08/10 07:00
SBFI 100700Z 23002KT CAVOK 11/10 Q1019

2010/08/10 06:58
CYFS 100658Z 00000KT 15SM -RA BKN030 RMK SC7

2010/08/10 06:51
KP58 100651Z AUTO 27004KT 22/22 A2991 RMK AO2 SLP122 T02220217 PWINO TSNO 

2010/08/10 06:57
KAPN 100657Z AUTO 00000KT 2 1/2SM BR FEW001 19/18 A2995 RMK AO2 $ 

2010/08/10 07:00
FLLS 100700Z 11007KT CAVOK 21/10 Q1025

2010/08/10 06:57
PAVA 100657Z AUTO 19007KT 4SM -RA BR SCT003 BKN009 OVC015 10/10 A2935 RMK AO2 P0001

2010/08/10 06:54
KNFG 100654Z 00000KT 6SM BR FEW015 11/09 A2992 RMK AO2 SLP129 T01110094

2010/08/10 06:53
KNQX 100653Z AUTO 25005KT 10SM FEW060 27/23 A2985 RMK AO2 TSE0554B06E46 SLP107 T02670233 $

2010/08/10 06:55
KPAM 100655Z AUTO 05003KT 10SM CLR 27/26 A2990 RMK AO2 SLP127 T02700257 $

2010/08/10 06:55
KPSM 100655Z 21005KT 7SM -RA SCT045 OVC100 21/20 A2988 RMK AO2A SLP119 P0003 T02090204

2010/08/10 06:55
KSSC 100655Z 00000KT 10SM CLR 25/24 A3000 RMK AO2A SLP158 T02500235 $

2010/08/10 06:55
KVAD 100655Z AUTO 05003KT 10SM CLR 25/24 A2996 RMK AO2 SLP143 T02480239 $

2010/08/10 06:57
PAGH 100657Z AUTO 14011KT 10SM -RA SCT012 BKN019 OVC027 14/12 A2957 RMK AO2 SLP042 P0011 T01390122

2010/08/10 06:56
PAMB 100656Z AUTO 19006KT 2 1/2SM BR OVC003 09/09 A2957 RMK AO2 PWINO TSNO T00940094 SLP015 $

2010/08/10 06:56
PAOH 100656Z AUTO 00000KT 6SM BR OVC031 13/13 A3000 RMK AO2 TSNO T01330127 SLP160 $

2010/08/10 06:56
PPIZ 100656Z AUTO 05019G28KT 10SM FEW015 SCT033 06/03 A2967 RMK AO2 TSNO T00550027 PK WND 06028/0603 SLP050 $

2010/08/10 06:55
PACZ 100655Z AUTO 20007KT 10SM BKN009 BKN017 OVC027 09/08 A2929 RMK AO1 T00940084

2010/08/10 06:55
PALU 100655Z AUTO 07019KT 5SM 09/08 A2960 RMK AO1 T00890078

2010/08/10 06:55
PATC 100655Z AUTO 00000KT 10SM BKN023 OVC033 11/09 A2943 RMK AO1 T01110095

2010/08/10 06:55
PAIM 100655Z AUTO 00000KT 10SM BKN075 13/13 A2961 RMK AO1 T01280128

2010/08/10 06:55
PATL 100655Z AUTO 20004KT 10SM OVC019 12/09 A2960 RMK AO1 T01170095

2010/08/10 06:55
PASV 100655Z AUTO 17003KT 10SM SCT013 BKN025 OVC031 09/08 A2964 RMK AO1 T00940084

2010/08/10 06:57
KAPN 100657Z AUTO 00000KT 2 1/2SM BR FEW001 19/18 A2995 RMK AO2 $

2010/08/10 06:56
KGNR 100656Z AUTO 00000KT 17/16 A2988 RMK AO1 SLP115 T01670156

2010/08/10 06:56
KNGP 100656Z AUTO 10SM FEW017 29/27 A2991 RMK AO2 SLP128 T02890272 $

2010/08/10 06:56
KMHS 100656Z AUTO 00000KT 10SM CLR 16/11 A2997 RMK AO2 SLP135 T01560106 TSNO

2010/08/10 06:56
K9L2 100656Z AUTO VRB04KT 10SM CLR 23/03 A2989 RMK AO2 SLP099 T02330033 403500122 $

2010/08/10 06:56
KD07 100656Z AUTO 17008KT 20/16 A2986 RMK AO2 SLP092 T02000156 403330167 PWINO TSNO

2010/08/10 06:56
KSPD 100656Z AUTO 00000KT 21/17 A3006 RMK AO2 SLP106 T02060167 403330178 PWINO TSNO

2010/08/10 06:56
KFSD 100656Z 12009KT 10SM FEW012 BKN037 25/23 A2988 RMK AO2 SLP105 T02500233 $

2010/08/10 06:56
KINS 100656Z VRB04KT 10SM CLR 23/M05 A2992 RMK AO2 SLP080 T02281050 403390128

2010/08/10 06:56
KNTU 100656Z 23003KT 10SM FEW200 24/23 A2997 RMK AO2 SLP151 T02390228 $

2010/08/10 06:56
KNFE 100656Z AUTO 00000KT 2SM HZ CLR 23/21 A2998 RMK AO2 SLP155 T02330206 $

2010/08/10 06:56
K2WX 100656Z AUTO 16010KT 21/12 A2978 RMK AO1 SLP055 T02110122 403610167

2010/08/10 06:56
KNBT 100656Z AUTO 22004KT 8SM CLR 27/24 A3001 RMK AO2 SLP166 T02670244 TSNO

2010/08/10 06:54
KAKQ 100654Z AUTO 00000KT 9SM CLR 24/21 A2998 RMK AO2 SLP151 T02390211 TSNO

2010/08/10 06:56
KNUQ 100656Z AUTO 03005KT 10SM OVC010 14/12 A2993 RMK AO2 SLP136 T01440122 TSNO

2010/08/10 06:56
KALK 100656Z AUTO 21008KT 10SM CLR 22/14 A3013 RMK AO2 SLP107 T02170139 403060178 $

2010/08/10 06:56
KGNA 100656Z AUTO 00000KT 16/14 A2994 RMK AO2 SLP135 T01560139 PWINO TSNO

2010/08/10 06:56
KAQV 100656Z AUTO 00000KT 10SM CLR 26/24 A2992 RMK AO2 SLP128 T02610239

2010/08/10 06:55
KLDM 100655Z AUTO 00000KT 1/4SM FG OVC001 21/20 A2997 RMK AO2

2010/08/10 06:55
KPHN 100655Z AUTO 00000KT 1/4SM FG OVC001 18/18 A2995 RMK AO2

2010/08/10 06:55
KRMY 100655Z AUTO 00000KT 1/4SM FG BKN001 OVC007 20/19 A2997 RMK AO2

2010/08/10 06:56
KOSC 100656Z AUTO 00000KT BKN001 OVC010 21/19 A2994 RMK AO2 PWINO

2010/08/10 06:53
KTTF 100653Z AUTO 00000KT M1/4SM FG OVC001 21/21 A2994 RMK AO2

2010/08/10 06:55
KMCD 100655Z AUTO 00000KT 2 1/2SM HZ CLR 21/18 A2996 RMK AO2 VIS 2V3

2010/08/10 06:53
KGNT 100653Z AUTO 00000KT 15/11 A3025 RMK AO2 SLP152 T01500106 402780100 PWINO TSNO

2010/08/10 06:56
KFPK 100656Z AUTO 00000KT 1/4SM FG OVC001 19/18 A2995 RMK AO2

2010/08/10 06:55
KCVX 100655Z AUTO 26004KT 4SM BR BKN007 22/21 A2998 RMK AO2

2010/08/10 06:54
KMOP 100654Z AUTO 00000KT 7SM CLR 21/21 A2996 RMK AO2

2010/08/10 06:54
KFKS 100654Z AUTO 00000KT 4SM BR CLR 20/19 A2996 RMK AO2

2010/08/10 06:54
KCAD 100654Z AUTO 00000KT 1/4SM FG OVC001 18/17 A2999 RMK AO2

2010/08/10 06:54
KMGN 100654Z AUTO 26003KT 4SM BR OVC007 24/22 A2996 RMK AO2

2010/08/10 06:55
KSLH 100655Z AUTO 00000KT 1/2SM FG BKN001 OVC012 18/18 A2995 RMK AO2

2010/08/10 06:55
KSJX 100655Z AUTO 30003KT 1 1/2SM BR OVC002 22/21 A2996 RMK AO2

2010/08/10 06:55
KHAI 100655Z AUTO 00000KT 1/2SM FG VV005 21/21 A2997 RMK AO2

2010/08/10 06:56
KLWA 100656Z AUTO 00000KT 4SM BR CLR 20/20 A2996 RMK AO2

2010/08/10 06:57
KDRM 100657Z AUTO 00000KT 1/4SM FG OVC001 17/17 A2995 RMK AO2

2010/08/10 06:54
KVLL 100654Z AUTO 00000KT 5SM BR CLR 22/20 A2998 RMK AO2

2010/08/10 06:55
KGOV 100655Z AUTO 00000KT 1/4SM FG OVC001 20/20 A2999 RMK AO2

2010/08/10 06:51
KPZQ 100651Z AUTO 00000KT 7SM CLR 18/17 A2996 RMK AO2

2010/08/10 06:55
KCFS 100655Z AUTO 27003KT 5SM BR CLR 21/21 A2994 RMK AO2

2010/08/10 06:54
KHYX 100654Z AUTO 30003KT 7SM CLR 21/20 A2994 RMK AO2

2010/08/10 06:55
KOZW 100655Z AUTO 24003KT 1 3/4SM BR VV007 21/20 A2997 RMK AO2

2010/08/10 06:55
KRNP 100655Z AUTO 00000KT 1/2SM FG VV005 20/20 A2996 RMK AO2

2010/08/10 06:54
KDUH 100654Z AUTO 00000KT 1/2SM FG VV005 21/19 A2996 RMK AO2

2010/08/10 06:55
KISQ 100655Z AUTO 00000KT 3SM BR CLR 19/18 A2997 RMK AO2

2010/08/10 06:55
KJYM 100655Z AUTO 00000KT M1/4SM FG OVC001 19/19 A2998 RMK AO2

2010/08/10 07:05
KBAX 100705Z AUTO 24003KT 2 1/2SM BR CLR 21/21 A2994 RMK AO2

2010/08/10 06:55
KIRS 100655Z AUTO 00000KT 3SM BR CLR 21/20 A2997 RMK AO2

2010/08/10 06:55
KAMN 100655Z AUTO 00000KT 1/4SM FG OVC001 19/18 A2995 RMK AO2

2010/08/10 06:55
KACB 100655Z AUTO 00000KT M1/4SM FG OVC001 22/21 A2996 RMK AO2

2010/08/10 06:54
KRQB 100654Z AUTO 00000KT M1/4SM FG OVC001 19/19 A2998 RMK AO2

2010/08/10 06:55
KERY 100655Z AUTO 35003KT 2 1/2SM BR SCT090 19/19 A2998 RMK AO2

2010/08/10 06:55
KOEB 100655Z AUTO 00000KT 1 1/4SM BR VV007 21/20 A2998 RMK AO2

2010/08/10 06:56
K4I3 100656Z AUTO 24003KT 10SM SCT050 23/20 A2998 RMK AO2

2010/08/10 06:55
KAUM 100655Z AUTO 10003KT 10SM CLR 22/22 A2995 RMK AO2 LTG DSNT S

2010/08/10 06:55
KFFX 100655Z AUTO 00000KT M1/4SM FG OVC002 20/20 A2997 RMK AO2

2010/08/10 06:54
KCNB 100654Z AUTO 00000KT 3SM BR CLR 22/22 A2992 RMK AO2 T02210215

2010/08/10 06:55
KCKN 100655Z AUTO 16005KT 10SM CLR 21/19 A2991 RMK AO2

2010/08/10 07:03
KCFE 100703Z AUTO 00000KT 10SM CLR 22/20 A2995 RMK AO2 T02150200

2010/08/10 06:57
KCQM 100657Z AUTO 00000KT 7SM CLR 19/18 A2997 RMK AO2

2010/08/10 06:55
KDTL 100655Z AUTO 00000KT 10SM CLR 23/17 A2996 RMK AO2

2010/08/10 06:55
KBDH 100655Z AUTO 12005KT 7SM CLR 23/22 A2994 RMK AO2

2010/08/10 06:55
KCBG 100655Z AUTO 00000KT 10SM CLR 21/19 A2994 RMK AO2

2010/08/10 06:57
KADC 100657Z AUTO 00000KT 10SM CLR 18/17 A2995 RMK AO2

2010/08/10 06:55
KHAF 100655Z AUTO 00000KT 5SM BR OVC003 11/10 A2994 RMK AO2

2010/08/10 06:55
KCKC 100655Z AUTO 33004KT 10SM CLR 16/13 A3001 RMK AO2

2010/08/10 06:54
KJYG 100654Z AUTO 00000KT 7SM CLR 24/24 A2993 RMK AO2

2010/08/10 06:56
KCOQ 100656Z AUTO 00000KT 10SM CLR 19/17 A2998 RMK AO2

2010/08/10 06:58
KACQ 100658Z AUTO 11005KT 10SM CLR 22/21 A2996 RMK AO2

2010/08/10 06:55
KRGK 100655Z AUTO 00000KT 3SM BR CLR 22/21 A2993 RMK AO2

2010/08/10 06:54
KFSE 100654Z AUTO 16004KT 10SM CLR 19/18 A2993 RMK AO2

2010/08/10 06:55
KY70 100655Z AUTO 00000KT 1/2SM FG BKN003 21/20 A2995 RMK AO2 T02070202

2010/08/10 06:50
KUKT 100650Z AUTO 00000KT 10SM CLR 24/20 A2995 RMK AO1

2010/08/10 06:54
KCDA 100654Z AUTO 00000KT M1/4SM FG OVC002 16/14 A2996 RMK AO2

2010/08/10 06:57
K2W6 100657Z AUTO 21006KT 10SM CLR 25/21 A2997 RMK AO1

2010/08/10 06:55
KCGE 100655Z AUTO 18003KT 10SM CLR 25/25 A2996 RMK AO1

2010/08/10 06:58
KDMW 100658Z AUTO 00000KT 7SM CLR 25/22 A2997 RMK AO2

2010/08/10 06:58
KCBE 100658Z AUTO 00000KT 10SM CLR 21/20 A3001 RMK AO1

2010/08/10 06:55
K2G4 100655Z AUTO 24005KT 10SM CLR 20/15 A3009 RMK AO1

2010/08/10 06:58
KFDK 100658Z AUTO 00000KT 7SM CLR 24/22 A2995 RMK AO2

2010/08/10 06:57
KMTN 100657Z AUTO 17006KT 10SM CLR 26/22 A2994 RMK AO2

2010/08/10 07:00
KFME 100700Z AUTO 19003KT 5SM CLR 20/20 A2996 RMK AO1

2010/08/10 06:58
KW29 100658Z AUTO 19006KT 10SM CLR 26/21 A2994 RMK AO1

2010/08/10 07:03
KESN 100703Z AUTO 21003KT 10SM CLR 24/24 A2998 RMK AO2

2010/08/10 07:00
KCGS 100700Z AUTO 19004KT 10SM CLR 27/21 A2994 RMK AO1

2010/08/10 06:50
K3A6 100650Z AUTO 36001KT 15/09 A2990 RMK AO1 SLP137 T01470092 403190115

2010/08/10 06:50
KHMS 100650Z 30013KT 15SM BKN250 20/08 A2979 RMK SLP086 T01970080 RSNK 13.9/35009KT

2010/08/10 06:55
PACZ 100655Z AUTO 20007KT 10SM BKN009 BKN017 OVC027 09/08 A2929 RMK AO1 T00940084

2010/08/10 06:55
PALU 100655Z AUTO 07019KT 5SM 09/08 A2960 RMK AO1 T00890078

2010/08/10 06:55
PATC 100655Z AUTO 00000KT 10SM BKN023 OVC033 11/09 A2943 RMK AO1 T01110095

2010/08/10 06:55
PAIM 100655Z AUTO 00000KT 10SM BKN075 13/13 A2961 RMK AO1 T01280128

2010/08/10 06:55
PATL 100655Z AUTO 20004KT 10SM OVC019 12/09 A2960 RMK AO1 T01170095

2010/08/10 06:55
PASV 100655Z AUTO 17003KT 10SM SCT013 BKN025 OVC031 09/08 A2964 RMK AO1 T00940084

2010/08/10 06:53
KLND 100653Z AUTO 22009KT 10SM CLR 17/02 A3006 RMK AO2 SLP106 T01720022 403110128

2010/08/10 06:53
KUIL 100653Z AUTO 00000KT 8SM OVC011 12/11 A2998 RMK AO2 SLP151 T01220111 TSNO

2010/08/10 06:54
KWAL 100654Z AUTO 24006KT 10SM CLR 24/22 A2997 RMK AO2 SLP146 T02390217 TSNO

2010/08/10 06:56
KALK 100656Z AUTO 21008KT 10SM CLR 22/14 A3013 RMK AO2 SLP107 T02170139 403060178 $

2010/08/10 06:53
KRNM 100653Z AUTO 27003KT 10SM CLR 12/09 A2992 RMK AO2 SLP121 T01220094 TSNO

2010/08/10 06:56
KSMP 100656Z AUTO VRB05KT M1/4SM FG VV001 09/08 A2997 RMK AO2 SLP145 T00890083 TSNO $

2010/08/10 06:54
KSBN 100654Z 00000KT 6SM BR CLR 22/20 A2996 RMK AO2 SLP141 T02220200

2010/08/10 06:53
KLOR 100653Z AUTO 00000KT 5SM BR CLR 23/22 A2993 RMK AO2 SLP132 T02330217 TSNO PNO $

2010/08/10 06:52
KMLF 100652Z AUTO 21005KT 10SM CLR 13/M01 A3007 RMK AO2 SLP124 T01281006 402940111 TSNO

2010/08/10 06:51
KP58 100651Z AUTO 27004KT 22/22 A2991 RMK AO2 SLP122 T02220217 PWINO TSNO

2010/08/10 06:55
KVAD 100655Z AUTO 05003KT 10SM CLR 25/24 A2996 RMK AO2 SLP143 T02480239 $

2010/08/10 06:55
MHSC 100655Z AUTO 03003KT 9999 BKN060 22/20 A2997 RMK AO2 SLP105 T02180202 $

2010/08/10 06:56
KAQV 100656Z AUTO 00000KT 10SM CLR 26/24 A2992 RMK AO2 SLP128 T02610239

2010/08/10 06:54
KNFG 100654Z 00000KT 6SM BR FEW015 11/09 A2992 RMK AO2 SLP129 T01110094

2010/08/10 06:52
KNHK 100652Z AUTO 21007KT 10SM CLR 26/22 A2995 RMK AO2 SLP143 T02610217 $

2010/08/10 06:53
KNIP 100653Z 13007KT 10SM FEW020 28/24 A2995 RMK AO2 SLP138 T02780244

2010/08/10 06:54
KNKT 100654Z AUTO 20005KT 10SM CLR 24/23 A3002 RMK AO2 SLP163 T02440233

2010/08/10 06:53
KNQX 100653Z AUTO 25005KT 10SM FEW060 27/23 A2985 RMK AO2 TSE0554B06E46 SLP107 T02670233 $

2010/08/10 06:56
KNYG 100656Z AUTO 22006KT 9SM CLR 26/20 A2995 RMK AO2 SLP144 T02610200 $

2010/08/10 06:52
KNZY 100652Z 31003KT 10SM BKN015 20/14 A2991 RMK AO2 SLP128 T02000139 $

2010/08/10 06:55
KPAM 100655Z AUTO 05003KT 10SM CLR 27/26 A2990 RMK AO2 SLP127 T02700257 $

2010/08/10 06:55
KPOB 100655Z AUTO 25004KT 10SM CLR 25/25 A3001 RMK AO2 SLP162 T02510251 $

2010/08/10 06:55
KPSM 100655Z 21005KT 7SM -RA SCT045 OVC100 21/20 A2988 RMK AO2A SLP119 P0003 T02090204

2010/08/10 06:55
KSKA 100655Z AUTO 19003KT 10SM CLR 17/07 A2980 RMK AO2 CIG 170 RWY05 SLP079 T01690071

2010/08/10 06:55
KSKF 100655Z 16005KT 10SM CLR 27/24 A2995 RMK AO2A SLP132 T0265 $

2010/08/10 06:55
KSSC 100655Z 00000KT 10SM CLR 25/24 A3000 RMK AO2A SLP158 T02500235 $

2010/08/10 06:55
KTCM 100655Z AUTO 22005KT 10SM OVC013 14/11 A2998 RMK AO2 SLP153 T01410113

2010/08/10 06:55
KTIK 100655Z 17010KT 10SM CLR 27/21 A2993 RMK AO2A SLP118 T02740207

2010/08/10 06:55
KVAD 100655Z AUTO 05003KT 10SM CLR 25/24 A2996 RMK AO2 SLP143 T02480239 $

2010/08/10 06:56
KNBC 100656Z AUTO 00000KT 10SM CLR 27/24 A2999 RMK AO2 SLP156 T02720244 $

2010/08/10 06:56
KNTD 100656Z AUTO 31004KT 10SM OVC007 15/14 A2990 RMK AO2 SLP127 T01500139 TSNO $

2010/08/10 06:55
KGBK 100655Z AUTO 00000KT 10SM CLR 31/25 A2992 RMK A01

2010/08/10 06:55
KLFI 100655Z 23005KT 10SM CLR 25/23 A2997 RMK AO2A SLP152 T02540226

2010/08/10 06:55
KMCF 100655Z AUTO 08007KT 10SM SCT065 26/25 A2988 RMK AO2 SLP121 T02590251

2010/08/10 06:55
KMHR 100655Z AUTO 15006KT 10SM CLR 15/11 A2985 RMK AO1

2010/08/10 06:53
KMRT 100653Z AUTO 23004KT 7SM SCT070 22/20 A3000 RMK AO2 T02240202

2010/08/10 06:56
K79J 100656Z AUTO 00000KT 5SM BR CLR 25/23 A2994 RMK AO2 SLP132 T02500228 TSNO PNO $

2010/08/10 06:55
KFHU 100655Z 23006KT 10SM SKC 23/14 A3011 RMK SLP124

2010/08/10 06:56
KNPA 100656Z AUTO 00000KT 8SM CLR 26/24 A2991 RMK AO2 SLP131 T02560239

2010/08/10 06:56
KNXP 100656Z AUTO 00000KT CLR 26/M01 A2993 RMK AO2 SLP096 T02561006 $

2010/08/10 06:56
KNYG 100656Z AUTO 22006KT 9SM CLR 26/20 A2995 RMK AO2 SLP144 T02610200 $

2010/08/10 06:52
KNZY 100652Z 31003KT 10SM BKN015 20/14 A2991 RMK AO2 SLP128 T02000139 $

2010/08/10 06:55
KRCA 100655Z 21006KT 10SM BKN180 23/15 A2989 RMK AO2A SLP090 T02290154 403300183 $

2010/08/10 06:55
KSKF 100655Z 16005KT 10SM CLR 27/24 A2995 RMK AO2A SLP132 T0265 $

2010/08/10 06:55
KVBG 100655Z AUTO 05004KT 10SM OVC003 13/12 A2993 RMK AO2 SLP128 T01280117 401780122 TSNO CHINO RWY12 VISNO RWY12 $

2010/08/10 06:57
KVPS 100657Z 35005KT 10SM SKC 26/24 A2992 RMK AO2A SLP131 T02570238 $

2010/08/10 06:55
PAED 100655Z 27008KT 10SM OVC007 12/10 A2977 RMK AO2A CIG 006V011 SLP082 T01170105

2010/08/10 06:56
PMDY 100656Z AUTO 04008KT 10SM FEW025 26/21 A3021 RMK AO2 TSNO T02550205 SLP539

2010/08/10 06:57
KNJM 100657Z AUTO 22006KT 10SM CLR 27/25 A3002 RMK AO2 SLP169 T02720250

2010/08/10 06:54
KNFG 100654Z 00000KT 6SM BR FEW015 11/09 A2992 RMK AO2 SLP129 T01110094

2010/08/10 06:53
KNQX 100653Z AUTO 25005KT 10SM FEW060 27/23 A2985 RMK AO2 TSE0554B06E46 SLP107 T02670233 $

2010/08/10 06:55
KPAM 100655Z AUTO 05003KT 10SM CLR 27/26 A2990 RMK AO2 SLP127 T02700257 $

2010/08/10 06:55
KPSM 100655Z 21005KT 7SM -RA SCT045 OVC100 21/20 A2988 RMK AO2A SLP119 P0003 T02090204

2010/08/10 06:55
KSSC 100655Z 00000KT 10SM CLR 25/24 A3000 RMK AO2A SLP158 T02500235 $

2010/08/10 06:56
PAOH 100656Z AUTO 00000KT 6SM BR OVC031 13/13 A3000 RMK AO2 TSNO T01330127 SLP160 $

2010/08/10 06:56
PPIZ 100656Z AUTO 05019G28KT 10SM FEW015 SCT033 06/03 A2967 RMK AO2 TSNO T00550027 PK WND 06028/0603 SLP050 $

2010/08/10 06:56
KNQI 100656Z AUTO 00000KT 8SM CLR 28/26 A2992 RMK AO2 SLP128 T02830256 $

2010/08/10 06:56
KHLR 100656Z AUTO 16006KT 10SM CLR 29/22 A2994 RMK AO2 SLP129 T02890217 $

2010/08/10 06:56
KNGP 100656Z AUTO 10SM FEW017 29/27 A2991 RMK AO2 SLP128 T02890272 $

2010/08/10 06:56
KNXX 100656Z AUTO 21004KT 10SM CLR 25/19 A2994 RMK AO2 SLP142 T02500189 $

2010/08/10 06:55
KADW 100655Z AUTO 22008KT 10SM CLR 24/21 A2995 RMK AO2 SLP141 T02440209 $

2010/08/10 06:55
KBKF 100655Z 18006KT 25SM SCT120 BKN220 16/13 A3013 RMK SLP136

2010/08/10 06:55
KCOF 100655Z AUTO 13011KT 10SM FEW020 26/ A2993 RMK AO2 SLP137 T0264

2010/08/10 06:55
KCVS 100655Z 19004KT 10SM OVC170 21/17 A3008 RMK AO2A SLP139 T0206170 403120185 $

2010/08/10 06:55
KDLF 100655Z AUTO 12016KT 10SM CLR 30/23 A2994 RMK AO2 SLP119 T02960227

2010/08/10 06:55
KFCS 100655Z AUTO 02006KT 10SM BKN110 17/12 A3013 RMK AO2 SLP126 T01650120 402590155

2010/08/10 06:55
KFRI 100655Z AUTO 18012KT 10SM CLR 30/21 A2987 RMK AO2 SLP090 T02980205

2010/08/10 06:55
KFTK 100655Z AUTO 00000KT 10SM CLR 26/25 A2997 RMK AO2 SLP141 T02610249 $

2010/08/10 06:55
KGRK 100655Z 15006KT 7SM FEW060 28/22 A2993 RMK SLP110

2010/08/10 06:55
KHIF 100655Z 09016G21KT 10SM CLR 19/05 A3002 RMK AO2A SLP067 T01950049 402770179

2010/08/10 06:55
KLFI 100655Z 23005KT 10SM CLR 25/23 A2997 RMK AO2A SLP152 T02540226

2010/08/10 06:55
KLTS 100655Z AUTO 12006KT 10SM CLR 27/21 A2992 RMK AO2 SLP111 T02680205 $

2010/08/10 06:55
KMCF 100655Z AUTO 08007KT 10SM SCT065 26/25 A2988 RMK AO2 SLP121 T02590251

2010/08/10 06:55
KMIB 100655Z AUTO 09011KT 10SM FEW065 21/18 A2987 RMK AO2 RAB0559E0625DZB0625E0628 TSB0600E0615 SLP106 P0002 T02110177

2010/08/10 06:55
KMUO 100655Z AUTO 14010KT 10SM FEW130 18/14 A2988 RMK AO2 SLP092 T01850141 403130170

2010/08/10 06:52
KNFW 100652Z AUTO 19008KT 10SM CLR 30/19 A2994 RMK AO2 SLP123 T03000194

2010/08/10 06:56
K9L2 100656Z AUTO VRB04KT 10SM CLR 23/03 A2989 RMK AO2 SLP099 T02330033 403500122 $

2010/08/10 06:56
KINS 100656Z VRB04KT 10SM CLR 23/M05 A2992 RMK AO2 SLP080 T02281050 403390128

2010/08/10 06:56
KNTU 100656Z 23003KT 10SM FEW200 24/23 A2997 RMK AO2 SLP151 T02390228 $

2010/08/10 06:56
KNCA 100656Z AUTO 00000KT 10SM 24/23 A3003 RMK AO2 SLP169 T02390233 $

2010/08/10 06:55
PGUA 100655Z AUTO 07008KT 10SM FEW019 27/24 A2990 RMK AO2 SLP106 T02700242 $

2010/08/10 06:56
KNBT 100656Z AUTO 22004KT 8SM CLR 27/24 A3001 RMK AO2 SLP166 T02670244 TSNO

2010/08/10 06:56
KNUQ 100656Z AUTO 03005KT 10SM OVC010 14/12 A2993 RMK AO2 SLP136 T01440122 TSNO

2010/08/10 06:56
PHBK 100656Z AUTO 16005KT 10SM BKN055 27/16 A3008 RMK AO2 SLP189 T02720156 TSNO $

2010/08/10 06:56
KNUW 100656Z 23007KT 8SM FEW008 BKN012 OVC045 14/12 A2996 RMK AO2 SLP148 T01430116 $

2010/08/10 06:55
KNYL 100655Z AUTO 27004KT 10SM CLR 29/01 A2976 RMK AO2 SLP072 T02940006 404110233

2010/08/10 06:55
KBKF 100655Z 18006KT 25SM SCT120 BKN220 16/13 A3013 RMK SLP136

2010/08/10 06:55
KCVS 100655Z 19004KT 10SM OVC170 21/17 A3008 RMK AO2A SLP139 T0206170 403120185 $

2010/08/10 06:55
KFRI 100655Z AUTO 18012KT 10SM CLR 30/21 A2987 RMK AO2 SLP090 T02980205

2010/08/10 06:55
KGRK 100655Z 15006KT 7SM FEW060 28/22 A2993 RMK SLP110

2010/08/10 06:55
KLFI 100655Z 23005KT 10SM CLR 25/23 A2997 RMK AO2A SLP152 T02540226

2010/08/10 06:55
KLSV 100655Z AUTO 04005KT 10SM CLR 27/M00 A2984 RMK AO2 SLP090 T02661001 PWINO

2010/08/10 06:55
KMCF 100655Z AUTO 08007KT 10SM SCT065 26/25 A2988 RMK AO2 SLP121 T02590251

2010/08/10 06:55
KMIB 100655Z AUTO 09011KT 10SM FEW065 21/18 A2987 RMK AO2 RAB0559E0625DZB0625E0628 TSB0600E0615 SLP106 P0002 T02110177

2010/08/10 06:55
KPAM 100655Z AUTO 05003KT 10SM CLR 27/26 A2990 RMK AO2 SLP127 T02700257 $

2010/08/10 06:55
KPSM 100655Z 21005KT 7SM -RA SCT045 OVC100 21/20 A2988 RMK AO2A SLP119 P0003 T02090204

2010/08/10 06:55
KSKA 100655Z AUTO 19003KT 10SM CLR 17/07 A2980 RMK AO2 CIG 170 RWY05 SLP079 T01690071

2010/08/10 06:55
KTCM 100655Z AUTO 22005KT 10SM OVC013 14/11 A2998 RMK AO2 SLP153 T01410113

2010/08/10 06:56
KNFE 100656Z AUTO 00000KT 2SM HZ CLR 23/21 A2998 RMK AO2 SLP155 T02330206 $

2010/08/10 06:56
KSDF 100656Z 00000KT 8SM CLR 29/23 A2995 RMK AO2 SLP136 T02890233

2010/08/10 06:57
K14Y 100657Z AUTO 00000KT 10SM CLR 22/20 A2996 RMK AO2 T02160201

2010/08/10 06:55
K1P1 100655Z AUTO 32004KT 5SM BR SCT120 21/19 A2990 RMK AO2 T02050192

2010/08/10 06:55
K21D 100655Z AUTO 00000KT 10SM CLR 21/20 A2995 RMK AO2

2010/08/10 06:56
KART 100656Z AUTO 19005KT 6SM BR BKN013 21/20 A2993 RMK AO2 SLP129 T02060200

2010/08/10 06:55
KATW 100655Z AUTO 30003KT 2SM BR CLR 23/22 A2997 RMK AO2

2010/08/10 06:55
KBBG 100655Z AUTO 00000KT 10SM CLR 28/22 A2998 RMK AO2

2010/08/10 06:56
KBED 100656Z 23004KT 3SM -RA BR BKN049 BKN070 22/21 A2990 RMK AO2 SLP133 P0002 T02220211

2010/08/10 06:54
KBJI 100654Z AUTO 00000KT 10SM CLR 21/20 A2995 RMK AO2

2010/08/10 06:56
KBJJ 100656Z AUTO 00000KT 6SM BR CLR 22/20 A2998 RMK AO2 SLP140 T02220200

2010/08/10 06:55
KBKN 100655Z AUTO 00000KT 10SM FEW100 27/21 A2989 RMK AO2

2010/08/10 06:55
KBUU 100655Z AUTO 00000KT 1SM BR VV007 19/19 A2996 RMK AO2 T01890186

2010/08/10 06:56
KCTB 100656Z AUTO 00000KT 10SM CLR 16/10 A2985 RMK AO2 SLP077 T01560100 402780094 PWINO

2010/08/10 06:56
KCXY 100656Z AUTO 00000KT 8SM CLR 27/21 A2992 RMK AO2 SLP129 T02720206

2010/08/10 06:53
KD39 100653Z AUTO 10003KT 10SM CLR 23/21 A2995 RMK AO2 T02280208

2010/08/10 06:56
KDAY 100656Z 23005KT 7SM FEW050 26/21 A2999 RMK AO2 SLP143 T02560206

2010/08/10 06:56
KEED 100656Z AUTO 25006KT 10SM CLR 32/M01 A2977 RMK AO2 SLP045 T03221011 TSNO

2010/08/10 06:56
KELZ 100656Z AUTO 00000KT 4SM BR BKN070 OVC085 19/18 A3003 RMK AO2 RAE0559 SLP155 P0000 T01890183

2010/08/10 06:54
KEZS 100654Z AUTO 00000KT 10SM CLR 22/20 A2997 RMK AO2 T02160199

2010/08/10 06:55
KGGE 100655Z AUTO 00000KT 10SM SCT020 SCT027 SCT032 25/25 A3002 RMK AO2

2010/08/10 06:56
KGON 100656Z AUTO 34003KT 10SM CLR 24/19 A2991 RMK AO2 SLP127 T02440194

2010/08/10 06:55
KHFJ 100655Z AUTO 00000KT 10SM CLR 27/22 A2993 RMK AO1

2010/08/10 06:56
KHND 100656Z AUTO 17007KT 10SM CLR 27/M04 A2989 RMK AO2 T02721038 403720194 SLP068

2010/08/10 06:56
KHPN 100656Z VRB05KT 10SM CLR 26/17 A2992 RMK AO2 SLP124 T02610172

2010/08/10 06:56
KHWV 100656Z AUTO 23005KT 9SM CLR 25/21 A2992 RMK AO2 SLP130 T02500211

2010/08/10 06:56
KHYA 100656Z AUTO 34007KT 9SM VCTS -RA FEW010 BKN019 OVC060 22/19 A2993 RMK AO2 LTG DSNT NW TSB48RAB32 PRESRR SLP137 P0000 T02170194

2010/08/10 06:56
KISP 100656Z 24009KT 10SM SCT150 BKN250 25/17 A2991 RMK AO2 SLP125 T02500172

2010/08/10 06:56
KITH 100656Z AUTO 00000KT 5SM -RA BR BKN035 OVC048 22/20 A3000 RMK AO2 T02160200 RAB29 P0000 SLP151

2010/08/10 06:56
KIWA 100656Z AUTO 16003KT 10SM SCT120 31/11 A2985 RMK AO2

2010/08/10 06:56
KJXN 100656Z 00000KT 3/4SM BR VV001 21/21 A2997 RMK AO2 SLP145 T02060206 $

2010/08/10 06:55
KLCK 100655Z AUTO 00000KT 7SM CLR 23/21 A2996 RMK AO2 T02310205

2010/08/10 06:56
KLRD 100656Z AUTO 16011KT 10SM CLR 29/25 A2995 RMK AO2 T02940250 SLP126

2010/08/10 06:56
KMDT 100656Z 14003KT 7SM SCT200 BKN250 27/22 A2991 RMK AO2 SLP127 T02670217

2010/08/10 06:55
KMWO 100655Z AUTO 00000KT 3SM BR CLR 23/22 A2998 RMK AO2

2010/08/10 06:56
KOWB 100656Z AUTO 00000KT 9SM CLR 28/25 A2995 RMK AO2 T02770250 SLP136

2010/08/10 06:54
KPHL 100654Z COR 20007KT 10SM SCT180 BKN250 26/21 A2993 RMK AO2 SLP136 T02610211

2010/08/10 06:52
KPVB 100652Z AUTO 06003KT 10SM CLR 24/23 A2994 RMK AO1 T02410226

2010/08/10 06:55
KPVF 100655Z AUTO 00000KT 10SM FEW046 19/09 A2996 RMK AO1

2010/08/10 06:56
KSGH 100656Z AUTO 21004KT 5SM BR CLR 23/23 A2999 RMK AO2 T02330227 SLP146 $

2010/08/10 06:58
KSGJ 100658Z AUTO 14007KT 10SM CLR 27/23 A2996 RMK AO2 SLP143 T02720233

2010/08/10 06:53
KUNI 100653Z AUTO 00000KT 7SM CLR 23/18 A2997 RMK AO2

2010/08/10 06:55
KVQQ 100655Z AUTO 00000KT 10SM CLR 24/24 A2995 RMK AO2 LTG DSNT SE AND NW

2010/08/10 06:56
KWJF 100656Z 27012KT 10SM CLR 23/M06 A2991 RMK AO2 SLP108 T02331061

2010/08/10 06:55
KY51 100655Z AUTO 09004KT 10SM CLR 23/22 A2997 RMK AO1 T02270217

2010/08/10 06:55
KY63 100655Z AUTO 14005KT 10SM CLR 24/21 A2993 RMK AO2 T02360211

2010/08/10 06:56
K79J 100656Z AUTO 00000KT 5SM BR CLR 25/23 A2994 RMK AO2 SLP132 T02500228 TSNO PNO $

2010/08/10 06:56
K79J 100656Z AUTO 00000KT 5SM BR CLR 25/23 A2994 RMK AO2 SLP132 T02500228 TSNO PNO $

2010/08/10 06:53
KLOR 100653Z AUTO 00000KT 5SM BR CLR 23/22 A2993 RMK AO2 SLP132 T02330217 TSNO PNO $

2010/08/10 06:56
PATQ 100656Z AUTO 07016G22KT 4SM -RA BR OVC007 03/02 A2977 RMK AO2 TSNO T00270022 P0000 SLP087 $

2010/08/10 06:56
PAFS 100656Z AUTO VRB03KT 8SM FEW029 OVC048 12/10 A2962 RMK AO2 TSNO T01160100 SLP039 $

2010/08/10 06:56
PAGN 100656Z AUTO 00000KT FEW008 BKN015 OVC029 RMK AO2 PWINO TSNO SLPNO $

2010/08/10 06:56
PAHC 100656Z AUTO 00000KT 10SM -RA OVC029 12/11 A2948 RMK AO2 TSNO T01160105 OVC V BKN RAE25B50 P0000 SLP987 $

2010/08/10 06:56
PAIG 100656Z AUTO 00000KT 2 1/2SM BR FEW013 BKN019 OVC030 11/11 A2963 RMK AO2 PWINO TSNO T01050105 BKN V SCT P0001 SLP039 $

2010/08/10 06:56
PAMO 100656Z AUTO 14017KT 2 1/2SM RA BR OVC003 10/10 A2938 RMK AO2 TSNO T01000100 CIG 001V007 P0001 SLP947 $

2010/08/10 06:56
PAOO 100656Z AUTO 17014KT 10SM OVC007 09/08 A2934 RMK AO2 TSNO T00940083 SLP937 $

2010/08/10 06:56
PAPM 100656Z AUTO 18018KT 1 1/4SM BR BKN008 OVC095 09/09 A2950 RMK AO2 TSNO T00940088 CIG 004V013 SLP991 $

2010/08/10 06:56
PARS 100656Z AUTO 18009KT 1 3/4SM -RA BR FEW003 BKN010 OVC014 10/09 A2946 RMK AO2 TSNO T01000094 CIG 006V012 P0000 SLP980 $

2010/08/10 06:56
PARY 100656Z AUTO 06006KT 10SM BKN080 BKN090 13/10 A2958 RMK AO2 PWINO TSNO T01270100 SLP022

2010/08/10 06:56
PATQ 100656Z AUTO 07016G22KT 4SM -RA BR OVC007 03/02 A2977 RMK AO2 TSNO T00270022 P0000 SLP087 $

2010/08/10 06:52
KETB 100652Z AUTO 00000KT 10SM CLR 21/20 A2996 RMK AO2 T02100200

2010/08/10 06:54
KETH 100654Z AUTO 13006KT 10SM CLR 19/18 A2995 RMK AO2

2010/08/10 06:52
KEVM 100652Z AUTO 00000KT 1/4SM FG VV002 17/16 A2996 RMK AO1

2010/08/10 06:54
KFBL 100654Z AUTO 00000KT 7SM CLR 21/19 A2995 RMK AO2 LTG DSNT S

2010/08/10 07:02
KFKA 100702Z AUTO 00000KT 7SM CLR 24/23 A2997 RMK AO2 LTG DSNT SW T02350225

2010/08/10 06:53
KFOZ 100653Z AUTO 00000KT 3/4SM BR VV005 19/18 A2997 RMK AO2 VIS 1/2V2

2010/08/10 06:59
KFSO 100659Z AUTO 00000KT 4SM BR CLR 17/17 A2991 RMK AO2

2010/08/10 06:52
KGLW 100652Z AUTO 00000KT 5SM BR CLR 24/23 A2998 RMK AO2 T02430231

2010/08/10 06:55
KGUL 100655Z AUTO 10SM CLR 30/24 A2993 RMK A01

2010/08/10 06:54
KGYL 100654Z AUTO 00000KT 10SM CLR 22/21 A2993 RMK AO2 T02220207

2010/08/10 06:52
KHCD 100652Z AUTO 11003KT 10SM CLR 22/21 A2994 RMK AO2 T02210205

2010/08/10 06:55
KHCO 100655Z AUTO 17006KT 10SM CLR 23/22 A2990 RMK AO2

2010/08/10 06:50
KHQI 100650Z AUTO 00000KT 10SM 30/25 A2992 RMK A01

2010/08/10 06:51
KHZX 100651Z AUTO 00000KT 10SM CLR 18/18 A2998 RMK AO2

2010/08/10 06:55
KIPN 100655Z AUTO VRB05KT 10SM CLR 29/25 A2989 RMK A01

2010/08/10 06:54
KJKJ 100654Z AUTO 16004KT 10SM CLR 23/21 A2990 RMK AO2

2010/08/10 06:55
KJMR 100655Z AUTO 00000KT 4SM BR CLR 19/18 A2998 RMK AO2

2010/08/10 06:55
KJVL 100655Z AUTO 00000KT 1/4SM FG VV002 23/22 A2995 RMK AO2 T02310216

2010/08/10 06:53
KLJF 100653Z AUTO 00000KT 10SM CLR 22/22 A2994 RMK AO2

2010/08/10 06:55
KLNL 100655Z AUTO 00000KT 5SM BR CLR 14/13 A3003 RMK AO2 T01400134

2010/08/10 06:55
KLUM 100655Z AUTO 00000KT 7SM CLR 22/21 A2997 RMK AO2

2010/08/10 06:54
KLVN 100654Z AUTO 00000KT 1/4SM FG VV002 19/19 A2994 RMK AO2 VIS M1/4V3

2010/08/10 06:54
KLXL 100654Z AUTO 00000KT 10SM CLR 19/18 A2994 RMK AO2

2010/08/10 06:56
KM89 100656Z AUTO 00000KT 7SM CLR 27/26 A2992 RMK AO2 T02660255 SLP143 $

2010/08/10 06:55
KMDJ 100655Z AUTO 00000KT 10SM CLR 29/24 A2991 RMK A01

2010/08/10 06:55
KMIU 100655Z AUTO 17015KT BKN018 BKN025 BKN030 30/27 A2991 RMK A01

2010/08/10 06:52
KMJQ 100652Z AUTO 12003KT 7SM SCT023 22/22 A2994 RMK AO2

2010/08/10 06:54
KMVE 100654Z AUTO 15003KT 7SM CLR 23/22 A2991 RMK AO2 LTG DSNT SE

2010/08/10 06:55
KMZG 100655Z AUTO 00000KT 10SM CLR 30/26 A2990 RMK A01

2010/08/10 06:57
K2W6 100657Z AUTO 21006KT 10SM CLR 25/21 A2997 RMK AO1

2010/08/10 06:55
K2G4 100655Z AUTO 24005KT 10SM CLR 20/15 A3009 RMK AO1

2010/08/10 06:58
KFDK 100658Z AUTO 00000KT 7SM CLR 24/22 A2995 RMK AO2

2010/08/10 06:57
KMTN 100657Z AUTO 17006KT 10SM CLR 26/22 A2994 RMK AO2

2010/08/10 06:58
KW29 100658Z AUTO 19006KT 10SM CLR 26/21 A2994 RMK AO1

2010/08/10 07:00
KCGS 100700Z AUTO 19004KT 10SM CLR 27/21 A2994 RMK AO1

2010/08/10 06:56
PAMB 100656Z AUTO 19006KT 2 1/2SM BR OVC003 09/09 A2957 RMK AO2 PWINO TSNO T00940094 SLP015 $

2010/08/10 06:55
KVAD 100655Z AUTO 05003KT 10SM CLR 25/24 A2996 RMK AO2 SLP143 T02480239 $

2010/08/10 06:58
K0J4 100658Z AUTO 00000KT 10SM CLR 26/24 RMK AO2 SLPNO T02560239 $

2010/08/10 06:55
PACZ 100655Z AUTO 20007KT 10SM BKN009 BKN017 OVC027 09/08 A2929 RMK AO1 T00940084

2010/08/10 06:55
PALU 100655Z AUTO 07019KT 5SM 09/08 A2960 RMK AO1 T00890078

2010/08/10 06:55
PATC 100655Z AUTO 00000KT 10SM BKN023 OVC033 11/09 A2943 RMK AO1 T01110095

2010/08/10 06:55
PAIM 100655Z AUTO 00000KT 10SM BKN075 13/13 A2961 RMK AO1 T01280128

2010/08/10 06:55
PATL 100655Z AUTO 20004KT 10SM OVC019 12/09 A2960 RMK AO1 T01170095

2010/08/10 06:55
PASV 100655Z AUTO 17003KT 10SM SCT013 BKN025 OVC031 09/08 A2964 RMK AO1 T00940084

2010/08/10 06:54
KLSF 100654Z AUTO 00000KT 8SM R33/5500FT CLR 23/22 A2996 RMK AO2 SLP144 PNO $

2010/08/10 06:56
KMTC 100656Z AUTO 00000KT 1 3/4SM R19/2200VP6000FT DZ BR CLR 21/21 A2994 RMK AO2 VIS 1V5 SLP142 $

2010/08/10 06:58
KMTC 100658Z AUTO 00000KT 1 1/2SM R19/1800V4500FT DZ BR CLR 21/21 A2994 RMK AO2 VIS 3/4V4 SLP142 $

2010/08/10 06:57
KTOL 100657Z 00000KT 1SM BR VV001 22/21 A2996 RMK AO2 RVRNO

2010/08/10 06:57
KGRR 100657Z AUTO 00000KT 1 1/4SM BR CLR 21/20 A2997 RMK AO2

2010/08/10 06:57
KAPN 100657Z AUTO 00000KT 2 1/2SM BR FEW001 19/18 A2995 RMK AO2 $

2010/08/10 06:55
KFMH 100655Z AUTO 30008KT 2 1/2SM RA FEW003 SCT025 BKN039 21/20 A2994 RMK AO2 LTG DSNT NW-NE P0016

2010/08/10 06:55
K1A6 100655Z AUTO 00000KT 5SM BR CLR 24/24 A3003 RMK AO2

2010/08/10 06:55
K46D 100655Z AUTO 17008KT 10SM CLR 22/20 A2991 RMK AO2

2010/08/10 06:50
KAEL 100650Z AUTO 11003KT 10SM CLR 23/22 A2995 RMK AO2 LTG DSNT SE

2010/08/10 06:55
KAIG 100655Z AUTO 00000KT 7SM CLR 17/16 A3001 RMK AO2

2010/08/10 06:56
KAJO 100656Z AUTO 26006KT 10SM CLR 17/14 A2991 RMK AO2 T01660138 SLP123 $

2010/08/10 06:55
KANE 100655Z AUTO 00000KT 10SM CLR 22/21 A2995 RMK AO2

2010/08/10 06:53
KAQP 100653Z AUTO 14004KT 10SM CLR 23/23 A2991 RMK AO2

2010/08/10 06:51
KARV 100651Z AUTO 00000KT 10SM CLR 18/17 A3002 RMK AO2 T01800165

2010/08/10 06:55
KBBF 100655Z AUTO 19012KT 10SM SCT020 30/27 A2989 RMK A01

2010/08/10 06:53
KBFW 100653Z AUTO 00000KT 10SM CLR 17/16 A2996 RMK AO2

2010/08/10 06:55
KBQX 100655Z AUTO 18008KT 10SM FEW020 30/26 A2991 RMK A01

2010/08/10 06:50
KBWP 100650Z AUTO 14006KT 10SM CLR 22/20 A2991 RMK AO1 T02200195

2010/08/10 06:52
KCDD 100652Z AUTO 00000KT 5SM BR CLR 19/19 A2997 RMK AO2

2010/08/10 06:55
KCMB 100655Z AUTO 27004KT 10SM CLR 31/25 A2992 RMK A01

2010/08/10 06:55
KCMY 100655Z AUTO 00000KT 1/2SM FG OVC001 21/21 A2996 RMK AO2 T02120205

2010/08/10 06:55
KCRH 100655Z AUTO 28005KT 10SM CLR 30/25 A2992 RMK A01

2010/08/10 06:50
KCVH 100650Z AUTO 27005KT 10SM OVC009 13/12 A2994 RMK AO1

2010/08/10 06:55
KCWA 100655Z AUTO 01006KT 10SM CLR 22/20 A3000 RMK AO2 T02170200

2010/08/10 06:56
KDIJ 100656Z AUTO 13003KT 10SM FEW050 10/08 A3013 RMK AO2 T01000077 402380094 SLP123 $

2010/08/10 06:55
KDLL 100655Z AUTO 00000KT M1/4SM FG VV000 22/21 A2996 RMK AO2 T02150209

2010/08/10 06:56
KDVP 100656Z AUTO 10004KT 5SM BR CLR 23/22 A2995 RMK AO2 T02320218

2010/08/10 06:54
KDXX 100654Z AUTO 00000KT 10SM SCT031 22/22 A2991 RMK AO2

2010/08/10 06:54
KDYT 100654Z AUTO 00000KT 10SM CLR 24/22 A2994 RMK AO2

2010/08/10 06:56
KEFK 100656Z AUTO 00000KT 1 3/4SM BR VV007 15/14 A2994 RMK AO2

2010/08/10 06:55
KEFT 100655Z AUTO 00000KT 10SM CLR 24/23 A2995 RMK AO2 T02420225

2010/08/10 06:51
KEGV 100651Z AUTO 00000KT 1/2SM FG OVC003 16/16 A3002 RMK AO2 VIS 1/4V4 T01620163

2010/08/10 06:55
KEHC 100655Z AUTO 00000KT 10SM SCT026 30/25 A2992 RMK A01

2010/08/10 06:55
KEIR 100655Z AUTO 00000KT 10SM SCT070 29/26 A2991 RMK A01

2010/08/10 06:56
KEKQ 100656Z AUTO 00000KT 1 3/4SM BR CLR 23/22 A3002 RMK AO2 T02270222 SLP158

2010/08/10 06:54
KELO 100654Z AUTO 00000KT 10SM CLR 18/17 A2998 RMK AO2

2010/08/10 06:55
KEMK 100655Z AUTO 19005KT 10SM CLR 30/25 A2992 RMK A01

2010/08/10 06:51
KMZH 100651Z AUTO 00000KT 1/4SM FG OVC001 18/18 A2995 RMK AO2

2010/08/10 06:51
KONA 100651Z AUTO 00000KT M1/4SM FG OVC001 23/22 A2993 RMK AO2

2010/08/10 06:54
KONZ 100654Z AUTO 00000KT 2SM BR CLR 22/21 A2994 RMK AO2

2010/08/10 06:54
KORB 100654Z AUTO 00000KT 10SM CLR 21/19 A2994 RMK AO2

2010/08/10 06:54
KOVL 100654Z AUTO 13004KT 10SM CLR 22/20 A2992 RMK AO2 T02230198

2010/08/10 06:54
KOWA 100654Z AUTO 10003KT 7SM CLR 22/21 A2994 RMK AO2

2010/08/10 06:53
KPEX 100653Z AUTO 09004KT 10SM CLR 24/21 A2995 RMK AO2 T02420211

2010/08/10 06:55
KROX 100655Z AUTO 19006KT 10SM CLR 22/21 A2990 RMK AO2

2010/08/10 06:54
KRRT 100654Z AUTO 21005KT 10SM CLR 23/21 A2991 RMK AO2 TSNO

2010/08/10 06:53
KRZN 100653Z AUTO 00000KT 10SM CLR 21/19 A2997 RMK AO2 T02080194

2010/08/10 06:54
KSAZ 100654Z AUTO 00000KT 10SM CLR 21/21 A2996 RMK AO2

2010/08/10 06:53
KSGS 100653Z AUTO 00000KT 10SM CLR 24/22 A2994 RMK AO2 T02430215

2010/08/10 06:55
KSPR 100655Z AUTO 13008KT 10SM FEW018 30/26 A2990 RMK A01

2010/08/10 06:53
KTEW 100653Z AUTO 00000KT 3/4SM BR OVC001 18/18 A2996 RMK AO2

2010/08/10 06:55
KTOB 100655Z AUTO 11003KT 2SM BR CLR 21/19 A2996 RMK AO2

2010/08/10 06:58
KTQH 100658Z AUTO 00000KT 10SM CLR 23/22 A2995 RMK AO2

2010/08/10 06:55
KVAF 100655Z AUTO 23009KT 10SM SCT020 30/25 A2988 RMK A01

2010/08/10 06:55
KVBS 100655Z AUTO 24006KT 10SM FEW023 31/25 A2991 RMK A01

2010/08/10 06:53
KVES 100653Z AUTO 00000KT 3SM BR CLR 21/21 A2998 RMK AO2 T02130210

2010/08/10 06:56
KVVV 100656Z AUTO 12006KT 10SM CLR 24/22 A2991 RMK AO2

2010/08/10 06:49
KVWU 100649Z AUTO 00000KT 10SM CLR 20/18 A2994 RMK AO2

2010/08/10 06:56
KXVG 100656Z AUTO 00000KT 5SM BR CLR 17/17 A2995 RMK AO2

2010/08/10 06:56
PAGN 100656Z AUTO 00000KT FEW008 BKN015 OVC029 RMK AO2 PWINO TSNO SLPNO $

2010/08/10 06:56
KGNR 100656Z AUTO 00000KT 17/16 A2988 RMK AO1 SLP115 T01670156

2010/08/10 06:56
KMHS 100656Z AUTO 00000KT 10SM CLR 16/11 A2997 RMK AO2 SLP135 T01560106 TSNO

2010/08/10 06:56
KD07 100656Z AUTO 17008KT 20/16 A2986 RMK AO2 SLP092 T02000156 403330167 PWINO TSNO

2010/08/10 06:56
KSPD 100656Z AUTO 00000KT 21/17 A3006 RMK AO2 SLP106 T02060167 403330178 PWINO TSNO

2010/08/10 06:56
KFSD 100656Z 12009KT 10SM FEW012 BKN037 25/23 A2988 RMK AO2 SLP105 T02500233 $

2010/08/10 06:56
K2WX 100656Z AUTO 16010KT 21/12 A2978 RMK AO1 SLP055 T02110122 403610167

2010/08/10 06:56
KBZN 100656Z AUTO 14007KT 10SM BKN080 14/10 A3000 RMK AO2 SLP123 T01390100 402830100

2010/08/10 06:55
KDVK 100655Z AUTO 20005KT 7SM CLR 24/23 A3000 RMK AO1

2010/08/10 06:56
TJSJ 100656Z 12005KT 10SM SCT050 27/24 A2994 RMK AO2 RAB08E19 SLP137 OCNL LTGIC DSNT N-SW CB DSNT N-SW P0000 T02670244 $

2010/08/10 06:54
KAKQ 100654Z AUTO 00000KT 9SM CLR 24/21 A2998 RMK AO2 SLP151 T02390211 TSNO

2010/08/10 06:56
KALK 100656Z AUTO 21008KT 10SM CLR 22/14 A3013 RMK AO2 SLP107 T02170139 403060178 $

2010/08/10 06:56
KGNA 100656Z AUTO 00000KT 16/14 A2994 RMK AO2 SLP135 T01560139 PWINO TSNO

2010/08/10 06:53
KGNT 100653Z AUTO 00000KT 15/11 A3025 RMK AO2 SLP152 T01500106 402780100 PWINO TSNO

2010/08/10 06:56
KABQ 100656Z 00000KT 10SM FEW100 24/07 A3014 RMK AO2 SLP106 T02390072 403170178

2010/08/10 06:56
KJAX 100656Z 06003KT 10SM FEW022 26/23 A2995 RMK AO2 SLP142 T02560233

2010/08/10 06:53
K29G 100653Z AUTO 00000KT 10SM BKN048 BKN065 BKN110 24/19 A2997 RMK AO2 T02400186 PWINO

2010/08/10 06:56
KCAE 100656Z 00000KT 6SM BR CLR 24/23 A3001 RMK AO2 SLP159 T02440228

2010/08/10 06:56
KCHS 100656Z 00000KT 10SM CLR 27/25 A3001 RMK AO2 SLP160 T02670250

2010/08/10 06:55
KCLI 100655Z AUTO 00000KT 10SM CLR 21/19 A2997 RMK AO2

2010/08/10 06:54
KRFD 100654Z 00000KT 8SM FEW026 24/22 A2996 RMK AO2 SLP138 T02400220 PNO $

2010/08/10 06:55
KROS 100655Z AUTO 00000KT 10SM CLR 19/19 A2996 RMK AO2 T01940186

2010/08/10 06:55
KSCF 100655Z AUTO 10008KT 10SM CLR 29/26 A2986 RMK A01

2010/08/10 06:56
KSHV 100656Z 18003KT 10SM SCT290 28/23 A2991 RMK AO2 SLP124 T02780228

2010/08/10 06:55
KSYN 100655Z AUTO 00000KT 1 1/4SM BR VV007 22/21 A2993 RMK AO2 VIS 1/2V2 1/2 T02160205

2010/08/10 06:53
KTKC 100653Z AUTO 00000KT 10SM BKN038 OVC044 23/22 A2993 RMK AO2 T02300217

2010/08/10 06:54
KFWA 100654Z 00000KT 1/4SM FG CLR 23/22 A2997 RMK AO2 SLP142 R23/3000FT T02280222

2010/08/10 06:54
KIKW 100654Z AUTO 30003KT 7SM CLR 22/20 A2994 RMK AO2 T02150202

2010/08/10 06:58
KLYV 100658Z AUTO 11003KT 7SM CLR 24/22 A2990 RMK AO2

2010/08/10 06:58
KCBE 100658Z AUTO 00000KT 10SM CLR 21/20 A3001 RMK AO1

2010/08/10 07:03
KESN 100703Z AUTO 21003KT 10SM CLR 24/24 A2998 RMK AO2

2010/08/10 06:50
K3A6 100650Z AUTO 36001KT 15/09 A2990 RMK AO1 SLP137 T01470092 403190115

2010/08/10 06:50
KHMS 100650Z 30013KT 15SM BKN250 20/08 A2979 RMK SLP086 T01970080 RSNK 13.9/35009KT

2010/08/10 06:53
KLND 100653Z AUTO 22009KT 10SM CLR 17/02 A3006 RMK AO2 SLP106 T01720022 403110128

2010/08/10 06:53
KUIL 100653Z AUTO 00000KT 8SM OVC011 12/11 A2998 RMK AO2 SLP151 T01220111 TSNO

2010/08/10 06:54
KWAL 100654Z AUTO 24006KT 10SM CLR 24/22 A2997 RMK AO2 SLP146 T02390217 TSNO

2010/08/10 06:56
KALK 100656Z AUTO 21008KT 10SM CLR 22/14 A3013 RMK AO2 SLP107 T02170139 403060178 $

2010/08/10 06:53
KRNM 100653Z AUTO 27003KT 10SM CLR 12/09 A2992 RMK AO2 SLP121 T01220094 TSNO

2010/08/10 06:56
KSMP 100656Z AUTO VRB05KT M1/4SM FG VV001 09/08 A2997 RMK AO2 SLP145 T00890083 TSNO $

2010/08/10 06:54
KSBN 100654Z 00000KT 6SM BR CLR 22/20 A2996 RMK AO2 SLP141 T02220200

2010/08/10 06:52
KMLF 100652Z AUTO 21005KT 10SM CLR 13/M01 A3007 RMK AO2 SLP124 T01281006 402940111 TSNO

2010/08/10 06:51
KP58 100651Z AUTO 27004KT 22/22 A2991 RMK AO2 SLP122 T02220217 PWINO TSNO

2010/08/10 07:00
OPKC 100700Z 26007KT 7000 BKN020 32/26 Q1003 NOSIG

2010/08/10 07:00
OPPS 100700Z N--08 4000 HZ SCT030 SCT100 33/26 Q1003.9

2010/08/10 06:50
EDNY 100650Z VRB02KT 9999 SCT055 17/14 Q1018 RMK ATIS G

2010/08/10 06:50
EDXW 100650Z 16011KT 8000 NSC 18/16 Q1013 RMK ATIS INFO B

2010/08/10 06:50
EDHL 100650Z 14005KT 110V170 CAVOK 18/18 Q1016 RMK I

2010/08/10 06:50
EDLN 100650Z VRB03KT CAVOK 17/16 Q1015 RMK ATIS E

2010/08/10 06:50
EDLP 100650Z 17006KT CAVOK 19/11 Q1015 RMK RWY24 TRL60 OK ATIS J

2010/08/10 06:50
EDLW 100650Z 18008KT CAVOK 18/13 Q1015 RMK ATIS H

2010/08/10 07:00
SBFL 100700Z 00000KT 9999 SCT025 14/11 Q1025

2010/08/10 06:56
RKJK 100656Z AUTO 05007KT 9999 -DZ FEW024 27/26 A2970 RMK AO2 DZB0656 SLP059 $

2010/08/10 06:55
EHAM 100655Z 19010KT 170V230 9999 FEW011 BKN012 BKN015 17/15 Q1012 BECMG SCT012

2010/08/10 06:55
EHBK 100655Z AUTO 20006KT 9999NDV NSC 18/13 Q1015 NOSIG

2010/08/10 06:55
EHGG 100655Z AUTO 19008KT 170V230 9999NDV NSC 16/13 Q1013 NOSIG

2010/08/10 06:55
EHKD 100655Z AUTO 21010KT 9999NDV FEW018/// OVC022/// 18/16 Q1011 WHT WHT BECMG BLU BECMG 9999 SCT025 SCT100 BKN200

2010/08/10 06:55
EHRD 100655Z 21011KT 9999 SCT009 BKN011 17/15 Q1013 BECMG SCT012

2010/08/10 06:50
LSGS 100650Z 08005KT 060V130 9999 SCT090 20/12 Q1019

2010/08/10 06:50
EGTC 100650Z 23007KT 9999 FEW045 12/11 Q1010

2010/08/10 07:00
FMEP 100700Z 14005KT 100V170 9999 FEW026 BKN093 24/16 Q1023

2010/08/10 06:57
KAPN 100657Z AUTO 00000KT 2 1/2SM BR FEW001 19/18 A2995

2010/08/10 06:56
KNLC 100656Z 32008KT 10SM CLR 22/13 A2982 RMK AO2 SLP096 RH/53 T02220128 

2010/08/10 06:57
KGRR 100657Z AUTO 00000KT 1 1/4SM BR CLR 21/20 A2997

2010/08/10 06:57
KTOL 100657Z 00000KT 1SM BR VV001 22/21 A2996

2010/08/10 06:50
EGAE 100650Z 24008KT 9999 -SHRA FEW014 SCT020 BKN046 12/10 Q1003

2010/08/10 06:50
EGNJ 100650Z 21006KT 9999 FEW006 15/15 Q1008

2010/08/10 06:50
EGNR 100650Z 23005KT 200V270 9999 FEW020 BKN045 15/11 Q1008

2010/08/10 06:50
EGPE 100650Z 00000KT 9999 FEW020TCU 11/10 Q1004

2010/08/10 06:50
EGPA 100650Z 24004KT 190V270 9999 FEW012 14/13 Q1004

2010/08/10 06:50
EGPC 100650Z 26003KT 9999 FEW030 11/10 Q1004

2010/08/10 06:50
EGPL 100650Z 04006KT 9999 FEW011 SCT018 12/11 Q1004

2010/08/10 06:50
EGPO 100650Z 00000KT 9999 FEW014 12/10 Q1004

2010/08/10 06:55
EHAK 100655Z AUTO 17019KT 9999NDV SCT043/// BKN048/// 17/16 Q1007

2010/08/10 06:55
EHDV 100655Z AUTO 20016KT 9999NDV SCT010/// BKN013/// BKN015/// 17/15 Q1008

2010/08/10 06:55
EHFD 100655Z AUTO 18023KT 9999NDV BKN006/// BKN007/// BKN008/// 17/15 Q1010

2010/08/10 06:55
EHFZ 100655Z AUTO 20024KT 9999NDV ///////// 17/16 Q1009

2010/08/10 06:55
EHJA 100655Z AUTO 18016KT 9999NDV SCT022/// BKN026/// BKN029/// 17/15 Q1009

2010/08/10 06:55
EHKV 100655Z AUTO 20020KT 9999NDV FEW010/// SCT013/// BKN017/// 17/16 Q1010

2010/08/10 06:55
EHMG 100655Z AUTO 21023KT 9999NDV SCT012/// SCT014/// 18/15 Q1011

2010/08/10 06:55
EHPG 100655Z AUTO 22024KT 9999NDV FEW008/// BKN014/// OVC019/// 18/16 Q1011

2010/08/10 06:55
EHQE 100655Z AUTO 22018KT 9999NDV ///////// 17/15 Q1011

2010/08/10 07:00
OPKC 100700Z 26007KT 7000 BKN020 32/26 Q1003 NOSIG

2010/08/10 06:55
OPLA 100655Z 13005KT 4000 FU SCT040 SCT100 36/27 Q1003 TEMPO 32025KT 2500 TSRA FEW030CB

2010/08/10 07:00
OPPS 100700Z N--08 4000 HZ SCT030 SCT100 33/26 Q1003.9

2010/08/10 07:00
OPRN 100700Z 23010KT 6000 HZ FEW025TCU SCT030 32/25 1005.8

2010/08/10 06:55
OPSK 100655Z 05004KT 5000 HZ SCT040 FEW100 34/28 QNH 1001 R.H. 71PC

2010/08/10 06:53
KRYT 100653Z AUTO 00000KT 10SM CLR 24/20 A2995 RMK AO2 SLP124 T02390200 $ 

2010/08/10 06:57
KTOL 100657Z 00000KT 1SM BR VV001 22/21 A2996

2010/08/10 06:50
EGVN 100650Z 21005KT 9999 FEW006 BKN035 BKN080 13/11 Q1010 TEMPO BKN023

2010/08/10 06:50
EGNH 100650Z 23011KT 9999 FEW014 SCT026 15/10 Q1007

2010/08/10 07:00
GLRB 100700Z 32006KT 8000 RADZ SCT005 BKN012 24/24 Q1014

2010/08/10 07:00
FOOL 100700Z 14010KT 110V170 8000 FEW006 SCT010 BKN033 24/22 Q1016 NOSIG

2010/08/10 06:50
LGLM 100650Z 04012KT CAVOK 29/22 Q1010

2010/08/10 07:00
SVMI 100700Z 11001KT 9999 FEW016 BKN300 28/24 Q1011 NOSIG

2010/08/10 06:57
KAPN 100657Z AUTO 00000KT 2 1/2SM BR FEW001 19/18 A2995

2010/08/10 06:57
KGRR 100657Z AUTO 00000KT 1 1/4SM BR CLR 21/20 A2997

2010/08/10 07:00
GQNN 100700Z VRB03KT 8000 FEW013 BKN120 25/21 Q1012 NOSIG

2010/08/10 07:00
FLLS 100700Z 11007KT CAVOK 21/10 Q1025

2010/08/10 06:50
ENSG 100650Z VRB02KT 9999 VCFG FEW/// SCT003 SCT020 13/12 Q1009

2010/08/10 06:54
PGSN 100654Z 09005KT 10SM FEW019 28/24 A2990 RMK AO2 SLP123 T02830239

2010/08/10 06:55
PGUA 100655Z AUTO 07008KT 10SM FEW019 27/24 A2990 RMK AO2 SLP106 T02700242 $

2010/08/10 06:54
PGUM 100654Z 10007KT 10SM SCT025 BKN032 29/23 A2989 RMK AO2 SLP113 T02890233

2010/08/10 06:55
PHHI 100655Z AUTO 08008KT 10SM OVC040 24/17 A3011 RMK AO2 SLP183 T02400174 $

2010/08/10 06:53
PHJR 100653Z VRB04KT 10SM CLR 26/17 A3009 RMK AO2 SLP196 T02560172

2010/08/10 06:53
PHKO 100653Z 06014G19KT 10SM FEW029 BKN050 OVC060 26/15 A3004 RMK AO2 SLP174 T02560150

2010/08/10 06:54
PHMK 100654Z AUTO 05016G21KT 10SM CLR 24/18 A3010 RMK AO2 SLP192 T02390183 TSNO

2010/08/10 06:53
PHNL 100653Z 06013G20KT 10SM FEW031 SCT041 26/17 A3008 RMK AO2 SLP186 T02610172

2010/08/10 06:54
PHOG 100654Z 05013KT 10SM CLR 25/18 A3009 RMK AO2 SLP193 T02500183 $

2010/08/10 06:53
PHTO 100653Z 04003KT 10SM BKN060 24/18 A3010 RMK AO2 SLP191 T02390183

2010/08/10 06:55
PWAK 100655Z 06014G19KT 10SM SCT024 29/24 A3000 RMK AO2A

2010/08/10 06:55
RJTY 100655Z AUTO 17014KT 9999 SCT022 29/25 A3000 RMK AO2 SLP151 T02870246 $

2010/08/10 06:55
RODN 100655Z 18014KT 9999 BKN020 OVC200 30/26 A2980 RMK AO2A SLP092 T02950261

2010/08/10 06:58
CWOB 100658Z AUTO ///// 1/8SM CLR 03/ A2977

2010/08/10 06:57
CYCY 100657Z AUTO 00000KT 5/8SM CLR 03/03 A2988

2010/08/10 06:58
KGUS 100658Z AUTO 02003KT 9SM R23/5500FT CLR 23/23 A2996 RMK AO2 SLP138

2010/08/10 06:59
KMTC 100659Z AUTO 00000KT 1 1/4SM R19/1600V3000FT DZ BR CLR 21/21 A2994 RMK AO2 VIS 3/4V2 SLP142 $

2010/08/10 06:58
KGUS 100658Z AUTO 02003KT 9SM R23/5500FT CLR 23/23 A2996 RMK AO2 SLP138

2010/08/10 06:59
KMTC 100659Z AUTO 00000KT 1 1/4SM R19/1600V3000FT DZ BR CLR 21/21 A2994 RMK AO2 VIS 3/4V2 SLP142 $

2010/08/10 06:50
KQEX 100650Z AUTO 21002KT 7SM -RA BKN039 BKN090 28/24 A2974 RMK A02

2010/08/10 06:50
KQFB 100650Z AUTO 19005KT 7SM FEW047 SCT055 29/22 A2990 RMK A02

2010/08/10 06:50
KQFU 100650Z AUTO 34004KT 2SM +SHRA OVC005 28/24 A2986 RMK A02

2010/08/10 06:50
KQFW 100650Z AUTO 13003KT 7SM CLR 28/23 A2988 RMK A02

2010/08/10 06:55
KQBS 100655Z VRB05KT 9999 FEW010 FEW220 42/08 A2950 RMK FU FW010 SLP997 WND/ALSTG/SLP/QNH ESTMD QNH999

2010/08/10 06:55
KQSB 100655Z AUTO 20008G17KT 6000 34/03 A2983 RMK AO2 SLP004 T03440031 $

2010/08/10 06:55
KQTO 100655Z 34005KT 9999 FEW080 42/07 A2960 RMK SLP020

2010/08/10 07:00
KQEN 100700Z AUTO 19002KT 7SM BKN010 BKN110 24/21 A3043 RMK A02

2010/08/10 07:00
KQES 100700Z AUTO 02004KT 1SM +SHRA BR OVC020 25/23 A2979 RMK A02

2010/08/10 07:00
KQEY 100700Z AUTO 13004KT 7SM -SHRA BKN006 BKN033 BKN055 26/24 A2955 RMK A02

2010/08/10 07:10
KQEV 100710Z AUTO 04001KT 7SM -RA BKN009 26/24 A2974 RMK A02

2010/08/10 06:55
KDMA 100655Z AUTO 19005KT 10SM CLR 27/16 A2995 RMK AO2 SLPNO T02710163 403640244 VISNO RWY12 CHINO RWY12 $

2010/08/10 06:58
KFFO 100658Z 17003KT 10SM SCT050 25/22 A2997 RMK AO2A SLP142

2010/08/10 06:55
KHOP 100655Z AUTO 22004KT 10SM CLR 26/25 A2997 RMK AO2 SLP142 T02610246

2010/08/10 06:55
KHRT 100655Z 35004KT 10SM CLR 25/25 A2991 RMK AO2A SLP129 T02520245 $

2010/08/10 06:55
KNBG 100655Z AUTO 00000KT 3SM BR CLR A2992 RMK AO2 SLP132 PWINO FZRANO $

2010/08/10 06:56
KNFL 100656Z 01003KT 10SM CLR 22/04 A2994 RMK AO2 SLP112 T02170039

2010/08/10 06:55
KNKX 100655Z 28003KT 10SM BKN010 17/14 A2992 RMK AO2 SLP125 T01670139

2010/08/10 06:56
KNMM 100656Z AUTO 00000KT 7SM CLR 26/23 A2995 RMK AO2 SLP148 T02560233 $

2010/08/10 06:56
KNSE 100656Z AUTO 00000KT 5SM HZ CLR 26/23 A2993 RMK AO2 SLP119 T02610228 $

2010/08/10 06:55
KPOE 100655Z AUTO 00000KT 10SM CLR 26/23 A2993 RMK AO2 SLP133 T02610233

2010/08/10 06:56
KSGH 100656Z AUTO 21004KT 5SM BR CLR 23/23 A2999 RMK AO2 T02330227 SLP146 $

2010/08/10 06:55
KSVN 100655Z 15002KT 7SM FEW010 25/24 A2998 RMK SLP155 ALSTG/SLP ESTMD WND DATA ESTMD

2010/08/10 06:55
KTTS 100655Z 12004KT 10SM FEW065 26/24 A2994 RMK SLP139 1SC /0/

2010/08/10 06:56
KWJF 100656Z 27012KT 10SM CLR 23/M06 A2991 RMK AO2 SLP108 T02331061

2010/08/10 06:50
ORER 100650Z 28006KT CAVOK 41/01 Q1005 NOSIG

2010/08/10 06:58
ROTM 100658Z 22011G16KT 9999 BKN010 OVC100 29/26 A2981 RMK SLP080 WND WRNG XWND ADV T02940261

2010/08/10 07:00
TAPA 100700Z 10009KT 9999 FEW019 27/24 Q1013

2010/08/10 06:56
TJSJ 100656Z 12005KT 10SM SCT050 27/24 A2994 RMK AO2 RAB08E19 SLP137 OCNL LTGIC DSNT N-SW CB DSNT N-SW P0000 T02670244 $

2010/08/10 06:57
KAPN 100657Z AUTO 00000KT 2 1/2SM BR FEW001 19/18 A2995

2010/08/10 06:57
KGRR 100657Z AUTO 00000KT 1 1/4SM BR CLR 21/20 A2997

2010/08/10 06:57
KTOL 100657Z 00000KT 1SM BR VV001 22/21 A2996

2010/08/10 07:00
UBBL 100700Z 13007KT 9999 SCT100 32/22 Q1011 NOSIG RMK G/O SC07

2010/08/10 06:50
ENOA 100650Z 11022KT 9999 FEW013 SCT025 BKN050 14/12 Q1007

2010/08/10 06:56
KBIH 100656Z AUTO 15012KT 10SM CLR 22/M11 A2995 RMK AO2 SLP086 T02221111 TSNO 

2010/08/10 07:00
SBKP 100700Z 12017KT CAVOK 12/10 Q1022

2010/08/10 07:00
GOOY 100700Z 32003KT 9999 SCT013 BKN230 25/22 Q1012 NOSIG

2010/08/10 07:00
LZKC 100700Z 29001KT 9999 BKN007 19/17 Q1017

2010/08/10 07:00
LZNI 100700Z 27001KT CAVOK 20/16 Q1018

2010/08/10 07:00
LZPE 100700Z 36005KT 330V030 9999 FEW019 19/14 Q1018

2010/08/10 06:56
KABH 100656Z AUTO 10008KT 10SM BKN120 16/13 A3015 RMK AO2 SLP133 T01610133 $ 

2010/08/10 07:00
GOOY 100700Z 32003KT 9999 SCT013 BKN230 25/22 Q1012 NOSIG

2010/08/10 06:56
KNFL 100656Z 01003KT 10SM CLR 22/04 A2994 RMK AO2 SLP112 T02170039

2010/08/10 06:55
KNKX 100655Z 28003KT 10SM BKN010 17/14 A2992 RMK AO2 SLP125 T01670139

2010/08/10 06:56
KNMM 100656Z AUTO 00000KT 7SM CLR 26/23 A2995 RMK AO2 SLP148 T02560233 $

2010/08/10 06:56
KNPA 100656Z AUTO 00000KT 8SM CLR 26/24 A2991 RMK AO2 SLP131 T02560239

2010/08/10 06:56
KNQI 100656Z AUTO 00000KT 8SM CLR 28/26 A2992 RMK AO2 SLP128 T02830256 $

2010/08/10 06:56
KNSE 100656Z AUTO 00000KT 5SM HZ CLR 26/23 A2993 RMK AO2 SLP119 T02610228 $

2010/08/10 06:56
KNXP 100656Z AUTO 00000KT CLR 26/M01 A2993 RMK AO2 SLP096 T02561006 $

2010/08/10 06:56
KNXX 100656Z AUTO 21004KT 10SM CLR 25/19 A2994 RMK AO2 SLP142 T02500189 $

2010/08/10 06:55
KNYL 100655Z AUTO 27004KT 10SM CLR 29/01 A2976 RMK AO2 SLP072 T02940006 404110233

2010/08/10 06:52
KNZY 100652Z 31003KT 10SM BKN015 20/14 A2991 RMK AO2 SLP128 T02000139 $

2010/08/10 06:55
KPOE 100655Z AUTO 00000KT 10SM CLR 26/23 A2993 RMK AO2 SLP133 T02610233

2010/08/10 06:55
KRCA 100655Z 21006KT 10SM BKN180 23/15 A2989 RMK AO2A SLP090 T02290154 403300183 $

2010/08/10 06:56
KSGH 100656Z AUTO 21004KT 5SM BR CLR 23/23 A2999 RMK AO2 T02330227 SLP146 $

2010/08/10 06:55
KTTS 100655Z 12004KT 10SM FEW065 26/24 A2994 RMK SLP139 1SC /0/

2010/08/10 06:55
KVBG 100655Z AUTO 05004KT 10SM OVC003 13/12 A2993 RMK AO2 SLP128 T01280117 401780122 TSNO CHINO RWY12 VISNO RWY12 $

2010/08/10 06:57
KVPS 100657Z 35005KT 10SM SKC 26/24 A2992 RMK AO2A SLP131 T02570238 $

2010/08/10 07:00
SBBR 100700Z 25003KT CAVOK 13/04 Q1022

2010/08/10 06:55
KCFS 100655Z AUTO 27003KT 5SM BR CLR 21/21 A2994 RMK AO2

2010/08/10 06:55
KCGE 100655Z AUTO 18003KT 10SM CLR 25/25 A2996 RMK AO1

2010/08/10 07:00
KCGS 100700Z AUTO 19004KT 10SM CLR 27/21 A2994 RMK AO1

2010/08/10 06:55
KCKC 100655Z AUTO 33004KT 10SM CLR 16/13 A3001 RMK AO2

2010/08/10 06:55
KCKN 100655Z AUTO 16005KT 10SM CLR 21/19 A2991 RMK AO2

2010/08/10 06:55
KCKP 100655Z AUTO 00000KT 7SM BKN022 BKN080 25/23 A2988 RMK AO2

2010/08/10 06:54
KCNB 100654Z AUTO 00000KT 3SM BR CLR 22/22 A2992 RMK AO2 T02210215

2010/08/10 06:56
KCOQ 100656Z AUTO 00000KT 10SM CLR 19/17 A2998 RMK AO2

2010/08/10 06:57
KCQM 100657Z AUTO 00000KT 7SM CLR 19/18 A2997 RMK AO2

2010/08/10 06:55
KCVX 100655Z AUTO 26004KT 4SM BR BKN007 22/21 A2998 RMK AO2

2010/08/10 06:58
KFDK 100658Z AUTO 00000KT 7SM CLR 24/22 A2995 RMK AO2

2010/08/10 06:58
KDMW 100658Z AUTO 00000KT 7SM CLR 25/22 A2997 RMK AO2

2010/08/10 06:57
KDRM 100657Z AUTO 00000KT 1/4SM FG OVC001 17/17 A2995 RMK AO2

2010/08/10 06:55
KDTL 100655Z AUTO 00000KT 10SM CLR 23/17 A2996 RMK AO2

2010/08/10 06:54
KDUH 100654Z AUTO 00000KT 1/2SM FG VV005 21/19 A2996 RMK AO2

2010/08/10 06:55
KERY 100655Z AUTO 35003KT 2 1/2SM BR SCT090 19/19 A2998 RMK AO2

2010/08/10 07:03
KESN 100703Z AUTO 21003KT 10SM CLR 24/24 A2998 RMK AO2

2010/08/10 06:55
KFFX 100655Z AUTO 00000KT M1/4SM FG OVC002 20/20 A2997 RMK AO2

2010/08/10 06:54
KFKS 100654Z AUTO 00000KT 4SM BR CLR 20/19 A2996 RMK AO2

2010/08/10 07:00
KFME 100700Z AUTO 19003KT 5SM CLR 20/20 A2996 RMK AO1

2010/08/10 06:56
KFPK 100656Z AUTO 00000KT 1/4SM FG OVC001 19/18 A2995 RMK AO2

2010/08/10 06:56
KFSD 100656Z 12009KT 10SM FEW012 BKN037 25/23 A2988 RMK AO2 SLP105 T02500233 $

2010/08/10 06:54
KFSE 100654Z AUTO 16004KT 10SM CLR 19/18 A2993 RMK AO2

2010/08/10 06:55
KGOV 100655Z AUTO 00000KT 1/4SM FG OVC001 20/20 A2999 RMK AO2

2010/08/10 06:55
KHAF 100655Z AUTO 00000KT 5SM BR OVC003 11/10 A2994 RMK AO2

2010/08/10 06:55
KHAI 100655Z AUTO 00000KT 1/2SM FG VV005 21/21 A2997 RMK AO2

2010/08/10 06:54
KHYX 100654Z AUTO 30003KT 7SM CLR 21/20 A2994 RMK AO2

2010/08/10 06:55
KI75 100655Z AUTO 00000KT 7SM SCT075 26/25 A2990 RMK AO2

2010/08/10 06:55
KIRS 100655Z AUTO 00000KT 3SM BR CLR 21/20 A2997 RMK AO2

2010/08/10 06:55
KISQ 100655Z AUTO 00000KT 3SM BR CLR 19/18 A2997 RMK AO2

2010/08/10 06:54
KJYG 100654Z AUTO 00000KT 7SM CLR 24/24 A2993 RMK AO2

2010/08/10 06:55
KJYM 100655Z AUTO 00000KT M1/4SM FG OVC001 19/19 A2998 RMK AO2

2010/08/10 06:55
KLDM 100655Z AUTO 00000KT 1/4SM FG OVC001 21/20 A2997 RMK AO2

2010/08/10 06:53
KLND 100653Z AUTO 22009KT 10SM CLR 17/02 A3006 RMK AO2 SLP106 T01720022 403110128

2010/08/10 06:55
KLRJ 100655Z AUTO 12005KT 10SM CLR 25/23 A2986 RMK AO2

2010/08/10 06:56
KLWA 100656Z AUTO 00000KT 4SM BR CLR 20/20 A2996 RMK AO2

2010/08/10 06:55
KMCD 100655Z AUTO 00000KT 2 1/2SM HZ CLR 21/18 A2996 RMK AO2 VIS 2V3

2010/08/10 06:55
KMCJ 100655Z AUTO 24007KT 10SM CLR 28/25 A2989 RMK AO1

2010/08/10 06:54
KMGN 100654Z AUTO 26003KT 4SM BR OVC007 24/22 A2996 RMK AO2

2010/08/10 06:54
KMOP 100654Z AUTO 00000KT 7SM CLR 21/21 A2996 RMK AO2

2010/08/10 06:55
KMPZ 100655Z AUTO 12004KT 7SM CLR 25/23 A2989 RMK AO2

2010/08/10 06:57
KMTN 100657Z AUTO 17006KT 10SM CLR 26/22 A2994 RMK AO2

2010/08/10 06:55
KMUT 100655Z AUTO 00000KT 7SM CLR 25/23 A2988 RMK AO2

2010/08/10 06:55
KMXO 100655Z AUTO 07003KT 5SM CLR 23/22 A2991 RMK AO2

2010/08/10 06:56
KNTU 100656Z 23003KT 10SM FEW200 24/23 A2997 RMK AO2 SLP151 T02390228 $

2010/08/10 06:55
KOEB 100655Z AUTO 00000KT 1 1/4SM BR VV007 21/20 A2998 RMK AO2

2010/08/10 06:55
KOOA 100655Z AUTO 28007KT 1SM +RA OVC004 23/21 A2992 RMK AO2

2010/08/10 06:55
KORC 100655Z AUTO 10005KT 5SM BKN022 25/25 A2988 RMK AO2

2010/08/10 06:56
KOSC 100656Z AUTO 00000KT BKN001 OVC010 21/19 A2994 RMK AO2 PWINO

2010/08/10 06:55
KOZW 100655Z AUTO 24003KT 1 3/4SM BR VV007 21/20 A2997 RMK AO2

2010/08/10 06:55
KPHN 100655Z AUTO 00000KT 1/4SM FG OVC001 18/18 A2995 RMK AO2

2010/08/10 06:51
KPZQ 100651Z AUTO 00000KT 7SM CLR 18/17 A2996 RMK AO2

2010/08/10 06:55
KRDK 100655Z AUTO 00000KT 10SM SCT075 SCT100 28/25 A2985 RMK AO2

2010/08/10 06:55
KRGK 100655Z AUTO 00000KT 3SM BR CLR 22/21 A2993 RMK AO2

2010/08/10 06:55
KRMY 100655Z AUTO 00000KT 1/4SM FG BKN001 OVC007 20/19 A2997 RMK AO2

2010/08/10 06:55
KRNP 100655Z AUTO 00000KT 1/2SM FG VV005 20/20 A2996 RMK AO2

2010/08/10 06:54
KRQB 100654Z AUTO 00000KT M1/4SM FG OVC001 19/19 A2998 RMK AO2

2010/08/10 06:58
KMTH 100658Z AUTO 20007KT 2 1/2SM +RA BR SCT019 BKN036 OVC065 26/24 A2985 RMK AO2 LTG DSNT SW P0002

2010/08/10 06:59
KCQX 100659Z AUTO 00000KT 8SM FEW010 SCT017 BKN049 23/20 A2993 RMK AO2 LTG DSNT W RAE56 P0000

2010/08/10 06:59
KPYM 100659Z AUTO 00000KT 5SM BR SCT065 BKN075 BKN090 22/20 A2993 RMK AO2 LTG DSNT SE TSE53

2010/08/10 06:55
KAWG 100655Z AUTO 12004KT 10SM CLR 25/23 A2991 RMK AO2

2010/08/10 06:55
KAXA 100655Z AUTO 10004KT 7SM CLR 25/25 A2991 RMK AO2

2010/08/10 06:55
KBNW 100655Z AUTO 15010KT 10SM -RA BKN005 25/22 A2992 RMK AO2 P0001

2010/08/10 06:55
KCAV 100655Z AUTO 12005KT 4SM SCT048 BKN050 27/25 A2992 RMK AO2

2010/08/10 06:55
KCBF 100655Z AUTO 17005KT 10SM CLR 27/22 A2986 RMK AO2

2010/08/10 06:55
KCMR 100655Z AUTO 15007KT 10SM CLR 12/09 A3025 RMK AO1

2010/08/10 06:55
KCNC 100655Z AUTO 17003KT 7SM BKN070 BKN090 27/24 A2989 RMK AO2

2010/08/10 06:55
KCSQ 100655Z AUTO 13003KT 4SM BKN070 26/25 A2990 RMK AO2

2010/08/10 06:55
KDEH 100655Z AUTO 00000KT 7SM CLR 24/22 A2998 RMK AO2

2010/08/10 06:55
KDNS 100655Z AUTO 13005KT 7SM CLR 27/23 A2989 RMK AO2

2010/08/10 06:55
KEBS 100655Z AUTO 13006KT 4SM BKN041 BKN065 25/25 A2991 RMK AO2

2010/08/10 06:55
KEOK 100655Z AUTO 00000KT 3 1/2SM HZ CLR 27/23 A2989 RMK AO2

2010/08/10 06:55
KFFL 100655Z AUTO 00000KT 10SM SCT032 BKN046 BKN100 26/25 A2991 RMK AO2

2010/08/10 06:55
KFSW 100655Z AUTO 13004KT 5SM CLR 27/25 A2989 RMK AO2

2010/08/10 06:55
KFXY 100655Z AUTO 08003KT 10SM CLR 23/22 RMK AO2

2010/08/10 06:55
KGGI 100655Z AUTO 16004KT 7SM SCT050 BKN075 BKN090 26/24 A2993 RMK AO2

2010/08/10 06:55
KHNR 100655Z AUTO 15003KT 7SM CLR 26/25 A2990 RMK AO2

2010/08/10 06:55
KICL 100655Z AUTO 18003KT 10SM BKN080 26/23 A2986 RMK AO2

2010/08/10 06:45
KIIB 100645Z AUTO 07004KT 7SM CLR 23/23 A2992 RMK AO1

2010/08/10 06:55
KIKV 100655Z AUTO 22005KT 3 1/2SM +RA SCT010 BKN017 OVC022 22/21 A2996 RMK AO2 P0094

2010/08/10 06:55
KMAN 100655Z AUTO 10011KT 10SM SCT045 BKN065 OVC085 20/12 A2982 RMK AO1

2010/08/10 06:55
KMDZ 100655Z AUTO 00000KT 4SM BR CLR 19/18 A3000 RMK AO2

2010/08/10 06:58
KMEI 100658Z AUTO 00000KT 6SM BR CLR 26/24 A2996 RMK AO2 SLP139 T02560244

2010/08/10 06:55
KMRJ 100655Z AUTO 00000KT 10SM CLR 25/23 A2996 RMK AO2 T02470225

2010/08/10 06:55
KMWC 100655Z AUTO 00000KT 7SM CLR 21/20 A2996 RMK AO2

2010/08/10 06:55
KOEO 100655Z AUTO 00000KT 10SM CLR 21/20 A2997 RMK AO2

2010/08/10 06:55
KPBH 100655Z AUTO 00000KT 2 1/2SM BR CLR 19/18 A3002 RMK AO2 VIS 3/4V4

2010/08/10 06:55
KPCZ 100655Z AUTO 00000KT 3SM BR CLR 21/20 A2996 RMK AO2 T02090199

2010/08/10 06:52
KPDC 100652Z AUTO 00000KT 4SM BR BKN001 25/24 A2992 RMK AO2 T02450235

2010/08/10 06:55
KRCX 100655Z AUTO 00000KT 7SM CLR 19/18 A3001 RMK AO2 T01900180

2010/08/10 06:56
KRNH 100656Z AUTO 00000KT 7SM CLR 20/20 A2997 RMK AO2 T02040196

2010/08/10 06:55
KRPD 100655Z AUTO 00000KT 2 1/2SM BR CLR 20/20 A2999 RMK AO2 T02010198

2010/08/10 06:55
KRRL 100655Z AUTO 00000KT 1/4SM FG OVC001 16/16 A3001 RMK AO2 T01630160

2010/08/10 06:55
KRYV 100655Z AUTO 00000KT 3SM BR SCT001 22/20 A2996 RMK AO2

2010/08/10 06:55
KSNC 100655Z AUTO 00000KT 10SM CLR 23/21 A2994 RMK AO2

2010/08/10 06:55
KSTE 100655Z AUTO 00000KT 10SM CLR 20/19 A2998 RMK AO2

2010/08/10 06:55
KSUW 100655Z AUTO 00000KT 10SM CLR 21/20 A2993 RMK AO2

2010/08/10 06:56
KY50 100656Z AUTO 00000KT 1/2SM FG VV001 20/20 A2996 RMK AO2 T02000200 RAB44E54 P0000 SLP138

2010/08/10 06:55
K2G4 100655Z AUTO 24005KT 10SM CLR 20/15 A3009 RMK AO1

2010/08/10 06:57
K2W6 100657Z AUTO 21006KT 10SM CLR 25/21 A2997 RMK AO1

2010/08/10 06:56
K4I3 100656Z AUTO 24003KT 10SM SCT050 23/20 A2998 RMK AO2

2010/08/10 06:55
K4M9 100655Z AUTO 20005KT 9SM 26/25 A2994 RMK AO2

2010/08/10 06:55
KACB 100655Z AUTO 00000KT M1/4SM FG OVC001 22/21 A2996 RMK AO2

2010/08/10 06:58
KACQ 100658Z AUTO 11005KT 10SM CLR 22/21 A2996 RMK AO2

2010/08/10 06:57
KADC 100657Z AUTO 00000KT 10SM CLR 18/17 A2995 RMK AO2

2010/08/10 06:55
KAMN 100655Z AUTO 00000KT 1/4SM FG OVC001 19/18 A2995 RMK AO2

2010/08/10 06:55
KAUM 100655Z AUTO 10003KT 10SM CLR 22/22 A2995 RMK AO2 LTG DSNT S

2010/08/10 07:05
KBAX 100705Z AUTO 24003KT 2 1/2SM BR CLR 21/21 A2994 RMK AO2

2010/08/10 06:55
KBDH 100655Z AUTO 12005KT 7SM CLR 23/22 A2994 RMK AO2

2010/08/10 06:55
KBVU 100655Z AUTO 00000KT 10SM CLR 24/02 A2987 RMK AO2

2010/08/10 06:54
KCAD 100654Z AUTO 00000KT 1/4SM FG OVC001 18/17 A2999 RMK AO2

2010/08/10 06:58
KCBE 100658Z AUTO 00000KT 10SM CLR 21/20 A3001 RMK AO1

2010/08/10 06:55
KCBG 100655Z AUTO 00000KT 10SM CLR 21/19 A2994 RMK AO2

2010/08/10 06:54
KCDA 100654Z AUTO 00000KT M1/4SM FG OVC002 16/14 A2996 RMK AO2

2010/08/10 07:03
KCFE 100703Z AUTO 00000KT 10SM CLR 22/20 A2995 RMK AO2 T02150200

2010/08/10 06:54
KSBN 100654Z 00000KT 6SM BR CLR 22/20 A2996 RMK AO2 SLP141 T02220200

2010/08/10 06:55
KSDA 100655Z AUTO 00000KT 10SM CLR 27/23 A2986 RMK AO2

2010/08/10 06:55
KSHL 100655Z AUTO 10007KT 5SM CLR 25/23 A2991 RMK AO2

2010/08/10 06:55
KSJX 100655Z AUTO 30003KT 1 1/2SM BR OVC002 22/21 A2996 RMK AO2

2010/08/10 06:55
KSLH 100655Z AUTO 00000KT 1/2SM FG BKN001 OVC012 18/18 A2995 RMK AO2

2010/08/10 06:55
KTKV 100655Z AUTO 00000KT 10SM CLR 15/14 A3002 RMK AO2 T01480140

2010/08/10 06:55
KTNU 100655Z AUTO 27012G20KT 7SM RA BKN005 BKN009 OVC018 25/20 A2994 RMK AO2 P0010

2010/08/10 06:53
KTTF 100653Z AUTO 00000KT M1/4SM FG OVC001 21/21 A2994 RMK AO2

2010/08/10 06:55
KTVK 100655Z AUTO 5SM CLR 25/25 A2991 RMK AO2

2010/08/10 06:55
KUES 100655Z AUTO 00000KT 1 1/4SM BR VV007 20/19 A2997 RMK AO2 T02010189

2010/08/10 06:50
KUKT 100650Z AUTO 00000KT 10SM CLR 24/20 A2995 RMK AO1

2010/08/10 06:55
KUNU 100655Z AUTO 00000KT 4SM BR CLR 22/21 A2997 RMK AO2 T02190206

2010/08/10 06:54
KVLL 100654Z AUTO 00000KT 5SM BR CLR 22/20 A2998 RMK AO2

2010/08/10 06:55
KVTI 100655Z AUTO 07003KT 5SM CLR 23/23 A2991 RMK AO2

2010/08/10 06:58
KW29 100658Z AUTO 19006KT 10SM CLR 26/21 A2994 RMK AO1

2010/08/10 06:55
KY70 100655Z AUTO 00000KT 1/2SM FG BKN003 21/20 A2995 RMK AO2 T02070202

2010/08/10 07:01
PADM 100701Z AUTO 16016KT 4SM -RA BR BKN016 OVC020 10/08 A2947 RMK AO2 TSNO T01000083 P0000 SLP966 $

2010/08/10 06:58
PADU 100658Z AUTO 21018G23KT 10SM BKN050 11/07 A2964 RMK AO2 PK WND 21026/0600 SLP043 T01060072

2010/08/10 06:58
PAGA 100658Z AUTO 13006KT 10SM BKN030 OVC037 15/11 A2955 RMK AO2 SLPNO T01500106

2010/08/10 06:56
PAJZ 100656Z AUTO 16006KT 10SM SCT003 BKN020 OVC046 11/09 A2967 RMK AO2 PWINO TSNO T01050094 BKN V SCT SLP036 $

2010/08/10 06:56
PAKI 100656Z AUTO 19015KT 2SM +RA BR OVC008 09/09 A2939 RMK AO2 TSNO T00940094 CIG 005V010 P0000 SLP952 $

2010/08/10 06:56
PALG 100656Z AUTO 00000KT 5SM BR FEW023 BKN038 OVC075 11/09 A2948 RMK AO2 TSNO T01110088 BKN V SCT SLP988 $

2010/08/10 06:58
PATE 100658Z AUTO 00000KT 10SM FEW075 SCT095 12/11 A2942 RMK AO2 SLP973 T01220111

2010/08/10 07:00
SBNT 100700Z 15005KT 9999 SCT010 SCT020 OVC070 22/22 Q1015

2010/08/10 07:00
SBCF 100700Z 17005KT CAVOK 14/11 Q1021

2010/08/10 07:00
SBFI 100700Z 23002KT CAVOK 11/10 Q1019

2010/08/10 07:00
SBBR 100700Z 25003KT CAVOK 13/04 Q1022 

2010/08/10 07:00
SBCG 100700Z 15007KT CAVOK 15/11 Q1018

2010/08/10 07:00
SBSV 100700Z 29002KT 9999 SCT017 19/18 Q1017

2010/08/10 07:00
SBKP 100700Z 12017KT CAVOK 12/10 Q1022

2010/08/10 07:00
SBPV 100700Z 00000KT 3000 FU NSC 23/19 Q1012

2010/08/10 07:00
SBAR 100700Z 13006KT 9999 FEW015 25/20 Q1017

2010/08/10 07:00
LDLO 100700Z 02008KT CAVOK 26/17 Q1015

2010/08/10 07:00
LDSB 100700Z 05007KT CAVOK 25/13 Q1015

2010/08/10 06:56
K79J 100656Z AUTO 00000KT 5SM BR CLR 25/23 A2994 RMK AO2 SLP132 T02500228 TSNO PNO $

2010/08/10 06:56
K79J 100656Z AUTO 00000KT 5SM BR CLR 25/23 A2994 RMK AO2 SLP132 T02500228 TSNO PNO $

2010/08/10 06:55
KDMA 100655Z AUTO 19005KT 10SM CLR 27/16 A2995 RMK AO2 SLPNO T02710163 403640244 VISNO RWY12 CHINO RWY12 $

2010/08/10 06:58
KFFO 100658Z 17003KT 10SM SCT050 25/22 A2997 RMK AO2A SLP142

2010/08/10 06:55
KFHU 100655Z 23006KT 10SM SKC 23/14 A3011 RMK SLP124

2010/08/10 06:55
KFMH 100655Z AUTO 30008KT 2 1/2SM RA FEW003 SCT025 BKN039 21/20 A2994 RMK AO2 LTG DSNT NW-NE P0016

2010/08/10 06:56
KHLR 100656Z AUTO 16006KT 10SM CLR 29/22 A2994 RMK AO2 SLP129 T02890217 $

2010/08/10 06:55
KHOP 100655Z AUTO 22004KT 10SM CLR 26/25 A2997 RMK AO2 SLP142 T02610246

2010/08/10 06:55
KHRT 100655Z 35004KT 10SM CLR 25/25 A2991 RMK AO2A SLP129 T02520245 $

2010/08/10 06:56
KIWA 100656Z AUTO 16003KT 10SM SCT120 31/11 A2985 RMK AO2

2010/08/10 06:55
KLSV 100655Z AUTO 04005KT 10SM CLR 27/M00 A2984 RMK AO2 SLP090 T02661001 PWINO

2010/08/10 06:55
KNBG 100655Z AUTO 00000KT 3SM BR CLR A2992 RMK AO2 SLP132 PWINO FZRANO $

2010/08/10 06:56
KNCA 100656Z AUTO 00000KT 10SM 24/23 A3003 RMK AO2 SLP169 T02390233 $

2010/08/10 06:56
KNUQ 100656Z AUTO 03005KT 10SM OVC010 14/12 A2993 RMK AO2 SLP136 T01440122 TSNO

2010/08/10 06:55
KSVN 100655Z 15002KT 7SM FEW010 25/24 A2998 RMK SLP155 ALSTG/SLP ESTMD WND DATA ESTMD

2010/08/10 06:56
PPIZ 100656Z AUTO 05019G28KT 10SM FEW015 SCT033 06/03 A2967 RMK AO2 TSNO T00550027 PK WND 06028/0603 SLP050 $

2010/08/10 07:00
SBSP 100700Z 14002KT 5000 BR BKN006 12/11 Q1026

2010/08/10 07:00
SBLO 100700Z 11007KT CAVOK 13/11 Q1021

2010/08/10 07:00
SBSN 100700Z 00000KT CAVOK 24/22 Q1012

2010/08/10 06:50
EEPU 100650Z 22013KT 9999 SCT021 BKN037 21/16 Q1014

2010/08/10 06:56
KMEH 100656Z AUTO 00000KT 10SM CLR 08/04 A2995 RMK AO2 SLP125 T00830044 TSNO 

2010/08/10 06:50
BGSF 100650Z 06008KT 9999 BKN025 BKN040 07/03 Q1007

2010/08/10 07:01
EFUT 100701Z 23006KT 200V270 6000 -SHRA BKN015 BKN045 18/17 Q1012

2010/08/10 07:00
LUBL 100700Z VRB02KT 220V290 CAVOK 22/20 Q1015 RWY15

2010/08/10 07:00
LUKK 100700Z 02010KT CAVOK 28/16 Q1013 26CLRD65 NOSIG

2010/08/10 06:50
EGPU 100650Z AUTO 34003KT 9999NDV -RA SCT014/// 10/10 Q1002

2010/08/10 07:00
UTTT 100700Z 31003G09MPS 250V360 7000 NSC 35/06 Q1008 R08R/CLRD70 NOSIG

2010/08/10 06:50
EGPI 100650Z AUTO 25010KT 9999NDV // BKN028/// 12/10 Q1002

2010/08/10 07:00
LDSP 100700Z VRB02KT CAVOK 27/14 Q1014 NOSIG 

2010/08/10 07:00
LDPL 100700Z 01004KT 340V040 CAVOK 26/16 Q1015 NOSIG 

2010/08/10 07:00
LDDU 100700Z 23005KT 140V290 CAVOK 28/11 Q1014 NOSIG 

2010/08/10 07:00
LDZA 100700Z VRB02KT CAVOK 21/16 Q1017 NOSIG 

2010/08/10 07:00
LDZD 100700Z VRB05KT CAVOK 28/14 Q1014 NOSIG 

2010/08/10 07:00
LDRI 100700Z VRB01KT CAVOK 27/16 Q1015

2010/08/10 07:00
LDOS 100700Z 05004KT CAVOK 22/17 Q1018

2010/08/10 07:00
LBSF 100700Z 28004MPS CAVOK 21/15 Q1017 NOSIG

2010/08/10 07:00
LBWN 100700Z 29004MPS 250V310 CAVOK 27/22 Q1011 WS RWY09 NOSIG

2010/08/10 07:00
LBBG 100700Z 34005G11MPS CAVOK 28/21 Q1011 NOSIG

2010/08/10 07:00
LBPD 100700Z 28007MPS CAVOK 26/18 Q1014 NOSIG

2010/08/10 07:00
LBGO 100700Z 28004MPS 230V310 CAVOK 25/18 Q1015 NOSIG

2010/08/10 06:50
EGEC 100650Z AUTO 24015KT 9999NDV // BKN015/// 13/11 Q1002

2010/08/10 07:00
DIAP 100700Z 26006KT 6000 R21//////N SCT011 BKN080 24/23 Q1014 TEMPO 4000 BR

2010/08/10 07:00
DNMM 100700Z 00000KT 6000 SCT008 25/24 Q1014 TEMPO 5000 BR

2010/08/10 06:55
TXKF 100655Z 17007KT 9999 FEW017 SCT180 BKN300 27/23 Q1020 /

2010/08/10 07:00
YSRI 100700Z AUTO 00000KT 4500NDV // BKN004 OVC011 12/12 Q1013

2010/08/10 07:00
YSRI 100700Z AUTO 00000KT 4500NDV // BKN004 OVC011 12/12 Q1013

2010/08/10 07:00
TFFF 100700Z AUTO VRB01KT 9999NDV FEW011/// SCT020/// BKN040/// 25/24 Q1012

2010/08/10 07:00
NWWW 100700Z AUTO 06005KT 350V100 9999NDV BKN052/// 22/13 Q1022

2010/08/10 06:55
EBBL 100655Z 24006KT 9999 FEW060 SCT250 18/12 Q1015 BLU BLU

2010/08/10 06:55
EBFN 100655Z 19008KT 9999 SCT019 BKN022 17/14 Q1013 WHT WHT

2010/08/10 06:55
EBFS 100655Z 19001KT 9999 FEW060 SCT240 17/14 Q1015 BLU BLU

2010/08/10 06:50
EGAE 100650Z 24008KT 9999 -SHRA FEW014 SCT020 BKN046 12/10 Q1003

2010/08/10 06:50
EGNH 100650Z 23011KT 9999 FEW014 SCT026 15/10 Q1007

2010/08/10 06:50
EGNJ 100650Z 21006KT 9999 FEW006 15/15 Q1008

2010/08/10 06:50
EGPA 100650Z 24004KT 190V270 9999 FEW012 14/13 Q1004

2010/08/10 06:50
EGPC 100650Z 26003KT 9999 FEW030 11/10 Q1004

2010/08/10 06:50
EGPE 100650Z 00000KT 9999 FEW020TCU 11/10 Q1004

2010/08/10 06:50
EGPL 100650Z 04006KT 9999 FEW011 SCT018 12/11 Q1004

2010/08/10 06:50
EGPO 100650Z 00000KT 9999 FEW014 12/10 Q1004

2010/08/10 06:55
EGVA 100655Z AUTO 22008KT 9999 OVC025 13/12 A2984 RMK AO2 CIG 020V029 SLP104 T01290121 $

2010/08/10 06:50
EGVN 100650Z 21005KT 9999 FEW006 BKN035 BKN080 13/11 Q1010 TEMPO BKN023

2010/08/10 06:50
ENSG 100650Z VRB02KT 9999 VCFG FEW/// SCT003 SCT020 13/12 Q1009

2010/08/10 06:50
ETUO 100650Z 11003KT CAVOK 18/13 Q1015 BLU

2010/08/10 07:00
LBGO 100700Z 28004MPS 230V310 CAVOK 25/18 Q1015 NOSIG

2010/08/10 07:00
LBSF 100700Z 28004MPS CAVOK 21/15 Q1017 NOSIG

2010/08/10 07:00
LBWN 100700Z 29004MPS 250V310 CAVOK 27/22 Q1011 WS RWY09 NOSIG

2010/08/10 06:50
LGBL 100650Z 29006KT CAVOK 31/17 Q1011 NOSIG BLU

2010/08/10 06:50
LGLM 100650Z 04012KT CAVOK 29/22 Q1010

2010/08/10 06:50
LGPZ 100650Z 00000KT 9999 FEW015 28/22 Q1011 NOSIG BLU

2010/08/10 06:50
LGRX 100650Z 00000KT 9999 FEW025 29/20 Q1010 NOSIG BLU

2010/08/10 06:50
LGSR 100650Z 35014KT CAVOK 30/21 Q1007 NOSIG BLU

2010/08/10 06:50
LGSY 100650Z 01008KT 9999 FEW020 29/22 Q1009 NOSIG BLU

2010/08/10 06:50
LGTG 100650Z 29007KT 9999 SCT025 28/17 Q1011 NOSIG BLU

2010/08/10 07:00
LQBK 100700Z 19002KT 9999 FEW020 19/17 Q1017 NOSIG

2010/08/10 06:56
K79J 100656Z AUTO 00000KT 5SM BR CLR 25/23 A2994 RMK AO2 SLP132 T02500228 TSNO PNO $

2010/08/10 06:56
KHLR 100656Z AUTO 16006KT 10SM CLR 29/22 A2994 RMK AO2 SLP129 T02890217 $

2010/08/10 06:56
KNBC 100656Z AUTO 00000KT 10SM CLR 27/24 A2999 RMK AO2 SLP156 T02720244 $

2010/08/10 06:56
KNCA 100656Z AUTO 00000KT 10SM 24/23 A3003 RMK AO2 SLP169 T02390233 $

2010/08/10 06:56
KNQI 100656Z AUTO 00000KT 8SM CLR 28/26 A2992 RMK AO2 SLP128 T02830256 $

2010/08/10 06:56
KNTD 100656Z AUTO 31004KT 10SM OVC007 15/14 A2990 RMK AO2 SLP127 T01500139 TSNO $

2010/08/10 06:56
KNTU 100656Z 23003KT 10SM FEW200 24/23 A2997 RMK AO2 SLP151 T02390228 $

2010/08/10 06:56
KNUQ 100656Z AUTO 03005KT 10SM OVC010 14/12 A2993 RMK AO2 SLP136 T01440122 TSNO

2010/08/10 06:56
KNUW 100656Z 23007KT 8SM FEW008 BKN012 OVC045 14/12 A2996 RMK AO2 SLP148 T01430116 $

2010/08/10 06:56
KNXX 100656Z AUTO 21004KT 10SM CLR 25/19 A2994 RMK AO2 SLP142 T02500189 $

2010/08/10 06:55
KNYL 100655Z AUTO 27004KT 10SM CLR 29/01 A2976 RMK AO2 SLP072 T02940006 404110233

2010/08/10 06:52
KNZY 100652Z 31003KT 10SM BKN015 20/14 A2991 RMK AO2 SLP128 T02000139 $

2010/08/10 07:00
LQBK 100700Z 19002KT 9999 FEW020 19/17 Q1017 NOSIG

2010/08/10 07:00
OEDR 100700Z 14007KT 4000 HZ NSC 37/29 Q0998 NOSIG

2010/08/10 07:00
OEMA 100700Z 00000KT 6000 NSC 40/03 Q1007 NOSIG

2010/08/10 07:00
OERY 100700Z 36007KT 5000 DU SKC 39/02 Q1007 NOSIG

2010/08/10 06:56
PHBK 100656Z AUTO 16005KT 10SM BKN055 27/16 A3008 RMK AO2 SLP189 T02720156 TSNO $

2010/08/10 06:56
KCHS 100656Z 00000KT 10SM CLR 27/25 A3001 RMK AO2 SLP160 T02670250

2010/08/10 06:56
KNBC 100656Z AUTO 00000KT 10SM CLR 27/24 A2999 RMK AO2 SLP156 T02720244 $

2010/08/10 06:55
KNBG 100655Z AUTO 00000KT 3SM BR CLR A2992 RMK AO2 SLP132 PWINO FZRANO $

2010/08/10 06:56
KNCA 100656Z AUTO 00000KT 10SM 24/23 A3003 RMK AO2 SLP169 T02390233 $

2010/08/10 06:57
KNJM 100657Z AUTO 22006KT 10SM CLR 27/25 A3002 RMK AO2 SLP169 T02720250

2010/08/10 06:56
KNPA 100656Z AUTO 00000KT 8SM CLR 26/24 A2991 RMK AO2 SLP131 T02560239

2010/08/10 06:56
KNTU 100656Z 23003KT 10SM FEW200 24/23 A2997 RMK AO2 SLP151 T02390228 $

2010/08/10 06:55
KPAM 100655Z AUTO 05003KT 10SM CLR 27/26 A2990 RMK AO2 SLP127 T02700257 $

2010/08/10 06:54
KPHL 100654Z COR 20007KT 10SM SCT180 BKN250 26/21 A2993 RMK AO2 SLP136 T02610211

2010/08/10 06:57
KVPS 100657Z 35005KT 10SM SKC 26/24 A2992 RMK AO2A SLP131 T02570238 $

2010/08/10 07:00
MDSD 100700Z 01004KT 9999 FEW018 24/23 Q1013

2010/08/10 07:00
MYNN 100700Z 23011G23KT 9000 +SHRA SCT020 OVC080 25/25 A2997

2010/08/10 06:55
TXKF 100655Z 17007KT 9999 FEW017 SCT180 BKN300 27/23 Q1020 /

2010/08/10 07:00
TFFF 100700Z AUTO VRB01KT 9999NDV FEW011/// SCT020/// BKN040/// 25/24 Q1012

2010/08/10 06:59
CYRV 100659Z AUTO 00000KT 9SM OVC003 OVC022 OVC030 OVC076 16/16 A2986

2010/08/10 06:55
KMWN 100655Z 31028KT 100SM BKN/// FEW/// FEW000 SCT120 SCT200 08/07 RMK TPS LWR BKN056 BBLO FEW DSNT SE-SW 

2010/08/10 07:00
NWWU 100700Z AUTO 11017KT 9999NDV BKN025/// OVC033/// 23/19 Q1021

2010/08/10 07:00
NWWL 100700Z AUTO 10015KT 9999NDV FEW029/// OVC047/// 22/16 Q1021

2010/08/10 07:00
GUCY 100700Z 04004KT 9999 BKN013 BKN110 25/25 Q1013 NSG

2010/08/10 06:55
TXKF 100655Z 17007KT 9999 FEW017 SCT180 BKN300 27/23 Q1020

2010/08/10 07:00
MDSD 100700Z 01004KT 9999 FEW018 24/23 Q1013

2010/08/10 06:53
MMGL 100653Z 00000KT 10SM BKN020 BKN100 OVC300 20/17 A3012 RMK 8/473 VC CB N/W OCNL DROPS

2010/08/10 06:47
MMML 100647Z 00000KT 10SM SKC 28/18 A2972

2010/08/10 06:46
MMPR 100646Z 01007KT 10SM SCT008 BKN020CB OVC070 28/25 A2986 RMK 8/97/

2010/08/10 06:56
MUGM 100656Z 34006KT 9999 FEW025 SCT250 26/23 A2993 RMK SLP133 T02610228

2010/08/10 06:55
MUHA 100655Z 21004KT 7000 FEW040 OVC110 23/22 Q1012

2010/08/10 07:00
MYNN 100700Z 23011G23KT 9000 +SHRA SCT020 OVC080 25/25 A2997

2010/08/10 06:55
PACZ 100655Z AUTO 20007KT 10SM BKN009 BKN017 OVC027 09/08 A2929 RMK AO1 T00940084

2010/08/10 06:55
PAED 100655Z 27008KT 10SM OVC007 12/10 A2977 RMK AO2A CIG 006V011 SLP082 T01170105

2010/08/10 06:55
PAIM 100655Z AUTO 00000KT 10SM BKN075 13/13 A2961 RMK AO1 T01280128

2010/08/10 06:55
PALU 100655Z AUTO 07019KT 5SM 09/08 A2960 RMK AO1 T00890078

2010/08/10 06:55
PASV 100655Z AUTO 17003KT 10SM SCT013 BKN025 OVC031 09/08 A2964 RMK AO1 T00940084

2010/08/10 06:55
PATC 100655Z AUTO 00000KT 10SM BKN023 OVC033 11/09 A2943 RMK AO1 T01110095

2010/08/10 06:55
PATL 100655Z AUTO 20004KT 10SM OVC019 12/09 A2960 RMK AO1 T01170095

2010/08/10 07:00
PKWA 100700Z AUTO 06017KT 10SM SCT021 SCT027 29/24 A2985 RMK AO2 T02900235

2010/08/10 07:00
RJOI 100700Z 18003KT 9999 FEW020 SCT040 BKN060 31/23 A2989 RMK SLP120 T03060233

2010/08/10 07:00
SVMI 100700Z 11001KT 9999 FEW016 BKN300 28/24 Q1011 NOSIG

2010/08/10 07:00
TAPA 100700Z 10009KT 9999 FEW019 27/24 Q1013

2010/08/10 06:55
TXKF 100655Z 17007KT 9999 FEW017 SCT180 BKN300 27/23 Q1020 /

2010/08/10 07:00
FMCZ 100700Z 16009KT 9999 FEW022 27/21 Q1018

2010/08/10 07:00
OEDF 100700Z 13006KT 5000 DU SKC 39/18 Q0999 NOSIG

2010/08/10 07:00
OEDR 100700Z 14007KT 4000 HZ NSC 37/29 Q0998 NOSIG

2010/08/10 07:00
OEMA 100700Z 00000KT 6000 NSC 40/03 Q1007 NOSIG

2010/08/10 07:00
OERK 100700Z 34008KT 7000 SKC 40/01 Q1006 NOSIG

2010/08/10 07:00
OERY 100700Z 36007KT 5000 DU SKC 39/02 Q1007 NOSIG

2010/08/10 07:00
WSSS 100700Z VRB05KT 9999 FEW020 SCT280 BKN300 32/27 Q1007 NOSIG

2010/08/10 07:01
CYCX 100701Z AUTO 22005KT 3 1/2SM 17/17 A2981

2010/08/10 07:01
CYWA 100701Z AUTO 26002KT 2 1/8SM CLR 14/14 A2991 RMK VSBY VRBL 0.7V9.+

2010/08/10 07:00
KGRB 100700Z AUTO 00000KT 2SM BR CLR 22/21 A2995 RMK AO2 TSNO

2010/08/10 06:58
KGUS 100658Z AUTO 02003KT 9SM R23/5500FT CLR 23/23 A2996 RMK AO2 SLP138

2010/08/10 07:00
KPLN 100700Z AUTO 27004KT 1SM BR OVC004 21/20 A2996 RMK AO2

2010/08/10 07:00
KTIW 100700Z 24005KT 10SM OVC016 13/11 A2998 RMK AO2

2010/08/10 07:00
KBIV 100700Z AUTO 00000KT 1 3/4SM BR BKN001 21/19 A2997 RMK AO2 VIS 1V3

2010/08/10 07:00
KBMG 100700Z 00000KT 3SM BR CLR 21/21 A2997 RMK AO2

2010/08/10 07:00
KDTW 100700Z 00000KT 1/4SM R04R/P6000FT FG FEW001 SCT011 21/21 A2996 RMK AO2 TWR VIS 4

2010/08/10 07:00
KGFL 100700Z AUTO 00000KT 1/4SM FG FEW002 SCT034 SCT095 20/20 A2992 RMK AO2

2010/08/10 07:00
KMIA 100700Z 13009KT 9SM SCT015 BKN047 OVC060 26/24 A2988 RMK AO2 $

2010/08/10 06:59
KSAW 100659Z AUTO 00000KT 5SM BR CLR 19/18 A2998 RMK AO2

2010/08/10 06:59
PAVA 100659Z AUTO 19006KT 4SM -RA BR FEW003 BKN009 OVC015 10/10 A2935 RMK AO2 CIG 005V011 SLP941 P0001 T01000100

2010/08/10 06:55
KDMA 100655Z AUTO 19005KT 10SM CLR 27/16 A2995 RMK AO2 SLPNO T02710163 403640244 VISNO RWY12 CHINO RWY12 $

2010/08/10 06:55
KHRT 100655Z 35004KT 10SM CLR 25/25 A2991 RMK AO2A SLP129 T02520245 $

2010/08/10 06:55
KNBG 100655Z AUTO 00000KT 3SM BR CLR A2992 RMK AO2 SLP132 PWINO FZRANO $

2010/08/10 06:56
KNCA 100656Z AUTO 00000KT 10SM 24/23 A3003 RMK AO2 SLP169 T02390233 $

2010/08/10 06:56
KNMM 100656Z AUTO 00000KT 7SM CLR 26/23 A2995 RMK AO2 SLP148 T02560233 $

2010/08/10 06:56
KNSE 100656Z AUTO 00000KT 5SM HZ CLR 26/23 A2993 RMK AO2 SLP119 T02610228 $

2010/08/10 06:56
KNXX 100656Z AUTO 21004KT 10SM CLR 25/19 A2994 RMK AO2 SLP142 T02500189 $

2010/08/10 06:55
KTTS 100655Z 12004KT 10SM FEW065 26/24 A2994 RMK SLP139 1SC /0/

2010/08/10 07:00
KRHP 100700Z AUTO 00000KT 21/21 A3009 RMK AO2 PWINO

2010/08/10 06:59
KSME 100659Z AUTO 00000KT 4SM BR 23/23 A3000 RMK AO2

2010/08/10 07:01
KTZR 100701Z AUTO 21004KT 7SM OVC080 23/21 A2997 RMK AO2

2010/08/10 06:56
KNRS 100656Z AUTO 00000KT 10SM CLR 14/13 A2993 RMK AO2 SLP133 T01390128 TSNO

2010/08/10 06:59
KSAW 100659Z AUTO 00000KT 5SM BR CLR 19/18 A2998 RMK AO2

2010/08/10 06:55
KMWN 100655Z 31028KT 100SM BKN/// FEW/// FEW000 SCT120 SCT200 08/07 RMK TPS LWR BKN056 BBLO FEW DSNT SE-SW

2010/08/10 06:56
KBIH 100656Z AUTO 15012KT 10SM CLR 22/M11 A2995 RMK AO2 SLP086 T02221111 TSNO

2010/08/10 06:56
KMEH 100656Z AUTO 00000KT 10SM CLR 08/04 A2995 RMK AO2 SLP125 T00830044 TSNO

2010/08/10 07:00
SBRP 100700Z 11006KT 9999 FEW012 16/12 Q1020

2010/08/10 07:00
SBMQ 100700Z 34003KT 9999 BKN015 25/24 Q1012

2010/08/10 07:00
SBTE 100700Z 00000KT CAVOK 23/19 Q1013

2010/08/10 07:00
SBBV 100700Z 00000KT 9999 FEW020 SCT100 25/23 Q1013

2010/08/10 07:00
SBJP 100700Z 20008KT 9999 BKN021 BKN070 22/21 Q1016 

2010/08/10 07:00
FASK 100700Z 15020KT CAVOK 06/// Q1032

2010/08/10 07:00
SBPS 100700Z 28003KT 9999 FEW020 16/16 Q1018

2010/08/10 07:00
SBGO 100700Z 34002KT CAVOK 14/11 Q1019 

2010/08/10 06:50
EGTC 100650Z 23007KT 9999 FEW045 12/11 Q1010

2010/08/10 06:54
PGSN 100654Z 09005KT 10SM FEW019 28/24 A2990 RMK AO2 SLP123 T02830239

2010/08/10 06:54
PGUM 100654Z 10007KT 10SM SCT025 BKN032 29/23 A2989 RMK AO2 SLP113 T02890233

2010/08/10 07:00
SBRB 100700Z 00000KT 5000 FU NSC 23/19 Q1013

2010/08/10 07:00
SBCT 100700Z 07005KT 9999 BKN012 08/07 Q1024

2010/08/10 06:50
LSMD 100650Z VRB02KT 9999 SCT054 BKN086 18/15 Q1018 RMK WHT

2010/08/10 06:50
LSME 100650Z AUTO 00000KT 9999NDV FEW077 18/14 Q1018 RMK BLU

2010/08/10 06:50
LSMM 100650Z AUTO VRB02KT 9999NDV SCT068 BKN100 16/14 Q1019 RMK WHT

2010/08/10 07:00
SBVT 100700Z 20010KT 9999 SCT020 SCT100 21/18 Q1021

2010/08/10 07:00
SBCY 100700Z 13005KT CAVOK 21/16 Q1015

2010/08/10 07:00
YSRI 100700Z AUTO 00000KT 4500NDV // BKN004 OVC011 12/12 Q1013

2010/08/10 07:00
UBBN 100700Z 12012KT 9999 FEW100 33/07 Q1011 R14R/CLRD60 NOSIG RMK G/O QFE684

2010/08/10 07:00
GBYD 100700Z 00000KT 9999 SCT010 BKN110 24/23 Q1012

2010/08/10 06:55
OPLA 100655Z 13005KT 4000 FU SCT040 SCT100 36/27 Q1003 TEMPO 32025KT 2500 TSRA FEW030CB

2010/08/10 07:00
OPRN 100700Z 23010KT 6000 HZ FEW025TCU SCT030 32/25 1005.8

2010/08/10 06:55
OPSK 100655Z 05004KT 5000 HZ SCT040 FEW100 34/28 QNH 1001 R.H. 71PC

2010/08/10 07:00
UTTT 100700Z 31003G09MPS 250V360 7000 NSC 35/06 Q1008 R08R/CLRD70 NOSIG

2010/08/10 06:50
LSGS 100650Z 08005KT 060V130 9999 SCT090 20/12 Q1019

2010/08/10 06:57
YAMB 100657Z AUTO 00000KT 6000NDV // BKN004 OVC115 18/18 Q1017

2010/08/10 07:00
MROC 100700Z 00000KT 9999 FEW007 BKN013 21/21 A3003 RMK BR ARND NOSIG

2010/08/10 06:56
KNUQ 100656Z AUTO 03005KT 10SM OVC010 14/12 A2993 RMK AO2 SLP136 T01440122 TSNO

2010/08/10 06:55
KSVN 100655Z 15002KT 7SM FEW010 25/24 A2998 RMK SLP155 ALSTG/SLP ESTMD WND DATA ESTMD

2010/08/10 06:56
K79J 100656Z AUTO 00000KT 5SM BR CLR 25/23 A2994 RMK AO2 SLP132 T02500228 TSNO PNO $

2010/08/10 06:56
KHLR 100656Z AUTO 16006KT 10SM CLR 29/22 A2994 RMK AO2 SLP129 T02890217 $

2010/08/10 06:56
KNBC 100656Z AUTO 00000KT 10SM CLR 27/24 A2999 RMK AO2 SLP156 T02720244 $

2010/08/10 06:56
KNCA 100656Z AUTO 00000KT 10SM 24/23 A3003 RMK AO2 SLP169 T02390233 $

2010/08/10 06:56
KNQI 100656Z AUTO 00000KT 8SM CLR 28/26 A2992 RMK AO2 SLP128 T02830256 $

2010/08/10 06:56
KNTD 100656Z AUTO 31004KT 10SM OVC007 15/14 A2990 RMK AO2 SLP127 T01500139 TSNO $

2010/08/10 06:56
KNTU 100656Z 23003KT 10SM FEW200 24/23 A2997 RMK AO2 SLP151 T02390228 $

2010/08/10 06:56
KNUQ 100656Z AUTO 03005KT 10SM OVC010 14/12 A2993 RMK AO2 SLP136 T01440122 TSNO

2010/08/10 06:56
KNUW 100656Z 23007KT 8SM FEW008 BKN012 OVC045 14/12 A2996 RMK AO2 SLP148 T01430116 $

2010/08/10 06:56
KNXX 100656Z AUTO 21004KT 10SM CLR 25/19 A2994 RMK AO2 SLP142 T02500189 $

2010/08/10 06:55
KNYL 100655Z AUTO 27004KT 10SM CLR 29/01 A2976 RMK AO2 SLP072 T02940006 404110233

2010/08/10 06:52
KNZY 100652Z 31003KT 10SM BKN015 20/14 A2991 RMK AO2 SLP128 T02000139 $

2010/08/10 06:56
PHBK 100656Z AUTO 16005KT 10SM BKN055 27/16 A3008 RMK AO2 SLP189 T02720156 TSNO $

2010/08/10 06:56
KNBC 100656Z AUTO 00000KT 10SM CLR 27/24 A2999 RMK AO2 SLP156 T02720244 $

2010/08/10 06:55
KNBG 100655Z AUTO 00000KT 3SM BR CLR A2992 RMK AO2 SLP132 PWINO FZRANO $

2010/08/10 06:56
KNCA 100656Z AUTO 00000KT 10SM 24/23 A3003 RMK AO2 SLP169 T02390233 $

2010/08/10 06:57
KNJM 100657Z AUTO 22006KT 10SM CLR 27/25 A3002 RMK AO2 SLP169 T02720250

2010/08/10 06:56
KNPA 100656Z AUTO 00000KT 8SM CLR 26/24 A2991 RMK AO2 SLP131 T02560239

2010/08/10 06:56
KNTU 100656Z 23003KT 10SM FEW200 24/23 A2997 RMK AO2 SLP151 T02390228 $

2010/08/10 06:55
KPAM 100655Z AUTO 05003KT 10SM CLR 27/26 A2990 RMK AO2 SLP127 T02700257 $

2010/08/10 06:57
KVPS 100657Z 35005KT 10SM SKC 26/24 A2992 RMK AO2A SLP131 T02570238 $

2010/08/10 06:55
KDMA 100655Z AUTO 19005KT 10SM CLR 27/16 A2995 RMK AO2 SLPNO T02710163 403640244 VISNO RWY12 CHINO RWY12 $

2010/08/10 06:55
KHRT 100655Z 35004KT 10SM CLR 25/25 A2991 RMK AO2A SLP129 T02520245 $

2010/08/10 06:55
KNBG 100655Z AUTO 00000KT 3SM BR CLR A2992 RMK AO2 SLP132 PWINO FZRANO $

2010/08/10 06:56
KNCA 100656Z AUTO 00000KT 10SM 24/23 A3003 RMK AO2 SLP169 T02390233 $

2010/08/10 06:56
KNMM 100656Z AUTO 00000KT 7SM CLR 26/23 A2995 RMK AO2 SLP148 T02560233 $

2010/08/10 06:56
KNXX 100656Z AUTO 21004KT 10SM CLR 25/19 A2994 RMK AO2 SLP142 T02500189 $

2010/08/10 07:05
KBAX 100705Z AUTO 24003KT 2 1/2SM BR CLR 21/21 A2994 RMK AO2

2010/08/10 07:03
KCFE 100703Z AUTO 00000KT 10SM CLR 22/20 A2995 RMK AO2 T02150200

2010/08/10 07:01
PADM 100701Z AUTO 16016KT 4SM -RA BR BKN016 OVC020 10/08 A2947 RMK AO2 TSNO T01000083 P0000 SLP966 $

2010/08/10 07:01
KTZR 100701Z AUTO 21004KT 7SM OVC080 23/21 A2997 RMK AO2

2010/08/10 06:58
KMTH 100658Z AUTO 20007KT 2 1/2SM +RA BR SCT019 BKN036 OVC065 26/24 A2985 RMK AO2 LTG DSNT SW P0002

2010/08/10 06:59
KCQX 100659Z AUTO 00000KT 8SM FEW010 SCT017 BKN049 23/20 A2993 RMK AO2 LTG DSNT W RAE56 P0000

2010/08/10 06:59
KPYM 100659Z AUTO 00000KT 5SM BR SCT065 BKN075 BKN090 22/20 A2993 RMK AO2 LTG DSNT SE TSE53

2010/08/10 07:00
KGRB 100700Z AUTO 00000KT 2SM BR CLR 22/21 A2995 RMK AO2 TSNO

2010/08/10 07:00
KPLN 100700Z AUTO 27004KT 1SM BR OVC004 21/20 A2996 RMK AO2

2010/08/10 07:00
KTIW 100700Z 24005KT 10SM OVC016 13/11 A2998 RMK AO2

2010/08/10 07:00
KBIV 100700Z AUTO 00000KT 1 3/4SM BR BKN001 21/19 A2997 RMK AO2 VIS 1V3

2010/08/10 07:00
KBMG 100700Z 00000KT 3SM BR CLR 21/21 A2997 RMK AO2

2010/08/10 07:00
KDTW 100700Z 00000KT 1/4SM R04R/P6000FT FG FEW001 SCT011 21/21 A2996 RMK AO2 TWR VIS 4

2010/08/10 07:00
KGFL 100700Z AUTO 00000KT 1/4SM FG FEW002 SCT034 SCT095 20/20 A2992 RMK AO2

2010/08/10 07:00
KMIA 100700Z 13009KT 9SM SCT015 BKN047 OVC060 26/24 A2988 RMK AO2 $

2010/08/10 06:50
LTAD 100650Z 24003KT 190V290 CAVOK 28/10 Q1013 NOSIG RMK RWY29 27004KT

2010/08/10 06:50
LTAG 100650Z 29002KT 9999 SCT035 30/22 Q1006 NOSIG

2010/08/10 06:50
LTAH 100650Z 34007KT 310V010 CAVOK 26/14 Q1014 RMK RWY13 33006KT 300V010

2010/08/10 06:50
LTAJ 100650Z VRB02KT CAVOK 32/15 Q1009 NOSIG

2010/08/10 06:50
LTAN 100650Z 35011KT CAVOK 30/11 Q1013 NOSIG RMK RWY19 36011KT

2010/08/10 06:50
LTAN 100650Z 35011KT CAVOK 30/11 Q1013 NOSIG

2010/08/10 06:50
LTAP 100650Z 13003KT 060V120 CAVOK 27/17 Q1011 NOSIG RMK RWY23 17002KT

2010/08/10 06:50
LTAT 100650Z 13004KT CAVOK 31/07 Q1011 NOSIG RMK RWY03 09004KT

2010/08/10 06:50
LTAU 100650Z VRB02KT CAVOK 27/10 Q1014 NOSIG RMK RWY07 16003KT 080V250

2010/08/10 06:50
LTAU 100650Z VRB02KT CAVOK 27/10 Q1014 NOSIG

2010/08/10 06:50
LTBF 100650Z 02012KT 9999 FEW015 SCT035 30/21 Q1010 NOSIG RMK RWY18 03011KT

2010/08/10 06:50
LTBG 100650Z 03013KT 9999 SCT017 SCT035 28/22 Q1010 NOSIG RMK RWY18 03015KT

2010/08/10 06:50
LTBI 100650Z VRB01KT 9999 FEW040 27/16 Q1013 NOSIG RMK RWY09 24005KT 160V300

2010/08/10 06:50
LTBL 100650Z 16005KT 120V200 CAVOK 31/21 Q1007 NOSIG RMK RWY17 VRB04G15KT

2010/08/10 06:50
LTBQ 100650Z 36003KT 270V080 8000 SCT035 29/23 Q1010 NOSIG RMK RWY09 VRB03KT 090V270

2010/08/10 06:50
LTCC 100650Z 05004KT 340V140 CAVOK 32/05 Q1008 NOSIG RMK RWY16 VRB03KT

2010/08/10 06:50
LTCC 100650Z 05004KT 340V140 CAVOK 32/05 Q1008 NOSIG

2010/08/10 06:50
LTCG 100650Z 35004KT 9999 FEW035 SCT100 30/23 Q1008 NOSIG

2010/08/10 06:50
LTCI 100650Z 31006KT 9999 FEW040 25/13 Q1016 NOSIG

2010/08/10 06:50
LTFE 100650Z 31005KT 270V340 CAVOK 31/22 Q1005 NOSIG

2010/08/10 07:00
MROC 100700Z 00000KT 9999 FEW007 BKN013 21/21 A3003 RMK BR ARND NOSIG

2010/08/10 06:56
KBIH 100656Z AUTO 15012KT 10SM CLR 22/M11 A2995 RMK AO2 SLP086 T02221111 TSNO

2010/08/10 06:56
KMEH 100656Z AUTO 00000KT 10SM CLR 08/04 A2995 RMK AO2 SLP125 T00830044 TSNO

2010/08/10 06:50
LTAC 100650Z 06003KT 330V110 CAVOK 28/10 Q1014 NOSIG

2010/08/10 06:50
LTAF 100650Z /////KT 9999 SCT035 30/22 Q1007 NOSIG

2010/08/10 06:50
LTAI 100650Z 12004KT 070V180 9999 SCT030 31/24 Q1006 NOSIG

2010/08/10 06:50
LTBA 100650Z 03011KT 350V090 9999 SCT035 31/22 Q1010 NOSIG

2010/08/10 06:50
LTBJ 100650Z 35012KT CAVOK 32/20 Q1007 NOSIG

2010/08/10 06:50
LTBS 100650Z 22006KT CAVOK 31/22 Q1005 NOSIG

2010/08/10 06:55
KBVU 100655Z AUTO 00000KT 10SM CLR 24/02 A2987 RMK AO2

2010/08/10 06:54
KCAD 100654Z AUTO 00000KT 1/4SM FG OVC001 18/17 A2999 RMK AO2

2010/08/10 06:55
KCBG 100655Z AUTO 00000KT 10SM CLR 21/19 A2994 RMK AO2

2010/08/10 06:54
KCDA 100654Z AUTO 00000KT M1/4SM FG OVC002 16/14 A2996 RMK AO2

2010/08/10 06:55
KCFS 100655Z AUTO 27003KT 5SM BR CLR 21/21 A2994 RMK AO2

2010/08/10 07:00
KCGS 100700Z AUTO 19004KT 10SM CLR 27/21 A2994 RMK AO1

2010/08/10 06:55
KCKC 100655Z AUTO 33004KT 10SM CLR 16/13 A3001 RMK AO2

2010/08/10 06:55
KCKN 100655Z AUTO 16005KT 10SM CLR 21/19 A2991 RMK AO2

2010/08/10 06:54
KCNB 100654Z AUTO 00000KT 3SM BR CLR 22/22 A2992 RMK AO2 T02210215

2010/08/10 06:56
KCOQ 100656Z AUTO 00000KT 10SM CLR 19/17 A2998 RMK AO2

2010/08/10 06:57
KCQM 100657Z AUTO 00000KT 7SM CLR 19/18 A2997 RMK AO2

2010/08/10 06:55
KCVX 100655Z AUTO 26004KT 4SM BR BKN007 22/21 A2998 RMK AO2

2010/08/10 06:58
KFDK 100658Z AUTO 00000KT 7SM CLR 24/22 A2995 RMK AO2

2010/08/10 06:57
KDRM 100657Z AUTO 00000KT 1/4SM FG OVC001 17/17 A2995 RMK AO2

2010/08/10 06:55
KDTL 100655Z AUTO 00000KT 10SM CLR 23/17 A2996 RMK AO2

2010/08/10 06:54
KDUH 100654Z AUTO 00000KT 1/2SM FG VV005 21/19 A2996 RMK AO2

2010/08/10 06:55
KERY 100655Z AUTO 35003KT 2 1/2SM BR SCT090 19/19 A2998 RMK AO2

2010/08/10 06:55
KFFX 100655Z AUTO 00000KT M1/4SM FG OVC002 20/20 A2997 RMK AO2

2010/08/10 06:54
KFKS 100654Z AUTO 00000KT 4SM BR CLR 20/19 A2996 RMK AO2

2010/08/10 06:56
KFPK 100656Z AUTO 00000KT 1/4SM FG OVC001 19/18 A2995 RMK AO2

2010/08/10 06:54
KFSE 100654Z AUTO 16004KT 10SM CLR 19/18 A2993 RMK AO2

2010/08/10 06:55
KGOV 100655Z AUTO 00000KT 1/4SM FG OVC001 20/20 A2999 RMK AO2

2010/08/10 06:55
KHAF 100655Z AUTO 00000KT 5SM BR OVC003 11/10 A2994 RMK AO2

2010/08/10 06:55
KHAI 100655Z AUTO 00000KT 1/2SM FG VV005 21/21 A2997 RMK AO2

2010/08/10 06:54
KHYX 100654Z AUTO 30003KT 7SM CLR 21/20 A2994 RMK AO2

2010/08/10 06:55
KIRS 100655Z AUTO 00000KT 3SM BR CLR 21/20 A2997 RMK AO2

2010/08/10 06:55
KISQ 100655Z AUTO 00000KT 3SM BR CLR 19/18 A2997 RMK AO2

2010/08/10 06:54
KJYG 100654Z AUTO 00000KT 7SM CLR 24/24 A2993 RMK AO2

2010/08/10 06:55
KJYM 100655Z AUTO 00000KT M1/4SM FG OVC001 19/19 A2998 RMK AO2

2010/08/10 06:55
KLDM 100655Z AUTO 00000KT 1/4SM FG OVC001 21/20 A2997 RMK AO2

2010/08/10 06:55
KLRJ 100655Z AUTO 12005KT 10SM CLR 25/23 A2986 RMK AO2

2010/08/10 06:56
KLWA 100656Z AUTO 00000KT 4SM BR CLR 20/20 A2996 RMK AO2

2010/08/10 06:55
KMCD 100655Z AUTO 00000KT 2 1/2SM HZ CLR 21/18 A2996 RMK AO2 VIS 2V3

2010/08/10 06:55
KMCJ 100655Z AUTO 24007KT 10SM CLR 28/25 A2989 RMK AO1

2010/08/10 06:54
KMGN 100654Z AUTO 26003KT 4SM BR OVC007 24/22 A2996 RMK AO2

2010/08/10 06:54
KMOP 100654Z AUTO 00000KT 7SM CLR 21/21 A2996 RMK AO2

2010/08/10 06:55
KMPZ 100655Z AUTO 12004KT 7SM CLR 25/23 A2989 RMK AO2

2010/08/10 06:57
KMTN 100657Z AUTO 17006KT 10SM CLR 26/22 A2994 RMK AO2

2010/08/10 06:55
KMUT 100655Z AUTO 00000KT 7SM CLR 25/23 A2988 RMK AO2

2010/08/10 06:55
KMXO 100655Z AUTO 07003KT 5SM CLR 23/22 A2991 RMK AO2

2010/08/10 06:55
KOEB 100655Z AUTO 00000KT 1 1/4SM BR VV007 21/20 A2998 RMK AO2

2010/08/10 06:55
KOOA 100655Z AUTO 28007KT 1SM +RA OVC004 23/21 A2992 RMK AO2

2010/08/10 06:55
KORC 100655Z AUTO 10005KT 5SM BKN022 25/25 A2988 RMK AO2

2010/08/10 06:56
KOSC 100656Z AUTO 00000KT BKN001 OVC010 21/19 A2994 RMK AO2 PWINO

2010/08/10 06:55
KOZW 100655Z AUTO 24003KT 1 3/4SM BR VV007 21/20 A2997 RMK AO2

2010/08/10 06:55
KPHN 100655Z AUTO 00000KT 1/4SM FG OVC001 18/18 A2995 RMK AO2

2010/08/10 06:55
KRDK 100655Z AUTO 00000KT 10SM SCT075 SCT100 28/25 A2985 RMK AO2

2010/08/10 06:55
KRGK 100655Z AUTO 00000KT 3SM BR CLR 22/21 A2993 RMK AO2

2010/08/10 06:55
KRMY 100655Z AUTO 00000KT 1/4SM FG BKN001 OVC007 20/19 A2997 RMK AO2

2010/08/10 06:55
KRNP 100655Z AUTO 00000KT 1/2SM FG VV005 20/20 A2996 RMK AO2

2010/08/10 06:54
KRQB 100654Z AUTO 00000KT M1/4SM FG OVC001 19/19 A2998 RMK AO2

2010/08/10 06:55
KSDA 100655Z AUTO 00000KT 10SM CLR 27/23 A2986 RMK AO2

2010/08/10 06:55
KSHL 100655Z AUTO 10007KT 5SM CLR 25/23 A2991 RMK AO2

2010/08/10 06:55
KSJX 100655Z AUTO 30003KT 1 1/2SM BR OVC002 22/21 A2996 RMK AO2

2010/08/10 06:55
KSLH 100655Z AUTO 00000KT 1/2SM FG BKN001 OVC012 18/18 A2995 RMK AO2

2010/08/10 06:55
KTNU 100655Z AUTO 27012G20KT 7SM RA BKN005 BKN009 OVC018 25/20 A2994 RMK AO2 P0010

2010/08/10 06:53
KTTF 100653Z AUTO 00000KT M1/4SM FG OVC001 21/21 A2994 RMK AO2

2010/08/10 06:55
KTVK 100655Z AUTO 5SM CLR 25/25 A2991 RMK AO2

2010/08/10 06:58
KGUS 100658Z AUTO 02003KT 9SM R23/5500FT CLR 23/23 A2996 RMK AO2 SLP138

2010/08/10 06:59
KMTC 100659Z AUTO 00000KT 1 1/4SM R19/1600V3000FT DZ BR CLR 21/21 A2994 RMK AO2 VIS 3/4V2 SLP142 $

2010/08/10 06:58
KGUS 100658Z AUTO 02003KT 9SM R23/5500FT CLR 23/23 A2996 RMK AO2 SLP138

2010/08/10 06:55
KAWG 100655Z AUTO 12004KT 10SM CLR 25/23 A2991 RMK AO2

2010/08/10 06:55
KAXA 100655Z AUTO 10004KT 7SM CLR 25/25 A2991 RMK AO2

2010/08/10 06:55
KBNW 100655Z AUTO 15010KT 10SM -RA BKN005 25/22 A2992 RMK AO2 P0001

2010/08/10 06:55
KCAV 100655Z AUTO 12005KT 4SM SCT048 BKN050 27/25 A2992 RMK AO2

2010/08/10 06:55
KCBF 100655Z AUTO 17005KT 10SM CLR 27/22 A2986 RMK AO2

2010/08/10 06:55
KCMR 100655Z AUTO 15007KT 10SM CLR 12/09 A3025 RMK AO1

2010/08/10 06:55
KCNC 100655Z AUTO 17003KT 7SM BKN070 BKN090 27/24 A2989 RMK AO2

2010/08/10 06:55
KCSQ 100655Z AUTO 13003KT 4SM BKN070 26/25 A2990 RMK AO2

2010/08/10 06:55
KDEH 100655Z AUTO 00000KT 7SM CLR 24/22 A2998 RMK AO2

2010/08/10 06:55
KDNS 100655Z AUTO 13005KT 7SM CLR 27/23 A2989 RMK AO2

2010/08/10 06:55
KEBS 100655Z AUTO 13006KT 4SM BKN041 BKN065 25/25 A2991 RMK AO2

2010/08/10 06:55
KEOK 100655Z AUTO 00000KT 3 1/2SM HZ CLR 27/23 A2989 RMK AO2

2010/08/10 06:55
KFFL 100655Z AUTO 00000KT 10SM SCT032 BKN046 BKN100 26/25 A2991 RMK AO2

2010/08/10 06:55
KFSW 100655Z AUTO 13004KT 5SM CLR 27/25 A2989 RMK AO2

2010/08/10 06:55
KFXY 100655Z AUTO 08003KT 10SM CLR 23/22 RMK AO2

2010/08/10 06:55
KGGI 100655Z AUTO 16004KT 7SM SCT050 BKN075 BKN090 26/24 A2993 RMK AO2

2010/08/10 06:55
KHNR 100655Z AUTO 15003KT 7SM CLR 26/25 A2990 RMK AO2

2010/08/10 06:55
KICL 100655Z AUTO 18003KT 10SM BKN080 26/23 A2986 RMK AO2

2010/08/10 06:45
KIIB 100645Z AUTO 07004KT 7SM CLR 23/23 A2992 RMK AO1

2010/08/10 06:55
KIKV 100655Z AUTO 22005KT 3 1/2SM +RA SCT010 BKN017 OVC022 22/21 A2996 RMK AO2 P0094

2010/08/10 06:55
KMAN 100655Z AUTO 10011KT 10SM SCT045 BKN065 OVC085 20/12 A2982 RMK AO1

2010/08/10 06:55
KMDZ 100655Z AUTO 00000KT 4SM BR CLR 19/18 A3000 RMK AO2

2010/08/10 06:58
KMEI 100658Z AUTO 00000KT 6SM BR CLR 26/24 A2996 RMK AO2 SLP139 T02560244

2010/08/10 06:55
KMRJ 100655Z AUTO 00000KT 10SM CLR 25/23 A2996 RMK AO2 T02470225

2010/08/10 06:55
KMWC 100655Z AUTO 00000KT 7SM CLR 21/20 A2996 RMK AO2

2010/08/10 06:55
KOEO 100655Z AUTO 00000KT 10SM CLR 21/20 A2997 RMK AO2

2010/08/10 06:55
KPBH 100655Z AUTO 00000KT 2 1/2SM BR CLR 19/18 A3002 RMK AO2 VIS 3/4V4

2010/08/10 06:55
KPCZ 100655Z AUTO 00000KT 3SM BR CLR 21/20 A2996 RMK AO2 T02090199

2010/08/10 06:52
KPDC 100652Z AUTO 00000KT 4SM BR BKN001 25/24 A2992 RMK AO2 T02450235

2010/08/10 06:55
KRCX 100655Z AUTO 00000KT 7SM CLR 19/18 A3001 RMK AO2 T01900180

2010/08/10 06:56
KRNH 100656Z AUTO 00000KT 7SM CLR 20/20 A2997 RMK AO2 T02040196

2010/08/10 06:55
KRPD 100655Z AUTO 00000KT 2 1/2SM BR CLR 20/20 A2999 RMK AO2 T02010198

2010/08/10 06:55
KRRL 100655Z AUTO 00000KT 1/4SM FG OVC001 16/16 A3001 RMK AO2 T01630160

2010/08/10 06:55
KRYV 100655Z AUTO 00000KT 3SM BR SCT001 22/20 A2996 RMK AO2

2010/08/10 06:55
KSTE 100655Z AUTO 00000KT 10SM CLR 20/19 A2998 RMK AO2

2010/08/10 06:55
KSUW 100655Z AUTO 00000KT 10SM CLR 21/20 A2993 RMK AO2

2010/08/10 06:56
KY50 100656Z AUTO 00000KT 1/2SM FG VV001 20/20 A2996 RMK AO2 T02000200 RAB44E54 P0000 SLP138

2010/08/10 06:56
KNSE 100656Z AUTO 00000KT 5SM HZ CLR 26/23 A2993 RMK AO2 SLP119 T02610228 $

2010/08/10 06:56
KSGH 100656Z AUTO 21004KT 5SM BR CLR 23/23 A2999 RMK AO2 T02330227 SLP146 $

2010/08/10 06:55
KTTS 100655Z 12004KT 10SM FEW065 26/24 A2994 RMK SLP139 1SC /0/

2010/08/10 06:56
KWJF 100656Z 27012KT 10SM CLR 23/M06 A2991 RMK AO2 SLP108 T02331061

2010/08/10 06:53
PHJR 100653Z VRB04KT 10SM CLR 26/17 A3009 RMK AO2 SLP196 T02560172

2010/08/10 06:54
PHMK 100654Z AUTO 05016G21KT 10SM CLR 24/18 A3010 RMK AO2 SLP192 T02390183 TSNO

2010/08/10 06:55
K2G4 100655Z AUTO 24005KT 10SM CLR 20/15 A3009 RMK AO1

2010/08/10 06:57
K2W6 100657Z AUTO 21006KT 10SM CLR 25/21 A2997 RMK AO1

2010/08/10 06:56
K4I3 100656Z AUTO 24003KT 10SM SCT050 23/20 A2998 RMK AO2

2010/08/10 06:55
K4M9 100655Z AUTO 20005KT 9SM 26/25 A2994 RMK AO2

2010/08/10 06:55
KACB 100655Z AUTO 00000KT M1/4SM FG OVC001 22/21 A2996 RMK AO2

2010/08/10 06:58
KACQ 100658Z AUTO 11005KT 10SM CLR 22/21 A2996 RMK AO2

2010/08/10 06:57
KADC 100657Z AUTO 00000KT 10SM CLR 18/17 A2995 RMK AO2

2010/08/10 06:55
KAMN 100655Z AUTO 00000KT 1/4SM FG OVC001 19/18 A2995 RMK AO2

2010/08/10 06:55
KAUM 100655Z AUTO 10003KT 10SM CLR 22/22 A2995 RMK AO2 LTG DSNT S

2010/08/10 06:55
KBDH 100655Z AUTO 12005KT 7SM CLR 23/22 A2994 RMK AO2

2010/08/10 06:55
EHAM 100655Z 19010KT 170V230 9999 FEW011 BKN012 BKN015 17/15 Q1012 BECMG SCT012

2010/08/10 06:55
EHBK 100655Z AUTO 20006KT 9999NDV NSC 18/13 Q1015 NOSIG

2010/08/10 06:55
EHGG 100655Z AUTO 19008KT 170V230 9999NDV NSC 16/13 Q1013 NOSIG

2010/08/10 06:55
EHRD 100655Z 21011KT 9999 SCT009 BKN011 17/15 Q1013 BECMG SCT012

2010/08/10 06:55
EHEH 100655Z AUTO 21006KT 9999NDV FEW057 17/13 Q1014 BLU BLU NOSIG

2010/08/10 06:55
EHKD 100655Z AUTO 21010KT 9999NDV FEW018/// OVC022/// 18/16 Q1011 WHT WHT BECMG BLU BECMG 9999 SCT025 SCT100 BKN200

2010/08/10 07:00
MDST 100700Z 00000KT 9999 FEW016 24/24 Q1013

2010/08/10 07:00
MDSD 100700Z 01004KT 9999 FEW018 24/23 Q1013

2010/08/10 06:55
KUES 100655Z AUTO 00000KT 1 1/4SM BR VV007 20/19 A2997 RMK AO2 T02010189

2010/08/10 06:50
KUKT 100650Z AUTO 00000KT 10SM CLR 24/20 A2995 RMK AO1

2010/08/10 06:55
KUNU 100655Z AUTO 00000KT 4SM BR CLR 22/21 A2997 RMK AO2 T02190206

2010/08/10 06:54
KVLL 100654Z AUTO 00000KT 5SM BR CLR 22/20 A2998 RMK AO2

2010/08/10 06:58
KW29 100658Z AUTO 19006KT 10SM CLR 26/21 A2994 RMK AO1

2010/08/10 06:55
KY70 100655Z AUTO 00000KT 1/2SM FG BKN003 21/20 A2995 RMK AO2 T02070202

2010/08/10 06:58
PADU 100658Z AUTO 21018G23KT 10SM BKN050 11/07 A2964 RMK AO2 PK WND 21026/0600 SLP043 T01060072

2010/08/10 06:58
PAGA 100658Z AUTO 13006KT 10SM BKN030 OVC037 15/11 A2955 RMK AO2 SLPNO T01500106

2010/08/10 06:56
PAJZ 100656Z AUTO 16006KT 10SM SCT003 BKN020 OVC046 11/09 A2967 RMK AO2 PWINO TSNO T01050094 BKN V SCT SLP036 $

2010/08/10 06:56
PAKI 100656Z AUTO 19015KT 2SM +RA BR OVC008 09/09 A2939 RMK AO2 TSNO T00940094 CIG 005V010 P0000 SLP952 $

2010/08/10 06:56
PALG 100656Z AUTO 00000KT 5SM BR FEW023 BKN038 OVC075 11/09 A2948 RMK AO2 TSNO T01110088 BKN V SCT SLP988 $

2010/08/10 06:58
PATE 100658Z AUTO 00000KT 10SM FEW075 SCT095 12/11 A2942 RMK AO2 SLP973 T01220111

2010/08/10 06:56
KNSE 100656Z AUTO 00000KT 5SM HZ CLR 26/23 A2993 RMK AO2 SLP119 T02610228 $

2010/08/10 06:56
KSGH 100656Z AUTO 21004KT 5SM BR CLR 23/23 A2999 RMK AO2 T02330227 SLP146 $

2010/08/10 06:55
KTTS 100655Z 12004KT 10SM FEW065 26/24 A2994 RMK SLP139 1SC /0/

2010/08/10 06:55
KFMH 100655Z AUTO 30008KT 2 1/2SM RA FEW003 SCT025 BKN039 21/20 A2994 RMK AO2 LTG DSNT NW-NE P0016

2010/08/10 06:56
KIWA 100656Z AUTO 16003KT 10SM SCT120 31/11 A2985 RMK AO2

2010/08/10 06:56
PPIZ 100656Z AUTO 05019G28KT 10SM FEW015 SCT033 06/03 A2967 RMK AO2 TSNO T00550027 PK WND 06028/0603 SLP050 $

2010/08/10 06:54
KPHL 100654Z COR 20007KT 10SM SCT180 BKN250 26/21 A2993 RMK AO2 SLP136 T02610211

2010/08/10 06:56
KNSE 100656Z AUTO 00000KT 5SM HZ CLR 26/23 A2993 RMK AO2 SLP119 T02610228 $

2010/08/10 06:55
KTTS 100655Z 12004KT 10SM FEW065 26/24 A2994 RMK SLP139 1SC /0/

2010/08/10 07:00
KRHP 100700Z AUTO 00000KT 21/21 A3009 RMK AO2 PWINO

2010/08/10 06:59
KSME 100659Z AUTO 00000KT 4SM BR 23/23 A3000 RMK AO2

2010/08/10 06:56
KNLC 100656Z 32008KT 10SM CLR 22/13 A2982 RMK AO2 SLP096 RH/53 T02220128

2010/08/10 06:56
KNID 100656Z AUTO 16009KT CLR 26/06 A2984 RMK AO2 SLP083 T02560061 TSNO $

2010/08/10 06:53
KRYT 100653Z AUTO 00000KT 10SM CLR 24/20 A2995 RMK AO2 SLP124 T02390200 $

2010/08/10 06:55
KDMA 100655Z AUTO 19005KT 10SM CLR 27/16 A2995 RMK AO2 SLPNO T02710163 403640244 VISNO RWY12 CHINO RWY12 $

2010/08/10 06:58
KFFO 100658Z 17003KT 10SM SCT050 25/22 A2997 RMK AO2A SLP142

2010/08/10 06:55
KHOP 100655Z AUTO 22004KT 10SM CLR 26/25 A2997 RMK AO2 SLP142 T02610246

2010/08/10 06:55
KHRT 100655Z 35004KT 10SM CLR 25/25 A2991 RMK AO2A SLP129 T02520245 $

2010/08/10 06:55
KNBG 100655Z AUTO 00000KT 3SM BR CLR A2992 RMK AO2 SLP132 PWINO FZRANO $

2010/08/10 06:56
KNFL 100656Z 01003KT 10SM CLR 22/04 A2994 RMK AO2 SLP112 T02170039

2010/08/10 06:55
KNKX 100655Z 28003KT 10SM BKN010 17/14 A2992 RMK AO2 SLP125 T01670139

2010/08/10 06:56
KNMM 100656Z AUTO 00000KT 7SM CLR 26/23 A2995 RMK AO2 SLP148 T02560233 $

2010/08/10 06:55
KPOE 100655Z AUTO 00000KT 10SM CLR 26/23 A2993 RMK AO2 SLP133 T02610233

2010/08/10 06:55
KSVN 100655Z 15002KT 7SM FEW010 25/24 A2998 RMK SLP155 ALSTG/SLP ESTMD WND DATA ESTMD

2010/08/10 06:55
PGUA 100655Z AUTO 07008KT 10SM FEW019 27/24 A2990 RMK AO2 SLP106 T02700242 $

2010/08/10 06:55
PHHI 100655Z AUTO 08008KT 10SM OVC040 24/17 A3011 RMK AO2 SLP183 T02400174 $

2010/08/10 06:53
PHNL 100653Z 06013G20KT 10SM FEW031 SCT041 26/17 A3008 RMK AO2 SLP186 T02610172

2010/08/10 06:55
PWAK 100655Z 06014G19KT 10SM SCT024 29/24 A3000 RMK AO2A

2010/08/10 06:56
KNRS 100656Z AUTO 00000KT 10SM CLR 14/13 A2993 RMK AO2 SLP133 T01390128 TSNO

2010/08/10 06:56
KNTU 100656Z 23003KT 10SM FEW200 24/23 A2997 RMK AO2 SLP151 T02390228 $

2010/08/10 06:56
KNFL 100656Z 01003KT 10SM CLR 22/04 A2994 RMK AO2 SLP112 T02170039

2010/08/10 06:55
KNKX 100655Z 28003KT 10SM BKN010 17/14 A2992 RMK AO2 SLP125 T01670139

2010/08/10 06:56
KNMM 100656Z AUTO 00000KT 7SM CLR 26/23 A2995 RMK AO2 SLP148 T02560233 $

2010/08/10 06:56
KNPA 100656Z AUTO 00000KT 8SM CLR 26/24 A2991 RMK AO2 SLP131 T02560239

2010/08/10 06:56
KNQI 100656Z AUTO 00000KT 8SM CLR 28/26 A2992 RMK AO2 SLP128 T02830256 $

2010/08/10 06:56
KNXP 100656Z AUTO 00000KT CLR 26/M01 A2993 RMK AO2 SLP096 T02561006 $

2010/08/10 06:56
KNXX 100656Z AUTO 21004KT 10SM CLR 25/19 A2994 RMK AO2 SLP142 T02500189 $

2010/08/10 06:55
KNYL 100655Z AUTO 27004KT 10SM CLR 29/01 A2976 RMK AO2 SLP072 T02940006 404110233

2010/08/10 06:52
KNZY 100652Z 31003KT 10SM BKN015 20/14 A2991 RMK AO2 SLP128 T02000139 $

2010/08/10 06:55
KPOE 100655Z AUTO 00000KT 10SM CLR 26/23 A2993 RMK AO2 SLP133 T02610233

2010/08/10 06:55
KRCA 100655Z 21006KT 10SM BKN180 23/15 A2989 RMK AO2A SLP090 T02290154 403300183 $

2010/08/10 06:55
KVBG 100655Z AUTO 05004KT 10SM OVC003 13/12 A2993 RMK AO2 SLP128 T01280117 401780122 TSNO CHINO RWY12 VISNO RWY12 $

2010/08/10 06:57
KVPS 100657Z 35005KT 10SM SKC 26/24 A2992 RMK AO2A SLP131 T02570238 $

2010/08/10 06:56
K79J 100656Z AUTO 00000KT 5SM BR CLR 25/23 A2994 RMK AO2 SLP132 T02500228 TSNO PNO $

2010/08/10 06:56
K79J 100656Z AUTO 00000KT 5SM BR CLR 25/23 A2994 RMK AO2 SLP132 T02500228 TSNO PNO $

2010/08/10 06:55
KDMA 100655Z AUTO 19005KT 10SM CLR 27/16 A2995 RMK AO2 SLPNO T02710163 403640244 VISNO RWY12 CHINO RWY12 $

2010/08/10 06:58
KFFO 100658Z 17003KT 10SM SCT050 25/22 A2997 RMK AO2A SLP142

2010/08/10 06:55
KFHU 100655Z 23006KT 10SM SKC 23/14 A3011 RMK SLP124

2010/08/10 06:56
KHLR 100656Z AUTO 16006KT 10SM CLR 29/22 A2994 RMK AO2 SLP129 T02890217 $

2010/08/10 06:55
KHOP 100655Z AUTO 22004KT 10SM CLR 26/25 A2997 RMK AO2 SLP142 T02610246

2010/08/10 06:55
KHRT 100655Z 35004KT 10SM CLR 25/25 A2991 RMK AO2A SLP129 T02520245 $

2010/08/10 06:55
KLSV 100655Z AUTO 04005KT 10SM CLR 27/M00 A2984 RMK AO2 SLP090 T02661001 PWINO

2010/08/10 06:55
KNBG 100655Z AUTO 00000KT 3SM BR CLR A2992 RMK AO2 SLP132 PWINO FZRANO $

2010/08/10 06:56
KNCA 100656Z AUTO 00000KT 10SM 24/23 A3003 RMK AO2 SLP169 T02390233 $

2010/08/10 06:55
KSNC 100655Z AUTO 00000KT 10SM CLR 23/21 A2994 RMK AO2

2010/08/10 06:56
TJSJ 100656Z 12005KT 10SM SCT050 27/24 A2994 RMK AO2 RAB08E19 SLP137 OCNL LTGIC DSNT N-SW CB DSNT N-SW P0000 T02670244 $

2010/08/10 06:53
PHKO 100653Z 06014G19KT 10SM FEW029 BKN050 OVC060 26/15 A3004 RMK AO2 SLP174 T02560150

2010/08/10 06:54
PHOG 100654Z 05013KT 10SM CLR 25/18 A3009 RMK AO2 SLP193 T02500183 $

2010/08/10 06:53
PHTO 100653Z 04003KT 10SM BKN060 24/18 A3010 RMK AO2 SLP191 T02390183

2010/08/10 06:58
KCBE 100658Z AUTO 00000KT 10SM CLR 21/20 A3001 RMK AO1

2010/08/10 06:55
KCKP 100655Z AUTO 00000KT 7SM BKN022 BKN080 25/23 A2988 RMK AO2

2010/08/10 06:56
KFSD 100656Z 12009KT 10SM FEW012 BKN037 25/23 A2988 RMK AO2 SLP105 T02500233 $

2010/08/10 06:53
KLND 100653Z AUTO 22009KT 10SM CLR 17/02 A3006 RMK AO2 SLP106 T01720022 403110128

2010/08/10 06:51
KPZQ 100651Z AUTO 00000KT 7SM CLR 18/17 A2996 RMK AO2

2010/08/10 06:54
KSBN 100654Z 00000KT 6SM BR CLR 22/20 A2996 RMK AO2 SLP141 T02220200

2010/08/10 06:56
PHNY 100656Z AUTO 03009KT 10SM FEW038 22/17 A3013 RMK AO2 TSNO T02160172 SLP183 $

2010/08/10 06:55
KTKV 100655Z AUTO 00000KT 10SM CLR 15/14 A3002 RMK AO2 T01480140

2010/08/10 06:55
KVTI 100655Z AUTO 07003KT 5SM CLR 23/23 A2991 RMK AO2

2010/08/10 06:56
KCHS 100656Z 00000KT 10SM CLR 27/25 A3001 RMK AO2 SLP160 T02670250

2010/08/10 06:55
KMWN 100655Z 31028KT 100SM BKN/// FEW/// FEW000 SCT120 SCT200 08/07 RMK TPS LWR BKN056 BBLO FEW DSNT SE-SW

2010/08/10 06:56
KABH 100656Z AUTO 10008KT 10SM BKN120 16/13 A3015 RMK AO2 SLP133 T01610133 $

2010/08/10 06:56
K79J 100656Z AUTO 00000KT 5SM BR CLR 25/23 A2994 RMK AO2 SLP132 T02500228 TSNO PNO $

2010/08/10 07:03
KESN 100703Z AUTO 21003KT 10SM CLR 24/24 A2998 RMK AO2

2010/08/10 07:00
MGGT 100700Z 36005KT 9999 FEW006 BKN012 19/19 Q1024 A3024 SCT080 MTN E/W CUB/CL VOL. PACAYA EN ACTIVIDAD NOSIG

2010/08/10 07:00
MGGT 100700Z 36005KT 9999 FEW006 BKN012 19/19 Q1024 A3024 SCT080 MTN E/W CUB/CL VOL. PACAYA EN ACTIVIDAD NOSIG

2010/08/10 06:55
EBBL 100655Z 24006KT 9999 FEW060 SCT250 18/12 Q1015 BLU BLU

2010/08/10 06:55
EBFN 100655Z 19008KT 9999 SCT019 BKN022 17/14 Q1013 WHT WHT

2010/08/10 06:55
EBFS 100655Z 19001KT 9999 FEW060 SCT240 17/14 Q1015 BLU BLU

2010/08/10 06:50
LGLM 100650Z 04012KT CAVOK 29/22 Q1010

2010/08/10 06:50
LGSR 100650Z 35014KT CAVOK 30/21 Q1007 NOSIG BLU

2010/08/10 06:50
LGPZ 100650Z 00000KT 9999 FEW015 28/22 Q1011 NOSIG BLU

2010/08/10 06:50
LGRX 100650Z 00000KT 9999 FEW025 29/20 Q1010 NOSIG BLU

2010/08/10 06:50
ORER 100650Z 28006KT CAVOK 41/01 Q1005 NOSIG

2010/08/10 06:50
EGOM 100650Z AUTO 00000KT 9999NDV // BKN060/// 11/10 Q1005

2010/08/10 06:50
EGOP 100650Z AUTO 27007KT 4800NDV HZ BKN060/// 14/13 Q1010

2010/08/10 06:50
EGVN 100650Z 21005KT 9999 FEW006 BKN035 BKN080 13/11 Q1010 BLU TEMPO BKN023 WHT

2010/08/10 06:50
EGVO 100650Z 25010KT 9999 -RA FEW007 BKN033 OVC045 13/11 Q1011 RERA BLU TEMPO 6000 RA SCT007 GRN

2010/08/10 06:50
EGXP 100650Z 22007KT 6000 BR SCT006 BKN045 14/14 Q1008 YLO1

2010/08/10 06:50
EGXX 100650Z AUTO 21007KT 9999NDV // SCT007/// 15/15 Q1008

2010/08/10 07:00
LZLU 100700Z VRB01KT 9999 FEW001 SCT030 19/16 Q1018

2010/08/10 06:50
LCEN 100650Z 13005KT 9999 FEW025 30/22 Q1006 NOSIG

2010/08/10 06:53
MMGL 100653Z 00000KT 10SM BKN020 BKN100 OVC300 20/17 A3012 RMK 8/473 VC CB N/W OCNL DROPS

2010/08/10 06:46
MMPR 100646Z 01007KT 10SM SCT008 BKN020CB OVC070 28/25 A2986 RMK 8/97/

2010/08/10 06:53
MMGL 100653Z 00000KT 10SM BKN020 BKN100 OVC300 20/17 A3012 RMK 8/473 VC CB N/W OCNL DROPS

2010/08/10 06:50
ENOA 100650Z 11022KT 9999 FEW013 SCT025 BKN050 14/12 Q1007

2010/08/10 06:50
ENSG 100650Z VRB02KT 9999 VCFG FEW/// SCT003 SCT020 13/12 Q1009

2010/08/10 06:50
EGCC 100650Z 18007KT 9999 FEW018 13/12 Q1008 NOSIG

2010/08/10 06:50
EGPA 100650Z 24004KT 190V270 9999 FEW012 14/13 Q1004

2010/08/10 06:50
EGPC 100650Z 26003KT 9999 FEW030 11/10 Q1004

2010/08/10 06:50
EGNH 100650Z 23011KT 9999 FEW014 SCT026 15/10 Q1007

2010/08/10 06:50
EGNJ 100650Z 21006KT 9999 FEW006 15/15 Q1008

2010/08/10 06:50
EGAE 100650Z 24008KT 9999 -SHRA FEW014 SCT020 BKN046 12/10 Q1003

2010/08/10 06:50
EGPC 100650Z 26003KT 9999 FEW030 11/10 Q1004

2010/08/10 06:50
EGPE 100650Z 00000KT 9999 FEW020TCU 11/10 Q1004

2010/08/10 06:50
EGPL 100650Z 04006KT 9999 FEW011 SCT018 12/11 Q1004

2010/08/10 06:50
EGPM 100650Z 11014KT 9000 VCSH FEW004 SCT006 14/14 Q1004 TEMPO BKN006

2010/08/10 06:50
EGPO 100650Z 00000KT 9999 FEW014 12/10 Q1004

2010/08/10 06:50
EGPU 100650Z AUTO 34003KT 9999NDV -RA SCT014/// 10/10 Q1002

2010/08/10 06:50
EGPA 100650Z 24004KT 190V270 9999 FEW012 14/13 Q1004

2010/08/10 06:50
EGPC 100650Z 26003KT 9999 FEW030 11/10 Q1004

2010/08/10 06:50
EGPL 100650Z 04006KT 9999 FEW011 SCT018 12/11 Q1004

2010/08/10 06:50
EGPO 100650Z 00000KT 9999 FEW014 12/10 Q1004

2010/08/10 06:50
EGDL 100650Z 20006KT 9999 RA SCT023 OVC050 11/10 Q1011 NOSIG

2010/08/10 06:50
EGWU 100650Z 29007KT 9000 RA FEW007 BKN022 OVC045 15/14 Q1010

2010/08/10 06:50
EGAE 100650Z 24008KT 9999 -SHRA FEW014 SCT020 BKN046 12/10 Q1003

2010/08/10 06:50
EGNJ 100650Z 21006KT 9999 FEW006 15/15 Q1008

2010/08/10 06:50
EGNR 100650Z 23005KT 200V270 9999 FEW020 BKN045 15/11 Q1008

2010/08/10 06:50
EGPE 100650Z 00000KT 9999 FEW020TCU 11/10 Q1004

2010/08/10 06:55
PTKR 100655Z 15006KT 15SM FEW018TCU BKN120 OVC300 29/25 A2982 RMK TCU DSNT SW AND N SLP097 T02940249

2010/08/10 06:55
EHAK 100655Z AUTO 17019KT 9999NDV SCT043/// BKN048/// 17/16 Q1007

2010/08/10 06:55
EHDV 100655Z AUTO 20016KT 9999NDV SCT010/// BKN013/// BKN015/// 17/15 Q1008

2010/08/10 06:55
EHFD 100655Z AUTO 18023KT 9999NDV BKN006/// BKN007/// BKN008/// 17/15 Q1010

2010/08/10 06:55
EHFZ 100655Z AUTO 20024KT 9999NDV ///////// 17/16 Q1009

2010/08/10 06:55
EHJA 100655Z AUTO 18016KT 9999NDV SCT022/// BKN026/// BKN029/// 17/15 Q1009

2010/08/10 06:55
EHKV 100655Z AUTO 20020KT 9999NDV FEW010/// SCT013/// BKN017/// 17/16 Q1010

2010/08/10 06:55
EHMG 100655Z AUTO 21023KT 9999NDV SCT012/// SCT014/// 18/15 Q1011

2010/08/10 06:55
EHPG 100655Z AUTO 22024KT 9999NDV FEW008/// BKN014/// OVC019/// 18/16 Q1011

2010/08/10 06:55
EHQE 100655Z AUTO 22018KT 9999NDV ///////// 17/15 Q1011

2010/08/10 07:00
OJAI 100700Z 27008KT 7000 NSC 27/16 Q1010 NOSIG

2010/08/10 07:00
OJAM 100700Z 00000KT 5000 HZ NSC 28/14 Q1011 NOSIG

2010/08/10 07:00
OJAQ 100700Z 35014KT CAVOK 31/21 Q1006

2010/08/10 07:00
LZIB 100700Z 00000KT 9999 FEW007 20/16 Q1018

2010/08/10 07:00
LZKZ 100700Z 04004KT 330V090 CAVOK 21/15 Q1018 NOSIG

2010/08/10 07:00
LZTT 100700Z 26006KT 9999 FEW006 17/13 Q1019 NOSIG

2010/08/10 07:00
TTPP 100700Z ///05KT 9999 FEW018 BKN280 24/23 Q1012 NOSIG

2010/08/10 07:00
TTCP 100700Z 15008KT 9999 FEW016 SCT300 28/23 Q1013 NOSIG

2010/08/10 07:00
OJAI 100700Z 27008KT 7000 NSC 27/16 Q1010 NOSIG

2010/08/10 07:00
OJAM 100700Z 00000KT 5000 HZ NSC 28/14 Q1011 NOSIG

2010/08/10 07:00
OJAQ 100700Z 35014KT CAVOK 31/21 Q1006

2010/08/10 07:00
YAMB 100700Z AUTO 00000KT 5000NDV // BKN004 BKN039 OVC075 18/18 Q1017

2010/08/10 07:00
YSRI 100700Z AUTO 00000KT 4500NDV // BKN004 OVC011 12/12 Q1013

2010/08/10 07:00
LZPP 100700Z 01003KT 320V060 3200 BR BKN006 16/16 Q1019

2010/08/10 07:00
LZSL 100700Z 02002KT 9999 FEW030 18/13 Q1018

2010/08/10 07:00
LZZI 100700Z VRB01KT 1800 BR BKN005 15/14 Q1019

2010/08/10 07:00
DTTB 100700Z 00000KT CAVOK 26/15 Q1016

2010/08/10 07:00
DTTD 100700Z 09004KT 5000 FEW020 22/18 Q1017

2010/08/10 07:00
DTTK 100700Z 22002KT CAVOK 26/12 Q1016

2010/08/10 07:00
DTTL 100700Z 00000KT CAVOK 28/16 Q1016

2010/08/10 07:00
DTTN 100700Z 23004KT CAVOK 24/10 Q1016

2010/08/10 07:00
DTTR 100700Z 09014KT CAVOK 25/15 Q1016

2010/08/10 07:00
LHBP 100700Z 28005KT CAVOK 21/16 Q1018 NOSIG

2010/08/10 06:59
CWSA 100659Z AUTO 25009KT 5SM OVC004 19/18 A2991

2010/08/10 06:50
ESGP 100650Z 23011KT 9999 FEW017 SCT049 17/14 Q1014

2010/08/10 07:00
WSSL 100700Z 15006KT 110V180 9999 FEW020 BKN280 32/24 Q1007 RMK 0630Z Q1007 

2010/08/10 07:00
TFFF 100700Z AUTO VRB01KT 9999NDV FEW011/// SCT020/// BKN040/// 25/24 Q1012

2010/08/10 07:00
KNEL 100700Z AUTO 22005KT 7SM CLR 23/20 A2993 RMK AO2 SLP134 T02330200 $ 

2010/08/10 06:50
EGXZ 100650Z AUTO 16005KT 9999NDV OVC070/// 12/12 Q1007

2010/08/10 07:00
GMFF 100700Z 16006KT 8000 FEW033 SCT100 26/16 Q1018 NOSIG

2010/08/10 07:00
GMFK 100700Z 00000KT 9999 BKN033 28/16 Q1022

2010/08/10 07:00
GMFM 100700Z 17003KT CAVOK 30/11 Q1019

2010/08/10 07:00
GMMC 100700Z 00000KT 5000 NSC 26/18 Q1012

2010/08/10 07:00
GMMH 100700Z 36005KT 6000 BKN006 21/19 Q1015

2010/08/10 07:00
GMML 100700Z 03008KT 6000 BKN016 BKN100 20/17 Q1015

2010/08/10 07:00
GMMW 100700Z 6000 BKN016 SCT100 24/21 Q1016

2010/08/10 07:00
GMMZ 100700Z 23003KT CAVOK 26/11 Q1024

2010/08/10 07:00
GMTA 100700Z 20002KT 6000 OVC013 24/22 Q1017

2010/08/10 07:00
GMAD 100700Z 23005KT 0400 FG OVC003 20/20 Q1014 NOSIG

2010/08/10 07:00
GMFF 100700Z 16006KT 8000 FEW033 SCT100 26/16 Q1018 NOSIG

2010/08/10 07:00
GMME 100700Z 22002KT 5000 NSC 23/22 Q1014 NOSIG

2010/08/10 07:00
GMMN 100700Z VRB02KT CAVOK 28/14 Q1015 NOSIG

2010/08/10 07:00
GMMX 100700Z 09006KT 8000 SCT100 25/17 Q1017 NOSIG

2010/08/10 07:00
GMTT 100700Z 09009KT 8000 FEW016 27/18 Q1015 NOSIG

2010/08/10 06:55
EBBL 100655Z 24006KT 9999 FEW060 SCT250 18/12 Q1015 BLU BLU

2010/08/10 06:55
EBFN 100655Z 19008KT 9999 SCT019 BKN022 17/14 Q1013 WHT WHT

2010/08/10 06:55
EBFS 100655Z 19001KT 9999 FEW060 SCT240 17/14 Q1015 BLU BLU

2010/08/10 06:50
EDHL 100650Z 14005KT 110V170 CAVOK 18/18 Q1016 RMK I

2010/08/10 06:50
EDLN 100650Z VRB03KT CAVOK 17/16 Q1015 RMK ATIS E

2010/08/10 06:50
EDLP 100650Z 17006KT CAVOK 19/11 Q1015 RMK RWY24 TRL60 OK ATIS J

2010/08/10 06:50
EDLW 100650Z 18008KT CAVOK 18/13 Q1015 RMK ATIS H

2010/08/10 06:50
EDNY 100650Z VRB02KT 9999 SCT055 17/14 Q1018 RMK ATIS G

2010/08/10 06:50
EDXW 100650Z 16011KT 8000 NSC 18/16 Q1013 RMK ATIS INFO B

2010/08/10 06:55
EHAM 100655Z 19010KT 170V230 9999 FEW011 BKN012 BKN015 17/15 Q1012 BECMG SCT012

2010/08/10 06:55
EHKD 100655Z AUTO 21010KT 9999NDV FEW018/// OVC022/// 18/16 Q1011 WHT WHT BECMG BLU BECMG 9999 SCT025 SCT100 BKN200

2010/08/10 06:55
ETIK 100655Z AUTO 00000KT 9999 CLR 17/16 A3006 RMK AO2 SLP171 T01660164 $

2010/08/10 06:55
ETOR 100655Z 17006KT 9999 FEW080 22/15 A3002 RMK BLU

2010/08/10 06:50
ETUO 100650Z 11003KT CAVOK 18/13 Q1015 BLU

2010/08/10 06:50
EGAE 100650Z 24008KT 9999 -SHRA FEW014 SCT020 BKN046 12/10 Q1003

2010/08/10 06:50
EGEC 100650Z AUTO 24015KT 9999NDV // BKN015/// 13/11 Q1002

2010/08/10 06:50
EGNH 100650Z 23011KT 9999 FEW014 SCT026 15/10 Q1007

2010/08/10 06:50
EGNJ 100650Z 21006KT 9999 FEW006 15/15 Q1008

2010/08/10 06:50
EGPA 100650Z 24004KT 190V270 9999 FEW012 14/13 Q1004

2010/08/10 06:50
EGPC 100650Z 26003KT 9999 FEW030 11/10 Q1004

2010/08/10 06:50
EGPE 100650Z 00000KT 9999 FEW020TCU 11/10 Q1004

2010/08/10 06:50
EGPL 100650Z 04006KT 9999 FEW011 SCT018 12/11 Q1004

2010/08/10 06:50
EGPO 100650Z 00000KT 9999 FEW014 12/10 Q1004

2010/08/10 06:50
EGPU 100650Z AUTO 34003KT 9999NDV -RA SCT014/// 10/10 Q1002

2010/08/10 06:55
EGVA 100655Z AUTO 22008KT 9999 OVC025 13/12 A2984 RMK AO2 CIG 020V029 SLP104 T01290121 $

2010/08/10 06:50
EGVN 100650Z 21005KT 9999 FEW006 BKN035 BKN080 13/11 Q1010 TEMPO BKN023

2010/08/10 06:55
EGXW 100655Z 24007KT 9999 FEW007 SCT012 BKN040 15/14 Q1008 BLACKGRN BECMG SCT018 WHT

2010/08/10 07:00
SBAR 100700Z 13006KT 9999 FEW015 25/20 Q1017

2010/08/10 07:00
SBBE 100700Z 06006KT CAVOK 25/22 Q1012

2010/08/10 07:00
SBBR 100700Z 25003KT CAVOK 13/04 Q1022

2010/08/10 07:00
SBBV 100700Z 00000KT 9999 FEW020 SCT100 25/23 Q1013

2010/08/10 07:00
SBCF 100700Z 17005KT CAVOK 14/11 Q1021

2010/08/10 07:00
SBCG 100700Z 15007KT CAVOK 15/11 Q1018

2010/08/10 07:00
SBCT 100700Z 07005KT 9999 BKN012 08/07 Q1024

2010/08/10 07:00
SBCY 100700Z 13005KT CAVOK 21/16 Q1015

2010/08/10 07:00
SBFI 100700Z 23002KT CAVOK 11/10 Q1019

2010/08/10 07:00
SBFL 100700Z 00000KT 9999 SCT025 14/11 Q1025

2010/08/10 07:00
SBGO 100700Z 34002KT CAVOK 14/11 Q1019

2010/08/10 07:00
SBJP 100700Z 20008KT 9999 BKN021 BKN070 22/21 Q1016

2010/08/10 07:00
SBKP 100700Z 12017KT CAVOK 12/10 Q1022

2010/08/10 07:00
SBLO 100700Z 11007KT CAVOK 13/11 Q1021

2010/08/10 07:00
SBMA 100700Z 00000KT 7000 NSC 23/21 Q1012

2010/08/10 07:00
SBMQ 100700Z 34003KT 9999 BKN015 25/24 Q1012

2010/08/10 07:00
SBNT 100700Z 15005KT 9999 SCT010 SCT020 OVC070 22/22 Q1015

2010/08/10 07:00
SBPA 100700Z 06001KT 0150 R11/0250 R29/0350 FG NSC 05/05 Q1026

2010/08/10 07:00
SBPV 100700Z 00000KT 3000 FU NSC 23/19 Q1012

2010/08/10 07:00
SBRB 100700Z 00000KT 5000 FU NSC 23/19 Q1013

2010/08/10 07:00
SBRP 100700Z 11006KT 9999 FEW012 16/12 Q1020

2010/08/10 07:00
SBSN 100700Z 00000KT CAVOK 24/22 Q1012

2010/08/10 07:00
SBSP 100700Z 14002KT 5000 BR BKN006 12/11 Q1026

2010/08/10 07:00
SBSV 100700Z 29002KT 9999 SCT017 19/18 Q1017

2010/08/10 07:00
SBTE 100700Z 00000KT CAVOK 23/19 Q1013

2010/08/10 07:00
SBVT 100700Z 20010KT 9999 SCT020 SCT100 21/18 Q1021

2010/08/10 07:00
SVBC 100700Z 00000KT C A V O K 26/21 Q1013

2010/08/10 07:00
SVMI 100700Z 11001KT 9999 FEW016 BKN300 28/24 Q1011 NOSIG

2010/08/10 06:55
KQA4 100655Z AUTO 36014G25KT 7000 HZ FEW180 36/M02 A2982 RMK AO2 SLP002 T03621018

2010/08/10 06:55
KQAE 100655Z VRB05KT 8000 FU HZ CLR 43/09 A2961 RMK SLP024

2010/08/10 06:55
KQRY 100655Z AUTO 04004KT 9999 22/14 A3012 RMK AO2 SLP114 T02160142 $

2010/08/10 06:55
KQXF 100655Z AUTO VRB05KT 9000 CLR 44/M01 A2959 RMK AO2 SLP007 T04391006 $

2010/08/10 06:50
BGSF 100650Z 06008KT 9999 BKN025 BKN040 07/03 Q1007

2010/08/10 06:55
KLUF 100655Z AUTO 00000KT 10SM CLR 31/13 A2981 RMK AO2 SLP063 T03130127 403870234 $

2010/08/10 06:56
KNID 100656Z AUTO 16009KT CLR 26/06 A2984 RMK AO2 SLP083 T02560061 TSNO $

2010/08/10 06:56
KNRS 100656Z AUTO 00000KT 10SM CLR 14/13 A2993 RMK AO2 SLP133 T01390128 TSNO

2010/08/10 06:55
KTBN 100655Z AUTO 18004KT 10SM CLR 26/23 A2996 RMK AO2 SLP118 T02580228 $

2010/08/10 07:00
MGGT 100700Z 36005KT 9999 FEW006 BKN012 19/19 Q1024 A3024 SCT080 MTN E/W CUB/CL VOL/ PACAYA EN ACTIVIDAD NOSIG

2010/08/10 07:00
MROC 100700Z 00000KT 9999 FEW007 BKN013 21/21 A3003 RMK BR ARND NOSIG

2010/08/10 06:55
MUCM 100655Z 36004KT 9000 FEW020 23/21 Q1014

2010/08/10 06:55
MUCU 100655Z 02004KT 9000 FEW020CB SCT035 26/24 Q1015

2010/08/10 06:55
MUHA 100655Z 21004KT 7000 FEW040 OVC110 23/22 Q1012

2010/08/10 06:50
MUHG 100650Z VRB02KT 4000 VCFG FEW020 23/22 Q1013

2010/08/10 06:52
MUVR 100652Z 19003KT 150V240 9000 FEW018 OVC070 23/21 Q1013

2010/08/10 07:00
NTAA 100700Z 01003KT 330V040 9999 FEW020 23/16 Q1017 WS ALL RWY NOSIG

2010/08/10 07:00
OERK 100700Z 34008KT 7000 SKC 40/01 Q1006 NOSIG

2010/08/10 07:00
OJAI 100700Z 27008KT 7000 NSC 27/16 Q1010 NOSIG

2010/08/10 07:00
OJAM 100700Z 00000KT 5000 HZ NSC 28/14 Q1011 NOSIG

2010/08/10 07:00
OJAQ 100700Z 35014KT CAVOK 31/21 Q1006

2010/08/10 06:58
PAGA 100658Z AUTO 13006KT 10SM BKN030 OVC037 15/11 A2955 RMK AO2 SLPNO T01500106

2010/08/10 07:00
TFFF 100700Z AUTO VRB01KT 9999NDV FEW011/// SCT020/// BKN040/// 25/24 Q1012

2010/08/10 06:55
TXKF 100655Z 17007KT 9999 FEW017 SCT180 BKN300 27/23 Q1020 /

2010/08/10 07:00
WSSS 100700Z VRB05KT 9999 FEW020 SCT280 BKN300 32/27 Q1007 NOSIG

2010/08/10 07:00
YBCS 100700Z 28006KT 8000 VCSH FEW003 SCT025 BKN035 24/23 Q1013

2010/08/10 07:01
KMSN 100701Z 00000KT 1SM BR VV001 22/21 A2995 RMK AO2 

2010/08/10 07:00
FBSK 100700Z 18010KT CAVOK 09/07 Q1031 NOSIG

2010/08/10 07:00
YBCS 100700Z 28006KT 8000 VCSH FEW003 SCT025 BKN035 24/23 Q1013

2010/08/10 07:00
SCAR 100700Z 08006KT CAVOK 11/06 Q1016

2010/08/10 07:00
SCDA 100700Z 00000KT 8000 OVC020 13/09 Q1017

2010/08/10 07:00
SCFA 100700Z 35006KT 9999 OVC019 13/08 Q1017

2010/08/10 07:00
SCAT 100700Z 36006KT 7000 OVC013 10/07 Q1019

2010/08/10 07:00
SCSE 100700Z 00000KT 9999 OVC015 11/08 Q1017 NEFO PLAYA 1500FT

2010/08/10 07:00
SCVM 100700Z 07003KT 6000 VCFG OVC040 07/07 Q1017

2010/08/10 07:00
SCEL 100700Z 25002KT 5000 HZ NSC 04/01 Q1016 NOSIG

2010/08/10 07:00
SCIE 100700Z 16003KT 9999 05/03 Q1017

2010/08/10 07:00
SCEL 100700Z 25002KT 5000 HZ NSC 04/01 Q1016 NOSIG

2010/08/10 07:00
SCIE 100700Z 16003KT 9999 05/03 Q1017

2010/08/10 07:00
SCTC 100700Z 00000KT 0100 FG VV/// M00/M00 Q1019

2010/08/10 07:00
SCTE 100700Z 17008KT 9999 BKN006 07/07 Q1023 NOSIG

2010/08/10 07:00
SCON 100700Z AUTO VRB02KT CAVOK 02/01 Q1024

2010/08/10 07:00
SCFT 100700Z AUTO 27001KT 3600 BR SKC M01/M02 Q1025

2010/08/10 07:00
SCBA 100700Z AUTO 27004KT CAVOK M01/M03 Q1022

2010/08/10 07:00
SCCI 100700Z 35004KT 9999 FEW016 SCT100 03/01 Q1005 NOSIG

2010/08/10 07:00
WSAP 100700Z 13007KT 9999 FEW020TCU SCT280 31/25 Q1007

2010/08/10 07:00
SCAR 100700Z 08006KT CAVOK 11/06 Q1016

2010/08/10 07:00
SCDA 100700Z 00000KT 8000 OVC020 13/09 Q1017

2010/08/10 07:00
SCFA 100700Z 35006KT 9999 OVC019 13/08 Q1017

2010/08/10 07:00
SCAT 100700Z 36006KT 7000 OVC013 10/07 Q1019

2010/08/10 07:00
SCSE 100700Z 00000KT 9999 OVC015 11/08 Q1017 NEFO PLAYA 1500FT

2010/08/10 07:00
SCEL 100700Z 25002KT 5000 HZ NSC 04/01 Q1016 NOSIG

2010/08/10 07:00
SCIE 100700Z 16003KT 9999 05/03 Q1017

2010/08/10 07:00
SCTC 100700Z 00000KT 0100 FG VV/// M00/M00 Q1019

2010/08/10 07:00
SCTE 100700Z 17008KT 9999 BKN006 07/07 Q1023 NOSIG

2010/08/10 07:00
SCBA 100700Z AUTO 27004KT CAVOK M01/M03 Q1022

2010/08/10 07:00
SCCI 100700Z 35004KT 9999 FEW016 SCT100 03/01 Q1005 NOSIG

2010/08/10 07:00
UBBY 100700Z VRB02KT 9999 SCT100 29/14 Q1016 NOSIG RMK R33/CLRD70 G/O

2010/08/10 07:00
FBSK 100700Z 18010KT CAVOK 09/07 Q1031 NOSIG

2010/08/10 06:50
EGDX 100650Z AUTO 24011KT 9999NDV -RADZ BKN050/// 14/12 Q1010

2010/08/10 07:00
UKLR 100700Z 00000MPS 9999 SCT020 BKN100 22/18 Q1017 30090070 NOSIG

2010/08/10 07:00
UKLI 100700Z 00000MPS CAVOK 21/18 Q1018 28090070 NOSIG

2010/08/10 07:00
UKON 100700Z 03005MPS 340V070 CAVOK 31/17 Q1012 05090075 NOSIG

2010/08/10 07:00
UKCM 100700Z 07004MPS 030V120 CAVOK 34/14 Q1011 02010065 NOSIG

2010/08/10 07:00
UKCW 100700Z 07003MPS 020V100 CAVOK 34/10 Q1014 0909//70 NOSIG

2010/08/10 07:00
UKLU 100700Z 15003MPS 9999 FEW033 22/16 Q1018 10090070 NOSIG

2010/08/10 07:00
UKKK 100700Z VRB01MPS 9999 NSC 27/20 Q1015 26CLRD70 NOSIG

2010/08/10 07:00
UKKM 100700Z 36002MPS CAVOK 24/20 Q1015 33CLRD70 NOSIG

2010/08/10 07:00
UKLN 100700Z 32003MPS 250V010 CAVOK 21/18 Q1017 3309//70 NOSIG

2010/08/10 07:00
FMMI 100700Z VRB03KT 9999 FEW020 20/14 Q1027 NOSIG

2010/08/10 07:00
UKBB 100700Z 02003MPS 6000 TS SCT033CB 24/22 Q1015 88CLRD95 TEMPO -TSRA SCT030CB

2010/08/10 07:00
UKHH 100700Z 10003MPS 050V130 CAVOK 34/10 Q1014 080///65 NOSIG

2010/08/10 07:00
UKOO 100700Z 04007MPS CAVOK 30/16 Q1011 34090070 NOSIG

2010/08/10 07:00
UKDE 100700Z 11003MPS 050V180 CAVOK 33/13 Q1012 02CLRD70 NOSIG

2010/08/10 07:00
UKDD 100700Z 05002MPS CAVOK 34/16 Q1012 08090070 NOSIG

2010/08/10 07:00
UKFF 100700Z 05007MPS CAVOK 31/21 Q1009 01010070 NOSIG

2010/08/10 07:00
UKLL 100700Z 29002MPS 250V350 9999 BKN008 18/17 Q1018 31110360 TEMPO -TSRA BKN020CB

2010/08/10 07:00
UKCC 100700Z 13004MPS 090V170 CAVOK 34/11 Q1013 08090070 NOSIG

2010/08/10 07:00
UKDR 100700Z 36005MPS 320V060 CAVOK 30/18 Q1012 3609//70 NOSIG

2010/08/10 07:00
LWSK 100700Z 29003KT CAVOK 24/15 Q1017 NOSIG

2010/08/10 07:00
TBPB 100700Z 14007KT 9999 FEW022 SCT280 27/24 Q1013 NOSIG

2010/08/10 06:45
PAHV 100645Z 16012KT 25SM FEW030 OVC080 14/06 A2969 RMK EPC LAST

2010/08/10 06:56
PAVC 100656Z AUTO 20020KT 3SM BR 09/08 A2968 RMK AO2 PWINO TSNO T00880077 PK WND 20028/0634 SLP052 $

2010/08/10 06:59
K0R3 100659Z AUTO 00000KT 25/25 A2992 RMK AO2 PWINO

2010/08/10 07:00
K1A5 100700Z AUTO 00000KT 2SM BR BKN002 OVC055 20/18 A3012 RMK AO2 T01950181

2010/08/10 07:00
K3A1 100700Z AUTO 00000KT 5SM BR CLR 24/24 A3001 RMK AO2 T02420243 TSNO

2010/08/10 07:02
K47A 100702Z AUTO 00000KT 7SM CLR 25/21 A3004 RMK AO2

2010/08/10 06:58
K4A9 100658Z AUTO 00000KT 4SM BR CLR 24/23 A3000 RMK AO2 T02440230

2010/08/10 07:00
K4R4 100700Z AUTO 03003KT 3SM BR CLR 27/26 A2993 RMK AO2 T02700260

2010/08/10 06:58
K8A0 100658Z AUTO 09003KT 10SM CLR 26/23 A3000 RMK AO2

2010/08/10 07:00
KAFP 100700Z AUTO 00000KT 7SM CLR 24/23 A3002 RMK AO2 T02350228

2010/08/10 07:00
KALX 100700Z AUTO 00000KT 5SM BR CLR 25/24 A2999 RMK AO1

2010/08/10 07:00
KAVC 100700Z AUTO 00000KT 7SM SCT090 24/22 A3005 RMK AO2

2010/08/10 07:00
KBCB 100700Z AUTO 00000KT 3SM CLR 21/21 A3011 RMK AO2 PWINO

2010/08/10 07:00
KBQK 100700Z AUTO 13006KT 10SM CLR 28/25 A2998 RMK AO1 T02800245 PNO

2010/08/10 06:59
KCJR 100659Z AUTO 00000KT 7SM CLR 24/23 A2996 RMK AO2

2010/08/10 07:00
KCPC 100700Z AUTO 00000KT 10SM CLR 24/24 A3002 RMK AO2 T02430240

2010/08/10 07:00
KCPK 100700Z AUTO 00000KT 1 1/4SM BR BKN001 21/20 A2999 RMK AO2

2010/08/10 07:00
KCTJ 100700Z AUTO 00000KT 7SM CLR 24/23 A3002 RMK AO2 T02390228

2010/08/10 07:00
KDQH 100700Z AUTO 00000KT 10SM CLR 27/24 A2996 RMK AO1

2010/08/10 06:59
KEDE 100659Z AUTO 24003KT 10SM CLR 26/24 A2997 RMK AO2

2010/08/10 06:55
KEMV 100655Z AUTO 00000KT 5SM BR CLR 22/22 A2999 RMK AO2

2010/08/10 07:00
KEXX 100700Z AUTO 00000KT 7SM CLR 23/23 A3003 RMK AO2

2010/08/10 07:00
KEYF 100700Z AUTO 00000KT 10SM CLR 25/25 A3002 RMK AO2 T02520246

2010/08/10 06:57
KEZF 100657Z AUTO 00000KT 10SM CLR 25/23 A2994 RMK AO2 T02500230

2010/08/10 07:00
KFKN 100700Z AUTO 00000KT 10SM CLR 25/23 A2998 RMK AO1

2010/08/10 07:00
KFQD 100700Z AUTO 00000KT 2 1/2SM BR CLR 23/23 A3005 RMK AO2

2010/08/10 07:00
KFVX 100700Z AUTO 00000KT 5SM BR CLR 24/24 A2996 RMK AO2

2010/08/10 07:00
KHBI 100700Z AUTO 00000KT 7SM CLR 23/22 A3006 RMK AO2

2010/08/10 07:00
KHLX 100700Z AUTO 17004KT 7SM CLR 23/23 A3013 RMK AO2

2010/08/10 06:59
KHRJ 100659Z AUTO 00000KT 10SM CLR 24/23 A3001 RMK AO2

2010/08/10 06:59
KJNX 100659Z AUTO 00000KT 7SM CLR 21/21 A3000 RMK AO2

2010/08/10 07:01
KMLJ 100701Z AUTO 00000KT 7SM CLR 25/25 A2999 RMK AO2

2010/08/10 07:00
KMQI 100700Z AUTO 24005KT 10SM CLR 27/27 A3000 RMK AO2

2010/08/10 07:02
KMWK 100702Z AUTO 00000KT 5SM BR CLR 24/22 A3005 RMK AO2

2010/08/10 07:00
KONX 100700Z AUTO 00000KT 7SM CLR 24/23 A2999 RMK AO2

2010/08/10 07:00
KPGV 100700Z AUTO 22005KT 10SM CLR 24/24 A3001 RMK AO2

2010/08/10 07:01
KPTB 100701Z AUTO 00000KT 7SM SCT060 24/ A2998 RMK AO2

2010/08/10 07:00
KRUQ 100700Z AUTO 00000KT 10SM SCT060 OVC075 25/22 A3003 RMK AO2

2010/08/10 06:59
KSAW 100659Z AUTO 00000KT 5SM BR CLR 19/18 A2998 RMK AO2

2010/08/10 07:01
KTDF 100701Z AUTO 00000KT 23/22 A3003 RMK AO1

2010/08/10 07:00
KUKF 100700Z AUTO 00000KT 2 1/2SM CLR 22/21 A3007 RMK AO1

2010/08/10 07:00
KUNV 100700Z AUTO 00000KT 10SM CLR 22/16 A2998 RMK AO2 T02200164

2010/08/10 06:55
KVVG 100655Z AUTO 05004KT 25/24 A2992 RMK AO2

2010/08/10 07:01
KBGM 100701Z AUTO 25004KT 1/4SM FG SCT001 BKN060 OVC080 20/20 A3001 RMK AO2 RVRNO

2010/08/10 07:01
KBML 100701Z AUTO 00000KT 1/4SM FG FEW001 BKN012 14/14 A2993 RMK AO2

2010/08/10 07:01
KCDS 100701Z AUTO 20004KT 10SM TS CLR 25/20 A2998 RMK AO2 TSB0655

2010/08/10 07:01
KDSV 100701Z AUTO 08003KT 1 3/4SM RA BR SCT014 OVC055 22/21 A2998 RMK AO2 P0002 $

2010/08/10 07:01
KGZH 100701Z AUTO 00000KT 2 1/2SM BR CLR 24/24 A2995 RMK AO2

2010/08/10 07:01
KHIB 100701Z AUTO 00000KT 1SM BR VV001 17/17 A2997 RMK AO2

2010/08/10 07:01
KMYF 100701Z AUTO 32003KT 10SM BKN011 17/14 A2992 RMK AO2 TSNO

2010/08/10 07:01
KPAE 100701Z AUTO 21005KT 10SM SCT009 BKN033 BKN044 14/13 A2997 RMK AO2

2010/08/10 07:01
KRSW 100701Z AUTO 09006KT 10SM SCT008 25/24 A2985 RMK AO2

2010/08/10 07:00
OPKC 100700Z 26007KT 7000 BKN020 32/26 Q1003 NOSIG

2010/08/10 06:55
OPLA 100655Z 13005KT 4000 FU SCT040 SCT100 36/27 Q1003 TEMPO 32025KT 2500 TSRA FEW030CB

2010/08/10 07:00
OPPS 100700Z N--08 4000 HZ SCT030 SCT100 33/26 Q1003.9

2010/08/10 07:00
OPRN 100700Z 23010KT 6000 HZ FEW025TCU SCT030 32/25 1005.8

2010/08/10 06:55
OPSK 100655Z 05004KT 5000 HZ SCT040 FEW100 34/28 QNH 1001 R.H. 71PC

2010/08/10 07:00
FOOL 100700Z 14010KT 110V170 8000 FEW006 SCT010 BKN033 24/22 Q1016 NOSIG

2010/08/10 07:00
UBBB 100700Z 36004KT 9999 FEW060CB BKN100 34/20 Q1011 NOSIG RMK R88CLRD70

2010/08/10 06:50
EGVN 100650Z 21005KT 9999 FEW006 BKN035 BKN080 13/11 Q1010 TEMPO BKN023

2010/08/10 06:50
EGNH 100650Z 23011KT 9999 FEW014 SCT026 15/10 Q1007

2010/08/10 06:50
EGDM 100650Z 27005KT 9999 -RA FEW007 BKN070 OVC100 13/12 Q1011 TEMPO SCT008

2010/08/10 06:50
EGDY 100650Z 25005KT 6000 RA FEW008 SCT035 OVC080 13/12 Q1012

2010/08/10 06:50
EGOV 100650Z 23014KT 9999 FEW018 BKN060 14/12 Q1008 NOSIG

2010/08/10 06:50
EGXC 100650Z 21005KT 9999 FEW009 BKN015 BKN250 16/15 Q1008 TEMPO SCT014

2010/08/10 06:50
EGXT 100650Z 22008KT 9999 FEW007 BKN060 BKN120 15/13 Q1009 NOSIG

2010/08/10 06:50
EGYD 100650Z 22010KT 9999 FEW008 SCT027 BKN220 15/13 Q1008 TEMPO SCT012

2010/08/10 07:00
LEMO 100700Z 15002KT CAVOK 27/14 Q1016 NOSIG

2010/08/10 07:00
GLRB 100700Z 32006KT 8000 RADZ SCT005 BKN012 24/24 Q1014

2010/08/10 07:00
HKJK 100700Z 17005KT 9999 SCT020 BKN080 18/14 Q1025 NOSIG

2010/08/10 07:00
LQBK 100700Z 19002KT 9999 FEW020 19/17 Q1017 NOSIG

2010/08/10 06:50
LGLM 100650Z 04012KT CAVOK 29/22 Q1010

2010/08/10 07:00
YBCS 100700Z 28006KT 8000 VCSH FEW003 SCT025 BKN035 24/23 Q1013

2010/08/10 07:00
SVMI 100700Z 11001KT 9999 FEW016 BKN300 28/24 Q1011 NOSIG

2010/08/10 07:00
UBBL 100700Z 13007KT 9999 SCT100 32/22 Q1011 NOSIG RMK G/O SC07

2010/08/10 06:50
EGVN 100650Z 21005KT 9999 FEW006 BKN035 BKN080 13/11 Q1010 TEMPO BKN023

2010/08/10 07:00
FLLS 100700Z 11007KT CAVOK 21/10 Q1025

2010/08/10 07:00
YBTL 100700Z 01003KT 9000 VCSH FEW005 BKN025 BKN055 23/22 Q1014

2010/08/10 07:00
KDTW 100700Z 00000KT 1/4SM R04R/P6000FT FG FEW001 SCT011 21/21 A2996

2010/08/10 07:00
KMIA 100700Z 13009KT 9SM SCT015 BKN047 OVC060 26/24 A2988

2010/08/10 07:00
YBTL 100700Z 01003KT 9000 VCSH FEW005 BKN025 BKN055 23/22 Q1014

2010/08/10 07:00
DIAP 100700Z 26006KT 6000 R21//////N SCT011 BKN080 24/23 Q1014 TEMPO 4000 BR

2010/08/10 07:00
SPHI 100700Z 17006KT CAVOK 15/13 Q1016 RMK PP000

2010/08/10 07:00
SPIM 100700Z 17003KT 6000 FEW005 BKN010 13/12 Q1016 NOSIG RMK PP000

2010/08/10 07:00
SPQT 100700Z /////KT 4000 HZ SKC 22/21 Q1013 NOSIG RMK PP000

2010/08/10 07:00
SPQU 100700Z 00000KT 340V040 CAVOK 09/M17 Q1027 RMK PP000

2010/08/10 07:00
SPRU 100700Z 15005KT 5000 BR SCT014 14/13 Q1015 RMK BIRDS HAZARD RWY 20 PP000

2010/08/10 07:00
SPSO 100700Z VRB02KT 7000 FEW012 12/10 Q1016 RMK PP000

2010/08/10 07:00
SPTN 100700Z 00000KT CAVOK 09/06 Q1013 RMK PP000

2010/08/10 07:00
SPZO 100700Z 00000KT 9999 SKC 02/M08 Q1033 RMK PP000

2010/08/10 07:00
LUBL 100700Z VRB02KT 220V290 CAVOK 22/20 Q1015 RWY15

2010/08/10 07:00
KGRB 100700Z AUTO 00000KT 2SM BR CLR 22/21 A2995

2010/08/10 07:00
KTIW 100700Z 24005KT 10SM OVC016 13/11 A2998

2010/08/10 07:00
KGFL 100700Z AUTO 00000KT 1/4SM FG FEW002 SCT034 SCT095 20/20 A2992

2010/08/10 06:56
K8D3 100656Z AUTO 12003KT 21/20 A2990 RMK AO2 SLP103 T02110200 PWINO TSNO 

2010/08/10 07:01
KMSN 100701Z 00000KT 1SM BR VV001 22/21 A2995

2010/08/10 06:50
LSMP 100650Z 03002KT 9999 BKN076 19/15 Q1018 RMK WHT

2010/08/10 07:01
YBCG 100701Z AUTO 34003KT 9999NDV // BKN013 BKN021 OVC048 18/17 Q1017

2010/08/10 07:00
DTTB 100700Z 00000KT CAVOK 26/15 Q1016

2010/08/10 07:00
DTTD 100700Z 09004KT 5000 FEW020 22/18 Q1017

2010/08/10 07:00
DTTK 100700Z 22002KT CAVOK 26/12 Q1016

2010/08/10 07:00
DTTL 100700Z 00000KT CAVOK 28/16 Q1016

2010/08/10 07:00
DTTN 100700Z 23004KT CAVOK 24/10 Q1016

2010/08/10 07:00
DTTR 100700Z 09014KT CAVOK 25/15 Q1016

2010/08/10 07:02
CYGX 100702Z 06003KT 15SM -RA OVC080 RMK AC6

2010/08/10 07:00
KGFL 100700Z AUTO 00000KT 1/4SM FG FEW002 SCT034 SCT095 20/20 A2992

2010/08/10 07:00
KMIA 100700Z 13009KT 9SM SCT015 BKN047 OVC060 26/24 A2988

2010/08/10 07:00
KDTW 100700Z 00000KT 1/4SM R04R/P6000FT FG FEW001 SCT011 21/21 A2996

2010/08/10 07:00
KGRB 100700Z AUTO 00000KT 2SM BR CLR 22/21 A2995

2010/08/10 07:01
KMSN 100701Z 00000KT 1SM BR VV001 22/21 A2995

2010/08/10 07:00
KPLN 100700Z AUTO 27004KT 1SM BR OVC004 21/20 A2996

2010/08/10 07:00
KTIW 100700Z 24005KT 10SM OVC016 13/11 A2998

2010/08/10 06:50
EGDX 100650Z AUTO 24011KT 9999NDV -RADZ BKN050/// 14/12 Q1010

2010/08/10 06:50
EGEC 100650Z AUTO 24015KT 9999NDV // BKN015/// 13/11 Q1002

2010/08/10 06:50
EGOM 100650Z AUTO 00000KT 9999NDV // BKN060/// 11/10 Q1005

2010/08/10 06:50
EGOP 100650Z AUTO 27007KT 4800NDV HZ BKN060/// 14/13 Q1010

2010/08/10 06:50
EGPU 100650Z AUTO 34003KT 9999NDV -RA SCT014/// 10/10 Q1002

2010/08/10 06:50
EGVN 100650Z 21005KT 9999 FEW006 BKN035 BKN080 13/11 Q1010 BLU TEMPO BKN023 WHT

2010/08/10 06:50
EGVO 100650Z 25010KT 9999 -RA FEW007 BKN033 OVC045 13/11 Q1011 RERA BLU TEMPO 6000 RA SCT007 GRN

2010/08/10 06:50
EGXX 100650Z AUTO 21007KT 9999NDV // SCT007/// 15/15 Q1008

2010/08/10 06:50
EGXZ 100650Z AUTO 16005KT 9999NDV OVC070/// 12/12 Q1007

2010/08/10 06:50
ENOA 100650Z 11022KT 9999 FEW013 SCT025 BKN050 14/12 Q1007

2010/08/10 07:00
EPKK 100700Z 23005KT 200V280 9999 FEW007 18/16 Q1018

2010/08/10 07:00
EPKT 100700Z 00000KT 8000 FEW006 18/16 Q1018

2010/08/10 07:00
EPRZ 100700Z 26009KT 9999 SCT009 19/17 Q1017

2010/08/10 07:00
EPWR 100700Z 31004KT 280V340 9999 SCT012 20/17 Q1018

2010/08/10 07:00
LBBG 100700Z 34005G11MPS CAVOK 28/21 Q1011 NOSIG

2010/08/10 07:00
LBPD 100700Z 28007MPS CAVOK 26/18 Q1014 NOSIG

2010/08/10 07:00
LDDU 100700Z 23005KT 140V290 CAVOK 28/11 Q1014 NOSIG

2010/08/10 07:00
LDPL 100700Z 01004KT 340V040 CAVOK 26/16 Q1015 NOSIG

2010/08/10 07:00
LDRI 100700Z VRB01KT CAVOK 27/16 Q1015

2010/08/10 07:00
LDSP 100700Z VRB02KT CAVOK 27/14 Q1014 NOSIG

2010/08/10 07:00
LDZA 100700Z VRB02KT CAVOK 21/16 Q1017 NOSIG

2010/08/10 07:00
LDZD 100700Z VRB05KT CAVOK 28/14 Q1014 NOSIG

2010/08/10 07:00
LEMO 100700Z 15002KT CAVOK 27/14 Q1016 NOSIG

2010/08/10 07:00
LHBP 100700Z 28005KT CAVOK 21/16 Q1018 NOSIG

2010/08/10 07:00
LWSK 100700Z 29003KT CAVOK 24/15 Q1017 NOSIG

2010/08/10 07:00
LZIB 100700Z 00000KT 9999 FEW007 20/16 Q1018

2010/08/10 07:00
LZTT 100700Z 26006KT 9999 FEW006 17/13 Q1019 NOSIG

2010/08/10 07:01
KMSN 100701Z 00000KT 1SM BR VV001 22/21 A2995

2010/08/10 07:00
VHHH 100700Z 17008KT 120V200 9999 FEW025 SCT035 33/25 Q1005 NOSIG

2010/08/10 06:57
PHNG 100657Z AUTO 07010G16KT 10SM OVC060 26/20 A3010 RMK AO2 SLP188 T02560200 $ 

2010/08/10 06:50
EGUB 100650Z AUTO 20003KT 9999NDV // BKN036/// BKN080/// 13/11 Q1011

2010/08/10 07:00
WBGR 100700Z 28004KT 9999 FEW014 SCT150 BKN300 31/26 Q1007

2010/08/10 07:00
WBGS 100700Z 27004KT 9999 SCT018 SCT150 BKN300 33/24 Q1007

2010/08/10 07:00
WBGY 100700Z 16001KT 9999 SCT023 SCT150 BKN300 33/24 Q1006

2010/08/10 07:00
WBKL 100700Z 34002KT 9999 FEW014 BKN140 BKN290 31/26 Q1007

2010/08/10 07:00
WBKS 100700Z 10005KT 9999 SCT017 FEW018CB BKN300 33/24 Q1007

2010/08/10 07:00
WBKT 100700Z 02008KT 9999 FEW016 SCT140 BKN270 31/23 Q1007

2010/08/10 07:00
WBKW 100700Z 18007KT 9999 FEW018 SCT300 31/25 Q1008

2010/08/10 07:00
NWWM 100700Z 08007KT 040V110 9999 VCSH FEW033 SCT043 22/15 Q1023 NOSIG

2010/08/10 07:00
YBTL 100700Z 01003KT 9000 VCSH FEW005 BKN025 BKN055 23/22 Q1014 INTER 0700/0930 4000 SHRA BKN012

2010/08/10 07:00
YBTL 100700Z 01003KT 9000 VCSH FEW005 BKN025 BKN055 23/22 Q1014 INTER 0700/0930 4000 SHRA BKN012

2010/08/10 06:59
KNGU 100659Z 20004KT 10SM CLR 27/23 A2999 RMK AO2 SLP155 T02670233 

2010/08/10 07:00
VHHH 100700Z 17008KT 120V200 9999 FEW025 SCT035 33/25 Q1005 NOSIG

2010/08/10 07:00
RCTP 100700Z 25016KT 9999 FEW025 35/25 Q1005 NOSIG

2010/08/10 07:00
RCKH 100700Z 20007KT 150V260 9999 FEW010 SCT035 BKN100 29/26 Q1007 TEMPO 5000 SHRA

2010/08/10 07:00
RCSS 100700Z 07010KT 040V100 9999 FEW022 BKN030 34/25 Q1005 NOSIG

2010/08/10 07:00
VMMC 100700Z 19009KT 160V260 9999 FEW020 SCT090 31/26 Q1005 NOSIG

2010/08/10 07:00
RPLL 100700Z 28012KT 9000 SCT025 OVC300 30/26 Q1008 NOSIG RMK A2977

2010/08/10 07:00
RPVM 100700Z 11004KT 9999 SCT018CB OVC250 32/27 Q1009 A2980 TS OVHD CB ALQDS

2010/08/10 07:00
RPMD 100700Z 09002 9999 -TS VCRA SCT015CB SCT090 BKN290 31/26 1008 SLT TS E/ DIST PCPN E/CB N-E S-W

2010/08/10 07:00
RPLB 100700Z 22006KT 9999 FEW020 SCT080 BKN300 30/25 Q1009 NOSIG

2010/08/10 07:00
RPLI 100700Z 22010G20KT 9999 FEW019CB FEW020 BKN290 32/27 Q1007 NOSIG

2010/08/10 07:00
RPMZ 100700Z 36004KT 9999 FEW018 SCT120 30/26 Q1010

2010/08/10 06:45
LHDC 100645Z 35002KT 5000 BR FEW004 18/18 Q1018 BECMG 5000 BR SCT008

2010/08/10 06:45
LHKE 100645Z 34001MPS CAVOK 21/16 Q1018 NOSIG RMK BLU

2010/08/10 06:45
LHPA 100645Z 19001MPS CAVOK 20/16 Q1019 NOSIG RMK BLU

2010/08/10 06:45
LHPP 100645Z 12003KT CAVOK 21/16 Q1019

2010/08/10 06:45
LHPR 100645Z 18001KT 9999 FEW040 SCT083 19/15 Q1019

2010/08/10 06:45
LHSM 100645Z 00000KT 5000 BR FEW006 18/17 Q1019 BECMG 1500 BR

2010/08/10 06:45
LHSN 100645Z 30001MPS CAVOK 21/16 Q1018 NOSIG RMK BLU

2010/08/10 06:45
LHUD 100645Z 34003KT CAVOK 22/18 Q1018

2010/08/10 07:00
OMAA 100700Z 17009KT 150V2209000 NSC 41/15 Q0999 A2951 NOSIG

2010/08/10 07:00
OMAD 100700Z 18007KT 140V210 6000 NSC 40/16 Q0999 A2952

2010/08/10 07:00
OMAL 100700Z 16014KT 130V190 CAVOK 41/14 Q1002 AXWOYQV

2010/08/10 07:00
OMDB 100700Z 15007KT 90V180 CAVOK )1/17 Q1000 NOSIG

2010/08/10 07:00
OMDW 100700Z 15006KT 110V220 CAVOK 42/13 Q1 01 NOSIG

2010/08/10 07:00
OMFJ 100700Z 08009KT 040V120 CAVOK 34/27 Q1002 A2960

2010/08/10 07:00
OMRK 100700Z 11013KT CAVOK 42/15 Q1000 A2953

2010/08/10 07:00
OMSJ 100700Z 15008KT 110V200 7000 NSC 42/16 Q1000

2010/08/10 07:00
OBBI 100700Z 16004KT CAVOK 40/19 Q1000 NOSIG

2010/08/10 07:00
OEDF 100700Z 13006KT 5000 DU SKC 39/18 Q0999 NOSIG

2010/08/10 07:00
OEDR 100700Z 14007KT 4000 HZ NSC 37/29 Q0998 NOSIG

2010/08/10 07:00
OTBD 100700Z 10008KT 070V130 CAVOK 39/24 Q1000 NOSIG

2010/08/10 07:00
OKBK 100700Z 03005KT 7000 NSC 41/20 Q1000 NOSIG

2010/08/10 06:45
CWSK 100645Z AUTO 05001KT 14/13 RMK AO1 T01410131

2010/08/10 07:00
KNEL 100700Z AUTO 22005KT 7SM CLR 23/20 A2993 RMK AO2 SLP134 T02330200 $

2010/08/10 06:56
K8D3 100656Z AUTO 12003KT 21/20 A2990 RMK AO2 SLP103 T02110200 PWINO TSNO

2010/08/10 07:01
KMSN 100701Z 00000KT 1SM BR VV001 22/21 A2995 RMK AO2

2010/08/10 07:01
PAIK 100701Z AUTO 09007KT 10SM -RA FEW012 BKN031 OVC070 14/12 A2952 RMK AO2 RAB0657 SLP035 P0000 T01390122

2010/08/10 07:01
PAKF 100701Z AUTO 16006KT 10SM FEW012 BKN029 OVC075 10/08 A2962 RMK AO2 SLP124 T01000078

2010/08/10 06:56
PANW 100656Z AUTO 15005KT 2 1/2SM BR OVC001 10/09 A2964 RMK AO2 PWINO TSNO T01000094 SLP017 $

2010/08/10 06:59
K3I2 100659Z AUTO 00000KT 7SM CLR 19/19 A2999 RMK AO2

2010/08/10 07:00
K3J7 100700Z AUTO 11003KT 10SM CLR 25/21 A2998 RMK AO2 T02530210

2010/08/10 07:00
KUXL 100700Z AUTO 00000KT 10SM CLR 27/26 A2992 RMK AO2

2010/08/10 06:58
KACP 100658Z AUTO 00000KT 7SM CLR 25/25 A2993 RMK AO2

2010/08/10 07:00
KAYS 100700Z AUTO 08003KT 10SM CLR 26/25 A2997 RMK AO1

2010/08/10 07:02
KBGE 100702Z AUTO 05004KT 10SM CLR 26/22 A2994 RMK AO2

2010/08/10 07:00
KCCO 100700Z AUTO 00000KT 4SM CLR 22/21 A3002 RMK AO1

2010/08/10 07:00
KCDH 100700Z AUTO 14004KT 10SM CLR 27/24 A2992 RMK AO2

2010/08/10 06:55
KCLS 100655Z AUTO 24003KT 10SM OVC016 13/11 A3001 RMK AO2

2010/08/10 07:01
KCWV 100701Z AUTO 00000KT 10SM CLR 26/26 A2998 RMK AO2 T02550256

2010/08/10 06:58
KDBN 100658Z AUTO 00000KT 7SM CLR 23/23 A2999 RMK AO1

2010/08/10 06:58
KDNN 100658Z AUTO 00000KT 7SM CLR 24/23 A3000 RMK AO2

2010/08/10 07:01
KDPL 100701Z AUTO 00000KT 10SM CLR 23/23 A3002 RMK AO2

2010/08/10 07:00
KDRI 100700Z AUTO 00000KT 10SM CLR 26/26 A2994 RMK AO2

2010/08/10 07:00
KF24 100700Z AUTO 12003KT 10SM CLR 27/23 A2997 RMK AO2 T02730228

2010/08/10 07:15
KFDW 100715Z AUTO 00000KT 10SM CLR 25/22 A3003 RMK AO1

2010/08/10 07:00
KFFA 100700Z AUTO 24004KT 10SM CLR 26/25 A3000 RMK AO2 T02600247

2010/08/10 07:00
KGAO 100700Z AUTO 29003KT 4SM BR CLR 24/23 A2992 RMK AO2

2010/08/10 07:02
KGEV 100702Z AUTO 00000KT 7SM CLR 21/19 A3016 RMK AO2

2010/08/10 06:55
KGHG 100655Z AUTO 00000KT 8SM CLR 21/20 A2992 RMK AO2 P0001

2010/08/10 07:00
KGWW 100700Z AUTO 20004KT 10SM CLR 24/24 A3001 RMK AO2 T02420237

2010/08/10 07:00
KHNZ 100700Z AUTO 20005KT 7SM CLR 24/21 A3001 RMK AO2 T02400212

2010/08/10 06:58
KHOE 100658Z AUTO 10004KT 10SM CLR 25/ A2996 RMK AO2 T0250

2010/08/10 07:00
KHSP 100700Z AUTO 26010KT 10SM CLR 21/17 A3020 RMK AO2

2010/08/10 07:00
KHUM 100700Z AUTO 00000KT 5SM BR CLR 25/25 A2991 RMK AO2 T02450245

2010/08/10 07:00
KHWY 100700Z AUTO 19003KT 10SM CLR 25/20 A2994 RMK AO2

2010/08/10 07:00
KI16 100700Z AUTO 00000KT 4SM BR CLR 20/20 A3007 RMK AO2

2010/08/10 07:01
KIDI 100701Z AUTO 00000KT 7SM SCT120 19/19 A3000 RMK AO2

2010/08/10 07:00
KIER 100700Z AUTO 00000KT 10SM CLR 27/25 A2993 RMK AO2 PWINO

2010/08/10 07:00
KIPJ 100700Z AUTO 00000KT 7SM CLR 24/22 A3004 RMK AO2 T02380220

2010/08/10 07:00
KISO 100700Z AUTO 22004KT 10SM CLR 24/23 A3001 RMK AO2 T02430230

2010/08/10 07:00
KIXA 100700Z AUTO 25003KT 7SM CLR 23/23 A2998 RMK AO2 T02330226

2010/08/10 07:00
KJES 100700Z AUTO 00000KT 10SM CLR 24/24 A2997 RMK AO2 T02400240

2010/08/10 07:00
KJGG 100700Z AUTO 19004KT 10SM CLR 26/22 A2998 RMK AO1

2010/08/10 07:00
KJKA 100700Z AUTO 00000KT 5SM BR CLR 27/26 A2992 RMK AO2 T02740261

2010/08/10 07:02
KBBW 100702Z AUTO 30012G25KT 1 1/4SM +TSRA BR OVC009 19/18 A2996 RMK AO2 LTG DSNT ALQDS P0016 $

2010/08/10 07:02
KBRD 100702Z AUTO 00000KT 1 3/4SM BR CLR 21/18 A2996 RMK AO2

2010/08/10 07:02
KCRE 100702Z AUTO 21008KT 10SM SCT019 BKN025 28/26 A3001 RMK AO2

2010/08/10 07:02
KDSM 100702Z 02012KT 1 1/4SM R31/4500VP6000FT +TSRA BR BKN006 OVC016 22/21 A2995 RMK AO2 CONS LTGICCG ALQDS TS ALQDS STNRY P0020

2010/08/10 07:02
KGSH 100702Z AUTO 02004KT 1 1/4SM BR BKN044 21/21 A2997 RMK AO2

2010/08/10 06:52
PKMR 100652Z 08014KT 15SM FEW015 SCT050 BKN120 OVC300 27/24 A2984 RMK SLP107 T02660237 

2010/08/10 06:50
ENSG 100650Z VRB02KT 9999 VCFG FEW/// SCT003 SCT020 13/12 Q1009

2010/08/10 07:00
MKJS 100700Z 00000KT 9999 FEW024 BKN220 27/24 Q1012

2010/08/10 07:00
RPLL 100700Z 28012KT 9000 SCT025 OVC300 30/26 Q1008 NOSIG RMK A2977

2010/08/10 07:00
RPVM 100700Z 11004KT 9999 SCT018CB OVC250 32/27 Q1009 A2980 TS OVHD CB ALQDS

2010/08/10 07:00
RPMZ 100700Z 36004KT 9999 FEW018 SCT120 30/26 Q1010

2010/08/10 07:00
RPLB 100700Z 22006KT 9999 FEW020 SCT080 BKN300 30/25 Q1009 NOSIG

2010/08/10 07:00
OEDF 100700Z 13006KT 5000 DU SKC 39/18 Q0999 NOSIG

2010/08/10 07:00
OEDR 100700Z 14007KT 4000 HZ NSC 37/29 Q0998 NOSIG

2010/08/10 07:00
OEMA 100700Z 00000KT 6000 NSC 40/03 Q1007 NOSIG

2010/08/10 07:00
OERK 100700Z 34008KT 7000 SKC 40/01 Q1006 NOSIG

2010/08/10 07:00
OERY 100700Z 36007KT 5000 DU SKC 39/02 Q1007 NOSIG

2010/08/10 06:50
ENOA 100650Z 11022KT 9999 FEW013 SCT025 BKN050 14/12 Q1007

2010/08/10 07:00
MKJS 100700Z 00000KT 9999 FEW024 BKN220 27/24 Q1012

2010/08/10 07:00
YAMB 100700Z AUTO 00000KT 5000NDV // BKN004 BKN039 OVC075 18/18 Q1017

2010/08/10 07:01
EFUT 100701Z 23006KT 200V270 6000 -SHRA BKN015 BKN045 18/17 Q1012

2010/08/10 07:00
LBSF 100700Z 28004MPS CAVOK 21/15 Q1017 NOSIG

2010/08/10 07:00
LBWN 100700Z 29004MPS 250V310 CAVOK 27/22 Q1011 WS RWY09 NOSIG

2010/08/10 07:00
LBBG 100700Z 34005G11MPS CAVOK 28/21 Q1011 NOSIG

2010/08/10 07:00
LBPD 100700Z 28007MPS CAVOK 26/18 Q1014 NOSIG

2010/08/10 07:00
LBGO 100700Z 28004MPS 230V310 CAVOK 25/18 Q1015 NOSIG

2010/08/10 07:00
LUKK 100700Z 02010KT CAVOK 28/16 Q1013 26CLRD65 NOSIG

2010/08/10 06:50
BGSF 100650Z 06008KT 9999 BKN025 BKN040 07/03 Q1007

2010/08/10 06:50
EEPU 100650Z 22013KT 9999 SCT021 BKN037 21/16 Q1014

2010/08/10 07:00
SBSL 100700Z 07007KT CAVOK 25/23 Q1012

2010/08/10 06:46
MMCZ 100646Z 00000KT 7SM SKC 23/23 A2988

2010/08/10 06:55
PTKR 100655Z 15006KT 15SM FEW018TCU BKN120 OVC300 29/25 A2982 RMK TCU DSNT SW AND N SLP097 T02940249

2010/08/10 06:52
PKMR 100652Z 08014KT 15SM FEW015 SCT050 BKN120 OVC300 27/24 A2984 RMK SLP107 T02660237

2010/08/10 07:00
SAME 100700Z 00000KT CAVOK 04/M03 Q1023

2010/08/10 06:50
EGEC 100650Z AUTO 24015KT 9999NDV // BKN015/// 13/11 Q1002

2010/08/10 06:50
EGPI 100650Z AUTO 25010KT 9999NDV // BKN028/// 12/10 Q1002

2010/08/10 07:00
UTTT 100700Z 31003G09MPS 250V360 7000 NSC 35/06 Q1008 R08R/CLRD70 NOSIG

2010/08/10 07:00
TTPP 100700Z ///05KT 9999 FEW018 BKN280 24/23 Q1012 NOSIG

2010/08/10 07:00
TTCP 100700Z 15008KT 9999 FEW016 SCT300 28/23 Q1013 NOSIG

2010/08/10 06:59
KJNX 100659Z AUTO 00000KT 7SM CLR 21/21 A3000 RMK AO2

2010/08/10 07:00
KAYS 100700Z AUTO 08003KT 10SM CLR 26/25 A2997 RMK AO1

2010/08/10 06:58
KDBN 100658Z AUTO 00000KT 7SM CLR 23/23 A2999 RMK AO1

2010/08/10 06:50
BGSF 100650Z 06008KT 9999 BKN025 BKN040 07/03 Q1007

2010/08/10 07:02
K47A 100702Z AUTO 00000KT 7SM CLR 25/21 A3004 RMK AO2

2010/08/10 07:01
KMLJ 100701Z AUTO 00000KT 7SM CLR 25/25 A2999 RMK AO2

2010/08/10 07:02
KMWK 100702Z AUTO 00000KT 5SM BR CLR 24/22 A3005 RMK AO2

2010/08/10 07:01
KPTB 100701Z AUTO 00000KT 7SM SCT060 24/ A2998 RMK AO2

2010/08/10 07:01
KTDF 100701Z AUTO 00000KT 23/22 A3003 RMK AO1

2010/08/10 07:01
PAIK 100701Z AUTO 09007KT 10SM -RA FEW012 BKN031 OVC070 14/12 A2952 RMK AO2 RAB0657 SLP035 P0000 T01390122

2010/08/10 07:02
KBGE 100702Z AUTO 05004KT 10SM CLR 26/22 A2994 RMK AO2

2010/08/10 07:01
KCWV 100701Z AUTO 00000KT 10SM CLR 26/26 A2998 RMK AO2 T02550256

2010/08/10 07:01
KDPL 100701Z AUTO 00000KT 10SM CLR 23/23 A3002 RMK AO2

2010/08/10 07:15
KFDW 100715Z AUTO 00000KT 10SM CLR 25/22 A3003 RMK AO1

2010/08/10 07:02
KGEV 100702Z AUTO 00000KT 7SM CLR 21/19 A3016 RMK AO2

2010/08/10 07:01
KIDI 100701Z AUTO 00000KT 7SM SCT120 19/19 A3000 RMK AO2

2010/08/10 06:56
K8D3 100656Z AUTO 12003KT 21/20 A2990 RMK AO2 SLP103 T02110200 PWINO TSNO

2010/08/10 07:01
KMSN 100701Z 00000KT 1SM BR VV001 22/21 A2995 RMK AO2

2010/08/10 07:02
KDSM 100702Z 02012KT 1 1/4SM R31/4500VP6000FT +TSRA BR BKN006 OVC016 22/21 A2995 RMK AO2 CONS LTGICCG ALQDS TS ALQDS STNRY P0020

2010/08/10 07:01
KBGM 100701Z AUTO 25004KT 1/4SM FG SCT001 BKN060 OVC080 20/20 A3001 RMK AO2 RVRNO

2010/08/10 07:01
KBML 100701Z AUTO 00000KT 1/4SM FG FEW001 BKN012 14/14 A2993 RMK AO2

2010/08/10 07:01
KCDS 100701Z AUTO 20004KT 10SM TS CLR 25/20 A2998 RMK AO2 TSB0655

2010/08/10 07:01
KDSV 100701Z AUTO 08003KT 1 3/4SM RA BR SCT014 OVC055 22/21 A2998 RMK AO2 P0002 $

2010/08/10 07:01
KGZH 100701Z AUTO 00000KT 2 1/2SM BR CLR 24/24 A2995 RMK AO2

2010/08/10 07:01
KHIB 100701Z AUTO 00000KT 1SM BR VV001 17/17 A2997 RMK AO2

2010/08/10 07:01
KMYF 100701Z AUTO 32003KT 10SM BKN011 17/14 A2992 RMK AO2 TSNO

2010/08/10 07:01
KPAE 100701Z AUTO 21005KT 10SM SCT009 BKN033 BKN044 14/13 A2997 RMK AO2

2010/08/10 07:01
KRSW 100701Z AUTO 09006KT 10SM SCT008 25/24 A2985 RMK AO2

2010/08/10 07:02
KBBW 100702Z AUTO 30012G25KT 1 1/4SM +TSRA BR OVC009 19/18 A2996 RMK AO2 LTG DSNT ALQDS P0016 $

2010/08/10 07:02
KBRD 100702Z AUTO 00000KT 1 3/4SM BR CLR 21/18 A2996 RMK AO2

2010/08/10 07:02
KCRE 100702Z AUTO 21008KT 10SM SCT019 BKN025 28/26 A3001 RMK AO2

2010/08/10 07:02
KGSH 100702Z AUTO 02004KT 1 1/4SM BR BKN044 21/21 A2997 RMK AO2

2010/08/10 06:50
EGPU 100650Z AUTO 34003KT 9999NDV -RA SCT014/// 10/10 Q1002

2010/08/10 07:00
YBTL 100700Z 01003KT 9000 VCSH FEW005 BKN025 BKN055 23/22 Q1014

2010/08/10 07:00
YBTL 100700Z 01003KT 9000 VCSH FEW005 BKN025 BKN055 23/22 Q1014 INTER 0700/0930 4000 SHRA BKN012

2010/08/10 07:00
SBMN 100700Z 00000KT 9999 FEW15 25/23 Q1012

2010/08/10 07:00
SARF 100700Z 14005KT CAVOK 11/10 Q1022

2010/08/10 07:00
KNEL 100700Z AUTO 22005KT 7SM CLR 23/20 A2993 RMK AO2 SLP134 T02330200 $

2010/08/10 06:55
KLUF 100655Z AUTO 00000KT 10SM CLR 31/13 A2981 RMK AO2 SLP063 T03130127 403870234 $

2010/08/10 06:56
KNID 100656Z AUTO 16009KT CLR 26/06 A2984 RMK AO2 SLP083 T02560061 TSNO $

2010/08/10 06:56
KNRS 100656Z AUTO 00000KT 10SM CLR 14/13 A2993 RMK AO2 SLP133 T01390128 TSNO

2010/08/10 06:55
KTBN 100655Z AUTO 18004KT 10SM CLR 26/23 A2996 RMK AO2 SLP118 T02580228 $

2010/08/10 06:59
KNGU 100659Z 20004KT 10SM CLR 27/23 A2999 RMK AO2 SLP155 T02670233

2010/08/10 07:00
KHWY 100700Z AUTO 19003KT 10SM CLR 25/20 A2994 RMK AO2

2010/08/10 07:00
KI16 100700Z AUTO 00000KT 4SM BR CLR 20/20 A3007 RMK AO2

2010/08/10 07:00
KIER 100700Z AUTO 00000KT 10SM CLR 27/25 A2993 RMK AO2 PWINO

2010/08/10 07:00
KIPJ 100700Z AUTO 00000KT 7SM CLR 24/22 A3004 RMK AO2 T02380220

2010/08/10 07:00
KISO 100700Z AUTO 22004KT 10SM CLR 24/23 A3001 RMK AO2 T02430230

2010/08/10 07:00
KIXA 100700Z AUTO 25003KT 7SM CLR 23/23 A2998 RMK AO2 T02330226

2010/08/10 07:00
KJES 100700Z AUTO 00000KT 10SM CLR 24/24 A2997 RMK AO2 T02400240

2010/08/10 07:00
KJGG 100700Z AUTO 19004KT 10SM CLR 26/22 A2998 RMK AO1

2010/08/10 07:00
KJKA 100700Z AUTO 00000KT 5SM BR CLR 27/26 A2992 RMK AO2 T02740261

2010/08/10 07:00
LHBP 100700Z 28005KT CAVOK 21/16 Q1018 NOSIG

2010/08/10 06:50
LTCE 100650Z 09012KT CAVOK 25/09 Q1018 NOSIG RMK RWY08R 06015KT RWY26R /////KT RWY08L 08012KT

2010/08/10 06:50
LTCE 100650Z 09012KT CAVOK 25/09 Q1018 NOSIG

2010/08/10 06:45
PAHV 100645Z 16012KT 25SM FEW030 OVC080 14/06 A2969 RMK EPC LAST

2010/08/10 06:58
PAGA 100658Z AUTO 13006KT 10SM BKN030 OVC037 15/11 A2955 RMK AO2 SLPNO T01500106

2010/08/10 06:59
K0R3 100659Z AUTO 00000KT 25/25 A2992 RMK AO2 PWINO

2010/08/10 07:00
K1A5 100700Z AUTO 00000KT 2SM BR BKN002 OVC055 20/18 A3012 RMK AO2 T01950181

2010/08/10 07:00
K3A1 100700Z AUTO 00000KT 5SM BR CLR 24/24 A3001 RMK AO2 T02420243 TSNO

2010/08/10 06:58
K4A9 100658Z AUTO 00000KT 4SM BR CLR 24/23 A3000 RMK AO2 T02440230

2010/08/10 07:00
K4R4 100700Z AUTO 03003KT 3SM BR CLR 27/26 A2993 RMK AO2 T02700260

2010/08/10 06:58
K8A0 100658Z AUTO 09003KT 10SM CLR 26/23 A3000 RMK AO2

2010/08/10 07:00
KAFP 100700Z AUTO 00000KT 7SM CLR 24/23 A3002 RMK AO2 T02350228

2010/08/10 07:00
KALX 100700Z AUTO 00000KT 5SM BR CLR 25/24 A2999 RMK AO1

2010/08/10 07:00
KAVC 100700Z AUTO 00000KT 7SM SCT090 24/22 A3005 RMK AO2

2010/08/10 07:00
KBCB 100700Z AUTO 00000KT 3SM CLR 21/21 A3011 RMK AO2 PWINO

2010/08/10 07:00
KBQK 100700Z AUTO 13006KT 10SM CLR 28/25 A2998 RMK AO1 T02800245 PNO

2010/08/10 06:59
KCJR 100659Z AUTO 00000KT 7SM CLR 24/23 A2996 RMK AO2

2010/08/10 07:00
KCPC 100700Z AUTO 00000KT 10SM CLR 24/24 A3002 RMK AO2 T02430240

2010/08/10 07:00
KCPK 100700Z AUTO 00000KT 1 1/4SM BR BKN001 21/20 A2999 RMK AO2

2010/08/10 07:00
KCTJ 100700Z AUTO 00000KT 7SM CLR 24/23 A3002 RMK AO2 T02390228

2010/08/10 07:00
KDQH 100700Z AUTO 00000KT 10SM CLR 27/24 A2996 RMK AO1

2010/08/10 06:59
KEDE 100659Z AUTO 24003KT 10SM CLR 26/24 A2997 RMK AO2

2010/08/10 06:55
KEMV 100655Z AUTO 00000KT 5SM BR CLR 22/22 A2999 RMK AO2

2010/08/10 07:00
KEXX 100700Z AUTO 00000KT 7SM CLR 23/23 A3003 RMK AO2

2010/08/10 07:00
KEYF 100700Z AUTO 00000KT 10SM CLR 25/25 A3002 RMK AO2 T02520246

2010/08/10 06:57
KEZF 100657Z AUTO 00000KT 10SM CLR 25/23 A2994 RMK AO2 T02500230

2010/08/10 07:00
KFKN 100700Z AUTO 00000KT 10SM CLR 25/23 A2998 RMK AO1

2010/08/10 07:00
KFQD 100700Z AUTO 00000KT 2 1/2SM BR CLR 23/23 A3005 RMK AO2

2010/08/10 07:00
KFVX 100700Z AUTO 00000KT 5SM BR CLR 24/24 A2996 RMK AO2

2010/08/10 07:00
KHBI 100700Z AUTO 00000KT 7SM CLR 23/22 A3006 RMK AO2

2010/08/10 07:00
KHLX 100700Z AUTO 17004KT 7SM CLR 23/23 A3013 RMK AO2

2010/08/10 06:59
KHRJ 100659Z AUTO 00000KT 10SM CLR 24/23 A3001 RMK AO2

2010/08/10 07:00
KMQI 100700Z AUTO 24005KT 10SM CLR 27/27 A3000 RMK AO2

2010/08/10 07:00
KONX 100700Z AUTO 00000KT 7SM CLR 24/23 A2999 RMK AO2

2010/08/10 07:00
KPGV 100700Z AUTO 22005KT 10SM CLR 24/24 A3001 RMK AO2

2010/08/10 07:00
KRUQ 100700Z AUTO 00000KT 10SM SCT060 OVC075 25/22 A3003 RMK AO2

2010/08/10 06:59
KSAW 100659Z AUTO 00000KT 5SM BR CLR 19/18 A2998 RMK AO2

2010/08/10 07:00
KUKF 100700Z AUTO 00000KT 2 1/2SM CLR 22/21 A3007 RMK AO1

2010/08/10 07:00
KUNV 100700Z AUTO 00000KT 10SM CLR 22/16 A2998 RMK AO2 T02200164

2010/08/10 06:55
KVVG 100655Z AUTO 05004KT 25/24 A2992 RMK AO2

2010/08/10 06:56
PANW 100656Z AUTO 15005KT 2 1/2SM BR OVC001 10/09 A2964 RMK AO2 PWINO TSNO T01000094 SLP017 $

2010/08/10 06:59
K3I2 100659Z AUTO 00000KT 7SM CLR 19/19 A2999 RMK AO2

2010/08/10 07:00
K3J7 100700Z AUTO 11003KT 10SM CLR 25/21 A2998 RMK AO2 T02530210

2010/08/10 07:00
KUXL 100700Z AUTO 00000KT 10SM CLR 27/26 A2992 RMK AO2

2010/08/10 06:58
KACP 100658Z AUTO 00000KT 7SM CLR 25/25 A2993 RMK AO2

2010/08/10 07:00
KCCO 100700Z AUTO 00000KT 4SM CLR 22/21 A3002 RMK AO1

2010/08/10 07:00
KCDH 100700Z AUTO 14004KT 10SM CLR 27/24 A2992 RMK AO2

2010/08/10 06:55
KCLS 100655Z AUTO 24003KT 10SM OVC016 13/11 A3001 RMK AO2

2010/08/10 06:58
KDNN 100658Z AUTO 00000KT 7SM CLR 24/23 A3000 RMK AO2

2010/08/10 07:00
KDRI 100700Z AUTO 00000KT 10SM CLR 26/26 A2994 RMK AO2

2010/08/10 07:00
KF24 100700Z AUTO 12003KT 10SM CLR 27/23 A2997 RMK AO2 T02730228

2010/08/10 07:00
KFFA 100700Z AUTO 24004KT 10SM CLR 26/25 A3000 RMK AO2 T02600247

2010/08/10 07:00
KGAO 100700Z AUTO 29003KT 4SM BR CLR 24/23 A2992 RMK AO2

2010/08/10 06:55
KGHG 100655Z AUTO 00000KT 8SM CLR 21/20 A2992 RMK AO2 P0001

2010/08/10 07:00
KGWW 100700Z AUTO 20004KT 10SM CLR 24/24 A3001 RMK AO2 T02420237

2010/08/10 07:00
KHNZ 100700Z AUTO 20005KT 7SM CLR 24/21 A3001 RMK AO2 T02400212

2010/08/10 06:58
KHOE 100658Z AUTO 10004KT 10SM CLR 25/ A2996 RMK AO2 T0250

2010/08/10 07:00
KHSP 100700Z AUTO 26010KT 10SM CLR 21/17 A3020 RMK AO2

2010/08/10 07:00
KHUM 100700Z AUTO 00000KT 5SM BR CLR 25/25 A2991 RMK AO2 T02450245

2010/08/10 07:00
YPCC 100700Z 10005KT 9999 VCSH SCT025 BKN048 25/20 Q1010

2010/08/10 06:45
MMAA 100645Z 07006KT 5SM -RA SCT010CB BKN050 OVC070 27/25 A2986 RMK 60185 8/96/ LTGIC S

2010/08/10 06:45
MMTO 100645Z 20003KT 5SM SCT015 BKN070 BKN200 14/12 A3040 RMK 8/572 HZ

2010/08/10 07:00
YPCC 100700Z 10005KT 9999 VCSH SCT025 BKN048 25/20 Q1010

2010/08/10 06:50
ESGP 100650Z 23011KT 9999 FEW017 SCT049 17/14 Q1014

2010/08/10 06:50
EGDM 100650Z 27005KT 9999 -RA FEW007 BKN070 OVC100 13/12 Q1011 TEMPO SCT008

2010/08/10 06:50
EGDY 100650Z 25005KT 6000 RA FEW008 SCT035 OVC080 13/12 Q1012

2010/08/10 06:50
EGOV 100650Z 23014KT 9999 FEW018 BKN060 14/12 Q1008 NOSIG

2010/08/10 06:45
LHDC 100645Z 35002KT 5000 BR FEW004 18/18 Q1018 BECMG 5000 BR SCT008

2010/08/10 06:45
LHKE 100645Z 34001MPS CAVOK 21/16 Q1018 NOSIG RMK BLU

2010/08/10 06:45
LHPP 100645Z 12003KT CAVOK 21/16 Q1019

2010/08/10 06:45
LHSN 100645Z 30001MPS CAVOK 21/16 Q1018 NOSIG RMK BLU

2010/08/10 06:45
LHUD 100645Z 34003KT CAVOK 22/18 Q1018

2010/08/10 06:45
MMQT 100645Z 03005KT 6SM SCT020 BKN120 OVC250 18/14 A3028 RMK 8/432

2010/08/10 07:00
NWWW 100700Z AUTO 06005KT 350V100 9999NDV BKN052/// 22/13 Q1022

2010/08/10 07:00
LEJR 100700Z 00000KT 9999 FEW020 25/11 Q1016

2010/08/10 07:00
YSRI 100700Z AUTO 00000KT 4500NDV // BKN004 OVC011 12/12 Q1013

2010/08/10 07:01
KRSW 100701Z AUTO 09006KT 10SM SCT008 25/24 A2985

2010/08/10 07:01
KPAE 100701Z AUTO 21005KT 10SM SCT009 BKN033 BKN044 14/13 A2997

2010/08/10 07:01
KBGM 100701Z AUTO 25004KT 1/4SM FG SCT001 BKN060 OVC080 20/20 A3001

2010/08/10 07:00
YPXM 100700Z AUTO 07011KT 9999NDV // BKN011 26/23 Q////

2010/08/10 07:01
KCDS 100701Z AUTO 20004KT 10SM TS CLR 25/20 A2998

2010/08/10 07:00
LEAS 100700Z VRB02KT 9999 SCT025 19/18 Q1018 NOSIG

2010/08/10 07:00
LEBB 100700Z 13005KT CAVOK 17/15 Q1018 NOSIG

2010/08/10 07:00
LECO 100700Z VRB01KT 9999 R22/0500V0900U R04/0300V0650N MIFG NSC 14/14 Q1018

2010/08/10 07:00
LEGE 100700Z 24002KT 9999 FEW010 SCT021 20/18 Q1017

2010/08/10 07:00
LEST 100700Z 00000KT CAVOK 12/11 Q1019 NOSIG

2010/08/10 07:00
LEZG 100700Z 29008KT 9999 FEW040TCU SCT080 20/13 Q1018

2010/08/10 07:00
LESO 100700Z 16004KT 120V190 CAVOK 18/15 Q1018

2010/08/10 07:00
LEVT 100700Z 00000KT 0400 R04/0900N R22/0750N FG VV001 13/13 Q1019

2010/08/10 07:00
LERS 100700Z 03004KT 9999 FEW015 SCT025 24/19 Q1017

2010/08/10 07:00
LEMH 100700Z 05006KT 9999 FEW025 25/21 Q1017

2010/08/10 07:00
LEAM 100700Z VRB01KT CAVOK 25/21 Q1016

2010/08/10 07:00
LEGR 100700Z 00000KT 9999 FEW100 24/13 Q1019

2010/08/10 07:00
GCLP 100700Z VRB01KT 9999 FEW020 21/18 Q1015 NOSIG

2010/08/10 07:00
GCXO 100700Z 28008KT 0200 R30/1300VP2000N R12/0275V0800U FG OVC000 17/17 Q1017 NOSIG

2010/08/10 07:00
GCTS 100700Z VRB01KT 9999 FEW025 SCT100 22/19 Q1015 NOSIG

2010/08/10 07:00
GCRR 100700Z 12007KT 9999 FEW018 24/21 Q1014

2010/08/10 07:00
GCFV 100700Z 29009KT 280V340 9999 SCT020 23/19 Q1014

2010/08/10 07:00
LEMD 100700Z 00000KT CAVOK 23/15 Q1019 NOSIG

2010/08/10 07:00
LEBL 100700Z 32003KT 260V070 9999 SCT014 24/19 Q1017 NOSIG

2010/08/10 07:00
LEPA 100700Z 05005KT CAVOK 25/16 Q1017 NOSIG

2010/08/10 07:00
LEZL 100700Z 00000KT CAVOK 28/15 Q1015 NOSIG

2010/08/10 07:00
LEMG 100700Z 29002KT CAVOK 26/14 Q1016 NOSIG

2010/08/10 07:00
LEVC 100700Z VRB01KT CAVOK 24/17 Q1016 NOSIG

2010/08/10 07:00
LEIB 100700Z VRB01KT CAVOK 27/14 Q1016 NOSIG

2010/08/10 07:00
LEVX 100700Z 23003KT CAVOK 22/16 Q1017

2010/08/10 07:00
YPXM 100700Z AUTO 07011KT 9999NDV // BKN011 26/23 Q////

2010/08/10 07:00
LEBZ 100700Z 00000KT CAVOK 26/16 Q1016

2010/08/10 07:00
LELN 100700Z VRB02KT CAVOK 15/11 Q1021

2010/08/10 07:00
LESA 100700Z 00000KT 8000 NSC 20/16 Q1021

2010/08/10 07:00
LETO 100700Z VRB01KT CAVOK 22/14 Q1019 NOSIG

2010/08/10 07:00
LEVD 100700Z VRB01KT CAVOK 18/14 Q1020

2010/08/10 07:00
TBPB 100700Z 14007KT 9999 FEW022 SCT280 27/24 Q1013 NOSIG

2010/08/10 07:01
KBGM 100701Z AUTO 25004KT 1/4SM FG SCT001 BKN060 OVC080 20/20 A3001

2010/08/10 07:00
YSTW 100700Z AUTO 24004KT 9999NDV // BKN034 OVC042 14/13 Q1013

2010/08/10 07:00
YSWG 100700Z 36008KT CAVOK 12/09 Q1008

2010/08/10 07:00
YTEF 100700Z AUTO 11015KT //// // ////// 20/M04 Q1019

2010/08/10 07:00
YTNK 100700Z AUTO 18006KT 9999NDV // NCD 22/M07 Q1017

2010/08/10 07:00
YTRE 100700Z AUTO 02006KT //// // ////// 17/15 Q1014

2010/08/10 07:00
YWGT 100700Z AUTO 16005KT //// // ////// 09/09 Q1008

2010/08/10 07:00
YWHA 100700Z AUTO 20018KT 9999NDV // SCT045 14/07 Q1014

2010/08/10 07:00
YWLM 100700Z 05009KT 9999 FEW007 BKN070 BKN120 16/15 Q1013

2010/08/10 07:01
KRSW 100701Z AUTO 09006KT 10SM SCT008 25/24 A2985

2010/08/10 06:50
EGPN 100650Z 07003KT 9999 FEW018 SCT025 13/11 Q1004

2010/08/10 07:00
LYBE 100700Z 34003KT 280V020 CAVOK 22/17 Q1018 NOSIG

2010/08/10 07:00
LYBT 100700Z 33003KT 290V100 CAVOK 22/18 Q1018 NOSIG

2010/08/10 07:00
LYKV 100700Z 31003KT 280V350 8000 FEW040 19/17 Q1018 NOSIG

2010/08/10 07:00
LYNI 100700Z VRB02KT 9999 FEW023 21/16 Q1018 NOSIG

2010/08/10 07:00
LYPG 100700Z 36006KT CAVOK 28/12 Q1013 NOSIG

2010/08/10 07:00
LYTV 100700Z 00000KT CAVOK 28/15 Q1013 NOSIG

2010/08/10 07:00
LYUZ 100700Z 12003KT 070V220 9999 FEW020 19/13 Q1021 NOSIG

2010/08/10 07:00
LYVR 100700Z VRB02KT CAVOK 22/18 Q1017

2010/08/10 07:00
GCHI 100700Z 01004KT 320V080 9999 FEW014 BKN022 22/19 Q1015

2010/08/10 07:00
GCLA 100700Z 32004KT 9999 SCT020 21/17 Q1016

2010/08/10 07:00
GEML 100700Z VRB01KT 9999 FEW008 25/23 Q1017

2010/08/10 07:00
UBBG 100700Z 06005KT 9999 SCT083 31/14 Q1012 NOSIG RMK R30R/CLRD70 

2010/08/10 07:00
UKBB 100700Z 02003MPS 6000 TS SCT033CB 24/22 Q1015 88CLRD95 TEMPO -TSRA SCT030CB

2010/08/10 07:00
UKHH 100700Z 10003MPS 050V130 CAVOK 34/10 Q1014 080///65 NOSIG

2010/08/10 07:00
UKOO 100700Z 04007MPS CAVOK 30/16 Q1011 34090070 NOSIG

2010/08/10 07:00
UKDE 100700Z 11003MPS 050V180 CAVOK 33/13 Q1012 02CLRD70 NOSIG

2010/08/10 07:00
UKDD 100700Z 05002MPS CAVOK 34/16 Q1012 08090070 NOSIG

2010/08/10 07:00
UKFF 100700Z 05007MPS CAVOK 31/21 Q1009 01010070 NOSIG

2010/08/10 07:00
UKLL 100700Z 29002MPS 250V350 9999 BKN008 18/17 Q1018 31110360 TEMPO -TSRA BKN020CB

2010/08/10 07:00
UKCC 100700Z 13004MPS 090V170 CAVOK 34/11 Q1013 08090070 NOSIG

2010/08/10 07:00
UKDR 100700Z 36005MPS 320V060 CAVOK 30/18 Q1012 3609//70 NOSIG

2010/08/10 07:00
LKKV 100700Z VRB01KT CAVOK 17/13 Q1019

2010/08/10 07:00
LKTB 100700Z VRB01KT CAVOK 18/14 Q1018 NOSIG

2010/08/10 07:00
UKLR 100700Z 00000MPS 9999 SCT020 BKN100 22/18 Q1017 30090070 NOSIG

2010/08/10 07:00
UKLI 100700Z 00000MPS CAVOK 21/18 Q1018 28090070 NOSIG

2010/08/10 07:00
UKON 100700Z 03005MPS 340V070 CAVOK 31/17 Q1012 05090075 NOSIG

2010/08/10 07:00
UKCM 100700Z 07004MPS 030V120 CAVOK 34/14 Q1011 02010065 NOSIG

2010/08/10 07:00
UKCW 100700Z 07003MPS 020V100 CAVOK 34/10 Q1014 0909//70 NOSIG

2010/08/10 07:00
UKLU 100700Z 15003MPS 9999 FEW033 22/16 Q1018 10090070 NOSIG

2010/08/10 07:00
UKKK 100700Z VRB01MPS 9999 NSC 27/20 Q1015 26CLRD70 NOSIG

2010/08/10 07:00
UKKM 100700Z 36002MPS CAVOK 24/20 Q1015 33CLRD70 NOSIG

2010/08/10 07:00
UKLN 100700Z 32003MPS 250V010 CAVOK 21/18 Q1017 3309//70 NOSIG

2010/08/10 07:00
LATI 100700Z 00000KT CAVOK 27/25 Q1012 NOSIG

2010/08/10 07:00
BIAR 100700Z 14005KT 9999 OVC011 09/08 Q1014

2010/08/10 07:00
BIEG 100700Z 04006KT 0600 R040750 FG VV002 07/07 Q1013

2010/08/10 07:00
BIKF 100700Z 31006KT 9999 BKN022 12/07 Q1014

2010/08/10 07:00
BIRK 100700Z 30002KT 9999 OVC020 12/07 Q1013

2010/08/10 07:00
LEBA 100700Z VRB02KT CAVOK 28/13 Q1016

2010/08/10 07:00
LEDA 100700Z VRB01KT CAVOK 21/14 Q1018

2010/08/10 07:00
LEJR 100700Z 00000KT 9999 FEW020 25/11 Q1016

2010/08/10 07:00
LELL 100700Z 00000KT 9000 FEW006 SCT010 BKN025 22/15 Q1018

2010/08/10 07:00
LEPP 100700Z 00000KT 9999 FEW010 15/13 Q1019

2010/08/10 07:00
LEXJ 100700Z VRB02KT 9999 FEW030 17/15 Q1018

2010/08/10 07:00
EIDW 100700Z 24012KT 200V270 9999 -SHRA FEW018 SCT041 BKN050 12/10 Q1007 NOSIG

2010/08/10 07:00
EINN 100700Z 24011KT 9999 FEW024 BKN035 15/11 Q1008 NOSIG

2010/08/10 07:00
EICK 100700Z 33007KT 9999 FEW033 12/08 Q1009 NOSIG

2010/08/10 07:00
EIKN 100700Z 29007KT 9999 FEW010 11/11 Q1007 NOSIG

2010/08/10 07:01
KHIB 100701Z AUTO 00000KT 1SM BR VV001 17/17 A2997

2010/08/10 07:01
KPAE 100701Z AUTO 21005KT 10SM SCT009 BKN033 BKN044 14/13 A2997

2010/08/10 07:00
ORSU 100700Z 04005KT CAVOK 39/08 Q1010 

2010/08/10 07:00
LUKK 100700Z 02010KT CAVOK 28/16 Q1013 26CLRD65 NOSIG

2010/08/10 07:00
UBBB 100700Z 36004KT 9999 FEW060CB BKN100 34/20 Q1011 NOSIG RMK R88CLRD70

2010/08/10 07:00
UHHH 100700Z METAR 23009MPS 9999 SCT030 27/20 Q1005 NOSIG

2010/08/10 07:00
UKBB 100700Z 02003MPS 6000 TS SCT033CB 24/22 Q1015 88CLRD95 TEMPO -TSRA SCT030CB

2010/08/10 07:00
UKFF 100700Z 05007MPS CAVOK 31/21 Q1009 01010070 NOSIG

2010/08/10 07:00
UKKK 100700Z VRB01MPS 9999 NSC 27/20 Q1015 26CLRD70 NOSIG

2010/08/10 07:00
UKLL 100700Z 29002MPS 250V350 9999 BKN008 18/17 Q1018 31110360 TEMPO -TSRA BKN020CB

2010/08/10 07:00
UKOO 100700Z 04007MPS CAVOK 30/16 Q1011 34090070 NOSIG

2010/08/10 07:00
UTTT 100700Z 31003G09MPS 250V360 7000 NSC 35/06 Q1008 R08R/CLRD70 NOSIG

2010/08/10 06:55
KQA7 100655Z AUTO VRB04KT 9999 SCT180 36/02 A2988 RMK AO2A SLP001 T03590023 $

2010/08/10 06:55
KQD9 100655Z VRB04KT 9999 SCT029 SCT150 30/20 A2985 RMK CB 15SE-SW MOV E SLP034 WND DATA ESTMD ALSTG/SLP ESTMD

2010/08/10 06:55
KQLE 100655Z 16005KT 8000 DU FEW250 36/02 A2975 RMK SLP995 T03620016 PA3102 DA6220

2010/08/10 06:55
KQPD 100655Z AUTO VRB05KT 8000 36/04 A2969 RMK AO2 SLP962 T03610038 $

2010/08/10 06:55
KQPV 100655Z AUTO 34007KT 9999 CLR 40/05 A2965 RMK AO2 SLP034 T03960053 $

2010/08/10 06:55
KQQS 100655Z AUTO 07004KT 9999 FEW075 26/11 A3012 RMK AO2 SLP080 T02590105

2010/08/10 06:56
KNJK 100656Z AUTO 25008KT 10SM CLR 27/06 A2973 RMK AO2 SLP081 T02720056 TSNO 

2010/08/10 07:00
GGOV 100700Z VRB03KT 9000 -RA BKNN005 FEW018CB OVC090 24/23 Q1013 NOSIG

2010/08/10 07:00
YAMB 100700Z AUTO 00000KT 5000NDV // BKN004 BKN039 OVC075 18/18 Q1017

2010/08/10 07:01
YBCG 100701Z AUTO 34003KT 9999NDV // BKN013 BKN021 OVC048 18/17 Q1017

2010/08/10 07:00
YBHM 100700Z AUTO 09007KT //// // ////// 23/20 Q1014

2010/08/10 07:00
YBMA 100700Z AUTO 24008KT 9999NDV // NCD 23/M03 Q1016

2010/08/10 07:00
YBRK 100700Z 01015KT 9999 FEW040 BKN120 26/18 Q1013

2010/08/10 07:00
YBRM 100700Z 13011KT CAVOK 25/00 Q1014

2010/08/10 07:00
YCIN 100700Z AUTO 14008KT //// // ////// 27/M01 Q1014

2010/08/10 07:00
YFRT 100700Z AUTO 20009KT //// // ////// 15/04 Q1025

2010/08/10 07:00
YMAV 100700Z AUTO 10005KT 9999NDV // NCD 10/09 Q1008

2010/08/10 07:00
YMHB 100700Z 11006KT 9999 VCSH FEW035 BKN220 12/08 Q1021

2010/08/10 07:00
YMLT 100700Z AUTO 16016KT 9999NDV // SCT048 BKN053 OVC065 11/07 Q1018

2010/08/10 07:00
YPEA 100700Z 02011KT CAVOK 20/M02 Q1018 NOSIG

2010/08/10 07:00
YPGV 100700Z 12012KT 9999 BKN020 BKN140 27/22 Q1011

2010/08/10 07:00
YPKG 100700Z 06006KT CAVOK 16/M02 Q1023

2010/08/10 07:00
YPPD 100700Z 11014KT CAVOK 24/M10 Q1017

2010/08/10 07:00
YSCB 100700Z 04008KT 9999 SCT035 13/09 Q1010

2010/08/10 07:00
YSDU 100700Z AUTO 01014KT 9999NDV // NCD 15/14 Q1010

2010/08/10 07:00
YSNF 100700Z 13006KT 9999 SCT038 15/07 Q1029

2010/08/10 07:00
YSRI 100700Z AUTO 00000KT 4500NDV // BKN004 OVC011 12/12 Q1013

2010/08/10 07:00
YWLM 100700Z 05009KT 9999 FEW007 BKN070 BKN120 16/15 Q1013

2010/08/10 07:00
WBKK 100700Z 32003KT 9999 FEW014 FEW017CB SCT140 BKN270 32/25 Q1007 NOSIG

2010/08/10 07:00
WMKJ 100700Z 15007KT 110V200 9999 FEW018 BKN140 32/25 Q1006

2010/08/10 07:00
WMKK 100700Z 17009KT 140V210 9999 SCT018 SCT140 BKN280 32/26 Q1007 NOSIG

2010/08/10 07:00
WMKP 100700Z 22007KT 8000 FEW020 BKN140 BKN270 32/26 Q1006 NOSIG

2010/08/10 07:00
WMSA 100700Z 17007KT 9999 FEW020 BKN140 33/25 Q1006 NOSIG

2010/08/10 07:03
KBTV 100703Z 00000KT 1 3/4SM BR FEW004 18/18 A2991 RMK AO2 

2010/08/10 07:00
YAMB 100700Z AUTO 00000KT 5000NDV // BKN004 BKN039 OVC075 18/18 Q1017

2010/08/10 07:01
YBCG 100701Z AUTO 34003KT 9999NDV // BKN013 BKN021 OVC048 18/17 Q1017

2010/08/10 07:00
YBHM 100700Z AUTO 09007KT //// // ////// 23/20 Q1014

2010/08/10 07:00
YBMA 100700Z AUTO 24008KT 9999NDV // NCD 23/M03 Q1016

2010/08/10 07:00
YBRK 100700Z 01015KT 9999 FEW040 BKN120 26/18 Q1013

2010/08/10 07:00
YBRM 100700Z 13011KT CAVOK 25/00 Q1014

2010/08/10 07:00
YCIN 100700Z AUTO 14008KT //// // ////// 27/M01 Q1014

2010/08/10 07:00
YFRT 100700Z AUTO 20009KT //// // ////// 15/04 Q1025

2010/08/10 07:00
YMAV 100700Z AUTO 10005KT 9999NDV // NCD 10/09 Q1008

2010/08/10 07:00
YMHB 100700Z 11006KT 9999 VCSH FEW035 BKN220 12/08 Q1021

2010/08/10 07:00
YMLT 100700Z AUTO 16016KT 9999NDV // SCT048 BKN053 OVC065 11/07 Q1018

2010/08/10 07:00
YPEA 100700Z 02011KT CAVOK 20/M02 Q1018 NOSIG

2010/08/10 07:00
YPGV 100700Z 12012KT 9999 BKN020 BKN140 27/22 Q1011

2010/08/10 07:00
YPKG 100700Z 06006KT CAVOK 16/M02 Q1023

2010/08/10 07:00
YPPD 100700Z 11014KT CAVOK 24/M10 Q1017

2010/08/10 07:00
YSCB 100700Z 04008KT 9999 SCT035 13/09 Q1010

2010/08/10 07:00
YSDU 100700Z AUTO 01014KT 9999NDV // NCD 15/14 Q1010

2010/08/10 07:00
YSNF 100700Z 13006KT 9999 SCT038 15/07 Q1029

2010/08/10 07:00
YSRI 100700Z AUTO 00000KT 4500NDV // BKN004 OVC011 12/12 Q1013

2010/08/10 07:00
YWLM 100700Z 05009KT 9999 FEW007 BKN070 BKN120 16/15 Q1013

2010/08/10 07:04
CYPD 100704Z AUTO 23008KT 9SM SCT012 BKN048 OVC056 18/16 A2984 RMK SLP107 DENSITY ALT 900FT

2010/08/10 06:59
CWSA 100659Z AUTO 25009KT 5SM OVC004 19/18 A2991

2010/08/10 07:01
CYCX 100701Z AUTO 22005KT 3 1/2SM 17/17 A2981

2010/08/10 06:58
CYFS 100658Z 00000KT 15SM -RA BKN030 RMK SC7

2010/08/10 07:02
CYGX 100702Z 06003KT 15SM -RA OVC080 RMK AC6

2010/08/10 06:59
CYRV 100659Z AUTO 00000KT 9SM OVC003 OVC022 OVC030 OVC076 16/16 A2986

2010/08/10 07:01
CYWA 100701Z AUTO 26002KT 2 1/8SM CLR 14/14 A2991 RMK VSBY VRBL 0.7V9.+

2010/08/10 07:00
KGUS 100700Z AUTO 03003KT 9SM R23/5500VP6000FT CLR 23/23 A2996 RMK AO2 SLP138

2010/08/10 07:00
KMTC 100700Z AUTO 00000KT 1SM R19/1200V3000FT DZ BR CLR 21/21 A2994 RMK AO2 VIS 1/2V2 SLP142 $

2010/08/10 07:02
KMTC 100702Z AUTO 00000KT 3/4SM R19/1000V3000FT DZ BR CLR 21/21 A2994 RMK AO2 VIS 2 RWY01 SLP142 $

2010/08/10 07:00
YBCS 100700Z 28006KT 8000 VCSH FEW003 SCT025 BKN035 24/23 Q1013

2010/08/10 07:00
YBTL 100700Z 01003KT 9000 VCSH FEW005 BKN025 BKN055 23/22 Q1014 INTER 0700/0930 4000 SHRA BKN012

2010/08/10 07:00
YSRI 100700Z AUTO 00000KT 4500NDV // BKN004 OVC011 12/12 Q1013

2010/08/10 07:03
CYOY 100703Z AUTO 00000KT 2 1/2SM OVC007 OVC031 OVC071 12/11 A2985 RMK VSBY VRBL 1.0V7.0

2010/08/10 07:03
CYMO 100703Z AUTO 35005KT 9SM OVC004 11/11 A2997

2010/08/10 07:00
TGPY 100700Z 15009KT 9999 BKN016 SCT260 28/26 Q012 JP-S

2010/08/10 07:00
SUMU 100700Z 00000KT 0100 R19/0200 R24/0200 FG VV/// 01/01 Q1027 NOSIG

2010/08/10 07:00
WBKK 100700Z 32003KT 9999 FEW014 FEW017CB SCT140 BKN270 32/25 Q1007 NOSIG

2010/08/10 07:00
WBSB 100700Z 33004KT 9999 FEW017 FEW018CB BKN140 31/26 Q1007 NOSIG

2010/08/10 07:00
WMKK 100700Z 17009KT 140V210 9999 SCT018 SCT140 BKN280 32/26 Q1007 NOSIG

2010/08/10 07:00
WMKP 100700Z 22007KT 8000 FEW020 BKN140 BKN270 32/26 Q1006 NOSIG

2010/08/10 07:00
WSSL 100700Z 15006KT 110V180 9999 FEW020 BKN280 32/24 Q1007

2010/08/10 07:00
WSSS 100700Z VRB05KT 9999 FEW020 SCT280 BKN300 32/27 Q1007 NOSIG

2010/08/10 07:00
LEAM 100700Z VRB01KT CAVOK 25/21 Q1016

2010/08/10 07:00
LEAS 100700Z VRB02KT 9999 SCT025 19/18 Q1018 NOSIG

2010/08/10 07:00
LEBB 100700Z 13005KT CAVOK 17/15 Q1018 NOSIG

2010/08/10 07:00
LEBL 100700Z 32003KT 260V070 9999 SCT014 24/19 Q1017 NOSIG

2010/08/10 07:00
LEBZ 100700Z 00000KT CAVOK 26/16 Q1016

2010/08/10 07:00
LECO 100700Z VRB01KT 9999 R22/0500V0900U R04/0300V0650N MIFG NSC 14/14 Q1018

2010/08/10 07:00
LEGE 100700Z 24002KT 9999 FEW010 SCT021 20/18 Q1017

2010/08/10 07:00
LEGR 100700Z 00000KT 9999 FEW100 24/13 Q1019

2010/08/10 07:00
LEIB 100700Z VRB01KT CAVOK 27/14 Q1016 NOSIG

2010/08/10 07:00
LEJR 100700Z 00000KT 9999 FEW020 25/11 Q1016

2010/08/10 07:00
LELN 100700Z VRB02KT CAVOK 15/11 Q1021

2010/08/10 07:00
LEMD 100700Z 00000KT CAVOK 23/15 Q1019 NOSIG

2010/08/10 07:00
LEMG 100700Z 29002KT CAVOK 26/14 Q1016 NOSIG

2010/08/10 07:00
LEPA 100700Z 05005KT CAVOK 25/16 Q1017 NOSIG

2010/08/10 07:00
LERS 100700Z 03004KT 9999 FEW015 SCT025 24/19 Q1017

2010/08/10 07:00
LESA 100700Z 00000KT 8000 NSC 20/16 Q1021

2010/08/10 07:00
LESO 100700Z 16004KT 120V190 CAVOK 18/15 Q1018

2010/08/10 07:00
LETO 100700Z VRB01KT CAVOK 22/14 Q1019 NOSIG

2010/08/10 07:00
LEVC 100700Z VRB01KT CAVOK 24/17 Q1016 NOSIG

2010/08/10 07:00
LEVD 100700Z VRB01KT CAVOK 18/14 Q1020

2010/08/10 07:00
LEVT 100700Z 00000KT 0400 R04/0900N R22/0750N FG VV001 13/13 Q1019

2010/08/10 07:00
LEVX 100700Z 23003KT CAVOK 22/16 Q1017

2010/08/10 07:00
LEZG 100700Z 29008KT 9999 FEW040TCU SCT080 20/13 Q1018

2010/08/10 07:00
LEZL 100700Z 00000KT CAVOK 28/15 Q1015 NOSIG

2010/08/10 07:00
LKNA 100700Z VRB02KT 9999 FEW020 18/14 Q1019 NOSIG RMK BLU+ BLU+

2010/08/10 07:00
LKPO 100700Z VRB01KT 9999 FEW005 17/16 Q1019 NOSIG RMK BLU+ BLU+

2010/08/10 06:50
EGPN 100650Z 07003KT 9999 FEW018 SCT025 13/11 Q1004

2010/08/10 06:50
EGUB 100650Z AUTO 20003KT 9999NDV // BKN036/// BKN080/// 13/11 Q1011

2010/08/10 07:00
EGUW 100700Z 26012KT 6000 RA FEW012 BKN018TCU OVC032 16/13 Q1010 WHT TEMPO 4000 +RA SCT006 YLO1

2010/08/10 07:00
EICK 100700Z 33007KT 9999 FEW033 12/08 Q1009 NOSIG

2010/08/10 07:00
EIDW 100700Z 24012KT 200V270 9999 -SHRA FEW018 SCT041 BKN050 12/10 Q1007 NOSIG

2010/08/10 07:00
EIKN 100700Z 29007KT 9999 FEW010 11/11 Q1007 NOSIG

2010/08/10 07:00
EINN 100700Z 24011KT 9999 FEW024 BKN035 15/11 Q1008 NOSIG

2010/08/10 07:00
EPGD 100700Z 01003KT 330V040 CAVOK 18/14 Q1018

2010/08/10 07:00
EPPO 100700Z VRB01KT 2000 BR BKN002 17/17 Q1017

2010/08/10 07:00
EPWA 100700Z 19004KT 150V250 9999 FEW026 21/17 Q1017 NOSIG

2010/08/10 07:00
LATI 100700Z 00000KT CAVOK 27/25 Q1012 NOSIG

2010/08/10 06:45
LHDC 100645Z 35002KT 5000 BR FEW004 18/18 Q1018 BECMG 5000 BR SCT008

2010/08/10 06:45
LHKE 100645Z 34001MPS CAVOK 21/16 Q1018 NOSIG RMK BLU

2010/08/10 06:45
LHPA 100645Z 19001MPS CAVOK 20/16 Q1019 NOSIG RMK BLU

2010/08/10 06:45
LHPP 100645Z 12003KT CAVOK 21/16 Q1019

2010/08/10 06:45
LHSN 100645Z 30001MPS CAVOK 21/16 Q1018 NOSIG RMK BLU

2010/08/10 06:45
LHUD 100645Z 34003KT CAVOK 22/18 Q1018

2010/08/10 07:00
LKKV 100700Z VRB01KT CAVOK 17/13 Q1019

2010/08/10 07:00
LKPD 100700Z VRB02KT 9999 FEW007 17/15 Q1018 NOSIG RMK BLU+ BLU+

2010/08/10 07:00
LKTB 100700Z VRB01KT CAVOK 18/14 Q1018 NOSIG

2010/08/10 07:00
LYBE 100700Z 34003KT 280V020 CAVOK 22/17 Q1018 NOSIG

2010/08/10 07:00
LYNI 100700Z VRB02KT 9999 FEW023 21/16 Q1018 NOSIG

2010/08/10 07:00
LYPG 100700Z 36006KT CAVOK 28/12 Q1013 NOSIG

2010/08/10 07:00
LYTV 100700Z 00000KT CAVOK 28/15 Q1013 NOSIG

2010/08/10 07:00
FBSK 100700Z 18010KT CAVOK 09/07 Q1031 NOSIG

2010/08/10 07:00
FBFT 100700Z 15011KT CAVOK 14/M00 Q1029

2010/08/10 07:00
FBMN 100700Z 14011KT CAVOK 11/M10 Q1028

2010/08/10 07:00
FBKE 100700Z 14013KT CAVOK 17/M02 Q1025

2010/08/10 07:00
YSSY 100700Z 02017KT 9999 -RA FEW010 BKN014 BKN040 17/15 Q1012 FM0800 02015KT 9000 -RA SCT010 BKN020 BKN040 TEMPO 0700/1000 4000 RA BKN010

2010/08/10 07:02
KRAC 100702Z AUTO 00000KT 2 1/2SM BR CLR 22/21 A2996 RMK AO2

2010/08/10 07:02
KRME 100702Z AUTO 00000KT 3SM BR FEW001 BKN007 OVC023 21/20 A2997 RMK AO2 $

2010/08/10 07:02
KYIP 100702Z 00000KT 1/4SM FG VV001 22/21 A2996 RMK AO2 RVRNO

2010/08/10 07:02
PAIG 100702Z AUTO 00000KT 3SM BR FEW003 BKN021 OVC032 11/11 A2964 RMK AO2 PWINO TSNO $

2010/08/10 07:02
PALH 100702Z 26003KT 10SM -RA BKN007 OVC022 13/11 A2978 RMK AO2 P0000

2010/08/10 07:03
PAPN 100703Z AUTO 00000KT 2SM BR FEW006 OVC020 11/09 A2966 RMK AO2 PWINO TSNO

2010/08/10 07:00
SBGR 100700Z 16003KT 9999 OVC023 14/12 Q1024

2010/08/10 07:00
MGPB 100700Z 00000KT 9999 TS SCT016 FEW025CB 26/25 Q1011 A2985 CB/TS/LTNG N/NNE

2010/08/10 07:00
MGGT 100700Z 36005KT 9999 FEW006 BKN012 19/19 Q1024 A3024 SCT080 MTN E/W CUB/CL VOL. PACAYA EN ACTIVIDAD NOSIG

2010/08/10 07:00
MGSJ 100700Z 36006KT 9999 TS SCT016 FEW025CB SCT090 26/25 Q1013 A2991 CB/TS/LTNG E/ESE

2010/08/10 06:50
ESGP 100650Z 23011KT 9999 FEW017 SCT049 17/14 Q1014

2010/08/10 07:00
TFFF 100700Z AUTO VRB01KT 9999NDV FEW011/// SCT020/// BKN040/// 25/24 Q1012

2010/08/10 07:00
KJQF 100700Z AUTO 00000KT 10SM CLR 25/21 A3003 RMK AO2 T02520210

2010/08/10 07:00
KJYO 100700Z AUTO 21003KT 7SM CLR 24/22 A2995 RMK AO2

2010/08/10 07:00
KLDJ 100700Z AUTO 24004KT 7SM CLR 26/19 A2991 RMK AO2 T02610190

2010/08/10 06:55
KLGC 100655Z AUTO 5SM CLR 22/22 A2999 RMK AO1

2010/08/10 07:00
KLHZ 100700Z AUTO 22003KT 10SM CLR 25/23 A3001 RMK AO2 T02480225

2010/08/10 07:00
KLKU 100700Z AUTO 21003KT 7SM CLR 24/21 A2997 RMK AO2

2010/08/10 07:00
KLNP 100700Z AUTO 00000KT 5SM SCT055 22/20 A3012 RMK AO1

2010/08/10 07:01
KLWB 100701Z AUTO 00000KT 3SM BR CLR 18/17 A3010 RMK AO2

2010/08/10 07:00
KMDQ 100700Z AUTO 00000KT 5SM BR SCT060 25/24 A2999 RMK AO2 T02450238

2010/08/10 07:02
KMFV 100702Z AUTO 21004KT 7SM RMK AO2

2010/08/10 07:00
KMKJ 100700Z AUTO 00000KT 4SM SCT070 18/08 A3017 RMK AO1

2010/08/10 07:01
KMRN 100701Z AUTO 00000KT 3SM BR CLR 22/22 A3010 RMK AO2

2010/08/10 07:00
KMTV 100700Z AUTO 00000KT 2 1/2SM BR CLR 23/23 A3004 RMK AO2

2010/08/10 07:00
KSIF 100700Z AUTO 00000KT 7SM CLR 24/22 A3002 RMK AO2 T02360219

2010/08/10 07:00
KSUT 100700Z AUTO 22005KT 10SM SCT018 SCT024 SCT030 26/22 A3002 RMK AO2

2010/08/10 07:00
KSVH 100700Z AUTO 00000KT 7SM CLR 24/23 A3003 RMK AO2 T02350230

2010/08/10 07:00
KTMA 100700Z AUTO 00000KT 10SM CLR 25/24 A2997 RMK AO2 T02500240

2010/08/10 07:02
KTNB 100702Z AUTO 00000KT 2SM BR 18/18 A3017 RMK AO2

2010/08/10 07:04
KTTA 100704Z AUTO 00000KT 5SM BR CLR 22/22 A3002 RMK AO2

2010/08/10 07:00
KTVI 100700Z AUTO 11004KT 10SM CLR 26/24 A2995 RMK AO2 T02610241

2010/08/10 06:56
KVDF 100656Z AUTO 00000KT 10SM CLR 25/24 A2990 RMK AO2

2010/08/10 06:58
KVUJ 100658Z AUTO 00000KT 5SM CLR 22/21 A3002 RMK AO2

2010/08/10 07:00
KW45 100700Z AUTO 00000KT 7SM CLR 23/23 A2998 RMK AO2 T02310225

2010/08/10 06:59
KW99 100659Z AUTO 00000KT 4SM HZ CLR 21/18 A3000 RMK AO2

2010/08/10 07:00
SACO 100700Z 29005KT CAVOK 03/M01 Q1027

2010/08/10 07:00
UBBY 100700Z VRB02KT 9999 SCT100 29/14 Q1016 NOSIG RMK R33/CLRD70 G/O

2010/08/10 07:00
SARE 100700Z 18003KT 6000 04/04 Q1023

2010/08/10 07:00
WSSS 100700Z VRB05KT 9999 FEW020 SCT280 BKN300 32/27 Q1007 NOSIG

2010/08/10 06:50
LSMP 100650Z 03002KT 9999 BKN076 19/15 Q1018 RMK WHT

2010/08/10 07:00
GMFF 100700Z 16006KT 8000 FEW033 SCT100 26/16 Q1018 NOSIG

2010/08/10 07:00
GMFK 100700Z 00000KT 9999 BKN033 28/16 Q1022

2010/08/10 07:00
GMFM 100700Z 17003KT CAVOK 30/11 Q1019

2010/08/10 07:00
GMMC 100700Z 00000KT 5000 NSC 26/18 Q1012

2010/08/10 07:00
GMMH 100700Z 36005KT 6000 BKN006 21/19 Q1015

2010/08/10 07:00
GMML 100700Z 03008KT 6000 BKN016 BKN100 20/17 Q1015

2010/08/10 07:00
GMMW 100700Z 6000 BKN016 SCT100 24/21 Q1016

2010/08/10 07:00
GMMZ 100700Z 23003KT CAVOK 26/11 Q1024

2010/08/10 07:00
GMTA 100700Z 20002KT 6000 OVC013 24/22 Q1017

2010/08/10 07:00
GMAD 100700Z 23005KT 0400 FG OVC003 20/20 Q1014 NOSIG

2010/08/10 07:00
GMFF 100700Z 16006KT 8000 FEW033 SCT100 26/16 Q1018 NOSIG

2010/08/10 07:00
GMME 100700Z 22002KT 5000 NSC 23/22 Q1014 NOSIG

2010/08/10 07:00
GMMN 100700Z VRB02KT CAVOK 28/14 Q1015 NOSIG

2010/08/10 07:00
GMMX 100700Z 09006KT 8000 SCT100 25/17 Q1017 NOSIG

2010/08/10 07:00
GMTT 100700Z 09009KT 8000 FEW016 27/18 Q1015 NOSIG

2010/08/10 07:00
LKKV 100700Z VRB01KT CAVOK 17/13 Q1019

2010/08/10 07:00
LKTB 100700Z VRB01KT CAVOK 18/14 Q1018 NOSIG

2010/08/10 07:00
UKBB 100700Z 02003MPS 6000 TS SCT033CB 24/22 Q1015 88CLRD95 TEMPO -TSRA SCT030CB

2010/08/10 07:00
UKHH 100700Z 10003MPS 050V130 CAVOK 34/10 Q1014 080///65 NOSIG

2010/08/10 07:00
UKOO 100700Z 04007MPS CAVOK 30/16 Q1011 34090070 NOSIG

2010/08/10 07:00
UKDE 100700Z 11003MPS 050V180 CAVOK 33/13 Q1012 02CLRD70 NOSIG

2010/08/10 07:00
UKDD 100700Z 05002MPS CAVOK 34/16 Q1012 08090070 NOSIG

2010/08/10 07:00
UKFF 100700Z 05007MPS CAVOK 31/21 Q1009 01010070 NOSIG

2010/08/10 07:00
UKLL 100700Z 29002MPS 250V350 9999 BKN008 18/17 Q1018 31110360 TEMPO -TSRA BKN020CB

2010/08/10 07:00
UKCC 100700Z 13004MPS 090V170 CAVOK 34/11 Q1013 08090070 NOSIG

2010/08/10 07:00
UKDR 100700Z 36005MPS 320V060 CAVOK 30/18 Q1012 3609//70 NOSIG

2010/08/10 07:00
SARI 100700Z 23005KT CAVOK 12/11 Q1021

2010/08/10 07:00
SADF 100700Z 00000KT 7000 MIFG SKC 04/04 Q1027

2010/08/10 07:00
EIDW 100700Z 24012KT 200V270 9999 -SHRA FEW018 SCT041 BKN050 12/10 Q1007 NOSIG

2010/08/10 07:00
EINN 100700Z 24011KT 9999 FEW024 BKN035 15/11 Q1008 NOSIG

2010/08/10 07:00
EICK 100700Z 33007KT 9999 FEW033 12/08 Q1009 NOSIG

2010/08/10 07:00
EIKN 100700Z 29007KT 9999 FEW010 11/11 Q1007 NOSIG

2010/08/10 06:45
LHDC 100645Z 35002KT 5000 BR FEW004 18/18 Q1018 BECMG 5000 BR SCT008

2010/08/10 06:45
LHKE 100645Z 34001MPS CAVOK 21/16 Q1018 NOSIG RMK BLU

2010/08/10 06:45
LHPA 100645Z 19001MPS CAVOK 20/16 Q1019 NOSIG RMK BLU

2010/08/10 06:45
LHPP 100645Z 12003KT CAVOK 21/16 Q1019

2010/08/10 06:45
LHPR 100645Z 18001KT 9999 FEW040 SCT083 19/15 Q1019

2010/08/10 06:45
LHSM 100645Z 00000KT 5000 BR FEW006 18/17 Q1019 BECMG 1500 BR

2010/08/10 06:45
LHSN 100645Z 30001MPS CAVOK 21/16 Q1018 NOSIG RMK BLU

2010/08/10 06:45
LHUD 100645Z 34003KT CAVOK 22/18 Q1018

2010/08/10 07:00
SAAR 100700Z 18005KT CAVOK 03/02 Q1027

2010/08/10 07:00
SACO 100700Z 29005KT CAVOK 03/M01 Q1027

2010/08/10 07:00
SADF 100700Z 00000KT 7000 MIFG SKC 04/04 Q1027

2010/08/10 07:00
SAME 100700Z 00000KT CAVOK 04/M03 Q1023

2010/08/10 07:00
SANT 100700Z 29003KT 5000 FU NSC 11/06 Q1024

2010/08/10 07:00
SARE 100700Z 18003KT 6000 04/04 Q1023

2010/08/10 07:00
SARF 100700Z 14005KT CAVOK 11/10 Q1022

2010/08/10 07:00
SARI 100700Z 23005KT CAVOK 12/11 Q1021

2010/08/10 07:00
SARP 100700Z 14006KT CAVOK 11/06 Q1021

2010/08/10 07:00
SASA 100700Z 00000KT CAVOK 03/01 Q1024

2010/08/10 07:00
SAVC 100700Z 27015KT CAVOK 06/M03 Q1021

2010/08/10 07:00
SAZS 100700Z 14006KT CAVOK M04/M06 Q1024

2010/08/10 07:01
YBCG 100701Z AUTO 34003KT 9999NDV // BKN013 BKN021 OVC048 18/17 Q1017

2010/08/10 07:00
FMMI 100700Z VRB03KT 9999 FEW020 20/14 Q1027 NOSIG

2010/08/10 07:00
YSSY 100700Z 02017KT 9999 -RA FEW010 BKN014 BKN040 17/15 Q1012 FM0800 02015KT 9000 -RA SCT010 BKN020 BKN040 TEMPO 0700/1000 4000 RA BKN010

2010/08/10 07:00
YBTL 100700Z 01003KT 9000 VCSH FEW005 BKN025 BKN055 23/22 Q1014 INTER 0700/0930 4000 SHRA BKN012 RMK USE TAF FOR ARRIVALS AFTER 0930Z

2010/08/10 07:00
SAZS 100700Z 14006KT CAVOK M04/M06 Q1024

2010/08/10 07:00
FBKE 100700Z 14013KT CAVOK 17/M02 Q1025

2010/08/10 07:00
FBMN 100700Z 14011KT CAVOK 11/M10 Q1028

2010/08/10 07:00
FBSK 100700Z 18010KT CAVOK 09/07 Q1031 NOSIG

2010/08/10 07:00
FABL 100700Z 14015KT CAVOK 04/M05 Q1034 NOSIG

2010/08/10 07:00
FACT 100700Z VRB01KT 9999 FEW035 11/08 Q1037 NOSIG

2010/08/10 07:00
FAEL 100700Z 26011KT 9999 RA BKN033 BKN050 10/08 Q1037

2010/08/10 07:00
FAGG 100700Z 32004KT 9999 FEW023 SCT050 11/09 Q1039

2010/08/10 07:00
FAJS 100700Z 12011KT CAVOK 05/M03 Q1033 NOSIG

2010/08/10 07:00
FAKN 100700Z 25004KT CAVOK 11/M00 Q1033 NOSIG

2010/08/10 07:00
FALA 100700Z 12015KT CAVOK 09/M05 Q1032 NOSIG

2010/08/10 07:00
FALE 100700Z 21015KT 9999 FEW040 16/01 Q1032 NOSIG

2010/08/10 07:00
FAMM 100700Z 13011KT CAVOK 06/M10 Q1032 NOSIG

2010/08/10 07:00
FAPE 100700Z 22010KT 9999 SCT041 13/08 Q1038 NOSIG

2010/08/10 07:00
FAPN 100700Z AUTO 16004KT //// // ////// 09/M11 Q1032

2010/08/10 07:00
FAPP 100700Z 17005KT CAVOK 10/M07 Q1030 NOSIG

2010/08/10 07:00
FAUP 100700Z 11008KT CAVOK 07/M06 Q1036 NOSIG

2010/08/10 07:00
YBTL 100700Z 01003KT 9000 VCSH FEW005 BKN025 BKN055 23/22 Q1014

2010/08/10 07:00
SCAR 100700Z 08006KT CAVOK 11/06 Q1016

2010/08/10 07:00
SCDA 100700Z 00000KT 8000 OVC020 13/09 Q1017

2010/08/10 07:00
SCFA 100700Z 35006KT 9999 OVC019 13/08 Q1017

2010/08/10 07:00
SCAT 100700Z 36006KT 7000 OVC013 10/07 Q1019

2010/08/10 07:00
SCSE 100700Z 00000KT 9999 OVC015 11/08 Q1017 NEFO PLAYA 1500FT

2010/08/10 07:00
SCEL 100700Z 25002KT 5000 HZ NSC 04/01 Q1016 NOSIG

2010/08/10 07:00
SCIE 100700Z 16003KT 9999 05/03 Q1017

2010/08/10 07:00
SCTC 100700Z 00000KT 0100 FG VV/// M00/M00 Q1019

2010/08/10 07:00
SCTE 100700Z 17008KT 9999 BKN006 07/07 Q1023 NOSIG

2010/08/10 07:00
SCBA 100700Z AUTO 27004KT CAVOK M01/M03 Q1022

2010/08/10 07:00
SCCI 100700Z 35004KT 9999 FEW016 SCT100 03/01 Q1005 NOSIG

2010/08/10 06:50
EGPN 100650Z 07003KT 9999 FEW018 SCT025 13/11 Q1004

2010/08/10 07:00
UKLR 100700Z 00000MPS 9999 SCT020 BKN100 22/18 Q1017 30090070 NOSIG

2010/08/10 07:00
UKLI 100700Z 00000MPS CAVOK 21/18 Q1018 28090070 NOSIG

2010/08/10 07:00
UKON 100700Z 03005MPS 340V070 CAVOK 31/17 Q1012 05090075 NOSIG

2010/08/10 07:00
UKCM 100700Z 07004MPS 030V120 CAVOK 34/14 Q1011 02010065 NOSIG

2010/08/10 07:00
UKCW 100700Z 07003MPS 020V100 CAVOK 34/10 Q1014 0909//70 NOSIG

2010/08/10 07:00
UKLU 100700Z 15003MPS 9999 FEW033 22/16 Q1018 10090070 NOSIG

2010/08/10 07:00
UKKK 100700Z VRB01MPS 9999 NSC 27/20 Q1015 26CLRD70 NOSIG

2010/08/10 07:00
UKKM 100700Z 36002MPS CAVOK 24/20 Q1015 33CLRD70 NOSIG

2010/08/10 07:00
UKLN 100700Z 32003MPS 250V010 CAVOK 21/18 Q1017 3309//70 NOSIG

2010/08/10 07:00
FYGF 100700Z 17007KT CAVOK 09/M10 Q1030

2010/08/10 07:00
FYKM 100700Z 00000KT CAVOK 14/01 Q1024

2010/08/10 07:00
FYKT 100700Z 08010KT CAVOK 09/M09 Q1033

2010/08/10 07:00
FYLZ 100700Z AUTO 05024KT //// // ////// 20/M15 Q1021

2010/08/10 07:00
FYML 100700Z AUTO 05002KT //// // ////// ///// Q1036

2010/08/10 07:00
FYOA 100700Z 09009KT CAVOK 16/M06 Q1024

2010/08/10 07:00
FYRU 100700Z 15013KT CAVOK 13/M03 Q1026

2010/08/10 07:00
FYWB 100700Z 09034KT 0650 R09/0200V0600N R27/0600VP1500U VV/// 24/M11 Q1016 

2010/08/10 07:00
FYWH 100700Z AUTO 12006KT //// // ////// 04/M11 Q1034

2010/08/10 07:00
FYWW 100700Z 10009KT CAVOK 05/M15 Q1030

2010/08/10 07:00
YBCS 100700Z 28006KT 8000 VCSH FEW003 SCT025 BKN035 24/23 Q1013

2010/08/10 07:00
YSSY 100700Z 02017KT 9999 -RA FEW010 BKN014 BKN040 17/15 Q1012 FM0800 02015KT 9000 -RA SCT010 BKN020 BKN040 TEMPO 0700/1000 4000 RA BKN010

2010/08/10 07:00
YPXM 100700Z AUTO 07011KT 9999NDV // BKN011 26/23 Q////

2010/08/10 07:00
YPCC 100700Z 10005KT 9999 VCSH SCT025 BKN048 25/20 Q1010

2010/08/10 07:00
LKMT 100700Z 24003KT 200V290 9999 FEW026 18/15 Q1018 NOSIG

2010/08/10 07:00
LKPR 100700Z 11003KT 050V150 CAVOK 19/15 Q1018 NOSIG

2010/08/10 07:00
SKBQ 100700Z 00000KT 9999 -DZ SCT012 SCT070 27/26 A2988

2010/08/10 07:00
YPCC 100700Z 10005KT 9999 VCSH SCT025 BKN048 25/20 Q1010

2010/08/10 07:00
LCLK 100700Z 15007KT 120V190 9000 FEW018 30/26 Q1006 NOSIG

2010/08/10 07:00
LCPH 100700Z 23005KT 180V280 7000 BKN020 31/25 Q1006

2010/08/10 07:00
VHHH 100700Z 17008KT 120V200 9999 FEW025 SCT035 33/25 Q1005 NOSIG

2010/08/10 07:00
RCTP 100700Z 25016KT 9999 FEW025 35/25 Q1005 NOSIG

2010/08/10 07:00
RCKH 100700Z 20007KT 150V260 9999 FEW010 SCT035 BKN100 29/26 Q1007 TEMPO 5000 SHRA

2010/08/10 07:00
RCSS 100700Z 07010KT 040V100 9999 FEW022 BKN030 34/25 Q1005 NOSIG

2010/08/10 07:00
VMMC 100700Z 19009KT 160V260 9999 FEW020 SCT090 31/26 Q1005 NOSIG

2010/08/10 07:00
RPLL 100700Z 28012KT 9000 SCT025 OVC300 30/26 Q1008 NOSIG RMK A2977

2010/08/10 07:00
RPVM 100700Z 11004KT 9999 SCT018CB OVC250 32/27 Q1009 A2980 TS OVHD CB ALQDS

2010/08/10 07:00
RPMD 100700Z 09002 9999 -TS VCRA SCT015CB SCT090 BKN290 31/26 1008 SLT TS E/ DIST PCPN E/CB N-E S-W

2010/08/10 07:00
RPLB 100700Z 22006KT 9999 FEW020 SCT080 BKN300 30/25 Q1009 NOSIG

2010/08/10 07:00
RPLI 100700Z 22010G20KT 9999 FEW019CB FEW020 BKN290 32/27 Q1007 NOSIG

2010/08/10 07:00
RPMZ 100700Z 36004KT 9999 FEW018 SCT120 30/26 Q1010

2010/08/10 07:00
SUMU 100700Z 00000KT 0100 R19/0200 R24/0200 FG VV/// 01/01 Q1027 NOSIG

2010/08/10 07:00
SKBO 100700Z 05003KT 9999 SCT017 SCT080 12/09 A3035 NOSIG

2010/08/10 07:00
SKBQ 100700Z 00000KT 9999 -DZ SCT012 SCT070 27/26 A2988

2010/08/10 07:00
SKCL 100700Z 17003KT 9999 FEW025 BKN090 20/17 A2999

2010/08/10 07:00
SKCG 100700Z 00000KT 9999 FEW015 SCT200 27/26 A2985

2010/08/10 07:00
SKRG 100700Z 00000KT 7000 BKN010 15/14 A3029 RMK HZ

2010/08/10 07:03
KBTV 100703Z 00000KT 1 3/4SM BR FEW004 18/18 A2991

2010/08/10 07:00
SBGR 100700Z 16003KT 9999 OVC023 14/12 Q1024

2010/08/10 07:00
OIBB 100700Z 34006KT CAVOK 37/27 Q0999 A2952 SCT100

2010/08/10 07:00
OICK 100700Z 00000KT CAVOK 37/M03 Q1012 A2990

2010/08/10 07:00
OICS 100700Z 01002KT CAVOK 31/M01 Q1015 A2998 FEW100

2010/08/10 07:00
OINZ 100700Z 05004KT CAVOK 33/20 Q1010 A2983

2010/08/10 07:00
OISR 100700Z 04012KT CAVOK 41/13 Q1004 A2965

2010/08/10 07:00
OITL 100700Z 13004KT 9999 FEW035CB FEW040 SCT080 23/06 Q1018 A3008 3LC

2010/08/10 07:00
RJFG 100700Z 14015KT 9999 FEW004 SCT006 BKN008 27/26 Q1012

2010/08/10 07:00
RJFK 100700Z 13013KT 9999 FEW020 SCT025 BKN/// 29/24 Q1011

2010/08/10 07:00
RJFM 100700Z 15010KT 9999 FEW015 SCT025 BKN035 29/26 Q1012

2010/08/10 07:00
RJFO 100700Z 14019KT 9999 FEW015 SCT160 BKN/// 27/25 Q1011

2010/08/10 07:00
RJFR 100700Z 10024KT 9999 FEW025 SCT150 BKN/// 30/24 Q1008

2010/08/10 07:00
RJFT 100700Z 14007KT 110V190 9999 FEW025 SCT120 BKN/// 33/22 Q1009

2010/08/10 07:00
RJFU 100700Z 15023KT 9999 FEW030 SCT050 BKN/// 32/24 Q1007

2010/08/10 07:00
RJGG 100700Z 15010KT 9999 -SHRA FEW010 SCT020 BKN045 28/25 Q1013 NOSIG

2010/08/10 07:00
RJKA 100700Z 17018KT 9999 FEW015 SCT030 BKN/// 30/27 Q1009

2010/08/10 07:00
RJNT 100700Z 18008KT 9000 SHRA FEW015 SCT030 BKN040 26/25 Q1013

2010/08/10 07:00
RJNW 100700Z VRB02KT 9999 FEW020 BKN070 BKN140 27/24 Q1014

2010/08/10 07:00
RJNS 100700Z 15006KT 9999 VCSH FEW002 SCT015 FEW020CB BKN/// 27/25 Q1015 RETS

2010/08/10 07:00
RJOA 100700Z 20005KT 130V250 9999 FEW020 SCT025 BKN045 30/22 Q1013

2010/08/10 07:00
RJOB 100700Z 15005KT 090V210 9999 FEW025 SCT/// 31/23 Q1013

2010/08/10 07:00
RJOC 100700Z 19003KT 090V260 9999 FEW025 BKN180 34/23 Q1010

2010/08/10 07:00
RJOH 100700Z 06009KT 9999 FEW030 SCT130 BKN170 33/24 Q1010

2010/08/10 07:00
RJOK 100700Z 18009KT 9999 FEW020 FEW030TCU SCT160 30/26 Q1013

2010/08/10 07:00
RJOM 100700Z 34005KT 9999 VCSH FEW020 FEW030TCU SCT130 31/24 Q1011

2010/08/10 07:00
RJOO 100700Z 22008KT 190V260 9999 FEW015 SCT100 BKN/// 30/22 Q1012

2010/08/10 07:00
RJOR 100700Z 16007KT 9999 FEW030 SCT090 BKN120 33/24 Q1011

2010/08/10 07:00
OIAW 100700Z 14004KT 7000 FEW040 BKN100 40/14 Q1000 A2954

2010/08/10 07:00
OIFM 100700Z 25006KT 7000 SKC 30/02 Q1019 A3009

2010/08/10 07:00
OIKB 100700Z 14010KT 6000 SCT025 35/27 Q1002 A2959

2010/08/10 07:00
OIKK 100700Z 26004KT CAVOK 29/00 Q1018 A3008

2010/08/10 07:00
OIMM 100700Z 35012KT CAVOK 33/M02 Q1014 A2997

2010/08/10 07:00
OISS 100700Z 14006KT CAVOK 32/01 Q1015 A3000

2010/08/10 07:00
OITT 100700Z 08014KT 9999 FEW038 FEW040CB 31/07 Q1016 A3001

2010/08/10 07:00
OIZH 100700Z 36012KT 8000 NSC 34/M02 Q1012 A2991

2010/08/10 07:00
RJOT 100700Z 05007KT 9999 FEW020 FEW025CB BKN/// 31/24 Q1012

2010/08/10 07:00
RJOW 100700Z 17017KT 9999 FEW030 BKN130 BKN/// 33/20 Q1010

2010/08/10 07:00
RJOY 100700Z 29008KT 9999 FEW020 FEW030CB BKN100 31/24 Q1012

2010/08/10 07:00
RJSA 100700Z 01006KT 320V030 9999 FEW030 29/23 Q1013

2010/08/10 07:00
RJSC 100700Z 11008KT 9999 FEW035 SCT050 FEW050CB 33/23 Q1012

2010/08/10 07:00
RJSF 100700Z 17007KT 9999 FEW025 BKN/// 30/23 Q1015

2010/08/10 07:00
RJSI 100700Z 19007KT 150V240 9999 FEW030 33/24 Q1012

2010/08/10 07:00
RJSK 100700Z VRB03KT 9999 FEW025 BKN/// 32/23 Q1012

2010/08/10 07:00
RJSR 100700Z 28006KT 9999 FEW035 32/25 Q1012

2010/08/10 07:00
RJSN 100700Z 36006KT 9999 FEW030 FEW035TCU BKN/// 31/25 Q1011

2010/08/10 07:00
RJSS 100700Z 15008KT 9999 FEW025 SCT/// 29/24 Q1013

2010/08/10 07:00
RJSY 100700Z 31004KT 9999 FEW030 SCT/// 31/19 Q1011

2010/08/10 07:00
RJTF 100700Z 20008KT 170V230 9999 FEW025 SCT100 30/23 Q1014

2010/08/10 07:00
RJTH 100700Z 20006KT 150V240 9999 FEW017 SCT160 29/25 Q1015

2010/08/10 07:00
RJTI 100700Z 20010KT 160V240 9999 FEW020 29/23 Q1013

2010/08/10 07:00
RJTO 100700Z 22010KT 9999 FEW015 28/25 Q1014

2010/08/10 07:00
RJTT 100700Z 19013KT 9999 FEW020 30/24 Q1013

2010/08/10 07:00
ROAH 100700Z 20015KT 9999 FEW015 SCT040 BKN150 29/26 Q1008

2010/08/10 07:00
ROIG 100700Z 22009KT 9999 FEW015 BKN200 30/27 Q1008

2010/08/10 07:00
ROMY 100700Z 21009KT 9999 -RA FEW015 BKN150 BKN/// 29/27 Q1008

2010/08/10 07:00
RJAA 100700Z 15009KT 9999 SCT025 FEW025TCU 28/24 Q1014 NOSIG

2010/08/10 07:00
RJAF 100700Z 00000KT 9999 -SHRA FEW005 BKN045 BKN080 24/21 Q1017

2010/08/10 07:00
RJBB 100700Z 23011KT 9999 FEW015 BKN100 BKN140 30/24 Q1012 NOSIG

2010/08/10 07:00
RJBD 100700Z 16006KT 130V190 9999 FEW010 BKN/// 29/26 Q1014

2010/08/10 07:00
RJBE 100700Z 22015KT 9999 FEW020 FEW030CB BKN100 BKN/// 28/24 Q1012

2010/08/10 07:00
RJBH 100700Z 22009KT 9999 FEW030 SCT140 BKN/// 32/21 Q1011

2010/08/10 07:00
RJBT 100700Z 20005KT 170V230 9999 VCSH FEW000 SCT030 BKN100 25/23 Q1013 RETS

2010/08/10 07:00
RJCB 100700Z 15006KT 9999 FEW015 BKN/// 27/23 Q1013

2010/08/10 07:00
RJCC 100700Z 17009KT 9999 FEW004 BKN006 23/21 Q1013

2010/08/10 07:00
RJCH 100700Z 14010KT 9999 FEW003 BKN/// 25/23 Q1013

2010/08/10 07:00
RJCK 100700Z 21007KT 1600 R17/P1800N PRFG BR SCT001 BKN002 21/19 Q1014

2010/08/10 07:00
RJCM 100700Z 16007KT 9999 FEW015 SCT025 FEW030CB BKN090 26/23 Q1012

2010/08/10 07:00
RJCN 100700Z 24007KT 9999 SCT020 BKN/// 25/21 Q1013

2010/08/10 07:00
RJCW 100700Z 21010KT 9999 FEW010 SCT015 BKN045 27/22 Q1011

2010/08/10 07:00
RJDC 100700Z 11022KT 9999 FEW020 BKN140 BKN/// 29/24 Q1009

2010/08/10 07:00
RJDT 100700Z 10010KT 050V130 9999 FEW020 BKN080 BKN/// 29/25 Q1006

2010/08/10 07:00
RJEB 100700Z 05004KT 020V080 9999 FEW030 FEW040CB BKN/// 25/22 Q1012

2010/08/10 07:00
RJEC 100700Z 30003KT 240V330 9999 FEW025 BKN/// 29/22 Q1012

2010/08/10 07:00
RJFS 100700Z 16015KT 9999 FEW035 SCT120 BKN/// 33/24 Q1007

2010/08/10 07:00
RJFF 100700Z 17012G23KT 130V200 9999 FEW020 BKN/// 34/21 Q1006

2010/08/10 07:00
RORS 100700Z 20010KT 9999 VCSH FEW010TCU SCT120 OVC/// 29/27 Q1008

2010/08/10 07:00
RJAH 100700Z 18008KT 9999 FEW020 SCT025 BKN070 29/25 Q1013

2010/08/10 07:00
OIAA 100700Z 18006KT 5000 HZ FEW040 BKN100 39/26 Q0999

2010/08/10 07:00
OIBK 100700Z 12020KT 5000 SA SKC 36/27 Q1000 A2954

2010/08/10 07:00
OICC 100700Z 15010KT CAVOK 36/M05 Q1014 A2997 866.2

2010/08/10 07:00
OIGG 100700Z 33004KT 9999 BKN080 30/19 Q1010 A2985

2010/08/10 07:00
OIIE 100700Z 12010G20KT CAV????????? ??

2010/08/10 07:00
OITR 100700Z 08004KT CAVOK 30/12 Q1015 A2999

2010/08/10 07:00
OIYY 100700Z 29008KT CAVOK 32/M05 Q1016 A3001

2010/08/10 07:00
FBSK 100700Z 18010KT CAVOK 09/07 Q1031 NOSIG

2010/08/10 07:00
FBFT 100700Z 15011KT CAVOK 14/M00 Q1029

2010/08/10 07:00
FBMN 100700Z 14011KT CAVOK 11/M10 Q1028

2010/08/10 07:00
FBKE 100700Z 14013KT CAVOK 17/M02 Q1025

2010/08/10 07:02
KDSM 100702Z 02012KT 1 1/4SM R31/4500VP6000FT +TSRA BR BKN006 OVC016 22/21 A2995

2010/08/10 07:00
ZBAA 100700Z 15002MPS 110V240 7000 NSC 33/20 Q1006 NOSIG

2010/08/10 07:00
ZBSJ 100700Z 08001MPS 8000 NSC 29/23 Q1006 NOSIG

2010/08/10 07:00
ZBTJ 100700Z 15006MPS 4000 HZ NSC 30/22 Q1006 NOSIG

2010/08/10 07:00
ZBYN 100700Z 08007MPS 8000 SCT040 23/18 Q1009 NOSIG

2010/08/10 07:00
ZGGG 100700Z 11002MPS 080V160 7000 FEW040TCU SCT040 36/25 Q1004 NOSIG

2010/08/10 07:00
ZSHC 100700Z 36003MPS 320V050 9999 SCT020 35/23 Q1002 NOSIG

2010/08/10 07:00
ZSPD 100700Z 31009MPS 9999 SCT030 32/25 Q1002 NOSIG

2010/08/10 07:00
ZSSS 100700Z 36007MPS 300V020 9999 BKN033 33/25 Q1002 NOSIG

2010/08/10 07:00
ZWSH 100700Z 16005MPS CAVOK 32/06 Q1009 NOSIG

2010/08/10 07:00
ZWWW 100700Z 32003MPS 270V360 CAVOK 31/08 Q1005 NOSIG

2010/08/10 07:00
ZYTL 100700Z 34002MPS 300V010 8000 SCT010 BKN026 27/21 Q1006 NOSIG

2010/08/10 07:00
ZYTX 100700Z 27002MPS 230V310 7000 FEW030 29/22 Q1006 NOSIG

2010/08/10 07:00
OIAA 100700Z 18006KT 5000 HZ FEW040 BKN100 39/26 Q0999

2010/08/10 07:00
OIBK 100700Z 12020KT 5000 SA SKC 36/27 Q1000 A2954

2010/08/10 07:00
OICC 100700Z 15010KT CAVOK 36/M05 Q1014 A2997 866.2

2010/08/10 07:00
OIGG 100700Z 33004KT 9999 BKN080 30/19 Q1010 A2985

2010/08/10 07:00
OIIE 100700Z 12010G20KT CAVOK 33/01 Q1014 A2996

2010/08/10 07:00
OITR 100700Z 08004KT CAVOK 30/12 Q1015 A2999

2010/08/10 07:00
OIYY 100700Z 29008KT CAVOK 32/M05 Q1016 A3001

2010/08/10 07:00
LFBA 100700Z 00000KT 9999 SCT030 SCT250 16/15 Q1019 NOSIG

2010/08/10 07:00
LFBE 100700Z VRB02KT CAVOK 17/14 Q1019 NOSIG

2010/08/10 07:00
LFGJ 100700Z AUTO 22003KT 150V270 9999NDV NSC 18/15 Q1017

2010/08/10 07:00
LFJR 100700Z AUTO 24005KT 9999NDV SCT006 BKN150 BKN180 16/15 Q1017

2010/08/10 07:00
LFMD 100700Z AUTO VRB02KT 9999NDV BKN038 25/20 Q1015

2010/08/10 07:00
LFMH 100700Z VRB02KT CAVOK 19/14 Q1018 NOSIG

2010/08/10 07:00
LFOT 100700Z AUTO 24007KT 9999NDV NSC 16/13 Q1017

2010/08/10 07:00
LFPN 100700Z VRB03KT CAVOK 18/13 Q1016 NOSIG

2010/08/10 07:00
LFRC 100700Z AUTO 21010KT 2100NDV -RA BR OVC004 17/17 Q1013

2010/08/10 07:00
LFRG 100700Z AUTO 21013KT 9999NDV BKN043 BKN049 16/13 Q1014

2010/08/10 07:00
LFRK 100700Z 16005KT 9999 -RA SCT040 BKN053 16/14 Q1014 NOSIG

2010/08/10 07:00
LFKB 100700Z 00000KT 9999 SCT017 SCT160 25/20 Q1016 NOSIG

2010/08/10 07:00
LFKC 100700Z VRB02KT 9999 FEW020 25/17 Q1016 NOSIG

2010/08/10 07:00
LFKF 100700Z VRB01KT CAVOK 25/17 Q1016 NOSIG

2010/08/10 07:00
LFKJ 100700Z VRB03KT 9999 FEW020 24/16 Q1016 NOSIG

2010/08/10 07:00
LFMP 100700Z 30009KT 9999 FEW060 23/15 Q1017 NOSIG

2010/08/10 07:00
LFMV 100700Z AUTO 18004KT 140V200 9999NDV NSC 22/19 Q1015

2010/08/10 07:00
LFSL 100700Z AUTO VRB02KT 9999NDV BKN023 17/14 Q1019

2010/08/10 07:00
LFLL 100700Z 01006KT CAVOK 20/15 Q1017 NOSIG

2010/08/10 07:00
LFMN 100700Z 03005KT 9999 BKN036 25/19 Q1016 NOSIG

2010/08/10 07:00
LFPG 100700Z 23003KT CAVOK 18/11 Q1016 NOSIG

2010/08/10 07:00
LFPO 100700Z VRB02KT CAVOK 19/14 Q1016 NOSIG

2010/08/10 07:00
LFQQ 100700Z 21008KT 170V230 CAVOK 17/13 Q1014 NOSIG

2010/08/10 07:00
LFRB 100700Z 25010KT 3500 RA BKN005 17/17 Q1014 NOSIG

2010/08/10 07:00
LFRS 100700Z 21005KT 9999 FEW029 SCT150 BKN230 17/17 Q1017 NOSIG

2010/08/10 07:00
LFBD 100700Z 15003KT CAVOK 16/14 Q1019 NOSIG

2010/08/10 07:00
LFBH 100700Z AUTO 17003KT 140V210 9999NDV BKN020 BKN030 19/16 Q1018

2010/08/10 07:00
LFBI 100700Z 25007KT 9999 BKN004 15/14 Q1018 BECMG BKN005

2010/08/10 07:00
LFBL 100700Z 30006KT 9999 SCT021 BKN300 15/11 Q1019 NOSIG

2010/08/10 07:00
LFBO 100700Z VRB02KT CAVOK 18/14 Q1019 NOSIG

2010/08/10 07:00
LFBP 100700Z VRB02KT 9999 FEW013 18/16 Q1018 NOSIG

2010/08/10 07:00
LFBT 100700Z VRB03KT 9999 SCT014 SCT022 17/15 Q1019 TEMPO BKN008

2010/08/10 07:00
LFBZ 100700Z 13004KT 090V150 CAVOK 17/16 Q1018 NOSIG

2010/08/10 07:00
LFLB 100700Z VRB02KT 9999 FEW080 21/16 Q1017 NOSIG

2010/08/10 07:00
LFLX 100700Z 25010KT CAVOK 18/12 Q1017 NOSIG

2010/08/10 07:00
LFML 100700Z 27002KT 9999 FEW013 23/20 Q1015 NOSIG

2010/08/10 07:00
LPFR 100700Z VRB03KT CAVOK 26/17 Q1015

2010/08/10 07:00
LPMA 100700Z VRB01KT 9999 BKN015 22/19 Q1016 RS34001KT 0518001KT 2324002KT

2010/08/10 07:00
LPPR 100700Z 00000KT 7000 FEW090 23/16 Q1016

2010/08/10 07:00
LPPS 100700Z 35005KT 9000 SCT011 22/19 Q1016

2010/08/10 07:00
LPPT 100700Z 00000KT CAVOK 28/17 Q1016 NOSIG

2010/08/10 07:00
LCLK 100700Z 15007KT 120V190 9000 FEW018 30/26 Q1006 NOSIG

2010/08/10 07:00
LCPH 100700Z 23005KT 180V280 7000 BKN020 31/25 Q1006

2010/08/10 07:00
LFMI 100700Z AUTO VRB02KT 9999NDV NSC 23/18 Q1015

2010/08/10 07:00
LFMK 100700Z 27007KT 240V310 9999 SCT040 20/15 Q1018 NOSIG

2010/08/10 07:00
LFRD 100700Z AUTO 21009KT 9999NDV -RA FEW007 SCT031 BKN038 17/17 Q1014

2010/08/10 07:00
LFRN 100700Z AUTO 21008KT 9999NDV -RA SCT009 OVC043 17/16 Q1016

2010/08/10 07:00
LFRO 100700Z AUTO 22007KT 3000NDV -RA BR BKN004 OVC009 17/17 Q1014

2010/08/10 07:00
LFRZ 100700Z AUTO 21008KT 9999NDV FEW016 OVC028 19/16 Q1017

2010/08/10 07:00
LFSB 100700Z 13005KT 070V180 CAVOK 19/14 Q1017 NOSIG

2010/08/10 07:00
LFST 100700Z 17005KT 9999 FEW050 SCT083 17/14 Q1017 NOSIG

2010/08/10 07:00
LFTH 100700Z VRB03KT 8000 SCT016 25/20 Q1015 NOSIG

2010/08/10 07:00
LRBS 100700Z 32005KT 270V360 CAVOK 27/20 Q1014 NOSIG

2010/08/10 07:00
LRCK 100700Z 34004KT 270V040 CAVOK 29/19 Q1012 NOSIG

2010/08/10 07:00
LROP 100700Z 28006KT 260V320 CAVOK 27/20 Q1014 880///95 NOSIG

2010/08/10 07:00
LRSB 100700Z 34004KT 320V020 9999 ?SCT033 BKN086 21/17 Q1018

2010/08/10 07:00
LRTR 100700Z 34006KT 310V010 CAVOK 23/18 Q1017 NOSIG

2010/08/10 07:00
RKSI 100700Z 18005KT 150V210 9999 BKN025 BKN100 31/25 Q1006 TEMPO 4000 SHRA

2010/08/10 07:00
RKSS 100700Z 31004KT 220V010 9999 BKN025 OVC100 26/24 Q1006 TEMPO 4200 RA 

2010/08/10 07:00
RKPC 100700Z 11016KT 080V140 4000 -RA BR FEW008 BKN030 OVC070 28/25 Q0997 NOSIG 

2010/08/10 07:00
RKPK 100700Z 10008KT 9999 BKN050 29/23 Q1008 NOSIG 

2010/08/10 07:00
RKTU 100700Z 14004KT 4000 -RA FEW015CB BKN020 OVC030 26/24 Q1008 BECMG 2500 

2010/08/10 07:00
RKTN 100700Z 10007KT 9000 -RA FEW010 BKN020 OVC030 30/25 Q1007 NOSIG

2010/08/10 07:00
RKJB 100700Z 07007KT 040V110 5000 -RA BR FEW010 BKN030 OVC070 27/25 Q1003 NOSIG 

2010/08/10 07:00
RKNY 100700Z 11003KT 080V140 6000 -RA SCT030 OVC100 25/23 Q1008 NOSIG 

2010/08/10 07:00
LKMT 100700Z 24003KT 200V290 9999 FEW026 18/15 Q1018 NOSIG

2010/08/10 07:00
LKPR 100700Z 11003KT 050V150 CAVOK 19/15 Q1018 NOSIG

2010/08/10 07:00
MGGT 100700Z 36005KT 9999 FEW006 BKN012 19/19 Q1024 A3024 SCT080 MTN E/W CUB/CL VOL/ PACAYA EN ACTIVIDAD NOSIG

2010/08/10 07:00
MHLC 100700Z 00000KT 9999 SCT024 26/24 Q1011 A2987 NOSIG

2010/08/10 07:00
MKJS 100700Z 00000KT 9999 FEW024 BKN220 27/24 Q1012

2010/08/10 06:45
MMAA 100645Z 07006KT 5SM -RA SCT010CB BKN050 OVC070 27/25 A2986 RMK 60185 8/96/ LTGIC S

2010/08/10 06:45
MMQT 100645Z 03005KT 6SM SCT020 BKN120 OVC250 18/14 A3028 RMK 8/432

2010/08/10 06:45
MMTO 100645Z 20003KT 5SM SCT015 BKN070 BKN200 14/12 A3040 RMK 8/572 HZ

2010/08/10 07:00
MROC 100700Z 00000KT 9999 FEW007 BKN013 21/21 A3003 RMK BR ARND NOSIG

2010/08/10 07:00
NTAA 100700Z 01003KT 330V040 9999 FEW020 23/16 Q1017 WS ALL RWY NOSIG

2010/08/10 07:00
NWWW 100700Z AUTO 06005KT 350V100 9999NDV BKN052/// 22/13 Q1022

2010/08/10 06:58
PAGA 100658Z AUTO 13006KT 10SM BKN030 OVC037 15/11 A2955 RMK AO2 SLPNO T01500106

2010/08/10 07:00
RCKH 100700Z 20007KT 150V260 9999 FEW010 SCT035 BKN100 29/26 Q1007 TEMPO 5000 SHRA

2010/08/10 07:00
RCTP 100700Z 25016KT 9999 FEW025 35/25 Q1005 NOSIG

2010/08/10 07:00
RKSS 100700Z 31004KT 220V010 9999 BKN025 OVC100 26/24 Q1006 TEMPO 4200 RA

2010/08/10 07:00
SOCA 100700Z 00000KT 9999 FEW003 SCT130 23/22 Q1012 NOSIG

2010/08/10 07:00
SVMG 100700Z 11003KT 9999 FEW010 BKN080 27/25 Q1013 NOSIG

2010/08/10 07:00
TBPB 100700Z 14007KT 9999 FEW022 SCT280 27/24 Q1013 NOSIG

2010/08/10 07:00
TFFF 100700Z AUTO VRB01KT 9999NDV FEW011/// SCT020/// BKN040/// 25/24 Q1012

2010/08/10 07:00
TTCP 100700Z 15008KT 9999 FEW016 SCT300 28/23 Q1013 NOSIG

2010/08/10 07:00
TTPP 100700Z ///05KT 9999 FEW018 BKN280 24/23 Q1012 NOSIG

2010/08/10 07:00
VHHH 100700Z 17008KT 120V200 9999 FEW025 SCT035 33/25 Q1005 NOSIG

2010/08/10 07:00
LFAQ 100700Z AUTO 18006KT 9999NDV NSC 16/12 Q1015

2010/08/10 07:00
LFBU 100700Z AUTO VRB03KT 9999NDV FEW013 16/13 Q1019

2010/08/10 07:00
LFLN 100700Z AUTO VRB02KT 9999NDV NSC 19/16 Q1018

2010/08/10 07:00
LFPM 100700Z 00000KT CAVOK 19/12 Q1016

2010/08/10 07:00
LFRH 100700Z 24014KT 5000 -RA BKN003 OVC008 18/17 Q1016

2010/08/10 07:00
LFRQ 100700Z 26010KT 5000 BKN003 17/17 Q1015 NOSIG

2010/08/10 07:00
LFRT 100700Z 23007KT 190V260 4000 -RA BR SCT013 OVC022 17/17 Q1014

2010/08/10 07:00
LFSD 100700Z AUTO 00000KT 9999NDV NSC 17/13 Q1017

2010/08/10 07:00
LFTW 100700Z AUTO 33004KT 300V360 9999NDV NSC 24/15 Q1016

2010/08/10 07:00
BIAR 100700Z 14005KT 9999 OVC011 09/08 Q1014

2010/08/10 07:00
BIEG 100700Z 04006KT 0600 R040750 FG VV002 07/07 Q1013

2010/08/10 07:00
BIKF 100700Z 31006KT 9999 BKN022 12/07 Q1014

2010/08/10 07:00
BIRK 100700Z 30002KT 9999 OVC020 12/07 Q1013

2010/08/10 06:55
FJDG 100655Z 16012G21KT 9999 FEW020 SCT070 BKN220 28/24 A2984 RMK SLP102 T02810239

2010/08/10 06:55
KHUA 100655Z AUTO RMK AO2 SLPNO PWINO PNO TSNO $

2010/08/10 07:00
KNEL 100700Z AUTO 22005KT 7SM CLR 23/20 A2993 RMK AO2 SLP134 T02330200 $

2010/08/10 06:59
KNGU 100659Z 20004KT 10SM CLR 27/23 A2999 RMK AO2 SLP155 T02670233

2010/08/10 06:56
KNLC 100656Z 32008KT 10SM CLR 22/13 A2982 RMK AO2 SLP096 RH/53 T02220128

2010/08/10 07:00
LEMO 100700Z 15002KT CAVOK 27/14 Q1016 NOSIG

2010/08/10 07:00
LKKV 100700Z VRB01KT CAVOK 17/13 Q1019

2010/08/10 07:00
MHLC 100700Z 00000KT 9999 SCT024 26/24 Q1011 A2987 NOSIG

2010/08/10 07:00
MHLM 100700Z 00000KT 9999 SCT026 27/27 Q1011 A2986 NOSIG

2010/08/10 07:00
MHTG 100700Z 23003KT 9999 FEW026 BKN080 19/18 Q1017 A3003 NOSIG

2010/08/10 07:00
MKJS 100700Z 00000KT 9999 FEW024 BKN220 27/24 Q1012

2010/08/10 07:00
ORSU 100700Z 04005KT CAVOK 39/08 Q1010

2010/08/10 07:00
RJAW 100700Z 12007KT 9999 FEW015 28/23 Q1013 RMK 1CU015 A2992

2010/08/10 07:00
RJSM 100700Z 09004KT 050V140 3000 -DZ BR FEW000 SCT001 BKN002 23/22 Q1013 RMK 1ST000 3ST001 5ST002 A2992 VIS NE 2500M FCST 0713 BECMG 0707 1500 -DZ BR SCT000ST BKN001ST TEMPO 0712 0800 -DZ FG BKN000ST OVC001ST TEMPO 1213 0400 -DZ FG VV000

2010/08/10 07:00
SCON 100700Z AUTO VRB02KT CAVOK 02/01 Q1024

2010/08/10 07:00
SCSE 100700Z 00000KT 9999 OVC015 11/08 Q1017 NEFO PLAYA 1500FT

2010/08/10 07:00
TBPB 100700Z 14007KT 9999 FEW022 SCT280 27/24 Q1013 NOSIG

2010/08/10 07:00
TTCP 100700Z 15008KT 9999 FEW016 SCT300 28/23 Q1013 NOSIG

2010/08/10 07:00
TTPP 100700Z ///05KT 9999 FEW018 BKN280 24/23 Q1012 NOSIG

2010/08/10 07:00
WSAP 100700Z 13007KT 9999 FEW020TCU SCT280 31/25 Q1007

2010/08/10 07:00
LFCR 100700Z AUTO VRB01KT 9999NDV NSC 18/14 Q1020

2010/08/10 07:00
LFJL 100700Z AUTO 19004KT 150V230 9999NDV NSC 19/12 Q1017

2010/08/10 07:00
LFLP 100700Z AUTO VRB02KT 9999NDV FEW066 SCT082 21/14 Q1018

2010/08/10 07:00
LFLS 100700Z 01004KT CAVOK 20/14 Q1017 NOSIG

2010/08/10 07:00
LFLY 100700Z 05004KT 360V070 CAVOK 22/15 Q1017 NOSIG

2010/08/10 07:00
LFMT 100700Z 27004KT CAVOK 24/14 Q1015 NOSIG

2010/08/10 07:00
LFMU 100700Z AUTO 26007KT 220V280 9999NDV NSC 22/15 Q1016

2010/08/10 07:00
LFOB 100700Z 16003KT CAVOK 16/12 Q1015 NOSIG

2010/08/10 07:00
LFOH 100700Z AUTO 19012KT 160V220 9999NDV FEW017 BKN040 OVC054 17/13 Q1014

2010/08/10 07:00
LFOK 100700Z AUTO 21008KT 9999NDV NSC 18/12 Q1016

2010/08/10 07:00
LFOP 100700Z 18006KT CAVOK 14/11 Q1015 BECMG 8000 -RA BKN030 OVC090

2010/08/10 07:00
LFPB 100700Z 00000KT CAVOK 18/13 Q1016 NOSIG

2010/08/10 07:00
LFSN 100700Z 00000KT CAVOK 19/13 Q1017 NOSIG

2010/08/10 07:02
KBBW 100702Z AUTO 30012G25KT 1 1/4SM +TSRA BR OVC009 19/18 A2996

2010/08/10 07:00
YWLM 100700Z 05009KT 9999 FEW007 BKN070 BKN120 16/15 Q1013 INTER 0700/1000 4000 RA SCT007 BKN010 FM0700 MOD TURB BLW 5000FT

2010/08/10 07:00
YWLM 100700Z 05009KT 9999 FEW007 BKN070 BKN120 16/15 Q1013 INTER 0700/1000 4000 RA SCT007 BKN010 FM0700 MOD TURB BLW 5000FT

2010/08/10 07:00
YWLM 100700Z 05009KT 9999 FEW007 BKN070 BKN120 16/15 Q1013 INTER 0700/1000 4000 RA SCT007 BKN010 FM0700 MOD TURB BLW 5000FT

2010/08/10 07:00
LEAS 100700Z VRB02KT 9999 SCT025 19/18 Q1018 NOSIG

2010/08/10 07:00
LEBB 100700Z 13005KT CAVOK 17/15 Q1018 NOSIG

2010/08/10 07:00
LECO 100700Z VRB01KT 9999 R22/0500V0900U R04/0300V0650N MIFG NSC 14/14 Q1018

2010/08/10 07:00
LEGE 100700Z 24002KT 9999 FEW010 SCT021 20/18 Q1017

2010/08/10 07:00
LEST 100700Z 00000KT CAVOK 12/11 Q1019 NOSIG

2010/08/10 07:00
LEZG 100700Z 29008KT 9999 FEW040TCU SCT080 20/13 Q1018

2010/08/10 07:00
LESO 100700Z 16004KT 120V190 CAVOK 18/15 Q1018

2010/08/10 07:00
LEVT 100700Z 00000KT 0400 R04/0900N R22/0750N FG VV001 13/13 Q1019

2010/08/10 07:00
LERS 100700Z 03004KT 9999 FEW015 SCT025 24/19 Q1017

2010/08/10 07:00
LEMH 100700Z 05006KT 9999 FEW025 25/21 Q1017

2010/08/10 07:00
LEAM 100700Z VRB01KT CAVOK 25/21 Q1016

2010/08/10 07:00
LEGR 100700Z 00000KT 9999 FEW100 24/13 Q1019

2010/08/10 07:00
GCLP 100700Z VRB01KT 9999 FEW020 21/18 Q1015 NOSIG

2010/08/10 07:00
GCXO 100700Z 28008KT 0200 R30/1300VP2000N R12/0275V0800U FG OVC000 17/17 Q1017 NOSIG

2010/08/10 07:00
GCTS 100700Z VRB01KT 9999 FEW025 SCT100 22/19 Q1015 NOSIG

2010/08/10 07:00
GCRR 100700Z 12007KT 9999 FEW018 24/21 Q1014

2010/08/10 07:00
GCFV 100700Z 29009KT 280V340 9999 SCT020 23/19 Q1014

2010/08/10 07:00
YWLM 100700Z 05009KT 9999 FEW007 BKN070 BKN120 16/15 Q1013 INTER 0700/1000 4000 RA SCT007 BKN010 FM0700 MOD TURB BLW 5000FT

2010/08/10 07:03
KBTV 100703Z 00000KT 1 3/4SM BR FEW004 18/18 A2991

2010/08/10 07:00
YWLM 100700Z 05009KT 9999 FEW007 BKN070 BKN120 16/15 Q1013 INTER 0700/1000 4000 RA SCT007 BKN010 FM0700 MOD TURB BLW 5000FT

2010/08/10 07:00
ZGKL 100700Z 20003MPS 120V260 8000 SCT043 36/22 Q1004 NOSIG

2010/08/10 07:00
ZGNN 100700Z 15003MPS 9999 SCT026 FEW030CB 31/25 Q1003 TEMPO 3000 TSRA SCT020 FEW026CB

2010/08/10 07:00
ZGOW 100700Z 16006MPS 9999 FEW020 33/26 Q1005 NOSIG

2010/08/10 07:00
ZGSZ 100700Z 19006MPS 160V220 9999 FEW022 33/24 Q1005 NOSIG

2010/08/10 07:00
ZLXY 100700Z 05004MPS 010V090 5000 HZ NSC 35/24 Q1002 NOSIG

2010/08/10 07:00
ZMUB 100700Z 26004MPS 220V310 9999 FEW030CB SCT033 26/03 Q1005 NOSIG RMK QFE647.5 23

2010/08/10 07:00
ZPPP 100700Z 21004MPS 160V260 9999 FEW026TCU SCT026 28/15 Q1015 NOSIG

2010/08/10 07:00
ZSAM 100700Z 18006MPS 9999 FEW023 35/22 Q1004 NOSIG

2010/08/10 07:00
ZSFZ 100700Z 19011MPS CAVOK 34/26 Q1003 NOSIG

2010/08/10 07:00
ZSNB 100700Z 33004MPS 280V020 9999 FEW040 35/24 Q1002 NOSIG

2010/08/10 07:00
ZSQD 100700Z 09002MPS 050V160 9999 SCT030 33/21 Q1004 NOSIG

2010/08/10 07:00
ZUUU 100700Z VRB02MPS 5000 HZ FEW030TCU SCT030 35/25 Q1002 NOSIG

2010/08/10 07:00
YWLM 100700Z 05009KT 9999 FEW007 BKN070 BKN120 16/15 Q1013 INTER 0700/1000 4000 RA SCT007 BKN010 FM0700 MOD TURB BLW 5000FT

2010/08/10 06:55
KLUF 100655Z AUTO 00000KT 10SM CLR 31/13 A2981 RMK AO2 SLP063 T03130127 403870234 $

2010/08/10 06:56
KNBC 100656Z AUTO 00000KT 10SM CLR 27/24 A2999 RMK AO2 SLP156 T02720244 $

2010/08/10 06:57
KNJM 100657Z AUTO 22006KT 10SM CLR 27/25 A3002 RMK AO2 SLP169 T02720250

2010/08/10 06:56
KNRS 100656Z AUTO 00000KT 10SM CLR 14/13 A2993 RMK AO2 SLP133 T01390128 TSNO

2010/08/10 07:00
LFBL 100700Z 30006KT 9999 SCT021 BKN300 15/11 Q1019 NOSIG

2010/08/10 07:00
LFBO 100700Z VRB02KT CAVOK 18/14 Q1019 NOSIG

2010/08/10 07:00
LFBP 100700Z VRB02KT 9999 FEW013 18/16 Q1018 NOSIG

2010/08/10 07:00
LFBT 100700Z VRB03KT 9999 SCT014 SCT022 17/15 Q1019 TEMPO BKN008

2010/08/10 07:00
LFBZ 100700Z 13004KT 090V150 CAVOK 17/16 Q1018 NOSIG

2010/08/10 07:00
LFCR 100700Z AUTO VRB01KT 9999NDV NSC 18/14 Q1020

2010/08/10 07:00
LFJL 100700Z AUTO 19004KT 150V230 9999NDV NSC 19/12 Q1017

2010/08/10 07:00
LFLS 100700Z 01004KT CAVOK 20/14 Q1017 NOSIG

2010/08/10 07:00
LFLX 100700Z 25010KT CAVOK 18/12 Q1017 NOSIG

2010/08/10 07:00
LFLY 100700Z 05004KT 360V070 CAVOK 22/15 Q1017 NOSIG

2010/08/10 07:00
LFMK 100700Z 27007KT 240V310 9999 SCT040 20/15 Q1018 NOSIG

2010/08/10 07:00
LFOB 100700Z 16003KT CAVOK 16/12 Q1015 NOSIG

2010/08/10 07:00
LFOH 100700Z AUTO 19012KT 160V220 9999NDV FEW017 BKN040 OVC054 17/13 Q1014

2010/08/10 07:00
LFOP 100700Z 18006KT CAVOK 14/11 Q1015 BECMG 8000 -RA BKN030 OVC090

2010/08/10 07:00
LFRD 100700Z AUTO 21009KT 9999NDV -RA FEW007 SCT031 BKN038 17/17 Q1014

2010/08/10 07:00
LFRN 100700Z AUTO 21008KT 9999NDV -RA SCT009 OVC043 17/16 Q1016

2010/08/10 07:00
LFRO 100700Z AUTO 22007KT 3000NDV -RA BR BKN004 OVC009 17/17 Q1014

2010/08/10 07:00
LFSB 100700Z 13005KT 070V180 CAVOK 19/14 Q1017 NOSIG

2010/08/10 07:00
LFSN 100700Z 00000KT CAVOK 19/13 Q1017 NOSIG

2010/08/10 07:00
LFST 100700Z 17005KT 9999 FEW050 SCT083 17/14 Q1017 NOSIG

2010/08/10 07:00
LFTH 100700Z VRB03KT 8000 SCT016 25/20 Q1015 NOSIG

2010/08/10 07:00
LRBS 100700Z 32005KT 270V360 CAVOK 27/20 Q1014 NOSIG

2010/08/10 07:00
LRCK 100700Z 34004KT 270V040 CAVOK 29/19 Q1012 NOSIG

2010/08/10 07:00
LROP 100700Z 28006KT 260V320 CAVOK 27/20 Q1014 880///95 NOSIG

2010/08/10 07:00
LRSB 100700Z 34004KT 320V020 9999 /SCT033 BKN086 21/17 Q1018

2010/08/10 07:00
LRTR 100700Z 34006KT 310V010 CAVOK 23/18 Q1017 NOSIG

2010/08/10 07:00
LFBC 100700Z AUTO 00000KT 9999NDV NSC 15/14 Q1019

2010/08/10 07:00
LFBF 100700Z AUTO VRB02KT 9999NDV // BKN033 19/15 Q1019

2010/08/10 07:00
LFBG 100700Z AUTO 00000KT 9999NDV OVC020 15/14 Q1019

2010/08/10 07:00
LFBM 100700Z 08002KT 0200 R27///// FG VV/// 13/12 Q1019

2010/08/10 07:00
LFCR 100700Z AUTO VRB01KT 9999NDV NSC 18/14 Q1020

2010/08/10 07:00
LFJL 100700Z AUTO 19004KT 150V230 9999NDV NSC 19/12 Q1017

2010/08/10 07:00
LFKS 100700Z AUTO VRB02KT 9999NDV FEW019 OVC031 27/19 Q1016

2010/08/10 07:00
LFLS 100700Z 01004KT CAVOK 20/14 Q1017 NOSIG

2010/08/10 07:00
LFMI 100700Z AUTO VRB02KT 9999NDV NSC 23/18 Q1015

2010/08/10 07:00
LFMO 100700Z AUTO 00000KT 9999NDV NSC 23/17 Q1015

2010/08/10 07:00
LFMT 100700Z 27004KT CAVOK 24/14 Q1015 NOSIG

2010/08/10 07:00
LFMU 100700Z AUTO 26007KT 220V280 9999NDV NSC 22/15 Q1016

2010/08/10 07:00
LFMY 100700Z 00000KT 9000 NSC 22/18 Q1016

2010/08/10 07:00
LFOA 100700Z AUTO 26008KT 9999NDV NSC 18/12 Q1017

2010/08/10 07:00
LFOB 100700Z 16003KT CAVOK 16/12 Q1015 NOSIG

2010/08/10 07:00
LFOC 100700Z AUTO 23005KT 9999NDV NSC 17/12 Q1017

2010/08/10 07:00
LFOE 100700Z AUTO 18005KT 9999NDV NSC 16/11 Q1015

2010/08/10 07:00
LFOJ 100700Z 21005KT CAVOK 16/13 Q1016

2010/08/10 07:00
LFOP 100700Z 18006KT CAVOK 14/11 Q1015 BECMG 8000 -RA BKN030 OVC090

2010/08/10 07:00
LFPB 100700Z 00000KT CAVOK 18/13 Q1016 NOSIG

2010/08/10 07:00
LFPV 100700Z AUTO 22003KT 9999NDV NSC 18/12 Q1016

2010/08/10 07:00
LFQI 100700Z 20008KT CAVOK 17/13 Q1015

2010/08/10 07:00
LFSD 100700Z AUTO 00000KT 9999NDV NSC 17/13 Q1017

2010/08/10 07:00
LFSI 100700Z AUTO 14003KT 110V170 9999NDV NSC 20/13 Q1016

2010/08/10 07:00
LFSN 100700Z 00000KT CAVOK 19/13 Q1017 NOSIG

2010/08/10 07:00
LFSO 100700Z VRB02KT CAVOK 20/13 Q1017

2010/08/10 07:00
LFSR 100700Z AUTO VRB03KT 9999NDV NSC 17/14 Q1015

2010/08/10 07:00
LFSX 100700Z AUTO 10005KT 9999NDV NSC 18/14 Q1017

2010/08/10 07:00
LFYR 100700Z 22005KT 190V250 CAVOK 17/12 Q1017

2010/08/10 07:00
LEBA 100700Z VRB02KT CAVOK 28/13 Q1016

2010/08/10 07:00
LEMH 100700Z 05006KT 9999 FEW025 25/21 Q1017

2010/08/10 07:00
LEPP 100700Z 00000KT 9999 FEW010 15/13 Q1019

2010/08/10 07:00
LEST 100700Z 00000KT CAVOK 12/11 Q1019 NOSIG

2010/08/10 07:00
LEXJ 100700Z VRB02KT 9999 FEW030 17/15 Q1018

2010/08/10 07:00
LFBC 100700Z AUTO 00000KT 9999NDV NSC 15/14 Q1019

2010/08/10 07:00
LFBF 100700Z AUTO VRB02KT 9999NDV // BKN033 19/15 Q1019

2010/08/10 07:00
LFBG 100700Z AUTO 00000KT 9999NDV OVC020 15/14 Q1019

2010/08/10 07:00
LFBM 100700Z 08002KT 0200 R27///// FG VV/// 13/12 Q1019

2010/08/10 07:00
LFKS 100700Z AUTO VRB02KT 9999NDV FEW019 OVC031 27/19 Q1016

2010/08/10 07:00
LFMI 100700Z AUTO VRB02KT 9999NDV NSC 23/18 Q1015

2010/08/10 07:00
LFMO 100700Z AUTO 00000KT 9999NDV NSC 23/17 Q1015

2010/08/10 07:00
LFMT 100700Z 27004KT CAVOK 24/14 Q1015 NOSIG

2010/08/10 07:00
LFMU 100700Z AUTO 26007KT 220V280 9999NDV NSC 22/15 Q1016

2010/08/10 07:00
LFMY 100700Z 00000KT 9000 NSC 22/18 Q1016

2010/08/10 07:00
LFOA 100700Z AUTO 26008KT 9999NDV NSC 18/12 Q1017

2010/08/10 07:00
LFOC 100700Z AUTO 23005KT 9999NDV NSC 17/12 Q1017

2010/08/10 07:00
LFOE 100700Z AUTO 18005KT 9999NDV NSC 16/11 Q1015

2010/08/10 07:00
LFOJ 100700Z 21005KT CAVOK 16/13 Q1016

2010/08/10 07:00
LFPB 100700Z 00000KT CAVOK 18/13 Q1016 NOSIG

2010/08/10 07:00
LFPV 100700Z AUTO 22003KT 9999NDV NSC 18/12 Q1016

2010/08/10 07:00
LFQI 100700Z 20008KT CAVOK 17/13 Q1015

2010/08/10 07:00
LFSD 100700Z AUTO 00000KT 9999NDV NSC 17/13 Q1017

2010/08/10 07:00
LFSI 100700Z AUTO 14003KT 110V170 9999NDV NSC 20/13 Q1016

2010/08/10 07:00
LFSO 100700Z VRB02KT CAVOK 20/13 Q1017

2010/08/10 07:00
LFSR 100700Z AUTO VRB03KT 9999NDV NSC 17/14 Q1015

2010/08/10 07:00
LFSX 100700Z AUTO 10005KT 9999NDV NSC 18/14 Q1017

2010/08/10 07:00
LFYR 100700Z 22005KT 190V250 CAVOK 17/12 Q1017

2010/08/10 07:00
LKMT 100700Z 24003KT 200V290 9999 FEW026 18/15 Q1018 NOSIG

2010/08/10 07:00
LKPR 100700Z 11003KT 050V150 CAVOK 19/15 Q1018 NOSIG

2010/08/10 07:00
KNEL 100700Z AUTO 22005KT 7SM CLR 23/20 A2993 RMK AO2 SLP134 T02330200 $

2010/08/10 06:59
KNGU 100659Z 20004KT 10SM CLR 27/23 A2999 RMK AO2 SLP155 T02670233

2010/08/10 06:56
KNID 100656Z AUTO 16009KT CLR 26/06 A2984 RMK AO2 SLP083 T02560061 TSNO $

2010/08/10 06:56
KNLC 100656Z 32008KT 10SM CLR 22/13 A2982 RMK AO2 SLP096 RH/53 T02220128

2010/08/10 06:56
KNTD 100656Z AUTO 31004KT 10SM OVC007 15/14 A2990 RMK AO2 SLP127 T01500139 TSNO $

2010/08/10 06:56
KNTU 100656Z 23003KT 10SM FEW200 24/23 A2997 RMK AO2 SLP151 T02390228 $

2010/08/10 06:56
KNUW 100656Z 23007KT 8SM FEW008 BKN012 OVC045 14/12 A2996 RMK AO2 SLP148 T01430116 $

2010/08/10 06:56
KOSC 100656Z AUTO 00000KT BKN001 OVC010 21/19 A2994 RMK AO2 PWINO

2010/08/10 06:55
KTBN 100655Z AUTO 18004KT 10SM CLR 26/23 A2996 RMK AO2 SLP118 T02580228 $

2010/08/10 07:02
KDSM 100702Z 02012KT 1 1/4SM R31/4500VP6000FT +TSRA BR BKN006 OVC016 22/21 A2995

2010/08/10 07:00
AYMO 100700Z AUTO 17004KT //// // ////// 29/23 Q1009

2010/08/10 07:00
AYPY 100700Z 24002KT 9999 SCT018 SCT140 OVC300 27/25 Q1009 RMKS

2010/08/10 07:00
LFBD 100700Z 15003KT CAVOK 16/14 Q1019 NOSIG

2010/08/10 07:00
LFBI 100700Z 25007KT 9999 BKN004 15/14 Q1018 BECMG BKN005

2010/08/10 07:00
LFBL 100700Z 30006KT 9999 SCT021 BKN300 15/11 Q1019 NOSIG

2010/08/10 07:00
LFBO 100700Z VRB02KT CAVOK 18/14 Q1019 NOSIG

2010/08/10 07:00
LFBP 100700Z VRB02KT 9999 FEW013 18/16 Q1018 NOSIG

2010/08/10 07:00
LFBT 100700Z VRB03KT 9999 SCT014 SCT022 17/15 Q1019 TEMPO BKN008

2010/08/10 07:00
LFBZ 100700Z 13004KT 090V150 CAVOK 17/16 Q1018 NOSIG

2010/08/10 07:00
LFKB 100700Z 00000KT 9999 SCT017 SCT160 25/20 Q1016 NOSIG

2010/08/10 07:00
LFKC 100700Z VRB02KT 9999 FEW020 25/17 Q1016 NOSIG

2010/08/10 07:00
LFKF 100700Z VRB01KT CAVOK 25/17 Q1016 NOSIG

2010/08/10 07:00
LFKJ 100700Z VRB03KT 9999 FEW020 24/16 Q1016 NOSIG

2010/08/10 07:00
LFLB 100700Z VRB02KT 9999 FEW080 21/16 Q1017 NOSIG

2010/08/10 07:00
LFLX 100700Z 25010KT CAVOK 18/12 Q1017 NOSIG

2010/08/10 07:00
LFLY 100700Z 05004KT 360V070 CAVOK 22/15 Q1017 NOSIG

2010/08/10 07:00
LFMK 100700Z 27007KT 240V310 9999 SCT040 20/15 Q1018 NOSIG

2010/08/10 07:00
LFML 100700Z 27002KT 9999 FEW013 23/20 Q1015 NOSIG

2010/08/10 07:00
LFMP 100700Z 30009KT 9999 FEW060 23/15 Q1017 NOSIG

2010/08/10 07:00
LFOH 100700Z AUTO 19012KT 160V220 9999NDV FEW017 BKN040 OVC054 17/13 Q1014

2010/08/10 07:00
LFPG 100700Z 23003KT CAVOK 18/11 Q1016 NOSIG

2010/08/10 07:00
LFRD 100700Z AUTO 21009KT 9999NDV -RA FEW007 SCT031 BKN038 17/17 Q1014

2010/08/10 07:00
LFRN 100700Z AUTO 21008KT 9999NDV -RA SCT009 OVC043 17/16 Q1016

2010/08/10 07:00
LFRO 100700Z AUTO 22007KT 3000NDV -RA BR BKN004 OVC009 17/17 Q1014

2010/08/10 07:00
LFRZ 100700Z AUTO 21008KT 9999NDV FEW016 OVC028 19/16 Q1017

2010/08/10 07:00
LFSB 100700Z 13005KT 070V180 CAVOK 19/14 Q1017 NOSIG

2010/08/10 07:00
LFSL 100700Z AUTO VRB02KT 9999NDV BKN023 17/14 Q1019

2010/08/10 07:00
LFST 100700Z 17005KT 9999 FEW050 SCT083 17/14 Q1017 NOSIG

2010/08/10 07:00
LFTH 100700Z VRB03KT 8000 SCT016 25/20 Q1015 NOSIG

2010/08/10 07:00
LFBA 100700Z 00000KT 9999 SCT030 SCT250 16/15 Q1019 NOSIG

2010/08/10 07:00
LFBD 100700Z 15003KT CAVOK 16/14 Q1019 NOSIG

2010/08/10 07:00
LFBE 100700Z VRB02KT CAVOK 17/14 Q1019 NOSIG

2010/08/10 07:00
LFBI 100700Z 25007KT 9999 BKN004 15/14 Q1018 BECMG BKN005

2010/08/10 07:00
LFGJ 100700Z AUTO 22003KT 150V270 9999NDV NSC 18/15 Q1017

2010/08/10 07:00
LFKB 100700Z 00000KT 9999 SCT017 SCT160 25/20 Q1016 NOSIG

2010/08/10 07:00
LFKC 100700Z VRB02KT 9999 FEW020 25/17 Q1016 NOSIG

2010/08/10 07:00
LFKF 100700Z VRB01KT CAVOK 25/17 Q1016 NOSIG

2010/08/10 07:00
LFKJ 100700Z VRB03KT 9999 FEW020 24/16 Q1016 NOSIG

2010/08/10 07:00
LFLB 100700Z VRB02KT 9999 FEW080 21/16 Q1017 NOSIG

2010/08/10 07:00
LFLL 100700Z 01006KT CAVOK 20/15 Q1017 NOSIG

2010/08/10 07:00
LFLN 100700Z AUTO VRB02KT 9999NDV NSC 19/16 Q1018

2010/08/10 07:00
LFMD 100700Z AUTO VRB02KT 9999NDV BKN038 25/20 Q1015

2010/08/10 07:00
LFMH 100700Z VRB02KT CAVOK 19/14 Q1018 NOSIG

2010/08/10 07:00
LFML 100700Z 27002KT 9999 FEW013 23/20 Q1015 NOSIG

2010/08/10 07:00
LFMN 100700Z 03005KT 9999 BKN036 25/19 Q1016 NOSIG

2010/08/10 07:00
LFMP 100700Z 30009KT 9999 FEW060 23/15 Q1017 NOSIG

2010/08/10 07:00
LFOT 100700Z AUTO 24007KT 9999NDV NSC 16/13 Q1017

2010/08/10 07:00
LFPG 100700Z 23003KT CAVOK 18/11 Q1016 NOSIG

2010/08/10 07:00
LFPN 100700Z VRB03KT CAVOK 18/13 Q1016 NOSIG

2010/08/10 07:00
LFPO 100700Z VRB02KT CAVOK 19/14 Q1016 NOSIG

2010/08/10 07:00
LFQQ 100700Z 21008KT 170V230 CAVOK 17/13 Q1014 NOSIG

2010/08/10 07:00
LFRB 100700Z 25010KT 3500 RA BKN005 17/17 Q1014 NOSIG

2010/08/10 07:00
LFRC 100700Z AUTO 21010KT 2100NDV -RA BR OVC004 17/17 Q1013

2010/08/10 07:00
LFRK 100700Z 16005KT 9999 -RA SCT040 BKN053 16/14 Q1014 NOSIG

2010/08/10 07:00
LFRS 100700Z 21005KT 9999 FEW029 SCT150 BKN230 17/17 Q1017 NOSIG

2010/08/10 07:00
LFRT 100700Z 23007KT 190V260 4000 -RA BR SCT013 OVC022 17/17 Q1014

2010/08/10 07:00
LFRZ 100700Z AUTO 21008KT 9999NDV FEW016 OVC028 19/16 Q1017

2010/08/10 07:00
LFSL 100700Z AUTO VRB02KT 9999NDV BKN023 17/14 Q1019

2010/08/10 07:00
KGUS 100700Z AUTO 03003KT 9SM R23/5500VP6000FT CLR 23/23 A2996 RMK AO2 SLP138

2010/08/10 07:00
KMTC 100700Z AUTO 00000KT 1SM R19/1200V3000FT DZ BR CLR 21/21 A2994 RMK AO2 VIS 1/2V2 SLP142 $

2010/08/10 07:02
KMTC 100702Z AUTO 00000KT 3/4SM R19/1000V3000FT DZ BR CLR 21/21 A2994 RMK AO2 VIS 2 RWY01 SLP142 $

2010/08/10 06:56
KHLR 100656Z AUTO 16006KT 10SM CLR 29/22 A2994 RMK AO2 SLP129 T02890217 $

2010/08/10 06:56
PHBK 100656Z AUTO 16005KT 10SM BKN055 27/16 A3008 RMK AO2 SLP189 T02720156 TSNO $

2010/08/10 06:56
PHNY 100656Z AUTO 03009KT 10SM FEW038 22/17 A3013 RMK AO2 TSNO T02160172 SLP183 $

2010/08/10 07:00
RJSM 100700Z 09004KT 050V140 3000 -DZ BR FEW000 SCT001 BKN002 23/22 Q1013 RMK 1ST000 3ST001 5ST002 A2992 VIS NE 2500M FCST 0713 BECMG 0707 1500 -DZ BR SCT000ST BKN001ST TEMPO 0712 0800 -DZ FG BKN000ST OVC001ST TEMPO 1213 0400 -DZ FG VV000

2010/08/10 07:03
KBTV 100703Z 00000KT 1 3/4SM BR FEW004 18/18 A2991

2010/08/10 07:02
KDSM 100702Z 02012KT 1 1/4SM R31/4500VP6000FT +TSRA BR BKN006 OVC016 22/21 A2995

2010/08/10 07:00
YSCB 100700Z 04008KT 9999 SCT035 13/09 Q1010 TEMPO 0700/0900 4000 RA BKN010

2010/08/10 07:00
OIAG 100700Z 13008KT 9999 FEW040 SCT100 42/10 Q1000 A2955

2010/08/10 07:00
OIAM 100700Z 18010KT CAVOK 39/21 Q0999 A2951

2010/08/10 07:00
OICI 100700Z 00000KT CAVOK 35/M03 Q1013 A2994 864.5

2010/08/10 07:00
OIKQ 100700Z 07020KT 2500 SA SKC 35/26 Q1000 A2956

2010/08/10 07:00
OINN 100700Z 35008KT 9999 FEW033TCU 31/25 Q1009 A2982

2010/08/10 07:00
OINR 100700Z 36010KT 9999 FEW030TCU 31/24 Q1009 A2982

2010/08/10 07:00
OISL 100700Z 00000KT CAVOK 38/05 Q1006 A2973

2010/08/10 07:00
OISY 100700Z CAVOK 29/01 Q1021 A3016

2010/08/10 07:00
OITZ 100700Z 15008KT 9999 FEW030 31/00 Q1018 A3007

2010/08/10 06:50
EGYE 100650Z 25010KT 9999 FEW005 SCT008 BKN100 Q1008 GRN

2010/08/10 07:00
YSCB 100700Z 04008KT 9999 SCT035 13/09 Q1010 TEMPO 0700/0900 4000 RA BKN010

2010/08/10 07:00
YSCB 100700Z 04008KT 9999 SCT035 13/09 Q1010 TEMPO 0700/0900 4000 RA BKN010

2010/08/10 07:00
YSCB 100700Z 04008KT 9999 SCT035 13/09 Q1010 TEMPO 0700/0900 4000 RA BKN010

2010/08/10 07:00
SACO 100700Z 29005KT CAVOK 03/M01 Q1027

2010/08/10 07:00
SAME 100700Z 00000KT CAVOK 04/M03 Q1023

2010/08/10 07:00
SARE 100700Z 18003KT 6000 04/04 Q1023

2010/08/10 07:00
SARF 100700Z 14005KT CAVOK 11/10 Q1022

2010/08/10 07:00
SARI 100700Z 23005KT CAVOK 12/11 Q1021

2010/08/10 07:00
SBGR 100700Z 16003KT 9999 OVC023 14/12 Q1024

2010/08/10 07:00
SBMN 100700Z 00000KT 9999 FEW15 25/23 Q1012

2010/08/10 07:00
SBSL 100700Z 07007KT CAVOK 25/23 Q1012

2010/08/10 07:00
SCAR 100700Z 08006KT CAVOK 11/06 Q1016

2010/08/10 07:00
SCBA 100700Z AUTO 27004KT CAVOK M01/M03 Q1022

2010/08/10 07:00
SCCI 100700Z 35004KT 9999 FEW016 SCT100 03/01 Q1005 NOSIG

2010/08/10 07:00
SCDA 100700Z 00000KT 8000 OVC020 13/09 Q1017

2010/08/10 07:00
SCEL 100700Z 25002KT 5000 HZ NSC 04/01 Q1016 NOSIG

2010/08/10 07:00
SCFA 100700Z 35006KT 9999 OVC019 13/08 Q1017

2010/08/10 07:00
SCIE 100700Z 16003KT 9999 05/03 Q1017

2010/08/10 07:00
SCON 100700Z AUTO VRB02KT CAVOK 02/01 Q1024

2010/08/10 07:00
SCSE 100700Z 00000KT 9999 OVC015 11/08 Q1017 NEFO PLAYA 1500FT

2010/08/10 07:00
SCTE 100700Z 17008KT 9999 BKN006 07/07 Q1023 NOSIG

2010/08/10 07:00
SOCA 100700Z 00000KT 9999 FEW003 SCT130 23/22 Q1012 NOSIG

2010/08/10 07:00
SPHI 100700Z 17006KT CAVOK 15/13 Q1016 RMK PP000

2010/08/10 07:00
SPQT 100700Z /////KT 4000 HZ SKC 22/21 Q1013 NOSIG RMK PP000

2010/08/10 07:00
SPQU 100700Z 00000KT 340V040 CAVOK 09/M17 Q1027 RMK PP000

2010/08/10 07:00
SPRU 100700Z 15005KT 5000 BR SCT014 14/13 Q1015 RMK BIRDS HAZARD RWY 20 PP000

2010/08/10 07:00
SPSO 100700Z VRB02KT 7000 FEW012 12/10 Q1016 RMK PP000

2010/08/10 07:00
SPTN 100700Z 00000KT CAVOK 09/06 Q1013 RMK PP000

2010/08/10 07:00
SPZO 100700Z 00000KT 9999 SKC 02/M08 Q1033 RMK PP000

2010/08/10 07:00
SUMU 100700Z 00000KT 0100 R19/0200 R24/0200 FG VV/// 01/01 Q1027 NOSIG

2010/08/10 07:00
SVMG 100700Z 11003KT 9999 FEW010 BKN080 27/25 Q1013 NOSIG

2010/08/10 07:00
ZBHH 100700Z 28001MPS 9999 FEW040 28/08 Q1010 NOSIG

2010/08/10 07:00
ZGHA 100700Z 24002MPS 9999 FEW040 38/27 Q1001 NOSIG

2010/08/10 07:00
ZHCC 100700Z 01005MPS 340V060 2500 BR FEW040CB 29/26 Q1004 NOSIG

2010/08/10 07:00
ZHHH 100700Z VRB01MPS 5000 HZ BKN025 37/30 Q1002 NOSIG

2010/08/10 07:00
ZJHK 100700Z 11004MPS 9999 SCT020 FEW025TCU FEW030CB 31/25 Q1003 NOSIG

2010/08/10 07:00
ZJSY 100700Z 18003MPS 140V240 9999 FEW020 31/26 Q1004 NOSIG

2010/08/10 07:00
ZLLL 100700Z 12003MPS 070V170 CAVOK 29/15 Q1011 NOSIG

2010/08/10 07:00
ZSNJ 100700Z 36002MPS 4000 HZ SCT030 35/22 Q1003 NOSIG

2010/08/10 07:00
ZSOF 100700Z 13003MPS 090V190 9999 SCT026 35/25 Q1003 NOSIG

2010/08/10 07:00
ZUCK 100700Z 14002MPS 080V200 9999 FEW033 38/22 Q1002 NOSIG

2010/08/10 07:00
ZYCC 100700Z 25004MPS 9999 FEW030 27/13 Q1006 NOSIG

2010/08/10 07:00
ZYHB 100700Z 26006MPS 9999 SCT026 25/13 Q1006 NOSIG

2010/08/10 07:00
TNCM 100700Z 10007KT 9999 SCT019 28/25 Q1013 RERA

2010/08/10 07:05
CYBU 100705Z AUTO 18003KT 5SM BR CLR 14/14 A2988 RMK SLP126 DENSITY ALT 1400FT

2010/08/10 06:50
ENGC 100650Z 10018KT 9999 BKN045 14/12 Q1008

2010/08/10 07:00
OIBJ 100700Z 07012KT CAVOK 40/03 Q1006 A2973

2010/08/10 07:00
OIBS 100700Z 07016KT CAVOK 34/30 Q1000 A2955

2010/08/10 07:00
OIKR 100700Z 33008KT CAVOK 29/04 Q1018 A3007

2010/08/10 07:00
OING 100700Z 00000KT CAVOK 34/20 Q1011 A2987

2010/08/10 07:00
OIZB 100700Z 30020KT 5000 SA SKC 38/05 Q1004 A2965

2010/08/10 07:00
OIZI 100700Z 18004KT 7000 NSC 40/09 Q1005 A2968

2010/08/10 07:03
KAMW 100703Z AUTO 19006KT 10SM VCTS -RA BKN065 23/21 A2992 RMK AO2 LTG DSNT ALQDS TSE0657B03RAB0655 P0000

2010/08/10 07:03
KGLD 100703Z AUTO 33008KT 10SM VCTS -RA BKN034 19/17 A3000 RMK AO2 LTG DSNT N AND NW P0001

2010/08/10 07:03
KJXN 100703Z 00000KT 1SM BR VV001 21/21 A2997 RMK AO2 $

2010/08/10 07:03
KMKG 100703Z 00000KT 3/4SM BR VV001 22/20 A2996 RMK AO2

2010/08/10 07:01
KMSN 100701Z 00000KT 1SM BR VV001 22/21 A2995 RMK AO2

2010/08/10 07:03
KOTM 100703Z AUTO VRB04KT 10SM TS SCT021 BKN025 OVC050 25/22 A2990 RMK AO2 LTG DSNT NW-E TSE0657B03

2010/08/10 07:03
KPMP 100703Z AUTO 15015G22KT 10SM FEW019 SCT024 BKN030 27/23 A2988 RMK AO2

2010/08/10 07:03
KRHI 100703Z AUTO 00000KT 1 3/4SM BR CLR 17/16 A3002 RMK AO2

2010/08/10 07:04
PAOU 100704Z AUTO 00000KT 2SM BR SCT004 BKN021 OVC030 10/09 A2964 RMK AO2 PWINO TSNO $

2010/08/10 07:04
KOLF 100704Z AUTO 18015G20KT 10SM -RA BKN100 22/15 A2987 RMK AO2 WSHFT 0650 LTG DSNT ALQDS TSE00RAB03 PRESRR P0000

2010/08/10 07:04
KSTS 100704Z AUTO 12004KT 8SM OVC002 12/11 A2990 RMK AO2

2010/08/10 07:04
KTOL 100704Z 00000KT 3/4SM BR VV001 22/21 A2996 RMK AO2 RVRNO

2010/08/10 07:04
KVTN 100704Z AUTO 27012KT 10SM VCTS -RA FEW044 OVC100 21/19 A2991 RMK AO2 LTG DSNT ALQDS TSB0658 P0001

2010/08/10 07:03
KASJ 100703Z AUTO 00000KT 4SM BR CLR 23/21 A2999 RMK AO2

2010/08/10 07:02
KHQU 100702Z AUTO 00000KT 5SM CLR 23/21 A3005 RMK AO1

2010/08/10 07:00
KJFZ 100700Z AUTO 00000KT 10SM CLR 22/19 A3011 RMK

2010/08/10 07:00
KLOM 100700Z AUTO 23005KT 10SM CLR 26/21 A2993 RMK AO1 T02570208

2010/08/10 07:00
KMGR 100700Z AUTO 09004KT 10SM CLR 26/24 A2996 RMK AO2

2010/08/10 07:00
KMMU 100700Z AUTO 00000KT 10SM CLR 24/20 A2993 RMK AO2 T02360195

2010/08/10 07:00
KMQS 100700Z AUTO 00000KT 7SM CLR 24/24 A2997 RMK AO2

2010/08/10 07:00
KOBE 100700Z AUTO 16008KT 7SM -RA SCT009 BKN023 OVC070 25/23 A2991 RMK AO2

2010/08/10 07:03
KOCW 100703Z AUTO 19003KT 10SM CLR 26/21 A3001 RMK AO2

2010/08/10 07:00
KOKV 100700Z AUTO 23004KT 10SM BKN090 26/21 A2997 RMK AO2 T02630212

2010/08/10 07:00
KOMH 100700Z AUTO 16003KT 7SM CLR 24/23 A2998 RMK AO2 T02350225

2010/08/10 07:00
KOPN 100700Z AUTO 10004KT 10SM CLR 28/23 A3001 RMK AO1

2010/08/10 07:00
KPCM 100700Z AUTO 09005KT 10SM CLR 26/24 A2992 RMK AO2

2010/08/10 07:00
KPSK 100700Z AUTO 00000KT 5SM HZ CLR 22/19 A3011 RMK AO2

2010/08/10 07:00
KRCZ 100700Z AUTO 00000KT 7SM CLR 25/24 A3002 RMK AO2 T02480243

2010/08/10 07:00
KRMN 100700Z AUTO 00000KT 10SM CLR 23/22 A2999 RMK AO2

2010/08/10 07:00
KSFQ 100700Z AUTO 00000KT 7SM CLR 23/22 A2999 RMK AO2

2010/08/10 07:00
KSHD 100700Z AUTO 00000KT 5SM BR CLR 23/21 A3001 RMK AO2

2010/08/10 07:00
KTBR 100700Z AUTO 00000KT 10SM CLR 25/25 A2999 RMK AO2 T02500246

2010/08/10 07:02
KTPF 100702Z AUTO 09006KT 10SM SCT026 25/24 A2989 RMK AO2

2010/08/10 07:00
KVDI 100700Z AUTO 00000KT 10SM CLR 26/25 A2999 RMK AO2

2010/08/10 07:00
KVJI 100700Z AUTO 00000KT 7SM CLR 22/22 A3009 RMK AO2 TSNO

2010/08/10 07:00
KW22 100700Z AUTO 00000KT 3SM BR CLR 20/20 A3005 RMK AO2

2010/08/10 07:00
KWDR 100700Z AUTO 00000KT 10SM CLR 25/22 A3006 RMK AO1

2010/08/10 07:00
KXLL 100700Z AUTO 19004KT 10SM CLR 26/22 A2994 RMK AO2 T02550216

2010/08/10 07:00
KXSA 100700Z AUTO 18004KT 10SM CLR 23/21 A2996 RMK AO2

2010/08/10 06:55
KLUF 100655Z AUTO 00000KT 10SM CLR 31/13 A2981 RMK AO2 SLP063 T03130127 403870234 $

2010/08/10 07:03
KBTV 100703Z 00000KT 1 3/4SM BR FEW004 18/18 A2991 RMK AO2

2010/08/10 07:00
LRBS 100700Z 32005KT 270V360 CAVOK 27/20 Q1014 NOSIG

2010/08/10 07:00
LRCK 100700Z 34004KT 270V040 CAVOK 29/19 Q1012 NOSIG

2010/08/10 07:00
LROP 100700Z 28006KT 260V320 CAVOK 27/20 Q1014 880///95 NOSIG

2010/08/10 07:00
LRSB 100700Z 34004KT 320V020 9999 ?SCT033 BKN086 21/17 Q1018

2010/08/10 07:00
LRTR 100700Z 34006KT 310V010 CAVOK 23/18 Q1017 NOSIG

2010/08/10 07:00
LFBA 100700Z 00000KT 9999 SCT030 SCT250 16/15 Q1019 NOSIG

2010/08/10 07:00
LFBE 100700Z VRB02KT CAVOK 17/14 Q1019 NOSIG

2010/08/10 07:00
LFGJ 100700Z AUTO 22003KT 150V270 9999NDV NSC 18/15 Q1017

2010/08/10 07:00
LFJR 100700Z AUTO 24005KT 9999NDV SCT006 BKN150 BKN180 16/15 Q1017

2010/08/10 07:00
LFMD 100700Z AUTO VRB02KT 9999NDV BKN038 25/20 Q1015

2010/08/10 07:00
LFMH 100700Z VRB02KT CAVOK 19/14 Q1018 NOSIG

2010/08/10 07:00
LFOT 100700Z AUTO 24007KT 9999NDV NSC 16/13 Q1017

2010/08/10 07:00
LFPN 100700Z VRB03KT CAVOK 18/13 Q1016 NOSIG

2010/08/10 07:00
LFRC 100700Z AUTO 21010KT 2100NDV -RA BR OVC004 17/17 Q1013

2010/08/10 07:00
LFRG 100700Z AUTO 21013KT 9999NDV BKN043 BKN049 16/13 Q1014

2010/08/10 07:00
LFRK 100700Z 16005KT 9999 -RA SCT040 BKN053 16/14 Q1014 NOSIG

2010/08/10 07:00
YPXM 100700Z AUTO 07011KT 9999NDV // BKN011 26/23 Q////

2010/08/10 07:00
RKSI 100700Z 18005KT 150V210 9999 BKN025 BKN100 31/25 Q1006 TEMPO 4000 SHRA

2010/08/10 07:00
RKSS 100700Z 31004KT 220V010 9999 BKN025 OVC100 26/24 Q1006 TEMPO 4200 RA 

2010/08/10 07:00
RKPC 100700Z 11016KT 080V140 4000 -RA BR FEW008 BKN030 OVC070 28/25 Q0997 NOSIG 

2010/08/10 07:00
RKPK 100700Z 10008KT 9999 BKN050 29/23 Q1008 NOSIG 

2010/08/10 07:00
RKTU 100700Z 14004KT 4000 -RA FEW015CB BKN020 OVC030 26/24 Q1008 BECMG 2500 

2010/08/10 07:00
RKTN 100700Z 10007KT 9000 -RA FEW010 BKN020 OVC030 30/25 Q1007 NOSIG

2010/08/10 07:00
RKJB 100700Z 07007KT 040V110 5000 -RA BR FEW010 BKN030 OVC070 27/25 Q1003 NOSIG 

2010/08/10 07:00
RKNY 100700Z 11003KT 080V140 6000 -RA SCT030 OVC100 25/23 Q1008 NOSIG 

2010/08/10 07:00
LFLL 100700Z 01006KT CAVOK 20/15 Q1017 NOSIG

2010/08/10 07:00
LFMN 100700Z 03005KT 9999 BKN036 25/19 Q1016 NOSIG

2010/08/10 07:00
LFPG 100700Z 23003KT CAVOK 18/11 Q1016 NOSIG

2010/08/10 07:00
LFPO 100700Z VRB02KT CAVOK 19/14 Q1016 NOSIG

2010/08/10 07:00
LFQQ 100700Z 21008KT 170V230 CAVOK 17/13 Q1014 NOSIG

2010/08/10 07:00
LFRB 100700Z 25010KT 3500 RA BKN005 17/17 Q1014 NOSIG

2010/08/10 07:00
LFRS 100700Z 21005KT 9999 FEW029 SCT150 BKN230 17/17 Q1017 NOSIG

2010/08/10 07:00
LFAQ 100700Z AUTO 18006KT 9999NDV NSC 16/12 Q1015

2010/08/10 07:00
LFBU 100700Z AUTO VRB03KT 9999NDV FEW013 16/13 Q1019

2010/08/10 07:00
LFLN 100700Z AUTO VRB02KT 9999NDV NSC 19/16 Q1018

2010/08/10 07:00
LFPM 100700Z 00000KT CAVOK 19/12 Q1016

2010/08/10 07:00
LFRH 100700Z 24014KT 5000 -RA BKN003 OVC008 18/17 Q1016

2010/08/10 07:00
LFRQ 100700Z 26010KT 5000 BKN003 17/17 Q1015 NOSIG

2010/08/10 07:00
LFRT 100700Z 23007KT 190V260 4000 -RA BR SCT013 OVC022 17/17 Q1014

2010/08/10 07:00
LFSD 100700Z AUTO 00000KT 9999NDV NSC 17/13 Q1017

2010/08/10 07:00
LFTW 100700Z AUTO 33004KT 300V360 9999NDV NSC 24/15 Q1016

2010/08/10 06:49
HLLB 100649Z 31015KT 9999 BKN020 27/19 Q1012

2010/08/10 06:50
HLLS 100650Z 12012KT CAVOK 30/12 Q1015

2010/08/10 06:50
HLLT 100650Z VRB03KT CAVOK 25/18 Q1016

2010/08/10 07:00
FIMP 100700Z 08014KT 9999 SCT019 25/16 Q1024

2010/08/10 07:00
DNMM 100700Z 00000KT 6000 SCT008 25/24 Q1014 TEMPO 5000 BR

2010/08/10 07:00
LEMD 100700Z 00000KT CAVOK 23/15 Q1019 NOSIG

2010/08/10 07:00
LEBL 100700Z 32003KT 260V070 9999 SCT014 24/19 Q1017 NOSIG

2010/08/10 07:00
LEPA 100700Z 05005KT CAVOK 25/16 Q1017 NOSIG

2010/08/10 07:00
LEZL 100700Z 00000KT CAVOK 28/15 Q1015 NOSIG

2010/08/10 07:00
LEMG 100700Z 29002KT CAVOK 26/14 Q1016 NOSIG

2010/08/10 07:00
LEVC 100700Z VRB01KT CAVOK 24/17 Q1016 NOSIG

2010/08/10 07:00
LEIB 100700Z VRB01KT CAVOK 27/14 Q1016 NOSIG

2010/08/10 07:00
LEVX 100700Z 23003KT CAVOK 22/16 Q1017

2010/08/10 07:00
KGUS 100700Z AUTO 03003KT 9SM R23/5500VP6000FT CLR 23/23 A2996 RMK AO2 SLP138

2010/08/10 07:00
KMTC 100700Z AUTO 00000KT 1SM R19/1200V3000FT DZ BR CLR 21/21 A2994 RMK AO2 VIS 1/2V2 SLP142 $

2010/08/10 07:02
KMTC 100702Z AUTO 00000KT 3/4SM R19/1000V3000FT DZ BR CLR 21/21 A2994 RMK AO2 VIS 2 RWY01 SLP142 $

2010/08/10 07:00
GGOV 100700Z VRB03KT 9000 -RA BKNN005 FEW018CB OVC090 24/23 Q1013 NOSIG

2010/08/10 06:56
KNJK 100656Z AUTO 25008KT 10SM CLR 27/06 A2973 RMK AO2 SLP081 T02720056 TSNO

2010/08/10 07:00
DIAP 100700Z 26006KT 6000 SCT011 BKN080 24/23 Q1014 TEMPO 4000 BR

2010/08/10 07:00
DIAP 100700Z 26006KT 6000 R21//////N SCT011 BKN080 24/23 Q1014 TEMPO 4000 BR

2010/08/10 07:00
DNMM 100700Z 00000KT 6000 SCT008 25/24 Q1014 TEMPO 5000 BR

2010/08/10 07:00
DXXX 100700Z 22007KT 8000 -RA SCT010 BKN080 24/23 Q1014 NOSIG

2010/08/10 07:03
KBTV 100703Z 00000KT 1 3/4SM BR FEW004 18/18 A2991 RMK AO2

2010/08/10 07:03
KMKG 100703Z 00000KT 3/4SM BR VV001 22/20 A2996 RMK AO2

2010/08/10 07:01
KMSN 100701Z 00000KT 1SM BR VV001 22/21 A2995 RMK AO2

2010/08/10 07:04
KTOL 100704Z 00000KT 3/4SM BR VV001 22/21 A2996 RMK AO2 RVRNO

2010/08/10 07:04
KVTN 100704Z AUTO 27012KT 10SM VCTS -RA FEW044 OVC100 21/19 A2991 RMK AO2 LTG DSNT ALQDS TSB0658 P0001

2010/08/10 07:00
LEBZ 100700Z 00000KT CAVOK 26/16 Q1016

2010/08/10 07:00
LELN 100700Z VRB02KT CAVOK 15/11 Q1021

2010/08/10 07:00
LESA 100700Z 00000KT 8000 NSC 20/16 Q1021

2010/08/10 07:00
LETO 100700Z VRB01KT CAVOK 22/14 Q1019 NOSIG

2010/08/10 07:00
LEVD 100700Z VRB01KT CAVOK 18/14 Q1020

2010/08/10 07:00
KJQF 100700Z AUTO 00000KT 10SM CLR 25/21 A3003 RMK AO2 T02520210

2010/08/10 06:56
PHNY 100656Z AUTO 03009KT 10SM FEW038 22/17 A3013 RMK AO2 TSNO T02160172 SLP183 $

2010/08/10 06:50
EGUB 100650Z AUTO 20003KT 9999NDV // BKN036/// BKN080/// 13/11 Q1011

2010/08/10 07:00
FLLS 100700Z 11007KT CAVOK 21/10 Q1025

2010/08/10 07:00
FNLU 100700Z 08004KT 5000 BKN023 22/19 Q1016 TEMPO 8000 NSW

2010/08/10 07:00
FQBR 100700Z 18006KT 9999 BKN017 23/20 Q1021

2010/08/10 07:00
FQMA 100700Z 20020KT 9999 FEW020 19/M01 Q1030 NOSIG

2010/08/10 07:00
FVHA 100700Z 11007KT CAVOK 18/05 Q1027 NOSIG

2010/08/10 07:00
GCHI 100700Z 01004KT 320V080 9999 FEW014 BKN022 22/19 Q1015

2010/08/10 07:00
GCLA 100700Z 32004KT 9999 SCT020 21/17 Q1016

2010/08/10 07:00
GEML 100700Z VRB01KT 9999 FEW008 25/23 Q1017

2010/08/10 07:00
FOOL 100700Z 14010KT 110V170 8000 FEW006 SCT010 BKN033 24/22 Q1016 NOSIG

2010/08/10 06:55
KHUA 100655Z AUTO RMK AO2 SLPNO PWINO PNO TSNO $

2010/08/10 07:00
KNEL 100700Z AUTO 22005KT 7SM CLR 23/20 A2993 RMK AO2 SLP134 T02330200 $

2010/08/10 06:59
KNGU 100659Z 20004KT 10SM CLR 27/23 A2999 RMK AO2 SLP155 T02670233

2010/08/10 06:56
KNLC 100656Z 32008KT 10SM CLR 22/13 A2982 RMK AO2 SLP096 RH/53 T02220128

2010/08/10 07:00
TTPP 100700Z ///05KT 9999 FEW018 BKN280 24/23 Q1012 NOSIG

2010/08/10 06:55
KLUF 100655Z AUTO 00000KT 10SM CLR 31/13 A2981 RMK AO2 SLP063 T03130127 403870234 $

2010/08/10 06:56
KNBC 100656Z AUTO 00000KT 10SM CLR 27/24 A2999 RMK AO2 SLP156 T02720244 $

2010/08/10 06:57
KNJM 100657Z AUTO 22006KT 10SM CLR 27/25 A3002 RMK AO2 SLP169 T02720250

2010/08/10 06:56
KNRS 100656Z AUTO 00000KT 10SM CLR 14/13 A2993 RMK AO2 SLP133 T01390128 TSNO

2010/08/10 07:00
KNEL 100700Z AUTO 22005KT 7SM CLR 23/20 A2993 RMK AO2 SLP134 T02330200 $

2010/08/10 06:59
KNGU 100659Z 20004KT 10SM CLR 27/23 A2999 RMK AO2 SLP155 T02670233

2010/08/10 06:56
KNID 100656Z AUTO 16009KT CLR 26/06 A2984 RMK AO2 SLP083 T02560061 TSNO $

2010/08/10 06:56
KNLC 100656Z 32008KT 10SM CLR 22/13 A2982 RMK AO2 SLP096 RH/53 T02220128

2010/08/10 06:56
KNTD 100656Z AUTO 31004KT 10SM OVC007 15/14 A2990 RMK AO2 SLP127 T01500139 TSNO $

2010/08/10 06:56
KNTU 100656Z 23003KT 10SM FEW200 24/23 A2997 RMK AO2 SLP151 T02390228 $

2010/08/10 06:56
KNUW 100656Z 23007KT 8SM FEW008 BKN012 OVC045 14/12 A2996 RMK AO2 SLP148 T01430116 $

2010/08/10 06:55
KTBN 100655Z AUTO 18004KT 10SM CLR 26/23 A2996 RMK AO2 SLP118 T02580228 $

2010/08/10 06:56
KHLR 100656Z AUTO 16006KT 10SM CLR 29/22 A2994 RMK AO2 SLP129 T02890217 $

2010/08/10 06:56
PHBK 100656Z AUTO 16005KT 10SM BKN055 27/16 A3008 RMK AO2 SLP189 T02720156 TSNO $

2010/08/10 06:55
KLUF 100655Z AUTO 00000KT 10SM CLR 31/13 A2981 RMK AO2 SLP063 T03130127 403870234 $

2010/08/10 06:50
HLLT 100650Z VRB03KT CAVOK 25/18 Q1016

2010/08/10 07:00
LEBA 100700Z VRB02KT CAVOK 28/13 Q1016

2010/08/10 07:00
LEDA 100700Z VRB01KT CAVOK 21/14 Q1018

2010/08/10 07:00
LEJR 100700Z 00000KT 9999 FEW020 25/11 Q1016

2010/08/10 07:00
LELL 100700Z 00000KT 9000 FEW006 SCT010 BKN025 22/15 Q1018

2010/08/10 07:00
LEPP 100700Z 00000KT 9999 FEW010 15/13 Q1019

2010/08/10 07:00
LEXJ 100700Z VRB02KT 9999 FEW030 17/15 Q1018

2010/08/10 07:00
FALA 100700Z 12015KT CAVOK 09/M05 Q1032 NOSIG

2010/08/10 07:00
FBFT 100700Z 15011KT CAVOK 14/M00 Q1029

2010/08/10 07:00
FBKE 100700Z 14013KT CAVOK 17/M02 Q1025

2010/08/10 07:00
FBMN 100700Z 14011KT CAVOK 11/M10 Q1028

2010/08/10 07:00
FBSK 100700Z 18010KT CAVOK 09/07 Q1031 NOSIG

2010/08/10 07:00
FYWB 100700Z 09034KT 0650 R09/0200V0600N R27/0600VP1500U VV/// 24/M11 Q1016

2010/08/10 07:00
FYWH 100700Z AUTO 12006KT //// // ////// 04/M11 Q1034

2010/08/10 07:01
KLWB 100701Z AUTO 00000KT 3SM BR CLR 18/17 A3010 RMK AO2

2010/08/10 07:02
KMFV 100702Z AUTO 21004KT 7SM RMK AO2

2010/08/10 07:01
KMRN 100701Z AUTO 00000KT 3SM BR CLR 22/22 A3010 RMK AO2

2010/08/10 07:02
KTNB 100702Z AUTO 00000KT 2SM BR 18/18 A3017 RMK AO2

2010/08/10 07:04
KTTA 100704Z AUTO 00000KT 5SM BR CLR 22/22 A3002 RMK AO2

2010/08/10 07:03
KASJ 100703Z AUTO 00000KT 4SM BR CLR 23/21 A2999 RMK AO2

2010/08/10 07:02
KHQU 100702Z AUTO 00000KT 5SM CLR 23/21 A3005 RMK AO1

2010/08/10 07:03
KOCW 100703Z AUTO 19003KT 10SM CLR 26/21 A3001 RMK AO2

2010/08/10 07:02
KTPF 100702Z AUTO 09006KT 10SM SCT026 25/24 A2989 RMK AO2

2010/08/10 07:02
KRAC 100702Z AUTO 00000KT 2 1/2SM BR CLR 22/21 A2996 RMK AO2

2010/08/10 07:02
KRME 100702Z AUTO 00000KT 3SM BR FEW001 BKN007 OVC023 21/20 A2997 RMK AO2 $

2010/08/10 07:02
KYIP 100702Z 00000KT 1/4SM FG VV001 22/21 A2996 RMK AO2 RVRNO

2010/08/10 07:02
PAIG 100702Z AUTO 00000KT 3SM BR FEW003 BKN021 OVC032 11/11 A2964 RMK AO2 PWINO TSNO $

2010/08/10 07:02
PALH 100702Z 26003KT 10SM -RA BKN007 OVC022 13/11 A2978 RMK AO2 P0000

2010/08/10 07:03
KAMW 100703Z AUTO 19006KT 10SM VCTS -RA BKN065 23/21 A2992 RMK AO2 LTG DSNT ALQDS TSE0657B03RAB0655 P0000

2010/08/10 07:03
KGLD 100703Z AUTO 33008KT 10SM VCTS -RA BKN034 19/17 A3000 RMK AO2 LTG DSNT N AND NW P0001

2010/08/10 07:03
KJXN 100703Z 00000KT 1SM BR VV001 21/21 A2997 RMK AO2 $

2010/08/10 07:03
KOTM 100703Z AUTO VRB04KT 10SM TS SCT021 BKN025 OVC050 25/22 A2990 RMK AO2 LTG DSNT NW-E TSE0657B03

2010/08/10 07:03
KPMP 100703Z AUTO 15015G22KT 10SM FEW019 SCT024 BKN030 27/23 A2988 RMK AO2

2010/08/10 07:03
KRHI 100703Z AUTO 00000KT 1 3/4SM BR CLR 17/16 A3002 RMK AO2

2010/08/10 07:04
PAOU 100704Z AUTO 00000KT 2SM BR SCT004 BKN021 OVC030 10/09 A2964 RMK AO2 PWINO TSNO $

2010/08/10 07:04
KOLF 100704Z AUTO 18015G20KT 10SM -RA BKN100 22/15 A2987 RMK AO2 WSHFT 0650 LTG DSNT ALQDS TSE00RAB03 PRESRR P0000

2010/08/10 07:04
KSTS 100704Z AUTO 12004KT 8SM OVC002 12/11 A2990 RMK AO2

2010/08/10 07:00
KJYO 100700Z AUTO 21003KT 7SM CLR 24/22 A2995 RMK AO2

2010/08/10 07:00
KLDJ 100700Z AUTO 24004KT 7SM CLR 26/19 A2991 RMK AO2 T02610190

2010/08/10 06:55
KLGC 100655Z AUTO 5SM CLR 22/22 A2999 RMK AO1

2010/08/10 07:00
KLHZ 100700Z AUTO 22003KT 10SM CLR 25/23 A3001 RMK AO2 T02480225

2010/08/10 07:00
KLKU 100700Z AUTO 21003KT 7SM CLR 24/21 A2997 RMK AO2

2010/08/10 07:00
KLNP 100700Z AUTO 00000KT 5SM SCT055 22/20 A3012 RMK AO1

2010/08/10 07:00
KMDQ 100700Z AUTO 00000KT 5SM BR SCT060 25/24 A2999 RMK AO2 T02450238

2010/08/10 07:00
KMKJ 100700Z AUTO 00000KT 4SM SCT070 18/08 A3017 RMK AO1

2010/08/10 07:00
KMTV 100700Z AUTO 00000KT 2 1/2SM BR CLR 23/23 A3004 RMK AO2

2010/08/10 07:00
KSIF 100700Z AUTO 00000KT 7SM CLR 24/22 A3002 RMK AO2 T02360219

2010/08/10 07:00
KSUT 100700Z AUTO 22005KT 10SM SCT018 SCT024 SCT030 26/22 A3002 RMK AO2

2010/08/10 07:00
KSVH 100700Z AUTO 00000KT 7SM CLR 24/23 A3003 RMK AO2 T02350230

2010/08/10 07:00
KTMA 100700Z AUTO 00000KT 10SM CLR 25/24 A2997 RMK AO2 T02500240

2010/08/10 07:00
KTVI 100700Z AUTO 11004KT 10SM CLR 26/24 A2995 RMK AO2 T02610241

2010/08/10 06:56
KVDF 100656Z AUTO 00000KT 10SM CLR 25/24 A2990 RMK AO2

2010/08/10 06:58
KVUJ 100658Z AUTO 00000KT 5SM CLR 22/21 A3002 RMK AO2

2010/08/10 07:00
KW45 100700Z AUTO 00000KT 7SM CLR 23/23 A2998 RMK AO2 T02310225

2010/08/10 06:59
KW99 100659Z AUTO 00000KT 4SM HZ CLR 21/18 A3000 RMK AO2

2010/08/10 07:00
KJFZ 100700Z AUTO 00000KT 10SM CLR 22/19 A3011 RMK

2010/08/10 07:00
KLOM 100700Z AUTO 23005KT 10SM CLR 26/21 A2993 RMK AO1 T02570208

2010/08/10 07:00
KMGR 100700Z AUTO 09004KT 10SM CLR 26/24 A2996 RMK AO2

2010/08/10 07:00
KMMU 100700Z AUTO 00000KT 10SM CLR 24/20 A2993 RMK AO2 T02360195

2010/08/10 07:00
KMQS 100700Z AUTO 00000KT 7SM CLR 24/24 A2997 RMK AO2

2010/08/10 07:00
KOBE 100700Z AUTO 16008KT 7SM -RA SCT009 BKN023 OVC070 25/23 A2991 RMK AO2

2010/08/10 07:00
KOKV 100700Z AUTO 23004KT 10SM BKN090 26/21 A2997 RMK AO2 T02630212

2010/08/10 07:00
KOMH 100700Z AUTO 16003KT 7SM CLR 24/23 A2998 RMK AO2 T02350225

2010/08/10 07:00
KOPN 100700Z AUTO 10004KT 10SM CLR 28/23 A3001 RMK AO1

2010/08/10 07:00
KPCM 100700Z AUTO 09005KT 10SM CLR 26/24 A2992 RMK AO2

2010/08/10 07:00
KPSK 100700Z AUTO 00000KT 5SM HZ CLR 22/19 A3011 RMK AO2

2010/08/10 07:00
KRCZ 100700Z AUTO 00000KT 7SM CLR 25/24 A3002 RMK AO2 T02480243

2010/08/10 07:00
KRMN 100700Z AUTO 00000KT 10SM CLR 23/22 A2999 RMK AO2

2010/08/10 07:00
KSFQ 100700Z AUTO 00000KT 7SM CLR 23/22 A2999 RMK AO2

2010/08/10 07:00
KSHD 100700Z AUTO 00000KT 5SM BR CLR 23/21 A3001 RMK AO2

2010/08/10 07:00
KTBR 100700Z AUTO 00000KT 10SM CLR 25/25 A2999 RMK AO2 T02500246

2010/08/10 07:00
KVDI 100700Z AUTO 00000KT 10SM CLR 26/25 A2999 RMK AO2

2010/08/10 07:00
KVJI 100700Z AUTO 00000KT 7SM CLR 22/22 A3009 RMK AO2 TSNO

2010/08/10 07:00
KW22 100700Z AUTO 00000KT 3SM BR CLR 20/20 A3005 RMK AO2

2010/08/10 07:00
KWDR 100700Z AUTO 00000KT 10SM CLR 25/22 A3006 RMK AO1

2010/08/10 07:00
KXLL 100700Z AUTO 19004KT 10SM CLR 26/22 A2994 RMK AO2 T02550216

2010/08/10 07:00
KXSA 100700Z AUTO 18004KT 10SM CLR 23/21 A2996 RMK AO2

2010/08/10 06:56
KOSC 100656Z AUTO 00000KT BKN001 OVC010 21/19 A2994 RMK AO2 PWINO

2010/08/10 07:00
HAAB 100700Z 17004KT 6000 SCT002 BKN018 OVC070 15/13 Q1027 R/M MIST

2010/08/10 07:00
HKJK 100700Z 17005KT 9999 SCT020 BKN080 18/14 Q1025 NOSIG

2010/08/10 07:00
HKMO 100700Z 18005KT 9999 BKN023TCU 26/21 Q1019 NOSIG

2010/08/10 06:53
PABR 100653Z 07018G23KT 7SM OVC002 02/02 A2985

2010/08/10 06:53
PACD 100653Z AUTO 11010KT 10SM BKN065 09/08 A2961

2010/08/10 06:55
PAED 100655Z 27008KT 10SM OVC007 12/10 A2977

2010/08/10 06:55
PAEI 100655Z AUTO 06003KT 10SM BKN095 16/11 A2961

2010/08/10 06:53
PAEN 100653Z 00000KT 10SM BKN005 BKN008 OVC047 13/12 A2977

2010/08/10 06:53
PAFA 100653Z 01003KT 10SM BKN090 BKN140 15/11 A2961

2010/08/10 06:56
PAFS 100656Z AUTO VRB03KT 8SM FEW029 OVC048 12/10 A2962

2010/08/10 06:53
PAJN 100653Z 09005KT 10SM FEW005 SCT025 OVC035 13/12 A3000

2010/08/10 06:54
PAKN 100654Z 15011KT 10SM OVC021 11/09 A2961

2010/08/10 06:53
PAKT 100653Z AUTO 17004KT 10SM OVC050 12/12 A3004

2010/08/10 06:53
PANC 100653Z 25007KT 10SM -RA FEW006 BKN030 OVC060 12/11 A2976

2010/08/10 06:53
PAOM 100653Z 08006KT 9SM -RA BKN026 OVC033 11/10 A2940

2010/08/10 06:53
PAOR 100653Z 00000KT 10SM SCT080 SCT100 BKN150 13/12 A2970

2010/08/10 06:53
PAOT 100653Z AUTO 12009KT 7SM -RA FEW028 BKN049 OVC085 14/13 A2944

2010/08/10 06:56
PARY 100656Z AUTO 06006KT 10SM BKN080 BKN090 13/10 A2958

2010/08/10 06:53
PASC 100653Z 06016KT 1 1/4SM R05/5500VP6000FT BR OVC003 03/03 A2973

2010/08/10 06:53
PASI 100653Z 24007KT 10SM BKN018 OVC029 13/12 A3001

2010/08/10 06:56
PATQ 100656Z AUTO 07016G22KT 4SM -RA BR OVC007 03/02 A2977

2010/08/10 06:56
PAVD 100656Z 00000KT 9SM OVC007 11/09 A2988

2010/08/10 06:56
PAWG 100656Z AUTO 00000KT 1 1/4SM BKN031 OVC038 13/11 A3003

2010/08/10 07:00
GCFV 100700Z 29009KT 280V340 9999 SCT020 23/19 Q1014

2010/08/10 07:00
GCHI 100700Z 01004KT 320V080 9999 FEW014 BKN022 22/19 Q1015

2010/08/10 07:00
GCLA 100700Z 32004KT 9999 SCT020 21/17 Q1016

2010/08/10 07:00
GCLP 100700Z VRB01KT 9999 FEW020 21/18 Q1015 NOSIG

2010/08/10 07:00
GCRR 100700Z 12007KT 9999 FEW018 24/21 Q1014

2010/08/10 07:00
GCTS 100700Z VRB01KT 9999 FEW025 SCT100 22/19 Q1015 NOSIG

2010/08/10 07:00
GCXO 100700Z 28008KT 0200 R30/1300VP2000N R12/0275V0800U FG OVC000 17/17 Q1017 NOSIG

2010/08/10 07:00
GEML 100700Z VRB01KT 9999 FEW008 25/23 Q1017

2010/08/10 07:00
GMFF 100700Z 16006KT 8000 FEW033 SCT100 26/16 Q1018 NOSIG

2010/08/10 07:00
GMME 100700Z 22002KT 5000 NSC 23/22 Q1014 NOSIG

2010/08/10 07:00
GMMN 100700Z VRB02KT CAVOK 28/14 Q1015 NOSIG

2010/08/10 07:00
GMMX 100700Z 09006KT 8000 SCT100 25/17 Q1017 NOSIG

2010/08/10 07:00
GMTA 100700Z 20002KT 6000 OVC013 24/22 Q1017

2010/08/10 07:00
GMTT 100700Z 09009KT 8000 FEW016 27/18 Q1015 NOSIG

2010/08/10 07:00
GQNN 100700Z VRB03KT 8000 FEW013 BKN120 25/21 Q1012 NOSIG

2010/08/10 07:00
GBYD 100700Z 00000KT 9999 SCT010 BKN110 24/23 Q1012

2010/08/10 07:00
GOOY 100700Z 32003KT 9999 SCT013 BKN230 25/22 Q1012 NOSIG

2010/08/10 07:00
GUCY 100700Z 04004KT 9999 BKN013 BKN110 25/25 Q1013 NSG

2010/08/10 07:00
OJAI 100700Z 27008KT 7000 NSC 27/16 Q1010 NOSIG

2010/08/10 07:00
OJAM 100700Z 00000KT 5000 HZ NSC 28/14 Q1011 NOSIG

2010/08/10 07:00
OLBA 100700Z VRB05KT 8000 SCT026 29/22 Q1009 NOSIG

2010/08/10 07:03
CYMH 100703Z AUTO 23015G22KT 9SM SCT012 SCT068 16/14 A2959

2010/08/10 07:00
OEDF 100700Z 13006KT 5000 DU SKC 39/18 Q0999 NOSIG

2010/08/10 07:00
OEDR 100700Z 14007KT 4000 HZ NSC 37/29 Q0998 NOSIG

2010/08/10 07:00
OEMA 100700Z 00000KT 6000 NSC 40/03 Q1007 NOSIG

2010/08/10 07:00
OERK 100700Z 34008KT 7000 SKC 40/01 Q1006 NOSIG

2010/08/10 07:00
OIAA 100700Z 18006KT 5000 HZ FEW040 BKN100 39/26 Q0999

2010/08/10 07:00
OIAW 100700Z 14004KT 7000 FEW040 BKN100 40/14 Q1000 A2954

2010/08/10 07:00
OIBB 100700Z 34006KT CAVOK 37/27 Q0999 A2952 SCT100

2010/08/10 07:00
OIBK 100700Z 12020KT 5000 SA SKC 36/27 Q1000 A2954

2010/08/10 07:00
OICC 100700Z 15010KT CAVOK 36/M05 Q1014 A2997 866.2

2010/08/10 07:00
OICK 100700Z 00000KT CAVOK 37/M03 Q1012 A2990

2010/08/10 07:00
OICS 100700Z 01002KT CAVOK 31/M01 Q1015 A2998 FEW100

2010/08/10 07:00
OIFM 100700Z 25006KT 7000 SKC 30/02 Q1019 A3009

2010/08/10 07:00
OIGG 100700Z 33004KT 9999 BKN080 30/19 Q1010 A2985

2010/08/10 07:00
OIKB 100700Z 14010KT 6000 SCT025 35/27 Q1002 A2959

2010/08/10 07:00
OIKK 100700Z 26004KT CAVOK 29/00 Q1018 A3008

2010/08/10 07:00
OIMM 100700Z 35012KT CAVOK 33/M02 Q1014 A2997

2010/08/10 07:00
OINZ 100700Z 05004KT CAVOK 33/20 Q1010 A2983

2010/08/10 07:00
OISS 100700Z 14006KT CAVOK 32/01 Q1015 A3000

2010/08/10 07:00
OITL 100700Z 13004KT 9999 FEW035CB FEW040 SCT080 23/06 Q1018 A3008 3LC

2010/08/10 07:00
OITR 100700Z 08004KT CAVOK 30/12 Q1015 A2999

2010/08/10 07:00
OITT 100700Z 08014KT 9999 FEW038 FEW040CB 31/07 Q1016 A3001

2010/08/10 07:00
OIYY 100700Z 29008KT CAVOK 32/M05 Q1016 A3001

2010/08/10 07:00
OIZH 100700Z 36012KT 8000 NSC 34/M02 Q1012 A2991

2010/08/10 07:00
OKBK 100700Z 03005KT 7000 NSC 41/20 Q1000 NOSIG

2010/08/10 07:00
OSAP 100700Z 26011KT CAVOK 30/20 Q1007

2010/08/10 07:00
OSDI 100700Z 22004KT CAVOK 29/18 Q1009

2010/08/10 07:00
OSLK 100700Z 18004KT 9999 FEW026 SCT030 30/21 Q1007

2010/08/10 07:00
OTBD 100700Z 10008KT 070V130 CAVOK 39/24 Q1000 NOSIG

2010/08/10 07:00
OBBI 100700Z 16004KT CAVOK 40/19 Q1000 NOSIG

2010/08/10 07:00
OMAA 100700Z 17009KT 150V2209000 NSC 41/15 Q0999 A2951 NOSIG

2010/08/10 07:00
OMAL 100700Z 16014KT 130V190 CAVOK 41/14 Q1002 AXWOYQV

2010/08/10 07:00
OMDB 100700Z 15007KT 90V180 CAVOK )1/17 Q1000 NOSIG

2010/08/10 07:00
OMFJ 100700Z 08009KT 040V120 CAVOK 34/27 Q1002 A2960

2010/08/10 07:00
OMRK 100700Z 11013KT CAVOK 42/15 Q1000 A2953

2010/08/10 07:00
OMSJ 100700Z 15008KT 110V200 7000 NSC 42/16 Q1000

2010/08/10 07:00
OYAA 100700Z VRB02KT 7000 FEW030 BKN100 33/21 Q1006

2010/08/10 07:00
OYHD 100700Z 33010KT 7000 SCT029 34/31 Q1004

2010/08/10 07:00
OYMB 100700Z 24008KT CAVOK 35/12 Q1006

2010/08/10 06:53
PABI 100653Z AUTO 20014G20KT 10SM FEW100 16/07 A2966

2010/08/10 06:55
PACZ 100655Z AUTO 20007KT 10SM BKN009 BKN017 OVC027 09/08 A2929

2010/08/10 06:56
PADK 100656Z 14009KT 10SM BKN009 OVC036 09/08 A2988

2010/08/10 06:50
PADL 100650Z 18005KT 3SM -RA BR SCT006 OVC016 10/09 A2962

2010/08/10 06:55
PAEH 100655Z AUTO 18017G26KT 150V220 1SM OVC003 08/07

2010/08/10 06:58
PAGA 100658Z AUTO 13006KT 10SM BKN030 OVC037 15/11 A2955

2010/08/10 06:55
PAIM 100655Z AUTO 00000KT 10SM BKN075 13/13 A2961

2010/08/10 06:55
PALU 100655Z AUTO 07019KT 5SM 09/08 A2960

2010/08/10 06:55
PASV 100655Z AUTO 17003KT 10SM SCT013 BKN025 OVC031 09/08 A2964

2010/08/10 06:55
PATC 100655Z AUTO 00000KT 10SM BKN023 OVC033 11/09 A2943

2010/08/10 06:55
PATL 100655Z AUTO 20004KT 10SM OVC019 12/09 A2960

2010/08/10 07:00
OBBI 100700Z 16004KT CAVOK 40/19 Q1000 NOSIG

2010/08/10 07:00
OJAQ 100700Z 35014KT CAVOK 31/21 Q1006

2010/08/10 07:00
OMAD 100700Z 18007KT 140V210 6000 NSC 40/16 Q0999 A2952

2010/08/10 07:00
SBBE 100700Z 06006KT CAVOK 25/22 Q1012

2010/08/10 07:00
SBBR 100700Z 25003KT CAVOK 13/04 Q1022

2010/08/10 07:00
SBBV 100700Z 00000KT 9999 FEW020 SCT100 25/23 Q1013

2010/08/10 07:00
SBCF 100700Z 17005KT CAVOK 14/11 Q1021

2010/08/10 07:00
SBCG 100700Z 15007KT CAVOK 15/11 Q1018

2010/08/10 07:00
SBEG 100700Z 00000KT CAVOK 23/22 Q1012

2010/08/10 07:00
SBFI 100700Z 23002KT CAVOK 11/10 Q1019

2010/08/10 07:00
SBFZ 100700Z 12006KT 9999 SCT017 25/23 Q1014

2010/08/10 07:00
SBGR 100700Z 16003KT 9999 OVC023 14/12 Q1024

2010/08/10 07:00
SBKP 100700Z 12017KT CAVOK 12/10 Q1022

2010/08/10 07:00
SBNT 100700Z 15005KT 9999 SCT010 SCT020 OVC070 22/22 Q1015

2010/08/10 07:00
SBPA 100700Z 06001KT 0150 R11/0250 R29/0350 FG NSC 05/05 Q1026

2010/08/10 07:00
SBPS 100700Z 28003KT 9999 FEW020 16/16 Q1018

2010/08/10 07:00
SBRF 100700Z 15012KT 9999 SCT018 BKN070 25/19 Q1016

2010/08/10 07:00
SBSL 100700Z 07007KT CAVOK 25/23 Q1012

2010/08/10 07:00
SBSN 100700Z 00000KT CAVOK 24/22 Q1012

2010/08/10 07:00
SBSV 100700Z 29002KT 9999 SCT017 19/18 Q1017

2010/08/10 07:00
SBLO 100700Z 11007KT CAVOK 13/11 Q1021

2010/08/10 07:00
SBMA 100700Z 00000KT 7000 NSC 23/21 Q1012

2010/08/10 07:00
SBMN 100700Z 00000KT 9999 FEW15 25/23 Q1012

2010/08/10 07:00
SBMQ 100700Z 34003KT 9999 BKN015 25/24 Q1012

2010/08/10 07:00
SBPV 100700Z 00000KT 3000 FU NSC 23/19 Q1012

2010/08/10 07:00
SBRB 100700Z 00000KT 5000 FU NSC 23/19 Q1013

2010/08/10 07:00
SBSJ 100700Z 00000KT 4000 BR BKN006 13/12 Q1024

2010/08/10 07:00
SBSP 100700Z 14002KT 5000 BR BKN006 12/11 Q1026

2010/08/10 07:00
SBTE 100700Z 00000KT CAVOK 23/19 Q1013

2010/08/10 07:00
SBVT 100700Z 20010KT 9999 SCT020 SCT100 21/18 Q1021

2010/08/10 07:00
SARP 100700Z 14006KT CAVOK 11/06 Q1021

2010/08/10 07:00
SBAR 100700Z 13006KT 9999 FEW015 25/20 Q1017

2010/08/10 07:00
SBCT 100700Z 07005KT 9999 BKN012 08/07 Q1024

2010/08/10 07:00
SBCY 100700Z 13005KT CAVOK 21/16 Q1015

2010/08/10 07:00
SBFL 100700Z 00000KT 9999 SCT025 14/11 Q1025

2010/08/10 07:00
SBGO 100700Z 34002KT CAVOK 14/11 Q1019

2010/08/10 07:00
VHHH 100700Z 17008KT 120V200 9999 FEW025 SCT035 33/25 Q1005 NOSIG

2010/08/10 07:00
RCTP 100700Z 25016KT 9999 FEW025 35/25 Q1005 NOSIG

2010/08/10 07:00
RCKH 100700Z 20007KT 150V260 9999 FEW010 SCT035 BKN100 29/26 Q1007 TEMPO 5000 SHRA

2010/08/10 07:00
RCSS 100700Z 07010KT 040V100 9999 FEW022 BKN030 34/25 Q1005 NOSIG

2010/08/10 07:00
VMMC 100700Z 19009KT 160V260 9999 FEW020 SCT090 31/26 Q1005 NOSIG

2010/08/10 07:00
RPLL 100700Z 28012KT 9000 SCT025 OVC300 30/26 Q1008 NOSIG RMK A2977

2010/08/10 07:00
RPVM 100700Z 11004KT 9999 SCT018CB OVC250 32/27 Q1009 A2980 TS OVHD CB ALQDS

2010/08/10 07:00
RPMD 100700Z 09002 9999 -TS VCRA SCT015CB SCT090 BKN290 31/26 1008 SLT TS E/ DIST PCPN E/CB N-E S-W

2010/08/10 07:00
RPLB 100700Z 22006KT 9999 FEW020 SCT080 BKN300 30/25 Q1009 NOSIG

2010/08/10 07:00
RPLI 100700Z 22010G20KT 9999 FEW019CB FEW020 BKN290 32/27 Q1007 NOSIG

2010/08/10 07:00
RPMZ 100700Z 36004KT 9999 FEW018 SCT120 30/26 Q1010

2010/08/10 07:00
SBJP 100700Z 20008KT 9999 BKN021 BKN070 22/21 Q1016

2010/08/10 07:00
SBRP 100700Z 11006KT 9999 FEW012 16/12 Q1020

2010/08/10 06:53
TIST 100653Z AUTO 09005KT 10SM CLR 28/24 A2992

2010/08/10 06:53
TISX 100653Z AUTO 10004KT 10SM SCT021 SCT038 BKN055 27/24 A2993

2010/08/10 06:50
TJPS 100650Z 00000KT 8SM SCT030 BKN060 26/26 A2993

2010/08/10 06:56
TJSJ 100656Z 12005KT 10SM SCT050 27/24 A2994

2010/08/10 07:00
YSSY 100700Z 02017KT 9999 -RA FEW010 BKN014 BKN040 17/15 Q1012 FM0800 02015KT 9000 -RA SCT010 BKN020 BKN040 TEMPO 0700/1000 4000 RA BKN010

2010/08/10 07:00
MKJS 100700Z 00000KT 9999 FEW024 BKN220 27/24 Q1012

2010/08/10 06:55
MUCM 100655Z 36004KT 9000 FEW020 23/21 Q1014

2010/08/10 06:55
MUCU 100655Z 02004KT 9000 FEW020CB SCT035 26/24 Q1015

2010/08/10 06:55
MUHA 100655Z 21004KT 7000 FEW040 OVC110 23/22 Q1012

2010/08/10 06:52
MUVR 100652Z 19003KT 150V240 9000 FEW018 OVC070 23/21 Q1013

2010/08/10 06:59
MYEG 100659Z AUTO 11004KT 10SM CLR 27/24 A2994 RMK AO2

2010/08/10 07:00
MYNN 100700Z 23011G23KT 9000 +SHRA SCT020 OVC080 25/25 A2997

2010/08/10 07:00
MDSD 100700Z 01004KT 9999 FEW018 24/23 Q1013

2010/08/10 07:00
MDST 100700Z 00000KT 9999 FEW016 24/24 Q1013

2010/08/10 07:00
TAPA 100700Z 10009KT 9999 FEW019 27/24 Q1013

2010/08/10 06:53
TIST 100653Z AUTO 09005KT 10SM CLR 28/24 A2992 RMK AO2 SLP133 T02830244 TSNO

2010/08/10 06:53
TISX 100653Z AUTO 10004KT 10SM SCT021 SCT038 BKN055 27/24 A2993 RMK AO2 RAB42E52 SLP134 P0000 T02720244 TSNO

2010/08/10 06:50
TJPS 100650Z 00000KT 8SM SCT030 BKN060 26/26 A2993

2010/08/10 06:56
TJSJ 100656Z 12005KT 10SM SCT050 27/24 A2994 RMK AO2 RAB08E19 SLP137 OCNL LTGIC DSNT N-SW CB DSNT N-SW P0000 T02670244 $

2010/08/10 07:00
TBPB 100700Z 14007KT 9999 FEW022 SCT280 27/24 Q1013 NOSIG

2010/08/10 07:00
TFFF 100700Z AUTO VRB01KT 9999NDV FEW011/// SCT020/// BKN040/// 25/24 Q1012

2010/08/10 07:00
TFFR 100700Z 04002KT 9999 SCT021 SCT048 25/24 Q1013 TEMPO 4000 SHRA

2010/08/10 07:00
TTCP 100700Z 15008KT 9999 FEW016 SCT300 28/23 Q1013 NOSIG

2010/08/10 07:00
TTPP 100700Z ///05KT 9999 FEW018 BKN280 24/23 Q1012 NOSIG

2010/08/10 07:00
MGPB 100700Z 00000KT 9999 TS SCT016 FEW025CB 26/25 Q1011 A2985 CB/TS/LTNG N/NNE

2010/08/10 07:00
MGSJ 100700Z 36006KT 9999 TS SCT016 FEW025CB SCT090 26/25 Q1013 A2991 CB/TS/LTNG E/ESE

2010/08/10 07:00
MHLC 100700Z 00000KT 9999 SCT024 26/24 Q1011 A2987 NOSIG

2010/08/10 07:00
MHLM 100700Z 00000KT 9999 SCT026 27/27 Q1011 A2986 NOSIG

2010/08/10 07:00
MHTG 100700Z 23003KT 9999 FEW026 BKN080 19/18 Q1017 A3003 NOSIG

2010/08/10 07:00
MPTO 100700Z 00000KT 9999 SCT018CB 27/25 Q1011 NOSIG

2010/08/10 07:00
MROC 100700Z 00000KT 9999 FEW007 BKN013 21/21 A3003 RMK BR ARND NOSIG

2010/08/10 06:55
MUCM 100655Z 36004KT 9000 FEW020 23/21 Q1014

2010/08/10 06:55
MUCU 100655Z 02004KT 9000 FEW020CB SCT035 26/24 Q1015

2010/08/10 06:56
MUGM 100656Z 34006KT 9999 FEW025 SCT250 26/23 A2993 RMK SLP133 T02610228

2010/08/10 06:55
MUHA 100655Z 21004KT 7000 FEW040 OVC110 23/22 Q1012

2010/08/10 06:52
MUVR 100652Z 19003KT 150V240 9000 FEW018 OVC070 23/21 Q1013

2010/08/10 07:00
MGGT 100700Z 36005KT 9999 FEW006 BKN012 19/19 Q1024 A3024 SCT080 MTN E/W CUB/CL VOL/ PACAYA EN ACTIVIDAD NOSIG

2010/08/10 07:00
MGGT 100700Z 36005KT 9999 FEW006 BKN012 19/19 Q1024 A3024 SCT080 MTN E/W CUB/CL VOL. PACAYA EN ACTIVIDAD NOSIG

2010/08/10 06:53
PHJR 100653Z VRB04KT 10SM CLR 26/17 A3009

2010/08/10 06:53
PHKO 100653Z 06014G19KT 10SM FEW029 BKN050 OVC060 26/15 A3004

2010/08/10 06:53
PHLI 100653Z 05013KT 10SM OVC065 25/19 A3012

2010/08/10 06:53
PHNL 100653Z 06013G20KT 10SM FEW031 SCT041 26/17 A3008

2010/08/10 06:54
PHOG 100654Z 05013KT 10SM CLR 25/18 A3009

2010/08/10 06:53
PHTO 100653Z 04003KT 10SM BKN060 24/18 A3010

2010/08/10 07:00
RCKH 100700Z 20007KT 150V260 9999 FEW010 SCT035 BKN100 29/26 Q1007 TEMPO 5000 SHRA

2010/08/10 07:00
RCSS 100700Z 07010KT 040V100 9999 FEW022 BKN030 34/25 Q1005 NOSIG

2010/08/10 07:00
RCTP 100700Z 25016KT 9999 FEW025 35/25 Q1005 NOSIG

2010/08/10 07:00
ZBAA 100700Z 15002MPS 110V240 7000 NSC 33/20 Q1006 NOSIG

2010/08/10 07:00
ZBTJ 100700Z 15006MPS 4000 HZ NSC 30/22 Q1006 NOSIG

2010/08/10 07:00
ZBYN 100700Z 08007MPS 8000 SCT040 23/18 Q1009 NOSIG

2010/08/10 07:00
ZGGG 100700Z 11002MPS 080V160 7000 FEW040TCU SCT040 36/25 Q1004 NOSIG

2010/08/10 07:00
ZGNN 100700Z 15003MPS 9999 SCT026 FEW030CB 31/25 Q1003 TEMPO 3000 TSRA SCT020 FEW026CB

2010/08/10 07:00
ZGSZ 100700Z 19006MPS 160V220 9999 FEW022 33/24 Q1005 NOSIG

2010/08/10 07:00
ZHHH 100700Z VRB01MPS 5000 HZ BKN025 37/30 Q1002 NOSIG

2010/08/10 07:00
ZLLL 100700Z 12003MPS 070V170 CAVOK 29/15 Q1011 NOSIG

2010/08/10 07:00
ZMUB 100700Z 26004MPS 220V310 9999 FEW030CB SCT033 26/03 Q1005 NOSIG RMK QFE647.5 23

2010/08/10 07:00
ZPPP 100700Z 21004MPS 160V260 9999 FEW026TCU SCT026 28/15 Q1015 NOSIG

2010/08/10 07:00
ZSAM 100700Z 18006MPS 9999 FEW023 35/22 Q1004 NOSIG

2010/08/10 07:00
ZSHC 100700Z 36003MPS 320V050 9999 SCT020 35/23 Q1002 NOSIG

2010/08/10 07:00
ZSNJ 100700Z 36002MPS 4000 HZ SCT030 35/22 Q1003 NOSIG

2010/08/10 07:00
ZSOF 100700Z 13003MPS 090V190 9999 SCT026 35/25 Q1003 NOSIG

2010/08/10 07:00
ZSPD 100700Z 31009MPS 9999 SCT030 32/25 Q1002 NOSIG

2010/08/10 07:00
ZSSS 100700Z 36007MPS 300V020 9999 BKN033 33/25 Q1002 NOSIG

2010/08/10 07:00
ZUCK 100700Z 14002MPS 080V200 9999 FEW033 38/22 Q1002 NOSIG

2010/08/10 07:00
ZUUU 100700Z VRB02MPS 5000 HZ FEW030TCU SCT030 35/25 Q1002 NOSIG

2010/08/10 07:00
ZWWW 100700Z 32003MPS 270V360 CAVOK 31/08 Q1005 NOSIG

2010/08/10 07:00
ZYHB 100700Z 26006MPS 9999 SCT026 25/13 Q1006 NOSIG

2010/08/10 07:00
ZYTL 100700Z 34002MPS 300V010 8000 SCT010 BKN026 27/21 Q1006 NOSIG

2010/08/10 07:00
EPGD 100700Z 01003KT 330V040 CAVOK 18/14 Q1018

2010/08/10 07:00
EPKK 100700Z 23005KT 200V280 9999 FEW007 18/16 Q1018

2010/08/10 07:00
EPKT 100700Z 00000KT 8000 FEW006 18/16 Q1018

2010/08/10 07:00
EPPO 100700Z VRB01KT 2000 BR BKN002 17/17 Q1017

2010/08/10 07:00
EPRZ 100700Z 26009KT 9999 SCT009 19/17 Q1017

2010/08/10 07:00
EPWA 100700Z 19004KT 150V250 9999 FEW026 21/17 Q1017 NOSIG

2010/08/10 07:00
UKBB 100700Z 02003MPS 6000 TS SCT033CB 24/22 Q1015 88CLRD95 TEMPO -TSRA SCT030CB

2010/08/10 07:00
UKKK 100700Z VRB01MPS 9999 NSC 27/20 Q1015 26CLRD70 NOSIG

2010/08/10 07:00
UKLL 100700Z 29002MPS 250V350 9999 BKN008 18/17 Q1018 31110360 TEMPO -TSRA BKN020CB

2010/08/10 07:00
UKOO 100700Z 04007MPS CAVOK 30/16 Q1011 34090070 NOSIG

2010/08/10 06:54
PGSN 100654Z 09005KT 10SM FEW019 28/24 A2990

2010/08/10 06:55
PGUA 100655Z AUTO 07008KT 10SM FEW019 27/24 A2990

2010/08/10 06:54
PGUM 100654Z 10007KT 10SM SCT025 BKN032 29/23 A2989

2010/08/10 07:00
PKWA 100700Z AUTO 06017KT 10SM SCT021 SCT027 29/24 A2985

2010/08/10 06:55
PWAK 100655Z 06014G19KT 10SM SCT024 29/24 A3000

2010/08/10 07:00
LBBG 100700Z 34005G11MPS CAVOK 28/21 Q1011 NOSIG

2010/08/10 07:00
LBPD 100700Z 28007MPS CAVOK 26/18 Q1014 NOSIG

2010/08/10 07:00
LBSF 100700Z 28004MPS CAVOK 21/15 Q1017 NOSIG

2010/08/10 07:00
LBWN 100700Z 29004MPS 250V310 CAVOK 27/22 Q1011 WS RWY09 NOSIG

2010/08/10 07:00
LHBP 100700Z 28005KT CAVOK 21/16 Q1018 NOSIG

2010/08/10 07:00
LRBS 100700Z 32005KT 270V360 CAVOK 27/20 Q1014 NOSIG

2010/08/10 07:00
LRCK 100700Z 34004KT 270V040 CAVOK 29/19 Q1012 NOSIG

2010/08/10 07:00
LROP 100700Z 28006KT 260V320 CAVOK 27/20 Q1014 880///95 NOSIG

2010/08/10 07:00
LRTR 100700Z 34006KT 310V010 CAVOK 23/18 Q1017 NOSIG

2010/08/10 07:00
LATI 100700Z 00000KT CAVOK 27/25 Q1012 NOSIG

2010/08/10 07:00
LDDU 100700Z 23005KT 140V290 CAVOK 28/11 Q1014 NOSIG

2010/08/10 07:00
LDOS 100700Z 05004KT CAVOK 22/17 Q1018

2010/08/10 07:00
LDPL 100700Z 01004KT 340V040 CAVOK 26/16 Q1015 NOSIG

2010/08/10 07:00
LDRI 100700Z VRB01KT CAVOK 27/16 Q1015

2010/08/10 07:00
LDSP 100700Z VRB02KT CAVOK 27/14 Q1014 NOSIG

2010/08/10 07:00
LDZA 100700Z VRB02KT CAVOK 21/16 Q1017 NOSIG

2010/08/10 07:00
LDZD 100700Z VRB05KT CAVOK 28/14 Q1014 NOSIG

2010/08/10 07:00
LKMT 100700Z 24003KT 200V290 9999 FEW026 18/15 Q1018 NOSIG

2010/08/10 07:00
LKPR 100700Z 11003KT 050V150 CAVOK 19/15 Q1018 NOSIG

2010/08/10 07:00
LKTB 100700Z VRB01KT CAVOK 18/14 Q1018 NOSIG

2010/08/10 07:00
LQSA 100700Z VRB02KT 9999 FEW030 17/14 Q1020 NOSIG

2010/08/10 07:00
LWOH 100700Z 35009KT CAVOK 23/14 Q1017

2010/08/10 07:00
LWSK 100700Z 29003KT CAVOK 24/15 Q1017 NOSIG

2010/08/10 07:00
LYBE 100700Z 34003KT 280V020 CAVOK 22/17 Q1018 NOSIG

2010/08/10 07:00
LYNI 100700Z VRB02KT 9999 FEW023 21/16 Q1018 NOSIG

2010/08/10 07:00
LYPG 100700Z 36006KT CAVOK 28/12 Q1013 NOSIG

2010/08/10 07:00
LYTV 100700Z 00000KT CAVOK 28/15 Q1013 NOSIG

2010/08/10 07:00
LZIB 100700Z 00000KT 9999 FEW007 20/16 Q1018

2010/08/10 07:00
LZKZ 100700Z 04004KT 330V090 CAVOK 21/15 Q1018 NOSIG

2010/08/10 07:00
LZTT 100700Z 26006KT 9999 FEW006 17/13 Q1019 NOSIG

2010/08/10 07:00
LPFR 100700Z VRB03KT CAVOK 26/17 Q1015

2010/08/10 07:00
LPPR 100700Z 00000KT 7000 FEW090 23/16 Q1016

2010/08/10 07:00
LPPS 100700Z 35005KT 9000 SCT011 22/19 Q1016

2010/08/10 07:00
LPPT 100700Z 00000KT CAVOK 28/17 Q1016 NOSIG

2010/08/10 07:00
LFBD 100700Z 15003KT CAVOK 16/14 Q1019 NOSIG

2010/08/10 07:00
LFBH 100700Z AUTO 17003KT 140V210 9999NDV BKN020 BKN030 19/16 Q1018

2010/08/10 07:00
LFBI 100700Z 25007KT 9999 BKN004 15/14 Q1018 BECMG BKN005

2010/08/10 07:00
LFBO 100700Z VRB02KT CAVOK 18/14 Q1019 NOSIG

2010/08/10 07:00
LFBP 100700Z VRB02KT 9999 FEW013 18/16 Q1018 NOSIG

2010/08/10 07:00
LFBT 100700Z VRB03KT 9999 SCT014 SCT022 17/15 Q1019 TEMPO BKN008

2010/08/10 07:00
LFBZ 100700Z 13004KT 090V150 CAVOK 17/16 Q1018 NOSIG

2010/08/10 07:00
LFGJ 100700Z AUTO 22003KT 150V270 9999NDV NSC 18/15 Q1017

2010/08/10 07:00
LFKB 100700Z 00000KT 9999 SCT017 SCT160 25/20 Q1016 NOSIG

2010/08/10 07:00
LFKC 100700Z VRB02KT 9999 FEW020 25/17 Q1016 NOSIG

2010/08/10 07:00
LFKJ 100700Z VRB03KT 9999 FEW020 24/16 Q1016 NOSIG

2010/08/10 07:00
LFLB 100700Z VRB02KT 9999 FEW080 21/16 Q1017 NOSIG

2010/08/10 07:00
LFLL 100700Z 01006KT CAVOK 20/15 Q1017 NOSIG

2010/08/10 07:00
LFLS 100700Z 01004KT CAVOK 20/14 Q1017 NOSIG

2010/08/10 07:00
LFLY 100700Z 05004KT 360V070 CAVOK 22/15 Q1017 NOSIG

2010/08/10 07:00
LFMD 100700Z AUTO VRB02KT 9999NDV BKN038 25/20 Q1015

2010/08/10 07:00
LFMH 100700Z VRB02KT CAVOK 19/14 Q1018 NOSIG

2010/08/10 07:00
LFML 100700Z 27002KT 9999 FEW013 23/20 Q1015 NOSIG

2010/08/10 07:00
LFMN 100700Z 03005KT 9999 BKN036 25/19 Q1016 NOSIG

2010/08/10 07:00
LFMP 100700Z 30009KT 9999 FEW060 23/15 Q1017 NOSIG

2010/08/10 07:00
LFMT 100700Z 27004KT CAVOK 24/14 Q1015 NOSIG

2010/08/10 07:00
LFOB 100700Z 16003KT CAVOK 16/12 Q1015 NOSIG

2010/08/10 07:00
LFOH 100700Z AUTO 19012KT 160V220 9999NDV FEW017 BKN040 OVC054 17/13 Q1014

2010/08/10 07:00
LFOT 100700Z AUTO 24007KT 9999NDV NSC 16/13 Q1017

2010/08/10 07:00
LFPB 100700Z 00000KT CAVOK 18/13 Q1016 NOSIG

2010/08/10 07:00
LFPG 100700Z 23003KT CAVOK 18/11 Q1016 NOSIG

2010/08/10 07:00
LFPN 100700Z VRB03KT CAVOK 18/13 Q1016 NOSIG

2010/08/10 07:00
LFPO 100700Z VRB02KT CAVOK 19/14 Q1016 NOSIG

2010/08/10 07:00
LFQQ 100700Z 21008KT 170V230 CAVOK 17/13 Q1014 NOSIG

2010/08/10 07:00
LFRB 100700Z 25010KT 3500 RA BKN005 17/17 Q1014 NOSIG

2010/08/10 07:00
LFRC 100700Z AUTO 21010KT 2100NDV -RA BR OVC004 17/17 Q1013

2010/08/10 07:00
LFRD 100700Z AUTO 21009KT 9999NDV -RA FEW007 SCT031 BKN038 17/17 Q1014

2010/08/10 07:00
LFRK 100700Z 16005KT 9999 -RA SCT040 BKN053 16/14 Q1014 NOSIG

2010/08/10 07:00
LFRN 100700Z AUTO 21008KT 9999NDV -RA SCT009 OVC043 17/16 Q1016

2010/08/10 07:00
LFRO 100700Z AUTO 22007KT 3000NDV -RA BR BKN004 OVC009 17/17 Q1014

2010/08/10 07:00
LFRS 100700Z 21005KT 9999 FEW029 SCT150 BKN230 17/17 Q1017 NOSIG

2010/08/10 07:00
LFRT 100700Z 23007KT 190V260 4000 -RA BR SCT013 OVC022 17/17 Q1014

2010/08/10 07:00
LFRZ 100700Z AUTO 21008KT 9999NDV FEW016 OVC028 19/16 Q1017

2010/08/10 07:00
LFSB 100700Z 13005KT 070V180 CAVOK 19/14 Q1017 NOSIG

2010/08/10 07:00
LFSN 100700Z 00000KT CAVOK 19/13 Q1017 NOSIG

2010/08/10 07:00
LFSR 100700Z AUTO VRB03KT 9999NDV NSC 17/14 Q1015

2010/08/10 07:00
LFST 100700Z 17005KT 9999 FEW050 SCT083 17/14 Q1017 NOSIG

2010/08/10 07:04
PASY 100704Z AUTO 29010KT 1 3/4SM BR OVC001 09/09 A2987 RMK AO2 TSNO PNO $ 

2010/08/10 07:00
EICK 100700Z 33007KT 9999 FEW033 12/08 Q1009 NOSIG

2010/08/10 07:00
EIDW 100700Z 24012KT 200V270 9999 -SHRA FEW018 SCT041 BKN050 12/10 Q1007 NOSIG

2010/08/10 07:00
EIKN 100700Z 29007KT 9999 FEW010 11/11 Q1007 NOSIG

2010/08/10 07:00
EINN 100700Z 24011KT 9999 FEW024 BKN035 15/11 Q1008 NOSIG

2010/08/10 07:00
LFBA 100700Z 00000KT 9999 SCT030 SCT250 16/15 Q1019 NOSIG

2010/08/10 07:00
LFBC 100700Z AUTO 00000KT 9999NDV NSC 15/14 Q1019

2010/08/10 07:00
LFBL 100700Z 30006KT 9999 SCT021 BKN300 15/11 Q1019 NOSIG

2010/08/10 07:00
LFBM 100700Z 08002KT 0200 R27///// FG VV/// 13/12 Q1019

2010/08/10 07:00
LFKF 100700Z VRB01KT CAVOK 25/17 Q1016 NOSIG

2010/08/10 07:00
LFOE 100700Z AUTO 18005KT 9999NDV NSC 16/11 Q1015

2010/08/10 07:00
LFOP 100700Z 18006KT CAVOK 14/11 Q1015 BECMG 8000 -RA BKN030 OVC090

2010/08/10 07:00
LFPB 100700Z 00000KT CAVOK 18/13 Q1016 NOSIG

2010/08/10 07:00
LFPG 100700Z 23003KT CAVOK 18/11 Q1016 NOSIG

2010/08/10 07:00
LFPV 100700Z AUTO 22003KT 9999NDV NSC 18/12 Q1016

2010/08/10 07:00
LFQQ 100700Z 21008KT 170V230 CAVOK 17/13 Q1014 NOSIG

2010/08/10 07:00
LFSD 100700Z AUTO 00000KT 9999NDV NSC 17/13 Q1017

2010/08/10 07:00
LFSI 100700Z AUTO 14003KT 110V170 9999NDV NSC 20/13 Q1016

2010/08/10 07:00
LFSL 100700Z AUTO VRB02KT 9999NDV BKN023 17/14 Q1019

2010/08/10 07:00
LFSO 100700Z VRB02KT CAVOK 20/13 Q1017

2010/08/10 07:00
LFSX 100700Z AUTO 10005KT 9999NDV NSC 18/14 Q1017

2010/08/10 07:00
LFTH 100700Z VRB03KT 8000 SCT016 25/20 Q1015 NOSIG

2010/08/10 06:50
PGRO 100650Z 06009KT 7SM FEW020 FEW150 28/25 A2990

2010/08/10 06:54
PGSN 100654Z 09005KT 10SM FEW019 28/24 A2990

2010/08/10 06:54
PGUM 100654Z 10007KT 10SM SCT025 BKN032 29/23 A2989

2010/08/10 06:50
PGWT 100650Z 09005KT 7SM SCT016 BKN100 BKN160 29/25 A2990

2010/08/10 06:52
PKMR 100652Z 08014KT 15SM FEW015 SCT050 BKN120 OVC300 27/24 A2984

2010/08/10 07:00
PKWA 100700Z AUTO 06017KT 10SM SCT021 SCT027 29/24 A2985

2010/08/10 06:50
PTKK 100650Z 11008KT 15SM FEW014 BKN120 OVC280 29/25 A2982

2010/08/10 06:55
PTKR 100655Z 15006KT 15SM FEW018TCU BKN120 OVC300 29/25 A2982

2010/08/10 06:50
PTRO 100650Z 17007KT 15SM FEW010 SCT016TCU BKN120 BKN300 29/25 A2986

2010/08/10 06:50
PTTP 100650Z 12004KT 15SM BKN018 OVC130 27/25 A2985

2010/08/10 06:50
PTYA 100650Z 18008KT 12SM FEW016 FEW140 BKN300 32/24 A2984

2010/08/10 06:55
PWAK 100655Z 06014G19KT 10SM SCT024 29/24 A3000

2010/08/10 06:55
FJDG 100655Z 16012G21KT 9999 FEW020 SCT070 BKN220 28/24 A2984 RMK SLP102 T02810239

2010/08/10 07:00
FMMI 100700Z VRB03KT 9999 FEW020 20/14 Q1027 NOSIG

2010/08/10 07:00
WBGG 100700Z 33006KT 9999 FEW015CB SCT022 BKN300 33/25 Q1006 TEMPO 4000 TSRA

2010/08/10 07:00
WBKK 100700Z 32003KT 9999 FEW014 FEW017CB SCT140 BKN270 32/25 Q1007 NOSIG

2010/08/10 07:00
WBSB 100700Z 33004KT 9999 FEW017 FEW018CB BKN140 31/26 Q1007 NOSIG

2010/08/10 06:55
KQAE 100655Z VRB05KT 8000 FU HZ CLR 43/09 A2961 RMK SLP024

2010/08/10 06:55
KQMG 100655Z AUTO 15011KT 10SM CLR 25/11 A3005 RMK AO2 SLP095 T02530112

2010/08/10 06:55
KQTO 100655Z 34005KT 9999 FEW080 42/07 A2960 RMK SLP020

2010/08/10 06:55
KQTU 100655Z 32006KT 9000 HZ CLR 36/04 A2969 RMK SLP032

2010/08/10 06:55
KQTX 100655Z 32006KT 9000 HZ FEW080 43/01 A2965 RMK SLP013

2010/08/10 06:55
KQTZ 100655Z VRB05KT 8000 DU HZ CLR 43/06 A2960 RMK SLP017 QNH1001MB WND DATA ESTMD ALTSG/SLP ESTMD

2010/08/10 06:55
KQAJ 100655Z 34008KT 9999 CLR 39/05 A2969 RMK SLP037 WND DATA ESTMD ALSTG/SLP ESTMD

2010/08/10 06:55
KQAQ 100655Z 03005KT 8000 HZ FEW060 42/09 A2962 RMK SLP026 PA +401 DA +3557

2010/08/10 06:55
KQPD 100655Z AUTO VRB05KT 8000 36/04 A2969 RMK AO2 SLP962 T03610038 $

2010/08/10 06:55
KQSL 100655Z 33004KT 9999 FEW170 42/04 A2966 RMK SLP031 Q1004MB

2010/08/10 06:55
KQTI 100655Z AUTO 12002KT 9999 FEW230 41/07 A2970 RMK AO2 SLP031 T04070066

2010/08/10 07:00
LPAZ 100700Z 06004KT 030V090 9999 FEW018 BKN036 20/16 Q1019

2010/08/10 07:00
LPHR 100700Z 36005KT 9999 FEW016 BKN040 20/15 Q1021

2010/08/10 07:00
LPLA 100700Z 00000KT 9999 FEW018 BKN035 21/17 Q1022

2010/08/10 07:00
LPPD 100700Z VRB02KT 9999 FEW020 BKN040 20/14 Q1020

2010/08/10 07:00
RJAA 100700Z 15009KT 9999 SCT025 FEW025TCU 28/24 Q1014 NOSIG

2010/08/10 07:00
RJAH 100700Z 18008KT 9999 FEW020 SCT025 BKN070 29/25 Q1013

2010/08/10 07:00
RJCC 100700Z 17009KT 9999 FEW004 BKN006 23/21 Q1013

2010/08/10 07:00
RJCH 100700Z 14010KT 9999 FEW003 BKN/// 25/23 Q1013

2010/08/10 07:00
RJFK 100700Z 13013KT 9999 FEW020 SCT025 BKN/// 29/24 Q1011

2010/08/10 07:00
RJFT 100700Z 14007KT 110V190 9999 FEW025 SCT120 BKN/// 33/22 Q1009

2010/08/10 07:00
RJFU 100700Z 15023KT 9999 FEW030 SCT050 BKN/// 32/24 Q1007

2010/08/10 07:00
RJOO 100700Z 22008KT 190V260 9999 FEW015 SCT100 BKN/// 30/22 Q1012

2010/08/10 07:00
RJSS 100700Z 15008KT 9999 FEW025 SCT/// 29/24 Q1013

2010/08/10 07:00
RJTT 100700Z 19013KT 9999 FEW020 30/24 Q1013

2010/08/10 06:55
RODN 100655Z 18014KT 9999 BKN020 OVC200 30/26 A2980 RMK AO2A SLP092 T02950261

2010/08/10 07:00
RJAF 100700Z 00000KT 9999 -SHRA FEW005 BKN045 BKN080 24/21 Q1017

2010/08/10 07:00
RJAW 100700Z 12007KT 9999 FEW015 28/23 Q1013 RMK 1CU015 A2992

2010/08/10 07:00
RJBD 100700Z 16006KT 130V190 9999 FEW010 BKN/// 29/26 Q1014

2010/08/10 07:00
RJCB 100700Z 15006KT 9999 FEW015 BKN/// 27/23 Q1013

2010/08/10 07:00
RJCK 100700Z 21007KT 1600 R17/P1800N PRFG BR SCT001 BKN002 21/19 Q1014

2010/08/10 07:00
RJCM 100700Z 16007KT 9999 FEW015 SCT025 FEW030CB BKN090 26/23 Q1012

2010/08/10 07:00
RJCN 100700Z 24007KT 9999 SCT020 BKN/// 25/21 Q1013

2010/08/10 07:00
RJCW 100700Z 21010KT 9999 FEW010 SCT015 BKN045 27/22 Q1011

2010/08/10 07:00
RJDC 100700Z 11022KT 9999 FEW020 BKN140 BKN/// 29/24 Q1009

2010/08/10 07:00
RJDT 100700Z 10010KT 050V130 9999 FEW020 BKN080 BKN/// 29/25 Q1006

2010/08/10 07:00
RJEB 100700Z 05004KT 020V080 9999 FEW030 FEW040CB BKN/// 25/22 Q1012

2010/08/10 07:00
RJEC 100700Z 30003KT 240V330 9999 FEW025 BKN/// 29/22 Q1012

2010/08/10 07:00
RJFG 100700Z 14015KT 9999 FEW004 SCT006 BKN008 27/26 Q1012

2010/08/10 07:00
RJFM 100700Z 15010KT 9999 FEW015 SCT025 BKN035 29/26 Q1012

2010/08/10 07:00
RJFO 100700Z 14019KT 9999 FEW015 SCT160 BKN/// 27/25 Q1011

2010/08/10 07:00
RJFR 100700Z 10024KT 9999 FEW025 SCT150 BKN/// 30/24 Q1008

2010/08/10 07:00
RJKA 100700Z 17018KT 9999 FEW015 SCT030 BKN/// 30/27 Q1009

2010/08/10 07:00
RJNT 100700Z 18008KT 9000 SHRA FEW015 SCT030 BKN040 26/25 Q1013

2010/08/10 07:00
RJOA 100700Z 20005KT 130V250 9999 FEW020 SCT025 BKN045 30/22 Q1013

2010/08/10 07:00
RJOB 100700Z 15005KT 090V210 9999 FEW025 SCT/// 31/23 Q1013

2010/08/10 07:00
RJOC 100700Z 19003KT 090V260 9999 FEW025 BKN180 34/23 Q1010

2010/08/10 07:00
RJOI 100700Z 18003KT 9999 FEW020 SCT040 BKN060 31/23 A2989 RMK SLP120 T03060233

2010/08/10 07:00
RJOK 100700Z 18009KT 9999 FEW020 FEW030TCU SCT160 30/26 Q1013

2010/08/10 07:00
RJOM 100700Z 34005KT 9999 VCSH FEW020 FEW030TCU SCT130 31/24 Q1011

2010/08/10 07:00
RJOR 100700Z 16007KT 9999 FEW030 SCT090 BKN120 33/24 Q1011

2010/08/10 07:00
RJOT 100700Z 05007KT 9999 FEW020 FEW025CB BKN/// 31/24 Q1012

2010/08/10 07:00
RJOY 100700Z 29008KT 9999 FEW020 FEW030CB BKN100 31/24 Q1012

2010/08/10 07:00
RJSA 100700Z 01006KT 320V030 9999 FEW030 29/23 Q1013

2010/08/10 07:00
RJSC 100700Z 11008KT 9999 FEW035 SCT050 FEW050CB 33/23 Q1012

2010/08/10 07:00
RJSI 100700Z 19007KT 150V240 9999 FEW030 33/24 Q1012

2010/08/10 07:00
RJTF 100700Z 20008KT 170V230 9999 FEW025 SCT100 30/23 Q1014

2010/08/10 07:00
RJTH 100700Z 20006KT 150V240 9999 FEW017 SCT160 29/25 Q1015

2010/08/10 07:00
RJTI 100700Z 20010KT 160V240 9999 FEW020 29/23 Q1013

2010/08/10 07:00
RJTO 100700Z 22010KT 9999 FEW015 28/25 Q1014

2010/08/10 06:55
RJTY 100655Z AUTO 17014KT 9999 SCT022 29/25 A3000 RMK AO2 SLP151 T02870246 $

2010/08/10 07:00
RKNY 100700Z 11003KT 080V140 6000 -RA SCT030 OVC100 25/23 Q1008 NOSIG

2010/08/10 07:00
RKPC 100700Z 11016KT 080V140 4000 -RA BR FEW008 BKN030 OVC070 28/25 Q0997 NOSIG

2010/08/10 07:00
RKPK 100700Z 10008KT 9999 BKN050 29/23 Q1008 NOSIG

2010/08/10 07:00
RKSI 100700Z 18005KT 150V210 9999 BKN025 BKN100 31/25 Q1006 TEMPO 4000 SHRA

2010/08/10 07:00
RKSS 100700Z 31004KT 220V010 9999 BKN025 OVC100 26/24 Q1006 TEMPO 4200 RA

2010/08/10 07:00
RKTN 100700Z 10007KT 9000 -RA FEW010 BKN020 OVC030 30/25 Q1007 NOSIG

2010/08/10 07:00
RKTU 100700Z 14004KT 4000 -RA FEW015CB BKN020 OVC030 26/24 Q1008 BECMG 2500

2010/08/10 07:00
LCLK 100700Z 15007KT 120V190 9000 FEW018 30/26 Q1006 NOSIG

2010/08/10 07:00
LCPH 100700Z 23005KT 180V280 7000 BKN020 31/25 Q1006

2010/08/10 06:50
ENGC 100650Z 10018KT 9999 BKN045 14/12 Q1008

2010/08/10 06:50
BGBW 100650Z AUTO 08004KT 0550NDV FG BKN002/// BKN004/// 07/07 Q1009

2010/08/10 06:50
BGGH 100650Z AUTO 23004KT 4300NDV RA OVC016/// 09/09 Q1007

2010/08/10 06:50
BGJN 100650Z AUTO VRB01KT 9999NDV SCT017/// BKN021/// OVC027/// 08/04 Q1008

2010/08/10 06:50
BGSF 100650Z 06008KT 9999 BKN025 BKN040 07/03 Q1007

2010/08/10 06:55
BGTL 100655Z AUTO 00000KT 9999 CLR 02/02 A2982 RMK AO2 SLP101 T00240020

2010/08/10 07:00
BIAR 100700Z 14005KT 9999 OVC011 09/08 Q1014

2010/08/10 07:00
BIEG 100700Z 04006KT 0600 R040750 FG VV002 07/07 Q1013

2010/08/10 07:00
BIKF 100700Z 31006KT 9999 BKN022 12/07 Q1014

2010/08/10 07:00
BIRK 100700Z 30002KT 9999 OVC020 12/07 Q1013

2010/08/10 07:00
LPLA 100700Z 00000KT 9999 FEW018 BKN035 21/17 Q1022

2010/08/10 06:55
TXKF 100655Z 17007KT 9999 FEW017 SCT180 BKN300 27/23 Q1020 /

2010/08/10 06:55
TXKF 100655Z 17007KT 9999 FEW017 SCT180 BKN300 27/23 Q1020

2010/08/10 07:00
AYPY 100700Z 24002KT 9999 SCT018 SCT140 OVC300 27/25 Q1009 RMKS

2010/08/10 06:50
PGRO 100650Z 06009KT 7SM FEW020 FEW150 28/25 A2990

2010/08/10 06:54
PGSN 100654Z 09005KT 10SM FEW019 28/24 A2990 RMK AO2 SLP123 T02830239

2010/08/10 06:55
PGUA 100655Z AUTO 07008KT 10SM FEW019 27/24 A2990 RMK AO2 SLP106 T02700242 $

2010/08/10 06:54
PGUM 100654Z 10007KT 10SM SCT025 BKN032 29/23 A2989 RMK AO2 SLP113 T02890233

2010/08/10 06:50
PGWT 100650Z 09005KT 7SM SCT016 BKN100 BKN160 29/25 A2990 RMK WIND DATA ESTIMATED

2010/08/10 06:53
PHJR 100653Z VRB04KT 10SM CLR 26/17 A3009 RMK AO2 SLP196 T02560172

2010/08/10 06:54
PHMK 100654Z AUTO 05016G21KT 10SM CLR 24/18 A3010 RMK AO2 SLP192 T02390183 TSNO

2010/08/10 06:52
PKMR 100652Z 08014KT 15SM FEW015 SCT050 BKN120 OVC300 27/24 A2984 RMK SLP107 T02660237

2010/08/10 07:00
PKWA 100700Z AUTO 06017KT 10SM SCT021 SCT027 29/24 A2985 RMK AO2 T02900235

2010/08/10 06:56
PMDY 100656Z AUTO 04008KT 10SM FEW025 26/21 A3021 RMK AO2 TSNO T02550205 SLP539

2010/08/10 06:50
PTKK 100650Z 11008KT 15SM FEW014 BKN120 OVC280 29/25 A2982 RMK SLP101 T02890245

2010/08/10 06:55
PTKR 100655Z 15006KT 15SM FEW018TCU BKN120 OVC300 29/25 A2982 RMK TCU DSNT SW AND N SLP097 T02940249

2010/08/10 06:50
PTRO 100650Z 17007KT 15SM FEW010 SCT016TCU BKN120 BKN300 29/25 A2986 RMK TCU VC ALQDS

2010/08/10 06:50
PTTP 100650Z 12004KT 15SM BKN018 OVC130 27/25 A2985 RMK SLP106 T02670246

2010/08/10 06:50
PTYA 100650Z 18008KT 12SM FEW016 FEW140 BKN300 32/24 A2984 RMK SLP105 T03200242

2010/08/10 06:55
PWAK 100655Z 06014G19KT 10SM SCT024 29/24 A3000 RMK AO2A

2010/08/10 07:00
RPLB 100700Z 22006KT 9999 FEW020 SCT080 BKN300 30/25 Q1009 NOSIG

2010/08/10 07:00
RPLC 100700Z VRB10G30KT 9999 FEW025 OVC270 31/23 Q1008 A2979 RMK NOSIG

2010/08/10 07:00
RPLL 100700Z 28012KT 9000 SCT025 OVC300 30/26 Q1008 NOSIG RMK A2977

2010/08/10 07:00
RPMD 100700Z 09002 9999 -TS VCRA SCT015CB SCT090 BKN290 31/26 1008 SLT TS E/ DIST PCPN E/CB N-E S-W

2010/08/10 07:00
RPMZ 100700Z 36004KT 9999 FEW018 SCT120 30/26 Q1010

2010/08/10 07:00
RPVM 100700Z 11004KT 9999 SCT018CB OVC250 32/27 Q1009 A2980 TS OVHD CB ALQDS

2010/08/10 07:00
UBBB 100700Z 36004KT 9999 FEW060CB BKN100 34/20 Q1011 NOSIG RMK R88CLRD70

2010/08/10 07:00
UBBG 100700Z 06005KT 9999 SCT083 31/14 Q1012 NOSIG RMK R30R/CLRD70

2010/08/10 07:00
UTTT 100700Z 31003G09MPS 250V360 7000 NSC 35/06 Q1008 R08R/CLRD70 NOSIG

2010/08/10 07:00
LPFR 100700Z VRB03KT CAVOK 26/17 Q1015

2010/08/10 07:00
LPLA 100700Z 00000KT 9999 FEW018 BKN035 21/17 Q1022

2010/08/10 07:00
LPMA 100700Z VRB01KT 9999 BKN015 22/19 Q1016 RS34001KT 0518001KT 2324002KT

2010/08/10 07:00
LPPR 100700Z 00000KT 7000 FEW090 23/16 Q1016

2010/08/10 07:00
LPPS 100700Z 35005KT 9000 SCT011 22/19 Q1016

2010/08/10 07:00
LPPT 100700Z 00000KT CAVOK 28/17 Q1016 NOSIG

2010/08/10 06:56
KABQ 100656Z 00000KT 10SM FEW100 24/07 A3014

2010/08/10 06:52
KATL 100652Z 12004KT 9SM SCT250 27/21 A3002

2010/08/10 06:53
KBGR 100653Z 25003KT 5SM BR BKN100 19/19 A2985

2010/08/10 06:53
KBHM 100653Z 00000KT 9SM FEW070 28/23 A2999

2010/08/10 06:53
KBNA 100653Z 00000KT 9SM BKN110 BKN200 26/24 A2998

2010/08/10 06:54
KBOS 100654Z 19004KT 4SM -TSRA BKN048 OVC110 19/19 A2991

2010/08/10 06:54
KBWI 100654Z 20003KT 10SM SCT250 25/20 A2993

2010/08/10 06:56
KCHS 100656Z 00000KT 10SM CLR 27/25 A3001

2010/08/10 06:51
KCLE 100651Z 28004KT 9SM FEW060 SCT080 25/20 A2997

2010/08/10 06:52
KCLT 100652Z 00000KT 8SM FEW250 25/21 A3004

2010/08/10 06:52
KCVG 100652Z 20004KT 7SM CLR 25/21 A2997

2010/08/10 06:53
KDEN 100653Z 17006KT 10SM SCT110 BKN200 17/14 A3011

2010/08/10 06:53
KDFW 100653Z 18007KT 10SM FEW250 30/19 A2990

2010/08/10 06:53
KDTW 100653Z 00000KT 3/4SM R04R/5500VP6000FT BR CLR 21/21 A2996

2010/08/10 06:51
KEWR 100651Z 23010KT 10SM BKN150 BKN250 27/18 A2991

2010/08/10 06:53
KFLL 100653Z 15011KT 10SM SCT017 SCT044 26/23 A2988

2010/08/10 06:52
KIAD 100652Z 21004KT 7SM CLR 25/21 A2994

2010/08/10 06:53
KIAH 100653Z 00000KT 10SM FEW250 28/24 A2992

2010/08/10 06:54
KIND 100654Z 24003KT 9SM OVC110 26/23 A2994

2010/08/10 06:56
KJAX 100656Z 06003KT 10SM FEW022 26/23 A2995

2010/08/10 06:51
KJFK 100651Z 22005KT 9SM SCT140 BKN250 24/19 A2993

2010/08/10 06:56
KLAS 100656Z 24007KT 10SM CLR 29/M06 A2982

2010/08/10 06:53
KLAX 100653Z 25006KT 10SM OVC007 16/13 A2992

2010/08/10 06:51
KLGA 100651Z 22005KT 10SM BKN140 BKN250 27/18 A2991

2010/08/10 06:55
KLGC 100655Z AUTO 5SM CLR 22/22 A2999

2010/08/10 06:53
KLIT 100653Z 18003KT 7SM SCT250 28/25 A2993

2010/08/10 06:53
KLOU 100653Z AUTO 00000KT 10SM CLR 28/24 A2996

2010/08/10 06:53
KMCI 100653Z 18008KT 6SM HZ CLR 27/23 A2990

2010/08/10 06:53
KMCO 100653Z 09005KT 10SM FEW250 25/23 A2992

2010/08/10 06:53
KMEM 100653Z 00000KT 10SM FEW250 28/24 A2994

2010/08/10 06:53
KMIA 100653Z 14008KT 9SM BKN015 BKN046 OVC060 26/24 A2988

2010/08/10 06:53
KMSP 100653Z 12003KT 10SM CLR 26/22 A2994

2010/08/10 06:53
KMSY 100653Z 27004KT 9SM FEW015 BKN250 26/25 A2992

2010/08/10 07:00
SKBO 100700Z 05003KT 9999 SCT017 SCT080 12/09 A3035 NOSIG

2010/08/10 07:00
SKBQ 100700Z 00000KT 9999 -DZ SCT012 SCT070 27/26 A2988

2010/08/10 07:00
SKCG 100700Z 00000KT 9999 FEW015 SCT200 27/26 A2985

2010/08/10 07:00
SKCL 100700Z 17003KT 9999 FEW025 BKN090 20/17 A2999

2010/08/10 07:00
SKRG 100700Z 00000KT 7000 BKN010 15/14 A3029 RMK HZ

2010/08/10 07:00
SOCA 100700Z 00000KT 9999 FEW003 SCT130 23/22 Q1012 NOSIG

2010/08/10 07:00
SPIM 100700Z 17003KT 6000 FEW005 BKN010 13/12 Q1016 NOSIG RMK PP000

2010/08/10 07:00
SPQT 100700Z /////KT 4000 HZ SKC 22/21 Q1013 NOSIG RMK PP000

2010/08/10 07:00
SPQU 100700Z 00000KT 340V040 CAVOK 09/M17 Q1027 RMK PP000

2010/08/10 07:00
SPSO 100700Z VRB02KT 7000 FEW012 12/10 Q1016 RMK PP000

2010/08/10 07:00
SPTN 100700Z 00000KT CAVOK 09/06 Q1013 RMK PP000

2010/08/10 07:00
SPZO 100700Z 00000KT 9999 SKC 02/M08 Q1033 RMK PP000

2010/08/10 07:00
SVBC 100700Z 00000KT C A V O K 26/21 Q1013

2010/08/10 07:00
SVMG 100700Z 11003KT 9999 FEW010 BKN080 27/25 Q1013 NOSIG

2010/08/10 07:00
SVMI 100700Z 11001KT 9999 FEW016 BKN300 28/24 Q1011 NOSIG

2010/08/10 07:00
SCAR 100700Z 08006KT CAVOK 11/06 Q1016

2010/08/10 07:00
SCBA 100700Z AUTO 27004KT CAVOK M01/M03 Q1022

2010/08/10 07:00
SCCI 100700Z 35004KT 9999 FEW016 SCT100 03/01 Q1005 NOSIG

2010/08/10 07:00
SCDA 100700Z 00000KT 8000 OVC020 13/09 Q1017

2010/08/10 07:00
SCEL 100700Z 25002KT 5000 HZ NSC 04/01 Q1016 NOSIG

2010/08/10 07:00
SCFA 100700Z 35006KT 9999 OVC019 13/08 Q1017

2010/08/10 07:00
SCIE 100700Z 16003KT 9999 05/03 Q1017

2010/08/10 07:00
SCTE 100700Z 17008KT 9999 BKN006 07/07 Q1023 NOSIG

2010/08/10 07:00
SGAS 100700Z 18006KT CAVOK 10/07 Q1020

2010/08/10 07:00
SGES 100700Z 18004KT CAVOK 12/11 Q1019

2010/08/10 07:00
SUMU 100700Z 00000KT 0100 R19/0200 R24/0200 FG VV/// 01/01 Q1027 NOSIG

2010/08/10 07:00
SCSE 100700Z 00000KT 9999 OVC015 11/08 Q1017 NEFO PLAYA 1500FT

2010/08/10 07:00
SCTC 100700Z 00000KT 0100 FG VV/// M00/M00 Q1019

2010/08/10 06:53
KOAK 100653Z 34004KT 10SM OVC006 14/11 A2993

2010/08/10 06:52
KOKC 100652Z 16007KT 10SM CLR 27/21 A2993

2010/08/10 06:53
KONT 100653Z 22005KT 10SM CLR 18/13 A2991

2010/08/10 06:51
KORD 100651Z 00000KT 10SM CLR 25/23 A2995

2010/08/10 06:51
KORF 100651Z 22006KT 10SM CLR 25/23 A2998

2010/08/10 06:53
KPBI 100653Z 16010KT 10SM -RA SCT023CB BKN035 BKN060 27/23 A2989

2010/08/10 06:54
KPHF 100654Z 23005KT 10SM CLR 25/24 A2998

2010/08/10 06:54
KPHL 100654Z COR 20007KT 10SM SCT180 BKN250 26/21 A2993

2010/08/10 06:54
KPHL 100654Z 20007KT 10SM CLR 26/21 A2993

2010/08/10 06:51
KPHX 100651Z 26007KT 10SM FEW120 34/10 A2980

2010/08/10 06:51
KPIT 100651Z 00000KT 6SM HZ SCT100 22/18 A2998

2010/08/10 06:51
KRDU 100651Z 23005KT 10SM FEW150 SCT250 24/22 A3002

2010/08/10 06:51
KSAN 100651Z 27004KT 10SM OVC015 18/14 A2993

2010/08/10 06:53
KSEA 100653Z 21006KT 10SM BKN012 OVC065 14/12 A2997

2010/08/10 06:56
KSFO 100656Z 30009KT 10SM FEW003 SCT009 BKN013 13/11 A2992

2010/08/10 06:51
KSTL 100651Z 20004KT 9SM FEW150 SCT250 30/24 A2994

2010/08/10 06:51
KTEB 100651Z 19003KT 10SM CLR 26/17 A2991

2010/08/10 06:53
KTPA 100653Z 07004KT 10SM FEW060 26/23 A2989

2010/08/10 07:00
OERY 100700Z 36007KT 5000 DU SKC 39/02 Q1007 NOSIG

2010/08/10 07:00
LEAL 100700Z VRB01KT 9999 FEW040 28/19 Q1016 NOSIG

2010/08/10 07:00
LEAM 100700Z VRB01KT CAVOK 25/21 Q1016

2010/08/10 07:00
LEAS 100700Z VRB02KT 9999 SCT025 19/18 Q1018 NOSIG

2010/08/10 07:00
LEBB 100700Z 13005KT CAVOK 17/15 Q1018 NOSIG

2010/08/10 07:00
LEBL 100700Z 32003KT 260V070 9999 SCT014 24/19 Q1017 NOSIG

2010/08/10 07:00
LECO 100700Z VRB01KT 9999 R22/0500V0900U R04/0300V0650N MIFG NSC 14/14 Q1018

2010/08/10 07:00
LEGE 100700Z 24002KT 9999 FEW010 SCT021 20/18 Q1017

2010/08/10 07:00
LEGR 100700Z 00000KT 9999 FEW100 24/13 Q1019

2010/08/10 07:00
LEIB 100700Z VRB01KT CAVOK 27/14 Q1016 NOSIG

2010/08/10 07:00
LEJR 100700Z 00000KT 9999 FEW020 25/11 Q1016

2010/08/10 07:00
LELL 100700Z 00000KT 9000 FEW006 SCT010 BKN025 22/15 Q1018

2010/08/10 07:00
LEMD 100700Z 00000KT CAVOK 23/15 Q1019 NOSIG

2010/08/10 07:00
LEMG 100700Z 29002KT CAVOK 26/14 Q1016 NOSIG

2010/08/10 07:00
LEMH 100700Z 05006KT 9999 FEW025 25/21 Q1017

2010/08/10 07:00
LEPA 100700Z 05005KT CAVOK 25/16 Q1017 NOSIG

2010/08/10 07:00
LEPP 100700Z 00000KT 9999 FEW010 15/13 Q1019

2010/08/10 07:00
LERS 100700Z 03004KT 9999 FEW015 SCT025 24/19 Q1017

2010/08/10 07:00
LESO 100700Z 16004KT 120V190 CAVOK 18/15 Q1018

2010/08/10 07:00
LEST 100700Z 00000KT CAVOK 12/11 Q1019 NOSIG

2010/08/10 07:00
LETO 100700Z VRB01KT CAVOK 22/14 Q1019 NOSIG

2010/08/10 07:00
LEVC 100700Z VRB01KT CAVOK 24/17 Q1016 NOSIG

2010/08/10 07:00
LEVD 100700Z VRB01KT CAVOK 18/14 Q1020

2010/08/10 07:00
LEVT 100700Z 00000KT 0400 R04/0900N R22/0750N FG VV001 13/13 Q1019

2010/08/10 07:00
LEVX 100700Z 23003KT CAVOK 22/16 Q1017

2010/08/10 07:00
LEXJ 100700Z VRB02KT 9999 FEW030 17/15 Q1018

2010/08/10 07:00
LEZG 100700Z 29008KT 9999 FEW040TCU SCT080 20/13 Q1018

2010/08/10 07:00
LEZL 100700Z 00000KT CAVOK 28/15 Q1015 NOSIG

2010/08/10 07:00
DTMB 100700Z 24006KT CAVOK 25/17 Q1016 NOSIG

2010/08/10 07:00
DTTA 100700Z 18003KT 8000 FEW033 27/16 Q1016 NOSIG

2010/08/10 07:00
DTTB 100700Z 00000KT CAVOK 26/15 Q1016

2010/08/10 07:00
DTTD 100700Z 09004KT 5000 FEW020 22/18 Q1017

2010/08/10 07:00
DTTG 100700Z 12006KT CAVOK 25/19 Q1016 NOSIG

2010/08/10 07:00
DTTJ 100700Z 16002KT 8000 NSC 27/22 Q1015 NOSIG

2010/08/10 07:00
DTTK 100700Z 22002KT CAVOK 26/12 Q1016

2010/08/10 07:00
DTTL 100700Z 00000KT CAVOK 28/16 Q1016

2010/08/10 07:00
DTTN 100700Z 23004KT CAVOK 24/10 Q1016

2010/08/10 07:00
DTTR 100700Z 09014KT CAVOK 25/15 Q1016

2010/08/10 07:00
DTTX 100700Z 32004KT CAVOK 25/19 Q1016 NOSIG

2010/08/10 07:00
DTTZ 100700Z 10012KT CAVOK 26/23 Q1016 NOSIG

2010/08/10 06:50
EGSH 100650Z 25009KT 8000 -RA SCT024 17/16 Q1009 TEMPO 4000 RADZ BKN009

2010/08/10 06:50
EGPN 100650Z 07003KT 9999 FEW018 SCT025 13/11 Q1004

2010/08/10 07:00
UKBB 100700Z 02003MPS 6000 TS SCT033CB 24/22 Q1015 88CLRD95 TEMPO -TSRA SCT030CB

2010/08/10 07:00
UKCC 100700Z 13004MPS 090V170 CAVOK 34/11 Q1013 08090070 NOSIG

2010/08/10 07:00
UKCW 100700Z 07003MPS 020V100 CAVOK 34/10 Q1014 0909//70 NOSIG

2010/08/10 07:00
UKDD 100700Z 05002MPS CAVOK 34/16 Q1012 08090070 NOSIG

2010/08/10 07:00
UKDE 100700Z 11003MPS 050V180 CAVOK 33/13 Q1012 02CLRD70 NOSIG

2010/08/10 07:00
UKDR 100700Z 36005MPS 320V060 CAVOK 30/18 Q1012 3609//70 NOSIG

2010/08/10 07:00
UKFF 100700Z 05007MPS CAVOK 31/21 Q1009 01010070 NOSIG

2010/08/10 07:00
UKHH 100700Z 10003MPS 050V130 CAVOK 34/10 Q1014 080///65 NOSIG

2010/08/10 07:00
UKKK 100700Z VRB01MPS 9999 NSC 27/20 Q1015 26CLRD70 NOSIG

2010/08/10 07:00
UKKM 100700Z 36002MPS CAVOK 24/20 Q1015 33CLRD70 NOSIG

2010/08/10 07:00
UKLI 100700Z 00000MPS CAVOK 21/18 Q1018 28090070 NOSIG

2010/08/10 07:00
UKLL 100700Z 29002MPS 250V350 9999 BKN008 18/17 Q1018 31110360 TEMPO -TSRA BKN020CB

2010/08/10 07:00
UKLN 100700Z 32003MPS 250V010 CAVOK 21/18 Q1017 3309//70 NOSIG

2010/08/10 07:00
UKLR 100700Z 00000MPS 9999 SCT020 BKN100 22/18 Q1017 30090070 NOSIG

2010/08/10 07:00
UKLU 100700Z 15003MPS 9999 FEW033 22/16 Q1018 10090070 NOSIG

2010/08/10 07:00
UKON 100700Z 03005MPS 340V070 CAVOK 31/17 Q1012 05090075 NOSIG

2010/08/10 07:00
UKOO 100700Z 04007MPS CAVOK 30/16 Q1011 34090070 NOSIG

2010/08/10 06:50
EDAH 100650Z VRB03KT 9999 SCT012 19/16 Q1016

2010/08/10 06:50
EDDS 100650Z 09002KT CAVOK 18/13 Q1018 NOSIG

2010/08/10 06:50
EDMA 100650Z 23002KT CAVOK 17/15 Q1018

2010/08/10 06:50
EGPK 100650Z 17007KT 9999 FEW009 SCT020CB SCT038 12/10 Q1004

2010/08/10 06:55
EGUL 100655Z AUTO 25010KT 9999 -RA FEW011 SCT046 SCT085 15/14 A2981 RMK AO2 RAE0620B0635DZB0620E0635 SLP095 P0001 T01540136

2010/08/10 06:55
EGUN 100655Z AUTO 27011KT 9999 -RA FEW012 SCT021 BKN065 OVC085 15/15 A2982 RMK AO2 FEW V SCT SLP088 P0002 T01480148

2010/08/10 06:55
EGVA 100655Z AUTO 22008KT 9999 OVC025 13/12 A2984 RMK AO2 CIG 020V029 SLP104 T01290121 $

2010/08/10 06:55
ETAD 100655Z AUTO 00000KT 9999 CLR 18/12 A3003 RMK AO2 SLPNO T01800118 VISNO RWY05 CHINO RWY05 $

2010/08/10 06:55
ETAR 100655Z AUTO 00000KT 9999 CLR 16/14 A3003 RMK AO2 SLP164 T01560139 $

2010/08/10 06:55
KQHT 100655Z 24007G15KT 9999 FEW120 33/04 A2985 RMK A02A SLP070

2010/08/10 06:55
KQIR 100655Z 11009KT 9999 CLR 41/17 A2953 RMK AO2A SLP999 T04070174

2010/08/10 07:00
LEMO 100700Z 15002KT CAVOK 27/14 Q1016 NOSIG

2010/08/10 06:50
LIRN 100650Z VRB03KT 9999 BKN070 23/18 Q1015

2010/08/10 06:55
LIYW 100655Z AUTO 00000KT 9999 CLR 25/19 A3001 RMK AO2 SLP160 T02470187

2010/08/10 07:00
LPLA 100700Z 00000KT 9999 FEW018 BKN035 21/17 Q1022

2010/08/10 06:50
LTAC 100650Z 06003KT 330V110 CAVOK 28/10 Q1014 NOSIG

2010/08/10 06:50
LTAG 100650Z 29002KT 9999 SCT035 30/22 Q1006 NOSIG

2010/08/10 06:55
FJDG 100655Z 16012G21KT 9999 FEW020 SCT070 BKN220 28/24 A2984 RMK SLP102 T02810239

2010/08/10 06:56
PHBK 100656Z AUTO 16005KT 10SM BKN055 27/16 A3008 RMK AO2 SLP189 T02720156 TSNO $

2010/08/10 06:55
PHHI 100655Z AUTO 08008KT 10SM OVC040 24/17 A3011 RMK AO2 SLP183 T02400174 $

2010/08/10 07:00
PKWA 100700Z AUTO 06017KT 10SM SCT021 SCT027 29/24 A2985 RMK AO2 T02900235

2010/08/10 06:56
PMDY 100656Z AUTO 04008KT 10SM FEW025 26/21 A3021 RMK AO2 TSNO T02550205 SLP539

2010/08/10 06:55
PWAK 100655Z 06014G19KT 10SM SCT024 29/24 A3000 RMK AO2A

2010/08/10 07:00
RJOI 100700Z 18003KT 9999 FEW020 SCT040 BKN060 31/23 A2989 RMK SLP120 T03060233

2010/08/10 06:55
RJTY 100655Z AUTO 17014KT 9999 SCT022 29/25 A3000 RMK AO2 SLP151 T02870246 $

2010/08/10 07:00
RKPK 100700Z 10008KT 9999 BKN050 29/23 Q1008 NOSIG

2010/08/10 06:55
RODN 100655Z 18014KT 9999 BKN020 OVC200 30/26 A2980 RMK AO2A SLP092 T02950261

2010/08/10 06:57
PHNG 100657Z AUTO 07010G16KT 10SM OVC060 26/20 A3010 RMK AO2 SLP188 T02560200 $

2010/08/10 07:00
AYMO 100700Z AUTO 17004KT //// // ////// 29/23 Q1009

2010/08/10 06:50
BGAA 100650Z AUTO 34001KT 0150NDV FG VV003/// 06/05 Q1008

2010/08/10 06:50
BGMQ 100650Z AUTO 32009KT 9999NDV BKN080/// 09/09 Q1005

2010/08/10 06:50
BGQQ 100650Z AUTO 25001KT 9999NDV NCD 03/03 Q1011

2010/08/10 06:50
BGSS 100650Z AUTO 07001KT 9999NDV ///086/// ///120/// 09/09 Q1007 RMK /// ///

2010/08/10 06:50
BGUK 100650Z AUTO 11001KT 0100NDV FG NCD 05/05 Q1009

2010/08/10 07:00
BKPR 100700Z VRB03KT 9999 FEW030 20/14 Q1018 NOSIG RMK BLU

2010/08/10 07:00
DTKA 100700Z 09004KT 9999 FEW026 SCT100 28/13 Q1015 NOSIG

2010/08/10 07:00
DTTF 100700Z 01008KT CAVOK 24/16 Q1016 NOSIG

2010/08/10 06:50
EDAC 100650Z 18004KT 150V220 CAVOK 19/14 Q1017

2010/08/10 06:50
EDDE 100650Z 20003KT CAVOK 17/14 Q1017 NOSIG

2010/08/10 06:50
EDFH 100650Z 20004KT 150V260 CAVOK 20/11 Q1017

2010/08/10 06:50
EDGS 100650Z 20006KT CAVOK 18/14 Q1017

2010/08/10 06:50
EDLV 100650Z 19005KT 160V240 CAVOK 17/16 Q1015

2010/08/10 06:50
EDOP 100650Z 15004KT CAVOK 18/16 Q1016

2010/08/10 06:50
EDRZ 100650Z VRB02KT CAVOK 19/14 Q1017

2010/08/10 06:50
EDSB 100650Z 21004KT 180V240 CAVOK 17/14 Q1017

2010/08/10 06:50
EDTL 100650Z 22005KT CAVOK 18/13 Q1017

2010/08/10 06:50
EEKA 100650Z 20006KT 170V240 9999 SCT012 BKN030 19/17 Q1013

2010/08/10 06:50
EEKE 100650Z 21012KT 9999 FEW007 BKN026CB 19/19 Q1014

2010/08/10 06:50
EEPU 100650Z 22013KT 9999 SCT021 BKN037 21/16 Q1014

2010/08/10 06:50
EETU 100650Z AUTO 20011KT 9999NDV FEW020/// 20/16 Q1015

2010/08/10 06:50
EFET 100650Z AUTO 04006KT 5000 DZ FEW005 SCT008 BKN017 BKN034 10/09 Q1012

2010/08/10 06:50
EFHA 100650Z VRB05KT 9999 FEW016 BKN040CB 20/15 Q1010

2010/08/10 06:50
EFJO 100650Z 18007KT 140V220 9999 FEW022 SCT031 BKN065 21/15 Q1011

2010/08/10 06:50
EFKA 100650Z 23007KT 4500NE SHRA BKN007 OVC012 18/17 Q1008

2010/08/10 06:50
EFKI 100650Z AUTO 21005KT 150V260 //// SCT013 BKN031 19/17 Q1009

2010/08/10 06:50
EFKS 100650Z AUTO 36003KT 9999 -RA OVC004 14/13 Q1008

2010/08/10 06:50
EFKT 100650Z AUTO 03004KT 340V080 9999 OVC012 12/09 Q1012

2010/08/10 06:50
EFLP 100650Z 22006KT 9999 RA FEW025 BKN031CB 18/17 Q1012

2010/08/10 06:50
EFMI 100650Z AUTO 21006KT 140V280 9999 FEW017 SCT020 BKN050 21/16 Q1011

2010/08/10 06:50
EFSA 100650Z AUTO 18008KT 130V220 9999NDV SCT020 BKN055 21/16 Q1011

2010/08/10 06:50
EFSI 100650Z AUTO 18004KT 140V220 9999 FEW012 SCT025 19/17 Q1009

2010/08/10 06:54
EFUT 100654Z 24009KT 200V270 6000 -SHRA BKN015 BKN045 18/17 Q1012

2010/08/10 06:50
EFVR 100650Z AUTO 21006KT 170V250 7000 RA FEW021 SCT030 BKN035 OVC055 19/17 Q1010

2010/08/10 06:50
EGCN 100650Z 23005KT 9999 FEW015 15/12 Q1008

2010/08/10 06:50
EGDX 100650Z AUTO 24011KT 9999NDV -RADZ BKN050/// 14/12 Q1010

2010/08/10 06:50
EGEC 100650Z AUTO 24015KT 9999NDV // BKN015/// 13/11 Q1002

2010/08/10 06:50
EGHK 100650Z 24009KT 9999 -DZ SCT005 BKN006 16/16 Q1010 TEMPO 3000 RADZ

2010/08/10 06:50
EGMH 100650Z 20014KT 9999 BKN007 18/16 Q1011

2010/08/10 06:50
EGNR 100650Z 23005KT 200V270 9999 FEW020 BKN045 15/11 Q1008

2010/08/10 06:50
EGOM 100650Z AUTO 00000KT 9999NDV // BKN060/// 11/10 Q1005

2010/08/10 06:50
EGOP 100650Z AUTO 27007KT 4800NDV HZ BKN060/// 14/13 Q1010

2010/08/10 06:50
EGPI 100650Z AUTO 25010KT 9999NDV // BKN028/// 12/10 Q1002

2010/08/10 06:50
EGTG 100650Z 21009KT 9999 SCT024 13/12 Q1011

2010/08/10 06:50
EGUB 100650Z AUTO 20003KT 9999NDV // BKN036/// BKN080/// 13/11 Q1011

2010/08/10 07:00
EGUW 100700Z 26012KT 6000 RA FEW012 BKN018TCU OVC032 16/13 Q1010 WHT TEMPO 4000 +RA SCT006 YLO1

2010/08/10 06:50
EGUW 100650Z 26009KT 9999 -RADZ FEW010TCU SCT020 BKN024 17/13 Q1010 WHT TEMPO 4000 +RA BKN006 YLO1

2010/08/10 06:50
EGVN 100650Z 21005KT 9999 FEW006 BKN035 BKN080 13/11 Q1010 BLU TEMPO BKN023 WHT

2010/08/10 06:50
EGVN 100650Z 21005KT 9999 FEW006 BKN035 BKN080 13/11 Q1010 TEMPO BKN023

2010/08/10 07:00
OEJN 100700Z 25005KT CAVOK 35/26 Q1003 NOSIG

2010/08/10 07:00
OYSN 100700Z 26005KT 9999 FEW030 25/11 Q1023

2010/08/10 07:00
OIAW 100700Z 14004KT 7000 FEW040 BKN100 40/14 Q1000 A2954

2010/08/10 07:00
OIFM 100700Z 25006KT 7000 SKC 30/02 Q1019 A3009

2010/08/10 07:00
OIKB 100700Z 14010KT 6000 SCT025 35/27 Q1002 A2959

2010/08/10 07:00
OIKK 100700Z 26004KT CAVOK 29/00 Q1018 A3008

2010/08/10 07:00
OIMM 100700Z 35012KT CAVOK 33/M02 Q1014 A2997

2010/08/10 07:00
OISS 100700Z 14006KT CAVOK 32/01 Q1015 A3000

2010/08/10 07:00
OITT 100700Z 08014KT 9999 FEW038 FEW040CB 31/07 Q1016 A3001

2010/08/10 07:00
OIZH 100700Z 36012KT 8000 NSC 34/M02 Q1012 A2991

2010/08/10 06:50
EGVO 100650Z 25010KT 9999 -RA FEW007 BKN033 OVC045 13/11 Q1011 RERA BLU TEMPO 6000 RA SCT007 GRN

2010/08/10 06:50
EGVP 100650Z 32003KT 9999 FEW008 BKN033 OVC090 13/12 Q1011 BLU BECMG -RA BKN007 GRN

2010/08/10 06:50
EGWU 100650Z 29007KT 9000 RA FEW007 BKN022 OVC045 15/14 Q1010 WHT

2010/08/10 06:50
EGWU 100650Z 29007KT 9000 RA FEW007 BKN022 OVC045 15/14 Q1010

2010/08/10 06:50
EGXC 100650Z 21005KT 9999 FEW009 BKN015 BKN250 16/15 Q1008 TEMPO SCT014

2010/08/10 06:50
EGXC 100650Z 21005KT 9999 FEW009 BKN015 BKN250 16/15 Q1008 WHT TEMPO SCT014 GRN

2010/08/10 06:50
EGXD 100650Z 15005KT 9999 FEW020 BKN075 12/12 Q1007 BLU TEMPO SCT022 WHT

2010/08/10 06:50
EGXE 100650Z 17005KT 9999 FEW015 BKN070 12/11 Q1007 BLU TEMPO SCT022 WHT

2010/08/10 06:50
EGXG 100650Z 22001KT 9999 FEW015 BKN050 13/12 Q1007 BLU

2010/08/10 06:50
EGXJ 100650Z 25010KT 9999 FEW010 SCT030 BKN250 15/13 Q1008 BLU

2010/08/10 06:50
EGXT 100650Z 22008KT 9999 FEW007 BKN060 BKN120 15/13 Q1009 NOSIG

2010/08/10 06:50
EGXT 100650Z 22008KT 9999 FEW007 BKN060 BKN120 15/13 Q1009 BLU NOSIG

2010/08/10 06:50
EGXU 100650Z 12002KT 9999 FEW015 BKN070 12/12 Q1007 BLU NOSIG

2010/08/10 06:55
EGXW 100655Z 24007KT 9999 FEW007 SCT012 BKN040 15/14 Q1008 BLACKGRN BECMG SCT018 WHT

2010/08/10 06:50
EGXW 100650Z 23006KT 9999 FEW007 SCT012 BKN040 15/14 Q1008 GRN BECMG SCT018 WHT

2010/08/10 06:50
EGXX 100650Z AUTO 21007KT 9999NDV // SCT007/// 15/15 Q1008

2010/08/10 06:50
EGXZ 100650Z AUTO 16005KT 9999NDV OVC070/// 12/12 Q1007

2010/08/10 06:50
EGYD 100650Z 22010KT 9999 FEW008 SCT027 BKN220 15/13 Q1008 TEMPO SCT012

2010/08/10 06:50
EGYD 100650Z 22010KT 9999 FEW008 SCT027 BKN220 15/13 Q1008 BLU TEMPO SCT012 GRN

2010/08/10 06:50
EGYE 100650Z 25010KT 9999 FEW005 SCT008 BKN100 Q1008 GRN

2010/08/10 06:50
EGYM 100650Z 26011KT 9999 RA FEW005 SCT020 BKN050 14/12 Q1009 WHT TEMPO 6000 RA SCT010 GRN

2010/08/10 06:50
EKGF 100650Z 17022KT 9999 SCT012TCU 17/17 Q1009

2010/08/10 06:50
ENBS 100650Z 20005KT 9999 BKN035 10/05 Q1013

2010/08/10 06:50
ENHE 100650Z 04011KT 9999 OVC015 10/08 Q1012

2010/08/10 06:50
ENHK 100650Z 13004KT 9999 FEW025 BKN050 12/09 Q1012

2010/08/10 07:00
EPWR 100700Z 31004KT 280V340 9999 SCT012 20/17 Q1018

2010/08/10 06:50
ESGR 100650Z AUTO 24008KT 210V270 9999NDV FEW017/// 17/14 Q1013

2010/08/10 06:50
ESGT 100650Z 21010KT 9999 SCT020 SCT035 17/13 Q1013

2010/08/10 06:50
ESMQ 100650Z 23007KT CAVOK 17/12 Q1015

2010/08/10 06:50
ESMT 100650Z 23009KT 9999 FEW020 BKN040 18/14 Q1015

2010/08/10 06:50
ESNG 100650Z VRB02KT CAVOK 14/09 Q1012

2010/08/10 06:50
ESNK 100650Z 04003KT 350V100 9999 BKN014 16/14 Q1009

2010/08/10 06:50
ESNL 100650Z AUTO 04005KT 350V080 4000NDV BR FEW007/// OVC010/// 13/12 Q1011

2010/08/10 06:50
ESNX 100650Z AUTO 03005KT 350V060 9999NDV NCD 14/10 Q1011

2010/08/10 06:50
ESNY 100650Z AUTO 00000KT 7000 SCT002 18/18 Q1008 REDZ

2010/08/10 06:50
ESOE 100650Z 24010KT 9999 BKN012 16/14 Q1011

2010/08/10 06:50
ESSL 100650Z 25008KT 9999 SCT013 BKN018 16/13 Q1013

2010/08/10 06:50
ESTA 100650Z 21007KT CAVOK 17/13 Q1016

2010/08/10 06:50
ESTL 100650Z VRB03KT CAVOK 18/13 Q1016

2010/08/10 06:50
ESUT 100650Z AUTO 16009KT 9999NDV FEW023/// OVC061/// 14/10 Q1011

2010/08/10 06:55
ETOU 100655Z AUTO 00000KT 9999 CLR 18/14 A3003 RMK AO2 SLP166 T01810144

2010/08/10 06:50
ETUO 100650Z 11003KT CAVOK 18/13 Q1015 BLU

2010/08/10 06:50
EVLA 100650Z 25012KT 9999 SCT027 19/14 Q1016

2010/08/10 06:50
EVVA 100650Z AUTO 22010KT 190V250 9999 SCT024 BKN030 BKN043 19/15 Q1015

2010/08/10 06:50
EYKA 100650Z 16003KT 130V190 CAVOK 20/19 Q1017

2010/08/10 06:50
EYPA 100650Z 28005KT 9999 SCT023 19/14 Q1017 NOSIG

2010/08/10 07:00
FAGC 100700Z AUTO 12016KT //// // ////// 06/M03 Q1031

2010/08/10 07:00
FAJB 100700Z AUTO 12004KT //// // ////// 07/M04 Q1032

2010/08/10 07:00
FAMM 100700Z 13011KT CAVOK 06/M10 Q1032 NOSIG

2010/08/10 07:00
FAPP 100700Z 17005KT CAVOK 10/M07 Q1030 NOSIG

2010/08/10 07:00
FASI 100700Z AUTO 10007KT //// // ////// 06/M02 Q1032

2010/08/10 07:00
FAVV 100700Z AUTO 13005KT //// // ////// 04/M09 Q1031

2010/08/10 07:00
FMEP 100700Z 14005KT 100V170 9999 FEW026 BKN093 24/16 Q1023

2010/08/10 07:00
FQIN 100700Z 21022KT 9999 SCT020 BKN090 21/13 Q1026

2010/08/10 07:00
FQNP 100700Z 09003KT CAVOK 26/13 Q1022

2010/08/10 07:00
FYML 100700Z AUTO 05002KT //// // ////// ///// Q1036

2010/08/10 07:00
FYOA 100700Z 09009KT CAVOK 16/M06 Q1024

2010/08/10 07:00
FYWW 100700Z 10009KT CAVOK 05/M15 Q1030

2010/08/10 07:00
GMAD 100700Z 23005KT 0400 FG OVC003 20/20 Q1014 NOSIG

2010/08/10 07:00
GMFM 100700Z 17003KT CAVOK 30/11 Q1019

2010/08/10 07:00
GMMC 100700Z 00000KT 5000 NSC 26/18 Q1012

2010/08/10 07:00
GMML 100700Z 03008KT 6000 BKN016 BKN100 20/17 Q1015

2010/08/10 07:00
GMMW 100700Z 6000 BKN016 SCT100 24/21 Q1016

2010/08/10 07:00
GMMZ 100700Z 23003KT CAVOK 26/11 Q1024

2010/08/10 06:58
KCBE 100658Z AUTO 00000KT 10SM CLR 21/20 A3001 RMK AO1

2010/08/10 06:55
KEGI 100655Z AUTO 00000KT 8SM R18/5500FT CLR 24/23 A2993 RMK AO2 SLP134 T02450235 $

2010/08/10 07:03
KESN 100703Z AUTO 21003KT 10SM CLR 24/24 A2998 RMK AO2

2010/08/10 07:00
KFME 100700Z AUTO 19003KT 5SM CLR 20/20 A2996 RMK AO1

2010/08/10 06:55
KGYH 100655Z AUTO 00000KT 10SM CLR 27/21 A3005 RMK AO2

2010/08/10 07:00
LBGO 100700Z 28004MPS 230V310 CAVOK 25/18 Q1015 NOSIG

2010/08/10 07:00
LDLO 100700Z 02008KT CAVOK 26/17 Q1015

2010/08/10 07:00
LDSB 100700Z 05007KT CAVOK 25/13 Q1015

2010/08/10 07:00
LEBA 100700Z VRB02KT CAVOK 28/13 Q1016

2010/08/10 07:00
LEBZ 100700Z 00000KT CAVOK 26/16 Q1016

2010/08/10 07:00
LELN 100700Z VRB02KT CAVOK 15/11 Q1021

2010/08/10 07:00
LESA 100700Z 00000KT 8000 NSC 20/16 Q1021

2010/08/10 07:00
LETO 100700Z VRB01KT CAVOK 22/14 Q1019 NOSIG

2010/08/10 07:00
LFBE 100700Z VRB02KT CAVOK 17/14 Q1019 NOSIG

2010/08/10 07:00
LFBG 100700Z AUTO 00000KT 9999NDV OVC020 15/14 Q1019

2010/08/10 07:00
LFCR 100700Z AUTO VRB01KT 9999NDV NSC 18/14 Q1020

2010/08/10 07:00
LFJL 100700Z AUTO 19004KT 150V230 9999NDV NSC 19/12 Q1017

2010/08/10 07:00
FMMI 100700Z VRB03KT 9999 FEW020 20/14 Q1027 NOSIG

2010/08/10 07:00
FMNM 100700Z 16012KT CAVOK 28/14 Q1018

2010/08/10 07:00
FMMT 100700Z 22006KT 9999 FEW017 24/20 Q1022

2010/08/10 07:00
FMNA 100700Z 160//KT 9999 VCSH FEW017 BKN033 24/20 Q1017

2010/08/10 07:00
FMSD 100700Z 00000KT 9999 FEW020 24/18 Q1020

2010/08/10 07:00
FMCH 100700Z 20005KT 170V240 9999 FEW023 SCT030 27/22 Q1020 NOSIG

2010/08/10 07:00
UTAK 100700Z 14006MPS CAVOK 38/04 Q1011 NOSIG

2010/08/10 07:00
UTAM 100700Z 36005MPS CAVOK 35/09 Q1007 NOSIG

2010/08/10 07:00
UTAT 100700Z 36004MPS CAVOK 37/18 Q1010 NOSIG

2010/08/10 07:00
LRBC 100700Z 36008KT CAVOK 25/20 Q1016

2010/08/10 07:00
LRCV 100700Z 25004KT 190V300 CAVOK 24/19 Q1015

2010/08/10 07:00
LRSV 100700Z 32006KT CAVOK 21/19 Q1017

2010/08/10 07:00
LRTC 100700Z 35010KT CAVOK 28/19 Q1012

2010/08/10 07:00
HSSS 100700Z 22014KT CAVOK 31/19 Q1010

2010/08/10 07:00
UAAA 100700Z 25007MPS 9999 FEW050CB BKN100 31/05 Q1008 88CLRD65 NOSIG

2010/08/10 07:00
UACC 100700Z 01007MPS 9999 BKN036 19/06 Q1019 040/0070 NOSIG RMK QFE733/0977

2010/08/10 07:00
UAKK 100700Z 02007MPS 9999 BKN050CB 16/07 Q1017 050///70 NOSIG RMK QFE715/0954

2010/08/10 07:00
UARR 100700Z 04006MPS 4200 FU NSC 33/04 Q1018 04CLRD70 NOSIG RMK QFE760/1014

2010/08/10 07:00
UATE 100700Z 10006G11MPS CAVOK 39/04 Q1012 120///70 NOSIG RMK QFE757/1010

2010/08/10 07:00
UATG 100700Z 05007MPS CAVOK 39/10 Q1013 32CLRD70 NOSIG RMK QFE761/1015 

2010/08/10 07:00
UATT 100700Z 09007MPS 060V120 9999 NSC 28/01 Q1021 13CLRD70 NOSIG RMK QFE746/0995

2010/08/10 07:00
UAUU 100700Z 01002G07MPS 010V170 CAVOK 23/03 Q1023 33CLRD70 NOSIG RMK QFE751/1002

2010/08/10 07:02
LKKB 100702Z VRB01KT CAVOK 17/15 Q1018 NOSIG

2010/08/10 07:00
LFLX 100700Z 25010KT CAVOK 18/12 Q1017 NOSIG

2010/08/10 07:00
LFMI 100700Z AUTO VRB02KT 9999NDV NSC 23/18 Q1015

2010/08/10 07:00
LFMK 100700Z 27007KT 240V310 9999 SCT040 20/15 Q1018 NOSIG

2010/08/10 07:00
LFMO 100700Z AUTO 00000KT 9999NDV NSC 23/17 Q1015

2010/08/10 07:00
LFMU 100700Z AUTO 26007KT 220V280 9999NDV NSC 22/15 Q1016

2010/08/10 07:00
LFMV 100700Z AUTO 18004KT 140V200 9999NDV NSC 22/19 Q1015

2010/08/10 07:00
LFOA 100700Z AUTO 26008KT 9999NDV NSC 18/12 Q1017

2010/08/10 07:00
LFOJ 100700Z 21005KT CAVOK 16/13 Q1016

2010/08/10 07:00
LFOK 100700Z AUTO 21008KT 9999NDV NSC 18/12 Q1016

2010/08/10 07:00
LFQI 100700Z 20008KT CAVOK 17/13 Q1015

2010/08/10 06:50
LGKC 100650Z 36007KT 320V060 CAVOK 29/22 Q1012

2010/08/10 06:50
LGNX 100650Z 36012KT 9999 FEW018 29/23 Q1008

2010/08/10 06:50
LGPA 100650Z 35015KT CAVOK 30/23 Q1007

2010/08/10 06:50
LGSO 100650Z 35015KT 9999 FEW020 29/21 Q1008

2010/08/10 07:00
LKCV 100700Z VRB02KT CAVOK 19/16 Q1018 NOSIG RMK BLU+ BLU+

2010/08/10 07:00
LKKV 100700Z VRB01KT CAVOK 17/13 Q1019

2010/08/10 07:00
LKNA 100700Z VRB02KT 9999 FEW020 18/14 Q1019 NOSIG RMK BLU+ BLU+

2010/08/10 07:00
LKPD 100700Z VRB02KT 9999 FEW007 17/15 Q1018 NOSIG RMK BLU+ BLU+

2010/08/10 07:00
LKPO 100700Z VRB01KT 9999 FEW005 17/16 Q1019 NOSIG RMK BLU+ BLU+

2010/08/10 06:50
LLIB 100650Z 16003KT 9999 FEW025 29/19 Q1008

2010/08/10 06:50
LLSD 100650Z 23007KT 9999 SCT020 29/22 Q1007

2010/08/10 06:50
LOXT 100650Z VRB03KT 50KM FEW090AC 19/15 Q1019 NOSIG RMK FEW

2010/08/10 06:50
LOXZ 100650Z VRB02KT 15KM FEW007ST SCT270CI 16/13 Q1020 NOSIG RMK SCT

2010/08/10 07:00
LQBK 100700Z 19002KT 9999 FEW020 19/17 Q1017 NOSIG

2010/08/10 07:00
LQMO 100700Z VRB01KT CAVOK 27/13 Q1013

2010/08/10 06:50
LTAB 100650Z 25004KT 210V300 CAVOK 28/10 Q1013 NOSIG RMK RWY06 VRB02KT

2010/08/10 06:50
LTAE 100650Z 01004KT CAVOK 29/11 Q1013 NOSIG RMK RWY21 06004KT

2010/08/10 06:50
LTAZ 100650Z 08006KT 040V120 CAVOK 27/09 Q1014

2010/08/10 06:50
LTBR 100650Z 10004KT CAVOK 29/21 Q1011 NOSIG RMK RWY07 04003KT

2010/08/10 06:50
LTBR 100650Z 10004KT CAVOK 29/21 Q1011 NOSIG

2010/08/10 06:50
LTBU 100650Z 03018KT 9999 SCT030 28/20 Q1011

2010/08/10 06:50
LTBU 100650Z 03018KT 9999 SCT030 28/20 Q1011 RMK RWY23 01018KT

2010/08/10 06:50
LTCF 100650Z 03007KT 350V060 CAVOK 24/10 Q1020

2010/08/10 06:50
LTFH 100650Z 31007KT 280V350 9999 FEW036 29/23 Q1008 NOSIG

2010/08/10 06:50
LTFJ 100650Z 06008KT 9999 SCT035 29/23 Q1010 NOSIG

2010/08/10 07:00
LZKC 100700Z 29001KT 9999 BKN007 19/17 Q1017

2010/08/10 07:00
LZLU 100700Z VRB01KT 9999 FEW001 SCT030 19/16 Q1018

2010/08/10 07:00
LZNI 100700Z 27001KT CAVOK 20/16 Q1018

2010/08/10 07:00
LZPE 100700Z 36005KT 330V030 9999 FEW019 19/14 Q1018

2010/08/10 07:00
LZPP 100700Z 01003KT 320V060 3200 BR BKN006 16/16 Q1019

2010/08/10 07:00
LZSL 100700Z 02002KT 9999 FEW030 18/13 Q1018

2010/08/10 07:00
LZZI 100700Z VRB01KT 1800 BR BKN005 15/14 Q1019

2010/08/10 07:00
UHHH 100700Z 23009MPS 9999 SCT030 27/20 Q1005 NOSIG

2010/08/10 07:00
MGTK 100700Z 00000KT CVAVOK 24/24 Q1013 A2991

2010/08/10 06:50
MUHG 100650Z VRB02KT 4000 VCFG FEW020 23/22 Q1013

2010/08/10 06:55
OAHR 100655Z 02014KT CAVOK 34/M01 Q1011 RMK SKC VIS MIN 9999 BLU

2010/08/10 07:00
OOMS 100700Z 35007KT 300V030 8000 NSC 33/28 Q1002 NOSIG

2010/08/10 07:00
LJCE 100700Z VRB01KT 9999 FEW020 20/17 Q1018 RMK BLU

2010/08/10 07:00
UAFM 100700Z 25006MPS CAVOK 32/03 Q1010 NOSIG

2010/08/10 07:00
FMNM 100700Z 16012KT CAVOK 28/14 Q1018

2010/08/10 07:00
FMMT 100700Z 22006KT 9999 FEW017 24/20 Q1022

2010/08/10 07:00
FMNA 100700Z 160//KT 9999 VCSH FEW017 BKN033 24/20 Q1017

2010/08/10 07:00
FMSD 100700Z 00000KT 9999 FEW020 24/18 Q1020

2010/08/10 07:00
FMCH 100700Z 20005KT 170V240 9999 FEW023 SCT030 27/22 Q1020 NOSIG

2010/08/10 07:00
UTDD 100700Z 11002MPS 070V170 9999 FEW066 FEW190 35/05 Q1008 09CLRD70 NOSIG RMK QFE688/0918

2010/08/10 07:00
UTDL 100700Z 25007MPS 9999 FEW130 34/10 Q1008 NOSIG RMK QFE718 8809//70

2010/08/10 07:00
LRAR 100700Z 01004KT 330V070 CAVOK 23/17 Q1017

2010/08/10 07:00
LRBM 100700Z 26004KT 190V330 9999 FEW023 21/18 Q1017

2010/08/10 07:00
LRCL 100700Z 00000KT 9999 FEW052 21/17 Q1018

2010/08/10 07:00
LROD 100700Z VRB02KT CAVOK 23/18 Q1018

2010/08/10 07:00
LRSM 100700Z VRB02KT 9999 FEW010 22/19 Q1018

2010/08/10 07:00
LRTM 100700Z 01004KT 320V090 9999 FEW045 22/18 Q1017

2010/08/10 06:50
EKAH 100650Z AUTO 21006KT 150V260 9999NDV BKN075/// 18/12 Q1015

2010/08/10 07:00
LJLJ 100700Z VRB01KT 9999 SCT040 22/17 Q1018 NOSIG

2010/08/10 07:00
LJMB 100700Z 00000KT CAVOK 20/18 Q1018

2010/08/10 07:00
LJPZ 100700Z VRB02KT CAVOK 24/18 Q1015

2010/08/10 07:00
UDYZ 100700Z VRB02MPS 9999 SKC 32/11 Q1012 09010070 NOSIG

2010/08/10 07:00
UDSG 100700Z VRB02MPS 9999 NSC 28/07 Q1017 02CLRD70 NOSIG

2010/08/10 07:00
WMBA 100700Z 13003KT 9999 SCT021 BKN280 33/25 Q1006

2010/08/10 07:00
WMKA 100700Z 30004KT 9999 FEW020 BKN270 31/25 Q1007

2010/08/10 07:00
WMKB 100700Z 27004KT 7000 SCT020 SCT140 BKN270 33/26 Q1006 NOSIG

2010/08/10 07:00
WMKC 100700Z 01006KT 9999 SCT018 SCT140 BKN240 31/25 Q1007

2010/08/10 07:00
WMKD 100700Z 22008KT 9999 SCT020 BKN280 34/26 Q1006 NOSIG

2010/08/10 07:00
WMKI 100700Z 18004KT 9999 FEW020 BKN300 33/23 Q1006

2010/08/10 07:00
WMKL 100700Z 26003KT 9999 FEW020 SCT140 BKN270 30/26 Q1007

2010/08/10 07:00
WMKM 100700Z 17007KT 120V290 9999 FEW021 BKN140 31/25 Q1008

2010/08/10 07:00
WMKN 100700Z 10006KT 9999 FEW018 OVC220 32/28 Q1006

2010/08/10 06:50
EKAH 100650Z AUTO 21006KT 150V260 9999NDV BKN075/// 18/12 Q1015

2010/08/10 07:00
OOMS 100700Z 35007KT 300V030 8000 NSC 33/28 Q1002 NOSIG

2010/08/10 07:00
OIIE 100700Z 12010G20KT CAVOK 33/01 Q1014 A2996

2010/08/10 07:00
OIIE 100700Z 12010G20KT CAV

2010/08/10 07:00
OSDZ 100700Z 00000KT CAVOK 33/16 Q1006

2010/08/10 07:00
OSKL 100700Z VRB03KT CAVOK 35/04 Q1006

2010/08/10 07:00
OYSQ 100700Z 19040G50KT 9999 FEW018 SCT100 30/22 Q1009

2010/08/10 07:00
RJBB 100700Z 23011KT 9999 FEW015 BKN100 BKN140 30/24 Q1012 NOSIG

2010/08/10 07:00
RJBH 100700Z 22009KT 9999 FEW030 SCT140 BKN/// 32/21 Q1011

2010/08/10 07:00
RJBT 100700Z 20005KT 170V230 9999 VCSH FEW000 SCT030 BKN100 25/23 Q1013 RETS

2010/08/10 07:00
RJFS 100700Z 16015KT 9999 FEW035 SCT120 BKN/// 33/24 Q1007

2010/08/10 07:00
RJGG 100700Z 15010KT 9999 -SHRA FEW010 SCT020 BKN045 28/25 Q1013 NOSIG

2010/08/10 07:00
RJNW 100700Z VRB02KT 9999 FEW020 BKN070 BKN140 27/24 Q1014

2010/08/10 07:00
RJOW 100700Z 17017KT 9999 FEW030 BKN130 BKN/// 33/20 Q1010

2010/08/10 07:00
RJSF 100700Z 17007KT 9999 FEW025 BKN/// 30/23 Q1015

2010/08/10 07:00
RJSR 100700Z 28006KT 9999 FEW035 32/25 Q1012

2010/08/10 07:00
RJSY 100700Z 31004KT 9999 FEW030 SCT/// 31/19 Q1011

2010/08/10 07:00
ROIG 100700Z 22009KT 9999 FEW015 BKN200 30/27 Q1008

2010/08/10 07:00
ROMY 100700Z 21009KT 9999 -RA FEW015 BKN150 BKN/// 29/27 Q1008

2010/08/10 07:00
RORS 100700Z 20010KT 9999 VCSH FEW010TCU SCT120 OVC/// 29/27 Q1008

2010/08/10 06:58
ROTM 100658Z 22011G16KT 9999 BKN010 OVC100 29/26 A2981 RMK SLP080 WND WRNG XWND ADV T02940261

2010/08/10 07:00
RPLI 100700Z 22010G20KT 9999 FEW019CB FEW020 BKN290 32/27 Q1007 NOSIG

2010/08/10 07:00
SADF 100700Z 00000KT 7000 MIFG SKC 04/04 Q1027

2010/08/10 07:00
UBBN 100700Z 12012KT 9999 FEW100 33/07 Q1011 R14R/CLRD60 NOSIG RMK G/O QFE684

2010/08/10 07:00
WBGB 100700Z 34006KT 9999 FEW016 SCT150 BKN300 33/27 Q1006

2010/08/10 07:00
WBGR 100700Z 28004KT 9999 FEW014 SCT150 BKN300 31/26 Q1007

2010/08/10 07:00
WBGS 100700Z 27004KT 9999 SCT018 SCT150 BKN300 33/24 Q1007

2010/08/10 07:00
WBGY 100700Z 16001KT 9999 SCT023 SCT150 BKN300 33/24 Q1006

2010/08/10 07:00
WBKL 100700Z 34002KT 9999 FEW014 BKN140 BKN290 31/26 Q1007

2010/08/10 07:00
WBKS 100700Z 10005KT 9999 SCT017 FEW018CB BKN300 33/24 Q1007

2010/08/10 07:00
WBKT 100700Z 02008KT 9999 FEW016 SCT140 BKN270 31/23 Q1007

2010/08/10 07:00
WBKW 100700Z 18007KT 9999 FEW018 SCT300 31/25 Q1008

2010/08/10 07:00
YSTW 100700Z AUTO 24004KT 9999NDV // BKN034 OVC042 14/13 Q1013

2010/08/10 07:00
YSWG 100700Z 36008KT CAVOK 12/09 Q1008

2010/08/10 07:00
YTEF 100700Z AUTO 11015KT //// // ////// 20/M04 Q1019

2010/08/10 07:00
YTNK 100700Z AUTO 18006KT 9999NDV // NCD 22/M07 Q1017

2010/08/10 07:00
YTRE 100700Z AUTO 02006KT //// // ////// 17/15 Q1014

2010/08/10 07:00
YWGT 100700Z AUTO 16005KT //// // ////// 09/09 Q1008

2010/08/10 07:00
YWHA 100700Z AUTO 20018KT 9999NDV // SCT045 14/07 Q1014

2010/08/10 07:00
YWLM 100700Z 05009KT 9999 FEW007 BKN070 BKN120 16/15 Q1013

2010/08/10 07:00
ZBHH 100700Z 28001MPS 9999 FEW040 28/08 Q1010 NOSIG

2010/08/10 07:00
ZBSJ 100700Z 08001MPS 8000 NSC 29/23 Q1006 NOSIG

2010/08/10 07:00
ZGHA 100700Z 24002MPS 9999 FEW040 38/27 Q1001 NOSIG

2010/08/10 07:00
ZGKL 100700Z 20003MPS 120V260 8000 SCT043 36/22 Q1004 NOSIG

2010/08/10 07:00
ZGOW 100700Z 16006MPS 9999 FEW020 33/26 Q1005 NOSIG

2010/08/10 07:00
ZJHK 100700Z 11004MPS 9999 SCT020 FEW025TCU FEW030CB 31/25 Q1003 NOSIG

2010/08/10 07:00
ZLXY 100700Z 05004MPS 010V090 5000 HZ NSC 35/24 Q1002 NOSIG

2010/08/10 07:00
ZSQD 100700Z 09002MPS 050V160 9999 SCT030 33/21 Q1004 NOSIG

2010/08/10 07:00
ZWSH 100700Z 16005MPS CAVOK 32/06 Q1009 NOSIG

2010/08/10 07:00
ZYCC 100700Z 25004MPS 9999 FEW030 27/13 Q1006 NOSIG

2010/08/10 07:00
ZYTX 100700Z 27002MPS 230V310 7000 FEW030 29/22 Q1006 NOSIG

2010/08/10 07:01
EFUT 100701Z 23006KT 200V270 6000 -SHRA BKN015 BKN045 18/17 Q1012

2010/08/10 06:50
EGUB 100650Z 20003KT 9999 -RA FEW012 SCT035 BKN080 13/11 Q1011 BLU NOSIG

2010/08/10 07:00
YWLM 100700Z 05009KT 9999 FEW007 BKN070 BKN120 16/15 Q1013 INTER 0700/1000 4000 RA SCT007 BKN010 FM0700 MOD TURB BLW 5000FT

2010/08/10 06:51
KABE 100651Z AUTO 00000KT 10SM CLR 24/20 A2993

2010/08/10 06:53
KAGC 100653Z 16004KT 7SM CLR 22/19 A2999

2010/08/10 06:54
KAKR 100654Z AUTO 22006KT 10SM BKN070 25/19 A2996

2010/08/10 06:51
KALB 100651Z 18004KT 2SM BR SCT023 BKN037 BKN065 21/21 A2993

2010/08/10 06:56
KART 100656Z AUTO 19005KT 6SM BR BKN013 21/20 A2993

2010/08/10 06:54
KAVP 100654Z 00000KT 10SM SCT110 23/18 A2996

2010/08/10 06:53
KBAF 100653Z 00000KT 6SM -RA BR FEW043 OVC090 22/21 A2992

2010/08/10 06:51
KBDL 100651Z 00000KT 5SM -RA BR FEW015 BKN055 OVC110 22/21 A2992

2010/08/10 06:52
KBDR 100652Z AUTO 35003KT 10SM CLR 26/19 A2992

2010/08/10 06:56
KBED 100656Z 23004KT 3SM -RA BR BKN049 BKN070 22/21 A2990

2010/08/10 06:54
KBTV 100654Z 00000KT 5SM BR CLR 18/18 A2991

2010/08/10 06:54
KBUF 100654Z 00000KT 4SM BR BKN060 BKN080 21/20 A2994

2010/08/10 06:53
KBVY 100653Z AUTO 00000KT 2 1/2SM -RA BR BKN048 OVC120 21/21 A2990

2010/08/10 06:56
KCAE 100656Z 00000KT 6SM BR CLR 24/23 A3001

2010/08/10 06:51
KCAK 100651Z 23004KT 8SM BKN065 OVC100 24/19 A2997

2010/08/10 06:55
KCEF 100655Z AUTO 00000KT 7SM -RA BKN065 OVC080 22/21 A2992

2010/08/10 06:51
KCMH 100651Z 17003KT 10SM FEW130 24/20 A2996

2010/08/10 06:53
KCRQ 100653Z 00000KT 10SM BKN011 18/14 A2991

2010/08/10 06:54
KCRW 100654Z 00000KT 4SM BR FEW001 21/20 A3000

2010/08/10 06:56
KDAY 100656Z 23005KT 7SM FEW050 26/21 A2999

2010/08/10 06:55
KDOV 100655Z AUTO 19010KT 10SM CLR 24/24 A2993

2010/08/10 06:51
KERI 100651Z 15005KT 6SM HZ BKN080 BKN110 23/20 A2993

2010/08/10 06:53
KEWB 100653Z AUTO 00000KT 8SM BKN060 BKN080 23/21 A2992

2010/08/10 06:58
KFDK 100658Z AUTO 00000KT 7SM CLR 24/22 A2995

2010/08/10 06:53
KFVE 100653Z AUTO 29006KT 8SM CLR 16/14 A2982

2010/08/10 06:56
KGON 100656Z AUTO 34003KT 10SM CLR 24/19 A2991

2010/08/10 06:54
KGSO 100654Z 20006KT 8SM CLR 25/21 A3004

2010/08/10 06:53
KGSP 100653Z AUTO 00000KT 10SM CLR 25/22 A3004

2010/08/10 06:56
KHPN 100656Z VRB05KT 10SM CLR 26/17 A2992

2010/08/10 06:51
KHTS 100651Z AUTO 11003KT 3SM BR CLR 22/21 A2998

2010/08/10 06:53
KHUL 100653Z AUTO 20004KT 9SM CLR 16/15 A2982

2010/08/10 06:53
KHVN 100653Z AUTO 00000KT 10SM CLR 24/19 A2992

2010/08/10 06:53
KIAG 100653Z AUTO 23004KT 4SM BR OVC060 22/21 A2994

2010/08/10 06:51
KILG 100651Z 18005KT 10SM CLR 24/22 A2994

2010/08/10 06:53
KILM 100653Z AUTO 00000KT 10SM CLR 26/24 A3002

2010/08/10 06:54
KINT 100654Z AUTO 22004KT 10SM CLR 26/21 A3005

2010/08/10 06:55
KLSV 100655Z AUTO 04005KT 10SM CLR 27/M00 A2984

2010/08/10 06:53
KLUK 100653Z AUTO 00000KT 3SM BR CLR 23/22 A2997

2010/08/10 06:54
KLWM 100654Z AUTO 22003KT 3SM -RA BR SCT003 BKN035 22/21 A2992

2010/08/10 06:56
KMDT 100656Z 14003KT 7SM SCT200 BKN250 27/22 A2991

2010/08/10 06:53
KMSS 100653Z AUTO 22003KT 10SM OVC008 22/21 A2991

2010/08/10 06:54
KORH 100654Z AUTO 31005KT 8SM SCT075 OVC110 21/20 A2995

2010/08/10 06:55
KPSM 100655Z 21005KT 7SM -RA SCT045 OVC100 21/20 A2988

2010/08/10 06:51
KPVD 100651Z 00000KT 10SM BKN075 OVC150 23/19 A2993

2010/08/10 06:51
KPWM 100651Z AUTO 28006KT 10SM CLR 22/19 A2986

2010/08/10 06:54
KRIC 100654Z 20003KT 9SM CLR 24/21 A2997

2010/08/10 06:54
KROC 100654Z 22003KT 2 1/2SM BR BKN060 OVC085 21/20 A2994

2010/08/10 06:54
KSYR 100654Z 14003KT 2SM BR BKN020 OVC055 21/21 A2995

2010/08/10 06:55
KWRI 100655Z AUTO 21004KT 9SM CLR 23/22 A2991

2010/08/10 07:00
OIBA 100700Z 07006KT CAVOK 36/25 Q1000 A2953

2010/08/10 07:00
OIBV 100700Z 12012KT 7000 SKC 36/29 Q0999 A2952

2010/08/10 07:00
OIFS 100700Z 12006KT CAVOK 26/02 Q1023 A3021

2010/08/10 07:00
OIMB 100700Z 03010KT CAVOK 29/11 Q1015 A2999

2010/08/10 07:00
OIMN 100700Z 10008KT CAVOK 30/04 Q1017 A3004

2010/08/10 07:00
OIMT 100700Z 00000KT CAVOK 36/03 Q1009 A2982 927.7

2010/08/10 07:00
OIZJ 100700Z 09016KT 6000 FEW020 32/28 Q1002 A2960

2010/08/10 07:05
KBTV 100705Z 00000KT 1SM BR VV003 18/18 A2991 RMK AO2 RVRNO 

2010/08/10 07:04
KANJ 100704Z AUTO 31005KT 5SM BR FEW006 20/19 A2996 RMK AO2 

2010/08/10 06:53
KAMA 100653Z AUTO 17011KT 10SM CLR 22/17 A3005

2010/08/10 06:53
KAUS 100653Z 21004KT 10SM CLR 27/24 A2994

2010/08/10 06:53
KBPT 100653Z AUTO 00000KT 10SM CLR 26/25 A2991

2010/08/10 07:00
KBQK 100700Z AUTO 13006KT 10SM CLR 28/25 A2998

2010/08/10 06:53
KBRO 100653Z 17005KT 10SM CLR 28/26 A2991

2010/08/10 06:53
KBTR 100653Z 00000KT 9SM FEW004 SCT020 BKN200 24/24 A2993

2010/08/10 06:53
KCHA 100653Z 12003KT 10SM CLR 28/22 A2999

2010/08/10 06:51
KCRP 100651Z 00000KT 10SM FEW018 27/26 A2993

2010/08/10 06:53
KDAL 100653Z 19005KT 10SM FEW220 31/19 A2990

2010/08/10 06:53
KDRT 100653Z AUTO 12010G16KT 10SM CLR 30/22 A2992

2010/08/10 06:51
KELP 100651Z 14012KT 10SM FEW160 27/14 A3003

2010/08/10 06:53
KEYW 100653Z AUTO 26005KT 10SM FEW014 SCT065 26/23 A2985

2010/08/10 06:53
KFPR 100653Z AUTO 15006KT 10SM FEW022 27/23 A2991

2010/08/10 06:53
KFTW 100653Z 19009KT 10SM CLR 30/20 A2990

2010/08/10 06:53
KFTY 100653Z 00000KT 5SM BR CLR 24/22 A3001

2010/08/10 06:53
KFXE 100653Z 14009KT 10SM SCT015 SCT025 27/23 A2988

2010/08/10 06:52
KGLS 100652Z AUTO 23004KT 10SM CLR 29/25 A2992

2010/08/10 06:53
KGPT 100653Z AUTO 00000KT 5SM BR CLR 27/25 A2991

2010/08/10 06:53
KHOU 100653Z 25005KT 10SM FEW250 28/24 A2991

2010/08/10 06:52
KHRL 100652Z AUTO 16004KT 10SM SCT021 SCT029 27/27 A2991

2010/08/10 06:53
KHSV 100653Z 00000KT 5SM BR FEW200 26/24 A2998

2010/08/10 06:53
KLCH 100653Z AUTO 00000KT 10SM CLR 26/25 A2992

2010/08/10 06:55
KLGC 100655Z AUTO 5SM CLR 22/22 A2999

2010/08/10 06:56
KLRD 100656Z AUTO 16011KT 10SM CLR 29/25 A2995

2010/08/10 06:53
KMAF 100653Z AUTO 12005KT 10SM CLR 22/19 A3001

2010/08/10 06:53
KMFE 100653Z AUTO 15007KT 9SM FEW020 28/26 A2992

2010/08/10 06:53
KMGM 100653Z 00000KT 9SM CLR 28/23 A2995

2010/08/10 06:56
KMOB 100656Z 00000KT 10SM FEW250 26/24 A2994

2010/08/10 06:53
KNEW 100653Z AUTO 05007KT 9SM CLR 29/26 A2992

2010/08/10 06:53
KOPF 100653Z AUTO 15010KT 10SM SCT020 SCT025 SCT075 26/24 A2988

2010/08/10 06:53
KPDK 100653Z AUTO 00000KT 10SM CLR 26/20 A3002

2010/08/10 06:53
KPIE 100653Z AUTO 10006KT 10SM CLR 26/23 A2988

2010/08/10 06:53
KPNS 100653Z AUTO 00000KT 8SM CLR 26/24 A2992

2010/08/10 06:53
KRSW 100653Z AUTO 10005KT 10SM BKN008 25/24 A2986

2010/08/10 06:53
KSAT 100653Z 18007KT 10SM FEW015 27/24 A2997

2010/08/10 06:53
KSAV 100653Z 15003KT 10SM CLR 27/24 A2999

2010/08/10 06:56
KSHV 100656Z 18003KT 10SM SCT290 28/23 A2991

2010/08/10 06:53
KSSI 100653Z AUTO 13011KT 10SM CLR 28/23 A2997

2010/08/10 06:53
KTMB 100653Z AUTO 16005KT 10SM FEW050 27/23 A2987

2010/08/10 06:53
KTUL 100653Z 19009KT 10SM CLR 31/19 A2990

2010/08/10 06:53
KTYS 100653Z 00000KT 9SM SCT120 27/22 A3000

2010/08/10 07:02
KYIP 100702Z 00000KT 1/4SM FG VV001 22/21 A2996

2010/08/10 06:53
KAZO 100653Z AUTO 00000KT 1/4SM FG VV001 20/19 A2997

2010/08/10 06:53
KBDE 100653Z AUTO 19003KT 10SM CLR 22/20 A2992

2010/08/10 06:53
KBTL 100653Z AUTO 00000KT 3SM BR CLR 21/21 A2998

2010/08/10 06:53
KBTM 100653Z AUTO 09004KT 10SM -RA OVC090 12/10 A3002

2010/08/10 06:55
KCIU 100655Z AUTO 02009KT 7SM SCT025 19/19 A2996

2010/08/10 06:53
KCMX 100653Z AUTO 00000KT 9SM CLR 17/16 A2996

2010/08/10 06:54
KCOS 100654Z AUTO 00000KT 10SM BKN110 18/12 A3016

2010/08/10 06:53
KCPR 100653Z AUTO 18009KT 10SM CLR 18/04 A3005

2010/08/10 06:53
KDET 100653Z 00000KT 9SM CLR 22/21 A2995

2010/08/10 06:55
KDLH 100655Z 00000KT 10SM CLR 21/18 A2998

2010/08/10 06:54
KDSM 100654Z 36006KT 3/4SM R31/4000VP6000FT +TSRA BR BKN004 OVC016CB 22/22 A2998

2010/08/10 06:54
KELO 100654Z AUTO 00000KT 10SM CLR 18/17 A2998

2010/08/10 06:53
KFAR 100653Z 15007KT 10SM CLR 25/19 A2990

2010/08/10 06:53
KFNT 100653Z 00000KT 1/2SM FG 19/19 A2996

2010/08/10 06:53
KGFK 100653Z 20004KT 10SM FEW250 22/20 A2989

2010/08/10 06:53
KGRB 100653Z AUTO 00000KT 1 3/4SM BR CLR 22/21 A2996

2010/08/10 06:53
KGRR 100653Z AUTO 00000KT 4SM BR CLR 21/20 A2997

2010/08/10 06:53
KICT 100653Z 17007KT 10SM FEW150 SCT200 28/21 A2991

2010/08/10 06:55
KINL 100655Z AUTO 00000KT 10SM FEW090 18/18 A2994

2010/08/10 06:52
KISN 100652Z 28003KT 10SM -TSRA BKN100 BKN120 21/17 A2982

2010/08/10 06:54
KLEX 100654Z 17004KT 10SM CLR 24/21 A2999

2010/08/10 06:53
KMBS 100653Z 32005KT 8SM CLR 22/21 A2995

2010/08/10 06:51
KMDW 100651Z COR 00000KT 10SM FEW095 SCT250 26/22 A2994

2010/08/10 06:51
KMDW 100651Z 00000KT 10SM CLR 26/22 A2994

2010/08/10 06:54
KMKC 100654Z 23003KT 10SM CLR 29/22 A2988

2010/08/10 06:52
KMKE 100652Z 00000KT 4SM BR FEW250 23/21 A2995

2010/08/10 06:52
KMLI 100652Z 09004KT 10SM CLR 25/23 A2990

2010/08/10 06:54
KMOT 100654Z AUTO 07006KT 10SM OVC055 22/18 A2989

2010/08/10 06:52
KOMA 100652Z 13005KT 10SM FEW250 28/26 A2985

2010/08/10 06:55
KPHN 100655Z AUTO 00000KT 1/4SM FG OVC001 18/18 A2995

2010/08/10 06:53
KPTK 100653Z 29005KT 6SM BR SCT140 23/22 A2995

2010/08/10 06:53
KPUB 100653Z AUTO 00000KT 10SM CLR 16/15 A3007

2010/08/10 06:59
KSAW 100659Z AUTO 00000KT 5SM BR CLR 19/18 A2998

2010/08/10 06:56
KSDF 100656Z 00000KT 8SM CLR 29/23 A2995

2010/08/10 06:52
KSGF 100652Z 16006KT 10SM CLR 27/23 A2995

2010/08/10 06:53
KSTP 100653Z AUTO 00000KT 10SM CLR 24/22 A2994

2010/08/10 06:54
KSUS 100654Z AUTO 00000KT 7SM CLR 27/25 A2991

2010/08/10 06:52
KTOL 100652Z 20003KT 1 3/4SM BR CLR 22/22 A2995

2010/08/10 07:00
FIMR 100700Z 10019KT 9999 SCT018 24/15 Q1024

2010/08/10 07:04
CYRV 100704Z AUTO 00000KT 9SM -RA BKN003 OVC009 OVC076 16/16 A2986

2010/08/10 06:55
ETIH 100655Z AUTO 00000KT 3200 BR OVC075 15/15 A3008 RMK AO2 SLP181 T01510151 $

2010/08/10 07:00
LFBA 100700Z 00000KT 9999 SCT030 SCT250 16/15 Q1019 NOSIG

2010/08/10 07:00
LFBE 100700Z VRB02KT CAVOK 17/14 Q1019 NOSIG

2010/08/10 07:00
LFCG 100700Z 00000KT 9000 SCT003 BKN010 17/15 Q1019

2010/08/10 07:00
LFDB 100700Z VRB01KT CAVOK 18/14 Q1019

2010/08/10 07:00
LFDH 100700Z 18003KT 8000 FEW005 17/16 Q1019

2010/08/10 07:00
LFGJ 100700Z AUTO 22003KT 150V270 9999NDV NSC 18/15 Q1017

2010/08/10 07:00
LFHP 100700Z VRB02KT 9999 SCT023 BKN043 17/14 Q1020

2010/08/10 07:00
LFLL 100700Z 01006KT CAVOK 20/15 Q1017 NOSIG

2010/08/10 07:00
LFLN 100700Z AUTO VRB02KT 9999NDV NSC 19/16 Q1018

2010/08/10 07:00
LFMD 100700Z AUTO VRB02KT 9999NDV BKN038 25/20 Q1015

2010/08/10 07:00
LFMH 100700Z VRB02KT CAVOK 19/14 Q1018 NOSIG

2010/08/10 07:00
LFMN 100700Z 03005KT 9999 BKN036 25/19 Q1016 NOSIG

2010/08/10 07:00
LFOT 100700Z AUTO 24007KT 9999NDV NSC 16/13 Q1017

2010/08/10 07:00
LFOW 100700Z 23004KT CAVOK 17/12 Q1015

2010/08/10 07:00
LFPM 100700Z 00000KT CAVOK 19/12 Q1016

2010/08/10 07:00
LFPN 100700Z VRB03KT CAVOK 18/13 Q1016 NOSIG

2010/08/10 07:00
LFPO 100700Z VRB02KT CAVOK 19/14 Q1016 NOSIG

2010/08/10 07:00
LFQQ 100700Z 21008KT 170V230 CAVOK 17/13 Q1014 NOSIG

2010/08/10 07:00
LFRB 100700Z 25010KT 3500 RA BKN005 17/17 Q1014 NOSIG

2010/08/10 07:00
LFRC 100700Z AUTO 21010KT 2100NDV -RA BR OVC004 17/17 Q1013

2010/08/10 07:00
LFRH 100700Z 24014KT 5000 -RA BKN003 OVC008 18/17 Q1016

2010/08/10 07:00
LFRI 100700Z 22003KT 190V260 9999 BKN018 17/16 Q1018 NOSIG

2010/08/10 07:00
LFRK 100700Z 16005KT 9999 -RA SCT040 BKN053 16/14 Q1014 NOSIG

2010/08/10 07:00
LFRQ 100700Z 26010KT 5000 BKN003 17/17 Q1015 NOSIG

2010/08/10 07:00
LFRS 100700Z 21005KT 9999 FEW029 SCT150 BKN230 17/17 Q1017 NOSIG

2010/08/10 07:00
LFRT 100700Z 23007KT 190V260 4000 -RA BR SCT013 OVC022 17/17 Q1014

2010/08/10 07:00
LFTW 100700Z AUTO 33004KT 300V360 9999NDV NSC 24/15 Q1016

2010/08/10 06:53
KBFI 100653Z 20004KT 10SM BKN017 OVC055 15/12 A2997

2010/08/10 06:53
KBIL 100653Z 21007KT 10SM CLR 17/15 A2992

2010/08/10 06:53
KBKE 100653Z AUTO 18004KT 10SM CLR 13/08 A2991

2010/08/10 06:53
KBLI 100653Z AUTO 17008KT 10SM OVC090 15/13 A2994

2010/08/10 06:53
KBOI 100653Z 15003KT 10SM TS FEW110 22/13 A2985

2010/08/10 06:53
KCLM 100653Z AUTO 29004KT 10SM OVC007 12/11 A2997

2010/08/10 06:56
KCTB 100656Z AUTO 00000KT 10SM CLR 16/10 A2985

2010/08/10 06:56
KDUG 100656Z AUTO 00000KT 10SM CLR 22/18 A3006

2010/08/10 06:53
KFAT 100653Z 31008KT 10SM CLR 24/14 A2981

2010/08/10 06:55
KGDV 100655Z AUTO 31023G29KT 10SM CLR 21/16 A2981

2010/08/10 06:53
KGEG 100653Z 18006KT 10SM BKN130 19/04 A2980

2010/08/10 06:53
KGGW 100653Z AUTO 27006KT 8SM -RA BKN050 OVC100 19/17 A2981

2010/08/10 06:53
KGLH 100653Z AUTO 16006KT 10SM CLR 25/24 A2994

2010/08/10 06:55
KGPI 100655Z AUTO 00000KT 10SM CLR 15/10 A2984

2010/08/10 06:53
KGTF 100653Z 19007KT 10SM CLR 17/09 A2986

2010/08/10 06:53
KGWO 100653Z AUTO 00000KT 8SM CLR 24/24 A2995

2010/08/10 06:53
KHLN 100653Z AUTO 00000KT 10SM BKN095 14/12 A2992

2010/08/10 06:53
KHQM 100653Z AUTO 27004KT 10SM OVC013 13/11 A3000

2010/08/10 06:53
KHVR 100653Z AUTO 00000KT 10SM SCT120 17/15 A2980

2010/08/10 06:53
KIPL 100653Z AUTO 24004KT 10SM CLR 27/06 A2972

2010/08/10 06:53
KLBB 100653Z 11008KT 10SM FEW160 21/18 A3004

2010/08/10 06:53
KMSO 100653Z AUTO 13007KT 10SM CLR 16/12 A2991

2010/08/10 06:52
KMWH 100652Z AUTO 31007KT 10SM CLR 20/09 A2979

2010/08/10 06:56
KNUW 100656Z 23007KT 8SM FEW008 BKN012 OVC045 14/12 A2996

2010/08/10 06:53
KOLF 100653Z AUTO 22013G24KT 10SM VCTS BKN095 24/15 A2985

2010/08/10 06:54
KOLM 100654Z AUTO 22006KT 10SM OVC017 13/11 A2998

2010/08/10 06:54
KOLS 100654Z AUTO 00000KT 10SM CLR 23/14 A3005

2010/08/10 06:55
KOLV 100655Z AUTO 00000KT 7SM CLR 25/25 A2995

2010/08/10 06:53
KPAE 100653Z AUTO 22005KT 10SM FEW011 BKN044 14/12 A2997

2010/08/10 06:53
KPDX 100653Z 34005KT 10SM OVC038 16/12 A3000

2010/08/10 06:53
KPMD 100653Z AUTO 00000KT 10SM CLR 20/04 A2992

2010/08/10 06:55
KRNO 100655Z 01008KT 10SM CLR 21/03 A3000

2010/08/10 06:53
KRNT 100653Z AUTO 19004KT 10SM SCT024 OVC032 16/12 A2996

2010/08/10 06:53
KSAC 100653Z 19004KT 10SM CLR 16/12 A2984

2010/08/10 06:55
KSCK 100655Z 36006KT 10SM CLR 18/13 A2983

2010/08/10 06:53
KSDM 100653Z AUTO 25003KT 10SM CLR 14/13 A2993

2010/08/10 06:53
KSFF 100653Z AUTO 00000KT 10SM CLR 16/05 A2980

2010/08/10 06:53
KSJC 100653Z 00000KT 10SM BKN009 15/12 A2992

2010/08/10 06:53
KSLC 100653Z 16006KT 10SM CLR 19/04 A2999

2010/08/10 06:53
KSMF 100653Z 15010KT 10SM CLR 17/12 A2982

2010/08/10 06:53
KTIW 100653Z 25006KT 10SM BKN014 OVC019 13/11 A2997

2010/08/10 06:53
KTUS 100653Z 22003KT 10SM CLR 28/15 A2996

2010/08/10 07:00
OIBL 100700Z 10018KT 3000 SA SKC 36/26 Q1000 A2954

2010/08/10 07:00
OIBQ 100700Z 11006KT 8000 NSC 34/30 Q0999 A2952

2010/08/10 07:00
OIIK 100700Z 17008KT CAVOK 31/02 Q1017 A3005

2010/08/10 07:00
OIMC 100700Z 30014KT CAVOK 36/07 Q1010 A2983

2010/08/10 07:00
OIMD 100700Z 03012KT CAVOK 31/01 Q1010 A2984

2010/08/10 07:00
OIMQ 100700Z 00000KT CAVOK 32/M01 Q1014 A2996

2010/08/10 07:00
OITM 100700Z 16016KT 9999 FEW040 31/10 Q1015 A2998

2010/08/10 06:54
KACY 100654Z 10SM CLR 25/23 A2996

2010/08/10 06:53
KAUG 100653Z AUTO 30003KT 10SM CLR 21/18 A2987

2010/08/10 06:54
KAVL 100654Z AUTO 00000KT 4SM R34/5500VP6000FT BR CLR 21/20 A3012

2010/08/10 06:53
KBGM 100653Z AUTO 27004KT 1 3/4SM BR FEW001 BKN060 OVC075 21/20 A3002

2010/08/10 06:51
KBKW 100651Z AUTO 00000KT 6SM HZ CLR 20/17 A3011

2010/08/10 06:58
KCBE 100658Z AUTO 00000KT 10SM CLR 21/20 A3001

2010/08/10 06:51
KCON 100651Z AUTO 00000KT 4SM BR SCT036 OVC120 21/20 A2991

2010/08/10 06:52
KDCA 100652Z 18008KT 10SM BKN250 26/21 A2994

2010/08/10 06:51
KEKN 100651Z AUTO 00000KT 4SM BR FEW003 17/17 A3007

2010/08/10 07:03
KESN 100703Z AUTO 21003KT 10SM CLR 24/24 A2998

2010/08/10 06:53
KGFL 100653Z AUTO 00000KT 3/4SM BR BKN034 20/20 A2992

2010/08/10 06:53
KGSP 100653Z AUTO 00000KT 10SM CLR 25/22 A3004

2010/08/10 07:00
KIPJ 100700Z AUTO 00000KT 7SM CLR 24/22 A3004

2010/08/10 06:54
KIPT 100654Z AUTO 00000KT 10SM CLR 23/18 A2994

2010/08/10 06:54
KLYH 100654Z AUTO 00000KT 6SM BR CLR 22/21 A3002

2010/08/10 06:53
KMHT 100653Z 00000KT 1 1/2SM BR FEW044 BKN055 OVC095 22/21 A2988

2010/08/10 06:51
KMPV 100651Z AUTO 00000KT 1/4SM FG VV001 18/18 A2998

2010/08/10 06:55
KMWN 100655Z 31028KT 100SM BKN/// FEW/// FEW000 SCT120 SCT200 08/07

2010/08/10 06:55
KMYR 100655Z AUTO 20005KT 10SM SCT020 SCT027 BKN120 28/24 A3005

2010/08/10 06:51
KNYC 100651Z VRB05KT 10SM CLR 27/18 A2995

2010/08/10 06:54
KPNE 100654Z 22005KT 10SM CLR 27/21 A2994

2010/08/10 06:54
KROA 100654Z 29003KT 9SM CLR 24/21 A3004

2010/08/10 06:53
KSMQ 100653Z AUTO 00000KT 9SM CLR 23/20 A2991

2010/08/10 06:54
KWAL 100654Z AUTO 24006KT 10SM CLR 24/22 A2997

2010/08/10 06:53
KAAF 100653Z AUTO 05004KT 10SM FEW026 27/24 A2989

2010/08/10 06:53
KABR 100653Z AUTO 15006KT 10SM CLR 24/22 A2988

2010/08/10 06:51
KACT 100651Z 20011KT 10SM CLR 29/22 A2992

2010/08/10 06:53
KAGS 100653Z AUTO 00000KT 4SM BR CLR 23/22 A3001

2010/08/10 06:51
KAHN 100651Z AUTO 00000KT 4SM BR CLR 23/22 A3002

2010/08/10 06:53
KALI 100653Z AUTO 00000KT 10SM CLR 27/26 A2993

2010/08/10 06:53
KAUS 100653Z 21004KT 10SM CLR 27/24 A2994

2010/08/10 07:00
KAYS 100700Z AUTO 08003KT 10SM CLR 26/25 A2997

2010/08/10 06:51
KBVE 100651Z AUTO 00000KT CLR 26/25 A2991

2010/08/10 06:55
KCAO 100655Z AUTO 20006KT 10SM SCT120 22/16 A3010

2010/08/10 06:53
KCDS 100653Z AUTO 21006KT 10SM FEW036 25/20 A2998

2010/08/10 06:53
KCLL 100653Z AUTO 19003KT 10SM CLR 28/23 A2993

2010/08/10 06:53
KCNM 100653Z AUTO 22006KT 10SM CLR 21/16 A3000

2010/08/10 06:53
KCOT 100653Z AUTO 14007KT 10SM CLR 27/24 A2993

2010/08/10 06:51
KCSG 100651Z AUTO 08003KT 9SM CLR 27/19 A2997

2010/08/10 06:53
KCTY 100653Z AUTO 00000KT 25/24 A2992

2010/08/10 06:53
KDAB 100653Z 13005KT 10SM FEW020 27/23 A2994

2010/08/10 06:53
KDHT 100653Z AUTO 25004KT 10SM CLR 20/17 A3006

2010/08/10 06:53
KECP 100653Z 00000KT 5SM BR CLR 26/24 A2991

2010/08/10 06:53
KELD 100653Z AUTO 16007KT 10SM CLR 27/24 A2993

2010/08/10 06:51
KELP 100651Z 14012KT 10SM FEW160 27/14 A3003

2010/08/10 06:53
KESF 100653Z AUTO 00000KT 10SM CLR 26/24 A2994

2010/08/10 06:53
KFSM 100653Z AUTO 00000KT 10SM CLR 28/25 A2992

2010/08/10 06:53
KFYV 100653Z AUTO 18004KT 10SM CLR 24/22 A2998

2010/08/10 06:53
KGAG 100653Z AUTO 30003KT 10SM CLR 24/18 A2995

2010/08/10 06:51
KGDP 100651Z AUTO 05008KT 10SM CLR 22/14 A3017

2010/08/10 06:53
KHBR 100653Z AUTO 16006KT 10SM CLR 27/19 A2994

2010/08/10 06:51
KHDO 100651Z AUTO 15007KT 10SM CLR 27/23 A2998

2010/08/10 06:53
KHOT 100653Z AUTO 00000KT 10SM CLR 29/23 A2994

2010/08/10 06:53
KHRO 100653Z AUTO 00000KT 9SM CLR 26/23 A2998

2010/08/10 06:54
KIPT 100654Z AUTO 00000KT 10SM CLR 23/18 A2994

2010/08/10 06:54
KJAN 100654Z 00000KT 10SM CLR 24/23 A2995

2010/08/10 06:53
KJBR 100653Z AUTO 00000KT 10SM CLR 27/24 A2993

2010/08/10 06:51
KJCT 100651Z AUTO 16011G16KT 10SM CLR 28/21 A2999

2010/08/10 07:00
KJQF 100700Z AUTO 00000KT 10SM CLR 25/21 A3003

2010/08/10 06:53
KLFK 100653Z AUTO 00000KT 10SM CLR 28/24 A2992

2010/08/10 06:53
KLFT 100653Z AUTO 00000KT 10SM CLR 25/24 A2993

2010/08/10 06:53
KMCN 100653Z AUTO 13004KT 8SM CLR 25/22 A2999

2010/08/10 06:58
KMEI 100658Z AUTO 00000KT 6SM BR CLR 26/24 A2996

2010/08/10 06:53
KMLC 100653Z AUTO 00000KT 10SM CLR 26/20 A2994

2010/08/10 06:53
KMLU 100653Z AUTO A2994

2010/08/10 06:53
KMWL 100653Z AUTO 16005KT 10SM CLR 27/19 A2991

2010/08/10 06:53
KPBF 100653Z AUTO 00000KT 10SM CLR 28/24 A2993

2010/08/10 06:53
KPNC 100653Z AUTO 16006KT 10SM CLR 30/21 A2990

2010/08/10 06:53
KPSX 100653Z AUTO 20009G18KT 10SM CLR 31/26 A2991

2010/08/10 06:53
KPWA 100653Z AUTO 18012KT 10SM CLR 28/20 A2992

2010/08/10 06:53
KRMG 100653Z AUTO 00000KT 8SM CLR 25/23 A2999

2010/08/10 06:53
KRSL 100653Z AUTO 19009KT 10SM FEW095 27/21 A2988

2010/08/10 06:56
KSHV 100656Z 18003KT 10SM SCT290 28/23 A2991

2010/08/10 06:52
KSPS 100652Z AUTO 17009KT 10SM CLR 29/19 A2991

2010/08/10 06:53
KTLH 100653Z 10007KT 10SM CLR 27/23 A2992

2010/08/10 06:53
KTOP 100653Z AUTO 21004KT 10SM CLR 29/21 A2988

2010/08/10 06:53
KTRI 100653Z 00000KT 5SM BR CLR 22/20 A3005

2010/08/10 06:53
KTUP 100653Z AUTO 00000KT 7SM CLR 26/24 A2995

2010/08/10 06:51
KVCT 100651Z AUTO 00000KT 10SM CLR 26/26 A2992

2010/08/10 06:53
KVGT 100653Z AUTO 33006KT 10SM CLR 27/M03 A2985

2010/08/10 06:58
KVUJ 100658Z AUTO 00000KT 5SM CLR 22/21 A3002

2010/08/10 06:55
KWRB 100655Z AUTO 00000KT 10SM CLR 24/23 A2999

2010/08/10 06:55
KMWN 100655Z COR 31028KT 100SM BKN/// FEW/// FEW000 SCT120 SCT200 08/07 RMK TPS LWR BKN056 BBLO FEW DSNT SE-SW PTCHY VLY FG ALQDS 

2010/08/10 06:50
EGYE 100650Z 25010KT 9999 FEW005 SCT008 BKN100 Q1008 GRN

2010/08/10 06:50
ENGC 100650Z 10018KT 9999 BKN045 14/12 Q1008

2010/08/10 06:55
ETIH 100655Z AUTO 00000KT 3200 BR OVC075 15/15 A3008 RMK AO2 SLP181 T01510151 $

2010/08/10 07:00
LECV 100700Z 12003KT CAVOK 25/15 Q1021

2010/08/10 07:00
LEGT 100700Z 09003KT 8000 FEW050 25/14 Q1019

2010/08/10 07:00
LERI 100700Z 17003KT CAVOK 26/17 Q1016 NOSIG

2010/08/10 07:00
LERT 100700Z 00000KT CAVOK 27/13 Q1016 NOSIG

2010/08/10 07:00
LFCG 100700Z 00000KT 9000 SCT003 BKN010 17/15 Q1019

2010/08/10 07:00
LFDB 100700Z VRB01KT CAVOK 18/14 Q1019

2010/08/10 07:00
LFDH 100700Z 18003KT 8000 FEW005 17/16 Q1019

2010/08/10 07:00
LFHP 100700Z VRB02KT 9999 SCT023 BKN043 17/14 Q1020

2010/08/10 07:00
LFOW 100700Z 23004KT CAVOK 17/12 Q1015

2010/08/10 07:00
LFPM 100700Z 00000KT CAVOK 19/12 Q1016

2010/08/10 07:00
LFQB 100700Z VRB02KT CAVOK 20/12 Q1015

2010/08/10 07:00
LFQG 100700Z 27005KT 240V300 CAVOK 18/13 Q1017

2010/08/10 07:00
LFRH 100700Z 24014KT 5000 -RA BKN003 OVC008 18/17 Q1016

2010/08/10 07:00
LFRI 100700Z 22003KT 190V260 9999 BKN018 17/16 Q1018 NOSIG

2010/08/10 07:00
LFRM 100700Z 18003KT 140V240 CAVOK 15/11 Q1017

2010/08/10 07:00
LFRQ 100700Z 26010KT 5000 BKN003 17/17 Q1015 NOSIG

2010/08/10 07:00
LFTW 100700Z AUTO 33004KT 300V360 9999NDV NSC 24/15 Q1016

2010/08/10 07:00
LJLJ 100700Z VRB01KT 9999 SCT040 22/17 Q1018 NOSIG

2010/08/10 07:00
LJMB 100700Z 00000KT CAVOK 20/18 Q1018

2010/08/10 07:00
LJPZ 100700Z VRB02KT CAVOK 24/18 Q1015

2010/08/10 07:00
LPFR 100700Z VRB03KT CAVOK 26/17 Q1015

2010/08/10 07:00
LPPR 100700Z 00000KT 7000 FEW090 23/16 Q1016

2010/08/10 07:00
LPPS 100700Z 35005KT 9000 SCT011 22/19 Q1016

2010/08/10 07:00
LPPT 100700Z 00000KT CAVOK 28/17 Q1016 NOSIG

2010/08/10 06:50
BGSF 100650Z 06008KT 9999 BKN025 BKN040 07/03 Q1007

2010/08/10 07:00
BIAR 100700Z 14005KT 9999 OVC011 09/08 Q1014

2010/08/10 07:00
BIEG 100700Z 04006KT 0600 R040750 FG VV002 07/07 Q1013

2010/08/10 07:00
BIKF 100700Z 31006KT 9999 BKN022 12/07 Q1014

2010/08/10 07:00
BIRK 100700Z 30002KT 9999 OVC020 12/07 Q1013

2010/08/10 06:59
KNGU 100659Z 20004KT 10SM CLR 27/23 A2999 RMK AO2 SLP155 T02670233

2010/08/10 07:00
MKJS 100700Z 00000KT 9999 FEW024 BKN220 27/24 Q1012

2010/08/10 07:00
SAZS 100700Z 14006KT CAVOK M04/M06 Q1024

2010/08/10 07:00
SCAR 100700Z 08006KT CAVOK 11/06 Q1016

2010/08/10 07:00
SCBA 100700Z AUTO 27004KT CAVOK M01/M03 Q1022

2010/08/10 07:00
SCDA 100700Z 00000KT 8000 OVC020 13/09 Q1017

2010/08/10 07:00
SCEL 100700Z 25002KT 5000 HZ NSC 04/01 Q1016 NOSIG

2010/08/10 07:00
SCFA 100700Z 35006KT 9999 OVC019 13/08 Q1017

2010/08/10 07:00
SCIE 100700Z 16003KT 9999 05/03 Q1017

2010/08/10 07:00
SCTE 100700Z 17008KT 9999 BKN006 07/07 Q1023 NOSIG

2010/08/10 07:00
SKBQ 100700Z 00000KT 9999 -DZ SCT012 SCT070 27/26 A2988

2010/08/10 07:00
SKCG 100700Z 00000KT 9999 FEW015 SCT200 27/26 A2985

2010/08/10 07:00
SPHI 100700Z 17006KT CAVOK 15/13 Q1016 RMK PP000

2010/08/10 07:00
SPQU 100700Z 00000KT 340V040 CAVOK 09/M17 Q1027 RMK PP000

2010/08/10 07:00
SPRU 100700Z 15005KT 5000 BR SCT014 14/13 Q1015 RMK BIRDS HAZARD RWY 20 PP000

2010/08/10 07:00
SPSO 100700Z VRB02KT 7000 FEW012 12/10 Q1016 RMK PP000

2010/08/10 07:00
TBPB 100700Z 14007KT 9999 FEW022 SCT280 27/24 Q1013 NOSIG

2010/08/10 07:00
TFFF 100700Z AUTO VRB01KT 9999NDV FEW011/// SCT020/// BKN040/// 25/24 Q1012

2010/08/10 07:00
TNCM 100700Z 10007KT 9999 SCT019 28/25 Q1013 RERA

2010/08/10 07:00
TTPP 100700Z ///05KT 9999 FEW018 BKN280 24/23 Q1012 NOSIG

2010/08/10 06:55
KQCQ 100655Z 02005KT 9999 CLR 43/M01 A2957 RMK SLP010

2010/08/10 06:55
KQL5 100655Z 07005KT 9999 SCT060 BKN150 33/21 A2964 RMK AO2A LTG DSNT SW CB DSNT SE-SW SLP998 WND DATA ESTMD ALSTG/SLP ESTMD

2010/08/10 07:00
KQTD 100700Z 03008KT 9999 CLR 35/04 A2984 RMK A02 SLP068 T03470038

2010/08/10 06:53
KAIA 100653Z AUTO 12007KT 10SM CLR 18/16 A3000

2010/08/10 06:54
KALO 100654Z 07004KT 6SM BR CLR 23/23 A2991

2010/08/10 06:52
KALS 100652Z AUTO 04003KT 10SM CLR 09/07 A3028

2010/08/10 06:53
KBBW 100653Z AUTO 31014G25KT 3/4SM +TSRA BR BKN007 BKN023 OVC044 19/18 A2998

2010/08/10 06:53
KBFF 100653Z AUTO 14006KT 10SM CLR 18/17 A3003

2010/08/10 06:50
KBIE 100650Z AUTO 18006KT 10SM CLR 27/22 A2987

2010/08/10 06:52
KBIS 100652Z AUTO 05004KT 10SM CLR 23/18 A2987

2010/08/10 06:53
KBPI 100653Z AUTO 08005KT 10SM CLR 08/03 A3020

2010/08/10 06:53
KBRL 100653Z AUTO 14003KT 10SM CLR 26/23 A2990

2010/08/10 06:53
KCAG 100653Z AUTO 00000KT 10SM CLR 09/08 A3020

2010/08/10 06:53
KCGI 100653Z AUTO 00000KT 5SM BR CLR 25/24 A2993

2010/08/10 06:52
KCID 100652Z AUTO 09003KT 9SM CLR 24/23 A2990

2010/08/10 06:55
KCNK 100655Z AUTO 18011KT 10SM CLR 28/21 A2988

2010/08/10 06:52
KCNU 100652Z AUTO 19005KT 10SM CLR 27/21 A2992

2010/08/10 06:54
KCOU 100654Z AUTO 14005KT 10SM CLR 27/25 A2993

2010/08/10 06:53
KCYS 100653Z AUTO 23004KT 10SM CLR 14/12 A3014

2010/08/10 06:53
KDBQ 100653Z AUTO 05003KT 9SM CLR 24/23 A2994

2010/08/10 06:52
KDDC 100652Z AUTO 18004KT 10SM CLR 24/19 A2992

2010/08/10 06:55
KDVL 100655Z AUTO 28010G26KT 10SM SCT026 SCT120 25/19 A2993

2010/08/10 06:55
KEAR 100655Z AUTO 19006KT 10SM CLR 25/22 A2990

2010/08/10 06:54
KEVV 100654Z AUTO 00000KT 8SM CLR 26/23 A2995

2010/08/10 06:53
KFNB 100653Z AUTO 18007KT 10SM CLR 27/23 A2986

2010/08/10 06:56
KFSD 100656Z 12009KT 10SM FEW012 BKN037 25/23 A2988

2010/08/10 06:54
KFWA 100654Z 00000KT 1/4SM FG CLR 23/22 A2997

2010/08/10 06:53
KGCC 100653Z AUTO 00000KT 10SM CLR 17/11 A2997

2010/08/10 06:54
KGCK 100654Z 00000KT 10SM SCT100 SCT120 25/18 A2994

2010/08/10 06:53
KGJT 100653Z AUTO 08004KT 10SM CLR 18/01 A3008

2010/08/10 06:53
KGLD 100653Z AUTO 34011KT 5SM +TSRA BR BKN022 BKN100 19/18 A3001

2010/08/10 06:55
KGPZ 100655Z AUTO 16003KT 9SM CLR 20/18 A2997

2010/08/10 06:53
KGRI 100653Z AUTO 14008KT 9SM CLR 26/24 A2986

2010/08/10 06:55
KHON 100655Z AUTO 14005KT 8SM OVC028 24/23 A2986

2010/08/10 06:53
KHSI 100653Z AUTO 17007KT 10SM CLR 27/21 A2986

2010/08/10 06:53
KHTL 100653Z AUTO 31004KT 4SM BR CLR 21/21 A2998

2010/08/10 06:53
KIML 100653Z AUTO 36014G21KT 10SM CLR 19/18 A2994

2010/08/10 06:55
KIRK 100655Z AUTO 19007KT 10SM CLR 27/26 A2990

2010/08/10 06:55
KJAC 100655Z 23003KT 10SM CLR 09/06 A3016

2010/08/10 06:53
KJKL 100653Z AUTO 00000KT 9SM CLR 24/20 A3002

2010/08/10 06:53
KJLN 100653Z AUTO 17005KT 10SM CLR 26/22 A2994

2010/08/10 06:59
KJNX 100659Z AUTO 00000KT 7SM CLR 21/21 A3000

2010/08/10 06:53
KLAN 100653Z 00000KT 3SM R28L/0800VP6000FT BR MIFG CLR 19/19 A2997

2010/08/10 06:53
KLBF 100653Z AUTO 30009KT 10SM -TSRA BKN050 BKN095 19/19 A2996

2010/08/10 06:54
KLNK 100654Z 18003KT 10SM CLR 27/26 A2985

2010/08/10 06:53
KLXV 100653Z AUTO 00000KT 10SM CLR 06/04 A3043

2010/08/10 06:53
KMCK 100653Z AUTO 36008KT 10SM BKN100 21/19 A2995

2010/08/10 06:53
KMCW 100653Z AUTO 08004KT 7SM CLR 23/23 A2995

2010/08/10 06:52
KMFD 100652Z AUTO 22004KT 7SM BKN044 24/18 A2998

2010/08/10 06:52
KMHK 100652Z AUTO 22008KT 10SM CLR 29/21 A2987

2010/08/10 06:55
KMKG 100655Z 00000KT 1/4SM FG VV001 21/20 A2997

2010/08/10 06:53
KMSN 100653Z 00000KT 3SM BR CLR 22/22 A2995

2010/08/10 06:53
KODX 100653Z AUTO 13006KT 4SM BR OVC006 25/24 A2986

2010/08/10 06:50
KONL 100650Z AUTO 13005KT 2 1/2SM BR BKN004 OVC021 24/23 A2988

2010/08/10 06:53
KOTM 100653Z AUTO 09007KT 10SM TS BKN021 BKN027 OVC050 26/23 A2990

2010/08/10 06:53
KPAH 100653Z AUTO 00000KT 7SM CLR 26/24 A2994

2010/08/10 06:53
KPKD 100653Z AUTO 14005KT 10SM CLR 22/19 A2996

2010/08/10 06:52
KRAP 100652Z AUTO 17007KT 10SM CLR 21/16 A2990

2010/08/10 06:54
KRFD 100654Z 00000KT 8SM FEW026 24/22 A2996

2010/08/10 06:53
KRIW 100653Z AUTO 25004KT 10SM CLR 15/03 A3005

2010/08/10 06:54
KRST 100654Z AUTO 13005KT 7SM CLR 23/22 A2997

2010/08/10 06:53
KSHR 100653Z AUTO 21008KT 10SM CLR 15/12 A2995

2010/08/10 06:53
KSLN 100653Z 18009KT 10SM FEW120 29/21 A2987

2010/08/10 06:53
KLND 100653Z AUTO 22009KT 10SM CLR 17/02 A3006

2010/08/10 06:54
KSBN 100654Z 00000KT 6SM BR CLR 22/20 A2996

2010/08/10 06:52
KSPI 100652Z AUTO 18004KT 10SM CLR 25/22 A2994

2010/08/10 06:53
KSTC 100653Z AUTO 00000KT 7SM CLR 21/20 A2995

2010/08/10 06:52
KSUX 100652Z 11003KT 8SM CLR 25/24 A2984

2010/08/10 06:53
KTCS 100653Z AUTO 30007KT 10SM CLR 23/12 A3008

2010/08/10 07:01
KTDF 100701Z AUTO 00000KT 23/22 A3003

2010/08/10 06:55
KUDG 100655Z 19003KT 7SM CLR 23/22 A3004

2010/08/10 06:54
KUIN 100654Z AUTO 16005KT 10SM CLR 28/26 A2991

2010/08/10 06:53
KVIH 100653Z AUTO 19006KT 10SM CLR 26/23 A2994

2010/08/10 06:52
KVTN 100652Z AUTO 28006KT 10SM -RA SCT055 OVC100 21/19 A2990

2010/08/10 06:51
KYNG 100651Z 20004KT 10SM SCT049 BKN085 23/18 A2997

2010/08/10 06:55
KAST 100655Z AUTO 22004KT 10SM OVC022 13/12 A3001

2010/08/10 06:54
KBFL 100654Z AUTO 35007KT 10SM CLR 24/08 A2982

2010/08/10 06:52
KBLU 100652Z AUTO 00000KT 10SM CLR 17/06 A3009

2010/08/10 06:56
KBZN 100656Z AUTO 14007KT 10SM BKN080 14/10 A3000

2010/08/10 06:53
KCNY 100653Z AUTO 31003KT 10SM CLR 19/02 A3004

2010/08/10 06:52
KCZZ 100652Z AUTO 05004KT 11/06 A2994

2010/08/10 06:55
KDRA 100655Z AUTO 04003KT 10SM CLR 23/M09 A2993

2010/08/10 06:53
KELY 100653Z AUTO 20011KT 10SM CLR 16/M07 A3013

2010/08/10 06:54
KEUG 100654Z 05005KT 10SM FEW040 13/11 A2999

2010/08/10 06:50
KHMS 100650Z 30013KT 15SM BKN250 20/08 A2979

2010/08/10 06:56
KINW 100656Z AUTO 22006KT 10SM BKN110 21/10 A3013

2010/08/10 06:59
KJNX 100659Z AUTO 00000KT 7SM CLR 21/21 A3000

2010/08/10 06:53
KLGB 100653Z 29004KT 9SM CLR 16/14 A2991

2010/08/10 06:56
KLWS 100656Z AUTO 13004KT 10SM CLR 19/03 A2978

2010/08/10 06:53
KMFR 100653Z AUTO 00000KT 10SM CLR 20/09 A2993

2010/08/10 06:56
KMHS 100656Z AUTO 00000KT 10SM CLR 16/11 A2997

2010/08/10 06:56
KNUQ 100656Z AUTO 03005KT 10SM OVC010 14/12 A2993

2010/08/10 06:54
KOLM 100654Z AUTO 22006KT 10SM OVC017 13/11 A2998

2010/08/10 06:53
KPDT 100653Z AUTO 31009KT 10SM CLR 17/06 A2988

2010/08/10 06:53
KPGA 100653Z AUTO 20005KT 10SM SCT120 25/01 A3003

2010/08/10 06:53
KPIH 100653Z AUTO 20006KT 10SM CLR 16/09 A3001

2010/08/10 06:53
KPUC 100653Z AUTO 36005KT 10SM CLR 14/M01 A3013

2010/08/10 06:54
KRBL 100654Z AUTO 00000KT 10SM CLR 24/16 A2983

2010/08/10 06:53
KRDD 100653Z AUTO 03003KT 10SM CLR 23/12 A2982

2010/08/10 06:52
KSDB 100652Z AUTO 24005KT 10SM CLR 16/03 A3004

2010/08/10 06:53
KSHN 100653Z AUTO 23011KT 3SM BR OVC005 12/12 A2995

2010/08/10 06:54
KSJN 100654Z AUTO 16008KT 10SM CLR 18/12 A3018

2010/08/10 06:53
KSLC 100653Z 16006KT 10SM CLR 19/04 A2999

2010/08/10 06:51
KSMX 100651Z AUTO 00000KT 9SM OVC004 12/11 A2993

2010/08/10 06:50
KSOW 100650Z AUTO 17004KT 10SM CLR 16/10 A3027

2010/08/10 06:50
KTRK 100650Z AUTO 00000KT 10SM CLR 09/05 A3012

2010/08/10 06:56
KWMC 100656Z AUTO 27008KT 10SM CLR 19/M01 A2994

2010/08/10 06:53
KYKM 100653Z AUTO 33014KT 10SM CLR 19/08 A2985

2010/08/10 06:56
KBIH 100656Z AUTO 15012KT 10SM CLR 22/M11 A2995

2010/08/10 06:56
KMEH 100656Z AUTO 00000KT 10SM CLR 08/04 A2995

2010/08/10 06:52
KMLF 100652Z AUTO 21005KT 10SM CLR 13/M01 A3007

2010/08/10 06:56
KSMP 100656Z AUTO VRB05KT M1/4SM FG VV001 09/08 A2997

2010/08/10 06:53
KUIL 100653Z AUTO 00000KT 8SM OVC011 12/11 A2998

2010/08/10 07:06
CYKF 100706Z AUTO 21004KT 1/4SM FG VV006 20/20 A2996 RMK SLP141 DENSITY ALT 1800FT

2010/08/10 06:56
KNJK 100656Z AUTO 25008KT 10SM CLR 27/06 A2973 RMK AO2 SLP081 T02720056 TSNO

2010/08/10 07:00
MGPB 100700Z 00000KT 9999 TS SCT016 FEW025CB 26/25 Q1011 A2985 CB/TS/LTNG N/NNE

2010/08/10 07:00
MGSJ 100700Z 36006KT 9999 TS SCT016 FEW025CB SCT090 26/25 Q1013 A2991 CB/TS/LTNG E/ESE

2010/08/10 06:59
MYEG 100659Z AUTO 11004KT 10SM CLR 27/24 A2994 RMK AO2

2010/08/10 07:00
OIAW 100700Z 14004KT 7000 FEW040 BKN100 40/14 Q1000 A2954

2010/08/10 07:00
OIFM 100700Z 25006KT 7000 SKC 30/02 Q1019 A3009

2010/08/10 07:00
OIKB 100700Z 14010KT 6000 SCT025 35/27 Q1002 A2959

2010/08/10 07:00
OIKK 100700Z 26004KT CAVOK 29/00 Q1018 A3008

2010/08/10 07:00
OIMM 100700Z 35012KT CAVOK 33/M02 Q1014 A2997

2010/08/10 07:00
OISS 100700Z 14006KT CAVOK 32/01 Q1015 A3000

2010/08/10 07:00
OITT 100700Z 08014KT 9999 FEW038 FEW040CB 31/07 Q1016 A3001

2010/08/10 07:00
OIZH 100700Z 36012KT 8000 NSC 34/M02 Q1012 A2991

2010/08/10 07:00
SADF 100700Z 00000KT 7000 MIFG SKC 04/04 Q1027

2010/08/10 07:00
TGPY 100700Z 15009KT 9999 BKN016 SCT260 28/26 Q012 JP-S

2010/08/10 07:00
TNCM 100700Z 10007KT 9999 SCT019 28/25 Q1013 RERA

2010/08/10 07:00
UAFM 100700Z 25006MPS CAVOK 32/03 Q1010 NOSIG

2010/08/10 07:00
WMKJ 100700Z 15007KT 110V200 9999 FEW018 BKN140 32/25 Q1006

2010/08/10 07:00
WMKK 100700Z 17009KT 140V210 9999 SCT018 SCT140 BKN280 32/26 Q1007 NOSIG

2010/08/10 07:00
WMKP 100700Z 22007KT 8000 FEW020 BKN140 BKN270 32/26 Q1006 NOSIG

2010/08/10 07:00
WMSA 100700Z 17007KT 9999 FEW020 BKN140 33/25 Q1006 NOSIG

2010/08/10 07:00
ZBHH 100700Z 28001MPS 9999 FEW040 28/08 Q1010 NOSIG

2010/08/10 07:00
ZHHH 100700Z VRB01MPS 5000 HZ BKN025 37/30 Q1002 NOSIG

2010/08/10 07:00
ZSNJ 100700Z 36002MPS 4000 HZ SCT030 35/22 Q1003 NOSIG

2010/08/10 07:00
ZUCK 100700Z 14002MPS 080V200 9999 FEW033 38/22 Q1002 NOSIG

2010/08/10 07:00
ZWSH 100700Z 16005MPS CAVOK 32/06 Q1009 NOSIG

2010/08/10 06:51
KABE 100651Z AUTO 00000KT 10SM CLR 24/20 A2993

2010/08/10 06:53
KACK 100653Z AUTO 29007KT 5SM BR SCT065 BKN080 22/22 A2992

2010/08/10 06:54
KACY 100654Z 10SM CLR 25/23 A2996

2010/08/10 06:53
KAGC 100653Z 16004KT 7SM CLR 22/19 A2999

2010/08/10 06:53
KAGS 100653Z AUTO 00000KT 4SM BR CLR 23/22 A3001

2010/08/10 06:54
KAKR 100654Z AUTO 22006KT 10SM BKN070 25/19 A2996

2010/08/10 06:51
KALB 100651Z 18004KT 2SM BR SCT023 BKN037 BKN065 21/21 A2993

2010/08/10 06:56
KAND 100656Z AUTO 15003KT 10SM BKN100 26/21 A3003

2010/08/10 06:53
KAOO 100653Z AUTO 00000KT 7SM CLR 20/18 A3001

2010/08/10 06:56
KART 100656Z AUTO 19005KT 6SM BR BKN013 21/20 A2993

2010/08/10 06:54
KAVL 100654Z AUTO 00000KT 4SM R34/5500VP6000FT BR CLR 21/20 A3012

2010/08/10 06:54
KAVP 100654Z 00000KT 10SM SCT110 23/18 A2996

2010/08/10 06:53
KBAF 100653Z 00000KT 6SM -RA BR FEW043 OVC090 22/21 A2992

2010/08/10 06:51
KBDL 100651Z 00000KT 5SM -RA BR FEW015 BKN055 OVC110 22/21 A2992

2010/08/10 06:52
KBDR 100652Z AUTO 35003KT 10SM CLR 26/19 A2992

2010/08/10 06:56
KBED 100656Z 23004KT 3SM -RA BR BKN049 BKN070 22/21 A2990

2010/08/10 06:53
KBFD 100653Z AUTO 00000KT 1 3/4SM BR FEW070 BKN090 OVC110 19/18 A3002

2010/08/10 06:53
KBGM 100653Z AUTO 27004KT 1 3/4SM BR FEW001 BKN060 OVC075 21/20 A3002

2010/08/10 06:53
KBGR 100653Z 25003KT 5SM BR BKN100 19/19 A2985

2010/08/10 06:53
KBKL 100653Z 24006KT 7SM FEW046 26/21 A2993

2010/08/10 06:51
KBKW 100651Z AUTO 00000KT 6SM HZ CLR 20/17 A3011

2010/08/10 06:54
KBOS 100654Z 19004KT 4SM -TSRA BKN048 OVC110 19/19 A2991

2010/08/10 06:54
KBTV 100654Z 00000KT 5SM BR CLR 18/18 A2991

2010/08/10 06:54
KBUF 100654Z 00000KT 4SM BR BKN060 BKN080 21/20 A2994

2010/08/10 06:53
KBVY 100653Z AUTO 00000KT 2 1/2SM -RA BR BKN048 OVC120 21/21 A2990

2010/08/10 06:54
KBWI 100654Z 20003KT 10SM SCT250 25/20 A2993

2010/08/10 06:56
KCAE 100656Z 00000KT 6SM BR CLR 24/23 A3001

2010/08/10 06:51
KCAK 100651Z 23004KT 8SM BKN065 OVC100 24/19 A2997

2010/08/10 06:54
KCAR 100654Z AUTO 00000KT 9SM CLR 16/14 A2981

2010/08/10 06:55
KCEF 100655Z AUTO 00000KT 7SM -RA BKN065 OVC080 22/21 A2992

2010/08/10 06:53
KCHO 100653Z AUTO 18004KT 7SM CLR 24/22 A2997

2010/08/10 06:56
KCHS 100656Z 00000KT 10SM CLR 27/25 A3001

2010/08/10 06:53
KCKB 100653Z 00000KT 4SM BR CLR 20/19 A3001

2010/08/10 06:51
KCLE 100651Z 28004KT 9SM FEW060 SCT080 25/20 A2997

2010/08/10 06:52
KCLT 100652Z 00000KT 8SM FEW250 25/21 A3004

2010/08/10 06:51
KCMH 100651Z 17003KT 10SM FEW130 24/20 A2996

2010/08/10 06:54
KCRW 100654Z 00000KT 4SM BR FEW001 21/20 A3000

2010/08/10 06:52
KCVG 100652Z 20004KT 7SM CLR 25/21 A2997

2010/08/10 06:53
KDAN 100653Z AUTO 22003KT 6SM BR CLR 23/21 A3001

2010/08/10 06:56
KDAY 100656Z 23005KT 7SM FEW050 26/21 A2999

2010/08/10 06:52
KDCA 100652Z 18008KT 10SM BKN250 26/21 A2994

2010/08/10 06:56
KDUJ 100656Z AUTO 00000KT 8SM OVC095 21/18 A3000

2010/08/10 06:54
KECG 100654Z AUTO 22003KT 10SM CLR 23/23 A2999

2010/08/10 06:51
KEKN 100651Z AUTO 00000KT 4SM BR FEW003 17/17 A3007

2010/08/10 06:53
KELM 100653Z AUTO 30004KT 6SM BR SCT022 OVC090 22/20 A2998

2010/08/10 06:51
KERI 100651Z 15005KT 6SM HZ BKN080 BKN110 23/20 A2993

2010/08/10 06:53
KEWB 100653Z AUTO 00000KT 8SM BKN060 BKN080 23/21 A2992

2010/08/10 06:54
KEWN 100654Z AUTO 24003KT 10SM CLR 24/23 A3002

2010/08/10 06:51
KEWR 100651Z 23010KT 10SM BKN150 BKN250 27/18 A2991

2010/08/10 06:53
KFAY 100653Z AUTO 18004KT 10SM CLR 24/23 A3001

2010/08/10 06:53
KFLO 100653Z AUTO 00000KT 10SM FEW110 25/24 A3001

2010/08/10 06:53
KFRG 100653Z AUTO 26005KT 10SM CLR 25/19 A2992

2010/08/10 06:53
KFVE 100653Z AUTO 29006KT 8SM CLR 16/14 A2982

2010/08/10 06:53
KGFL 100653Z AUTO 00000KT 3/4SM BR BKN034 20/20 A2992

2010/08/10 06:56
KGON 100656Z AUTO 34003KT 10SM CLR 24/19 A2991

2010/08/10 06:54
KGSO 100654Z 20006KT 8SM CLR 25/21 A3004

2010/08/10 06:53
KGSP 100653Z AUTO 00000KT 10SM CLR 25/22 A3004

2010/08/10 06:53
KHFD 100653Z AUTO 03003KT 8SM SCT090 24/20 A2991

2010/08/10 06:53
KHKY 100653Z AUTO 00000KT 8SM CLR 24/22 A3005

2010/08/10 06:56
KHPN 100656Z VRB05KT 10SM CLR 26/17 A2992

2010/08/10 06:51
KHTS 100651Z AUTO 11003KT 3SM BR CLR 22/21 A2998

2010/08/10 07:00
RJAA 100700Z 15009KT 9999 SCT025 FEW025TCU 28/24 Q1014 NOSIG

2010/08/10 07:00
RJBB 100700Z 23011KT 9999 FEW015 BKN100 BKN140 30/24 Q1012 NOSIG

2010/08/10 07:00
RJTT 100700Z 19013KT 9999 FEW020 30/24 Q1013

2010/08/10 07:00
RJOO 100700Z 22008KT 190V260 9999 FEW015 SCT100 BKN/// 30/22 Q1012

2010/08/10 07:00
RJFF 100700Z 17012G23KT 130V200 9999 FEW020 BKN/// 34/21 Q1006

2010/08/10 07:00
RJGG 100700Z 15010KT 9999 -SHRA FEW010 SCT020 BKN045 28/25 Q1013 NOSIG

2010/08/10 07:00
RJFK 100700Z 13013KT 9999 FEW020 SCT025 BKN/// 29/24 Q1011

2010/08/10 07:00
RJFU 100700Z 15023KT 9999 FEW030 SCT050 BKN/// 32/24 Q1007

2010/08/10 07:00
RJCH 100700Z 14010KT 9999 FEW003 BKN/// 25/23 Q1013

2010/08/10 07:00
RJNS 100700Z 15006KT 9999 VCSH FEW002 SCT015 FEW020CB BKN/// 27/25 Q1015 RETS

2010/08/10 07:00
RJFR 100700Z 10024KT 9999 FEW025 SCT150 BKN/// 30/24 Q1008

2010/08/10 07:00
RJAA 100700Z 15009KT 9999 SCT025 FEW025TCU 28/24 Q1014 NOSIG

2010/08/10 07:00
RJBB 100700Z 23011KT 9999 FEW015 BKN100 BKN140 30/24 Q1012 NOSIG

2010/08/10 07:00
RJTT 100700Z 19013KT 9999 FEW020 30/24 Q1013

2010/08/10 07:00
RJOO 100700Z 22008KT 190V260 9999 FEW015 SCT100 BKN/// 30/22 Q1012

2010/08/10 07:00
ROAH 100700Z 20015KT 9999 FEW015 SCT040 BKN150 29/26 Q1008

2010/08/10 07:00
RJGG 100700Z 15010KT 9999 -SHRA FEW010 SCT020 BKN045 28/25 Q1013 NOSIG

2010/08/10 07:00
RJOT 100700Z 05007KT 9999 FEW020 FEW025CB BKN/// 31/24 Q1012

2010/08/10 07:00
RJFO 100700Z 14019KT 9999 FEW015 SCT160 BKN/// 27/25 Q1011

2010/08/10 07:00
RJFF 100700Z 17012G23KT 130V200 9999 FEW020 BKN/// 34/21 Q1006

2010/08/10 07:00
RJCC 100700Z 17009KT 9999 FEW004 BKN006 23/21 Q1013

2010/08/10 07:00
RJFK 100700Z 13013KT 9999 FEW020 SCT025 BKN/// 29/24 Q1011

2010/08/10 07:00
RJSN 100700Z 36006KT 9999 FEW030 FEW035TCU BKN/// 31/25 Q1011

2010/08/10 07:00
RJFT 100700Z 14007KT 110V190 9999 FEW025 SCT120 BKN/// 33/22 Q1009

2010/08/10 07:00
RJFU 100700Z 15023KT 9999 FEW030 SCT050 BKN/// 32/24 Q1007

2010/08/10 07:00
RJCH 100700Z 14010KT 9999 FEW003 BKN/// 25/23 Q1013

2010/08/10 07:00
RJSS 100700Z 15008KT 9999 FEW025 SCT/// 29/24 Q1013

2010/08/10 07:00
RJOA 100700Z 20005KT 130V250 9999 FEW020 SCT025 BKN045 30/22 Q1013

2010/08/10 07:00
RJOB 100700Z 15005KT 090V210 9999 FEW025 SCT/// 31/23 Q1013

2010/08/10 06:53
KHVN 100653Z AUTO 00000KT 10SM CLR 24/19 A2992

2010/08/10 06:56
KHYA 100656Z AUTO 34007KT 9SM VCTS -RA FEW010 BKN019 OVC060 22/19 A2993

2010/08/10 06:52
KIAD 100652Z 21004KT 7SM CLR 25/21 A2994

2010/08/10 06:53
KIAG 100653Z AUTO 23004KT 4SM BR OVC060 22/21 A2994

2010/08/10 06:51
KILG 100651Z 18005KT 10SM CLR 24/22 A2994

2010/08/10 06:53
KILM 100653Z AUTO 00000KT 10SM CLR 26/24 A3002

2010/08/10 06:54
KINT 100654Z AUTO 22004KT 10SM CLR 26/21 A3005

2010/08/10 06:54
KIPT 100654Z AUTO 00000KT 10SM CLR 23/18 A2994

2010/08/10 06:56
KISP 100656Z 24009KT 10SM SCT150 BKN250 25/17 A2991

2010/08/10 06:51
KJFK 100651Z 22005KT 9SM SCT140 BKN250 24/19 A2993

2010/08/10 06:54
KJST 100654Z AUTO 27003KT 10SM FEW120 21/16 A3004

2010/08/10 06:55
KLCK 100655Z AUTO 00000KT 7SM CLR 23/21 A2996

2010/08/10 06:53
KLEB 100653Z AUTO 00000KT 1 3/4SM BR OVC001 20/19 A2992

2010/08/10 06:51
KLGA 100651Z 22005KT 10SM BKN140 BKN250 27/18 A2991

2010/08/10 06:53
KLUK 100653Z AUTO 00000KT 3SM BR CLR 23/22 A2997

2010/08/10 06:54
KLWM 100654Z AUTO 22003KT 3SM -RA BR SCT003 BKN035 22/21 A2992

2010/08/10 06:54
KLYH 100654Z AUTO 00000KT 6SM BR CLR 22/21 A3002

2010/08/10 06:56
KMDT 100656Z 14003KT 7SM SCT200 BKN250 27/22 A2991

2010/08/10 06:52
KMFD 100652Z AUTO 22004KT 7SM BKN044 24/18 A2998

2010/08/10 06:53
KMGW 100653Z AUTO 00000KT 3SM BR CLR 20/18 A3002

2010/08/10 06:53
KMHT 100653Z 00000KT 1 1/2SM BR FEW044 BKN055 OVC095 22/21 A2988

2010/08/10 06:54
KMIV 100654Z AUTO 00000KT 9SM CLR 24/22 A2993

2010/08/10 06:53
KMRB 100653Z AUTO 22004KT 9SM CLR 24/19 A2995

2010/08/10 06:53
KMSS 100653Z AUTO 22003KT 10SM OVC008 22/21 A2991

2010/08/10 06:57
KMTN 100657Z AUTO 17006KT 10SM CLR 26/22 A2994

2010/08/10 06:55
KMYR 100655Z AUTO 20005KT 10SM SCT020 SCT027 BKN120 28/24 A3005

2010/08/10 06:54
KNKT 100654Z AUTO 20005KT 10SM CLR 24/23 A3002

2010/08/10 06:51
KORF 100651Z 22006KT 10SM CLR 25/23 A2998

2010/08/10 06:54
KORH 100654Z AUTO 31005KT 8SM SCT075 OVC110 21/20 A2995

2010/08/10 06:54
KPHF 100654Z 23005KT 10SM CLR 25/24 A2998

2010/08/10 07:00
RJAA 100700Z 15009KT 9999 SCT025 FEW025TCU 28/24 Q1014 NOSIG

2010/08/10 07:00
RJBB 100700Z 23011KT 9999 FEW015 BKN100 BKN140 30/24 Q1012 NOSIG

2010/08/10 07:00
RJTT 100700Z 19013KT 9999 FEW020 30/24 Q1013

2010/08/10 07:00
RJOO 100700Z 22008KT 190V260 9999 FEW015 SCT100 BKN/// 30/22 Q1012

2010/08/10 07:00
RJGG 100700Z 15010KT 9999 -SHRA FEW010 SCT020 BKN045 28/25 Q1013 NOSIG

2010/08/10 07:00
RJSN 100700Z 36006KT 9999 FEW030 FEW035TCU BKN/// 31/25 Q1011

2010/08/10 07:00
RJCH 100700Z 14010KT 9999 FEW003 BKN/// 25/23 Q1013

2010/08/10 07:00
RJSA 100700Z 01006KT 320V030 9999 FEW030 29/23 Q1013

2010/08/10 07:00
RJSF 100700Z 17007KT 9999 FEW025 BKN/// 30/23 Q1015

2010/08/10 06:54
KPHL 100654Z COR 20007KT 10SM SCT180 BKN250 26/21 A2993

2010/08/10 06:54
KPHL 100654Z 20007KT 10SM CLR 26/21 A2993

2010/08/10 06:51
KPIT 100651Z 00000KT 6SM HZ SCT100 22/18 A2998

2010/08/10 06:53
KPKB 100653Z AUTO 00000KT 4SM BR CLR 21/19 A3001

2010/08/10 06:53
KPOU 100653Z 00000KT 10SM FEW080 SCT100 23/20 A2993

2010/08/10 06:55
KPSM 100655Z 21005KT 7SM -RA SCT045 OVC100 21/20 A2988

2010/08/10 06:51
KPVD 100651Z 00000KT 10SM BKN075 OVC150 23/19 A2993

2010/08/10 06:51
KPWM 100651Z AUTO 28006KT 10SM CLR 22/19 A2986

2010/08/10 06:54
KRDG 100654Z AUTO 00000KT CLR 26/19 A2992

2010/08/10 06:51
KRDU 100651Z 23005KT 10SM FEW150 SCT250 24/22 A3002

2010/08/10 06:54
KRIC 100654Z 20003KT 9SM CLR 24/21 A2997

2010/08/10 06:54
KROA 100654Z 29003KT 9SM CLR 24/21 A3004

2010/08/10 06:54
KROC 100654Z 22003KT 2 1/2SM BR BKN060 OVC085 21/20 A2994

2010/08/10 06:53
KRWI 100653Z AUTO 00000KT 10SM CLR 23/22 A3000

2010/08/10 06:53
KSAV 100653Z 15003KT 10SM CLR 27/24 A2999

2010/08/10 06:54
KSBY 100654Z AUTO 20003KT 6SM BR CLR 23/23 A2996

2010/08/10 06:51
KSLK 100651Z AUTO 00000KT 2SM BR BKN012 OVC033 19/19 A2996

2010/08/10 06:54
KSYR 100654Z 14003KT 2SM BR BKN020 OVC055 21/21 A2995

2010/08/10 06:51
KTEB 100651Z 19003KT 10SM CLR 26/17 A2991

2010/08/10 06:52
KTOL 100652Z 20003KT 1 3/4SM BR CLR 22/22 A2995

2010/08/10 06:53
KTTN 100653Z AUTO 00000KT 8SM CLR 25/20 A2992

2010/08/10 06:55
KWRI 100655Z AUTO 21004KT 9SM CLR 23/22 A2991

2010/08/10 06:51
KYNG 100651Z 20004KT 10SM SCT049 BKN085 23/18 A2997

2010/08/10 06:53
KZZV 100653Z AUTO 00000KT 6SM BR CLR 21/20 A2998

2010/08/10 06:52
KABI 100652Z 17005KT 10SM CLR 29/18 A2998

2010/08/10 06:56
KABQ 100656Z 00000KT 10SM FEW100 24/07 A3014

2010/08/10 06:53
KABY 100653Z 07005KT 10SM CLR 26/24 A2997

2010/08/10 06:51
KACT 100651Z 20011KT 10SM CLR 29/22 A2992

2010/08/10 06:53
KAEX 100653Z 00000KT 10SM CLR 27/24 A2992

2010/08/10 06:53
KAFW 100653Z 19003KT 10SM CLR 29/20 A2990

2010/08/10 06:51
KAHN 100651Z AUTO 00000KT 4SM BR CLR 23/22 A3002

2010/08/10 06:53
KALI 100653Z AUTO 00000KT 10SM CLR 27/26 A2993

2010/08/10 06:53
KAMA 100653Z AUTO 17011KT 10SM CLR 22/17 A3005

2010/08/10 06:53
KANB 100653Z AUTO 00000KT 7SM CLR 27/22 A2999

2010/08/10 06:53
KAPF 100653Z AUTO 08007KT 10SM CLR 25/24 A2985

2010/08/10 06:52
KATL 100652Z 12004KT 9SM SCT250 27/21 A3002

2010/08/10 06:53
KAUS 100653Z 21004KT 10SM CLR 27/24 A2994

2010/08/10 06:53
KBFM 100653Z AUTO 36003KT 9SM CLR 27/24 A2994

2010/08/10 06:53
KBHM 100653Z 00000KT 9SM FEW070 28/23 A2999

2010/08/10 06:53
KBNA 100653Z 00000KT 9SM BKN110 BKN200 26/24 A2998

2010/08/10 06:53
KBPT 100653Z AUTO 00000KT 10SM CLR 26/25 A2991

2010/08/10 07:00
KBQK 100700Z AUTO 13006KT 10SM CLR 28/25 A2998

2010/08/10 06:53
KBRO 100653Z 17005KT 10SM CLR 28/26 A2991

2010/08/10 06:53
KBTR 100653Z 00000KT 9SM FEW004 SCT020 BKN200 24/24 A2993

2010/08/10 06:53
KCEW 100653Z AUTO 00000KT 2 1/2SM BR CLR 23/23 A2994

2010/08/10 06:53
KCHA 100653Z 12003KT 10SM CLR 28/22 A2999

2010/08/10 06:53
KCLL 100653Z AUTO 19003KT 10SM CLR 28/23 A2993

2010/08/10 06:53
KCNM 100653Z AUTO 22006KT 10SM CLR 21/16 A3000

2010/08/10 06:51
KCRP 100651Z 00000KT 10SM FEW018 27/26 A2993

2010/08/10 06:51
KCSG 100651Z AUTO 08003KT 9SM CLR 27/19 A2997

2010/08/10 06:53
KCSV 100653Z AUTO 00000KT 8SM CLR 24/21 A3007

2010/08/10 06:53
KDAB 100653Z 13005KT 10SM FEW020 27/23 A2994

2010/08/10 06:53
KDAL 100653Z 19005KT 10SM FEW220 31/19 A2990

2010/08/10 06:53
KDFW 100653Z 18007KT 10SM FEW250 30/19 A2990

2010/08/10 06:53
KDHN 100653Z AUTO 08004KT 10SM CLR 26/22 A2999

2010/08/10 06:55
KDLF 100655Z AUTO 12016KT 10SM CLR 30/23 A2994

2010/08/10 06:53
KDMN 100653Z AUTO 22004KT 10SM CLR 21/10 A3005

2010/08/10 06:51
KELP 100651Z 14012KT 10SM FEW160 27/14 A3003

2010/08/10 07:00
VTBS 100700Z 19012KT 170V260 9999 FEW020CB BKN300 32/23 Q1004 CB N NOSIG

2010/08/10 07:00
VTBD 100700Z 26010KT 9999 SCT020CB BKN300 34/23 Q1003 CB SE NOSIG

2010/08/10 07:00
VTCC 100700Z 21005KT 7000 RA BKN032 SCT110 29/23 Q1006 A2971

2010/08/10 07:00
VTSP 100700Z VRB04KT 7000 SCT015 BKN100 BKN300 28/25 Q1008 A2976

2010/08/10 07:00
VLVT 100700Z 20004KT 9999 SCT017 FEW040 30/25 Q1003

2010/08/10 07:00
VYYY 100700Z 23003KT 8000 BKN018 FEW025CB BKN110 31/25 Q1003

2010/08/10 07:00
VVTS 100700Z 22013KT 9999 FEW015TCU BKN017 BKN040 27/25 Q1006 NOSIG

2010/08/10 07:00
VVNB 100700Z VRB03KT 9999 FEW027TCU SCT066 BKN180 32/26 Q1003 NOSIG

2010/08/10 07:00
VDPP 100700Z 23014KT 9999 SCT015 SCT150 31/22 Q1004

2010/08/10 07:00
VVDN 100700Z 09007KT 040V140 9999 FEW017CB BKN270 32/24 Q1004 NOSIG CB/S/SW/W

2010/08/10 07:00
VDSR 100700Z 24017KT 9000 -VCRA SCT015 FEW018CB BKN040 25/23 Q1004 CB S SW W

2010/08/10 07:00
VVPB 100700Z 29013G23KT 260V330 2000 +TSRA SCT020CB BKN040 27/26 Q1006 CB/S/W/N/NE BECMG TL0800 4000 -RA

2010/08/10 06:53
KESF 100653Z AUTO 00000KT 10SM CLR 26/24 A2994

2010/08/10 06:53
KEYW 100653Z AUTO 26005KT 10SM FEW014 SCT065 26/23 A2985

2010/08/10 06:53
KFLL 100653Z 15011KT 10SM SCT017 SCT044 26/23 A2988

2010/08/10 06:53
KFSM 100653Z AUTO 00000KT 10SM CLR 28/25 A2992

2010/08/10 06:53
KFTW 100653Z 19009KT 10SM CLR 30/20 A2990

2010/08/10 06:53
KFTY 100653Z 00000KT 5SM BR CLR 24/22 A3001

2010/08/10 06:53
KGGG 100653Z AUTO 22007KT 10SM CLR 29/22 A2992

2010/08/10 06:52
KGLS 100652Z AUTO 23004KT 10SM CLR 29/25 A2992

2010/08/10 06:53
KGNV 100653Z AUTO 00000KT 10SM CLR 25/23 A2993

2010/08/10 06:53
KGPT 100653Z AUTO 00000KT 5SM BR CLR 27/25 A2991

2010/08/10 06:53
KGUP 100653Z AUTO 00000KT 10SM CLR 15/12 A3024

2010/08/10 06:53
KGWO 100653Z AUTO 00000KT 8SM CLR 24/24 A2995

2010/08/10 06:53
KHOT 100653Z AUTO 00000KT 10SM CLR 29/23 A2994

2010/08/10 06:53
KHOU 100653Z 25005KT 10SM FEW250 28/24 A2991

2010/08/10 06:52
KHRL 100652Z AUTO 16004KT 10SM SCT021 SCT029 27/27 A2991

2010/08/10 06:53
KHRO 100653Z AUTO 00000KT 9SM CLR 26/23 A2998

2010/08/10 06:53
KHSV 100653Z 00000KT 5SM BR FEW200 26/24 A2998

2010/08/10 06:53
KIAH 100653Z 00000KT 10SM FEW250 28/24 A2992

2010/08/10 06:54
KJAN 100654Z 00000KT 10SM CLR 24/23 A2995

2010/08/10 06:56
KJAX 100656Z 06003KT 10SM FEW022 26/23 A2995

2010/08/10 06:53
KJBR 100653Z AUTO 00000KT 10SM CLR 27/24 A2993

2010/08/10 06:53
KLBB 100653Z 11008KT 10SM FEW160 21/18 A3004

2010/08/10 06:53
KLCH 100653Z AUTO 00000KT 10SM CLR 26/25 A2992

2010/08/10 06:53
KLFT 100653Z AUTO 00000KT 10SM CLR 25/24 A2993

2010/08/10 06:53
KLIT 100653Z 18003KT 7SM SCT250 28/25 A2993

2010/08/10 06:56
KLRD 100656Z AUTO 16011KT 10SM CLR 29/25 A2995

2010/08/10 06:50
KLRU 100650Z AUTO 29005KT 10SM CLR 23/09 A3008

2010/08/10 06:53
KMAF 100653Z AUTO 12005KT 10SM CLR 22/19 A3001

2010/08/10 06:53
KMCN 100653Z AUTO 13004KT 8SM CLR 25/22 A2999

2010/08/10 06:53
KMCO 100653Z 09005KT 10SM FEW250 25/23 A2992

2010/08/10 06:58
KMEI 100658Z AUTO 00000KT 6SM BR CLR 26/24 A2996

2010/08/10 06:53
KMEM 100653Z 00000KT 10SM FEW250 28/24 A2994

2010/08/10 06:53
KMFE 100653Z AUTO 15007KT 9SM FEW020 28/26 A2992

2010/08/10 06:50
EKAH 100650Z AUTO 21006KT 150V260 9999NDV BKN075/// 18/12 Q1015

2010/08/10 07:00
LELO 100700Z 29003KT 240V350 CAVOK 17/14 Q1019

2010/08/10 07:00
LFLD 100700Z 26003KT 200V310 CAVOK 18/12 Q1018

2010/08/10 07:00
LFLM 100700Z 30011KT 280V340 CAVOK 23/14 Q1017

2010/08/10 07:00
LFLQ 100700Z 01006KT 340V060 9999 FEW023 22/17 Q1015

2010/08/10 07:00
LFLV 100700Z 00000KT 9999 FEW040 20/16 Q1018

2010/08/10 07:00
LFMC 100700Z VRB01KT 9000 FEW005 23/20 Q1016

2010/08/10 07:00
LFOF 100700Z 20004KT 180V240 CAVOK 14/09 Q1016 BECMG BKN015

2010/08/10 07:00
LFOI 100700Z 15006KT 9999 BKN043 BKN110 BKN250 16/12 Q1014

2010/08/10 07:00
LFRJ 100700Z AUTO 25011KT 8000NDV BKN006/// BKN012/// BKN017/// 17/17 Q1014

2010/08/10 07:00
LFXA 100700Z 02005KT 340V060 CAVOK 20/15 Q1017

2010/08/10 07:00
LKKV 100700Z VRB01KT CAVOK 17/13 Q1019 RMK REG QNH 1015

2010/08/10 07:00
LKMT 100700Z 24003KT 200V290 9999 FEW026 18/15 Q1018 NOSIG RMK REG QNH 1015

2010/08/10 07:00
LKTB 100700Z VRB01KT CAVOK 18/14 Q1018 NOSIG RMK REG QNH 1015

2010/08/10 07:00
LPAZ 100700Z 06004KT 030V090 9999 FEW018 BKN036 20/16 Q1019

2010/08/10 07:00
LPHR 100700Z 36005KT 9999 FEW016 BKN040 20/15 Q1021

2010/08/10 07:00
LPPD 100700Z VRB02KT 9999 FEW020 BKN040 20/14 Q1020

2010/08/10 07:00
LRAR 100700Z 01004KT 330V070 CAVOK 23/17 Q1017

2010/08/10 07:00
LRBC 100700Z 36008KT CAVOK 25/20 Q1016

2010/08/10 07:00
LRBM 100700Z 26004KT 190V330 9999 FEW023 21/18 Q1017

2010/08/10 07:00
LRCL 100700Z 00000KT 9999 FEW052 21/17 Q1018

2010/08/10 07:00
LRCV 100700Z 25004KT 190V300 CAVOK 24/19 Q1015

2010/08/10 07:00
LROD 100700Z VRB02KT CAVOK 23/18 Q1018

2010/08/10 07:00
LRSM 100700Z VRB02KT 9999 FEW010 22/19 Q1018

2010/08/10 07:00
LRSV 100700Z 32006KT CAVOK 21/19 Q1017

2010/08/10 07:00
LRTC 100700Z 35010KT CAVOK 28/19 Q1012

2010/08/10 07:00
LRTM 100700Z 01004KT 320V090 9999 FEW045 22/18 Q1017

2010/08/10 06:53
KMGM 100653Z 00000KT 9SM CLR 28/23 A2995

2010/08/10 06:53
KMIA 100653Z 14008KT 9SM BKN015 BKN046 OVC060 26/24 A2988

2010/08/10 06:53
KMKL 100653Z AUTO 00000KT 6SM BR CLR 27/25 A2995

2010/08/10 06:53
KMLB 100653Z 13006G15KT 10SM BKN019 27/23 A2993

2010/08/10 06:53
KMLC 100653Z AUTO 00000KT 10SM CLR 26/20 A2994

2010/08/10 06:53
KMLU 100653Z AUTO A2994

2010/08/10 06:56
KMOB 100656Z 00000KT 10SM FEW250 26/24 A2994

2010/08/10 06:53
KMSL 100653Z AUTO 00000KT 4SM BR CLR 24/23 A2998

2010/08/10 06:53
KMSY 100653Z 27004KT 9SM FEW015 BKN250 26/25 A2992

2010/08/10 06:53
KNEW 100653Z AUTO 05007KT 9SM CLR 29/26 A2992

2010/08/10 06:56
KNGP 100656Z AUTO 10SM FEW017 29/27 A2991

2010/08/10 06:52
KOKC 100652Z 16007KT 10SM CLR 27/21 A2993

2010/08/10 06:53
KPBI 100653Z 16010KT 10SM -RA SCT023CB BKN035 BKN060 27/23 A2989

2010/08/10 06:53
KPDK 100653Z AUTO 00000KT 10SM CLR 26/20 A3002

2010/08/10 06:53
KPIE 100653Z AUTO 10006KT 10SM CLR 26/23 A2988

2010/08/10 06:53
KPNS 100653Z AUTO 00000KT 8SM CLR 26/24 A2992

2010/08/10 06:51
KROW 100651Z AUTO 15004KT 10SM CLR 22/17 A3003

2010/08/10 06:53
KRSW 100653Z AUTO 10005KT 10SM BKN008 25/24 A2986

2010/08/10 06:53
KSAT 100653Z 18007KT 10SM FEW015 27/24 A2997

2010/08/10 06:56
KSHV 100656Z 18003KT 10SM SCT290 28/23 A2991

2010/08/10 06:51
KSJT 100651Z AUTO 25003KT 10SM CLR 29/17 A2997

2010/08/10 06:53
KSRQ 100653Z AUTO 09006KT 10SM CLR 25/24 A2986

2010/08/10 06:53
KSSI 100653Z AUTO 13011KT 10SM CLR 28/23 A2997

2010/08/10 06:53
KTCC 100653Z AUTO 21005KT 10SM FEW110 23/17 A3006

2010/08/10 06:53
KTCL 100653Z AUTO 00000KT 6SM HZ CLR 27/24 A2995

2010/08/10 06:53
KTCS 100653Z AUTO 30007KT 10SM CLR 23/12 A3008

2010/08/10 06:53
KTLH 100653Z 10007KT 10SM CLR 27/23 A2992

2010/08/10 06:53
KTPA 100653Z 07004KT 10SM FEW060 26/23 A2989

2010/08/10 06:53
KTRI 100653Z 00000KT 5SM BR CLR 22/20 A3005

2010/08/10 06:53
KTUL 100653Z 19009KT 10SM CLR 31/19 A2990

2010/08/10 06:53
KTUP 100653Z AUTO 00000KT 7SM CLR 26/24 A2995

2010/08/10 06:53
KTXK 100653Z AUTO 00000KT 10SM CLR 26/23 A2992

2010/08/10 06:53
KTYR 100653Z 22007KT 10SM CLR 29/23 A2994

2010/08/10 06:53
KTYS 100653Z 00000KT 9SM SCT120 27/22 A3000

2010/08/10 06:51
KVCT 100651Z AUTO 00000KT 10SM CLR 26/26 A2992

2010/08/10 06:53
KVLD 100653Z AUTO 06004KT 10SM CLR 25/23 A2995

2010/08/10 06:53
KVRB 100653Z AUTO 13007KT 10SM CLR 26/23 A2992

2010/08/10 06:53
TIST 100653Z AUTO 09005KT 10SM CLR 28/24 A2992

2010/08/10 06:53
TISX 100653Z AUTO 10004KT 10SM SCT021 SCT038 BKN055 27/24 A2993

2010/08/10 06:50
TJPS 100650Z 00000KT 8SM SCT030 BKN060 26/26 A2993

2010/08/10 06:56
TJSJ 100656Z 12005KT 10SM SCT050 27/24 A2994

2010/08/10 06:50
OIHH 100650Z 30006KT 9999 FEW040 28/01 Q1018 A3008

2010/08/10 07:05
KMSN 100705Z 00000KT 1/2SM FG VV001 22/22 A2995 RMK AO2 

2010/08/10 07:00
FMNM 100700Z 16012KT CAVOK 28/14 Q1018

2010/08/10 07:00
FMMT 100700Z 22006KT 9999 FEW017 24/20 Q1022

2010/08/10 07:00
FMNA 100700Z 160//KT 9999 VCSH FEW017 BKN033 24/20 Q1017

2010/08/10 07:00
FMSD 100700Z 00000KT 9999 FEW020 24/18 Q1020

2010/08/10 07:00
FMCH 100700Z 20005KT 170V240 9999 FEW023 SCT030 27/22 Q1020 NOSIG

2010/08/10 07:03
KBTV 100703Z 00000KT 1 3/4SM BR FEW004 18/18 A2991 RMK AO2

2010/08/10 07:00
KGUS 100700Z AUTO 03003KT 9SM R23/5500VP6000FT CLR 23/23 A2996 RMK AO2 SLP138

2010/08/10 07:04
PAPM 100704Z AUTO 17019KT 3/4SM -RA BR BKN006 BKN012 OVC090 09/09 A2950 RMK AO2 TSNO CIG 004V008 RAB00 P0001 $

2010/08/10 07:00
SAVC 100700Z 27015KT CAVOK 06/M03 Q1021

2010/08/10 07:02
LKKB 100702Z VRB01KT CAVOK 17/15 Q1018 NOSIG

2010/08/10 07:00
FYGF 100700Z 17007KT CAVOK 09/M10 Q1030

2010/08/10 07:00
FYKM 100700Z 00000KT CAVOK 14/01 Q1024

2010/08/10 07:00
FYKT 100700Z 08010KT CAVOK 09/M09 Q1033

2010/08/10 07:00
FYLZ 100700Z AUTO 05024KT //// // ////// 20/M15 Q1021

2010/08/10 07:00
FYML 100700Z AUTO 05002KT //// // ////// ///// Q1036

2010/08/10 07:00
FYOA 100700Z 09009KT CAVOK 16/M06 Q1024

2010/08/10 07:00
FYRU 100700Z 15013KT CAVOK 13/M03 Q1026

2010/08/10 07:00
FYWB 100700Z 09034KT 0650 R09/0200V0600N R27/0600VP1500U VV/// 24/M11 Q1016 

2010/08/10 07:00
FYWH 100700Z AUTO 12006KT //// // ////// 04/M11 Q1034

2010/08/10 07:00
FYWW 100700Z 10009KT CAVOK 05/M15 Q1030

2010/08/10 07:00
LRAR 100700Z 01004KT 330V070 CAVOK 23/17 Q1017

2010/08/10 07:00
LRBM 100700Z 26004KT 190V330 9999 FEW023 21/18 Q1017

2010/08/10 07:00
LRCL 100700Z 00000KT 9999 FEW052 21/17 Q1018

2010/08/10 07:00
LROD 100700Z VRB02KT CAVOK 23/18 Q1018

2010/08/10 07:00
LRSM 100700Z VRB02KT 9999 FEW010 22/19 Q1018

2010/08/10 07:00
LRTM 100700Z 01004KT 320V090 9999 FEW045 22/18 Q1017

2010/08/10 07:00
FABL 100700Z 14015KT CAVOK 04/M05 Q1034 NOSIG

2010/08/10 07:00
FACT 100700Z VRB01KT 9999 FEW035 11/08 Q1037 NOSIG

2010/08/10 07:00
FAEL 100700Z 26011KT 9999 RA BKN033 BKN050 10/08 Q1037

2010/08/10 07:00
FAGG 100700Z 32004KT 9999 FEW023 SCT050 11/09 Q1039

2010/08/10 07:00
FAJS 100700Z 12011KT CAVOK 05/M03 Q1033 NOSIG

2010/08/10 07:00
FAKN 100700Z 25004KT CAVOK 11/M00 Q1033 NOSIG

2010/08/10 07:00
FALA 100700Z 12015KT CAVOK 09/M05 Q1032 NOSIG

2010/08/10 07:00
FALE 100700Z 21015KT 9999 FEW040 16/01 Q1032 NOSIG

2010/08/10 07:00
FAMM 100700Z 13011KT CAVOK 06/M10 Q1032 NOSIG

2010/08/10 07:00
FAPE 100700Z 22010KT 9999 SCT041 13/08 Q1038 NOSIG

2010/08/10 07:00
FAPN 100700Z AUTO 16004KT //// // ////// 09/M11 Q1032

2010/08/10 07:00
FAPP 100700Z 17005KT CAVOK 10/M07 Q1030 NOSIG

2010/08/10 07:00
FAUP 100700Z 11008KT CAVOK 07/M06 Q1036 NOSIG

2010/08/10 07:00
OEJN 100700Z 25005KT CAVOK 35/26 Q1003 NOSIG

2010/08/10 07:00
OYSN 100700Z 26005KT 9999 FEW030 25/11 Q1023

2010/08/10 07:00
LRBC 100700Z 36008KT CAVOK 25/20 Q1016

2010/08/10 07:00
LRCV 100700Z 25004KT 190V300 CAVOK 24/19 Q1015

2010/08/10 07:00
LRSV 100700Z 32006KT CAVOK 21/19 Q1017

2010/08/10 07:00
LRTC 100700Z 35010KT CAVOK 28/19 Q1012

2010/08/10 07:00
UAFM 100700Z 25006MPS CAVOK 32/03 Q1010 NOSIG

2010/08/10 07:00
VHHH 100700Z 17008KT 120V200 9999 FEW025 SCT035 33/25 Q1005 NOSIG

2010/08/10 07:00
ZBAA 100700Z 15002MPS 110V240 7000 NSC 33/20 Q1006 NOSIG

2010/08/10 07:00
ZBSJ 100700Z 08001MPS 8000 NSC 29/23 Q1006 NOSIG

2010/08/10 07:00
ZBTJ 100700Z 15006MPS 4000 HZ NSC 30/22 Q1006 NOSIG

2010/08/10 07:00
ZBYN 100700Z 08007MPS 8000 SCT040 23/18 Q1009 NOSIG

2010/08/10 07:00
ZGGG 100700Z 11002MPS 080V160 7000 FEW040TCU SCT040 36/25 Q1004 NOSIG

2010/08/10 07:00
ZSHC 100700Z 36003MPS 320V050 9999 SCT020 35/23 Q1002 NOSIG

2010/08/10 07:00
ZSPD 100700Z 31009MPS 9999 SCT030 32/25 Q1002 NOSIG

2010/08/10 07:00
ZSSS 100700Z 36007MPS 300V020 9999 BKN033 33/25 Q1002 NOSIG

2010/08/10 07:00
ZWSH 100700Z 16005MPS CAVOK 32/06 Q1009 NOSIG

2010/08/10 07:00
ZWWW 100700Z 32003MPS 270V360 CAVOK 31/08 Q1005 NOSIG

2010/08/10 07:00
ZYTL 100700Z 34002MPS 300V010 8000 SCT010 BKN026 27/21 Q1006 NOSIG

2010/08/10 07:00
ZYTX 100700Z 27002MPS 230V310 7000 FEW030 29/22 Q1006 NOSIG

2010/08/10 07:00
UAAA 100700Z 25007MPS 9999 FEW050CB BKN100 31/05 Q1008 88CLRD65 NOSIG

2010/08/10 07:00
UACC 100700Z 01007MPS 9999 BKN036 19/06 Q1019 040/0070 NOSIG RMK QFE733/0977

2010/08/10 07:00
UAKK 100700Z 02007MPS 9999 BKN050CB 16/07 Q1017 050///70 NOSIG RMK QFE715/0954

2010/08/10 07:00
UARR 100700Z 04006MPS 4200 FU NSC 33/04 Q1018 04CLRD70 NOSIG RMK QFE760/1014

2010/08/10 07:00
UATE 100700Z 10006G11MPS CAVOK 39/04 Q1012 120///70 NOSIG RMK QFE757/1010

2010/08/10 07:00
UATG 100700Z 05007MPS CAVOK 39/10 Q1013 32CLRD70 NOSIG RMK QFE761/1015 

2010/08/10 07:00
UATT 100700Z 09007MPS 060V120 9999 NSC 28/01 Q1021 13CLRD70 NOSIG RMK QFE746/0995

2010/08/10 07:00
UAUU 100700Z 01002G07MPS 010V170 CAVOK 23/03 Q1023 33CLRD70 NOSIG RMK QFE751/1002

2010/08/10 07:00
UDYZ 100700Z VRB02MPS 9999 SKC 32/11 Q1012 09010070 NOSIG

2010/08/10 07:00
UDSG 100700Z VRB02MPS 9999 NSC 28/07 Q1017 02CLRD70 NOSIG

2010/08/10 07:00
UBBG 100700Z 06005KT 9999 SCT083 31/14 Q1012 NOSIG RMK R30R/CLRD70 

2010/08/10 07:00
UTAK 100700Z 14006MPS CAVOK 38/04 Q1011 NOSIG

2010/08/10 07:00
UTAM 100700Z 36005MPS CAVOK 35/09 Q1007 NOSIG

2010/08/10 07:00
UTAT 100700Z 36004MPS CAVOK 37/18 Q1010 NOSIG

2010/08/10 06:53
KABR 100653Z AUTO 15006KT 10SM CLR 24/22 A2988

2010/08/10 06:54
KALO 100654Z 07004KT 6SM BR CLR 23/23 A2991

2010/08/10 06:53
KASE 100653Z AUTO 19004KT 10SM BKN095 10/07 A3031

2010/08/10 06:53
KATY 100653Z AUTO 13006KT 10SM BKN029 24/22 A2991

2010/08/10 06:53
KAXN 100653Z AUTO 14005KT 8SM CLR 23/21 A2996

2010/08/10 06:53
KAZO 100653Z AUTO 00000KT 1/4SM FG VV001 20/19 A2997

2010/08/10 06:53
KBDE 100653Z AUTO 19003KT 10SM CLR 22/20 A2992

2010/08/10 06:53
KBFF 100653Z AUTO 14006KT 10SM CLR 18/17 A3003

2010/08/10 06:52
KBIS 100652Z AUTO 05004KT 10SM CLR 23/18 A2987

2010/08/10 06:55
KBKF 100655Z 18006KT 25SM SCT120 BKN220 16/13 A3013

2010/08/10 06:53
KBRL 100653Z AUTO 14003KT 10SM CLR 26/23 A2990

2010/08/10 06:53
KBTL 100653Z AUTO 00000KT 3SM BR CLR 21/21 A2998

2010/08/10 06:53
KCGI 100653Z AUTO 00000KT 5SM BR CLR 25/24 A2993

2010/08/10 06:52
KCID 100652Z AUTO 09003KT 9SM CLR 24/23 A2990

2010/08/10 06:55
KCIU 100655Z AUTO 02009KT 7SM SCT025 19/19 A2996

2010/08/10 06:53
KCMI 100653Z AUTO 21005KT 8SM SCT075 OVC100 27/24 A2996

2010/08/10 06:53
KCMX 100653Z AUTO 00000KT 9SM CLR 17/16 A2996

2010/08/10 06:54
KCOS 100654Z AUTO 00000KT 10SM BKN110 18/12 A3016

2010/08/10 06:54
KCOU 100654Z AUTO 14005KT 10SM CLR 27/25 A2993

2010/08/10 06:53
KCPR 100653Z AUTO 18009KT 10SM CLR 18/04 A3005

2010/08/10 06:53
KCYS 100653Z AUTO 23004KT 10SM CLR 14/12 A3014

2010/08/10 06:52
KDDC 100652Z AUTO 18004KT 10SM CLR 24/19 A2992

2010/08/10 06:54
KDEC 100654Z AUTO 32009KT 10SM FEW085 27/21 A2997

2010/08/10 06:53
KDEN 100653Z 17006KT 10SM SCT110 BKN200 17/14 A3011

2010/08/10 06:53
KDET 100653Z 00000KT 9SM CLR 22/21 A2995

2010/08/10 06:55
KDLH 100655Z 00000KT 10SM CLR 21/18 A2998

2010/08/10 06:54
KDSM 100654Z 36006KT 3/4SM R31/4000VP6000FT +TSRA BR BKN004 OVC016CB 22/22 A2998

2010/08/10 06:53
KDTW 100653Z 00000KT 3/4SM R04R/5500VP6000FT BR CLR 21/21 A2996

2010/08/10 06:56
KEAU 100656Z AUTO 00000KT 1 3/4SM BR CLR 21/20 A2994

2010/08/10 06:55
KEGE 100655Z AUTO 00000KT 10SM SCT100 16/09 A3024

2010/08/10 07:03
CYMH 100703Z AUTO 23015G22KT 9SM SCT012 SCT068 16/14 A2959

2010/08/10 07:00
SAEZ 100700Z 00000KT 8000 03/02 Q1028

2010/08/10 07:00
SAZM 100700Z 32003KT CAVOK 00/M02 Q1026

2010/08/10 06:54
KELO 100654Z AUTO 00000KT 10SM CLR 18/17 A2998

2010/08/10 06:54
KEVV 100654Z AUTO 00000KT 8SM CLR 26/23 A2995

2010/08/10 06:53
KFAR 100653Z 15007KT 10SM CLR 25/19 A2990

2010/08/10 06:53
KFNT 100653Z 00000KT 1/2SM FG 19/19 A2996

2010/08/10 06:56
KFSD 100656Z 12009KT 10SM FEW012 BKN037 25/23 A2988

2010/08/10 06:54
KFWA 100654Z 00000KT 1/4SM FG CLR 23/22 A2997

2010/08/10 06:54
KGCK 100654Z 00000KT 10SM SCT100 SCT120 25/18 A2994

2010/08/10 06:53
KGFK 100653Z 20004KT 10SM FEW250 22/20 A2989

2010/08/10 06:53
KGJT 100653Z AUTO 08004KT 10SM CLR 18/01 A3008

2010/08/10 06:53
KGRB 100653Z AUTO 00000KT 1 3/4SM BR CLR 22/21 A2996

2010/08/10 06:53
KGRI 100653Z AUTO 14008KT 9SM CLR 26/24 A2986

2010/08/10 06:53
KGRR 100653Z AUTO 00000KT 4SM BR CLR 21/20 A2997

2010/08/10 06:53
KHIB 100653Z AUTO 00000KT 1/4SM FG VV001 17/17 A2998

2010/08/10 06:55
KHON 100655Z AUTO 14005KT 8SM OVC028 24/23 A2986

2010/08/10 06:53
KHUF 100653Z 00000KT 4SM BR CLR 23/23 A2996

2010/08/10 06:52
KHUT 100652Z AUTO 16010KT 10SM BKN100 BKN120 29/21 A2991

2010/08/10 06:53
KICT 100653Z 17007KT 10SM FEW150 SCT200 28/21 A2991

2010/08/10 06:54
KIND 100654Z 24003KT 9SM OVC110 26/23 A2994

2010/08/10 06:55
KINL 100655Z AUTO 00000KT 10SM FEW090 18/18 A2994

2010/08/10 06:55
KIRK 100655Z AUTO 19007KT 10SM CLR 27/26 A2990

2010/08/10 06:55
KJAC 100655Z 23003KT 10SM CLR 09/06 A3016

2010/08/10 06:53
KJLN 100653Z AUTO 17005KT 10SM CLR 26/22 A2994

2010/08/10 06:56
KJMS 100656Z AUTO 15003KT 10SM CLR 21/19 A2990

2010/08/10 06:56
KJXN 100656Z 00000KT 3/4SM BR VV001 21/21 A2997

2010/08/10 06:53
KLAN 100653Z 00000KT 3SM R28L/0800VP6000FT BR MIFG CLR 19/19 A2997

2010/08/10 06:53
KLAR 100653Z AUTO 24004KT 10SM CLR 11/09 A3022

2010/08/10 06:53
KLBF 100653Z AUTO 30009KT 10SM -TSRA BKN050 BKN095 19/19 A2996

2010/08/10 06:55
KLBL 100655Z 19008KT 10SM CLR 25/17 A2998

2010/08/10 06:54
KLEX 100654Z 17004KT 10SM CLR 24/21 A2999

2010/08/10 06:54
KLNK 100654Z 18003KT 10SM CLR 27/26 A2985

2010/08/10 06:53
KLOU 100653Z AUTO 00000KT 10SM CLR 28/24 A2996

2010/08/10 07:05
KBTV 100705Z 00000KT 1SM BR VV003 18/18 A2991

2010/08/10 06:50
ENGC 100650Z 10018KT 9999 BKN045 14/12 Q1008

2010/08/10 06:53
KLOZ 100653Z AUTO 00000KT 6SM BR CLR 23/22 A3002

2010/08/10 06:53
KLSE 100653Z AUTO 00000KT 9SM CLR 23/23 A2994

2010/08/10 06:53
KMBS 100653Z 32005KT 8SM CLR 22/21 A2995

2010/08/10 06:53
KMCI 100653Z 18008KT 6SM HZ CLR 27/23 A2990

2010/08/10 06:51
KMDW 100651Z COR 00000KT 10SM FEW095 SCT250 26/22 A2994

2010/08/10 06:51
KMDW 100651Z 00000KT 10SM CLR 26/22 A2994

2010/08/10 06:52
KMHK 100652Z AUTO 22008KT 10SM CLR 29/21 A2987

2010/08/10 06:54
KMKC 100654Z 23003KT 10SM CLR 29/22 A2988

2010/08/10 06:52
KMKE 100652Z 00000KT 4SM BR FEW250 23/21 A2995

2010/08/10 06:55
KMKG 100655Z 00000KT 1/4SM FG VV001 21/20 A2997

2010/08/10 06:52
KMLI 100652Z 09004KT 10SM CLR 25/23 A2990

2010/08/10 06:54
KMOT 100654Z AUTO 07006KT 10SM OVC055 22/18 A2989

2010/08/10 06:53
KMSN 100653Z 00000KT 3SM BR CLR 22/22 A2995

2010/08/10 06:53
KMSP 100653Z 12003KT 10SM CLR 26/22 A2994

2010/08/10 06:55
KOFF 100655Z AUTO 09004KT 10SM CLR 26/26 A2985

2010/08/10 06:52
KOMA 100652Z 13005KT 10SM FEW250 28/26 A2985

2010/08/10 06:51
KORD 100651Z 00000KT 10SM CLR 25/23 A2995

2010/08/10 06:53
KOSH 100653Z AUTO 00000KT 5SM BR CLR 23/21 A2996

2010/08/10 06:53
KOTM 100653Z AUTO 09007KT 10SM TS BKN021 BKN027 OVC050 26/23 A2990

2010/08/10 06:56
KOWB 100656Z AUTO 00000KT 9SM CLR 28/25 A2995

2010/08/10 06:53
KPAH 100653Z AUTO 00000KT 7SM CLR 26/24 A2994

2010/08/10 06:53
KPIR 100653Z AUTO 10006KT 10SM CLR 24/23 A2984

2010/08/10 06:54
KPLN 100654Z AUTO 00000KT 1/4SM FG OVC004 19/19 A2996

2010/08/10 06:53
KPTK 100653Z 29005KT 6SM BR SCT140 23/22 A2995

2010/08/10 06:53
KPUB 100653Z AUTO 00000KT 10SM CLR 16/15 A3007

2010/08/10 06:52
KRAP 100652Z AUTO 17007KT 10SM CLR 21/16 A2990

2010/08/10 06:54
KRFD 100654Z 00000KT 8SM FEW026 24/22 A2996

2010/08/10 06:54
KRKS 100654Z AUTO 25008KT 10SM CLR 14/00 A3019

2010/08/10 06:54
KRST 100654Z AUTO 13005KT 7SM CLR 23/22 A2997

2010/08/10 06:59
KSAW 100659Z AUTO 00000KT 5SM BR CLR 19/18 A2998

2010/08/10 06:56
KSDF 100656Z 00000KT 8SM CLR 29/23 A2995

2010/08/10 06:53
KSDM 100653Z AUTO 25003KT 10SM CLR 14/13 A2993

2010/08/10 06:52
KSGF 100652Z 16006KT 10SM CLR 27/23 A2995

2010/08/10 06:54
KSBN 100654Z 00000KT 6SM BR CLR 22/20 A2996

2010/08/10 06:53
KSLN 100653Z 18009KT 10SM FEW120 29/21 A2987

2010/08/10 06:52
KSPI 100652Z AUTO 18004KT 10SM CLR 25/22 A2994

2010/08/10 06:53
KSTC 100653Z AUTO 00000KT 7SM CLR 21/20 A2995

2010/08/10 06:53
KSTJ 100653Z AUTO 19003KT 10SM CLR 26/23 A2988

2010/08/10 06:51
KSTL 100651Z 20004KT 9SM FEW150 SCT250 30/24 A2994

2010/08/10 06:53
KSTP 100653Z AUTO 00000KT 10SM CLR 24/22 A2994

2010/08/10 06:54
KSUS 100654Z AUTO 00000KT 7SM CLR 27/25 A2991

2010/08/10 06:52
KSUX 100652Z 11003KT 8SM CLR 25/24 A2984

2010/08/10 06:53
KTVC 100653Z AUTO 19003KT 7SM CLR 21/21 A2995

2010/08/10 06:54
KUIN 100654Z AUTO 16005KT 10SM CLR 28/26 A2991

2010/08/10 06:53
KWRL 100653Z AUTO 18007KT 10SM BKN095 17/09 A2997

2010/08/10 06:53
KYIP 100653Z 00000KT 1/2SM FG VV001 22/21 A2997

2010/08/10 07:04
KTOL 100704Z 00000KT 3/4SM BR VV001 22/21 A2996

2010/08/10 07:04
KOLF 100704Z AUTO 18015G20KT 10SM -RA BKN100 22/15 A2987

2010/08/10 07:00
CYMX 100700Z CCA 00000KT 6SM BR SKC 18/14 A2990 RMK VIS LWR S QUAD SLP125

2010/08/10 07:00
CBBC 100700Z AUTO 00000KT 9SM CLR A2998

2010/08/10 07:00
CYKA 100700Z 00000KT 40SM BKN075 15/13 A2992 RMK AC7 SLP136

2010/08/10 07:00
CYLW 100700Z AUTO 04003KT 9SM -RA OVC045 14/12 A2990 RMK SLP126 DENSITY ALT 1600FT PCPN 0.5MM PAST HR

2010/08/10 07:00
CYMA 100700Z 26002KT 20SM FEW050 SCT080 11/08 A2970 RMK SC2AC0 SLP069

2010/08/10 07:00
CYQH 100700Z 00000KT 20SM FEW030 BKN070 14/07 A2981 RMK SC2AC3 SLP101

2010/08/10 07:00
CYQU 100700Z 00000KT 25SM FEW090 FEW250 11/06 A2991 RMK AC1CI0 SLP135

2010/08/10 07:00
CYWL 100700Z 00000KT 15SM SKC 09/06 A2996 RMK SLP157

2010/08/10 07:00
CYXJ 100700Z 00000KT 15SM BKN068 14/09 A2989 RMK AC5 SLP128

2010/08/10 07:00
CYXT 100700Z 20005KT 15SM FEW050 14/11 A3001 RMK SC1 SLP165

2010/08/10 07:00
CYXY 100700Z 17005KT 40SM FEW050 BKN160 13/07 A2981 RMK SC2AC1 SLP110

2010/08/10 07:00
CYYD 100700Z AUTO 24003KT 9SM CLR 11/07 A2997 RMK SLP153

2010/08/10 07:00
CYYE 100700Z 00000KT 1/4SM FG VV002 14/10 A2980 RMK FG8 SLP099

2010/08/10 07:00
CYYF 100700Z 34003KT 15SM -SHRA FEW050 OVC080 16/12 A2990 RMK SC2AC6 SLP123

2010/08/10 07:00
CYZY 100700Z AUTO 18002KT 9SM OVC071 14/10 A2991 RMK SLP140 DENSITY ALT 2600FT

2010/08/10 07:00
CWHN 100700Z AUTO 04006KT 9SM CLR 16/12 A2987 RMK SLP120

2010/08/10 07:00
CYBK 100700Z 21006KT 15SM FEW035 12/11 A3002 RMK SC1 SLP169

2010/08/10 07:00
CYBR 100700Z 15006KT 15SM FEW070 OVC210 21/19 A2989 RMK AC2CI6 OCNL LTGIC DIST E-SW SLP120

2010/08/10 07:00
CYBU 100700Z AUTO 18004KT 8SM CLR 14/14 A2988 RMK SLP126 DENSITY ALT 1400FT

2010/08/10 07:00
CYDN 100700Z AUTO 22007KT 9SM CLR 17/15 A2987 RMK SLP119 DENSITY ALT 1500FT

2010/08/10 07:00
CYEN 100700Z 09009KT 15SM FEW060CB OVC140 20/15 A2982 RMK CB1AC7 FRQ DIST LTGICCCCG E-SW DIST SH E-SW SLP095

2010/08/10 07:00
CYET 100700Z AUTO 29006KT 9SM FEW041 SCT073 BKN099 12/12 A2991 RMK SLP130

2010/08/10 07:00
CYGX 100700Z 06003KT 15SM OVC080 13/11 A2999 RMK AC6 SLP160

2010/08/10 07:00
CYKJ 100700Z AUTO VRB02KT 1/4SM VV002 12/12 A2990 RMK SLP142 DENSITY ALT 1700FT

2010/08/10 07:00
CYLL 100700Z AUTO 10007KT 9SM CLR 15/13 A2984 RMK SLP107 DENSITY ALT 2700FT

2010/08/10 07:00
CYNE 100700Z AUTO 00000KT 7SM CLR 16/16 A2988 RMK SLP121

2010/08/10 07:00
CYOJ 100700Z 00000KT 15SM FEW030 SCT100 BKN250 14/13 A2980 RMK SC2AC1CI1 SLP097

2010/08/10 07:00
CYPA 100700Z 00000KT 15SM SKC 15/13 A2989 RMK SLP125

2010/08/10 07:00
CYPY 100700Z AUTO 13004KT 9SM CLR 14/14 A2978 RMK SLP091

2010/08/10 07:00
CYQF 100700Z 34007KT 15SM BKN120 14/10 A2985 RMK AC6 SLP110

2010/08/10 07:00
CYQL 100700Z AUTO 17006KT 9SM CLR 14/12 A2980 RMK SLP078

2010/08/10 07:00
CYQR 100700Z 07010KT 15SM SKC 21/15 A2985 RMK SLP107

2010/08/10 07:00
CYQW 100700Z AUTO 11008KT 9SM CLR 15/13 A2987 RMK SLP122 DENSITY ALT 2200FT

2010/08/10 07:00
CYVC 100700Z 00000KT 15SM MIFG SKC 15/15 A2989 RMK SLP127

2010/08/10 07:00
CYXD 100700Z AUTO 25003KT 9SM CLR 16/12 A2983 RMK SLP100

2010/08/10 07:00
CYYL 100700Z AUTO 14004KT 9SM SCT003 BKN013 OVC021 14/14 A2990 RMK SLP137 DENSITY ALT 1300FT PCPN 0.8MM PAST HR

2010/08/10 07:00
CYYN 100700Z AUTO 11010KT 9SM FEW085 SCT093 19/14 A2983 RMK SLP089

2010/08/10 07:00
CYZH 100700Z AUTO 00000KT 9SM CLR 14/11 A2987 RMK SLP120

2010/08/10 07:00
CWEU 100700Z 27004KT 40SM FEW003 02/M01 A3001 RMK CF1 SLP165

2010/08/10 07:00
CWFD 100700Z AUTO 35021KT 1/8SM 04/ RMK ALTM MISG

2010/08/10 07:00
CWKP 100700Z AUTO 26008KT 09/ A2969 RMK SLP075

2010/08/10 07:00
CWRH 100700Z AUTO ///// 03/ A2978 RMK SLP112

2010/08/10 07:00
CWSA 100700Z AUTO 26008KT 5SM OVC004 19/18 A2990 RMK SLP127

2010/08/10 07:00
CWTU 100700Z AUTO 28005KT 08/ A2958 RMK SLP029

2010/08/10 07:00
CWXR 100700Z AUTO 09002KT 08/ A2968 RMK SLP060

2010/08/10 07:00
CWYM 100700Z AUTO 06021KT 02/ RMK ALTM MISG SLP132

2010/08/10 07:00
CYPD 100700Z AUTO 22006KT 9SM SCT012 BKN018 BKN050 OVC061 18/16 A2984 RMK SLP107 DENSITY ALT 900FT

2010/08/10 07:00
CZPC 100700Z AUTO 27012KT 9SM CLR 14/10 A2984 RMK SLP088

2010/08/10 07:00
CZUM 100700Z AUTO 29004KT 9SM FEW015 FEW052 09/09 A2966 RMK SLP053

2010/08/10 07:00
CYDB 100700Z AUTO 13006KT 9SM CLR 12/05 A2975 RMK SLP093

2010/08/10 07:00
CYDQ 100700Z AUTO 04003KT 9SM CLR 08/05 A2988 RMK SLP137

2010/08/10 07:00
CYEV 100700Z 13005KT 15SM SCT120 SCT200 16/10 A2966 RMK AC3CI1 SLP047

2010/08/10 07:00
CYHE 100700Z AUTO 10005KT 8SM -RA OVC010 OVC019 15/15 A2994 RMK PCPN 0.5MM PAST HR SLP140

2010/08/10 07:00
CYIV 100700Z 10004KT 15SM FEW060 FEW250 16/13 A2990 RMK SC1CI0 SLP129

2010/08/10 07:00
CYKY 100700Z 17008KT 15SM BKN050 18/14 A2986 RMK SC7 SLP105

2010/08/10 07:00
CYPR 100700Z AUTO 01002KT 1/4SM VV002 A3003 RMK PRESFR WND MISG T MISG TD MISG

2010/08/10 07:00
CYQD 100700Z 00000KT 15SM SKC 15/14 A2990 RMK SLP128

2010/08/10 07:00
CYQZ 100700Z AUTO VRB02KT 9SM OVC091 12/10 A2994 RMK SLP150 DENSITY ALT 1800FT

2010/08/10 07:00
CYRV 100700Z AUTO 00000KT 9SM BKN003 OVC022 OVC030 OVC076 16/16 A2986 RMK SLP114

2010/08/10 07:00
CYUA 100700Z AUTO 30009KT 9SM CLR 11/ A2965 RMK SLP046

2010/08/10 07:00
CYXC 100700Z 03003KT 25SM SKC 14/11 A2987 RMK SLP107

2010/08/10 07:00
CYXE 100700Z 10003KT 15SM SCT250 17/14 A2986 RMK CI1 SLP115

2010/08/10 07:00
CYXS 100700Z AUTO 18003KT 9SM CLR 12/09 A2992 RMK SLP146 DENSITY ALT 2400FT

2010/08/10 07:00
CYZP 100700Z AUTO 26009KT 9SM OVC029 15/13 A3004 RMK SLP172

2010/08/10 07:00
CYZT 100700Z 26004KT 15SM FEW016 SCT220 13/09 A3000 RMK SC2CI1 SLP158

2010/08/10 07:00
CWRF 100700Z AUTO ///// 15/ A2976

2010/08/10 07:00
CWVD 100700Z AUTO ///// 04/ A2987 RMK SLP153

2010/08/10 07:00
CYCY 100700Z AUTO 00000KT 5/8SM CLR 03/03 A2988 RMK SLP121

2010/08/10 07:00
CYEK 100700Z AUTO 17002KT 9SM CLR 09/09 A3008 RMK SLP187

2010/08/10 07:00
CYOD 100700Z 09002KT 15SM FEW100 BKN250 18/14 A2986 RMK AC2CI2 DIST LTNG SW-W SLP113

2010/08/10 07:00
CYPE 100700Z 31004KT 15SM SKC 13/07 A2986 RMK SLP118

2010/08/10 07:00
CYQV 100700Z AUTO 00000KT 9SM CLR 16/16 A2989 RMK SLP123

2010/08/10 07:00
CYSF 100700Z AUTO 10003KT 1 1/4SM OVC015 14/14 A2988 RMK DENSITY ALT 900FT

2010/08/10 07:00
CYSM 100700Z 15006KT 15SM FEW070 FEW220 16/14 A2979 RMK AC1CI0 SLP093

2010/08/10 07:00
CYTH 100700Z 09003KT 15SM SCT070 OVC100 17/12 A2993 RMK AC3AC5 SLP139

2010/08/10 07:00
CYUS 100700Z AUTO ///// 9SM CLR 11/ A2992 RMK SLP137

2010/08/10 07:00
CYUX 100700Z AUTO 23006KT 9SM CLR 10/08 A2993 RMK SLP135

2010/08/10 07:00
CYXH 100700Z AUTO 25002KT 9SM CLR 18/13 A2977 RMK SLP073

2010/08/10 07:00
CYAH 100700Z AUTO 28003KT 250V310 9SM OVC051 11/10 A2985 RMK SLP119

2010/08/10 07:00
CYBX 100700Z 22014G19KT 1/4SM FG VV001 13/13 A2965 RMK FG8 SLP042

2010/08/10 07:00
CYGV 100700Z AUTO 27002KT 7SM FEW061 BKN096 13/11 A2966 RMK SLP047

2010/08/10 07:00
CYMH 100700Z AUTO 23013KT 9SM BKN012 BKN058 16/14 A2959 RMK SLP022

2010/08/10 07:00
CYMT 100700Z 28004KT 15SM SKC 11/10 A2987 RMK SLP121

2010/08/10 07:00
CYNM 100700Z AUTO 30002KT 9SM FEW097 13/10 A2990 RMK SLP127

2010/08/10 07:00
CYOY 100700Z AUTO 00000KT 2 1/2SM VV001 12/11 A2985 RMK VSBY VRBL 1.0V9.+ SLP111

2010/08/10 07:00
CYPH 100700Z AUTO 36004KT 330V030 9SM CLR 09/09 A2993 RMK SLP138

2010/08/10 07:00
CYQI 100700Z 23005KT 3/8SM -TSRA FG VV002 18/18 A2986 RERA RMK FG8 CB ASOCTD RVR RWY 24 3000 FT SLP114

2010/08/10 07:00
CYUY 100700Z 02002KT 15SM FEW090 17/14 A2993 RMK AC1 SLP135

2010/08/10 07:00
CYWK 100700Z 25005KT 15SM FEW011 SCT023 BKN056 10/09 A2974 RMK SF2SC1SC1 SLP080

2010/08/10 07:00
CYJT 100700Z CCA 17005KT 15SM FEW009 OVC037 17/15 A2979 RMK SF2SC6 SLP088

2010/08/10 07:00
CYEG 100700Z 24007KT 15SM FEW070 SCT120 BKN250 12/12 A2986 RMK AC2AC2CI1 SLP111

2010/08/10 07:00
CYFC 100700Z AUTO 21004KT 210V300 3SM BR OVC003 17/17 A2981 RMK SLP096 DENSITY ALT 400FT RVR MISG

2010/08/10 07:00
CYGL 100700Z 32003KT 5SM -DZ FEW004 OVC012 09/09 A2993 RMK SF2SC6 SLP143

2010/08/10 07:00
CYHZ 100700Z 20006KT 3/4SM R14/P6000FT/D R23/P6000FT/D BR VV001 17/17 A2987 RMK FG8 SLP114

2010/08/10 07:00
CYJT 100700Z 17005KT 15SM FEW009 OVC037 17/15 A2978 RMK SF2SC6 SLP085

2010/08/10 07:00
CYMX 100700Z 00000KT 6SM BR SKC 18/14 A2990 RMK VLS LWR S QUAD SLP125

2010/08/10 07:00
CYOW 100700Z 20002KT 1/4SM R07/1100FT/N R32/0900FT/N FG SKC 18/18 A2991 RMK FG6 SLP128

2010/08/10 07:00
CYQB 100700Z 00000KT 12SM R06/3000VP6000FT/D PRFG SKC 17/16 A2986 RMK HAZY SLP110

2010/08/10 07:00
CYQG 100700Z 00000KT 7SM SKC 22/21 A2995 RMK SLP139

2010/08/10 07:00
CYQM 100700Z 23004KT 1/8SM R29/1400FT/N R06/4000V5000FT/U FG VV001 17/17 A2981 RMK FG8 SLP094

2010/08/10 07:00
CYQQ 100700Z 28002KT 20SM FEW040 FEW080 SCT240 16/13 A2995 RMK SC1AC1CI0 SLP141

2010/08/10 07:00
CYQX 100700Z 18011KT 15SM BKN110 BKN150 OVC180 16/11 A2987 RMK AC6AC2AC1 SLP117

2010/08/10 07:00
CYTR 100700Z 02002KT 1/2SM FG BKN023 19/15 A2992 RMK FG6SC1 VIS VRB 1/4-3/4 SLP132

2010/08/10 07:00
CYUL 100700Z 22004KT 12SM SKC 20/19 A2989 RMK SLP123

2010/08/10 07:00
CYVR 100700Z 13004KT 15SM FEW025 SCT075 BKN100 15/12 A2995 RMK SC1AC2AC4 SLP142

2010/08/10 07:00
CYWG 100700Z 19002KT 9SM BKN140 OVC270 23/22 A2983 RMK AC6CI2 HZ SLP099

2010/08/10 07:00
CYXX 100700Z 00000KT 10SM FEW010 BKN027 15/11 A2995 RMK SF1SC6 SLP142

2010/08/10 07:00
CYYC 100700Z 00000KT 15SM FEW020CB BKN120 BKN240 14/10 A2988 RMK CB2AC3CI0 CB S-SW / LTGIC+CG S-SW SLP113

2010/08/10 07:00
CYYJ 100700Z 00000KT 12SM FEW005 FEW020 11/10 A2994 RMK SF1SC2 SLP138

2010/08/10 07:00
CYYQ 100700Z 11005KT 1/4SM R33/2000FT/N FG VV002 08/08 A3006 RMK FG8 SLP180

2010/08/10 07:00
CYYR 100700Z 26007KT 15SM FEW052 BKN083 14/13 A2960 RMK SC2AC6 SLP025

2010/08/10 07:00
CYYT 100700Z 19006KT 10SM -SHRA FEW015 OVC050 14/13 A2994 RMK SC1SC7 SLP141

2010/08/10 07:00
CYYZ 100700Z 26002KT 6SM BR BKN052 22/22 A2993 RMK SC6 SLP134

2010/08/10 07:00
CYZF 100700Z 13002KT 15SM FEW110 FEW230 17/13 A2976 RMK AC1CI1 SLP084

2010/08/10 07:00
CYZV 100700Z 30007KT 15SM FEW035 SCT100 15/12 A2973 RMK SC2AC2 SLP068

2010/08/10 07:00
CYZX 100700Z 00000KT 2SM -TSRA BR SCT002 BKN012 OVC080 17/17 A2986 RMK SF3SF3AC2 WNDY HILL 22003KT CB EMBD SW MOVG NE OCNL LTGCCCG SLP111

2010/08/10 07:00
CYBC 100700Z AUTO 26003KT 9SM CLR 12/11 A2977 RMK SLP084

2010/08/10 07:00
CYBN 100700Z AUTO 26003KT 7SM CLR 21/19 A2993 RMK OBS TAKEN +2 SLP135

2010/08/10 07:00
CYGQ 100700Z 00000KT 15SM SKC 17/17 A2997 RMK SLP150

2010/08/10 07:00
CYHM 100700Z 00000KT 5SM BR FEW016 SCT024 20/20 A2994 RMK SF1SC2 SLP137

2010/08/10 07:00
CYKF 100700Z AUTO 21004KT 1/8SM FG VV004 20/20 A2996 RMK SLP142 DENSITY ALT 1800FT

2010/08/10 07:00
CYKL 100700Z AUTO 32008KT 9SM OVC022 OVC081 09/08 A2970 RMK SLP070

2010/08/10 07:00
CYKZ 100700Z 27003KT 3SM BR BKN042 BKN059 22/21 A2994 RMK SC5SC2 SLP136

2010/08/10 07:00
CYOO 100700Z AUTO 15002KT 1 3/4SM BR BKN027 OVC033 21/21 A2992 RMK SLP133 DENSITY ALT 1200FT

2010/08/10 07:00
CYQA 100700Z AUTO 00000KT 3/4SM BKN002 OVC008 19/19 A2994 RMK SLP138 DENSITY ALT 1500FT

2010/08/10 07:00
CYQK 100700Z 16006KT 15SM FEW062 FEW150 BKN200 25/20 A2991 RMK SC1AC1CI2 SLP125

2010/08/10 07:00
CYSB 100700Z 25005KT 15SM FEW150 19/18 A2993 RMK AC2 SLP134

2010/08/10 07:00
CYSC 100700Z AUTO 00000KT 3/8SM FG VV002 14/14 A2990 RMK SLP130 DENSITY ALT 800FT PCPN 0.5MM PAST HR

2010/08/10 07:00
CYVO 100700Z AUTO 00000KT 9SM FEW057 SCT070 17/17 A2992 RMK PCPN 1.0MM PAST HR SLP134

2010/08/10 07:00
CYVQ 100700Z 00000KT 30SM FEW040 FEW100 SCT280 17/11 A2966 RMK SC1AC1CI1 SLP046

2010/08/10 07:00
CYXL 100700Z 00000KT 15SM FEW060 SCT130 21/19 A2995 RMK SC1AC2 SLP142

2010/08/10 07:00
CYXU 100700Z 00000KT 2 1/2SM BR BKN024 22/21 A2996 RMK FG2SC6 SLP142

2010/08/10 07:00
CYYB 100700Z 32002KT 15SM SKC 19/17 A2994 RMK SLP136

2010/08/10 07:00
CYYU 100700Z 00000KT 15SM FEW085 15/15 A2991 RMK AC2 SLP129

2010/08/10 07:00
CYAY 100700Z AUTO 24019G25KT 9SM OVC011 17/15 A2966 RMK SLP046 DENSITY ALT 600FT MAX WND 24031KT AT 0627Z

2010/08/10 07:00
CYCX 100700Z AUTO 22005KT 2 1/2SM 17/17 A2981 RMK SLP097

2010/08/10 07:00
CYDF 100700Z 00000KT 10SM -SHRA SCT040 OVC055 15/14 A2979 RMK SC3SC5 SLP087

2010/08/10 07:00
CYGW 100700Z 30003KT 1SM BR OVC002 09/09 A2994 RMK ST8 SLP141

2010/08/10 07:00
CYSJ 100700Z 22006KT 1/4SM R23/2000FT/N FG VV001 15/14 A2985 RMK FG8 SLP108

2010/08/10 07:00
CYYG 100700Z 26008KT 10SM OVC005 19/18 A2981 RMK SF8 SLP094

2010/08/10 07:00
CYCB 100700Z 08016KT 10SM VCFG OVC005 10/09 A2986 RMK SF8 SLP113

2010/08/10 07:00
CYCO 100700Z 27003KT 10SM MIFG FEW006 FEW030 SCT050 BKN090 10/10 A2970 RMK SF1SC1SC2AC4 TR SF TCU EMBD SLP058

2010/08/10 07:00
CYFS 100700Z 00000KT 15SM -RA BKN030 15/14 A2973 RMK SC7 SLP071

2010/08/10 07:00
CYHK 100700Z AUTO 22006KT 9SM CLR 11/09 A2990 RMK SLP127

2010/08/10 07:00
CYHY 100700Z 18005KT 15SM BKN050 17/13 A2973 RMK SC4 SLP072

2010/08/10 07:00
CYRT 100700Z 28010KT 15SM FEW240 12/10 A3007 RMK CI0 SLP183

2010/08/10 07:00
CYTE 100700Z AUTO 11002KT 9SM OVC054 OVC083 14/09 A2990 RMK SLP129

2010/08/10 07:00
CYVM 100700Z AUTO 00000KT 1/8SM VV001 03/03 A2993 RMK SLP136

2010/08/10 07:00
CYZS 100700Z 36007KT 15SM FEW210 09/04 A2997 RMK CI1 SLP152

2010/08/10 07:00
CWCA 100700Z 32004KT 15SM -RA BKN030 OVC070 14/13 A2958 RMK SC6AC2 SLP016

2010/08/10 07:00
CWCL 100700Z AUTO 00000KT 9SM CLR 06/05 A2996 RMK SLP159

2010/08/10 07:00
CWIL 100700Z AUTO 18013KT 14/ A2988 RMK SLP124

2010/08/10 07:00
CWKM 100700Z AUTO 06011KT 09/ A2969 RMK SLP058

2010/08/10 07:00
CWKW 100700Z AUTO 01011G17KT 05/ A2974 RMK SLP092

2010/08/10 07:00
CWLI 100700Z AUTO 05006KT 09/ A2972 RMK SLP075

2010/08/10 07:00
CWLX 100700Z AUTO 29011KT 14/ A2987 RMK SLP124

2010/08/10 07:00
CWLY 100700Z AUTO 22002KT 9SM FEW003 SCT087 13/12 A2994 RMK SLP142

2010/08/10 07:00
CWOB 100700Z AUTO ///// 1/8SM CLR 03/ A2977 RMK SLP118

2010/08/10 07:00
CWPX 100700Z AUTO ///// 10/ A2981 RMK SLP110

2010/08/10 07:00
CWRX 100700Z AUTO 29007KT 07/ A2989

2010/08/10 07:00
CWUP 100700Z AUTO 00000KT 06/ A2989 RMK SLP144

2010/08/10 07:00
CWUW 100700Z AUTO ///// 9SM CLR 10/ A2990 RMK SLP149

2010/08/10 07:00
CWVH 100700Z AUTO 10010KT 12/ A2968 RMK SLP063

2010/08/10 07:00
CWYK 100700Z AUTO ///// 04/ A2961 RMK SLP051

2010/08/10 07:00
CWZZ 100700Z AUTO ///// 0SM CLR 03/ A2967 RMK SLP071

2010/08/10 07:00
CZBF 100700Z 26003KT 15SM BKN070 20/16 A2977 RMK AC3 SLP082

2010/08/10 07:00
CZCP 100700Z AUTO 07010KT 1/8SM CLR 07/ A2973 RMK SLP073

2010/08/10 07:00
CYAM 100700Z 30005KT 3SM BR SKC 21/20 A2996 RMK FG4 SLP144

2010/08/10 07:00
CYGP 100700Z 09002KT 15SM SKC 15/14 A2973 RMK SLP067

2010/08/10 07:00
CYHD 100700Z AUTO 15004KT 9SM CLR 23/19 A2993 RMK SLP135

2010/08/10 07:00
CYHU 100700Z AUTO 00000KT 2 1/2SM FEW004 17/ A2988 RMK SLP118 DENSITY ALT 300FT TD MISG RVR MISG

2010/08/10 07:00
CYMO 100700Z AUTO 36003KT 9SM OVC005 11/11 A2996 RMK SLP148

2010/08/10 07:00
CYNA 100700Z AUTO 26004KT 5SM CLR 15/14 A2965 RMK SLP042

2010/08/10 07:00
CYPQ 100700Z AUTO ///// 1/8SM OVC000 OVC016 19/19 A2993 RMK SLP135

2010/08/10 07:00
CYTS 100700Z 30002KT 15SM FEW080 18/14 A2990 RMK AC2 SLP124

2010/08/10 07:00
CYTZ 100700Z AUTO 25002KT 1/8SM VV001 19/19 A2992 RMK SLP132 DENSITY ALT 700FT RVR MISG

2010/08/10 07:00
CYVP 100700Z 32007KT 15SM OVC007 06/04 A2983 RMK SF8 SLP103

2010/08/10 07:00
CYVV 100700Z 00000KT 3/4SM BR OVC022 22/21 A2993 RMK FG2SC6 SLP136

2010/08/10 07:00
CYWA 100700Z AUTO 26002KT 1 3/8SM CLR 14/14 A2991 RMK VSBY VRBL 0.7V9.+ SLP130

2010/08/10 07:00
CYXR 100700Z AUTO 00000KT 9SM CLR 14/14 A2989 RMK SLP111

2010/08/10 07:00
CYYY 100700Z 21007KT 15SM SKC 17/14 A2980 RMK SLP090

2010/08/10 07:00
CYZE 100700Z AUTO 00000KT 9SM CLR 17/16 A2993 RMK SLP138 DENSITY ALT 1000FT

2010/08/10 07:00
CYZR 100700Z AUTO 20003KT 1 3/4SM BR SCT041 21/20 A2994 RMK SLP138 DENSITY ALT 1400FT

2010/08/10 06:53
KACV 100653Z AUTO 20007KT 10SM OVC005 12/10 A2994

2010/08/10 06:53
KALW 100653Z AUTO 19010KT 10SM CLR 19/06 A2987

2010/08/10 06:53
KBFI 100653Z 20004KT 10SM BKN017 OVC055 15/12 A2997

2010/08/10 06:54
KBFL 100654Z AUTO 35007KT 10SM CLR 24/08 A2982

2010/08/10 06:53
KBIL 100653Z 21007KT 10SM CLR 17/15 A2992

2010/08/10 06:53
KBKE 100653Z AUTO 18004KT 10SM CLR 13/08 A2991

2010/08/10 06:53
KBLI 100653Z AUTO 17008KT 10SM OVC090 15/13 A2994

2010/08/10 06:53
KBOI 100653Z 15003KT 10SM TS FEW110 22/13 A2985

2010/08/10 06:53
KBTM 100653Z AUTO 09004KT 10SM -RA OVC090 12/10 A3002

2010/08/10 06:53
KBUR 100653Z 09005KT 10SM CLR 18/13 A2990

2010/08/10 06:53
KBYI 100653Z AUTO 07005KT 10SM CLR 15/12 A2997

2010/08/10 06:56
KBZN 100656Z AUTO 14007KT 10SM BKN080 14/10 A3000

2010/08/10 06:53
KCDC 100653Z AUTO 15005KT 10SM CLR 16/02 A3013

2010/08/10 06:56
KCEC 100656Z AUTO 00000KT 10SM OVC006 13/11 A2994

2010/08/10 06:53
KCLM 100653Z AUTO 29004KT 10SM OVC007 12/11 A2997

2010/08/10 06:56
KCTB 100656Z AUTO 00000KT 10SM CLR 16/10 A2985

2010/08/10 06:56
KEKO 100656Z AUTO 00000KT 10SM BKN120 19/05 A2999

2010/08/10 06:54
KEUG 100654Z 05005KT 10SM FEW040 13/11 A2999

2010/08/10 06:53
KFAT 100653Z 31008KT 10SM CLR 24/14 A2981

2010/08/10 06:54
KGCN 100654Z AUTO 00000KT 10SM CLR 09/07 A3024

2010/08/10 06:53
KGEG 100653Z 18006KT 10SM BKN130 19/04 A2980

2010/08/10 06:53
KGGW 100653Z AUTO 27006KT 8SM -RA BKN050 OVC100 19/17 A2981

2010/08/10 06:53
KGTF 100653Z 19007KT 10SM CLR 17/09 A2986

2010/08/10 06:53
KHLN 100653Z AUTO 00000KT 10SM BKN095 14/12 A2992

2010/08/10 06:53
KHQM 100653Z AUTO 27004KT 10SM OVC013 13/11 A3000

2010/08/10 06:53
KIDA 100653Z AUTO 28003KT 10SM CLR 11/09 A3004

2010/08/10 06:56
KIWA 100656Z AUTO 16003KT 10SM SCT120 31/11 A2985

2010/08/10 06:56
KLAS 100656Z 24007KT 10SM CLR 29/M06 A2982

2010/08/10 06:53
KLAX 100653Z 25006KT 10SM OVC007 16/13 A2992

2010/08/10 06:53
KLGB 100653Z 29004KT 9SM CLR 16/14 A2991

2010/08/10 06:53
KLMT 100653Z AUTO 26005KT 10SM SCT070 16/06 A2999

2010/08/10 06:53
KLVM 100653Z AUTO 24013G19KT 10SM CLR 17/08 A2998

2010/08/10 07:03
KGLD 100703Z AUTO 33008KT 10SM VCTS -RA BKN034 19/17 A3000

2010/08/10 07:03
KMKG 100703Z 00000KT 3/4SM BR VV001 22/20 A2996

2010/08/10 07:05
KMSN 100705Z 00000KT 1/2SM FG VV001 22/22 A2995

2010/08/10 07:03
KOTM 100703Z AUTO VRB04KT 10SM TS SCT021 BKN025 OVC050 25/22 A2990

2010/08/10 07:04
KVTN 100704Z AUTO 27012KT 10SM VCTS -RA FEW044 OVC100 21/19 A2991

2010/08/10 06:53
KMFR 100653Z AUTO 00000KT 10SM CLR 20/09 A2993

2010/08/10 06:53
KMLS 100653Z AUTO 31007KT 10SM CLR 20/15 A2983

2010/08/10 06:54
KMRY 100654Z AUTO 00000KT 10SM OVC005 12/10 A2994

2010/08/10 06:53
KMSO 100653Z AUTO 13007KT 10SM CLR 16/12 A2991

2010/08/10 06:53
KMYV 100653Z AUTO 14005KT 10SM CLR 19/12 A2982

2010/08/10 06:56
KNTD 100656Z AUTO 31004KT 10SM OVC007 15/14 A2990

2010/08/10 06:53
KOAK 100653Z 34004KT 10SM OVC006 14/11 A2993

2010/08/10 06:53
KOGD 100653Z AUTO 15005KT 10SM CLR 19/05 A3000

2010/08/10 06:54
KOLM 100654Z AUTO 22006KT 10SM OVC017 13/11 A2998

2010/08/10 06:53
KONT 100653Z 22005KT 10SM CLR 18/13 A2991

2010/08/10 06:55
KOTH 100655Z 35009KT 10SM OVC015 13/11 A3005

2010/08/10 06:53
KPAE 100653Z AUTO 22005KT 10SM FEW011 BKN044 14/12 A2997

2010/08/10 06:53
KPDX 100653Z 34005KT 10SM OVC038 16/12 A3000

2010/08/10 06:51
KPHX 100651Z 26007KT 10SM FEW120 34/10 A2980

2010/08/10 06:53
KPIH 100653Z AUTO 20006KT 10SM CLR 16/09 A3001

2010/08/10 06:53
KPMD 100653Z AUTO 00000KT 10SM CLR 20/04 A2992

2010/08/10 06:53
KPRB 100653Z AUTO A2990

2010/08/10 06:53
KPRC 100653Z AUTO 19007KT 10SM CLR 19/07 A3013

2010/08/10 06:53
KPSP 100653Z AUTO 00000KT 10SM CLR 27/08 A2976

2010/08/10 06:54
KRBL 100654Z AUTO 00000KT 10SM CLR 24/16 A2983

2010/08/10 06:53
KRDD 100653Z AUTO 03003KT 10SM CLR 23/12 A2982

2010/08/10 06:56
KRDM 100656Z AUTO 36006KT 10SM CLR 16/05 A2995

2010/08/10 06:55
KRNO 100655Z 01008KT 10SM CLR 21/03 A3000

2010/08/10 06:53
KRNT 100653Z AUTO 19004KT 10SM SCT024 OVC032 16/12 A2996

2010/08/10 06:53
KSAC 100653Z 19004KT 10SM CLR 16/12 A2984

2010/08/10 06:51
KSAN 100651Z 27004KT 10SM OVC015 18/14 A2993

2010/08/10 06:53
KSBA 100653Z AUTO 13004KT 10SM CLR 14/13 A2989

2010/08/10 06:56
KSBP 100656Z 30004KT 10SM OVC006 13/12 A2993

2010/08/10 06:55
KSCK 100655Z 36006KT 10SM CLR 18/13 A2983

2010/08/10 06:53
KSEA 100653Z 21006KT 10SM BKN012 OVC065 14/12 A2997

2010/08/10 06:53
KSFF 100653Z AUTO 00000KT 10SM CLR 16/05 A2980

2010/08/10 06:56
KSFO 100656Z 30009KT 10SM FEW003 SCT009 BKN013 13/11 A2992

2010/08/10 06:53
KSHR 100653Z AUTO 21008KT 10SM CLR 15/12 A2995

2010/08/10 06:53
KSJC 100653Z 00000KT 10SM BKN009 15/12 A2992

2010/08/10 06:53
KSLC 100653Z 16006KT 10SM CLR 19/04 A2999

2010/08/10 06:53
KSMF 100653Z 15010KT 10SM CLR 17/12 A2982

2010/08/10 06:51
KSMX 100651Z AUTO 00000KT 9SM OVC004 12/11 A2993

2010/08/10 06:53
KSNA 100653Z 25003KT 9SM CLR 18/13 A2991

2010/08/10 06:53
KSNS 100653Z AUTO 31004KT 9SM OVC005 13/11 A2994

2010/08/10 06:53
KTIW 100653Z 25006KT 10SM BKN014 OVC019 13/11 A2997

2010/08/10 06:53
KTUS 100653Z 22003KT 10SM CLR 28/15 A2996

2010/08/10 06:53
KTVL 100653Z AUTO 00000KT 10SM CLR 11/07 A3012

2010/08/10 06:53
KTWF 100653Z AUTO 09008KT 10SM CLR 16/12 A2995

2010/08/10 06:56
KUKI 100656Z AUTO 00000KT 10SM CLR 18/11 A2987

2010/08/10 06:53
KYKM 100653Z AUTO 33014KT 10SM CLR 19/08 A2985

2010/08/10 07:05
KBTV 100705Z 00000KT 1SM BR VV003 18/18 A2991

2010/08/10 06:50
LIMG 100650Z 29002KT 230V340 9999 FEW050 23/16 Q1016 RMK VIS MIN 9999

2010/08/10 06:55
LIMK 100655Z 05002KT CAVOK 19/18 Q1017 RMK BKN BKN070 VAL FOSCHIA VIS MIN 9999

2010/08/10 06:55
LIMN 100655Z 04004KT 9999 BKN060 20/16 Q1016 RMK BKN VIS MIN 9999 BLU

2010/08/10 06:50
LIMP 100650Z VRB03KT 8000 NSC 23/18 Q1016 RMK VIS MIN 6000N

2010/08/10 06:55
LIMS 100655Z 27006KT CAVOK 22/20 Q1015 RMK SCT SCT100 VIS MIN 9999 WIND THR30 27001KT BLU

2010/08/10 06:50
LIMZ 100650Z VRB03KT CAVOK 21/18 Q1017 RMK VIS MIN 8000N

2010/08/10 06:55
LIPA 100655Z 00000KT 9999 FEW040 24/22 Q1015 RMK FEW VIS MIN 9999 A3000 BLU

2010/08/10 06:50
LIPB 100650Z 14002KT 9999 FEW040 SCT060TCU 22/16 Q1018 RMK MON LIB VIS MIN9999

2010/08/10 06:55
LIPF 100655Z 00000KT 6000 NSC 22/21 Q1015 RMK FEW FEW240 VIS MIN 6000

2010/08/10 06:45
LIPH 100645Z 05004KT CAVOK 25/20 Q1016 RMK SCT SCT180 VIS MIN 9999 WIND THR07 /////KT BLU

2010/08/10 06:55
LIPI 100655Z 01005KT 9999 FEW090 25/18 Q1016 RMK SCT SCT160 VIS MIN 9999 WIND THR06 /////KT BLU

2010/08/10 06:55
LIPL 100655Z 09001KT 9999 FEW030 SCT080 22/21 Q1016 RMK BKN VIS MIN 9999 BLK BLU

2010/08/10 06:50
LIPO 100650Z 07004KT 040V100 8000 SCT050 24/18 Q1016 RMK VIS MIN 8000

2010/08/10 06:50
LIPQ 100650Z VRB01KT CAVOK 23/19 Q1016

2010/08/10 06:45
LIPR 100645Z 25001KT CAVOK 23/22 Q1015 RMK SKC VIS MIN 9999 WIND THR31 00000KT BLU

2010/08/10 06:55
LIPS 100655Z 08003KT 9999 FEW020 26/18 Q1016 RMK FEW VIS MIN 9999 BLU

2010/08/10 06:45
LIPX 100645Z 07003KT 9999 FEW040 24/22 Q1015 RMK FEW VIS MIN 9999 BLU

2010/08/10 06:50
LIPY 100650Z 22003KT 190V250 9999 FEW040 23/18 Q1015 RMK VIS MIN 9999

2010/08/10 06:55
LIVC 100655Z 03009KT CAVOK 12/01 Q1025 RMK SKC MON LIB VAL CLD SCT NC VIS MIN 9999

2010/08/10 06:55
LIVP 100655Z 04004KT 1200 BR BKN002 10/08 Q1024 RMK BKN MON INVIS VAL CLD SCT NEBBIA INF VIS MIN 1200

2010/08/10 06:55
LIMT 100655Z /////KT 7000 NSC 16/16 Q1018 RMK FEW FEW070 MON LIB VAL FOSCHIA VIS MIN 7000

2010/08/10 06:55
LIMU 100655Z 02004KT 9999 FEW023 22/22 Q1017 RMK BKN SCT070 QUK 1 QUL 1 SE VIS MAR 12 KM VIS MIN 9999

2010/08/10 06:55
LIMV 100655Z 18003KT 6000 FEW014 17/16 Q1018 RMK FEW MON LIB CUF VAL FOSCHIA VIS MIN 6000

2010/08/10 06:55
LIVD 100655Z 00000KT 9999 FEW035 16/15 Q1021 RMK SCT SCT200 VIS MIN 9999

2010/08/10 06:55
LIVE 100655Z 00000KT 9999 SCT025 12/09 Q1021 RMK SCT VIS MIN 9999

2010/08/10 06:55
LIVM 100655Z 09001KT CAVOK 23/21 Q1015 RMK FEW FEW200 QUK 0 QUL 0 VIS MAR 10 KM VIS MIN 9999

2010/08/10 06:55
LIVO 100655Z 00000KT 9999 BKN025 16/16 Q1019 RMK BKN VIS MIN 9999

2010/08/10 06:55
LIVR 100655Z 33003KT 9999 BKN010 12/11 Q1023 RMK BKN MON INVIS VIS MIN 9999

2010/08/10 06:55
LIVT 100655Z 07009G19KT CAVOK 25/16 Q1015 RMK FEW FEW200 QUK 3 QUL 1 NE VIS MAR 20 KM VIS MIN 9999

2010/08/10 06:55
LIBA 100655Z 30003KT 9999 FEW030 23/20 Q1014 RMK SCT SCT080 VIS MIN 9999 WIND THR29 29005KT BLU

2010/08/10 06:50
LIBC 100650Z 33005KT CAVOK 28/13 Q1014 RMK VIS MIN 9999

2010/08/10 06:50
LIBD 100650Z 33004KT CAVOK 26/13 Q1014 RMK VIS MIN 9999

2010/08/10 06:50
LIBG 100650Z 36016KT CAVOK 28/13 Q1012 RMK VIS MIN 9999

2010/08/10 06:55
LIBN 100655Z 32015KT CAVOK 26/21 Q1013 RMK FEW FEW080 VIS MIN 9999 WIND THR14 33015G31KT BLU

2010/08/10 06:50
LIBP 100650Z VRB01KT CAVOK 24/16 Q1015 RMK VIS MIN 9999

2010/08/10 06:45
LIBR 100645Z 33022G34KT CAVOK 25/21 Q1013 NOSIG RMK FEW FEW200 VIS MIN 9999 WIND THR13 /////KT WIND THR31 32017G28KT BLU

2010/08/10 06:55
LIBV 100655Z 01012KT CAVOK 25/14 Q1013 RMK SCT FEW090 SCT200 VIS MIN 9999 WIND THR14 35014KT BLU

2010/08/10 06:50
LICA 100650Z 27011KT 9999 SCT025 26/21 Q1015 RMK VIS MIN 9999

2010/08/10 06:50
LICC 100650Z 23004KT CAVOK 25/17 Q1014 RMK VIS MIN 9999

2010/08/10 06:50
LICD 100650Z 33007KT CAVOK 25/20 Q1014 RMK VIS MIN 9999

2010/08/10 06:55
LICG 100655Z 01005KT CAVOK 27/19 Q1016 RMK SKC VIS MIN 9999 WIND THR08 /////KT WIND THR21 01003KT BLU

2010/08/10 06:50
LICJ 100650Z 30003KT CAVOK 25/19 Q1015 RMK VIS MIN 9999

2010/08/10 06:50
LICR 100650Z 35014KT 9999 FEW025 26/19 Q1014 RMK VIS MIN 9999

2010/08/10 06:55
LICT 100655Z 00000KT CAVOK 27/10 Q1015 RMK SKC VIS MIN 9999 WIND THR13 31002KT BLU

2010/08/10 06:55
LICZ 100655Z 24007KT CAVOK 26/15 Q1014 RMK SKC VIS MIN 9999 WIND THR28 /////KT BLU

2010/08/10 06:50
LIBF 100650Z 29010KT CAVOK 28/14 Q1014 RMK VIS MIN 9999

2010/08/10 06:50
LIEA 100650Z VRB01KT CAVOK 22/13 Q1016 RMK VIS MIN 9999

2010/08/10 06:55
LIED 100655Z 36002KT CAVOK 24/11 Q1016 RMK SKC VIS MIN 9999 BLU

2010/08/10 06:50
LIEO 100650Z 05006KT 360V070 CAVOK 26/13 Q1016 RMK VIS MIN 9999

2010/08/10 06:50
LIMA 100650Z 00000KT CAVOK 22/17 Q1016 RMK VIS MIN 9999

2010/08/10 06:55
LIQW 100655Z 29003KT CAVOK 22/20 Q1016 RMK SKC VIS MIN 9999 BLU

2010/08/10 06:55
LIRE 100655Z 12006KT CAVOK 25/20 Q1015 RMK SKC VIS MIN 9999 WIND THR31 14006KT BLU

2010/08/10 06:55
LIRG 100655Z 00000KT CAVOK 24/18 Q1015 RMK SKC MON NE LIB NC VIS MIN 9999 BLU

2010/08/10 06:55
LIRH 100655Z 17002KT CAVOK 24/19 Q1015 RMK FEW FEW130 MON LIB NC VIS MIN 9999 WIND THR16 16002KT BLU

2010/08/10 06:50
LIRI 100650Z 06004KT 040V110 9999 SCT030 SCT060 25/17 Q1015 RMK VIS MIN 9999

2010/08/10 06:55
LIRL 100655Z 13003KT CAVOK 24/19 Q1015 RMK FEW FEW170 MON LIB NC VIS MIN 9999 BLU

2010/08/10 06:55
LIRM 100655Z 09005KT 9999 FEW040 SCT070 26/23 Q1016 RMK SCT VIS MIN 9999 WIND THR06 08005KT BLU

2010/08/10 06:55
LIRS 100655Z 05004KT CAVOK 22/17 Q1015 RMK SKC VIS MIN 9999 WIND THR21 /////KT BLU

2010/08/10 06:50
LIRU 100650Z 36003KT CAVOK 24/20 Q1015 RMK VIS MIN 9999

2010/08/10 06:55
LIRV 100655Z 06009KT CAVOK 22/15 Q1016 RMK SKC MON E SE LIB NC VIS MIN 9999 BLU

2010/08/10 06:55
LIRX 100655Z 36006KT CAVOK 21/17 Q1015 RMK FEW FEW100 VIS MIN 9999N VIS MAR 18 KM

2010/08/10 06:50
LIRZ 100650Z 36003KT 320V050 CAVOK 21/16 Q1017 RMK VIS MIN 9999

2010/08/10 07:04
KTOL 100704Z 00000KT 3/4SM BR VV001 22/21 A2996

2010/08/10 06:53
PABR 100653Z 07018G23KT 7SM OVC002 02/02 A2985

2010/08/10 06:53
PABT 100653Z 00000KT 10SM FEW055 OVC080 13/11 A2962

2010/08/10 06:53
PACV 100653Z 00000KT 10SM SCT010 BKN023 OVC031 12/12 A2991

2010/08/10 06:50
PADL 100650Z 18005KT 3SM -RA BR SCT006 OVC016 10/09 A2962

2010/08/10 06:58
PADU 100658Z AUTO 21018G23KT 10SM BKN050 11/07 A2964

2010/08/10 06:53
PAEN 100653Z 00000KT 10SM BKN005 BKN008 OVC047 13/12 A2977

2010/08/10 06:58
PAGA 100658Z AUTO 13006KT 10SM BKN030 OVC037 15/11 A2955

2010/08/10 06:53
PAGY 100653Z AUTO 21017KT 10SM OVC048 14/10 A2994

2010/08/10 06:53
PAIL 100653Z AUTO 10012KT 10SM OVC037 12/09 A2966

2010/08/10 06:54
PAKN 100654Z 15011KT 10SM OVC021 11/09 A2961

2010/08/10 06:53
PAKT 100653Z AUTO 17004KT 10SM OVC050 12/12 A3004

2010/08/10 06:53
PASC 100653Z 06016KT 1 1/4SM R05/5500VP6000FT BR OVC003 03/03 A2973

2010/08/10 06:53
PASI 100653Z 24007KT 10SM BKN018 OVC029 13/12 A3001

2010/08/10 06:52
PATA 100652Z AUTO 01003KT 10SM OVC090 14/13 A2960

2010/08/10 06:56
PAUN 100656Z AUTO 07005KT 10SM BKN029 BKN034 OVC080 12/08 A2945

2010/08/10 06:56
PAVD 100656Z 00000KT 9SM OVC007 11/09 A2988

2010/08/10 06:54
PHMK 100654Z AUTO 05016G21KT 10SM CLR 24/18 A3010

2010/08/10 06:56
PMDY 100656Z AUTO 04008KT 10SM FEW025 26/21 A3021

2010/08/10 07:00
OIAA 100700Z 18006KT 5000 HZ FEW040 BKN100 39/26 Q0999

2010/08/10 07:00
OIBK 100700Z 12020KT 5000 SA SKC 36/27 Q1000 A2954

2010/08/10 07:00
OICC 100700Z 15010KT CAVOK 36/M05 Q1014 A2997 866.2

2010/08/10 07:00
OIGG 100700Z 33004KT 9999 BKN080 30/19 Q1010 A2985

2010/08/10 07:00
OIIE 100700Z 12010G20KT CAVOK 33/01 Q1014 A2996

2010/08/10 07:00
OITR 100700Z 08004KT CAVOK 30/12 Q1015 A2999

2010/08/10 07:00
OIYY 100700Z 29008KT CAVOK 32/M05 Q1016 A3001

2010/08/10 07:03
KJXN 100703Z 00000KT 1SM BR VV001 21/21 A2997

2010/08/10 07:03
KMKG 100703Z 00000KT 3/4SM BR VV001 22/20 A2996

2010/08/10 07:05
KMSN 100705Z 00000KT 1/2SM FG VV001 22/22 A2995

2010/08/10 07:03
KOTM 100703Z AUTO VRB04KT 10SM TS SCT021 BKN025 OVC050 25/22 A2990

2010/08/10 06:55
EHSC 100655Z AUTO 23020G22KT 9999 18/15 Q1012 W///S3

2010/08/10 06:50
LGHI 100650Z 36012KT CAVOK 29/22 Q1007

2010/08/10 06:55
EHSA 100655Z AUTO 23022G25KT 9999 18/16 Q1012 W19/S4

2010/08/10 06:55
EHJR 100655Z AUTO 20019G21KT //// 17/16 Q1010 W17/S3

2010/08/10 07:00
TGPY 100700Z 15009KT 9999 BKN016 SCT260 28/26 Q012 JP-S

2010/08/10 07:00
UTAA 100700Z 01003MPS 330V030 9999 SKC 37/04 Q1011 NOSIG

2010/08/10 07:00
LEBG 100700Z 00000KT 9999 FEW035 13/11 Q1021

2010/08/10 07:00
LEHC 100700Z 00000KT CAVOK 22/15 Q1019

2010/08/10 07:00
LPFR 100700Z VRB03KT CAVOK 26/17 Q1015

2010/08/10 07:00
LPMA 100700Z VRB01KT 9999 BKN015 22/19 Q1016 RS34001KT 0518001KT 2324002KT

2010/08/10 07:00
LPPR 100700Z 00000KT 7000 FEW090 23/16 Q1016

2010/08/10 07:00
LPPS 100700Z 35005KT 9000 SCT011 22/19 Q1016

2010/08/10 07:00
LPPT 100700Z 00000KT CAVOK 28/17 Q1016 NOSIG

2010/08/10 07:04
KANJ 100704Z AUTO 31005KT 5SM BR FEW006 20/19 A2996

2010/08/10 07:00
ORBI 100700Z 34002KT CAVOK 41/11 Q1002

2010/08/10 07:00
ORMM 100700Z 20004KT CAVOK 40/11 Q1000

2010/08/10 07:05
KBTV 100705Z 00000KT 1SM BR VV003 18/18 A2991

2010/08/10 07:03
KMKG 100703Z 00000KT 3/4SM BR VV001 22/20 A2996

2010/08/10 07:05
KMSN 100705Z 00000KT 1/2SM FG VV001 22/22 A2995

2010/08/10 07:00
FBKE 100700Z 14013KT CAVOK 17/M02 Q1025

2010/08/10 07:00
FBMN 100700Z 14011KT CAVOK 11/M10 Q1028

2010/08/10 07:00
FBSK 100700Z 18010KT CAVOK 09/07 Q1031 NOSIG

2010/08/10 06:50
EGDX 100650Z AUTO 24011KT 9999NDV -RADZ BKN050/// 14/12 Q1010

2010/08/10 06:50
EGOM 100650Z AUTO 00000KT 9999NDV // BKN060/// 11/10 Q1005

2010/08/10 06:50
EGOP 100650Z AUTO 27007KT 4800NDV HZ BKN060/// 14/13 Q1010

2010/08/10 06:50
EGPN 100650Z 07003KT 9999 FEW018 SCT025 13/11 Q1004

2010/08/10 06:50
EGUB 100650Z AUTO 20003KT 9999NDV // BKN036/// BKN080/// 13/11 Q1011

2010/08/10 07:00
EGUW 100700Z 26012KT 6000 RA FEW012 BKN018TCU OVC032 16/13 Q1010 WHT TEMPO 4000 +RA SCT006 YLO1

2010/08/10 06:50
EGVN 100650Z 21005KT 9999 FEW006 BKN035 BKN080 13/11 Q1010 BLU TEMPO BKN023 WHT

2010/08/10 06:50
EGVO 100650Z 25010KT 9999 -RA FEW007 BKN033 OVC045 13/11 Q1011 RERA BLU TEMPO 6000 RA SCT007 GRN

2010/08/10 06:50
EGXX 100650Z AUTO 21007KT 9999NDV // SCT007/// 15/15 Q1008

2010/08/10 06:50
EGXZ 100650Z AUTO 16005KT 9999NDV OVC070/// 12/12 Q1007

2010/08/10 06:50
EGYE 100650Z 25010KT 9999 FEW005 SCT008 BKN100 Q1008 GRN

2010/08/10 07:00
EICK 100700Z 33007KT 9999 FEW033 12/08 Q1009 NOSIG

2010/08/10 07:00
EIDW 100700Z 24012KT 200V270 9999 -SHRA FEW018 SCT041 BKN050 12/10 Q1007 NOSIG

2010/08/10 07:00
EIKN 100700Z 29007KT 9999 FEW010 11/11 Q1007 NOSIG

2010/08/10 07:00
EINN 100700Z 24011KT 9999 FEW024 BKN035 15/11 Q1008 NOSIG

2010/08/10 07:00
AYPY 100700Z 24002KT 9999 SCT018 SCT140 OVC300 27/25 Q1009 RMKS/ HAZE/DIST/ CB TO N/NE

2010/08/10 07:00
MGSJ 100700Z 36006KT 9999 TS SCT016 FEW025CB SCT090 26/25 Q1013 A2991 CB/TS/LTNG E/ESE

2010/08/10 06:57
PHNG 100657Z AUTO 07010G16KT 10SM OVC060 26/20 A3010 RMK AO2 SLP188 T02560200 $

2010/08/10 07:00
RJAA 100700Z 15009KT 9999 SCT025 FEW025TCU 28/24 Q1014 NOSIG RMK 3CU025 1TCU025 A2995 TCU OHD MOV NE

2010/08/10 07:00
RJCC 100700Z 17009KT 9999 FEW004 BKN006 23/21 Q1013 RMK 1ST004 7ST006 A2992

2010/08/10 07:00
RJFF 100700Z 17012G23KT 130V200 9999 FEW020 BKN/// 34/21 Q1006 RMK 1CU020 A2973

2010/08/10 07:00
RJFK 100700Z 13013KT 9999 FEW020 SCT025 BKN/// 29/24 Q1011 RMK 2CU020 4CU025 A2988

2010/08/10 07:00
RJOO 100700Z 22008KT 190V260 9999 FEW015 SCT100 BKN/// 30/22 Q1012

2010/08/10 07:00
RJTT 100700Z 19013KT 9999 FEW020 30/24 Q1013

2010/08/10 07:00
ROAH 100700Z 20015KT 9999 FEW015 SCT040 BKN150 29/26 Q1008

2010/08/10 07:00
SKBO 100700Z 05003KT 9999 SCT017 SCT080 12/09 A3035 NOSIG

2010/08/10 07:00
SKBQ 100700Z 00000KT 9999 -DZ SCT012 SCT070 27/26 A2988

2010/08/10 07:00
SKCG 100700Z 00000KT 9999 FEW015 SCT200 27/26 A2985

2010/08/10 07:00
SKCL 100700Z 17003KT 9999 FEW025 BKN090 20/17 A2999

2010/08/10 07:00
TGPY 100700Z 15009KT 9999 BKN016 SCT260 28/26 Q012 JP-S

2010/08/10 07:00
TNCM 100700Z 10007KT 9999 SCT019 28/25 Q1013 RERA

2010/08/10 07:00
ZGGG 100700Z 11002MPS 080V160 7000 FEW040TCU SCT040 36/25 Q1004 NOSIG

2010/08/10 07:04
KTOL 100704Z 00000KT 3/4SM BR VV001 22/21 A2996

2010/08/10 07:04
KVTN 100704Z AUTO 27012KT 10SM VCTS -RA FEW044 OVC100 21/19 A2991

2010/08/10 07:00
FMCZ 100700Z 16009KT 9999 FEW022 27/21 Q1018

2010/08/10 07:00
FMEE 100700Z 14014KT 7000 -RA SCT020 BKN050 21/18 Q1024 TEMPO 5000 SHRA

2010/08/10 07:00
FMEP 100700Z 14005KT 100V170 9999 FEW026 BKN093 24/16 Q1023

2010/08/10 07:00
NZAA 100700Z 22008KT CAVOK 09/03 Q1027 NOSIG

2010/08/10 07:00
NZWN 100700Z 04007KT 9999 FEW030 08/03 Q1026 NOSIG 

2010/08/10 07:00
NZCH 100700Z 01002KT CAVOK 04/00 Q1025 NOSIG 

2010/08/10 07:00
FASK 100700Z 15020KT CAVOK 06/// Q1032

2010/08/10 07:00
FALM 100700Z 10010KT 8000 -DZ BKN025 13/// Q1030

2010/08/10 07:00
VTSS 100700Z 24007KT 9999 FEW020 BKN120 OVC300 31/23 Q1006 A2973

2010/08/10 07:00
SLLP 100700Z VRB02KT 9999 SKC M05/M14 Q1037

2010/08/10 07:00
SLVR 100700Z 18018KT 8000 NSC 15/11 Q1018

2010/08/10 07:00
SLCB 100700Z 00000KT 9999 SKC 06/02 Q1025

2010/08/10 07:00
SEQU 100700Z 34001KT 9999 SCT040 11/04 Q1027 RMK A3034 NOSIG

2010/08/10 07:00
SEGU 100700Z 23005KT 200V260 9999 BKN023 BKN090 23/19 Q1013 NOSIG

2010/08/10 07:00
SEMT 100700Z 20008KT 9999 BKN020 23/21 Q1013

2010/08/10 07:05
KGRR 100705Z AUTO 00000KT 1/2SM FG CLR 22/20 A2997 RMK AO2

2010/08/10 07:05
KGSH 100705Z AUTO 02004KT 3SM BR BKN044 21/21 A2997 RMK AO2

2010/08/10 07:05
KHYA 100705Z AUTO 02006KT 2 1/2SM +TSRA BR BKN014 BKN023 OVC036 21/19 A2993 RMK AO2 P0009

2010/08/10 07:05
PAVA 100705Z AUTO 19007KT 7SM -RA FEW003 SCT008 OVC016 10/10 A2935 RMK AO2 P0000

2010/08/10 07:05
PAVL 100705Z AUTO 07013KT 6SM -RA BR SCT021 BKN060 OVC075 13/12 A2948 RMK AO2 P0000 TSNO

2010/08/10 07:15
KCCA 100715Z AUTO 00000KT 5SM BR CLR 26/26 A2995 RMK AO2

2010/08/10 06:55
KGZL 100655Z AUTO 00000KT 10SM 25/21 A2993 RMK AO2 PWINO

2010/08/10 06:55
KMZZ 100655Z AUTO 00000KT 4SM BR CLR 23/22 A2997 RMK AO2

2010/08/10 06:50
EKAH 100650Z AUTO 21006KT 150V260 9999NDV BKN075/// 18/12 Q1015

2010/08/10 07:00
NZAA 100700Z 22008KT CAVOK 09/03 Q1027 NOSIG

2010/08/10 07:00
NZWN 100700Z 04007KT 9999 FEW030 08/03 Q1026 NOSIG 

2010/08/10 07:00
NZCH 100700Z 01002KT CAVOK 04/00 Q1025 NOSIG 

2010/08/10 06:50
EKAH 100650Z AUTO 21006KT 150V260 9999NDV BKN075/// 18/12 Q1015

2010/08/10 06:51
KABE 100651Z AUTO 00000KT 10SM CLR 24/20 A2993

2010/08/10 06:51
KALB 100651Z 18004KT 2SM BR SCT023 BKN037 BKN065 21/21 A2993

2010/08/10 06:56
KART 100656Z AUTO 19005KT 6SM BR BKN013 21/20 A2993

2010/08/10 06:54
KAVP 100654Z 00000KT 10SM SCT110 23/18 A2996

2010/08/10 06:51
KBDL 100651Z 00000KT 5SM -RA BR FEW015 BKN055 OVC110 22/21 A2992

2010/08/10 06:52
KBDR 100652Z AUTO 35003KT 10SM CLR 26/19 A2992

2010/08/10 06:54
KBTV 100654Z 00000KT 5SM BR CLR 18/18 A2991

2010/08/10 06:54
KBUF 100654Z 00000KT 4SM BR BKN060 BKN080 21/20 A2994

2010/08/10 06:56
KCAE 100656Z 00000KT 6SM BR CLR 24/23 A3001

2010/08/10 06:51
KCAK 100651Z 23004KT 8SM BKN065 OVC100 24/19 A2997

2010/08/10 06:51
KCMH 100651Z 17003KT 10SM FEW130 24/20 A2996

2010/08/10 06:53
KCRQ 100653Z 00000KT 10SM BKN011 18/14 A2991

2010/08/10 06:54
KCRW 100654Z 00000KT 4SM BR FEW001 21/20 A3000

2010/08/10 06:56
KDAY 100656Z 23005KT 7SM FEW050 26/21 A2999

2010/08/10 06:51
KERI 100651Z 15005KT 6SM HZ BKN080 BKN110 23/20 A2993

2010/08/10 06:58
KFDK 100658Z AUTO 00000KT 7SM CLR 24/22 A2995

2010/08/10 06:54
KGSO 100654Z 20006KT 8SM CLR 25/21 A3004

2010/08/10 06:53
KGSP 100653Z AUTO 00000KT 10SM CLR 25/22 A3004

2010/08/10 06:51
KHTS 100651Z AUTO 11003KT 3SM BR CLR 22/21 A2998

2010/08/10 06:53
KHUL 100653Z AUTO 20004KT 9SM CLR 16/15 A2982

2010/08/10 06:53
KIAG 100653Z AUTO 23004KT 4SM BR OVC060 22/21 A2994

2010/08/10 06:51
KILG 100651Z 18005KT 10SM CLR 24/22 A2994

2010/08/10 06:53
KILM 100653Z AUTO 00000KT 10SM CLR 26/24 A3002

2010/08/10 06:53
KMSS 100653Z AUTO 22003KT 10SM OVC008 22/21 A2991

2010/08/10 06:54
KORH 100654Z AUTO 31005KT 8SM SCT075 OVC110 21/20 A2995

2010/08/10 06:51
KPVD 100651Z 00000KT 10SM BKN075 OVC150 23/19 A2993

2010/08/10 06:51
KPWM 100651Z AUTO 28006KT 10SM CLR 22/19 A2986

2010/08/10 06:54
KRIC 100654Z 20003KT 9SM CLR 24/21 A2997

2010/08/10 06:54
KROC 100654Z 22003KT 2 1/2SM BR BKN060 OVC085 21/20 A2994

2010/08/10 06:54
KSYR 100654Z 14003KT 2SM BR BKN020 OVC055 21/21 A2995

2010/08/10 06:55
KMWN 100655Z COR 31028KT 100SM BKN/// FEW/// FEW000 SCT120 SCT200 08/07 RMK TPS LWR BKN056 BBLO FEW DSNT SE-SW PTCHY VLY FG ALQDS

2010/08/10 06:55
KMZZ 100655Z AUTO 00000KT 4SM BR CLR 23/22 A2997 RMK AO2

2010/08/10 07:05
KBTV 100705Z 00000KT 1SM BR VV003 18/18 A2991 RMK AO2 RVRNO

2010/08/10 07:04
KANJ 100704Z AUTO 31005KT 5SM BR FEW006 20/19 A2996 RMK AO2

2010/08/10 07:05
KMSN 100705Z 00000KT 1/2SM FG VV001 22/22 A2995 RMK AO2

2010/08/10 06:50
LGHI 100650Z 36012KT CAVOK 29/22 Q1007

2010/08/10 07:00
FABL 100700Z 14015KT CAVOK 04/M05 Q1034 NOSIG

2010/08/10 07:00
FAJS 100700Z 12011KT CAVOK 05/M03 Q1033 NOSIG

2010/08/10 07:00
FLLS 100700Z 11007KT CAVOK 21/10 Q1025

2010/08/10 07:00
FQBR 100700Z 18006KT 9999 BKN017 23/20 Q1021

2010/08/10 07:00
FQMA 100700Z 20020KT 9999 FEW020 19/M01 Q1030 NOSIG

2010/08/10 07:00
LEBG 100700Z 00000KT 9999 FEW035 13/11 Q1021

2010/08/10 07:00
LEHC 100700Z 00000KT CAVOK 22/15 Q1019

2010/08/10 07:00
CWBU 100700Z AUTO 20004KT 14/13 RMK AO1 SLP120 T01350131 50005

2010/08/10 07:00
CWBU 100700Z AUTO 20004KT 14/13 RMK AO1 SLP120 T01350131 50005

2010/08/10 07:00
CWEL 100700Z AUTO 15003KT 15/14 RMK AO1 SLP130 T01530142 50003

2010/08/10 07:00
CWEW 100700Z AUTO 22003KT 17/17 RMK AO1 SLP121 T01700167 58004

2010/08/10 07:00
CWEZ 100700Z AUTO 19009KT 11/10 RMK AO1 PK WND 21017/0606 SLP139 T01140101 54000

2010/08/10 07:00
CWFQ 100700Z AUTO 19001KT 19/18 RMK AO1 T01850182

2010/08/10 07:00
CWGB 100700Z AUTO 13011KT 16/14 RMK AO1 SLP134 T01620140 50005

2010/08/10 07:00
CWWB 100700Z AUTO 24002KT 23/21 RMK AO1 SLP129 T02250210 57006

2010/08/10 07:00
CWDQ 100700Z AUTO 10001KT 12/12 RMK AO1 SLP120 T01230117 53002

2010/08/10 07:00
CWDV 100700Z AUTO 00018KT 15/13 RMK AO1 SLP151 T01540126 51007

2010/08/10 07:00
CWDQ 100700Z AUTO 10001KT 12/12 RMK AO1 SLP120 T01230117 53002

2010/08/10 07:00
CWDV 100700Z AUTO 00018KT 15/13 RMK AO1 SLP151 T01540126 51007

2010/08/10 07:00
CWDV 100700Z AUTO 00018KT 15/13 RMK AO1 SLP151 T01540126 51007

2010/08/10 07:00
CWNZ 100700Z AUTO 36005KT 16/14 RMK AO1 SLP135 T01600144 53011

2010/08/10 07:00
SAZM 100700Z 32003KT CAVOK 00/M02 Q1026

2010/08/10 06:50
BGCO 100650Z 16003KT 9999 FEW180 06/M00 Q1012

2010/08/10 07:00
CWGR 100700Z AUTO 24009KT 19/18 RMK AO1 SLP075 T01920184 56010

2010/08/10 07:00
CWGT 100700Z AUTO 12013KT 17/15 RMK AO1 SLP130 T01650146 51006

2010/08/10 07:00
CWGW 100700Z AUTO 00000KT 12/12 RMK AO1 SLP107 T01240116 53012

2010/08/10 07:00
CWGY 100700Z AUTO 17012KT 17/14 RMK AO1 PK WND 16017/0653 SLP101 T01660139 53006

2010/08/10 07:00
CWHL 100700Z AUTO 04002KT 11/ RMK AO1 SLP162 T0107 50002

2010/08/10 07:00
CWHT 100700Z AUTO 27003KT 10/05 RMK AO1 SLP109 T00990051 53016

2010/08/10 07:00
CWHV 100700Z AUTO 00000KT 15/15 RMK AO1 SLP114 T01480145 56003

2010/08/10 07:00
CWIP 100700Z AUTO 27006KT 16/ RMK AO1 T0156

2010/08/10 07:00
CWIS 100700Z AUTO 09002KT 10/10 RMK AO1 SLP125 T01030097 55000

2010/08/10 07:00
CWJC 100700Z AUTO 13/11 RMK AO1 20 0655Z 2006 SLP152 T01300109

2010/08/10 07:00
CWNP 100700Z AUTO 08002KT 18/18 RMK AO1 SLP101 T01770177 58005

2010/08/10 07:00
CWNQ 100700Z AUTO 21001KT 17/16 RMK AO1 SLP109 T01650159 56005

2010/08/10 07:00
CWOD 100700Z AUTO 31006KT 12/ RMK AO1 SLP088 T0116 55001

2010/08/10 07:00
CWPD 100700Z AUTO 20004KT 08/07 RMK AO1 SLP100 T00810074 54000

2010/08/10 07:00
CWPE 100700Z AUTO 20002KT 14/13 RMK AO1 SLP100 T01350132 58009

2010/08/10 07:00
CWPF 100700Z AUTO 22008KT 12/11 RMK AO1 SLP129 T01180110 50002

2010/08/10 07:00
CWPR 100700Z AUTO 00000KT 13/ RMK AO1 SLP133 T0125 58000

2010/08/10 07:00
CWPZ 100700Z AUTO 00000KT 05/04 RMK AO1 SLP154 T00510035 51010

2010/08/10 07:00
CWVT 100700Z AUTO 15003KT 18/15 RMK AO1 SLP125 T01830146 52004

2010/08/10 07:00
CWZW 100700Z AUTO 24004KT 14/06 RMK AO1 SLP115 T01400063 51008

2010/08/10 07:00
CWZW 100700Z AUTO 24004KT 14/06 RMK AO1 SLP115 T01400063 51008

2010/08/10 07:00
CWEK 100700Z AUTO 01003KT 11/ RMK AO1 SLP166 T0113 50005

2010/08/10 07:00
CWEQ 100700Z AUTO 18002KT 15/14 RMK AO1 SLP118 T01510144 50006

2010/08/10 07:00
CWLP 100700Z AUTO 29013KT 12/12 RMK AO1 PK WND 29018/0648 SLP156 T01220117 51001

2010/08/10 07:00
CWZG 100700Z AUTO 26002KT 09/08 RMK AO1 SLP142 T00850080 53005

2010/08/10 07:00
CWZW 100700Z AUTO 24004KT 14/06 RMK AO1 SLP115 T01400063 51008

2010/08/10 07:00
CWLP 100700Z AUTO 29013KT 12/12 RMK AO1 PK WND 29018/0648 SLP156 T01220117 51001

2010/08/10 07:00
CWZG 100700Z AUTO 26002KT 09/08 RMK AO1 SLP142 T00850080 53005

2010/08/10 07:00
CWZW 100700Z AUTO 24004KT 14/06 RMK AO1 SLP115 T01400063 51008

2010/08/10 07:00
CWLP 100700Z AUTO 29013KT 12/12 RMK AO1 PK WND 29018/0648 SLP156 T01220117 51001

2010/08/10 07:00
CWZG 100700Z AUTO 26002KT 09/08 RMK AO1 SLP142 T00850080 53005

2010/08/10 07:00
CWZW 100700Z AUTO 24004KT 14/06 RMK AO1 SLP115 T01400063 51008

2010/08/10 07:00
CWZW 100700Z AUTO 24004KT 14/06 RMK AO1 SLP115 T01400063 51008

2010/08/10 07:00
CWZW 100700Z AUTO 24004KT 14/06 RMK AO1 SLP115 T01400063 51008

2010/08/10 07:00
CWZW 100700Z AUTO 24004KT 14/06 RMK AO1 SLP115 T01400063 51008

2010/08/10 07:00
CWZW 100700Z AUTO 24004KT 14/06 RMK AO1 SLP115 T01400063 51008

2010/08/10 07:00
CWZW 100700Z AUTO 24004KT 14/06 RMK AO1 SLP115 T01400063 51008

2010/08/10 07:00
CWZW 100700Z AUTO 24004KT 14/06 RMK AO1 SLP115 T01400063 51008

2010/08/10 07:00
CWDC 100700Z AUTO 09003KT 16/15 RMK AO1 SLP116 T01570152 50003

2010/08/10 07:00
CWEH 100700Z AUTO 14005KT 16/12 RMK AO1 SLP079 T01580122 58021

2010/08/10 07:00
CWKO 100700Z AUTO 06003KT 20/13 RMK AO1 SLP094 T02000127 55010

2010/08/10 07:00
CWOY 100700Z AUTO 16003KT 15/12 RMK AO1 SLP125 T01480124 58002

2010/08/10 07:00
CWDC 100700Z AUTO 09003KT 16/15 RMK AO1 SLP116 T01570152 50003

2010/08/10 07:00
CWEH 100700Z AUTO 14005KT 16/12 RMK AO1 SLP079 T01580122 58021

2010/08/10 07:00
CWKO 100700Z AUTO 06003KT 20/13 RMK AO1 SLP094 T02000127 55010

2010/08/10 07:00
CWOY 100700Z AUTO 16003KT 15/12 RMK AO1 SLP125 T01480124 58002

2010/08/10 07:00
CWRM 100700Z AUTO 31007KT 13/11 RMK AO1 SLP117 T01250112 53011

2010/08/10 07:00
CWQH 100700Z AUTO 00000KT 15/15 RMK AO1 T01480148

2010/08/10 07:00
CWQK 100700Z AUTO 27017KT RMK AO1 PK WND 27021/0612

2010/08/10 07:00
CWRK 100700Z AUTO 34001KT 18/18 RMK AO1 SLP136 T01820179 55001

2010/08/10 07:00
CWRY 100700Z AUTO 15003KT 16/11 RMK AO1 SLP079 T01560111 50000

2010/08/10 07:00
CWSD 100700Z AUTO 23005KT 18/17 RMK AO1 SLP091 T01800171 58005

2010/08/10 07:00
CWSK 100700Z AUTO 31001KT 14/13 RMK AO1 SLP135 T01410132 50002

2010/08/10 07:00
CWSP 100700Z AUTO 29014KT 11/11 RMK AO1 PK WND 29020/0606 SLP141 T01130105 50003

2010/08/10 07:00
CWST 100700Z AUTO 23006KT 19/17 RMK AO1 T01880172

2010/08/10 07:00
CWST 100700Z AUTO 23006KT 19/17 RMK AO1 T01880172

2010/08/10 07:00
CWMT 100700Z AUTO 16/ RMK AO1 SLP067 T0161 51006

2010/08/10 07:00
CWAV 100700Z AUTO 28003KT 11/09 RMK AO1 SLP111 T01090087 51003

2010/08/10 07:00
CWBO 100700Z AUTO 15006KT 17/13 RMK AO1 SLP083 T01680126 53003

2010/08/10 07:00
CWBS 100700Z AUTO 23006KT 21/ RMK AO1 T0207

2010/08/10 07:00
CWDJ 100700Z AUTO 06010KT 21/14 RMK AO1 SLP103 T02070136 58011

2010/08/10 07:00
CWAV 100700Z AUTO 28003KT 11/09 RMK AO1 SLP111 T01090087 51003

2010/08/10 07:00
CWBO 100700Z AUTO 15006KT 17/13 RMK AO1 SLP083 T01680126 53003

2010/08/10 07:00
CWBS 100700Z AUTO 23006KT 21/ RMK AO1 T0207

2010/08/10 07:00
CWDJ 100700Z AUTO 06010KT 21/14 RMK AO1 SLP103 T02070136 58011

2010/08/10 07:00
CWJO 100700Z AUTO 23002KT 15/14 RMK AO1 SLP106 T01540141 53001

2010/08/10 07:00
CWJR 100700Z AUTO 32009KT 17/ RMK AO1 PK WND 35022/0610 SLP099 T0167 51010

2010/08/10 07:00
CWJV 100700Z AUTO 11002KT 13/12 RMK AO1 2PAST HR 0004 SLP120 P0005 T01320122 50012

2010/08/10 07:00
CWJW 100700Z AUTO 00000KT 10/09 RMK AO1 SLP137 T00980085 51007

2010/08/10 07:00
CWKH 100700Z AUTO 13/ RMK AO1 T0134

2010/08/10 07:00
CWLC 100700Z AUTO 29003KT 11/ RMK AO1 T0110

2010/08/10 07:00
CWLM 100700Z AUTO 21015KT 11/10 RMK AO1 PK WND 21019/0606 T01080098

2010/08/10 07:00
CWMJ 100700Z AUTO 22001KT 14/14 RMK AO1 SLP129 T01430141 53002

2010/08/10 07:00
CWMM 100700Z AUTO 10003KT 14/13 RMK AO1 SLP144 T01420128 50001

2010/08/10 07:00
CWBV 100700Z AUTO 23012KT 16/16 RMK AO1 SLP115 T01600156 57016

2010/08/10 07:00
CWRN 100700Z AUTO 21016KT 18/17 RMK AO1 PK WND 21020/0631 SLP107 T01820171 57021

2010/08/10 07:00
CWBV 100700Z AUTO 23012KT 16/16 RMK AO1 SLP115 T01600156 57016

2010/08/10 07:00
CWRN 100700Z AUTO 21016KT 18/17 RMK AO1 PK WND 21020/0631 SLP107 T01820171 57021

2010/08/10 07:00
CWBV 100700Z AUTO 23012KT 16/16 RMK AO1 SLP115 T01600156 57016

2010/08/10 07:00
CWRN 100700Z AUTO 21016KT 18/17 RMK AO1 PK WND 21020/0631 SLP107 T01820171 57021

2010/08/10 07:00
CWBV 100700Z AUTO 23012KT 16/16 RMK AO1 SLP115 T01600156 57016

2010/08/10 07:00
CWRN 100700Z AUTO 21016KT 18/17 RMK AO1 PK WND 21020/0631 SLP107 T01820171 57021

2010/08/10 07:00
CWBY 100700Z AUTO 28001KT 13/12 RMK AO1 SLP052 T01280116 56002

2010/08/10 07:00
CWBY 100700Z AUTO 28001KT 13/12 RMK AO1 SLP052 T01280116 56002

2010/08/10 07:00
CWNH 100700Z AUTO 17003KT 16/15 RMK AO1 SLP096 T01590154 55000

2010/08/10 07:00
CWEP 100700Z AUTO 22011KT 19/18 RMK AO1 SLP088 T01850178 56012

2010/08/10 07:00
CWER 100700Z AUTO 20003KT RMK AO1 

2010/08/10 07:00
CERM 100700Z AUTO 31002KT 14/13 RMK AO1 SLP099 T01370131 55004

2010/08/10 07:00
CWBK 100700Z AUTO 24004KT 18/16 RMK AO1 SLP093 T01770158 58011

2010/08/10 07:00
CZSP 100700Z AUTO 22007KT 19/18 RMK AO1 SLP083 T01890176 56010

2010/08/10 07:00
CERM 100700Z AUTO 31002KT 14/13 RMK AO1 SLP099 T01370131 55004

2010/08/10 07:00
CWBK 100700Z AUTO 24004KT 18/16 RMK AO1 SLP093 T01770158 58011

2010/08/10 07:00
CZSP 100700Z AUTO 22007KT 19/18 RMK AO1 SLP083 T01890176 56010

2010/08/10 07:00
CERM 100700Z AUTO 31002KT 14/13 RMK AO1 SLP099 T01370131 55004

2010/08/10 07:00
CWBK 100700Z AUTO 24004KT 18/16 RMK AO1 SLP093 T01770158 58011

2010/08/10 07:00
CZSP 100700Z AUTO 22007KT 19/18 RMK AO1 SLP083 T01890176 56010

2010/08/10 07:00
CERM 100700Z AUTO 31002KT 14/13 RMK AO1 SLP099 T01370131 55004

2010/08/10 07:00
CWBK 100700Z AUTO 24004KT 18/16 RMK AO1 SLP093 T01770158 58011

2010/08/10 07:00
CZSP 100700Z AUTO 22007KT 19/18 RMK AO1 SLP083 T01890176 56010

2010/08/10 07:00
CZSP 100700Z AUTO 22007KT 19/18 RMK AO1 SLP083 T01890176 56010

2010/08/10 07:00
CZSP 100700Z AUTO 22007KT 19/18 RMK AO1 SLP083 T01890176 56010

2010/08/10 07:00
CZSP 100700Z AUTO 22007KT 19/18 RMK AO1 SLP083 T01890176 56010

2010/08/10 07:00
CZSP 100700Z AUTO 22007KT 19/18 RMK AO1 SLP083 T01890176 56010

2010/08/10 07:00
CZSP 100700Z AUTO 22007KT 19/18 RMK AO1 SLP083 T01890176 56010

2010/08/10 07:00
CZSP 100700Z AUTO 22007KT 19/18 RMK AO1 SLP083 T01890176 56010

2010/08/10 07:00
CTRA 100700Z AUTO 21004KT 22/19 RMK AO1 SLP127 T02160194 51003

2010/08/10 07:00
CXZC 100700Z AUTO 36003KT 11/10 RMK AO1 SLP148 T01090098 52005

2010/08/10 07:00
CTRA 100700Z AUTO 21004KT 22/19 RMK AO1 SLP127 T02160194 51003

2010/08/10 07:00
CXZC 100700Z AUTO 36003KT 11/10 RMK AO1 SLP148 T01090098 52005

2010/08/10 07:00
CXZC 100700Z AUTO 36003KT 11/10 RMK AO1 SLP148 T01090098 52005

2010/08/10 07:00
CXCK 100700Z AUTO 12005KT 14/ RMK AO1 T0140

2010/08/10 07:00
CXIB 100700Z AUTO 23007KT 19/15 RMK AO1 SLP084 T01870152 58021

2010/08/10 07:00
CXMI 100700Z AUTO 17004KT 17/17 RMK AO1 SLP113 T01710166 57016

2010/08/10 07:00
CXOX 100700Z AUTO 19001KT 15/15 RMK AO1 SLP122 T01520146 51008

2010/08/10 07:00
CXRH 100700Z AUTO 13006KT 15/14 RMK AO1 T01540138

2010/08/10 07:00
CXSR 100700Z AUTO 25007KT 12/05 RMK AO1 SLP125 T01230047 51009

2010/08/10 07:00
CWYY 100700Z AUTO 33004KT 17/13 RMK AO1 T01670128 51003

2010/08/10 07:00
CWZO 100700Z AUTO 19007KT RMK AO1 

2010/08/10 07:00
CWZS 100700Z AUTO 11001KT 14/13 RMK AO1 SLP088 T01390128 50000

2010/08/10 07:00
CWZS 100700Z AUTO 11001KT 14/13 RMK AO1 SLP088 T01390128 50000

2010/08/10 07:00
CWZS 100700Z AUTO 11001KT 14/13 RMK AO1 SLP088 T01390128 50000

2010/08/10 07:00
CWTG 100700Z AUTO 26007KT 10/ RMK AO1 SLP080 T0099 53003

2010/08/10 07:00
CWTN 100700Z AUTO 35007KT 19/14 RMK AO1 SLP096 T01910141 57003

2010/08/10 07:00
CWUS 100700Z AUTO 29003KT 15/12 RMK AO1 2PAST HR 1001 SLP124 P0001 T01510115 50002

2010/08/10 07:00
CWVF 100700Z AUTO 13007KT 15/ RMK AO1 T0151

2010/08/10 07:00
CWVI 100700Z AUTO 04002KT 17/15 RMK AO1 0PAST HR 0001 PK WND 01017/0627 SLP085 P0031 T01660148 50080

2010/08/10 07:00
CWVU 100700Z AUTO 16009KT 16/16 RMK AO1 PK WND 21060/0615 SLP103 T01580156 58017

2010/08/10 07:00
CWWA 100700Z AUTO 01001KT 14/12 RMK AO1 SLP140 T01380118 58001

2010/08/10 07:00
CWXA 100700Z AUTO 26008KT 11/08 RMK AO1 PK WND 24019/0608 SLP112 T01130080 53005

2010/08/10 07:00
CXLB 100700Z AUTO 15004KT 16/16 RMK AO1 SLP109 T01610157 58016

2010/08/10 07:00
CXTD 100700Z AUTO 21013G18KT 19/16 RMK AO1 PK WND 21024/0634 SLP106 T01850163 56012

2010/08/10 07:00
CXTO 100700Z AUTO 21/21 RMK AO1 SLP135 T02130213 55002

2010/08/10 07:00
CXVN 100700Z AUTO 20002KT 22/21 RMK AO1 SLP121 T02150205 58005

2010/08/10 07:00
CXWB 100700Z AUTO 02005KT 14/08 RMK AO1 SLP161 T01360078 51009

2010/08/10 07:00
CXZV 100700Z AUTO 30005KT 14/12 RMK AO1 SLP066 T01400117 53001

2010/08/10 07:00
KGUS 100700Z AUTO 03003KT 9SM R23/5500VP6000FT CLR 23/23 A2996 RMK AO2 SLP138

2010/08/10 06:55
KGZL 100655Z AUTO 00000KT 10SM 25/21 A2993 RMK AO2 PWINO

2010/08/10 07:04
PAPM 100704Z AUTO 17019KT 3/4SM -RA BR BKN006 BKN012 OVC090 09/09 A2950 RMK AO2 TSNO CIG 004V008 RAB00 P0001 $

2010/08/10 07:05
KGSH 100705Z AUTO 02004KT 3SM BR BKN044 21/21 A2997 RMK AO2

2010/08/10 07:05
KHYA 100705Z AUTO 02006KT 2 1/2SM +TSRA BR BKN014 BKN023 OVC036 21/19 A2993 RMK AO2 P0009

2010/08/10 07:05
PAVL 100705Z AUTO 07013KT 6SM -RA BR SCT021 BKN060 OVC075 13/12 A2948 RMK AO2 P0000 TSNO

2010/08/10 06:59
KNGU 100659Z 20004KT 10SM CLR 27/23 A2999 RMK AO2 SLP155 T02670233

2010/08/10 07:00
TTPP 100700Z ///05KT 9999 FEW018 BKN280 24/23 Q1012 NOSIG

2010/08/10 06:56
KNJK 100656Z AUTO 25008KT 10SM CLR 27/06 A2973 RMK AO2 SLP081 T02720056 TSNO

2010/08/10 06:55
KMWN 100655Z COR 31028KT 100SM BKN/// FEW/// FEW000 SCT120 SCT200 08/07 RMK TPS LWR BKN056 BBLO FEW DSNT SE-SW PTCHY VLY FG ALQDS

2010/08/10 07:03
KBTV 100703Z 00000KT 1 3/4SM BR FEW004 18/18 A2991 RMK AO2

2010/08/10 07:05
KBTV 100705Z 00000KT 1SM BR VV003 18/18 A2991 RMK AO2 RVRNO

2010/08/10 07:04
KANJ 100704Z AUTO 31005KT 5SM BR FEW006 20/19 A2996 RMK AO2

2010/08/10 07:05
KMSN 100705Z 00000KT 1/2SM FG VV001 22/22 A2995 RMK AO2

2010/08/10 07:05
KGRR 100705Z AUTO 00000KT 1/2SM FG CLR 22/20 A2997 RMK AO2

2010/08/10 07:15
KCCA 100715Z AUTO 00000KT 5SM BR CLR 26/26 A2995 RMK AO2

2010/08/10 07:00
FMNM 100700Z 16012KT CAVOK 28/14 Q1018

2010/08/10 07:00
HEAX 100700Z 33008KT 9999 SCT020 29/22 Q1008

2010/08/10 07:00
HEBA 100700Z 30010KT 9999 FEW020 27/19 Q1008

2010/08/10 07:00
HEBL 100700Z 01008KT CAVOK 35/08 Q1009

2010/08/10 07:00
HECA 100700Z 32005KT 9999 FEW025 28/22 Q1009

2010/08/10 07:00
HEGN 100700Z 35018KT CAVOK 34/19 Q1005

2010/08/10 07:00
HELX 100700Z 34005KT CAVOK 34/16 Q1006

2010/08/10 07:00
HEMM 100700Z 31010KT 9999 SCT020 28/21 Q1010

2010/08/10 07:00
HEPS 100700Z 31005KT 9999 SCT025 29/23 Q1008

2010/08/10 07:00
HESC 100700Z 33010KT CAVOK 29/12 Q1016

2010/08/10 07:00
HESN 100700Z 35011KT CAVOK 34/14 Q1008

2010/08/10 07:00
HSSS 100700Z 22014KT CAVOK 31/19 Q1010

2010/08/10 07:00
HEMA 100700Z 01018KT CAVOK 33/19 Q1006

2010/08/10 06:50
OIHH 100650Z 30006KT 9999 FEW040 28/01 Q1018 A3008

2010/08/10 07:00
OEJN 100700Z 25005KT CAVOK 35/26 Q1003 NOSIG

2010/08/10 07:00
ORBI 100700Z 34002KT CAVOK 41/11 Q1002

2010/08/10 07:00
ORMM 100700Z 20004KT CAVOK 40/11 Q1000

2010/08/10 07:00
OOMS 100700Z 35007KT 300V030 8000 NSC 33/28 Q1002 NOSIG

2010/08/10 07:00
OYAR 100700Z 00000KT CAVOK 24/13 Q////

2010/08/10 07:00
OYSN 100700Z 26005KT 9999 FEW030 25/11 Q1023

2010/08/10 07:00
OYTZ 100700Z 24006KT CAVOK 27/17 Q1010

2010/08/10 07:00
UAAA 100700Z 25007MPS 9999 FEW050CB BKN100 31/05 Q1008 88CLRD65 NOSIG

2010/08/10 07:00
UACC 100700Z 01007MPS 9999 BKN036 19/06 Q1019 040/0070 NOSIG RMK QFE733/0977

2010/08/10 07:00
UAKK 100700Z 02007MPS 9999 BKN050CB 16/07 Q1017 050///70 NOSIG RMK QFE715/0954

2010/08/10 07:00
UARR 100700Z 04006MPS 4200 FU NSC 33/04 Q1018 04CLRD70 NOSIG RMK QFE760/1014

2010/08/10 07:00
UATE 100700Z 10006G11MPS CAVOK 39/04 Q1012 120///70 NOSIG RMK QFE757/1010

2010/08/10 07:00
UATG 100700Z 05007MPS CAVOK 39/10 Q1013 32CLRD70 NOSIG RMK QFE761/1015

2010/08/10 07:00
UATT 100700Z 09007MPS 060V120 9999 NSC 28/01 Q1021 13CLRD70 NOSIG RMK QFE746/0995

2010/08/10 07:00
UAUU 100700Z 01002G07MPS 010V170 CAVOK 23/03 Q1023 33CLRD70 NOSIG RMK QFE751/1002

2010/08/10 07:00
UTDD 100700Z 11002MPS 070V170 9999 FEW066 FEW190 35/05 Q1008 09CLRD70 NOSIG RMK QFE688/0918

2010/08/10 07:00
TGPY 100700Z 15009KT 9999 BKN016 SCT260 28/26 Q012 JP-S

2010/08/10 07:00
TNCM 100700Z 10007KT 9999 SCT019 28/25 Q1013 RERA

2010/08/10 07:00
CYJT 100700Z CCA 17005KT 15SM FEW009 OVC037 17/15 A2979 RMK SF2SC6 SLP088

2010/08/10 07:00
CYMX 100700Z CCA 00000KT 6SM BR SKC 18/14 A2990 RMK VIS LWR S QUAD SLP125

2010/08/10 07:00
CYDQ 100700Z AUTO 04003KT 9SM CLR 08/05 A2988 RMK SLP137

2010/08/10 07:00
CYEG 100700Z 24007KT 15SM FEW070 SCT120 BKN250 12/12 A2986 RMK AC2AC2CI1 SLP111

2010/08/10 07:00
CYFC 100700Z AUTO 21004KT 210V300 3SM BR OVC003 17/17 A2981 RMK SLP096 DENSITY ALT 400FT RVR MISG

2010/08/10 07:00
CYGL 100700Z 32003KT 5SM -DZ FEW004 OVC012 09/09 A2993 RMK SF2SC6 SLP143

2010/08/10 07:00
CYHZ 100700Z 20006KT 3/4SM R14/P6000FT/D R23/P6000FT/D BR VV001 17/17 A2987 RMK FG8 SLP114

2010/08/10 07:00
CYJT 100700Z 17005KT 15SM FEW009 OVC037 17/15 A2978 RMK SF2SC6 SLP085

2010/08/10 07:00
CYKL 100700Z AUTO 32008KT 9SM OVC022 OVC081 09/08 A2970 RMK SLP070

2010/08/10 07:00
CYMH 100700Z AUTO 23013KT 9SM BKN012 BKN058 16/14 A2959 RMK SLP022

2010/08/10 07:00
CYMX 100700Z 00000KT 6SM BR SKC 18/14 A2990 RMK VLS LWR S QUAD SLP125

2010/08/10 07:00
CYOW 100700Z 20002KT 1/4SM R07/1100FT/N R32/0900FT/N FG SKC 18/18 A2991 RMK FG6 SLP128

2010/08/10 07:00
CYQB 100700Z 00000KT 12SM R06/3000VP6000FT/D PRFG SKC 17/16 A2986 RMK HAZY SLP110

2010/08/10 07:00
CYQG 100700Z 00000KT 7SM SKC 22/21 A2995 RMK SLP139

2010/08/10 07:00
CYQM 100700Z 23004KT 1/8SM R29/1400FT/N R06/4000V5000FT/U FG VV001 17/17 A2981 RMK FG8 SLP094

2010/08/10 07:00
CYQQ 100700Z 28002KT 20SM FEW040 FEW080 SCT240 16/13 A2995 RMK SC1AC1CI0 SLP141

2010/08/10 07:00
CYQX 100700Z 18011KT 15SM BKN110 BKN150 OVC180 16/11 A2987 RMK AC6AC2AC1 SLP117

2010/08/10 07:00
CYSJ 100700Z 22006KT 1/4SM R23/2000FT/N FG VV001 15/14 A2985 RMK FG8 SLP108

2010/08/10 07:00
CYTE 100700Z AUTO 11002KT 9SM OVC054 OVC083 14/09 A2990 RMK SLP129

2010/08/10 07:00
CYTR 100700Z 02002KT 1/2SM FG BKN023 19/15 A2992 RMK FG6SC1 VIS VRB 1/4-3/4 SLP132

2010/08/10 07:00
CYUL 100700Z 22004KT 12SM SKC 20/19 A2989 RMK SLP123

2010/08/10 07:00
CYUY 100700Z 02002KT 15SM FEW090 17/14 A2993 RMK AC1 SLP135

2010/08/10 07:00
CYVP 100700Z 32007KT 15SM OVC007 06/04 A2983 RMK SF8 SLP103

2010/08/10 07:00
CYVR 100700Z 13004KT 15SM FEW025 SCT075 BKN100 15/12 A2995 RMK SC1AC2AC4 SLP142

2010/08/10 07:00
CYWG 100700Z 19002KT 9SM BKN140 OVC270 23/22 A2983 RMK AC6CI2 HZ SLP099

2010/08/10 07:00
CYWK 100700Z 25005KT 15SM FEW011 SCT023 BKN056 10/09 A2974 RMK SF2SC1SC1 SLP080

2010/08/10 07:00
CYXU 100700Z 00000KT 2 1/2SM BR BKN024 22/21 A2996 RMK FG2SC6 SLP142

2010/08/10 07:00
CYXX 100700Z 00000KT 10SM FEW010 BKN027 15/11 A2995 RMK SF1SC6 SLP142

2010/08/10 07:00
CYXY 100700Z 17005KT 40SM FEW050 BKN160 13/07 A2981 RMK SC2AC1 SLP110

2010/08/10 07:00
CYYC 100700Z 00000KT 15SM FEW020CB BKN120 BKN240 14/10 A2988 RMK CB2AC3CI0 CB S-SW / LTGIC+CG S-SW SLP113

2010/08/10 07:00
CYYJ 100700Z 00000KT 12SM FEW005 FEW020 11/10 A2994 RMK SF1SC2 SLP138

2010/08/10 07:00
CYYQ 100700Z 11005KT 1/4SM R33/2000FT/N FG VV002 08/08 A3006 RMK FG8 SLP180

2010/08/10 07:00
CYYR 100700Z 26007KT 15SM FEW052 BKN083 14/13 A2960 RMK SC2AC6 SLP025

2010/08/10 07:00
CYYT 100700Z 19006KT 10SM -SHRA FEW015 OVC050 14/13 A2994 RMK SC1SC7 SLP141

2010/08/10 07:00
CYYZ 100700Z 26002KT 6SM BR BKN052 22/22 A2993 RMK SC6 SLP134

2010/08/10 07:00
CYZF 100700Z 13002KT 15SM FEW110 FEW230 17/13 A2976 RMK AC1CI1 SLP084

2010/08/10 07:00
CYZV 100700Z 30007KT 15SM FEW035 SCT100 15/12 A2973 RMK SC2AC2 SLP068

2010/08/10 07:00
CYZX 100700Z 00000KT 2SM -TSRA BR SCT002 BKN012 OVC080 17/17 A2986 RMK SF3SF3AC2 WNDY HILL 22003KT CB EMBD SW MOVG NE OCNL LTGCCCG SLP111

2010/08/10 07:00
CYZY 100700Z AUTO 18002KT 9SM OVC071 14/10 A2991 RMK SLP140 DENSITY ALT 2600FT

2010/08/10 07:00
CZBF 100700Z 26003KT 15SM BKN070 20/16 A2977 RMK AC3 SLP082

2010/08/10 06:50
EKAH 100650Z AUTO 21006KT 150V260 9999NDV BKN075/// 18/12 Q1015

2010/08/10 07:00
LRAR 100700Z 01004KT 330V070 CAVOK 23/17 Q1017

2010/08/10 07:00
LRTC 100700Z 35010KT CAVOK 28/19 Q1012

2010/08/10 07:00
LRTM 100700Z 01004KT 320V090 9999 FEW045 22/18 Q1017

2010/08/10 07:00
LPAZ 100700Z 06004KT 030V090 9999 FEW018 BKN036 20/16 Q1019

2010/08/10 07:00
LPPD 100700Z VRB02KT 9999 FEW020 BKN040 20/14 Q1020

2010/08/10 07:00
LJLJ 100700Z VRB01KT 9999 SCT040 22/17 Q1018 NOSIG

2010/08/10 07:00
LJMB 100700Z 00000KT CAVOK 20/18 Q1018

2010/08/10 07:00
LJPZ 100700Z VRB02KT CAVOK 24/18 Q1015

2010/08/10 07:00
LKMT 100700Z 24003KT 200V290 9999 FEW026 18/15 Q1018 NOSIG RMK REG QNH 1015

2010/08/10 07:00
LKTB 100700Z VRB01KT CAVOK 18/14 Q1018 NOSIG RMK REG QNH 1015

2010/08/10 07:00
LFLD 100700Z 26003KT 200V310 CAVOK 18/12 Q1018

2010/08/10 07:00
LFLV 100700Z 00000KT 9999 FEW040 20/16 Q1018

2010/08/10 07:00
LFQB 100700Z VRB02KT CAVOK 20/12 Q1015

2010/08/10 07:00
LFRH 100700Z 24014KT 5000 -RA BKN003 OVC008 18/17 Q1016

2010/08/10 07:00
LFRM 100700Z 18003KT 140V240 CAVOK 15/11 Q1017

2010/08/10 07:00
LFRQ 100700Z 26010KT 5000 BKN003 17/17 Q1015 NOSIG

2010/08/10 07:00
LFTW 100700Z AUTO 33004KT 300V360 9999NDV NSC 24/15 Q1016

2010/08/10 07:00
FIMP 100700Z 08014KT 9999 SCT019 25/16 Q1024

2010/08/10 07:00
FIMR 100700Z 10019KT 9999 SCT018 24/15 Q1024

2010/08/10 07:00
FMCH 100700Z 20005KT 170V240 9999 FEW023 SCT030 27/22 Q1020 NOSIG

2010/08/10 07:00
FMCZ 100700Z 16009KT 9999 FEW022 27/21 Q1018

2010/08/10 07:00
FMEE 100700Z 14014KT 7000 -RA SCT020 BKN050 21/18 Q1024 TEMPO 5000 SHRA

2010/08/10 07:00
FMMT 100700Z 22006KT 9999 FEW017 24/20 Q1022

2010/08/10 07:00
VYYY 100700Z 23003KT 8000 BKN018 FEW025CB BKN110 31/25 Q1003

2010/08/10 07:00
ORBI 100700Z 34002KT CAVOK 41/11 Q1002

2010/08/10 06:50
LIBC 100650Z 33005KT CAVOK 28/13 Q1014 RMK VIS MIN 9999

2010/08/10 06:50
LIBD 100650Z 33004KT CAVOK 26/13 Q1014 RMK VIS MIN 9999

2010/08/10 06:50
LIBP 100650Z VRB01KT CAVOK 24/16 Q1015 RMK VIS MIN 9999

2010/08/10 06:50
LICA 100650Z 27011KT 9999 SCT025 26/21 Q1015 RMK VIS MIN 9999

2010/08/10 06:50
LICC 100650Z 23004KT CAVOK 25/17 Q1014 RMK VIS MIN 9999

2010/08/10 06:55
LICG 100655Z 01005KT CAVOK 27/19 Q1016 RMK SKC VIS MIN 9999 WIND THR08 /////KT WIND THR21 01003KT BLU

2010/08/10 06:50
LICJ 100650Z 30003KT CAVOK 25/19 Q1015 RMK VIS MIN 9999

2010/08/10 06:50
LICR 100650Z 35014KT 9999 FEW025 26/19 Q1014 RMK VIS MIN 9999

2010/08/10 06:55
LICT 100655Z 00000KT CAVOK 27/10 Q1015 RMK SKC VIS MIN 9999 WIND THR13 31002KT BLU

2010/08/10 06:50
LIEA 100650Z VRB01KT CAVOK 22/13 Q1016 RMK VIS MIN 9999

2010/08/10 06:50
LIEO 100650Z 05006KT 360V070 CAVOK 26/13 Q1016 RMK VIS MIN 9999

2010/08/10 06:50
LIMG 100650Z 29002KT 230V340 9999 FEW050 23/16 Q1016 RMK VIS MIN 9999

2010/08/10 06:45
LIPH 100645Z 05004KT CAVOK 25/20 Q1016 RMK SCT SCT180 VIS MIN 9999 WIND THR07 /////KT BLU

2010/08/10 06:45
LIPR 100645Z 25001KT CAVOK 23/22 Q1015 RMK SKC VIS MIN 9999 WIND THR31 00000KT BLU

2010/08/10 06:45
LIPX 100645Z 07003KT 9999 FEW040 24/22 Q1015 RMK FEW VIS MIN 9999 BLU

2010/08/10 06:45
LIBR 100645Z 33022G34KT CAVOK 25/21 Q1013 NOSIG RMK FEW FEW200 VIS MIN 9999 WIND THR13 /////KT WIND THR31 32017G28KT BLU

2010/08/10 06:50
LIPB 100650Z 14002KT 9999 FEW040 SCT060TCU 22/16 Q1018 RMK MON LIB VIS MIN9999

2010/08/10 06:50
LIPO 100650Z 07004KT 040V100 8000 SCT050 24/18 Q1016 RMK VIS MIN 8000

2010/08/10 06:50
LIPY 100650Z 22003KT 190V250 9999 FEW040 23/18 Q1015 RMK VIS MIN 9999

2010/08/10 06:50
LIRZ 100650Z 36003KT 320V050 CAVOK 21/16 Q1017 RMK VIS MIN 9999

2010/08/10 06:55
LIBA 100655Z 30003KT 9999 FEW030 23/20 Q1014 RMK SCT SCT080 VIS MIN 9999 WIND THR29 29005KT BLU

2010/08/10 06:50
LIBG 100650Z 36016KT CAVOK 28/13 Q1012 RMK VIS MIN 9999

2010/08/10 06:55
LIBN 100655Z 32015KT CAVOK 26/21 Q1013 RMK FEW FEW080 VIS MIN 9999 WIND THR14 33015G31KT BLU

2010/08/10 06:55
LIBV 100655Z 01012KT CAVOK 25/14 Q1013 RMK SCT FEW090 SCT200 VIS MIN 9999 WIND THR14 35014KT BLU

2010/08/10 06:50
LICD 100650Z 33007KT CAVOK 25/20 Q1014 RMK VIS MIN 9999

2010/08/10 06:55
LICZ 100655Z 24007KT CAVOK 26/15 Q1014 RMK SKC VIS MIN 9999 WIND THR28 /////KT BLU

2010/08/10 06:55
LIED 100655Z 36002KT CAVOK 24/11 Q1016 RMK SKC VIS MIN 9999 BLU

2010/08/10 06:55
LIMK 100655Z 05002KT CAVOK 19/18 Q1017 RMK BKN BKN070 VAL FOSCHIA VIS MIN 9999

2010/08/10 06:55
LIMN 100655Z 04004KT 9999 BKN060 20/16 Q1016 RMK BKN VIS MIN 9999 BLU

2010/08/10 06:55
LIMS 100655Z 27006KT CAVOK 22/20 Q1015 RMK SCT SCT100 VIS MIN 9999 WIND THR30 27001KT BLU

2010/08/10 06:55
LIMT 100655Z /////KT 7000 NSC 16/16 Q1018 RMK FEW FEW070 MON LIB VAL FOSCHIA VIS MIN 7000

2010/08/10 06:55
LIMU 100655Z 02004KT 9999 FEW023 22/22 Q1017 RMK BKN SCT070 QUK 1 QUL 1 SE VIS MAR 12 KM VIS MIN 9999

2010/08/10 06:55
LIMV 100655Z 18003KT 6000 FEW014 17/16 Q1018 RMK FEW MON LIB CUF VAL FOSCHIA VIS MIN 6000

2010/08/10 06:55
LIPA 100655Z 00000KT 9999 FEW040 24/22 Q1015 RMK FEW VIS MIN 9999 A3000 BLU

2010/08/10 06:55
LIPC 100655Z 30004KT CAVOK 24/21 Q1015 RMK FEW FEW200 VIS MIN 9999 WIND THR12 31004KT BLU

2010/08/10 06:55
LIPF 100655Z 00000KT 6000 NSC 22/21 Q1015 RMK FEW FEW240 VIS MIN 6000

2010/08/10 06:55
LIPI 100655Z 01005KT 9999 FEW090 25/18 Q1016 RMK SCT SCT160 VIS MIN 9999 WIND THR06 /////KT BLU

2010/08/10 06:55
LIPL 100655Z 09001KT 9999 FEW030 SCT080 22/21 Q1016 RMK BKN VIS MIN 9999 BLK BLU

2010/08/10 06:55
LIPS 100655Z 08003KT 9999 FEW020 26/18 Q1016 RMK FEW VIS MIN 9999 BLU

2010/08/10 06:45
LIPX 100645Z 07003KT 9999 FEW040 24/22 Q1015 RMK FEW VIS MIN 9999 BLU

2010/08/10 07:00
RJAA 100700Z 15009KT 9999 SCT025 FEW025TCU 28/24 Q1014 NOSIG RMK 3CU025 1TCU025 A2995 TCU OHD MOV NE

2010/08/10 07:00
RJCC 100700Z 17009KT 9999 FEW004 BKN006 23/21 Q1013 RMK 1ST004 7ST006 A2992

2010/08/10 07:00
RJFK 100700Z 13013KT 9999 FEW020 SCT025 BKN/// 29/24 Q1011 RMK 2CU020 4CU025 A2988

2010/08/10 06:55
LIQW 100655Z 29003KT CAVOK 22/20 Q1016 RMK SKC VIS MIN 9999 BLU

2010/08/10 06:55
LIRE 100655Z 12006KT CAVOK 25/20 Q1015 RMK SKC VIS MIN 9999 WIND THR31 14006KT BLU

2010/08/10 06:55
LIRG 100655Z 00000KT CAVOK 24/18 Q1015 RMK SKC MON NE LIB NC VIS MIN 9999 BLU

2010/08/10 06:55
LIRH 100655Z 17002KT CAVOK 24/19 Q1015 RMK FEW FEW130 MON LIB NC VIS MIN 9999 WIND THR16 16002KT BLU

2010/08/10 06:55
LIRL 100655Z 13003KT CAVOK 24/19 Q1015 RMK FEW FEW170 MON LIB NC VIS MIN 9999 BLU

2010/08/10 06:55
LIRS 100655Z 05004KT CAVOK 22/17 Q1015 RMK SKC VIS MIN 9999 WIND THR21 /////KT BLU

2010/08/10 06:50
LIRU 100650Z 36003KT CAVOK 24/20 Q1015 RMK VIS MIN 9999

2010/08/10 06:55
LIRV 100655Z 06009KT CAVOK 22/15 Q1016 RMK SKC MON E SE LIB NC VIS MIN 9999 BLU

2010/08/10 06:55
LIRX 100655Z 36006KT CAVOK 21/17 Q1015 RMK FEW FEW100 VIS MIN 9999N VIS MAR 18 KM

2010/08/10 06:50
LIRZ 100650Z 36003KT 320V050 CAVOK 21/16 Q1017 RMK VIS MIN 9999

2010/08/10 06:55
LIVC 100655Z 03009KT CAVOK 12/01 Q1025 RMK SKC MON LIB VAL CLD SCT NC VIS MIN 9999

2010/08/10 06:55
LIVD 100655Z 00000KT 9999 FEW035 16/15 Q1021 RMK SCT SCT200 VIS MIN 9999

2010/08/10 06:55
LIVE 100655Z 00000KT 9999 SCT025 12/09 Q1021 RMK SCT VIS MIN 9999

2010/08/10 06:55
LIVM 100655Z 09001KT CAVOK 23/21 Q1015 RMK FEW FEW200 QUK 0 QUL 0 VIS MAR 10 KM VIS MIN 9999

2010/08/10 06:55
LIVO 100655Z 00000KT 9999 BKN025 16/16 Q1019 RMK BKN VIS MIN 9999

2010/08/10 06:55
LIVP 100655Z 04004KT 1200 BR BKN002 10/08 Q1024 RMK BKN MON INVIS VAL CLD SCT NEBBIA INF VIS MIN 1200

2010/08/10 06:55
LIVR 100655Z 33003KT 9999 BKN010 12/11 Q1023 RMK BKN MON INVIS VIS MIN 9999

2010/08/10 06:55
LIVT 100655Z 07009G19KT CAVOK 25/16 Q1015 RMK FEW FEW200 QUK 3 QUL 1 NE VIS MAR 20 KM VIS MIN 9999

2010/08/10 07:00
AYPY 100700Z 24002KT 9999 SCT018 SCT140 OVC300 27/25 Q1009 RMKS/ HAZE/DIST/ CB TO N/NE

2010/08/10 07:00
LPAZ 100700Z 06004KT 030V090 9999 FEW018 BKN036 20/16 Q1019

2010/08/10 07:00
LPHR 100700Z 36005KT 9999 FEW016 BKN040 20/15 Q1021

2010/08/10 07:00
LPPD 100700Z VRB02KT 9999 FEW020 BKN040 20/14 Q1020

2010/08/10 07:00
UAAA 100700Z 25007MPS 9999 FEW050CB BKN100 31/05 Q1008 88CLRD65 NOSIG

2010/08/10 07:00
UACC 100700Z 01007MPS 9999 BKN036 19/06 Q1019 040/0070 NOSIG RMK QFE733/0977

2010/08/10 07:00
UAFM 100700Z 25006MPS CAVOK 32/03 Q1010 NOSIG

2010/08/10 07:00
UARR 100700Z 04006MPS 4200 FU NSC 33/04 Q1018 04CLRD70 NOSIG RMK QFE760/1014

2010/08/10 07:00
UATE 100700Z 10006G11MPS CAVOK 39/04 Q1012 120///70 NOSIG RMK QFE757/1010

2010/08/10 07:00
UATG 100700Z 05007MPS CAVOK 39/10 Q1013 32CLRD70 NOSIG RMK QFE761/1015

2010/08/10 07:00
UATT 100700Z 09007MPS 060V120 9999 NSC 28/01 Q1021 13CLRD70 NOSIG RMK QFE746/0995

2010/08/10 07:00
UTAA 100700Z 01003MPS 330V030 9999 SKC 37/04 Q1011 NOSIG

2010/08/10 07:00
UTAK 100700Z 14006MPS CAVOK 38/04 Q1011 NOSIG

2010/08/10 07:00
UTAT 100700Z 36004MPS CAVOK 37/18 Q1010 NOSIG

2010/08/10 07:00
UTDD 100700Z 11002MPS 070V170 9999 FEW066 FEW190 35/05 Q1008 09CLRD70 NOSIG RMK QFE688/0918

2010/08/10 07:00
UTDL 100700Z 25007MPS 9999 FEW130 34/10 Q1008 NOSIG RMK QFE718 8809//70

2010/08/10 07:00
UTAM 100700Z 36005MPS CAVOK 35/09 Q1007 NOSIG

2010/08/10 07:00
SEGU 100700Z 23005KT 200V260 9999 BKN023 BKN090 23/19 Q1013 NOSIG

2010/08/10 07:00
SEQU 100700Z 34001KT 9999 SCT040 11/04 Q1027 RMK A3034 NOSIG

2010/08/10 07:00
SLCB 100700Z 00000KT 9999 SKC 06/02 Q1025

2010/08/10 07:00
SLLP 100700Z VRB02KT 9999 SKC M05/M14 Q1037

2010/08/10 07:00
SLVR 100700Z 18018KT 8000 NSC 15/11 Q1018

2010/08/10 07:00
SEMT 100700Z 20008KT 9999 BKN020 23/21 Q1013

2010/08/10 06:55
LIEB 100655Z 08003KT 9999 FEW030 27/21 Q1016 RMK BKN BKN080 QUK 1 QUL 0 VIS MAR 20 KM MON LIB VIS MIN 9999

2010/08/10 06:55
LIEC 100655Z 03004KT CAVOK 27/23 Q1015 RMK FEW FEW200 QUK 1 QUL 0 VIS MAR 30 KM VIS MIN 9999

2010/08/10 06:55
LIEE 100655Z 30002KT CAVOK 23/09 Q1015 RMK FEW FEW200 VIS MIN 9999 WIND THR14 29004KT BLU

2010/08/10 06:55
LIMT 100655Z /////KT 7000 NSC 16/16 Q1018 RMK FEW FEW070 MON LIB VAL FOSCHIA VIS MIN 7000

2010/08/10 06:55
LIMU 100655Z 02004KT 9999 FEW023 22/22 Q1017 RMK BKN SCT070 QUK 1 QUL 1 SE VIS MAR 12 KM VIS MIN 9999

2010/08/10 06:55
LIMV 100655Z 18003KT 6000 FEW014 17/16 Q1018 RMK FEW MON LIB CUF VAL FOSCHIA VIS MIN 6000

2010/08/10 06:55
LIQC 100655Z 00000KT 9999 SCT040 BKN050 24/22 Q1017 RMK OVC QUK 1 QUL 0 VIS MAR 15 KM VIS MIN 9999

2010/08/10 06:55
LIVD 100655Z 00000KT 9999 FEW035 16/15 Q1021 RMK SCT SCT200 VIS MIN 9999

2010/08/10 06:55
LIVE 100655Z 00000KT 9999 SCT025 12/09 Q1021 RMK SCT VIS MIN 9999

2010/08/10 06:55
LIVM 100655Z 09001KT CAVOK 23/21 Q1015 RMK FEW FEW200 QUK 0 QUL 0 VIS MAR 10 KM VIS MIN 9999

2010/08/10 06:55
LIVO 100655Z 00000KT 9999 BKN025 16/16 Q1019 RMK BKN VIS MIN 9999

2010/08/10 06:55
LIVR 100655Z 33003KT 9999 BKN010 12/11 Q1023 RMK BKN MON INVIS VIS MIN 9999

2010/08/10 07:00
LEBG 100700Z 00000KT 9999 FEW035 13/11 Q1021

2010/08/10 06:50
LIBC 100650Z 33005KT CAVOK 28/13 Q1014 RMK VIS MIN 9999

2010/08/10 06:50
LIBD 100650Z 33004KT CAVOK 26/13 Q1014 RMK VIS MIN 9999

2010/08/10 06:55
LIBN 100655Z 32015KT CAVOK 26/21 Q1013 RMK FEW FEW080 VIS MIN 9999 WIND THR14 33015G31KT BLU

2010/08/10 06:50
LIBP 100650Z VRB01KT CAVOK 24/16 Q1015 RMK VIS MIN 9999

2010/08/10 06:55
LIBV 100655Z 01012KT CAVOK 25/14 Q1013 RMK SCT FEW090 SCT200 VIS MIN 9999 WIND THR14 35014KT BLU

2010/08/10 06:50
LICD 100650Z 33007KT CAVOK 25/20 Q1014 RMK VIS MIN 9999

2010/08/10 06:50
LICR 100650Z 35014KT 9999 FEW025 26/19 Q1014 RMK VIS MIN 9999

2010/08/10 06:55
LICT 100655Z 00000KT CAVOK 27/10 Q1015 RMK SKC VIS MIN 9999 WIND THR13 31002KT BLU

2010/08/10 06:55
LICZ 100655Z 24007KT CAVOK 26/15 Q1014 RMK SKC VIS MIN 9999 WIND THR28 /////KT BLU

2010/08/10 06:50
LIPB 100650Z 14002KT 9999 FEW040 SCT060TCU 22/16 Q1018 RMK MON LIB VIS MIN9999

2010/08/10 06:45
LIPH 100645Z 05004KT CAVOK 25/20 Q1016 RMK SCT SCT180 VIS MIN 9999 WIND THR07 /////KT BLU

2010/08/10 06:55
LIPS 100655Z 08003KT 9999 FEW020 26/18 Q1016 RMK FEW VIS MIN 9999 BLU

2010/08/10 06:55
LIRE 100655Z 12006KT CAVOK 25/20 Q1015 RMK SKC VIS MIN 9999 WIND THR31 14006KT BLU

2010/08/10 06:55
LIRS 100655Z 05004KT CAVOK 22/17 Q1015 RMK SKC VIS MIN 9999 WIND THR21 /////KT BLU

2010/08/10 06:50
LIRZ 100650Z 36003KT 320V050 CAVOK 21/16 Q1017 RMK VIS MIN 9999

2010/08/10 06:55
LIVC 100655Z 03009KT CAVOK 12/01 Q1025 RMK SKC MON LIB VAL CLD SCT NC VIS MIN 9999

2010/08/10 06:55
LIVP 100655Z 04004KT 1200 BR BKN002 10/08 Q1024 RMK BKN MON INVIS VAL CLD SCT NEBBIA INF VIS MIN 1200

2010/08/10 06:55
LIBA 100655Z 30003KT 9999 FEW030 23/20 Q1014 RMK SCT SCT080 VIS MIN 9999 WIND THR29 29005KT BLU

2010/08/10 06:50
LIBG 100650Z 36016KT CAVOK 28/13 Q1012 RMK VIS MIN 9999

2010/08/10 06:45
LIBR 100645Z 33022G34KT CAVOK 25/21 Q1013 NOSIG RMK FEW FEW200 VIS MIN 9999 WIND THR13 /////KT WIND THR31 32017G28KT BLU

2010/08/10 06:50
LICA 100650Z 27011KT 9999 SCT025 26/21 Q1015 RMK VIS MIN 9999

2010/08/10 06:50
LICC 100650Z 23004KT CAVOK 25/17 Q1014 RMK VIS MIN 9999

2010/08/10 06:50
LICJ 100650Z 30003KT CAVOK 25/19 Q1015 RMK VIS MIN 9999

2010/08/10 06:50
LIEA 100650Z VRB01KT CAVOK 22/13 Q1016 RMK VIS MIN 9999

2010/08/10 06:50
LIMG 100650Z 29002KT 230V340 9999 FEW050 23/16 Q1016 RMK VIS MIN 9999

2010/08/10 06:55
LIMK 100655Z 05002KT CAVOK 19/18 Q1017 RMK BKN BKN070 VAL FOSCHIA VIS MIN 9999

2010/08/10 06:55
LIMN 100655Z 04004KT 9999 BKN060 20/16 Q1016 RMK BKN VIS MIN 9999 BLU

2010/08/10 06:55
LIPF 100655Z 00000KT 6000 NSC 22/21 Q1015 RMK FEW FEW240 VIS MIN 6000

2010/08/10 06:45
LIPX 100645Z 07003KT 9999 FEW040 24/22 Q1015 RMK FEW VIS MIN 9999 BLU

2010/08/10 06:55
LIRG 100655Z 00000KT CAVOK 24/18 Q1015 RMK SKC MON NE LIB NC VIS MIN 9999 BLU

2010/08/10 06:55
LIRL 100655Z 13003KT CAVOK 24/19 Q1015 RMK FEW FEW170 MON LIB NC VIS MIN 9999 BLU

2010/08/10 06:50
LIRU 100650Z 36003KT CAVOK 24/20 Q1015 RMK VIS MIN 9999

2010/08/10 06:55
LIRX 100655Z 36006KT CAVOK 21/17 Q1015 RMK FEW FEW100 VIS MIN 9999N VIS MAR 18 KM

2010/08/10 07:00
LFOR 100700Z 16003KT CAVOK 16/12 Q1016

2010/08/10 06:50
LGHI 100650Z 36012KT CAVOK 29/22 Q1007

2010/08/10 06:55
LICG 100655Z 01005KT CAVOK 27/19 Q1016 RMK SKC VIS MIN 9999 WIND THR08 /////KT WIND THR21 01003KT BLU

2010/08/10 06:55
LIED 100655Z 36002KT CAVOK 24/11 Q1016 RMK SKC VIS MIN 9999 BLU

2010/08/10 06:50
LIEO 100650Z 05006KT 360V070 CAVOK 26/13 Q1016 RMK VIS MIN 9999

2010/08/10 06:55
LIMS 100655Z 27006KT CAVOK 22/20 Q1015 RMK SCT SCT100 VIS MIN 9999 WIND THR30 27001KT BLU

2010/08/10 06:55
LIPA 100655Z 00000KT 9999 FEW040 24/22 Q1015 RMK FEW VIS MIN 9999 A3000 BLU

2010/08/10 06:55
LIPI 100655Z 01005KT 9999 FEW090 25/18 Q1016 RMK SCT SCT160 VIS MIN 9999 WIND THR06 /////KT BLU

2010/08/10 06:55
LIPL 100655Z 09001KT 9999 FEW030 SCT080 22/21 Q1016 RMK BKN VIS MIN 9999 BLK BLU

2010/08/10 06:45
LIPR 100645Z 25001KT CAVOK 23/22 Q1015 RMK SKC VIS MIN 9999 WIND THR31 00000KT BLU

2010/08/10 06:50
LIPY 100650Z 22003KT 190V250 9999 FEW040 23/18 Q1015 RMK VIS MIN 9999

2010/08/10 06:55
LIQW 100655Z 29003KT CAVOK 22/20 Q1016 RMK SKC VIS MIN 9999 BLU

2010/08/10 06:55
LIRH 100655Z 17002KT CAVOK 24/19 Q1015 RMK FEW FEW130 MON LIB NC VIS MIN 9999 WIND THR16 16002KT BLU

2010/08/10 06:55
LIRM 100655Z 09005KT 9999 FEW040 SCT070 26/23 Q1016 RMK SCT VIS MIN 9999 WIND THR06 08005KT BLU

2010/08/10 06:55
LIRV 100655Z 06009KT CAVOK 22/15 Q1016 RMK SKC MON E SE LIB NC VIS MIN 9999 BLU

2010/08/10 07:00
LKPR 100700Z 11003KT 050V150 CAVOK 19/15 Q1018 NOSIG RMK REG QNH 1015

2010/08/10 07:00
LERT 100700Z 00000KT CAVOK 27/13 Q1016 NOSIG

2010/08/10 06:55
LICZ 100655Z 24007KT CAVOK 26/15 Q1014 RMK SKC VIS MIN 9999 WIND THR28 /////KT BLU

2010/08/10 07:00
CWCA 100700Z 32004KT 15SM -RA BKN030 OVC070 14/13 A2958 RMK SC6AC2 SLP016

2010/08/10 07:00
CWCL 100700Z AUTO 00000KT 9SM CLR 06/05 A2996 RMK SLP159

2010/08/10 07:00
CWEU 100700Z 27004KT 40SM FEW003 02/M01 A3001 RMK CF1 SLP165

2010/08/10 07:00
CWFD 100700Z AUTO 35021KT 1/8SM 04/ RMK ALTM MISG

2010/08/10 07:00
CWHN 100700Z AUTO 04006KT 9SM CLR 16/12 A2987 RMK SLP120

2010/08/10 07:00
CWIL 100700Z AUTO 18013KT 14/ A2988 RMK SLP124

2010/08/10 07:00
CWKM 100700Z AUTO 06011KT 09/ A2969 RMK SLP058

2010/08/10 07:00
CWKW 100700Z AUTO 01011G17KT 05/ A2974 RMK SLP092

2010/08/10 07:00
CWLI 100700Z AUTO 05006KT 09/ A2972 RMK SLP075

2010/08/10 07:00
CWLX 100700Z AUTO 29011KT 14/ A2987 RMK SLP124

2010/08/10 07:00
CWLY 100700Z AUTO 22002KT 9SM FEW003 SCT087 13/12 A2994 RMK SLP142

2010/08/10 07:00
CWOB 100700Z AUTO ///// 1/8SM CLR 03/ A2977 RMK SLP118

2010/08/10 07:00
CWRH 100700Z AUTO ///// 03/ A2978 RMK SLP112

2010/08/10 07:00
CWRX 100700Z AUTO 29007KT 07/ A2989

2010/08/10 07:00
CWSA 100700Z AUTO 26008KT 5SM OVC004 19/18 A2990 RMK SLP127

2010/08/10 07:00
CWTU 100700Z AUTO 28005KT 08/ A2958 RMK SLP029

2010/08/10 07:00
CWUP 100700Z AUTO 00000KT 06/ A2989 RMK SLP144

2010/08/10 07:00
CWUW 100700Z AUTO ///// 9SM CLR 10/ A2990 RMK SLP149

2010/08/10 07:00
CWVD 100700Z AUTO ///// 04/ A2987 RMK SLP153

2010/08/10 07:00
CWVH 100700Z AUTO 10010KT 12/ A2968 RMK SLP063

2010/08/10 07:00
CWXR 100700Z AUTO 09002KT 08/ A2968 RMK SLP060

2010/08/10 07:00
CWYK 100700Z AUTO ///// 04/ A2961 RMK SLP051

2010/08/10 07:00
CWYM 100700Z AUTO 06021KT 02/ RMK ALTM MISG SLP132

2010/08/10 07:00
CWZZ 100700Z AUTO ///// 0SM CLR 03/ A2967 RMK SLP071

2010/08/10 07:00
CYAH 100700Z AUTO 28003KT 250V310 9SM OVC051 11/10 A2985 RMK SLP119

2010/08/10 07:00
CYAM 100700Z 30005KT 3SM BR SKC 21/20 A2996 RMK FG4 SLP144

2010/08/10 07:00
CYAY 100700Z AUTO 24019G25KT 9SM OVC011 17/15 A2966 RMK SLP046 DENSITY ALT 600FT MAX WND 24031KT AT 0627Z

2010/08/10 07:00
CYBC 100700Z AUTO 26003KT 9SM CLR 12/11 A2977 RMK SLP084

2010/08/10 07:00
CYBK 100700Z 21006KT 15SM FEW035 12/11 A3002 RMK SC1 SLP169

2010/08/10 07:00
CYBN 100700Z AUTO 26003KT 7SM CLR 21/19 A2993 RMK OBS TAKEN +2 SLP135

2010/08/10 07:00
CYBR 100700Z 15006KT 15SM FEW070 OVC210 21/19 A2989 RMK AC2CI6 OCNL LTGIC DIST E-SW SLP120

2010/08/10 07:00
CYBU 100700Z AUTO 18004KT 8SM CLR 14/14 A2988 RMK SLP126 DENSITY ALT 1400FT

2010/08/10 07:00
CYBX 100700Z 22014G19KT 1/4SM FG VV001 13/13 A2965 RMK FG8 SLP042

2010/08/10 07:00
CYCB 100700Z 08016KT 10SM VCFG OVC005 10/09 A2986 RMK SF8 SLP113

2010/08/10 07:00
CYCO 100700Z 27003KT 10SM MIFG FEW006 FEW030 SCT050 BKN090 10/10 A2970 RMK SF1SC1SC2AC4 TR SF TCU EMBD SLP058

2010/08/10 07:00
CYCX 100700Z AUTO 22005KT 2 1/2SM 17/17 A2981 RMK SLP097

2010/08/10 07:00
CYCY 100700Z AUTO 00000KT 5/8SM CLR 03/03 A2988 RMK SLP121

2010/08/10 07:00
CYDB 100700Z AUTO 13006KT 9SM CLR 12/05 A2975 RMK SLP093

2010/08/10 07:00
CYDF 100700Z 00000KT 10SM -SHRA SCT040 OVC055 15/14 A2979 RMK SC3SC5 SLP087

2010/08/10 07:00
CYDN 100700Z AUTO 22007KT 9SM CLR 17/15 A2987 RMK SLP119 DENSITY ALT 1500FT

2010/08/10 07:00
CYEK 100700Z AUTO 17002KT 9SM CLR 09/09 A3008 RMK SLP187

2010/08/10 07:00
CYEN 100700Z 09009KT 15SM FEW060CB OVC140 20/15 A2982 RMK CB1AC7 FRQ DIST LTGICCCCG E-SW DIST SH E-SW SLP095

2010/08/10 07:00
CYET 100700Z AUTO 29006KT 9SM FEW041 SCT073 BKN099 12/12 A2991 RMK SLP130

2010/08/10 07:00
CYEV 100700Z 13005KT 15SM SCT120 SCT200 16/10 A2966 RMK AC3CI1 SLP047

2010/08/10 07:00
CYFS 100700Z 00000KT 15SM -RA BKN030 15/14 A2973 RMK SC7 SLP071

2010/08/10 07:00
CYGP 100700Z 09002KT 15SM SKC 15/14 A2973 RMK SLP067

2010/08/10 07:00
CYGQ 100700Z 00000KT 15SM SKC 17/17 A2997 RMK SLP150

2010/08/10 07:00
CYGV 100700Z AUTO 27002KT 7SM FEW061 BKN096 13/11 A2966 RMK SLP047

2010/08/10 07:00
CYGW 100700Z 30003KT 1SM BR OVC002 09/09 A2994 RMK ST8 SLP141

2010/08/10 07:00
CYGX 100700Z 06003KT 15SM OVC080 13/11 A2999 RMK AC6 SLP160

2010/08/10 07:00
CYHD 100700Z AUTO 15004KT 9SM CLR 23/19 A2993 RMK SLP135

2010/08/10 07:00
CYHE 100700Z AUTO 10005KT 8SM -RA OVC010 OVC019 15/15 A2994 RMK PCPN 0.5MM PAST HR SLP140

2010/08/10 07:00
CYHK 100700Z AUTO 22006KT 9SM CLR 11/09 A2990 RMK SLP127

2010/08/10 07:00
CYHM 100700Z 00000KT 5SM BR FEW016 SCT024 20/20 A2994 RMK SF1SC2 SLP137

2010/08/10 07:00
CYHU 100700Z AUTO 00000KT 2 1/2SM FEW004 17/ A2988 RMK SLP118 DENSITY ALT 300FT TD MISG RVR MISG

2010/08/10 07:00
CYHY 100700Z 18005KT 15SM BKN050 17/13 A2973 RMK SC4 SLP072

2010/08/10 07:00
CYIV 100700Z 10004KT 15SM FEW060 FEW250 16/13 A2990 RMK SC1CI0 SLP129

2010/08/10 07:00
CYKA 100700Z 00000KT 40SM BKN075 15/13 A2992 RMK AC7 SLP136

2010/08/10 07:00
CYKF 100700Z AUTO 21004KT 1/8SM FG VV004 20/20 A2996 RMK SLP142 DENSITY ALT 1800FT

2010/08/10 07:00
CYKJ 100700Z AUTO VRB02KT 1/4SM VV002 12/12 A2990 RMK SLP142 DENSITY ALT 1700FT

2010/08/10 07:00
CYKY 100700Z 17008KT 15SM BKN050 18/14 A2986 RMK SC7 SLP105

2010/08/10 07:00
CYKZ 100700Z 27003KT 3SM BR BKN042 BKN059 22/21 A2994 RMK SC5SC2 SLP136

2010/08/10 07:00
CYLL 100700Z AUTO 10007KT 9SM CLR 15/13 A2984 RMK SLP107 DENSITY ALT 2700FT

2010/08/10 07:00
CYLW 100700Z AUTO 04003KT 9SM -RA OVC045 14/12 A2990 RMK SLP126 DENSITY ALT 1600FT PCPN 0.5MM PAST HR

2010/08/10 07:00
CYMA 100700Z 26002KT 20SM FEW050 SCT080 11/08 A2970 RMK SC2AC0 SLP069

2010/08/10 07:00
CYMO 100700Z AUTO 36003KT 9SM OVC005 11/11 A2996 RMK SLP148

2010/08/10 07:00
CYMT 100700Z 28004KT 15SM SKC 11/10 A2987 RMK SLP121

2010/08/10 07:00
CYNA 100700Z AUTO 26004KT 5SM CLR 15/14 A2965 RMK SLP042

2010/08/10 07:00
CYNE 100700Z AUTO 00000KT 7SM CLR 16/16 A2988 RMK SLP121

2010/08/10 07:00
CYNM 100700Z AUTO 30002KT 9SM FEW097 13/10 A2990 RMK SLP127

2010/08/10 07:00
CYOD 100700Z 09002KT 15SM FEW100 BKN250 18/14 A2986 RMK AC2CI2 DIST LTNG SW-W SLP113

2010/08/10 07:00
CYOJ 100700Z 00000KT 15SM FEW030 SCT100 BKN250 14/13 A2980 RMK SC2AC1CI1 SLP097

2010/08/10 07:00
CYOY 100700Z AUTO 00000KT 2 1/2SM VV001 12/11 A2985 RMK VSBY VRBL 1.0V9.+ SLP111

2010/08/10 07:00
CYPA 100700Z 00000KT 15SM SKC 15/13 A2989 RMK SLP125

2010/08/10 07:00
CYPE 100700Z 31004KT 15SM SKC 13/07 A2986 RMK SLP118

2010/08/10 07:00
CYPH 100700Z AUTO 36004KT 330V030 9SM CLR 09/09 A2993 RMK SLP138

2010/08/10 07:00
CYPQ 100700Z AUTO ///// 1/8SM OVC000 OVC016 19/19 A2993 RMK SLP135

2010/08/10 07:00
CYPR 100700Z AUTO 01002KT 1/4SM VV002 A3003 RMK PRESFR WND MISG T MISG TD MISG

2010/08/10 07:00
CYPY 100700Z AUTO 13004KT 9SM CLR 14/14 A2978 RMK SLP091

2010/08/10 07:00
CYQA 100700Z AUTO 00000KT 3/4SM BKN002 OVC008 19/19 A2994 RMK SLP138 DENSITY ALT 1500FT

2010/08/10 07:00
CYQD 100700Z 00000KT 15SM SKC 15/14 A2990 RMK SLP128

2010/08/10 07:00
CYQF 100700Z 34007KT 15SM BKN120 14/10 A2985 RMK AC6 SLP110

2010/08/10 07:00
CYQH 100700Z 00000KT 20SM FEW030 BKN070 14/07 A2981 RMK SC2AC3 SLP101

2010/08/10 07:00
CYQI 100700Z 23005KT 3/8SM -TSRA FG VV002 18/18 A2986 RERA RMK FG8 CB ASOCTD RVR RWY 24 3000 FT SLP114

2010/08/10 07:00
CYQK 100700Z 16006KT 15SM FEW062 FEW150 BKN200 25/20 A2991 RMK SC1AC1CI2 SLP125

2010/08/10 07:00
CYQL 100700Z AUTO 17006KT 9SM CLR 14/12 A2980 RMK SLP078

2010/08/10 07:00
CYQR 100700Z 07010KT 15SM SKC 21/15 A2985 RMK SLP107

2010/08/10 07:00
CYQU 100700Z 00000KT 25SM FEW090 FEW250 11/06 A2991 RMK AC1CI0 SLP135

2010/08/10 07:00
CYQV 100700Z AUTO 00000KT 9SM CLR 16/16 A2989 RMK SLP123

2010/08/10 07:00
CYQW 100700Z AUTO 11008KT 9SM CLR 15/13 A2987 RMK SLP122 DENSITY ALT 2200FT

2010/08/10 07:00
CYQZ 100700Z AUTO VRB02KT 9SM OVC091 12/10 A2994 RMK SLP150 DENSITY ALT 1800FT

2010/08/10 07:00
CYRT 100700Z 28010KT 15SM FEW240 12/10 A3007 RMK CI0 SLP183

2010/08/10 07:00
CYRV 100700Z AUTO 00000KT 9SM BKN003 OVC022 OVC030 OVC076 16/16 A2986 RMK SLP114

2010/08/10 07:00
CYSB 100700Z 25005KT 15SM FEW150 19/18 A2993 RMK AC2 SLP134

2010/08/10 07:00
CYSC 100700Z AUTO 00000KT 3/8SM FG VV002 14/14 A2990 RMK SLP130 DENSITY ALT 800FT PCPN 0.5MM PAST HR

2010/08/10 07:00
CYSF 100700Z AUTO 10003KT 1 1/4SM OVC015 14/14 A2988 RMK DENSITY ALT 900FT

2010/08/10 07:00
CYSM 100700Z 15006KT 15SM FEW070 FEW220 16/14 A2979 RMK AC1CI0 SLP093

2010/08/10 07:00
CYTH 100700Z 09003KT 15SM SCT070 OVC100 17/12 A2993 RMK AC3AC5 SLP139

2010/08/10 07:00
CYTS 100700Z 30002KT 15SM FEW080 18/14 A2990 RMK AC2 SLP124

2010/08/10 07:00
CYTZ 100700Z AUTO 25002KT 1/8SM VV001 19/19 A2992 RMK SLP132 DENSITY ALT 700FT RVR MISG

2010/08/10 07:00
CYUA 100700Z AUTO 30009KT 9SM CLR 11/ A2965 RMK SLP046

2010/08/10 07:00
CYUS 100700Z AUTO ///// 9SM CLR 11/ A2992 RMK SLP137

2010/08/10 07:00
CYUX 100700Z AUTO 23006KT 9SM CLR 10/08 A2993 RMK SLP135

2010/08/10 07:00
CYVC 100700Z 00000KT 15SM MIFG SKC 15/15 A2989 RMK SLP127

2010/08/10 07:00
CYVM 100700Z AUTO 00000KT 1/8SM VV001 03/03 A2993 RMK SLP136

2010/08/10 07:00
CYVO 100700Z AUTO 00000KT 9SM FEW057 SCT070 17/17 A2992 RMK PCPN 1.0MM PAST HR SLP134

2010/08/10 07:00
CYVQ 100700Z 00000KT 30SM FEW040 FEW100 SCT280 17/11 A2966 RMK SC1AC1CI1 SLP046

2010/08/10 07:00
CYVV 100700Z 00000KT 3/4SM BR OVC022 22/21 A2993 RMK FG2SC6 SLP136

2010/08/10 07:00
CYWA 100700Z AUTO 26002KT 1 3/8SM CLR 14/14 A2991 RMK VSBY VRBL 0.7V9.+ SLP130

2010/08/10 07:00
CYWL 100700Z 00000KT 15SM SKC 09/06 A2996 RMK SLP157

2010/08/10 07:00
CYXC 100700Z 03003KT 25SM SKC 14/11 A2987 RMK SLP107

2010/08/10 07:00
CYXD 100700Z AUTO 25003KT 9SM CLR 16/12 A2983 RMK SLP100

2010/08/10 07:00
CYXE 100700Z 10003KT 15SM SCT250 17/14 A2986 RMK CI1 SLP115

2010/08/10 07:00
CYXH 100700Z AUTO 25002KT 9SM CLR 18/13 A2977 RMK SLP073

2010/08/10 07:00
CYXJ 100700Z 00000KT 15SM BKN068 14/09 A2989 RMK AC5 SLP128

2010/08/10 07:00
CYXL 100700Z 00000KT 15SM FEW060 SCT130 21/19 A2995 RMK SC1AC2 SLP142

2010/08/10 07:00
CYXR 100700Z AUTO 00000KT 9SM CLR 14/14 A2989 RMK SLP111

2010/08/10 07:00
CYXS 100700Z AUTO 18003KT 9SM CLR 12/09 A2992 RMK SLP146 DENSITY ALT 2400FT

2010/08/10 07:00
CYXT 100700Z 20005KT 15SM FEW050 14/11 A3001 RMK SC1 SLP165

2010/08/10 07:00
CYYB 100700Z 32002KT 15SM SKC 19/17 A2994 RMK SLP136

2010/08/10 07:00
CYYD 100700Z AUTO 24003KT 9SM CLR 11/07 A2997 RMK SLP153

2010/08/10 07:00
CYYE 100700Z 00000KT 1/4SM FG VV002 14/10 A2980 RMK FG8 SLP099

2010/08/10 07:00
CYYF 100700Z 34003KT 15SM -SHRA FEW050 OVC080 16/12 A2990 RMK SC2AC6 SLP123

2010/08/10 07:00
CYYG 100700Z 26008KT 10SM OVC005 19/18 A2981 RMK SF8 SLP094

2010/08/10 07:00
CYYL 100700Z AUTO 14004KT 9SM SCT003 BKN013 OVC021 14/14 A2990 RMK SLP137 DENSITY ALT 1300FT PCPN 0.8MM PAST HR

2010/08/10 07:00
CYYN 100700Z AUTO 11010KT 9SM FEW085 SCT093 19/14 A2983 RMK SLP089

2010/08/10 07:00
CYYU 100700Z 00000KT 15SM FEW085 15/15 A2991 RMK AC2 SLP129

2010/08/10 07:00
CYYY 100700Z 21007KT 15SM SKC 17/14 A2980 RMK SLP090

2010/08/10 07:00
CYZE 100700Z AUTO 00000KT 9SM CLR 17/16 A2993 RMK SLP138 DENSITY ALT 1000FT

2010/08/10 07:00
CYZH 100700Z AUTO 00000KT 9SM CLR 14/11 A2987 RMK SLP120

2010/08/10 07:00
CYZP 100700Z AUTO 26009KT 9SM OVC029 15/13 A3004 RMK SLP172

2010/08/10 07:00
CYZR 100700Z AUTO 20003KT 1 3/4SM BR SCT041 21/20 A2994 RMK SLP138 DENSITY ALT 1400FT

2010/08/10 07:00
CYZS 100700Z 36007KT 15SM FEW210 09/04 A2997 RMK CI1 SLP152

2010/08/10 07:00
CYZT 100700Z 26004KT 15SM FEW016 SCT220 13/09 A3000 RMK SC2CI1 SLP158

2010/08/10 07:00
CZCP 100700Z AUTO 07010KT 1/8SM CLR 07/ A2973 RMK SLP073

2010/08/10 07:00
CZPC 100700Z AUTO 27012KT 9SM CLR 14/10 A2984 RMK SLP088

2010/08/10 07:00
CZUM 100700Z AUTO 29004KT 9SM FEW015 FEW052 09/09 A2966 RMK SLP053

2010/08/10 07:00
FMNA 100700Z 160//KT 9999 VCSH FEW017 BKN033 24/20 Q1017

2010/08/10 07:00
FMSD 100700Z 00000KT 9999 FEW020 24/18 Q1020

2010/08/10 07:00
HEAR 100700Z 27001KT 9999 SCT020 30/21 Q1007

2010/08/10 07:00
HEAT 100700Z 34009KT CAVOK 31/18 Q1009

2010/08/10 07:00
HEIS 100700Z 32008KT 9999 SCT025 29/22 Q1008

2010/08/10 07:00
HESH 100700Z 36020KT CAVOK 33/17 Q1004

2010/08/10 07:00
LEGT 100700Z 09003KT 8000 FEW050 25/14 Q1019

2010/08/10 07:00
LERI 100700Z 17003KT CAVOK 26/17 Q1016 NOSIG

2010/08/10 06:50
LGHI 100650Z 36012KT CAVOK 29/22 Q1007

2010/08/10 06:50
LIMP 100650Z VRB03KT 8000 NSC 23/18 Q1016 RMK VIS MIN 6000N

2010/08/10 06:50
LIMZ 100650Z VRB03KT CAVOK 21/18 Q1017 RMK VIS MIN 8000N

2010/08/10 06:55
LIRM 100655Z 09005KT 9999 FEW040 SCT070 26/23 Q1016 RMK SCT VIS MIN 9999 WIND THR06 08005KT BLU

2010/08/10 07:02
LKKB 100702Z VRB01KT CAVOK 17/15 Q1018 NOSIG

2010/08/10 07:00
LKKV 100700Z VRB01KT CAVOK 17/13 Q1019 RMK REG QNH 1015

2010/08/10 07:00
OYAG 100700Z 09011KT 9999 SCT030 28/22 Q1005

2010/08/10 07:00
OYAT 100700Z 15013KT CAVOK 32/16 Q1003

2010/08/10 07:00
OYIB 100700Z 04006KT 9999 SCT030 24/17 Q1018

2010/08/10 07:00
OYRN 100700Z 11009KT CAVOK 29/24 Q1005

2010/08/10 07:00
OYSH 100700Z 15008KT 4000 DU NSC 25/18 Q////

2010/08/10 07:00
OYSY 100700Z 20010KT 160V230 CAVOK 37/14 Q1006

2010/08/10 07:00
UDYZ 100700Z VRB02MPS 9999 SKC 32/11 Q1012 09010070 NOSIG

2010/08/10 07:00
WMAU 100700Z 23005KT 9999 FEW020 BKN140 31/24 Q//// QFF1007

2010/08/10 07:00
WMBA 100700Z 13003KT 9999 SCT021 BKN280 33/25 Q1006

2010/08/10 07:00
WMKA 100700Z 30004KT 9999 FEW020 BKN270 31/25 Q1007

2010/08/10 07:00
WMKB 100700Z 27004KT 7000 SCT020 SCT140 BKN270 33/26 Q1006 NOSIG

2010/08/10 07:00
WMKC 100700Z 01006KT 9999 SCT018 SCT140 BKN240 31/25 Q1007

2010/08/10 07:00
WMKD 100700Z 22008KT 9999 SCT020 BKN280 34/26 Q1006 NOSIG

2010/08/10 07:00
WMKI 100700Z 18004KT 9999 FEW020 BKN300 33/23 Q1006

2010/08/10 07:00
WMKL 100700Z 26003KT 9999 FEW020 SCT140 BKN270 30/26 Q1007

2010/08/10 07:00
WMKM 100700Z 17007KT 120V290 9999 FEW021 BKN140 31/25 Q1008

2010/08/10 07:00
WMKN 100700Z 10006KT 9999 FEW018 OVC220 32/28 Q1006

2010/08/10 06:55
EHJR 100655Z AUTO 20019G21KT //// 17/16 Q1010 W17/S3

2010/08/10 07:00
UTAA 100700Z 01003MPS 330V030 9999 SKC 37/04 Q1011 NOSIG

2010/08/10 07:00
UMBB 100700Z 00000MPS 9999 TS OVC014CB 21/18 Q1017 R29/CLRD// TEMPO RSRA

2010/08/10 07:00
UMGG 100700Z VRB02MPS 9999 SCT040 BKN100 23/21 Q1016 R10/CLRD// NOSIG

2010/08/10 07:00
UMII 100700Z 01004MPS P6000 FEW010 BKN100 21/17 Q1016 R05/CLRD// NOSIG

2010/08/10 07:00
UMMG 100700Z 12002MPS CAVOK 21/17 Q1016 R17/CLRD// NOSIG

2010/08/10 07:00
UMMM 100700Z 02003MPS CAVOK 20/15 Q1016 R30/CLRD// NOSIG RMK QFE743

2010/08/10 07:00
UMMS 100700Z 34003MPS 300V360 CAVOK 21/17 Q1017 R31/CLRD// NOSIG

2010/08/10 07:00
UMOO 100700Z 34002MPS 8000 NSC 20/18 Q1015 NOSIG

2010/08/10 07:00
VTSB 100700Z 25010KT 8000 VCSH SCT018 BKN120 30/23 Q1007 A2975 VCSH W TO NW

2010/08/10 07:00
VTSM 100700Z 29013KT 9999 SCT020 BKN300 33/24 Q1008 A2977

2010/08/10 07:00
VTSF 100700Z 29005KT 250V340 9999 SCT018 BKN022 OVC300 30/24 Q1006 A2973

2010/08/10 07:00
VTSG 100700Z 33005KT 290V020 9999 FEW020 BKN120 29/25 Q1 007/A2975 RWY32 INFO S

2010/08/10 07:00
GQPP 100700Z 32010KT CAVOK 21/20 Q1013 NOSIG

2010/08/10 07:00
VTCH 100700Z VRB04KT 9999 FEW025 SCT030 33/22 Q1003

2010/08/10 07:00
VTPH 100700Z 14005KT 9999 SCT028 32/25 Q1004

2010/08/10 07:00
VTUU 100700Z 18002KT 9999 SCT023 BKN300 32/25 Q1003 A2963 NOSIG

2010/08/10 07:00
VTUW 100700Z 31003KT 9999 SCT024 BKN300 31/24 Q1004 A2966 RWY15 INFO G

2010/08/10 07:00
VTBO 100700Z 23012KT 9999 BKN022 BKN080 29/25 Q1005

2010/08/10 06:55
LIMT 100655Z /////KT 7000 NSC 16/16 Q1018 RMK FEW FEW070 MON LIB VAL FOSCHIA VIS MIN 7000

2010/08/10 06:55
LIMU 100655Z 02004KT 9999 FEW023 22/22 Q1017 RMK BKN SCT070 QUK 1 QUL 1 SE VIS MAR 12 KM VIS MIN 9999

2010/08/10 06:55
LIMV 100655Z 18003KT 6000 FEW014 17/16 Q1018 RMK FEW MON LIB CUF VAL FOSCHIA VIS MIN 6000

2010/08/10 06:55
LIVD 100655Z 00000KT 9999 FEW035 16/15 Q1021 RMK SCT SCT200 VIS MIN 9999

2010/08/10 06:55
LIVE 100655Z 00000KT 9999 SCT025 12/09 Q1021 RMK SCT VIS MIN 9999

2010/08/10 06:55
LIVM 100655Z 09001KT CAVOK 23/21 Q1015 RMK FEW FEW200 QUK 0 QUL 0 VIS MAR 10 KM VIS MIN 9999

2010/08/10 06:55
LIVO 100655Z 00000KT 9999 BKN025 16/16 Q1019 RMK BKN VIS MIN 9999

2010/08/10 06:55
LIVR 100655Z 33003KT 9999 BKN010 12/11 Q1023 RMK BKN MON INVIS VIS MIN 9999

2010/08/10 06:55
LIVT 100655Z 07009G19KT CAVOK 25/16 Q1015 RMK FEW FEW200 QUK 3 QUL 1 NE VIS MAR 20 KM VIS MIN 9999

2010/08/10 07:00
GVAC 100700Z 03003KT 9999 SCT014 23/19 Q1014 NOSIG

2010/08/10 07:00
OIII 100700Z 20006KT 9999 FEW040 31/M00 Q1017 A3003 881.7

2010/08/10 06:50
LIBF 100650Z 29010KT CAVOK 28/14 Q1014 RMK VIS MIN 9999

2010/08/10 06:50
LIEA 100650Z VRB01KT CAVOK 22/13 Q1016 RMK VIS MIN 9999

2010/08/10 06:55
LIED 100655Z 36002KT CAVOK 24/11 Q1016 RMK SKC VIS MIN 9999 BLU

2010/08/10 06:50
LIEO 100650Z 05006KT 360V070 CAVOK 26/13 Q1016 RMK VIS MIN 9999

2010/08/10 06:50
LIMA 100650Z 00000KT CAVOK 22/17 Q1016 RMK VIS MIN 9999

2010/08/10 06:55
LIQW 100655Z 29003KT CAVOK 22/20 Q1016 RMK SKC VIS MIN 9999 BLU

2010/08/10 06:55
LIRE 100655Z 12006KT CAVOK 25/20 Q1015 RMK SKC VIS MIN 9999 WIND THR31 14006KT BLU

2010/08/10 06:55
LIRG 100655Z 00000KT CAVOK 24/18 Q1015 RMK SKC MON NE LIB NC VIS MIN 9999 BLU

2010/08/10 06:55
LIRH 100655Z 17002KT CAVOK 24/19 Q1015 RMK FEW FEW130 MON LIB NC VIS MIN 9999 WIND THR16 16002KT BLU

2010/08/10 06:50
LIRI 100650Z 06004KT 040V110 9999 SCT030 SCT060 25/17 Q1015 RMK VIS MIN 9999

2010/08/10 06:55
LIRL 100655Z 13003KT CAVOK 24/19 Q1015 RMK FEW FEW170 MON LIB NC VIS MIN 9999 BLU

2010/08/10 06:55
LIRM 100655Z 09005KT 9999 FEW040 SCT070 26/23 Q1016 RMK SCT VIS MIN 9999 WIND THR06 08005KT BLU

2010/08/10 06:55
LIRS 100655Z 05004KT CAVOK 22/17 Q1015 RMK SKC VIS MIN 9999 WIND THR21 /////KT BLU

2010/08/10 06:50
LIRU 100650Z 36003KT CAVOK 24/20 Q1015 RMK VIS MIN 9999

2010/08/10 06:55
LIRV 100655Z 06009KT CAVOK 22/15 Q1016 RMK SKC MON E SE LIB NC VIS MIN 9999 BLU

2010/08/10 06:55
LIRX 100655Z 36006KT CAVOK 21/17 Q1015 RMK FEW FEW100 VIS MIN 9999N VIS MAR 18 KM

2010/08/10 06:50
LIRZ 100650Z 36003KT 320V050 CAVOK 21/16 Q1017 RMK VIS MIN 9999

2010/08/10 06:50
LIMG 100650Z 29002KT 230V340 9999 FEW050 23/16 Q1016 RMK VIS MIN 9999

2010/08/10 06:55
LIMK 100655Z 05002KT CAVOK 19/18 Q1017 RMK BKN BKN070 VAL FOSCHIA VIS MIN 9999

2010/08/10 06:55
LIMN 100655Z 04004KT 9999 BKN060 20/16 Q1016 RMK BKN VIS MIN 9999 BLU

2010/08/10 06:50
LIMP 100650Z VRB03KT 8000 NSC 23/18 Q1016 RMK VIS MIN 6000N

2010/08/10 06:55
LIMS 100655Z 27006KT CAVOK 22/20 Q1015 RMK SCT SCT100 VIS MIN 9999 WIND THR30 27001KT BLU

2010/08/10 06:50
LIMZ 100650Z VRB03KT CAVOK 21/18 Q1017 RMK VIS MIN 8000N

2010/08/10 06:55
LIPA 100655Z 00000KT 9999 FEW040 24/22 Q1015 RMK FEW VIS MIN 9999 A3000 BLU

2010/08/10 06:50
LIPB 100650Z 14002KT 9999 FEW040 SCT060TCU 22/16 Q1018 RMK MON LIB VIS MIN9999

2010/08/10 06:55
LIPF 100655Z 00000KT 6000 NSC 22/21 Q1015 RMK FEW FEW240 VIS MIN 6000

2010/08/10 06:45
LIPH 100645Z 05004KT CAVOK 25/20 Q1016 RMK SCT SCT180 VIS MIN 9999 WIND THR07 /////KT BLU

2010/08/10 06:55
LIPI 100655Z 01005KT 9999 FEW090 25/18 Q1016 RMK SCT SCT160 VIS MIN 9999 WIND THR06 /////KT BLU

2010/08/10 06:55
LIPL 100655Z 09001KT 9999 FEW030 SCT080 22/21 Q1016 RMK BKN VIS MIN 9999 BLK BLU

2010/08/10 06:50
LIPO 100650Z 07004KT 040V100 8000 SCT050 24/18 Q1016 RMK VIS MIN 8000

2010/08/10 06:50
LIPQ 100650Z VRB01KT CAVOK 23/19 Q1016

2010/08/10 06:45
LIPR 100645Z 25001KT CAVOK 23/22 Q1015 RMK SKC VIS MIN 9999 WIND THR31 00000KT BLU

2010/08/10 06:55
LIPS 100655Z 08003KT 9999 FEW020 26/18 Q1016 RMK FEW VIS MIN 9999 BLU

2010/08/10 06:45
LIPX 100645Z 07003KT 9999 FEW040 24/22 Q1015 RMK FEW VIS MIN 9999 BLU

2010/08/10 06:50
LIPY 100650Z 22003KT 190V250 9999 FEW040 23/18 Q1015 RMK VIS MIN 9999

2010/08/10 06:55
LIVC 100655Z 03009KT CAVOK 12/01 Q1025 RMK SKC MON LIB VAL CLD SCT NC VIS MIN 9999

2010/08/10 06:55
LIVP 100655Z 04004KT 1200 BR BKN002 10/08 Q1024 RMK BKN MON INVIS VAL CLD SCT NEBBIA INF VIS MIN 1200

2010/08/10 06:55
LIMT 100655Z /////KT 7000 NSC 16/16 Q1018 RMK FEW FEW070 MON LIB VAL FOSCHIA VIS MIN 7000

2010/08/10 06:55
LIMU 100655Z 02004KT 9999 FEW023 22/22 Q1017 RMK BKN SCT070 QUK 1 QUL 1 SE VIS MAR 12 KM VIS MIN 9999

2010/08/10 06:55
LIMV 100655Z 18003KT 6000 FEW014 17/16 Q1018 RMK FEW MON LIB CUF VAL FOSCHIA VIS MIN 6000

2010/08/10 06:55
LIVD 100655Z 00000KT 9999 FEW035 16/15 Q1021 RMK SCT SCT200 VIS MIN 9999

2010/08/10 06:55
LIVE 100655Z 00000KT 9999 SCT025 12/09 Q1021 RMK SCT VIS MIN 9999

2010/08/10 06:55
LIVM 100655Z 09001KT CAVOK 23/21 Q1015 RMK FEW FEW200 QUK 0 QUL 0 VIS MAR 10 KM VIS MIN 9999

2010/08/10 06:55
LIVO 100655Z 00000KT 9999 BKN025 16/16 Q1019 RMK BKN VIS MIN 9999

2010/08/10 06:55
LIVR 100655Z 33003KT 9999 BKN010 12/11 Q1023 RMK BKN MON INVIS VIS MIN 9999

2010/08/10 06:55
LIVT 100655Z 07009G19KT CAVOK 25/16 Q1015 RMK FEW FEW200 QUK 3 QUL 1 NE VIS MAR 20 KM VIS MIN 9999

2010/08/10 06:55
KQVE 100655Z AUTO 24507KT 9999 FEW190 30/21 A2985 RMK AO2 SLP046

2010/08/10 07:00
VTBS 100700Z 19012KT 170V260 9999 FEW020CB BKN300 32/23 Q1004 CB N NOSIG

2010/08/10 07:00
VTBD 100700Z 26010KT 9999 SCT020CB BKN300 34/23 Q1003 CB SE NOSIG

2010/08/10 07:00
VTCC 100700Z 21005KT 7000 RA BKN032 SCT110 29/23 Q1006 A2971

2010/08/10 07:00
VTSP 100700Z VRB04KT 7000 SCT015 BKN100 BKN300 28/25 Q1008 A2976

2010/08/10 07:00
VLVT 100700Z 20004KT 9999 SCT017 FEW040 30/25 Q1003

2010/08/10 07:00
VYYY 100700Z 23003KT 8000 BKN018 FEW025CB BKN110 31/25 Q1003

2010/08/10 07:00
VVTS 100700Z 22013KT 9999 FEW015TCU BKN017 BKN040 27/25 Q1006 NOSIG

2010/08/10 07:00
VVNB 100700Z VRB03KT 9999 FEW027TCU SCT066 BKN180 32/26 Q1003 NOSIG

2010/08/10 07:00
VDPP 100700Z 23014KT 9999 SCT015 SCT150 31/22 Q1004

2010/08/10 07:00
VVDN 100700Z 09007KT 040V140 9999 FEW017CB BKN270 32/24 Q1004 NOSIG CB/S/SW/W

2010/08/10 07:00
VDSR 100700Z 24017KT 9000 -VCRA SCT015 FEW018CB BKN040 25/23 Q1004 CB S SW W

2010/08/10 07:00
VVPB 100700Z 29013G23KT 260V330 2000 +TSRA SCT020CB BKN040 27/26 Q1006 CB/S/W/N/NE BECMG TL0800 4000 -RA

2010/08/10 07:00
DAAG 100700Z 22005KT 200V260 5000 BKN010 22/21 Q1017

2010/08/10 07:00
DAAT 100700Z 12007KT CAVOK 26/11 Q1021

2010/08/10 07:00
DABB 100700Z 31002KT CAVOK 24/19 Q1014

2010/08/10 07:00
DABC 100700Z 00000KT CAVOK 25/08 Q1019

2010/08/10 07:00
DABS 100700Z 12006KT CAVOK 24/09 Q1020

2010/08/10 07:00
DAON 100700Z 00000KT CAVOK 24/22 Q1017

2010/08/10 07:00
DAOO 100700Z 02003KT 9999 FEW016 SCT100 25/23 Q1016

2010/08/10 07:00
DAUH 100700Z 09014KT CAVOK 31/13 Q1014

2010/08/10 07:00
DAUZ 100700Z 12010KT CAVOK 29/06 Q1016

2010/08/10 07:00
DAAD 100700Z 00000KT CAVOK 28/15 Q1019

2010/08/10 07:00
DAAE 100700Z 27003KT CAVOK 23/13 Q1015

2010/08/10 07:00
DAAJ 100700Z 09010KT 2000 HZ NSC 30/11 Q1018

2010/08/10 07:00
DAAS 100700Z 30002KT CAVOK 27/12 Q1021

2010/08/10 07:00
DAAV 100700Z 00000KT CAVOK 25/18 Q1014

2010/08/10 07:00
DAAY 100700Z 15004KT CAVOK 22/16 Q1025

2010/08/10 07:00
DABT 100700Z 16006KT CAVOK 24/05 Q1019

2010/08/10 07:00
DAFH 100700Z 10012KT CAVOK 29/18 Q1019

2010/08/10 07:00
DAMH 100700Z 00000KT CAVOK 32/13 Q1013

2010/08/10 07:00
DAOB 100700Z 00000KT CAVOK 26/08 Q1020

2010/08/10 07:00
DAOI 100700Z 00000KT CAVOK 26/17 Q1015

2010/08/10 07:00
DAOR 100700Z 33008KT CAVOK 30/13 Q1020

2010/08/10 07:00
DAOV 100700Z 00000KT CAVOK 27/15 Q1018

2010/08/10 07:00
DATF 100700Z 00000KT CAVOK 30/10 Q1015

2010/08/10 07:00
DATM 100700Z 32010KT 4000 HZ FEW046CB BKN046TCU 30/17 Q1010

2010/08/10 07:00
DAUA 100700Z 33010KT 8000 NSC 30/01 Q1013

2010/08/10 07:00
DAUB 100700Z 12004KT CAVOK 29/15 Q1015

2010/08/10 07:00
DAUE 100700Z 33005KT CAVOK 30/13 Q1017

2010/08/10 07:00
DAUG 100700Z 00000KT CAVOK 29/15 Q1018

2010/08/10 07:00
DAUI 100700Z 07015KT CAVOK 34/05 Q1012

2010/08/10 07:00
DAUK 100700Z 14010KT CAVOK 29/17 Q1015

2010/08/10 07:00
DAUO 100700Z /////KT CAVOK 27/14 Q1015

2010/08/10 07:00
DAUT 100700Z 07009KT 4000 NSC 33/10 Q1014

2010/08/10 07:00
DAUU 100700Z 06012KT CAVOK 31/17 Q1014

2010/08/10 07:00
OIAD 100700Z 00000KT 4000 HZ FEW040 SCT090 40/14 Q1002 A2959

2010/08/10 07:06
CYAM 100706Z 30005KT 1 1/2SM BR OVC003 RMK SF8 CIG RAG

2010/08/10 07:06
CYRV 100706Z AUTO 00000KT 9SM -RA FEW003 OVC012 OVC076 16/16 A2986

2010/08/10 07:00
CYEN 100700Z CCA 09009KT 15SM FEW060CB OVC140 20/15 A2982 RMK CB1AC7 FRQ DIST LTGICCCCG E-SW DIST SH E-SW PRESFR PAST HR SLP095

2010/08/10 07:08
CYFC 100708Z AUTO 20002KT 1 3/4SM BR OVC003 17/17 A2981 RMK SLP096 DENSITY ALT 400FT RVR MISG

2010/08/10 07:03
K0F2 100703Z AUTO 16005KT 10SM CLR 27/20 A2992 RMK AO2 T02690200

2010/08/10 07:03
K11R 100703Z AUTO 00000KT 10SM CLR 27/24 A2994 RMK AO2

2010/08/10 07:05
K1H2 100705Z AUTO 00000KT 7SM SCT120 25/24 A2995 RMK AO2 T02510239

2010/08/10 07:05
K3LF 100705Z AUTO 16003KT 10SM SCT120 26/24 A2994 RMK AO2

2010/08/10 07:05
K3T5 100705Z AUTO 00000KT 10SM CLR 27/24 A2992 RMK AO2 T02650244

2010/08/10 07:02
KAAA 100702Z AUTO 00000KT 10SM -VCTSRA CLR 23/21 A2992 RMK AO2 LTG DSNT NE AND W T02320211

2010/08/10 07:02
KADS 100702Z AUTO 18005KT 10SM CLR 30/17 A2990 RMK AO2 T03020173

2010/08/10 07:05
KAJG 100705Z AUTO 00000KT 3SM BR CLR 23/23 A2995 RMK AO2 T02330230

2010/08/10 07:05
KALN 100705Z AUTO 00000KT 7SM SCT120 26/26 A2994 RMK AO2 T02610255

2010/08/10 07:02
KAPY 100702Z AUTO 15007KT 10SM CLR 28/24 A2992 RMK AO2 T02810236

2010/08/10 07:05
KAQO 100705Z AUTO 18005KT CLR 28/22 A2998 RMK AO2 PWINO

2010/08/10 07:05
KARM 100705Z AUTO 00000KT 7SM CLR 26/24 A2993 RMK AO2 T02620235

2010/08/10 07:07
KASW 100707Z AUTO 00000KT 2SM BR SCT004 BKN040 BKN060 23/22 A2997 RMK AO2 VIS 1V3 T02290223

2010/08/10 07:05
KAXH 100705Z AUTO 00000KT 5SM BR CLR 25/24 A2991 RMK AO2 T02470237

2010/08/10 07:04
KBBD 100704Z AUTO 15008KT 10SM CLR 28/19 A2997 RMK

2010/08/10 07:01
KBEA 100701Z AUTO 00000KT 10SM CLR 26/25 A2993 RMK AO2 T02550250

2010/08/10 07:00
KBKD 100700Z AUTO 19009G14KT 10SM CLR 30/18 A2992 RMK AO2 T02960181

2010/08/10 07:05
KBKS 100705Z AUTO 00000KT 10SM BKN024 BKN031 28/26 A2991 RMK AO1 T02780260

2010/08/10 07:07
KBPC 100707Z AUTO 23003KT 10SM CLR 23/16 A2998 RMK AO2

2010/08/10 07:03
KC09 100703Z AUTO 00000KT 7SM VCTS SCT041 BKN080 25/23 A2994 RMK AO2 LTG DSNT SE AND S

2010/08/10 07:05
KC75 100705Z AUTO 09005KT 10SM CLR 25/25 A2993 RMK AO2 LTG DSNT E T02520245

2010/08/10 07:00
KCIR 100700Z AUTO 00000KT 7SM CLR 27/24 A2994 RMK AO2

2010/08/10 07:05
KERV 100705Z AUTO 15004KT 10SM CLR 26/22 A2999 RMK AO2 T02610221

2010/08/10 07:02
KF05 100702Z AUTO 24008KT 10SM CLR 30/19 A2992 RMK AO2 T02980190

2010/08/10 07:03
KFWS 100703Z AUTO 00000KT 10SM CLR 29/21 A2992 RMK AO2 T02850206 TSNO

2010/08/10 07:02
KGDJ 100702Z AUTO 15003KT 10SM CLR 29/20 A2992 RMK AO2 T02920197

2010/08/10 07:05
KGNC 100705Z AUTO 00000KT 10SM CLR 21/19 A3005 RMK AO2 T02050190

2010/08/10 07:07
KGPM 100707Z AUTO 22003KT 10SM CLR 30/20 A2992 RMK AO2

2010/08/10 07:05
KGWB 100705Z AUTO 00000KT 3/4SM BR BKN041 BKN060 23/21 A2997 RMK AO2

2010/08/10 07:04
KGYB 100704Z AUTO 00000KT 10SM CLR 26/24 A2998 RMK AO2 T02600242

2010/08/10 07:04
KGYI 100704Z AUTO 17007KT 10SM CLR 29/20 A2992 RMK AO2 T02900200

2010/08/10 07:05
KHHF 100705Z AUTO 00000KT 10SM SCT110 25/19 A2996 RMK AO2 T02510191

2010/08/10 07:03
KHRX 100703Z AUTO 21003KT 10SM CLR 22/18 A3007 RMK AO2 T02190180

2010/08/10 07:04
KJOT 100704Z AUTO 00000KT 10SM SCT033 24/21 A2994 RMK AO2 LTG DSNT SE AND S

2010/08/10 07:05
KORG 100705Z AUTO 00000KT 10SM CLR 25/25 A2992 RMK AO2

2010/08/10 07:05
KOXI 100705Z AUTO 00000KT 4SM OVC027 23/22 A2995 RMK AO1 T02270216

2010/08/10 07:00
KOZA 100700Z AUTO 16007KT 10SM CLR 28/18 A3002 RMK AO2 T02800175

2010/08/10 07:04
KPPQ 100704Z AUTO 16003KT 4SM HZ CLR 28/25 A2992 RMK AO2

2010/08/10 07:07
KPSN 100707Z AUTO 00000KT 27/24 A2994 RMK AO2 PWINO

2010/08/10 07:01
KPVW 100701Z AUTO 00000KT 10SM CLR 20/18 A3004 RMK AO2

2010/08/10 07:05
KRCR 100705Z AUTO 00000KT 3SM BR SCT038 SCT047 SCT080 26/26 A2996 RMK AO2

2010/08/10 07:05
KSFY 100705Z AUTO 05003KT 5SM BR CLR 23/22 A2991 RMK AO2

2010/08/10 07:04
KTFP 100704Z AUTO 18003KT 10SM SCT017 SCT022 SCT027 28/26 A2991 RMK AO2

2010/08/10 07:05
KJXI 100705Z AUTO 00000KT 10SM CLR 27/24 A2993 RMK AO2

2010/08/10 07:05
KLBR 100705Z AUTO 00000KT 10SM CLR 25/22 A2991 RMK AO2 T02500218

2010/08/10 07:02
KLHB 100702Z AUTO 20003KT 10SM CLR 27/24 A2993 RMK AO2 T02710240

2010/08/10 07:05
KLNC 100705Z AUTO 00000KT 10SM CLR 26/22 A2991 RMK AO2 T02570218

2010/08/10 07:05
KLUD 100705Z AUTO 17007KT 10SM CLR 29/18 A2993 RMK AO2 T02930184

2010/08/10 06:55
KMZZ 100655Z AUTO 00000KT 4SM BR CLR 23/22 A2997 RMK AO2

2010/08/10 07:15
KOLV 100715Z AUTO 00000KT 6SM CLR 25/ A2995 RMK A01 P000

2010/08/10 07:04
KOLY 100704Z AUTO 00000KT 3SM BR CLR 24/23 A2994 RMK AO2

2010/08/10 07:05
KPNT 100705Z AUTO 00000KT 10SM -TSRA SCT060 27/24 A2995 RMK AO2 LTG DSNT ALQDS

2010/08/10 07:04
KPRG 100704Z AUTO 00000KT 7SM OVC110 25/24 A2996 RMK AO2 LTG DSNT NW T02550241

2010/08/10 07:05
KRPJ 100705Z AUTO 00000KT 5SM BR CLR 23/22 A2995 RMK AO2 LTG DSNT SE T02300218

2010/08/10 07:05
KRSV 100705Z AUTO 00000KT 4SM BR CLR 24/23 A2996 RMK AO2 T02370230

2010/08/10 07:04
KBPG 100704Z AUTO 00000KT 10SM CLR 22/19 A3002 RMK AO1 T02200193

2010/08/10 06:55
KBXK 100655Z AUTO 23003KT 10SM CLR 30/10 A2982 RMK AO1

2010/08/10 07:05
KBYY 100705Z AUTO 00000KT 7SM CLR 26/26 A2991 RMK AO2 T02570255

2010/08/10 07:05
KCPT 100705Z AUTO 19005KT 10SM CLR 28/22 A2994 RMK AO2

2010/08/10 07:05
KCUL 100705Z AUTO 00000KT 7SM CLR 23/21 A2995 RMK AO2 T02320213

2010/08/10 07:05
KCVB 100705Z AUTO 00000KT 10SM CLR 27/23 A2997 RMK AO2 T02650231

2010/08/10 07:05
KCWC 100705Z AUTO 16007KT 10SM CLR 29/20 A2991 RMK AO2 T02890195

2010/08/10 07:05
KDKB 100705Z AUTO 00000KT 5SM HZ CLR 23/21 A2995 RMK AO2 LTG DSNT SE T02330206

2010/08/10 07:05
KDKR 100705Z AUTO 00000KT 10SM CLR 26/26 A2995 RMK AO2

2010/08/10 07:05
KDNV 100705Z AUTO 24006KT 7SM SCT085 BKN110 26/24 A2992 RMK AO2 T02580235

2010/08/10 07:07
KDUX 100707Z AUTO 19008KT 10SM CLR 22/17 A3004 RMK AO2 T02230171

2010/08/10 07:05
KDZB 100705Z AUTO 17006KT 7SM CLR 27/23 A2994 RMK AO2 T02700225

2010/08/10 07:04
KE38 100704Z AUTO 25004KT 10SM CLR 19/17 A3016 RMK AO2 T01900168

2010/08/10 07:10
KEBG 100710Z AUTO 00000KT 10SM SCT015 SCT022 SCT027 28/26 A2992 RMK AO2 T02770256

2010/08/10 07:05
KECU 100705Z AUTO 14009KT 10SM SCT019 26/22 A3007 RMK AO2

2010/08/10 07:05
KENL 100705Z AUTO 00000KT 7SM CLR 24/23 A2995 RMK AO2 T02420232

2010/08/10 07:05
KFEP 100705Z AUTO 05004KT 24/22 A2996 RMK AO2 T02360216 PWINO

2010/08/10 07:05
KFOA 100705Z AUTO 00000KT 7SM CLR 27/26 A2995 RMK AO2 T02650261

2010/08/10 07:05
KFWC 100705Z AUTO 00000KT 7SM CLR 25/23 A2995 RMK AO2

2010/08/10 07:05
KGBG 100705Z AUTO 14004KT 7SM CLR 25/24 A2991 RMK AO2

2010/08/10 07:05
KGOP 100705Z AUTO 19005KT 10SM CLR 28/22 A2996 RMK AO2

2010/08/10 07:04
KGVT 100704Z AUTO 00000KT 10SM CLR 26/22 A2991 RMK AO2

2010/08/10 07:05
KHSB 100705Z AUTO 00000KT 5SM BR CLR 23/22 A2995 RMK AO2

2010/08/10 07:05
KIGQ 100705Z AUTO 00000KT 10SM SCT035 24/22 A2995 RMK AO2 LTG DSNT SW

2010/08/10 07:05
KIJX 100705Z AUTO 15004KT 10SM CLR 25/22 A2993 RMK AO2 LTG DSNT NE T02520217

2010/08/10 07:05
KINJ 100705Z AUTO 16004KT 10SM CLR 27/21 A2992 RMK AO2 T02700206

2010/08/10 07:05
KJAS 100705Z AUTO 00000KT 10SM CLR 27/25 A2994 RMK AO2 T02650250

2010/08/10 07:05
KJDD 100705Z AUTO 00000KT 10SM CLR 26/23 A2992 RMK AO2

2010/08/10 07:05
KJSO 100705Z AUTO 18005KT 10SM CLR 28/24 A2996 RMK AO2 T02760237

2010/08/10 07:04
KJWY 100704Z AUTO 20004KT 10SM CLR 27/21 A2991 RMK AO2 T02650205

2010/08/10 07:06
KATY 100706Z AUTO 13006KT 10SM SCT029 24/22 A2990 RMK AO2

2010/08/10 07:06
KBRD 100706Z AUTO 00000KT 3/4SM BR CLR 21/18 A2996 RMK AO2

2010/08/10 07:06
KDSV 100706Z AUTO 00000KT 3SM -RA BR FEW014 BKN048 OVC060 22/21 A2997 RMK AO2 P0003 $

2010/08/10 07:06
KFNT 100706Z 00000KT 1SM BR 21/20 A2996 RMK AO2 RVRNO $

2010/08/10 07:06
KLBF 100706Z AUTO 31006KT 10SM FEW060 19/19 A2995 RMK AO2 LTG DSNT NW-E TSE00RAE03 P0000

2010/08/10 07:06
KMTH 100706Z AUTO 21007KT 4SM RA BR FEW010 BKN042 OVC065 26/24 A2985 RMK AO2 LTG DSNT S AND SW P0004

2010/08/10 07:06
KSYR 100706Z 13003KT 2 1/2SM BR BKN022 OVC050 21/21 A2995 RMK AO2

2010/08/10 07:04
KY50 100704Z AUTO 00000KT M1/4SM FG BKN001 20/20 A2996 RMK AO2

2010/08/10 07:05
KMSN 100705Z 00000KT 1/2SM FG VV001 22/22 A2995 RMK AO2

2010/08/10 07:07
KAQW 100707Z AUTO 00000KT 4SM BR SCT003 SCT007 OVC019 21/20 A2995 RMK AO2

2010/08/10 07:07
KBBW 100707Z AUTO 28008G16KT 2 1/2SM +TSRA BR OVC015 19/18 A2998 RMK AO2 LTG DSNT ALQDS P0018 $

2010/08/10 07:07
KBMG 100707Z 00000KT 2SM BR CLR 22/21 A2996 RMK AO2

2010/08/10 07:08
KBMI 100708Z AUTO 00000KT 10SM TS FEW002 24/22 A2996 RMK AO2 PWINO LTG DSNT NW-E $

2010/08/10 07:05
KBTV 100705Z 00000KT 1SM BR VV003 18/18 A2991 RMK AO2 RVRNO

2010/08/10 07:07
KEKN 100707Z AUTO 00000KT 2 1/2SM BR BKN003 17/17 A3008 RMK AO2 CIG 001V005 TSNO

2010/08/10 07:07
KHIB 100707Z AUTO 00000KT 2SM BR CLR 17/17 A2997 RMK AO2

2010/08/10 06:55
EHSA 100655Z AUTO 23022G25KT 9999 18/16 Q1012 W19/S4

2010/08/10 06:55
EHSC 100655Z AUTO 23020G22KT 9999 18/15 Q1012 W///S3

2010/08/10 07:00
LPFR 100700Z VRB03KT CAVOK 26/17 Q1015

2010/08/10 07:00
LPMA 100700Z VRB01KT 9999 BKN015 22/19 Q1016 RS34001KT 0518001KT 2324002KT

2010/08/10 07:00
LPPR 100700Z 00000KT 7000 FEW090 23/16 Q1016

2010/08/10 07:00
LPPS 100700Z 35005KT 9000 SCT011 22/19 Q1016

2010/08/10 07:00
LPPT 100700Z 00000KT CAVOK 28/17 Q1016 NOSIG

2010/08/10 07:00
FMNM 100700Z 16012KT CAVOK 28/14 Q1018

2010/08/10 07:00
FMMT 100700Z 22006KT 9999 FEW017 24/20 Q1022

2010/08/10 07:00
FMNA 100700Z 160//KT 9999 VCSH FEW017 BKN033 24/20 Q1017

2010/08/10 07:00
FMSD 100700Z 00000KT 9999 FEW020 24/18 Q1020

2010/08/10 07:00
FMCH 100700Z 20005KT 170V240 9999 FEW023 SCT030 27/22 Q1020 NOSIG

2010/08/10 07:00
FASK 100700Z 15020KT CAVOK 06/// Q1032

2010/08/10 07:00
FALM 100700Z 10010KT 8000 -DZ BKN025 13/// Q1030

2010/08/10 07:00
SEQU 100700Z 34001KT 9999 SCT040 11/04 Q1027 RMK A3034 NOSIG

2010/08/10 07:00
SEGU 100700Z 23005KT 200V260 9999 BKN023 BKN090 23/19 Q1013 NOSIG

2010/08/10 07:00
SEMT 100700Z 20008KT 9999 BKN020 23/21 Q1013

2010/08/10 07:00
FMMI 100700Z VRB03KT 9999 FEW020 20/14 Q1027 NOSIG

2010/08/10 07:00
FMNM 100700Z 16012KT CAVOK 28/14 Q1018

2010/08/10 07:00
FMMT 100700Z 22006KT 9999 FEW017 24/20 Q1022

2010/08/10 07:00
FMNA 100700Z 160//KT 9999 VCSH FEW017 BKN033 24/20 Q1017

2010/08/10 07:00
FMSD 100700Z 00000KT 9999 FEW020 24/18 Q1020

2010/08/10 07:00
FMCH 100700Z 20005KT 170V240 9999 FEW023 SCT030 27/22 Q1020 NOSIG

2010/08/10 06:55
LIVP 100655Z 04004KT 1200 BR BKN002 10/08 Q1024 RMK BKN MON INVIS VAL CLD SCT NEBBIA INF VIS MIN 1200

2010/08/10 06:50
LIMG 100650Z 29002KT 230V340 9999 FEW050 23/16 Q1016 RMK VIS MIN 9999

2010/08/10 06:55
LIMK 100655Z 05002KT CAVOK 19/18 Q1017 RMK BKN BKN070 VAL FOSCHIA VIS MIN 9999

2010/08/10 06:55
LIMN 100655Z 04004KT 9999 BKN060 20/16 Q1016 RMK BKN VIS MIN 9999 BLU

2010/08/10 06:50
LIMP 100650Z VRB03KT 8000 NSC 23/18 Q1016 RMK VIS MIN 6000N

2010/08/10 06:55
LIMS 100655Z 27006KT CAVOK 22/20 Q1015 RMK SCT SCT100 VIS MIN 9999 WIND THR30 27001KT BLU

2010/08/10 06:50
LIMZ 100650Z VRB03KT CAVOK 21/18 Q1017 RMK VIS MIN 8000N

2010/08/10 06:55
LIPA 100655Z 00000KT 9999 FEW040 24/22 Q1015 RMK FEW VIS MIN 9999 A3000 BLU

2010/08/10 06:50
LIPB 100650Z 14002KT 9999 FEW040 SCT060TCU 22/16 Q1018 RMK MON LIB VIS MIN9999

2010/08/10 06:55
LIPF 100655Z 00000KT 6000 NSC 22/21 Q1015 RMK FEW FEW240 VIS MIN 6000

2010/08/10 06:45
LIPH 100645Z 05004KT CAVOK 25/20 Q1016 RMK SCT SCT180 VIS MIN 9999 WIND THR07 /////KT BLU

2010/08/10 06:55
LIPI 100655Z 01005KT 9999 FEW090 25/18 Q1016 RMK SCT SCT160 VIS MIN 9999 WIND THR06 /////KT BLU

2010/08/10 06:55
LIPL 100655Z 09001KT 9999 FEW030 SCT080 22/21 Q1016 RMK BKN VIS MIN 9999 BLK BLU

2010/08/10 06:50
LIPO 100650Z 07004KT 040V100 8000 SCT050 24/18 Q1016 RMK VIS MIN 8000

2010/08/10 06:50
LIPQ 100650Z VRB01KT CAVOK 23/19 Q1016

2010/08/10 06:45
LIPR 100645Z 25001KT CAVOK 23/22 Q1015 RMK SKC VIS MIN 9999 WIND THR31 00000KT BLU

2010/08/10 06:55
LIPS 100655Z 08003KT 9999 FEW020 26/18 Q1016 RMK FEW VIS MIN 9999 BLU

2010/08/10 06:45
LIPX 100645Z 07003KT 9999 FEW040 24/22 Q1015 RMK FEW VIS MIN 9999 BLU

2010/08/10 06:50
LIPY 100650Z 22003KT 190V250 9999 FEW040 23/18 Q1015 RMK VIS MIN 9999

2010/08/10 06:55
LIVC 100655Z 03009KT CAVOK 12/01 Q1025 RMK SKC MON LIB VAL CLD SCT NC VIS MIN 9999

2010/08/10 06:50
LIBF 100650Z 29010KT CAVOK 28/14 Q1014 RMK VIS MIN 9999

2010/08/10 06:50
LIEA 100650Z VRB01KT CAVOK 22/13 Q1016 RMK VIS MIN 9999

2010/08/10 06:55
LIED 100655Z 36002KT CAVOK 24/11 Q1016 RMK SKC VIS MIN 9999 BLU

2010/08/10 06:50
LIEO 100650Z 05006KT 360V070 CAVOK 26/13 Q1016 RMK VIS MIN 9999

2010/08/10 06:50
LIMA 100650Z 00000KT CAVOK 22/17 Q1016 RMK VIS MIN 9999

2010/08/10 06:55
LIQW 100655Z 29003KT CAVOK 22/20 Q1016 RMK SKC VIS MIN 9999 BLU

2010/08/10 06:55
LIRE 100655Z 12006KT CAVOK 25/20 Q1015 RMK SKC VIS MIN 9999 WIND THR31 14006KT BLU

2010/08/10 06:55
LIRG 100655Z 00000KT CAVOK 24/18 Q1015 RMK SKC MON NE LIB NC VIS MIN 9999 BLU

2010/08/10 06:55
LIRH 100655Z 17002KT CAVOK 24/19 Q1015 RMK FEW FEW130 MON LIB NC VIS MIN 9999 WIND THR16 16002KT BLU

2010/08/10 06:50
LIRI 100650Z 06004KT 040V110 9999 SCT030 SCT060 25/17 Q1015 RMK VIS MIN 9999

2010/08/10 06:55
LIRL 100655Z 13003KT CAVOK 24/19 Q1015 RMK FEW FEW170 MON LIB NC VIS MIN 9999 BLU

2010/08/10 06:55
LIRM 100655Z 09005KT 9999 FEW040 SCT070 26/23 Q1016 RMK SCT VIS MIN 9999 WIND THR06 08005KT BLU

2010/08/10 06:55
LIRS 100655Z 05004KT CAVOK 22/17 Q1015 RMK SKC VIS MIN 9999 WIND THR21 /////KT BLU

2010/08/10 06:50
LIRU 100650Z 36003KT CAVOK 24/20 Q1015 RMK VIS MIN 9999

2010/08/10 06:55
LIRV 100655Z 06009KT CAVOK 22/15 Q1016 RMK SKC MON E SE LIB NC VIS MIN 9999 BLU

2010/08/10 06:55
LIRX 100655Z 36006KT CAVOK 21/17 Q1015 RMK FEW FEW100 VIS MIN 9999N VIS MAR 18 KM

2010/08/10 06:50
LIRZ 100650Z 36003KT 320V050 CAVOK 21/16 Q1017 RMK VIS MIN 9999

2010/08/10 07:00
SAEZ 100700Z 00000KT 8000 03/02 Q1028

2010/08/10 07:00
UMBB 100700Z 00000MPS 9999 TS OVC014CB 21/18 Q1017 R29/CLRD// TEMPO RSRA

2010/08/10 07:00
UMGG 100700Z VRB02MPS 9999 SCT040 BKN100 23/21 Q1016 R10/CLRD// NOSIG

2010/08/10 07:00
UMII 100700Z 01004MPS P6000 FEW010 BKN100 21/17 Q1016 R05/CLRD// NOSIG

2010/08/10 07:00
UMMG 100700Z 12002MPS CAVOK 21/17 Q1016 R17/CLRD// NOSIG

2010/08/10 07:00
UMMM 100700Z 02003MPS CAVOK 20/15 Q1016 R30/CLRD// NOSIG RMK QFE743

2010/08/10 07:00
UMMS 100700Z 34003MPS 300V360 CAVOK 21/17 Q1017 R31/CLRD// NOSIG

2010/08/10 07:00
UMOO 100700Z 34002MPS 8000 NSC 20/18 Q1015 NOSIG

2010/08/10 07:00
LPAZ 100700Z 06004KT 030V090 9999 FEW018 BKN036 20/16 Q1019

2010/08/10 07:00
LPHR 100700Z 36005KT 9999 FEW016 BKN040 20/15 Q1021

2010/08/10 07:00
LPLA 100700Z 00000KT 9999 FEW018 BKN035 21/17 Q1022

2010/08/10 07:00
LPPD 100700Z VRB02KT 9999 FEW020 BKN040 20/14 Q1020

2010/08/10 06:50
LIMG 100650Z 29002KT 230V340 9999 FEW050 23/16 Q1016 RMK VIS MIN 9999

2010/08/10 06:55
LIMK 100655Z 05002KT CAVOK 19/18 Q1017 RMK BKN BKN070 VAL FOSCHIA VIS MIN 9999

2010/08/10 06:55
LIMN 100655Z 04004KT 9999 BKN060 20/16 Q1016 RMK BKN VIS MIN 9999 BLU

2010/08/10 06:50
LIMP 100650Z VRB03KT 8000 NSC 23/18 Q1016 RMK VIS MIN 6000N

2010/08/10 06:55
LIMS 100655Z 27006KT CAVOK 22/20 Q1015 RMK SCT SCT100 VIS MIN 9999 WIND THR30 27001KT BLU

2010/08/10 06:50
LIMZ 100650Z VRB03KT CAVOK 21/18 Q1017 RMK VIS MIN 8000N

2010/08/10 06:55
LIPA 100655Z 00000KT 9999 FEW040 24/22 Q1015 RMK FEW VIS MIN 9999 A3000 BLU

2010/08/10 06:50
LIPB 100650Z 14002KT 9999 FEW040 SCT060TCU 22/16 Q1018 RMK MON LIB VIS MIN9999

2010/08/10 06:55
LIPF 100655Z 00000KT 6000 NSC 22/21 Q1015 RMK FEW FEW240 VIS MIN 6000

2010/08/10 06:45
LIPH 100645Z 05004KT CAVOK 25/20 Q1016 RMK SCT SCT180 VIS MIN 9999 WIND THR07 /////KT BLU

2010/08/10 06:55
LIPI 100655Z 01005KT 9999 FEW090 25/18 Q1016 RMK SCT SCT160 VIS MIN 9999 WIND THR06 /////KT BLU

2010/08/10 06:55
LIPL 100655Z 09001KT 9999 FEW030 SCT080 22/21 Q1016 RMK BKN VIS MIN 9999 BLK BLU

2010/08/10 06:50
LIPO 100650Z 07004KT 040V100 8000 SCT050 24/18 Q1016 RMK VIS MIN 8000

2010/08/10 06:50
LIPQ 100650Z VRB01KT CAVOK 23/19 Q1016

2010/08/10 06:45
LIPR 100645Z 25001KT CAVOK 23/22 Q1015 RMK SKC VIS MIN 9999 WIND THR31 00000KT BLU

2010/08/10 06:55
LIPS 100655Z 08003KT 9999 FEW020 26/18 Q1016 RMK FEW VIS MIN 9999 BLU

2010/08/10 06:45
LIPX 100645Z 07003KT 9999 FEW040 24/22 Q1015 RMK FEW VIS MIN 9999 BLU

2010/08/10 06:50
LIPY 100650Z 22003KT 190V250 9999 FEW040 23/18 Q1015 RMK VIS MIN 9999

2010/08/10 06:55
LIVC 100655Z 03009KT CAVOK 12/01 Q1025 RMK SKC MON LIB VAL CLD SCT NC VIS MIN 99

2010/08/10 06:55
LIBA 100655Z 30003KT 9999 FEW030 23/20 Q1014 RMK SCT SCT080 VIS MIN 9999 WIND THR29 29005KT BLU

2010/08/10 06:50
LIBC 100650Z 33005KT CAVOK 28/13 Q1014 RMK VIS MIN 9999

2010/08/10 06:50
LIBD 100650Z 33004KT CAVOK 26/13 Q1014 RMK VIS MIN 9999

2010/08/10 06:50
LIBG 100650Z 36016KT CAVOK 28/13 Q1012 RMK VIS MIN 9999

2010/08/10 06:55
LIBN 100655Z 32015KT CAVOK 26/21 Q1013 RMK FEW FEW080 VIS MIN 9999 WIND THR14 33015G31KT BLU

2010/08/10 06:50
LIBP 100650Z VRB01KT CAVOK 24/16 Q1015 RMK VIS MIN 9999

2010/08/10 06:45
LIBR 100645Z 33022G34KT CAVOK 25/21 Q1013 NOSIG RMK FEW FEW200 VIS MIN 9999 WIND THR13 /////KT WIND THR31 32017G28KT BLU

2010/08/10 06:55
LIBV 100655Z 01012KT CAVOK 25/14 Q1013 RMK SCT FEW090 SCT200 VIS MIN 9999 WIND THR14 35014KT BLU

2010/08/10 06:50
LICA 100650Z 27011KT 9999 SCT025 26/21 Q1015 RMK VIS MIN 9999

2010/08/10 06:50
LICC 100650Z 23004KT CAVOK 25/17 Q1014 RMK VIS MIN 9999

2010/08/10 06:50
LICD 100650Z 33007KT CAVOK 25/20 Q1014 RMK VIS MIN 9999

2010/08/10 06:55
LICG 100655Z 01005KT CAVOK 27/19 Q1016 RMK SKC VIS MIN 9999 WIND THR08 /////KT WIND THR21 01003KT BLU

2010/08/10 06:50
LICJ 100650Z 30003KT CAVOK 25/19 Q1015 RMK VIS MIN 9999

2010/08/10 06:50
LICR 100650Z 35014KT 9999 FEW025 26/19 Q1014 RMK VIS MIN 9999

2010/08/10 06:55
LICT 100655Z 00000KT CAVOK 27/10 Q1015 RMK SKC VIS MIN 9999 WIND THR13 31002KT BLU

2010/08/10 06:55
LICZ 100655Z 24007KT CAVOK 26/15 Q1014 RMK SKC VIS MIN 9999 WIND THR28 /////KT BLU

2010/08/10 06:55
LIMT 100655Z /////KT 7000 NSC 16/16 Q1018 RMK FEW FEW070 MON LIB VAL FOSCHIA VIS MIN 7000

2010/08/10 06:55
LIMU 100655Z 02004KT 9999 FEW023 22/22 Q1017 RMK BKN SCT070 QUK 1 QUL 1 SE VIS MAR 12 KM VIS MIN 9999

2010/08/10 06:55
LIMV 100655Z 18003KT 6000 FEW014 17/16 Q1018 RMK FEW MON LIB CUF VAL FOSCHIA VIS MIN 6000

2010/08/10 06:55
LIVD 100655Z 00000KT 9999 FEW035 16/15 Q1021 RMK SCT SCT200 VIS MIN 9999

2010/08/10 06:55
LIVE 100655Z 00000KT 9999 SCT025 12/09 Q1021 RMK SCT VIS MIN 9999

2010/08/10 06:55
LIVM 100655Z 09001KT CAVOK 23/21 Q1015 RMK FEW FEW200 QUK 0 QUL 0 VIS MAR 10 KM VIS MIN 9999

2010/08/10 06:55
LIVO 100655Z 00000KT 9999 BKN025 16/16 Q1019 RMK BKN VIS MIN 9999

2010/08/10 06:55
LIVR 100655Z 33003KT 9999 BKN010 12/11 Q1023 RMK BKN MON INVIS VIS MIN 9999

2010/08/10 06:55
LIVT 100655Z 07009G19KT CAVOK 25/16 Q1015 RMK FEW FEW200 QUK 3 QUL 1 NE VIS MAR 20 KM VIS MIN 9999

2010/08/10 07:08
CYFC 100708Z AUTO 20002KT 1 3/4SM BR OVC003 17/17 A2981 RMK SLP096 DENSITY ALT 400FT RVR MISG

2010/08/10 07:00
BIKF 100700Z 31006KT 9999 BKN022 12/07 Q1014

2010/08/10 07:00
UAAA 100700Z 25007MPS 9999 FEW050CB BKN100 31/05 Q1008 88CLRD65 NOSIG

2010/08/10 07:00
UACC 100700Z 01007MPS 9999 BKN036 19/06 Q1019 040/0070 NOSIG RMK QFE733/0977

2010/08/10 07:00
UAFM 100700Z 25006MPS CAVOK 32/03 Q1010 NOSIG

2010/08/10 07:00
UATE 100700Z 10006G11MPS CAVOK 39/04 Q1012 120///70 NOSIG RMK QFE757/1010

2010/08/10 07:00
UATT 100700Z 09007MPS 060V120 9999 NSC 28/01 Q1021 13CLRD70 NOSIG RMK QFE746/0995

2010/08/10 07:00
UMGG 100700Z VRB02MPS 9999 SCT040 BKN100 23/21 Q1016 R10/D NOSIG

2010/08/10 07:00
UMII 100700Z 01004MPS P6000 FEW010 BKN100 21/17 Q1016 R05/D NOSIG

2010/08/10 07:00
UMKK 100700Z 33003MPS 240V360 P8000 SCT020 BKN200 20/16 Q1017 R24/70D NOSIG RMK QFE762/1016

2010/08/10 07:00
UMMM 100700Z 02003MPS CAVOK 20/15 Q1016 R30/D NOSIG RMK QFE743

2010/08/10 07:00
UMMS 100700Z 34003MPS 300V360 CAVOK 21/17 Q1017 R31/D NOSIG

2010/08/10 07:00
URKA 100700Z 14002MPS CAVOK 32/23 Q1008 NOSIG RMK 065

2010/08/10 07:00
URMM 100700Z 09006G08MPS 9999 SKC 30/18 Q1012 NOSIG RMK / SC070

2010/08/10 07:00
URSS 100700Z 26002MPS 9999 SCT100 31/23 Q1007 NOSIG RMK / QFE754 06CLRD70

2010/08/10 07:00
UTAA 100700Z 01003MPS 330V030 9999 SKC 37/04 Q1011 NOSIG

2010/08/10 07:00
UTDD 100700Z 11002MPS 070V170 9999 FEW066 FEW190 35/05 Q1008 09CLRD70 NOSIG RMK QFE688/0918

2010/08/10 07:00
UWGG 100700Z 17003MPS 140V210 3800 FU SCT230 32/11 Q1019 NOSIG 18090070 RMK QFE757

2010/08/10 07:00
UWKD 100700Z 30004MPS 270V340 CAVOK 32/12 Q1021 NOSIG RMK QFE755/1006 79CLRD70

2010/08/10 07:00
UWOO 100700Z 11003MPS 050V150 P5000 SKC 28/07 Q1022 08CLRD65 NOSIG RMK QFE756/1008

2010/08/10 07:00
VTBD 100700Z 26010KT 9999 SCT020CB BKN300 34/23 Q1003 CB SE NOSIG

2010/08/10 07:05
KGRR 100705Z AUTO 00000KT 1/2SM FG CLR 22/20 A2997

2010/08/10 07:00
KMMU 100700Z AUTO 00000KT 10SM CLR 24/20 A2993

2010/08/10 07:00
KWDR 100700Z AUTO 00000KT 10SM CLR 25/22 A3006

2010/08/10 07:00
UGTB 100700Z 29002KT 9999 SCT100 30/12 Q1015 NOSIG RMK 31CLRD80

2010/08/10 07:00
UGKO 100700Z 27008KT 9999 BKN100 32/18 Q1008 NOSIG

2010/08/10 07:00
UGSB 100700Z 26008KT 9999 FEW026 31/25 Q1007 NOSIG

2010/08/10 07:00
ULDD 100700Z 05004MPS 1700 BCFG SCT003 OVC/// 10/08 Q1012 TEMPO 0800 FG RMK QFE759

2010/08/10 07:00
UOHH 100700Z 31004MPS 9999 SCT023 BKN/// 11/04 Q1011 NOSIG RMK QFE753 24090060

2010/08/10 07:00
UOII 100700Z 36003MPS 9999 SCT026 14/04 Q1008 NOSIG RMK QFE753 30////60

2010/08/10 07:00
UOOO 100700Z 35003G04MPS 9999 BKN027 09/03 Q1008 NOSIG RMK QFE742 0119//56

2010/08/10 07:00
USCM 100700Z 17003MPS 120V200 5000 HZ SCT100 25/09 Q1022 NOSIG 19090065 RMK QFE729

2010/08/10 07:00
KOPN 100700Z AUTO 10004KT 10SM CLR 28/23 A3001

2010/08/10 06:55
KMWN 100655Z COR 31028KT 100SM BKN/// FEW/// FEW000 SCT120 SCT200 08/07

2010/08/10 07:05
KHYA 100705Z AUTO 02006KT 2 1/2SM +TSRA BR BKN014 BKN023 OVC036 21/19 A2993

2010/08/10 07:00
ULDD 100700Z 05004MPS 1700 BCFG SCT003 OVC/// 10/08 Q1012 TEMPO 0800 FG RMK QFE759

2010/08/10 07:00
UOHH 100700Z 31004MPS 9999 SCT023 BKN/// 11/04 Q1011 NOSIG RMK QFE753 24090060

2010/08/10 07:00
UOII 100700Z 36003MPS 9999 SCT026 14/04 Q1008 NOSIG RMK QFE753 30////60

2010/08/10 07:00
UOOO 100700Z 35003G04MPS 9999 BKN027 09/03 Q1008 NOSIG RMK QFE742 0119//56

2010/08/10 07:00
USCM 100700Z 17003MPS 120V200 5000 HZ SCT100 25/09 Q1022 NOSIG 19090065 RMK QFE729

2010/08/10 07:00
UIAA 100700Z VRB01MPS 9999 BKN050CB 24/11 Q1004 NOSIG RMK QFE695 29CLRD70

2010/08/10 07:00
UIBB 100700Z 30003MPS 9999 SCT030CB OVC100 15/11 Q1006 NOSIG RMK QFE712/0949 30190055

2010/08/10 07:00
UIII 100700Z 17002MPS 110V240 CAVOK 23/13 Q1003 NOSIG RMK QFE710/0947 12CLRD60

2010/08/10 07:00
UIUU 100700Z 27002MPS 170V330 9999 FEW100 BKN200 27/09 Q1002 NOSIG RMK QFE708/0944

2010/08/10 07:00
UEEE 100700Z 20002MPS 9999 FEW050CB BKN100 29/10 Q1003 NOSIG RMK QFE743 2309//60

2010/08/10 07:00
UELL 100700Z VRB02MPS 9999 SCT030CB BKN083 BKN200 21/13 Q1007 NOSIG RMK QFE681 08CLRD70

2010/08/10 07:00
UERP 100700Z 09003MPS 9999 BKN037 OVC100 11/06 Q1004 NOSIG RMK QFE709 35090065

2010/08/10 07:00
UERR 100700Z 20002MPS 9999 SCT026CB BKN100 OVC200 20/14 Q1003 NOSIG RMK QFE721 24290355

2010/08/10 07:00
UESO 100700Z 15004MPS CAVOK 15/06 Q1010 NOSIG RMK QFE755 SC060

2010/08/10 07:00
UEST 100700Z 19003MPS 9999 -RA SCT046 OVC130 14/08 Q1004 NOSIG RMK QFE752 21150060

2010/08/10 07:00
ULAA 100700Z 24003MPS 180V280 CAVOK 26/19 Q1011 NOSIG RMK QFE757/1009 SC070

2010/08/10 07:00
ULKK 100700Z 19003MPS 3700 -HZ OVC099 30/21 Q1015 NOSIG RMK QFE757 13000060

2010/08/10 07:00
ULMM 100700Z 02004MPS 8000 -SHRA OVC010CB 10/08 Q1011 NOSIG RMK QFE751 32290250

2010/08/10 07:00
ULOO 100700Z VRB01MPS P6000 SCT030 BKN200 21/18 Q1015 NOSIG RMK QFE757

2010/08/10 07:00
UMKK 100700Z 33003MPS 240V360 P8000 SCT020 BKN200 20/16 Q1017 R24/CLRD70 NOSIG RMK QFE762/1016

2010/08/10 07:00
UUBP 100700Z 28004MPS 9999 -SHRA SCT030CB OVC/// 24/18 Q1015 NOSIG

2010/08/10 07:00
UUOB 100700Z 13002MPS CAVOK 31/12 Q1015 NOSIG RMK SC065

2010/08/10 07:00
UUOK 100700Z 13005MPS 9999 SCT033 BKN200 30/16 Q1013 NOSIG

2010/08/10 07:00
UWGG 100700Z 17003MPS 140V210 3800 FU SCT230 32/11 Q1019 NOSIG 18090070 RMK QFE757

2010/08/10 07:00
UNAA 100700Z 03005MPS 9999 SCT030CB BKN100 18/09 Q1007 NOSIG RMK QFE733 020///65

2010/08/10 07:00
UNBB 100700Z 02004MPS 9999 BKN026CB 18/08 Q1009 NOSIG RMK QFE735

2010/08/10 07:00
UNEE 100700Z 34004MPS 9999 SCT033 17/06 Q1009 NOSIG RMK QFE734 23CLRD60

2010/08/10 07:00
UNKL 100700Z 28005MPS 9999 SCT040CB BKN240 16/05 Q1008 NOSIG RMK QFE730 29////65

2010/08/10 07:00
UNNT 100700Z 35005G10MPS 9999 BKN047TCU 18/06 Q1011 NOSIG RMK QFE748/0998 25090070

2010/08/10 07:00
UNOO 100700Z 35003MPS 9999 SCT033CB BKN033 14/06 Q1019 NOSIG 07CLRD06 RMK QFE756

2010/08/10 07:00
UNWW 100700Z 33004MPS 9999 SCT030 BKN130 18/10 Q1007 NOSIG RMK QFE729 01CLRD70

2010/08/10 07:00
USTR 100700Z 23005MPS 190V280 CAVOK 22/09 Q1019 NOSIG RMK QFE755/1006 30CLRD65 21CLRD65

2010/08/10 07:00
USHH 100700Z 16003MPS 8000 -SHRA BKN014CB OVC080 11/10 Q1014 TEMPO 2000 BR BKN005 RMK QFE757 SC055

2010/08/10 07:00
UHHH 100700Z 23009MPS 9999 SCT030 27/20 Q1005 NOSIG RMK QFE747/0996 23090060

2010/08/10 07:00
UHMA 100700Z 35003MPS 9999 BKN050 OVC080 13/08 Q1003 NOSIG RMK QFE748/0998 880///70

2010/08/10 07:00
UHMM 100700Z 24005MPS 9999 SCT066 19/12 Q1009 NOSIG RMK QFE741 88010070

2010/08/10 07:00
UHNN 100700Z 11005MPS 9999 OVC070 21/17 Q1010 NOSIG RMK QFE753 110///60

2010/08/10 07:00
UHPP 100700Z 22004MPS 180V260 9999 FEW043 23/09 Q1012 NOSIG RMK QFE755/1007 MT OBSC SC070

2010/08/10 07:00
UHSS 100700Z 19003MPS 5000 BR BKN005 OVC011 22/22 Q1011 NOSIG RMK MT OBSC QFE757/1009 19CLRD70

2010/08/10 07:00
UHWW 100700Z 21004MPS 190V250 5000 -SHRA BKN010 OVC040CB 25/21 Q1008 NOSIG RMK QFE755/1007 75CLRD70

2010/08/10 07:00
ULLI 100700Z 24002MPS 170V290 9999 SCT020 BKN066 BKN200 22/18 Q1014 NOSIG

2010/08/10 07:00
UUDD 100700Z 14004MPS 5000 FU SKC 28/15 Q1016 NOSIG

2010/08/10 07:00
UUEE 100700Z 16004MPS 2300 FU SKC 28/13 Q1015 NOSIG

2010/08/10 07:00
UUWW 100700Z 14003MPS 2800 HZ SCT200 27/14 Q1015 24000070 NOSIG

2010/08/10 07:00
UUMO 100700Z 14003MPS 4500 FU SCT100 29/16 Q1015 NOSIG RMK QFE746/0995

2010/08/10 07:00
URKA 100700Z 14002MPS CAVOK 32/23 Q1008 NOSIG RMK 065

2010/08/10 07:00
URKK 100700Z 11005G08MPS CAVOK 31/13 Q1008 NOSIG RMK QFE753 SC070

2010/08/10 07:00
URKM 100700Z 11004MPS CAVOK 30/17 Q1009 RMK QFE738

2010/08/10 07:00
URML 100700Z 05004MPS 9999 SKC 32/24 Q1011 NOSIG RMK QFE758 / 07

2010/08/10 07:00
URMM 100700Z 09006G08MPS 9999 SKC 30/18 Q1012 NOSIG RMK / SC070

2010/08/10 07:00
URMN 100700Z 06001MPS 9999 SKC 28/17 Q1012 NOSIG RMK / QFE722 SC07

2010/08/10 07:00
URMT 100700Z 09008G11MPS CAVOK 32/09 Q1013 NOSIG RMK QFE719 SC07

2010/08/10 07:00
URRR 100700Z 08005G08MPS CAVOK 34/11 Q1012 NOSIG RMK SC070

2010/08/10 07:00
URSS 100700Z 26002MPS 9999 SCT100 31/23 Q1007 NOSIG RMK / QFE754 06CLRD70

2010/08/10 07:00
URWA 100700Z 13002MPS CAVOK 37/14 Q1013 NOSIG RMK SC07

2010/08/10 07:00
URWI 100700Z 13005MPS 9999 SKC 36/20 Q1013 NOSIG RMK SC065

2010/08/10 07:00
URWW 100700Z 08007MPS CAVOK 34/06 Q1015 NOSIG RMK SC070

2010/08/10 07:00
UUYH 100700Z 26004MPS 3000 HZ OVC099 27/20 Q1012 NOSIG RMK QFE 746 18CLRD60

2010/08/10 07:00
UUYS 100700Z VRB02MPS 9999 SCT010 OVC023 19/16 Q1009 TEMPO 2000 TSRA RMK QFE750 14290050

2010/08/10 07:00
UUYY 100700Z 19002MPS 6000 OVC066 30/18 Q1015 NOSIG 19CLRD61 RMK QFE753/1004

2010/08/10 07:00
USPP 100700Z 26004MPS CAVOK 30/16 Q1019 NOSIG 21090060 RMK QFE753/1005

2010/08/10 07:00
UWKD 100700Z 30004MPS 270V340 CAVOK 32/12 Q1021 NOSIG RMK QFE755/1006 79CLRD70

2010/08/10 07:00
UWKE 100700Z 00000MPS CAVOK 33/16 Q1021 NOSIG RMK QFE749/0998 04090070

2010/08/10 07:00
UWKS 100700Z VRB02MPS CAVOK 32/09 Q1022 NOSIG RMK QFE752 SC0.60

2010/08/10 07:00
UWLL 100700Z 00000MPS CAVOK 32/09 Q1021 NOSIG RMK QFE754/1005 SC065

2010/08/10 07:00
UWLW 100700Z 13001MPS 8000 SKC 33/13 Q1021 NOSIG 20CLRD60 RMK QFE760

2010/08/10 07:00
UWOR 100700Z 08005MPS CAVOK 25/08 Q1024 07CLRD65 NOSIG RMK QFE743/0990

2010/08/10 07:00
UWOO 100700Z 11003MPS 050V150 P5000 SKC 28/07 Q1022 08CLRD65 NOSIG RMK QFE756/1008

2010/08/10 07:00
UWPP 100700Z 10002MPS CAVOK 29/13 Q1020 NOSIG RMK QFE750 11090060

2010/08/10 07:00
UWSS 100700Z 06003MPS CAVOK 30/12 Q1020 NOSIG RMK QFE753 120///60

2010/08/10 07:00
UWWW 100700Z 06002MPS CAVOK 31/07 Q1022 NOSIG RMK QFE753/1004 05CLRD60 15//99//

2010/08/10 07:00
UGTB 100700Z 29002KT 9999 SCT100 30/12 Q1015 NOSIG RMK 31CLRD80

2010/08/10 07:00
UGKO 100700Z 27008KT 9999 BKN100 32/18 Q1008 NOSIG

2010/08/10 07:00
UGSB 100700Z 26008KT 9999 FEW026 31/25 Q1007 NOSIG

2010/08/10 06:55
LIBA 100655Z 30003KT 9999 FEW030 23/20 Q1014 RMK SCT SCT080 VIS MIN 9999 WIND THR29 29005KT BLU

2010/08/10 06:50
LIBC 100650Z 33005KT CAVOK 28/13 Q1014 RMK VIS MIN 9999

2010/08/10 06:50
LIBD 100650Z 33004KT CAVOK 26/13 Q1014 RMK VIS MIN 9999

2010/08/10 06:50
LIBG 100650Z 36016KT CAVOK 28/13 Q1012 RMK VIS MIN 9999

2010/08/10 06:55
LIBN 100655Z 32015KT CAVOK 26/21 Q1013 RMK FEW FEW080 VIS MIN 9999 WIND THR14 33015G31KT BLU

2010/08/10 06:50
LIBP 100650Z VRB01KT CAVOK 24/16 Q1015 RMK VIS MIN 9999

2010/08/10 06:45
LIBR 100645Z 33022G34KT CAVOK 25/21 Q1013 NOSIG RMK FEW FEW200 VIS MIN 9999 WIND THR13 /////KT WIND THR31 32017G28KT BLU

2010/08/10 06:55
LIBV 100655Z 01012KT CAVOK 25/14 Q1013 RMK SCT FEW090 SCT200 VIS MIN 9999 WIND THR14 35014KT BLU

2010/08/10 06:50
LICA 100650Z 27011KT 9999 SCT025 26/21 Q1015 RMK VIS MIN 9999

2010/08/10 06:50
LICC 100650Z 23004KT CAVOK 25/17 Q1014 RMK VIS MIN 9999

2010/08/10 06:50
LICD 100650Z 33007KT CAVOK 25/20 Q1014 RMK VIS MIN 9999

2010/08/10 06:55
LICG 100655Z 01005KT CAVOK 27/19 Q1016 RMK SKC VIS MIN 9999 WIND THR08 /////KT WIND THR21 01003KT BLU

2010/08/10 06:50
LICJ 100650Z 30003KT CAVOK 25/19 Q1015 RMK VIS MIN 9999

2010/08/10 06:50
LICR 100650Z 35014KT 9999 FEW025 26/19 Q1014 RMK VIS MIN 9999

2010/08/10 06:55
LICT 100655Z 00000KT CAVOK 27/10 Q1015 RMK SKC VIS MIN 9999 WIND THR13 31002KT BLU

2010/08/10 06:55
LICZ 100655Z 24007KT CAVOK 26/15 Q1014 RMK SKC VIS MIN 9999 WIND THR28 /////KT BLU

2010/08/10 07:00
UWUU 100700Z VRB01MPS CAVOK 29/11 Q1021 82010060 NOSIG RMK QFE755/1006

2010/08/10 07:00
USCC 100700Z 24004MPS 3000 FU BKN200 25/08 Q1021 NOSIG RMK QFE746 09000070

2010/08/10 07:00
USDD 100700Z 21004MPS 190V250 9999 SCT031 BKN070 15/09 Q1012 NOSIG RMK QFE754/1006 SC060

2010/08/10 07:00
USMU 100700Z 27004MPS 9999 FEW010 BKN066 13/10 Q1012 NOSIG RMK QFE753 27290050

2010/08/10 07:00
USNN 100700Z 29004MPS P6000 SCT022CB OVC066 13/10 Q1014 NOSIG RMK QFE756 SC065

2010/08/10 07:00
USRK 100700Z 32004MPS 6000 SCT030 BKN066 14/07 Q1014 NOSIG RMK QFE754 170///60

2010/08/10 07:00
USRR 100700Z 31004MPS 7000 SCT034 OVC080 15/07 Q1015 NOSIG RMK QFE756 25////60

2010/08/10 07:00
USSS 100700Z 27004MPS 6000 SKC 26/12 Q1019 NOSIG RMK QFE744 260///70

2010/08/10 07:05
KGRR 100705Z AUTO 00000KT 1/2SM FG CLR 22/20 A2997

2010/08/10 07:00
KMMU 100700Z AUTO 00000KT 10SM CLR 24/20 A2993

2010/08/10 07:00
TNCM 100700Z 10007KT 9999 SCT019 28/25 Q1013 RERA

2010/08/10 07:04
KAPN 100704Z AUTO 00000KT 7SM FEW001 19/19 A2995 RMK AO2 $ 

2010/08/10 07:06
CYAM 100706Z 30005KT 1 1/2SM BR OVC003 RMK SF8 CIG RAG

2010/08/10 07:05
CYBU 100705Z AUTO 18003KT 5SM BR CLR 14/14 A2988 RMK SLP126 DENSITY ALT 1400FT

2010/08/10 07:06
CYKF 100706Z AUTO 21004KT 1/4SM FG VV006 20/20 A2996 RMK SLP141 DENSITY ALT 1800FT

2010/08/10 07:03
CYMH 100703Z AUTO 23015G22KT 9SM SCT012 SCT068 16/14 A2959

2010/08/10 07:03
CYMO 100703Z AUTO 35005KT 9SM OVC004 11/11 A2997

2010/08/10 07:03
CYOY 100703Z AUTO 00000KT 2 1/2SM OVC007 OVC031 OVC071 12/11 A2985 RMK VSBY VRBL 1.0V7.0

2010/08/10 07:04
CYRV 100704Z AUTO 00000KT 9SM -RA BKN003 OVC009 OVC076 16/16 A2986

2010/08/10 07:06
EHKD 100706Z AUTO 20011KT 9999NDV SCT011 BKN015 BKN019 17/15 Q1011 GRN WHT BECMG BLU BECMG 9999 SCT025 SCT100 BKN200

2010/08/10 07:03
KEGI 100703Z AUTO 00000KT 8SM R18/5500VP6000FT CLR 25/24 A2993 RMK AO2 SLP133 $

2010/08/10 07:05
KGTB 100705Z AUTO 24003KT 10SM BKN009 BKN026 BKN050 21/20 A2994 RMK AO2 SLP136

2010/08/10 07:04
PASY 100704Z AUTO 29010KT 1 3/4SM BR OVC001 09/09 A2987 RMK AO2 TSNO PNO $

2010/08/10 07:05
RKSO 100705Z 09008KT 9999 -DZ BKN025 29/25 A2972 RMK AO2A DZB0705 SLP066 $

2010/08/10 07:00
YBTL 100700Z 01003KT 9000 VCSH FEW005 BKN025 BKN055 23/22 Q1014 INTER 0700/0930 4000 SHRA BKN012 RMK USE TAF FOR ARRIVALS AFTER 0930Z

2010/08/10 07:00
YPCC 100700Z 10005KT 9999 VCSH SCT025 BKN048 25/20 Q1010

2010/08/10 07:00
YPXM 100700Z AUTO 07011KT 9999NDV // BKN011 26/23 Q////

2010/08/10 07:00
YSSY 100700Z 02017KT 9999 -RA FEW010 BKN014 BKN040 17/15 Q1012 FM0800 02015KT 9000 -RA SCT010 BKN020 BKN040 TEMPO 0700/1000 4000 RA BKN010

2010/08/10 06:50
BGCO 100650Z 16003KT 9999 FEW180 06/M00 Q1012

2010/08/10 07:00
CYBR 100700Z 15006KT 15SM FEW070 OVC210 21/19 A2989 RMK AC2CI6 OCNL LTGIC DIST E-SW SLP120

2010/08/10 07:00
DAAE 100700Z 27003KT CAVOK 23/13 Q1015

2010/08/10 07:00
DAAJ 100700Z 09010KT 2000 HZ NSC 30/11 Q1018

2010/08/10 07:00
DAAY 100700Z 15004KT CAVOK 22/16 Q1025

2010/08/10 07:00
DABT 100700Z 16006KT CAVOK 24/05 Q1019

2010/08/10 07:00
DAOB 100700Z 00000KT CAVOK 26/08 Q1020

2010/08/10 07:00
DAOR 100700Z 33008KT CAVOK 30/13 Q1020

2010/08/10 07:00
DAUB 100700Z 12004KT CAVOK 29/15 Q1015

2010/08/10 07:00
DAUE 100700Z 33005KT CAVOK 30/13 Q1017

2010/08/10 07:00
DAUG 100700Z 00000KT CAVOK 29/15 Q1018

2010/08/10 07:00
DAUI 100700Z 07015KT CAVOK 34/05 Q1012

2010/08/10 07:00
DAUO 100700Z /////KT CAVOK 27/14 Q1015

2010/08/10 07:00
DAUT 100700Z 07009KT 4000 NSC 33/10 Q1014

2010/08/10 07:00
DAUU 100700Z 06012KT CAVOK 31/17 Q1014

2010/08/10 06:56
KNJK 100656Z AUTO 25008KT 10SM CLR 27/06 A2973 RMK AO2 SLP081 T02720056 TSNO

2010/08/10 07:00
LKKV 100700Z VRB01KT CAVOK 17/13 Q1019 RMK REG QNH 1015

2010/08/10 07:00
OIII 100700Z 20006KT 9999 FEW040 31/M00 Q1017 A3003 881/7

2010/08/10 07:00
ORBI 100700Z 34002KT CAVOK 41/11 Q1002

2010/08/10 07:00
ORMM 100700Z 20004KT CAVOK 40/11 Q1000

2010/08/10 06:57
PHNG 100657Z AUTO 07010G16KT 10SM OVC060 26/20 A3010 RMK AO2 SLP188 T02560200 $

2010/08/10 07:00
UACC 100700Z 01007MPS 9999 BKN036 19/06 Q1019 040/0070 NOSIG RMK QFE733/0977

2010/08/10 07:00
UATT 100700Z 09007MPS 060V120 9999 NSC 28/01 Q1021 13CLRD70 NOSIG RMK QFE746/0995

2010/08/10 07:00
UUYY 100700Z 19002MPS 6000 OVC066 30/18 Q1015 NOSIG 19CLRD61 RMK QFE753/1004

2010/08/10 06:50
LIMG 100650Z 29002KT 230V340 9999 FEW050 23/16 Q1016 RMK VIS MIN 9999

2010/08/10 06:55
LIMK 100655Z 05002KT CAVOK 19/18 Q1017 RMK BKN BKN070 VAL FOSCHIA VIS MIN 9999

2010/08/10 06:55
LIMN 100655Z 04004KT 9999 BKN060 20/16 Q1016 RMK BKN VIS MIN 9999 BLU

2010/08/10 06:50
LIMP 100650Z VRB03KT 8000 NSC 23/18 Q1016 RMK VIS MIN 6000N

2010/08/10 06:55
LIMS 100655Z 27006KT CAVOK 22/20 Q1015 RMK SCT SCT100 VIS MIN 9999 WIND THR30 27001KT BLU

2010/08/10 06:50
LIMZ 100650Z VRB03KT CAVOK 21/18 Q1017 RMK VIS MIN 8000N

2010/08/10 06:55
LIPA 100655Z 00000KT 9999 FEW040 24/22 Q1015 RMK FEW VIS MIN 9999 A3000 BLU

2010/08/10 06:50
LIPB 100650Z 14002KT 9999 FEW040 SCT060TCU 22/16 Q1018 RMK MON LIB VIS MIN9999

2010/08/10 06:55
LIPF 100655Z 00000KT 6000 NSC 22/21 Q1015 RMK FEW FEW240 VIS MIN 6000

2010/08/10 06:45
LIPH 100645Z 05004KT CAVOK 25/20 Q1016 RMK SCT SCT180 VIS MIN 9999 WIND THR07 /////KT BLU

2010/08/10 06:55
LIPI 100655Z 01005KT 9999 FEW090 25/18 Q1016 RMK SCT SCT160 VIS MIN 9999 WIND THR06 /////KT BLU

2010/08/10 06:55
LIPL 100655Z 09001KT 9999 FEW030 SCT080 22/21 Q1016 RMK BKN VIS MIN 9999 BLK BLU

2010/08/10 06:50
LIPO 100650Z 07004KT 040V100 8000 SCT050 24/18 Q1016 RMK VIS MIN 8000

2010/08/10 06:50
LIPQ 100650Z VRB01KT CAVOK 23/19 Q1016

2010/08/10 06:45
LIPR 100645Z 25001KT CAVOK 23/22 Q1015 RMK SKC VIS MIN 9999 WIND THR31 00000KT BLU

2010/08/10 06:55
LIPS 100655Z 08003KT 9999 FEW020 26/18 Q1016 RMK FEW VIS MIN 9999 BLU

2010/08/10 06:45
LIPX 100645Z 07003KT 9999 FEW040 24/22 Q1015 RMK FEW VIS MIN 9999 BLU

2010/08/10 06:50
LIPY 100650Z 22003KT 190V250 9999 FEW040 23/18 Q1015 RMK VIS MIN 9999

2010/08/10 06:55
LIVC 100655Z 03009KT CAVOK 12/01 Q1025 RMK SKC MON LIB VAL CLD SCT NC VIS MIN 9999

2010/08/10 06:50
LIMG 100650Z 29002KT 230V340 9999 FEW050 23/16 Q1016 RMK VIS MIN 9999

2010/08/10 06:55
LIMK 100655Z 05002KT CAVOK 19/18 Q1017 RMK BKN BKN070 VAL FOSCHIA VIS MIN 9999

2010/08/10 06:55
LIMN 100655Z 04004KT 9999 BKN060 20/16 Q1016 RMK BKN VIS MIN 9999 BLU

2010/08/10 06:50
LIMP 100650Z VRB03KT 8000 NSC 23/18 Q1016 RMK VIS MIN 6000N

2010/08/10 06:55
LIMS 100655Z 27006KT CAVOK 22/20 Q1015 RMK SCT SCT100 VIS MIN 9999 WIND THR30 27001KT BLU

2010/08/10 06:50
LIMZ 100650Z VRB03KT CAVOK 21/18 Q1017 RMK VIS MIN 8000N

2010/08/10 06:55
LIPA 100655Z 00000KT 9999 FEW040 24/22 Q1015 RMK FEW VIS MIN 9999 A3000 BLU

2010/08/10 06:50
LIPB 100650Z 14002KT 9999 FEW040 SCT060TCU 22/16 Q1018 RMK MON LIB VIS MIN9999

2010/08/10 06:55
LIPF 100655Z 00000KT 6000 NSC 22/21 Q1015 RMK FEW FEW240 VIS MIN 6000

2010/08/10 06:45
LIPH 100645Z 05004KT CAVOK 25/20 Q1016 RMK SCT SCT180 VIS MIN 9999 WIND THR07 /////KT BLU

2010/08/10 06:55
LIPI 100655Z 01005KT 9999 FEW090 25/18 Q1016 RMK SCT SCT160 VIS MIN 9999 WIND THR06 /////KT BLU

2010/08/10 06:55
LIPL 100655Z 09001KT 9999 FEW030 SCT080 22/21 Q1016 RMK BKN VIS MIN 9999 BLK BLU

2010/08/10 06:50
LIPO 100650Z 07004KT 040V100 8000 SCT050 24/18 Q1016 RMK VIS MIN 8000

2010/08/10 06:50
LIPQ 100650Z VRB01KT CAVOK 23/19 Q1016

2010/08/10 06:45
LIPR 100645Z 25001KT CAVOK 23/22 Q1015 RMK SKC VIS MIN 9999 WIND THR31 00000KT BLU

2010/08/10 06:55
LIPS 100655Z 08003KT 9999 FEW020 26/18 Q1016 RMK FEW VIS MIN 9999 BLU

2010/08/10 06:45
LIPX 100645Z 07003KT 9999 FEW040 24/22 Q1015 RMK FEW VIS MIN 9999 BLU

2010/08/10 06:50
LIPY 100650Z 22003KT 190V250 9999 FEW040 23/18 Q1015 RMK VIS MIN 9999

2010/08/10 06:55
LIVC 100655Z 03009KT CAVOK 12/01 Q1025 RMK SKC MON LIB VAL CLD SCT NC VIS MIN 99

2010/08/10 06:55
LIVP 100655Z 04004KT 1200 BR BKN002 10/08 Q1024 RMK BKN MON INVIS VAL CLD SCT NEBBIA INF VIS MIN 1200

2010/08/10 07:05
KGRR 100705Z AUTO 00000KT 1/2SM FG CLR 22/20 A2997

2010/08/10 06:50
MASA 100650Z 02002KT CAVOK 33/19 Q1011

2010/08/10 06:50
OIYY 100650Z 29008KT CAVOK 32/M05 Q1016 A3001

2010/08/10 07:00
OMAA 100700Z 17009KT 150V220 9000 NSC 41/15 Q0999 A2951 NOSIG

2010/08/10 07:00
OMAD 100700Z 18007KT 140V210 6000 NSC 40/16 Q0999 A2952

2010/08/10 07:00
OMAL 100700Z 16014KT 130V190 CAVOK 41/14 Q1002 AXWOYQV

2010/08/10 07:00
OMDB 100700Z 15007KT 090V180 CAVOK 41/17 Q1000 NOSIG

2010/08/10 07:00
OMDW 100700Z 15006KT 110V220 CAVOK 42/13 Q1001 NOSIG

2010/08/10 07:00
OMFJ 100700Z 08009KT 040V120 CAVOK 34/27 Q1002 A2960

2010/08/10 07:00
OMRK 100700Z 11013KT CAVOK 42/15 Q1000 A2953

2010/08/10 07:00
OMSJ 100700Z 15008KT 110V200 7000 NSC 42/16 Q1000

2010/08/10 07:00
GABS 100700Z 00000KT CAVOK 23/22 Q1015 NOSIG

2010/08/10 07:00
GGOV 100700Z VRB03KT 9000 -RA BKNN005 FEW018CB OVC090 24/23 Q1013 NOSIG

2010/08/10 07:00
GOOY 100700Z 32003KT 9999 SCT013 BKN230 25/22 Q1012 NOSIG

2010/08/10 07:00
DIAP 100700Z 26006KT 6000 R21//////N SCT011 BKN080 24/23 Q1014 TEMPO 4000 BR

2010/08/10 07:00
GQNN 100700Z VRB03KT 8000 FEW013 BKN120 25/21 Q1012 NOSIG

2010/08/10 07:00
GQPP 100700Z 32010KT CAVOK 21/20 Q1013 NOSIG

2010/08/10 07:00
GUCY 100700Z 04004KT 9999 BKN013 BKN110 25/25 Q1013 NSG

2010/08/10 07:00
GVAC 100700Z 03003KT 9999 SCT014 23/19 Q1014 NOSIG

2010/08/10 07:00
GBYD 100700Z 00000KT 9999 SCT010 BKN110 24/23 Q1012

2010/08/10 07:00
GLRB 100700Z 32006KT 8000 RADZ SCT005 BKN012 24/24 Q1014

2010/08/10 07:08
CWFD 100708Z AUTO 35020KT 2 1/8SM 04/

2010/08/10 07:00
UELL 100700Z VRB02MPS 9999 SCT030CB BKN083 BKN200 21/13 Q1007 NOSIG RMK QFE681 08CLRD70

2010/08/10 07:00
UHHH 100700Z 23009MPS 9999 SCT030 27/20 Q1005 NOSIG RMK QFE747/0996 23090060

2010/08/10 07:00
UHMA 100700Z 35003MPS 9999 BKN050 OVC080 13/08 Q1003 NOSIG RMK QFE748/0998 880///70

2010/08/10 07:00
UHMM 100700Z 24005MPS 9999 SCT066 19/12 Q1009 NOSIG RMK QFE741 88010070

2010/08/10 07:00
UHNN 100700Z 11005MPS 9999 OVC070 21/17 Q1010 NOSIG RMK QFE753 110///60

2010/08/10 07:00
UHPP 100700Z 22004MPS 180V260 9999 FEW043 23/09 Q1012 NOSIG RMK QFE755/1007 MT OBSC SC070

2010/08/10 07:00
UHSS 100700Z 19003MPS 5000 BR BKN005 OVC011 22/22 Q1011 NOSIG RMK MT OBSC QFE757/1009 19CLRD70

2010/08/10 07:00
UHWW 100700Z 21004MPS 190V250 5000 -SHRA BKN010 OVC040CB 25/21 Q1008 NOSIG RMK QFE755/1007 75CLRD70

2010/08/10 07:00
UIAA 100700Z VRB01MPS 9999 BKN050CB 24/11 Q1004 NOSIG RMK QFE695 29CLRD70

2010/08/10 07:00
UIBB 100700Z 30003MPS 9999 SCT030CB OVC100 15/11 Q1006 NOSIG RMK QFE712/0949 30190055

2010/08/10 07:00
UIII 100700Z 17002MPS 110V240 CAVOK 23/13 Q1003 NOSIG RMK QFE710/0947 12CLRD60

2010/08/10 07:00
UIUU 100700Z 27002MPS 170V330 9999 FEW100 BKN200 27/09 Q1002 NOSIG RMK QFE708/0944

2010/08/10 07:00
ULLI 100700Z 24002MPS 170V290 9999 SCT020 BKN066 BKN200 22/18 Q1014 NOSIG

2010/08/10 07:00
UUDD 100700Z 14004MPS 5000 FU SKC 28/15 Q1016 NOSIG

2010/08/10 07:00
UUEE 100700Z 16004MPS 2300 FU SKC 28/13 Q1015 NOSIG

2010/08/10 07:00
UUWW 100700Z 14003MPS 2800 HZ SCT200 27/14 Q1015 24000070 NOSIG

2010/08/10 07:00
UWPP 100700Z 10002MPS CAVOK 29/13 Q1020 NOSIG RMK QFE750 11090060

