2010/08/10 07:59
MYEG 100759Z AUTO 13006KT 10SM SCT021 SCT027 27/24 A2995 RMK AO2 LTG DSNT W 

2010/08/10 07:59
MYEG 100759Z AUTO 13006KT 10SM SCT021 SCT027 27/24 A2995 RMK AO2 LTG DSNT W

2010/08/10 07:45
KBAX 100745Z AUTO 00000KT 3SM BR OVC006 21/21 A2995 RMK AO2

2010/08/10 07:45
KBAX 100745Z AUTO 00000KT 3SM BR OVC006 21/21 A2995 RMK AO2

2010/08/10 07:45
KBAX 100745Z AUTO 00000KT 3SM BR OVC006 21/21 A2995 RMK AO2

2010/08/10 07:45
KBAX 100745Z AUTO 00000KT 3SM BR OVC006 21/21 A2995 RMK AO2

2010/08/10 07:45
KESN 100745Z AUTO 20004KT 10SM CLR 24/23 A2998 RMK AO2

2010/08/10 07:45
KESN 100745Z AUTO 20004KT 10SM CLR 24/23 A2998 RMK AO2

2010/08/10 07:45
KESN 100745Z AUTO 20004KT 10SM CLR 24/23 A2998 RMK AO2

2010/08/10 07:45
KESN 100745Z AUTO 20004KT 10SM CLR 24/23 A2998 RMK AO2

2010/08/10 07:45
KESN 100745Z AUTO 20004KT 10SM CLR 24/23 A2998

2010/08/10 07:50
OAKB 100750Z 19004KT 9999 FEW090 BKN140 30/12 Q1013 NOSIG RMK BLU BLU

2010/08/10 07:50
KQEV 100750Z AUTO 11003KT 7SM -RA OVC030 27/24 A2973 RMK A02

2010/08/10 07:45
KESN 100745Z AUTO 20004KT 10SM CLR 24/23 A2998 RMK AO2

2010/08/10 07:50
OAKB 100750Z 19004KT 9999 FEW090 BKN140 30/12 Q1013 NOSIG RMK BLU BLU

2010/08/10 07:55
KFDW 100755Z AUTO 00000KT 10SM CLR 25/22 A3003 RMK AO1

2010/08/10 07:55
KFDW 100755Z AUTO 00000KT 10SM CLR 25/22 A3003 RMK AO1

2010/08/10 07:45
CYHU 100745Z AUTO 23003KT 5SM HZ CLR 17/ A2988 RMK SLP119 DENSITY ALT 300FT TD MISG RVR MISG

2010/08/10 07:45
KBTV 100745Z 00000KT 1 1/4SM BR FEW005 18/18 A2991 RMK AO2 

2010/08/10 07:46
CYZE 100746Z AUTO 00000KT 1 1/4SM BR CLR 16/16 A2994 RMK SLP139 DENSITY ALT 800FT

2010/08/10 07:55
KCCA 100755Z AUTO 00000KT 4SM BR CLR 26/26 A2994 RMK AO2

2010/08/10 07:45
KDFI 100745Z AUTO 00000KT 1 1/4SM BR SCT001 22/21 A2996 RMK AO2

2010/08/10 07:45
KDSV 100745Z AUTO 12004KT 2 1/2SM -RA BR FEW016 SCT041 OVC050 22/21 A2997 RMK AO2 P0009 $

2010/08/10 07:45
KHIB 100745Z AUTO 00000KT 1/4SM FG VV001 17/16 A2997 RMK AO2

2010/08/10 07:45
KMTH 100745Z AUTO 20006KT 1SM +RA BR FEW009 BKN021 OVC049 25/24 A2985 RMK AO2 LTG DSNT SW P0034

2010/08/10 07:45
KOSH 100745Z AUTO 00000KT 3SM BR CLR 22/21 A2995 RMK AO2

2010/08/10 07:45
KBTV 100745Z 00000KT 1 1/4SM BR FEW005 18/18 A2991

2010/08/10 07:45
KBTV 100745Z 00000KT 1 1/4SM BR FEW005 18/18 A2991

2010/08/10 07:46
CWOB 100746Z AUTO ///// 1/8SM CLR 03/ A2978

2010/08/10 07:45
KBTV 100745Z 00000KT 1 1/4SM BR FEW005 18/18 A2991

2010/08/10 07:50
OAKB 100750Z 19004KT 9999 FEW090 BKN140 30/12 Q1013 NOSIG RMK BLU BLU

2010/08/10 07:45
CWWA 100745Z AUTO 36001KT 14/12 RMK AO1 T01350118

2010/08/10 07:45
KBTV 100745Z 00000KT 1 1/4SM BR FEW005 18/18 A2991 RMK AO2

2010/08/10 07:45
PAMO 100745Z AUTO 15017KT 1 1/2SM BR OVC001 09/09 A2939 RMK AO2 TSNO RAE44 P0001 $

2010/08/10 07:55
KCCA 100755Z AUTO 00000KT 4SM BR CLR 26/26 A2994 RMK AO2

2010/08/10 07:45
KBTV 100745Z 00000KT 1 1/4SM BR FEW005 18/18 A2991 RMK AO2

2010/08/10 07:45
KDFI 100745Z AUTO 00000KT 1 1/4SM BR SCT001 22/21 A2996 RMK AO2

2010/08/10 07:45
KDSV 100745Z AUTO 12004KT 2 1/2SM -RA BR FEW016 SCT041 OVC050 22/21 A2997 RMK AO2 P0009 $

2010/08/10 07:45
KHIB 100745Z AUTO 00000KT 1/4SM FG VV001 17/16 A2997 RMK AO2

2010/08/10 07:45
KMTH 100745Z AUTO 20006KT 1SM +RA BR FEW009 BKN021 OVC049 25/24 A2985 RMK AO2 LTG DSNT SW P0034

2010/08/10 07:45
KOSH 100745Z AUTO 00000KT 3SM BR CLR 22/21 A2995 RMK AO2

2010/08/10 07:45
PAMO 100745Z AUTO 15017KT 1 1/2SM BR OVC001 09/09 A2939 RMK AO2 TSNO RAE44 P0001 $

2010/08/10 07:45
KHIB 100745Z AUTO 00000KT 1/4SM FG VV001 17/16 A2997

2010/08/10 07:45
KOSH 100745Z AUTO 00000KT 3SM BR CLR 22/21 A2995

2010/08/10 07:45
KMWS 100745Z 11507G09KT 16/M04 RMK SNOW DEPTH M 

2010/08/10 07:45
KJSO 100745Z AUTO 21004KT 10SM CLR 27/24 A2994 RMK AO2 T02710238

2010/08/10 07:45
KLBR 100745Z AUTO 00000KT 10SM CLR 25/22 A2991 RMK AO2 T02510215

2010/08/10 07:45
KOXI 100745Z AUTO 00000KT 1 1/2SM SCT041 SCT049 BKN055 22/21 A2995 RMK AO1 VIS 3/4V3 T02240212

2010/08/10 07:45
KPNT 100745Z AUTO 14005KT 7SM VCTS SCT075 BKN085 27/24 A2994 RMK AO2 LTG DSNT E AND SE

2010/08/10 07:47
KPSN 100747Z AUTO 00000KT 26/24 A2994 RMK AO2 PWINO

2010/08/10 07:53
KPYX 100753Z AUTO 18006KT 10SM CLR 22/18 A2998 RMK AO2 P0001

2010/08/10 07:45
KRCR 100745Z AUTO 00000KT 1 1/2SM BR SCT035 SCT042 26/26 A2996 RMK AO2

2010/08/10 07:45
KSFY 100745Z AUTO 00000KT 10SM BKN037 BKN043 24/23 A2992 RMK AO2 LTG DSNT W

2010/08/10 07:45
K1H2 100745Z AUTO 00000KT 7SM CLR 25/24 A2994 RMK AO2 T02540240

2010/08/10 07:45
K3LF 100745Z AUTO 16004KT 7SM CLR 26/23 A2993 RMK AO2

2010/08/10 07:45
K3T5 100745Z AUTO 00000KT 10SM CLR 26/25 A2991 RMK AO2 T02630245

2010/08/10 07:45
KAJG 100745Z AUTO 00000KT 1SM BR VV007 23/23 A2994 RMK AO2 T02320228

2010/08/10 07:45
KALN 100745Z AUTO 00000KT 5SM BR SCT120 26/25 A2992 RMK AO2 T02580253

2010/08/10 07:45
KAQO 100745Z AUTO 18004KT CLR 28/23 A2997 RMK AO2 PWINO

2010/08/10 07:45
KARM 100745Z AUTO 00000KT 7SM CLR 26/24 A2993 RMK AO2 T02610240

2010/08/10 07:47
KASW 100747Z AUTO 00000KT 1/4SM FG OVC004 22/22 A2997 RMK AO2 T02230220

2010/08/10 07:45
KAXH 100745Z AUTO 00000KT 2SM BR CLR 24/23 A2991 RMK AO2 T02400230

2010/08/10 07:45
KBBD 100745Z AUTO 15007KT 10SM CLR 27/19 A2997 RMK

2010/08/10 07:45
KBKS 100745Z AUTO 00000KT 7SM SCT021 SCT028 27/26 A2990 RMK AO1 T02730256

2010/08/10 07:47
KBPC 100747Z AUTO 23011KT 10SM CLR 22/16 A2999 RMK AO2

2010/08/10 07:45
KBYY 100745Z AUTO 00000KT 7SM CLR 26/26 A2991 RMK AO2 T02570255

2010/08/10 07:45
KC75 100745Z AUTO 00000KT 10SM SCT060 SCT100 25/24 A2992 RMK AO2 LTG DSNT E T02500243

2010/08/10 07:45
KCPT 100745Z AUTO 19004KT 10SM CLR 27/22 A2993 RMK AO2

2010/08/10 07:45
KCUL 100745Z AUTO 00000KT 4SM BR CLR 23/21 A2994 RMK AO2 T02310213

2010/08/10 07:45
KCVB 100745Z AUTO 00000KT 10SM CLR 27/23 A2997 RMK AO2 T02650234

2010/08/10 07:45
KDKB 100745Z AUTO 10003KT 4SM HZ CLR 23/21 A2994 RMK AO2 T02330206

2010/08/10 07:45
KDKR 100745Z AUTO 00000KT 10SM CLR 26/26 A2995 RMK AO2

2010/08/10 07:45
KDNV 100745Z AUTO 26003KT 7SM BKN065 OVC100 26/23 A2993 RMK AO2 T02620231

2010/08/10 07:45
KDZB 100745Z AUTO 18007KT 7SM CLR 27/22 A2993 RMK AO2 T02650223

2010/08/10 07:45
KERV 100745Z AUTO 17007KT 10SM CLR 26/22 A2999 RMK AO2 T02550222

2010/08/10 07:45
KGNC 100745Z AUTO 00000KT 10SM CLR 20/19 A3004 RMK AO2 T02040187

2010/08/10 07:45
KGWB 100745Z AUTO 00000KT 1SM BR VV007 23/21 A2997 RMK AO2

2010/08/10 07:45
KHHF 100745Z AUTO 00000KT 10SM SCT110 24/19 A2995 RMK AO2 T02420192

2010/08/10 07:45
KINJ 100745Z AUTO 18007KT 10SM CLR 27/21 A2991 RMK AO2 T02710206

2010/08/10 07:45
KJAS 100745Z AUTO 00000KT 10SM CLR 26/25 A2993 RMK AO2 T02600247

2010/08/10 07:45
KJOT 100745Z AUTO 00000KT 7SM SCT035 SCT042 SCT050 24/21 A2993 RMK AO2 LTG DSNT SE

2010/08/10 07:46
KELZ 100746Z AUTO 00000KT 1/4SM FG SCT001 BKN008 OVC110 19/19 A3003 RMK AO2

2010/08/10 07:46
KLEB 100746Z AUTO 00000KT 3SM BR BKN001 OVC020 21/19 A2992 RMK AO2

2010/08/10 07:46
KRHI 100746Z AUTO 00000KT 1 3/4SM BR CLR 17/15 A3002 RMK AO2

2010/08/10 07:47
PACM 100747Z AUTO 19008KT 2 1/2SM -RA BR FEW023 SCT050 BKN070 11/09 A2933 RMK AO2 TSNO P0003 $

2010/08/10 07:47
KBTL 100747Z AUTO 00000KT 4SM BR CLR 21/20 A2999 RMK AO2

2010/08/10 07:45
KBTV 100745Z 00000KT 1 1/4SM BR FEW005 18/18 A2991 RMK AO2

2010/08/10 07:47
KIMT 100747Z AUTO 00000KT 7SM SCT002 19/18 A2998 RMK AO2

2010/08/10 07:47
KPBG 100747Z AUTO 00000KT 3/4SM BR VV002 16/16 A2990 RMK AO2

2010/08/10 07:47
PACM 100747Z AUTO 19008KT 2 1/2SM -RA BR FEW023 SCT050 BKN070 11/09 A2933 RMK AO2 TSNO P0003 $

2010/08/10 08:00
MPTO 100800Z 00000KT 9999 SCT018CB 27/25 Q1010 NOSIG

2010/08/10 07:47
KCQT 100747Z AUTO 00000KT 9SM OVC007 18/14 A2991 RMK AO2 SLP125 T01780139 402500167 TSNO $ 

2010/08/10 07:48
CYMX 100748Z 24002KT 2SM R06/3000VP6000FT/U BR SKC 18/15 RMK FG2 VIS VRB 11/2-21/2

2010/08/10 07:50
EEPU 100750Z 22012KT 9999 BKN032 21/16 Q1014

2010/08/10 07:50
EEKA 100750Z 20007KT 160V240 9999 BKN030 19/15 Q1013

2010/08/10 07:48
CYUS 100748Z AUTO ///// 9SM CLR 11/ A2992

2010/08/10 07:46
CWOB 100746Z AUTO ///// 1/8SM CLR 03/ A2978

2010/08/10 07:45
CYHU 100745Z AUTO 23003KT 5SM HZ CLR 17/ A2988 RMK SLP119 DENSITY ALT 300FT TD MISG RVR MISG

2010/08/10 07:46
CYZE 100746Z AUTO 00000KT 1 1/4SM BR CLR 16/16 A2994 RMK SLP139 DENSITY ALT 800FT

2010/08/10 07:45
EHKD 100745Z AUTO 22014KT 9999NDV FEW014 OVC016 18/16 Q1011 WHT WHT TEMPO GRN TEMPO SCT012 SCT015CB BKN020

2010/08/10 07:47
EHVL 100747Z AUTO 21017KT 9999NDV FEW012 BKN015 OVC021 19/15 Q1011 WHT

2010/08/10 07:48
KMMT 100748Z AUTO 00000KT 4SM R32/3000VP6000FT BR CLR 23/23 A3001 RMK AO2 SLP161

2010/08/10 07:47
KVOK 100747Z 00000KT 3/4SM R27/1000V3500FT BR CLR 18/18 A2995 RMK AO2A SLP135

2010/08/10 07:45
RKJK 100745Z 04006KT 2800 +RA BR OVC039 26/26 A2969 RMK AO2A RAB0701DZB0656E0701 CIG 027 RWY18 SLP055 $

2010/08/10 07:47
RKJK 100747Z 04006KT 3200 +RA BR OVC039 26/26 A2969 RMK AO2A RAB0701DZB0656E0701 CIG 027 RWY18 SLP055 $

2010/08/10 07:45
RKSG 100745Z 12004KT 6000 -RA FEW009 SCT019 BKN029 BKN055 27/27 A2974 RMK AO2A FEW V SCT SLP073 $

2010/08/10 07:48
KHTL 100748Z AUTO 32003KT 1 3/4SM BR BKN003 21/21 A3000 RMK AO2 

2010/08/10 07:49
CYWA 100749Z AUTO 00000KT 2 1/8SM CLR 14/14 A2991 RMK VSBY VRBL 0.6V9.+

2010/08/10 07:45
KMWS 100745Z 11507G09KT 16/M04 RMK SNOW DEPTH M

2010/08/10 07:47
KCQT 100747Z AUTO 00000KT 9SM OVC007 18/14 A2991 RMK AO2 SLP125 T01780139 402500167 TSNO $

2010/08/10 07:48
KHTL 100748Z AUTO 32003KT 1 3/4SM BR BKN003 21/21 A3000 RMK AO2

2010/08/10 07:48
KDDH 100748Z AUTO 00000KT 1 1/2SM BR BKN010 BKN046 19/19 A2995 RMK AO2 CIG 008V011

2010/08/10 07:48
KMIA 100748Z 13006KT 8SM -RA SCT019TCU BKN028 OVC060 26/24 A2988 RMK AO2 RAB40 TCU SE P0001 $

2010/08/10 07:48
KRME 100748Z AUTO 00000KT 3SM BR SCT003 BKN023 21/20 A2997 RMK AO2 $

2010/08/10 07:55
KOLV 100755Z AUTO 00000KT 7SM CLR 25/ A2995 RMK A01 P000

2010/08/10 07:45
KCWC 100745Z AUTO 19006KT 10SM CLR 29/19 A2991 RMK AO2 T02860191

2010/08/10 07:47
KDUX 100747Z AUTO 20007KT 10SM CLR 22/17 A3003 RMK AO2 T02220170

2010/08/10 07:50
KEBG 100750Z AUTO 00000KT 10SM CLR 28/26 A2990 RMK AO2 T02760255

2010/08/10 07:45
KECU 100745Z AUTO 14009KT 10SM CLR 26/22 A3007 RMK AO2

2010/08/10 07:45
KENL 100745Z AUTO 00000KT 5SM BR CLR 24/23 A2994 RMK AO2 T02390229

2010/08/10 07:45
KFEP 100745Z AUTO 07003KT 5SM BR CLR 24/22 A2995 RMK AO2 T02360216

2010/08/10 07:45
KFOA 100745Z AUTO 00000KT 7SM CLR 27/26 A2994 RMK AO2 T02660260

2010/08/10 07:45
KGBG 100745Z AUTO 15003KT 10SM SCT038 24/23 A2991 RMK AO2 LTG DSNT E

2010/08/10 07:45
KGOP 100745Z AUTO 20006KT 10SM CLR 27/22 A2995 RMK AO2

2010/08/10 07:45
KHSB 100745Z AUTO 00000KT 5SM BR CLR 24/22 A2994 RMK AO2

2010/08/10 07:45
KIGQ 100745Z AUTO 00000KT 7SM SCT035 SCT090 24/22 A2994 RMK AO2 LTG DSNT SW

2010/08/10 07:45
KIJX 100745Z AUTO 14006KT 10SM CLR 25/22 A2991 RMK AO2 LTG DSNT NE T02480219

2010/08/10 07:45
KIKK 100745Z AUTO 25007KT 10SM VCTS SCT023 SCT048 BKN080 27/23 A2995 RMK AO2 LTG DSNT S THRU NW

2010/08/10 07:45
KJDD 100745Z AUTO 22006KT 10SM CLR 28/23 A2991 RMK AO2

2010/08/10 07:45
KJXI 100745Z AUTO 00000KT 10SM CLR 26/24 A2993 RMK AO2

2010/08/10 07:45
KLNC 100745Z AUTO 00000KT 10SM CLR 26/22 A2990 RMK AO2 T02630218

2010/08/10 07:45
KLOT 100745Z AUTO 07003KT 10SM SCT035 SCT041 SCT048 24/23 A2993 RMK AO2 LTG DSNT S T02410228

2010/08/10 07:45
KLUD 100745Z AUTO 16004KT 10SM CLR 29/19 A2992 RMK AO2 T02850185

2010/08/10 07:47
KM30 100747Z AUTO 00000KT 4SM BR CLR 25/23 A2994 RMK AO2

2010/08/10 07:45
KMDD 100745Z AUTO 00000KT 10SM CLR 22/20 A3001 RMK AO2 T02220197

2010/08/10 07:46
KORG 100746Z AUTO 00000KT 5SM BR CLR 25/25 A2991 RMK AO2

2010/08/10 07:45
KPEQ 100745Z AUTO 00000KT 10SM CLR 24/18 A2996 RMK AO2 T02360178

2010/08/10 07:45
KPEZ 100745Z AUTO 00000KT 10SM CLR 25/23 A2995 RMK AO2 T02540230

2010/08/10 07:49
KPKV 100749Z AUTO 24004KT 10SM SCT019 SCT024 26/24 A2991 RMK AO2 T02590238

2010/08/10 07:45
KRPJ 100745Z AUTO 14003KT 7SM CLR 23/22 A2994 RMK AO2 LTG DSNT SE T02270215

2010/08/10 07:45
KRSV 100745Z AUTO 00000KT 4SM BR SCT046 24/23 A2996 RMK AO2 T02400232

2010/08/10 07:53
KPYX 100753Z AUTO 18006KT 10SM CLR 22/18 A2998 RMK AO2 P0001

2010/08/10 07:45
KRCR 100745Z AUTO 00000KT 1 1/2SM BR SCT035 SCT042 26/26 A2996 RMK AO2

2010/08/10 07:45
K1H2 100745Z AUTO 00000KT 7SM CLR 25/24 A2994 RMK AO2 T02540240

2010/08/10 07:45
K3LF 100745Z AUTO 16004KT 7SM CLR 26/23 A2993 RMK AO2

2010/08/10 07:45
K3T5 100745Z AUTO 00000KT 10SM CLR 26/25 A2991 RMK AO2 T02630245

2010/08/10 07:45
KAJG 100745Z AUTO 00000KT 1SM BR VV007 23/23 A2994 RMK AO2 T02320228

2010/08/10 07:45
KALN 100745Z AUTO 00000KT 5SM BR SCT120 26/25 A2992 RMK AO2 T02580253

2010/08/10 07:45
KAQO 100745Z AUTO 18004KT CLR 28/23 A2997 RMK AO2 PWINO

2010/08/10 07:45
KARM 100745Z AUTO 00000KT 7SM CLR 26/24 A2993 RMK AO2 T02610240

2010/08/10 07:47
KASW 100747Z AUTO 00000KT 1/4SM FG OVC004 22/22 A2997 RMK AO2 T02230220

2010/08/10 07:45
KAXH 100745Z AUTO 00000KT 2SM BR CLR 24/23 A2991 RMK AO2 T02400230

2010/08/10 07:45
KBBD 100745Z AUTO 15007KT 10SM CLR 27/19 A2997 RMK

2010/08/10 07:45
KBKS 100745Z AUTO 00000KT 7SM SCT021 SCT028 27/26 A2990 RMK AO1 T02730256

2010/08/10 07:47
KBPC 100747Z AUTO 23011KT 10SM CLR 22/16 A2999 RMK AO2

2010/08/10 07:45
KBYY 100745Z AUTO 00000KT 7SM CLR 26/26 A2991 RMK AO2 T02570255

2010/08/10 07:45
KC75 100745Z AUTO 00000KT 10SM SCT060 SCT100 25/24 A2992 RMK AO2 LTG DSNT E T02500243

2010/08/10 07:45
KCPT 100745Z AUTO 19004KT 10SM CLR 27/22 A2993 RMK AO2

2010/08/10 07:45
KCVB 100745Z AUTO 00000KT 10SM CLR 27/23 A2997 RMK AO2 T02650234

2010/08/10 07:45
KDKB 100745Z AUTO 10003KT 4SM HZ CLR 23/21 A2994 RMK AO2 T02330206

2010/08/10 07:45
KDKR 100745Z AUTO 00000KT 10SM CLR 26/26 A2995 RMK AO2

2010/08/10 07:45
KDNV 100745Z AUTO 26003KT 7SM BKN065 OVC100 26/23 A2993 RMK AO2 T02620231

2010/08/10 07:45
KDZB 100745Z AUTO 18007KT 7SM CLR 27/22 A2993 RMK AO2 T02650223

2010/08/10 07:45
KERV 100745Z AUTO 17007KT 10SM CLR 26/22 A2999 RMK AO2 T02550222

2010/08/10 07:45
KGNC 100745Z AUTO 00000KT 10SM CLR 20/19 A3004 RMK AO2 T02040187

2010/08/10 07:45
KGWB 100745Z AUTO 00000KT 1SM BR VV007 23/21 A2997 RMK AO2

2010/08/10 07:45
KHHF 100745Z AUTO 00000KT 10SM SCT110 24/19 A2995 RMK AO2 T02420192

2010/08/10 07:45
KINJ 100745Z AUTO 18007KT 10SM CLR 27/21 A2991 RMK AO2 T02710206

2010/08/10 07:45
KJAS 100745Z AUTO 00000KT 10SM CLR 26/25 A2993 RMK AO2 T02600247

2010/08/10 07:45
KJOT 100745Z AUTO 00000KT 7SM SCT035 SCT042 SCT050 24/21 A2993 RMK AO2 LTG DSNT SE

2010/08/10 07:45
KJSO 100745Z AUTO 21004KT 10SM CLR 27/24 A2994 RMK AO2 T02710238

2010/08/10 07:45
KLBR 100745Z AUTO 00000KT 10SM CLR 25/22 A2991 RMK AO2 T02510215

2010/08/10 07:45
KOXI 100745Z AUTO 00000KT 1 1/2SM SCT041 SCT049 BKN055 22/21 A2995 RMK AO1 VIS 3/4V3 T02240212

2010/08/10 07:45
KPNT 100745Z AUTO 14005KT 7SM VCTS SCT075 BKN085 27/24 A2994 RMK AO2 LTG DSNT E AND SE

2010/08/10 07:55
KOLV 100755Z AUTO 00000KT 7SM CLR 25/ A2995 RMK A01 P000

2010/08/10 07:45
KCWC 100745Z AUTO 19006KT 10SM CLR 29/19 A2991 RMK AO2 T02860191

2010/08/10 07:47
KDUX 100747Z AUTO 20007KT 10SM CLR 22/17 A3003 RMK AO2 T02220170

2010/08/10 07:50
KEBG 100750Z AUTO 00000KT 10SM CLR 28/26 A2990 RMK AO2 T02760255

2010/08/10 07:45
KECU 100745Z AUTO 14009KT 10SM CLR 26/22 A3007 RMK AO2

2010/08/10 07:45
KENL 100745Z AUTO 00000KT 5SM BR CLR 24/23 A2994 RMK AO2 T02390229

2010/08/10 07:45
KFEP 100745Z AUTO 07003KT 5SM BR CLR 24/22 A2995 RMK AO2 T02360216

2010/08/10 07:45
KFOA 100745Z AUTO 00000KT 7SM CLR 27/26 A2994 RMK AO2 T02660260

2010/08/10 07:45
KGBG 100745Z AUTO 15003KT 10SM SCT038 24/23 A2991 RMK AO2 LTG DSNT E

2010/08/10 07:45
KGOP 100745Z AUTO 20006KT 10SM CLR 27/22 A2995 RMK AO2

2010/08/10 07:45
KHSB 100745Z AUTO 00000KT 5SM BR CLR 24/22 A2994 RMK AO2

2010/08/10 07:45
KIGQ 100745Z AUTO 00000KT 7SM SCT035 SCT090 24/22 A2994 RMK AO2 LTG DSNT SW

2010/08/10 07:45
KIJX 100745Z AUTO 14006KT 10SM CLR 25/22 A2991 RMK AO2 LTG DSNT NE T02480219

2010/08/10 07:45
KIKK 100745Z AUTO 25007KT 10SM VCTS SCT023 SCT048 BKN080 27/23 A2995 RMK AO2 LTG DSNT S THRU NW

2010/08/10 07:45
KJDD 100745Z AUTO 22006KT 10SM CLR 28/23 A2991 RMK AO2

2010/08/10 07:45
KJXI 100745Z AUTO 00000KT 10SM CLR 26/24 A2993 RMK AO2

2010/08/10 07:45
KLNC 100745Z AUTO 00000KT 10SM CLR 26/22 A2990 RMK AO2 T02630218

2010/08/10 07:46
KELZ 100746Z AUTO 00000KT 1/4SM FG SCT001 BKN008 OVC110 19/19 A3003 RMK AO2

2010/08/10 07:46
KLEB 100746Z AUTO 00000KT 3SM BR BKN001 OVC020 21/19 A2992 RMK AO2

2010/08/10 07:46
KRHI 100746Z AUTO 00000KT 1 3/4SM BR CLR 17/15 A3002 RMK AO2

2010/08/10 07:47
PACM 100747Z AUTO 19008KT 2 1/2SM -RA BR FEW023 SCT050 BKN070 11/09 A2933 RMK AO2 TSNO P0003 $

2010/08/10 07:47
KBTL 100747Z AUTO 00000KT 4SM BR CLR 21/20 A2999 RMK AO2

2010/08/10 07:47
KIMT 100747Z AUTO 00000KT 7SM SCT002 19/18 A2998 RMK AO2

2010/08/10 07:47
KPBG 100747Z AUTO 00000KT 3/4SM BR VV002 16/16 A2990 RMK AO2

2010/08/10 07:47
PACM 100747Z AUTO 19008KT 2 1/2SM -RA BR FEW023 SCT050 BKN070 11/09 A2933 RMK AO2 TSNO P0003 $

2010/08/10 07:48
KDDH 100748Z AUTO 00000KT 1 1/2SM BR BKN010 BKN046 19/19 A2995 RMK AO2 CIG 008V011

2010/08/10 07:48
KMIA 100748Z 13006KT 8SM -RA SCT019TCU BKN028 OVC060 26/24 A2988 RMK AO2 RAB40 TCU SE P0001 $

2010/08/10 07:48
KRME 100748Z AUTO 00000KT 3SM BR SCT003 BKN023 21/20 A2997 RMK AO2 $

2010/08/10 07:48
KMMT 100748Z AUTO 00000KT 4SM R32/3000VP6000FT BR CLR 23/23 A3001 RMK AO2 SLP161

2010/08/10 07:47
KVOK 100747Z 00000KT 3/4SM R27/1000V3500FT BR CLR 18/18 A2995 RMK AO2A SLP135

2010/08/10 07:45
KBTV 100745Z 00000KT 1 1/4SM BR FEW005 18/18 A2991 RMK AO2

2010/08/10 07:48
KHTL 100748Z AUTO 32003KT 1 3/4SM BR BKN003 21/21 A3000 RMK AO2

2010/08/10 07:45
KSFY 100745Z AUTO 00000KT 10SM BKN037 BKN043 24/23 A2992 RMK AO2 LTG DSNT W

2010/08/10 07:45
KMWS 100745Z 11507G09KT 16/M04 RMK SNOW DEPTH M

2010/08/10 07:45
KCUL 100745Z AUTO 00000KT 4SM BR CLR 23/21 A2994 RMK AO2 T02310213

2010/08/10 07:47
KPSN 100747Z AUTO 00000KT 26/24 A2994 RMK AO2 PWINO

2010/08/10 07:47
KCQT 100747Z AUTO 00000KT 9SM OVC007 18/14 A2991 RMK AO2 SLP125 T01780139 402500167 TSNO $

2010/08/10 07:45
KLOT 100745Z AUTO 07003KT 10SM SCT035 SCT041 SCT048 24/23 A2993 RMK AO2 LTG DSNT S T02410228

2010/08/10 07:45
KLUD 100745Z AUTO 16004KT 10SM CLR 29/19 A2992 RMK AO2 T02850185

2010/08/10 07:47
KM30 100747Z AUTO 00000KT 4SM BR CLR 25/23 A2994 RMK AO2

2010/08/10 07:45
KMDD 100745Z AUTO 00000KT 10SM CLR 22/20 A3001 RMK AO2 T02220197

2010/08/10 07:46
KORG 100746Z AUTO 00000KT 5SM BR CLR 25/25 A2991 RMK AO2

2010/08/10 07:45
KPEQ 100745Z AUTO 00000KT 10SM CLR 24/18 A2996 RMK AO2 T02360178

2010/08/10 07:45
KPEZ 100745Z AUTO 00000KT 10SM CLR 25/23 A2995 RMK AO2 T02540230

2010/08/10 07:49
KPKV 100749Z AUTO 24004KT 10SM SCT019 SCT024 26/24 A2991 RMK AO2 T02590238

2010/08/10 07:45
KRPJ 100745Z AUTO 14003KT 7SM CLR 23/22 A2994 RMK AO2 LTG DSNT SE T02270215

2010/08/10 07:45
KRSV 100745Z AUTO 00000KT 4SM BR SCT046 24/23 A2996 RMK AO2 T02400232

2010/08/10 07:50
OAKB 100750Z 19004KT 9999 FEW090 BKN140 30/12 Q1013 NOSIG RMK BLU BLU

2010/08/10 07:48
CYMX 100748Z 24002KT 2SM R06/3000VP6000FT/U BR SKC 18/15 RMK FG2 VIS VRB 11/2-21/2

2010/08/10 07:47
EHVL 100747Z AUTO 21017KT 9999NDV FEW012 BKN015 OVC021 19/15 Q1011 WHT

2010/08/10 07:45
EHKD 100745Z AUTO 22014KT 9999NDV FEW014 OVC016 18/16 Q1011 WHT WHT TEMPO GRN TEMPO SCT012 SCT015CB BKN020

2010/08/10 07:45
RKSG 100745Z 12004KT 6000 -RA FEW009 SCT019 BKN029 BKN055 27/27 A2974 RMK AO2A FEW V SCT SLP073 $

2010/08/10 07:47
RKJK 100747Z 04006KT 3200 +RA BR OVC039 26/26 A2969 RMK AO2A RAB0701DZB0656E0701 CIG 027 RWY18 SLP055 $

2010/08/10 07:45
RKJK 100745Z 04006KT 2800 +RA BR OVC039 26/26 A2969 RMK AO2A RAB0701DZB0656E0701 CIG 027 RWY18 SLP055 $

2010/08/10 07:48
KJDN 100748Z AUTO 23003KT 17/16 A2980 RMK AO2 SLP072 T01670156 PWINO TSNO $ 

2010/08/10 07:47
KBTL 100747Z AUTO 00000KT 4SM BR CLR 21/20 A2999

2010/08/10 07:48
KIGM 100748Z AUTO 00000KT 10SM CLR 24/02 A2997 RMK AO2 SLP073 T02440022 TSNO $ 

2010/08/10 07:48
KHTL 100748Z AUTO 32003KT 1 3/4SM BR BKN003 21/21 A3000

2010/08/10 07:46
KLEB 100746Z AUTO 00000KT 3SM BR BKN001 OVC020 21/19 A2992

2010/08/10 07:47
KBTL 100747Z AUTO 00000KT 4SM BR CLR 21/20 A2999

2010/08/10 07:50
KQEN 100750Z AUTO 28004KT 7SM -SHRA OVC050 23/20 A3043 RMK A02

2010/08/10 07:50
KQES 100750Z AUTO 01001KT 4SM SHRA OVC050 25/23 A2980 RMK A02

2010/08/10 07:50
KQEY 100750Z AUTO 08002KT 7SM SCT009 BKN034 27/23 A2953 RMK A02

2010/08/10 07:55
KQTU 100755Z 33008KT 9000 HZ CLR 39/04 A2968 RMK SLP029

2010/08/10 08:00
KQEV 100800Z AUTO 11004KT 7SM -RA BKN007 BKN038 27/24 A2973 RMK A02

2010/08/10 07:48
KHTL 100748Z AUTO 32003KT 1 3/4SM BR BKN003 21/21 A3000

2010/08/10 07:50
NSTU 100750Z 12013KT 10SM SCT016 27/26 A2996 RMK SLP147 T02710256

2010/08/10 07:50
PAWI 100750Z 05016KT 10SM OVC005 04/04 A2977 RMK VIA PHONE

2010/08/10 07:50
CYZR 100750Z AUTO 20003KT 2SM BR SCT044 21/20 A2994 RMK SLP136 DENSITY ALT 1400FT

2010/08/10 07:49
KCON 100749Z AUTO 00000KT 3SM BR CLR 21/21 A2990 RMK AO2 

2010/08/10 07:48
PAIG 100748Z AUTO 00000KT 10SM BKN005 OVC044 11/11 A2965 RMK AO2 PWINO TSNO $

2010/08/10 07:49
KADG 100749Z AUTO 25004KT 1SM BR BKN001 BKN009 21/19 A2998 RMK AO2

2010/08/10 07:49
KBGM 100749Z AUTO 30003KT 3SM -RA BR FEW001 SCT032 OVC070 20/19 A3001 RMK AO2 RAB04 P0007

2010/08/10 07:49
KBIV 100749Z AUTO 00000KT 1/4SM FG FEW001 BKN008 21/19 A2996 RMK AO2

2010/08/10 07:49
KCQX 100749Z AUTO 00000KT 3SM -TSRA BR BKN034 BKN050 OVC065 22/21 A2993 RMK AO2 LTG DSNT E TSB22 P0009

2010/08/10 07:49
KCRE 100749Z AUTO 22009KT 10SM SCT019 SCT025 BKN060 28/25 A3001 RMK AO2

2010/08/10 07:49
KGRB 100749Z AUTO 00000KT 1/4SM FG VV001 22/21 A2995 RMK AO2 TSNO RVRNO

2010/08/10 07:49
KMKG 100749Z 00000KT 1 1/2SM BR FEW001 21/21 A2996 RMK AO2 VIS 1/2 RWY 14

2010/08/10 07:49
KPBG 100749Z AUTO 00000KT 1/2SM FG VV001 16/16 A2990 RMK AO2

2010/08/10 07:49
PAWR 100749Z 07009G19KT 1SM -RA BR VV006 12/11 A2987 RMK SLP115 401330111 NOSPECI

2010/08/10 07:45
KFWC 100745Z AUTO 00000KT 7SM CLR 24/23 A2994 RMK AO2

2010/08/10 07:45
KMWA 100745Z AUTO 00000KT 5SM BR CLR 27/25 A2996 RMK AO2 T02680254

2010/08/10 07:45
KRAS 100745Z AUTO 19008KT 9SM FEW019 30/27 A2993 RMK AO2

2010/08/10 07:45
KRBO 100745Z AUTO 00000KT 10SM CLR 27/26 A2991 RMK AO2 T02710256

2010/08/10 07:45
KRPH 100745Z AUTO 00000KT 10SM CLR 27/18 A2991 RMK AO2 T02700175

2010/08/10 07:45
KRYW 100745Z AUTO 18004KT M1/4SM HZ VV000 26/23 A2997 RMK AO2

2010/08/10 07:45
KSAR 100745Z AUTO 00000KT 7SM CLR 26/24 A2994 RMK AO2

2010/08/10 07:46
KSNK 100746Z AUTO 06004KT 10SM SCT070 22/20 A2999 RMK AO2 T02220201

2010/08/10 07:45
KSWW 100745Z AUTO 15003KT 10SM CLR 24/21 A2999 RMK AO1 T02380208

2010/08/10 07:45
KT65 100745Z AUTO 17003KT 7SM CLR 28/26 A2990 RMK AO2 T02800260

2010/08/10 07:45
KT82 100745Z AUTO 17003KT 10SM CLR 25/21 A3000 RMK AO1 T02460210

2010/08/10 07:45
KTAZ 100745Z AUTO 00000KT 10SM CLR 25/24 A2992 RMK AO2 LTG DSNT NE

2010/08/10 07:45
KTIP 100745Z AUTO 36005KT 10SM -RA SCT070 SCT100 26/24 A2995 RMK AO2 LTG DSNT N AND NE T02560241

2010/08/10 07:45
KTYQ 100745Z AUTO 22003KT 5SM BR CLR 22/22 A2997 RMK AO2 LTG DSNT W AND NW

2010/08/10 07:45
KUVA 100745Z AUTO 14004KT 10SM CLR 27/23 A2996 RMK AO2 T02700231

2010/08/10 07:46
KXBP 100746Z AUTO 20006KT 10SM CLR 29/19 A2991 RMK AO2 T02910188

2010/08/10 07:50
ETNG 100750Z 24003KT CAVOK 20/14 Q1015 NOSIG

2010/08/10 07:50
EYPA 100750Z 27005KT 9999 FEW023 20/14 Q1017 NOSIG

2010/08/10 07:50
EYKA 100750Z 22003KT 140V290 CAVOK 23/18 Q1017

2010/08/10 07:50
EETN 100750Z 23010KT 9999 FEW018CB BKN050 20/16 Q1013 NOSIG

2010/08/10 07:48
KMIA 100748Z 13006KT 8SM -RA SCT019TCU BKN028 OVC060 26/24 A2988

2010/08/10 07:49
CYYC 100749Z 23006KT 15SM -RA OVC059 14/ RMK SC7

2010/08/10 07:45
K1H2 100745Z AUTO 00000KT 7SM CLR 25/24 A2994

2010/08/10 07:45
KC75 100745Z AUTO 00000KT 10SM SCT060 SCT100 25/24 A2992

2010/08/10 07:45
KDKB 100745Z AUTO 10003KT 4SM HZ CLR 23/21 A2994

2010/08/10 07:45
KDNV 100745Z AUTO 26003KT 7SM BKN065 OVC100 26/23 A2993

2010/08/10 07:45
KENL 100745Z AUTO 00000KT 5SM BR CLR 24/23 A2994

2010/08/10 07:45
KFEP 100745Z AUTO 07003KT 5SM BR CLR 24/22 A2995

2010/08/10 07:45
KFOA 100745Z AUTO 00000KT 7SM CLR 27/26 A2994

2010/08/10 07:45
KGBG 100745Z AUTO 15003KT 10SM SCT038 24/23 A2991

2010/08/10 07:45
KHSB 100745Z AUTO 00000KT 5SM BR CLR 24/22 A2994

2010/08/10 07:45
KIGQ 100745Z AUTO 00000KT 7SM SCT035 SCT090 24/22 A2994

2010/08/10 07:45
KIJX 100745Z AUTO 14006KT 10SM CLR 25/22 A2991

2010/08/10 07:45
KIKK 100745Z AUTO 25007KT 10SM VCTS SCT023 SCT048 BKN080 27/23 A2995

2010/08/10 07:45
KJOT 100745Z AUTO 00000KT 7SM SCT035 SCT042 SCT050 24/21 A2993

2010/08/10 07:45
KLOT 100745Z AUTO 07003KT 10SM SCT035 SCT041 SCT048 24/23 A2993

2010/08/10 07:45
KPNT 100745Z AUTO 14005KT 7SM VCTS SCT075 BKN085 27/24 A2994

2010/08/10 07:45
KBYY 100745Z AUTO 00000KT 7SM CLR 26/26 A2991

2010/08/10 07:49
KCON 100749Z AUTO 00000KT 3SM BR CLR 21/21 A2990

2010/08/10 07:50
CYCX 100750Z AUTO 34002KT 2 3/8SM 16/16 A2980 RMK VSBY VRBL 0.8V6.0

2010/08/10 07:45
KLNC 100745Z AUTO 00000KT 10SM CLR 26/22 A2990

2010/08/10 07:48
KIGM 100748Z AUTO 00000KT 10SM CLR 24/02 A2997

2010/08/10 07:48
KJDN 100748Z AUTO 23003KT 17/16 A2980

2010/08/10 07:45
KMWS 100745Z 11507G09KT 16/M04

2010/08/10 07:48
KMIA 100748Z 13006KT 8SM -RA SCT019TCU BKN028 OVC060 26/24 A2988

2010/08/10 07:45
KALN 100745Z AUTO 00000KT 5SM BR SCT120 26/25 A2992

2010/08/10 07:45
KIKK 100745Z AUTO 25007KT 10SM VCTS SCT023 SCT048 BKN080 27/23 A2995

2010/08/10 07:51
LELL 100751Z 00000KT 9000 FEW008 BKN012 23/16 Q1018

2010/08/10 07:49
KCON 100749Z AUTO 00000KT 3SM BR CLR 21/21 A2990

2010/08/10 07:45
LMML 100745Z VRB03KT CAVOK 28/14 Q1015 NOSIG 

2010/08/10 07:50
EYKA 100750Z 22003KT 140V290 CAVOK 23/18 Q1017

2010/08/10 07:50
LLBG 100750Z VRB02KT 9999 FEW030 31/21 Q1007 NOSIG

2010/08/10 07:50
LLOV 100750Z 35005KT CAVOK 30/17 Q1009

2010/08/10 07:50
LLET 100750Z 03014KT CAVOK 33/19 Q1005

2010/08/10 07:50
LLHA 100750Z 28006KT 9999 SCT025 31/21 Q1008

2010/08/10 07:50
LLIB 100750Z 11007KT CAVOK 29/20 Q1008

2010/08/10 07:50
LLSD 100750Z 25008KT 9999 FEW025 28/22 Q1007

2010/08/10 07:50
EETN 100750Z 23010KT 9999 FEW018CB BKN050 20/16 Q1013 NOSIG

2010/08/10 08:00
LQMO 100800Z VRB02KT CAVOK 29/13 Q1012

2010/08/10 07:50
EETU 100750Z AUTO 22009KT 190V250 9999NDV FEW025/// 21/16 Q1015

2010/08/10 07:50
EYPA 100750Z 27005KT 9999 FEW023 20/14 Q1017 NOSIG

2010/08/10 07:50
EYVI 100750Z 09004KT 9999 SCT023 BKN100 22/17 Q1017 NOSIG

2010/08/10 08:00
FDMS 100800Z 12004KT CAVOK 16/01 Q1033 NOSIG

2010/08/10 07:50
KHTL 100750Z AUTO 32003KT 1SM BR BKN003 21/21 A3000 RMK AO2 

2010/08/10 07:50
PAWI 100750Z 05016KT 10SM OVC005 04/04 A2977 RMK VIA PHONE

2010/08/10 07:51
KBAZ 100751Z AUTO 21003KT 10SM FEW016 25/23 A2993 RMK AO2 SLP126 T02500228

2010/08/10 07:51
KHDO 100751Z AUTO 13003KT 10SM CLR 27/24 A2997 RMK AO2 SLP130 T02670239

2010/08/10 07:49
KCON 100749Z AUTO 00000KT 3SM BR CLR 21/21 A2990 RMK AO2

2010/08/10 07:50
KHTL 100750Z AUTO 32003KT 1SM BR BKN003 21/21 A3000 RMK AO2

2010/08/10 07:51
KSAN 100751Z 28005KT 10SM OVC015 18/14 A2993 RMK AO2 SLP133 T01780139 402220156 

2010/08/10 07:51
LELL 100751Z 00000KT 9000 FEW008 BKN012 23/16 Q1018

2010/08/10 07:50
KAZO 100750Z AUTO 00000KT 1SM BR CLR 21/21 A2997 RMK AO2

2010/08/10 07:50
KBBW 100750Z AUTO RMK AO2 TSB49E50 P0033 FZRANO $

2010/08/10 07:50
KBMG 100750Z 00000KT 2SM BR SCT110 22/21 A2996 RMK AO2

2010/08/10 07:51
KMFE 100751Z AUTO 14004KT 10SM FEW018 SCT023 BKN033 28/26 A2990 RMK AO2 $

2010/08/10 07:50
KMHT 100750Z 00000KT 1/2SM R35/P6000FT FG BKN003 22/21 A2988 RMK AO2

2010/08/10 07:50
KOLF 100750Z AUTO 27005KT 7SM VCTS RA OVC050 19/17 A2982 RMK AO2 PK WND 21028/0705 WSHFT 0650 LTG DSNT ALQDS TSE00B22E49B50RAB03 P0003

2010/08/10 07:48
KEHA 100748Z AUTO 21003KT 22/17 RMK AO1 PK WND 06 000 T02220167

2010/08/10 07:48
KNQX 100748Z AUTO 19008KT 10SM TS FEW014 SCT018 SCT026 27/23 A2984 RMK AO2 TSB42 $

2010/08/10 07:48
KJDN 100748Z AUTO 23003KT 17/16 A2980 RMK AO2 SLP072 T01670156 PWINO TSNO $

2010/08/10 07:48
KIGM 100748Z AUTO 00000KT 10SM CLR 24/02 A2997 RMK AO2 SLP073 T02440022 TSNO $

2010/08/10 07:48
PAIG 100748Z AUTO 00000KT 10SM BKN005 OVC044 11/11 A2965 RMK AO2 PWINO TSNO $

2010/08/10 07:49
KADG 100749Z AUTO 25004KT 1SM BR BKN001 BKN009 21/19 A2998 RMK AO2

2010/08/10 07:49
KBGM 100749Z AUTO 30003KT 3SM -RA BR FEW001 SCT032 OVC070 20/19 A3001 RMK AO2 RAB04 P0007

2010/08/10 07:49
KBIV 100749Z AUTO 00000KT 1/4SM FG FEW001 BKN008 21/19 A2996 RMK AO2

2010/08/10 07:49
KCQX 100749Z AUTO 00000KT 3SM -TSRA BR BKN034 BKN050 OVC065 22/21 A2993 RMK AO2 LTG DSNT E TSB22 P0009

2010/08/10 07:49
KCRE 100749Z AUTO 22009KT 10SM SCT019 SCT025 BKN060 28/25 A3001 RMK AO2

2010/08/10 07:49
KGRB 100749Z AUTO 00000KT 1/4SM FG VV001 22/21 A2995 RMK AO2 TSNO RVRNO

2010/08/10 07:49
KPBG 100749Z AUTO 00000KT 1/2SM FG VV001 16/16 A2990 RMK AO2

2010/08/10 07:50
KAZO 100750Z AUTO 00000KT 1SM BR CLR 21/21 A2997 RMK AO2

2010/08/10 07:50
KBBW 100750Z AUTO RMK AO2 TSB49E50 P0033 FZRANO $

2010/08/10 07:50
KBMG 100750Z 00000KT 2SM BR SCT110 22/21 A2996 RMK AO2

2010/08/10 07:51
KMFE 100751Z AUTO 14004KT 10SM FEW018 SCT023 BKN033 28/26 A2990 RMK AO2 $

2010/08/10 07:50
KMHT 100750Z 00000KT 1/2SM R35/P6000FT FG BKN003 22/21 A2988 RMK AO2

2010/08/10 07:50
KOLF 100750Z AUTO 27005KT 7SM VCTS RA OVC050 19/17 A2982 RMK AO2 PK WND 21028/0705 WSHFT 0650 LTG DSNT ALQDS TSE00B22E49B50RAB03 P0003

2010/08/10 07:50
EYVI 100750Z 09004KT 9999 SCT023 BKN100 22/17 Q1017 NOSIG

2010/08/10 07:50
LLBG 100750Z VRB02KT 9999 FEW030 31/21 Q1007 NOSIG

2010/08/10 07:50
LLET 100750Z 03014KT CAVOK 33/19 Q1005

2010/08/10 07:50
LLOV 100750Z 35005KT CAVOK 30/17 Q1009

2010/08/10 08:00
LQMO 100800Z VRB02KT CAVOK 29/13 Q1012

2010/08/10 07:50
EYSA 100750Z 27007KT 250V310 9999 SCT016 20/17 Q1017

2010/08/10 08:00
SBSJ 100800Z 00000KT 3000 BR BKN006 11/10 Q1023

2010/08/10 07:49
KCON 100749Z AUTO 00000KT 3SM BR CLR 21/21 A2990 RMK AO2

2010/08/10 07:49
KMKG 100749Z 00000KT 1 1/2SM BR FEW001 21/21 A2996 RMK AO2 VIS 1/2 RWY 14

2010/08/10 07:50
KHTL 100750Z AUTO 32003KT 1SM BR BKN003 21/21 A3000 RMK AO2

2010/08/10 07:49
PAWR 100749Z 07009G19KT 1SM -RA BR VV006 12/11 A2987 RMK SLP115 401330111 NOSPECI

2010/08/10 07:45
KFWC 100745Z AUTO 00000KT 7SM CLR 24/23 A2994 RMK AO2

2010/08/10 07:45
KMWA 100745Z AUTO 00000KT 5SM BR CLR 27/25 A2996 RMK AO2 T02680254

2010/08/10 07:45
KRAS 100745Z AUTO 19008KT 9SM FEW019 30/27 A2993 RMK AO2

2010/08/10 07:45
KRBO 100745Z AUTO 00000KT 10SM CLR 27/26 A2991 RMK AO2 T02710256

2010/08/10 07:45
KRPH 100745Z AUTO 00000KT 10SM CLR 27/18 A2991 RMK AO2 T02700175

2010/08/10 07:45
KRYW 100745Z AUTO 18004KT M1/4SM HZ VV000 26/23 A2997 RMK AO2

2010/08/10 07:45
KSAR 100745Z AUTO 00000KT 7SM CLR 26/24 A2994 RMK AO2

2010/08/10 07:46
KSNK 100746Z AUTO 06004KT 10SM SCT070 22/20 A2999 RMK AO2 T02220201

2010/08/10 07:45
KSWW 100745Z AUTO 15003KT 10SM CLR 24/21 A2999 RMK AO1 T02380208

2010/08/10 07:45
KT65 100745Z AUTO 17003KT 7SM CLR 28/26 A2990 RMK AO2 T02800260

2010/08/10 07:45
KT82 100745Z AUTO 17003KT 10SM CLR 25/21 A3000 RMK AO1 T02460210

2010/08/10 07:45
KTAZ 100745Z AUTO 00000KT 10SM CLR 25/24 A2992 RMK AO2 LTG DSNT NE

2010/08/10 07:45
KTIP 100745Z AUTO 36005KT 10SM -RA SCT070 SCT100 26/24 A2995 RMK AO2 LTG DSNT N AND NE T02560241

2010/08/10 07:45
KTYQ 100745Z AUTO 22003KT 5SM BR CLR 22/22 A2997 RMK AO2 LTG DSNT W AND NW

2010/08/10 07:45
KUVA 100745Z AUTO 14004KT 10SM CLR 27/23 A2996 RMK AO2 T02700231

2010/08/10 07:46
KXBP 100746Z AUTO 20006KT 10SM CLR 29/19 A2991 RMK AO2 T02910188

2010/08/10 07:50
PAWI 100750Z 05016KT 10SM OVC005 04/04 A2977 RMK VIA PHONE

2010/08/10 07:51
KBAZ 100751Z AUTO 21003KT 10SM FEW016 25/23 A2993 RMK AO2 SLP126 T02500228

2010/08/10 07:51
KHDO 100751Z AUTO 13003KT 10SM CLR 27/24 A2997 RMK AO2 SLP130 T02670239

2010/08/10 07:48
KJDN 100748Z AUTO 23003KT 17/16 A2980 RMK AO2 SLP072 T01670156 PWINO TSNO $

2010/08/10 07:48
KIGM 100748Z AUTO 00000KT 10SM CLR 24/02 A2997 RMK AO2 SLP073 T02440022 TSNO $

2010/08/10 07:49
CYYC 100749Z 23006KT 15SM -RA OVC059 14/ RMK SC7

2010/08/10 07:45
LMML 100745Z VRB03KT CAVOK 28/14 Q1015 NOSIG

2010/08/10 07:51
LELL 100751Z 00000KT 9000 FEW008 BKN012 23/16 Q1018

2010/08/10 07:49
KGRB 100749Z AUTO 00000KT 1/4SM FG VV001 22/21 A2995

2010/08/10 07:49
KBGM 100749Z AUTO 30003KT 3SM -RA BR FEW001 SCT032 OVC070 20/19 A3001

2010/08/10 07:50
KHTL 100750Z AUTO 32003KT 1SM BR BKN003 21/21 A3000

2010/08/10 07:49
KMKG 100749Z 00000KT 1 1/2SM BR FEW001 21/21 A2996

2010/08/10 07:49
KBGM 100749Z AUTO 30003KT 3SM -RA BR FEW001 SCT032 OVC070 20/19 A3001

2010/08/10 07:50
EYSA 100750Z 27007KT 250V310 9999 SCT016 20/17 Q1017

2010/08/10 07:49
KGRB 100749Z AUTO 00000KT 1/4SM FG VV001 22/21 A2995

2010/08/10 07:49
KMKG 100749Z 00000KT 1 1/2SM BR FEW001 21/21 A2996

2010/08/10 07:45
LMML 100745Z VRB03KT CAVOK 28/14 Q1015 NOSIG 

2010/08/10 07:50
KHTL 100750Z AUTO 32003KT 1SM BR BKN003 21/21 A3000

2010/08/10 07:49
KMKG 100749Z 00000KT 1 1/2SM BR FEW001 21/21 A2996

2010/08/10 07:49
KCEF 100749Z AUTO 25005KT 10SM BKN060 BKN080 22/21 A2992 RMK AO2 RAE0720DZB0734E0749 CLDS LWR RWY05 SLP131 $

2010/08/10 07:48
KMMT 100748Z AUTO 00000KT 4SM R32/3000VP6000FT BR CLR 23/23 A3001 RMK AO2 SLP161

2010/08/10 07:51
KP59 100751Z AUTO 27004KT 21/19 A2994 RMK AO2 SLP131 T02060194 PWINO TSNO 

2010/08/10 07:51
KCON 100751Z AUTO 00000KT 3SM BR CLR 21/21 A2990 RMK AO2 SLP122 T02110206 

2010/08/10 07:51
KORF 100751Z 23006KT 10SM CLR 25/23 A2997 RMK AO2 SLP150 T02500233 $ 

2010/08/10 07:55
KLZZ 100755Z AUTO 17003KT 10SM CLR 27/22 A2994 RMK AO2

2010/08/10 07:51
KMDW 100751Z 06004KT 10SM SCT085 SCT250 26/21 A2993 RMK AO2 SLP123 OCNL LTGIC DSNT S CB DSNT S T02610211 PNO

2010/08/10 07:51
KMPV 100751Z AUTO 00000KT 1/4SM FG VV001 18/18 A2998 RMK AO2 SLP147 P0001 T01780178

2010/08/10 07:51
KMYL 100751Z AUTO 00000KT 10SM BKN070 11/11 A2999 RMK AO2 LTG DSNT N SLP114 T01110106

2010/08/10 07:50
KONM 100750Z AUTO 08003KT 10SM CLR 22/12 A3009 RMK AO2 T02150115

2010/08/10 07:51
KONP 100751Z AUTO 00000KT 7SM OVC019 13/11 A3005 RMK AO1

2010/08/10 07:51
KORD 100751Z 00000KT 10SM FEW120 SCT200 24/23 A2994 RMK AO2 SLP132 T02440228

2010/08/10 07:51
KOXR 100751Z AUTO 00000KT 10SM OVC008 16/13 A2989 RMK AO2 SLP121 T01560133 401940122 $

2010/08/10 07:55
KPAN 100755Z AUTO 31003KT 10SM CLR 17/08 A3014 RMK AO1

2010/08/10 07:51
KPHX 100751Z 27006KT 10SM FEW120 34/10 A2980 RMK AO2 SLP069 T03390100 $

2010/08/10 07:51
KPIT 100751Z 00000KT 7SM SCT100 BKN250 22/18 A2998 RMK AO2 SLP147 T02170183

2010/08/10 07:51
KPVD 100751Z 00000KT 9SM FEW075 SCT095 SCT120 OVC150 23/19 A2992 RMK AO2 RAB0655E25 SLP130 P0001 T02280194

2010/08/10 07:51
KPWM 100751Z AUTO 30006KT 10SM FEW095 21/19 A2987 RMK AO2 SLP113 T02110189

2010/08/10 07:51
KRDU 100751Z 23004KT 9SM FEW150 SCT250 24/22 A3001 RMK AO2 SLP156 T02440222

2010/08/10 07:51
KROW 100751Z AUTO 00000KT 10SM CLR 22/17 A3003 RMK AO2 SLP098 T02170172 TSNO

2010/08/10 07:51
KSJT 100751Z AUTO 20004KT 10SM CLR 27/17 A2996 RMK AO2 SLP114 T02720172

2010/08/10 07:51
KSLK 100751Z AUTO 00000KT 2SM BR SCT005 BKN012 OVC020 19/19 A2996 RMK AO2 SLP135 T01940189

2010/08/10 07:51
KSMO 100751Z AUTO 28003KT 10SM OVC006 16/13 A2991 RMK AO2 SLP128 T01610133 402000150

2010/08/10 07:51
KSTL 100751Z 18003KT 10SM FEW250 29/24 A2991 RMK AO2 SLP113 T02940244

2010/08/10 07:51
KTEB 100751Z 21004KT 10SM -RA CLR 26/18 A2991 RMK AO2 DZB22E26RAB26 SLP127 P0000 T02560178

2010/08/10 07:51
KVNY 100751Z AUTO 12003KT 10SM CLR 17/12 A2990 RMK AO2 SLP117 T01670117 402830139

2010/08/10 07:51
KYNG 100751Z 21003KT 10SM BKN047 OVC070 24/18 A2997 RMK AO2 SLP137 T02440178

2010/08/10 07:47
K1F0 100747Z AUTO 00000KT 10SM CLR 27/21 A2989 RMK AO2

2010/08/10 07:58
K36U 100758Z AUTO 00000KT 10SM CLR 08/04 A3012 RMK AO2

2010/08/10 07:48
K4O4 100748Z AUTO 00000KT 10SM CLR 24/22 A2992 RMK AO2

2010/08/10 07:48
K5C1 100748Z AUTO 19005KT 10SM CLR 25/23 A2998 RMK AO1

2010/08/10 07:51
KACT 100751Z 20009KT 10SM CLR 28/23 A2991 RMK AO2 SLP117 T02830228 $

2010/08/10 07:50
KADM 100750Z AUTO 00000KT 10SM CLR 25/22 A2990 RMK AO2

2010/08/10 07:51
KAHN 100751Z AUTO 00000KT 4SM BR CLR 23/22 A3001 RMK AO2 SLP154 T02280217

2010/08/10 07:51
KALB 100751Z 00000KT 2SM BR SCT023 SCT034 21/21 A2994 RMK AO2 SLP134 T02110206

2010/08/10 07:51
KASH 100751Z AUTO 00000KT 5SM BR CLR 22/22 A2990 RMK AO2 T02220216 RAB03E17 P0000 SLP125

2010/08/10 07:51
KAVX 100751Z AUTO 13005KT M1/4SM FG OVC003 11/11 A2993 RMK AO2 SLP127 T01110111 402060106 TSNO

2010/08/10 07:51
KBDL 100751Z 00000KT 3SM -RA BR FEW004 BKN065 OVC110 22/21 A2991 RMK AO2 SLP127 P0004 T02220211

2010/08/10 07:51
KBGD 100751Z AUTO 00000KT 10SM CLR 23/15 A3002 RMK AO2 SLP115 T02330150

2010/08/10 07:51
KBKW 100751Z AUTO 00000KT 5SM BR CLR 19/17 A3010 RMK AO2 SLP152 T01890167 $

2010/08/10 07:51
KCLE 100751Z 22004KT 8SM FEW080 24/20 A2997 RMK AO2 SLP140 T02390200

2010/08/10 07:51
KCMH 100751Z 00000KT 10SM SCT150 BKN250 23/21 A2996 RMK AO2 SLP138 T02330206

2010/08/10 07:51
KCSG 100751Z AUTO 10005KT 9SM CLR 26/19 A2997 RMK AO2 SLP140 T02610194 TSNO

2010/08/10 07:51
KDAW 100751Z AUTO 00000KT 8SM -RA SCT070 BKN110 21/19 A2988 RMK AO2 SLP113 P0000 T02060194

2010/08/10 07:51
KDUA 100751Z AUTO 00000KT 10SM CLR 28/21 A2991 RMK AO2

2010/08/10 07:53
KDUC 100753Z AUTO 14003KT 10SM CLR 27/21 A2991 RMK AO2

2010/08/10 07:51
KEKN 100751Z AUTO 00000KT 1/2SM FG BKN001 OVC006 17/17 A3007 RMK AO2 SLP171 T01720167 TSNO

2010/08/10 07:51
KELP 100751Z 18003KT 10SM FEW160 26/14 A3003 RMK AO2 SLP088 T02560144

2010/08/10 07:51
KERI 100751Z 01004KT 6SM HZ BKN055 OVC080 24/19 A2994 RMK AO2 SLP132 T02390194

2010/08/10 07:48
KMMT 100748Z AUTO 00000KT 4SM R32/3000VP6000FT BR CLR 23/23 A3001 RMK AO2 SLP161

2010/08/10 07:51
KOSH 100751Z AUTO 00000KT 1 3/4SM BR CLR 22/21 A2995 RMK AO2 VIS 1/2V4

2010/08/10 07:49
KY50 100749Z AUTO 00000KT 1SM BR VV015 19/19 A2995 RMK AO2 RAB11E20 P0000

2010/08/10 07:51
KASX 100751Z AUTO 00000KT 1 3/4SM BR CLR 18/18 A2996 RMK AO2 P0001

2010/08/10 07:49
KCEF 100749Z AUTO 25005KT 10SM BKN060 BKN080 22/21 A2992 RMK AO2 RAE0720DZB0734E0749 CLDS LWR RWY05 SLP131 $

2010/08/10 07:51
KEWR 100751Z 25006KT 10SM -RA SCT050 BKN150 OVC250 27/18 A2992 RMK AO2 RAB49 SLP131 P0000 T02670183 $

2010/08/10 07:55
KGLY 100755Z AUTO 00000KT 10SM CLR 27/24 A2991 RMK AO2

2010/08/10 07:51
KHTS 100751Z AUTO 00000KT 3SM BR CLR 22/21 A2998 RMK AO2 SLP142 T02170206 TSNO

2010/08/10 07:51
KILG 100751Z 19005KT 9SM CLR 24/22 A2994 RMK AO2 SLP136 T02440217

2010/08/10 07:48
KIZA 100748Z AUTO 00000KT 10SM BKN007 12/11 A2991 RMK AO2

2010/08/10 07:51
KJFK 100751Z 26006KT 10SM BKN140 OVC250 26/19 A2993 RMK AO2 SLP135 T02560194

2010/08/10 07:49
KL35 100749Z AUTO 00000KT 10SM CLR 07/M02 A3016 RMK AO2

2010/08/10 07:51
KLGA 100751Z 24007KT 10SM BKN140 OVC250 28/18 A2991 RMK AO2 SLP130 T02780178

2010/08/10 07:51
KLGU 100751Z AUTO 00000KT 10SM CLR 13/08 A3002 RMK AO2 SLP117 T01330083

2010/08/10 07:50
KLRU 100750Z AUTO 28005KT 10SM CLR 23/09 A3007 RMK AO2

2010/08/10 08:00
SPIM 100800Z 17003KT 8000 BKN015 14/12 Q1016 NOSIG RMK PP000

2010/08/10 07:50
LSZH 100750Z VRB02KT 9999 FEW025 21/15 Q1018 NOSIG

2010/08/10 07:50
LSGG 100750Z 07004KT 030V150 9999 SCT070 23/13 Q1018 NOSIG

2010/08/10 07:50
LSZA 100750Z VRB02KT 9999 SCT045 BKN150 22/17 Q1017 NOSIG

2010/08/10 07:50
LSMA 100750Z VRB02KT 9999 SCT096 20/15 Q1018 RMK BLU

2010/08/10 07:50
LSMD 100750Z 00000KT 9999 SCT054 20/14 Q1018 RMK BLU

2010/08/10 07:50
LSMP 100750Z VRB02KT 9999 SCT080 19/15 Q1018 RMK BLU

2010/08/10 07:50
LSMS 100750Z VRB03KT 9999 FEW070 21/11 Q1018

2010/08/10 08:00
SBBV 100800Z 34002KT CAVOK 25/23 Q1012

2010/08/10 07:50
MMCL 100750Z 02005KT 10SM SCT100 BKN220 27/25 A2983 RMK 8/077 RTS

2010/08/10 07:51
KHSE 100751Z AUTO 25006KT 10SM CLR 25/25 A3000 RMK AO2 SLP160 T02500250 TSNO 

2010/08/10 07:51
KBVE 100751Z AUTO 00000KT CLR 26/25 A2991 RMK AO2 SLP128 T02610250 TSNO $ 

2010/08/10 07:51
KJCT 100751Z AUTO 18004KT 10SM CLR 27/22 A2997 RMK AO2 SLP108 T02720217 TSNO 

2010/08/10 07:51
KCRP 100751Z 20003KT 10SM FEW018 27/26 A2990 RMK AO2 SLP123 T02670256 

2010/08/10 07:49
KCEF 100749Z AUTO 25005KT 10SM BKN060 BKN080 22/21 A2992

2010/08/10 07:51
KMFE 100751Z AUTO 14004KT 10SM FEW018 SCT023 BKN033 28/26 A2990

2010/08/10 07:50
KAZO 100750Z AUTO 00000KT 1SM BR CLR 21/21 A2997

2010/08/10 07:50
KOLF 100750Z AUTO 27005KT 7SM VCTS RA OVC050 19/17 A2982

2010/08/10 07:50
KBBW 100750Z AUTO

2010/08/10 07:51
KGDP 100751Z AUTO 06008KT 10SM CLR 23/13 A3016 RMK AO2 SLP118 T02280133 TSNO 

2010/08/10 07:51
KDAG 100751Z AUTO 25011KT 10SM CLR 24/01 A2986 RMK AO2 SLP084 T02440006 403780189 TSNO 

2010/08/10 07:49
KCEF 100749Z AUTO 25005KT 10SM BKN060 BKN080 22/21 A2992

2010/08/10 07:50
KMHT 100750Z 00000KT 1/2SM R35/P6000FT FG BKN003 22/21 A2988

2010/08/10 07:51
KSMX 100751Z AUTO 00000KT 9SM OVC004 12/11 A2992 RMK AO2 SLP134 T01220111 402000122 TSNO 

2010/08/10 07:51
KABE 100751Z 00000KT 9SM -RA FEW080 24/21 A2993 RMK AO2 RAB28 SLP131 P0000 T02390211 

2010/08/10 07:51
KMFE 100751Z AUTO 14004KT 10SM FEW018 SCT023 BKN033 28/26 A2990

2010/08/10 07:50
KAZO 100750Z AUTO 00000KT 1SM BR CLR 21/21 A2997

2010/08/10 07:51
KNYC 100751Z VRB04KT 10SM CLR 26/18 A2995 RMK AO2 SLP131 T02560183 $ 

2010/08/10 07:52
CYCX 100752Z AUTO 35002KT 1 1/2SM 16/16 A2980 RMK VSBY VRBL 0.5V6.0

2010/08/10 07:51
KATT 100751Z AUTO 00000KT 10SM CLR 27/24 A2994 RMK AO2 SLP122 T02670239 

2010/08/10 07:50
EDDB 100750Z VRB01KT 9999 FEW024 SCT086 21/15 Q1017 NOSIG

2010/08/10 07:50
EDDC 100750Z VRB01KT 9999 FEW020 SCT280 20/15 Q1017 NOSIG

2010/08/10 07:50
EDDE 100750Z VRB02KT 9999 FEW030 20/13 Q1017 NOSIG

2010/08/10 07:50
EDDG 100750Z 16005KT 9999 FEW020 SCT260 20/14 Q1015 NOSIG

2010/08/10 07:50
EDDP 100750Z 21005KT CAVOK 19/16 Q1017 NOSIG

2010/08/10 07:50
EDDR 100750Z VRB02KT CAVOK 20/12 Q1017 NOSIG

2010/08/10 07:50
EDDW 100750Z 17005KT 9999 FEW045 BKN300 21/14 Q1014 NOSIG

2010/08/10 07:50
EDDF 100750Z 19002KT CAVOK 20/14 Q1016 NOSIG

2010/08/10 07:50
EDDH 100750Z 14007KT CAVOK 20/15 Q1015 NOSIG

2010/08/10 07:50
EDDK 100750Z 14006KT CAVOK 20/14 Q1015 NOSIG

2010/08/10 07:50
EDDL 100750Z 18005KT CAVOK 20/13 Q1015 NOSIG

2010/08/10 07:50
EDDM 100750Z VRB02KT CAVOK 19/14 Q1018 NOSIG

2010/08/10 07:50
EDDN 100750Z 12003KT 9999 FEW040 SCT078 18/15 Q1017 NOSIG

2010/08/10 07:50
EDDS 100750Z VRB02KT 9999 FEW028 20/13 Q1018 NOSIG

2010/08/10 07:50
EDDT 100750Z 31001KT 9999 FEW025 BKN080 21/14 Q1017 NOSIG

2010/08/10 07:50
EDDV 100750Z 19004KT CAVOK 21/13 Q1015 NOSIG

2010/08/10 07:50
EKGF 100750Z 16024KT 9999 FEW008 17/17 Q1009

2010/08/10 07:50
EKHN 100750Z AUTO 16019KT 9999NDV NCD 18/15 Q1014

2010/08/10 07:50
EKHR 100750Z AUTO 17016KT 9999NDV NCD 19/15 Q1012

2010/08/10 07:50
EKKA 100750Z 18009KT 140V230 CAVOK 20/12 Q1013 NOSIG RMK FEW220

2010/08/10 07:50
EKSP 100750Z 17008KT 140V210 9999 FEW035 SCT200 19/14 Q1014 NOSIG

2010/08/10 08:00
BKPR 100800Z 02007KT 350V060 9999 FEW030 23/13 Q1018 NOSIG RMK BLU

2010/08/10 07:50
LSZH 100750Z VRB02KT 9999 FEW025 21/15 Q1018 NOSIG

2010/08/10 07:50
LSGG 100750Z 07004KT 030V150 9999 SCT070 23/13 Q1018 NOSIG

2010/08/10 07:50
LSZA 100750Z VRB02KT 9999 SCT045 BKN150 22/17 Q1017 NOSIG

2010/08/10 07:50
EEKE 100750Z 21012KT 9999 BKN019 19/18 Q1014

2010/08/10 07:50
LSMA 100750Z VRB02KT 9999 SCT096 20/15 Q1018 RMK BLU

2010/08/10 07:50
LSMD 100750Z 00000KT 9999 SCT054 20/14 Q1018 RMK BLU

2010/08/10 07:50
LSMP 100750Z VRB02KT 9999 SCT080 19/15 Q1018 RMK BLU

2010/08/10 07:50
LSMS 100750Z VRB03KT 9999 FEW070 21/11 Q1018

2010/08/10 07:50
EKCH 100750Z 19005KT 120V250 CAVOK 19/12 Q1016 NOSIG

2010/08/10 07:50
EKBI 100750Z 18008KT 130V220 CAVOK 18/15 Q1014

2010/08/10 07:50
EKYT 100750Z 21008KT 9999 SCT045 19/12 Q1014 NOSIG

2010/08/10 07:50
EKRK 100750Z AUTO 20005KT 150V230 9999NDV NCD 19/11 Q1016

2010/08/10 07:50
EKAH 100750Z AUTO 19006KT 130V250 9999NDV FEW075/// 19/12 Q1015

2010/08/10 07:50
EKEB 100750Z AUTO 17012KT 9999NDV FEW012/// 18/15 Q1013

2010/08/10 07:50
EKRN 100750Z AUTO 12006KT 100V160 9999NDV FEW033/// BKN040/// BKN063/// 18/12 Q1017

2010/08/10 07:50
ESGG 100750Z 23012KT 9999 FEW015 SCT021 17/12 Q1014

2010/08/10 07:50
ESGJ 100750Z 23011KT 9999 FEW022 SCT029 BKN035 16/12 Q1014

2010/08/10 07:50
ESGP 100750Z 22011KT 9999 SCT034 18/13 Q1014

2010/08/10 07:50
ESGT 100750Z 21010KT 9999 BKN020 18/13 Q1013

2010/08/10 07:50
ESMK 100750Z 27005KT 240V310 CAVOK 19/11 Q1016

2010/08/10 07:50
ESMQ 100750Z 25009KT 9999 FEW030 19/12 Q1016

2010/08/10 07:50
ESMS 100750Z 23004KT 190V260 CAVOK 19/11 Q1016

2010/08/10 07:50
ESMT 100750Z 24012KT 9999 FEW020 SCT030 19/14 Q1016

2010/08/10 07:50
ESMX 100750Z 23007KT 200V260 9999 FEW014 SCT019 BKN041 16/13 Q1016

2010/08/10 07:50
ESTA 100750Z 22007KT CAVOK 18/11 Q1016

2010/08/10 07:50
ESTL 100750Z 20005KT CAVOK 18/11 Q1016

2010/08/10 07:50
EKVJ 100750Z 18010KT CAVOK 19/17 Q1014

2010/08/10 07:50
EKSB 100750Z 17009KT 140V200 CAVOK 19/13 Q1014

2010/08/10 07:50
EKSN 100750Z 22011KT 9999 FEW028 SCT061 17/12 Q1013

2010/08/10 07:50
EKOD 100750Z 18008KT 140V210 CAVOK 19/13 Q1015

2010/08/10 07:55
KQFS 100755Z AUTO 12005G13KT 9999 FEW190 29/23 A2976 RMK AO2 SLP074 T02940225 PWINO PNO $

2010/08/10 07:55
KQSL 100755Z 35006KT 9999 CLR 44/04 A2966 RMK SLP030 Q1004MB

2010/08/10 07:55
KQW3 100755Z AUTO VRB01KT 9999 32/20 A2978 RMK AO2 SLP005

2010/08/10 07:50
LXGB 100750Z 00000KT CAVOK 24/15 Q1016 NOSIG

2010/08/10 07:53
CYKF 100753Z AUTO VRB02KT 1/4SM FG BKN004 18/18 A2995 RMK SLP142 DENSITY ALT 1600FT

2010/08/10 07:53
CYZP 100753Z AUTO 26008KT 9SM BKN022 OVC027 14/12 A3003 RMK SLP170

2010/08/10 07:51
KSNT 100751Z AUTO 31004KT 09/08 A3014 RMK AO2 SLP134 T00940083 PWINO TSNO 

2010/08/10 07:52
KBLU 100752Z AUTO 00000KT 10SM CLR 17/06 A3009 RMK AO2 SLP104 T01670056 402280150 TSNO 

2010/08/10 07:52
KNHK 100752Z AUTO 21008KT 10SM CLR 26/21 A2994 RMK AO2 SLP140 T02560211 $ 

2010/08/10 07:51
KSAD 100751Z AUTO 00000KT 10SM CLR 26/11 A2996 RMK AO2 SLP085 T02610111 TSNO 

2010/08/10 07:52
KN60 100752Z AUTO 08013KT 20/17 A2984 RMK AO1 SLP093 T02000172 

2010/08/10 07:52
K9V9 100752Z AUTO 16008KT 24/23 A2984 RMK AO2 SLP087 T02390228 PWINO TSNO 

2010/08/10 07:50
EDDB 100750Z VRB01KT 9999 FEW024 SCT086 21/15 Q1017 NOSIG

2010/08/10 07:50
EDDC 100750Z VRB01KT 9999 FEW020 SCT280 20/15 Q1017 NOSIG

2010/08/10 07:50
EDDE 100750Z VRB02KT 9999 FEW030 20/13 Q1017 NOSIG

2010/08/10 07:50
EDDF 100750Z 19002KT CAVOK 20/14 Q1016 NOSIG

2010/08/10 07:50
EDDG 100750Z 16005KT 9999 FEW020 SCT260 20/14 Q1015 NOSIG

2010/08/10 07:50
EDDH 100750Z 14007KT CAVOK 20/15 Q1015 NOSIG

2010/08/10 07:50
EDDK 100750Z 14006KT CAVOK 20/14 Q1015 NOSIG

2010/08/10 07:50
EDDL 100750Z 18005KT CAVOK 20/13 Q1015 NOSIG

2010/08/10 07:50
EDDM 100750Z VRB02KT CAVOK 19/14 Q1018 NOSIG

2010/08/10 07:50
EDDN 100750Z 12003KT 9999 FEW040 SCT078 18/15 Q1017 NOSIG

2010/08/10 07:50
EDDP 100750Z 21005KT CAVOK 19/16 Q1017 NOSIG

2010/08/10 07:50
EDDR 100750Z VRB02KT CAVOK 20/12 Q1017 NOSIG

2010/08/10 07:50
EDDS 100750Z VRB02KT 9999 FEW028 20/13 Q1018 NOSIG

2010/08/10 07:50
EDDT 100750Z 31001KT 9999 FEW025 BKN080 21/14 Q1017 NOSIG

2010/08/10 07:50
EDDV 100750Z 19004KT CAVOK 21/13 Q1015 NOSIG

2010/08/10 07:50
EDDW 100750Z 17005KT 9999 FEW045 BKN300 21/14 Q1014 NOSIG

2010/08/10 07:55
EHEH 100755Z AUTO 20006KT 9999NDV SCT240 SCT400 18/14 Q1014 BLU BLU NOSIG

2010/08/10 07:50
EKAH 100750Z AUTO 19006KT 130V250 9999NDV FEW075/// 19/12 Q1015

2010/08/10 07:50
EKBI 100750Z 18008KT 130V220 CAVOK 18/15 Q1014

2010/08/10 07:50
EKKA 100750Z 18009KT 140V230 CAVOK 20/12 Q1013 NOSIG RMK FEW220

2010/08/10 07:50
EKRK 100750Z AUTO 20005KT 150V230 9999NDV NCD 19/11 Q1016

2010/08/10 07:50
EKSB 100750Z 17009KT 140V200 CAVOK 19/13 Q1014

2010/08/10 07:50
EKSP 100750Z 17008KT 140V210 9999 FEW035 SCT200 19/14 Q1014 NOSIG

2010/08/10 07:50
EKVJ 100750Z 18010KT CAVOK 19/17 Q1014

2010/08/10 07:50
EKYT 100750Z 21008KT 9999 SCT045 19/12 Q1014 NOSIG

2010/08/10 07:50
ETNG 100750Z 24003KT CAVOK 20/14 Q1015 NOSIG

2010/08/10 07:50
LSGG 100750Z 07004KT 030V150 9999 SCT070 23/13 Q1018 NOSIG

2010/08/10 07:50
LSZA 100750Z VRB02KT 9999 SCT045 BKN150 22/17 Q1017 NOSIG

2010/08/10 07:50
LSZH 100750Z VRB02KT 9999 FEW025 21/15 Q1018 NOSIG

2010/08/10 07:50
CYCX 100750Z AUTO 34002KT 2 3/8SM 16/16 A2980 RMK VSBY VRBL 0.8V6.0

2010/08/10 07:48
CYMX 100748Z 24002KT 2SM R06/3000VP6000FT/U BR SKC 18/15 RMK FG2 VIS VRB 11/2-21/2

2010/08/10 07:48
CYUS 100748Z AUTO ///// 9SM CLR 11/ A2992

2010/08/10 07:49
CYWA 100749Z AUTO 00000KT 2 1/8SM CLR 14/14 A2991 RMK VSBY VRBL 0.6V9.+

2010/08/10 07:49
CYYC 100749Z 23006KT 15SM -RA OVC059 14/ RMK SC7

2010/08/10 07:50
CYZR 100750Z AUTO 20003KT 2SM BR SCT044 21/20 A2994 RMK SLP136 DENSITY ALT 1400FT

2010/08/10 07:46
EHLW 100746Z AUTO 19009KT 9999NDV FEW018 BKN025 18/15 Q1012 BLU BLU TEMPO WHT 7000 FEW110 TEMPO SCT 015

2010/08/10 07:48
EHVL 100748Z AUTO 22018KT 9999NDV SCT012 BKN015 OVC021 19/15 Q1011 GRN

2010/08/10 07:49
KCEF 100749Z AUTO 25005KT 10SM BKN060 BKN080 22/21 A2992 RMK AO2 RAE0720DZB0734E0749 CLDS LWR RWY05 SLP131 $

2010/08/10 07:52
KMTC 100752Z AUTO 00000KT 2 1/2SM R19/1000VP6000FT DZ BR CLR 21/21 A2995 RMK AO2 SLP144 $

2010/08/10 07:48
KNQX 100748Z AUTO 19008KT 10SM TS FEW014 SCT018 SCT026 27/23 A2984 RMK AO2 TSB42 $

2010/08/10 07:49
KSKF 100749Z AUTO 17004KT 10SM SCT015 26/ A2994 RMK AO2 SLP129 $

2010/08/10 07:49
KVOK 100749Z 00000KT 1/2SM R27/0900V2000FT FG CLR 18/18 A2995 RMK AO2A SLP135

2010/08/10 07:51
RKJK 100751Z 04006KT 4800 -RA BR OVC039 26/26 A2969 RMK AO2A RAB0701DZB0656E0701 CIG 026 RWY18 SLP055 $

2010/08/10 07:52
RODN 100752Z 19011KT 9999 -RA BKN019 OVC150 29/26 A2981 RMK AO2A RAB0752 CIG 016V023 SLP093

2010/08/10 08:00
ZMUB 100800Z 29003MPS 9999 FEW030CB SCT033 26/03 Q1004 NOSIG RMK QFE647.0 21

2010/08/10 07:50
EDDB 100750Z VRB01KT 9999 FEW024 SCT086 21/15 Q1017 NOSIG

2010/08/10 07:50
EDDC 100750Z VRB01KT 9999 FEW020 SCT280 20/15 Q1017 NOSIG

2010/08/10 07:50
EDDE 100750Z VRB02KT 9999 FEW030 20/13 Q1017 NOSIG

2010/08/10 07:50
EDDF 100750Z 19002KT CAVOK 20/14 Q1016 NOSIG

2010/08/10 07:50
EDDG 100750Z 16005KT 9999 FEW020 SCT260 20/14 Q1015 NOSIG

2010/08/10 07:50
EDDH 100750Z 14007KT CAVOK 20/15 Q1015 NOSIG

2010/08/10 07:50
EDDK 100750Z 14006KT CAVOK 20/14 Q1015 NOSIG

2010/08/10 07:50
EDDL 100750Z 18005KT CAVOK 20/13 Q1015 NOSIG

2010/08/10 07:50
EDDM 100750Z VRB02KT CAVOK 19/14 Q1018 NOSIG

2010/08/10 07:50
EDDN 100750Z 12003KT 9999 FEW040 SCT078 18/15 Q1017 NOSIG

2010/08/10 07:50
EDDP 100750Z 21005KT CAVOK 19/16 Q1017 NOSIG

2010/08/10 07:50
EDDR 100750Z VRB02KT CAVOK 20/12 Q1017 NOSIG

2010/08/10 07:50
EDDS 100750Z VRB02KT 9999 FEW028 20/13 Q1018 NOSIG

2010/08/10 07:50
EDDT 100750Z 31001KT 9999 FEW025 BKN080 21/14 Q1017 NOSIG

2010/08/10 07:50
EDDV 100750Z 19004KT CAVOK 21/13 Q1015 NOSIG

2010/08/10 07:50
EDDW 100750Z 17005KT 9999 FEW045 BKN300 21/14 Q1014 NOSIG

2010/08/10 07:55
EHEH 100755Z AUTO 20006KT 9999NDV SCT240 SCT400 18/14 Q1014 BLU BLU NOSIG

2010/08/10 07:50
EKAH 100750Z AUTO 19006KT 130V250 9999NDV FEW075/// 19/12 Q1015

2010/08/10 07:50
EKBI 100750Z 18008KT 130V220 CAVOK 18/15 Q1014

2010/08/10 07:50
EKKA 100750Z 18009KT 140V230 CAVOK 20/12 Q1013 NOSIG RMK FEW220

2010/08/10 07:50
EKRK 100750Z AUTO 20005KT 150V230 9999NDV NCD 19/11 Q1016

2010/08/10 07:50
EKYT 100750Z 21008KT 9999 SCT045 19/12 Q1014 NOSIG

2010/08/10 07:50
ETNG 100750Z 24003KT CAVOK 20/14 Q1015 NOSIG

2010/08/10 07:45
LMML 100745Z VRB03KT CAVOK 28/14 Q1015 NOSIG

2010/08/10 08:00
LPLA 100800Z 00000KT 9999 FEW018 BKN035 21/17 Q1022

2010/08/10 08:00
LQMO 100800Z VRB02KT CAVOK 29/13 Q1012

2010/08/10 07:50
LSGG 100750Z 07004KT 030V150 9999 SCT070 23/13 Q1018 NOSIG

2010/08/10 07:50
LSZA 100750Z VRB02KT 9999 SCT045 BKN150 22/17 Q1017 NOSIG

2010/08/10 07:50
LSZH 100750Z VRB02KT 9999 FEW025 21/15 Q1018 NOSIG

2010/08/10 07:52
KALS 100752Z AUTO 00000KT 10SM CLR 08/07 A3028 RMK AO2 SLPNO T00830067

2010/08/10 07:50
KANW 100750Z AUTO 31013G19KT 7SM VCTSRA SCT029 BKN035 OVC046 19/18 A2996 RMK AO2 LTG DSNT ALQS P0057 T01890180

2010/08/10 07:52
KAQW 100752Z AUTO 00000KT 2 1/2SM BR OVC019 21/20 A2994 RMK AO2 SLP134 T02060200

2010/08/10 07:53
KARA 100753Z AUTO 00000KT 10SM CLR 26/24 A2992 RMK AO2 SLP132 T02560244

2010/08/10 07:53
KASD 100753Z AUTO 00000KT 9SM CLR 24/23 A2991 RMK AO2 SLP129 T02440233

2010/08/10 07:50
KATS 100750Z AUTO 14007KT 10SM CLR 22/16 A3001 RMK AO2

2010/08/10 07:50
KAUH 100750Z AUTO 18006KT 10SM CLR 26/21 A2985 RMK AO2 T02600211

2010/08/10 07:50
KAUN 100750Z AUTO 10005KT 10SM CLR 20/11 A2990 RMK AO1

2010/08/10 07:53
KAUS 100753Z 19004KT 10SM CLR 26/24 A2993 RMK AO2 SLP122 T02610239

2010/08/10 07:50
KAXS 100750Z AUTO 24005KT 10SM CLR 28/20 A2993 RMK AO2 T02750202

2010/08/10 07:50
KAXX 100750Z AUTO 00000KT 10SM SCT001 06/06 A3038 RMK AO2

2010/08/10 07:52
KBDR 100752Z AUTO 00000KT 9SM FEW047 26/19 A2992 RMK AO2 SLP132 T02560189

2010/08/10 07:53
KBFM 100753Z AUTO 34004KT 5SM BR CLR 26/24 A2993 RMK AO2 SLP135 T02610244

2010/08/10 07:50
KBIE 100750Z AUTO 18007KT 10SM CLR 27/21 A2985 RMK AO2 T02670213

2010/08/10 07:52
KBLF 100752Z AUTO 24004KT 10SM CLR 23/17 A3012 RMK AO2 SLP151 T02280167

2010/08/10 07:52
KBML 100752Z AUTO 00000KT M1/4SM FG VV001 14/14 A2994 RMK AO2 SLP133 T01440144

2010/08/10 07:53
KBMQ 100753Z AUTO 17004KT 10SM CLR 26/22 A2997 RMK AO2 SLP128 T02610217 $

2010/08/10 07:53
KBPT 100753Z AUTO 00000KT 10SM CLR 26/24 A2990 RMK AO2 SLP125 T02560244

2010/08/10 07:53
KBRO 100753Z 17005KT 10SM CLR 28/26 A2989 RMK AO2 SLP120 T02830261

2010/08/10 07:50
KBTA 100750Z AUTO 16003KT 10SM CLR 27/25 A2984 RMK AO2 T02650245

2010/08/10 07:50
KBVN 100750Z AUTO 14004KT 2SM BR OVC004 26/24 A2986 RMK AO2 LTG DSNT N AND NW T02550244

2010/08/10 07:45
KBVS 100745Z AUTO 00000KT 7SM OVC013 14/14 A2996 RMK A01 P000

2010/08/10 07:52
KCFV 100752Z AUTO 17004KT 10SM CLR 27/22 A2991 RMK AO2 SLP117 T02670217

2010/08/10 07:50
KCHK 100750Z AUTO 11004KT 10SM CLR 26/22 A2992 RMK AO2

2010/08/10 07:50
KCLK 100750Z AUTO 16006KT 10SM CLR 27/18 A2992 RMK AO2

2010/08/10 07:53
KCLL 100753Z AUTO 18003KT 10SM CLR 27/23 A2992 RMK AO2 SLP127 T02720233

2010/08/10 07:53
KCOT 100753Z AUTO 14006KT 10SM CLR 27/24 A2992 RMK AO2 SLP122 T02670239

2010/08/10 07:50
KCQB 100750Z AUTO 19005KT 10SM 27/21 A2991 RMK AO2 TSNO

2010/08/10 07:55
KUDG 100755Z 00000KT 6SM CLR 23/22 A3003 RMK AO1

2010/08/10 07:53
KUTS 100753Z AUTO 22004KT 3/4SM HZ CLR 27/23 A2992 RMK AO2 SLP125 T02670233

2010/08/10 07:54
KWDG 100754Z AUTO 16007KT 10SM CLR 25/21 A2991 RMK AO2

2010/08/10 07:48
KWWR 100748Z AUTO 17006KT 10SM CLR 27/17 A2996 RMK AO2 T02650171

2010/08/10 07:51
PGWT 100751Z 09007KT 7SM SCT016 BKN100 28/25 A2990 RMK WIND DATA ESTIMATED

2010/08/10 07:52
KCQX 100752Z AUTO 00000KT 3SM -RA BR BKN037 OVC060 22/21 A2992 RMK AO2 LTG DSNT E TSB22E51 SLP133 P0009 T02170206

2010/08/10 07:50
KCUH 100750Z AUTO 00000KT 10SM CLR 28/21 A2990 RMK AO2

2010/08/10 07:52
KCVG 100752Z 20003KT 7SM SCT150 24/21 A2997 RMK AO2 SLP135 T02440211

2010/08/10 07:53
KCXO 100753Z AUTO 00000KT 10SM CLR 25/23 A2991 RMK AO2 SLP124 T02500233

2010/08/10 07:53
KDRT 100753Z AUTO 12007G18KT 10SM CLR 29/23 A2991 RMK AO2 SLP111 T02890228

2010/08/10 07:50
KDVO 100750Z AUTO 00000KT 10SM BKN009 11/10 A2991 RMK AO2

2010/08/10 07:53
KDWH 100753Z AUTO 28003KT 10SM CLR 26/24 A2991 RMK AO2 SLP126 T02560239

2010/08/10 07:53
KESF 100753Z AUTO 00000KT 9SM CLR 25/24 A2994 RMK AO2 SLP135 T02500239

2010/08/10 07:50
KFET 100750Z AUTO 12004KT 5SM BR CLR 26/25 A2983 RMK AO2 T02630251

2010/08/10 07:52
KFIT 100752Z AUTO 00000KT 9SM OVC100 22/21 A2990 RMK AO2 SLP124 T02220206

2010/08/10 07:50
KGCD 100750Z AUTO 26005KT 10SM SCT110 16/00 A2995 RMK AO2 T01620000 402950141

2010/08/10 07:51
KGMJ 100751Z AUTO 00000KT 10SM CLR 26/21 A2993 RMK AO2

2010/08/10 07:53
KGPT 100753Z AUTO 00000KT 7SM CLR 27/24 A2991 RMK AO2 SLP127 T02670244

2010/08/10 07:53
KHBG 100753Z AUTO 00000KT 7SM CLR 25/24 A2994 RMK AO2 SLP134 T02500239

2010/08/10 07:52
KARR 100752Z AUTO 00000KT 9SM FEW034 23/22 A2994 RMK AO2 SLP132 T02280222

2010/08/10 07:52
KATL 100752Z 00000KT 9SM SCT250 26/21 A3001 RMK AO2 SLP150 T02610211

2010/08/10 07:52
KBIS 100752Z AUTO 11004KT 10SM CLR 22/18 A2985 RMK AO2 SLP092 T02220183

2010/08/10 07:52
KBLH 100752Z AUTO 20008KT 10SM CLR 31/M04 A2976 RMK AO2 SLP069 T03111039 404110211

2010/08/10 07:52
KCID 100752Z AUTO 05005KT 9SM CLR 24/23 A2992 RMK AO2 LTG DSNT S AND SW SLP124 T02440228

2010/08/10 07:52
KCKV 100752Z AUTO 00000KT 6SM BR CLR 25/24 A2996 RMK AO2 SLP138 T02500239

2010/08/10 07:52
KCLT 100752Z 00000KT 8SM BKN070 24/22 A3003 RMK AO2 SLP158 T02440217

2010/08/10 07:52
KCNU 100752Z AUTO 18006KT 10SM CLR 27/21 A2991 RMK AO2 SLP114 T02670211

2010/08/10 07:52
KDCA 100752Z 19005KT 9SM BKN250 26/20 A2994 RMK AO2 SLP139 T02560200

2010/08/10 07:52
KDDC 100752Z AUTO 17008KT 10SM CLR 23/18 A2991 RMK AO2 SLP089 T02330183

2010/08/10 07:52
KDPA 100752Z 00000KT 10SM CLR 23/23 A2994 RMK AO2 SLP131 T02330228

2010/08/10 07:52
KDVN 100752Z AUTO 06004KT 8SM CLR 23/22 A2993 RMK AO2 SLP127 T02330217

2010/08/10 07:52
KEST 100752Z AUTO 12008KT 8SM CLR 24/23 A2990 RMK AO2 SLP114 T02440233

2010/08/10 07:52
KGLS 100752Z AUTO 22003KT 10SM FEW022 29/25 A2991 RMK AO2 SLP129 T02890250

2010/08/10 07:52
KHRL 100752Z AUTO 11003KT 10SM CLR 26/26 A2989 RMK AO2 SLP120 T02610256

2010/08/10 07:52
KHUT 100752Z AUTO 17008KT 10SM CLR 28/21 A2989 RMK AO2 SLP090 T02830206

2010/08/10 07:52
KIAD 100752Z 18003KT 7SM CLR 24/21 A2995 RMK AO2 SLP137 T02390211

2010/08/10 07:52
KIOW 100752Z AUTO 00000KT 10SM SCT110 26/23 A2993 RMK AO2 LTG DSNT S-W SLP128 T02560233

2010/08/10 07:52
KISN 100752Z 02008KT 10SM -RA FEW070 OVC110 20/17 A2979 RMK AO2 LTG DSNT ALQDS TSE14RAE16B37 SLP076 P0001 T02000172

2010/08/10 07:52
KLWC 100752Z AUTO 10005KT 10SM CLR 24/22 A2988 RMK AO2 SLP106 T02440222

2010/08/10 07:52
KMDH 100752Z AUTO 11003KT 3SM BR FEW085 26/24 A2994 RMK AO2 SLP131 T02560239 TSNO

2010/08/10 07:52
KMEB 100752Z AUTO 00000KT 10SM CLR 24/23 A3002 RMK AO2 SLP161 T02390228

2010/08/10 07:52
KMHK 100752Z AUTO 22008KT 10SM CLR 29/21 A2986 RMK AO2 SLP097 T02890206

2010/08/10 07:52
KMKE 100752Z 00000KT 3SM BR FEW250 22/21 A2993 RMK AO2 SLP131 T02170206

2010/08/10 07:52
KMLI 100752Z 09003KT 10SM CLR 24/23 A2991 RMK AO2 SLP121 T02440233

2010/08/10 07:52
KMWH 100752Z AUTO 30010KT 10SM FEW085 19/09 A2981 RMK AO2 SLP085 T01940089 403000133

2010/08/10 07:52
KOKB 100752Z AUTO 00000KT 7SM OVC011 15/13 A2991 RMK AO2 SLP128 T01500128 402440117 $

2010/08/10 07:52
KOMA 100752Z 15006KT 10SM FEW250 28/26 A2984 RMK AO2 SLP091 CONS LTG DSNT NW-NE T02780256

2010/08/10 07:52
KPPF 100752Z AUTO 00000KT 10SM CLR 26/22 A2992 RMK AO2 SLP118 T02560217

2010/08/10 07:52
KPWK 100752Z AUTO 00000KT 10SM CLR 24/23 A2996 RMK AO2 SLP138 T02440228

2010/08/10 07:52
KSGF 100752Z 16005KT 10SM CLR 27/23 A2995 RMK AO2 SLP123 T02670233

2010/08/10 07:52
KSPI 100752Z AUTO 13004KT 10SM CLR 26/22 A2991 RMK AO2 SLP122 T02560222

2010/08/10 07:52
KSUX 100752Z 10004KT 8SM CLR 25/24 A2983 RMK AO2 LTG DSNT N SLP090 T02500239

2010/08/10 07:52
KTRM 100752Z AUTO 33007KT 10SM CLR 28/08 A2971 RMK AO2 SLP065 T02780083 403830161

2010/08/10 07:52
KUGN 100752Z AUTO 00000KT 1/2SM FG CLR 22/21 A2994 RMK AO2 SLP124 T02170206

2010/08/10 07:52
KVTN 100752Z AUTO VRB03KT 6SM -TSRA BR BKN041 OVC085 19/18 A2995 RMK AO2 WSHFT 0705 LTG DSNT NE AND E TSB0658 PRESFR SLP116 P0008 T01940183

2010/08/10 07:50
KPMV 100750Z AUTO 16006KT 10SM CLR 27/24 A2985 RMK AO2 T02700235

2010/08/10 07:51
KADH 100751Z AUTO 20006KT 10SM CLR 28/18 A2992 RMK AO2

2010/08/10 07:53
KAEX 100753Z 12006KT 10SM CLR 27/24 A2992 RMK AO2 SLP132 T02720239

2010/08/10 07:50
KAFK 100750Z AUTO 20007KT 10SM CLR 26/22 A2985 RMK AO2 T02560221

2010/08/10 07:52
KAFN 100752Z AUTO 00000KT 10SM OVC065 21/19 A2994 RMK AO2 SLP135 T02060189

2010/08/10 07:53
KALI 100753Z AUTO 00000KT 10SM CLR 26/25 A2991 RMK AO2 SLP126 T02560250

2010/08/10 07:45
KALM 100745Z AUTO 03004KT 10SM CLR 22/11 A3002 RMK AO2

2010/08/10 07:50
KHDE 100750Z AUTO 34009G18KT 10SM SCT040 SCT100 22/18 A2992 RMK AO2 T02240177

2010/08/10 07:52
KHIE 100752Z AUTO 00000KT 1 1/4SM BR BKN002 OVC009 17/17 A2994 RMK AO2 SLP134 T01670167

2010/08/10 07:50
KHJH 100750Z AUTO 18007KT 10SM CLR 26/22 A2985 RMK AO2 T02600215

2010/08/10 07:53
KHOU 100753Z 24003KT 10SM FEW250 27/24 A2990 RMK AO2 SLP129 T02670239

2010/08/10 07:53
KIAH 100753Z 00000KT 10SM FEW250 27/25 A2991 RMK AO2 SLP126 T02720250

2010/08/10 07:50
KIBM 100750Z AUTO 00000KT 10SM CLR 16/16 A3005 RMK AO2 T01580155

2010/08/10 07:50
KIDP 100750Z AUTO 19004KT 10SM CLR 25/20 A2990 RMK AO2

2010/08/10 07:52
KIEN 100752Z AUTO 09003KT 10SM FEW110 19/17 A2993 RMK AO2 PK WND 24026/0704 WSHFT 0648 RAE0655 SLP095 P0000 T01940172

2010/08/10 07:52
KIJD 100752Z AUTO 00000KT 7SM OVC100 22/20 A2993 RMK AO2 RAB0658E36 SLP132 P0000 T02170200

2010/08/10 07:51
KJSV 100751Z AUTO 00000KT 10SM CLR 24/22 A2992 RMK AO2

2010/08/10 07:50
KJYR 100750Z AUTO 19006KT 10SM CLR 25/23 A2984 RMK AO2

2010/08/10 07:50
KLAM 100750Z AUTO 00000KT 10SM CLR 19/07 A3028 RMK AO2

2010/08/10 07:50
KLCG 100750Z AUTO 10003KT 3SM BR OVC004 25/25 A2984 RMK AO2 LTG DSNT W THRU NE T02500245

2010/08/10 07:53
KLBX 100753Z AUTO 00000KT 10SM CLR 25/24 A2991 RMK AO2 SLP128 T02500239

2010/08/10 07:53
KLCH 100753Z AUTO 00000KT 10SM CLR 26/24 A2990 RMK AO2 SLP134 T02560244

2010/08/10 07:53
KLFK 100753Z AUTO 00000KT 10SM CLR 27/24 A2992 RMK AO2 SLP126 T02720239

2010/08/10 07:53
KLFT 100753Z AUTO 00000KT 10SM CLR 25/24 A2992 RMK AO2 SLP132 T02500239

2010/08/10 07:50
KLHM 100750Z AUTO 15008KT 10SM CLR 20/12 A2982 RMK AO1 T02030123 403240140

2010/08/10 07:53
KLVJ 100753Z AUTO 00000KT 10SM CLR 27/24 A2992 RMK AO2 SLP132 T02720239

2010/08/10 07:50
KLXN 100750Z AUTO 33009KT 10SM CLR 21/19 A2993 RMK AO2 T02100190

2010/08/10 07:53
KMCB 100753Z AUTO 00000KT 7SM CLR 24/22 A2995 RMK AO2 SLP137 T02390222

2010/08/10 07:52
KMFD 100752Z AUTO 26005KT 7SM -RA BKN042 OVC050 25/19 A2999 RMK AO2 RAB30 SLP141 P0000 T02500194

2010/08/10 07:53
KMFE 100753Z AUTO 14004KT 10SM SCT018 SCT023 BKN033 28/26 A2990 RMK AO2 SLP123 T02780261 $

2010/08/10 07:50
KMLE 100750Z AUTO 00000KT 10SM CLR 27/24 A2983 RMK AO2 T02700241

2010/08/10 07:49
KMMH 100749Z AUTO 00000KT 10SM CLR 06/M00 A3017 RMK AO1

2010/08/10 07:53
KMSY 100753Z 00000KT 9SM CLR 25/24 A2992 RMK AO2 SLP133 T02500244

2010/08/10 07:55
KMYR 100755Z AUTO 00000KT 10SM FEW020 26/24 A3004 RMK AO1

2010/08/10 07:53
KNEW 100753Z AUTO 05006KT 9SM FEW012 28/26 A2992 RMK AO2 SLP125 T02830256 TSNO

2010/08/10 07:55
KOAJ 100755Z AUTO 00000KT 10SM CLR 22/21 A3002 RMK AO1

2010/08/10 07:50
KOGA 100750Z AUTO 01007KT 10SM CLR 19/16 A2992 RMK AO2 LTG DSNT SE AND S P0001 T01900160

2010/08/10 07:50
KOJA 100750Z AUTO 18005KT 10SM CLR 28/20 A2993 RMK AO2

2010/08/10 07:52
KOKC 100752Z 19006KT 10SM CLR 26/21 A2992 RMK AO2 SLP110 T02610211 $

2010/08/10 07:50
KONL 100750Z AUTO 25020G28KT 7SM TSRA SCT004 BKN022 OVC055 21/19 A2993 RMK AO2 LTG DSNT ALQS P0005 T02080194

2010/08/10 07:52
KORE 100752Z AUTO 00000KT 3SM BR BKN100 21/21 A2992 RMK AO2 RAB01E10 SLP128 P0000 T02110206

2010/08/10 07:50
KORS 100750Z AUTO 18006KT 10SM BKN042 BKN065 14/12 A2992 RMK AO2

2010/08/10 07:53
KPIL 100753Z AUTO 17006KT 10SM CLR 31/27 A2989 RMK AO2 SLP122 T03060267

2010/08/10 07:50
KPLU 100750Z AUTO 24005KT 10SM OVC009 13/12 A2996 RMK AO2

2010/08/10 07:53
KPQL 100753Z AUTO 00000KT 5SM BR CLR 26/25 A2991 RMK AO2 SLP130 T02560250

2010/08/10 07:53
KPSX 100753Z AUTO 21014G20KT 10SM CLR 31/26 A2991 RMK AO2 SLP127 T03060256

2010/08/10 07:50
KPTS 100750Z AUTO 22003KT 10SM CLR 27/23 A2991 RMK AO2 T02680231

2010/08/10 07:47
KPVJ 100747Z AUTO 17004KT 10SM CLR 27/22 A2991 RMK AO2

2010/08/10 07:52
KPYM 100752Z AUTO 00000KT 5SM BR FEW049 BKN075 22/20 A2992 RMK AO2 TSE0653RAB19E49 SLP128 P0000 T02220200

2010/08/10 07:52
KRAP 100752Z AUTO 15007KT 10SM CLR 21/17 A2987 RMK AO2 SLP083 T02060167

2010/08/10 07:53
KRKP 100753Z AUTO 00000KT 10SM CLR 29/26 A2990 RMK AO2 SLP125 T02890261

2010/08/10 07:53
KSAT 100753Z 18006KT 10SM BKN014 OVC021 27/24 A2996 RMK AO2 SLPNO T02720244

2010/08/10 07:53
KSNL 100753Z AUTO 18007KT 10SM CLR 28/20 A2993 RMK AO2

2010/08/10 07:55
KSOP 100755Z AUTO 25003KT 10SM CLR 25/23 A3002 RMK AO1

2010/08/10 07:52
KSPS 100752Z AUTO 20010KT 10SM CLR 28/19 A2990 RMK AO2 SLP107 P0003 T02780189

2010/08/10 07:50
KSRE 100750Z AUTO 19004KT 10SM CLR 27/19 A2992 RMK AO2

2010/08/10 07:53
KSSF 100753Z AUTO 00000KT 10SM BKN016 27/23 A2994 RMK AO2 SLP123 T02670233

2010/08/10 07:45
KSVC 100745Z AUTO 35009KT 10SM CLR 18/09 A3016 RMK AO2

2010/08/10 07:52
KTAN 100752Z AUTO 00000KT 3SM BR FEW075 BKN095 21/21 A2989 RMK AO2 RAE38 SLP121 P0001 T02110211

2010/08/10 07:54
KTMK 100754Z AUTO 00000KT 10SM OVC022 15/11 A3003 RMK AO2

2010/08/10 07:52
KTOL 100752Z 00000KT 2SM BR CLR 22/21 A2996 RMK AO2 SLP139 T02170211

2010/08/10 07:53
KTQH 100753Z AUTO 00000KT 10SM CLR 22/21 A2994 RMK AO2

2010/08/10 07:49
PAJZ 100749Z AUTO 15006KT 1 1/4SM BR SCT001 OVC006 10/09 A2967 RMK AO2 PWINO TSNO CIG 005V011 $

2010/08/10 07:50
EKCH 100750Z 19005KT 120V250 CAVOK 19/12 Q1016 NOSIG

2010/08/10 07:50
EKBI 100750Z 18008KT 130V220 CAVOK 18/15 Q1014

2010/08/10 07:50
EKYT 100750Z 21008KT 9999 SCT045 19/12 Q1014 NOSIG

2010/08/10 07:50
EKRK 100750Z AUTO 20005KT 150V230 9999NDV NCD 19/11 Q1016

2010/08/10 07:50
EKAH 100750Z AUTO 19006KT 130V250 9999NDV FEW075/// 19/12 Q1015

2010/08/10 07:50
EKEB 100750Z AUTO 17012KT 9999NDV FEW012/// 18/15 Q1013

2010/08/10 07:50
EKRN 100750Z AUTO 12006KT 100V160 9999NDV FEW033/// BKN040/// BKN063/// 18/12 Q1017

2010/08/10 07:51
KSNT 100751Z AUTO 31004KT 09/08 A3014 RMK AO2 SLP134 T00940083 PWINO TSNO

2010/08/10 07:51
KSAN 100751Z 28005KT 10SM OVC015 18/14 A2993 RMK AO2 SLP133 T01780139 402220156

2010/08/10 07:48
KEHA 100748Z AUTO 21003KT 22/17 RMK AO1 PK WND 06 000 T02220167

2010/08/10 07:51
KP59 100751Z AUTO 27004KT 21/19 A2994 RMK AO2 SLP131 T02060194 PWINO TSNO

2010/08/10 07:51
KCON 100751Z AUTO 00000KT 3SM BR CLR 21/21 A2990 RMK AO2 SLP122 T02110206

2010/08/10 07:51
KORF 100751Z 23006KT 10SM CLR 25/23 A2997 RMK AO2 SLP150 T02500233 $

2010/08/10 07:51
KBVE 100751Z AUTO 00000KT CLR 26/25 A2991 RMK AO2 SLP128 T02610250 TSNO $

2010/08/10 07:51
KJCT 100751Z AUTO 18004KT 10SM CLR 27/22 A2997 RMK AO2 SLP108 T02720217 TSNO

2010/08/10 07:51
KHSE 100751Z AUTO 25006KT 10SM CLR 25/25 A3000 RMK AO2 SLP160 T02500250 TSNO

2010/08/10 07:51
KCRP 100751Z 20003KT 10SM FEW018 27/26 A2990 RMK AO2 SLP123 T02670256

2010/08/10 07:51
KDAG 100751Z AUTO 25011KT 10SM CLR 24/01 A2986 RMK AO2 SLP084 T02440006 403780189 TSNO

2010/08/10 07:51
KGDP 100751Z AUTO 06008KT 10SM CLR 23/13 A3016 RMK AO2 SLP118 T02280133 TSNO

2010/08/10 07:51
KSMX 100751Z AUTO 00000KT 9SM OVC004 12/11 A2992 RMK AO2 SLP134 T01220111 402000122 TSNO

2010/08/10 07:51
KABE 100751Z 00000KT 9SM -RA FEW080 24/21 A2993 RMK AO2 RAB28 SLP131 P0000 T02390211

2010/08/10 07:51
KNYC 100751Z VRB04KT 10SM CLR 26/18 A2995 RMK AO2 SLP131 T02560183 $

2010/08/10 07:51
KATT 100751Z AUTO 00000KT 10SM CLR 27/24 A2994 RMK AO2 SLP122 T02670239

2010/08/10 07:52
KBLU 100752Z AUTO 00000KT 10SM CLR 17/06 A3009 RMK AO2 SLP104 T01670056 402280150 TSNO

2010/08/10 07:52
KN60 100752Z AUTO 08013KT 20/17 A2984 RMK AO1 SLP093 T02000172

2010/08/10 07:52
K9V9 100752Z AUTO 16008KT 24/23 A2984 RMK AO2 SLP087 T02390228 PWINO TSNO

2010/08/10 07:51
KSAD 100751Z AUTO 00000KT 10SM CLR 26/11 A2996 RMK AO2 SLP085 T02610111 TSNO

2010/08/10 07:50
EKVJ 100750Z 18010KT CAVOK 19/17 Q1014

2010/08/10 07:50
EKSB 100750Z 17009KT 140V200 CAVOK 19/13 Q1014

2010/08/10 07:50
EKSN 100750Z 22011KT 9999 FEW028 SCT061 17/12 Q1013

2010/08/10 07:50
EKOD 100750Z 18008KT 140V210 CAVOK 19/13 Q1015

2010/08/10 07:50
EDDF 100750Z 19002KT CAVOK 20/14 Q1016 NOSIG

2010/08/10 07:50
EDDH 100750Z 14007KT CAVOK 20/15 Q1015 NOSIG

2010/08/10 07:50
EDDK 100750Z 14006KT CAVOK 20/14 Q1015 NOSIG

2010/08/10 07:50
EDDL 100750Z 18005KT CAVOK 20/13 Q1015 NOSIG

2010/08/10 07:50
EDDM 100750Z VRB02KT CAVOK 19/14 Q1018 NOSIG

2010/08/10 07:50
EDDN 100750Z 12003KT 9999 FEW040 SCT078 18/15 Q1017 NOSIG

2010/08/10 07:50
EDDS 100750Z VRB02KT 9999 FEW028 20/13 Q1018 NOSIG

2010/08/10 07:50
EDDT 100750Z 31001KT 9999 FEW025 BKN080 21/14 Q1017 NOSIG

2010/08/10 07:50
EDDV 100750Z 19004KT CAVOK 21/13 Q1015 NOSIG

2010/08/10 07:50
EDDB 100750Z VRB01KT 9999 FEW024 SCT086 21/15 Q1017 NOSIG

2010/08/10 07:50
EDDC 100750Z VRB01KT 9999 FEW020 SCT280 20/15 Q1017 NOSIG

2010/08/10 07:50
EDDE 100750Z VRB02KT 9999 FEW030 20/13 Q1017 NOSIG

2010/08/10 07:50
EDDG 100750Z 16005KT 9999 FEW020 SCT260 20/14 Q1015 NOSIG

2010/08/10 07:50
EDDP 100750Z 21005KT CAVOK 19/16 Q1017 NOSIG

2010/08/10 07:50
EDDR 100750Z VRB02KT CAVOK 20/12 Q1017 NOSIG

2010/08/10 07:50
EDDW 100750Z 17005KT 9999 FEW045 BKN300 21/14 Q1014 NOSIG

2010/08/10 07:50
EKKA 100750Z 18009KT 140V230 CAVOK 20/12 Q1013 NOSIG RMK FEW220

2010/08/10 07:50
EKSP 100750Z 17008KT 140V210 9999 FEW035 SCT200 19/14 Q1014 NOSIG

2010/08/10 07:53
PTRO 100753Z 17005KT 15SM SCT016TCU BKN120 BKN300 29/24 A2985 RMK TCU VC ALQDS 

2010/08/10 07:50
ESGG 100750Z 23012KT 9999 FEW015 SCT021 17/12 Q1014

2010/08/10 07:50
ESGJ 100750Z 23011KT 9999 FEW022 SCT029 BKN035 16/12 Q1014

2010/08/10 07:50
ESGP 100750Z 22011KT 9999 SCT034 18/13 Q1014

2010/08/10 07:50
ESGT 100750Z 21010KT 9999 BKN020 18/13 Q1013

2010/08/10 07:50
ESMK 100750Z 27005KT 240V310 CAVOK 19/11 Q1016

2010/08/10 07:50
ESMQ 100750Z 25009KT 9999 FEW030 19/12 Q1016

2010/08/10 07:50
ESMS 100750Z 23004KT 190V260 CAVOK 19/11 Q1016

2010/08/10 07:50
ESMT 100750Z 24012KT 9999 FEW020 SCT030 19/14 Q1016

2010/08/10 07:50
ESMX 100750Z 23007KT 200V260 9999 FEW014 SCT019 BKN041 16/13 Q1016

2010/08/10 07:50
ESTA 100750Z 22007KT CAVOK 18/11 Q1016

2010/08/10 07:50
ESTL 100750Z 20005KT CAVOK 18/11 Q1016

2010/08/10 07:50
EFJY 100750Z 21005KT 160V280 9999 SCT015 SCT040 BKN055 20/16 Q1009

2010/08/10 07:50
EFHK 100750Z 20010KT 9999 -SHRA BKN010 FEW030CB 20/17 Q1012 NOSIG

2010/08/10 07:50
EFKU 100750Z AUTO 18008KT 9999NDV SCT018 BKN070 20/15 Q1010

2010/08/10 07:50
EFRO 100750Z AUTO 01010KT 9999NDV BKN011 OVC015 12/10 Q1010

2010/08/10 07:50
EFTP 100750Z 19008KT 150V260 9999 SCT018 20/16 Q1010

2010/08/10 07:50
EFTU 100750Z AUTO 23007KT 180V270 9999 BKN016 BKN022 20/16 Q1010

2010/08/10 07:50
EFVA 100750Z 34004KT 270V010 9999 SHRA FEW006 SCT018 BKN030 BKN045 19/17 Q1008

2010/08/10 07:50
EKGF 100750Z 16024KT 9999 FEW008 17/17 Q1009

2010/08/10 07:50
EKHN 100750Z AUTO 16019KT 9999NDV NCD 18/15 Q1014

2010/08/10 07:50
EKHR 100750Z AUTO 17016KT 9999NDV NCD 19/15 Q1012

2010/08/10 07:50
BGBW 100750Z AUTO 07004KT 4100NDV BR FEW001/// BKN003/// BKN005/// 08/08 Q1009

2010/08/10 07:50
BGGH 100750Z 21007KT 0200 RA FG VV002 09/08 Q1007

2010/08/10 07:50
BGJN 100750Z AUTO 36003KT 9999NDV SCT019/// OVC025/// 07/04 Q1008

2010/08/10 07:50
BGKK 100750Z 08019KT 9999 DZ VCFG FEW010 SCT035 BKN060 07/05 Q1012

2010/08/10 07:51
PGRO 100751Z 04004KT 7SM FEW015 FEW100 27/24 A2991

2010/08/10 07:51
PGWT 100751Z 09007KT 7SM SCT016 BKN100 28/25 A2990 RMK WIND DATA ESTIMATED

2010/08/10 07:51
PGWT 100751Z 09007KT 7SM SCT016 BKN100 28/25 A2990 RMK WIND DATA ESTIMATED

2010/08/10 07:52
KNHK 100752Z AUTO 21008KT 10SM CLR 26/21 A2994 RMK AO2 SLP140 T02560211 $

2010/08/10 07:51
KOSH 100751Z AUTO 00000KT 1 3/4SM BR CLR 22/21 A2995 RMK AO2 VIS 1/2V4

2010/08/10 07:49
KY50 100749Z AUTO 00000KT 1SM BR VV015 19/19 A2995 RMK AO2 RAB11E20 P0000

2010/08/10 07:51
KASX 100751Z AUTO 00000KT 1 3/4SM BR CLR 18/18 A2996 RMK AO2 P0001

2010/08/10 07:49
PAJZ 100749Z AUTO 15006KT 1 1/4SM BR SCT001 OVC006 10/09 A2967 RMK AO2 PWINO TSNO CIG 005V011 $

2010/08/10 08:00
LQSA 100800Z VRB02KT 9999 FEW040 20/15 Q1019 NOSIG

2010/08/10 07:51
KSNT 100751Z AUTO 31004KT 09/08 A3014 RMK AO2 SLP134 T00940083 PWINO TSNO

2010/08/10 07:53
KLFK 100753Z AUTO 00000KT 10SM CLR 27/24 A2992 RMK AO2 SLP126 T02720239

2010/08/10 07:53
KLFT 100753Z AUTO 00000KT 10SM CLR 25/24 A2992 RMK AO2 SLP132 T02500239

2010/08/10 07:50
KLHM 100750Z AUTO 15008KT 10SM CLR 20/12 A2982 RMK AO1 T02030123 403240140

2010/08/10 07:53
KLVJ 100753Z AUTO 00000KT 10SM CLR 27/24 A2992 RMK AO2 SLP132 T02720239

2010/08/10 07:50
KLXN 100750Z AUTO 33009KT 10SM CLR 21/19 A2993 RMK AO2 T02100190

2010/08/10 07:53
KMCB 100753Z AUTO 00000KT 7SM CLR 24/22 A2995 RMK AO2 SLP137 T02390222

2010/08/10 07:53
KMFE 100753Z AUTO 14004KT 10SM SCT018 SCT023 BKN033 28/26 A2990 RMK AO2 SLP123 T02780261 $

2010/08/10 07:50
KMLE 100750Z AUTO 00000KT 10SM CLR 27/24 A2983 RMK AO2 T02700241

2010/08/10 07:49
KMMH 100749Z AUTO 00000KT 10SM CLR 06/M00 A3017 RMK AO1

2010/08/10 07:53
KMSY 100753Z 00000KT 9SM CLR 25/24 A2992 RMK AO2 SLP133 T02500244

2010/08/10 07:55
KMYR 100755Z AUTO 00000KT 10SM FEW020 26/24 A3004 RMK AO1

2010/08/10 07:53
KNEW 100753Z AUTO 05006KT 9SM FEW012 28/26 A2992 RMK AO2 SLP125 T02830256 TSNO

2010/08/10 07:55
KOAJ 100755Z AUTO 00000KT 10SM CLR 22/21 A3002 RMK AO1

2010/08/10 07:50
KOGA 100750Z AUTO 01007KT 10SM CLR 19/16 A2992 RMK AO2 LTG DSNT SE AND S P0001 T01900160

2010/08/10 07:50
KOJA 100750Z AUTO 18005KT 10SM CLR 28/20 A2993 RMK AO2

2010/08/10 07:52
KOKC 100752Z 19006KT 10SM CLR 26/21 A2992 RMK AO2 SLP110 T02610211 $

2010/08/10 07:50
KONL 100750Z AUTO 25020G28KT 7SM TSRA SCT004 BKN022 OVC055 21/19 A2993 RMK AO2 LTG DSNT ALQS P0005 T02080194

2010/08/10 07:52
KORE 100752Z AUTO 00000KT 3SM BR BKN100 21/21 A2992 RMK AO2 RAB01E10 SLP128 P0000 T02110206

2010/08/10 07:50
KORS 100750Z AUTO 18006KT 10SM BKN042 BKN065 14/12 A2992 RMK AO2

2010/08/10 07:53
KPIL 100753Z AUTO 17006KT 10SM CLR 31/27 A2989 RMK AO2 SLP122 T03060267

2010/08/10 07:50
KPLU 100750Z AUTO 24005KT 10SM OVC009 13/12 A2996 RMK AO2

2010/08/10 07:53
KPQL 100753Z AUTO 00000KT 5SM BR CLR 26/25 A2991 RMK AO2 SLP130 T02560250

2010/08/10 07:53
KPSX 100753Z AUTO 21014G20KT 10SM CLR 31/26 A2991 RMK AO2 SLP127 T03060256

2010/08/10 07:47
KPVJ 100747Z AUTO 17004KT 10SM CLR 27/22 A2991 RMK AO2

2010/08/10 07:52
KPYM 100752Z AUTO 00000KT 5SM BR FEW049 BKN075 22/20 A2992 RMK AO2 TSE0653RAB19E49 SLP128 P0000 T02220200

2010/08/10 07:52
KRAP 100752Z AUTO 15007KT 10SM CLR 21/17 A2987 RMK AO2 SLP083 T02060167

2010/08/10 07:53
KRKP 100753Z AUTO 00000KT 10SM CLR 29/26 A2990 RMK AO2 SLP125 T02890261

2010/08/10 07:53
KSNL 100753Z AUTO 18007KT 10SM CLR 28/20 A2993 RMK AO2

2010/08/10 07:55
KSOP 100755Z AUTO 25003KT 10SM CLR 25/23 A3002 RMK AO1

2010/08/10 07:50
KSRE 100750Z AUTO 19004KT 10SM CLR 27/19 A2992 RMK AO2

2010/08/10 07:53
KSSF 100753Z AUTO 00000KT 10SM BKN016 27/23 A2994 RMK AO2 SLP123 T02670233

2010/08/10 07:45
KSVC 100745Z AUTO 35009KT 10SM CLR 18/09 A3016 RMK AO2

2010/08/10 07:52
KTAN 100752Z AUTO 00000KT 3SM BR FEW075 BKN095 21/21 A2989 RMK AO2 RAE38 SLP121 P0001 T02110211

2010/08/10 07:54
KTMK 100754Z AUTO 00000KT 10SM OVC022 15/11 A3003 RMK AO2

2010/08/10 07:53
KTQH 100753Z AUTO 00000KT 10SM CLR 22/21 A2994 RMK AO2

2010/08/10 07:53
YBCG 100753Z AUTO 03018KT 3600NDV // BKN005 BKN011 OVC016 20/19 Q1017

2010/08/10 07:51
KSAN 100751Z 28005KT 10SM OVC015 18/14 A2993 RMK AO2 SLP133 T01780139 402220156

2010/08/10 07:48
KEHA 100748Z AUTO 21003KT 22/17 RMK AO1 PK WND 06 000 T02220167

2010/08/10 07:51
KP59 100751Z AUTO 27004KT 21/19 A2994 RMK AO2 SLP131 T02060194 PWINO TSNO

2010/08/10 07:51
KCON 100751Z AUTO 00000KT 3SM BR CLR 21/21 A2990 RMK AO2 SLP122 T02110206

2010/08/10 07:51
KORF 100751Z 23006KT 10SM CLR 25/23 A2997 RMK AO2 SLP150 T02500233 $

2010/08/10 07:55
KLZZ 100755Z AUTO 17003KT 10SM CLR 27/22 A2994 RMK AO2

2010/08/10 07:51
KMYL 100751Z AUTO 00000KT 10SM BKN070 11/11 A2999 RMK AO2 LTG DSNT N SLP114 T01110106

2010/08/10 07:51
KOXR 100751Z AUTO 00000KT 10SM OVC008 16/13 A2989 RMK AO2 SLP121 T01560133 401940122 $

2010/08/10 07:51
KPVD 100751Z 00000KT 9SM FEW075 SCT095 SCT120 OVC150 23/19 A2992 RMK AO2 RAB0655E25 SLP130 P0001 T02280194

2010/08/10 07:51
KROW 100751Z AUTO 00000KT 10SM CLR 22/17 A3003 RMK AO2 SLP098 T02170172 TSNO

2010/08/10 07:51
KTEB 100751Z 21004KT 10SM -RA CLR 26/18 A2991 RMK AO2 DZB22E26RAB26 SLP127 P0000 T02560178

2010/08/10 07:51
KYNG 100751Z 21003KT 10SM BKN047 OVC070 24/18 A2997 RMK AO2 SLP137 T02440178

2010/08/10 07:51
KALB 100751Z 00000KT 2SM BR SCT023 SCT034 21/21 A2994 RMK AO2 SLP134 T02110206

2010/08/10 07:51
KBDL 100751Z 00000KT 3SM -RA BR FEW004 BKN065 OVC110 22/21 A2991 RMK AO2 SLP127 P0004 T02220211

2010/08/10 07:51
KBKW 100751Z AUTO 00000KT 5SM BR CLR 19/17 A3010 RMK AO2 SLP152 T01890167 $

2010/08/10 07:51
KEKN 100751Z AUTO 00000KT 1/2SM FG BKN001 OVC006 17/17 A3007 RMK AO2 SLP171 T01720167 TSNO

2010/08/10 07:51
KELP 100751Z 18003KT 10SM FEW160 26/14 A3003 RMK AO2 SLP088 T02560144

2010/08/10 07:51
KHTS 100751Z AUTO 00000KT 3SM BR CLR 22/21 A2998 RMK AO2 SLP142 T02170206 TSNO

2010/08/10 07:48
KIZA 100748Z AUTO 00000KT 10SM BKN007 12/11 A2991 RMK AO2

2010/08/10 07:51
KBVE 100751Z AUTO 00000KT CLR 26/25 A2991 RMK AO2 SLP128 T02610250 TSNO $

2010/08/10 07:51
KHSE 100751Z AUTO 25006KT 10SM CLR 25/25 A3000 RMK AO2 SLP160 T02500250 TSNO

2010/08/10 07:51
KCRP 100751Z 20003KT 10SM FEW018 27/26 A2990 RMK AO2 SLP123 T02670256

2010/08/10 07:51
KGDP 100751Z AUTO 06008KT 10SM CLR 23/13 A3016 RMK AO2 SLP118 T02280133 TSNO

2010/08/10 07:51
KSMX 100751Z AUTO 00000KT 9SM OVC004 12/11 A2992 RMK AO2 SLP134 T01220111 402000122 TSNO

2010/08/10 07:51
KABE 100751Z 00000KT 9SM -RA FEW080 24/21 A2993 RMK AO2 RAB28 SLP131 P0000 T02390211

2010/08/10 07:51
KNYC 100751Z VRB04KT 10SM CLR 26/18 A2995 RMK AO2 SLP131 T02560183 $

2010/08/10 07:51
KATT 100751Z AUTO 00000KT 10SM CLR 27/24 A2994 RMK AO2 SLP122 T02670239

2010/08/10 07:52
KCID 100752Z AUTO 05005KT 9SM CLR 24/23 A2992 RMK AO2 LTG DSNT S AND SW SLP124 T02440228

2010/08/10 07:52
KCNU 100752Z AUTO 18006KT 10SM CLR 27/21 A2991 RMK AO2 SLP114 T02670211

2010/08/10 07:52
KMHK 100752Z AUTO 22008KT 10SM CLR 29/21 A2986 RMK AO2 SLP097 T02890206

2010/08/10 07:52
KVTN 100752Z AUTO VRB03KT 6SM -TSRA BR BKN041 OVC085 19/18 A2995 RMK AO2 WSHFT 0705 LTG DSNT NE AND E TSB0658 PRESFR SLP116 P0008 T01940183

2010/08/10 07:52
KBLU 100752Z AUTO 00000KT 10SM CLR 17/06 A3009 RMK AO2 SLP104 T01670056 402280150 TSNO

2010/08/10 07:52
KN60 100752Z AUTO 08013KT 20/17 A2984 RMK AO1 SLP093 T02000172

2010/08/10 07:52
K9V9 100752Z AUTO 16008KT 24/23 A2984 RMK AO2 SLP087 T02390228 PWINO TSNO

2010/08/10 07:51
KSAD 100751Z AUTO 00000KT 10SM CLR 26/11 A2996 RMK AO2 SLP085 T02610111 TSNO

2010/08/10 07:52
KALS 100752Z AUTO 00000KT 10SM CLR 08/07 A3028 RMK AO2 SLPNO T00830067

2010/08/10 07:52
KBDR 100752Z AUTO 00000KT 9SM FEW047 26/19 A2992 RMK AO2 SLP132 T02560189

2010/08/10 07:53
KCLL 100753Z AUTO 18003KT 10SM CLR 27/23 A2992 RMK AO2 SLP127 T02720233

2010/08/10 07:53
KDRT 100753Z AUTO 12007G18KT 10SM CLR 29/23 A2991 RMK AO2 SLP111 T02890228

2010/08/10 07:52
KMFD 100752Z AUTO 26005KT 7SM -RA BKN042 OVC050 25/19 A2999 RMK AO2 RAB30 SLP141 P0000 T02500194

2010/08/10 07:50
KPTS 100750Z AUTO 22003KT 10SM CLR 27/23 A2991 RMK AO2 T02680231

2010/08/10 07:53
KSAT 100753Z 18006KT 10SM BKN014 OVC021 27/24 A2996 RMK AO2 SLPNO T02720244

2010/08/10 07:51
KMDW 100751Z 06004KT 10SM SCT085 SCT250 26/21 A2993 RMK AO2 SLP123 OCNL LTGIC DSNT S CB DSNT S T02610211 PNO

2010/08/10 07:51
KMPV 100751Z AUTO 00000KT 1/4SM FG VV001 18/18 A2998 RMK AO2 SLP147 P0001 T01780178

2010/08/10 07:50
KONM 100750Z AUTO 08003KT 10SM CLR 22/12 A3009 RMK AO2 T02150115

2010/08/10 07:51
KONP 100751Z AUTO 00000KT 7SM OVC019 13/11 A3005 RMK AO1

2010/08/10 07:51
KORD 100751Z 00000KT 10SM FEW120 SCT200 24/23 A2994 RMK AO2 SLP132 T02440228

2010/08/10 07:55
KPAN 100755Z AUTO 31003KT 10SM CLR 17/08 A3014 RMK AO1

2010/08/10 07:51
KPHX 100751Z 27006KT 10SM FEW120 34/10 A2980 RMK AO2 SLP069 T03390100 $

2010/08/10 07:51
KPIT 100751Z 00000KT 7SM SCT100 BKN250 22/18 A2998 RMK AO2 SLP147 T02170183

2010/08/10 07:51
KPWM 100751Z AUTO 30006KT 10SM FEW095 21/19 A2987 RMK AO2 SLP113 T02110189

2010/08/10 07:51
KRDU 100751Z 23004KT 9SM FEW150 SCT250 24/22 A3001 RMK AO2 SLP156 T02440222

2010/08/10 07:51
KSJT 100751Z AUTO 20004KT 10SM CLR 27/17 A2996 RMK AO2 SLP114 T02720172

2010/08/10 07:51
KSLK 100751Z AUTO 00000KT 2SM BR SCT005 BKN012 OVC020 19/19 A2996 RMK AO2 SLP135 T01940189

2010/08/10 07:51
KSMO 100751Z AUTO 28003KT 10SM OVC006 16/13 A2991 RMK AO2 SLP128 T01610133 402000150

2010/08/10 07:51
KSTL 100751Z 18003KT 10SM FEW250 29/24 A2991 RMK AO2 SLP113 T02940244

2010/08/10 07:51
KVNY 100751Z AUTO 12003KT 10SM CLR 17/12 A2990 RMK AO2 SLP117 T01670117 402830139

2010/08/10 07:47
K1F0 100747Z AUTO 00000KT 10SM CLR 27/21 A2989 RMK AO2

2010/08/10 07:58
K36U 100758Z AUTO 00000KT 10SM CLR 08/04 A3012 RMK AO2

2010/08/10 07:48
K4O4 100748Z AUTO 00000KT 10SM CLR 24/22 A2992 RMK AO2

2010/08/10 07:48
K5C1 100748Z AUTO 19005KT 10SM CLR 25/23 A2998 RMK AO1

2010/08/10 07:51
KACT 100751Z 20009KT 10SM CLR 28/23 A2991 RMK AO2 SLP117 T02830228 $

2010/08/10 07:50
KADM 100750Z AUTO 00000KT 10SM CLR 25/22 A2990 RMK AO2

2010/08/10 07:51
KAHN 100751Z AUTO 00000KT 4SM BR CLR 23/22 A3001 RMK AO2 SLP154 T02280217

2010/08/10 07:51
KASH 100751Z AUTO 00000KT 5SM BR CLR 22/22 A2990 RMK AO2 T02220216 RAB03E17 P0000 SLP125

2010/08/10 07:51
KAVX 100751Z AUTO 13005KT M1/4SM FG OVC003 11/11 A2993 RMK AO2 SLP127 T01110111 402060106 TSNO

2010/08/10 07:51
KBGD 100751Z AUTO 00000KT 10SM CLR 23/15 A3002 RMK AO2 SLP115 T02330150

2010/08/10 07:51
KCLE 100751Z 22004KT 8SM FEW080 24/20 A2997 RMK AO2 SLP140 T02390200

2010/08/10 07:51
KCMH 100751Z 00000KT 10SM SCT150 BKN250 23/21 A2996 RMK AO2 SLP138 T02330206

2010/08/10 07:51
KCSG 100751Z AUTO 10005KT 9SM CLR 26/19 A2997 RMK AO2 SLP140 T02610194 TSNO

2010/08/10 07:51
KDAW 100751Z AUTO 00000KT 8SM -RA SCT070 BKN110 21/19 A2988 RMK AO2 SLP113 P0000 T02060194

2010/08/10 07:51
KDUA 100751Z AUTO 00000KT 10SM CLR 28/21 A2991 RMK AO2

2010/08/10 07:53
KDUC 100753Z AUTO 14003KT 10SM CLR 27/21 A2991 RMK AO2

2010/08/10 07:51
KERI 100751Z 01004KT 6SM HZ BKN055 OVC080 24/19 A2994 RMK AO2 SLP132 T02390194

2010/08/10 07:51
KEWR 100751Z 25006KT 10SM -RA SCT050 BKN150 OVC250 27/18 A2992 RMK AO2 RAB49 SLP131 P0000 T02670183 $

2010/08/10 07:55
KGLY 100755Z AUTO 00000KT 10SM CLR 27/24 A2991 RMK AO2

2010/08/10 07:51
KILG 100751Z 19005KT 9SM CLR 24/22 A2994 RMK AO2 SLP136 T02440217

2010/08/10 07:51
KJFK 100751Z 26006KT 10SM BKN140 OVC250 26/19 A2993 RMK AO2 SLP135 T02560194

2010/08/10 07:49
KL35 100749Z AUTO 00000KT 10SM CLR 07/M02 A3016 RMK AO2

2010/08/10 07:51
KLGA 100751Z 24007KT 10SM BKN140 OVC250 28/18 A2991 RMK AO2 SLP130 T02780178

2010/08/10 07:51
KLGU 100751Z AUTO 00000KT 10SM CLR 13/08 A3002 RMK AO2 SLP117 T01330083

2010/08/10 07:50
KLRU 100750Z AUTO 28005KT 10SM CLR 23/09 A3007 RMK AO2

2010/08/10 07:51
KJCT 100751Z AUTO 18004KT 10SM CLR 27/22 A2997 RMK AO2 SLP108 T02720217 TSNO

2010/08/10 07:51
KDAG 100751Z AUTO 25011KT 10SM CLR 24/01 A2986 RMK AO2 SLP084 T02440006 403780189 TSNO

2010/08/10 07:52
KARR 100752Z AUTO 00000KT 9SM FEW034 23/22 A2994 RMK AO2 SLP132 T02280222

2010/08/10 07:52
KATL 100752Z 00000KT 9SM SCT250 26/21 A3001 RMK AO2 SLP150 T02610211

2010/08/10 07:52
KBIS 100752Z AUTO 11004KT 10SM CLR 22/18 A2985 RMK AO2 SLP092 T02220183

2010/08/10 07:52
KBLH 100752Z AUTO 20008KT 10SM CLR 31/M04 A2976 RMK AO2 SLP069 T03111039 404110211

2010/08/10 07:52
KCKV 100752Z AUTO 00000KT 6SM BR CLR 25/24 A2996 RMK AO2 SLP138 T02500239

2010/08/10 07:52
KCLT 100752Z 00000KT 8SM BKN070 24/22 A3003 RMK AO2 SLP158 T02440217

2010/08/10 07:52
KDCA 100752Z 19005KT 9SM BKN250 26/20 A2994 RMK AO2 SLP139 T02560200

2010/08/10 07:52
KDDC 100752Z AUTO 17008KT 10SM CLR 23/18 A2991 RMK AO2 SLP089 T02330183

2010/08/10 07:52
KDPA 100752Z 00000KT 10SM CLR 23/23 A2994 RMK AO2 SLP131 T02330228

2010/08/10 07:52
KDVN 100752Z AUTO 06004KT 8SM CLR 23/22 A2993 RMK AO2 SLP127 T02330217

2010/08/10 07:52
KEST 100752Z AUTO 12008KT 8SM CLR 24/23 A2990 RMK AO2 SLP114 T02440233

2010/08/10 07:52
KGLS 100752Z AUTO 22003KT 10SM FEW022 29/25 A2991 RMK AO2 SLP129 T02890250

2010/08/10 07:52
KHRL 100752Z AUTO 11003KT 10SM CLR 26/26 A2989 RMK AO2 SLP120 T02610256

2010/08/10 07:52
KHUT 100752Z AUTO 17008KT 10SM CLR 28/21 A2989 RMK AO2 SLP090 T02830206

2010/08/10 07:52
KIAD 100752Z 18003KT 7SM CLR 24/21 A2995 RMK AO2 SLP137 T02390211

2010/08/10 07:52
KIOW 100752Z AUTO 00000KT 10SM SCT110 26/23 A2993 RMK AO2 LTG DSNT S-W SLP128 T02560233

2010/08/10 07:52
KISN 100752Z 02008KT 10SM -RA FEW070 OVC110 20/17 A2979 RMK AO2 LTG DSNT ALQDS TSE14RAE16B37 SLP076 P0001 T02000172

2010/08/10 07:52
KLWC 100752Z AUTO 10005KT 10SM CLR 24/22 A2988 RMK AO2 SLP106 T02440222

2010/08/10 07:52
KMDH 100752Z AUTO 11003KT 3SM BR FEW085 26/24 A2994 RMK AO2 SLP131 T02560239 TSNO

2010/08/10 07:52
KMEB 100752Z AUTO 00000KT 10SM CLR 24/23 A3002 RMK AO2 SLP161 T02390228

2010/08/10 07:52
KMKE 100752Z 00000KT 3SM BR FEW250 22/21 A2993 RMK AO2 SLP131 T02170206

2010/08/10 07:52
KMLI 100752Z 09003KT 10SM CLR 24/23 A2991 RMK AO2 SLP121 T02440233

2010/08/10 07:52
KMWH 100752Z AUTO 30010KT 10SM FEW085 19/09 A2981 RMK AO2 SLP085 T01940089 403000133

2010/08/10 07:52
KOKB 100752Z AUTO 00000KT 7SM OVC011 15/13 A2991 RMK AO2 SLP128 T01500128 402440117 $

2010/08/10 07:52
KOMA 100752Z 15006KT 10SM FEW250 28/26 A2984 RMK AO2 SLP091 CONS LTG DSNT NW-NE T02780256

2010/08/10 07:52
KPPF 100752Z AUTO 00000KT 10SM CLR 26/22 A2992 RMK AO2 SLP118 T02560217

2010/08/10 07:52
KPWK 100752Z AUTO 00000KT 10SM CLR 24/23 A2996 RMK AO2 SLP138 T02440228

2010/08/10 07:52
KSGF 100752Z 16005KT 10SM CLR 27/23 A2995 RMK AO2 SLP123 T02670233

2010/08/10 07:52
KSPI 100752Z AUTO 13004KT 10SM CLR 26/22 A2991 RMK AO2 SLP122 T02560222

2010/08/10 07:52
KSUX 100752Z 10004KT 8SM CLR 25/24 A2983 RMK AO2 LTG DSNT N SLP090 T02500239

2010/08/10 07:52
KTRM 100752Z AUTO 33007KT 10SM CLR 28/08 A2971 RMK AO2 SLP065 T02780083 403830161

2010/08/10 07:52
KUGN 100752Z AUTO 00000KT 1/2SM FG CLR 22/21 A2994 RMK AO2 SLP124 T02170206

2010/08/10 07:50
KPMV 100750Z AUTO 16006KT 10SM CLR 27/24 A2985 RMK AO2 T02700235

2010/08/10 07:51
KADH 100751Z AUTO 20006KT 10SM CLR 28/18 A2992 RMK AO2

2010/08/10 07:53
KAEX 100753Z 12006KT 10SM CLR 27/24 A2992 RMK AO2 SLP132 T02720239

2010/08/10 07:50
KAFK 100750Z AUTO 20007KT 10SM CLR 26/22 A2985 RMK AO2 T02560221

2010/08/10 07:52
KAFN 100752Z AUTO 00000KT 10SM OVC065 21/19 A2994 RMK AO2 SLP135 T02060189

2010/08/10 07:53
KALI 100753Z AUTO 00000KT 10SM CLR 26/25 A2991 RMK AO2 SLP126 T02560250

2010/08/10 07:45
KALM 100745Z AUTO 03004KT 10SM CLR 22/11 A3002 RMK AO2

2010/08/10 07:50
KANW 100750Z AUTO 31013G19KT 7SM VCTSRA SCT029 BKN035 OVC046 19/18 A2996 RMK AO2 LTG DSNT ALQS P0057 T01890180

2010/08/10 07:52
KAQW 100752Z AUTO 00000KT 2 1/2SM BR OVC019 21/20 A2994 RMK AO2 SLP134 T02060200

2010/08/10 07:53
KARA 100753Z AUTO 00000KT 10SM CLR 26/24 A2992 RMK AO2 SLP132 T02560244

2010/08/10 07:53
KASD 100753Z AUTO 00000KT 9SM CLR 24/23 A2991 RMK AO2 SLP129 T02440233

2010/08/10 07:50
KATS 100750Z AUTO 14007KT 10SM CLR 22/16 A3001 RMK AO2

2010/08/10 07:50
KAUH 100750Z AUTO 18006KT 10SM CLR 26/21 A2985 RMK AO2 T02600211

2010/08/10 07:50
KAUN 100750Z AUTO 10005KT 10SM CLR 20/11 A2990 RMK AO1

2010/08/10 07:53
KAUS 100753Z 19004KT 10SM CLR 26/24 A2993 RMK AO2 SLP122 T02610239

2010/08/10 07:50
KAXS 100750Z AUTO 24005KT 10SM CLR 28/20 A2993 RMK AO2 T02750202

2010/08/10 07:50
KAXX 100750Z AUTO 00000KT 10SM SCT001 06/06 A3038 RMK AO2

2010/08/10 07:48
KMMT 100748Z AUTO 00000KT 4SM R32/3000VP6000FT BR CLR 23/23 A3001 RMK AO2 SLP161

2010/08/10 07:49
KCEF 100749Z AUTO 25005KT 10SM BKN060 BKN080 22/21 A2992 RMK AO2 RAE0720DZB0734E0749 CLDS LWR RWY05 SLP131 $

2010/08/10 07:49
KCEF 100749Z AUTO 25005KT 10SM BKN060 BKN080 22/21 A2992 RMK AO2 RAE0720DZB0734E0749 CLDS LWR RWY05 SLP131 $

2010/08/10 07:52
KMTC 100752Z AUTO 00000KT 2 1/2SM R19/1000VP6000FT DZ BR CLR 21/21 A2995 RMK AO2 SLP144 $

2010/08/10 07:48
KNQX 100748Z AUTO 19008KT 10SM TS FEW014 SCT018 SCT026 27/23 A2984 RMK AO2 TSB42 $

2010/08/10 07:49
KSKF 100749Z AUTO 17004KT 10SM SCT015 26/ A2994 RMK AO2 SLP129 $

2010/08/10 07:49
KVOK 100749Z 00000KT 1/2SM R27/0900V2000FT FG CLR 18/18 A2995 RMK AO2A SLP135

2010/08/10 07:53
KBFM 100753Z AUTO 34004KT 5SM BR CLR 26/24 A2993 RMK AO2 SLP135 T02610244

2010/08/10 07:50
KBIE 100750Z AUTO 18007KT 10SM CLR 27/21 A2985 RMK AO2 T02670213

2010/08/10 07:52
KBLF 100752Z AUTO 24004KT 10SM CLR 23/17 A3012 RMK AO2 SLP151 T02280167

2010/08/10 07:52
KBML 100752Z AUTO 00000KT M1/4SM FG VV001 14/14 A2994 RMK AO2 SLP133 T01440144

2010/08/10 07:53
KBMQ 100753Z AUTO 17004KT 10SM CLR 26/22 A2997 RMK AO2 SLP128 T02610217 $

2010/08/10 07:53
KBPT 100753Z AUTO 00000KT 10SM CLR 26/24 A2990 RMK AO2 SLP125 T02560244

2010/08/10 07:53
KBRO 100753Z 17005KT 10SM CLR 28/26 A2989 RMK AO2 SLP120 T02830261

2010/08/10 07:50
KBTA 100750Z AUTO 16003KT 10SM CLR 27/25 A2984 RMK AO2 T02650245

2010/08/10 07:50
KBVN 100750Z AUTO 14004KT 2SM BR OVC004 26/24 A2986 RMK AO2 LTG DSNT N AND NW T02550244

2010/08/10 07:45
KBVS 100745Z AUTO 00000KT 7SM OVC013 14/14 A2996 RMK A01 P000

2010/08/10 07:52
KCFV 100752Z AUTO 17004KT 10SM CLR 27/22 A2991 RMK AO2 SLP117 T02670217

2010/08/10 07:50
KCHK 100750Z AUTO 11004KT 10SM CLR 26/22 A2992 RMK AO2

2010/08/10 07:50
KCLK 100750Z AUTO 16006KT 10SM CLR 27/18 A2992 RMK AO2

2010/08/10 07:53
KCOT 100753Z AUTO 14006KT 10SM CLR 27/24 A2992 RMK AO2 SLP122 T02670239

2010/08/10 07:50
KCQB 100750Z AUTO 19005KT 10SM 27/21 A2991 RMK AO2 TSNO

2010/08/10 07:55
KUDG 100755Z 00000KT 6SM CLR 23/22 A3003 RMK AO1

2010/08/10 07:53
KUTS 100753Z AUTO 22004KT 3/4SM HZ CLR 27/23 A2992 RMK AO2 SLP125 T02670233

2010/08/10 07:54
KWDG 100754Z AUTO 16007KT 10SM CLR 25/21 A2991 RMK AO2

2010/08/10 07:48
KWWR 100748Z AUTO 17006KT 10SM CLR 27/17 A2996 RMK AO2 T02650171

2010/08/10 07:52
KCQX 100752Z AUTO 00000KT 3SM -RA BR BKN037 OVC060 22/21 A2992 RMK AO2 LTG DSNT E TSB22E51 SLP133 P0009 T02170206

2010/08/10 07:50
KCUH 100750Z AUTO 00000KT 10SM CLR 28/21 A2990 RMK AO2

2010/08/10 07:52
KCVG 100752Z 20003KT 7SM SCT150 24/21 A2997 RMK AO2 SLP135 T02440211

2010/08/10 07:53
KCXO 100753Z AUTO 00000KT 10SM CLR 25/23 A2991 RMK AO2 SLP124 T02500233

2010/08/10 07:50
KDVO 100750Z AUTO 00000KT 10SM BKN009 11/10 A2991 RMK AO2

2010/08/10 07:53
KDWH 100753Z AUTO 28003KT 10SM CLR 26/24 A2991 RMK AO2 SLP126 T02560239

2010/08/10 07:53
KESF 100753Z AUTO 00000KT 9SM CLR 25/24 A2994 RMK AO2 SLP135 T02500239

2010/08/10 07:50
KFET 100750Z AUTO 12004KT 5SM BR CLR 26/25 A2983 RMK AO2 T02630251

2010/08/10 07:52
KFIT 100752Z AUTO 00000KT 9SM OVC100 22/21 A2990 RMK AO2 SLP124 T02220206

2010/08/10 07:50
KGCD 100750Z AUTO 26005KT 10SM SCT110 16/00 A2995 RMK AO2 T01620000 402950141

2010/08/10 07:51
KGMJ 100751Z AUTO 00000KT 10SM CLR 26/21 A2993 RMK AO2

2010/08/10 07:53
KGPT 100753Z AUTO 00000KT 7SM CLR 27/24 A2991 RMK AO2 SLP127 T02670244

2010/08/10 07:53
KHBG 100753Z AUTO 00000KT 7SM CLR 25/24 A2994 RMK AO2 SLP134 T02500239

2010/08/10 07:50
KHDE 100750Z AUTO 34009G18KT 10SM SCT040 SCT100 22/18 A2992 RMK AO2 T02240177

2010/08/10 07:52
KHIE 100752Z AUTO 00000KT 1 1/4SM BR BKN002 OVC009 17/17 A2994 RMK AO2 SLP134 T01670167

2010/08/10 07:50
KHJH 100750Z AUTO 18007KT 10SM CLR 26/22 A2985 RMK AO2 T02600215

2010/08/10 07:53
KHOU 100753Z 24003KT 10SM FEW250 27/24 A2990 RMK AO2 SLP129 T02670239

2010/08/10 07:53
KIAH 100753Z 00000KT 10SM FEW250 27/25 A2991 RMK AO2 SLP126 T02720250

2010/08/10 07:50
KIBM 100750Z AUTO 00000KT 10SM CLR 16/16 A3005 RMK AO2 T01580155

2010/08/10 07:50
KIDP 100750Z AUTO 19004KT 10SM CLR 25/20 A2990 RMK AO2

2010/08/10 07:52
KIEN 100752Z AUTO 09003KT 10SM FEW110 19/17 A2993 RMK AO2 PK WND 24026/0704 WSHFT 0648 RAE0655 SLP095 P0000 T01940172

2010/08/10 07:52
KIJD 100752Z AUTO 00000KT 7SM OVC100 22/20 A2993 RMK AO2 RAB0658E36 SLP132 P0000 T02170200

2010/08/10 07:51
KJSV 100751Z AUTO 00000KT 10SM CLR 24/22 A2992 RMK AO2

2010/08/10 07:50
KJYR 100750Z AUTO 19006KT 10SM CLR 25/23 A2984 RMK AO2

2010/08/10 07:50
KLAM 100750Z AUTO 00000KT 10SM CLR 19/07 A3028 RMK AO2

2010/08/10 07:50
KLCG 100750Z AUTO 10003KT 3SM BR OVC004 25/25 A2984 RMK AO2 LTG DSNT W THRU NE T02500245

2010/08/10 07:53
KLBX 100753Z AUTO 00000KT 10SM CLR 25/24 A2991 RMK AO2 SLP128 T02500239

2010/08/10 07:53
KLCH 100753Z AUTO 00000KT 10SM CLR 26/24 A2990 RMK AO2 SLP134 T02560244

2010/08/10 07:52
KSPS 100752Z AUTO 20010KT 10SM CLR 28/19 A2990 RMK AO2 SLP107 P0003 T02780189

2010/08/10 07:52
KTOL 100752Z 00000KT 2SM BR CLR 22/21 A2996 RMK AO2 SLP139 T02170211

2010/08/10 07:52
KP69 100752Z AUTO 00000KT 16/15 A2987 RMK AO2 SLP094 T01560150 403060144 PWINO TSNO 

2010/08/10 07:52
KREO 100752Z AUTO 22008KT 20/M05 A2989 RMK AO2 SLP080 T02001050 403110150 PWINO TSNO 

2010/08/10 07:52
RODN 100752Z 19011KT 9999 -RA BKN019 OVC150 29/26 A2981 RMK AO2A RAB0752 CIG 016V023 SLP093

2010/08/10 07:50
EDDB 100750Z VRB01KT 9999 FEW024 SCT086 21/15 Q1017 NOSIG

2010/08/10 07:50
EDDC 100750Z VRB01KT 9999 FEW020 SCT280 20/15 Q1017 NOSIG

2010/08/10 07:50
EDDG 100750Z 16005KT 9999 FEW020 SCT260 20/14 Q1015 NOSIG

2010/08/10 07:50
EDDP 100750Z 21005KT CAVOK 19/16 Q1017 NOSIG

2010/08/10 07:50
EDDR 100750Z VRB02KT CAVOK 20/12 Q1017 NOSIG

2010/08/10 07:50
EDDT 100750Z 31001KT 9999 FEW025 BKN080 21/14 Q1017 NOSIG

2010/08/10 07:50
EDDV 100750Z 19004KT CAVOK 21/13 Q1015 NOSIG

2010/08/10 07:50
EDDW 100750Z 17005KT 9999 FEW045 BKN300 21/14 Q1014 NOSIG

2010/08/10 07:50
EYSA 100750Z 27007KT 250V310 9999 SCT016 20/17 Q1017

2010/08/10 07:50
LXGB 100750Z 00000KT CAVOK 24/15 Q1016 NOSIG

2010/08/10 07:48
EHVL 100748Z AUTO 22018KT 9999NDV SCT012 BKN015 OVC021 19/15 Q1011 GRN

2010/08/10 07:46
EHLW 100746Z AUTO 19009KT 9999NDV FEW018 BKN025 18/15 Q1012 BLU BLU TEMPO WHT 7000 FEW110 TEMPO SCT 015

2010/08/10 07:51
RKJK 100751Z 04006KT 4800 -RA BR OVC039 26/26 A2969 RMK AO2A RAB0701DZB0656E0701 CIG 026 RWY18 SLP055 $

2010/08/10 07:52
RODN 100752Z 19011KT 9999 -RA BKN019 OVC150 29/26 A2981 RMK AO2A RAB0752 CIG 016V023 SLP093

2010/08/10 07:51
MMMX 100751Z 00000KT 5SM FEW020 SCT090 16/14 A3030 NOSIG RMK 8/530 HZY LTG DIST S CI

2010/08/10 07:50
MMCL 100750Z 02005KT 10SM SCT100 BKN220 27/25 A2983 RMK 8/077 RTS

2010/08/10 07:48
K4O4 100748Z AUTO 00000KT 10SM CLR 24/22 A2992 RMK AO2

2010/08/10 07:52
KSDB 100752Z AUTO 21006KT 10SM CLR 17/01 A3004 RMK AO2 SLP118 T01670011 TSNO 

2010/08/10 07:52
KABI 100752Z 18006KT 10SM CLR 28/18 A2996 RMK AO2 SLP112 T02780183 

2010/08/10 07:45
KFWC 100745Z AUTO 00000KT 7SM CLR 24/23 A2994

2010/08/10 07:45
KMWA 100745Z AUTO 00000KT 5SM BR CLR 27/25 A2996

2010/08/10 07:45
KSAR 100745Z AUTO 00000KT 7SM CLR 26/24 A2994

2010/08/10 07:45
KTAZ 100745Z AUTO 00000KT 10SM CLR 25/24 A2992

2010/08/10 07:45
KTIP 100745Z AUTO 36005KT 10SM -RA SCT070 SCT100 26/24 A2995

2010/08/10 08:00
FAJS 100800Z 10016KT CAVOK 08/M02 Q1034 NOSIG

2010/08/10 07:51
KCAK 100751Z 23004KT 8SM SCT070 OVC100 24/19 A2997 RMK AO2 SLP137 T02390194 

2010/08/10 07:48
KEHA 100748Z AUTO 21003KT 22/17

2010/08/10 07:48
KIZA 100748Z AUTO 00000KT 10SM BKN007 12/11 A2991

2010/08/10 07:50
LSGS 100750Z VRB03KT 9999 FEW070 21/11 Q1018

2010/08/10 07:50
LSZG 100750Z 06002KT CAVOK 19/15 Q1018 NOSIG

2010/08/10 07:50
LSZR 100750Z VRB01KT CAVOK 19/15 Q1018 NOSIG RMK D

2010/08/10 07:50
LSZS 100750Z VRB01KT 9999 FEW030 14/10 Q1023

2010/08/10 07:50
LSZC 100750Z VRB01KT 9999 FEW110 20/15 Q1018

2010/08/10 07:53
CYCX 100753Z AUTO 34002KT 1 1/8SM 16/16 A2980 RMK VSBY VRBL 0.4V5.0

2010/08/10 07:51
KOSH 100751Z AUTO 00000KT 1 3/4SM BR CLR 22/21 A2995

2010/08/10 07:50
BGBW 100750Z AUTO 07004KT 4100NDV BR FEW001/// BKN003/// BKN005/// 08/08 Q1009

2010/08/10 07:50
BGGH 100750Z 21007KT 0200 RA FG VV002 09/08 Q1007

2010/08/10 07:50
BGJN 100750Z AUTO 36003KT 9999NDV SCT019/// OVC025/// 07/04 Q1008

2010/08/10 07:50
BGKK 100750Z 08019KT 9999 DZ VCFG FEW010 SCT035 BKN060 07/05 Q1012

2010/08/10 08:00
LQSA 100800Z VRB02KT 9999 FEW040 20/15 Q1019 NOSIG

2010/08/10 07:50
EGGD 100750Z 21008KT 9999 -RADZ FEW015 12/12 Q1010

2010/08/10 07:50
EGGP 100750Z 25015KT 9999 FEW030 16/08 Q1008

2010/08/10 07:50
EGHI 100750Z 24005KT 220V280 7000 -RA FEW010 SCT018 BKN028 14/12 Q1012 

2010/08/10 07:50
EGNT 100750Z 22004KT 160V240 9999 FEW040 16/11 Q1005

2010/08/10 07:50
EGNV 100750Z 19010KT 9999 FEW025 14/13 Q1006

2010/08/10 07:50
EFJY 100750Z 21005KT 160V280 9999 SCT015 SCT040 BKN055 20/16 Q1009

2010/08/10 07:50
EGAA 100750Z 26014KT 9999 SCT013 13/11 Q1004

2010/08/10 07:50
EGAC 100750Z 24010KT 210V270 9999 FEW012 SCT025 15/11 Q1004

2010/08/10 07:50
EGFF 100750Z 24009KT 9999 SCT009 SCT024 15/12 Q1010

2010/08/10 07:50
EGGW 100750Z 25009KT 9000 BKN034 BKN041 13/12 Q1010 RERA

2010/08/10 07:50
EGLC 100750Z 28006KT 9999 RA FEW007 BKN012 16/14 Q1011

2010/08/10 07:50
EGNM 100750Z 21005KT 9000 FEW010 SCT035 13/11 Q1007

2010/08/10 07:50
EGNX 100750Z 22009KT 9999 FEW012 SCT045 14/12 Q1009

2010/08/10 07:50
EGPD 100750Z 36002KT 9999 FEW003 11/10 Q1004 NOSIG

2010/08/10 07:50
ESKN 100750Z 25010KT 220V290 9999 SCT019 BKN053 18/13 Q1012

2010/08/10 07:50
ESOE 100750Z 23008KT 200V260 9999 BKN015 17/14 Q1012

2010/08/10 07:50
ESOK 100750Z AUTO 22005KT 9999NDV OVC013/// 16/14 Q1011

2010/08/10 07:50
ESOW 100750Z 24009KT 9999 BKN012 OVC020 17/15 Q1011

2010/08/10 07:50
ESSA 100750Z 24011KT 9999 FEW007 SCT008 BKN009 17/15 Q1011 BECMG BKN012

2010/08/10 07:50
ESSB 100750Z 23007KT 9999 BKN007 17/15 Q1011

2010/08/10 07:50
ESSD 100750Z 27009KT 9999 FEW017 BKN022 19/15 Q1010

2010/08/10 07:50
ESSP 100750Z 24009KT 9999 OVC017 17/13 Q1013

2010/08/10 07:50
ESSV 100750Z 24011KT 9999 FEW017 BKN040 17/12 Q1014

2010/08/10 07:50
ESNG 100750Z 32003KT 290V350 9999 BKN035 15/09 Q1011

2010/08/10 07:50
ESNK 100750Z 36003KT 9999 BKN016 17/14 Q1009

2010/08/10 07:50
ESNN 100750Z 06004KT 010V120 9999 SCT005 BKN007 OVC009 16/15 Q1009

2010/08/10 07:50
ESNO 100750Z 02005KT 350V060 5000 BR SCT005 BKN010 15/14 Q1010 REDZ

2010/08/10 07:50
ESNQ 100750Z VRB02KT 9999 FEW015 BKN029 13/09 Q1012

2010/08/10 07:50
ESNS 100750Z 02007KT 6000 RA SCT010 BKN020 13/12 Q1011

2010/08/10 07:50
ESNU 100750Z 02006KT 350V050 6000 BR SCT005 BKN009 15/13 Q1010

2010/08/10 07:50
ESNZ 100750Z 03005KT 5000 BR VV005 14/14 Q1010

2010/08/10 07:50
ESUT 100750Z AUTO 16008KT 9999NDV OVC027/// 15/10 Q1011

2010/08/10 07:53
YBCG 100753Z AUTO 03018KT 3600NDV // BKN005 BKN011 OVC016 20/19 Q1017

2010/08/10 07:50
EFHK 100750Z 20010KT 9999 -SHRA BKN010 FEW030CB 20/17 Q1012 NOSIG

2010/08/10 07:50
EFKU 100750Z AUTO 18008KT 9999NDV SCT018 BKN070 20/15 Q1010

2010/08/10 07:50
EFRO 100750Z AUTO 01010KT 9999NDV BKN011 OVC015 12/10 Q1010

2010/08/10 07:50
EFTP 100750Z 19008KT 150V260 9999 SCT018 20/16 Q1010

2010/08/10 07:50
EFTU 100750Z AUTO 23007KT 180V270 9999 BKN016 BKN022 20/16 Q1010

2010/08/10 07:50
EFVA 100750Z 34004KT 270V010 9999 SHRA FEW006 SCT018 BKN030 BKN045 19/17 Q1008

2010/08/10 07:50
EGHD 100750Z 12003KT 190V260 1500 0700SW -RA BCFG BR SCT000 OVC002 13/13 Q1012

2010/08/10 07:50
EGHE 100750Z 23020KT 2500 -RA SCT003 BKN011 16/16 Q1010

2010/08/10 07:50
EGHQ 100750Z 19010KT 4500 -RA BR BKN003 14/14 Q1010

2010/08/10 07:50
EGJA 100750Z 27004KT 0600 R26/0600 FG SCT000 BKN001 15/15 Q1013

2010/08/10 07:50
EGJB 100750Z 23011KT 1400 0700SW R27/P1500 -DZ PRFG BKN000 16/16 Q1013

2010/08/10 07:50
EGJJ 100750Z 24010KT 210V310 8000 -DZ SCT002 BKN004 17/17 Q1013 RERA REDZ BECMG 4000 BKN003

2010/08/10 07:50
EGTE 100750Z 14004KT 9999 -RA FEW012 BKN025 13/13 Q1011

2010/08/10 07:50
EGTG 100750Z 19007KT 9999 FEW020 14/12 Q1010

2010/08/10 07:50
EGHH 100750Z 28006KT 8000 -RA FEW018 SCT022 14/13 Q1012

2010/08/10 07:50
EGKB 100750Z 25005KT 4000 RA BKN010 15/14 Q1011 

2010/08/10 07:50
EGMC 100750Z 22004KT 7000 -RA SCT009 BKN025 17/16 Q1010

2010/08/10 07:50
EGMD 100750Z 21020KT 8000 FEW009 BKN012 17/15 Q1012

2010/08/10 07:50
EGMH 100750Z 20016KT 4500 -DZ BR BKN006 18/17 Q1011 

2010/08/10 07:50
EGBB 100750Z 23006KT 200V260 9999 -DZ BKN008 14/13 Q1009

2010/08/10 07:50
EGCC 100750Z 22008KT 9999 FEW038 15/11 Q1008

2010/08/10 07:50
EGKK 100750Z 22004KT 190V260 9999 -RA SCT007 SCT045 16/16 Q1011 RERA

2010/08/10 07:50
EGPF 100750Z 11007KT 9999 FEW010 SCT018 BKN045 13/11 Q1004

2010/08/10 07:50
EGPH 100750Z 24007KT 9999 FEW015 13/10 Q1004

2010/08/10 07:50
EGPK 100750Z 15006KT 090V190 7000 -RA FEW005 SCT014CB BKN018 12/11 Q1003

2010/08/10 07:50
EGSS 100750Z 28004KT 240V320 9000 -RADZ FEW005 SCT008 BKN030 14/14 Q1010 RERA

2010/08/10 07:52
KNRB 100752Z AUTO 14010KT 10SM CLR 28/22 A2995 RMK AO2 SLP140 T02830222 

2010/08/10 07:50
EFKU 100750Z AUTO 18008KT 9999NDV SCT018 BKN070 20/15 Q1010

2010/08/10 07:55
KBLV 100755Z AUTO 00000KT 7SM R14R/5000V5500FT CLR 26/26 A2991 RMK AO2 SLP126 T02610258

2010/08/10 07:55
KLRF 100755Z AUTO 00000KT 10SM CLR 28/26 A2992 RMK AO2 SLP128 T02790258

2010/08/10 07:55
KMGE 100755Z AUTO 08003KT 10SM CLR 26/22 A3002 RMK AO2 SLP153 T02590215 $

2010/08/10 07:55
KRDR 100755Z AUTO 19005KT 10SM CLR 21/20 A2989 RMK AO2 SLP132 T02080202 $

2010/08/10 07:50
LLBG 100750Z VRB02KT 9999 FEW030 31/21 Q1007 NOSIG

2010/08/10 07:50
LLET 100750Z 03014KT CAVOK 33/19 Q1005

2010/08/10 07:50
LLOV 100750Z 35005KT CAVOK 30/17 Q1009

2010/08/10 08:00
LPLA 100800Z 00000KT 9999 FEW018 BKN035 21/17 Q1022

2010/08/10 08:00
MPTO 100800Z 00000KT 9999 SCT018CB 27/25 Q1010 NOSIG

2010/08/10 07:50
NSTU 100750Z 12013KT 10SM SCT016 27/26 A2996 RMK SLP147 T02710256

2010/08/10 07:50
OAFZ 100750Z 21003KT 9999 BKN110 34/03 Q1013 BLU

2010/08/10 07:50
MMCL 100750Z 02005KT 10SM SCT100 BKN220 27/25 A2983 RMK 8/077 RTS

2010/08/10 07:51
MMMX 100751Z 00000KT 5SM FEW020 SCT090 16/14 A3030 NOSIG RMK 8/530 HZY LTG DIST S CI

2010/08/10 08:00
MPTO 100800Z 00000KT 9999 SCT018CB 27/25 Q1010 NOSIG

2010/08/10 07:50
NSTU 100750Z 12013KT 10SM SCT016 27/26 A2996 RMK SLP147 T02710256

2010/08/10 07:54
CYFC 100754Z AUTO 00000KT 1/8SM FG VV001 17/17 A2980 RMK SLP093 DENSITY ALT 400FT RVR MISG

2010/08/10 07:51
KVCT 100751Z AUTO 00000KT 10SM CLR 26/25 A2992 RMK AO2 SLP128 T02560250 

2010/08/10 07:53
KFAR 100753Z 15005KT 10SM CLR 24/19 A2989 RMK AO2 SLP115 T02390194 

2010/08/10 07:53
KOQT 100753Z AUTO 00000KT 5SM BR SCT050 26/24 A3002 RMK AO2 SLP146 T02560239 TSNO 

2010/08/10 07:53
KMSY 100753Z 00000KT 9SM CLR 25/24 A2992 RMK AO2 SLP133 T02500244 

2010/08/10 07:53
KRNM 100753Z AUTO 26003KT 10SM CLR 12/10 A2993 RMK AO2 SLP121 T01220100 402830056 TSNO 

2010/08/10 08:00
SGAS 100800Z 18005KT CAVOK 10/07 Q1019

2010/08/10 08:00
SGES 100800Z 18004KT CAVOK 12/11 Q1019

2010/08/10 07:53
KHTL 100753Z AUTO 31003KT 1/2SM FG BKN001 21/21 A3000 RMK AO2 SLP151 T02110211 

2010/08/10 07:50
EGBB 100750Z 23006KT 200V260 9999 -DZ BKN008 14/13 Q1009

2010/08/10 07:50
EGCC 100750Z 22008KT 9999 FEW038 15/11 Q1008

2010/08/10 07:50
EGGD 100750Z 21008KT 9999 -RADZ FEW015 12/12 Q1010

2010/08/10 07:50
EGGP 100750Z 25015KT 9999 FEW030 16/08 Q1008

2010/08/10 07:50
EGHH 100750Z 28006KT 8000 -RA FEW018 SCT022 14/13 Q1012

2010/08/10 07:50
EGKB 100750Z 25005KT 4000 RA BKN010 15/14 Q1011

2010/08/10 07:50
EGKK 100750Z 22004KT 190V260 9999 -RA SCT007 SCT045 16/16 Q1011 RERA

2010/08/10 07:50
EGMC 100750Z 22004KT 7000 -RA SCT009 BKN025 17/16 Q1010

2010/08/10 07:50
EGMD 100750Z 21020KT 8000 FEW009 BKN012 17/15 Q1012

2010/08/10 07:50
EGMH 100750Z 20016KT 4500 -DZ BR BKN006 18/17 Q1011

2010/08/10 07:50
EGNV 100750Z 19010KT 9999 FEW025 14/13 Q1006

2010/08/10 07:50
EGPF 100750Z 11007KT 9999 FEW010 SCT018 BKN045 13/11 Q1004

2010/08/10 07:50
EGPH 100750Z 24007KT 9999 FEW015 13/10 Q1004

2010/08/10 07:50
EGPK 100750Z 15006KT 090V190 7000 -RA FEW005 SCT014CB BKN018 12/11 Q1003

2010/08/10 07:50
EGSS 100750Z 28004KT 240V320 9000 -RADZ FEW005 SCT008 BKN030 14/14 Q1010 RERA

2010/08/10 07:50
EKCH 100750Z 19005KT 120V250 CAVOK 19/12 Q1016 NOSIG

2010/08/10 07:50
EKEB 100750Z AUTO 17012KT 9999NDV FEW012/// 18/15 Q1013

2010/08/10 07:50
EKOD 100750Z 18008KT 140V210 CAVOK 19/13 Q1015

2010/08/10 07:50
EKRN 100750Z AUTO 12006KT 100V160 9999NDV FEW033/// BKN040/// BKN063/// 18/12 Q1017

2010/08/10 07:50
EKSB 100750Z 17009KT 140V200 CAVOK 19/13 Q1014

2010/08/10 07:50
EKSN 100750Z 22011KT 9999 FEW028 SCT061 17/12 Q1013

2010/08/10 07:50
EKSP 100750Z 17008KT 140V210 9999 FEW035 SCT200 19/14 Q1014 NOSIG

2010/08/10 07:50
EKVJ 100750Z 18010KT CAVOK 19/17 Q1014

2010/08/10 08:00
LQSA 100800Z VRB02KT 9999 FEW040 20/15 Q1019 NOSIG

2010/08/10 07:50
LXGB 100750Z 00000KT CAVOK 24/15 Q1016 NOSIG

2010/08/10 07:50
EGBB 100750Z 23006KT 200V260 9999 -DZ BKN008 14/13 Q1009

2010/08/10 07:50
EGCC 100750Z 22008KT 9999 FEW038 15/11 Q1008

2010/08/10 07:50
EGGD 100750Z 21008KT 9999 -RADZ FEW015 12/12 Q1010

2010/08/10 07:50
EGGP 100750Z 25015KT 9999 FEW030 16/08 Q1008

2010/08/10 07:50
EGHD 100750Z 12003KT 190V260 1500 0700SW -RA BCFG BR SCT000 OVC002 13/13 Q1012

2010/08/10 07:50
EGHH 100750Z 28006KT 8000 -RA FEW018 SCT022 14/13 Q1012

2010/08/10 07:50
EGHI 100750Z 24005KT 220V280 7000 -RA FEW010 SCT018 BKN028 14/12 Q1012

2010/08/10 07:50
EGJA 100750Z 27004KT 0600 R26/0600 FG SCT000 BKN001 15/15 Q1013

2010/08/10 07:50
EGJB 100750Z 23011KT 1400 0700SW R27/P1500 -DZ PRFG BKN000 16/16 Q1013

2010/08/10 07:50
EGKB 100750Z 25005KT 4000 RA BKN010 15/14 Q1011

2010/08/10 07:50
EGKK 100750Z 22004KT 190V260 9999 -RA SCT007 SCT045 16/16 Q1011 RERA

2010/08/10 07:50
EGMC 100750Z 22004KT 7000 -RA SCT009 BKN025 17/16 Q1010

2010/08/10 07:50
EGMD 100750Z 21020KT 8000 FEW009 BKN012 17/15 Q1012

2010/08/10 07:50
EGMH 100750Z 20016KT 4500 -DZ BR BKN006 18/17 Q1011

2010/08/10 07:50
EGNT 100750Z 22004KT 160V240 9999 FEW040 16/11 Q1005

2010/08/10 07:50
EGNV 100750Z 19010KT 9999 FEW025 14/13 Q1006

2010/08/10 07:50
EGPF 100750Z 11007KT 9999 FEW010 SCT018 BKN045 13/11 Q1004

2010/08/10 07:50
EGPH 100750Z 24007KT 9999 FEW015 13/10 Q1004

2010/08/10 07:50
EGPK 100750Z 15006KT 090V190 7000 -RA FEW005 SCT014CB BKN018 12/11 Q1003

2010/08/10 07:50
EGSS 100750Z 28004KT 240V320 9000 -RADZ FEW005 SCT008 BKN030 14/14 Q1010 RERA

2010/08/10 07:50
EGTE 100750Z 14004KT 9999 -RA FEW012 BKN025 13/13 Q1011

2010/08/10 07:53
KSDM 100753Z AUTO 00000KT 10SM OVC010 16/14 A2992 RMK AO2 SLP127 T01610139 402280117 TSNO 

2010/08/10 07:53
KLXV 100753Z AUTO 00000KT 10SM CLR 05/04 A3043 RMK AO2 SLP155 T00500039 TSNO 

2010/08/10 07:53
KLAX 100753Z 28003KT 10SM OVC007 16/13 A2991 RMK AO2 SLP127 T01560128 402000150 $ 

2010/08/10 07:53
KBMG 100753Z 00000KT 1 3/4SM BR SCT110 22/21 A2996 RMK AO2 SLP136 T02220211

2010/08/10 07:53
KBNA 100753Z 18003KT 9SM FEW110 SCT200 26/24 A2997 RMK AO2 SLP141 T02560239

2010/08/10 07:53
KBOI 100753Z 13011KT 10SM TS CLR 20/13 A2983 RMK AO2 RAB09E23 SLP073 P0002 T02000128

2010/08/10 07:55
KBOW 100755Z AUTO 07006KT 10SM FEW016 24/24 A2991 RMK AO2

2010/08/10 07:53
KBPI 100753Z AUTO 28003KT 10SM CLR 06/03 A3020 RMK AO2 SLP138 T00610028 TSNO

2010/08/10 07:53
KBPK 100753Z AUTO 00000KT 8SM CLR 27/24 A2994 RMK AO2 SLP126 T02670239

2010/08/10 07:53
KBRD 100753Z AUTO 00000KT 1/2SM FG CLR 20/18 A2995 RMK AO2 SLP136 T02000183

2010/08/10 07:53
KBRL 100753Z AUTO 00000KT 10SM CLR 26/24 A2990 RMK AO2 SLP117 T02610239

2010/08/10 07:53
KBTL 100753Z AUTO 00000KT 5SM BR CLR 21/20 A2999 RMK AO2 SLP148 T02060200

2010/08/10 07:53
KBTM 100753Z AUTO 32004KT 10SM OVC095 13/10 A3003 RMK AO2 RAE22 SLP116 P0000 T01280100

2010/08/10 07:53
KBUR 100753Z AUTO 11006KT 7SM CLR 16/13 A2990 RMK AO2 SLP115 T01610133 402670139 TSNO

2010/08/10 07:51
KBVE 100751Z AUTO 00000KT CLR 26/25 A2991 RMK AO2 SLP128 T02610250 TSNO $

2010/08/10 07:53
KBVO 100753Z AUTO 00000KT 10SM CLR 24/21 A2990 RMK AO2 SLP113 T02390211

2010/08/10 07:53
KBWG 100753Z AUTO 00000KT 9SM FEW095 BKN110 27/24 A2997 RMK AO2 SLP141 T02670239

2010/08/10 07:53
KBYG 100753Z AUTO 27005KT 10SM 14/11 A3000 RMK AO2 SLP097 T01390106 $

2010/08/10 07:53
KBYI 100753Z AUTO 09005KT 10SM FEW085 14/11 A2994 RMK AO2 SLP106 T01440111

2010/08/10 07:53
KCAG 100753Z AUTO 00000KT 10SM CLR 08/07 A3019 RMK AO2 SLP169 T00830072

2010/08/10 07:53
KCCR 100753Z AUTO 00000KT 10SM CLR 13/09 A2988 RMK AO2 SLP104 T01330089 402720133

2010/08/10 07:53
KCDC 100753Z AUTO 13008KT 10SM CLR 16/02 A3012 RMK AO2 SLP128 T01560022

2010/08/10 07:55
KCDN 100755Z AUTO 00000KT 8SM FEW011 24/24 A3002 RMK A02 P000

2010/08/10 07:53
KCDR 100753Z AUTO 22010KT 10SM SCT100 21/17 A2991 RMK AO2 SLP094 T02110167

2010/08/10 07:53
KCDS 100753Z AUTO 23005KT 10SM CLR 24/19 A2996 RMK AO2 TSB0655E12 SLP113 T02390194

2010/08/10 07:53
KCDW 100753Z AUTO 00000KT 8SM FEW090 25/19 A2993 RMK AO2 RAB07E20 SLP138 P0000 T02500189 TSNO $

2010/08/10 07:53
KAAF 100753Z AUTO 04006KT 10SM FEW024 SCT035 26/24 A2989 RMK AO2 SLP120 T02610244

2010/08/10 07:53
KABR 100753Z AUTO 15003KT 10SM CLR 23/21 A2986 RMK AO2 SLP099 T02280211

2010/08/10 07:53
KABY 100753Z 09005KT 10SM CLR 26/24 A2997 RMK AO2 SLP147 T02560239

2010/08/10 07:53
KACV 100753Z AUTO 16006KT 9SM OVC005 11/11 A2994 RMK AO2 SLP142 T01110106 401440111

2010/08/10 07:53
KADG 100753Z AUTO 26003KT 3/4SM BR BKN001 OVC009 21/19 A2998 RMK AO2 SLP147 T02110194

2010/08/10 07:53
KAFW 100753Z 22004KT 10SM CLR 28/20 A2989 RMK AO2 SLP102 T02830200 $

2010/08/10 07:53
KAGS 100753Z AUTO 00000KT 3SM BR CLR 22/22 A2999 RMK AO2 SLP152 T02220217 TSNO

2010/08/10 07:53
KAIA 100753Z AUTO 19007KT 10SM CLR 17/16 A2999 RMK AO2 SLP107 T01720156

2010/08/10 07:53
KAKO 100753Z AUTO 33006KT 10SM OVC110 17/16 A3004 RMK AO2 SLP112 T01670161 TSNO

2010/08/10 07:53
KALW 100753Z AUTO 20008KT 10SM CLR 18/08 A2988 RMK AO2 SLP112 T01830078 403060161

2010/08/10 07:53
KAMA 100753Z AUTO 20010KT 10SM CLR 21/17 A3005 RMK AO2 SLP117 T02060172

2010/08/10 07:53
KAMG 100753Z AUTO 00000KT 10SM CLR 24/23 A2997 RMK AO2 SLP145 T02440233

2010/08/10 07:53
KAMW 100753Z AUTO 07003KT 10SM VCTS CLR 22/21 A2991 RMK AO2 LTG DSNT ALQDS TSE0657B03E10B13RAB0655E09 SLP119 P0000 T02220211

2010/08/10 07:53
KANB 100753Z AUTO 00000KT 6SM BR CLR 24/22 A2999 RMK AO2 SLP142 T02440222

2010/08/10 07:53
KAOH 100753Z AUTO 00000KT 4SM BR CLR 22/21 A2997 RMK AO2 SLP141 T02220211

2010/08/10 07:53
KAOO 100753Z AUTO 00000KT 8SM BKN120 21/18 A3000 RMK AO2 SLP146 T02060178

2010/08/10 07:53
KAPA 100753Z 27007KT 10SM SCT120 17/12 A3015 RMK AO2 SLP138 T01720122

2010/08/10 07:53
KAPF 100753Z AUTO 07007KT 10SM FEW006 25/24 A2984 RMK AO2 SLP105 T02500239

2010/08/10 07:53
KARB 100753Z AUTO 00000KT 1/4SM FG BKN001 OVC006 19/19 A2995 RMK AO2 SLP138 T01940194

2010/08/10 07:52
PATA 100752Z AUTO 03005KT 10SM OVC080 14/12 A2961 RMK AO2 SLP029 T01390122 TSNO

2010/08/10 07:53
PHJR 100753Z AUTO 07004KT 10SM CLR 25/17 A3011 RMK AO2 SLP202 T02500172 TSNO

2010/08/10 07:53
KCEW 100753Z AUTO 00000KT 3SM BR CLR 23/23 A2993 RMK AO2 SLP130 T02330228

2010/08/10 07:53
KCEZ 100753Z AUTO 00000KT 10SM SCT100 BKN120 12/09 A3019 RMK AO2 SLP150 T01220089

2010/08/10 07:53
KCGI 100753Z AUTO 00000KT 5SM BR CLR 26/24 A2994 RMK AO2 SLP133 T02560244 TSNO

2010/08/10 07:53
KCHO 100753Z AUTO 00000KT 7SM CLR 24/21 A2996 RMK AO2 SLP137 T02440211 TSNO

2010/08/10 07:55
KCKI 100755Z AUTO 00000KT 10SM CLR 23/23 A3000 RMK AO2

2010/08/10 07:53
KCLM 100753Z AUTO 27004KT 10SM OVC007 12/11 A2997 RMK AO2 SLP147 T01170106 401670094

2010/08/10 07:53
KCMI 100753Z AUTO 00000KT 7SM CLR 26/24 A2995 RMK AO2 LTG DSNT N AND S SLP135 T02610239

2010/08/10 07:53
KCMX 100753Z AUTO 00000KT 10SM CLR 17/17 A2996 RMK AO2 SLP142 T01720172 $

2010/08/10 07:53
KCNM 100753Z AUTO 16005KT 10SM CLR 21/16 A3000 RMK AO2 SLP100 T02060156

2010/08/10 07:53
KCNO 100753Z AUTO 00000KT 7SM CLR 16/13 A2992 RMK AO2 SLP125 T01560128 403060111

2010/08/10 07:53
KCNY 100753Z AUTO 00000KT 10SM CLR 18/01 A3003 RMK AO2 SLP112 T01830011

2010/08/10 07:53
KCPR 100753Z AUTO 18006KT 10SM CLR 17/02 A3004 RMK AO2 SLP099 T01670022

2010/08/10 07:53
KCPS 100753Z AUTO 17004KT 7SM CLR 26/24 A2991 RMK AO2 SLP123 T02560244

2010/08/10 07:53
KCRE 100753Z AUTO 22006KT 10SM BKN021 BKN060 28/25 A3001 RMK AO2 SLP162 T02830250

2010/08/10 07:53
KCRG 100753Z AUTO 14003KT 10SM CLR 26/23 A2995 RMK AO2 SLP140 T02610233

2010/08/10 07:51
KCRP 100751Z 20003KT 10SM FEW018 27/26 A2990 RMK AO2 SLP123 T02670256

2010/08/10 07:53
KCRQ 100753Z 00000KT 10SM OVC011 18/14 A2991 RMK AO2 SLP126 T01780144 402170156

2010/08/10 07:53
KCRS 100753Z AUTO 20005KT 10SM CLR 28/23 A2990 RMK AO2 SLP117 T02780228

2010/08/10 07:53
KCSM 100753Z AUTO 17008KT 10SM CLR 25/20 A2995 RMK AO2 SLP110 T02500200

2010/08/10 07:53
KCSV 100753Z AUTO 00000KT 8SM CLR 24/20 A3007 RMK AO2 SLP156 T02390200

2010/08/10 07:53
KCUB 100753Z AUTO 00000KT 10SM CLR 25/23 A3001 RMK AO2 SLP160 T02500228

2010/08/10 07:53
KCYS 100753Z AUTO 24008KT 10SM CLR 13/11 A3013 RMK AO2 SLP119 T01330111 TSNO

2010/08/10 07:51
KDAG 100751Z AUTO 25011KT 10SM CLR 24/01 A2986 RMK AO2 SLP084 T02440006 403780189 TSNO

2010/08/10 07:53
KDAL 100753Z 20004KT 10SM CLR 31/20 A2989 RMK AO2 SLP112 T03060200

2010/08/10 07:53
KDAN 100753Z AUTO 21003KT 5SM BR CLR 23/21 A3001 RMK AO2 SLP148 T02330211

2010/08/10 07:53
KDBQ 100753Z AUTO 00000KT 7SM CLR 23/22 A2996 RMK AO2 SLP136 T02280217

2010/08/10 07:53
KDCU 100753Z AUTO 00000KT 4SM BR CLR 24/22 A2998 RMK AO2 SLP142 T02440222

2010/08/10 07:53
KDEN 100753Z 23006KT 10SM SCT140 BKN200 17/13 A3011 RMK AO2 SLP113 T01670133

2010/08/10 07:53
KDEQ 100753Z AUTO 00000KT 5SM BR CLR 24/23 A2990 RMK AO2 SLP116 T02440233

2010/08/10 07:53
KDET 100753Z 00000KT 8SM CLR 22/21 A2995 RMK AO2 SLP139 T02170206

2010/08/10 07:53
KDEW 100753Z AUTO 00000KT 10SM CLR 13/06 A2980 RMK AO2 SLP079 T01330061 402780078

2010/08/10 07:53
KDFI 100753Z AUTO 00000KT 1SM BR VV001 22/21 A2996 RMK AO2 SLP140 T02170211

2010/08/10 07:53
KBGM 100753Z AUTO 30003KT 3SM -RA BR FEW001 OVC070 20/19 A3001 RMK AO2 RAB04 SLP148 P0007 T02000194

2010/08/10 07:53
KBHK 100753Z AUTO 26011G18KT 10SM CLR 19/16 A2985 RMK AO2 SLP079 T01940156

2010/08/10 07:53
KBHM 100753Z 00000KT 8SM CLR 26/23 A2998 RMK AO2 SLP143 T02610228

2010/08/10 07:53
KBIL 100753Z 23005KT 10SM FEW100 16/13 A2992 RMK AO2 SLP098 T01610133

2010/08/10 07:53
KBIV 100753Z AUTO 00000KT M1/4SM FG FEW001 OVC008 21/19 A2996 RMK AO2 SLP142 T02060189

2010/08/10 07:53
KBKE 100753Z AUTO 00000KT 10SM BKN100 13/09 A2992 RMK AO2 SLP109 T01330089 402780083

2010/08/10 07:53
KBKL 100753Z 23007KT 7SM CLR 26/21 A2993 RMK AO2 SLP129 T02560206

2010/08/10 07:53
KBKV 100753Z AUTO 10007KT 10SM CLR 24/23 A2990 RMK AO2 SLP124 T02440228

2010/08/10 07:53
KBLI 100753Z AUTO 17005KT 10SM BKN065 OVC095 14/12 A2994 RMK AO2 SLP145 T01440122 401610139

2010/08/10 07:53
KLOU 100753Z AUTO 00000KT 10SM CLR 28/24 A2996 RMK AO2 SLP137 T02780239

2010/08/10 07:53
KLOZ 100753Z AUTO 00000KT 5SM BR CLR 23/22 A3002 RMK AO2 SLP149 T02280217

2010/08/10 07:53
KLPR 100753Z AUTO 23005KT 6SM HZ FEW050 23/20 A2996 RMK AO2 SLP138 T02330200

2010/08/10 07:53
KLSE 100753Z AUTO 00000KT 3/4SM BR OVC002 23/23 A2993 RMK AO2 SLP121 T02280228

2010/08/10 07:53
KLUK 100753Z AUTO 00000KT 3SM BR CLR 23/22 A2997 RMK AO2 SLP142 T02280222

2010/08/10 07:53
KLVK 100753Z AUTO 29005KT 10SM CLR 13/11 A2989 RMK AO2 SLP119 T01280106 402830122 $

2010/08/10 07:53
KLVM 100753Z AUTO 29012KT 10SM CLR 14/08 A2998 RMK AO2 SLP103 T01390083

2010/08/10 07:53
KLVS 100753Z AUTO 07003KT 10SM CLR 13/12 A3025 RMK AO2 SLP132 T01330122

2010/08/10 07:53
KLWD 100753Z AUTO 13003KT 9SM CLR 27/26 A2990 RMK AO2 SLP114 T02670256

2010/08/10 07:53
KLXT 100753Z AUTO 19008KT 10SM CLR 29/22 A2990 RMK AO2 SLP110 T02940217

2010/08/10 07:53
KMAE 100753Z AUTO 28005KT 10SM CLR 19/16 A2982 RMK AO2 SLP094 T01890156 403280139

2010/08/10 07:53
KMAF 100753Z AUTO 14004KT 10SM CLR 21/19 A3000 RMK AO2 SLP110 T02110194

2010/08/10 07:53
KMAI 100753Z AUTO 05003KT 8SM CLR 25/22 A2992 RMK AO2 SLP130 T02500222 $

2010/08/10 07:53
KMBS 100753Z 34007KT 10SM CLR 22/21 A2996 RMK AO2 SLP140 T02220211

2010/08/10 07:53
KMCE 100753Z AUTO 31007KT 10SM CLR 20/14 A2982 RMK AO2 SLP095 T02000139 403220144

2010/08/10 07:53
KMCI 100753Z 18006KT 10SM CLR 26/22 A2988 RMK AO2 SLP104 T02560222 $

2010/08/10 07:53
KMCK 100753Z AUTO 14003KT 10SM CLR 21/19 A2994 RMK AO2 LTG DSNT W SLP110 T02060189

2010/08/10 07:53
KMCO 100753Z 09006KT 10SM FEW028 25/23 A2992 RMK AO2 SLP129 T02500228

2010/08/10 07:53
KMCW 100753Z AUTO 13003KT 5SM BR CLR 23/23 A2996 RMK AO2 SLP131 T02330228

2010/08/10 07:53
KMEM 100753Z 00000KT 10SM CLR 27/24 A2993 RMK AO2 SLP130 T02720244

2010/08/10 07:55
KMEZ 100755Z AUTO 00000KT 7SM CLR 25/23 A2996 RMK AO2

2010/08/10 07:53
KMFR 100753Z AUTO 05003KT 10SM CLR 18/08 A2992 RMK AO2 SLP123 T01830083 403110144

2010/08/10 07:53
KMGW 100753Z AUTO 00000KT 3SM BR CLR 19/18 A3002 RMK AO2 SLP153 T01940183

2010/08/10 07:53
KMGY 100753Z AUTO 00000KT 8SM CLR 24/21 A2997 RMK AO2 SLP139 T02440206

2010/08/10 07:53
KMHE 100753Z AUTO 14007KT 9SM OVC010 25/23 A2985 RMK AO2 SLP095 T02500233 TSNO

2010/08/10 07:53
KMIA 100753Z 13011KT 8SM -RA SCT019TCU BKN028 OVC060 26/24 A2988 RMK AO2 RAB40 SLP118 TCU SE 98374 P0001 T02610239 $

2010/08/10 07:53
KMIC 100753Z AUTO 00000KT 9SM CLR 23/21 A2992 RMK AO2 SLP124 T02280211

2010/08/10 07:53
KMIE 100753Z AUTO 00000KT 4SM BR CLR 23/22 A2997 RMK AO2 SLP137 T02280217

2010/08/10 07:53
KMIW 100753Z AUTO 16006KT 5SM VCTS -RA BR OVC024 25/24 A2994 RMK AO2 LTG DSNT ALQDS TSB09RAB27 SLP128 P0004 T02500244 $

2010/08/10 07:53
KMKL 100753Z AUTO 00000KT 5SM BR CLR 26/24 A2995 RMK AO2 SLP137 T02560244

2010/08/10 07:53
KMKO 100753Z AUTO 14004KT 10SM CLR 24/20 A2992 RMK AO2 SLP123 T02390200

2010/08/10 07:53
KMLB 100753Z 14008KT 10SM FEW019 SCT031 27/23 A2992 RMK AO2 SLP130 T02670228

2010/08/10 07:53
KMLC 100753Z AUTO 21003KT 10SM CLR 26/20 A2992 RMK AO2 SLP119 T02610200

2010/08/10 07:53
KMLP 100753Z AUTO 20004KT 10SM FEW048 12/02 A2998 RMK AO2 SLP061 T01220022 401940106 TSNO

2010/08/10 07:53
KMLS 100753Z AUTO 24007KT 10SM CLR 19/15 A2983 RMK AO2 SLP077 T01890150

2010/08/10 07:53
KMLU 100753Z AUTO A2993 RMK AO2 SLPNO PWINO FZRANO $

2010/08/10 07:53
KMMV 100753Z AUTO 24005KT 10SM FEW033 12/11 A3000 RMK AO2 SLP159 T01170106 402170094

2010/08/10 07:53
KMNN 100753Z AUTO 00000KT 6SM BR CLR 22/21 A2998 RMK AO2 SLP143 T02220206

2010/08/10 07:53
KMOD 100753Z AUTO 35005KT 10SM CLR 21/13 A2983 RMK AO2 SLP100 T02060128 403170144

2010/08/10 07:53
KMRB 100753Z AUTO 22003KT 9SM CLR 24/18 A2995 RMK AO2 SLP135 T02390183

2010/08/10 07:53
KMSL 100753Z AUTO 00000KT 6SM BR CLR 24/23 A2998 RMK AO2 SLP144 T02440228

2010/08/10 07:53
KMSO 100753Z AUTO 13008KT 10SM CLR 15/11 A2990 RMK AO2 SLP106 T01500111

2010/08/10 07:53
KMSP 100753Z 12003KT 9SM CLR 25/22 A2993 RMK AO2 SLP128 T02500222

2010/08/10 07:53
KMTH 100753Z AUTO 20009G16KT 1 3/4SM +RA BR SCT009 BKN018 OVC047 26/24 A2984 RMK AO2 LTG DSNT SW SLP105 P0038 T02560244

2010/08/10 07:53
KMTJ 100753Z AUTO 12009KT 10SM BKN100 17/07 A3019 RMK AO2 SLP148 T01670072

2010/08/10 07:53
KMTO 100753Z AUTO 18005KT 8SM FEW110 26/24 A2994 RMK AO2 LTG DSNT N SLP129 T02610239

2010/08/10 07:53
KMWL 100753Z AUTO 17005KT 10SM CLR 26/19 A2989 RMK AO2 SLP106 T02610194

2010/08/10 07:53
KMYF 100753Z AUTO 00000KT 10SM OVC011 17/14 A2992 RMK AO2 SLP127 T01720144 402330139 TSNO

2010/08/10 07:53
KMYV 100753Z AUTO 15006KT 10SM CLR 19/12 A2982 RMK AO2 SLP101 T01890122 403170133

2010/08/10 07:53
KOAK 100753Z 35003KT 10SM OVC006 14/11 A2992 RMK AO2 SLP131 T01390111 401940139

2010/08/10 07:53
KODO 100753Z AUTO 00000KT 10SM CLR 22/19 A3001 RMK AO2 SLP112 T02170189 $

2010/08/10 07:53
KODX 100753Z AUTO 27009KT 8SM TSRA FEW034 BKN060 OVC080 20/18 A2995 RMK AO2 PK WND 27031/0721 WSHFT 0713 LTG DSNT SW-N TSB41RAB24 SLP131 P0010 T02000183

2010/08/10 07:53
KOGB 100753Z AUTO 00000KT 9SM FEW021 24/24 A3001 RMK AO2 SLP158 T02440239

2010/08/10 07:53
KOGD 100753Z AUTO 15004KT 10SM CLR 18/05 A3000 RMK AO2 SLP100 T01830050

2010/08/10 07:53
KOJC 100753Z AUTO 19004KT 10SM CLR 27/23 A2989 RMK AO2 SLP106 T02670228

2010/08/10 07:53
KOLF 100753Z AUTO 28009KT 6SM VCTS RA BR OVC050 19/17 A2981 RMK AO2 PK WND 21028/0705 WSHFT 0650 LTG DSNT ALQDS TSE00B22E49B50RAB03 SLP083 P0004 T01890167

2010/08/10 07:53
KOMK 100753Z AUTO 35012G18KT 10SM FEW090 SCT100 17/11 A2984 RMK AO2 SLP097 T01670106 403110139

2010/08/10 07:53
KONO 100753Z AUTO 36004KT 10SM CLR 19/12 A2985 RMK AO2 SLP091 T01890122

2010/08/10 07:53
KONT 100753Z 26003KT 10SM CLR 17/12 A2991 RMK AO2 SLP114 T01670122 403000133

2010/08/10 07:51
KORF 100751Z 23006KT 10SM CLR 25/23 A2997 RMK AO2 SLP150 T02500233 $

2010/08/10 07:53
KORL 100753Z AUTO 09006KT 10SM CLR 25/23 A2992 RMK AO2 SLP134 T02500233

2010/08/10 07:53
KOSH 100753Z AUTO 00000KT 1 3/4SM BR CLR 22/21 A2994 RMK AO2 VIS 1/2V3 SLP125 T02170206

2010/08/10 07:53
KOSU 100753Z AUTO 26004KT 7SM CLR 24/21 A2997 RMK AO2 SLP138 T02390206 $

2010/08/10 07:53
KOTM 100753Z AUTO 35010G20KT 10SM VCTS FEW020 SCT026 OVC031 23/22 A2995 RMK AO2 LTG DSNT ALQDS TSE0657B03RAB08E20 SLP133 P0000 T02330217

2010/08/10 07:53
KOVS 100753Z AUTO 00000KT 1/4SM FG VV001 23/23 A2994 RMK AO2 SLP132 P0001 T02330228

2010/08/10 07:53
KOXB 100753Z AUTO 25006KT 10SM CLR 25/23 A2995 RMK AO2 SLP142 T02500228 $

2010/08/10 07:53
KPAE 100753Z AUTO 20005KT 10SM OVC032 14/12 A2996 RMK AO2 SLP145 T01390122 401780133

2010/08/10 07:53
KPAH 100753Z AUTO 00000KT 7SM CLR 26/24 A2993 RMK AO2 SLP130 T02560239

2010/08/10 07:53
KPBF 100753Z AUTO 17003KT 10SM CLR 26/24 A2992 RMK AO2 SLP127 T02610244

2010/08/10 07:53
KPBG 100753Z AUTO 00000KT 1/4SM FG BKN001 BKN009 16/15 A2990 RMK AO2 SLP125 T01560150

2010/08/10 07:53
KPBI 100753Z 15010KT 10SM SCT024CB BKN032 BKN050 26/23 A2988 RMK AO2 RAE41 SLP119 CB N-E MOV NW P0010 T02630230

2010/08/10 07:53
KPDK 100753Z AUTO 00000KT 10SM CLR 26/21 A3002 RMK AO2 SLP142 T02560206

2010/08/10 07:53
KPDT 100753Z AUTO 27005KT 10SM CLR 16/07 A2988 RMK AO2 SLP103 T01610072 403060122

2010/08/10 07:53
KPDX 100753Z 33006KT 10SM OVC038 15/11 A3000 RMK AO2 SLP156 T01500111 402000144

2010/08/10 07:53
KPEO 100753Z AUTO 22005KT -RA SCT050 BKN065 OVC080 22/21 A2997 RMK AO2 RAB40 SLP140 P0000 T02170206 $

2010/08/10 07:53
KPGA 100753Z AUTO 00000KT 10SM SCT120 24/02 A3003 RMK AO2 SLP100 T02390022

2010/08/10 07:53
KPGD 100753Z AUTO 09005KT 10SM BKN013 24/24 A2988 RMK AO2 SLP118 T02440239 TSNO

2010/08/10 07:53
KPHD 100753Z AUTO 00000KT 5SM BR SCT080 BKN100 22/19 A2998 RMK AO2 SLP143 T02170194

2010/08/10 07:53
KPIH 100753Z AUTO 01004KT 10SM CLR 12/09 A3001 RMK AO2 SLP132 T01220089

2010/08/10 07:53
KPIR 100753Z AUTO 18007KT 10SM SCT065 24/23 A2983 RMK AO2 SLP082 T02390228

2010/08/10 07:53
KPKB 100753Z AUTO 00000KT 3SM BR CLR 20/19 A3001 RMK AO2 SLP152 T02000189

2010/08/10 07:53
KASE 100753Z AUTO 21005KT 10SM SCT080 OVC100 09/07 A3031 RMK AO2 SLP168 T00940072

2010/08/10 07:53
KASX 100753Z AUTO 00000KT 1 1/2SM BR CLR 18/18 A2996 RMK AO2 SLP143 P0001 T01830183

2010/08/10 07:53
KATY 100753Z AUTO 12003KT 10SM SCT021 SCT026 24/22 A2988 RMK AO2 SLP103 T02390222

2010/08/10 07:53
KAWM 100753Z AUTO 00000KT 10SM CLR 26/25 A2991 RMK AO2 SLP123 T02610250

2010/08/10 07:53
KAXN 100753Z AUTO 13005KT 8SM CLR 22/21 A2995 RMK AO2 SLP133 T02220206 $

2010/08/10 07:53
KAZO 100753Z AUTO 00000KT 1 1/4SM BR CLR 21/21 A2997 RMK AO2 SLP145 T02110206

2010/08/10 07:53
KBCE 100753Z AUTO 27008KT 10SM CLR 07/03 A3028 RMK AO2 SLP150 T00670028

2010/08/10 07:53
KBDE 100753Z AUTO 00000KT 10SM CLR 21/19 A2992 RMK AO2 SLP128 T02060194

2010/08/10 07:53
KBEH 100753Z AUTO 00000KT 7SM CLR 20/19 A2995 RMK AO2 SLP137 T02000194

2010/08/10 07:53
KBFD 100753Z AUTO 00000KT 2 1/2SM BR BKN080 OVC110 19/18 A3002 RMK AO2 SLP146 T01890183

2010/08/10 07:53
KBFF 100753Z AUTO 10003KT 10SM CLR 18/16 A3000 RMK AO2 SLP112 T01780161

2010/08/10 07:53
KBFI 100753Z 20005KT 10SM OVC017 15/12 A2997 RMK AO2 SLP147 T01500117 401940150

2010/08/10 07:53
KGIF 100753Z AUTO 10008KT 10SM CLR 26/23 A2991 RMK AO2 SLP126 T02560233 TSNO

2010/08/10 07:53
KGJT 100753Z AUTO 09005KT 10SM CLR 18/02 A3008 RMK AO2 SLP120 T01780022

2010/08/10 07:53
KGKJ 100753Z AUTO 00000KT 8SM BKN050 BKN080 23/18 A2998 RMK AO2 SLP138 T02330178

2010/08/10 07:53
KGKY 100753Z AUTO 20004KT 10SM CLR 27/21 A2989 RMK AO2 SLP112 T02720206

2010/08/10 07:53
KGLD 100753Z AUTO 31004KT 10SM FEW110 19/17 A3000 RMK AO2 TSE09RAE12 SLP106 P0001 T01940172

2010/08/10 07:53
KGLH 100753Z AUTO 18003KT 10SM CLR 24/23 A2993 RMK AO2 SLP139 T02440233

2010/08/10 07:53
KGLR 100753Z AUTO 29004KT 6SM BR OVC005 22/21 A3000 RMK AO2 CIG 003V009 SLP152 T02170206

2010/08/10 07:53
KGMU 100753Z AUTO 00000KT 9SM CLR 26/21 A3004 RMK AO2 SLP159 T02610211

2010/08/10 07:53
KGNV 100753Z AUTO 00000KT 10SM CLR 25/23 A2993 RMK AO2 SLP130 T02500233

2010/08/10 07:53
KGOK 100753Z AUTO 18006KT 10SM CLR 28/21 A2989 RMK AO2 SLP107 T02830206

2010/08/10 07:53
KGRB 100753Z AUTO 00000KT 1/4SM FG VV001 21/21 A2995 RMK AO2 SLP137 T02110206 TSNO RVRNO

2010/08/10 07:53
KGRI 100753Z AUTO 19007KT 10SM CLR 25/22 A2986 RMK AO2 SLP091 T02500222

2010/08/10 07:53
KGRR 100753Z AUTO 00000KT 2SM BR CLR 20/19 A2997 RMK AO2 VIS 1 1/4 RWY 8R SLP145 T02000189

2010/08/10 07:53
KGSH 100753Z AUTO 00000KT 3SM BR BKN042 22/21 A2997 RMK AO2 SLP144 T02220211

2010/08/10 07:53
KGSP 100753Z AUTO 00000KT 10SM CLR 24/22 A3002 RMK AO2 SLP151 T02440217

2010/08/10 07:53
KGTF 100753Z 19006KT 10SM CLR 16/09 A2986 RMK AO2 SLP078 T01610089

2010/08/10 07:53
KGUP 100753Z AUTO 00000KT 10SM CLR 13/11 A3024 RMK AO2 SLP090 T01330111

2010/08/10 07:53
KGUY 100753Z AUTO 18005KT 10SM CLR 23/17 A2998 RMK AO2 SLP095 T02280167

2010/08/10 07:53
KGVL 100753Z AUTO 04003KT 9SM FEW095 25/21 A3006 RMK AO2 SLP161 T02500211

2010/08/10 07:53
KGWO 100753Z AUTO 21003KT 7SM CLR 24/24 A2994 RMK AO2 SLP134 T02390239

2010/08/10 07:53
KHBR 100753Z AUTO 18008KT 10SM CLR 27/20 A2992 RMK AO2 SLP108 T02720200

2010/08/10 07:53
KHEI 100753Z AUTO 14007KT 10SM CLR 21/14 A2984 RMK AO2 SLP078 T02060139

2010/08/10 07:53
KHGR 100753Z AUTO 17003KT 7SM CLR 26/19 A2995 RMK AO2 SLP143 T02560194

2010/08/10 07:53
KHHR 100753Z AUTO 25004KT 10SM CLR 17/13 A2991 RMK AO2 SLP127 T01670133 402170161

2010/08/10 07:53
KHIB 100753Z AUTO 00000KT 1/4SM FG VV001 17/16 A2997 RMK AO2 SLP145 T01670161

2010/08/10 07:53
KHIO 100753Z AUTO 30005KT 10SM FEW040 13/10 A3000 RMK AO2 SLP156 T01280100 402000078 TSNO

2010/08/10 07:53
KHJO 100753Z AUTO 31009KT 10SM CLR 22/16 A2981 RMK AO2 SLP094 T02220156 403390150

2010/08/10 07:53
KHKA 100753Z AUTO 00000KT 4SM BR CLR 26/24 A2994 RMK AO2 SLP134 T02610244

2010/08/10 07:53
KHKS 100753Z AUTO 00000KT 10SM CLR 25/24 A2996 RMK AO2 SLP135 T02500239

2010/08/10 07:53
KHKY 100753Z AUTO 00000KT 7SM CLR 23/22 A3004 RMK AO2 SLP147 T02330222

2010/08/10 07:53
KHLC 100753Z AUTO 28006KT 10SM CLR 24/19 A2988 RMK AO2 SLP092 T02390189 $

2010/08/10 07:53
KHLG 100753Z AUTO 16003KT 4SM BR SCT050 BKN100 22/19 A2999 RMK AO2 SLP146 T02170194

2010/08/10 07:53
KDFW 100753Z 21007KT 10SM FEW250 30/20 A2988 RMK AO2 SLP108 T03000200

2010/08/10 07:53
KDGW 100753Z AUTO 16005KT 10SM CLR 15/13 A3001 RMK AO2 SLP099 T01500133

2010/08/10 07:53
KDHN 100753Z AUTO 07003KT 10SM CLR 24/22 A2998 RMK AO2 SLP146 T02440222

2010/08/10 07:53
KDHT 100753Z AUTO 22006KT 10SM CLR 21/18 A3005 RMK AO2 SLP107 T02060178

2010/08/10 07:53
KDKK 100753Z AUTO 22005KT 4SM BR FEW047 BKN060 OVC075 22/21 A2996 RMK AO2 SLP140 T02220206 $

2010/08/10 07:53
KDLN 100753Z AUTO 18010KT 10SM SCT100 13/06 A3002 RMK AO2 SLP121 T01330061

2010/08/10 07:53
KDLS 100753Z AUTO 31008KT 10SM CLR 18/09 A2989 RMK AO2 SLP118 T01830089 402720167

2010/08/10 07:53
KDMN 100753Z AUTO 22005KT 10SM CLR 20/10 A3005 RMK AO2 SLP091 T02000100

2010/08/10 07:53
KDMO 100753Z AUTO 18006KT 10SM CLR 27/24 A2991 RMK AO2 SLP117 T02670239

2010/08/10 07:53
KDNL 100753Z AUTO 00000KT CLR 25/22 A3000 RMK AO2 SLP154 T02500222 $

2010/08/10 07:53
KDRO 100753Z AUTO 00000KT 10SM OVC100 13/06 A3024 RMK AO2 SLP151 T01330061

2010/08/10 07:53
KDTN 100753Z AUTO 13004KT 10SM CLR 28/24 A2992 RMK AO2 SLP127 T02780239

2010/08/10 07:53
KDTO 100753Z AUTO 00000KT 10SM CLR 27/20 A2989 RMK AO2 SLP110 T02720200

2010/08/10 07:53
KDTS 100753Z AUTO 35006KT 9SM CLR 28/24 A2989 RMK AO2 SLP121 T02780239

2010/08/10 07:53
KDTW 100753Z 00000KT 4SM OVC011 22/21 A2996 RMK AO2 SLP139 T02170206 $

2010/08/10 07:53
KDVT 100753Z 00000KT 10SM CLR 29/11 A2983 RMK AO2 SLP072 T02940111

2010/08/10 07:53
KDXR 100753Z AUTO 00000KT 7SM -RA BKN040 BKN055 23/19 A2996 RMK AO2 RAB36 SLP140 P0000 T02280194

2010/08/10 07:55
KDYB 100755Z AUTO 00000KT 10SM CLR 24/24 A2999 RMK AO1

2010/08/10 07:53
KECP 100753Z 03004KT 7SM CLR 26/24 A2990 RMK AO2 SLP135 T02560239

2010/08/10 07:53
KEEO 100753Z AUTO 09005KT 10SM CLR 10/06 A3021 RMK AO2 SLP163 T01000061 TSNO

2010/08/10 07:53
KEET 100753Z AUTO 00000KT 6SM BR CLR 26/24 A2996 RMK AO2 SLP138 T02560239

2010/08/10 07:53
KELD 100753Z AUTO 00000KT 10SM CLR 26/24 A2992 RMK AO2 SLP127 T02610239

2010/08/10 07:53
KELM 100753Z AUTO 00000KT 2 1/2SM BR FEW004 BKN070 OVC085 21/21 A2996 RMK AO2 RAB0657E13 SLP138 P0000 T02110206 $

2010/08/10 07:53
KELN 100753Z AUTO 32012KT 10SM CLR 16/09 A2986 RMK AO2 SLP101 T01560089 402610150

2010/08/10 07:53
KEMP 100753Z AUTO 17008KT 10SM CLR 26/21 A2990 RMK AO2 SLP110 T02560206

2010/08/10 07:53
KENW 100753Z AUTO 00000KT 1 1/4SM BR CLR 20/19 A2994 RMK AO2 SLP134 T02000194

2010/08/10 07:53
KEPH 100753Z AUTO 34011KT 10SM SCT090 18/09 A2980 RMK AO2 SLP083 T01830094 403000150

2010/08/10 07:53
KEQY 100753Z AUTO 00000KT 8SM CLR 23/22 A3003 RMK AO2 SLP163 T02280217

2010/08/10 07:53
KEYE 100753Z AUTO 00000KT 9SM CLR 27/22 A2996 RMK AO2 SLP135 T02670222

2010/08/10 07:53
KFAT 100753Z 31008KT 10SM CLR 23/14 A2981 RMK AO2 SLP091 T02330139 403440161

2010/08/10 07:53
KFAY 100753Z AUTO 00000KT 10SM SCT007 BKN100 24/23 A3001 RMK AO2 SLP154 T02390228

2010/08/10 07:53
KLBF 100753Z AUTO 07004KT 10SM CLR 19/19 A2992 RMK AO2 TSE00RAE03 SLP102 P0000 T01940189

2010/08/10 07:53
KLGB 100753Z AUTO 32004KT 7SM CLR 16/13 A2990 RMK AO2 SLP126 T01610133 402440156 TSNO

2010/08/10 07:53
KLHQ 100753Z AUTO 12003KT 7SM CLR 21/19 A2997 RMK AO2 SLP141 T02110194

2010/08/10 07:53
KLHX 100753Z AUTO 19004KT 10SM CLR 19/16 A3004 RMK AO2 SLP109 T01890161 $

2010/08/10 07:53
KLIT 100753Z 00000KT 7SM SCT250 28/25 A2991 RMK AO2 SLP128 T02780250

2010/08/10 07:55
KLKR 100755Z AUTO 00000KT 2SM BR CLR 21/21 A3002 RMK AO2

2010/08/10 07:53
KLLQ 100753Z AUTO 00000KT 10SM CLR 27/23 A2995 RMK AO2 SLP136 T02670233

2010/08/10 07:53
KLMT 100753Z AUTO 00000KT 10SM FEW090 14/04 A2999 RMK AO2 SLP117 T01390044 402830089

2010/08/10 07:53
KLNS 100753Z AUTO 00000KT 8SM CLR 24/19 A2993 RMK AO2 SLP130 T02390194

2010/08/10 07:53
KLOL 100753Z AUTO VRB03KT 10SM CLR 22/M01 A2993 RMK AO2 SLP088 T02221006 403500111

2010/08/10 07:55
KPSO 100755Z AUTO 00000KT 10SM CLR 11/05 A3032 RMK AO2

2010/08/10 07:53
KPSP 100753Z AUTO 00000KT 10SM CLR 26/08 A2976 RMK AO2 SLP074 T02610083 404000194 TSNO

2010/08/10 07:53
KPTK 100753Z 33003KT 6SM BR FEW140 22/22 A2995 RMK AO2 SLP137 T02220217

2010/08/10 07:50
KPTT 100750Z AUTO 19007KT 10SM CLR 26/19 A2991 RMK AO2

2010/08/10 07:53
KPUB 100753Z AUTO 00000KT 10SM CLR 15/14 A3006 RMK AO2 SLP121 T01500144

2010/08/10 07:53
KPUC 100753Z AUTO 02007KT 10SM CLR 14/M01 A3013 RMK AO2 SLP158 T01441011 $

2010/08/10 07:53
KPUW 100753Z AUTO 24006KT 10SM CLR 17/05 A2987 RMK AO2 SLP100 T01670050 402780083

2010/08/10 07:53
KPWA 100753Z AUTO 19009KT 10SM CLR 28/20 A2992 RMK AO2 SLP110 T02830200

2010/08/10 07:53
KRAC 100753Z AUTO 00000KT 2 1/2SM BR CLR 22/21 A2995 RMK AO2 SLP136 T02170206

2010/08/10 07:53
KRAL 100753Z AUTO 00000KT 10SM CLR 18/13 A2991 RMK AO2 SLP112 T01780133 403060133

2010/08/10 07:53
KRBD 100753Z 20004KT 10SM CLR 28/21 A2989 RMK AO2 SLP110 T02830206

2010/08/10 07:53
KRBG 100753Z AUTO 35005KT 10SM CLR 17/12 A2997 RMK AO2 SLP147 T01670117 402560150

2010/08/10 07:53
KRDD 100753Z AUTO 03003KT 10SM CLR 22/12 A2983 RMK AO2 SLP095 T02220122 403330189

2010/08/10 07:53
KRHI 100753Z AUTO 00000KT 1 1/4SM BR CLR 16/16 A3002 RMK AO2 VIS 3/4V2 1/2 SLP158 T01610156

2010/08/10 07:53
KRIW 100753Z AUTO 29008KT 10SM CLR 16/04 A3007 RMK AO2 SLP110 T01610039

2010/08/10 07:53
KRMG 100753Z AUTO 00000KT 7SM BKN100 24/22 A2999 RMK AO2 SLP145 T02440222

2010/08/10 07:53
KRNT 100753Z AUTO 16006KT 10SM OVC016 15/12 A2997 RMK AO2 SLP152 T01500117 401940139

2010/08/10 07:53
KRSL 100753Z AUTO 19007KT 10SM CLR 24/21 A2985 RMK AO2 SLP085 T02440206

2010/08/10 07:53
KRSW 100753Z AUTO 10009KT 10SM OVC008 25/23 A2985 RMK AO2 SLP107 T02500233

2010/08/10 07:53
KRUE 100753Z AUTO 00000KT 10SM CLR 27/24 A2992 RMK AO2 SLP121 T02720239

2010/08/10 07:53
KRVS 100753Z 00000KT 10SM CLR 28/21 A2990 RMK AO2 SLP125 T02780206

2010/08/10 07:53
KRWF 100753Z AUTO 09004KT 10SM CLR 24/22 A2989 RMK AO2 SLP114 T02390222

2010/08/10 07:53
KRWI 100753Z AUTO 20003KT 8SM CLR 23/22 A3000 RMK AO2 SLP157 T02280217

2010/08/10 07:53
KHLN 100753Z AUTO 27004KT 10SM CLR 13/11 A2992 RMK AO2 SLP118 T01280106

2010/08/10 07:53
KHOT 100753Z AUTO 00000KT 10SM CLR 28/23 A2993 RMK AO2 SLP127 T02780233

2010/08/10 07:53
KHQM 100753Z AUTO 00000KT 10SM OVC011 13/11 A2999 RMK AO2 SLP159 T01330111 401560128

2010/08/10 07:53
KHRI 100753Z AUTO 23013KT 10SM CLR 18/09 A2985 RMK AO2 SLP104 T01780094 403170150

2010/08/10 07:53
KHRO 100753Z AUTO 00000KT 8SM CLR 26/23 A2997 RMK AO2 SLP129 T02610233

2010/08/10 07:53
KHSI 100753Z AUTO 20006KT 10SM CLR 26/21 A2987 RMK AO2 SLP093 T02560211 $

2010/08/10 07:53
KHSV 100753Z 11003KT 5SM BR FEW200 26/24 A2998 RMK AO2 SLP141 T02560239

2010/08/10 07:53
KHUF 100753Z 00000KT 5SM BR CLR 24/23 A2995 RMK AO2 SLP137 T02390228

2010/08/10 07:53
KHVN 100753Z AUTO 00000KT 10SM FEW110 26/19 A2992 RMK AO2 SLP131 T02560194

2010/08/10 07:53
KHVR 100753Z AUTO 21008KT 10SM CLR 17/15 A2981 RMK AO2 SLP076 T01670150

2010/08/10 07:53
KHWO 100753Z AUTO 13007KT 10SM CLR 26/ A2990 RMK AO2 SLP123 T0261 $

2010/08/10 07:53
KHYR 100753Z AUTO 00000KT 8SM CLR 17/17 A2999 RMK AO2 SLP149 P0002 T01720167

2010/08/10 07:53
KIAG 100753Z AUTO 00000KT 3SM BR FEW045 OVC055 22/21 A2994 RMK AO2 SLP132 T02170206

2010/08/10 07:53
KICR 100753Z AUTO 24007KT 6SM -RA BR BKN007 OVC013 25/23 A2990 RMK AO2 RAB33 PRESRR SLP104 P0001 T02500228 TSNO

2010/08/10 07:53
KICT 100753Z 16008KT 10SM SCT100 28/21 A2989 RMK AO2 SLP102 T02780211

2010/08/10 07:53
KIDA 100753Z AUTO 00000KT 10SM CLR 13/10 A3003 RMK AO2 SLP136 T01330100

2010/08/10 07:53
KILM 100753Z AUTO 19003KT 10SM CLR 25/23 A3001 RMK AO2 SLP161 T02500233

2010/08/10 07:53
KIML 100753Z AUTO 14006KT 6SM TSRA BR BKN045 BKN060 OVC100 19/17 A2999 RMK AO2 LTG DSNT E TSB18RAB40 SLP119 P0004 T01940172

2010/08/10 07:53
KIPL 100753Z AUTO 00000KT 10SM CLR 28/02 A2973 RMK AO2 SLP068 T02780017 403940194

2010/08/10 07:53
KIXD 100753Z AUTO 17005KT 10SM CLR 26/22 A2990 RMK AO2 SLP109 T02610222

2010/08/10 07:53
KPKD 100753Z AUTO 00000KT 10SM CLR 21/19 A2995 RMK AO2 SLP134 T02110189

2010/08/10 07:53
KFCM 100753Z AUTO 00000KT 9SM CLR 24/22 A2992 RMK AO2 SLP125 T02440217

2010/08/10 07:53
KFDR 100753Z AUTO 20008KT 10SM 28/19 A2989 RMK AO2 SLP099 T02830194

2010/08/10 07:53
KFDY 100753Z AUTO 00000KT 4SM BR CLR 23/22 A2996 RMK AO2 SLP133 T02330217

2010/08/10 07:53
KFFC 100753Z AUTO 00000KT 4SM BR CLR 22/21 A3001 RMK AO2 SLP153 T02220206

2010/08/10 07:53
KFFT 100753Z AUTO 00000KT 7SM CLR 23/22 A2997 RMK AO2 SLP139 T02330217

2010/08/10 07:53
KFHR 100753Z AUTO 00000KT 10SM BKN045 BKN060 OVC100 12/10 A2996 RMK AO2 SLP144 T01170100 401560094

2010/08/10 07:53
KFLD 100753Z AUTO 00000KT 4SM BR CLR 21/20 A2995 RMK AO2 SLP137 T02110200

2010/08/10 07:53
KFLL 100753Z 14012G18KT 10SM -RA SCT022 BKN030 OVC046 27/24 A2988 RMK AO2 RAB47 SLP116 P0000 T02670239

2010/08/10 07:53
KFLO 100753Z AUTO 00000KT 10SM CLR 24/24 A3001 RMK AO2 SLP157 T02440239

2010/08/10 07:53
KFMN 100753Z AUTO 02005KT 10SM OVC120 18/08 A3015 RMK AO2 SLP145 T01780078

2010/08/10 07:53
KFMY 100753Z AUTO 10007KT 10SM BKN008 25/24 A2984 RMK AO2 SLP108 T02500239

2010/08/10 07:53
KFNB 100753Z AUTO 21007KT 10SM CLR 27/23 A2985 RMK AO2 SLP095 T02670228

2010/08/10 07:53
KFNT 100753Z 00000KT 1/4SM FG 21/20 A2996 RMK AO2 SLP140 T02060200 RVRNO $

2010/08/10 07:53
KFOE 100753Z AUTO 19005KT 10SM CLR 28/21 A2989 RMK AO2 SLP105 T02780206

2010/08/10 07:53
KFOK 100753Z AUTO 33003KT 9SM SCT050 BKN060 OVC090 24/20 A2994 RMK AO2 SLP139 T02440200 TSNO

2010/08/10 07:53
KFRG 100753Z AUTO 25005KT 10SM CLR 25/19 A2992 RMK AO2 SLP133 T02500194

2010/08/10 07:53
KFSM 100753Z AUTO 00000KT 10SM CLR 27/23 A2991 RMK AO2 SLP120 T02720233

2010/08/10 07:53
KFST 100753Z AUTO 17006KT 10SM CLR 23/19 A3000 RMK AO2 SLP104 T02280194

2010/08/10 07:53
KFTW 100753Z 20005KT 10SM CLR 28/20 A2989 RMK AO2 SLP110 T02830200

2010/08/10 07:53
KFTY 100753Z 00000KT 4SM BR CLR 23/22 A3001 RMK AO2 SLP149 T02330217

2010/08/10 07:53
KFUL 100753Z 00000KT 7SM CLR 17/13 A2990 RMK AO2 SLP124 T01670128 402500144

2010/08/10 07:53
KFWN 100753Z AUTO 00000KT 7SM -RA FEW034 22/20 A2995 RMK AO2 RAB22 SLP138 P0000 T02220200

2010/08/10 07:53
KFXE 100753Z 13007KT 10SM SCT025 SCT040 27/23 A2988 RMK AO2 RAB18E35 SLP120 P0001 T02670228

2010/08/10 07:53
KFYV 100753Z AUTO 00000KT 10SM CLR 24/22 A2997 RMK AO2 SLP130 T02390222

2010/08/10 07:53
KGAG 100753Z AUTO 13006KT 10SM CLR 23/18 A2995 RMK AO2 SLP107 T02330183

2010/08/10 07:53
KGCC 100753Z AUTO 27007KT 10SM CLR 13/11 A2995 RMK AO2 SLP093 T01330106

2010/08/10 07:53
KGEG 100753Z 18010KT 10SM BKN130 18/03 A2980 RMK AO2 SLP075 T01830033 402780139

2010/08/10 07:53
KGEY 100753Z AUTO 33009KT 10SM FEW100 17/09 A2995 RMK AO2 SLP101 T01670094

2010/08/10 07:53
KGEZ 100753Z AUTO 00000KT 7SM CLR 24/22 A2995 RMK AO2 SLP133 T02440217

2010/08/10 07:53
KGFK 100753Z 18003KT 10SM FEW250 21/19 A2988 RMK AO2 SLP113 T02110194

2010/08/10 07:53
KGGG 100753Z AUTO 23004KT 10SM CLR 28/23 A2992 RMK AO2 SLP121 T02830228

2010/08/10 07:53
KGGW 100753Z AUTO 21015G20KT 10SM SCT080 19/17 A2978 RMK AO2 RAE52 PRESRR SLP069 P0001 T01940167 TSNO

2010/08/10 07:53
KPMD 100753Z AUTO 16003KT 10SM CLR 19/05 A2992 RMK AO2 SLP102 T01940050 403390156

2010/08/10 07:53
KPMP 100753Z AUTO 13013KT 10SM FEW023 BKN041 OVC060 27/23 A2988 RMK AO2 SLP120 T02720233

2010/08/10 07:50
KPNA 100750Z AUTO 00000KT 10SM CLR 06/04 A3019 RMK AO2 T00590037

2010/08/10 07:53
KPNC 100753Z AUTO 17007KT 10SM CLR 29/21 A2989 RMK AO2 SLP104 T02940206

2010/08/10 07:53
KPNS 100753Z AUTO 36006KT 7SM CLR 26/24 A2991 RMK AO2 SLP129 T02610244

2010/08/10 07:53
KPOF 100753Z AUTO 00000KT 10SM CLR 26/24 A2993 RMK AO2 SLP128 T02560239

2010/08/10 07:53
KPOU 100753Z 00000KT 4SM -RA BR SCT034 OVC090 22/21 A2993 RMK AO2 RAB04 SLP132 P0002 T02220211

2010/08/10 07:53
KPRB 100753Z AUTO A2991 RMK AO2 SLPNO PWINO FZRANO TSNO

2010/08/10 07:53
KPRC 100753Z AUTO 19007KT 10SM CLR 18/08 A3012 RMK AO2 SLP117 T01780078

2010/08/10 07:53
KPSC 100753Z AUTO 20004KT 10SM CLR 21/10 A2983 RMK AO2 SLP098 T02060100 403220122

2010/08/10 07:53
KJBR 100753Z AUTO 00000KT 10SM CLR 26/24 A2992 RMK AO2 SLP127 T02610239

2010/08/10 07:51
KJCT 100751Z AUTO 18004KT 10SM CLR 27/22 A2997 RMK AO2 SLP108 T02720217 TSNO

2010/08/10 07:53
KJEF 100753Z AUTO 12004KT 8SM CLR 27/26 A2990 RMK AO2 SLP108 T02720256

2010/08/10 07:53
KJER 100753Z AUTO 04014KT 10SM CLR 16/12 A2994 RMK AO2 SLP102 T01560117 $

2010/08/10 07:53
KJKL 100753Z AUTO 00000KT 8SM FEW060 24/21 A3002 RMK AO2 SLP148 T02390206

2010/08/10 07:53
KJLN 100753Z AUTO 18006KT 10SM CLR 26/21 A2993 RMK AO2 SLP120 T02560211 $

2010/08/10 07:55
KJZI 100755Z AUTO 19003KT 10SM FEW025 27/27 A3000 RMK A02 P000

2010/08/10 07:53
KLAA 100753Z AUTO 00000KT 10SM CLR 21/18 A3000 RMK AO2 SLP103 T02060178

2010/08/10 07:53
KLAN 100753Z 00000KT 3SM R28L/1600V6000FT BR MIFG CLR 19/19 A2997 RMK AO2 SLP143 T01940194

2010/08/10 07:53
KLAR 100753Z AUTO 20007KT 10SM CLR 10/07 A3021 RMK AO2 SLP125 T01000072

2010/08/10 07:53
KLAW 100753Z AUTO 13004KT 10SM BKN080 28/20 A2991 RMK AO2 SLP112 T02830200

2010/08/10 07:53
KLBB 100753Z 12004KT 10SM CLR 20/17 A3004 RMK AO2 SLP115 T02000167

2010/08/10 07:53
KRWL 100753Z AUTO 27004KT 10SM CLR 12/04 A3019 RMK AO2 SLP141 T01170039

2010/08/10 07:53
KRXE 100753Z AUTO 00000KT 10SM CLR 12/10 A3005 RMK AO2 SLP138 T01170100

2010/08/10 07:53
KSAC 100753Z 16005KT 10SM CLR 16/12 A2984 RMK AO2 SLP103 T01560117 403000128

2010/08/10 07:53
KSAF 100753Z AUTO 03005KT 10SM CLR 15/09 A3020 RMK AO2 SLP120 T01500094

2010/08/10 07:51
KSAN 100751Z 28005KT 10SM OVC015 18/14 A2993 RMK AO2 SLP133 T01780139 402220156

2010/08/10 07:53
KSBA 100753Z AUTO 12005KT 7SM SCT003 14/13 A2989 RMK AO2 SLP120 T01440133 402000106

2010/08/10 07:53
KSBM 100753Z AUTO 00000KT 5SM BR CLR 21/21 A2995 RMK AO2 SLP136 T02110206

2010/08/10 07:53
KSDL 100753Z 00000KT 10SM CLR 32/12 A2985 RMK AO2 SLP076 T03170117

2010/08/10 07:53
KSEA 100753Z 21007KT 10SM BKN010 OVC065 14/11 A2997 RMK AO2 SLP155 T01390111 401940139

2010/08/10 07:53
KSEG 100753Z AUTO 00000KT 7SM CLR 22/20 A2994 RMK AO2 SLP133 T02220200

2010/08/10 07:49
KSEZ 100749Z AUTO 04008KT 10SM SCT100 21/09 A3011 RMK AO2 T02080089

2010/08/10 07:53
KSFF 100753Z AUTO 05003KT 10SM CLR 18/04 A2980 RMK AO2 SLP076 T01780044 402890133

2010/08/10 07:53
KSHN 100753Z AUTO 22012KT 6SM BR OVC007 12/11 A2995 RMK AO2 CIG 005V011 SLP142 T01220111 401890122

2010/08/10 07:53
KSHR 100753Z AUTO 22005KT 10SM CLR 14/11 A2994 RMK AO2 SLP101 T01390111

2010/08/10 07:53
KSIY 100753Z AUTO 35010KT 10SM 19/08 A2995 RMK AO2 SLP126 T01890078 403220128 $

2010/08/10 07:53
KSJC 100753Z AUTO 00000KT 10SM OVC012 15/12 A2991 RMK AO2 SLP127 T01500122 402500139

2010/08/10 07:53
KSLC 100753Z 15006KT 10SM CLR 18/04 A2999 RMK AO2 SLP099 T01830044

2010/08/10 07:53
KSLN 100753Z 17009KT 10SM CLR 29/21 A2985 RMK AO2 SLP089 T02890206

2010/08/10 07:53
KSMF 100753Z 16009KT 10SM CLR 16/12 A2982 RMK AO2 SLP096 T01610117 403060128

2010/08/10 07:53
KSMQ 100753Z AUTO 00000KT 9SM CLR 23/19 A2991 RMK AO2 SLP128 T02330194

2010/08/10 07:53
KSNA 100753Z 00000KT 9SM CLR 18/13 A2990 RMK AO2 SLP125 T01830133 402390172

2010/08/10 07:53
KSNS 100753Z AUTO 27004KT 9SM OVC005 12/11 A2993 RMK AO2 SLP143 T01220111 402000122

2010/08/10 07:53
KSNY 100753Z AUTO 35006KT 10SM CLR 18/16 A3003 RMK AO2 SLP109 T01780156

2010/08/10 07:50
KSOW 100750Z AUTO 16003KT 10SM CLR 15/10 A3026 RMK AO2

2010/08/10 07:55
KSPA 100755Z AUTO 00000KT 7SM CLR 23/23 A3002 RMK AO2

2010/08/10 07:53
KSPB 100753Z AUTO 35004KT 10SM BKN036 13/11 A2999 RMK AO2 SLP155 T01330106 402000100

2010/08/10 07:53
KSPG 100753Z AUTO 11012KT 10SM FEW013 27/24 A2986 RMK AO2 SLP110 T02720244

2010/08/10 07:53
KSPW 100753Z AUTO 10008KT 7SM BKN035 BKN042 24/24 A2989 RMK AO2 LTG DSNT S AND SW SLP111 T02440239

2010/08/10 07:53
KSRQ 100753Z AUTO 09008KT 10SM CLR 25/24 A2985 RMK AO2 SLP107 T02500239 TSNO

2010/08/10 07:53
KSSI 100753Z AUTO 13011KT 10SM FEW026 28/23 A2996 RMK AO2 SLP146 T02830228

2010/08/10 07:53
KSTC 100753Z AUTO 00000KT 8SM CLR 21/19 A2993 RMK AO2 SLP136 T02060194 $

2010/08/10 07:53
KSTJ 100753Z AUTO 20004KT 10SM CLR 26/23 A2986 RMK AO2 SLP101 T02610228

2010/08/10 07:53
KSTP 100753Z AUTO 00000KT 9SM CLR 24/22 A2993 RMK AO2 SLP128 T02390222

2010/08/10 07:53
KSTS 100753Z AUTO 14003KT 10SM OVC002 12/11 A2989 RMK AO2 SLP116 T01220106 402390117

2010/08/10 07:50
KSUN 100750Z AUTO 33012KT 10SM CLR 12/10 A3006 RMK AO2 LTG DSNT NW

2010/08/10 07:53
KSWO 100753Z AUTO 17007KT 10SM CLR 28/21 A2989 RMK AO2 SLP104 T02780206

2010/08/10 07:50
KSZT 100750Z AUTO 00000KT 10SM CLR 11/10 A2981 RMK AO2

2010/08/10 07:53
KTCC 100753Z AUTO 23006KT 10SM CLR 23/17 A3004 RMK AO2 SLP100 T02330172

2010/08/10 07:53
KTCL 100753Z AUTO 00000KT 5SM BR CLR 26/24 A2995 RMK AO2 SLP138 T02610239

2010/08/10 07:53
KTDZ 100753Z AUTO 00000KT 1 1/4SM BR CLR 23/22 A2996 RMK AO2 SLP139 T02280222

2010/08/10 07:50
KTEX 100750Z AUTO 14005KT 10SM SCT070 11/05 A3041 RMK AO2

2010/08/10 07:53
KTHV 100753Z AUTO 00000KT 5SM BR CLR 22/21 A2993 RMK AO2 SLP133 T02170206

2010/08/10 07:50
KTIF 100750Z AUTO 30005KT 10SM -RA SCT050 SCT070 BKN120 20/18 A2996 RMK AO2 LTG DSNT NE THRU SE P0006 T01950184

2010/08/10 07:53
KTIW 100753Z 22005KT 10SM FEW008 OVC014 13/11 A2997 RMK AO2 SLP148 T01330111 401830133

2010/08/10 07:53
KTKI 100753Z AUTO 00000KT 10SM CLR 26/22 A2990 RMK AO2 SLP117 T02610217

2010/08/10 07:53
KTMB 100753Z AUTO 12005KT 10SM CLR 27/23 A2987 RMK AO2 SLP114 T02670233

2010/08/10 07:53
KTOI 100753Z AUTO 00000KT 7SM CLR 24/23 A2995 RMK AO2 SLP137 T02440228

2010/08/10 07:53
KTOP 100753Z AUTO 20003KT 10SM CLR 28/21 A2987 RMK AO2 SLP102 T02830211

2010/08/10 07:53
KTPA 100753Z 07004KT 10SM FEW050 26/23 A2988 RMK AO2 SLP118 T02560233

2010/08/10 07:50
KTRK 100750Z AUTO 00000KT 10SM CLR 07/05 A3012 RMK AO2

2010/08/10 07:53
KTRL 100753Z AUTO 19006KT 10SM CLR 28/20 A2991 RMK AO2 SLP119 T02780200

2010/08/10 07:53
KTTD 100753Z 00000KT 10SM OVC041 16/12 A2998 RMK AO2 SLP151 T01560117 402000144

2010/08/10 07:53
KTTN 100753Z AUTO 00000KT 8SM CLR 26/21 A2992 RMK AO2 SLP125 T02560206

2010/08/10 07:53
KTUL 100753Z 19010KT 10SM CLR 31/19 A2989 RMK AO2 SLP112 T03110194

2010/08/10 07:53
KTUS 100753Z 00000KT 10SM CLR 28/14 A2996 RMK AO2 SLP092 T02780144

2010/08/10 07:53
KTVC 100753Z AUTO 00000KT 5SM BR CLR 19/19 A2996 RMK AO2 SLP142 T01940194

2010/08/10 07:53
KTVL 100753Z AUTO 00000KT 10SM SCT085 SCT110 11/07 A3012 RMK AO2 SLP143 T01110067 402440050

2010/08/10 07:53
KTVR 100753Z AUTO 18004KT 7SM CLR 25/23 A2993 RMK AO2 SLP141 T02500233

2010/08/10 07:53
KTXK 100753Z AUTO 11003KT 10SM CLR 27/23 A2992 RMK AO2 SLP125 T02670228

2010/08/10 07:53
KTYR 100753Z 21004KT 10SM CLR 29/23 A2993 RMK AO2 SLP126 T02890233

2010/08/10 07:53
KUAO 100753Z AUTO 36004KT 10SM OVC039 15/11 A2999 RMK AO2 SLP156 T01500111 402110111

2010/08/10 07:53
KUNO 100753Z AUTO 00000KT 10SM CLR 27/23 A2998 RMK AO2 SLP132 T02670233

2010/08/10 07:53
KVCB 100753Z AUTO 24006KT 10SM CLR 17/11 A2982 RMK AO2 SLP095 T01670111 403060139

2010/08/10 07:53
KVEL 100753Z AUTO 29003KT 10SM CLR 13/03 A3011 RMK AO2 SLP136 T01280033

2010/08/10 07:53
KVGT 100753Z AUTO 34005KT 10SM CLR 26/M01 A2985 RMK AO2 SLP070 T02561011 403670206 TSNO

2010/08/10 07:53
KVIH 100753Z AUTO 20006KT 10SM CLR 26/23 A2993 RMK AO2 SLP121 T02560228

2010/08/10 07:53
KVLD 100753Z AUTO 00000KT 10SM CLR 25/23 A2994 RMK AO2 SLP144 T02500233

2010/08/10 07:53
KVPC 100753Z AUTO 00000KT 5SM BR CLR 22/22 A3001 RMK AO2 SLP149 T02220217

2010/08/10 07:53
KVPZ 100753Z AUTO 00000KT 9SM FEW034 23/22 A2995 RMK AO2 SLP136 T02280222

2010/08/10 07:53
KVUO 100753Z AUTO 00000KT 10SM OVC037 16/11 A2999 RMK AO2 SLP156 T01560111 402000144

2010/08/10 07:53
KWRL 100753Z AUTO 00000KT 10SM BKN100 17/08 A2997 RMK AO2 SLP103 T01670083 $

2010/08/10 07:53
KWVI 100753Z AUTO 00000KT 5SM BR OVC002 12/11 A2993 RMK AO2 SLP135 T01220111 402000117

2010/08/10 07:53
KXNA 100753Z AUTO 00000KT 10SM CLR 24/22 A2997 RMK AO2 SLP128 T02440217

2010/08/10 07:53
KYKM 100753Z AUTO 32009KT 10SM CLR 18/08 A2986 RMK AO2 SLP103 T01830083 403000133

2010/08/10 07:53
KZZV 100753Z AUTO 00000KT 6SM BR BKN090 21/19 A2997 RMK AO2 SLP140 T02110194

2010/08/10 07:53
KELZ 100753Z AUTO 00000KT 1/4SM FG BKN001 OVC008 19/19 A3003 RMK AO2

2010/08/10 07:50
LXGB 100750Z 00000KT CAVOK 24/15 Q1016 NOSIG

2010/08/10 07:50
EGBB 100750Z 23006KT 200V260 9999 -DZ BKN008 14/13 Q1009

2010/08/10 07:50
EGCC 100750Z 22008KT 9999 FEW038 15/11 Q1008

2010/08/10 07:50
EGKK 100750Z 22004KT 190V260 9999 -RA SCT007 SCT045 16/16 Q1011 RERA

2010/08/10 07:50
EGPF 100750Z 11007KT 9999 FEW010 SCT018 BKN045 13/11 Q1004

2010/08/10 07:50
EGPH 100750Z 24007KT 9999 FEW015 13/10 Q1004

2010/08/10 07:50
EGPK 100750Z 15006KT 090V190 7000 -RA FEW005 SCT014CB BKN018 12/11 Q1003

2010/08/10 07:50
EGSS 100750Z 28004KT 240V320 9000 -RADZ FEW005 SCT008 BKN030 14/14 Q1010 RERA

2010/08/10 08:00
FAJS 100800Z 10016KT CAVOK 08/M02 Q1034 NOSIG

2010/08/10 07:51
PTKK 100751Z VRB05KT 15SM FEW014 SCT120 OVC280 28/24 A2984 RMK SLP108 T02800238

2010/08/10 07:50
ESDF 100750Z 25006KT 200V270 CAVOK 18/12 Q1016

2010/08/10 07:50
ESPA 100750Z 34008KT 9999 BKN013 14/11 Q1011

2010/08/10 07:50
ESSL 100750Z 27008KT 9999 BKN018 17/13 Q1013

2010/08/10 07:50
EGHD 100750Z 12003KT 190V260 1500 0700SW -RA BCFG BR SCT000 OVC002 13/13 Q1012

2010/08/10 07:50
EGHE 100750Z 23020KT 2500 -RA SCT003 BKN011 16/16 Q1010

2010/08/10 07:50
EGHQ 100750Z 19010KT 4500 -RA BR BKN003 14/14 Q1010

2010/08/10 07:50
EGJA 100750Z 27004KT 0600 R26/0600 FG SCT000 BKN001 15/15 Q1013

2010/08/10 07:50
EGJB 100750Z 23011KT 1400 0700SW R27/P1500 -DZ PRFG BKN000 16/16 Q1013

2010/08/10 07:50
EGJJ 100750Z 24010KT 210V310 8000 -DZ SCT002 BKN004 17/17 Q1013 RERA REDZ BECMG 4000 BKN003

2010/08/10 07:50
EGTE 100750Z 14004KT 9999 -RA FEW012 BKN025 13/13 Q1011

2010/08/10 07:50
EGTG 100750Z 19007KT 9999 FEW020 14/12 Q1010

2010/08/10 07:50
LSGS 100750Z VRB03KT 9999 FEW070 21/11 Q1018

2010/08/10 07:50
LSZG 100750Z 06002KT CAVOK 19/15 Q1018 NOSIG

2010/08/10 07:50
LSZR 100750Z VRB01KT CAVOK 19/15 Q1018 NOSIG RMK D

2010/08/10 07:50
LSZS 100750Z VRB01KT 9999 FEW030 14/10 Q1023

2010/08/10 07:50
LSZC 100750Z VRB01KT 9999 FEW110 20/15 Q1018

2010/08/10 07:50
EGHH 100750Z 28006KT 8000 -RA FEW018 SCT022 14/13 Q1012

2010/08/10 07:50
EGKB 100750Z 25005KT 4000 RA BKN010 15/14 Q1011 

2010/08/10 07:50
EGMC 100750Z 22004KT 7000 -RA SCT009 BKN025 17/16 Q1010

2010/08/10 07:50
EGMD 100750Z 21020KT 8000 FEW009 BKN012 17/15 Q1012

2010/08/10 07:50
EGMH 100750Z 20016KT 4500 -DZ BR BKN006 18/17 Q1011 

2010/08/10 07:50
EFHA 100750Z 22007KT 180V270 9999 SCT030 SCT040CB 19/14 Q1010

2010/08/10 07:50
EFHF 100750Z 21006KT 180V240 9999 VCSH SCT013 SCT021 FEW030CB BKN060 20/18 Q1012

2010/08/10 07:50
EFKA 100750Z 24007KT 9999 SCT008 FEW018TCU BKN070 18/17 Q1008

2010/08/10 07:50
EFKK 100750Z AUTO 35006KT 9999 ////// 18/17 Q1008

2010/08/10 07:50
EFMA 100750Z 23008KT 200V280 9999 FEW014 BKN017 19/16 Q1010

2010/08/10 07:50
EFPO 100750Z 18004KT 140V230 9999 -SHRA BKN006 BKN017 19/18 Q1009

2010/08/10 07:50
EFSI 100750Z AUTO 20005KT 140V250 9999 FEW011 SCT015 BKN040 19/17 Q1009

2010/08/10 07:50
ESGL 100750Z AUTO 24013KT 9999NDV FEW014/// SCT018/// BKN022/// 18/16 Q1013

2010/08/10 07:50
ESGR 100750Z AUTO 24007KT 210V300 9999NDV OVC018/// 17/14 Q1013

2010/08/10 07:50
ESNL 100750Z AUTO 03003KT 340V080 9999NDV FEW010/// SCT014/// BKN019/// 14/11 Q1011

2010/08/10 07:50
ESNX 100750Z AUTO 07005KT 010V110 9999NDV NCD 15/10 Q1011

2010/08/10 07:50
ESNY 100750Z AUTO 18001KT 9999 FEW003 BKN039 18/18 Q1008

2010/08/10 07:50
ESNG 100750Z 32003KT 290V350 9999 BKN035 15/09 Q1011

2010/08/10 07:50
ESNK 100750Z 36003KT 9999 BKN016 17/14 Q1009

2010/08/10 07:50
ESNN 100750Z 06004KT 010V120 9999 SCT005 BKN007 OVC009 16/15 Q1009

2010/08/10 07:50
ESNO 100750Z 02005KT 350V060 5000 BR SCT005 BKN010 15/14 Q1010 REDZ

2010/08/10 07:50
ESNQ 100750Z VRB02KT 9999 FEW015 BKN029 13/09 Q1012

2010/08/10 07:50
ESNS 100750Z 02007KT 6000 RA SCT010 BKN020 13/12 Q1011

2010/08/10 07:50
ESNU 100750Z 02006KT 350V050 6000 BR SCT005 BKN009 15/13 Q1010

2010/08/10 07:50
ESNZ 100750Z 03005KT 5000 BR VV005 14/14 Q1010

2010/08/10 07:50
ESUT 100750Z AUTO 16008KT 9999NDV OVC027/// 15/10 Q1011

2010/08/10 08:00
SGAS 100800Z 18005KT CAVOK 10/07 Q1019

2010/08/10 08:00
SGES 100800Z 18004KT CAVOK 12/11 Q1019

2010/08/10 07:50
ESKN 100750Z 25010KT 220V290 9999 SCT019 BKN053 18/13 Q1012

2010/08/10 07:50
ESOE 100750Z 23008KT 200V260 9999 BKN015 17/14 Q1012

2010/08/10 07:50
ESOK 100750Z AUTO 22005KT 9999NDV OVC013/// 16/14 Q1011

2010/08/10 07:50
ESOW 100750Z 24009KT 9999 BKN012 OVC020 17/15 Q1011

2010/08/10 07:50
ESSA 100750Z 24011KT 9999 FEW007 SCT008 BKN009 17/15 Q1011 BECMG BKN012

2010/08/10 07:50
ESSB 100750Z 23007KT 9999 BKN007 17/15 Q1011

2010/08/10 07:50
ESSD 100750Z 27009KT 9999 FEW017 BKN022 19/15 Q1010

2010/08/10 07:50
ESSP 100750Z 24009KT 9999 OVC017 17/13 Q1013

2010/08/10 07:50
ESSV 100750Z 24011KT 9999 FEW017 BKN040 17/12 Q1014

2010/08/10 07:53
KDAB 100753Z 10003KT 10SM FEW020 27/24 A2993 RMK AO2 SLP136 T02670239 

2010/08/10 07:53
K40J 100753Z AUTO 07004KT 24/23 A2991 RMK AO2 SLP127 T02440233 PWINO TSNO 

2010/08/10 07:53
KBNO 100753Z AUTO 26007KT 10SM FEW110 16/04 A2994 RMK AO2 SLP101 T01610039 402780100 TSNO 

2010/08/10 07:53
KMGM 100753Z 08003KT 8SM SCT070 26/23 A2994 RMK AO2 SLP136 T02610228 

2010/08/10 07:53
KSGR 100753Z AUTO 00000KT 10SM CLR 25/24 A2991 RMK AO2 SLP135 T02500239 TSNO 

2010/08/10 07:53
KBTR 100753Z 00000KT 8SM SCT004 BKN200 25/24 A2992 RMK AO2 SLP130 T02500244 

2010/08/10 07:53
KNIP 100753Z 12008KT 10SM SCT020 27/24 A2995 RMK AO2 SLP137 T02720239 

2010/08/10 07:53
KMCN 100753Z AUTO 00000KT 7SM CLR 24/22 A2999 RMK AO2 SLP148 T02390217 TSNO 

2010/08/10 07:53
KDNK 100753Z AUTO 00000KT 10SM CLR 26/23 A2992 RMK AO2 SLP127 T02560228 

2010/08/10 07:53
KCHA 100753Z 00000KT 10SM CLR 26/24 A3000 RMK AO2 SLP149 T02610239 $ 

2010/08/10 07:53
KTLH 100753Z 07005KT 10SM SCT095 27/23 A2992 RMK AO2 SLP130 T02670233 

2010/08/10 07:53
KTRI 100753Z 00000KT 5SM BR FEW060 SCT080 22/21 A3005 RMK AO2 SLP154 T02220206 

2010/08/10 07:53
KTYS 100753Z 00000KT 9SM CLR 27/22 A3000 RMK AO2 SLP145 T02670217 

2010/08/10 07:53
KP92 100753Z AUTO 00000KT 25/24 A2991 RMK AO2 SLP129 T02500244 PWINO TSNO 

2010/08/10 07:54
CYFC 100754Z AUTO 00000KT 1/8SM FG VV001 17/17 A2980 RMK SLP093 DENSITY ALT 400FT RVR MISG

2010/08/10 07:53
KELY 100753Z AUTO 20010KT 10SM CLR 16/M05 A3013 RMK AO2 SLP104 T01561050 402780100 

2010/08/10 07:53
KOVE 100753Z AUTO 17005KT 10SM CLR 22/12 A2984 RMK AO2 SLP105 T02170117 403220150 TSNO $ 

2010/08/10 07:53
KTUP 100753Z AUTO 17004KT 8SM CLR 26/24 A2995 RMK AO2 SLP136 T02560239 

2010/08/10 07:53
KCQC 100753Z AUTO 05007KT 10SM CLR 16/12 A3025 RMK AO2 SLP135 T01610122 TSNO 

2010/08/10 08:00
OKBK 100800Z 14004KT 7000 SKC 42/18 Q1000 NOSIG

2010/08/10 07:54
CYCX 100754Z AUTO 33002KT 1SM 16/16 A2980 RMK VSBY VRBL 0.3V5.0

2010/08/10 07:53
KNUI 100753Z AUTO 21006KT 10SM CLR 26/22 A2994 RMK AO2 SLP139 T02560222 

2010/08/10 07:53
KSAV 100753Z 00000KT 10SM FEW023 26/24 A2999 RMK AO2 SLP153 T02560239 $ 

2010/08/10 07:54
PGUM 100754Z 09005KT 10SM TS SCT040CB 28/24 A2990 RMK AO2 TSB47 SLP118 TS DSNT W MOV NW CB SW-W MOV W T02830239 

2010/08/10 07:53
KLND 100753Z AUTO 24010KT 10SM CLR 18/03 A3005 RMK AO2 SLP101 T01780033 

2010/08/10 07:53
KMSN 100753Z 00000KT 1SM BR FEW001 SCT008 22/21 A2993 RMK AO2 SLP130 T02170211 

2010/08/10 07:51
KSNT 100751Z AUTO 31004KT 09/08 A3014 RMK AO2 SLP134 T00940083 PWINO TSNO 

2010/08/10 07:53
KCUT 100753Z AUTO 22004KT 10SM FEW095 17/13 A3003 RMK AO2 SLP095 T01670133 TSNO 

2010/08/10 07:53
KGNT 100753Z AUTO 33003KT 13/11 A3025 RMK AO2 SLP152 T01330106 PWINO TSNO 

2010/08/10 07:52
KCZZ 100752Z AUTO 03004KT 11/05 A2994 RMK AO2 SLP107 T01060050 402940039 PWINO TSNO 

2010/08/10 07:53
KRQE 100753Z AUTO 00000KT 10SM SCT075 12/10 A3026 RMK AO2 SLP139 T01170100 TSNO 

2010/08/10 07:54
KBTV 100754Z 00000KT 1SM BR VV004 18/18 A2991 RMK AO2 SLP128 T01780178 RVRNO 

2010/08/10 07:53
KRTN 100753Z AUTO 36004KT 10SM CLR 14/13 A3020 RMK AO2 SLP127 T01440128 TSNO 

2010/08/10 07:53
KTCS 100753Z AUTO 30009KT 10SM CLR 23/11 A3007 RMK AO2 SLP088 T02330111 TSNO 

2010/08/10 07:55
TXKF 100755Z 17007KT 9999 FEW015 FEW180 SCT300 27/23 Q1020  

2010/08/10 07:50
EFHA 100750Z 22007KT 180V270 9999 SCT030 SCT040CB 19/14 Q1010

2010/08/10 07:50
EFHF 100750Z 21006KT 180V240 9999 VCSH SCT013 SCT021 FEW030CB BKN060 20/18 Q1012

2010/08/10 07:50
EFKA 100750Z 24007KT 9999 SCT008 FEW018TCU BKN070 18/17 Q1008

2010/08/10 07:50
EFKK 100750Z AUTO 35006KT 9999 ////// 18/17 Q1008

2010/08/10 07:50
EFMA 100750Z 23008KT 200V280 9999 FEW014 BKN017 19/16 Q1010

2010/08/10 07:50
EFPO 100750Z 18004KT 140V230 9999 -SHRA BKN006 BKN017 19/18 Q1009

2010/08/10 07:50
EFSI 100750Z AUTO 20005KT 140V250 9999 FEW011 SCT015 BKN040 19/17 Q1009

2010/08/10 07:50
ESDF 100750Z 25006KT 200V270 CAVOK 18/12 Q1016

2010/08/10 07:50
ESPA 100750Z 34008KT 9999 BKN013 14/11 Q1011

2010/08/10 07:50
ESSL 100750Z 27008KT 9999 BKN018 17/13 Q1013

2010/08/10 07:50
ENBS 100750Z 20005KT 9999 FEW020 BKN035 11/06 Q1013

2010/08/10 07:50
ENHV 100750Z 21005KT 160V250 9999 FEW016 12/08 Q1012

2010/08/10 07:50
ENNK 100750Z 23003KT 9999 SCT050 13/11 Q1010 

2010/08/10 07:50
ENNM 100750Z 26003KT 5000 BKN002 12/11 Q1011

2010/08/10 07:50
LOWW 100750Z 36003KT 290V050 9999 FEW060 21/16 Q1019 NOSIG

2010/08/10 07:50
LOWL 100750Z VRB02KT 9999 FEW030 19/15 Q1019 NOSIG

2010/08/10 07:50
LOWS 100750Z 15007KT 9999 FEW060 21/12 Q1018 NOSIG

2010/08/10 07:50
LOWI 100750Z 29004KT 250V320 9999 FEW065 19/14 Q1019 NOSIG

2010/08/10 07:50
LOWG 100750Z VRB02KT 9999 FEW030 21/16 Q1019 NOSIG

2010/08/10 07:50
LOWK 100750Z VRB02KT 9999 FEW008 BKN039 19/15 Q1020 NOSIG

2010/08/10 07:50
ENMS 100750Z 01004KT 9999 SCT045 17/13 Q1010 

2010/08/10 07:50
ENRM 100750Z VRB02KT 4500 BR SCT002 BKN003 12/11 Q1011

2010/08/10 07:50
ENSK 100750Z 26003KT 9999 SCT008 BKN010 12/10 Q1011

2010/08/10 07:50
ENSO 100750Z 12009KT 090V150 9999 FEW035 BKN055 16/10 Q1009

2010/08/10 07:50
ENST 100750Z 24003KT 200V300 6000 2000NE BR BKN002 12/12 Q1011

2010/08/10 07:50
ESGL 100750Z AUTO 24013KT 9999NDV FEW014/// SCT018/// BKN022/// 18/16 Q1013

2010/08/10 07:50
ESGR 100750Z AUTO 24007KT 210V300 9999NDV OVC018/// 17/14 Q1013

2010/08/10 07:50
ESNL 100750Z AUTO 03003KT 340V080 9999NDV FEW010/// SCT014/// BKN019/// 14/11 Q1011

2010/08/10 07:50
ESNX 100750Z AUTO 07005KT 010V110 9999NDV NCD 15/10 Q1011

2010/08/10 07:50
ESNY 100750Z AUTO 18001KT 9999 FEW003 BKN039 18/18 Q1008

2010/08/10 07:50
ENAN 100750Z 02011KT 9999 8000W SCT005 BKN007 11/10 Q1011 NOSIG

2010/08/10 07:50
ENBR 100750Z 14004KT 110V190 CAVOK 18/10 Q1009 

2010/08/10 07:50
ENBO 100750Z 25006KT 200V280 9999 FEW002 BKN050 13/12 Q1010 TEMPO 4000 BR SCT003 BKN008 

2010/08/10 07:50
ENDU 100750Z VRB01KT 9999 FEW045 SCT060 14/10 Q1010

2010/08/10 07:50
ENOL 100750Z 01003KT 9999 FEW002 BKN005 13/12 Q1011 BECMG BKN010

2010/08/10 07:50
ENVA 100750Z VRB02KT 9999 FEW005 SCT008 BKN012 15/12 Q1011 TEMPO BKN015 

2010/08/10 07:50
ENZV 100750Z 15010KT 9999 FEW045 BKN065 17/12 Q1009 NOSIG

2010/08/10 07:50
EGBJ 100750Z 21007KT 180V250 9999 FEW014 15/13 Q1010

2010/08/10 07:50
EGCN 100750Z 22010KT 9999 FEW015 15/12 Q1008

2010/08/10 07:50
EGSC 100750Z 25007KT 210V280 9999 FEW007 SCT046 14/12 Q1010

2010/08/10 07:50
EGSH 100750Z 24008KT 6000 RA SCT008 BKN029 17/15 Q1009

2010/08/10 07:50
LOXZ 100750Z VRB03KT 30KM FEW018CU SCT270CI 18/14 Q1020 NOSIG RMK SCT

2010/08/10 07:50
EGTC 100750Z 23011KT 9999 SCT044 13/11 Q1010

2010/08/10 07:55
EKVG 100755Z 03006KT 9999 FEW010 SCT060 14/12 Q1008 RMK/RWY 13-31 CLOSED DUE WIP NOTAM E0050/10 WIND 850FT 07006KT

2010/08/10 07:50
ENEK 100750Z 19008KT 9999 FEW005 FEW010TCU BKN060 16/15 Q1006 W16/S3

2010/08/10 07:50
ENGC 100750Z 10019KT 9999 FEW025 BKN045 14/12 Q1008

2010/08/10 07:50
ENHE 100750Z 04010KT 9999 OVC016 10/08 Q1012

2010/08/10 07:50
ENOA 100750Z 12024KT 4000N -RA SCT013 BKN050 14/12 Q1007

2010/08/10 07:50
EBAW 100750Z 23006KT 200V260 CAVOK 19/13 Q1014 NOSIG

2010/08/10 07:50
EBBR 100750Z 20005KT 180V240 CAVOK 18/12 Q1014 NOSIG

2010/08/10 07:50
EBCI 100750Z 21006KT 180V250 CAVOK 19/11 Q1015 NOSIG

2010/08/10 07:50
EBLG 100750Z 18005KT CAVOK 20/13 Q1015 NOSIG

2010/08/10 07:50
ELLX 100750Z 14005KT 110V190 CAVOK 20/12 Q1016 NOSIG

2010/08/10 07:54
KJAN 100754Z 00000KT 9SM CLR 24/23 A2996 RMK AO2 SLP138 T02390228 

2010/08/10 07:55
KBLV 100755Z AUTO 00000KT 7SM R14R/5000V5500FT CLR 26/26 A2991 RMK AO2 SLP126 T02610258

2010/08/10 07:55
KCEF 100755Z AUTO 24005KT 10SM SCT060 BKN080 22/21 A2991 RMK AO2 RAE0720DZB0734E0749 SLP130 P0000 T02170209 $

2010/08/10 07:50
KEFD 100750Z 00000KT 10SM FEW250 27/25 A2993

2010/08/10 07:55
KGRF 100755Z AUTO 18007KT 10SM OVC011 14/11 A2997 RMK AO2 CIG 010V014 SLP151 T01350110 401870133

2010/08/10 07:55
KHMN 100755Z 32004KT 10SM CLR 21/12 A3002 RMK AO2A SLP081 T02110119 $

2010/08/10 07:55
KHST 100755Z AUTO 14006KT 10SM FEW050 27/24 A2987 RMK AO2 SLP117 T02680235

2010/08/10 07:55
KLRF 100755Z AUTO 00000KT 10SM CLR 28/26 A2992 RMK AO2 SLP128 T02790258

2010/08/10 07:55
KMGE 100755Z AUTO 08003KT 10SM CLR 26/22 A3002 RMK AO2 SLP153 T02590215 $

2010/08/10 07:55
KMMT 100755Z AUTO 00000KT 7SM R32/4000VP6000FT CLR 23/23 A3001 RMK AO2 SLP160 T02340230

2010/08/10 07:50
NSTU 100750Z 12013KT 10SM SCT016 27/26 A2996 RMK SLP147 T02710256

2010/08/10 07:53
PHJR 100753Z AUTO 07004KT 10SM CLR 25/17 A3011 RMK AO2 SLP202 T02500172 TSNO

2010/08/10 07:53
PHKO 100753Z 08007KT 10SM CLR 25/16 A3005 RMK AO2 SLP177 T02500156

2010/08/10 07:53
PHNL 100753Z 06011KT 10SM SCT042 26/18 A3010 RMK AO2 SLP193 T02560178

2010/08/10 07:53
PHTO 100753Z 06004KT 10SM SCT030 BKN050 OVC060 24/18 A3012 RMK AO2 SLP196 T02390183

2010/08/10 07:50
EETN 100750Z 23010KT 9999 FEW018CB BKN050 20/16 Q1013 NOSIG

2010/08/10 07:50
EETU 100750Z AUTO 22009KT 190V250 9999NDV FEW025/// 21/16 Q1015

2010/08/10 07:50
EFHK 100750Z 20010KT 9999 -SHRA BKN010 FEW030CB 20/17 Q1012 NOSIG

2010/08/10 07:50
ESSA 100750Z 24011KT 9999 FEW007 SCT008 BKN009 17/15 Q1011 BECMG BKN012

2010/08/10 07:50
EVLA 100750Z 24013KT 9999 SCT027 20/14 Q1016

2010/08/10 07:50
EVRA 100750Z 20009KT 180V240 9999 SCT016 SCT021 21/16 Q1016 NOSIG

2010/08/10 07:50
EYKA 100750Z 22003KT 140V290 CAVOK 23/18 Q1017

2010/08/10 07:50
EYPA 100750Z 27005KT 9999 FEW023 20/14 Q1017 NOSIG

2010/08/10 07:50
EYVI 100750Z 09004KT 9999 SCT023 BKN100 22/17 Q1017 NOSIG

2010/08/10 07:50
BGBW 100750Z AUTO 07004KT 4100NDV BR FEW001/// BKN003/// BKN005/// 08/08 Q1009

2010/08/10 07:50
BGGH 100750Z 21007KT 0200 RA FG VV002 09/08 Q1007

2010/08/10 07:50
BGJN 100750Z AUTO 36003KT 9999NDV SCT019/// OVC025/// 07/04 Q1008

2010/08/10 07:50
BGKK 100750Z 08019KT 9999 DZ VCFG FEW010 SCT035 BKN060 07/05 Q1012

2010/08/10 07:50
EGMH 100750Z 20016KT 4500 -DZ BR BKN006 18/17 Q1011

2010/08/10 07:53
KBUR 100753Z AUTO 11006KT 7SM CLR 16/13 A2990 RMK AO2 SLP115 T01610133 402670139 TSNO

2010/08/10 07:55
KCEF 100755Z AUTO 24005KT 10SM SCT060 BKN080 22/21 A2991 RMK AO2 RAE0720DZB0734E0749 SLP130 P0000 T02170209 $

2010/08/10 07:55
KEGI 100755Z AUTO 00000KT 5SM R18/4500V5000FT BR CLR 24/23 A2992 RMK AO2 SLP130 T02400233 $

2010/08/10 07:55
KGRF 100755Z AUTO 18007KT 10SM OVC011 14/11 A2997 RMK AO2 CIG 010V014 SLP151 T01350110 401870133

2010/08/10 07:55
KHMN 100755Z 32004KT 10SM CLR 21/12 A3002 RMK AO2A SLP081 T02110119 $

2010/08/10 07:55
KHST 100755Z AUTO 14006KT 10SM FEW050 27/24 A2987 RMK AO2 SLP117 T02680235

2010/08/10 07:55
KMMT 100755Z AUTO 00000KT 7SM R32/4000VP6000FT CLR 23/23 A3001 RMK AO2 SLP160 T02340230

2010/08/10 07:52
KNHK 100752Z AUTO 21008KT 10SM CLR 26/21 A2994 RMK AO2 SLP140 T02560211 $

2010/08/10 07:51
KSAN 100751Z 28005KT 10SM OVC015 18/14 A2993 RMK AO2 SLP133 T01780139 402220156

2010/08/10 07:55
KSZL 100755Z AUTO 17005KT 10SM CLR 27/25 A2990 RMK AO2 SLP114 T02670246 PNO $

2010/08/10 07:53
PHJR 100753Z AUTO 07004KT 10SM CLR 25/17 A3011 RMK AO2 SLP202 T02500172 TSNO

2010/08/10 07:55
KQCQ 100755Z 34004KT 9999 CLR 45/M02 A2957 RMK SLP010

2010/08/10 07:55
KQLD 100755Z AUTO 20003KT 9999 BKN090 21/11 A3023 RMK AO2 SLP135 T02070114

2010/08/10 07:50
ENNO 100750Z 00000KT 7000 BKN008 16/14 Q1010

2010/08/10 07:50
ENOV 100750Z 00000KT 9999 FEW008 SCT012 BKN020 15/13 Q1010 

2010/08/10 07:50
ENSG 100750Z 00000KT 9999 VCFG FEW/// SCT003 SCT015 14/13 Q1010

2010/08/10 07:50
ENSN 100750Z 20006KT 9000 SCT003 BKN015 16/12 Q1010

2010/08/10 07:50
ENSR 100750Z 35004KT 9999 FEW010 SCT060 13/10 Q1011

2010/08/10 07:50
ENBN 100750Z VRB02KT 6000 SCT002 BKN003 13/12 Q1011

2010/08/10 07:50
ENBV 100750Z 09009KT 9999 BKN035 11/08 Q1013

2010/08/10 07:50
ENFG 100750Z 18003KT 9999 SCT008 BKN013 13/11 Q1011

2010/08/10 07:50
ENHF 100750Z VRB02KT 9999 BKN046 13/09 Q1011 

2010/08/10 07:50
ENRA 100750Z 15005KT 9999 BKN050 20/12 Q1010

2010/08/10 07:50
ENSH 100750Z 02015KT 9999 FEW010 SCT035 13/10 Q1010

2010/08/10 07:50
ENAL 100750Z 04010KT 9999 FEW010 BKN030 15/12 Q1010

2010/08/10 07:50
ENCN 100750Z 05002KT 9999 BKN014 15/13 Q1012

2010/08/10 07:50
ENHD 100750Z 12011KT 9999 FEW025 BKN059 16/12 Q1009

2010/08/10 07:50
ENRO 100750Z 00000KT 9999 -RA SCT002 BKN016 13/12 Q1011

2010/08/10 07:50
ENRY 100750Z 19011KT 9999 FEW014 18/12 Q1011 NOSIG

2010/08/10 07:50
ENSB 100750Z 26012KT 9999 FEW020 04/M01 Q1006 NOSIG 

2010/08/10 07:50
ENTC 100750Z 02008KT 9999 FEW009 SCT050 12/09 Q1011 TEMPO BKN014

2010/08/10 07:50
ENTO 100750Z 22013KT 9999 FEW005 18/10 Q1011

2010/08/10 07:50
EDAC 100750Z 18004KT 140V220 CAVOK 21/15 Q1017

2010/08/10 07:50
EDAH 100750Z 17004KT 9999 BKN025 20/16 Q1016

2010/08/10 07:50
EDBC 100750Z 18005KT 140V220 CAVOK 20/15 Q1016

2010/08/10 07:50
EDGS 100750Z 23008KT CAVOK 19/13 Q1017

2010/08/10 07:50
EDHL 100750Z 16008KT 120V180 CAVOK 20/20 Q1015

2010/08/10 07:50
EDJA 100750Z 24006KT 9999 FEW051 18/14 Q1019

2010/08/10 07:50
EDLN 100750Z VRB03KT CAVOK 20/17 Q1015

2010/08/10 07:50
EDLP 100750Z 19006KT CAVOK 22/12 Q1015

2010/08/10 07:50
EDLW 100750Z 17007KT CAVOK 21/13 Q1015

2010/08/10 07:50
EDMA 100750Z 27004KT 220V310 CAVOK 19/15 Q1018

2010/08/10 07:50
EDQM 100750Z 19005KT 140V230 CAVOK 19/11 Q1019

2010/08/10 07:50
EDSB 100750Z 22005KT 190V250 CAVOK 19/14 Q1017

2010/08/10 07:50
EDXW 100750Z 16012KT 9000 FEW012 19/16 Q1013

2010/08/10 07:50
EDHI 100750Z 17004KT 090V230 CAVOK 21/15 Q1015

2010/08/10 07:50
EDMO 100750Z 29004KT 240V340 CAVOK 19/14 Q1018

2010/08/10 07:50
EDOP 100750Z 12006KT 080V160 CAVOK 20/15 Q1016

2010/08/10 07:50
EDTD 100750Z VRB02KT 070V070 CAVOK 20/14 Q1019

2010/08/10 07:50
EDVE 100750Z 17004KT 120V240 CAVOK 20/15 Q1016

2010/08/10 07:50
EDFE 100750Z VRB02KT CAVOK 20/14 Q1017

2010/08/10 07:50
EDFH 100750Z 24004KT 190V310 CAVOK 22/12 Q1017

2010/08/10 07:50
EDFM 100750Z 19005KT 150V240 CAVOK 21/15 Q1017

2010/08/10 07:50
EDLV 100750Z 20005KT 130V260 CAVOK 19/15 Q1014

2010/08/10 07:50
EDTL 100750Z 21005KT CAVOK 19/15 Q1017

2010/08/10 07:50
EDVK 100750Z 14003KT 090V210 CAVOK 20/12 Q1016

2010/08/10 07:50
EDFH 100750Z 24004KT 190V310 CAVOK 22/12 Q1017

2010/08/10 07:50
EDHI 100750Z 17004KT 090V230 CAVOK 21/15 Q1015

2010/08/10 07:50
EDLP 100750Z 19006KT CAVOK 22/12 Q1015

2010/08/10 07:50
EDMA 100750Z 27004KT 220V310 CAVOK 19/15 Q1018

2010/08/10 07:50
EDOP 100750Z 12006KT 080V160 CAVOK 20/15 Q1016

2010/08/10 07:50
EDTL 100750Z 21005KT CAVOK 19/15 Q1017

2010/08/10 07:50
EDVE 100750Z 17004KT 120V240 CAVOK 20/15 Q1016

2010/08/10 07:50
EGAA 100750Z 26014KT 9999 SCT013 13/11 Q1004

2010/08/10 07:50
EGAC 100750Z 24010KT 210V270 9999 FEW012 SCT025 15/11 Q1004

2010/08/10 07:50
EGFF 100750Z 24009KT 9999 SCT009 SCT024 15/12 Q1010

2010/08/10 07:50
EGGW 100750Z 25009KT 9000 BKN034 BKN041 13/12 Q1010 RERA

2010/08/10 07:50
EGHD 100750Z 12003KT 190V260 1500 0700SW -RA BCFG BR SCT000 OVC002 13/13 Q1012

2010/08/10 07:50
EGHE 100750Z 23020KT 2500 -RA SCT003 BKN011 16/16 Q1010

2010/08/10 07:50
EGHI 100750Z 24005KT 220V280 7000 -RA FEW010 SCT018 BKN028 14/12 Q1012

2010/08/10 07:50
EGJA 100750Z 27004KT 0600 R26/0600 FG SCT000 BKN001 15/15 Q1013

2010/08/10 07:50
EGJB 100750Z 23011KT 1400 0700SW R27/P1500 -DZ PRFG BKN000 16/16 Q1013

2010/08/10 07:50
EGJJ 100750Z 24010KT 210V310 8000 -DZ SCT002 BKN004 17/17 Q1013 RERA REDZ BECMG 4000 BKN003

2010/08/10 07:50
EGLC 100750Z 28006KT 9999 RA FEW007 BKN012 16/14 Q1011

2010/08/10 07:50
EGNM 100750Z 21005KT 9000 FEW010 SCT035 13/11 Q1007

2010/08/10 07:50
EGNT 100750Z 22004KT 160V240 9999 FEW040 16/11 Q1005

2010/08/10 07:50
EGNX 100750Z 22009KT 9999 FEW012 SCT045 14/12 Q1009

2010/08/10 07:50
EGPD 100750Z 36002KT 9999 FEW003 11/10 Q1004 NOSIG

2010/08/10 07:50
EGTE 100750Z 14004KT 9999 -RA FEW012 BKN025 13/13 Q1011

2010/08/10 07:50
EGTG 100750Z 19007KT 9999 FEW020 14/12 Q1010

2010/08/10 07:50
ENAT 100750Z 15010KT 9999 FEW030 BKN050 16/09 Q1011 

2010/08/10 07:50
ENEV 100750Z 36006KT 310V030 9999 FEW008 SCT040 13/10 Q1011 

2010/08/10 07:50
ENFL 100750Z 00000KT 9999 FEW013 BKN044 15/13 Q1010

2010/08/10 07:50
ENKB 100750Z 00000KT 9999 -RA FEW008 SCT016 BKN090 14/13 Q1010

2010/08/10 07:50
ENKR 100750Z 02005KT 350V060 9999 BKN006 09/08 Q1013 

2010/08/10 07:50
ENML 100750Z 09003KT 9999 FEW010 BKN035 16/13 Q1010

2010/08/10 07:50
ENNA 100750Z 18007KT 9999 FEW015 BKN050 15/10 Q1012 

2010/08/10 07:54
KCAR 100754Z AUTO 00000KT 7SM CLR 15/14 A2981 RMK AO2 SLP095 T01500144 

2010/08/10 07:54
KAVP 100754Z 00000KT 10SM BKN110 23/19 A2996 RMK AO2 SLP131 T02280189 $ 

2010/08/10 08:00
HAAB 100800Z 19006KT 8000 BR SCT004 BKN020 OVC070 16/13 Q1027

2010/08/10 08:00
MYNN 100800Z 21005KT 9999 -SHRA SCT020 OVC080 25/25 A2994

2010/08/10 07:54
KNKT 100754Z AUTO 21003KT 10SM CLR 24/23 A3002 RMK AO2 SLP162 T02440233 

2010/08/10 07:54
KRSP 100754Z AUTO 32003KT 7SM CLR 23/19 A3001 RMK AO2 SLP150 T02280189 $ 

2010/08/10 07:54
KFWA 100754Z 00000KT 3/4SM BR CLR 23/22 A2997 RMK AO2 SLP141 R32/2600FT VIS S-W 1/4 T02280222 

2010/08/10 07:54
KMQE 100754Z AUTO 20003KT 21/21 A2991 RMK AO1 SLP135 P0005 T02110211 

2010/08/10 07:54
KRIC 100754Z 22004KT 9SM FEW060 24/21 A2997 RMK AO2 SLP151 T02440211 $ 

2010/08/10 07:54
KCOU 100754Z AUTO 17004KT 9SM CLR 26/25 A2991 RMK AO2 SLP119 T02610250 TSNO $ 

2010/08/10 07:54
K1V4 100754Z AUTO 18/18 A2992 RMK AO2 SLP120 T01780178 PWINO TSNO 

2010/08/10 07:54
KROA 100754Z 29003KT 8SM CLR 23/21 A3003 RMK AO2 SLP155 T02330206 

2010/08/10 07:54
K12N 100754Z AUTO 00000KT 23/21 A2996 RMK AO2 SLP133 T02280211 PWINO TSNO 

2010/08/10 07:53
KCTY 100753Z AUTO 10003KT 24/24 A2992 RMK AO2 SLP130 T02440239 PWINO TSNO 

2010/08/10 07:55
KBAD 100755Z AUTO 14004KT 10SM CLR 26/23 A2993 RMK AO2 SLP133 T02570231

2010/08/10 07:53
KBAF 100753Z 00000KT 4SM -RA BR FEW070 SCT100 22/21 A2992 RMK AO2 SLP127 P0000 T02220211

2010/08/10 07:55
KDAA 100755Z AUTO 00000KT 10SM CLR 23/21 A2994 RMK AO2 SLP141 T02310209

2010/08/10 07:53
KDTS 100753Z AUTO 35006KT 9SM CLR 28/24 A2989 RMK AO2 SLP121 T02780239

2010/08/10 07:55
KEDW 100755Z AUTO 16006KT 10SM CLR 19/M00 A2989 RMK AO2 SLP074 T01851000 403450138

2010/08/10 07:55
KGUS 100755Z AUTO 00000KT 9SM R23/5500VP6000FT CLR 23/23 A2996 RMK AO2 SLP139 T02270227

2010/08/10 07:55
KIAB 100755Z AUTO 17007KT 10SM FEW100 28/21 A2990 RMK AO2 SLP108 T02810207 $

2010/08/10 07:55
KMTC 100755Z AUTO 00000KT 3/4SM R19/0700VP6000FT DZ BR CLR 20/20 A2995 RMK AO2 SLP144 P0000 T02050205 $

2010/08/10 07:55
KOFF 100755Z AUTO 15005KT 10SM CLR 26/25 A2984 RMK AO2 SLP084 T02640253 $

2010/08/10 07:55
KSUU 100755Z AUTO 25021KT 10SM CLR 13/11 A2982 RMK AO2 PK WND 25027/0742 SLP101 T01290112 402770128 RVRNO $

2010/08/10 07:53
KTOI 100753Z AUTO 00000KT 7SM CLR 24/23 A2995 RMK AO2 SLP137 T02440228

2010/08/10 08:00
MDSD 100800Z VRB03KT 9999 -TS FEW016CB FEW018 24/22 Q1012 CB/NE/E/SE/N

2010/08/10 08:00
MDST 100800Z 06004KT 9999 FEW016 24/24 Q1012

2010/08/10 08:00
OKBK 100800Z 14004KT 7000 SKC 42/18 Q1000 NOSIG

2010/08/10 07:53
TIST 100753Z AUTO 10006KT 10SM FEW028 OVC090 28/24 A2992 RMK AO2 SLP133 T02830244 TSNO

2010/08/10 07:53
TISX 100753Z AUTO 07004KT 10SM CLR 27/24 A2992 RMK AO2 SLP130 P0001 T02670244 TSNO

2010/08/10 08:00
NIUE 100800Z AUTO 14008KT //// ////// 23/22 Q1018

2010/08/10 08:00
HAAB 100800Z 19006KT 8000 BR SCT004 BKN020 OVC070 16/13 Q1027

2010/08/10 07:50
ETUO 100750Z 11003KT CAVOK 20/13 Q1015 BLU

2010/08/10 07:54
KMVL 100754Z AUTO 00000KT 1/4SM FG VV001 17/17 A2995 RMK AO2 SLP141 T01670167

2010/08/10 07:55
KMVN 100755Z AUTO 00000KT 3SM CLR 24/22 A2994 RMK AO1

2010/08/10 07:55
KOCH 100755Z AUTO 00000KT 10SM CLR 26/23 A2991 RMK AO1

2010/08/10 07:54
KOFP 100754Z AUTO 18004KT 10SM CLR 25/20 A2998 RMK AO2 SLP150 T02500200

2010/08/10 07:55
KOKK 100755Z AUTO 04004KT 3SM CLR 23/18 A2997 RMK AO1

2010/08/10 07:54
KOKM 100754Z AUTO 00000KT 10SM CLR 25/23 A2991 RMK AO1

2010/08/10 07:54
KOLM 100754Z AUTO 21006KT 10SM OVC014 13/11 A2998 RMK AO2 SLP152 T01330111 401780128

2010/08/10 07:54
KOLS 100754Z AUTO 04003KT 10SM CLR 21/15 A3005 RMK AO2 SLP101 T02110150

2010/08/10 07:55
KOLU 100755Z AUTO 1/2SM OVC002 26/24 A2984 RMK AO1

2010/08/10 07:54
KORH 100754Z AUTO 28005KT 9SM SCT050 BKN100 OVC120 21/20 A2993 RMK AO2 RAB04E52 SLP129 P0000 T02060200

2010/08/10 07:55
KOTG 100755Z AUTO 10005KT 5SM OVC004 23/22 A2991 RMK AO1

2010/08/10 07:55
KOTH 100755Z 35007KT 10SM OVC017 13/11 A3004 RMK AO1

2010/08/10 07:54
KPHF 100754Z 24005KT 10SM CLR 26/24 A2997 RMK AO2 SLP148 T02560239 $

2010/08/10 07:54
KPHL 100754Z 21007KT 10SM SCT150 BKN200 26/21 A2993 RMK AO2 SLP135 T02610211

2010/08/10 07:55
KPIB 100755Z AUTO 00000KT 4SM CLR 24/21 A2996 RMK AO1

2010/08/10 07:54
KPLN 100754Z AUTO 31003KT 1 1/4SM BR OVC002 22/22 A2998 RMK AO2 SLP147 T02170217

2010/08/10 07:54
KPNE 100754Z 22004KT 10SM CLR 26/22 A2993 RMK AO2 SLP135 T02610217

2010/08/10 07:55
KPQI 100755Z AUTO 00000KT 2 1/2SM CLR 13/12 A2979 RMK AO1

2010/08/10 07:55
KPRX 100755Z 11003KT 10SM CLR 26/22 A2990 RMK AO1

2010/08/10 07:54
KPSF 100754Z AUTO 00000KT 3SM BR FEW031 BKN041 BKN055 19/19 A2996 RMK AO2 SLP115 T01940189

2010/08/10 07:55
KPTN 100755Z AUTO 05004KT 10SM CLR 24/14 A2994 RMK AO1

2010/08/10 07:55
KPTV 100755Z AUTO 14006KT 10SM CLR 19/12 A2984 RMK AO1

2010/08/10 07:54
KPTW 100754Z AUTO 00000KT 7SM CLR 26/21 A2994 RMK AO2 SLP134 T02560211

2010/08/10 07:55
KPVC 100755Z 16004KT 3SM FEW041 SCT050 OVC080 21/19 A2991 RMK AO1 P0013

2010/08/10 07:55
KPVU 100755Z 12005KT 10SM CLR 17/05 A3005 RMK AO1

2010/08/10 07:55
KPWG 100755Z AUTO 19009KT 10SM CLR 28/21 A2992 RMK AO1

2010/08/10 07:55
KPWT 100755Z AUTO 19006KT 5SM OVC004 12/10 A2999 RMK AO1

2010/08/10 07:54
KRBL 100754Z AUTO 17003KT 10SM CLR 23/14 A2983 RMK AO2 SLP098 T02280144 403280167

2010/08/10 07:54
KRDG 100754Z AUTO 00000KT CLR 26/19 A2992 RMK AO2 SLP133 T02560194 $

2010/08/10 07:55
KRKD 100755Z AUTO 32004KT 10SM SCT060 BKN090 21/18 A2986 RMK AO1

2010/08/10 07:52
KRKR 100752Z AUTO 00000KT 10SM CLR 26/24 A2992 RMK AO2

2010/08/10 07:54
KRKS 100754Z AUTO 23006KT 10SM CLR 13/00 A3018 RMK AO2 SLP135 T01330000

2010/08/10 07:54
KAAO 100754Z AUTO 17009KT 10SM FEW100 28/20 A2990 RMK AO2 SLP104 T02830200

2010/08/10 07:55
KAIZ 100755Z AUTO 00000KT 10SM CLR 26/23 A2994 RMK AO1

2010/08/10 07:54
KAKH 100754Z AUTO 00000KT 6SM BR CLR 22/21 A3003 RMK AO2 SLP158 T02220211

2010/08/10 07:54
KAKR 100754Z AUTO 23005KT 10SM SCT070 24/19 A2996 RMK AO2 SLP135 T02440189

2010/08/10 07:54
KALO 100754Z 00000KT 7SM CLR 24/23 A2993 RMK AO2 LTG DSNT W RAB42E52 SLP127 P0000 T02440233

2010/08/10 07:54
KAPC 100754Z AUTO 30004KT 10SM OVC007 12/11 A2989 RMK AO2 SLP114 T01170106 402170111 $

2010/08/10 07:55
KARG 100755Z AUTO 15004KT 10SM CLR 26/23 A2993 RMK AO1

2010/08/10 07:55
KAUO 100755Z AUTO 10005KT 10SM CLR 26/20 A2997 RMK AO1

2010/08/10 07:54
KAUW 100754Z AUTO 00000KT 7SM CLR 20/19 A2998 RMK AO2 SLP147 T02000194

2010/08/10 07:54
KAVL 100754Z AUTO 00000KT 5SM BR OVC004 20/19 A3011 RMK AO2 SLP167 T02000194

2010/08/10 07:55
KAWO 100755Z AUTO 30004KT 10SM 14/14 A2996 RMK AO1

2010/08/10 07:54
KBFL 100754Z AUTO 35003KT 10SM CLR 24/06 A2983 RMK AO2 SLP093 T02390061 403390172

2010/08/10 07:55
KBHB 100755Z AUTO 00000KT 3SM BKN090 18/18 A2983 RMK AO1

2010/08/10 07:55
KBID 100755Z AUTO 29003KT 10SM FEW065 23/21 A2991 RMK AO1

2010/08/10 07:55
KBKX 100755Z AUTO 11007KT 10SM SCT015 BKN032 23/22 A2990 RMK AO1

2010/08/10 07:55
KBLM 100755Z AUTO 22007KT 10SM BKN060 24/19 A2995 RMK AO1

2010/08/10 07:54
KBOS 100754Z 18006KT 5SM -RA BR BKN070 OVC120 21/19 A2989 RMK AO2 TSE03 SLP121 P0003 T02060194

2010/08/10 07:55
KBTP 100755Z AUTO 00000KT 5SM CLR 21/18 A2999 RMK AO1

2010/08/10 07:53
KACK 100753Z AUTO 26005KT 6SM BR FEW060 23/21 A2992 RMK AO2 SLP133 T02280211 TSNO

2010/08/10 07:53
KAGC 100753Z 17005KT 8SM CLR 22/19 A2999 RMK AO2 SLP147 T02170189

2010/08/10 07:53
KAUG 100753Z AUTO 29004KT 10SM CLR 21/18 A2987 RMK AO2 SLP113 T02060178

2010/08/10 07:53
KBAF 100753Z 00000KT 4SM -RA BR FEW070 SCT100 22/21 A2992 RMK AO2 SLP127 P0000 T02220211

2010/08/10 07:53
KBGR 100753Z 29004KT 10SM SCT100 19/18 A2984 RMK AO2 SLP101 T01890183

2010/08/10 07:53
KBVY 100753Z AUTO 00000KT 4SM BR OVC100 22/21 A2988 RMK AO2 RAE41 SLP111 P0002 T02170211

2010/08/10 07:53
KCKB 100753Z AUTO 00000KT 1 3/4SM BR CLR 19/18 A3001 RMK AO2 SLP147 T01890183 TSNO

2010/08/10 07:53
KEWB 100753Z AUTO 00000KT 5SM BR FEW050 SCT070 22/21 A2990 RMK AO2 RAB0656E48 SLP122 P0001 T02220206

2010/08/10 07:53
KEYW 100753Z AUTO 18011KT 10SM -RA FEW008 SCT017 BKN110 27/24 A2983 RMK AO2 RAB12 SLP102 P0001 T02670244 TSNO

2010/08/10 07:53
KFPR 100753Z AUTO 13009KT 10SM FEW023 SCT050 27/24 A2990 RMK AO2 RAB36E45 SLP124 P0000 T02670239

2010/08/10 07:53
KFVE 100753Z AUTO 32005KT 4SM BR CLR 15/14 A2982 RMK AO2 SLP094 T01500139 $

2010/08/10 07:53
KGFL 100753Z AUTO 00000KT 2 1/2SM BR SCT002 OVC036 20/20 A2992 RMK AO2 SLP129 T02000200

2010/08/10 07:53
KGZH 100753Z AUTO 00000KT 3SM BR CLR 24/23 A2995 RMK AO2 SLP138 T02390233

2010/08/10 07:53
KHAO 100753Z AUTO 00000KT 6SM BR CLR 22/21 A2997 RMK AO2 SLP142 T02220206

2010/08/10 07:53
KHFD 100753Z AUTO 00000KT 7SM -RA FEW032 24/21 A2992 RMK AO2 RAB01 SLP130 P0000 T02390206

2010/08/10 07:53
KHUL 100753Z AUTO 00000KT 6SM BR CLR 14/14 A2981 RMK AO2 SLP095 T01390139

2010/08/10 07:53
KHZY 100753Z AUTO 00000KT 5SM BR BKN050 BKN090 22/21 A2996 RMK AO2 SLP135 T02220211

2010/08/10 07:53
KITR 100753Z AUTO 30003KT 10SM FEW120 18/17 A3004 RMK AO2 SLP112 T01830167

2010/08/10 07:53
KIWI 100753Z AUTO 00000KT 7SM CLR 19/18 A2987 RMK AO2 SLP113 T01940183

2010/08/10 07:53
KLEB 100753Z AUTO 00000KT 2 1/2SM BR OVC001 21/19 A2992 RMK AO2 SLP119 T02060189

2010/08/10 07:53
KLEE 100753Z AUTO 09007KT 10SM CLR 26/24 A2992 RMK AO2 SLP131 T02560239

2010/08/10 07:53
KLWV 100753Z AUTO 00000KT 3SM BR CLR 25/23 A2994 RMK AO2 SLP132 T02500233

2010/08/10 07:53
KMHT 100753Z 00000KT 1/2SM R35/P6000FT -RA FG BKN003 22/21 A2987 RMK AO2 RAB52 SLP124 P0000 T02220211

2010/08/10 07:53
KMLT 100753Z AUTO 28003KT 10SM CLR 18/17 A2985 RMK AO2 SLP110 T01830167

2010/08/10 07:53
KMMK 100753Z AUTO 00000KT 8SM FEW065 23/20 A2993 RMK AO2 SLP132 T02280200

2010/08/10 07:53
KMSS 100753Z AUTO 22004KT 10SM OVC006 22/21 A2991 RMK AO2 SLP127 T02170206

2010/08/10 07:53
KMVY 100753Z AUTO 00000KT 7SM -RA BKN055 BKN080 25/21 A2992 RMK AO2 RAB0659E07B40 SLP129 P0002 T02500211

2010/08/10 07:53
KOPF 100753Z AUTO 13006KT 10SM FEW027 BKN065 26/24 A2988 RMK AO2 SLP120 T02560244

2010/08/10 07:53
KOWD 100753Z AUTO 23003KT 3SM -RA BR SCT060 OVC090 22/20 A2990 RMK AO2 PK WND 15027/0723 SLP125 P0006 T02170200

2010/08/10 07:53
KPIE 100753Z AUTO 10010KT 10SM FEW015 26/23 A2987 RMK AO2 SLP115 T02610233

2010/08/10 07:53
KRME 100753Z AUTO 00000KT 3SM BR SCT003 BKN023 21/20 A2996 RMK AO2 SLP142 T02060200 $

2010/08/10 07:53
KUUU 100753Z AUTO 00000KT 8SM BKN070 22/21 A2992 RMK AO2 RAE16 SLP129 P0000 T02220206

2010/08/10 07:53
KVRB 100753Z AUTO 13005KT 10SM FEW028 SCT048 26/23 A2990 RMK AO2 SLP125 T02610233

2010/08/10 07:53
KWST 100753Z AUTO 00000KT 5SM BR BKN090 22/21 A2992 RMK AO2 RAB11E29 SLP131 P0000 T02220206

2010/08/10 07:53
KYIP 100753Z 00000KT 1/4SM FG BKN001 BKN027 20/19 A2996 RMK AO2 SLP138 T02000194 RVRNO

2010/08/10 07:53
KPQN 100753Z AUTO 13005KT 7SM CLR 24/23 A2989 RMK AO2 LTG DSNT SW

2010/08/10 07:54
KFGN 100754Z AUTO 00000KT 7SM CLR 24/22 A2989 RMK AO2

2010/08/10 07:53
KPNM 100753Z AUTO 00000KT 1 3/4SM BR CLR 19/19 A2994 RMK AO2 VIS 1/2V5

2010/08/10 07:53
KPWC 100753Z AUTO 00000KT 10SM CLR 18/17 A2997 RMK AO2

2010/08/10 07:53
KFFM 100753Z AUTO 12005KT 10SM CLR 23/21 A2988 RMK AO2

2010/08/10 07:52
KGDB 100752Z AUTO 06005KT 10SM CLR 23/22 A2990 RMK AO2 T02250216

2010/08/10 07:53
PANN 100753Z AUTO 08004KT 10SM CLR 13/09 A2959 RMK AO2 SLP027 T01330094 TSNO

2010/08/10 07:53
PANT 100753Z AUTO 00000KT 10SM CLR 12/11 A3003 RMK AO2 SLP168 T01220111 TSNO

2010/08/10 07:53
PAOM 100753Z 06004KT 10SM -RA FEW040 BKN050 OVC080 11/10 A2941 RMK AO2 SLP957 P0003 T01060100

2010/08/10 07:53
PAOR 100753Z 00000KT 10SM SCT065 BKN100 13/12 A2971 RMK AO2 SLP059 T01280122

2010/08/10 07:53
PAOT 100753Z AUTO 15008KT 4SM -RA BR FEW012 BKN025 OVC040 14/13 A2944 RMK AO2 SLP971 P0009 T01390128 TSNO

2010/08/10 07:53
PAPB 100753Z AUTO 25005KT 1/2SM FG VV001 08/08 A2946 RMK AO2 SLP963 T00780078 TSNO

2010/08/10 07:55
KHNB 100755Z AUTO 00000KT 7SM FEW070 24/23 A2996 RMK AO1

2010/08/10 07:54
KHWD 100754Z AUTO 00000KT 10SM OVC009 14/11 A2991 RMK AO2 SLP136 T01390111 402170139

2010/08/10 07:55
KHYI 100755Z AUTO 22005KT 10SM CLR A2993 RMK AO1

2010/08/10 07:55
KHYS 100755Z AUTO 13006KT 10SM CLR 25/17 A2987 RMK AO1

2010/08/10 07:55
KILE 100755Z AUTO 18004KT 10SM CLR 26/22 A2992 RMK AO1

2010/08/10 07:54
KILN 100754Z AUTO 00000KT 7SM BKN110 23/21 A2998 RMK AO2 SLP138 T02280211

2010/08/10 07:54
KIMT 100754Z AUTO 00000KT 8SM BKN002 18/17 A2998 RMK AO2 SLP147 T01780172

2010/08/10 07:54
KIND 100754Z 24003KT 9SM BKN120 OVC250 26/23 A2995 RMK AO2 SLP131 T02610228

2010/08/10 07:54
KINT 100754Z AUTO 23003KT 10SM CLR 26/21 A3004 RMK AO2 SLP158 T02560206

2010/08/10 07:54
KIPT 100754Z AUTO 00000KT 9SM CLR 22/19 A2994 RMK AO2 SLP132 T02220189

2010/08/10 07:54
KISW 100754Z AUTO 00000KT 1 1/4SM BR CLR 20/20 A2997 RMK AO2 SLP142 T02000200 TSNO $

2010/08/10 07:55
KIWD 100755Z AUTO 00000KT 1/2SM VV005 17/16 A2996 RMK AO1

2010/08/10 07:54
KIZG 100754Z AUTO 00000KT 8SM CLR 18/18 A2989 RMK AO2 SLP120 T01830178

2010/08/10 07:55
KJAC 100755Z 11004KT 10SM CLR 08/05 A3016 RMK AO1

2010/08/10 07:55
KJHW 100755Z AUTO 00000KT 4SM OVC055 21/19 A2999 RMK AO1

2010/08/10 07:54
KJST 100754Z AUTO 20003KT 9SM BKN110 21/16 A3004 RMK AO2 SLP155 T02110161

2010/08/10 07:55
KKLS 100755Z AUTO 30003KT 10SM OVC019 14/11 A3000 RMK AO1

2010/08/10 07:54
KLAF 100754Z AUTO 00000KT 5SM BR BKN100 26/24 A2994 RMK AO2 SLP133 T02560244

2010/08/10 07:55
KLBL 100755Z 20008KT 10SM CLR 24/17 A2998 RMK AO1

2010/08/10 07:54
KLBT 100754Z AUTO 00000KT 10SM OVC005 24/24 A3000 RMK AO2 SLP158 T02440239

2010/08/10 07:55
KLCI 100755Z AUTO 25004KT 6SM SCT120 20/18 A2989 RMK AO1

2010/08/10 07:55
KLEW 100755Z 34003KT 10SM CLR 19/17 RMK AO1

2010/08/10 07:54
KLEX 100754Z 16003KT 9SM CLR 24/21 A2999 RMK AO2 SLP143 T02440211

2010/08/10 07:55
KLGD 100755Z AUTO 30008KT 10SM BKN120 18/05 A2986 RMK AO1

2010/08/10 07:54
KLNK 100754Z 19005KT 10SM CLR 26/23 A2984 RMK AO2 SLP089 T02560228

2010/08/10 07:55
KLPC 100755Z AUTO 34004KT 10SM OVC006 13/11 A2992 RMK AO1 PNO

2010/08/10 07:54
KLWM 100754Z AUTO 21005KT 3SM BR BKN110 22/21 A2990 RMK AO2 RAE06 SLP124 P0000 T02220211 $

2010/08/10 07:54
KLWT 100754Z AUTO 12005KT 10SM OVC120 14/10 A2989 RMK AO2 SLP084 T01390100

2010/08/10 07:54
KLYH 100754Z AUTO 00000KT 5SM BR CLR 22/21 A3001 RMK AO2 SLP151 T02170211

2010/08/10 07:55
KMBL 100755Z AUTO 00000KT M1/4SM OVC001 20/19 A2997 RMK AO1

2010/08/10 07:54
KMFI 100754Z AUTO 05004KT 10SM CLR 21/19 A2997 RMK AO2 SLP141 T02110189

2010/08/10 07:54
KMGJ 100754Z AUTO 00000KT 9SM -RA FEW020 OVC095 22/19 A2993 RMK AO2 RAB31 SLP132 P0001 T02220194

2010/08/10 07:54
KMIV 100754Z AUTO 00000KT 8SM CLR 23/21 A2992 RMK AO2 SLP130 T02330211

2010/08/10 07:55
KMJX 100755Z AUTO 22005KT 10SM OVC060 24/21 A2993 RMK AO1

2010/08/10 07:54
KMKC 100754Z 22005KT 10SM CLR 29/22 A2987 RMK AO2 SLP102 T02890222

2010/08/10 07:55
KMKT 100755Z AUTO 13005KT 10SM CLR 24/22 A2991 RMK AO1

2010/08/10 07:55
KMML 100755Z AUTO 11006KT 10SM OVC043 24/23 A2988 RMK AO1

2010/08/10 07:55
KMNM 100755Z AUTO 34005KT 1 3/4SM SCT005 21/20 A2995 RMK AO1

2010/08/10 07:54
KMOT 100754Z AUTO 08005KT 10SM BKN046 21/17 A2987 RMK AO2 SLP104 T02110167

2010/08/10 07:55
KMRF 100755Z AUTO 35005KT 10SM CLR A3014 RMK AO1

2010/08/10 07:54
KMRY 100754Z AUTO 00000KT 10SM OVC003 12/10 A2994 RMK AO2 SLP149 T01170100 401720117

2010/08/10 07:55
KMSV 100755Z AUTO 31003KT 10SM FEW075 OVC090 21/18 A2999 RMK AO1

2010/08/10 07:55
KMTW 100755Z 00000KT 3SM CLR 21/20 A2995 RMK AO1

2010/08/10 07:53
KAIT 100753Z AUTO 00000KT 5SM BR CLR 17/14 A2995 RMK AO2

2010/08/10 07:53
KGHW 100753Z AUTO 09005KT 5SM BR CLR 21/19 A2996 RMK AO2

2010/08/10 07:53
KMWM 100753Z AUTO 08006KT 7SM CLR 23/22 A2990 RMK AO2

2010/08/10 07:53
KBBB 100753Z AUTO 11004KT 7SM CLR 22/21 A2994 RMK AO2

2010/08/10 07:53
KTWM 100753Z AUTO 00000KT 7SM CLR 19/16 A2995 RMK AO2

2010/08/10 07:55
KMGG 100755Z AUTO 00000KT 5SM BR CLR 19/19 A2994 RMK AO2 T01920190

2010/08/10 07:48
KMOX 100748Z AUTO 10007KT 7SM CLR 21/21 A2986 RMK AO2

2010/08/10 07:53
PAQT 100753Z AUTO 06011KT 3SM BR OVC004 03/02 A2979 RMK AO2 SLP088 T00280022 TSNO

2010/08/10 07:53
PASC 100753Z 05014KT 1 1/2SM BR OVC003 03/03 A2974 RMK AO2 SLP072 T00330028

2010/08/10 07:53
PASI 100753Z 00000KT 10SM FEW005 BKN027 OVC031 13/12 A3000 RMK AO2 RAB0655E25 SLP160 P0000 T01280122

2010/08/10 07:53
PASN 100753Z AUTO 26009KT 3/4SM BR BKN001 BKN006 OVC010 08/08 A2941 RMK AO2 SLP961 T00780078 TSNO

2010/08/10 07:53
PASO 100753Z AUTO 17004KT 10SM OVC047 13/09 A2975 RMK AO2 SLP073 T01280094 TSNO

2010/08/10 07:53
PATK 100753Z AUTO 00000KT 7SM -RA FEW010 BKN016 OVC022 12/12 A2976 RMK AO2 SLP080 P0003 T01220117 TSNO

2010/08/10 07:53
PATO 100753Z AUTO 10013G21KT 4SM -RA BR BKN035 OVC044 12/11 A2982 RMK AO2 PK WND 08026/0728 SLP098 P0001 T01220106 TSNO

2010/08/10 07:53
PAVL 100753Z AUTO 07013KT 6SM -RA BR BKN065 OVC075 12/11 A2948 RMK AO2 SLP982 P0001 T01220111 TSNO

2010/08/10 07:53
PAWD 100753Z AUTO A2983 RMK AO2 SLP103 PWINO FZRANO TSNO $

2010/08/10 07:53
PAYA 100753Z 08005KT 2 1/2SM -RA BR OVC008 13/12 A2996 RMK AO2 RAB0654 SLP146 BAY TWR WND 090MMKT P0003 T01280117

2010/08/10 07:53
PAAQ 100753Z AUTO 18003KT 10SM BKN008 OVC014 12/11 A2979 RMK AO2 CIG 006V011 SLP084 T01170106 TSNO

2010/08/10 07:53
PABE 100753Z 17016G20KT 10SM -RA BKN008 BKN019 OVC024 09/08 A2946 RMK AO2 PK WND 17026/0703 SLP978 P0001 T00940083

2010/08/10 07:53
PABI 100753Z AUTO 20012KT 10SM SCT095 16/06 A2967 RMK AO2 SLP043 T01610061 TSNO

2010/08/10 07:53
PABR 100753Z 07019KT 10SM OVC002 02/02 A2985 RMK AO2 SLP110 P0000 T00220022 $

2010/08/10 07:53
PABT 100753Z 00000KT 10SM BKN055 OVC070 12/11 A2963 RMK AO2 SLP039 T01170106

2010/08/10 07:53
PACD 100753Z AUTO 35005KT 10SM FEW042 BKN060 09/08 A2963 RMK AO2 SLP032 T00890078 TSNO

2010/08/10 07:53
PACV 100753Z 00000KT 10SM SCT010 OVC021 12/12 A2991 RMK AO2 SLP130 T01220117

2010/08/10 07:53
PADE 100753Z AUTO 00000KT 10SM -RA BKN036 BKN050 OVC065 12/11 A2944 RMK AO2 RAB10 SLP969 P0002 T01220111 TSNO

2010/08/10 07:53
PAEG 100753Z AUTO 00000KT 10SM CLR 11/07 A2963 RMK AO2 SLP035 T01060072 TSNO

2010/08/10 07:53
PAEN 100753Z AUTO 00000KT 9SM -RA OVC040 13/12 A2977 RMK AO2 RAB06E34B52 SLP082 P0001 T01280117 TSNO

2010/08/10 07:53
PAFA 100753Z 00000KT 10SM SCT090 BKN150 14/11 A2961 RMK AO2 SLP030 T01390106

2010/08/10 07:53
PAGY 100753Z AUTO 21015G21KT 10SM OVC046 14/10 A2994 RMK AO2 SLP138 T01440100 TSNO

2010/08/10 07:53
PAHO 100753Z AUTO 00000KT 10SM OVC044 12/10 A2976 RMK AO2 SLP077 T01220100 TSNO

2010/08/10 07:53
PAIL 100753Z AUTO 10012G18KT 10SM OVC033 12/09 A2967 RMK AO2 SLP047 T01220089 TSNO

2010/08/10 07:53
PAJN 100753Z 10005KT 3SM -DZ BR FEW005 BKN012 OVC030 12/12 A3000 RMK AO2 RAB09E16DZB16 SLP160 P0002 T01220117

2010/08/10 07:53
PAKT 100753Z AUTO 14003KT 10SM OVC011 13/12 A3003 RMK AO2 SLP170 T01280117 TSNO

2010/08/10 07:53
PAKV 100753Z AUTO 00000KT 10SM SCT031 BKN040 OVC090 12/11 A2956 RMK AO2 SLP013 T01170111 TSNO

2010/08/10 07:53
PAKW 100753Z AUTO 00000KT 4SM BR BKN012 OVC017 12/12 A3001 RMK AO2 SLP161 P0001 T01220117 TSNO

2010/08/10 07:53
PALH 100753Z 00000KT 10SM OVC007 13/11 A2978 RMK AO2 RAE29 CIG 006V012 SLP086 P0000 T01280106

2010/08/10 07:53
PAMC 100753Z 06005KT 10SM SCT025 BKN095 13/10 A2960 RMK AO2 SLP027 T01280100

2010/08/10 07:53
PAMR 100753Z 00000KT 10SM FEW008 BKN022 OVC050 12/11 A2977 RMK AO2 RAB0655E43 SLP081 P0000 T01220106

2010/08/10 07:53
PANC 100753Z 00000KT 10SM SCT005 BKN030 OVC060 12/11 A2977 RMK AO2 RAE30 SLP081 P0000 T01170111

2010/08/10 07:54
KBUF 100754Z 00000KT 3SM BR FEW043 BKN060 OVC075 22/20 A2995 RMK AO2 SLP136 T02170200

2010/08/10 07:54
KBUY 100754Z AUTO 00000KT 7SM CLR 24/21 A3001 RMK AO2 SLP154 T02390211

2010/08/10 07:55
KBVX 100755Z AUTO 13004KT 10SM CLR 29/24 A2993 RMK AO1

2010/08/10 07:54
KBWI 100754Z 21005KT 9SM FEW250 24/20 A2992 RMK AO2 SLP130 T02440200

2010/08/10 07:54
KCEU 100754Z AUTO 00000KT 6SM HZ SCT090 26/23 A3003 RMK AO2 SLP157 T02610233

2010/08/10 07:55
KCGZ 100755Z AUTO 27006KT 10SM FEW120 31/08 A2985 RMK AO1

2010/08/10 07:55
KCIU 100755Z AUTO 03006KT 1/2SM OVC002 20/19 A2997 RMK AO1

2010/08/10 07:55
KCOD 100755Z AUTO 19010G16KT 10SM CLR 17/06 A3000 RMK AO1

2010/08/10 07:55
KCOE 100755Z AUTO 16009KT 10SM CLR 17/08 A2982 RMK AO1

2010/08/10 07:54
KCOS 100754Z AUTO 08008KT 10SM BKN100 18/13 A3017 RMK AO2 SLP127 T01780128 TSNO

2010/08/10 07:54
KCRW 100754Z 00000KT 4SM BR FEW001 21/20 A3000 RMK AO2 SLP148 DNS VLY FG T02060200

2010/08/10 07:55
KCVN 100755Z 21006KT 10SM SCT120 19/16 A3009 RMK AO1

2010/08/10 07:55
KCVO 100755Z AUTO 28009KT 10SM CLR 13/09 A3000 RMK AO1

2010/08/10 07:55
KCWI 100755Z 06005KT 6SM SCT030 BKN039 23/22 A2995 RMK AO1

2010/08/10 07:54
KDDH 100754Z AUTO 00000KT 1 1/2SM BR BKN008 OVC044 19/19 A2995 RMK AO2 SLP135 T01940189

2010/08/10 07:54
KDEC 100754Z AUTO 06005KT 10SM BKN110 25/21 A2994 RMK AO2 LTG DSNT E SLP132 T02500211

2010/08/10 07:54
KDSM 100754Z 13012KT 10SM -TSRA SCT015 OVC080CB 23/21 A2987 RMK AO2 WSHFT 0657 SLP104 CONS LTGICCC NW-S TS NW-S MOV E P0058 T02280206

2010/08/10 07:54
KDSV 100754Z AUTO 16005KT 2 1/2SM BR FEW011 OVC050 22/21 A2996 RMK AO2 RAE54 SLP150 P0009 T02170206 $

2010/08/10 07:55
KDVL 100755Z AUTO 05004KT 10SM CLR 22/18 A2989 RMK AO1

2010/08/10 07:54
KDYL 100754Z AUTO 00000KT 10SM CLR 24/20 A2993 RMK AO2 SLP128 T02440200 TSNO

2010/08/10 07:55
KDYR 100755Z AUTO 00000KT 10SM CLR 26/23 A2995 RMK AO1

2010/08/10 07:55
KEAR 100755Z AUTO 34012G22KT 10SM FEW090 23/18 A2994 RMK AO1

2010/08/10 07:54
KECG 100754Z AUTO 23005KT 8SM CLR 23/23 A2998 RMK AO2 SLP153 T02330233

2010/08/10 07:55
KEEN 100755Z AUTO 17003KT 3SM FEW065 OVC080 20/19 A2991 RMK AO1

2010/08/10 07:55
KEGE 100755Z AUTO 00000KT 10SM OVC100 14/09 A3024 RMK AO1

2010/08/10 07:55
KEHR 100755Z AUTO 00000KT 7SM CLR 24/21 A2995 RMK AO1

2010/08/10 07:55
KENV 100755Z AUTO 00000KT 10SM CLR 18/08 A2998 RMK AO1

2010/08/10 07:55
KESC 100755Z AUTO 00000KT 3/4SM VV005 18/17 A2997 RMK AO1

2010/08/10 07:54
KEUG 100754Z 00000KT 10SM FEW040 13/10 A2999 RMK AO2 SLP156 T01280100 402330106

2010/08/10 07:55
KEUL 100755Z AUTO 18003KT 10SM CLR 19/11 A2985 RMK AO1

2010/08/10 07:54
KEVV 100754Z AUTO 00000KT 8SM CLR 25/23 A2995 RMK AO2 SLP137 T02500228

2010/08/10 07:55
KEWK 100755Z AUTO 18012G16KT 10SM SCT100 29/18 A2987 RMK AO1

2010/08/10 07:54
KEWN 100754Z AUTO 24003KT 10SM CLR 24/23 A3002 RMK AO2 SLP166 T02440233

2010/08/10 07:55
KFAM 100755Z AUTO 00000KT 10SM CLR 26/24 A2997 RMK AO1

2010/08/10 07:54
KFIG 100754Z AUTO 34003KT 8SM OVC100 19/17 A3000 RMK AO2 SLP147 T01940172

2010/08/10 07:55
KFKL 100755Z AUTO 12003KT 10SM OVC100 21/19 A3001 RMK AO1

2010/08/10 07:55
KFLP 100755Z AUTO 00000KT 7SM CLR 26/24 A2994 RMK AO1

2010/08/10 07:55
KFNL 100755Z AUTO 24003KT 10SM CLR 16/14 A3010 RMK AO1

2010/08/10 07:55
KFOD 100755Z AUTO 13005KT 10SM TS FEW013 SCT070 24/24 A2992 RMK AO1 LTG DSNT ALQDS P0024

2010/08/10 07:55
KFRM 100755Z 11006KT 9SM CLR 23/22 A2993 RMK AO1

2010/08/10 07:54
KFZY 100754Z AUTO 00000KT 2 1/2SM BR BKN012 OVC038 21/19 A2994 RMK AO2 SLP136 T02060194

2010/08/10 07:55
KGAD 100755Z AUTO 00000KT 10SM CLR 24/23 A2998 RMK AO1

2010/08/10 07:55
KGAI 100755Z 00000KT 8SM CLR 24/21 A2997 RMK AO1

2010/08/10 07:55
KGBD 100755Z AUTO 18007KT 10SM CLR 27/18 A2987 RMK AO1

2010/08/10 07:54
KGCK 100754Z 04003KT 10SM CLR 24/18 A2996 RMK AO2 SLP102 T02390178

2010/08/10 07:54
KGCN 100754Z AUTO 00000KT 10SM CLR 08/07 A3023 RMK AO2 SLP153 T00830067

2010/08/10 07:55
KGDV 100755Z AUTO 34017G24KT 10SM CLR 19/15 A2980 RMK AO1

2010/08/10 07:54
KGED 100754Z AUTO 20004KT 7SM CLR 23/22 A2996 RMK AO2 SLP143 T02330222

2010/08/10 07:55
KGPZ 100755Z AUTO 00000KT 10SM CLR 19/17 A2997 RMK AO1

2010/08/10 07:55
KGTR 100755Z 00000KT 3SM CLR 24/24 A2995 RMK AO1

2010/08/10 07:55
KGTU 100755Z 19007KT 10SM CLR 28/21 A2997 RMK AO1

2010/08/10 07:55
PAEH 100755Z AUTO 17021G31KT 3SM BKN004 OVC008 08/07 A2949 RMK AO1 T00830073

2010/08/10 07:55
KGUC 100755Z AUTO 00000KT 10SM CLR 10/01 A3035 RMK AO1

2010/08/10 07:55
KGXY 100755Z AUTO 00000KT 10SM CLR 16/14 A3009 RMK AO1

2010/08/10 07:55
KHDN 100755Z 11011KT 10SM CLR 11/07 A3021 RMK AO1

2010/08/10 07:55
KHEF 100755Z AUTO 00000KT 7SM 23/21 A2995 RMK AO1

2010/08/10 07:55
KHEZ 100755Z AUTO 10003KT 7SM CLR 24/22 A2995 RMK AO1

2010/08/10 07:54
KROC 100754Z 22003KT 2 1/2SM BR SCT060 BKN075 OVC080 21/21 A2994 RMK AO2 RAB28E43 SLP135 P0000 T02110206

2010/08/10 07:54
KRST 100754Z AUTO 12003KT 6SM BR CLR 22/22 A2996 RMK AO2 SLP134 T02220217

2010/08/10 07:55
KRUT 100755Z 00000KT 5SM BKN022 OVC031 21/19 A2994 RMK AO1

2010/08/10 07:54
KSBY 100754Z AUTO 20003KT 6SM BR CLR 23/22 A2996 RMK AO2 SLP145 T02280222 $

2010/08/10 07:55
KSDY 100755Z AUTO 32011KT 10SM CLR 21/17 A2981 RMK AO1

2010/08/10 07:54
KSET 100754Z AUTO 14003KT 5SM BR CLR 26/25 A2989 RMK AO2 SLP115 T02610250

2010/08/10 07:55
KSFM 100755Z 26003KT 8SM BKN120 21/19 A2989 RMK AO1 P0001

2010/08/10 07:55
KSFZ 100755Z 00000KT 2 1/2SM FEW047 SCT070 BKN080 21/20 A2991 RMK AO1 P0001

2010/08/10 07:55
KSGT 100755Z 22003KT CLR 28/25 A2992 RMK AO1

2010/08/10 07:55
KSGU 100755Z AUTO 00000KT 10SM CLR 24/03 A2996 RMK AO1

2010/08/10 07:54
KSJN 100754Z AUTO 16004KT 10SM CLR 17/12 A3018 RMK AO2 SLP127 T01720117 $

2010/08/10 07:55
KSKX 100755Z AUTO 00000KT 10SM CLR 14/06 A3027 RMK AO1

2010/08/10 07:55
KSLG 100755Z AUTO 00000KT 10SM CLR 24/21 A2997 RMK AO1

2010/08/10 07:55
KSMN 100755Z AUTO 27006KT 10SM VCTS FEW024 FEW060 OVC090 14/11 A3009 RMK AO1 LTG DSNT SW TSB51 P0011

2010/08/10 07:55
KSQI 100755Z AUTO 08004KT 8SM FEW050 23/22 A2994 RMK AO1

2010/08/10 07:55
KSUE 100755Z AUTO 00000KT 1 3/4SM CLR 21/20 A2995 RMK AO1

2010/08/10 07:54
KSUS 100754Z AUTO 00000KT 8SM CLR 26/24 A2989 RMK AO2 SLP111 T02610244

2010/08/10 07:54
KSYR 100754Z 00000KT 3SM BR FEW020 BKN028 OVC046 21/21 A2994 RMK AO2 SLP133 T02110206

2010/08/10 07:54
KTAD 100754Z AUTO 31007KT 10SM CLR 17/13 A3012 RMK AO2 SLP124 T01670128

2010/08/10 07:55
KTPL 100755Z 19009KT 10SM CLR 27/23 A2993 RMK AO1

2010/08/10 07:54
KTQE 100754Z AUTO 13003KT 3SM BR CLR 25/24 A2982 RMK AO2 SLP084 T02500244

2010/08/10 07:55
KTVF 100755Z AUTO 16004KT 10SM CLR 19/17 A2992 RMK AO1

2010/08/10 07:56
KUCP 100756Z AUTO 00000KT 10SM SCT046 23/19 A2998 RMK AO2 T02270188 SLP156

2010/08/10 07:54
KUIN 100754Z AUTO 19004KT 10SM CLR 27/25 A2990 RMK AO2 SLP114 T02670250

2010/08/10 07:54
KUZA 100754Z AUTO 00000KT 5SM BR FEW060 23/21 A3003 RMK AO2 SLP155 T02280211

2010/08/10 07:54
KVAY 100754Z AUTO 00000KT 8SM CLR 24/21 A2992 RMK AO2 SLP132 T02390211

2010/08/10 07:55
KVBT 100755Z AUTO 00000KT 10SM CLR 25/21 A2994 RMK AO1

2010/08/10 07:55
KVIS 100755Z AUTO 26003KT 10SM CLR 20/16 A2981 RMK AO1

2010/08/10 07:54
KVSF 100754Z AUTO 00000KT 3SM BR BKN043 BKN055 OVC065 21/20 A2993 RMK AO2 SLP132 T02060200

2010/08/10 07:54
KVTA 100754Z AUTO 00000KT 4SM BR CLR 20/19 A2997 RMK AO2 SLP140 T02000189

2010/08/10 07:54
KWLD 100754Z AUTO 16005KT 10SM FEW100 27/21 A2990 RMK AO2 SLP109 T02720211

2010/08/10 07:55
KWVL 100755Z AUTO 00000KT 10SM CLR 19/17 A2983 RMK AO1

2010/08/10 07:55
KYKN 100755Z AUTO 11004KT 4SM TS OVC003 24/23 A2984 RMK AO1 LTG DSNT W TSB25

2010/08/10 07:54
KEAU 100754Z AUTO 04004KT 2 1/2SM BR CLR 21/20 A2994 RMK AO2

2010/08/10 07:54
PTTP 100754Z 14003KT 15SM BKN018 OVC300 27/25 A2987 RMK SLP115 T02670250 

2010/08/10 07:52
KREO 100752Z AUTO 22008KT 20/M05 A2989 RMK AO2 SLP080 T02001050 403110150 PWINO TSNO

2010/08/10 07:52
KP69 100752Z AUTO 00000KT 16/15 A2987 RMK AO2 SLP094 T01560150 403060144 PWINO TSNO

2010/08/10 07:52
KSDB 100752Z AUTO 21006KT 10SM CLR 17/01 A3004 RMK AO2 SLP118 T01670011 TSNO

2010/08/10 07:52
KABI 100752Z 18006KT 10SM CLR 28/18 A2996 RMK AO2 SLP112 T02780183

2010/08/10 07:51
KCAK 100751Z 23004KT 8SM SCT070 OVC100 24/19 A2997 RMK AO2 SLP137 T02390194

2010/08/10 07:51
KVCT 100751Z AUTO 00000KT 10SM CLR 26/25 A2992 RMK AO2 SLP128 T02560250

2010/08/10 07:53
KMSY 100753Z 00000KT 9SM CLR 25/24 A2992 RMK AO2 SLP133 T02500244

2010/08/10 07:53
KRNM 100753Z AUTO 26003KT 10SM CLR 12/10 A2993 RMK AO2 SLP121 T01220100 402830056 TSNO

2010/08/10 07:53
KFAR 100753Z 15005KT 10SM CLR 24/19 A2989 RMK AO2 SLP115 T02390194

2010/08/10 07:53
KOQT 100753Z AUTO 00000KT 5SM BR SCT050 26/24 A3002 RMK AO2 SLP146 T02560239 TSNO

2010/08/10 07:53
KHTL 100753Z AUTO 31003KT 1/2SM FG BKN001 21/21 A3000 RMK AO2 SLP151 T02110211

2010/08/10 07:53
KLAX 100753Z 28003KT 10SM OVC007 16/13 A2991 RMK AO2 SLP127 T01560128 402000150 $

2010/08/10 07:53
KSDM 100753Z AUTO 00000KT 10SM OVC010 16/14 A2992 RMK AO2 SLP127 T01610139 402280117 TSNO

2010/08/10 07:53
KLXV 100753Z AUTO 00000KT 10SM CLR 05/04 A3043 RMK AO2 SLP155 T00500039 TSNO

2010/08/10 07:53
KCHA 100753Z 00000KT 10SM CLR 26/24 A3000 RMK AO2 SLP149 T02610239 $

2010/08/10 07:53
KBTR 100753Z 00000KT 8SM SCT004 BKN200 25/24 A2992 RMK AO2 SLP130 T02500244

2010/08/10 07:53
KSGR 100753Z AUTO 00000KT 10SM CLR 25/24 A2991 RMK AO2 SLP135 T02500239 TSNO

2010/08/10 07:53
K40J 100753Z AUTO 07004KT 24/23 A2991 RMK AO2 SLP127 T02440233 PWINO TSNO

2010/08/10 07:53
KDNK 100753Z AUTO 00000KT 10SM CLR 26/23 A2992 RMK AO2 SLP127 T02560228

2010/08/10 07:53
KMCN 100753Z AUTO 00000KT 7SM CLR 24/22 A2999 RMK AO2 SLP148 T02390217 TSNO

2010/08/10 07:53
KTLH 100753Z 07005KT 10SM SCT095 27/23 A2992 RMK AO2 SLP130 T02670233

2010/08/10 07:53
KTRI 100753Z 00000KT 5SM BR FEW060 SCT080 22/21 A3005 RMK AO2 SLP154 T02220206

2010/08/10 07:53
KTYS 100753Z 00000KT 9SM CLR 27/22 A3000 RMK AO2 SLP145 T02670217

2010/08/10 07:53
KMGM 100753Z 08003KT 8SM SCT070 26/23 A2994 RMK AO2 SLP136 T02610228

2010/08/10 07:53
KBNO 100753Z AUTO 26007KT 10SM FEW110 16/04 A2994 RMK AO2 SLP101 T01610039 402780100 TSNO

2010/08/10 07:53
KDAB 100753Z 10003KT 10SM FEW020 27/24 A2993 RMK AO2 SLP136 T02670239

2010/08/10 07:53
KP92 100753Z AUTO 00000KT 25/24 A2991 RMK AO2 SLP129 T02500244 PWINO TSNO

2010/08/10 07:53
KOVE 100753Z AUTO 17005KT 10SM CLR 22/12 A2984 RMK AO2 SLP105 T02170117 403220150 TSNO $

2010/08/10 07:53
KELY 100753Z AUTO 20010KT 10SM CLR 16/M05 A3013 RMK AO2 SLP104 T01561050 402780100

2010/08/10 07:53
KTUP 100753Z AUTO 17004KT 8SM CLR 26/24 A2995 RMK AO2 SLP136 T02560239

2010/08/10 07:53
KCQC 100753Z AUTO 05007KT 10SM CLR 16/12 A3025 RMK AO2 SLP135 T01610122 TSNO

2010/08/10 07:53
KSAV 100753Z 00000KT 10SM FEW023 26/24 A2999 RMK AO2 SLP153 T02560239 $

2010/08/10 07:54
PGUM 100754Z 09005KT 10SM TS SCT040CB 28/24 A2990 RMK AO2 TSB47 SLP118 TS DSNT W MOV NW CB SW-W MOV W T02830239

2010/08/10 07:53
KLND 100753Z AUTO 24010KT 10SM CLR 18/03 A3005 RMK AO2 SLP101 T01780033

2010/08/10 07:53
KMSN 100753Z 00000KT 1SM BR FEW001 SCT008 22/21 A2993 RMK AO2 SLP130 T02170211

2010/08/10 07:53
KGNT 100753Z AUTO 33003KT 13/11 A3025 RMK AO2 SLP152 T01330106 PWINO TSNO

2010/08/10 07:52
KCZZ 100752Z AUTO 03004KT 11/05 A2994 RMK AO2 SLP107 T01060050 402940039 PWINO TSNO

2010/08/10 07:53
KCUT 100753Z AUTO 22004KT 10SM FEW095 17/13 A3003 RMK AO2 SLP095 T01670133 TSNO

2010/08/10 07:53
KRQE 100753Z AUTO 00000KT 10SM SCT075 12/10 A3026 RMK AO2 SLP139 T01170100 TSNO

2010/08/10 07:50
EGTC 100750Z 23011KT 9999 SCT044 13/11 Q1010

2010/08/10 07:50
PKMR 100750Z 06013KT 12SM -RA FEW015 SCT050 BKN120 OVC140 26/24 A2985 RMK RAB47 SLP110 T02630240 

2010/08/10 07:50
EGBJ 100750Z 21007KT 180V250 9999 FEW014 15/13 Q1010

2010/08/10 07:50
EGCN 100750Z 22010KT 9999 FEW015 15/12 Q1008

2010/08/10 07:50
EGSC 100750Z 25007KT 210V280 9999 FEW007 SCT046 14/12 Q1010

2010/08/10 07:50
EGSH 100750Z 24008KT 6000 RA SCT008 BKN029 17/15 Q1009

2010/08/10 07:50
LOWW 100750Z 36003KT 290V050 9999 FEW060 21/16 Q1019 NOSIG

2010/08/10 07:50
LOWL 100750Z VRB02KT 9999 FEW030 19/15 Q1019 NOSIG

2010/08/10 07:50
LOWS 100750Z 15007KT 9999 FEW060 21/12 Q1018 NOSIG

2010/08/10 07:50
LOWI 100750Z 29004KT 250V320 9999 FEW065 19/14 Q1019 NOSIG

2010/08/10 07:50
LOWG 100750Z VRB02KT 9999 FEW030 21/16 Q1019 NOSIG

2010/08/10 07:50
LOWK 100750Z VRB02KT 9999 FEW008 BKN039 19/15 Q1020 NOSIG

2010/08/10 07:50
LOXZ 100750Z VRB03KT 30KM FEW018CU SCT270CI 18/14 Q1020 NOSIG RMK SCT

2010/08/10 07:50
ENBS 100750Z 20005KT 9999 FEW020 BKN035 11/06 Q1013

2010/08/10 07:50
ENHV 100750Z 21005KT 160V250 9999 FEW016 12/08 Q1012

2010/08/10 07:50
ENNK 100750Z 23003KT 9999 SCT050 13/11 Q1010 

2010/08/10 07:50
ENNM 100750Z 26003KT 5000 BKN002 12/11 Q1011

2010/08/10 07:54
KBTV 100754Z 00000KT 1SM BR VV004 18/18 A2991 RMK AO2 SLP128 T01780178 RVRNO

2010/08/10 07:53
KTCS 100753Z AUTO 30009KT 10SM CLR 23/11 A3007 RMK AO2 SLP088 T02330111 TSNO

2010/08/10 07:53
KRTN 100753Z AUTO 36004KT 10SM CLR 14/13 A3020 RMK AO2 SLP127 T01440128 TSNO

2010/08/10 07:53
KPQN 100753Z AUTO 13005KT 7SM CLR 24/23 A2989 RMK AO2 LTG DSNT SW

2010/08/10 07:54
KFGN 100754Z AUTO 00000KT 7SM CLR 24/22 A2989 RMK AO2

2010/08/10 07:53
KPNM 100753Z AUTO 00000KT 1 3/4SM BR CLR 19/19 A2994 RMK AO2 VIS 1/2V5

2010/08/10 07:53
KPWC 100753Z AUTO 00000KT 10SM CLR 18/17 A2997 RMK AO2

2010/08/10 07:53
KFFM 100753Z AUTO 12005KT 10SM CLR 23/21 A2988 RMK AO2

2010/08/10 07:52
KGDB 100752Z AUTO 06005KT 10SM CLR 23/22 A2990 RMK AO2 T02250216

2010/08/10 07:53
KAIT 100753Z AUTO 00000KT 5SM BR CLR 17/14 A2995 RMK AO2

2010/08/10 07:53
KGHW 100753Z AUTO 09005KT 5SM BR CLR 21/19 A2996 RMK AO2

2010/08/10 07:53
KMWM 100753Z AUTO 08006KT 7SM CLR 23/22 A2990 RMK AO2

2010/08/10 07:53
KBBB 100753Z AUTO 11004KT 7SM CLR 22/21 A2994 RMK AO2

2010/08/10 07:53
KTWM 100753Z AUTO 00000KT 7SM CLR 19/16 A2995 RMK AO2

2010/08/10 07:55
KMGG 100755Z AUTO 00000KT 5SM BR CLR 19/19 A2994 RMK AO2 T01920190

2010/08/10 07:48
KMOX 100748Z AUTO 10007KT 7SM CLR 21/21 A2986 RMK AO2

2010/08/10 07:54
KJAN 100754Z 00000KT 9SM CLR 24/23 A2996 RMK AO2 SLP138 T02390228

2010/08/10 07:54
KAVP 100754Z 00000KT 10SM BKN110 23/19 A2996 RMK AO2 SLP131 T02280189 $

2010/08/10 07:54
KCAR 100754Z AUTO 00000KT 7SM CLR 15/14 A2981 RMK AO2 SLP095 T01500144

2010/08/10 07:54
K12N 100754Z AUTO 00000KT 23/21 A2996 RMK AO2 SLP133 T02280211 PWINO TSNO

2010/08/10 07:54
KRIC 100754Z 22004KT 9SM FEW060 24/21 A2997 RMK AO2 SLP151 T02440211 $

2010/08/10 07:54
KFWA 100754Z 00000KT 3/4SM BR CLR 23/22 A2997 RMK AO2 SLP141 R32/2600FT VIS S-W 1/4 T02280222

2010/08/10 07:54
KMQE 100754Z AUTO 20003KT 21/21 A2991 RMK AO1 SLP135 P0005 T02110211

2010/08/10 07:54
K1V4 100754Z AUTO 18/18 A2992 RMK AO2 SLP120 T01780178 PWINO TSNO

2010/08/10 07:54
KCOU 100754Z AUTO 17004KT 9SM CLR 26/25 A2991 RMK AO2 SLP119 T02610250 TSNO $

2010/08/10 07:54
KROA 100754Z 29003KT 8SM CLR 23/21 A3003 RMK AO2 SLP155 T02330206

2010/08/10 07:53
KCTY 100753Z AUTO 10003KT 24/24 A2992 RMK AO2 SLP130 T02440239 PWINO TSNO

2010/08/10 07:55
PAEH 100755Z AUTO 17021G31KT 3SM BKN004 OVC008 08/07 A2949 RMK AO1 T00830073

2010/08/10 07:50
LCRA 100750Z 19005KT 7000 HZ SCT017 30/24 Q1006 BECMG 9999 NSW FEW020 

2010/08/10 07:50
ENAN 100750Z 02011KT 9999 8000W SCT005 BKN007 11/10 Q1011 NOSIG

2010/08/10 07:50
ENBR 100750Z 14004KT 110V190 CAVOK 18/10 Q1009 

2010/08/10 07:50
ENBO 100750Z 25006KT 200V280 9999 FEW002 BKN050 13/12 Q1010 TEMPO 4000 BR SCT003 BKN008 

2010/08/10 07:50
ENDU 100750Z VRB01KT 9999 FEW045 SCT060 14/10 Q1010

2010/08/10 07:50
ENOL 100750Z 01003KT 9999 FEW002 BKN005 13/12 Q1011 BECMG BKN010

2010/08/10 07:50
ENVA 100750Z VRB02KT 9999 FEW005 SCT008 BKN012 15/12 Q1011 TEMPO BKN015 

2010/08/10 07:50
ENZV 100750Z 15010KT 9999 FEW045 BKN065 17/12 Q1009 NOSIG

2010/08/10 07:50
ENNO 100750Z 00000KT 7000 BKN008 16/14 Q1010

2010/08/10 07:50
ENOV 100750Z 00000KT 9999 FEW008 SCT012 BKN020 15/13 Q1010 

2010/08/10 07:50
ENSG 100750Z 00000KT 9999 VCFG FEW/// SCT003 SCT015 14/13 Q1010

2010/08/10 07:50
ENSN 100750Z 20006KT 9000 SCT003 BKN015 16/12 Q1010

2010/08/10 07:50
ENSR 100750Z 35004KT 9999 FEW010 SCT060 13/10 Q1011

2010/08/10 07:55
EKVG 100755Z 03006KT 9999 FEW010 SCT060 14/12 Q1008 RMK/RWY 13-31 CLOSED DUE WIP NOTAM E0050/10 WIND 850FT 07006KT

2010/08/10 08:00
MDST 100800Z 06004KT 9999 FEW016 24/24 Q1012

2010/08/10 08:00
MDSD 100800Z VRB03KT 9999 -TS FEW016CB FEW018 24/22 Q1012 CB/NE/E/SE/N

2010/08/10 07:55
PTKR 100755Z 17013KT 15SM FEW018 SCT120 OVC300 29/24 A2982 RMK SLP099 T02940237

2010/08/10 07:50
EBAW 100750Z 23006KT 200V260 CAVOK 19/13 Q1014 NOSIG

2010/08/10 07:50
EBBR 100750Z 20005KT 180V240 CAVOK 18/12 Q1014 NOSIG

2010/08/10 07:50
EBCI 100750Z 21006KT 180V250 CAVOK 19/11 Q1015 NOSIG

2010/08/10 07:50
EBLG 100750Z 18005KT CAVOK 20/13 Q1015 NOSIG

2010/08/10 07:50
ELLX 100750Z 14005KT 110V190 CAVOK 20/12 Q1016 NOSIG

2010/08/10 08:00
OPST 100800Z 18004KT 4000 FU FEW035 TCU SCT040 BKN100 34/24 Q1003 RH56

2010/08/10 07:50
ENEK 100750Z 19008KT 9999 FEW005 FEW010TCU BKN060 16/15 Q1006 W16/S3

2010/08/10 07:50
ENGC 100750Z 10019KT 9999 FEW025 BKN045 14/12 Q1008

2010/08/10 07:50
ENHE 100750Z 04010KT 9999 OVC016 10/08 Q1012

2010/08/10 07:50
ENOA 100750Z 12024KT 4000N -RA SCT013 BKN050 14/12 Q1007

2010/08/10 07:50
LIEA 100750Z 00000KT CAVOK 29/17 Q1016

2010/08/10 07:45
LIEE 100745Z 29004KT CAVOK 26/11 Q1015 NOSIG

2010/08/10 07:50
LIEO 100750Z 05005KT CAVOK 25/15 Q1016

2010/08/10 07:50
LIMC 100750Z VRB03KT 9999 BKN070 24/18 Q1017 NOSIG

2010/08/10 07:50
LIME 100750Z 35004KT 310V010 9999 SCT070 23/17 Q1017

2010/08/10 07:50
LIMF 100750Z 07003KT 9999 SCT070 23/18 1016

2010/08/10 07:50
LIMJ 100750Z VRB02KT 9999 FEW020 25/21 Q1016

2010/08/10 07:50
LIML 100750Z VRB02KT 9999 SCT030 23/18 Q1016 NOSIG

2010/08/10 07:45
LIRA 100745Z 29002KT CAVOK 26/16 Q1015

2010/08/10 07:50
LIRF 100750Z VRB03KT CAVOK 28/16 Q1015 NOSIG

2010/08/10 07:50
LIRN 100750Z VRB02KT 9999 SCT070 24/19 Q1015

2010/08/10 07:45
LIRP 100745Z 13001KT CAVOK 22/20 Q1016 NOSIG

2010/08/10 07:50
LIRQ 100750Z VRB02KT 8000 FEW025 24/19 Q1016

2010/08/10 07:50
ENAT 100750Z 15010KT 9999 FEW030 BKN050 16/09 Q1011 

2010/08/10 07:50
ENEV 100750Z 36006KT 310V030 9999 FEW008 SCT040 13/10 Q1011 

2010/08/10 07:50
ENFL 100750Z 00000KT 9999 FEW013 BKN044 15/13 Q1010

2010/08/10 07:50
ENKB 100750Z 00000KT 9999 -RA FEW008 SCT016 BKN090 14/13 Q1010

2010/08/10 07:50
ENKR 100750Z 02005KT 350V060 9999 BKN006 09/08 Q1013 

2010/08/10 07:50
ENML 100750Z 09003KT 9999 FEW010 BKN035 16/13 Q1010

2010/08/10 07:50
ENNA 100750Z 18007KT 9999 FEW015 BKN050 15/10 Q1012 

2010/08/10 07:53
PTRO 100753Z 17005KT 15SM SCT016TCU BKN120 BKN300 29/24 A2985 RMK TCU VC ALQDS

2010/08/10 07:52
PTYA 100752Z 18008KT 12SM FEW016 FEW140 BKN300 31/24 A2984 RMK SLP107 T03120242

2010/08/10 07:51
PTKK 100751Z VRB05KT 15SM FEW014 SCT120 OVC280 28/24 A2984 RMK SLP108 T02800238

2010/08/10 07:54
PGUM 100754Z 09005KT 10SM TS SCT040CB 28/24 A2990 RMK AO2 TSB47 SLP118 TS DSNT W MOV NW CB SW-W MOV W T02830239

2010/08/10 07:54
PGSN 100754Z 06008KT 10SM SCT019 28/24 A2991 RMK AO2 SLP126 T02830244

2010/08/10 07:50
PKMR 100750Z 06013KT 12SM -RA FEW015 SCT050 BKN120 OVC140 26/24 A2985 RMK RAB47 SLP110 T02630240

2010/08/10 07:54
PTTP 100754Z 14003KT 15SM BKN018 OVC300 27/25 A2987 RMK SLP115 T02670250

2010/08/10 07:50
ENMS 100750Z 01004KT 9999 SCT045 17/13 Q1010 

2010/08/10 07:50
ENRM 100750Z VRB02KT 4500 BR SCT002 BKN003 12/11 Q1011

2010/08/10 07:50
ENSK 100750Z 26003KT 9999 SCT008 BKN010 12/10 Q1011

2010/08/10 07:50
ENSO 100750Z 12009KT 090V150 9999 FEW035 BKN055 16/10 Q1009

2010/08/10 07:50
ENST 100750Z 24003KT 200V300 6000 2000NE BR BKN002 12/12 Q1011

2010/08/10 07:53
PHJR 100753Z AUTO 07004KT 10SM CLR 25/17 A3011 RMK AO2 SLP202 T02500172 TSNO

2010/08/10 07:52
PATA 100752Z AUTO 03005KT 10SM OVC080 14/12 A2961 RMK AO2 SLP029 T01390122 TSNO

2010/08/10 07:53
PHJR 100753Z AUTO 07004KT 10SM CLR 25/17 A3011 RMK AO2 SLP202 T02500172 TSNO

2010/08/10 07:53
KCEW 100753Z AUTO 00000KT 3SM BR CLR 23/23 A2993 RMK AO2 SLP130 T02330228

2010/08/10 07:53
KCEZ 100753Z AUTO 00000KT 10SM SCT100 BKN120 12/09 A3019 RMK AO2 SLP150 T01220089

2010/08/10 07:53
KCGI 100753Z AUTO 00000KT 5SM BR CLR 26/24 A2994 RMK AO2 SLP133 T02560244 TSNO

2010/08/10 07:53
KCHO 100753Z AUTO 00000KT 7SM CLR 24/21 A2996 RMK AO2 SLP137 T02440211 TSNO

2010/08/10 07:55
KCKI 100755Z AUTO 00000KT 10SM CLR 23/23 A3000 RMK AO2

2010/08/10 07:53
KCLM 100753Z AUTO 27004KT 10SM OVC007 12/11 A2997 RMK AO2 SLP147 T01170106 401670094

2010/08/10 07:53
KCMI 100753Z AUTO 00000KT 7SM CLR 26/24 A2995 RMK AO2 LTG DSNT N AND S SLP135 T02610239

2010/08/10 07:53
KCMX 100753Z AUTO 00000KT 10SM CLR 17/17 A2996 RMK AO2 SLP142 T01720172 $

2010/08/10 07:53
KCNM 100753Z AUTO 16005KT 10SM CLR 21/16 A3000 RMK AO2 SLP100 T02060156

2010/08/10 07:53
KCNO 100753Z AUTO 00000KT 7SM CLR 16/13 A2992 RMK AO2 SLP125 T01560128 403060111

2010/08/10 07:53
KCPR 100753Z AUTO 18006KT 10SM CLR 17/02 A3004 RMK AO2 SLP099 T01670022

2010/08/10 07:53
KCPS 100753Z AUTO 17004KT 7SM CLR 26/24 A2991 RMK AO2 SLP123 T02560244

2010/08/10 07:53
KCRE 100753Z AUTO 22006KT 10SM BKN021 BKN060 28/25 A3001 RMK AO2 SLP162 T02830250

2010/08/10 07:53
KCRG 100753Z AUTO 14003KT 10SM CLR 26/23 A2995 RMK AO2 SLP140 T02610233

2010/08/10 07:53
KCRS 100753Z AUTO 20005KT 10SM CLR 28/23 A2990 RMK AO2 SLP117 T02780228

2010/08/10 07:53
KCSM 100753Z AUTO 17008KT 10SM CLR 25/20 A2995 RMK AO2 SLP110 T02500200

2010/08/10 07:53
KCSV 100753Z AUTO 00000KT 8SM CLR 24/20 A3007 RMK AO2 SLP156 T02390200

2010/08/10 07:53
KCUB 100753Z AUTO 00000KT 10SM CLR 25/23 A3001 RMK AO2 SLP160 T02500228

2010/08/10 07:53
KCYS 100753Z AUTO 24008KT 10SM CLR 13/11 A3013 RMK AO2 SLP119 T01330111 TSNO

2010/08/10 07:51
KDAG 100751Z AUTO 25011KT 10SM CLR 24/01 A2986 RMK AO2 SLP084 T02440006 403780189 TSNO

2010/08/10 07:53
KDAN 100753Z AUTO 21003KT 5SM BR CLR 23/21 A3001 RMK AO2 SLP148 T02330211

2010/08/10 07:53
KDCU 100753Z AUTO 00000KT 4SM BR CLR 24/22 A2998 RMK AO2 SLP142 T02440222

2010/08/10 07:53
KDEN 100753Z 23006KT 10SM SCT140 BKN200 17/13 A3011 RMK AO2 SLP113 T01670133

2010/08/10 07:53
KDEQ 100753Z AUTO 00000KT 5SM BR CLR 24/23 A2990 RMK AO2 SLP116 T02440233

2010/08/10 07:53
KDET 100753Z 00000KT 8SM CLR 22/21 A2995 RMK AO2 SLP139 T02170206

2010/08/10 07:53
KDEW 100753Z AUTO 00000KT 10SM CLR 13/06 A2980 RMK AO2 SLP079 T01330061 402780078

2010/08/10 07:53
KDFI 100753Z AUTO 00000KT 1SM BR VV001 22/21 A2996 RMK AO2 SLP140 T02170211

2010/08/10 07:53
KBGM 100753Z AUTO 30003KT 3SM -RA BR FEW001 OVC070 20/19 A3001 RMK AO2 RAB04 SLP148 P0007 T02000194

2010/08/10 07:53
KBHK 100753Z AUTO 26011G18KT 10SM CLR 19/16 A2985 RMK AO2 SLP079 T01940156

2010/08/10 07:53
KBHM 100753Z 00000KT 8SM CLR 26/23 A2998 RMK AO2 SLP143 T02610228

2010/08/10 07:53
KBIV 100753Z AUTO 00000KT M1/4SM FG FEW001 OVC008 21/19 A2996 RMK AO2 SLP142 T02060189

2010/08/10 07:53
KBKE 100753Z AUTO 00000KT 10SM BKN100 13/09 A2992 RMK AO2 SLP109 T01330089 402780083

2010/08/10 07:53
KBKL 100753Z 23007KT 7SM CLR 26/21 A2993 RMK AO2 SLP129 T02560206

2010/08/10 07:53
KBKV 100753Z AUTO 10007KT 10SM CLR 24/23 A2990 RMK AO2 SLP124 T02440228

2010/08/10 07:53
KBLI 100753Z AUTO 17005KT 10SM BKN065 OVC095 14/12 A2994 RMK AO2 SLP145 T01440122 401610139

2010/08/10 07:53
KBMG 100753Z 00000KT 1 3/4SM BR SCT110 22/21 A2996 RMK AO2 SLP136 T02220211

2010/08/10 07:53
KBNA 100753Z 18003KT 9SM FEW110 SCT200 26/24 A2997 RMK AO2 SLP141 T02560239

2010/08/10 07:53
KBOI 100753Z 13011KT 10SM TS CLR 20/13 A2983 RMK AO2 RAB09E23 SLP073 P0002 T02000128

2010/08/10 07:55
KBOW 100755Z AUTO 07006KT 10SM FEW016 24/24 A2991 RMK AO2

2010/08/10 07:53
KBPI 100753Z AUTO 28003KT 10SM CLR 06/03 A3020 RMK AO2 SLP138 T00610028 TSNO

2010/08/10 07:53
PHKO 100753Z 08007KT 10SM CLR 25/16 A3005 RMK AO2 SLP177 T02500156

2010/08/10 07:53
PHTO 100753Z 06004KT 10SM SCT030 BKN050 OVC060 24/18 A3012 RMK AO2 SLP196 T02390183

2010/08/10 07:54
PHOG 100754Z 04010KT 10SM FEW055 25/18 A3011 RMK AO2 SLP199 T02500178 $

2010/08/10 07:53
PAQT 100753Z AUTO 06011KT 3SM BR OVC004 03/02 A2979 RMK AO2 SLP088 T00280022 TSNO

2010/08/10 07:53
PASN 100753Z AUTO 26009KT 3/4SM BR BKN001 BKN006 OVC010 08/08 A2941 RMK AO2 SLP961 T00780078 TSNO

2010/08/10 07:53
PATK 100753Z AUTO 00000KT 7SM -RA FEW010 BKN016 OVC022 12/12 A2976 RMK AO2 SLP080 P0003 T01220117 TSNO

2010/08/10 07:53
PAYA 100753Z 08005KT 2 1/2SM -RA BR OVC008 13/12 A2996 RMK AO2 RAB0654 SLP146 BAY TWR WND 090MMKT P0003 T01280117

2010/08/10 07:53
PABE 100753Z 17016G20KT 10SM -RA BKN008 BKN019 OVC024 09/08 A2946 RMK AO2 PK WND 17026/0703 SLP978 P0001 T00940083

2010/08/10 07:53
PABT 100753Z 00000KT 10SM BKN055 OVC070 12/11 A2963 RMK AO2 SLP039 T01170106

2010/08/10 07:53
PACD 100753Z AUTO 35005KT 10SM FEW042 BKN060 09/08 A2963 RMK AO2 SLP032 T00890078 TSNO

2010/08/10 07:53
PAFA 100753Z 00000KT 10SM SCT090 BKN150 14/11 A2961 RMK AO2 SLP030 T01390106

2010/08/10 07:53
PAHO 100753Z AUTO 00000KT 10SM OVC044 12/10 A2976 RMK AO2 SLP077 T01220100 TSNO

2010/08/10 07:53
PAJN 100753Z 10005KT 3SM -DZ BR FEW005 BKN012 OVC030 12/12 A3000 RMK AO2 RAB09E16DZB16 SLP160 P0002 T01220117

2010/08/10 07:53
PAMC 100753Z 06005KT 10SM SCT025 BKN095 13/10 A2960 RMK AO2 SLP027 T01280100

2010/08/10 07:53
PANC 100753Z 00000KT 10SM SCT005 BKN030 OVC060 12/11 A2977 RMK AO2 RAE30 SLP081 P0000 T01170111

2010/08/10 07:53
PANN 100753Z AUTO 08004KT 10SM CLR 13/09 A2959 RMK AO2 SLP027 T01330094 TSNO

2010/08/10 07:53
PANT 100753Z AUTO 00000KT 10SM CLR 12/11 A3003 RMK AO2 SLP168 T01220111 TSNO

2010/08/10 07:53
PAOM 100753Z 06004KT 10SM -RA FEW040 BKN050 OVC080 11/10 A2941 RMK AO2 SLP957 P0003 T01060100

2010/08/10 07:53
PAOR 100753Z 00000KT 10SM SCT065 BKN100 13/12 A2971 RMK AO2 SLP059 T01280122

2010/08/10 07:53
PAOT 100753Z AUTO 15008KT 4SM -RA BR FEW012 BKN025 OVC040 14/13 A2944 RMK AO2 SLP971 P0009 T01390128 TSNO

2010/08/10 07:54
KAVP 100754Z 00000KT 10SM BKN110 23/19 A2996 RMK AO2 SLP131 T02280189 $

2010/08/10 07:54
KCAR 100754Z AUTO 00000KT 7SM CLR 15/14 A2981 RMK AO2 SLP095 T01500144

2010/08/10 07:54
KRIC 100754Z 22004KT 9SM FEW060 24/21 A2997 RMK AO2 SLP151 T02440211 $

2010/08/10 07:54
K12N 100754Z AUTO 00000KT 23/21 A2996 RMK AO2 SLP133 T02280211 PWINO TSNO

2010/08/10 07:54
KFWA 100754Z 00000KT 3/4SM BR CLR 23/22 A2997 RMK AO2 SLP141 R32/2600FT VIS S-W 1/4 T02280222

2010/08/10 07:54
KMQE 100754Z AUTO 20003KT 21/21 A2991 RMK AO1 SLP135 P0005 T02110211

2010/08/10 07:54
K1V4 100754Z AUTO 18/18 A2992 RMK AO2 SLP120 T01780178 PWINO TSNO

2010/08/10 07:54
KCOU 100754Z AUTO 17004KT 9SM CLR 26/25 A2991 RMK AO2 SLP119 T02610250 TSNO $

2010/08/10 07:54
KROA 100754Z 29003KT 8SM CLR 23/21 A3003 RMK AO2 SLP155 T02330206

2010/08/10 07:53
KCTY 100753Z AUTO 10003KT 24/24 A2992 RMK AO2 SLP130 T02440239 PWINO TSNO

2010/08/10 07:54
KLEX 100754Z 16003KT 9SM CLR 24/21 A2999 RMK AO2 SLP143 T02440211

2010/08/10 07:54
KLYH 100754Z AUTO 00000KT 5SM BR CLR 22/21 A3001 RMK AO2 SLP151 T02170211

2010/08/10 07:54
KORH 100754Z AUTO 28005KT 9SM SCT050 BKN100 OVC120 21/20 A2993 RMK AO2 RAB04E52 SLP129 P0000 T02060200

2010/08/10 07:54
KBUF 100754Z 00000KT 3SM BR FEW043 BKN060 OVC075 22/20 A2995 RMK AO2 SLP136 T02170200

2010/08/10 07:54
KCOS 100754Z AUTO 08008KT 10SM BKN100 18/13 A3017 RMK AO2 SLP127 T01780128 TSNO

2010/08/10 07:54
KCRW 100754Z 00000KT 4SM BR FEW001 21/20 A3000 RMK AO2 SLP148 DNS VLY FG T02060200

2010/08/10 07:54
KDSM 100754Z 13012KT 10SM -TSRA SCT015 OVC080CB 23/21 A2987 RMK AO2 WSHFT 0657 SLP104 CONS LTGICCC NW-S TS NW-S MOV E P0058 T02280206

2010/08/10 07:55
KDVL 100755Z AUTO 05004KT 10SM CLR 22/18 A2989 RMK AO1

2010/08/10 07:55
KEAR 100755Z AUTO 34012G22KT 10SM FEW090 23/18 A2994 RMK AO1

2010/08/10 07:55
KGPZ 100755Z AUTO 00000KT 10SM CLR 19/17 A2997 RMK AO1

2010/08/10 08:00
HAAB 100800Z 19006KT 8000 BR SCT004 BKN020 OVC070 16/13 Q1027

2010/08/10 07:53
KHYR 100753Z AUTO 00000KT 8SM CLR 17/17 A2999 RMK AO2 SLP149 P0002 T01720167

2010/08/10 07:53
KICR 100753Z AUTO 24007KT 6SM -RA BR BKN007 OVC013 25/23 A2990 RMK AO2 RAB33 PRESRR SLP104 P0001 T02500228 TSNO

2010/08/10 07:53
KICT 100753Z 16008KT 10SM SCT100 28/21 A2989 RMK AO2 SLP102 T02780211

2010/08/10 07:53
KIDA 100753Z AUTO 00000KT 10SM CLR 13/10 A3003 RMK AO2 SLP136 T01330100

2010/08/10 07:53
KILM 100753Z AUTO 19003KT 10SM CLR 25/23 A3001 RMK AO2 SLP161 T02500233

2010/08/10 07:53
KIML 100753Z AUTO 14006KT 6SM TSRA BR BKN045 BKN060 OVC100 19/17 A2999 RMK AO2 LTG DSNT E TSB18RAB40 SLP119 P0004 T01940172

2010/08/10 07:53
KIPL 100753Z AUTO 00000KT 10SM CLR 28/02 A2973 RMK AO2 SLP068 T02780017 403940194

2010/08/10 07:53
KIXD 100753Z AUTO 17005KT 10SM CLR 26/22 A2990 RMK AO2 SLP109 T02610222

2010/08/10 07:51
KJCT 100751Z AUTO 18004KT 10SM CLR 27/22 A2997 RMK AO2 SLP108 T02720217 TSNO

2010/08/10 07:53
KJEF 100753Z AUTO 12004KT 8SM CLR 27/26 A2990 RMK AO2 SLP108 T02720256

2010/08/10 07:53
KJER 100753Z AUTO 04014KT 10SM CLR 16/12 A2994 RMK AO2 SLP102 T01560117 $

2010/08/10 07:53
KJKL 100753Z AUTO 00000KT 8SM FEW060 24/21 A3002 RMK AO2 SLP148 T02390206

2010/08/10 07:55
KJZI 100755Z AUTO 19003KT 10SM FEW025 27/27 A3000 RMK A02 P000

2010/08/10 07:53
KLAA 100753Z AUTO 00000KT 10SM CLR 21/18 A3000 RMK AO2 SLP103 T02060178

2010/08/10 07:53
KLAR 100753Z AUTO 20007KT 10SM CLR 10/07 A3021 RMK AO2 SLP125 T01000072

2010/08/10 07:53
KLAW 100753Z AUTO 13004KT 10SM BKN080 28/20 A2991 RMK AO2 SLP112 T02830200

2010/08/10 07:53
KMSY 100753Z 00000KT 9SM CLR 25/24 A2992 RMK AO2 SLP133 T02500244

2010/08/10 07:53
KRWL 100753Z AUTO 27004KT 10SM CLR 12/04 A3019 RMK AO2 SLP141 T01170039

2010/08/10 07:53
KRXE 100753Z AUTO 00000KT 10SM CLR 12/10 A3005 RMK AO2 SLP138 T01170100

2010/08/10 07:53
KSAC 100753Z 16005KT 10SM CLR 16/12 A2984 RMK AO2 SLP103 T01560117 403000128

2010/08/10 07:53
KSAF 100753Z AUTO 03005KT 10SM CLR 15/09 A3020 RMK AO2 SLP120 T01500094

2010/08/10 07:53
KSBA 100753Z AUTO 12005KT 7SM SCT003 14/13 A2989 RMK AO2 SLP120 T01440133 402000106

2010/08/10 07:53
KSBM 100753Z AUTO 00000KT 5SM BR CLR 21/21 A2995 RMK AO2 SLP136 T02110206

2010/08/10 07:53
KSDL 100753Z 00000KT 10SM CLR 32/12 A2985 RMK AO2 SLP076 T03170117

2010/08/10 07:53
KSEG 100753Z AUTO 00000KT 7SM CLR 22/20 A2994 RMK AO2 SLP133 T02220200

2010/08/10 07:49
KSEZ 100749Z AUTO 04008KT 10SM SCT100 21/09 A3011 RMK AO2 T02080089

2010/08/10 07:53
KSFF 100753Z AUTO 05003KT 10SM CLR 18/04 A2980 RMK AO2 SLP076 T01780044 402890133

2010/08/10 07:53
KSHN 100753Z AUTO 22012KT 6SM BR OVC007 12/11 A2995 RMK AO2 CIG 005V011 SLP142 T01220111 401890122

2010/08/10 07:53
KSHR 100753Z AUTO 22005KT 10SM CLR 14/11 A2994 RMK AO2 SLP101 T01390111

2010/08/10 07:53
KSIY 100753Z AUTO 35010KT 10SM 19/08 A2995 RMK AO2 SLP126 T01890078 403220128 $

2010/08/10 07:53
KSJC 100753Z AUTO 00000KT 10SM OVC012 15/12 A2991 RMK AO2 SLP127 T01500122 402500139

2010/08/10 07:53
KSLC 100753Z 15006KT 10SM CLR 18/04 A2999 RMK AO2 SLP099 T01830044

2010/08/10 07:53
KSLN 100753Z 17009KT 10SM CLR 29/21 A2985 RMK AO2 SLP089 T02890206

2010/08/10 07:53
KSMF 100753Z 16009KT 10SM CLR 16/12 A2982 RMK AO2 SLP096 T01610117 403060128

2010/08/10 07:53
KSMQ 100753Z AUTO 00000KT 9SM CLR 23/19 A2991 RMK AO2 SLP128 T02330194

2010/08/10 07:53
KSNA 100753Z 00000KT 9SM CLR 18/13 A2990 RMK AO2 SLP125 T01830133 402390172

2010/08/10 07:53
KSNS 100753Z AUTO 27004KT 9SM OVC005 12/11 A2993 RMK AO2 SLP143 T01220111 402000122

2010/08/10 07:53
KSNY 100753Z AUTO 35006KT 10SM CLR 18/16 A3003 RMK AO2 SLP109 T01780156

2010/08/10 07:55
KSPA 100755Z AUTO 00000KT 7SM CLR 23/23 A3002 RMK AO2

2010/08/10 07:53
KSPB 100753Z AUTO 35004KT 10SM BKN036 13/11 A2999 RMK AO2 SLP155 T01330106 402000100

2010/08/10 07:53
KSPG 100753Z AUTO 11012KT 10SM FEW013 27/24 A2986 RMK AO2 SLP110 T02720244

2010/08/10 07:53
KSPW 100753Z AUTO 10008KT 7SM BKN035 BKN042 24/24 A2989 RMK AO2 LTG DSNT S AND SW SLP111 T02440239

2010/08/10 07:55
KJHW 100755Z AUTO 00000KT 4SM OVC055 21/19 A2999 RMK AO1

2010/08/10 07:54
KJST 100754Z AUTO 20003KT 9SM BKN110 21/16 A3004 RMK AO2 SLP155 T02110161

2010/08/10 07:55
KKLS 100755Z AUTO 30003KT 10SM OVC019 14/11 A3000 RMK AO1

2010/08/10 07:54
KLAF 100754Z AUTO 00000KT 5SM BR BKN100 26/24 A2994 RMK AO2 SLP133 T02560244

2010/08/10 07:55
KLBL 100755Z 20008KT 10SM CLR 24/17 A2998 RMK AO1

2010/08/10 07:54
KLBT 100754Z AUTO 00000KT 10SM OVC005 24/24 A3000 RMK AO2 SLP158 T02440239

2010/08/10 07:55
KLCI 100755Z AUTO 25004KT 6SM SCT120 20/18 A2989 RMK AO1

2010/08/10 07:55
KLEW 100755Z 34003KT 10SM CLR 19/17 RMK AO1

2010/08/10 07:55
KLGD 100755Z AUTO 30008KT 10SM BKN120 18/05 A2986 RMK AO1

2010/08/10 07:54
KLNK 100754Z 19005KT 10SM CLR 26/23 A2984 RMK AO2 SLP089 T02560228

2010/08/10 07:55
KLPC 100755Z AUTO 34004KT 10SM OVC006 13/11 A2992 RMK AO1 PNO

2010/08/10 07:54
KLWM 100754Z AUTO 21005KT 3SM BR BKN110 22/21 A2990 RMK AO2 RAE06 SLP124 P0000 T02220211 $

2010/08/10 07:54
KLWT 100754Z AUTO 12005KT 10SM OVC120 14/10 A2989 RMK AO2 SLP084 T01390100

2010/08/10 07:55
KMBL 100755Z AUTO 00000KT M1/4SM OVC001 20/19 A2997 RMK AO1

2010/08/10 07:54
KMFI 100754Z AUTO 05004KT 10SM CLR 21/19 A2997 RMK AO2 SLP141 T02110189

2010/08/10 07:54
KMGJ 100754Z AUTO 00000KT 9SM -RA FEW020 OVC095 22/19 A2993 RMK AO2 RAB31 SLP132 P0001 T02220194

2010/08/10 07:54
KMIV 100754Z AUTO 00000KT 8SM CLR 23/21 A2992 RMK AO2 SLP130 T02330211

2010/08/10 07:55
KMJX 100755Z AUTO 22005KT 10SM OVC060 24/21 A2993 RMK AO1

2010/08/10 07:54
KMKC 100754Z 22005KT 10SM CLR 29/22 A2987 RMK AO2 SLP102 T02890222

2010/08/10 07:55
KMKT 100755Z AUTO 13005KT 10SM CLR 24/22 A2991 RMK AO1

2010/08/10 07:55
KMML 100755Z AUTO 11006KT 10SM OVC043 24/23 A2988 RMK AO1

2010/08/10 07:55
KMNM 100755Z AUTO 34005KT 1 3/4SM SCT005 21/20 A2995 RMK AO1

2010/08/10 07:54
KMOT 100754Z AUTO 08005KT 10SM BKN046 21/17 A2987 RMK AO2 SLP104 T02110167

2010/08/10 07:55
KMRF 100755Z AUTO 35005KT 10SM CLR A3014 RMK AO1

2010/08/10 07:54
KMRY 100754Z AUTO 00000KT 10SM OVC003 12/10 A2994 RMK AO2 SLP149 T01170100 401720117

2010/08/10 07:55
KMSV 100755Z AUTO 31003KT 10SM FEW075 OVC090 21/18 A2999 RMK AO1

2010/08/10 07:55
KMTW 100755Z 00000KT 3SM CLR 21/20 A2995 RMK AO1

2010/08/10 07:54
KMVL 100754Z AUTO 00000KT 1/4SM FG VV001 17/17 A2995 RMK AO2 SLP141 T01670167

2010/08/10 07:55
KMVN 100755Z AUTO 00000KT 3SM CLR 24/22 A2994 RMK AO1

2010/08/10 07:55
KOCH 100755Z AUTO 00000KT 10SM CLR 26/23 A2991 RMK AO1

2010/08/10 07:54
KOFP 100754Z AUTO 18004KT 10SM CLR 25/20 A2998 RMK AO2 SLP150 T02500200

2010/08/10 07:55
KOKK 100755Z AUTO 04004KT 3SM CLR 23/18 A2997 RMK AO1

2010/08/10 07:54
KOKM 100754Z AUTO 00000KT 10SM CLR 25/23 A2991 RMK AO1

2010/08/10 07:54
KOLM 100754Z AUTO 21006KT 10SM OVC014 13/11 A2998 RMK AO2 SLP152 T01330111 401780128

2010/08/10 07:54
KOLS 100754Z AUTO 04003KT 10SM CLR 21/15 A3005 RMK AO2 SLP101 T02110150

2010/08/10 07:55
KOLU 100755Z AUTO 1/2SM OVC002 26/24 A2984 RMK AO1

2010/08/10 07:55
KOTG 100755Z AUTO 10005KT 5SM OVC004 23/22 A2991 RMK AO1

2010/08/10 07:55
KOTH 100755Z 35007KT 10SM OVC017 13/11 A3004 RMK AO1

2010/08/10 07:54
KPHF 100754Z 24005KT 10SM CLR 26/24 A2997 RMK AO2 SLP148 T02560239 $

2010/08/10 07:54
KPHL 100754Z 21007KT 10SM SCT150 BKN200 26/21 A2993 RMK AO2 SLP135 T02610211

2010/08/10 07:55
KPIB 100755Z AUTO 00000KT 4SM CLR 24/21 A2996 RMK AO1

2010/08/10 07:54
KPLN 100754Z AUTO 31003KT 1 1/4SM BR OVC002 22/22 A2998 RMK AO2 SLP147 T02170217

2010/08/10 07:54
KPNE 100754Z 22004KT 10SM CLR 26/22 A2993 RMK AO2 SLP135 T02610217

2010/08/10 07:55
KPQI 100755Z AUTO 00000KT 2 1/2SM CLR 13/12 A2979 RMK AO1

2010/08/10 07:55
KPRX 100755Z 11003KT 10SM CLR 26/22 A2990 RMK AO1

2010/08/10 07:54
KPSF 100754Z AUTO 00000KT 3SM BR FEW031 BKN041 BKN055 19/19 A2996 RMK AO2 SLP115 T01940189

2010/08/10 07:55
KPTN 100755Z AUTO 05004KT 10SM CLR 24/14 A2994 RMK AO1

2010/08/10 07:55
KPTV 100755Z AUTO 14006KT 10SM CLR 19/12 A2984 RMK AO1

2010/08/10 07:54
KPTW 100754Z AUTO 00000KT 7SM CLR 26/21 A2994 RMK AO2 SLP134 T02560211

2010/08/10 07:55
KPVC 100755Z 16004KT 3SM FEW041 SCT050 OVC080 21/19 A2991 RMK AO1 P0013

2010/08/10 07:55
KPVU 100755Z 12005KT 10SM CLR 17/05 A3005 RMK AO1

2010/08/10 07:55
KPWG 100755Z AUTO 19009KT 10SM CLR 28/21 A2992 RMK AO1

2010/08/10 07:50
ENBN 100750Z VRB02KT 6000 SCT002 BKN003 13/12 Q1011

2010/08/10 07:50
ENBV 100750Z 09009KT 9999 BKN035 11/08 Q1013

2010/08/10 07:50
ENFG 100750Z 18003KT 9999 SCT008 BKN013 13/11 Q1011

2010/08/10 07:50
ENHF 100750Z VRB02KT 9999 BKN046 13/09 Q1011 

2010/08/10 07:50
ENRA 100750Z 15005KT 9999 BKN050 20/12 Q1010

2010/08/10 07:50
ENSH 100750Z 02015KT 9999 FEW010 SCT035 13/10 Q1010

2010/08/10 07:53
KJBR 100753Z AUTO 00000KT 10SM CLR 26/24 A2992 RMK AO2 SLP127 T02610239

2010/08/10 07:53
KJLN 100753Z AUTO 18006KT 10SM CLR 26/21 A2993 RMK AO2 SLP120 T02560211 $

2010/08/10 07:53
KLAN 100753Z 00000KT 3SM R28L/1600V6000FT BR MIFG CLR 19/19 A2997 RMK AO2 SLP143 T01940194

2010/08/10 07:53
KLBB 100753Z 12004KT 10SM CLR 20/17 A3004 RMK AO2 SLP115 T02000167

2010/08/10 07:53
KRNM 100753Z AUTO 26003KT 10SM CLR 12/10 A2993 RMK AO2 SLP121 T01220100 402830056 TSNO

2010/08/10 07:53
KFAR 100753Z 15005KT 10SM CLR 24/19 A2989 RMK AO2 SLP115 T02390194

2010/08/10 07:53
KOQT 100753Z AUTO 00000KT 5SM BR SCT050 26/24 A3002 RMK AO2 SLP146 T02560239 TSNO

2010/08/10 07:53
KHTL 100753Z AUTO 31003KT 1/2SM FG BKN001 21/21 A3000 RMK AO2 SLP151 T02110211

2010/08/10 07:53
KLAX 100753Z 28003KT 10SM OVC007 16/13 A2991 RMK AO2 SLP127 T01560128 402000150 $

2010/08/10 07:53
KSDM 100753Z AUTO 00000KT 10SM OVC010 16/14 A2992 RMK AO2 SLP127 T01610139 402280117 TSNO

2010/08/10 07:53
KLXV 100753Z AUTO 00000KT 10SM CLR 05/04 A3043 RMK AO2 SLP155 T00500039 TSNO

2010/08/10 07:51
KSAN 100751Z 28005KT 10SM OVC015 18/14 A2993 RMK AO2 SLP133 T01780139 402220156

2010/08/10 07:53
KSEA 100753Z 21007KT 10SM BKN010 OVC065 14/11 A2997 RMK AO2 SLP155 T01390111 401940139

2010/08/10 07:50
KSOW 100750Z AUTO 16003KT 10SM CLR 15/10 A3026 RMK AO2

2010/08/10 07:53
KSTC 100753Z AUTO 00000KT 8SM CLR 21/19 A2993 RMK AO2 SLP136 T02060194 $

2010/08/10 07:53
KTUS 100753Z 00000KT 10SM CLR 28/14 A2996 RMK AO2 SLP092 T02780144

2010/08/10 07:53
KYKM 100753Z AUTO 32009KT 10SM CLR 18/08 A2986 RMK AO2 SLP103 T01830083 403000133

2010/08/10 07:53
KCHA 100753Z 00000KT 10SM CLR 26/24 A3000 RMK AO2 SLP149 T02610239 $

2010/08/10 07:53
KBTR 100753Z 00000KT 8SM SCT004 BKN200 25/24 A2992 RMK AO2 SLP130 T02500244

2010/08/10 07:53
K40J 100753Z AUTO 07004KT 24/23 A2991 RMK AO2 SLP127 T02440233 PWINO TSNO

2010/08/10 07:53
KMCN 100753Z AUTO 00000KT 7SM CLR 24/22 A2999 RMK AO2 SLP148 T02390217 TSNO

2010/08/10 07:53
KTLH 100753Z 07005KT 10SM SCT095 27/23 A2992 RMK AO2 SLP130 T02670233

2010/08/10 07:53
KTRI 100753Z 00000KT 5SM BR FEW060 SCT080 22/21 A3005 RMK AO2 SLP154 T02220206

2010/08/10 07:53
KTYS 100753Z 00000KT 9SM CLR 27/22 A3000 RMK AO2 SLP145 T02670217

2010/08/10 07:53
KMGM 100753Z 08003KT 8SM SCT070 26/23 A2994 RMK AO2 SLP136 T02610228

2010/08/10 07:53
KBNO 100753Z AUTO 26007KT 10SM FEW110 16/04 A2994 RMK AO2 SLP101 T01610039 402780100 TSNO

2010/08/10 07:53
KDAB 100753Z 10003KT 10SM FEW020 27/24 A2993 RMK AO2 SLP136 T02670239

2010/08/10 07:53
KP92 100753Z AUTO 00000KT 25/24 A2991 RMK AO2 SLP129 T02500244 PWINO TSNO

2010/08/10 07:53
KELY 100753Z AUTO 20010KT 10SM CLR 16/M05 A3013 RMK AO2 SLP104 T01561050 402780100

2010/08/10 07:53
KTUP 100753Z AUTO 17004KT 8SM CLR 26/24 A2995 RMK AO2 SLP136 T02560239

2010/08/10 07:53
KCQC 100753Z AUTO 05007KT 10SM CLR 16/12 A3025 RMK AO2 SLP135 T01610122 TSNO

2010/08/10 07:53
KSAV 100753Z 00000KT 10SM FEW023 26/24 A2999 RMK AO2 SLP153 T02560239 $

2010/08/10 07:53
KNUI 100753Z AUTO 21006KT 10SM CLR 26/22 A2994 RMK AO2 SLP139 T02560222

2010/08/10 07:53
KLND 100753Z AUTO 24010KT 10SM CLR 18/03 A3005 RMK AO2 SLP101 T01780033

2010/08/10 07:53
KMSN 100753Z 00000KT 1SM BR FEW001 SCT008 22/21 A2993 RMK AO2 SLP130 T02170211

2010/08/10 07:53
KGNT 100753Z AUTO 33003KT 13/11 A3025 RMK AO2 SLP152 T01330106 PWINO TSNO

2010/08/10 07:52
KCZZ 100752Z AUTO 03004KT 11/05 A2994 RMK AO2 SLP107 T01060050 402940039 PWINO TSNO

2010/08/10 07:53
KCUT 100753Z AUTO 22004KT 10SM FEW095 17/13 A3003 RMK AO2 SLP095 T01670133 TSNO

2010/08/10 07:53
KRQE 100753Z AUTO 00000KT 10SM SCT075 12/10 A3026 RMK AO2 SLP139 T01170100 TSNO

2010/08/10 07:54
KBTV 100754Z 00000KT 1SM BR VV004 18/18 A2991 RMK AO2 SLP128 T01780178 RVRNO

2010/08/10 07:53
KTCS 100753Z AUTO 30009KT 10SM CLR 23/11 A3007 RMK AO2 SLP088 T02330111 TSNO

2010/08/10 07:54
KJAN 100754Z 00000KT 9SM CLR 24/23 A2996 RMK AO2 SLP138 T02390228

2010/08/10 07:51
KSAN 100751Z 28005KT 10SM OVC015 18/14 A2993 RMK AO2 SLP133 T01780139 402220156

2010/08/10 07:53
KSGR 100753Z AUTO 00000KT 10SM CLR 25/24 A2991 RMK AO2 SLP135 T02500239 TSNO

2010/08/10 07:53
KOVE 100753Z AUTO 17005KT 10SM CLR 22/12 A2984 RMK AO2 SLP105 T02170117 403220150 TSNO $

2010/08/10 07:53
KACK 100753Z AUTO 26005KT 6SM BR FEW060 23/21 A2992 RMK AO2 SLP133 T02280211 TSNO

2010/08/10 07:53
KAGC 100753Z 17005KT 8SM CLR 22/19 A2999 RMK AO2 SLP147 T02170189

2010/08/10 07:53
KAUG 100753Z AUTO 29004KT 10SM CLR 21/18 A2987 RMK AO2 SLP113 T02060178

2010/08/10 07:53
KBAF 100753Z 00000KT 4SM -RA BR FEW070 SCT100 22/21 A2992 RMK AO2 SLP127 P0000 T02220211

2010/08/10 07:53
KBGR 100753Z 29004KT 10SM SCT100 19/18 A2984 RMK AO2 SLP101 T01890183

2010/08/10 07:53
KBVY 100753Z AUTO 00000KT 4SM BR OVC100 22/21 A2988 RMK AO2 RAE41 SLP111 P0002 T02170211

2010/08/10 07:53
KCKB 100753Z AUTO 00000KT 1 3/4SM BR CLR 19/18 A3001 RMK AO2 SLP147 T01890183 TSNO

2010/08/10 07:53
KEWB 100753Z AUTO 00000KT 5SM BR FEW050 SCT070 22/21 A2990 RMK AO2 RAB0656E48 SLP122 P0001 T02220206

2010/08/10 07:53
KEYW 100753Z AUTO 18011KT 10SM -RA FEW008 SCT017 BKN110 27/24 A2983 RMK AO2 RAB12 SLP102 P0001 T02670244 TSNO

2010/08/10 07:53
KFPR 100753Z AUTO 13009KT 10SM FEW023 SCT050 27/24 A2990 RMK AO2 RAB36E45 SLP124 P0000 T02670239

2010/08/10 07:53
KFVE 100753Z AUTO 32005KT 4SM BR CLR 15/14 A2982 RMK AO2 SLP094 T01500139 $

2010/08/10 07:53
KGFL 100753Z AUTO 00000KT 2 1/2SM BR SCT002 OVC036 20/20 A2992 RMK AO2 SLP129 T02000200

2010/08/10 07:53
KGZH 100753Z AUTO 00000KT 3SM BR CLR 24/23 A2995 RMK AO2 SLP138 T02390233

2010/08/10 07:53
KHAO 100753Z AUTO 00000KT 6SM BR CLR 22/21 A2997 RMK AO2 SLP142 T02220206

2010/08/10 07:53
KHFD 100753Z AUTO 00000KT 7SM -RA FEW032 24/21 A2992 RMK AO2 RAB01 SLP130 P0000 T02390206

2010/08/10 07:53
KHUL 100753Z AUTO 00000KT 6SM BR CLR 14/14 A2981 RMK AO2 SLP095 T01390139

2010/08/10 07:53
KHZY 100753Z AUTO 00000KT 5SM BR BKN050 BKN090 22/21 A2996 RMK AO2 SLP135 T02220211

2010/08/10 07:53
KITR 100753Z AUTO 30003KT 10SM FEW120 18/17 A3004 RMK AO2 SLP112 T01830167

2010/08/10 07:53
KIWI 100753Z AUTO 00000KT 7SM CLR 19/18 A2987 RMK AO2 SLP113 T01940183

2010/08/10 07:53
KLEB 100753Z AUTO 00000KT 2 1/2SM BR OVC001 21/19 A2992 RMK AO2 SLP119 T02060189

2010/08/10 07:53
KLEE 100753Z AUTO 09007KT 10SM CLR 26/24 A2992 RMK AO2 SLP131 T02560239

2010/08/10 07:53
KLWV 100753Z AUTO 00000KT 3SM BR CLR 25/23 A2994 RMK AO2 SLP132 T02500233

2010/08/10 07:53
KMHT 100753Z 00000KT 1/2SM R35/P6000FT -RA FG BKN003 22/21 A2987 RMK AO2 RAB52 SLP124 P0000 T02220211

2010/08/10 07:53
KMLT 100753Z AUTO 28003KT 10SM CLR 18/17 A2985 RMK AO2 SLP110 T01830167

2010/08/10 07:53
KMMK 100753Z AUTO 00000KT 8SM FEW065 23/20 A2993 RMK AO2 SLP132 T02280200

2010/08/10 07:53
KMSS 100753Z AUTO 22004KT 10SM OVC006 22/21 A2991 RMK AO2 SLP127 T02170206

2010/08/10 07:53
KMVY 100753Z AUTO 00000KT 7SM -RA BKN055 BKN080 25/21 A2992 RMK AO2 RAB0659E07B40 SLP129 P0002 T02500211

2010/08/10 07:53
KOPF 100753Z AUTO 13006KT 10SM FEW027 BKN065 26/24 A2988 RMK AO2 SLP120 T02560244

2010/08/10 07:53
KOWD 100753Z AUTO 23003KT 3SM -RA BR SCT060 OVC090 22/20 A2990 RMK AO2 PK WND 15027/0723 SLP125 P0006 T02170200

2010/08/10 07:53
KPIE 100753Z AUTO 10010KT 10SM FEW015 26/23 A2987 RMK AO2 SLP115 T02610233

2010/08/10 07:53
KRME 100753Z AUTO 00000KT 3SM BR SCT003 BKN023 21/20 A2996 RMK AO2 SLP142 T02060200 $

2010/08/10 07:53
KUUU 100753Z AUTO 00000KT 8SM BKN070 22/21 A2992 RMK AO2 RAE16 SLP129 P0000 T02220206

2010/08/10 07:53
KVRB 100753Z AUTO 13005KT 10SM FEW028 SCT048 26/23 A2990 RMK AO2 SLP125 T02610233

2010/08/10 07:53
KWST 100753Z AUTO 00000KT 5SM BR BKN090 22/21 A2992 RMK AO2 RAB11E29 SLP131 P0000 T02220206

2010/08/10 07:53
KYIP 100753Z 00000KT 1/4SM FG BKN001 BKN027 20/19 A2996 RMK AO2 SLP138 T02000194 RVRNO

2010/08/10 07:53
KRTN 100753Z AUTO 36004KT 10SM CLR 14/13 A3020 RMK AO2 SLP127 T01440128 TSNO

2010/08/10 07:53
KBUR 100753Z AUTO 11006KT 7SM CLR 16/13 A2990 RMK AO2 SLP115 T01610133 402670139 TSNO

2010/08/10 07:53
KGEY 100753Z AUTO 33009KT 10SM FEW100 17/09 A2995 RMK AO2 SLP101 T01670094

2010/08/10 07:53
KGEZ 100753Z AUTO 00000KT 7SM CLR 24/22 A2995 RMK AO2 SLP133 T02440217

2010/08/10 07:53
KGFK 100753Z 18003KT 10SM FEW250 21/19 A2988 RMK AO2 SLP113 T02110194

2010/08/10 07:53
KGGG 100753Z AUTO 23004KT 10SM CLR 28/23 A2992 RMK AO2 SLP121 T02830228

2010/08/10 07:53
KGGW 100753Z AUTO 21015G20KT 10SM SCT080 19/17 A2978 RMK AO2 RAE52 PRESRR SLP069 P0001 T01940167 TSNO

2010/08/10 07:53
KPMD 100753Z AUTO 16003KT 10SM CLR 19/05 A2992 RMK AO2 SLP102 T01940050 403390156

2010/08/10 07:53
KPMP 100753Z AUTO 13013KT 10SM FEW023 BKN041 OVC060 27/23 A2988 RMK AO2 SLP120 T02720233

2010/08/10 07:50
KPNA 100750Z AUTO 00000KT 10SM CLR 06/04 A3019 RMK AO2 T00590037

2010/08/10 07:53
KPNC 100753Z AUTO 17007KT 10SM CLR 29/21 A2989 RMK AO2 SLP104 T02940206

2010/08/10 07:53
KPNS 100753Z AUTO 36006KT 7SM CLR 26/24 A2991 RMK AO2 SLP129 T02610244

2010/08/10 07:53
KPOU 100753Z 00000KT 4SM -RA BR SCT034 OVC090 22/21 A2993 RMK AO2 RAB04 SLP132 P0002 T02220211

2010/08/10 07:53
KPRB 100753Z AUTO A2991 RMK AO2 SLPNO PWINO FZRANO TSNO

2010/08/10 07:53
KPRC 100753Z AUTO 19007KT 10SM CLR 18/08 A3012 RMK AO2 SLP117 T01780078

2010/08/10 07:53
KPSC 100753Z AUTO 20004KT 10SM CLR 21/10 A2983 RMK AO2 SLP098 T02060100 403220122

2010/08/10 07:55
KPSO 100755Z AUTO 00000KT 10SM CLR 11/05 A3032 RMK AO2

2010/08/10 07:53
KPSP 100753Z AUTO 00000KT 10SM CLR 26/08 A2976 RMK AO2 SLP074 T02610083 404000194 TSNO

2010/08/10 07:53
KPTK 100753Z 33003KT 6SM BR FEW140 22/22 A2995 RMK AO2 SLP137 T02220217

2010/08/10 07:50
KPTT 100750Z AUTO 19007KT 10SM CLR 26/19 A2991 RMK AO2

2010/08/10 07:53
KPUB 100753Z AUTO 00000KT 10SM CLR 15/14 A3006 RMK AO2 SLP121 T01500144

2010/08/10 07:53
KPUC 100753Z AUTO 02007KT 10SM CLR 14/M01 A3013 RMK AO2 SLP158 T01441011 $

2010/08/10 07:53
KPUW 100753Z AUTO 24006KT 10SM CLR 17/05 A2987 RMK AO2 SLP100 T01670050 402780083

2010/08/10 07:53
KPWA 100753Z AUTO 19009KT 10SM CLR 28/20 A2992 RMK AO2 SLP110 T02830200

2010/08/10 07:53
KRAC 100753Z AUTO 00000KT 2 1/2SM BR CLR 22/21 A2995 RMK AO2 SLP136 T02170206

2010/08/10 07:53
KRAL 100753Z AUTO 00000KT 10SM CLR 18/13 A2991 RMK AO2 SLP112 T01780133 403060133

2010/08/10 07:53
KRBD 100753Z 20004KT 10SM CLR 28/21 A2989 RMK AO2 SLP110 T02830206

2010/08/10 07:53
KRBG 100753Z AUTO 35005KT 10SM CLR 17/12 A2997 RMK AO2 SLP147 T01670117 402560150

2010/08/10 07:53
KRDD 100753Z AUTO 03003KT 10SM CLR 22/12 A2983 RMK AO2 SLP095 T02220122 403330189

2010/08/10 07:53
KRHI 100753Z AUTO 00000KT 1 1/4SM BR CLR 16/16 A3002 RMK AO2 VIS 3/4V2 1/2 SLP158 T01610156

2010/08/10 07:53
KRNT 100753Z AUTO 16006KT 10SM OVC016 15/12 A2997 RMK AO2 SLP152 T01500117 401940139

2010/08/10 07:53
KRSL 100753Z AUTO 19007KT 10SM CLR 24/21 A2985 RMK AO2 SLP085 T02440206

2010/08/10 07:53
KRSW 100753Z AUTO 10009KT 10SM OVC008 25/23 A2985 RMK AO2 SLP107 T02500233

2010/08/10 07:53
KRUE 100753Z AUTO 00000KT 10SM CLR 27/24 A2992 RMK AO2 SLP121 T02720239

2010/08/10 07:53
KRVS 100753Z 00000KT 10SM CLR 28/21 A2990 RMK AO2 SLP125 T02780206

2010/08/10 07:53
KRWF 100753Z AUTO 09004KT 10SM CLR 24/22 A2989 RMK AO2 SLP114 T02390222

2010/08/10 07:53
KRWI 100753Z AUTO 20003KT 8SM CLR 23/22 A3000 RMK AO2 SLP157 T02280217

2010/08/10 07:53
KHLN 100753Z AUTO 27004KT 10SM CLR 13/11 A2992 RMK AO2 SLP118 T01280106

2010/08/10 07:53
KHOT 100753Z AUTO 00000KT 10SM CLR 28/23 A2993 RMK AO2 SLP127 T02780233

2010/08/10 07:53
KHQM 100753Z AUTO 00000KT 10SM OVC011 13/11 A2999 RMK AO2 SLP159 T01330111 401560128

2010/08/10 07:53
KHRI 100753Z AUTO 23013KT 10SM CLR 18/09 A2985 RMK AO2 SLP104 T01780094 403170150

2010/08/10 07:53
KHRO 100753Z AUTO 00000KT 8SM CLR 26/23 A2997 RMK AO2 SLP129 T02610233

2010/08/10 07:53
KHUF 100753Z 00000KT 5SM BR CLR 24/23 A2995 RMK AO2 SLP137 T02390228

2010/08/10 07:53
KHVN 100753Z AUTO 00000KT 10SM FEW110 26/19 A2992 RMK AO2 SLP131 T02560194

2010/08/10 07:53
KHWO 100753Z AUTO 13007KT 10SM CLR 26/ A2990 RMK AO2 SLP123 T0261 $

2010/08/10 07:53
KMCW 100753Z AUTO 13003KT 5SM BR CLR 23/23 A2996 RMK AO2 SLP131 T02330228

2010/08/10 07:53
KMEM 100753Z 00000KT 10SM CLR 27/24 A2993 RMK AO2 SLP130 T02720244

2010/08/10 07:55
KMEZ 100755Z AUTO 00000KT 7SM CLR 25/23 A2996 RMK AO2

2010/08/10 07:53
KMFR 100753Z AUTO 05003KT 10SM CLR 18/08 A2992 RMK AO2 SLP123 T01830083 403110144

2010/08/10 07:53
KMGW 100753Z AUTO 00000KT 3SM BR CLR 19/18 A3002 RMK AO2 SLP153 T01940183

2010/08/10 07:53
KMGY 100753Z AUTO 00000KT 8SM CLR 24/21 A2997 RMK AO2 SLP139 T02440206

2010/08/10 07:53
KMHE 100753Z AUTO 14007KT 9SM OVC010 25/23 A2985 RMK AO2 SLP095 T02500233 TSNO

2010/08/10 07:53
KMIA 100753Z 13011KT 8SM -RA SCT019TCU BKN028 OVC060 26/24 A2988 RMK AO2 RAB40 SLP118 TCU SE 98374 P0001 T02610239 $

2010/08/10 07:53
KMIC 100753Z AUTO 00000KT 9SM CLR 23/21 A2992 RMK AO2 SLP124 T02280211

2010/08/10 07:53
KMIE 100753Z AUTO 00000KT 4SM BR CLR 23/22 A2997 RMK AO2 SLP137 T02280217

2010/08/10 07:53
KMIW 100753Z AUTO 16006KT 5SM VCTS -RA BR OVC024 25/24 A2994 RMK AO2 LTG DSNT ALQDS TSB09RAB27 SLP128 P0004 T02500244 $

2010/08/10 07:53
KMKL 100753Z AUTO 00000KT 5SM BR CLR 26/24 A2995 RMK AO2 SLP137 T02560244

2010/08/10 07:53
KMKO 100753Z AUTO 14004KT 10SM CLR 24/20 A2992 RMK AO2 SLP123 T02390200

2010/08/10 07:53
KMLB 100753Z 14008KT 10SM FEW019 SCT031 27/23 A2992 RMK AO2 SLP130 T02670228

2010/08/10 07:53
KMLC 100753Z AUTO 21003KT 10SM CLR 26/20 A2992 RMK AO2 SLP119 T02610200

2010/08/10 07:53
KMLP 100753Z AUTO 20004KT 10SM FEW048 12/02 A2998 RMK AO2 SLP061 T01220022 401940106 TSNO

2010/08/10 07:53
KMLS 100753Z AUTO 24007KT 10SM CLR 19/15 A2983 RMK AO2 SLP077 T01890150

2010/08/10 07:53
KMMV 100753Z AUTO 24005KT 10SM FEW033 12/11 A3000 RMK AO2 SLP159 T01170106 402170094

2010/08/10 07:53
KMNN 100753Z AUTO 00000KT 6SM BR CLR 22/21 A2998 RMK AO2 SLP143 T02220206

2010/08/10 07:53
KMOD 100753Z AUTO 35005KT 10SM CLR 21/13 A2983 RMK AO2 SLP100 T02060128 403170144

2010/08/10 07:53
KMRB 100753Z AUTO 22003KT 9SM CLR 24/18 A2995 RMK AO2 SLP135 T02390183

2010/08/10 07:53
KMSL 100753Z AUTO 00000KT 6SM BR CLR 24/23 A2998 RMK AO2 SLP144 T02440228

2010/08/10 07:53
KMSO 100753Z AUTO 13008KT 10SM CLR 15/11 A2990 RMK AO2 SLP106 T01500111

2010/08/10 07:53
KMSP 100753Z 12003KT 9SM CLR 25/22 A2993 RMK AO2 SLP128 T02500222

2010/08/10 07:53
KMTH 100753Z AUTO 20009G16KT 1 3/4SM +RA BR SCT009 BKN018 OVC047 26/24 A2984 RMK AO2 LTG DSNT SW SLP105 P0038 T02560244

2010/08/10 07:53
KMTJ 100753Z AUTO 12009KT 10SM BKN100 17/07 A3019 RMK AO2 SLP148 T01670072

2010/08/10 07:53
KMTO 100753Z AUTO 18005KT 8SM FEW110 26/24 A2994 RMK AO2 LTG DSNT N SLP129 T02610239

2010/08/10 07:53
KMWL 100753Z AUTO 17005KT 10SM CLR 26/19 A2989 RMK AO2 SLP106 T02610194

2010/08/10 07:53
KMYF 100753Z AUTO 00000KT 10SM OVC011 17/14 A2992 RMK AO2 SLP127 T01720144 402330139 TSNO

2010/08/10 07:53
KMYV 100753Z AUTO 15006KT 10SM CLR 19/12 A2982 RMK AO2 SLP101 T01890122 403170133

2010/08/10 07:53
KOAK 100753Z 35003KT 10SM OVC006 14/11 A2992 RMK AO2 SLP131 T01390111 401940139

2010/08/10 07:53
KODO 100753Z AUTO 00000KT 10SM CLR 22/19 A3001 RMK AO2 SLP112 T02170189 $

2010/08/10 07:53
KOGB 100753Z AUTO 00000KT 9SM FEW021 24/24 A3001 RMK AO2 SLP158 T02440239

2010/08/10 07:53
KOGD 100753Z AUTO 15004KT 10SM CLR 18/05 A3000 RMK AO2 SLP100 T01830050

2010/08/10 07:53
KOJC 100753Z AUTO 19004KT 10SM CLR 27/23 A2989 RMK AO2 SLP106 T02670228

2010/08/10 07:53
KOLF 100753Z AUTO 28009KT 6SM VCTS RA BR OVC050 19/17 A2981 RMK AO2 PK WND 21028/0705 WSHFT 0650 LTG DSNT ALQDS TSE00B22E49B50RAB03 SLP083 P0004 T01890167

2010/08/10 07:53
KOMK 100753Z AUTO 35012G18KT 10SM FEW090 SCT100 17/11 A2984 RMK AO2 SLP097 T01670106 403110139

2010/08/10 07:53
KONO 100753Z AUTO 36004KT 10SM CLR 19/12 A2985 RMK AO2 SLP091 T01890122

2010/08/10 07:53
KONT 100753Z 26003KT 10SM CLR 17/12 A2991 RMK AO2 SLP114 T01670122 403000133

2010/08/10 07:53
KORL 100753Z AUTO 09006KT 10SM CLR 25/23 A2992 RMK AO2 SLP134 T02500233

2010/08/10 07:52
KREO 100752Z AUTO 22008KT 20/M05 A2989 RMK AO2 SLP080 T02001050 403110150 PWINO TSNO

2010/08/10 07:52
KP69 100752Z AUTO 00000KT 16/15 A2987 RMK AO2 SLP094 T01560150 403060144 PWINO TSNO

2010/08/10 07:52
KSDB 100752Z AUTO 21006KT 10SM CLR 17/01 A3004 RMK AO2 SLP118 T01670011 TSNO

2010/08/10 07:52
KABI 100752Z 18006KT 10SM CLR 28/18 A2996 RMK AO2 SLP112 T02780183

2010/08/10 07:51
KCAK 100751Z 23004KT 8SM SCT070 OVC100 24/19 A2997 RMK AO2 SLP137 T02390194

2010/08/10 07:53
PHTO 100753Z 06004KT 10SM SCT030 BKN050 OVC060 24/18 A3012 RMK AO2 SLP196 T02390183

2010/08/10 07:53
PHKO 100753Z 08007KT 10SM CLR 25/16 A3005 RMK AO2 SLP177 T02500156

2010/08/10 07:53
PHLI 100753Z AUTO 06015KT 10SM FEW023 SCT047 OVC060 25/20 A3014 RMK AO2 RAB41E52 SLP202 P0000 T02500200 TSNO

2010/08/10 07:53
KCNY 100753Z AUTO 00000KT 10SM CLR 18/01 A3003 RMK AO2 SLP112 T01830011

2010/08/10 07:51
KCRP 100751Z 20003KT 10SM FEW018 27/26 A2990 RMK AO2 SLP123 T02670256

2010/08/10 07:53
KCRQ 100753Z 00000KT 10SM OVC011 18/14 A2991 RMK AO2 SLP126 T01780144 402170156

2010/08/10 07:53
KDAL 100753Z 20004KT 10SM CLR 31/20 A2989 RMK AO2 SLP112 T03060200

2010/08/10 07:53
KDBQ 100753Z AUTO 00000KT 7SM CLR 23/22 A2996 RMK AO2 SLP136 T02280217

2010/08/10 07:53
KBIL 100753Z 23005KT 10SM FEW100 16/13 A2992 RMK AO2 SLP098 T01610133

2010/08/10 07:51
KBVE 100751Z AUTO 00000KT CLR 26/25 A2991 RMK AO2 SLP128 T02610250 TSNO $

2010/08/10 07:53
KCDR 100753Z AUTO 22010KT 10SM SCT100 21/17 A2991 RMK AO2 SLP094 T02110167

2010/08/10 07:53
KAAF 100753Z AUTO 04006KT 10SM FEW024 SCT035 26/24 A2989 RMK AO2 SLP120 T02610244

2010/08/10 07:53
KBFF 100753Z AUTO 10003KT 10SM CLR 18/16 A3000 RMK AO2 SLP112 T01780161

2010/08/10 07:51
KVCT 100751Z AUTO 00000KT 10SM CLR 26/25 A2992 RMK AO2 SLP128 T02560250

2010/08/10 07:53
KGRR 100753Z AUTO 00000KT 2SM BR CLR 20/19 A2997 RMK AO2 VIS 1 1/4 RWY 8R SLP145 T02000189

2010/08/10 07:53
KHLC 100753Z AUTO 28006KT 10SM CLR 24/19 A2988 RMK AO2 SLP092 T02390189 $

2010/08/10 07:53
KDMN 100753Z AUTO 22005KT 10SM CLR 20/10 A3005 RMK AO2 SLP091 T02000100

2010/08/10 07:53
KEMP 100753Z AUTO 17008KT 10SM CLR 26/21 A2990 RMK AO2 SLP110 T02560206

2010/08/10 07:53
KFAT 100753Z 31008KT 10SM CLR 23/14 A2981 RMK AO2 SLP091 T02330139 403440161

2010/08/10 07:53
KLIT 100753Z 00000KT 7SM SCT250 28/25 A2991 RMK AO2 SLP128 T02780250

2010/08/10 07:53
KLWD 100753Z AUTO 13003KT 9SM CLR 27/26 A2990 RMK AO2 SLP114 T02670256

2010/08/10 07:53
KMLU 100753Z AUTO A2993 RMK AO2 SLPNO PWINO FZRANO $

2010/08/10 07:53
KODX 100753Z AUTO 27009KT 8SM TSRA FEW034 BKN060 OVC080 20/18 A2995 RMK AO2 PK WND 27031/0721 WSHFT 0713 LTG DSNT SW-N TSB41RAB24 SLP131 P0010 T02000183

2010/08/10 07:51
KORF 100751Z 23006KT 10SM CLR 25/23 A2997 RMK AO2 SLP150 T02500233 $

2010/08/10 07:53
KPDX 100753Z 33006KT 10SM OVC038 15/11 A3000 RMK AO2 SLP156 T01500111 402000144

2010/08/10 07:53
KPGA 100753Z AUTO 00000KT 10SM SCT120 24/02 A3003 RMK AO2 SLP100 T02390022

2010/08/10 07:53
KFMN 100753Z AUTO 02005KT 10SM OVC120 18/08 A3015 RMK AO2 SLP145 T01780078

2010/08/10 07:53
KFNB 100753Z AUTO 21007KT 10SM CLR 27/23 A2985 RMK AO2 SLP095 T02670228

2010/08/10 07:53
KFNT 100753Z 00000KT 1/4SM FG 21/20 A2996 RMK AO2 SLP140 T02060200 RVRNO $

2010/08/10 07:53
KGCC 100753Z AUTO 27007KT 10SM CLR 13/11 A2995 RMK AO2 SLP093 T01330106

2010/08/10 07:53
KGEG 100753Z 18010KT 10SM BKN130 18/03 A2980 RMK AO2 SLP075 T01830033 402780139

2010/08/10 07:53
KPOF 100753Z AUTO 00000KT 10SM CLR 26/24 A2993 RMK AO2 SLP128 T02560239

2010/08/10 07:53
KRIW 100753Z AUTO 29008KT 10SM CLR 16/04 A3007 RMK AO2 SLP110 T01610039

2010/08/10 07:53
KRMG 100753Z AUTO 00000KT 7SM BKN100 24/22 A2999 RMK AO2 SLP145 T02440222

2010/08/10 07:53
KHSI 100753Z AUTO 20006KT 10SM CLR 26/21 A2987 RMK AO2 SLP093 T02560211 $

2010/08/10 07:53
KHSV 100753Z 11003KT 5SM BR FEW200 26/24 A2998 RMK AO2 SLP141 T02560239

2010/08/10 07:53
KHVR 100753Z AUTO 21008KT 10SM CLR 17/15 A2981 RMK AO2 SLP076 T01670150

2010/08/10 07:50
ENAL 100750Z 04010KT 9999 FEW010 BKN030 15/12 Q1010

2010/08/10 07:50
ENCN 100750Z 05002KT 9999 BKN014 15/13 Q1012

2010/08/10 07:50
ENHD 100750Z 12011KT 9999 FEW025 BKN059 16/12 Q1009

2010/08/10 07:50
ENRO 100750Z 00000KT 9999 -RA SCT002 BKN016 13/12 Q1011

2010/08/10 07:50
ENRY 100750Z 19011KT 9999 FEW014 18/12 Q1011 NOSIG

2010/08/10 07:50
ENSB 100750Z 26012KT 9999 FEW020 04/M01 Q1006 NOSIG 

2010/08/10 07:50
ENTC 100750Z 02008KT 9999 FEW009 SCT050 12/09 Q1011 TEMPO BKN014

2010/08/10 07:50
ENTO 100750Z 22013KT 9999 FEW005 18/10 Q1011

2010/08/10 07:55
KPWT 100755Z AUTO 19006KT 5SM OVC004 12/10 A2999 RMK AO1

2010/08/10 07:54
KRBL 100754Z AUTO 17003KT 10SM CLR 23/14 A2983 RMK AO2 SLP098 T02280144 403280167

2010/08/10 07:54
KRDG 100754Z AUTO 00000KT CLR 26/19 A2992 RMK AO2 SLP133 T02560194 $

2010/08/10 07:55
KRKD 100755Z AUTO 32004KT 10SM SCT060 BKN090 21/18 A2986 RMK AO1

2010/08/10 07:52
KRKR 100752Z AUTO 00000KT 10SM CLR 26/24 A2992 RMK AO2

2010/08/10 07:54
KRKS 100754Z AUTO 23006KT 10SM CLR 13/00 A3018 RMK AO2 SLP135 T01330000

2010/08/10 07:54
KAAO 100754Z AUTO 17009KT 10SM FEW100 28/20 A2990 RMK AO2 SLP104 T02830200

2010/08/10 07:55
KAIZ 100755Z AUTO 00000KT 10SM CLR 26/23 A2994 RMK AO1

2010/08/10 07:54
KAKH 100754Z AUTO 00000KT 6SM BR CLR 22/21 A3003 RMK AO2 SLP158 T02220211

2010/08/10 07:54
KAKR 100754Z AUTO 23005KT 10SM SCT070 24/19 A2996 RMK AO2 SLP135 T02440189

2010/08/10 07:54
KALO 100754Z 00000KT 7SM CLR 24/23 A2993 RMK AO2 LTG DSNT W RAB42E52 SLP127 P0000 T02440233

2010/08/10 07:54
KAPC 100754Z AUTO 30004KT 10SM OVC007 12/11 A2989 RMK AO2 SLP114 T01170106 402170111 $

2010/08/10 07:55
KARG 100755Z AUTO 15004KT 10SM CLR 26/23 A2993 RMK AO1

2010/08/10 07:55
KAUO 100755Z AUTO 10005KT 10SM CLR 26/20 A2997 RMK AO1

2010/08/10 07:54
KAUW 100754Z AUTO 00000KT 7SM CLR 20/19 A2998 RMK AO2 SLP147 T02000194

2010/08/10 07:54
KAVL 100754Z AUTO 00000KT 5SM BR OVC004 20/19 A3011 RMK AO2 SLP167 T02000194

2010/08/10 07:55
KAWO 100755Z AUTO 30004KT 10SM 14/14 A2996 RMK AO1

2010/08/10 07:54
KBFL 100754Z AUTO 35003KT 10SM CLR 24/06 A2983 RMK AO2 SLP093 T02390061 403390172

2010/08/10 07:55
KBHB 100755Z AUTO 00000KT 3SM BKN090 18/18 A2983 RMK AO1

2010/08/10 07:55
KBID 100755Z AUTO 29003KT 10SM FEW065 23/21 A2991 RMK AO1

2010/08/10 07:55
KBKX 100755Z AUTO 11007KT 10SM SCT015 BKN032 23/22 A2990 RMK AO1

2010/08/10 07:55
KBLM 100755Z AUTO 22007KT 10SM BKN060 24/19 A2995 RMK AO1

2010/08/10 07:54
KBOS 100754Z 18006KT 5SM -RA BR BKN070 OVC120 21/19 A2989 RMK AO2 TSE03 SLP121 P0003 T02060194

2010/08/10 07:55
KBTP 100755Z AUTO 00000KT 5SM CLR 21/18 A2999 RMK AO1

2010/08/10 07:54
KBUY 100754Z AUTO 00000KT 7SM CLR 24/21 A3001 RMK AO2 SLP154 T02390211

2010/08/10 07:55
KBVX 100755Z AUTO 13004KT 10SM CLR 29/24 A2993 RMK AO1

2010/08/10 07:54
KBWI 100754Z 21005KT 9SM FEW250 24/20 A2992 RMK AO2 SLP130 T02440200

2010/08/10 07:54
KCEU 100754Z AUTO 00000KT 6SM HZ SCT090 26/23 A3003 RMK AO2 SLP157 T02610233

2010/08/10 07:55
KCGZ 100755Z AUTO 27006KT 10SM FEW120 31/08 A2985 RMK AO1

2010/08/10 07:55
KCIU 100755Z AUTO 03006KT 1/2SM OVC002 20/19 A2997 RMK AO1

2010/08/10 07:55
KCOD 100755Z AUTO 19010G16KT 10SM CLR 17/06 A3000 RMK AO1

2010/08/10 07:55
KCOE 100755Z AUTO 16009KT 10SM CLR 17/08 A2982 RMK AO1

2010/08/10 07:55
KCVN 100755Z 21006KT 10SM SCT120 19/16 A3009 RMK AO1

2010/08/10 07:55
KCVO 100755Z AUTO 28009KT 10SM CLR 13/09 A3000 RMK AO1

2010/08/10 07:55
KCWI 100755Z 06005KT 6SM SCT030 BKN039 23/22 A2995 RMK AO1

2010/08/10 07:54
KDDH 100754Z AUTO 00000KT 1 1/2SM BR BKN008 OVC044 19/19 A2995 RMK AO2 SLP135 T01940189

2010/08/10 07:54
KDEC 100754Z AUTO 06005KT 10SM BKN110 25/21 A2994 RMK AO2 LTG DSNT E SLP132 T02500211

2010/08/10 07:54
KDSV 100754Z AUTO 16005KT 2 1/2SM BR FEW011 OVC050 22/21 A2996 RMK AO2 RAE54 SLP150 P0009 T02170206 $

2010/08/10 07:54
KDYL 100754Z AUTO 00000KT 10SM CLR 24/20 A2993 RMK AO2 SLP128 T02440200 TSNO

2010/08/10 07:55
KDYR 100755Z AUTO 00000KT 10SM CLR 26/23 A2995 RMK AO1

2010/08/10 07:55
KEEN 100755Z AUTO 17003KT 3SM FEW065 OVC080 20/19 A2991 RMK AO1

2010/08/10 07:55
KEGE 100755Z AUTO 00000KT 10SM OVC100 14/09 A3024 RMK AO1

2010/08/10 07:55
KEHR 100755Z AUTO 00000KT 7SM CLR 24/21 A2995 RMK AO1

2010/08/10 07:55
KENV 100755Z AUTO 00000KT 10SM CLR 18/08 A2998 RMK AO1

2010/08/10 07:55
KESC 100755Z AUTO 00000KT 3/4SM VV005 18/17 A2997 RMK AO1

2010/08/10 07:54
KEUG 100754Z 00000KT 10SM FEW040 13/10 A2999 RMK AO2 SLP156 T01280100 402330106

2010/08/10 07:55
KEUL 100755Z AUTO 18003KT 10SM CLR 19/11 A2985 RMK AO1

2010/08/10 07:54
KEVV 100754Z AUTO 00000KT 8SM CLR 25/23 A2995 RMK AO2 SLP137 T02500228

2010/08/10 07:55
KEWK 100755Z AUTO 18012G16KT 10SM SCT100 29/18 A2987 RMK AO1

2010/08/10 07:54
KEWN 100754Z AUTO 24003KT 10SM CLR 24/23 A3002 RMK AO2 SLP166 T02440233

2010/08/10 07:50
LIBD 100750Z 35007KT 300V030 CAVOK 27/13 Q1014

2010/08/10 07:45
LIBR 100745Z 32026KT CAVOK 26/20 Q1013 NOSIG

2010/08/10 07:50
LICC 100750Z VRB02KT CAVOK 28/15 Q1014

2010/08/10 07:50
LICJ 100750Z 35003KT CAVOK 26/20 Q1015

2010/08/10 07:50
LIPE 100750Z 30005KT 250V330 CAVOK 25/19 Q1015

2010/08/10 07:45
LIPH 100745Z 08007KT CAVOK 26/19 Q1016

2010/08/10 07:50
LIPK 100750Z VRB01KT CAVOK 25/17 Q1015

2010/08/10 07:50
LIPQ 100750Z 00000KT CAVOK 26/19 Q1015

2010/08/10 07:45
LIPR 100745Z 30004KT CAVOK 25/21 Q1015

2010/08/10 07:45
LIPX 100745Z 11001KT 9999 FEW040 27/18 Q1016

2010/08/10 07:50
LIPZ 100750Z 05005KT CAVOK 25/20 Q1016

2010/08/10 07:53
KBEH 100753Z AUTO 00000KT 7SM CLR 20/19 A2995 RMK AO2 SLP137 T02000194

2010/08/10 07:53
KBFD 100753Z AUTO 00000KT 2 1/2SM BR BKN080 OVC110 19/18 A3002 RMK AO2 SLP146 T01890183

2010/08/10 07:53
KBFI 100753Z 20005KT 10SM OVC017 15/12 A2997 RMK AO2 SLP147 T01500117 401940150

2010/08/10 07:53
KGIF 100753Z AUTO 10008KT 10SM CLR 26/23 A2991 RMK AO2 SLP126 T02560233 TSNO

2010/08/10 07:53
KGJT 100753Z AUTO 09005KT 10SM CLR 18/02 A3008 RMK AO2 SLP120 T01780022

2010/08/10 07:53
KGKJ 100753Z AUTO 00000KT 8SM BKN050 BKN080 23/18 A2998 RMK AO2 SLP138 T02330178

2010/08/10 07:53
KGKY 100753Z AUTO 20004KT 10SM CLR 27/21 A2989 RMK AO2 SLP112 T02720206

2010/08/10 07:53
KGLD 100753Z AUTO 31004KT 10SM FEW110 19/17 A3000 RMK AO2 TSE09RAE12 SLP106 P0001 T01940172

2010/08/10 07:53
KGLH 100753Z AUTO 18003KT 10SM CLR 24/23 A2993 RMK AO2 SLP139 T02440233

2010/08/10 07:53
KGLR 100753Z AUTO 29004KT 6SM BR OVC005 22/21 A3000 RMK AO2 CIG 003V009 SLP152 T02170206

2010/08/10 07:53
KGMU 100753Z AUTO 00000KT 9SM CLR 26/21 A3004 RMK AO2 SLP159 T02610211

2010/08/10 07:53
KGNV 100753Z AUTO 00000KT 10SM CLR 25/23 A2993 RMK AO2 SLP130 T02500233

2010/08/10 07:53
KGOK 100753Z AUTO 18006KT 10SM CLR 28/21 A2989 RMK AO2 SLP107 T02830206

2010/08/10 07:53
KGRB 100753Z AUTO 00000KT 1/4SM FG VV001 21/21 A2995 RMK AO2 SLP137 T02110206 TSNO RVRNO

2010/08/10 07:53
KGRI 100753Z AUTO 19007KT 10SM CLR 25/22 A2986 RMK AO2 SLP091 T02500222

2010/08/10 07:53
KGSH 100753Z AUTO 00000KT 3SM BR BKN042 22/21 A2997 RMK AO2 SLP144 T02220211

2010/08/10 07:53
KGSP 100753Z AUTO 00000KT 10SM CLR 24/22 A3002 RMK AO2 SLP151 T02440217

2010/08/10 07:53
KGTF 100753Z 19006KT 10SM CLR 16/09 A2986 RMK AO2 SLP078 T01610089

2010/08/10 07:53
KGUP 100753Z AUTO 00000KT 10SM CLR 13/11 A3024 RMK AO2 SLP090 T01330111

2010/08/10 07:53
KGUY 100753Z AUTO 18005KT 10SM CLR 23/17 A2998 RMK AO2 SLP095 T02280167

2010/08/10 07:53
KGVL 100753Z AUTO 04003KT 9SM FEW095 25/21 A3006 RMK AO2 SLP161 T02500211

2010/08/10 07:53
KGWO 100753Z AUTO 21003KT 7SM CLR 24/24 A2994 RMK AO2 SLP134 T02390239

2010/08/10 07:53
KHBR 100753Z AUTO 18008KT 10SM CLR 27/20 A2992 RMK AO2 SLP108 T02720200

2010/08/10 07:53
KHEI 100753Z AUTO 14007KT 10SM CLR 21/14 A2984 RMK AO2 SLP078 T02060139

2010/08/10 07:53
KHGR 100753Z AUTO 17003KT 7SM CLR 26/19 A2995 RMK AO2 SLP143 T02560194

2010/08/10 07:53
KHHR 100753Z AUTO 25004KT 10SM CLR 17/13 A2991 RMK AO2 SLP127 T01670133 402170161

2010/08/10 07:53
KHIB 100753Z AUTO 00000KT 1/4SM FG VV001 17/16 A2997 RMK AO2 SLP145 T01670161

2010/08/10 07:53
KHIO 100753Z AUTO 30005KT 10SM FEW040 13/10 A3000 RMK AO2 SLP156 T01280100 402000078 TSNO

2010/08/10 07:53
KHJO 100753Z AUTO 31009KT 10SM CLR 22/16 A2981 RMK AO2 SLP094 T02220156 403390150

2010/08/10 07:53
KHKA 100753Z AUTO 00000KT 4SM BR CLR 26/24 A2994 RMK AO2 SLP134 T02610244

2010/08/10 07:53
KHKS 100753Z AUTO 00000KT 10SM CLR 25/24 A2996 RMK AO2 SLP135 T02500239

2010/08/10 07:53
KHKY 100753Z AUTO 00000KT 7SM CLR 23/22 A3004 RMK AO2 SLP147 T02330222

2010/08/10 07:53
KHLG 100753Z AUTO 16003KT 4SM BR SCT050 BKN100 22/19 A2999 RMK AO2 SLP146 T02170194

2010/08/10 07:53
KDFW 100753Z 21007KT 10SM FEW250 30/20 A2988 RMK AO2 SLP108 T03000200

2010/08/10 07:53
KDGW 100753Z AUTO 16005KT 10SM CLR 15/13 A3001 RMK AO2 SLP099 T01500133

2010/08/10 07:53
KDHN 100753Z AUTO 07003KT 10SM CLR 24/22 A2998 RMK AO2 SLP146 T02440222

2010/08/10 07:53
KDHT 100753Z AUTO 22006KT 10SM CLR 21/18 A3005 RMK AO2 SLP107 T02060178

2010/08/10 07:53
KDKK 100753Z AUTO 22005KT 4SM BR FEW047 BKN060 OVC075 22/21 A2996 RMK AO2 SLP140 T02220206 $

2010/08/10 07:53
KDLN 100753Z AUTO 18010KT 10SM SCT100 13/06 A3002 RMK AO2 SLP121 T01330061

2010/08/10 07:53
KDLS 100753Z AUTO 31008KT 10SM CLR 18/09 A2989 RMK AO2 SLP118 T01830089 402720167

2010/08/10 07:53
KDMO 100753Z AUTO 18006KT 10SM CLR 27/24 A2991 RMK AO2 SLP117 T02670239

2010/08/10 07:53
KDNL 100753Z AUTO 00000KT CLR 25/22 A3000 RMK AO2 SLP154 T02500222 $

2010/08/10 07:53
KDRO 100753Z AUTO 00000KT 10SM OVC100 13/06 A3024 RMK AO2 SLP151 T01330061

2010/08/10 07:53
KELZ 100753Z AUTO 00000KT 1/4SM FG BKN001 OVC008 19/19 A3003 RMK AO2

2010/08/10 07:54
KEAU 100754Z AUTO 04004KT 2 1/2SM BR CLR 21/20 A2994 RMK AO2

2010/08/10 07:53
KBPK 100753Z AUTO 00000KT 8SM CLR 27/24 A2994 RMK AO2 SLP126 T02670239

2010/08/10 07:53
KBRD 100753Z AUTO 00000KT 1/2SM FG CLR 20/18 A2995 RMK AO2 SLP136 T02000183

2010/08/10 07:53
KBRL 100753Z AUTO 00000KT 10SM CLR 26/24 A2990 RMK AO2 SLP117 T02610239

2010/08/10 07:53
KBTL 100753Z AUTO 00000KT 5SM BR CLR 21/20 A2999 RMK AO2 SLP148 T02060200

2010/08/10 07:53
KBTM 100753Z AUTO 32004KT 10SM OVC095 13/10 A3003 RMK AO2 RAE22 SLP116 P0000 T01280100

2010/08/10 07:53
KBUR 100753Z AUTO 11006KT 7SM CLR 16/13 A2990 RMK AO2 SLP115 T01610133 402670139 TSNO

2010/08/10 07:53
KBVO 100753Z AUTO 00000KT 10SM CLR 24/21 A2990 RMK AO2 SLP113 T02390211

2010/08/10 07:53
KBWG 100753Z AUTO 00000KT 9SM FEW095 BKN110 27/24 A2997 RMK AO2 SLP141 T02670239

2010/08/10 07:53
KBYG 100753Z AUTO 27005KT 10SM 14/11 A3000 RMK AO2 SLP097 T01390106 $

2010/08/10 07:53
KBYI 100753Z AUTO 09005KT 10SM FEW085 14/11 A2994 RMK AO2 SLP106 T01440111

2010/08/10 07:53
KCAG 100753Z AUTO 00000KT 10SM CLR 08/07 A3019 RMK AO2 SLP169 T00830072

2010/08/10 07:53
KCCR 100753Z AUTO 00000KT 10SM CLR 13/09 A2988 RMK AO2 SLP104 T01330089 402720133

2010/08/10 07:53
KCDC 100753Z AUTO 13008KT 10SM CLR 16/02 A3012 RMK AO2 SLP128 T01560022

2010/08/10 07:55
KCDN 100755Z AUTO 00000KT 8SM FEW011 24/24 A3002 RMK A02 P000

2010/08/10 07:53
KCDS 100753Z AUTO 23005KT 10SM CLR 24/19 A2996 RMK AO2 TSB0655E12 SLP113 T02390194

2010/08/10 07:53
KCDW 100753Z AUTO 00000KT 8SM FEW090 25/19 A2993 RMK AO2 RAB07E20 SLP138 P0000 T02500189 TSNO $

2010/08/10 07:53
KABR 100753Z AUTO 15003KT 10SM CLR 23/21 A2986 RMK AO2 SLP099 T02280211

2010/08/10 07:53
KABY 100753Z 09005KT 10SM CLR 26/24 A2997 RMK AO2 SLP147 T02560239

2010/08/10 07:53
KACV 100753Z AUTO 16006KT 9SM OVC005 11/11 A2994 RMK AO2 SLP142 T01110106 401440111

2010/08/10 07:53
KADG 100753Z AUTO 26003KT 3/4SM BR BKN001 OVC009 21/19 A2998 RMK AO2 SLP147 T02110194

2010/08/10 07:53
KAFW 100753Z 22004KT 10SM CLR 28/20 A2989 RMK AO2 SLP102 T02830200 $

2010/08/10 07:53
KAGS 100753Z AUTO 00000KT 3SM BR CLR 22/22 A2999 RMK AO2 SLP152 T02220217 TSNO

2010/08/10 07:53
KAIA 100753Z AUTO 19007KT 10SM CLR 17/16 A2999 RMK AO2 SLP107 T01720156

2010/08/10 07:53
KAKO 100753Z AUTO 33006KT 10SM OVC110 17/16 A3004 RMK AO2 SLP112 T01670161 TSNO

2010/08/10 07:53
KALW 100753Z AUTO 20008KT 10SM CLR 18/08 A2988 RMK AO2 SLP112 T01830078 403060161

2010/08/10 07:53
KAMA 100753Z AUTO 20010KT 10SM CLR 21/17 A3005 RMK AO2 SLP117 T02060172

2010/08/10 07:53
KAMG 100753Z AUTO 00000KT 10SM CLR 24/23 A2997 RMK AO2 SLP145 T02440233

2010/08/10 07:53
KAMW 100753Z AUTO 07003KT 10SM VCTS CLR 22/21 A2991 RMK AO2 LTG DSNT ALQDS TSE0657B03E10B13RAB0655E09 SLP119 P0000 T02220211

2010/08/10 07:53
KANB 100753Z AUTO 00000KT 6SM BR CLR 24/22 A2999 RMK AO2 SLP142 T02440222

2010/08/10 07:53
KAOH 100753Z AUTO 00000KT 4SM BR CLR 22/21 A2997 RMK AO2 SLP141 T02220211

2010/08/10 07:53
KAOO 100753Z AUTO 00000KT 8SM BKN120 21/18 A3000 RMK AO2 SLP146 T02060178

2010/08/10 07:53
KAPA 100753Z 27007KT 10SM SCT120 17/12 A3015 RMK AO2 SLP138 T01720122

2010/08/10 07:53
KAPF 100753Z AUTO 07007KT 10SM FEW006 25/24 A2984 RMK AO2 SLP105 T02500239

2010/08/10 07:53
KARB 100753Z AUTO 00000KT 1/4SM FG BKN001 OVC006 19/19 A2995 RMK AO2 SLP138 T01940194

2010/08/10 07:53
KASE 100753Z AUTO 21005KT 10SM SCT080 OVC100 09/07 A3031 RMK AO2 SLP168 T00940072

2010/08/10 07:53
KASX 100753Z AUTO 00000KT 1 1/2SM BR CLR 18/18 A2996 RMK AO2 SLP143 P0001 T01830183

2010/08/10 07:53
KATY 100753Z AUTO 12003KT 10SM SCT021 SCT026 24/22 A2988 RMK AO2 SLP103 T02390222

2010/08/10 07:53
KAWM 100753Z AUTO 00000KT 10SM CLR 26/25 A2991 RMK AO2 SLP123 T02610250

2010/08/10 07:53
KAXN 100753Z AUTO 13005KT 8SM CLR 22/21 A2995 RMK AO2 SLP133 T02220206 $

2010/08/10 07:53
KAZO 100753Z AUTO 00000KT 1 1/4SM BR CLR 21/21 A2997 RMK AO2 SLP145 T02110206

2010/08/10 07:53
KBCE 100753Z AUTO 27008KT 10SM CLR 07/03 A3028 RMK AO2 SLP150 T00670028

2010/08/10 07:53
KBDE 100753Z AUTO 00000KT 10SM CLR 21/19 A2992 RMK AO2 SLP128 T02060194

2010/08/10 07:53
PHJR 100753Z AUTO 07004KT 10SM CLR 25/17 A3011 RMK AO2 SLP202 T02500172 TSNO

2010/08/10 07:53
PHJR 100753Z AUTO 07004KT 10SM CLR 25/17 A3011 RMK AO2 SLP202 T02500172 TSNO

2010/08/10 07:50
KEFD 100750Z 00000KT 10SM FEW250 27/25 A2993

2010/08/10 07:54
PHMK 100754Z AUTO 05011G21KT 10SM FEW044 24/19 A3011 RMK AO2 RAB22E32 SLP198 P0000 T02390189 TSNO

2010/08/10 07:53
PASC 100753Z 05014KT 1 1/2SM BR OVC003 03/03 A2974 RMK AO2 SLP072 T00330028

2010/08/10 07:53
PASI 100753Z 00000KT 10SM FEW005 BKN027 OVC031 13/12 A3000 RMK AO2 RAB0655E25 SLP160 P0000 T01280122

2010/08/10 07:53
PASO 100753Z AUTO 17004KT 10SM OVC047 13/09 A2975 RMK AO2 SLP073 T01280094 TSNO

2010/08/10 07:53
PATO 100753Z AUTO 10013G21KT 4SM -RA BR BKN035 OVC044 12/11 A2982 RMK AO2 PK WND 08026/0728 SLP098 P0001 T01220106 TSNO

2010/08/10 07:53
PAVL 100753Z AUTO 07013KT 6SM -RA BR BKN065 OVC075 12/11 A2948 RMK AO2 SLP982 P0001 T01220111 TSNO

2010/08/10 07:53
PAWD 100753Z AUTO A2983 RMK AO2 SLP103 PWINO FZRANO TSNO $

2010/08/10 07:53
PAAQ 100753Z AUTO 18003KT 10SM BKN008 OVC014 12/11 A2979 RMK AO2 CIG 006V011 SLP084 T01170106 TSNO

2010/08/10 07:53
PABR 100753Z 07019KT 10SM OVC002 02/02 A2985 RMK AO2 SLP110 P0000 T00220022 $

2010/08/10 07:53
PACV 100753Z 00000KT 10SM SCT010 OVC021 12/12 A2991 RMK AO2 SLP130 T01220117

2010/08/10 07:53
PADE 100753Z AUTO 00000KT 10SM -RA BKN036 BKN050 OVC065 12/11 A2944 RMK AO2 RAB10 SLP969 P0002 T01220111 TSNO

2010/08/10 07:53
PAEG 100753Z AUTO 00000KT 10SM CLR 11/07 A2963 RMK AO2 SLP035 T01060072 TSNO

2010/08/10 07:53
PAEN 100753Z AUTO 00000KT 9SM -RA OVC040 13/12 A2977 RMK AO2 RAB06E34B52 SLP082 P0001 T01280117 TSNO

2010/08/10 07:53
PAGY 100753Z AUTO 21015G21KT 10SM OVC046 14/10 A2994 RMK AO2 SLP138 T01440100 TSNO

2010/08/10 07:53
PAIL 100753Z AUTO 10012G18KT 10SM OVC033 12/09 A2967 RMK AO2 SLP047 T01220089 TSNO

2010/08/10 07:53
PAKT 100753Z AUTO 14003KT 10SM OVC011 13/12 A3003 RMK AO2 SLP170 T01280117 TSNO

2010/08/10 07:53
PAKV 100753Z AUTO 00000KT 10SM SCT031 BKN040 OVC090 12/11 A2956 RMK AO2 SLP013 T01170111 TSNO

2010/08/10 07:53
PAKW 100753Z AUTO 00000KT 4SM BR BKN012 OVC017 12/12 A3001 RMK AO2 SLP161 P0001 T01220117 TSNO

2010/08/10 07:53
PALH 100753Z 00000KT 10SM OVC007 13/11 A2978 RMK AO2 RAE29 CIG 006V012 SLP086 P0000 T01280106

2010/08/10 07:53
PAMR 100753Z 00000KT 10SM FEW008 BKN022 OVC050 12/11 A2977 RMK AO2 RAB0655E43 SLP081 P0000 T01220106

2010/08/10 07:53
PAPB 100753Z AUTO 25005KT 1/2SM FG VV001 08/08 A2946 RMK AO2 SLP963 T00780078 TSNO

2010/08/10 07:53
KBAF 100753Z 00000KT 4SM -RA BR FEW070 SCT100 22/21 A2992 RMK AO2 SLP127 P0000 T02220211

2010/08/10 07:53
KTOI 100753Z AUTO 00000KT 7SM CLR 24/23 A2995 RMK AO2 SLP137 T02440228

2010/08/10 07:53
TIST 100753Z AUTO 10006KT 10SM FEW028 OVC090 28/24 A2992 RMK AO2 SLP133 T02830244 TSNO

2010/08/10 07:53
TISX 100753Z AUTO 07004KT 10SM CLR 27/24 A2992 RMK AO2 SLP130 P0001 T02670244 TSNO

2010/08/10 07:55
KHNB 100755Z AUTO 00000KT 7SM FEW070 24/23 A2996 RMK AO1

2010/08/10 07:54
KHWD 100754Z AUTO 00000KT 10SM OVC009 14/11 A2991 RMK AO2 SLP136 T01390111 402170139

2010/08/10 07:55
KHYI 100755Z AUTO 22005KT 10SM CLR A2993 RMK AO1

2010/08/10 07:55
KHYS 100755Z AUTO 13006KT 10SM CLR 25/17 A2987 RMK AO1

2010/08/10 07:55
KILE 100755Z AUTO 18004KT 10SM CLR 26/22 A2992 RMK AO1

2010/08/10 07:54
KILN 100754Z AUTO 00000KT 7SM BKN110 23/21 A2998 RMK AO2 SLP138 T02280211

2010/08/10 07:54
KIMT 100754Z AUTO 00000KT 8SM BKN002 18/17 A2998 RMK AO2 SLP147 T01780172

2010/08/10 07:54
KIND 100754Z 24003KT 9SM BKN120 OVC250 26/23 A2995 RMK AO2 SLP131 T02610228

2010/08/10 07:54
KINT 100754Z AUTO 23003KT 10SM CLR 26/21 A3004 RMK AO2 SLP158 T02560206

2010/08/10 07:54
KIPT 100754Z AUTO 00000KT 9SM CLR 22/19 A2994 RMK AO2 SLP132 T02220189

2010/08/10 07:54
KISW 100754Z AUTO 00000KT 1 1/4SM BR CLR 20/20 A2997 RMK AO2 SLP142 T02000200 TSNO $

2010/08/10 07:55
KIWD 100755Z AUTO 00000KT 1/2SM VV005 17/16 A2996 RMK AO1

2010/08/10 07:54
KIZG 100754Z AUTO 00000KT 8SM CLR 18/18 A2989 RMK AO2 SLP120 T01830178

2010/08/10 07:55
KJAC 100755Z 11004KT 10SM CLR 08/05 A3016 RMK AO1

2010/08/10 07:53
KDTN 100753Z AUTO 13004KT 10SM CLR 28/24 A2992 RMK AO2 SLP127 T02780239

2010/08/10 07:53
KDTO 100753Z AUTO 00000KT 10SM CLR 27/20 A2989 RMK AO2 SLP110 T02720200

2010/08/10 07:53
KDTW 100753Z 00000KT 4SM OVC011 22/21 A2996 RMK AO2 SLP139 T02170206 $

2010/08/10 07:53
KDVT 100753Z 00000KT 10SM CLR 29/11 A2983 RMK AO2 SLP072 T02940111

2010/08/10 07:53
KDXR 100753Z AUTO 00000KT 7SM -RA BKN040 BKN055 23/19 A2996 RMK AO2 RAB36 SLP140 P0000 T02280194

2010/08/10 07:55
KDYB 100755Z AUTO 00000KT 10SM CLR 24/24 A2999 RMK AO1

2010/08/10 07:53
KECP 100753Z 03004KT 7SM CLR 26/24 A2990 RMK AO2 SLP135 T02560239

2010/08/10 07:53
KEEO 100753Z AUTO 09005KT 10SM CLR 10/06 A3021 RMK AO2 SLP163 T01000061 TSNO

2010/08/10 07:53
KEET 100753Z AUTO 00000KT 6SM BR CLR 26/24 A2996 RMK AO2 SLP138 T02560239

2010/08/10 07:53
KELD 100753Z AUTO 00000KT 10SM CLR 26/24 A2992 RMK AO2 SLP127 T02610239

2010/08/10 07:53
KELM 100753Z AUTO 00000KT 2 1/2SM BR FEW004 BKN070 OVC085 21/21 A2996 RMK AO2 RAB0657E13 SLP138 P0000 T02110206 $

2010/08/10 07:53
KELN 100753Z AUTO 32012KT 10SM CLR 16/09 A2986 RMK AO2 SLP101 T01560089 402610150

2010/08/10 07:53
KENW 100753Z AUTO 00000KT 1 1/4SM BR CLR 20/19 A2994 RMK AO2 SLP134 T02000194

2010/08/10 07:53
KEPH 100753Z AUTO 34011KT 10SM SCT090 18/09 A2980 RMK AO2 SLP083 T01830094 403000150

2010/08/10 07:53
KEQY 100753Z AUTO 00000KT 8SM CLR 23/22 A3003 RMK AO2 SLP163 T02280217

2010/08/10 07:53
KEYE 100753Z AUTO 00000KT 9SM CLR 27/22 A2996 RMK AO2 SLP135 T02670222

2010/08/10 07:53
KFAY 100753Z AUTO 00000KT 10SM SCT007 BKN100 24/23 A3001 RMK AO2 SLP154 T02390228

2010/08/10 07:53
KLBF 100753Z AUTO 07004KT 10SM CLR 19/19 A2992 RMK AO2 TSE00RAE03 SLP102 P0000 T01940189

2010/08/10 07:53
KLGB 100753Z AUTO 32004KT 7SM CLR 16/13 A2990 RMK AO2 SLP126 T01610133 402440156 TSNO

2010/08/10 07:53
KLHQ 100753Z AUTO 12003KT 7SM CLR 21/19 A2997 RMK AO2 SLP141 T02110194

2010/08/10 07:53
KLHX 100753Z AUTO 19004KT 10SM CLR 19/16 A3004 RMK AO2 SLP109 T01890161 $

2010/08/10 07:55
KLKR 100755Z AUTO 00000KT 2SM BR CLR 21/21 A3002 RMK AO2

2010/08/10 07:53
KLLQ 100753Z AUTO 00000KT 10SM CLR 27/23 A2995 RMK AO2 SLP136 T02670233

2010/08/10 07:53
KLMT 100753Z AUTO 00000KT 10SM FEW090 14/04 A2999 RMK AO2 SLP117 T01390044 402830089

2010/08/10 07:53
KLNS 100753Z AUTO 00000KT 8SM CLR 24/19 A2993 RMK AO2 SLP130 T02390194

2010/08/10 07:53
KLOL 100753Z AUTO VRB03KT 10SM CLR 22/M01 A2993 RMK AO2 SLP088 T02221006 403500111

2010/08/10 07:53
KLOU 100753Z AUTO 00000KT 10SM CLR 28/24 A2996 RMK AO2 SLP137 T02780239

2010/08/10 07:53
KLOZ 100753Z AUTO 00000KT 5SM BR CLR 23/22 A3002 RMK AO2 SLP149 T02280217

2010/08/10 07:53
KLPR 100753Z AUTO 23005KT 6SM HZ FEW050 23/20 A2996 RMK AO2 SLP138 T02330200

2010/08/10 07:53
KLSE 100753Z AUTO 00000KT 3/4SM BR OVC002 23/23 A2993 RMK AO2 SLP121 T02280228

2010/08/10 07:53
KLUK 100753Z AUTO 00000KT 3SM BR CLR 23/22 A2997 RMK AO2 SLP142 T02280222

2010/08/10 07:53
KLVK 100753Z AUTO 29005KT 10SM CLR 13/11 A2989 RMK AO2 SLP119 T01280106 402830122 $

2010/08/10 07:53
KLVM 100753Z AUTO 29012KT 10SM CLR 14/08 A2998 RMK AO2 SLP103 T01390083

2010/08/10 07:53
KLVS 100753Z AUTO 07003KT 10SM CLR 13/12 A3025 RMK AO2 SLP132 T01330122

2010/08/10 07:53
KLXT 100753Z AUTO 19008KT 10SM CLR 29/22 A2990 RMK AO2 SLP110 T02940217

2010/08/10 07:53
KMAE 100753Z AUTO 28005KT 10SM CLR 19/16 A2982 RMK AO2 SLP094 T01890156 403280139

2010/08/10 07:53
KMAF 100753Z AUTO 14004KT 10SM CLR 21/19 A3000 RMK AO2 SLP110 T02110194

2010/08/10 07:53
KMAI 100753Z AUTO 05003KT 8SM CLR 25/22 A2992 RMK AO2 SLP130 T02500222 $

2010/08/10 07:53
KMBS 100753Z 34007KT 10SM CLR 22/21 A2996 RMK AO2 SLP140 T02220211

2010/08/10 07:53
KMCE 100753Z AUTO 31007KT 10SM CLR 20/14 A2982 RMK AO2 SLP095 T02000139 403220144

2010/08/10 07:53
KMCI 100753Z 18006KT 10SM CLR 26/22 A2988 RMK AO2 SLP104 T02560222 $

2010/08/10 07:53
KMCK 100753Z AUTO 14003KT 10SM CLR 21/19 A2994 RMK AO2 LTG DSNT W SLP110 T02060189

2010/08/10 07:53
KMCO 100753Z 09006KT 10SM FEW028 25/23 A2992 RMK AO2 SLP129 T02500228

2010/08/10 07:50
BGBW 100750Z AUTO 07004KT 4100NDV BR FEW001/// BKN003/// BKN005/// 08/08 Q1009

2010/08/10 07:50
BGGH 100750Z 21007KT 0200 RA FG VV002 09/08 Q1007

2010/08/10 07:50
BGJN 100750Z AUTO 36003KT 9999NDV SCT019/// OVC025/// 07/04 Q1008

2010/08/10 07:50
BGKK 100750Z 08019KT 9999 DZ VCFG FEW010 SCT035 BKN060 07/05 Q1012

2010/08/10 07:50
BGCO 100750Z 17002KT 9999 FEW180 06/01 Q1013

2010/08/10 07:50
BGSS 100750Z AUTO 14001KT 9999NDV ///075/// 09/09 Q1006 RMK /// 

2010/08/10 07:50
BGAA 100750Z AUTO 32001KT 0200NDV FG VV003/// 06/05 Q1008

2010/08/10 07:50
BGMQ 100750Z AUTO 32010KT 9999NDV FEW001/// SCT120/// BKN200/// 09/08 Q1005

2010/08/10 07:50
BGUK 100750Z AUTO 35004KT 310V020 0100NDV -SN FG NCD 04/04 Q1009 RESN

2010/08/10 07:50
BGQQ 100750Z AUTO 33002KT 9999NDV NCD 03/03 Q1010

2010/08/10 07:50
BGPT 100750Z AUTO 13003KT //// FEW110/// OVC200/// 09/09 Q1007

2010/08/10 07:52
KNRB 100752Z AUTO 14010KT 10SM CLR 28/22 A2995 RMK AO2 SLP140 T02830222

2010/08/10 07:52
KNFW 100752Z AUTO 19004KT 10SM CLR 28/19 A2993 RMK AO2 SLP120 T02830194

2010/08/10 07:55
KBLV 100755Z AUTO 00000KT 7SM R14R/5000V5500FT CLR 26/26 A2991 RMK AO2 SLP126 T02610258

2010/08/10 07:55
KLRF 100755Z AUTO 00000KT 10SM CLR 28/26 A2992 RMK AO2 SLP128 T02790258

2010/08/10 07:55
KMGE 100755Z AUTO 08003KT 10SM CLR 26/22 A3002 RMK AO2 SLP153 T02590215 $

2010/08/10 07:55
KRDR 100755Z AUTO 19005KT 10SM CLR 21/20 A2989 RMK AO2 SLP132 T02080202 $

2010/08/10 07:53
PHNL 100753Z 06011KT 10SM SCT042 26/18 A3010 RMK AO2 SLP193 T02560178

2010/08/10 07:53
KDTS 100753Z AUTO 35006KT 9SM CLR 28/24 A2989 RMK AO2 SLP121 T02780239

2010/08/10 07:53
KIAG 100753Z AUTO 00000KT 3SM BR FEW045 OVC055 22/21 A2994 RMK AO2 SLP132 T02170206

2010/08/10 07:53
KDNK 100753Z AUTO 00000KT 10SM CLR 26/23 A2992 RMK AO2 SLP127 T02560228

2010/08/10 07:53
KNIP 100753Z 12008KT 10SM SCT020 27/24 A2995 RMK AO2 SLP137 T02720239

2010/08/10 07:53
KNQX 100753Z AUTO 19008KT 10SM -TSRA FEW014 SCT026 27/24 A2983 RMK AO2 TSB42RAB50 SLP101 P0001 T02720244 $

2010/08/10 07:55
KCEF 100755Z AUTO 24005KT 10SM SCT060 BKN080 22/21 A2991 RMK AO2 RAE0720DZB0734E0749 SLP130 P0000 T02170209 $

2010/08/10 07:55
KGRF 100755Z AUTO 18007KT 10SM OVC011 14/11 A2997 RMK AO2 CIG 010V014 SLP151 T01350110 401870133

2010/08/10 07:55
KHMN 100755Z 32004KT 10SM CLR 21/12 A3002 RMK AO2A SLP081 T02110119 $

2010/08/10 07:55
KHST 100755Z AUTO 14006KT 10SM FEW050 27/24 A2987 RMK AO2 SLP117 T02680235

2010/08/10 07:55
KMMT 100755Z AUTO 00000KT 7SM R32/4000VP6000FT CLR 23/23 A3001 RMK AO2 SLP160 T02340230

2010/08/10 07:52
KNHK 100752Z AUTO 21008KT 10SM CLR 26/21 A2994 RMK AO2 SLP140 T02560211 $

2010/08/10 07:55
KSZL 100755Z AUTO 17005KT 10SM CLR 27/25 A2990 RMK AO2 SLP114 T02670246 PNO $

2010/08/10 07:53
PHNL 100753Z 06011KT 10SM SCT042 26/18 A3010 RMK AO2 SLP193 T02560178

2010/08/10 07:55
KBLV 100755Z AUTO 00000KT 7SM R14R/5000V5500FT CLR 26/26 A2991 RMK AO2 SLP126 T02610258

2010/08/10 07:55
KCEF 100755Z AUTO 24005KT 10SM SCT060 BKN080 22/21 A2991 RMK AO2 RAE0720DZB0734E0749 SLP130 P0000 T02170209 $

2010/08/10 07:55
KGRF 100755Z AUTO 18007KT 10SM OVC011 14/11 A2997 RMK AO2 CIG 010V014 SLP151 T01350110 401870133

2010/08/10 07:55
KHMN 100755Z 32004KT 10SM CLR 21/12 A3002 RMK AO2A SLP081 T02110119 $

2010/08/10 07:55
KHST 100755Z AUTO 14006KT 10SM FEW050 27/24 A2987 RMK AO2 SLP117 T02680235

2010/08/10 07:55
KLRF 100755Z AUTO 00000KT 10SM CLR 28/26 A2992 RMK AO2 SLP128 T02790258

2010/08/10 07:55
KMGE 100755Z AUTO 08003KT 10SM CLR 26/22 A3002 RMK AO2 SLP153 T02590215 $

2010/08/10 07:55
KMMT 100755Z AUTO 00000KT 7SM R32/4000VP6000FT CLR 23/23 A3001 RMK AO2 SLP160 T02340230

2010/08/10 07:53
PABI 100753Z AUTO 20012KT 10SM SCT095 16/06 A2967 RMK AO2 SLP043 T01610061 TSNO

2010/08/10 07:54
KRSP 100754Z AUTO 32003KT 7SM CLR 23/19 A3001 RMK AO2 SLP150 T02280189 $

2010/08/10 07:54
KNKT 100754Z AUTO 21003KT 10SM CLR 24/23 A3002 RMK AO2 SLP162 T02440233

2010/08/10 07:55
KBAD 100755Z AUTO 14004KT 10SM CLR 26/23 A2993 RMK AO2 SLP133 T02570231

2010/08/10 07:55
KDAA 100755Z AUTO 00000KT 10SM CLR 23/21 A2994 RMK AO2 SLP141 T02310209

2010/08/10 07:53
KDTS 100753Z AUTO 35006KT 9SM CLR 28/24 A2989 RMK AO2 SLP121 T02780239

2010/08/10 07:55
KEDW 100755Z AUTO 16006KT 10SM CLR 19/M00 A2989 RMK AO2 SLP074 T01851000 403450138

2010/08/10 07:55
KGUS 100755Z AUTO 00000KT 9SM R23/5500VP6000FT CLR 23/23 A2996 RMK AO2 SLP139 T02270227

2010/08/10 07:55
KIAB 100755Z AUTO 17007KT 10SM FEW100 28/21 A2990 RMK AO2 SLP108 T02810207 $

2010/08/10 07:55
KMTC 100755Z AUTO 00000KT 3/4SM R19/0700VP6000FT DZ BR CLR 20/20 A2995 RMK AO2 SLP144 P0000 T02050205 $

2010/08/10 07:55
KOFF 100755Z AUTO 15005KT 10SM CLR 26/25 A2984 RMK AO2 SLP084 T02640253 $

2010/08/10 07:55
KSUU 100755Z AUTO 25021KT 10SM CLR 13/11 A2982 RMK AO2 PK WND 25027/0742 SLP101 T01290112 402770128 RVRNO $

2010/08/10 07:54
KECG 100754Z AUTO 23005KT 8SM CLR 23/23 A2998 RMK AO2 SLP153 T02330233

2010/08/10 07:55
KFAM 100755Z AUTO 00000KT 10SM CLR 26/24 A2997 RMK AO1

2010/08/10 07:54
KFIG 100754Z AUTO 34003KT 8SM OVC100 19/17 A3000 RMK AO2 SLP147 T01940172

2010/08/10 07:55
KFKL 100755Z AUTO 12003KT 10SM OVC100 21/19 A3001 RMK AO1

2010/08/10 07:55
KFLP 100755Z AUTO 00000KT 7SM CLR 26/24 A2994 RMK AO1

2010/08/10 07:55
KFNL 100755Z AUTO 24003KT 10SM CLR 16/14 A3010 RMK AO1

2010/08/10 07:55
KFOD 100755Z AUTO 13005KT 10SM TS FEW013 SCT070 24/24 A2992 RMK AO1 LTG DSNT ALQDS P0024

2010/08/10 07:55
KFRM 100755Z 11006KT 9SM CLR 23/22 A2993 RMK AO1

2010/08/10 07:55
KGAD 100755Z AUTO 00000KT 10SM CLR 24/23 A2998 RMK AO1

2010/08/10 07:55
KGAI 100755Z 00000KT 8SM CLR 24/21 A2997 RMK AO1

2010/08/10 07:55
KGBD 100755Z AUTO 18007KT 10SM CLR 27/18 A2987 RMK AO1

2010/08/10 07:54
KGCK 100754Z 04003KT 10SM CLR 24/18 A2996 RMK AO2 SLP102 T02390178

2010/08/10 07:54
KGCN 100754Z AUTO 00000KT 10SM CLR 08/07 A3023 RMK AO2 SLP153 T00830067

2010/08/10 07:55
KGDV 100755Z AUTO 34017G24KT 10SM CLR 19/15 A2980 RMK AO1

2010/08/10 07:54
KGED 100754Z AUTO 20004KT 7SM CLR 23/22 A2996 RMK AO2 SLP143 T02330222

2010/08/10 07:55
KGTR 100755Z 00000KT 3SM CLR 24/24 A2995 RMK AO1

2010/08/10 07:55
KGTU 100755Z 19007KT 10SM CLR 28/21 A2997 RMK AO1

2010/08/10 07:55
KGUC 100755Z AUTO 00000KT 10SM CLR 10/01 A3035 RMK AO1

2010/08/10 07:55
KGXY 100755Z AUTO 00000KT 10SM CLR 16/14 A3009 RMK AO1

2010/08/10 07:55
KHDN 100755Z 11011KT 10SM CLR 11/07 A3021 RMK AO1

2010/08/10 07:55
KHEF 100755Z AUTO 00000KT 7SM 23/21 A2995 RMK AO1

2010/08/10 07:55
KHEZ 100755Z AUTO 10003KT 7SM CLR 24/22 A2995 RMK AO1

2010/08/10 07:54
KRST 100754Z AUTO 12003KT 6SM BR CLR 22/22 A2996 RMK AO2 SLP134 T02220217

2010/08/10 07:55
KRUT 100755Z 00000KT 5SM BKN022 OVC031 21/19 A2994 RMK AO1

2010/08/10 07:54
KSBY 100754Z AUTO 20003KT 6SM BR CLR 23/22 A2996 RMK AO2 SLP145 T02280222 $

2010/08/10 07:55
KSDY 100755Z AUTO 32011KT 10SM CLR 21/17 A2981 RMK AO1

2010/08/10 07:54
KSET 100754Z AUTO 14003KT 5SM BR CLR 26/25 A2989 RMK AO2 SLP115 T02610250

2010/08/10 07:55
KSFM 100755Z 26003KT 8SM BKN120 21/19 A2989 RMK AO1 P0001

2010/08/10 07:55
KSFZ 100755Z 00000KT 2 1/2SM FEW047 SCT070 BKN080 21/20 A2991 RMK AO1 P0001

2010/08/10 07:55
KSGT 100755Z 22003KT CLR 28/25 A2992 RMK AO1

2010/08/10 07:55
KSGU 100755Z AUTO 00000KT 10SM CLR 24/03 A2996 RMK AO1

2010/08/10 07:54
KSJN 100754Z AUTO 16004KT 10SM CLR 17/12 A3018 RMK AO2 SLP127 T01720117 $

2010/08/10 07:55
KSKX 100755Z AUTO 00000KT 10SM CLR 14/06 A3027 RMK AO1

2010/08/10 07:55
KSLG 100755Z AUTO 00000KT 10SM CLR 24/21 A2997 RMK AO1

2010/08/10 07:55
KSMN 100755Z AUTO 27006KT 10SM VCTS FEW024 FEW060 OVC090 14/11 A3009 RMK AO1 LTG DSNT SW TSB51 P0011

2010/08/10 07:55
KSQI 100755Z AUTO 08004KT 8SM FEW050 23/22 A2994 RMK AO1

2010/08/10 07:55
KSUE 100755Z AUTO 00000KT 1 3/4SM CLR 21/20 A2995 RMK AO1

2010/08/10 07:54
KTAD 100754Z AUTO 31007KT 10SM CLR 17/13 A3012 RMK AO2 SLP124 T01670128

2010/08/10 07:55
KTPL 100755Z 19009KT 10SM CLR 27/23 A2993 RMK AO1

2010/08/10 07:54
KTQE 100754Z AUTO 13003KT 3SM BR CLR 25/24 A2982 RMK AO2 SLP084 T02500244

2010/08/10 07:55
KTVF 100755Z AUTO 16004KT 10SM CLR 19/17 A2992 RMK AO1

2010/08/10 07:56
KUCP 100756Z AUTO 00000KT 10SM SCT046 23/19 A2998 RMK AO2 T02270188 SLP156

2010/08/10 07:54
KUIN 100754Z AUTO 19004KT 10SM CLR 27/25 A2990 RMK AO2 SLP114 T02670250

2010/08/10 07:54
KUZA 100754Z AUTO 00000KT 5SM BR FEW060 23/21 A3003 RMK AO2 SLP155 T02280211

2010/08/10 07:54
KVAY 100754Z AUTO 00000KT 8SM CLR 24/21 A2992 RMK AO2 SLP132 T02390211

2010/08/10 07:55
KVBT 100755Z AUTO 00000KT 10SM CLR 25/21 A2994 RMK AO1

2010/08/10 07:55
KVIS 100755Z AUTO 26003KT 10SM CLR 20/16 A2981 RMK AO1

2010/08/10 07:54
KVSF 100754Z AUTO 00000KT 3SM BR BKN043 BKN055 OVC065 21/20 A2993 RMK AO2 SLP132 T02060200

2010/08/10 07:54
KVTA 100754Z AUTO 00000KT 4SM BR CLR 20/19 A2997 RMK AO2 SLP140 T02000189

2010/08/10 07:54
KWLD 100754Z AUTO 16005KT 10SM FEW100 27/21 A2990 RMK AO2 SLP109 T02720211

2010/08/10 07:55
KWVL 100755Z AUTO 00000KT 10SM CLR 19/17 A2983 RMK AO1

2010/08/10 07:55
KYKN 100755Z AUTO 11004KT 4SM TS OVC003 24/23 A2984 RMK AO1 LTG DSNT W TSB25

2010/08/10 07:50
EDLN 100750Z VRB03KT CAVOK 20/17 Q1015

2010/08/10 07:50
EDLP 100750Z 19006KT CAVOK 22/12 Q1015

2010/08/10 07:50
EDLW 100750Z 17007KT CAVOK 21/13 Q1015

2010/08/10 07:50
EDMA 100750Z 27004KT 220V310 CAVOK 19/15 Q1018

2010/08/10 07:50
EDMO 100750Z 29004KT 240V340 CAVOK 19/14 Q1018

2010/08/10 07:50
EDQM 100750Z 19005KT 140V230 CAVOK 19/11 Q1019

2010/08/10 07:50
EDTD 100750Z VRB02KT 070V070 CAVOK 20/14 Q1019

2010/08/10 07:50
EDVE 100750Z 17004KT 120V240 CAVOK 20/15 Q1016

2010/08/10 07:50
EFJO 100750Z 18007KT 130V220 9999 FEW027 BKN065 21/16 Q1011

2010/08/10 07:50
EFLP 100750Z 22009KT 9999 SCT012 BKN060 20/17 Q1012

2010/08/10 07:50
EFMI 100750Z AUTO 18004KT 140V230 CAVOK 19/17 Q1011

2010/08/10 07:50
EFSA 100750Z AUTO 18007KT 130V260 9999NDV FEW040 BKN060 22/16 Q1011

2010/08/10 07:50
EFUT 100750Z 20005KT 170V230 9999 VCSH FEW020TCU FEW025CB BKN065 19/18 Q1012

2010/08/10 07:50
EFVR 100750Z AUTO 21007KT 160V270 9999 FEW015 SCT019 21/17 Q1011

2010/08/10 07:50
EBAW 100750Z 23006KT 200V260 CAVOK 19/13 Q1014 NOSIG

2010/08/10 07:50
EBBR 100750Z 20005KT 180V240 CAVOK 18/12 Q1014 NOSIG

2010/08/10 07:50
EBCI 100750Z 21006KT 180V250 CAVOK 19/11 Q1015 NOSIG

2010/08/10 07:50
EBLG 100750Z 18005KT CAVOK 20/13 Q1015 NOSIG

2010/08/10 07:50
EBOS 100750Z 20008KT 9999 BKN020 17/13 Q1013 TEMPO 4500 RA BKN012

2010/08/10 07:50
ELLX 100750Z 14005KT 110V190 CAVOK 20/12 Q1016 NOSIG

2010/08/10 07:54
KROC 100754Z 22003KT 2 1/2SM BR SCT060 BKN075 OVC080 21/21 A2994 RMK AO2 RAB28E43 SLP135 P0000 T02110206

2010/08/10 07:54
KSUS 100754Z AUTO 00000KT 8SM CLR 26/24 A2989 RMK AO2 SLP111 T02610244

2010/08/10 07:54
KSYR 100754Z 00000KT 3SM BR FEW020 BKN028 OVC046 21/21 A2994 RMK AO2 SLP133 T02110206

2010/08/10 07:50
EDDF 100750Z 19002KT CAVOK 20/14 Q1016 NOSIG

2010/08/10 07:50
EDDH 100750Z 14007KT CAVOK 20/15 Q1015 NOSIG

2010/08/10 07:50
EDDK 100750Z 14006KT CAVOK 20/14 Q1015 NOSIG

2010/08/10 07:50
EDDL 100750Z 18005KT CAVOK 20/13 Q1015 NOSIG

2010/08/10 07:50
EDDM 100750Z VRB02KT CAVOK 19/14 Q1018 NOSIG

2010/08/10 07:50
EDDN 100750Z 12003KT 9999 FEW040 SCT078 18/15 Q1017 NOSIG

2010/08/10 07:50
EDDS 100750Z VRB02KT 9999 FEW028 20/13 Q1018 NOSIG

2010/08/10 07:50
EDDW 100750Z 17005KT 9999 FEW045 BKN300 21/14 Q1014 NOSIG

2010/08/10 07:50
EDFE 100750Z VRB02KT CAVOK 20/14 Q1017

2010/08/10 07:50
EDFM 100750Z 19005KT 150V240 CAVOK 21/15 Q1017

2010/08/10 07:50
EDHI 100750Z 17004KT 090V230 CAVOK 21/15 Q1015

2010/08/10 07:50
EDHL 100750Z 16008KT 120V180 CAVOK 20/20 Q1015

2010/08/10 07:50
EDJA 100750Z 24006KT 9999 FEW051 18/14 Q1019

2010/08/10 07:53
KSRQ 100753Z AUTO 09008KT 10SM CLR 25/24 A2985 RMK AO2 SLP107 T02500239 TSNO

2010/08/10 07:53
KSSI 100753Z AUTO 13011KT 10SM FEW026 28/23 A2996 RMK AO2 SLP146 T02830228

2010/08/10 07:53
KSTJ 100753Z AUTO 20004KT 10SM CLR 26/23 A2986 RMK AO2 SLP101 T02610228

2010/08/10 07:53
KSTP 100753Z AUTO 00000KT 9SM CLR 24/22 A2993 RMK AO2 SLP128 T02390222

2010/08/10 07:53
KSTS 100753Z AUTO 14003KT 10SM OVC002 12/11 A2989 RMK AO2 SLP116 T01220106 402390117

2010/08/10 07:50
KSUN 100750Z AUTO 33012KT 10SM CLR 12/10 A3006 RMK AO2 LTG DSNT NW

2010/08/10 07:53
KSWO 100753Z AUTO 17007KT 10SM CLR 28/21 A2989 RMK AO2 SLP104 T02780206

2010/08/10 07:50
KSZT 100750Z AUTO 00000KT 10SM CLR 11/10 A2981 RMK AO2

2010/08/10 07:53
KTCC 100753Z AUTO 23006KT 10SM CLR 23/17 A3004 RMK AO2 SLP100 T02330172

2010/08/10 07:53
KTCL 100753Z AUTO 00000KT 5SM BR CLR 26/24 A2995 RMK AO2 SLP138 T02610239

2010/08/10 07:53
KTDZ 100753Z AUTO 00000KT 1 1/4SM BR CLR 23/22 A2996 RMK AO2 SLP139 T02280222

2010/08/10 07:50
KTEX 100750Z AUTO 14005KT 10SM SCT070 11/05 A3041 RMK AO2

2010/08/10 07:53
KTHV 100753Z AUTO 00000KT 5SM BR CLR 22/21 A2993 RMK AO2 SLP133 T02170206

2010/08/10 07:50
KTIF 100750Z AUTO 30005KT 10SM -RA SCT050 SCT070 BKN120 20/18 A2996 RMK AO2 LTG DSNT NE THRU SE P0006 T01950184

2010/08/10 07:53
KTIW 100753Z 22005KT 10SM FEW008 OVC014 13/11 A2997 RMK AO2 SLP148 T01330111 401830133

2010/08/10 07:53
KTKI 100753Z AUTO 00000KT 10SM CLR 26/22 A2990 RMK AO2 SLP117 T02610217

2010/08/10 07:53
KTMB 100753Z AUTO 12005KT 10SM CLR 27/23 A2987 RMK AO2 SLP114 T02670233

2010/08/10 07:53
KTOI 100753Z AUTO 00000KT 7SM CLR 24/23 A2995 RMK AO2 SLP137 T02440228

2010/08/10 07:53
KTOP 100753Z AUTO 20003KT 10SM CLR 28/21 A2987 RMK AO2 SLP102 T02830211

2010/08/10 07:53
KTPA 100753Z 07004KT 10SM FEW050 26/23 A2988 RMK AO2 SLP118 T02560233

2010/08/10 07:50
KTRK 100750Z AUTO 00000KT 10SM CLR 07/05 A3012 RMK AO2

2010/08/10 07:53
KTRL 100753Z AUTO 19006KT 10SM CLR 28/20 A2991 RMK AO2 SLP119 T02780200

2010/08/10 07:53
KTTD 100753Z 00000KT 10SM OVC041 16/12 A2998 RMK AO2 SLP151 T01560117 402000144

2010/08/10 07:53
KTTN 100753Z AUTO 00000KT 8SM CLR 26/21 A2992 RMK AO2 SLP125 T02560206

2010/08/10 07:53
KTUL 100753Z 19010KT 10SM CLR 31/19 A2989 RMK AO2 SLP112 T03110194

2010/08/10 07:53
KTVC 100753Z AUTO 00000KT 5SM BR CLR 19/19 A2996 RMK AO2 SLP142 T01940194

2010/08/10 07:53
KTVL 100753Z AUTO 00000KT 10SM SCT085 SCT110 11/07 A3012 RMK AO2 SLP143 T01110067 402440050

2010/08/10 07:53
KTVR 100753Z AUTO 18004KT 7SM CLR 25/23 A2993 RMK AO2 SLP141 T02500233

2010/08/10 07:53
KTXK 100753Z AUTO 11003KT 10SM CLR 27/23 A2992 RMK AO2 SLP125 T02670228

2010/08/10 07:53
KTYR 100753Z 21004KT 10SM CLR 29/23 A2993 RMK AO2 SLP126 T02890233

2010/08/10 07:53
KUAO 100753Z AUTO 36004KT 10SM OVC039 15/11 A2999 RMK AO2 SLP156 T01500111 402110111

2010/08/10 07:53
KUNO 100753Z AUTO 00000KT 10SM CLR 27/23 A2998 RMK AO2 SLP132 T02670233

2010/08/10 07:53
KVCB 100753Z AUTO 24006KT 10SM CLR 17/11 A2982 RMK AO2 SLP095 T01670111 403060139

2010/08/10 07:53
KVEL 100753Z AUTO 29003KT 10SM CLR 13/03 A3011 RMK AO2 SLP136 T01280033

2010/08/10 07:53
KVGT 100753Z AUTO 34005KT 10SM CLR 26/M01 A2985 RMK AO2 SLP070 T02561011 403670206 TSNO

2010/08/10 07:53
KVIH 100753Z AUTO 20006KT 10SM CLR 26/23 A2993 RMK AO2 SLP121 T02560228

2010/08/10 07:53
KVLD 100753Z AUTO 00000KT 10SM CLR 25/23 A2994 RMK AO2 SLP144 T02500233

2010/08/10 07:53
KVPC 100753Z AUTO 00000KT 5SM BR CLR 22/22 A3001 RMK AO2 SLP149 T02220217

2010/08/10 07:53
KVPZ 100753Z AUTO 00000KT 9SM FEW034 23/22 A2995 RMK AO2 SLP136 T02280222

2010/08/10 07:53
KVUO 100753Z AUTO 00000KT 10SM OVC037 16/11 A2999 RMK AO2 SLP156 T01560111 402000144

2010/08/10 07:53
KWRL 100753Z AUTO 00000KT 10SM BKN100 17/08 A2997 RMK AO2 SLP103 T01670083 $

2010/08/10 07:53
KWVI 100753Z AUTO 00000KT 5SM BR OVC002 12/11 A2993 RMK AO2 SLP135 T01220111 402000117

2010/08/10 07:53
KXNA 100753Z AUTO 00000KT 10SM CLR 24/22 A2997 RMK AO2 SLP128 T02440217

2010/08/10 07:53
KZZV 100753Z AUTO 00000KT 6SM BR BKN090 21/19 A2997 RMK AO2 SLP140 T02110194

2010/08/10 08:00
SBFZ 100800Z 16010KT 9999 SCT017 24/23 Q1014

2010/08/10 08:00
SBBR 100800Z 26002KT CAVOK 12/04 Q1022 

2010/08/10 07:54
KFZY 100754Z AUTO 00000KT 2 1/2SM BR BKN012 OVC038 21/19 A2994 RMK AO2 SLP136 T02060194

2010/08/10 07:55
PAEH 100755Z AUTO 17021G31KT 3SM BKN004 OVC008 08/07 A2949 RMK AO1 T00830073

2010/08/10 07:53
KOSH 100753Z AUTO 00000KT 1 3/4SM BR CLR 22/21 A2994 RMK AO2 VIS 1/2V3 SLP125 T02170206

2010/08/10 07:53
KOSU 100753Z AUTO 26004KT 7SM CLR 24/21 A2997 RMK AO2 SLP138 T02390206 $

2010/08/10 07:53
KOTM 100753Z AUTO 35010G20KT 10SM VCTS FEW020 SCT026 OVC031 23/22 A2995 RMK AO2 LTG DSNT ALQDS TSE0657B03RAB08E20 SLP133 P0000 T02330217

2010/08/10 07:53
KOVS 100753Z AUTO 00000KT 1/4SM FG VV001 23/23 A2994 RMK AO2 SLP132 P0001 T02330228

2010/08/10 07:53
KOXB 100753Z AUTO 25006KT 10SM CLR 25/23 A2995 RMK AO2 SLP142 T02500228 $

2010/08/10 07:53
KPAE 100753Z AUTO 20005KT 10SM OVC032 14/12 A2996 RMK AO2 SLP145 T01390122 401780133

2010/08/10 07:53
KPAH 100753Z AUTO 00000KT 7SM CLR 26/24 A2993 RMK AO2 SLP130 T02560239

2010/08/10 07:53
KPBF 100753Z AUTO 17003KT 10SM CLR 26/24 A2992 RMK AO2 SLP127 T02610244

2010/08/10 07:53
KPBG 100753Z AUTO 00000KT 1/4SM FG BKN001 BKN009 16/15 A2990 RMK AO2 SLP125 T01560150

2010/08/10 07:53
KPBI 100753Z 15010KT 10SM SCT024CB BKN032 BKN050 26/23 A2988 RMK AO2 RAE41 SLP119 CB N-E MOV NW P0010 T02630230

2010/08/10 07:53
KPDK 100753Z AUTO 00000KT 10SM CLR 26/21 A3002 RMK AO2 SLP142 T02560206

2010/08/10 07:53
KPDT 100753Z AUTO 27005KT 10SM CLR 16/07 A2988 RMK AO2 SLP103 T01610072 403060122

2010/08/10 07:53
KPEO 100753Z AUTO 22005KT -RA SCT050 BKN065 OVC080 22/21 A2997 RMK AO2 RAB40 SLP140 P0000 T02170206 $

2010/08/10 07:53
KPGD 100753Z AUTO 09005KT 10SM BKN013 24/24 A2988 RMK AO2 SLP118 T02440239 TSNO

2010/08/10 07:53
KPHD 100753Z AUTO 00000KT 5SM BR SCT080 BKN100 22/19 A2998 RMK AO2 SLP143 T02170194

2010/08/10 07:53
KPIH 100753Z AUTO 01004KT 10SM CLR 12/09 A3001 RMK AO2 SLP132 T01220089

2010/08/10 07:53
KPIR 100753Z AUTO 18007KT 10SM SCT065 24/23 A2983 RMK AO2 SLP082 T02390228

2010/08/10 07:53
KPKB 100753Z AUTO 00000KT 3SM BR CLR 20/19 A3001 RMK AO2 SLP152 T02000189

2010/08/10 07:53
KPKD 100753Z AUTO 00000KT 10SM CLR 21/19 A2995 RMK AO2 SLP134 T02110189

2010/08/10 07:53
KFCM 100753Z AUTO 00000KT 9SM CLR 24/22 A2992 RMK AO2 SLP125 T02440217

2010/08/10 07:53
KFDR 100753Z AUTO 20008KT 10SM 28/19 A2989 RMK AO2 SLP099 T02830194

2010/08/10 07:53
KFDY 100753Z AUTO 00000KT 4SM BR CLR 23/22 A2996 RMK AO2 SLP133 T02330217

2010/08/10 07:53
KFFC 100753Z AUTO 00000KT 4SM BR CLR 22/21 A3001 RMK AO2 SLP153 T02220206

2010/08/10 07:53
KFFT 100753Z AUTO 00000KT 7SM CLR 23/22 A2997 RMK AO2 SLP139 T02330217

2010/08/10 07:53
KFHR 100753Z AUTO 00000KT 10SM BKN045 BKN060 OVC100 12/10 A2996 RMK AO2 SLP144 T01170100 401560094

2010/08/10 07:53
KFLD 100753Z AUTO 00000KT 4SM BR CLR 21/20 A2995 RMK AO2 SLP137 T02110200

2010/08/10 07:53
KFLL 100753Z 14012G18KT 10SM -RA SCT022 BKN030 OVC046 27/24 A2988 RMK AO2 RAB47 SLP116 P0000 T02670239

2010/08/10 07:53
KFLO 100753Z AUTO 00000KT 10SM CLR 24/24 A3001 RMK AO2 SLP157 T02440239

2010/08/10 07:53
KFMY 100753Z AUTO 10007KT 10SM BKN008 25/24 A2984 RMK AO2 SLP108 T02500239

2010/08/10 07:53
KFOE 100753Z AUTO 19005KT 10SM CLR 28/21 A2989 RMK AO2 SLP105 T02780206

2010/08/10 07:53
KFOK 100753Z AUTO 33003KT 9SM SCT050 BKN060 OVC090 24/20 A2994 RMK AO2 SLP139 T02440200 TSNO

2010/08/10 07:53
KFRG 100753Z AUTO 25005KT 10SM CLR 25/19 A2992 RMK AO2 SLP133 T02500194

2010/08/10 07:53
KFSM 100753Z AUTO 00000KT 10SM CLR 27/23 A2991 RMK AO2 SLP120 T02720233

2010/08/10 07:53
KFST 100753Z AUTO 17006KT 10SM CLR 23/19 A3000 RMK AO2 SLP104 T02280194

2010/08/10 07:53
KFTW 100753Z 20005KT 10SM CLR 28/20 A2989 RMK AO2 SLP110 T02830200

2010/08/10 07:53
KFTY 100753Z 00000KT 4SM BR CLR 23/22 A3001 RMK AO2 SLP149 T02330217

2010/08/10 07:53
KFUL 100753Z 00000KT 7SM CLR 17/13 A2990 RMK AO2 SLP124 T01670128 402500144

2010/08/10 07:53
KFWN 100753Z AUTO 00000KT 7SM -RA FEW034 22/20 A2995 RMK AO2 RAB22 SLP138 P0000 T02220200

2010/08/10 07:53
KFXE 100753Z 13007KT 10SM SCT025 SCT040 27/23 A2988 RMK AO2 RAB18E35 SLP120 P0001 T02670228

2010/08/10 07:53
KFYV 100753Z AUTO 00000KT 10SM CLR 24/22 A2997 RMK AO2 SLP130 T02390222

2010/08/10 07:53
KGAG 100753Z AUTO 13006KT 10SM CLR 23/18 A2995 RMK AO2 SLP107 T02330183

2010/08/10 07:55
CYCX 100755Z AUTO 32002KT 5/8SM 16/16 A2980

2010/08/10 07:50
EDVK 100750Z 14003KT 090V210 CAVOK 20/12 Q1016

2010/08/10 07:50
EDXW 100750Z 16012KT 9000 FEW012 19/16 Q1013

2010/08/10 07:50
EKAH 100750Z AUTO 19006KT 130V250 9999NDV FEW075/// 19/12 Q1015

2010/08/10 07:50
EKBI 100750Z 18008KT 130V220 CAVOK 18/15 Q1014

2010/08/10 07:50
EKCH 100750Z 19005KT 120V250 CAVOK 19/12 Q1016 NOSIG

2010/08/10 07:50
EKEB 100750Z AUTO 17012KT 9999NDV FEW012/// 18/15 Q1013

2010/08/10 07:50
EKKA 100750Z 18009KT 140V230 CAVOK 20/12 Q1013 NOSIG RMK FEW220

2010/08/10 07:50
EKOD 100750Z 18008KT 140V210 CAVOK 19/13 Q1015

2010/08/10 07:50
EKRK 100750Z AUTO 20005KT 150V230 9999NDV NCD 19/11 Q1016

2010/08/10 07:50
EKRN 100750Z AUTO 12006KT 100V160 9999NDV FEW033/// BKN040/// BKN063/// 18/12 Q1017

2010/08/10 07:50
EKSB 100750Z 17009KT 140V200 CAVOK 19/13 Q1014

2010/08/10 07:50
EKSN 100750Z 22011KT 9999 FEW028 SCT061 17/12 Q1013

2010/08/10 07:50
EKSP 100750Z 17008KT 140V210 9999 FEW035 SCT200 19/14 Q1014 NOSIG

2010/08/10 07:55
EKVG 100755Z 03006KT 9999 FEW010 SCT060 14/12 Q1008 RMK/RWY 13-31 CLOSED DUE WIP NOTAM E0050/10 WIND 850FT 07006KT

2010/08/10 07:50
EKVJ 100750Z 18010KT CAVOK 19/17 Q1014

2010/08/10 07:50
EKYT 100750Z 21008KT 9999 SCT045 19/12 Q1014 NOSIG

2010/08/10 07:50
LOWG 100750Z VRB02KT 9999 FEW030 21/16 Q1019 NOSIG

2010/08/10 07:50
LOWI 100750Z 29004KT 250V320 9999 FEW065 19/14 Q1019 NOSIG

2010/08/10 07:50
LOWK 100750Z VRB02KT 9999 FEW008 BKN039 19/15 Q1020 NOSIG

2010/08/10 07:50
LOWL 100750Z VRB02KT 9999 FEW030 19/15 Q1019 NOSIG

2010/08/10 07:50
LOWS 100750Z 15007KT 9999 FEW060 21/12 Q1018 NOSIG

2010/08/10 07:50
LOWW 100750Z 36003KT 290V050 9999 FEW060 21/16 Q1019 NOSIG

2010/08/10 07:54
KGSO 100754Z 23003KT 7SM CLR 24/21 A3003 RMK AO2 SLP157 T02440206 

2010/08/10 07:54
KBKB 100754Z AUTO 00000KT 10SM CLR 26/24 A2991 RMK AO2 SLP151 T02560239 $ 

2010/08/10 07:54
KNAK 100754Z AUTO 00000KT 9SM CLR 25/20 A2992 RMK AO2 SLP135 T02500200 TSNO 

2010/08/10 07:50
EETN 100750Z 23010KT 9999 FEW018CB BKN050 20/16 Q1013 NOSIG

2010/08/10 07:50
EFHF 100750Z 21006KT 180V240 9999 VCSH SCT013 SCT021 FEW030CB BKN060 20/18 Q1012

2010/08/10 07:50
EFHK 100750Z 20010KT 9999 -SHRA BKN010 FEW030CB 20/17 Q1012 NOSIG

2010/08/10 07:50
EFJY 100750Z 21005KT 160V280 9999 SCT015 SCT040 BKN055 20/16 Q1009

2010/08/10 07:50
EFKK 100750Z AUTO 35006KT 9999 ////// 18/17 Q1008

2010/08/10 07:50
EFKU 100750Z AUTO 18008KT 9999NDV SCT018 BKN070 20/15 Q1010

2010/08/10 07:50
EFMA 100750Z 23008KT 200V280 9999 FEW014 BKN017 19/16 Q1010

2010/08/10 07:50
EFPO 100750Z 18004KT 140V230 9999 -SHRA BKN006 BKN017 19/18 Q1009

2010/08/10 07:50
EFRO 100750Z AUTO 01010KT 9999NDV BKN011 OVC015 12/10 Q1010

2010/08/10 07:50
EFTP 100750Z 19008KT 150V260 9999 SCT018 20/16 Q1010

2010/08/10 07:50
EFTU 100750Z AUTO 23007KT 180V270 9999 BKN016 BKN022 20/16 Q1010

2010/08/10 07:50
EFVA 100750Z 34004KT 270V010 9999 SHRA FEW006 SCT018 BKN030 BKN045 19/17 Q1008

2010/08/10 07:50
ENBO 100750Z 25006KT 200V280 9999 FEW002 BKN050 13/12 Q1010 TEMPO 4000 BR SCT003 BKN008

2010/08/10 07:50
ENBR 100750Z 14004KT 110V190 CAVOK 18/10 Q1009

2010/08/10 07:50
ENCN 100750Z 05002KT 9999 BKN014 15/13 Q1012

2010/08/10 07:50
ENHD 100750Z 12011KT 9999 FEW025 BKN059 16/12 Q1009

2010/08/10 07:50
ENKR 100750Z 02005KT 350V060 9999 BKN006 09/08 Q1013

2010/08/10 07:50
ENSB 100750Z 26012KT 9999 FEW020 04/M01 Q1006 NOSIG

2010/08/10 07:50
ENTC 100750Z 02008KT 9999 FEW009 SCT050 12/09 Q1011 TEMPO BKN014

2010/08/10 07:50
ENVA 100750Z VRB02KT 9999 FEW005 SCT008 BKN012 15/12 Q1011 TEMPO BKN015

2010/08/10 07:50
ENZV 100750Z 15010KT 9999 FEW045 BKN065 17/12 Q1009 NOSIG

2010/08/10 07:50
EVRA 100750Z 20009KT 180V240 9999 SCT016 SCT021 21/16 Q1016 NOSIG

2010/08/10 07:50
EYVI 100750Z 09004KT 9999 SCT023 BKN100 22/17 Q1017 NOSIG

2010/08/10 07:54
KNFG 100754Z 02003KT 6SM BR FEW015 11/09 A2992 RMK AO2 SLP129 T01060089 402330078 

2010/08/10 07:50
EDAC 100750Z 18004KT 140V220 CAVOK 21/15 Q1017

2010/08/10 07:50
EDAH 100750Z 17004KT 9999 BKN025 20/16 Q1016

2010/08/10 07:50
EDHL 100750Z 16008KT 120V180 CAVOK 20/20 Q1015

2010/08/10 07:50
EDLN 100750Z VRB03KT CAVOK 20/17 Q1015

2010/08/10 07:50
EDLW 100750Z 17007KT CAVOK 21/13 Q1015

2010/08/10 07:50
EDMO 100750Z 29004KT 240V340 CAVOK 19/14 Q1018

2010/08/10 07:50
EDQM 100750Z 19005KT 140V230 CAVOK 19/11 Q1019

2010/08/10 07:50
EDSB 100750Z 22005KT 190V250 CAVOK 19/14 Q1017

2010/08/10 07:50
EDVK 100750Z 14003KT 090V210 CAVOK 20/12 Q1016

2010/08/10 07:50
EDXW 100750Z 16012KT 9000 FEW012 19/16 Q1013

2010/08/10 07:50
ENAN 100750Z 02011KT 9999 8000W SCT005 BKN007 11/10 Q1011 NOSIG

2010/08/10 07:50
ENBO 100750Z 25006KT 200V280 9999 FEW002 BKN050 13/12 Q1010 TEMPO 4000 BR SCT003 BKN008

2010/08/10 07:50
ENBR 100750Z 14004KT 110V190 CAVOK 18/10 Q1009

2010/08/10 07:50
ENHV 100750Z 21005KT 160V250 9999 FEW016 12/08 Q1012

2010/08/10 07:50
ENMS 100750Z 01004KT 9999 SCT045 17/13 Q1010

2010/08/10 07:50
ENNK 100750Z 23003KT 9999 SCT050 13/11 Q1010

2010/08/10 07:50
ENNM 100750Z 26003KT 5000 BKN002 12/11 Q1011

2010/08/10 07:50
ENOL 100750Z 01003KT 9999 FEW002 BKN005 13/12 Q1011 BECMG BKN010

2010/08/10 07:50
ENRM 100750Z VRB02KT 4500 BR SCT002 BKN003 12/11 Q1011

2010/08/10 07:50
ENSK 100750Z 26003KT 9999 SCT008 BKN010 12/10 Q1011

2010/08/10 07:50
ENVA 100750Z VRB02KT 9999 FEW005 SCT008 BKN012 15/12 Q1011 TEMPO BKN015

2010/08/10 07:50
ENZV 100750Z 15010KT 9999 FEW045 BKN065 17/12 Q1009 NOSIG

2010/08/10 07:50
LOWG 100750Z VRB02KT 9999 FEW030 21/16 Q1019 NOSIG

2010/08/10 07:50
LOWI 100750Z 29004KT 250V320 9999 FEW065 19/14 Q1019 NOSIG

2010/08/10 07:50
LOWK 100750Z VRB02KT 9999 FEW008 BKN039 19/15 Q1020 NOSIG

2010/08/10 07:50
LOWL 100750Z VRB02KT 9999 FEW030 19/15 Q1019 NOSIG

2010/08/10 07:50
LOWS 100750Z 15007KT 9999 FEW060 21/12 Q1018 NOSIG

2010/08/10 07:50
LOWW 100750Z 36003KT 290V050 9999 FEW060 21/16 Q1019 NOSIG

2010/08/10 07:55
TXKF 100755Z 17007KT 9999 FEW015 FEW180 SCT300 27/23 Q1020 

2010/08/10 07:55
EHEH 100755Z AUTO 20006KT 9999NDV SCT240 SCT400 18/14 Q1014 BLU BLU NOSIG

2010/08/10 07:50
ENAL 100750Z 04010KT 9999 FEW010 BKN030 15/12 Q1010

2010/08/10 07:50
ENAN 100750Z 02011KT 9999 8000W SCT005 BKN007 11/10 Q1011 NOSIG

2010/08/10 07:50
ENAT 100750Z 15010KT 9999 FEW030 BKN050 16/09 Q1011

2010/08/10 07:50
ENBN 100750Z VRB02KT 6000 SCT002 BKN003 13/12 Q1011

2010/08/10 07:50
ENBV 100750Z 09009KT 9999 BKN035 11/08 Q1013

2010/08/10 07:50
ENDU 100750Z VRB01KT 9999 FEW045 SCT060 14/10 Q1010

2010/08/10 07:50
ENEK 100750Z 19008KT 9999 FEW005 FEW010TCU BKN060 16/15 Q1006 W16/S3

2010/08/10 07:50
ENEV 100750Z 36006KT 310V030 9999 FEW008 SCT040 13/10 Q1011

2010/08/10 07:50
ENFG 100750Z 18003KT 9999 SCT008 BKN013 13/11 Q1011

2010/08/10 07:50
ENFL 100750Z 00000KT 9999 FEW013 BKN044 15/13 Q1010

2010/08/10 07:50
ENGC 100750Z 10019KT 9999 FEW025 BKN045 14/12 Q1008

2010/08/10 07:50
ENHF 100750Z VRB02KT 9999 BKN046 13/09 Q1011

2010/08/10 07:50
ENHV 100750Z 21005KT 160V250 9999 FEW016 12/08 Q1012

2010/08/10 07:50
ENKB 100750Z 00000KT 9999 -RA FEW008 SCT016 BKN090 14/13 Q1010

2010/08/10 07:50
ENML 100750Z 09003KT 9999 FEW010 BKN035 16/13 Q1010

2010/08/10 07:50
ENMS 100750Z 01004KT 9999 SCT045 17/13 Q1010

2010/08/10 07:50
ENNA 100750Z 18007KT 9999 FEW015 BKN050 15/10 Q1012

2010/08/10 07:50
ENNK 100750Z 23003KT 9999 SCT050 13/11 Q1010

2010/08/10 07:50
ENNM 100750Z 26003KT 5000 BKN002 12/11 Q1011

2010/08/10 07:50
ENNO 100750Z 00000KT 7000 BKN008 16/14 Q1010

2010/08/10 07:50
ENOA 100750Z 12024KT 4000N -RA SCT013 BKN050 14/12 Q1007

2010/08/10 07:50
ENOL 100750Z 01003KT 9999 FEW002 BKN005 13/12 Q1011 BECMG BKN010

2010/08/10 07:50
ENOV 100750Z 00000KT 9999 FEW008 SCT012 BKN020 15/13 Q1010

2010/08/10 07:50
ENRA 100750Z 15005KT 9999 BKN050 20/12 Q1010

2010/08/10 07:50
ENRM 100750Z VRB02KT 4500 BR SCT002 BKN003 12/11 Q1011

2010/08/10 07:50
ENRO 100750Z 00000KT 9999 -RA SCT002 BKN016 13/12 Q1011

2010/08/10 07:50
ENRY 100750Z 19011KT 9999 FEW014 18/12 Q1011 NOSIG

2010/08/10 07:50
ENSG 100750Z 00000KT 9999 VCFG FEW/// SCT003 SCT015 14/13 Q1010

2010/08/10 07:50
ENSH 100750Z 02015KT 9999 FEW010 SCT035 13/10 Q1010

2010/08/10 07:50
ENSK 100750Z 26003KT 9999 SCT008 BKN010 12/10 Q1011

2010/08/10 07:50
ENSN 100750Z 20006KT 9000 SCT003 BKN015 16/12 Q1010

2010/08/10 07:50
ENSO 100750Z 12009KT 090V150 9999 FEW035 BKN055 16/10 Q1009

2010/08/10 07:50
ENSR 100750Z 35004KT 9999 FEW010 SCT060 13/10 Q1011

2010/08/10 07:50
ENST 100750Z 24003KT 200V300 6000 2000NE BR BKN002 12/12 Q1011

2010/08/10 07:50
ENTO 100750Z 22013KT 9999 FEW005 18/10 Q1011

2010/08/10 07:50
ESDF 100750Z 25006KT 200V270 CAVOK 18/12 Q1016

2010/08/10 07:50
ESGG 100750Z 23012KT 9999 FEW015 SCT021 17/12 Q1014

2010/08/10 07:50
ESGJ 100750Z 23011KT 9999 FEW022 SCT029 BKN035 16/12 Q1014

2010/08/10 07:50
ESGP 100750Z 22011KT 9999 SCT034 18/13 Q1014

2010/08/10 07:50
ESKN 100750Z 25010KT 220V290 9999 SCT019 BKN053 18/13 Q1012

2010/08/10 07:50
ESMK 100750Z 27005KT 240V310 CAVOK 19/11 Q1016

2010/08/10 07:50
ESMS 100750Z 23004KT 190V260 CAVOK 19/11 Q1016

2010/08/10 07:50
ESMX 100750Z 23007KT 200V260 9999 FEW014 SCT019 BKN041 16/13 Q1016

2010/08/10 07:50
ESNN 100750Z 06004KT 010V120 9999 SCT005 BKN007 OVC009 16/15 Q1009

2010/08/10 07:50
ESNO 100750Z 02005KT 350V060 5000 BR SCT005 BKN010 15/14 Q1010 REDZ

2010/08/10 07:50
ESNQ 100750Z VRB02KT 9999 FEW015 BKN029 13/09 Q1012

2010/08/10 07:50
ESNS 100750Z 02007KT 6000 RA SCT010 BKN020 13/12 Q1011

2010/08/10 07:50
ESNU 100750Z 02006KT 350V050 6000 BR SCT005 BKN009 15/13 Q1010

2010/08/10 07:50
ESOK 100750Z AUTO 22005KT 9999NDV OVC013/// 16/14 Q1011

2010/08/10 07:50
ESOW 100750Z 24009KT 9999 BKN012 OVC020 17/15 Q1011

2010/08/10 07:50
ESPA 100750Z 34008KT 9999 BKN013 14/11 Q1011

2010/08/10 07:50
ESSA 100750Z 24011KT 9999 FEW007 SCT008 BKN009 17/15 Q1011 BECMG BKN012

2010/08/10 07:50
ESSB 100750Z 23007KT 9999 BKN007 17/15 Q1011

2010/08/10 07:50
ESSD 100750Z 27009KT 9999 FEW017 BKN022 19/15 Q1010

2010/08/10 07:50
ESSP 100750Z 24009KT 9999 OVC017 17/13 Q1013

2010/08/10 07:50
ESSV 100750Z 24011KT 9999 FEW017 BKN040 17/12 Q1014

2010/08/10 07:50
LSGG 100750Z 07004KT 030V150 9999 SCT070 23/13 Q1018 NOSIG

2010/08/10 07:50
LSGS 100750Z VRB03KT 9999 FEW070 21/11 Q1018

2010/08/10 07:50
LSZA 100750Z VRB02KT 9999 SCT045 BKN150 22/17 Q1017 NOSIG

2010/08/10 07:50
LSZG 100750Z 06002KT CAVOK 19/15 Q1018 NOSIG

2010/08/10 07:50
LSZH 100750Z VRB02KT 9999 FEW025 21/15 Q1018 NOSIG

2010/08/10 07:50
LSZR 100750Z VRB01KT CAVOK 19/15 Q1018 NOSIG RMK D

2010/08/10 07:50
LSZS 100750Z VRB01KT 9999 FEW030 14/10 Q1023

2010/08/10 07:50
EGAA 100750Z 26014KT 9999 SCT013 13/11 Q1004

2010/08/10 07:50
EGBB 100750Z 23006KT 200V260 9999 -DZ BKN008 14/13 Q1009

2010/08/10 07:50
EGCC 100750Z 22008KT 9999 FEW038 15/11 Q1008

2010/08/10 07:50
EGFF 100750Z 24009KT 9999 SCT009 SCT024 15/12 Q1010

2010/08/10 07:50
EGGD 100750Z 21008KT 9999 -RADZ FEW015 12/12 Q1010

2010/08/10 07:50
EGGP 100750Z 25015KT 9999 FEW030 16/08 Q1008

2010/08/10 07:50
EGGW 100750Z 25009KT 9000 BKN034 BKN041 13/12 Q1010 RERA

2010/08/10 07:50
EGHD 100750Z 12003KT 190V260 1500 0700SW -RA BCFG BR SCT000 OVC002 13/13 Q1012

2010/08/10 07:50
EGHH 100750Z 28006KT 8000 -RA FEW018 SCT022 14/13 Q1012

2010/08/10 07:50
EGHI 100750Z 24005KT 220V280 7000 -RA FEW010 SCT018 BKN028 14/12 Q1012

2010/08/10 07:50
EGJB 100750Z 23011KT 1400 0700SW R27/P1500 -DZ PRFG BKN000 16/16 Q1013

2010/08/10 07:50
EGJJ 100750Z 24010KT 210V310 8000 -DZ SCT002 BKN004 17/17 Q1013 RERA REDZ BECMG 4000 BKN003

2010/08/10 07:50
EGKB 100750Z 25005KT 4000 RA BKN010 15/14 Q1011

2010/08/10 07:50
EGKK 100750Z 22004KT 190V260 9999 -RA SCT007 SCT045 16/16 Q1011 RERA

2010/08/10 07:50
EGLL 100750Z 28010KT 9999 -RA FEW017 BKN027 14/13 Q1011 NOSIG

2010/08/10 07:50
EGMC 100750Z 22004KT 7000 -RA SCT009 BKN025 17/16 Q1010

2010/08/10 07:50
EGMD 100750Z 21020KT 8000 FEW009 BKN012 17/15 Q1012

2010/08/10 07:50
EGNM 100750Z 21005KT 9000 FEW010 SCT035 13/11 Q1007

2010/08/10 07:50
EGNT 100750Z 22004KT 160V240 9999 FEW040 16/11 Q1005

2010/08/10 07:50
EGNV 100750Z 19010KT 9999 FEW025 14/13 Q1006

2010/08/10 07:50
EGNX 100750Z 22009KT 9999 FEW012 SCT045 14/12 Q1009

2010/08/10 07:50
EGPB 100750Z 14004KT 9999 FEW009 FEW015CB BKN018 14/13 Q1004 NOSIG

2010/08/10 07:50
EGPD 100750Z 36002KT 9999 FEW003 11/10 Q1004 NOSIG

2010/08/10 07:50
EGPF 100750Z 11007KT 9999 FEW010 SCT018 BKN045 13/11 Q1004

2010/08/10 07:50
EGPH 100750Z 24007KT 9999 FEW015 13/10 Q1004

2010/08/10 07:50
EGPK 100750Z 15006KT 090V190 7000 -RA FEW005 SCT014CB BKN018 12/11 Q1003

2010/08/10 07:50
EGSH 100750Z 24008KT 6000 RA SCT008 BKN029 17/15 Q1009

2010/08/10 07:50
EGTE 100750Z 14004KT 9999 -RA FEW012 BKN025 13/13 Q1011

2010/08/10 07:50
EGTG 100750Z 19007KT 9999 FEW020 14/12 Q1010

2010/08/10 07:50
EGAC 100750Z 24010KT 210V270 9999 FEW012 SCT025 15/11 Q1004

2010/08/10 07:50
EGBJ 100750Z 21007KT 180V250 9999 FEW014 15/13 Q1010

2010/08/10 07:50
EGGP 100750Z 25015KT 9999 FEW030 16/08 Q1008

2010/08/10 07:50
EGGW 100750Z 25009KT 9000 BKN034 BKN041 13/12 Q1010 RERA

2010/08/10 07:50
EGHE 100750Z 23020KT 2500 -RA SCT003 BKN011 16/16 Q1010

2010/08/10 07:50
EGJA 100750Z 27004KT 0600 R26/0600 FG SCT000 BKN001 15/15 Q1013

2010/08/10 07:50
EGLC 100750Z 28006KT 9999 RA FEW007 BKN012 16/14 Q1011

2010/08/10 07:50
EGNT 100750Z 22004KT 160V240 9999 FEW040 16/11 Q1005

2010/08/10 07:50
EGPF 100750Z 11007KT 9999 FEW010 SCT018 BKN045 13/11 Q1004

2010/08/10 07:50
EGSC 100750Z 25007KT 210V280 9999 FEW007 SCT046 14/12 Q1010

2010/08/10 07:50
EGSS 100750Z 28004KT 240V320 9000 -RADZ FEW005 SCT008 BKN030 14/14 Q1010 RERA

2010/08/10 07:50
EGTC 100750Z 23011KT 9999 SCT044 13/11 Q1010

2010/08/10 07:54
KROC 100754Z 22003KT 2 1/2SM BR SCT060 BKN075 OVC080 21/21 A2994 RMK AO2 RAB28E43 SLP135 P0000 T02110206 

2010/08/10 07:54
KACY 100754Z 21006KT 10SM CLR 24/22 A2995 RMK AO2 SLP140 T02440222 $ 

2010/08/10 07:55
CYZE 100755Z AUTO 34003KT 1 1/2SM BR CLR 17/17 A2993 RMK SLP138 DENSITY ALT 1000FT

2010/08/10 07:50
EBBR 100750Z 20005KT 180V240 CAVOK 18/12 Q1014 NOSIG

2010/08/10 07:50
EBCI 100750Z 21006KT 180V250 CAVOK 19/11 Q1015 NOSIG

2010/08/10 07:50
EBLG 100750Z 18005KT CAVOK 20/13 Q1015 NOSIG

2010/08/10 07:50
EGSC 100750Z 25007KT 210V280 9999 FEW007 SCT046 14/12 Q1010

2010/08/10 07:50
EGSH 100750Z 24008KT 6000 RA SCT008 BKN029 17/15 Q1009

2010/08/10 07:55
EKVG 100755Z 03006KT 9999 FEW010 SCT060 14/12 Q1008 RMK/RWY 13-31 CLOSED DUE WIP NOTAM E0050/10 WIND 850FT 07006KT

2010/08/10 07:50
ELLX 100750Z 14005KT 110V190 CAVOK 20/12 Q1016 NOSIG

2010/08/10 07:50
ENAL 100750Z 04010KT 9999 FEW010 BKN030 15/12 Q1010

2010/08/10 07:50
ENBN 100750Z VRB02KT 6000 SCT002 BKN003 13/12 Q1011

2010/08/10 07:50
ENBS 100750Z 20005KT 9999 FEW020 BKN035 11/06 Q1013

2010/08/10 07:50
ENBV 100750Z 09009KT 9999 BKN035 11/08 Q1013

2010/08/10 07:50
ENDU 100750Z VRB01KT 9999 FEW045 SCT060 14/10 Q1010

2010/08/10 07:50
ENEK 100750Z 19008KT 9999 FEW005 FEW010TCU BKN060 16/15 Q1006 W16/S3

2010/08/10 07:50
ENFG 100750Z 18003KT 9999 SCT008 BKN013 13/11 Q1011

2010/08/10 07:50
ENGC 100750Z 10019KT 9999 FEW025 BKN045 14/12 Q1008

2010/08/10 07:50
ENHE 100750Z 04010KT 9999 OVC016 10/08 Q1012

2010/08/10 07:50
ENHF 100750Z VRB02KT 9999 BKN046 13/09 Q1011

2010/08/10 07:50
ENOA 100750Z 12024KT 4000N -RA SCT013 BKN050 14/12 Q1007

2010/08/10 07:50
ENOV 100750Z 00000KT 9999 FEW008 SCT012 BKN020 15/13 Q1010

2010/08/10 07:50
ENRA 100750Z 15005KT 9999 BKN050 20/12 Q1010

2010/08/10 07:50
ENRY 100750Z 19011KT 9999 FEW014 18/12 Q1011 NOSIG

2010/08/10 07:50
ENSB 100750Z 26012KT 9999 FEW020 04/M01 Q1006 NOSIG

2010/08/10 07:50
ENSG 100750Z 00000KT 9999 VCFG FEW/// SCT003 SCT015 14/13 Q1010

2010/08/10 07:50
ENSO 100750Z 12009KT 090V150 9999 FEW035 BKN055 16/10 Q1009

2010/08/10 07:50
ENST 100750Z 24003KT 200V300 6000 2000NE BR BKN002 12/12 Q1011

2010/08/10 07:50
ENTC 100750Z 02008KT 9999 FEW009 SCT050 12/09 Q1011 TEMPO BKN014

2010/08/10 07:50
EDAC 100750Z 18004KT 140V220 CAVOK 21/15 Q1017

2010/08/10 07:50
EDAH 100750Z 17004KT 9999 BKN025 20/16 Q1016

2010/08/10 07:50
EDFH 100750Z 24004KT 190V310 CAVOK 22/12 Q1017

2010/08/10 07:50
EDHI 100750Z 17004KT 090V230 CAVOK 21/15 Q1015

2010/08/10 07:50
EDHL 100750Z 16008KT 120V180 CAVOK 20/20 Q1015

2010/08/10 07:50
EDLN 100750Z VRB03KT CAVOK 20/17 Q1015

2010/08/10 07:50
EDLP 100750Z 19006KT CAVOK 22/12 Q1015

2010/08/10 07:50
EDLW 100750Z 17007KT CAVOK 21/13 Q1015

2010/08/10 07:50
EDMA 100750Z 27004KT 220V310 CAVOK 19/15 Q1018

2010/08/10 07:50
EDMO 100750Z 29004KT 240V340 CAVOK 19/14 Q1018

2010/08/10 07:50
EDOP 100750Z 12006KT 080V160 CAVOK 20/15 Q1016

2010/08/10 07:50
EDQM 100750Z 19005KT 140V230 CAVOK 19/11 Q1019

2010/08/10 07:50
EDSB 100750Z 22005KT 190V250 CAVOK 19/14 Q1017

2010/08/10 07:50
EDTL 100750Z 21005KT CAVOK 19/15 Q1017

2010/08/10 07:50
EDVE 100750Z 17004KT 120V240 CAVOK 20/15 Q1016

2010/08/10 07:50
EDVK 100750Z 14003KT 090V210 CAVOK 20/12 Q1016

2010/08/10 07:50
EDXW 100750Z 16012KT 9000 FEW012 19/16 Q1013

2010/08/10 07:50
EGJJ 100750Z 24010KT 210V310 8000 -DZ SCT002 BKN004 17/17 Q1013 RERA REDZ BECMG 4000 BKN003

2010/08/10 07:50
EKCH 100750Z 19005KT 120V250 CAVOK 19/12 Q1016 NOSIG

2010/08/10 07:50
EKEB 100750Z AUTO 17012KT 9999NDV FEW012/// 18/15 Q1013

2010/08/10 07:50
EKOD 100750Z 18008KT 140V210 CAVOK 19/13 Q1015

2010/08/10 07:50
EKRN 100750Z AUTO 12006KT 100V160 9999NDV FEW033/// BKN040/// BKN063/// 18/12 Q1017

2010/08/10 07:50
EKSN 100750Z 22011KT 9999 FEW028 SCT061 17/12 Q1013

2010/08/10 07:55
EKVG 100755Z 03006KT 9999 FEW010 SCT060 14/12 Q1008 RMK/RWY 13-31 CLOSED DUE WIP NOTAM E0050/10 WIND 850FT 07006KT

2010/08/10 07:50
ELLX 100750Z 14005KT 110V190 CAVOK 20/12 Q1016 NOSIG

2010/08/10 07:54
KDMH 100754Z AUTO 26/21 A2992 RMK AO2 SLP133 T02610206 PWINO TSNO 

2010/08/10 08:00
GVAC 100800Z 02002KT 9999 SCT014 SCT200 23/19 Q1014 NOSIG

2010/08/10 07:50
EFJO 100750Z 18007KT 130V220 9999 FEW027 BKN065 21/16 Q1011

2010/08/10 07:50
EFLP 100750Z 22009KT 9999 SCT012 BKN060 20/17 Q1012

2010/08/10 07:50
EFMI 100750Z AUTO 18004KT 140V230 CAVOK 19/17 Q1011

2010/08/10 07:50
EFSA 100750Z AUTO 18007KT 130V260 9999NDV FEW040 BKN060 22/16 Q1011

2010/08/10 07:50
EFUT 100750Z 20005KT 170V230 9999 VCSH FEW020TCU FEW025CB BKN065 19/18 Q1012

2010/08/10 07:50
EFVR 100750Z AUTO 21007KT 160V270 9999 FEW015 SCT019 21/17 Q1011

2010/08/10 07:50
LIEA 100750Z 00000KT CAVOK 29/17 Q1016

2010/08/10 07:45
LIEE 100745Z 29004KT CAVOK 26/11 Q1015 NOSIG

2010/08/10 07:50
LIEO 100750Z 05005KT CAVOK 25/15 Q1016

2010/08/10 07:50
LIMC 100750Z VRB03KT 9999 BKN070 24/18 Q1017 NOSIG

2010/08/10 07:50
LIME 100750Z 35004KT 310V010 9999 SCT070 23/17 Q1017

2010/08/10 07:50
LIMF 100750Z 07003KT 9999 SCT070 23/18 1016

2010/08/10 07:50
LIMJ 100750Z VRB02KT 9999 FEW020 25/21 Q1016

2010/08/10 07:50
LIML 100750Z VRB02KT 9999 SCT030 23/18 Q1016 NOSIG

2010/08/10 07:45
LIRA 100745Z 29002KT CAVOK 26/16 Q1015

2010/08/10 07:50
LIRF 100750Z VRB03KT CAVOK 28/16 Q1015 NOSIG

2010/08/10 07:50
LIRN 100750Z VRB02KT 9999 SCT070 24/19 Q1015

2010/08/10 07:45
LIRP 100745Z 13001KT CAVOK 22/20 Q1016 NOSIG

2010/08/10 07:50
LIRQ 100750Z VRB02KT 8000 FEW025 24/19 Q1016

2010/08/10 08:00
GVBA 100800Z 05004KT 9999 FEW015 23/19 Q1014 NOSIG

2010/08/10 07:50
LIBD 100750Z 35007KT 300V030 CAVOK 27/13 Q1014

2010/08/10 07:45
LIBR 100745Z 32026KT CAVOK 26/20 Q1013 NOSIG

2010/08/10 07:50
LICC 100750Z VRB02KT CAVOK 28/15 Q1014

2010/08/10 07:50
LICJ 100750Z 35003KT CAVOK 26/20 Q1015

2010/08/10 07:50
LIPE 100750Z 30005KT 250V330 CAVOK 25/19 Q1015

2010/08/10 07:45
LIPH 100745Z 08007KT CAVOK 26/19 Q1016

2010/08/10 07:50
LIPK 100750Z VRB01KT CAVOK 25/17 Q1015

2010/08/10 07:50
LIPQ 100750Z 00000KT CAVOK 26/19 Q1015

2010/08/10 07:45
LIPR 100745Z 30004KT CAVOK 25/21 Q1015

2010/08/10 07:45
LIPX 100745Z 11001KT 9999 FEW040 27/18 Q1016

2010/08/10 07:50
LIPZ 100750Z 05005KT CAVOK 25/20 Q1016

2010/08/10 08:00
SBBR 100800Z 26002KT CAVOK 12/04 Q1022 

2010/08/10 07:55
KBAD 100755Z AUTO 14004KT 10SM CLR 26/23 A2993 RMK AO2 SLP133 T02570231

2010/08/10 07:55
KBIX 100755Z AUTO 04005KT 10SM CLR 26/25 A2992 RMK AO2 SLPNO T02570252 $

2010/08/10 07:53
KBRO 100753Z 17005KT 10SM CLR 28/26 A2989 RMK AO2 SLP120 T02830261

2010/08/10 07:53
KFLL 100753Z 14012G18KT 10SM -RA SCT022 BKN030 OVC046 27/24 A2988 RMK AO2 RAB47 SLP116 P0000 T02670239

2010/08/10 07:55
KHST 100755Z AUTO 14006KT 10SM FEW050 27/24 A2987 RMK AO2 SLP117 T02680235

2010/08/10 07:51
KJFK 100751Z 26006KT 10SM BKN140 OVC250 26/19 A2993 RMK AO2 SLP135 T02560194

2010/08/10 07:53
KMCO 100753Z 09006KT 10SM FEW028 25/23 A2992 RMK AO2 SLP129 T02500228

2010/08/10 07:52
KNHK 100752Z AUTO 21008KT 10SM CLR 26/21 A2994 RMK AO2 SLP140 T02560211 $

2010/08/10 07:55
KOFF 100755Z AUTO 15005KT 10SM CLR 26/25 A2984 RMK AO2 SLP084 T02640253 $

2010/08/10 07:53
KPBI 100753Z 15010KT 10SM SCT024CB BKN032 BKN050 26/23 A2988 RMK AO2 RAE41 SLP119 CB N-E MOV NW P0010 T02630230

2010/08/10 07:54
KPHL 100754Z 21007KT 10SM SCT150 BKN200 26/21 A2993 RMK AO2 SLP135 T02610211

2010/08/10 07:55
KWRI 100755Z AUTO 22004KT 9SM CLR 23/22 A2991 RMK AO2 SLP128 T02330222 $

2010/08/10 08:00
MDSD 100800Z VRB03KT 9999 -TS FEW016CB FEW018 24/22 Q1012 CB/NE/E/SE/N

2010/08/10 08:00
MYNN 100800Z 21005KT 9999 -SHRA SCT020 OVC080 25/25 A2994

2010/08/10 08:00
SPIM 100800Z 17003KT 8000 BKN015 14/12 Q1016 NOSIG RMK PP000

2010/08/10 07:53
TIST 100753Z AUTO 10006KT 10SM FEW028 OVC090 28/24 A2992 RMK AO2 SLP133 T02830244 TSNO

2010/08/10 07:53
TISX 100753Z AUTO 07004KT 10SM CLR 27/24 A2992 RMK AO2 SLP130 P0001 T02670244 TSNO

2010/08/10 07:55
TXKF 100755Z 17007KT 9999 FEW015 FEW180 SCT300 27/23 Q1020

2010/08/10 07:55
KBIX 100755Z AUTO 04005KT 10SM CLR 26/25 A2992 RMK AO2 SLPNO T02570252 $

2010/08/10 07:55
KCBM 100755Z AUTO 00000KT 10SM CLR 25/25 A2995 RMK AO2 SLP141 T02460245 $

2010/08/10 07:55
KDYS 100755Z AUTO 16007KT 10SM OVC190 28/18 A2994 RMK AO2 SLP109 T02770180 $

2010/08/10 07:55
KEND 100755Z 16006KT 10SM CLR 26/20 A2990 RMK AO2A SLP105 T02630201 $

2010/08/10 07:55
KFSI 100755Z AUTO 17003KT 10SM BKN080 28/20 A2991 RMK AO2 SLP101 T02800202

2010/08/10 07:55
KLSF 100755Z AUTO 00000KT 9SM R33/5500VP6000FT CLR 23/22 A2996 RMK AO2 SLP143 T02290219 PNO $

2010/08/10 07:55
KMUI 100755Z AUTO 00000KT 9SM OVC160 23/22 A2993 RMK AO2 SLP134 T02280223 $

2010/08/10 07:55
KRIV 100755Z AUTO 00000KT 10SM CLR 15/11 A2992 RMK AO2 SLP126 T01480106 403040097

2010/08/10 07:55
KRND 100755Z AUTO 00000KT 10SM BKN014 25/24 A2995 RMK AO2 SLP131 T02550239

2010/08/10 07:55
KSLI 100755Z AUTO 00000KT 10SM CLR 15/14 A2991 RMK AO2 SLP129 T01500143 402250132

2010/08/10 07:55
KWRI 100755Z AUTO 22004KT 9SM CLR 23/22 A2991 RMK AO2 SLP128 T02330222 $

2010/08/10 07:53
PABI 100753Z AUTO 20012KT 10SM SCT095 16/06 A2967 RMK AO2 SLP043 T01610061 TSNO

2010/08/10 07:53
PASC 100753Z 05014KT 1 1/2SM BR OVC003 03/03 A2974 RMK AO2 SLP072 T00330028

2010/08/10 07:55
PGUA 100755Z AUTO 07008KT 10SM SCT018 SCT025 SCT035 27/24 A2991 RMK AO2 SLP110 T02680244 $

2010/08/10 07:55
TXKF 100755Z 17007KT 9999 FEW015 FEW180 SCT300 27/23 Q1020

2010/08/10 07:55
KBAD 100755Z AUTO 14004KT 10SM CLR 26/23 A2993 RMK AO2 SLP133 T02570231

2010/08/10 07:55
KBIX 100755Z AUTO 04005KT 10SM CLR 26/25 A2992 RMK AO2 SLPNO T02570252 $

2010/08/10 07:55
KBKF 100755Z 23009KT 25SM SCT120 17/13 A3013 RMK SLP134

2010/08/10 07:55
KCBM 100755Z AUTO 00000KT 10SM CLR 25/25 A2995 RMK AO2 SLP141 T02460245 $

2010/08/10 07:55
KDAA 100755Z AUTO 00000KT 10SM CLR 23/21 A2994 RMK AO2 SLP141 T02310209

2010/08/10 07:55
KDYS 100755Z AUTO 16007KT 10SM OVC190 28/18 A2994 RMK AO2 SLP109 T02770180 $

2010/08/10 07:55
KEDW 100755Z AUTO 16006KT 10SM CLR 19/M00 A2989 RMK AO2 SLP074 T01851000 403450138

2010/08/10 07:55
KEND 100755Z 16006KT 10SM CLR 26/20 A2990 RMK AO2A SLP105 T02630201 $

2010/08/10 07:55
KFSI 100755Z AUTO 17003KT 10SM BKN080 28/20 A2991 RMK AO2 SLP101 T02800202

2010/08/10 07:55
KGUS 100755Z AUTO 00000KT 9SM R23/5500VP6000FT CLR 23/23 A2996 RMK AO2 SLP139 T02270227

2010/08/10 07:55
KHFF 100755Z AUTO 00000KT 9SM R22/5500FT CLR 23/23 A3003 RMK AO2 SLP166 T02350226 $

2010/08/10 07:55
KIAB 100755Z AUTO 17007KT 10SM FEW100 28/21 A2990 RMK AO2 SLP108 T02810207 $

2010/08/10 07:55
KLSF 100755Z AUTO 00000KT 9SM R33/5500VP6000FT CLR 23/22 A2996 RMK AO2 SLP143 T02290219 PNO $

2010/08/10 07:55
KMTC 100755Z AUTO 00000KT 3/4SM R19/0700VP6000FT DZ BR CLR 20/20 A2995 RMK AO2 SLP144 P0000 T02050205 $

2010/08/10 07:55
KMUI 100755Z AUTO 00000KT 9SM OVC160 23/22 A2993 RMK AO2 SLP134 T02280223 $

2010/08/10 07:52
KMWN 100752Z 33022KT 100SM BKN/// FEW100 SCT200 09/07 RMK TPS LWR BKN049 PTCHY VLY FG ALQDS 

2010/08/10 07:54
KMTP 100754Z AUTO 00000KT 24/19 A2993 RMK AO2 SLP134 T02390194 PWINO TSNO 

2010/08/10 07:53
KMWT 100753Z AUTO 00000KT 10SM CLR 24/23 A2992 RMK AO2 SLP115 T02440233 TSNO 

2010/08/10 07:50
EBAW 100750Z 23006KT 200V260 CAVOK 19/13 Q1014 NOSIG

2010/08/10 07:50
EGBJ 100750Z 21007KT 180V250 9999 FEW014 15/13 Q1010

2010/08/10 07:50
EGTC 100750Z 23011KT 9999 SCT044 13/11 Q1010

2010/08/10 07:55
EGUL 100755Z AUTO 26010KT 9999 -RA SCT030 OVC049 13/11 A2982 RMK AO2 SLP100 P0003 T01320112

2010/08/10 07:50
ENAT 100750Z 15010KT 9999 FEW030 BKN050 16/09 Q1011

2010/08/10 07:50
ENCN 100750Z 05002KT 9999 BKN014 15/13 Q1012

2010/08/10 07:50
ENEV 100750Z 36006KT 310V030 9999 FEW008 SCT040 13/10 Q1011

2010/08/10 07:50
ENFL 100750Z 00000KT 9999 FEW013 BKN044 15/13 Q1010

2010/08/10 07:50
ENHD 100750Z 12011KT 9999 FEW025 BKN059 16/12 Q1009

2010/08/10 07:50
ENKB 100750Z 00000KT 9999 -RA FEW008 SCT016 BKN090 14/13 Q1010

2010/08/10 07:50
ENKR 100750Z 02005KT 350V060 9999 BKN006 09/08 Q1013

2010/08/10 07:50
ENML 100750Z 09003KT 9999 FEW010 BKN035 16/13 Q1010

2010/08/10 07:50
ENNA 100750Z 18007KT 9999 FEW015 BKN050 15/10 Q1012

2010/08/10 07:50
ENNO 100750Z 00000KT 7000 BKN008 16/14 Q1010

2010/08/10 07:50
ENRO 100750Z 00000KT 9999 -RA SCT002 BKN016 13/12 Q1011

2010/08/10 07:50
ENSH 100750Z 02015KT 9999 FEW010 SCT035 13/10 Q1010

2010/08/10 07:50
ENSN 100750Z 20006KT 9000 SCT003 BKN015 16/12 Q1010

2010/08/10 07:50
ENSR 100750Z 35004KT 9999 FEW010 SCT060 13/10 Q1011

2010/08/10 07:50
ENTO 100750Z 22013KT 9999 FEW005 18/10 Q1011

2010/08/10 07:55
ETEB 100755Z AUTO 00000KT 9999 CLR 20/14 A3007 RMK AO2 SLP167 T01980142

2010/08/10 07:50
ETUO 100750Z 11003KT CAVOK 20/13 Q1015 BLU

2010/08/10 07:45
LIEE 100745Z 29004KT CAVOK 26/11 Q1015 NOSIG

2010/08/10 07:50
LIEO 100750Z 05005KT CAVOK 25/15 Q1016

2010/08/10 07:50
LIMC 100750Z VRB03KT 9999 BKN070 24/18 Q1017 NOSIG

2010/08/10 07:50
LIME 100750Z 35004KT 310V010 9999 SCT070 23/17 Q1017

2010/08/10 07:45
LIRA 100745Z 29002KT CAVOK 26/16 Q1015

2010/08/10 07:50
LIRF 100750Z VRB03KT CAVOK 28/16 Q1015 NOSIG

2010/08/10 07:50
LIRQ 100750Z VRB02KT 8000 FEW025 24/19 Q1016

2010/08/10 07:54
CWLY 100754Z AUTO 17002KT 9SM FEW005 BKN011 BKN025 13/12 A2995

2010/08/10 07:55
KEGI 100755Z AUTO 00000KT 5SM R18/4500V5000FT BR CLR 24/23 A2992 RMK AO2 SLP130 T02400233 $

2010/08/10 07:52
KNHK 100752Z AUTO 21008KT 10SM CLR 26/21 A2994 RMK AO2 SLP140 T02560211 $

2010/08/10 07:55
KOFF 100755Z AUTO 15005KT 10SM CLR 26/25 A2984 RMK AO2 SLP084 T02640253 $

2010/08/10 07:55
KOZR 100755Z AUTO 04005KT 10SM CLR 24/24 A2994 RMK AO2 SLP135 T02390235 $

2010/08/10 07:55
KRDR 100755Z AUTO 19005KT 10SM CLR 21/20 A2989 RMK AO2 SLP132 T02080202 $

2010/08/10 07:55
KRIV 100755Z AUTO 00000KT 10SM CLR 15/11 A2992 RMK AO2 SLP126 T01480106 403040097

2010/08/10 07:55
KRND 100755Z AUTO 00000KT 10SM BKN014 25/24 A2995 RMK AO2 SLP131 T02550239

2010/08/10 07:55
KSKF 100755Z AUTO 18004KT 10SM SCT015 26/ A2994 RMK AO2 SLP129 T0263 $

2010/08/10 07:55
KSLI 100755Z AUTO 00000KT 10SM CLR 15/14 A2991 RMK AO2 SLP129 T01500143 402250132

2010/08/10 07:55
KSUU 100755Z AUTO 25021KT 10SM CLR 13/11 A2982 RMK AO2 PK WND 25027/0742 SLP101 T01290112 402770128 RVRNO $

2010/08/10 07:55
KSZL 100755Z AUTO 17005KT 10SM CLR 27/25 A2990 RMK AO2 SLP114 T02670246 PNO $

2010/08/10 07:55
KVOK 100755Z 00000KT 1/2SM R27/0900V1400FT FG CLR 18/18 A2994 RMK AO2A SLP134 T01820182

2010/08/10 07:55
KWRB 100755Z AUTO 00000KT 10SM CLR 23/23 A2998 RMK AO2 SLP149 T02340231

2010/08/10 07:55
KWRI 100755Z AUTO 22004KT 9SM CLR 23/22 A2991 RMK AO2 SLP128 T02330222 $

2010/08/10 08:00
SPIM 100800Z 17003KT 8000 BKN015 14/12 Q1016 NOSIG RMK PP000

2010/08/10 07:55
KAFF 100755Z AUTO 35006KT 10SM BKN120 16/12 A3018 RMK AO2 SLP128 T01600117

2010/08/10 07:55
KBAB 100755Z AUTO 13006KT 10SM CLR 20/10 A2982 RMK AO2 SLP098 T01950104 403110134 $

2010/08/10 07:55
KBKF 100755Z 23009KT 25SM SCT120 17/13 A3013 RMK SLP134

2010/08/10 07:55
KCOF 100755Z AUTO 15007KT 10SM SCT029 26/ A2992 RMK AO2 SLP134 T0265

2010/08/10 07:55
KDOV 100755Z AUTO 20008KT 10SM CLR 24/24 A2992 RMK AO2 SLP134 T02430241

2010/08/10 07:55
KFAF 100755Z AUTO 22006KT 10SM CLR 26/26 A2996 RMK AO2 SLP148 T02560256 $

2010/08/10 07:55
KFBG 100755Z 20003KT 10SM CLR 25/24 A3001 RMK AO2A SLP159 T02510239 $

2010/08/10 07:55
KLHW 100755Z AUTO 00000KT 10SM CLR 24/24 A2997 RMK AO2 SLP149 T02430238

2010/08/10 07:55
KOZR 100755Z AUTO 04005KT 10SM CLR 24/24 A2994 RMK AO2 SLP135 T02390235 $

2010/08/10 07:55
KSKF 100755Z AUTO 18004KT 10SM SCT015 26/ A2994 RMK AO2 SLP129 T0263 $

2010/08/10 07:55
KSSC 100755Z 00000KT 10SM CLR 24/23 A3000 RMK AO2A SLP157 T02430231 $

2010/08/10 07:55
KVOK 100755Z 00000KT 1/2SM R27/0900V1400FT FG CLR 18/18 A2994 RMK AO2A SLP134 T01820182

2010/08/10 07:55
KWRB 100755Z AUTO 00000KT 10SM CLR 23/23 A2998 RMK AO2 SLP149 T02340231

2010/08/10 08:00
MYNN 100800Z 21005KT 9999 -SHRA SCT020 OVC080 25/25 A2994

2010/08/10 07:55
PAEI 100755Z AUTO 00000KT 10SM SCT090 OVC110 14/11 A2962 RMK AO2 SLP032 T01430110 $

2010/08/10 07:55
RODN 100755Z 19009KT 9999 -RA BKN018 BKN023 OVC150 29/26 A2981 RMK AO2A RAB0752 CIG 017V022 SLP092 P0000 T02930262

2010/08/10 07:53
K6R6 100753Z AUTO 07003KT 24/20 A2996 RMK AO2 SLP105 T02440200 PWINO TSNO 

2010/08/10 07:55
KDRA 100755Z AUTO 06005KT 10SM CLR 22/M09 A2992 RMK AO2 SLP081 T02221089 403500161 TSNO 

2010/08/10 07:55
KMBG 100755Z AUTO 15010KT 10SM CLR 23/22 A2982 RMK AO2 SLP081 T02330217 TSNO 

2010/08/10 07:55
KINL 100755Z AUTO 00000KT 10SM FEW090 18/17 A2994 RMK AO2 VIS 1 1/2 RWY 31 SLP135 T01780172 $ 

2010/08/10 07:55
KAFF 100755Z AUTO 35006KT 10SM BKN120 16/12 A3018 RMK AO2 SLP128 T01600117

2010/08/10 07:55
KBAB 100755Z AUTO 13006KT 10SM CLR 20/10 A2982 RMK AO2 SLP098 T01950104 403110134 $

2010/08/10 07:55
KCOF 100755Z AUTO 15007KT 10SM SCT029 26/ A2992 RMK AO2 SLP134 T0265

2010/08/10 07:55
KDOV 100755Z AUTO 20008KT 10SM CLR 24/24 A2992 RMK AO2 SLP134 T02430241

2010/08/10 07:55
KFAF 100755Z AUTO 22006KT 10SM CLR 26/26 A2996 RMK AO2 SLP148 T02560256 $

2010/08/10 07:55
KFBG 100755Z 20003KT 10SM CLR 25/24 A3001 RMK AO2A SLP159 T02510239 $

2010/08/10 07:55
KFCS 100755Z AUTO 04005KT 10SM SCT110 15/13 A3014 RMK AO2 SLP130 T01530132

2010/08/10 07:55
KFMH 100755Z AUTO 00000KT 4SM BR FEW041 BKN060 BKN065 21/20 A2992 RMK AO2 P0002

2010/08/10 07:55
KFTK 100755Z AUTO 00000KT 10SM CLR 26/25 A2997 RMK AO2 SLP142 T02630247 $

2010/08/10 07:55
KHIF 100755Z 10012KT 10SM CLR 18/05 A3002 RMK AO2A SLP066 T01820049

2010/08/10 07:55
KLHW 100755Z AUTO 00000KT 10SM CLR 24/24 A2997 RMK AO2 SLP149 T02430238

2010/08/10 07:55
KLTS 100755Z AUTO 19007KT 10SM CLR 26/21 A2991 RMK AO2 SLP108 T02640210 $

2010/08/10 07:55
KMUO 100755Z AUTO 15010KT 10SM FEW160 17/14 A2986 RMK AO2 SLP087 T01710144

2010/08/10 07:55
KMXF 100755Z AUTO 00000KT 10SM FEW065 26/24 A2994 RMK AO2 SLP138 T02620242

2010/08/10 07:52
KNFW 100752Z AUTO 19004KT 10SM CLR 28/19 A2993 RMK AO2 SLP120 T02830194

2010/08/10 07:50
BGCO 100750Z 17002KT 9999 FEW180 06/01 Q1013

2010/08/10 07:55
ETAD 100755Z AUTO 18004KT 9999 CLR 20/13 A3003 RMK AO2 SLPNO T02010128 VISNO RWY05 CHINO RWY05 $

2010/08/10 07:55
ETAR 100755Z AUTO 00000KT 9999 CLR 19/15 A3003 RMK AO2 SLP165 T01950149 $

2010/08/10 07:55
KFCS 100755Z AUTO 04005KT 10SM SCT110 15/13 A3014 RMK AO2 SLP130 T01530132

2010/08/10 07:55
KFTK 100755Z AUTO 00000KT 10SM CLR 26/25 A2997 RMK AO2 SLP142 T02630247 $

2010/08/10 07:55
KGTB 100755Z AUTO 22005KT 10SM FEW008 BKN015 21/20 A2993 RMK AO2 CIG 009 RWY03 SLP135 T02100202

2010/08/10 07:55
KHIF 100755Z 10012KT 10SM CLR 18/05 A3002 RMK AO2A SLP066 T01820049

2010/08/10 07:55
KLTS 100755Z AUTO 19007KT 10SM CLR 26/21 A2991 RMK AO2 SLP108 T02640210 $

2010/08/10 07:55
KMUO 100755Z AUTO 15010KT 10SM FEW160 17/14 A2986 RMK AO2 SLP087 T01710144

2010/08/10 07:55
KMXF 100755Z AUTO 00000KT 10SM FEW065 26/24 A2994 RMK AO2 SLP138 T02620242

2010/08/10 07:53
KNIP 100753Z 12008KT 10SM SCT020 27/24 A2995 RMK AO2 SLP137 T02720239

2010/08/10 07:54
KNKT 100754Z AUTO 21003KT 10SM CLR 24/23 A3002 RMK AO2 SLP162 T02440233

2010/08/10 07:52
KNRB 100752Z AUTO 14010KT 10SM CLR 28/22 A2995 RMK AO2 SLP140 T02830222

2010/08/10 07:55
KPOB 100755Z AUTO 25004KT 10SM FEW006 25/25 A3001 RMK AO2 SLP160 T02490249 $

2010/08/10 07:55
KTIK 100755Z 18011KT 10SM CLR 27/21 A2992 RMK AO2A SLP113 T02660206

2010/08/10 07:55
KXMR 100755Z AUTO 13006KT 10SM CLR 26/24 A2992 RMK AO2 SLP133 T02600239

2010/08/10 07:55
PHHI 100755Z AUTO 10011KT 10SM BKN048 24/17 A3012 RMK AO2 SLP188 T02350167 $

2010/08/10 08:00
FAVV 100800Z AUTO 10011KT //// // ////// 09/M05 Q1031

2010/08/10 08:00
FAJB 100800Z AUTO 10006G17KT //// // ////// 09/M04 Q1033

2010/08/10 08:00
FASI 100800Z AUTO 10013KT //// // ////// 10/M03 Q1033

2010/08/10 08:00
FAGC 100800Z AUTO 10016KT //// // ////// 09/M03 Q1032

2010/08/10 07:55
KAEG 100755Z AUTO 32006KT 10SM CLR 18/07 A3017 RMK AO1

2010/08/10 07:55
KAIK 100755Z AUTO 00000KT 7SM CLR 22/22 A3004 RMK AO2 PNO

2010/08/10 07:55
KBBP 100755Z AUTO 00000KT 7SM CLR 23/22 A3001 RMK AO2

2010/08/10 07:55
KBNL 100755Z AUTO 00000KT 5SM BR SCT012 23/23 A3001 RMK AO2

2010/08/10 07:55
KBWD 100755Z AUTO 16006KT 10SM CLR 27/19 A2994 RMK AO2

2010/08/10 07:55
KCEF 100755Z AUTO 24005KT 10SM SCT060 BKN080 22/21 A2991 RMK AO2 RAE0720DZB0734E0749 SLP130 P0000 T02170209 $

2010/08/10 07:55
KCGC 100755Z AUTO 10003KT 10SM CLR 24/24 A2990 RMK

2010/08/10 07:55
KCIC 100755Z AUTO 14004KT 10SM CLR 22/09 A2982 RMK AO1

2010/08/10 07:55
KCNK 100755Z AUTO 18011KT 10SM CLR 28/21 A2986 RMK AO2 SLP089 T02780211

2010/08/10 07:55
KCQW 100755Z AUTO 00000KT 3/4SM BR VV005 22/22 A3002 RMK AO2

2010/08/10 07:55
KDCM 100755Z AUTO 00000KT 7SM CLR 23/23 A3003 RMK AO2

2010/08/10 07:55
KDLH 100755Z 00000KT 10SM CLR 21/18 A2998 RMK AO2 SLP145 T02110178

2010/08/10 07:55
KE80 100755Z AUTO 34007KT 10SM CLR 22/07 A3012 RMK AO2 T02170072

2010/08/10 07:55
KEDC 100755Z AUTO 20003KT 10SM CLR 26/24 A2994 RMK AO1

2010/08/10 07:50
KEFD 100750Z 00000KT 10SM FEW250 27/25 A2993

2010/08/10 07:55
KEOE 100755Z AUTO 00000KT 10SM CLR 23/22 A3004 RMK AO2

2010/08/10 07:55
KFMH 100755Z AUTO 00000KT 4SM BR FEW041 BKN060 BKN065 21/20 A2992 RMK AO2 P0002

2010/08/10 07:55
KGYH 100755Z AUTO 00000KT 10SM CLR 27/21 A3003 RMK AO2

2010/08/10 07:55
KHYW 100755Z AUTO 00000KT 7SM CLR 23/23 A3001 RMK AO2

2010/08/10 07:55
KIRK 100755Z AUTO 20004KT 10SM CLR 27/26 A2993 RMK AO2 SLP125 T02720256

2010/08/10 07:55
KLQK 100755Z AUTO 00000KT 1 1/4SM BR VV007 23/23 A3003 RMK AO2 T02330228 PNO

2010/08/10 07:55
KLRF 100755Z AUTO 00000KT 10SM CLR 28/26 A2992 RMK AO2 SLP128 T02790258

2010/08/10 07:55
KLRO 100755Z AUTO 00000KT 7SM CLR 24/24 A3000 RMK AO2

2010/08/10 07:55
KMAO 100755Z AUTO 17003KT 10SM CLR 24/24 A3000 RMK AO2

2010/08/10 07:55
KMKS 100755Z AUTO 00000KT 7SM CLR 24/24 A3000 RMK AO2 TSNO

2010/08/10 07:55
KMMT 100755Z AUTO 00000KT 7SM R32/4000VP6000FT CLR 23/23 A3001 RMK AO2 SLP160 T02340230

2010/08/10 07:55
KMNI 100755Z AUTO 00000KT 10SM CLR 24/24 A3000 RMK AO2

2010/08/10 07:55
KRBW 100755Z AUTO 00000KT 10SM CLR 24/24 A3000 RMK AO2

2010/08/10 07:55
KRNO 100755Z 19003KT 10SM CLR 20/04 A3001 RMK AO2 SLP106 T02000039 403170139

2010/08/10 07:55
KSCK 100755Z 02004KT 10SM CLR 17/12 A2983 RMK AO2 SLP102 T01720122 403110128

2010/08/10 07:55
KSPL 100755Z AUTO 15007KT 29/27 A2989 RMK AO2 PWINO PNO

2010/08/10 07:55
KTME 100755Z AUTO 00000KT 10SM 25/25 A2993 RMK AO2

2010/08/10 07:55
KUTA 100755Z AUTO 15004KT 7SM CLR 26/25 A2993 RMK AO2

2010/08/10 07:55
KX40 100755Z AUTO 00000KT 7SM CLR 26/25 A2991 RMK AO2 T02630251

2010/08/10 07:54
PAHN 100754Z AUTO 09010G19KT 10SM OVC013 14/11 A2996 RMK AO2 SLP148 T01390106 TSNO

2010/08/10 07:54
PAKN 100754Z 21011G20KT 10SM FEW009 OVC019 11/09 A2963 RMK AO2 RAB17E27 SLP033 P0000 T01110094

2010/08/10 08:00
MROC 100800Z 00000KT 9999 4500WSW BR VCBCFG SCT001 BKN020 21/21 A3001 NOSIG

2010/08/10 07:50
LSZB 100750Z VRB02KT 9999 FEW090 21/15 Q1018 NOSIG

2010/08/10 08:00
MGGT 100800Z 02008KT 9999 SCT012 19/18 Q1023 A3021 RERA FEW080 MTN E/W CUB/CL VOL. PACAYA EN ACTIVIDAD NOSIG

2010/08/10 08:00
MROC 100800Z 00000KT 9999 4500WSW BR VCBCFG SCT001 BKN020 21/21 A3001 NOSIG

2010/08/10 08:00
MGGT 100800Z 02008KT 9999 SCT012 19/18 Q1023 A3021 RERA FEW080 MTN E/W CUB/CL VOL. PACAYA EN ACTIVIDAD NOSIG

2010/08/10 07:55
KPHP 100755Z AUTO 19010KT 10SM CLR 23/16 A2987 RMK AO2 SLP086 T02330161 TSNO 

2010/08/10 07:56
KCHS 100756Z 00000KT 10SM FEW023 27/25 A3000 RMK AO2 SLP157 T02670250 

2010/08/10 07:55
KNBG 100755Z AUTO 00000KT 4SM HZ CLR A2992 RMK AO2 SLP132 PWINO FZRANO $ 

2010/08/10 07:55
KPOE 100755Z AUTO 00000KT 10SM CLR 26/24 A2992 RMK AO2 SLP131 T02560239 

2010/08/10 07:54
KRFD 100754Z 08006KT 10SM FEW030 SCT180 24/22 A2994 RMK AO2 SLP132 T02400220 PNO $ 

2010/08/10 07:56
TJSJ 100756Z 10004KT 10SM SCT070 26/24 A2992 RMK AO2 SLP132 OCNL LTGIC DSNT N-SW CB DSNT N-SW T02610244 $ 

2010/08/10 07:55
KANJ 100755Z AUTO 31004KT 5SM BR OVC006 21/20 A2995 RMK AO2 SLP138 T02060200 

2010/08/10 07:54
KAKQ 100754Z AUTO 00000KT 8SM CLR 24/22 A2998 RMK AO2 SLP149 T02390217 TSNO 

2010/08/10 07:56
KSDF 100756Z 00000KT 8SM CLR 28/23 A2995 RMK AO2 SLP136 T02830233 

2010/08/10 07:55
KAST 100755Z AUTO 22004KT 10SM OVC022 13/11 A3001 RMK AO2 SLP162 T01330111 401610128 

2010/08/10 07:56
KSHV 100756Z 11003KT 10SM SCT290 27/23 A2991 RMK AO2 SLP124 T02670233 

2010/08/10 07:50
EGDL 100750Z 18007KT 9999 -RA FEW005 BKN050 OVC080 12/12 Q1010 RERA BLU TEMPO SCT022 WHT

2010/08/10 07:50
EGDM 100750Z 25007KT 9999 RA FEW007 BKN060 BKN100 12/11 Q1011 BLU TEMPO SCT007 GRN

2010/08/10 07:50
EGDX 100750Z 25009KT 9999 DZ FEW020 BKN060 15/13 Q1010 BLU

2010/08/10 07:50
EGDY 100750Z 23004KT 6000 RA FEW008 SCT040 OVC070 13/12 Q1011 WHT

2010/08/10 07:50
EGOS 100750Z 24004KT 9999 FEW015 BKN050 15/12 Q1008 BLU TEMPO SCT022 WHT

2010/08/10 07:50
EGOV 100750Z 22015KT 9999 FEW018 BKN060 14/12 Q1007 BLU NOSIG

2010/08/10 07:50
EGQK 100750Z 21002KT 9999 FEW022TCU SCT140 BKN250 14/10 Q1004 BLU NOSIG

2010/08/10 07:50
EGQL 100750Z 10004KT 9999 FEW011 BKN250 14/11 Q1004 BLU TEMPO -SHRA SCT020 WHT

2010/08/10 07:50
EGUB 100750Z 23006KT 9999 -RA FEW026 BKN043 BKN065 13/12 Q1011 BLU NOSIG

2010/08/10 07:50
EGUW 100750Z 25005KT 9000 RA FEW012 OVC050 14/13 Q1010 BLU TEMPO 6000 SCT010 GRN

2010/08/10 07:50
EGVO 100750Z 24006KT 9999 -RA FEW006 BKN028 OVC032 14/12 Q1011 BLU TEMPO 6000 -RA SCT007 GRN

2010/08/10 07:50
EGVP 100750Z 25006KT 9999 RA FEW007 SCT070 BKN100 13/11 Q1011 BLU BECMG 5000 BKN007 GRN

2010/08/10 07:50
EGWU 100750Z 28008KT 9999 -RA FEW006 SCT022 BKN035 14/13 Q1011 RERA WHT BECMG FEW015 BLU

2010/08/10 07:50
EGXC 100750Z 25011KT 8000 VCSH FEW014 SCT030 BKN100 16/13 Q1008 BLU TEMPO SCT015 WHT

2010/08/10 07:50
EGXD 100750Z 16005KT 9999 FEW015 SCT050 BKN080 14/12 Q1007 BLU TEMPO 7000 SHRA SCT018 WHT

2010/08/10 07:50
EGXE 100750Z 15005KT 9999 FEW015TCU BKN050 13/12 Q1006 BLU TEMPO SCT022 WHT

2010/08/10 07:50
EGXG 100750Z 21005KT 9999 FEW015 SCT070 15/13 Q1007 BLU

2010/08/10 07:50
EGXJ 100750Z 25013KT 9999 SCT010 BKN025 15/13 Q1009 GRN BECMG FEW010 BKN016 WHT

2010/08/10 07:50
EGXT 100750Z 23010KT 9999 FEW008 BKN027 BKN040 15/13 Q1009 BLU TEMPO 7000 -SHRA SCT020 WHT

2010/08/10 07:50
EGXU 100750Z 17005KT 5000 HZ FEW005 BKN070 14/13 Q1007 WHT BECMG 8000 SCT015 WHT

2010/08/10 07:50
EGXW 100750Z 26010KT 9999 SCT008 BKN040 15/14 Q1008 BLACKGRN BECMG SCT018 WHT

2010/08/10 07:50
EGXX 100750Z 21008KT 9999 FEW008 SCT045 BKN140 15/15 Q1008 BLU

2010/08/10 07:50
EGXZ 100750Z 15005KT 9999 FEW045 BKN070 14/13 Q1007 BLU

2010/08/10 07:50
EGYD 100750Z 25016KT 9999 SCT012 BKN060 15/13 Q1008 GRN BECMG SCT018 WHT

2010/08/10 07:50
EGYM 100750Z 23008KT 9999 FEW010 BKN040 13/11 Q1009 RERA BLU TEMPO SCT012 GRN

2010/08/10 07:50
EGYP 100750Z 27017KT 9999 FEW020 M00/M01 Q1005 BLU

2010/08/10 07:55
KVBG 100755Z AUTO 00000KT 10SM OVC003 12/12 A2993 RMK AO2 SLP127 T01220117 TSNO CHINO RWY12 $ 

2010/08/10 07:54
KWAL 100754Z AUTO 24005KT 10SM CLR 24/22 A2996 RMK AO2 SLP143 T02390217 TSNO 

2010/08/10 08:00
MDSD 100800Z VRB03KT 9999 -TS FEW016CB FEW018 24/22 Q1012 CB/NE/E/SE/N

2010/08/10 08:00
MYNN 100800Z 21005KT 9999 -SHRA SCT020 OVC080 25/25 A2994

2010/08/10 07:55
PAEH 100755Z AUTO 17021G31KT 3SM BKN004 OVC008 08/07 A2949 RMK AO1 T00830073

2010/08/10 07:55
PAEI 100755Z AUTO 00000KT 10SM SCT090 OVC110 14/11 A2962 RMK AO2 SLP032 T01430110 $

2010/08/10 07:55
PGUA 100755Z AUTO 07008KT 10SM SCT018 SCT025 SCT035 27/24 A2991 RMK AO2 SLP110 T02680244 $

2010/08/10 07:55
PHHI 100755Z AUTO 10011KT 10SM BKN048 24/17 A3012 RMK AO2 SLP188 T02350167 $

2010/08/10 07:53
PHJR 100753Z AUTO 07004KT 10SM CLR 25/17 A3011 RMK AO2 SLP202 T02500172 TSNO

2010/08/10 07:51
PTKK 100751Z VRB05KT 15SM FEW014 SCT120 OVC280 28/24 A2984 RMK SLP108 T02800238

2010/08/10 07:53
PTRO 100753Z 17005KT 15SM SCT016TCU BKN120 BKN300 29/24 A2985 RMK TCU VC ALQDS

2010/08/10 07:52
PTYA 100752Z 18008KT 12SM FEW016 FEW140 BKN300 31/24 A2984 RMK SLP107 T03120242

2010/08/10 07:55
RJTY 100755Z AUTO 18010KT 9999 FEW022 28/24 A3000 RMK AO2 SLP151 T02820239 $

2010/08/10 07:55
RODN 100755Z 19009KT 9999 -RA BKN018 BKN023 OVC150 29/26 A2981 RMK AO2A RAB0752 CIG 017V022 SLP092 P0000 T02930262

2010/08/10 07:55
TXKF 100755Z 17007KT 9999 FEW015 FEW180 SCT300 27/23 Q1020

2010/08/10 07:55
KQAQ 100755Z 01006KT 8000 HZ FEW060 44/09 A2962 RMK SLP025 PA +401 DA +3779

2010/08/10 07:55
KQAR 100755Z AUTO VRB02KT 11SM CLR 39/01 A2964 RMK AO2 SLP976 T03940006 $

2010/08/10 07:55
KQC3 100755Z AUTO 30002KT 9999 CLR 27/15 A3010 RMK AO2 SLP090 T02660152 PNO $

2010/08/10 07:55
KQDD 100755Z AUTO VRB01KT 9999 FEW200 31/12 A2996 RMK AO2 SLP144

2010/08/10 07:55
KQDX 100755Z AUTO VRB06KT 6000 40/00 A2972 RMK AO2 SLP982 T03961001 $

2010/08/10 07:55
KQGV 100755Z 02007KT 9999 BKN150 42/03 A2957 RMK SLP000

2010/08/10 07:55
KQGX 100755Z 23009KT 9000 HZ CLR 45/12 A2952 RMK AO2A SLP996

2010/08/10 07:55
KQMG 100755Z AUTO 16009KT 10SM CLR 25/13 A3005 RMK AO2 SLP092 T02510133

2010/08/10 07:55
KQRH 100755Z AUTO 32010G18KT 9999 CLR 39/17 A2972 RMK AO2 SLP062

2010/08/10 07:55
KQSA 100755Z 31004KT 9999 FEW070 BKN160 31/14 A2990 RMK SLP297 WND DATA ESTMD ALSTG/SLP ESTMD

2010/08/10 07:55
KQTI 100755Z AUTO 23008KT 200V260 9999 CLR 42/05 A2970 RMK AO2 SLP030 T04200050 $

2010/08/10 07:55
KQTX 100755Z 32006G13KT 9000 HZ FEW080 44/M01 A2966 RMK SLP012

2010/08/10 07:55
KQTZ 100755Z 35012KT 9000 DU HZ CLR 45/06 A2959 RMK SLP015 QNH1002MB WND DATA ESTMD ALTSG/SLP ESTMD

2010/08/10 07:55
KQVF 100755Z AUTO VRB05KT 12SM SCT026 BKN031 29/20 A3008 RMK AO2 SLP185 T02850195

2010/08/10 07:55
EHDL 100755Z AUTO 20008KT 9999NDV NCD 18/14 Q1013 BLU

2010/08/10 07:55
EHEH 100755Z AUTO 20006KT 9999NDV SCT240 SCT400 18/14 Q1014 BLU BLU NOSIG

2010/08/10 07:55
EHGR 100755Z AUTO 24006KT 9999NDV NCD 18/14 Q1013 BLU BLU TEMPO WHT TEMPO SCT020

2010/08/10 07:55
EHLW 100755Z AUTO 20009KT 9999NDV FEW017 SCT026 18/15 Q1012 BLU BLU TEMPO WHT FEW023 TEMPO SCT018

2010/08/10 07:55
EHVK 100755Z AUTO 20006KT 9999NDV FEW260 18/14 Q1014 BLU BLU NOSIG

2010/08/10 07:55
EHVL 100755Z AUTO 22018KT 9999NDV FEW011 BKN014 OVC021 18/15 Q1011 GRN

2010/08/10 07:55
EHWO 100755Z AUTO 22006KT 9999NDV BKN210 19/14 Q1013 BLU BLU TEMPO WHT BKN210 TEMPO SCT020

2010/08/10 07:56
KJAX 100756Z 05005KT 10SM FEW022 25/23 A2994 RMK AO2 SLP140 T02500233 

2010/08/10 07:55
KAAT 100755Z AUTO 18003KT 10SM CLR 14/05 A3001 RMK AO2 SLP118 T01390050 403000078 TSNO 

2010/08/10 07:54
KEAU 100754Z AUTO 04004KT 2 1/2SM BR CLR 21/20 A2994

2010/08/10 07:55
EGUN 100755Z AUTO 27009KT 9999 -RA FEW048 BKN070 13/13 A2983 RMK AO2 CIG 035 RWY11 SLP091 P0006 T01310131

2010/08/10 07:55
ETAD 100755Z AUTO 18004KT 9999 CLR 20/13 A3003 RMK AO2 SLPNO T02010128 VISNO RWY05 CHINO RWY05 $

2010/08/10 07:55
ETAR 100755Z AUTO 00000KT 9999 CLR 19/15 A3003 RMK AO2 SLP165 T01950149 $

2010/08/10 07:56
ETIC 100756Z AUTO 00000KT 9999 BKN046 16/16 A3007 RMK AO2 SLP178 T01610161

2010/08/10 07:55
ETOU 100755Z AUTO 00000KT 9999 CLR 20/15 A3003 RMK AO2 SLP168 T02010146

2010/08/10 08:00
GVAC 100800Z 02002KT 9999 SCT014 SCT200 23/19 Q1014 NOSIG

2010/08/10 07:50
LIBD 100750Z 35007KT 300V030 CAVOK 27/13 Q1014

2010/08/10 07:45
LIBR 100745Z 32026KT CAVOK 26/20 Q1013 NOSIG

2010/08/10 07:50
LICC 100750Z VRB02KT CAVOK 28/15 Q1014

2010/08/10 07:50
LICJ 100750Z 35003KT CAVOK 26/20 Q1015

2010/08/10 07:50
LIEA 100750Z 00000KT CAVOK 29/17 Q1016

2010/08/10 07:50
LIMF 100750Z 07003KT 9999 SCT070 23/18 1016

2010/08/10 07:50
LIMJ 100750Z VRB02KT 9999 FEW020 25/21 Q1016

2010/08/10 07:50
LIML 100750Z VRB02KT 9999 SCT030 23/18 Q1016 NOSIG

2010/08/10 07:50
LIPE 100750Z 30005KT 250V330 CAVOK 25/19 Q1015

2010/08/10 07:45
LIPH 100745Z 08007KT CAVOK 26/19 Q1016

2010/08/10 07:50
LIPK 100750Z VRB01KT CAVOK 25/17 Q1015

2010/08/10 07:50
LIPQ 100750Z 00000KT CAVOK 26/19 Q1015

2010/08/10 07:45
LIPR 100745Z 30004KT CAVOK 25/21 Q1015

2010/08/10 07:45
LIPX 100745Z 11001KT 9999 FEW040 27/18 Q1016

2010/08/10 07:50
LIPZ 100750Z 05005KT CAVOK 25/20 Q1016

2010/08/10 07:50
LIRN 100750Z VRB02KT 9999 SCT070 24/19 Q1015

2010/08/10 07:45
LIRP 100745Z 13001KT CAVOK 22/20 Q1016 NOSIG

2010/08/10 07:55
LIYW 100755Z AUTO 00000KT 9999 CLR 25/19 A3001 RMK AO2 SLP161 T02520186

2010/08/10 07:52
KMTC 100752Z AUTO 00000KT 2 1/2SM R19/1000VP6000FT DZ BR CLR 21/21 A2995 RMK AO2 SLP144 $

2010/08/10 07:53
KMTC 100753Z AUTO 00000KT 1 1/2SM R19/0800VP6000FT DZ BR CLR 21/21 A2995 RMK AO2 SLP144 $

2010/08/10 07:54
KMTC 100754Z AUTO 00000KT 1SM R19/0800VP6000FT DZ BR CLR 21/21 A2995 RMK AO2 SLP144 $

2010/08/10 07:56
KMTC 100756Z AUTO 00000KT 1/2SM R19/0700VP6000FT DZ FG CLR 20/20 A2995 RMK AO2 SLP144 $

2010/08/10 08:00
SBBR 100800Z 26002KT CAVOK 12/04 Q1022

2010/08/10 08:00
SBBV 100800Z 34002KT CAVOK 25/23 Q1012

2010/08/10 08:00
SBFZ 100800Z 16010KT 9999 SCT017 24/23 Q1014

2010/08/10 08:00
SBSJ 100800Z 00000KT 3000 BR BKN006 11/10 Q1023

2010/08/10 08:00
SGAS 100800Z 18005KT CAVOK 10/07 Q1019

2010/08/10 08:00
SGES 100800Z 18004KT CAVOK 12/11 Q1019

2010/08/10 08:00
SPIM 100800Z 17003KT 8000 BKN015 14/12 Q1016 NOSIG RMK PP000

2010/08/10 07:56
KABQ 100756Z 00000KT 10SM FEW110 22/08 A3014 RMK AO2 SLP109 T02220083 

2010/08/10 07:48
KNQX 100748Z AUTO 19008KT 10SM TS FEW014 SCT018 SCT026 27/23 A2984 RMK AO2 TSB42 $

2010/08/10 07:55
BGTL 100755Z AUTO 06005KT 9999 CLR 03/02 A2980 RMK AO2 SLP097 T00270024

2010/08/10 07:55
ETOU 100755Z AUTO 00000KT 9999 CLR 20/15 A3003 RMK AO2 SLP168 T02010146

2010/08/10 07:55
KDLF 100755Z AUTO 12012KT 10SM CLR 29/23 A2993 RMK AO2 SLP118 T02860225

2010/08/10 07:55
KFMH 100755Z AUTO 00000KT 4SM BR FEW041 BKN060 BKN065 21/20 A2992 RMK AO2 P0002

2010/08/10 07:55
KFRI 100755Z AUTO 19010KT 10SM CLR 29/20 A2986 RMK AO2 SLP088 T02910204

2010/08/10 07:55
KLFI 100755Z 22005KT 10SM CLR 26/23 A2997 RMK AO2A SLP149 T02550229

2010/08/10 07:55
KMCF 100755Z AUTO 07007KT 10SM CLR 26/25 A2988 RMK AO2 SLP119 T02560247

2010/08/10 07:52
KNFW 100752Z AUTO 19004KT 10SM CLR 28/19 A2993 RMK AO2 SLP120 T02830194

2010/08/10 07:53
KNQX 100753Z AUTO 19008KT 10SM -TSRA FEW014 SCT026 27/24 A2983 RMK AO2 TSB42RAB50 SLP101 P0001 T02720244 $

2010/08/10 07:55
KPAM 100755Z AUTO 10003KT 10SM CLR 27/24 A2990 RMK AO2 SLP125 T02680242 $

2010/08/10 07:55
KSKA 100755Z AUTO 20008KT 10SM FEW160 17/05 A2980 RMK AO2 SLP079 T01720053 402690119

2010/08/10 07:55
KSVN 100755Z 00000KT 7SM FEW010 25/24 A2998 RMK SLP155 ALSTG/SLP ESTMD WND DATA ESTMD

2010/08/10 07:55
KVAD 100755Z AUTO 07003KT 10SM CLR 25/24 A2995 RMK AO2 SLP140 T02460239 $

2010/08/10 07:55
MHSC 100755Z AUTO 00000KT 9999 SCT055 22/20 A2995 RMK AO2 DZB0716E0739 SLP099 P0000 T02150205 $

2010/08/10 08:00
MROC 100800Z 00000KT 9999 4500WSW BR VCBCFG SCT001 BKN020 21/21 A3001 NOSIG

2010/08/10 07:55
KHON 100755Z AUTO 15005KT 9SM FEW018 SCT029 OVC034 24/23 A2982 RMK AO2 SLP087 T02440228 TSNO 

2010/08/10 07:50
LGAL 100750Z 04014KT CAVOK 32/21 Q1011

2010/08/10 07:50
LGEL 100750Z 33010KT 9999 FEW030 32/18 Q1009

2010/08/10 07:50
LGKV 100750Z 00000KT CAVOK 31/19 Q1010

2010/08/10 07:50
LGMT 100750Z /////KT CAVOK 31/24 Q1008

2010/08/10 07:50
LGPZ 100750Z 04004KT CAVOK 31/20 Q1011 NOSIG

2010/08/10 07:50
LGRX 100750Z 00000KT CAVOK 31/20 Q1010 NOSIG

2010/08/10 07:50
LGSR 100750Z 34012KT CAVOK 31/21 Q1007 NOSIG

2010/08/10 07:50
HLLT 100750Z VRB03KT CAVOK 27/16 Q1017

2010/08/10 08:00
OSDI 100800Z VRB03KT CAVOK 31/14 Q1009

2010/08/10 08:00
OSAP 100800Z 26009KT CAVOK 32/19 Q1006

2010/08/10 08:00
OSLK 100800Z 24004KT 9999 SCT030 30/21 Q1007

2010/08/10 08:00
OSDZ 100800Z 30006KT CAVOK 34/18 Q1006

2010/08/10 08:00
OSKL 100800Z VRB03KT CAVOK 37/08 Q1006

2010/08/10 07:50
HLLT 100750Z VRB03KT CAVOK 27/16 Q1017

2010/08/10 08:00
OPST 100800Z 18004KT 4000 FU FEW035 TCU SCT040 BKN100 34/24 Q1003 RH56

2010/08/10 07:50
HLLT 100750Z VRB03KT CAVOK 27/16 Q1017

2010/08/10 08:00
GVNP 100800Z 02004KT 9999 FEW020 23/21 Q1014 NOSIG

2010/08/10 07:50
EGNS 100750Z 23015KT 9999 8000N -SHRA FEW012 SCT016 BKN040 13/11 Q1006 NOSIG

2010/08/10 07:50
LGHI 100750Z 01010KT CAVOK 30/21 Q1007

2010/08/10 07:50
LGKC 100750Z 02007KT 330V060 CAVOK 29/22 Q1012

2010/08/10 07:50
LGKF 100750Z 00000KT 9999 FEW025 27/20 Q1010

2010/08/10 07:50
LGKP 100750Z 32027KT 9999 FEW010 30/21 Q1005

2010/08/10 07:50
LGKZ 100750Z 33014KT CAVOK 25/13 Q1016

2010/08/10 07:50
LGMK 100750Z 36017G27KT 9999 FEW010 28/23 Q1008

2010/08/10 07:50
LGNX 100750Z 36011KT 9999 FEW020 29/24 Q1008

2010/08/10 07:50
LGPA 100750Z 35017KT 9999 FEW025 30/23 Q1008

2010/08/10 07:50
LGSO 100750Z 35016KT 9999 FEW020 29/21 Q1008

2010/08/10 07:50
LSZB 100750Z VRB02KT 9999 FEW090 21/15 Q1018 NOSIG

2010/08/10 07:50
EFET 100750Z AUTO 05005KT 010V130 9999 BKN009 BKN013 OVC033 11/09 Q1012

2010/08/10 07:50
EFIV 100750Z AUTO 03009KT 9999 BKN011 OVC016 11/10 Q1012

2010/08/10 07:50
EFKE 100750Z AUTO 02009KT 350V050 9999 BKN018 14/10 Q1009

2010/08/10 07:50
EFKI 100750Z AUTO 22005KT 170V270 //// OVC029 20/17 Q1009

2010/08/10 07:50
EFKS 100750Z AUTO 34003KT 9999 -RA OVC004 14/13 Q1009

2010/08/10 07:50
EFKT 100750Z AUTO 01003KT 9999 OVC012 12/10 Q1012

2010/08/10 07:50
EGLF 100750Z 25007KT 9999 -RA FEW012 SCT022 BKN038 14/13 Q1011

2010/08/10 07:50
LGAL 100750Z 04014KT CAVOK 32/21 Q1011

2010/08/10 07:50
LGEL 100750Z 33010KT 9999 FEW030 32/18 Q1009

2010/08/10 07:50
LGKV 100750Z 00000KT CAVOK 31/19 Q1010

2010/08/10 07:50
LGMT 100750Z /////KT CAVOK 31/24 Q1008

2010/08/10 07:50
LGPZ 100750Z 04004KT CAVOK 31/20 Q1011 NOSIG

2010/08/10 07:50
LGRX 100750Z 00000KT CAVOK 31/20 Q1010 NOSIG

2010/08/10 07:50
LGSR 100750Z 34012KT CAVOK 31/21 Q1007 NOSIG

2010/08/10 07:50
LGAD 100750Z 30004KT 9999 FEW080 29/22 Q1012

2010/08/10 07:50
LGAV 100750Z 03018KT 9999 FEW025 31/20 Q1011 NOSIG

2010/08/10 07:50
LGIR 100750Z 31013KT 9999 FEW020 BKN080 30/24 Q1009 NOSIG

2010/08/10 07:50
LGKL 100750Z 00000KT CAVOK 33/20 Q1009

2010/08/10 07:50
LGKO 100750Z 34010KT CAVOK 32/20 Q1006

2010/08/10 07:50
LGKR 100750Z 00000KT CAVOK 30/20 Q1010 NOSIG

2010/08/10 07:50
LGLM 100750Z 02012KT CAVOK 30/20 Q1010

2010/08/10 07:50
LGRP 100750Z 25011KT CAVOK 30/25 Q1005 NOSIG

2010/08/10 07:50
LGSA 100750Z 32006KT 9999 SCT030 SCT080 30/20 Q1010

2010/08/10 07:50
LGSM 100750Z 36010KT CAVOK 32/20 Q1006

2010/08/10 07:50
LGTS 100750Z 31010KT CAVOK 28/17 Q1013 NOSIG

2010/08/10 07:50
EGDL 100750Z 18007KT 9999 -RA FEW005 BKN050 OVC080 12/12 Q1010 RERA TEMPO SCT022

2010/08/10 08:00
RPLC 100800Z VRB08KT 9999 FEW025 OVC270 31/23 Q1008 A2977 RMK NOSIG

2010/08/10 07:58
YWGT 100758Z AUTO 32015KT //// // ////// 09/09 Q1009

2010/08/10 07:50
EGDM 100750Z 25007KT 9999 RA FEW007 BKN060 BKN100 12/11 Q1011 BLU TEMPO SCT007 GRN

2010/08/10 07:50
EGDX 100750Z 25009KT 9999 DZ FEW020 BKN060 15/13 Q1010 BLU

2010/08/10 07:50
EGQL 100750Z 10004KT 9999 FEW011 BKN250 14/11 Q1004 BLU TEMPO -SHRA SCT020 WHT

2010/08/10 07:50
EGUB 100750Z 23006KT 9999 -RA FEW026 BKN043 BKN065 13/12 Q1011 BLU NOSIG

2010/08/10 07:50
EGVO 100750Z 24006KT 9999 -RA FEW006 BKN028 OVC032 14/12 Q1011 BLU TEMPO 6000 -RA SCT007 GRN

2010/08/10 07:50
EGVP 100750Z 25006KT 9999 RA FEW007 SCT070 BKN100 13/11 Q1011 BLU BECMG 5000 BKN007 GRN

2010/08/10 07:50
EGXE 100750Z 15005KT 9999 FEW015TCU BKN050 13/12 Q1006 BLU TEMPO SCT022 WHT

2010/08/10 07:50
EGXG 100750Z 21005KT 9999 FEW015 SCT070 15/13 Q1007 BLU

2010/08/10 07:50
EGXJ 100750Z 25013KT 9999 SCT010 BKN025 15/13 Q1009 GRN BECMG FEW010 BKN016 WHT

2010/08/10 07:50
EGXU 100750Z 17005KT 5000 HZ FEW005 BKN070 14/13 Q1007 WHT BECMG 8000 SCT015 WHT

2010/08/10 07:50
EGXW 100750Z 26010KT 9999 SCT008 BKN040 15/14 Q1008 BLACKGRN BECMG SCT018 WHT

2010/08/10 07:50
EGXX 100750Z 21008KT 9999 FEW008 SCT045 BKN140 15/15 Q1008 BLU

2010/08/10 07:50
EGXZ 100750Z 15005KT 9999 FEW045 BKN070 14/13 Q1007 BLU

2010/08/10 07:50
EGYD 100750Z 25016KT 9999 SCT012 BKN060 15/13 Q1008 GRN BECMG SCT018 WHT

2010/08/10 07:55
EHDL 100755Z AUTO 20008KT 9999NDV NCD 18/14 Q1013 BLU

2010/08/10 07:55
EHVK 100755Z AUTO 20006KT 9999NDV FEW260 18/14 Q1014 BLU BLU NOSIG

2010/08/10 07:55
EHVL 100755Z AUTO 22018KT 9999NDV FEW011 BKN014 OVC021 18/15 Q1011 GRN

2010/08/10 07:50
EGDL 100750Z 18007KT 9999 -RA FEW005 BKN050 OVC080 12/12 Q1010 RERA BLU TEMPO SCT022 WHT

2010/08/10 07:50
EGOS 100750Z 24004KT 9999 FEW015 BKN050 15/12 Q1008 BLU TEMPO SCT022 WHT

2010/08/10 07:50
EGOV 100750Z 22015KT 9999 FEW018 BKN060 14/12 Q1007 BLU NOSIG

2010/08/10 07:50
EGQK 100750Z 21002KT 9999 FEW022TCU SCT140 BKN250 14/10 Q1004 BLU NOSIG

2010/08/10 07:50
EGWU 100750Z 28008KT 9999 -RA FEW006 SCT022 BKN035 14/13 Q1011 RERA WHT BECMG FEW015 BLU

2010/08/10 07:50
EGXC 100750Z 25011KT 8000 VCSH FEW014 SCT030 BKN100 16/13 Q1008 BLU TEMPO SCT015 WHT

2010/08/10 07:50
EGXT 100750Z 23010KT 9999 FEW008 BKN027 BKN040 15/13 Q1009 BLU TEMPO 7000 -SHRA SCT020 WHT

2010/08/10 07:50
LGAL 100750Z 04014KT CAVOK 32/21 Q1011

2010/08/10 07:50
LGEL 100750Z 33010KT 9999 FEW030 32/18 Q1009

2010/08/10 07:50
LGHI 100750Z 01010KT CAVOK 30/21 Q1007

2010/08/10 07:50
LGKC 100750Z 02007KT 330V060 CAVOK 29/22 Q1012

2010/08/10 07:50
LGKF 100750Z 00000KT 9999 FEW025 27/20 Q1010

2010/08/10 07:50
LGKP 100750Z 32027KT 9999 FEW010 30/21 Q1005

2010/08/10 07:50
LGKV 100750Z 00000KT CAVOK 31/19 Q1010

2010/08/10 07:50
LGKZ 100750Z 33014KT CAVOK 25/13 Q1016

2010/08/10 07:50
LGMK 100750Z 36017G27KT 9999 FEW010 28/23 Q1008

2010/08/10 07:50
LGMT 100750Z /////KT CAVOK 31/24 Q1008

2010/08/10 07:50
LGPZ 100750Z 04004KT CAVOK 31/20 Q1011 NOSIG

2010/08/10 07:50
LGRX 100750Z 00000KT CAVOK 31/20 Q1010 NOSIG

2010/08/10 07:50
LGSO 100750Z 35016KT 9999 FEW020 29/21 Q1008

2010/08/10 07:50
LGSR 100750Z 34012KT CAVOK 31/21 Q1007 NOSIG

2010/08/10 07:50
LSZB 100750Z VRB02KT 9999 FEW090 21/15 Q1018 NOSIG

2010/08/10 07:50
EGDL 100750Z 18007KT 9999 -RA FEW005 BKN050 OVC080 12/12 Q1010 RERA BLU TEMPO SCT022 WHT

2010/08/10 07:50
EGDM 100750Z 25007KT 9999 RA FEW007 BKN060 BKN100 12/11 Q1011 BLU TEMPO SCT007 GRN

2010/08/10 07:50
EGDX 100750Z 25009KT 9999 DZ FEW020 BKN060 15/13 Q1010 BLU

2010/08/10 07:50
EGOV 100750Z 22015KT 9999 FEW018 BKN060 14/12 Q1007 BLU NOSIG

2010/08/10 07:50
EGQL 100750Z 10004KT 9999 FEW011 BKN250 14/11 Q1004 BLU TEMPO -SHRA SCT020 WHT

2010/08/10 07:50
EGUB 100750Z 23006KT 9999 -RA FEW026 BKN043 BKN065 13/12 Q1011 BLU NOSIG

2010/08/10 07:50
EGVO 100750Z 24006KT 9999 -RA FEW006 BKN028 OVC032 14/12 Q1011 BLU TEMPO 6000 -RA SCT007 GRN

2010/08/10 07:50
EGVP 100750Z 25006KT 9999 RA FEW007 SCT070 BKN100 13/11 Q1011 BLU BECMG 5000 BKN007 GRN

2010/08/10 07:50
EGXE 100750Z 15005KT 9999 FEW015TCU BKN050 13/12 Q1006 BLU TEMPO SCT022 WHT

2010/08/10 07:50
EGXG 100750Z 21005KT 9999 FEW015 SCT070 15/13 Q1007 BLU

2010/08/10 07:50
EGXJ 100750Z 25013KT 9999 SCT010 BKN025 15/13 Q1009 GRN BECMG FEW010 BKN016 WHT

2010/08/10 07:50
EGXT 100750Z 23010KT 9999 FEW008 BKN027 BKN040 15/13 Q1009 BLU TEMPO 7000 -SHRA SCT020 WHT

2010/08/10 07:50
EGXU 100750Z 17005KT 5000 HZ FEW005 BKN070 14/13 Q1007 WHT BECMG 8000 SCT015 WHT

2010/08/10 07:50
EGXW 100750Z 26010KT 9999 SCT008 BKN040 15/14 Q1008 BLACKGRN BECMG SCT018 WHT

2010/08/10 07:50
EGXX 100750Z 21008KT 9999 FEW008 SCT045 BKN140 15/15 Q1008 BLU

2010/08/10 07:50
EGXZ 100750Z 15005KT 9999 FEW045 BKN070 14/13 Q1007 BLU

2010/08/10 07:50
EGYD 100750Z 25016KT 9999 SCT012 BKN060 15/13 Q1008 GRN BECMG SCT018 WHT

2010/08/10 07:50
EGAA 100750Z 26014KT 9999 SCT013 13/11 Q1004

2010/08/10 07:50
EGAC 100750Z 24010KT 210V270 9999 FEW012 SCT025 15/11 Q1004

2010/08/10 07:50
EGBJ 100750Z 21007KT 180V250 9999 FEW014 15/13 Q1010

2010/08/10 07:50
EGFF 100750Z 24009KT 9999 SCT009 SCT024 15/12 Q1010

2010/08/10 07:50
EGGW 100750Z 25009KT 9000 BKN034 BKN041 13/12 Q1010 RERA

2010/08/10 07:50
EGHE 100750Z 23020KT 2500 -RA SCT003 BKN011 16/16 Q1010

2010/08/10 07:50
EGJJ 100750Z 24010KT 210V310 8000 -DZ SCT002 BKN004 17/17 Q1013 RERA REDZ BECMG 4000 BKN003

2010/08/10 07:50
EGLC 100750Z 28006KT 9999 RA FEW007 BKN012 16/14 Q1011

2010/08/10 07:50
EGNM 100750Z 21005KT 9000 FEW010 SCT035 13/11 Q1007

2010/08/10 07:50
EGNX 100750Z 22009KT 9999 FEW012 SCT045 14/12 Q1009

2010/08/10 07:50
EGOS 100750Z 24004KT 9999 FEW015 BKN050 15/12 Q1008 BLU TEMPO SCT022 WHT

2010/08/10 07:50
EGPD 100750Z 36002KT 9999 FEW003 11/10 Q1004 NOSIG

2010/08/10 07:50
EGQK 100750Z 21002KT 9999 FEW022TCU SCT140 BKN250 14/10 Q1004 BLU NOSIG

2010/08/10 07:50
EGSC 100750Z 25007KT 210V280 9999 FEW007 SCT046 14/12 Q1010

2010/08/10 07:50
EGSH 100750Z 24008KT 6000 RA SCT008 BKN029 17/15 Q1009

2010/08/10 07:50
EGTC 100750Z 23011KT 9999 SCT044 13/11 Q1010

2010/08/10 07:50
EGTG 100750Z 19007KT 9999 FEW020 14/12 Q1010

2010/08/10 07:55
EGUL 100755Z AUTO 26010KT 9999 -RA SCT030 OVC049 13/11 A2982 RMK AO2 SLP100 P0003 T01320112

2010/08/10 07:55
EGUN 100755Z AUTO 27009KT 9999 -RA FEW048 BKN070 13/13 A2983 RMK AO2 CIG 035 RWY11 SLP091 P0006 T01310131

2010/08/10 07:50
EGWU 100750Z 28008KT 9999 -RA FEW006 SCT022 BKN035 14/13 Q1011 RERA WHT BECMG FEW015 BLU

2010/08/10 07:50
EGXC 100750Z 25011KT 8000 VCSH FEW014 SCT030 BKN100 16/13 Q1008 BLU TEMPO SCT015 WHT

2010/08/10 07:56
KNXF 100756Z AUTO 03003KT 8SM OVC012 16/13 A2991 RMK AO2 SLP213 T01560128 402220133 TSNO 

2010/08/10 07:56
CYUA 100756Z AUTO 27008KT 9SM BKN001 11/ A2966

2010/08/10 07:56
KCAE 100756Z 00000KT 6SM BR CLR 24/22 A3000 RMK AO2 SLP154 T02390222 

2010/08/10 07:56
KABH 100756Z AUTO 08007KT 10SM SCT110 16/13 A3014 RMK AO2 SLP131 T01560133 $ 

2010/08/10 07:56
KNYG 100756Z AUTO 22007KT 8SM CLR 26/21 A2995 RMK AO2 SLP143 T02560206 $ 

2010/08/10 07:56
KGNR 100756Z AUTO 00000KT 16/15 A2987 RMK AO1 SLP112 T01610150 

2010/08/10 07:56
KNTU 100756Z 24004KT 9SM FEW200 23/22 A2997 RMK AO2 SLP151 T02330222 $ 

2010/08/10 07:56
KNFE 100756Z AUTO 00000KT 1 1/2SM BR CLR 23/21 A2998 RMK AO2 SLP154 T02330211 $ 

2010/08/10 07:56
KNUQ 100756Z AUTO 00000KT 10SM OVC008 15/12 A2992 RMK AO2 SLP133 T01500122 402280144 TSNO 

2010/08/10 07:56
KCDJ 100756Z AUTO 00000KT 27/25 A2990 RMK AO2 SLP106 T02670250 PWINO TSNO 

2010/08/10 07:56
KP28 100756Z AUTO 21003KT 28/20 A2990 RMK AO2 SLP100 T02780200 PWINO TSNO 

2010/08/10 08:00
OYRN 100800Z 11009KT CAVOK 29/23 Q1004

2010/08/10 08:00
OYHD 100800Z 31013KT 7000 BKN029 35/31 Q1004

2010/08/10 08:00
OYSY 100800Z 25009KT 220V300 CAVOK 39/13 Q1005

2010/08/10 08:00
LWSK 100800Z 30004KT CAVOK 25/14 Q1016 NOSIG

2010/08/10 07:53
KLAX 100753Z 28003KT 10SM OVC007 16/13 A2991 RMK AO2 SLP127 T01560128 402000150 $

2010/08/10 07:54
KRIC 100754Z 22004KT 9SM FEW060 24/21 A2997 RMK AO2 SLP151 T02440211 $

2010/08/10 07:53
K04W 100753Z AUTO 00000KT 7SM CLR 20/19 A2996 RMK AO2 T01960190

2010/08/10 07:56
K20V 100756Z AUTO 00000KT 10SM CLR 10/06 A3030 RMK AO2

2010/08/10 07:54
K4BM 100754Z AUTO 26004KT 10SM 07/06 A3056 RMK AO2

2010/08/10 07:52
K5SM 100752Z AUTO 00000KT 10SM 08/02 A3051 RMK AO2

2010/08/10 07:54
K7BM 100754Z AUTO 30003KT 10SM CLR 13/02 A3044 RMK AO2

2010/08/10 07:52
KABI 100752Z 18006KT 10SM CLR 28/18 A2996 RMK AO2 SLP112 T02780183

2010/08/10 07:53
KAIT 100753Z AUTO 00000KT 5SM BR CLR 17/14 A2995 RMK AO2

2010/08/10 07:54
KAVP 100754Z 00000KT 10SM BKN110 23/19 A2996 RMK AO2 SLP131 T02280189 $

2010/08/10 07:53
KBBB 100753Z AUTO 11004KT 7SM CLR 22/21 A2994 RMK AO2

2010/08/10 07:58
KBDU 100758Z AUTO 00000KT 10SM CLR 17/15 A3011 RMK AO2

2010/08/10 07:55
KBIX 100755Z AUTO 04005KT 10SM CLR 26/25 A2992 RMK AO2 SLPNO T02570252 $

2010/08/10 07:56
KBMI 100756Z AUTO 00000KT 10SM SCT002 24/22 A2994 RMK AO2 PWINO T02380222 TSE24 P0002 SLP123 $

2010/08/10 07:56
KBOK 100756Z AUTO 00000KT 3SM BR OVC002 12/12 A2994 RMK AO2 T01160116 SLP140

2010/08/10 07:53
KBTR 100753Z 00000KT 8SM SCT004 BKN200 25/24 A2992 RMK AO2 SLP130 T02500244

2010/08/10 07:54
KBTV 100754Z 00000KT 1SM BR VV004 18/18 A2991 RMK AO2 SLP128 T01780178 RVRNO

2010/08/10 07:54
KC29 100754Z AUTO 00000KT 3SM SCT002 20/19 A2995 RMK AO2 T02030191

2010/08/10 07:51
KCAK 100751Z 23004KT 8SM SCT070 OVC100 24/19 A2997 RMK AO2 SLP137 T02390194

2010/08/10 07:57
KCCU 100757Z AUTO 23006KT 10SM CLR 08/02 A3058 RMK AO2

2010/08/10 07:53
KCHA 100753Z 00000KT 10SM CLR 26/24 A3000 RMK AO2 SLP149 T02610239 $

2010/08/10 07:55
KCMA 100755Z 00000KT 10SM CLR 15/12 A2989 RMK AO2 SLP130 T01500122 402170117

2010/08/10 08:02
KCPW 100802Z AUTO 23013G18KT 10SM CLR 07/00 A3058 RMK AO2

2010/08/10 07:53
KDAB 100753Z 10003KT 10SM FEW020 27/24 A2993 RMK AO2 SLP136 T02670239

2010/08/10 07:55
KEAT 100755Z AUTO 28009KT 10SM CLR 18/08 A2983 RMK AO2 SLP093 T01780078 402890161

2010/08/10 07:53
KFFM 100753Z AUTO 12005KT 10SM CLR 23/21 A2988 RMK AO2

2010/08/10 07:54
KFGN 100754Z AUTO 00000KT 7SM CLR 24/22 A2989 RMK AO2

2010/08/10 07:54
KFWA 100754Z 00000KT 3/4SM BR CLR 23/22 A2997 RMK AO2 SLP141 R32/2600FT VIS S-W 1/4 T02280222

2010/08/10 07:56
KGCM 100756Z AUTO 00000KT 10SM CLR 24/21 A2994 RMK AO2

2010/08/10 07:52
KGDB 100752Z AUTO 06005KT 10SM CLR 23/22 A2990 RMK AO2 T02250216

2010/08/10 07:53
KGHW 100753Z AUTO 09005KT 5SM BR CLR 21/19 A2996 RMK AO2

2010/08/10 07:55
KGPI 100755Z AUTO 27004KT 10SM SCT100 13/09 A2984 RMK AO2 SLP090 T01280094 $

2010/08/10 07:55
KGUS 100755Z AUTO 00000KT 9SM R23/5500VP6000FT CLR 23/23 A2996 RMK AO2 SLP139 T02270227

2010/08/10 07:55
KHFF 100755Z AUTO 00000KT 9SM R22/5500FT CLR 23/23 A3003 RMK AO2 SLP166 T02350226 $

2010/08/10 07:55
KLIC 100755Z AUTO 00000KT 10SM CLR 14/14 A3011 RMK AO2 SLP124 T01390139

2010/08/10 07:55
KLLJ 100755Z AUTO 17005KT 10SM BKN100 12/10 A3007 RMK AO2 RAB06E35 SLP142 P0000 T01170100 $

2010/08/10 07:53
KLND 100753Z AUTO 24010KT 10SM CLR 18/03 A3005 RMK AO2 SLP101 T01780033

2010/08/10 07:53
KLXV 100753Z AUTO 00000KT 10SM CLR 05/04 A3043 RMK AO2 SLP155 T00500039 TSNO

2010/08/10 07:55
KMGG 100755Z AUTO 00000KT 5SM BR CLR 19/19 A2994 RMK AO2 T01920190

2010/08/10 07:55
KMKG 100755Z 00000KT 2 1/2SM BR FEW001 21/20 A2996 RMK AO2 VIS 1/2 RWY 14 SLP141 T02110200

2010/08/10 07:56
KMOB 100756Z 01003KT 10SM FEW250 26/24 A2994 RMK AO2 SLP134 T02560239

2010/08/10 07:48
KMOX 100748Z AUTO 10007KT 7SM CLR 21/21 A2986 RMK AO2

2010/08/10 07:53
KMSN 100753Z 00000KT 1SM BR FEW001 SCT008 22/21 A2993 RMK AO2 SLP130 T02170211

2010/08/10 07:53
KMWM 100753Z AUTO 08006KT 7SM CLR 23/22 A2990 RMK AO2

2010/08/10 07:53
KOVE 100753Z AUTO 17005KT 10SM CLR 22/12 A2984 RMK AO2 SLP105 T02170117 403220150 TSNO $

2010/08/10 07:53
KPNM 100753Z AUTO 00000KT 1 3/4SM BR CLR 19/19 A2994 RMK AO2 VIS 1/2V5

2010/08/10 07:53
KPQN 100753Z AUTO 13005KT 7SM CLR 24/23 A2989 RMK AO2 LTG DSNT SW

2010/08/10 07:53
KPWC 100753Z AUTO 00000KT 10SM CLR 18/17 A2997 RMK AO2

2010/08/10 07:54
KROA 100754Z 29003KT 8SM CLR 23/21 A3003 RMK AO2 SLP155 T02330206

2010/08/10 07:53
KSAV 100753Z 00000KT 10SM FEW023 26/24 A2999 RMK AO2 SLP153 T02560239 $

2010/08/10 07:53
KSGR 100753Z AUTO 00000KT 10SM CLR 25/24 A2991 RMK AO2 SLP135 T02500239 TSNO

2010/08/10 07:53
KTLH 100753Z 07005KT 10SM SCT095 27/23 A2992 RMK AO2 SLP130 T02670233

2010/08/10 07:53
KTRI 100753Z 00000KT 5SM BR FEW060 SCT080 22/21 A3005 RMK AO2 SLP154 T02220206

2010/08/10 07:53
KTWM 100753Z AUTO 00000KT 7SM CLR 19/16 A2995 RMK AO2

2010/08/10 07:53
KTYS 100753Z 00000KT 9SM CLR 27/22 A3000 RMK AO2 SLP145 T02670217

2010/08/10 08:00
KVTP 100800Z AUTO 25010KT 210V270 10SM CLR 09/07 A3045 RMK AO2

2010/08/10 07:50
KWYS 100750Z AUTO 00000KT 1/2SM FG OVC002 06/06 A3015 RMK AO2

2010/08/10 07:56
KSDF 100756Z 00000KT 8SM CLR 28/23 A2995 RMK AO2 SLP136 T02830233

2010/08/10 07:55
K0A9 100755Z AUTO 05003KT 10SM CLR 21/19 A3006 RMK

2010/08/10 07:56
K1M4 100756Z AUTO 00000KT 2SM BR CLR 23/23 A3001 RMK AO2 T02330233 SLP159

2010/08/10 07:55
K21D 100755Z AUTO 00000KT 1/4SM FG BKN003 20/19 A2994 RMK AO2

2010/08/10 07:56
KAND 100756Z AUTO 00000KT 10SM CLR 25/21 A3001 RMK AO2 SLP151 T02500211

2010/08/10 07:56
KART 100756Z AUTO 00000KT 5SM BR BKN013 OVC020 21/20 A2993 RMK AO2 SLP128 T02110200

2010/08/10 07:55
KARW 100755Z AUTO 00000KT 10SM CLR 26/23 A2998 RMK AO2

2010/08/10 07:55
KBDN 100755Z AUTO 00000KT 10SM CLR 13/02 A2999 RMK AO2

2010/08/10 07:56
KBED 100756Z 25004KT 3SM BR BKN090 OVC110 22/21 A2988 RMK AO2 RAE34 SLP128 P0001 T02220211

2010/08/10 07:54
KBJI 100754Z AUTO 00000KT 10SM CLR 21/20 A2996 RMK AO2

2010/08/10 07:56
KBJJ 100756Z AUTO 00000KT 6SM BR FEW048 SCT060 BKN090 22/20 A2998 RMK AO2 SLP140 T02220200

2010/08/10 07:55
KBKN 100755Z AUTO 16004KT 10SM CLR 26/21 A2988 RMK AO2

2010/08/10 07:56
KBZN 100756Z AUTO 17006KT 10SM FEW080 14/10 A2999 RMK AO2 SLP119 T01390100

2010/08/10 07:56
KCEC 100756Z AUTO 00000KT 10SM OVC004 13/11 A2994 RMK AO2 SLP138 T01280111 401560117

2010/08/10 07:56
KCTB 100756Z AUTO 35003KT 10SM CLR 14/09 A2985 RMK AO2 SLP081 T01390094 PWINO

2010/08/10 07:56
KCXY 100756Z AUTO 00000KT 7SM CLR 24/21 A2992 RMK AO2 SLP130 T02440211

2010/08/10 07:53
KD39 100753Z AUTO 00000KT 5SM BR CLR 22/21 A2994 RMK AO2 T02160209

2010/08/10 07:56
KDAY 100756Z 23003KT 6SM HZ CLR 24/21 A2999 RMK AO2 SLP146 T02440206

2010/08/10 07:56
KDIK 100756Z AUTO 16014G21KT 10SM CLR 22/16 A2980 RMK AO2 SLP064 T02170161

2010/08/10 07:56
KDUG 100756Z AUTO 06006KT 10SM CLR 20/18 A3006 RMK AO2 SLP105 T02000178

2010/08/10 07:56
KDUJ 100756Z AUTO 00000KT 6SM HZ OVC110 21/18 A3001 RMK AO2 SLP145 T02060178

2010/08/10 07:56
KEAU 100756Z AUTO 04004KT 2 1/2SM BR CLR 21/20 A2994 RMK AO2 SLP130 T02060200

2010/08/10 07:56
KEED 100756Z AUTO 23006KT 10SM CLR 32/M03 A2977 RMK AO2 SLP045 T03171028 404110228 TSNO

2010/08/10 07:55
KEIK 100755Z AUTO 00000KT 5SM BR CLR 15/14 A3010 RMK AO2

2010/08/10 07:56
KEKO 100756Z AUTO 00000KT 10SM CLR 16/06 A2999 RMK AO2 SLP098 T01610056 403060150

2010/08/10 07:56
KELZ 100756Z AUTO 00000KT 1/4SM FG BKN001 OVC008 19/19 A3003 RMK AO2 SLP156 T01890189

2010/08/10 07:55
KFAF 100755Z AUTO 22006KT 10SM CLR 26/26 A2996 RMK AO2 SLP148 T02560256 $

2010/08/10 07:55
KFBG 100755Z 20003KT 10SM CLR 25/24 A3001 RMK AO2A SLP159 T02510239 $

2010/08/10 07:55
KGGE 100755Z AUTO 00000KT 10SM CLR 24/24 A3001 RMK AO2

2010/08/10 07:56
KGON 100756Z AUTO 00000KT 10SM CLR 24/20 A2991 RMK AO2 SLP128 T02390200

2010/08/10 07:56
KGRD 100756Z AUTO 00000KT 10SM CLR 23/22 A3003 RMK AO2 SLP159 T02280217

2010/08/10 07:56
KHND 100756Z AUTO 17008KT 10SM CLR 25/M01 A2989 RMK AO2 T02501011 SLP067

2010/08/10 07:56
PAAK 100756Z AUTO 27011KT 2SM OVC002 08/06 A2988 RMK AO1 PNO

2010/08/10 07:56
PABL 100756Z AUTO 15010KT 110V180 6SM SCT011 BKN033 OVC120 13/11 A2947 RMK AO1 PNO

2010/08/10 07:56
PABV 100756Z AUTO 00000KT 10SM OVC010 12/08 A2977 RMK AO1 PNO

2010/08/10 07:56
PACM 100756Z AUTO 18006KT 1 3/4SM -RA BR FEW021 SCT070 OVC100 11/09 A2933 RMK AO2 TSNO T01050094 P0004 SLP929 $

2010/08/10 07:56
PADK 100756Z 22007KT 10SM FEW011 SCT048 OVC100 10/08 A2989 RMK AO1 PNO

2010/08/10 07:56
PAEM 100756Z AUTO 14009KT 10SM FEW010 SCT019 BKN023 11/08 A2933 RMK AO1 PNO

2010/08/10 07:56
PAFE 100756Z AUTO 12003KT 10SM BKN021 OVC027 13/11 A3005 RMK AO1 PNO

2010/08/10 07:56
PAFM 100756Z AUTO 09003KT 10SM BKN036 BKN049 OVC075 13/11 A2957 RMK AO1 PNO

2010/08/10 07:56
PAGL 100756Z AUTO 11009KT 10SM BKN050 OVC060 12/09 A2949 RMK AO1 PNO

2010/08/10 07:56
PAGM 100756Z AUTO 04011KT 6SM FEW004 BKN015 OVC020 08/07 A2941 RMK AO1

2010/08/10 07:56
PAGS 100756Z AUTO 00000KT 5SM SCT020 BKN100 OVC120 13/12 A2999 RMK AO1 PNO

2010/08/10 07:56
PAHP 100756Z AUTO 20010KT 10SM BKN010 OVC013 10/07 A2930 RMK AO1 PNO TSNO

2010/08/10 07:56
PAHY 100756Z AUTO 00000KT 10SM OVC013 13/12 A3002 RMK AO1 PNO

2010/08/10 07:56
PAII 100756Z AUTO 18003KT 3SM SCT004 BKN012 OVC019 10/09 A2970 RMK AO1 PNO

2010/08/10 07:56
PAIN 100756Z AUTO 20003KT 10SM OVC046 13/08 A2968 RMK AO1 PNO

2010/08/10 07:56
PAJC 100756Z AUTO 36003KT 10SM FEW017 BKN032 OVC042 12/07 A2967 RMK AO1 PNO

2010/08/10 07:56
PAKK 100756Z AUTO 07004KT 10SM FEW024 BKN044 OVC060 12/10 A2945 RMK AO1 PNO

2010/08/10 07:56
PAKP 100756Z AUTO 06003KT 10SM BKN013 OVC031 09/09 A2961 RMK AO1

2010/08/10 07:56
PAMD 100756Z AUTO 20006KT 8SM FEW006 SCT011 OVC020 11/09 A2991 RMK AO1 PNO

2010/08/10 07:56
PAMH 100756Z RMK AO1 PNO

2010/08/10 07:56
PAMM 100756Z AUTO 00000KT 10SM OVC005 13/11 A3005 RMK AO1 PNO

2010/08/10 07:56
PAMY 100756Z 23006KT 10SM FEW021 BKN035 OVC060 09/07 A2934 RMK AO1

2010/08/10 07:56
PANI 100756Z AUTO 14007KT 10SM OVC060 12/08 A2951 RMK AO1 PNO

2010/08/10 07:56
PANV 100756Z AUTO 20006KT 10SM SCT005 BKN018 OVC026 12/10 A2948 RMK AO1 PNO

2010/08/10 07:56
PAOU 100756Z AUTO 00000KT 8SM FEW004 BKN025 BKN050 10/09 A2964 RMK AO2 PWINO TSNO T01000088 SLP041 $

2010/08/10 07:56
PAPG 100756Z 00000KT 10SM OVC030 12/11 A3001 RMK AO1 PNO

2010/08/10 07:56
PAPH 100756Z AUTO 08004KT 10SM BKN041 OVC047 11/08 A2964 RMK AO1 PNO

2010/08/10 07:56
PAPN 100756Z AUTO 00000KT 2 1/2SM BR BKN018 OVC024 10/09 A2966 RMK AO2 PWINO TSNO T01000094 SLP047

2010/08/10 07:56
PARC 100756Z AUTO 36004KT 10SM SCT038 BKN048 OVC060 11/08 A2962 RMK AO1 PNO

2010/08/10 07:56
PASA 100756Z AUTO 05010KT 10SM BKN006 BKN013 OVC070 10/07 A2940 RMK AO1 PNO

2010/08/10 07:56
PASD 100756Z AUTO 21017G20KT 8SM OVC017 10/08 A2969 RMK AO1 PNO

2010/08/10 07:56
PASH 100756Z AUTO 01004KT 6SM OVC060 12/11 A2946 RMK AO1 PNO

2010/08/10 07:56
PASK 100756Z AUTO 11012KT 10SM OVC070 14/11 A2950 RMK AO1 PNO

2010/08/10 07:56
PASL 100756Z AUTO 16006KT 10SM FEW029 SCT060 OVC080 12/08 A2962 RMK AO1 PNO

2010/08/10 07:55
KSMS 100755Z AUTO 00000KT 2SM BR CLR 23/23 A3002 RMK AO2

2010/08/10 07:56
KSRC 100756Z AUTO 00000KT 10SM CLR 28/26 A2993 RMK AO2 TSNO T02770261 SLP135

2010/08/10 07:56
KTPH 100756Z AUTO 01005KT 10SM CLR 14/M11 A3006 RMK AO2 SLP110 T01391111 402890128

2010/08/10 07:56
KUKI 100756Z AUTO 17004KT 10SM CLR 17/11 A2986 RMK AO2 SLP104 T01670111 403280111

2010/08/10 07:55
KVQQ 100755Z AUTO 00000KT 9SM CLR 23/23 A2995 RMK AO2

2010/08/10 07:56
KWJF 100756Z 28009KT 10SM CLR 22/M07 A2991 RMK AO2 SLP107 T02171067 403390117

2010/08/10 07:55
KWRB 100755Z AUTO 00000KT 10SM CLR 23/23 A2998 RMK AO2 SLP149 T02340231

2010/08/10 07:55
KY51 100755Z AUTO 08003KT 7SM CLR 23/22 A2996 RMK AO1 T02260221

2010/08/10 07:56
PAAK 100756Z AUTO 27011KT 2SM OVC002 08/06 A2988 RMK AO1 PNO

2010/08/10 07:56
PACM 100756Z AUTO 18006KT 1 3/4SM -RA BR FEW021 SCT070 OVC100 11/09 A2933 RMK AO2 TSNO T01050094 P0004 SLP929 $

2010/08/10 07:56
PAHP 100756Z AUTO 20010KT 10SM BKN010 OVC013 10/07 A2930 RMK AO1 PNO TSNO

2010/08/10 07:56
TJSJ 100756Z 10004KT 10SM SCT070 26/24 A2992 RMK AO2 SLP132 OCNL LTGIC DSNT N-SW CB DSNT N-SW T02610244 $

2010/08/10 07:56
PASM 100756Z AUTO 16009G15KT 3SM BKN005 OVC015 09/08 A2940 RMK AO1 PNO

2010/08/10 07:56
PASX 100756Z AUTO 00000KT 10SM BKN008 OVC044 11/10 A2977 RMK AO1 PNO

2010/08/10 07:56
PATG 100756Z AUTO 18018KT 5SM OVC008 10/09 A2955 RMK AO1 PNO

2010/08/10 07:56
PAUN 100756Z AUTO 11004KT 10SM SCT042 OVC050 12/07 A2946 RMK AO1 PNO

2010/08/10 07:56
PAVD 100756Z 00000KT 5SM SCT003 SCT009 OVC017 11/09 A2989 RMK AO1 PNO

2010/08/10 07:56
PAWG 100756Z AUTO 00000KT 10SM BKN034 OVC046 12/11 A3002 RMK AO1 PNO

2010/08/10 07:56
PAWN 100756Z AUTO 05006KT 10SM OVC025 12/10 A2951 RMK AO1 PNO

2010/08/10 07:56
PAWS 100756Z AUTO 00000KT 10SM OVC015 11/10 A2977 RMK AO1 PNO

2010/08/10 07:56
KHPN 100756Z 34005KT 9SM CLR 25/18 A2994 RMK AO2 SLP129 T02500183

2010/08/10 07:55
KHVS 100755Z AUTO 00000KT 3SM CLR 22/ A3002 RMK AO2

2010/08/10 07:56
KHWV 100756Z AUTO 26004KT 10SM -RA BKN050 OVC065 26/20 A2993 RMK AO2 RAB56 SLP132 P0000 T02560200

2010/08/10 07:56
KHYA 100756Z AUTO 00000KT 5SM -RA BR FEW065 BKN080 21/20 A2990 RMK AO2 LTG DSNT E TSE37 SLP127 P0016 T02110200

2010/08/10 07:55
KIFP 100755Z AUTO 00000KT 10SM CLR 30/04 A2976 RMK AO2

2010/08/10 07:56
KIGX 100756Z AUTO 00000KT 8SM CLR 24/22 A3002 RMK AO2 SLP158 T02390222

2010/08/10 07:56
KINW 100756Z AUTO 20008KT 10SM SCT100 20/10 A3012 RMK AO2 SLP122 T02000100 $

2010/08/10 07:56
KISP 100756Z 25006KT 10SM BKN140 BKN250 25/18 A2991 RMK AO2 SLP126 T02500178

2010/08/10 07:56
KITH 100756Z AUTO 20003KT 5SM BR FEW026 OVC039 21/20 A2999 RMK AO2 T02110200 RAE40 P0000 SLP148

2010/08/10 07:56
KJMS 100756Z AUTO 13005KT 10SM CLR 20/18 A2988 RMK AO2 SLP109 T02000183

2010/08/10 07:56
KJXN 100756Z 00000KT 1/4SM FG VV001 20/20 A2998 RMK AO2 SLP145 T02000200 $

2010/08/10 07:56
KLAS 100756Z 19008KT 10SM CLR 28/M04 A2982 RMK AO2 SLP068 T02831039 403720233

2010/08/10 07:56
KLNR 100756Z AUTO 00000KT 1/4SM FG VV001 23/22 A2994 RMK AO2 SLP127 T02280222

2010/08/10 07:55
KLUX 100755Z AUTO 16003KT 7SM CLR 23/23 A3003 RMK AO2

2010/08/10 07:56
KM19 100756Z AUTO 00000KT 10SM CLR 27/26 A2993 RMK AO2 T02660255 SLPNO

2010/08/10 07:56
KMDT 100756Z 00000KT 7SM BKN200 27/22 A2991 RMK AO2 SLP126 T02670217

2010/08/10 07:56
KMQY 100756Z AUTO 00000KT 10SM CLR 26/24 A2998 RMK AO2 T02550238 SLP142 $

2010/08/10 07:56
KMRH 100756Z AUTO 24005KT 10SM SCT090 27/24 A3001 RMK AO2 SLP163 T02720244 TSNO

2010/08/10 07:55
KMXF 100755Z AUTO 00000KT 10SM FEW065 26/24 A2994 RMK AO2 SLP138 T02620242

2010/08/10 07:55
KNQA 100755Z AUTO 00000KT 8SM CLR 26/25 A2993 RMK

2010/08/10 07:55
KO22 100755Z AUTO 00000KT 10SM CLR 15/10 A2992 RMK AO1

2010/08/10 07:56
KOFK 100756Z AUTO 13005KT 2 1/2SM BR OVC001 26/25 A2985 RMK AO2 SLP092 T02560250

2010/08/10 07:56
KOWB 100756Z AUTO 00000KT 9SM CLR 28/25 A2995 RMK AO2 T02770250 SLP135

2010/08/10 07:55
KOZR 100755Z AUTO 04005KT 10SM CLR 24/24 A2994 RMK AO2 SLP135 T02390235 $

2010/08/10 07:55
KPVF 100755Z AUTO 00000KT 10SM FEW048 19/09 A2995 RMK AO1

2010/08/10 07:55
KRCE 100755Z AUTO 19009KT 10SM CLR 28/20 A2993 RMK AO2

2010/08/10 07:56
KRDM 100756Z AUTO 31005KT 10SM CLR 14/06 A2996 RMK AO2 SLP120 T01440056 402890083

2010/08/10 07:56
KSBP 100756Z 33004KT 10SM OVC006 13/12 A2992 RMK AO2 SLP131 T01280117 402330128 $

2010/08/10 07:56
KSFO 100756Z 29006KT 10SM FEW003 OVC012 13/11 A2991 RMK AO2 SLP128 T01330106 402060128

2010/08/10 07:56
KSGH 100756Z AUTO 00000KT 5SM BR FEW049 23/23 A2999 RMK AO2 T02330227 SLP146 $

2010/08/10 07:58
KSGJ 100758Z AUTO 13009KT 10SM FEW022 SCT050 27/24 A2995 RMK AO2 SLP141 T02720239

2010/08/10 07:56
KSLE 100756Z AUTO 28003KT 10SM CLR 13/10 A2998 RMK AO2 SLP153 T01330100 402220128 TSNO

2010/08/10 07:56
KFLL 100756Z 15013G18KT 10SM -RA BKN022 BKN030 BKN040 27/24 A2988 RMK AO2 P0000

2010/08/10 07:56
KGRR 100756Z AUTO 00000KT 3/4SM BR CLR 20/19 A2997 RMK AO2

2010/08/10 07:56
KMTH 100756Z AUTO 21010G18KT 3SM RA BR SCT009 BKN020 OVC050 26/24 A2984 RMK AO2 LTG DSNT SW CIG 013V027 P0001

2010/08/10 07:50
EFET 100750Z AUTO 05005KT 010V130 9999 BKN009 BKN013 OVC033 11/09 Q1012

2010/08/10 07:50
EFIV 100750Z AUTO 03009KT 9999 BKN011 OVC016 11/10 Q1012

2010/08/10 07:50
EFKE 100750Z AUTO 02009KT 350V050 9999 BKN018 14/10 Q1009

2010/08/10 07:50
EFKI 100750Z AUTO 22005KT 170V270 //// OVC029 20/17 Q1009

2010/08/10 07:50
EFKS 100750Z AUTO 34003KT 9999 -RA OVC004 14/13 Q1009

2010/08/10 07:50
EFKT 100750Z AUTO 01003KT 9999 OVC012 12/10 Q1012

2010/08/10 08:00
SBRB 100800Z 00000KT 5000 FU NSC 23/19 Q1014

2010/08/10 08:00
SVBC 100800Z 00000KT 9999 FEW010 25/20 Q1012

2010/08/10 07:54
KMTP 100754Z AUTO 00000KT 24/19 A2993 RMK AO2 SLP134 T02390194 PWINO TSNO

2010/08/10 07:54
KNAK 100754Z AUTO 00000KT 9SM CLR 25/20 A2992 RMK AO2 SLP135 T02500200 TSNO

2010/08/10 07:54
KGSO 100754Z 23003KT 7SM CLR 24/21 A3003 RMK AO2 SLP157 T02440206

2010/08/10 07:54
KBKB 100754Z AUTO 00000KT 10SM CLR 26/24 A2991 RMK AO2 SLP151 T02560239 $

2010/08/10 07:54
KACY 100754Z 21006KT 10SM CLR 24/22 A2995 RMK AO2 SLP140 T02440222 $

2010/08/10 07:54
KROC 100754Z 22003KT 2 1/2SM BR SCT060 BKN075 OVC080 21/21 A2994 RMK AO2 RAB28E43 SLP135 P0000 T02110206

2010/08/10 07:54
KDMH 100754Z AUTO 26/21 A2992 RMK AO2 SLP133 T02610206 PWINO TSNO

2010/08/10 07:52
KMWN 100752Z 33022KT 100SM BKN/// FEW100 SCT200 09/07 RMK TPS LWR BKN049 PTCHY VLY FG ALQDS

2010/08/10 07:53
KMWT 100753Z AUTO 00000KT 10SM CLR 24/23 A2992 RMK AO2 SLP115 T02440233 TSNO

2010/08/10 07:53
K6R6 100753Z AUTO 07003KT 24/20 A2996 RMK AO2 SLP105 T02440200 PWINO TSNO

2010/08/10 07:55
KDRA 100755Z AUTO 06005KT 10SM CLR 22/M09 A2992 RMK AO2 SLP081 T02221089 403500161 TSNO

2010/08/10 07:55
KINL 100755Z AUTO 00000KT 10SM FEW090 18/17 A2994 RMK AO2 VIS 1 1/2 RWY 31 SLP135 T01780172 $

2010/08/10 07:55
KMBG 100755Z AUTO 15010KT 10SM CLR 23/22 A2982 RMK AO2 SLP081 T02330217 TSNO

2010/08/10 07:55
KPHP 100755Z AUTO 19010KT 10SM CLR 23/16 A2987 RMK AO2 SLP086 T02330161 TSNO

2010/08/10 07:56
KSHV 100756Z 11003KT 10SM SCT290 27/23 A2991 RMK AO2 SLP124 T02670233

2010/08/10 07:55
KPOE 100755Z AUTO 00000KT 10SM CLR 26/24 A2992 RMK AO2 SLP131 T02560239

2010/08/10 07:56
KCHS 100756Z 00000KT 10SM FEW023 27/25 A3000 RMK AO2 SLP157 T02670250

2010/08/10 07:56
TJSJ 100756Z 10004KT 10SM SCT070 26/24 A2992 RMK AO2 SLP132 OCNL LTGIC DSNT N-SW CB DSNT N-SW T02610244 $

2010/08/10 07:56
KSDF 100756Z 00000KT 8SM CLR 28/23 A2995 RMK AO2 SLP136 T02830233

2010/08/10 07:55
KAST 100755Z AUTO 22004KT 10SM OVC022 13/11 A3001 RMK AO2 SLP162 T01330111 401610128

2010/08/10 07:55
KANJ 100755Z AUTO 31004KT 5SM BR OVC006 21/20 A2995 RMK AO2 SLP138 T02060200

2010/08/10 07:54
KRFD 100754Z 08006KT 10SM FEW030 SCT180 24/22 A2994 RMK AO2 SLP132 T02400220 PNO $

2010/08/10 07:54
KAKQ 100754Z AUTO 00000KT 8SM CLR 24/22 A2998 RMK AO2 SLP149 T02390217 TSNO

2010/08/10 07:54
KWAL 100754Z AUTO 24005KT 10SM CLR 24/22 A2996 RMK AO2 SLP143 T02390217 TSNO

2010/08/10 07:55
KVBG 100755Z AUTO 00000KT 10SM OVC003 12/12 A2993 RMK AO2 SLP127 T01220117 TSNO CHINO RWY12 $

2010/08/10 07:55
KAAT 100755Z AUTO 18003KT 10SM CLR 14/05 A3001 RMK AO2 SLP118 T01390050 403000078 TSNO

2010/08/10 07:56
KJAX 100756Z 05005KT 10SM FEW022 25/23 A2994 RMK AO2 SLP140 T02500233

2010/08/10 07:56
KABQ 100756Z 00000KT 10SM FEW110 22/08 A3014 RMK AO2 SLP109 T02220083

2010/08/10 07:55
KHON 100755Z AUTO 15005KT 9SM FEW018 SCT029 OVC034 24/23 A2982 RMK AO2 SLP087 T02440228 TSNO

2010/08/10 07:56
KCAE 100756Z 00000KT 6SM BR CLR 24/22 A3000 RMK AO2 SLP154 T02390222

2010/08/10 07:56
KCDJ 100756Z AUTO 00000KT 27/25 A2990 RMK AO2 SLP106 T02670250 PWINO TSNO

2010/08/10 07:56
KGNR 100756Z AUTO 00000KT 16/15 A2987 RMK AO1 SLP112 T01610150

2010/08/10 07:56
KNUQ 100756Z AUTO 00000KT 10SM OVC008 15/12 A2992 RMK AO2 SLP133 T01500122 402280144 TSNO

2010/08/10 07:56
KNFE 100756Z AUTO 00000KT 1 1/2SM BR CLR 23/21 A2998 RMK AO2 SLP154 T02330211 $

2010/08/10 07:56
KP28 100756Z AUTO 21003KT 28/20 A2990 RMK AO2 SLP100 T02780200 PWINO TSNO

2010/08/10 07:56
KNTU 100756Z 24004KT 9SM FEW200 23/22 A2997 RMK AO2 SLP151 T02330222 $

2010/08/10 08:00
SBAR 100800Z 12007KT 9999 FEW015 24/20 Q1017

2010/08/10 08:00
SBPS 100800Z 27005KT 9999 FEW020 16/16 Q1018

2010/08/10 07:50
LGAD 100750Z 30004KT 9999 FEW080 29/22 Q1012

2010/08/10 07:50
LGAV 100750Z 03018KT 9999 FEW025 31/20 Q1011 NOSIG

2010/08/10 07:50
LGIR 100750Z 31013KT 9999 FEW020 BKN080 30/24 Q1009 NOSIG

2010/08/10 07:50
LGKL 100750Z 00000KT CAVOK 33/20 Q1009

2010/08/10 07:50
LGKO 100750Z 34010KT CAVOK 32/20 Q1006

2010/08/10 07:50
LGKR 100750Z 00000KT CAVOK 30/20 Q1010 NOSIG

2010/08/10 07:50
LGLM 100750Z 02012KT CAVOK 30/20 Q1010

2010/08/10 07:50
LGRP 100750Z 25011KT CAVOK 30/25 Q1005 NOSIG

2010/08/10 07:50
LGSA 100750Z 32006KT 9999 SCT030 SCT080 30/20 Q1010

2010/08/10 07:50
LGSM 100750Z 36010KT CAVOK 32/20 Q1006

2010/08/10 07:50
LGTS 100750Z 31010KT CAVOK 28/17 Q1013 NOSIG

2010/08/10 08:00
SBGL 100800Z 28004KT 7000 SCT012 BKN020 19/16 Q1023

2010/08/10 07:50
LGAL 100750Z 04014KT CAVOK 32/21 Q1011

2010/08/10 07:50
LGEL 100750Z 33010KT 9999 FEW030 32/18 Q1009

2010/08/10 07:50
LGKV 100750Z 00000KT CAVOK 31/19 Q1010

2010/08/10 07:50
LGMT 100750Z /////KT CAVOK 31/24 Q1008

2010/08/10 07:50
LGPZ 100750Z 04004KT CAVOK 31/20 Q1011 NOSIG

2010/08/10 07:50
LGRX 100750Z 00000KT CAVOK 31/20 Q1010 NOSIG

2010/08/10 07:50
LGSR 100750Z 34012KT CAVOK 31/21 Q1007 NOSIG

2010/08/10 07:50
MMCL 100750Z 02005KT 10SM SCT100 BKN220 27/25 A2983 RMK 8/077 RTS

2010/08/10 07:50
EGDL 100750Z 18007KT 9999 -RA FEW005 BKN050 OVC080 12/12 Q1010 RERA TEMPO SCT022

2010/08/10 07:54
KNFG 100754Z 02003KT 6SM BR FEW015 11/09 A2992 RMK AO2 SLP129 T01060089 402330078

2010/08/10 07:54
KBKB 100754Z AUTO 00000KT 10SM CLR 26/24 A2991 RMK AO2 SLP151 T02560239 $

2010/08/10 07:55
KCEF 100755Z AUTO 24005KT 10SM SCT060 BKN080 22/21 A2991 RMK AO2 RAE0720DZB0734E0749 SLP130 P0000 T02170209 $

2010/08/10 07:55
KLRF 100755Z AUTO 00000KT 10SM CLR 28/26 A2992 RMK AO2 SLP128 T02790258

2010/08/10 07:55
KMMT 100755Z AUTO 00000KT 7SM R32/4000VP6000FT CLR 23/23 A3001 RMK AO2 SLP160 T02340230

2010/08/10 07:55
KBIX 100755Z AUTO 04005KT 10SM CLR 26/25 A2992 RMK AO2 SLPNO T02570252 $

2010/08/10 07:55
KCBM 100755Z AUTO 00000KT 10SM CLR 25/25 A2995 RMK AO2 SLP141 T02460245 $

2010/08/10 07:55
KDYS 100755Z AUTO 16007KT 10SM OVC190 28/18 A2994 RMK AO2 SLP109 T02770180 $

2010/08/10 07:55
KEND 100755Z 16006KT 10SM CLR 26/20 A2990 RMK AO2A SLP105 T02630201 $

2010/08/10 07:55
KFSI 100755Z AUTO 17003KT 10SM BKN080 28/20 A2991 RMK AO2 SLP101 T02800202

2010/08/10 07:55
KLSF 100755Z AUTO 00000KT 9SM R33/5500VP6000FT CLR 23/22 A2996 RMK AO2 SLP143 T02290219 PNO $

2010/08/10 07:55
KMUI 100755Z AUTO 00000KT 9SM OVC160 23/22 A2993 RMK AO2 SLP134 T02280223 $

2010/08/10 07:55
KRIV 100755Z AUTO 00000KT 10SM CLR 15/11 A2992 RMK AO2 SLP126 T01480106 403040097

2010/08/10 07:55
KRND 100755Z AUTO 00000KT 10SM BKN014 25/24 A2995 RMK AO2 SLP131 T02550239

2010/08/10 07:55
KSLI 100755Z AUTO 00000KT 10SM CLR 15/14 A2991 RMK AO2 SLP129 T01500143 402250132

2010/08/10 07:55
KWRI 100755Z AUTO 22004KT 9SM CLR 23/22 A2991 RMK AO2 SLP128 T02330222 $

2010/08/10 07:53
PABI 100753Z AUTO 20012KT 10SM SCT095 16/06 A2967 RMK AO2 SLP043 T01610061 TSNO

2010/08/10 07:55
PGUA 100755Z AUTO 07008KT 10SM SCT018 SCT025 SCT035 27/24 A2991 RMK AO2 SLP110 T02680244 $

2010/08/10 07:55
KBAD 100755Z AUTO 14004KT 10SM CLR 26/23 A2993 RMK AO2 SLP133 T02570231

2010/08/10 07:55
KBIX 100755Z AUTO 04005KT 10SM CLR 26/25 A2992 RMK AO2 SLPNO T02570252 $

2010/08/10 07:55
KHST 100755Z AUTO 14006KT 10SM FEW050 27/24 A2987 RMK AO2 SLP117 T02680235

2010/08/10 07:52
KNHK 100752Z AUTO 21008KT 10SM CLR 26/21 A2994 RMK AO2 SLP140 T02560211 $

2010/08/10 07:55
KOFF 100755Z AUTO 15005KT 10SM CLR 26/25 A2984 RMK AO2 SLP084 T02640253 $

2010/08/10 07:55
KWRI 100755Z AUTO 22004KT 9SM CLR 23/22 A2991 RMK AO2 SLP128 T02330222 $

2010/08/10 07:55
KBAD 100755Z AUTO 14004KT 10SM CLR 26/23 A2993 RMK AO2 SLP133 T02570231

2010/08/10 07:55
KBIX 100755Z AUTO 04005KT 10SM CLR 26/25 A2992 RMK AO2 SLPNO T02570252 $

2010/08/10 07:55
KBKF 100755Z 23009KT 25SM SCT120 17/13 A3013 RMK SLP134

2010/08/10 07:55
KCBM 100755Z AUTO 00000KT 10SM CLR 25/25 A2995 RMK AO2 SLP141 T02460245 $

2010/08/10 07:55
KDAA 100755Z AUTO 00000KT 10SM CLR 23/21 A2994 RMK AO2 SLP141 T02310209

2010/08/10 07:55
KDYS 100755Z AUTO 16007KT 10SM OVC190 28/18 A2994 RMK AO2 SLP109 T02770180 $

2010/08/10 07:55
KEDW 100755Z AUTO 16006KT 10SM CLR 19/M00 A2989 RMK AO2 SLP074 T01851000 403450138

2010/08/10 07:55
KEND 100755Z 16006KT 10SM CLR 26/20 A2990 RMK AO2A SLP105 T02630201 $

2010/08/10 07:55
KFSI 100755Z AUTO 17003KT 10SM BKN080 28/20 A2991 RMK AO2 SLP101 T02800202

2010/08/10 07:55
KGUS 100755Z AUTO 00000KT 9SM R23/5500VP6000FT CLR 23/23 A2996 RMK AO2 SLP139 T02270227

2010/08/10 07:55
KIAB 100755Z AUTO 17007KT 10SM FEW100 28/21 A2990 RMK AO2 SLP108 T02810207 $

2010/08/10 07:55
KLSF 100755Z AUTO 00000KT 9SM R33/5500VP6000FT CLR 23/22 A2996 RMK AO2 SLP143 T02290219 PNO $

2010/08/10 07:55
KMTC 100755Z AUTO 00000KT 3/4SM R19/0700VP6000FT DZ BR CLR 20/20 A2995 RMK AO2 SLP144 P0000 T02050205 $

2010/08/10 07:55
KMUI 100755Z AUTO 00000KT 9SM OVC160 23/22 A2993 RMK AO2 SLP134 T02280223 $

2010/08/10 07:55
KAFF 100755Z AUTO 35006KT 10SM BKN120 16/12 A3018 RMK AO2 SLP128 T01600117

2010/08/10 07:55
KBAB 100755Z AUTO 13006KT 10SM CLR 20/10 A2982 RMK AO2 SLP098 T01950104 403110134 $

2010/08/10 07:55
KBKF 100755Z 23009KT 25SM SCT120 17/13 A3013 RMK SLP134

2010/08/10 07:55
KCOF 100755Z AUTO 15007KT 10SM SCT029 26/ A2992 RMK AO2 SLP134 T0265

2010/08/10 07:55
PTKR 100755Z 17013KT 15SM FEW018 SCT120 OVC300 29/24 A2982 RMK SLP099 T02940237

2010/08/10 07:50
EGLF 100750Z 25007KT 9999 -RA FEW012 SCT022 BKN038 14/13 Q1011

2010/08/10 08:00
SBFL 100800Z 00000KT 9999 SCT025 14/11 Q1025

2010/08/10 07:55
KCMA 100755Z 00000KT 10SM CLR 15/12 A2989 RMK AO2 SLP130 T01500122 402170117

2010/08/10 07:55
KEAT 100755Z AUTO 28009KT 10SM CLR 18/08 A2983 RMK AO2 SLP093 T01780078 402890161

2010/08/10 07:53
KFFM 100753Z AUTO 12005KT 10SM CLR 23/21 A2988 RMK AO2

2010/08/10 07:54
KFGN 100754Z AUTO 00000KT 7SM CLR 24/22 A2989 RMK AO2

2010/08/10 07:56
KGCM 100756Z AUTO 00000KT 10SM CLR 24/21 A2994 RMK AO2

2010/08/10 07:52
KGDB 100752Z AUTO 06005KT 10SM CLR 23/22 A2990 RMK AO2 T02250216

2010/08/10 07:53
KGHW 100753Z AUTO 09005KT 5SM BR CLR 21/19 A2996 RMK AO2

2010/08/10 07:55
KHFF 100755Z AUTO 00000KT 9SM R22/5500FT CLR 23/23 A3003 RMK AO2 SLP166 T02350226 $

2010/08/10 07:55
KLLJ 100755Z AUTO 17005KT 10SM BKN100 12/10 A3007 RMK AO2 RAB06E35 SLP142 P0000 T01170100 $

2010/08/10 07:55
KMGG 100755Z AUTO 00000KT 5SM BR CLR 19/19 A2994 RMK AO2 T01920190

2010/08/10 07:48
KMOX 100748Z AUTO 10007KT 7SM CLR 21/21 A2986 RMK AO2

2010/08/10 07:53
KMWM 100753Z AUTO 08006KT 7SM CLR 23/22 A2990 RMK AO2

2010/08/10 07:53
KOVE 100753Z AUTO 17005KT 10SM CLR 22/12 A2984 RMK AO2 SLP105 T02170117 403220150 TSNO $

2010/08/10 07:53
KPNM 100753Z AUTO 00000KT 1 3/4SM BR CLR 19/19 A2994 RMK AO2 VIS 1/2V5

2010/08/10 07:53
KPQN 100753Z AUTO 13005KT 7SM CLR 24/23 A2989 RMK AO2 LTG DSNT SW

2010/08/10 07:53
KPWC 100753Z AUTO 00000KT 10SM CLR 18/17 A2997 RMK AO2

2010/08/10 07:53
KSGR 100753Z AUTO 00000KT 10SM CLR 25/24 A2991 RMK AO2 SLP135 T02500239 TSNO

2010/08/10 07:53
KTWM 100753Z AUTO 00000KT 7SM CLR 19/16 A2995 RMK AO2

2010/08/10 07:50
KWYS 100750Z AUTO 00000KT 1/2SM FG OVC002 06/06 A3015 RMK AO2

2010/08/10 07:55
KFMH 100755Z AUTO 00000KT 4SM BR FEW041 BKN060 BKN065 21/20 A2992 RMK AO2 P0002

2010/08/10 07:56
KSDF 100756Z 00000KT 8SM CLR 28/23 A2995 RMK AO2 SLP136 T02830233

2010/08/10 07:55
K0A9 100755Z AUTO 05003KT 10SM CLR 21/19 A3006 RMK

2010/08/10 07:56
K1M4 100756Z AUTO 00000KT 2SM BR CLR 23/23 A3001 RMK AO2 T02330233 SLP159

2010/08/10 07:55
K21D 100755Z AUTO 00000KT 1/4SM FG BKN003 20/19 A2994 RMK AO2

2010/08/10 07:56
KAND 100756Z AUTO 00000KT 10SM CLR 25/21 A3001 RMK AO2 SLP151 T02500211

2010/08/10 07:56
KART 100756Z AUTO 00000KT 5SM BR BKN013 OVC020 21/20 A2993 RMK AO2 SLP128 T02110200

2010/08/10 07:55
KARW 100755Z AUTO 00000KT 10SM CLR 26/23 A2998 RMK AO2

2010/08/10 07:55
KBDN 100755Z AUTO 00000KT 10SM CLR 13/02 A2999 RMK AO2

2010/08/10 07:56
KBED 100756Z 25004KT 3SM BR BKN090 OVC110 22/21 A2988 RMK AO2 RAE34 SLP128 P0001 T02220211

2010/08/10 07:54
KBJI 100754Z AUTO 00000KT 10SM CLR 21/20 A2996 RMK AO2

2010/08/10 07:56
KBJJ 100756Z AUTO 00000KT 6SM BR FEW048 SCT060 BKN090 22/20 A2998 RMK AO2 SLP140 T02220200

2010/08/10 07:55
KBKN 100755Z AUTO 16004KT 10SM CLR 26/21 A2988 RMK AO2

2010/08/10 07:56
KCEC 100756Z AUTO 00000KT 10SM OVC004 13/11 A2994 RMK AO2 SLP138 T01280111 401560117

2010/08/10 07:56
KCTB 100756Z AUTO 35003KT 10SM CLR 14/09 A2985 RMK AO2 SLP081 T01390094 PWINO

2010/08/10 07:56
KCXY 100756Z AUTO 00000KT 7SM CLR 24/21 A2992 RMK AO2 SLP130 T02440211

2010/08/10 07:53
KD39 100753Z AUTO 00000KT 5SM BR CLR 22/21 A2994 RMK AO2 T02160209

2010/08/10 07:56
KDAY 100756Z 23003KT 6SM HZ CLR 24/21 A2999 RMK AO2 SLP146 T02440206

2010/08/10 07:56
KDIK 100756Z AUTO 16014G21KT 10SM CLR 22/16 A2980 RMK AO2 SLP064 T02170161

2010/08/10 07:56
KDUG 100756Z AUTO 06006KT 10SM CLR 20/18 A3006 RMK AO2 SLP105 T02000178

2010/08/10 07:56
KDUJ 100756Z AUTO 00000KT 6SM HZ OVC110 21/18 A3001 RMK AO2 SLP145 T02060178

2010/08/10 07:56
KEAU 100756Z AUTO 04004KT 2 1/2SM BR CLR 21/20 A2994 RMK AO2 SLP130 T02060200

2010/08/10 07:56
KEED 100756Z AUTO 23006KT 10SM CLR 32/M03 A2977 RMK AO2 SLP045 T03171028 404110228 TSNO

2010/08/10 07:55
KEIK 100755Z AUTO 00000KT 5SM BR CLR 15/14 A3010 RMK AO2

2010/08/10 07:56
KEKO 100756Z AUTO 00000KT 10SM CLR 16/06 A2999 RMK AO2 SLP098 T01610056 403060150

2010/08/10 07:56
KELZ 100756Z AUTO 00000KT 1/4SM FG BKN001 OVC008 19/19 A3003 RMK AO2 SLP156 T01890189

2010/08/10 07:55
KGGE 100755Z AUTO 00000KT 10SM CLR 24/24 A3001 RMK AO2

2010/08/10 07:56
KGON 100756Z AUTO 00000KT 10SM CLR 24/20 A2991 RMK AO2 SLP128 T02390200

2010/08/10 07:56
KGRD 100756Z AUTO 00000KT 10SM CLR 23/22 A3003 RMK AO2 SLP159 T02280217

2010/08/10 08:02
KCPW 100802Z AUTO 23013G18KT 10SM CLR 07/00 A3058 RMK AO2

2010/08/10 07:55
KMXF 100755Z AUTO 00000KT 10SM FEW065 26/24 A2994 RMK AO2 SLP138 T02620242

2010/08/10 07:53
KNIP 100753Z 12008KT 10SM SCT020 27/24 A2995 RMK AO2 SLP137 T02720239

2010/08/10 07:54
KNKT 100754Z AUTO 21003KT 10SM CLR 24/23 A3002 RMK AO2 SLP162 T02440233

2010/08/10 07:52
KNRB 100752Z AUTO 14010KT 10SM CLR 28/22 A2995 RMK AO2 SLP140 T02830222

2010/08/10 07:55
KPOB 100755Z AUTO 25004KT 10SM FEW006 25/25 A3001 RMK AO2 SLP160 T02490249 $

2010/08/10 07:55
KTIK 100755Z 18011KT 10SM CLR 27/21 A2992 RMK AO2A SLP113 T02660206

2010/08/10 07:55
KXMR 100755Z AUTO 13006KT 10SM CLR 26/24 A2992 RMK AO2 SLP133 T02600239

2010/08/10 07:55
PHHI 100755Z AUTO 10011KT 10SM BKN048 24/17 A3012 RMK AO2 SLP188 T02350167 $

2010/08/10 07:55
KNYL 100755Z AUTO 24006KT 10SM CLR 28/00 A2975 RMK AO2 SLP071 T02830000

2010/08/10 07:55
KPOE 100755Z AUTO 00000KT 10SM CLR 26/24 A2992 RMK AO2 SLP131 T02560239

2010/08/10 07:55
KNBG 100755Z AUTO 00000KT 4SM HZ CLR A2992 RMK AO2 SLP132 PWINO FZRANO $

2010/08/10 07:55
KNKX 100755Z 00000KT 10SM BKN010 17/14 A2992 RMK AO2 SLP124 T01720139 402440111

2010/08/10 07:55
KBIX 100755Z AUTO 04005KT 10SM CLR 26/25 A2992 RMK AO2 SLPNO T02570252 $

2010/08/10 07:55
KGUS 100755Z AUTO 00000KT 9SM R23/5500VP6000FT CLR 23/23 A2996 RMK AO2 SLP139 T02270227

2010/08/10 07:55
KVBG 100755Z AUTO 00000KT 10SM OVC003 12/12 A2993 RMK AO2 SLP127 T01220117 TSNO CHINO RWY12 $

2010/08/10 07:55
KDLF 100755Z AUTO 12012KT 10SM CLR 29/23 A2993 RMK AO2 SLP118 T02860225

2010/08/10 07:55
KFRI 100755Z AUTO 19010KT 10SM CLR 29/20 A2986 RMK AO2 SLP088 T02910204

2010/08/10 07:55
KLFI 100755Z 22005KT 10SM CLR 26/23 A2997 RMK AO2A SLP149 T02550229

2010/08/10 07:55
KMCF 100755Z AUTO 07007KT 10SM CLR 26/25 A2988 RMK AO2 SLP119 T02560247

2010/08/10 07:52
KNFW 100752Z AUTO 19004KT 10SM CLR 28/19 A2993 RMK AO2 SLP120 T02830194

2010/08/10 07:53
KNQX 100753Z AUTO 19008KT 10SM -TSRA FEW014 SCT026 27/24 A2983 RMK AO2 TSB42RAB50 SLP101 P0001 T02720244 $

2010/08/10 07:55
KPAM 100755Z AUTO 10003KT 10SM CLR 27/24 A2990 RMK AO2 SLP125 T02680242 $

2010/08/10 07:55
KSKA 100755Z AUTO 20008KT 10SM FEW160 17/05 A2980 RMK AO2 SLP079 T01720053 402690119

2010/08/10 07:55
KSVN 100755Z 00000KT 7SM FEW010 25/24 A2998 RMK SLP155 ALSTG/SLP ESTMD WND DATA ESTMD

2010/08/10 07:55
KVAD 100755Z AUTO 07003KT 10SM CLR 25/24 A2995 RMK AO2 SLP140 T02460239 $

2010/08/10 07:55
MHSC 100755Z AUTO 00000KT 9999 SCT055 22/20 A2995 RMK AO2 DZB0716E0739 SLP099 P0000 T02150205 $

2010/08/10 07:56
KNXF 100756Z AUTO 03003KT 8SM OVC012 16/13 A2991 RMK AO2 SLP213 T01560128 402220133 TSNO

2010/08/10 07:55
KFAF 100755Z AUTO 22006KT 10SM CLR 26/26 A2996 RMK AO2 SLP148 T02560256 $

2010/08/10 07:55
KFBG 100755Z 20003KT 10SM CLR 25/24 A3001 RMK AO2A SLP159 T02510239 $

2010/08/10 07:55
KWRB 100755Z AUTO 00000KT 10SM CLR 23/23 A2998 RMK AO2 SLP149 T02340231

2010/08/10 07:55
KMXF 100755Z AUTO 00000KT 10SM FEW065 26/24 A2994 RMK AO2 SLP138 T02620242

2010/08/10 07:55
KOZR 100755Z AUTO 04005KT 10SM CLR 24/24 A2994 RMK AO2 SLP135 T02390235 $

2010/08/10 07:56
PMDY 100756Z AUTO 07009KT 10SM FEW022 26/22 A3023 RMK AO2 TSNO T02550216 RAB38E48 P0000 SLP544

2010/08/10 07:56
KABH 100756Z AUTO 08007KT 10SM SCT110 16/13 A3014 RMK AO2 SLP131 T01560133 $

2010/08/10 07:56
KNYG 100756Z AUTO 22007KT 8SM CLR 26/21 A2995 RMK AO2 SLP143 T02560206 $

2010/08/10 07:56
KNUQ 100756Z AUTO 00000KT 10SM OVC008 15/12 A2992 RMK AO2 SLP133 T01500122 402280144 TSNO

2010/08/10 07:56
KNTU 100756Z 24004KT 9SM FEW200 23/22 A2997 RMK AO2 SLP151 T02330222 $

2010/08/10 07:55
KAEG 100755Z AUTO 32006KT 10SM CLR 18/07 A3017 RMK AO1

2010/08/10 07:55
KAIK 100755Z AUTO 00000KT 7SM CLR 22/22 A3004 RMK AO2 PNO

2010/08/10 07:55
KBBP 100755Z AUTO 00000KT 7SM CLR 23/22 A3001 RMK AO2

2010/08/10 07:55
KBNL 100755Z AUTO 00000KT 5SM BR SCT012 23/23 A3001 RMK AO2

2010/08/10 07:55
KBWD 100755Z AUTO 16006KT 10SM CLR 27/19 A2994 RMK AO2

2010/08/10 07:55
KCGC 100755Z AUTO 10003KT 10SM CLR 24/24 A2990 RMK

2010/08/10 07:55
KCIC 100755Z AUTO 14004KT 10SM CLR 22/09 A2982 RMK AO1

2010/08/10 07:55
KCQW 100755Z AUTO 00000KT 3/4SM BR VV005 22/22 A3002 RMK AO2

2010/08/10 07:55
KDCM 100755Z AUTO 00000KT 7SM CLR 23/23 A3003 RMK AO2

2010/08/10 07:55
KE80 100755Z AUTO 34007KT 10SM CLR 22/07 A3012 RMK AO2 T02170072

2010/08/10 07:55
KEDC 100755Z AUTO 20003KT 10SM CLR 26/24 A2994 RMK AO1

2010/08/10 07:50
KEFD 100750Z 00000KT 10SM FEW250 27/25 A2993

2010/08/10 07:55
KEOE 100755Z AUTO 00000KT 10SM CLR 23/22 A3004 RMK AO2

2010/08/10 07:55
KFMH 100755Z AUTO 00000KT 4SM BR FEW041 BKN060 BKN065 21/20 A2992 RMK AO2 P0002

2010/08/10 07:55
KGYH 100755Z AUTO 00000KT 10SM CLR 27/21 A3003 RMK AO2

2010/08/10 07:55
KHYW 100755Z AUTO 00000KT 7SM CLR 23/23 A3001 RMK AO2

2010/08/10 07:55
KLQK 100755Z AUTO 00000KT 1 1/4SM BR VV007 23/23 A3003 RMK AO2 T02330228 PNO

2010/08/10 07:55
KLRO 100755Z AUTO 00000KT 7SM CLR 24/24 A3000 RMK AO2

2010/08/10 07:55
KMAO 100755Z AUTO 17003KT 10SM CLR 24/24 A3000 RMK AO2

2010/08/10 07:55
KMKS 100755Z AUTO 00000KT 7SM CLR 24/24 A3000 RMK AO2 TSNO

2010/08/10 07:55
KMNI 100755Z AUTO 00000KT 10SM CLR 24/24 A3000 RMK AO2

2010/08/10 07:55
KRBW 100755Z AUTO 00000KT 10SM CLR 24/24 A3000 RMK AO2

2010/08/10 07:55
KSPL 100755Z AUTO 15007KT 29/27 A2989 RMK AO2 PWINO PNO

2010/08/10 07:55
KTME 100755Z AUTO 00000KT 10SM 25/25 A2993 RMK AO2

2010/08/10 07:55
KUTA 100755Z AUTO 15004KT 7SM CLR 26/25 A2993 RMK AO2

2010/08/10 07:55
KX40 100755Z AUTO 00000KT 7SM CLR 26/25 A2991 RMK AO2 T02630251

2010/08/10 07:53
PASC 100753Z 05014KT 1 1/2SM BR OVC003 03/03 A2974 RMK AO2 SLP072 T00330028

2010/08/10 07:53
KBRO 100753Z 17005KT 10SM CLR 28/26 A2989 RMK AO2 SLP120 T02830261

2010/08/10 07:53
KFLL 100753Z 14012G18KT 10SM -RA SCT022 BKN030 OVC046 27/24 A2988 RMK AO2 RAB47 SLP116 P0000 T02670239

2010/08/10 07:51
KJFK 100751Z 26006KT 10SM BKN140 OVC250 26/19 A2993 RMK AO2 SLP135 T02560194

2010/08/10 07:53
KMCO 100753Z 09006KT 10SM FEW028 25/23 A2992 RMK AO2 SLP129 T02500228

2010/08/10 07:53
KPBI 100753Z 15010KT 10SM SCT024CB BKN032 BKN050 26/23 A2988 RMK AO2 RAE41 SLP119 CB N-E MOV NW P0010 T02630230

2010/08/10 07:54
KPHL 100754Z 21007KT 10SM SCT150 BKN200 26/21 A2993 RMK AO2 SLP135 T02610211

2010/08/10 07:53
TIST 100753Z AUTO 10006KT 10SM FEW028 OVC090 28/24 A2992 RMK AO2 SLP133 T02830244 TSNO

2010/08/10 07:53
TISX 100753Z AUTO 07004KT 10SM CLR 27/24 A2992 RMK AO2 SLP130 P0001 T02670244 TSNO

2010/08/10 07:55
KHFF 100755Z AUTO 00000KT 9SM R22/5500FT CLR 23/23 A3003 RMK AO2 SLP166 T02350226 $

2010/08/10 07:54
PAHN 100754Z AUTO 09010G19KT 10SM OVC013 14/11 A2996 RMK AO2 SLP148 T01390106 TSNO

2010/08/10 07:54
PAKN 100754Z 21011G20KT 10SM FEW009 OVC019 11/09 A2963 RMK AO2 RAB17E27 SLP033 P0000 T01110094

2010/08/10 07:55
KFMH 100755Z AUTO 00000KT 4SM BR FEW041 BKN060 BKN065 21/20 A2992 RMK AO2 P0002

2010/08/10 07:56
KSDF 100756Z 00000KT 8SM CLR 28/23 A2995 RMK AO2 SLP136 T02830233

2010/08/10 07:53
K04W 100753Z AUTO 00000KT 7SM CLR 20/19 A2996 RMK AO2 T01960190

2010/08/10 07:56
K20V 100756Z AUTO 00000KT 10SM CLR 10/06 A3030 RMK AO2

2010/08/10 07:52
K5SM 100752Z AUTO 00000KT 10SM 08/02 A3051 RMK AO2

2010/08/10 07:54
K7BM 100754Z AUTO 30003KT 10SM CLR 13/02 A3044 RMK AO2

2010/08/10 07:53
KAIT 100753Z AUTO 00000KT 5SM BR CLR 17/14 A2995 RMK AO2

2010/08/10 07:53
KBBB 100753Z AUTO 11004KT 7SM CLR 22/21 A2994 RMK AO2

2010/08/10 07:58
KBDU 100758Z AUTO 00000KT 10SM CLR 17/15 A3011 RMK AO2

2010/08/10 07:56
KBMI 100756Z AUTO 00000KT 10SM SCT002 24/22 A2994 RMK AO2 PWINO T02380222 TSE24 P0002 SLP123 $

2010/08/10 07:56
KBOK 100756Z AUTO 00000KT 3SM BR OVC002 12/12 A2994 RMK AO2 T01160116 SLP140

2010/08/10 07:54
KC29 100754Z AUTO 00000KT 3SM SCT002 20/19 A2995 RMK AO2 T02030191

2010/08/10 07:57
KCCU 100757Z AUTO 23006KT 10SM CLR 08/02 A3058 RMK AO2

2010/08/10 07:54
KROA 100754Z 29003KT 8SM CLR 23/21 A3003 RMK AO2 SLP155 T02330206

2010/08/10 07:53
KSAV 100753Z 00000KT 10SM FEW023 26/24 A2999 RMK AO2 SLP153 T02560239 $

2010/08/10 07:53
KTLH 100753Z 07005KT 10SM SCT095 27/23 A2992 RMK AO2 SLP130 T02670233

2010/08/10 07:53
KTRI 100753Z 00000KT 5SM BR FEW060 SCT080 22/21 A3005 RMK AO2 SLP154 T02220206

2010/08/10 07:53
KTYS 100753Z 00000KT 9SM CLR 27/22 A3000 RMK AO2 SLP145 T02670217

2010/08/10 07:54
KWAL 100754Z AUTO 24005KT 10SM CLR 24/22 A2996 RMK AO2 SLP143 T02390217 TSNO

2010/08/10 07:55
KAAT 100755Z AUTO 18003KT 10SM CLR 14/05 A3001 RMK AO2 SLP118 T01390050 403000078 TSNO

2010/08/10 07:56
KJAX 100756Z 05005KT 10SM FEW022 25/23 A2994 RMK AO2 SLP140 T02500233

2010/08/10 07:56
KABQ 100756Z 00000KT 10SM FEW110 22/08 A3014 RMK AO2 SLP109 T02220083

2010/08/10 07:55
KHON 100755Z AUTO 15005KT 9SM FEW018 SCT029 OVC034 24/23 A2982 RMK AO2 SLP087 T02440228 TSNO

2010/08/10 07:56
KBZN 100756Z AUTO 17006KT 10SM FEW080 14/10 A2999 RMK AO2 SLP119 T01390100

2010/08/10 07:56
PADK 100756Z 22007KT 10SM FEW011 SCT048 OVC100 10/08 A2989 RMK AO1 PNO

2010/08/10 07:55
KSMS 100755Z AUTO 00000KT 2SM BR CLR 23/23 A3002 RMK AO2

2010/08/10 07:56
TJSJ 100756Z 10004KT 10SM SCT070 26/24 A2992 RMK AO2 SLP132 OCNL LTGIC DSNT N-SW CB DSNT N-SW T02610244 $

2010/08/10 07:56
KINW 100756Z AUTO 20008KT 10SM SCT100 20/10 A3012 RMK AO2 SLP122 T02000100 $

2010/08/10 07:56
KOFK 100756Z AUTO 13005KT 2 1/2SM BR OVC001 26/25 A2985 RMK AO2 SLP092 T02560250

2010/08/10 07:56
KSFO 100756Z 29006KT 10SM FEW003 OVC012 13/11 A2991 RMK AO2 SLP128 T01330106 402060128

2010/08/10 07:56
KCAE 100756Z 00000KT 6SM BR CLR 24/22 A3000 RMK AO2 SLP154 T02390222

2010/08/10 07:56
KCDJ 100756Z AUTO 00000KT 27/25 A2990 RMK AO2 SLP106 T02670250 PWINO TSNO

2010/08/10 07:56
KGNR 100756Z AUTO 00000KT 16/15 A2987 RMK AO1 SLP112 T01610150

2010/08/10 07:56
KP28 100756Z AUTO 21003KT 28/20 A2990 RMK AO2 SLP100 T02780200 PWINO TSNO

2010/08/10 07:56
KFLL 100756Z 15013G18KT 10SM -RA BKN022 BKN030 BKN040 27/24 A2988 RMK AO2 P0000

2010/08/10 07:56
KMTH 100756Z AUTO 21010G18KT 3SM RA BR SCT009 BKN020 OVC050 26/24 A2984 RMK AO2 LTG DSNT SW CIG 013V027 P0001

2010/08/10 08:00
LEJR 100800Z 00000KT 9999 FEW020 28/13 Q1016

2010/08/10 08:00
SBPV 100800Z 00000KT 3000 FU NSC 22/19 Q1012

2010/08/10 07:56
KGRR 100756Z AUTO 00000KT 3/4SM BR CLR 20/19 A2997 RMK AO2

2010/08/10 08:00
KVTP 100800Z AUTO 25010KT 210V270 10SM CLR 09/07 A3045 RMK AO2

2010/08/10 07:56
PAVD 100756Z 00000KT 5SM SCT003 SCT009 OVC017 11/09 A2989 RMK AO1 PNO

2010/08/10 07:56
PAWG 100756Z AUTO 00000KT 10SM BKN034 OVC046 12/11 A3002 RMK AO1 PNO

2010/08/10 07:56
PAWN 100756Z AUTO 05006KT 10SM OVC025 12/10 A2951 RMK AO1 PNO

2010/08/10 07:56
PAWS 100756Z AUTO 00000KT 10SM OVC015 11/10 A2977 RMK AO1 PNO

2010/08/10 07:56
KHPN 100756Z 34005KT 9SM CLR 25/18 A2994 RMK AO2 SLP129 T02500183

2010/08/10 07:55
KHVS 100755Z AUTO 00000KT 3SM CLR 22/ A3002 RMK AO2

2010/08/10 07:56
KHWV 100756Z AUTO 26004KT 10SM -RA BKN050 OVC065 26/20 A2993 RMK AO2 RAB56 SLP132 P0000 T02560200

2010/08/10 07:56
KHYA 100756Z AUTO 00000KT 5SM -RA BR FEW065 BKN080 21/20 A2990 RMK AO2 LTG DSNT E TSE37 SLP127 P0016 T02110200

2010/08/10 07:55
KIFP 100755Z AUTO 00000KT 10SM CLR 30/04 A2976 RMK AO2

2010/08/10 07:56
KIGX 100756Z AUTO 00000KT 8SM CLR 24/22 A3002 RMK AO2 SLP158 T02390222

2010/08/10 07:56
KISP 100756Z 25006KT 10SM BKN140 BKN250 25/18 A2991 RMK AO2 SLP126 T02500178

2010/08/10 07:56
KITH 100756Z AUTO 20003KT 5SM BR FEW026 OVC039 21/20 A2999 RMK AO2 T02110200 RAE40 P0000 SLP148

2010/08/10 07:56
KJMS 100756Z AUTO 13005KT 10SM CLR 20/18 A2988 RMK AO2 SLP109 T02000183

2010/08/10 07:56
KJXN 100756Z 00000KT 1/4SM FG VV001 20/20 A2998 RMK AO2 SLP145 T02000200 $

2010/08/10 07:56
KLAS 100756Z 19008KT 10SM CLR 28/M04 A2982 RMK AO2 SLP068 T02831039 403720233

2010/08/10 07:56
KLNR 100756Z AUTO 00000KT 1/4SM FG VV001 23/22 A2994 RMK AO2 SLP127 T02280222

2010/08/10 07:55
KLUX 100755Z AUTO 16003KT 7SM CLR 23/23 A3003 RMK AO2

2010/08/10 07:56
KM19 100756Z AUTO 00000KT 10SM CLR 27/26 A2993 RMK AO2 T02660255 SLPNO

2010/08/10 07:56
KMDT 100756Z 00000KT 7SM BKN200 27/22 A2991 RMK AO2 SLP126 T02670217

2010/08/10 07:56
KMQY 100756Z AUTO 00000KT 10SM CLR 26/24 A2998 RMK AO2 T02550238 SLP142 $

2010/08/10 07:56
KMRH 100756Z AUTO 24005KT 10SM SCT090 27/24 A3001 RMK AO2 SLP163 T02720244 TSNO

2010/08/10 07:55
KNQA 100755Z AUTO 00000KT 8SM CLR 26/25 A2993 RMK

2010/08/10 07:55
KO22 100755Z AUTO 00000KT 10SM CLR 15/10 A2992 RMK AO1

2010/08/10 07:56
KOWB 100756Z AUTO 00000KT 9SM CLR 28/25 A2995 RMK AO2 T02770250 SLP135

2010/08/10 07:55
KPVF 100755Z AUTO 00000KT 10SM FEW048 19/09 A2995 RMK AO1

2010/08/10 07:55
KRCE 100755Z AUTO 19009KT 10SM CLR 28/20 A2993 RMK AO2

2010/08/10 07:56
KRDM 100756Z AUTO 31005KT 10SM CLR 14/06 A2996 RMK AO2 SLP120 T01440056 402890083

2010/08/10 07:56
KSBP 100756Z 33004KT 10SM OVC006 13/12 A2992 RMK AO2 SLP131 T01280117 402330128 $

2010/08/10 07:56
KSGH 100756Z AUTO 00000KT 5SM BR FEW049 23/23 A2999 RMK AO2 T02330227 SLP146 $

2010/08/10 07:58
KSGJ 100758Z AUTO 13009KT 10SM FEW022 SCT050 27/24 A2995 RMK AO2 SLP141 T02720239

2010/08/10 07:56
KSLE 100756Z AUTO 28003KT 10SM CLR 13/10 A2998 RMK AO2 SLP153 T01330100 402220128 TSNO

2010/08/10 07:56
KNFE 100756Z AUTO 00000KT 1 1/2SM BR CLR 23/21 A2998 RMK AO2 SLP154 T02330211 $

2010/08/10 07:56
KHND 100756Z AUTO 17008KT 10SM CLR 25/M01 A2989 RMK AO2 T02501011 SLP067

2010/08/10 07:56
PAAK 100756Z AUTO 27011KT 2SM OVC002 08/06 A2988 RMK AO1 PNO

2010/08/10 07:56
PABL 100756Z AUTO 15010KT 110V180 6SM SCT011 BKN033 OVC120 13/11 A2947 RMK AO1 PNO

2010/08/10 07:56
PABV 100756Z AUTO 00000KT 10SM OVC010 12/08 A2977 RMK AO1 PNO

2010/08/10 07:56
PACM 100756Z AUTO 18006KT 1 3/4SM -RA BR FEW021 SCT070 OVC100 11/09 A2933 RMK AO2 TSNO T01050094 P0004 SLP929 $

2010/08/10 07:56
PAEM 100756Z AUTO 14009KT 10SM FEW010 SCT019 BKN023 11/08 A2933 RMK AO1 PNO

2010/08/10 07:56
PAFE 100756Z AUTO 12003KT 10SM BKN021 OVC027 13/11 A3005 RMK AO1 PNO

2010/08/10 07:56
PAFM 100756Z AUTO 09003KT 10SM BKN036 BKN049 OVC075 13/11 A2957 RMK AO1 PNO

2010/08/10 07:56
PAGL 100756Z AUTO 11009KT 10SM BKN050 OVC060 12/09 A2949 RMK AO1 PNO

2010/08/10 07:56
PAGM 100756Z AUTO 04011KT 6SM FEW004 BKN015 OVC020 08/07 A2941 RMK AO1

2010/08/10 07:56
PAGS 100756Z AUTO 00000KT 5SM SCT020 BKN100 OVC120 13/12 A2999 RMK AO1 PNO

2010/08/10 07:56
PAHP 100756Z AUTO 20010KT 10SM BKN010 OVC013 10/07 A2930 RMK AO1 PNO TSNO

2010/08/10 07:56
PAHY 100756Z AUTO 00000KT 10SM OVC013 13/12 A3002 RMK AO1 PNO

2010/08/10 07:56
PAII 100756Z AUTO 18003KT 3SM SCT004 BKN012 OVC019 10/09 A2970 RMK AO1 PNO

2010/08/10 07:56
PAIN 100756Z AUTO 20003KT 10SM OVC046 13/08 A2968 RMK AO1 PNO

2010/08/10 07:56
PAJC 100756Z AUTO 36003KT 10SM FEW017 BKN032 OVC042 12/07 A2967 RMK AO1 PNO

2010/08/10 07:56
PAKK 100756Z AUTO 07004KT 10SM FEW024 BKN044 OVC060 12/10 A2945 RMK AO1 PNO

2010/08/10 07:56
PAKP 100756Z AUTO 06003KT 10SM BKN013 OVC031 09/09 A2961 RMK AO1

2010/08/10 07:56
PAMD 100756Z AUTO 20006KT 8SM FEW006 SCT011 OVC020 11/09 A2991 RMK AO1 PNO

2010/08/10 07:56
PAMH 100756Z RMK AO1 PNO

2010/08/10 07:56
PAMM 100756Z AUTO 00000KT 10SM OVC005 13/11 A3005 RMK AO1 PNO

2010/08/10 07:56
PAMY 100756Z 23006KT 10SM FEW021 BKN035 OVC060 09/07 A2934 RMK AO1

2010/08/10 07:56
PANI 100756Z AUTO 14007KT 10SM OVC060 12/08 A2951 RMK AO1 PNO

2010/08/10 07:56
PANV 100756Z AUTO 20006KT 10SM SCT005 BKN018 OVC026 12/10 A2948 RMK AO1 PNO

2010/08/10 07:56
PAOU 100756Z AUTO 00000KT 8SM FEW004 BKN025 BKN050 10/09 A2964 RMK AO2 PWINO TSNO T01000088 SLP041 $

2010/08/10 07:56
PAPG 100756Z 00000KT 10SM OVC030 12/11 A3001 RMK AO1 PNO

2010/08/10 07:56
PAPH 100756Z AUTO 08004KT 10SM BKN041 OVC047 11/08 A2964 RMK AO1 PNO

2010/08/10 07:56
PARC 100756Z AUTO 36004KT 10SM SCT038 BKN048 OVC060 11/08 A2962 RMK AO1 PNO

2010/08/10 07:56
PASA 100756Z AUTO 05010KT 10SM BKN006 BKN013 OVC070 10/07 A2940 RMK AO1 PNO

2010/08/10 07:56
PASD 100756Z AUTO 21017G20KT 8SM OVC017 10/08 A2969 RMK AO1 PNO

2010/08/10 07:56
PASH 100756Z AUTO 01004KT 6SM OVC060 12/11 A2946 RMK AO1 PNO

2010/08/10 07:56
PASK 100756Z AUTO 11012KT 10SM OVC070 14/11 A2950 RMK AO1 PNO

2010/08/10 07:56
PASL 100756Z AUTO 16006KT 10SM FEW029 SCT060 OVC080 12/08 A2962 RMK AO1 PNO

2010/08/10 07:56
KSRC 100756Z AUTO 00000KT 10SM CLR 28/26 A2993 RMK AO2 TSNO T02770261 SLP135

2010/08/10 07:56
KTPH 100756Z AUTO 01005KT 10SM CLR 14/M11 A3006 RMK AO2 SLP110 T01391111 402890128

2010/08/10 07:56
KUKI 100756Z AUTO 17004KT 10SM CLR 17/11 A2986 RMK AO2 SLP104 T01670111 403280111

2010/08/10 07:55
KVQQ 100755Z AUTO 00000KT 9SM CLR 23/23 A2995 RMK AO2

2010/08/10 07:56
KWJF 100756Z 28009KT 10SM CLR 22/M07 A2991 RMK AO2 SLP107 T02171067 403390117

2010/08/10 07:55
KY51 100755Z AUTO 08003KT 7SM CLR 23/22 A2996 RMK AO1 T02260221

2010/08/10 07:56
PAAK 100756Z AUTO 27011KT 2SM OVC002 08/06 A2988 RMK AO1 PNO

2010/08/10 07:56
PACM 100756Z AUTO 18006KT 1 3/4SM -RA BR FEW021 SCT070 OVC100 11/09 A2933 RMK AO2 TSNO T01050094 P0004 SLP929 $

2010/08/10 07:56
PAHP 100756Z AUTO 20010KT 10SM BKN010 OVC013 10/07 A2930 RMK AO1 PNO TSNO

2010/08/10 07:56
PASM 100756Z AUTO 16009G15KT 3SM BKN005 OVC015 09/08 A2940 RMK AO1 PNO

2010/08/10 07:56
PASX 100756Z AUTO 00000KT 10SM BKN008 OVC044 11/10 A2977 RMK AO1 PNO

2010/08/10 07:56
PATG 100756Z AUTO 18018KT 5SM OVC008 10/09 A2955 RMK AO1 PNO

2010/08/10 07:56
PAUN 100756Z AUTO 11004KT 10SM SCT042 OVC050 12/07 A2946 RMK AO1 PNO

2010/08/10 07:55
KDOV 100755Z AUTO 20008KT 10SM CLR 24/24 A2992 RMK AO2 SLP134 T02430241

2010/08/10 07:55
KFAF 100755Z AUTO 22006KT 10SM CLR 26/26 A2996 RMK AO2 SLP148 T02560256 $

2010/08/10 07:55
KFBG 100755Z 20003KT 10SM CLR 25/24 A3001 RMK AO2A SLP159 T02510239 $

2010/08/10 07:55
KLHW 100755Z AUTO 00000KT 10SM CLR 24/24 A2997 RMK AO2 SLP149 T02430238

2010/08/10 07:55
KOZR 100755Z AUTO 04005KT 10SM CLR 24/24 A2994 RMK AO2 SLP135 T02390235 $

2010/08/10 07:55
KSKF 100755Z AUTO 18004KT 10SM SCT015 26/ A2994 RMK AO2 SLP129 T0263 $

2010/08/10 07:55
KSSC 100755Z 00000KT 10SM CLR 24/23 A3000 RMK AO2A SLP157 T02430231 $

2010/08/10 07:55
KVOK 100755Z 00000KT 1/2SM R27/0900V1400FT FG CLR 18/18 A2994 RMK AO2A SLP134 T01820182

2010/08/10 07:55
KWRB 100755Z AUTO 00000KT 10SM CLR 23/23 A2998 RMK AO2 SLP149 T02340231

2010/08/10 07:55
PAEI 100755Z AUTO 00000KT 10SM SCT090 OVC110 14/11 A2962 RMK AO2 SLP032 T01430110 $

2010/08/10 07:52
KNHK 100752Z AUTO 21008KT 10SM CLR 26/21 A2994 RMK AO2 SLP140 T02560211 $

2010/08/10 07:55
KOFF 100755Z AUTO 15005KT 10SM CLR 26/25 A2984 RMK AO2 SLP084 T02640253 $

2010/08/10 07:55
KOZR 100755Z AUTO 04005KT 10SM CLR 24/24 A2994 RMK AO2 SLP135 T02390235 $

2010/08/10 07:55
KRDR 100755Z AUTO 19005KT 10SM CLR 21/20 A2989 RMK AO2 SLP132 T02080202 $

2010/08/10 07:55
KRIV 100755Z AUTO 00000KT 10SM CLR 15/11 A2992 RMK AO2 SLP126 T01480106 403040097

2010/08/10 07:55
KRND 100755Z AUTO 00000KT 10SM BKN014 25/24 A2995 RMK AO2 SLP131 T02550239

2010/08/10 07:55
KSKF 100755Z AUTO 18004KT 10SM SCT015 26/ A2994 RMK AO2 SLP129 T0263 $

2010/08/10 07:55
KSLI 100755Z AUTO 00000KT 10SM CLR 15/14 A2991 RMK AO2 SLP129 T01500143 402250132

2010/08/10 07:55
KSUU 100755Z AUTO 25021KT 10SM CLR 13/11 A2982 RMK AO2 PK WND 25027/0742 SLP101 T01290112 402770128 RVRNO $

2010/08/10 07:55
KSZL 100755Z AUTO 17005KT 10SM CLR 27/25 A2990 RMK AO2 SLP114 T02670246 PNO $

2010/08/10 07:55
KVOK 100755Z 00000KT 1/2SM R27/0900V1400FT FG CLR 18/18 A2994 RMK AO2A SLP134 T01820182

2010/08/10 07:55
KWRB 100755Z AUTO 00000KT 10SM CLR 23/23 A2998 RMK AO2 SLP149 T02340231

2010/08/10 07:55
KWRI 100755Z AUTO 22004KT 9SM CLR 23/22 A2991 RMK AO2 SLP128 T02330222 $

2010/08/10 07:55
KAFF 100755Z AUTO 35006KT 10SM BKN120 16/12 A3018 RMK AO2 SLP128 T01600117

2010/08/10 07:55
KBAB 100755Z AUTO 13006KT 10SM CLR 20/10 A2982 RMK AO2 SLP098 T01950104 403110134 $

2010/08/10 07:55
KCOF 100755Z AUTO 15007KT 10SM SCT029 26/ A2992 RMK AO2 SLP134 T0265

2010/08/10 07:55
KDOV 100755Z AUTO 20008KT 10SM CLR 24/24 A2992 RMK AO2 SLP134 T02430241

2010/08/10 07:55
KFAF 100755Z AUTO 22006KT 10SM CLR 26/26 A2996 RMK AO2 SLP148 T02560256 $

2010/08/10 07:55
KFBG 100755Z 20003KT 10SM CLR 25/24 A3001 RMK AO2A SLP159 T02510239 $

2010/08/10 07:55
KFCS 100755Z AUTO 04005KT 10SM SCT110 15/13 A3014 RMK AO2 SLP130 T01530132

2010/08/10 07:55
KFTK 100755Z AUTO 00000KT 10SM CLR 26/25 A2997 RMK AO2 SLP142 T02630247 $

2010/08/10 07:55
KHIF 100755Z 10012KT 10SM CLR 18/05 A3002 RMK AO2A SLP066 T01820049

2010/08/10 07:55
KLHW 100755Z AUTO 00000KT 10SM CLR 24/24 A2997 RMK AO2 SLP149 T02430238

2010/08/10 07:55
KLTS 100755Z AUTO 19007KT 10SM CLR 26/21 A2991 RMK AO2 SLP108 T02640210 $

2010/08/10 07:55
KMUO 100755Z AUTO 15010KT 10SM FEW160 17/14 A2986 RMK AO2 SLP087 T01710144

2010/08/10 07:55
KMXF 100755Z AUTO 00000KT 10SM FEW065 26/24 A2994 RMK AO2 SLP138 T02620242

2010/08/10 07:52
KNFW 100752Z AUTO 19004KT 10SM CLR 28/19 A2993 RMK AO2 SLP120 T02830194

2010/08/10 07:55
KFCS 100755Z AUTO 04005KT 10SM SCT110 15/13 A3014 RMK AO2 SLP130 T01530132

2010/08/10 07:55
KFTK 100755Z AUTO 00000KT 10SM CLR 26/25 A2997 RMK AO2 SLP142 T02630247 $

2010/08/10 07:55
KGTB 100755Z AUTO 22005KT 10SM FEW008 BKN015 21/20 A2993 RMK AO2 CIG 009 RWY03 SLP135 T02100202

2010/08/10 07:55
KHIF 100755Z 10012KT 10SM CLR 18/05 A3002 RMK AO2A SLP066 T01820049

2010/08/10 07:55
KLTS 100755Z AUTO 19007KT 10SM CLR 26/21 A2991 RMK AO2 SLP108 T02640210 $

2010/08/10 07:55
KMUO 100755Z AUTO 15010KT 10SM FEW160 17/14 A2986 RMK AO2 SLP087 T01710144

2010/08/10 07:54
KMTP 100754Z AUTO 00000KT 24/19 A2993 RMK AO2 SLP134 T02390194 PWINO TSNO

2010/08/10 07:52
KNZY 100752Z 31004KT 10SM BKN013 20/14 A2990 RMK AO2 SLP126 T02000139 402500172 $

2010/08/10 07:54
KNAK 100754Z AUTO 00000KT 9SM CLR 25/20 A2992 RMK AO2 SLP135 T02500200 TSNO

2010/08/10 07:54
KGSO 100754Z 23003KT 7SM CLR 24/21 A3003 RMK AO2 SLP157 T02440206

2010/08/10 07:54
KACY 100754Z 21006KT 10SM CLR 24/22 A2995 RMK AO2 SLP140 T02440222 $

2010/08/10 07:54
KROC 100754Z 22003KT 2 1/2SM BR SCT060 BKN075 OVC080 21/21 A2994 RMK AO2 RAB28E43 SLP135 P0000 T02110206

2010/08/10 07:54
KDMH 100754Z AUTO 26/21 A2992 RMK AO2 SLP133 T02610206 PWINO TSNO

2010/08/10 07:55
KCNK 100755Z AUTO 18011KT 10SM CLR 28/21 A2986 RMK AO2 SLP089 T02780211

2010/08/10 07:55
KDLH 100755Z 00000KT 10SM CLR 21/18 A2998 RMK AO2 SLP145 T02110178

2010/08/10 07:55
KIRK 100755Z AUTO 20004KT 10SM CLR 27/26 A2993 RMK AO2 SLP125 T02720256

2010/08/10 07:55
KRNO 100755Z 19003KT 10SM CLR 20/04 A3001 RMK AO2 SLP106 T02000039 403170139

2010/08/10 07:55
KSCK 100755Z 02004KT 10SM CLR 17/12 A2983 RMK AO2 SLP102 T01720122 403110128

2010/08/10 07:52
KMWN 100752Z 33022KT 100SM BKN/// FEW100 SCT200 09/07 RMK TPS LWR BKN049 PTCHY VLY FG ALQDS

2010/08/10 07:53
KMWT 100753Z AUTO 00000KT 10SM CLR 24/23 A2992 RMK AO2 SLP115 T02440233 TSNO

2010/08/10 07:53
K6R6 100753Z AUTO 07003KT 24/20 A2996 RMK AO2 SLP105 T02440200 PWINO TSNO

2010/08/10 07:55
KDRA 100755Z AUTO 06005KT 10SM CLR 22/M09 A2992 RMK AO2 SLP081 T02221089 403500161 TSNO

2010/08/10 07:55
KINL 100755Z AUTO 00000KT 10SM FEW090 18/17 A2994 RMK AO2 VIS 1 1/2 RWY 31 SLP135 T01780172 $

2010/08/10 07:55
KMBG 100755Z AUTO 15010KT 10SM CLR 23/22 A2982 RMK AO2 SLP081 T02330217 TSNO

2010/08/10 07:55
KPHP 100755Z AUTO 19010KT 10SM CLR 23/16 A2987 RMK AO2 SLP086 T02330161 TSNO

2010/08/10 07:56
KSHV 100756Z 11003KT 10SM SCT290 27/23 A2991 RMK AO2 SLP124 T02670233

2010/08/10 07:56
KCHS 100756Z 00000KT 10SM FEW023 27/25 A3000 RMK AO2 SLP157 T02670250

2010/08/10 07:56
TJSJ 100756Z 10004KT 10SM SCT070 26/24 A2992 RMK AO2 SLP132 OCNL LTGIC DSNT N-SW CB DSNT N-SW T02610244 $

2010/08/10 07:55
KAST 100755Z AUTO 22004KT 10SM OVC022 13/11 A3001 RMK AO2 SLP162 T01330111 401610128

2010/08/10 07:55
KANJ 100755Z AUTO 31004KT 5SM BR OVC006 21/20 A2995 RMK AO2 SLP138 T02060200

2010/08/10 07:54
KRFD 100754Z 08006KT 10SM FEW030 SCT180 24/22 A2994 RMK AO2 SLP132 T02400220 PNO $

2010/08/10 07:54
KAKQ 100754Z AUTO 00000KT 8SM CLR 24/22 A2998 RMK AO2 SLP149 T02390217 TSNO

2010/08/10 07:53
KLAX 100753Z 28003KT 10SM OVC007 16/13 A2991 RMK AO2 SLP127 T01560128 402000150 $

2010/08/10 07:54
KRIC 100754Z 22004KT 9SM FEW060 24/21 A2997 RMK AO2 SLP151 T02440211 $

2010/08/10 07:54
K4BM 100754Z AUTO 26004KT 10SM 07/06 A3056 RMK AO2

2010/08/10 07:52
KABI 100752Z 18006KT 10SM CLR 28/18 A2996 RMK AO2 SLP112 T02780183

2010/08/10 07:54
KAVP 100754Z 00000KT 10SM BKN110 23/19 A2996 RMK AO2 SLP131 T02280189 $

2010/08/10 07:53
KBTR 100753Z 00000KT 8SM SCT004 BKN200 25/24 A2992 RMK AO2 SLP130 T02500244

2010/08/10 07:54
KBTV 100754Z 00000KT 1SM BR VV004 18/18 A2991 RMK AO2 SLP128 T01780178 RVRNO

2010/08/10 07:51
KCAK 100751Z 23004KT 8SM SCT070 OVC100 24/19 A2997 RMK AO2 SLP137 T02390194

2010/08/10 07:53
KCHA 100753Z 00000KT 10SM CLR 26/24 A3000 RMK AO2 SLP149 T02610239 $

2010/08/10 07:53
KDAB 100753Z 10003KT 10SM FEW020 27/24 A2993 RMK AO2 SLP136 T02670239

2010/08/10 07:54
KFWA 100754Z 00000KT 3/4SM BR CLR 23/22 A2997 RMK AO2 SLP141 R32/2600FT VIS S-W 1/4 T02280222

2010/08/10 07:55
KGPI 100755Z AUTO 27004KT 10SM SCT100 13/09 A2984 RMK AO2 SLP090 T01280094 $

2010/08/10 07:55
KLIC 100755Z AUTO 00000KT 10SM CLR 14/14 A3011 RMK AO2 SLP124 T01390139

2010/08/10 07:53
KLND 100753Z AUTO 24010KT 10SM CLR 18/03 A3005 RMK AO2 SLP101 T01780033

2010/08/10 07:53
KLXV 100753Z AUTO 00000KT 10SM CLR 05/04 A3043 RMK AO2 SLP155 T00500039 TSNO

2010/08/10 07:55
KMKG 100755Z 00000KT 2 1/2SM BR FEW001 21/20 A2996 RMK AO2 VIS 1/2 RWY 14 SLP141 T02110200

2010/08/10 07:56
KMOB 100756Z 01003KT 10SM FEW250 26/24 A2994 RMK AO2 SLP134 T02560239

2010/08/10 07:53
KMSN 100753Z 00000KT 1SM BR FEW001 SCT008 22/21 A2993 RMK AO2 SLP130 T02170211

2010/08/10 07:50
EFIV 100750Z AUTO 03009KT 9999 BKN011 OVC016 11/10 Q1012

2010/08/10 07:50
EFKE 100750Z AUTO 02009KT 350V050 9999 BKN018 14/10 Q1009

2010/08/10 07:50
LGAD 100750Z 30004KT 9999 FEW080 29/22 Q1012

2010/08/10 07:50
LGAL 100750Z 04014KT CAVOK 32/21 Q1011

2010/08/10 07:50
LGAV 100750Z 03018KT 9999 FEW025 31/20 Q1011 NOSIG

2010/08/10 07:50
LGEL 100750Z 33010KT 9999 FEW030 32/18 Q1009

2010/08/10 07:50
LGIR 100750Z 31013KT 9999 FEW020 BKN080 30/24 Q1009 NOSIG

2010/08/10 07:50
LGKF 100750Z 00000KT 9999 FEW025 27/20 Q1010

2010/08/10 07:50
LGKL 100750Z 00000KT CAVOK 33/20 Q1009

2010/08/10 07:50
LGKO 100750Z 34010KT CAVOK 32/20 Q1006

2010/08/10 07:50
LGKR 100750Z 00000KT CAVOK 30/20 Q1010 NOSIG

2010/08/10 07:50
LGKV 100750Z 00000KT CAVOK 31/19 Q1010

2010/08/10 07:50
LGLM 100750Z 02012KT CAVOK 30/20 Q1010

2010/08/10 07:50
LGMT 100750Z /////KT CAVOK 31/24 Q1008

2010/08/10 07:50
LGRP 100750Z 25011KT CAVOK 30/25 Q1005 NOSIG

2010/08/10 07:50
LGSA 100750Z 32006KT 9999 SCT030 SCT080 30/20 Q1010

2010/08/10 07:50
LGSM 100750Z 36010KT CAVOK 32/20 Q1006

2010/08/10 07:50
LGSR 100750Z 34012KT CAVOK 31/21 Q1007 NOSIG

2010/08/10 07:50
LGTS 100750Z 31010KT CAVOK 28/17 Q1013 NOSIG

2010/08/10 07:50
LGKP 100750Z 32027KT 9999 FEW010 30/21 Q1005

2010/08/10 07:50
LGKZ 100750Z 33014KT CAVOK 25/13 Q1016

2010/08/10 07:50
LGMK 100750Z 36017G27KT 9999 FEW010 28/23 Q1008

2010/08/10 07:50
LGPZ 100750Z 04004KT CAVOK 31/20 Q1011 NOSIG

2010/08/10 07:50
LGRX 100750Z 00000KT CAVOK 31/20 Q1010 NOSIG

2010/08/10 07:45
LIBR 100745Z 32026KT CAVOK 26/20 Q1013 NOSIG

2010/08/10 07:45
LIEE 100745Z 29004KT CAVOK 26/11 Q1015 NOSIG

2010/08/10 07:45
LIPH 100745Z 08007KT CAVOK 26/19 Q1016

2010/08/10 07:45
LIPR 100745Z 30004KT CAVOK 25/21 Q1015

2010/08/10 07:45
LIPX 100745Z 11001KT 9999 FEW040 27/18 Q1016

2010/08/10 07:45
LIRA 100745Z 29002KT CAVOK 26/16 Q1015

2010/08/10 07:45
LIRP 100745Z 13001KT CAVOK 22/20 Q1016 NOSIG

2010/08/10 07:50
LIBD 100750Z 35007KT 300V030 CAVOK 27/13 Q1014

2010/08/10 07:50
LICC 100750Z VRB02KT CAVOK 28/15 Q1014

2010/08/10 07:50
LICJ 100750Z 35003KT CAVOK 26/20 Q1015

2010/08/10 07:50
LIEA 100750Z 00000KT CAVOK 29/17 Q1016

2010/08/10 07:50
LIEO 100750Z 05005KT CAVOK 25/15 Q1016

2010/08/10 07:50
LIMC 100750Z VRB03KT 9999 BKN070 24/18 Q1017 NOSIG

2010/08/10 07:50
LIME 100750Z 35004KT 310V010 9999 SCT070 23/17 Q1017

2010/08/10 07:50
LIMF 100750Z 07003KT 9999 SCT070 23/18 1016

2010/08/10 07:50
LIMJ 100750Z VRB02KT 9999 FEW020 25/21 Q1016

2010/08/10 07:50
LIML 100750Z VRB02KT 9999 SCT030 23/18 Q1016 NOSIG

2010/08/10 07:50
LIPE 100750Z 30005KT 250V330 CAVOK 25/19 Q1015

2010/08/10 07:50
LIPK 100750Z VRB01KT CAVOK 25/17 Q1015

2010/08/10 07:50
LIPQ 100750Z 00000KT CAVOK 26/19 Q1015

2010/08/10 07:50
LIPZ 100750Z 05005KT CAVOK 25/20 Q1016

2010/08/10 07:50
LIRF 100750Z VRB03KT CAVOK 28/16 Q1015 NOSIG

2010/08/10 07:50
LIRQ 100750Z VRB02KT 8000 FEW025 24/19 Q1016

2010/08/10 07:50
LIMC 100750Z VRB03KT 9999 BKN070 24/18 Q1017 NOSIG

2010/08/10 07:45
LIPX 100745Z 11001KT 9999 FEW040 27/18 Q1016

2010/08/10 07:50
LCRA 100750Z 19005KT 7000 HZ SCT017 30/24 Q1006 BECMG 9999 NSW FEW020

2010/08/10 07:55
EHDL 100755Z AUTO 20008KT 9999NDV NCD 18/14 Q1013 BLU

2010/08/10 07:55
EHGR 100755Z AUTO 24006KT 9999NDV NCD 18/14 Q1013 BLU BLU TEMPO WHT TEMPO SCT020

2010/08/10 07:55
EHLW 100755Z AUTO 20009KT 9999NDV FEW017 SCT026 18/15 Q1012 BLU BLU TEMPO WHT FEW023 TEMPO SCT018

2010/08/10 07:55
EHVK 100755Z AUTO 20006KT 9999NDV FEW260 18/14 Q1014 BLU BLU NOSIG

2010/08/10 07:55
EHVL 100755Z AUTO 22018KT 9999NDV FEW011 BKN014 OVC021 18/15 Q1011 GRN

2010/08/10 07:55
EHWO 100755Z AUTO 22006KT 9999NDV BKN210 19/14 Q1013 BLU BLU TEMPO WHT BKN210 TEMPO SCT020

2010/08/10 07:50
LSZB 100750Z VRB02KT 9999 FEW090 21/15 Q1018 NOSIG

2010/08/10 07:56
KNGP 100756Z AUTO 10SM CLR 28/27 A2989 RMK AO2 SLP121 T02830267 $ 

2010/08/10 07:50
EGLF 100750Z 25007KT 9999 -RA FEW012 SCT022 BKN038 14/13 Q1011

2010/08/10 07:56
KHLR 100756Z AUTO 15005KT 10SM CLR 28/23 A2993 RMK AO2 SLP125 T02830228 $ 

2010/08/10 07:56
KNQI 100756Z AUTO 00000KT 8SM CLR 28/26 A2990 RMK AO2 SLP123 T02780256 $ 

2010/08/10 07:56
KNXP 100756Z AUTO 00000KT CLR 24/M01 A2993 RMK AO2 SLP095 T02391006 403720189 $ 

2010/08/10 07:50
EGDL 100750Z 18007KT 9999 -RA FEW005 BKN050 OVC080 12/12 Q1010 RERA TEMPO SCT022

2010/08/10 07:50
EGDL 100750Z 18007KT 9999 -RA FEW005 BKN050 OVC080 12/12 Q1010 RERA BLU TEMPO SCT022 WHT

2010/08/10 07:50
EGDM 100750Z 25007KT 9999 RA FEW007 BKN060 BKN100 12/11 Q1011 BLU TEMPO SCT007 GRN

2010/08/10 07:50
EGDY 100750Z 23004KT 6000 RA FEW008 SCT040 OVC070 13/12 Q1011 WHT

2010/08/10 07:50
EGOS 100750Z 24004KT 9999 FEW015 BKN050 15/12 Q1008 BLU TEMPO SCT022 WHT

2010/08/10 07:50
EGOV 100750Z 22015KT 9999 FEW018 BKN060 14/12 Q1007 BLU NOSIG

2010/08/10 07:50
EGQK 100750Z 21002KT 9999 FEW022TCU SCT140 BKN250 14/10 Q1004 BLU NOSIG

2010/08/10 07:50
EGQL 100750Z 10004KT 9999 FEW011 BKN250 14/11 Q1004 BLU TEMPO -SHRA SCT020 WHT

2010/08/10 07:50
EGSH 100750Z 24008KT 6000 RA SCT008 BKN029 17/15 Q1009 TEMPO BKN008

2010/08/10 07:50
EGCC 100750Z 22008KT 9999 FEW038 15/11 Q1008 NOSIG

2010/08/10 07:50
EGNS 100750Z 23015KT 9999 8000N -SHRA FEW012 SCT016 BKN040 13/11 Q1006 NOSIG

2010/08/10 07:56
KAQV 100756Z AUTO 00000KT 10SM CLR 26/24 A2992 RMK AO2 SLP125 T02560239 

2010/08/10 07:57
CYZE 100757Z AUTO 34003KT 2 1/2SM BR CLR 17/17 A2993 RMK SLP138 DENSITY ALT 1000FT

2010/08/10 07:57
CYFC 100757Z AUTO 00000KT 1/8SM FG VV002 17/17 A2980 RMK SLP093 DENSITY ALT 400FT RVR MISG

2010/08/10 07:56
KALK 100756Z AUTO 23003KT 10SM CLR 19/14 A3013 RMK AO2 SLP108 T01940144 $ 

2010/08/10 07:56
KGFA 100756Z AUTO 20011KT 10SM CLR 17/09 A2984 RMK AO2 SLP102 T01670094 

2010/08/10 07:57
CYCX 100757Z AUTO 31002KT 3/8SM 16/16 A2980

2010/08/10 07:50
EGDY 100750Z 23004KT 6000 RA FEW008 SCT040 OVC070 13/12 Q1011 WHT

2010/08/10 07:50
EGLF 100750Z 25007KT 9999 -RA FEW012 SCT022 BKN038 14/13 Q1011

2010/08/10 07:50
EGNS 100750Z 23015KT 9999 8000N -SHRA FEW012 SCT016 BKN040 13/11 Q1006 NOSIG

2010/08/10 07:50
EGUW 100750Z 25005KT 9000 RA FEW012 OVC050 14/13 Q1010 BLU TEMPO 6000 SCT010 GRN

2010/08/10 07:50
EGXD 100750Z 16005KT 9999 FEW015 SCT050 BKN080 14/12 Q1007 BLU TEMPO 7000 SHRA SCT018 WHT

2010/08/10 07:50
EGYM 100750Z 23008KT 9999 FEW010 BKN040 13/11 Q1009 RERA BLU TEMPO SCT012 GRN

2010/08/10 07:55
EHGG 100755Z AUTO 21011KT 170V240 9999NDV NSC 18/13 Q1012 NOSIG

2010/08/10 07:55
EHGR 100755Z AUTO 24006KT 9999NDV NCD 18/14 Q1013 BLU BLU TEMPO WHT TEMPO SCT020

2010/08/10 07:55
EHLW 100755Z AUTO 20009KT 9999NDV FEW017 SCT026 18/15 Q1012 BLU BLU TEMPO WHT FEW023 TEMPO SCT018

2010/08/10 07:55
EHWO 100755Z AUTO 22006KT 9999NDV BKN210 19/14 Q1013 BLU BLU TEMPO WHT BKN210 TEMPO SCT020

2010/08/10 07:50
LGAD 100750Z 30004KT 9999 FEW080 29/22 Q1012

2010/08/10 07:50
LGIR 100750Z 31013KT 9999 FEW020 BKN080 30/24 Q1009 NOSIG

2010/08/10 07:50
LGKL 100750Z 00000KT CAVOK 33/20 Q1009

2010/08/10 07:50
LGKO 100750Z 34010KT CAVOK 32/20 Q1006

2010/08/10 07:50
LGKR 100750Z 00000KT CAVOK 30/20 Q1010 NOSIG

2010/08/10 07:50
LGLM 100750Z 02012KT CAVOK 30/20 Q1010

2010/08/10 07:50
LGRP 100750Z 25011KT CAVOK 30/25 Q1005 NOSIG

2010/08/10 07:50
LGSA 100750Z 32006KT 9999 SCT030 SCT080 30/20 Q1010

2010/08/10 07:50
LGSM 100750Z 36010KT CAVOK 32/20 Q1006

2010/08/10 07:50
LGTS 100750Z 31010KT CAVOK 28/17 Q1013 NOSIG

2010/08/10 08:00
LWSK 100800Z 30004KT CAVOK 25/14 Q1016 NOSIG

2010/08/10 07:56
KINS 100756Z 00000KT 10SM CLR 21/M07 A2992 RMK AO2 SLP079 T02061067 

2010/08/10 07:50
EBAW 100750Z 23006KT 200V260 CAVOK 19/13 Q1014 NOSIG

2010/08/10 07:50
EBBR 100750Z 20005KT 180V240 CAVOK 18/12 Q1014 NOSIG

2010/08/10 07:50
EBCI 100750Z 21006KT 180V250 CAVOK 19/11 Q1015 NOSIG

2010/08/10 07:50
EBLG 100750Z 18005KT CAVOK 20/13 Q1015 NOSIG

2010/08/10 07:55
EHAM 100755Z 19012KT 160V220 9999 SCT011 BKN020 18/15 Q1012 NOSIG

2010/08/10 07:55
EHBK 100755Z AUTO 19005KT 160V270 9999NDV NCD 19/13 Q1015 NOSIG

2010/08/10 07:55
EHDL 100755Z AUTO 20008KT 9999NDV NCD 18/14 Q1013 BLU

2010/08/10 07:55
EHGG 100755Z AUTO 21011KT 170V240 9999NDV NSC 18/13 Q1012 NOSIG

2010/08/10 07:55
EHGR 100755Z AUTO 24006KT 9999NDV NCD 18/14 Q1013 BLU BLU TEMPO WHT TEMPO SCT020

2010/08/10 07:55
EHLW 100755Z AUTO 20009KT 9999NDV FEW017 SCT026 18/15 Q1012 BLU BLU TEMPO WHT FEW023 TEMPO SCT018

2010/08/10 07:55
EHVK 100755Z AUTO 20006KT 9999NDV FEW260 18/14 Q1014 BLU BLU NOSIG

2010/08/10 07:55
EHVL 100755Z AUTO 22018KT 9999NDV FEW011 BKN014 OVC021 18/15 Q1011 GRN

2010/08/10 07:55
EHWO 100755Z AUTO 22006KT 9999NDV BKN210 19/14 Q1013 BLU BLU TEMPO WHT BKN210 TEMPO SCT020

2010/08/10 07:55
ETAD 100755Z AUTO 18004KT 9999 CLR 20/13 A3003 RMK AO2 SLPNO T02010128 VISNO RWY05 CHINO RWY05 $

2010/08/10 07:55
ETAR 100755Z AUTO 00000KT 9999 CLR 19/15 A3003 RMK AO2 SLP165 T01950149 $

2010/08/10 07:55
ETEB 100755Z AUTO 00000KT 9999 CLR 20/14 A3007 RMK AO2 SLP167 T01980142

2010/08/10 07:56
ETIC 100756Z AUTO 00000KT 9999 BKN046 16/16 A3007 RMK AO2 SLP178 T01610161

2010/08/10 07:55
ETOU 100755Z AUTO 00000KT 9999 CLR 20/15 A3003 RMK AO2 SLP168 T02010146

2010/08/10 07:50
ETUO 100750Z 11003KT CAVOK 20/13 Q1015 BLU

2010/08/10 07:50
LSZB 100750Z VRB02KT 9999 FEW090 21/15 Q1018 NOSIG

2010/08/10 07:56
KSPD 100756Z AUTO 30004KT 21/16 A3006 RMK AO2 SLP104 T02060161 PWINO TSNO 

2010/08/10 07:56
KD07 100756Z AUTO 17009KT 21/16 A2985 RMK AO2 SLP088 T02060156 PWINO TSNO 

2010/08/10 07:56
K2WX 100756Z AUTO 00000KT 21/12 A2978 RMK AO1 SLP053 T02110117 

2010/08/10 07:56
KGNA 100756Z AUTO 00000KT 14/13 A2995 RMK AO2 SLP137 T01390128 PWINO TSNO 

2010/08/10 07:56
KFSD 100756Z 11007KT 10SM FEW025 BKN038 25/23 A2986 RMK AO2 SLP099 T02500233 $ 

2010/08/10 07:56
KNJK 100756Z AUTO 36005KT 10SM CLR 27/M01 A2973 RMK AO2 SLP083 T02671011 404000183 TSNO 

2010/08/10 07:56
KNBT 100756Z AUTO 22004KT 7SM CLR 27/24 A3000 RMK AO2 SLP165 T02670244 TSNO 

2010/08/10 07:50
LSME 100750Z AUTO VRB01KT 9999NDV FEW078 20/14 Q1018 RMK BLU

2010/08/10 08:00
GLRB 100800Z 00000KT 8000 -DZ FEW008 BKN013 25/24 Q1014

2010/08/10 07:55
EHAM 100755Z 19012KT 160V220 9999 SCT011 BKN020 18/15 Q1012 NOSIG

2010/08/10 07:55
EHBK 100755Z AUTO 19005KT 160V270 9999NDV NCD 19/13 Q1015 NOSIG

2010/08/10 07:55
EHGG 100755Z AUTO 21011KT 170V240 9999NDV NSC 18/13 Q1012 NOSIG

2010/08/10 07:55
EHRD 100755Z 19009KT 9999 FEW011 SCT014 BKN018 18/15 Q1013 NOSIG

2010/08/10 07:56
KNCA 100756Z AUTO 00000KT 10SM 24/24 A3001 RMK AO2 SLP165 T02390239 $ 

2010/08/10 07:54
KSBN 100754Z 04004KT 5SM BR CLR 21/20 A2996 RMK AO2 SLP141 T02110200 

2010/08/10 07:56
KSXT 100756Z AUTO 35010KT 8SM CLR 11/09 A3000 RMK AO2 SLP124 T01060089 402170106 TSNO 

2010/08/10 07:56
K9L2 100756Z AUTO 25006KT 10SM CLR 22/03 A2989 RMK AO2 SLP099 T02220033 $ 

2010/08/10 08:00
FIMP 100800Z 09012KT 9999 FEW020 25/14 Q1024

2010/08/10 07:50
EDNY 100750Z VRB02KT CAVOK 20/15 Q1018

2010/08/10 08:00
ORSU 100800Z 03005KT CAVOK 40/04 Q1010 

2010/08/10 07:55
KGTB 100755Z AUTO 22005KT 10SM FEW008 BKN015 21/20 A2993 RMK AO2 CIG 009 RWY03 SLP135 T02100202

2010/08/10 07:53
KNIP 100753Z 12008KT 10SM SCT020 27/24 A2995 RMK AO2 SLP137 T02720239

2010/08/10 07:54
KNKT 100754Z AUTO 21003KT 10SM CLR 24/23 A3002 RMK AO2 SLP162 T02440233

2010/08/10 07:53
KNQX 100753Z AUTO 19008KT 10SM -TSRA FEW014 SCT026 27/24 A2983 RMK AO2 TSB42RAB50 SLP101 P0001 T02720244 $

2010/08/10 07:52
KNRB 100752Z AUTO 14010KT 10SM CLR 28/22 A2995 RMK AO2 SLP140 T02830222

2010/08/10 07:52
KNZY 100752Z 31004KT 10SM BKN013 20/14 A2990 RMK AO2 SLP126 T02000139 402500172 $

2010/08/10 07:55
KPAM 100755Z AUTO 10003KT 10SM CLR 27/24 A2990 RMK AO2 SLP125 T02680242 $

2010/08/10 07:55
KPOB 100755Z AUTO 25004KT 10SM FEW006 25/25 A3001 RMK AO2 SLP160 T02490249 $

2010/08/10 07:55
KRCA 100755Z 20008KT 10SM BKN170 23/16 A2986 RMK AO2A SLP079 T02280160 $

2010/08/10 07:56
KSGH 100756Z AUTO 00000KT 5SM BR FEW049 23/23 A2999 RMK AO2 T02330227 SLP146 $

2010/08/10 07:55
KSKA 100755Z AUTO 20008KT 10SM FEW160 17/05 A2980 RMK AO2 SLP079 T01720053 402690119

2010/08/10 07:55
KSSC 100755Z 00000KT 10SM CLR 24/23 A3000 RMK AO2A SLP157 T02430231 $

2010/08/10 07:55
KTCM 100755Z AUTO 20007KT 10SM OVC011 14/11 A2998 RMK AO2 SLP152 T01380110 401900131

2010/08/10 07:55
KTIK 100755Z 18011KT 10SM CLR 27/21 A2992 RMK AO2A SLP113 T02660206

2010/08/10 07:55
KTTS 100755Z 12007KT 10SM FEW065 26/24 A2993 RMK SLP135 1SC /0/

2010/08/10 07:55
KVAD 100755Z AUTO 07003KT 10SM CLR 25/24 A2995 RMK AO2 SLP140 T02460239 $

2010/08/10 08:00
SBBR 100800Z 26002KT CAVOK 12/04 Q1022

2010/08/10 07:50
EFKI 100750Z AUTO 22005KT 170V270 //// OVC029 20/17 Q1009

2010/08/10 07:55
KCVS 100755Z 00000KT 10SM CLR 20/16 A3008 RMK AO2A SLP140 T01960160 $

2010/08/10 07:57
KFFO 100757Z 00000KT 10SM SCT049 SCT070 25/22 A2997 RMK AO2A SLP143

2010/08/10 07:55
KFHU 100755Z 24005KT 10SM SKC 23/14 A3011 RMK SLP122

2010/08/10 07:55
KHRT 100755Z 35004KT 10SM CLR 25/24 A2989 RMK AO2A SLP124 T02520244 $

2010/08/10 07:55
KLSV 100755Z AUTO 06008KT 10SM CLR 25/M01 A2983 RMK AO2 SLP086 T02461008 403630218 PWINO

2010/08/10 07:55
KMIB 100755Z AUTO 07016KT 10SM OVC050 21/16 A2986 RMK AO2 SLP103 T02090162

2010/08/10 07:52
KNZY 100752Z 31004KT 10SM BKN013 20/14 A2990 RMK AO2 SLP126 T02000139 402500172 $

2010/08/10 07:55
KRCA 100755Z 20008KT 10SM BKN170 23/16 A2986 RMK AO2A SLP079 T02280160 $

2010/08/10 07:55
KTCM 100755Z AUTO 20007KT 10SM OVC011 14/11 A2998 RMK AO2 SLP152 T01380110 401900131

2010/08/10 07:55
KTTS 100755Z 12007KT 10SM FEW065 26/24 A2993 RMK SLP135 1SC /0/

2010/08/10 08:00
MGGT 100800Z 02008KT 9999 SCT012 19/18 Q1023 A3021 RERA FEW080 MTN E/W CUB/CL VOL/ PACAYA EN ACTIVIDAD NOSIG

2010/08/10 07:50
OAMS 100750Z 28008KT 9999 FEW160 39/00 Q1006 BLU/BLU/

2010/08/10 08:00
OSAP 100800Z 26009KT CAVOK 32/19 Q1006

2010/08/10 08:00
OSDI 100800Z VRB03KT CAVOK 31/14 Q1009

2010/08/10 08:00
OSLK 100800Z 24004KT 9999 SCT030 30/21 Q1007

2010/08/10 07:55
PAED 100755Z 00000KT 10SM OVC004 12/11 A2977 RMK AO2A DZB0715E0721 CIG 004V007 SLP083 P0000 T01160107

2010/08/10 07:56
PMDY 100756Z AUTO 07009KT 10SM FEW022 26/22 A3023 RMK AO2 TSNO T02550216 RAB38E48 P0000 SLP544

2010/08/10 07:55
KQAJ 100755Z 34008KT 9999 CLR 41/06 A2969 RMK SLP035 WND DATA ESTMD ALSTG/SLP ESTMD

2010/08/10 07:55
KQAY 100755Z AUTO 13006KT 9000 FEW009 42/21 A2954 RMK AO2 SLP998 T04180213 $

2010/08/10 07:55
KQBL 100755Z AUTO VRB02KT 9SM CLR 27/23 A2993 RMK AO2 SLP134 T02660234

2010/08/10 07:55
KQDP 100755Z AUTO RMK AO2 SLPNO $

2010/08/10 07:55
KQIU 100755Z AUTO VRB03KT 9999 SCT032 BKN044 25/14 A3010 RMK AO2 SLP087

2010/08/10 07:55
KQL5 100755Z VRB02KT 9999 VCTS BKN150 33/21 A2963 RMK AO2A TS S MOV N SLP995 WND DATA ESTMD ALSTG/SLP ESTMD

2010/08/10 07:55
KQLE 100755Z 21008G15KT 8000 DU FEW250 38/00 A2974 RMK SLP989 T03790002 PA3115 DA6380

2010/08/10 07:55
KQQR 100755Z AUTO VRB04KT 9999 CLR 29/20 A2986 RMK AO2 LTG DSNT SE SLP038 T02930196 $

2010/08/10 07:55
KQSB 100755Z AUTO 27008G14KT 6000 37/01 A2982 RMK AO2 SLP995 T03650013 $

2010/08/10 07:55
KQWM 100755Z 03005KT 9999 FEW180 SCT220 44/03 A2956 RMK SLP997 QNH1001

2010/08/10 07:56
KQON 100756Z AUTO RMK AO2 SLPNO $

2010/08/10 07:56
KNUW 100756Z 24006KT 8SM FEW008 BKN012 OVC045 14/11 A2996 RMK AO2 SLP150 T01420111 401560128 $ 

2010/08/10 07:56
KNPA 100756Z AUTO 34003KT 6SM BR CLR 26/24 A2990 RMK AO2 SLP127 T02560239 

2010/08/10 07:55
CZUM 100755Z AUTO 28003KT 9SM SCT014 BKN020 BKN054 BKN074 10/09 A2966

2010/08/10 08:00
SBGL 100800Z 28004KT 7000 SCT012 BKN020 19/16 Q1023

2010/08/10 08:00
SBFL 100800Z 00000KT 9999 SCT025 14/11 Q1025

2010/08/10 07:56
KLWS 100756Z AUTO 15004KT 10SM CLR 19/04 A2979 RMK AO2 SLP078 T01890039 403170156 

2010/08/10 07:56
K8D3 100756Z AUTO 00000KT 21/21 A2986 RMK AO2 SLP090 T02110206 PWINO TSNO 

2010/08/10 07:56
PASY 100756Z AUTO 29011KT 1/2SM FG VV001 09/09 A2988 RMK AO2 SLP118 T00890089 TSNO PNO $ 

2010/08/10 08:00
HRYR 100800Z 00000KT 9000 FEW030 25/13 Q1023 NOSIG

2010/08/10 08:00
HRZA 100800Z 00000KT 9999 SCT023 21/13 Q1024 NOSIG

2010/08/10 08:00
HRYG 100800Z 00000KT 8000 FEW023 22/16 Q1022 NOSIG

2010/08/10 08:00
TFFR 100800Z VRB01KT 9999 SCT020 SCT050 25/24 Q1013 TEMPO 4000 SHRA

2010/08/10 07:54
CWLY 100754Z AUTO 17002KT 9SM FEW005 BKN011 BKN025 13/12 A2995

2010/08/10 07:52
CYCX 100752Z AUTO 35002KT 1 1/2SM 16/16 A2980 RMK VSBY VRBL 0.5V6.0

2010/08/10 07:53
CYCX 100753Z AUTO 34002KT 1 1/8SM 16/16 A2980 RMK VSBY VRBL 0.4V5.0

2010/08/10 07:54
CYCX 100754Z AUTO 33002KT 1SM 16/16 A2980 RMK VSBY VRBL 0.3V5.0

2010/08/10 07:55
CYCX 100755Z AUTO 32002KT 5/8SM 16/16 A2980

2010/08/10 07:54
CYFC 100754Z AUTO 00000KT 1/8SM FG VV001 17/17 A2980 RMK SLP093 DENSITY ALT 400FT RVR MISG

2010/08/10 07:53
CYKF 100753Z AUTO VRB02KT 1/4SM FG BKN004 18/18 A2995 RMK SLP142 DENSITY ALT 1600FT

2010/08/10 07:55
CYZE 100755Z AUTO 34003KT 1 1/2SM BR CLR 17/17 A2993 RMK SLP138 DENSITY ALT 1000FT

2010/08/10 07:53
CYZP 100753Z AUTO 26008KT 9SM BKN022 OVC027 14/12 A3003 RMK SLP170

2010/08/10 07:52
EGVA 100752Z AUTO 22008KT 9999 -DZ SCT065 13/12 A2982 RMK AO2 DZB0752 SLP099 $

2010/08/10 07:55
KEGI 100755Z AUTO 36003KT 4SM R18/4500FT BR CLR 24/23 A2992 RMK AO2 SLP130 $

2010/08/10 07:53
KMTC 100753Z AUTO 00000KT 1 1/2SM R19/0800VP6000FT DZ BR CLR 21/21 A2995 RMK AO2 SLP144 $

2010/08/10 07:54
KMTC 100754Z AUTO 00000KT 1SM R19/0800VP6000FT DZ BR CLR 21/21 A2995 RMK AO2 SLP144 $

2010/08/10 07:56
KMTC 100756Z AUTO 00000KT 1/2SM R19/0700VP6000FT DZ FG CLR 20/20 A2995 RMK AO2 SLP144 $

2010/08/10 07:57
KMTC 100757Z AUTO 00000KT 1/2SM R19/0700V5500FT DZ FG CLR 20/20 A2994 RMK AO2 SLP144 $

2010/08/10 07:54
KWAL 100754Z AUTO 24005KT 10SM CLR 24/22 A2996 RMK AO2 SLP143 T02390217 TSNO 

2010/08/10 07:54
KBOS 100754Z 18006KT 5SM -RA BR BKN070 OVC120 21/19 A2989 RMK AO2 TSE03 SLP121 P0003 T02060194

2010/08/10 07:55
KCOF 100755Z AUTO 15007KT 10SM SCT029 26/ A2992 RMK AO2 SLP134 T0265

2010/08/10 07:53
KDAB 100753Z 10003KT 10SM FEW020 27/24 A2993 RMK AO2 SLP136 T02670239

2010/08/10 07:55
KDOV 100755Z AUTO 20008KT 10SM CLR 24/24 A2992 RMK AO2 SLP134 T02430241

2010/08/10 07:55
KLFI 100755Z 22005KT 10SM CLR 26/23 A2997 RMK AO2A SLP149 T02550229

2010/08/10 07:55
KMCF 100755Z AUTO 07007KT 10SM CLR 26/25 A2988 RMK AO2 SLP119 T02560247

2010/08/10 07:53
KNIP 100753Z 12008KT 10SM SCT020 27/24 A2995 RMK AO2 SLP137 T02720239

2010/08/10 07:54
KNKT 100754Z AUTO 21003KT 10SM CLR 24/23 A3002 RMK AO2 SLP162 T02440233

2010/08/10 07:53
KNQX 100753Z AUTO 19008KT 10SM -TSRA FEW014 SCT026 27/24 A2983 RMK AO2 TSB42RAB50 SLP101 P0001 T02720244 $

2010/08/10 07:52
KNRB 100752Z AUTO 14010KT 10SM CLR 28/22 A2995 RMK AO2 SLP140 T02830222

2010/08/10 07:55
KPAM 100755Z AUTO 10003KT 10SM CLR 27/24 A2990 RMK AO2 SLP125 T02680242 $

2010/08/10 07:55
KPOB 100755Z AUTO 25004KT 10SM FEW006 25/25 A3001 RMK AO2 SLP160 T02490249 $

2010/08/10 07:53
KSAV 100753Z 00000KT 10SM FEW023 26/24 A2999 RMK AO2 SLP153 T02560239 $

2010/08/10 07:55
KSSC 100755Z 00000KT 10SM CLR 24/23 A3000 RMK AO2A SLP157 T02430231 $

2010/08/10 07:54
KSYR 100754Z 00000KT 3SM BR FEW020 BKN028 OVC046 21/21 A2994 RMK AO2 SLP133 T02110206

2010/08/10 07:55
KVAD 100755Z AUTO 07003KT 10SM CLR 25/24 A2995 RMK AO2 SLP140 T02460239 $

2010/08/10 07:56
KNFL 100756Z 29006KT 10SM CLR 21/03 A2994 RMK AO2 PK WND 33029/0739 SLP113 T02060028 403390150 

2010/08/10 07:53
KUIL 100753Z AUTO 00000KT 2 1/2SM BR OVC007 12/11 A2997 RMK AO2 CIG 005V011 SLP150 T01220111 401560117 TSNO 

2010/08/10 07:55
KCAO 100755Z AUTO 25012KT 10SM CLR 22/16 A3008 RMK AO2 SLP100 T02220156 TSNO 

2010/08/10 08:00
FMEP 100800Z 15006KT 110V190 9999 FEW013 FEW040TCU BKN083 25/16 Q1023

2010/08/10 07:56
KP53 100756Z AUTO 18004KT 18/17 A2996 RMK AO2 SLP145 T01780172 PWINO TSNO 

2010/08/10 07:56
KWMC 100756Z AUTO 01004KT 10SM CLR 16/M01 A2995 RMK AO2 SLP092 T01611006 403280100 

2010/08/10 08:00
TFFR 100800Z VRB01KT 9999 SCT020 SCT050 25/24 Q1013 TEMPO 4000 SHRA

2010/08/10 07:56
KCAE 100756Z 00000KT 6SM BR CLR 24/22 A3000 RMK AO2 SLP154 T02390222

2010/08/10 07:56
KCHS 100756Z 00000KT 10SM FEW023 27/25 A3000 RMK AO2 SLP157 T02670250

2010/08/10 07:55
KCLI 100755Z AUTO 01003KT 10SM CLR 21/18 A2996 RMK AO2

2010/08/10 07:55
KCMB 100755Z AUTO 30005KT 10SM CLR 31/24 A2991 RMK A01

2010/08/10 07:55
KCMR 100755Z AUTO 15006KT 10SM FEW070 12/08 A3025 RMK AO1

2010/08/10 07:55
KCMY 100755Z AUTO 00000KT 4SM BR SCT001 21/20 A2995 RMK AO2 T02050199

2010/08/10 07:55
KCRH 100755Z AUTO 28005KT 10SM SCT024 30/25 A2992 RMK A01

2010/08/10 07:55
KCWA 100755Z AUTO 02006KT 10SM CLR 21/20 A2999 RMK AO2 T02110197

2010/08/10 07:56
KDIJ 100756Z AUTO 00000KT 10SM CLR 09/07 A3013 RMK AO2 T00940066 SLP124 $

2010/08/10 07:55
KDLL 100755Z AUTO 00000KT M1/4SM FG BKN002 21/21 A2995 RMK AO2 T02140208

2010/08/10 08:00
KEDU 100800Z AUTO 15005KT 10SM CLR 14/12 A2981 RMK AO1

2010/08/10 07:55
KEFT 100755Z AUTO 07004KT 7SM CLR 24/22 A2994 RMK AO2 T02360222

2010/08/10 07:51
KEGV 100751Z AUTO 00000KT 1/4SM FG OVC003 15/16 A3002 RMK AO2 T01540155

2010/08/10 07:55
KEHC 100755Z AUTO 25004KT 10SM CLR 30/24 A2991 RMK A01

2010/08/10 07:55
KEIR 100755Z AUTO VRB03KT 10SM SCT030 SCT039 29/26 A2990 RMK A01

2010/08/10 07:56
KEKQ 100756Z AUTO 00000KT 1 3/4SM BR BKN080 22/22 A3001 RMK AO2 T02220222 SLP157

2010/08/10 07:55
KEMK 100755Z AUTO 21004KT 10SM FEW022 FEW028 30/25 A2991 RMK A01

2010/08/10 07:52
KETB 100752Z AUTO 00000KT 2 1/2SM BR CLR 20/20 A2995 RMK AO2 P0001 T02020195

2010/08/10 07:55
KGBK 100755Z AUTO 00000KT 10SM BKN027 30/25 A2991 RMK A01

2010/08/10 07:52
KGLW 100752Z AUTO 00000KT 4SM BR CLR 24/23 A2998 RMK AO2 T02400232

2010/08/10 07:54
KGSO 100754Z 23003KT 7SM CLR 24/21 A3003 RMK AO2 SLP157 T02440206

2010/08/10 07:55
KGUL 100755Z AUTO 10SM CLR 30/25 A2991 RMK A01

2010/08/10 07:50
KHQI 100750Z AUTO 00000KT 10SM 30/25 A2991 RMK A01

2010/08/10 07:55
KIPN 100755Z AUTO 03008KT 10SM FEW020 30/25 A2987 RMK A01

2010/08/10 07:55
KJVL 100755Z AUTO 00000KT 10SM CLR 23/21 A2993 RMK AO2 T02250205

2010/08/10 07:56
PAFS 100756Z AUTO 00000KT 10SM FEW038 SCT048 OVC060 11/09 A2963 RMK AO2 TSNO T01050094 401440094 RAB02E54 P0001 SLP040 $

2010/08/10 07:56
PAGN 100756Z AUTO 00000KT SCT004 OVC013 RMK AO2 PWINO TSNO SLPNO $

2010/08/10 07:56
PAHC 100756Z AUTO 00000KT 10SM FEW026 SCT036 OVC046 11/10 A2949 RMK AO2 TSNO T01110100 OVC V BKN RAE45 P0002 SLP990 $

2010/08/10 07:56
PAIG 100756Z AUTO 00000KT 10SM BKN005 OVC044 11/11 A2965 RMK AO2 PWINO TSNO T01050105 BKN V OVC SLP043 $

2010/08/10 07:56
PAMO 100756Z AUTO 15018KT 3/4SM BR OVC001 09/09 A2939 RMK AO2 TSNO T00940094 RAE53 P0001 SLP950 $

2010/08/10 07:56
PAOO 100756Z AUTO 17012KT 10SM OVC007 09/08 A2935 RMK AO2 TSNO T00940083 CIG 006V012 SLP941 $

2010/08/10 07:56
PAPM 100756Z AUTO 18020KT 4SM BR SCT008 OVC011 09/09 A2951 RMK AO2 TSNO T00940088 401000094 OVC V BKN RAB00E33 P0002 SLP993 $

2010/08/10 07:56
PARS 100756Z AUTO 18009KT 1 1/2SM -RA BR BKN012 OVC017 10/09 A2947 RMK AO2 TSNO T01000094 P0000 SLP983 $

2010/08/10 07:56
PARY 100756Z AUTO 00000KT 10SM BKN075 12/10 A2959 RMK AO2 PWINO TSNO T01220100 SLP026

2010/08/10 07:56
PATQ 100756Z AUTO 07018KT 10SM OVC007 03/02 A2978 RMK AO2 TSNO T00270022 RAE00 P0000 SLP089 $

2010/08/10 07:56
KFPK 100756Z AUTO 00000KT 1/4SM FG VV002 18/18 A2996 RMK AO2

2010/08/10 07:55
KCVX 100755Z AUTO 26003KT 4SM BR BKN007 22/21 A2998 RMK AO2

2010/08/10 07:55
KMOP 100755Z AUTO 00000KT 4SM BR CLR 21/21 A2996 RMK AO2

2010/08/10 07:54
KFKS 100754Z AUTO 00000KT 7SM SCT001 SCT010 20/18 A2995 RMK AO2

2010/08/10 07:54
KCAD 100754Z AUTO 00000KT 1SM BR VV007 18/17 A2999 RMK AO2

2010/08/10 07:55
KMGN 100755Z AUTO 00000KT 5SM BR BKN009 23/21 A2997 RMK AO2

2010/08/10 07:55
KSLH 100755Z AUTO 23003KT 1/4SM FG OVC001 21/20 A2996 RMK AO2

2010/08/10 07:55
KSJX 100755Z AUTO 00000KT 1 3/4SM BR OVC002 22/21 A2997 RMK AO2

2010/08/10 07:55
KHAI 100755Z AUTO 00000KT 3/4SM BR VV005 20/20 A2997 RMK AO2 VIS 1/4V5

2010/08/10 07:56
KLWA 100756Z AUTO 00000KT 4SM BR CLR 20/19 A2996 RMK AO2

2010/08/10 07:57
KDRM 100757Z AUTO 00000KT 3/4SM BR BKN001 BKN008 17/17 A2995 RMK AO2

2010/08/10 07:54
KVLL 100754Z AUTO 00000KT 5SM BR CLR 22/20 A2998 RMK AO2

2010/08/10 07:55
KGOV 100755Z AUTO 00000KT 3/4SM BR OVC001 20/20 A3000 RMK AO2

2010/08/10 07:54
KPZQ 100754Z AUTO 26004KT 5SM BR SCT001 SCT017 19/18 A2997 RMK AO2

2010/08/10 07:55
KCFS 100755Z AUTO 29003KT 4SM BR CLR 21/20 A2995 RMK AO2

2010/08/10 07:55
KHYX 100755Z AUTO 32003KT 7SM CLR 21/20 A2995 RMK AO2

2010/08/10 07:55
KOZW 100755Z AUTO 00000KT 3/4SM BR VV005 20/20 A2996 RMK AO2 VIS 1/4V2

2010/08/10 07:55
KRNP 100755Z AUTO 00000KT 1/4SM FG VV002 19/19 A2996 RMK AO2

2010/08/10 07:54
KDUH 100754Z AUTO 00000KT 1/4SM FG VV002 21/19 A2996 RMK AO2

2010/08/10 07:55
KISQ 100755Z AUTO 00000KT 1/2SM FG VV005 19/18 A2997 RMK AO2

2010/08/10 07:55
KJYM 100755Z AUTO 00000KT M1/4SM FG OVC001 19/18 A2999 RMK AO2

2010/08/10 08:05
KBAX 100805Z AUTO 00000KT 2 1/2SM BR OVC004 21/21 A2995 RMK AO2

2010/08/10 07:55
KIRS 100755Z AUTO 00000KT 4SM BR CLR 21/19 A2997 RMK AO2

2010/08/10 07:54
KAMN 100754Z AUTO 00000KT 1/4SM FG OVC001 18/18 A2995 RMK AO2

2010/08/10 07:55
KACB 100755Z AUTO 00000KT 1/2SM FG OVC001 22/22 A2997 RMK AO2

2010/08/10 07:55
KRQB 100755Z AUTO 00000KT M1/4SM FG OVC001 19/19 A2998 RMK AO2

2010/08/10 07:55
KERY 100755Z AUTO 00000KT M1/4SM FG OVC002 18/18 A2999 RMK AO2

2010/08/10 07:55
KOEB 100755Z AUTO 00000KT 1 1/4SM BR BKN001 21/19 A2998 RMK AO2

2010/08/10 07:56
K4I3 100756Z AUTO 26003KT 7SM SCT085 23/20 A2998 RMK AO2

2010/08/10 07:55
KAUM 100755Z AUTO 14003KT 10SM CLR 22/22 A2994 RMK AO2

2010/08/10 07:55
KFFX 100755Z AUTO 00000KT 1/4SM FG OVC002 20/20 A2997 RMK AO2

2010/08/10 07:54
KCNB 100754Z AUTO 06003KT 1/2SM FG BKN002 OVC036 22/21 A2988 RMK AO2 T02180213

2010/08/10 07:55
KCKN 100755Z AUTO 16005KT 10SM CLR 20/19 A2991 RMK AO2

2010/08/10 08:03
KCFE 100803Z AUTO 00000KT 10SM CLR 21/20 A2994 RMK AO2 T02110199

2010/08/10 07:57
KCQM 100757Z AUTO 00000KT 10SM CLR 18/17 A2997 RMK AO2

2010/08/10 07:55
KDTL 100755Z AUTO 14004KT 10SM CLR 22/18 A2995 RMK AO2

2010/08/10 07:55
KBDH 100755Z AUTO 12005KT 7SM CLR 23/22 A2992 RMK AO2

2010/08/10 07:55
KCBG 100755Z AUTO 00000KT 10SM CLR 19/17 A2994 RMK AO2

2010/08/10 07:57
KADC 100757Z AUTO 00000KT 10SM CLR 17/17 A2995 RMK AO2

2010/08/10 07:55
KHAF 100755Z AUTO 00000KT 4SM BR OVC003 11/11 A2994 RMK AO2

2010/08/10 07:55
KCKC 100755Z AUTO 00000KT 10SM CLR 16/13 A3002 RMK AO2

2010/08/10 07:55
KJYG 100755Z AUTO 09004KT 10SM CLR 24/24 A2991 RMK AO2

2010/08/10 07:56
KCOQ 100756Z AUTO 00000KT 7SM CLR 19/17 A2997 RMK AO2

2010/08/10 07:58
KACQ 100758Z AUTO 10005KT 7SM CLR 22/21 A2994 RMK AO2

2010/08/10 07:55
KRGK 100755Z AUTO 00000KT 4SM BR CLR 21/20 A2993 RMK AO2

2010/08/10 07:54
KFSE 100754Z AUTO 15003KT 10SM CLR 19/17 A2993 RMK AO2

2010/08/10 07:55
KY70 100755Z AUTO 33003KT 1 1/2SM BR VV007 21/20 A2996 RMK AO2 T02060199

2010/08/10 07:50
KUKT 100750Z AUTO 00000KT 10SM CLR 24/20 A2995 RMK AO1

2010/08/10 07:54
KCDA 100754Z AUTO 00000KT M1/4SM FG OVC002 16/15 A2996 RMK AO2

2010/08/10 07:54
KONZ 100754Z AUTO 00000KT 1/4SM FG OVC001 22/21 A2994 RMK AO2

2010/08/10 07:53
KTEW 100753Z AUTO 00000KT 1 1/2SM BR BKN001 18/18 A2997 RMK AO2

2010/08/10 07:50
KCVH 100750Z AUTO 00000KT 10SM OVC005 13/12 A2993 RMK AO1

2010/08/10 07:56
KDVP 100756Z AUTO 10006KT 5SM BR BKN008 23/22 A2991 RMK AO2 T02310220

2010/08/10 07:54
KDYT 100754Z AUTO 00000KT 10SM CLR 23/21 A2994 RMK AO2

2010/08/10 07:59
KFSO 100759Z AUTO 15003KT 5SM BR SCT014 17/17 A2991 RMK AO2

2010/08/10 07:54
KFBL 100754Z AUTO 00000KT 2 1/2SM BR CLR 19/18 A2994 RMK AO2 LTG DSNT S

2010/08/10 07:58
KLYV 100758Z AUTO 12004KT 7SM BKN040 24/22 A2987 RMK AO2 LTG DSNT W

2010/08/10 07:55
KEFK 100755Z AUTO 22003KT 1/4SM FG OVC001 14/13 A2995 RMK AO2

2010/08/10 07:54
KRRT 100754Z AUTO 21005KT 10SM CLR 23/21 A2991 RMK AO2 TSNO

2010/08/10 07:55
KTOB 100755Z AUTO 13004KT 1/2SM FG VV005 22/21 A2995 RMK AO2

2010/08/10 07:54
KLXL 100754Z AUTO 00000KT 5SM BR CLR 18/17 A2993 RMK AO2

2010/08/10 07:52
KEVM 100752Z AUTO 00000KT 1/4SM FG OVC001 17/16 A2996 RMK AO1

2010/08/10 07:53
KELO 100753Z AUTO 00000KT 10SM CLR 18/17 A2997 RMK AO2

2010/08/10 07:55
KANE 100755Z AUTO 00000KT 10SM CLR 22/21 A2994 RMK AO2

2010/08/10 07:55
KROX 100755Z AUTO 20007KT 10SM CLR 22/21 A2991 RMK AO2

2010/08/10 07:55
KSYN 100755Z AUTO 00000KT 3SM BR 20/19 A2993 RMK AO2 SKY OBSCURED T02020192

2010/08/10 07:56
KVVV 100756Z AUTO 12006KT 10SM CLR 24/22 A2986 RMK AO2

2010/08/10 08:01
KFKA 100801Z AUTO 00000KT 10SM CLR 24/23 A2996 RMK AO2 LTG DSNT SW T02360230

2010/08/10 07:57
K14Y 100757Z AUTO 00000KT 10SM CLR 20/20 A2995 RMK AO2 T02020195

2010/08/10 07:55
KATW 100755Z AUTO 00000KT 3SM BR CLR 22/21 A2996 RMK AO2

2010/08/10 07:55
KBUU 100755Z AUTO 00000KT 1 1/2SM BR BKN001 18/18 A2994 RMK AO2 VIS 3/4V4 T01820180

2010/08/10 07:55
KDVK 100755Z AUTO 21004KT 4SM CLR 24/23 A2999 RMK AO1

2010/08/10 07:54
KEZS 100754Z AUTO 04004KT 10SM CLR 22/20 A2996 RMK AO2 T02210198

2010/08/10 07:55
KHFJ 100755Z AUTO 00000KT 10SM CLR 26/22 A2993 RMK AO1

2010/08/10 07:56
KIWA 100756Z AUTO 23003KT 10SM CLR 32/11 A2985 RMK AO2

2010/08/10 07:55
KLCK 100755Z AUTO 00000KT 7SM OVC080 24/21 A2996 RMK AO2 T02350213

2010/08/10 07:56
KLRD 100756Z AUTO 16010KT 10SM CLR 29/25 A2994 RMK AO2 T02880250 SLP124

2010/08/10 07:55
KMWO 100755Z AUTO 00000KT 4SM BR CLR 23/22 A2998 RMK AO2

2010/08/10 07:55
KSME 100755Z AUTO 00000KT 3SM BR 23/23 A2999 RMK AO2

2010/08/10 07:53
KUNI 100753Z AUTO 00000KT 7SM SCT100 24/19 A2997 RMK AO2

2010/08/10 07:55
KY63 100755Z AUTO 14006KT 10SM CLR 24/21 A2990 RMK AO2 T02360211

2010/08/10 07:55
PGUA 100755Z AUTO 07008KT 10SM SCT018 SCT025 SCT035 27/24 A2991 RMK AO2 SLP110 T02680244 $

2010/08/10 07:55
KLDM 100755Z AUTO 00000KT 1/4SM FG OVC001 21/20 A2996 RMK AO2

2010/08/10 07:55
KPHN 100755Z AUTO 00000KT 1/4SM FG OVC001 17/17 A2995 RMK AO2

2010/08/10 07:55
KRMY 100755Z AUTO 00000KT M1/4SM FG BKN001 OVC009 20/19 A2997 RMK AO2

2010/08/10 07:56
KOSC 100756Z AUTO 32004KT 1 1/2SM BR OVC001 21/19 A2996 RMK AO2

2010/08/10 07:53
KTTF 100753Z AUTO 00000KT 1/4SM FG OVC001 21/21 A2994 RMK AO2

2010/08/10 07:55
KMCD 100755Z AUTO 00000KT 1/4SM HZ OVC002 21/18 A2998 RMK AO2

2010/08/10 07:56
KM89 100756Z AUTO 00000KT 8SM CLR 27/25 A2992 RMK AO2 T02660250 SLP142 $

2010/08/10 07:55
KMDJ 100755Z AUTO 00000KT 10SM CLR 29/25 A2991 RMK A01

2010/08/10 07:55
KMHR 100755Z AUTO 15006KT 10SM CLR 14/11 A2985 RMK AO1

2010/08/10 07:55
KMIU 100755Z AUTO 20014KT 10SM CLR 30/27 A2990 RMK A01

2010/08/10 07:53
KMWT 100753Z AUTO 00000KT 10SM CLR 24/23 A2992 RMK AO2 SLP115 T02440233 TSNO

2010/08/10 07:55
KMZG 100755Z AUTO 18010KT 050V190 10SM SCT020 SCT026 SCT034 30/26 A2990 RMK A01

2010/08/10 07:56
KNTU 100756Z 24004KT 9SM FEW200 23/22 A2997 RMK AO2 SLP151 T02330222 $

2010/08/10 07:52
KPVB 100752Z AUTO 00000KT 10SM CLR 24/23 A2996 RMK AO1 T02380225

2010/08/10 07:54
KRFD 100754Z 08006KT 10SM FEW030 SCT180 24/22 A2994 RMK AO2 SLP132 T02400220 PNO $

2010/08/10 07:53
KRZN 100753Z AUTO 00000KT 10SM CLR 20/19 A2996 RMK AO2 T02040187

2010/08/10 07:55
KSCF 100755Z AUTO 08006KT 10SM CLR 29/26 A2985 RMK A01

2010/08/10 07:56
KSHV 100756Z 11003KT 10SM SCT290 27/23 A2991 RMK AO2 SLP124 T02670233

2010/08/10 07:55
KSPR 100755Z AUTO 14004KT 10SM FEW018 30/26 A2989 RMK A01

2010/08/10 07:55
KSRR 100755Z AUTO 30003KT 10SM CLR 17/12 A3026 RMK AO2

2010/08/10 07:55
KVAF 100755Z AUTO 22010KT 10SM FEW019 FEW028 30/25 A2987 RMK A01

2010/08/10 07:55
KVBS 100755Z AUTO 26006KT 10SM FEW026 FEW030 31/26 A2989 RMK A01

2010/08/10 07:53
KVES 100753Z AUTO 00000KT 4SM BR CLR 21/21 A2998 RMK AO2 T02120208

2010/08/10 07:56
PAGN 100756Z AUTO 00000KT SCT004 OVC013 RMK AO2 PWINO TSNO SLPNO $

2010/08/10 07:56
PATQ 100756Z AUTO 07018KT 10SM OVC007 03/02 A2978 RMK AO2 TSNO T00270022 RAE00 P0000 SLP089 $

2010/08/10 07:56
KABQ 100756Z 00000KT 10SM FEW110 22/08 A3014 RMK AO2 SLP109 T02220083

2010/08/10 07:56
KJAX 100756Z 05005KT 10SM FEW022 25/23 A2994 RMK AO2 SLP140 T02500233

2010/08/10 07:55
K1A6 100755Z AUTO 00000KT 5SM BR SCT055 24/24 A3003 RMK AO2

2010/08/10 07:55
K1P1 100755Z AUTO 32003KT 5SM BR CLR 20/19 A2990 RMK AO2 T02010187

2010/08/10 07:55
K46D 100755Z AUTO 12005KT 10SM CLR 21/19 A2990 RMK AO2

2010/08/10 07:55
KAIG 100755Z AUTO 02004KT 7SM CLR 16/16 A3000 RMK AO2

2010/08/10 07:56
KAJO 100756Z AUTO 27005KT 10SM CLR 16/14 A2991 RMK AO2 T01610138 402720072 SLP123 $

2010/08/10 07:51
KARV 100751Z AUTO 00000KT 10SM CLR 18/17 A3002 RMK AO2 T01800165

2010/08/10 07:55
KBBF 100755Z AUTO 18011KT 10SM BKN021 BKN027 30/27 A2989 RMK A01

2010/08/10 07:55
KBBG 100755Z AUTO 00000KT 10SM FEW060 27/23 A2997 RMK AO2

2010/08/10 07:55
KBQX 100755Z AUTO 19007KT 10SM FEW023 30/27 A2990 RMK A01

2010/08/10 07:50
KBWP 100750Z AUTO 11004KT 10SM CLR 22/20 A2988 RMK AO1 T02150196

2010/08/10 08:00
FAVV 100800Z AUTO 10011KT //// // ////// 09/M05 Q1031

2010/08/10 08:00
FAJB 100800Z AUTO 10006G17KT //// // ////// 09/M04 Q1033

2010/08/10 08:00
FASI 100800Z AUTO 10013KT //// // ////// 10/M03 Q1033

2010/08/10 08:00
FAGC 100800Z AUTO 10016KT //// // ////// 09/M03 Q1032

2010/08/10 07:50
LGHI 100750Z 01010KT CAVOK 30/21 Q1007

2010/08/10 07:50
LGKC 100750Z 02007KT 330V060 CAVOK 29/22 Q1012

2010/08/10 07:50
LGKF 100750Z 00000KT 9999 FEW025 27/20 Q1010

2010/08/10 07:50
LGKP 100750Z 32027KT 9999 FEW010 30/21 Q1005

2010/08/10 07:50
LGKZ 100750Z 33014KT CAVOK 25/13 Q1016

2010/08/10 07:50
LGMK 100750Z 36017G27KT 9999 FEW010 28/23 Q1008

2010/08/10 07:50
LGNX 100750Z 36011KT 9999 FEW020 29/24 Q1008

2010/08/10 07:50
LGPA 100750Z 35017KT 9999 FEW025 30/23 Q1008

2010/08/10 07:50
LGSO 100750Z 35016KT 9999 FEW020 29/21 Q1008

2010/08/10 07:54
KROS 100754Z AUTO 00000KT 10SM CLR 20/19 A2995 RMK AO2 T01960190

2010/08/10 07:52
KHCD 100752Z AUTO 10003KT 10SM CLR 22/21 A2992 RMK AO2 T02210208

2010/08/10 07:53
KSGS 100753Z AUTO 00000KT 10SM CLR 24/22 A2993 RMK AO2 T02370216

2010/08/10 07:52
KMJQ 100752Z AUTO 11006KT 7SM CLR 23/22 A2991 RMK AO2

2010/08/10 07:54
KHCO 100754Z AUTO 18006KT 10SM CLR 22/22 A2991 RMK AO2

2010/08/10 07:54
KLVN 100754Z AUTO 00000KT M1/4SM FG OVC001 18/18 A2994 RMK AO2

2010/08/10 07:53
KPEX 100753Z AUTO 10003KT 10SM CLR 23/21 A2994 RMK AO2 T02270211

2010/08/10 07:55
KJMR 100755Z AUTO 00000KT 1/2SM FG VV005 18/18 A2997 RMK AO2

2010/08/10 07:54
KJKJ 100754Z AUTO 00000KT 10SM CLR 22/21 A2989 RMK AO2

2010/08/10 07:54
KMVE 100754Z AUTO 13004KT 7SM CLR 23/22 A2987 RMK AO2

2010/08/10 07:53
KTKC 100753Z AUTO 00000KT 10SM OVC040 23/22 A2990 RMK AO2 LTG DSNT SW T02320218

2010/08/10 07:54
KGYL 100754Z AUTO 00000KT 10SM CLR 22/20 A2992 RMK AO2 T02160200

2010/08/10 07:54
KDXX 100754Z AUTO 10003KT 7SM CLR 23/23 A2986 RMK AO2

2010/08/10 07:51
KHZX 100751Z AUTO 00000KT 10SM CLR 18/17 A2997 RMK AO2

2010/08/10 07:52
KCDD 100752Z AUTO 00000KT 5SM BR CLR 19/19 A2997 RMK AO2

2010/08/10 07:54
KSAZ 100754Z AUTO 00000KT 10SM CLR 20/20 A2995 RMK AO2

2010/08/10 07:51
KONA 100751Z AUTO 00000KT 1/4SM FG OVC001 23/22 A2993 RMK AO2

2010/08/10 07:53
KFOZ 100753Z AUTO 00000KT 4SM BR CLR 19/18 A2998 RMK AO2

2010/08/10 07:53
KAQP 100753Z AUTO 12006KT 10SM CLR 22/22 A2987 RMK AO2

2010/08/10 07:54
KETH 100754Z AUTO 12005KT 7SM CLR 19/18 A2991 RMK AO2

2010/08/10 07:54
KOVL 100754Z AUTO 09006KT 10SM CLR 22/20 A2989 RMK AO2 T02230201

2010/08/10 07:53
KLJF 100753Z AUTO 00000KT 10SM CLR 22/21 A2993 RMK AO2

2010/08/10 07:56
KXVG 100756Z AUTO 00000KT 3SM BR SCT001 17/17 A2994 RMK AO2

2010/08/10 07:54
KORB 100754Z AUTO 00000KT 10SM CLR 21/19 A2994 RMK AO2

2010/08/10 07:51
KMZH 100751Z AUTO 00000KT 1/2SM FG OVC001 18/17 A2995 RMK AO2

2010/08/10 07:53
KBFW 100753Z AUTO 00000KT 10SM CLR 17/16 A2996 RMK AO2

2010/08/10 07:49
KVWU 100749Z AUTO 00000KT 10SM CLR 19/18 A2994 RMK AO2

2010/08/10 07:50
KAEL 100750Z AUTO 11004KT 10SM BKN033 23/22 A2993 RMK AO2 LTG DSNT SE

2010/08/10 07:54
KOWA 100754Z AUTO 10003KT 7SM CLR 21/20 A2991 RMK AO2 LTG DSNT S

2010/08/10 07:53
K29G 100753Z AUTO 25003KT 10SM SCT042 OVC065 23/19 A2997 RMK AO2 T02340190 PWINO

2010/08/10 07:53
KMRT 100753Z AUTO 26005KT 7SM CLR 23/20 A3000 RMK AO2 T02250201

2010/08/10 07:54
KIKW 100754Z AUTO 00000KT 4SM BR CLR 21/20 A2995 RMK AO2 T02070195

2010/08/10 07:48
KNQX 100748Z AUTO 19008KT 10SM TS FEW014 SCT018 SCT026 27/23 A2984 RMK AO2 TSB42 $

2010/08/10 07:57
KSLK 100757Z AUTO 00000KT 1 3/4SM BR SCT005 BKN016 OVC022 19/19 A2996 RMK AO2

2010/08/10 07:57
KBBW 100757Z AUTO 35007KT VCTS 19/18 A2993 RMK AO2 LTG DSNT NW-E TSB49E50B51 P0033 $

2010/08/10 08:00
SBCT 100800Z 10002KT 7000 OVC007 08/07 Q1025

2010/08/10 08:00
RPLC 100800Z VRB08KT 9999 FEW025 OVC270 31/23 Q1008 A2977 RMK NOSIG 

2010/08/10 07:56
MMGL 100756Z 26003KT 10SM BKN020 BKN100 OVC300 20/17 A3012 RMK 8/477

2010/08/10 07:48
MMLO 100748Z 00000KT 8SM SCT030 BKN070 OVC200 16/16 A3020 RMK 63066 8/773

2010/08/10 07:49
MMPR 100749Z 04008KT 10SM SCT008 BKN020CB OVC070 28/25 A2986 RMK 8/97/ OCBL DROPS

2010/08/10 07:48
MMSP 100748Z 10008KT 8SM SCT010 OVC015 19/13 A3022 RMK 8/5//

2010/08/10 07:55
EHAM 100755Z 19012KT 160V220 9999 SCT011 BKN020 18/15 Q1012 NOSIG

2010/08/10 07:55
EHBK 100755Z AUTO 19005KT 160V270 9999NDV NCD 19/13 Q1015 NOSIG

2010/08/10 07:55
EHGG 100755Z AUTO 21011KT 170V240 9999NDV NSC 18/13 Q1012 NOSIG

2010/08/10 07:55
EHRD 100755Z 19009KT 9999 FEW011 SCT014 BKN018 18/15 Q1013 NOSIG

2010/08/10 08:00
GLRB 100800Z 00000KT 8000 -DZ FEW008 BKN013 25/24 Q1014

2010/08/10 07:57
CYFC 100757Z AUTO 00000KT 1/8SM FG VV002 17/17 A2980 RMK SLP093 DENSITY ALT 400FT RVR MISG

2010/08/10 07:50
EGYP 100750Z 27017KT 9999 FEW020 M00/M01 Q1005 BLU

2010/08/10 07:50
EGWU 100750Z 28008KT 9999 -RA FEW006 SCT022 BKN035 14/13 Q1011 RERA BECMG FEW015

2010/08/10 08:00
SBCF 100800Z 18006KT CAVOK 13/10 Q1021

2010/08/10 08:00
HKJK 100800Z 17003KT 9999 BKN020 BKN080 19/14 Q1025 NOSIG

2010/08/10 08:00
SBEG 100800Z 00000KT CAVOK 23/22 Q1012

2010/08/10 07:55
EHEH 100755Z AUTO 20006KT 9999NDV SCT240 SCT400 18/14 Q1014 BLU BLU NOSIG

2010/08/10 07:55
EHKD 100755Z AUTO 22015KT 9999NDV FEW013/// OVC016/// 18/15 Q1011 WHT WHT TEMPO GRN TEMPO SCT012 SCT015CB BKN020

2010/08/10 08:00
SBBE 100800Z 07005KT CAVOK 25/22 Q1012

2010/08/10 08:00
UBBN 100800Z 11010KT 9999 FEW100 34/07 Q1011 R14R/CLRD60 NOSIG RMK G/O QFE683

2010/08/10 08:00
SBRF 100800Z 16011KT 9999 SCT018 BKN070 25/19 Q1016

2010/08/10 07:50
EEKA 100750Z 20007KT 160V240 9999 BKN030 19/15 Q1013

2010/08/10 07:50
EEKE 100750Z 21012KT 9999 BKN019 19/18 Q1014

2010/08/10 07:50
EEPU 100750Z 22012KT 9999 BKN032 21/16 Q1014

2010/08/10 07:50
EETU 100750Z AUTO 22009KT 190V250 9999NDV FEW025/// 21/16 Q1015

2010/08/10 08:00
SBFI 100800Z 23002KT CAVOK 11/10 Q1019

2010/08/10 08:00
SBNT 100800Z 17005KT 9999 SCT010 SCT020 OVC070 22/22 Q1016

2010/08/10 07:50
LSME 100750Z AUTO VRB01KT 9999NDV FEW078 20/14 Q1018 RMK BLU

2010/08/10 07:56
KFLL 100756Z 15013G18KT 10SM -RA BKN022 BKN030 BKN040 27/24 A2988

2010/08/10 07:52
EGVA 100752Z AUTO 22008KT 9999 -DZ SCT065 13/12 A2982 RMK AO2 DZB0752 SLP099 $

2010/08/10 07:56
KGRR 100756Z AUTO 00000KT 3/4SM BR CLR 20/19 A2997

2010/08/10 07:52
KMLF 100752Z AUTO 20005KT 10SM CLR 15/M02 A3006 RMK AO2 SLP117 T01501017 TSNO 

2010/08/10 07:55
KGRK 100755Z 16008KT 7SM FEW060 29/23 A2992 RMK SLP106

2010/08/10 07:55
KNBG 100755Z AUTO 00000KT 4SM HZ CLR A2992 RMK AO2 SLP132 PWINO FZRANO $

2010/08/10 07:54
KNFG 100754Z 02003KT 6SM BR FEW015 11/09 A2992 RMK AO2 SLP129 T01060089 402330078

2010/08/10 07:55
KNKX 100755Z 00000KT 10SM BKN010 17/14 A2992 RMK AO2 SLP124 T01720139 402440111

2010/08/10 07:56
KNTU 100756Z 24004KT 9SM FEW200 23/22 A2997 RMK AO2 SLP151 T02330222 $

2010/08/10 07:56
KNUQ 100756Z AUTO 00000KT 10SM OVC008 15/12 A2992 RMK AO2 SLP133 T01500122 402280144 TSNO

2010/08/10 07:56
KNYG 100756Z AUTO 22007KT 8SM CLR 26/21 A2995 RMK AO2 SLP143 T02560206 $

2010/08/10 07:55
KNYL 100755Z AUTO 24006KT 10SM CLR 28/00 A2975 RMK AO2 SLP071 T02830000

2010/08/10 07:55
KPOE 100755Z AUTO 00000KT 10SM CLR 26/24 A2992 RMK AO2 SLP131 T02560239

2010/08/10 07:56
KSGH 100756Z AUTO 00000KT 5SM BR FEW049 23/23 A2999 RMK AO2 T02330227 SLP146 $

2010/08/10 07:55
KVBG 100755Z AUTO 00000KT 10SM OVC003 12/12 A2993 RMK AO2 SLP127 T01220117 TSNO CHINO RWY12 $

2010/08/10 07:56
KVPS 100756Z 01007KT 10SM SKC 26/24 A2990 RMK AO2A SLP127 T02600236 $

2010/08/10 07:56
KWJF 100756Z 28009KT 10SM CLR 22/M07 A2991 RMK AO2 SLP107 T02171067 403390117

2010/08/10 08:00
ORSU 100800Z 03005KT CAVOK 40/04 Q1010

2010/08/10 07:56
PASY 100756Z AUTO 29011KT 1/2SM FG VV001 09/09 A2988 RMK AO2 SLP118 T00890089 TSNO PNO $

2010/08/10 07:56
TJSJ 100756Z 10004KT 10SM SCT070 26/24 A2992 RMK AO2 SLP132 OCNL LTGIC DSNT N-SW CB DSNT N-SW T02610244 $

2010/08/10 07:54
KAPN 100754Z AUTO 27003KT 7SM CLR 19/18 A2996 RMK AO2 SLP144 T01890183 $ 

2010/08/10 07:56
KMHS 100756Z AUTO 00000KT 10SM CLR 13/09 A2997 RMK AO2 SLP137 T01330094 402940100 TSNO 

2010/08/10 07:56
KFLL 100756Z 15013G18KT 10SM -RA BKN022 BKN030 BKN040 27/24 A2988

2010/08/10 07:56
KFLG 100756Z AUTO 00000KT 10SM FEW080 10/08 A3028 RMK AO2 SLP162 T01000078 TSNO 

2010/08/10 07:50
VEPT 100750Z 09003KT 2500 HZ SCT018 SCT025 FEW030CB BKN100 33/27 Q1001 NOSIG

2010/08/10 07:50
VGEG 100750Z 22002KT 4000 TSRA SCT009 FEW028CB BKN090 29/27 Q1001 TEMPO POOR/VISI

2010/08/10 07:50
VGZR 100750Z 24005KT 5000 HZ SCT012 BKN100 34/26 Q1000 NOSIG

2010/08/10 07:50
VNKT 100750Z 00000KT 9999 FEW020 SCT025TCU 29/XX Q1011 NOSIG

2010/08/10 07:56
KGRR 100756Z AUTO 00000KT 3/4SM BR CLR 20/19 A2997

2010/08/10 07:50
BGBW 100750Z AUTO 07004KT 4100NDV BR FEW001/// BKN003/// BKN005/// 08/08 Q1009

2010/08/10 07:50
BGCO 100750Z 17002KT 9999 FEW180 06/01 Q1013

2010/08/10 07:50
BGGH 100750Z 21007KT 0200 RA FG VV002 09/08 Q1007

2010/08/10 07:50
BGJN 100750Z AUTO 36003KT 9999NDV SCT019/// OVC025/// 07/04 Q1008

2010/08/10 07:50
BGKK 100750Z 08019KT 9999 DZ VCFG FEW010 SCT035 BKN060 07/05 Q1012

2010/08/10 07:55
BGTL 100755Z AUTO 06005KT 9999 CLR 03/02 A2980 RMK AO2 SLP097 T00270024

2010/08/10 07:56
KGRR 100756Z AUTO 00000KT 3/4SM BR CLR 20/19 A2997

2010/08/10 07:58
CWOB 100758Z AUTO ///// 1/8SM CLR 03/ A2978

2010/08/10 07:57
CYEK 100757Z AUTO 27005KT 2SM CLR 08/08 A3008 RMK VSBY VRBL 0.4V9.+

2010/08/10 07:57
KNJM 100757Z AUTO 23004KT 10SM BKN017 27/25 A3001 RMK AO2 SLP167 T02720250 

2010/08/10 07:55
EHAK 100755Z AUTO 17022KT 9999NDV FEW005/// SCT016/// BKN019/// 17/16 Q1007

2010/08/10 07:55
EHDV 100755Z AUTO 18016KT 9999NDV DZRA FEW009/// BKN010/// OVC012/// 17/15 Q1008

2010/08/10 07:55
EHFD 100755Z AUTO 18022KT 9999NDV BKN006/// OVC007/// 17/16 Q1010

2010/08/10 07:55
EHFZ 100755Z AUTO 20022KT 9999NDV ///////// 17/16 Q1009

2010/08/10 07:55
EHJA 100755Z AUTO 18017KT 9999NDV FEW011/// BKN019/// OVC022/// 17/15 Q1008

2010/08/10 07:55
EHKV 100755Z AUTO 19021KT 9999NDV FEW005/// SCT015/// OVC018/// 17/15 Q1009

2010/08/10 07:55
EHMG 100755Z AUTO 22022KT 9999NDV FEW011/// SCT015/// 18/15 Q1010

2010/08/10 07:55
EHPG 100755Z AUTO 21024KT 180V240 9999NDV FEW010/// BKN019/// 18/15 Q1010

2010/08/10 07:55
EHQE 100755Z AUTO 23019KT 9999NDV ///////// 17/15 Q1011

2010/08/10 07:50
EGWU 100750Z 28008KT 9999 -RA FEW006 SCT022 BKN035 14/13 Q1011 RERA BECMG FEW015

2010/08/10 07:58
HLLB 100758Z 30015KT 9999 BKN020 28/19 Q1013

2010/08/10 08:00
UBBN 100800Z 11010KT 9999 FEW100 34/07 Q1011 R14R/CLRD60 NOSIG RMK G/O QFE683

2010/08/10 07:50
EGPA 100750Z 25007KT 9999 FEW012 SCT020 15/12 Q1004

2010/08/10 07:50
EGPC 100750Z VRB02KT 9999 FEW025 13/12 Q1004

2010/08/10 07:50
EGPL 100750Z 03008KT 9999 FEW011 14/12 Q1004

2010/08/10 07:50
EGPM 100750Z 11014KT 6000 SCT004 BKN006 14/14 Q1004

2010/08/10 07:50
EGPO 100750Z 34004KT 290V360 9999 FEW012 14/11 Q1004

2010/08/10 08:00
FNLU 100800Z 10006KT 8000 SCT014 BKN023 22/19 Q1017 NSG

2010/08/10 07:50
EGAE 100750Z 24011KT 9999 -RA FEW009 SCT014 BKN027 12/11 Q1004

2010/08/10 07:50
EGNC 100750Z 18008KT 9999 FEW025 14/12 Q1005

2010/08/10 07:50
EGNH 100750Z 22013KT 9999 FEW016 SCT032 15/11 Q1007

2010/08/10 07:50
EGNJ 100750Z 23008KT 9999 FEW006 SCT010 16/14 Q1008

2010/08/10 07:50
EGNR 100750Z 24011KT 9999 FEW015 SCT048 16/10 Q1008

2010/08/10 07:50
EGPE 100750Z 00000KT 9999 FEW015 FEW020TCU 13/11 Q1004

2010/08/10 07:50
EGPI 100750Z 26009KT 9999 FEW015 SCT023 13/10 Q1002

2010/08/10 08:00
OPPS 100800Z NE-08 4000 HZ SCT030 SCT100 33/26 Q1003.5

2010/08/10 07:55
EHEH 100755Z AUTO 20006KT 9999NDV SCT240 SCT400 18/14 Q1014 BLU BLU NOSIG

2010/08/10 07:55
EHKD 100755Z AUTO 22015KT 9999NDV FEW013/// OVC016/// 18/15 Q1011 WHT WHT TEMPO GRN TEMPO SCT012 SCT015CB BKN020

2010/08/10 08:00
UBBL 100800Z 14007KT 9999 SCT100 34/19 Q1011 NOSIG RMK G/O SC07

2010/08/10 08:00
SBFI 100800Z 23002KT CAVOK 11/10 Q1019

2010/08/10 08:00
YWGT 100800Z AUTO 32016G27KT //// // ////// 09/09 Q1009

2010/08/10 07:53
KLOR 100753Z AUTO 05003KT 9SM CLR 24/21 A2993 RMK AO2 SLP132 T02440211 TSNO PNO $ 

2010/08/10 07:56
KSMP 100756Z AUTO VRB06KT 1/4SM FG BKN001 OVC026 08/08 A2997 RMK AO2 SLP146 T00830083 401000083 TSNO $ 

2010/08/10 08:00
OYMB 100800Z 23012KT 9999 FEW030 37/12 Q1006

2010/08/10 07:57
CZUM 100757Z AUTO 28004KT 9SM BKN014 BKN054 BKN074 09/09 A2966

2010/08/10 07:51
KP58 100751Z AUTO 25005KT 22/21 A2993 RMK AO2 SLP128 T02170211 PWINO TSNO 

2010/08/10 07:50
K3A6 100750Z AUTO 36002KT 14/09 A2989 RMK AO1 SLP136 T01420094 

2010/08/10 07:54
KWAL 100754Z AUTO 24005KT 10SM CLR 24/22 A2996 RMK AO2 SLP143 T02390217 TSNO 

2010/08/10 07:55
PACZ 100755Z AUTO 20009KT 10SM BKN008 OVC012 09/08 A2930 RMK AO1 T00940084

2010/08/10 07:55
PALU 100755Z AUTO 07020KT 7SM 08/08 A2960 RMK AO1 T00830078

2010/08/10 07:55
PATC 100755Z AUTO 02007KT 10SM SCT028 BKN041 11/10 A2944 RMK AO1 T01060101

2010/08/10 07:55
PAIM 100755Z AUTO 00000KT 10SM OVC055 12/12 A2962 RMK AO1 T01170117

2010/08/10 07:55
PATL 100755Z AUTO 12005KT 10SM OVC019 11/09 A2960 RMK AO1 T01110095

2010/08/10 07:55
PASV 100755Z AUTO 00000KT 7SM BKN020 OVC025 09/08 A2964 RMK AO1 T00940084

2010/08/10 07:55
KGTB 100755Z AUTO 22005KT 10SM FEW008 BKN015 21/20 A2993 RMK AO2 CIG 009 RWY03 SLP135 T02100202

2010/08/10 07:53
KNQX 100753Z AUTO 19008KT 10SM -TSRA FEW014 SCT026 27/24 A2983 RMK AO2 TSB42RAB50 SLP101 P0001 T02720244 $

2010/08/10 07:52
KNRB 100752Z AUTO 14010KT 10SM CLR 28/22 A2995 RMK AO2 SLP140 T02830222

2010/08/10 07:55
KPAM 100755Z AUTO 10003KT 10SM CLR 27/24 A2990 RMK AO2 SLP125 T02680242 $

2010/08/10 07:55
KSSC 100755Z 00000KT 10SM CLR 24/23 A3000 RMK AO2A SLP157 T02430231 $

2010/08/10 07:55
KTTS 100755Z 12007KT 10SM FEW065 26/24 A2993 RMK SLP135 1SC /0/

2010/08/10 07:55
KVAD 100755Z AUTO 07003KT 10SM CLR 25/24 A2995 RMK AO2 SLP140 T02460239 $

2010/08/10 07:57
PAGH 100757Z AUTO 11010G15KT 10SM -RA BKN017 OVC022 13/12 A2958 RMK AO2 SLP044 P0004 T01330122

2010/08/10 07:56
PAMB 100756Z AUTO 20007KT 2SM BR OVC003 09/09 A2957 RMK AO2 PWINO TSNO T00940094 SLP017 $

2010/08/10 07:56
PAOH 100756Z AUTO 00000KT 8SM FEW024 BKN030 OVC035 13/13 A3001 RMK AO2 TSNO T01270127 401550116 SLP162 $

2010/08/10 07:57
PAVA 100757Z AUTO 17006KT 10SM OVC013 10/10 A2936 RMK AO2 RAE31 SLP945 P0000 T01000100

2010/08/10 07:56
PPIZ 100756Z AUTO 05020G27KT 10SM SCT013 06/03 A2967 RMK AO2 TSNO T00550027 PK WND 06030/0712 SLP050 $

2010/08/10 08:00
SBMO 100800Z 12004KT 5000 BR FEW009 BKN020 20/19 Q1016 

2010/08/10 07:50
EGAE 100750Z 24011KT 9999 -RA FEW009 SCT014 BKN027 12/11 Q1004

2010/08/10 07:50
EGNC 100750Z 18008KT 9999 FEW025 14/12 Q1005

2010/08/10 07:50
EGNH 100750Z 22013KT 9999 FEW016 SCT032 15/11 Q1007

2010/08/10 07:50
EGNJ 100750Z 23008KT 9999 FEW006 SCT010 16/14 Q1008

2010/08/10 07:50
EGNR 100750Z 24011KT 9999 FEW015 SCT048 16/10 Q1008

2010/08/10 07:50
EGPE 100750Z 00000KT 9999 FEW015 FEW020TCU 13/11 Q1004

2010/08/10 07:50
EGPI 100750Z 26009KT 9999 FEW015 SCT023 13/10 Q1002

2010/08/10 07:50
EGPA 100750Z 25007KT 9999 FEW012 SCT020 15/12 Q1004

2010/08/10 07:50
EGPC 100750Z VRB02KT 9999 FEW025 13/12 Q1004

2010/08/10 07:50
EGPL 100750Z 03008KT 9999 FEW011 14/12 Q1004

2010/08/10 07:50
EGPM 100750Z 11014KT 6000 SCT004 BKN006 14/14 Q1004

2010/08/10 07:50
EGPO 100750Z 34004KT 290V360 9999 FEW012 14/11 Q1004

2010/08/10 08:00
UBBL 100800Z 14007KT 9999 SCT100 34/19 Q1011 NOSIG RMK G/O SC07

2010/08/10 07:56
KNGP 100756Z AUTO 10SM CLR 28/27 A2989 RMK AO2 SLP121 T02830267 $

2010/08/10 07:56
KAQV 100756Z AUTO 00000KT 10SM CLR 26/24 A2992 RMK AO2 SLP125 T02560239

2010/08/10 07:56
KNXP 100756Z AUTO 00000KT CLR 24/M01 A2993 RMK AO2 SLP095 T02391006 403720189 $

2010/08/10 07:56
KGFA 100756Z AUTO 20011KT 10SM CLR 17/09 A2984 RMK AO2 SLP102 T01670094

2010/08/10 07:56
KALK 100756Z AUTO 23003KT 10SM CLR 19/14 A3013 RMK AO2 SLP108 T01940144 $

2010/08/10 07:56
KFSD 100756Z 11007KT 10SM FEW025 BKN038 25/23 A2986 RMK AO2 SLP099 T02500233 $

2010/08/10 07:56
KSPD 100756Z AUTO 30004KT 21/16 A3006 RMK AO2 SLP104 T02060161 PWINO TSNO

2010/08/10 07:56
KD07 100756Z AUTO 17009KT 21/16 A2985 RMK AO2 SLP088 T02060156 PWINO TSNO

2010/08/10 07:56
K2WX 100756Z AUTO 00000KT 21/12 A2978 RMK AO1 SLP053 T02110117

2010/08/10 07:56
KINS 100756Z 00000KT 10SM CLR 21/M07 A2992 RMK AO2 SLP079 T02061067

2010/08/10 07:56
KGNA 100756Z AUTO 00000KT 14/13 A2995 RMK AO2 SLP137 T01390128 PWINO TSNO

2010/08/10 07:56
KNBT 100756Z AUTO 22004KT 7SM CLR 27/24 A3000 RMK AO2 SLP165 T02670244 TSNO

2010/08/10 07:56
K9L2 100756Z AUTO 25006KT 10SM CLR 22/03 A2989 RMK AO2 SLP099 T02220033 $

2010/08/10 07:56
KSXT 100756Z AUTO 35010KT 8SM CLR 11/09 A3000 RMK AO2 SLP124 T01060089 402170106 TSNO

2010/08/10 07:55
KLDM 100755Z AUTO 00000KT 1/4SM FG OVC001 21/20 A2996 RMK AO2

2010/08/10 07:55
KPHN 100755Z AUTO 00000KT 1/4SM FG OVC001 17/17 A2995 RMK AO2

2010/08/10 07:55
KRMY 100755Z AUTO 00000KT M1/4SM FG BKN001 OVC009 20/19 A2997 RMK AO2

2010/08/10 07:56
KOSC 100756Z AUTO 32004KT 1 1/2SM BR OVC001 21/19 A2996 RMK AO2

2010/08/10 07:53
KTTF 100753Z AUTO 00000KT 1/4SM FG OVC001 21/21 A2994 RMK AO2

2010/08/10 07:55
KMCD 100755Z AUTO 00000KT 1/4SM HZ OVC002 21/18 A2998 RMK AO2

2010/08/10 07:56
KLWS 100756Z AUTO 15004KT 10SM CLR 19/04 A2979 RMK AO2 SLP078 T01890039 403170156

2010/08/10 07:56
K8D3 100756Z AUTO 00000KT 21/21 A2986 RMK AO2 SLP090 T02110206 PWINO TSNO

2010/08/10 07:55
KCAO 100755Z AUTO 25012KT 10SM CLR 22/16 A3008 RMK AO2 SLP100 T02220156 TSNO

2010/08/10 07:56
KFPK 100756Z AUTO 00000KT 1/4SM FG VV002 18/18 A2996 RMK AO2

2010/08/10 07:55
KCVX 100755Z AUTO 26003KT 4SM BR BKN007 22/21 A2998 RMK AO2

2010/08/10 07:55
KMOP 100755Z AUTO 00000KT 4SM BR CLR 21/21 A2996 RMK AO2

2010/08/10 07:54
KFKS 100754Z AUTO 00000KT 7SM SCT001 SCT010 20/18 A2995 RMK AO2

2010/08/10 07:54
KCAD 100754Z AUTO 00000KT 1SM BR VV007 18/17 A2999 RMK AO2

2010/08/10 07:55
KMGN 100755Z AUTO 00000KT 5SM BR BKN009 23/21 A2997 RMK AO2

2010/08/10 07:55
KSLH 100755Z AUTO 23003KT 1/4SM FG OVC001 21/20 A2996 RMK AO2

2010/08/10 07:55
KSJX 100755Z AUTO 00000KT 1 3/4SM BR OVC002 22/21 A2997 RMK AO2

2010/08/10 07:55
KHAI 100755Z AUTO 00000KT 3/4SM BR VV005 20/20 A2997 RMK AO2 VIS 1/4V5

2010/08/10 07:56
KLWA 100756Z AUTO 00000KT 4SM BR CLR 20/19 A2996 RMK AO2

2010/08/10 07:57
KDRM 100757Z AUTO 00000KT 3/4SM BR BKN001 BKN008 17/17 A2995 RMK AO2

2010/08/10 07:54
KVLL 100754Z AUTO 00000KT 5SM BR CLR 22/20 A2998 RMK AO2

2010/08/10 07:55
KGOV 100755Z AUTO 00000KT 3/4SM BR OVC001 20/20 A3000 RMK AO2

2010/08/10 07:54
KPZQ 100754Z AUTO 26004KT 5SM BR SCT001 SCT017 19/18 A2997 RMK AO2

2010/08/10 07:55
KCFS 100755Z AUTO 29003KT 4SM BR CLR 21/20 A2995 RMK AO2

2010/08/10 07:55
KHYX 100755Z AUTO 32003KT 7SM CLR 21/20 A2995 RMK AO2

2010/08/10 07:55
KOZW 100755Z AUTO 00000KT 3/4SM BR VV005 20/20 A2996 RMK AO2 VIS 1/4V2

2010/08/10 07:55
KRNP 100755Z AUTO 00000KT 1/4SM FG VV002 19/19 A2996 RMK AO2

2010/08/10 07:54
KDUH 100754Z AUTO 00000KT 1/4SM FG VV002 21/19 A2996 RMK AO2

2010/08/10 07:55
KISQ 100755Z AUTO 00000KT 1/2SM FG VV005 19/18 A2997 RMK AO2

2010/08/10 07:55
KJYM 100755Z AUTO 00000KT M1/4SM FG OVC001 19/18 A2999 RMK AO2

2010/08/10 08:05
KBAX 100805Z AUTO 00000KT 2 1/2SM BR OVC004 21/21 A2995 RMK AO2

2010/08/10 07:54
KHCO 100754Z AUTO 18006KT 10SM CLR 22/22 A2991 RMK AO2

2010/08/10 07:54
KLVN 100754Z AUTO 00000KT M1/4SM FG OVC001 18/18 A2994 RMK AO2

2010/08/10 07:53
KPEX 100753Z AUTO 10003KT 10SM CLR 23/21 A2994 RMK AO2 T02270211

2010/08/10 07:55
KJMR 100755Z AUTO 00000KT 1/2SM FG VV005 18/18 A2997 RMK AO2

2010/08/10 07:54
KJKJ 100754Z AUTO 00000KT 10SM CLR 22/21 A2989 RMK AO2

2010/08/10 07:54
KMVE 100754Z AUTO 13004KT 7SM CLR 23/22 A2987 RMK AO2

2010/08/10 07:53
KTKC 100753Z AUTO 00000KT 10SM OVC040 23/22 A2990 RMK AO2 LTG DSNT SW T02320218

2010/08/10 07:54
KGYL 100754Z AUTO 00000KT 10SM CLR 22/20 A2992 RMK AO2 T02160200

2010/08/10 07:54
KDXX 100754Z AUTO 10003KT 7SM CLR 23/23 A2986 RMK AO2

2010/08/10 07:51
KHZX 100751Z AUTO 00000KT 10SM CLR 18/17 A2997 RMK AO2

2010/08/10 07:52
KCDD 100752Z AUTO 00000KT 5SM BR CLR 19/19 A2997 RMK AO2

2010/08/10 07:54
KSAZ 100754Z AUTO 00000KT 10SM CLR 20/20 A2995 RMK AO2

2010/08/10 07:51
KONA 100751Z AUTO 00000KT 1/4SM FG OVC001 23/22 A2993 RMK AO2

2010/08/10 07:53
KFOZ 100753Z AUTO 00000KT 4SM BR CLR 19/18 A2998 RMK AO2

2010/08/10 07:53
KAQP 100753Z AUTO 12006KT 10SM CLR 22/22 A2987 RMK AO2

2010/08/10 07:54
KETH 100754Z AUTO 12005KT 7SM CLR 19/18 A2991 RMK AO2

2010/08/10 07:54
KOVL 100754Z AUTO 09006KT 10SM CLR 22/20 A2989 RMK AO2 T02230201

2010/08/10 07:53
KLJF 100753Z AUTO 00000KT 10SM CLR 22/21 A2993 RMK AO2

2010/08/10 07:56
KXVG 100756Z AUTO 00000KT 3SM BR SCT001 17/17 A2994 RMK AO2

2010/08/10 07:54
KORB 100754Z AUTO 00000KT 10SM CLR 21/19 A2994 RMK AO2

2010/08/10 07:51
KMZH 100751Z AUTO 00000KT 1/2SM FG OVC001 18/17 A2995 RMK AO2

2010/08/10 07:53
KBFW 100753Z AUTO 00000KT 10SM CLR 17/16 A2996 RMK AO2

2010/08/10 07:49
KVWU 100749Z AUTO 00000KT 10SM CLR 19/18 A2994 RMK AO2

2010/08/10 07:50
KAEL 100750Z AUTO 11004KT 10SM BKN033 23/22 A2993 RMK AO2 LTG DSNT SE

2010/08/10 07:54
KOWA 100754Z AUTO 10003KT 7SM CLR 21/20 A2991 RMK AO2 LTG DSNT S

2010/08/10 07:53
K29G 100753Z AUTO 25003KT 10SM SCT042 OVC065 23/19 A2997 RMK AO2 T02340190 PWINO

2010/08/10 07:53
KMRT 100753Z AUTO 26005KT 7SM CLR 23/20 A3000 RMK AO2 T02250201

2010/08/10 07:54
KIKW 100754Z AUTO 00000KT 4SM BR CLR 21/20 A2995 RMK AO2 T02070195

2010/08/10 07:56
KP53 100756Z AUTO 18004KT 18/17 A2996 RMK AO2 SLP145 T01780172 PWINO TSNO

2010/08/10 07:56
KWMC 100756Z AUTO 01004KT 10SM CLR 16/M01 A2995 RMK AO2 SLP092 T01611006 403280100

2010/08/10 07:56
KMHS 100756Z AUTO 00000KT 10SM CLR 13/09 A2997 RMK AO2 SLP137 T01330094 402940100 TSNO

2010/08/10 07:56
KFLG 100756Z AUTO 00000KT 10SM FEW080 10/08 A3028 RMK AO2 SLP162 T01000078 TSNO

2010/08/10 07:56
KNRS 100756Z AUTO 00000KT 10SM OVC015 16/14 A2992 RMK AO2 SLP130 T01560144 402110106 TSNO

2010/08/10 07:50
K3A6 100750Z AUTO 36002KT 14/09 A2989 RMK AO1 SLP136 T01420094

2010/08/10 07:55
PACZ 100755Z AUTO 20009KT 10SM BKN008 OVC012 09/08 A2930 RMK AO1 T00940084

2010/08/10 07:55
PALU 100755Z AUTO 07020KT 7SM 08/08 A2960 RMK AO1 T00830078

2010/08/10 07:55
PATC 100755Z AUTO 02007KT 10SM SCT028 BKN041 11/10 A2944 RMK AO1 T01060101

2010/08/10 07:55
PAIM 100755Z AUTO 00000KT 10SM OVC055 12/12 A2962 RMK AO1 T01170117

2010/08/10 07:55
PATL 100755Z AUTO 12005KT 10SM OVC019 11/09 A2960 RMK AO1 T01110095

2010/08/10 07:55
PASV 100755Z AUTO 00000KT 7SM BKN020 OVC025 09/08 A2964 RMK AO1 T00940084

2010/08/10 08:00
TFFR 100800Z VRB01KT 9999 SCT020 SCT050 25/24 Q1013 TEMPO 4000 SHRA

2010/08/10 07:55
OPLA 100755Z 15015KT 2500 TSRA FEW030CB SCT040 OVC100 28/27 Q1003 NOSIG

2010/08/10 08:00
OPPS 100800Z NE-08 4000 HZ SCT030 SCT100 33/26 Q1003.5

2010/08/10 08:00
OPRN 100800Z 23010KT 6000 HZ FEW025TCU SCT030 33/25 1005.0

2010/08/10 07:55
OPSK 100755Z 05004KT 5000 HZ SCT040 35/28 QNH 1001 R.H.68PC

2010/08/10 07:50
EGDL 100750Z 18007KT 9999 -RA FEW005 BKN050 OVC080 12/12 Q1010 RERA TEMPO SCT022

2010/08/10 07:50
EGWU 100750Z 28008KT 9999 -RA FEW006 SCT022 BKN035 14/13 Q1011 RERA BECMG FEW015

2010/08/10 08:00
SBCG 100800Z 15007KT CAVOK 15/11 Q1018

2010/08/10 07:55
KIRS 100755Z AUTO 00000KT 4SM BR CLR 21/19 A2997 RMK AO2

2010/08/10 07:54
KAMN 100754Z AUTO 00000KT 1/4SM FG OVC001 18/18 A2995 RMK AO2

2010/08/10 07:55
KACB 100755Z AUTO 00000KT 1/2SM FG OVC001 22/22 A2997 RMK AO2

2010/08/10 07:55
KRQB 100755Z AUTO 00000KT M1/4SM FG OVC001 19/19 A2998 RMK AO2

2010/08/10 07:55
KERY 100755Z AUTO 00000KT M1/4SM FG OVC002 18/18 A2999 RMK AO2

2010/08/10 07:55
KOEB 100755Z AUTO 00000KT 1 1/4SM BR BKN001 21/19 A2998 RMK AO2

2010/08/10 07:56
K4I3 100756Z AUTO 26003KT 7SM SCT085 23/20 A2998 RMK AO2

2010/08/10 07:55
KAUM 100755Z AUTO 14003KT 10SM CLR 22/22 A2994 RMK AO2

2010/08/10 07:55
KFFX 100755Z AUTO 00000KT 1/4SM FG OVC002 20/20 A2997 RMK AO2

2010/08/10 07:54
KCNB 100754Z AUTO 06003KT 1/2SM FG BKN002 OVC036 22/21 A2988 RMK AO2 T02180213

2010/08/10 07:55
KCKN 100755Z AUTO 16005KT 10SM CLR 20/19 A2991 RMK AO2

2010/08/10 08:03
KCFE 100803Z AUTO 00000KT 10SM CLR 21/20 A2994 RMK AO2 T02110199

2010/08/10 07:57
KCQM 100757Z AUTO 00000KT 10SM CLR 18/17 A2997 RMK AO2

2010/08/10 07:55
KDTL 100755Z AUTO 14004KT 10SM CLR 22/18 A2995 RMK AO2

2010/08/10 07:55
KBDH 100755Z AUTO 12005KT 7SM CLR 23/22 A2992 RMK AO2

2010/08/10 07:55
KCBG 100755Z AUTO 00000KT 10SM CLR 19/17 A2994 RMK AO2

2010/08/10 07:57
KADC 100757Z AUTO 00000KT 10SM CLR 17/17 A2995 RMK AO2

2010/08/10 07:55
KHAF 100755Z AUTO 00000KT 4SM BR OVC003 11/11 A2994 RMK AO2

2010/08/10 07:55
KCKC 100755Z AUTO 00000KT 10SM CLR 16/13 A3002 RMK AO2

2010/08/10 07:55
KJYG 100755Z AUTO 09004KT 10SM CLR 24/24 A2991 RMK AO2

2010/08/10 07:56
KCOQ 100756Z AUTO 00000KT 7SM CLR 19/17 A2997 RMK AO2

2010/08/10 07:58
KACQ 100758Z AUTO 10005KT 7SM CLR 22/21 A2994 RMK AO2

2010/08/10 07:55
KRGK 100755Z AUTO 00000KT 4SM BR CLR 21/20 A2993 RMK AO2

2010/08/10 07:54
KFSE 100754Z AUTO 15003KT 10SM CLR 19/17 A2993 RMK AO2

2010/08/10 07:55
KY70 100755Z AUTO 33003KT 1 1/2SM BR VV007 21/20 A2996 RMK AO2 T02060199

2010/08/10 07:50
KUKT 100750Z AUTO 00000KT 10SM CLR 24/20 A2995 RMK AO1

2010/08/10 07:54
KCDA 100754Z AUTO 00000KT M1/4SM FG OVC002 16/15 A2996 RMK AO2

2010/08/10 07:54
KONZ 100754Z AUTO 00000KT 1/4SM FG OVC001 22/21 A2994 RMK AO2

2010/08/10 07:53
KTEW 100753Z AUTO 00000KT 1 1/2SM BR BKN001 18/18 A2997 RMK AO2

2010/08/10 07:50
KCVH 100750Z AUTO 00000KT 10SM OVC005 13/12 A2993 RMK AO1

2010/08/10 07:56
KDVP 100756Z AUTO 10006KT 5SM BR BKN008 23/22 A2991 RMK AO2 T02310220

2010/08/10 07:54
KDYT 100754Z AUTO 00000KT 10SM CLR 23/21 A2994 RMK AO2

2010/08/10 07:59
KFSO 100759Z AUTO 15003KT 5SM BR SCT014 17/17 A2991 RMK AO2

2010/08/10 07:54
KFBL 100754Z AUTO 00000KT 2 1/2SM BR CLR 19/18 A2994 RMK AO2 LTG DSNT S

2010/08/10 07:58
KLYV 100758Z AUTO 12004KT 7SM BKN040 24/22 A2987 RMK AO2 LTG DSNT W

2010/08/10 07:55
KEFK 100755Z AUTO 22003KT 1/4SM FG OVC001 14/13 A2995 RMK AO2

2010/08/10 07:54
KRRT 100754Z AUTO 21005KT 10SM CLR 23/21 A2991 RMK AO2 TSNO

2010/08/10 07:55
KTOB 100755Z AUTO 13004KT 1/2SM FG VV005 22/21 A2995 RMK AO2

2010/08/10 07:54
KLXL 100754Z AUTO 00000KT 5SM BR CLR 18/17 A2993 RMK AO2

2010/08/10 07:52
KEVM 100752Z AUTO 00000KT 1/4SM FG OVC001 17/16 A2996 RMK AO1

2010/08/10 07:53
KELO 100753Z AUTO 00000KT 10SM CLR 18/17 A2997 RMK AO2

2010/08/10 07:55
KANE 100755Z AUTO 00000KT 10SM CLR 22/21 A2994 RMK AO2

2010/08/10 07:55
KROX 100755Z AUTO 20007KT 10SM CLR 22/21 A2991 RMK AO2

2010/08/10 07:55
KSYN 100755Z AUTO 00000KT 3SM BR 20/19 A2993 RMK AO2 SKY OBSCURED T02020192

2010/08/10 07:56
KVVV 100756Z AUTO 12006KT 10SM CLR 24/22 A2986 RMK AO2

2010/08/10 08:01
KFKA 100801Z AUTO 00000KT 10SM CLR 24/23 A2996 RMK AO2 LTG DSNT SW T02360230

2010/08/10 07:54
KROS 100754Z AUTO 00000KT 10SM CLR 20/19 A2995 RMK AO2 T01960190

2010/08/10 07:52
KHCD 100752Z AUTO 10003KT 10SM CLR 22/21 A2992 RMK AO2 T02210208

2010/08/10 07:53
KSGS 100753Z AUTO 00000KT 10SM CLR 24/22 A2993 RMK AO2 T02370216

2010/08/10 07:52
KMJQ 100752Z AUTO 11006KT 7SM CLR 23/22 A2991 RMK AO2

2010/08/10 08:00
SUMU 100800Z 00000KT 0800 R19/0400 R24/1800 FG VV/// 01/01 Q1027 TEMPO 1200

2010/08/10 08:00
SULS 100800Z 00000KT 2000 BR NSC 03/03 Q1027

2010/08/10 07:54
KSBN 100754Z 04004KT 5SM BR CLR 21/20 A2996 RMK AO2 SLP141 T02110200

2010/08/10 07:54
KWAL 100754Z AUTO 24005KT 10SM CLR 24/22 A2996 RMK AO2 SLP143 T02390217 TSNO

2010/08/10 07:53
KUIL 100753Z AUTO 00000KT 2 1/2SM BR OVC007 12/11 A2997 RMK AO2 CIG 005V011 SLP150 T01220111 401560117 TSNO

2010/08/10 07:52
KMLF 100752Z AUTO 20005KT 10SM CLR 15/M02 A3006 RMK AO2 SLP117 T01501017 TSNO

2010/08/10 07:54
KAPN 100754Z AUTO 27003KT 7SM CLR 19/18 A2996 RMK AO2 SLP144 T01890183 $

2010/08/10 07:56
KSMP 100756Z AUTO VRB06KT 1/4SM FG BKN001 OVC026 08/08 A2997 RMK AO2 SLP146 T00830083 401000083 TSNO $

2010/08/10 07:53
KLOR 100753Z AUTO 05003KT 9SM CLR 24/21 A2993 RMK AO2 SLP132 T02440211 TSNO PNO $

2010/08/10 07:51
KP58 100751Z AUTO 25005KT 22/21 A2993 RMK AO2 SLP128 T02170211 PWINO TSNO

2010/08/10 07:54
KWAL 100754Z AUTO 24005KT 10SM CLR 24/22 A2996 RMK AO2 SLP143 T02390217 TSNO

2010/08/10 07:55
EHAK 100755Z AUTO 17022KT 9999NDV FEW005/// SCT016/// BKN019/// 17/16 Q1007

2010/08/10 07:55
EHDV 100755Z AUTO 18016KT 9999NDV DZRA FEW009/// BKN010/// OVC012/// 17/15 Q1008

2010/08/10 07:55
EHFD 100755Z AUTO 18022KT 9999NDV BKN006/// OVC007/// 17/16 Q1010

2010/08/10 07:55
EHFZ 100755Z AUTO 20022KT 9999NDV ///////// 17/16 Q1009

2010/08/10 07:55
EHJA 100755Z AUTO 18017KT 9999NDV FEW011/// BKN019/// OVC022/// 17/15 Q1008

2010/08/10 07:55
EHKV 100755Z AUTO 19021KT 9999NDV FEW005/// SCT015/// OVC018/// 17/15 Q1009

2010/08/10 07:55
EHMG 100755Z AUTO 22022KT 9999NDV FEW011/// SCT015/// 18/15 Q1010

2010/08/10 07:55
EHPG 100755Z AUTO 21024KT 180V240 9999NDV FEW010/// BKN019/// 18/15 Q1010

2010/08/10 07:55
EHQE 100755Z AUTO 23019KT 9999NDV ///////// 17/15 Q1011

2010/08/10 08:00
SBSP 100800Z 14003KT 5000 BR BKN006 13/12 Q1026

2010/08/10 08:00
SBSV 100800Z 28003KT 9999 SCT017 19/18 Q1018

2010/08/10 07:56
KNSE 100756Z AUTO 36003KT 5SM HZ CLR 26/23 A2992 RMK AO2 SLP115 T02560228 $

2010/08/10 07:56
KGFA 100756Z AUTO 20011KT 10SM CLR 17/09 A2984 RMK AO2 SLP102 T01670094

2010/08/10 07:57
K14Y 100757Z AUTO 00000KT 10SM CLR 20/20 A2995 RMK AO2 T02020195

2010/08/10 07:55
KATW 100755Z AUTO 00000KT 3SM BR CLR 22/21 A2996 RMK AO2

2010/08/10 07:55
KBUU 100755Z AUTO 00000KT 1 1/2SM BR BKN001 18/18 A2994 RMK AO2 VIS 3/4V4 T01820180

2010/08/10 07:54
KEZS 100754Z AUTO 04004KT 10SM CLR 22/20 A2996 RMK AO2 T02210198

2010/08/10 07:55
KHFJ 100755Z AUTO 00000KT 10SM CLR 26/22 A2993 RMK AO1

2010/08/10 07:56
KIWA 100756Z AUTO 23003KT 10SM CLR 32/11 A2985 RMK AO2

2010/08/10 07:55
KLCK 100755Z AUTO 00000KT 7SM OVC080 24/21 A2996 RMK AO2 T02350213

2010/08/10 07:56
KLRD 100756Z AUTO 16010KT 10SM CLR 29/25 A2994 RMK AO2 T02880250 SLP124

2010/08/10 07:55
KMWO 100755Z AUTO 00000KT 4SM BR CLR 23/22 A2998 RMK AO2

2010/08/10 07:55
KSME 100755Z AUTO 00000KT 3SM BR 23/23 A2999 RMK AO2

2010/08/10 07:53
KUNI 100753Z AUTO 00000KT 7SM SCT100 24/19 A2997 RMK AO2

2010/08/10 07:55
KY63 100755Z AUTO 14006KT 10SM CLR 24/21 A2990 RMK AO2 T02360211

2010/08/10 07:55
KTTS 100755Z 12007KT 10SM FEW065 26/24 A2993 RMK SLP135 1SC /0/

2010/08/10 07:56
KSGH 100756Z AUTO 00000KT 5SM BR FEW049 23/23 A2999 RMK AO2 T02330227 SLP146 $

2010/08/10 07:55
KTTS 100755Z 12007KT 10SM FEW065 26/24 A2993 RMK SLP135 1SC /0/

2010/08/10 07:54
KBOS 100754Z 18006KT 5SM -RA BR BKN070 OVC120 21/19 A2989 RMK AO2 TSE03 SLP121 P0003 T02060194

2010/08/10 07:56
KM89 100756Z AUTO 00000KT 8SM CLR 27/25 A2992 RMK AO2 T02660250 SLP142 $

2010/08/10 07:55
KMDJ 100755Z AUTO 00000KT 10SM CLR 29/25 A2991 RMK A01

2010/08/10 07:55
KMIU 100755Z AUTO 20014KT 10SM CLR 30/27 A2990 RMK A01

2010/08/10 07:55
KMZG 100755Z AUTO 18010KT 050V190 10SM SCT020 SCT026 SCT034 30/26 A2990 RMK A01

2010/08/10 07:52
KPVB 100752Z AUTO 00000KT 10SM CLR 24/23 A2996 RMK AO1 T02380225

2010/08/10 07:53
KRZN 100753Z AUTO 00000KT 10SM CLR 20/19 A2996 RMK AO2 T02040187

2010/08/10 07:55
KSPR 100755Z AUTO 14004KT 10SM FEW018 30/26 A2989 RMK A01

2010/08/10 07:55
KSRR 100755Z AUTO 30003KT 10SM CLR 17/12 A3026 RMK AO2

2010/08/10 07:55
KVAF 100755Z AUTO 22010KT 10SM FEW019 FEW028 30/25 A2987 RMK A01

2010/08/10 07:55
KVBS 100755Z AUTO 26006KT 10SM FEW026 FEW030 31/26 A2989 RMK A01

2010/08/10 07:53
KVES 100753Z AUTO 00000KT 4SM BR CLR 21/21 A2998 RMK AO2 T02120208

2010/08/10 07:56
PAGN 100756Z AUTO 00000KT SCT004 OVC013 RMK AO2 PWINO TSNO SLPNO $

2010/08/10 07:56
PATQ 100756Z AUTO 07018KT 10SM OVC007 03/02 A2978 RMK AO2 TSNO T00270022 RAE00 P0000 SLP089 $

2010/08/10 07:55
K1A6 100755Z AUTO 00000KT 5SM BR SCT055 24/24 A3003 RMK AO2

2010/08/10 07:55
K1P1 100755Z AUTO 32003KT 5SM BR CLR 20/19 A2990 RMK AO2 T02010187

2010/08/10 07:55
K46D 100755Z AUTO 12005KT 10SM CLR 21/19 A2990 RMK AO2

2010/08/10 07:55
KAIG 100755Z AUTO 02004KT 7SM CLR 16/16 A3000 RMK AO2

2010/08/10 07:56
KAJO 100756Z AUTO 27005KT 10SM CLR 16/14 A2991 RMK AO2 T01610138 402720072 SLP123 $

2010/08/10 07:51
KARV 100751Z AUTO 00000KT 10SM CLR 18/17 A3002 RMK AO2 T01800165

2010/08/10 07:55
KBBF 100755Z AUTO 18011KT 10SM BKN021 BKN027 30/27 A2989 RMK A01

2010/08/10 07:55
KBBG 100755Z AUTO 00000KT 10SM FEW060 27/23 A2997 RMK AO2

2010/08/10 07:55
KBQX 100755Z AUTO 19007KT 10SM FEW023 30/27 A2990 RMK A01

2010/08/10 07:50
KBWP 100750Z AUTO 11004KT 10SM CLR 22/20 A2988 RMK AO1 T02150196

2010/08/10 07:55
KCMB 100755Z AUTO 30005KT 10SM CLR 31/24 A2991 RMK A01

2010/08/10 07:55
KCMR 100755Z AUTO 15006KT 10SM FEW070 12/08 A3025 RMK AO1

2010/08/10 07:55
KCMY 100755Z AUTO 00000KT 4SM BR SCT001 21/20 A2995 RMK AO2 T02050199

2010/08/10 07:55
KCRH 100755Z AUTO 28005KT 10SM SCT024 30/25 A2992 RMK A01

2010/08/10 07:55
KCWA 100755Z AUTO 02006KT 10SM CLR 21/20 A2999 RMK AO2 T02110197

2010/08/10 07:56
KDIJ 100756Z AUTO 00000KT 10SM CLR 09/07 A3013 RMK AO2 T00940066 SLP124 $

2010/08/10 07:55
KDLL 100755Z AUTO 00000KT M1/4SM FG BKN002 21/21 A2995 RMK AO2 T02140208

2010/08/10 07:55
KEFT 100755Z AUTO 07004KT 7SM CLR 24/22 A2994 RMK AO2 T02360222

2010/08/10 07:51
KEGV 100751Z AUTO 00000KT 1/4SM FG OVC003 15/16 A3002 RMK AO2 T01540155

2010/08/10 07:55
KEHC 100755Z AUTO 25004KT 10SM CLR 30/24 A2991 RMK A01

2010/08/10 07:54
KSBN 100754Z 04004KT 5SM BR CLR 21/20 A2996 RMK AO2 SLP141 T02110200

2010/08/10 07:54
KWAL 100754Z AUTO 24005KT 10SM CLR 24/22 A2996 RMK AO2 SLP143 T02390217 TSNO

2010/08/10 07:53
KUIL 100753Z AUTO 00000KT 2 1/2SM BR OVC007 12/11 A2997 RMK AO2 CIG 005V011 SLP150 T01220111 401560117 TSNO

2010/08/10 07:52
KMLF 100752Z AUTO 20005KT 10SM CLR 15/M02 A3006 RMK AO2 SLP117 T01501017 TSNO

2010/08/10 07:54
KAPN 100754Z AUTO 27003KT 7SM CLR 19/18 A2996 RMK AO2 SLP144 T01890183 $

2010/08/10 07:56
KSMP 100756Z AUTO VRB06KT 1/4SM FG BKN001 OVC026 08/08 A2997 RMK AO2 SLP146 T00830083 401000083 TSNO $

2010/08/10 07:51
KP58 100751Z AUTO 25005KT 22/21 A2993 RMK AO2 SLP128 T02170211 PWINO TSNO

2010/08/10 07:54
KWAL 100754Z AUTO 24005KT 10SM CLR 24/22 A2996 RMK AO2 SLP143 T02390217 TSNO

2010/08/10 07:53
KLOR 100753Z AUTO 05003KT 9SM CLR 24/21 A2993 RMK AO2 SLP132 T02440211 TSNO PNO $

2010/08/10 07:56
KNPA 100756Z AUTO 34003KT 6SM BR CLR 26/24 A2990 RMK AO2 SLP127 T02560239

2010/08/10 07:56
KNMM 100756Z AUTO 00000KT 7SM CLR 26/23 A2996 RMK AO2 SLP150 T02560233 $

2010/08/10 07:56
KNBC 100756Z AUTO 00000KT 10SM CLR 26/24 A2998 RMK AO2 SLP154 T02610244 $

2010/08/10 07:56
KNUW 100756Z 24006KT 8SM FEW008 BKN012 OVC045 14/11 A2996 RMK AO2 SLP150 T01420111 401560128 $

2010/08/10 07:55
KCOF 100755Z AUTO 15007KT 10SM SCT029 26/ A2992 RMK AO2 SLP134 T0265

2010/08/10 07:55
KDOV 100755Z AUTO 20008KT 10SM CLR 24/24 A2992 RMK AO2 SLP134 T02430241

2010/08/10 07:55
KLFI 100755Z 22005KT 10SM CLR 26/23 A2997 RMK AO2A SLP149 T02550229

2010/08/10 07:55
KMCF 100755Z AUTO 07007KT 10SM CLR 26/25 A2988 RMK AO2 SLP119 T02560247

2010/08/10 07:53
KNIP 100753Z 12008KT 10SM SCT020 27/24 A2995 RMK AO2 SLP137 T02720239

2010/08/10 07:54
KNKT 100754Z AUTO 21003KT 10SM CLR 24/23 A3002 RMK AO2 SLP162 T02440233

2010/08/10 07:53
KNQX 100753Z AUTO 19008KT 10SM -TSRA FEW014 SCT026 27/24 A2983 RMK AO2 TSB42RAB50 SLP101 P0001 T02720244 $

2010/08/10 07:52
KNRB 100752Z AUTO 14010KT 10SM CLR 28/22 A2995 RMK AO2 SLP140 T02830222

2010/08/10 07:55
KPAM 100755Z AUTO 10003KT 10SM CLR 27/24 A2990 RMK AO2 SLP125 T02680242 $

2010/08/10 07:55
KPOB 100755Z AUTO 25004KT 10SM FEW006 25/25 A3001 RMK AO2 SLP160 T02490249 $

2010/08/10 07:55
KSSC 100755Z 00000KT 10SM CLR 24/23 A3000 RMK AO2A SLP157 T02430231 $

2010/08/10 07:55
KVAD 100755Z AUTO 07003KT 10SM CLR 25/24 A2995 RMK AO2 SLP140 T02460239 $

2010/08/10 07:56
KNFL 100756Z 29006KT 10SM CLR 21/03 A2994 RMK AO2 PK WND 33029/0739 SLP113 T02060028 403390150

2010/08/10 07:55
KMHR 100755Z AUTO 15006KT 10SM CLR 14/11 A2985 RMK AO1

2010/08/10 07:56
KNTU 100756Z 24004KT 9SM FEW200 23/22 A2997 RMK AO2 SLP151 T02330222 $

2010/08/10 07:55
KGBK 100755Z AUTO 00000KT 10SM BKN027 30/25 A2991 RMK A01

2010/08/10 07:55
KGRK 100755Z 16008KT 7SM FEW060 29/23 A2992 RMK SLP106

2010/08/10 07:55
KNBG 100755Z AUTO 00000KT 4SM HZ CLR A2992 RMK AO2 SLP132 PWINO FZRANO $

2010/08/10 07:54
KNFG 100754Z 02003KT 6SM BR FEW015 11/09 A2992 RMK AO2 SLP129 T01060089 402330078

2010/08/10 07:55
KNKX 100755Z 00000KT 10SM BKN010 17/14 A2992 RMK AO2 SLP124 T01720139 402440111

2010/08/10 07:56
KNTU 100756Z 24004KT 9SM FEW200 23/22 A2997 RMK AO2 SLP151 T02330222 $

2010/08/10 07:56
KNUQ 100756Z AUTO 00000KT 10SM OVC008 15/12 A2992 RMK AO2 SLP133 T01500122 402280144 TSNO

2010/08/10 07:56
KNYG 100756Z AUTO 22007KT 8SM CLR 26/21 A2995 RMK AO2 SLP143 T02560206 $

2010/08/10 07:55
KNYL 100755Z AUTO 24006KT 10SM CLR 28/00 A2975 RMK AO2 SLP071 T02830000

2010/08/10 07:55
KPOE 100755Z AUTO 00000KT 10SM CLR 26/24 A2992 RMK AO2 SLP131 T02560239

2010/08/10 07:55
KVBG 100755Z AUTO 00000KT 10SM OVC003 12/12 A2993 RMK AO2 SLP127 T01220117 TSNO CHINO RWY12 $

2010/08/10 07:56
KVPS 100756Z 01007KT 10SM SKC 26/24 A2990 RMK AO2A SLP127 T02600236 $

2010/08/10 07:56
PASY 100756Z AUTO 29011KT 1/2SM FG VV001 09/09 A2988 RMK AO2 SLP118 T00890089 TSNO PNO $

2010/08/10 07:57
KNJM 100757Z AUTO 23004KT 10SM BKN017 27/25 A3001 RMK AO2 SLP167 T02720250

2010/08/10 07:55
KGTB 100755Z AUTO 22005KT 10SM FEW008 BKN015 21/20 A2993 RMK AO2 CIG 009 RWY03 SLP135 T02100202

2010/08/10 07:53
KNQX 100753Z AUTO 19008KT 10SM -TSRA FEW014 SCT026 27/24 A2983 RMK AO2 TSB42RAB50 SLP101 P0001 T02720244 $

2010/08/10 07:52
KNRB 100752Z AUTO 14010KT 10SM CLR 28/22 A2995 RMK AO2 SLP140 T02830222

2010/08/10 07:55
KPAM 100755Z AUTO 10003KT 10SM CLR 27/24 A2990 RMK AO2 SLP125 T02680242 $

2010/08/10 07:55
KSSC 100755Z 00000KT 10SM CLR 24/23 A3000 RMK AO2A SLP157 T02430231 $

2010/08/10 07:55
KVAD 100755Z AUTO 07003KT 10SM CLR 25/24 A2995 RMK AO2 SLP140 T02460239 $

2010/08/10 07:56
KNRS 100756Z AUTO 00000KT 10SM OVC015 16/14 A2992 RMK AO2 SLP130 T01560144 402110106 TSNO

2010/08/10 07:55
PACZ 100755Z AUTO 20009KT 10SM BKN008 OVC012 09/08 A2930 RMK AO1 T00940084

2010/08/10 07:55
PALU 100755Z AUTO 07020KT 7SM 08/08 A2960 RMK AO1 T00830078

2010/08/10 07:55
PATC 100755Z AUTO 02007KT 10SM SCT028 BKN041 11/10 A2944 RMK AO1 T01060101

2010/08/10 07:56
KNSE 100756Z AUTO 36003KT 5SM HZ CLR 26/23 A2992 RMK AO2 SLP115 T02560228 $

2010/08/10 07:56
KNSE 100756Z AUTO 36003KT 5SM HZ CLR 26/23 A2992 RMK AO2 SLP115 T02560228 $

2010/08/10 07:48
KNQX 100748Z AUTO 19008KT 10SM TS FEW014 SCT018 SCT026 27/23 A2984 RMK AO2 TSB42 $

2010/08/10 07:53
KMTC 100753Z AUTO 00000KT 1 1/2SM R19/0800VP6000FT DZ BR CLR 21/21 A2995 RMK AO2 SLP144 $

2010/08/10 07:54
KMTC 100754Z AUTO 00000KT 1SM R19/0800VP6000FT DZ BR CLR 21/21 A2995 RMK AO2 SLP144 $

2010/08/10 07:56
KMTC 100756Z AUTO 00000KT 1/2SM R19/0700VP6000FT DZ FG CLR 20/20 A2995 RMK AO2 SLP144 $

2010/08/10 07:57
KMTC 100757Z AUTO 00000KT 1/2SM R19/0700V5500FT DZ FG CLR 20/20 A2994 RMK AO2 SLP144 $

2010/08/10 07:50
EGVN 100750Z 22004KT 9999 FEW008 BKN070 13/11 Q1010 NOSIG

2010/08/10 08:00
FOOL 100800Z 13009KT 9000 BKN010 BKN033 24/22 Q1016 NOSIG

2010/08/10 07:50
EGVN 100750Z 22004KT 9999 FEW008 BKN070 13/11 Q1010 NOSIG

2010/08/10 07:56
KNGP 100756Z AUTO 10SM CLR 28/27 A2989 RMK AO2 SLP121 T02830267 $

2010/08/10 07:56
KPRN 100756Z AUTO 00000KT 10SM CLR 26/23 A2995 RMK AO2 SLP133 T02560233 $

2010/08/10 07:56
KHLR 100756Z AUTO 15005KT 10SM CLR 28/23 A2993 RMK AO2 SLP125 T02830228 $

2010/08/10 07:56
KNQI 100756Z AUTO 00000KT 8SM CLR 28/26 A2990 RMK AO2 SLP123 T02780256 $

2010/08/10 07:56
KAQV 100756Z AUTO 00000KT 10SM CLR 26/24 A2992 RMK AO2 SLP125 T02560239

2010/08/10 07:56
KNTD 100756Z AUTO 00000KT 10SM OVC009 15/14 A2990 RMK AO2 SLP125 T01500139 401890089 TSNO $

2010/08/10 07:56
K79J 100756Z AUTO 00000KT 7SM CLR 25/22 A2993 RMK AO2 SLP128 T02500222 TSNO PNO $

2010/08/10 07:56
KNDZ 100756Z AUTO 35003KT 10SM CLR 27/22 A2992 RMK AO2 SLP115 T02670222 PWINO $

2010/08/10 07:56
KNXP 100756Z AUTO 00000KT CLR 24/M01 A2993 RMK AO2 SLP095 T02391006 403720189 $

2010/08/10 07:56
KNXX 100756Z AUTO 26004KT 10SM CLR 25/19 A2994 RMK AO2 SLP141 T02500194 $

2010/08/10 07:55
PGUA 100755Z AUTO 07008KT 10SM SCT018 SCT025 SCT035 27/24 A2991 RMK AO2 SLP110 T02680244 $

2010/08/10 07:56
KNID 100756Z AUTO 00000KT CLR 24/06 A2984 RMK AO2 SLP083 T02390061 403610167 TSNO $

2010/08/10 07:56
KINS 100756Z 00000KT 10SM CLR 21/M07 A2992 RMK AO2 SLP079 T02061067

2010/08/10 07:56
KNJK 100756Z AUTO 36005KT 10SM CLR 27/M01 A2973 RMK AO2 SLP083 T02671011 404000183 TSNO

2010/08/10 07:56
KNBT 100756Z AUTO 22004KT 7SM CLR 27/24 A3000 RMK AO2 SLP165 T02670244 TSNO

2010/08/10 07:56
K9L2 100756Z AUTO 25006KT 10SM CLR 22/03 A2989 RMK AO2 SLP099 T02220033 $

2010/08/10 07:56
KNCA 100756Z AUTO 00000KT 10SM 24/24 A3001 RMK AO2 SLP165 T02390239 $

2010/08/10 07:55
KCVS 100755Z 00000KT 10SM CLR 20/16 A3008 RMK AO2A SLP140 T01960160 $

2010/08/10 07:57
KFFO 100757Z 00000KT 10SM SCT049 SCT070 25/22 A2997 RMK AO2A SLP143

2010/08/10 07:55
KFHU 100755Z 24005KT 10SM SKC 23/14 A3011 RMK SLP122

2010/08/10 07:55
KHRT 100755Z 35004KT 10SM CLR 25/24 A2989 RMK AO2A SLP124 T02520244 $

2010/08/10 07:55
KLSV 100755Z AUTO 06008KT 10SM CLR 25/M01 A2983 RMK AO2 SLP086 T02461008 403630218 PWINO

2010/08/10 07:55
KMIB 100755Z AUTO 07016KT 10SM OVC050 21/16 A2986 RMK AO2 SLP103 T02090162

2010/08/10 07:52
KNZY 100752Z 31004KT 10SM BKN013 20/14 A2990 RMK AO2 SLP126 T02000139 402500172 $

2010/08/10 07:55
KRCA 100755Z 20008KT 10SM BKN170 23/16 A2986 RMK AO2A SLP079 T02280160 $

2010/08/10 07:55
KTCM 100755Z AUTO 20007KT 10SM OVC011 14/11 A2998 RMK AO2 SLP152 T01380110 401900131

2010/08/10 07:55
PAED 100755Z 00000KT 10SM OVC004 12/11 A2977 RMK AO2A DZB0715E0721 CIG 004V007 SLP083 P0000 T01160107

2010/08/10 07:56
PMDY 100756Z AUTO 07009KT 10SM FEW022 26/22 A3023 RMK AO2 TSNO T02550216 RAB38E48 P0000 SLP544

2010/08/10 07:55
KGTB 100755Z AUTO 22005KT 10SM FEW008 BKN015 21/20 A2993 RMK AO2 CIG 009 RWY03 SLP135 T02100202

2010/08/10 07:53
KNIP 100753Z 12008KT 10SM SCT020 27/24 A2995 RMK AO2 SLP137 T02720239

2010/08/10 07:54
KNKT 100754Z AUTO 21003KT 10SM CLR 24/23 A3002 RMK AO2 SLP162 T02440233

2010/08/10 07:53
KNQX 100753Z AUTO 19008KT 10SM -TSRA FEW014 SCT026 27/24 A2983 RMK AO2 TSB42RAB50 SLP101 P0001 T02720244 $

2010/08/10 07:52
KNRB 100752Z AUTO 14010KT 10SM CLR 28/22 A2995 RMK AO2 SLP140 T02830222

2010/08/10 07:52
KNZY 100752Z 31004KT 10SM BKN013 20/14 A2990 RMK AO2 SLP126 T02000139 402500172 $

2010/08/10 07:55
KPAM 100755Z AUTO 10003KT 10SM CLR 27/24 A2990 RMK AO2 SLP125 T02680242 $

2010/08/10 07:55
KPOB 100755Z AUTO 25004KT 10SM FEW006 25/25 A3001 RMK AO2 SLP160 T02490249 $

2010/08/10 07:55
KRCA 100755Z 20008KT 10SM BKN170 23/16 A2986 RMK AO2A SLP079 T02280160 $

2010/08/10 07:55
KSKA 100755Z AUTO 20008KT 10SM FEW160 17/05 A2980 RMK AO2 SLP079 T01720053 402690119

2010/08/10 07:55
KSSC 100755Z 00000KT 10SM CLR 24/23 A3000 RMK AO2A SLP157 T02430231 $

2010/08/10 07:55
KTCM 100755Z AUTO 20007KT 10SM OVC011 14/11 A2998 RMK AO2 SLP152 T01380110 401900131

2010/08/10 07:55
KTIK 100755Z 18011KT 10SM CLR 27/21 A2992 RMK AO2A SLP113 T02660206

2010/08/10 07:55
KVAD 100755Z AUTO 07003KT 10SM CLR 25/24 A2995 RMK AO2 SLP140 T02460239 $

2010/08/10 07:55
PAIM 100755Z AUTO 00000KT 10SM OVC055 12/12 A2962 RMK AO1 T01170117

2010/08/10 07:55
PATL 100755Z AUTO 12005KT 10SM OVC019 11/09 A2960 RMK AO1 T01110095

2010/08/10 07:55
PASV 100755Z AUTO 00000KT 7SM BKN020 OVC025 09/08 A2964 RMK AO1 T00940084

2010/08/10 08:00
SBKP 100800Z 12016KT CAVOK 12/10 Q1022

2010/08/10 07:57
KSLK 100757Z AUTO 00000KT 1 3/4SM BR SCT005 BKN016 OVC022 19/19 A2996 RMK AO2

2010/08/10 07:57
KBBW 100757Z AUTO 35007KT VCTS 19/18 A2993 RMK AO2 LTG DSNT NW-E TSB49E50B51 P0033 $

2010/08/10 07:50
EGDM 100750Z 25007KT 9999 RA FEW007 BKN060 BKN100 12/11 Q1011 TEMPO SCT007

2010/08/10 07:50
EGDY 100750Z 23004KT 6000 RA FEW008 SCT040 OVC070 13/12 Q1011

2010/08/10 07:50
EGOV 100750Z 22015KT 9999 FEW018 BKN060 14/12 Q1007 NOSIG

2010/08/10 07:50
EGUB 100750Z 23006KT 9999 -RA FEW026 BKN043 BKN065 13/12 Q1011 NOSIG

2010/08/10 07:50
EGXC 100750Z 25011KT 8000 VCSH FEW014 SCT030 BKN100 16/13 Q1008 TEMPO SCT015

2010/08/10 07:50
EGXT 100750Z 23010KT 9999 FEW008 BKN027 BKN040 15/13 Q1009 TEMPO 7000 -SHRA SCT020

2010/08/10 07:50
EGYD 100750Z 25016KT 9999 SCT012 BKN060 15/13 Q1008 BECMG SCT018

2010/08/10 08:00
UBBB 100800Z 02010KT 9999 FEW060CB BKN100 31/31 Q1011 NOSIG RMK R88CLRD70

2010/08/10 07:56
KALK 100756Z AUTO 23003KT 10SM CLR 19/14 A3013 RMK AO2 SLP108 T01940144 $

2010/08/10 07:55
KDVK 100755Z AUTO 21004KT 4SM CLR 24/23 A2999 RMK AO1

2010/08/10 07:56
KFSD 100756Z 11007KT 10SM FEW025 BKN038 25/23 A2986 RMK AO2 SLP099 T02500233 $

2010/08/10 07:56
KSPD 100756Z AUTO 30004KT 21/16 A3006 RMK AO2 SLP104 T02060161 PWINO TSNO

2010/08/10 07:56
KD07 100756Z AUTO 17009KT 21/16 A2985 RMK AO2 SLP088 T02060156 PWINO TSNO

2010/08/10 07:56
K2WX 100756Z AUTO 00000KT 21/12 A2978 RMK AO1 SLP053 T02110117

2010/08/10 07:56
KGNA 100756Z AUTO 00000KT 14/13 A2995 RMK AO2 SLP137 T01390128 PWINO TSNO

2010/08/10 07:56
KSXT 100756Z AUTO 35010KT 8SM CLR 11/09 A3000 RMK AO2 SLP124 T01060089 402170106 TSNO

2010/08/10 07:56
KLWS 100756Z AUTO 15004KT 10SM CLR 19/04 A2979 RMK AO2 SLP078 T01890039 403170156

2010/08/10 07:56
K8D3 100756Z AUTO 00000KT 21/21 A2986 RMK AO2 SLP090 T02110206 PWINO TSNO

2010/08/10 07:53
KDAB 100753Z 10003KT 10SM FEW020 27/24 A2993 RMK AO2 SLP136 T02670239

2010/08/10 07:53
KSAV 100753Z 00000KT 10SM FEW023 26/24 A2999 RMK AO2 SLP153 T02560239 $

2010/08/10 07:54
KSYR 100754Z 00000KT 3SM BR FEW020 BKN028 OVC046 21/21 A2994 RMK AO2 SLP133 T02110206

2010/08/10 07:55
KCAO 100755Z AUTO 25012KT 10SM CLR 22/16 A3008 RMK AO2 SLP100 T02220156 TSNO

2010/08/10 07:53
KMWT 100753Z AUTO 00000KT 10SM CLR 24/23 A2992 RMK AO2 SLP115 T02440233 TSNO

2010/08/10 07:54
KRFD 100754Z 08006KT 10SM FEW030 SCT180 24/22 A2994 RMK AO2 SLP132 T02400220 PNO $

2010/08/10 07:55
KSCF 100755Z AUTO 08006KT 10SM CLR 29/26 A2985 RMK A01

2010/08/10 07:56
KSHV 100756Z 11003KT 10SM SCT290 27/23 A2991 RMK AO2 SLP124 T02670233

2010/08/10 07:56
KABQ 100756Z 00000KT 10SM FEW110 22/08 A3014 RMK AO2 SLP109 T02220083

2010/08/10 07:56
KJAX 100756Z 05005KT 10SM FEW022 25/23 A2994 RMK AO2 SLP140 T02500233

2010/08/10 07:56
KCAE 100756Z 00000KT 6SM BR CLR 24/22 A3000 RMK AO2 SLP154 T02390222

2010/08/10 07:56
KCHS 100756Z 00000KT 10SM FEW023 27/25 A3000 RMK AO2 SLP157 T02670250

2010/08/10 07:55
KCLI 100755Z AUTO 01003KT 10SM CLR 21/18 A2996 RMK AO2

2010/08/10 07:54
KGSO 100754Z 23003KT 7SM CLR 24/21 A3003 RMK AO2 SLP157 T02440206

2010/08/10 07:56
KP53 100756Z AUTO 18004KT 18/17 A2996 RMK AO2 SLP145 T01780172 PWINO TSNO

2010/08/10 07:56
KWMC 100756Z AUTO 01004KT 10SM CLR 16/M01 A2995 RMK AO2 SLP092 T01611006 403280100

2010/08/10 07:56
TJSJ 100756Z 10004KT 10SM SCT070 26/24 A2992 RMK AO2 SLP132 OCNL LTGIC DSNT N-SW CB DSNT N-SW T02610244 $

2010/08/10 07:56
KMHS 100756Z AUTO 00000KT 10SM CLR 13/09 A2997 RMK AO2 SLP137 T01330094 402940100 TSNO

2010/08/10 07:56
KFLG 100756Z AUTO 00000KT 10SM FEW080 10/08 A3028 RMK AO2 SLP162 T01000078 TSNO

2010/08/10 07:50
K3A6 100750Z AUTO 36002KT 14/09 A2989 RMK AO1 SLP136 T01420094

2010/08/10 07:55
KEIR 100755Z AUTO VRB03KT 10SM SCT030 SCT039 29/26 A2990 RMK A01

2010/08/10 07:56
KEKQ 100756Z AUTO 00000KT 1 3/4SM BR BKN080 22/22 A3001 RMK AO2 T02220222 SLP157

2010/08/10 07:55
KEMK 100755Z AUTO 21004KT 10SM FEW022 FEW028 30/25 A2991 RMK A01

2010/08/10 07:52
KETB 100752Z AUTO 00000KT 2 1/2SM BR CLR 20/20 A2995 RMK AO2 P0001 T02020195

2010/08/10 07:52
KGLW 100752Z AUTO 00000KT 4SM BR CLR 24/23 A2998 RMK AO2 T02400232

2010/08/10 07:55
KGUL 100755Z AUTO 10SM CLR 30/25 A2991 RMK A01

2010/08/10 07:50
KHQI 100750Z AUTO 00000KT 10SM 30/25 A2991 RMK A01

2010/08/10 07:55
KIPN 100755Z AUTO 03008KT 10SM FEW020 30/25 A2987 RMK A01

2010/08/10 07:55
KJVL 100755Z AUTO 00000KT 10SM CLR 23/21 A2993 RMK AO2 T02250205

2010/08/10 07:56
PAFS 100756Z AUTO 00000KT 10SM FEW038 SCT048 OVC060 11/09 A2963 RMK AO2 TSNO T01050094 401440094 RAB02E54 P0001 SLP040 $

2010/08/10 07:56
PAGN 100756Z AUTO 00000KT SCT004 OVC013 RMK AO2 PWINO TSNO SLPNO $

2010/08/10 07:56
PAHC 100756Z AUTO 00000KT 10SM FEW026 SCT036 OVC046 11/10 A2949 RMK AO2 TSNO T01110100 OVC V BKN RAE45 P0002 SLP990 $

2010/08/10 07:56
PAIG 100756Z AUTO 00000KT 10SM BKN005 OVC044 11/11 A2965 RMK AO2 PWINO TSNO T01050105 BKN V OVC SLP043 $

2010/08/10 07:56
PAMO 100756Z AUTO 15018KT 3/4SM BR OVC001 09/09 A2939 RMK AO2 TSNO T00940094 RAE53 P0001 SLP950 $

2010/08/10 07:56
PAOO 100756Z AUTO 17012KT 10SM OVC007 09/08 A2935 RMK AO2 TSNO T00940083 CIG 006V012 SLP941 $

2010/08/10 07:56
PAPM 100756Z AUTO 18020KT 4SM BR SCT008 OVC011 09/09 A2951 RMK AO2 TSNO T00940088 401000094 OVC V BKN RAB00E33 P0002 SLP993 $

2010/08/10 07:56
PARS 100756Z AUTO 18009KT 1 1/2SM -RA BR BKN012 OVC017 10/09 A2947 RMK AO2 TSNO T01000094 P0000 SLP983 $

2010/08/10 07:56
PARY 100756Z AUTO 00000KT 10SM BKN075 12/10 A2959 RMK AO2 PWINO TSNO T01220100 SLP026

2010/08/10 07:56
PATQ 100756Z AUTO 07018KT 10SM OVC007 03/02 A2978 RMK AO2 TSNO T00270022 RAE00 P0000 SLP089 $

2010/08/10 07:56
KSGH 100756Z AUTO 00000KT 5SM BR FEW049 23/23 A2999 RMK AO2 T02330227 SLP146 $

2010/08/10 07:56
KWJF 100756Z 28009KT 10SM CLR 22/M07 A2991 RMK AO2 SLP107 T02171067 403390117

2010/08/10 07:55
KTTS 100755Z 12007KT 10SM FEW065 26/24 A2993 RMK SLP135 1SC /0/

2010/08/10 07:56
PAMB 100756Z AUTO 20007KT 2SM BR OVC003 09/09 A2957 RMK AO2 PWINO TSNO T00940094 SLP017 $

2010/08/10 07:56
PAOH 100756Z AUTO 00000KT 8SM FEW024 BKN030 OVC035 13/13 A3001 RMK AO2 TSNO T01270127 401550116 SLP162 $

2010/08/10 07:56
PPIZ 100756Z AUTO 05020G27KT 10SM SCT013 06/03 A2967 RMK AO2 TSNO T00550027 PK WND 06030/0712 SLP050 $

2010/08/10 08:00
OPPS 100800Z NE-08 4000 HZ SCT030 SCT100 33/26 Q1003.5

2010/08/10 07:50
EDNY 100750Z VRB02KT CAVOK 20/15 Q1018

2010/08/10 07:55
EHAM 100755Z 19012KT 160V220 9999 SCT011 BKN020 18/15 Q1012 NOSIG

2010/08/10 07:55
EHBK 100755Z AUTO 19005KT 160V270 9999NDV NCD 19/13 Q1015 NOSIG

2010/08/10 07:55
EHGG 100755Z AUTO 21011KT 170V240 9999NDV NSC 18/13 Q1012 NOSIG

2010/08/10 07:55
EHKD 100755Z AUTO 22015KT 9999NDV FEW013/// OVC016/// 18/15 Q1011 WHT WHT TEMPO GRN TEMPO SCT012 SCT015CB BKN020

2010/08/10 07:55
EHRD 100755Z 19009KT 9999 FEW011 SCT014 BKN018 18/15 Q1013 NOSIG

2010/08/10 07:45
MMTO 100745Z 18003KT 5SM SCT015 BKN200 13/11 A3041 RMK 8/502 HZ

2010/08/10 08:00
SBCG 100800Z 15007KT CAVOK 15/11 Q1018

2010/08/10 08:00
SBKP 100800Z 12016KT CAVOK 12/10 Q1022

2010/08/10 07:50
EGPA 100750Z 25007KT 9999 FEW012 SCT020 15/12 Q1004

2010/08/10 07:50
EGPC 100750Z VRB02KT 9999 FEW025 13/12 Q1004

2010/08/10 07:50
EGNH 100750Z 22013KT 9999 FEW016 SCT032 15/11 Q1007

2010/08/10 07:50
EGNJ 100750Z 23008KT 9999 FEW006 SCT010 16/14 Q1008

2010/08/10 07:50
EGAE 100750Z 24011KT 9999 -RA FEW009 SCT014 BKN027 12/11 Q1004

2010/08/10 07:50
EGNC 100750Z 18008KT 9999 FEW025 14/12 Q1005

2010/08/10 07:50
EGPC 100750Z VRB02KT 9999 FEW025 13/12 Q1004

2010/08/10 07:50
EGPE 100750Z 00000KT 9999 FEW015 FEW020TCU 13/11 Q1004

2010/08/10 07:50
EGPL 100750Z 03008KT 9999 FEW011 14/12 Q1004

2010/08/10 07:50
EGPM 100750Z 11014KT 6000 SCT004 BKN006 14/14 Q1004

2010/08/10 07:50
EGPO 100750Z 34004KT 290V360 9999 FEW012 14/11 Q1004

2010/08/10 07:45
MMQT 100745Z 00000KT 6SM SCT020 BKN120 OVC250 18/12 A3027 RMK 8/532 HZY

2010/08/10 07:55
KCVS 100755Z 00000KT 10SM CLR 20/16 A3008 RMK AO2A SLP140 T01960160 $

2010/08/10 07:55
KDLF 100755Z AUTO 12012KT 10SM CLR 29/23 A2993 RMK AO2 SLP118 T02860225

2010/08/10 07:55
KDMA 100755Z AUTO 18004KT 10SM CLR 27/17 A2995 RMK AO2 SLPNO T02650165 VISNO RWY12 CHINO RWY12 $

2010/08/10 07:57
KFFO 100757Z 00000KT 10SM SCT049 SCT070 25/22 A2997 RMK AO2A SLP143

2010/08/10 07:55
KFHU 100755Z 24005KT 10SM SKC 23/14 A3011 RMK SLP122

2010/08/10 07:55
KFRI 100755Z AUTO 19010KT 10SM CLR 29/20 A2986 RMK AO2 SLP088 T02910204

2010/08/10 07:55
KGRK 100755Z 16008KT 7SM FEW060 29/23 A2992 RMK SLP106

2010/08/10 07:55
KHOP 100755Z AUTO 22003KT 10SM CLR 26/25 A2996 RMK AO2 SLP141 T02570249

2010/08/10 07:55
KHRT 100755Z 35004KT 10SM CLR 25/24 A2989 RMK AO2A SLP124 T02520244 $

2010/08/10 07:56
KIWA 100756Z AUTO 23003KT 10SM CLR 32/11 A2985 RMK AO2

2010/08/10 07:55
KLFI 100755Z 22005KT 10SM CLR 26/23 A2997 RMK AO2A SLP149 T02550229

2010/08/10 07:55
KLSV 100755Z AUTO 06008KT 10SM CLR 25/M01 A2983 RMK AO2 SLP086 T02461008 403630218 PWINO

2010/08/10 07:55
KMCF 100755Z AUTO 07007KT 10SM CLR 26/25 A2988 RMK AO2 SLP119 T02560247

2010/08/10 07:55
KMIB 100755Z AUTO 07016KT 10SM OVC050 21/16 A2986 RMK AO2 SLP103 T02090162

2010/08/10 07:55
KNBG 100755Z AUTO 00000KT 4SM HZ CLR A2992 RMK AO2 SLP132 PWINO FZRANO $

2010/08/10 07:56
KNUQ 100756Z AUTO 00000KT 10SM OVC008 15/12 A2992 RMK AO2 SLP133 T01500122 402280144 TSNO

2010/08/10 07:55
KSVN 100755Z 00000KT 7SM FEW010 25/24 A2998 RMK SLP155 ALSTG/SLP ESTMD WND DATA ESTMD

2010/08/10 08:00
SUMU 100800Z 00000KT 0800 R19/0400 R24/1800 FG VV/// 01/01 Q1027 TEMPO 1200

2010/08/10 08:00
SULS 100800Z 00000KT 2000 BR NSC 03/03 Q1027

2010/08/10 07:50
EDHL 100750Z 16008KT 120V180 CAVOK 20/20 Q1015 RMK K

2010/08/10 07:50
EDLN 100750Z VRB03KT CAVOK 20/17 Q1015 RMK ATIS G

2010/08/10 07:50
EDLP 100750Z 19006KT CAVOK 22/12 Q1015 RMK RWY24 TRL60 OK ATIS L

2010/08/10 07:50
EDLW 100750Z 17007KT CAVOK 21/13 Q1015 RMK ATIS J

2010/08/10 07:50
EDNY 100750Z VRB02KT CAVOK 20/15 Q1018 RMK ATIS I

2010/08/10 07:50
EDXW 100750Z 16012KT 9000 FEW012 19/16 Q1013 RMK ATIS INFO D

2010/08/10 07:50
EGAE 100750Z 24011KT 9999 -RA FEW009 SCT014 BKN027 12/11 Q1004

2010/08/10 07:50
EGNH 100750Z 22013KT 9999 FEW016 SCT032 15/11 Q1007

2010/08/10 07:50
EGPL 100750Z 03008KT 9999 FEW011 14/12 Q1004

2010/08/10 07:50
EGPM 100750Z 11014KT 6000 SCT004 BKN006 14/14 Q1004

2010/08/10 07:55
EGVA 100755Z AUTO 21006KT 9999 -DZ SCT065 13/12 A2981 RMK AO2 DZB0752 SLP096 P0000 T01310120 $

2010/08/10 07:55
EHAM 100755Z 19012KT 160V220 9999 SCT011 BKN020 18/15 Q1012 NOSIG

2010/08/10 07:55
EHBK 100755Z AUTO 19005KT 160V270 9999NDV NCD 19/13 Q1015 NOSIG

2010/08/10 07:55
EHKD 100755Z AUTO 22015KT 9999NDV FEW013/// OVC016/// 18/15 Q1011 WHT WHT TEMPO GRN TEMPO SCT012 SCT015CB BKN020

2010/08/10 07:55
EHRD 100755Z 19009KT 9999 FEW011 SCT014 BKN018 18/15 Q1013 NOSIG

2010/08/10 07:55
ETIK 100755Z AUTO 00000KT 9999 CLR 20/16 A3007 RMK AO2 SLP172 T01970165 $

2010/08/10 07:57
ETOR 100757Z VRB05KT 9999 FEW100 24/14 A3003 RMK BLU

2010/08/10 08:00
LEJR 100800Z 00000KT 9999 FEW020 28/13 Q1016

2010/08/10 07:50
LGBL 100750Z 03004KT 9999 FEW030 33/17 Q1011 NOSIG BLU

2010/08/10 07:50
LGPZ 100750Z 04004KT CAVOK 31/20 Q1011 NOSIG BLU

2010/08/10 07:50
LGRX 100750Z 00000KT CAVOK 31/20 Q1010 NOSIG BLU

2010/08/10 07:50
LGSR 100750Z 34012KT CAVOK 31/21 Q1007 NOSIG BLU

2010/08/10 07:50
LGSY 100750Z 36010KT 9999 FEW020 29/22 Q1009 NOSIG BLU

2010/08/10 07:50
LGTG 100750Z 36006KT 9999 SCT025 30/20 Q1011 NOSIG BLU

2010/08/10 07:50
LOXT 100750Z VRB03KT 50KM FEW035CU 20/14 Q1019 NOSIG RMK FEW

2010/08/10 07:56
PHBK 100756Z AUTO 00000KT 10SM CLR 26/15 A3010 RMK AO2 SLP195 T02610150 TSNO $ 

2010/08/10 07:56
KNLC 100756Z AUTO 32010KT 10SM CLR 22/12 A2981 RMK AO2 SLP094 T02220122 403440139 TSNO 

2010/08/10 07:57
KBBW 100757Z AUTO 35007KT VCTS 19/18 A2993

2010/08/10 07:59
CYCX 100759Z AUTO 31003KT 3/8SM 16/16 A2980

2010/08/10 07:58
HLLB 100758Z 30015KT 9999 BKN020 28/19 Q1013

2010/08/10 08:00
UBBB 100800Z 02010KT 9999 FEW060CB BKN100 31/31 Q1011 NOSIG RMK R88CLRD70

2010/08/10 07:50
HLLT 100750Z VRB03KT CAVOK 27/16 Q1017

2010/08/10 08:00
UBBL 100800Z 14007KT 9999 SCT100 34/19 Q1011 NOSIG RMK G/O SC07

2010/08/10 08:00
FOOL 100800Z 13009KT 9000 BKN010 BKN033 24/22 Q1016 NOSIG

2010/08/10 07:55
OPLA 100755Z 15015KT 2500 TSRA FEW030CB SCT040 OVC100 28/27 Q1003 NOSIG

2010/08/10 08:00
OPPS 100800Z NE-08 4000 HZ SCT030 SCT100 33/26 Q1003.5

2010/08/10 08:00
OPRN 100800Z 23010KT 6000 HZ FEW025TCU SCT030 33/25 1005.0

2010/08/10 07:55
OPSK 100755Z 05004KT 5000 HZ SCT040 35/28 QNH 1001 R.H.68PC

2010/08/10 07:57
KSLK 100757Z AUTO 00000KT 1 3/4SM BR SCT005 BKN016 OVC022 19/19 A2996

2010/08/10 08:00
MGGT 100800Z 02008KT 9999 SCT012 19/18 Q1023 A3021 RERA FEW080 MTN E/W CUB/CL VOL/ PACAYA EN ACTIVIDAD NOSIG

2010/08/10 07:56
MMGL 100756Z 26003KT 10SM BKN020 BKN100 OVC300 20/17 A3012 RMK 8/477

2010/08/10 07:48
MMLO 100748Z 00000KT 8SM SCT030 BKN070 OVC200 16/16 A3020 RMK 63066 8/773

2010/08/10 07:49
MMPR 100749Z 04008KT 10SM SCT008 BKN020CB OVC070 28/25 A2986 RMK 8/97/ OCBL DROPS

2010/08/10 07:45
MMQT 100745Z 00000KT 6SM SCT020 BKN120 OVC250 18/12 A3027 RMK 8/532 HZY

2010/08/10 07:48
MMSP 100748Z 10008KT 8SM SCT010 OVC015 19/13 A3022 RMK 8/5//

2010/08/10 07:45
MMTO 100745Z 18003KT 5SM SCT015 BKN200 13/11 A3041 RMK 8/502 HZ

2010/08/10 08:00
MROC 100800Z 00000KT 9999 4500WSW BR VCBCFG SCT001 BKN020 21/21 A3001 NOSIG

2010/08/10 07:55
PAED 100755Z 00000KT 10SM OVC004 12/11 A2977 RMK AO2A DZB0715E0721 CIG 004V007 SLP083 P0000 T01160107

2010/08/10 07:55
PAIM 100755Z AUTO 00000KT 10SM OVC055 12/12 A2962 RMK AO1 T01170117

2010/08/10 07:56
PASY 100756Z AUTO 29011KT 1/2SM FG VV001 09/09 A2988 RMK AO2 SLP118 T00890089 TSNO PNO $

2010/08/10 07:55
PATL 100755Z AUTO 12005KT 10SM OVC019 11/09 A2960 RMK AO1 T01110095

2010/08/10 08:00
RJOI 100800Z 17004KT 9999 FEW025 BKN050 BKN100 31/24 A2988 RMK SLP117 T03060239

2010/08/10 07:55
RKSO 100755Z 20003KT 4800 -RA FEW010 BKN025 27/25 A2974 RMK AO2A RAB0707DZB0705E0707 SLP071 P0016 T02730273 $

2010/08/10 08:00
TAPA 100800Z 08011KT 9999 BKN017 28/24 Q1013

2010/08/10 08:00
TFFR 100800Z VRB01KT 9999 SCT020 SCT050 25/24 Q1013 TEMPO 4000 SHRA

2010/08/10 07:54
KNFG 100754Z 02003KT 6SM BR FEW015 11/09 A2992 RMK AO2 SLP129 T01060089 402330078

2010/08/10 07:56
KNID 100756Z AUTO 00000KT CLR 24/06 A2984 RMK AO2 SLP083 T02390061 403610167 TSNO $

2010/08/10 07:55
KNKX 100755Z 00000KT 10SM BKN010 17/14 A2992 RMK AO2 SLP124 T01720139 402440111

2010/08/10 07:56
KNSE 100756Z AUTO 36003KT 5SM HZ CLR 26/23 A2992 RMK AO2 SLP115 T02560228 $

2010/08/10 07:56
KNSE 100756Z AUTO 36003KT 5SM HZ CLR 26/23 A2992 RMK AO2 SLP115 T02560228 $

2010/08/10 07:56
KNTD 100756Z AUTO 00000KT 10SM OVC009 15/14 A2990 RMK AO2 SLP125 T01500139 401890089 TSNO $

2010/08/10 07:56
KNTU 100756Z 24004KT 9SM FEW200 23/22 A2997 RMK AO2 SLP151 T02330222 $

2010/08/10 07:56
KNUW 100756Z 24006KT 8SM FEW008 BKN012 OVC045 14/11 A2996 RMK AO2 SLP150 T01420111 401560128 $

2010/08/10 07:56
KNXP 100756Z AUTO 00000KT CLR 24/M01 A2993 RMK AO2 SLP095 T02391006 403720189 $

2010/08/10 07:56
KNYG 100756Z AUTO 22007KT 8SM CLR 26/21 A2995 RMK AO2 SLP143 T02560206 $

2010/08/10 07:55
KNYL 100755Z AUTO 24006KT 10SM CLR 28/00 A2975 RMK AO2 SLP071 T02830000

2010/08/10 07:55
KPOE 100755Z AUTO 00000KT 10SM CLR 26/24 A2992 RMK AO2 SLP131 T02560239

2010/08/10 07:55
KPSM 100755Z 23003KT 4SM BR SCT050 OVC120 21/21 A2987 RMK AO2A SLP116 P0000 T02110206

2010/08/10 07:55
KVBG 100755Z AUTO 00000KT 10SM OVC003 12/12 A2993 RMK AO2 SLP127 T01220117 TSNO CHINO RWY12 $

2010/08/10 07:56
KVPS 100756Z 01007KT 10SM SKC 26/24 A2990 RMK AO2A SLP127 T02600236 $

2010/08/10 07:56
K79J 100756Z AUTO 00000KT 7SM CLR 25/22 A2993 RMK AO2 SLP128 T02500222 TSNO PNO $

2010/08/10 07:55
KDMA 100755Z AUTO 18004KT 10SM CLR 27/17 A2995 RMK AO2 SLPNO T02650165 VISNO RWY12 CHINO RWY12 $

2010/08/10 07:56
KHLR 100756Z AUTO 15005KT 10SM CLR 28/23 A2993 RMK AO2 SLP125 T02830228 $

2010/08/10 07:55
KHOP 100755Z AUTO 22003KT 10SM CLR 26/25 A2996 RMK AO2 SLP141 T02570249

2010/08/10 07:56
KNCA 100756Z AUTO 00000KT 10SM 24/24 A3001 RMK AO2 SLP165 T02390239 $

2010/08/10 07:56
KNID 100756Z AUTO 00000KT CLR 24/06 A2984 RMK AO2 SLP083 T02390061 403610167 TSNO $

2010/08/10 07:56
KNJK 100756Z AUTO 36005KT 10SM CLR 27/M01 A2973 RMK AO2 SLP083 T02671011 404000183 TSNO

2010/08/10 07:56
KNRS 100756Z AUTO 00000KT 10SM OVC015 16/14 A2992 RMK AO2 SLP130 T01560144 402110106 TSNO

2010/08/10 07:56
KNSE 100756Z AUTO 36003KT 5SM HZ CLR 26/23 A2992 RMK AO2 SLP115 T02560228 $

2010/08/10 07:56
KNSE 100756Z AUTO 36003KT 5SM HZ CLR 26/23 A2992 RMK AO2 SLP115 T02560228 $

2010/08/10 07:56
KNUW 100756Z 24006KT 8SM FEW008 BKN012 OVC045 14/11 A2996 RMK AO2 SLP150 T01420111 401560128 $

2010/08/10 07:56
KNXP 100756Z AUTO 00000KT CLR 24/M01 A2993 RMK AO2 SLP095 T02391006 403720189 $

2010/08/10 07:55
KPSM 100755Z 23003KT 4SM BR SCT050 OVC120 21/21 A2987 RMK AO2A SLP116 P0000 T02110206

2010/08/10 08:00
ORER 100800Z VRB03KT CAVOK 43/04 Q1005 NOSIG

2010/08/10 08:00
TAPA 100800Z 08011KT 9999 BKN017 28/24 Q1013

2010/08/10 08:00
TFFR 100800Z VRB01KT 9999 SCT020 SCT050 25/24 Q1013 TEMPO 4000 SHRA

2010/08/10 07:50
ENHK 100750Z 30004KT 9999 FEW025 BKN050 13/09 Q1011

2010/08/10 07:58
HLLB 100758Z 30015KT 9999 BKN020 28/19 Q1013

2010/08/10 08:00
LWOH 100800Z 33007KT 300V010 CAVOK 24/14 Q1017

2010/08/10 07:50
EGVN 100750Z 22004KT 9999 FEW008 BKN070 13/11 Q1010 NOSIG

2010/08/10 08:00
UTTT 100800Z 01004MPS CAVOK 36/03 Q1008 R08R/CLRD70 NOSIG

2010/08/10 07:50
ENBL 100750Z VRB02KT 9999 FEW014 SCT030 BKN035 14/11 Q1009

2010/08/10 07:58
CYEK 100758Z AUTO 27005KT 1 3/8SM CLR 08/08 A3008 RMK VSBY VRBL 0.4V9.+

2010/08/10 08:00
LZKC 100800Z 31001KT 9999 SCT027 22/17 Q1017

2010/08/10 08:00
LZLU 100800Z VRB01KT 9999 FEW030 21/16 Q1018

2010/08/10 08:00
LZNI 100800Z VRB01KT 9999 FEW025 22/16 Q1018

2010/08/10 07:53
KRYT 100753Z AUTO 23003KT 10SM CLR 23/19 A2995 RMK AO2 SLP124 T02280194 $ 

2010/08/10 07:57
KMTC 100757Z AUTO 00000KT 1/2SM R19/0700V5500FT DZ FG CLR 20/20 A2994 RMK AO2 SLP144 $

2010/08/10 07:59
KMTC 100759Z AUTO 00000KT 1/2SM R19/0700V4000FT DZ FG CLR 20/20 A2994 RMK AO2 SLP144 $

2010/08/10 07:57
CYCX 100757Z AUTO 31002KT 3/8SM 16/16 A2980

2010/08/10 07:57
CYFC 100757Z AUTO 00000KT 1/8SM FG VV002 17/17 A2980 RMK SLP093 DENSITY ALT 400FT RVR MISG

2010/08/10 07:56
CYUA 100756Z AUTO 27008KT 9SM BKN001 11/ A2966

2010/08/10 07:57
CYZE 100757Z AUTO 34003KT 2 1/2SM BR CLR 17/17 A2993 RMK SLP138 DENSITY ALT 1000FT

2010/08/10 07:55
CZUM 100755Z AUTO 28003KT 9SM SCT014 BKN020 BKN054 BKN074 10/09 A2966

2010/08/10 07:56
EGUN 100756Z AUTO 27009KT 9999 -RA BKN046 BKN065 13/13 A2983 RMK AO2 SLP091

2010/08/10 07:57
EHLW 100757Z AUTO 20010KT 9999NDV SCT017 BKN025 18/15 Q1012 WHT BLU TEMPO WHT FEW023 TEMPO SCT018

2010/08/10 07:59
KMTC 100759Z AUTO 00000KT 1/2SM R19/0700V4000FT DZ FG CLR 20/20 A2994 RMK AO2 SLP144 $

2010/08/10 07:55
TXKF 100755Z 17007KT 9999 FEW015 FEW180 SCT300 27/23 Q1020

2010/08/10 07:55
TXKF 100755Z 17007KT 9999 FEW015 FEW180 SCT300 27/23 Q1020 /

2010/08/10 07:56
KHLR 100756Z AUTO 15005KT 10SM CLR 28/23 A2993 RMK AO2 SLP125 T02830228 $

2010/08/10 07:54
PGSN 100754Z 06008KT 10SM SCT019 28/24 A2991 RMK AO2 SLP126 T02830244

2010/08/10 07:55
PGUA 100755Z AUTO 07008KT 10SM SCT018 SCT025 SCT035 27/24 A2991 RMK AO2 SLP110 T02680244 $

2010/08/10 07:54
PGUM 100754Z 09005KT 10SM TS SCT040CB 28/24 A2990 RMK AO2 TSB47 SLP118 TS DSNT W MOV NW CB SW-W MOV W T02830239

2010/08/10 07:55
PHHI 100755Z AUTO 10011KT 10SM BKN048 24/17 A3012 RMK AO2 SLP188 T02350167 $

2010/08/10 07:54
PHMK 100754Z AUTO 05011G21KT 10SM FEW044 24/19 A3011 RMK AO2 RAB22E32 SLP198 P0000 T02390189 TSNO

2010/08/10 07:54
PHOG 100754Z 04010KT 10SM FEW055 25/18 A3011 RMK AO2 SLP199 T02500178 $

2010/08/10 07:51
PTKK 100751Z VRB05KT 15SM FEW014 SCT120 OVC280 28/24 A2984 RMK SLP108 T02800238

2010/08/10 07:55
RJTY 100755Z AUTO 18010KT 9999 FEW022 28/24 A3000 RMK AO2 SLP151 T02820239 $

2010/08/10 07:55
RODN 100755Z 19009KT 9999 -RA BKN018 BKN023 OVC150 29/26 A2981 RMK AO2A RAB0752 CIG 017V022 SLP092 P0000 T02930262

2010/08/10 07:56
KFLL 100756Z 15013G18KT 10SM -RA BKN022 BKN030 BKN040 27/24 A2988 RMK AO2 P0000

2010/08/10 07:50
KQEI 100750Z AUTO 35002KT 7SM FEW018 FEW055 BKN070 27/23 A2993 RMK A02

2010/08/10 07:50
KQEJ 100750Z AUTO 33001KT 7SM -RA OVC010 27/23 A2991 RMK A02

2010/08/10 07:50
KQEP 100750Z AUTO 17003KT 4SM -SHRA OVC055 28/24 A2980 RMK A02

2010/08/10 07:50
KQEQ 100750Z AUTO 11009KT 7SM RA BKN014 BKN050 26/23 A2975 RMK A02

2010/08/10 07:50
KQER 100750Z AUTO 22001KT 7SM FEW029 BKN060 27/23 A2986 RMK A02

2010/08/10 07:50
KQEW 100750Z AUTO 34001KT 7SM -RA BKN005 26/24 A2981 RMK A02

2010/08/10 07:50
KQEX 100750Z AUTO 08003KT 7SM FEW008 BKN070 27/24 A2972 RMK A02

2010/08/10 07:50
KQFB 100750Z AUTO 10003KT 7SM FEW075 29/22 A2988 RMK A02

2010/08/10 07:50
KQFU 100750Z AUTO 23002KT 2SM +RA CLR 26/24 A2986 RMK A02

2010/08/10 07:50
KQFW 100750Z AUTO 15001KT 7SM OVC015 28/24 A2987 RMK A02

2010/08/10 07:55
KQA4 100755Z AUTO 35012G20KT 7000 HZ FEW180 37/M02 A2981 RMK AO2 SLP999 T03701016

2010/08/10 07:55
KQDM 100755Z AUTO 33003KT 11SM SCT065 BKN100 27/03 A3013 RMK AO2 LTG DSNT SE SLP082 T02720026 PWINO $

2010/08/10 07:55
KQTO 100755Z 30006KT 9999 FEW080 45/05 A2959 RMK SLP018

2010/08/10 07:55
KQXJ 100755Z 34013G20KT 9999 SKC 47/01 A2952 RMK SLP999 PA+392 DA+4041

2010/08/10 07:55
KQYU 100755Z AUTO 04013G24KT 010V070 9999 FEW180 33/M01 A2990 RMK AO2 SLP045 T03291013

2010/08/10 07:50
OAKN 100750Z 25004KT 8000 DU BKN150 OVC250 37/01 Q1008 BLU TEMPO 6000 WHT RMK A2975 DA6700

2010/08/10 07:56
KBIH 100756Z AUTO 22007KT 10SM CLR 21/M10 A2996 RMK AO2 SLP090 T02061100 403280083 TSNO 

2010/08/10 08:00
OYAT 100800Z 13010KT CAVOK 33/15 Q1003

2010/08/10 08:00
GOOY 100800Z 31002KT 9999 FEW013 BKN230 26/22 Q1013 NOSIG

2010/08/10 08:00
LWOH 100800Z 33007KT 300V010 9999 FEW050 24/14 Q1017

2010/08/10 08:00
OEDF 100800Z 12007KT 090V150 5000 DU SKC 41/17 Q0999 NOSIG

2010/08/10 08:00
OEDR 100800Z 15007KT 5000 HZ NSC 39/24 Q0998 NOSIG

2010/08/10 08:00
OEJN 100800Z 18006KT CAVOK 36/25 Q1003 NOSIG

2010/08/10 08:00
OEMA 100800Z 11007KT 7000 NSC 41/01 Q1007 NOSIG

2010/08/10 08:00
OERK 100800Z 20013KT 8000 SKC 41/00 Q1006 NOSIG

2010/08/10 07:59
KFSO 100759Z AUTO 15003KT 5SM BR SCT014 17/17 A2991 RMK AO2

2010/08/10 07:55
KFSW 100755Z AUTO 00000KT 4SM CLR 27/25 A2989 RMK AO2

2010/08/10 07:55
KFXY 100755Z AUTO 10004KT 10SM CLR 23/22 A2993 RMK AO2

2010/08/10 07:57
KGGI 100757Z AUTO 00000KT 1 1/2SM +RA 23/22 A3000 RMK AO2 P0012

2010/08/10 07:55
KGOV 100755Z AUTO 00000KT 3/4SM BR OVC001 20/20 A3000 RMK AO2

2010/08/10 07:54
KGYL 100754Z AUTO 00000KT 10SM CLR 22/20 A2992 RMK AO2 T02160200

2010/08/10 07:55
KHAF 100755Z AUTO 00000KT 4SM BR OVC003 11/11 A2994 RMK AO2

2010/08/10 07:55
KHAI 100755Z AUTO 00000KT 3/4SM BR VV005 20/20 A2997 RMK AO2 VIS 1/4V5

2010/08/10 07:52
KHCD 100752Z AUTO 10003KT 10SM CLR 22/21 A2992 RMK AO2 T02210208

2010/08/10 07:54
KHCO 100754Z AUTO 18006KT 10SM CLR 22/22 A2991 RMK AO2

2010/08/10 07:55
KHNR 100755Z AUTO 14004KT 7SM CLR 25/25 A2990 RMK AO2

2010/08/10 07:55
KHRT 100755Z 35004KT 10SM CLR 25/24 A2989 RMK AO2A SLP124 T02520244 $

2010/08/10 07:55
KHYX 100755Z AUTO 32003KT 7SM CLR 21/20 A2995 RMK AO2

2010/08/10 07:51
KHZX 100751Z AUTO 00000KT 10SM CLR 18/17 A2997 RMK AO2

2010/08/10 07:55
KI75 100755Z AUTO 03010KT 10SM SCT007 BKN027 OVC033 23/20 A2994 RMK AO2

2010/08/10 07:55
KICL 100755Z AUTO 00000KT 10SM CLR 25/22 A2987 RMK AO2

2010/08/10 07:46
KIIB 100746Z AUTO 08003KT 7SM CLR 23/23 A2994 RMK AO1

2010/08/10 07:55
KIKV 100755Z AUTO 20007KT 10SM SCT021 SCT047 BKN095 22/21 A2988 RMK AO2 P0015

2010/08/10 07:54
KIKW 100754Z AUTO 00000KT 4SM BR CLR 21/20 A2995 RMK AO2 T02070195

2010/08/10 07:55
KIRS 100755Z AUTO 00000KT 4SM BR CLR 21/19 A2997 RMK AO2

2010/08/10 07:55
KISQ 100755Z AUTO 00000KT 1/2SM FG VV005 19/18 A2997 RMK AO2

2010/08/10 07:54
KJKJ 100754Z AUTO 00000KT 10SM CLR 22/21 A2989 RMK AO2

2010/08/10 07:55
KJMR 100755Z AUTO 00000KT 1/2SM FG VV005 18/18 A2997 RMK AO2

2010/08/10 07:55
KJYG 100755Z AUTO 09004KT 10SM CLR 24/24 A2991 RMK AO2

2010/08/10 07:55
KJYM 100755Z AUTO 00000KT M1/4SM FG OVC001 19/18 A2999 RMK AO2

2010/08/10 07:55
KLDM 100755Z AUTO 00000KT 1/4SM FG OVC001 21/20 A2996 RMK AO2

2010/08/10 07:53
K29G 100753Z AUTO 25003KT 10SM SCT042 OVC065 23/19 A2997 RMK AO2 T02340190 PWINO

2010/08/10 07:56
K4I3 100756Z AUTO 26003KT 7SM SCT085 23/20 A2998 RMK AO2

2010/08/10 07:55
KACB 100755Z AUTO 00000KT 1/2SM FG OVC001 22/22 A2997 RMK AO2

2010/08/10 07:58
KACQ 100758Z AUTO 10005KT 7SM CLR 22/21 A2994 RMK AO2

2010/08/10 07:57
KADC 100757Z AUTO 00000KT 10SM CLR 17/17 A2995 RMK AO2

2010/08/10 07:50
KAEL 100750Z AUTO 11004KT 10SM BKN033 23/22 A2993 RMK AO2 LTG DSNT SE

2010/08/10 07:54
KAMN 100754Z AUTO 00000KT 1/4SM FG OVC001 18/18 A2995 RMK AO2

2010/08/10 07:55
KANE 100755Z AUTO 00000KT 10SM CLR 22/21 A2994 RMK AO2

2010/08/10 07:53
KAQP 100753Z AUTO 12006KT 10SM CLR 22/22 A2987 RMK AO2

2010/08/10 07:55
KAUM 100755Z AUTO 14003KT 10SM CLR 22/22 A2994 RMK AO2

2010/08/10 08:05
KBAX 100805Z AUTO 00000KT 2 1/2SM BR OVC004 21/21 A2995 RMK AO2

2010/08/10 07:55
KBDH 100755Z AUTO 12005KT 7SM CLR 23/22 A2992 RMK AO2

2010/08/10 07:53
KBFW 100753Z AUTO 00000KT 10SM CLR 17/16 A2996 RMK AO2

2010/08/10 07:54
KCAD 100754Z AUTO 00000KT 1SM BR VV007 18/17 A2999 RMK AO2

2010/08/10 07:55
KCBG 100755Z AUTO 00000KT 10SM CLR 19/17 A2994 RMK AO2

2010/08/10 07:54
KCDA 100754Z AUTO 00000KT M1/4SM FG OVC002 16/15 A2996 RMK AO2

2010/08/10 07:52
KCDD 100752Z AUTO 00000KT 5SM BR CLR 19/19 A2997 RMK AO2

2010/08/10 08:03
KCFE 100803Z AUTO 00000KT 10SM CLR 21/20 A2994 RMK AO2 T02110199

2010/08/10 07:55
KCFS 100755Z AUTO 29003KT 4SM BR CLR 21/20 A2995 RMK AO2

2010/08/10 07:55
KCKC 100755Z AUTO 00000KT 10SM CLR 16/13 A3002 RMK AO2

2010/08/10 07:55
KCKN 100755Z AUTO 16005KT 10SM CLR 20/19 A2991 RMK AO2

2010/08/10 07:55
KCKP 100755Z AUTO 12007KT 7SM BKN024 BKN034 OVC070 25/24 A2986 RMK AO2

2010/08/10 07:54
KCNB 100754Z AUTO 06003KT 1/2SM FG BKN002 OVC036 22/21 A2988 RMK AO2 T02180213

2010/08/10 07:56
KCOQ 100756Z AUTO 00000KT 7SM CLR 19/17 A2997 RMK AO2

2010/08/10 07:57
KCQM 100757Z AUTO 00000KT 10SM CLR 18/17 A2997 RMK AO2

2010/08/10 07:50
KCVH 100750Z AUTO 00000KT 10SM OVC005 13/12 A2993 RMK AO1

2010/08/10 07:55
KCVX 100755Z AUTO 26003KT 4SM BR BKN007 22/21 A2998 RMK AO2

2010/08/10 07:55
KDMA 100755Z AUTO 18004KT 10SM CLR 27/17 A2995 RMK AO2 SLPNO T02650165 VISNO RWY12 CHINO RWY12 $

2010/08/10 07:55
KDNS 100755Z AUTO 08004KT 5SM HZ CLR 27/23 A2990 RMK AO2

2010/08/10 07:57
KDRM 100757Z AUTO 00000KT 3/4SM BR BKN001 BKN008 17/17 A2995 RMK AO2

2010/08/10 07:55
K4M9 100755Z AUTO 11003KT 8SM 26/25 A2993 RMK AO2

2010/08/10 07:55
KAWG 100755Z AUTO 29015G22KT 10SM -RA SCT010 BKN030 OVC040 25/21 A2993 RMK AO2

2010/08/10 07:55
KAXA 100755Z AUTO 12005KT 5SM SCT005 BKN046 25/25 A2990 RMK AO2

2010/08/10 07:55
KBNW 100755Z AUTO 29010KT 10SM SCT021 SCT070 SCT085 24/21 A2992 RMK AO2 P0010

2010/08/10 07:55
KCAV 100755Z AUTO 16004KT 4SM SCT005 SCT049 BKN090 27/25 A2994 RMK AO2

2010/08/10 07:55
KCBF 100755Z AUTO 17003KT 10SM CLR 27/22 A2985 RMK AO2

2010/08/10 07:55
KCNC 100755Z AUTO 02014KT 10SM SCT016 OVC028 23/20 A2996 RMK AO2

2010/08/10 07:55
KCSQ 100755Z AUTO 09005KT 7SM SCT080 26/25 A2990 RMK AO2

2010/08/10 07:55
KDEH 100755Z AUTO 00000KT 3 1/2SM CLR 24/22 A2997 RMK AO2

2010/08/10 07:55
KLNL 100755Z AUTO 00000KT 3SM BR CLR 13/13 A3003 RMK AO2 T01330127

2010/08/10 07:55
KLUM 100755Z AUTO 00000KT 7SM CLR 21/20 A2996 RMK AO2

2010/08/10 07:55
KMAN 100755Z AUTO 19009KT 10SM CLR 19/13 A2983 RMK AO1

2010/08/10 07:55
KMCJ 100755Z AUTO 27004KT 10SM CLR 28/25 A2988 RMK AO1

2010/08/10 07:55
KMDZ 100755Z AUTO 00000KT 4SM BR CLR 18/17 A3000 RMK AO2

2010/08/10 07:58
KMEI 100758Z AUTO 00000KT 6SM BR CLR 24/24 A2995 RMK AO2 SLP138 T02440239

2010/08/10 07:55
KMRJ 100755Z AUTO 00000KT 5SM BR CLR 24/22 A2995 RMK AO2 T02370219

2010/08/10 07:55
KMWC 100755Z AUTO 00000KT 4SM BR CLR 20/19 A2995 RMK AO2

2010/08/10 07:55
KOEO 100755Z AUTO 00000KT 4SM BR CLR 20/19 A2996 RMK AO2

2010/08/10 07:55
KPBH 100755Z AUTO 00000KT 5SM BR CLR 19/18 A3001 RMK AO2

2010/08/10 07:55
KPCZ 100755Z AUTO 00000KT 4SM BR CLR 20/19 A2996 RMK AO2 T01980188

2010/08/10 07:52
KPDC 100752Z AUTO 00000KT 1 1/2SM BR OVC001 25/24 A2992 RMK AO2 VIS 3/4V5 T02450235

2010/08/10 07:55
KRCX 100755Z AUTO 00000KT 10SM CLR 19/18 A3000 RMK AO2 T01910179

2010/08/10 07:56
KRNH 100756Z AUTO 00000KT 5SM BR CLR 20/19 A2996 RMK AO2 T01970190

2010/08/10 07:55
KRPD 100755Z AUTO 00000KT 1/2SM FG VV005 20/19 A2999 RMK AO2 T01950192

2010/08/10 07:55
KRRL 100755Z AUTO 00000KT 2 1/2SM BR CLR 16/15 A3001 RMK AO2 T01560152

2010/08/10 07:55
KRYV 100755Z AUTO 00000KT 2 1/2SM BR CLR 22/20 A2994 RMK AO2

2010/08/10 07:55
KSNC 100755Z AUTO 32003KT 10SM CLR 22/22 A2994 RMK AO2

2010/08/10 07:55
KSTE 100755Z AUTO 00000KT 10SM CLR 19/18 A2998 RMK AO2

2010/08/10 07:56
KY50 100756Z AUTO 00000KT 3SM BR FEW014 19/19 A2995 RMK AO2 T01940194 RAB11E20 P0000 SLP133

2010/08/10 08:01
PADM 100801Z AUTO 16014G21KT 3SM -RA BR BKN016 OVC022 09/08 A2948 RMK AO2 TSNO T00940083 P0004 SLP969 $

2010/08/10 07:58
PADU 100758Z AUTO 23021G29KT 10SM SCT047 11/07 A2966 RMK AO2 PK WND 22029/0749 SLP050 T01110067

2010/08/10 07:58
PAGA 100758Z AUTO 12007KT 10SM BKN029 OVC036 14/10 A2956 RMK AO2 SLPNO T01440100

2010/08/10 07:56
PAJZ 100756Z AUTO 15007KT 1 1/4SM BR BKN003 OVC008 10/09 A2967 RMK AO2 PWINO TSNO T01000094 CIG 001V006 SLP036 $

2010/08/10 07:56
PAKI 100756Z AUTO 19014KT 2SM +RA BR OVC008 09/09 A2939 RMK AO2 TSNO T00940094 CIG 005V011 P0000 SLP954 $

2010/08/10 07:56
PALG 100756Z AUTO 00000KT 10SM OVC036 11/09 A2949 RMK AO2 TSNO T01110088 RAB04E14 P0000 SLP990 $

2010/08/10 07:58
PATE 100758Z AUTO 05005KT 10SM OVC080 13/11 A2943 RMK AO2 SLP976 T01280106

2010/08/10 07:55
KEOK 100755Z AUTO 00000KT 3SM HZ CLR 27/23 A2989 RMK AO2

2010/08/10 07:55
KERY 100755Z AUTO 00000KT M1/4SM FG OVC002 18/18 A2999 RMK AO2

2010/08/10 07:54
KETH 100754Z AUTO 12005KT 7SM CLR 19/18 A2991 RMK AO2

2010/08/10 07:52
KEVM 100752Z AUTO 00000KT 1/4SM FG OVC001 17/16 A2996 RMK AO1

2010/08/10 07:54
KFBL 100754Z AUTO 00000KT 2 1/2SM BR CLR 19/18 A2994 RMK AO2 LTG DSNT S

2010/08/10 07:55
KFFL 100755Z AUTO 29005KT 10SM SCT028 BKN049 BKN060 24/23 A2992 RMK AO2

2010/08/10 07:55
KFFX 100755Z AUTO 00000KT 1/4SM FG OVC002 20/20 A2997 RMK AO2

2010/08/10 08:01
KFKA 100801Z AUTO 00000KT 10SM CLR 24/23 A2996 RMK AO2 LTG DSNT SW T02360230

2010/08/10 07:54
KFKS 100754Z AUTO 00000KT 7SM SCT001 SCT010 20/18 A2995 RMK AO2

2010/08/10 07:53
KFOZ 100753Z AUTO 00000KT 4SM BR CLR 19/18 A2998 RMK AO2

2010/08/10 07:56
KFPK 100756Z AUTO 00000KT 1/4SM FG VV002 18/18 A2996 RMK AO2

2010/08/10 07:56
KFSD 100756Z 11007KT 10SM FEW025 BKN038 25/23 A2986 RMK AO2 SLP099 T02500233 $

2010/08/10 07:54
KFSE 100754Z AUTO 15003KT 10SM CLR 19/17 A2993 RMK AO2

2010/08/10 07:55
KDTL 100755Z AUTO 14004KT 10SM CLR 22/18 A2995 RMK AO2

2010/08/10 07:54
KDUH 100754Z AUTO 00000KT 1/4SM FG VV002 21/19 A2996 RMK AO2

2010/08/10 07:56
KDVP 100756Z AUTO 10006KT 5SM BR BKN008 23/22 A2991 RMK AO2 T02310220

2010/08/10 07:54
KDXX 100754Z AUTO 10003KT 7SM CLR 23/23 A2986 RMK AO2

2010/08/10 07:54
KDYT 100754Z AUTO 00000KT 10SM CLR 23/21 A2994 RMK AO2

2010/08/10 07:55
KEBS 100755Z AUTO 18005KT 4SM -RA BKN011 BKN060 OVC110 26/25 A2995 RMK AO2

2010/08/10 07:55
KEFK 100755Z AUTO 22003KT 1/4SM FG OVC001 14/13 A2995 RMK AO2

2010/08/10 07:53
KELO 100753Z AUTO 00000KT 10SM CLR 18/17 A2997 RMK AO2

2010/08/10 07:55
KLFI 100755Z 22005KT 10SM CLR 26/23 A2997 RMK AO2A SLP149 T02550229

2010/08/10 07:53
KLJF 100753Z AUTO 00000KT 10SM CLR 22/21 A2993 RMK AO2

2010/08/10 07:55
KLRJ 100755Z AUTO 00000KT 7SM SCT007 SCT047 SCT060 25/23 A2985 RMK AO2

2010/08/10 07:54
KLVN 100754Z AUTO 00000KT M1/4SM FG OVC001 18/18 A2994 RMK AO2

2010/08/10 07:56
KLWA 100756Z AUTO 00000KT 4SM BR CLR 20/19 A2996 RMK AO2

2010/08/10 07:54
KLXL 100754Z AUTO 00000KT 5SM BR CLR 18/17 A2993 RMK AO2

2010/08/10 07:58
KLYV 100758Z AUTO 12004KT 7SM BKN040 24/22 A2987 RMK AO2 LTG DSNT W

2010/08/10 07:55
KMCD 100755Z AUTO 00000KT 1/4SM HZ OVC002 21/18 A2998 RMK AO2

2010/08/10 07:55
KMCF 100755Z AUTO 07007KT 10SM CLR 26/25 A2988 RMK AO2 SLP119 T02560247

2010/08/10 07:55
KMGN 100755Z AUTO 00000KT 5SM BR BKN009 23/21 A2997 RMK AO2

2010/08/10 07:52
KMJQ 100752Z AUTO 11006KT 7SM CLR 23/22 A2991 RMK AO2

2010/08/10 07:55
KMOP 100755Z AUTO 00000KT 4SM BR CLR 21/21 A2996 RMK AO2

2010/08/10 07:56
KMPZ 100756Z AUTO 00000KT 7SM SCT100 25/23 A2990 RMK AO2

2010/08/10 07:53
KMRT 100753Z AUTO 26005KT 7SM CLR 23/20 A3000 RMK AO2 T02250201

2010/08/10 07:55
KMUT 100755Z AUTO 00000KT 7SM CLR 25/23 A2989 RMK AO2

2010/08/10 07:54
KMVE 100754Z AUTO 13004KT 7SM CLR 23/22 A2987 RMK AO2

2010/08/10 07:55
KMXO 100755Z AUTO 00000KT 4SM CLR 23/21 A2993 RMK AO2

2010/08/10 07:51
KMZH 100751Z AUTO 00000KT 1/2SM FG OVC001 18/17 A2995 RMK AO2

2010/08/10 07:55
KNBG 100755Z AUTO 00000KT 4SM HZ CLR A2992 RMK AO2 SLP132 PWINO FZRANO $

2010/08/10 07:55
KOEB 100755Z AUTO 00000KT 1 1/4SM BR BKN001 21/19 A2998 RMK AO2

2010/08/10 07:51
KONA 100751Z AUTO 00000KT 1/4SM FG OVC001 23/22 A2993 RMK AO2

2010/08/10 07:54
KONZ 100754Z AUTO 00000KT 1/4SM FG OVC001 22/21 A2994 RMK AO2

2010/08/10 07:54
KORB 100754Z AUTO 00000KT 10SM CLR 21/19 A2994 RMK AO2

2010/08/10 07:55
KORC 100755Z AUTO 07005KT 7SM SCT005 SCT020 BKN070 25/25 A2986 RMK AO2 P0009

2010/08/10 07:56
KOSC 100756Z AUTO 32004KT 1 1/2SM BR OVC001 21/19 A2996 RMK AO2

2010/08/10 07:54
KOVL 100754Z AUTO 09006KT 10SM CLR 22/20 A2989 RMK AO2 T02230201

2010/08/10 07:54
KOWA 100754Z AUTO 10003KT 7SM CLR 21/20 A2991 RMK AO2 LTG DSNT S

2010/08/10 07:55
KOZW 100755Z AUTO 00000KT 3/4SM BR VV005 20/20 A2996 RMK AO2 VIS 1/4V2

2010/08/10 07:55
KPEA 100755Z AUTO 2SM +RA BKN006 OVC011 A2998 RMK AO2

2010/08/10 07:53
KPEX 100753Z AUTO 10003KT 10SM CLR 23/21 A2994 RMK AO2 T02270211

2010/08/10 07:55
KPHN 100755Z AUTO 00000KT 1/4SM FG OVC001 17/17 A2995 RMK AO2

2010/08/10 07:54
KPZQ 100754Z AUTO 26004KT 5SM BR SCT001 SCT017 19/18 A2997 RMK AO2

2010/08/10 07:55
KRDK 100755Z AUTO 00000KT 10SM SCT090 27/23 A2985 RMK AO2

2010/08/10 07:55
KRGK 100755Z AUTO 00000KT 4SM BR CLR 21/20 A2993 RMK AO2

2010/08/10 07:55
KRMY 100755Z AUTO 00000KT M1/4SM FG BKN001 OVC009 20/19 A2997 RMK AO2

2010/08/10 07:55
KRNP 100755Z AUTO 00000KT 1/4SM FG VV002 19/19 A2996 RMK AO2

2010/08/10 07:54
KROS 100754Z AUTO 00000KT 10SM CLR 20/19 A2995 RMK AO2 T01960190

2010/08/10 07:55
KROX 100755Z AUTO 20007KT 10SM CLR 22/21 A2991 RMK AO2

2010/08/10 07:55
KRQB 100755Z AUTO 00000KT M1/4SM FG OVC001 19/19 A2998 RMK AO2

2010/08/10 07:54
KRRT 100754Z AUTO 21005KT 10SM CLR 23/21 A2991 RMK AO2 TSNO

2010/08/10 07:54
KSAZ 100754Z AUTO 00000KT 10SM CLR 20/20 A2995 RMK AO2

2010/08/10 07:54
KSBN 100754Z 04004KT 5SM BR CLR 21/20 A2996 RMK AO2 SLP141 T02110200

2010/08/10 07:55
KSDA 100755Z AUTO 00000KT 10SM CLR 26/22 A2986 RMK AO2

2010/08/10 07:53
KSGS 100753Z AUTO 00000KT 10SM CLR 24/22 A2993 RMK AO2 T02370216

2010/08/10 07:55
KSHL 100755Z AUTO 12004KT 5SM BKN023 BKN029 25/24 A2989 RMK AO2

2010/08/10 07:58
KBRD 100758Z AUTO 00000KT 1/4SM FG VV001 20/18 A2995 RMK AO2

2010/08/10 07:58
KSYR 100758Z 00000KT 4SM BR FEW020 SCT028 OVC046 21/21 A2994 RMK AO2

2010/08/10 07:59
KEKN 100759Z AUTO 00000KT 2SM BR BKN001 OVC006 17/17 A3008 RMK AO2 TSNO

2010/08/10 07:59
KENW 100759Z AUTO 00000KT 3SM BR CLR 20/19 A2995 RMK AO2

2010/08/10 07:59
KVTN 100759Z AUTO 02010KT 8SM -RA OVC043 19/19 A2991 RMK AO2 LTG DSNT NE AND E TSE53 PRESFR P0000

2010/08/10 07:55
KSJX 100755Z AUTO 00000KT 1 3/4SM BR OVC002 22/21 A2997 RMK AO2

2010/08/10 07:55
KSLH 100755Z AUTO 23003KT 1/4SM FG OVC001 21/20 A2996 RMK AO2

2010/08/10 07:55
KSUW 100755Z AUTO 00000KT 5SM BR CLR 21/19 A2993 RMK AO2

2010/08/10 07:55
KSYN 100755Z AUTO 00000KT 3SM BR 20/19 A2993 RMK AO2 SKY OBSCURED T02020192

2010/08/10 07:53
KTEW 100753Z AUTO 00000KT 1 1/2SM BR BKN001 18/18 A2997 RMK AO2

2010/08/10 07:53
KTKC 100753Z AUTO 00000KT 10SM OVC040 23/22 A2990 RMK AO2 LTG DSNT SW T02320218

2010/08/10 07:55
KTKV 100755Z AUTO 00000KT 3/4SM BR VV005 14/13 A3001 RMK AO2 T01370129

2010/08/10 07:55
KTNU 100755Z AUTO 14005KT 10SM -RA SCT017 BKN065 OVC080 23/18 A2992 RMK AO2 P0028

2010/08/10 07:55
KTOB 100755Z AUTO 13004KT 1/2SM FG VV005 22/21 A2995 RMK AO2

2010/08/10 07:53
KTTF 100753Z AUTO 00000KT 1/4SM FG OVC001 21/21 A2994 RMK AO2

2010/08/10 07:55
KTVK 100755Z AUTO 3SM CLR 25/25 A2993 RMK AO2

2010/08/10 07:55
KUES 100755Z AUTO 00000KT 7SM CLR 20/19 A2996 RMK AO2 T01980187

2010/08/10 07:50
KUKT 100750Z AUTO 00000KT 10SM CLR 24/20 A2995 RMK AO1

2010/08/10 07:55
KUNU 100755Z AUTO 35004KT 4SM BR CLR 22/21 A2995 RMK AO2 T02160205

2010/08/10 07:54
KVLL 100754Z AUTO 00000KT 5SM BR CLR 22/20 A2998 RMK AO2

2010/08/10 07:55
KVTI 100755Z AUTO 00000KT 5SM CLR 23/23 A2993 RMK AO2

2010/08/10 07:56
KVVV 100756Z AUTO 12006KT 10SM CLR 24/22 A2986 RMK AO2

2010/08/10 07:49
KVWU 100749Z AUTO 00000KT 10SM CLR 19/18 A2994 RMK AO2

2010/08/10 07:56
KXVG 100756Z AUTO 00000KT 3SM BR SCT001 17/17 A2994 RMK AO2

2010/08/10 07:55
KY70 100755Z AUTO 33003KT 1 1/2SM BR VV007 21/20 A2996 RMK AO2 T02060199

2010/08/10 08:00
SBSN 100800Z 00000KT CAVOK 23/22 Q1012

2010/08/10 08:00
SBLO 100800Z 12006KT CAVOK 12/10 Q1021

2010/08/10 08:00
SBRP 100800Z 12006KT CAVOK 15/12 Q1020

2010/08/10 08:00
SBTE 100800Z 00000KT CAVOK 22/20 Q1013

2010/08/10 08:00
SAEZ 100800Z 00000KT 8000 03/03 Q1028

2010/08/10 08:00
UTTT 100800Z 01004MPS CAVOK 36/03 Q1008 R08R/CLRD70 NOSIG

2010/08/10 08:00
SBCZ 100800Z 00000KT 8000 NSC 19/19 Q1013

2010/08/10 08:00
LQBK 100800Z 09002KT 9999 FEW027 22/18 Q1017 NOSIG

2010/08/10 08:00
SBMQ 100800Z 33003KT 9999 SCT015 SCT090 25/24 Q1013

2010/08/10 08:00
SBJP 100800Z 23006KT 9999 BKN020 BKN070 23/21 Q1016 

2010/08/10 07:57
EHLW 100757Z AUTO 20010KT 9999NDV SCT017 BKN025 18/15 Q1012 WHT BLU TEMPO WHT FEW023 TEMPO SCT018

2010/08/10 07:56
EGUN 100756Z AUTO 27009KT 9999 -RA BKN046 BKN065 13/13 A2983 RMK AO2 SLP091

2010/08/10 08:00
LDLO 100800Z 02007KT CAVOK 28/17 Q1015

2010/08/10 08:00
LDSB 100800Z 03004KT CAVOK 25/11 Q1015

2010/08/10 07:54
KWAL 100754Z AUTO 24005KT 10SM CLR 24/22 A2996 RMK AO2 SLP143 T02390217 TSNO 

2010/08/10 08:00
GQNN 100800Z VRB02KT 8000 FEW013 BKN120 26/20 Q1013 NOSIG

2010/08/10 08:00
YSRI 100800Z AUTO 00000KT 3900NDV // SCT011 OVC018 12/12 Q1013

2010/08/10 08:00
YSRI 100800Z AUTO 00000KT 3900NDV // SCT011 OVC018 12/12 Q1013

2010/08/10 07:56
KMEH 100756Z AUTO 00000KT 10SM CLR 07/04 A2995 RMK AO2 SLP127 T00720039 402440033 TSNO 

2010/08/10 07:59
KNGU 100759Z 21005KT 10SM CLR 26/23 A2998 RMK AO2 SLP152 T02610233 

2010/08/10 08:00
TFFF 100800Z AUTO 00000KT 9999NDV NCD 25/24 Q1012

2010/08/10 08:00
NWWW 100800Z AUTO 14006KT 100V170 9999NDV NCD 20/14 Q1023

2010/08/10 07:50
EGBE 100750Z 22007KT 9999 -RA SCT012 16/14 Q1009

2010/08/10 08:00
LBSF 100800Z 27003MPS 240V310 CAVOK 24/16 Q1017 NOSIG

2010/08/10 08:00
LBWN 100800Z 31004MPS 280V020 CAVOK 28/22 Q1011 WS RWY09 NOSIG

2010/08/10 08:00
LBBG 100800Z 35007MPS CAVOK 29/21 Q1011 NOSIG

2010/08/10 08:00
LBPD 100800Z 29007MPS 260V330 CAVOK 27/18 Q1014 NOSIG

2010/08/10 08:00
LBGO 100800Z 29004MPS 240V320 CAVOK 26/19 Q1015 NOSIG

2010/08/10 08:00
OPKC 100800Z 24007KT 7000 SCT020 SCT030 32/25 Q1003 NOSIG

2010/08/10 07:50
EGPU 100750Z 03006KT 360V060 9999 SCT016 13/10 Q1002

2010/08/10 08:00
SVMI 100800Z 00000KT 9999 FEW016 28/24 Q1011 NOSIG

2010/08/10 08:00
LDSP 100800Z VRB03KT CAVOK 29/12 Q1014 NOSIG 

2010/08/10 08:00
LDPL 100800Z VRB01KT CAVOK 28/16 Q1015 NOSIG 

2010/08/10 08:00
LDDU 100800Z 02010KT 340V070 CAVOK 30/09 Q1014 NOSIG 

2010/08/10 08:00
LDZA 100800Z VRB02KT 9999 FEW020 23/17 Q1018 NOSIG 

2010/08/10 08:00
LDZD 100800Z VRB05KT CAVOK 28/15 Q1014 NOSIG 

2010/08/10 08:00
LDRI 100800Z 26003KT 210V320 CAVOK 27/16 Q1015

2010/08/10 08:00
LDOS 100800Z VRB03KT CAVOK 24/16 Q1018

2010/08/10 08:00
LUKK 100800Z 02010KT CAVOK 29/17 Q1013 08CLRD65 NOSIG

2010/08/10 08:00
OPKC 100800Z 24007KT 7000 SCT020 SCT030 32/25 Q1003 NOSIG

2010/08/10 08:00
DIAP 100800Z 25008KT 7000 SCT011 BKN080 25/23 Q1015 NOSIG

2010/08/10 08:00
OJAI 100800Z 27008KT 7000 NSC 29/14 Q1010 NOSIG

2010/08/10 08:00
OJAM 100800Z 36005KT 5000 HZ NSC 30/10 Q1011 NOSIG

2010/08/10 08:00
OJAQ 100800Z 36015KT 8000 NSC 33/21 Q1006

2010/08/10 08:00
LZPP 100800Z VRB02KT 9999 FEW016 20/16 Q1018

2010/08/10 08:00
LZSL 100800Z 26002KT 9999 FEW033 20/14 Q1018

2010/08/10 08:00
LZZI 100800Z VRB02KT 9999 FEW016 18/13 Q1018

2010/08/10 08:00
LZIB 100800Z 00000KT 9999 FEW020 21/16 Q1018

2010/08/10 08:00
LZKZ 100800Z 02008KT 330V060 CAVOK 23/13 Q1017 NOSIG

2010/08/10 08:00
LZTT 100800Z 28005KT 250V330 9999 FEW023 19/13 Q1019 NOSIG

2010/08/10 07:53
KRIL 100753Z AUTO 20005KT 10SM CLR 13/08 A3016 RMK AO2 SLP157 T01280078 TSNO 

2010/08/10 08:00
LZPE 100800Z 00000KT 9999 FEW021 22/15 Q1018

2010/08/10 08:00
LHBP 100800Z 33005KT 300V010 CAVOK 23/15 Q1018 NOSIG

2010/08/10 08:00
DTTB 100800Z 18004KT CAVOK 28/16 Q1016

2010/08/10 08:00
DTTD 100800Z 10006KT CAVOK 24/16 Q1018

2010/08/10 08:00
DTTK 100800Z 30002KT CAVOK 29/12 Q1016

2010/08/10 08:00
DTTL 100800Z 15002KT CAVOK 30/16 Q1016

2010/08/10 08:00
DTTN 100800Z 16002KT CAVOK 28/11 Q1016

2010/08/10 07:58
HLLB 100758Z 30015KT 9999 BKN020 28/19 Q1013

2010/08/10 07:58
HLLB 100758Z 30015KT 9999 BKN020 28/19 Q1013

2010/08/10 08:00
SAEZ 100800Z 00000KT 8000 03/03 Q1028

2010/08/10 08:00
SBAR 100800Z 12007KT 9999 FEW015 24/20 Q1017

2010/08/10 08:00
SBBE 100800Z 07005KT CAVOK 25/22 Q1012

2010/08/10 08:00
SBCF 100800Z 18006KT CAVOK 13/10 Q1021

2010/08/10 08:00
SBCG 100800Z 15007KT CAVOK 15/11 Q1018

2010/08/10 08:00
SBCT 100800Z 10002KT 7000 OVC007 08/07 Q1025

2010/08/10 08:00
SBCZ 100800Z 00000KT 8000 NSC 19/19 Q1013

2010/08/10 08:00
SBEG 100800Z 00000KT CAVOK 23/22 Q1012

2010/08/10 08:00
SBFI 100800Z 23002KT CAVOK 11/10 Q1019

2010/08/10 08:00
SBFL 100800Z 00000KT 9999 SCT025 14/11 Q1025

2010/08/10 08:00
SBGL 100800Z 28004KT 7000 SCT012 BKN020 19/16 Q1023

2010/08/10 08:00
SBJP 100800Z 23006KT 9999 BKN020 BKN070 23/21 Q1016

2010/08/10 08:00
SBKP 100800Z 12016KT CAVOK 12/10 Q1022

2010/08/10 08:00
SBLO 100800Z 12006KT CAVOK 12/10 Q1021

2010/08/10 08:00
SBMO 100800Z 12004KT 5000 BR FEW009 BKN020 20/19 Q1016

2010/08/10 08:00
SBMQ 100800Z 33003KT 9999 SCT015 SCT090 25/24 Q1013

2010/08/10 08:00
SBNT 100800Z 17005KT 9999 SCT010 SCT020 OVC070 22/22 Q1016

2010/08/10 08:00
SBPV 100800Z 00000KT 3000 FU NSC 22/19 Q1012

2010/08/10 08:00
SBRB 100800Z 00000KT 5000 FU NSC 23/19 Q1014

2010/08/10 08:00
SBRF 100800Z 16011KT 9999 SCT018 BKN070 25/19 Q1016

2010/08/10 08:00
SBRP 100800Z 12006KT CAVOK 15/12 Q1020

2010/08/10 08:00
SBSN 100800Z 00000KT CAVOK 23/22 Q1012

2010/08/10 08:00
SBSP 100800Z 14003KT 5000 BR BKN006 13/12 Q1026

2010/08/10 08:00
SBSV 100800Z 28003KT 9999 SCT017 19/18 Q1018

2010/08/10 08:00
SBTE 100800Z 00000KT CAVOK 22/20 Q1013

2010/08/10 08:00
SULS 100800Z 00000KT 2000 BR NSC 03/03 Q1027

2010/08/10 08:00
SUMU 100800Z 00000KT 0800 R19/0400 R24/1800 FG VV/// 01/01 Q1027 TEMPO 1200

2010/08/10 08:00
SVBC 100800Z 00000KT 9999 FEW010 25/20 Q1012

2010/08/10 08:00
SVMG 100800Z 00000KT 9999 FEW010 BKN080 27/25 Q1013 NOSIG

2010/08/10 07:55
KLUF 100755Z AUTO 00000KT 10SM FEW120 32/12 A2981 RMK AO2 SLP063 T03180120 $

2010/08/10 07:56
KNBC 100756Z AUTO 00000KT 10SM CLR 26/24 A2998 RMK AO2 SLP154 T02610244 $

2010/08/10 07:56
KNFL 100756Z 29006KT 10SM CLR 21/03 A2994 RMK AO2 PK WND 33029/0739 SLP113 T02060028 403390150

2010/08/10 07:56
KNMM 100756Z AUTO 00000KT 7SM CLR 26/23 A2996 RMK AO2 SLP150 T02560233 $

2010/08/10 07:56
KNPA 100756Z AUTO 34003KT 6SM BR CLR 26/24 A2990 RMK AO2 SLP127 T02560239

2010/08/10 07:56
KNQI 100756Z AUTO 00000KT 8SM CLR 28/26 A2990 RMK AO2 SLP123 T02780256 $

2010/08/10 07:56
KNTD 100756Z AUTO 00000KT 10SM OVC009 15/14 A2990 RMK AO2 SLP125 T01500139 401890089 TSNO $

2010/08/10 07:56
KNXX 100756Z AUTO 26004KT 10SM CLR 25/19 A2994 RMK AO2 SLP141 T02500194 $

2010/08/10 07:52
KNZY 100752Z 31004KT 10SM BKN013 20/14 A2990 RMK AO2 SLP126 T02000139 402500172 $

2010/08/10 08:00
LQBK 100800Z 09002KT 9999 FEW027 22/18 Q1017 NOSIG

2010/08/10 08:00
MHLM 100800Z 00000KT 9999 SCT026 27/27 Q1011 A2986 NOSIG

2010/08/10 08:00
MHTG 100800Z 22004KT 9999 FEW026 BKN080 19/18 Q1018 A3006 NOSIG

2010/08/10 07:50
OAKN 100750Z 25004KT 8000 DU BKN150 OVC250 37/01 Q1008 BLU TEMPO 6000 WHT RMK A2975 DA6700

2010/08/10 08:00
OEDR 100800Z 15007KT 5000 HZ NSC 39/24 Q0998 NOSIG

2010/08/10 08:00
OEMA 100800Z 11007KT 7000 NSC 41/01 Q1007 NOSIG

2010/08/10 08:00
OERK 100800Z 20013KT 8000 SKC 41/00 Q1006 NOSIG

2010/08/10 07:58
PAGA 100758Z AUTO 12007KT 10SM BKN029 OVC036 14/10 A2956 RMK AO2 SLPNO T01440100

2010/08/10 07:55
TXKF 100755Z 17007KT 9999 FEW015 FEW180 SCT300 27/23 Q1020 /

2010/08/10 08:00
WSSS 100800Z 17006KT 110V220 9999 SCT020 BKN300 31/26 Q1006 NOSIG

2010/08/10 08:00
SCEL 100800Z VRB01KT 5000 HZ NSC 03/00 Q1015 NOSIG

2010/08/10 08:00
SCIE 100800Z 19004KT CAVOK 05/04 Q1017

2010/08/10 08:00
SCTC 100800Z VRB01KT 0100 FG VV/// M01/M01 Q1018

2010/08/10 08:00
SCTE 100800Z 18005KT 9999 OVC006 07/06 Q1022 NOSIG

2010/08/10 08:00
SCON 100800Z AUTO VRB02KT CAVOK 02/01 Q1024

2010/08/10 08:00
SCFT 100800Z AUTO 00000KT 5000 BR SKC M02/M03 Q1024

2010/08/10 08:00
SCBA 100800Z AUTO 25005KT CAVOK M01/M03 Q1021

2010/08/10 08:00
SCCI 100800Z 28006KT 9999 FEW016 SCT100 04/01 Q1004 NOSIG

2010/08/10 08:00
WSAP 100800Z 14006KT 9999 FEW020 BKN300 31/25 Q1006

2010/08/10 08:00
KNEL 100800Z AUTO 23003KT 6SM HZ SCT060 23/20 A2993 RMK AO2 SLP132 T02330200 $ 

2010/08/10 08:00
SCAR 100800Z 08006KT CAVOK 10/05 Q1015

2010/08/10 08:00
SCDA 100800Z 25003KT 8000 OVC020 13/09 Q1017

2010/08/10 08:00
SCFA 100800Z 31006KT 9999 OVC019 13/08 Q1017

2010/08/10 08:00
SCAT 100800Z 35005KT 7000 OVC013 10/07 Q1019

2010/08/10 08:00
SCVM 100800Z 07003KT 6000 VCFG OVC040 06/06 Q1016

2010/08/10 08:00
SCEL 100800Z VRB01KT 5000 HZ NSC 03/00 Q1015 NOSIG

2010/08/10 08:00
SCIE 100800Z 19004KT CAVOK 05/04 Q1017

2010/08/10 07:55
KBVU 100755Z AUTO 00000KT 10SM CLR 23/03 A2987 RMK AO2

2010/08/10 07:54
KNFG 100754Z 02003KT 6SM BR FEW015 11/09 A2992 RMK AO2 SLP129 T01060089 402330078

2010/08/10 07:56
KNSE 100756Z AUTO 36003KT 5SM HZ CLR 26/23 A2992 RMK AO2 SLP115 T02560228 $

2010/08/10 07:55
KPSM 100755Z 23003KT 4SM BR SCT050 OVC120 21/21 A2987 RMK AO2A SLP116 P0000 T02110206

2010/08/10 07:59
KSAW 100759Z AUTO 00000KT 7SM CLR 18/17 A2997 RMK AO2

2010/08/10 08:00
KUKF 100800Z AUTO 00000KT 4SM CLR 22/22 A3006 RMK AO1

2010/08/10 08:00
KFAY 100800Z AUTO 00000KT 10SM BKN005 BKN009 BKN100 24/23 A3001 RMK AO2

2010/08/10 08:00
KISW 100800Z AUTO 00000KT 4SM BR CLR 21/20 A2997 RMK AO2 TSNO $

2010/08/10 08:00
KLSE 100800Z AUTO 08003KT 1 3/4SM BR OVC002 23/22 A2992 RMK AO2

2010/08/10 07:59
KSAW 100759Z AUTO 00000KT 7SM CLR 18/17 A2997 RMK AO2

2010/08/10 08:00
KNEL 100800Z AUTO 23003KT 6SM HZ SCT060 23/20 A2993 RMK AO2 SLP132 T02330200 $

2010/08/10 07:50
ENHK 100750Z 30004KT 9999 FEW025 BKN050 13/09 Q1011

2010/08/10 07:56
KBIH 100756Z AUTO 22007KT 10SM CLR 21/M10 A2996 RMK AO2 SLP090 T02061100 403280083 TSNO

2010/08/10 07:54
KWAL 100754Z AUTO 24005KT 10SM CLR 24/22 A2996 RMK AO2 SLP143 T02390217 TSNO

2010/08/10 07:56
KMEH 100756Z AUTO 00000KT 10SM CLR 07/04 A2995 RMK AO2 SLP127 T00720039 402440033 TSNO

2010/08/10 07:53
KRIL 100753Z AUTO 20005KT 10SM CLR 13/08 A3016 RMK AO2 SLP157 T01280078 TSNO

2010/08/10 08:00
SVMI 100800Z 00000KT 9999 FEW016 28/24 Q1011 NOSIG

2010/08/10 07:50
ENBL 100750Z VRB02KT 9999 FEW014 SCT030 BKN035 14/11 Q1009

2010/08/10 08:00
MMMY 100800Z RTD 08005KT 10SM SCT040 24/23 A2991 RMK 8/500

2010/08/10 07:50
EGPU 100750Z 03006KT 360V060 9999 SCT016 13/10 Q1002

2010/08/10 08:00
DIAP 100800Z 25008KT 7000 SCT011 BKN080 25/23 Q1015 NOSIG

2010/08/10 08:00
OPKC 100800Z 24007KT 7000 SCT020 SCT030 32/25 Q1003 NOSIG

2010/08/10 08:00
SBGO 100800Z 35002KT CAVOK 14/12 Q1019 

2010/08/10 08:00
LBSF 100800Z 27003MPS 240V310 CAVOK 24/16 Q1017 NOSIG

2010/08/10 08:00
LBWN 100800Z 31004MPS 280V020 CAVOK 28/22 Q1011 WS RWY09 NOSIG

2010/08/10 08:00
LBBG 100800Z 35007MPS CAVOK 29/21 Q1011 NOSIG

2010/08/10 08:00
LBPD 100800Z 29007MPS 260V330 CAVOK 27/18 Q1014 NOSIG

2010/08/10 08:00
LBGO 100800Z 29004MPS 240V320 CAVOK 26/19 Q1015 NOSIG

2010/08/10 07:50
EGBE 100750Z 22007KT 9999 -RA SCT012 16/14 Q1009

2010/08/10 07:54
PGSN 100754Z 06008KT 10SM SCT019 28/24 A2991 RMK AO2 SLP126 T02830244

2010/08/10 07:54
PGUM 100754Z 09005KT 10SM TS SCT040CB 28/24 A2990 RMK AO2 TSB47 SLP118 TS DSNT W MOV NW CB SW-W MOV W T02830239

2010/08/10 07:51
PTKK 100751Z VRB05KT 15SM FEW014 SCT120 OVC280 28/24 A2984 RMK SLP108 T02800238

2010/08/10 07:58
K0J4 100758Z AUTO 00000KT 10SM CLR 25/23 RMK AO2 SLPNO T02500233 $

2010/08/10 07:55
KCVS 100755Z 00000KT 10SM CLR 20/16 A3008 RMK AO2A SLP140 T01960160 $

2010/08/10 07:55
KDLF 100755Z AUTO 12012KT 10SM CLR 29/23 A2993 RMK AO2 SLP118 T02860225

2010/08/10 07:55
KDMA 100755Z AUTO 18004KT 10SM CLR 27/17 A2995 RMK AO2 SLPNO T02650165 VISNO RWY12 CHINO RWY12 $

2010/08/10 07:57
KFFO 100757Z 00000KT 10SM SCT049 SCT070 25/22 A2997 RMK AO2A SLP143

2010/08/10 07:55
KFHU 100755Z 24005KT 10SM SKC 23/14 A3011 RMK SLP122

2010/08/10 07:55
KFRI 100755Z AUTO 19010KT 10SM CLR 29/20 A2986 RMK AO2 SLP088 T02910204

2010/08/10 07:55
KGRK 100755Z 16008KT 7SM FEW060 29/23 A2992 RMK SLP106

2010/08/10 07:55
KHOP 100755Z AUTO 22003KT 10SM CLR 26/25 A2996 RMK AO2 SLP141 T02570249

2010/08/10 07:55
KHRT 100755Z 35004KT 10SM CLR 25/24 A2989 RMK AO2A SLP124 T02520244 $

2010/08/10 07:55
KLFI 100755Z 22005KT 10SM CLR 26/23 A2997 RMK AO2A SLP149 T02550229

2010/08/10 07:55
KLSV 100755Z AUTO 06008KT 10SM CLR 25/M01 A2983 RMK AO2 SLP086 T02461008 403630218 PWINO

2010/08/10 07:55
KMCF 100755Z AUTO 07007KT 10SM CLR 26/25 A2988 RMK AO2 SLP119 T02560247

2010/08/10 07:55
KMIB 100755Z AUTO 07016KT 10SM OVC050 21/16 A2986 RMK AO2 SLP103 T02090162

2010/08/10 07:55
KNBG 100755Z AUTO 00000KT 4SM HZ CLR A2992 RMK AO2 SLP132 PWINO FZRANO $

2010/08/10 07:56
KNUQ 100756Z AUTO 00000KT 10SM OVC008 15/12 A2992 RMK AO2 SLP133 T01500122 402280144 TSNO

2010/08/10 07:55
KSVN 100755Z 00000KT 7SM FEW010 25/24 A2998 RMK SLP155 ALSTG/SLP ESTMD WND DATA ESTMD

2010/08/10 07:56
PHBK 100756Z AUTO 00000KT 10SM CLR 26/15 A3010 RMK AO2 SLP195 T02610150 TSNO $

2010/08/10 07:56
KNLC 100756Z AUTO 32010KT 10SM CLR 22/12 A2981 RMK AO2 SLP094 T02220122 403440139 TSNO

2010/08/10 07:54
KNFG 100754Z 02003KT 6SM BR FEW015 11/09 A2992 RMK AO2 SLP129 T01060089 402330078

2010/08/10 07:56
KNID 100756Z AUTO 00000KT CLR 24/06 A2984 RMK AO2 SLP083 T02390061 403610167 TSNO $

2010/08/10 07:55
KNKX 100755Z 00000KT 10SM BKN010 17/14 A2992 RMK AO2 SLP124 T01720139 402440111

2010/08/10 07:56
KNTD 100756Z AUTO 00000KT 10SM OVC009 15/14 A2990 RMK AO2 SLP125 T01500139 401890089 TSNO $

2010/08/10 07:56
KNTU 100756Z 24004KT 9SM FEW200 23/22 A2997 RMK AO2 SLP151 T02330222 $

2010/08/10 07:56
KNUW 100756Z 24006KT 8SM FEW008 BKN012 OVC045 14/11 A2996 RMK AO2 SLP150 T01420111 401560128 $

2010/08/10 07:56
KNXP 100756Z AUTO 00000KT CLR 24/M01 A2993 RMK AO2 SLP095 T02391006 403720189 $

2010/08/10 07:56
KNYG 100756Z AUTO 22007KT 8SM CLR 26/21 A2995 RMK AO2 SLP143 T02560206 $

2010/08/10 07:55
KNYL 100755Z AUTO 24006KT 10SM CLR 28/00 A2975 RMK AO2 SLP071 T02830000

2010/08/10 07:55
KPOE 100755Z AUTO 00000KT 10SM CLR 26/24 A2992 RMK AO2 SLP131 T02560239

2010/08/10 07:55
KPSM 100755Z 23003KT 4SM BR SCT050 OVC120 21/21 A2987 RMK AO2A SLP116 P0000 T02110206

2010/08/10 07:55
KVBG 100755Z AUTO 00000KT 10SM OVC003 12/12 A2993 RMK AO2 SLP127 T01220117 TSNO CHINO RWY12 $

2010/08/10 07:56
KVPS 100756Z 01007KT 10SM SKC 26/24 A2990 RMK AO2A SLP127 T02600236 $

2010/08/10 07:56
K79J 100756Z AUTO 00000KT 7SM CLR 25/22 A2993 RMK AO2 SLP128 T02500222 TSNO PNO $

2010/08/10 07:55
KDMA 100755Z AUTO 18004KT 10SM CLR 27/17 A2995 RMK AO2 SLPNO T02650165 VISNO RWY12 CHINO RWY12 $

2010/08/10 07:56
KHLR 100756Z AUTO 15005KT 10SM CLR 28/23 A2993 RMK AO2 SLP125 T02830228 $

2010/08/10 07:55
KHOP 100755Z AUTO 22003KT 10SM CLR 26/25 A2996 RMK AO2 SLP141 T02570249

2010/08/10 07:56
KNCA 100756Z AUTO 00000KT 10SM 24/24 A3001 RMK AO2 SLP165 T02390239 $

2010/08/10 07:56
KNID 100756Z AUTO 00000KT CLR 24/06 A2984 RMK AO2 SLP083 T02390061 403610167 TSNO $

2010/08/10 07:56
KNJK 100756Z AUTO 36005KT 10SM CLR 27/M01 A2973 RMK AO2 SLP083 T02671011 404000183 TSNO

2010/08/10 07:56
KNRS 100756Z AUTO 00000KT 10SM OVC015 16/14 A2992 RMK AO2 SLP130 T01560144 402110106 TSNO

2010/08/10 07:56
KNUW 100756Z 24006KT 8SM FEW008 BKN012 OVC045 14/11 A2996 RMK AO2 SLP150 T01420111 401560128 $

2010/08/10 07:56
KNXP 100756Z AUTO 00000KT CLR 24/M01 A2993 RMK AO2 SLP095 T02391006 403720189 $

2010/08/10 07:58
KSYR 100758Z 00000KT 4SM BR FEW020 SCT028 OVC046 21/21 A2994 RMK AO2

2010/08/10 07:59
KEKN 100759Z AUTO 00000KT 2SM BR BKN001 OVC006 17/17 A3008 RMK AO2 TSNO

2010/08/10 07:59
KVTN 100759Z AUTO 02010KT 8SM -RA OVC043 19/19 A2991 RMK AO2 LTG DSNT NE AND E TSE53 PRESFR P0000

2010/08/10 07:55
KPSM 100755Z 23003KT 4SM BR SCT050 OVC120 21/21 A2987 RMK AO2A SLP116 P0000 T02110206

2010/08/10 07:53
KRYT 100753Z AUTO 23003KT 10SM CLR 23/19 A2995 RMK AO2 SLP124 T02280194 $

2010/08/10 07:56
KHLR 100756Z AUTO 15005KT 10SM CLR 28/23 A2993 RMK AO2 SLP125 T02830228 $

2010/08/10 07:55
PGUA 100755Z AUTO 07008KT 10SM SCT018 SCT025 SCT035 27/24 A2991 RMK AO2 SLP110 T02680244 $

2010/08/10 07:55
PHHI 100755Z AUTO 10011KT 10SM BKN048 24/17 A3012 RMK AO2 SLP188 T02350167 $

2010/08/10 07:55
KHRT 100755Z 35004KT 10SM CLR 25/24 A2989 RMK AO2A SLP124 T02520244 $

2010/08/10 07:55
KDMA 100755Z AUTO 18004KT 10SM CLR 27/17 A2995 RMK AO2 SLPNO T02650165 VISNO RWY12 CHINO RWY12 $

2010/08/10 07:55
KLFI 100755Z 22005KT 10SM CLR 26/23 A2997 RMK AO2A SLP149 T02550229

2010/08/10 07:55
KMCF 100755Z AUTO 07007KT 10SM CLR 26/25 A2988 RMK AO2 SLP119 T02560247

2010/08/10 07:53
KMRT 100753Z AUTO 26005KT 7SM CLR 23/20 A3000 RMK AO2 T02250201

2010/08/10 07:55
KNBG 100755Z AUTO 00000KT 4SM HZ CLR A2992 RMK AO2 SLP132 PWINO FZRANO $

2010/08/10 07:54
KNFG 100754Z 02003KT 6SM BR FEW015 11/09 A2992 RMK AO2 SLP129 T01060089 402330078

2010/08/10 07:55
KPSM 100755Z 23003KT 4SM BR SCT050 OVC120 21/21 A2987 RMK AO2A SLP116 P0000 T02110206

2010/08/10 07:59
KNGU 100759Z 21005KT 10SM CLR 26/23 A2998 RMK AO2 SLP152 T02610233

2010/08/10 07:55
KLUF 100755Z AUTO 00000KT 10SM FEW120 32/12 A2981 RMK AO2 SLP063 T03180120 $

2010/08/10 07:56
KNBC 100756Z AUTO 00000KT 10SM CLR 26/24 A2998 RMK AO2 SLP154 T02610244 $

2010/08/10 07:56
KNFL 100756Z 29006KT 10SM CLR 21/03 A2994 RMK AO2 PK WND 33029/0739 SLP113 T02060028 403390150

2010/08/10 07:56
KNMM 100756Z AUTO 00000KT 7SM CLR 26/23 A2996 RMK AO2 SLP150 T02560233 $

2010/08/10 07:56
KNPA 100756Z AUTO 34003KT 6SM BR CLR 26/24 A2990 RMK AO2 SLP127 T02560239

2010/08/10 07:56
KNQI 100756Z AUTO 00000KT 8SM CLR 28/26 A2990 RMK AO2 SLP123 T02780256 $

2010/08/10 07:56
KNTD 100756Z AUTO 00000KT 10SM OVC009 15/14 A2990 RMK AO2 SLP125 T01500139 401890089 TSNO $

2010/08/10 07:56
KNXX 100756Z AUTO 26004KT 10SM CLR 25/19 A2994 RMK AO2 SLP141 T02500194 $

2010/08/10 07:52
KNZY 100752Z 31004KT 10SM BKN013 20/14 A2990 RMK AO2 SLP126 T02000139 402500172 $

2010/08/10 08:00
KNEL 100800Z AUTO 23003KT 6SM HZ SCT060 23/20 A2993 RMK AO2 SLP132 T02330200 $

2010/08/10 07:53
KFOZ 100753Z AUTO 00000KT 4SM BR CLR 19/18 A2998 RMK AO2

2010/08/10 07:56
KFPK 100756Z AUTO 00000KT 1/4SM FG VV002 18/18 A2996 RMK AO2

2010/08/10 07:54
KFSE 100754Z AUTO 15003KT 10SM CLR 19/17 A2993 RMK AO2

2010/08/10 07:59
KFSO 100759Z AUTO 15003KT 5SM BR SCT014 17/17 A2991 RMK AO2

2010/08/10 07:55
KFSW 100755Z AUTO 00000KT 4SM CLR 27/25 A2989 RMK AO2

2010/08/10 07:55
KFXY 100755Z AUTO 10004KT 10SM CLR 23/22 A2993 RMK AO2

2010/08/10 07:57
KGGI 100757Z AUTO 00000KT 1 1/2SM +RA 23/22 A3000 RMK AO2 P0012

2010/08/10 07:55
KGOV 100755Z AUTO 00000KT 3/4SM BR OVC001 20/20 A3000 RMK AO2

2010/08/10 07:54
KGYL 100754Z AUTO 00000KT 10SM CLR 22/20 A2992 RMK AO2 T02160200

2010/08/10 07:55
KHAF 100755Z AUTO 00000KT 4SM BR OVC003 11/11 A2994 RMK AO2

2010/08/10 07:55
KHAI 100755Z AUTO 00000KT 3/4SM BR VV005 20/20 A2997 RMK AO2 VIS 1/4V5

2010/08/10 07:52
KHCD 100752Z AUTO 10003KT 10SM CLR 22/21 A2992 RMK AO2 T02210208

2010/08/10 07:54
KHCO 100754Z AUTO 18006KT 10SM CLR 22/22 A2991 RMK AO2

2010/08/10 07:55
KHNR 100755Z AUTO 14004KT 7SM CLR 25/25 A2990 RMK AO2

2010/08/10 07:55
KHYX 100755Z AUTO 32003KT 7SM CLR 21/20 A2995 RMK AO2

2010/08/10 07:51
KHZX 100751Z AUTO 00000KT 10SM CLR 18/17 A2997 RMK AO2

2010/08/10 07:55
KICL 100755Z AUTO 00000KT 10SM CLR 25/22 A2987 RMK AO2

2010/08/10 07:46
KIIB 100746Z AUTO 08003KT 7SM CLR 23/23 A2994 RMK AO1

2010/08/10 07:55
KIKV 100755Z AUTO 20007KT 10SM SCT021 SCT047 BKN095 22/21 A2988 RMK AO2 P0015

2010/08/10 07:55
KIRS 100755Z AUTO 00000KT 4SM BR CLR 21/19 A2997 RMK AO2

2010/08/10 07:55
KISQ 100755Z AUTO 00000KT 1/2SM FG VV005 19/18 A2997 RMK AO2

2010/08/10 07:54
KJKJ 100754Z AUTO 00000KT 10SM CLR 22/21 A2989 RMK AO2

2010/08/10 07:55
KJMR 100755Z AUTO 00000KT 1/2SM FG VV005 18/18 A2997 RMK AO2

2010/08/10 07:55
KJYG 100755Z AUTO 09004KT 10SM CLR 24/24 A2991 RMK AO2

2010/08/10 07:55
KJYM 100755Z AUTO 00000KT M1/4SM FG OVC001 19/18 A2999 RMK AO2

2010/08/10 07:55
KLDM 100755Z AUTO 00000KT 1/4SM FG OVC001 21/20 A2996 RMK AO2

2010/08/10 07:56
K4I3 100756Z AUTO 26003KT 7SM SCT085 23/20 A2998 RMK AO2

2010/08/10 07:55
KACB 100755Z AUTO 00000KT 1/2SM FG OVC001 22/22 A2997 RMK AO2

2010/08/10 07:58
KACQ 100758Z AUTO 10005KT 7SM CLR 22/21 A2994 RMK AO2

2010/08/10 07:57
KADC 100757Z AUTO 00000KT 10SM CLR 17/17 A2995 RMK AO2

2010/08/10 07:50
KAEL 100750Z AUTO 11004KT 10SM BKN033 23/22 A2993 RMK AO2 LTG DSNT SE

2010/08/10 07:54
KAMN 100754Z AUTO 00000KT 1/4SM FG OVC001 18/18 A2995 RMK AO2

2010/08/10 07:55
KANE 100755Z AUTO 00000KT 10SM CLR 22/21 A2994 RMK AO2

2010/08/10 07:53
KAQP 100753Z AUTO 12006KT 10SM CLR 22/22 A2987 RMK AO2

2010/08/10 07:55
KAUM 100755Z AUTO 14003KT 10SM CLR 22/22 A2994 RMK AO2

2010/08/10 07:55
KBDH 100755Z AUTO 12005KT 7SM CLR 23/22 A2992 RMK AO2

2010/08/10 07:53
KBFW 100753Z AUTO 00000KT 10SM CLR 17/16 A2996 RMK AO2

2010/08/10 07:54
KCAD 100754Z AUTO 00000KT 1SM BR VV007 18/17 A2999 RMK AO2

2010/08/10 07:55
KCBG 100755Z AUTO 00000KT 10SM CLR 19/17 A2994 RMK AO2

2010/08/10 07:54
KCDA 100754Z AUTO 00000KT M1/4SM FG OVC002 16/15 A2996 RMK AO2

2010/08/10 07:52
KCDD 100752Z AUTO 00000KT 5SM BR CLR 19/19 A2997 RMK AO2

2010/08/10 07:55
KCFS 100755Z AUTO 29003KT 4SM BR CLR 21/20 A2995 RMK AO2

2010/08/10 07:55
KCKC 100755Z AUTO 00000KT 10SM CLR 16/13 A3002 RMK AO2

2010/08/10 07:55
KCKN 100755Z AUTO 16005KT 10SM CLR 20/19 A2991 RMK AO2

2010/08/10 07:54
KCNB 100754Z AUTO 06003KT 1/2SM FG BKN002 OVC036 22/21 A2988 RMK AO2 T02180213

2010/08/10 07:56
KCOQ 100756Z AUTO 00000KT 7SM CLR 19/17 A2997 RMK AO2

2010/08/10 07:57
KCQM 100757Z AUTO 00000KT 10SM CLR 18/17 A2997 RMK AO2

2010/08/10 07:50
KCVH 100750Z AUTO 00000KT 10SM OVC005 13/12 A2993 RMK AO1

2010/08/10 07:55
KCVX 100755Z AUTO 26003KT 4SM BR BKN007 22/21 A2998 RMK AO2

2010/08/10 07:55
KDNS 100755Z AUTO 08004KT 5SM HZ CLR 27/23 A2990 RMK AO2

2010/08/10 07:57
KDRM 100757Z AUTO 00000KT 3/4SM BR BKN001 BKN008 17/17 A2995 RMK AO2

2010/08/10 07:55
KDTL 100755Z AUTO 14004KT 10SM CLR 22/18 A2995 RMK AO2

2010/08/10 07:54
KDUH 100754Z AUTO 00000KT 1/4SM FG VV002 21/19 A2996 RMK AO2

2010/08/10 07:56
KDVP 100756Z AUTO 10006KT 5SM BR BKN008 23/22 A2991 RMK AO2 T02310220

2010/08/10 07:54
KDXX 100754Z AUTO 10003KT 7SM CLR 23/23 A2986 RMK AO2

2010/08/10 07:54
KDYT 100754Z AUTO 00000KT 10SM CLR 23/21 A2994 RMK AO2

2010/08/10 07:55
KEBS 100755Z AUTO 18005KT 4SM -RA BKN011 BKN060 OVC110 26/25 A2995 RMK AO2

2010/08/10 07:55
KEFK 100755Z AUTO 22003KT 1/4SM FG OVC001 14/13 A2995 RMK AO2

2010/08/10 07:50
OAKN 100750Z 25004KT 8000 DU BKN150 OVC250 37/01 Q1008 BLU TEMPO 6000 WHT RMK A2975 DA6700

2010/08/10 08:00
OPKC 100800Z 24007KT 7000 SCT020 SCT030 32/25 Q1003 NOSIG

2010/08/10 07:55
OPLA 100755Z 15015KT 2500 TSRA FEW030CB SCT040 OVC100 28/27 Q1003 NOSIG

2010/08/10 08:00
OPRN 100800Z 23010KT 6000 HZ FEW025TCU SCT030 33/25 1005.0

2010/08/10 07:55
OPSK 100755Z 05004KT 5000 HZ SCT040 35/28 QNH 1001 R.H.68PC

2010/08/10 08:00
UTTT 100800Z 01004MPS CAVOK 36/03 Q1008 R08R/CLRD70 NOSIG

2010/08/10 07:56
KNSE 100756Z AUTO 36003KT 5SM HZ CLR 26/23 A2992 RMK AO2 SLP115 T02560228 $

2010/08/10 07:53
KRIL 100753Z AUTO 20005KT 10SM CLR 13/08 A3016 RMK AO2 SLP157 T01280078 TSNO

2010/08/10 08:00
YSRI 100800Z AUTO 00000KT 3900NDV // SCT011 OVC018 12/12 Q1013

2010/08/10 07:55
KSNC 100755Z AUTO 32003KT 10SM CLR 22/22 A2994 RMK AO2

2010/08/10 07:54
PHOG 100754Z 04010KT 10SM FEW055 25/18 A3011 RMK AO2 SLP199 T02500178 $

2010/08/10 07:56
PHNY 100756Z AUTO 00000KT 10SM CLR 21/17 A3015 RMK AO2 TSNO T02110172 SLP188 $

2010/08/10 07:56
KFSD 100756Z 11007KT 10SM FEW025 BKN038 25/23 A2986 RMK AO2 SLP099 T02500233 $

2010/08/10 07:54
KIKW 100754Z AUTO 00000KT 4SM BR CLR 21/20 A2995 RMK AO2 T02070195

2010/08/10 07:53
K29G 100753Z AUTO 25003KT 10SM SCT042 OVC065 23/19 A2997 RMK AO2 T02340190 PWINO

2010/08/10 07:55
KCKP 100755Z AUTO 12007KT 7SM BKN024 BKN034 OVC070 25/24 A2986 RMK AO2

2010/08/10 07:58
KLYV 100758Z AUTO 12004KT 7SM BKN040 24/22 A2987 RMK AO2 LTG DSNT W

2010/08/10 07:54
KPZQ 100754Z AUTO 26004KT 5SM BR SCT001 SCT017 19/18 A2997 RMK AO2

2010/08/10 07:54
KROS 100754Z AUTO 00000KT 10SM CLR 20/19 A2995 RMK AO2 T01960190

2010/08/10 07:54
KSBN 100754Z 04004KT 5SM BR CLR 21/20 A2996 RMK AO2 SLP141 T02110200

2010/08/10 07:55
KSYN 100755Z AUTO 00000KT 3SM BR 20/19 A2993 RMK AO2 SKY OBSCURED T02020192

2010/08/10 07:53
KTKC 100753Z AUTO 00000KT 10SM OVC040 23/22 A2990 RMK AO2 LTG DSNT SW T02320218

2010/08/10 07:55
KTKV 100755Z AUTO 00000KT 3/4SM BR VV005 14/13 A3001 RMK AO2 T01370129

2010/08/10 07:55
KVTI 100755Z AUTO 00000KT 5SM CLR 23/23 A2993 RMK AO2

2010/08/10 08:00
SPHI 100800Z 17004KT CAVOK 15/13 Q1015 RMK PP000

2010/08/10 08:00
SPIM 100800Z 17003KT 8000 BKN015 14/12 Q1016 NOSIG RMK PP000

2010/08/10 08:00
SPQU 100800Z 36006KT CAVOK 11/M17 Q1026 RMK PP000

2010/08/10 08:00
SPRU 100800Z 15004KT 4900 BR FEW013 14/13 Q1015 RMK BIRDS HAZARD RWY 20 PP000

2010/08/10 08:00
SPSO 100800Z 07004KT 7000 FEW012 11/09 Q1016 RMK PP000

2010/08/10 08:00
SPTN 100800Z 00000KT CAVOK 07/05 Q1013 RMK PP000

2010/08/10 08:00
SPZO 100800Z 00000KT 9999 SKC 01/M05 Q1033 RMK PP000

2010/08/10 08:00
YBCG 100800Z AUTO 03019KT 5000NDV // SCT005 BKN011 OVC026 20/19 Q1016

2010/08/10 08:00
OEDF 100800Z 12007KT 090V150 5000 DU SKC 41/17 Q0999 NOSIG

2010/08/10 08:00
OEDR 100800Z 15007KT 5000 HZ NSC 39/24 Q0998 NOSIG

2010/08/10 08:00
OEJN 100800Z 18006KT CAVOK 36/25 Q1003 NOSIG

2010/08/10 08:00
OEMA 100800Z 11007KT 7000 NSC 41/01 Q1007 NOSIG

2010/08/10 08:00
OERK 100800Z 20013KT 8000 SKC 41/00 Q1006 NOSIG

2010/08/10 07:50
EDHL 100750Z 16008KT 120V180 CAVOK 20/20 Q1015 RMK K

2010/08/10 08:00
YAMB 100800Z AUTO 09007KT 3400NDV // SCT002 SCT015 OVC059 18/18 Q1016

2010/08/10 07:59
KMTC 100759Z AUTO 00000KT 1/2SM R19/0700V4000FT DZ FG CLR 20/20 A2994 RMK AO2 SLP144 $

2010/08/10 07:56
KBIH 100756Z AUTO 22007KT 10SM CLR 21/M10 A2996 RMK AO2 SLP090 T02061100 403280083 TSNO

2010/08/10 07:54
KWAL 100754Z AUTO 24005KT 10SM CLR 24/22 A2996 RMK AO2 SLP143 T02390217 TSNO

2010/08/10 07:56
KMEH 100756Z AUTO 00000KT 10SM CLR 07/04 A2995 RMK AO2 SLP127 T00720039 402440033 TSNO

2010/08/10 07:58
PAGA 100758Z AUTO 12007KT 10SM BKN029 OVC036 14/10 A2956 RMK AO2 SLPNO T01440100

2010/08/10 08:00
KUKF 100800Z AUTO 00000KT 4SM CLR 22/22 A3006 RMK AO1

2010/08/10 08:00
LUKK 100800Z 02010KT CAVOK 29/17 Q1013 08CLRD65 NOSIG

2010/08/10 07:58
KBRD 100758Z AUTO 00000KT 1/4SM FG VV001 20/18 A2995 RMK AO2

2010/08/10 07:59
KENW 100759Z AUTO 00000KT 3SM BR CLR 20/19 A2995 RMK AO2

2010/08/10 08:00
KFAY 100800Z AUTO 00000KT 10SM BKN005 BKN009 BKN100 24/23 A3001 RMK AO2

2010/08/10 08:00
KISW 100800Z AUTO 00000KT 4SM BR CLR 21/20 A2997 RMK AO2 TSNO $

2010/08/10 08:00
KLSE 100800Z AUTO 08003KT 1 3/4SM BR OVC002 23/22 A2992 RMK AO2

2010/08/10 07:50
EDNY 100750Z VRB02KT CAVOK 20/15 Q1018 RMK ATIS I

2010/08/10 07:50
EDXW 100750Z 16012KT 9000 FEW012 19/16 Q1013 RMK ATIS INFO D

2010/08/10 07:56
KIWA 100756Z AUTO 23003KT 10SM CLR 32/11 A2985 RMK AO2

2010/08/10 07:55
K4M9 100755Z AUTO 11003KT 8SM 26/25 A2993 RMK AO2

2010/08/10 07:55
KAWG 100755Z AUTO 29015G22KT 10SM -RA SCT010 BKN030 OVC040 25/21 A2993 RMK AO2

2010/08/10 07:55
KAXA 100755Z AUTO 12005KT 5SM SCT005 BKN046 25/25 A2990 RMK AO2

2010/08/10 07:55
KBNW 100755Z AUTO 29010KT 10SM SCT021 SCT070 SCT085 24/21 A2992 RMK AO2 P0010

2010/08/10 07:55
KCAV 100755Z AUTO 16004KT 4SM SCT005 SCT049 BKN090 27/25 A2994 RMK AO2

2010/08/10 07:55
KCBF 100755Z AUTO 17003KT 10SM CLR 27/22 A2985 RMK AO2

2010/08/10 07:55
KCNC 100755Z AUTO 02014KT 10SM SCT016 OVC028 23/20 A2996 RMK AO2

2010/08/10 07:55
KCSQ 100755Z AUTO 09005KT 7SM SCT080 26/25 A2990 RMK AO2

2010/08/10 07:55
KDEH 100755Z AUTO 00000KT 3 1/2SM CLR 24/22 A2997 RMK AO2

2010/08/10 07:55
KLNL 100755Z AUTO 00000KT 3SM BR CLR 13/13 A3003 RMK AO2 T01330127

2010/08/10 07:55
KLUM 100755Z AUTO 00000KT 7SM CLR 21/20 A2996 RMK AO2

2010/08/10 07:55
KMAN 100755Z AUTO 19009KT 10SM CLR 19/13 A2983 RMK AO1

2010/08/10 07:55
KMCJ 100755Z AUTO 27004KT 10SM CLR 28/25 A2988 RMK AO1

2010/08/10 07:55
KMDZ 100755Z AUTO 00000KT 4SM BR CLR 18/17 A3000 RMK AO2

2010/08/10 07:58
KMEI 100758Z AUTO 00000KT 6SM BR CLR 24/24 A2995 RMK AO2 SLP138 T02440239

2010/08/10 07:55
KMRJ 100755Z AUTO 00000KT 5SM BR CLR 24/22 A2995 RMK AO2 T02370219

2010/08/10 07:55
KMWC 100755Z AUTO 00000KT 4SM BR CLR 20/19 A2995 RMK AO2

2010/08/10 07:55
KOEO 100755Z AUTO 00000KT 4SM BR CLR 20/19 A2996 RMK AO2

2010/08/10 07:55
KPBH 100755Z AUTO 00000KT 5SM BR CLR 19/18 A3001 RMK AO2

2010/08/10 07:55
KPCZ 100755Z AUTO 00000KT 4SM BR CLR 20/19 A2996 RMK AO2 T01980188

2010/08/10 07:52
KPDC 100752Z AUTO 00000KT 1 1/2SM BR OVC001 25/24 A2992 RMK AO2 VIS 3/4V5 T02450235

2010/08/10 07:55
KRCX 100755Z AUTO 00000KT 10SM CLR 19/18 A3000 RMK AO2 T01910179

2010/08/10 07:56
KRNH 100756Z AUTO 00000KT 5SM BR CLR 20/19 A2996 RMK AO2 T01970190

2010/08/10 07:55
KRPD 100755Z AUTO 00000KT 1/2SM FG VV005 20/19 A2999 RMK AO2 T01950192

2010/08/10 07:55
KRRL 100755Z AUTO 00000KT 2 1/2SM BR CLR 16/15 A3001 RMK AO2 T01560152

2010/08/10 07:55
KRYV 100755Z AUTO 00000KT 2 1/2SM BR CLR 22/20 A2994 RMK AO2

2010/08/10 07:55
KSTE 100755Z AUTO 00000KT 10SM CLR 19/18 A2998 RMK AO2

2010/08/10 07:56
KY50 100756Z AUTO 00000KT 3SM BR FEW014 19/19 A2995 RMK AO2 T01940194 RAB11E20 P0000 SLP133

2010/08/10 07:56
KNSE 100756Z AUTO 36003KT 5SM HZ CLR 26/23 A2992 RMK AO2 SLP115 T02560228 $

2010/08/10 07:56
KNSE 100756Z AUTO 36003KT 5SM HZ CLR 26/23 A2992 RMK AO2 SLP115 T02560228 $

2010/08/10 07:56
KNSE 100756Z AUTO 36003KT 5SM HZ CLR 26/23 A2992 RMK AO2 SLP115 T02560228 $

2010/08/10 07:56
KNSE 100756Z AUTO 36003KT 5SM HZ CLR 26/23 A2992 RMK AO2 SLP115 T02560228 $

2010/08/10 07:54
PHMK 100754Z AUTO 05011G21KT 10SM FEW044 24/19 A3011 RMK AO2 RAB22E32 SLP198 P0000 T02390189 TSNO

2010/08/10 07:58
PADU 100758Z AUTO 23021G29KT 10SM SCT047 11/07 A2966 RMK AO2 PK WND 22029/0749 SLP050 T01110067

2010/08/10 07:58
PAGA 100758Z AUTO 12007KT 10SM BKN029 OVC036 14/10 A2956 RMK AO2 SLPNO T01440100

2010/08/10 07:56
PAJZ 100756Z AUTO 15007KT 1 1/4SM BR BKN003 OVC008 10/09 A2967 RMK AO2 PWINO TSNO T01000094 CIG 001V006 SLP036 $

2010/08/10 07:56
PAKI 100756Z AUTO 19014KT 2SM +RA BR OVC008 09/09 A2939 RMK AO2 TSNO T00940094 CIG 005V011 P0000 SLP954 $

2010/08/10 07:56
PALG 100756Z AUTO 00000KT 10SM OVC036 11/09 A2949 RMK AO2 TSNO T01110088 RAB04E14 P0000 SLP990 $

2010/08/10 07:58
PATE 100758Z AUTO 05005KT 10SM OVC080 13/11 A2943 RMK AO2 SLP976 T01280106

2010/08/10 07:55
KEOK 100755Z AUTO 00000KT 3SM HZ CLR 27/23 A2989 RMK AO2

2010/08/10 07:55
KERY 100755Z AUTO 00000KT M1/4SM FG OVC002 18/18 A2999 RMK AO2

2010/08/10 07:54
KETH 100754Z AUTO 12005KT 7SM CLR 19/18 A2991 RMK AO2

2010/08/10 07:52
KEVM 100752Z AUTO 00000KT 1/4SM FG OVC001 17/16 A2996 RMK AO1

2010/08/10 07:54
KFBL 100754Z AUTO 00000KT 2 1/2SM BR CLR 19/18 A2994 RMK AO2 LTG DSNT S

2010/08/10 07:55
KFFL 100755Z AUTO 29005KT 10SM SCT028 BKN049 BKN060 24/23 A2992 RMK AO2

2010/08/10 07:55
KFFX 100755Z AUTO 00000KT 1/4SM FG OVC002 20/20 A2997 RMK AO2

2010/08/10 07:54
KFKS 100754Z AUTO 00000KT 7SM SCT001 SCT010 20/18 A2995 RMK AO2

2010/08/10 08:01
PADM 100801Z AUTO 16014G21KT 3SM -RA BR BKN016 OVC022 09/08 A2948 RMK AO2 TSNO T00940083 P0004 SLP969 $

2010/08/10 08:01
KFKA 100801Z AUTO 00000KT 10SM CLR 24/23 A2996 RMK AO2 LTG DSNT SW T02360230

2010/08/10 08:05
KBAX 100805Z AUTO 00000KT 2 1/2SM BR OVC004 21/21 A2995 RMK AO2

2010/08/10 08:03
KCFE 100803Z AUTO 00000KT 10SM CLR 21/20 A2994 RMK AO2 T02110199

2010/08/10 07:53
KELO 100753Z AUTO 00000KT 10SM CLR 18/17 A2997 RMK AO2

2010/08/10 07:53
KLJF 100753Z AUTO 00000KT 10SM CLR 22/21 A2993 RMK AO2

2010/08/10 07:55
KLRJ 100755Z AUTO 00000KT 7SM SCT007 SCT047 SCT060 25/23 A2985 RMK AO2

2010/08/10 07:54
KLVN 100754Z AUTO 00000KT M1/4SM FG OVC001 18/18 A2994 RMK AO2

2010/08/10 07:56
KLWA 100756Z AUTO 00000KT 4SM BR CLR 20/19 A2996 RMK AO2

2010/08/10 07:54
KLXL 100754Z AUTO 00000KT 5SM BR CLR 18/17 A2993 RMK AO2

2010/08/10 07:55
KMCD 100755Z AUTO 00000KT 1/4SM HZ OVC002 21/18 A2998 RMK AO2

2010/08/10 07:55
KMGN 100755Z AUTO 00000KT 5SM BR BKN009 23/21 A2997 RMK AO2

2010/08/10 07:52
KMJQ 100752Z AUTO 11006KT 7SM CLR 23/22 A2991 RMK AO2

2010/08/10 07:55
KMOP 100755Z AUTO 00000KT 4SM BR CLR 21/21 A2996 RMK AO2

2010/08/10 07:56
KMPZ 100756Z AUTO 00000KT 7SM SCT100 25/23 A2990 RMK AO2

2010/08/10 07:55
KMUT 100755Z AUTO 00000KT 7SM CLR 25/23 A2989 RMK AO2

2010/08/10 07:54
KMVE 100754Z AUTO 13004KT 7SM CLR 23/22 A2987 RMK AO2

2010/08/10 07:55
KMXO 100755Z AUTO 00000KT 4SM CLR 23/21 A2993 RMK AO2

2010/08/10 07:51
KMZH 100751Z AUTO 00000KT 1/2SM FG OVC001 18/17 A2995 RMK AO2

2010/08/10 07:55
KOEB 100755Z AUTO 00000KT 1 1/4SM BR BKN001 21/19 A2998 RMK AO2

2010/08/10 07:51
KONA 100751Z AUTO 00000KT 1/4SM FG OVC001 23/22 A2993 RMK AO2

2010/08/10 07:54
KONZ 100754Z AUTO 00000KT 1/4SM FG OVC001 22/21 A2994 RMK AO2

2010/08/10 07:54
KORB 100754Z AUTO 00000KT 10SM CLR 21/19 A2994 RMK AO2

2010/08/10 07:55
KORC 100755Z AUTO 07005KT 7SM SCT005 SCT020 BKN070 25/25 A2986 RMK AO2 P0009

2010/08/10 07:56
KOSC 100756Z AUTO 32004KT 1 1/2SM BR OVC001 21/19 A2996 RMK AO2

2010/08/10 07:54
KOVL 100754Z AUTO 09006KT 10SM CLR 22/20 A2989 RMK AO2 T02230201

2010/08/10 07:54
KOWA 100754Z AUTO 10003KT 7SM CLR 21/20 A2991 RMK AO2 LTG DSNT S

2010/08/10 07:55
KOZW 100755Z AUTO 00000KT 3/4SM BR VV005 20/20 A2996 RMK AO2 VIS 1/4V2

2010/08/10 07:55
KPEA 100755Z AUTO 2SM +RA BKN006 OVC011 A2998 RMK AO2

2010/08/10 07:53
KPEX 100753Z AUTO 10003KT 10SM CLR 23/21 A2994 RMK AO2 T02270211

2010/08/10 07:55
KPHN 100755Z AUTO 00000KT 1/4SM FG OVC001 17/17 A2995 RMK AO2

2010/08/10 07:55
KRDK 100755Z AUTO 00000KT 10SM SCT090 27/23 A2985 RMK AO2

2010/08/10 07:55
KRGK 100755Z AUTO 00000KT 4SM BR CLR 21/20 A2993 RMK AO2

2010/08/10 07:55
KRMY 100755Z AUTO 00000KT M1/4SM FG BKN001 OVC009 20/19 A2997 RMK AO2

2010/08/10 07:55
KRNP 100755Z AUTO 00000KT 1/4SM FG VV002 19/19 A2996 RMK AO2

2010/08/10 07:55
KROX 100755Z AUTO 20007KT 10SM CLR 22/21 A2991 RMK AO2

2010/08/10 07:55
KRQB 100755Z AUTO 00000KT M1/4SM FG OVC001 19/19 A2998 RMK AO2

2010/08/10 07:54
KRRT 100754Z AUTO 21005KT 10SM CLR 23/21 A2991 RMK AO2 TSNO

2010/08/10 07:54
KSAZ 100754Z AUTO 00000KT 10SM CLR 20/20 A2995 RMK AO2

2010/08/10 07:55
KSDA 100755Z AUTO 00000KT 10SM CLR 26/22 A2986 RMK AO2

2010/08/10 07:53
KSGS 100753Z AUTO 00000KT 10SM CLR 24/22 A2993 RMK AO2 T02370216

2010/08/10 07:55
KSHL 100755Z AUTO 12004KT 5SM BKN023 BKN029 25/24 A2989 RMK AO2

2010/08/10 07:55
KSJX 100755Z AUTO 00000KT 1 3/4SM BR OVC002 22/21 A2997 RMK AO2

2010/08/10 07:55
KSLH 100755Z AUTO 23003KT 1/4SM FG OVC001 21/20 A2996 RMK AO2

2010/08/10 07:55
KSUW 100755Z AUTO 00000KT 5SM BR CLR 21/19 A2993 RMK AO2

2010/08/10 07:53
KTEW 100753Z AUTO 00000KT 1 1/2SM BR BKN001 18/18 A2997 RMK AO2

2010/08/10 07:55
KTNU 100755Z AUTO 14005KT 10SM -RA SCT017 BKN065 OVC080 23/18 A2992 RMK AO2 P0028

2010/08/10 07:55
KTOB 100755Z AUTO 13004KT 1/2SM FG VV005 22/21 A2995 RMK AO2

2010/08/10 07:53
KTTF 100753Z AUTO 00000KT 1/4SM FG OVC001 21/21 A2994 RMK AO2

2010/08/10 07:55
KTVK 100755Z AUTO 3SM CLR 25/25 A2993 RMK AO2

2010/08/10 07:55
KUES 100755Z AUTO 00000KT 7SM CLR 20/19 A2996 RMK AO2 T01980187

2010/08/10 07:50
KUKT 100750Z AUTO 00000KT 10SM CLR 24/20 A2995 RMK AO1

2010/08/10 07:55
KUNU 100755Z AUTO 35004KT 4SM BR CLR 22/21 A2995 RMK AO2 T02160205

2010/08/10 07:54
KVLL 100754Z AUTO 00000KT 5SM BR CLR 22/20 A2998 RMK AO2

2010/08/10 07:56
KVVV 100756Z AUTO 12006KT 10SM CLR 24/22 A2986 RMK AO2

2010/08/10 07:49
KVWU 100749Z AUTO 00000KT 10SM CLR 19/18 A2994 RMK AO2

2010/08/10 07:56
KXVG 100756Z AUTO 00000KT 3SM BR SCT001 17/17 A2994 RMK AO2

2010/08/10 07:55
KY70 100755Z AUTO 33003KT 1 1/2SM BR VV007 21/20 A2996 RMK AO2 T02060199

2010/08/10 07:55
KBVU 100755Z AUTO 00000KT 10SM CLR 23/03 A2987 RMK AO2

2010/08/10 07:56
KNSE 100756Z AUTO 36003KT 5SM HZ CLR 26/23 A2992 RMK AO2 SLP115 T02560228 $

2010/08/10 07:50
LTAC 100750Z 01008KT 9999 FEW040 30/04 Q1014 NOSIG

2010/08/10 07:50
LTAF 100750Z /////KT 9999 SCT035 31/22 Q1007 NOSIG

2010/08/10 07:50
LTAI 100750Z 14004KT 080V190 9999 SCT030 31/25 Q1007 NOSIG

2010/08/10 07:50
LTBA 100750Z 03010KT 360V110 9999 SCT035 31/22 Q1010 NOSIG

2010/08/10 07:50
LTBJ 100750Z 34012KT CAVOK 33/20 Q1007 NOSIG

2010/08/10 07:50
LTBS 100750Z 21009KT CAVOK 30/24 Q1005 NOSIG

2010/08/10 07:50
LTAJ 100750Z VRB02KT CAVOK 33/14 Q1009 NOSIG

2010/08/10 07:50
LTAN 100750Z 01014KT CAVOK 32/11 Q1013 NOSIG

2010/08/10 07:50
LTAU 100750Z VRB02KT CAVOK 29/09 Q1014 NOSIG

2010/08/10 07:50
LTCC 100750Z 10005KT CAVOK 34/01 Q1007 NOSIG

2010/08/10 07:50
LTCE 100750Z 08014KT CAVOK 25/06 Q1018 NOSIG

2010/08/10 07:50
LTCI 100750Z 31007KT 9999 FEW040 26/15 Q1016 NOSIG

2010/08/10 07:50
LTFE 100750Z 28008KT CAVOK 34/21 Q1005 NOSIG

2010/08/10 07:50
EDLN 100750Z VRB03KT CAVOK 20/17 Q1015 RMK ATIS G

2010/08/10 07:50
EDLP 100750Z 19006KT CAVOK 22/12 Q1015 RMK RWY24 TRL60 OK ATIS L

2010/08/10 07:50
EDLW 100750Z 17007KT CAVOK 21/13 Q1015 RMK ATIS J

2010/08/10 07:50
LGPZ 100750Z 04004KT CAVOK 31/20 Q1011 NOSIG BLU

2010/08/10 07:50
LGRX 100750Z 00000KT CAVOK 31/20 Q1010 NOSIG BLU

2010/08/10 07:50
LGSR 100750Z 34012KT CAVOK 31/21 Q1007 NOSIG BLU

2010/08/10 07:50
LCEN 100750Z 06006KT 9999 FEW025 33/22 Q1006 NOSIG

2010/08/10 07:56
MMGL 100756Z 26003KT 10SM BKN020 BKN100 OVC300 20/17 A3012 RMK 8/477

2010/08/10 07:49
MMPR 100749Z 04008KT 10SM SCT008 BKN020CB OVC070 28/25 A2986 RMK 8/97/ OCBL DROPS

2010/08/10 07:56
MMGL 100756Z 26003KT 10SM BKN020 BKN100 OVC300 20/17 A3012 RMK 8/477

2010/08/10 07:50
ENBL 100750Z VRB02KT 9999 FEW014 SCT030 BKN035 14/11 Q1009

2010/08/10 07:48
MMSP 100748Z 10008KT 8SM SCT010 OVC015 19/13 A3022 RMK 8/5//

2010/08/10 07:50
EGBE 100750Z 22007KT 9999 -RA SCT012 16/14 Q1009

2010/08/10 07:50
EGDM 100750Z 25007KT 9999 RA FEW007 BKN060 BKN100 12/11 Q1011 TEMPO SCT007

2010/08/10 07:50
EGDY 100750Z 23004KT 6000 RA FEW008 SCT040 OVC070 13/12 Q1011

2010/08/10 07:58
KSYR 100758Z 00000KT 4SM BR FEW020 SCT028 OVC046 21/21 A2994

2010/08/10 07:50
EGOV 100750Z 22015KT 9999 FEW018 BKN060 14/12 Q1007 NOSIG

2010/08/10 07:50
EGPU 100750Z 03006KT 360V060 9999 SCT016 13/10 Q1002

2010/08/10 08:00
UTSA 100800Z 02007MPS 9999 NSC 37/03 Q1007 R88/C5RD70 TEMPO 03005G10MPS

2010/08/10 08:00
UUOK 100800Z 14004MPS 9999 SCT033 BKN066 32/14 Q1013 NOSIG

2010/08/10 07:50
EGDR 100750Z 24012KT 2000 RA SCT001 OVC005 16/16 Q1011 RED

2010/08/10 07:50
EGOM 100750Z 21008KT 9999 FEW010 SCT060 13/11 Q1004 BLU

2010/08/10 07:50
EGOP 100750Z AUTO 23009KT 2700NDV HZ FEW009/// BKN028/// BKN080/// 14/13 Q1010

2010/08/10 07:50
EGOW 100750Z 24012KT 9999 FEW015 BKN030 15/09 Q1008 BLU

2010/08/10 07:50
EGQS 100750Z 16003KT 9999 FEW020TCU SCT060 13/10 Q1004 BLU NOSIG

2010/08/10 07:50
EGVN 100750Z 22004KT 9999 FEW008 BKN070 13/11 Q1010 BLU NOSIG

2010/08/10 08:00
URMT 100800Z 09009G12MPS CAVOK 33/08 Q1012 NOSIG RMK QFE719 SC07

2010/08/10 08:00
OMAA 100800Z 18007KT 130V230 CAVOK 43/13 Q0999 A2950 NOSIG

2010/08/10 08:00
OMAD 100800Z 21005KT 150V290 8000 NSC 43/15 Q0999 A2951

2010/08/10 08:00
OMAL 100800Z 18012KT 150V220 CAVOK 42/13 Q1002 A2959

2010/08/10 08:00
OMDB 100800Z 17005KT 100V260 CAVOK 43/17 Q0999 NOSIG

2010/08/10 08:00
OMDW 100800Z VRB04KT CAVOK 45/13 Q1000 NOSIG

2010/08/10 08:00
OMFJ 100800Z 07009KT 040V120 CAVOK 34/27 Q1002 A2960

2010/08/10 08:00
OMRK 100800Z 08007KT CAVOK 43/19 Q0999 A2952

2010/08/10 08:00
OMSJ 100800Z 16007KT 120V200 7000 NSC 44/14 Q1000

2010/08/10 08:00
OYAS 100800Z 19006KT 9000 FEW020 SCT090 BKN250 34/23 Q1008

2010/08/10 07:48
MMLO 100748Z 00000KT 8SM SCT030 BKN070 OVC200 16/16 A3020 RMK 63066 8/773

2010/08/10 08:01
CYWA 100801Z AUTO 00000KT 3 1/2SM CLR 13/13 A2991

2010/08/10 07:59
KEKN 100759Z AUTO 00000KT 2SM BR BKN001 OVC006 17/17 A3008

2010/08/10 08:00
YBBN 100800Z 07006KT 8000 -RA SCT004 BKN014 BKN040 19/19 Q1016 FM0800 02012KT 7000 -RA BKN008 BKN025 TEMPO 0800/1100 02015G25KT 3000 RA BKN006 FM0800 MOD TURB BLW 7000FT

2010/08/10 08:00
GOOY 100800Z 31002KT 9999 FEW013 BKN230 26/22 Q1013 NOSIG

2010/08/10 08:00
DNMM 100800Z 27012KT 8000 SCT010 26/24 Q1015 NOSIG

2010/08/10 08:00
YBBN 100800Z 07006KT 8000 -RA SCT004 BKN014 BKN040 19/19 Q1016 FM0800 02012KT 7000 -RA BKN008 BKN025 TEMPO 0800/1100 02015G25KT 3000 RA BKN006 FM0800 MOD TURB BLW 7000FT

2010/08/10 07:59
KVTN 100759Z AUTO 02010KT 8SM -RA OVC043 19/19 A2991

2010/08/10 07:59
KEKN 100759Z AUTO 00000KT 2SM BR BKN001 OVC006 17/17 A3008

2010/08/10 07:58
KSYR 100758Z 00000KT 4SM BR FEW020 SCT028 OVC046 21/21 A2994

2010/08/10 07:55
EBBL 100755Z 20006KT 9999 SCT250 20/11 Q1015 BLU BLU

2010/08/10 07:55
EBFN 100755Z 18008KT 9999 SCT019 BKN100 BKN200 18/14 Q1013 WHT WHT

2010/08/10 07:55
EBFS 100755Z 23006KT 9999 SCT230 18/13 Q1015 BLU BLU

2010/08/10 07:50
EGBE 100750Z 22007KT 9999 -RA SCT012 16/14 Q1009

2010/08/10 07:50
EGNC 100750Z 18008KT 9999 FEW025 14/12 Q1005

2010/08/10 07:50
EGNJ 100750Z 23008KT 9999 FEW006 SCT010 16/14 Q1008

2010/08/10 07:50
EGPA 100750Z 25007KT 9999 FEW012 SCT020 15/12 Q1004

2010/08/10 07:50
EGPC 100750Z VRB02KT 9999 FEW025 13/12 Q1004

2010/08/10 07:50
EGPE 100750Z 00000KT 9999 FEW015 FEW020TCU 13/11 Q1004

2010/08/10 07:50
EGPO 100750Z 34004KT 290V360 9999 FEW012 14/11 Q1004

2010/08/10 07:50
EGPU 100750Z 03006KT 360V060 9999 SCT016 13/10 Q1002

2010/08/10 07:50
EGVN 100750Z 22004KT 9999 FEW008 BKN070 13/11 Q1010 NOSIG

2010/08/10 07:50
ENBL 100750Z VRB02KT 9999 FEW014 SCT030 BKN035 14/11 Q1009

2010/08/10 07:50
ENHK 100750Z 30004KT 9999 FEW025 BKN050 13/09 Q1011

2010/08/10 08:00
LBBG 100800Z 35007MPS CAVOK 29/21 Q1011 NOSIG

2010/08/10 08:00
LBGO 100800Z 29004MPS 240V320 CAVOK 26/19 Q1015 NOSIG

2010/08/10 08:00
LBPD 100800Z 29007MPS 260V330 CAVOK 27/18 Q1014 NOSIG

2010/08/10 08:00
LBSF 100800Z 27003MPS 240V310 CAVOK 24/16 Q1017 NOSIG

2010/08/10 08:00
LBWN 100800Z 31004MPS 280V020 CAVOK 28/22 Q1011 WS RWY09 NOSIG

2010/08/10 08:00
LDDU 100800Z 02010KT 340V070 CAVOK 30/09 Q1014 NOSIG

2010/08/10 08:00
LDPL 100800Z VRB01KT CAVOK 28/16 Q1015 NOSIG

2010/08/10 08:00
LDRI 100800Z 26003KT 210V320 CAVOK 27/16 Q1015

2010/08/10 08:00
LDZA 100800Z VRB02KT 9999 FEW020 23/17 Q1018 NOSIG

2010/08/10 08:00
LDZD 100800Z VRB05KT CAVOK 28/15 Q1014 NOSIG

2010/08/10 08:00
LQBK 100800Z 09002KT 9999 FEW027 22/18 Q1017 NOSIG

2010/08/10 08:00
LWOH 100800Z 33007KT 300V010 9999 FEW050 24/14 Q1017

2010/08/10 08:00
LZIB 100800Z 00000KT 9999 FEW020 21/16 Q1018

2010/08/10 08:00
LZTT 100800Z 28005KT 250V330 9999 FEW023 19/13 Q1019 NOSIG

2010/08/10 08:00
WSSL 100800Z 16005KT 130V190 9999 FEW020 BKN300 32/23 Q1006 RMK 0730Z Q1006 

2010/08/10 08:00
OJAI 100800Z 27008KT 7000 NSC 29/14 Q1010 NOSIG

2010/08/10 08:00
OJAM 100800Z 36005KT 5000 HZ NSC 30/10 Q1011 NOSIG

2010/08/10 08:00
OJAQ 100800Z 36015KT 8000 NSC 33/21 Q1006

2010/08/10 08:00
YAMB 100800Z AUTO 09007KT 3400NDV // SCT002 SCT015 OVC059 18/18 Q1016

2010/08/10 08:00
YBCG 100800Z AUTO 03019KT 5000NDV // SCT005 BKN011 OVC026 20/19 Q1016

2010/08/10 08:00
YSRI 100800Z AUTO 00000KT 3900NDV // SCT011 OVC018 12/12 Q1013

2010/08/10 08:00
DTTR 100800Z 06014KT CAVOK 28/12 Q1017

2010/08/10 08:00
NWWM 100800Z AUTO 09005KT 050V180 9999NDV BKN049/// 22/16 Q1023

2010/08/10 08:00
NWWL 100800Z AUTO 11013KT 9999NDV FEW028/// OVC048/// 22/17 Q1022

2010/08/10 08:00
NWWU 100800Z AUTO 10016KT 9999NDV FEW026/// SCT035/// OVC048/// 23/19 Q1021

2010/08/10 07:59
KEKN 100759Z AUTO 00000KT 2SM BR BKN001 OVC006 17/17 A3008

2010/08/10 07:58
KSYR 100758Z 00000KT 4SM BR FEW020 SCT028 OVC046 21/21 A2994

2010/08/10 07:59
KVTN 100759Z AUTO 02010KT 8SM -RA OVC043 19/19 A2991

2010/08/10 08:00
YBCS 100800Z 27004KT 9999 FEW003 SCT022 BKN035 24/23 Q1013

2010/08/10 08:00
YBTL 100800Z 05004KT 6000 -RA FEW005 SCT016 BKN050 23/23 Q1014

2010/08/10 07:50
EGAE 100750Z 24011KT 9999 -RA FEW009 SCT014 BKN027 12/11 Q1004

2010/08/10 07:50
EGBE 100750Z 22007KT 9999 -RA SCT012 16/14 Q1009

2010/08/10 07:50
EGDY 100750Z 23004KT 6000 RA FEW008 SCT040 OVC070 13/12 Q1011 WHT

2010/08/10 07:50
EGLF 100750Z 25007KT 9999 -RA FEW012 SCT022 BKN038 14/13 Q1011

2010/08/10 07:50
EGNC 100750Z 18008KT 9999 FEW025 14/12 Q1005

2010/08/10 07:50
EGNH 100750Z 22013KT 9999 FEW016 SCT032 15/11 Q1007

2010/08/10 07:50
EGNJ 100750Z 23008KT 9999 FEW006 SCT010 16/14 Q1008

2010/08/10 07:50
EGNS 100750Z 23015KT 9999 8000N -SHRA FEW012 SCT016 BKN040 13/11 Q1006 NOSIG

2010/08/10 07:50
EGPA 100750Z 25007KT 9999 FEW012 SCT020 15/12 Q1004

2010/08/10 07:50
EGPC 100750Z VRB02KT 9999 FEW025 13/12 Q1004

2010/08/10 07:50
EGPE 100750Z 00000KT 9999 FEW015 FEW020TCU 13/11 Q1004

2010/08/10 07:50
EGPL 100750Z 03008KT 9999 FEW011 14/12 Q1004

2010/08/10 07:50
EGPM 100750Z 11014KT 6000 SCT004 BKN006 14/14 Q1004

2010/08/10 07:50
EGPO 100750Z 34004KT 290V360 9999 FEW012 14/11 Q1004

2010/08/10 07:50
EGPU 100750Z 03006KT 360V060 9999 SCT016 13/10 Q1002

2010/08/10 07:50
EGUW 100750Z 25005KT 9000 RA FEW012 OVC050 14/13 Q1010 BLU TEMPO 6000 SCT010 GRN

2010/08/10 07:55
EGVA 100755Z AUTO 21006KT 9999 -DZ SCT065 13/12 A2981 RMK AO2 DZB0752 SLP096 P0000 T01310120 $

2010/08/10 07:50
EGVN 100750Z 22004KT 9999 FEW008 BKN070 13/11 Q1010 NOSIG

2010/08/10 07:50
EGXD 100750Z 16005KT 9999 FEW015 SCT050 BKN080 14/12 Q1007 BLU TEMPO 7000 SHRA SCT018 WHT

2010/08/10 07:50
EGYM 100750Z 23008KT 9999 FEW010 BKN040 13/11 Q1009 RERA BLU TEMPO SCT012 GRN

2010/08/10 07:55
EBBL 100755Z 20006KT 9999 SCT250 20/11 Q1015 BLU BLU

2010/08/10 07:55
EBFN 100755Z 18008KT 9999 SCT019 BKN100 BKN200 18/14 Q1013 WHT WHT

2010/08/10 07:55
EBFS 100755Z 23006KT 9999 SCT230 18/13 Q1015 BLU BLU

2010/08/10 07:50
EDHL 100750Z 16008KT 120V180 CAVOK 20/20 Q1015 RMK K

2010/08/10 07:50
EDLN 100750Z VRB03KT CAVOK 20/17 Q1015 RMK ATIS G

2010/08/10 07:50
EDLP 100750Z 19006KT CAVOK 22/12 Q1015 RMK RWY24 TRL60 OK ATIS L

2010/08/10 07:50
EDLW 100750Z 17007KT CAVOK 21/13 Q1015 RMK ATIS J

2010/08/10 07:50
EDNY 100750Z VRB02KT CAVOK 20/15 Q1018 RMK ATIS I

2010/08/10 07:50
EDXW 100750Z 16012KT 9000 FEW012 19/16 Q1013 RMK ATIS INFO D

2010/08/10 07:55
EHKD 100755Z AUTO 22015KT 9999NDV FEW013/// OVC016/// 18/15 Q1011 WHT WHT TEMPO GRN TEMPO SCT012 SCT015CB BKN020

2010/08/10 07:55
EHRD 100755Z 19009KT 9999 FEW011 SCT014 BKN018 18/15 Q1013 NOSIG

2010/08/10 07:55
ETIK 100755Z AUTO 00000KT 9999 CLR 20/16 A3007 RMK AO2 SLP172 T01970165 $

2010/08/10 07:57
ETOR 100757Z VRB05KT 9999 FEW100 24/14 A3003 RMK BLU

2010/08/10 07:55
KQBS 100755Z VRB06KT 9000 HZ FEW250 45/06 A2949 RMK SLP993 WND/ALSTG/SLP/QNH ESTMD QNH998

2010/08/10 07:55
KQIR 100755Z AUTO 13005KT 9999 FEW170 43/15 A2953 RMK AO2 SLP996 T04250148

2010/08/10 07:55
KQPV 100755Z AUTO 03008KT 9999 FEW240 42/06 A2964 RMK AO2 SLP030 T04170063

2010/08/10 07:55
KQRY 100755Z AUTO VRB03KT 9999 BKN120 BKN130 23/12 A3010 RMK AO2 SLP100 T02270117 PWINO $

2010/08/10 07:55
KQXF 100755Z AUTO 01005KT 9999 CLR 46/M01 A2959 RMK AO2 SLP004 T04611012 $

2010/08/10 08:00
YBCS 100800Z 27004KT 9999 FEW003 SCT022 BKN035 24/23 Q1013

2010/08/10 08:00
YBTL 100800Z 05004KT 6000 -RA FEW005 SCT016 BKN050 23/23 Q1014

2010/08/10 08:00
GMFF 100800Z 20001KT 8000 FEW033 SCT100 32/12 Q1019 NOSIG

2010/08/10 08:00
GMFK 100800Z 00000KT 9999 SCT030 29/16 Q1022

2010/08/10 08:00
GMFM 100800Z 20004KT CAVOK 33/11 Q1019

2010/08/10 08:00
GMFO 100800Z 36007KT 9999 FEW033 SCT100 27/20 Q1018 NOSIG

2010/08/10 08:00
GMMC 100800Z 12002KT 5000 NSC 30/21 Q1013

2010/08/10 08:00
GMMW 100800Z 6000 BKN016 SCT100 24/21 Q1017

2010/08/10 08:00
GMMZ 100800Z 24006KT CAVOK 26/11 Q1025

2010/08/10 08:00
GMTA 100800Z 12002KT 6000 OVC013 26/23 Q1017

2010/08/10 08:00
GMAD 100800Z 25005KT 0400 R28///// FG OVC003 20/20 Q1015 BECMG 1500 BR OVC005

2010/08/10 08:00
GMFF 100800Z 20001KT 8000 FEW033 SCT100 32/12 Q1019 NOSIG

2010/08/10 08:00
GMME 100800Z 27003KT 190V310 5000 NSC 30/20 Q1015 NOSIG

2010/08/10 08:00
GMMN 100800Z 00000KT CAVOK 33/15 Q1016 NOSIG

2010/08/10 08:00
GMMX 100800Z 11005KT 8000 SCT100 30/14 Q1017 NOSIG

2010/08/10 08:00
GMTT 100800Z 09007KT 9999 FEW016 30/17 Q1016 NOSIG

2010/08/10 07:54
KACY 100754Z 21006KT 10SM CLR 24/22 A2995 RMK AO2 SLP140 T02440222 $

2010/08/10 07:56
KCHS 100756Z 00000KT 10SM FEW023 27/25 A3000 RMK AO2 SLP157 T02670250

2010/08/10 07:56
KNBC 100756Z AUTO 00000KT 10SM CLR 26/24 A2998 RMK AO2 SLP154 T02610244 $

2010/08/10 07:55
KNBG 100755Z AUTO 00000KT 4SM HZ CLR A2992 RMK AO2 SLP132 PWINO FZRANO $

2010/08/10 07:56
KNCA 100756Z AUTO 00000KT 10SM 24/24 A3001 RMK AO2 SLP165 T02390239 $

2010/08/10 07:57
KNJM 100757Z AUTO 23004KT 10SM BKN017 27/25 A3001 RMK AO2 SLP167 T02720250

2010/08/10 07:56
KNPA 100756Z AUTO 34003KT 6SM BR CLR 26/24 A2990 RMK AO2 SLP127 T02560239

2010/08/10 07:56
KNTU 100756Z 24004KT 9SM FEW200 23/22 A2997 RMK AO2 SLP151 T02330222 $

2010/08/10 07:56
KVPS 100756Z 01007KT 10SM SKC 26/24 A2990 RMK AO2A SLP127 T02600236 $

2010/08/10 08:00
SCAR 100800Z 08006KT CAVOK 10/05 Q1015

2010/08/10 08:00
SCBA 100800Z AUTO 25005KT CAVOK M01/M03 Q1021

2010/08/10 08:00
SCDA 100800Z 25003KT 8000 OVC020 13/09 Q1017

2010/08/10 08:00
SCEL 100800Z VRB01KT 5000 HZ NSC 03/00 Q1015 NOSIG

2010/08/10 08:00
SCFA 100800Z 31006KT 9999 OVC019 13/08 Q1017

2010/08/10 08:00
SCIE 100800Z 19004KT CAVOK 05/04 Q1017

2010/08/10 08:00
SCTE 100800Z 18005KT 9999 OVC006 07/06 Q1022 NOSIG

2010/08/10 08:00
SPHI 100800Z 17004KT CAVOK 15/13 Q1015 RMK PP000

2010/08/10 08:00
SPQU 100800Z 36006KT CAVOK 11/M17 Q1026 RMK PP000

2010/08/10 08:00
TFFF 100800Z AUTO 00000KT 9999NDV NCD 25/24 Q1012

2010/08/10 08:00
TFFR 100800Z VRB01KT 9999 SCT020 SCT050 25/24 Q1013 TEMPO 4000 SHRA

2010/08/10 07:55
TXKF 100755Z 17007KT 9999 FEW015 FEW180 SCT300 27/23 Q1020 /

2010/08/10 08:00
FMMI 100800Z VRB03KT 9999 SCT020 22/12 Q1026 NOSIG

2010/08/10 08:00
TGPY 100800Z 19006KT 9999 SCT017 SCT034 28/25 Q1012

2010/08/10 08:00
SCAR 100800Z 08006KT CAVOK 10/05 Q1015

2010/08/10 08:00
SCDA 100800Z 25003KT 8000 OVC020 13/09 Q1017

2010/08/10 08:00
SCFA 100800Z 31006KT 9999 OVC019 13/08 Q1017

2010/08/10 08:00
SCAT 100800Z 35005KT 7000 OVC013 10/07 Q1019

2010/08/10 08:00
SCEL 100800Z VRB01KT 5000 HZ NSC 03/00 Q1015 NOSIG

2010/08/10 08:00
SCIE 100800Z 19004KT CAVOK 05/04 Q1017

2010/08/10 08:00
SCTC 100800Z VRB01KT 0100 FG VV/// M01/M01 Q1018

2010/08/10 08:00
SCTE 100800Z 18005KT 9999 OVC006 07/06 Q1022 NOSIG

2010/08/10 08:00
SCBA 100800Z AUTO 25005KT CAVOK M01/M03 Q1021

2010/08/10 08:00
SCCI 100800Z 28006KT 9999 FEW016 SCT100 04/01 Q1004 NOSIG

2010/08/10 08:01
CYZE 100801Z AUTO 32003KT 2 1/4SM BR CLR 17/17 A2994 RMK SLP139 DENSITY ALT 900FT

2010/08/10 08:00
KNEL 100800Z AUTO 23003KT 6SM HZ SCT060 23/20 A2993 RMK AO2 SLP132 T02330200 $

2010/08/10 07:59
KNGU 100759Z 21005KT 10SM CLR 26/23 A2998 RMK AO2 SLP152 T02610233

2010/08/10 07:56
KNLC 100756Z AUTO 32010KT 10SM CLR 22/12 A2981 RMK AO2 SLP094 T02220122 403440139 TSNO

2010/08/10 07:55
KTBN 100755Z AUTO 14004KT 10SM CLR 25/23 A2996 RMK AO2 SLP117 T02520231 $

2010/08/10 07:50
MUCM 100750Z 02006KT 340V050 9000 SCT020 23/21 Q1014

2010/08/10 07:55
MUCU 100755Z 00000KT 9000 SCT020 26/24 Q1015

2010/08/10 07:55
MUHA 100755Z 21006KT 7000 FEW040 OVC110 23/22 Q1012

2010/08/10 07:50
MUHG 100750Z 34002KT 5000 VCFG FEW020 24/23 Q1013

2010/08/10 07:51
MUVR 100751Z 19003KT 150V240 9000 FEW018 OVC070 23/21 Q1013

2010/08/10 08:00
NTAA 100800Z 10004KT 9999 FEW020 23/16 Q1018 WS ALL RWY NOSIG

2010/08/10 07:50
OAUZ 100750Z 02003KT 9999 BKN150 38/07 Q1006 BLU

2010/08/10 08:00
OJAI 100800Z 27008KT 7000 NSC 29/14 Q1010 NOSIG

2010/08/10 08:00
OJAM 100800Z 36005KT 5000 HZ NSC 30/10 Q1011 NOSIG

2010/08/10 08:00
OJAQ 100800Z 36015KT 8000 NSC 33/21 Q1006

2010/08/10 08:00
OLBA 100800Z 25006KT 230V290 8000 SCT026 30/22 Q1009 NOSIG

2010/08/10 07:56
PHBK 100756Z AUTO 00000KT 10SM CLR 26/15 A3010 RMK AO2 SLP195 T02610150 TSNO $

2010/08/10 08:00
RJAW 100800Z 13007KT 9999 FEW015 27/23 Q1013 RMK 1CU015 A2993

2010/08/10 08:00
RJSM 100800Z VRB02KT 7000 FEW003 SCT005 BKN008 24/22 Q1013 RMK 2ST003 3ST005 5ST008 A2991 VIS W 5KM FCST 0814 BECMG 0808 12003KT TEMPO 0809 FEW003ST BKN005ST TEMPO 0912 3000 BR FEW001ST BKN003ST BECMG 1212 2000 BR SCT001ST BKN003ST TEMPO 1214 1500 BR SCT000ST BKN001ST/ ST AFT 12Z

2010/08/10 08:00
SCON 100800Z AUTO VRB02KT CAVOK 02/01 Q1024

2010/08/10 08:00
TFFF 100800Z AUTO 00000KT 9999NDV NCD 25/24 Q1012

2010/08/10 08:00
WSAP 100800Z 14006KT 9999 FEW020 BKN300 31/25 Q1006

2010/08/10 08:00
WSSS 100800Z 17006KT 110V220 9999 SCT020 BKN300 31/26 Q1006 NOSIG

2010/08/10 08:00
FLLS 100800Z 07007KT CAVOK 23/08 Q1025

2010/08/10 07:54
KWAL 100754Z AUTO 24005KT 10SM CLR 24/22 A2996 RMK AO2 SLP143 T02390217 TSNO 

2010/08/10 08:01
CYEK 100801Z AUTO 25004KT 1SM CLR 08/08 A3008 RMK VSBY VRBL 0.4V9.+

2010/08/10 08:00
KCGS 100800Z AUTO 00000KT 10SM CLR 27/21 A2994 RMK AO1

2010/08/10 07:59
KCGE 100759Z AUTO 19003KT 10SM CLR 26/25 A2996 RMK AO1

2010/08/10 08:00
FMCZ 100800Z 17009KT 9999 FEW023 28/20 Q1018

2010/08/10 08:06
KESN 100806Z AUTO 20004KT 10SM CLR 24/23 A2998 RMK AO2

2010/08/10 08:01
KDMW 100801Z AUTO 00000KT 7SM CLR 24/22 A2996 RMK AO2

2010/08/10 08:02
KFDK 100802Z AUTO 00000KT 7SM CLR 24/22 A2996 RMK AO2

2010/08/10 08:03
KFME 100803Z AUTO 00000KT 4SM CLR 20/20 A2995 RMK AO1

2010/08/10 08:02
KW29 100802Z AUTO 20005KT 10SM CLR 25/21 A2993 RMK AO1

2010/08/10 08:00
KMTN 100800Z AUTO 00000KT 10SM CLR 26/22 A2993 RMK AO2

2010/08/10 08:01
K2W6 100801Z AUTO 22005KT 10SM CLR 24/21 A2996 RMK AO1

2010/08/10 08:00
K2G4 100800Z AUTO 25006KT 10SM CLR 20/15 A3009 RMK AO1

2010/08/10 08:02
KCBE 100802Z AUTO 00000KT 10SM CLR 21/20 A3002 RMK AO1

2010/08/10 08:00
VHHH 100800Z 17008KT 130V240 9999 FEW025 SCT035 32/25 Q1004 NOSIG

2010/08/10 08:00
FLLS 100800Z 07007KT CAVOK 23/08 Q1025

2010/08/10 07:50
OAKN 100750Z 25004KT 8000 DU BKN150 OVC250 37/01 Q1008 BLU TEMPO 6000 WHT RMK A2975 DA6700

2010/08/10 08:00
PAMC 100800Z 07006KT 10SM OVC025 13/10 A2961 RMK AO2

2010/08/10 08:00
PATK 100800Z AUTO VRB04KT 6SM -RA BR BKN012 BKN019 OVC049 12/12 A2976 RMK AO2 P0001 TSNO

2010/08/10 08:01
KBAF 100801Z 00000KT 2SM BR FEW003 SCT110 22/21 A2991 RMK AO2 RAE0759 P0000

2010/08/10 08:01
KBMG 100801Z 00000KT 3SM BR BKN110 23/22 A2996 RMK AO2

2010/08/10 08:01
KTQE 100801Z AUTO 14003KT 2SM BR CLR 24/24 A2982 RMK AO2

2010/08/10 07:56
PAVC 100756Z AUTO 19014KT 160V220 4SM BR 09/08 A2968 RMK AO2 PWINO TSNO T00880077 PK WND 21026/0745 SLP053 $

2010/08/10 07:59
K0R3 100759Z AUTO 00000KT BKN050 25/25 A2992 RMK AO2 PWINO

2010/08/10 08:00
K1A5 100800Z AUTO 00000KT 3SM BR OVC002 20/18 A3012 RMK AO2 T01970183

2010/08/10 08:00
K3A1 100800Z AUTO 00000KT 5SM BR CLR 24/24 A3001 RMK AO2 T02350235 TSNO

2010/08/10 08:02
K47A 100802Z AUTO 07003KT 7SM CLR 25/21 A3004 RMK AO2

2010/08/10 07:58
K4A9 100758Z AUTO 00000KT 4SM BR CLR 24/23 A3000 RMK AO2 T02380225

2010/08/10 08:00
K4R4 100800Z AUTO 00000KT 3SM BR CLR 27/26 A2992 RMK AO2 T02700257

2010/08/10 07:58
K8A0 100758Z AUTO 07004KT 10SM SCT120 26/22 A2999 RMK AO2

2010/08/10 08:00
KAFP 100800Z AUTO 00000KT 5SM BR CLR 23/23 A3001 RMK AO2 T02310229

2010/08/10 08:00
KALX 100800Z AUTO 00000KT 7SM CLR 25/22 A2998 RMK AO1

2010/08/10 08:00
KASJ 100800Z AUTO 00000KT 5SM BR CLR 23/21 A3000 RMK AO2

2010/08/10 08:00
KAVC 100800Z AUTO 00000KT 7SM SCT090 24/22 A3004 RMK AO2

2010/08/10 08:00
KBCB 100800Z AUTO 00000KT 5SM CLR 21/21 A3010 RMK AO2 PWINO

2010/08/10 07:59
KCJR 100759Z AUTO 00000KT 7SM CLR 25/22 A2995 RMK AO2

2010/08/10 08:00
KCPC 100800Z AUTO 00000KT 10SM CLR 24/24 A3001 RMK AO2 T02400237

2010/08/10 08:00
KCPK 100800Z AUTO 20003KT 4SM -RA CLR 22/21 RMK AO2

2010/08/10 08:00
KDPL 100800Z AUTO 00000KT 10SM CLR 23/23 A3002 RMK AO2

2010/08/10 07:59
KEDE 100759Z AUTO 24004KT 10SM SCT090 26/24 A2996 RMK AO2

2010/08/10 07:55
KEMV 100755Z AUTO 00000KT 5SM BR CLR 22/21 A2999 RMK AO2

2010/08/10 08:00
KEXX 100800Z AUTO 00000KT 5SM BR CLR 22/22 A3002 RMK AO2

2010/08/10 07:57
KEZF 100757Z AUTO 00000KT 10SM CLR 25/23 A2994 RMK AO2 T02470233

2010/08/10 08:00
KFQD 100800Z AUTO 00000KT 2SM BR CLR 23/22 A3004 RMK AO2

2010/08/10 08:01
KGEV 100801Z AUTO 00000KT 4SM BR CLR 20/19 A3016 RMK AO2

2010/08/10 08:00
KHBI 100800Z AUTO 20004KT 10SM CLR 24/22 A3005 RMK AO2

2010/08/10 08:00
KHLX 100800Z AUTO 18005KT 7SM CLR 23/23 A3013 RMK AO2

2010/08/10 07:59
KHRJ 100759Z AUTO 00000KT 7SM SCT008 24/23 A3001 RMK AO2

2010/08/10 07:59
KJNX 100759Z AUTO 00000KT 7SM CLR 21/21 A3000 RMK AO2

2010/08/10 08:00
KLWB 100800Z AUTO 00000KT 4SM BR CLR 18/17 A3010 RMK AO2

2010/08/10 08:01
KMFV 100801Z AUTO 22003KT 4SM BR CLR 24/23 A2997 RMK AO2

2010/08/10 08:00
KMQI 100800Z AUTO 25006KT 10SM CLR 26/26 A2999 RMK AO2

2010/08/10 08:00
KONX 100800Z AUTO 00000KT 7SM CLR 24/22 A2999 RMK AO2

2010/08/10 08:00
KPGV 100800Z AUTO 22005KT 10SM CLR 24/24 A3001 RMK AO2

2010/08/10 08:01
KPTB 100801Z AUTO 00000KT 7SM CLR 24/22 A2997 RMK AO2

2010/08/10 08:00
KRUQ 100800Z AUTO 00000KT 7SM CLR 24/21 A3003 RMK AO2

2010/08/10 08:01
KTDF 100801Z AUTO 00000KT 23/22 A3002 RMK AO1

2010/08/10 08:00
KUNV 100800Z AUTO 00000KT 10SM SCT100 21/17 A2998 RMK AO2 T02070168

2010/08/10 07:55
KVVG 100755Z AUTO 00000KT 24/24 A2991 RMK AO2

2010/08/10 08:00
SAVC 100800Z 27017KT CAVOK 06/M03 Q1020

2010/08/10 08:00
SARF 100800Z 20005KT CAVOK 11/09 Q1021

2010/08/10 08:00
SARP 100800Z 11006KT CAVOK 10/06 Q1021

2010/08/10 08:00
SACO 100800Z 29005KT CAVOK 02/M02 Q1027

2010/08/10 08:00
LHBP 100800Z 33005KT 300V010 CAVOK 23/15 Q1018 NOSIG

2010/08/10 08:00
MKJS 100800Z 00000KT 9999 FEW024 BKN220 27/23 Q1012

2010/08/10 08:00
SBFN 100800Z 12008KT 9999 SCT017 26/23 Q1015

2010/08/10 08:00
MKJS 100800Z 00000KT 9999 FEW024 BKN220 27/23 Q1012

2010/08/10 08:00
NWWW 100800Z AUTO 14006KT 100V170 9999NDV NCD 20/14 Q1023

2010/08/10 08:00
GBYD 100800Z 05006KT 9999 SCT010 BKN110 26/24 Q1012

2010/08/10 08:00
YSRI 100800Z AUTO 00000KT 3900NDV // SCT011 OVC018 12/12 Q1013

2010/08/10 08:00
UUOK 100800Z 14004MPS 9999 SCT033 BKN066 32/14 Q1013 NOSIG

2010/08/10 08:00
URMT 100800Z 09009G12MPS CAVOK 33/08 Q1012 NOSIG RMK QFE719 SC07

2010/08/10 08:00
SAME 100800Z 00000KT CAVOK 03/M04 Q1022

2010/08/10 08:00
YBBN 100800Z 07006KT 8000 -RA SCT004 BKN014 BKN040 19/19 Q1016 FM0800 02012KT 7000 -RA BKN008 BKN025 TEMPO 0800/1100 02015G25KT 3000 RA BKN006 FM0800 MOD TURB BLW 7000FT

2010/08/10 08:00
YBCS 100800Z 27004KT 9999 FEW003 SCT022 BKN035 24/23 Q1013

2010/08/10 08:00
YBTL 100800Z 05004KT 6000 -RA FEW005 SCT016 BKN050 23/23 Q1014

2010/08/10 08:00
UKLR 100800Z 00000MPS 9999 SCT022 SCT022CB BKN100 21/17 Q1017 30090070 TEMPO -TSRA

2010/08/10 08:00
UKLI 100800Z 31002MPS 240V020 CAVOK 23/17 Q1017 28090070 NOSIG

2010/08/10 08:00
UKON 100800Z 03005MPS 340V080 CAVOK 33/15 Q1011 05090075 NOSIG

2010/08/10 08:00
UKCM 100800Z 06006MPS 030V110 CAVOK 35/13 Q1011 02010065 NOSIG

2010/08/10 08:00
UKCW 100800Z 07004MPS 030V110 CAVOK 37/08 Q1014 0909//70 NOSIG

2010/08/10 08:00
UKLU 100800Z 18002MPS 9999 FEW033 22/17 Q1018 10090070 NOSIG

2010/08/10 08:00
UKKK 100800Z 06003MPS 8000 NSC 27/21 Q1015 26CLRD70 TEMPO VRB14MPS 3000 -TSRAGR BKN020CB

2010/08/10 08:00
UKKM 100800Z 05003MPS 020V110 CAVOK 27/20 Q1015 33CLRD70 NOSIG

2010/08/10 08:00
UKLN 100800Z 32004MPS 290V350 CAVOK 21/18 Q1018 3309//70 NOSIG

2010/08/10 08:00
UTSA 100800Z 02007MPS 9999 NSC 37/03 Q1007 R88/C5RD70 TEMPO 03005G10MPS

2010/08/10 07:50
LSMM 100750Z AUTO 00000KT 9999NDV FEW069 20/14 Q1018 RMK BLU

2010/08/10 08:00
UKBB 100800Z 35002MPS 300V030 9999 SCT033CB 25/21 Q1015 88CLRD95 TEMPO -TSRA SCT030CB

2010/08/10 08:00
UKHH 100800Z VRB01MPS CAVOK 36/09 Q1014 080///65 NOSIG

2010/08/10 08:00
UKOO 100800Z 04007MPS CAVOK 33/16 Q1011 34090070 NOSIG

2010/08/10 08:00
UKDE 100800Z 00000MPS CAVOK 33/14 Q1012 02CLRD70 NOSIG

2010/08/10 08:00
UKDD 100800Z 05003MPS 360V080 CAVOK 36/16 Q1012 08090070 NOSIG

2010/08/10 08:00
UKFF 100800Z 05007MPS 020V080 CAVOK 33/19 Q1009 01010070 NOSIG

2010/08/10 08:00
UKLL 100800Z VRB02MPS 9999 BKN013 19/16 Q1018 31110360 NOSIG

2010/08/10 08:00
UKCC 100800Z 12004MPS 090V160 CAVOK 36/11 Q1013 08090070 NOSIG

2010/08/10 08:00
UKDR 100800Z 01005MPS 320V060 CAVOK 32/16 Q1013 3609//70 NOSIG

2010/08/10 08:00
GMAD 100800Z 25005KT 0400 R28///// FG OVC003 20/20 Q1015 BECMG 1500 BR OVC005

2010/08/10 08:00
GMFF 100800Z 20001KT 8000 FEW033 SCT100 32/12 Q1019 NOSIG

2010/08/10 08:00
GMME 100800Z 27003KT 190V310 5000 NSC 30/20 Q1015 NOSIG

2010/08/10 08:00
GMMN 100800Z 00000KT CAVOK 33/15 Q1016 NOSIG

2010/08/10 08:00
GMMX 100800Z 11005KT 8000 SCT100 30/14 Q1017 NOSIG

2010/08/10 08:00
GMTT 100800Z 09007KT 9999 FEW016 30/17 Q1016 NOSIG

2010/08/10 08:00
TFFF 100800Z AUTO 00000KT 9999NDV NCD 25/24 Q1012

2010/08/10 08:00
YBBN 100800Z 07006KT 8000 -RA SCT004 BKN014 BKN040 19/19 Q1016 FM0800 02012KT 7000 -RA BKN008 BKN025 TEMPO 0800/1100 02015G25KT 3000 RA BKN006 FM0800 MOD TURB BLW 7000FT

2010/08/10 08:00
WSSS 100800Z 17006KT 110V220 9999 SCT020 BKN300 31/26 Q1006 NOSIG

2010/08/10 08:00
YBCS 100800Z 27004KT 9999 FEW003 SCT022 BKN035 24/23 Q1013

2010/08/10 08:00
YBTL 100800Z 05004KT 6000 -RA FEW005 SCT016 BKN050 23/23 Q1014

2010/08/10 08:00
SBVT 100800Z 21009KT 9999 SCT020 SCT100 21/18 Q1021

2010/08/10 08:02
CYBU 100802Z AUTO VRB02KT 3/8SM FG FEW002 12/12 A2987 RMK SLP124

2010/08/10 08:00
KFAY 100800Z AUTO 00000KT 10SM BKN005 BKN009 BKN100 24/23 A3001

2010/08/10 08:00
KLSE 100800Z AUTO 08003KT 1 3/4SM BR OVC002 23/22 A2992

2010/08/10 08:00
SCSE 100800Z 32002KT 9999 OVC015 11/08 Q1017 NEFO PLAYA 1800FT

2010/08/10 08:00
UKBB 100800Z 35002MPS 300V030 9999 SCT033CB 25/21 Q1015 88CLRD95 TEMPO -TSRA SCT030CB

2010/08/10 08:00
UKHH 100800Z VRB01MPS CAVOK 36/09 Q1014 080///65 NOSIG

2010/08/10 08:00
UKOO 100800Z 04007MPS CAVOK 33/16 Q1011 34090070 NOSIG

2010/08/10 08:00
UKDE 100800Z 00000MPS CAVOK 33/14 Q1012 02CLRD70 NOSIG

2010/08/10 08:00
UKDD 100800Z 05003MPS 360V080 CAVOK 36/16 Q1012 08090070 NOSIG

2010/08/10 08:00
UKFF 100800Z 05007MPS 020V080 CAVOK 33/19 Q1009 01010070 NOSIG

2010/08/10 08:00
UKLL 100800Z VRB02MPS 9999 BKN013 19/16 Q1018 31110360 NOSIG

2010/08/10 08:00
UKCC 100800Z 12004MPS 090V160 CAVOK 36/11 Q1013 08090070 NOSIG

2010/08/10 08:00
UKDR 100800Z 01005MPS 320V060 CAVOK 32/16 Q1013 3609//70 NOSIG

2010/08/10 08:00
UBBY 100800Z VRB03KT 9999 SCT100 31/15 Q1016 NOSIG RMK R33/CLRD70 G/O

2010/08/10 08:00
UKLR 100800Z 00000MPS 9999 SCT022 SCT022CB BKN100 21/17 Q1017 30090070 TEMPO -TSRA

2010/08/10 08:00
UKLI 100800Z 31002MPS 240V020 CAVOK 23/17 Q1017 28090070 NOSIG

2010/08/10 08:00
UKON 100800Z 03005MPS 340V080 CAVOK 33/15 Q1011 05090075 NOSIG

2010/08/10 08:00
UKCM 100800Z 06006MPS 030V110 CAVOK 35/13 Q1011 02010065 NOSIG

2010/08/10 08:00
UKCW 100800Z 07004MPS 030V110 CAVOK 37/08 Q1014 0909//70 NOSIG

2010/08/10 08:00
UKLU 100800Z 18002MPS 9999 FEW033 22/17 Q1018 10090070 NOSIG

2010/08/10 08:00
UKKK 100800Z 06003MPS 8000 NSC 27/21 Q1015 26CLRD70 TEMPO VRB14MPS 3000 -TSRAGR BKN020CB

2010/08/10 08:00
UKKM 100800Z 05003MPS 020V110 CAVOK 27/20 Q1015 33CLRD70 NOSIG

2010/08/10 08:00
UKLN 100800Z 32004MPS 290V350 CAVOK 21/18 Q1018 3309//70 NOSIG

2010/08/10 08:00
TFFF 100800Z AUTO 00000KT 9999NDV NCD 25/24 Q1012

2010/08/10 08:00
UBBG 100800Z 08007KT 9999 FEW100 32/12 Q1012 NOSIG RMK R12L/CLRD70 

2010/08/10 07:45
LHDC 100745Z 09005KT 8000 FEW013 21/18 Q1018 NOSIG

2010/08/10 07:45
LHKE 100745Z 04002MPS CAVOK 23/17 Q1018 NOSIG RMK BLU

2010/08/10 07:45
LHPA 100745Z 26002MPS CAVOK 20/15 Q1020 NOSIG RMK BLU

2010/08/10 07:45
LHPP 100745Z 12004KT 9999 FEW026 23/16 Q1019

2010/08/10 07:45
LHPR 100745Z 00000KT 9999 FEW040 SCT083 21/16 Q1019

2010/08/10 07:45
LHSM 100745Z 00000KT 9999 FEW017 21/16 Q1019 NOSIG

2010/08/10 07:45
LHSN 100745Z 30002MPS CAVOK 22/16 Q1018 NOSIG RMK BLU

2010/08/10 07:45
LHUD 100745Z 34005KT CAVOK 24/17 Q1018

2010/08/10 07:55
OPNH 100755Z 13505KTS 7000 FEW030 SCT040 37/27 Q1002

2010/08/10 08:00
LKKV 100800Z VRB01KT 9999 FEW026 18/14 Q1019

2010/08/10 08:00
LKMT 100800Z VRB01KT 9999 FEW030 20/16 Q1018 NOSIG

2010/08/10 08:00
LKPR 100800Z 12003KT 040V150 9999 SCT020 20/15 Q1018 NOSIG

2010/08/10 08:00
LKTB 100800Z VRB01KT 9999 FEW027 21/15 Q1018 NOSIG

2010/08/10 07:55
OPNH 100755Z 13505KTS 7000 FEW030 SCT040 37/27 Q1002

2010/08/10 07:50
LSMM 100750Z AUTO 00000KT 9999NDV FEW069 20/14 Q1018 RMK BLU

2010/08/10 08:00
BIAR 100800Z 15003KT 9999 OVC011 09/08 Q1014

2010/08/10 08:00
BIEG 100800Z 01007KT 3000 FG VV003 07/07 Q1014

2010/08/10 08:00
BIKF 100800Z 32010KT 9999 FEW019 BKN022 12/06 Q1014

2010/08/10 08:00
BIRK 100800Z 02003KT 9999 FEW015 SCT025 BKN050 12/08 Q1013

2010/08/10 08:00
LYBE 100800Z 01004KT 340V120 CAVOK 24/17 Q1018 NOSIG

2010/08/10 08:00
LYBT 100800Z VRB03KT CAVOK 24/17 Q1018 NOSIG

2010/08/10 08:00
LYKV 100800Z VRB02KT 9999 FEW040 22/17 Q1018 NOSIG

2010/08/10 08:00
LYNI 100800Z 29005KT 240V320 9999 FEW030 23/17 Q1018 NOSIG

2010/08/10 08:00
LYPG 100800Z 04005KT 340V080 CAVOK 29/10 Q1013 NOSIG

2010/08/10 08:00
LYTV 100800Z VRB02KT CAVOK 29/14 Q1013 NOSIG

2010/08/10 08:00
LYUZ 100800Z 02003KT 290V080 9999 SCT020 19/13 Q1021 NOSIG

2010/08/10 08:00
LYVR 100800Z VRB02KT CAVOK 24/19 Q1018

2010/08/10 08:00
TGPY 100800Z 19006KT 9999 SCT017 SCT034 28/25 Q1012

2010/08/10 08:00
GMAD 100800Z 25005KT 0400 R28///// FG OVC003 20/20 Q1015

2010/08/10 08:00
UKBB 100800Z 35002MPS 300V030 9999 SCT033CB 25/21 Q1015 88CLRD95 TEMPO -TSRA SCT030CB

2010/08/10 08:00
UKHH 100800Z VRB01MPS CAVOK 36/09 Q1014 080///65 NOSIG

2010/08/10 08:00
UKOO 100800Z 04007MPS CAVOK 33/16 Q1011 34090070 NOSIG

2010/08/10 08:00
UKDE 100800Z 00000MPS CAVOK 33/14 Q1012 02CLRD70 NOSIG

2010/08/10 08:00
UKDD 100800Z 05003MPS 360V080 CAVOK 36/16 Q1012 08090070 NOSIG

2010/08/10 08:00
UKFF 100800Z 05007MPS 020V080 CAVOK 33/19 Q1009 01010070 NOSIG

2010/08/10 08:00
UKLL 100800Z VRB02MPS 9999 BKN013 19/16 Q1018 31110360 NOSIG

2010/08/10 08:00
UKCC 100800Z 12004MPS 090V160 CAVOK 36/11 Q1013 08090070 NOSIG

2010/08/10 08:00
UKDR 100800Z 01005MPS 320V060 CAVOK 32/16 Q1013 3609//70 NOSIG

2010/08/10 07:58
CWOB 100758Z AUTO ///// 1/8SM CLR 03/ A2978

2010/08/10 07:59
CYCX 100759Z AUTO 31003KT 3/8SM 16/16 A2980

2010/08/10 07:57
CYEK 100757Z AUTO 27005KT 2SM CLR 08/08 A3008 RMK VSBY VRBL 0.4V9.+

2010/08/10 07:58
CYEK 100758Z AUTO 27005KT 1 3/8SM CLR 08/08 A3008 RMK VSBY VRBL 0.4V9.+

2010/08/10 08:01
CYEK 100801Z AUTO 25004KT 1SM CLR 08/08 A3008 RMK VSBY VRBL 0.4V9.+

2010/08/10 08:01
CYWA 100801Z AUTO 00000KT 3 1/2SM CLR 13/13 A2991

2010/08/10 08:01
CYZE 100801Z AUTO 32003KT 2 1/4SM BR CLR 17/17 A2994 RMK SLP139 DENSITY ALT 900FT

2010/08/10 07:57
CZUM 100757Z AUTO 28004KT 9SM BKN014 BKN054 BKN074 09/09 A2966

2010/08/10 08:01
KHST 100801Z AUTO 15013G19KT 120V190 10SM -RA FEW020 27/24 A2987 RMK AO2 RAB0801 SLP118

2010/08/10 08:00
KLSF 100800Z AUTO 00000KT 7SM R33/5000V5500FT CLR 23/22 A2996 RMK AO2 SLP144 PNO $

2010/08/10 08:00
KMMT 100800Z AUTO 00000KT 6SM R32/4000V5500FT BR CLR 23/22 A3001 RMK AO2 SLP159

2010/08/10 08:00
KMTC 100800Z AUTO 00000KT 1/4SM R19/0700V2800FT DZ FG CLR 20/20 A2994 RMK AO2 SLP143 $

2010/08/10 08:02
KMTC 100802Z AUTO 00000KT 1/2SM R19/0700V3000FT DZ FG CLR 20/20 A2994 RMK AO2 SLP144 $

2010/08/10 07:59
LFBT 100759Z 04003KT 010V090 9999 SCT012 SCT021 18/15 Q1019 TEMPO BKN008 RMK B3

2010/08/10 08:00
RKJK 100800Z 04007KT 4000 +RA BR OVC036 26/26 A2969 RMK AO2A CIG 025 RWY18 SLP055 $

2010/08/10 08:00
YBBN 100800Z 07006KT 8000 -RA SCT004 BKN014 BKN040 19/19 Q1016 FM0800 02012KT 7000 -RA BKN008 BKN025 TEMPO 0800/1100 02015G25KT 3000 RA BKN006 FM0800 MOD TURB BLW 7000FT

2010/08/10 08:00
YBCS 100800Z 27004KT 9999 FEW003 SCT022 BKN035 24/23 Q1013

2010/08/10 08:00
YBTL 100800Z 05004KT 6000 -RA FEW005 SCT016 BKN050 23/23 Q1014

2010/08/10 08:00
YSRI 100800Z AUTO 00000KT 3900NDV // SCT011 OVC018 12/12 Q1013

2010/08/10 07:50
EGXP 100750Z 23010KT 9999 SCT008 BKN018 BKN050 15/14 Q1008 GRN

2010/08/10 07:50
EGUY 100750Z 22010KT 9999 FEW020 SCT060 BKN080 14/12 Q1010 BLU

2010/08/10 07:50
EGYH 100750Z 22012KT 9999 FEW010 SCT016 BKN050 16/// Q1009 WHT

2010/08/10 08:00
GGOV 100800Z 35003KT 310V060 4000 RA SCT005 SCT014TCU FEW018CB BKN090 24/24 Q1013 TEMPO TS

2010/08/10 08:00
SBGR 100800Z 18005KT 9999 OVC023 13/12 Q1024

2010/08/10 07:45
CWSK 100745Z AUTO 00000KT 14/13 RMK AO1 T01430131

2010/08/10 08:01
PAIK 100801Z AUTO 09009KT 10SM -RA SCT014 BKN029 OVC037 13/12 A2953 RMK AO2 P0001

2010/08/10 08:06
KESN 100806Z AUTO 20004KT 10SM CLR 24/23 A2998 RMK AO2

2010/08/10 08:01
KDMW 100801Z AUTO 00000KT 7SM CLR 24/22 A2996 RMK AO2

2010/08/10 08:03
KFME 100803Z AUTO 00000KT 4SM CLR 20/20 A2995 RMK AO1

2010/08/10 08:02
KW29 100802Z AUTO 20005KT 10SM CLR 25/21 A2993 RMK AO1

2010/08/10 08:02
KFDK 100802Z AUTO 00000KT 7SM CLR 24/22 A2996 RMK AO2

2010/08/10 08:01
K2W6 100801Z AUTO 22005KT 10SM CLR 24/21 A2996 RMK AO1

2010/08/10 08:02
KCBE 100802Z AUTO 00000KT 10SM CLR 21/20 A3002 RMK AO1

2010/08/10 07:59
KCGE 100759Z AUTO 19003KT 10SM CLR 26/25 A2996 RMK AO1

2010/08/10 08:00
KCGS 100800Z AUTO 00000KT 10SM CLR 27/21 A2994 RMK AO1

2010/08/10 08:00
KMTN 100800Z AUTO 00000KT 10SM CLR 26/22 A2993 RMK AO2

2010/08/10 08:00
K2G4 100800Z AUTO 25006KT 10SM CLR 20/15 A3009 RMK AO1

2010/08/10 07:54
KWAL 100754Z AUTO 24005KT 10SM CLR 24/22 A2996 RMK AO2 SLP143 T02390217 TSNO

2010/08/10 07:53
KRIL 100753Z AUTO 20005KT 10SM CLR 13/08 A3016 RMK AO2 SLP157 T01280078 TSNO

2010/08/10 07:59
KSAW 100759Z AUTO 00000KT 7SM CLR 18/17 A2997 RMK AO2

2010/08/10 08:01
PAKF 100801Z AUTO 32004KT 10SM OVC024 10/08 A2963 RMK AO2 SLP127 T01000078

2010/08/10 07:56
PANW 100756Z AUTO 19004KT 2SM BR BKN001 OVC009 09/09 A2965 RMK AO2 PWINO TSNO T00940088 401160094 CIG 001V006 SLP018 $

2010/08/10 08:00
PAPO 100800Z 02005KT 6SM SCT120 11/07 A2951 RMK VIA PHONE

2010/08/10 07:59
K3I2 100759Z AUTO 00000KT 7SM BR CLR 19/19 A2999 RMK AO2

2010/08/10 08:00
K3J7 100800Z AUTO 11003KT 10SM CLR 25/21 A2998 RMK AO2 T02500214

2010/08/10 08:00
KUXL 100800Z AUTO 00000KT 7SM CLR 26/26 A2991 RMK AO2

2010/08/10 07:58
KACP 100758Z AUTO 00000KT 7SM SCT050 25/25 A2993 RMK AO2

2010/08/10 08:00
KAYS 100800Z AUTO 10003KT 10SM CLR 26/25 A2996 RMK AO1

2010/08/10 08:02
KBGE 100802Z AUTO 07005KT 10SM CLR 25/21 A2994 RMK AO2

2010/08/10 08:00
KBQK 100800Z AUTO 11003KT 10SM CLR 28/25 A2997 RMK AO1 T02750245 PNO

2010/08/10 08:00
KCCO 100800Z AUTO 00000KT 2 1/2SM CLR 22/21 A3001 RMK AO1

2010/08/10 08:00
KCDH 100800Z AUTO 20003KT 10SM CLR 26/24 A2992 RMK AO2

2010/08/10 07:55
KCLS 100755Z AUTO 24005KT 10SM FEW011 OVC016 13/12 A3000 RMK AO2

2010/08/10 08:00
KCTJ 100800Z AUTO 00000KT 7SM CLR 23/22 A3002 RMK AO2 T02310221

2010/08/10 08:01
KCWV 100801Z AUTO 00000KT 10SM CLR 25/25 A2998 RMK AO2 T02480248

2010/08/10 07:58
KDBN 100758Z AUTO 00000KT 7SM CLR 23/23 A2998 RMK AO1

2010/08/10 07:58
KDNN 100758Z AUTO 00000KT 7SM CLR 23/22 A3000 RMK AO2

2010/08/10 08:01
KDQH 100801Z AUTO 08004KT 10SM CLR 26/24 A2996 RMK AO1

2010/08/10 08:00
KDRI 100800Z AUTO 00000KT 10SM CLR 26/26 A2993 RMK AO2

2010/08/10 08:00
KEYF 100800Z AUTO 00000KT 10SM CLR 25/25 A3001 RMK AO2 T02500246

2010/08/10 08:00
KF24 100800Z AUTO 00000KT 10SM CLR 26/23 A2996 RMK AO2 T02640230

2010/08/10 08:15
KFDW 100815Z AUTO 00000KT 10SM CLR 25/22 A3002 RMK AO1

2010/08/10 08:00
KFFA 100800Z AUTO 26003KT 10SM CLR 26/25 A2999 RMK AO2 T02600247

2010/08/10 08:00
KFKN 100800Z AUTO 18003KT 10SM CLR 24/23 A2998 RMK AO1

2010/08/10 08:00
KFVX 100800Z AUTO 00000KT 4SM BR CLR 24/23 A2996 RMK AO2

2010/08/10 08:00
KGAO 100800Z AUTO 34003KT 3SM BR 23/23 A2991 RMK AO2 SKY OBSCURED

2010/08/10 07:55
KGHG 100755Z AUTO 00000KT 3SM BR FEW002 21/20 A2992 RMK AO2

2010/08/10 08:00
KGWW 100800Z AUTO 20004KT 10SM CLR 24/24 A3000 RMK AO2 T02380235

2010/08/10 08:00
KHNZ 100800Z AUTO 22005KT 7SM CLR 23/22 A3001 RMK AO2 T02330215

2010/08/10 07:58
KHOE 100758Z AUTO 00000KT 10SM CLR 25/ A2996 RMK AO2 T0246

2010/08/10 08:00
KHUM 100800Z AUTO 35004KT 7SM CLR 25/25 A2991 RMK AO2 T02450245

2010/08/10 08:00
KHWY 100800Z AUTO 00000KT 7SM CLR 23/20 A2994 RMK AO2

2010/08/10 08:00
KI16 100800Z AUTO 00000KT 4SM BR CLR 19/19 A3007 RMK AO2

2010/08/10 08:01
KIDI 100801Z AUTO 00000KT 10SM SCT100 19/19 A3000 RMK AO2

2010/08/10 08:00
KIER 100800Z AUTO 00000KT 10SM CLR 26/25 A2992 RMK AO2 PWINO

2010/08/10 08:00
KIPJ 100800Z AUTO 00000KT 3SM BR CLR 22/22 A3003 RMK AO2 T02230215

2010/08/10 08:00
KISO 100800Z AUTO 21004KT 10SM CLR 24/23 A3001 RMK AO2 T02400230

2010/08/10 08:00
KIXA 100800Z AUTO 22004KT 7SM CLR 24/23 A2998 RMK AO2 T02350228

2010/08/10 08:00
KJES 100800Z AUTO 00000KT 10SM CLR 24/24 A2996 RMK AO2 T02410241

2010/08/10 08:00
KJGG 100800Z AUTO 24004KT 10SM CLR 26/22 A2998 RMK AO1

2010/08/10 08:00
KJKA 100800Z AUTO 02003KT 5SM BR CLR 28/26 A2991 RMK AO2 T02800264

2010/08/10 08:00
KJQF 100800Z AUTO 00000KT 7SM CLR 25/21 A3002 RMK AO2 T02530211

2010/08/10 08:00
KJYO 100800Z AUTO 00000KT 7SM CLR 24/22 A2995 RMK AO2

2010/08/10 08:00
GMFF 100800Z 20001KT 8000 FEW033 SCT100 32/12 Q1019 NOSIG

2010/08/10 08:00
GMFK 100800Z 00000KT 9999 SCT030 29/16 Q1022

2010/08/10 08:00
GMFM 100800Z 20004KT CAVOK 33/11 Q1019

2010/08/10 08:00
GMFO 100800Z 36007KT 9999 FEW033 SCT100 27/20 Q1018 NOSIG

2010/08/10 08:00
GMMC 100800Z 12002KT 5000 NSC 30/21 Q1013

2010/08/10 08:00
GMMW 100800Z 6000 BKN016 SCT100 24/21 Q1017

2010/08/10 08:00
GMMZ 100800Z 24006KT CAVOK 26/11 Q1025

2010/08/10 08:00
GMTA 100800Z 12002KT 6000 OVC013 26/23 Q1017

2010/08/10 08:00
SBSL 100800Z 08007KT CAVOK 25/23 Q1013

2010/08/10 08:00
FLLS 100800Z 07007KT CAVOK 23/08 Q1025

2010/08/10 08:00
UBBY 100800Z VRB03KT 9999 SCT100 31/15 Q1016 NOSIG RMK R33/CLRD70 G/O

2010/08/10 07:55
OPNH 100755Z 13505KTS 7000 FEW030 SCT040 37/27 Q1002

2010/08/10 08:00
SBGR 100800Z 18005KT 9999 OVC023 13/12 Q1024

2010/08/10 08:00
LKKV 100800Z VRB01KT 9999 FEW026 18/14 Q1019

2010/08/10 08:00
LKMT 100800Z VRB01KT 9999 FEW030 20/16 Q1018 NOSIG

2010/08/10 08:00
LKPR 100800Z 12003KT 040V150 9999 SCT020 20/15 Q1018 NOSIG

2010/08/10 08:00
LKTB 100800Z VRB01KT 9999 FEW027 21/15 Q1018 NOSIG

2010/08/10 08:00
RPLL 100800Z 25010KT 9000 SCT025 BKN300 30/26 Q1008 NOSIG RMK A2977

2010/08/10 08:00
RPVM 100800Z 24004KT 9999 SCT018CB OVC250 31/27 Q1009 A2980 DSTNT PCPN NE NW AND SE CB ALQDS

2010/08/10 08:00
RPMZ 100800Z 32004KT 9999 FEW018 SCT120 31/25 Q1009

2010/08/10 08:00
RPLB 100800Z 22007KT 9999 FEW020 SCT080 BKN300 29/23 Q1009 NOSIG

2010/08/10 08:00
GMAD 100800Z 25005KT 0400 R28///// FG OVC003 20/20 Q1015

2010/08/10 07:45
LHDC 100745Z 09005KT 8000 FEW013 21/18 Q1018 NOSIG

2010/08/10 07:45
LHKE 100745Z 04002MPS CAVOK 23/17 Q1018 NOSIG RMK BLU

2010/08/10 07:45
LHPA 100745Z 26002MPS CAVOK 20/15 Q1020 NOSIG RMK BLU

2010/08/10 07:45
LHPP 100745Z 12004KT 9999 FEW026 23/16 Q1019

2010/08/10 07:45
LHPR 100745Z 00000KT 9999 FEW040 SCT083 21/16 Q1019

2010/08/10 07:45
LHSM 100745Z 00000KT 9999 FEW017 21/16 Q1019 NOSIG

2010/08/10 07:45
LHSN 100745Z 30002MPS CAVOK 22/16 Q1018 NOSIG RMK BLU

2010/08/10 07:45
LHUD 100745Z 34005KT CAVOK 24/17 Q1018

2010/08/10 08:00
FMMI 100800Z VRB03KT 9999 SCT020 22/12 Q1026 NOSIG

2010/08/10 08:00
SARE 100800Z 18003KT 6000 NSC 05/04 Q1023

2010/08/10 08:01
KHST 100801Z AUTO 15013G19KT 120V190 10SM -RA FEW020 27/24 A2987 RMK AO2 RAB0801 SLP118

2010/08/10 08:00
KLSF 100800Z AUTO 00000KT 7SM R33/5000V5500FT CLR 23/22 A2996 RMK AO2 SLP144 PNO $

2010/08/10 08:00
KMMT 100800Z AUTO 00000KT 6SM R32/4000V5500FT BR CLR 23/22 A3001 RMK AO2 SLP159

2010/08/10 08:00
KMTC 100800Z AUTO 00000KT 1/4SM R19/0700V2800FT DZ FG CLR 20/20 A2994 RMK AO2 SLP143 $

2010/08/10 08:02
KMTC 100802Z AUTO 00000KT 1/2SM R19/0700V3000FT DZ FG CLR 20/20 A2994 RMK AO2 SLP144 $

2010/08/10 08:00
SCAR 100800Z 08006KT CAVOK 10/05 Q1015

2010/08/10 08:00
SCDA 100800Z 25003KT 8000 OVC020 13/09 Q1017

2010/08/10 08:00
SCFA 100800Z 31006KT 9999 OVC019 13/08 Q1017

2010/08/10 08:00
SCAT 100800Z 35005KT 7000 OVC013 10/07 Q1019

2010/08/10 08:00
SCEL 100800Z VRB01KT 5000 HZ NSC 03/00 Q1015 NOSIG

2010/08/10 08:00
SCIE 100800Z 19004KT CAVOK 05/04 Q1017

2010/08/10 08:00
SCTC 100800Z VRB01KT 0100 FG VV/// M01/M01 Q1018

2010/08/10 08:00
SCTE 100800Z 18005KT 9999 OVC006 07/06 Q1022 NOSIG

2010/08/10 08:00
SCBA 100800Z AUTO 25005KT CAVOK M01/M03 Q1021

2010/08/10 08:00
SCCI 100800Z 28006KT 9999 FEW016 SCT100 04/01 Q1004 NOSIG

2010/08/10 07:54
KACY 100754Z 21006KT 10SM CLR 24/22 A2995 RMK AO2 SLP140 T02440222 $

2010/08/10 07:56
KCHS 100756Z 00000KT 10SM FEW023 27/25 A3000 RMK AO2 SLP157 T02670250

2010/08/10 07:59
KJNX 100759Z AUTO 00000KT 7SM CLR 21/21 A3000 RMK AO2

2010/08/10 08:00
KAYS 100800Z AUTO 10003KT 10SM CLR 26/25 A2996 RMK AO1

2010/08/10 07:58
KDBN 100758Z AUTO 00000KT 7SM CLR 23/23 A2998 RMK AO1

2010/08/10 08:00
KJQF 100800Z AUTO 00000KT 7SM CLR 25/21 A3002 RMK AO2 T02530211

2010/08/10 07:50
LTAD 100750Z VRB03KT CAVOK 30/10 Q1013 NOSIG RMK RWY29 VRB03KT

2010/08/10 07:50
LTAG 100750Z 30007KT 9999 SCT035 32/22 Q1006 NOSIG

2010/08/10 07:50
LTAH 100750Z 03005KT 330V080 CAVOK 28/13 Q1014 RMK RWY13 VRB03KT

2010/08/10 07:50
LTAN 100750Z 01014KT CAVOK 32/11 Q1013 NOSIG RMK RWY19 01012KT

2010/08/10 07:50
LTAP 100750Z 16003KT CAVOK 28/15 Q1010 NOSIG RMK RWY23 VRB05KT

2010/08/10 07:50
LTAT 100750Z VRB02KT CAVOK 33/07 Q1010 NOSIG RMK RWY03 02004KT

2010/08/10 07:50
LTAU 100750Z VRB02KT CAVOK 29/09 Q1014 NOSIG RMK RWY07 VRB03KT

2010/08/10 07:50
LTBF 100750Z 01011KT 9999 SCT035 30/20 Q1009 NOSIG RMK RWY18 01011KT

2010/08/10 07:50
LTBG 100750Z 02014KT 9999 FEW019 SCT035 29/23 Q1010 NOSIG RMK RWY18 03016KT

2010/08/10 07:50
LTBI 100750Z VRB03KT 9999 FEW04

2010/08/10 08:01
KBAF 100801Z 00000KT 2SM BR FEW003 SCT110 22/21 A2991 RMK AO2 RAE0759 P0000

2010/08/10 08:01
KBMG 100801Z 00000KT 3SM BR BKN110 23/22 A2996 RMK AO2

2010/08/10 08:01
KTQE 100801Z AUTO 14003KT 2SM BR CLR 24/24 A2982 RMK AO2

2010/08/10 08:01
PAIK 100801Z AUTO 09009KT 10SM -RA SCT014 BKN029 OVC037 13/12 A2953 RMK AO2 P0001

2010/08/10 08:00
KHNZ 100800Z AUTO 22005KT 7SM CLR 23/22 A3001 RMK AO2 T02330215

2010/08/10 07:58
KHOE 100758Z AUTO 00000KT 10SM CLR 25/ A2996 RMK AO2 T0246

2010/08/10 08:00
KHUM 100800Z AUTO 35004KT 7SM CLR 25/25 A2991 RMK AO2 T02450245

2010/08/10 08:00
KHWY 100800Z AUTO 00000KT 7SM CLR 23/20 A2994 RMK AO2

2010/08/10 08:00
KI16 100800Z AUTO 00000KT 4SM BR CLR 19/19 A3007 RMK AO2

2010/08/10 08:00
KIER 100800Z AUTO 00000KT 10SM CLR 26/25 A2992 RMK AO2 PWINO

2010/08/10 08:00
KIPJ 100800Z AUTO 00000KT 3SM BR CLR 22/22 A3003 RMK AO2 T02230215

2010/08/10 08:00
KISO 100800Z AUTO 21004KT 10SM CLR 24/23 A3001 RMK AO2 T02400230

2010/08/10 08:00
KIXA 100800Z AUTO 22004KT 7SM CLR 24/23 A2998 RMK AO2 T02350228

2010/08/10 08:00
KJES 100800Z AUTO 00000KT 10SM CLR 24/24 A2996 RMK AO2 T02410241

2010/08/10 08:00
KJGG 100800Z AUTO 24004KT 10SM CLR 26/22 A2998 RMK AO1

2010/08/10 08:00
KJKA 100800Z AUTO 02003KT 5SM BR CLR 28/26 A2991 RMK AO2 T02800264

2010/08/10 08:00
KJYO 100800Z AUTO 00000KT 7SM CLR 24/22 A2995 RMK AO2

2010/08/10 08:00
UBBG 100800Z 08007KT 9999 FEW100 32/12 Q1012 NOSIG RMK R12L/CLRD70 

2010/08/10 08:06
KESN 100806Z AUTO 20004KT 10SM CLR 24/23 A2998 RMK AO2

2010/08/10 08:02
KCBE 100802Z AUTO 00000KT 10SM CLR 21/20 A3002 RMK AO1

2010/08/10 08:00
LUBL 100800Z 26006KT 230V310 9999 FEW026 25/21 Q1015 RWY15

2010/08/10 08:00
TTPP 100800Z 00000KT 9999 FEW016 BKN280 24/23 Q1013 NOSIG

2010/08/10 08:00
TTCP 100800Z 16009KT 9999 FEW016 SCT300 27/23 Q1013 NOSIG

2010/08/10 08:00
LCLK 100800Z 16009KT 9999 FEW020 31/25 Q1006 NOSIG

2010/08/10 08:00
LCPH 100800Z 22005KT 160V300 7000 SCT020 31/25 Q1007

2010/08/10 08:02
RKSS 100802Z 32007KT 250V040 2000 RA FEW006 BKN025 BKN080 26/24 Q1007 NOSIG

2010/08/10 08:00
SKBQ 100800Z 00000KT 9999 SCT012 SCT070 27/26 A2985

2010/08/10 07:54
KWAL 100754Z AUTO 24005KT 10SM CLR 24/22 A2996 RMK AO2 SLP143 T02390217 TSNO

2010/08/10 07:55
EBBL 100755Z 20006KT 9999 SCT250 20/11 Q1015 BLU BLU

2010/08/10 07:55
EBFN 100755Z 18008KT 9999 SCT019 BKN100 BKN200 18/14 Q1013 WHT WHT

2010/08/10 07:55
EBFS 100755Z 23006KT 9999 SCT230 18/13 Q1015 BLU BLU

2010/08/10 07:56
KNBC 100756Z AUTO 00000KT 10SM CLR 26/24 A2998 RMK AO2 SLP154 T02610244 $

2010/08/10 07:55
KNBG 100755Z AUTO 00000KT 4SM HZ CLR A2992 RMK AO2 SLP132 PWINO FZRANO $

2010/08/10 07:56
KNCA 100756Z AUTO 00000KT 10SM 24/24 A3001 RMK AO2 SLP165 T02390239 $

2010/08/10 07:57
KNJM 100757Z AUTO 23004KT 10SM BKN017 27/25 A3001 RMK AO2 SLP167 T02720250

2010/08/10 07:56
KNPA 100756Z AUTO 34003KT 6SM BR CLR 26/24 A2990 RMK AO2 SLP127 T02560239

2010/08/10 07:56
KNTU 100756Z 24004KT 9SM FEW200 23/22 A2997 RMK AO2 SLP151 T02330222 $

2010/08/10 07:56
KVPS 100756Z 01007KT 10SM SKC 26/24 A2990 RMK AO2A SLP127 T02600236 $

2010/08/10 08:00
KNEL 100800Z AUTO 23003KT 6SM HZ SCT060 23/20 A2993 RMK AO2 SLP132 T02330200 $

2010/08/10 07:59
KNGU 100759Z 21005KT 10SM CLR 26/23 A2998 RMK AO2 SLP152 T02610233

2010/08/10 07:56
KNLC 100756Z AUTO 32010KT 10SM CLR 22/12 A2981 RMK AO2 SLP094 T02220122 403440139 TSNO

2010/08/10 07:55
KTBN 100755Z AUTO 14004KT 10SM CLR 25/23 A2996 RMK AO2 SLP117 T02520231 $

2010/08/10 07:56
PHBK 100756Z AUTO 00000KT 10SM CLR 26/15 A3010 RMK AO2 SLP195 T02610150 TSNO $

2010/08/10 08:00
PAMC 100800Z 07006KT 10SM OVC025 13/10 A2961 RMK AO2

2010/08/10 08:00
PATK 100800Z AUTO VRB04KT 6SM -RA BR BKN012 BKN019 OVC049 12/12 A2976 RMK AO2 P0001 TSNO

2010/08/10 08:00
KCGS 100800Z AUTO 00000KT 10SM CLR 27/21 A2994 RMK AO1

2010/08/10 08:00
KMTN 100800Z AUTO 00000KT 10SM CLR 26/22 A2993 RMK AO2

2010/08/10 08:00
K2G4 100800Z AUTO 25006KT 10SM CLR 20/15 A3009 RMK AO1

2010/08/10 07:59
K0R3 100759Z AUTO 00000KT BKN050 25/25 A2992 RMK AO2 PWINO

2010/08/10 08:00
K1A5 100800Z AUTO 00000KT 3SM BR OVC002 20/18 A3012 RMK AO2 T01970183

2010/08/10 08:00
K3A1 100800Z AUTO 00000KT 5SM BR CLR 24/24 A3001 RMK AO2 T02350235 TSNO

2010/08/10 07:58
K4A9 100758Z AUTO 00000KT 4SM BR CLR 24/23 A3000 RMK AO2 T02380225

2010/08/10 08:00
K4R4 100800Z AUTO 00000KT 3SM BR CLR 27/26 A2992 RMK AO2 T02700257

2010/08/10 07:58
K8A0 100758Z AUTO 07004KT 10SM SCT120 26/22 A2999 RMK AO2

2010/08/10 08:00
KAFP 100800Z AUTO 00000KT 5SM BR CLR 23/23 A3001 RMK AO2 T02310229

2010/08/10 08:00
KALX 100800Z AUTO 00000KT 7SM CLR 25/22 A2998 RMK AO1

2010/08/10 08:00
KASJ 100800Z AUTO 00000KT 5SM BR CLR 23/21 A3000 RMK AO2

2010/08/10 08:00
KAVC 100800Z AUTO 00000KT 7SM SCT090 24/22 A3004 RMK AO2

2010/08/10 08:00
KBCB 100800Z AUTO 00000KT 5SM CLR 21/21 A3010 RMK AO2 PWINO

2010/08/10 07:59
KCJR 100759Z AUTO 00000KT 7SM CLR 25/22 A2995 RMK AO2

2010/08/10 08:00
KCPC 100800Z AUTO 00000KT 10SM CLR 24/24 A3001 RMK AO2 T02400237

2010/08/10 08:00
KCPK 100800Z AUTO 20003KT 4SM -RA CLR 22/21 RMK AO2

2010/08/10 08:00
KDPL 100800Z AUTO 00000KT 10SM CLR 23/23 A3002 RMK AO2

2010/08/10 07:59
KEDE 100759Z AUTO 24004KT 10SM SCT090 26/24 A2996 RMK AO2

2010/08/10 07:55
KEMV 100755Z AUTO 00000KT 5SM BR CLR 22/21 A2999 RMK AO2

2010/08/10 08:00
KEXX 100800Z AUTO 00000KT 5SM BR CLR 22/22 A3002 RMK AO2

2010/08/10 07:57
KEZF 100757Z AUTO 00000KT 10SM CLR 25/23 A2994 RMK AO2 T02470233

2010/08/10 08:00
KFQD 100800Z AUTO 00000KT 2SM BR CLR 23/22 A3004 RMK AO2

2010/08/10 08:00
KHBI 100800Z AUTO 20004KT 10SM CLR 24/22 A3005 RMK AO2

2010/08/10 08:00
KHLX 100800Z AUTO 18005KT 7SM CLR 23/23 A3013 RMK AO2

2010/08/10 07:59
KHRJ 100759Z AUTO 00000KT 7SM SCT008 24/23 A3001 RMK AO2

2010/08/10 08:00
KLWB 100800Z AUTO 00000KT 4SM BR CLR 18/17 A3010 RMK AO2

2010/08/10 08:00
KMQI 100800Z AUTO 25006KT 10SM CLR 26/26 A2999 RMK AO2

2010/08/10 08:00
KONX 100800Z AUTO 00000KT 7SM CLR 24/22 A2999 RMK AO2

2010/08/10 08:00
KPGV 100800Z AUTO 22005KT 10SM CLR 24/24 A3001 RMK AO2

2010/08/10 08:00
KRUQ 100800Z AUTO 00000KT 7SM CLR 24/21 A3003 RMK AO2

2010/08/10 08:00
KUNV 100800Z AUTO 00000KT 10SM SCT100 21/17 A2998 RMK AO2 T02070168

2010/08/10 07:55
KVVG 100755Z AUTO 00000KT 24/24 A2991 RMK AO2

2010/08/10 07:53
KRIL 100753Z AUTO 20005KT 10SM CLR 13/08 A3016 RMK AO2 SLP157 T01280078 TSNO

2010/08/10 07:59
KSAW 100759Z AUTO 00000KT 7SM CLR 18/17 A2997 RMK AO2

2010/08/10 07:56
PANW 100756Z AUTO 19004KT 2SM BR BKN001 OVC009 09/09 A2965 RMK AO2 PWINO TSNO T00940088 401160094 CIG 001V006 SLP018 $

2010/08/10 08:00
PAPO 100800Z 02005KT 6SM SCT120 11/07 A2951 RMK VIA PHONE

2010/08/10 07:59
K3I2 100759Z AUTO 00000KT 7SM BR CLR 19/19 A2999 RMK AO2

2010/08/10 08:00
K3J7 100800Z AUTO 11003KT 10SM CLR 25/21 A2998 RMK AO2 T02500214

2010/08/10 08:00
KUXL 100800Z AUTO 00000KT 7SM CLR 26/26 A2991 RMK AO2

2010/08/10 07:58
KACP 100758Z AUTO 00000KT 7SM SCT050 25/25 A2993 RMK AO2

2010/08/10 08:00
KBQK 100800Z AUTO 11003KT 10SM CLR 28/25 A2997 RMK AO1 T02750245 PNO

2010/08/10 08:00
KCCO 100800Z AUTO 00000KT 2 1/2SM CLR 22/21 A3001 RMK AO1

2010/08/10 08:00
KCDH 100800Z AUTO 20003KT 10SM CLR 26/24 A2992 RMK AO2

2010/08/10 07:55
KCLS 100755Z AUTO 24005KT 10SM FEW011 OVC016 13/12 A3000 RMK AO2

2010/08/10 08:00
KCTJ 100800Z AUTO 00000KT 7SM CLR 23/22 A3002 RMK AO2 T02310221

2010/08/10 07:58
KDNN 100758Z AUTO 00000KT 7SM CLR 23/22 A3000 RMK AO2

2010/08/10 08:00
KDRI 100800Z AUTO 00000KT 10SM CLR 26/26 A2993 RMK AO2

2010/08/10 08:00
KEYF 100800Z AUTO 00000KT 10SM CLR 25/25 A3001 RMK AO2 T02500246

2010/08/10 08:00
KF24 100800Z AUTO 00000KT 10SM CLR 26/23 A2996 RMK AO2 T02640230

2010/08/10 08:00
KFFA 100800Z AUTO 26003KT 10SM CLR 26/25 A2999 RMK AO2 T02600247

2010/08/10 08:00
KFKN 100800Z AUTO 18003KT 10SM CLR 24/23 A2998 RMK AO1

2010/08/10 08:00
KFVX 100800Z AUTO 00000KT 4SM BR CLR 24/23 A2996 RMK AO2

2010/08/10 08:00
KGAO 100800Z AUTO 34003KT 3SM BR 23/23 A2991 RMK AO2 SKY OBSCURED

2010/08/10 07:55
KGHG 100755Z AUTO 00000KT 3SM BR FEW002 21/20 A2992 RMK AO2

2010/08/10 08:00
KGWW 100800Z AUTO 20004KT 10SM CLR 24/24 A3000 RMK AO2 T02380235

2010/08/10 08:00
EIDW 100800Z 24014KT 9999 -SHRA FEW015 FEW022CB SCT026 13/11 Q1006 NOSIG

2010/08/10 08:00
EINN 100800Z 25011KT 9999 FEW025 BKN035 15/11 Q1009 NOSIG

2010/08/10 08:00
EICK 100800Z 32006KT 9999 FEW020 13/09 Q1009 NOSIG

2010/08/10 08:00
EIKN 100800Z 29010KT 9999 SCT012 12/10 Q1007 NOSIG

2010/08/10 07:55
OPNH 100755Z 13505KTS 7000 FEW030 SCT040 37/27 Q1002

2010/08/10 08:02
KW29 100802Z AUTO 20005KT 10SM CLR 25/21 A2993 RMK AO1

2010/08/10 08:02
KFDK 100802Z AUTO 00000KT 7SM CLR 24/22 A2996 RMK AO2

2010/08/10 08:01
K2W6 100801Z AUTO 22005KT 10SM CLR 24/21 A2996 RMK AO1

2010/08/10 08:02
K47A 100802Z AUTO 07003KT 7SM CLR 25/21 A3004 RMK AO2

2010/08/10 08:01
KGEV 100801Z AUTO 00000KT 4SM BR CLR 20/19 A3016 RMK AO2

2010/08/10 08:01
KMFV 100801Z AUTO 22003KT 4SM BR CLR 24/23 A2997 RMK AO2

2010/08/10 08:01
KPTB 100801Z AUTO 00000KT 7SM CLR 24/22 A2997 RMK AO2

2010/08/10 08:01
KTDF 100801Z AUTO 00000KT 23/22 A3002 RMK AO1

2010/08/10 08:02
KBGE 100802Z AUTO 07005KT 10SM CLR 25/21 A2994 RMK AO2

2010/08/10 08:01
KCWV 100801Z AUTO 00000KT 10SM CLR 25/25 A2998 RMK AO2 T02480248

2010/08/10 08:01
KDQH 100801Z AUTO 08004KT 10SM CLR 26/24 A2996 RMK AO1

2010/08/10 08:15
KFDW 100815Z AUTO 00000KT 10SM CLR 25/22 A3002 RMK AO1

2010/08/10 08:01
KIDI 100801Z AUTO 00000KT 10SM SCT100 19/19 A3000 RMK AO2

2010/08/10 07:59
LFBT 100759Z 04003KT 010V090 9999 SCT012 SCT021 18/15 Q1019 TEMPO BKN008 RMK B3

2010/08/10 08:00
LEAS 100800Z 25004KT 210V290 9999 FEW025 20/17 Q1018 NOSIG

2010/08/10 08:00
LEBB 100800Z 14003KT 100V190 CAVOK 20/16 Q1018 NOSIG

2010/08/10 08:00
LECO 100800Z VRB02KT CAVOK 17/17 Q1019

2010/08/10 08:00
LEGE 100800Z 17005KT 9999 FEW010 SCT023 23/20 Q1017

2010/08/10 08:00
LEST 100800Z VRB01KT CAVOK 17/13 Q1019 NOSIG

2010/08/10 08:00
LEZG 100800Z 31005KT 270V350 9999 FEW050 21/13 Q1018

2010/08/10 08:00
LESO 100800Z 12004KT 090V150 CAVOK 20/15 Q1018

2010/08/10 08:00
LEVT 100800Z 00000KT 5000 BR BKN003 OVC005 13/13 Q1019

2010/08/10 08:00
LERS 100800Z VRB01KT 9999 SCT025 25/20 Q1017

2010/08/10 08:00
LEMH 100800Z 08004KT 050V120 CAVOK 27/17 Q1017

2010/08/10 08:00
LEAM 100800Z 00000KT CAVOK 28/20 Q1016

2010/08/10 08:00
LEGR 100800Z VRB01KT 9999 FEW100 26/13 Q1020

2010/08/10 08:00
LERL 100800Z 00000KT CAVOK 29/12 Q1020

2010/08/10 07:59
MMAA 100759Z RTD 03006KT 5SM -RA SCT010CB BKN050 OVC070 27/25 A2983 RMK 60205 8/96/

2010/08/10 08:00
RKJK 100800Z 04007KT 4000 +RA BR OVC036 26/26 A2969 RMK AO2A CIG 025 RWY18 SLP055 $

2010/08/10 07:50
EGDR 100750Z 24012KT 2000 RA SCT001 OVC005 16/16 Q1011 RED

2010/08/10 07:50
EGQS 100750Z 16003KT 9999 FEW020TCU SCT060 13/10 Q1004 BLU NOSIG

2010/08/10 08:01
KBAF 100801Z 00000KT 2SM BR FEW003 SCT110 22/21 A2991

2010/08/10 07:45
LHDC 100745Z 09005KT 8000 FEW013 21/18 Q1018 NOSIG

2010/08/10 07:45
LHKE 100745Z 04002MPS CAVOK 23/17 Q1018 NOSIG RMK BLU

2010/08/10 07:45
LHPP 100745Z 12004KT 9999 FEW026 23/16 Q1019

2010/08/10 07:45
LHSN 100745Z 30002MPS CAVOK 22/16 Q1018 NOSIG RMK BLU

2010/08/10 07:45
LHUD 100745Z 34005KT CAVOK 24/17 Q1018

2010/08/10 08:01
CYRV 100801Z AUTO 03004KT 9SM FEW013 OVC035 16/15 A2985

2010/08/10 08:00
GCLP 100800Z 36009KT 320V020 8000 FEW020 23/18 Q1015 NOSIG

2010/08/10 08:00
GCXO 100800Z 28008KT 6000 2500NW R12/0500V1800N PRFG FEW000 BKN100 18/18 Q1018 NOSIG

2010/08/10 08:00
GCTS 100800Z 00000KT 9999 FEW025 BKN100 22/20 Q1016 NOSIG

2010/08/10 08:00
GCRR 100800Z 26003KT 230V320 9999 FEW020 25/19 Q1015

2010/08/10 08:00
GCFV 100800Z VRB02KT 9999 SCT040 23/20 Q1015

2010/08/10 08:00
LEMD 100800Z 04001KT CAVOK 26/14 Q1019 NOSIG

2010/08/10 08:00
LEBL 100800Z 13007KT 110V170 9999 SCT016 26/19 Q1017 NOSIG

2010/08/10 08:00
LEPA 100800Z 05006KT 010V070 CAVOK 28/14 Q1017 NOSIG

2010/08/10 08:00
LEZL 100800Z VRB02KT CAVOK 29/16 Q1016 NOSIG

2010/08/10 08:00
LEMG 100800Z 12001KT CAVOK 29/12 Q1017 NOSIG

2010/08/10 08:00
LEVC 100800Z VRB01KT CAVOK 28/18 Q1017 NOSIG

2010/08/10 08:00
LEAL 100800Z 00000KT 9999 FEW040 32/16 Q1016 NOSIG

2010/08/10 08:00
LEIB 100800Z VRB02KT CAVOK 28/22 Q1017 NOSIG

2010/08/10 08:00
LELC 100800Z 32003KT 290V350 9999 FEW040 26/17 Q1016 NOSIG

2010/08/10 08:00
LEVX 100800Z 22005KT 190V250 CAVOK 23/16 Q1018

2010/08/10 08:03
CYWA 100803Z AUTO 00000KT 2 1/8SM CLR 13/13 A2991 RMK VSBY VRBL 0.8V9.+

2010/08/10 08:01
KBAF 100801Z 00000KT 2SM BR FEW003 SCT110 22/21 A2991

2010/08/10 08:00
YSTW 100800Z AUTO 32002KT 9999NDV // OVC028 15/13 Q1013

2010/08/10 08:00
YSWG 100800Z AUTO 02011KT 9999NDV // SCT042 BKN061 OVC073 12/08 Q1008

2010/08/10 08:00
YTEF 100800Z AUTO 11015KT //// // ////// 20/M04 Q1019

2010/08/10 08:00
YTNK 100800Z AUTO 19007KT 9999NDV // NCD 21/M06 Q1018

2010/08/10 08:00
YTRE 100800Z AUTO 03008KT //// // ////// 17/16 Q1014

2010/08/10 08:00
YWGT 100800Z AUTO 32016G27KT //// // ////// 09/09 Q1009

2010/08/10 08:00
YWHA 100800Z AUTO 20015KT 9999NDV // NCD 13/08 Q1015

2010/08/10 08:00
YWLM 100800Z 04007KT 9999 -RA BKN060 BKN090 16/15 Q1013

2010/08/10 08:00
YPXM 100800Z AUTO 07010KT 9999NDV // BKN009 OVC013 26/23 Q////

2010/08/10 08:00
YPXM 100800Z AUTO 07010KT 9999NDV // BKN009 OVC013 26/23 Q////

2010/08/10 08:00
LEBA 100800Z VRB02KT CAVOK 29/12 Q1016

2010/08/10 08:00
LEDA 100800Z VRB02KT 9999 FEW020 23/14 Q1018

2010/08/10 08:00
LEJR 100800Z 00000KT 9999 FEW020 28/13 Q1016

2010/08/10 08:00
LELL 100800Z 00000KT 9000 FEW008 BKN012 23/16 Q1018

2010/08/10 08:00
LEPP 100800Z 03001KT CAVOK 17/13 Q1019

2010/08/10 08:00
LEXJ 100800Z VRB02KT 9999 FEW030 20/16 Q1019

2010/08/10 08:00
LEAB 100800Z VRB02KT CAVOK 26/13 Q1020 NOSIG

2010/08/10 08:00
LEBZ 100800Z 24001KT CAVOK 29/16 Q1016

2010/08/10 08:00
LELN 100800Z 00000KT CAVOK 19/11 Q1021

2010/08/10 08:00
LESA 100800Z 00000KT CAVOK 24/16 Q1021

2010/08/10 08:00
LETO 100800Z VRB01KT CAVOK 25/14 Q1019 NOSIG

2010/08/10 08:00
LEVD 100800Z 00000KT CAVOK 21/14 Q1021

2010/08/10 08:00
LEVS 100800Z 00000KT CAVOK 27/14 Q1020

2010/08/10 08:00
GCHI 100800Z 03006KT 330V100 9999 FEW014 BKN022 22/19 Q1016

2010/08/10 08:00
GCLA 100800Z VRB02KT 9999 FEW016 BKN025 23/18 Q1016

2010/08/10 08:00
GEML 100800Z 00000KT 9999 SCT012 27/22 Q1017

2010/08/10 07:50
EGDR 100750Z 24012KT 2000 RA SCT001 OVC005 16/16 Q1011 RED

2010/08/10 07:50
EGOM 100750Z 21008KT 9999 FEW010 SCT060 13/11 Q1004 BLU

2010/08/10 07:50
EGOP 100750Z AUTO 23009KT 2700NDV HZ FEW009/// BKN028/// BKN080/// 14/13 Q1010

2010/08/10 07:50
EGQS 100750Z 16003KT 9999 FEW020TCU SCT060 13/10 Q1004 BLU NOSIG

2010/08/10 07:50
EGVN 100750Z 22004KT 9999 FEW008 BKN070 13/11 Q1010 BLU NOSIG

2010/08/10 08:00
EPGD 100800Z VRB02KT CAVOK 20/13 Q1018

2010/08/10 08:00
EPKK 100800Z 19005KT 150V240 9999 FEW012 20/16 Q1018

2010/08/10 08:00
EPKT 100800Z 25004KT 220V310 9999 FEW008 19/16 Q1018

2010/08/10 08:00
EPPO 100800Z 24002KT 5000 BR FEW007 18/18 Q1017

2010/08/10 08:00
EPRZ 100800Z 26007KT 230V300 9999 SCT013 20/17 Q1017

2010/08/10 08:00
EPWA 100800Z VRB03KT 9999 FEW020 21/18 Q1017 NOSIG

2010/08/10 08:00
EPWR 100800Z VRB02KT 9999 SCT017 22/18 Q1018

2010/08/10 08:00
LDSP 100800Z VRB03KT CAVOK 29/12 Q1014 NOSIG

2010/08/10 08:00
LFBM 100800Z VRB02KT 9000 SCT003 SCT250 16/15 Q1019

2010/08/10 08:00
LHBP 100800Z 33005KT 300V010 CAVOK 23/15 Q1018 NOSIG

2010/08/10 07:45
LHDC 100745Z 09005KT 8000 FEW013 21/18 Q1018 NOSIG

2010/08/10 07:45
LHKE 100745Z 04002MPS CAVOK 23/17 Q1018 NOSIG RMK BLU

2010/08/10 07:45
LHPA 100745Z 26002MPS CAVOK 20/15 Q1020 NOSIG RMK BLU

2010/08/10 07:45
LHPP 100745Z 12004KT 9999 FEW026 23/16 Q1019

2010/08/10 07:45
LHSN 100745Z 30002MPS CAVOK 22/16 Q1018 NOSIG RMK BLU

2010/08/10 07:45
LHUD 100745Z 34005KT CAVOK 24/17 Q1018

2010/08/10 08:00
LKKV 100800Z VRB01KT 9999 FEW026 18/14 Q1019

2010/08/10 08:00
LKMT 100800Z VRB01KT 9999 FEW030 20/16 Q1018 NOSIG

2010/08/10 08:00
LKPR 100800Z 12003KT 040V150 9999 SCT020 20/15 Q1018 NOSIG

2010/08/10 08:00
LKTB 100800Z VRB01KT 9999 FEW027 21/15 Q1018 NOSIG

2010/08/10 08:00
LYBE 100800Z 01004KT 340V120 CAVOK 24/17 Q1018 NOSIG

2010/08/10 08:00
LYNI 100800Z 29005KT 240V320 9999 FEW030 23/17 Q1018 NOSIG

2010/08/10 08:00
LYPG 100800Z 04005KT 340V080 CAVOK 29/10 Q1013 NOSIG

2010/08/10 08:00
LYTV 100800Z VRB02KT CAVOK 29/14 Q1013 NOSIG

2010/08/10 08:00
VHHH 100800Z 17008KT 130V240 9999 FEW025 SCT035 32/25 Q1004 NOSIG

2010/08/10 08:00
RCTP 100800Z 24016KT 9999 FEW020 BKN220 34/25 Q1005 NOSIG

2010/08/10 08:00
RCKH 100800Z 20006KT 150V230 9999 FEW012 SCT050 BKN200 30/27 Q1007 NOSIG

2010/08/10 08:00
RCSS 100800Z 08009KT 020V100 9999 FEW022 SCT050 33/25 Q1005 NOSIG

2010/08/10 08:00
VMMC 100800Z 18009KT 9999 FEW020 SCT080 31/25 Q1004 NOSIG

2010/08/10 08:00
RPLL 100800Z 25010KT 9000 SCT025 BKN300 30/26 Q1008 NOSIG RMK A2977

2010/08/10 08:00
RPVM 100800Z 24004KT 9999 SCT018CB OVC250 31/27 Q1009 A2980 DSTNT PCPN NE NW AND SE CB ALQDS

2010/08/10 08:00
RPMD 100800Z 09010KT 8000 -TS -RA SCT015CB BKN090 BKN290 30/26 Q1008 LGT TS LIRA CB N E SW

2010/08/10 08:00
RPLB 100800Z 22007KT 9999 FEW020 SCT080 BKN300 29/23 Q1009 NOSIG

2010/08/10 08:00
RPLI 100800Z 22010KT 9999 SCT019CB FEW020 BKN100 30/26 Q1006 RESHRA

2010/08/10 08:00
RPMZ 100800Z 32004KT 9999 FEW018 SCT120 31/25 Q1009

2010/08/10 08:00
OBBI 100800Z 12009KT CAVOK 41/09 Q1000 NOSIG

2010/08/10 08:00
OEDF 100800Z 12007KT 090V150 5000 DU SKC 41/17 Q0999 NOSIG

2010/08/10 08:00
OEDR 100800Z 15007KT 5000 HZ NSC 39/24 Q0998 NOSIG

2010/08/10 08:00
OTBD 100800Z 10007KT 060V140 CAVOK 39/24 Q1000 NOSIG

2010/08/10 08:00
OKBK 100800Z 14004KT 7000 SKC 42/18 Q1000 NOSIG

2010/08/10 08:00
LCLK 100800Z 16009KT 9999 FEW020 31/25 Q1006 NOSIG

2010/08/10 08:00
LCPH 100800Z 22005KT 160V300 7000 SCT020 31/25 Q1007

2010/08/10 08:00
FMMI 100800Z VRB03KT 9999 SCT020 22/12 Q1026 NOSIG

2010/08/10 08:00
FMNM 100800Z 16010KT CAVOK 29/14 Q1018

2010/08/10 08:00
FMMT 100800Z 20006KT 9999 SCT017 25/19 Q1022

2010/08/10 08:00
FMNA 100800Z 160//KT 9999 VCSH FEW017 BKN033 26/21 Q1016

2010/08/10 08:00
FMSD 100800Z VRB02KT 9999 FEW020 BKN040 24/18 Q1020

2010/08/10 08:00
FMCH 100800Z 25007KT 9999 FEW023 28/22 Q1019 NOSIG

2010/08/10 07:50
VECC 100750Z 16006KT 5000 HZ FEW020 SCT025 36/26 Q1000 NOSIG

2010/08/10 08:00
FMNM 100800Z 16010KT CAVOK 29/14 Q1018

2010/08/10 08:00
FMMT 100800Z 20006KT 9999 SCT017 25/19 Q1022

2010/08/10 08:00
FMNA 100800Z 160//KT 9999 VCSH FEW017 BKN033 26/21 Q1016

2010/08/10 08:00
FMSD 100800Z VRB02KT 9999 FEW020 BKN040 24/18 Q1020

2010/08/10 08:00
FMCH 100800Z 25007KT 9999 FEW023 28/22 Q1019 NOSIG

2010/08/10 08:00
LUBL 100800Z 26006KT 230V310 9999 FEW026 25/21 Q1015 RWY15

2010/08/10 08:00
TTPP 100800Z 00000KT 9999 FEW016 BKN280 24/23 Q1013 NOSIG

2010/08/10 08:00
TTCP 100800Z 16009KT 9999 FEW016 SCT300 27/23 Q1013 NOSIG

2010/08/10 08:00
EIDW 100800Z 24014KT 9999 -SHRA FEW015 FEW022CB SCT026 13/11 Q1006 NOSIG

2010/08/10 08:00
EINN 100800Z 25011KT 9999 FEW025 BKN035 15/11 Q1009 NOSIG

2010/08/10 08:00
EICK 100800Z 32006KT 9999 FEW020 13/09 Q1009 NOSIG

2010/08/10 08:00
EIKN 100800Z 29010KT 9999 SCT012 12/10 Q1007 NOSIG

2010/08/10 08:00
BIKF 100800Z 32010KT 9999 FEW019 BKN022 12/06 Q1014

2010/08/10 08:00
LUKK 100800Z 02010KT CAVOK 29/17 Q1013 08CLRD65 NOSIG

2010/08/10 08:00
UBBB 100800Z 02010KT 9999 FEW060CB BKN100 31/31 Q1011 NOSIG RMK R88CLRD70

2010/08/10 08:00
UHHH 100800Z METAR 22008MPS 9999 FEW026 SCT100 27/19 Q1005 NOSIG

2010/08/10 08:00
UKBB 100800Z 35002MPS 300V030 9999 SCT033CB 25/21 Q1015 88CLRD95 TEMPO -TSRA SCT030CB

2010/08/10 08:00
UKFF 100800Z 05007MPS 020V080 CAVOK 33/19 Q1009 01010070 NOSIG

2010/08/10 08:00
UKKK 100800Z 06003MPS 8000 NSC 27/21 Q1015 26CLRD70 TEMPO VRB14MPS 3000 -TSRAGR BKN020CB

2010/08/10 08:00
UKLL 100800Z VRB02MPS 9999 BKN013 19/16 Q1018 31110360 NOSIG

2010/08/10 08:00
UKOO 100800Z 04007MPS CAVOK 33/16 Q1011 34090070 NOSIG

2010/08/10 08:00
UTTT 100800Z 01004MPS CAVOK 36/03 Q1008 R08R/CLRD70 NOSIG

2010/08/10 07:56
K79J 100756Z AUTO 00000KT 7SM CLR 25/22 A2993 RMK AO2 SLP128 T02500222 TSNO PNO $

2010/08/10 07:56
KHLR 100756Z AUTO 15005KT 10SM CLR 28/23 A2993 RMK AO2 SLP125 T02830228 $

2010/08/10 07:55
KLUF 100755Z AUTO 00000KT 10SM FEW120 32/12 A2981 RMK AO2 SLP063 T03180120 $

2010/08/10 07:56
KNBC 100756Z AUTO 00000KT 10SM CLR 26/24 A2998 RMK AO2 SLP154 T02610244 $

2010/08/10 07:56
KNCA 100756Z AUTO 00000KT 10SM 24/24 A3001 RMK AO2 SLP165 T02390239 $

2010/08/10 07:56
KNJK 100756Z AUTO 36005KT 10SM CLR 27/M01 A2973 RMK AO2 SLP083 T02671011 404000183 TSNO

2010/08/10 07:57
KNJM 100757Z AUTO 23004KT 10SM BKN017 27/25 A3001 RMK AO2 SLP167 T02720250

2010/08/10 07:56
KNRS 100756Z AUTO 00000KT 10SM OVC015 16/14 A2992 RMK AO2 SLP130 T01560144 402110106 TSNO

2010/08/10 07:56
PPIZ 100756Z AUTO 05020G27KT 10SM SCT013 06/03 A2967 RMK AO2 TSNO T00550027 PK WND 06030/0712 SLP050 $

2010/08/10 07:55
KQPD 100755Z AUTO 21007G13KT 140V240 8000 37/04 A2969 RMK AO2 SLP959 T03690037 $

2010/08/10 07:55
KQQS 100755Z AUTO VRB04KT 9999 SCT045 BKN060 25/12 A3010 RMK AO2 SLP084 T02460121 $

2010/08/10 07:55
KQSD 100755Z 21007G14KT 9000 HZ BKN120 30/02 A3000 RMK AO2A SLP031 $

2010/08/10 08:01
KHST 100801Z AUTO 15013G19KT 120V190 10SM -RA FEW020 27/24 A2987 RMK AO2 RAB0801 SLP118

2010/08/10 08:00
KLSF 100800Z AUTO 00000KT 7SM R33/5000V5500FT CLR 23/22 A2996 RMK AO2 SLP144 PNO $

2010/08/10 08:00
KMMT 100800Z AUTO 00000KT 6SM R32/4000V5500FT BR CLR 23/22 A3001 RMK AO2 SLP159

2010/08/10 08:00
KMTC 100800Z AUTO 00000KT 1/4SM R19/0700V2800FT DZ FG CLR 20/20 A2994 RMK AO2 SLP143 $

2010/08/10 08:02
KMTC 100802Z AUTO 00000KT 1/2SM R19/0700V3000FT DZ FG CLR 20/20 A2994 RMK AO2 SLP144 $

2010/08/10 08:00
MKJS 100800Z 00000KT 9999 FEW024 BKN220 27/23 Q1012

2010/08/10 07:59
MMAA 100759Z RTD 03006KT 5SM -RA SCT010CB BKN050 OVC070 27/25 A2983 RMK 60205 8/96/

2010/08/10 08:00
MMMY 100800Z RTD 08005KT 10SM SCT040 24/23 A2991 RMK 8/500

2010/08/10 07:55
MUHA 100755Z 21006KT 7000 FEW040 OVC110 23/22 Q1012

2010/08/10 08:00
NTAA 100800Z 10004KT 9999 FEW020 23/16 Q1018 WS ALL RWY NOSIG

2010/08/10 08:00
NWWW 100800Z AUTO 14006KT 100V170 9999NDV NCD 20/14 Q1023

2010/08/10 07:55
PACZ 100755Z AUTO 20009KT 10SM BKN008 OVC012 09/08 A2930 RMK AO1 T00940084

2010/08/10 07:58
PAGA 100758Z AUTO 12007KT 10SM BKN029 OVC036 14/10 A2956 RMK AO2 SLPNO T01440100

2010/08/10 07:55
PALU 100755Z AUTO 07020KT 7SM 08/08 A2960 RMK AO1 T00830078

2010/08/10 07:55
PASV 100755Z AUTO 00000KT 7SM BKN020 OVC025 09/08 A2964 RMK AO1 T00940084

2010/08/10 08:00
PKWA 100800Z AUTO 07016G20KT 10SM SCT022 SCT028 SCT037 29/23 A2987 RMK AO2 T02850233

2010/08/10 08:00
SOCA 100800Z VRB01KT 9999 FEW003 SCT120 23/23 Q1012 NOSIG

2010/08/10 08:00
SVMG 100800Z 00000KT 9999 FEW010 BKN080 27/25 Q1013 NOSIG

2010/08/10 08:00
SVMI 100800Z 00000KT 9999 FEW016 28/24 Q1011 NOSIG

2010/08/10 08:00
TFFF 100800Z AUTO 00000KT 9999NDV NCD 25/24 Q1012

2010/08/10 08:00
TGPY 100800Z 19006KT 9999 SCT017 SCT034 28/25 Q1012

2010/08/10 07:55
TXKF 100755Z 17007KT 9999 FEW015 FEW180 SCT300 27/23 Q1020 /

2010/08/10 08:00
VHHH 100800Z 17008KT 130V240 9999 FEW025 SCT035 32/25 Q1004 NOSIG

2010/08/10 08:00
PAMC 100800Z 07006KT 10SM OVC025 13/10 A2961

2010/08/10 08:00
PATK 100800Z AUTO VRB04KT 6SM -RA BR BKN012 BKN019 OVC049 12/12 A2976

2010/08/10 08:00
FBSK 100800Z 18011KT CAVOK 13/M11 Q1032 NOSIG

2010/08/10 08:00
WBGR 100800Z 34005KT 9999 FEW014 SCT150 BKN300 30/26 Q1006

2010/08/10 08:00
WBGS 100800Z 14003KT 9999 SCT018 SCT150 BKN300 34/24 Q1006

2010/08/10 08:00
WBGY 100800Z 16001KT 9999 SCT023 BKN300 34/24 Q1006

2010/08/10 08:00
WBKL 100800Z 29004KT 9999 FEW014 SCT140 BKN290 31/26 Q1006

2010/08/10 08:00
WBKS 100800Z 06010KT 9999 FEW017 FEW018CB BKN300 31/25 Q1007

2010/08/10 08:00
WBKT 100800Z 36005KT 9999 FEW016 BKN270 32/23 Q1007

2010/08/10 08:00
WBKW 100800Z 16007KT 9999 FEW018 BKN300 30/25 Q1007

2010/08/10 08:00
SACO 100800Z 29005KT CAVOK 02/M02 Q1027

2010/08/10 08:00
SAME 100800Z 00000KT CAVOK 03/M04 Q1022

2010/08/10 08:00
SARF 100800Z 20005KT CAVOK 11/09 Q1021

2010/08/10 08:00
SARP 100800Z 11006KT CAVOK 10/06 Q1021

2010/08/10 08:00
SAVC 100800Z 27017KT CAVOK 06/M03 Q1020

2010/08/10 08:00
SBFN 100800Z 12008KT 9999 SCT017 26/23 Q1015

2010/08/10 08:00
SBGO 100800Z 35002KT CAVOK 14/12 Q1019

2010/08/10 08:00
SBGR 100800Z 18005KT 9999 OVC023 13/12 Q1024

2010/08/10 08:00
SBMA 100800Z 00000KT 7000 NSC 22/21 Q1013

2010/08/10 08:00
SBPA 100800Z 07001KT 0100 R11/0300 R29/0300 FG NSC 05/05 Q1027

2010/08/10 08:00
SBVT 100800Z 21009KT 9999 SCT020 SCT100 21/18 Q1021

2010/08/10 08:00
SCAR 100800Z 08006KT CAVOK 10/05 Q1015

2010/08/10 08:00
SCBA 100800Z AUTO 25005KT CAVOK M01/M03 Q1021

2010/08/10 08:00
SCCI 100800Z 28006KT 9999 FEW016 SCT100 04/01 Q1004 NOSIG

2010/08/10 08:00
SCDA 100800Z 25003KT 8000 OVC020 13/09 Q1017

2010/08/10 08:00
SCEL 100800Z VRB01KT 5000 HZ NSC 03/00 Q1015 NOSIG

2010/08/10 08:00
SCFA 100800Z 31006KT 9999 OVC019 13/08 Q1017

2010/08/10 08:00
SCIE 100800Z 19004KT CAVOK 05/04 Q1017

2010/08/10 08:00
SCON 100800Z AUTO VRB02KT CAVOK 02/01 Q1024

2010/08/10 08:00
SCSE 100800Z 32002KT 9999 OVC015 11/08 Q1017 NEFO PLAYA 1800FT

2010/08/10 08:00
SCTE 100800Z 18005KT 9999 OVC006 07/06 Q1022 NOSIG

2010/08/10 08:00
SOCA 100800Z VRB01KT 9999 FEW003 SCT120 23/23 Q1012 NOSIG

2010/08/10 08:00
SPHI 100800Z 17004KT CAVOK 15/13 Q1015 RMK PP000

2010/08/10 08:00
SPQU 100800Z 36006KT CAVOK 11/M17 Q1026 RMK PP000

2010/08/10 08:00
SPRU 100800Z 15004KT 4900 BR FEW013 14/13 Q1015 RMK BIRDS HAZARD RWY 20 PP000

2010/08/10 08:00
SPSO 100800Z 07004KT 7000 FEW012 11/09 Q1016 RMK PP000

2010/08/10 08:00
SPTN 100800Z 00000KT CAVOK 07/05 Q1013 RMK PP000

2010/08/10 08:00
SPZO 100800Z 00000KT 9999 SKC 01/M05 Q1033 RMK PP000

2010/08/10 08:00
SVMI 100800Z 00000KT 9999 FEW016 28/24 Q1011 NOSIG

2010/08/10 07:50
KHMS 100750Z 29014KT 15SM FEW250 19/08 A2981 RMK SLP093 T01900083 403200168 RSNK 13.3/29013KT 

2010/08/10 08:04
CYSC 100804Z AUTO 11002KT 1/4SM FG VV006 13/13 A2990 RMK SLP130

2010/08/10 08:04
CYZE 100804Z AUTO 32002KT 1 1/4SM BR CLR 17/17 A2994 RMK SLP140 DENSITY ALT 900FT

2010/08/10 08:00
WBKK 100800Z 32003KT 9999 FEW014 FEW017CB SCT140 BKN270 32/25 Q1006 NOSIG

2010/08/10 08:00
WMKJ 100800Z 17005KT 9999 FEW018 SCT130 BKN280 32/25 Q1006

2010/08/10 08:00
WMKK 100800Z 17006KT 140V210 9999 FEW018 SCT140 BKN280 31/26 Q1006 NOSIG

2010/08/10 08:00
WMKP 100800Z 23008KT 9000 FEW020 SCT140 BKN270 32/26 Q1006 NOSIG

2010/08/10 08:00
WMSA 100800Z 17007KT 9999 FEW020 SCT140 BKN280 33/25 Q1006 NOSIG

2010/08/10 07:58
HLLB 100758Z 30015KT 9999 BKN020 28/19 Q1013

2010/08/10 07:50
EGYH 100750Z 22012KT 9999 FEW010 SCT016 BKN050 16/// Q1009 WHT

2010/08/10 08:00
EICK 100800Z 32006KT 9999 FEW020 13/09 Q1009 NOSIG

2010/08/10 08:00
EIDW 100800Z 24014KT 9999 -SHRA FEW015 FEW022CB SCT026 13/11 Q1006 NOSIG

2010/08/10 08:00
EIKN 100800Z 29010KT 9999 SCT012 12/10 Q1007 NOSIG

2010/08/10 08:00
EINN 100800Z 25011KT 9999 FEW025 BKN035 15/11 Q1009 NOSIG

2010/08/10 08:00
LEAM 100800Z 00000KT CAVOK 28/20 Q1016

2010/08/10 08:00
LEAS 100800Z 25004KT 210V290 9999 FEW025 20/17 Q1018 NOSIG

2010/08/10 08:00
LEBB 100800Z 14003KT 100V190 CAVOK 20/16 Q1018 NOSIG

2010/08/10 08:00
LEBL 100800Z 13007KT 110V170 9999 SCT016 26/19 Q1017 NOSIG

2010/08/10 08:00
LECO 100800Z VRB02KT CAVOK 17/17 Q1019

2010/08/10 08:00
LEGE 100800Z 17005KT 9999 FEW010 SCT023 23/20 Q1017

2010/08/10 08:00
LEGR 100800Z VRB01KT 9999 FEW100 26/13 Q1020

2010/08/10 08:00
LELC 100800Z 32003KT 290V350 9999 FEW040 26/17 Q1016 NOSIG

2010/08/10 08:00
LEMH 100800Z 08004KT 050V120 CAVOK 27/17 Q1017

2010/08/10 08:00
LEPP 100800Z 03001KT CAVOK 17/13 Q1019

2010/08/10 08:00
LERS 100800Z VRB01KT 9999 SCT025 25/20 Q1017

2010/08/10 08:00
LESO 100800Z 12004KT 090V150 CAVOK 20/15 Q1018

2010/08/10 08:00
LEST 100800Z VRB01KT CAVOK 17/13 Q1019 NOSIG

2010/08/10 08:00
LEVC 100800Z VRB01KT CAVOK 28/18 Q1017 NOSIG

2010/08/10 08:00
LEVT 100800Z 00000KT 5000 BR BKN003 OVC005 13/13 Q1019

2010/08/10 08:00
LEVX 100800Z 22005KT 190V250 CAVOK 23/16 Q1018

2010/08/10 08:00
LEZG 100800Z 31005KT 270V350 9999 FEW050 21/13 Q1018

2010/08/10 08:00
LKCV 100800Z VRB01KT 9999 FEW030 SCT090 20/15 Q1018 NOSIG RMK BLU+ BLU+

2010/08/10 08:00
LKPD 100800Z VRB01KT 9999 FEW014 18/16 Q1019 NOSIG RMK BLU+ BLU+

2010/08/10 08:00
LKPO 100800Z 28003KT 220V040 9999 FEW016 19/15 Q1018 NOSIG RMK BLU+ BLU+

2010/08/10 08:00
FBSK 100800Z 18011KT CAVOK 13/M11 Q1032 NOSIG

2010/08/10 08:00
FMNM 100800Z 16010KT CAVOK 29/14 Q1018

2010/08/10 08:00
FMMT 100800Z 20006KT 9999 SCT017 25/19 Q1022

2010/08/10 08:00
FMNA 100800Z 160//KT 9999 VCSH FEW017 BKN033 26/21 Q1016

2010/08/10 08:00
FMSD 100800Z VRB02KT 9999 FEW020 BKN040 24/18 Q1020

2010/08/10 08:00
FMCH 100800Z 25007KT 9999 FEW023 28/22 Q1019 NOSIG

2010/08/10 08:02
KPGD 100802Z AUTO 10004KT 10SM SCT008 BKN013 24/23 A2988 RMK AO2 TSNO

2010/08/10 08:03
PACM 100803Z AUTO 18007KT 3SM -RA BR FEW021 SCT055 OVC100 11/09 A2933 RMK AO2 TSNO P0000 $

2010/08/10 08:03
KDSV 100803Z AUTO 14003KT 3SM BR BKN050 OVC065 22/21 A2996 RMK AO2 $

2010/08/10 08:03
KEAU 100803Z AUTO 04004KT 5SM BR CLR 21/20 A2994 RMK AO2

2010/08/10 08:03
KGRR 100803Z AUTO 00000KT 1/2SM FG VV001 20/19 A2997 RMK AO2

2010/08/10 08:03
KHTS 100803Z AUTO 00000KT 2 1/2SM BR CLR 22/21 A2998 RMK AO2 TSNO

2010/08/10 08:03
KTOL 100803Z 00000KT 1 3/4SM BR CLR 22/21 A2996 RMK AO2

2010/08/10 08:03
PACM 100803Z AUTO 18007KT 3SM -RA BR FEW021 SCT055 OVC100 11/09 A2933 RMK AO2 TSNO P0000 $

2010/08/10 08:00
FMNM 100800Z 16010KT CAVOK 29/14 Q1018

2010/08/10 08:00
FMMT 100800Z 20006KT 9999 SCT017 25/19 Q1022

2010/08/10 08:00
FMNA 100800Z 160//KT 9999 VCSH FEW017 BKN033 26/21 Q1016

2010/08/10 08:00
FMSD 100800Z VRB02KT 9999 FEW020 BKN040 24/18 Q1020

2010/08/10 08:00
FMCH 100800Z 25007KT 9999 FEW023 28/22 Q1019 NOSIG

2010/08/10 08:00
LRBS 100800Z 33005KT 260V020 CAVOK 28/20 Q1014 NOSIG

2010/08/10 08:00
LRCK 100800Z 29006KT 250V340 CAVOK 30/20 Q1012 NOSIG

2010/08/10 08:00
LROP 100800Z 29007KT 260V340 CAVOK 28/21 Q1014 880///95 NOSIG

2010/08/10 08:00
LRSB 100800Z 36004KT 320V030 9999 SCT030 BKN090 22/16 Q1018

2010/08/10 08:00
LRTR 100800Z 34006KT 310V020 CAVOK 25/17 Q1017 NOSIG

2010/08/10 08:00
KLDJ 100800Z AUTO 27004KT 10SM -DZ SCT050 26/19 A2992 RMK AO2 T02570188

2010/08/10 08:00
KLHZ 100800Z AUTO 00000KT 10SM CLR 25/23 A3001 RMK AO2 T02460225

2010/08/10 08:00
KLKU 100800Z AUTO 00000KT 7SM CLR 24/21 A2996 RMK AO2

2010/08/10 08:00
KLNP 100800Z AUTO 00000KT 7SM SCT043 BKN065 23/20 A3012 RMK AO1

2010/08/10 08:00
KMDQ 100800Z AUTO 00000KT 7SM CLR 25/24 A2999 RMK AO2 T02470237

2010/08/10 08:00
KMGR 100800Z AUTO 00000KT 10SM CLR 26/24 A2996 RMK AO2

2010/08/10 08:00
KMKJ 100800Z AUTO 00000KT 2 1/2SM BKN070 19/08 A3016 RMK AO1

2010/08/10 08:01
KMRN 100801Z AUTO 00000KT 3/4SM FG VV005 21/21 A3010 RMK AO2

2010/08/10 08:02
KMWK 100802Z AUTO 00000KT 5SM BR CLR 23/22 A3004 RMK AO2

2010/08/10 08:02
KRHP 100802Z AUTO 00000KT BKN100 21/21 A3009 RMK AO2 PWINO

2010/08/10 08:00
KSIF 100800Z AUTO 00000KT 7SM CLR 24/22 A3001 RMK AO2 T02350220

2010/08/10 08:00
KSUT 100800Z AUTO 22004KT 10SM SCT016 SCT022 26/23 A3001 RMK AO2

2010/08/10 08:00
KSVH 100800Z AUTO 21004KT 7SM CLR 24/23 A3002 RMK AO2 T02350230

2010/08/10 08:00
KTMA 100800Z AUTO 00000KT 10SM CLR 25/24 A2996 RMK AO2 T02450239

2010/08/10 08:01
KTNB 100801Z AUTO 00000KT 4SM BR CLR 19/18 A3016 RMK AO2

2010/08/10 08:04
KTTA 100804Z AUTO 00000KT 5SM BR CLR 22/22 A3002 RMK AO2

2010/08/10 08:00
KTVI 100800Z AUTO 07003KT 10SM CLR 26/24 A2994 RMK AO2 T02550240

2010/08/10 07:56
KVDF 100756Z AUTO 07003KT 10SM CLR 25/23 A2988 RMK AO2

2010/08/10 07:58
KVUJ 100758Z AUTO 00000KT 5SM BKN085 22/21 A3001 RMK AO2

2010/08/10 08:00
KW45 100800Z AUTO 00000KT 7SM CLR 23/22 A2998 RMK AO2 T02260224

2010/08/10 08:00
K2G4 100800Z AUTO 25006KT 10SM CLR 20/15 A3009 RMK AO1

2010/08/10 08:01
K2W6 100801Z AUTO 22005KT 10SM CLR 24/21 A2996 RMK AO1

2010/08/10 08:02
KCBE 100802Z AUTO 00000KT 10SM CLR 21/20 A3002 RMK AO1

2010/08/10 07:59
KCGE 100759Z AUTO 19003KT 10SM CLR 26/25 A2996 RMK AO1

2010/08/10 08:00
KCGS 100800Z AUTO 00000KT 10SM CLR 27/21 A2994 RMK AO1

2010/08/10 08:02
KCWF 100802Z AUTO 00000KT 10SM CLR 26/26 A2992 RMK AO2

2010/08/10 08:02
KFDK 100802Z AUTO 00000KT 7SM CLR 24/22 A2996 RMK AO2

2010/08/10 08:01
KDMW 100801Z AUTO 00000KT 7SM CLR 24/22 A2996 RMK AO2

2010/08/10 08:06
KESN 100806Z AUTO 20004KT 10SM CLR 24/23 A2998 RMK AO2

2010/08/10 08:03
KFME 100803Z AUTO 00000KT 4SM CLR 20/20 A2995 RMK AO1

2010/08/10 08:00
KHSP 100800Z AUTO 26009KT 10SM CLR 21/16 A3019 RMK AO2

2010/08/10 08:00
KJFZ 100800Z AUTO 00000KT 10SM FEW060 22/19 A3010 RMK

2010/08/10 07:55
KLGC 100755Z AUTO 00000KT 8SM CLR 22/22 A2998 RMK AO1

2010/08/10 08:00
KLOM 100800Z AUTO 24004KT 10SM CLR 26/21 A2992 RMK AO1 T02550212

2010/08/10 08:03
KMLJ 100803Z AUTO 00000KT 7SM CLR 24/24 A2999 RMK AO2

2010/08/10 08:00
KMMU 100800Z AUTO 00000KT 10SM -RA CLR 23/20 A2993 RMK AO2 T02310200

2010/08/10 08:00
KMQS 100800Z AUTO 00000KT 5SM BR CLR 23/23 A2997 RMK AO2

2010/08/10 08:00
KMTN 100800Z AUTO 00000KT 10SM CLR 26/22 A2993 RMK AO2

2010/08/10 08:00
KMTV 100800Z AUTO 00000KT 1 3/4SM BR VV007 22/22 A3003 RMK AO2 VIS 1 1/2V2 1/2

2010/08/10 08:00
KOBE 100800Z AUTO 11003KT 10SM SCT017 SCT023 BKN080 25/23 A2990 RMK AO2

2010/08/10 08:03
KOCW 100803Z AUTO 22004KT 10SM CLR 26/21 A3001 RMK AO2

2010/08/10 08:00
KOKV 100800Z AUTO 23004KT 10SM CLR 26/21 A2997 RMK AO2 T02560212

2010/08/10 08:00
KOMH 100800Z AUTO 00000KT 7SM CLR 24/23 A2997 RMK AO2 T02350226

2010/08/10 08:00
KOPN 100800Z AUTO 12004KT 10SM CLR 26/23 A3001 RMK AO1

2010/08/10 08:00
KPCM 100800Z AUTO 09005KT 10SM CLR 26/24 A2990 RMK AO2

2010/08/10 08:00
KPSK 100800Z AUTO 00000KT 5SM BR CLR 22/19 A3010 RMK AO2

2010/08/10 08:00
KRCZ 100800Z AUTO 00000KT 7SM CLR 25/24 A3002 RMK AO2 T02450242

2010/08/10 08:00
KRMN 100800Z AUTO 00000KT 7SM CLR 23/22 A2999 RMK AO2

2010/08/10 08:00
KSFQ 100800Z AUTO 00000KT 7SM CLR 24/23 A2999 RMK AO2

2010/08/10 08:00
KSHD 100800Z AUTO 00000KT 5SM BR CLR 22/21 A3001 RMK AO2

2010/08/10 08:00
KTBR 100800Z AUTO 00000KT 10SM CLR 25/25 A2999 RMK AO2 T02470245

2010/08/10 08:02
KTPF 100802Z AUTO 08007KT 10SM SCT016 25/24 A2988 RMK AO2

2010/08/10 08:00
KVDI 100800Z AUTO 00000KT 10SM CLR 26/25 A2999 RMK AO2

2010/08/10 08:00
KVJI 100800Z AUTO 00000KT 5SM BR OVC060 23/22 A3009 RMK AO2 TSNO

2010/08/10 08:00
KW22 100800Z AUTO 00000KT 1 1/4SM BR CLR 19/19 A3005 RMK AO2

2010/08/10 08:02
KW29 100802Z AUTO 20005KT 10SM CLR 25/21 A2993 RMK AO1

2010/08/10 08:00
KW99 100800Z AUTO 00000KT 4SM HZ CLR 20/17 A3000 RMK AO2

2010/08/10 08:00
LFLL 100800Z 01003KT 310V070 CAVOK 22/15 Q1017 NOSIG

2010/08/10 08:00
LFMN 100800Z 09003KT 9999 FEW020 26/20 Q1016 NOSIG

2010/08/10 08:00
LFPG 100800Z 23004KT 190V290 CAVOK 19/11 Q1016 NOSIG

2010/08/10 08:00
LFPO 100800Z 20004KT 170V240 CAVOK 19/14 Q1016 NOSIG

2010/08/10 08:00
LFQQ 100800Z 22009KT 9999 FEW017 BKN170 18/14 Q1014 NOSIG

2010/08/10 08:00
LFRB 100800Z 24011KT 9999 -RA BKN006 BKN016 17/17 Q1014 NOSIG

2010/08/10 08:00
LFRS 100800Z 21007KT 9999 FEW008 BKN029 BKN140 19/17 Q1017 NOSIG

2010/08/10 08:00
VHHH 100800Z 17008KT 130V240 9999 FEW025 SCT035 32/25 Q1004 NOSIG

2010/08/10 08:00
RCTP 100800Z 24016KT 9999 FEW020 BKN220 34/25 Q1005 NOSIG

2010/08/10 08:00
RCKH 100800Z 20006KT 150V230 9999 FEW012 SCT050 BKN200 30/27 Q1007 NOSIG

2010/08/10 08:00
RCSS 100800Z 08009KT 020V100 9999 FEW022 SCT050 33/25 Q1005 NOSIG

2010/08/10 08:00
VMMC 100800Z 18009KT 9999 FEW020 SCT080 31/25 Q1004 NOSIG

2010/08/10 08:00
RPLL 100800Z 25010KT 9000 SCT025 BKN300 30/26 Q1008 NOSIG RMK A2977

2010/08/10 08:00
RPVM 100800Z 24004KT 9999 SCT018CB OVC250 31/27 Q1009 A2980 DSTNT PCPN NE NW AND SE CB ALQDS

2010/08/10 08:00
RPMD 100800Z 09010KT 8000 -TS -RA SCT015CB BKN090 BKN290 30/26 Q1008 LGT TS LIRA CB N E SW

2010/08/10 08:00
RPLB 100800Z 22007KT 9999 FEW020 SCT080 BKN300 29/23 Q1009 NOSIG

2010/08/10 08:00
RPLI 100800Z 22010KT 9999 SCT019CB FEW020 BKN100 30/26 Q1006 RESHRA

2010/08/10 08:00
RPMZ 100800Z 32004KT 9999 FEW018 SCT120 31/25 Q1009

2010/08/10 08:00
GGOV 100800Z 35003KT 310V060 4000 RA SCT005 SCT014TCU FEW018CB BKN090 24/24 Q1013 TEMPO TS

2010/08/10 08:00
SKBO 100800Z 08003KT 9999 FEW017 SCT200 11/09 A3033 NOSIG

2010/08/10 08:00
SKBQ 100800Z 00000KT 9999 SCT012 SCT070 27/26 A2985

2010/08/10 08:00
SKCL 100800Z 00000KT 9999 FEW025 BKN090 19/18 A2999

2010/08/10 08:00
SKCG 100800Z 00000KT 9999 FEW015 SCT200 27/26 A2984

2010/08/10 08:00
SKRG 100800Z 00000KT 6000 BKN010 15/14 A3027 RMK HZ

2010/08/10 08:00
KWDR 100800Z AUTO 00000KT 7SM CLR 23/21 A3005 RMK AO1

2010/08/10 08:00
KXLL 100800Z AUTO 00000KT 10SM CLR 25/22 A2994 RMK AO2 T02510216

2010/08/10 08:00
KXSA 100800Z AUTO 19003KT 10SM CLR 23/21 A2996 RMK AO2

2010/08/10 08:00
LEMD 100800Z 04001KT CAVOK 26/14 Q1019 NOSIG

2010/08/10 08:00
LEBL 100800Z 13007KT 110V170 9999 SCT016 26/19 Q1017 NOSIG

2010/08/10 08:00
LEPA 100800Z 05006KT 010V070 CAVOK 28/14 Q1017 NOSIG

2010/08/10 08:00
LEZL 100800Z VRB02KT CAVOK 29/16 Q1016 NOSIG

2010/08/10 08:00
LEMG 100800Z 12001KT CAVOK 29/12 Q1017 NOSIG

2010/08/10 08:00
LEVC 100800Z VRB01KT CAVOK 28/18 Q1017 NOSIG

2010/08/10 08:00
LEAL 100800Z 00000KT 9999 FEW040 32/16 Q1016 NOSIG

2010/08/10 08:00
LEIB 100800Z VRB02KT CAVOK 28/22 Q1017 NOSIG

2010/08/10 08:00
LELC 100800Z 32003KT 290V350 9999 FEW040 26/17 Q1016 NOSIG

2010/08/10 08:00
LEVX 100800Z 22005KT 190V250 CAVOK 23/16 Q1018

2010/08/10 08:00
LFBA 100800Z VRB02KT 9999 FEW021 18/15 Q1019 NOSIG

2010/08/10 08:00
LFBE 100800Z 00000KT CAVOK 19/13 Q1019 NOSIG

2010/08/10 08:00
LFGJ 100800Z AUTO 22004KT 180V270 9999NDV NSC 21/16 Q1017

2010/08/10 08:00
LFJR 100800Z AUTO 25006KT 9999NDV NSC 18/15 Q1017

2010/08/10 08:00
LFMD 100800Z AUTO 07003KT 020V140 9999NDV BKN027 26/20 Q1016

2010/08/10 08:00
LFMH 100800Z VRB02KT 9999 FEW046 SCT230 21/15 Q1018 NOSIG

2010/08/10 08:00
LFOT 100800Z AUTO 24008KT 210V270 9999NDV NSC 18/14 Q1017

2010/08/10 08:00
LFPN 100800Z 22004KT CAVOK 20/13 Q1016 NOSIG

2010/08/10 08:00
LFRC 100800Z AUTO 25011KT 8000NDV -RA BKN005 BKN010 OVC020 17/16 Q1013

2010/08/10 08:00
LFRG 100800Z AUTO 22012KT 9999NDV -RA NSC 17/13 Q1014

2010/08/10 08:00
LFRK 100800Z 19010KT 9999 -RA SCT040 BKN053 17/16 Q1014 NOSIG

2010/08/10 08:00
LFAQ 100800Z AUTO 20006KT 9999NDV NSC 17/13 Q1015

2010/08/10 08:00
LFBU 100800Z AUTO VRB03KT 9999NDV FEW013 18/13 Q1019

2010/08/10 08:00
LFLN 100800Z AUTO 31003KT 280V340 9999NDV NSC 20/15 Q1018

2010/08/10 08:00
LFPM 100800Z VRB02KT CAVOK 20/13 Q1016

2010/08/10 08:00
LFRH 100800Z 24013KT 5000 -DZRA FEW002 OVC003 18/17 Q1016

2010/08/10 08:00
LFRQ 100800Z 26008KT 220V280 9999 BKN003 18/18 Q1015 NOSIG

2010/08/10 08:00
LFRT 100800Z 23008KT 4000 -DZ BR SCT010 OVC023 18/18 Q1014

2010/08/10 08:00
LFTW 100800Z AUTO 32003KT 270V030 9999NDV NSC 26/15 Q1016

2010/08/10 08:00
SAAR 100800Z 00000KT 8000 NSC 02/02 Q1026

2010/08/10 08:00
SACO 100800Z 29005KT CAVOK 02/M02 Q1027

2010/08/10 08:00
SAEZ 100800Z 00000KT 8000 03/03 Q1028

2010/08/10 08:00
SAME 100800Z 00000KT CAVOK 03/M04 Q1022

2010/08/10 08:00
SANT 100800Z 00000KT 6000 BKN040 OVC100 11/06 Q1024

2010/08/10 08:00
SARE 100800Z 18003KT 6000 NSC 05/04 Q1023

2010/08/10 08:00
SARF 100800Z 20005KT CAVOK 11/09 Q1021

2010/08/10 08:00
SARP 100800Z 11006KT CAVOK 10/06 Q1021

2010/08/10 08:00
SASA 100800Z 00000KT 9999 SCT025 OVC100 04/02 Q1024

2010/08/10 08:00
SAVC 100800Z 27017KT CAVOK 06/M03 Q1020

2010/08/10 08:00
SAZN 100800Z 00000KT CAVOK M03/M06 Q1024

2010/08/10 08:00
FMMI 100800Z VRB03KT 9999 SCT020 22/12 Q1026 NOSIG

2010/08/10 08:00
FMNM 100800Z 16010KT CAVOK 29/14 Q1018

2010/08/10 08:00
FMMT 100800Z 20006KT 9999 SCT017 25/19 Q1022

2010/08/10 08:00
FMNA 100800Z 160//KT 9999 VCSH FEW017 BKN033 26/21 Q1016

2010/08/10 08:00
FMSD 100800Z VRB02KT 9999 FEW020 BKN040 24/18 Q1020

2010/08/10 08:00
FMCH 100800Z 25007KT 9999 FEW023 28/22 Q1019 NOSIG

2010/08/10 08:00
RKSI 100800Z 17007KT 9999 BKN025 BKN100 30/25 Q1006 TEMPO 4000 TSRA RMK CB S APCH STN

2010/08/10 08:00
RKSS 100800Z 03011KT 8000 -RA FEW008 BKN025 OVC080 25/23 Q1007 TEMPO 4200 RMK CB S APCH STN 

2010/08/10 08:00
RKPC 100800Z 12018G30KT 100V160 3500 RA BR FEW008 BKN025 OVC070 27/25 Q0996 NOSIG 

2010/08/10 08:00
RKPK 100800Z 11009KT 9999 BKN050 29/23 Q1007 NOSIG 

2010/08/10 08:00
RKTU 100800Z 06005KT 4000 -RA BKN030 OVC060 27/25 Q1007 BECMG 2500 

2010/08/10 08:00
RKTN 100800Z 13005KT 9000 -RA BKN020 OVC030 30/24 Q1007 NOSIG

2010/08/10 08:00
RKJB 100800Z 08009KT 040V110 4500 RA BR FEW010 BKN030 OVC070 26/24 Q1003 NOSIG 

2010/08/10 08:00
RKNY 100800Z 12003KT 6000 -RA FEW015 SCT030 OVC100 25/23 Q1008 NOSIG 

2010/08/10 08:00
DNMM 100800Z 27012KT 8000 SCT010 26/24 Q1015 NOSIG

2010/08/10 08:00
YPXM 100800Z AUTO 07010KT 9999NDV // BKN009 OVC013 26/23 Q////

2010/08/10 07:58
HLLB 100758Z 30015KT 9999 BKN020 28/19 Q1013

2010/08/10 07:50
HLLS 100750Z 12008KT CAVOK 33/11 Q1015

2010/08/10 07:50
HLLT 100750Z VRB03KT CAVOK 27/16 Q1017

2010/08/10 08:00
YSSY 100800Z 01011KT 9999 -RA BKN012 BKN042 17/15 Q1012 FM0800 02015KT 9000 -RA SCT010 BKN020 BKN040 TEMPO 0800/1100 4000 RA BKN010

2010/08/10 08:00
DGAA 100800Z 26010KT 9999 FEW010 BKN100 25/22 Q1015 NOSIG

2010/08/10 08:00
FBKE 100800Z 15012KT CAVOK 21/01 Q1026

2010/08/10 08:00
FBMN 100800Z 16014KT CAVOK 14/M09 Q1029

2010/08/10 08:00
FBSK 100800Z 18011KT CAVOK 13/M11 Q1032 NOSIG

2010/08/10 08:00
FYGF 100800Z 16008KT CAVOK 10/M10 Q1031

2010/08/10 08:00
FYKM 100800Z 18003KT CAVOK 18/M02 Q1025

2010/08/10 08:00
FYKT 100800Z AUTO 08015KT //// // ////// 11/M09 Q1034

2010/08/10 08:00
FYLZ 100800Z AUTO 06024KT //// // ////// 22/M15 Q1021

2010/08/10 08:00
FYML 100800Z AUTO 11004KT //// // ////// ///// Q1036

2010/08/10 08:00
FYOA 100800Z 08010KT CAVOK 19/M07 Q1025

2010/08/10 08:00
FYRU 100800Z 13012KT CAVOK 15/M04 Q1027

2010/08/10 08:00
FYWB 100800Z 09034KT 0900 R09/0375V0600N R27/0800VP1500U VV/// 27/M13 Q1016 

2010/08/10 08:00
FYWH 100800Z AUTO 11008KT //// // ////// 06/M12 Q1034

2010/08/10 08:00
FYWW 100800Z 13015KT CAVOK 08/M16 Q1027

2010/08/10 08:00
FIMP 100800Z 09012KT 9999 FEW020 25/14 Q1024

2010/08/10 08:00
FMMI 100800Z VRB03KT 9999 SCT020 22/12 Q1026 NOSIG

2010/08/10 08:00
FMMT 100800Z 20006KT 9999 SCT017 25/19 Q1022

2010/08/10 08:00
FMNM 100800Z 16010KT CAVOK 29/14 Q1018

2010/08/10 08:00
FABL 100800Z 15015KT CAVOK 07/M06 Q1035 NOSIG

2010/08/10 08:00
FACT 100800Z VRB02KT 9999 FEW035 14/07 Q1037 NOSIG

2010/08/10 08:00
FAEL 100800Z 24008KT 7000 RA SCT026 BKN035 BKN045 11/09 Q1038

2010/08/10 08:00
FAGG 100800Z 31005KT 280V340 9999 FEW025 SCT050 12/08 Q1039

2010/08/10 08:00
FAJS 100800Z 10016KT CAVOK 08/M02 Q1034 NOSIG

2010/08/10 08:00
FAKN 100800Z 21006KT CAVOK 14/M03 Q1034 NOSIG

2010/08/10 08:00
FALA 100800Z 11015KT CAVOK 11/M04 Q1034 NOSIG

2010/08/10 08:00
FALE 100800Z 20016KT 9999 FEW040 18/01 Q1033 NOSIG

2010/08/10 08:00
FAMM 100800Z 13009KT CAVOK 09/M11 Q1033 NOSIG

2010/08/10 08:00
FAPE 100800Z 18007KT 150V210 9999 BKN042 15/08 Q1039 NOSIG

2010/08/10 08:00
FAPN 100800Z AUTO 12006KT //// // ////// 11/M10 Q1033

2010/08/10 08:00
FAPP 100800Z 06007KT CAVOK 13/04 Q1031 NOSIG

2010/08/10 08:00
FAUP 100800Z 09007KT CAVOK 10/M06 Q1036 NOSIG

2010/08/10 08:00
YSSY 100800Z 01011KT 9999 -RA BKN012 BKN042 17/15 Q1012 FM0800 02015KT 9000 -RA SCT010 BKN020 BKN040 TEMPO 0800/1100 4000 RA BKN010

2010/08/10 08:02
RKSS 100802Z 32007KT 250V040 2000 RA FEW006 BKN025 BKN080 26/24 Q1007 NOSIG

2010/08/10 08:00
YPXM 100800Z AUTO 07010KT 9999NDV // BKN009 OVC013 26/23 Q////

2010/08/10 08:00
YWLM 100800Z 04007KT 9999 -RA BKN060 BKN090 16/15 Q1013 INTER 0800/1000 4000 RA SCT007 BKN010 FM0800 MOD TURB BLW 5000FT

2010/08/10 08:00
YWLM 100800Z 04007KT 9999 -RA BKN060 BKN090 16/15 Q1013 INTER 0800/1000 4000 RA SCT007 BKN010 FM0800 MOD TURB BLW 5000FT

2010/08/10 08:00
RJFM 100800Z 15011KT 9999 FEW012 SCT020 BKN025 29/26 Q1011

2010/08/10 08:00
RJFO 100800Z 14019KT 9999 VCSH FEW015 BKN180 BKN/// 27/25 Q1010

2010/08/10 08:00
RJFR 100800Z 11024KT 9999 FEW025 SCT150 BKN/// 30/24 Q1008

2010/08/10 08:00
RJFT 100800Z 12009KT 9999 FEW025 BKN/// 32/22 Q1009

2010/08/10 08:00
RJFU 100800Z 16022KT 4000 SHRA FEW030 SCT040 BKN060 28/24 Q1007

2010/08/10 08:00
RJGG 100800Z 17010KT 9999 VCSH FEW010 SCT020 BKN070 27/25 Q1013 NOSIG

2010/08/10 08:00
RJKA 100800Z 17015KT 9999 FEW013 SCT020 BKN150 29/26 Q1009

2010/08/10 08:00
RJNT 100800Z 20006KT 9999 -SHRA FEW015 SCT040 BKN060 27/25 Q1013

2010/08/10 08:00
RJNW 100800Z 20003KT 9999 FEW020 SCT070 BKN150 27/24 Q1014

2010/08/10 08:00
RJNS 100800Z 17004KT 130V210 9999 -SHRA FEW002 SCT007 FEW020TCU BKN/// 27/25 Q1014

2010/08/10 08:00
RJOA 100800Z 17005KT 130V200 9999 FEW020 SCT045 BKN120 29/22 Q1013

2010/08/10 08:00
RJOB 100800Z 12007KT 070V160 9999 FEW025 BKN/// 31/23 Q1013

2010/08/10 08:00
RJOC 100800Z 18004KT 130V240 9999 FEW025 SCT180 BKN/// 34/22 Q1010

2010/08/10 08:00
RJOH 100800Z 05009KT 9999 FEW030 SCT180 32/24 Q1010

2010/08/10 08:00
RJOK 100800Z 18008KT 9999 FEW020 SCT/// 29/26 Q1013

2010/08/10 08:00
RJOM 100800Z VRB01KT 9999 FEW020 FEW030TCU BKN170 30/25 Q1011

2010/08/10 08:00
RJOO 100800Z 24008KT 9999 FEW015 SCT100 BKN/// 29/22 Q1013

2010/08/10 08:00
RJOR 100800Z 17006KT 9999 FEW025 SCT090 BKN120 33/24 Q1011

2010/08/10 08:00
RJOT 100800Z 09004KT 040V170 9999 VCSH FEW020CB SCT035 BKN100 30/23 Q1013

2010/08/10 08:00
RJOW 100800Z 14009KT 9999 FEW035 SCT130 BKN/// 31/19 Q1009

2010/08/10 08:00
RJOY 100800Z 27009KT 9999 FEW020 FEW030CB SCT100 BKN/// 31/23 Q1013

2010/08/10 08:00
RJSA 100800Z 01004KT 9999 FEW030 27/23 Q1013

2010/08/10 08:00
RJSC 100800Z 07008KT 9999 VCSH FEW025 FEW030CB BKN050 31/24 Q1012

2010/08/10 08:00
RJSF 100800Z 18008KT 9999 FEW020 BKN/// 29/23 Q1015

2010/08/10 08:00
RJSI 100800Z 21008KT 9999 FEW030 BKN/// 32/23 Q1012

2010/08/10 08:00
RJSK 100800Z 30005KT 9999 FEW025 BKN/// 31/23 Q1012

2010/08/10 08:00
RJSR 100800Z 28009KT 9999 FEW050 BKN/// 29/23 Q1012

2010/08/10 08:00
RJSN 100800Z 34006KT 9999 FEW030 BKN/// 31/25 Q1011

2010/08/10 08:00
RJSS 100800Z 17009KT 9999 FEW030 SCT/// 28/24 Q1012

2010/08/10 08:00
RJSY 100800Z 31003KT 280V350 9999 FEW030 BKN/// 31/20 Q1011

2010/08/10 08:00
RJTF 100800Z 19007KT 160V230 9999 FEW020 SCT110 29/23 Q1014

2010/08/10 08:00
RJTH 100800Z 21006KT 180V240 9999 FEW014 BKN170 28/25 Q1015

2010/08/10 08:00
RJTT 100800Z 20013KT 9999 FEW015 SCT/// 30/22 Q1013

2010/08/10 08:00
ROAH 100800Z 21010KT 9999 -SHRA FEW015 FEW020TCU SCT050 BKN150 28/26 Q1008

2010/08/10 08:00
ROIG 100800Z 20009KT 9999 FEW015 BKN150 BKN/// 29/27 Q1007

2010/08/10 08:00
ROMY 100800Z 19009KT 9999 -RA FEW015 SCT050 BKN100 28/27 Q1008

2010/08/10 08:00
RORS 100800Z 22007KT 9999 VCSH FEW010 FEW015TCU BKN170 29/27 Q1007

2010/08/10 08:00
RJAH 100800Z 18010KT 9999 FEW020 SCT025 BKN350 29/24 Q1013

2010/08/10 08:00
RJAA 100800Z 17009KT 9999 FEW020 SCT030 28/24 Q1014 NOSIG

2010/08/10 08:00
RJBB 100800Z 23012KT 9999 FEW015 SCT100 BKN140 30/24 Q1013 NOSIG

2010/08/10 08:00
RJBD 100800Z 16006KT 9999 FEW008 SCT100 BKN/// 28/26 Q1014

2010/08/10 08:00
RJBE 100800Z 22014KT 9999 FEW020 FEW030CB BKN100 BKN/// 28/24 Q1013

2010/08/10 08:00
RJBH 100800Z 23006KT 9999 FEW030 BKN130 BKN/// 30/22 Q1011

2010/08/10 08:00
RJBT 100800Z 18006KT 9999 FEW003 BKN100 26/24 Q1013

2010/08/10 08:00
RJCB 100800Z 10004KT 9999 FEW015 BKN/// 27/23 Q1013

2010/08/10 08:00
RJCC 100800Z 19011KT 8000 FEW003 BKN004 22/20 Q1013

2010/08/10 08:00
RJCH 100800Z 14010KT 9999 FEW003 SCT/// 25/23 Q1013

2010/08/10 08:00
RJCK 100800Z 20005KT 2300 R17/P1800N PRFG BR FEW001 BKN002 21/19 Q1014

2010/08/10 08:00
RJCM 100800Z 18005KT 9999 FEW015 SCT025 BKN/// 26/23 Q1012

2010/08/10 08:00
RJCN 100800Z 25006KT 9999 FEW015 SCT020 BKN/// 25/22 Q1013

2010/08/10 08:00
RJCW 100800Z 21010KT 9999 FEW010 BKN040 26/22 Q1012

2010/08/10 08:00
RJDC 100800Z 10020KT 9999 FEW020 SCT130 BKN/// 28/24 Q1009

2010/08/10 08:00
RJDT 100800Z 10012KT 050V150 9999 FEW020 SCT060 BKN080 29/25 Q1006

2010/08/10 08:00
RJEC 100800Z 31004KT 9999 FEW025 SCT/// 29/22 Q1013

2010/08/10 08:00
RJFS 100800Z 16019KT 9999 FEW030 SCT040 BKN130 31/23 Q1007

2010/08/10 08:00
RJFF 100800Z 16016G26KT 9999 FEW025 BKN/// 34/21 Q1006

2010/08/10 08:00
RJFG 100800Z 14014KT 9999 FEW004 BKN006 27/26 Q1012

2010/08/10 08:00
RJFK 100800Z 13011KT 9999 VCSH FEW005 SCT025 BKN/// 28/24 Q1011

2010/08/10 08:02
RKSS 100802Z 32007KT 250V040 2000 RA FEW006 BKN025 BKN080 26/24 Q1007 NOSIG

2010/08/10 08:00
LFBA 100800Z VRB02KT 9999 FEW021 18/15 Q1019 NOSIG

2010/08/10 08:00
LFBE 100800Z 00000KT CAVOK 19/13 Q1019 NOSIG

2010/08/10 08:00
LFBM 100800Z VRB02KT 9000 SCT003 SCT250 16/15 Q1019

2010/08/10 08:00
LFCR 100800Z AUTO VRB02KT 9999NDV SCT019 19/13 Q1019

2010/08/10 08:00
LFGJ 100800Z AUTO 22004KT 180V270 9999NDV NSC 21/16 Q1017

2010/08/10 08:00
LFJL 100800Z AUTO 19007KT 160V230 9999NDV NSC 22/12 Q1017

2010/08/10 08:00
LFLQ 100800Z 02009KT 340V050 9999 FEW026 25/17 Q1016

2010/08/10 08:00
LFLS 100800Z 35006KT 310V040 CAVOK 23/15 Q1017 NOSIG

2010/08/10 08:00
LFLY 100800Z VRB03KT CAVOK 23/15 Q1017 NOSIG

2010/08/10 08:00
LFMD 100800Z AUTO 07003KT 020V140 9999NDV BKN027 26/20 Q1016

2010/08/10 08:00
LFMH 100800Z VRB02KT 9999 FEW046 SCT230 21/15 Q1018 NOSIG

2010/08/10 08:00
LFMT 100800Z 18004KT CAVOK 27/15 Q1016 NOSIG

2010/08/10 08:00
LFMU 100800Z AUTO 28011KT 9999NDV NSC 24/13 Q1016

2010/08/10 08:00
LFOB 100800Z 20007KT CAVOK 19/12 Q1015 NOSIG

2010/08/10 08:00
LFOE 100800Z AUTO 20010KT 9999NDV NSC 18/12 Q1015

2010/08/10 08:00
LFOH 100800Z AUTO 20012KT 9999NDV -RA BKN027 BKN033 BKN041 17/13 Q1014

2010/08/10 08:00
LFOJ 100800Z 19005KT CAVOK 18/14 Q1016

2010/08/10 08:00
LFOP 100800Z 17008KT CAVOK 16/12 Q1015 BECMG 8000 -RA BKN030 OVC090

2010/08/10 08:00
LFOT 100800Z AUTO 24008KT 210V270 9999NDV NSC 18/14 Q1017

2010/08/10 08:00
LFPB 100800Z VRB02KT CAVOK 20/13 Q1015 NOSIG

2010/08/10 08:00
LFPM 100800Z VRB02KT CAVOK 20/13 Q1016

2010/08/10 08:00
LFPN 100800Z 22004KT CAVOK 20/13 Q1016 NOSIG

2010/08/10 08:00
LFQI 100800Z 23010KT CAVOK 18/14 Q1014

2010/08/10 08:00
LFRC 100800Z AUTO 25011KT 8000NDV -RA BKN005 BKN010 OVC020 17/16 Q1013

2010/08/10 08:00
LFRK 100800Z 19010KT 9999 -RA SCT040 BKN053 17/16 Q1014 NOSIG

2010/08/10 08:00
LFRT 100800Z 23008KT 4000 -DZ BR SCT010 OVC023 18/18 Q1014

2010/08/10 08:00
LFSN 100800Z 15005KT 100V190 CAVOK 22/13 Q1017 NOSIG

2010/08/10 08:00
LEAB 100800Z VRB02KT CAVOK 26/13 Q1020 NOSIG

2010/08/10 08:00
LEAL 100800Z 00000KT 9999 FEW040 32/16 Q1016 NOSIG

2010/08/10 08:00
LEBA 100800Z VRB02KT CAVOK 29/12 Q1016

2010/08/10 08:00
LEBZ 100800Z 24001KT CAVOK 29/16 Q1016

2010/08/10 08:00
LEIB 100800Z VRB02KT CAVOK 28/22 Q1017 NOSIG

2010/08/10 08:00
LELN 100800Z 00000KT CAVOK 19/11 Q1021

2010/08/10 08:00
LEMD 100800Z 04001KT CAVOK 26/14 Q1019 NOSIG

2010/08/10 08:00
LEMG 100800Z 12001KT CAVOK 29/12 Q1017 NOSIG

2010/08/10 08:00
LEPA 100800Z 05006KT 010V070 CAVOK 28/14 Q1017 NOSIG

2010/08/10 08:00
LESA 100800Z 00000KT CAVOK 24/16 Q1021

2010/08/10 08:00
LETO 100800Z VRB01KT CAVOK 25/14 Q1019 NOSIG

2010/08/10 08:00
LEVD 100800Z 00000KT CAVOK 21/14 Q1021

2010/08/10 08:00
LEVS 100800Z 00000KT CAVOK 27/14 Q1020

2010/08/10 08:00
LEXJ 100800Z VRB02KT 9999 FEW030 20/16 Q1019

2010/08/10 08:00
LEZL 100800Z VRB02KT CAVOK 29/16 Q1016 NOSIG

2010/08/10 08:00
LFCR 100800Z AUTO VRB02KT 9999NDV SCT019 19/13 Q1019

2010/08/10 08:00
LFJL 100800Z AUTO 19007KT 160V230 9999NDV NSC 22/12 Q1017

2010/08/10 08:00
LFLY 100800Z VRB03KT CAVOK 23/15 Q1017 NOSIG

2010/08/10 08:00
LFMT 100800Z 18004KT CAVOK 27/15 Q1016 NOSIG

2010/08/10 08:00
LFMU 100800Z AUTO 28011KT 9999NDV NSC 24/13 Q1016

2010/08/10 08:00
LFOP 100800Z 17008KT CAVOK 16/12 Q1015 BECMG 8000 -RA BKN030 OVC090

2010/08/10 08:00
LFOT 100800Z AUTO 24008KT 210V270 9999NDV NSC 18/14 Q1017

2010/08/10 08:00
LFPB 100800Z VRB02KT CAVOK 20/13 Q1015 NOSIG

2010/08/10 08:00
LFRK 100800Z 19010KT 9999 -RA SCT040 BKN053 17/16 Q1014 NOSIG

2010/08/10 08:00
LRBS 100800Z 33005KT 260V020 CAVOK 28/20 Q1014 NOSIG

2010/08/10 08:00
LRCK 100800Z 29006KT 250V340 CAVOK 30/20 Q1012 NOSIG

2010/08/10 08:00
LROP 100800Z 29007KT 260V340 CAVOK 28/21 Q1014 880///95 NOSIG

2010/08/10 08:00
LRSB 100800Z 36004KT 320V030 9999 SCT030 BKN090 22/16 Q1018

2010/08/10 08:00
LRTR 100800Z 34006KT 310V020 CAVOK 25/17 Q1017 NOSIG

2010/08/10 08:00
LFBA 100800Z VRB02KT 9999 FEW021 18/15 Q1019 NOSIG

2010/08/10 08:00
LFBE 100800Z 00000KT CAVOK 19/13 Q1019 NOSIG

2010/08/10 08:00
LFGJ 100800Z AUTO 22004KT 180V270 9999NDV NSC 21/16 Q1017

2010/08/10 08:00
LFLM 100800Z 31009KT 9999 FEW043 23/15 Q1017

2010/08/10 08:00
LFLN 100800Z AUTO 31003KT 280V340 9999NDV NSC 20/15 Q1018

2010/08/10 08:00
LFLQ 100800Z 02009KT 340V050 9999 FEW026 25/17 Q1016

2010/08/10 08:00
LFLS 100800Z 35006KT 310V040 CAVOK 23/15 Q1017 NOSIG

2010/08/10 08:00
LFLV 100800Z 27004KT 220V330 9999 FEW040 BKN250 21/14 Q1018

2010/08/10 08:00
LFMD 100800Z AUTO 07003KT 020V140 9999NDV BKN027 26/20 Q1016

2010/08/10 08:00
LFMH 100800Z VRB02KT 9999 FEW046 SCT230 21/15 Q1018 NOSIG

2010/08/10 08:00
LFOA 100800Z AUTO 28007KT 250V310 9999NDV NSC 20/13 Q1017

2010/08/10 08:00
LFOB 100800Z 20007KT CAVOK 19/12 Q1015 NOSIG

2010/08/10 08:00
LFOC 100800Z AUTO 18005KT 9999NDV NSC 20/13 Q1016

2010/08/10 08:00
LFOE 100800Z AUTO 20010KT 9999NDV NSC 18/12 Q1015

2010/08/10 08:00
LFOH 100800Z AUTO 20012KT 9999NDV -RA BKN027 BKN033 BKN041 17/13 Q1014

2010/08/10 08:00
LFOJ 100800Z 19005KT CAVOK 18/14 Q1016

2010/08/10 08:00
LFPC 100800Z 19005KT CAVOK 18/13 Q1015

2010/08/10 08:00
LFPM 100800Z VRB02KT CAVOK 20/13 Q1016

2010/08/10 08:00
LFPN 100800Z 22004KT CAVOK 20/13 Q1016 NOSIG

2010/08/10 08:00
LFPV 100800Z AUTO 19003KT 170V230 9999NDV NSC 19/13 Q1016

2010/08/10 08:00
LFQI 100800Z 23010KT CAVOK 18/14 Q1014

2010/08/10 08:00
LFRC 100800Z AUTO 25011KT 8000NDV -RA BKN005 BKN010 OVC020 17/16 Q1013

2010/08/10 08:00
LFRH 100800Z 24013KT 5000 -DZRA FEW002 OVC003 18/17 Q1016

2010/08/10 08:00
LFRQ 100800Z 26008KT 220V280 9999 BKN003 18/18 Q1015 NOSIG

2010/08/10 08:00
LFRT 100800Z 23008KT 4000 -DZ BR SCT010 OVC023 18/18 Q1014

2010/08/10 08:00
LFSN 100800Z 15005KT 100V190 CAVOK 22/13 Q1017 NOSIG

2010/08/10 08:00
LFTW 100800Z AUTO 32003KT 270V030 9999NDV NSC 26/15 Q1016

2010/08/10 08:00
LFYR 100800Z 21006KT 190V250 CAVOK 19/13 Q1017

2010/08/10 08:00
OIAW 100800Z 15002KT 8000 NSC 44/13 Q1000 A2953

2010/08/10 08:00
OIFM 100800Z 30004KT 8000 SKC 32/01 Q1018 A3009

2010/08/10 08:00
OIKB 100800Z 11006KT 6000 FEW025 35/27 Q1002 A2959

2010/08/10 08:00
OIKK 100800Z 00000KT CAVOK 30/01 Q1018 A3006

2010/08/10 08:00
OIMM 100800Z 04018KT CAVOK 34/M02 Q1014 A2996

2010/08/10 08:00
OISS 100800Z 00000KT CAVOK 33/M01 Q1015 A3000

2010/08/10 08:00
OITT 100800Z 10012KT 9999 FEW040 33/07 Q1016 A3001

2010/08/10 08:00
OIZH 100800Z 36010KT 8000 NSC 34/M00 Q1012 A2990

2010/08/10 08:00
ZBAA 100800Z 15003MPS 120V190 6000 NSC 32/20 Q1005 NOSIG

2010/08/10 08:00
ZBSJ 100800Z 08001MPS 8000 NSC 29/23 Q1006 NOSIG

2010/08/10 08:00
ZBTJ 100800Z 15004MPS 6000 NSC 29/21 Q1005 NOSIG

2010/08/10 08:00
ZBYN 100800Z 08007MPS 8000 SCT040 24/18 Q1009 NOSIG

2010/08/10 08:00
ZGGG 100800Z 13003MPS 100V170 8000 FEW040 36/24 Q1004 NOSIG

2010/08/10 08:00
ZSHC 100800Z VRB03MPS 9999 SCT020 34/23 Q1002 NOSIG

2010/08/10 08:00
ZSPD 100800Z 34007MPS 9999 FEW030 32/25 Q1002 NOSIG

2010/08/10 08:00
ZSSS 100800Z 01007MPS 9999 SCT033 33/25 Q1002 NOSIG

2010/08/10 08:00
ZWSH 100800Z 16005MPS CAVOK 32/06 Q1008 NOSIG

2010/08/10 08:00
ZWWW 100800Z 35003MPS 320V030 CAVOK 31/09 Q1005 NOSIG

2010/08/10 08:00
ZYTL 100800Z 35003MPS 320V020 7000 SCT010 BKN026 25/22 Q1006 NOSIG

2010/08/10 08:00
ZYTX 100800Z 27002MPS 7000 FEW030 28/22 Q1006 NOSIG

2010/08/10 08:00
LPFR 100800Z 25002KT CAVOK 29/19 Q1016

2010/08/10 08:00
LPMA 100800Z VRB02KT 9999 BKN015 22/18 Q1016 RS08001KT 0531002KT 2325003KT

2010/08/10 08:00
LPPR 100800Z 00000KT CAVOK 25/18 Q1017

2010/08/10 08:00
LPPS 100800Z 35005KT 9000 SCT011 BKN030 22/20 Q1016

2010/08/10 08:00
LPPT 100800Z VRB02KT CAVOK 30/14 Q1016 NOSIG

2010/08/10 08:04
CYWA 100804Z AUTO 00000KT 1 1/4SM CLR 13/13 A2991 RMK VSBY VRBL 0.3V9.+

2010/08/10 08:04
CYCX 100804Z AUTO 31002KT 1/8SM 16/16 A2980

2010/08/10 08:00
GMMH 100800Z 36006KT 6000 SCT008 BKN200 21/19 Q1014

2010/08/10 08:00
GMML 100800Z 03009KT 6000 SCT016 BKN100 22/19 Q1015

2010/08/10 08:00
WBKK 100800Z 32003KT 9999 FEW014 FEW017CB SCT140 BKN270 32/25 Q1006 NOSIG

2010/08/10 08:00
WBSB 100800Z 30007KT 9999 FEW017 FEW018CB BKN140 30/26 Q1006 NOSIG

2010/08/10 08:00
WMKK 100800Z 17006KT 140V210 9999 FEW018 SCT140 BKN280 31/26 Q1006 NOSIG

2010/08/10 08:00
WMKP 100800Z 23008KT 9000 FEW020 SCT140 BKN270 32/26 Q1006 NOSIG

2010/08/10 08:00
WSSL 100800Z 16005KT 130V190 9999 FEW020 BKN300 32/23 Q1006

2010/08/10 08:00
WSSS 100800Z 17006KT 110V220 9999 SCT020 BKN300 31/26 Q1006 NOSIG

2010/08/10 08:04
KBTV 100804Z 00000KT 1/4SM FG VV001 18/18 A2991 RMK AO2 RVRNO 

2010/08/10 08:00
YBTL 100800Z 05004KT 6000 -RA FEW005 SCT016 BKN050 23/23 Q1014 FM0800 01008KT 9000 -RA FEW005 SCT020 BKN035 INTER 0800/0930 4000 SHRA BKN012

2010/08/10 08:00
LFCG 100800Z 00000KT 9999 FEW003 BKN013 18/15 Q1019

2010/08/10 08:00
LFDB 100800Z 00000KT 9999 FEW020 21/15 Q1019

2010/08/10 08:00
LFDH 100800Z VRB01KT 9999 FEW013 19/16 Q1019

2010/08/10 08:00
LFHP 100800Z 04003KT 010V100 9999 SCT026 BKN250 19/14 Q1020

2010/08/10 08:00
LFLL 100800Z 01003KT 310V070 CAVOK 22/15 Q1017 NOSIG

2010/08/10 08:00
LFLM 100800Z 31009KT 9999 FEW043 23/15 Q1017

2010/08/10 08:00
LFLN 100800Z AUTO 31003KT 280V340 9999NDV NSC 20/15 Q1018

2010/08/10 08:00
LFLV 100800Z 27004KT 220V330 9999 FEW040 BKN250 21/14 Q1018

2010/08/10 08:00
LFMC 100800Z 10004KT 010V140 9999 SCT013 26/19 Q1016

2010/08/10 08:00
LFMN 100800Z 09003KT 9999 FEW020 26/20 Q1016 NOSIG

2010/08/10 08:00
LFOA 100800Z AUTO 28007KT 250V310 9999NDV NSC 20/13 Q1017

2010/08/10 08:00
LFOC 100800Z AUTO 18005KT 9999NDV NSC 20/13 Q1016

2010/08/10 08:00
LFPC 100800Z 19005KT CAVOK 18/13 Q1015

2010/08/10 08:00
LFPG 100800Z 23004KT 190V290 CAVOK 19/11 Q1016 NOSIG

2010/08/10 08:00
LFPO 100800Z 20004KT 170V240 CAVOK 19/14 Q1016 NOSIG

2010/08/10 08:00
LFPV 100800Z AUTO 19003KT 170V230 9999NDV NSC 19/13 Q1016

2010/08/10 08:00
LFQQ 100800Z 22009KT 9999 FEW017 BKN170 18/14 Q1014 NOSIG

2010/08/10 08:00
LFRB 100800Z 24011KT 9999 -RA BKN006 BKN016 17/17 Q1014 NOSIG

2010/08/10 08:00
LFRH 100800Z 24013KT 5000 -DZRA FEW002 OVC003 18/17 Q1016

2010/08/10 08:00
LFRJ 100800Z AUTO 24012KT 9999NDV BKN007/// BKN011/// BKN019/// 17/17 Q1014

2010/08/10 08:00
LFRQ 100800Z 26008KT 220V280 9999 BKN003 18/18 Q1015 NOSIG

2010/08/10 08:00
LFRS 100800Z 21007KT 9999 FEW008 BKN029 BKN140 19/17 Q1017 NOSIG

2010/08/10 08:00
LFSI 100800Z AUTO 22004KT 170V250 9999NDV NSC 22/13 Q1016

2010/08/10 08:00
LFSO 100800Z 22004KT 170V270 CAVOK 23/13 Q1017

2010/08/10 08:00
LFSR 100800Z AUTO VRB01KT 9999NDV NSC 20/14 Q1015

2010/08/10 08:00
LFSX 100800Z AUTO 10004KT 030V150 9999NDV NSC 21/15 Q1017

2010/08/10 08:00
LFTW 100800Z AUTO 32003KT 270V030 9999NDV NSC 26/15 Q1016

2010/08/10 08:00
LFXA 100800Z 36008KT CAVOK 23/15 Q1017

2010/08/10 08:00
LFYR 100800Z 21006KT 190V250 CAVOK 19/13 Q1017

2010/08/10 08:00
KNEL 100800Z AUTO 23003KT 6SM HZ SCT060 23/20 A2993 RMK AO2 SLP132 T02330200 $

2010/08/10 07:56
KNFL 100756Z 29006KT 10SM CLR 21/03 A2994 RMK AO2 PK WND 33029/0739 SLP113 T02060028 403390150

2010/08/10 07:59
KNGU 100759Z 21005KT 10SM CLR 26/23 A2998 RMK AO2 SLP152 T02610233

2010/08/10 07:56
KNLC 100756Z AUTO 32010KT 10SM CLR 22/12 A2981 RMK AO2 SLP094 T02220122 403440139 TSNO

2010/08/10 07:56
KNMM 100756Z AUTO 00000KT 7SM CLR 26/23 A2996 RMK AO2 SLP150 T02560233 $

2010/08/10 07:56
KNPA 100756Z AUTO 34003KT 6SM BR CLR 26/24 A2990 RMK AO2 SLP127 T02560239

2010/08/10 07:56
KNQI 100756Z AUTO 00000KT 8SM CLR 28/26 A2990 RMK AO2 SLP123 T02780256 $

2010/08/10 07:56
KNXX 100756Z AUTO 26004KT 10SM CLR 25/19 A2994 RMK AO2 SLP141 T02500194 $

2010/08/10 07:52
KNZY 100752Z 31004KT 10SM BKN013 20/14 A2990 RMK AO2 SLP126 T02000139 402500172 $

2010/08/10 07:56
KOSC 100756Z AUTO 32004KT 1 1/2SM BR OVC001 21/19 A2996 RMK AO2

2010/08/10 07:55
KTBN 100755Z AUTO 14004KT 10SM CLR 25/23 A2996 RMK AO2 SLP117 T02520231 $

2010/08/10 07:56
PHBK 100756Z AUTO 00000KT 10SM CLR 26/15 A3010 RMK AO2 SLP195 T02610150 TSNO $

2010/08/10 07:56
PHNY 100756Z AUTO 00000KT 10SM CLR 21/17 A3015 RMK AO2 TSNO T02110172 SLP188 $

2010/08/10 08:00
RJSM 100800Z VRB02KT 7000 FEW003 SCT005 BKN008 24/22 Q1013 RMK 2ST003 3ST005 5ST008 A2991 VIS W 5KM FCST 0814 BECMG 0808 12003KT TEMPO 0809 FEW003ST BKN005ST TEMPO 0912 3000 BR FEW001ST BKN003ST BECMG 1212 2000 BR SCT001ST BKN003ST TEMPO 1214 1500 BR SCT000ST BKN001ST/ ST AFT 12Z

2010/08/10 08:01
KHST 100801Z AUTO 15013G19KT 120V190 10SM -RA FEW020 27/24 A2987 RMK AO2 RAB0801 SLP118

2010/08/10 07:58
KSYR 100758Z 00000KT 4SM BR FEW020 SCT028 OVC046 21/21 A2994 RMK AO2

2010/08/10 08:00
YBTL 100800Z 05004KT 6000 -RA FEW005 SCT016 BKN050 23/23 Q1014 FM0800 01008KT 9000 -RA FEW005 SCT020 BKN035 INTER 0800/0930 4000 SHRA BKN012

2010/08/10 08:00
ZGKL 100800Z 19003MPS 140V230 8000 SCT043 36/23 Q1003 NOSIG

2010/08/10 08:00
ZGNN 100800Z 08003MPS 040V130 9999 SCT026 FEW030CB 33/25 Q1002 TEMPO 3000 TSRA SCT020 FEW026CB

2010/08/10 08:00
ZGOW 100800Z 17005MPS 9999 FEW020 32/26 Q1005 NOSIG

2010/08/10 08:00
ZGSZ 100800Z 19007MPS 9999 FEW022 33/23 Q1004 NOSIG

2010/08/10 08:00
ZLXY 100800Z 08004MPS 010V130 5000 HZ NSC 35/24 Q1002 NOSIG

2010/08/10 08:00
ZMUB 100800Z 29003MPS 9999 FEW030CB SCT033 26/03 Q1004 NOSIG RMK QFE647.0 21

2010/08/10 08:00
ZPPP 100800Z 20003MPS 140V260 9999 FEW026TCU SCT026 28/15 Q1015 NOSIG

2010/08/10 08:00
ZSAM 100800Z 16006MPS 9999 FEW030 34/24 Q1004 NOSIG

2010/08/10 08:00
ZSFZ 100800Z 20008MPS 9999 FEW026CB 33/25 Q1003 TEMPO 3000 SHRA -TSRA BKN010 FEW025CB

2010/08/10 08:00
ZSNB 100800Z 31005MPS 9999 FEW040 34/23 Q1002 NOSIG

2010/08/10 08:00
ZSQD 100800Z VRB01MPS 9999 FEW033 32/24 Q1003 NOSIG

2010/08/10 08:00
ZUUU 100800Z 19003MPS 120V220 8000 FEW030TCU SCT030 35/24 Q1001 NOSIG

2010/08/10 08:00
LATI 100800Z 00000KT 9999 SCT150 29/21 Q1012 NOSIG

2010/08/10 08:00
LFCG 100800Z 00000KT 9999 FEW003 BKN013 18/15 Q1019

2010/08/10 08:00
LFDB 100800Z 00000KT 9999 FEW020 21/15 Q1019

2010/08/10 08:00
LFDH 100800Z VRB01KT 9999 FEW013 19/16 Q1019

2010/08/10 08:00
LFHP 100800Z 04003KT 010V100 9999 SCT026 BKN250 19/14 Q1020

2010/08/10 08:00
LFLL 100800Z 01003KT 310V070 CAVOK 22/15 Q1017 NOSIG

2010/08/10 08:00
LFMC 100800Z 10004KT 010V140 9999 SCT013 26/19 Q1016

2010/08/10 08:00
LFMI 100800Z AUTO VRB03KT 9999NDV NSC 25/18 Q1015

2010/08/10 08:00
LFMK 100800Z 29009KT 250V320 9999 FEW036 22/15 Q1018 NOSIG

2010/08/10 08:00
LFMN 100800Z 09003KT 9999 FEW020 26/20 Q1016 NOSIG

2010/08/10 08:00
LFPG 100800Z 23004KT 190V290 CAVOK 19/11 Q1016 NOSIG

2010/08/10 08:00
LFPO 100800Z 20004KT 170V240 CAVOK 19/14 Q1016 NOSIG

2010/08/10 08:00
LFQQ 100800Z 22009KT 9999 FEW017 BKN170 18/14 Q1014 NOSIG

2010/08/10 08:00
LFRB 100800Z 24011KT 9999 -RA BKN006 BKN016 17/17 Q1014 NOSIG

2010/08/10 08:00
LFRJ 100800Z AUTO 24012KT 9999NDV BKN007/// BKN011/// BKN019/// 17/17 Q1014

2010/08/10 08:00
LFRN 100800Z AUTO 21009KT 9999NDV -RA OVC010 17/16 Q1016

2010/08/10 08:00
LFRO 100800Z AUTO 22011KT 190V250 9999NDV BKN006 OVC011 17/17 Q1014

2010/08/10 08:00
LFRS 100800Z 21007KT 9999 FEW008 BKN029 BKN140 19/17 Q1017 NOSIG

2010/08/10 08:00
LFRZ 100800Z AUTO 21009KT 9999NDV -RA BKN014 OVC024 19/17 Q1017

2010/08/10 08:00
LFSB 100800Z 13005KT 090V170 9999 FEW031 21/14 Q1017 NOSIG

2010/08/10 08:00
LFSI 100800Z AUTO 22004KT 170V250 9999NDV NSC 22/13 Q1016

2010/08/10 08:00
LFSO 100800Z 22004KT 170V270 CAVOK 23/13 Q1017

2010/08/10 08:00
LFSR 100800Z AUTO VRB01KT 9999NDV NSC 20/14 Q1015

2010/08/10 08:00
LFST 100800Z 21004KT 170V240 9999 FEW056 SCT083 19/15 Q1017 NOSIG

2010/08/10 08:00
LFSX 100800Z AUTO 10004KT 030V150 9999NDV NSC 21/15 Q1017

2010/08/10 08:00
LFTH 100800Z VRB03KT 9999 FEW026 26/20 Q1015 NOSIG

2010/08/10 08:00
LFXA 100800Z 36008KT CAVOK 23/15 Q1017

2010/08/10 08:00
OIAA 100800Z 18004KT 6000 NSC 42/26 Q0999

2010/08/10 08:00
OIBK 100800Z 12020KT 5000 SA SKC 36/28 Q1000 A2954

2010/08/10 08:00
OICC 100800Z 19006KT CAVOK 36/M05 Q1014 A2996 866.1

2010/08/10 08:00
OIGG 100800Z 36004KT 9999 SCT080 31/23 Q1010 A2984

2010/08/10 08:00
OIIE 100800Z 11012G22KT 9999 FEW050 33/00 Q1014 A2995

2010/08/10 08:00
OITR 100800Z 11004KT CAVOK 30/11 Q1015 A2998

2010/08/10 08:00
OIYY 100800Z 36008KT CAVOK 34/M05 Q1015 A3000

2010/08/10 08:00
UGTB 100800Z 24004KT 9999 SCT050 BKN100 31/12 Q1015 NOSIG RMK 31CLRD80

2010/08/10 08:00
UGKO 100800Z 27004KT 9999 BKN100 34/20 Q1008 NOSIG

2010/08/10 08:00
UGSB 100800Z 24008KT 9999 FEW026 31/23 Q1007 NOSIG

2010/08/10 08:00
OIAA 100800Z 18004KT 6000 NSC 42/26 Q0999

2010/08/10 08:00
OIBK 100800Z 12020KT 5000 SA SKC 36/28 Q1000 A2954

2010/08/10 08:00
OICC 100800Z 19006KT CAVOK 36/M05 Q1014 A2996 866.1

2010/08/10 08:00
OIGG 100800Z 36004KT 9999 SCT080 31/23 Q1010 A2984

2010/08/10 08:00
OIIE 100800Z 11012G22KT 9999 FEW050 33/00 Q1014 A2995

2010/08/10 08:00
OITR 100800Z 11004KT CAVOK 30/11 Q1015 A2998

2010/08/10 08:00
OIYY 100800Z 36008KT CAVOK 34/M05 Q1015 A3000

2010/08/10 08:00
OIBB 100800Z 34006KT CAVOK 38/27 Q0999 A2951 FEW100

2010/08/10 08:00
OICS 100800Z 00000KT 9999 FEW045 33/M01 Q1015 A2997

2010/08/10 08:00
OINZ 100800Z 34006KT CAVOK 34/21 Q1010 A2983

2010/08/10 08:00
OISR 100800Z 02008KT CAVOK 43/08 Q1003 A2964

2010/08/10 08:00
OITL 100800Z 06012KT 9999 SCT040CB SCT080 24/08 Q1018 A3008

2010/08/10 08:04
CYPQ 100804Z AUTO ///// 1/8SM BKN000 BKN019 BKN025 17/17 A2993

2010/08/10 08:05
YAMB 100805Z AUTO 10007KT 4000NDV // SCT003 BKN016 OVC086 18/18 Q1017

2010/08/10 08:00
YBCG 100800Z AUTO 03019KT 5000NDV // SCT005 BKN011 OVC026 20/19 Q1016

2010/08/10 08:00
YBHM 100800Z AUTO 03006KT //// // ////// 24/21 Q1015

2010/08/10 08:00
YBMA 100800Z AUTO 21011KT 9999NDV // NCD 21/M03 Q1017

2010/08/10 08:00
YBRK 100800Z 01008KT CAVOK 25/19 Q1014

2010/08/10 08:00
YBRM 100800Z 12010KT CAVOK 25/02 Q1014

2010/08/10 08:00
YCIN 100800Z AUTO 15010KT //// // ////// 26/M02 Q1014

2010/08/10 08:00
YFRT 100800Z AUTO 19010KT //// // ////// 14/05 Q1025

2010/08/10 08:00
YMAV 100800Z AUTO 15005KT 9999NDV // NCD 08/08 Q1008

2010/08/10 08:00
YMHB 100800Z 12005KT 9999 VCSH FEW020 BKN040 11/09 Q1021

2010/08/10 08:00
YMLT 100800Z AUTO 16017KT 9999NDV // SCT047 BKN058 OVC067 11/08 Q1017

2010/08/10 08:00
YPEA 100800Z AUTO 01012KT 9999NDV // NCD 21/M03 Q1017

2010/08/10 08:00
YPGV 100800Z 12010KT 9999 BKN020 BKN140 26/22 Q1012

2010/08/10 08:00
YPKG 100800Z AUTO 06008KT 9999NDV // NCD 16/M03 Q1023

2010/08/10 08:00
YPPD 100800Z AUTO 10014KT 9999NDV // NCD 24/M09 Q1016

2010/08/10 08:00
YSCB 100800Z 04007KT 9999 8000N VCSH SCT035 BKN090 12/09 Q1010

2010/08/10 08:00
YSDU 100800Z AUTO 01013KT 9999NDV // SCT014 SCT019 BKN095 15/14 Q1010

2010/08/10 08:00
YSNF 100800Z 11007KT 9999 SCT038 14/06 Q1030

2010/08/10 08:00
YSRI 100800Z AUTO 00000KT 3900NDV // SCT011 OVC018 12/12 Q1013

2010/08/10 08:00
YWLM 100800Z 04007KT 9999 -RA BKN060 BKN090 16/15 Q1013 INTER 0800/1000 4000 RA SCT007 BKN010 FM0800 MOD TURB BLW 5000FT

2010/08/10 08:00
OIAG 100800Z 12010KT 9999 FEW040 46/06 Q1000 A2954

2010/08/10 08:00
OIAM 100800Z 19008KT CAVOK 41/18 Q0999 A2951

2010/08/10 08:00
OICI 100800Z 30006KT CAVOK 37/M06 Q1013 A2994 864.5

2010/08/10 08:00
OIKQ 100800Z 08020KT 2500 SA SKC 35/25 Q1000 A2956

2010/08/10 08:00
OINN 100800Z 33010KT 9999 FEW030TCU FEW110 32/24 Q1009 A2981

2010/08/10 08:00
OINR 100800Z 03006KT 9999 FEW030TCU 31/24 Q1009 A2982

2010/08/10 08:00
OISL 100800Z 00000KT CAVOK 39/02 Q1006 A2972

2010/08/10 08:00
OISY 100800Z 25006KT CAVOK 31/01 Q1020 A3014

2010/08/10 08:00
OITZ 100800Z 09012KT 9999 FEW030 32/01 Q1018 A3007

2010/08/10 08:05
YAMB 100805Z AUTO 10007KT 4000NDV // SCT003 BKN016 OVC086 18/18 Q1017

2010/08/10 08:00
YBCG 100800Z AUTO 03019KT 5000NDV // SCT005 BKN011 OVC026 20/19 Q1016

2010/08/10 08:00
YBHM 100800Z AUTO 03006KT //// // ////// 24/21 Q1015

2010/08/10 08:00
YBMA 100800Z AUTO 21011KT 9999NDV // NCD 21/M03 Q1017

2010/08/10 08:00
YBRK 100800Z 01008KT CAVOK 25/19 Q1014

2010/08/10 08:00
YBRM 100800Z 12010KT CAVOK 25/02 Q1014

2010/08/10 08:00
YCIN 100800Z AUTO 15010KT //// // ////// 26/M02 Q1014

2010/08/10 08:00
YFRT 100800Z AUTO 19010KT //// // ////// 14/05 Q1025

2010/08/10 08:00
YMAV 100800Z AUTO 15005KT 9999NDV // NCD 08/08 Q1008

2010/08/10 08:00
YMHB 100800Z 12005KT 9999 VCSH FEW020 BKN040 11/09 Q1021

2010/08/10 08:00
YMLT 100800Z AUTO 16017KT 9999NDV // SCT047 BKN058 OVC067 11/08 Q1017

2010/08/10 08:00
YPEA 100800Z AUTO 01012KT 9999NDV // NCD 21/M03 Q1017

2010/08/10 08:00
YPGV 100800Z 12010KT 9999 BKN020 BKN140 26/22 Q1012

2010/08/10 08:00
YPKG 100800Z AUTO 06008KT 9999NDV // NCD 16/M03 Q1023

2010/08/10 08:00
YPPD 100800Z AUTO 10014KT 9999NDV // NCD 24/M09 Q1016

2010/08/10 08:00
YSCB 100800Z 04007KT 9999 8000N VCSH SCT035 BKN090 12/09 Q1010

2010/08/10 08:00
YSDU 100800Z AUTO 01013KT 9999NDV // SCT014 SCT019 BKN095 15/14 Q1010

2010/08/10 08:00
YSNF 100800Z 11007KT 9999 SCT038 14/06 Q1030

2010/08/10 08:00
YSRI 100800Z AUTO 00000KT 3900NDV // SCT011 OVC018 12/12 Q1013

2010/08/10 08:00
YWLM 100800Z 04007KT 9999 -RA BKN060 BKN090 16/15 Q1013 INTER 0800/1000 4000 RA SCT007 BKN010 FM0800 MOD TURB BLW 5000FT

2010/08/10 08:00
LFBC 100800Z AUTO 13004KT 100V170 9999NDV NSC 19/14 Q1019

2010/08/10 08:00
LFBD 100800Z VRB03KT CAVOK 20/14 Q1019 NOSIG

2010/08/10 08:00
LFBF 100800Z AUTO VRB03KT 9999NDV // FEW033 21/15 Q1019

2010/08/10 08:00
LFBG 100800Z AUTO VRB02KT 9999NDV OVC018 18/14 Q1019

2010/08/10 08:00
LFBI 100800Z 26005KT 9999 BKN006 15/14 Q1018 BECMG BKN007

2010/08/10 08:00
LFBL 100800Z 26003KT 210V020 9999 SCT021 BKN300 16/11 Q1019 NOSIG

2010/08/10 08:00
LFBO 100800Z VRB02KT 9999 FEW021 SCT250 21/13 Q1019 NOSIG

2010/08/10 08:00
LFBP 100800Z VRB03KT 9999 FEW013 20/16 Q1018 NOSIG

2010/08/10 08:00
LFBT 100800Z 04003KT 010V090 9999 SCT012 SCT021 18/15 Q1019 TEMPO BKN008

2010/08/10 08:00
LFBY 100800Z 06003KT 4000 BR SCT003 BKN230 17/15 Q1019

2010/08/10 08:00
LFBZ 100800Z 09004KT CAVOK 20/16 Q1018 NOSIG

2010/08/10 08:00
LFKS 100800Z AUTO 13003KT 070V210 9999NDV BKN025 BKN031 BKN240 27/20 Q1016

2010/08/10 08:00
LFLB 100800Z VRB01KT 9999 SCT080 23/16 Q1017 NOSIG

2010/08/10 08:00
LFLX 100800Z 25010KT CAVOK 19/13 Q1017 NOSIG

2010/08/10 08:00
LFML 100800Z 29003KT 250V320 CAVOK 24/20 Q1015 NOSIG

2010/08/10 08:00
LFMO 100800Z AUTO VRB02KT 9999NDV NSC 24/17 Q1016

2010/08/10 08:00
LFMY 100800Z VRB02KT CAVOK 25/18 Q1016

2010/08/10 08:00
LFOF 100800Z 20004KT 170V240 CAVOK 16/10 Q1016 BECMG BKN015

2010/08/10 08:00
LFOI 100800Z 15005KT CAVOK 17/13 Q1014

2010/08/10 08:00
LFOR 100800Z 19006KT 150V240 CAVOK 19/12 Q1016

2010/08/10 08:00
LFOW 100800Z 22004KT 190V260 CAVOK 19/13 Q1014

2010/08/10 08:00
LFQB 100800Z 24005KT 190V300 CAVOK 23/12 Q1015

2010/08/10 08:00
LFQG 100800Z VRB03KT CAVOK 20/14 Q1017

2010/08/10 08:00
LFRD 100800Z AUTO 21010KT 4100NDV -RA BR SCT006 BKN013 BKN025 18/17 Q1015

2010/08/10 08:00
LFRI 100800Z 21005KT 160V250 9999 FEW015 SCT026 BKN130 18/16 Q1018 NOSIG

2010/08/10 08:00
LFRM 100800Z 22005KT 170V260 CAVOK 16/13 Q1017

2010/08/10 08:00
LFBC 100800Z AUTO 13004KT 100V170 9999NDV NSC 19/14 Q1019

2010/08/10 08:00
LFBF 100800Z AUTO VRB03KT 9999NDV // FEW033 21/15 Q1019

2010/08/10 08:00
LFBG 100800Z AUTO VRB02KT 9999NDV OVC018 18/14 Q1019

2010/08/10 08:00
LFBL 100800Z 26003KT 210V020 9999 SCT021 BKN300 16/11 Q1019 NOSIG

2010/08/10 08:00
LFKS 100800Z AUTO 13003KT 070V210 9999NDV BKN025 BKN031 BKN240 27/20 Q1016

2010/08/10 08:00
LFLB 100800Z VRB01KT 9999 SCT080 23/16 Q1017 NOSIG

2010/08/10 08:00
LFLX 100800Z 25010KT CAVOK 19/13 Q1017 NOSIG

2010/08/10 08:00
LFMI 100800Z AUTO VRB03KT 9999NDV NSC 25/18 Q1015

2010/08/10 08:00
LFMK 100800Z 29009KT 250V320 9999 FEW036 22/15 Q1018 NOSIG

2010/08/10 08:00
LFMO 100800Z AUTO VRB02KT 9999NDV NSC 24/17 Q1016

2010/08/10 08:00
LFMY 100800Z VRB02KT CAVOK 25/18 Q1016

2010/08/10 08:00
LFOF 100800Z 20004KT 170V240 CAVOK 16/10 Q1016 BECMG BKN015

2010/08/10 08:00
LFOI 100800Z 15005KT CAVOK 17/13 Q1014

2010/08/10 08:00
LFOR 100800Z 19006KT 150V240 CAVOK 19/12 Q1016

2010/08/10 08:00
LFOW 100800Z 22004KT 190V260 CAVOK 19/13 Q1014

2010/08/10 08:00
LFQB 100800Z 24005KT 190V300 CAVOK 23/12 Q1015

2010/08/10 08:00
LFQG 100800Z VRB03KT CAVOK 20/14 Q1017

2010/08/10 08:00
LFRD 100800Z AUTO 21010KT 4100NDV -RA BR SCT006 BKN013 BKN025 18/17 Q1015

2010/08/10 08:00
LFRI 100800Z 21005KT 160V250 9999 FEW015 SCT026 BKN130 18/16 Q1018 NOSIG

2010/08/10 08:00
LFRM 100800Z 22005KT 170V260 CAVOK 16/13 Q1017

2010/08/10 08:00
LFRN 100800Z AUTO 21009KT 9999NDV -RA OVC010 17/16 Q1016

2010/08/10 08:00
LFRO 100800Z AUTO 22011KT 190V250 9999NDV BKN006 OVC011 17/17 Q1014

2010/08/10 08:00
LFRZ 100800Z AUTO 21009KT 9999NDV -RA BKN014 OVC024 19/17 Q1017

2010/08/10 08:00
LFSB 100800Z 13005KT 090V170 9999 FEW031 21/14 Q1017 NOSIG

2010/08/10 08:00
LFST 100800Z 21004KT 170V240 9999 FEW056 SCT083 19/15 Q1017 NOSIG

2010/08/10 08:00
LFTH 100800Z VRB03KT 9999 FEW026 26/20 Q1015 NOSIG

2010/08/10 08:00
LJCE 100800Z VRB02KT 9999 FEW030 23/17 Q1018 RMK BLU

2010/08/10 08:00
LFBA 100800Z VRB02KT 9999 FEW021 18/15 Q1019 NOSIG

2010/08/10 08:00
LFBE 100800Z 00000KT CAVOK 19/13 Q1019 NOSIG

2010/08/10 08:00
LFGJ 100800Z AUTO 22004KT 180V270 9999NDV NSC 21/16 Q1017

2010/08/10 08:00
LFJR 100800Z AUTO 25006KT 9999NDV NSC 18/15 Q1017

2010/08/10 08:00
LFMD 100800Z AUTO 07003KT 020V140 9999NDV BKN027 26/20 Q1016

2010/08/10 08:00
LFMH 100800Z VRB02KT 9999 FEW046 SCT230 21/15 Q1018 NOSIG

2010/08/10 08:00
LFOT 100800Z AUTO 24008KT 210V270 9999NDV NSC 18/14 Q1017

2010/08/10 08:00
LFPN 100800Z 22004KT CAVOK 20/13 Q1016 NOSIG

2010/08/10 08:00
LFRC 100800Z AUTO 25011KT 8000NDV -RA BKN005 BKN010 OVC020 17/16 Q1013

2010/08/10 08:00
LFRG 100800Z AUTO 22012KT 9999NDV -RA NSC 17/13 Q1014

2010/08/10 08:00
LFRK 100800Z 19010KT 9999 -RA SCT040 BKN053 17/16 Q1014 NOSIG

2010/08/10 08:00
LFBD 100800Z VRB03KT CAVOK 20/14 Q1019 NOSIG

2010/08/10 08:00
LFBH 100800Z AUTO 18005KT 150V220 9999NDV FEW020 OVC029 19/15 Q1018

2010/08/10 08:00
LFBI 100800Z 26005KT 9999 BKN006 15/14 Q1018 BECMG BKN007

2010/08/10 08:00
LFBL 100800Z 26003KT 210V020 9999 SCT021 BKN300 16/11 Q1019 NOSIG

2010/08/10 08:00
LFBO 100800Z VRB02KT 9999 FEW021 SCT250 21/13 Q1019 NOSIG

2010/08/10 08:00
LFBP 100800Z VRB03KT 9999 FEW013 20/16 Q1018 NOSIG

2010/08/10 08:00
LFBT 100800Z 04003KT 010V090 9999 SCT012 SCT021 18/15 Q1019 TEMPO BKN008

2010/08/10 08:00
LFBZ 100800Z 09004KT CAVOK 20/16 Q1018 NOSIG

2010/08/10 08:00
LFLB 100800Z VRB01KT 9999 SCT080 23/16 Q1017 NOSIG

2010/08/10 08:00
LFLX 100800Z 25010KT CAVOK 19/13 Q1017 NOSIG

2010/08/10 08:00
LFML 100800Z 29003KT 250V320 CAVOK 24/20 Q1015 NOSIG

2010/08/10 08:00
LFAQ 100800Z AUTO 20006KT 9999NDV NSC 17/13 Q1015

2010/08/10 08:00
LFBU 100800Z AUTO VRB03KT 9999NDV FEW013 18/13 Q1019

2010/08/10 08:00
LFLN 100800Z AUTO 31003KT 280V340 9999NDV NSC 20/15 Q1018

2010/08/10 08:00
LFPM 100800Z VRB02KT CAVOK 20/13 Q1016

2010/08/10 08:00
LFRH 100800Z 24013KT 5000 -DZRA FEW002 OVC003 18/17 Q1016

2010/08/10 08:00
LFRQ 100800Z 26008KT 220V280 9999 BKN003 18/18 Q1015 NOSIG

2010/08/10 08:00
LFRT 100800Z 23008KT 4000 -DZ BR SCT010 OVC023 18/18 Q1014

2010/08/10 08:00
LFTW 100800Z AUTO 32003KT 270V030 9999NDV NSC 26/15 Q1016

2010/08/10 08:00
LFCR 100800Z AUTO VRB02KT 9999NDV SCT019 19/13 Q1019

2010/08/10 08:00
LFJL 100800Z AUTO 19007KT 160V230 9999NDV NSC 22/12 Q1017

2010/08/10 08:00
LFLP 100800Z AUTO VRB01KT 9999NDV NSC 23/14 Q1018

2010/08/10 08:00
LFLS 100800Z 35006KT 310V040 CAVOK 23/15 Q1017 NOSIG

2010/08/10 08:00
LFLY 100800Z VRB03KT CAVOK 23/15 Q1017 NOSIG

2010/08/10 08:00
LFMT 100800Z 18004KT CAVOK 27/15 Q1016 NOSIG

2010/08/10 08:00
LFMU 100800Z AUTO 28011KT 9999NDV NSC 24/13 Q1016

2010/08/10 08:00
LFOB 100800Z 20007KT CAVOK 19/12 Q1015 NOSIG

2010/08/10 08:00
LFOH 100800Z AUTO 20012KT 9999NDV -RA BKN027 BKN033 BKN041 17/13 Q1014

2010/08/10 08:00
LFOK 100800Z AUTO 23009KT 9999NDV NSC 21/12 Q1016

2010/08/10 08:00
LFOP 100800Z 17008KT CAVOK 16/12 Q1015 BECMG 8000 -RA BKN030 OVC090

2010/08/10 08:00
LFPB 100800Z VRB02KT CAVOK 20/13 Q1015 NOSIG

2010/08/10 08:00
LFSN 100800Z 15005KT 100V190 CAVOK 22/13 Q1017 NOSIG

2010/08/10 08:00
LFKC 100800Z VRB03KT 9999 FEW016 26/17 Q1016 NOSIG

2010/08/10 08:00
LFKF 100800Z 21005KT 150V260 9999 SCT031 SCT140 BKN170 26/17 Q1016 NOSIG

2010/08/10 08:00
LFKJ 100800Z VRB02KT 9999 FEW020 25/19 Q1016 NOSIG

2010/08/10 08:00
LFLC 100800Z 11004KT 050V200 9999 FEW033 BKN250 22/16 Q1018 NOSIG

2010/08/10 08:00
LFMP 100800Z 32006KT 290V350 9999 FEW080 24/15 Q1017 NOSIG

2010/08/10 08:00
LFMV 100800Z AUTO VRB02KT 9999NDV NSC 24/18 Q1016

2010/08/10 08:00
LFSL 100800Z AUTO 30004KT 250V350 9999NDV OVC025 18/13 Q1019

2010/08/10 08:00
LFMI 100800Z AUTO VRB03KT 9999NDV NSC 25/18 Q1015

2010/08/10 08:00
LFMK 100800Z 29009KT 250V320 9999 FEW036 22/15 Q1018 NOSIG

2010/08/10 08:00
LFRD 100800Z AUTO 21010KT 4100NDV -RA BR SCT006 BKN013 BKN025 18/17 Q1015

2010/08/10 08:00
LFRN 100800Z AUTO 21009KT 9999NDV -RA OVC010 17/16 Q1016

2010/08/10 08:00
LFRO 100800Z AUTO 22011KT 190V250 9999NDV BKN006 OVC011 17/17 Q1014

2010/08/10 08:00
LFRZ 100800Z AUTO 21009KT 9999NDV -RA BKN014 OVC024 19/17 Q1017

2010/08/10 08:00
LFSB 100800Z 13005KT 090V170 9999 FEW031 21/14 Q1017 NOSIG

2010/08/10 08:00
LFST 100800Z 21004KT 170V240 9999 FEW056 SCT083 19/15 Q1017 NOSIG

2010/08/10 08:00
LFTH 100800Z VRB03KT 9999 FEW026 26/20 Q1015 NOSIG

2010/08/10 08:00
LATI 100800Z 00000KT 9999 SCT150 29/21 Q1012 NOSIG

2010/08/10 08:00
RKSI 100800Z 17007KT 9999 BKN025 BKN100 30/25 Q1006 TEMPO 4000 TSRA RMK CB S APCH STN

2010/08/10 08:00
RKSS 100800Z 03011KT 8000 -RA FEW008 BKN025 OVC080 25/23 Q1007 TEMPO 4200 RMK CB S APCH STN 

2010/08/10 08:00
RKPC 100800Z 12018G30KT 100V160 3500 RA BR FEW008 BKN025 OVC070 27/25 Q0996 NOSIG 

2010/08/10 08:00
RKPK 100800Z 11009KT 9999 BKN050 29/23 Q1007 NOSIG 

2010/08/10 08:00
RKTU 100800Z 06005KT 4000 -RA BKN030 OVC060 27/25 Q1007 BECMG 2500 

2010/08/10 08:00
RKTN 100800Z 13005KT 9000 -RA BKN020 OVC030 30/24 Q1007 NOSIG

2010/08/10 08:00
RKJB 100800Z 08009KT 040V110 4500 RA BR FEW010 BKN030 OVC070 26/24 Q1003 NOSIG 

2010/08/10 08:00
RKNY 100800Z 12003KT 6000 -RA FEW015 SCT030 OVC100 25/23 Q1008 NOSIG 

2010/08/10 08:00
LJLJ 100800Z 24001KT 9999 FEW030 23/16 Q1018 NOSIG

2010/08/10 08:00
LJMB 100800Z VRB02KT 9999 FEW040 21/18 Q1018

2010/08/10 08:00
LJPZ 100800Z 29003KT CAVOK 25/17 Q1015

2010/08/10 08:00
LRBS 100800Z 33005KT 260V020 CAVOK 28/20 Q1014 NOSIG

2010/08/10 08:00
LRCK 100800Z 29006KT 250V340 CAVOK 30/20 Q1012 NOSIG

2010/08/10 08:00
LROP 100800Z 29007KT 260V340 CAVOK 28/21 Q1014 880///95 NOSIG

2010/08/10 08:00
LRSB 100800Z 36004KT 320V030 9999 SCT030 BKN090 22/16 Q1018

2010/08/10 08:00
LRTR 100800Z 34006KT 310V020 CAVOK 25/17 Q1017 NOSIG

2010/08/10 08:00
GCLP 100800Z 36009KT 320V020 8000 FEW020 23/18 Q1015 NOSIG

2010/08/10 08:00
GCXO 100800Z 28008KT 6000 2500NW R12/0500V1800N PRFG FEW000 BKN100 18/18 Q1018 NOSIG

2010/08/10 08:00
GCTS 100800Z 00000KT 9999 FEW025 BKN100 22/20 Q1016 NOSIG

2010/08/10 08:00
GCRR 100800Z 26003KT 230V320 9999 FEW020 25/19 Q1015

2010/08/10 08:00
GCFV 100800Z VRB02KT 9999 SCT040 23/20 Q1015

2010/08/10 08:00
LRAR 100800Z 34004KT 300V050 CAVOK 24/17 Q1018

2010/08/10 08:00
LRBM 100800Z 26004KT 210V310 9999 FEW026 23/18 Q1017

2010/08/10 08:00
LRCL 100800Z 00000KT 9999 FEW022 SCT036 23/17 Q1018

2010/08/10 08:00
LROD 100800Z 29006KT 260V340 CAVOK 23/16 Q1018

2010/08/10 08:00
LRTM 100800Z VRB02KT CAVOK 24/18 Q1018

2010/08/10 08:00
LFLL 100800Z 01003KT 310V070 CAVOK 22/15 Q1017 NOSIG

2010/08/10 08:00
LFMN 100800Z 09003KT 9999 FEW020 26/20 Q1016 NOSIG

2010/08/10 08:00
LFPG 100800Z 23004KT 190V290 CAVOK 19/11 Q1016 NOSIG

2010/08/10 08:00
LFPO 100800Z 20004KT 170V240 CAVOK 19/14 Q1016 NOSIG

2010/08/10 08:00
LFQQ 100800Z 22009KT 9999 FEW017 BKN170 18/14 Q1014 NOSIG

2010/08/10 08:00
LFRB 100800Z 24011KT 9999 -RA BKN006 BKN016 17/17 Q1014 NOSIG

2010/08/10 08:00
LFRS 100800Z 21007KT 9999 FEW008 BKN029 BKN140 19/17 Q1017 NOSIG

2010/08/10 08:00
LKCV 100800Z VRB01KT 9999 FEW030 SCT090 20/15 Q1018 NOSIG

2010/08/10 08:00
LKKB 100800Z VRB02KT 9999 FEW014 20/15 Q1018 NOSIG

2010/08/10 08:00
LKLN 100800Z AUTO VRB01KT CAVOK 16/15 Q1019

2010/08/10 08:00
LKPD 100800Z VRB01KT 9999 FEW014 18/16 Q1019 NOSIG

2010/08/10 08:00
LKPO 100800Z 28003KT 220V040 9999 FEW016 19/15 Q1018 NOSIG

2010/08/10 08:00
ZBHH 100800Z 19001MPS 9999 SCT040 28/10 Q1009 NOSIG

2010/08/10 08:00
ZHCC 100800Z 09005MPS 050V120 2000 SHRA BR FEW020CB OVC030 28/25 Q1005 NOSIG

2010/08/10 08:00
ZHHH 100800Z 09002MPS 060V120 5000 TS HZ SCT025 FEW040CB 35/30 Q1002 BECMG TL0930 NSW

2010/08/10 08:00
ZJHK 100800Z 07003MPS 040V110 9999 FEW020 SCT030CB 31/25 Q1003 TEMPO VRB07MPS TS

2010/08/10 08:00
ZJSY 100800Z 19003MPS 140V230 CAVOK 31/26 Q1004 NOSIG

2010/08/10 08:00
ZLLL 100800Z 11003MPS 060V130 9999 FEW026 29/15 Q1010 NOSIG

2010/08/10 08:00
ZSNJ 100800Z VRB01MPS 5000 HZ FEW030 35/21 Q1003 NOSIG

2010/08/10 08:00
ZSOF 100800Z 15003MPS 120V180 9999 FEW033 35/24 Q1003 NOSIG

2010/08/10 08:00
ZUCK 100800Z 15003MPS 110V200 9999 FEW040 38/20 Q1001 NOSIG

2010/08/10 08:00
ZYCC 100800Z 27003MPS 240V310 9999 FEW030 27/14 Q1006 NOSIG

2010/08/10 08:00
ZYHB 100800Z 23006MPS 9999 FEW026 25/13 Q1005 NOSIG

2010/08/10 07:50
OOMS 100750Z 01007KT 330V050 8000 NSC 33/28 Q1001 NOSIG

2010/08/10 07:50
OOSA 100750Z 19010KT 160V220 8000 SCT012 BKN028 27/22 Q1005 NOSIG RMK05 RH72

2010/08/10 08:00
LRBC 100800Z 36010KT 320V040 CAVOK 26/21 Q1016

2010/08/10 08:00
LRCV 100800Z VRB02KT CAVOK 25/19 Q1015

2010/08/10 08:00
LRIA 100800Z 30008KT 240V340 CAVOK 26/21 Q1016

2010/08/10 08:00
LRSV 100800Z 31006KT CAVOK 22/20 Q1018

2010/08/10 08:00
LRTC 100800Z 36010KT 320V020 CAVOK 30/18 Q1012

2010/08/10 08:00
OIBJ 100800Z 07012KT CAVOK 40/03 Q1006 A2973

2010/08/10 08:00
OIBS 100800Z 08016KT CAVOK 34/30 Q1000 A2955

2010/08/10 08:00
OIKR 100800Z 32008KT CAVOK 31/04 Q1017 A3006

2010/08/10 08:00
OING 100800Z 23006KT 9999 FEW035 35/19 Q1011 A2986

2010/08/10 08:00
OIZB 100800Z 30018KT 5000 SA NSC 40/05 Q1003 A2964

2010/08/10 08:00
OIZI 100800Z 18006KT 7000 NSC 40/08 Q1004 A2967

2010/08/10 08:00
YBAS 100800Z 18011KT 9999 FEW050 15/M01 Q1021

2010/08/10 08:00
YBBN 100800Z 07006KT 8000 -RA SCT004 BKN014 BKN040 19/19 Q1016 FM0800 02012KT 7000 -RA BKN008 BKN025 TEMPO 0800/1100 02015G25KT 3000 RA BKN006 FM0800 MOD TURB BLW 7000FT

2010/08/10 08:00
YBCS 100800Z 27004KT 9999 FEW003 SCT022 BKN035 24/23 Q1013 FM1000 VRB03KT 7000 -SHRA FEW005 BKN020 TEMPO 0800/1100 3000 -SHRA FEW003 BKN010

2010/08/10 08:00
YBTL 100800Z 05004KT 6000 -RA FEW005 SCT016 BKN050 23/23 Q1014 FM0800 01008KT 9000 -RA FEW005 SCT020 BKN035 INTER 0800/0930 4000 SHRA BKN012

2010/08/10 08:00
YMML 100800Z 31003KT 9000 FEW130 BKN170 08/07 Q1008 TEMPO 0800/1100 6000 RA BKN010

2010/08/10 08:00
YPAD 100800Z 20009KT 9999 SCT034 SCT240 13/09 Q1013 NOSIG

2010/08/10 08:00
YPCC 100800Z 15006KT 9999 FEW025 SCT065 26/21 Q1010

2010/08/10 08:00
YPDN 100800Z 34009KT CAVOK 29/20 Q1011 NOSIG

2010/08/10 08:00
YPKU 100800Z AUTO 18009KT 9999NDV // NCD 27/M03 Q1013

2010/08/10 08:00
YPLM 100800Z AUTO 36015KT 9999NDV // NCD 22/08 Q1016

2010/08/10 08:00
YPPH 100800Z 03013KT CAVOK 21/M04 Q1017 NOSIG

2010/08/10 08:00
YPTN 100800Z AUTO 17009KT 9999NDV // NCD 30/00 Q1013

2010/08/10 08:00
YPXM 100800Z AUTO 07010KT 9999NDV // BKN009 OVC013 26/23 Q////

2010/08/10 08:00
YSSY 100800Z 01011KT 9999 -RA BKN012 BKN042 17/15 Q1012 FM0800 02015KT 9000 -RA SCT010 BKN020 BKN040 TEMPO 0800/1100 4000 RA BKN010

2010/08/10 08:00
YBAS 100800Z 18011KT 9999 FEW050 15/M01 Q1021

2010/08/10 08:00
YBBN 100800Z 07006KT 8000 -RA SCT004 BKN014 BKN040 19/19 Q1016 FM0800 02012KT 7000 -RA BKN008 BKN025 TEMPO 0800/1100 02015G25KT 3000 RA BKN006 FM0800 MOD TURB BLW 7000FT

2010/08/10 08:00
YBCS 100800Z 27004KT 9999 FEW003 SCT022 BKN035 24/23 Q1013 FM1000 VRB03KT 7000 -SHRA FEW005 BKN020 TEMPO 0800/1100 3000 -SHRA FEW003 BKN010

2010/08/10 08:00
YBTL 100800Z 05004KT 6000 -RA FEW005 SCT016 BKN050 23/23 Q1014 FM0800 01008KT 9000 -RA FEW005 SCT020 BKN035 INTER 0800/0930 4000 SHRA BKN012

2010/08/10 08:00
YMML 100800Z 31003KT 9000 FEW130 BKN170 08/07 Q1008 TEMPO 0800/1100 6000 RA BKN010

2010/08/10 08:00
YPAD 100800Z 20009KT 9999 SCT034 SCT240 13/09 Q1013 NOSIG

2010/08/10 08:00
YPCC 100800Z 15006KT 9999 FEW025 SCT065 26/21 Q1010

2010/08/10 08:00
YPDN 100800Z 34009KT CAVOK 29/20 Q1011 NOSIG

2010/08/10 08:00
YPKU 100800Z AUTO 18009KT 9999NDV // NCD 27/M03 Q1013

2010/08/10 08:00
YPLM 100800Z AUTO 36015KT 9999NDV // NCD 22/08 Q1016

2010/08/10 08:00
YPPH 100800Z 03013KT CAVOK 21/M04 Q1017 NOSIG

2010/08/10 08:00
YPTN 100800Z AUTO 17009KT 9999NDV // NCD 30/00 Q1013

2010/08/10 08:00
YPXM 100800Z AUTO 07010KT 9999NDV // BKN009 OVC013 26/23 Q////

2010/08/10 08:00
YSSY 100800Z 01011KT 9999 -RA BKN012 BKN042 17/15 Q1012 FM0800 02015KT 9000 -RA SCT010 BKN020 BKN040 TEMPO 0800/1100 4000 RA BKN010

2010/08/10 07:57
PHNG 100757Z AUTO 07007KT 10SM FEW038 BKN060 25/20 A3012 RMK AO2 SLP194 T02500200 $ 

2010/08/10 07:55
KLUF 100755Z AUTO 00000KT 10SM FEW120 32/12 A2981 RMK AO2 SLP063 T03180120 $

2010/08/10 07:56
KNCA 100756Z AUTO 00000KT 10SM 24/24 A3001 RMK AO2 SLP165 T02390239 $

2010/08/10 07:56
KNMM 100756Z AUTO 00000KT 7SM CLR 26/23 A2996 RMK AO2 SLP150 T02560233 $

2010/08/10 07:56
KNXX 100756Z AUTO 26004KT 10SM CLR 25/19 A2994 RMK AO2 SLP141 T02500194 $

2010/08/10 08:00
KMMT 100800Z AUTO 00000KT 6SM R32/4000V5500FT BR CLR 23/22 A3001 RMK AO2 SLP159

2010/08/10 08:04
KHHR 100804Z AUTO 27004KT 10SM SCT009 17/14 A2991 RMK AO2

2010/08/10 08:04
KMSS 100804Z AUTO 22005KT 10SM OVC004 22/21 A2991 RMK AO2

2010/08/10 07:50
KHMS 100750Z 29014KT 15SM FEW250 19/08 A2981 RMK SLP093 T01900083 403200168 RSNK 13.3/29013KT

2010/08/10 08:04
KBTV 100804Z 00000KT 1/4SM FG VV001 18/18 A2991 RMK AO2 RVRNO

2010/08/10 08:00
LEAB 100800Z VRB02KT CAVOK 26/13 Q1020 NOSIG

2010/08/10 08:00
LEBZ 100800Z 24001KT CAVOK 29/16 Q1016

2010/08/10 08:00
LELN 100800Z 00000KT CAVOK 19/11 Q1021

2010/08/10 08:00
LESA 100800Z 00000KT CAVOK 24/16 Q1021

2010/08/10 08:00
LETO 100800Z VRB01KT CAVOK 25/14 Q1019 NOSIG

2010/08/10 08:00
LEVD 100800Z 00000KT CAVOK 21/14 Q1021

2010/08/10 08:00
LEVS 100800Z 00000KT CAVOK 27/14 Q1020

2010/08/10 08:00
GCHI 100800Z 03006KT 330V100 9999 FEW014 BKN022 22/19 Q1016

2010/08/10 08:00
GCLA 100800Z VRB02KT 9999 FEW016 BKN025 23/18 Q1016

2010/08/10 08:00
GEML 100800Z 00000KT 9999 SCT012 27/22 Q1017

2010/08/10 08:00
LEBA 100800Z VRB02KT CAVOK 29/12 Q1016

2010/08/10 08:00
LEDA 100800Z VRB02KT 9999 FEW020 23/14 Q1018

2010/08/10 08:00
LEJR 100800Z 00000KT 9999 FEW020 28/13 Q1016

2010/08/10 08:00
LELL 100800Z 00000KT 9000 FEW008 BKN012 23/16 Q1018

2010/08/10 08:00
LEPP 100800Z 03001KT CAVOK 17/13 Q1019

2010/08/10 08:00
LEXJ 100800Z VRB02KT 9999 FEW030 20/16 Q1019

2010/08/10 08:00
SKCL 100800Z 00000KT 9999 FEW025 BKN090 19/18 A2999

2010/08/10 08:00
LKCV 100800Z VRB01KT 9999 FEW030 SCT090 20/15 Q1018 NOSIG

2010/08/10 08:00
LKKB 100800Z VRB02KT 9999 FEW014 20/15 Q1018 NOSIG

2010/08/10 08:00
LKLN 100800Z AUTO VRB01KT CAVOK 16/15 Q1019

2010/08/10 08:00
LKPD 100800Z VRB01KT 9999 FEW014 18/16 Q1019 NOSIG

2010/08/10 08:00
LKPO 100800Z 28003KT 220V040 9999 FEW016 19/15 Q1018 NOSIG

2010/08/10 08:00
YSSY 100800Z 01011KT 9999 -RA BKN012 BKN042 17/15 Q1012 FM0800 02015KT 9000 -RA SCT010 BKN020 BKN040 TEMPO 0800/1100 4000 RA BKN010

2010/08/10 08:00
VHHH 100800Z 17008KT 130V240 9999 FEW025 SCT035 32/25 Q1004 NOSIG

2010/08/10 08:00
LRBC 100800Z 36010KT 320V040 CAVOK 26/21 Q1016

2010/08/10 08:00
LRCV 100800Z VRB02KT CAVOK 25/19 Q1015

2010/08/10 08:00
LRIA 100800Z 30008KT 240V340 CAVOK 26/21 Q1016

2010/08/10 08:00
LRSV 100800Z 31006KT CAVOK 22/20 Q1018

2010/08/10 08:00
LRTC 100800Z 36010KT 320V020 CAVOK 30/18 Q1012

2010/08/10 08:00
LRAR 100800Z 34004KT 300V050 CAVOK 24/17 Q1018

2010/08/10 08:00
LRBM 100800Z 26004KT 210V310 9999 FEW026 23/18 Q1017

2010/08/10 08:00
LRCL 100800Z 00000KT 9999 FEW022 SCT036 23/17 Q1018

2010/08/10 08:00
LROD 100800Z 29006KT 260V340 CAVOK 23/16 Q1018

2010/08/10 08:00
LRTM 100800Z VRB02KT CAVOK 24/18 Q1018

2010/08/10 08:00
FYGF 100800Z 16008KT CAVOK 10/M10 Q1031

2010/08/10 08:00
FYKM 100800Z 18003KT CAVOK 18/M02 Q1025

2010/08/10 08:00
FYKT 100800Z AUTO 08015KT //// // ////// 11/M09 Q1034

2010/08/10 08:00
FYLZ 100800Z AUTO 06024KT //// // ////// 22/M15 Q1021

2010/08/10 08:00
FYML 100800Z AUTO 11004KT //// // ////// ///// Q1036

2010/08/10 08:00
FYOA 100800Z 08010KT CAVOK 19/M07 Q1025

2010/08/10 08:00
FYRU 100800Z 13012KT CAVOK 15/M04 Q1027

2010/08/10 08:00
FYWB 100800Z 09034KT 0900 R09/0375V0600N R27/0800VP1500U VV/// 27/M13 Q1016 

2010/08/10 08:00
FYWH 100800Z AUTO 11008KT //// // ////// 06/M12 Q1034

2010/08/10 08:00
FYWW 100800Z 13015KT CAVOK 08/M16 Q1027

2010/08/10 08:00
UGTB 100800Z 24004KT 9999 SCT050 BKN100 31/12 Q1015 NOSIG RMK 31CLRD80

2010/08/10 08:00
UGKO 100800Z 27004KT 9999 BKN100 34/20 Q1008 NOSIG

2010/08/10 08:00
UGSB 100800Z 24008KT 9999 FEW026 31/23 Q1007 NOSIG

2010/08/10 08:00
KMMT 100800Z AUTO 00000KT 6SM R32/4000V5500FT BR CLR 23/22 A3001 RMK AO2 SLP159

2010/08/10 08:02
KPGD 100802Z AUTO 10004KT 10SM SCT008 BKN013 24/23 A2988 RMK AO2 TSNO

2010/08/10 08:03
PACM 100803Z AUTO 18007KT 3SM -RA BR FEW021 SCT055 OVC100 11/09 A2933 RMK AO2 TSNO P0000 $

2010/08/10 08:03
KDSV 100803Z AUTO 14003KT 3SM BR BKN050 OVC065 22/21 A2996 RMK AO2 $

2010/08/10 08:03
KEAU 100803Z AUTO 04004KT 5SM BR CLR 21/20 A2994 RMK AO2

2010/08/10 08:03
PACM 100803Z AUTO 18007KT 3SM -RA BR FEW021 SCT055 OVC100 11/09 A2933 RMK AO2 TSNO P0000 $

2010/08/10 08:04
KHHR 100804Z AUTO 27004KT 10SM SCT009 17/14 A2991 RMK AO2

2010/08/10 08:04
KMSS 100804Z AUTO 22005KT 10SM OVC004 22/21 A2991 RMK AO2

2010/08/10 08:00
YBTL 100800Z 05004KT 6000 -RA FEW005 SCT016 BKN050 23/23 Q1014 FM0800 01008KT 9000 -RA FEW005 SCT020 BKN035 INTER 0800/0930 4000 SHRA BKN012

2010/08/10 08:02
KCBE 100802Z AUTO 00000KT 10SM CLR 21/20 A3002 RMK AO1

2010/08/10 08:06
KESN 100806Z AUTO 20004KT 10SM CLR 24/23 A2998 RMK AO2

2010/08/10 08:00
SAWG 100800Z 32014KT 9999 FEW035 02/M02 Q1009

2010/08/10 08:05
YAMB 100805Z AUTO 10007KT 4000NDV // SCT003 BKN016 OVC086 18/18 Q1017

2010/08/10 08:01
KMRN 100801Z AUTO 00000KT 3/4SM FG VV005 21/21 A3010 RMK AO2

2010/08/10 08:02
KMWK 100802Z AUTO 00000KT 5SM BR CLR 23/22 A3004 RMK AO2

2010/08/10 08:02
KRHP 100802Z AUTO 00000KT BKN100 21/21 A3009 RMK AO2 PWINO

2010/08/10 08:01
KTNB 100801Z AUTO 00000KT 4SM BR CLR 19/18 A3016 RMK AO2

2010/08/10 08:04
KTTA 100804Z AUTO 00000KT 5SM BR CLR 22/22 A3002 RMK AO2

2010/08/10 08:01
K2W6 100801Z AUTO 22005KT 10SM CLR 24/21 A2996 RMK AO1

2010/08/10 08:02
KCWF 100802Z AUTO 00000KT 10SM CLR 26/26 A2992 RMK AO2

2010/08/10 08:02
KFDK 100802Z AUTO 00000KT 7SM CLR 24/22 A2996 RMK AO2

2010/08/10 08:03
KMLJ 100803Z AUTO 00000KT 7SM CLR 24/24 A2999 RMK AO2

2010/08/10 08:03
KOCW 100803Z AUTO 22004KT 10SM CLR 26/21 A3001 RMK AO2

2010/08/10 08:02
KTPF 100802Z AUTO 08007KT 10SM SCT016 25/24 A2988 RMK AO2

2010/08/10 08:02
KW29 100802Z AUTO 20005KT 10SM CLR 25/21 A2993 RMK AO1

2010/08/10 08:00
DGAA 100800Z 26010KT 9999 FEW010 BKN100 25/22 Q1015 NOSIG

2010/08/10 08:00
DIAP 100800Z 25008KT 7000 SCT011 BKN080 25/23 Q1015 NOSIG

2010/08/10 08:00
DNMM 100800Z 27012KT 8000 SCT010 26/24 Q1015 NOSIG

2010/08/10 08:00
DXXX 100800Z 22007KT 200V260 8000 SCT010 BKN080 25/23 Q1014 NOSIG

2010/08/10 08:00
FLLS 100800Z 07007KT CAVOK 23/08 Q1025

2010/08/10 08:00
FNLU 100800Z 10006KT 8000 SCT014 BKN023 22/19 Q1017 NSG

2010/08/10 08:00
FQBR 100800Z 19009KT 9999 BKN020 23/20 Q1023

2010/08/10 08:00
FQMA 100800Z 21016KT 9999 FEW020 20/01 Q1032 NOSIG

2010/08/10 08:00
FVHA 100800Z 12014KT CAVOK 20/03 Q1026 NOSIG

2010/08/10 08:00
FALA 100800Z 11015KT CAVOK 11/M04 Q1034 NOSIG

2010/08/10 08:00
FBKE 100800Z 15012KT CAVOK 21/01 Q1026

2010/08/10 08:00
FBMN 100800Z 16014KT CAVOK 14/M09 Q1029

2010/08/10 08:00
FBSK 100800Z 18011KT CAVOK 13/M11 Q1032 NOSIG

2010/08/10 08:00
FDMS 100800Z 12004KT CAVOK 16/01 Q1033 NOSIG

2010/08/10 08:00
FYWB 100800Z 09034KT 0900 R09/0375V0600N R27/0800VP1500U VV/// 27/M13 Q1016

2010/08/10 08:00
FYWH 100800Z AUTO 11008KT //// // ////// 06/M12 Q1034

2010/08/10 08:00
FMNM 100800Z 16010KT CAVOK 29/14 Q1018

2010/08/10 08:00
FOOL 100800Z 13009KT 9000 BKN010 BKN033 24/22 Q1016 NOSIG

2010/08/10 08:00
FABL 100800Z 15015KT CAVOK 07/M06 Q1035 NOSIG

2010/08/10 08:00
FACT 100800Z VRB02KT 9999 FEW035 14/07 Q1037 NOSIG

2010/08/10 08:00
FAEL 100800Z 24008KT 7000 RA SCT026 BKN035 BKN045 11/09 Q1038

2010/08/10 08:00
FAGG 100800Z 31005KT 280V340 9999 FEW025 SCT050 12/08 Q1039

2010/08/10 08:00
FAJS 100800Z 10016KT CAVOK 08/M02 Q1034 NOSIG

2010/08/10 08:00
FAKN 100800Z 21006KT CAVOK 14/M03 Q1034 NOSIG

2010/08/10 08:00
FALA 100800Z 11015KT CAVOK 11/M04 Q1034 NOSIG

2010/08/10 08:00
FALE 100800Z 20016KT 9999 FEW040 18/01 Q1033 NOSIG

2010/08/10 08:00
FAMM 100800Z 13009KT CAVOK 09/M11 Q1033 NOSIG

2010/08/10 08:00
FAPE 100800Z 18007KT 150V210 9999 BKN042 15/08 Q1039 NOSIG

2010/08/10 08:00
FAPN 100800Z AUTO 12006KT //// // ////// 11/M10 Q1033

2010/08/10 08:00
FAPP 100800Z 06007KT CAVOK 13/04 Q1031 NOSIG

2010/08/10 08:00
FAUP 100800Z 09007KT CAVOK 10/M06 Q1036 NOSIG

2010/08/10 07:56
K79J 100756Z AUTO 00000KT 7SM CLR 25/22 A2993 RMK AO2 SLP128 T02500222 TSNO PNO $

2010/08/10 07:56
KHLR 100756Z AUTO 15005KT 10SM CLR 28/23 A2993 RMK AO2 SLP125 T02830228 $

2010/08/10 07:55
KLUF 100755Z AUTO 00000KT 10SM FEW120 32/12 A2981 RMK AO2 SLP063 T03180120 $

2010/08/10 07:56
KNBC 100756Z AUTO 00000KT 10SM CLR 26/24 A2998 RMK AO2 SLP154 T02610244 $

2010/08/10 07:56
KNCA 100756Z AUTO 00000KT 10SM 24/24 A3001 RMK AO2 SLP165 T02390239 $

2010/08/10 07:56
KNJK 100756Z AUTO 36005KT 10SM CLR 27/M01 A2973 RMK AO2 SLP083 T02671011 404000183 TSNO

2010/08/10 07:57
KNJM 100757Z AUTO 23004KT 10SM BKN017 27/25 A3001 RMK AO2 SLP167 T02720250

2010/08/10 07:56
KNRS 100756Z AUTO 00000KT 10SM OVC015 16/14 A2992 RMK AO2 SLP130 T01560144 402110106 TSNO

2010/08/10 07:55
KLUF 100755Z AUTO 00000KT 10SM FEW120 32/12 A2981 RMK AO2 SLP063 T03180120 $

2010/08/10 07:56
KNCA 100756Z AUTO 00000KT 10SM 24/24 A3001 RMK AO2 SLP165 T02390239 $

2010/08/10 08:00
KNEL 100800Z AUTO 23003KT 6SM HZ SCT060 23/20 A2993 RMK AO2 SLP132 T02330200 $

2010/08/10 07:56
KNFL 100756Z 29006KT 10SM CLR 21/03 A2994 RMK AO2 PK WND 33029/0739 SLP113 T02060028 403390150

2010/08/10 07:59
KNGU 100759Z 21005KT 10SM CLR 26/23 A2998 RMK AO2 SLP152 T02610233

2010/08/10 07:56
KNLC 100756Z AUTO 32010KT 10SM CLR 22/12 A2981 RMK AO2 SLP094 T02220122 403440139 TSNO

2010/08/10 07:56
KNMM 100756Z AUTO 00000KT 7SM CLR 26/23 A2996 RMK AO2 SLP150 T02560233 $

2010/08/10 07:56
KNPA 100756Z AUTO 34003KT 6SM BR CLR 26/24 A2990 RMK AO2 SLP127 T02560239

2010/08/10 07:56
KNQI 100756Z AUTO 00000KT 8SM CLR 28/26 A2990 RMK AO2 SLP123 T02780256 $

2010/08/10 07:56
KNXX 100756Z AUTO 26004KT 10SM CLR 25/19 A2994 RMK AO2 SLP141 T02500194 $

2010/08/10 07:52
KNZY 100752Z 31004KT 10SM BKN013 20/14 A2990 RMK AO2 SLP126 T02000139 402500172 $

2010/08/10 07:55
KTBN 100755Z AUTO 14004KT 10SM CLR 25/23 A2996 RMK AO2 SLP117 T02520231 $

2010/08/10 07:56
PHBK 100756Z AUTO 00000KT 10SM CLR 26/15 A3010 RMK AO2 SLP195 T02610150 TSNO $

2010/08/10 07:56
KNMM 100756Z AUTO 00000KT 7SM CLR 26/23 A2996 RMK AO2 SLP150 T02560233 $

2010/08/10 07:56
KNXX 100756Z AUTO 26004KT 10SM CLR 25/19 A2994 RMK AO2 SLP141 T02500194 $

2010/08/10 08:00
YSSY 100800Z 01011KT 9999 -RA BKN012 BKN042 17/15 Q1012 FM0800 02015KT 9000 -RA SCT010 BKN020 BKN040 TEMPO 0800/1100 4000 RA BKN010

2010/08/10 08:00
ZBAA 100800Z 15003MPS 120V190 6000 NSC 32/20 Q1005 NOSIG

2010/08/10 08:00
ZBSJ 100800Z 08001MPS 8000 NSC 29/23 Q1006 NOSIG

2010/08/10 08:00
ZBTJ 100800Z 15004MPS 6000 NSC 29/21 Q1005 NOSIG

2010/08/10 08:00
ZBYN 100800Z 08007MPS 8000 SCT040 24/18 Q1009 NOSIG

2010/08/10 08:00
ZGGG 100800Z 13003MPS 100V170 8000 FEW040 36/24 Q1004 NOSIG

2010/08/10 08:00
ZSHC 100800Z VRB03MPS 9999 SCT020 34/23 Q1002 NOSIG

2010/08/10 08:00
ZSPD 100800Z 34007MPS 9999 FEW030 32/25 Q1002 NOSIG

2010/08/10 08:00
ZSSS 100800Z 01007MPS 9999 SCT033 33/25 Q1002 NOSIG

2010/08/10 08:00
ZWSH 100800Z 16005MPS CAVOK 32/06 Q1008 NOSIG

2010/08/10 08:00
ZWWW 100800Z 35003MPS 320V030 CAVOK 31/09 Q1005 NOSIG

2010/08/10 08:00
ZYTL 100800Z 35003MPS 320V020 7000 SCT010 BKN026 25/22 Q1006 NOSIG

2010/08/10 08:00
ZYTX 100800Z 27002MPS 7000 FEW030 28/22 Q1006 NOSIG

2010/08/10 08:00
KLDJ 100800Z AUTO 27004KT 10SM -DZ SCT050 26/19 A2992 RMK AO2 T02570188

2010/08/10 08:00
KLHZ 100800Z AUTO 00000KT 10SM CLR 25/23 A3001 RMK AO2 T02460225

2010/08/10 08:00
KLKU 100800Z AUTO 00000KT 7SM CLR 24/21 A2996 RMK AO2

2010/08/10 08:00
KLNP 100800Z AUTO 00000KT 7SM SCT043 BKN065 23/20 A3012 RMK AO1

2010/08/10 08:00
KMDQ 100800Z AUTO 00000KT 7SM CLR 25/24 A2999 RMK AO2 T02470237

2010/08/10 08:00
KMGR 100800Z AUTO 00000KT 10SM CLR 26/24 A2996 RMK AO2

2010/08/10 08:00
KMKJ 100800Z AUTO 00000KT 2 1/2SM BKN070 19/08 A3016 RMK AO1

2010/08/10 08:00
KSIF 100800Z AUTO 00000KT 7SM CLR 24/22 A3001 RMK AO2 T02350220

2010/08/10 08:00
KSUT 100800Z AUTO 22004KT 10SM SCT016 SCT022 26/23 A3001 RMK AO2

2010/08/10 08:00
KSVH 100800Z AUTO 21004KT 7SM CLR 24/23 A3002 RMK AO2 T02350230

2010/08/10 08:00
KTMA 100800Z AUTO 00000KT 10SM CLR 25/24 A2996 RMK AO2 T02450239

2010/08/10 08:00
KTVI 100800Z AUTO 07003KT 10SM CLR 26/24 A2994 RMK AO2 T02550240

2010/08/10 07:56
KVDF 100756Z AUTO 07003KT 10SM CLR 25/23 A2988 RMK AO2

2010/08/10 07:58
KVUJ 100758Z AUTO 00000KT 5SM BKN085 22/21 A3001 RMK AO2

2010/08/10 08:00
KW45 100800Z AUTO 00000KT 7SM CLR 23/22 A2998 RMK AO2 T02260224

2010/08/10 07:56
PPIZ 100756Z AUTO 05020G27KT 10SM SCT013 06/03 A2967 RMK AO2 TSNO T00550027 PK WND 06030/0712 SLP050 $

2010/08/10 08:00
K2G4 100800Z AUTO 25006KT 10SM CLR 20/15 A3009 RMK AO1

2010/08/10 08:00
KCGS 100800Z AUTO 00000KT 10SM CLR 27/21 A2994 RMK AO1

2010/08/10 08:00
KHSP 100800Z AUTO 26009KT 10SM CLR 21/16 A3019 RMK AO2

2010/08/10 08:00
KJFZ 100800Z AUTO 00000KT 10SM FEW060 22/19 A3010 RMK

2010/08/10 07:55
KLGC 100755Z AUTO 00000KT 8SM CLR 22/22 A2998 RMK AO1

2010/08/10 08:00
KLOM 100800Z AUTO 24004KT 10SM CLR 26/21 A2992 RMK AO1 T02550212

2010/08/10 08:00
KMMU 100800Z AUTO 00000KT 10SM -RA CLR 23/20 A2993 RMK AO2 T02310200

2010/08/10 08:00
KMQS 100800Z AUTO 00000KT 5SM BR CLR 23/23 A2997 RMK AO2

2010/08/10 08:00
KMTN 100800Z AUTO 00000KT 10SM CLR 26/22 A2993 RMK AO2

2010/08/10 08:00
KMTV 100800Z AUTO 00000KT 1 3/4SM BR VV007 22/22 A3003 RMK AO2 VIS 1 1/2V2 1/2

2010/08/10 08:00
KOBE 100800Z AUTO 11003KT 10SM SCT017 SCT023 BKN080 25/23 A2990 RMK AO2

2010/08/10 08:00
KOKV 100800Z AUTO 23004KT 10SM CLR 26/21 A2997 RMK AO2 T02560212

2010/08/10 08:00
KOMH 100800Z AUTO 00000KT 7SM CLR 24/23 A2997 RMK AO2 T02350226

2010/08/10 08:00
KOPN 100800Z AUTO 12004KT 10SM CLR 26/23 A3001 RMK AO1

2010/08/10 08:00
KPCM 100800Z AUTO 09005KT 10SM CLR 26/24 A2990 RMK AO2

2010/08/10 08:00
KPSK 100800Z AUTO 00000KT 5SM BR CLR 22/19 A3010 RMK AO2

2010/08/10 08:00
KRCZ 100800Z AUTO 00000KT 7SM CLR 25/24 A3002 RMK AO2 T02450242

2010/08/10 08:00
KRMN 100800Z AUTO 00000KT 7SM CLR 23/22 A2999 RMK AO2

2010/08/10 08:00
KSFQ 100800Z AUTO 00000KT 7SM CLR 24/23 A2999 RMK AO2

2010/08/10 08:00
KSHD 100800Z AUTO 00000KT 5SM BR CLR 22/21 A3001 RMK AO2

2010/08/10 08:00
KTBR 100800Z AUTO 00000KT 10SM CLR 25/25 A2999 RMK AO2 T02470245

2010/08/10 08:00
KVDI 100800Z AUTO 00000KT 10SM CLR 26/25 A2999 RMK AO2

2010/08/10 08:00
KVJI 100800Z AUTO 00000KT 5SM BR OVC060 23/22 A3009 RMK AO2 TSNO

2010/08/10 08:00
KW22 100800Z AUTO 00000KT 1 1/4SM BR CLR 19/19 A3005 RMK AO2

2010/08/10 08:00
KW99 100800Z AUTO 00000KT 4SM HZ CLR 20/17 A3000 RMK AO2

2010/08/10 08:00
KWDR 100800Z AUTO 00000KT 7SM CLR 23/21 A3005 RMK AO1

2010/08/10 08:00
KXLL 100800Z AUTO 00000KT 10SM CLR 25/22 A2994 RMK AO2 T02510216

2010/08/10 08:00
KXSA 100800Z AUTO 19003KT 10SM CLR 23/21 A2996 RMK AO2

2010/08/10 07:56
KOSC 100756Z AUTO 32004KT 1 1/2SM BR OVC001 21/19 A2996 RMK AO2

2010/08/10 08:03
KGRR 100803Z AUTO 00000KT 1/2SM FG VV001 20/19 A2997 RMK AO2

2010/08/10 08:03
KHTS 100803Z AUTO 00000KT 2 1/2SM BR CLR 22/21 A2998 RMK AO2 TSNO

2010/08/10 08:03
KTOL 100803Z 00000KT 1 3/4SM BR CLR 22/21 A2996 RMK AO2

2010/08/10 08:04
KBTV 100804Z 00000KT 1/4SM FG VV001 18/18 A2991 RMK AO2 RVRNO

2010/08/10 07:58
HLLB 100758Z 30015KT 9999 BKN020 28/19 Q1013

2010/08/10 07:50
HLLT 100750Z VRB03KT CAVOK 27/16 Q1017

2010/08/10 08:00
YBTL 100800Z 05004KT 6000 -RA FEW005 SCT016 BKN050 23/23 Q1014 FM0800 01008KT 9000 -RA FEW005 SCT020 BKN035 INTER 0800/0930 4000 SHRA BKN012 RMK USE TAF FOR ARRIVALS AFTER 0930Z

2010/08/10 08:00
HAAB 100800Z 19006KT 8000 BR SCT004 BKN020 OVC070 16/13 Q1027

2010/08/10 08:00
HKJK 100800Z 17003KT 9999 BKN020 BKN080 19/14 Q1025 NOSIG

2010/08/10 08:00
HRYR 100800Z 00000KT 9000 FEW030 25/13 Q1023 NOSIG

2010/08/10 07:50
KHMS 100750Z 29014KT 15SM FEW250 19/08 A2981 RMK SLP093 T01900083 403200168 RSNK 13.3/29013KT

2010/08/10 07:56
PHNY 100756Z AUTO 00000KT 10SM CLR 21/17 A3015 RMK AO2 TSNO T02110172 SLP188 $

2010/08/10 07:53
PABR 100753Z 07019KT 10SM OVC002 02/02 A2985

2010/08/10 07:53
PACD 100753Z AUTO 35005KT 10SM FEW042 BKN060 09/08 A2963

2010/08/10 07:55
PAED 100755Z 00000KT 10SM OVC004 12/11 A2977

2010/08/10 07:55
PAEI 100755Z AUTO 00000KT 10SM SCT090 OVC110 14/11 A2962

2010/08/10 07:53
PAEN 100753Z AUTO 00000KT 9SM -RA OVC040 13/12 A2977

2010/08/10 07:53
PAFA 100753Z 00000KT 10SM SCT090 BKN150 14/11 A2961

2010/08/10 07:56
PAFS 100756Z AUTO 00000KT 10SM FEW038 SCT048 OVC060 11/09 A2963

2010/08/10 07:53
PAJN 100753Z 10005KT 3SM -DZ BR FEW005 BKN012 OVC030 12/12 A3000

2010/08/10 07:54
PAKN 100754Z 21011G20KT 10SM FEW009 OVC019 11/09 A2963

2010/08/10 07:53
PAKT 100753Z AUTO 14003KT 10SM OVC011 13/12 A3003

2010/08/10 07:53
PANC 100753Z 00000KT 10SM SCT005 BKN030 OVC060 12/11 A2977

2010/08/10 07:53
PAOM 100753Z 06004KT 10SM -RA FEW040 BKN050 OVC080 11/10 A2941

2010/08/10 07:53
PAOR 100753Z 00000KT 10SM SCT065 BKN100 13/12 A2971

2010/08/10 07:53
PAOT 100753Z AUTO 15008KT 4SM -RA BR FEW012 BKN025 OVC040 14/13 A2944

2010/08/10 07:56
PARY 100756Z AUTO 00000KT 10SM BKN075 12/10 A2959

2010/08/10 07:53
PASC 100753Z 05014KT 1 1/2SM BR OVC003 03/03 A2974

2010/08/10 07:53
PASI 100753Z 00000KT 10SM FEW005 BKN027 OVC031 13/12 A3000

2010/08/10 07:56
PATQ 100756Z AUTO 07018KT 10SM OVC007 03/02 A2978

2010/08/10 07:56
PAVD 100756Z 00000KT 5SM SCT003 SCT009 OVC017 11/09 A2989

2010/08/10 07:56
PAWG 100756Z AUTO 00000KT 10SM BKN034 OVC046 12/11 A3002

2010/08/10 08:00
GCFV 100800Z VRB02KT 9999 SCT040 23/20 Q1015

2010/08/10 08:00
GCHI 100800Z 03006KT 330V100 9999 FEW014 BKN022 22/19 Q1016

2010/08/10 08:00
GCLA 100800Z VRB02KT 9999 FEW016 BKN025 23/18 Q1016

2010/08/10 08:00
GCLP 100800Z 36009KT 320V020 8000 FEW020 23/18 Q1015 NOSIG

2010/08/10 08:00
GCRR 100800Z 26003KT 230V320 9999 FEW020 25/19 Q1015

2010/08/10 08:00
GCTS 100800Z 00000KT 9999 FEW025 BKN100 22/20 Q1016 NOSIG

2010/08/10 08:00
GCXO 100800Z 28008KT 6000 2500NW R12/0500V1800N PRFG FEW000 BKN100 18/18 Q1018 NOSIG

2010/08/10 08:00
GEML 100800Z 00000KT 9999 SCT012 27/22 Q1017

2010/08/10 08:00
GMFF 100800Z 20001KT 8000 FEW033 SCT100 32/12 Q1019 NOSIG

2010/08/10 08:00
GMFO 100800Z 36007KT 9999 FEW033 SCT100 27/20 Q1018 NOSIG

2010/08/10 08:00
GMME 100800Z 27003KT 190V310 5000 NSC 30/20 Q1015 NOSIG

2010/08/10 08:00
GMMN 100800Z 00000KT CAVOK 33/15 Q1016 NOSIG

2010/08/10 08:00
GMMX 100800Z 11005KT 8000 SCT100 30/14 Q1017 NOSIG

2010/08/10 08:00
GMTA 100800Z 12002KT 6000 OVC013 26/23 Q1017

2010/08/10 08:00
GMTT 100800Z 09007KT 9999 FEW016 30/17 Q1016 NOSIG

2010/08/10 08:00
GQNN 100800Z VRB02KT 8000 FEW013 BKN120 26/20 Q1013 NOSIG

2010/08/10 08:00
GBYD 100800Z 05006KT 9999 SCT010 BKN110 26/24 Q1012

2010/08/10 08:00
GOOY 100800Z 31002KT 9999 FEW013 BKN230 26/22 Q1013 NOSIG

2010/08/10 08:00
YBAS 100800Z 18011KT 9999 FEW050 15/M01 Q1021

2010/08/10 08:00
YBBN 100800Z 07006KT 8000 -RA SCT004 BKN014 BKN040 19/19 Q1016 FM0800 02012KT 7000 -RA BKN008 BKN025 TEMPO 0800/1100 02015G25KT 3000 RA BKN006 FM0800 MOD TURB BLW 7000FT

2010/08/10 08:00
YBCS 100800Z 27004KT 9999 FEW003 SCT022 BKN035 24/23 Q1013 FM1000 VRB03KT 7000 -SHRA FEW005 BKN020 TEMPO 0800/1100 3000 -SHRA FEW003 BKN010

2010/08/10 08:00
YBTL 100800Z 05004KT 6000 -RA FEW005 SCT016 BKN050 23/23 Q1014 FM0800 01008KT 9000 -RA FEW005 SCT020 BKN035 INTER 0800/0930 4000 SHRA BKN012

2010/08/10 08:00
YMML 100800Z 31003KT 9000 FEW130 BKN170 08/07 Q1008 TEMPO 0800/1100 6000 RA BKN010

2010/08/10 08:00
YPAD 100800Z 20009KT 9999 SCT034 SCT240 13/09 Q1013 NOSIG

2010/08/10 08:00
YPCC 100800Z 15006KT 9999 FEW025 SCT065 26/21 Q1010

2010/08/10 08:00
YPDN 100800Z 34009KT CAVOK 29/20 Q1011 NOSIG

2010/08/10 08:00
YPLM 100800Z AUTO 36015KT 9999NDV // NCD 22/08 Q1016

2010/08/10 08:00
YPPH 100800Z 03013KT CAVOK 21/M04 Q1017 NOSIG

2010/08/10 08:00
YPTN 100800Z AUTO 17009KT 9999NDV // NCD 30/00 Q1013

2010/08/10 08:00
YPXM 100800Z AUTO 07010KT 9999NDV // BKN009 OVC013 26/23 Q////

2010/08/10 08:00
YSSY 100800Z 01011KT 9999 -RA BKN012 BKN042 17/15 Q1012 FM0800 02015KT 9000 -RA SCT010 BKN020 BKN040 TEMPO 0800/1100 4000 RA BKN010

2010/08/10 08:00
OJAI 100800Z 27008KT 7000 NSC 29/14 Q1010 NOSIG

2010/08/10 08:00
OJAM 100800Z 36005KT 5000 HZ NSC 30/10 Q1011 NOSIG

2010/08/10 08:00
OLBA 100800Z 25006KT 230V290 8000 SCT026 30/22 Q1009 NOSIG

2010/08/10 08:00
OEDF 100800Z 12007KT 090V150 5000 DU SKC 41/17 Q0999 NOSIG

2010/08/10 08:00
OEDR 100800Z 15007KT 5000 HZ NSC 39/24 Q0998 NOSIG

2010/08/10 08:00
OEJN 100800Z 18006KT CAVOK 36/25 Q1003 NOSIG

2010/08/10 08:00
OEMA 100800Z 11007KT 7000 NSC 41/01 Q1007 NOSIG

2010/08/10 08:00
OERK 100800Z 20013KT 8000 SKC 41/00 Q1006 NOSIG

2010/08/10 08:00
OIAA 100800Z 18004KT 6000 NSC 42/26 Q0999

2010/08/10 08:00
OIAW 100800Z 15002KT 8000 NSC 44/13 Q1000 A2953

2010/08/10 08:00
OIBB 100800Z 34006KT CAVOK 38/27 Q0999 A2951 FEW100

2010/08/10 08:00
OIBK 100800Z 12020KT 5000 SA SKC 36/28 Q1000 A2954

2010/08/10 08:00
OICC 100800Z 19006KT CAVOK 36/M05 Q1014 A2996 866.1

2010/08/10 08:00
OICS 100800Z 00000KT 9999 FEW045 33/M01 Q1015 A2997

2010/08/10 08:00
OIFM 100800Z 30004KT 8000 SKC 32/01 Q1018 A3009

2010/08/10 08:00
OIGG 100800Z 36004KT 9999 SCT080 31/23 Q1010 A2984

2010/08/10 08:00
OIKB 100800Z 11006KT 6000 FEW025 35/27 Q1002 A2959

2010/08/10 08:00
OIKK 100800Z 00000KT CAVOK 30/01 Q1018 A3006

2010/08/10 08:00
OIMM 100800Z 04018KT CAVOK 34/M02 Q1014 A2996

2010/08/10 08:00
OINZ 100800Z 34006KT CAVOK 34/21 Q1010 A2983

2010/08/10 08:00
OISS 100800Z 00000KT CAVOK 33/M01 Q1015 A3000

2010/08/10 08:00
OITL 100800Z 06012KT 9999 SCT040CB SCT080 24/08 Q1018 A3008

2010/08/10 08:00
OITR 100800Z 11004KT CAVOK 30/11 Q1015 A2998

2010/08/10 08:00
OITT 100800Z 10012KT 9999 FEW040 33/07 Q1016 A3001

2010/08/10 08:00
OIYY 100800Z 36008KT CAVOK 34/M05 Q1015 A3000

2010/08/10 08:00
OIZH 100800Z 36010KT 8000 NSC 34/M00 Q1012 A2990

2010/08/10 08:00
OKBK 100800Z 14004KT 7000 SKC 42/18 Q1000 NOSIG

2010/08/10 08:00
OSAP 100800Z 26009KT CAVOK 32/19 Q1006

2010/08/10 08:00
OSDI 100800Z VRB03KT CAVOK 31/14 Q1009

2010/08/10 08:00
OSLK 100800Z 24004KT 9999 SCT030 30/21 Q1007

2010/08/10 08:00
OTBD 100800Z 10007KT 060V140 CAVOK 39/24 Q1000 NOSIG

2010/08/10 07:50
OOMS 100750Z 01007KT 330V050 8000 NSC 33/28 Q1001 NOSIG

2010/08/10 07:50
OOSA 100750Z 19010KT 160V220 8000 SCT012 BKN028 27/22 Q1005 NOSIG RMK05 RH72

2010/08/10 08:00
OBBI 100800Z 12009KT CAVOK 41/09 Q1000 NOSIG

2010/08/10 08:00
OMAA 100800Z 18007KT 130V230 CAVOK 43/13 Q0999 A2950 NOSIG

2010/08/10 08:00
OMAL 100800Z 18012KT 150V220 CAVOK 42/13 Q1002 A2959

2010/08/10 08:00
OMDB 100800Z 17005KT 100V260 CAVOK 43/17 Q0999 NOSIG

2010/08/10 08:00
OMFJ 100800Z 07009KT 040V120 CAVOK 34/27 Q1002 A2960

2010/08/10 08:00
OMRK 100800Z 08007KT CAVOK 43/19 Q0999 A2952

2010/08/10 08:00
OMSJ 100800Z 16007KT 120V200 7000 NSC 44/14 Q1000

2010/08/10 08:00
OYAA 100800Z 21013KT 7000 FEW030 BKN100 34/21 Q1005

2010/08/10 08:00
OYHD 100800Z 31013KT 7000 BKN029 35/31 Q1004

2010/08/10 08:00
OYMB 100800Z 23012KT 9999 FEW030 37/12 Q1006

2010/08/10 07:50
LTBI 100750Z VRB03KT 9999 FEW04 SANO36 ENMI 100750 RRA METAR ENHK 100750Z 30004KT 9999 FEW025 BKN050 13/09 Q1011

2010/08/10 08:00
OBBI 100800Z 12009KT CAVOK 41/09 Q1000 NOSIG

2010/08/10 08:00
OJAQ 100800Z 36015KT 8000 NSC 33/21 Q1006

2010/08/10 08:00
OMAD 100800Z 21005KT 150V290 8000 NSC 43/15 Q0999 A2951

2010/08/10 08:00
FYGB 100800Z AUTO 09007KT //// // ////// 09/M12 Q1033

2010/08/10 07:53
PABI 100753Z AUTO 20012KT 10SM SCT095 16/06 A2967

2010/08/10 07:55
PACZ 100755Z AUTO 20009KT 10SM BKN008 OVC012 09/08 A2930

2010/08/10 07:56
PADK 100756Z 22007KT 10SM FEW011 SCT048 OVC100 10/08 A2989

2010/08/10 07:55
PAEH 100755Z AUTO 17021G31KT 3SM BKN004 OVC008 08/07 A2949

2010/08/10 07:58
PAGA 100758Z AUTO 12007KT 10SM BKN029 OVC036 14/10 A2956

2010/08/10 07:55
PAIM 100755Z AUTO 00000KT 10SM OVC055 12/12 A2962

2010/08/10 07:55
PALU 100755Z AUTO 07020KT 7SM 08/08 A2960

2010/08/10 07:55
PASV 100755Z AUTO 00000KT 7SM BKN020 OVC025 09/08 A2964

2010/08/10 07:56
PASY 100756Z AUTO 29011KT 1/2SM FG VV001 09/09 A2988

2010/08/10 07:55
PATC 100755Z AUTO 02007KT 10SM SCT028 BKN041 11/10 A2944

2010/08/10 07:55
PATL 100755Z AUTO 12005KT 10SM OVC019 11/09 A2960

2010/08/10 08:00
SBAR 100800Z 12007KT 9999 FEW015 24/20 Q1017

2010/08/10 08:00
SBCT 100800Z 10002KT 7000 OVC007 08/07 Q1025

2010/08/10 08:00
SBCZ 100800Z 00000KT 8000 NSC 19/19 Q1013

2010/08/10 08:00
SBFL 100800Z 00000KT 9999 SCT025 14/11 Q1025

2010/08/10 08:00
SBFN 100800Z 12008KT 9999 SCT017 26/23 Q1015

2010/08/10 08:00
SBGO 100800Z 35002KT CAVOK 14/12 Q1019

2010/08/10 08:00
SBJP 100800Z 23006KT 9999 BKN020 BKN070 23/21 Q1016

2010/08/10 08:00
SBRP 100800Z 12006KT CAVOK 15/12 Q1020

2010/08/10 08:00
SBLO 100800Z 12006KT CAVOK 12/10 Q1021

2010/08/10 08:00
SBMA 100800Z 00000KT 7000 NSC 22/21 Q1013

2010/08/10 08:00
SBMO 100800Z 12004KT 5000 BR FEW009 BKN020 20/19 Q1016

2010/08/10 08:00
SBMQ 100800Z 33003KT 9999 SCT015 SCT090 25/24 Q1013

2010/08/10 08:00
SBPV 100800Z 00000KT 3000 FU NSC 22/19 Q1012

2010/08/10 08:00
SBRB 100800Z 00000KT 5000 FU NSC 23/19 Q1014

2010/08/10 08:00
SBSJ 100800Z 00000KT 3000 BR BKN006 11/10 Q1023

2010/08/10 08:00
SBSP 100800Z 14003KT 5000 BR BKN006 13/12 Q1026

2010/08/10 08:00
SBTE 100800Z 00000KT CAVOK 22/20 Q1013

2010/08/10 08:00
SBVT 100800Z 21009KT 9999 SCT020 SCT100 21/18 Q1021

2010/08/10 08:00
SBBE 100800Z 07005KT CAVOK 25/22 Q1012

2010/08/10 08:00
SBBR 100800Z 26002KT CAVOK 12/04 Q1022

2010/08/10 08:00
SBBV 100800Z 34002KT CAVOK 25/23 Q1012

2010/08/10 08:00
SBCF 100800Z 18006KT CAVOK 13/10 Q1021

2010/08/10 08:00
SBCG 100800Z 15007KT CAVOK 15/11 Q1018

2010/08/10 08:00
SBEG 100800Z 00000KT CAVOK 23/22 Q1012

2010/08/10 08:00
SBFI 100800Z 23002KT CAVOK 11/10 Q1019

2010/08/10 08:00
SBFZ 100800Z 16010KT 9999 SCT017 24/23 Q1014

2010/08/10 08:00
SBGL 100800Z 28004KT 7000 SCT012 BKN020 19/16 Q1023

2010/08/10 08:00
SBGR 100800Z 18005KT 9999 OVC023 13/12 Q1024

2010/08/10 08:00
SBKP 100800Z 12016KT CAVOK 12/10 Q1022

2010/08/10 08:00
SBNT 100800Z 17005KT 9999 SCT010 SCT020 OVC070 22/22 Q1016

2010/08/10 08:00
SBPA 100800Z 07001KT 0100 R11/0300 R29/0300 FG NSC 05/05 Q1027

2010/08/10 08:00
SBPS 100800Z 27005KT 9999 FEW020 16/16 Q1018

2010/08/10 08:00
SBRF 100800Z 16011KT 9999 SCT018 BKN070 25/19 Q1016

2010/08/10 08:00
SBSL 100800Z 08007KT CAVOK 25/23 Q1013

2010/08/10 08:00
SBSN 100800Z 00000KT CAVOK 23/22 Q1012

2010/08/10 08:00
SBSV 100800Z 28003KT 9999 SCT017 19/18 Q1018

2010/08/10 08:00
MKJS 100800Z 00000KT 9999 FEW024 BKN220 27/23 Q1012

2010/08/10 07:50
MUCM 100750Z 02006KT 340V050 9000 SCT020 23/21 Q1014

2010/08/10 07:55
MUCU 100755Z 00000KT 9000 SCT020 26/24 Q1015

2010/08/10 07:55
MUHA 100755Z 21006KT 7000 FEW040 OVC110 23/22 Q1012

2010/08/10 07:51
MUVR 100751Z 19003KT 150V240 9000 FEW018 OVC070 23/21 Q1013

2010/08/10 07:59
MYEG 100759Z AUTO 13006KT 10SM SCT021 SCT027 27/24 A2995 RMK AO2 LTG DSNT W

2010/08/10 08:00
MYNN 100800Z 21005KT 9999 -SHRA SCT020 OVC080 25/25 A2994

2010/08/10 07:53
TIST 100753Z AUTO 10006KT 10SM FEW028 OVC090 28/24 A2992

2010/08/10 07:53
TISX 100753Z AUTO 07004KT 10SM CLR 27/24 A2992

2010/08/10 07:56
TJSJ 100756Z 10004KT 10SM SCT070 26/24 A2992

2010/08/10 08:00
TFFF 100800Z AUTO 00000KT 9999NDV NCD 25/24 Q1012

2010/08/10 08:00
TFFR 100800Z VRB01KT 9999 SCT020 SCT050 25/24 Q1013 TEMPO 4000 SHRA

2010/08/10 08:00
TGPY 100800Z 19006KT 9999 SCT017 SCT034 28/25 Q1012

2010/08/10 08:00
MDSD 100800Z VRB03KT 9999 -TS FEW016CB FEW018 24/22 Q1012 CB/NE/E/SE/N

2010/08/10 08:00
MDST 100800Z 06004KT 9999 FEW016 24/24 Q1012

2010/08/10 08:00
TAPA 100800Z 08011KT 9999 BKN017 28/24 Q1013

2010/08/10 07:53
TIST 100753Z AUTO 10006KT 10SM FEW028 OVC090 28/24 A2992 RMK AO2 SLP133 T02830244 TSNO

2010/08/10 07:53
TISX 100753Z AUTO 07004KT 10SM CLR 27/24 A2992 RMK AO2 SLP130 P0001 T02670244 TSNO

2010/08/10 07:56
TJSJ 100756Z 10004KT 10SM SCT070 26/24 A2992 RMK AO2 SLP132 OCNL LTGIC DSNT N-SW CB DSNT N-SW T02610244 $

2010/08/10 08:00
MHLM 100800Z 00000KT 9999 SCT026 27/27 Q1011 A2986 NOSIG

2010/08/10 08:00
MHTG 100800Z 22004KT 9999 FEW026 BKN080 19/18 Q1018 A3006 NOSIG

2010/08/10 08:00
MPTO 100800Z 00000KT 9999 SCT018CB 27/25 Q1010 NOSIG

2010/08/10 08:00
MROC 100800Z 00000KT 9999 4500WSW BR VCBCFG SCT001 BKN020 21/21 A3001 NOSIG

2010/08/10 07:50
MUCM 100750Z 02006KT 340V050 9000 SCT020 23/21 Q1014

2010/08/10 07:55
MUCU 100755Z 00000KT 9000 SCT020 26/24 Q1015

2010/08/10 07:55
MUHA 100755Z 21006KT 7000 FEW040 OVC110 23/22 Q1012

2010/08/10 07:51
MUVR 100751Z 19003KT 150V240 9000 FEW018 OVC070 23/21 Q1013

2010/08/10 08:04
KBTV 100804Z 00000KT 1/4SM FG VV001 18/18 A2991

2010/08/10 08:00
MGGT 100800Z 02008KT 9999 SCT012 19/18 Q1023 A3021 RERA FEW080 MTN E/W CUB/CL VOL/ PACAYA EN ACTIVIDAD NOSIG

2010/08/10 08:00
MGGT 100800Z 02008KT 9999 SCT012 19/18 Q1023 A3021 RERA FEW080 MTN E/W CUB/CL VOL. PACAYA EN ACTIVIDAD NOSIG

2010/08/10 08:00
RCKH 100800Z 20006KT 150V230 9999 FEW012 SCT050 BKN200 30/27 Q1007 NOSIG

2010/08/10 08:00
RCSS 100800Z 08009KT 020V100 9999 FEW022 SCT050 33/25 Q1005 NOSIG

2010/08/10 08:00
RCTP 100800Z 24016KT 9999 FEW020 BKN220 34/25 Q1005 NOSIG

2010/08/10 08:03
KHTS 100803Z AUTO 00000KT 2 1/2SM BR CLR 22/21 A2998

2010/08/10 08:00
ZBAA 100800Z 15003MPS 120V190 6000 NSC 32/20 Q1005 NOSIG

2010/08/10 08:00
ZBTJ 100800Z 15004MPS 6000 NSC 29/21 Q1005 NOSIG

2010/08/10 08:00
ZBYN 100800Z 08007MPS 8000 SCT040 24/18 Q1009 NOSIG

2010/08/10 08:00
ZGGG 100800Z 13003MPS 100V170 8000 FEW040 36/24 Q1004 NOSIG

2010/08/10 08:00
ZGNN 100800Z 08003MPS 040V130 9999 SCT026 FEW030CB 33/25 Q1002 TEMPO 3000 TSRA SCT020 FEW026CB

2010/08/10 08:00
ZGSZ 100800Z 19007MPS 9999 FEW022 33/23 Q1004 NOSIG

2010/08/10 08:00
ZHHH 100800Z 09002MPS 060V120 5000 TS HZ SCT025 FEW040CB 35/30 Q1002 BECMG TL0930 NSW

2010/08/10 08:00
ZLLL 100800Z 11003MPS 060V130 9999 FEW026 29/15 Q1010 NOSIG

2010/08/10 08:00
ZMUB 100800Z 29003MPS 9999 FEW030CB SCT033 26/03 Q1004 NOSIG RMK QFE647.0 21

2010/08/10 08:00
ZPPP 100800Z 20003MPS 140V260 9999 FEW026TCU SCT026 28/15 Q1015 NOSIG

2010/08/10 08:00
ZSAM 100800Z 16006MPS 9999 FEW030 34/24 Q1004 NOSIG

2010/08/10 08:00
ZSHC 100800Z VRB03MPS 9999 SCT020 34/23 Q1002 NOSIG

2010/08/10 08:00
ZSNJ 100800Z VRB01MPS 5000 HZ FEW030 35/21 Q1003 NOSIG

2010/08/10 08:00
ZSOF 100800Z 15003MPS 120V180 9999 FEW033 35/24 Q1003 NOSIG

2010/08/10 08:00
ZSPD 100800Z 34007MPS 9999 FEW030 32/25 Q1002 NOSIG

2010/08/10 08:00
ZSSS 100800Z 01007MPS 9999 SCT033 33/25 Q1002 NOSIG

2010/08/10 08:00
ZUCK 100800Z 15003MPS 110V200 9999 FEW040 38/20 Q1001 NOSIG

2010/08/10 08:00
ZUUU 100800Z 19003MPS 120V220 8000 FEW030TCU SCT030 35/24 Q1001 NOSIG

2010/08/10 08:00
ZWWW 100800Z 35003MPS 320V030 CAVOK 31/09 Q1005 NOSIG

2010/08/10 08:00
ZYHB 100800Z 23006MPS 9999 FEW026 25/13 Q1005 NOSIG

2010/08/10 08:00
ZYTL 100800Z 35003MPS 320V020 7000 SCT010 BKN026 25/22 Q1006 NOSIG

2010/08/10 07:53
PHJR 100753Z AUTO 07004KT 10SM CLR 25/17 A3011

2010/08/10 07:53
PHKO 100753Z 08007KT 10SM CLR 25/16 A3005

2010/08/10 07:53
PHLI 100753Z AUTO 06015KT 10SM FEW023 SCT047 OVC060 25/20 A3014

2010/08/10 07:53
PHNL 100753Z 06011KT 10SM SCT042 26/18 A3010

2010/08/10 07:54
PHOG 100754Z 04010KT 10SM FEW055 25/18 A3011

2010/08/10 07:53
PHTO 100753Z 06004KT 10SM SCT030 BKN050 OVC060 24/18 A3012

2010/08/10 07:54
PGSN 100754Z 06008KT 10SM SCT019 28/24 A2991

2010/08/10 07:55
PGUA 100755Z AUTO 07008KT 10SM SCT018 SCT025 SCT035 27/24 A2991

2010/08/10 07:54
PGUM 100754Z 09005KT 10SM TS SCT040CB 28/24 A2990

2010/08/10 08:00
PKWA 100800Z AUTO 07016G20KT 10SM SCT022 SCT028 SCT037 29/23 A2987

2010/08/10 08:00
EPGD 100800Z VRB02KT CAVOK 20/13 Q1018

2010/08/10 08:00
EPKK 100800Z 19005KT 150V240 9999 FEW012 20/16 Q1018

2010/08/10 08:00
EPKT 100800Z 25004KT 220V310 9999 FEW008 19/16 Q1018

2010/08/10 08:00
EPPO 100800Z 24002KT 5000 BR FEW007 18/18 Q1017

2010/08/10 08:00
EPRZ 100800Z 26007KT 230V300 9999 SCT013 20/17 Q1017

2010/08/10 08:00
EPWA 100800Z VRB03KT 9999 FEW020 21/18 Q1017 NOSIG

2010/08/10 08:00
UKBB 100800Z 35002MPS 300V030 9999 SCT033CB 25/21 Q1015 88CLRD95 TEMPO -TSRA SCT030CB

2010/08/10 08:00
UKKK 100800Z 06003MPS 8000 NSC 27/21 Q1015 26CLRD70 TEMPO VRB14MPS 3000 -TSRAGR BKN020CB

2010/08/10 08:00
UKLL 100800Z VRB02MPS 9999 BKN013 19/16 Q1018 31110360 NOSIG

2010/08/10 08:00
UKOO 100800Z 04007MPS CAVOK 33/16 Q1011 34090070 NOSIG

2010/08/10 08:00
LBBG 100800Z 35007MPS CAVOK 29/21 Q1011 NOSIG

2010/08/10 08:00
LBPD 100800Z 29007MPS 260V330 CAVOK 27/18 Q1014 NOSIG

2010/08/10 08:00
LBSF 100800Z 27003MPS 240V310 CAVOK 24/16 Q1017 NOSIG

2010/08/10 08:00
LBWN 100800Z 31004MPS 280V020 CAVOK 28/22 Q1011 WS RWY09 NOSIG

2010/08/10 08:00
LHBP 100800Z 33005KT 300V010 CAVOK 23/15 Q1018 NOSIG

2010/08/10 08:00
LRBS 100800Z 33005KT 260V020 CAVOK 28/20 Q1014 NOSIG

2010/08/10 08:00
LRCK 100800Z 29006KT 250V340 CAVOK 30/20 Q1012 NOSIG

2010/08/10 08:00
LROP 100800Z 29007KT 260V340 CAVOK 28/21 Q1014 880///95 NOSIG

2010/08/10 08:00
LRTR 100800Z 34006KT 310V020 CAVOK 25/17 Q1017 NOSIG

2010/08/10 08:00
LATI 100800Z 00000KT 9999 SCT150 29/21 Q1012 NOSIG

2010/08/10 08:00
LDDU 100800Z 02010KT 340V070 CAVOK 30/09 Q1014 NOSIG

2010/08/10 08:00
LDOS 100800Z VRB03KT CAVOK 24/16 Q1018

2010/08/10 08:00
LDPL 100800Z VRB01KT CAVOK 28/16 Q1015 NOSIG

2010/08/10 08:00
LDRI 100800Z 26003KT 210V320 CAVOK 27/16 Q1015

2010/08/10 08:00
LDSP 100800Z VRB03KT CAVOK 29/12 Q1014 NOSIG

2010/08/10 08:00
LDZA 100800Z VRB02KT 9999 FEW020 23/17 Q1018 NOSIG

2010/08/10 08:00
LDZD 100800Z VRB05KT CAVOK 28/15 Q1014 NOSIG

2010/08/10 08:00
LJLJ 100800Z 24001KT 9999 FEW030 23/16 Q1018 NOSIG

2010/08/10 08:00
LJMB 100800Z VRB02KT 9999 FEW040 21/18 Q1018

2010/08/10 08:00
LJPZ 100800Z 29003KT CAVOK 25/17 Q1015

2010/08/10 08:00
LKMT 100800Z VRB01KT 9999 FEW030 20/16 Q1018 NOSIG

2010/08/10 08:00
LKPR 100800Z 12003KT 040V150 9999 SCT020 20/15 Q1018 NOSIG

2010/08/10 08:00
LKTB 100800Z VRB01KT 9999 FEW027 21/15 Q1018 NOSIG

2010/08/10 08:00
LQSA 100800Z VRB02KT 9999 FEW040 20/15 Q1019 NOSIG

2010/08/10 08:00
LWOH 100800Z 33007KT 300V010 9999 FEW050 24/14 Q1017

2010/08/10 08:00
LWOH 100800Z 33007KT 300V010 CAVOK 24/14 Q1017

2010/08/10 08:00
LWSK 100800Z 30004KT CAVOK 25/14 Q1016 NOSIG

2010/08/10 08:00
LYBE 100800Z 01004KT 340V120 CAVOK 24/17 Q1018 NOSIG

2010/08/10 08:00
LYNI 100800Z 29005KT 240V320 9999 FEW030 23/17 Q1018 NOSIG

2010/08/10 08:00
LYPG 100800Z 04005KT 340V080 CAVOK 29/10 Q1013 NOSIG

2010/08/10 08:00
LYTV 100800Z VRB02KT CAVOK 29/14 Q1013 NOSIG

2010/08/10 08:00
LZIB 100800Z 00000KT 9999 FEW020 21/16 Q1018

2010/08/10 08:00
LZKZ 100800Z 02008KT 330V060 CAVOK 23/13 Q1017 NOSIG

2010/08/10 08:00
LZTT 100800Z 28005KT 250V330 9999 FEW023 19/13 Q1019 NOSIG

2010/08/10 08:00
LPFR 100800Z 25002KT CAVOK 29/19 Q1016

2010/08/10 08:00
LPPR 100800Z 00000KT CAVOK 25/18 Q1017

2010/08/10 08:00
LPPS 100800Z 35005KT 9000 SCT011 BKN030 22/20 Q1016

2010/08/10 08:00
LPPT 100800Z VRB02KT CAVOK 30/14 Q1016 NOSIG

2010/08/10 08:00
LFBD 100800Z VRB03KT CAVOK 20/14 Q1019 NOSIG

2010/08/10 08:00
LFBH 100800Z AUTO 18005KT 150V220 9999NDV FEW020 OVC029 19/15 Q1018

2010/08/10 08:00
LFBI 100800Z 26005KT 9999 BKN006 15/14 Q1018 BECMG BKN007

2010/08/10 08:00
LFBO 100800Z VRB02KT 9999 FEW021 SCT250 21/13 Q1019 NOSIG

2010/08/10 08:00
LFBP 100800Z VRB03KT 9999 FEW013 20/16 Q1018 NOSIG

2010/08/10 08:00
LFBT 100800Z 04003KT 010V090 9999 SCT012 SCT021 18/15 Q1019 TEMPO BKN008

2010/08/10 08:00
LFBZ 100800Z 09004KT CAVOK 20/16 Q1018 NOSIG

2010/08/10 08:00
LFGJ 100800Z AUTO 22004KT 180V270 9999NDV NSC 21/16 Q1017

2010/08/10 08:00
LFKC 100800Z VRB03KT 9999 FEW016 26/17 Q1016 NOSIG

2010/08/10 08:00
LFKJ 100800Z VRB02KT 9999 FEW020 25/19 Q1016 NOSIG

2010/08/10 08:00
LFLB 100800Z VRB01KT 9999 SCT080 23/16 Q1017 NOSIG

2010/08/10 08:00
LFLC 100800Z 11004KT 050V200 9999 FEW033 BKN250 22/16 Q1018 NOSIG

2010/08/10 08:00
LFLL 100800Z 01003KT 310V070 CAVOK 22/15 Q1017 NOSIG

2010/08/10 08:00
LFLS 100800Z 35006KT 310V040 CAVOK 23/15 Q1017 NOSIG

2010/08/10 08:00
LFLY 100800Z VRB03KT CAVOK 23/15 Q1017 NOSIG

2010/08/10 08:00
LFMD 100800Z AUTO 07003KT 020V140 9999NDV BKN027 26/20 Q1016

2010/08/10 08:00
LFMH 100800Z VRB02KT 9999 FEW046 SCT230 21/15 Q1018 NOSIG

2010/08/10 07:51
PGRO 100751Z 04004KT 7SM FEW015 FEW100 27/24 A2991

2010/08/10 07:54
PGSN 100754Z 06008KT 10SM SCT019 28/24 A2991

2010/08/10 07:54
PGUM 100754Z 09005KT 10SM TS SCT040CB 28/24 A2990

2010/08/10 07:51
PGWT 100751Z 09007KT 7SM SCT016 BKN100 28/25 A2990

2010/08/10 07:50
PKMR 100750Z 06013KT 12SM -RA FEW015 SCT050 BKN120 OVC140 26/24 A2985

2010/08/10 08:00
PKWA 100800Z AUTO 07016G20KT 10SM SCT022 SCT028 SCT037 29/23 A2987

2010/08/10 07:51
PTKK 100751Z VRB05KT 15SM FEW014 SCT120 OVC280 28/24 A2984

2010/08/10 07:55
PTKR 100755Z 17013KT 15SM FEW018 SCT120 OVC300 29/24 A2982

2010/08/10 07:53
PTRO 100753Z 17005KT 15SM SCT016TCU BKN120 BKN300 29/24 A2985

2010/08/10 07:54
PTTP 100754Z 14003KT 15SM BKN018 OVC300 27/25 A2987

2010/08/10 07:52
PTYA 100752Z 18008KT 12SM FEW016 FEW140 BKN300 31/24 A2984

2010/08/10 08:00
LFML 100800Z 29003KT 250V320 CAVOK 24/20 Q1015 NOSIG

2010/08/10 08:00
LFMN 100800Z 09003KT 9999 FEW020 26/20 Q1016 NOSIG

2010/08/10 08:00
LFMP 100800Z 32006KT 290V350 9999 FEW080 24/15 Q1017 NOSIG

2010/08/10 08:00
LFMT 100800Z 18004KT CAVOK 27/15 Q1016 NOSIG

2010/08/10 08:00
LFOB 100800Z 20007KT CAVOK 19/12 Q1015 NOSIG

2010/08/10 08:00
LFOH 100800Z AUTO 20012KT 9999NDV -RA BKN027 BKN033 BKN041 17/13 Q1014

2010/08/10 08:00
LFOT 100800Z AUTO 24008KT 210V270 9999NDV NSC 18/14 Q1017

2010/08/10 08:00
LFPB 100800Z VRB02KT CAVOK 20/13 Q1015 NOSIG

2010/08/10 08:00
LFPG 100800Z 23004KT 190V290 CAVOK 19/11 Q1016 NOSIG

2010/08/10 08:00
LFPN 100800Z 22004KT CAVOK 20/13 Q1016 NOSIG

2010/08/10 08:00
LFPO 100800Z 20004KT 170V240 CAVOK 19/14 Q1016 NOSIG

2010/08/10 08:00
LFQQ 100800Z 22009KT 9999 FEW017 BKN170 18/14 Q1014 NOSIG

2010/08/10 08:00
LFRB 100800Z 24011KT 9999 -RA BKN006 BKN016 17/17 Q1014 NOSIG

2010/08/10 08:00
LFRC 100800Z AUTO 25011KT 8000NDV -RA BKN005 BKN010 OVC020 17/16 Q1013

2010/08/10 08:00
LFRD 100800Z AUTO 21010KT 4100NDV -RA BR SCT006 BKN013 BKN025 18/17 Q1015

2010/08/10 08:00
LFRK 100800Z 19010KT 9999 -RA SCT040 BKN053 17/16 Q1014 NOSIG

2010/08/10 08:00
LFRN 100800Z AUTO 21009KT 9999NDV -RA OVC010 17/16 Q1016

2010/08/10 08:00
LFRO 100800Z AUTO 22011KT 190V250 9999NDV BKN006 OVC011 17/17 Q1014

2010/08/10 08:00
LFRQ 100800Z 26008KT 220V280 9999 BKN003 18/18 Q1015 NOSIG

2010/08/10 08:00
LFRS 100800Z 21007KT 9999 FEW008 BKN029 BKN140 19/17 Q1017 NOSIG

2010/08/10 08:00
LFRT 100800Z 23008KT 4000 -DZ BR SCT010 OVC023 18/18 Q1014

2010/08/10 08:00
LFRZ 100800Z AUTO 21009KT 9999NDV -RA BKN014 OVC024 19/17 Q1017

2010/08/10 08:00
LFSB 100800Z 13005KT 090V170 9999 FEW031 21/14 Q1017 NOSIG

2010/08/10 08:00
LFSN 100800Z 15005KT 100V190 CAVOK 22/13 Q1017 NOSIG

2010/08/10 08:00
LFSR 100800Z AUTO VRB01KT 9999NDV NSC 20/14 Q1015

2010/08/10 08:00
LFST 100800Z 21004KT 170V240 9999 FEW056 SCT083 19/15 Q1017 NOSIG

2010/08/10 08:00
LFTW 100800Z AUTO 32003KT 270V030 9999NDV NSC 26/15 Q1016

2010/08/10 08:00
LFBA 100800Z VRB02KT 9999 FEW021 18/15 Q1019 NOSIG

2010/08/10 08:00
LFBC 100800Z AUTO 13004KT 100V170 9999NDV NSC 19/14 Q1019

2010/08/10 08:00
LFBL 100800Z 26003KT 210V020 9999 SCT021 BKN300 16/11 Q1019 NOSIG

2010/08/10 08:00
LFBM 100800Z VRB02KT 9000 SCT003 SCT250 16/15 Q1019

2010/08/10 08:00
LFKF 100800Z 21005KT 150V260 9999 SCT031 SCT140 BKN170 26/17 Q1016 NOSIG

2010/08/10 08:00
LFLV 100800Z 27004KT 220V330 9999 FEW040 BKN250 21/14 Q1018

2010/08/10 08:00
LFOE 100800Z AUTO 20010KT 9999NDV NSC 18/12 Q1015

2010/08/10 08:00
LFOP 100800Z 17008KT CAVOK 16/12 Q1015 BECMG 8000 -RA BKN030 OVC090

2010/08/10 08:00
LFPB 100800Z VRB02KT CAVOK 20/13 Q1015 NOSIG

2010/08/10 08:00
LFPG 100800Z 23004KT 190V290 CAVOK 19/11 Q1016 NOSIG

2010/08/10 08:00
LFPV 100800Z AUTO 19003KT 170V230 9999NDV NSC 19/13 Q1016

2010/08/10 08:00
LFQB 100800Z 24005KT 190V300 CAVOK 23/12 Q1015

2010/08/10 08:00
LFQQ 100800Z 22009KT 9999 FEW017 BKN170 18/14 Q1014 NOSIG

2010/08/10 08:00
LFRH 100800Z 24013KT 5000 -DZRA FEW002 OVC003 18/17 Q1016

2010/08/10 08:00
LFRM 100800Z 22005KT 170V260 CAVOK 16/13 Q1017

2010/08/10 08:00
LFSI 100800Z AUTO 22004KT 170V250 9999NDV NSC 22/13 Q1016

2010/08/10 08:00
LFSL 100800Z AUTO 30004KT 250V350 9999NDV OVC025 18/13 Q1019

2010/08/10 08:00
LFSO 100800Z 22004KT 170V270 CAVOK 23/13 Q1017

2010/08/10 08:00
LFSX 100800Z AUTO 10004KT 030V150 9999NDV NSC 21/15 Q1017

2010/08/10 08:00
LFTH 100800Z VRB03KT 9999 FEW026 26/20 Q1015 NOSIG

2010/08/10 08:00
FIMP 100800Z 09012KT 9999 FEW020 25/14 Q1024

2010/08/10 08:00
FMCH 100800Z 25007KT 9999 FEW023 28/22 Q1019 NOSIG

2010/08/10 08:00
FMMI 100800Z VRB03KT 9999 SCT020 22/12 Q1026 NOSIG

2010/08/10 08:00
FMMT 100800Z 20006KT 9999 SCT017 25/19 Q1022

2010/08/10 08:00
WBGG 100800Z 15009G19KT 1000 +TSRA FEW015CB SCT022 BKN300 26/24 Q1007 NOSIG

2010/08/10 08:00
WBKK 100800Z 32003KT 9999 FEW014 FEW017CB SCT140 BKN270 32/25 Q1006 NOSIG

2010/08/10 08:00
WBSB 100800Z 30007KT 9999 FEW017 FEW018CB BKN140 30/26 Q1006 NOSIG

2010/08/10 08:00
EICK 100800Z 32006KT 9999 FEW020 13/09 Q1009 NOSIG

2010/08/10 08:00
EIDW 100800Z 24014KT 9999 -SHRA FEW015 FEW022CB SCT026 13/11 Q1006 NOSIG

2010/08/10 08:00
EIKN 100800Z 29010KT 9999 SCT012 12/10 Q1007 NOSIG

2010/08/10 08:00
EINN 100800Z 25011KT 9999 FEW025 BKN035 15/11 Q1009 NOSIG

2010/08/10 07:55
KQMG 100755Z AUTO 16009KT 10SM CLR 25/13 A3005 RMK AO2 SLP092 T02510133

2010/08/10 07:55
KQTO 100755Z 30006KT 9999 FEW080 45/05 A2959 RMK SLP018

2010/08/10 07:55
KQTU 100755Z 33008KT 9000 HZ CLR 39/04 A2968 RMK SLP029

2010/08/10 07:55
KQTX 100755Z 32006G13KT 9000 HZ FEW080 44/M01 A2966 RMK SLP012

2010/08/10 07:55
KQTZ 100755Z 35012KT 9000 DU HZ CLR 45/06 A2959 RMK SLP015 QNH1002MB WND DATA ESTMD ALTSG/SLP ESTMD

2010/08/10 07:55
KQXJ 100755Z 34013G20KT 9999 SKC 47/01 A2952 RMK SLP999 PA+392 DA+4041

2010/08/10 08:00
ORER 100800Z VRB03KT CAVOK 43/04 Q1005 NOSIG

2010/08/10 07:55
KQAJ 100755Z 34008KT 9999 CLR 41/06 A2969 RMK SLP035 WND DATA ESTMD ALSTG/SLP ESTMD

2010/08/10 07:55
KQAQ 100755Z 01006KT 8000 HZ FEW060 44/09 A2962 RMK SLP025 PA +401 DA +3779

2010/08/10 07:55
KQPD 100755Z AUTO 21007G13KT 140V240 8000 37/04 A2969 RMK AO2 SLP959 T03690037 $

2010/08/10 07:55
KQSL 100755Z 35006KT 9999 CLR 44/04 A2966 RMK SLP030 Q1004MB

2010/08/10 07:55
KQTI 100755Z AUTO 23008KT 200V260 9999 CLR 42/05 A2970 RMK AO2 SLP030 T04200050 $

2010/08/10 08:00
RJAA 100800Z 17009KT 9999 FEW020 SCT030 28/24 Q1014 NOSIG

2010/08/10 08:00
RJAH 100800Z 18010KT 9999 FEW020 SCT025 BKN350 29/24 Q1013

2010/08/10 08:00
RJCC 100800Z 19011KT 8000 FEW003 BKN004 22/20 Q1013

2010/08/10 08:00
RJCH 100800Z 14010KT 9999 FEW003 SCT/// 25/23 Q1013

2010/08/10 08:00
RJFK 100800Z 13011KT 9999 VCSH FEW005 SCT025 BKN/// 28/24 Q1011

2010/08/10 08:00
RJFT 100800Z 12009KT 9999 FEW025 BKN/// 32/22 Q1009

2010/08/10 08:00
RJFU 100800Z 16022KT 4000 SHRA FEW030 SCT040 BKN060 28/24 Q1007

2010/08/10 08:00
RJOO 100800Z 24008KT 9999 FEW015 SCT100 BKN/// 29/22 Q1013

2010/08/10 08:00
RJSS 100800Z 17009KT 9999 FEW030 SCT/// 28/24 Q1012

2010/08/10 08:00
RJTT 100800Z 20013KT 9999 FEW015 SCT/// 30/22 Q1013

2010/08/10 07:55
RODN 100755Z 19009KT 9999 -RA BKN018 BKN023 OVC150 29/26 A2981 RMK AO2A RAB0752 CIG 017V022 SLP092 P0000 T02930262

2010/08/10 08:00
RJDT 100800Z 10012KT 050V150 9999 FEW020 SCT060 BKN080 29/25 Q1006

2010/08/10 08:00
RJEC 100800Z 31004KT 9999 FEW025 SCT/// 29/22 Q1013

2010/08/10 08:00
RJFG 100800Z 14014KT 9999 FEW004 BKN006 27/26 Q1012

2010/08/10 08:00
RJFM 100800Z 15011KT 9999 FEW012 SCT020 BKN025 29/26 Q1011

2010/08/10 08:00
RJFO 100800Z 14019KT 9999 VCSH FEW015 BKN180 BKN/// 27/25 Q1010

2010/08/10 08:00
RJFR 100800Z 11024KT 9999 FEW025 SCT150 BKN/// 30/24 Q1008

2010/08/10 08:00
RJKA 100800Z 17015KT 9999 FEW013 SCT020 BKN150 29/26 Q1009

2010/08/10 08:00
RJAW 100800Z 13007KT 9999 FEW015 27/23 Q1013 RMK 1CU015 A2993

2010/08/10 08:00
RJBD 100800Z 16006KT 9999 FEW008 SCT100 BKN/// 28/26 Q1014

2010/08/10 08:00
RJCB 100800Z 10004KT 9999 FEW015 BKN/// 27/23 Q1013

2010/08/10 08:00
RJCK 100800Z 20005KT 2300 R17/P1800N PRFG BR FEW001 BKN002 21/19 Q1014

2010/08/10 08:00
RJCM 100800Z 18005KT 9999 FEW015 SCT025 BKN/// 26/23 Q1012

2010/08/10 08:00
RJCN 100800Z 25006KT 9999 FEW015 SCT020 BKN/// 25/22 Q1013

2010/08/10 08:00
RJCW 100800Z 21010KT 9999 FEW010 BKN040 26/22 Q1012

2010/08/10 08:00
RJDC 100800Z 10020KT 9999 FEW020 SCT130 BKN/// 28/24 Q1009

2010/08/10 08:00
RJOT 100800Z 09004KT 040V170 9999 VCSH FEW020CB SCT035 BKN100 30/23 Q1013

2010/08/10 08:00
RJOY 100800Z 27009KT 9999 FEW020 FEW030CB SCT100 BKN/// 31/23 Q1013

2010/08/10 08:00
RJSA 100800Z 01004KT 9999 FEW030 27/23 Q1013

2010/08/10 08:00
RJSC 100800Z 07008KT 9999 VCSH FEW025 FEW030CB BKN050 31/24 Q1012

2010/08/10 08:00
RJSI 100800Z 21008KT 9999 FEW030 BKN/// 32/23 Q1012

2010/08/10 08:00
RJTF 100800Z 19007KT 160V230 9999 FEW020 SCT110 29/23 Q1014

2010/08/10 08:00
RJTH 100800Z 21006KT 180V240 9999 FEW014 BKN170 28/25 Q1015

2010/08/10 08:00
RJNT 100800Z 20006KT 9999 -SHRA FEW015 SCT040 BKN060 27/25 Q1013

2010/08/10 08:00
RJOA 100800Z 17005KT 130V200 9999 FEW020 SCT045 BKN120 29/22 Q1013

2010/08/10 08:00
RJOB 100800Z 12007KT 070V160 9999 FEW025 BKN/// 31/23 Q1013

2010/08/10 08:00
RJOC 100800Z 18004KT 130V240 9999 FEW025 SCT180 BKN/// 34/22 Q1010

2010/08/10 08:00
RJOI 100800Z 17004KT 9999 FEW025 BKN050 BKN100 31/24 A2988 RMK SLP117 T03060239

2010/08/10 08:00
RJOK 100800Z 18008KT 9999 FEW020 SCT/// 29/26 Q1013

2010/08/10 08:00
RJOM 100800Z VRB01KT 9999 FEW020 FEW030TCU BKN170 30/25 Q1011

2010/08/10 08:00
RJOR 100800Z 17006KT 9999 FEW025 SCT090 BKN120 33/24 Q1011

2010/08/10 07:55
RJTY 100755Z AUTO 18010KT 9999 FEW022 28/24 A3000 RMK AO2 SLP151 T02820239 $

2010/08/10 08:03
KGRR 100803Z AUTO 00000KT 1/2SM FG VV001 20/19 A2997

2010/08/10 08:00
RKNY 100800Z 12003KT 6000 -RA FEW015 SCT030 OVC100 25/23 Q1008 NOSIG

2010/08/10 08:00
RKPC 100800Z 12018G30KT 100V160 3500 RA BR FEW008 BKN025 OVC070 27/25 Q0996 NOSIG

2010/08/10 08:00
RKPK 100800Z 11009KT 9999 BKN050 29/23 Q1007 NOSIG

2010/08/10 08:00
RKSI 100800Z 17007KT 9999 BKN025 BKN100 30/25 Q1006 TEMPO 4000 TSRA RMK CB S APCH STN

2010/08/10 08:00
RKSS 100800Z 03011KT 8000 -RA FEW008 BKN025 OVC080 25/23 Q1007 TEMPO 4200 RMK CB S APCH STN

2010/08/10 08:00
RKTN 100800Z 13005KT 9000 -RA BKN020 OVC030 30/24 Q1007 NOSIG

2010/08/10 08:00
RKTU 100800Z 06005KT 4000 -RA BKN030 OVC060 27/25 Q1007 BECMG 2500

2010/08/10 08:00
LCLK 100800Z 16009KT 9999 FEW020 31/25 Q1006 NOSIG

2010/08/10 08:00
LCPH 100800Z 22005KT 160V300 7000 SCT020 31/25 Q1007

2010/08/10 08:00
MMMY 100800Z RTD 08005KT 10SM SCT040 24/23 A2991 RMK 8/500

2010/08/10 07:50
BGBW 100750Z AUTO 07004KT 4100NDV BR FEW001/// BKN003/// BKN005/// 08/08 Q1009

2010/08/10 07:50
BGCO 100750Z 17002KT 9999 FEW180 06/01 Q1013

2010/08/10 07:50
BGGH 100750Z 21007KT 0200 RA FG VV002 09/08 Q1007

2010/08/10 07:50
BGJN 100750Z AUTO 36003KT 9999NDV SCT019/// OVC025/// 07/04 Q1008

2010/08/10 07:50
BGKK 100750Z 08019KT 9999 DZ VCFG FEW010 SCT035 BKN060 07/05 Q1012

2010/08/10 07:50
BGSF 100750Z 04009KT 9999 BKN023 07/03 Q1007

2010/08/10 07:55
BGTL 100755Z AUTO 06005KT 9999 CLR 03/02 A2980 RMK AO2 SLP097 T00270024

2010/08/10 08:00
BIAR 100800Z 15003KT 9999 OVC011 09/08 Q1014

2010/08/10 08:00
BIEG 100800Z 01007KT 3000 FG VV003 07/07 Q1014

2010/08/10 08:00
BIKF 100800Z 32010KT 9999 FEW019 BKN022 12/06 Q1014

2010/08/10 08:00
BIRK 100800Z 02003KT 9999 FEW015 SCT025 BKN050 12/08 Q1013

2010/08/10 08:00
GVAC 100800Z 02002KT 9999 SCT014 SCT200 23/19 Q1014 NOSIG

2010/08/10 08:00
LPLA 100800Z 00000KT 9999 FEW018 BKN035 21/17 Q1022

2010/08/10 07:55
TXKF 100755Z 17007KT 9999 FEW015 FEW180 SCT300 27/23 Q1020 /

2010/08/10 07:55
TXKF 100755Z 17007KT 9999 FEW015 FEW180 SCT300 27/23 Q1020

2010/08/10 07:56
KABQ 100756Z 00000KT 10SM FEW110 22/08 A3014

2010/08/10 07:52
KATL 100752Z 00000KT 9SM SCT250 26/21 A3001

2010/08/10 07:53
KBGR 100753Z 29004KT 10SM SCT100 19/18 A2984

2010/08/10 07:53
KBHM 100753Z 00000KT 8SM CLR 26/23 A2998

2010/08/10 07:53
KBNA 100753Z 18003KT 9SM FEW110 SCT200 26/24 A2997

2010/08/10 07:54
KBOS 100754Z 18006KT 5SM -RA BR BKN070 OVC120 21/19 A2989

2010/08/10 07:54
KBWI 100754Z 21005KT 9SM FEW250 24/20 A2992

2010/08/10 07:56
KCHS 100756Z 00000KT 10SM FEW023 27/25 A3000

2010/08/10 07:51
KCLE 100751Z 22004KT 8SM FEW080 24/20 A2997

2010/08/10 07:52
KCLT 100752Z 00000KT 8SM BKN070 24/22 A3003

2010/08/10 07:52
KCVG 100752Z 20003KT 7SM SCT150 24/21 A2997

2010/08/10 07:53
KDEN 100753Z 23006KT 10SM SCT140 BKN200 17/13 A3011

2010/08/10 07:53
KDFW 100753Z 21007KT 10SM FEW250 30/20 A2988

2010/08/10 07:53
KDTW 100753Z 00000KT 4SM OVC011 22/21 A2996

2010/08/10 07:51
KEWR 100751Z 25006KT 10SM -RA SCT050 BKN150 OVC250 27/18 A2992

2010/08/10 07:53
KFLL 100753Z 14012G18KT 10SM -RA SCT022 BKN030 OVC046 27/24 A2988

2010/08/10 07:52
KIAD 100752Z 18003KT 7SM CLR 24/21 A2995

2010/08/10 07:53
KIAH 100753Z 00000KT 10SM FEW250 27/25 A2991

2010/08/10 07:54
KIND 100754Z 24003KT 9SM BKN120 OVC250 26/23 A2995

2010/08/10 07:56
KJAX 100756Z 05005KT 10SM FEW022 25/23 A2994

2010/08/10 07:51
KJFK 100751Z 26006KT 10SM BKN140 OVC250 26/19 A2993

2010/08/10 07:56
KLAS 100756Z 19008KT 10SM CLR 28/M04 A2982

2010/08/10 07:53
KLAX 100753Z 28003KT 10SM OVC007 16/13 A2991

2010/08/10 07:51
KLGA 100751Z 24007KT 10SM BKN140 OVC250 28/18 A2991

2010/08/10 07:55
KLGC 100755Z AUTO 00000KT 8SM CLR 22/22 A2998

2010/08/10 07:53
KLIT 100753Z 00000KT 7SM SCT250 28/25 A2991

2010/08/10 07:53
KLOU 100753Z AUTO 00000KT 10SM CLR 28/24 A2996

2010/08/10 07:53
KMCI 100753Z 18006KT 10SM CLR 26/22 A2988

2010/08/10 07:53
KMCO 100753Z 09006KT 10SM FEW028 25/23 A2992

2010/08/10 07:53
KMEM 100753Z 00000KT 10SM CLR 27/24 A2993

2010/08/10 07:53
KMIA 100753Z 13011KT 8SM -RA SCT019TCU BKN028 OVC060 26/24 A2988

2010/08/10 07:53
KMSP 100753Z 12003KT 9SM CLR 25/22 A2993

2010/08/10 07:51
PGRO 100751Z 04004KT 7SM FEW015 FEW100 27/24 A2991

2010/08/10 07:54
PGSN 100754Z 06008KT 10SM SCT019 28/24 A2991 RMK AO2 SLP126 T02830244

2010/08/10 07:55
PGUA 100755Z AUTO 07008KT 10SM SCT018 SCT025 SCT035 27/24 A2991 RMK AO2 SLP110 T02680244 $

2010/08/10 07:54
PGUM 100754Z 09005KT 10SM TS SCT040CB 28/24 A2990 RMK AO2 TSB47 SLP118 TS DSNT W MOV NW CB SW-W MOV W T02830239

2010/08/10 07:51
PGWT 100751Z 09007KT 7SM SCT016 BKN100 28/25 A2990 RMK WIND DATA ESTIMATED

2010/08/10 07:53
PHJR 100753Z AUTO 07004KT 10SM CLR 25/17 A3011 RMK AO2 SLP202 T02500172 TSNO

2010/08/10 07:54
PHMK 100754Z AUTO 05011G21KT 10SM FEW044 24/19 A3011 RMK AO2 RAB22E32 SLP198 P0000 T02390189 TSNO

2010/08/10 07:50
PKMR 100750Z 06013KT 12SM -RA FEW015 SCT050 BKN120 OVC140 26/24 A2985 RMK RAB47 SLP110 T02630240

2010/08/10 08:00
PKWA 100800Z AUTO 07016G20KT 10SM SCT022 SCT028 SCT037 29/23 A2987 RMK AO2 T02850233

2010/08/10 07:56
PMDY 100756Z AUTO 07009KT 10SM FEW022 26/22 A3023 RMK AO2 TSNO T02550216 RAB38E48 P0000 SLP544

2010/08/10 07:51
PTKK 100751Z VRB05KT 15SM FEW014 SCT120 OVC280 28/24 A2984 RMK SLP108 T02800238

2010/08/10 07:55
PTKR 100755Z 17013KT 15SM FEW018 SCT120 OVC300 29/24 A2982 RMK SLP099 T02940237

2010/08/10 07:53
PTRO 100753Z 17005KT 15SM SCT016TCU BKN120 BKN300 29/24 A2985 RMK TCU VC ALQDS

2010/08/10 07:54
PTTP 100754Z 14003KT 15SM BKN018 OVC300 27/25 A2987 RMK SLP115 T02670250

2010/08/10 07:52
PTYA 100752Z 18008KT 12SM FEW016 FEW140 BKN300 31/24 A2984 RMK SLP107 T03120242

2010/08/10 08:00
RPLB 100800Z 22007KT 9999 FEW020 SCT080 BKN300 29/23 Q1009 NOSIG

2010/08/10 08:00
RPLC 100800Z VRB08KT 9999 FEW025 OVC270 31/23 Q1008 A2977 RMK NOSIG

2010/08/10 08:00
RPLL 100800Z 25010KT 9000 SCT025 BKN300 30/26 Q1008 NOSIG RMK A2977

2010/08/10 08:00
RPMD 100800Z 09010KT 8000 -TS -RA SCT015CB BKN090 BKN290 30/26 Q1008 LGT TS LIRA CB N E SW

2010/08/10 08:00
RPMZ 100800Z 32004KT 9999 FEW018 SCT120 31/25 Q1009

2010/08/10 08:00
RPVM 100800Z 24004KT 9999 SCT018CB OVC250 31/27 Q1009 A2980 DSTNT PCPN NE NW AND SE CB ALQDS

2010/08/10 08:03
KTOL 100803Z 00000KT 1 3/4SM BR CLR 22/21 A2996

2010/08/10 08:00
LPFR 100800Z 25002KT CAVOK 29/19 Q1016

2010/08/10 08:00
LPLA 100800Z 00000KT 9999 FEW018 BKN035 21/17 Q1022

2010/08/10 08:00
LPMA 100800Z VRB02KT 9999 BKN015 22/18 Q1016 RS08001KT 0531002KT 2325003KT

2010/08/10 08:00
LPPR 100800Z 00000KT CAVOK 25/18 Q1017

2010/08/10 08:00
LPPS 100800Z 35005KT 9000 SCT011 BKN030 22/20 Q1016

2010/08/10 08:00
LPPT 100800Z VRB02KT CAVOK 30/14 Q1016 NOSIG

2010/08/10 08:00
UTSA 100800Z 02007MPS 9999 NSC 37/03 Q1007 R88/C5RD70 TEMPO 03005G10MPS

2010/08/10 08:00
UBBB 100800Z 02010KT 9999 FEW060CB BKN100 31/31 Q1011 NOSIG RMK R88CLRD70

2010/08/10 08:00
UBBG 100800Z 08007KT 9999 FEW100 32/12 Q1012 NOSIG RMK R12L/CLRD70

2010/08/10 08:00
UTTT 100800Z 01004MPS CAVOK 36/03 Q1008 R08R/CLRD70 NOSIG

2010/08/10 07:53
KMSY 100753Z 00000KT 9SM CLR 25/24 A2992

2010/08/10 07:53
KOAK 100753Z 35003KT 10SM OVC006 14/11 A2992

2010/08/10 07:52
KOKC 100752Z 19006KT 10SM CLR 26/21 A2992

2010/08/10 07:53
KONT 100753Z 26003KT 10SM CLR 17/12 A2991

2010/08/10 07:51
KORD 100751Z 00000KT 10SM FEW120 SCT200 24/23 A2994

2010/08/10 07:51
KORF 100751Z 23006KT 10SM CLR 25/23 A2997

2010/08/10 07:53
KPBI 100753Z 15010KT 10SM SCT024CB BKN032 BKN050 26/23 A2988

2010/08/10 07:54
KPHF 100754Z 24005KT 10SM CLR 26/24 A2997

2010/08/10 07:54
KPHL 100754Z 21007KT 10SM SCT150 BKN200 26/21 A2993

2010/08/10 07:51
KPHX 100751Z 27006KT 10SM FEW120 34/10 A2980

2010/08/10 07:51
KPIT 100751Z 00000KT 7SM SCT100 BKN250 22/18 A2998

2010/08/10 07:51
KRDU 100751Z 23004KT 9SM FEW150 SCT250 24/22 A3001

2010/08/10 07:51
KSAN 100751Z 28005KT 10SM OVC015 18/14 A2993

2010/08/10 07:53
KSEA 100753Z 21007KT 10SM BKN010 OVC065 14/11 A2997

2010/08/10 07:56
KSFO 100756Z 29006KT 10SM FEW003 OVC012 13/11 A2991

2010/08/10 07:51
KSTL 100751Z 18003KT 10SM FEW250 29/24 A2991

2010/08/10 07:51
KTEB 100751Z 21004KT 10SM -RA CLR 26/18 A2991

2010/08/10 07:53
KTPA 100753Z 07004KT 10SM FEW050 26/23 A2988

2010/08/10 08:00
URMT 100800Z 09009G12MPS CAVOK 33/08 Q1012 NOSIG RMK QFE719 SC07

2010/08/10 08:00
SKBO 100800Z 08003KT 9999 FEW017 SCT200 11/09 A3033 NOSIG

2010/08/10 08:00
SKBQ 100800Z 00000KT 9999 SCT012 SCT070 27/26 A2985

2010/08/10 08:00
SKCG 100800Z 00000KT 9999 FEW015 SCT200 27/26 A2984

2010/08/10 08:00
SKCL 100800Z 00000KT 9999 FEW025 BKN090 19/18 A2999

2010/08/10 08:00
SKRG 100800Z 00000KT 6000 BKN010 15/14 A3027 RMK HZ

2010/08/10 08:00
SOCA 100800Z VRB01KT 9999 FEW003 SCT120 23/23 Q1012 NOSIG

2010/08/10 08:00
SPIM 100800Z 17003KT 8000 BKN015 14/12 Q1016 NOSIG RMK PP000

2010/08/10 08:00
SPQU 100800Z 36006KT CAVOK 11/M17 Q1026 RMK PP000

2010/08/10 08:00
SPSO 100800Z 07004KT 7000 FEW012 11/09 Q1016 RMK PP000

2010/08/10 08:00
SPTN 100800Z 00000KT CAVOK 07/05 Q1013 RMK PP000

2010/08/10 08:00
SPZO 100800Z 00000KT 9999 SKC 01/M05 Q1033 RMK PP000

2010/08/10 08:00
SVBC 100800Z 00000KT 9999 FEW010 25/20 Q1012

2010/08/10 08:00
SVMG 100800Z 00000KT 9999 FEW010 BKN080 27/25 Q1013 NOSIG

2010/08/10 08:00
SVMI 100800Z 00000KT 9999 FEW016 28/24 Q1011 NOSIG

2010/08/10 08:00
SCAR 100800Z 08006KT CAVOK 10/05 Q1015

2010/08/10 08:00
SCBA 100800Z AUTO 25005KT CAVOK M01/M03 Q1021

2010/08/10 08:00
SCCI 100800Z 28006KT 9999 FEW016 SCT100 04/01 Q1004 NOSIG

2010/08/10 08:00
SCDA 100800Z 25003KT 8000 OVC020 13/09 Q1017

2010/08/10 08:00
SCEL 100800Z VRB01KT 5000 HZ NSC 03/00 Q1015 NOSIG

2010/08/10 08:00
SCFA 100800Z 31006KT 9999 OVC019 13/08 Q1017

2010/08/10 08:00
SCIE 100800Z 19004KT CAVOK 05/04 Q1017

2010/08/10 08:00
SCTE 100800Z 18005KT 9999 OVC006 07/06 Q1022 NOSIG

2010/08/10 08:00
SGAS 100800Z 18005KT CAVOK 10/07 Q1019

2010/08/10 08:00
SGES 100800Z 18004KT CAVOK 12/11 Q1019

2010/08/10 08:00
SULS 100800Z 00000KT 2000 BR NSC 03/03 Q1027

2010/08/10 08:00
SUMU 100800Z 00000KT 0800 R19/0400 R24/1800 FG VV/// 01/01 Q1027 TEMPO 1200

2010/08/10 08:00
SCSE 100800Z 32002KT 9999 OVC015 11/08 Q1017 NEFO PLAYA 1800FT

2010/08/10 08:00
SCTC 100800Z VRB01KT 0100 FG VV/// M01/M01 Q1018

2010/08/10 08:00
LEAL 100800Z 00000KT 9999 FEW040 32/16 Q1016 NOSIG

2010/08/10 08:00
LEAM 100800Z 00000KT CAVOK 28/20 Q1016

2010/08/10 08:00
LEAS 100800Z 25004KT 210V290 9999 FEW025 20/17 Q1018 NOSIG

2010/08/10 08:00
LEBB 100800Z 14003KT 100V190 CAVOK 20/16 Q1018 NOSIG

2010/08/10 08:00
LEBL 100800Z 13007KT 110V170 9999 SCT016 26/19 Q1017 NOSIG

2010/08/10 08:00
LECO 100800Z VRB02KT CAVOK 17/17 Q1019

2010/08/10 08:00
LEGE 100800Z 17005KT 9999 FEW010 SCT023 23/20 Q1017

2010/08/10 08:00
LEGR 100800Z VRB01KT 9999 FEW100 26/13 Q1020

2010/08/10 08:00
LEIB 100800Z VRB02KT CAVOK 28/22 Q1017 NOSIG

2010/08/10 08:00
LEJR 100800Z 00000KT 9999 FEW020 28/13 Q1016

2010/08/10 08:00
LELC 100800Z 32003KT 290V350 9999 FEW040 26/17 Q1016 NOSIG

2010/08/10 08:00
LELL 100800Z 00000KT 9000 FEW008 BKN012 23/16 Q1018

2010/08/10 08:00
LEMD 100800Z 04001KT CAVOK 26/14 Q1019 NOSIG

2010/08/10 08:00
LEMG 100800Z 12001KT CAVOK 29/12 Q1017 NOSIG

2010/08/10 08:00
LEMH 100800Z 08004KT 050V120 CAVOK 27/17 Q1017

2010/08/10 08:00
LEPA 100800Z 05006KT 010V070 CAVOK 28/14 Q1017 NOSIG

2010/08/10 08:00
LEPP 100800Z 03001KT CAVOK 17/13 Q1019

2010/08/10 08:00
LERS 100800Z VRB01KT 9999 SCT025 25/20 Q1017

2010/08/10 08:00
LESO 100800Z 12004KT 090V150 CAVOK 20/15 Q1018

2010/08/10 08:00
LEST 100800Z VRB01KT CAVOK 17/13 Q1019 NOSIG

2010/08/10 08:00
LETO 100800Z VRB01KT CAVOK 25/14 Q1019 NOSIG

2010/08/10 08:00
LEVC 100800Z VRB01KT CAVOK 28/18 Q1017 NOSIG

2010/08/10 08:00
LEVD 100800Z 00000KT CAVOK 21/14 Q1021

2010/08/10 08:00
LEVS 100800Z 00000KT CAVOK 27/14 Q1020

2010/08/10 08:00
LEVT 100800Z 00000KT 5000 BR BKN003 OVC005 13/13 Q1019

2010/08/10 08:00
LEVX 100800Z 22005KT 190V250 CAVOK 23/16 Q1018

2010/08/10 08:00
LEXJ 100800Z VRB02KT 9999 FEW030 20/16 Q1019

2010/08/10 08:00
LEZG 100800Z 31005KT 270V350 9999 FEW050 21/13 Q1018

2010/08/10 08:00
LEZL 100800Z VRB02KT CAVOK 29/16 Q1016 NOSIG

2010/08/10 08:00
DTMB 100800Z 20004KT CAVOK 29/17 Q1016 NOSIG

2010/08/10 08:00
DTTA 100800Z 10002KT 8000 FEW033 29/16 Q1015 NOSIG

2010/08/10 08:00
DTTB 100800Z 18004KT CAVOK 28/16 Q1016

2010/08/10 08:00
DTTD 100800Z 10006KT CAVOK 24/16 Q1018

2010/08/10 08:00
DTTG 100800Z 09008KT CAVOK 27/17 Q1016 NOSIG

2010/08/10 08:00
DTTJ 100800Z 00000KT CAVOK 29/22 Q1016 NOSIG

2010/08/10 08:00
DTTK 100800Z 30002KT CAVOK 29/12 Q1016

2010/08/10 08:00
DTTL 100800Z 15002KT CAVOK 30/16 Q1016

2010/08/10 08:00
DTTN 100800Z 16002KT CAVOK 28/11 Q1016

2010/08/10 08:00
DTTR 100800Z 06014KT CAVOK 28/12 Q1017

2010/08/10 08:00
DTTX 100800Z 32004KT CAVOK 29/13 Q1016 NOSIG

2010/08/10 08:00
DTTZ 100800Z 10014KT CAVOK 28/22 Q1016 NOSIG

2010/08/10 08:00
UKBB 100800Z 35002MPS 300V030 9999 SCT033CB 25/21 Q1015 88CLRD95 TEMPO -TSRA SCT030CB

2010/08/10 08:00
UKCC 100800Z 12004MPS 090V160 CAVOK 36/11 Q1013 08090070 NOSIG

2010/08/10 08:00
UKCW 100800Z 07004MPS 030V110 CAVOK 37/08 Q1014 0909//70 NOSIG

2010/08/10 08:00
UKDD 100800Z 05003MPS 360V080 CAVOK 36/16 Q1012 08090070 NOSIG

2010/08/10 08:00
UKDE 100800Z 00000MPS CAVOK 33/14 Q1012 02CLRD70 NOSIG

2010/08/10 08:00
UKDR 100800Z 01005MPS 320V060 CAVOK 32/16 Q1013 3609//70 NOSIG

2010/08/10 08:00
UKFF 100800Z 05007MPS 020V080 CAVOK 33/19 Q1009 01010070 NOSIG

2010/08/10 08:00
UKHH 100800Z VRB01MPS CAVOK 36/09 Q1014 080///65 NOSIG

2010/08/10 08:00
UKKK 100800Z 06003MPS 8000 NSC 27/21 Q1015 26CLRD70 TEMPO VRB14MPS 3000 -TSRAGR BKN020CB

2010/08/10 08:00
UKKM 100800Z 05003MPS 020V110 CAVOK 27/20 Q1015 33CLRD70 NOSIG

2010/08/10 08:00
UKLI 100800Z 31002MPS 240V020 CAVOK 23/17 Q1017 28090070 NOSIG

2010/08/10 08:00
UKLL 100800Z VRB02MPS 9999 BKN013 19/16 Q1018 31110360 NOSIG

2010/08/10 08:00
UKLN 100800Z 32004MPS 290V350 CAVOK 21/18 Q1018 3309//70 NOSIG

2010/08/10 08:00
UKLR 100800Z 00000MPS 9999 SCT022 SCT022CB BKN100 21/17 Q1017 30090070 TEMPO -TSRA

2010/08/10 08:00
UKLU 100800Z 18002MPS 9999 FEW033 22/17 Q1018 10090070 NOSIG

2010/08/10 08:00
UKON 100800Z 03005MPS 340V080 CAVOK 33/15 Q1011 05090075 NOSIG

2010/08/10 08:00
UKOO 100800Z 04007MPS CAVOK 33/16 Q1011 34090070 NOSIG

2010/08/10 07:50
EDAH 100750Z 17004KT 9999 BKN025 20/16 Q1016

2010/08/10 07:50
EDDS 100750Z VRB02KT 9999 FEW028 20/13 Q1018 NOSIG

2010/08/10 07:50
EDMA 100750Z 27004KT 220V310 CAVOK 19/15 Q1018

2010/08/10 07:50
EGPK 100750Z 15006KT 090V190 7000 -RA FEW005 SCT014CB BKN018 12/11 Q1003

2010/08/10 07:55
EGUL 100755Z AUTO 26010KT 9999 -RA SCT030 OVC049 13/11 A2982 RMK AO2 SLP100 P0003 T01320112

2010/08/10 07:55
EGUN 100755Z AUTO 27009KT 9999 -RA FEW048 BKN070 13/13 A2983 RMK AO2 CIG 035 RWY11 SLP091 P0006 T01310131

2010/08/10 07:55
EGVA 100755Z AUTO 21006KT 9999 -DZ SCT065 13/12 A2981 RMK AO2 DZB0752 SLP096 P0000 T01310120 $

2010/08/10 07:55
ETAD 100755Z AUTO 18004KT 9999 CLR 20/13 A3003 RMK AO2 SLPNO T02010128 VISNO RWY05 CHINO RWY05 $

2010/08/10 07:55
ETAR 100755Z AUTO 00000KT 9999 CLR 19/15 A3003 RMK AO2 SLP165 T01950149 $

2010/08/10 07:55
KQIR 100755Z AUTO 13005KT 9999 FEW170 43/15 A2953 RMK AO2 SLP996 T04250148

2010/08/10 07:50
LIRN 100750Z VRB02KT 9999 SCT070 24/19 Q1015

2010/08/10 07:55
LIYW 100755Z AUTO 00000KT 9999 CLR 25/19 A3001 RMK AO2 SLP161 T02520186

2010/08/10 08:00
LPLA 100800Z 00000KT 9999 FEW018 BKN035 21/17 Q1022

2010/08/10 07:50
LTAC 100750Z 01008KT 9999 FEW040 30/04 Q1014 NOSIG

2010/08/10 07:50
LTAG 100750Z 30007KT 9999 SCT035 32/22 Q1006 NOSIG

2010/08/10 07:56
PHBK 100756Z AUTO 00000KT 10SM CLR 26/15 A3010 RMK AO2 SLP195 T02610150 TSNO $

2010/08/10 07:55
PHHI 100755Z AUTO 10011KT 10SM BKN048 24/17 A3012 RMK AO2 SLP188 T02350167 $

2010/08/10 08:00
PKWA 100800Z AUTO 07016G20KT 10SM SCT022 SCT028 SCT037 29/23 A2987 RMK AO2 T02850233

2010/08/10 07:56
PMDY 100756Z AUTO 07009KT 10SM FEW022 26/22 A3023 RMK AO2 TSNO T02550216 RAB38E48 P0000 SLP544

2010/08/10 08:00
RJOI 100800Z 17004KT 9999 FEW025 BKN050 BKN100 31/24 A2988 RMK SLP117 T03060239

2010/08/10 07:55
RJTY 100755Z AUTO 18010KT 9999 FEW022 28/24 A3000 RMK AO2 SLP151 T02820239 $

2010/08/10 08:00
RKPK 100800Z 11009KT 9999 BKN050 29/23 Q1007 NOSIG

2010/08/10 07:55
RKSO 100755Z 20003KT 4800 -RA FEW010 BKN025 27/25 A2974 RMK AO2A RAB0707DZB0705E0707 SLP071 P0016 T02730273 $

2010/08/10 07:55
RODN 100755Z 19009KT 9999 -RA BKN018 BKN023 OVC150 29/26 A2981 RMK AO2A RAB0752 CIG 017V022 SLP092 P0000 T02930262

2010/08/10 07:57
PHNG 100757Z AUTO 07007KT 10SM FEW038 BKN060 25/20 A3012 RMK AO2 SLP194 T02500200 $

2010/08/10 07:50
BGAA 100750Z AUTO 32001KT 0200NDV FG VV003/// 06/05 Q1008

2010/08/10 07:50
BGMQ 100750Z AUTO 32010KT 9999NDV FEW001/// SCT120/// BKN200/// 09/08 Q1005

2010/08/10 07:50
BGQQ 100750Z AUTO 33002KT 9999NDV NCD 03/03 Q1010

2010/08/10 07:50
BGSS 100750Z AUTO 14001KT 9999NDV ///075/// 09/09 Q1006 RMK ///

2010/08/10 07:50
BGUK 100750Z AUTO 35004KT 310V020 0100NDV -SN FG NCD 04/04 Q1009 RESN

2010/08/10 08:00
BKPR 100800Z 02007KT 350V060 9999 FEW030 23/13 Q1018 NOSIG RMK BLU

2010/08/10 08:00
DTKA 100800Z 00000KT CAVOK 33/13 Q1015 NOSIG

2010/08/10 08:00
DTTF 100800Z 01006KT CAVOK 26/16 Q1016 NOSIG

2010/08/10 07:50
EDAC 100750Z 18004KT 140V220 CAVOK 21/15 Q1017

2010/08/10 07:50
EDDE 100750Z VRB02KT 9999 FEW030 20/13 Q1017 NOSIG

2010/08/10 07:50
EDFH 100750Z 24004KT 190V310 CAVOK 22/12 Q1017

2010/08/10 07:50
EDGS 100750Z 23008KT CAVOK 19/13 Q1017

2010/08/10 07:50
EDLV 100750Z 20005KT 130V260 CAVOK 19/15 Q1014

2010/08/10 07:50
EDOP 100750Z 12006KT 080V160 CAVOK 20/15 Q1016

2010/08/10 07:50
EDSB 100750Z 22005KT 190V250 CAVOK 19/14 Q1017

2010/08/10 07:50
EDTL 100750Z 21005KT CAVOK 19/15 Q1017

2010/08/10 07:50
EEKA 100750Z 20007KT 160V240 9999 BKN030 19/15 Q1013

2010/08/10 07:50
EEKE 100750Z 21012KT 9999 BKN019 19/18 Q1014

2010/08/10 07:50
EEPU 100750Z 22012KT 9999 BKN032 21/16 Q1014

2010/08/10 07:50
EETU 100750Z AUTO 22009KT 190V250 9999NDV FEW025/// 21/16 Q1015

2010/08/10 07:50
EFET 100750Z AUTO 05005KT 010V130 9999 BKN009 BKN013 OVC033 11/09 Q1012

2010/08/10 07:50
EFHA 100750Z 22007KT 180V270 9999 SCT030 SCT040CB 19/14 Q1010

2010/08/10 07:50
EFJO 100750Z 18007KT 130V220 9999 FEW027 BKN065 21/16 Q1011

2010/08/10 07:50
EFKA 100750Z 24007KT 9999 SCT008 FEW018TCU BKN070 18/17 Q1008

2010/08/10 07:50
EFKI 100750Z AUTO 22005KT 170V270 //// OVC029 20/17 Q1009

2010/08/10 07:50
EFKS 100750Z AUTO 34003KT 9999 -RA OVC004 14/13 Q1009

2010/08/10 07:50
EFKT 100750Z AUTO 01003KT 9999 OVC012 12/10 Q1012

2010/08/10 07:50
EFLP 100750Z 22009KT 9999 SCT012 BKN060 20/17 Q1012

2010/08/10 07:50
EFMI 100750Z AUTO 18004KT 140V230 CAVOK 19/17 Q1011

2010/08/10 07:50
EFSA 100750Z AUTO 18007KT 130V260 9999NDV FEW040 BKN060 22/16 Q1011

2010/08/10 07:50
EFSI 100750Z AUTO 20005KT 140V250 9999 FEW011 SCT015 BKN040 19/17 Q1009

2010/08/10 07:50
EFUT 100750Z 20005KT 170V230 9999 VCSH FEW020TCU FEW025CB BKN065 19/18 Q1012

2010/08/10 07:50
EFVR 100750Z AUTO 21007KT 160V270 9999 FEW015 SCT019 21/17 Q1011

2010/08/10 07:50
EGCN 100750Z 22010KT 9999 FEW015 15/12 Q1008

2010/08/10 07:50
EGDX 100750Z 25009KT 9999 DZ FEW020 BKN060 15/13 Q1010 BLU

2010/08/10 07:50
EGMH 100750Z 20016KT 4500 -DZ BR BKN006 18/17 Q1011

2010/08/10 07:50
EGNR 100750Z 24011KT 9999 FEW015 SCT048 16/10 Q1008

2010/08/10 07:50
EGOM 100750Z 21008KT 9999 FEW010 SCT060 13/11 Q1004 BLU

2010/08/10 07:50
EGOP 100750Z AUTO 23009KT 2700NDV HZ FEW009/// BKN028/// BKN080/// 14/13 Q1010

2010/08/10 07:50
EGPI 100750Z 26009KT 9999 FEW015 SCT023 13/10 Q1002

2010/08/10 07:50
EGTG 100750Z 19007KT 9999 FEW020 14/12 Q1010

2010/08/10 07:50
EGUB 100750Z 23006KT 9999 -RA FEW026 BKN043 BKN065 13/12 Q1011 NOSIG

2010/08/10 07:50
EGUB 100750Z 23006KT 9999 -RA FEW026 BKN043 BKN065 13/12 Q1011 BLU NOSIG

2010/08/10 07:50
EGUW 100750Z 25005KT 9000 RA FEW012 OVC050 14/13 Q1010 BLU TEMPO 6000 SCT010 GRN

2010/08/10 07:50
EGUY 100750Z 22010KT 9999 FEW020 SCT060 BKN080 14/12 Q1010 BLU

2010/08/10 07:50
EGVN 100750Z 22004KT 9999 FEW008 BKN070 13/11 Q1010 BLU NOSIG

2010/08/10 07:50
EGVN 100750Z 22004KT 9999 FEW008 BKN070 13/11 Q1010 NOSIG

2010/08/10 07:50
EGVO 100750Z 24006KT 9999 -RA FEW006 BKN028 OVC032 14/12 Q1011 BLU TEMPO 6000 -RA SCT007 GRN

2010/08/10 07:50
EGVP 100750Z 25006KT 9999 RA FEW007 SCT070 BKN100 13/11 Q1011 BLU BECMG 5000 BKN007 GRN

2010/08/10 07:50
EGWU 100750Z 28008KT 9999 -RA FEW006 SCT022 BKN035 14/13 Q1011 RERA BECMG FEW015

2010/08/10 07:50
EGWU 100750Z 28008KT 9999 -RA FEW006 SCT022 BKN035 14/13 Q1011 RERA WHT BECMG FEW015 BLU

2010/08/10 07:50
EGXC 100750Z 25011KT 8000 VCSH FEW014 SCT030 BKN100 16/13 Q1008 TEMPO SCT015

2010/08/10 07:50
EGXC 100750Z 25011KT 8000 VCSH FEW014 SCT030 BKN100 16/13 Q1008 BLU TEMPO SCT015 WHT

2010/08/10 07:50
EGXD 100750Z 16005KT 9999 FEW015 SCT050 BKN080 14/12 Q1007 BLU TEMPO 7000 SHRA SCT018 WHT

2010/08/10 07:50
EGXE 100750Z 15005KT 9999 FEW015TCU BKN050 13/12 Q1006 BLU TEMPO SCT022 WHT

2010/08/10 07:50
EGXG 100750Z 21005KT 9999 FEW015 SCT070 15/13 Q1007 BLU

2010/08/10 07:50
EGXJ 100750Z 25013KT 9999 SCT010 BKN025 15/13 Q1009 GRN BECMG FEW010 BKN016 WHT

2010/08/10 07:50
EGXT 100750Z 23010KT 9999 FEW008 BKN027 BKN040 15/13 Q1009 TEMPO 7000 -SHRA SCT020

2010/08/10 07:50
EGXT 100750Z 23010KT 9999 FEW008 BKN027 BKN040 15/13 Q1009 BLU TEMPO 7000 -SHRA SCT020 WHT

2010/08/10 07:50
EGXU 100750Z 17005KT 5000 HZ FEW005 BKN070 14/13 Q1007 WHT BECMG 8000 SCT015 WHT

2010/08/10 07:50
EGXW 100750Z 26010KT 9999 SCT008 BKN040 15/14 Q1008 BLACKGRN BECMG SCT018 WHT

2010/08/10 07:50
EGXX 100750Z 21008KT 9999 FEW008 SCT045 BKN140 15/15 Q1008 BLU

2010/08/10 07:50
EGXZ 100750Z 15005KT 9999 FEW045 BKN070 14/13 Q1007 BLU

2010/08/10 07:50
EGYD 100750Z 25016KT 9999 SCT012 BKN060 15/13 Q1008 BECMG SCT018

2010/08/10 07:50
EGYD 100750Z 25016KT 9999 SCT012 BKN060 15/13 Q1008 GRN BECMG SCT018 WHT

2010/08/10 07:50
EGYH 100750Z 22012KT 9999 FEW010 SCT016 BKN050 16/// Q1009 WHT

2010/08/10 07:50
EGYM 100750Z 23008KT 9999 FEW010 BKN040 13/11 Q1009 RERA BLU TEMPO SCT012 GRN

2010/08/10 07:50
EKGF 100750Z 16024KT 9999 FEW008 17/17 Q1009

2010/08/10 07:50
ENBS 100750Z 20005KT 9999 FEW020 BKN035 11/06 Q1013

2010/08/10 07:50
ENHE 100750Z 04010KT 9999 OVC016 10/08 Q1012

2010/08/10 07:50
ENHK 100750Z 30004KT 9999 FEW025 BKN050 13/09 Q1011

2010/08/10 08:00
EPWR 100800Z VRB02KT 9999 SCT017 22/18 Q1018

2010/08/10 07:50
ESGR 100750Z AUTO 24007KT 210V300 9999NDV OVC018/// 17/14 Q1013

2010/08/10 07:50
ESGT 100750Z 21010KT 9999 BKN020 18/13 Q1013

2010/08/10 07:50
ESMQ 100750Z 25009KT 9999 FEW030 19/12 Q1016

2010/08/10 07:50
ESMT 100750Z 24012KT 9999 FEW020 SCT030 19/14 Q1016

2010/08/10 07:50
ESNG 100750Z 32003KT 290V350 9999 BKN035 15/09 Q1011

2010/08/10 07:50
ESNK 100750Z 36003KT 9999 BKN016 17/14 Q1009

2010/08/10 07:50
ESNL 100750Z AUTO 03003KT 340V080 9999NDV FEW010/// SCT014/// BKN019/// 14/11 Q1011

2010/08/10 07:50
ESNX 100750Z AUTO 07005KT 010V110 9999NDV NCD 15/10 Q1011

2010/08/10 07:50
ESNY 100750Z AUTO 18001KT 9999 FEW003 BKN039 18/18 Q1008

2010/08/10 07:50
ESOE 100750Z 23008KT 200V260 9999 BKN015 17/14 Q1012

2010/08/10 07:50
ESSL 100750Z 27008KT 9999 BKN018 17/13 Q1013

2010/08/10 07:50
ESTA 100750Z 22007KT CAVOK 18/11 Q1016

2010/08/10 07:50
ESTL 100750Z 20005KT CAVOK 18/11 Q1016

2010/08/10 07:50
ESUT 100750Z AUTO 16008KT 9999NDV OVC027/// 15/10 Q1011

2010/08/10 07:55
ETOU 100755Z AUTO 00000KT 9999 CLR 20/15 A3003 RMK AO2 SLP168 T02010146

2010/08/10 07:50
ETUO 100750Z 11003KT CAVOK 20/13 Q1015 BLU

2010/08/10 07:50
EVLA 100750Z 24013KT 9999 SCT027 20/14 Q1016

2010/08/10 07:50
EVVA 100750Z AUTO 21012KT 9999 FEW025 OVC042 19/14 Q1015

2010/08/10 07:50
EYKA 100750Z 22003KT 140V290 CAVOK 23/18 Q1017

2010/08/10 07:50
EYPA 100750Z 27005KT 9999 FEW023 20/14 Q1017 NOSIG

2010/08/10 08:00
FAGC 100800Z AUTO 10016KT //// // ////// 09/M03 Q1032

2010/08/10 08:00
SLLP 100800Z 00000KT 9999 SKC M07/M18 Q1037

2010/08/10 08:00
SLVR 100800Z 14015KT 8000 NSC 15/11 Q1018

2010/08/10 07:51
KABE 100751Z 00000KT 9SM -RA FEW080 24/21 A2993

2010/08/10 07:53
KAGC 100753Z 17005KT 8SM CLR 22/19 A2999

2010/08/10 07:54
KAKR 100754Z AUTO 23005KT 10SM SCT070 24/19 A2996

2010/08/10 07:51
KALB 100751Z 00000KT 2SM BR SCT023 SCT034 21/21 A2994

2010/08/10 07:56
KART 100756Z AUTO 00000KT 5SM BR BKN013 OVC020 21/20 A2993

2010/08/10 07:54
KAVP 100754Z 00000KT 10SM BKN110 23/19 A2996

2010/08/10 07:53
KBAF 100753Z 00000KT 4SM -RA BR FEW070 SCT100 22/21 A2992

2010/08/10 07:51
KBDL 100751Z 00000KT 3SM -RA BR FEW004 BKN065 OVC110 22/21 A2991

2010/08/10 07:52
KBDR 100752Z AUTO 00000KT 9SM FEW047 26/19 A2992

2010/08/10 07:56
KBED 100756Z 25004KT 3SM BR BKN090 OVC110 22/21 A2988

2010/08/10 07:54
KBTV 100754Z 00000KT 1SM BR VV004 18/18 A2991

2010/08/10 07:54
KBUF 100754Z 00000KT 3SM BR FEW043 BKN060 OVC075 22/20 A2995

2010/08/10 07:53
KBVY 100753Z AUTO 00000KT 4SM BR OVC100 22/21 A2988

2010/08/10 07:56
KCAE 100756Z 00000KT 6SM BR CLR 24/22 A3000

2010/08/10 07:51
KCAK 100751Z 23004KT 8SM SCT070 OVC100 24/19 A2997

2010/08/10 07:55
KCEF 100755Z AUTO 24005KT 10SM SCT060 BKN080 22/21 A2991

2010/08/10 07:51
KCMH 100751Z 00000KT 10SM SCT150 BKN250 23/21 A2996

2010/08/10 07:53
KCRQ 100753Z 00000KT 10SM OVC011 18/14 A2991

2010/08/10 07:54
KCRW 100754Z 00000KT 4SM BR FEW001 21/20 A3000

2010/08/10 07:56
KDAY 100756Z 23003KT 6SM HZ CLR 24/21 A2999

2010/08/10 07:55
KDOV 100755Z AUTO 20008KT 10SM CLR 24/24 A2992

2010/08/10 07:51
KERI 100751Z 01004KT 6SM HZ BKN055 OVC080 24/19 A2994

2010/08/10 07:53
KEWB 100753Z AUTO 00000KT 5SM BR FEW050 SCT070 22/21 A2990

2010/08/10 08:02
KFDK 100802Z AUTO 00000KT 7SM CLR 24/22 A2996

2010/08/10 07:53
KFVE 100753Z AUTO 32005KT 4SM BR CLR 15/14 A2982

2010/08/10 07:56
KGON 100756Z AUTO 00000KT 10SM CLR 24/20 A2991

2010/08/10 07:54
KGSO 100754Z 23003KT 7SM CLR 24/21 A3003

2010/08/10 07:53
KGSP 100753Z AUTO 00000KT 10SM CLR 24/22 A3002

2010/08/10 07:56
KHPN 100756Z 34005KT 9SM CLR 25/18 A2994

2010/08/10 07:51
KHTS 100751Z AUTO 00000KT 3SM BR CLR 22/21 A2998

2010/08/10 08:00
LFMI 100800Z AUTO VRB03KT 9999NDV NSC 25/18 Q1015

2010/08/10 08:00
LFMK 100800Z 29009KT 250V320 9999 FEW036 22/15 Q1018 NOSIG

2010/08/10 08:00
LFMO 100800Z AUTO VRB02KT 9999NDV NSC 24/17 Q1016

2010/08/10 08:00
LFMU 100800Z AUTO 28011KT 9999NDV NSC 24/13 Q1016

2010/08/10 08:00
LFMV 100800Z AUTO VRB02KT 9999NDV NSC 24/18 Q1016

2010/08/10 08:00
LFOA 100800Z AUTO 28007KT 250V310 9999NDV NSC 20/13 Q1017

2010/08/10 08:00
LFOJ 100800Z 19005KT CAVOK 18/14 Q1016

2010/08/10 08:00
LFOK 100800Z AUTO 23009KT 9999NDV NSC 21/12 Q1016

2010/08/10 08:00
LFQI 100800Z 23010KT CAVOK 18/14 Q1014

2010/08/10 07:50
LGHI 100750Z 01010KT CAVOK 30/21 Q1007

2010/08/10 07:50
LGKC 100750Z 02007KT 330V060 CAVOK 29/22 Q1012

2010/08/10 07:50
LGNX 100750Z 36011KT 9999 FEW020 29/24 Q1008

2010/08/10 07:50
LGPA 100750Z 35017KT 9999 FEW025 30/23 Q1008

2010/08/10 07:50
LGSO 100750Z 35016KT 9999 FEW020 29/21 Q1008

2010/08/10 08:00
LKCV 100800Z VRB01KT 9999 FEW030 SCT090 20/15 Q1018 NOSIG

2010/08/10 08:00
LKCV 100800Z VRB01KT 9999 FEW030 SCT090 20/15 Q1018 NOSIG RMK BLU+ BLU+

2010/08/10 08:00
LKKB 100800Z VRB02KT 9999 FEW014 20/15 Q1018 NOSIG

2010/08/10 08:00
LKKV 100800Z VRB01KT 9999 FEW026 18/14 Q1019

2010/08/10 08:00
LKLN 100800Z AUTO VRB01KT CAVOK 16/15 Q1019

2010/08/10 08:00
LKNA 100800Z 00000KT 9999 FEW033 20/12 Q1019 NOSIG

2010/08/10 08:00
LKNA 100800Z 00000KT 9999 FEW033 20/12 Q1019 NOSIG RMK BLU+ BLU+

2010/08/10 08:00
LKPD 100800Z VRB01KT 9999 FEW014 18/16 Q1019 NOSIG

2010/08/10 08:00
LKPD 100800Z VRB01KT 9999 FEW014 18/16 Q1019 NOSIG RMK BLU+ BLU+

2010/08/10 08:00
LKPO 100800Z 28003KT 220V040 9999 FEW016 19/15 Q1018 NOSIG

2010/08/10 08:00
LKPO 100800Z 28003KT 220V040 9999 FEW016 19/15 Q1018 NOSIG RMK BLU+ BLU+

2010/08/10 07:50
LLIB 100750Z 11007KT CAVOK 29/20 Q1008

2010/08/10 07:50
LLSD 100750Z 25008KT 9999 FEW025 28/22 Q1007

2010/08/10 07:50
LOXT 100750Z VRB03KT 50KM FEW035CU 20/14 Q1019 NOSIG RMK FEW

2010/08/10 07:50
LOXZ 100750Z VRB03KT 30KM FEW018CU SCT270CI 18/14 Q1020 NOSIG RMK SCT

2010/08/10 08:00
LQBK 100800Z 09002KT 9999 FEW027 22/18 Q1017 NOSIG

2010/08/10 08:00
LQMO 100800Z VRB02KT CAVOK 29/13 Q1012

2010/08/10 07:50
LTAB 100750Z 04003KT 350V100 CAVOK 31/09 Q1013 NOSIG RMK RWY06 VRB03KT

2010/08/10 07:50
LTAE 100750Z 12003KT 050V220 CAVOK 31/11 Q1013 NOSIG RMK RWY21 12003KT

2010/08/10 07:50
LTAZ 100750Z VRB03KT CAVOK 30/08 Q1013

2010/08/10 07:50
LTBR 100750Z VRB03KT 9999 FEW035 30/20 Q1011 NOSIG

2010/08/10 07:50
LTBU 100750Z 03014KT 9999 SCT030 29/21 Q1011

2010/08/10 07:50
LTCF 100750Z 06008G18KT 310V120 CAVOK 26/10 Q1020

2010/08/10 07:50
LTFH 100750Z 33005KT 260V030 9999 FEW036 31/23 Q1008 NOSIG

2010/08/10 07:50
LTFJ 100750Z 04007KT 350V080 9999 SCT035 30/22 Q1010 NOSIG

2010/08/10 08:00
LZKC 100800Z 31001KT 9999 SCT027 22/17 Q1017

2010/08/10 08:00
LZLU 100800Z VRB01KT 9999 FEW030 21/16 Q1018

2010/08/10 08:00
LZNI 100800Z VRB01KT 9999 FEW025 22/16 Q1018

2010/08/10 08:00
LZPE 100800Z 00000KT 9999 FEW021 22/15 Q1018

2010/08/10 08:00
LZPP 100800Z VRB02KT 9999 FEW016 20/16 Q1018

2010/08/10 08:00
LZSL 100800Z 26002KT 9999 FEW033 20/14 Q1018

2010/08/10 08:00
LZZI 100800Z VRB02KT 9999 FEW016 18/13 Q1018

2010/08/10 08:00
UHHH 100800Z 22008MPS 9999 FEW026 SCT100 27/19 Q1005 NOSIG

2010/08/10 07:50
MUHG 100750Z 34002KT 5000 VCFG FEW020 24/23 Q1013

2010/08/10 08:00
FAJB 100800Z AUTO 10006G17KT //// // ////// 09/M04 Q1033

2010/08/10 08:00
FAMM 100800Z 13009KT CAVOK 09/M11 Q1033 NOSIG

2010/08/10 08:00
FAPP 100800Z 06007KT CAVOK 13/04 Q1031 NOSIG

2010/08/10 08:00
FASI 100800Z AUTO 10013KT //// // ////// 10/M03 Q1033

2010/08/10 08:00
FAVV 100800Z AUTO 10011KT //// // ////// 09/M05 Q1031

2010/08/10 08:00
FMEP 100800Z 15006KT 110V190 9999 FEW013 FEW040TCU BKN083 25/16 Q1023

2010/08/10 08:00
FMNA 100800Z 160//KT 9999 VCSH FEW017 BKN033 26/21 Q1016

2010/08/10 08:00
FMSD 100800Z VRB02KT 9999 FEW020 BKN040 24/18 Q1020

2010/08/10 08:00
FQIN 100800Z 20014KT 9999 BKN020 BKN090 20/14 Q1028

2010/08/10 08:00
FQNP 100800Z 11003KT CAVOK 28/10 Q1022

2010/08/10 08:00
FQQL 100800Z 17004KT 120V220 9999 FEW020 28/21 Q1021

2010/08/10 08:00
FYML 100800Z AUTO 11004KT //// // ////// ///// Q1036

2010/08/10 08:00
FYOA 100800Z 08010KT CAVOK 19/M07 Q1025

2010/08/10 08:00
FYWW 100800Z 13015KT CAVOK 08/M16 Q1027

2010/08/10 08:00
GMAD 100800Z 25005KT 0400 R28///// FG OVC003 20/20 Q1015 BECMG 1500 BR OVC005

2010/08/10 08:00
GMFM 100800Z 20004KT CAVOK 33/11 Q1019

2010/08/10 08:00
GMMC 100800Z 12002KT 5000 NSC 30/21 Q1013

2010/08/10 08:00
GMML 100800Z 03009KT 6000 SCT016 BKN100 22/19 Q1015

2010/08/10 08:00
GMMW 100800Z 6000 BKN016 SCT100 24/21 Q1017

2010/08/10 08:00
GMMZ 100800Z 24006KT CAVOK 26/11 Q1025

2010/08/10 08:02
KCBE 100802Z AUTO 00000KT 10SM CLR 21/20 A3002 RMK AO1

2010/08/10 07:55
KEGI 100755Z AUTO 00000KT 5SM R18/4500V5000FT BR CLR 24/23 A2992 RMK AO2 SLP130 T02400233 $

2010/08/10 08:06
KESN 100806Z AUTO 20004KT 10SM CLR 24/23 A2998 RMK AO2

2010/08/10 08:03
KFME 100803Z AUTO 00000KT 4SM CLR 20/20 A2995 RMK AO1

2010/08/10 07:55
KGYH 100755Z AUTO 00000KT 10SM CLR 27/21 A3003 RMK AO2

2010/08/10 08:00
LBGO 100800Z 29004MPS 240V320 CAVOK 26/19 Q1015 NOSIG

2010/08/10 08:00
LDLO 100800Z 02007KT CAVOK 28/17 Q1015

2010/08/10 08:00
LDSB 100800Z 03004KT CAVOK 25/11 Q1015

2010/08/10 08:00
LEAB 100800Z VRB02KT CAVOK 26/13 Q1020 NOSIG

2010/08/10 08:00
LEBA 100800Z VRB02KT CAVOK 29/12 Q1016

2010/08/10 08:00
LEBZ 100800Z 24001KT CAVOK 29/16 Q1016

2010/08/10 08:00
LELN 100800Z 00000KT CAVOK 19/11 Q1021

2010/08/10 08:00
LESA 100800Z 00000KT CAVOK 24/16 Q1021

2010/08/10 08:00
LETO 100800Z VRB01KT CAVOK 25/14 Q1019 NOSIG

2010/08/10 08:00
LFBE 100800Z 00000KT CAVOK 19/13 Q1019 NOSIG

2010/08/10 08:00
LFBG 100800Z AUTO VRB02KT 9999NDV OVC018 18/14 Q1019

2010/08/10 08:00
LFCR 100800Z AUTO VRB02KT 9999NDV SCT019 19/13 Q1019

2010/08/10 08:00
LFJL 100800Z AUTO 19007KT 160V230 9999NDV NSC 22/12 Q1017

2010/08/10 08:00
LFLX 100800Z 25010KT CAVOK 19/13 Q1017 NOSIG

2010/08/10 08:00
OIIE 100800Z 11012G22KT 9999 FEW050 33/00 Q1014 A2995

2010/08/10 08:00
OSDZ 100800Z 30006KT CAVOK 34/18 Q1006

2010/08/10 08:00
OSKL 100800Z VRB03KT CAVOK 37/08 Q1006

2010/08/10 08:00
OYSQ 100800Z 21038G48KT 9999 FEW018 31/23 Q1009

2010/08/10 08:00
RJBB 100800Z 23012KT 9999 FEW015 SCT100 BKN140 30/24 Q1013 NOSIG

2010/08/10 08:00
RJBH 100800Z 23006KT 9999 FEW030 BKN130 BKN/// 30/22 Q1011

2010/08/10 08:00
RJBT 100800Z 18006KT 9999 FEW003 BKN100 26/24 Q1013

2010/08/10 08:00
RJFS 100800Z 16019KT 9999 FEW030 SCT040 BKN130 31/23 Q1007

2010/08/10 08:00
RJGG 100800Z 17010KT 9999 VCSH FEW010 SCT020 BKN070 27/25 Q1013 NOSIG

2010/08/10 08:00
RJNW 100800Z 20003KT 9999 FEW020 SCT070 BKN150 27/24 Q1014

2010/08/10 08:00
RJOW 100800Z 14009KT 9999 FEW035 SCT130 BKN/// 31/19 Q1009

2010/08/10 08:00
RJSF 100800Z 18008KT 9999 FEW020 BKN/// 29/23 Q1015

2010/08/10 08:00
RJSR 100800Z 28009KT 9999 FEW050 BKN/// 29/23 Q1012

2010/08/10 08:00
RJSY 100800Z 31003KT 280V350 9999 FEW030 BKN/// 31/20 Q1011

2010/08/10 08:00
ROIG 100800Z 20009KT 9999 FEW015 BKN150 BKN/// 29/27 Q1007

2010/08/10 08:00
ROMY 100800Z 19009KT 9999 -RA FEW015 SCT050 BKN100 28/27 Q1008

2010/08/10 08:00
RORS 100800Z 22007KT 9999 VCSH FEW010 FEW015TCU BKN170 29/27 Q1007

2010/08/10 08:00
RPLI 100800Z 22010KT 9999 SCT019CB FEW020 BKN100 30/26 Q1006 RESHRA

2010/08/10 08:00
UBBN 100800Z 11010KT 9999 FEW100 34/07 Q1011 R14R/CLRD60 NOSIG RMK G/O QFE683

2010/08/10 08:00
WBGB 100800Z 35005KT 9999 FEW016 BKN150 32/27 Q1006

2010/08/10 08:00
WBGR 100800Z 34005KT 9999 FEW014 SCT150 BKN300 30/26 Q1006

2010/08/10 08:00
WBGS 100800Z 14003KT 9999 SCT018 SCT150 BKN300 34/24 Q1006

2010/08/10 08:00
WBGY 100800Z 16001KT 9999 SCT023 BKN300 34/24 Q1006

2010/08/10 08:00
YWLM 100800Z 04007KT 9999 -RA BKN060 BKN090 16/15 Q1013 INTER 0800/1000 4000 RA SCT007 BKN010 FM0800 MOD TURB BLW 5000FT

2010/08/10 08:00
WBKL 100800Z 29004KT 9999 FEW014 SCT140 BKN290 31/26 Q1006

2010/08/10 08:00
WBKS 100800Z 06010KT 9999 FEW017 FEW018CB BKN300 31/25 Q1007

2010/08/10 08:00
WBKT 100800Z 36005KT 9999 FEW016 BKN270 32/23 Q1007

2010/08/10 08:00
WBKW 100800Z 16007KT 9999 FEW018 BKN300 30/25 Q1007

2010/08/10 08:00
YPKU 100800Z AUTO 18009KT 9999NDV // NCD 27/M03 Q1013

2010/08/10 08:00
YSTW 100800Z AUTO 32002KT 9999NDV // OVC028 15/13 Q1013

2010/08/10 08:00
YSWG 100800Z AUTO 02011KT 9999NDV // SCT042 BKN061 OVC073 12/08 Q1008

2010/08/10 08:00
YTEF 100800Z AUTO 11015KT //// // ////// 20/M04 Q1019

2010/08/10 08:00
YTNK 100800Z AUTO 19007KT 9999NDV // NCD 21/M06 Q1018

2010/08/10 08:00
YTRE 100800Z AUTO 03008KT //// // ////// 17/16 Q1014

2010/08/10 08:00
YWGT 100800Z AUTO 32016G27KT //// // ////// 09/09 Q1009

2010/08/10 08:00
YWHA 100800Z AUTO 20015KT 9999NDV // NCD 13/08 Q1015

2010/08/10 08:00
YWLM 100800Z 04007KT 9999 -RA BKN060 BKN090 16/15 Q1013

2010/08/10 08:00
ZBHH 100800Z 19001MPS 9999 SCT040 28/10 Q1009 NOSIG

2010/08/10 08:00
ZBSJ 100800Z 08001MPS 8000 NSC 29/23 Q1006 NOSIG

2010/08/10 08:00
ZGKL 100800Z 19003MPS 140V230 8000 SCT043 36/23 Q1003 NOSIG

2010/08/10 08:00
ZGOW 100800Z 17005MPS 9999 FEW020 32/26 Q1005 NOSIG

2010/08/10 08:00
ZJHK 100800Z 07003MPS 040V110 9999 FEW020 SCT030CB 31/25 Q1003 TEMPO VRB07MPS TS

2010/08/10 08:00
ZLXY 100800Z 08004MPS 010V130 5000 HZ NSC 35/24 Q1002 NOSIG

2010/08/10 08:00
ZSQD 100800Z VRB01MPS 9999 FEW033 32/24 Q1003 NOSIG

2010/08/10 08:00
ZWSH 100800Z 16005MPS CAVOK 32/06 Q1008 NOSIG

2010/08/10 08:00
ZYCC 100800Z 27003MPS 240V310 9999 FEW030 27/14 Q1006 NOSIG

2010/08/10 08:00
ZYTX 100800Z 27002MPS 7000 FEW030 28/22 Q1006 NOSIG

2010/08/10 07:53
KHUL 100753Z AUTO 00000KT 6SM BR CLR 14/14 A2981

2010/08/10 07:53
KHVN 100753Z AUTO 00000KT 10SM FEW110 26/19 A2992

2010/08/10 07:53
KIAG 100753Z AUTO 00000KT 3SM BR FEW045 OVC055 22/21 A2994

2010/08/10 07:51
KILG 100751Z 19005KT 9SM CLR 24/22 A2994

2010/08/10 07:53
KILM 100753Z AUTO 19003KT 10SM CLR 25/23 A3001

2010/08/10 07:54
KINT 100754Z AUTO 23003KT 10SM CLR 26/21 A3004

2010/08/10 07:55
KLSV 100755Z AUTO 06008KT 10SM CLR 25/M01 A2983

2010/08/10 07:53
KLUK 100753Z AUTO 00000KT 3SM BR CLR 23/22 A2997

2010/08/10 07:54
KLWM 100754Z AUTO 21005KT 3SM BR BKN110 22/21 A2990

2010/08/10 07:56
KMDT 100756Z 00000KT 7SM BKN200 27/22 A2991

2010/08/10 08:00
KMMU 100800Z AUTO 00000KT 10SM -RA CLR 23/20 A2993

2010/08/10 07:53
KMSS 100753Z AUTO 22004KT 10SM OVC006 22/21 A2991

2010/08/10 07:54
KORH 100754Z AUTO 28005KT 9SM SCT050 BKN100 OVC120 21/20 A2993

2010/08/10 07:55
KPQI 100755Z AUTO 00000KT 2 1/2SM CLR 13/12 A2979

2010/08/10 07:55
KPSM 100755Z 23003KT 4SM BR SCT050 OVC120 21/21 A2987

2010/08/10 07:51
KPVD 100751Z 00000KT 9SM FEW075 SCT095 SCT120 OVC150 23/19 A2992

2010/08/10 07:51
KPWM 100751Z AUTO 30006KT 10SM FEW095 21/19 A2987

2010/08/10 07:54
KRIC 100754Z 22004KT 9SM FEW060 24/21 A2997

2010/08/10 07:54
KROC 100754Z 22003KT 2 1/2SM BR SCT060 BKN075 OVC080 21/21 A2994

2010/08/10 07:54
KSYR 100754Z 00000KT 3SM BR FEW020 BKN028 OVC046 21/21 A2994

2010/08/10 08:00
KWDR 100800Z AUTO 00000KT 7SM CLR 23/21 A3005

2010/08/10 07:55
KWRI 100755Z AUTO 22004KT 9SM CLR 23/22 A2991

2010/08/10 08:00
FIMR 100800Z 10020KT 9999 FEW018 26/16 Q1023

2010/08/10 08:04
KBTV 100804Z 00000KT 1/4SM FG VV001 18/18 A2991

2010/08/10 08:00
LPAZ 100800Z 04007KT 9999 FEW018 BKN034 21/16 Q1020

2010/08/10 08:00
LPHR 100800Z 01004KT 9999 FEW016 BKN040 20/15 Q1022

2010/08/10 08:00
LPLA 100800Z 00000KT 9999 FEW018 BKN035 21/17 Q1022

2010/08/10 08:00
LPPD 100800Z 05004KT 360V080 9999 FEW020 BKN040 20/14 Q1020

2010/08/10 08:04
PASY 100804Z AUTO 29010KT 3/4SM BR VV001 09/08 A2988 RMK AO2 TSNO PNO $ 

2010/08/10 08:03
KHTS 100803Z AUTO 00000KT 2 1/2SM BR CLR 22/21 A2998

2010/08/10 07:53
KAMA 100753Z AUTO 20010KT 10SM CLR 21/17 A3005

2010/08/10 07:53
KAUS 100753Z 19004KT 10SM CLR 26/24 A2993

2010/08/10 07:53
KBPT 100753Z AUTO 00000KT 10SM CLR 26/24 A2990

2010/08/10 08:00
KBQK 100800Z AUTO 11003KT 10SM CLR 28/25 A2997

2010/08/10 07:53
KBRO 100753Z 17005KT 10SM CLR 28/26 A2989

2010/08/10 07:53
KBTR 100753Z 00000KT 8SM SCT004 BKN200 25/24 A2992

2010/08/10 07:53
KCHA 100753Z 00000KT 10SM CLR 26/24 A3000

2010/08/10 07:51
KCRP 100751Z 20003KT 10SM FEW018 27/26 A2990

2010/08/10 07:53
KDAL 100753Z 20004KT 10SM CLR 31/20 A2989

2010/08/10 07:53
KDRT 100753Z AUTO 12007G18KT 10SM CLR 29/23 A2991

2010/08/10 07:51
KELP 100751Z 18003KT 10SM FEW160 26/14 A3003

2010/08/10 07:53
KEYW 100753Z AUTO 18011KT 10SM -RA FEW008 SCT017 BKN110 27/24 A2983

2010/08/10 07:53
KFPR 100753Z AUTO 13009KT 10SM FEW023 SCT050 27/24 A2990

2010/08/10 07:53
KFTW 100753Z 20005KT 10SM CLR 28/20 A2989

2010/08/10 07:53
KFTY 100753Z 00000KT 4SM BR CLR 23/22 A3001

2010/08/10 07:53
KFXE 100753Z 13007KT 10SM SCT025 SCT040 27/23 A2988

2010/08/10 07:52
KGLS 100752Z AUTO 22003KT 10SM FEW022 29/25 A2991

2010/08/10 07:53
KGPT 100753Z AUTO 00000KT 7SM CLR 27/24 A2991

2010/08/10 07:53
KHOU 100753Z 24003KT 10SM FEW250 27/24 A2990

2010/08/10 07:52
KHRL 100752Z AUTO 11003KT 10SM CLR 26/26 A2989

2010/08/10 07:53
KHSV 100753Z 11003KT 5SM BR FEW200 26/24 A2998

2010/08/10 07:53
KLCH 100753Z AUTO 00000KT 10SM CLR 26/24 A2990

2010/08/10 07:55
KLGC 100755Z AUTO 00000KT 8SM CLR 22/22 A2998

2010/08/10 07:56
KLRD 100756Z AUTO 16010KT 10SM CLR 29/25 A2994

2010/08/10 07:53
KMAF 100753Z AUTO 14004KT 10SM CLR 21/19 A3000

2010/08/10 07:53
KMFE 100753Z AUTO 14004KT 10SM SCT018 SCT023 BKN033 28/26 A2990

2010/08/10 07:53
KMGM 100753Z 08003KT 8SM SCT070 26/23 A2994

2010/08/10 07:56
KMOB 100756Z 01003KT 10SM FEW250 26/24 A2994

2010/08/10 07:53
KNEW 100753Z AUTO 05006KT 9SM FEW012 28/26 A2992

2010/08/10 07:53
KOPF 100753Z AUTO 13006KT 10SM FEW027 BKN065 26/24 A2988

2010/08/10 08:00
KOPN 100800Z AUTO 12004KT 10SM CLR 26/23 A3001

2010/08/10 08:00
OIBA 100800Z 03012KT CAVOK 36/28 Q1000 A2953

2010/08/10 08:00
OIBV 100800Z 12014KT 7000 SKC 36/30 Q0999 A2952

2010/08/10 08:00
OIFS 100800Z 00000KT CAVOK 28/02 Q1022 A3020

2010/08/10 08:00
OIIP 100800Z 12014KT CAVOK 32/04 Q1016

2010/08/10 08:00
OIMB 100800Z 05012KT CAVOK 31/12 Q1015 A2999

2010/08/10 08:00
OIMN 100800Z 34006KT CAVOK 31/04 Q1016 A3003

2010/08/10 08:00
OIZJ 100800Z 09018KT 5000 SA NSC 32/27 Q1002 A2960

2010/08/10 07:53
KPDK 100753Z AUTO 00000KT 10SM CLR 26/21 A3002

2010/08/10 07:53
KPIE 100753Z AUTO 10010KT 10SM FEW015 26/23 A2987

2010/08/10 07:53
KPNS 100753Z AUTO 36006KT 7SM CLR 26/24 A2991

2010/08/10 07:53
KRSW 100753Z AUTO 10009KT 10SM OVC008 25/23 A2985

2010/08/10 07:53
KSAT 100753Z 18006KT 10SM BKN014 OVC021 27/24 A2996

2010/08/10 07:53
KSAV 100753Z 00000KT 10SM FEW023 26/24 A2999

2010/08/10 07:56
KSHV 100756Z 11003KT 10SM SCT290 27/23 A2991

2010/08/10 07:53
KSSI 100753Z AUTO 13011KT 10SM FEW026 28/23 A2996

2010/08/10 07:53
KTMB 100753Z AUTO 12005KT 10SM CLR 27/23 A2987

2010/08/10 07:53
KTUL 100753Z 19010KT 10SM CLR 31/19 A2989

2010/08/10 07:53
KTYS 100753Z 00000KT 9SM CLR 27/22 A3000

2010/08/10 08:03
KTOL 100803Z 00000KT 1 3/4SM BR CLR 22/21 A2996

2010/08/10 08:05
CYWA 100805Z AUTO 00000KT 5/8SM CLR 13/13 A2991 RMK VSBY VRBL 0.1V9.+

2010/08/10 08:04
CYYN 100804Z AUTO 21006KT 9SM -RA BKN023 OVC098 18/15 A2985

2010/08/10 08:03
KEAU 100803Z AUTO 04004KT 5SM BR CLR 21/20 A2994

2010/08/10 08:05
YAMB 100805Z AUTO 10007KT 4000NDV // SCT003 BKN016 OVC086 18/18 Q1017

2010/08/10 08:00
WMBA 100800Z 20005KT 9999 SCT020TCU SCT140 BKN280 32/25 Q1005

2010/08/10 08:00
WMKA 100800Z 30004KT 9999 FEW020 SCT140 BKN270 31/26 Q1006

2010/08/10 08:00
WMKB 100800Z 31009KT 250V350 7000 SCT020 SCT140 BKN270 31/26 Q1006 NOSIG

2010/08/10 08:00
WMKC 100800Z 01006KT 9999 FEW018 SCT140 BKN220 31/26 Q1006

2010/08/10 08:00
WMKD 100800Z 17004KT 9999 SCT020 BKN280 33/26 Q1006 NOSIG

2010/08/10 08:00
WMKI 100800Z 22004KT 9999 FEW020 BKN280 33/24 Q1005

2010/08/10 08:00
WMKL 100800Z 25003KT 9999 FEW002 BKN270 31/26 Q1006

2010/08/10 08:00
WMKM 100800Z 14005KT 9999 FEW022 BKN140 31/25 Q1007

2010/08/10 08:00
WMKN 100800Z 10007KT 9999 SCT018 OVC220 31/28 Q1005

2010/08/10 08:03
KGRR 100803Z AUTO 00000KT 1/2SM FG VV001 20/19 A2997

2010/08/10 07:53
KAZO 100753Z AUTO 00000KT 1 1/4SM BR CLR 21/21 A2997

2010/08/10 07:53
KBDE 100753Z AUTO 00000KT 10SM CLR 21/19 A2992

2010/08/10 07:53
KBTL 100753Z AUTO 00000KT 5SM BR CLR 21/20 A2999

2010/08/10 07:53
KBTM 100753Z AUTO 32004KT 10SM OVC095 13/10 A3003

2010/08/10 07:55
KCIU 100755Z AUTO 03006KT 1/2SM OVC002 20/19 A2997

2010/08/10 07:53
KCMX 100753Z AUTO 00000KT 10SM CLR 17/17 A2996

2010/08/10 07:54
KCOS 100754Z AUTO 08008KT 10SM BKN100 18/13 A3017

2010/08/10 07:53
KCPR 100753Z AUTO 18006KT 10SM CLR 17/02 A3004

2010/08/10 07:53
KDET 100753Z 00000KT 8SM CLR 22/21 A2995

2010/08/10 07:55
KDLH 100755Z 00000KT 10SM CLR 21/18 A2998

2010/08/10 07:54
KDSM 100754Z 13012KT 10SM -TSRA SCT015 OVC080CB 23/21 A2987

2010/08/10 07:53
KELO 100753Z AUTO 00000KT 10SM CLR 18/17 A2997

2010/08/10 07:53
KFAR 100753Z 15005KT 10SM CLR 24/19 A2989

2010/08/10 07:53
KFNT 100753Z 00000KT 1/4SM FG 21/20 A2996

2010/08/10 07:53
KGFK 100753Z 18003KT 10SM FEW250 21/19 A2988

2010/08/10 07:53
KGRB 100753Z AUTO 00000KT 1/4SM FG VV001 21/21 A2995

2010/08/10 07:53
KGRR 100753Z AUTO 00000KT 2SM BR CLR 20/19 A2997

2010/08/10 07:53
KICT 100753Z 16008KT 10SM SCT100 28/21 A2989

2010/08/10 07:55
KINL 100755Z AUTO 00000KT 10SM FEW090 18/17 A2994

2010/08/10 07:52
KISN 100752Z 02008KT 10SM -RA FEW070 OVC110 20/17 A2979

2010/08/10 07:54
KLEX 100754Z 16003KT 9SM CLR 24/21 A2999

2010/08/10 07:53
KMBS 100753Z 34007KT 10SM CLR 22/21 A2996

2010/08/10 07:51
KMDW 100751Z 06004KT 10SM SCT085 SCT250 26/21 A2993

2010/08/10 07:54
KMKC 100754Z 22005KT 10SM CLR 29/22 A2987

2010/08/10 07:52
KMKE 100752Z 00000KT 3SM BR FEW250 22/21 A2993

2010/08/10 07:52
KMLI 100752Z 09003KT 10SM CLR 24/23 A2991

2010/08/10 07:54
KMOT 100754Z AUTO 08005KT 10SM BKN046 21/17 A2987

2010/08/10 07:52
KOMA 100752Z 15006KT 10SM FEW250 28/26 A2984

2010/08/10 07:54
KAPN 100754Z AUTO 27003KT 7SM CLR 19/18 A2996

2010/08/10 07:55
KPHN 100755Z AUTO 00000KT 1/4SM FG OVC001 17/17 A2995

2010/08/10 07:53
KPTK 100753Z 33003KT 6SM BR FEW140 22/22 A2995

2010/08/10 07:53
KPUB 100753Z AUTO 00000KT 10SM CLR 15/14 A3006

2010/08/10 07:59
KSAW 100759Z AUTO 00000KT 7SM CLR 18/17 A2997

2010/08/10 07:56
KSDF 100756Z 00000KT 8SM CLR 28/23 A2995

2010/08/10 07:52
KSGF 100752Z 16005KT 10SM CLR 27/23 A2995

2010/08/10 07:53
KSTP 100753Z AUTO 00000KT 9SM CLR 24/22 A2993

2010/08/10 07:54
KSUS 100754Z AUTO 00000KT 8SM CLR 26/24 A2989

2010/08/10 07:52
KTOL 100752Z 00000KT 2SM BR CLR 22/21 A2996

2010/08/10 08:04
KBTV 100804Z 00000KT 1/4SM FG VV001 18/18 A2991

2010/08/10 07:53
KBFI 100753Z 20005KT 10SM OVC017 15/12 A2997

2010/08/10 07:53
KBIL 100753Z 23005KT 10SM FEW100 16/13 A2992

2010/08/10 07:53
KBKE 100753Z AUTO 00000KT 10SM BKN100 13/09 A2992

2010/08/10 07:53
KBLI 100753Z AUTO 17005KT 10SM BKN065 OVC095 14/12 A2994

2010/08/10 07:53
KBOI 100753Z 13011KT 10SM TS CLR 20/13 A2983

2010/08/10 07:53
KCLM 100753Z AUTO 27004KT 10SM OVC007 12/11 A2997

2010/08/10 07:56
KCTB 100756Z AUTO 35003KT 10SM CLR 14/09 A2985

2010/08/10 07:56
KDUG 100756Z AUTO 06006KT 10SM CLR 20/18 A3006

2010/08/10 07:53
KFAT 100753Z 31008KT 10SM CLR 23/14 A2981

2010/08/10 07:55
KGDV 100755Z AUTO 34017G24KT 10SM CLR 19/15 A2980

2010/08/10 07:53
KGEG 100753Z 18010KT 10SM BKN130 18/03 A2980

2010/08/10 07:53
KGGW 100753Z AUTO 21015G20KT 10SM SCT080 19/17 A2978

2010/08/10 07:53
KGLH 100753Z AUTO 18003KT 10SM CLR 24/23 A2993

2010/08/10 07:55
KGPI 100755Z AUTO 27004KT 10SM SCT100 13/09 A2984

2010/08/10 07:53
KGTF 100753Z 19006KT 10SM CLR 16/09 A2986

2010/08/10 07:53
KGWO 100753Z AUTO 21003KT 7SM CLR 24/24 A2994

2010/08/10 07:53
KHLN 100753Z AUTO 27004KT 10SM CLR 13/11 A2992

2010/08/10 07:53
KHQM 100753Z AUTO 00000KT 10SM OVC011 13/11 A2999

2010/08/10 07:53
KHVR 100753Z AUTO 21008KT 10SM CLR 17/15 A2981

2010/08/10 07:53
KIPL 100753Z AUTO 00000KT 10SM CLR 28/02 A2973

2010/08/10 07:53
KLBB 100753Z 12004KT 10SM CLR 20/17 A3004

2010/08/10 07:53
KMSO 100753Z AUTO 13008KT 10SM CLR 15/11 A2990

2010/08/10 07:52
KMWH 100752Z AUTO 30010KT 10SM FEW085 19/09 A2981

2010/08/10 07:56
KNUW 100756Z 24006KT 8SM FEW008 BKN012 OVC045 14/11 A2996

2010/08/10 07:53
KOLF 100753Z AUTO 28009KT 6SM VCTS RA BR OVC050 19/17 A2981

2010/08/10 07:54
KOLM 100754Z AUTO 21006KT 10SM OVC014 13/11 A2998

2010/08/10 07:54
KOLS 100754Z AUTO 04003KT 10SM CLR 21/15 A3005

2010/08/10 07:55
KOLV 100755Z AUTO 00000KT 7SM CLR 25/ A2995

2010/08/10 07:53
KPAE 100753Z AUTO 20005KT 10SM OVC032 14/12 A2996

2010/08/10 07:53
KPDX 100753Z 33006KT 10SM OVC038 15/11 A3000

2010/08/10 07:53
KPMD 100753Z AUTO 16003KT 10SM CLR 19/05 A2992

2010/08/10 07:55
KRNO 100755Z 19003KT 10SM CLR 20/04 A3001

2010/08/10 07:53
KRNT 100753Z AUTO 16006KT 10SM OVC016 15/12 A2997

2010/08/10 07:53
KSAC 100753Z 16005KT 10SM CLR 16/12 A2984

2010/08/10 07:55
KSCK 100755Z 02004KT 10SM CLR 17/12 A2983

2010/08/10 07:53
KSDM 100753Z AUTO 00000KT 10SM OVC010 16/14 A2992

2010/08/10 07:53
KSFF 100753Z AUTO 05003KT 10SM CLR 18/04 A2980

2010/08/10 07:53
KSJC 100753Z AUTO 00000KT 10SM OVC012 15/12 A2991

2010/08/10 07:53
KSLC 100753Z 15006KT 10SM CLR 18/04 A2999

2010/08/10 07:53
KSMF 100753Z 16009KT 10SM CLR 16/12 A2982

2010/08/10 07:53
KTIW 100753Z 22005KT 10SM FEW008 OVC014 13/11 A2997

2010/08/10 07:53
KTUS 100753Z 00000KT 10SM CLR 28/14 A2996

2010/08/10 08:03
KGRR 100803Z AUTO 00000KT 1/2SM FG VV001 20/19 A2997

2010/08/10 08:03
KHTS 100803Z AUTO 00000KT 2 1/2SM BR CLR 22/21 A2998

2010/08/10 07:54
KACY 100754Z 21006KT 10SM CLR 24/22 A2995

2010/08/10 07:53
KAUG 100753Z AUTO 29004KT 10SM CLR 21/18 A2987

2010/08/10 07:54
KAVL 100754Z AUTO 00000KT 5SM BR OVC004 20/19 A3011

2010/08/10 07:53
KBGM 100753Z AUTO 30003KT 3SM -RA BR FEW001 OVC070 20/19 A3001

2010/08/10 07:51
KBKW 100751Z AUTO 00000KT 5SM BR CLR 19/17 A3010

2010/08/10 08:02
KCBE 100802Z AUTO 00000KT 10SM CLR 21/20 A3002

2010/08/10 07:51
KCON 100751Z AUTO 00000KT 3SM BR CLR 21/21 A2990

2010/08/10 07:52
KDCA 100752Z 19005KT 9SM BKN250 26/20 A2994

2010/08/10 07:51
KEKN 100751Z AUTO 00000KT 1/2SM FG BKN001 OVC006 17/17 A3007

2010/08/10 08:06
KESN 100806Z AUTO 20004KT 10SM CLR 24/23 A2998

2010/08/10 07:53
KGFL 100753Z AUTO 00000KT 2 1/2SM BR SCT002 OVC036 20/20 A2992

2010/08/10 07:53
KGSP 100753Z AUTO 00000KT 10SM CLR 24/22 A3002

2010/08/10 08:00
KIPJ 100800Z AUTO 00000KT 3SM BR CLR 22/22 A3003

2010/08/10 07:54
KIPT 100754Z AUTO 00000KT 9SM CLR 22/19 A2994

2010/08/10 07:54
KLYH 100754Z AUTO 00000KT 5SM BR CLR 22/21 A3001

2010/08/10 07:53
KMHT 100753Z 00000KT 1/2SM R35/P6000FT -RA FG BKN003 22/21 A2987

2010/08/10 07:51
KMPV 100751Z AUTO 00000KT 1/4SM FG VV001 18/18 A2998

2010/08/10 07:52
KMWN 100752Z 33022KT 100SM BKN/// FEW100 SCT200 09/07

2010/08/10 07:55
KMYR 100755Z AUTO 00000KT 10SM FEW020 26/24 A3004

2010/08/10 07:51
KNYC 100751Z VRB04KT 10SM CLR 26/18 A2995

2010/08/10 07:54
KPNE 100754Z 22004KT 10SM CLR 26/22 A2993

2010/08/10 07:54
KROA 100754Z 29003KT 8SM CLR 23/21 A3003

2010/08/10 07:53
KSMQ 100753Z AUTO 00000KT 9SM CLR 23/19 A2991

2010/08/10 07:54
KWAL 100754Z AUTO 24005KT 10SM CLR 24/22 A2996

2010/08/10 08:00
OIBL 100800Z 10018KT 3000 SA SKC 37/27 Q1000 A2954

2010/08/10 08:00
OIBQ 100800Z 10006KT 8000 NSC 35/30 Q0999 A2952

2010/08/10 08:00
OIIK 100800Z 12006KT 9999 FEW035 31/01 Q1017 A3004

2010/08/10 08:00
OIMC 100800Z 33012KT CAVOK 38/06 Q1009 A2982

2010/08/10 08:00
OIMD 100800Z 03006KT CAVOK 32/M01 Q1009 A2982

2010/08/10 08:00
OIMQ 100800Z 00000KT CAVOK 33/M00 Q1014 A2995

2010/08/10 08:00
OITM 100800Z 14012KT 9999 FEW040 33/12 Q1015 A2999

2010/08/10 08:03
KTOL 100803Z 00000KT 1 3/4SM BR CLR 22/21 A2996

2010/08/10 07:53
KAAF 100753Z AUTO 04006KT 10SM FEW024 SCT035 26/24 A2989

2010/08/10 07:53
KABR 100753Z AUTO 15003KT 10SM CLR 23/21 A2986

2010/08/10 07:51
KACT 100751Z 20009KT 10SM CLR 28/23 A2991

2010/08/10 07:53
KAGS 100753Z AUTO 00000KT 3SM BR CLR 22/22 A2999

2010/08/10 07:51
KAHN 100751Z AUTO 00000KT 4SM BR CLR 23/22 A3001

2010/08/10 07:53
KALI 100753Z AUTO 00000KT 10SM CLR 26/25 A2991

2010/08/10 07:53
KAUS 100753Z 19004KT 10SM CLR 26/24 A2993

2010/08/10 08:00
KAYS 100800Z AUTO 10003KT 10SM CLR 26/25 A2996

2010/08/10 07:51
KBVE 100751Z AUTO 00000KT CLR 26/25 A2991

2010/08/10 07:55
KCAO 100755Z AUTO 25012KT 10SM CLR 22/16 A3008

2010/08/10 07:53
KCDS 100753Z AUTO 23005KT 10SM CLR 24/19 A2996

2010/08/10 07:53
KCLL 100753Z AUTO 18003KT 10SM CLR 27/23 A2992

2010/08/10 07:53
KCNM 100753Z AUTO 16005KT 10SM CLR 21/16 A3000

2010/08/10 07:53
KCOT 100753Z AUTO 14006KT 10SM CLR 27/24 A2992

2010/08/10 07:51
KCSG 100751Z AUTO 10005KT 9SM CLR 26/19 A2997

2010/08/10 07:53
KCTY 100753Z AUTO 10003KT 24/24 A2992

2010/08/10 07:53
KDAB 100753Z 10003KT 10SM FEW020 27/24 A2993

2010/08/10 07:53
KDHT 100753Z AUTO 22006KT 10SM CLR 21/18 A3005

2010/08/10 07:53
KECP 100753Z 03004KT 7SM CLR 26/24 A2990

2010/08/10 07:53
KELD 100753Z AUTO 00000KT 10SM CLR 26/24 A2992

2010/08/10 07:51
KELP 100751Z 18003KT 10SM FEW160 26/14 A3003

2010/08/10 07:53
KESF 100753Z AUTO 00000KT 9SM CLR 25/24 A2994

2010/08/10 07:53
KFSM 100753Z AUTO 00000KT 10SM CLR 27/23 A2991

2010/08/10 07:53
KFYV 100753Z AUTO 00000KT 10SM CLR 24/22 A2997

2010/08/10 07:53
KGAG 100753Z AUTO 13006KT 10SM CLR 23/18 A2995

2010/08/10 07:51
KGDP 100751Z AUTO 06008KT 10SM CLR 23/13 A3016

2010/08/10 07:53
KHBR 100753Z AUTO 18008KT 10SM CLR 27/20 A2992

2010/08/10 07:51
KHDO 100751Z AUTO 13003KT 10SM CLR 27/24 A2997

2010/08/10 07:53
KHOT 100753Z AUTO 00000KT 10SM CLR 28/23 A2993

2010/08/10 07:53
KHRO 100753Z AUTO 00000KT 8SM CLR 26/23 A2997

2010/08/10 07:54
KIPT 100754Z AUTO 00000KT 9SM CLR 22/19 A2994

2010/08/10 07:54
KJAN 100754Z 00000KT 9SM CLR 24/23 A2996

2010/08/10 07:53
KJBR 100753Z AUTO 00000KT 10SM CLR 26/24 A2992

2010/08/10 07:55
ETIH 100755Z AUTO 11003KT 9999 CLR 17/17 A3009 RMK AO2 SLP181 T01720172 $

2010/08/10 08:00
LECV 100800Z 12004KT CAVOK 27/16 Q1022

2010/08/10 08:00
LEGT 100800Z 05003KT 8000 NSC 27/14 Q1019

2010/08/10 08:00
LERI 100800Z VRB02KT CAVOK 30/18 Q1016 NOSIG

2010/08/10 08:00
LERT 100800Z 00000KT CAVOK 31/10 Q1016 NOSIG

2010/08/10 08:00
LFKC 100800Z VRB03KT 9999 FEW016 26/17 Q1016 NOSIG

2010/08/10 08:00
LFKF 100800Z 21005KT 150V260 9999 SCT031 SCT140 BKN170 26/17 Q1016 NOSIG

2010/08/10 08:00
LFKJ 100800Z VRB02KT 9999 FEW020 25/19 Q1016 NOSIG

2010/08/10 08:00
LFLC 100800Z 11004KT 050V200 9999 FEW033 BKN250 22/16 Q1018 NOSIG

2010/08/10 08:00
LFMP 100800Z 32006KT 290V350 9999 FEW080 24/15 Q1017 NOSIG

2010/08/10 08:00
LFSL 100800Z AUTO 30004KT 250V350 9999NDV OVC025 18/13 Q1019

2010/08/10 08:00
LJLJ 100800Z 24001KT 9999 FEW030 23/16 Q1018 NOSIG

2010/08/10 08:00
LJMB 100800Z VRB02KT 9999 FEW040 21/18 Q1018

2010/08/10 08:00
LJPZ 100800Z 29003KT CAVOK 25/17 Q1015

2010/08/10 08:00
LPFR 100800Z 25002KT CAVOK 29/19 Q1016

2010/08/10 08:00
LPPR 100800Z 00000KT CAVOK 25/18 Q1017

2010/08/10 08:00
LPPS 100800Z 35005KT 9000 SCT011 BKN030 22/20 Q1016

2010/08/10 08:00
LPPT 100800Z VRB02KT CAVOK 30/14 Q1016 NOSIG

2010/08/10 08:00
LRAR 100800Z 34004KT 300V050 CAVOK 24/17 Q1018

2010/08/10 08:00
LRBC 100800Z 36010KT 320V040 CAVOK 26/21 Q1016

2010/08/10 08:00
LRBM 100800Z 26004KT 210V310 9999 FEW026 23/18 Q1017

2010/08/10 08:00
LRCL 100800Z 00000KT 9999 FEW022 SCT036 23/17 Q1018

2010/08/10 08:00
LRCV 100800Z VRB02KT CAVOK 25/19 Q1015

2010/08/10 08:00
LRIA 100800Z 30008KT 240V340 CAVOK 26/21 Q1016

2010/08/10 08:00
LROD 100800Z 29006KT 260V340 CAVOK 23/16 Q1018

2010/08/10 08:00
LRSV 100800Z 31006KT CAVOK 22/20 Q1018

2010/08/10 08:00
LRTC 100800Z 36010KT 320V020 CAVOK 30/18 Q1012

2010/08/10 07:55
KQA7 100755Z AUTO 12009G16KT 9999 SCT150 37/00 A2987 RMK AO2A SLP996 T03650003 $

2010/08/10 07:55
KQAE 100755Z 04007KT 8000 DU HZ CLR 46/07 A2961 RMK SLP023

2010/08/10 07:55
KQD9 100755Z 14002KT 9999 TS SCT029CB BKN150 29/21 A2985 RMK CB 15NE AND 5SE-S-SW MOV E SLP038 WND DATA ESTMD ALSTG/SLP ESTMD

2010/08/10 07:55
KQIR 100755Z COR 13005KT 9999 CLR 43/15 A2953 RMK AO2 SLP996 T04250148

2010/08/10 08:00
UGTB 100800Z 24004KT 9999 SCT050 BKN100 31/12 Q1015 NOSIG RMK 31CLRD80

2010/08/10 08:00
UGKO 100800Z 27004KT 9999 BKN100 34/20 Q1008 NOSIG

2010/08/10 08:00
UGSB 100800Z 24008KT 9999 FEW026 31/23 Q1007 NOSIG

2010/08/10 08:00
UAFM 100800Z 32007MPS CAVOK 33/04 Q1010 TEMPO 30008G13MPS FCST WS

2010/08/10 08:00
UDYZ 100800Z 18003MPS 160V220 9999 SKC 33/09 Q1011 09010070 NOSIG

2010/08/10 08:00
UDSG 100800Z 06005MPS 9999 NSC 29/07 Q1017 02CLRD70 NOSIG

2010/08/10 08:00
UTDD 100800Z 21002MPS 120V250 9999 SCT066 FEW180 36/04 Q1007 09CLRD70 NOSIG RMK QFE688/0918

2010/08/10 08:00
UTDL 100800Z 25008G11MPS 9999 FEW046 FEW130 35/09 Q1007 NOSIG RMK QFE718 8809//70

2010/08/10 08:00
UAAA 100800Z 27007G12MPS 230V310 9999 SCT050CB BKN100 33/03 Q1008 88CLRD65 NOSIG

2010/08/10 08:00
UACC 100800Z 01007G12MPS 9999 BKN040 19/04 Q1019 040/0070 NOSIG RMK QFE733/0977

2010/08/10 08:00
UAKK 100800Z 36008MPS 9999 BKN050CB 18/05 Q1017 050///70 NOSIG RMK QFE716/0954

2010/08/10 08:00
UARR 100800Z 08007MPS 4200 FU NSC 34/03 Q1018 04CLRD70 NOSIG RMK QFE760/1014

2010/08/10 08:00
UATE 100800Z 11005G10MPS CAVOK 40/04 Q1012 120///70 NOSIG RMK QFE757/1009

2010/08/10 08:00
UATG 100800Z 07006G09MPS CAVOK 40/11 Q1013 32CLRD70 NOSIG RMK QFE761/1015 

2010/08/10 08:00
UATT 100800Z 08007MPS 060V120 9999 NSC 29/01 Q1021 13CLRD70 NOSIG RMK QFE746/0995

2010/08/10 08:00
UAUU 100800Z 06002MPS 010V180 CAVOK 24/02 Q1022 33CLRD70 NOSIG RMK QFE751/1001

2010/08/10 08:00
UTAA 100800Z VRB01MPS 9999 SKC 38/03 Q1011 NOSIG

2010/08/10 08:00
UTAK 100800Z 13006MPS CAVOK 38/06 Q1011 NOSIG

2010/08/10 08:00
UTAM 100800Z 01005MPS CAVOK 37/08 Q1006 NOSIG

2010/08/10 08:00
UTAT 100800Z 01004MPS CAVOK 38/18 Q1010 NOSIG

2010/08/10 07:51
KJCT 100751Z AUTO 18004KT 10SM CLR 27/22 A2997

2010/08/10 08:00
KJQF 100800Z AUTO 00000KT 7SM CLR 25/21 A3002

2010/08/10 07:53
KLFK 100753Z AUTO 00000KT 10SM CLR 27/24 A2992

2010/08/10 07:53
KLFT 100753Z AUTO 00000KT 10SM CLR 25/24 A2992

2010/08/10 07:53
KMCN 100753Z AUTO 00000KT 7SM CLR 24/22 A2999

2010/08/10 07:58
KMEI 100758Z AUTO 00000KT 6SM BR CLR 24/24 A2995

2010/08/10 07:53
KMLC 100753Z AUTO 21003KT 10SM CLR 26/20 A2992

2010/08/10 07:53
KMLU 100753Z AUTO A2993

2010/08/10 07:53
KMWL 100753Z AUTO 17005KT 10SM CLR 26/19 A2989

2010/08/10 07:53
KPBF 100753Z AUTO 17003KT 10SM CLR 26/24 A2992

2010/08/10 07:53
KPNC 100753Z AUTO 17007KT 10SM CLR 29/21 A2989

2010/08/10 07:53
KPSX 100753Z AUTO 21014G20KT 10SM CLR 31/26 A2991

2010/08/10 07:53
KPWA 100753Z AUTO 19009KT 10SM CLR 28/20 A2992

2010/08/10 07:53
KRMG 100753Z AUTO 00000KT 7SM BKN100 24/22 A2999

2010/08/10 07:53
KRSL 100753Z AUTO 19007KT 10SM CLR 24/21 A2985

2010/08/10 07:56
KSHV 100756Z 11003KT 10SM SCT290 27/23 A2991

2010/08/10 07:52
KSPS 100752Z AUTO 20010KT 10SM CLR 28/19 A2990

2010/08/10 07:53
KTLH 100753Z 07005KT 10SM SCT095 27/23 A2992

2010/08/10 07:53
KTOP 100753Z AUTO 20003KT 10SM CLR 28/21 A2987

2010/08/10 07:53
KTRI 100753Z 00000KT 5SM BR FEW060 SCT080 22/21 A3005

2010/08/10 07:53
KTUP 100753Z AUTO 17004KT 8SM CLR 26/24 A2995

2010/08/10 07:51
KVCT 100751Z AUTO 00000KT 10SM CLR 26/25 A2992

2010/08/10 07:53
KVGT 100753Z AUTO 34005KT 10SM CLR 26/M01 A2985

2010/08/10 07:58
KVUJ 100758Z AUTO 00000KT 5SM BKN085 22/21 A3001

2010/08/10 07:55
KWRB 100755Z AUTO 00000KT 10SM CLR 23/23 A2998

2010/08/10 07:53
KAIA 100753Z AUTO 19007KT 10SM CLR 17/16 A2999

2010/08/10 07:54
KALO 100754Z 00000KT 7SM CLR 24/23 A2993

2010/08/10 07:52
KALS 100752Z AUTO 00000KT 10SM CLR 08/07 A3028

2010/08/10 07:50
KANW 100750Z AUTO 31013G19KT 7SM VCTSRA SCT029 BKN035 OVC046 19/18 A2996

2010/08/10 07:53
KBFF 100753Z AUTO 10003KT 10SM CLR 18/16 A3000

2010/08/10 07:50
KBIE 100750Z AUTO 18007KT 10SM CLR 27/21 A2985

2010/08/10 07:52
KBIS 100752Z AUTO 11004KT 10SM CLR 22/18 A2985

2010/08/10 07:53
KBPI 100753Z AUTO 28003KT 10SM CLR 06/03 A3020

2010/08/10 07:53
KBRL 100753Z AUTO 00000KT 10SM CLR 26/24 A2990

2010/08/10 07:53
KCAG 100753Z AUTO 00000KT 10SM CLR 08/07 A3019

2010/08/10 07:53
KCGI 100753Z AUTO 00000KT 5SM BR CLR 26/24 A2994

2010/08/10 07:52
KCID 100752Z AUTO 05005KT 9SM CLR 24/23 A2992

2010/08/10 07:55
KCNK 100755Z AUTO 18011KT 10SM CLR 28/21 A2986

2010/08/10 07:52
KCNU 100752Z AUTO 18006KT 10SM CLR 27/21 A2991

2010/08/10 07:54
KCOU 100754Z AUTO 17004KT 9SM CLR 26/25 A2991

2010/08/10 07:53
KCYS 100753Z AUTO 24008KT 10SM CLR 13/11 A3013

2010/08/10 07:53
KDBQ 100753Z AUTO 00000KT 7SM CLR 23/22 A2996

2010/08/10 07:52
KDDC 100752Z AUTO 17008KT 10SM CLR 23/18 A2991

2010/08/10 07:55
KDVL 100755Z AUTO 05004KT 10SM CLR 22/18 A2989

2010/08/10 07:55
KEAR 100755Z AUTO 34012G22KT 10SM FEW090 23/18 A2994

2010/08/10 07:54
KEVV 100754Z AUTO 00000KT 8SM CLR 25/23 A2995

2010/08/10 07:53
KFNB 100753Z AUTO 21007KT 10SM CLR 27/23 A2985

2010/08/10 07:56
KFSD 100756Z 11007KT 10SM FEW025 BKN038 25/23 A2986

2010/08/10 07:54
KFWA 100754Z 00000KT 3/4SM BR CLR 23/22 A2997

2010/08/10 07:53
KGCC 100753Z AUTO 27007KT 10SM CLR 13/11 A2995

2010/08/10 07:54
KGCK 100754Z 04003KT 10SM CLR 24/18 A2996

2010/08/10 07:53
KGJT 100753Z AUTO 09005KT 10SM CLR 18/02 A3008

2010/08/10 07:53
KGLD 100753Z AUTO 31004KT 10SM FEW110 19/17 A3000

2010/08/10 07:55
KGPZ 100755Z AUTO 00000KT 10SM CLR 19/17 A2997

2010/08/10 07:53
KGRI 100753Z AUTO 19007KT 10SM CLR 25/22 A2986

2010/08/10 07:55
KHON 100755Z AUTO 15005KT 9SM FEW018 SCT029 OVC034 24/23 A2982

2010/08/10 07:53
KHSI 100753Z AUTO 20006KT 10SM CLR 26/21 A2987

2010/08/10 07:53
KHTL 100753Z AUTO 31003KT 1/2SM FG BKN001 21/21 A3000

2010/08/10 07:53
KIML 100753Z AUTO 14006KT 6SM TSRA BR BKN045 BKN060 OVC100 19/17 A2999

2010/08/10 07:55
KIRK 100755Z AUTO 20004KT 10SM CLR 27/26 A2993

2010/08/10 07:55
KJAC 100755Z 11004KT 10SM CLR 08/05 A3016

2010/08/10 07:53
KJKL 100753Z AUTO 00000KT 8SM FEW060 24/21 A3002

2010/08/10 07:53
KJLN 100753Z AUTO 18006KT 10SM CLR 26/21 A2993

2010/08/10 07:59
KJNX 100759Z AUTO 00000KT 7SM CLR 21/21 A3000

2010/08/10 07:53
KLAN 100753Z 00000KT 3SM R28L/1600V6000FT BR MIFG CLR 19/19 A2997

2010/08/10 07:53
KLBF 100753Z AUTO 07004KT 10SM CLR 19/19 A2992

2010/08/10 07:53
KLND 100753Z AUTO 24010KT 10SM CLR 18/03 A3005

2010/08/10 07:54
KLNK 100754Z 19005KT 10SM CLR 26/23 A2984

2010/08/10 07:53
KLXV 100753Z AUTO 00000KT 10SM CLR 05/04 A3043

2010/08/10 07:53
KMCK 100753Z AUTO 14003KT 10SM CLR 21/19 A2994

2010/08/10 07:53
KMCW 100753Z AUTO 13003KT 5SM BR CLR 23/23 A2996

2010/08/10 07:52
KMFD 100752Z AUTO 26005KT 7SM -RA BKN042 OVC050 25/19 A2999

2010/08/10 07:52
KMHK 100752Z AUTO 22008KT 10SM CLR 29/21 A2986

2010/08/10 07:55
KMKG 100755Z 00000KT 2 1/2SM BR FEW001 21/20 A2996

2010/08/10 07:53
KMSN 100753Z 00000KT 1SM BR FEW001 SCT008 22/21 A2993

2010/08/10 07:53
KODX 100753Z AUTO 27009KT 8SM TSRA FEW034 BKN060 OVC080 20/18 A2995

2010/08/10 07:50
KONL 100750Z AUTO 25020G28KT 7SM TSRA SCT004 BKN022 OVC055 21/19 A2993

2010/08/10 07:53
KOTM 100753Z AUTO 35010G20KT 10SM VCTS FEW020 SCT026 OVC031 23/22 A2995

2010/08/10 07:53
KPAH 100753Z AUTO 00000KT 7SM CLR 26/24 A2993

2010/08/10 07:53
KPKD 100753Z AUTO 00000KT 10SM CLR 21/19 A2995

2010/08/10 07:52
KRAP 100752Z AUTO 15007KT 10SM CLR 21/17 A2987

2010/08/10 07:54
KRFD 100754Z 08006KT 10SM FEW030 SCT180 24/22 A2994

2010/08/10 07:53
KRIW 100753Z AUTO 29008KT 10SM CLR 16/04 A3007

2010/08/10 07:54
KRST 100754Z AUTO 12003KT 6SM BR CLR 22/22 A2996

2010/08/10 07:53
KSHR 100753Z AUTO 22005KT 10SM CLR 14/11 A2994

2010/08/10 07:53
KSLN 100753Z 17009KT 10SM CLR 29/21 A2985

2010/08/10 07:52
KSPI 100752Z AUTO 13004KT 10SM CLR 26/22 A2991

2010/08/10 07:53
KSTC 100753Z AUTO 00000KT 8SM CLR 21/19 A2993

2010/08/10 07:52
KSUX 100752Z 10004KT 8SM CLR 25/24 A2983

2010/08/10 07:53
KTCS 100753Z AUTO 30009KT 10SM CLR 23/11 A3007

2010/08/10 08:01
KTDF 100801Z AUTO 00000KT 23/22 A3002

2010/08/10 07:55
KUDG 100755Z 00000KT 6SM CLR 23/22 A3003

2010/08/10 07:54
KUIN 100754Z AUTO 19004KT 10SM CLR 27/25 A2990

2010/08/10 07:53
KVIH 100753Z AUTO 20006KT 10SM CLR 26/23 A2993

2010/08/10 07:52
KVTN 100752Z AUTO VRB03KT 6SM -TSRA BR BKN041 OVC085 19/18 A2995

2010/08/10 07:51
KYNG 100751Z 21003KT 10SM BKN047 OVC070 24/18 A2997

2010/08/10 07:54
KSBN 100754Z 04004KT 5SM BR CLR 21/20 A2996

2010/08/10 08:00
BIAR 100800Z 15003KT 9999 OVC011 09/08 Q1014

2010/08/10 08:00
BIEG 100800Z 01007KT 3000 FG VV003 07/07 Q1014

2010/08/10 08:00
BIKF 100800Z 32010KT 9999 FEW019 BKN022 12/06 Q1014

2010/08/10 08:00
BIRK 100800Z 02003KT 9999 FEW015 SCT025 BKN050 12/08 Q1013

2010/08/10 07:55
FJDG 100755Z 15010G20KT 9999 FEW020 SCT070 BKN220 29/25 A2982 RMK SLP095 T02900245

2010/08/10 07:55
KHUA 100755Z AUTO RMK AO2 SLPNO PWINO PNO TSNO $

2010/08/10 08:00
LKKV 100800Z VRB01KT 9999 FEW026 18/14 Q1019 RMK REG QNH 1015

2010/08/10 08:00
MKJS 100800Z 00000KT 9999 FEW024 BKN220 27/23 Q1012

2010/08/10 08:00
OIAW 100800Z 15002KT 8000 NSC 44/13 Q1000 A2953

2010/08/10 08:00
OIFM 100800Z 30004KT 8000 SKC 32/01 Q1018 A3009

2010/08/10 08:00
OIKB 100800Z 11006KT 6000 FEW025 35/27 Q1002 A2959

2010/08/10 08:00
OIKK 100800Z 00000KT CAVOK 30/01 Q1018 A3006

2010/08/10 08:00
OIMM 100800Z 04018KT CAVOK 34/M02 Q1014 A2996

2010/08/10 08:00
OISS 100800Z 00000KT CAVOK 33/M01 Q1015 A3000

2010/08/10 08:00
OITT 100800Z 10012KT 9999 FEW040 33/07 Q1016 A3001

2010/08/10 08:00
OIZH 100800Z 36010KT 8000 NSC 34/M00 Q1012 A2990

2010/08/10 08:00
SCSE 100800Z 32002KT 9999 OVC015 11/08 Q1017 NEFO PLAYA 1800FT

2010/08/10 08:00
TGPY 100800Z 19006KT 9999 SCT017 SCT034 28/25 Q1012

2010/08/10 08:00
TTCP 100800Z 16009KT 9999 FEW016 SCT300 27/23 Q1013 NOSIG

2010/08/10 08:00
TTPP 100800Z 00000KT 9999 FEW016 BKN280 24/23 Q1013 NOSIG

2010/08/10 08:00
WMKJ 100800Z 17005KT 9999 FEW018 SCT130 BKN280 32/25 Q1006

2010/08/10 08:00
WMKK 100800Z 17006KT 140V210 9999 FEW018 SCT140 BKN280 31/26 Q1006 NOSIG

2010/08/10 08:00
WMKP 100800Z 23008KT 9000 FEW020 SCT140 BKN270 32/26 Q1006 NOSIG

2010/08/10 08:00
WMSA 100800Z 17007KT 9999 FEW020 SCT140 BKN280 33/25 Q1006 NOSIG

2010/08/10 08:00
ZBHH 100800Z 19001MPS 9999 SCT040 28/10 Q1009 NOSIG

2010/08/10 08:00
ZWSH 100800Z 16005MPS CAVOK 32/06 Q1008 NOSIG

2010/08/10 07:55
KAST 100755Z AUTO 22004KT 10SM OVC022 13/11 A3001

2010/08/10 07:54
KBFL 100754Z AUTO 35003KT 10SM CLR 24/06 A2983

2010/08/10 07:52
KBLU 100752Z AUTO 00000KT 10SM CLR 17/06 A3009

2010/08/10 07:56
KBZN 100756Z AUTO 17006KT 10SM FEW080 14/10 A2999

2010/08/10 07:53
KCNY 100753Z AUTO 00000KT 10SM CLR 18/01 A3003

2010/08/10 07:52
KCZZ 100752Z AUTO 03004KT 11/05 A2994

2010/08/10 07:55
KDRA 100755Z AUTO 06005KT 10SM CLR 22/M09 A2992

2010/08/10 07:53
KELY 100753Z AUTO 20010KT 10SM CLR 16/M05 A3013

2010/08/10 07:54
KEUG 100754Z 00000KT 10SM FEW040 13/10 A2999

2010/08/10 07:56
KFLG 100756Z AUTO 00000KT 10SM FEW080 10/08 A3028

2010/08/10 07:50
KHMS 100750Z 29014KT 15SM FEW250 19/08 A2981

2010/08/10 07:56
KINW 100756Z AUTO 20008KT 10SM SCT100 20/10 A3012

2010/08/10 07:59
KJNX 100759Z AUTO 00000KT 7SM CLR 21/21 A3000

2010/08/10 07:53
KLGB 100753Z AUTO 32004KT 7SM CLR 16/13 A2990

2010/08/10 07:56
KLWS 100756Z AUTO 15004KT 10SM CLR 19/04 A2979

2010/08/10 07:53
KMFR 100753Z AUTO 05003KT 10SM CLR 18/08 A2992

2010/08/10 07:56
KMHS 100756Z AUTO 00000KT 10SM CLR 13/09 A2997

2010/08/10 07:56
KNUQ 100756Z AUTO 00000KT 10SM OVC008 15/12 A2992

2010/08/10 07:54
KOLM 100754Z AUTO 21006KT 10SM OVC014 13/11 A2998

2010/08/10 07:53
KPDT 100753Z AUTO 27005KT 10SM CLR 16/07 A2988

2010/08/10 07:53
KPGA 100753Z AUTO 00000KT 10SM SCT120 24/02 A3003

2010/08/10 07:53
KPIH 100753Z AUTO 01004KT 10SM CLR 12/09 A3001

2010/08/10 07:53
KPUC 100753Z AUTO 02007KT 10SM CLR 14/M01 A3013

2010/08/10 07:54
KRBL 100754Z AUTO 17003KT 10SM CLR 23/14 A2983

2010/08/10 07:53
KRDD 100753Z AUTO 03003KT 10SM CLR 22/12 A2983

2010/08/10 07:52
KSDB 100752Z AUTO 21006KT 10SM CLR 17/01 A3004

2010/08/10 07:53
KSHN 100753Z AUTO 22012KT 6SM BR OVC007 12/11 A2995

2010/08/10 07:54
KSJN 100754Z AUTO 16004KT 10SM CLR 17/12 A3018

2010/08/10 07:53
KSLC 100753Z 15006KT 10SM CLR 18/04 A2999

2010/08/10 07:51
KSMX 100751Z AUTO 00000KT 9SM OVC004 12/11 A2992

2010/08/10 07:50
KSOW 100750Z AUTO 16003KT 10SM CLR 15/10 A3026

2010/08/10 07:50
KTRK 100750Z AUTO 00000KT 10SM CLR 07/05 A3012

2010/08/10 07:56
KWMC 100756Z AUTO 01004KT 10SM CLR 16/M01 A2995

2010/08/10 07:53
KYKM 100753Z AUTO 32009KT 10SM CLR 18/08 A2986

2010/08/10 07:56
KBIH 100756Z AUTO 22007KT 10SM CLR 21/M10 A2996

2010/08/10 07:56
KMEH 100756Z AUTO 00000KT 10SM CLR 07/04 A2995

2010/08/10 07:52
KMLF 100752Z AUTO 20005KT 10SM CLR 15/M02 A3006

2010/08/10 07:56
KSMP 100756Z AUTO VRB06KT 1/4SM FG BKN001 OVC026 08/08 A2997

2010/08/10 07:53
KUIL 100753Z AUTO 00000KT 2 1/2SM BR OVC007 12/11 A2997

2010/08/10 08:00
RJFR 100800Z 11024KT 9999 FEW025 SCT150 BKN/// 30/24 Q1008

2010/08/10 08:00
RJFF 100800Z 16016G26KT 9999 FEW025 BKN/// 34/21 Q1006

2010/08/10 08:00
RJCC 100800Z 19011KT 8000 FEW003 BKN004 22/20 Q1013

2010/08/10 08:00
RJFK 100800Z 13011KT 9999 VCSH FEW005 SCT025 BKN/// 28/24 Q1011

2010/08/10 08:00
RJSN 100800Z 34006KT 9999 FEW030 BKN/// 31/25 Q1011

2010/08/10 08:00
RJFT 100800Z 12009KT 9999 FEW025 BKN/// 32/22 Q1009

2010/08/10 08:00
RJFU 100800Z 16022KT 4000 SHRA FEW030 SCT040 BKN060 28/24 Q1007

2010/08/10 08:00
RJCH 100800Z 14010KT 9999 FEW003 SCT/// 25/23 Q1013

2010/08/10 08:00
RJSS 100800Z 17009KT 9999 FEW030 SCT/// 28/24 Q1012

2010/08/10 08:00
RJOA 100800Z 17005KT 130V200 9999 FEW020 SCT045 BKN120 29/22 Q1013

2010/08/10 08:00
RJOB 100800Z 12007KT 070V160 9999 FEW025 BKN/// 31/23 Q1013

2010/08/10 08:00
RJAA 100800Z 17009KT 9999 FEW020 SCT030 28/24 Q1014 NOSIG

2010/08/10 08:00
RJBB 100800Z 23012KT 9999 FEW015 SCT100 BKN140 30/24 Q1013 NOSIG

2010/08/10 08:00
RJTT 100800Z 20013KT 9999 FEW015 SCT/// 30/22 Q1013

2010/08/10 08:00
RJOO 100800Z 24008KT 9999 FEW015 SCT100 BKN/// 29/22 Q1013

2010/08/10 08:00
ROAH 100800Z 21010KT 9999 -SHRA FEW015 FEW020TCU SCT050 BKN150 28/26 Q1008

2010/08/10 08:00
RJGG 100800Z 17010KT 9999 VCSH FEW010 SCT020 BKN070 27/25 Q1013 NOSIG

2010/08/10 08:00
RJOT 100800Z 09004KT 040V170 9999 VCSH FEW020CB SCT035 BKN100 30/23 Q1013

2010/08/10 08:00
RJFO 100800Z 14019KT 9999 VCSH FEW015 BKN180 BKN/// 27/25 Q1010

2010/08/10 08:00
RJAA 100800Z 17009KT 9999 FEW020 SCT030 28/24 Q1014 NOSIG

2010/08/10 08:00
RJBB 100800Z 23012KT 9999 FEW015 SCT100 BKN140 30/24 Q1013 NOSIG

2010/08/10 08:00
RJTT 100800Z 20013KT 9999 FEW015 SCT/// 30/22 Q1013

2010/08/10 08:00
RJOO 100800Z 24008KT 9999 FEW015 SCT100 BKN/// 29/22 Q1013

2010/08/10 08:00
RJGG 100800Z 17010KT 9999 VCSH FEW010 SCT020 BKN070 27/25 Q1013 NOSIG

2010/08/10 08:00
RJSN 100800Z 34006KT 9999 FEW030 BKN/// 31/25 Q1011

2010/08/10 08:00
RJCH 100800Z 14010KT 9999 FEW003 SCT/// 25/23 Q1013

2010/08/10 08:00
RJSA 100800Z 01004KT 9999 FEW030 27/23 Q1013

2010/08/10 08:00
RJSF 100800Z 18008KT 9999 FEW020 BKN/// 29/23 Q1015

2010/08/10 08:00
RJAA 100800Z 17009KT 9999 FEW020 SCT030 28/24 Q1014 NOSIG

2010/08/10 08:00
RJBB 100800Z 23012KT 9999 FEW015 SCT100 BKN140 30/24 Q1013 NOSIG

2010/08/10 08:00
RJTT 100800Z 20013KT 9999 FEW015 SCT/// 30/22 Q1013

2010/08/10 08:00
RJOO 100800Z 24008KT 9999 FEW015 SCT100 BKN/// 29/22 Q1013

2010/08/10 08:00
RJFF 100800Z 16016G26KT 9999 FEW025 BKN/// 34/21 Q1006

2010/08/10 08:00
RJGG 100800Z 17010KT 9999 VCSH FEW010 SCT020 BKN070 27/25 Q1013 NOSIG

2010/08/10 08:00
RJFK 100800Z 13011KT 9999 VCSH FEW005 SCT025 BKN/// 28/24 Q1011

2010/08/10 08:00
RJFU 100800Z 16022KT 4000 SHRA FEW030 SCT040 BKN060 28/24 Q1007

2010/08/10 08:00
RJCH 100800Z 14010KT 9999 FEW003 SCT/// 25/23 Q1013

2010/08/10 08:00
RJNS 100800Z 17004KT 130V210 9999 -SHRA FEW002 SCT007 FEW020TCU BKN/// 27/25 Q1014

2010/08/10 07:51
KABE 100751Z 00000KT 9SM -RA FEW080 24/21 A2993

2010/08/10 07:53
KACK 100753Z AUTO 26005KT 6SM BR FEW060 23/21 A2992

2010/08/10 07:54
KACY 100754Z 21006KT 10SM CLR 24/22 A2995

2010/08/10 07:53
KAGC 100753Z 17005KT 8SM CLR 22/19 A2999

2010/08/10 07:53
KAGS 100753Z AUTO 00000KT 3SM BR CLR 22/22 A2999

2010/08/10 07:54
KAKR 100754Z AUTO 23005KT 10SM SCT070 24/19 A2996

2010/08/10 07:51
KALB 100751Z 00000KT 2SM BR SCT023 SCT034 21/21 A2994

2010/08/10 07:56
KAND 100756Z AUTO 00000KT 10SM CLR 25/21 A3001

2010/08/10 07:53
KAOO 100753Z AUTO 00000KT 8SM BKN120 21/18 A3000

2010/08/10 07:56
KART 100756Z AUTO 00000KT 5SM BR BKN013 OVC020 21/20 A2993

2010/08/10 07:54
KAVL 100754Z AUTO 00000KT 5SM BR OVC004 20/19 A3011

2010/08/10 07:54
KAVP 100754Z 00000KT 10SM BKN110 23/19 A2996

2010/08/10 07:53
KBAF 100753Z 00000KT 4SM -RA BR FEW070 SCT100 22/21 A2992

2010/08/10 07:51
KBDL 100751Z 00000KT 3SM -RA BR FEW004 BKN065 OVC110 22/21 A2991

2010/08/10 07:52
KBDR 100752Z AUTO 00000KT 9SM FEW047 26/19 A2992

2010/08/10 07:56
KBED 100756Z 25004KT 3SM BR BKN090 OVC110 22/21 A2988

2010/08/10 07:53
KBFD 100753Z AUTO 00000KT 2 1/2SM BR BKN080 OVC110 19/18 A3002

2010/08/10 07:53
KBGM 100753Z AUTO 30003KT 3SM -RA BR FEW001 OVC070 20/19 A3001

2010/08/10 07:53
KBGR 100753Z 29004KT 10SM SCT100 19/18 A2984

2010/08/10 07:53
KBKL 100753Z 23007KT 7SM CLR 26/21 A2993

2010/08/10 07:51
KBKW 100751Z AUTO 00000KT 5SM BR CLR 19/17 A3010

2010/08/10 07:54
KBOS 100754Z 18006KT 5SM -RA BR BKN070 OVC120 21/19 A2989

2010/08/10 07:54
KBTV 100754Z 00000KT 1SM BR VV004 18/18 A2991

2010/08/10 07:54
KBUF 100754Z 00000KT 3SM BR FEW043 BKN060 OVC075 22/20 A2995

2010/08/10 07:53
KBVY 100753Z AUTO 00000KT 4SM BR OVC100 22/21 A2988

2010/08/10 07:54
KBWI 100754Z 21005KT 9SM FEW250 24/20 A2992

2010/08/10 07:56
KCAE 100756Z 00000KT 6SM BR CLR 24/22 A3000

2010/08/10 07:51
KCAK 100751Z 23004KT 8SM SCT070 OVC100 24/19 A2997

2010/08/10 07:54
KCAR 100754Z AUTO 00000KT 7SM CLR 15/14 A2981

2010/08/10 07:55
KCEF 100755Z AUTO 24005KT 10SM SCT060 BKN080 22/21 A2991

2010/08/10 08:00
OMAA 100800Z 18007KT 130V230 CAVOK 43/13 Q0999 A2950 NOSIG

2010/08/10 08:00
OMAD 100800Z 21005KT 150V290 8000 NSC 43/15 Q0999 A2951

2010/08/10 08:00
OMAL 100800Z 18012KT 150V220 CAVOK 42/13 Q1002 A2959

2010/08/10 08:00
OMDB 100800Z 17005KT 100V260 CAVOK 43/17 Q0999 NOSIG

2010/08/10 08:00
OMDW 100800Z VRB04KT CAVOK 45/13 Q1000 NOSIG

2010/08/10 08:00
OMFJ 100800Z 07009KT 040V120 CAVOK 34/27 Q1002 A2960=5 METAR OMRK 100800Z 08007KT CAVOK 43/19 Q0999 A2952

2010/08/10 08:00
OMSJ 100800Z 16007KT 120V200 7000 NSC 44/14 Q1000

2010/08/10 07:53
KCHO 100753Z AUTO 00000KT 7SM CLR 24/21 A2996

2010/08/10 07:56
KCHS 100756Z 00000KT 10SM FEW023 27/25 A3000

2010/08/10 07:53
KCKB 100753Z AUTO 00000KT 1 3/4SM BR CLR 19/18 A3001

2010/08/10 07:51
KCLE 100751Z 22004KT 8SM FEW080 24/20 A2997

2010/08/10 07:52
KCLT 100752Z 00000KT 8SM BKN070 24/22 A3003

2010/08/10 07:51
KCMH 100751Z 00000KT 10SM SCT150 BKN250 23/21 A2996

2010/08/10 07:54
KCRW 100754Z 00000KT 4SM BR FEW001 21/20 A3000

2010/08/10 07:52
KCVG 100752Z 20003KT 7SM SCT150 24/21 A2997

2010/08/10 07:53
KDAN 100753Z AUTO 21003KT 5SM BR CLR 23/21 A3001

2010/08/10 07:56
KDAY 100756Z 23003KT 6SM HZ CLR 24/21 A2999

2010/08/10 07:52
KDCA 100752Z 19005KT 9SM BKN250 26/20 A2994

2010/08/10 07:56
KDUJ 100756Z AUTO 00000KT 6SM HZ OVC110 21/18 A3001

2010/08/10 07:54
KECG 100754Z AUTO 23005KT 8SM CLR 23/23 A2998

2010/08/10 07:51
KEKN 100751Z AUTO 00000KT 1/2SM FG BKN001 OVC006 17/17 A3007

2010/08/10 07:53
KELM 100753Z AUTO 00000KT 2 1/2SM BR FEW004 BKN070 OVC085 21/21 A2996

2010/08/10 07:51
KERI 100751Z 01004KT 6SM HZ BKN055 OVC080 24/19 A2994

2010/08/10 07:53
KEWB 100753Z AUTO 00000KT 5SM BR FEW050 SCT070 22/21 A2990

2010/08/10 07:54
KEWN 100754Z AUTO 24003KT 10SM CLR 24/23 A3002

2010/08/10 07:51
KEWR 100751Z 25006KT 10SM -RA SCT050 BKN150 OVC250 27/18 A2992

2010/08/10 07:53
KFAY 100753Z AUTO 00000KT 10SM SCT007 BKN100 24/23 A3001

2010/08/10 07:53
KFLO 100753Z AUTO 00000KT 10SM CLR 24/24 A3001

2010/08/10 07:53
KFRG 100753Z AUTO 25005KT 10SM CLR 25/19 A2992

2010/08/10 07:53
KFVE 100753Z AUTO 32005KT 4SM BR CLR 15/14 A2982

2010/08/10 07:53
KGFL 100753Z AUTO 00000KT 2 1/2SM BR SCT002 OVC036 20/20 A2992

2010/08/10 07:56
KGON 100756Z AUTO 00000KT 10SM CLR 24/20 A2991

2010/08/10 07:54
KGSO 100754Z 23003KT 7SM CLR 24/21 A3003

2010/08/10 07:53
KGSP 100753Z AUTO 00000KT 10SM CLR 24/22 A3002

2010/08/10 07:53
KHFD 100753Z AUTO 00000KT 7SM -RA FEW032 24/21 A2992

2010/08/10 07:53
KHKY 100753Z AUTO 00000KT 7SM CLR 23/22 A3004

2010/08/10 07:56
KHPN 100756Z 34005KT 9SM CLR 25/18 A2994

2010/08/10 07:51
KHTS 100751Z AUTO 00000KT 3SM BR CLR 22/21 A2998

2010/08/10 07:53
KHVN 100753Z AUTO 00000KT 10SM FEW110 26/19 A2992

2010/08/10 07:56
KHYA 100756Z AUTO 00000KT 5SM -RA BR FEW065 BKN080 21/20 A2990

2010/08/10 07:52
KIAD 100752Z 18003KT 7SM CLR 24/21 A2995

2010/08/10 07:53
KIAG 100753Z AUTO 00000KT 3SM BR FEW045 OVC055 22/21 A2994

2010/08/10 07:51
KILG 100751Z 19005KT 9SM CLR 24/22 A2994

2010/08/10 07:53
KILM 100753Z AUTO 19003KT 10SM CLR 25/23 A3001

2010/08/10 07:54
KINT 100754Z AUTO 23003KT 10SM CLR 26/21 A3004

2010/08/10 07:54
KIPT 100754Z AUTO 00000KT 9SM CLR 22/19 A2994

2010/08/10 07:56
KISP 100756Z 25006KT 10SM BKN140 BKN250 25/18 A2991

2010/08/10 07:51
KJFK 100751Z 26006KT 10SM BKN140 OVC250 26/19 A2993

2010/08/10 07:54
KJST 100754Z AUTO 20003KT 9SM BKN110 21/16 A3004

2010/08/10 07:55
KLCK 100755Z AUTO 00000KT 7SM OVC080 24/21 A2996

2010/08/10 07:53
KLEB 100753Z AUTO 00000KT 2 1/2SM BR OVC001 21/19 A2992

2010/08/10 07:51
KLGA 100751Z 24007KT 10SM BKN140 OVC250 28/18 A2991

2010/08/10 07:53
KLUK 100753Z AUTO 00000KT 3SM BR CLR 23/22 A2997

2010/08/10 07:54
KLWM 100754Z AUTO 21005KT 3SM BR BKN110 22/21 A2990

2010/08/10 07:54
KLYH 100754Z AUTO 00000KT 5SM BR CLR 22/21 A3001

2010/08/10 07:56
KMDT 100756Z 00000KT 7SM BKN200 27/22 A2991

2010/08/10 07:52
KMFD 100752Z AUTO 26005KT 7SM -RA BKN042 OVC050 25/19 A2999

2010/08/10 07:53
KMGW 100753Z AUTO 00000KT 3SM BR CLR 19/18 A3002

2010/08/10 07:53
KMHT 100753Z 00000KT 1/2SM R35/P6000FT -RA FG BKN003 22/21 A2987

2010/08/10 07:54
KMIV 100754Z AUTO 00000KT 8SM CLR 23/21 A2992

2010/08/10 08:00
KMMU 100800Z AUTO 00000KT 10SM -RA CLR 23/20 A2993

2010/08/10 07:53
KMRB 100753Z AUTO 22003KT 9SM CLR 24/18 A2995

2010/08/10 07:53
KMSS 100753Z AUTO 22004KT 10SM OVC006 22/21 A2991

2010/08/10 08:00
KMTN 100800Z AUTO 00000KT 10SM CLR 26/22 A2993

2010/08/10 07:55
KMYR 100755Z AUTO 00000KT 10SM FEW020 26/24 A3004

2010/08/10 07:54
KNKT 100754Z AUTO 21003KT 10SM CLR 24/23 A3002

2010/08/10 07:51
KORF 100751Z 23006KT 10SM CLR 25/23 A2997

2010/08/10 07:54
KORH 100754Z AUTO 28005KT 9SM SCT050 BKN100 OVC120 21/20 A2993

2010/08/10 08:02
CYBU 100802Z AUTO VRB02KT 3/8SM FG FEW002 12/12 A2987 RMK SLP124

2010/08/10 08:04
CYCX 100804Z AUTO 31002KT 1/8SM 16/16 A2980

2010/08/10 08:04
CYPQ 100804Z AUTO ///// 1/8SM BKN000 BKN019 BKN025 17/17 A2993

2010/08/10 08:01
CYRV 100801Z AUTO 03004KT 9SM FEW013 OVC035 16/15 A2985

2010/08/10 08:04
CYSC 100804Z AUTO 11002KT 1/4SM FG VV006 13/13 A2990 RMK SLP130

2010/08/10 08:03
CYWA 100803Z AUTO 00000KT 2 1/8SM CLR 13/13 A2991 RMK VSBY VRBL 0.8V9.+

2010/08/10 08:04
CYWA 100804Z AUTO 00000KT 1 1/4SM CLR 13/13 A2991 RMK VSBY VRBL 0.3V9.+

2010/08/10 08:04
CYZE 100804Z AUTO 32002KT 1 1/4SM BR CLR 17/17 A2994 RMK SLP140 DENSITY ALT 900FT

2010/08/10 08:04
EHKD 100804Z AUTO 22014KT 9999NDV SCT011/// SCT013/// BKN017/// 18/16 Q1011 GRN WHT TEMPO GRN TEMPO SCT012 SCT015CB BKN020

2010/08/10 08:00
GMAD 100800Z 25005KT 0400 R28///// FG OVC003 20/20 Q1015

2010/08/10 07:58
KBLV 100758Z AUTO 00000KT 9SM R14R/5500VP6000FT CLR 26/26 A2991 RMK AO2 SLP124

2010/08/10 08:04
PASY 100804Z AUTO 29010KT 3/4SM BR VV001 09/08 A2988 RMK AO2 TSNO PNO $

2010/08/10 08:02
RKSS 100802Z 32007KT 250V040 2000 RA FEW006 BKN025 BKN080 26/24 Q1007 NOSIG

2010/08/10 08:00
YBTL 100800Z 05004KT 6000 -RA FEW005 SCT016 BKN050 23/23 Q1014 FM0800 01008KT 9000 -RA FEW005 SCT020 BKN035 INTER 0800/0930 4000 SHRA BKN012 RMK USE TAF FOR ARRIVALS AFTER 0930Z

2010/08/10 08:00
YPXM 100800Z AUTO 07010KT 9999NDV // BKN009 OVC013 26/23 Q////

2010/08/10 08:00
YSSY 100800Z 01011KT 9999 -RA BKN012 BKN042 17/15 Q1012 FM0800 02015KT 9000 -RA SCT010 BKN020 BKN040 TEMPO 0800/1100 4000 RA BKN010

2010/08/10 07:54
KPHF 100754Z 24005KT 10SM CLR 26/24 A2997

2010/08/10 07:54
KPHL 100754Z 21007KT 10SM SCT150 BKN200 26/21 A2993

2010/08/10 07:51
KPIT 100751Z 00000KT 7SM SCT100 BKN250 22/18 A2998

2010/08/10 07:53
KPKB 100753Z AUTO 00000KT 3SM BR CLR 20/19 A3001

2010/08/10 07:53
KPOU 100753Z 00000KT 4SM -RA BR SCT034 OVC090 22/21 A2993

2010/08/10 07:55
KPQI 100755Z AUTO 00000KT 2 1/2SM CLR 13/12 A2979

2010/08/10 07:55
KPSM 100755Z 23003KT 4SM BR SCT050 OVC120 21/21 A2987

2010/08/10 07:51
KPVD 100751Z 00000KT 9SM FEW075 SCT095 SCT120 OVC150 23/19 A2992

2010/08/10 07:51
KPWM 100751Z AUTO 30006KT 10SM FEW095 21/19 A2987

2010/08/10 07:54
KRDG 100754Z AUTO 00000KT CLR 26/19 A2992

2010/08/10 07:51
KRDU 100751Z 23004KT 9SM FEW150 SCT250 24/22 A3001

2010/08/10 07:54
KRIC 100754Z 22004KT 9SM FEW060 24/21 A2997

2010/08/10 07:54
KROA 100754Z 29003KT 8SM CLR 23/21 A3003

2010/08/10 07:54
KROC 100754Z 22003KT 2 1/2SM BR SCT060 BKN075 OVC080 21/21 A2994

2010/08/10 07:53
KRWI 100753Z AUTO 20003KT 8SM CLR 23/22 A3000

2010/08/10 07:53
KSAV 100753Z 00000KT 10SM FEW023 26/24 A2999

2010/08/10 07:54
KSBY 100754Z AUTO 20003KT 6SM BR CLR 23/22 A2996

2010/08/10 07:51
KSLK 100751Z AUTO 00000KT 2SM BR SCT005 BKN012 OVC020 19/19 A2996

2010/08/10 07:54
KSYR 100754Z 00000KT 3SM BR FEW020 BKN028 OVC046 21/21 A2994

2010/08/10 07:51
KTEB 100751Z 21004KT 10SM -RA CLR 26/18 A2991

2010/08/10 07:52
KTOL 100752Z 00000KT 2SM BR CLR 22/21 A2996

2010/08/10 07:53
KTTN 100753Z AUTO 00000KT 8SM CLR 26/21 A2992

2010/08/10 07:55
KWRI 100755Z AUTO 22004KT 9SM CLR 23/22 A2991

2010/08/10 07:51
KYNG 100751Z 21003KT 10SM BKN047 OVC070 24/18 A2997

2010/08/10 07:53
KZZV 100753Z AUTO 00000KT 6SM BR BKN090 21/19 A2997

2010/08/10 07:52
KABI 100752Z 18006KT 10SM CLR 28/18 A2996

2010/08/10 07:56
KABQ 100756Z 00000KT 10SM FEW110 22/08 A3014

2010/08/10 07:53
KABY 100753Z 09005KT 10SM CLR 26/24 A2997

2010/08/10 07:51
KACT 100751Z 20009KT 10SM CLR 28/23 A2991

2010/08/10 07:53
KAEX 100753Z 12006KT 10SM CLR 27/24 A2992

2010/08/10 07:53
KAFW 100753Z 22004KT 10SM CLR 28/20 A2989

2010/08/10 07:51
KAHN 100751Z AUTO 00000KT 4SM BR CLR 23/22 A3001

2010/08/10 07:53
KALI 100753Z AUTO 00000KT 10SM CLR 26/25 A2991

2010/08/10 07:53
KAMA 100753Z AUTO 20010KT 10SM CLR 21/17 A3005

2010/08/10 07:53
KANB 100753Z AUTO 00000KT 6SM BR CLR 24/22 A2999

2010/08/10 07:53
KAPF 100753Z AUTO 07007KT 10SM FEW006 25/24 A2984

2010/08/10 07:52
KATL 100752Z 00000KT 9SM SCT250 26/21 A3001

2010/08/10 07:53
KAUS 100753Z 19004KT 10SM CLR 26/24 A2993

2010/08/10 07:53
KBFM 100753Z AUTO 34004KT 5SM BR CLR 26/24 A2993

2010/08/10 07:53
KBHM 100753Z 00000KT 8SM CLR 26/23 A2998

2010/08/10 07:53
KBNA 100753Z 18003KT 9SM FEW110 SCT200 26/24 A2997

2010/08/10 07:53
KBPT 100753Z AUTO 00000KT 10SM CLR 26/24 A2990

2010/08/10 08:00
KBQK 100800Z AUTO 11003KT 10SM CLR 28/25 A2997

2010/08/10 07:53
KBRO 100753Z 17005KT 10SM CLR 28/26 A2989

2010/08/10 07:53
KBTR 100753Z 00000KT 8SM SCT004 BKN200 25/24 A2992

2010/08/10 07:53
KCEW 100753Z AUTO 00000KT 3SM BR CLR 23/23 A2993

2010/08/10 07:53
KCHA 100753Z 00000KT 10SM CLR 26/24 A3000

2010/08/10 07:53
KCLL 100753Z AUTO 18003KT 10SM CLR 27/23 A2992

2010/08/10 07:53
KCNM 100753Z AUTO 16005KT 10SM CLR 21/16 A3000

2010/08/10 07:51
KCRP 100751Z 20003KT 10SM FEW018 27/26 A2990

2010/08/10 07:51
KCSG 100751Z AUTO 10005KT 9SM CLR 26/19 A2997

2010/08/10 07:53
KCSV 100753Z AUTO 00000KT 8SM CLR 24/20 A3007

2010/08/10 07:53
KDAB 100753Z 10003KT 10SM FEW020 27/24 A2993

2010/08/10 07:53
KDAL 100753Z 20004KT 10SM CLR 31/20 A2989

2010/08/10 07:53
KDFW 100753Z 21007KT 10SM FEW250 30/20 A2988

2010/08/10 07:53
KDHN 100753Z AUTO 07003KT 10SM CLR 24/22 A2998

2010/08/10 07:55
KDLF 100755Z AUTO 12012KT 10SM CLR 29/23 A2993

2010/08/10 07:53
KDMN 100753Z AUTO 22005KT 10SM CLR 20/10 A3005

2010/08/10 07:51
KELP 100751Z 18003KT 10SM FEW160 26/14 A3003

2010/08/10 07:53
KESF 100753Z AUTO 00000KT 9SM CLR 25/24 A2994

2010/08/10 07:53
KEYW 100753Z AUTO 18011KT 10SM -RA FEW008 SCT017 BKN110 27/24 A2983

2010/08/10 07:53
KFLL 100753Z 14012G18KT 10SM -RA SCT022 BKN030 OVC046 27/24 A2988

2010/08/10 07:53
KFSM 100753Z AUTO 00000KT 10SM CLR 27/23 A2991

2010/08/10 07:53
KFTW 100753Z 20005KT 10SM CLR 28/20 A2989

2010/08/10 07:53
KFTY 100753Z 00000KT 4SM BR CLR 23/22 A3001

2010/08/10 07:53
KGGG 100753Z AUTO 23004KT 10SM CLR 28/23 A2992

2010/08/10 07:52
KGLS 100752Z AUTO 22003KT 10SM FEW022 29/25 A2991

2010/08/10 07:53
KGNV 100753Z AUTO 00000KT 10SM CLR 25/23 A2993

2010/08/10 07:53
KGPT 100753Z AUTO 00000KT 7SM CLR 27/24 A2991

2010/08/10 07:53
KGUP 100753Z AUTO 00000KT 10SM CLR 13/11 A3024

2010/08/10 07:53
KGWO 100753Z AUTO 21003KT 7SM CLR 24/24 A2994

2010/08/10 07:53
KHOT 100753Z AUTO 00000KT 10SM CLR 28/23 A2993

2010/08/10 07:53
KHOU 100753Z 24003KT 10SM FEW250 27/24 A2990

2010/08/10 07:52
KHRL 100752Z AUTO 11003KT 10SM CLR 26/26 A2989

2010/08/10 07:53
KHRO 100753Z AUTO 00000KT 8SM CLR 26/23 A2997

2010/08/10 07:53
KHSV 100753Z 11003KT 5SM BR FEW200 26/24 A2998

2010/08/10 07:53
KIAH 100753Z 00000KT 10SM FEW250 27/25 A2991

2010/08/10 07:54
KJAN 100754Z 00000KT 9SM CLR 24/23 A2996

2010/08/10 07:56
KJAX 100756Z 05005KT 10SM FEW022 25/23 A2994

2010/08/10 07:53
KJBR 100753Z AUTO 00000KT 10SM CLR 26/24 A2992

2010/08/10 07:53
KLBB 100753Z 12004KT 10SM CLR 20/17 A3004

2010/08/10 07:53
KLCH 100753Z AUTO 00000KT 10SM CLR 26/24 A2990

2010/08/10 07:53
KLFT 100753Z AUTO 00000KT 10SM CLR 25/24 A2992

2010/08/10 07:53
KLIT 100753Z 00000KT 7SM SCT250 28/25 A2991

2010/08/10 07:56
KLRD 100756Z AUTO 16010KT 10SM CLR 29/25 A2994

2010/08/10 07:50
KLRU 100750Z AUTO 28005KT 10SM CLR 23/09 A3007

2010/08/10 07:53
KMAF 100753Z AUTO 14004KT 10SM CLR 21/19 A3000

2010/08/10 07:53
KMCN 100753Z AUTO 00000KT 7SM CLR 24/22 A2999

2010/08/10 07:53
KMCO 100753Z 09006KT 10SM FEW028 25/23 A2992

2010/08/10 07:58
KMEI 100758Z AUTO 00000KT 6SM BR CLR 24/24 A2995

2010/08/10 07:53
KMEM 100753Z 00000KT 10SM CLR 27/24 A2993

2010/08/10 07:53
KMFE 100753Z AUTO 14004KT 10SM SCT018 SCT023 BKN033 28/26 A2990

2010/08/10 07:53
KMGM 100753Z 08003KT 8SM SCT070 26/23 A2994

2010/08/10 07:53
KMIA 100753Z 13011KT 8SM -RA SCT019TCU BKN028 OVC060 26/24 A2988

2010/08/10 07:53
KMKL 100753Z AUTO 00000KT 5SM BR CLR 26/24 A2995

2010/08/10 07:53
KMLB 100753Z 14008KT 10SM FEW019 SCT031 27/23 A2992

2010/08/10 07:53
KMLC 100753Z AUTO 21003KT 10SM CLR 26/20 A2992

2010/08/10 07:53
KMLU 100753Z AUTO A2993

2010/08/10 07:56
KMOB 100756Z 01003KT 10SM FEW250 26/24 A2994

2010/08/10 07:53
KMSL 100753Z AUTO 00000KT 6SM BR CLR 24/23 A2998

2010/08/10 07:53
KMSY 100753Z 00000KT 9SM CLR 25/24 A2992

2010/08/10 07:53
KNEW 100753Z AUTO 05006KT 9SM FEW012 28/26 A2992

2010/08/10 07:56
KNGP 100756Z AUTO 10SM CLR 28/27 A2989

2010/08/10 07:52
KOKC 100752Z 19006KT 10SM CLR 26/21 A2992

2010/08/10 07:53
KPBI 100753Z 15010KT 10SM SCT024CB BKN032 BKN050 26/23 A2988

2010/08/10 07:53
KPDK 100753Z AUTO 00000KT 10SM CLR 26/21 A3002

2010/08/10 07:53
KPIE 100753Z AUTO 10010KT 10SM FEW015 26/23 A2987

2010/08/10 07:53
KPNS 100753Z AUTO 36006KT 7SM CLR 26/24 A2991

2010/08/10 07:51
KROW 100751Z AUTO 00000KT 10SM CLR 22/17 A3003

2010/08/10 07:53
KRSW 100753Z AUTO 10009KT 10SM OVC008 25/23 A2985

2010/08/10 07:53
KSAT 100753Z 18006KT 10SM BKN014 OVC021 27/24 A2996

2010/08/10 07:56
KSHV 100756Z 11003KT 10SM SCT290 27/23 A2991

2010/08/10 07:51
KSJT 100751Z AUTO 20004KT 10SM CLR 27/17 A2996

2010/08/10 07:53
KSRQ 100753Z AUTO 09008KT 10SM CLR 25/24 A2985

2010/08/10 07:53
KSSI 100753Z AUTO 13011KT 10SM FEW026 28/23 A2996

2010/08/10 07:53
KTCC 100753Z AUTO 23006KT 10SM CLR 23/17 A3004

2010/08/10 07:53
KTCL 100753Z AUTO 00000KT 5SM BR CLR 26/24 A2995

2010/08/10 07:53
KTCS 100753Z AUTO 30009KT 10SM CLR 23/11 A3007

2010/08/10 07:53
KTLH 100753Z 07005KT 10SM SCT095 27/23 A2992

2010/08/10 07:53
KTPA 100753Z 07004KT 10SM FEW050 26/23 A2988

2010/08/10 07:53
KTRI 100753Z 00000KT 5SM BR FEW060 SCT080 22/21 A3005

2010/08/10 07:53
KTUL 100753Z 19010KT 10SM CLR 31/19 A2989

2010/08/10 07:53
KTUP 100753Z AUTO 17004KT 8SM CLR 26/24 A2995

2010/08/10 07:53
KTXK 100753Z AUTO 11003KT 10SM CLR 27/23 A2992

2010/08/10 07:53
KTYR 100753Z 21004KT 10SM CLR 29/23 A2993

2010/08/10 07:53
KTYS 100753Z 00000KT 9SM CLR 27/22 A3000

2010/08/10 07:51
KVCT 100751Z AUTO 00000KT 10SM CLR 26/25 A2992

2010/08/10 07:53
KVLD 100753Z AUTO 00000KT 10SM CLR 25/23 A2994

2010/08/10 07:53
KVRB 100753Z AUTO 13005KT 10SM FEW028 SCT048 26/23 A2990

2010/08/10 07:53
TIST 100753Z AUTO 10006KT 10SM FEW028 OVC090 28/24 A2992

2010/08/10 07:53
TISX 100753Z AUTO 07004KT 10SM CLR 27/24 A2992

2010/08/10 07:56
TJSJ 100756Z 10004KT 10SM SCT070 26/24 A2992

2010/08/10 08:04
KBTV 100804Z 00000KT 1/4SM FG VV001 18/18 A2991 RMK AO2 RVRNO

2010/08/10 08:05
KDKK 100805Z AUTO 18007KT 2SM RA BR SCT030 BKN047 OVC075 22/21 A2995 RMK AO2 RAB0754 P0003 $

2010/08/10 08:05
KGZH 100805Z AUTO 00000KT 1 3/4SM BR CLR 24/23 A2995 RMK AO2

2010/08/10 08:05
KRME 100805Z AUTO 00000KT 2 1/2SM BR BKN003 BKN016 BKN023 21/20 A2997 RMK AO2 $

2010/08/10 08:05
KTQE 100805Z AUTO 00000KT 1SM BR VV001 24/24 A2982 RMK AO2

2010/08/10 08:04
PAGN 100804Z AUTO 00000KT BKN006 OVC013 RMK AO2 PWINO TSNO CIG 004V007 $

2010/08/10 08:04
PAGN 100804Z AUTO 00000KT BKN006 OVC013 RMK AO2 PWINO TSNO CIG 004V007 $

2010/08/10 08:04
PAOT 100804Z 15009KT 10SM -RA FEW011 BKN030 OVC039 14/13 A2944 RMK AO2 P0000

2010/08/10 08:04
PAQT 100804Z AUTO 06013KT 2 1/2SM BR OVC004 03/03 A2979 RMK AO2 TSNO

2010/08/10 08:05
KFYJ 100805Z AUTO 00000KT 10SM CLR 26/24 A2997 RMK AO1

2010/08/10 07:55
EHSC 100755Z AUTO 21017G21KT 9999 18/15 Q1012 W///S3

2010/08/10 08:00
UAAA 100800Z 27007G12MPS 230V310 9999 SCT050CB BKN100 33/03 Q1008 88CLRD65 NOSIG

2010/08/10 08:00
UACC 100800Z 01007G12MPS 9999 BKN040 19/04 Q1019 040/0070 NOSIG RMK QFE733/0977

2010/08/10 08:00
UAKK 100800Z 36008MPS 9999 BKN050CB 18/05 Q1017 050///70 NOSIG RMK QFE716/0954

2010/08/10 08:00
UARR 100800Z 08007MPS 4200 FU NSC 34/03 Q1018 04CLRD70 NOSIG RMK QFE760/1014

2010/08/10 08:00
UATE 100800Z 11005G10MPS CAVOK 40/04 Q1012 120///70 NOSIG RMK QFE757/1009

2010/08/10 08:00
UATG 100800Z 07006G09MPS CAVOK 40/11 Q1013 32CLRD70 NOSIG RMK QFE761/1015 

2010/08/10 08:00
UATT 100800Z 08007MPS 060V120 9999 NSC 29/01 Q1021 13CLRD70 NOSIG RMK QFE746/0995

2010/08/10 08:00
UAUU 100800Z 06002MPS 010V180 CAVOK 24/02 Q1022 33CLRD70 NOSIG RMK QFE751/1001

2010/08/10 07:55
EHSA 100755Z AUTO 20020G24KT 9999 18/16 Q1012 W19/S4

2010/08/10 08:00
UAFM 100800Z 32007MPS CAVOK 33/04 Q1010 TEMPO 30008G13MPS FCST WS

2010/08/10 08:00
SBMN 100800Z 00000KT 9999 FEW015 25/23 Q1012

2010/08/10 08:00
UDYZ 100800Z 18003MPS 160V220 9999 SKC 33/09 Q1011 09010070 NOSIG

2010/08/10 08:00
UDSG 100800Z 06005MPS 9999 NSC 29/07 Q1017 02CLRD70 NOSIG

2010/08/10 08:00
FYGB 100800Z AUTO 09007KT //// // ////// 09/M12 Q1033

2010/08/10 07:55
EHJR 100755Z AUTO 20023G26KT //// 17/16 Q1009 W17/S3

2010/08/10 08:00
YBTL 100800Z 05004KT 6000 -RA FEW005 SCT016 BKN050 23/23 Q1014 FM0800 01008KT 9000 -RA FEW005 SCT020 BKN035 INTER 0800/0930 4000 SHRA BKN012 RMK USE TAF FOR ARRIVALS AFTER 0930Z

2010/08/10 08:00
LEBG 100800Z 00000KT 9999 FEW035 19/13 Q1021

2010/08/10 08:00
LEHC 100800Z 22004KT 170V270 9999 FEW060 23/15 Q1019

2010/08/10 08:04
PASY 100804Z AUTO 29010KT 3/4SM BR VV001 09/08 A2988

2010/08/10 08:00
UTAA 100800Z VRB01MPS 9999 SKC 38/03 Q1011 NOSIG

2010/08/10 08:00
UTAK 100800Z 13006MPS CAVOK 38/06 Q1011 NOSIG

2010/08/10 08:00
UTAM 100800Z 01005MPS CAVOK 37/08 Q1006 NOSIG

2010/08/10 08:00
UTAT 100800Z 01004MPS CAVOK 38/18 Q1010 NOSIG

2010/08/10 08:04
EHKD 100804Z AUTO 22014KT 9999NDV SCT011/// SCT013/// BKN017/// 18/16 Q1011 GRN WHT TEMPO GRN TEMPO SCT012 SCT015CB BKN020

2010/08/10 07:53
KABR 100753Z AUTO 15003KT 10SM CLR 23/21 A2986

2010/08/10 07:54
KALO 100754Z 00000KT 7SM CLR 24/23 A2993

2010/08/10 07:53
KASE 100753Z AUTO 21005KT 10SM SCT080 OVC100 09/07 A3031

2010/08/10 07:53
KATY 100753Z AUTO 12003KT 10SM SCT021 SCT026 24/22 A2988

2010/08/10 07:53
KAXN 100753Z AUTO 13005KT 8SM CLR 22/21 A2995

2010/08/10 07:53
KAZO 100753Z AUTO 00000KT 1 1/4SM BR CLR 21/21 A2997

2010/08/10 07:53
KBDE 100753Z AUTO 00000KT 10SM CLR 21/19 A2992

2010/08/10 07:53
KBFF 100753Z AUTO 10003KT 10SM CLR 18/16 A3000

2010/08/10 07:52
KBIS 100752Z AUTO 11004KT 10SM CLR 22/18 A2985

2010/08/10 07:55
KBKF 100755Z 23009KT 25SM SCT120 17/13 A3013

2010/08/10 07:53
KBRL 100753Z AUTO 00000KT 10SM CLR 26/24 A2990

2010/08/10 07:53
KBTL 100753Z AUTO 00000KT 5SM BR CLR 21/20 A2999

2010/08/10 07:53
KCGI 100753Z AUTO 00000KT 5SM BR CLR 26/24 A2994

2010/08/10 07:52
KCID 100752Z AUTO 05005KT 9SM CLR 24/23 A2992

2010/08/10 07:55
KCIU 100755Z AUTO 03006KT 1/2SM OVC002 20/19 A2997

2010/08/10 07:53
KCMI 100753Z AUTO 00000KT 7SM CLR 26/24 A2995

2010/08/10 07:53
KCMX 100753Z AUTO 00000KT 10SM CLR 17/17 A2996

2010/08/10 07:54
KCOS 100754Z AUTO 08008KT 10SM BKN100 18/13 A3017

2010/08/10 07:54
KCOU 100754Z AUTO 17004KT 9SM CLR 26/25 A2991

2010/08/10 07:53
KCPR 100753Z AUTO 18006KT 10SM CLR 17/02 A3004

2010/08/10 07:53
KCYS 100753Z AUTO 24008KT 10SM CLR 13/11 A3013

2010/08/10 07:52
KDDC 100752Z AUTO 17008KT 10SM CLR 23/18 A2991

2010/08/10 07:54
KDEC 100754Z AUTO 06005KT 10SM BKN110 25/21 A2994

2010/08/10 07:53
KDEN 100753Z 23006KT 10SM SCT140 BKN200 17/13 A3011

2010/08/10 07:53
KDET 100753Z 00000KT 8SM CLR 22/21 A2995

2010/08/10 07:55
KDLH 100755Z 00000KT 10SM CLR 21/18 A2998

2010/08/10 07:54
KDSM 100754Z 13012KT 10SM -TSRA SCT015 OVC080CB 23/21 A2987

2010/08/10 07:53
KDTW 100753Z 00000KT 4SM OVC011 22/21 A2996

2010/08/10 07:56
KEAU 100756Z AUTO 04004KT 2 1/2SM BR CLR 21/20 A2994

2010/08/10 07:55
KEGE 100755Z AUTO 00000KT 10SM OVC100 14/09 A3024

2010/08/10 07:53
KELO 100753Z AUTO 00000KT 10SM CLR 18/17 A2997

2010/08/10 07:54
KEVV 100754Z AUTO 00000KT 8SM CLR 25/23 A2995

2010/08/10 08:00
SADF 100800Z 00000KT 8000 MIFG SKC 04/04 Q1027

2010/08/10 08:00
SAWG 100800Z 32014KT 9999 FEW035 02/M02 Q1009

2010/08/10 08:00
SAZM 100800Z 32005KT CAVOK 00/M02 Q1026

2010/08/10 08:04
KMSS 100804Z AUTO 22005KT 10SM OVC004 22/21 A2991

2010/08/10 07:53
KFAR 100753Z 15005KT 10SM CLR 24/19 A2989

2010/08/10 07:53
KFNT 100753Z 00000KT 1/4SM FG 21/20 A2996

2010/08/10 07:56
KFSD 100756Z 11007KT 10SM FEW025 BKN038 25/23 A2986

2010/08/10 07:54
KFWA 100754Z 00000KT 3/4SM BR CLR 23/22 A2997

2010/08/10 07:54
KGCK 100754Z 04003KT 10SM CLR 24/18 A2996

2010/08/10 07:53
KGFK 100753Z 18003KT 10SM FEW250 21/19 A2988

2010/08/10 07:53
KGJT 100753Z AUTO 09005KT 10SM CLR 18/02 A3008

2010/08/10 07:53
KGRB 100753Z AUTO 00000KT 1/4SM FG VV001 21/21 A2995

2010/08/10 07:53
KGRI 100753Z AUTO 19007KT 10SM CLR 25/22 A2986

2010/08/10 07:53
KGRR 100753Z AUTO 00000KT 2SM BR CLR 20/19 A2997

2010/08/10 07:53
KHIB 100753Z AUTO 00000KT 1/4SM FG VV001 17/16 A2997

2010/08/10 07:55
KHON 100755Z AUTO 15005KT 9SM FEW018 SCT029 OVC034 24/23 A2982

2010/08/10 07:53
KHUF 100753Z 00000KT 5SM BR CLR 24/23 A2995

2010/08/10 07:52
KHUT 100752Z AUTO 17008KT 10SM CLR 28/21 A2989

2010/08/10 07:53
KICT 100753Z 16008KT 10SM SCT100 28/21 A2989

2010/08/10 07:54
KIND 100754Z 24003KT 9SM BKN120 OVC250 26/23 A2995

2010/08/10 07:55
KINL 100755Z AUTO 00000KT 10SM FEW090 18/17 A2994

2010/08/10 07:55
KIRK 100755Z AUTO 20004KT 10SM CLR 27/26 A2993

2010/08/10 07:55
KJAC 100755Z 11004KT 10SM CLR 08/05 A3016

2010/08/10 07:53
KJLN 100753Z AUTO 18006KT 10SM CLR 26/21 A2993

2010/08/10 07:56
KJMS 100756Z AUTO 13005KT 10SM CLR 20/18 A2988

2010/08/10 07:56
KJXN 100756Z 00000KT 1/4SM FG VV001 20/20 A2998

2010/08/10 07:53
KLAN 100753Z 00000KT 3SM R28L/1600V6000FT BR MIFG CLR 19/19 A2997

2010/08/10 07:53
KLAR 100753Z AUTO 20007KT 10SM CLR 10/07 A3021

2010/08/10 07:53
KLBF 100753Z AUTO 07004KT 10SM CLR 19/19 A2992

2010/08/10 07:55
KLBL 100755Z 20008KT 10SM CLR 24/17 A2998

2010/08/10 07:54
KLEX 100754Z 16003KT 9SM CLR 24/21 A2999

2010/08/10 07:54
KLNK 100754Z 19005KT 10SM CLR 26/23 A2984

2010/08/10 07:53
KLOU 100753Z AUTO 00000KT 10SM CLR 28/24 A2996

2010/08/10 07:53
KLOZ 100753Z AUTO 00000KT 5SM BR CLR 23/22 A3002

2010/08/10 07:53
KLSE 100753Z AUTO 00000KT 3/4SM BR OVC002 23/23 A2993

2010/08/10 07:53
KMBS 100753Z 34007KT 10SM CLR 22/21 A2996

2010/08/10 08:00
TBPB 100800Z 13007KT 9999 SCT020 SCT280 27/24 Q1013 NOSIG

2010/08/10 07:53
KMCI 100753Z 18006KT 10SM CLR 26/22 A2988

2010/08/10 07:51
KMDW 100751Z 06004KT 10SM SCT085 SCT250 26/21 A2993

2010/08/10 07:52
KMHK 100752Z AUTO 22008KT 10SM CLR 29/21 A2986

2010/08/10 07:54
KMKC 100754Z 22005KT 10SM CLR 29/22 A2987

2010/08/10 07:52
KMKE 100752Z 00000KT 3SM BR FEW250 22/21 A2993

2010/08/10 07:55
KMKG 100755Z 00000KT 2 1/2SM BR FEW001 21/20 A2996

2010/08/10 07:52
KMLI 100752Z 09003KT 10SM CLR 24/23 A2991

2010/08/10 07:54
KMOT 100754Z AUTO 08005KT 10SM BKN046 21/17 A2987

2010/08/10 07:53
KMSN 100753Z 00000KT 1SM BR FEW001 SCT008 22/21 A2993

2010/08/10 07:53
KMSP 100753Z 12003KT 9SM CLR 25/22 A2993

2010/08/10 07:55
KOFF 100755Z AUTO 15005KT 10SM CLR 26/25 A2984

2010/08/10 07:52
KOMA 100752Z 15006KT 10SM FEW250 28/26 A2984

2010/08/10 07:51
KORD 100751Z 00000KT 10SM FEW120 SCT200 24/23 A2994

2010/08/10 07:53
KOSH 100753Z AUTO 00000KT 1 3/4SM BR CLR 22/21 A2994

2010/08/10 07:53
KOTM 100753Z AUTO 35010G20KT 10SM VCTS FEW020 SCT026 OVC031 23/22 A2995

2010/08/10 07:56
KOWB 100756Z AUTO 00000KT 9SM CLR 28/25 A2995

2010/08/10 07:53
KPAH 100753Z AUTO 00000KT 7SM CLR 26/24 A2993

2010/08/10 07:53
KPIR 100753Z AUTO 18007KT 10SM SCT065 24/23 A2983

2010/08/10 07:54
KPLN 100754Z AUTO 31003KT 1 1/4SM BR OVC002 22/22 A2998

2010/08/10 07:53
KPTK 100753Z 33003KT 6SM BR FEW140 22/22 A2995

2010/08/10 07:53
KPUB 100753Z AUTO 00000KT 10SM CLR 15/14 A3006

2010/08/10 07:52
KRAP 100752Z AUTO 15007KT 10SM CLR 21/17 A2987

2010/08/10 07:54
KRFD 100754Z 08006KT 10SM FEW030 SCT180 24/22 A2994

2010/08/10 07:54
KRKS 100754Z AUTO 23006KT 10SM CLR 13/00 A3018

2010/08/10 07:54
KRST 100754Z AUTO 12003KT 6SM BR CLR 22/22 A2996

2010/08/10 07:59
KSAW 100759Z AUTO 00000KT 7SM CLR 18/17 A2997

2010/08/10 07:56
KSDF 100756Z 00000KT 8SM CLR 28/23 A2995

2010/08/10 07:53
KSDM 100753Z AUTO 00000KT 10SM OVC010 16/14 A2992

2010/08/10 07:52
KSGF 100752Z 16005KT 10SM CLR 27/23 A2995

2010/08/10 07:53
KSLN 100753Z 17009KT 10SM CLR 29/21 A2985

2010/08/10 07:52
KSPI 100752Z AUTO 13004KT 10SM CLR 26/22 A2991

2010/08/10 07:53
KSTC 100753Z AUTO 00000KT 8SM CLR 21/19 A2993

2010/08/10 07:53
KSTJ 100753Z AUTO 20004KT 10SM CLR 26/23 A2986

2010/08/10 07:51
KSTL 100751Z 18003KT 10SM FEW250 29/24 A2991

2010/08/10 07:53
KSTP 100753Z AUTO 00000KT 9SM CLR 24/22 A2993

2010/08/10 07:54
KSUS 100754Z AUTO 00000KT 8SM CLR 26/24 A2989

2010/08/10 07:52
KSUX 100752Z 10004KT 8SM CLR 25/24 A2983

2010/08/10 07:53
KTVC 100753Z AUTO 00000KT 5SM BR CLR 19/19 A2996

2010/08/10 07:54
KUIN 100754Z AUTO 19004KT 10SM CLR 27/25 A2990

2010/08/10 07:53
KWRL 100753Z AUTO 00000KT 10SM BKN100 17/08 A2997

2010/08/10 07:53
KYIP 100753Z 00000KT 1/4SM FG BKN001 BKN027 20/19 A2996

2010/08/10 07:54
KAPN 100754Z AUTO 27003KT 7SM CLR 19/18 A2996

2010/08/10 07:54
KSBN 100754Z 04004KT 5SM BR CLR 21/20 A2996

2010/08/10 08:00
CWEU 100800Z 27008KT 40SM FEW003 01/M01 A3001 RMK CF1 SLP164

2010/08/10 08:00
CWFD 100800Z AUTO 35024KT 9SM 04/ RMK ALTM MISG

2010/08/10 08:00
CWKP 100800Z AUTO 28008KT 09/ A2969 RMK SLP075

2010/08/10 08:00
CWRH 100800Z AUTO ///// 03/ A2978 RMK SLP113

2010/08/10 08:00
CWTU 100800Z AUTO 28004KT 08/ A2958 RMK SLP026

2010/08/10 08:00
CWWU 100800Z 09004KT 7SM -SHRA SCT022 BKN034 OVC040 15/14 A2990 RMK SC3SC3SC2 SLP127

2010/08/10 08:00
CWXR 100800Z AUTO 29004KT 08/ A2969 RMK SLP062

2010/08/10 08:00
CWYM 100800Z AUTO 06018KT 02/ RMK ALTM MISG SLP135

2010/08/10 08:00
CYPD 100800Z AUTO 24005KT 220V280 9SM FEW011 SCT033 18/17 A2983 RMK SLP101 DENSITY ALT 900FT

2010/08/10 08:00
CZPC 100800Z AUTO 29008KT 9SM FEW091 13/09 A2985 RMK SLP092

2010/08/10 08:00
CZUM 100800Z AUTO 27004KT 9SM OVC012 OVC054 OVC074 10/09 A2966 RMK SLP054

2010/08/10 08:00
CBBC 100800Z AUTO 00000KT 9SM CLR A2998

2010/08/10 08:00
CYKA 100800Z 00000KT 40SM OVC079 14/13 A2992 RMK AC8 SLP134

2010/08/10 08:00
CYLW 100800Z AUTO 07002KT 9SM -RA BKN056 OVC073 14/13 A2990 RMK SLP125 DENSITY ALT 1600FT

2010/08/10 08:00
CYMA 100800Z 36003KT 20SM FEW050 FEW080 10/08 A2972 RMK SC1AC1 ALL CLDS TR SLP075

2010/08/10 08:00
CYQH 100800Z 00000KT 20SM SCT035 13/07 A2981 RMK SC3 SLP100

2010/08/10 08:00
CYQU 100800Z 00000KT 25SM FEW090 FEW250 08/05 A2990 RMK AC1CI0 SLP133

2010/08/10 08:00
CYWL 100800Z 00000KT 15SM SKC 09/07 A2995 RMK SLP155

2010/08/10 08:00
CYXJ 100800Z 00000KT 15SM OVC068 14/09 A2989 RMK AC8 SLP129

2010/08/10 08:00
CYXT 100800Z 20004KT 15SM FEW050 13/11 A3001 RMK SC2 SLP164

2010/08/10 08:00
CYXY 100800Z 15011KT 40SM SCT060 BKN160 12/07 A2982 RMK SC3AC1 SLP113

2010/08/10 08:00
CYYD 100800Z AUTO 00000KT 9SM CLR 10/07 A2997 RMK SLP155

2010/08/10 08:00
CYYE 100800Z 00000KT 10SM BCFG FEW005 SCT050 BKN150 14/09 A2979 RMK SF2SC2AC2 SLP097

2010/08/10 08:00
CYYF 100800Z 36005KT 15SM -SHRA SCT045 OVC080 15/12 A2990 RMK SC4AC4 SLP124

2010/08/10 08:00
CYZY 100800Z AUTO 03002KT 9SM SCT071 10/09 A2991 RMK SLP145

2010/08/10 08:00
CYAM 100800Z 33004KT 1 1/2SM BR OVC003 21/20 A2996 RMK SF8 SLP146

2010/08/10 08:00
CYGP 100800Z 00000KT 15SM FEW120 14/13 A2974 RMK AC1 SLP070

2010/08/10 08:00
CYHD 100800Z AUTO 17009KT 9SM FEW065 22/19 A2991 RMK SLP127

2010/08/10 08:00
CYHU 100800Z AUTO 24005KT 4SM CLR 17/ A2988 RMK SLP121 DENSITY ALT 300FT TD MISG RVR MISG

2010/08/10 08:00
CYMO 100800Z AUTO 34004KT 9SM OVC005 OVC016 10/10 A2997 RMK SLP151

2010/08/10 08:00
CYNA 100800Z AUTO 25004KT 3 1/2SM FEW058 14/13 A2965 RMK SLP041

2010/08/10 08:00
CYPQ 100800Z AUTO ///// 1/8SM FEW025 17/17 A2993 RMK SLP136

2010/08/10 08:00
CYRJ 100800Z 26007KT 25SM FEW045 15/10 A2984 RMK SC1 SLP107

2010/08/10 08:00
CYTS 100800Z 00000KT 15SM FEW080 FEW120 16/13 A2990 RMK AC1AC1 SLP124

2010/08/10 08:00
CYTZ 100800Z AUTO VRB02KT 2 1/2SM OVC061 21/21 A2992 RMK SLP132 DENSITY ALT 1000FT RVR MISG

2010/08/10 08:00
CYVP 100800Z 33004KT 15SM OVC005 06/04 A2984 RMK SF8 SLP108

2010/08/10 08:00
CYVV 100800Z 00000KT 4SM BR FEW007 OVC022 22/21 A2994 RMK SF2SC6 SLP139

2010/08/10 08:00
CYWA 100800Z AUTO 00000KT 2 1/2SM CLR 13/13 A2991 RMK VSBY VRBL 1.5V9.+ SLP130

2010/08/10 08:00
CYXR 100800Z AUTO 00000KT 9SM CLR 13/13 A2989 RMK SLP112

2010/08/10 08:00
CYYY 100800Z 21004KT 15SM FEW080 16/14 A2980 RMK AC1 SLP091

2010/08/10 08:00
CYZE 100800Z AUTO 33003KT 2 1/2SM BR CLR 17/17 A2994 RMK SLP139 DENSITY ALT 900FT

2010/08/10 08:00
CYZR 100800Z AUTO 21003KT 2SM BR FEW046 21/20 A2994 RMK SLP136 DENSITY ALT 1400FT

2010/08/10 08:00
CYBG 100800Z 18004KT 15SM FEW040 14/12 A2984 RMK SC1 SLP105

2010/08/10 08:00
CYEG 100800Z 33005KT 15SM FEW110 SCT210 14/14 A2983 RMK AC2CI1 OCNL LTNG NW SLP104

2010/08/10 08:00
CYFB 100800Z 34008KT 15SM SCT027 OVC064 11/10 A2986 RMK SC3SC5 INTMT -RA SLP114

2010/08/10 08:00
CYFC 100800Z AUTO 00000KT 1/8SM FG VV002 17/17 A2980 RMK SLP092 DENSITY ALT 400FT RVR MISG

2010/08/10 08:00
CYGL 100800Z 34005KT 6SM -RA BR OVC007 08/08 A2994 RMK SC8 SLP145

2010/08/10 08:00
CYHZ 100800Z 22006KT 1/2SM R14/3500FT/D R23/2000V2800FT/D FG VV001 17/17 A2985 RMK FG8 SLP109

2010/08/10 08:00
CYJT 100800Z 20010KT 15SM FEW009 OVC045 17/16 A2978 RMK SF2SC6 SLP084

2010/08/10 08:00
CYMX 100800Z 26003KT 2SM R06/4500VP6000FT/U BR SKC 18/15 A2990 RMK FG2 VIS VRB 1-3 SLP126

2010/08/10 08:00
CYOW 100800Z 00000KT 1/4SM R07/1600FT/N R32/1200V1800FT/N FG SKC 17/17 A2992 RMK FG6 SLP132

2010/08/10 08:00
CYQB 100800Z 00000KT 8SM R06/3000FT/N PRFG FEW003 16/16 A2986 RMK SF1 HAZY SLP111

2010/08/10 08:00
CYQG 100800Z 00000KT 6SM BR SKC 22/21 A2995 RMK SLP139

2010/08/10 08:00
CYQM 100800Z 20006KT 1/4SM R29/1400FT/N R06/3000V5000FT/N FG VV001 17/17 A2980 RMK FG8 SLP091

2010/08/10 08:00
CYQQ 100800Z 30004KT 20SM FEW040 FEW080 SCT240 16/12 A2994 RMK SC1AC1CI0 SLP140

2010/08/10 08:00
CYQX 100800Z 19013KT 20SM BKN110 BKN130 BKN150 15/12 A2986 RMK AC6AC1AC1 SLP112

2010/08/10 08:00
CYQY 100800Z 20009KT 15SM SCT060 17/16 A2982 RMK SC4 SLP098

2010/08/10 08:00
CYTR 100800Z 00000KT 1/2SM FG BKN020 19/16 A2992 RMK FG6SC2 VIS VRB 1/4-3/4 SLP132

2010/08/10 08:00
CYUL 100800Z 24006KT 10SM SCT005 20/19 A2990 RMK SF3 SLP124

2010/08/10 08:00
CYVR 100800Z 10005KT 15SM FEW015 SCT080 BKN100 15/11 A2994 RMK SC2AC2AC4 SLP140

2010/08/10 08:00
CYWG 100800Z 20003KT 15SM FEW014 OVC076 24/22 A2983 RMK CF1AC7 CB EMBD DST SW-NW LTGICCC DST SW-NW SLP100

2010/08/10 08:00
CYXX 100800Z 28003KT 10SM FEW010 BKN027 15/11 A2995 RMK SF1SC6 SLP141

2010/08/10 08:00
CYYC 100800Z 22002KT 15SM -RA SCT060 BKN100 14/10 A2990 RMK SC3AC2 SLP119

2010/08/10 08:00
CYYJ 100800Z 00000KT 8SM FEW005 BKN019 12/11 A2994 RMK SF1SC7 SLP139

2010/08/10 08:00
CYYQ 100800Z 14004KT 1/4SM R33/2800FT/N FG VV002 08/08 A3007 RMK FG8 SLP183

2010/08/10 08:00
CYYR 100800Z 28006KT 15SM FEW026 FEW051 SCT083 14/13 A2960 RMK SC1SC1AC3 SLP024

2010/08/10 08:00
CYYT 100800Z 17002KT 15SM FEW012 OVC045 14/13 A2992 RMK SC2SC6 OCNL -SHRA SLP134

2010/08/10 08:00
CYYZ 100800Z 31002KT 6SM BR BKN053 22/21 A2994 RMK SC6 SLP135

2010/08/10 08:00
CYZF 100800Z 12002KT 15SM FEW110 FEW230 17/13 A2976 RMK AC1CI1 SLP082

2010/08/10 08:00
CYZV 100800Z 29007KT 15SM FEW100 15/12 A2973 RMK AC1 SLP069

2010/08/10 08:00
CYZX 100800Z 18007KT 3SM -TSRA BR FEW002 BKN042 OVC076 18/18 A2983 RERA RMK SF2SC3AC2 WNDY HILL 19007KT CB EMBD SW MOVG NE OCNL LTGCCCG SLP102

2010/08/10 08:00
CYEN 100800Z CCA 13007KT 8SM +TSRA OVC060CB 19/16 A2985 RMK CB8 FRQ LTGICCCCG PRESRR PAST HR SLP105

2010/08/10 08:00
CYQK 100800Z CCA 17007KT 15SM SCT062 BKN150 BKN200 24/20 A2990 RMK SC3AC2CI1 LTNG DIST NE SLP122

2010/08/10 08:00
CYAY 100800Z AUTO 23013G23KT 9SM OVC013 17/15 A2965 RMK SLP042 DENSITY ALT 600FT MAX WND 24026KT AT 0712Z

2010/08/10 08:00
CYCX 100800Z AUTO 31003KT 1/4SM 16/16 A2980 RMK SLP092

2010/08/10 08:00
CYDF 100800Z 00000KT 10SM -SHRA BKN030 OVC055 16/14 A2976 RMK SC6SC2 SLP079

2010/08/10 08:00
CYDP 100800Z 31011KT 15SM FEW006 SCT008 OVC015 10/09 A2967 RMK SF2SC2SC4 SLP049

2010/08/10 08:00
CYGW 100800Z 30005KT 1/2SM FG VV001 09/09 A2995 RMK FG8 SLP144

2010/08/10 08:00
CYSJ 100800Z 19003KT 1/8SM R23/1200FT/N FG VV001 16/14 A2983 RMK FG8 SLP103

2010/08/10 08:00
CYYG 100800Z 25008KT 10SM OVC004 19/18 A2979 RMK SF8 SLP089

2010/08/10 08:00
CWRF 100800Z AUTO ///// 15/ A2976

2010/08/10 08:00
CWVD 100800Z AUTO ///// 04/ A2987 RMK SLP153

2010/08/10 08:00
CYCY 100800Z AUTO 00000KT 5/8SM CLR 03/03 A2988 RMK SLP121

2010/08/10 08:00
CYEK 100800Z AUTO 26004KT 1SM CLR 08/08 A3008 RMK VSBY VRBL 0.4V9.+ SLP188

2010/08/10 08:00
CYIO 100800Z AUTO 00000KT 9SM OVC046 OVC068 OVC081 09/07 A2983 RMK SLP105

2010/08/10 08:00
CYOD 100800Z 09004KT 15SM FEW050CB FEW100 BKN220 17/14 A2984 RMK CB1AC1CI2 DIST LTNG W SLP108

2010/08/10 08:00
CYPE 100800Z 33003KT 15SM SKC 13/07 A2987 RMK SLP119

2010/08/10 08:00
CYQV 100800Z AUTO 36002KT 9SM CLR 16/16 A2987 RMK SLP119

2010/08/10 08:00
CYSF 100800Z AUTO 00000KT 1SM BR OVC015 14/14 A2989 RMK SLP129 DENSITY ALT 900FT

2010/08/10 08:00
CYSM 100800Z 15006KT 15SM FEW070 FEW220 17/14 A2979 RMK AC1CI0 AURBO SLP092

2010/08/10 08:00
CYTH 100800Z 05003KT 15SM FEW070 BKN100 15/11 A2993 RMK AC2AC2 SLP141

2010/08/10 08:00
CYUS 100800Z AUTO ///// 9SM CLR 11/ A2992 RMK SLP136

2010/08/10 08:00
CYUX 100800Z AUTO 24005KT 9SM CLR 10/07 A2993 RMK SLP135

2010/08/10 08:00
CYXH 100800Z AUTO 07003KT 9SM CLR 17/14 A2977 RMK SLP073

2010/08/10 08:00
CYCB 100800Z 09016KT 10SM VCFG OVC005 10/09 A2985 RMK SF8 SLP110

2010/08/10 08:00
CYCO 100800Z 23004KT 10SM MIFG FEW006 FEW030 SCT050 BKN090 10/09 A2969 RMK SF1SC1SC2AC4 TR SF TCU EMBD SLP057

2010/08/10 08:00
CYFS 100800Z 00000KT 15SM -DZ BKN006 OVC030 15/14 A2973 RMK ST5SC3 SLP071

2010/08/10 08:00
CYHK 100800Z AUTO 21006KT 9SM CLR 11/09 A2989 RMK SLP126

2010/08/10 08:00
CYHY 100800Z 16005KT 15SM SCT050 BKN070 16/13 A2973 RMK SC3AS2 SLP072

2010/08/10 08:00
CYRT 100800Z 28010KT 15SM FEW090 FEW240 12/10 A3007 RMK AC1CI0 SLP185

2010/08/10 08:00
CYTE 100800Z AUTO 12004KT 9SM BKN054 BKN084 12/10 A2991 RMK SLP132

2010/08/10 08:00
CYVM 100800Z AUTO 00000KT 1/8SM VV001 03/03 A2993 RMK SLP135

2010/08/10 08:00
CYZS 100800Z 33010KT 15SM FEW210 08/04 A2997 RMK CI1 SLP153

2010/08/10 08:00
CYAH 100800Z AUTO 25002KT 9SM FEW036 OVC049 OVC080 11/10 A2986 RMK SLP122

2010/08/10 08:00
CYBX 100800Z 22013KT 4SM -RA BR OVC006 13/13 A2963 RMK SF8 SLP035

2010/08/10 08:00
CYGV 100800Z AUTO 29003KT 6SM FEW098 12/10 A2967 RMK SLP048

2010/08/10 08:00
CYMH 100800Z AUTO 23011G19KT 9SM FEW056 16/14 A2958 RMK SLP018

2010/08/10 08:00
CYMT 100800Z 25005KT 15SM FEW050 11/10 A2987 RMK SC1 SLP121

2010/08/10 08:00
CYNM 100800Z AUTO 30002KT 9SM FEW069 14/11 A2991 RMK SLP130

2010/08/10 08:00
CYOY 100800Z AUTO 00000KT 9SM FEW078 11/10 A2985 RMK SLP112

2010/08/10 08:00
CYPH 100800Z AUTO 36006KT 9SM CLR 09/09 A2993 RMK SLP138

2010/08/10 08:00
CYQI 100800Z 18005KT 1/4SM FG VV001 17/17 A2985 RETSRA RMK FG8 RVR RWY 24 1800 FT SLP109

2010/08/10 08:00
CYSL 100800Z 00000KT 1/8SM FG SKC 13/13 A2983 RMK FG5 /R23 AFT 1800UTC/ CLIM 24.8/14.4/23.6/0/23.6/NIL/ SLP103

2010/08/10 08:00
CYUY 100800Z 00000KT 15SM FEW070 17/14 A2992 RMK AC1 SLP131

2010/08/10 08:00
CYWK 100800Z 25005KT 15SM FEW011 FEW025 OVC054 10/09 A2974 RMK SF1SC1SC6 SLP080

2010/08/10 08:00
CWCA 100800Z 31004KT 7SM -RA BKN030 OVC070 13/12 A2957 RMK SC6AS2 SLP013

2010/08/10 08:00
CWCL 100800Z AUTO 00000KT 9SM CLR 05/04 A2995 RMK SLP159

2010/08/10 08:00
CWIL 100800Z AUTO 19013KT 14/ A2987 RMK SLP122

2010/08/10 08:00
CWKM 100800Z AUTO 07010KT 09/ A2969 RMK SLP058

2010/08/10 08:00
CWKW 100800Z AUTO 36010KT 04/ A2975 RMK SLP097

2010/08/10 08:00
CWLI 100800Z AUTO 07006KT 09/ A2972 RMK SLP075

2010/08/10 08:00
CWLX 100800Z AUTO 29012KT 13/ A2988 RMK SLP126

2010/08/10 08:00
CWLY 100800Z AUTO 17002KT 9SM FEW005 BKN011 BKN025 13/12 A2995 RMK SLP146

2010/08/10 08:00
CWOB 100800Z AUTO ///// 1/8SM CLR 03/ A2978 RMK SLP120

2010/08/10 08:00
CWPX 100800Z AUTO ///// 09/ A2980 RMK SLP106

2010/08/10 08:00
CWRX 100800Z AUTO 30008KT 08/ A2989

2010/08/10 08:00
CWUP 100800Z AUTO 16002KT 06/ A2988 RMK SLP141

2010/08/10 08:00
CWUW 100800Z AUTO ///// 9SM CLR 10/ A2990 RMK SLP148

2010/08/10 08:00
CWVH 100800Z AUTO 11008KT 12/ A2968 RMK SLP062

2010/08/10 08:00
CWYK 100800Z AUTO ///// 04/ A2961 RMK SLP052

2010/08/10 08:00
CWZZ 100800Z AUTO ///// 0SM BKN001 03/ A2967 RMK SLP071

2010/08/10 08:00
CZBF 100800Z 27006KT 15SM FEW070 19/16 A2977 RMK AC2 SLP082

2010/08/10 08:00
CZCP 100800Z AUTO 07010KT 1/8SM CLR 07/ A2973 RMK SLP073

2010/08/10 08:00
CYDB 100800Z AUTO 10005KT 9SM CLR 09/04 A2977 RMK SLP100

2010/08/10 08:00
CYDQ 100800Z AUTO 00000KT 9SM CLR 09/06 A2989 RMK SLP136

2010/08/10 08:00
CYEV 100800Z 10006KT 15SM FEW100 SCT200 15/10 A2966 RMK AC2CI0 SLP047

2010/08/10 08:00
CYHE 100800Z AUTO 10003KT 9SM OVC012 OVC037 15/15 A2993 RMK SLP138

2010/08/10 08:00
CYIV 100800Z 09003KT 15SM FEW060 FEW250 16/13 A2990 RMK SC1CI0 SLP128

2010/08/10 08:00
CYKY 100800Z 12009KT 15SM OVC050 18/14 A2983 RMK SC8 SLP094

2010/08/10 08:00
CYPR 100800Z AUTO /////KT 1/4SM VV002 A3003 RMK WND MISG T MISG TD MISG

2010/08/10 08:00
CYQD 100800Z 35002KT 6SM BR BKN003 15/14 A2989 RMK ST1 SLP124

2010/08/10 08:00
CYQZ 100800Z AUTO VRB02KT 9SM FEW091 10/09 A2993 RMK SLP150

2010/08/10 08:00
CYRV 100800Z AUTO 02004KT 9SM -RA FEW013 OVC035 16/15 A2985 RMK SLP110

2010/08/10 08:00
CYUA 100800Z AUTO 26007KT 9SM OVC001 11/ A2966 RMK SLP049

2010/08/10 08:00
CYXE 100800Z 10005KT 15SM BKN250 17/14 A2984 RMK CI2 SLP108

2010/08/10 08:00
CYXS 100800Z AUTO 20003KT 9SM SCT091 11/08 A2992 RMK SLP147 DENSITY ALT 2300FT

2010/08/10 08:00
CYZP 100800Z AUTO 26008KT 9SM OVC022 14/12 A3003 RMK SLP170

2010/08/10 08:00
CYZT 100800Z 22002KT 15SM FEW020 12/08 A3000 RMK SC2 SLP158

2010/08/10 08:00
CYBC 100800Z AUTO 27004KT 9SM CLR 13/11 A2978 RMK SLP085

2010/08/10 08:00
CYBN 100800Z AUTO 00000KT 7SM CLR 20/19 A2993 RMK SLP136

2010/08/10 08:00
CYGQ 100800Z 00000KT 15SM SKC 16/16 A2997 RMK SLP151

2010/08/10 08:00
CYHM 100800Z 00000KT 4SM BR BKN018 20/20 A2995 RMK SC5 SLP138

2010/08/10 08:00
CYKF 100800Z AUTO 06003KT 1/4SM FG BKN004 18/18 A2995 RMK SLP142 DENSITY ALT 1600FT

2010/08/10 08:00
CYKL 100800Z AUTO 32009KT 9SM OVC015 OVC052 09/08 A2970 RMK SLP072

2010/08/10 08:00
CYKZ 100800Z 28002KT 2 1/2SM BR OVC039 22/21 A2994 RMK SC8 SLP136

2010/08/10 08:00
CYOO 100800Z AUTO 00000KT 2 1/4SM BR FEW024 SCT029 BKN047 21/21 A2993 RMK SLP134 DENSITY ALT 1200FT

2010/08/10 08:00
CYQA 100800Z AUTO VRB02KT 3/4SM BR VV005 19/19 A2994 RMK SLP139 DENSITY ALT 1500FT

2010/08/10 08:00
CYQK 100800Z 17007KT 15SM SCT062 BKN150 BKN200 24/20 A2990 RMK SC3AC2CI1 SLP122

2010/08/10 08:00
CYRB 100800Z 04014KT 15SM FEW140 FEW240 04/01 A2995 RMK AC1CI1 AC TRACE SLP149

2010/08/10 08:00
CYSB 100800Z 24005KT 15SM FEW150 19/18 A2994 RMK AC2 SLP136

2010/08/10 08:00
CYSC 100800Z AUTO 12003KT 1/4SM FG BKN004 OVC010 13/13 A2990 RMK SLP130

2010/08/10 08:00
CYVO 100800Z AUTO 00000KT 9SM OVC054 17/17 A2993 RMK SLP137

2010/08/10 08:00
CYVQ 100800Z 00000KT 30SM FEW040 FEW100 SCT280 15/11 A2966 RMK SC1AC1CI1 SLP046

2010/08/10 08:00
CYXL 100800Z 00000KT 15SM FEW055CB SCT130 22/19 A2992 RMK CB2AC1 LTGICCG DIST NW-N SLP132

2010/08/10 08:00
CYXU 100800Z 00000KT 3SM BR OVC032 22/21 A2996 RMK SC8 SLP142

2010/08/10 08:00
CYYB 100800Z 29002KT 15SM SKC 18/17 A2994 RMK SLP137

2010/08/10 08:00
CYYU 100800Z 00000KT 15SM FEW085 14/14 A2992 RMK AC2 SLP132

2010/08/10 08:00
CWHN 100800Z AUTO 04007KT 9SM CLR 15/12 A2987 RMK SLP116

2010/08/10 08:00
CYBK 100800Z 23005KT 20SM FEW090 11/10 A3003 RMK AS1 SLP172

2010/08/10 08:00
CYBR 100800Z 09005KT 15SM FEW070 OVC180 22/19 A2990 RMK AC2AC6 OCNL LTGIC DIST E-SW SLP122

2010/08/10 08:00
CYBU 100800Z AUTO VRB02KT 3/8SM FG CLR 12/12 A2988 RMK SLP125

2010/08/10 08:00
CYDN 100800Z AUTO 25005KT 9SM CLR 16/15 A2986 RMK SLP115 DENSITY ALT 1400FT

2010/08/10 08:00
CYEN 100800Z 13007KT 8SM +TSRA OVC060CB 19/16 A2985 RMK CB8 FRQ LTGICCCCG SLP105

2010/08/10 08:00
CYET 100800Z AUTO 30003KT 9SM BKN069 12/12 A2991 RMK SLP133

2010/08/10 08:00
CYGX 100800Z 06004KT 15SM -RA OVC080 12/10 A3000 RMK AC6 SLP163

2010/08/10 08:00
CYKJ 100800Z AUTO 13003KT 1/8SM VV002 13/13 A2991 RMK SLP145 DENSITY ALT 1800FT

2010/08/10 08:00
CYLL 100800Z AUTO 08004KT 9SM CLR 14/13 A2984 RMK SLP106 DENSITY ALT 2600FT

2010/08/10 08:00
CYNE 100800Z AUTO 04002KT 9SM CLR 16/16 A2988 RMK SLP121

2010/08/10 08:00
CYOJ 100800Z 00000KT 15SM FEW030 FEW080 BKN250 14/13 A2980 RMK SC2AC1CI1 SLP096

2010/08/10 08:00
CYPA 100800Z 00000KT 10SM BKN000 15/13 A2988 RMK ST0 SLP121

2010/08/10 08:00
CYPY 100800Z AUTO 06002KT 9SM CLR 17/14 A2978 RMK SLP090

2010/08/10 08:00
CYQF 100800Z 33008KT 15SM BKN120 14/10 A2986 RMK AC6 SLP111

2010/08/10 08:00
CYQL 100800Z AUTO 26003KT 9SM CLR 12/10 A2979 RMK SLP077

2010/08/10 08:00
CYQR 100800Z 08014KT 15SM OVC120 20/15 A2984 RMK AC8 SLP103

2010/08/10 08:00
CYQW 100800Z AUTO 11005KT 9SM SCT250 15/13 A2986 RMK SLP116 DENSITY ALT 2200FT

2010/08/10 08:00
CYVC 100800Z 00000KT 15SM MIFG SKC 15/14 A2989 RMK SLP127

2010/08/10 08:00
CYXD 100800Z AUTO 30003KT 9SM FEW074 15/13 A2984 RMK SLP101

2010/08/10 08:00
CYYL 100800Z AUTO 15004KT 9SM FEW003 BKN011 BKN015 OVC032 14/14 A2990 RMK SLP136 DENSITY ALT 1300FT

2010/08/10 08:00
CYYN 100800Z AUTO 19006KT 9SM -RA FEW023 SCT080 BKN098 19/15 A2985 RMK SLP097

2010/08/10 08:00
CYZH 100800Z AUTO 21002KT 9SM FEW099 12/11 A2986 RMK SLP117

2010/08/10 07:53
KACV 100753Z AUTO 16006KT 9SM OVC005 11/11 A2994

2010/08/10 07:53
KALW 100753Z AUTO 20008KT 10SM CLR 18/08 A2988

2010/08/10 07:53
KBFI 100753Z 20005KT 10SM OVC017 15/12 A2997

2010/08/10 07:54
KBFL 100754Z AUTO 35003KT 10SM CLR 24/06 A2983

2010/08/10 07:53
KBIL 100753Z 23005KT 10SM FEW100 16/13 A2992

2010/08/10 07:53
KBKE 100753Z AUTO 00000KT 10SM BKN100 13/09 A2992

2010/08/10 07:53
KBLI 100753Z AUTO 17005KT 10SM BKN065 OVC095 14/12 A2994

2010/08/10 07:53
KBOI 100753Z 13011KT 10SM TS CLR 20/13 A2983

2010/08/10 07:53
KBTM 100753Z AUTO 32004KT 10SM OVC095 13/10 A3003

2010/08/10 07:53
KBUR 100753Z AUTO 11006KT 7SM CLR 16/13 A2990

2010/08/10 07:53
KBYI 100753Z AUTO 09005KT 10SM FEW085 14/11 A2994

2010/08/10 07:56
KBZN 100756Z AUTO 17006KT 10SM FEW080 14/10 A2999

2010/08/10 07:53
KCDC 100753Z AUTO 13008KT 10SM CLR 16/02 A3012

2010/08/10 07:56
KCEC 100756Z AUTO 00000KT 10SM OVC004 13/11 A2994

2010/08/10 07:53
KCLM 100753Z AUTO 27004KT 10SM OVC007 12/11 A2997

2010/08/10 07:56
KCTB 100756Z AUTO 35003KT 10SM CLR 14/09 A2985

2010/08/10 07:56
KEKO 100756Z AUTO 00000KT 10SM CLR 16/06 A2999

2010/08/10 07:54
KEUG 100754Z 00000KT 10SM FEW040 13/10 A2999

2010/08/10 07:53
KFAT 100753Z 31008KT 10SM CLR 23/14 A2981

2010/08/10 07:56
KFLG 100756Z AUTO 00000KT 10SM FEW080 10/08 A3028

2010/08/10 07:54
KGCN 100754Z AUTO 00000KT 10SM CLR 08/07 A3023

2010/08/10 07:53
KGEG 100753Z 18010KT 10SM BKN130 18/03 A2980

2010/08/10 07:53
KGGW 100753Z AUTO 21015G20KT 10SM SCT080 19/17 A2978

2010/08/10 07:53
KGTF 100753Z 19006KT 10SM CLR 16/09 A2986

2010/08/10 07:53
KHLN 100753Z AUTO 27004KT 10SM CLR 13/11 A2992

2010/08/10 07:53
KHQM 100753Z AUTO 00000KT 10SM OVC011 13/11 A2999

2010/08/10 07:53
KIDA 100753Z AUTO 00000KT 10SM CLR 13/10 A3003

2010/08/10 07:56
KIWA 100756Z AUTO 23003KT 10SM CLR 32/11 A2985

2010/08/10 07:56
KLAS 100756Z 19008KT 10SM CLR 28/M04 A2982

2010/08/10 07:53
KLAX 100753Z 28003KT 10SM OVC007 16/13 A2991

2010/08/10 07:53
KLGB 100753Z AUTO 32004KT 7SM CLR 16/13 A2990

2010/08/10 07:53
KLMT 100753Z AUTO 00000KT 10SM FEW090 14/04 A2999

2010/08/10 07:53
KLVM 100753Z AUTO 29012KT 10SM CLR 14/08 A2998

2010/08/10 07:53
KMFR 100753Z AUTO 05003KT 10SM CLR 18/08 A2992

2010/08/10 07:53
KMLS 100753Z AUTO 24007KT 10SM CLR 19/15 A2983

2010/08/10 07:54
KMRY 100754Z AUTO 00000KT 10SM OVC003 12/10 A2994

2010/08/10 07:53
KMSO 100753Z AUTO 13008KT 10SM CLR 15/11 A2990

2010/08/10 07:53
KMYV 100753Z AUTO 15006KT 10SM CLR 19/12 A2982

2010/08/10 07:56
KNTD 100756Z AUTO 00000KT 10SM OVC009 15/14 A2990

2010/08/10 07:53
KOAK 100753Z 35003KT 10SM OVC006 14/11 A2992

2010/08/10 07:53
KOGD 100753Z AUTO 15004KT 10SM CLR 18/05 A3000

2010/08/10 07:54
KOLM 100754Z AUTO 21006KT 10SM OVC014 13/11 A2998

2010/08/10 07:53
KONT 100753Z 26003KT 10SM CLR 17/12 A2991

2010/08/10 07:55
KOTH 100755Z 35007KT 10SM OVC017 13/11 A3004

2010/08/10 07:53
KPAE 100753Z AUTO 20005KT 10SM OVC032 14/12 A2996

2010/08/10 07:53
KPDX 100753Z 33006KT 10SM OVC038 15/11 A3000

2010/08/10 07:51
KPHX 100751Z 27006KT 10SM FEW120 34/10 A2980

2010/08/10 07:53
KPIH 100753Z AUTO 01004KT 10SM CLR 12/09 A3001

2010/08/10 07:53
KPMD 100753Z AUTO 16003KT 10SM CLR 19/05 A2992

2010/08/10 07:53
KPRB 100753Z AUTO A2991

2010/08/10 07:53
KPRC 100753Z AUTO 19007KT 10SM CLR 18/08 A3012

2010/08/10 07:53
KPSP 100753Z AUTO 00000KT 10SM CLR 26/08 A2976

2010/08/10 07:54
KRBL 100754Z AUTO 17003KT 10SM CLR 23/14 A2983

2010/08/10 07:53
KRDD 100753Z AUTO 03003KT 10SM CLR 22/12 A2983

2010/08/10 07:56
KRDM 100756Z AUTO 31005KT 10SM CLR 14/06 A2996

2010/08/10 07:55
KRNO 100755Z 19003KT 10SM CLR 20/04 A3001

2010/08/10 07:53
KRNT 100753Z AUTO 16006KT 10SM OVC016 15/12 A2997

2010/08/10 07:53
KSAC 100753Z 16005KT 10SM CLR 16/12 A2984

2010/08/10 07:51
KSAN 100751Z 28005KT 10SM OVC015 18/14 A2993

2010/08/10 07:53
KSBA 100753Z AUTO 12005KT 7SM SCT003 14/13 A2989

2010/08/10 07:56
KSBP 100756Z 33004KT 10SM OVC006 13/12 A2992

2010/08/10 07:55
KSCK 100755Z 02004KT 10SM CLR 17/12 A2983

2010/08/10 07:53
KSEA 100753Z 21007KT 10SM BKN010 OVC065 14/11 A2997

2010/08/10 07:53
KSFF 100753Z AUTO 05003KT 10SM CLR 18/04 A2980

2010/08/10 07:56
KSFO 100756Z 29006KT 10SM FEW003 OVC012 13/11 A2991

2010/08/10 07:53
KSHR 100753Z AUTO 22005KT 10SM CLR 14/11 A2994

2010/08/10 07:53
KSJC 100753Z AUTO 00000KT 10SM OVC012 15/12 A2991

2010/08/10 07:53
KSLC 100753Z 15006KT 10SM CLR 18/04 A2999

2010/08/10 07:53
KSMF 100753Z 16009KT 10SM CLR 16/12 A2982

2010/08/10 07:51
KSMX 100751Z AUTO 00000KT 9SM OVC004 12/11 A2992

2010/08/10 07:53
KSNA 100753Z 00000KT 9SM CLR 18/13 A2990

2010/08/10 07:53
KSNS 100753Z AUTO 27004KT 9SM OVC005 12/11 A2993

2010/08/10 07:53
KTIW 100753Z 22005KT 10SM FEW008 OVC014 13/11 A2997

2010/08/10 07:53
KTUS 100753Z 00000KT 10SM CLR 28/14 A2996

2010/08/10 07:53
KTVL 100753Z AUTO 00000KT 10SM SCT085 SCT110 11/07 A3012

2010/08/10 07:56
KUKI 100756Z AUTO 17004KT 10SM CLR 17/11 A2986

2010/08/10 07:53
KYKM 100753Z AUTO 32009KT 10SM CLR 18/08 A2986

2010/08/10 08:04
KMSS 100804Z AUTO 22005KT 10SM OVC004 22/21 A2991

2010/08/10 07:53
PABR 100753Z 07019KT 10SM OVC002 02/02 A2985

2010/08/10 07:53
PABT 100753Z 00000KT 10SM BKN055 OVC070 12/11 A2963

2010/08/10 07:53
PACV 100753Z 00000KT 10SM SCT010 OVC021 12/12 A2991

2010/08/10 07:58
PADU 100758Z AUTO 23021G29KT 10SM SCT047 11/07 A2966

2010/08/10 07:53
PAEN 100753Z AUTO 00000KT 9SM -RA OVC040 13/12 A2977

2010/08/10 07:58
PAGA 100758Z AUTO 12007KT 10SM BKN029 OVC036 14/10 A2956

2010/08/10 07:53
PAGY 100753Z AUTO 21015G21KT 10SM OVC046 14/10 A2994

2010/08/10 07:53
PAIL 100753Z AUTO 10012G18KT 10SM OVC033 12/09 A2967

2010/08/10 07:54
PAKN 100754Z 21011G20KT 10SM FEW009 OVC019 11/09 A2963

2010/08/10 07:53
PAKT 100753Z AUTO 14003KT 10SM OVC011 13/12 A3003

2010/08/10 07:53
PASC 100753Z 05014KT 1 1/2SM BR OVC003 03/03 A2974

2010/08/10 07:53
PASI 100753Z 00000KT 10SM FEW005 BKN027 OVC031 13/12 A3000

2010/08/10 07:52
PATA 100752Z AUTO 03005KT 10SM OVC080 14/12 A2961

2010/08/10 07:56
PAUN 100756Z AUTO 11004KT 10SM SCT042 OVC050 12/07 A2946

2010/08/10 07:56
PAVD 100756Z 00000KT 5SM SCT003 SCT009 OVC017 11/09 A2989

2010/08/10 07:54
PHMK 100754Z AUTO 05011G21KT 10SM FEW044 24/19 A3011

2010/08/10 07:56
PMDY 100756Z AUTO 07009KT 10SM FEW022 26/22 A3023

2010/08/10 08:00
FMCZ 100800Z 17009KT 9999 FEW023 28/20 Q1018

2010/08/10 08:00
FMEE 100800Z 12012KT 090V170 9999 VCSH SCT016 BKN046 21/19 Q1023 TEMPO 5000 SHRA

2010/08/10 08:00
FMEP 100800Z 15006KT 110V190 9999 FEW013 FEW040TCU BKN083 25/16 Q1023

2010/08/10 07:57
PHNG 100757Z AUTO 07007KT 10SM FEW038 BKN060 25/20 A3012 RMK AO2 SLP194 T02500200 $

2010/08/10 08:00
RCKH 100800Z 20006KT 150V230 9999 FEW012 SCT050 BKN200 30/27 Q1007 NOSIG

2010/08/10 08:00
RCTP 100800Z 24016KT 9999 FEW020 BKN220 34/25 Q1005 NOSIG

2010/08/10 08:00
RJAA 100800Z 17009KT 9999 FEW020 SCT030 28/24 Q1014 NOSIG

2010/08/10 08:00
RJCC 100800Z 19011KT 8000 FEW003 BKN004 22/20 Q1013 RMK 1ST003 7ST004 A2992

2010/08/10 08:00
RJFF 100800Z 16016G26KT 9999 FEW025 BKN/// 34/21 Q1006

2010/08/10 08:00
RJFK 100800Z 13011KT 9999 VCSH FEW005 SCT025 BKN/// 28/24 Q1011

2010/08/10 08:00
RJOO 100800Z 24008KT 9999 FEW015 SCT100 BKN/// 29/22 Q1013 RMK 1CU015 4AC100 A2992

2010/08/10 08:00
RJTT 100800Z 20013KT 9999 FEW015 SCT/// 30/22 Q1013

2010/08/10 08:00
RKSS 100800Z 03011KT 8000 -RA FEW008 BKN025 OVC080 25/23 Q1007 TEMPO 4200 RMK CB S APCH STN

2010/08/10 08:00
ROAH 100800Z 21010KT 9999 -SHRA FEW015 FEW020TCU SCT050 BKN150 28/26 Q1008

2010/08/10 08:00
SKBO 100800Z 08003KT 9999 FEW017 SCT200 11/09 A3033 NOSIG

2010/08/10 08:00
SKBQ 100800Z 00000KT 9999 SCT012 SCT070 27/26 A2985

2010/08/10 08:00
SKCG 100800Z 00000KT 9999 FEW015 SCT200 27/26 A2984

2010/08/10 08:00
SKCL 100800Z 00000KT 9999 FEW025 BKN090 19/18 A2999

2010/08/10 08:00
TTCP 100800Z 16009KT 9999 FEW016 SCT300 27/23 Q1013 NOSIG

2010/08/10 08:00
TTPP 100800Z 00000KT 9999 FEW016 BKN280 24/23 Q1013 NOSIG

2010/08/10 08:00
YBBN 100800Z 07006KT 8000 -RA SCT004 BKN014 BKN040 19/19 Q1016 FM0800 02012KT 7000 -RA BKN008 BKN025 TEMPO 0800/1100 02015G25KT 3000 RA BKN006 FM0800 MOD TURB BLW 7000FT

2010/08/10 08:00
ZGGG 100800Z 13003MPS 100V170 8000 FEW040 36/24 Q1004 NOSIG

2010/08/10 08:00
ZGHA 100800Z 22002G07MPS 150V270 9999 FEW040 38/26 Q1001 NOSIG

2010/08/10 08:00
SEQU 100800Z 34004KT 9999 SCT040 11/05 Q1027 RMK A3033 NOSIG

2010/08/10 08:00
SEGU 100800Z 23005KT 200V260 9999 BKN030 BKN090 23/18 Q1013 NOSIG

2010/08/10 08:00
SEMT 100800Z 17006KT 9999 BKN020 23/21 Q1013

2010/08/10 07:50
EGDR 100750Z 24012KT 2000 RA SCT001 OVC005 16/16 Q1011 RED

2010/08/10 07:50
EGOM 100750Z 21008KT 9999 FEW010 SCT060 13/11 Q1004 BLU

2010/08/10 07:50
EGOP 100750Z AUTO 23009KT 2700NDV HZ FEW009/// BKN028/// BKN080/// 14/13 Q1010

2010/08/10 07:50
EGQS 100750Z 16003KT 9999 FEW020TCU SCT060 13/10 Q1004 BLU NOSIG

2010/08/10 07:50
EGVN 100750Z 22004KT 9999 FEW008 BKN070 13/11 Q1010 BLU NOSIG

2010/08/10 07:50
EGYH 100750Z 22012KT 9999 FEW010 SCT016 BKN050 16/// Q1009 WHT

2010/08/10 08:00
EICK 100800Z 32006KT 9999 FEW020 13/09 Q1009 NOSIG

2010/08/10 08:00
EIDW 100800Z 24014KT 9999 -SHRA FEW015 FEW022CB SCT026 13/11 Q1006 NOSIG

2010/08/10 08:00
EIKN 100800Z 29010KT 9999 SCT012 12/10 Q1007 NOSIG

2010/08/10 08:00
EINN 100800Z 25011KT 9999 FEW025 BKN035 15/11 Q1009 NOSIG

2010/08/10 07:59
KNGU 100759Z 21005KT 10SM CLR 26/23 A2998 RMK AO2 SLP152 T02610233

2010/08/10 08:00
MKJS 100800Z 00000KT 9999 FEW024 BKN220 27/23 Q1012

2010/08/10 08:00
SKBQ 100800Z 00000KT 9999 SCT012 SCT070 27/26 A2985

2010/08/10 08:00
SKCG 100800Z 00000KT 9999 FEW015 SCT200 27/26 A2984

2010/08/10 08:00
SPRU 100800Z 15004KT 4900 BR FEW013 14/13 Q1015 RMK BIRDS HAZARD RWY 20 PP000

2010/08/10 08:00
SPSO 100800Z 07004KT 7000 FEW012 11/09 Q1016 RMK PP000

2010/08/10 08:00
TTPP 100800Z 00000KT 9999 FEW016 BKN280 24/23 Q1013 NOSIG

2010/08/10 08:00
VTBS 100800Z 18013KT 9999 FEW020CB SCT120 BKN300 31/24 Q1003 CB N NOSIG

2010/08/10 08:00
VTBD 100800Z 25009KT 9999 FEW020CB BKN300 34/21 Q1002 CB SE S NOSIG

2010/08/10 08:00
VTCC 100800Z 29003KT 8000 -RA BKN032 BKN110 28/25 Q1005 A2968

2010/08/10 08:00
VTSS 100800Z 24006KT 9999 FEW020 BKN120 OVC300 31/23 Q1006 A2972

2010/08/10 08:00
VTSP 100800Z 26011KT 7000 SCT015 BKN100 BKN300 28/24 Q1007 A2975

2010/08/10 08:00
VLVT 100800Z 12002KT 9999 BKN017 FEW040 32/25 Q1002

2010/08/10 08:00
VVTS 100800Z 23011KT 9999 SCT017 BKN040 29/24 Q1005 NOSIG

2010/08/10 08:00
VVNB 100800Z 11007KT 090V170 9999 FEW023 FEW027CB BKN050 32/26 Q1002 TEMPO FM0900 TS

2010/08/10 08:00
VDPP 100800Z 22015KT 9999 SCT015 SCT150 31/22 Q1004

2010/08/10 08:00
VVDN 100800Z 30007KT 260V340 TS 8000 FEW015CB SCT060 BKN270 29/22 Q1004 TEMPO 4000 TSRA CB/S/SW/W

2010/08/10 08:00
VDSR 100800Z 24008KT 9000 -RA SCT015 FEW017CB BKN040 27/24 Q1004 CB S SW W

2010/08/10 08:00
VVPB 100800Z 22005KT 5000 -RA FEW020CB BKN050 25/25 Q1004 NOSIG

2010/08/10 08:00
NZAA 100800Z 20007KT CAVOK 09/02 Q1027 NOSIG

2010/08/10 08:00
NZWN 100800Z 03008KT 9999 FEW050 08/04 Q1027 NOSIG 

2010/08/10 08:00
NZCH 100800Z 03003KT CAVOK 04/01 Q1026 NOSIG 

2010/08/10 08:00
UMBB 100800Z 04002MPS 8000 -SHRA SCT016CB SCT100 20/18 Q1016 R29/CLRD// NOSIG

2010/08/10 08:00
UMGG 100800Z VRB02MPS 9999 FEW040 BKN100 25/21 Q1016 R10/CLRD// NOSIG

2010/08/10 08:00
UMII 100800Z 04004MPS P6000 SCT030CB OVC100 21/16 Q1016 R05/CLRD// NOSIG

2010/08/10 08:00
UMMG 100800Z 13002MPS CAVOK 22/16 Q1016 R17/CLRD// NOSIG

2010/08/10 08:00
UMMM 100800Z 36002MPS 9999 SCT040 BKN100 20/15 Q1017 R30/CLRD// NOSIG RMK QFE743

2010/08/10 08:00
UMMS 100800Z 33003MPS CAVOK 21/17 Q1017 R31/CLRD// NOSIG

2010/08/10 08:00
UMOO 100800Z 00000MPS 9999 FEW030 BKN/// 22/18 Q1014 R31/CLRD// NOSIG

2010/08/10 07:55
EHSA 100755Z AUTO 20020G24KT 9999 18/16 Q1012 W19/S4

2010/08/10 07:55
EHJR 100755Z AUTO 20023G26KT //// 17/16 Q1009 W17/S3

2010/08/10 08:00
LPFR 100800Z 25002KT CAVOK 29/19 Q1016

2010/08/10 08:00
LPMA 100800Z VRB02KT 9999 BKN015 22/18 Q1016 RS08001KT 0531002KT 2325003KT

2010/08/10 08:00
LPPR 100800Z 00000KT CAVOK 25/18 Q1017

2010/08/10 08:00
LPPS 100800Z 35005KT 9000 SCT011 BKN030 22/20 Q1016

2010/08/10 08:00
LPPT 100800Z VRB02KT CAVOK 30/14 Q1016 NOSIG

2010/08/10 08:00
OMAA 100800Z 18007KT 130V230 CAVOK 43/13 Q0999 A2950 NOSIG

2010/08/10 08:00
OMAD 100800Z 21005KT 150V290 8000 NSC 43/15 Q0999 A2951

2010/08/10 08:00
OMAL 100800Z 18012KT 150V220 CAVOK 42/13 Q1002 A2959

2010/08/10 08:00
OMDB 100800Z 17005KT 100V260 CAVOK 43/17 Q0999 NOSIG

2010/08/10 08:00
OMDW 100800Z VRB04KT CAVOK 45/13 Q1000 NOSIG

2010/08/10 08:00
OMFJ 100800Z 07009KT 040V120 CAVOK 34/27 Q1002 A2960

2010/08/10 08:00
OMRK 100800Z 08007KT CAVOK 43/19 Q0999 A2952

2010/08/10 08:00
OMSJ 100800Z 16007KT 120V200 7000 NSC 44/14 Q1000

2010/08/10 08:00
OOMS 100800Z 01007KT 330V050 8000 NSC 33/28 Q1001 NOSIG

2010/08/10 08:00
OOSA 100800Z 19010KT 160V220 8000 SCT012 BKN028 27/22 Q1005 NOSIG RMK05 RH72

2010/08/10 08:00
FBKE 100800Z 15012KT CAVOK 21/01 Q1026

2010/08/10 08:00
FBMN 100800Z 16014KT CAVOK 14/M09 Q1029

2010/08/10 08:00
FBSK 100800Z 18011KT CAVOK 13/M11 Q1032 NOSIG

2010/08/10 07:55
EHSC 100755Z AUTO 21017G21KT 9999 18/15 Q1012 W///S3

2010/08/10 08:00
LEBG 100800Z 00000KT 9999 FEW035 19/13 Q1021

2010/08/10 08:00
LEHC 100800Z 22004KT 170V270 9999 FEW060 23/15 Q1019

2010/08/10 08:00
YSCB 100800Z 04007KT 9999 8000N VCSH SCT035 BKN090 12/09 Q1010 FM0800 04007KT 9000 -RA BKN025 BKN060 TEMPO 0800/0900 4000 RA BKN010

2010/08/10 08:00
YSCB 100800Z 04007KT 9999 8000N VCSH SCT035 BKN090 12/09 Q1010 FM0800 04007KT 9000 -RA BKN025 BKN060 TEMPO 0800/0900 4000 RA BKN010

2010/08/10 07:55
LIMU 100755Z 04005KT 9999 FEW023 23/21 Q1017 RMK SCT QUK 1 QUL 1 E VIS MAR 12 KM VIS MIN 9999

2010/08/10 07:55
LIMV 100755Z 21004KT 6000 FEW009 SCT015 19/18 Q1018 RMK BKN MON N LIB S CLD SCT ABB SLW VAL FOSCHIA VIS MIN 6000

2010/08/10 07:55
LIVD 100755Z 00000KT 9999 SCT035 18/14 Q1021 RMK SCT VIS MIN 9999

2010/08/10 07:55
LIVM 100755Z 07003KT 9999 FEW025 25/22 Q1015 RMK FEW QUK 0 QUL 0 VIS MAR 12 KM VIS MIN 9999

2010/08/10 07:55
LIVO 100755Z 17002KT 9999 BKN025 17/16 Q1019 RMK BKN VIS MIN 9999

2010/08/10 07:55
LIVR 100755Z 10002KT 9999 SCT020 14/10 Q1023 RMK SCT MON CIME INC VIS MIN 9999

2010/08/10 07:55
LIVT 100755Z 04007G18KT CAVOK 26/16 Q1014 RMK FEW FEW200 QUK 3 QUL 1 NE VIS MAR 20 KM VIS MIN 9999

2010/08/10 07:50
LIMG 100750Z VRB03KT 9999 FEW030 25/19 Q1016 RMK VIS MIN 9999

2010/08/10 07:55
LIMK 100755Z 00000KT CAVOK 19/17 Q1017 RMK BKN BKN070 VAL FOSCHIA VIS MIN 9999

2010/08/10 07:55
LIMN 100755Z VRB02KT 9999 BKN060 22/17 Q1016 RMK BKN VIS MIN 9999 BLU

2010/08/10 07:50
LIMP 100750Z VRB03KT 7000 FEW060 24/19 Q1016 RMK VIS MIN 6000N

2010/08/10 07:55
LIMS 100755Z 06003KT CAVOK 24/19 Q1015 RMK SCT SCT100 VIS MIN 9999 WIND THR30 33003KT BLU

2010/08/10 07:50
LIMZ 100750Z 35004KT CAVOK 23/19 Q1017 RMK VIS MIN 8000N

2010/08/10 07:55
LIPA 100755Z 33001KT 9999 FEW040 25/22 Q1016 RMK FEW VIS MIN 9999 A3001 BLU

2010/08/10 07:55
LIPC 100755Z 31004KT CAVOK 25/21 Q1015 RMK FEW FEW200 VIS MIN 9999 WIND THR12 30004KT BLU

2010/08/10 07:55
LIPF 100755Z 31002KT 8000 NSC 24/21 Q1015 RMK SKC VIS MIN 8000

2010/08/10 07:45
LIPH 100745Z 08007KT CAVOK 26/19 Q1016 RMK FEW FEW180 VIS MIN 9999 WIND THR07 /////KT BLU

2010/08/10 07:55
LIPI 100755Z 03009KT 9999 FEW080 26/18 Q1016 RMK SCT VIS MIN 9999 WIND THR06 /////KT BLU

2010/08/10 07:55
LIPL 100755Z 10003KT CAVOK 23/21 Q1016 RMK BKN SCT090 VIS MIN 9999 BLK BLU

2010/08/10 07:50
LIPO 100750Z 10004KT 040V130 9999 SCT055 25/18 Q1016 RMK VIS MIN 9999

2010/08/10 07:50
LIPQ 100750Z 00000KT CAVOK 26/19 Q1015

2010/08/10 07:45
LIPR 100745Z 30004KT CAVOK 25/21 Q1015 RMK SKC VIS MIN 9999 WIND THR31 31004KT BLU

2010/08/10 07:55
LIPS 100755Z 06006KT CAVOK 26/17 Q1016 RMK SKC VIS MIN 9999 BLU

2010/08/10 07:45
LIPX 100745Z 11001KT 9999 FEW040 27/18 Q1016 RMK FEW VIS MIN 9999 BLU

2010/08/10 07:50
LIPY 100750Z VRB01KT CAVOK 26/19 Q1015 RMK VIS MIN 9999

2010/08/10 07:55
LIVC 100755Z 09007KT 9999 FEW001 12/08 Q1025 RMK FEW MON LIB VAL CLD SCT ELEV VIS MIN 9999

2010/08/10 07:55
LIVP 100755Z 00000KT 1200 BR BKN001 11/09 Q1024 RMK BKN MON INVIS VAL CLD SCT NEBBIA INF VIS MIN 1200

2010/08/10 07:55
LIBA 100755Z 29002KT 9999 FEW030 26/22 Q1014 RMK SCT SCT090 VIS MIN 9999 WIND THR29 28003KT BLU

2010/08/10 07:50
LIBD 100750Z 35007KT 300V030 CAVOK 27/13 Q1014 RMK VIS MIN 9999

2010/08/10 07:50
LIBG 100750Z 35015KT CAVOK 29/14 Q1013 RMK VIS MIN 9999

2010/08/10 07:55
LIBN 100755Z 33017KT CAVOK 28/20 Q1013 RMK SCT SCT180 VIS MIN 9999 WIND THR14 34014KT BLU

2010/08/10 07:50
LIBP 100750Z 02005KT CAVOK 27/19 Q1015 RMK VIS MIN 9999

2010/08/10 07:45
LIBR 100745Z 32026KT CAVOK 26/20 Q1013 NOSIG RMK SCT SCT200 VIS MIN 9999 WIND THR13 /////KT WIND THR31 31021KT BLU

2010/08/10 07:55
LIBV 100755Z 01012KT CAVOK 26/14 Q1013 RMK BKN SCT090 SCT200 VIS MIN 9999 WIND THR14 35012KT BLU

2010/08/10 07:50
LICA 100750Z 26011KT 9999 FEW025 27/21 Q1014 RMK VIS MIN 9999

2010/08/10 07:50
LICC 100750Z VRB02KT CAVOK 28/15 Q1014 RMK VIS MIN 9999

2010/08/10 07:50
LICD 100750Z 29006KT CAVOK 26/20 Q1015 RMK VIS MIN 9999

2010/08/10 07:55
LICG 100755Z 34005KT CAVOK 26/23 Q1016 RMK SKC VIS MIN 9999 WIND THR08 /////KT WIND THR21 34004KT BLU

2010/08/10 07:50
LICJ 100750Z 35003KT CAVOK 26/20 Q1015 RMK VIS MIN 9999

2010/08/10 07:50
LICR 100750Z 35014KT 9999 FEW025 27/19 Q1014 RMK VIS MIN 9999

2010/08/10 07:55
LICT 100755Z 32005KT CAVOK 28/20 Q1015 RMK SKC VIS MIN 9999 WIND THR13 31004KT BLU

2010/08/10 07:55
LICZ 100755Z 30004KT CAVOK 28/14 Q1014 RMK SKC VIS MIN 9999 WIND THR28 /////KT BLU

2010/08/10 07:55
LIVE 100755Z 23003KT 9999 SCT025 15/10 Q1021 RMK SCT VIS MIN 9999

2010/08/10 07:50
LIBF 100750Z 31010KT CAVOK 29/13 Q1015 RMK VIS MIN 9999

2010/08/10 07:50
LIEA 100750Z 00000KT CAVOK 29/17 Q1016 RMK VIS MIN 9999

2010/08/10 07:55
LIED 100755Z 31002KT CAVOK 28/10 Q1016 RMK SKC VIS MIN 9999 BLU

2010/08/10 07:50
LIEO 100750Z 05005KT CAVOK 25/15 Q1016 RMK VIS MIN 9999

2010/08/10 07:50
LIMA 100750Z 04002KT CAVOK 23/17 Q1017 RMK VIS MIN 9999

2010/08/10 07:55
LIRE 100755Z 20005KT CAVOK 25/22 Q1015 RMK SKC VIS MIN 9999 WIND THR31 17006KT BLU

2010/08/10 07:55
LIRG 100755Z 00000KT CAVOK 26/18 Q1015 RMK SKC MON NE LIB NC VIS MIN 9999 BLU

2010/08/10 07:55
LIRH 100755Z 14003KT CAVOK 26/18 Q1015 RMK SKC MON LIB NC VIS MIN 9999 WIND THR16 17003KT BLU

2010/08/10 07:50
LIRI 100750Z 00000KT 9999 BKN060 25/19 Q1016 RMK VIS MIN 9999

2010/08/10 07:55
LIRL 100755Z 15004KT CAVOK 27/20 Q1015 RMK FEW FEW200 MON LIB NC VIS MIN 9999 BLU

2010/08/10 07:55
LIRM 100755Z 10005KT 9999 FEW040 29/25 Q1016 RMK SCT VIS MIN 9999 WIND THR06 08005KT BLU

2010/08/10 07:55
LIRS 100755Z 03002KT CAVOK 25/16 Q1015 RMK SKC VIS MIN 9999 WIND THR21 /////KT BLU

2010/08/10 07:50
LIRU 100750Z VRB02KT CAVOK 27/20 Q1015 RMK VIS MIN 9999

2010/08/10 07:55
LIRV 100755Z 05009KT CAVOK 25/15 Q1016 RMK FEW FEW070 MON E SE LIB NC VIS MIN 9999 BLU

2010/08/10 07:55
LIRX 100755Z 36005KT 9999 FEW013 22/16 Q1015 RMK FEW VIS MIN 9999N VIS MAR 18 KM

2010/08/10 07:50
LIRZ 100750Z VRB02KT CAVOK 24/16 Q1016 RMK VIS MIN 9999

2010/08/10 08:00
YSCB 100800Z 04007KT 9999 8000N VCSH SCT035 BKN090 12/09 Q1010 FM0800 04007KT 9000 -RA BKN025 BKN060 TEMPO 0800/0900 4000 RA BKN010

2010/08/10 08:00
YSCB 100800Z 04007KT 9999 8000N VCSH SCT035 BKN090 12/09 Q1010 FM0800 04007KT 9000 -RA BKN025 BKN060 TEMPO 0800/0900 4000 RA BKN010

2010/08/10 07:50
OOMS 100750Z 01007KT 330V050 8000 NSC 33/28 Q1001 NOSIG

2010/08/10 07:50
OOSA 100750Z 19010KT 160V220 8000 SCT012 BKN028 27/22 Q1005 NOSIG RMK05 RH72

2010/08/10 08:00
OBBI 100800Z 12009KT CAVOK 41/89 Q1000 NOSIG

2010/08/10 08:00
OEDR 100800Z 15007KT 5000 HZ NSC 39/24 Q0998 NOSIG

2010/08/10 08:00
OTBD 100800Z 10007KT 060V140 CAVOK 39/24 Q1000 NOSIG

2010/08/10 08:00
OKBK 100800Z 14004KT 7000 RKC PRWXCI C1000 NOSIH

2010/08/10 08:06
KSSF 100806Z AUTO 00000KT 10SM SCT018 27/23 A2993 RMK AO2

2010/08/10 08:06
KDSM 100806Z 13011KT 10SM TS SCT007 OVC080CB 23/21 A2989 RMK AO2 RAE0756 PRESRR CONS LTGICCC NE-SW TS NE-SW MOV E P0000

2010/08/10 08:06
KMIW 100806Z AUTO 20004KT 7SM -TSRA OVC010 25/24 A2993 RMK AO2 LTG DSNT ALQDS P0001 $

2010/08/10 08:00
CMFM 100800Z AUTO 32001KT 07/06 RMK AO1 SLP128 T00680063 55000

2010/08/10 08:00
CWAQ 100800Z AUTO 15009KT 20/16 RMK AO1 T02040155

2010/08/10 08:00
CWBO 100800Z AUTO 20001KT 15/12 RMK AO1 SLP078 T01450124 58002

2010/08/10 08:00
CWBS 100800Z AUTO 23007KT 20/ RMK AO1 T0200

2010/08/10 08:00
CWCJ 100800Z AUTO 21002KT 18/17 RMK AO1 SLP136 T01780174 50006

2010/08/10 08:00
CWDJ 100800Z AUTO 08013KT 20/14 RMK AO1 SLP097 T02020140 58013

2010/08/10 08:00
CWDZ 100800Z AUTO 35001KT 15/12 RMK AO1 SLP073 T01540121 50000

2010/08/10 08:00
CWBO 100800Z AUTO 20001KT 15/12 RMK AO1 SLP078 T01450124 58002

2010/08/10 08:00
CWBS 100800Z AUTO 23007KT 20/ RMK AO1 T0200

2010/08/10 08:00
CWCJ 100800Z AUTO 21002KT 18/17 RMK AO1 SLP136 T01780174 50006

2010/08/10 08:00
CWDJ 100800Z AUTO 08013KT 20/14 RMK AO1 SLP097 T02020140 58013

2010/08/10 08:00
CWDZ 100800Z AUTO 35001KT 15/12 RMK AO1 SLP073 T01540121 50000

2010/08/10 08:00
CWBO 100800Z AUTO 20001KT 15/12 RMK AO1 SLP078 T01450124 58002

2010/08/10 08:00
CWBS 100800Z AUTO 23007KT 20/ RMK AO1 T0200

2010/08/10 08:00
CWCJ 100800Z AUTO 21002KT 18/17 RMK AO1 SLP136 T01780174 50006

2010/08/10 08:00
CWDJ 100800Z AUTO 08013KT 20/14 RMK AO1 SLP097 T02020140 58013

2010/08/10 08:00
CWDZ 100800Z AUTO 35001KT 15/12 RMK AO1 SLP073 T01540121 50000

2010/08/10 08:00
CWDZ 100800Z AUTO 35001KT 15/12 RMK AO1 SLP073 T01540121 50000

2010/08/10 08:02
RKSS 100802Z 32007KT 250V040 2000 RA FEW006 BKN025 BKN080 26/24 Q1007 NOSIG 

2010/08/10 08:00
NZAA 100800Z 20007KT CAVOK 09/02 Q1027 NOSIG

2010/08/10 08:00
NZWN 100800Z 03008KT 9999 FEW050 08/04 Q1027 NOSIG 

2010/08/10 08:00
NZCH 100800Z 03003KT CAVOK 04/01 Q1026 NOSIG 

2010/08/10 08:00
CWNH 100800Z AUTO 17003KT 16/15 RMK AO1 SLP096 T01580154 51002

2010/08/10 08:00
CWBV 100800Z AUTO 24011KT 16/15 RMK AO1 SLP112 T01560153 56014

2010/08/10 08:00
CWRN 100800Z AUTO 21012KT 18/17 RMK AO1 PK WND 21021/0700 SLP104 T01840172 57015

2010/08/10 08:00
CWBV 100800Z AUTO 24011KT 16/15 RMK AO1 SLP112 T01560153 56014

2010/08/10 08:00
CWRN 100800Z AUTO 21012KT 18/17 RMK AO1 PK WND 21021/0700 SLP104 T01840172 57015

2010/08/10 08:00
CWBY 100800Z AUTO 26002KT 12/11 RMK AO1 SLP052 T01240114 56001

2010/08/10 08:00
CWPK 100800Z AUTO 00000KT 12/ RMK AO1 SLP129 T0117 50002

2010/08/10 08:00
CWWE 100800Z AUTO 23004KT 12/12 RMK AO1 SLP103 T01160116 58019

2010/08/10 08:00
CWBY 100800Z AUTO 26002KT 12/11 RMK AO1 SLP052 T01240114 56001

2010/08/10 08:00
CWBY 100800Z AUTO 26002KT 12/11 RMK AO1 SLP052 T01240114 56001

2010/08/10 08:00
CWEP 100800Z AUTO 22009KT 18/18 RMK AO1 PK WND 22017/0702 SLP082 T01830177 58012

2010/08/10 08:15
KCCA 100815Z AUTO 00000KT 4SM BR CLR 26/26 A2994 RMK AO2

2010/08/10 07:55
KGZL 100755Z AUTO 00000KT 10SM 25/22 A2992 RMK AO2 PWINO

2010/08/10 08:04
KTFP 100804Z AUTO 19005KT 10SM SCT049 SCT060 29/26 A2989 RMK AO2

2010/08/10 08:03
K0F2 100803Z AUTO 16003KT 10SM CLR 26/21 A2991 RMK AO2 T02550205

2010/08/10 08:05
K1H2 100805Z AUTO 12003KT 5SM BR SCT110 25/24 A2993 RMK AO2 T02510240

2010/08/10 08:05
K3LF 100805Z AUTO 00000KT 7SM CLR 26/23 A2992 RMK AO2

2010/08/10 08:05
K3T5 100805Z AUTO 00000KT 10SM CLR 26/24 A2991 RMK AO2 T02600242

2010/08/10 08:02
KAAA 100802Z AUTO 00000KT 10SM CLR 23/21 A2992 RMK AO2 T02310211

2010/08/10 08:02
KADS 100802Z AUTO 20004KT 10SM CLR 30/18 A2989 RMK AO2 T02980180

2010/08/10 08:05
KAJG 100805Z AUTO 00000KT 2 1/2SM BR CLR 23/23 A2994 RMK AO2 T02330229

2010/08/10 08:05
KALN 100805Z AUTO 00000KT 4SM BR CLR 26/26 A2991 RMK AO2 T02580255

2010/08/10 08:02
KAPY 100802Z AUTO 13004KT 10SM SCT021 BKN029 BKN035 28/24 A2991 RMK AO2 T02770238

2010/08/10 08:05
KAQO 100805Z AUTO 21005KT CLR 28/23 A2997 RMK AO2 PWINO

2010/08/10 08:05
KARM 100805Z AUTO 00000KT 10SM SCT017 26/24 A2993 RMK AO2 T02610239

2010/08/10 08:07
KASW 100807Z AUTO 00000KT 1/2SM FG OVC002 23/22 A2997 RMK AO2 T02250222

2010/08/10 08:05
KAXH 100805Z AUTO 00000KT 5SM BR CLR 24/23 A2991 RMK AO2 T02430233

2010/08/10 08:05
KBBD 100805Z AUTO 16005KT 10SM CLR 27/19 A2996 RMK

2010/08/10 08:01
KBEA 100801Z AUTO 00000KT 10SM CLR 26/26 A2991 RMK AO2 T02630255

2010/08/10 08:00
KBKD 100800Z AUTO 00000KT 10SM CLR 29/18 A2992 RMK AO2 T02860184

2010/08/10 08:00
KCIR 100800Z AUTO 00000KT 5SM BR CLR 25/23 A2993 RMK AO2

2010/08/10 08:05
KERV 100805Z AUTO 17007KT 10SM CLR 25/22 A2999 RMK AO2 T02510222

2010/08/10 08:02
KF05 100802Z AUTO 27008KT 10SM CLR 28/19 A2991 RMK AO2 T02830188

2010/08/10 08:03
KFWS 100803Z AUTO 00000KT 10SM CLR 27/20 A2991 RMK AO2 T02720204 TSNO

2010/08/10 08:02
KGDJ 100802Z AUTO 17004KT 10SM CLR 28/20 A2991 RMK AO2 T02820198

2010/08/10 08:03
KGLE 100803Z AUTO 14003KT 10SM CLR 27/20 A2992 RMK AO2

2010/08/10 08:05
KGNC 100805Z AUTO 00000KT 10SM CLR 20/19 A3004 RMK AO2 T02030187

2010/08/10 08:05
KGWB 100805Z AUTO 19003KT 1SM BR VV007 23/21 A2997 RMK AO2

2010/08/10 08:04
KGYB 100804Z AUTO 20003KT 10SM CLR 26/25 A2996 RMK AO2 T02580245

2010/08/10 08:04
KGYI 100804Z AUTO 16006KT 10SM CLR 29/20 A2991 RMK AO2 T02900201

2010/08/10 08:13
KMNZ 100813Z AUTO 20006KT 10SM CLR 26/21 A2994 RMK AO2

2010/08/10 08:06
KORG 100806Z AUTO 00000KT 7SM CLR 25/25 A2991 RMK AO2

2010/08/10 08:05
KOXI 100805Z AUTO 00000KT 5SM CLR 22/21 A2994 RMK AO1 T02220211

2010/08/10 08:00
KOZA 100800Z AUTO 17011G15KT 10SM CLR 28/18 A3001 RMK AO2 T02770183

2010/08/10 08:04
KPPQ 100804Z AUTO 00000KT 4SM BR CLR 27/25 A2991 RMK AO2

2010/08/10 08:07
KPSN 100807Z AUTO 12004KT 26/24 A2993 RMK AO2 PWINO

2010/08/10 08:05
KRCR 100805Z AUTO 00000KT 1/4SM FG BKN037 25/25 A2996 RMK AO2

2010/08/10 08:05
KSFY 100805Z AUTO 00000KT 10SM SCT037 SCT044 SCT055 24/23 A2993 RMK AO2

2010/08/10 07:55
KMZZ 100755Z AUTO 00000KT 1 3/4SM BR VV007 22/21 A2998 RMK AO2

2010/08/10 08:00
CWJI 100800Z AUTO 09006KT 20/15 RMK AO1 SLP086 T01990145 56011

2010/08/10 08:00
CWJR 100800Z AUTO 34006KT 16/ RMK AO1 PK WND 31018/0726 SLP098 T0164 51006

2010/08/10 08:00
CWJV 100800Z AUTO 11003KT 13/12 RMK AO1 8PAST HR 8001 SLP118 P0003 T01290123 50020

2010/08/10 08:00
CWKH 100800Z AUTO 12/ RMK AO1 T0116

2010/08/10 08:00
CWKX 100800Z AUTO 24004KT 11/06 RMK AO1 SLP146 T01130059 51007

2010/08/10 08:00
CWLC 100800Z AUTO 31003KT 11/ RMK AO1 T0109

2010/08/10 08:00
CWMM 100800Z AUTO 06002KT 14/13 RMK AO1 SLP143 T01420128 58003

2010/08/10 08:00
CWNP 100800Z AUTO 05003KT 17/17 RMK AO1 SLP097 T01740174 58008

2010/08/10 08:00
CWNQ 100800Z AUTO 19002KT 14/14 RMK AO1 SLP112 T01440138 55000

2010/08/10 08:00
CWOD 100800Z AUTO 30007KT 12/ RMK AO1 SLP088 T0115 56001

2010/08/10 08:00
CWOE 100800Z AUTO 25003KT 14/13 RMK AO1 T01430127

2010/08/10 08:00
CWPD 100800Z AUTO 21002KT 07/07 RMK AO1 SLP100 T00740068 56001

2010/08/10 08:00
CWPF 100800Z AUTO 20006KT 11/11 RMK AO1 SLP132 T01130108 52001

2010/08/10 08:00
CWPZ 100800Z AUTO 00000KT 04/02 RMK AO1 SLP158 T00350024 51007

2010/08/10 08:00
CWPD 100800Z AUTO 21002KT 07/07 RMK AO1 SLP100 T00740068 56001

2010/08/10 08:00
CWPF 100800Z AUTO 20006KT 11/11 RMK AO1 SLP132 T01130108 52001

2010/08/10 08:00
CWPZ 100800Z AUTO 00000KT 04/02 RMK AO1 SLP158 T00350024 51007

2010/08/10 08:00
CWPD 100800Z AUTO 21002KT 07/07 RMK AO1 SLP100 T00740068 56001

2010/08/10 08:00
CWPF 100800Z AUTO 20006KT 11/11 RMK AO1 SLP132 T01130108 52001

2010/08/10 08:00
CWPZ 100800Z AUTO 00000KT 04/02 RMK AO1 SLP158 T00350024 51007

2010/08/10 08:00
CWEL 100800Z AUTO 17003KT 15/14 RMK AO1 SLP130 T01500139 50000

2010/08/10 08:00
CWEW 100800Z AUTO 23002KT 17/17 RMK AO1 SLP125 T01720170 53001

2010/08/10 08:00
CWEZ 100800Z AUTO 23005KT 12/11 RMK AO1 SLP139 T01200107 54000

2010/08/10 08:00
CWFJ 100800Z AUTO 23008KT 17/07 RMK AO1 T01740071

2010/08/10 08:00
CWGB 100800Z AUTO 14006KT 16/14 RMK AO1 SLP134 T01580138 51001

2010/08/10 08:00
CWGL 100800Z AUTO 04002KT 21/21 RMK AO1 SLP140 T02130213 55002

2010/08/10 08:00
CWGM 100800Z AUTO 20009KT 14/07 RMK AO1 T01370067

2010/08/10 08:00
CAHR 100800Z AUTO 23004KT 18/17 RMK AO1 SLP086 T01810172 58011

2010/08/10 08:00
CWBK 100800Z AUTO 23007KT 18/16 RMK AO1 SLP086 T01760161 58015

2010/08/10 08:00
CZCR 100800Z AUTO 23006KT 17/15 RMK AO1 SLP084 T01650148 53001

2010/08/10 08:00
CZSP 100800Z AUTO 22007KT 19/17 RMK AO1 SLP078 T01850174 58010

2010/08/10 08:00
CWBK 100800Z AUTO 23007KT 18/16 RMK AO1 SLP086 T01760161 58015

2010/08/10 08:00
CZCR 100800Z AUTO 23006KT 17/15 RMK AO1 SLP084 T01650148 53001

2010/08/10 08:00
CZSP 100800Z AUTO 22007KT 19/17 RMK AO1 SLP078 T01850174 58010

2010/08/10 08:00
CZCR 100800Z AUTO 23006KT 17/15 RMK AO1 SLP084 T01650148 53001

2010/08/10 08:00
CZSP 100800Z AUTO 22007KT 19/17 RMK AO1 SLP078 T01850174 58010

2010/08/10 08:00
CZCR 100800Z AUTO 23006KT 17/15 RMK AO1 SLP084 T01650148 53001

2010/08/10 08:00
CZSP 100800Z AUTO 22007KT 19/17 RMK AO1 SLP078 T01850174 58010

2010/08/10 08:00
CZCR 100800Z AUTO 23006KT 17/15 RMK AO1 SLP084 T01650148 53001

2010/08/10 08:00
CZSP 100800Z AUTO 22007KT 19/17 RMK AO1 SLP078 T01850174 58010

2010/08/10 08:00
CZCR 100800Z AUTO 23006KT 17/15 RMK AO1 SLP084 T01650148 53001

2010/08/10 08:00
CZSP 100800Z AUTO 22007KT 19/17 RMK AO1 SLP078 T01850174 58010

2010/08/10 08:00
CWGR 100800Z AUTO 25011KT 19/18 RMK AO1 SLP071 T01910183 58010

2010/08/10 08:00
CWGT 100800Z AUTO 13010KT 17/14 RMK AO1 SLP132 T01650144 53003

2010/08/10 08:00
CWGW 100800Z AUTO 09001KT 11/11 RMK AO1 SLP105 T01140108 51008

2010/08/10 08:00
CWGY 100800Z AUTO 02003KT 16/14 RMK AO1 SLP094 T01600144 58001

2010/08/10 08:00
CWHL 100800Z AUTO 31005KT 11/ RMK AO1 SLP162 T0105 58001

2010/08/10 08:00
CWHQ 100800Z AUTO 31002KT 12/12 RMK AO1 T01170116

2010/08/10 08:00
CWHT 100800Z AUTO 07002KT 07/04 RMK AO1 SLP114 T00650042 51017

2010/08/10 08:00
CWHV 100800Z AUTO 19002KT 15/15 RMK AO1 SLP112 T01480147 56003

2010/08/10 08:00
CWIG 100800Z AUTO 21007KT RMK AO1 

2010/08/10 08:00
CWIP 100800Z AUTO 27005KT 16/ RMK AO1 T0156

2010/08/10 08:00
CWIS 100800Z AUTO 00000KT 09/09 RMK AO1 SLP125 T00940090 57001

2010/08/10 08:00
CWIT 100800Z AUTO 28004KT 21/20 RMK AO1 T02090201

2010/08/10 08:00
CWIZ 100800Z AUTO 27005KT 21/21 RMK AO1 T02060205

2010/08/10 08:00
CWJC 100800Z AUTO 13/11 RMK AO1 20 0750Z 1005 SLP151 T01260109

2010/08/10 08:00
CWCT 100800Z AUTO 12006KT 14/12 RMK AO1 SLP088 T01440117 58004

2010/08/10 08:00
CWDC 100800Z AUTO 09004KT 16/15 RMK AO1 SLP118 T01550152 51001

2010/08/10 08:00
CWEH 100800Z AUTO 14006KT 16/12 RMK AO1 SLP079 T01600119 55018

2010/08/10 08:00
CWKO 100800Z AUTO 12009KT 20/14 RMK AO1 SLP085 T01960135 58011

2010/08/10 08:00
CWOY 100800Z AUTO 13003KT 16/13 RMK AO1 SLP116 T01570133 58011

2010/08/10 08:00
CWDC 100800Z AUTO 09004KT 16/15 RMK AO1 SLP118 T01550152 51001

2010/08/10 08:00
CWEH 100800Z AUTO 14006KT 16/12 RMK AO1 SLP079 T01600119 55018

2010/08/10 08:00
CWKO 100800Z AUTO 12009KT 20/14 RMK AO1 SLP085 T01960135 58011

2010/08/10 08:00
CWOY 100800Z AUTO 13003KT 16/13 RMK AO1 SLP116 T01570133 58011

2010/08/10 08:00
CWEK 100800Z AUTO 11001KT 11/ RMK AO1 SLP163 T0110 58003

2010/08/10 08:00
CWEQ 100800Z AUTO 20004KT 15/14 RMK AO1 SLP118 T01480142 50000

2010/08/10 08:00
CWLP 100800Z AUTO 29014KT 12/11 RMK AO1 SLP156 T01160111 54000

2010/08/10 08:00
CWVT 100800Z AUTO 15004KT 18/15 RMK AO1 SLP122 T01780146 58001

2010/08/10 08:00
CWBU 100800Z AUTO 14001KT 12/12 RMK AO1 SLP119 T01230120 58001

2010/08/10 08:00
CWBU 100800Z AUTO 14001KT 12/12 RMK AO1 SLP119 T01230120 58001

2010/08/10 08:02
KFDK 100802Z AUTO 00000KT 7SM CLR 24/22 A2996

2010/08/10 07:51
KABE 100751Z 00000KT 9SM -RA FEW080 24/21 A2993

2010/08/10 07:51
KALB 100751Z 00000KT 2SM BR SCT023 SCT034 21/21 A2994

2010/08/10 07:56
KART 100756Z AUTO 00000KT 5SM BR BKN013 OVC020 21/20 A2993

2010/08/10 07:54
KAVP 100754Z 00000KT 10SM BKN110 23/19 A2996

2010/08/10 07:51
KBDL 100751Z 00000KT 3SM -RA BR FEW004 BKN065 OVC110 22/21 A2991

2010/08/10 07:52
KBDR 100752Z AUTO 00000KT 9SM FEW047 26/19 A2992

2010/08/10 07:54
KBTV 100754Z 00000KT 1SM BR VV004 18/18 A2991

2010/08/10 07:54
KBUF 100754Z 00000KT 3SM BR FEW043 BKN060 OVC075 22/20 A2995

2010/08/10 07:56
KCAE 100756Z 00000KT 6SM BR CLR 24/22 A3000

2010/08/10 07:51
KCAK 100751Z 23004KT 8SM SCT070 OVC100 24/19 A2997

2010/08/10 07:51
KCMH 100751Z 00000KT 10SM SCT150 BKN250 23/21 A2996

2010/08/10 07:53
KCRQ 100753Z 00000KT 10SM OVC011 18/14 A2991

2010/08/10 07:54
KCRW 100754Z 00000KT 4SM BR FEW001 21/20 A3000

2010/08/10 07:56
KDAY 100756Z 23003KT 6SM HZ CLR 24/21 A2999

2010/08/10 07:51
KERI 100751Z 01004KT 6SM HZ BKN055 OVC080 24/19 A2994

2010/08/10 07:54
KGSO 100754Z 23003KT 7SM CLR 24/21 A3003

2010/08/10 07:53
KGSP 100753Z AUTO 00000KT 10SM CLR 24/22 A3002

2010/08/10 07:51
KHTS 100751Z AUTO 00000KT 3SM BR CLR 22/21 A2998

2010/08/10 07:53
KHUL 100753Z AUTO 00000KT 6SM BR CLR 14/14 A2981

2010/08/10 07:53
KIAG 100753Z AUTO 00000KT 3SM BR FEW045 OVC055 22/21 A2994

2010/08/10 07:51
KILG 100751Z 19005KT 9SM CLR 24/22 A2994

2010/08/10 07:53
KILM 100753Z AUTO 19003KT 10SM CLR 25/23 A3001

2010/08/10 07:53
KMSS 100753Z AUTO 22004KT 10SM OVC006 22/21 A2991

2010/08/10 07:54
KORH 100754Z AUTO 28005KT 9SM SCT050 BKN100 OVC120 21/20 A2993

2010/08/10 07:51
KPVD 100751Z 00000KT 9SM FEW075 SCT095 SCT120 OVC150 23/19 A2992

2010/08/10 07:51
KPWM 100751Z AUTO 30006KT 10SM FEW095 21/19 A2987

2010/08/10 07:54
KRIC 100754Z 22004KT 9SM FEW060 24/21 A2997

2010/08/10 07:54
KROC 100754Z 22003KT 2 1/2SM BR SCT060 BKN075 OVC080 21/21 A2994

2010/08/10 07:54
KSYR 100754Z 00000KT 3SM BR FEW020 BKN028 OVC046 21/21 A2994

2010/08/10 07:55
KMZZ 100755Z AUTO 00000KT 1 3/4SM BR VV007 22/21 A2998 RMK AO2

2010/08/10 08:00
CWXL 100800Z AUTO 20003KT 14/12 RMK AO1 T01380120

2010/08/10 08:00
CWYY 100800Z AUTO 34008KT 17/13 RMK AO1 T01710129 58005

2010/08/10 08:00
CWZO 100800Z AUTO 20007KT RMK AO1 

2010/08/10 08:00
CWZS 100800Z AUTO 16002KT 13/12 RMK AO1 SLP088 T01330124 56001

2010/08/10 08:00
CXKE 100800Z AUTO 23004KT 20/19 RMK AO1 SLP126 T02040194 53002

2010/08/10 08:00
CWNC 100800Z AUTO 29002KT 20/ RMK AO1 SLP123 T0195 56005

2010/08/10 08:00
CWWB 100800Z AUTO 23003KT 23/21 RMK AO1 SLP130 T02260207 55004

2010/08/10 08:00
CWQK 100800Z AUTO 28016KT RMK AO1 PK WND 27022/0731

2010/08/10 08:00
CWQP 100800Z AUTO 22001KT 21/21 RMK AO1 SLP130 T02100205 56003

2010/08/10 08:00
CWRT 100800Z AUTO 00000KT 11/11 RMK AO1 T01100110 50010

2010/08/10 08:00
CWSD 100800Z AUTO 24005KT 18/17 RMK AO1 SLP086 T01770169 58008

2010/08/10 08:00
CWSK 100800Z AUTO 06001KT 15/13 RMK AO1 SLP134 T01460134 58001

2010/08/10 08:00
CWSL 100800Z AUTO 00000KT 14/13 RMK AO1 8PAST HR 0001 SLP125 P0003 T01440130 50008

2010/08/10 08:00
CWSP 100800Z AUTO 30013KT 12/11 RMK AO1 SLP139 T01170106 58004

2010/08/10 08:00
CWSL 100800Z AUTO 00000KT 14/13 RMK AO1 8PAST HR 0001 SLP125 P0003 T01440130 50008

2010/08/10 08:00
CWSP 100800Z AUTO 30013KT 12/11 RMK AO1 SLP139 T01170106 58004

2010/08/10 08:00
CWSL 100800Z AUTO 00000KT 14/13 RMK AO1 8PAST HR 0001 SLP125 P0003 T01440130 50008

2010/08/10 08:00
CWSP 100800Z AUTO 30013KT 12/11 RMK AO1 SLP139 T01170106 58004

2010/08/10 08:00
CTRA 100800Z AUTO 21004KT 22/20 RMK AO1 SLP122 T02180198 58003

2010/08/10 08:00
CXZC 100800Z AUTO 35004KT 10/09 RMK AO1 SLP150 T01010088 53005

2010/08/10 08:00
CTRA 100800Z AUTO 21004KT 22/20 RMK AO1 SLP122 T02180198 58003

2010/08/10 08:00
CXZC 100800Z AUTO 35004KT 10/09 RMK AO1 SLP150 T01010088 53005

2010/08/10 08:00
CWTA 100800Z AUTO 29005KT 21/20 RMK AO1 SLP125 T02070195 53001

2010/08/10 08:00
CWTG 100800Z AUTO 26004KT 10/ RMK AO1 SLP079 T0097 50002

2010/08/10 08:00
CWTN 100800Z AUTO 35005KT 19/13 RMK AO1 SLP097 T01910127 55001

2010/08/10 08:00
CWTY 100800Z AUTO 20007KT 19/17 RMK AO1 SLP109 T01870170 53001

2010/08/10 08:00
CWUS 100800Z AUTO 30002KT 14/12 RMK AO1 4PAST HR 3001 SLP126 P0002 T01410115 50006

2010/08/10 08:00
CWUX 100800Z AUTO 20003KT 12/11 RMK AO1 SLP102 T01170112 53001

2010/08/10 08:00
CWVF 100800Z AUTO 13010KT 15/ RMK AO1 T0151

2010/08/10 08:00
CWVU 100800Z AUTO 18008KT 16/15 RMK AO1 9PAST HR 7014 PK WND 18018/0732 SLP101 P0004 T01550153 50009

2010/08/10 08:00
CWWA 100800Z AUTO 02001KT 14/12 RMK AO1 SLP139 T01350118 57003

2010/08/10 08:00
CWWK 100800Z AUTO 10002KT 15/13 RMK AO1 SLP147 T01510134 56002

2010/08/10 08:00
CWXA 100800Z AUTO 25010G16KT 11/08 RMK AO1 SLP111 T01070080 50002

2010/08/10 08:00
SCSE 100800Z 32002KT 9999 OVC015 11/08 Q1017 NEFO PLAYA 1800FT

2010/08/10 08:04
KBTV 100804Z 00000KT 1/4SM FG VV001 18/18 A2991 RMK AO2 RVRNO

2010/08/10 08:04
PAOT 100804Z 15009KT 10SM -RA FEW011 BKN030 OVC039 14/13 A2944 RMK AO2 P0000

2010/08/10 08:04
PAQT 100804Z AUTO 06013KT 2 1/2SM BR OVC004 03/03 A2979 RMK AO2 TSNO

2010/08/10 08:06
KDSM 100806Z 13011KT 10SM TS SCT007 OVC080CB 23/21 A2989 RMK AO2 RAE0756 PRESRR CONS LTGICCC NE-SW TS NE-SW MOV E P0000

2010/08/10 08:07
KPSN 100807Z AUTO 12004KT 26/24 A2993 RMK AO2 PWINO

2010/08/10 08:05
KSFY 100805Z AUTO 00000KT 10SM SCT037 SCT044 SCT055 24/23 A2993 RMK AO2

2010/08/10 08:02
KAPY 100802Z AUTO 13004KT 10SM SCT021 BKN029 BKN035 28/24 A2991 RMK AO2 T02770238

2010/08/10 08:00
FABL 100800Z 15015KT CAVOK 07/M06 Q1035 NOSIG

2010/08/10 08:00
FAJS 100800Z 10016KT CAVOK 08/M02 Q1034 NOSIG

2010/08/10 08:00
FDMS 100800Z 12004KT CAVOK 16/01 Q1033 NOSIG

2010/08/10 08:00
FLLS 100800Z 07007KT CAVOK 23/08 Q1025

2010/08/10 08:00
FQBR 100800Z 19009KT 9999 BKN020 23/20 Q1023

2010/08/10 08:00
FQMA 100800Z 21016KT 9999 FEW020 20/01 Q1032 NOSIG

2010/08/10 08:00
FXMM 100800Z 17009KT CAVOK 08/M10 Q1033 NOSIG

2010/08/10 08:05
KFYJ 100805Z AUTO 00000KT 10SM CLR 26/24 A2997 RMK AO1

2010/08/10 08:15
KCCA 100815Z AUTO 00000KT 4SM BR CLR 26/26 A2994 RMK AO2

2010/08/10 08:04
KTFP 100804Z AUTO 19005KT 10SM SCT049 SCT060 29/26 A2989 RMK AO2

2010/08/10 08:03
K0F2 100803Z AUTO 16003KT 10SM CLR 26/21 A2991 RMK AO2 T02550205

2010/08/10 08:05
K1H2 100805Z AUTO 12003KT 5SM BR SCT110 25/24 A2993 RMK AO2 T02510240

2010/08/10 08:05
K3LF 100805Z AUTO 00000KT 7SM CLR 26/23 A2992 RMK AO2

2010/08/10 08:05
K3T5 100805Z AUTO 00000KT 10SM CLR 26/24 A2991 RMK AO2 T02600242

2010/08/10 08:02
KAAA 100802Z AUTO 00000KT 10SM CLR 23/21 A2992 RMK AO2 T02310211

2010/08/10 08:02
KADS 100802Z AUTO 20004KT 10SM CLR 30/18 A2989 RMK AO2 T02980180

2010/08/10 08:05
KAJG 100805Z AUTO 00000KT 2 1/2SM BR CLR 23/23 A2994 RMK AO2 T02330229

2010/08/10 08:05
KALN 100805Z AUTO 00000KT 4SM BR CLR 26/26 A2991 RMK AO2 T02580255

2010/08/10 08:05
KAQO 100805Z AUTO 21005KT CLR 28/23 A2997 RMK AO2 PWINO

2010/08/10 08:05
KARM 100805Z AUTO 00000KT 10SM SCT017 26/24 A2993 RMK AO2 T02610239

2010/08/10 08:07
KASW 100807Z AUTO 00000KT 1/2SM FG OVC002 23/22 A2997 RMK AO2 T02250222

2010/08/10 08:05
KAXH 100805Z AUTO 00000KT 5SM BR CLR 24/23 A2991 RMK AO2 T02430233

2010/08/10 08:05
KBBD 100805Z AUTO 16005KT 10SM CLR 27/19 A2996 RMK

2010/08/10 08:01
KBEA 100801Z AUTO 00000KT 10SM CLR 26/26 A2991 RMK AO2 T02630255

2010/08/10 08:05
KERV 100805Z AUTO 17007KT 10SM CLR 25/22 A2999 RMK AO2 T02510222

2010/08/10 08:02
KF05 100802Z AUTO 27008KT 10SM CLR 28/19 A2991 RMK AO2 T02830188

2010/08/10 08:03
KFWS 100803Z AUTO 00000KT 10SM CLR 27/20 A2991 RMK AO2 T02720204 TSNO

2010/08/10 08:02
KGDJ 100802Z AUTO 17004KT 10SM CLR 28/20 A2991 RMK AO2 T02820198

2010/08/10 08:03
KGLE 100803Z AUTO 14003KT 10SM CLR 27/20 A2992 RMK AO2

2010/08/10 08:05
KGNC 100805Z AUTO 00000KT 10SM CLR 20/19 A3004 RMK AO2 T02030187

2010/08/10 08:05
KGWB 100805Z AUTO 19003KT 1SM BR VV007 23/21 A2997 RMK AO2

2010/08/10 08:04
KGYB 100804Z AUTO 20003KT 10SM CLR 26/25 A2996 RMK AO2 T02580245

2010/08/10 08:04
KGYI 100804Z AUTO 16006KT 10SM CLR 29/20 A2991 RMK AO2 T02900201

2010/08/10 08:13
KMNZ 100813Z AUTO 20006KT 10SM CLR 26/21 A2994 RMK AO2

2010/08/10 08:06
KORG 100806Z AUTO 00000KT 7SM CLR 25/25 A2991 RMK AO2

2010/08/10 08:05
KOXI 100805Z AUTO 00000KT 5SM CLR 22/21 A2994 RMK AO1 T02220211

2010/08/10 08:04
KPPQ 100804Z AUTO 00000KT 4SM BR CLR 27/25 A2991 RMK AO2

2010/08/10 08:05
KRCR 100805Z AUTO 00000KT 1/4SM FG BKN037 25/25 A2996 RMK AO2

2010/08/10 08:04
PAOT 100804Z 15009KT 10SM -RA FEW011 BKN030 OVC039 14/13 A2944

2010/08/10 08:00
OBBI 100800Z 12009KT CAVOK 41/89 Q1000 NOSIG

2010/08/10 08:00
OOMS 100800Z 01007KT 330V050 8000 NSC 33/28 Q1001 NOSIG

2010/08/10 08:00
OOSA 100800Z 19010KT 160V220 8000 SCT012 BKN028 27/22 Q1005 NOSIG RMK05 RH72

2010/08/10 08:00
OYAR 100800Z 04004KT 9999 FEW030 25/12 Q////

2010/08/10 08:00
OYSN 100800Z 22007KT 9999 SCT030 26/12 Q1022

2010/08/10 08:00
OYTZ 100800Z 23006KT 9999 SCT030 29/17 Q1010

2010/08/10 08:00
CXLB 100800Z AUTO 12002KT 16/16 RMK AO1 SLP105 T01600156 58015

2010/08/10 08:00
CXPC 100800Z AUTO 00000KT 21/21 RMK AO1 SLP119 T02080208 53001

2010/08/10 08:00
CXTD 100800Z AUTO 21010KT 18/16 RMK AO1 PK WND 21019/0711 SLP101 T01750161 57012

2010/08/10 08:00
CXTO 100800Z AUTO 22/22 RMK AO1 SLP135 T02190219 56002

2010/08/10 08:00
CXVN 100800Z AUTO 15001KT 22/21 RMK AO1 SLP122 T02150206 55004

2010/08/10 08:00
CXPC 100800Z AUTO 00000KT 21/21 RMK AO1 SLP119 T02080208 53001

2010/08/10 08:00
CXTD 100800Z AUTO 21010KT 18/16 RMK AO1 PK WND 21019/0711 SLP101 T01750161 57012

2010/08/10 08:00
CXTO 100800Z AUTO 22/22 RMK AO1 SLP135 T02190219 56002

2010/08/10 08:00
CXVN 100800Z AUTO 15001KT 22/21 RMK AO1 SLP122 T02150206 55004

2010/08/10 08:00
CXBO 100800Z AUTO 25004KT 17/16 RMK AO1 T01740163

2010/08/10 08:00
CXCA 100800Z AUTO 18001KT 17/16 RMK AO1 SLP131 T01650158 51005

2010/08/10 08:00
CXCK 100800Z AUTO 11005KT 12/ RMK AO1 T0124

2010/08/10 08:00
CXHF 100800Z AUTO 15/15 RMK AO1 T01490146

2010/08/10 08:00
CXIB 100800Z AUTO 23008KT 19/16 RMK AO1 SLP079 T01900158 56020

2010/08/10 08:00
CXMI 100800Z AUTO 17005KT 16/15 RMK AO1 SLP106 T01550150 56019

2010/08/10 08:00
CXMY 100800Z AUTO 18/17 RMK AO1 T01790168

2010/08/10 08:00
CXOX 100800Z AUTO 04002KT 15/14 RMK AO1 SLP121 T01500143 50004

2010/08/10 08:00
CXRH 100800Z AUTO 13005KT 16/14 RMK AO1 T01550138

2010/08/10 08:00
CXSH 100800Z AUTO 33006KT 17/13 RMK AO1 SLP111 T01710131 53002

2010/08/10 08:00
CXSR 100800Z AUTO 25008KT 12/05 RMK AO1 SLP118 T01160054 58001

2010/08/10 08:00
CXSW 100800Z AUTO 10002KT RMK AO1 50003

2010/08/10 08:00
CXTP 100800Z AUTO 22006KT 14/12 RMK AO1 SLP124 T01360118 56019

2010/08/10 08:00
CXZU 100800Z AUTO 32001KT 13/13 RMK AO1 SLP121 T01260125 52008

2010/08/10 08:00
CXTP 100800Z AUTO 22006KT 14/12 RMK AO1 SLP124 T01360118 56019

2010/08/10 08:00
CXZU 100800Z AUTO 32001KT 13/13 RMK AO1 SLP121 T01260125 52008

2010/08/10 08:00
CXTP 100800Z AUTO 22006KT 14/12 RMK AO1 SLP124 T01360118 56019

2010/08/10 08:00
CXZU 100800Z AUTO 32001KT 13/13 RMK AO1 SLP121 T01260125 52008

2010/08/10 08:00
CXTP 100800Z AUTO 22006KT 14/12 RMK AO1 SLP124 T01360118 56019

2010/08/10 08:00
CXZU 100800Z AUTO 32001KT 13/13 RMK AO1 SLP121 T01260125 52008

2010/08/10 08:00
SAZM 100800Z 32005KT CAVOK 00/M02 Q1026

2010/08/10 08:00
SADF 100800Z 00000KT 8000 MIFG SKC 04/04 Q1027

2010/08/10 07:50
LTCG 100750Z 01005KT 290V060 9999 FEW035 SCT100 31/22 Q1008 NOSIG

2010/08/10 08:00
SPQT 100800Z /////KT 4000 BR SCT010 SCT100 22/21 Q1012 NOSIG RMK PP000

2010/08/10 08:00
LPFR 100800Z 25002KT CAVOK 29/19 Q1016

2010/08/10 08:00
LPMA 100800Z VRB02KT 9999 BKN015 22/18 Q1016 RS08001KT 0531002KT 2325003KT

2010/08/10 08:00
LPPR 100800Z 00000KT CAVOK 25/18 Q1017

2010/08/10 08:00
LPPS 100800Z 35005KT 9000 SCT011 BKN030 22/20 Q1016

2010/08/10 08:00
LPPT 100800Z VRB02KT CAVOK 30/14 Q1016 NOSIG

2010/08/10 08:00
GMMH 100800Z 36006KT 6000 SCT008 BKN200 21/19 Q1014

2010/08/10 08:00
GMML 100800Z 03009KT 6000 SCT016 BKN100 22/19 Q1015

2010/08/10 07:55
KHUA 100755Z AUTO RMK AO2 SLPNO PWINO PNO TSNO $

2010/08/10 08:00
TTPP 100800Z 00000KT 9999 FEW016 BKN280 24/23 Q1013 NOSIG

2010/08/10 07:59
KNGU 100759Z 21005KT 10SM CLR 26/23 A2998 RMK AO2 SLP152 T02610233

2010/08/10 08:00
TTPP 100800Z 00000KT 9999 FEW016 BKN280 24/23 Q1013 NOSIG

2010/08/10 08:00
LPAZ 100800Z 04007KT 9999 FEW018 BKN034 21/16 Q1020

2010/08/10 08:00
LPHR 100800Z 01004KT 9999 FEW016 BKN040 20/15 Q1022

2010/08/10 08:00
LPLA 100800Z 00000KT 9999 FEW018 BKN035 21/17 Q1022

2010/08/10 08:00
LPPD 100800Z 05004KT 360V080 9999 FEW020 BKN040 20/14 Q1020

2010/08/10 08:00
UMBB 100800Z 04002MPS 8000 -SHRA SCT016CB SCT100 20/18 Q1016 R29/CLRD// NOSIG

2010/08/10 08:00
UMGG 100800Z VRB02MPS 9999 FEW040 BKN100 25/21 Q1016 R10/CLRD// NOSIG

2010/08/10 08:00
UMII 100800Z 04004MPS P6000 SCT030CB OVC100 21/16 Q1016 R05/CLRD// NOSIG

2010/08/10 08:00
UMMG 100800Z 13002MPS CAVOK 22/16 Q1016 R17/CLRD// NOSIG

2010/08/10 08:00
UMMM 100800Z 36002MPS 9999 SCT040 BKN100 20/15 Q1017 R30/CLRD// NOSIG RMK QFE743

2010/08/10 08:00
UMMS 100800Z 33003MPS CAVOK 21/17 Q1017 R31/CLRD// NOSIG

2010/08/10 08:00
UMOO 100800Z 00000MPS 9999 FEW030 BKN/// 22/18 Q1014 R31/CLRD// NOSIG

2010/08/10 07:55
KGZL 100755Z AUTO 00000KT 10SM 25/22 A2992 RMK AO2 PWINO

2010/08/10 08:00
KBKD 100800Z AUTO 00000KT 10SM CLR 29/18 A2992 RMK AO2 T02860184

2010/08/10 08:00
KOZA 100800Z AUTO 17011G15KT 10SM CLR 28/18 A3001 RMK AO2 T02770183

2010/08/10 07:58
KBLV 100758Z AUTO 00000KT 9SM R14R/5500VP6000FT CLR 26/26 A2991 RMK AO2 SLP124

2010/08/10 08:04
PASY 100804Z AUTO 29010KT 3/4SM BR VV001 09/08 A2988 RMK AO2 TSNO PNO $

2010/08/10 08:00
UAAA 100800Z 27007G12MPS 230V310 9999 SCT050CB BKN100 33/03 Q1008 88CLRD65 NOSIG

2010/08/10 08:00
UACC 100800Z 01007G12MPS 9999 BKN040 19/04 Q1019 040/0070 NOSIG RMK QFE733/0977

2010/08/10 08:00
UAKK 100800Z 36008MPS 9999 BKN050CB 18/05 Q1017 050///70 NOSIG RMK QFE716/0954

2010/08/10 08:00
UARR 100800Z 08007MPS 4200 FU NSC 34/03 Q1018 04CLRD70 NOSIG RMK QFE760/1014

2010/08/10 08:00
UATE 100800Z 11005G10MPS CAVOK 40/04 Q1012 120///70 NOSIG RMK QFE757/1009

2010/08/10 08:00
UATG 100800Z 07006G09MPS CAVOK 40/11 Q1013 32CLRD70 NOSIG RMK QFE761/1015

2010/08/10 08:00
UATT 100800Z 08007MPS 060V120 9999 NSC 29/01 Q1021 13CLRD70 NOSIG RMK QFE746/0995

2010/08/10 08:00
UAUU 100800Z 06002MPS 010V180 CAVOK 24/02 Q1022 33CLRD70 NOSIG RMK QFE751/1001

2010/08/10 08:00
UTDD 100800Z 21002MPS 120V250 9999 SCT066 FEW180 36/04 Q1007 09CLRD70 NOSIG RMK QFE688/0918

2010/08/10 08:00
OKBK 100800Z 14004KT 7000 RKC PRWXCI C1000 NOSIH

2010/08/10 08:05
KDKK 100805Z AUTO 18007KT 2SM RA BR SCT030 BKN047 OVC075 22/21 A2995 RMK AO2 RAB0754 P0003 $

2010/08/10 08:05
KGZH 100805Z AUTO 00000KT 1 3/4SM BR CLR 24/23 A2995 RMK AO2

2010/08/10 08:05
KRME 100805Z AUTO 00000KT 2 1/2SM BR BKN003 BKN016 BKN023 21/20 A2997 RMK AO2 $

2010/08/10 08:05
KTQE 100805Z AUTO 00000KT 1SM BR VV001 24/24 A2982 RMK AO2

2010/08/10 08:04
PAGN 100804Z AUTO 00000KT BKN006 OVC013 RMK AO2 PWINO TSNO CIG 004V007 $

2010/08/10 08:04
PAGN 100804Z AUTO 00000KT BKN006 OVC013 RMK AO2 PWINO TSNO CIG 004V007 $

2010/08/10 08:06
KSSF 100806Z AUTO 00000KT 10SM SCT018 27/23 A2993 RMK AO2

2010/08/10 08:06
KMIW 100806Z AUTO 20004KT 7SM -TSRA OVC010 25/24 A2993 RMK AO2 LTG DSNT ALQDS P0001 $

2010/08/10 08:00
KCIR 100800Z AUTO 00000KT 5SM BR CLR 25/23 A2993 RMK AO2

2010/08/10 08:00
OBBI 100800Z 12009KT CAVOK 41/89 Q1000 NOSIG

2010/08/10 08:00
SBMN 100800Z 00000KT 9999 FEW015 25/23 Q1012

2010/08/10 08:00
TTCP 100800Z 16009KT 9999 FEW016 SCT300 27/23 Q1013 NOSIG

2010/08/10 08:00
TTPP 100800Z 00000KT 9999 FEW016 BKN280 24/23 Q1013 NOSIG

2010/08/10 08:00
CYBG 100800Z 18004KT 15SM FEW040 14/12 A2984 RMK SC1 SLP105

2010/08/10 08:00
CYDQ 100800Z AUTO 00000KT 9SM CLR 09/06 A2989 RMK SLP136

2010/08/10 08:00
CYEG 100800Z 33005KT 15SM FEW110 SCT210 14/14 A2983 RMK AC2CI1 OCNL LTNG NW SLP104

2010/08/10 08:00
CYFB 100800Z 34008KT 15SM SCT027 OVC064 11/10 A2986 RMK SC3SC5 INTMT -RA SLP114

2010/08/10 08:00
CYFC 100800Z AUTO 00000KT 1/8SM FG VV002 17/17 A2980 RMK SLP092 DENSITY ALT 400FT RVR MISG

2010/08/10 08:00
CYGL 100800Z 34005KT 6SM -RA BR OVC007 08/08 A2994 RMK SC8 SLP145

2010/08/10 08:00
CYHZ 100800Z 22006KT 1/2SM R14/3500FT/D R23/2000V2800FT/D FG VV001 17/17 A2985 RMK FG8 SLP109

2010/08/10 08:00
CYJT 100800Z 20010KT 15SM FEW009 OVC045 17/16 A2978 RMK SF2SC6 SLP084

2010/08/10 08:00
CYKL 100800Z AUTO 32009KT 9SM OVC015 OVC052 09/08 A2970 RMK SLP072

2010/08/10 08:00
CYMH 100800Z AUTO 23011G19KT 9SM FEW056 16/14 A2958 RMK SLP018

2010/08/10 08:00
CYMX 100800Z 26003KT 2SM R06/4500VP6000FT/U BR SKC 18/15 A2990 RMK FG2 VIS VRB 1-3 SLP126

2010/08/10 08:00
CYOW 100800Z 00000KT 1/4SM R07/1600FT/N R32/1200V1800FT/N FG SKC 17/17 A2992 RMK FG6 SLP132

2010/08/10 08:00
CYQB 100800Z 00000KT 8SM R06/3000FT/N PRFG FEW003 16/16 A2986 RMK SF1 HAZY SLP111

2010/08/10 08:00
CYQG 100800Z 00000KT 6SM BR SKC 22/21 A2995 RMK SLP139

2010/08/10 08:00
CYQM 100800Z 20006KT 1/4SM R29/1400FT/N R06/3000V5000FT/N FG VV001 17/17 A2980 RMK FG8 SLP091

2010/08/10 08:00
CYQQ 100800Z 30004KT 20SM FEW040 FEW080 SCT240 16/12 A2994 RMK SC1AC1CI0 SLP140

2010/08/10 08:00
CYQX 100800Z 19013KT 20SM BKN110 BKN130 BKN150 15/12 A2986 RMK AC6AC1AC1 SLP112

2010/08/10 08:00
CYQY 100800Z 20009KT 15SM SCT060 17/16 A2982 RMK SC4 SLP098

2010/08/10 08:00
CYRB 100800Z 04014KT 15SM FEW140 FEW240 04/01 A2995 RMK AC1CI1 AC TRACE SLP149

2010/08/10 08:00
CYSJ 100800Z 19003KT 1/8SM R23/1200FT/N FG VV001 16/14 A2983 RMK FG8 SLP103

2010/08/10 08:00
CYTE 100800Z AUTO 12004KT 9SM BKN054 BKN084 12/10 A2991 RMK SLP132

2010/08/10 08:00
CYTR 100800Z 00000KT 1/2SM FG BKN020 19/16 A2992 RMK FG6SC2 VIS VRB 1/4-3/4 SLP132

2010/08/10 08:00
CYUL 100800Z 24006KT 10SM SCT005 20/19 A2990 RMK SF3 SLP124

2010/08/10 08:00
CYUY 100800Z 00000KT 15SM FEW070 17/14 A2992 RMK AC1 SLP131

2010/08/10 08:00
CYVP 100800Z 33004KT 15SM OVC005 06/04 A2984 RMK SF8 SLP108

2010/08/10 08:00
CYVR 100800Z 10005KT 15SM FEW015 SCT080 BKN100 15/11 A2994 RMK SC2AC2AC4 SLP140

2010/08/10 08:00
CYWG 100800Z 20003KT 15SM FEW014 OVC076 24/22 A2983 RMK CF1AC7 CB EMBD DST SW-NW LTGICCC DST SW-NW SLP100

2010/08/10 08:00
CYWK 100800Z 25005KT 15SM FEW011 FEW025 OVC054 10/09 A2974 RMK SF1SC1SC6 SLP080

2010/08/10 08:00
CYXU 100800Z 00000KT 3SM BR OVC032 22/21 A2996 RMK SC8 SLP142

2010/08/10 08:00
CYXX 100800Z 28003KT 10SM FEW010 BKN027 15/11 A2995 RMK SF1SC6 SLP141

2010/08/10 08:00
CYXY 100800Z 15011KT 40SM SCT060 BKN160 12/07 A2982 RMK SC3AC1 SLP113

2010/08/10 08:00
CYYC 100800Z 22002KT 15SM -RA SCT060 BKN100 14/10 A2990 RMK SC3AC2 SLP119

2010/08/10 08:00
CYYJ 100800Z 00000KT 8SM FEW005 BKN019 12/11 A2994 RMK SF1SC7 SLP139

2010/08/10 08:00
CYYQ 100800Z 14004KT 1/4SM R33/2800FT/N FG VV002 08/08 A3007 RMK FG8 SLP183

2010/08/10 08:00
CYYR 100800Z 28006KT 15SM FEW026 FEW051 SCT083 14/13 A2960 RMK SC1SC1AC3 SLP024

2010/08/10 08:00
CYYT 100800Z 17002KT 15SM FEW012 OVC045 14/13 A2992 RMK SC2SC6 OCNL -SHRA SLP134

2010/08/10 08:00
CYYZ 100800Z 31002KT 6SM BR BKN053 22/21 A2994 RMK SC6 SLP135

2010/08/10 08:00
CYZF 100800Z 12002KT 15SM FEW110 FEW230 17/13 A2976 RMK AC1CI1 SLP082

2010/08/10 08:00
CYZV 100800Z 29007KT 15SM FEW100 15/12 A2973 RMK AC1 SLP069

2010/08/10 08:00
CYZX 100800Z 18007KT 3SM -TSRA BR FEW002 BKN042 OVC076 18/18 A2983 RERA RMK SF2SC3AC2 WNDY HILL 19007KT CB EMBD SW MOVG NE OCNL LTGCCCG SLP102

2010/08/10 08:00
CYZY 100800Z AUTO 03002KT 9SM SCT071 10/09 A2991 RMK SLP145

2010/08/10 08:00
CZBF 100800Z 27006KT 15SM FEW070 19/16 A2977 RMK AC2 SLP082

2010/08/10 08:00
LRAR 100800Z 34004KT 300V050 CAVOK 24/17 Q1018

2010/08/10 08:00
LRTC 100800Z 36010KT 320V020 CAVOK 30/18 Q1012

2010/08/10 08:00
EPSC 100800Z 14005KT 9999 BKN005 19/18 Q1017

2010/08/10 08:00
UMII 100800Z 04004MPS P6000 SCT030CB OVC100 21/16 Q1016 R05/CLRD// NOSIG

2010/08/10 08:00
UMMM 100800Z 36002MPS 9999 SCT040 BKN100 20/15 Q1017 R30/CLRD// NOSIG RMK QFE743

2010/08/10 08:00
UMMS 100800Z 33003MPS CAVOK 21/17 Q1017 R31/CLRD// NOSIG

2010/08/10 08:00
LPAZ 100800Z 04007KT 9999 FEW018 BKN034 21/16 Q1020

2010/08/10 08:00
LPPD 100800Z 05004KT 360V080 9999 FEW020 BKN040 20/14 Q1020

2010/08/10 08:00
LFVP 100800Z VRB01KT 9999 BKN008 OVC016 15/15 Q1012

2010/08/10 07:55
KQAE 100755Z 04007KT 8000 DU HZ CLR 46/07 A2961 RMK SLP023

2010/08/10 08:00
FIMR 100800Z 10020KT 9999 FEW018 26/16 Q1023

2010/08/10 07:55
FJDG 100755Z 15010G20KT 9999 FEW020 SCT070 BKN220 29/25 A2982 RMK SLP095 T02900245

2010/08/10 08:00
FMCZ 100800Z 17009KT 9999 FEW023 28/20 Q1018

2010/08/10 08:00
FMEE 100800Z 12012KT 090V170 9999 VCSH SCT016 BKN046 21/19 Q1023 TEMPO 5000 SHRA

2010/08/10 07:45
LIBR 100745Z 32026KT CAVOK 26/20 Q1013 NOSIG RMK SCT SCT200 VIS MIN 9999 WIND THR13 /////KT WIND THR31 31021KT BLU

2010/08/10 07:45
LIPH 100745Z 08007KT CAVOK 26/19 Q1016 RMK FEW FEW180 VIS MIN 9999 WIND THR07 /////KT BLU

2010/08/10 07:45
LIPR 100745Z 30004KT CAVOK 25/21 Q1015 RMK SKC VIS MIN 9999 WIND THR31 31004KT BLU

2010/08/10 07:45
LIPX 100745Z 11001KT 9999 FEW040 27/18 Q1016 RMK FEW VIS MIN 9999 BLU

2010/08/10 07:50
LIBD 100750Z 35007KT 300V030 CAVOK 27/13 Q1014 RMK VIS MIN 9999

2010/08/10 07:50
LIBP 100750Z 02005KT CAVOK 27/19 Q1015 RMK VIS MIN 9999

2010/08/10 07:50
LICA 100750Z 26011KT 9999 FEW025 27/21 Q1014 RMK VIS MIN 9999

2010/08/10 07:50
LICC 100750Z VRB02KT CAVOK 28/15 Q1014 RMK VIS MIN 9999

2010/08/10 07:55
LICG 100755Z 34005KT CAVOK 26/23 Q1016 RMK SKC VIS MIN 9999 WIND THR08 /////KT WIND THR21 34004KT BLU

2010/08/10 07:50
LICJ 100750Z 35003KT CAVOK 26/20 Q1015 RMK VIS MIN 9999

2010/08/10 07:50
LICR 100750Z 35014KT 9999 FEW025 27/19 Q1014 RMK VIS MIN 9999

2010/08/10 07:55
LICT 100755Z 32005KT CAVOK 28/20 Q1015 RMK SKC VIS MIN 9999 WIND THR13 31004KT BLU

2010/08/10 07:50
LIEA 100750Z 00000KT CAVOK 29/17 Q1016 RMK VIS MIN 9999

2010/08/10 07:50
LIEO 100750Z 05005KT CAVOK 25/15 Q1016 RMK VIS MIN 9999

2010/08/10 07:50
LIMG 100750Z VRB03KT 9999 FEW030 25/19 Q1016 RMK VIS MIN 9999

2010/08/10 07:55
LIMK 100755Z 00000KT CAVOK 19/17 Q1017 RMK BKN BKN070 VAL FOSCHIA VIS MIN 9999

2010/08/10 07:55
LIMN 100755Z VRB02KT 9999 BKN060 22/17 Q1016 RMK BKN VIS MIN 9999 BLU

2010/08/10 07:55
LIMS 100755Z 06003KT CAVOK 24/19 Q1015 RMK SCT SCT100 VIS MIN 9999 WIND THR30 33003KT BLU

2010/08/10 07:55
LIMU 100755Z 04005KT 9999 FEW023 23/21 Q1017 RMK SCT QUK 1 QUL 1 E VIS MAR 12 KM VIS MIN 9999

2010/08/10 07:55
LIMV 100755Z 21004KT 6000 FEW009 SCT015 19/18 Q1018 RMK BKN MON N LIB S CLD SCT ABB SLW VAL FOSCHIA VIS MIN 6000

2010/08/10 07:55
LIPA 100755Z 33001KT 9999 FEW040 25/22 Q1016 RMK FEW VIS MIN 9999 A3001 BLU

2010/08/10 07:55
LIPC 100755Z 31004KT CAVOK 25/21 Q1015 RMK FEW FEW200 VIS MIN 9999 WIND THR12 30004KT BLU

2010/08/10 07:55
LIPF 100755Z 31002KT 8000 NSC 24/21 Q1015 RMK SKC VIS MIN 8000

2010/08/10 07:55
LIPI 100755Z 03009KT 9999 FEW080 26/18 Q1016 RMK SCT VIS MIN 9999 WIND THR06 /////KT BLU

2010/08/10 07:55
LIPL 100755Z 10003KT CAVOK 23/21 Q1016 RMK BKN SCT090 VIS MIN 9999 BLK BLU

2010/08/10 07:55
LIPS 100755Z 06006KT CAVOK 26/17 Q1016 RMK SKC VIS MIN 9999 BLU

2010/08/10 07:50
LIPO 100750Z 10004KT 040V130 9999 SCT055 25/18 Q1016 RMK VIS MIN 9999

2010/08/10 07:50
LIPY 100750Z VRB01KT CAVOK 26/19 Q1015 RMK VIS MIN 9999

2010/08/10 07:50
LIRZ 100750Z VRB02KT CAVOK 24/16 Q1016 RMK VIS MIN 9999

2010/08/10 07:55
LIBA 100755Z 29002KT 9999 FEW030 26/22 Q1014 RMK SCT SCT090 VIS MIN 9999 WIND THR29 28003KT BLU

2010/08/10 07:50
LIBG 100750Z 35015KT CAVOK 29/14 Q1013 RMK VIS MIN 9999

2010/08/10 07:55
LIBN 100755Z 33017KT CAVOK 28/20 Q1013 RMK SCT SCT180 VIS MIN 9999 WIND THR14 34014KT BLU

2010/08/10 07:55
LIBV 100755Z 01012KT CAVOK 26/14 Q1013 RMK BKN SCT090 SCT200 VIS MIN 9999 WIND THR14 35012KT BLU

2010/08/10 07:50
LICD 100750Z 29006KT CAVOK 26/20 Q1015 RMK VIS MIN 9999

2010/08/10 07:55
LICZ 100755Z 30004KT CAVOK 28/14 Q1014 RMK SKC VIS MIN 9999 WIND THR28 /////KT BLU

2010/08/10 07:55
LIED 100755Z 31002KT CAVOK 28/10 Q1016 RMK SKC VIS MIN 9999 BLU

2010/08/10 07:55
LIRE 100755Z 20005KT CAVOK 25/22 Q1015 RMK SKC VIS MIN 9999 WIND THR31 17006KT BLU

2010/08/10 07:55
LIRG 100755Z 00000KT CAVOK 26/18 Q1015 RMK SKC MON NE LIB NC VIS MIN 9999 BLU

2010/08/10 07:55
LIRH 100755Z 14003KT CAVOK 26/18 Q1015 RMK SKC MON LIB NC VIS MIN 9999 WIND THR16 17003KT BLU

2010/08/10 07:55
LIRL 100755Z 15004KT CAVOK 27/20 Q1015 RMK FEW FEW200 MON LIB NC VIS MIN 9999 BLU

2010/08/10 07:55
LIRS 100755Z 03002KT CAVOK 25/16 Q1015 RMK SKC VIS MIN 9999 WIND THR21 /////KT BLU

2010/08/10 07:50
LIRU 100750Z VRB02KT CAVOK 27/20 Q1015 RMK VIS MIN 9999

2010/08/10 07:55
LIRV 100755Z 05009KT CAVOK 25/15 Q1016 RMK FEW FEW070 MON E SE LIB NC VIS MIN 9999 BLU

2010/08/10 07:55
LIRX 100755Z 36005KT 9999 FEW013 22/16 Q1015 RMK FEW VIS MIN 9999N VIS MAR 18 KM

2010/08/10 07:50
LIRZ 100750Z VRB02KT CAVOK 24/16 Q1016 RMK VIS MIN 9999

2010/08/10 07:55
LIVC 100755Z 09007KT 9999 FEW001 12/08 Q1025 RMK FEW MON LIB VAL CLD SCT ELEV VIS MIN 9999

2010/08/10 07:55
LIVD 100755Z 00000KT 9999 SCT035 18/14 Q1021 RMK SCT VIS MIN 9999

2010/08/10 07:55
LIVE 100755Z 23003KT 9999 SCT025 15/10 Q1021 RMK SCT VIS MIN 9999

2010/08/10 07:55
LIVM 100755Z 07003KT 9999 FEW025 25/22 Q1015 RMK FEW QUK 0 QUL 0 VIS MAR 12 KM VIS MIN 9999

2010/08/10 07:55
LIVO 100755Z 17002KT 9999 BKN025 17/16 Q1019 RMK BKN VIS MIN 9999

2010/08/10 07:55
LIVP 100755Z 00000KT 1200 BR BKN001 11/09 Q1024 RMK BKN MON INVIS VAL CLD SCT NEBBIA INF VIS MIN 1200

2010/08/10 07:55
LIVR 100755Z 10002KT 9999 SCT020 14/10 Q1023 RMK SCT MON CIME INC VIS MIN 9999

2010/08/10 07:55
LIVT 100755Z 04007G18KT CAVOK 26/16 Q1014 RMK FEW FEW200 QUK 3 QUL 1 NE VIS MAR 20 KM VIS MIN 9999

2010/08/10 07:45
LIPX 100745Z 11001KT 9999 FEW040 27/18 Q1016 RMK FEW VIS MIN 9999 BLU

2010/08/10 08:00
RJCC 100800Z 19011KT 8000 FEW003 BKN004 22/20 Q1013 RMK 1ST003 7ST004 A2992

2010/08/10 08:00
RJOO 100800Z 24008KT 9999 FEW015 SCT100 BKN/// 29/22 Q1013 RMK 1CU015 4AC100 A2992

2010/08/10 07:50
ENDU 100750Z VRB01KT 9999 FEW045 SCT060 14/10 Q1010 NOSIG

2010/08/10 08:00
LPAZ 100800Z 04007KT 9999 FEW018 BKN034 21/16 Q1020

2010/08/10 08:00
LPHR 100800Z 01004KT 9999 FEW016 BKN040 20/15 Q1022

2010/08/10 08:00
LPPD 100800Z 05004KT 360V080 9999 FEW020 BKN040 20/14 Q1020

2010/08/10 08:00
UAAA 100800Z 27007G12MPS 230V310 9999 SCT050CB BKN100 33/03 Q1008 88CLRD65 NOSIG

2010/08/10 08:00
UACC 100800Z 01007G12MPS 9999 BKN040 19/04 Q1019 040/0070 NOSIG RMK QFE733/0977

2010/08/10 08:00
UAFM 100800Z 32007MPS CAVOK 33/04 Q1010 TEMPO 30008G13MPS FCST WS

2010/08/10 08:00
UARR 100800Z 08007MPS 4200 FU NSC 34/03 Q1018 04CLRD70 NOSIG RMK QFE760/1014

2010/08/10 08:00
UATE 100800Z 11005G10MPS CAVOK 40/04 Q1012 120///70 NOSIG RMK QFE757/1009

2010/08/10 08:00
UATG 100800Z 07006G09MPS CAVOK 40/11 Q1013 32CLRD70 NOSIG RMK QFE761/1015

2010/08/10 08:00
UATT 100800Z 08007MPS 060V120 9999 NSC 29/01 Q1021 13CLRD70 NOSIG RMK QFE746/0995

2010/08/10 08:00
UMBB 100800Z 04002MPS 8000 -SHRA SCT016CB SCT100 20/18 Q1016 R29/CLRD// NOSIG

2010/08/10 08:00
UMGG 100800Z VRB02MPS 9999 FEW040 BKN100 25/21 Q1016 R10/CLRD// NOSIG

2010/08/10 08:00
UMII 100800Z 04004MPS P6000 SCT030CB OVC100 21/16 Q1016 R05/CLRD// NOSIG

2010/08/10 08:00
UMMG 100800Z 13002MPS CAVOK 22/16 Q1016 R17/CLRD// NOSIG

2010/08/10 08:00
UMMM 100800Z 36002MPS 9999 SCT040 BKN100 20/15 Q1017 R30/CLRD// NOSIG RMK QFE743

2010/08/10 08:00
UMMS 100800Z 33003MPS CAVOK 21/17 Q1017 R31/CLRD// NOSIG

2010/08/10 08:00
UTAA 100800Z VRB01MPS 9999 SKC 38/03 Q1011 NOSIG

2010/08/10 08:00
UTAK 100800Z 13006MPS CAVOK 38/06 Q1011 NOSIG

2010/08/10 08:00
UTAT 100800Z 01004MPS CAVOK 38/18 Q1010 NOSIG

2010/08/10 08:00
UTDD 100800Z 21002MPS 120V250 9999 SCT066 FEW180 36/04 Q1007 09CLRD70 NOSIG RMK QFE688/0918

2010/08/10 08:00
UTDL 100800Z 25008G11MPS 9999 FEW046 FEW130 35/09 Q1007 NOSIG RMK QFE718 8809//70

2010/08/10 08:00
UTAM 100800Z 01005MPS CAVOK 37/08 Q1006 NOSIG

2010/08/10 08:00
SLLP 100800Z 00000KT 9999 SKC M07/M18 Q1037

2010/08/10 08:00
SLVR 100800Z 14015KT 8000 NSC 15/11 Q1018

2010/08/10 08:00
SEMT 100800Z 17006KT 9999 BKN020 23/21 Q1013

2010/08/10 08:00
SEGU 100800Z 23005KT 200V260 9999 BKN030 BKN090 23/18 Q1013 NOSIG

2010/08/10 08:00
SEQU 100800Z 34004KT 9999 SCT040 11/05 Q1027 RMK A3033 NOSIG

2010/08/10 07:55
KQIR 100755Z COR 13005KT 9999 CLR 43/15 A2953 RMK AO2 SLP996 T04250148

2010/08/10 08:00
LERT 100800Z 00000KT CAVOK 31/10 Q1016 NOSIG

2010/08/10 07:55
LICZ 100755Z 30004KT CAVOK 28/14 Q1014 RMK SKC VIS MIN 9999 WIND THR28 /////KT BLU

2010/08/10 07:55
FJDG 100755Z 15010G20KT 9999 FEW020 SCT070 BKN220 29/25 A2982 RMK SLP095 T02900245

2010/08/10 08:00
CWCA 100800Z 31004KT 7SM -RA BKN030 OVC070 13/12 A2957 RMK SC6AS2 SLP013

2010/08/10 08:00
CWCL 100800Z AUTO 00000KT 9SM CLR 05/04 A2995 RMK SLP159

2010/08/10 08:00
CWEU 100800Z 27008KT 40SM FEW003 01/M01 A3001 RMK CF1 SLP164

2010/08/10 08:00
CWFD 100800Z AUTO 35024KT 9SM 04/ RMK ALTM MISG

2010/08/10 08:00
CWHN 100800Z AUTO 04007KT 9SM CLR 15/12 A2987 RMK SLP116

2010/08/10 08:00
CWIL 100800Z AUTO 19013KT 14/ A2987 RMK SLP122

2010/08/10 08:00
CWKM 100800Z AUTO 07010KT 09/ A2969 RMK SLP058

2010/08/10 08:00
CWKW 100800Z AUTO 36010KT 04/ A2975 RMK SLP097

2010/08/10 08:00
CWLI 100800Z AUTO 07006KT 09/ A2972 RMK SLP075

2010/08/10 08:00
CWLX 100800Z AUTO 29012KT 13/ A2988 RMK SLP126

2010/08/10 08:00
CWLY 100800Z AUTO 17002KT 9SM FEW005 BKN011 BKN025 13/12 A2995 RMK SLP146

2010/08/10 08:00
CWOB 100800Z AUTO ///// 1/8SM CLR 03/ A2978 RMK SLP120

2010/08/10 08:00
CWRH 100800Z AUTO ///// 03/ A2978 RMK SLP113

2010/08/10 08:00
CWRX 100800Z AUTO 30008KT 08/ A2989

2010/08/10 08:00
CWTU 100800Z AUTO 28004KT 08/ A2958 RMK SLP026

2010/08/10 08:00
CWUP 100800Z AUTO 16002KT 06/ A2988 RMK SLP141

2010/08/10 08:00
CWUW 100800Z AUTO ///// 9SM CLR 10/ A2990 RMK SLP148

2010/08/10 08:00
CWVD 100800Z AUTO ///// 04/ A2987 RMK SLP153

2010/08/10 08:00
CWVH 100800Z AUTO 11008KT 12/ A2968 RMK SLP062

2010/08/10 08:00
CWWU 100800Z 09004KT 7SM -SHRA SCT022 BKN034 OVC040 15/14 A2990 RMK SC3SC3SC2 SLP127

2010/08/10 08:00
CWXR 100800Z AUTO 29004KT 08/ A2969 RMK SLP062

2010/08/10 08:00
CWYK 100800Z AUTO ///// 04/ A2961 RMK SLP052

2010/08/10 08:00
CWYM 100800Z AUTO 06018KT 02/ RMK ALTM MISG SLP135

2010/08/10 08:00
CWZZ 100800Z AUTO ///// 0SM BKN001 03/ A2967 RMK SLP071

2010/08/10 08:00
CYAH 100800Z AUTO 25002KT 9SM FEW036 OVC049 OVC080 11/10 A2986 RMK SLP122

2010/08/10 08:00
CYAM 100800Z 33004KT 1 1/2SM BR OVC003 21/20 A2996 RMK SF8 SLP146

2010/08/10 08:00
CYAY 100800Z AUTO 23013G23KT 9SM OVC013 17/15 A2965 RMK SLP042 DENSITY ALT 600FT MAX WND 24026KT AT 0712Z

2010/08/10 08:00
CYBC 100800Z AUTO 27004KT 9SM CLR 13/11 A2978 RMK SLP085

2010/08/10 08:00
CYBK 100800Z 23005KT 20SM FEW090 11/10 A3003 RMK AS1 SLP172

2010/08/10 08:00
CYBN 100800Z AUTO 00000KT 7SM CLR 20/19 A2993 RMK SLP136

2010/08/10 08:00
CYBR 100800Z 09005KT 15SM FEW070 OVC180 22/19 A2990 RMK AC2AC6 OCNL LTGIC DIST E-SW SLP122

2010/08/10 08:00
CYBU 100800Z AUTO VRB02KT 3/8SM FG CLR 12/12 A2988 RMK SLP125

2010/08/10 08:00
CYBX 100800Z 22013KT 4SM -RA BR OVC006 13/13 A2963 RMK SF8 SLP035

2010/08/10 08:00
CYCB 100800Z 09016KT 10SM VCFG OVC005 10/09 A2985 RMK SF8 SLP110

2010/08/10 08:00
CYCO 100800Z 23004KT 10SM MIFG FEW006 FEW030 SCT050 BKN090 10/09 A2969 RMK SF1SC1SC2AC4 TR SF TCU EMBD SLP057

2010/08/10 08:00
CYCX 100800Z AUTO 31003KT 1/4SM 16/16 A2980 RMK SLP092

2010/08/10 08:00
CYCY 100800Z AUTO 00000KT 5/8SM CLR 03/03 A2988 RMK SLP121

2010/08/10 08:00
CYDB 100800Z AUTO 10005KT 9SM CLR 09/04 A2977 RMK SLP100

2010/08/10 08:00
CYDF 100800Z 00000KT 10SM -SHRA BKN030 OVC055 16/14 A2976 RMK SC6SC2 SLP079

2010/08/10 08:00
CYDN 100800Z AUTO 25005KT 9SM CLR 16/15 A2986 RMK SLP115 DENSITY ALT 1400FT

2010/08/10 08:00
CYDP 100800Z 31011KT 15SM FEW006 SCT008 OVC015 10/09 A2967 RMK SF2SC2SC4 SLP049

2010/08/10 08:00
CYEK 100800Z AUTO 26004KT 1SM CLR 08/08 A3008 RMK VSBY VRBL 0.4V9.+ SLP188

2010/08/10 08:00
CYEN 100800Z 13007KT 8SM +TSRA OVC060CB 19/16 A2985 RMK CB8 FRQ LTGICCCCG SLP105

2010/08/10 08:00
CYET 100800Z AUTO 30003KT 9SM BKN069 12/12 A2991 RMK SLP133

2010/08/10 08:00
CYEV 100800Z 10006KT 15SM FEW100 SCT200 15/10 A2966 RMK AC2CI0 SLP047

2010/08/10 08:00
CYFS 100800Z 00000KT 15SM -DZ BKN006 OVC030 15/14 A2973 RMK ST5SC3 SLP071

2010/08/10 08:00
CYGP 100800Z 00000KT 15SM FEW120 14/13 A2974 RMK AC1 SLP070

2010/08/10 08:00
CYGQ 100800Z 00000KT 15SM SKC 16/16 A2997 RMK SLP151

2010/08/10 08:00
CYGV 100800Z AUTO 29003KT 6SM FEW098 12/10 A2967 RMK SLP048

2010/08/10 08:00
CYGW 100800Z 30005KT 1/2SM FG VV001 09/09 A2995 RMK FG8 SLP144

2010/08/10 08:00
CYGX 100800Z 06004KT 15SM -RA OVC080 12/10 A3000 RMK AC6 SLP163

2010/08/10 08:00
CYHD 100800Z AUTO 17009KT 9SM FEW065 22/19 A2991 RMK SLP127

2010/08/10 08:00
CYHE 100800Z AUTO 10003KT 9SM OVC012 OVC037 15/15 A2993 RMK SLP138

2010/08/10 08:00
CYHK 100800Z AUTO 21006KT 9SM CLR 11/09 A2989 RMK SLP126

2010/08/10 08:00
CYHM 100800Z 00000KT 4SM BR BKN018 20/20 A2995 RMK SC5 SLP138

2010/08/10 08:00
CYHU 100800Z AUTO 24005KT 4SM CLR 17/ A2988 RMK SLP121 DENSITY ALT 300FT TD MISG RVR MISG

2010/08/10 08:00
CYHY 100800Z 16005KT 15SM SCT050 BKN070 16/13 A2973 RMK SC3AS2 SLP072

2010/08/10 08:00
CYIO 100800Z AUTO 00000KT 9SM OVC046 OVC068 OVC081 09/07 A2983 RMK SLP105

2010/08/10 08:00
CYIV 100800Z 09003KT 15SM FEW060 FEW250 16/13 A2990 RMK SC1CI0 SLP128

2010/08/10 08:00
CYKA 100800Z 00000KT 40SM OVC079 14/13 A2992 RMK AC8 SLP134

2010/08/10 08:00
CYKF 100800Z AUTO 06003KT 1/4SM FG BKN004 18/18 A2995 RMK SLP142 DENSITY ALT 1600FT

2010/08/10 08:00
CYKJ 100800Z AUTO 13003KT 1/8SM VV002 13/13 A2991 RMK SLP145 DENSITY ALT 1800FT

2010/08/10 08:00
CYKY 100800Z 12009KT 15SM OVC050 18/14 A2983 RMK SC8 SLP094

2010/08/10 08:00
CYKZ 100800Z 28002KT 2 1/2SM BR OVC039 22/21 A2994 RMK SC8 SLP136

2010/08/10 08:00
CYLL 100800Z AUTO 08004KT 9SM CLR 14/13 A2984 RMK SLP106 DENSITY ALT 2600FT

2010/08/10 08:00
CYLW 100800Z AUTO 07002KT 9SM -RA BKN056 OVC073 14/13 A2990 RMK SLP125 DENSITY ALT 1600FT

2010/08/10 08:00
CYMA 100800Z 36003KT 20SM FEW050 FEW080 10/08 A2972 RMK SC1AC1 ALL CLDS TR SLP075

2010/08/10 08:00
CYMO 100800Z AUTO 34004KT 9SM OVC005 OVC016 10/10 A2997 RMK SLP151

2010/08/10 08:00
CYMT 100800Z 25005KT 15SM FEW050 11/10 A2987 RMK SC1 SLP121

2010/08/10 08:00
CYNA 100800Z AUTO 25004KT 3 1/2SM FEW058 14/13 A2965 RMK SLP041

2010/08/10 08:00
CYNE 100800Z AUTO 04002KT 9SM CLR 16/16 A2988 RMK SLP121

2010/08/10 08:00
CYNM 100800Z AUTO 30002KT 9SM FEW069 14/11 A2991 RMK SLP130

2010/08/10 08:00
CYOD 100800Z 09004KT 15SM FEW050CB FEW100 BKN220 17/14 A2984 RMK CB1AC1CI2 DIST LTNG W SLP108

2010/08/10 08:00
CYOJ 100800Z 00000KT 15SM FEW030 FEW080 BKN250 14/13 A2980 RMK SC2AC1CI1 SLP096

2010/08/10 08:00
CYOY 100800Z AUTO 00000KT 9SM FEW078 11/10 A2985 RMK SLP112

2010/08/10 08:00
CYPA 100800Z 00000KT 10SM BKN000 15/13 A2988 RMK ST0 SLP121

2010/08/10 08:00
CYPE 100800Z 33003KT 15SM SKC 13/07 A2987 RMK SLP119

2010/08/10 08:00
CYPH 100800Z AUTO 36006KT 9SM CLR 09/09 A2993 RMK SLP138

2010/08/10 08:00
CYPQ 100800Z AUTO ///// 1/8SM FEW025 17/17 A2993 RMK SLP136

2010/08/10 08:00
CYPR 100800Z AUTO /////KT 1/4SM VV002 A3003 RMK WND MISG T MISG TD MISG

2010/08/10 08:00
CYPY 100800Z AUTO 06002KT 9SM CLR 17/14 A2978 RMK SLP090

2010/08/10 08:00
CYQA 100800Z AUTO VRB02KT 3/4SM BR VV005 19/19 A2994 RMK SLP139 DENSITY ALT 1500FT

2010/08/10 08:00
CYQD 100800Z 35002KT 6SM BR BKN003 15/14 A2989 RMK ST1 SLP124

2010/08/10 08:00
CYQF 100800Z 33008KT 15SM BKN120 14/10 A2986 RMK AC6 SLP111

2010/08/10 08:00
CYQH 100800Z 00000KT 20SM SCT035 13/07 A2981 RMK SC3 SLP100

2010/08/10 08:00
CYQI 100800Z 18005KT 1/4SM FG VV001 17/17 A2985 RETSRA RMK FG8 RVR RWY 24 1800 FT SLP109

2010/08/10 08:00
CYQK 100800Z 17007KT 15SM SCT062 BKN150 BKN200 24/20 A2990 RMK SC3AC2CI1 SLP122

2010/08/10 08:00
CYQL 100800Z AUTO 26003KT 9SM CLR 12/10 A2979 RMK SLP077

2010/08/10 08:00
CYQR 100800Z 08014KT 15SM OVC120 20/15 A2984 RMK AC8 SLP103

2010/08/10 08:00
CYQU 100800Z 00000KT 25SM FEW090 FEW250 08/05 A2990 RMK AC1CI0 SLP133

2010/08/10 08:00
CYQV 100800Z AUTO 36002KT 9SM CLR 16/16 A2987 RMK SLP119

2010/08/10 08:00
CYQW 100800Z AUTO 11005KT 9SM SCT250 15/13 A2986 RMK SLP116 DENSITY ALT 2200FT

2010/08/10 08:00
CYQZ 100800Z AUTO VRB02KT 9SM FEW091 10/09 A2993 RMK SLP150

2010/08/10 08:00
CYRJ 100800Z 26007KT 25SM FEW045 15/10 A2984 RMK SC1 SLP107

2010/08/10 08:00
CYRT 100800Z 28010KT 15SM FEW090 FEW240 12/10 A3007 RMK AC1CI0 SLP185

2010/08/10 08:00
CYRV 100800Z AUTO 02004KT 9SM -RA FEW013 OVC035 16/15 A2985 RMK SLP110

2010/08/10 08:00
CYSB 100800Z 24005KT 15SM FEW150 19/18 A2994 RMK AC2 SLP136

2010/08/10 08:00
CYSC 100800Z AUTO 12003KT 1/4SM FG BKN004 OVC010 13/13 A2990 RMK SLP130

2010/08/10 08:00
CYSF 100800Z AUTO 00000KT 1SM BR OVC015 14/14 A2989 RMK SLP129 DENSITY ALT 900FT

2010/08/10 08:00
CYSL 100800Z 00000KT 1/8SM FG SKC 13/13 A2983 RMK FG5 /R23 AFT 1800UTC/ CLIM 24.8/14.4/23.6/0/23.6/NIL/ SLP103

2010/08/10 08:00
CYSM 100800Z 15006KT 15SM FEW070 FEW220 17/14 A2979 RMK AC1CI0 AURBO SLP092

2010/08/10 08:00
CYTH 100800Z 05003KT 15SM FEW070 BKN100 15/11 A2993 RMK AC2AC2 SLP141

2010/08/10 08:00
CYTS 100800Z 00000KT 15SM FEW080 FEW120 16/13 A2990 RMK AC1AC1 SLP124

2010/08/10 08:00
CYTZ 100800Z AUTO VRB02KT 2 1/2SM OVC061 21/21 A2992 RMK SLP132 DENSITY ALT 1000FT RVR MISG

2010/08/10 08:00
CYUA 100800Z AUTO 26007KT 9SM OVC001 11/ A2966 RMK SLP049

2010/08/10 08:00
CYUS 100800Z AUTO ///// 9SM CLR 11/ A2992 RMK SLP136

2010/08/10 08:00
CYUX 100800Z AUTO 24005KT 9SM CLR 10/07 A2993 RMK SLP135

2010/08/10 08:00
CYVC 100800Z 00000KT 15SM MIFG SKC 15/14 A2989 RMK SLP127

2010/08/10 08:00
CYVM 100800Z AUTO 00000KT 1/8SM VV001 03/03 A2993 RMK SLP135

2010/08/10 08:00
CYVO 100800Z AUTO 00000KT 9SM OVC054 17/17 A2993 RMK SLP137

2010/08/10 08:00
CYVQ 100800Z 00000KT 30SM FEW040 FEW100 SCT280 15/11 A2966 RMK SC1AC1CI1 SLP046

2010/08/10 08:00
CYVV 100800Z 00000KT 4SM BR FEW007 OVC022 22/21 A2994 RMK SF2SC6 SLP139

2010/08/10 08:00
CYWA 100800Z AUTO 00000KT 2 1/2SM CLR 13/13 A2991 RMK VSBY VRBL 1.5V9.+ SLP130

2010/08/10 08:00
CYWL 100800Z 00000KT 15SM SKC 09/07 A2995 RMK SLP155

2010/08/10 08:00
CYXD 100800Z AUTO 30003KT 9SM FEW074 15/13 A2984 RMK SLP101

2010/08/10 08:00
CYXE 100800Z 10005KT 15SM BKN250 17/14 A2984 RMK CI2 SLP108

2010/08/10 08:00
CYXH 100800Z AUTO 07003KT 9SM CLR 17/14 A2977 RMK SLP073

2010/08/10 08:00
CYXJ 100800Z 00000KT 15SM OVC068 14/09 A2989 RMK AC8 SLP129

2010/08/10 08:00
CYXL 100800Z 00000KT 15SM FEW055CB SCT130 22/19 A2992 RMK CB2AC1 LTGICCG DIST NW-N SLP132

2010/08/10 08:00
CYXR 100800Z AUTO 00000KT 9SM CLR 13/13 A2989 RMK SLP112

2010/08/10 08:00
CYXS 100800Z AUTO 20003KT 9SM SCT091 11/08 A2992 RMK SLP147 DENSITY ALT 2300FT

2010/08/10 08:00
CYXT 100800Z 20004KT 15SM FEW050 13/11 A3001 RMK SC2 SLP164

2010/08/10 08:00
CYYB 100800Z 29002KT 15SM SKC 18/17 A2994 RMK SLP137

2010/08/10 08:00
CYYD 100800Z AUTO 00000KT 9SM CLR 10/07 A2997 RMK SLP155

2010/08/10 08:00
CYYE 100800Z 00000KT 10SM BCFG FEW005 SCT050 BKN150 14/09 A2979 RMK SF2SC2AC2 SLP097

2010/08/10 08:00
CYYF 100800Z 36005KT 15SM -SHRA SCT045 OVC080 15/12 A2990 RMK SC4AC4 SLP124

2010/08/10 08:00
CYYG 100800Z 25008KT 10SM OVC004 19/18 A2979 RMK SF8 SLP089

2010/08/10 08:00
CYYL 100800Z AUTO 15004KT 9SM FEW003 BKN011 BKN015 OVC032 14/14 A2990 RMK SLP136 DENSITY ALT 1300FT

2010/08/10 08:00
CYYN 100800Z AUTO 19006KT 9SM -RA FEW023 SCT080 BKN098 19/15 A2985 RMK SLP097

2010/08/10 08:00
CYYU 100800Z 00000KT 15SM FEW085 14/14 A2992 RMK AC2 SLP132

2010/08/10 08:00
CYYY 100800Z 21004KT 15SM FEW080 16/14 A2980 RMK AC1 SLP091

2010/08/10 08:00
CYZE 100800Z AUTO 33003KT 2 1/2SM BR CLR 17/17 A2994 RMK SLP139 DENSITY ALT 900FT

2010/08/10 08:00
CYZH 100800Z AUTO 21002KT 9SM FEW099 12/11 A2986 RMK SLP117

2010/08/10 08:00
CYZP 100800Z AUTO 26008KT 9SM OVC022 14/12 A3003 RMK SLP170

2010/08/10 08:00
CYZR 100800Z AUTO 21003KT 2SM BR FEW046 21/20 A2994 RMK SLP136 DENSITY ALT 1400FT

2010/08/10 08:00
CYZS 100800Z 33010KT 15SM FEW210 08/04 A2997 RMK CI1 SLP153

2010/08/10 08:00
CYZT 100800Z 22002KT 15SM FEW020 12/08 A3000 RMK SC2 SLP158

2010/08/10 08:00
CZCP 100800Z AUTO 07010KT 1/8SM CLR 07/ A2973 RMK SLP073

2010/08/10 08:00
CZPC 100800Z AUTO 29008KT 9SM FEW091 13/09 A2985 RMK SLP092

2010/08/10 08:00
CZUM 100800Z AUTO 27004KT 9SM OVC012 OVC054 OVC074 10/09 A2966 RMK SLP054

2010/08/10 08:00
EPLL 100800Z VRB01KT 9999 FEW020 BKN047 20/17 Q1017

2010/08/10 08:00
LEGT 100800Z 05003KT 8000 NSC 27/14 Q1019

2010/08/10 08:00
LERI 100800Z VRB02KT CAVOK 30/18 Q1016 NOSIG

2010/08/10 07:50
LIMP 100750Z VRB03KT 7000 FEW060 24/19 Q1016 RMK VIS MIN 6000N

2010/08/10 07:50
LIMZ 100750Z 35004KT CAVOK 23/19 Q1017 RMK VIS MIN 8000N

2010/08/10 07:55
LIRM 100755Z 10005KT 9999 FEW040 29/25 Q1016 RMK SCT VIS MIN 9999 WIND THR06 08005KT BLU

2010/08/10 08:00
LKKV 100800Z VRB01KT 9999 FEW026 18/14 Q1019 RMK REG QNH 1015

2010/08/10 08:00
OYAG 100800Z 09011KT 9999 SCT030 28/23 Q1005

2010/08/10 08:00
OYAT 100800Z 13010KT CAVOK 33/15 Q1003

2010/08/10 08:00
OYDM 100800Z 30007KT 9999 SCT030 21/13 Q////

2010/08/10 08:00
OYIB 100800Z 01007KT 9999 SCT030 25/17 Q1017

2010/08/10 08:00
OYRN 100800Z 11009KT CAVOK 29/23 Q1004

2010/08/10 08:00
OYSH 100800Z 17008KT 4000 NSC 27/16 Q////

2010/08/10 08:00
OYSY 100800Z 25009KT 220V300 CAVOK 39/13 Q1005

2010/08/10 08:00
UDYZ 100800Z 18003MPS 160V220 9999 SKC 33/09 Q1011 09010070 NOSIG

2010/08/10 08:00
UMOO 100800Z 00000MPS 9999 FEW030 BKN/// 22/18 Q1014 R31/CLRD// NOSIG

2010/08/10 08:00
CYEN 100800Z CCA 13007KT 8SM +TSRA OVC060CB 19/16 A2985 RMK CB8 FRQ LTGICCCCG PRESRR PAST HR SLP105

2010/08/10 08:00
CYQK 100800Z CCA 17007KT 15SM SCT062 BKN150 BKN200 24/20 A2990 RMK SC3AC2CI1 LTNG DIST NE SLP122

2010/08/10 08:00
WMKL 100800Z 25003KT 9999 FEW020 BKN270 31/26 Q1006

2010/08/10 08:00
WMAU 100800Z 20003KT 9999 FEW020 BKN140 31/24 Q//// QFF1006

2010/08/10 08:00
WMBA 100800Z 20005KT 9999 SCT020TCU SCT140 BKN280 32/25 Q1005

2010/08/10 08:00
WMKA 100800Z 30004KT 9999 FEW020 SCT140 BKN270 31/26 Q1006

2010/08/10 08:00
WMKB 100800Z 31009KT 250V350 7000 SCT020 SCT140 BKN270 31/26 Q1006 NOSIG

2010/08/10 08:00
WMKC 100800Z 01006KT 9999 FEW018 SCT140 BKN220 31/26 Q1006

2010/08/10 08:00
WMKD 100800Z 17004KT 9999 SCT020 BKN280 33/26 Q1006 NOSIG

2010/08/10 08:00
WMKI 100800Z 22004KT 9999 FEW020 BKN280 33/24 Q1005

2010/08/10 08:00
WMKL 100800Z 25003KT 9999 FEW002 BKN270 31/26 Q1006

2010/08/10 08:00
WMKM 100800Z 14005KT 9999 FEW022 BKN140 31/25 Q1007

2010/08/10 08:00
WMKN 100800Z 10007KT 9999 SCT018 OVC220 31/28 Q1005

2010/08/10 08:00
ZGHA 100800Z 22002G07MPS 150V270 9999 FEW040 38/26 Q1001 NOSIG

2010/08/10 07:55
LIBA 100755Z 29002KT 9999 FEW030 26/22 Q1014 RMK SCT SCT090 VIS MIN 9999 WIND THR29 28003KT BLU

2010/08/10 07:55
LIBN 100755Z 33017KT CAVOK 28/20 Q1013 RMK SCT SCT180 VIS MIN 9999 WIND THR14 34014KT BLU

2010/08/10 07:55
LIBV 100755Z 01012KT CAVOK 26/14 Q1013 RMK BKN SCT090 SCT200 VIS MIN 9999 WIND THR14 35012KT BLU

2010/08/10 07:50
LICD 100750Z 29006KT CAVOK 26/20 Q1015 RMK VIS MIN 9999

2010/08/10 07:55
LIMV 100755Z 21004KT 6000 FEW009 SCT015 19/18 Q1018 RMK BKN MON N LIB S CLD SCT ABB SLW VAL FOSCHIA VIS MIN 6000

2010/08/10 07:55
LIPI 100755Z 03009KT 9999 FEW080 26/18 Q1016 RMK SCT VIS MIN 9999 WIND THR06 /////KT BLU

2010/08/10 07:55
LIRL 100755Z 15004KT CAVOK 27/20 Q1015 RMK FEW FEW200 MON LIB NC VIS MIN 9999 BLU

2010/08/10 07:55
LIRV 100755Z 05009KT CAVOK 25/15 Q1016 RMK FEW FEW070 MON E SE LIB NC VIS MIN 9999 BLU

2010/08/10 07:55
LIRX 100755Z 36005KT 9999 FEW013 22/16 Q1015 RMK FEW VIS MIN 9999N VIS MAR 18 KM

2010/08/10 07:55
LIVE 100755Z 23003KT 9999 SCT025 15/10 Q1021 RMK SCT VIS MIN 9999

2010/08/10 07:55
LIVO 100755Z 17002KT 9999 BKN025 17/16 Q1019 RMK BKN VIS MIN 9999

2010/08/10 08:00
LEBG 100800Z 00000KT 9999 FEW035 19/13 Q1021

2010/08/10 07:55
LICT 100755Z 32005KT CAVOK 28/20 Q1015 RMK SKC VIS MIN 9999 WIND THR13 31004KT BLU

2010/08/10 07:50
LIMG 100750Z VRB03KT 9999 FEW030 25/19 Q1016 RMK VIS MIN 9999

2010/08/10 07:55
LIMK 100755Z 00000KT CAVOK 19/17 Q1017 RMK BKN BKN070 VAL FOSCHIA VIS MIN 9999

2010/08/10 07:55
LIMN 100755Z VRB02KT 9999 BKN060 22/17 Q1016 RMK BKN VIS MIN 9999 BLU

2010/08/10 07:55
LIMU 100755Z 04005KT 9999 FEW023 23/21 Q1017 RMK SCT QUK 1 QUL 1 E VIS MAR 12 KM VIS MIN 9999

2010/08/10 07:55
LIRE 100755Z 20005KT CAVOK 25/22 Q1015 RMK SKC VIS MIN 9999 WIND THR31 17006KT BLU

2010/08/10 07:50
LIRU 100750Z VRB02KT CAVOK 27/20 Q1015 RMK VIS MIN 9999

2010/08/10 07:55
LIVM 100755Z 07003KT 9999 FEW025 25/22 Q1015 RMK FEW QUK 0 QUL 0 VIS MAR 12 KM VIS MIN 9999

2010/08/10 07:55
LIVR 100755Z 10002KT 9999 SCT020 14/10 Q1023 RMK SCT MON CIME INC VIS MIN 9999

2010/08/10 08:00
LKKV 100800Z VRB01KT 9999 FEW026 18/14 Q1019 RMK REG QNH 1015

2010/08/10 08:00
LKMT 100800Z VRB01KT 9999 FEW030 20/16 Q1018 NOSIG RMK REG QNH 1015

2010/08/10 08:00
LKPR 100800Z 12003KT 040V150 9999 SCT020 20/15 Q1018 NOSIG RMK REG QNH 1015

2010/08/10 08:00
LKTB 100800Z VRB01KT 9999 FEW027 21/15 Q1018 NOSIG RMK REG QNH 1015

2010/08/10 08:00
LPAZ 100800Z 04007KT 9999 FEW018 BKN034 21/16 Q1020

2010/08/10 08:00
LPHR 100800Z 01004KT 9999 FEW016 BKN040 20/15 Q1022

2010/08/10 08:00
LPPD 100800Z 05004KT 360V080 9999 FEW020 BKN040 20/14 Q1020

2010/08/10 08:00
LRTM 100800Z VRB02KT CAVOK 24/18 Q1018

2010/08/10 07:50
LIBD 100750Z 35007KT 300V030 CAVOK 27/13 Q1014 RMK VIS MIN 9999

2010/08/10 07:50
LIBP 100750Z 02005KT CAVOK 27/19 Q1015 RMK VIS MIN 9999

2010/08/10 07:50
LICC 100750Z VRB02KT CAVOK 28/15 Q1014 RMK VIS MIN 9999

2010/08/10 07:55
LICG 100755Z 34005KT CAVOK 26/23 Q1016 RMK SKC VIS MIN 9999 WIND THR08 /////KT WIND THR21 34004KT BLU

2010/08/10 07:50
LICJ 100750Z 35003KT CAVOK 26/20 Q1015 RMK VIS MIN 9999

2010/08/10 07:55
LIED 100755Z 31002KT CAVOK 28/10 Q1016 RMK SKC VIS MIN 9999 BLU

2010/08/10 07:50
LIEO 100750Z 05005KT CAVOK 25/15 Q1016 RMK VIS MIN 9999

2010/08/10 07:55
LIPC 100755Z 31004KT CAVOK 25/21 Q1015 RMK FEW FEW200 VIS MIN 9999 WIND THR12 30004KT BLU

2010/08/10 07:55
LIPF 100755Z 31002KT 8000 NSC 24/21 Q1015 RMK SKC VIS MIN 8000

2010/08/10 07:45
LIPH 100745Z 08007KT CAVOK 26/19 Q1016 RMK FEW FEW180 VIS MIN 9999 WIND THR07 /////KT BLU

2010/08/10 07:55
LIPS 100755Z 06006KT CAVOK 26/17 Q1016 RMK SKC VIS MIN 9999 BLU

2010/08/10 07:50
LIPY 100750Z VRB01KT CAVOK 26/19 Q1015 RMK VIS MIN 9999

2010/08/10 07:55
LIRH 100755Z 14003KT CAVOK 26/18 Q1015 RMK SKC MON LIB NC VIS MIN 9999 WIND THR16 17003KT BLU

2010/08/10 07:55
LIRM 100755Z 10005KT 9999 FEW040 29/25 Q1016 RMK SCT VIS MIN 9999 WIND THR06 08005KT BLU

2010/08/10 07:55
LIRS 100755Z 03002KT CAVOK 25/16 Q1015 RMK SKC VIS MIN 9999 WIND THR21 /////KT BLU

2010/08/10 07:55
LIVC 100755Z 09007KT 9999 FEW001 12/08 Q1025 RMK FEW MON LIB VAL CLD SCT ELEV VIS MIN 9999

2010/08/10 07:55
LIVD 100755Z 00000KT 9999 SCT035 18/14 Q1021 RMK SCT VIS MIN 9999

2010/08/10 07:55
LIVT 100755Z 04007G18KT CAVOK 26/16 Q1014 RMK FEW FEW200 QUK 3 QUL 1 NE VIS MAR 20 KM VIS MIN 9999

2010/08/10 08:00
GQPP 100800Z 33009KT 9999 -RA NSC 22/21 Q1014 NOSIG

2010/08/10 08:00
OIII 100800Z 15010KT 9999 FEW040 32/M01 Q1016 A3002 881.3

2010/08/10 08:00
VTBS 100800Z 18013KT 9999 FEW020CB SCT120 BKN300 31/24 Q1003 CB N NOSIG

2010/08/10 08:00
VTBD 100800Z 25009KT 9999 FEW020CB BKN300 34/21 Q1002 CB SE S NOSIG

2010/08/10 08:00
VTCC 100800Z 29003KT 8000 -RA BKN032 BKN110 28/25 Q1005 A2968

2010/08/10 08:00
VTSS 100800Z 24006KT 9999 FEW020 BKN120 OVC300 31/23 Q1006 A2972

2010/08/10 08:00
VTSP 100800Z 26011KT 7000 SCT015 BKN100 BKN300 28/24 Q1007 A2975

2010/08/10 08:00
VLVT 100800Z 12002KT 9999 BKN017 FEW040 32/25 Q1002

2010/08/10 08:00
VVTS 100800Z 23011KT 9999 SCT017 BKN040 29/24 Q1005 NOSIG

2010/08/10 08:00
VVNB 100800Z 11007KT 090V170 9999 FEW023 FEW027CB BKN050 32/26 Q1002 TEMPO FM0900 TS

2010/08/10 08:00
VDPP 100800Z 22015KT 9999 SCT015 SCT150 31/22 Q1004

2010/08/10 08:00
VVDN 100800Z 30007KT 260V340 TS 8000 FEW015CB SCT060 BKN270 29/22 Q1004 TEMPO 4000 TSRA CB/S/SW/W

2010/08/10 08:00
VDSR 100800Z 24008KT 9000 -RA SCT015 FEW017CB BKN040 27/24 Q1004 CB S SW W

2010/08/10 08:00
VVPB 100800Z 22005KT 5000 -RA FEW020CB BKN050 25/25 Q1004 NOSIG

2010/08/10 08:04
PAOT 100804Z 15009KT 10SM -RA FEW011 BKN030 OVC039 14/13 A2944

2010/08/10 08:04
PAQT 100804Z AUTO 06013KT 2 1/2SM BR OVC004 03/03 A2979

2010/08/10 08:00
DAAD 100800Z 00000KT CAVOK 30/18 Q1019

2010/08/10 08:00
DAAJ 100800Z 09008KT 2000 HZ NSC 32/10 Q1019

2010/08/10 08:00
DAAP 100800Z 08010KT 9999 FEW046 31/08 Q1015

2010/08/10 08:00
DAAS 100800Z 28004KT CAVOK 27/12 Q1021

2010/08/10 08:00
DAAV 100800Z 34006KT CAVOK 28/20 Q1014

2010/08/10 08:00
DAAY 100800Z 00000KT CAVOK 23/15 Q1025

2010/08/10 08:00
DABT 100800Z 34006KT CAVOK 28/08 Q1019

2010/08/10 08:00
DAFH 100800Z 12016KT CAVOK 30/18 Q1019

2010/08/10 08:00
DAMH 100800Z 00000KT CAVOK 36/15 Q1013

2010/08/10 08:00
DAOF 100800Z 04014KT 7000 FEW046 BKN100 35/11 Q1013

2010/08/10 08:00
DAOR 100800Z 35008KT CAVOK 32/12 Q1021

2010/08/10 08:00
DAOV 100800Z 00000KT CAVOK 28/15 Q1018

2010/08/10 08:00
DATF 100800Z ///10KT CAVOK 34/10 Q1016

2010/08/10 08:00
DAUB 100800Z 13004KT CAVOK 29/16 Q1015

2010/08/10 08:00
DAUE 100800Z 03006KT CAVOK 33/15 Q1017

2010/08/10 08:00
DAUG 100800Z 00000KT CAVOK 31/16 Q1018

2010/08/10 08:00
DAUI 100800Z 08015KT CAVOK 36/05 Q1013

2010/08/10 08:00
DAUK 100800Z 15010KT CAVOK 31/16 Q1015

2010/08/10 08:00
DAUL 100800Z 00000KT 8000 NSC 30/15 Q1019

2010/08/10 08:00
DAUO 100800Z /////KT CAVOK 29/15 Q1015

2010/08/10 08:00
DAUU 100800Z 07012KT CAVOK 33/17 Q1015

2010/08/10 08:00
DAAG 100800Z 21006KT 190V250 7000 BKN010 24/22 Q1018

2010/08/10 08:00
DAAT 100800Z 07008KT 9999 FEW053 28/11 Q1021

2010/08/10 08:00
DABB 100800Z 02007KT CAVOK 29/18 Q1015

2010/08/10 08:00
DABC 100800Z 00000KT CAVOK 29/10 Q1019

2010/08/10 08:00
DAON 100800Z 00000KT CAVOK 26/22 Q1018

2010/08/10 08:00
DAOO 100800Z 36006KT 8000 SCT016 BKN100 26/23 Q1017

2010/08/10 08:00
DAUH 100800Z 12014KT CAVOK 33/12 Q1014

2010/08/10 08:07
CYWA 100807Z AUTO 00000KT 3/8SM CLR 13/13 A2991

2010/08/10 08:07
CYCX 100807Z AUTO 28002KT 1/8SM 16/16 A2980

2010/08/10 08:00
BIAR 100800Z 15003KT 9999 OVC011 09/08 Q1014

2010/08/10 08:00
BIEG 100800Z 01007KT 3000 FG VV003 07/07 Q1014

2010/08/10 08:00
BIKF 100800Z 32010KT 9999 FEW019 BKN022 12/06 Q1014

2010/08/10 08:00
BIRK 100800Z 02003KT 9999 FEW015 SCT025 BKN050 12/08 Q1013

2010/08/10 07:55
KQVE 100755Z AUTO 24507KT 9999 FEW080 SCT140 31/21 A2982 RMK AO2 SLP032

2010/08/10 07:59
KQHT 100759Z 29005G13KT 9999 FEW100 33/05 A2984 RMK A02A SLP068

2010/08/10 08:00
TBPB 100800Z 13007KT 9999 SCT020 SCT280 27/24 Q1013 NOSIG

2010/08/10 08:00
VTSB 100800Z 23010KT 8000 VCSH SCT018 BKN120 28/24 Q1006 A2973 VCSH NW

2010/08/10 08:00
VTSM 100800Z 29014KT 9999 SCT020 BKN300 31/25 Q1007 A2974

2010/08/10 08:00
VTSF 100800Z 30005KT 250V350 9999 SCT018 BKN022 OVC300 31/24 Q1005 A2970

2010/08/10 08:00
VTSG 100800Z 27006KT 240V300 9999 FEW020 BKN120 29/25 Q1 006/A2973 RWY32 INFO T

2010/08/10 08:00
VTSH 100800Z 24012KT 9999 FEW020 BKN120 BKN300 32/24 Q1006 A2971

2010/08/10 08:00
VTCN 100800Z VRB02KT 9999 SHRA FEW021CB BKN025 BKN100 33/25 Q1002 CB E S RMK/RWY 20 INFO Q

2010/08/10 08:00
VTCH 100800Z VRB02KT 9999 FEW025 SCT030 BKN300 31/22 Q1002

2010/08/10 08:00
VTPH 100800Z 19006KT 9999 FEW028 34/23 Q1003

2010/08/10 08:00
VTPP 100800Z 00000KT 9999 FEW020 CB FEW022 BKN300 33/25 Q1002 CB N E S

2010/08/10 08:00
VTUD 100800Z VRB04KT 9999 FEW020CB BKN025 31/23 Q1003 A2962 CB S INFO J RWY30

2010/08/10 08:00
VTUK 100800Z 22014KT 4000S TSRA FEW008 FEW018CB BKN020 BKN100 27/24 Q1003 A2963 CB TS OVR AD CB N RWY21 INFO J

2010/08/10 08:00
VTUU 100800Z 07004KT 9999 SCT023 BKN300 32/25 Q1002 A2961 NOSIG

2010/08/10 08:00
VTUW 100800Z 00000KT 9999 SCT024 BKN300 33/24 Q1003 A2963 RWY15 INFO H

2010/08/10 08:00
VTBO 100800Z 24013KT 9999 BKN022 BKN080 29/25 Q1005

2010/08/10 08:00
ULDD 100800Z 06006MPS 2500 VCFG SCT003 BKN/// 10/08 Q1012 TEMPO 0800 FG RMK QFE759 QBB090

2010/08/10 08:00
UOHH 100800Z 32004MPS 9999 SCT023 BKN/// 11/04 Q1011 NOSIG RMK QFE753 24090060

2010/08/10 08:00
UOII 100800Z 35004MPS 9999 SCT026 14/04 Q1008 NOSIG RMK QFE753 30////60

2010/08/10 08:00
UOOO 100800Z 03002G05MPS 9999 BKN028 10/04 Q1008 NOSIG RMK QFE742 0119//56

2010/08/10 08:00
USCM 100800Z 20003MPS 160V240 5000 HZ SCT100 26/09 Q1022 NOSIG 19090065 RMK QFE729

2010/08/10 08:00
UIAA 100800Z VRB01MPS 9999 BKN050CB 25/11 Q1004 NOSIG RMK QFE695 29CLRD70

2010/08/10 08:00
UIBB 100800Z 33002MPS 9999 SCT030CB OVC100 14/10 Q1006 NOSIG RMK QFE712/0949 30190055

2010/08/10 08:00
UIII 100800Z 16002MPS CAVOK 22/12 Q1003 NOSIG RMK QFE710/0947 12CLRD60

2010/08/10 08:00
UIUU 100800Z 36003MPS 9999 FEW043 BKN200 28/08 Q1002 NOSIG RMK QFE708/0944

2010/08/10 08:00
UWUU 100800Z 10002MPS 020V150 CAVOK 30/12 Q1021 82010060 NOSIG RMK QFE755/1006

2010/08/10 08:00
USCC 100800Z 22003MPS 190V260 3000 FU BKN200 26/08 Q1021 NOSIG RMK QFE745 09000070

2010/08/10 08:00
USDD 100800Z 23004MPS 200V260 9999 SCT031 BKN070 16/08 Q1012 NOSIG RMK QFE754/1006 SC060

2010/08/10 08:00
USMU 100800Z 28005MPS 9999 SCT027 BKN066 15/09 Q1012 NOSIG RMK QFE753 27110060

2010/08/10 08:00
USNN 100800Z 28002MPS P6000 SCT023CB OVC066 14/10 Q1014 NOSIG RMK QFE755 SC065

2010/08/10 08:00
USRK 100800Z 35004MPS 6000 SCT030 BKN066 15/07 Q1014 NOSIG RMK QFE754 170///60

2010/08/10 08:00
USRR 100800Z 34003MPS 7000 SCT040 OVC080 15/07 Q1015 NOSIG RMK QFE756 25////60

2010/08/10 08:00
USSS 100800Z 27005MPS CAVOK 27/13 Q1019 NOSIG RMK QFE744 260///70

2010/08/10 08:00
USPP 100800Z 26004MPS 7000 FEW200 31/16 Q1019 NOSIG 21090060 RMK QFE753/1004

2010/08/10 08:00
UWKD 100800Z 33003MPS 5000 HZ BKN200 33/12 Q1021 NOSIG RMK QFE754/1006 79CLRD70

2010/08/10 08:00
UWKE 100800Z 00000MPS CAVOK 33/15 Q1021 NOSIG RMK QFE749/0998 04090070

2010/08/10 08:00
UWKS 100800Z VRB02MPS CAVOK 33/09 Q1022 NOSIG RMK QFE752 SC0.60

2010/08/10 08:00
UWLL 100800Z 10002MPS CAVOK 32/12 Q1021 NOSIG RMK QFE753/1005 SC065

2010/08/10 08:00
UWLW 100800Z 35003MPS 8000 SKC 34/14 Q1021 NOSIG 20CLRD60 RMK QFE760

2010/08/10 08:00
UWOR 100800Z 08005MPS CAVOK 26/04 Q1024 07CLRD65 NOSIG RMK QFE742/0990

2010/08/10 08:00
UWOO 100800Z 12003MPS 040V180 P5000 SKC 30/06 Q1021 08CLRD65 NOSIG RMK QFE755/1007

2010/08/10 08:00
UWPP 100800Z 09003MPS CAVOK 32/11 Q1019 NOSIG RMK QFE750 11090060

2010/08/10 08:00
UWSS 100800Z 07003MPS CAVOK 31/13 Q1020 NOSIG RMK QFE753 120///60

2010/08/10 08:00
UWWW 100800Z 11003G06MPS 070V170 CAVOK 33/09 Q1021 NOSIG RMK QFE753/1004 05CLRD60 15//99//

2010/08/10 08:00
UNAA 100800Z 03005MPS 9999 SCT030CB BKN100 19/09 Q1007 NOSIG RMK QFE733 200///65

2010/08/10 08:00
UNBB 100800Z 35005MPS 9999 BKN033CB 18/08 Q1009 NOSIG RMK QFE735

2010/08/10 08:00
UNEE 100800Z 01004MPS 9999 SCT033 16/06 Q1009 NOSIG RMK QFE734 23CLRD60

2010/08/10 08:00
UNKL 100800Z 29005G09MPS 9999 SCT040CB BKN083 16/07 Q1008 NOSIG RMK QFE731 29////65

2010/08/10 08:00
UNNT 100800Z 36005MPS 320V020 CAVOK 19/03 Q1011 NOSIG RMK QFE748/0998 25090070

2010/08/10 08:00
UNOO 100800Z 33005G09MPS 9999 SCT033CB BKN033 14/06 Q1019 NOSIG 07CLRD06 RMK QFE756

2010/08/10 08:00
UNWW 100800Z 34005MPS 9999 SCT030CB BKN130 19/10 Q1007 NOSIG RMK QFE729 01CLRD70

2010/08/10 08:00
USTR 100800Z 23005G08MPS 8000 NSC 22/09 Q1018 NOSIG RMK QFE754/1006 30CLRD65 21CLRD65

2010/08/10 08:00
USHH 100800Z 14004G07MPS 9000 -SHRA BKN006CB OVC080 11/11 Q1013 TEMPO 1000 BR OVC004 RMK QFE756 SC055 QBB180

2010/08/10 08:00
UHHH 100800Z 22008MPS 9999 FEW026 SCT100 27/19 Q1005 NOSIG RMK QFE747/0996 23090060

2010/08/10 08:00
UHMM 100800Z 29003MPS 9999 SCT066 17/12 Q1009 NOSIG RMK QFE741 88010070

2010/08/10 08:00
UHNN 100800Z 11007G12MPS 9999 OVC070 21/17 Q1009 NOSIG RMK QFE752 110///60

2010/08/10 08:00
UHPP 100800Z 22004MPS 190V250 9999 FEW043 21/10 Q1012 NOSIG RMK QFE756/1008 MT OBSC SC070

2010/08/10 08:00
UHSH 100800Z 13008MPS 9999 BKN005 OVC200 15/14 Q1013 NOSIG RMK QBB 160 QFE756 13090070

2010/08/10 08:00
UHSS 100800Z 19004MPS 5000 BR OVC004CB 21/21 Q1012 NOSIG RMK QBB140 MT OBSC QFE757/1010 19250260

2010/08/10 08:00
UHWW 100800Z 18003MPS 5000 -SHRA BKN010 OVC040CB 24/23 Q1008 NOSIG RMK QFE755/1007 7529//60

2010/08/10 08:00
ULLI 100800Z 20003MPS 130V290 9999 BKN031 BKN200 25/16 Q1014 NOSIG

2010/08/10 08:00
UUDD 100800Z 16004MPS 120V180 8000 SKC 31/14 Q1016 NOSIG

2010/08/10 08:00
UUEE 100800Z 14003MPS 2300 FU SCT200 30/13 Q1015 NOSIG

2010/08/10 08:00
UUWW 100800Z 13004MPS 4600 HZ SCT200 30/14 Q1015 24000070 NOSIG

2010/08/10 08:00
UUMO 100800Z 14003MPS 5000 SCT100 31/15 Q1015 NOSIG RMK QFE746/0995

2010/08/10 08:00
UUYH 100800Z 26004MPS 3000 HZ OVC099 29/21 Q1012 NOSIG RMK QFE 746 18CLRD60

2010/08/10 08:00
UUYS 100800Z VRB01MPS 8000 OVC014 19/16 Q1009 TEMPO 2000 TSRA RMK QFE750 14290050

2010/08/10 08:00
UUYY 100800Z 24003G06MPS 5000 FU OVC066 31/17 Q1015 NOSIG 19CLRD61 RMK QFE753/1004

2010/08/10 08:00
UEEE 100800Z 00000MPS 9999 FEW050CB BKN100 31/10 Q1002 NOSIG RMK QFE743 2309//60

2010/08/10 08:00
UELL 100800Z VRB01MPS 9999 SCT030CB BKN083 20/13 Q1007 NOSIG RMK QFE681 08CLRD70

2010/08/10 08:00
UERP 100800Z 10002MPS 9999 BKN035 OVC100 11/06 Q1004 NOSIG RMK QFE709 35090065

2010/08/10 08:00
UERR 100800Z 19002MPS 9999 SCT030CB OVC200 20/14 Q1003 NOSIG RMK QFE721 24CLRD60

2010/08/10 08:00
UESO 100800Z 14004MPS CAVOK 14/06 Q1010 NOSIG RMK QFE755 SC060

2010/08/10 07:50
LIBF 100750Z 31010KT CAVOK 29/13 Q1015 RMK VIS MIN 9999

2010/08/10 07:50
LIEA 100750Z 00000KT CAVOK 29/17 Q1016 RMK VIS MIN 9999

2010/08/10 07:55
LIED 100755Z 31002KT CAVOK 28/10 Q1016 RMK SKC VIS MIN 9999 BLU

2010/08/10 07:50
LIEO 100750Z 05005KT CAVOK 25/15 Q1016 RMK VIS MIN 9999

2010/08/10 07:50
LIMA 100750Z 04002KT CAVOK 23/17 Q1017 RMK VIS MIN 9999

2010/08/10 07:55
LIRE 100755Z 20005KT CAVOK 25/22 Q1015 RMK SKC VIS MIN 9999 WIND THR31 17006KT BLU

2010/08/10 07:55
LIRG 100755Z 00000KT CAVOK 26/18 Q1015 RMK SKC MON NE LIB NC VIS MIN 9999 BLU

2010/08/10 07:55
LIRH 100755Z 14003KT CAVOK 26/18 Q1015 RMK SKC MON LIB NC VIS MIN 9999 WIND THR16 17003KT BLU

2010/08/10 07:50
LIRI 100750Z 00000KT 9999 BKN060 25/19 Q1016 RMK VIS MIN 9999

2010/08/10 07:55
LIRL 100755Z 15004KT CAVOK 27/20 Q1015 RMK FEW FEW200 MON LIB NC VIS MIN 9999 BLU

2010/08/10 07:55
LIRM 100755Z 10005KT 9999 FEW040 29/25 Q1016 RMK SCT VIS MIN 9999 WIND THR06 08005KT BLU

2010/08/10 07:55
LIRS 100755Z 03002KT CAVOK 25/16 Q1015 RMK SKC VIS MIN 9999 WIND THR21 /////KT BLU

2010/08/10 07:50
LIRU 100750Z VRB02KT CAVOK 27/20 Q1015 RMK VIS MIN 9999

2010/08/10 07:55
LIRV 100755Z 05009KT CAVOK 25/15 Q1016 RMK FEW FEW070 MON E SE LIB NC VIS MIN 9999 BLU

2010/08/10 07:55
LIRX 100755Z 36005KT 9999 FEW013 22/16 Q1015 RMK FEW VIS MIN 9999N VIS MAR 18 KM

2010/08/10 07:50
LIRZ 100750Z VRB02KT CAVOK 24/16 Q1016 RMK VIS MIN 9999

2010/08/10 08:00
ULAA 100800Z 21004MPS 150V240 CAVOK 27/18 Q1011 TEMPO 2000 TSRA BR BKN007CB RMK QFE757/1009 SC070

2010/08/10 08:00
ULKK 100800Z 19004MPS 3200 -HZ OVC099 31/21 Q1015 NOSIG RMK QFE757 13000060

2010/08/10 08:00
ULMM 100800Z 02004MPS 9999 OVC010CB 10/08 Q1012 NOSIG RMK QFE751 32290250

2010/08/10 08:00
ULOO 100800Z 20002MPS P6000 SCT020 BKN200 24/18 Q1015 NOSIG RMK QFE757

2010/08/10 08:00
ULWW 100800Z 17003G06MPS 0900 FU OVC/// 30/18 Q1015 BECMG 1500 HZ RMK QFE751 15CLRD60

2010/08/10 08:00
UMKK 100800Z 34003MPS 290V360 P8000 FEW026 SCT200 20/15 Q1017 R24/CLRD70 NOSIG RMK QFE762/1016

2010/08/10 08:00
UUBP 100800Z 33004MPS 9999 FEW030CB BKN/// 28/17 Q1014 NOSIG

2010/08/10 08:00
UUOB 100800Z 12003MPS CAVOK 34/12 Q1015 NOSIG RMK SC065

2010/08/10 08:00
UUOO 100800Z 11006MPS 9999 FEW050CB BKN100 32/09 Q1016 NOSIG RMK 13090070

2010/08/10 08:00
UWGG 100800Z 18004MPS 150V220 3800 FU SCT230 34/11 Q1019 NOSIG 18090070 RMK QFE757

2010/08/10 07:55
LIMU 100755Z 04005KT 9999 FEW023 23/21 Q1017 RMK SCT QUK 1 QUL 1 E VIS MAR 12 KM VIS MIN 9999

2010/08/10 07:55
LIMV 100755Z 21004KT 6000 FEW009 SCT015 19/18 Q1018 RMK BKN MON N LIB S CLD SCT ABB SLW VAL FOSCHIA VIS MIN 6000

2010/08/10 07:55
LIVD 100755Z 00000KT 9999 SCT035 18/14 Q1021 RMK SCT VIS MIN 9999

2010/08/10 07:55
LIVM 100755Z 07003KT 9999 FEW025 25/22 Q1015 RMK FEW QUK 0 QUL 0 VIS MAR 12 KM VIS MIN 9999

2010/08/10 07:55
LIVO 100755Z 17002KT 9999 BKN025 17/16 Q1019 RMK BKN VIS MIN 9999

2010/08/10 07:55
LIVR 100755Z 10002KT 9999 SCT020 14/10 Q1023 RMK SCT MON CIME INC VIS MIN 9999

2010/08/10 07:55
LIVT 100755Z 04007G18KT CAVOK 26/16 Q1014 RMK FEW FEW200 QUK 3 QUL 1 NE VIS MAR 20 KM VIS MIN 9999

2010/08/10 07:55
LIVE 100755Z 23003KT 9999 SCT025 15/10 Q1021 RMK SCT VIS MIN 9999

2010/08/10 08:00
URKA 100800Z 30003MPS 9999 FEW040 SCT120 32/22 Q1008 NOSIG RMK 065

2010/08/10 08:00
URKK 100800Z 07006MPS CAVOK 33/15 Q1008 NOSIG RMK QFE753 SC070

2010/08/10 08:00
URKM 100800Z 12003G07MPS CAVOK 31/17 Q1009 RMK QFE738

2010/08/10 08:00
URML 100800Z 09004MPS 9999 SKC 32/23 Q1011 NOSIG RMK QFE758 / 07

2010/08/10 08:00
URMM 100800Z 10007G09MPS 9999 SKC 33/17 Q1011 NOSIG RMK / SC070

2010/08/10 08:00
URMN 100800Z 01001MPS 9999 SKC 30/17 Q1012 NOSIG RMK / QFE722 SC07

2010/08/10 08:00
URMT 100800Z 09009G12MPS CAVOK 33/09 Q1012 NOSIG RMK QFE719 SC07

2010/08/10 08:00
URRR 100800Z 08006G09MPS CAVOK 36/11 Q1012 NOSIG RMK SC070

2010/08/10 08:00
URSS 100800Z 25002MPS 9999 FEW100 32/23 Q1007 NOSIG RMK / QFE754 06CLRD70

2010/08/10 08:00
URWA 100800Z 10003MPS CAVOK 38/11 Q1013 NOSIG RMK SC07

2010/08/10 08:00
URWI 100800Z 14007G10MPS 9999 SKC 37/19 Q1013 NOSIG RMK SC065

2010/08/10 08:00
URWW 100800Z 08008G11MPS CAVOK 35/04 Q1015 NOSIG RMK SC070

2010/08/10 07:50
LIMG 100750Z VRB03KT 9999 FEW030 25/19 Q1016 RMK VIS MIN 9999

2010/08/10 07:55
LIMK 100755Z 00000KT CAVOK 19/17 Q1017 RMK BKN BKN070 VAL FOSCHIA VIS MIN 9999

2010/08/10 07:55
LIMN 100755Z VRB02KT 9999 BKN060 22/17 Q1016 RMK BKN VIS MIN 9999 BLU

2010/08/10 07:50
LIMP 100750Z VRB03KT 7000 FEW060 24/19 Q1016 RMK VIS MIN 6000N

2010/08/10 07:55
LIMS 100755Z 06003KT CAVOK 24/19 Q1015 RMK SCT SCT100 VIS MIN 9999 WIND THR30 33003KT BLU

2010/08/10 07:50
LIMZ 100750Z 35004KT CAVOK 23/19 Q1017 RMK VIS MIN 8000N

2010/08/10 07:55
LIPA 100755Z 33001KT 9999 FEW040 25/22 Q1016 RMK FEW VIS MIN 9999 A3001 BLU

2010/08/10 07:55
LIPC 100755Z 31004KT CAVOK 25/21 Q1015 RMK FEW FEW200 VIS MIN 9999 WIND THR12 30004KT BLU

2010/08/10 07:55
LIPF 100755Z 31002KT 8000 NSC 24/21 Q1015 RMK SKC VIS MIN 8000

2010/08/10 07:45
LIPH 100745Z 08007KT CAVOK 26/19 Q1016 RMK FEW FEW180 VIS MIN 9999 WIND THR07 /////KT BLU

2010/08/10 07:55
LIPI 100755Z 03009KT 9999 FEW080 26/18 Q1016 RMK SCT VIS MIN 9999 WIND THR06 /////KT BLU

2010/08/10 07:55
LIPL 100755Z 10003KT CAVOK 23/21 Q1016 RMK BKN SCT090 VIS MIN 9999 BLK BLU

2010/08/10 07:50
LIPO 100750Z 10004KT 040V130 9999 SCT055 25/18 Q1016 RMK VIS MIN 9999

2010/08/10 07:50
LIPQ 100750Z 00000KT CAVOK 26/19 Q1015

2010/08/10 07:45
LIPR 100745Z 30004KT CAVOK 25/21 Q1015 RMK SKC VIS MIN 9999 WIND THR31 31004KT BLU

2010/08/10 07:55
LIPS 100755Z 06006KT CAVOK 26/17 Q1016 RMK SKC VIS MIN 9999 BLU

2010/08/10 07:45
LIPX 100745Z 11001KT 9999 FEW040 27/18 Q1016 RMK FEW VIS MIN 9999 BLU

2010/08/10 07:50
LIPY 100750Z VRB01KT CAVOK 26/19 Q1015 RMK VIS MIN 9999

2010/08/10 07:55
LIVC 100755Z 09007KT 9999 FEW001 12/08 Q1025 RMK FEW MON LIB VAL CLD SCT ELEV VIS MIN 9999

2010/08/10 07:55
LIVP 100755Z 00000KT 1200 BR BKN001 11/09 Q1024 RMK BKN MON INVIS VAL CLD SCT NEBBIA INF VIS MIN 1200

2010/08/10 08:00
CYBR 100800Z 09005KT 15SM FEW070 OVC180 22/19 A2990 RMK AC2AC6 OCNL LTGIC DIST E-SW SLP122

2010/08/10 08:00
DAAP 100800Z 08010KT 9999 FEW046 31/08 Q1015

2010/08/10 08:00
DAAV 100800Z 34006KT CAVOK 28/20 Q1014

2010/08/10 08:00
DABT 100800Z 34006KT CAVOK 28/08 Q1019

2010/08/10 08:00
DAOF 100800Z 04014KT 7000 FEW046 BKN100 35/11 Q1013

2010/08/10 08:00
DAUE 100800Z 03006KT CAVOK 33/15 Q1017

2010/08/10 08:00
DAUG 100800Z 00000KT CAVOK 31/16 Q1018

2010/08/10 08:00
DAUI 100800Z 08015KT CAVOK 36/05 Q1013

2010/08/10 08:00
DAUK 100800Z 15010KT CAVOK 31/16 Q1015

2010/08/10 08:00
DAUO 100800Z /////KT CAVOK 29/15 Q1015

2010/08/10 08:00
DAUU 100800Z 07012KT CAVOK 33/17 Q1015

2010/08/10 07:59
MYEG 100759Z AUTO 13006KT 10SM SCT021 SCT027 27/24 A2995 RMK AO2 LTG DSNT W

2010/08/10 08:00
OIII 100800Z 15010KT 9999 FEW040 32/M01 Q1016 A3002 881/3

2010/08/10 07:57
PHNG 100757Z AUTO 07007KT 10SM FEW038 BKN060 25/20 A3012 RMK AO2 SLP194 T02500200 $

2010/08/10 08:00
SADF 100800Z 00000KT 8000 MIFG SKC 04/04 Q1027

2010/08/10 08:00
TBPB 100800Z 13007KT 9999 SCT020 SCT280 27/24 Q1013 NOSIG

2010/08/10 08:00
UACC 100800Z 01007G12MPS 9999 BKN040 19/04 Q1019 040/0070 NOSIG RMK QFE733/0977

2010/08/10 08:00
UAFM 100800Z 32007MPS CAVOK 33/04 Q1010 TEMPO 30008G13MPS FCST WS

2010/08/10 08:00
UATT 100800Z 08007MPS 060V120 9999 NSC 29/01 Q1021 13CLRD70 NOSIG RMK QFE746/0995

2010/08/10 08:00
ZHHH 100800Z 09002MPS 060V120 5000 TS HZ SCT025 FEW040CB 35/30 Q1002 BECMG TL0930 NSW

2010/08/10 08:00
ZSNJ 100800Z VRB01MPS 5000 HZ FEW030 35/21 Q1003 NOSIG

2010/08/10 08:00
ZUCK 100800Z 15003MPS 110V200 9999 FEW040 38/20 Q1001 NOSIG

2010/08/10 08:07
KLBT 100807Z AUTO 00000KT 6SM BR OVC003 25/24 A3001 RMK AO2

2010/08/10 08:07
KLSE 100807Z AUTO 00000KT 3SM BR BKN002 23/22 A2992 RMK AO2

2010/08/10 08:07
KORE 100807Z AUTO 00000KT 2SM BR FEW080 BKN100 21/21 A2992 RMK AO2

2010/08/10 08:07
KSPW 100807Z AUTO 11008KT 8SM VCTS FEW009 OVC033 25/24 A2990 RMK AO2 LTG DSNT SE-SW TSB01

2010/08/10 08:04
PAJZ 100804Z AUTO 14008KT 1 1/2SM BR BKN003 OVC008 11/10 A2967 RMK AO2 PWINO TSNO CIG 001V007 $

2010/08/10 08:07
KBBW 100807Z AUTO 33007KT 10SM 19/18 A2992 RMK AO2 LTG DSNT NW-NE TSB0749E0750B0751E01 P0033 $

2010/08/10 08:07
KCKB 100807Z AUTO 00000KT 2 1/2SM BR CLR 19/18 A3001 RMK AO2 TSNO

2010/08/10 08:00
SLLP 100800Z 00000KT 9999 SKC M07/M18 Q1037

2010/08/10 08:00
SLVR 100800Z 14015KT 8000 NSC 15/11 Q1018

2010/08/10 08:05
KJXI 100805Z AUTO 00000KT 10SM CLR 27/24 A2993 RMK AO2

2010/08/10 08:05
KLBR 100805Z AUTO 00000KT 10SM CLR 25/22 A2991 RMK AO2 T02460215

2010/08/10 08:02
KLHB 100802Z AUTO 00000KT 10SM CLR 26/24 A2992 RMK AO2 T02620238

2010/08/10 08:05
KLNC 100805Z AUTO 20004KT 10SM CLR 26/22 A2990 RMK AO2 T02570220

2010/08/10 08:05
KLUD 100805Z AUTO 19005KT 10SM CLR 29/19 A2992 RMK AO2 T02850185

2010/08/10 07:55
KMZZ 100755Z AUTO 00000KT 1 3/4SM BR VV007 22/21 A2998 RMK AO2

2010/08/10 08:15
KOLV 100815Z AUTO 00000KT 5SM CLR 24/ A2995 RMK A01 P000

2010/08/10 08:04
KOLY 100804Z AUTO 00000KT 3SM BR CLR 24/23 A2993 RMK AO2

2010/08/10 08:05
KPNT 100805Z AUTO 00000KT 7SM SCT075 26/24 A2993 RMK AO2 LTG DSNT E

2010/08/10 08:05
KPRG 100805Z AUTO 00000KT 7SM SCT120 26/23 A2995 RMK AO2 T02590238

2010/08/10 08:05
KRPJ 100805Z AUTO 00000KT 5SM BR CLR 22/21 A2994 RMK AO2 T02240212

2010/08/10 08:05
KRSV 100805Z AUTO 00000KT 5SM BR SCT048 24/23 A2996 RMK AO2 T02350227

2010/08/10 08:05
KBKS 100805Z AUTO 00000KT 7SM SCT021 SCT028 27/26 A2990 RMK AO1 T02730257

2010/08/10 08:07
KBPC 100807Z AUTO 26006KT 10SM CLR 21/17 A2998 RMK AO2

2010/08/10 08:04
KBPG 100804Z AUTO 14006KT 10SM CLR 22/20 A3001 RMK AO1 T02200197

2010/08/10 07:55
KBXK 100755Z AUTO 00000KT 10SM SCT120 29/09 A2982 RMK AO1

2010/08/10 08:05
KBYY 100805Z AUTO 00000KT 5SM BR CLR 26/25 A2991 RMK AO2 T02550254

2010/08/10 08:03
KC09 100803Z AUTO 14003KT 7SM CLR 25/22 A2993 RMK AO2

2010/08/10 08:05
KC75 100805Z AUTO 12003KT 10SM SCT050 25/24 A2992 RMK AO2 T02510244

2010/08/10 08:05
KCPT 100805Z AUTO 20004KT 10SM CLR 27/21 A2993 RMK AO2

2010/08/10 08:05
KCUL 100805Z AUTO 13003KT 4SM BR CLR 23/22 A2994 RMK AO2 T02320215

2010/08/10 08:05
KCVB 100805Z AUTO 00000KT 10SM SCT012 26/23 A2996 RMK AO2 T02590231

2010/08/10 08:05
KCWC 100805Z AUTO 20006KT 10SM CLR 28/19 A2991 RMK AO2 T02820190

2010/08/10 08:05
KDKB 100805Z AUTO 11003KT 4SM HZ SCT041 23/21 A2995 RMK AO2 T02330205

2010/08/10 08:05
KDKR 100805Z AUTO 00000KT 10SM CLR 26/26 A2995 RMK AO2

2010/08/10 08:05
KDNV 100805Z AUTO 00000KT 7SM OVC065 26/23 A2992 RMK AO2 T02600231

2010/08/10 08:07
KDUX 100807Z AUTO 19006KT 10SM CLR 22/17 A3003 RMK AO2 T02180169

2010/08/10 08:05
KDZB 100805Z AUTO 17006KT 7SM CLR 26/22 A2993 RMK AO2 T02630223

2010/08/10 08:04
KE38 100804Z AUTO 25003KT 10SM CLR 19/17 A3015 RMK AO2 T01910167

2010/08/10 08:10
KEBG 100810Z AUTO 00000KT 10SM CLR 28/25 A2989 RMK AO2 T02750254

2010/08/10 08:05
KECU 100805Z AUTO 14013G17KT 10SM FEW015 26/22 A3007 RMK AO2

2010/08/10 08:05
KENL 100805Z AUTO 00000KT 5SM BR CLR 25/24 A2993 RMK AO2 T02450236

2010/08/10 08:05
KFEP 100805Z AUTO 12003KT 7SM CLR 24/22 A2997 RMK AO2 T02360216

2010/08/10 08:05
KFOA 100805Z AUTO 00000KT 7SM CLR 27/26 A2993 RMK AO2 T02650261

2010/08/10 08:05
KFWC 100805Z AUTO 00000KT 7SM CLR 25/23 A2993 RMK AO2

2010/08/10 08:05
KGBG 100805Z AUTO 15003KT 10SM SCT038 BKN046 24/22 A2992 RMK AO2

2010/08/10 08:05
KGOP 100805Z AUTO 19008KT 10SM CLR 27/22 A2994 RMK AO2

2010/08/10 08:05
KHHF 100805Z AUTO 20008KT 10SM BKN110 24/19 A2995 RMK AO2 T02410187

2010/08/10 08:03
KHRX 100803Z AUTO 18004KT 10SM CLR 21/18 A3007 RMK AO2 T02070177

2010/08/10 08:05
KHSB 100805Z AUTO 00000KT 5SM BR CLR 23/22 A2994 RMK AO2

2010/08/10 08:05
KIGQ 100805Z AUTO 00000KT 7SM SCT033 SCT090 24/22 A2993 RMK AO2 LTG DSNT S

2010/08/10 08:05
KINJ 100805Z AUTO 17006KT 10SM CLR 27/21 A2991 RMK AO2 T02730210

2010/08/10 08:05
KJAS 100805Z AUTO 00000KT 10SM CLR 26/25 A2993 RMK AO2 T02600248

2010/08/10 08:05
KJDD 100805Z AUTO 21005KT 10SM CLR 28/23 A2991 RMK AO2

2010/08/10 08:05
KJOT 100805Z AUTO 00000KT 7SM SCT037 24/21 A2992 RMK AO2 LTG DSNT SE

2010/08/10 08:05
KJSO 100805Z AUTO 19004KT 10SM CLR 27/24 A2995 RMK AO2 T02670240

2010/08/10 08:04
KJWY 100804Z AUTO 17004KT 10SM CLR 26/21 A2990 RMK AO2 T02560206

2010/08/10 07:50
LIMG 100750Z VRB03KT 9999 FEW030 25/19 Q1016 RMK VIS MIN 9999

2010/08/10 07:55
LIMK 100755Z 00000KT CAVOK 19/17 Q1017 RMK BKN BKN070 VAL FOSCHIA VIS MIN 9999

2010/08/10 07:55
LIMN 100755Z VRB02KT 9999 BKN060 22/17 Q1016 RMK BKN VIS MIN 9999 BLU

2010/08/10 07:50
LIMP 100750Z VRB03KT 7000 FEW060 24/19 Q1016 RMK VIS MIN 6000N

2010/08/10 07:55
LIMS 100755Z 06003KT CAVOK 24/19 Q1015 RMK SCT SCT100 VIS MIN 9999 WIND THR30 33003KT BLU

2010/08/10 07:50
LIMZ 100750Z 35004KT CAVOK 23/19 Q1017 RMK VIS MIN 8000N

2010/08/10 07:55
LIPA 100755Z 33001KT 9999 FEW040 25/22 Q1016 RMK FEW VIS MIN 9999 A3001 BLU

2010/08/10 07:55
LIPC 100755Z 31004KT CAVOK 25/21 Q1015 RMK FEW FEW200 VIS MIN 9999 WIND THR12 30004KT BLU

2010/08/10 07:55
LIPF 100755Z 31002KT 8000 NSC 24/21 Q1015 RMK SKC VIS MIN 8000

2010/08/10 07:45
LIPH 100745Z 08007KT CAVOK 26/19 Q1016 RMK FEW FEW180 VIS MIN 9999 WIND THR07 /////KT BLU

2010/08/10 07:55
LIPI 100755Z 03009KT 9999 FEW080 26/18 Q1016 RMK SCT VIS MIN 9999 WIND THR06 /////KT BLU

2010/08/10 07:55
LIPL 100755Z 10003KT CAVOK 23/21 Q1016 RMK BKN SCT090 VIS MIN 9999 BLK BLU

2010/08/10 07:50
LIPO 100750Z 10004KT 040V130 9999 SCT055 25/18 Q1016 RMK VIS MIN 9999

2010/08/10 07:50
LIPQ 100750Z 00000KT CAVOK 26/19 Q1015

2010/08/10 07:45
LIPR 100745Z 30004KT CAVOK 25/21 Q1015 RMK SKC VIS MIN 9999 WIND THR31 31004KT BLU

2010/08/10 07:55
LIPS 100755Z 06006KT CAVOK 26/17 Q1016 RMK SKC VIS MIN 9999 BLU

2010/08/10 07:45
LIPX 100745Z 11001KT 9999 FEW040 27/18 Q1016 RMK FEW VIS MIN 9999 BLU

2010/08/10 07:50
LIPY 100750Z VRB01KT CAVOK 26/19 Q1015 RMK VIS MIN 9999

2010/08/10 07:55
LIVC 100755Z 09007KT 9999 FEW001 12/08 Q1025 RMK FEW MON LIB VAL CLD SCT ELEV VIS MIN 9999

2010/08/10 07:55
LIVP 100755Z 00000KT 1200 BR BKN001 11/09 Q1024 RMK BKN MON INVIS VAL CLD SCT NEBBIA INF VIS MIN 1200

2010/08/10 08:00
SEQU 100800Z 34004KT 9999 SCT040 11/05 Q1027 RMK A3033 NOSIG

2010/08/10 08:00
SEGU 100800Z 23005KT 200V260 9999 BKN030 BKN090 23/18 Q1013 NOSIG

2010/08/10 08:00
SEMT 100800Z 17006KT 9999 BKN020 23/21 Q1013

2010/08/10 08:00
DAAG 100800Z 21006KT 190V250 7000 BKN010 24/22 Q1018

2010/08/10 08:00
DAAT 100800Z 07008KT 9999 FEW053 28/11 Q1021

2010/08/10 08:00
DABB 100800Z 02007KT CAVOK 29/18 Q1015

2010/08/10 08:00
DABC 100800Z 00000KT CAVOK 29/10 Q1019

2010/08/10 08:00
DAON 100800Z 00000KT CAVOK 26/22 Q1018

2010/08/10 08:00
DAOO 100800Z 36006KT 8000 SCT016 BKN100 26/23 Q1017

2010/08/10 08:00
DAUH 100800Z 12014KT CAVOK 33/12 Q1014

2010/08/10 08:00
DAAD 100800Z 00000KT CAVOK 30/18 Q1019

2010/08/10 08:00
DAAJ 100800Z 09008KT 2000 HZ NSC 32/10 Q1019

2010/08/10 08:00
DAAP 100800Z 08010KT 9999 FEW046 31/08 Q1015

2010/08/10 08:00
DAAS 100800Z 28004KT CAVOK 27/12 Q1021

2010/08/10 08:00
DAAV 100800Z 34006KT CAVOK 28/20 Q1014

2010/08/10 08:00
DAAY 100800Z 00000KT CAVOK 23/15 Q1025

2010/08/10 08:00
DABT 100800Z 34006KT CAVOK 28/08 Q1019

2010/08/10 08:00
DAFH 100800Z 12016KT CAVOK 30/18 Q1019

2010/08/10 08:00
DAMH 100800Z 00000KT CAVOK 36/15 Q1013

2010/08/10 08:00
DAOF 100800Z 04014KT 7000 FEW046 BKN100 35/11 Q1013

2010/08/10 08:00
DAOR 100800Z 35008KT CAVOK 32/12 Q1021

2010/08/10 08:00
DAOV 100800Z 00000KT CAVOK 28/15 Q1018

2010/08/10 08:00
DATF 100800Z ///10KT CAVOK 34/10 Q1016

2010/08/10 08:00
DAUB 100800Z 13004KT CAVOK 29/16 Q1015

2010/08/10 08:00
DAUE 100800Z 03006KT CAVOK 33/15 Q1017

2010/08/10 08:00
DAUG 100800Z 00000KT CAVOK 31/16 Q1018

2010/08/10 08:00
DAUI 100800Z 08015KT CAVOK 36/05 Q1013

2010/08/10 08:00
DAUK 100800Z 15010KT CAVOK 31/16 Q1015

2010/08/10 08:00
DAUL 100800Z 00000KT 8000 NSC 30/15 Q1019

2010/08/10 08:00
DAUO 100800Z /////KT CAVOK 29/15 Q1015

2010/08/10 08:00
DAUU 100800Z 07012KT CAVOK 33/17 Q1015

2010/08/10 08:00
UIAA 100800Z VRB01MPS 9999 BKN050CB 25/11 Q1004 NOSIG RMK QFE695 29CLRD70

2010/08/10 08:00
UIBB 100800Z 33002MPS 9999 SCT030CB OVC100 14/10 Q1006 NOSIG RMK QFE712/0949 30190055

2010/08/10 08:00
UIII 100800Z 16002MPS CAVOK 22/12 Q1003 NOSIG RMK QFE710/0947 12CLRD60

2010/08/10 08:00
UIUU 100800Z 36003MPS 9999 FEW043 BKN200 28/08 Q1002 NOSIG RMK QFE708/0944

2010/08/10 08:00
USPP 100800Z 26004MPS 7000 FEW200 31/16 Q1019 NOSIG 21090060 RMK QFE753/1004

2010/08/10 08:00
UWKD 100800Z 33003MPS 5000 HZ BKN200 33/12 Q1021 NOSIG RMK QFE754/1006 79CLRD70

2010/08/10 08:00
UWKE 100800Z 00000MPS CAVOK 33/15 Q1021 NOSIG RMK QFE749/0998 04090070

2010/08/10 08:00
UWKS 100800Z VRB02MPS CAVOK 33/09 Q1022 NOSIG RMK QFE752 SC0.60

2010/08/10 08:00
UWLL 100800Z 10002MPS CAVOK 32/12 Q1021 NOSIG RMK QFE753/1005 SC065

2010/08/10 08:00
UWLW 100800Z 35003MPS 8000 SKC 34/14 Q1021 NOSIG 20CLRD60 RMK QFE760

2010/08/10 08:00
UWOR 100800Z 08005MPS CAVOK 26/04 Q1024 07CLRD65 NOSIG RMK QFE742/0990

2010/08/10 08:00
UWOO 100800Z 12003MPS 040V180 P5000 SKC 30/06 Q1021 08CLRD65 NOSIG RMK QFE755/1007

2010/08/10 08:00
UWPP 100800Z 09003MPS CAVOK 32/11 Q1019 NOSIG RMK QFE750 11090060

2010/08/10 08:00
UWSS 100800Z 07003MPS CAVOK 31/13 Q1020 NOSIG RMK QFE753 120///60

2010/08/10 08:00
UWWW 100800Z 11003G06MPS 070V170 CAVOK 33/09 Q1021 NOSIG RMK QFE753/1004 05CLRD60 15//99//

2010/08/10 08:00
ULLI 100800Z 20003MPS 130V290 9999 BKN031 BKN200 25/16 Q1014 NOSIG

2010/08/10 08:00
UUDD 100800Z 16004MPS 120V180 8000 SKC 31/14 Q1016 NOSIG

2010/08/10 08:00
UUEE 100800Z 14003MPS 2300 FU SCT200 30/13 Q1015 NOSIG

2010/08/10 08:00
UUWW 100800Z 13004MPS 4600 HZ SCT200 30/14 Q1015 24000070 NOSIG

2010/08/10 08:00
UUMO 100800Z 14003MPS 5000 SCT100 31/15 Q1015 NOSIG RMK QFE746/0995

2010/08/10 08:00
ULAA 100800Z 21004MPS 150V240 CAVOK 27/18 Q1011 TEMPO 2000 TSRA BR BKN007CB RMK QFE757/1009 SC070

2010/08/10 08:00
ULKK 100800Z 19004MPS 3200 -HZ OVC099 31/21 Q1015 NOSIG RMK QFE757 13000060

2010/08/10 08:00
ULMM 100800Z 02004MPS 9999 OVC010CB 10/08 Q1012 NOSIG RMK QFE751 32290250

2010/08/10 08:00
ULOO 100800Z 20002MPS P6000 SCT020 BKN200 24/18 Q1015 NOSIG RMK QFE757

2010/08/10 08:00
ULWW 100800Z 17003G06MPS 0900 FU OVC/// 30/18 Q1015 BECMG 1500 HZ RMK QFE751 15CLRD60

2010/08/10 08:00
UMKK 100800Z 34003MPS 290V360 P8000 FEW026 SCT200 20/15 Q1017 R24/CLRD70 NOSIG RMK QFE762/1016

2010/08/10 08:00
UUBP 100800Z 33004MPS 9999 FEW030CB BKN/// 28/17 Q1014 NOSIG

2010/08/10 08:00
UUOB 100800Z 12003MPS CAVOK 34/12 Q1015 NOSIG RMK SC065

2010/08/10 08:00
UUOO 100800Z 11006MPS 9999 FEW050CB BKN100 32/09 Q1016 NOSIG RMK 13090070

2010/08/10 08:00
UWGG 100800Z 18004MPS 150V220 3800 FU SCT230 34/11 Q1019 NOSIG 18090070 RMK QFE757

2010/08/10 08:00
UNAA 100800Z 03005MPS 9999 SCT030CB BKN100 19/09 Q1007 NOSIG RMK QFE733 200///65

2010/08/10 08:00
UNBB 100800Z 35005MPS 9999 BKN033CB 18/08 Q1009 NOSIG RMK QFE735

2010/08/10 08:00
UNEE 100800Z 01004MPS 9999 SCT033 16/06 Q1009 NOSIG RMK QFE734 23CLRD60

2010/08/10 08:00
UNKL 100800Z 29005G09MPS 9999 SCT040CB BKN083 16/07 Q1008 NOSIG RMK QFE731 29////65

2010/08/10 08:00
UNNT 100800Z 36005MPS 320V020 CAVOK 19/03 Q1011 NOSIG RMK QFE748/0998 25090070

2010/08/10 08:00
UNOO 100800Z 33005G09MPS 9999 SCT033CB BKN033 14/06 Q1019 NOSIG 07CLRD06 RMK QFE756

2010/08/10 08:00
UNWW 100800Z 34005MPS 9999 SCT030CB BKN130 19/10 Q1007 NOSIG RMK QFE729 01CLRD70

2010/08/10 08:00
USTR 100800Z 23005G08MPS 8000 NSC 22/09 Q1018 NOSIG RMK QFE754/1006 30CLRD65 21CLRD65

2010/08/10 08:00
USHH 100800Z 14004G07MPS 9000 -SHRA BKN006CB OVC080 11/11 Q1013 TEMPO 1000 BR OVC004 RMK QFE756 SC055 QBB180

2010/08/10 07:50
LIMG 100750Z VRB03KT 9999 FEW030 25/19 Q1016 RMK VIS MIN 9999

2010/08/10 07:55
LIMK 100755Z 00000KT CAVOK 19/17 Q1017 RMK BKN BKN070 VAL FOSCHIA VIS MIN 9999

2010/08/10 07:55
LIMN 100755Z VRB02KT 9999 BKN060 22/17 Q1016 RMK BKN VIS MIN 9999 BLU

2010/08/10 07:50
LIMP 100750Z VRB03KT 7000 FEW060 24/19 Q1016 RMK VIS MIN 6000N

2010/08/10 07:55
LIMS 100755Z 06003KT CAVOK 24/19 Q1015 RMK SCT SCT100 VIS MIN 9999 WIND THR30 33003KT BLU

2010/08/10 07:50
LIMZ 100750Z 35004KT CAVOK 23/19 Q1017 RMK VIS MIN 8000N

2010/08/10 07:55
LIPA 100755Z 33001KT 9999 FEW040 25/22 Q1016 RMK FEW VIS MIN 9999 A3001 BLU

2010/08/10 07:55
LIPC 100755Z 31004KT CAVOK 25/21 Q1015 RMK FEW FEW200 VIS MIN 9999 WIND THR12 30004KT BLU

2010/08/10 07:55
LIPF 100755Z 31002KT 8000 NSC 24/21 Q1015 RMK SKC VIS MIN 8000

2010/08/10 07:45
LIPH 100745Z 08007KT CAVOK 26/19 Q1016 RMK FEW FEW180 VIS MIN 9999 WIND THR07 /////KT BLU

2010/08/10 07:55
LIPI 100755Z 03009KT 9999 FEW080 26/18 Q1016 RMK SCT VIS MIN 9999 WIND THR06 /////KT BLU

2010/08/10 07:55
LIPL 100755Z 10003KT CAVOK 23/21 Q1016 RMK BKN SCT090 VIS MIN 9999 BLK BLU

2010/08/10 07:50
LIPO 100750Z 10004KT 040V130 9999 SCT055 25/18 Q1016 RMK VIS MIN 9999

2010/08/10 07:50
LIPQ 100750Z 00000KT CAVOK 26/19 Q1015

2010/08/10 07:45
LIPR 100745Z 30004KT CAVOK 25/21 Q1015 RMK SKC VIS MIN 9999 WIND THR31 31004KT BLU

2010/08/10 07:55
LIPS 100755Z 06006KT CAVOK 26/17 Q1016 RMK SKC VIS MIN 9999 BLU

2010/08/10 07:45
LIPX 100745Z 11001KT 9999 FEW040 27/18 Q1016 RMK FEW VIS MIN 9999 BLU

2010/08/10 07:50
LIPY 100750Z VRB01KT CAVOK 26/19 Q1015 RMK VIS MIN 9999

2010/08/10 07:55
LIVC 100755Z 09007KT 9999 FEW001 12/08 Q1025 RMK FEW MON LIB VAL CLD SCT ELEV VIS MIN 9999

2010/08/10 07:55
LIVP 100755Z 00000KT 1200 BR BKN001 11/09 Q1024 RMK BKN MON INVIS VAL CLD SCT NEBBIA INF

2010/08/10 08:06
KDSM 100806Z 13011KT 10SM TS SCT007 OVC080CB 23/21 A2989

2010/08/10 08:03
KGLE 100803Z AUTO 14003KT 10SM CLR 27/20 A2992

2010/08/10 08:05
K1H2 100805Z AUTO 12003KT 5SM BR SCT110 25/24 A2993

2010/08/10 08:02
KAAA 100802Z AUTO 00000KT 10SM CLR 23/21 A2992

2010/08/10 08:04
KPPQ 100804Z AUTO 00000KT 4SM BR CLR 27/25 A2991

2010/08/10 08:00
GGOV 100800Z 35003KT 310V060 4000 RA SCT005 SCT014TCU FEW018CB BKN090 24/24 Q1013 TEMPO TS

2010/08/10 08:00
GOOY 100800Z 31002KT 9999 FEW013 BKN230 26/22 Q1013 NOSIG

2010/08/10 08:00
DIAP 100800Z 25008KT 7000 SCT011 BKN080 25/23 Q1015 NOSIG

2010/08/10 08:00
GQNN 100800Z VRB02KT 8000 FEW013 BKN120 26/20 Q1013 NOSIG

2010/08/10 08:00
GQPP 100800Z 33009KT 9999 -RA NSC 22/21 Q1014 NOSIG

2010/08/10 08:00
GVAC 100800Z 02002KT 9999 SCT014 SCT200 23/19 Q1014 NOSIG

2010/08/10 08:00
GFLL 100800Z 00000KT 8000 RA BKN010 FEWCB025 24/23 Q1014 CB-NW

2010/08/10 08:00
GBYD 100800Z 05006KT 9999 SCT010 BKN110 26/24 Q1012

2010/08/10 08:00
GLRB 100800Z 00000KT 8000 -DZ FEW008 BKN013 25/24 Q1014

2010/08/10 08:06
KDSM 100806Z 13011KT 10SM TS SCT007 OVC080CB 23/21 A2989

2010/08/10 08:05
KALN 100805Z AUTO 00000KT 4SM BR CLR 26/26 A2991

2010/08/10 07:50
LIMG 100750Z VRB03KT 9999 FEW030 25/19 Q1016 RMK VIS MIN 9999

2010/08/10 07:55
LIMK 100755Z 00000KT CAVOK 19/17 Q1017 RMK BKN BKN070 VAL FOSCHIA VIS MIN 9999

2010/08/10 07:55
LIMN 100755Z VRB02KT 9999 BKN060 22/17 Q1016 RMK BKN VIS MIN 9999 BLU

2010/08/10 07:50
LIMP 100750Z VRB03KT 7000 FEW060 24/19 Q1016 RMK VIS MIN 6000N

2010/08/10 07:55
LIMS 100755Z 06003KT CAVOK 24/19 Q1015 RMK SCT SCT100 VIS MIN 9999 WIND THR30 33003KT BLU

2010/08/10 07:50
LIMZ 100750Z 35004KT CAVOK 23/19 Q1017 RMK VIS MIN 8000N

2010/08/10 07:55
LIPA 100755Z 33001KT 9999 FEW040 25/22 Q1016 RMK FEW VIS MIN 9999 A3001 BLU

2010/08/10 07:55
LIPC 100755Z 31004KT CAVOK 25/21 Q1015 RMK FEW FEW200 VIS MIN 9999 WIND THR12 30004KT BLU

2010/08/10 07:55
LIPF 100755Z 31002KT 8000 NSC 24/21 Q1015 RMK SKC VIS MIN 8000

2010/08/10 07:45
LIPH 100745Z 08007KT CAVOK 26/19 Q1016 RMK FEW FEW180 VIS MIN 9999 WIND THR07 /////KT BLU

2010/08/10 07:55
LIPI 100755Z 03009KT 9999 FEW080 26/18 Q1016 RMK SCT VIS MIN 9999 WIND THR06 /////KT BLU

2010/08/10 07:55
LIPL 100755Z 10003KT CAVOK 23/21 Q1016 RMK BKN SCT090 VIS MIN 9999 BLK BLU

2010/08/10 07:50
LIPO 100750Z 10004KT 040V130 9999 SCT055 25/18 Q1016 RMK VIS MIN 9999

2010/08/10 07:50
LIPQ 100750Z 00000KT CAVOK 26/19 Q1015

2010/08/10 07:45
LIPR 100745Z 30004KT CAVOK 25/21 Q1015 RMK SKC VIS MIN 9999 WIND THR31 31004KT BLU

2010/08/10 07:55
LIPS 100755Z 06006KT CAVOK 26/17 Q1016 RMK SKC VIS MIN 9999 BLU

2010/08/10 07:45
LIPX 100745Z 11001KT 9999 FEW040 27/18 Q1016 RMK FEW VIS MIN 9999 BLU

2010/08/10 07:50
LIPY 100750Z VRB01KT CAVOK 26/19 Q1015 RMK VIS MIN 9999

2010/08/10 07:55
LIVC 100755Z 09007KT 9999 FEW001 12/08 Q1025 RMK FEW MON LIB VAL CLD SCT ELEV VIS MIN 9999

2010/08/10 07:55
LIVP 100755Z 00000KT 1200 BR BKN001 11/09 Q1024 RMK BKN MON INVIS VAL CLD SCT NEBBIA INF

2010/08/10 08:00
GGOV 100800Z 35003KT 310V060 4000 RA SCT005 SCT014TCU FEW018CB BKN090 24/24 Q1013 TEMPO TS

2010/08/10 08:00
GOOY 100800Z 31002KT 9999 FEW013 BKN230 26/22 Q1013 NOSIG

2010/08/10 08:00
DIAP 100800Z 25008KT 7000 SCT011 BKN080 25/23 Q1015 NOSIG

2010/08/10 08:00
GQNN 100800Z VRB02KT 8000 FEW013 BKN120 26/20 Q1013 NOSIG

2010/08/10 08:00
GQPP 100800Z 33009KT 9999 -RA NSC 22/21 Q1014 NOSIG

2010/08/10 08:00
GVAC 100800Z 02002KT 9999 SCT014 SCT200 23/19 Q1014 NOSIG

2010/08/10 08:00
GFLL 100800Z 00000KT 8000 RA BKN010 FEWCB025 24/23 Q1014 CB-NW

2010/08/10 08:00
GBYD 100800Z 05006KT 9999 SCT010 BKN110 26/24 Q1012

2010/08/10 08:00
GLRB 100800Z 00000KT 8000 -DZ FEW008 BKN013 25/24 Q1014

2010/08/10 08:06
KDSM 100806Z 13011KT 10SM TS SCT007 OVC080CB 23/21 A2989

2010/08/10 07:58
KBLV 100758Z AUTO 00000KT 9SM R14R/5500VP6000FT CLR 26/26 A2991 RMK AO2 SLP124

2010/08/10 08:06
KMTC 100806Z AUTO 00000KT 3/4SM R19/0700V3000FT DZ BR CLR 20/20 A2994 RMK AO2 VIS 1/4V2 SLP144 $

2010/08/10 08:05
LFLW 100805Z 28004KT 210V340 9999 SCT010 SCT015 18/14 Q1020

2010/08/10 07:50
LIBG 100750Z 35015KT CAVOK 29/14 Q1013 RMK VIS MIN 9999

2010/08/10 07:55
LIBH 100755Z 36008KT CAVOK 29/14 Q1012 RMK SCT SCT200 QUK 1 QUL 0 VIS MAR 20 KM VIS MIN 9999

2010/08/10 07:45
LIBR 100745Z 32026KT CAVOK 26/20 Q1013 NOSIG RMK SCT SCT200 VIS MIN 9999 WIND THR13 /////KT WIND THR31 31021KT BLU

2010/08/10 07:50
LICA 100750Z 26011KT 9999 FEW025 27/21 Q1014 RMK VIS MIN 9999

2010/08/10 07:50
LICR 100750Z 35014KT 9999 FEW025 27/19 Q1014 RMK VIS MIN 9999

2010/08/10 07:55
LICZ 100755Z 30004KT CAVOK 28/14 Q1014 RMK SKC VIS MIN 9999 WIND THR28 /////KT BLU

2010/08/10 07:50
LIEA 100750Z 00000KT CAVOK 29/17 Q1016 RMK VIS MIN 9999

2010/08/10 07:55
LIEC 100755Z 25005KT CAVOK 25/22 Q1016 RMK SKC QUK 1 QUL 0 VIS MAR 30 KM VIS MIN 9999

2010/08/10 07:55
LIEE 100755Z 29004KT CAVOK 26/11 Q1015 RMK FEW FEW200 VIS MIN 9999 WIND THR14 28005KT BLU

2010/08/10 07:55
LIMS 100755Z 06003KT CAVOK 24/19 Q1015 RMK SCT SCT100 VIS MIN 9999 WIND THR30 33003KT BLU

2010/08/10 07:55
LIPA 100755Z 33001KT 9999 FEW040 25/22 Q1016 RMK FEW VIS MIN 9999 A3001 BLU

2010/08/10 07:55
LIPL 100755Z 10003KT CAVOK 23/21 Q1016 RMK BKN SCT090 VIS MIN 9999 BLK BLU

2010/08/10 07:45
LIPR 100745Z 30004KT CAVOK 25/21 Q1015 RMK SKC VIS MIN 9999 WIND THR31 31004KT BLU

2010/08/10 07:45
LIPX 100745Z 11001KT 9999 FEW040 27/18 Q1016 RMK FEW VIS MIN 9999 BLU

2010/08/10 07:55
LIRG 100755Z 00000KT CAVOK 26/18 Q1015 RMK SKC MON NE LIB NC VIS MIN 9999 BLU

2010/08/10 07:50
LIRZ 100750Z VRB02KT CAVOK 24/16 Q1016 RMK VIS MIN 9999

2010/08/10 07:55
LIVP 100755Z 00000KT 1200 BR BKN001 11/09 Q1024 RMK BKN MON INVIS VAL CLD SCT NEBBIA INF VIS MIN 1200

2010/08/10 08:00
SADF 100800Z 00000KT 8000 MIFG SKC 04/04 Q1027

2010/08/10 08:00
SARE 100800Z 18003KT 6000 NSC 05/04 Q1023

2010/08/10 08:00
SASA 100800Z 00000KT 999 SCT025 OVC100 04/02 Q1024

2010/08/10 08:00
SAWG 100800Z 32014KT 9999 FEW035 02/M02 Q1009

2010/08/10 08:00
SAZM 100800Z 32005KT CAVOK 00/M02 Q1026

2010/08/10 08:00
SBMN 100800Z 00000KT 9999 FEW015 25/23 Q1012

2010/08/10 08:00
SBSL 100800Z 08007KT CAVOK 25/23 Q1013

2010/08/10 08:00
SEGU 100800Z 23005KT 200V260 9999 BKN030 BKN090 23/18 Q1013 NOSIG

2010/08/10 08:00
SEMT 100800Z 17006KT 9999 BKN020 23/21 Q1013

2010/08/10 08:00
SEQU 100800Z 34004KT 9999 SCT040 11/05 Q1027 RMK A3033 NOSIG

2010/08/10 08:00
SKBO 100800Z 08003KT 9999 FEW017 SCT200 11/09 A3033 NOSIG

2010/08/10 08:00
SKBQ 100800Z 00000KT 9999 SCT012 SCT070 27/26 A2985

2010/08/10 08:00
SKCG 100800Z 00000KT 9999 FEW015 SCT200 27/26 A2984

2010/08/10 08:00
SKCL 100800Z 00000KT 9999 FEW025 BKN090 19/18 A2999

2010/08/10 08:00
SKRG 100800Z 00000KT 6000 BKN010 15/14 A3027 RMK HZ

2010/08/10 08:00
SLLP 100800Z 00000KT 9999 SKC M07/M18 Q1037

2010/08/10 08:00
SLVR 100800Z 14015KT 8000 NSC 15/11 Q1018

2010/08/10 08:00
SPQT 100800Z /////KT 4000 BR SCT010 SCT100 22/21 Q1012 NOSIG RMK PP000

2010/08/10 08:00
UELL 100800Z VRB01MPS 9999 SCT030CB BKN083 20/13 Q1007 NOSIG RMK QFE681 08CLRD70

2010/08/10 08:00
UHHH 100800Z 22008MPS 9999 FEW026 SCT100 27/19 Q1005 NOSIG RMK QFE747/0996 23090060

2010/08/10 08:00
UHNN 100800Z 11007G12MPS 9999 OVC070 21/17 Q1009 NOSIG RMK QFE752 110///60

2010/08/10 08:00
UHPP 100800Z 22004MPS 190V250 9999 FEW043 21/10 Q1012 NOSIG RMK QFE756/1008 MT OBSC SC070

2010/08/10 08:00
UHWW 100800Z 18003MPS 5000 -SHRA BKN010 OVC040CB 24/23 Q1008 NOSIG RMK QFE755/1007 7529//60

2010/08/10 08:00
UIAA 100800Z VRB01MPS 9999 BKN050CB 25/11 Q1004 NOSIG RMK QFE695 29CLRD70

2010/08/10 08:00
UIBB 100800Z 33002MPS 9999 SCT030CB OVC100 14/10 Q1006 NOSIG RMK QFE712/0949 30190055

2010/08/10 08:00
UIII 100800Z 16002MPS CAVOK 22/12 Q1003 NOSIG RMK QFE710/0947 12CLRD60

2010/08/10 08:00
URKA 100800Z 30003MPS 9999 FEW040 SCT120 32/22 Q1008 NOSIG RMK 065

2010/08/10 08:00
URSS 100800Z 25002MPS 9999 FEW100 32/23 Q1007 NOSIG RMK / QFE754 06CLRD70

2010/08/10 08:00
UUDD 100800Z 16004MPS 120V180 8000 SKC 31/14 Q1016 NOSIG

2010/08/10 08:00
UUEE 100800Z 14003MPS 2300 FU SCT200 30/13 Q1015 NOSIG

2010/08/10 08:00
UUWW 100800Z 13004MPS 4600 HZ SCT200 30/14 Q1015 24000070 NOSIG

2010/08/10 08:00
UWGG 100800Z 18004MPS 150V220 3800 FU SCT230 34/11 Q1019 NOSIG 18090070 RMK QFE757

2010/08/10 08:00
UWKD 100800Z 33003MPS 5000 HZ BKN200 33/12 Q1021 NOSIG RMK QFE754/1006 79CLRD70

2010/08/10 08:00
UWOO 100800Z 12003MPS 040V180 P5000 SKC 30/06 Q1021 08CLRD65 NOSIG RMK QFE755/1007

2010/08/10 08:00
UWPP 100800Z 09003MPS CAVOK 32/11 Q1019 NOSIG RMK QFE750 11090060

2010/08/10 08:00
UAAA 100800Z 27007G12MPS 230V310 9999 SCT050CB BKN100 33/03 Q1008 88CLRD65 NOSIG

2010/08/10 08:00
UACC 100800Z 01007G12MPS 9999 BKN040 19/04 Q1019 040/0070 NOSIG RMK QFE733/0977

2010/08/10 08:00
UAFM 100800Z 32007MPS CAVOK 33/04 Q1010 TEMPO 30008G13MPS FCST WS

2010/08/10 08:00
UATE 100800Z 11005G10MPS CAVOK 40/04 Q1012 120///70 NOSIG RMK QFE757/1009

2010/08/10 08:00
UATT 100800Z 08007MPS 060V120 9999 NSC 29/01 Q1021 13CLRD70 NOSIG RMK QFE746/0995

2010/08/10 08:00
UHMM 100800Z 29003MPS 9999 SCT066 17/12 Q1009 NOSIG RMK QFE741 88010070

2010/08/10 08:00
UHSS 100800Z 19004MPS 5000 BR OVC004CB 21/21 Q1012 NOSIG RMK QBB140 MT OBSC QFE757/1010 19250260

2010/08/10 08:00
UIUU 100800Z 36003MPS 9999 FEW043 BKN200 28/08 Q1002 NOSIG RMK QFE708/0944

2010/08/10 08:00
ULLI 100800Z 20003MPS 130V290 9999 BKN031 BKN200 25/16 Q1014 NOSIG

2010/08/10 08:00
UMGG 100800Z VRB02MPS 9999 FEW040 BKN100 25/21 Q1016 R10/D NOSIG

2010/08/10 08:00
UMII 100800Z 04004MPS P6000 SCT030CB OVC100 21/16 Q1016 R05/D NOSIG

2010/08/10 08:00
UMMM 100800Z 36002MPS 9999 SCT040 BKN100 20/15 Q1017 R30/D NOSIG RMK QFE743

2010/08/10 08:00
UMMS 100800Z 33003MPS CAVOK 21/17 Q1017 R31/D NOSIG

2010/08/10 08:00
URMM 100800Z 10007G09MPS 9999 SKC 33/17 Q1011 NOSIG RMK / SC070

2010/08/10 08:00
UTAA 100800Z VRB01MPS 9999 SKC 38/03 Q1011 NOSIG

2010/08/10 08:00
UTDD 100800Z 21002MPS 120V250 9999 SCT066 FEW180 36/04 Q1007 09CLRD70 NOSIG RMK QFE688/0918

2010/08/10 08:00
VTBD 100800Z 25009KT 9999 FEW020CB BKN300 34/21 Q1002 CB SE/S NOSIG

2010/08/10 08:00
URKA 100800Z 30003MPS 9999 FEW040 SCT120 32/22 Q1008 NOSIG RMK  065

2010/08/10 08:00
URKK 100800Z 07006MPS CAVOK 33/15 Q1008 NOSIG RMK QFE753 SC070

2010/08/10 08:00
URKM 100800Z 12003G07MPS CAVOK 31/17 Q1009 RMK QFE738

2010/08/10 08:00
URML 100800Z 09004MPS 9999 SKC 32/23 Q1011 NOSIG RMK QFE758 / 07

2010/08/10 08:00
URMM 100800Z 10007G09MPS 9999 SKC 33/17 Q1011 NOSIG RMK / SC070

2010/08/10 08:00
URMN 100800Z 01001MPS 9999 SKC 30/17 Q1012 NOSIG RMK / QFE722 SC07

2010/08/10 08:00
URMT 100800Z 09009G12MPS CAVOK 33/09 Q1012 NOSIG RMK QFE719 SC07

2010/08/10 08:00
URRR 100800Z 08006G09MPS CAVOK 36/11 Q1012 NOSIG RMK SC070

2010/08/10 08:00
URSS 100800Z 25002MPS 9999 FEW100 32/23 Q1007 NOSIG RMK / QFE754 06CLRD70

2010/08/10 08:00
URWA 100800Z 10003MPS CAVOK 38/11 Q1013 NOSIG RMK SC07

2010/08/10 08:00
URWI 100800Z 14007G10MPS 9999 SKC 37/19 Q1013 NOSIG RMK SC065

2010/08/10 08:00
URWW 100800Z 08008G11MPS CAVOK 35/04 Q1015 NOSIG RMK SC070

2010/08/10 07:55
LIBA 100755Z 29002KT 9999 FEW030 26/22 Q1014 RMK SCT SCT090 VIS MIN 9999 WIND THR29 28003KT BLU

2010/08/10 07:50
LIBD 100750Z 35007KT 300V030 CAVOK 27/13 Q1014 RMK VIS MIN 9999

2010/08/10 07:50
LIBG 100750Z 35015KT CAVOK 29/14 Q1013 RMK VIS MIN 9999

2010/08/10 07:55
LIBN 100755Z 33017KT CAVOK 28/20 Q1013 RMK SCT SCT180 VIS MIN 9999 WIND THR14 34014KT BLU

2010/08/10 07:50
LIBP 100750Z 02005KT CAVOK 27/19 Q1015 RMK VIS MIN 9999

2010/08/10 07:45
LIBR 100745Z 32026KT CAVOK 26/20 Q1013 NOSIG RMK SCT SCT200 VIS MIN 9999 WIND THR13 /////KT WIND THR31 31021KT BLU

2010/08/10 07:55
LIBV 100755Z 01012KT CAVOK 26/14 Q1013 RMK BKN SCT090 SCT200 VIS MIN 9999 WIND THR14 35012KT BLU

2010/08/10 07:50
LICA 100750Z 26011KT 9999 FEW025 27/21 Q1014 RMK VIS MIN 9999

2010/08/10 07:50
LICC 100750Z VRB02KT CAVOK 28/15 Q1014 RMK VIS MIN 9999

2010/08/10 07:50
LICD 100750Z 29006KT CAVOK 26/20 Q1015 RMK VIS MIN 9999

2010/08/10 07:55
LICG 100755Z 34005KT CAVOK 26/23 Q1016 RMK SKC VIS MIN 9999 WIND THR08 /////KT WIND THR21 34004KT BLU

2010/08/10 07:50
LICJ 100750Z 35003KT CAVOK 26/20 Q1015 RMK VIS MIN 9999

2010/08/10 07:50
LICR 100750Z 35014KT 9999 FEW025 27/19 Q1014 RMK VIS MIN 9999

2010/08/10 07:55
LICT 100755Z 32005KT CAVOK 28/20 Q1015 RMK SKC VIS MIN 9999 WIND THR13 31004KT BLU

2010/08/10 07:55
LICZ 100755Z 30004KT CAVOK 28/14 Q1014 RMK SKC VIS MIN 9999 WIND THR28 /////KT BLU

2010/08/10 07:50
EGUO 100750Z 21007KT 9999 6000S FEW006 OVC050 12/11 Q1010 BLU

2010/08/10 08:00
DAOI 100800Z 26005KT CAVOK 28/16 Q1015

2010/08/10 08:00
DAUZ 100800Z 00000KT CAVOK 33/07 Q1016

2010/08/10 07:50
MASA 100750Z 29004KT CAVOK 35/21 Q1011

2010/08/10 08:00
OIYY 100800Z 36008KT CAVOK 34/M05 Q1015 A3000

2010/08/10 07:50
AZUH 100750Z 03006KT CAVOK 31/10 Q1013 A2994

2010/08/10 08:00
KHBB 100800Z 04006KT CAVOK 31/06 Q1016 A3003

2010/08/10 08:00
KHME 100800Z 36012KT CAVOK 33/M02 Q1014 A2995

2010/08/10 08:00
OIAA 100800Z 18004KT 6000 NSC 42/26 Q0999

2010/08/10 08:00
OIAG 100800Z 12010KT 9999 FEW040 46/06 Q1000 A2954

2010/08/10 08:00
OIAH 100800Z 00000KT CAVOK 41/M03 Q1003 A2963

2010/08/10 07:50
OIAI 100750Z 00000KT 9999 FEW040 BKN100 41/10 Q1002 A2959

2010/08/10 08:00
OIAM 100800Z 19008KT CAVOK 41/18 Q0999 A2951

2010/08/10 08:00
OIAW 100800Z 15002KT 8000 NSC 44/13 Q1000 A2953

2010/08/10 07:50
OIBA 100750Z 03012KT CAVOK 36/28 Q1000 A2953

2010/08/10 07:50
OIBB 100750Z 34006KT CAVOK 38/27 Q0999 A2951

2010/08/10 08:00
OIBK 100800Z 12020KT 5000 SA SKC 36/28 Q1000 A2954

2010/08/10 07:50
OIBL 100750Z 10018KT 3000 SA SKC 37/27 Q1000 A2954

2010/08/10 07:50
OIBS 100750Z 08016KT CAVOK 34/30 Q1000 A2955

2010/08/10 07:50
OICC 100750Z 19006KT CAVOK 36/M05 Q1014 A2996 866.1

2010/08/10 08:00
OICI 100800Z 30006KT CAVOK 37/M06 Q1013 A2994 864.5

2010/08/10 07:50
OICJ 100750Z 00000KT CAVOK 31/04 Q1018 A3008

2010/08/10 07:50
OICK 100750Z 08006KT 9999 FEW045 SCT100 38/M04 Q1012 A2990

2010/08/10 08:00
OICS 100800Z 00000KT 9999 FEW045 33/M01 Q1015 A2997

2010/08/10 08:00
OIFK 100800Z 14006KT CAVOK 36/02 Q1015 A2999

2010/08/10 08:00
OIFM 100800Z 30004KT 8000 SKC 32/01 Q1018 A3009

2010/08/10 08:00
OIFS 100800Z 00000KT CAVOK 28/02 Q1022 A3020

2010/08/10 08:00
OIGG 100800Z 36004KT 9999 SCT080 31/23 Q1010 A2984

2010/08/10 07:50
OIGK 100750Z 09010KT 9999 FEW035 26/04 Q1022 A3018

2010/08/10 07:50
OIHM 100750Z 00000KT CAVOK 29/01 Q1019 A30111

2010/08/10 08:00
OIIE 100800Z 11012G22KT 9999 FEW050 33/00 Q1014 A2995

2010/08/10 08:00
OIII 100800Z 15010KT 9999 FEW040 32/M01 Q1016 A3002 881.3

2010/08/10 08:00
OIIK 100800Z 12006KT 9999 FEW035 31/01 Q1017 A3004

2010/08/10 07:55
OIIP 100755Z 12014KT CAVOK 32/04 Q1016

2010/08/10 08:00
OIIS 100800Z 18008KT CAVOK 34/01 Q1015 A2999

2010/08/10 08:00
OIKB 100800Z 11006KT 6000 FEW025 35/27 Q1002 A2959

2010/08/10 07:50
OIKK 100750Z 00000KT CAVOK 30/01 Q1018 A3006

2010/08/10 07:50
OIKO 100750Z 26008KT CAVOK 38/24 Q1002 A2959

2010/08/10 07:50
OIKQ 100750Z 08020KT 2500 SA SKC 35/25 Q1000 A2956

2010/08/10 07:50
OIMB 100750Z 05012KT CAVOK 31/12 Q1015 A2999

2010/08/10 07:50
OIMC 100750Z 33012KT CAVOK 38/06 Q1009 A2982

2010/08/10 07:50
OIMD 100750Z 03006KT CAVOK 32/M01 Q1009 A2982

2010/08/10 07:50
OIMM 100750Z 04018KT CAVOK 34/M02 Q1014 A2996

2010/08/10 08:00
OINB 100800Z 34006KT CAVOK 33/23 Q1009

2010/08/10 08:00
OING 100800Z 23006KT 9999 FEW035 35/19 Q1011 A2986

2010/08/10 08:00
OINK 100800Z 21006KT CAVOK 37/15 Q1009 A2980

2010/08/10 07:50
OINN 100750Z 33010KT 9999 FEW030TCU FEW110 32/24 Q1009 A2981

2010/08/10 07:50
OINR 100750Z 03006KT 9999 FEW030TCU 31/24 Q1009 A2982

2010/08/10 07:50
OISA 100750Z 35019KT CAVOK 28/M04 Q1021 A3016

2010/08/10 07:50
OISF 100750Z 36018KT CAVOK 35/02 Q1010 A2985

2010/08/10 07:50
OISL 100750Z 00000KT CAVOK 39/02 Q1006 A2972

2010/08/10 07:50
OISS 100750Z 00000KT CAVOK 33/M01 Q1015 A3000

2010/08/10 08:00
OISY 100800Z 00000KT CAVOK 41/M03 Q1003 A2963

2010/08/10 07:50
OITL 100750Z 06012KT 9999 SCT040CB SCT080 24/08 Q1018 A3008

2010/08/10 08:00
OITR 100800Z 11004KT CAVOK 30/11 Q1015 A2998

2010/08/10 07:50
OITT 100750Z 10012KT 9999 FEW040 33/07 Q1016 A3001

2010/08/10 07:50
OITU 100750Z 13010KT CAVOK 29/PO Q1016 A3002

2010/08/10 08:00
OIYY 100800Z 36008KT CAVOK 34/M05 Q1015 A3000

2010/08/10 08:00
OIZB 100800Z 30018KT 5000 SA NSC 40/05 Q1003 A2964

2010/08/10 08:00
OIZH 100800Z 36010KT 8000 NSC 34/M00 Q1012 A2990

2010/08/10 07:50
OIZI 100750Z 18006KT 7000 NSC 40/08 Q1004 A2967

2010/08/10 07:50
OIZJ 100750Z 09018KT 5000 SA NSC 32/27 Q1002 A2960

2010/08/10 08:00
SESG 100800Z 11014KT 9999 FEW035 36/03 Q1015 A2999

2010/08/10 08:00
OEAB 100800Z 01008KT 5000 DU SKC 29/03 Q1020 NOSIG

2010/08/10 08:00
OEAH 100800Z 05006KT 8000 SKC 40/15 Q1001 NOSIG

2010/08/10 08:00
OEBA 100800Z 04008KT 7000 SKC 33/06 Q1016 NOSIG

2010/08/10 08:00
OEBH 100800Z 03002KT 9000 SKC 38/04 Q1010 NOSIG

2010/08/10 08:00
OEDF 100800Z 12007KT 090V150 5000 DU SKC 41/17 Q0999 NOSIG

2010/08/10 08:00
OEDM 100800Z 06013KT CAVOK 40/07 Q1009

2010/08/10 08:00
OEDR 100800Z 15007KT 5000 HZ NSC 39/24 Q0998 NOSIG

2010/08/10 08:00
OEGN 100800Z 22007KT 7000 NSC 36/29 Q1005 NOSIG

2010/08/10 08:00
OEGS 100800Z 05006KT CAVOK 42/10 Q1007

2010/08/10 08:00
OEGT 100800Z 32010KT CAVOK 33/14 Q1007

2010/08/10 08:00
OEHL 100800Z 15010KT 9999 SCT045 39/08 Q1012 NOSIG

2010/08/10 08:00
OEJN 100800Z 18006KT CAVOK 36/25 Q1003 NOSIG

2010/08/10 08:00
OEKB 100800Z 19002KT CAVOK 44/06

2010/08/10 08:00
OEKK 100800Z 04017KT CAVOK 43/11 Q1004

2010/08/10 08:00
OEKM 100800Z 36008KT 4000 DU 29/07 Q1020 NOSIG

2010/08/10 08:00
OEMA 100800Z 11007KT 7000 NSC 41/01 Q1007 NOSIG

2010/08/10 08:00
OEMK 100800Z 26002KT CAVOK 37/25 Q1004

2010/08/10 08:00
OENG 100800Z 00000KT 6000 SCT030 BKN090 37/06 Q1010 NOSIG

2010/08/10 08:00
OEPA 100800Z 36011KT CAVOK 42/11 Q1002

2010/08/10 08:00
OERF 100800Z 04003KT CAVOK 43/11 Q1005

2010/08/10 08:00
OERK 100800Z 20013KT 8000 SKC 41/00 Q1006 NOSIG

2010/08/10 08:00
OERR 100800Z 19005KT CAVOK 43/11 Q1006

2010/08/10 08:00
OERY 100800Z 01013KT 5000 DU NSC 41/02 Q1006 NOSIG

2010/08/10 08:00
OESH 100800Z 21014KT 5000 BLDU SKC 40/21 Q1004 NOSIG

2010/08/10 08:00
OESK 100800Z 25006KT CAVOK 38/13 Q1008

2010/08/10 08:00
OETB 100800Z 00000KT CAVOK 33/14 Q1010 NOSIG

2010/08/10 08:00
OETR 100800Z 09004KT CAVOK 38/08 Q1009

2010/08/10 08:00
OEWD 100800Z 10006KT 3000 DU SKC 41/09 Q1003

2010/08/10 08:00
OEWJ 100800Z 30014KT CAVOK 33/28 Q1003

2010/08/10 08:00
OEYN 100800Z 17010KT 9999 FEW040 SCT090 36/26 Q1001 NOSIG

2010/08/10 08:08
KCON 100808Z AUTO 00000KT 2SM BR CLR 21/20 A2990 RMK AO2 

