2010/08/10 08:59
MYEG 100859Z AUTO 10003KT 10SM SCT025 SCT031 26/24 A2995 RMK AO2 

2010/08/10 08:59
MYEG 100859Z AUTO 10003KT 10SM SCT025 SCT031 26/24 A2995 RMK AO2

2010/08/10 08:46
KBAX 100846Z AUTO 33005KT 1/2SM FG OVC002 22/22 A2995 RMK AO2

2010/08/10 08:46
KBAX 100846Z AUTO 33005KT 1/2SM FG OVC002 22/22 A2995 RMK AO2

2010/08/10 08:46
KBAX 100846Z AUTO 33005KT 1/2SM FG OVC002 22/22 A2995 RMK AO2

2010/08/10 08:46
KBAX 100846Z AUTO 33005KT 1/2SM FG OVC002 22/22 A2995 RMK AO2

2010/08/10 08:55
KFDW 100855Z AUTO 14004KT 10SM CLR 25/23 A3002 RMK AO1

2010/08/10 08:55
KFDW 100855Z AUTO 14004KT 10SM CLR 25/23 A3002 RMK AO1

2010/08/10 08:48
KESN 100848Z AUTO 20003KT 10SM CLR 24/23 A2997 RMK AO2

2010/08/10 08:45
KCGS 100845Z AUTO 00000KT 10SM CLR 26/22 A2994 RMK AO1

2010/08/10 08:45
KFME 100845Z AUTO 21003KT 3SM 19/19 A2995 RMK AO1 SKY OBSCURED

2010/08/10 08:45
KMTN 100845Z AUTO 00000KT 10SM CLR 26/22 A2993 RMK AO2

2010/08/10 08:45
KCGS 100845Z AUTO 00000KT 10SM CLR 26/22 A2994 RMK AO1

2010/08/10 08:45
KFME 100845Z AUTO 21003KT 3SM 19/19 A2995 RMK AO1 SKY OBSCURED

2010/08/10 08:48
KESN 100848Z AUTO 20003KT 10SM CLR 24/23 A2997 RMK AO2

2010/08/10 08:45
KMTN 100845Z AUTO 00000KT 10SM CLR 26/22 A2993 RMK AO2

2010/08/10 08:45
KCGS 100845Z AUTO 00000KT 10SM CLR 26/22 A2994 RMK AO1

2010/08/10 08:45
KMTN 100845Z AUTO 00000KT 10SM CLR 26/22 A2993 RMK AO2

2010/08/10 08:48
KESN 100848Z AUTO 20003KT 10SM CLR 24/23 A2997 RMK AO2

2010/08/10 08:48
KESN 100848Z AUTO 20003KT 10SM CLR 24/23 A2997 RMK AO2

2010/08/10 08:45
KFME 100845Z AUTO 21003KT 3SM 19/19 A2995 RMK AO1 SKY OBSCURED

2010/08/10 08:46
HLLB 100846Z 30015KT 9999 BKN020 28/15 Q1013

2010/08/10 08:55
KQTU 100855Z 29006KT 9000 HZ CLR 43/04 A2967 RMK SLP025 58002

2010/08/10 08:46
CYSF 100846Z AUTO 09003KT 1 1/2SM BR FEW007 OVC018 14/14 A2989 RMK SLP129 DENSITY ALT 900FT

2010/08/10 08:45
KCGS 100845Z AUTO 00000KT 10SM CLR 26/22 A2994 RMK AO1

2010/08/10 08:48
KESN 100848Z AUTO 20003KT 10SM CLR 24/23 A2997 RMK AO2

2010/08/10 08:45
KFME 100845Z AUTO 21003KT 3SM 19/19 A2995 RMK AO1 SKY OBSCURED

2010/08/10 08:45
KMTN 100845Z AUTO 00000KT 10SM CLR 26/22 A2993 RMK AO2

2010/08/10 08:45
KORG 100845Z AUTO 00000KT 5SM BR CLR 24/24 A2992 RMK AO2

2010/08/10 08:53
KPYX 100853Z AUTO 16005KT 10SM CLR 21/18 A2998 RMK AO2 P0001

2010/08/10 08:45
KSFY 100845Z AUTO 00000KT 10SM SCT035 24/22 A2994 RMK AO2 LTG DSNT W

2010/08/10 08:45
KASX 100845Z AUTO 00000KT 3SM BR CLR 18/18 A2996 RMK AO2

2010/08/10 08:45
KBRD 100845Z AUTO 00000KT 1SM BR CLR 19/17 A2994 RMK AO2

2010/08/10 08:45
KDSM 100845Z 15009KT 10SM TS FEW035 BKN075CB OVC090 23/21 A2993 RMK AO2 TSE28B43RAE0756 CONS LTGICCG VC S-SW AND DSNT E-SE TS VC S-SW MOV NE TS MOV E CB DSNT E-SE MOV NE P0000

2010/08/10 08:45
KFNT 100845Z 00000KT 1/2SM FG 18/18 A2995 RMK AO2 RVRNO $

2010/08/10 08:45
KGRB 100845Z AUTO 00000KT 1SM BR VV002 21/20 A2994 RMK AO2 TSNO RVRNO

2010/08/10 08:45
KGRI 100845Z AUTO 33016G27KT 10SM FEW017 23/19 A2989 RMK AO2 PK WND 31027/0836 WSHFT 0825

2010/08/10 08:45
KTOL 100845Z 00000KT 3/4SM BR VV001 22/22 A2995 RMK AO2 RVRNO

2010/08/10 09:00
MPTO 100900Z 00000KT 9999 SCT018CB 27/25 Q1010 NOSIG

2010/08/10 08:45
CYCB 100845Z 08014G19KT 6SM BR OVC004 RMK SF8

2010/08/10 08:46
CWOB 100846Z AUTO ///// 1/8SM CLR 03/ A2979

2010/08/10 08:46
PGUA 100846Z AUTO 07010KT 10SM SCT020 BKN030 OVC050 27/24 A2993 RMK AO2 CIG 019 RWY24L SLP117 $

2010/08/10 08:45
CYGW 100845Z 25002KT 1/2SM -DZ FG VV001 RMK FG8

2010/08/10 08:46
CYMO 100846Z AUTO 01003KT 9SM FEW005 OVC014 10/10 A2997

2010/08/10 08:55
KCCA 100855Z AUTO 00000KT 3SM BR CLR 26/25 A2993 RMK AO2

2010/08/10 08:45
K1H2 100845Z AUTO 14003KT 7SM CLR 25/24 A2992 RMK AO2 T02530240

2010/08/10 08:45
K3LF 100845Z AUTO 16004KT 7SM CLR 25/23 A2992 RMK AO2

2010/08/10 08:45
K3T5 100845Z AUTO 00000KT 10SM CLR 25/24 A2991 RMK AO2 T02510236

2010/08/10 08:45
KAJG 100845Z AUTO 00000KT 5SM BR CLR 23/23 A2993 RMK AO2 T02330227

2010/08/10 08:45
KALN 100845Z AUTO 00000KT 5SM BR CLR 26/26 A2991 RMK AO2 T02610258

2010/08/10 08:45
KAQO 100845Z AUTO 00000KT CLR 27/23 A2996 RMK AO2 PWINO

2010/08/10 08:45
KARM 100845Z AUTO 00000KT 7SM CLR 26/24 A2992 RMK AO2 T02610238

2010/08/10 08:47
KASW 100847Z AUTO 00000KT 1SM BR SCT002 OVC032 23/23 A2996 RMK AO2 T02270225

2010/08/10 08:45
KAXH 100845Z AUTO 00000KT 5SM BR CLR 24/23 A2991 RMK AO2 T02430234

2010/08/10 08:45
KBBD 100845Z AUTO 17006KT 10SM CLR 26/20 A2996 RMK

2010/08/10 08:45
KBKS 100845Z AUTO 00000KT 7SM CLR 27/26 A2987 RMK AO1 T02730257

2010/08/10 08:47
KBPC 100847Z AUTO 25008KT 10SM CLR 22/16 A2998 RMK AO2

2010/08/10 08:45
KBYY 100845Z AUTO 00000KT 5SM BR CLR 25/25 A2990 RMK AO2 T02500248

2010/08/10 08:45
KCPT 100845Z AUTO 17007KT 10SM CLR 27/21 A2992 RMK AO2

2010/08/10 08:45
KCUL 100845Z AUTO 16003KT 3SM BR CLR 23/22 A2993 RMK AO2 T02330216

2010/08/10 08:45
KDKB 100845Z AUTO 05003KT 2 1/2SM HZ CLR 23/20 A2995 RMK AO2 T02300202

2010/08/10 08:45
KDKR 100845Z AUTO 00000KT 10SM CLR 25/25 A2994 RMK AO2

2010/08/10 08:45
KDZB 100845Z AUTO 19003KT 7SM CLR 26/22 A2993 RMK AO2 T02560222

2010/08/10 08:45
KERV 100845Z AUTO 18008KT 10SM CLR 25/22 A2998 RMK AO2 T02470221

2010/08/10 08:45
KGNC 100845Z AUTO 00000KT 10SM CLR 20/19 A3004 RMK AO2 T02000187

2010/08/10 08:47
KGPM 100847Z AUTO 16005KT 10SM CLR 27/21 A2991 RMK AO2

2010/08/10 08:45
KGWB 100845Z AUTO 00000KT 3/4SM BR BKN039 BKN046 22/20 A2997 RMK AO2

2010/08/10 08:45
KHHF 100845Z AUTO 24004KT 10SM CLR 23/19 A2995 RMK AO2 T02310190

2010/08/10 08:45
KINJ 100845Z AUTO 16005KT 10SM CLR 27/21 A2990 RMK AO2 T02670212

2010/08/10 08:45
KJAS 100845Z AUTO 00000KT 7SM CLR 26/25 A2994 RMK AO2 T02560246

2010/08/10 08:45
KJOT 100845Z AUTO 00000KT 7SM SCT039 25/21 A2992 RMK AO2

2010/08/10 08:45
KJSO 100845Z AUTO 21004KT 10SM CLR 27/24 A2994 RMK AO2 T02650240

2010/08/10 08:45
KLBR 100845Z AUTO 00000KT 10SM CLR 24/22 A2990 RMK AO2 T02410216

2010/08/10 08:45
KOXI 100845Z AUTO 00000KT 3SM CLR 22/21 A2993 RMK AO1 T02200209

2010/08/10 08:45
KPNT 100845Z AUTO 00000KT 7SM SCT065 26/24 A2992 RMK AO2 LTG DSNT W

2010/08/10 08:45
PATQ 100845Z AUTO 07017G23KT 10SM OVC005 02/02 A2978 RMK AO2 TSNO $

2010/08/10 08:45
PAOM 100845Z 07007KT 10SM -RA FEW016 BKN042 OVC060 11/10 A2941 RMK AO2 P0001

2010/08/10 08:45
PATQ 100845Z AUTO 07017G23KT 10SM OVC005 02/02 A2978 RMK AO2 TSNO $

2010/08/10 08:46
KELZ 100846Z AUTO 00000KT 2 1/2SM BR FEW039 OVC050 19/18 A3003 RMK AO2

2010/08/10 08:46
KFLD 100846Z AUTO 00000KT 1 1/2SM BR CLR 21/21 A2994 RMK AO2

2010/08/10 08:46
KICR 100846Z AUTO 22013G32KT 2SM +RA BR BKN011 BKN018 OVC050 21/19 A2994 RMK AO2 PK WND 21052/0826 RAB17 P0116 TSNO $

2010/08/10 08:46
KTVR 100846Z AUTO 00000KT 5SM BR SCT004 24/23 A2994 RMK AO2

2010/08/10 08:45
CWWA 100845Z AUTO 35001KT 14/12 RMK AO1 T01370120

2010/08/10 08:46
PGUA 100846Z AUTO 07010KT 10SM SCT020 BKN030 OVC050 27/24 A2993 RMK AO2 CIG 019 RWY24L SLP117 $

2010/08/10 08:45
KDSM 100845Z 15009KT 10SM TS FEW035 BKN075CB OVC090 23/21 A2993 RMK AO2 TSE28B43RAE0756 CONS LTGICCG VC S-SW AND DSNT E-SE TS VC S-SW MOV NE TS MOV E CB DSNT E-SE MOV NE P0000

2010/08/10 08:45
KFNT 100845Z 00000KT 1/2SM FG 18/18 A2995 RMK AO2 RVRNO $

2010/08/10 08:45
KTOL 100845Z 00000KT 3/4SM BR VV001 22/22 A2995 RMK AO2 RVRNO

2010/08/10 08:45
PAOM 100845Z 07007KT 10SM -RA FEW016 BKN042 OVC060 11/10 A2941 RMK AO2 P0001

2010/08/10 08:45
KASX 100845Z AUTO 00000KT 3SM BR CLR 18/18 A2996 RMK AO2

2010/08/10 08:45
KBRD 100845Z AUTO 00000KT 1SM BR CLR 19/17 A2994 RMK AO2

2010/08/10 08:45
KGRB 100845Z AUTO 00000KT 1SM BR VV002 21/20 A2994 RMK AO2 TSNO RVRNO

2010/08/10 08:45
KGRI 100845Z AUTO 33016G27KT 10SM FEW017 23/19 A2989 RMK AO2 PK WND 31027/0836 WSHFT 0825

2010/08/10 08:45
PATQ 100845Z AUTO 07017G23KT 10SM OVC005 02/02 A2978 RMK AO2 TSNO $

2010/08/10 08:45
PATQ 100845Z AUTO 07017G23KT 10SM OVC005 02/02 A2978 RMK AO2 TSNO $

2010/08/10 08:46
KELZ 100846Z AUTO 00000KT 2 1/2SM BR FEW039 OVC050 19/18 A3003 RMK AO2

2010/08/10 08:46
KFLD 100846Z AUTO 00000KT 1 1/2SM BR CLR 21/21 A2994 RMK AO2

2010/08/10 08:46
KICR 100846Z AUTO 22013G32KT 2SM +RA BR BKN011 BKN018 OVC050 21/19 A2994 RMK AO2 PK WND 21052/0826 RAB17 P0116 TSNO $

2010/08/10 08:46
KTVR 100846Z AUTO 00000KT 5SM BR SCT004 24/23 A2994 RMK AO2

2010/08/10 08:45
KCGS 100845Z AUTO 00000KT 10SM CLR 26/22 A2994 RMK AO1

2010/08/10 08:45
KMTN 100845Z AUTO 00000KT 10SM CLR 26/22 A2993 RMK AO2

2010/08/10 08:45
KORG 100845Z AUTO 00000KT 5SM BR CLR 24/24 A2992 RMK AO2

2010/08/10 08:53
KPYX 100853Z AUTO 16005KT 10SM CLR 21/18 A2998 RMK AO2 P0001

2010/08/10 08:55
KCCA 100855Z AUTO 00000KT 3SM BR CLR 26/25 A2993 RMK AO2

2010/08/10 08:45
K1H2 100845Z AUTO 14003KT 7SM CLR 25/24 A2992 RMK AO2 T02530240

2010/08/10 08:45
K3LF 100845Z AUTO 16004KT 7SM CLR 25/23 A2992 RMK AO2

2010/08/10 08:45
K3T5 100845Z AUTO 00000KT 10SM CLR 25/24 A2991 RMK AO2 T02510236

2010/08/10 08:45
KAJG 100845Z AUTO 00000KT 5SM BR CLR 23/23 A2993 RMK AO2 T02330227

2010/08/10 08:45
KALN 100845Z AUTO 00000KT 5SM BR CLR 26/26 A2991 RMK AO2 T02610258

2010/08/10 08:45
KAQO 100845Z AUTO 00000KT CLR 27/23 A2996 RMK AO2 PWINO

2010/08/10 08:45
KARM 100845Z AUTO 00000KT 7SM CLR 26/24 A2992 RMK AO2 T02610238

2010/08/10 08:47
KASW 100847Z AUTO 00000KT 1SM BR SCT002 OVC032 23/23 A2996 RMK AO2 T02270225

2010/08/10 08:45
KAXH 100845Z AUTO 00000KT 5SM BR CLR 24/23 A2991 RMK AO2 T02430234

2010/08/10 08:45
KBBD 100845Z AUTO 17006KT 10SM CLR 26/20 A2996 RMK

2010/08/10 08:45
KBKS 100845Z AUTO 00000KT 7SM CLR 27/26 A2987 RMK AO1 T02730257

2010/08/10 08:47
KBPC 100847Z AUTO 25008KT 10SM CLR 22/16 A2998 RMK AO2

2010/08/10 08:45
KBYY 100845Z AUTO 00000KT 5SM BR CLR 25/25 A2990 RMK AO2 T02500248

2010/08/10 08:45
KCPT 100845Z AUTO 17007KT 10SM CLR 27/21 A2992 RMK AO2

2010/08/10 08:45
KDKB 100845Z AUTO 05003KT 2 1/2SM HZ CLR 23/20 A2995 RMK AO2 T02300202

2010/08/10 08:45
KDKR 100845Z AUTO 00000KT 10SM CLR 25/25 A2994 RMK AO2

2010/08/10 08:45
KDZB 100845Z AUTO 19003KT 7SM CLR 26/22 A2993 RMK AO2 T02560222

2010/08/10 08:45
KERV 100845Z AUTO 18008KT 10SM CLR 25/22 A2998 RMK AO2 T02470221

2010/08/10 08:45
KGNC 100845Z AUTO 00000KT 10SM CLR 20/19 A3004 RMK AO2 T02000187

2010/08/10 08:47
KGPM 100847Z AUTO 16005KT 10SM CLR 27/21 A2991 RMK AO2

2010/08/10 08:45
KGWB 100845Z AUTO 00000KT 3/4SM BR BKN039 BKN046 22/20 A2997 RMK AO2

2010/08/10 08:45
KHHF 100845Z AUTO 24004KT 10SM CLR 23/19 A2995 RMK AO2 T02310190

2010/08/10 08:45
KINJ 100845Z AUTO 16005KT 10SM CLR 27/21 A2990 RMK AO2 T02670212

2010/08/10 08:45
KJAS 100845Z AUTO 00000KT 7SM CLR 26/25 A2994 RMK AO2 T02560246

2010/08/10 08:45
KJOT 100845Z AUTO 00000KT 7SM SCT039 25/21 A2992 RMK AO2

2010/08/10 08:45
KJSO 100845Z AUTO 21004KT 10SM CLR 27/24 A2994 RMK AO2 T02650240

2010/08/10 08:45
KLBR 100845Z AUTO 00000KT 10SM CLR 24/22 A2990 RMK AO2 T02410216

2010/08/10 08:45
KOXI 100845Z AUTO 00000KT 3SM CLR 22/21 A2993 RMK AO1 T02200209

2010/08/10 08:45
KPNT 100845Z AUTO 00000KT 7SM SCT065 26/24 A2992 RMK AO2 LTG DSNT W

2010/08/10 08:46
HLLB 100846Z 30015KT 9999 BKN020 28/15 Q1013

2010/08/10 08:48
KESN 100848Z AUTO 20003KT 10SM CLR 24/23 A2997 RMK AO2

2010/08/10 08:45
KSFY 100845Z AUTO 00000KT 10SM SCT035 24/22 A2994 RMK AO2 LTG DSNT W

2010/08/10 08:45
KCUL 100845Z AUTO 16003KT 3SM BR CLR 23/22 A2993 RMK AO2 T02330216

2010/08/10 08:46
PGUA 100846Z AUTO 07010KT 10SM SCT020 BKN030 OVC050 27/24 A2993

2010/08/10 08:46
PGUA 100846Z AUTO 07010KT 10SM SCT020 BKN030 OVC050 27/24 A2993 RMK AO2 CIG 019 RWY24L SLP117 $

2010/08/10 08:45
KDSM 100845Z 15009KT 10SM TS FEW035 BKN075CB OVC090 23/21 A2993

2010/08/10 08:45
KFNT 100845Z 00000KT 1/2SM FG 18/18 A2995

2010/08/10 08:45
KGRB 100845Z AUTO 00000KT 1SM BR VV002 21/20 A2994

2010/08/10 08:45
KTOL 100845Z 00000KT 3/4SM BR VV001 22/22 A2995

2010/08/10 08:46
HLLB 100846Z 30015KT 9999 BKN020 28/15 Q1013

2010/08/10 08:45
KGRI 100845Z AUTO 33016G27KT 10SM FEW017 23/19 A2989

2010/08/10 08:48
KESN 100848Z AUTO 20003KT 10SM CLR 24/23 A2997

2010/08/10 08:45
KTOL 100845Z 00000KT 3/4SM BR VV001 22/22 A2995

2010/08/10 08:45
KDSM 100845Z 15009KT 10SM TS FEW035 BKN075CB OVC090 23/21 A2993

2010/08/10 08:45
KMTN 100845Z AUTO 00000KT 10SM CLR 26/22 A2993

2010/08/10 08:45
KFNT 100845Z 00000KT 1/2SM FG 18/18 A2995

2010/08/10 08:45
KGRB 100845Z AUTO 00000KT 1SM BR VV002 21/20 A2994

2010/08/10 08:45
KGRI 100845Z AUTO 33016G27KT 10SM FEW017 23/19 A2989

2010/08/10 08:45
KDSM 100845Z 15009KT 10SM TS FEW035 BKN075CB OVC090 23/21 A2993

2010/08/10 08:45
KFNT 100845Z 00000KT 1/2SM FG 18/18 A2995

2010/08/10 08:45
KTOL 100845Z 00000KT 3/4SM BR VV001 22/22 A2995

2010/08/10 08:45
KSMP 100845Z AUTO VRB06KT 1/4SM FG SCT001 BKN006 OVC022 08/08 A2997 RMK AO2 TSNO $ 

2010/08/10 08:47
CYWA 100847Z AUTO 22002KT 1/8SM CLR 13/13 A2991

2010/08/10 08:50
OAKB 100850Z 13004KT 9999 FEW070 BKN140 31/11 Q1012 NOSIG RMK BLU BLU

2010/08/10 08:45
KMWS 100845Z 17005G11KT 15/M19 RMK SNOW DEPTH M 

2010/08/10 08:46
CYCY 100846Z AUTO 00000KT 2 1/4SM CLR 04/04 A2987 RMK VSBY VRBL 1.6V4.0

2010/08/10 08:46
CWLY 100846Z AUTO 18002KT 9SM FEW012 BKN018 BKN031 13/12 A2994

2010/08/10 08:47
KCQT 100847Z AUTO 00000KT 10SM OVC007 18/13 A2990 RMK AO2 SLP123 T01780133 50002 TSNO $ 

2010/08/10 08:47
KENW 100847Z AUTO 00000KT 1SM BR VV008 21/20 A2995 RMK AO2

2010/08/10 08:47
KHIE 100847Z AUTO 00000KT 3SM BR OVC001 17/17 A2994 RMK AO2 P0001

2010/08/10 08:47
KUGN 100847Z AUTO 00000KT 2 1/2SM BR CLR 21/19 A2993 RMK AO2

2010/08/10 08:47
KVSF 100847Z AUTO 00000KT 3/4SM BR OVC001 21/20 A2993 RMK AO2

2010/08/10 08:46
PADE 100846Z AUTO 00000KT 10SM -RA FEW005 OVC046 13/12 A2945 RMK AO2 P0000 TSNO

2010/08/10 08:55
KOLV 100855Z AUTO 00000KT 6SM CLR 24/ A2995 RMK A01 P000

2010/08/10 08:50
OAKB 100850Z 13004KT 9999 FEW070 BKN140 31/11 Q1012 NOSIG RMK BLU BLU

2010/08/10 08:45
PAOM 100845Z 07007KT 10SM -RA FEW016 BKN042 OVC060 11/10 A2941

2010/08/10 08:45
PATQ 100845Z AUTO 07017G23KT 10SM OVC005 02/02 A2978

2010/08/10 08:48
CYZE 100848Z AUTO 00000KT 1 3/4SM BR FEW002 17/17 A2993 RMK SLP136 DENSITY ALT 1000FT

2010/08/10 08:47
CYVM 100847Z AUTO 00000KT 3/8SM FEW001 BKN006 03/03 A2993

2010/08/10 08:45
KSMP 100845Z AUTO VRB06KT 1/4SM FG SCT001 BKN006 OVC022 08/08 A2997

2010/08/10 08:48
CYBN 100848Z AUTO 00000KT 3 1/2SM CLR 20/18 A2994

2010/08/10 08:48
CYUS 100848Z AUTO ///// 9SM CLR 10/ A2992

2010/08/10 08:50
EEKA 100850Z 22009KT 9999 SCT023 BKN034 19/15 Q1013

2010/08/10 08:45
KSMP 100845Z AUTO VRB06KT 1/4SM FG SCT001 BKN006 OVC022 08/08 A2997

2010/08/10 08:45
PAOM 100845Z 07007KT 10SM -RA FEW016 BKN042 OVC060 11/10 A2941

2010/08/10 08:49
CYZP 100849Z AUTO 26009KT 5SM BR SCT013 OVC020 14/13 A3003 RMK SLP170

2010/08/10 08:48
CYFS 100848Z 21002KT 8SM -RA OVC009 OVC025 RMK ST7SC1

2010/08/10 08:45
KCVB 100845Z AUTO 00000KT 10SM BKN010 26/24 A2995 RMK AO2 T02600239

2010/08/10 08:45
KCWC 100845Z AUTO 20006KT 10SM CLR 27/19 A2991 RMK AO2 T02730190

2010/08/10 08:45
KDNV 100845Z AUTO 06007KT 10SM SCT013 SCT045 24/21 A2992 RMK AO2 T02350209

2010/08/10 08:47
KDUX 100847Z AUTO 14005KT 10SM CLR 21/17 A3003 RMK AO2 T02050165

2010/08/10 08:50
KEBG 100850Z AUTO 00000KT 7SM CLR 27/25 A2988 RMK AO2 T02710252

2010/08/10 08:45
KECU 100845Z AUTO 15010G14KT 10SM FEW015 25/22 A3006 RMK AO2

2010/08/10 08:45
KENL 100845Z AUTO 00000KT 4SM BR CLR 24/23 A2992 RMK AO2 T02380230

2010/08/10 08:45
KFEP 100845Z AUTO 00000KT 1/2SM FG VV005 24/22 A2997 RMK AO2 LTG DSNT W T02360216

2010/08/10 08:45
KFOA 100845Z AUTO 00000KT 5SM BR CLR 26/25 A2992 RMK AO2 T02550253

2010/08/10 08:45
KFWC 100845Z AUTO 00000KT 7SM CLR 24/23 A2992 RMK AO2

2010/08/10 08:45
KGBG 100845Z AUTO 17003KT 10SM SCT040 BKN060 BKN095 24/22 A2993 RMK AO2 LTG DSNT E AND NW

2010/08/10 08:45
KGOP 100845Z AUTO 20004KT 10SM CLR 27/22 A2994 RMK AO2

2010/08/10 08:45
KHSB 100845Z AUTO 00000KT 4SM BR CLR 23/22 A2993 RMK AO2

2010/08/10 08:45
KIGQ 100845Z AUTO 00000KT 7SM 24/23 A2992 RMK AO2 PM PWINO

2010/08/10 08:45
KIJX 100845Z AUTO 12003KT 10SM CLR 25/22 A2992 RMK AO2 T02460221

2010/08/10 08:45
KIKK 100845Z AUTO 14004KT 10SM CLR 27/23 A2993 RMK AO2

2010/08/10 08:45
KJDD 100845Z AUTO 00000KT 10SM CLR 27/23 A2992 RMK AO2

2010/08/10 08:45
KJXI 100845Z AUTO 00000KT 10SM CLR 26/24 A2992 RMK AO2

2010/08/10 08:45
KLNC 100845Z AUTO 14003KT 10SM CLR 25/22 A2990 RMK AO2 T02480220

2010/08/10 08:45
KLOT 100845Z AUTO 25/23 RMK AO2 6//// T02450229 PWINO

2010/08/10 08:45
KLUD 100845Z AUTO 20006KT 10SM CLR 28/18 A2991 RMK AO2 T02820183

2010/08/10 08:47
KM30 100847Z AUTO 00000KT 3SM BR CLR 25/23 A2992 RMK AO2

2010/08/10 08:45
KMDD 100845Z AUTO 15005KT 10SM CLR 22/20 A3000 RMK AO2 T02230196

2010/08/10 08:45
KPEQ 100845Z AUTO 04004KT 10SM CLR 23/18 A2996 RMK AO2 T02300180

2010/08/10 08:45
KPEZ 100845Z AUTO 00000KT 10SM CLR 25/23 A2993 RMK AO2 T02500229

2010/08/10 08:49
KPKV 100849Z AUTO 00000KT 10SM CLR 25/24 A2990 RMK AO2 T02520235

2010/08/10 08:45
KPRG 100845Z AUTO 00000KT 5SM BR CLR 25/23 A2992 RMK AO2 T02500238

2010/08/10 08:49
KPSN 100849Z AUTO 00000KT 26/24 A2993 RMK AO2 PWINO

2010/08/10 08:45
KRPJ 100845Z AUTO 00000KT 5SM BR CLR 23/22 A2995 RMK AO2 T02280217

2010/08/10 08:45
KRSV 100845Z AUTO 00000KT 3SM BR CLR 24/23 A2994 RMK AO2 T02350227

2010/08/10 08:45
KMWS 100845Z 17005G11KT 15/M19 RMK SNOW DEPTH M

2010/08/10 08:47
KCQT 100847Z AUTO 00000KT 10SM OVC007 18/13 A2990 RMK AO2 SLP123 T01780133 50002 TSNO $

2010/08/10 08:45
KSMP 100845Z AUTO VRB06KT 1/4SM FG SCT001 BKN006 OVC022 08/08 A2997 RMK AO2 TSNO $

2010/08/10 08:48
KCID 100848Z AUTO 22005KT 6SM BR BKN016 BKN023 BKN060 23/23 A2997 RMK AO2 LTG DSNT ALQDS

2010/08/10 08:48
KIOW 100848Z AUTO 24011KT 10SM TS SCT030 OVC042 25/22 A2999 RMK AO2 LTG DSNT ALQDS TSB19

2010/08/10 08:48
KPGD 100848Z AUTO 10008KT 10SM BKN008 24/23 A2987 RMK AO2 TSNO

2010/08/10 08:50
ETNG 100850Z 21005KT CAVOK 23/13 Q1015 NOSIG

2010/08/10 08:55
KOLV 100855Z AUTO 00000KT 6SM CLR 24/ A2995 RMK A01 P000

2010/08/10 08:45
KCVB 100845Z AUTO 00000KT 10SM BKN010 26/24 A2995 RMK AO2 T02600239

2010/08/10 08:45
KCWC 100845Z AUTO 20006KT 10SM CLR 27/19 A2991 RMK AO2 T02730190

2010/08/10 08:45
KDNV 100845Z AUTO 06007KT 10SM SCT013 SCT045 24/21 A2992 RMK AO2 T02350209

2010/08/10 08:47
KDUX 100847Z AUTO 14005KT 10SM CLR 21/17 A3003 RMK AO2 T02050165

2010/08/10 08:50
KEBG 100850Z AUTO 00000KT 7SM CLR 27/25 A2988 RMK AO2 T02710252

2010/08/10 08:45
KECU 100845Z AUTO 15010G14KT 10SM FEW015 25/22 A3006 RMK AO2

2010/08/10 08:45
KENL 100845Z AUTO 00000KT 4SM BR CLR 24/23 A2992 RMK AO2 T02380230

2010/08/10 08:45
KFEP 100845Z AUTO 00000KT 1/2SM FG VV005 24/22 A2997 RMK AO2 LTG DSNT W T02360216

2010/08/10 08:45
KFOA 100845Z AUTO 00000KT 5SM BR CLR 26/25 A2992 RMK AO2 T02550253

2010/08/10 08:45
KFWC 100845Z AUTO 00000KT 7SM CLR 24/23 A2992 RMK AO2

2010/08/10 08:45
KGBG 100845Z AUTO 17003KT 10SM SCT040 BKN060 BKN095 24/22 A2993 RMK AO2 LTG DSNT E AND NW

2010/08/10 08:45
KGOP 100845Z AUTO 20004KT 10SM CLR 27/22 A2994 RMK AO2

2010/08/10 08:45
KHSB 100845Z AUTO 00000KT 4SM BR CLR 23/22 A2993 RMK AO2

2010/08/10 08:45
KIGQ 100845Z AUTO 00000KT 7SM 24/23 A2992 RMK AO2 PM PWINO

2010/08/10 08:45
KIJX 100845Z AUTO 12003KT 10SM CLR 25/22 A2992 RMK AO2 T02460221

2010/08/10 08:45
KIKK 100845Z AUTO 14004KT 10SM CLR 27/23 A2993 RMK AO2

2010/08/10 08:45
KJDD 100845Z AUTO 00000KT 10SM CLR 27/23 A2992 RMK AO2

2010/08/10 08:45
KJXI 100845Z AUTO 00000KT 10SM CLR 26/24 A2992 RMK AO2

2010/08/10 08:45
KLNC 100845Z AUTO 14003KT 10SM CLR 25/22 A2990 RMK AO2 T02480220

2010/08/10 08:45
KLOT 100845Z AUTO 25/23 RMK AO2 6//// T02450229 PWINO

2010/08/10 08:45
KLUD 100845Z AUTO 20006KT 10SM CLR 28/18 A2991 RMK AO2 T02820183

2010/08/10 08:47
KM30 100847Z AUTO 00000KT 3SM BR CLR 25/23 A2992 RMK AO2

2010/08/10 08:45
KMDD 100845Z AUTO 15005KT 10SM CLR 22/20 A3000 RMK AO2 T02230196

2010/08/10 08:45
KPEQ 100845Z AUTO 04004KT 10SM CLR 23/18 A2996 RMK AO2 T02300180

2010/08/10 08:45
KPEZ 100845Z AUTO 00000KT 10SM CLR 25/23 A2993 RMK AO2 T02500229

2010/08/10 08:49
KPKV 100849Z AUTO 00000KT 10SM CLR 25/24 A2990 RMK AO2 T02520235

2010/08/10 08:45
KPRG 100845Z AUTO 00000KT 5SM BR CLR 25/23 A2992 RMK AO2 T02500238

2010/08/10 08:45
KRPJ 100845Z AUTO 00000KT 5SM BR CLR 23/22 A2995 RMK AO2 T02280217

2010/08/10 08:45
KRSV 100845Z AUTO 00000KT 3SM BR CLR 24/23 A2994 RMK AO2 T02350227

2010/08/10 08:45
KMWS 100845Z 17005G11KT 15/M19 RMK SNOW DEPTH M

2010/08/10 08:47
KCQT 100847Z AUTO 00000KT 10SM OVC007 18/13 A2990 RMK AO2 SLP123 T01780133 50002 TSNO $

2010/08/10 08:49
KPSN 100849Z AUTO 00000KT 26/24 A2993 RMK AO2 PWINO

2010/08/10 08:45
KSMP 100845Z AUTO VRB06KT 1/4SM FG SCT001 BKN006 OVC022 08/08 A2997 RMK AO2 TSNO $

2010/08/10 08:48
KCID 100848Z AUTO 22005KT 6SM BR BKN016 BKN023 BKN060 23/23 A2997 RMK AO2 LTG DSNT ALQDS

2010/08/10 08:47
KENW 100847Z AUTO 00000KT 1SM BR VV008 21/20 A2995 RMK AO2

2010/08/10 08:47
KHIE 100847Z AUTO 00000KT 3SM BR OVC001 17/17 A2994 RMK AO2 P0001

2010/08/10 08:47
KUGN 100847Z AUTO 00000KT 2 1/2SM BR CLR 21/19 A2993 RMK AO2

2010/08/10 08:47
KVSF 100847Z AUTO 00000KT 3/4SM BR OVC001 21/20 A2993 RMK AO2

2010/08/10 08:46
PADE 100846Z AUTO 00000KT 10SM -RA FEW005 OVC046 13/12 A2945 RMK AO2 P0000 TSNO

2010/08/10 08:48
KIOW 100848Z AUTO 24011KT 10SM TS SCT030 OVC042 25/22 A2999 RMK AO2 LTG DSNT ALQDS TSB19

2010/08/10 08:48
KPGD 100848Z AUTO 10008KT 10SM BKN008 24/23 A2987 RMK AO2 TSNO

2010/08/10 08:50
EYPA 100850Z 26004KT 9999 FEW022 21/14 Q1017 NOSIG

2010/08/10 08:48
KIGM 100848Z AUTO 08004KT 10SM SCT100 22/02 A2998 RMK AO2 SLP074 T02220017 55001 TSNO $ 

2010/08/10 08:48
KJDN 100848Z AUTO 26003KT 17/16 A2982 RMK AO2 SLP080 T01670156 PWINO TSNO $ 

2010/08/10 08:50
EEPU 100850Z 21013KT 9999 BKN027 22/16 Q1014

2010/08/10 08:48
PABE 100848Z 16015KT 6SM -RA BR BKN006 BKN017 OVC022 09/09 A2948 RMK AO2 P0003 401060089

2010/08/10 08:49
KDDH 100849Z AUTO 00000KT 3SM BR SCT010 BKN016 OVC032 20/19 A2995 RMK AO2

2010/08/10 08:49
KGRB 100849Z AUTO 00000KT 2SM BR SCT001 21/20 A2994 RMK AO2 TSNO

2010/08/10 08:49
KIAG 100849Z AUTO 00000KT 2 1/2SM BR FEW043 OVC055 22/21 A2993 RMK AO2

2010/08/10 08:49
KMKG 100849Z 00000KT 2SM BR FEW002 21/20 A2995 RMK AO2

2010/08/10 08:49
KPIE 100849Z AUTO 10008KT 10SM SCT013 26/23 A2987 RMK AO2

2010/08/10 08:49
PAWR 100849Z 08007G15KT 1SM -RA BR VV005 12/11 A2987 RMK SLP115 NOSPECI

2010/08/10 08:48
PADL 100848Z 18005KT 3SM -RA BR SCT004 OVC008 09/09 A2963

2010/08/10 08:45
KMWA 100845Z AUTO 00000KT 5SM BR CLR 27/26 A2994 RMK AO2 T02670255

2010/08/10 08:45
KRAS 100845Z AUTO 20006KT 9SM CLR 29/27 A2991 RMK AO2

2010/08/10 08:45
KRBO 100845Z AUTO 00000KT 10SM CLR 27/26 A2989 RMK AO2 T02680255

2010/08/10 08:48
KRCR 100848Z AUTO 00000KT 1/2SM FG BKN033 24/24 A2995 RMK AO2

2010/08/10 08:45
KRPH 100845Z AUTO 00000KT 10SM CLR 26/18 A2990 RMK AO2 T02570180

2010/08/10 08:45
KRYW 100845Z AUTO 18005KT M1/4SM HZ VV000 26/23 A2996 RMK AO2

2010/08/10 08:45
KSAR 100845Z AUTO 00000KT 7SM CLR 26/25 A2992 RMK AO2

2010/08/10 08:45
KSLO 100845Z AUTO 00000KT 5SM BR CLR 25/23 A2993 RMK AO2 T02490233

2010/08/10 08:46
KSNK 100846Z AUTO 20005KT 10SM BKN060 BKN070 22/20 A2998 RMK AO2 T02150200

2010/08/10 08:45
KSWW 100845Z AUTO 17008KT 10SM CLR 25/21 A2999 RMK AO1 T02500206

2010/08/10 08:45
KT65 100845Z AUTO 18003KT 7SM SCT016 28/26 A2987 RMK AO2 T02770260

2010/08/10 08:45
KT82 100845Z AUTO 22004KT 10SM CLR 25/21 A2999 RMK AO1 T02450212

2010/08/10 08:45
KTAZ 100845Z AUTO 14004KT 10SM CLR 25/24 A2991 RMK AO2

2010/08/10 08:45
KTIP 100845Z AUTO 05004KT 7SM CLR 26/25 A2994 RMK AO2 T02550245

2010/08/10 08:45
KTYQ 100845Z AUTO 00000KT 7SM OVC110 23/22 A2996 RMK AO2

2010/08/10 08:45
KUVA 100845Z AUTO 13003KT 10SM CLR 26/23 A2994 RMK AO2 T02620230

2010/08/10 08:46
KXBP 100846Z AUTO 00000KT 10SM CLR 27/20 A2991 RMK AO2 T02650196

2010/08/10 08:50
EETN 100850Z 24012KT 9999 FEW026CB SCT039 BKN054 21/15 Q1013 NOSIG

2010/08/10 08:50
EYKA 100850Z 18003KT 140V240 CAVOK 23/17 Q1017

2010/08/10 09:00
MDPP 100900Z 00000KT 9999 FEW016 25/24 Q1013

2010/08/10 09:00
MDST 100900Z 00000KT 9999 FEW016 23/23 Q1012

2010/08/10 09:00
MDPC 100900Z 00000KT 9999 -TS FEW018CB SCT018 26/24 Q1011 CB/NE/E/N

2010/08/10 09:00
MDSD 100900Z VRB03KT 9999 +TS FEW016CB SCT018 24/22 Q1012 CB/NE/E/SE/N

2010/08/10 08:50
EYVI 100850Z VRB03KT 9999 SCT034 BKN120 22/15 Q1017 NOSIG

2010/08/10 08:45
K1H2 100845Z AUTO 14003KT 7SM CLR 25/24 A2992

2010/08/10 08:45
KDKB 100845Z AUTO 05003KT 2 1/2SM HZ CLR 23/20 A2995

2010/08/10 08:45
KDNV 100845Z AUTO 06007KT 10SM SCT013 SCT045 24/21 A2992

2010/08/10 08:45
KENL 100845Z AUTO 00000KT 4SM BR CLR 24/23 A2992

2010/08/10 08:45
KFEP 100845Z AUTO 00000KT 1/2SM FG VV005 24/22 A2997

2010/08/10 08:45
KFOA 100845Z AUTO 00000KT 5SM BR CLR 26/25 A2992

2010/08/10 08:45
KFWC 100845Z AUTO 00000KT 7SM CLR 24/23 A2992

2010/08/10 08:45
KGBG 100845Z AUTO 17003KT 10SM SCT040 BKN060 BKN095 24/22 A2993

2010/08/10 08:45
KHSB 100845Z AUTO 00000KT 4SM BR CLR 23/22 A2993

2010/08/10 08:45
KIGQ 100845Z AUTO 00000KT 7SM 24/23 A2992

2010/08/10 08:45
KIJX 100845Z AUTO 12003KT 10SM CLR 25/22 A2992

2010/08/10 08:45
KIKK 100845Z AUTO 14004KT 10SM CLR 27/23 A2993

2010/08/10 08:45
KJOT 100845Z AUTO 00000KT 7SM SCT039 25/21 A2992

2010/08/10 08:45
KLOT 100845Z AUTO 25/23

2010/08/10 08:45
KPNT 100845Z AUTO 00000KT 7SM SCT065 26/24 A2992

2010/08/10 08:45
KPRG 100845Z AUTO 00000KT 5SM BR CLR 25/23 A2992

2010/08/10 08:49
CYVM 100849Z AUTO 00000KT 1SM FEW001 BKN006 02/02 A2993

2010/08/10 08:46
HLLB 100846Z 30015KT 9999 BKN020 28/15 Q1013

2010/08/10 08:45
LMML 100845Z VRB03KT CAVOK 30/14 Q1016 NOSIG 

2010/08/10 08:50
EYKA 100850Z 18003KT 140V240 CAVOK 23/17 Q1017

2010/08/10 08:50
EYPA 100850Z 26004KT 9999 FEW022 21/14 Q1017 NOSIG

2010/08/10 08:50
EETU 100850Z AUTO 25010KT 9999NDV NCD 23/16 Q1015

2010/08/10 08:50
EETN 100850Z 24012KT 9999 FEW026CB SCT039 BKN054 21/15 Q1013 NOSIG

2010/08/10 08:45
KBYY 100845Z AUTO 00000KT 5SM BR CLR 25/25 A2990

2010/08/10 08:48
KCID 100848Z AUTO 22005KT 6SM BR BKN016 BKN023 BKN060 23/23 A2997

2010/08/10 08:45
KLNC 100845Z AUTO 14003KT 10SM CLR 25/22 A2990

2010/08/10 08:50
CYBU 100850Z AUTO 12003KT 3SM BR CLR 12/12 A2988 RMK SLP125 VIS VRB 5/8-3

2010/08/10 08:48
KIGM 100848Z AUTO 08004KT 10SM SCT100 22/02 A2998

2010/08/10 08:48
KJDN 100848Z AUTO 26003KT 17/16 A2982

2010/08/10 08:45
KMWS 100845Z 17005G11KT 15/M19

2010/08/10 08:48
KCID 100848Z AUTO 22005KT 6SM BR BKN016 BKN023 BKN060 23/23 A2997

2010/08/10 08:45
KALN 100845Z AUTO 00000KT 5SM BR CLR 26/26 A2991

2010/08/10 08:45
KIKK 100845Z AUTO 14004KT 10SM CLR 27/23 A2993

2010/08/10 08:48
KCID 100848Z AUTO 22005KT 6SM BR BKN016 BKN023 BKN060 23/23 A2997

2010/08/10 08:50
CYOY 100850Z AUTO 00000KT 1/4SM SCT007 BKN073 12/10 A2986

2010/08/10 08:46
CWLY 100846Z AUTO 18002KT 9SM FEW012 BKN018 BKN031 13/12 A2994

2010/08/10 08:46
CWOB 100846Z AUTO ///// 1/8SM CLR 03/ A2979

2010/08/10 08:45
CYCB 100845Z 08014G19KT 6SM BR OVC004 RMK SF8

2010/08/10 08:46
CYCY 100846Z AUTO 00000KT 2 1/4SM CLR 04/04 A2987 RMK VSBY VRBL 1.6V4.0

2010/08/10 08:48
CYFS 100848Z 21002KT 8SM -RA OVC009 OVC025 RMK ST7SC1

2010/08/10 08:45
CYGW 100845Z 25002KT 1/2SM -DZ FG VV001 RMK FG8

2010/08/10 08:46
CYMO 100846Z AUTO 01003KT 9SM FEW005 OVC014 10/10 A2997

2010/08/10 08:46
CYSF 100846Z AUTO 09003KT 1 1/2SM BR FEW007 OVC018 14/14 A2989 RMK SLP129 DENSITY ALT 900FT

2010/08/10 08:48
CYUS 100848Z AUTO ///// 9SM CLR 10/ A2992

2010/08/10 08:47
CYVM 100847Z AUTO 00000KT 3/8SM FEW001 BKN006 03/03 A2993

2010/08/10 08:49
CYVM 100849Z AUTO 00000KT 1SM FEW001 BKN006 02/02 A2993

2010/08/10 08:47
CYWA 100847Z AUTO 22002KT 1/8SM CLR 13/13 A2991

2010/08/10 08:48
CYZE 100848Z AUTO 00000KT 1 3/4SM BR FEW002 17/17 A2993 RMK SLP136 DENSITY ALT 1000FT

2010/08/10 08:49
CYZP 100849Z AUTO 26009KT 5SM BR SCT013 OVC020 14/13 A3003 RMK SLP170

2010/08/10 08:48
EHKD 100848Z AUTO 22014KT 9999NDV SCT011/// BKN013/// OVC016/// 18/16 Q1011 GRN WHT TEMPO GRN TEMPO SCT012 SCT015CB BKN020

2010/08/10 08:48
EHVL 100848Z AUTO 21017KT 9999NDV FEW009 SCT013 BKN016 18/15 Q1011 GRN

2010/08/10 08:48
KVOK 100848Z 00000KT 1/4SM R27/0700V1000FT FG CLR 18/18 A2996 RMK AO2A SLP139

2010/08/10 08:47
PGUA 100847Z AUTO 07009KT 10SM -RA SCT020 BKN030 OVC050 27/24 A2993 RMK AO2 RAB0847 CIG 019 RWY24L SLP117 $

2010/08/10 08:47
RJCC 100847Z 18011KT 2300 BR FEW001 SCT002 BKN003 22/20 Q1013 RMK 1ST001 3ST002 7ST003 A2992

2010/08/10 08:47
RODN 100847Z 20006KT 9999 -RA BKN016 BKN140 29/26 A2980 RMK AO2A RAE0811B0830 CIG 015V021 BKN016 V SCT SLP092

2010/08/10 08:50
KQEN 100850Z AUTO 27008KT 3SM RA BKN031 22/20 A3041 RMK A02

2010/08/10 08:50
KQES 100850Z AUTO 34001KT 7SM -SHRA BKN029 25/23 A2978 RMK A02

2010/08/10 08:50
KQEY 100850Z AUTO 08002KT 3SM -RA OVC045 26/23 A2952 RMK A02

2010/08/10 08:55
KQAJ 100855Z 04004G13KT 9999 CLR 43/06 A2968 RMK SLP031 WND DATA ESTMD ALSTG/SLP ESTMD 58005

2010/08/10 09:00
KQEV 100900Z AUTO 10001KT 4SM -SHRA BKN008 BKN075 BKN100 27/24 A2972 RMK A02

2010/08/10 09:00
ZMUB 100900Z 36002MPS 9999 FEW030CB SCT033 27/01 Q1004 NOSIG RMK QFE646.8 18

2010/08/10 08:50
CYVM 100850Z AUTO 00000KT 1SM FEW001 SCT006 02/02 A2993 RMK VSBY VRBL 0.4V8.0

2010/08/10 08:51
KSAN 100851Z 00000KT 10SM OVC015 18/14 A2992 RMK AO2 SLP130 T01780139 58002 

2010/08/10 08:48
PAPO 100848Z 02012KT 10SM CLR 10/07 A2951 RMK VIA PHONE

2010/08/10 08:48
KTFP 100848Z AUTO 19005KT 10SM CLR 29/26 A2988 RMK AO2

2010/08/10 08:50
PGWT 100850Z 06002KT 7SM SCT015CB BKN100 27/25 A2992 RMK CB NE AND E MOV NW WIND DATA ESTIMATED

2010/08/10 08:49
PANT 100849Z AUTO 13005KT 1/4SM FG OVC001 12/11 A3002 RMK AO2 401610122 TSNO

2010/08/10 08:50
KCEW 100850Z AUTO 00000KT 2 1/2SM BR CLR 23/22 A2993 RMK AO2

2010/08/10 08:50
KCKB 100850Z AUTO 00000KT 1 1/2SM BR CLR 18/18 A3002 RMK AO2 TSNO

2010/08/10 08:50
KENW 100850Z AUTO 00000KT 2SM BR FEW008 21/21 A2995 RMK AO2

2010/08/10 08:50
KICR 100850Z AUTO 24013G30KT 2 1/2SM RA BR BKN017 BKN037 OVC050 21/19 A2992 RMK AO2 PK WND 21052/0826 RAB17 P0117 TSNO $

2010/08/10 08:50
KIMT 100850Z AUTO 00000KT 1 3/4SM BR OVC002 19/18 A2997 RMK AO2

2010/08/10 08:50
KMKL 100850Z AUTO 00000KT 3SM BR CLR 26/24 A2995 RMK AO2

2010/08/10 08:50
KOTM 100850Z AUTO 32011KT 2 1/2SM +TSRA BR FEW024 BKN050 OVC060 22/21 A3000 RMK AO2 WSHFT 0831 VIS 1 1/4V5 LTG DSNT ALQDS TSE18B37RAB22 P0008

2010/08/10 08:50
KTAN 100850Z AUTO 00000KT 3SM -RA BR SCT120 21/21 A2990 RMK AO2 RAB21 P0001

2010/08/10 08:50
KTDZ 100850Z AUTO 00000KT 3/4SM BR CLR 23/22 A2996 RMK AO2

2010/08/10 08:50
KVTN 100850Z AUTO 27008KT 10SM -RA SCT029 19/18 A2989 RMK AO2 LTG DSNT E TSE0753 P0007

2010/08/10 08:50
KYIP 100850Z 00000KT 1/4SM FG SCT001 BKN025 21/19 A2996 RMK AO2 RVRNO

2010/08/10 08:48
KEHA 100848Z AUTO 28005KT 22/17 RMK AO1 PK WND 08 000 T02220167

2010/08/10 08:48
KIGM 100848Z AUTO 08004KT 10SM SCT100 22/02 A2998 RMK AO2 SLP074 T02220017 55001 TSNO $

2010/08/10 08:48
KJDN 100848Z AUTO 26003KT 17/16 A2982 RMK AO2 SLP080 T01670156 PWINO TSNO $

2010/08/10 08:51
KSAN 100851Z 00000KT 10SM OVC015 18/14 A2992 RMK AO2 SLP130 T01780139 58002

2010/08/10 08:50
EYSA 100850Z 27008KT 9999 BKN015 20/16 Q1017

2010/08/10 09:00
SBSJ 100900Z 00000KT 3000 BR BKN006 12/11 Q1024

2010/08/10 08:50
PGWT 100850Z 06002KT 7SM SCT015CB BKN100 27/25 A2992 RMK CB NE AND E MOV NW WIND DATA ESTIMATED

2010/08/10 08:50
PGWT 100850Z 06002KT 7SM SCT015CB BKN100 27/25 A2992 RMK CB NE AND E MOV NW WIND DATA ESTIMATED

2010/08/10 08:49
KIAG 100849Z AUTO 00000KT 2 1/2SM BR FEW043 OVC055 22/21 A2993 RMK AO2

2010/08/10 08:48
KVOK 100848Z 00000KT 1/4SM R27/0700V1000FT FG CLR 18/18 A2996 RMK AO2A SLP139

2010/08/10 08:47
PGUA 100847Z AUTO 07009KT 10SM -RA SCT020 BKN030 OVC050 27/24 A2993 RMK AO2 RAB0847 CIG 019 RWY24L SLP117 $

2010/08/10 08:49
KDDH 100849Z AUTO 00000KT 3SM BR SCT010 BKN016 OVC032 20/19 A2995 RMK AO2

2010/08/10 08:49
KGRB 100849Z AUTO 00000KT 2SM BR SCT001 21/20 A2994 RMK AO2 TSNO

2010/08/10 08:49
KPIE 100849Z AUTO 10008KT 10SM SCT013 26/23 A2987 RMK AO2

2010/08/10 08:50
KCEW 100850Z AUTO 00000KT 2 1/2SM BR CLR 23/22 A2993 RMK AO2

2010/08/10 08:50
KCKB 100850Z AUTO 00000KT 1 1/2SM BR CLR 18/18 A3002 RMK AO2 TSNO

2010/08/10 08:50
KENW 100850Z AUTO 00000KT 2SM BR FEW008 21/21 A2995 RMK AO2

2010/08/10 08:50
KICR 100850Z AUTO 24013G30KT 2 1/2SM RA BR BKN017 BKN037 OVC050 21/19 A2992 RMK AO2 PK WND 21052/0826 RAB17 P0117 TSNO $

2010/08/10 08:50
KIMT 100850Z AUTO 00000KT 1 3/4SM BR OVC002 19/18 A2997 RMK AO2

2010/08/10 08:50
KMKL 100850Z AUTO 00000KT 3SM BR CLR 26/24 A2995 RMK AO2

2010/08/10 08:50
KOTM 100850Z AUTO 32011KT 2 1/2SM +TSRA BR FEW024 BKN050 OVC060 22/21 A3000 RMK AO2 WSHFT 0831 VIS 1 1/4V5 LTG DSNT ALQDS TSE18B37RAB22 P0008

2010/08/10 08:50
KTAN 100850Z AUTO 00000KT 3SM -RA BR SCT120 21/21 A2990 RMK AO2 RAB21 P0001

2010/08/10 08:50
KTDZ 100850Z AUTO 00000KT 3/4SM BR CLR 23/22 A2996 RMK AO2

2010/08/10 08:50
KYIP 100850Z 00000KT 1/4SM FG SCT001 BKN025 21/19 A2996 RMK AO2 RVRNO

2010/08/10 08:48
PABE 100848Z 16015KT 6SM -RA BR BKN006 BKN017 OVC022 09/09 A2948 RMK AO2 P0003 401060089

2010/08/10 08:49
KMKG 100849Z 00000KT 2SM BR FEW002 21/20 A2995 RMK AO2

2010/08/10 08:49
PANT 100849Z AUTO 13005KT 1/4SM FG OVC001 12/11 A3002 RMK AO2 401610122 TSNO

2010/08/10 08:50
KVTN 100850Z AUTO 27008KT 10SM -RA SCT029 19/18 A2989 RMK AO2 LTG DSNT E TSE0753 P0007

2010/08/10 08:48
KIGM 100848Z AUTO 08004KT 10SM SCT100 22/02 A2998 RMK AO2 SLP074 T02220017 55001 TSNO $

2010/08/10 08:48
KJDN 100848Z AUTO 26003KT 17/16 A2982 RMK AO2 SLP080 T01670156 PWINO TSNO $

2010/08/10 08:51
KSAN 100851Z 00000KT 10SM OVC015 18/14 A2992 RMK AO2 SLP130 T01780139 58002

2010/08/10 08:48
KEHA 100848Z AUTO 28005KT 22/17 RMK AO1 PK WND 08 000 T02220167

2010/08/10 08:49
PAWR 100849Z 08007G15KT 1SM -RA BR VV005 12/11 A2987 RMK SLP115 NOSPECI

2010/08/10 08:48
PADL 100848Z 18005KT 3SM -RA BR SCT004 OVC008 09/09 A2963

2010/08/10 08:45
KMWA 100845Z AUTO 00000KT 5SM BR CLR 27/26 A2994 RMK AO2 T02670255

2010/08/10 08:45
KRAS 100845Z AUTO 20006KT 9SM CLR 29/27 A2991 RMK AO2

2010/08/10 08:45
KRBO 100845Z AUTO 00000KT 10SM CLR 27/26 A2989 RMK AO2 T02680255

2010/08/10 08:48
KRCR 100848Z AUTO 00000KT 1/2SM FG BKN033 24/24 A2995 RMK AO2

2010/08/10 08:45
KRPH 100845Z AUTO 00000KT 10SM CLR 26/18 A2990 RMK AO2 T02570180

2010/08/10 08:45
KRYW 100845Z AUTO 18005KT M1/4SM HZ VV000 26/23 A2996 RMK AO2

2010/08/10 08:45
KSAR 100845Z AUTO 00000KT 7SM CLR 26/25 A2992 RMK AO2

2010/08/10 08:45
KSLO 100845Z AUTO 00000KT 5SM BR CLR 25/23 A2993 RMK AO2 T02490233

2010/08/10 08:46
KSNK 100846Z AUTO 20005KT 10SM BKN060 BKN070 22/20 A2998 RMK AO2 T02150200

2010/08/10 08:45
KSWW 100845Z AUTO 17008KT 10SM CLR 25/21 A2999 RMK AO1 T02500206

2010/08/10 08:45
KT65 100845Z AUTO 18003KT 7SM SCT016 28/26 A2987 RMK AO2 T02770260

2010/08/10 08:45
KT82 100845Z AUTO 22004KT 10SM CLR 25/21 A2999 RMK AO1 T02450212

2010/08/10 08:45
KTAZ 100845Z AUTO 14004KT 10SM CLR 25/24 A2991 RMK AO2

2010/08/10 08:45
KTIP 100845Z AUTO 05004KT 7SM CLR 26/25 A2994 RMK AO2 T02550245

2010/08/10 08:45
KTYQ 100845Z AUTO 00000KT 7SM OVC110 23/22 A2996 RMK AO2

2010/08/10 08:45
KUVA 100845Z AUTO 13003KT 10SM CLR 26/23 A2994 RMK AO2 T02620230

2010/08/10 08:46
KXBP 100846Z AUTO 00000KT 10SM CLR 27/20 A2991 RMK AO2 T02650196

2010/08/10 08:48
PAPO 100848Z 02012KT 10SM CLR 10/07 A2951 RMK VIA PHONE

2010/08/10 08:48
KTFP 100848Z AUTO 19005KT 10SM CLR 29/26 A2988 RMK AO2

2010/08/10 08:47
PGUA 100847Z AUTO 07009KT 10SM -RA SCT020 BKN030 OVC050 27/24 A2993

2010/08/10 08:47
RODN 100847Z 20006KT 9999 -RA BKN016 BKN140 29/26 A2980 RMK AO2A RAE0811B0830 CIG 015V021 BKN016 V SCT SLP092

2010/08/10 08:47
RJCC 100847Z 18011KT 2300 BR FEW001 SCT002 BKN003 22/20 Q1013 RMK 1ST001 3ST002 7ST003 A2992

2010/08/10 08:45
LMML 100845Z VRB03KT CAVOK 30/14 Q1016 NOSIG

2010/08/10 08:48
EHVL 100848Z AUTO 21017KT 9999NDV FEW009 SCT013 BKN016 18/15 Q1011 GRN

2010/08/10 08:48
EHKD 100848Z AUTO 22014KT 9999NDV SCT011/// BKN013/// OVC016/// 18/16 Q1011 GRN WHT TEMPO GRN TEMPO SCT012 SCT015CB BKN020

2010/08/10 08:47
PGUA 100847Z AUTO 07009KT 10SM -RA SCT020 BKN030 OVC050 27/24 A2993 RMK AO2 RAB0847 CIG 019 RWY24L SLP117 $

2010/08/10 08:49
KIAG 100849Z AUTO 00000KT 2 1/2SM BR FEW043 OVC055 22/21 A2993

2010/08/10 08:47
RODN 100847Z 20006KT 9999 -RA BKN016 BKN140 29/26 A2980 RMK AO2A RAE0811B0830 CIG 015V021 BKN016 V SCT SLP092

2010/08/10 08:49
KPIE 100849Z AUTO 10008KT 10SM SCT013 26/23 A2987

2010/08/10 08:49
KGRB 100849Z AUTO 00000KT 2SM BR SCT001 21/20 A2994

2010/08/10 08:49
KMKG 100849Z 00000KT 2SM BR FEW002 21/20 A2995

2010/08/10 08:49
KIAG 100849Z AUTO 00000KT 2 1/2SM BR FEW043 OVC055 22/21 A2993

2010/08/10 08:49
KPIE 100849Z AUTO 10008KT 10SM SCT013 26/23 A2987

2010/08/10 08:50
EEKE 100850Z 24013KT 9999 BKN021 20/16 Q1014

2010/08/10 08:50
EYSA 100850Z 27008KT 9999 BKN015 20/16 Q1017

2010/08/10 08:50
EYVI 100850Z VRB03KT 9999 SCT034 BKN120 22/15 Q1017 NOSIG

2010/08/10 08:46
HLLB 100846Z 30015KT 9999 BKN020 28/15 Q1013

2010/08/10 08:45
LMML 100845Z VRB03KT CAVOK 30/14 Q1016 NOSIG 

2010/08/10 08:50
LLBG 100850Z 29008KT 9999 FEW030 31/21 Q1007 NOSIG

2010/08/10 08:50
LLOV 100850Z 01004KT CAVOK 32/17 Q1009

2010/08/10 08:50
LLET 100850Z 03014KT CAVOK 35/18 Q1005

2010/08/10 08:50
LLHA 100850Z 28008KT 9999 FEW025 31/21 Q1007

2010/08/10 08:50
LLIB 100850Z 13005KT CAVOK 31/20 Q1008

2010/08/10 08:50
LLSD 100850Z 27009KT 9999 FEW025 30/22 Q1007

2010/08/10 08:49
KGRB 100849Z AUTO 00000KT 2SM BR SCT001 21/20 A2994

2010/08/10 08:49
KMKG 100849Z 00000KT 2SM BR FEW002 21/20 A2995

2010/08/10 08:49
KMKG 100849Z 00000KT 2SM BR FEW002 21/20 A2995

2010/08/10 08:48
PABE 100848Z 16015KT 6SM -RA BR BKN006 BKN017 OVC022 09/09 A2948

2010/08/10 08:55
KBLV 100855Z AUTO 17003KT 10SM CLR 26/26 A2991 RMK AO2 SLP124 T02580256 58008

2010/08/10 08:55
KMGE 100855Z AUTO 34003KT 10SM CLR 25/21 A3002 RMK AO2 SLP153 T02520214 56004 $

2010/08/10 08:50
LLBG 100850Z 29008KT 9999 FEW030 31/21 Q1007 NOSIG

2010/08/10 08:50
LLET 100850Z 03014KT CAVOK 35/18 Q1005

2010/08/10 08:50
LLOV 100850Z 01004KT CAVOK 32/17 Q1009

2010/08/10 09:00
MDPC 100900Z 00000KT 9999 -TS FEW018CB SCT018 26/24 Q1011 CB/NE/E/N

2010/08/10 09:00
MDPP 100900Z 00000KT 9999 FEW016 25/24 Q1013

2010/08/10 09:00
MDSD 100900Z VRB03KT 9999 +TS FEW016CB SCT018 24/22 Q1012 CB/NE/E/SE/N

2010/08/10 09:00
MDST 100900Z 00000KT 9999 FEW016 23/23 Q1012

2010/08/10 09:00
MPTO 100900Z 00000KT 9999 SCT018CB 27/25 Q1010 NOSIG

2010/08/10 08:50
OAKB 100850Z 13004KT 9999 FEW070 BKN140 31/11 Q1012 NOSIG RMK BLU BLU

2010/08/10 09:00
MDSD 100900Z VRB03KT 9999 +TS FEW016CB SCT018 24/22 Q1012 CB/NE/E/SE/N

2010/08/10 09:00
MPTO 100900Z 00000KT 9999 SCT018CB 27/25 Q1010 NOSIG

2010/08/10 08:50
CYMH 100850Z AUTO 22014KT 9SM BKN014 BKN056 16/14 A2957

2010/08/10 08:51
KCRP 100851Z 00000KT 10SM FEW017 26/25 A2989 RMK AO2 SLP121 T02610250 58012 

2010/08/10 08:51
KBVE 100851Z AUTO 27004KT CLR 26/24 A2991 RMK AO2 SLP128 T02560244 56004 TSNO $ 

2010/08/10 08:50
LXGB 100850Z 00000KT CAVOK 27/16 Q1017 NOSIG

2010/08/10 08:51
KCON 100851Z AUTO 00000KT 2 1/2SM BR BKN060 21/20 A2990 RMK AO2 SLP122 T02060200 55002 

2010/08/10 08:51
KHSE 100851Z AUTO 25007KT 10SM FEW049 25/25 A2999 RMK AO2 SLP157 T02500250 57006 TSNO 

2010/08/10 08:52
CYTZ 100852Z AUTO 31003KT 2 1/4SM FEW046 OVC061 20/20 A2992 RMK SLP131 DENSITY ALT 800FT RVR MISG

2010/08/10 08:51
KNYC 100851Z 00000KT 10SM CLR 26/18 A2994 RMK AO2 SLP129 T02610183 50000 $ 

2010/08/10 08:51
KAHN 100851Z AUTO 00000KT 5SM BR CLR 22/21 A3002 RMK AO2 SLP156 T02220211 55007

2010/08/10 08:51
KBAZ 100851Z AUTO 20005KT 10SM FEW013 24/23 A2992 RMK AO2 SLP122 T02440233 56013

2010/08/10 08:51
KBGD 100851Z AUTO 23007KT 10SM CLR 23/16 A3001 RMK AO2 SLP112 T02280156 50002

2010/08/10 08:51
KCSG 100851Z AUTO 09003KT 8SM CLR 25/19 A2997 RMK AO2 SLP143 T02500194 55002 TSNO

2010/08/10 08:51
KEKN 100851Z AUTO 00000KT 2 1/2SM BR SCT001 17/16 A3008 RMK AO2 SLP173 T01670161 53001 TSNO

2010/08/10 08:51
KELP 100851Z 13010KT 10SM FEW160 25/15 A3003 RMK AO2 SLP086 T02500150 50002

2010/08/10 08:51
KHDO 100851Z AUTO 15003KT 10SM FEW013 26/24 A2996 RMK AO2 SLP127 T02560239 56012

2010/08/10 08:51
KMDW 100851Z 14003KT 10SM FEW040 OVC250 26/21 A2992 RMK AO2 SLP119 OCNL LTGIC DSNT S CB DSNT S 6//// T02560211 58008 PNO

2010/08/10 08:51
KORD 100851Z 00000KT 10SM BKN200 25/23 A2992 RMK AO2 SLP126 T02500228 58009

2010/08/10 08:51
KOTM 100851Z AUTO 32012KT 2SM +TSRA BR SCT022 BKN050 OVC060 22/21 A3001 RMK AO2 WSHFT 0831 LTG DSNT ALQDS TSE18B37RAB22 SLP153 P0010 60010 T02170211 53036

2010/08/10 08:51
KPHX 100851Z 00000KT 10SM FEW120 33/11 A2980 RMK AO2 SLP069 T03330111 51002 $

2010/08/10 08:51
KRDU 100851Z 23003KT 8SM FEW150 SCT250 24/22 A3001 RMK AO2 SLP156 T02390217 55003

2010/08/10 08:51
KROW 100851Z AUTO 12004KT 10SM CLR 20/17 A3003 RMK AO2 SLP100 T02000172 56001 TSNO

2010/08/10 08:51
KSAN 100851Z 00000KT 10SM OVC015 18/14 A2992 RMK AO2 SLP130 T01780139 58002

2010/08/10 08:51
KSTL 100851Z 19003KT 10SM SCT250 29/24 A2991 RMK AO2 SLP112 T02940244 57011

2010/08/10 08:47
K1F0 100847Z AUTO 00000KT 10SM CLR 26/21 A2989 RMK AO2

2010/08/10 08:48
K4O4 100848Z AUTO 00000KT 10SM CLR 24/22 A2992 RMK AO2

2010/08/10 08:51
KACT 100851Z 21008KT 10SM CLR 28/23 A2990 RMK AO2 SLP114 T02780228 56013 $

2010/08/10 08:51
KALB 100851Z 21003KT 2SM BR SCT019 SCT055 BKN080 21/21 A2994 RMK AO2 SLP136 T02110206 55000

2010/08/10 08:51
KASH 100851Z AUTO 24003KT 3SM BR CLR 22/21 A2990 RMK AO2 56006 60004 T02160211 SLP125

2010/08/10 08:51
KAVX 100851Z AUTO 12006KT 1/4SM FG VV001 12/12 A2992 RMK AO2 SLP121 P0001 60001 T01220122 58004 TSNO

2010/08/10 08:51
KBDL 100851Z 00000KT 3SM BR FEW004 BKN090 OVC200 22/21 A2992 RMK AO2 RAE13 SLP129 P0000 60006 T02220211 55002

2010/08/10 08:51
KBKW 100851Z AUTO 00000KT 6SM HZ CLR 19/17 A3010 RMK AO2 SLP152 T01940167 57002 $

2010/08/10 08:51
KCLE 100851Z 25004KT 6SM BR FEW250 23/21 A2996 RMK AO2 SLP139 8/001 T02280206 50002

2010/08/10 08:51
KCMH 100851Z 00000KT 10SM FEW075 SCT150 24/21 A2997 RMK AO2 SLP140 T02390206 55000

2010/08/10 08:51
KDAW 100851Z AUTO 30004KT 10SM CLR 21/19 A2988 RMK AO2 RAE0759 SLP114 P0001 60002 T02060189 55006

2010/08/10 08:51
KDUA 100851Z AUTO 00000KT 10SM CLR 27/21 A2991 RMK AO2

2010/08/10 08:53
KDUC 100853Z AUTO 13004KT 10SM CLR 26/21 A2992 RMK AO2

2010/08/10 08:51
KERI 100851Z 16003KT 5SM HZ BKN050 BKN060 23/21 A2994 RMK AO2 RAB11E27 SLP132 P0000 60000 T02330206 56006

2010/08/10 08:51
KEWR 100851Z 25004KT 10SM FEW050 BKN150 OVC250 27/18 A2991 RMK AO2 RAE20 SLP129 P0000 60000 T02670183 58000 $

2010/08/10 08:52
KGLS 100852Z AUTO 28003KT 10SM FEW024 29/26 A2992 RMK AO2 SLP131 T02890256 55005

2010/08/10 08:55
KGLY 100855Z AUTO 20004KT 10SM CLR 27/24 A2991 RMK AO2

2010/08/10 08:52
KHRL 100852Z AUTO 12004KT 10SM CLR 26/26 A2987 RMK AO2 SLP114 T02560256 58014

2010/08/10 08:51
KHTS 100851Z 00000KT 2 1/2SM BR CLR 21/20 A2998 RMK AO2 SLP143 T02110200 53000

2010/08/10 08:51
KILG 100851Z 17003KT 9SM FEW080 24/22 A2993 RMK AO2 SLP133 T02390217 56007

2010/08/10 08:48
KIZA 100848Z AUTO 00000KT 10SM SCT009 12/10 A2991 RMK AO2

2010/08/10 08:51
KJFK 100851Z 25006KT 9SM FEW060 BKN140 OVC250 25/20 A2992 RMK AO2 SLP133 T02500200 58001

2010/08/10 08:51
KLGA 100851Z 25005KT 10SM BKN140 OVC250 28/18 A2991 RMK AO2 SLP128 T02780183 50000

2010/08/10 08:51
KLGU 100851Z AUTO 00000KT 10SM CLR 12/08 A3001 RMK AO2 SLP120 T01170078 58008

2010/08/10 08:50
KLRU 100850Z AUTO 07003KT 10SM CLR 21/09 A3008 RMK AO2

2010/08/10 08:55
KLZZ 100855Z AUTO 20004KT 10SM CLR 26/22 A2994 RMK AO2

2010/08/10 08:51
KTQE 100851Z AUTO 11003KT 3SM BR BKN110 24/24 A2983 RMK AO2

2010/08/10 08:51
KDEQ 100851Z AUTO 00000KT 1SM BR VV001 24/23 A2989 RMK AO2

2010/08/10 08:51
KFXE 100851Z 17009G22KT 2SM -RA FEW005 SCT018 SCT027 26/23 A2987 RMK AO2 RAB50 P0014

2010/08/10 08:51
KGZH 100851Z AUTO 00000KT 3SM BR SCT080 23/23 A2995 RMK AO2

2010/08/10 08:50
LSMA 100850Z 05004KT 010V100 CAVOK 21/14 Q1018 RMK BLU

2010/08/10 08:50
LSMD 100850Z VRB01KT CAVOK 22/15 Q1018 RMK BLU

2010/08/10 08:50
LSMP 100850Z VRB02KT 9999 BKN085 21/15 Q1018 RMK WHT

2010/08/10 08:50
LSMS 100850Z VRB01KT 9999 FEW070 24/10 Q1018

2010/08/10 08:50
LSZH 100850Z 36003KT 290V060 9999 FEW030 22/14 Q1018 NOSIG

2010/08/10 08:50
LSGG 100850Z 06006KT 010V100 9999 FEW035 SCT350 23/13 Q1018 NOSIG

2010/08/10 08:50
LSZB 100850Z VRB02KT 9999 SCT080 22/15 Q1018 NOSIG

2010/08/10 08:50
LSZA 100850Z VRB01KT 9999 SCT045 25/16 Q1017 NOSIG

2010/08/10 09:00
SPIM 100900Z 18003KT 8000 BKN015 14/13 Q1016 NOSIG RMK PP000

2010/08/10 09:00
LQMO 100900Z VRB02KT CAVOK 31/11 Q1012

2010/08/10 08:51
KMPV 100851Z AUTO 00000KT 1/4SM FG VV001 18/17 A2998 RMK AO2 SLP147 60001 T01780172 50001

2010/08/10 08:51
KMYL 100851Z AUTO 00000KT 10SM CLR 11/09 A2997 RMK AO2 SLP108 60000 T01060094 58007

2010/08/10 08:50
KONM 100850Z AUTO 26004KT 10SM CLR 21/11 A3009 RMK AO2 T02120106

2010/08/10 09:00
SBFN 100900Z 12010KT 9999 FEW017 26/22 Q1015

2010/08/10 08:52
EKVG 100852Z 33002KT 9999 FEW010 SCT060 14/11 Q1008 RMK/RWY 13-31 CLOSED DUE WIP NOTAM E0050/10 WIND 850FT 09007KT

2010/08/10 08:50
CYMH 100850Z AUTO 22014KT 9SM BKN014 BKN056 16/14 A2957

2010/08/10 08:51
KSMX 100851Z AUTO 00000KT 8SM OVC004 12/11 A2992 RMK AO2 SLP132 T01220111 58005 TSNO 

2010/08/10 08:51
KORF 100851Z 22007KT 10SM CLR 25/23 A2997 RMK AO2 SLP149 T02500233 56004 $ 

2010/08/10 08:51
KP59 100851Z AUTO 23003KT 21/19 A2994 RMK AO2 SLP130 T02110189 50000 PWINO TSNO 

2010/08/10 08:50
KOTM 100850Z AUTO 32011KT 2 1/2SM +TSRA BR FEW024 BKN050 OVC060 22/21 A3000

2010/08/10 08:50
KVTN 100850Z AUTO 27008KT 10SM -RA SCT029 19/18 A2989

2010/08/10 08:52
CYBU 100852Z AUTO 11003KT 6SM BR CLR 12/12 A2988 RMK SLP125

2010/08/10 08:51
CYVM 100851Z AUTO 00000KT 1 5/8SM FEW001 02/02 A2993 RMK VSBY VRBL 0.6V9.+

2010/08/10 08:51
KGDP 100851Z AUTO 00000KT 10SM CLR 23/14 A3016 RMK AO2 SLP114 T02280139 58005 TSNO 

2010/08/10 08:51
KSNT 100851Z AUTO 20004KT 10/08 A3011 RMK AO2 SLP120 P0012 60014 T01000083 58004 PWINO TSNO 

2010/08/10 08:51
KJCT 100851Z AUTO 19006KT 10SM CLR 27/22 A2997 RMK AO2 SLP106 T02670217 58006 TSNO 

2010/08/10 08:51
KCAR 100851Z AUTO 00000KT 1 1/2SM BR CLR 14/14 A2981 RMK AO2 

2010/08/10 08:50
KCKB 100850Z AUTO 00000KT 1 1/2SM BR CLR 18/18 A3002

2010/08/10 08:50
KCEW 100850Z AUTO 00000KT 2 1/2SM BR CLR 23/22 A2993

2010/08/10 09:00
LQMO 100900Z VRB02KT CAVOK 31/11 Q1012

2010/08/10 08:52
EKVG 100852Z 33002KT 9999 FEW010 SCT060 14/11 Q1008 RMK/RWY 13-31 CLOSED DUE WIP NOTAM E0050/10 WIND 850FT 09007KT

2010/08/10 08:50
KMKL 100850Z AUTO 00000KT 3SM BR CLR 26/24 A2995

2010/08/10 08:50
EDDF 100850Z 19004KT 9999 FEW030 SCT300 22/15 Q1016 NOSIG

2010/08/10 08:50
EDDH 100850Z 17007KT 9999 FEW030 SCT120 BKN280 22/14 Q1015 NOSIG

2010/08/10 08:50
EDDK 100850Z 14004KT 9999 FEW030 22/15 Q1015 NOSIG

2010/08/10 08:50
EDDL 100850Z 18006KT CAVOK 21/14 Q1015 NOSIG

2010/08/10 08:50
EDDM 100850Z 33001KT CAVOK 20/15 Q1018 NOSIG

2010/08/10 08:50
EDDN 100850Z 15003KT 9999 FEW040 21/14 Q1017 NOSIG

2010/08/10 08:50
EDDS 100850Z VRB02KT 9999 FEW035 22/13 Q1018 NOSIG

2010/08/10 08:50
EDDT 100850Z 22004KT 9999 FEW025 SCT070 BKN090 21/14 Q1017 NOSIG

2010/08/10 08:50
EDDV 100850Z 17005KT 140V200 CAVOK 23/11 Q1015 NOSIG

2010/08/10 08:50
LSZH 100850Z 36003KT 290V060 9999 FEW030 22/14 Q1018 NOSIG

2010/08/10 08:50
LSGG 100850Z 06006KT 010V100 9999 FEW035 SCT350 23/13 Q1018 NOSIG

2010/08/10 08:50
LSZB 100850Z VRB02KT 9999 SCT080 22/15 Q1018 NOSIG

2010/08/10 08:50
LSZA 100850Z VRB01KT 9999 SCT045 25/16 Q1017 NOSIG

2010/08/10 08:51
KABE 100851Z 05004KT 8SM CLR 23/21 A2994 RMK AO2 RAE0754 SLP133 P0000 60000 T02330206 53000 

2010/08/10 08:50
LSMA 100850Z 05004KT 010V100 CAVOK 21/14 Q1018 RMK BLU

2010/08/10 08:50
LSMD 100850Z VRB01KT CAVOK 22/15 Q1018 RMK BLU

2010/08/10 08:50
LSMP 100850Z VRB02KT 9999 BKN085 21/15 Q1018 RMK WHT

2010/08/10 08:50
LSMS 100850Z VRB01KT 9999 FEW070 24/10 Q1018

2010/08/10 08:50
EDDB 100850Z 18004KT 9999 FEW030 BKN088 22/15 Q1017 NOSIG

2010/08/10 08:50
EDDC 100850Z VRB03KT 9999 SCT027 SCT280 22/13 Q1017 NOSIG

2010/08/10 08:50
EDDE 100850Z 22004KT 9999 SCT046 22/11 Q1017 NOSIG

2010/08/10 08:50
EDDG 100850Z 21006KT 9999 FEW030 SCT260 22/13 Q1014 NOSIG

2010/08/10 08:50
EDDP 100850Z 21003KT 9999 FEW026 22/15 Q1017 NOSIG

2010/08/10 08:50
EDDR 100850Z 24005KT 9999 FEW036 BKN300 22/13 Q1017 NOSIG

2010/08/10 08:50
EDDW 100850Z 17008KT CAVOK 23/12 Q1014 NOSIG

2010/08/10 08:50
KOTM 100850Z AUTO 32011KT 2 1/2SM +TSRA BR FEW024 BKN050 OVC060 22/21 A3000

2010/08/10 08:50
KYIP 100850Z 00000KT 1/4SM FG SCT001 BKN025 21/19 A2996

2010/08/10 08:55
KQFS 100855Z AUTO 10005G12KT 9999 SCT055 BKN100 29/23 A2975 RMK AO2 SLP071 T02860229 57013 PWINO PNO $

2010/08/10 08:55
KQW3 100855Z AUTO VRB03KT 9999 33/19 A2975 RMK AO2 SLP989

2010/08/10 08:51
KATT 100851Z AUTO 19003KT 10SM CLR 26/24 A2993 RMK AO2 SLP120 T02610239 56014 

2010/08/10 08:50
KVTN 100850Z AUTO 27008KT 10SM -RA SCT029 19/18 A2989

2010/08/10 08:49
PANT 100849Z AUTO 13005KT 1/4SM FG OVC001 12/11 A3002

2010/08/10 09:00
FAJS 100900Z 10018KT CAVOK 11/M07 Q1034 NOSIG

2010/08/10 08:51
KDAG 100851Z AUTO 27008KT 10SM CLR 22/01 A2986 RMK AO2 SLP084 T02220006 50003 TSNO 

2010/08/10 08:53
CYSC 100853Z AUTO 00000KT 1 3/4SM BR OVC008 13/13 A2991 RMK SLP132 VIS VRB 1/2-3

2010/08/10 08:52
KBLU 100852Z AUTO 00000KT 10SM CLR 17/06 A3008 RMK AO2 SLP096 T01670056 58005 TSNO 

2010/08/10 08:52
KABI 100852Z 17005KT 10SM CLR 27/18 A2996 RMK AO2 SLP111 T02670183 56013 

2010/08/10 09:00
HAAB 100900Z 13006KT 7000 FEW005 BKN018 OVC070 16/13 Q1026 DIS RA

2010/08/10 08:52
KNHK 100852Z AUTO 22005KT 10SM CLR 26/21 A2994 RMK AO2 SLP138 T02560211 58006 $ 

2010/08/10 08:51
CYKL 100851Z AUTO 32009KT 2 3/8SM -DZ OVC006 09/08 A2971

2010/08/10 08:52
KN60 100852Z AUTO 09010G17KT 21/17 A2984 RMK AO1 SLP090 T02060167 58011 

2010/08/10 08:51
CWLY 100851Z AUTO 19002KT 9SM BKN002 OVC018 OVC031 13/12 A2994

2010/08/10 09:00
HAAB 100900Z 13006KT 7000 FEW005 BKN018 OVC070 16/13 Q1026 DIS RA

2010/08/10 08:52
KREO 100852Z AUTO 00000KT 18/M03 A2990 RMK AO2 SLP082 T01781028 53005 PWINO TSNO 

2010/08/10 08:52
KCZZ 100852Z AUTO 04005KT 09/04 A2993 RMK AO2 SLP104 T00940039 58003 PWINO TSNO 

2010/08/10 08:51
KONP 100851Z AUTO 00000KT 5SM BR OVC019 12/11 A3004 RMK AO1

2010/08/10 08:51
KOXR 100851Z AUTO 32003KT 10SM OVC008 15/13 A2990 RMK AO2 SLP123 T01500128 55001 $

2010/08/10 08:55
KPAN 100855Z AUTO 00000KT 10SM CLR 17/08 A3014 RMK AO1

2010/08/10 08:51
KPIT 100851Z 00000KT 7SM BKN050 OVC100 22/18 A2998 RMK AO2 SLP147 T02170183 56002

2010/08/10 08:51
KPVD 100851Z 23003KT 8SM -RA FEW031 SCT090 SCT120 OVC150 22/20 A2992 RMK AO2 RAB28 SLP132 P0000 60001 T02220200 53001

2010/08/10 08:51
KPWM 100851Z 30003KT 10SM FEW085 21/19 A2987 RMK AO2 SLP113 T02060189 56000

2010/08/10 08:51
KSJT 100851Z AUTO 21003KT 10SM CLR 27/18 A2995 RMK AO2 SLP111 T02670178 58007

2010/08/10 08:51
KSLK 100851Z AUTO 00000KT 2SM BR BKN020 BKN047 19/18 A2996 RMK AO2 SLP134 T01890183 57002

2010/08/10 08:51
KSMO 100851Z AUTO 22003KT 10SM OVC006 16/13 A2991 RMK AO2 SLP126 T01560133 50001

2010/08/10 08:51
KTEB 100851Z 15003KT 9SM -RA CLR 26/19 A2991 RMK AO2 RAE15B50 SLP126 P0000 60000 T02560189 50001

2010/08/10 08:51
KVNY 100851Z AUTO 00000KT 7SM CLR 16/13 A2990 RMK AO2 SLP116 T01610128 50002

2010/08/10 08:51
KYNG 100851Z 24004KT 9SM BKN041 BKN060 OVC110 23/18 A2996 RMK AO2 SLP135 8/87/ T02280178 56004

2010/08/10 08:50
EKKA 100850Z 19010KT 150V220 9999 FEW030 SCT220 20/12 Q1013 NOSIG

2010/08/10 08:50
EKSP 100850Z 17009KT 140V200 9999 FEW027 SCT200 21/14 Q1014 NOSIG

2010/08/10 08:50
EKCH 100850Z 18006KT 130V230 9999 FEW025 20/13 Q1016 NOSIG

2010/08/10 08:50
EKBI 100850Z 17008KT 120V200 9999 FEW025 BKN250 19/14 Q1014

2010/08/10 08:50
EKYT 100850Z 21009KT 9999 FEW045 21/12 Q1013 NOSIG

2010/08/10 08:50
EKRK 100850Z AUTO 14008KT 100V160 9999NDV NCD 20/11 Q1016

2010/08/10 08:50
EKAH 100850Z AUTO 17009KT 140V230 9999NDV NCD 19/11 Q1015

2010/08/10 08:50
EKEB 100850Z AUTO 17012KT 9999NDV FEW014/// 20/15 Q1013

2010/08/10 08:50
EKRN 100850Z AUTO 13007KT 090V150 9999NDV BKN034/// BKN056/// 18/15 Q1017

2010/08/10 08:50
EKSB 100850Z 15008KT 120V190 9999 FEW025 21/13 Q1014

2010/08/10 08:50
EKSN 100850Z 22010KT 9999 FEW028 SCT060 18/12 Q1013

2010/08/10 08:50
EKOD 100850Z 17007KT 140V200 9999 FEW020TCU 20/13 Q1015

2010/08/10 08:50
EKGF 100850Z 17025KT 9999 BKN010 17/17 Q1009

2010/08/10 08:50
EKHN 100850Z AUTO 16019KT 9999NDV NCD 18/15 Q1014

2010/08/10 08:50
EKHR 100850Z AUTO 17015KT 9999NDV NCD 19/15 Q1012

2010/08/10 08:51
KCAR 100851Z AUTO 00000KT 1 1/2SM BR CLR 14/14 A2981 RMK AO2

2010/08/10 08:48
KEHA 100848Z AUTO 28005KT 22/17 RMK AO1 PK WND 08 000 T02220167

2010/08/10 08:51
KBVE 100851Z AUTO 27004KT CLR 26/24 A2991 RMK AO2 SLP128 T02560244 56004 TSNO $

2010/08/10 08:51
KCRP 100851Z 00000KT 10SM FEW017 26/25 A2989 RMK AO2 SLP121 T02610250 58012

2010/08/10 08:51
KCON 100851Z AUTO 00000KT 2 1/2SM BR BKN060 21/20 A2990 RMK AO2 SLP122 T02060200 55002

2010/08/10 08:51
KHSE 100851Z AUTO 25007KT 10SM FEW049 25/25 A2999 RMK AO2 SLP157 T02500250 57006 TSNO

2010/08/10 08:51
KNYC 100851Z 00000KT 10SM CLR 26/18 A2994 RMK AO2 SLP129 T02610183 50000 $

2010/08/10 08:51
KORF 100851Z 22007KT 10SM CLR 25/23 A2997 RMK AO2 SLP149 T02500233 56004 $

2010/08/10 08:51
KSMX 100851Z AUTO 00000KT 8SM OVC004 12/11 A2992 RMK AO2 SLP132 T01220111 58005 TSNO

2010/08/10 08:51
KP59 100851Z AUTO 23003KT 21/19 A2994 RMK AO2 SLP130 T02110189 50000 PWINO TSNO

2010/08/10 08:51
KGDP 100851Z AUTO 00000KT 10SM CLR 23/14 A3016 RMK AO2 SLP114 T02280139 58005 TSNO

2010/08/10 08:51
KJCT 100851Z AUTO 19006KT 10SM CLR 27/22 A2997 RMK AO2 SLP106 T02670217 58006 TSNO

2010/08/10 08:51
KSNT 100851Z AUTO 20004KT 10/08 A3011 RMK AO2 SLP120 P0012 60014 T01000083 58004 PWINO TSNO

2010/08/10 08:51
KABE 100851Z 05004KT 8SM CLR 23/21 A2994 RMK AO2 RAE0754 SLP133 P0000 60000 T02330206 53000

2010/08/10 08:51
KATT 100851Z AUTO 19003KT 10SM CLR 26/24 A2993 RMK AO2 SLP120 T02610239 56014

2010/08/10 08:51
KDAG 100851Z AUTO 27008KT 10SM CLR 22/01 A2986 RMK AO2 SLP084 T02220006 50003 TSNO

2010/08/10 08:52
KABI 100852Z 17005KT 10SM CLR 27/18 A2996 RMK AO2 SLP111 T02670183 56013

2010/08/10 08:52
KBLU 100852Z AUTO 00000KT 10SM CLR 17/06 A3008 RMK AO2 SLP096 T01670056 58005 TSNO

2010/08/10 08:52
KN60 100852Z AUTO 09010G17KT 21/17 A2984 RMK AO1 SLP090 T02060167 58011

2010/08/10 08:52
KREO 100852Z AUTO 00000KT 18/M03 A2990 RMK AO2 SLP082 T01781028 53005 PWINO TSNO

2010/08/10 08:52
KCZZ 100852Z AUTO 04005KT 09/04 A2993 RMK AO2 SLP104 T00940039 58003 PWINO TSNO

2010/08/10 08:50
EFHK 100850Z 21009KT 9999 SCT012 FEW030CB BKN055 21/17 Q1012 NOSIG

2010/08/10 08:50
EFJY 100850Z 20006KT 150V260 9999 SCT035 BKN060 21/16 Q1010

2010/08/10 08:50
EFKU 100850Z AUTO 17009KT 140V210 9999NDV BKN020 BKN060 22/15 Q1010

2010/08/10 08:50
EFRO 100850Z AUTO 35009KT 9999NDV OVC012 12/10 Q1010

2010/08/10 08:50
EFTP 100850Z 21006KT 150V240 9999 SCT025 20/16 Q1010

2010/08/10 08:50
EFTU 100850Z AUTO 24007KT 190V280 9999 SCT018 BKN050 20/16 Q1010

2010/08/10 08:50
EFVA 100850Z VRB05KT 9999 -SHRA FEW006 SCT015 BKN038 BKN050 19/17 Q1008

2010/08/10 08:50
LXGB 100850Z 00000KT CAVOK 27/16 Q1017 NOSIG

2010/08/10 08:50
ESGG 100850Z 22012KT 9999 SCT025 BKN035 18/11 Q1015

2010/08/10 08:50
ESGJ 100850Z 25011KT 9999 FEW020 SCT041 17/12 Q1015

2010/08/10 08:50
ESGP 100850Z 21010KT 9999 FEW030 BKN046 OVC062 18/13 Q1014

2010/08/10 08:50
ESGT 100850Z 21011KT 9999 SCT025 SCT050 19/13 Q1013

2010/08/10 08:50
ESMK 100850Z VRB02KT CAVOK 21/11 Q1016

2010/08/10 08:50
ESMQ 100850Z 27008KT 9999 BKN043 19/12 Q1016

2010/08/10 08:50
ESMS 100850Z 20006KT 140V240 9999 FEW035 19/11 Q1016

2010/08/10 08:50
ESMT 100850Z 22009KT 190V250 9999 SCT045 19/13 Q1016

2010/08/10 08:50
ESMX 100850Z 22008KT 9999 FEW018 SCT023 BKN039 17/13 Q1016

2010/08/10 08:50
ESTA 100850Z 22007KT CAVOK 20/10 Q1016

2010/08/10 08:50
ESTL 100850Z 16004KT 090V200 CAVOK 19/12 Q1016

2010/08/10 08:50
EDDB 100850Z 18004KT 9999 FEW030 BKN088 22/15 Q1017 NOSIG

2010/08/10 08:50
EDDC 100850Z VRB03KT 9999 SCT027 SCT280 22/13 Q1017 NOSIG

2010/08/10 08:50
EDDE 100850Z 22004KT 9999 SCT046 22/11 Q1017 NOSIG

2010/08/10 08:50
EDDG 100850Z 21006KT 9999 FEW030 SCT260 22/13 Q1014 NOSIG

2010/08/10 08:50
EDDP 100850Z 21003KT 9999 FEW026 22/15 Q1017 NOSIG

2010/08/10 08:50
EDDR 100850Z 24005KT 9999 FEW036 BKN300 22/13 Q1017 NOSIG

2010/08/10 08:50
EDDW 100850Z 17008KT CAVOK 23/12 Q1014 NOSIG

2010/08/10 08:50
EDDF 100850Z 19004KT 9999 FEW030 SCT300 22/15 Q1016 NOSIG

2010/08/10 08:50
EDDH 100850Z 17007KT 9999 FEW030 SCT120 BKN280 22/14 Q1015 NOSIG

2010/08/10 08:50
EDDK 100850Z 14004KT 9999 FEW030 22/15 Q1015 NOSIG

2010/08/10 08:50
EDDL 100850Z 18006KT CAVOK 21/14 Q1015 NOSIG

2010/08/10 08:50
EDDM 100850Z 33001KT CAVOK 20/15 Q1018 NOSIG

2010/08/10 08:50
EDDN 100850Z 15003KT 9999 FEW040 21/14 Q1017 NOSIG

2010/08/10 08:50
EDDS 100850Z VRB02KT 9999 FEW035 22/13 Q1018 NOSIG

2010/08/10 08:50
EDDT 100850Z 22004KT 9999 FEW025 SCT070 BKN090 21/14 Q1017 NOSIG

2010/08/10 08:50
EDDV 100850Z 17005KT 140V200 CAVOK 23/11 Q1015 NOSIG

2010/08/10 08:50
EKVD 100850Z 19010KT 160V220 9999 SCT029 20/13 Q1014

2010/08/10 09:00
FAJS 100900Z 10018KT CAVOK 11/M07 Q1034 NOSIG

2010/08/10 08:50
EDDB 100850Z 18004KT 9999 FEW030 BKN088 22/15 Q1017 NOSIG

2010/08/10 08:50
EDDC 100850Z VRB03KT 9999 SCT027 SCT280 22/13 Q1017 NOSIG

2010/08/10 08:50
EDDE 100850Z 22004KT 9999 SCT046 22/11 Q1017 NOSIG

2010/08/10 08:50
EDDF 100850Z 19004KT 9999 FEW030 SCT300 22/15 Q1016 NOSIG

2010/08/10 08:50
EDDG 100850Z 21006KT 9999 FEW030 SCT260 22/13 Q1014 NOSIG

2010/08/10 08:50
EDDH 100850Z 17007KT 9999 FEW030 SCT120 BKN280 22/14 Q1015 NOSIG

2010/08/10 08:50
EDDK 100850Z 14004KT 9999 FEW030 22/15 Q1015 NOSIG

2010/08/10 08:50
EDDL 100850Z 18006KT CAVOK 21/14 Q1015 NOSIG

2010/08/10 08:50
EDDM 100850Z 33001KT CAVOK 20/15 Q1018 NOSIG

2010/08/10 08:50
EDDN 100850Z 15003KT 9999 FEW040 21/14 Q1017 NOSIG

2010/08/10 08:50
EDDP 100850Z 21003KT 9999 FEW026 22/15 Q1017 NOSIG

2010/08/10 08:50
EDDR 100850Z 24005KT 9999 FEW036 BKN300 22/13 Q1017 NOSIG

2010/08/10 08:50
EDDS 100850Z VRB02KT 9999 FEW035 22/13 Q1018 NOSIG

2010/08/10 08:50
EDDT 100850Z 22004KT 9999 FEW025 SCT070 BKN090 21/14 Q1017 NOSIG

2010/08/10 08:50
EDDV 100850Z 17005KT 140V200 CAVOK 23/11 Q1015 NOSIG

2010/08/10 08:50
EDDW 100850Z 17008KT CAVOK 23/12 Q1014 NOSIG

2010/08/10 08:50
EKKA 100850Z 19010KT 150V220 9999 FEW030 SCT220 20/12 Q1013 NOSIG

2010/08/10 08:50
EKSN 100850Z 22010KT 9999 FEW028 SCT060 18/12 Q1013

2010/08/10 08:50
EKSP 100850Z 17009KT 140V200 9999 FEW027 SCT200 21/14 Q1014 NOSIG

2010/08/10 08:52
EKVG 100852Z 33002KT 9999 FEW010 SCT060 14/11 Q1008 RMK/RWY 13-31 CLOSED DUE WIP NOTAM E0050/10 WIND 850FT 09007KT

2010/08/10 08:50
ETNG 100850Z 21005KT CAVOK 23/13 Q1015 NOSIG

2010/08/10 08:45
LMML 100845Z VRB03KT CAVOK 30/14 Q1016 NOSIG

2010/08/10 09:00
LPLA 100900Z 34005KT 300V360 9999 FEW020 BKN035 22/17 Q1022

2010/08/10 09:00
LQMO 100900Z VRB02KT CAVOK 31/11 Q1012

2010/08/10 08:50
LSGG 100850Z 06006KT 010V100 9999 FEW035 SCT350 23/13 Q1018 NOSIG

2010/08/10 08:50
LSZA 100850Z VRB01KT 9999 SCT045 25/16 Q1017 NOSIG

2010/08/10 08:50
LSZB 100850Z VRB02KT 9999 SCT080 22/15 Q1018 NOSIG

2010/08/10 08:50
LSZH 100850Z 36003KT 290V060 9999 FEW030 22/14 Q1018 NOSIG

2010/08/10 08:50
LXGB 100850Z 00000KT CAVOK 27/16 Q1017 NOSIG

2010/08/10 08:50
EDDB 100850Z 18004KT 9999 FEW030 BKN088 22/15 Q1017 NOSIG

2010/08/10 08:50
EDDC 100850Z VRB03KT 9999 SCT027 SCT280 22/13 Q1017 NOSIG

2010/08/10 08:50
EDDE 100850Z 22004KT 9999 SCT046 22/11 Q1017 NOSIG

2010/08/10 08:50
EDDF 100850Z 19004KT 9999 FEW030 SCT300 22/15 Q1016 NOSIG

2010/08/10 08:50
EDDG 100850Z 21006KT 9999 FEW030 SCT260 22/13 Q1014 NOSIG

2010/08/10 08:50
EDDH 100850Z 17007KT 9999 FEW030 SCT120 BKN280 22/14 Q1015 NOSIG

2010/08/10 08:50
EDDK 100850Z 14004KT 9999 FEW030 22/15 Q1015 NOSIG

2010/08/10 08:50
EDDL 100850Z 18006KT CAVOK 21/14 Q1015 NOSIG

2010/08/10 08:50
EDDM 100850Z 33001KT CAVOK 20/15 Q1018 NOSIG

2010/08/10 08:50
EDDN 100850Z 15003KT 9999 FEW040 21/14 Q1017 NOSIG

2010/08/10 08:50
EDDP 100850Z 21003KT 9999 FEW026 22/15 Q1017 NOSIG

2010/08/10 08:50
EDDR 100850Z 24005KT 9999 FEW036 BKN300 22/13 Q1017 NOSIG

2010/08/10 08:50
EDDS 100850Z VRB02KT 9999 FEW035 22/13 Q1018 NOSIG

2010/08/10 08:50
EDDT 100850Z 22004KT 9999 FEW025 SCT070 BKN090 21/14 Q1017 NOSIG

2010/08/10 08:50
EDDV 100850Z 17005KT 140V200 CAVOK 23/11 Q1015 NOSIG

2010/08/10 08:50
EDDW 100850Z 17008KT CAVOK 23/12 Q1014 NOSIG

2010/08/10 08:50
EKAH 100850Z AUTO 17009KT 140V230 9999NDV NCD 19/11 Q1015

2010/08/10 08:50
EKKA 100850Z 19010KT 150V220 9999 FEW030 SCT220 20/12 Q1013 NOSIG

2010/08/10 08:50
EKOD 100850Z 17007KT 140V200 9999 FEW020TCU 20/13 Q1015

2010/08/10 08:50
EKSB 100850Z 15008KT 120V190 9999 FEW025 21/13 Q1014

2010/08/10 08:50
EKSN 100850Z 22010KT 9999 FEW028 SCT060 18/12 Q1013

2010/08/10 08:50
EKSP 100850Z 17009KT 140V200 9999 FEW027 SCT200 21/14 Q1014 NOSIG

2010/08/10 08:52
EKVG 100852Z 33002KT 9999 FEW010 SCT060 14/11 Q1008 RMK/RWY 13-31 CLOSED DUE WIP NOTAM E0050/10 WIND 850FT 09007KT

2010/08/10 08:50
ETNG 100850Z 21005KT CAVOK 23/13 Q1015 NOSIG

2010/08/10 08:50
LSGG 100850Z 06006KT 010V100 9999 FEW035 SCT350 23/13 Q1018 NOSIG

2010/08/10 08:50
LSZA 100850Z VRB01KT 9999 SCT045 25/16 Q1017 NOSIG

2010/08/10 08:50
LSZB 100850Z VRB02KT 9999 SCT080 22/15 Q1018 NOSIG

2010/08/10 08:50
LSZH 100850Z 36003KT 290V060 9999 FEW030 22/14 Q1018 NOSIG

2010/08/10 09:00
SBBR 100900Z 00000KT CAVOK 13/04 Q1023 

2010/08/10 08:52
PGRO 100852Z 09009KT 7SM SCT020CB BKN080 25/23 A2994 RMK CB N AND SW MOV W

2010/08/10 08:51
PTYA 100851Z 18009KT 12SM FEW016 FEW140 BKN300 29/24 A2986 RMK SLP112 8/171 T02880235 53010

2010/08/10 08:50
BGSF 100850Z 04007KT 9999 BKN023 08/04 Q1007

2010/08/10 08:50
BGBW 100850Z AUTO 06002KT 2100NDV BR SCT003/// BKN005/// 08/07 Q1009

2010/08/10 08:50
BGGH 100850Z 21008KT 0200 RA FG VV002 08/08 Q1007

2010/08/10 08:50
BGJN 100850Z AUTO 18002KT 9999NDV BKN018/// OVC024/// 08/04 Q1008

2010/08/10 08:50
BGKK 100850Z 07018KT 9999 -DZ SCT020 SCT035 BKN045 07/04 Q1013

2010/08/10 08:51
KEKN 100851Z AUTO 00000KT 2 1/2SM BR SCT001 17/16 A3008 RMK AO2 SLP173 T01670161 53001 TSNO

2010/08/10 08:51
KELP 100851Z 13010KT 10SM FEW160 25/15 A3003 RMK AO2 SLP086 T02500150 50002

2010/08/10 08:51
KROW 100851Z AUTO 12004KT 10SM CLR 20/17 A3003 RMK AO2 SLP100 T02000172 56001 TSNO

2010/08/10 08:51
KSAN 100851Z 00000KT 10SM OVC015 18/14 A2992 RMK AO2 SLP130 T01780139 58002

2010/08/10 08:51
KBVE 100851Z AUTO 27004KT CLR 26/24 A2991 RMK AO2 SLP128 T02560244 56004 TSNO $

2010/08/10 08:51
KCRP 100851Z 00000KT 10SM FEW017 26/25 A2989 RMK AO2 SLP121 T02610250 58012

2010/08/10 08:51
KALB 100851Z 21003KT 2SM BR SCT019 SCT055 BKN080 21/21 A2994 RMK AO2 SLP136 T02110206 55000

2010/08/10 08:51
KBDL 100851Z 00000KT 3SM BR FEW004 BKN090 OVC200 22/21 A2992 RMK AO2 RAE13 SLP129 P0000 60006 T02220211 55002

2010/08/10 08:51
KBKW 100851Z AUTO 00000KT 6SM HZ CLR 19/17 A3010 RMK AO2 SLP152 T01940167 57002 $

2010/08/10 08:51
KHTS 100851Z 00000KT 2 1/2SM BR CLR 21/20 A2998 RMK AO2 SLP143 T02110200 53000

2010/08/10 08:48
KIZA 100848Z AUTO 00000KT 10SM SCT009 12/10 A2991 RMK AO2

2010/08/10 08:55
KLZZ 100855Z AUTO 20004KT 10SM CLR 26/22 A2994 RMK AO2

2010/08/10 08:51
KMYL 100851Z AUTO 00000KT 10SM CLR 11/09 A2997 RMK AO2 SLP108 60000 T01060094 58007

2010/08/10 08:51
KCON 100851Z AUTO 00000KT 2 1/2SM BR BKN060 21/20 A2990 RMK AO2 SLP122 T02060200 55002

2010/08/10 08:51
KHSE 100851Z AUTO 25007KT 10SM FEW049 25/25 A2999 RMK AO2 SLP157 T02500250 57006 TSNO

2010/08/10 08:51
KNYC 100851Z 00000KT 10SM CLR 26/18 A2994 RMK AO2 SLP129 T02610183 50000 $

2010/08/10 08:51
KOXR 100851Z AUTO 32003KT 10SM OVC008 15/13 A2990 RMK AO2 SLP123 T01500128 55001 $

2010/08/10 08:51
KPVD 100851Z 23003KT 8SM -RA FEW031 SCT090 SCT120 OVC150 22/20 A2992 RMK AO2 RAB28 SLP132 P0000 60001 T02220200 53001

2010/08/10 08:51
KTEB 100851Z 15003KT 9SM -RA CLR 26/19 A2991 RMK AO2 RAE15B50 SLP126 P0000 60000 T02560189 50001

2010/08/10 08:51
KYNG 100851Z 24004KT 9SM BKN041 BKN060 OVC110 23/18 A2996 RMK AO2 SLP135 8/87/ T02280178 56004

2010/08/10 08:51
KORF 100851Z 22007KT 10SM CLR 25/23 A2997 RMK AO2 SLP149 T02500233 56004 $

2010/08/10 08:51
KSMX 100851Z AUTO 00000KT 8SM OVC004 12/11 A2992 RMK AO2 SLP132 T01220111 58005 TSNO

2010/08/10 08:51
KP59 100851Z AUTO 23003KT 21/19 A2994 RMK AO2 SLP130 T02110189 50000 PWINO TSNO

2010/08/10 08:51
KGDP 100851Z AUTO 00000KT 10SM CLR 23/14 A3016 RMK AO2 SLP114 T02280139 58005 TSNO

2010/08/10 08:51
KSNT 100851Z AUTO 20004KT 10/08 A3011 RMK AO2 SLP120 P0012 60014 T01000083 58004 PWINO TSNO

2010/08/10 08:51
KABE 100851Z 05004KT 8SM CLR 23/21 A2994 RMK AO2 RAE0754 SLP133 P0000 60000 T02330206 53000

2010/08/10 08:51
KATT 100851Z AUTO 19003KT 10SM CLR 26/24 A2993 RMK AO2 SLP120 T02610239 56014

2010/08/10 08:52
KABI 100852Z 17005KT 10SM CLR 27/18 A2996 RMK AO2 SLP111 T02670183 56013

2010/08/10 08:52
KBLU 100852Z AUTO 00000KT 10SM CLR 17/06 A3008 RMK AO2 SLP096 T01670056 58005 TSNO

2010/08/10 08:52
KN60 100852Z AUTO 09010G17KT 21/17 A2984 RMK AO1 SLP090 T02060167 58011

2010/08/10 08:52
KREO 100852Z AUTO 00000KT 18/M03 A2990 RMK AO2 SLP082 T01781028 53005 PWINO TSNO

2010/08/10 08:52
KCZZ 100852Z AUTO 04005KT 09/04 A2993 RMK AO2 SLP104 T00940039 58003 PWINO TSNO

2010/08/10 08:51
KJCT 100851Z AUTO 19006KT 10SM CLR 27/22 A2997 RMK AO2 SLP106 T02670217 58006 TSNO

2010/08/10 08:51
KDAG 100851Z AUTO 27008KT 10SM CLR 22/01 A2986 RMK AO2 SLP084 T02220006 50003 TSNO

2010/08/10 08:55
KBLV 100855Z AUTO 17003KT 10SM CLR 26/26 A2991 RMK AO2 SLP124 T02580256 58008

2010/08/10 08:55
KMGE 100855Z AUTO 34003KT 10SM CLR 25/21 A3002 RMK AO2 SLP153 T02520214 56004 $

2010/08/10 08:52
KNHK 100852Z AUTO 22005KT 10SM CLR 26/21 A2994 RMK AO2 SLP138 T02560211 58006 $

2010/08/10 08:51
KAHN 100851Z AUTO 00000KT 5SM BR CLR 22/21 A3002 RMK AO2 SLP156 T02220211 55007

2010/08/10 08:51
KBAZ 100851Z AUTO 20005KT 10SM FEW013 24/23 A2992 RMK AO2 SLP122 T02440233 56013

2010/08/10 08:51
KBGD 100851Z AUTO 23007KT 10SM CLR 23/16 A3001 RMK AO2 SLP112 T02280156 50002

2010/08/10 08:51
KCSG 100851Z AUTO 09003KT 8SM CLR 25/19 A2997 RMK AO2 SLP143 T02500194 55002 TSNO

2010/08/10 08:51
KHDO 100851Z AUTO 15003KT 10SM FEW013 26/24 A2996 RMK AO2 SLP127 T02560239 56012

2010/08/10 08:51
KMDW 100851Z 14003KT 10SM FEW040 OVC250 26/21 A2992 RMK AO2 SLP119 OCNL LTGIC DSNT S CB DSNT S 6//// T02560211 58008 PNO

2010/08/10 08:51
KORD 100851Z 00000KT 10SM BKN200 25/23 A2992 RMK AO2 SLP126 T02500228 58009

2010/08/10 08:51
KOTM 100851Z AUTO 32012KT 2SM +TSRA BR SCT022 BKN050 OVC060 22/21 A3001 RMK AO2 WSHFT 0831 LTG DSNT ALQDS TSE18B37RAB22 SLP153 P0010 60010 T02170211 53036

2010/08/10 08:51
KPHX 100851Z 00000KT 10SM FEW120 33/11 A2980 RMK AO2 SLP069 T03330111 51002 $

2010/08/10 08:51
KRDU 100851Z 23003KT 8SM FEW150 SCT250 24/22 A3001 RMK AO2 SLP156 T02390217 55003

2010/08/10 08:51
KSTL 100851Z 19003KT 10SM SCT250 29/24 A2991 RMK AO2 SLP112 T02940244 57011

2010/08/10 08:47
K1F0 100847Z AUTO 00000KT 10SM CLR 26/21 A2989 RMK AO2

2010/08/10 08:48
K4O4 100848Z AUTO 00000KT 10SM CLR 24/22 A2992 RMK AO2

2010/08/10 08:51
KACT 100851Z 21008KT 10SM CLR 28/23 A2990 RMK AO2 SLP114 T02780228 56013 $

2010/08/10 08:51
KASH 100851Z AUTO 24003KT 3SM BR CLR 22/21 A2990 RMK AO2 56006 60004 T02160211 SLP125

2010/08/10 08:51
KAVX 100851Z AUTO 12006KT 1/4SM FG VV001 12/12 A2992 RMK AO2 SLP121 P0001 60001 T01220122 58004 TSNO

2010/08/10 08:51
KCLE 100851Z 25004KT 6SM BR FEW250 23/21 A2996 RMK AO2 SLP139 8/001 T02280206 50002

2010/08/10 08:51
KCMH 100851Z 00000KT 10SM FEW075 SCT150 24/21 A2997 RMK AO2 SLP140 T02390206 55000

2010/08/10 08:51
KDAW 100851Z AUTO 30004KT 10SM CLR 21/19 A2988 RMK AO2 RAE0759 SLP114 P0001 60002 T02060189 55006

2010/08/10 08:51
KDUA 100851Z AUTO 00000KT 10SM CLR 27/21 A2991 RMK AO2

2010/08/10 08:53
KDUC 100853Z AUTO 13004KT 10SM CLR 26/21 A2992 RMK AO2

2010/08/10 08:51
KERI 100851Z 16003KT 5SM HZ BKN050 BKN060 23/21 A2994 RMK AO2 RAB11E27 SLP132 P0000 60000 T02330206 56006

2010/08/10 08:51
KEWR 100851Z 25004KT 10SM FEW050 BKN150 OVC250 27/18 A2991 RMK AO2 RAE20 SLP129 P0000 60000 T02670183 58000 $

2010/08/10 08:52
KGLS 100852Z AUTO 28003KT 10SM FEW024 29/26 A2992 RMK AO2 SLP131 T02890256 55005

2010/08/10 08:55
KGLY 100855Z AUTO 20004KT 10SM CLR 27/24 A2991 RMK AO2

2010/08/10 08:52
KHRL 100852Z AUTO 12004KT 10SM CLR 26/26 A2987 RMK AO2 SLP114 T02560256 58014

2010/08/10 08:51
KILG 100851Z 17003KT 9SM FEW080 24/22 A2993 RMK AO2 SLP133 T02390217 56007

2010/08/10 08:51
KJFK 100851Z 25006KT 9SM FEW060 BKN140 OVC250 25/20 A2992 RMK AO2 SLP133 T02500200 58001

2010/08/10 08:51
KLGA 100851Z 25005KT 10SM BKN140 OVC250 28/18 A2991 RMK AO2 SLP128 T02780183 50000

2010/08/10 08:51
KLGU 100851Z AUTO 00000KT 10SM CLR 12/08 A3001 RMK AO2 SLP120 T01170078 58008

2010/08/10 08:50
KLRU 100850Z AUTO 07003KT 10SM CLR 21/09 A3008 RMK AO2

2010/08/10 08:51
KMPV 100851Z AUTO 00000KT 1/4SM FG VV001 18/17 A2998 RMK AO2 SLP147 60001 T01780172 50001

2010/08/10 08:50
KONM 100850Z AUTO 26004KT 10SM CLR 21/11 A3009 RMK AO2 T02120106

2010/08/10 08:51
KONP 100851Z AUTO 00000KT 5SM BR OVC019 12/11 A3004 RMK AO1

2010/08/10 08:55
KPAN 100855Z AUTO 00000KT 10SM CLR 17/08 A3014 RMK AO1

2010/08/10 08:51
KPIT 100851Z 00000KT 7SM BKN050 OVC100 22/18 A2998 RMK AO2 SLP147 T02170183 56002

2010/08/10 08:51
KPWM 100851Z 30003KT 10SM FEW085 21/19 A2987 RMK AO2 SLP113 T02060189 56000

2010/08/10 08:51
KSJT 100851Z AUTO 21003KT 10SM CLR 27/18 A2995 RMK AO2 SLP111 T02670178 58007

2010/08/10 08:51
KSLK 100851Z AUTO 00000KT 2SM BR BKN020 BKN047 19/18 A2996 RMK AO2 SLP134 T01890183 57002

2010/08/10 08:51
KSMO 100851Z AUTO 22003KT 10SM OVC006 16/13 A2991 RMK AO2 SLP126 T01560133 50001

2010/08/10 08:51
KVNY 100851Z AUTO 00000KT 7SM CLR 16/13 A2990 RMK AO2 SLP116 T01610128 50002

2010/08/10 08:51
KTQE 100851Z AUTO 11003KT 3SM BR BKN110 24/24 A2983 RMK AO2

2010/08/10 08:51
KDEQ 100851Z AUTO 00000KT 1SM BR VV001 24/23 A2989 RMK AO2

2010/08/10 08:51
KFXE 100851Z 17009G22KT 2SM -RA FEW005 SCT018 SCT027 26/23 A2987 RMK AO2 RAB50 P0014

2010/08/10 08:51
KGZH 100851Z AUTO 00000KT 3SM BR SCT080 23/23 A2995 RMK AO2

2010/08/10 08:51
KCAR 100851Z AUTO 00000KT 1 1/2SM BR CLR 14/14 A2981 RMK AO2

2010/08/10 09:00
HAAB 100900Z 13006KT 7000 FEW005 BKN018 OVC070 16/13 Q1026 DIS RA

2010/08/10 08:50
LLBG 100850Z 29008KT 9999 FEW030 31/21 Q1007 NOSIG

2010/08/10 08:50
LLET 100850Z 03014KT CAVOK 35/18 Q1005

2010/08/10 08:50
LLOV 100850Z 01004KT CAVOK 32/17 Q1009

2010/08/10 08:50
OAKB 100850Z 13004KT 9999 FEW070 BKN140 31/11 Q1012 NOSIG RMK BLU BLU

2010/08/10 08:51
CYKL 100851Z AUTO 32009KT 2 3/8SM -DZ OVC006 09/08 A2971

2010/08/10 08:48
PADL 100848Z 18005KT 3SM -RA BR SCT004 OVC008 09/09 A2963

2010/08/10 08:50
EYSA 100850Z 27008KT 9999 BKN015 20/16 Q1017

2010/08/10 08:50
EDDB 100850Z 18004KT 9999 FEW030 BKN088 22/15 Q1017 NOSIG

2010/08/10 08:50
EDDC 100850Z VRB03KT 9999 SCT027 SCT280 22/13 Q1017 NOSIG

2010/08/10 08:50
EDDG 100850Z 21006KT 9999 FEW030 SCT260 22/13 Q1014 NOSIG

2010/08/10 08:50
EDDP 100850Z 21003KT 9999 FEW026 22/15 Q1017 NOSIG

2010/08/10 08:50
EDDR 100850Z 24005KT 9999 FEW036 BKN300 22/13 Q1017 NOSIG

2010/08/10 08:50
EDDT 100850Z 22004KT 9999 FEW025 SCT070 BKN090 21/14 Q1017 NOSIG

2010/08/10 08:50
EDDV 100850Z 17005KT 140V200 CAVOK 23/11 Q1015 NOSIG

2010/08/10 08:50
EDDW 100850Z 17008KT CAVOK 23/12 Q1014 NOSIG

2010/08/10 08:50
LXGB 100850Z 00000KT CAVOK 27/16 Q1017 NOSIG

2010/08/10 08:50
FHAW 100850Z 13013KT 9999 SCT020 24/20 Q1017 WHT

2010/08/10 08:52
MMMX 100852Z 00000KT 6SM FEW020 SCT090 16/15 A3028 NOSIG RMK SLP057 57007 908 8/530 CI HZY LWR SC

2010/08/10 08:52
KSDB 100852Z AUTO 20005KT 10SM CLR 17/M02 A3003 RMK AO2 SLP114 T01671017 58003 TSNO 

2010/08/10 08:48
K4O4 100848Z AUTO 00000KT 10SM CLR 24/22 A2992 RMK AO2

2010/08/10 08:50
LSGC 100850Z VRB04KT 9999 FEW040 20/10 Q1020

2010/08/10 08:50
LSGS 100850Z VRB01KT 9999 FEW070 24/10 Q1018

2010/08/10 08:50
LSZG 100850Z VRB01KT 9999 FEW045 SCT082 21/13 Q1018 NOSIG

2010/08/10 08:50
LSZR 100850Z VRB02KT 9999 FEW040 21/15 Q1018 NOSIG RMK E

2010/08/10 08:50
LSZS 100850Z VRB02KT 9999 SCT040 16/09 Q1022

2010/08/10 08:50
LSZC 100850Z 06004KT 020V100 9999 FEW055 21/16 Q1018

2010/08/10 08:52
KNRB 100852Z AUTO 14011KT 10SM FEW021 SCT026 BKN060 28/23 A2994 RMK AO2 SLP138 T02830228 56007 

2010/08/10 08:51
KFXE 100851Z 17009G22KT 2SM -RA FEW005 SCT018 SCT027 26/23 A2987

2010/08/10 08:50
EKGF 100850Z 17025KT 9999 BKN010 17/17 Q1009

2010/08/10 08:50
EKHN 100850Z AUTO 16019KT 9999NDV NCD 18/15 Q1014

2010/08/10 08:50
EKHR 100850Z AUTO 17015KT 9999NDV NCD 19/15 Q1012

2010/08/10 08:50
EFHK 100850Z 21009KT 9999 SCT012 FEW030CB BKN055 21/17 Q1012 NOSIG

2010/08/10 08:50
EFJY 100850Z 20006KT 150V260 9999 SCT035 BKN060 21/16 Q1010

2010/08/10 08:50
EFKU 100850Z AUTO 17009KT 140V210 9999NDV BKN020 BKN060 22/15 Q1010

2010/08/10 08:50
EFRO 100850Z AUTO 35009KT 9999NDV OVC012 12/10 Q1010

2010/08/10 08:50
EFTP 100850Z 21006KT 150V240 9999 SCT025 20/16 Q1010

2010/08/10 08:50
EFTU 100850Z AUTO 24007KT 190V280 9999 SCT018 BKN050 20/16 Q1010

2010/08/10 08:50
EFVA 100850Z VRB05KT 9999 -SHRA FEW006 SCT015 BKN038 BKN050 19/17 Q1008

2010/08/10 08:50
EKVD 100850Z 19010KT 160V220 9999 SCT029 20/13 Q1014

2010/08/10 08:50
EKKA 100850Z 19010KT 150V220 9999 FEW030 SCT220 20/12 Q1013 NOSIG

2010/08/10 08:50
EKSP 100850Z 17009KT 140V200 9999 FEW027 SCT200 21/14 Q1014 NOSIG

2010/08/10 09:00
BKPR 100900Z 36009KT 330V040 9999 FEW040 24/14 Q1018 NOSIG RMK BLU

2010/08/10 08:50
ESGG 100850Z 22012KT 9999 SCT025 BKN035 18/11 Q1015

2010/08/10 08:50
ESGJ 100850Z 25011KT 9999 FEW020 SCT041 17/12 Q1015

2010/08/10 08:50
ESGP 100850Z 21010KT 9999 FEW030 BKN046 OVC062 18/13 Q1014

2010/08/10 08:50
ESGT 100850Z 21011KT 9999 SCT025 SCT050 19/13 Q1013

2010/08/10 08:50
ESMK 100850Z VRB02KT CAVOK 21/11 Q1016

2010/08/10 08:50
ESMQ 100850Z 27008KT 9999 BKN043 19/12 Q1016

2010/08/10 08:50
ESMS 100850Z 20006KT 140V240 9999 FEW035 19/11 Q1016

2010/08/10 08:50
ESMT 100850Z 22009KT 190V250 9999 SCT045 19/13 Q1016

2010/08/10 08:50
ESMX 100850Z 22008KT 9999 FEW018 SCT023 BKN039 17/13 Q1016

2010/08/10 08:50
ESTA 100850Z 22007KT CAVOK 20/10 Q1016

2010/08/10 08:50
ESTL 100850Z 16004KT 090V200 CAVOK 19/12 Q1016

2010/08/10 09:00
OPKC 100900Z 23012KT 7000 FEW020 SCT030 33/25 Q1002 NOSIG

2010/08/10 08:50
EKSB 100850Z 15008KT 120V190 9999 FEW025 21/13 Q1014

2010/08/10 08:50
EKSN 100850Z 22010KT 9999 FEW028 SCT060 18/12 Q1013

2010/08/10 08:50
EKOD 100850Z 17007KT 140V200 9999 FEW020TCU 20/13 Q1015

2010/08/10 08:50
EKCH 100850Z 18006KT 130V230 9999 FEW025 20/13 Q1016 NOSIG

2010/08/10 08:50
EKBI 100850Z 17008KT 120V200 9999 FEW025 BKN250 19/14 Q1014

2010/08/10 08:50
EKYT 100850Z 21009KT 9999 FEW045 21/12 Q1013 NOSIG

2010/08/10 08:50
EKRK 100850Z AUTO 14008KT 100V160 9999NDV NCD 20/11 Q1016

2010/08/10 08:50
EKAH 100850Z AUTO 17009KT 140V230 9999NDV NCD 19/11 Q1015

2010/08/10 08:50
EKEB 100850Z AUTO 17012KT 9999NDV FEW014/// 20/15 Q1013

2010/08/10 08:50
EKRN 100850Z AUTO 13007KT 090V150 9999NDV BKN034/// BKN056/// 18/15 Q1017

2010/08/10 08:45
KMWA 100845Z AUTO 00000KT 5SM BR CLR 27/26 A2994

2010/08/10 08:45
KSAR 100845Z AUTO 00000KT 7SM CLR 26/25 A2992

2010/08/10 08:45
KSLO 100845Z AUTO 00000KT 5SM BR CLR 25/23 A2993

2010/08/10 08:45
KTAZ 100845Z AUTO 14004KT 10SM CLR 25/24 A2991

2010/08/10 08:45
KTIP 100845Z AUTO 05004KT 7SM CLR 26/25 A2994

2010/08/10 08:48
KEHA 100848Z AUTO 28005KT 22/17

2010/08/10 08:51
KCAR 100851Z AUTO 00000KT 1 1/2SM BR CLR 14/14 A2981

2010/08/10 08:48
KIZA 100848Z AUTO 00000KT 10SM SCT009 12/10 A2991

2010/08/10 08:52
K9V9 100852Z AUTO 19009KT 24/23 A2990 RMK AO2 SLP108 P0001 60001 T02390228 53007 PWINO TSNO 

2010/08/10 08:48
PADL 100848Z 18005KT 3SM -RA BR SCT004 OVC008 09/09 A2963

2010/08/10 08:51
KCAR 100851Z AUTO 00000KT 1 1/2SM BR CLR 14/14 A2981

2010/08/10 08:50
CYBU 100850Z AUTO 12003KT 3SM BR CLR 12/12 A2988 RMK SLP125 VIS VRB 5/8-3

2010/08/10 08:52
CYBU 100852Z AUTO 11003KT 6SM BR CLR 12/12 A2988 RMK SLP125

2010/08/10 08:51
CYKL 100851Z AUTO 32009KT 2 3/8SM -DZ OVC006 09/08 A2971

2010/08/10 08:50
CYMH 100850Z AUTO 22014KT 9SM BKN014 BKN056 16/14 A2957

2010/08/10 08:50
CYOY 100850Z AUTO 00000KT 1/4SM SCT007 BKN073 12/10 A2986

2010/08/10 08:53
CYSC 100853Z AUTO 00000KT 1 3/4SM BR OVC008 13/13 A2991 RMK SLP132 VIS VRB 1/2-3

2010/08/10 08:52
CYTZ 100852Z AUTO 31003KT 2 1/4SM FEW046 OVC061 20/20 A2992 RMK SLP131 DENSITY ALT 800FT RVR MISG

2010/08/10 08:50
CYVM 100850Z AUTO 00000KT 1SM FEW001 SCT006 02/02 A2993 RMK VSBY VRBL 0.4V8.0

2010/08/10 08:51
CYVM 100851Z AUTO 00000KT 1 5/8SM FEW001 02/02 A2993 RMK VSBY VRBL 0.6V9.+

2010/08/10 08:48
EHLW 100848Z AUTO 21010KT 7000NDV BR FEW006 SCT010 BKN013 18/16 Q1012 GRN WHT TEMPO GRN 6000 BR SCT023 TEMPO SCT012

2010/08/10 08:50
KLSF 100850Z AUTO 00000KT 2SM R33/2000V5000FT BR CLR 22/22 A2996 RMK AO2 SLP144 PNO $

2010/08/10 08:52
KLSF 100852Z AUTO 00000KT 3SM R33/2600V5500FT BR CLR 22/22 A2996 RMK AO2 SLP144 PNO $

2010/08/10 08:51
KMTC 100851Z 00000KT 1SM R19/1000FT BCFG CLR 20/20 A2994 RMK VIS S 1/4

2010/08/10 08:52
RKJK 100852Z 04008KT 4000 -RA BR CLR 26/26 A2967 RMK AO2A VIS 2400V8000 SLP049 $

2010/08/10 08:50
RODN 100850Z 20007KT 9999 -DZ SCT016 BKN140 29/26 A2980 RMK AO2A RAE0811B0830E0849DZB0849 CIG 014 RWY05 SLP091

2010/08/10 08:52
RODN 100852Z 20007KT 9999 SCT016 BKN140 29/26 A2980 RMK AO2A RAE0811B0830E0849DZB0849E0852 CIG 014 RWY05 SLP091

2010/08/10 08:51
KCAK 100851Z 25003KT 8SM SCT070 OVC100 24/19 A2997 RMK AO2 SLP137 8/07/ T02390189 56002 

2010/08/10 08:53
KP92 100853Z AUTO 00000KT 25/24 A2991 RMK AO2 SLP127 T02500244 56009 PWINO TSNO 

2010/08/10 08:53
KCHA 100853Z 00000KT 10SM CLR 26/23 A3001 RMK AO2 SLP150 T02610228 53001 $ 

2010/08/10 09:00
SBBR 100900Z 00000KT CAVOK 13/04 Q1023 

2010/08/10 08:53
KCTY 100853Z AUTO 09003KT 24/24 A2991 RMK AO2 SLP128 T02440239 56006 PWINO TSNO 

2010/08/10 08:53
KFAR 100853Z 13003KT 10SM CLR 22/19 A2987 RMK AO2 SLP108 T02220189 58007 

2010/08/10 08:53
KMSY 100853Z 26004KT 8SM FEW250 25/24 A2992 RMK AO2 SLP133 T02500244 55006 

2010/08/10 08:53
KLND 100853Z AUTO 35009KT 10SM CLR 17/03 A3005 RMK AO2 SLP102 T01670033 51001 

2010/08/10 08:53
KOQT 100853Z AUTO 00000KT 5SM BR FEW050 24/23 A3003 RMK AO2 SLP148 T02440233 55001 TSNO 

2010/08/10 08:53
KNUI 100853Z AUTO 22006KT 10SM CLR 26/22 A2994 RMK AO2 SLP137 T02560222 57007 

2010/08/10 08:53
KNJM 100853Z AUTO 00000KT 10SM SCT017 SCT021 27/25 A3001 RMK AO2 

2010/08/10 08:53
KLXV 100853Z AUTO 00000KT 10SM CLR 04/04 A3044 RMK AO2 SLP164 T00440039 51002 TSNO 

2010/08/10 08:53
KRQE 100853Z AUTO 00000KT 10SM SCT075 12/09 A3026 RMK AO2 SLP132 T01220094 58000 TSNO 

2010/08/10 08:53
KCUT 100853Z AUTO 24006KT 10SM SCT110 16/13 A3002 RMK AO2 SLP095 T01610133 56019 TSNO 

2010/08/10 08:53
KSAV 100853Z 00000KT 10SM FEW019 25/23 A2998 RMK AO2 SLP153 T02500233 56005 $ 

2010/08/10 08:53
KRNM 100853Z AUTO 00000KT 9SM CLR 12/09 A2991 RMK AO2 SLP115 T01170094 58003 TSNO 

2010/08/10 08:50
KLXN 100850Z AUTO 00000KT 10SM SCT100 21/19 A2990 RMK AO2 T02050190

2010/08/10 08:52
KMDH 100852Z AUTO 00000KT 3SM BR SCT085 25/23 A2992 RMK AO2 SLP127 T02500233 58008 TSNO

2010/08/10 08:52
KMEB 100852Z AUTO 00000KT 6SM BR CLR 23/22 A3001 RMK AO2 SLP160 T02280222 56004

2010/08/10 08:52
KMFD 100852Z AUTO 25005KT 6SM HZ CLR 23/19 A2999 RMK AO2 RAE0757 SLP142 P0000 60000 T02330194 52002

2010/08/10 08:52
KMHK 100852Z AUTO 00000KT 9SM CLR 28/21 A2984 RMK AO2 SLP091 T02780206 58011

2010/08/10 08:52
KMKE 100852Z 00000KT 4SM BR FEW250 22/21 A2994 RMK AO2 SLP133 T02170211 55006

2010/08/10 08:50
KMLE 100850Z AUTO 13004KT 10SM SCT085 27/23 A2985 RMK AO2 T02670232

2010/08/10 08:52
KMLI 100852Z 11005KT 10SM SCT038 24/23 A2993 RMK AO2 SLP128 T02440233 55001

2010/08/10 08:49
KMMH 100849Z AUTO 33003KT 10SM CLR 04/M00 A3016 RMK AO1

2010/08/10 08:52
KMWH 100852Z AUTO 29009KT 10SM FEW090 18/09 A2981 RMK AO2 SLP088 T01780089 53008

2010/08/10 08:55
KMYR 100855Z AUTO 00000KT 10SM SCT018 25/23 A3004 RMK AO1 57003

2010/08/10 08:55
KOAJ 100855Z AUTO 00000KT 10SM CLR 23/22 A3002 RMK AO1 57003

2010/08/10 08:50
KOGA 100850Z AUTO 00000KT 10SM CLR 19/17 A2995 RMK AO2 LTG DSNT E 60008 T01890165

2010/08/10 08:50
KOJA 100850Z AUTO 20007KT 10SM CLR 27/20 A2991 RMK AO2

2010/08/10 08:52
KOKB 100852Z AUTO 05003KT 8SM OVC013 16/13 A2990 RMK AO2 SLP123 T01610133 58001 $

2010/08/10 08:52
KOKC 100852Z 17005KT 10SM CLR 25/21 A2991 RMK AO2 SLP107 T02500211 56010 $

2010/08/10 08:51
KOKM 100851Z AUTO 00000KT 10SM CLR 25/23 A2991 RMK AO1

2010/08/10 08:52
KOMA 100852Z 14009KT 10SM FEW090 SCT250 28/24 A2985 RMK AO2 SLP095 OCNL LTG DSNT NE T02780244 55001

2010/08/10 08:50
KONL 100850Z AUTO 28012G17KT 10SM -VCTSRA SCT100 BKN120 21/19 A2990 RMK AO2 LTG DSNT W THRU NE P0004 60011 T02110190

2010/08/10 08:52
KORE 100852Z AUTO 00000KT 3SM BR BKN090 21/21 A2992 RMK AO2 SLP130 60001 T02110206 55004

2010/08/10 08:50
KORS 100850Z AUTO 18007KT 10SM BKN038 14/11 A2992 RMK AO2

2010/08/10 08:50
KPLU 100850Z AUTO 25003KT 10SM OVC009 13/12 A2996 RMK AO2

2010/08/10 08:52
KPPF 100852Z AUTO 00000KT 10SM CLR 25/22 A2991 RMK AO2 SLP116 T02500217 56007

2010/08/10 08:50
KPTS 100850Z AUTO 21005KT 10SM CLR 26/23 A2991 RMK AO2 T02620230

2010/08/10 08:52
KPWK 100852Z AUTO 00000KT 10SM CLR 24/22 A2994 RMK AO2 SLP134 T02390222 58009

2010/08/10 08:52
KPYM 100852Z AUTO 00000KT 3SM RA BR BKN033 22/20 A2992 RMK AO2 RAB37 SLP129 P0001 60019 T02220200 56006

2010/08/10 08:52
KRAP 100852Z AUTO 15009KT 10SM CLR 19/17 A2985 RMK AO2 SLP079 T01940167 58017

2010/08/10 08:51
KRKR 100851Z AUTO 00000KT 10SM CLR 26/24 A2992 RMK AO2

2010/08/10 08:52
KSGF 100852Z 19003KT 10SM CLR 25/23 A2994 RMK AO2 SLP121 T02500233 58006

2010/08/10 08:53
KSNL 100853Z AUTO 18007KT 10SM CLR 27/20 A2992 RMK AO2

2010/08/10 08:55
KSOP 100855Z AUTO 23005KT 8SM CLR 24/23 A3001 RMK AO1 57003

2010/08/10 08:52
KSPI 100852Z AUTO 12004KT 10SM CLR 25/22 A2993 RMK AO2 SLP127 T02500222 55020

2010/08/10 08:52
KSPS 100852Z AUTO 20008KT 10SM CLR 27/18 A2990 RMK AO2 SLP108 P0004 60013 T02720183 55007

2010/08/10 08:59
K36U 100859Z AUTO 00000KT 10SM CLR 08/04 A3012 RMK AO2

2010/08/10 08:50
KPMV 100850Z AUTO 15006KT 10SM SCT090 27/23 A2986 RMK AO2 T02660228

2010/08/10 08:51
KADH 100851Z AUTO 21005KT 10SM CLR 27/18 A2991 RMK AO2

2010/08/10 08:50
KADM 100850Z AUTO 00000KT 10SM CLR 24/22 A2990 RMK AO2

2010/08/10 08:50
KAFK 100850Z AUTO 21007KT 10SM CLR 25/22 A2986 RMK AO2 T02470219

2010/08/10 08:52
KAFN 100852Z AUTO 00000KT 6SM BR OVC090 20/19 A2994 RMK AO2 SLP135 T02000189 55005

2010/08/10 08:45
KALM 100845Z AUTO 33004KT 10SM CLR 22/12 A3002 RMK AO2

2010/08/10 08:52
KALS 100852Z AUTO 29004KT 10SM CLR 08/06 A3029 RMK AO2 SLPNO T00780056 53005

2010/08/10 08:50
KANW 100850Z AUTO 03008KT 10SM -RA SCT045 SCT050 SCT120 19/18 A2987 RMK AO2 LTG DSNT N THRU E P0008 60066 T01850177

2010/08/10 08:52
KAQW 100852Z AUTO 00000KT 3SM BR BKN017 OVC028 21/20 A2994 RMK AO2 SLP135 T02060200 51001

2010/08/10 08:52
KARR 100852Z AUTO 00000KT 7SM CLR 23/22 A2994 RMK AO2 SLP132 T02330222 55006

2010/08/10 08:52
KATL 100852Z 00000KT 9SM FEW250 26/21 A3001 RMK AO2 SLP151 T02560211 55004

2010/08/10 08:50
KATS 100850Z AUTO 15005KT 10SM CLR 20/15 A3002 RMK AO2

2010/08/10 08:50
KAUH 100850Z AUTO 23007KT 10SM CLR 24/21 A2986 RMK AO2 LTG DSNT N T02430210

2010/08/10 08:50
KAUN 100850Z AUTO 11006KT 10SM CLR 20/11 A2988 RMK AO1

2010/08/10 08:50
KAXS 100850Z AUTO 29004KT 10SM CLR 25/20 A2992 RMK AO2 T02470198

2010/08/10 08:50
KAXX 100850Z AUTO 00000KT 3SM BR SCT001 05/05 A3038 RMK AO2

2010/08/10 08:52
KBDR 100852Z AUTO 04003KT 10SM FEW055 26/18 A2992 RMK AO2 SLP133 T02560183 51003

2010/08/10 08:50
KBIE 100850Z AUTO 16005KT 10SM CLR 27/22 A2985 RMK AO2 T02650215

2010/08/10 08:52
KBIS 100852Z AUTO 15006KT 10SM CLR 22/19 A2983 RMK AO2 SLP087 T02220189 58012

2010/08/10 08:52
KBLF 100852Z AUTO 26005KT 10SM OVC050 23/17 A3013 RMK AO2 SLP153 T02280172 55004

2010/08/10 08:52
KBLH 100852Z AUTO 21006KT 10SM CLR 29/M02 A2976 RMK AO2 SLP070 T02941017 51006

2010/08/10 08:52
KBML 100852Z AUTO 00000KT 1/4SM FG BKN001 OVC011 15/15 A2994 RMK AO2 SLP133 P0001 60001 T01500150 53001

2010/08/10 08:50
KBTA 100850Z AUTO 16005KT 10SM CLR 27/23 A2985 RMK AO2 T02690233

2010/08/10 08:50
KBVN 100850Z AUTO 32011G19KT 7SM RA SCT025 BKN042 OVC075 22/19 A2991 RMK AO2 LTG DSNT N P0001 60001 T02210190

2010/08/10 08:45
KBVS 100845Z AUTO 23003KT 9SM OVC011 13/13 A2996 RMK A01 P000

2010/08/10 08:52
KCFV 100852Z AUTO 15004KT 10SM CLR 26/22 A2990 RMK AO2 SLP116 T02560217 56007

2010/08/10 08:50
KCHK 100850Z AUTO 18004KT 10SM CLR 27/21 A2990 RMK AO2

2010/08/10 08:52
KCID 100852Z AUTO 22008KT 6SM BR BKN016 BKN023 BKN031 24/23 A2997 RMK AO2 LTG DSNT ALQDS SLP142 T02390228 51024

2010/08/10 08:52
KCKV 100852Z AUTO 00000KT 4SM BR CLR 25/24 A2995 RMK AO2 SLP135 T02500239 58004

2010/08/10 08:51
KCLE 100851Z COR 25004KT 6SM BR FEW055 SCT250 23/21 A2996 RMK AO2 SLP139 8/501 T02280206 50002

2010/08/10 08:50
KCLK 100850Z AUTO 15007KT 10SM CLR 27/18 A2991 RMK AO2

2010/08/10 08:52
KCLT 100852Z 00000KT 8SM CLR 24/22 A3002 RMK AO2 SLP157 T02390217 58006

2010/08/10 08:50
KSRE 100850Z AUTO 00000KT 10SM CLR 26/20 A2991 RMK AO2

2010/08/10 08:52
KSUX 100852Z 10005KT 9SM OVC012 26/24 A2984 RMK AO2 SLP094 60000 T02560239 55013

2010/08/10 08:45
KSVC 100845Z AUTO 35008KT 10SM CLR 18/08 A3016 RMK AO2

2010/08/10 08:52
KTAN 100852Z AUTO 00000KT 3SM -RA BR SCT120 21/21 A2990 RMK AO2 RAB21 SLP122 P0001 60016 T02110211 56002

2010/08/10 08:54
KTMK 100854Z AUTO 18003KT 10SM OVC024 14/13 A3002 RMK AO2

2010/08/10 08:52
KTOL 100852Z 00000KT 1SM BR VV001 22/22 A2995 RMK AO2 SLP136 T02220217 58001 RVRNO

2010/08/10 08:52
KTRM 100852Z AUTO 01008KT 10SM CLR 27/08 A2971 RMK AO2 SLP063 T02720078 50001

2010/08/10 08:55
KUDG 100855Z 00000KT 3SM CLR 23/22 A3003 RMK AO1 57003

2010/08/10 08:52
KUGN 100852Z AUTO 00000KT 3SM BR CLR 22/21 A2993 RMK AO2 SLP123 T02170206 55004

2010/08/10 08:52
KVTN 100852Z AUTO 29009KT 10SM -RA FEW025 19/18 A2988 RMK AO2 LTG DSNT E TSE0753 PRESFR SLP093 P0007 60016 T01890183 58005

2010/08/10 08:54
KWDG 100854Z AUTO 15007KT 10SM CLR 25/21 A2991 RMK AO2

2010/08/10 08:48
KWWR 100848Z AUTO 19007KT 10SM CLR 26/19 A2995 RMK AO2 T02550185

2010/08/10 08:52
KCNU 100852Z AUTO 18006KT 10SM CLR 26/21 A2990 RMK AO2 SLP110 T02560206 58006

2010/08/10 08:50
KCQB 100850Z AUTO 17004KT 10SM 27/21 A2990 RMK AO2 TSNO

2010/08/10 08:52
KCQX 100852Z AUTO 00000KT 4SM BR FEW048 21/21 A2991 RMK AO2 RAE44 SLP130 P0005 60014 T02110206 58005

2010/08/10 08:50
KCUH 100850Z AUTO 19003KT 10SM CLR 26/21 A2990 RMK AO2

2010/08/10 08:52
KCVG 100852Z 00000KT 7SM BKN120 24/22 A2997 RMK AO2 SLP136 T02440217 55002

2010/08/10 08:52
KDCA 100852Z 19007KT 8SM BKN250 26/21 A2994 RMK AO2 SLP138 T02560206 56004

2010/08/10 08:52
KDDC 100852Z AUTO 30010G17KT 10SM CLR 23/18 A2992 RMK AO2 SLP095 T02280183 55003

2010/08/10 08:52
KDPA 100852Z 00000KT 8SM FEW034 24/23 A2994 RMK AO2 SLP130 T02390228 58005

2010/08/10 08:52
KDVN 100852Z AUTO 08006KT 9SM BKN039 24/22 A2993 RMK AO2 SLP130 T02440222 55003

2010/08/10 08:50
KDVO 100850Z AUTO 00000KT 10SM OVC007 12/11 A2990 RMK AO2

2010/08/10 08:52
KEST 100852Z AUTO 15009KT 6SM BR FEW012 BKN039 24/24 A2991 RMK AO2 LTG DSNT SW SLP119 T02440239 55006

2010/08/10 08:53
KDBQ 100853Z AUTO 00000KT 5SM R36/3000VP6000FT BR FEW031 23/22 A2997 RMK AO2 SLP140 T02280217 55002

2010/08/10 08:53
KDCU 100853Z AUTO 00000KT 4SM BR CLR 24/23 A2997 RMK AO2 SLP142 T02440228 56007

2010/08/10 08:53
KDEW 100853Z AUTO 00000KT 10SM CLR 12/06 A2980 RMK AO2 SLP080 T01170061 51003

2010/08/10 08:53
KDHT 100853Z AUTO 23004KT 10SM CLR 21/18 A3005 RMK AO2 SLP109 T02060178 56006

2010/08/10 08:53
KDLN 100853Z AUTO 20011KT 10SM SCT085 OVC110 12/07 A3004 RMK AO2 SLP126 T01220072 53001

2010/08/10 08:53
KDLS 100853Z AUTO 29008KT 10SM CLR 18/09 A2988 RMK AO2 SLP115 T01830089 58002

2010/08/10 08:53
KDNL 100853Z AUTO 13003KT FEW100 24/22 A3001 RMK AO2 SLP155 T02440222 55005 $

2010/08/10 08:53
KDRT 100853Z AUTO 12008KT 10SM CLR 28/23 A2990 RMK AO2 SLP107 T02830228 58003

2010/08/10 08:53
KDVT 100853Z 00000KT 10SM CLR 28/12 A2983 RMK AO2 SLP072 T02830122 50003

2010/08/10 08:53
KDWH 100853Z AUTO 00000KT 9SM CLR 24/24 A2991 RMK AO2 SLP126 T02440239 56010

2010/08/10 08:55
KDYB 100855Z AUTO 00000KT 10SM CLR 24/24 A2999 RMK AO1

2010/08/10 08:53
KEET 100853Z AUTO 00000KT 5SM BR CLR 26/24 A2997 RMK AO2 SLP138 T02560239 55005

2010/08/10 08:53
KELN 100853Z AUTO 32013KT 10SM CLR 15/08 A2985 RMK AO2 SLP100 T01500083 58002

2010/08/10 08:53
KENW 100853Z AUTO 00000KT 4SM BR FEW008 21/20 A2995 RMK AO2 SLP136 T02060200 55007

2010/08/10 08:53
KEPH 100853Z AUTO 33010G18KT 10SM CLR 18/09 A2980 RMK AO2 SLP083 T01830089 51008

2010/08/10 08:53
KEQY 100853Z AUTO 00000KT 6SM BR CLR 23/22 A3001 RMK AO2 SLP159 T02280217 58006

2010/08/10 08:53
KESF 100853Z AUTO 00000KT 9SM CLR 24/23 A2993 RMK AO2 SLP133 T02440233 58002

2010/08/10 08:53
KFAT 100853Z 29006KT 10SM CLR 22/14 A2980 RMK AO2 SLP088 T02170144 58003

2010/08/10 08:53
KFCM 100853Z AUTO 06003KT 8SM CLR 23/21 A2992 RMK AO2 SLP122 T02330211 56007

2010/08/10 08:53
KFFC 100853Z AUTO 00000KT 4SM BR CLR 22/21 A3001 RMK AO2 SLP155 T02170206 55004

2010/08/10 08:53
KFHR 100853Z AUTO 00000KT 10SM FEW070 OVC100 12/09 A2995 RMK AO2 SLP141 T01170094 56004

2010/08/10 08:53
KFLD 100853Z AUTO 00000KT 2SM BR CLR 21/20 A2994 RMK AO2 SLP134 T02060200 58006

2010/08/10 08:53
KFSM 100853Z AUTO 00000KT 10SM CLR 26/24 A2991 RMK AO2 SLP121 T02610239 55005

2010/08/10 08:53
KFST 100853Z AUTO 13003KT 9SM CLR 22/19 A3000 RMK AO2 SLP110 T02170189 56006

2010/08/10 08:53
KFTY 100853Z 00000KT 5SM BR CLR 24/22 A3001 RMK AO2 SLP150 T02390217 55004

2010/08/10 08:53
KFUL 100853Z 00000KT 7SM CLR 16/13 A2989 RMK AO2 SLP121 T01610128 50000

2010/08/10 08:53
KFYV 100853Z AUTO 00000KT 10SM CLR 23/22 A2997 RMK AO2 SLP129 T02330222 56005

2010/08/10 08:53
KGEG 100853Z 20009KT 10SM BKN130 OVC200 18/06 A2980 RMK AO2 SLP075 T01780061 51001

2010/08/10 08:53
KGEY 100853Z AUTO 16003KT 10SM CLR 16/09 A2995 RMK AO2 SLP103 T01610094 51009

2010/08/10 08:53
KGFK 100853Z 17003KT 10SM FEW250 20/19 A2986 RMK AO2 SLP107 T02000189 58000

2010/08/10 08:53
KGLH 100853Z AUTO 00000KT 10SM CLR 24/23 A2993 RMK AO2 SLP138 T02390233 58002

2010/08/10 08:53
KPIR 100853Z AUTO 17007KT 6SM -RA BR SCT019 BKN028 BKN037 24/23 A2985 RMK AO2 RAB08 SLP088 P0004 60004 T02390233 55001

2010/08/10 08:53
KPKD 100853Z AUTO 11003KT 10SM CLR 21/19 A2993 RMK AO2 SLP127 T02110189 58009

2010/08/10 08:53
KPMD 100853Z AUTO 16004KT 10SM CLR 18/04 A2991 RMK AO2 SLP099 T01830044 58003

2010/08/10 08:53
KPQL 100853Z AUTO 00000KT 6SM BR FEW060 25/24 A2991 RMK AO2 SLP130 T02500244 56005

2010/08/10 08:53
KPRB 100853Z AUTO A2990 RMK AO2 SLPNO 6//// 50000 PWINO FZRANO TSNO

2010/08/10 08:53
KPRC 100853Z AUTO 19007KT 10SM CLR 17/07 A3011 RMK AO2 SLP114 T01720072 58002

2010/08/10 08:53
KPSC 100853Z AUTO 20003KT 10SM CLR 20/10 A2982 RMK AO2 SLP096 T02000100 50005

2010/08/10 08:55
KPSO 100855Z AUTO 00000KT 10SM CLR 09/05 A3032 RMK AO2

2010/08/10 08:53
KPSP 100853Z AUTO 00000KT 10SM CLR 24/08 A2975 RMK AO2 SLP071 T02440083 58002 TSNO

2010/08/10 08:53
KPSX 100853Z AUTO 24003KT 10SM CLR 29/26 A2990 RMK AO2 SLP125 T02890256 56007

2010/08/10 08:53
KHLN 100853Z AUTO 00000KT 10SM CLR 13/10 A2993 RMK AO2 SLP118 T01280100 53002

2010/08/10 08:53
KHOT 100853Z AUTO 00000KT 10SM CLR 28/23 A2992 RMK AO2 SLP123 T02780233 58006

2010/08/10 08:53
KHOU 100853Z 00000KT 10SM FEW250 27/24 A2990 RMK AO2 SLP130 T02670239 55008

2010/08/10 08:53
KHQM 100853Z AUTO 27003KT 9SM OVC011 13/11 A2998 RMK AO2 SLP155 T01280111 58009

2010/08/10 08:53
KHRI 100853Z AUTO 24014KT 10SM CLR 18/09 A2985 RMK AO2 SLP100 T01780094 50006

2010/08/10 08:53
KHRO 100853Z AUTO 00000KT 8SM CLR 25/23 A2997 RMK AO2 SLP127 T02500233 56007

2010/08/10 08:53
KHSI 100853Z AUTO 33012G19KT 10SM FEW095 23/19 A2989 RMK AO2 SLP101 T02330189 53001 $

2010/08/10 08:53
KHSV 100853Z 00000KT 5SM BR FEW200 26/24 A2997 RMK AO2 SLP141 T02560239 56006

2010/08/10 08:53
KHVR 100853Z AUTO 18003KT 10SM CLR 15/14 A2980 RMK AO2 SLP074 T01500139 56003

2010/08/10 08:53
KHYR 100853Z AUTO 00000KT 9SM CLR 17/16 A2998 RMK AO2 SLP146 60002 T01720161 58004

2010/08/10 08:53
KMIW 100853Z AUTO 14008KT 6SM TSRA BR OVC037 23/22 A2995 RMK AO2 LTG DSNT ALQDS SLP132 P0013 60017 T02330222 $

2010/08/10 08:53
KMKL 100853Z AUTO 00000KT 4SM BR CLR 26/24 A2995 RMK AO2 SLP135 T02560244 58002

2010/08/10 08:53
KMLP 100853Z AUTO 19004KT 10SM CLR 11/06 A2998 RMK AO2 SLP062 T01110056 56005 TSNO

2010/08/10 08:53
KMLS 100853Z AUTO 27006KT 10SM CLR 18/15 A2984 RMK AO2 PRESRR SLP079 T01830150 51014

2010/08/10 08:53
KMMV 100853Z AUTO 24006KT 10SM CLR 11/10 A3000 RMK AO2 SLP157 T01110100 58002

2010/08/10 08:53
KMSL 100853Z AUTO 00000KT 3/4SM BR VV001 24/23 A2998 RMK AO2 SLP143 T02440233 56005

2010/08/10 08:53
KMSO 100853Z AUTO 10006KT 10SM CLR 16/11 A2991 RMK AO2 SLP110 T01610111 55001

2010/08/10 08:53
KMSP 100853Z 10006KT 8SM CLR 24/22 A2993 RMK AO2 SLP126 T02440222 58006

2010/08/10 08:53
KMSY 100853Z 26004KT 8SM FEW250 25/24 A2992 RMK AO2 SLP133 T02500244 55006

2010/08/10 08:53
KMYF 100853Z AUTO 00000KT 10SM OVC011 17/14 A2991 RMK AO2 SLP123 T01670144 58002 TSNO

2010/08/10 08:53
KMYV 100853Z AUTO 16004KT 10SM CLR 17/12 A2982 RMK AO2 SLP101 T01720122 51004

2010/08/10 08:53
KNEW 100853Z AUTO 05004KT 9SM BKN012 BKN022 28/26 A2992 RMK AO2 SLP124 T02830256 56006 TSNO

2010/08/10 08:53
KOAK 100853Z 03003KT 10SM OVC006 14/11 A2991 RMK AO2 SLP126 T01440111 58007

2010/08/10 08:53
KODX 100853Z AUTO 35005KT 10SM FEW095 20/19 A2988 RMK AO2 LTG DSNT N AND NE TSE09RAE38 SLP104 P0006 60016 T02000189 58001

2010/08/10 08:53
KOGD 100853Z AUTO 17010KT 10SM CLR 18/04 A2999 RMK AO2 SLP098 T01780044 58003

2010/08/10 08:53
KOMK 100853Z AUTO 34008KT 10SM BKN120 16/11 A2983 RMK AO2 SLP095 T01610106 58004

2010/08/10 08:53
KONO 100853Z AUTO 35004KT 10SM CLR 18/12 A2984 RMK AO2 SLP089 T01830117 50003

2010/08/10 08:53
KONT 100853Z 29005KT 10SM CLR 16/12 A2990 RMK AO2 SLP111 T01610122 50001

2010/08/10 08:51
KORF 100851Z 22007KT 10SM CLR 25/23 A2997 RMK AO2 SLP149 T02500233 56004 $

2010/08/10 08:53
KOSH 100853Z AUTO 00000KT 1 1/2SM BR CLR 21/20 A2994 RMK AO2 SLP124 T02110200 58003

2010/08/10 08:53
KOVS 100853Z AUTO 00000KT 1/4SM FG VV001 23/23 A2995 RMK AO2 SLP138 60001 T02330228 55003

2010/08/10 08:53
KPAE 100853Z AUTO 20008KT 10SM BKN080 13/12 A2995 RMK AO2 SLP142 T01330117 58006

2010/08/10 08:53
KPAH 100853Z AUTO 00000KT 7SM CLR 26/24 A2992 RMK AO2 SLP126 T02560244 58005

2010/08/10 08:53
KPBF 100853Z AUTO 19003KT 10SM CLR 26/24 A2993 RMK AO2 SLP129 T02610239 55004

2010/08/10 08:53
KPDK 100853Z AUTO 00000KT 10SM CLR 24/21 A3002 RMK AO2 SLP143 T02440206 55003

2010/08/10 08:53
KPDT 100853Z AUTO 21005KT 10SM CLR 16/07 A2988 RMK AO2 SLP101 T01610072 50001

2010/08/10 08:53
KPDX 100853Z 33004KT 10SM OVC032 15/11 A2999 RMK AO2 SLP155 T01500111 58002

2010/08/10 08:53
KPGA 100853Z AUTO 21003KT 10SM SCT110 23/03 A3004 RMK AO2 SLP101 T02280033 51003

2010/08/10 08:53
KPIH 100853Z AUTO 01004KT 10SM CLR 12/09 A3000 RMK AO2 SLP123 T01170089 56006

2010/08/10 08:53
KPIL 100853Z AUTO 15003KT 10SM CLR 30/26 A2988 RMK AO2 SLP118 T03000261 58013

2010/08/10 08:53
KBEH 100853Z AUTO 00000KT 8SM CLR 20/19 A2994 RMK AO2 SLP134 T02000194 58004

2010/08/10 08:53
KBFI 100853Z 21005KT 10SM OVC017 15/12 A2995 RMK AO2 SLP142 T01500117 58005

2010/08/10 08:53
KBFM 100853Z 33004KT 7SM CLR 26/24 A2993 RMK AO2 SLP133 T02610244 58005

2010/08/10 08:53
KBHK 100853Z AUTO 29013G23KT 10SM -RA FEW085 19/16 A2983 RMK AO2 RAB43 SLP068 P0000 60000 T01940156 50004

2010/08/10 08:53
KBHM 100853Z 00000KT 8SM CLR 27/23 A2999 RMK AO2 SLP144 T02720233 55004

2010/08/10 08:53
KBIL 100853Z 22007KT 10SM CLR 16/13 A2991 RMK AO2 SLP096 T01560133 58001

2010/08/10 08:53
KBIV 100853Z AUTO 00000KT 1/4SM FG FEW001 OVC008 21/19 A2996 RMK AO2 SLP140 T02060189 56003

2010/08/10 08:53
KBKE 100853Z AUTO 25005KT 10SM BKN085 BKN110 13/11 A2990 RMK AO2 RAB17E52 SLP102 P0002 60002 T01280111 58003

2010/08/10 08:53
KBLI 100853Z AUTO 17005KT 10SM SCT012 BKN080 OVC100 14/12 A2993 RMK AO2 SLP142 T01440122 58003

2010/08/10 08:53
KBMQ 100853Z AUTO 17003KT 10SM CLR 26/22 A2997 RMK AO2 SLP128 T02560222 56012 $

2010/08/10 08:53
KIAH 100853Z 00000KT 10SM FEW250 26/24 A2991 RMK AO2 SLP128 T02560244 55007

2010/08/10 08:53
KICR 100853Z AUTO 24011KT 4SM RA BR BKN019 BKN037 OVC050 20/19 A2992 RMK AO2 PK WND 21052/0826 RAB17 SLP113 P0118 60119 T02000189 TSNO $

2010/08/10 08:53
KIDA 100853Z AUTO 00000KT 10SM CLR 11/08 A3003 RMK AO2 SLP136 T01060083 50001

2010/08/10 08:53
KIPL 100853Z AUTO 00000KT 10SM CLR 27/03 A2973 RMK AO2 SLP067 T02670028 51002

2010/08/10 08:53
KJBR 100853Z AUTO 08004KT 10SM CLR 26/24 A2992 RMK AO2 SLP126 T02610239 56008

2010/08/10 08:51
KJCT 100851Z AUTO 19006KT 10SM CLR 27/22 A2997 RMK AO2 SLP106 T02670217 58006 TSNO

2010/08/10 08:53
KJER 100853Z AUTO 04014KT 10SM CLR 15/12 A2992 RMK AO2 SLP095 6//// T01500117 58013 $

2010/08/10 08:55
KJZI 100855Z AUTO 15003KT 10SM CLR 27/27 A3000 RMK A02 P000

2010/08/10 08:53
KLBX 100853Z AUTO 00000KT 9SM CLR 25/24 A2991 RMK AO2 SLP128 T02500244 56007

2010/08/10 08:53
KLCH 100853Z AUTO 06004KT 10SM CLR 26/25 A2991 RMK AO2 SLP137 T02610250 55003

2010/08/10 08:53
KLFK 100853Z AUTO 00000KT 10SM CLR 26/24 A2991 RMK AO2 SLP124 T02610239 56007

2010/08/10 08:53
KLFT 100853Z AUTO 00000KT 10SM FEW050 25/24 A2993 RMK AO2 SLP133 T02500239 55005

2010/08/10 08:53
KLGB 100853Z AUTO 35003KT 8SM BKN010 16/13 A2990 RMK AO2 SLP125 T01610133 58000 TSNO

2010/08/10 08:53
KLIT 100853Z 00000KT 7SM FEW250 28/25 A2991 RMK AO2 SLP125 T02780250 58009

2010/08/10 08:55
KLKR 100855Z AUTO 00000KT 2SM BR CLR 20/20 A3002 RMK AO2

2010/08/10 08:53
KLLQ 100853Z AUTO 00000KT 10SM CLR 26/24 A2993 RMK AO2 SLP131 T02610239 58003

2010/08/10 08:53
KLOL 100853Z AUTO 34006KT 10SM CLR 21/M01 A2993 RMK AO2 SLP089 T02111011 51013

2010/08/10 08:53
KLSE 100853Z AUTO 10004KT 1SM BR OVC002 23/23 A2995 RMK AO2 SLP129 T02280228 55001

2010/08/10 08:53
KLVJ 100853Z AUTO 00000KT 10SM CLR 26/23 A2992 RMK AO2 SLP132 T02610233 56007

2010/08/10 08:53
KLVK 100853Z AUTO 30005KT 10SM CLR 12/11 A2988 RMK AO2 SLP116 T01220111 58005 $

2010/08/10 08:53
KLVM 100853Z AUTO 25012G18KT 10SM CLR 16/08 A2998 RMK AO2 SLP104 T01610078 56002

2010/08/10 08:53
KMAE 100853Z AUTO 28005KT 10SM CLR 18/15 A2981 RMK AO2 SLP092 T01780150 58003

2010/08/10 08:53
KMCB 100853Z AUTO 00000KT 5SM BR CLR 24/22 A2995 RMK AO2 SLP137 T02390222 58003

2010/08/10 08:53
KMCE 100853Z AUTO 31006KT 10SM CLR 18/14 A2980 RMK AO2 SLP091 T01780139 58004

2010/08/10 08:53
KMEM 100853Z 14007KT 10SM CLR 28/24 A2993 RMK AO2 SLP131 T02830244 57003

2010/08/10 08:55
KMEZ 100855Z AUTO 00000KT 7SM CLR 24/23 A2996 RMK AO2

2010/08/10 08:53
KMFE 100853Z AUTO 16003KT 10SM FEW014 27/26 A2988 RMK AO2 SLP114 T02720261 58014 $

2010/08/10 08:53
KMFR 100853Z AUTO 02006KT 10SM CLR 17/08 A2992 RMK AO2 SLP120 T01720083 58002

2010/08/10 08:53
KMHE 100853Z AUTO 18005KT 8SM OVC010 25/23 A2985 RMK AO2 CIG 007V011 SLP098 T02500233 55009 TSNO

2010/08/10 08:53
KMIC 100853Z AUTO 00000KT 7SM CLR 22/21 A2991 RMK AO2 SLP122 T02170206 57006

2010/08/10 08:53
KPUC 100853Z AUTO 00000KT 10SM CLR 15/M02 A3014 RMK AO2 SLP157 T01501017 53002 $

2010/08/10 08:53
KPUW 100853Z AUTO 26007KT 230V290 10SM CLR 16/06 A2988 RMK AO2 SLP102 T01560056 53005

2010/08/10 08:53
KRAC 100853Z AUTO 00000KT 2SM BR CLR 22/20 A2996 RMK AO2 SLP140 T02170200 55007

2010/08/10 08:53
KRAL 100853Z AUTO 27003KT 10SM CLR 17/13 A2990 RMK AO2 SLP110 T01720128 50001

2010/08/10 08:53
KRBG 100853Z AUTO 32003KT 10SM CLR 16/12 A2996 RMK AO2 SLP145 T01560117 50001

2010/08/10 08:53
KRDD 100853Z AUTO 00000KT 10SM CLR 22/09 A2982 RMK AO2 SLP092 T02170094 50001

2010/08/10 08:53
KRHI 100853Z AUTO 00000KT 2SM BR CLR 17/16 A3001 RMK AO2 SLP154 T01670156 58005

2010/08/10 08:53
KRIW 100853Z AUTO 23004KT 10SM CLR 16/04 A3007 RMK AO2 SLP107 T01560039 52004

2010/08/10 08:53
KRKP 100853Z AUTO 00000KT 10SM CLR 28/26 A2988 RMK AO2 SLP121 T02780261 58010

2010/08/10 08:53
KRNT 100853Z AUTO 17006KT 10SM OVC016 14/12 A2995 RMK AO2 SLP148 T01440117 58005

2010/08/10 08:53
KRUE 100853Z AUTO 00000KT 10SM CLR 27/24 A2991 RMK AO2 SLP120 T02670239 56005

2010/08/10 08:53
KRWF 100853Z AUTO 10004KT 9SM FEW032 23/22 A2989 RMK AO2 SLP114 T02330222 56011

2010/08/10 08:53
KRWI 100853Z AUTO 00000KT 8SM CLR 23/22 A3000 RMK AO2 SLP157 T02330222 56001

2010/08/10 08:53
KRXE 100853Z AUTO 00000KT 10SM CLR 10/09 A3005 RMK AO2 SLP143 T01000094 51002

2010/08/10 08:53
KSAC 100853Z 16004KT 10SM CLR 15/11 A2983 RMK AO2 SLP101 T01500111 50001

2010/08/10 08:53
KSAF 100853Z AUTO 09004KT 10SM CLR 16/09 A3021 RMK AO2 SLP121 T01560094 53002

2010/08/10 08:53
KSAT 100853Z 18007KT 10SM BKN017 27/24 A2994 RMK AO2 SLPNO T02720244 56014

2010/08/10 08:53
KSBA 100853Z AUTO 06003KT 10SM OVC004 14/13 A2988 RMK AO2 SLP117 T01440128 58002

2010/08/10 08:53
KSBM 100853Z AUTO 00000KT 5SM BR CLR 21/21 A2994 RMK AO2 SLP134 T02110206 58003

2010/08/10 08:53
KSDL 100853Z 02003KT 10SM CLR 31/11 A2985 RMK AO2 SLP075 T03110111 50002

2010/08/10 08:53
KSEA 100853Z 19006KT 10SM OVC012 13/12 A2996 RMK AO2 SLP150 T01330117 58007

2010/08/10 08:53
KGLR 100853Z AUTO VRB03KT 7SM OVC005 21/21 A2999 RMK AO2 SLP148 T02110206 50001

2010/08/10 08:53
KGMU 100853Z AUTO 00000KT 9SM CLR 26/21 A3004 RMK AO2 SLP160 T02560206 55009

2010/08/10 08:53
KGPT 100853Z AUTO 00000KT 6SM BR CLR 27/24 A2991 RMK AO2 SLP128 T02670244 55004

2010/08/10 08:53
KGRB 100853Z AUTO 00000KT 2 1/2SM BR FEW001 21/20 A2994 RMK AO2 SLP135 T02060200 56005 TSNO

2010/08/10 08:53
KGRI 100853Z AUTO 33014G22KT 10SM CLR 23/18 A2989 RMK AO2 PK WND 31027/0836 WSHFT 0833 SLP101 T02280183 55000

2010/08/10 08:53
KGRR 100853Z AUTO 18004KT 1/4SM FG VV001 20/20 A2996 RMK AO2 SLP141 T02000200 50000

2010/08/10 08:53
KGSH 100853Z AUTO 00000KT 3SM BR SCT044 BKN050 22/21 A2996 RMK AO2 SLP138 T02220211 58004

2010/08/10 08:53
KGSP 100853Z AUTO 00000KT 8SM CLR 24/22 A3002 RMK AO2 SLP152 T02390222 55008

2010/08/10 08:53
KGTF 100853Z 21013KT 10SM CLR 16/08 A2985 RMK AO2 SLP073 T01610083 58005

2010/08/10 08:53
KGVL 100853Z AUTO 03004KT 8SM BKN090 25/22 A3006 RMK AO2 SLP161 T02500217 56004

2010/08/10 08:53
KGWO 100853Z AUTO 16003KT 5SM BR CLR 24/24 A2994 RMK AO2 SLP137 T02390239 55003

2010/08/10 08:53
KHBG 100853Z AUTO 00000KT 6SM BR CLR 24/24 A2993 RMK AO2 SLP130 T02440239 58006

2010/08/10 08:53
KHEI 100853Z AUTO 12008KT 10SM CLR 20/14 A2981 RMK AO2 SLP069 T02000139 58016

2010/08/10 08:53
KHGR 100853Z AUTO 20004KT 7SM CLR 24/19 A2995 RMK AO2 SLP145 T02440189 53003

2010/08/10 08:53
KHHR 100853Z AUTO 24004KT 10SM OVC009 16/14 A2991 RMK AO2 SLP126 T01610139 50002 $

2010/08/10 08:53
KHIB 100853Z AUTO 00000KT 1/2SM FG VV001 16/16 A2997 RMK AO2 SLP144 T01560156 58001

2010/08/10 08:53
KHIO 100853Z AUTO 00000KT 10SM FEW035 12/09 A2999 RMK AO2 SLP153 T01170094 58002 TSNO

2010/08/10 08:53
KHKA 100853Z AUTO 00000KT 5SM BR CLR 26/24 A2992 RMK AO2 SLP130 T02610244 58005

2010/08/10 08:53
KHKS 100853Z AUTO 00000KT 10SM CLR 24/23 A2996 RMK AO2 SLP137 T02440233 55002

2010/08/10 08:53
KHKY 100853Z AUTO 00000KT 7SM CLR 24/22 A3004 RMK AO2 SLP147 T02390222 56007

2010/08/10 08:53
KSLC 100853Z 14005KT 10SM CLR 18/03 A2999 RMK AO2 SLP104 T01780028 55001

2010/08/10 08:53
KSMF 100853Z 15008KT 10SM CLR 16/12 A2981 RMK AO2 SLP094 T01560117 50000

2010/08/10 08:53
KSNA 100853Z 00000KT 8SM CLR 18/13 A2990 RMK AO2 SLP122 T01780133 58002

2010/08/10 08:53
KSNS 100853Z AUTO 28004KT 8SM OVC003 12/11 A2992 RMK AO2 SLP140 T01220111 58008

2010/08/10 08:55
KSPA 100855Z AUTO 00000KT 7SM SCT100 23/23 A3002 RMK AO2

2010/08/10 08:53
KSPB 100853Z AUTO 22003KT 10SM OVC034 12/11 A2998 RMK AO2 SLP152 T01170106 58004

2010/08/10 08:53
KSPW 100853Z AUTO 14018G24KT 8SM TS BKN007 OVC011 25/24 A2986 RMK AO2 LTG DSNT ALQDS TSB01 SLP099 T02500239 58021

2010/08/10 08:53
KSSF 100853Z AUTO 00000KT 10SM BKN012 27/24 A2992 RMK AO2 SLP117 T02720239 56014

2010/08/10 08:53
KSTC 100853Z AUTO 00000KT 7SM CLR 21/19 A2992 RMK AO2 SLP133 T02060194 58008 $

2010/08/10 08:53
KSTP 100853Z AUTO 00000KT 9SM CLR 24/22 A2993 RMK AO2 SLP127 T02390222 56005

2010/08/10 08:53
KSTS 100853Z AUTO 16003KT 4SM BR OVC002 12/11 A2988 RMK AO2 SLP112 T01170106 58004

2010/08/10 08:53
KTCL 100853Z AUTO 00000KT 5SM BR CLR 26/24 A2994 RMK AO2 SLP137 T02610239 56002

2010/08/10 08:53
KTIW 100853Z 23006KT 10SM OVC008 13/11 A2996 RMK AO2 SLP145 T01280111 58004

2010/08/10 08:53
KTOI 100853Z AUTO 00000KT 6SM BR CLR 23/22 A2996 RMK AO2 SLP139 T02330222 55003

2010/08/10 08:53
KTTD 100853Z 00000KT 10SM OVC038 15/12 A2997 RMK AO2 SLP150 T01500117 57002

2010/08/10 08:53
KTVC 100853Z AUTO 00000KT 6SM BR CLR 20/19 A2995 RMK AO2 SLP137 T02000194 50001

2010/08/10 08:53
KTVL 100853Z AUTO 00000KT 10SM FEW090 10/07 A3011 RMK AO2 SLP138 T01000067 58003

2010/08/10 08:53
KTVR 100853Z AUTO 00000KT 5SM BR SCT004 24/23 A2994 RMK AO2 SLP143 T02440228 55004

2010/08/10 08:53
KUAO 100853Z AUTO 35006KT 10SM OVC039 14/11 A2999 RMK AO2 SLP155 T01440111 56001

2010/08/10 08:53
KUTS 100853Z AUTO 00000KT 1 1/2SM HZ CLR 26/23 A2992 RMK AO2 SLP125 T02610233 56005

2010/08/10 08:53
KVCB 100853Z AUTO 23006KT 10SM CLR 16/11 A2981 RMK AO2 SLP094 T01560106 58002

2010/08/10 08:53
KVEL 100853Z AUTO 32003KT 10SM CLR 12/02 A3011 RMK AO2 SLP137 T01170022 50003

2010/08/10 08:53
KVGT 100853Z AUTO 32003KT 10SM CLR 25/M02 A2984 RMK AO2 SLP070 T02501017 58002 TSNO

2010/08/10 08:53
KVPC 100853Z AUTO 00000KT 6SM BR CLR 23/22 A3001 RMK AO2 SLP149 T02330222 56001

2010/08/10 08:53
KVPZ 100853Z AUTO 06003KT 3SM BR CLR 22/21 A2994 RMK AO2 SLP131 T02170211 58009

2010/08/10 08:53
KVUO 100853Z AUTO VRB03KT 10SM OVC031 15/11 A2999 RMK AO2 SLP154 T01500111 58002

2010/08/10 08:50
KFET 100850Z AUTO 13003KT 10SM CLR 27/25 A2984 RMK AO2 LTG DSNT NW T02650246

2010/08/10 08:52
KFIT 100852Z AUTO 00000KT 10SM OVC100 22/20 A2991 RMK AO2 SLP126 60001 T02220200 55006

2010/08/10 08:50
KGCD 100850Z AUTO 26008KT 10SM CLR 16/00 A2995 RMK AO2 T01611005

2010/08/10 08:51
KGMJ 100851Z AUTO 00000KT 10SM CLR 23/21 A2993 RMK AO2

2010/08/10 08:50
KHDE 100850Z AUTO 36005KT 10SM CLR 21/18 A2990 RMK AO2 T02110180

2010/08/10 08:52
KHIE 100852Z AUTO 00000KT 3SM BR OVC001 17/17 A2994 RMK AO2 SLP133 P0001 60001 T01720172 50000

2010/08/10 08:50
KHJH 100850Z AUTO 18006KT 10SM CLR 26/22 A2984 RMK AO2 T02550215

2010/08/10 08:52
KHUT 100852Z AUTO 17006KT 10SM CLR 28/21 A2988 RMK AO2 SLP088 T02780206 56010

2010/08/10 08:52
KIAD 100852Z 18004KT 6SM HZ CLR 24/21 A2994 RMK AO2 SLP136 T02390211 56002

2010/08/10 08:50
KIBM 100850Z AUTO 26004KT 10SM CLR 15/15 A3004 RMK AO2 T01500148

2010/08/10 08:50
KIDP 100850Z AUTO 18005KT 10SM CLR 24/20 A2989 RMK AO2

2010/08/10 08:52
KIEN 100852Z AUTO 14003KT 10SM CLR 18/16 A2991 RMK AO2 SLP093 60002 T01780161 56012

2010/08/10 08:52
KIJD 100852Z AUTO 20003KT 5SM -RA BR BKN041 OVC095 21/21 A2993 RMK AO2 RAB08 SLP133 P0003 60003 T02110206 55004

2010/08/10 08:52
KIOW 100852Z AUTO 25010KT 10SM TS SCT030 BKN044 OVC070 25/22 A2998 RMK AO2 LTG DSNT ALQDS TSB19 SLP146 T02500217 50023

2010/08/10 08:52
KISN 100852Z VRB04KT 10SM CLR 21/17 A2979 RMK AO2 RAE0755 SLP075 P0000 60009 T02060167 51005

2010/08/10 08:51
KJSV 100851Z AUTO 09003KT 10SM CLR 24/22 A2992 RMK AO2

2010/08/10 08:50
KJYR 100850Z AUTO 20006KT 10SM CLR 24/22 A2985 RMK AO2

2010/08/10 08:50
KL35 100850Z AUTO 00000KT 10SM CLR 06/M02 A3015 RMK AO2

2010/08/10 08:50
KLAM 100850Z AUTO 22005KT 10SM CLR 18/07 A3028 RMK AO2

2010/08/10 08:50
KLCG 100850Z AUTO 11003KT 3SM BR OVC002 25/25 A2984 RMK AO2 LTG DSNT NW T02530246

2010/08/10 08:50
KLHM 100850Z AUTO 16007KT 10SM CLR 20/12 A2982 RMK AO1 T01950124

2010/08/10 08:52
KLWC 100852Z AUTO 10004KT 10SM CLR 24/22 A2988 RMK AO2 SLP106 T02390222 55007

2010/08/10 08:52
KABI 100852Z 17005KT 10SM CLR 27/18 A2996 RMK AO2 SLP111 T02670183 56013

2010/08/10 08:53
KABR 100853Z AUTO 10004KT 10SM OVC031 23/22 A2986 RMK AO2 SLP099 T02330217 56013

2010/08/10 08:53
KACV 100853Z AUTO 17009KT 10SM OVC005 11/10 A2991 RMK AO2 SLP134 T01110100 58014

2010/08/10 08:53
KAEX 100853Z 00000KT 10SM FEW060 26/24 A2991 RMK AO2 SLP130 T02610239 58000

2010/08/10 08:53
KAGS 100853Z AUTO 00000KT 4SM BR CLR 22/22 A2999 RMK AO2 SLP154 T02220217 55004 TSNO

2010/08/10 08:53
KALI 100853Z AUTO 20003KT 10SM CLR 26/26 A2989 RMK AO2 SLP117 T02610256 58016

2010/08/10 08:53
KALW 100853Z AUTO 18010KT 10SM CLR 18/08 A2987 RMK AO2 SLP108 T01780083 50008

2010/08/10 08:53
KAMA 100853Z AUTO 18008KT 10SM CLR 21/17 A3004 RMK AO2 SLP114 T02060172 58003

2010/08/10 08:53
KAMW 100853Z AUTO 11004KT 10SM FEW095 22/21 A2994 RMK AO2 LTG DSNT ALQDS TSE17 SLP128 60000 T02220211 55000

2010/08/10 08:53
KANB 100853Z AUTO 00000KT 6SM HZ BKN085 24/22 A2999 RMK AO2 SLP142 T02440217 55001

2010/08/10 08:53
KARA 100853Z AUTO 00000KT 10SM CLR 26/24 A2993 RMK AO2 SLP133 T02560244 55006

2010/08/10 08:53
KASD 100853Z AUTO 36003KT 5SM BR OVC001 24/23 A2992 RMK AO2 SLP132 T02390228 55003

2010/08/10 08:53
KASX 100853Z AUTO 00000KT 5SM BR CLR 18/18 A2996 RMK AO2 SLP141 60001 T01780178 58001

2010/08/10 08:53
KATY 100853Z AUTO 13004KT 10SM OVC031 24/22 A2988 RMK AO2 SLP104 T02390222 55011

2010/08/10 08:53
KAUS 100853Z 21006KT 10SM CLR 26/24 A2992 RMK AO2 SLP119 T02560239 56013

2010/08/10 08:53
KAWM 100853Z AUTO 00000KT 10SM CLR 26/25 A2991 RMK AO2 SLP124 T02610250 58003

2010/08/10 08:53
KAXN 100853Z AUTO 12006KT 7SM CLR 22/21 A2992 RMK AO2 SLP123 T02170206 58016 $

2010/08/10 08:53
KAZO 100853Z AUTO 00000KT 1/2SM FG VV001 21/20 A2996 RMK AO2 SLP140 T02060200 58005

2010/08/10 08:53
KBCE 100853Z AUTO 28008KT 10SM CLR 06/02 A3028 RMK AO2 SLP152 T00560022 58001

2010/08/10 08:53
KBDE 100853Z AUTO 19003KT 5SM BR CLR 19/19 A2991 RMK AO2 SLP125 T01940189 50000

2010/08/10 08:53
KBNA 100853Z 00000KT 8SM CLR 26/24 A2997 RMK AO2 SLP141 T02560239 56004

2010/08/10 08:53
KBOI 100853Z 12007KT 10SM CLR 21/12 A2984 RMK AO2 TSE16 SLP073 60002 T02060117 55008

2010/08/10 08:55
KBOW 100855Z AUTO 09005KT 10SM FEW020 24/24 A2989 RMK AO2

2010/08/10 08:53
KBPI 100853Z AUTO 30003KT 10SM CLR 04/03 A3020 RMK AO2 SLP149 T00440028 57000 TSNO

2010/08/10 08:53
KBPK 100853Z AUTO 20003KT 8SM CLR 27/24 A2993 RMK AO2 SLP121 T02670239 58008

2010/08/10 08:53
KBPT 100853Z AUTO 27003KT 10SM CLR 26/24 A2990 RMK AO2 SLP125 T02560244 56007

2010/08/10 08:53
KBRD 100853Z AUTO 00000KT 1/2SM FG CLR 19/18 A2994 RMK AO2 SLP131 T01940178 58005

2010/08/10 08:53
KBRO 100853Z 14004KT 10SM CLR 28/26 A2988 RMK AO2 SLP116 T02830261 56016

2010/08/10 08:53
KBTL 100853Z AUTO 00000KT 1 1/2SM BR BKN004 20/20 A2997 RMK AO2 CIG 001V006 SLP142 T02000200 58002

2010/08/10 08:53
KBTM 100853Z AUTO 06004KT 10SM FEW075 13/08 A3004 RMK AO2 SLP122 60000 T01280083 55002

2010/08/10 08:53
KBUR 100853Z AUTO 15003KT 7SM CLR 16/13 A2989 RMK AO2 SLP111 T01610133 50001 TSNO

2010/08/10 08:51
KBVE 100851Z AUTO 27004KT CLR 26/24 A2991 RMK AO2 SLP128 T02560244 56004 TSNO $

2010/08/10 08:53
KBWG 100853Z AUTO 00000KT 8SM CLR 26/23 A2996 RMK AO2 SLP138 T02560233 58003

2010/08/10 08:53
KBYI 100853Z AUTO 35004KT 10SM CLR 14/11 A2993 RMK AO2 SLP100 T01390111 58012

2010/08/10 08:53
KCCR 100853Z AUTO 00000KT 10SM CLR 13/09 A2987 RMK AO2 SLP101 T01280094 58002

2010/08/10 08:53
KCDC 100853Z AUTO 00000KT 10SM CLR 12/04 A3012 RMK AO2 SLP132 T01170039 58005

2010/08/10 08:53
KCHO 100853Z AUTO 19003KT 6SM BR CLR 23/21 A2996 RMK AO2 SLP135 T02330211 56005 TSNO

2010/08/10 08:55
KCKI 100855Z AUTO 00000KT 10SM CLR 23/23 A3000 RMK AO2

2010/08/10 08:53
KCLL 100853Z AUTO 00000KT 10SM CLR 27/23 A2991 RMK AO2 SLP122 T02670233 56015

2010/08/10 08:53
KCLM 100853Z AUTO 31005KT 10SM OVC009 12/10 A2996 RMK AO2 SLP146 T01170100 56007

2010/08/10 08:53
KCMI 100853Z AUTO 16003KT 4SM BR CLR 24/24 A2993 RMK AO2 SLP126 T02440239 58011

2010/08/10 08:53
KCMX 100853Z AUTO 00000KT 8SM CLR 17/16 A2996 RMK AO2 SLP139 T01670161 58003 $

2010/08/10 08:53
KCNO 100853Z AUTO 32003KT 5SM BR CLR 14/12 A2991 RMK AO2 SLP124 T01390117 50001

2010/08/10 08:53
KCNY 100853Z AUTO 00000KT 10SM CLR 18/01 A3004 RMK AO2 SLP111 T01830011 51004

2010/08/10 08:53
KCOT 100853Z AUTO 14004KT 10SM CLR 26/24 A2990 RMK AO2 SLP117 T02610239 58012

2010/08/10 08:51
KCRP 100851Z 00000KT 10SM FEW017 26/25 A2989 RMK AO2 SLP121 T02610250 58012

2010/08/10 08:53
KCRQ 100853Z 08003KT 10SM OVC011 18/14 A2989 RMK AO2 SLP120 T01780139 58004

2010/08/10 08:53
KCSV 100853Z AUTO 00000KT 6SM HZ CLR 23/20 A3007 RMK AO2 SLP159 T02280200 55001

2010/08/10 08:53
KCXO 100853Z AUTO 00000KT 10SM CLR 24/23 A2991 RMK AO2 SLP125 T02390228 55008

2010/08/10 08:51
KDAG 100851Z AUTO 27008KT 10SM CLR 22/01 A2986 RMK AO2 SLP084 T02220006 50003 TSNO

2010/08/10 08:53
KDAN 100853Z AUTO 22003KT 5SM BR CLR 23/21 A3000 RMK AO2 SLP147 T02280206 56003

2010/08/10 08:53
KWRL 100853Z AUTO 21003KT 10SM CLR 16/08 A2997 RMK AO2 SLP101 T01560078 51003 $

2010/08/10 08:53
KWVI 100853Z AUTO 00000KT 5SM BR OVC002 12/11 A2992 RMK AO2 PK WND 14030/0810 SLP132 T01220111 58007

2010/08/10 08:53
KXNA 100853Z AUTO 22003KT 10SM CLR 24/21 A2997 RMK AO2 SLP127 T02390211 56005

2010/08/10 08:53
KYKM 100853Z AUTO 33012KT 10SM CLR 18/08 A2985 RMK AO2 SLP100 T01830083 58003

2010/08/10 08:52
PATA 100852Z AUTO 34003KT 10SM FEW080 OVC100 13/12 A2961 RMK AO2 SLP030 60000 T01330122 401890122 52004 TSNO

2010/08/10 08:53
PHJR 100853Z AUTO 07005KT 10SM CLR 25/17 A3011 RMK AO2 SLP204 T02500172 51012 TSNO

2010/08/10 08:53
KSFF 100853Z AUTO 00000KT 10SM CLR 19/06 A2980 RMK AO2 SLP075 T01890056 51004

2010/08/10 08:53
KSHN 100853Z AUTO 23008KT 5SM BR BKN007 OVC012 12/11 A2994 RMK AO2 CIG 005V011 SLP140 T01220111 56007

2010/08/10 08:53
KSHR 100853Z AUTO 21005KT 10SM CLR 12/11 A2992 RMK AO2 SLP094 T01220106 58007

2010/08/10 08:53
KSJC 100853Z AUTO 12005KT 10SM BKN012 14/11 A2990 RMK AO2 SLP123 T01440111 58008

2010/08/10 08:50
EGHH 100850Z 27007KT 9999 -RA FEW018 BKN045 15/14 Q1012

2010/08/10 08:50
EGKB 100850Z 29007KT 260V320 8000 RA BKN010 14/13 Q1011 RERA 

2010/08/10 08:50
EGMC 100850Z 23009KT 8000 -RA FEW006 SCT010 BKN025 17/16 Q1010

2010/08/10 08:50
EGMH 100850Z 21015KT 5000 -RA BR BKN006 18/17 Q1011 

2010/08/10 08:50
EGTC 100850Z 21007KT 9999 FEW046 14/11 Q1009

2010/08/10 08:50
EGBB 100850Z 23008KT 190V260 9999 BKN007 16/13 Q1009

2010/08/10 08:50
EGCC 100850Z 23015KT 9999 FEW021 SCT038 16/09 Q1008

2010/08/10 08:50
EGKK 100850Z 26010KT 9000 -RA SCT005 BKN009 BKN016 15/14 Q1011 RERA

2010/08/10 08:50
EGLL 100850Z 26010KT 9999 -RA SCT032 BKN036 14/12 Q1011

2010/08/10 08:50
EGPF 100850Z 19006KT 9999 -RA FEW010 SCT020 BKN045 13/10 Q1004

2010/08/10 08:50
EGPH 100850Z VRB03KT 9999 -SHRA SCT020 BKN045 14/10 Q1004 RERA

2010/08/10 08:50
EGPK 100850Z 25013KT 9999 -SHRA FEW005 SCT014CB BKN018 13/11 Q1003

2010/08/10 08:50
EGSS 100850Z 25006KT 9000 -RADZ FEW004 SCT012 BKN024 14/13 Q1011 RERA

2010/08/10 08:50
EGHD 100850Z 14004KT 100V160 0400 +DZ FG VV/// 14/14 Q1011

2010/08/10 08:50
EGHE 100850Z 23020KT 2500 -RA FEW002 SCT005 BKN009 16/16 Q1010

2010/08/10 08:50
EGHQ 100850Z 23015KT 4500 -RA BR BKN007 16/16 Q1010

2010/08/10 08:50
EGJB 100850Z 23010KT 0150 R27/0400 -RA FG OVC000 16/16 Q1013

2010/08/10 08:50
EGJJ 100850Z 24011KT 200V270 9999 3000N -DZ SCT001 BKN002 17/17 Q1013 TEMPO 3000

2010/08/10 08:50
EGTE 100850Z 15005KT 5000 -RADZ BR BKN007 14/13 Q1011

2010/08/10 08:50
EGTG 100850Z 22011KT 9999 -RA SCT016 14/12 Q1011

2010/08/10 09:00
SBRF 100900Z 15011KT 9999 FEW018 SCT070 25/19 Q1017

2010/08/10 08:50
ESKN 100850Z 25009KT 220V290 9999 BKN020 18/14 Q1013

2010/08/10 08:50
ESOE 100850Z 24009KT 9999 BKN017 17/14 Q1012

2010/08/10 08:50
ESOK 100850Z AUTO 22004KT 190V260 9999NDV FEW020/// OVC024/// 17/14 Q1012

2010/08/10 08:50
ESOW 100850Z 23012KT 9999 OVC010 17/15 Q1012

2010/08/10 08:50
ESSA 100850Z 24011KT 9999 FEW009 BKN011 17/16 Q1011 BECMG BKN015

2010/08/10 08:50
ESSB 100850Z 24009KT 9999 BKN008 17/15 Q1012

2010/08/10 08:50
ESSP 100850Z 25010KT 9999 FEW019 BKN021 17/13 Q1013

2010/08/10 08:50
ESSV 100850Z 24011KT 9999 FEW018 BKN039 17/13 Q1015

2010/08/10 09:00
LQSA 100900Z VRB02KT 9999 FEW040 22/15 Q1019 NOSIG

2010/08/10 08:50
EFHA 100850Z 24007KT 200V280 9999 FEW040CB SCT040 20/14 Q1010

2010/08/10 08:50
EFHF 100850Z 21008KT 170V250 9999 VCSH SCT016 SCT020 FEW030CB 20/17 Q1012

2010/08/10 08:50
EFKA 100850Z 26005KT 9999 FEW012 SCT020CB 20/18 Q1008

2010/08/10 08:50
EFKK 100850Z AUTO 35006KT 310V020 9999 ////// 18/17 Q1008

2010/08/10 08:50
EFMA 100850Z 22010KT 210V270 9999 FEW012 BKN015 BKN060 20/17 Q1010

2010/08/10 08:50
EFPO 100850Z 21005KT 170V260 9999 SCT008 BKN012 BKN050 20/18 Q1009

2010/08/10 08:50
EFSI 100850Z AUTO 18006KT 140V230 9999 FEW017 SCT025 20/17 Q1009

2010/08/10 08:50
ESNG 100850Z 09004KT 030V140 9999 OVC030 15/08 Q1011

2010/08/10 08:50
ESNK 100850Z 36005KT 9999 BKN014 17/14 Q1010

2010/08/10 08:50
ESNN 100850Z 04005KT 360V110 9999 FEW007 SCT009 OVC011 17/15 Q1010

2010/08/10 08:50
ESNO 100850Z AUTO 03006KT 9999NDV FEW008/// SCT012/// BKN015/// 15/13 Q1010

2010/08/10 08:50
ESNQ 100850Z 15003KT 130V190 9999 SCT018 BKN028 14/09 Q1011

2010/08/10 08:50
ESNS 100850Z 01005KT 5000 RA FEW004 SCT006 BKN008 13/13 Q1011

2010/08/10 08:50
ESNU 100850Z 01006KT 4300 BR FEW005 SCT008 BKN010 15/13 Q1010

2010/08/10 08:50
ESNZ 100850Z 03006KT 360V060 4500 -DZ FEW009 15/14 Q1010

2010/08/10 08:50
ESUT 100850Z 16009KT 9999 OVC029 16/11 Q1011

2010/08/10 08:50
EGHK 100850Z 23010KT 4500 -DZRA SCT005 OVC010 17/16 Q1009

2010/08/10 08:50
ESGL 100850Z AUTO 24011KT 210V270 9999NDV FEW023/// BKN041/// 18/14 Q1013

2010/08/10 08:50
ESGR 100850Z AUTO 24009KT 210V280 9999NDV SCT022/// BKN030/// 18/13 Q1013

2010/08/10 08:50
ESNL 100850Z AUTO 36006KT 9999NDV FEW009/// OVC012/// 14/12 Q1011

2010/08/10 08:50
ESNX 100850Z AUTO 11006KT 080V150 9999NDV NCD 16/10 Q1011

2010/08/10 08:50
ESNY 100850Z AUTO 32001KT 1600 R30/1000VP1500N +RA FEW020 SCT041 18/18 Q1009

2010/08/10 08:50
LSGC 100850Z VRB04KT 9999 FEW040 20/10 Q1020

2010/08/10 08:50
LSGS 100850Z VRB01KT 9999 FEW070 24/10 Q1018

2010/08/10 08:50
LSZG 100850Z VRB01KT 9999 FEW045 SCT082 21/13 Q1018 NOSIG

2010/08/10 08:50
LSZR 100850Z VRB02KT 9999 FEW040 21/15 Q1018 NOSIG RMK E

2010/08/10 08:50
LSZS 100850Z VRB02KT 9999 SCT040 16/09 Q1022

2010/08/10 08:50
LSZC 100850Z 06004KT 020V100 9999 FEW055 21/16 Q1018

2010/08/10 08:50
ESDF 100850Z AUTO 26005KT 210V320 9999NDV FEW032/// 19/11 Q1017

2010/08/10 08:50
ESPA 100850Z 01005KT 340V050 9999 BKN015 14/12 Q1011

2010/08/10 08:50
ESSL 100850Z 26009KT 9999 SCT024 BKN030 17/12 Q1014

2010/08/10 08:50
RODN 100850Z 20007KT 9999 -DZ SCT016 BKN140 29/26 A2980 RMK AO2A RAE0811B0830E0849DZB0849 CIG 014 RWY05 SLP091

2010/08/10 08:52
RODN 100852Z 20007KT 9999 SCT016 BKN140 29/26 A2980 RMK AO2A RAE0811B0830E0849DZB0849E0852 CIG 014 RWY05 SLP091

2010/08/10 08:53
KDAB 100853Z 12005KT 10SM FEW020 27/24 A2993 RMK AO2 SLP133 T02670239 56009 

2010/08/10 08:53
KTRI 100853Z 00000KT 6SM BR FEW060 BKN090 BKN100 23/21 A3005 RMK AO2 SLP155 T02280206 55003 

2010/08/10 08:53
KMSN 100853Z 00000KT 2 1/2SM BR CLR 22/21 A2996 RMK AO2 SLP137 T02170211 55003 

2010/08/10 08:53
KTUP 100853Z AUTO 19003KT 9SM CLR 25/23 A2995 RMK AO2 SLP136 T02500233 56006 

2010/08/10 08:53
KTLH 100853Z 07006KT 10SM FEW008 26/23 A2992 RMK AO2 SLP130 T02610233 55005 

2010/08/10 08:53
KHTL 100853Z AUTO 33003KT 3SM BR OVC003 21/21 A2999 RMK AO2 SLP149 T02110211 50004 

2010/08/10 08:53
KMCN 100853Z AUTO 00000KT 6SM BR CLR 23/22 A2999 RMK AO2 SLP149 T02330222 55003 TSNO 

2010/08/10 08:53
KCQC 100853Z AUTO 04007KT 10SM CLR 16/12 A3024 RMK AO2 SLP137 T01560122 58003 TSNO 

2010/08/10 08:53
KTCS 100853Z AUTO 30004KT 10SM CLR 22/11 A3007 RMK AO2 SLP090 T02170111 55003 TSNO 

2010/08/10 08:53
KMGM 100853Z 00000KT 8SM BKN075 26/23 A2994 RMK AO2 SLP136 T02560228 56003 

2010/08/10 08:53
KBTR 100853Z 00000KT 3/4SM BR FEW001 BKN004 24/24 A2992 RMK AO2 SLP131 T02440244 56008 RVRNO 

2010/08/10 08:53
KLAX 100853Z 25004KT 10SM OVC007 16/13 A2991 RMK AO2 SLP126 T01560128 50002 $ 

2010/08/10 08:53
KTYS 100853Z 00000KT 7SM CLR 25/23 A3001 RMK AO2 SLP147 T02500228 55001 

2010/08/10 08:53
KSDM 100853Z AUTO 00000KT 9SM OVC008 17/14 A2991 RMK AO2 SLP123 T01670139 58003 TSNO 

2010/08/10 08:50
EGYP 100850Z 27016KT 9999 FEW030 00/M02 Q1005 BLU

2010/08/10 08:48
EHLW 100848Z AUTO 21010KT 7000NDV BR FEW006 SCT010 BKN013 18/16 Q1012 GRN WHT TEMPO GRN 6000 BR SCT023 TEMPO SCT012

2010/08/10 08:52
CYMX 100852Z 22003KT 1SM R06/2400FT/N BR SKC 18/15 RMK FG3 VIS VRB 1/2-11/2

2010/08/10 08:53
CYVO 100853Z AUTO 00000KT 9SM -RA BKN064 17/17 A2991

2010/08/10 08:52
RODN 100852Z 20007KT 9999 SCT016 BKN140 29/26 A2980 RMK AO2A RAE0811B0830E0849DZB0849E0852 CIG 014 RWY05 SLP091

2010/08/10 08:50
RODN 100850Z 20007KT 9999 -DZ SCT016 BKN140 29/26 A2980 RMK AO2A RAE0811B0830E0849DZB0849 CIG 014 RWY05 SLP091

2010/08/10 08:52
RKJK 100852Z 04008KT 4000 -RA BR CLR 26/26 A2967 RMK AO2A VIS 2400V8000 SLP049 $

2010/08/10 08:53
KNIP 100853Z 11006KT 10SM FEW020 27/24 A2994 RMK AO2 SLP135 T02720239 56007 

2010/08/10 08:53
KBNO 100853Z AUTO 25007KT 10SM SCT110 14/04 A2994 RMK AO2 SLP100 T01440039 50000 TSNO 

2010/08/10 08:54
KBTV 100854Z 00000KT 1/4SM FG VV001 17/17 A2991 RMK AO2 SLP128 T01720172 50000 RVRNO 

2010/08/10 08:53
KSGR 100853Z AUTO 00000KT 10SM CLR 25/24 A2990 RMK AO2 SLP133 T02500239 56010 TSNO 

2010/08/10 08:53
K40J 100853Z AUTO 06003KT 24/23 A2991 RMK AO2 SLP128 T02440233 55005 PWINO TSNO 

2010/08/10 08:53
KOVE 100853Z AUTO 17006KT 10SM CLR 19/12 A2983 RMK AO2 SLP102 T01940117 50001 TSNO $ 

2010/08/10 08:53
KELY 100853Z AUTO 20009KT 10SM CLR 14/M04 A3013 RMK AO2 SLP102 T01441044 50000 

2010/08/10 08:53
KRTN 100853Z AUTO 00000KT 10SM CLR 14/13 A3020 RMK AO2 SLP144 T01390128 58001 TSNO 

2010/08/10 08:51
KVCT 100851Z AUTO 00000KT 10SM CLR 25/24 A2991 RMK AO2 SLP126 T02500244 56011 

2010/08/10 08:53
KDNK 100853Z AUTO 13004KT 10SM CLR 25/23 A2993 RMK AO2 SLP130 T02500228 55001 

2010/08/10 08:54
PGUM 100854Z 07007KT 10SM FEW020 SCT110 28/23 A2992 RMK AO2 TSE18 SLP125 CB DSNT W MOV NW T02780233 53012 

2010/08/10 08:54
KJAN 100854Z 00000KT 10SM CLR 24/23 A2995 RMK AO2 SLP138 T02390228 56002 

2010/08/10 08:53
KGNT 100853Z AUTO 31006KT 14/11 A3025 RMK AO2 SLP153 T01390111 55001 PWINO TSNO 

2010/08/10 08:50
EDAC 100850Z VRB02KT CAVOK 24/15 Q1017

2010/08/10 08:50
EDAH 100850Z 17007KT 9999 SCT033 20/16 Q1017

2010/08/10 08:50
EDBC 100850Z 18005KT 130V240 CAVOK 22/15 Q1016

2010/08/10 08:50
EDGS 100850Z 23008KT CAVOK 19/13 Q1017

2010/08/10 08:50
EDHL 100850Z 16007KT 130V200 CAVOK 22/20 Q1015

2010/08/10 08:50
EDJA 100850Z 27005KT 240V330 CAVOK 20/14 Q1019

2010/08/10 08:50
EDLN 100850Z VRB04KT CAVOK 22/16 Q1014

2010/08/10 08:50
EDLP 100850Z 19007KT CAVOK 23/10 Q1015

2010/08/10 08:50
EDLW 100850Z 21007KT CAVOK 22/13 Q1015

2010/08/10 08:50
EDMA 100850Z 28003KT 220V020 CAVOK 19/15 Q1018

2010/08/10 08:50
EDNY 100850Z VRB03KT 9999 FEW035 20/14 Q1018

2010/08/10 08:50
EDQM 100850Z 20006KT 170V230 9999 FEW034 BKN059 20/11 Q1019

2010/08/10 08:50
EDSB 100850Z 23004KT 170V280 CAVOK 22/16 Q1017

2010/08/10 08:50
EDXW 100850Z 17013KT 9999 FEW011 20/16 Q1013

2010/08/10 08:55
TXKF 100855Z 17008KT 9999 FEW015 FEW180 SCT300 27/23 Q1020  

2010/08/10 08:50
ESNG 100850Z 09004KT 030V140 9999 OVC030 15/08 Q1011

2010/08/10 08:50
ESNK 100850Z 36005KT 9999 BKN014 17/14 Q1010

2010/08/10 08:50
ESNN 100850Z 04005KT 360V110 9999 FEW007 SCT009 OVC011 17/15 Q1010

2010/08/10 08:50
ESNO 100850Z AUTO 03006KT 9999NDV FEW008/// SCT012/// BKN015/// 15/13 Q1010

2010/08/10 08:50
ESNQ 100850Z 15003KT 130V190 9999 SCT018 BKN028 14/09 Q1011

2010/08/10 08:50
ESNS 100850Z 01005KT 5000 RA FEW004 SCT006 BKN008 13/13 Q1011

2010/08/10 08:50
ESNU 100850Z 01006KT 4300 BR FEW005 SCT008 BKN010 15/13 Q1010

2010/08/10 08:50
ESNZ 100850Z 03006KT 360V060 4500 -DZ FEW009 15/14 Q1010

2010/08/10 08:50
ESUT 100850Z 16009KT 9999 OVC029 16/11 Q1011

2010/08/10 08:50
ESDF 100850Z AUTO 26005KT 210V320 9999NDV FEW032/// 19/11 Q1017

2010/08/10 08:50
ESPA 100850Z 01005KT 340V050 9999 BKN015 14/12 Q1011

2010/08/10 08:50
ESSL 100850Z 26009KT 9999 SCT024 BKN030 17/12 Q1014

2010/08/10 09:00
FNLU 100900Z 13004KT 9999 SCT015 BKN023 23/19 Q1017 NSG

2010/08/10 08:50
EDHI 100850Z 16006KT 110V230 CAVOK 22/14 Q1015

2010/08/10 08:50
EDMO 100850Z 31005KT 270V340 CAVOK 20/14 Q1019

2010/08/10 08:50
EDOP 100850Z 19007KT 130V230 9999 FEW025 SCT070 22/15 Q1016

2010/08/10 08:50
EDVE 100850Z VRB04KT CAVOK 22/15 Q1016

2010/08/10 09:00
LQSA 100900Z VRB02KT 9999 FEW040 22/15 Q1019 NOSIG

2010/08/10 08:50
ESKN 100850Z 25009KT 220V290 9999 BKN020 18/14 Q1013

2010/08/10 08:50
ESOE 100850Z 24009KT 9999 BKN017 17/14 Q1012

2010/08/10 08:50
ESOK 100850Z AUTO 22004KT 190V260 9999NDV FEW020/// OVC024/// 17/14 Q1012

2010/08/10 08:50
ESOW 100850Z 23012KT 9999 OVC010 17/15 Q1012

2010/08/10 08:50
ESSA 100850Z 24011KT 9999 FEW009 BKN011 17/16 Q1011 BECMG BKN015

2010/08/10 08:50
ESSB 100850Z 24009KT 9999 BKN008 17/15 Q1012

2010/08/10 08:50
ESSP 100850Z 25010KT 9999 FEW019 BKN021 17/13 Q1013

2010/08/10 08:50
ESSV 100850Z 24011KT 9999 FEW018 BKN039 17/13 Q1015

2010/08/10 08:50
EGHD 100850Z 14004KT 100V160 0400 +DZ FG VV/// 14/14 Q1011

2010/08/10 08:50
EGHE 100850Z 23020KT 2500 -RA FEW002 SCT005 BKN009 16/16 Q1010

2010/08/10 08:50
EGHQ 100850Z 23015KT 4500 -RA BR BKN007 16/16 Q1010

2010/08/10 08:50
EGJB 100850Z 23010KT 0150 R27/0400 -RA FG OVC000 16/16 Q1013

2010/08/10 08:50
EGJJ 100850Z 24011KT 200V270 9999 3000N -DZ SCT001 BKN002 17/17 Q1013 TEMPO 3000

2010/08/10 08:50
EGTE 100850Z 15005KT 5000 -RADZ BR BKN007 14/13 Q1011

2010/08/10 08:50
EGTG 100850Z 22011KT 9999 -RA SCT016 14/12 Q1011

2010/08/10 08:50
BGSF 100850Z 04007KT 9999 BKN023 08/04 Q1007

2010/08/10 08:50
BGBW 100850Z AUTO 06002KT 2100NDV BR SCT003/// BKN005/// 08/07 Q1009

2010/08/10 08:50
BGGH 100850Z 21008KT 0200 RA FG VV002 08/08 Q1007

2010/08/10 08:50
BGJN 100850Z AUTO 18002KT 9999NDV BKN018/// OVC024/// 08/04 Q1008

2010/08/10 08:50
BGKK 100850Z 07018KT 9999 -DZ SCT020 SCT035 BKN045 07/04 Q1013

2010/08/10 08:50
EFHA 100850Z 24007KT 200V280 9999 FEW040CB SCT040 20/14 Q1010

2010/08/10 08:50
EFHF 100850Z 21008KT 170V250 9999 VCSH SCT016 SCT020 FEW030CB 20/17 Q1012

2010/08/10 08:50
EFKA 100850Z 26005KT 9999 FEW012 SCT020CB 20/18 Q1008

2010/08/10 08:50
EFKK 100850Z AUTO 35006KT 310V020 9999 ////// 18/17 Q1008

2010/08/10 08:50
EFMA 100850Z 22010KT 210V270 9999 FEW012 BKN015 BKN060 20/17 Q1010

2010/08/10 08:50
EFPO 100850Z 21005KT 170V260 9999 SCT008 BKN012 BKN050 20/18 Q1009

2010/08/10 08:50
EFSI 100850Z AUTO 18006KT 140V230 9999 FEW017 SCT025 20/17 Q1009

2010/08/10 08:50
EGNS 100850Z 24014KT 9999 FEW013 SCT016 BKN024 14/11 Q1006 NOSIG

2010/08/10 08:50
EDFE 100850Z 19004KT 160V220 CAVOK 22/16 Q1016

2010/08/10 08:50
EDFH 100850Z 24007KT 190V290 9999 FEW045 BKN300 22/10 Q1017

2010/08/10 08:50
EDFM 100850Z 17004KT 120V210 CAVOK 23/15 Q1017

2010/08/10 08:50
EDLV 100850Z 18006KT 140V220 CAVOK 20/14 Q1014

2010/08/10 08:50
EDTL 100850Z 23004KT 200V270 CAVOK 22/15 Q1017

2010/08/10 08:50
EDVK 100850Z 19005KT 150V240 CAVOK 22/12 Q1016

2010/08/10 08:50
HLLT 100850Z VRB03KT CAVOK 29/13 Q1016

2010/08/10 08:50
EGHK 100850Z 23010KT 4500 -DZRA SCT005 OVC010 17/16 Q1009

2010/08/10 09:00
HSSS 100900Z 24011KT CAVOK 34/19 Q1010 NOSIG

2010/08/10 08:50
EGAA 100850Z 26014KT 9999 SCT019 13/10 Q1005

2010/08/10 08:50
EGAC 100850Z 26010KT 9999 FEW015 SCT021 15/10 Q1005

2010/08/10 08:50
EGFF 100850Z 23006KT 190V250 6000 -RA FEW008 BKN012 15/13 Q1010

2010/08/10 08:50
EGGW 100850Z 25009KT 9999 BKN045 14/12 Q1010

2010/08/10 08:50
EGLC 100850Z 26008KT 9999 -RA SCT012 BKN018 15/13 Q1011 RERA

2010/08/10 08:50
EGNM 100850Z 24007KT 200V280 9999 SCT008 SCT045 14/12 Q1007

2010/08/10 08:50
EGNX 100850Z 23010KT 9999 FEW015 SCT045 16/12 Q1008

2010/08/10 08:50
EGPD 100850Z 20005KT 160V250 9999 FEW020 15/10 Q1004 NOSIG

2010/08/10 08:50
EGBB 100850Z 23008KT 190V260 9999 BKN007 16/13 Q1009

2010/08/10 08:50
EGCC 100850Z 23015KT 9999 FEW021 SCT038 16/09 Q1008

2010/08/10 08:50
EGKK 100850Z 26010KT 9000 -RA SCT005 BKN009 BKN016 15/14 Q1011 RERA

2010/08/10 08:50
EGLL 100850Z 26010KT 9999 -RA SCT032 BKN036 14/12 Q1011

2010/08/10 08:50
EGPF 100850Z 19006KT 9999 -RA FEW010 SCT020 BKN045 13/10 Q1004

2010/08/10 08:50
EGPH 100850Z VRB03KT 9999 -SHRA SCT020 BKN045 14/10 Q1004 RERA

2010/08/10 08:50
EGPK 100850Z 25013KT 9999 -SHRA FEW005 SCT014CB BKN018 13/11 Q1003

2010/08/10 08:50
EGSS 100850Z 25006KT 9000 -RADZ FEW004 SCT012 BKN024 14/13 Q1011 RERA

2010/08/10 08:50
EGGD 100850Z 22008KT 9999 FEW006 SCT049 13/12 Q1011

2010/08/10 08:50
EGGP 100850Z 25014KT 9999 FEW035 17/08 Q1007

2010/08/10 08:50
EGHI 100850Z 27005KT 220V290 9000 -RA FEW012 SCT020 BKN035 14/12 Q1012 

2010/08/10 08:50
EGNT 100850Z 21004KT 120V260 9999 SCT028 19/12 Q1005

2010/08/10 08:50
EGNV 100850Z 19007KT 9000 FEW009 SCT025 BKN049 15/13 Q1006

2010/08/10 08:50
EGHH 100850Z 27007KT 9999 -RA FEW018 BKN045 15/14 Q1012

2010/08/10 08:50
EGKB 100850Z 29007KT 260V320 8000 RA BKN010 14/13 Q1011 RERA 

2010/08/10 08:50
EGMC 100850Z 23009KT 8000 -RA FEW006 SCT010 BKN025 17/16 Q1010

2010/08/10 08:50
EGMH 100850Z 21015KT 5000 -RA BR BKN006 18/17 Q1011 

2010/08/10 08:50
EGTC 100850Z 21007KT 9999 FEW046 14/11 Q1009

2010/08/10 08:50
HLLT 100850Z VRB03KT CAVOK 29/13 Q1016

2010/08/10 08:50
HLLT 100850Z VRB03KT CAVOK 29/13 Q1016

2010/08/10 08:50
ESGL 100850Z AUTO 24011KT 210V270 9999NDV FEW023/// BKN041/// 18/14 Q1013

2010/08/10 08:50
ESGR 100850Z AUTO 24009KT 210V280 9999NDV SCT022/// BKN030/// 18/13 Q1013

2010/08/10 08:50
ESNL 100850Z AUTO 36006KT 9999NDV FEW009/// OVC012/// 14/12 Q1011

2010/08/10 08:50
ESNX 100850Z AUTO 11006KT 080V150 9999NDV NCD 16/10 Q1011

2010/08/10 08:50
ESNY 100850Z AUTO 32001KT 1600 R30/1000VP1500N +RA FEW020 SCT041 18/18 Q1009

2010/08/10 08:50
EGAA 100850Z 26014KT 9999 SCT019 13/10 Q1005

2010/08/10 08:50
EGAC 100850Z 26010KT 9999 FEW015 SCT021 15/10 Q1005

2010/08/10 08:50
EGFF 100850Z 23006KT 190V250 6000 -RA FEW008 BKN012 15/13 Q1010

2010/08/10 08:50
EGGD 100850Z 22008KT 9999 FEW006 SCT049 13/12 Q1011

2010/08/10 08:50
EGGW 100850Z 25009KT 9999 BKN045 14/12 Q1010

2010/08/10 08:50
EGHH 100850Z 27007KT 9999 -RA FEW018 BKN045 15/14 Q1012

2010/08/10 08:50
EGHI 100850Z 27005KT 220V290 9000 -RA FEW012 SCT020 BKN035 14/12 Q1012

2010/08/10 08:50
EGKB 100850Z 29007KT 260V320 8000 RA BKN010 14/13 Q1011 RERA

2010/08/10 08:50
EGLC 100850Z 26008KT 9999 -RA SCT012 BKN018 15/13 Q1011 RERA

2010/08/10 08:50
EGMC 100850Z 23009KT 8000 -RA FEW006 SCT010 BKN025 17/16 Q1010

2010/08/10 08:50
EGMH 100850Z 21015KT 5000 -RA BR BKN006 18/17 Q1011

2010/08/10 08:50
EGNM 100850Z 24007KT 200V280 9999 SCT008 SCT045 14/12 Q1007

2010/08/10 08:50
EGNT 100850Z 21004KT 120V260 9999 SCT028 19/12 Q1005

2010/08/10 08:50
EGNX 100850Z 23010KT 9999 FEW015 SCT045 16/12 Q1008

2010/08/10 08:50
EGPD 100850Z 20005KT 160V250 9999 FEW020 15/10 Q1004 NOSIG

2010/08/10 08:50
EGTC 100850Z 21007KT 9999 FEW046 14/11 Q1009

2010/08/10 08:50
EKAH 100850Z AUTO 17009KT 140V230 9999NDV NCD 19/11 Q1015

2010/08/10 08:50
EKBI 100850Z 17008KT 120V200 9999 FEW025 BKN250 19/14 Q1014

2010/08/10 08:50
EKCH 100850Z 18006KT 130V230 9999 FEW025 20/13 Q1016 NOSIG

2010/08/10 08:50
EKEB 100850Z AUTO 17012KT 9999NDV FEW014/// 20/15 Q1013

2010/08/10 08:50
EKOD 100850Z 17007KT 140V200 9999 FEW020TCU 20/13 Q1015

2010/08/10 08:50
EKRK 100850Z AUTO 14008KT 100V160 9999NDV NCD 20/11 Q1016

2010/08/10 08:50
EKRN 100850Z AUTO 13007KT 090V150 9999NDV BKN034/// BKN056/// 18/15 Q1017

2010/08/10 08:50
EKSB 100850Z 15008KT 120V190 9999 FEW025 21/13 Q1014

2010/08/10 08:50
EKVD 100850Z 19010KT 160V220 9999 SCT029 20/13 Q1014

2010/08/10 08:50
EKYT 100850Z 21009KT 9999 FEW045 21/12 Q1013 NOSIG

2010/08/10 08:53
KBRO 100853Z 14004KT 10SM CLR 28/26 A2988 RMK AO2 SLP116 T02830261 56016

2010/08/10 08:51
KJFK 100851Z 25006KT 9SM FEW060 BKN140 OVC250 25/20 A2992 RMK AO2 SLP133 T02500200 58001

2010/08/10 08:52
KNHK 100852Z AUTO 22005KT 10SM CLR 26/21 A2994 RMK AO2 SLP138 T02560211 58006 $

2010/08/10 09:00
MDSD 100900Z VRB03KT 9999 +TS FEW016CB SCT018 24/22 Q1012 CB/NE/E/SE/N

2010/08/10 09:00
SPIM 100900Z 18003KT 8000 BKN015 14/13 Q1016 NOSIG RMK PP000

2010/08/10 08:50
EETN 100850Z 24012KT 9999 FEW026CB SCT039 BKN054 21/15 Q1013 NOSIG

2010/08/10 08:50
EETU 100850Z AUTO 25010KT 9999NDV NCD 23/16 Q1015

2010/08/10 08:50
EFHK 100850Z 21009KT 9999 SCT012 FEW030CB BKN055 21/17 Q1012 NOSIG

2010/08/10 08:50
EVLA 100850Z 25011KT 9999 BKN025 20/14 Q1017

2010/08/10 08:50
EVRA 100850Z 19008KT 160V220 9999 BKN023 21/16 Q1016 NOSIG

2010/08/10 08:50
EYKA 100850Z 18003KT 140V240 CAVOK 23/17 Q1017

2010/08/10 08:50
EYPA 100850Z 26004KT 9999 FEW022 21/14 Q1017 NOSIG

2010/08/10 08:50
EYVI 100850Z VRB03KT 9999 SCT034 BKN120 22/15 Q1017 NOSIG

2010/08/10 08:50
EFKU 100850Z AUTO 17009KT 140V210 9999NDV BKN020 BKN060 22/15 Q1010

2010/08/10 08:50
EGMH 100850Z 21015KT 5000 -RA BR BKN006 18/17 Q1011

2010/08/10 08:53
KBUR 100853Z AUTO 15003KT 7SM CLR 16/13 A2989 RMK AO2 SLP111 T01610133 50001 TSNO

2010/08/10 08:55
KCEF 100855Z AUTO 22003KT 9SM BKN065 21/21 A2991 RMK AO2 VIS 2 1/2 RWY05 SLP130 60007 T02140208 55002 $

2010/08/10 08:55
KEGI 100855Z AUTO 05005KT 6SM R18/5000V5500FT BR CLR 24/23 A2992 RMK AO2 SLP130 T02390232 56009 $

2010/08/10 08:55
KGRF 100855Z AUTO 18007KT 10SM OVC011 13/11 A2996 RMK AO2 SLP147 T01340110 58005

2010/08/10 08:55
KHMN 100855Z 00000KT 10SM CLR 20/12 A3002 RMK AO2A SLP082 T02040117 52001 $

2010/08/10 08:55
KLRF 100855Z AUTO 00000KT 10SM CLR 27/26 A2991 RMK AO2 SLP126 T02670258 57006

2010/08/10 08:55
KMMT 100855Z AUTO 00000KT 8SM R32/5000V5500FT BKN011 23/23 A3000 RMK AO2 CIG 010V015 SLP158 T02340232 57007

2010/08/10 08:52
KNHK 100852Z AUTO 22005KT 10SM CLR 26/21 A2994 RMK AO2 SLP138 T02560211 58006 $

2010/08/10 08:55
KRDR 100855Z AUTO 00000KT 10SM CLR 20/20 A2987 RMK AO2 SLP126 T01970197 58001 $

2010/08/10 08:51
KSAN 100851Z 00000KT 10SM OVC015 18/14 A2992 RMK AO2 SLP130 T01780139 58002

2010/08/10 08:55
KSUU 100855Z AUTO 25021G26KT 10SM CLR 13/11 A2982 RMK AO2 PK WND 25027/0809 SLP098 T01280111 58004 RVRNO $

2010/08/10 08:55
KSZL 100855Z AUTO 18004KT 10SM CLR 26/24 A2989 RMK AO2 SLP113 T02600239 56008 PNO $

2010/08/10 09:00
LPLA 100900Z 34005KT 300V360 9999 FEW020 BKN035 22/17 Q1022

2010/08/10 08:50
OAFZ 100850Z 18004KT 9999 BKN110 37/02 Q1013 BLU

2010/08/10 08:50
ENAT 100850Z 17007KT 9999 FEW030 BKN050 17/08 Q1011 

2010/08/10 08:50
ENBL 100850Z VRB02KT 9999 FEW018 SCT040 BKN055 15/11 Q1009

2010/08/10 08:50
ENEV 100850Z 33006KT 300V010 9999 FEW025 14/10 Q1010 

2010/08/10 08:50
ENFL 100850Z VRB01KT 9999 FEW010 BKN043 16/13 Q1010

2010/08/10 08:50
ENKB 100850Z VRB02KT 9999 -RA SCT007 SCT070 14/13 Q1010

2010/08/10 08:50
ENKR 100850Z 01006KT 9999 BKN009 10/08 Q1013 

2010/08/10 08:50
ENML 100850Z 12002KT 9999 FEW010 BKN037 17/13 Q1010

2010/08/10 08:50
ENNA 100850Z 19010KT 9999 FEW020 SCT047 17/09 Q1012 

2010/08/10 08:50
ENGC 100850Z 10020KT 9999 SCT015 BKN030 14/12 Q1008

2010/08/10 08:50
ENHE 100850Z 05012KT 9999 OVC016 10/08 Q1012

2010/08/10 08:50
ENOA 100850Z 12023KT 4000 -RA BR BKN008 14/13 Q1007

2010/08/10 08:50
ENAL 100850Z 04010KT 9999 FEW010 BKN035 15/12 Q1010

2010/08/10 08:50
ENCN 100850Z 22003KT 150V270 9999 OVC015 17/14 Q1012 REDZ

2010/08/10 08:50
ENHD 100850Z 13012KT 9999 FEW025 BKN053 17/11 Q1009

2010/08/10 08:50
ENRO 100850Z 00000KT 9999 -DZ SCT003 BKN009 14/13 Q1011

2010/08/10 08:50
ENRY 100850Z 20013KT 160V220 9999 FEW020 19/13 Q1011 NOSIG

2010/08/10 08:50
ENSB 100850Z 27010KT 9999 FEW025 BKN035 04/M00 Q1006 NOSIG 

2010/08/10 08:50
ENTC 100850Z 03007KT 9999 FEW009 SCT050 12/09 Q1011 NOSIG

2010/08/10 08:50
ENTO 100850Z 21014KT 9999 FEW010 19/11 Q1011

2010/08/10 08:51
KSAD 100851Z AUTO 16003KT 10SM CLR 24/14 A2996 RMK AO2 SLP087 T02390139 51001 TSNO 

2010/08/10 08:50
EGAA 100850Z 26014KT 9999 SCT019 13/10 Q1005

2010/08/10 08:50
EGAC 100850Z 26010KT 9999 FEW015 SCT021 15/10 Q1005

2010/08/10 08:50
EGFF 100850Z 23006KT 190V250 6000 -RA FEW008 BKN012 15/13 Q1010

2010/08/10 08:50
EGGD 100850Z 22008KT 9999 FEW006 SCT049 13/12 Q1011

2010/08/10 08:50
EGGP 100850Z 25014KT 9999 FEW035 17/08 Q1007

2010/08/10 08:50
EGGW 100850Z 25009KT 9999 BKN045 14/12 Q1010

2010/08/10 08:50
EGHD 100850Z 14004KT 100V160 0400 +DZ FG VV/// 14/14 Q1011

2010/08/10 08:50
EGHE 100850Z 23020KT 2500 -RA FEW002 SCT005 BKN009 16/16 Q1010

2010/08/10 08:50
EGHH 100850Z 27007KT 9999 -RA FEW018 BKN045 15/14 Q1012

2010/08/10 08:50
EGHI 100850Z 27005KT 220V290 9000 -RA FEW012 SCT020 BKN035 14/12 Q1012

2010/08/10 08:50
EGJB 100850Z 23010KT 0150 R27/0400 -RA FG OVC000 16/16 Q1013

2010/08/10 08:50
EGJJ 100850Z 24011KT 200V270 9999 3000N -DZ SCT001 BKN002 17/17 Q1013 TEMPO 3000

2010/08/10 08:50
EGKB 100850Z 29007KT 260V320 8000 RA BKN010 14/13 Q1011 RERA

2010/08/10 08:50
EGKK 100850Z 26010KT 9000 -RA SCT005 BKN009 BKN016 15/14 Q1011 RERA

2010/08/10 08:50
EGLC 100850Z 26008KT 9999 -RA SCT012 BKN018 15/13 Q1011 RERA

2010/08/10 08:50
EGMC 100850Z 23009KT 8000 -RA FEW006 SCT010 BKN025 17/16 Q1010

2010/08/10 08:50
EGMH 100850Z 21015KT 5000 -RA BR BKN006 18/17 Q1011

2010/08/10 08:50
EGNM 100850Z 24007KT 200V280 9999 SCT008 SCT045 14/12 Q1007

2010/08/10 08:50
EGNT 100850Z 21004KT 120V260 9999 SCT028 19/12 Q1005

2010/08/10 08:50
EGNV 100850Z 19007KT 9000 FEW009 SCT025 BKN049 15/13 Q1006

2010/08/10 08:50
EGNX 100850Z 23010KT 9999 FEW015 SCT045 16/12 Q1008

2010/08/10 08:50
EGPD 100850Z 20005KT 160V250 9999 FEW020 15/10 Q1004 NOSIG

2010/08/10 08:50
EGTC 100850Z 21007KT 9999 FEW046 14/11 Q1009

2010/08/10 08:50
EGTE 100850Z 15005KT 5000 -RADZ BR BKN007 14/13 Q1011

2010/08/10 08:50
EGTG 100850Z 22011KT 9999 -RA SCT016 14/12 Q1011

2010/08/10 08:55
TXKF 100855Z 17008KT 9999 FEW015 FEW180 SCT300 27/23 Q1020 

2010/08/10 08:54
KCAR 100854Z AUTO 00000KT 1SM BR VV002 14/14 A2981 RMK AO2 SLP097 T01390139 53001 

2010/08/10 08:54
KBKB 100854Z AUTO 00000KT 10SM CLR 26/24 A2991 RMK AO2 SLP152 T02560239 55001 $ 

2010/08/10 08:52
KP69 100852Z AUTO 34003KT 16/15 A2988 RMK AO2 SLP095 T01560150 55001 PWINO TSNO 

2010/08/10 09:00
NIUE 100900Z AUTO 14010KT //// ////// 23/21 Q1018

2010/08/10 08:54
KCOU 100854Z AUTO 19003KT 9SM CLR 26/24 A2992 RMK AO2 SLP121 T02560244 55006 TSNO $ 

2010/08/10 08:54
KROC 100854Z 23003KT 2 1/2SM BR FEW060 OVC080 21/20 A2994 RMK AO2 SLP135 60000 T02060200 56003 

2010/08/10 08:54
KMQE 100854Z AUTO 23006KT 21/21 A2991 RMK AO1 SLP132 P0001 60009 T02060206 56007 

2010/08/10 08:54
K1V4 100854Z AUTO 18/17 A2991 RMK AO2 SLP119 T01780172 50000 PWINO TSNO 

2010/08/10 08:54
KNKT 100854Z AUTO 22003KT 10SM CLR 24/24 A3001 RMK AO2 SLP159 T02440239 58005 

2010/08/10 08:54
KFWA 100854Z 00000KT 1/4SM FG SCT036 23/22 A2996 RMK AO2 SLP138 R32/0500FT T02280222 58002 

2010/08/10 08:53
KTXK 100853Z AUTO 18003KT 10SM CLR 27/23 A2991 RMK AO2 SLP121 T02720233 58006

2010/08/10 08:53
KTYR 100853Z 23004KT 10SM CLR 28/23 A2993 RMK AO2 SLP125 T02780233 58003

2010/08/10 08:53
KUNO 100853Z AUTO 00000KT 8SM CLR 24/23 A2997 RMK AO2 SLP131 T02440228 56005

2010/08/10 08:53
KUUU 100853Z AUTO 00000KT 8SM -RA CLR 22/20 A2993 RMK AO2 RAB48 SLP132 P0000 60000 T02220200 55002

2010/08/10 08:53
KVIH 100853Z AUTO 20007KT 10SM CLR 26/23 A2993 RMK AO2 SLP120 T02560228 $

2010/08/10 08:53
KVLD 100853Z AUTO 07003KT 10SM FEW015 24/23 A2995 RMK AO2 SLP145 T02440233 55005

2010/08/10 08:53
KVRB 100853Z AUTO 13007KT 10SM FEW036 26/23 A2990 RMK AO2 SLP123 T02610233 58006

2010/08/10 08:53
KWST 100853Z AUTO 00000KT 4SM -RA BR FEW070 SCT090 BKN110 22/21 A2993 RMK AO2 RAB16 SLP133 P0000 60000 T02220211 55001

2010/08/10 08:53
KYIP 100853Z 00000KT 1/4SM FG BKN001 BKN025 20/19 A2996 RMK AO2 SLP140 T02000189 51004 RVRNO

2010/08/10 08:53
KZZV 100853Z AUTO 00000KT 7SM OVC090 21/19 A2997 RMK AO2 SLP141 T02110194 55003

2010/08/10 08:53
PANT 100853Z AUTO 13005KT 1/4SM FG OVC001 12/11 A3002 RMK AO2 SLP166 T01220111 401610122 58002 TSNO

2010/08/10 08:53
PAOM 100853Z 07007KT 10SM -RA FEW023 OVC044 11/10 A2941 RMK AO2 SLP959 P0001 60008 T01110100 401390106 53007

2010/08/10 08:53
PAOR 100853Z 00000KT 10SM SCT060 BKN100 11/11 A2972 RMK AO2 SLP062 T01110106 401940100 52009

2010/08/10 08:53
PAOT 100853Z 16009KT 10SM SCT015 BKN026 BKN034 13/12 A2945 RMK AO2 RAE50 SLP974 P0002 60011 T01330122 401610133 53008

2010/08/10 08:53
PAPB 100853Z AUTO 26003KT 1/2SM FG VV001 07/07 A2946 RMK AO2 SLP965 T00720072 400890072 51014 TSNO

2010/08/10 08:53
PAQT 100853Z AUTO 05011KT 2 1/2SM BR OVC004 03/03 A2979 RMK AO2 SLP089 T00280028 400670022 51007 TSNO

2010/08/10 08:53
PASC 100853Z 05014KT 2SM BR OVC003 03/03 A2975 RMK AO2 SLP074 T00330028 400610028 51008

2010/08/10 08:53
PASI 100853Z 00000KT 10SM FEW005 SCT015 OVC026 13/12 A3002 RMK AO2 SLP164 60000 T01330122 401390122 52005

2010/08/10 08:53
PASN 100853Z 27009KT 1/2SM FG VV001 08/08 A2942 RMK AO2 SLP963 T00780078 401060078 51014

2010/08/10 08:53
PASO 100853Z AUTO VRB03KT 10SM OVC049 12/09 A2975 RMK AO2 SLP075 T01220094 401670100 53003 TSNO

2010/08/10 08:53
PATK 100853Z AUTO 18005KT 6SM RA BR BKN012 BKN031 OVC038 12/11 A2977 RMK AO2 SLP083 P0008 60012 T01220111 401440106 51011 TSNO

2010/08/10 08:53
PATO 100853Z AUTO 12008G16KT 4SM -RA BR FEW021 BKN028 OVC035 11/11 A2982 RMK AO2 SLP100 P0002 60004 T01110106 401390111 51011 TSNO

2010/08/10 08:53
PAVL 100853Z AUTO 07017KT 8SM -RA FEW049 OVC060 12/11 A2948 RMK AO2 SLP982 P0002 60004 T01170111 401940111 50002 TSNO

2010/08/10 08:53
PAWD 100853Z AUTO A2984 RMK AO2 SLP106 52010 PWINO FZRANO TSNO $

2010/08/10 08:53
PAYA 100853Z 08004KT 2 1/2SM -RA BR OVC006 13/12 A2997 RMK AO2 SLP148 BAY TWR WND 100MMKT P0002 60006 T01280117 401500122 53005

2010/08/10 08:53
PAAQ 100853Z AUTO 17003KT 10SM BKN008 OVC015 12/11 A2980 RMK AO2 SLP085 T01170106 401940117 51009 TSNO

2010/08/10 08:53
PABE 100853Z 17017G23KT 6SM -RA BR BKN006 BKN010 OVC024 09/09 A2948 RMK AO2 SLP982 P0003 60005 T00940089 401060089 53004

2010/08/10 08:53
PABI 100853Z AUTO 19011G16KT 10SM 16/06 A2968 RMK AO2 SLP048 T01560061 402110128 53006 TSNO $

2010/08/10 08:53
PABR 100853Z 08018KT 6SM BR OVC002 02/02 A2986 RMK AO2 SLP112 60000 T00220022 400220017 $

2010/08/10 08:53
PABT 100853Z 00000KT 10SM FEW055 OVC085 12/11 A2964 RMK AO2 SLP042 T01170106 401610117 53008

2010/08/10 08:53
PACD 100853Z AUTO 14007KT 10SM OVC060 09/08 A2964 RMK AO2 SLP036 T00890078 401500078 53010 TSNO

2010/08/10 08:53
PACV 100853Z 00000KT 10SM SCT018 BKN025 OVC037 12/12 A2992 RMK AO2 SLP131 60000 T01220117 401560106 51005

2010/08/10 08:53
PADE 100853Z AUTO 00000KT 10SM -RA BKN047 OVC060 13/12 A2945 RMK AO2 SLP972 P0001 60003 T01280117 401560122 52010 TSNO

2010/08/10 08:53
PADQ 100853Z 19007KT 10SM FEW025 BKN200 12/08 A2978 RMK SLP084 T01220083 401830089 51008

2010/08/10 08:54
KAVP 100854Z 00000KT 10SM FEW075 23/19 A2997 RMK AO2 SLP134 T02280189 53001 $ 

2010/08/10 08:54
KDMH 100854Z AUTO 26/21 A2992 RMK AO2 SLP132 T02610206 56007 PWINO TSNO 

2010/08/10 08:53
KEWB 100853Z AUTO 00000KT 4SM BR SCT090 BKN120 22/21 A2991 RMK AO2 SLP126 60002 T02220206 55002

2010/08/10 08:53
KEYE 100853Z AUTO 00000KT 8SM CLR 26/22 A2995 RMK AO2 SLP131 T02610222 58003

2010/08/10 08:53
KEYW 100853Z AUTO 23010KT 10SM -RA FEW033 BKN055 26/23 A2985 RMK AO2 SLP106 P0001 60002 T02610233 55004 TSNO

2010/08/10 08:53
KFAY 100853Z AUTO 22003KT 10SM OVC003 24/23 A3000 RMK AO2 CIG 002V007 SLP153 T02440233 58002

2010/08/10 08:53
KFDR 100853Z AUTO 26006KT 10SM 27/19 A2988 RMK AO2 SLP095 T02720194 58009

2010/08/10 08:53
KFDY 100853Z AUTO 00000KT 3SM BR CLR 22/21 A2995 RMK AO2 SLP131 T02170206 50000

2010/08/10 08:53
KFFT 100853Z AUTO 00000KT 7SM CLR 23/22 A2996 RMK AO2 SLP137 T02330222 58002

2010/08/10 08:53
KFLL 100853Z 14008KT 10SM BKN017 BKN100 26/24 A2986 RMK AO2 RAE0757B24E46 SLP112 P0013 60013 T02610244 56012

2010/08/10 08:53
KFLO 100853Z AUTO 00000KT 10SM CLR 24/24 A3000 RMK AO2 SLP157 T02440239 56005

2010/08/10 08:53
KFMN 100853Z AUTO 02005KT 10SM FEW100 17/07 A3016 RMK AO2 SLP146 T01670072 53002

2010/08/10 08:53
KFMY 100853Z AUTO 11008G14KT 10SM BKN008 BKN037 25/23 A2983 RMK AO2 SLP104 T02500233 58006

2010/08/10 08:53
KFNB 100853Z AUTO 20006KT 10SM CLR 26/22 A2986 RMK AO2 SLP097 T02610222 55003

2010/08/10 08:53
KFNT 100853Z 00000KT 1/4SM FG 18/18 A2995 RMK AO2 SLP139 T01830178 50000 RVRNO $

2010/08/10 08:53
KFOE 100853Z AUTO 17005KT 10SM CLR 26/21 A2988 RMK AO2 SLP103 T02610206 56008

2010/08/10 08:53
KFOK 100853Z AUTO 00000KT 9SM FEW100 23/19 A2993 RMK AO2 SLP135 T02330194 50001 TSNO

2010/08/10 08:53
KFPR 100853Z AUTO 13006KT 10SM SCT019 BKN027 27/24 A2990 RMK AO2 RAB03E17 SLP123 P0000 60000 T02670239 56007

2010/08/10 08:53
KFRG 100853Z AUTO 25004KT 10SM FEW055 25/20 A2992 RMK AO2 SLP131 T02500200 58001

2010/08/10 08:53
KFTW 100853Z 24004KT 10SM CLR 28/20 A2988 RMK AO2 SLP106 T02780200 56015

2010/08/10 08:53
KFVE 100853Z AUTO 32005KT 5SM BR CLR 15/14 A2983 RMK AO2 SLP095 T01500139 51003

2010/08/10 08:53
KOJC 100853Z AUTO 19004KT 10SM CLR 26/22 A2989 RMK AO2 SLP107 T02610222 55006

2010/08/10 08:53
KOLF 100853Z AUTO 12008KT 10SM FEW100 19/17 A2975 RMK AO2 TSE15RAE24 SLP060 P0003 60007 T01890167 58030

2010/08/10 08:53
KOPF 100853Z AUTO 16006KT 7SM -RA FEW014 SCT039 OVC055 25/24 A2987 RMK AO2 RAB43 SLP114 P0004 60004 T02500244 58005

2010/08/10 08:53
KORL 100853Z AUTO 10007KT 10SM CLR 25/23 A2991 RMK AO2 SLP131 T02500233 56010

2010/08/10 08:53
KOSU 100853Z AUTO 25003KT 6SM HZ CLR 24/21 A2997 RMK AO2 SLP139 T02390206 55000 $

2010/08/10 08:53
KOWD 100853Z AUTO 00000KT 2 1/2SM BR FEW046 SCT075 OVC095 22/20 A2990 RMK AO2 RAE43 SLP123 P0002 60012 T02170200 56005

2010/08/10 08:53
KOXB 100853Z AUTO 25007KT 10SM CLR 25/23 A2995 RMK AO2 SLP141 T02500233 56007 $

2010/08/10 08:53
KPBG 100853Z AUTO 00000KT 3/4SM BR OVC002 16/16 A2990 RMK AO2 SLP124 60001 T01610156 58000

2010/08/10 08:53
KPBI 100853Z 15007KT 10SM SCT023CB BKN060 BKN130 27/23 A2987 RMK AO2 SLP115 CB N-E-S MOV N 60010 T02650226 58009 $

2010/08/10 08:53
KPEO 100853Z AUTO 18005KT 10SM FEW044 OVC070 21/19 A2996 RMK AO2 RAE26 SLP137 P0001 60003 T02110194 58007 $

2010/08/10 08:53
KPGD 100853Z AUTO 10008KT 10SM BKN008 24/23 A2987 RMK AO2 SLP115 T02440233 56008 TSNO

2010/08/10 08:53
KPHD 100853Z AUTO 17003KT 4SM BR FEW050 BKN110 22/19 A2997 RMK AO2 SLP142 T02170194 56003

2010/08/10 08:53
KPIE 100853Z AUTO 10006KT 10SM FEW011 26/23 A2986 RMK AO2 SLP112 T02560233 56007

2010/08/10 08:53
KPKB 100853Z AUTO 00000KT 3SM BR CLR 20/19 A3001 RMK AO2 SLP153 T02000189 55001

2010/08/10 08:53
KPMP 100853Z AUTO 14011KT 10SM SCT021 SCT028 SCT036 27/24 A2987 RMK AO2 SLP115 60000 T02720239 58006

2010/08/10 08:50
KPNA 100850Z AUTO 00000KT 10SM CLR 05/04 A3019 RMK AO2 T00540040

2010/08/10 08:53
KPNC 100853Z AUTO 17006KT 10SM CLR 28/21 A2988 RMK AO2 SLP103 T02830206 56009

2010/08/10 08:53
KPNS 100853Z AUTO 35006KT 8SM CLR 26/24 A2990 RMK AO2 SLP126 T02610239 58008

2010/08/10 08:53
KPOF 100853Z AUTO 00000KT 7SM CLR 25/24 A2991 RMK AO2 SLP121 T02500239 58006

2010/08/10 08:53
KLMT 100853Z AUTO 00000KT 10SM FEW090 13/06 A2998 RMK AO2 SLP109 T01330061 58005

2010/08/10 08:53
KLNS 100853Z AUTO 00000KT 6SM HZ CLR 23/20 A2993 RMK AO2 SLP131 T02280200 55003

2010/08/10 08:53
KLOU 100853Z AUTO 00000KT 8SM CLR 26/23 A2995 RMK AO2 SLP134 T02560233 58002

2010/08/10 08:53
KLOZ 100853Z AUTO 00000KT 4SM BR CLR 23/22 A3002 RMK AO2 SLP149 T02280222 58001

2010/08/10 08:53
KLPR 100853Z AUTO 00000KT 5SM HZ CLR 23/20 A2996 RMK AO2 SLP137 T02330200 50002

2010/08/10 08:53
KLUK 100853Z AUTO 00000KT 3SM R21L/2400VP6000FT BR CLR 23/22 A2996 RMK AO2 SLP140 T02280217 58002

2010/08/10 08:53
KLVS 100853Z AUTO 00000KT 10SM CLR 12/11 A3025 RMK AO2 SLP133 T01220111 58004

2010/08/10 08:53
KLWD 100853Z AUTO 04012KT 7SM FEW013 26/25 A2995 RMK AO2 SLP129 T02610250 53016

2010/08/10 08:53
KLWV 100853Z AUTO 00000KT 2 1/2SM BR CLR 25/23 A2992 RMK AO2 SLP126 T02500233 58007

2010/08/10 08:53
KLXT 100853Z AUTO 20008KT 10SM CLR 29/22 A2989 RMK AO2 SLP110 T02890222 56008

2010/08/10 08:53
KFWN 100853Z AUTO 00000KT 6SM BR CLR 22/21 A2995 RMK AO2 RAE0758 SLP138 P0000 60000 T02170206 51003

2010/08/10 08:53
KFXE 100853Z 17007G22KT 4SM RA SCT020 SCT027 26/23 A2987 RMK AO2 RAB50 SLP117 P0015 60016 T02610233 56010

2010/08/10 08:53
KGAG 100853Z AUTO 16007KT 10SM CLR 23/18 A2993 RMK AO2 SLP102 T02330178 58002

2010/08/10 08:53
KGCC 100853Z AUTO 00000KT 10SM CLR 13/11 A2993 RMK AO2 SLP084 T01330106 58012

2010/08/10 08:53
KGEZ 100853Z AUTO 06005KT 4SM BR CLR 23/22 A2994 RMK AO2 SLP130 T02280217 57002

2010/08/10 08:53
KGFL 100853Z AUTO 00000KT 2 1/2SM BR OVC002 21/21 A2992 RMK AO2 SLP129 T02060206 50000

2010/08/10 08:53
KGGG 100853Z AUTO 00000KT 10SM CLR 27/23 A2991 RMK AO2 SLP119 T02720228 58004

2010/08/10 08:53
KGGW 100853Z AUTO 00000KT 10SM CLR 19/17 A2977 RMK AO2 SLP065 60002 T01890172 58010 TSNO

2010/08/10 08:53
KGIF 100853Z AUTO 09007KT 10SM SCT008 25/23 A2990 RMK AO2 SLP123 T02500233 56007 TSNO

2010/08/10 08:53
KGJT 100853Z AUTO 10011KT 10SM CLR 18/04 A3009 RMK AO2 SLP119 T01830044 51004

2010/08/10 08:53
KGKJ 100853Z AUTO 19005KT 9SM OVC048 23/18 A2997 RMK AO2 SLP137 T02330183 56005

2010/08/10 08:53
KGKY 100853Z AUTO 14007KT 10SM CLR 27/21 A2990 RMK AO2 SLP114 T02670206 55009

2010/08/10 08:53
KGLD 100853Z AUTO 33003KT 10SM BKN120 19/18 A3001 RMK AO2 SLP111 60007 T01890183 53001

2010/08/10 08:53
KGNV 100853Z AUTO 00000KT 10SM CLR 24/23 A2993 RMK AO2 SLP130 T02440233 56007

2010/08/10 08:53
KGOK 100853Z AUTO 20004KT 10SM CLR 28/21 A2989 RMK AO2 SLP106 T02780206 56009

2010/08/10 08:53
KGUP 100853Z AUTO 00000KT 10SM FEW100 13/11 A3024 RMK AO2 SLP095 T01280106 53001

2010/08/10 08:53
KGUY 100853Z AUTO 19004KT 10SM CLR 23/17 A2997 RMK AO2 SLP091 T02280167 50001

2010/08/10 08:53
KGZH 100853Z AUTO 00000KT 3SM BR SCT080 23/23 A2995 RMK AO2 SLP139 T02330233 53000

2010/08/10 08:53
KHAO 100853Z AUTO 00000KT 5SM BR CLR 22/21 A2997 RMK AO2 SLP143 T02170206 53000

2010/08/10 08:53
KHBR 100853Z AUTO 19009KT 10SM CLR 27/20 A2992 RMK AO2 SLP107 T02670200 56011

2010/08/10 08:53
KHFD 100853Z AUTO 14003KT 4SM -RA BR FEW033 SCT075 OVC095 23/22 A2991 RMK AO2 SLP127 P0003 60003 T02280217 58002

2010/08/10 08:53
KHJO 100853Z AUTO 30009KT 10SM CLR 22/14 A2981 RMK AO2 SLP093 T02170144 50000

2010/08/10 08:53
KHLC 100853Z AUTO 35012KT 10SM CLR 22/19 A2989 RMK AO2 SLP093 T02220194 55004 $

2010/08/10 08:53
KHLG 100853Z AUTO 17003KT 5SM HZ OVC100 22/19 A2999 RMK AO2 SLP145 T02220194 56002

2010/08/10 08:53
KHUF 100853Z 00000KT 5SM BR CLR 24/23 A2993 RMK AO2 SLP130 T02440233 58008

2010/08/10 08:53
KHUL 100853Z AUTO 00000KT 2SM BR CLR 13/13 A2981 RMK AO2 VIS 1 1/4V4 SLP094 T01330128 57003

2010/08/10 08:53
KHVN 100853Z AUTO 00000KT 9SM SCT060 SCT085 BKN120 24/20 A2993 RMK AO2 SLP134 T02390200 53005

2010/08/10 08:53
KHWO 100853Z AUTO 13008KT 9SM -RA FEW020 SCT029 BKN055 26/26 A2988 RMK AO2 RAB41 SLP118 P0001 60001 T02610256 56014 $

2010/08/10 08:53
KHZY 100853Z AUTO 00000KT 4SM BR CLR 21/20 A2995 RMK AO2 SLP134 T02110200 56004

2010/08/10 08:53
KPOU 100853Z 00000KT 5SM BR OVC095 22/21 A2991 RMK AO2 RAE25 SLP124 P0001 60003 T02170211 58004

2010/08/10 08:53
KPTK 100853Z 00000KT 6SM BR CLR 22/21 A2996 RMK AO2 SLP137 T02220211 53002

2010/08/10 08:50
KPTT 100850Z AUTO 19009KT 10SM CLR 25/18 A2990 RMK AO2

2010/08/10 08:53
KPUB 100853Z AUTO 00000KT 10SM FEW110 15/14 A3007 RMK AO2 SLP123 T01500139 51004

2010/08/10 08:53
KPWA 100853Z AUTO 19010KT 10SM CLR 28/20 A2991 RMK AO2 SLP106 T02780200 56010

2010/08/10 08:53
KRBD 100853Z 17003KT 10SM CLR 28/21 A2990 RMK AO2 SLP112 T02780206 55010

2010/08/10 08:53
KRME 100853Z AUTO 00000KT 4SM BR OVC021 21/20 A2996 RMK AO2 SLP142 T02060200 56003 $

2010/08/10 08:53
KRMG 100853Z AUTO 00000KT 7SM FEW100 24/23 A2999 RMK AO2 SLP145 T02440228 56000

2010/08/10 08:53
KRSL 100853Z AUTO 17007KT 10SM CLR 24/21 A2983 RMK AO2 SLP078 T02390206 58015

2010/08/10 08:53
KRSW 100853Z AUTO 10009KT 10SM BKN008 24/23 A2984 RMK AO2 CIG 006V011 SLP101 T02440233 56016

2010/08/10 08:53
KMAF 100853Z AUTO 12006KT 10SM CLR 21/19 A2999 RMK AO2 SLP105 T02110194 56008

2010/08/10 08:53
KMAI 100853Z AUTO 05004KT 9SM CLR 25/22 A2992 RMK AO2 SLP128 T02500222 56006 $

2010/08/10 08:53
KMBS 100853Z 36006KT 8SM CLR 22/21 A2996 RMK AO2 SLP140 T02170211 53000

2010/08/10 08:53
KMCI 100853Z 19007KT 10SM CLR 26/22 A2988 RMK AO2 SLP105 T02560222 55008 $

2010/08/10 08:53
KMCK 100853Z AUTO 00000KT 10SM FEW070 21/19 A2994 RMK AO2 SLP109 T02060189 58001

2010/08/10 08:53
KMCO 100853Z 10006KT 10SM FEW028 25/23 A2991 RMK AO2 SLP126 T02500228 56009

2010/08/10 08:53
KMCW 100853Z AUTO 12005KT 5SM BR BKN042 24/23 A2996 RMK AO2 LTG DSNT SW SLP129 T02390233 53001

2010/08/10 08:53
KMGW 100853Z AUTO 00000KT 4SM BR CLR 19/18 A3002 RMK AO2 SLP153 T01940178 53000

2010/08/10 08:53
KMGY 100853Z AUTO 00000KT 7SM CLR 23/21 A2997 RMK AO2 SLP140 T02280206 55000

2010/08/10 08:53
KMHT 100853Z 00000KT 3SM R35/5500VP6000FT BR FEW080 22/21 A2988 RMK AO2 RAE07 SLP127 P0000 60002 T02220206 55003

2010/08/10 08:53
KMIA 100853Z 13004KT 10SM FEW020 BKN029 BKN070 OVC130 26/24 A2986 RMK AO2 RAE04 SLP113 P0000 60001 T02610244 56015 $

2010/08/10 08:53
KMIE 100853Z AUTO 00000KT 5SM BR CLR 23/22 A2997 RMK AO2 SLP134 T02280217 58002

2010/08/10 08:53
KMKO 100853Z AUTO 15004KT 10SM CLR 23/20 A2991 RMK AO2 SLP120 T02330200 58007

2010/08/10 08:53
KMLB 100853Z 11005KT 10SM FEW022 27/23 A2991 RMK AO2 SLP126 T02670233 58008

2010/08/10 08:53
KMLC 100853Z AUTO 00000KT 10SM CLR 24/20 A2992 RMK AO2 SLP119 T02440200 56009

2010/08/10 08:53
KMLT 100853Z AUTO 27003KT 10SM CLR 18/16 A2984 RMK AO2 SLP108 T01780161 58004

2010/08/10 08:53
KMLU 100853Z AUTO A2993 RMK AO2 SLPNO 6//// 57003 PWINO FZRANO $

2010/08/10 08:53
KMMK 100853Z AUTO 00000KT 7SM SCT060 BKN110 22/20 A2993 RMK AO2 RAB07E22 SLP134 P0000 60000 T02170200 53004

2010/08/10 08:53
KMNN 100853Z AUTO 00000KT 6SM BR 22/21 A2997 RMK AO2 SLP142 T02220206 $

2010/08/10 08:53
KMOD 100853Z AUTO 33006KT 10SM CLR 19/12 A2982 RMK AO2 SLP097 T01940122 58003

2010/08/10 08:53
KMRB 100853Z AUTO 22004KT 8SM CLR 23/18 A2996 RMK AO2 SLP138 T02280183 53002

2010/08/10 08:53
KMSS 100853Z AUTO 22004KT 10SM OVC004 22/21 A2992 RMK AO2 SLP128 T02170206 53001

2010/08/10 08:53
KMTH 100853Z AUTO 21009G15KT 5SM RA BR SCT011 BKN040 OVC070 26/24 A2984 RMK AO2 LTG DSNT SW SLP103 P0010 60058 T02560239 56009

2010/08/10 08:53
KMTJ 100853Z AUTO 13010KT 10SM FEW100 16/07 A3019 RMK AO2 SLP145 T01610067 50004

2010/08/10 08:53
KMTO 100853Z AUTO 00000KT 6SM BR CLR 26/23 A2992 RMK AO2 SLP124 T02560233 58011

2010/08/10 08:53
KMVY 100853Z AUTO 00000KT 4SM HZ FEW065 SCT090 BKN100 24/21 A2992 RMK AO2 RAE10 SLP130 P0000 60002 T02440211 51001

2010/08/10 08:53
KMWL 100853Z AUTO 14005KT 10SM CLR 24/19 A2989 RMK AO2 SLP105 T02440194 56012

2010/08/10 08:53
KODO 100853Z AUTO 11004KT 10SM CLR 21/19 A3000 RMK AO2 SLP109 T02110189 58008 $

2010/08/10 08:53
KOGB 100853Z AUTO 00000KT 10SM CLR 24/24 A3001 RMK AO2 SLP158 T02440239 55005

2010/08/10 08:54
KGSO 100854Z 21004KT 7SM CLR 24/21 A3003 RMK AO2 SLP155 T02390206 56006 

2010/08/10 08:54
K12N 100854Z AUTO 00000KT 22/21 A2995 RMK AO2 SLP132 T02220206 50001 PWINO TSNO 

2010/08/10 08:54
KRIC 100854Z 25006KT 10SM SCT060 26/21 A2996 RMK AO2 SLP148 T02560206 58005 $ 

2010/08/10 08:53
KSSI 100853Z AUTO 12011KT 10SM SCT024 28/23 A2996 RMK AO2 SLP143 T02830233 57008

2010/08/10 08:53
KSTJ 100853Z AUTO 20003KT 10SM CLR 26/22 A2987 RMK AO2 SLP104 T02610222 55006

2010/08/10 08:50
KSUN 100850Z AUTO 31010KT 10SM CLR 12/10 A3006 RMK AO2 LTG DSNT NW

2010/08/10 08:53
KSWO 100853Z AUTO 18005KT 10SM CLR 27/21 A2989 RMK AO2 SLP103 T02720206 56008

2010/08/10 08:50
KSZT 100850Z AUTO 00000KT 10SM CLR 11/10 A2981 RMK AO2

2010/08/10 08:53
KTCC 100853Z AUTO 24005KT 10SM CLR 23/17 A3004 RMK AO2 SLP099 T02280172 58007

2010/08/10 08:53
KTDZ 100853Z AUTO 00000KT 3/4SM BR CLR 23/22 A2996 RMK AO2 SLP138 T02280217 57001

2010/08/10 08:50
KTEX 100850Z AUTO 11004KT 10SM CLR 11/05 A3041 RMK AO2

2010/08/10 08:53
KTHV 100853Z AUTO 00000KT 4SM BR CLR 22/21 A2993 RMK AO2 SLP134 T02170206 57001

2010/08/10 08:50
KTIF 100850Z AUTO 03003KT 10SM SCT013 19/18 A2991 RMK AO2 LTG DSNT NE 60026 T01930180

2010/08/10 08:53
KTKI 100853Z AUTO 00000KT 10SM CLR 25/22 A2990 RMK AO2 SLP115 T02500222 56010

2010/08/10 08:53
KTMB 100853Z AUTO 16005KT 10SM FEW024 BKN049 BKN060 27/22 A2986 RMK AO2 SLP111 T02670222 56013

2010/08/10 08:53
KTOP 100853Z AUTO 00000KT 10SM CLR 28/21 A2987 RMK AO2 SLP101 T02780211 56008

2010/08/10 08:53
KTOR 100853Z AUTO 14008KT 10SM CLR 17/15 A2998 RMK AO2 SLP109 T01670150 $

2010/08/10 08:53
KTPA 100853Z 07004KT 10SM FEW050 25/23 A2988 RMK AO2 SLP116 T02500233 56010

2010/08/10 08:50
KTRK 100850Z AUTO 00000KT 10SM CLR 07/04 A3011 RMK AO2

2010/08/10 08:53
KTRL 100853Z AUTO 20007KT 10SM CLR 28/21 A2990 RMK AO2 SLP115 T02830206 56010

2010/08/10 08:53
KTTN 100853Z AUTO 00000KT 8SM SCT065 SCT080 25/21 A2992 RMK AO2 SLP125 T02500206 56003

2010/08/10 08:53
KTUL 100853Z 19007KT 10SM CLR 29/19 A2989 RMK AO2 SLP109 T02940194 56008

2010/08/10 08:53
KTUS 100853Z 14005KT 10SM CLR 27/16 A2996 RMK AO2 SLP091 T02720156 50003

2010/08/10 08:53
KTWF 100853Z AUTO 10004KT 10SM CLR 15/12 A2992 RMK AO2 SLP075 T01500117 $

2010/08/10 08:53
KIAG 100853Z AUTO 00000KT 2 1/2SM BR FEW043 OVC055 22/21 A2993 RMK AO2 SLP132 T02170211 58001

2010/08/10 08:53
KICT 100853Z 15008KT 10SM FEW100 SCT200 27/21 A2988 RMK AO2 SLP098 T02670211 58012

2010/08/10 08:53
KILM 100853Z AUTO 20003KT 10SM CLR 26/24 A3000 RMK AO2 SLP160 P0001 60001 T02560239 58006

2010/08/10 08:53
KIML 100853Z AUTO 29008KT 10SM SCT060 OVC110 19/17 A2997 RMK AO2 TSE08RAE47 SLP110 P0004 60019 T01940172 56021

2010/08/10 08:53
KITR 100853Z AUTO 00000KT 10SM OVC120 18/17 A3004 RMK AO2 SLP111 T01780167 55011

2010/08/10 08:53
KIWI 100853Z AUTO 00000KT 10SM CLR 19/17 A2987 RMK AO2 SLP114 T01890172 51001

2010/08/10 08:53
KIXD 100853Z AUTO 17004KT 10SM CLR 26/22 A2990 RMK AO2 SLP110 T02560217 55006

2010/08/10 08:53
KJEF 100853Z AUTO 12003KT 10SM CLR 28/25 A2990 RMK AO2 SLP108 T02780250 55006

2010/08/10 08:53
KJKL 100853Z AUTO 00000KT 7SM CLR 23/21 A3002 RMK AO2 SLP148 T02280211 56003

2010/08/10 08:53
KJLN 100853Z AUTO 19006KT 10SM FEW060 25/21 A2994 RMK AO2 SLP122 T02500206 55005 $

2010/08/10 08:53
KLAA 100853Z AUTO 00000KT 10SM CLR 19/18 A2999 RMK AO2 SLP097 T01940178 58005

2010/08/10 08:53
KLAN 100853Z 00000KT 3SM BR MIFG CLR 19/19 A2997 RMK AO2 SLP143 T01940189 50001

2010/08/10 08:53
KLAR 100853Z AUTO 01004KT 10SM CLR 11/07 A3022 RMK AO2 SLP126 T01060072 55002

2010/08/10 08:53
KLAW 100853Z AUTO 16003KT 10SM CLR 26/21 A2991 RMK AO2 SLP110 T02560206 56007

2010/08/10 08:53
KLBB 100853Z 21005KT 10SM FEW160 19/17 A3002 RMK AO2 SLP111 T01940172 58004

2010/08/10 08:53
KLBF 100853Z AUTO 23004KT 10SM FEW100 19/19 A2994 RMK AO2 LTG DSNT SE-W SLP107 60007 T01940189 55009

2010/08/10 08:53
KLEB 100853Z AUTO 03003KT 3SM BR OVC001 21/19 A2991 RMK AO2 SLP120 T02060189 58002

2010/08/10 08:53
KLEE 100853Z AUTO 11013G17KT 10SM CLR 26/24 A2992 RMK AO2 SLP130 T02610239 56008

2010/08/10 08:53
KLHQ 100853Z AUTO 00000KT 6SM BR SCT060 BKN075 22/20 A2998 RMK AO2 SLP142 T02170200 55001

2010/08/10 08:53
KLHX 100853Z AUTO 18004KT 10SM CLR 19/17 A3004 RMK AO2 SLP109 T01890167 55002 $

2010/08/10 08:53
KCAG 100853Z AUTO 00000KT 10SM CLR 07/06 A3019 RMK AO2 SLP181 T00670061 51003

2010/08/10 08:53
KCDR 100853Z AUTO 23009KT 10SM SCT110 21/16 A2990 RMK AO2 SLP097 T02060156 58007

2010/08/10 08:53
KCDS 100853Z AUTO 28005KT 10SM CLR 22/19 A2994 RMK AO2 SLP109 60000 T02220194 58016

2010/08/10 08:53
KCDW 100853Z AUTO 00000KT 8SM -RA FEW050 24/21 A2993 RMK AO2 RAB0754E07B31 SLP137 P0000 60000 T02390206 50002 TSNO $

2010/08/10 08:53
KCEW 100853Z AUTO 00000KT 2 1/2SM BR CLR 23/22 A2993 RMK AO2 SLP130 T02280222 56006

2010/08/10 08:53
KCEZ 100853Z AUTO 00000KT 10SM FEW085 BKN120 13/09 A3019 RMK AO2 SLP148 T01330094 50002

2010/08/10 08:53
KCGI 100853Z AUTO 00000KT 9SM CLR 26/24 A2991 RMK AO2 SLP125 T02560244 58006 TSNO

2010/08/10 08:53
KCKB 100853Z AUTO 00000KT 1 1/4SM BR CLR 18/18 A3002 RMK AO2 SLP149 T01780178 53001 TSNO

2010/08/10 08:53
KCNM 100853Z AUTO 18005KT 10SM CLR 20/16 A2999 RMK AO2 SLP095 T02000156 56008

2010/08/10 08:53
KCPR 100853Z AUTO 23010KT 10SM CLR 17/02 A3004 RMK AO2 SLP102 T01670017 58001

2010/08/10 08:53
KCPS 100853Z AUTO 17004KT 7SM CLR 26/24 A2990 RMK AO2 SLP120 T02560244 58010

2010/08/10 08:53
KCRE 100853Z AUTO 26003KT 10SM FEW021 27/26 A3000 RMK AO2 SLP160 T02720256 58004

2010/08/10 08:53
KCRG 100853Z AUTO 14007KT 10SM FEW060 26/24 A2994 RMK AO2 SLP138 T02610239 56006

2010/08/10 08:53
KCRS 100853Z AUTO 22006KT 10SM CLR 26/23 A2989 RMK AO2 SLP115 T02610228 56012

2010/08/10 08:53
KCSM 100853Z AUTO 20008KT 10SM CLR 26/19 A2994 RMK AO2 SLP108 T02560194 56013

2010/08/10 08:53
KCUB 100853Z AUTO 00000KT 10SM CLR 24/23 A3001 RMK AO2 SLP159 T02440228 56006

2010/08/10 08:53
KCYS 100853Z AUTO 24005KT 10SM CLR 12/11 A3012 RMK AO2 SLP116 T01220106 56010 TSNO

2010/08/10 08:53
KDAL 100853Z 17005KT 10SM CLR 29/20 A2989 RMK AO2 SLP114 T02940200 55008

2010/08/10 08:53
KDEN 100853Z 26010KT 10SM SCT140 16/15 A3011 RMK AO2 SLP116 T01610150 55004

2010/08/10 08:53
KDEQ 100853Z AUTO 00000KT 1 1/2SM BR FEW001 24/23 A2989 RMK AO2 SLP116 T02390233 56003

2010/08/10 08:53
KDET 100853Z 00000KT 6SM BR CLR 22/21 A2995 RMK AO2 SLP139 T02170206 51002

2010/08/10 08:53
KDFI 100853Z AUTO 00000KT 1/4SM FG VV001 22/21 A2995 RMK AO2 SLP137 T02170211 58002

2010/08/10 08:53
KDFW 100853Z 20005KT 10SM CLR 29/20 A2988 RMK AO2 SLP108 T02890200 55011

2010/08/10 08:53
KDGW 100853Z AUTO 00000KT 10SM CLR 18/07 A3000 RMK AO2 SLP097 T01780072 58008

2010/08/10 08:53
KDHN 100853Z AUTO 08003KT 10SM CLR 24/22 A2998 RMK AO2 SLP145 T02390222 56006

2010/08/10 08:53
KDKK 100853Z AUTO 00000KT 4SM BR OVC050 22/21 A2994 RMK AO2 RAB0754E36 SLP133 P0003 60003 T02220211 58003 $

2010/08/10 08:53
KDMN 100853Z AUTO 20006KT 10SM CLR 18/10 A3005 RMK AO2 SLP093 T01830100 57002

2010/08/10 08:53
KDMO 100853Z AUTO 19005KT 10SM CLR 27/24 A2991 RMK AO2 SLP117 T02670239 56007

2010/08/10 08:53
KDRO 100853Z AUTO 00000KT 10SM FEW110 13/06 A3025 RMK AO2 SLP153 T01280061 53002

2010/08/10 08:53
KDTN 100853Z AUTO 00000KT 10SM CLR 27/24 A2991 RMK AO2 SLP124 T02720239 58002

2010/08/10 08:53
KRVS 100853Z 00000KT 10SM CLR 26/21 A2989 RMK AO2 SLP122 T02610211 56009

2010/08/10 08:53
KRWL 100853Z AUTO 26005KT 10SM CLR 11/03 A3018 RMK AO2 SLP137 T01060033 58002

2010/08/10 08:53
KSEG 100853Z AUTO 00000KT 8SM CLR 22/20 A2995 RMK AO2 SLP136 T02170200 53001

2010/08/10 08:49
KSEZ 100849Z AUTO 04010KT 10SM SCT090 20/09 A3010 RMK AO2 T02040089

2010/08/10 08:53
KSIY 100853Z AUTO 33004KT 10SM 19/07 A2993 RMK AO2 SLP119 T01890072 58005 $

2010/08/10 08:53
KSLN 100853Z 18007KT 10SM CLR 28/21 A2984 RMK AO2 SLP084 T02830206 58014

2010/08/10 08:53
KSMQ 100853Z AUTO 00000KT 8SM CLR 22/20 A2991 RMK AO2 SLP126 T02170200 58000

2010/08/10 08:53
KSNY 100853Z AUTO 00000KT 10SM CLR 17/16 A3003 RMK AO2 SLP109 60002 T01720156 55013

2010/08/10 08:50
KSOW 100850Z AUTO 00000KT 10SM CLR 15/09 A3026 RMK AO2

2010/08/10 08:53
KSPG 100853Z AUTO 11012KT 10SM SCT012 27/24 A2985 RMK AO2 SLP108 T02720244 56011

2010/08/10 08:53
KSRQ 100853Z AUTO 08007KT 10SM CLR 25/24 A2984 RMK AO2 SLP104 T02500239 56012 TSNO

2010/08/10 08:53
KELZ 100853Z AUTO 00000KT 4SM BR OVC050 19/18 A3003 RMK AO2

2010/08/10 08:54
KACY 100854Z 23004KT 10SM CLR 24/22 A2995 RMK AO2 SLP140 T02440217 56006 $ 

2010/08/10 08:54
KNAK 100854Z AUTO 00000KT 8SM CLR 25/19 A2992 RMK AO2 SLP132 T02500194 58006 TSNO 

2010/08/10 08:54
KMVE 100854Z AUTO 16004KT 7SM SCT036 SCT042 23/22 A2987 RMK AO2 LTG DSNT SW

2010/08/10 08:53
KTKC 100853Z AUTO 00000KT 7SM SCT042 23/21 A2990 RMK AO2 LTG DSNT SE THRU SW T02250214

2010/08/10 08:54
KGYL 100854Z AUTO 09003KT 7SM CLR 21/20 A2992 RMK AO2 T02130203

2010/08/10 08:54
KDXX 100854Z AUTO 00000KT 10SM SCT036 BKN041 23/23 A2987 RMK AO2

2010/08/10 08:51
KHZX 100851Z AUTO 00000KT 10SM CLR 17/17 A2996 RMK AO2

2010/08/10 08:52
KCDD 100852Z AUTO 00000KT 5SM BR CLR 19/19 A2996 RMK AO2

2010/08/10 08:54
KSAZ 100854Z AUTO 00000KT 10SM CLR 21/20 A2993 RMK AO2

2010/08/10 08:51
KONA 100851Z AUTO 13003KT 1/2SM FG OVC001 23/22 A2994 RMK AO2

2010/08/10 08:53
KFOZ 100853Z AUTO 00000KT 10SM CLR 18/17 A2997 RMK AO2

2010/08/10 08:54
KAQP 100854Z AUTO 12004KT 7SM CLR 22/22 A2988 RMK AO2

2010/08/10 08:54
KETH 100854Z AUTO 12006KT 7SM CLR 20/19 A2991 RMK AO2

2010/08/10 08:54
KOVL 100854Z AUTO 12009KT 10SM CLR 22/20 A2989 RMK AO2 T02230201

2010/08/10 08:53
KLJF 100853Z AUTO 10003KT 7SM CLR 21/21 A2992 RMK AO2

2010/08/10 08:56
KXVG 100856Z AUTO 00000KT 4SM BR SCT001 16/16 A2993 RMK AO2

2010/08/10 08:54
KORB 100854Z AUTO 00000KT 7SM CLR 19/18 A2994 RMK AO2

2010/08/10 08:51
KMZH 100851Z AUTO 00000KT 1/4SM FG OVC001 18/17 A2994 RMK AO2

2010/08/10 08:53
KBFW 100853Z AUTO 00000KT 7SM CLR 16/15 A2995 RMK AO2

2010/08/10 08:49
KVWU 100849Z AUTO 00000KT 10SM CLR 19/18 A2994 RMK AO2

2010/08/10 08:50
KAEL 100850Z AUTO 15003KT 10SM SCT031 23/22 A2994 RMK AO2 LTG DSNT SE AND S

2010/08/10 08:54
KOWA 100854Z AUTO 11005KT 7SM CLR 21/21 A2993 RMK AO2 LTG DSNT S AND SW

2010/08/10 08:53
K29G 100853Z AUTO 25003KT 10SM SCT035 22/19 A2997 RMK AO2 T02220188 PWINO

2010/08/10 08:53
KMRT 100853Z AUTO 28004KT 7SM CLR 23/20 A3001 RMK AO2 T02250201

2010/08/10 08:54
KIKW 100854Z AUTO 00000KT 1 1/2SM BR VV007 20/19 A2994 RMK AO2 T02000190

2010/08/10 08:54
KRSP 100854Z AUTO 31003KT 7SM CLR 23/18 A3002 RMK AO2 SLP151 T02330178 53001 $ 

2010/08/10 08:54
KBUY 100854Z AUTO 00000KT 6SM BR CLR 23/21 A3001 RMK AO2 SLP153 T02280211 56005

2010/08/10 08:55
KBVX 100855Z AUTO 00000KT 10SM CLR 27/24 A2992 RMK AO1 57010

2010/08/10 08:55
KBWD 100855Z AUTO 15004KT 10SM CLR 27/20 A2994 RMK AO2

2010/08/10 08:54
KBWI 100854Z 23005KT 8SM FEW250 24/21 A2992 RMK AO2 SLP130 T02440206 56006

2010/08/10 08:55
KCDN 100855Z AUTO 00000KT 7SM CLR 24/24 A3002 RMK A02 P000

2010/08/10 08:54
KCEU 100854Z AUTO 33003KT 7SM OVC100 26/23 A3003 RMK AO2 SLP156 T02610233 56007

2010/08/10 08:55
KCGC 100855Z AUTO 00000KT 10SM CLR 24/23 A2988 RMK

2010/08/10 08:55
KCGZ 100855Z AUTO 27005KT 10SM CLR 30/08 A2985 RMK AO1 52003

2010/08/10 08:55
KCIU 100855Z AUTO 03005KT 1 3/4SM OVC002 19/19 A2996 RMK AO1 54000

2010/08/10 08:55
KCOD 100855Z AUTO 29005KT 10SM CLR 17/06 A3000 RMK AO1 54000

2010/08/10 08:55
KCOE 100855Z AUTO 16007KT 10SM CLR 17/07 A2982 RMK AO1 52003

2010/08/10 08:54
KCOS 100854Z AUTO 06005KT 10SM CLR 17/12 A3017 RMK AO2 SLP133 T01670122 53004 TSNO

2010/08/10 08:53
KPQN 100853Z AUTO 12006KT 7SM SCT005 BKN039 24/23 A2989 RMK AO2 LTG DSNT SW

2010/08/10 08:54
KFGN 100854Z AUTO 00000KT 7SM CLR 24/21 A2988 RMK AO2

2010/08/10 08:53
KPNM 100853Z AUTO 00000KT 1 1/4SM BR CLR 19/19 A2994 RMK AO2 VIS 1/4V5

2010/08/10 08:53
KPWC 100853Z AUTO 00000KT 3/4SM BR OVC001 17/16 A2996 RMK AO2

2010/08/10 08:53
KFFM 100853Z AUTO 10003KT 10SM CLR 23/21 A2987 RMK AO2

2010/08/10 08:52
KGDB 100852Z AUTO 08005KT 10SM BKN034 23/22 A2990 RMK AO2 T02300221

2010/08/10 08:53
KAIT 100853Z AUTO 00000KT 10SM CLR 16/14 A2994 RMK AO2

2010/08/10 08:53
KGHW 100853Z AUTO 11006KT 4SM BR CLR 21/19 A2993 RMK AO2

2010/08/10 08:53
KMWM 100853Z AUTO 10006KT 7SM CLR 23/22 A2990 RMK AO2 LTG DSNT SE AND S

2010/08/10 08:53
KBBB 100853Z AUTO 13006KT 10SM CLR 23/22 A2993 RMK AO2

2010/08/10 08:53
KTWM 100853Z AUTO 00000KT 5SM HZ CLR 18/16 A2994 RMK AO2

2010/08/10 08:55
KMGG 100855Z AUTO 00000KT 7SM CLR 20/20 A2993 RMK AO2 T01970195

2010/08/10 08:48
KMOX 100848Z AUTO 12006KT 7SM CLR 22/21 A2986 RMK AO2

2010/08/10 08:54
KONZ 100854Z AUTO 00000KT 1 1/2SM BR VV007 22/21 A2994 RMK AO2 VIS 3/4V3

2010/08/10 08:54
KTEW 100854Z AUTO 00000KT 1/4SM FG OVC017 18/18 A2996 RMK AO2

2010/08/10 08:50
KCVH 100850Z AUTO 00000KT 10SM OVC005 13/12 A2992 RMK AO1

2010/08/10 08:56
KDVP 100856Z AUTO 12007KT 4SM BR OVC004 24/22 A2992 RMK AO2 LTG DSNT SE T02360223

2010/08/10 08:54
KDYT 100854Z AUTO 00000KT 10SM CLR 23/21 A2994 RMK AO2

2010/08/10 08:59
KFSO 100859Z AUTO 00000KT 5SM BR CLR 16/16 A2991 RMK AO2

2010/08/10 08:54
KFBL 100854Z AUTO 08003KT 5SM BR CLR 21/19 A2994 RMK AO2

2010/08/10 08:58
KLYV 100858Z AUTO 10009KT 7SM BKN020 BKN025 BKN035 25/23 A2986 RMK AO2 LTG DSNT SE THRU W

2010/08/10 08:56
KEFK 100856Z AUTO 00000KT 1/4SM FG OVC001 14/13 A2994 RMK AO2

2010/08/10 08:54
KRRT 100854Z AUTO 22003KT 10SM CLR 23/21 A2991 RMK AO2 TSNO

2010/08/10 08:55
KTOB 100855Z AUTO 11005KT 1/2SM FG VV005 21/19 A2997 RMK AO2

2010/08/10 08:53
KLXL 100853Z AUTO 08003KT 10SM CLR 20/18 A2991 RMK AO2

2010/08/10 08:52
KEVM 100852Z AUTO 00000KT 1/4SM FG OVC001 16/15 A2995 RMK AO1

2010/08/10 08:53
KELO 100853Z AUTO 00000KT 5SM BR CLR 16/16 A2996 RMK AO2

2010/08/10 08:55
KANE 100855Z AUTO 00000KT 7SM CLR 22/21 A2993 RMK AO2

2010/08/10 08:54
KROX 100854Z AUTO 20005KT 10SM CLR 22/20 A2990 RMK AO2

2010/08/10 08:55
KSYN 100855Z AUTO 00000KT 1/4SM FG OVC001 20/19 A2993 RMK AO2 T01970187

2010/08/10 08:56
KVVV 100856Z AUTO 13004KT 7SM SCT033 23/22 A2988 RMK AO2

2010/08/10 09:02
KFKA 100902Z AUTO 14003KT 10SM CLR 24/23 A2998 RMK AO2 LTG DSNT SW T02360226

2010/08/10 08:54
KROS 100854Z AUTO 00000KT 5SM BR CLR 18/18 A2994 RMK AO2 T01820175

2010/08/10 08:52
KHCD 100852Z AUTO 10005KT 7SM CLR 22/21 A2992 RMK AO2 T02210208

2010/08/10 08:53
KSGS 100853Z AUTO 00000KT 10SM CLR 23/21 A2993 RMK AO2 T02330213

2010/08/10 08:51
KMJQ 100851Z AUTO 13006KT 7SM BKN006 OVC039 23/23 A2992 RMK AO2

2010/08/10 08:54
KHCO 100854Z AUTO 00000KT 10SM CLR 22/22 A2992 RMK AO2

2010/08/10 08:54
KLVN 100854Z AUTO 00000KT M1/4SM FG OVC001 19/19 A2994 RMK AO2

2010/08/10 08:53
KPEX 100853Z AUTO 11004KT 7SM CLR 22/21 A2992 RMK AO2 T02210209

2010/08/10 08:55
KJMR 100855Z AUTO 00000KT 3/4SM BR VV005 18/18 A2996 RMK AO2

2010/08/10 08:55
KJKJ 100855Z AUTO 14004KT 10SM CLR 22/21 A2987 RMK AO2

2010/08/10 08:53
PAEG 100853Z AUTO 15004KT 10SM CLR 08/06 A2965 RMK AO2 SLP042 T00780056 402170044 53018 TSNO

2010/08/10 08:53
PAEN 100853Z AUTO 00000KT 7SM -RA FEW003 BKN023 OVC040 12/12 A2978 RMK AO2 RAE14B38 SLP085 P0000 60002 T01220117 401780122 53004 TSNO

2010/08/10 08:53
PAFA 100853Z 30003KT 10SM BKN110 13/11 A2962 RMK AO2 SLP033 T01330106 402000128 51007

2010/08/10 08:53
PAGY 100853Z AUTO 20016G24KT 10SM OVC046 14/10 A2994 RMK AO2 SLP140 T01390100 401610106 53002 TSNO

2010/08/10 08:53
PAHO 100853Z AUTO 00000KT 10SM OVC046 12/09 A2976 RMK AO2 SLP079 T01220089 401610111 53004 TSNO

2010/08/10 08:53
PAIL 100853Z AUTO 12011G17KT 10SM OVC029 12/08 A2968 RMK AO2 SLP052 T01170083 401390111 53005 TSNO

2010/08/10 08:53
PAJN 100853Z 06005KT 4SM -DZ BR FEW005 BKN012 OVC030 12/12 A3001 RMK AO2 SLP160 P0001 60003 T01220117 401610111 51004

2010/08/10 08:53
PAKT 100853Z AUTO 12003KT 10SM BKN006 OVC013 13/12 A3002 RMK AO2 SLP168 T01330122 401560117 58003 TSNO

2010/08/10 08:53
PAKV 100853Z AUTO 00000KT 4SM -RA BR FEW027 BKN043 OVC050 12/11 A2957 RMK AO2 RAB05 SLP015 P0003 60004 T01170111 401390117 51009 TSNO

2010/08/10 08:53
PAKW 100853Z AUTO 00000KT 7SM BKN006 OVC010 13/12 A3002 RMK AO2 CIG 002V007 SLP163 60001 T01280117 401500117 55000 TSNO

2010/08/10 08:53
PALH 100853Z 32005KT 10SM FEW007 BKN012 OVC050 13/11 A2978 RMK AO2 SLP085 60000 T01280111 402000128 50007

2010/08/10 08:53
PAMC 100853Z 00000KT 10SM OVC025 12/10 A2961 RMK AO2 SLP029 60000 T01220100 401440111 51008

2010/08/10 08:53
PAMR 100853Z 32004KT 10SM FEW006 BKN022 OVC050 12/11 A2977 RMK AO2 SLP082 60000 T01220106 401940117 51006

2010/08/10 08:53
PANC 100853Z 00000KT 10SM SCT006 BKN030 OVC045 12/11 A2977 RMK AO2 SLP082 60001 T01170111 401780111 51006

2010/08/10 08:53
PANN 100853Z AUTO 08004KT 10SM CLR 12/09 A2960 RMK AO2 SLP027 T01170094 402110117 51006 TSNO

2010/08/10 08:54
KAAO 100854Z AUTO 18009KT 10SM CLR 28/20 A2988 RMK AO2 SLP099 T02780200 58013

2010/08/10 08:55
KAEG 100855Z AUTO 00000KT 10SM FEW100 18/07 A3017 RMK AO1

2010/08/10 08:55
KAIK 100855Z AUTO 00000KT 5SM HZ CLR 22/ A3004 RMK AO2 PNO

2010/08/10 08:55
KAIZ 100855Z AUTO 00000KT 10SM CLR 25/23 A2994 RMK AO1 57007

2010/08/10 08:54
KAKH 100854Z AUTO 00000KT 6SM BR CLR 23/21 A3002 RMK AO2 SLP157 T02280206 57007

2010/08/10 08:54
KAKR 100854Z AUTO 25003KT 9SM CLR 23/19 A2997 RMK AO2 SLP137 T02280194 55000

2010/08/10 08:54
KALO 100854Z 00000KT 8SM BKN050 24/24 A2995 RMK AO2 LTG DSNT SE-W RAB09E18B40E50 SLP136 P0000 60000 T02440239 53012

2010/08/10 08:54
KAPC 100854Z AUTO 29006KT 10SM OVC007 12/11 A2988 RMK AO2 SLP110 T01170106 58003 $

2010/08/10 08:55
KARG 100855Z AUTO 21003KT 10SM CLR 27/23 A2991 RMK AO1 57010

2010/08/10 08:55
KAUO 100855Z AUTO 10006KT 10SM CLR 26/20 A2998 RMK AO1 57003

2010/08/10 08:54
KAUW 100854Z AUTO 32003KT 7SM CLR 20/19 A2998 RMK AO2 SLP146 T02000189 58003

2010/08/10 08:54
KAVL 100854Z AUTO 00000KT 5SM R34/2400VP6000FT BR CLR 19/19 A3012 RMK AO2 SLP169 T01940189 55005

2010/08/10 08:55
KAWO 100855Z AUTO 00000KT 10SM 14/13 A2996 RMK AO1 57003

2010/08/10 08:55
KBBP 100855Z AUTO 00000KT 7SM BKN005 BKN008 23/22 A3001 RMK AO2

2010/08/10 08:54
KBFL 100854Z AUTO 29003KT 10SM CLR 23/06 A2982 RMK AO2 SLP090 T02330056 50001

2010/08/10 08:55
KBHB 100855Z AUTO 00000KT 1SM CLR 17/17 A2983 RMK AO1 57003

2010/08/10 08:55
KBID 100855Z AUTO 00000KT 10SM FEW075 SCT085 23/21 A2991 RMK AO1 54000

2010/08/10 08:55
KBKX 100855Z AUTO 12009KT 10SM OVC034 24/22 A2990 RMK AO1 57017

2010/08/10 08:55
KBLM 100855Z AUTO 24005KT 10SM SCT060 BKN070 BKN090 24/19 A2995 RMK AO1 57003

2010/08/10 08:55
KBNL 100855Z AUTO 00000KT 6SM BR CLR 24/24 A3000 RMK AO2

2010/08/10 08:54
KBOS 100854Z 20007KT 3SM BR FEW040 BKN110 OVC200 21/21 A2989 RMK AO2 TWR VIS 4 VIS 2 E RAE24 SLP120 P0000 60007 T02110206 56012

2010/08/10 08:55
KBTP 100855Z AUTO 00000KT 5SM OVC090 22/18 A2999 RMK AO1

2010/08/10 08:54
KBUF 100854Z 13003KT 3SM BR FEW038 BKN055 OVC075 21/20 A2994 RMK AO2 SLP137 T02110200 50001

2010/08/10 08:53
KAAF 100853Z AUTO 05006KT 10SM FEW023 26/24 A2987 RMK AO2 SLP116 T02610244 56013

2010/08/10 08:53
KABY 100853Z 07005KT 10SM CLR 25/23 A2997 RMK AO2 SLP146 T02500233 56005

2010/08/10 08:53
KACK 100853Z AUTO 00000KT 6SM -RA BR BKN055 BKN070 23/22 A2992 RMK AO2 RAB0759 SLP130 P0000 60000 T02280217 58002 TSNO

2010/08/10 08:53
KADG 100853Z AUTO 00000KT 1/4SM FG BKN001 OVC009 21/19 A2997 RMK AO2 SLP144 T02060194 58001

2010/08/10 08:53
KAFW 100853Z 23003KT 10SM CLR 28/20 A2988 RMK AO2 SLP098 T02780200 56012 $

2010/08/10 08:53
KAGC 100853Z 17005KT 7SM CLR 21/19 A2999 RMK AO2 SLP147 T02110189 56001

2010/08/10 08:53
KAIA 100853Z AUTO 22004KT 10SM CLR 16/15 A2996 RMK AO2 SLP098 60001 T01610150 58005

2010/08/10 08:53
KAKO 100853Z AUTO 21004KT 10SM FEW110 17/16 A3007 RMK AO2 SLP120 T01720161 53000 TSNO

2010/08/10 08:53
KAMG 100853Z AUTO 08003KT 8SM CLR 24/23 A2997 RMK AO2 SLP144 T02390228 56004

2010/08/10 08:53
KAOH 100853Z AUTO 18003KT 3SM BR CLR 23/21 A2997 RMK AO2 SLP140 T02280211 50000

2010/08/10 08:53
KAOO 100853Z AUTO 25003KT 8SM OVC120 22/18 A3001 RMK AO2 SLP148 T02170178 55002

2010/08/10 08:53
KAPA 100853Z 26005KT 10SM FEW120 16/12 A3015 RMK AO2 SLP143 T01560122 51003

2010/08/10 08:53
KAPF 100853Z AUTO 08008KT 10SM BKN008 BKN035 OVC050 25/24 A2984 RMK AO2 CIG 006V012 SLP103 T02500239 56010

2010/08/10 08:53
KARB 100853Z AUTO 00000KT 1/4SM FG VV001 19/19 A2996 RMK AO2 SLP139 T01940194 51004

2010/08/10 08:53
KASE 100853Z AUTO 22004KT 10SM OVC100 09/06 A3031 RMK AO2 SLP159 T00940061 51002

2010/08/10 08:53
KAUG 100853Z AUTO 31005KT 10SM CLR 20/17 A2987 RMK AO2 SLP112 T02000172 50001

2010/08/10 08:53
KBAF 100853Z 00000KT 3SM BR CLR 22/21 A2992 RMK AO2 RAE0759 SLP128 P0001 60008 T02170206 55003

2010/08/10 08:53
KBBW 100853Z AUTO 00000KT 10SM CLR 20/18 A2989 RMK AO2 TSB0749E0750B0751E01 SLP095 P0033 60111 T02000183 $

2010/08/10 08:53
KBFD 100853Z AUTO 00000KT 3SM BR OVC070 19/18 A3001 RMK AO2 RAB39E53 SLP145 P0001 60001 T01940183 56005

2010/08/10 08:53
KBFF 100853Z AUTO 11005KT 10SM CLR 17/16 A2998 RMK AO2 SLP106 T01670161 58015

2010/08/10 08:53
KBGM 100853Z AUTO 00000KT 1 1/4SM BR SCT001 OVC070 20/19 A3001 RMK AO2 RAE34 SLP147 P0000 60007 T02000194 57003

2010/08/10 08:53
KBGR 100853Z 00000KT 9SM FEW100 18/18 A2985 RMK AO2 SLP103 60001 T01830178 55002

2010/08/10 08:53
KBKL 100853Z 26006KT 7SM CLR 26/21 A2993 RMK AO2 SLP129 T02560211 51003

2010/08/10 08:53
KBKV 100853Z AUTO 08004KT 10SM CLR 24/23 A2990 RMK AO2 SLP121 T02390228 56010

2010/08/10 08:53
KBMG 100853Z 00000KT 5SM BR BKN110 23/22 A2995 RMK AO2 SLP132 T02280217 58004

2010/08/10 08:53
KBRL 100853Z AUTO 09003KT 10SM CLR 26/24 A2992 RMK AO2 LTG DSNT NW SLP124 T02610239 55004

2010/08/10 08:53
KBVO 100853Z AUTO 00000KT 10SM CLR 24/21 A2989 RMK AO2 SLP109 T02390211 58009

2010/08/10 08:53
KBVY 100853Z AUTO 00000KT 4SM BR CLR 22/21 A2988 RMK AO2 SLP112 60004 T02170211 55009

2010/08/10 08:53
KBYG 100853Z AUTO 30005KT 10SM CLR 14/09 A2998 RMK AO2 SLP091 T01440094 58006 $

2010/08/10 08:53
KDTO 100853Z AUTO 00000KT 10SM CLR 27/21 A2989 RMK AO2 SLP110 T02720206 55007

2010/08/10 08:53
KDTS 100853Z AUTO 04005KT 10SM CLR 28/23 A2989 RMK AO2 SLP121 T02780233 56009

2010/08/10 08:53
KDTW 100853Z 00000KT 4SM R04R/1800V2400FT OVC009 21/20 A2996 RMK AO2 SLP141 T02110200 51003 $

2010/08/10 08:53
KDXR 100853Z AUTO 00000KT 6SM -RA BR OVC100 22/21 A2994 RMK AO2 RAE00B37 SLP134 P0000 60000 T02220206 58002

2010/08/10 08:53
KECP 100853Z 04005KT 8SM CLR 25/23 A2989 RMK AO2 SLP133 T02500233 56007

2010/08/10 08:53
KEEO 100853Z AUTO 07006KT 10SM CLR 10/06 A3021 RMK AO2 SLP166 T01000056 51003 TSNO

2010/08/10 08:53
KELD 100853Z AUTO 00000KT 10SM CLR 26/24 A2991 RMK AO2 SLP122 T02560239 58009

2010/08/10 08:53
KELM 100853Z AUTO 08003KT 5SM BR OVC070 21/20 A2995 RMK AO2 RAB26E53 SLP135 P0000 60015 T02110200 58008 $

2010/08/10 08:53
KEMP 100853Z AUTO 18008KT 10SM CLR 25/21 A2989 RMK AO2 SLP106 T02500206 58009

2010/08/10 08:50
EGBE 100850Z 21009KT 180V240 9999 -RA FEW006 SCT009 15/14 Q1009

2010/08/10 08:50
EGBJ 100850Z 21007KT 9999 -RA FEW015 15/13 Q1010

2010/08/10 08:50
EGCN 100850Z 24013KT 9999 FEW018 18/11 Q1008

2010/08/10 08:50
EGSC 100850Z 21006KT 150V250 9999 BKN039 15/12 Q1010

2010/08/10 08:50
EGSH 100850Z 26008KT 230V300 9999 -RA FEW010 BKN039 15/13 Q1010

2010/08/10 08:54
PGUM 100854Z 07007KT 10SM FEW020 SCT110 28/23 A2992 RMK AO2 TSE18 SLP125 CB DSNT W MOV NW T02780233 53012

2010/08/10 08:54
KJAN 100854Z 00000KT 10SM CLR 24/23 A2995 RMK AO2 SLP138 T02390228 56002

2010/08/10 08:53
KGNT 100853Z AUTO 31006KT 14/11 A3025 RMK AO2 SLP153 T01390111 55001 PWINO TSNO

2010/08/10 08:51
KSAD 100851Z AUTO 16003KT 10SM CLR 24/14 A2996 RMK AO2 SLP087 T02390139 51001 TSNO

2010/08/10 08:54
KBKB 100854Z AUTO 00000KT 10SM CLR 26/24 A2991 RMK AO2 SLP152 T02560239 55001 $

2010/08/10 08:54
KCAR 100854Z AUTO 00000KT 1SM BR VV002 14/14 A2981 RMK AO2 SLP097 T01390139 53001

2010/08/10 08:52
KP69 100852Z AUTO 34003KT 16/15 A2988 RMK AO2 SLP095 T01560150 55001 PWINO TSNO

2010/08/10 08:53
KPQN 100853Z AUTO 12006KT 7SM SCT005 BKN039 24/23 A2989 RMK AO2 LTG DSNT SW

2010/08/10 08:54
KFGN 100854Z AUTO 00000KT 7SM CLR 24/21 A2988 RMK AO2

2010/08/10 08:53
KPNM 100853Z AUTO 00000KT 1 1/4SM BR CLR 19/19 A2994 RMK AO2 VIS 1/4V5

2010/08/10 08:53
KPWC 100853Z AUTO 00000KT 3/4SM BR OVC001 17/16 A2996 RMK AO2

2010/08/10 08:53
KFFM 100853Z AUTO 10003KT 10SM CLR 23/21 A2987 RMK AO2

2010/08/10 08:52
KGDB 100852Z AUTO 08005KT 10SM BKN034 23/22 A2990 RMK AO2 T02300221

2010/08/10 08:53
KAIT 100853Z AUTO 00000KT 10SM CLR 16/14 A2994 RMK AO2

2010/08/10 08:53
KGHW 100853Z AUTO 11006KT 4SM BR CLR 21/19 A2993 RMK AO2

2010/08/10 08:53
KMWM 100853Z AUTO 10006KT 7SM CLR 23/22 A2990 RMK AO2 LTG DSNT SE AND S

2010/08/10 08:53
KBBB 100853Z AUTO 13006KT 10SM CLR 23/22 A2993 RMK AO2

2010/08/10 08:53
KTWM 100853Z AUTO 00000KT 5SM HZ CLR 18/16 A2994 RMK AO2

2010/08/10 08:55
KMGG 100855Z AUTO 00000KT 7SM CLR 20/20 A2993 RMK AO2 T01970195

2010/08/10 08:48
KMOX 100848Z AUTO 12006KT 7SM CLR 22/21 A2986 RMK AO2

2010/08/10 08:54
KONZ 100854Z AUTO 00000KT 1 1/2SM BR VV007 22/21 A2994 RMK AO2 VIS 3/4V3

2010/08/10 08:54
KTEW 100854Z AUTO 00000KT 1/4SM FG OVC017 18/18 A2996 RMK AO2

2010/08/10 08:50
KCVH 100850Z AUTO 00000KT 10SM OVC005 13/12 A2992 RMK AO1

2010/08/10 08:56
KDVP 100856Z AUTO 12007KT 4SM BR OVC004 24/22 A2992 RMK AO2 LTG DSNT SE T02360223

2010/08/10 08:54
KDYT 100854Z AUTO 00000KT 10SM CLR 23/21 A2994 RMK AO2

2010/08/10 08:59
KFSO 100859Z AUTO 00000KT 5SM BR CLR 16/16 A2991 RMK AO2

2010/08/10 08:54
KFBL 100854Z AUTO 08003KT 5SM BR CLR 21/19 A2994 RMK AO2

2010/08/10 08:58
KLYV 100858Z AUTO 10009KT 7SM BKN020 BKN025 BKN035 25/23 A2986 RMK AO2 LTG DSNT SE THRU W

2010/08/10 08:56
KEFK 100856Z AUTO 00000KT 1/4SM FG OVC001 14/13 A2994 RMK AO2

2010/08/10 08:54
KRRT 100854Z AUTO 22003KT 10SM CLR 23/21 A2991 RMK AO2 TSNO

2010/08/10 08:55
KTOB 100855Z AUTO 11005KT 1/2SM FG VV005 21/19 A2997 RMK AO2

2010/08/10 08:53
KLXL 100853Z AUTO 08003KT 10SM CLR 20/18 A2991 RMK AO2

2010/08/10 08:52
KEVM 100852Z AUTO 00000KT 1/4SM FG OVC001 16/15 A2995 RMK AO1

2010/08/10 08:53
KELO 100853Z AUTO 00000KT 5SM BR CLR 16/16 A2996 RMK AO2

2010/08/10 08:55
KANE 100855Z AUTO 00000KT 7SM CLR 22/21 A2993 RMK AO2

2010/08/10 08:54
KROX 100854Z AUTO 20005KT 10SM CLR 22/20 A2990 RMK AO2

2010/08/10 08:55
KSYN 100855Z AUTO 00000KT 1/4SM FG OVC001 20/19 A2993 RMK AO2 T01970187

2010/08/10 08:56
KVVV 100856Z AUTO 13004KT 7SM SCT033 23/22 A2988 RMK AO2

2010/08/10 08:54
KROS 100854Z AUTO 00000KT 5SM BR CLR 18/18 A2994 RMK AO2 T01820175

2010/08/10 08:52
KHCD 100852Z AUTO 10005KT 7SM CLR 22/21 A2992 RMK AO2 T02210208

2010/08/10 08:53
KSGS 100853Z AUTO 00000KT 10SM CLR 23/21 A2993 RMK AO2 T02330213

2010/08/10 08:51
KMJQ 100851Z AUTO 13006KT 7SM BKN006 OVC039 23/23 A2992 RMK AO2

2010/08/10 08:54
KHCO 100854Z AUTO 00000KT 10SM CLR 22/22 A2992 RMK AO2

2010/08/10 08:54
KLVN 100854Z AUTO 00000KT M1/4SM FG OVC001 19/19 A2994 RMK AO2

2010/08/10 08:53
KPEX 100853Z AUTO 11004KT 7SM CLR 22/21 A2992 RMK AO2 T02210209

2010/08/10 08:55
KJMR 100855Z AUTO 00000KT 3/4SM BR VV005 18/18 A2996 RMK AO2

2010/08/10 08:55
KJKJ 100855Z AUTO 14004KT 10SM CLR 22/21 A2987 RMK AO2

2010/08/10 08:50
ENAT 100850Z 17007KT 9999 FEW030 BKN050 17/08 Q1011 

2010/08/10 08:50
ENBL 100850Z VRB02KT 9999 FEW018 SCT040 BKN055 15/11 Q1009

2010/08/10 08:50
ENEV 100850Z 33006KT 300V010 9999 FEW025 14/10 Q1010 

2010/08/10 08:50
ENFL 100850Z VRB01KT 9999 FEW010 BKN043 16/13 Q1010

2010/08/10 08:50
ENKB 100850Z VRB02KT 9999 -RA SCT007 SCT070 14/13 Q1010

2010/08/10 08:50
ENKR 100850Z 01006KT 9999 BKN009 10/08 Q1013 

2010/08/10 08:50
ENML 100850Z 12002KT 9999 FEW010 BKN037 17/13 Q1010

2010/08/10 08:50
ENNA 100850Z 19010KT 9999 FEW020 SCT047 17/09 Q1012 

2010/08/10 08:50
EBAW 100850Z 22006KT 170V260 CAVOK 20/13 Q1014 NOSIG

2010/08/10 08:50
EBBR 100850Z 21006KT CAVOK 20/12 Q1014 NOSIG

2010/08/10 08:50
EBCI 100850Z 19006KT 150V240 CAVOK 21/11 Q1015 NOSIG

2010/08/10 08:50
EBLG 100850Z 21009KT CAVOK 22/12 Q1015 NOSIG

2010/08/10 08:50
EBOS 100850Z 19012KT 150V220 9999 BKN020 19/14 Q1013 TEMPO 4500 RA BKN012

2010/08/10 08:50
ELLX 100850Z 15005KT 100V200 CAVOK 22/12 Q1016 NOSIG

2010/08/10 08:50
LOWW 100850Z 06004KT 020V090 9999 FEW060 21/16 Q1018 NOSIG

2010/08/10 08:50
LOWL 100850Z VRB02KT 9999 FEW035 21/14 Q1018 NOSIG

2010/08/10 08:50
LOWS 100850Z 15004KT 090V190 9999 FEW060 SCT300 22/11 Q1018 NOSIG

2010/08/10 08:50
LOWI 100850Z VRB02KT 9999 FEW070 21/13 Q1018 NOSIG

2010/08/10 08:50
LOWG 100850Z VRB03KT 9999 FEW038 23/16 Q1018 NOSIG

2010/08/10 08:50
LOWK 100850Z VRB02KT 9999 FEW015 SCT300 20/15 Q1019 NOSIG

2010/08/10 08:50
LOXZ 100850Z VRB02KT 30KM FEW035CU SCT270CI 20/15 Q1019 NOSIG RMK SCT

2010/08/10 08:50
ENGC 100850Z 10020KT 9999 SCT015 BKN030 14/12 Q1008

2010/08/10 08:50
ENHE 100850Z 05012KT 9999 OVC016 10/08 Q1012

2010/08/10 08:50
ENOA 100850Z 12023KT 4000 -RA BR BKN008 14/13 Q1007

2010/08/10 08:50
EGYP 100850Z 27016KT 9999 FEW030 00/M02 Q1005 BLU

2010/08/10 08:52
KSDB 100852Z AUTO 20005KT 10SM CLR 17/M02 A3003 RMK AO2 SLP114 T01671017 58003 TSNO

2010/08/10 08:52
K9V9 100852Z AUTO 19009KT 24/23 A2990 RMK AO2 SLP108 P0001 60001 T02390228 53007 PWINO TSNO

2010/08/10 08:51
KCAK 100851Z 25003KT 8SM SCT070 OVC100 24/19 A2997 RMK AO2 SLP137 8/07/ T02390189 56002

2010/08/10 08:53
KP92 100853Z AUTO 00000KT 25/24 A2991 RMK AO2 SLP127 T02500244 56009 PWINO TSNO

2010/08/10 08:53
KCHA 100853Z 00000KT 10SM CLR 26/23 A3001 RMK AO2 SLP150 T02610228 53001 $

2010/08/10 08:53
KCTY 100853Z AUTO 09003KT 24/24 A2991 RMK AO2 SLP128 T02440239 56006 PWINO TSNO

2010/08/10 08:53
KFAR 100853Z 13003KT 10SM CLR 22/19 A2987 RMK AO2 SLP108 T02220189 58007

2010/08/10 08:53
KMSY 100853Z 26004KT 8SM FEW250 25/24 A2992 RMK AO2 SLP133 T02500244 55006

2010/08/10 08:53
KOQT 100853Z AUTO 00000KT 5SM BR FEW050 24/23 A3003 RMK AO2 SLP148 T02440233 55001 TSNO

2010/08/10 08:53
KLND 100853Z AUTO 35009KT 10SM CLR 17/03 A3005 RMK AO2 SLP102 T01670033 51001

2010/08/10 08:53
KCUT 100853Z AUTO 24006KT 10SM SCT110 16/13 A3002 RMK AO2 SLP095 T01610133 56019 TSNO

2010/08/10 08:53
KSAV 100853Z 00000KT 10SM FEW019 25/23 A2998 RMK AO2 SLP153 T02500233 56005 $

2010/08/10 08:53
KLXV 100853Z AUTO 00000KT 10SM CLR 04/04 A3044 RMK AO2 SLP164 T00440039 51002 TSNO

2010/08/10 08:53
KRQE 100853Z AUTO 00000KT 10SM SCT075 12/09 A3026 RMK AO2 SLP132 T01220094 58000 TSNO

2010/08/10 08:53
KRNM 100853Z AUTO 00000KT 9SM CLR 12/09 A2991 RMK AO2 SLP115 T01170094 58003 TSNO

2010/08/10 08:53
KTLH 100853Z 07006KT 10SM FEW008 26/23 A2992 RMK AO2 SLP130 T02610233 55005

2010/08/10 08:53
KMCN 100853Z AUTO 00000KT 6SM BR CLR 23/22 A2999 RMK AO2 SLP149 T02330222 55003 TSNO

2010/08/10 08:53
KDAB 100853Z 12005KT 10SM FEW020 27/24 A2993 RMK AO2 SLP133 T02670239 56009

2010/08/10 08:53
KMGM 100853Z 00000KT 8SM BKN075 26/23 A2994 RMK AO2 SLP136 T02560228 56003

2010/08/10 08:53
KTRI 100853Z 00000KT 6SM BR FEW060 BKN090 BKN100 23/21 A3005 RMK AO2 SLP155 T02280206 55003

2010/08/10 08:53
KCQC 100853Z AUTO 04007KT 10SM CLR 16/12 A3024 RMK AO2 SLP137 T01560122 58003 TSNO

2010/08/10 08:53
KHTL 100853Z AUTO 33003KT 3SM BR OVC003 21/21 A2999 RMK AO2 SLP149 T02110211 50004

2010/08/10 08:53
KBTR 100853Z 00000KT 3/4SM BR FEW001 BKN004 24/24 A2992 RMK AO2 SLP131 T02440244 56008 RVRNO

2010/08/10 08:53
KLAX 100853Z 25004KT 10SM OVC007 16/13 A2991 RMK AO2 SLP126 T01560128 50002 $

2010/08/10 08:53
KMSN 100853Z 00000KT 2 1/2SM BR CLR 22/21 A2996 RMK AO2 SLP137 T02170211 55003

2010/08/10 08:53
KTUP 100853Z AUTO 19003KT 9SM CLR 25/23 A2995 RMK AO2 SLP136 T02500233 56006

2010/08/10 08:53
KSDM 100853Z AUTO 00000KT 9SM OVC008 17/14 A2991 RMK AO2 SLP123 T01670139 58003 TSNO

2010/08/10 08:53
KTCS 100853Z AUTO 30004KT 10SM CLR 22/11 A3007 RMK AO2 SLP090 T02170111 55003 TSNO

2010/08/10 08:53
KTYS 100853Z 00000KT 7SM CLR 25/23 A3001 RMK AO2 SLP147 T02500228 55001

2010/08/10 08:53
K40J 100853Z AUTO 06003KT 24/23 A2991 RMK AO2 SLP128 T02440233 55005 PWINO TSNO

2010/08/10 08:53
KRTN 100853Z AUTO 00000KT 10SM CLR 14/13 A3020 RMK AO2 SLP144 T01390128 58001 TSNO

2010/08/10 08:53
KBNO 100853Z AUTO 25007KT 10SM SCT110 14/04 A2994 RMK AO2 SLP100 T01440039 50000 TSNO

2010/08/10 08:54
KBTV 100854Z 00000KT 1/4SM FG VV001 17/17 A2991 RMK AO2 SLP128 T01720172 50000 RVRNO

2010/08/10 08:51
KVCT 100851Z AUTO 00000KT 10SM CLR 25/24 A2991 RMK AO2 SLP126 T02500244 56011

2010/08/10 08:53
KSGR 100853Z AUTO 00000KT 10SM CLR 25/24 A2990 RMK AO2 SLP133 T02500239 56010 TSNO

2010/08/10 08:53
KDNK 100853Z AUTO 13004KT 10SM CLR 25/23 A2993 RMK AO2 SLP130 T02500228 55001

2010/08/10 08:53
KELY 100853Z AUTO 20009KT 10SM CLR 14/M04 A3013 RMK AO2 SLP102 T01441044 50000

2010/08/10 08:53
KOVE 100853Z AUTO 17006KT 10SM CLR 19/12 A2983 RMK AO2 SLP102 T01940117 50001 TSNO $

2010/08/10 08:50
KLXN 100850Z AUTO 00000KT 10SM SCT100 21/19 A2990 RMK AO2 T02050190

2010/08/10 08:52
KMDH 100852Z AUTO 00000KT 3SM BR SCT085 25/23 A2992 RMK AO2 SLP127 T02500233 58008 TSNO

2010/08/10 08:52
KMEB 100852Z AUTO 00000KT 6SM BR CLR 23/22 A3001 RMK AO2 SLP160 T02280222 56004

2010/08/10 08:52
KMKE 100852Z 00000KT 4SM BR FEW250 22/21 A2994 RMK AO2 SLP133 T02170211 55006

2010/08/10 08:50
KMLE 100850Z AUTO 13004KT 10SM SCT085 27/23 A2985 RMK AO2 T02670232

2010/08/10 08:52
KMLI 100852Z 11005KT 10SM SCT038 24/23 A2993 RMK AO2 SLP128 T02440233 55001

2010/08/10 08:49
KMMH 100849Z AUTO 33003KT 10SM CLR 04/M00 A3016 RMK AO1

2010/08/10 08:52
KMWH 100852Z AUTO 29009KT 10SM FEW090 18/09 A2981 RMK AO2 SLP088 T01780089 53008

2010/08/10 08:55
KMYR 100855Z AUTO 00000KT 10SM SCT018 25/23 A3004 RMK AO1 57003

2010/08/10 08:55
KOAJ 100855Z AUTO 00000KT 10SM CLR 23/22 A3002 RMK AO1 57003

2010/08/10 08:50
KOGA 100850Z AUTO 00000KT 10SM CLR 19/17 A2995 RMK AO2 LTG DSNT E 60008 T01890165

2010/08/10 08:50
KOJA 100850Z AUTO 20007KT 10SM CLR 27/20 A2991 RMK AO2

2010/08/10 08:52
KOKB 100852Z AUTO 05003KT 8SM OVC013 16/13 A2990 RMK AO2 SLP123 T01610133 58001 $

2010/08/10 08:52
KOKC 100852Z 17005KT 10SM CLR 25/21 A2991 RMK AO2 SLP107 T02500211 56010 $

2010/08/10 08:51
KOKM 100851Z AUTO 00000KT 10SM CLR 25/23 A2991 RMK AO1

2010/08/10 08:52
KOMA 100852Z 14009KT 10SM FEW090 SCT250 28/24 A2985 RMK AO2 SLP095 OCNL LTG DSNT NE T02780244 55001

2010/08/10 08:50
KONL 100850Z AUTO 28012G17KT 10SM -VCTSRA SCT100 BKN120 21/19 A2990 RMK AO2 LTG DSNT W THRU NE P0004 60011 T02110190

2010/08/10 08:52
KORE 100852Z AUTO 00000KT 3SM BR BKN090 21/21 A2992 RMK AO2 SLP130 60001 T02110206 55004

2010/08/10 08:50
KORS 100850Z AUTO 18007KT 10SM BKN038 14/11 A2992 RMK AO2

2010/08/10 08:50
KPLU 100850Z AUTO 25003KT 10SM OVC009 13/12 A2996 RMK AO2

2010/08/10 08:52
KPPF 100852Z AUTO 00000KT 10SM CLR 25/22 A2991 RMK AO2 SLP116 T02500217 56007

2010/08/10 08:52
KPWK 100852Z AUTO 00000KT 10SM CLR 24/22 A2994 RMK AO2 SLP134 T02390222 58009

2010/08/10 08:52
KPYM 100852Z AUTO 00000KT 3SM RA BR BKN033 22/20 A2992 RMK AO2 RAB37 SLP129 P0001 60019 T02220200 56006

2010/08/10 08:52
KRAP 100852Z AUTO 15009KT 10SM CLR 19/17 A2985 RMK AO2 SLP079 T01940167 58017

2010/08/10 08:51
KRKR 100851Z AUTO 00000KT 10SM CLR 26/24 A2992 RMK AO2

2010/08/10 08:52
KSGF 100852Z 19003KT 10SM CLR 25/23 A2994 RMK AO2 SLP121 T02500233 58006

2010/08/10 08:53
KSNL 100853Z AUTO 18007KT 10SM CLR 27/20 A2992 RMK AO2

2010/08/10 08:55
KSOP 100855Z AUTO 23005KT 8SM CLR 24/23 A3001 RMK AO1 57003

2010/08/10 08:52
KSPI 100852Z AUTO 12004KT 10SM CLR 25/22 A2993 RMK AO2 SLP127 T02500222 55020

2010/08/10 08:59
K36U 100859Z AUTO 00000KT 10SM CLR 08/04 A3012 RMK AO2

2010/08/10 08:50
KPMV 100850Z AUTO 15006KT 10SM SCT090 27/23 A2986 RMK AO2 T02660228

2010/08/10 08:51
KADH 100851Z AUTO 21005KT 10SM CLR 27/18 A2991 RMK AO2

2010/08/10 08:50
KADM 100850Z AUTO 00000KT 10SM CLR 24/22 A2990 RMK AO2

2010/08/10 08:50
KAFK 100850Z AUTO 21007KT 10SM CLR 25/22 A2986 RMK AO2 T02470219

2010/08/10 08:52
KAFN 100852Z AUTO 00000KT 6SM BR OVC090 20/19 A2994 RMK AO2 SLP135 T02000189 55005

2010/08/10 08:45
KALM 100845Z AUTO 33004KT 10SM CLR 22/12 A3002 RMK AO2

2010/08/10 08:50
KANW 100850Z AUTO 03008KT 10SM -RA SCT045 SCT050 SCT120 19/18 A2987 RMK AO2 LTG DSNT N THRU E P0008 60066 T01850177

2010/08/10 08:52
KAQW 100852Z AUTO 00000KT 3SM BR BKN017 OVC028 21/20 A2994 RMK AO2 SLP135 T02060200 51001

2010/08/10 08:52
KARR 100852Z AUTO 00000KT 7SM CLR 23/22 A2994 RMK AO2 SLP132 T02330222 55006

2010/08/10 08:52
KATL 100852Z 00000KT 9SM FEW250 26/21 A3001 RMK AO2 SLP151 T02560211 55004

2010/08/10 08:50
KATS 100850Z AUTO 15005KT 10SM CLR 20/15 A3002 RMK AO2

2010/08/10 08:50
KAUH 100850Z AUTO 23007KT 10SM CLR 24/21 A2986 RMK AO2 LTG DSNT N T02430210

2010/08/10 08:50
KAUN 100850Z AUTO 11006KT 10SM CLR 20/11 A2988 RMK AO1

2010/08/10 08:50
KAXS 100850Z AUTO 29004KT 10SM CLR 25/20 A2992 RMK AO2 T02470198

2010/08/10 08:50
KAXX 100850Z AUTO 00000KT 3SM BR SCT001 05/05 A3038 RMK AO2

2010/08/10 08:50
KBIE 100850Z AUTO 16005KT 10SM CLR 27/22 A2985 RMK AO2 T02650215

2010/08/10 09:02
KFKA 100902Z AUTO 14003KT 10SM CLR 24/23 A2998 RMK AO2 LTG DSNT SW T02360226

2010/08/10 08:52
KIJD 100852Z AUTO 20003KT 5SM -RA BR BKN041 OVC095 21/21 A2993 RMK AO2 RAB08 SLP133 P0003 60003 T02110206 55004

2010/08/10 08:52
KIOW 100852Z AUTO 25010KT 10SM TS SCT030 BKN044 OVC070 25/22 A2998 RMK AO2 LTG DSNT ALQDS TSB19 SLP146 T02500217 50023

2010/08/10 08:52
KISN 100852Z VRB04KT 10SM CLR 21/17 A2979 RMK AO2 RAE0755 SLP075 P0000 60009 T02060167 51005

2010/08/10 08:51
KJSV 100851Z AUTO 09003KT 10SM CLR 24/22 A2992 RMK AO2

2010/08/10 08:50
KJYR 100850Z AUTO 20006KT 10SM CLR 24/22 A2985 RMK AO2

2010/08/10 08:50
KL35 100850Z AUTO 00000KT 10SM CLR 06/M02 A3015 RMK AO2

2010/08/10 08:50
KLAM 100850Z AUTO 22005KT 10SM CLR 18/07 A3028 RMK AO2

2010/08/10 08:50
KLCG 100850Z AUTO 11003KT 3SM BR OVC002 25/25 A2984 RMK AO2 LTG DSNT NW T02530246

2010/08/10 08:50
KLHM 100850Z AUTO 16007KT 10SM CLR 20/12 A2982 RMK AO1 T01950124

2010/08/10 08:52
KLWC 100852Z AUTO 10004KT 10SM CLR 24/22 A2988 RMK AO2 SLP106 T02390222 55007

2010/08/10 08:53
KABR 100853Z AUTO 10004KT 10SM OVC031 23/22 A2986 RMK AO2 SLP099 T02330217 56013

2010/08/10 08:53
KACV 100853Z AUTO 17009KT 10SM OVC005 11/10 A2991 RMK AO2 SLP134 T01110100 58014

2010/08/10 08:53
KAEX 100853Z 00000KT 10SM FEW060 26/24 A2991 RMK AO2 SLP130 T02610239 58000

2010/08/10 08:53
KAGS 100853Z AUTO 00000KT 4SM BR CLR 22/22 A2999 RMK AO2 SLP154 T02220217 55004 TSNO

2010/08/10 08:53
KALI 100853Z AUTO 20003KT 10SM CLR 26/26 A2989 RMK AO2 SLP117 T02610256 58016

2010/08/10 08:53
KALW 100853Z AUTO 18010KT 10SM CLR 18/08 A2987 RMK AO2 SLP108 T01780083 50008

2010/08/10 08:53
KAMA 100853Z AUTO 18008KT 10SM CLR 21/17 A3004 RMK AO2 SLP114 T02060172 58003

2010/08/10 08:53
KAMW 100853Z AUTO 11004KT 10SM FEW095 22/21 A2994 RMK AO2 LTG DSNT ALQDS TSE17 SLP128 60000 T02220211 55000

2010/08/10 08:53
KANB 100853Z AUTO 00000KT 6SM HZ BKN085 24/22 A2999 RMK AO2 SLP142 T02440217 55001

2010/08/10 08:53
KARA 100853Z AUTO 00000KT 10SM CLR 26/24 A2993 RMK AO2 SLP133 T02560244 55006

2010/08/10 08:53
KASD 100853Z AUTO 36003KT 5SM BR OVC001 24/23 A2992 RMK AO2 SLP132 T02390228 55003

2010/08/10 08:53
KASX 100853Z AUTO 00000KT 5SM BR CLR 18/18 A2996 RMK AO2 SLP141 60001 T01780178 58001

2010/08/10 08:53
KATY 100853Z AUTO 13004KT 10SM OVC031 24/22 A2988 RMK AO2 SLP104 T02390222 55011

2010/08/10 08:53
KAUS 100853Z 21006KT 10SM CLR 26/24 A2992 RMK AO2 SLP119 T02560239 56013

2010/08/10 08:53
KAWM 100853Z AUTO 00000KT 10SM CLR 26/25 A2991 RMK AO2 SLP124 T02610250 58003

2010/08/10 08:53
KAXN 100853Z AUTO 12006KT 7SM CLR 22/21 A2992 RMK AO2 SLP123 T02170206 58016 $

2010/08/10 08:53
KAZO 100853Z AUTO 00000KT 1/2SM FG VV001 21/20 A2996 RMK AO2 SLP140 T02060200 58005

2010/08/10 08:53
KBCE 100853Z AUTO 28008KT 10SM CLR 06/02 A3028 RMK AO2 SLP152 T00560022 58001

2010/08/10 08:53
KBDE 100853Z AUTO 19003KT 5SM BR CLR 19/19 A2991 RMK AO2 SLP125 T01940189 50000

2010/08/10 08:53
KBEH 100853Z AUTO 00000KT 8SM CLR 20/19 A2994 RMK AO2 SLP134 T02000194 58004

2010/08/10 08:53
KBFI 100853Z 21005KT 10SM OVC017 15/12 A2995 RMK AO2 SLP142 T01500117 58005

2010/08/10 08:53
KBFM 100853Z 33004KT 7SM CLR 26/24 A2993 RMK AO2 SLP133 T02610244 58005

2010/08/10 08:53
KBHK 100853Z AUTO 29013G23KT 10SM -RA FEW085 19/16 A2983 RMK AO2 RAB43 SLP068 P0000 60000 T01940156 50004

2010/08/10 08:53
KBHM 100853Z 00000KT 8SM CLR 27/23 A2999 RMK AO2 SLP144 T02720233 55004

2010/08/10 08:53
KBIV 100853Z AUTO 00000KT 1/4SM FG FEW001 OVC008 21/19 A2996 RMK AO2 SLP140 T02060189 56003

2010/08/10 08:53
KBKE 100853Z AUTO 25005KT 10SM BKN085 BKN110 13/11 A2990 RMK AO2 RAB17E52 SLP102 P0002 60002 T01280111 58003

2010/08/10 08:53
KBLI 100853Z AUTO 17005KT 10SM SCT012 BKN080 OVC100 14/12 A2993 RMK AO2 SLP142 T01440122 58003

2010/08/10 08:53
KBMQ 100853Z AUTO 17003KT 10SM CLR 26/22 A2997 RMK AO2 SLP128 T02560222 56012 $

2010/08/10 08:53
KIAH 100853Z 00000KT 10SM FEW250 26/24 A2991 RMK AO2 SLP128 T02560244 55007

2010/08/10 08:53
KICR 100853Z AUTO 24011KT 4SM RA BR BKN019 BKN037 OVC050 20/19 A2992 RMK AO2 PK WND 21052/0826 RAB17 SLP113 P0118 60119 T02000189 TSNO $

2010/08/10 08:52
KMFD 100852Z AUTO 25005KT 6SM HZ CLR 23/19 A2999 RMK AO2 RAE0757 SLP142 P0000 60000 T02330194 52002

2010/08/10 08:52
KMHK 100852Z AUTO 00000KT 9SM CLR 28/21 A2984 RMK AO2 SLP091 T02780206 58011

2010/08/10 08:50
KPTS 100850Z AUTO 21005KT 10SM CLR 26/23 A2991 RMK AO2 T02620230

2010/08/10 08:52
KSPS 100852Z AUTO 20008KT 10SM CLR 27/18 A2990 RMK AO2 SLP108 P0004 60013 T02720183 55007

2010/08/10 08:52
KALS 100852Z AUTO 29004KT 10SM CLR 08/06 A3029 RMK AO2 SLPNO T00780056 53005

2010/08/10 08:52
KBDR 100852Z AUTO 04003KT 10SM FEW055 26/18 A2992 RMK AO2 SLP133 T02560183 51003

2010/08/10 08:52
KCID 100852Z AUTO 22008KT 6SM BR BKN016 BKN023 BKN031 24/23 A2997 RMK AO2 LTG DSNT ALQDS SLP142 T02390228 51024

2010/08/10 08:52
KTOL 100852Z 00000KT 1SM BR VV001 22/22 A2995 RMK AO2 SLP136 T02220217 58001 RVRNO

2010/08/10 08:52
KVTN 100852Z AUTO 29009KT 10SM -RA FEW025 19/18 A2988 RMK AO2 LTG DSNT E TSE0753 PRESFR SLP093 P0007 60016 T01890183 58005

2010/08/10 08:52
KCNU 100852Z AUTO 18006KT 10SM CLR 26/21 A2990 RMK AO2 SLP110 T02560206 58006

2010/08/10 08:52
KSDB 100852Z AUTO 20005KT 10SM CLR 17/M02 A3003 RMK AO2 SLP114 T01671017 58003 TSNO

2010/08/10 08:52
K9V9 100852Z AUTO 19009KT 24/23 A2990 RMK AO2 SLP108 P0001 60001 T02390228 53007 PWINO TSNO

2010/08/10 08:51
KCAK 100851Z 25003KT 8SM SCT070 OVC100 24/19 A2997 RMK AO2 SLP137 8/07/ T02390189 56002

2010/08/10 08:52
KABI 100852Z 17005KT 10SM CLR 27/18 A2996 RMK AO2 SLP111 T02670183 56013

2010/08/10 08:53
KBIL 100853Z 22007KT 10SM CLR 16/13 A2991 RMK AO2 SLP096 T01560133 58001

2010/08/10 08:53
KJBR 100853Z AUTO 08004KT 10SM CLR 26/24 A2992 RMK AO2 SLP126 T02610239 56008

2010/08/10 08:53
KLIT 100853Z 00000KT 7SM FEW250 28/25 A2991 RMK AO2 SLP125 T02780250 58009

2010/08/10 08:53
KDBQ 100853Z AUTO 00000KT 5SM R36/3000VP6000FT BR FEW031 23/22 A2997 RMK AO2 SLP140 T02280217 55002

2010/08/10 08:53
KDRT 100853Z AUTO 12008KT 10SM CLR 28/23 A2990 RMK AO2 SLP107 T02830228 58003

2010/08/10 08:53
KFAT 100853Z 29006KT 10SM CLR 22/14 A2980 RMK AO2 SLP088 T02170144 58003

2010/08/10 08:53
KGEG 100853Z 20009KT 10SM BKN130 OVC200 18/06 A2980 RMK AO2 SLP075 T01780061 51001

2010/08/10 08:53
KRIW 100853Z AUTO 23004KT 10SM CLR 16/04 A3007 RMK AO2 SLP107 T01560039 52004

2010/08/10 08:53
KSAT 100853Z 18007KT 10SM BKN017 27/24 A2994 RMK AO2 SLPNO T02720244 56014

2010/08/10 08:53
KSEA 100853Z 19006KT 10SM OVC012 13/12 A2996 RMK AO2 SLP150 T01330117 58007

2010/08/10 08:53
KGRR 100853Z AUTO 18004KT 1/4SM FG VV001 20/20 A2996 RMK AO2 SLP141 T02000200 50000

2010/08/10 08:53
KHSI 100853Z AUTO 33012G19KT 10SM FEW095 23/19 A2989 RMK AO2 SLP101 T02330189 53001 $

2010/08/10 08:53
KHSV 100853Z 00000KT 5SM BR FEW200 26/24 A2997 RMK AO2 SLP141 T02560239 56006

2010/08/10 08:53
KHVR 100853Z AUTO 18003KT 10SM CLR 15/14 A2980 RMK AO2 SLP074 T01500139 56003

2010/08/10 08:53
KODX 100853Z AUTO 35005KT 10SM FEW095 20/19 A2988 RMK AO2 LTG DSNT N AND NE TSE09RAE38 SLP104 P0006 60016 T02000189 58001

2010/08/10 08:51
KORF 100851Z 22007KT 10SM CLR 25/23 A2997 RMK AO2 SLP149 T02500233 56004 $

2010/08/10 08:53
KPDX 100853Z 33004KT 10SM OVC032 15/11 A2999 RMK AO2 SLP155 T01500111 58002

2010/08/10 08:53
KPGA 100853Z AUTO 21003KT 10SM SCT110 23/03 A3004 RMK AO2 SLP101 T02280033 51003

2010/08/10 08:51
KBVE 100851Z AUTO 27004KT CLR 26/24 A2991 RMK AO2 SLP128 T02560244 56004 TSNO $

2010/08/10 08:53
KCLL 100853Z AUTO 00000KT 10SM CLR 27/23 A2991 RMK AO2 SLP122 T02670233 56015

2010/08/10 08:53
KCNY 100853Z AUTO 00000KT 10SM CLR 18/01 A3004 RMK AO2 SLP111 T01830011 51004

2010/08/10 08:51
KCRP 100851Z 00000KT 10SM FEW017 26/25 A2989 RMK AO2 SLP121 T02610250 58012

2010/08/10 08:53
KCRQ 100853Z 08003KT 10SM OVC011 18/14 A2989 RMK AO2 SLP120 T01780139 58004

2010/08/10 08:53
KP92 100853Z AUTO 00000KT 25/24 A2991 RMK AO2 SLP127 T02500244 56009 PWINO TSNO

2010/08/10 08:53
KCHA 100853Z 00000KT 10SM CLR 26/23 A3001 RMK AO2 SLP150 T02610228 53001 $

2010/08/10 08:53
KYKM 100853Z AUTO 33012KT 10SM CLR 18/08 A2985 RMK AO2 SLP100 T01830083 58003

2010/08/10 08:54
PGUM 100854Z 07007KT 10SM FEW020 SCT110 28/23 A2992 RMK AO2 TSE18 SLP125 CB DSNT W MOV NW T02780233 53012

2010/08/10 08:54
PGSN 100854Z 06005KT 10SM FEW020 27/24 A2993 RMK AO2 SLP132 T02720244 53015

2010/08/10 08:53
KFFC 100853Z AUTO 00000KT 4SM BR CLR 22/21 A3001 RMK AO2 SLP155 T02170206 55004

2010/08/10 08:53
KFHR 100853Z AUTO 00000KT 10SM FEW070 OVC100 12/09 A2995 RMK AO2 SLP141 T01170094 56004

2010/08/10 08:53
KFLD 100853Z AUTO 00000KT 2SM BR CLR 21/20 A2994 RMK AO2 SLP134 T02060200 58006

2010/08/10 08:53
KFSM 100853Z AUTO 00000KT 10SM CLR 26/24 A2991 RMK AO2 SLP121 T02610239 55005

2010/08/10 08:53
KFST 100853Z AUTO 13003KT 9SM CLR 22/19 A3000 RMK AO2 SLP110 T02170189 56006

2010/08/10 08:53
KFTY 100853Z 00000KT 5SM BR CLR 24/22 A3001 RMK AO2 SLP150 T02390217 55004

2010/08/10 08:53
KFUL 100853Z 00000KT 7SM CLR 16/13 A2989 RMK AO2 SLP121 T01610128 50000

2010/08/10 08:53
KFYV 100853Z AUTO 00000KT 10SM CLR 23/22 A2997 RMK AO2 SLP129 T02330222 56005

2010/08/10 08:53
KGEY 100853Z AUTO 16003KT 10SM CLR 16/09 A2995 RMK AO2 SLP103 T01610094 51009

2010/08/10 08:53
KGFK 100853Z 17003KT 10SM FEW250 20/19 A2986 RMK AO2 SLP107 T02000189 58000

2010/08/10 08:53
KGLH 100853Z AUTO 00000KT 10SM CLR 24/23 A2993 RMK AO2 SLP138 T02390233 58002

2010/08/10 08:53
KPIR 100853Z AUTO 17007KT 6SM -RA BR SCT019 BKN028 BKN037 24/23 A2985 RMK AO2 RAB08 SLP088 P0004 60004 T02390233 55001

2010/08/10 08:53
KPKD 100853Z AUTO 11003KT 10SM CLR 21/19 A2993 RMK AO2 SLP127 T02110189 58009

2010/08/10 08:53
KPMD 100853Z AUTO 16004KT 10SM CLR 18/04 A2991 RMK AO2 SLP099 T01830044 58003

2010/08/10 08:53
KPQL 100853Z AUTO 00000KT 6SM BR FEW060 25/24 A2991 RMK AO2 SLP130 T02500244 56005

2010/08/10 08:53
KPRB 100853Z AUTO A2990 RMK AO2 SLPNO 6//// 50000 PWINO FZRANO TSNO

2010/08/10 08:53
KPRC 100853Z AUTO 19007KT 10SM CLR 17/07 A3011 RMK AO2 SLP114 T01720072 58002

2010/08/10 08:53
KPSC 100853Z AUTO 20003KT 10SM CLR 20/10 A2982 RMK AO2 SLP096 T02000100 50005

2010/08/10 08:55
KPSO 100855Z AUTO 00000KT 10SM CLR 09/05 A3032 RMK AO2

2010/08/10 08:53
KPSP 100853Z AUTO 00000KT 10SM CLR 24/08 A2975 RMK AO2 SLP071 T02440083 58002 TSNO

2010/08/10 08:53
KPSX 100853Z AUTO 24003KT 10SM CLR 29/26 A2990 RMK AO2 SLP125 T02890256 56007

2010/08/10 08:53
KPUC 100853Z AUTO 00000KT 10SM CLR 15/M02 A3014 RMK AO2 SLP157 T01501017 53002 $

2010/08/10 08:53
KPUW 100853Z AUTO 26007KT 230V290 10SM CLR 16/06 A2988 RMK AO2 SLP102 T01560056 53005

2010/08/10 08:53
KRAC 100853Z AUTO 00000KT 2SM BR CLR 22/20 A2996 RMK AO2 SLP140 T02170200 55007

2010/08/10 08:53
KRAL 100853Z AUTO 27003KT 10SM CLR 17/13 A2990 RMK AO2 SLP110 T01720128 50001

2010/08/10 08:53
KRBG 100853Z AUTO 32003KT 10SM CLR 16/12 A2996 RMK AO2 SLP145 T01560117 50001

2010/08/10 08:53
KRDD 100853Z AUTO 00000KT 10SM CLR 22/09 A2982 RMK AO2 SLP092 T02170094 50001

2010/08/10 08:53
KRHI 100853Z AUTO 00000KT 2SM BR CLR 17/16 A3001 RMK AO2 SLP154 T01670156 58005

2010/08/10 08:53
KRKP 100853Z AUTO 00000KT 10SM CLR 28/26 A2988 RMK AO2 SLP121 T02780261 58010

2010/08/10 08:53
KRNT 100853Z AUTO 17006KT 10SM OVC016 14/12 A2995 RMK AO2 SLP148 T01440117 58005

2010/08/10 08:53
KRUE 100853Z AUTO 00000KT 10SM CLR 27/24 A2991 RMK AO2 SLP120 T02670239 56005

2010/08/10 08:53
KRWF 100853Z AUTO 10004KT 9SM FEW032 23/22 A2989 RMK AO2 SLP114 T02330222 56011

2010/08/10 08:53
KRWI 100853Z AUTO 00000KT 8SM CLR 23/22 A3000 RMK AO2 SLP157 T02330222 56001

2010/08/10 08:53
KRXE 100853Z AUTO 00000KT 10SM CLR 10/09 A3005 RMK AO2 SLP143 T01000094 51002

2010/08/10 08:53
KSAC 100853Z 16004KT 10SM CLR 15/11 A2983 RMK AO2 SLP101 T01500111 50001

2010/08/10 08:53
KSAF 100853Z AUTO 09004KT 10SM CLR 16/09 A3021 RMK AO2 SLP121 T01560094 53002

2010/08/10 08:53
KSBA 100853Z AUTO 06003KT 10SM OVC004 14/13 A2988 RMK AO2 SLP117 T01440128 58002

2010/08/10 08:53
KSBM 100853Z AUTO 00000KT 5SM BR CLR 21/21 A2994 RMK AO2 SLP134 T02110206 58003

2010/08/10 08:53
KSDL 100853Z 02003KT 10SM CLR 31/11 A2985 RMK AO2 SLP075 T03110111 50002

2010/08/10 08:53
KGLR 100853Z AUTO VRB03KT 7SM OVC005 21/21 A2999 RMK AO2 SLP148 T02110206 50001

2010/08/10 08:53
KGMU 100853Z AUTO 00000KT 9SM CLR 26/21 A3004 RMK AO2 SLP160 T02560206 55009

2010/08/10 08:53
KILM 100853Z AUTO 20003KT 10SM CLR 26/24 A3000 RMK AO2 SLP160 P0001 60001 T02560239 58006

2010/08/10 08:53
KIML 100853Z AUTO 29008KT 10SM SCT060 OVC110 19/17 A2997 RMK AO2 TSE08RAE47 SLP110 P0004 60019 T01940172 56021

2010/08/10 08:53
KITR 100853Z AUTO 00000KT 10SM OVC120 18/17 A3004 RMK AO2 SLP111 T01780167 55011

2010/08/10 08:53
KIWI 100853Z AUTO 00000KT 10SM CLR 19/17 A2987 RMK AO2 SLP114 T01890172 51001

2010/08/10 08:53
KIXD 100853Z AUTO 17004KT 10SM CLR 26/22 A2990 RMK AO2 SLP110 T02560217 55006

2010/08/10 08:53
KJEF 100853Z AUTO 12003KT 10SM CLR 28/25 A2990 RMK AO2 SLP108 T02780250 55006

2010/08/10 08:53
KJKL 100853Z AUTO 00000KT 7SM CLR 23/21 A3002 RMK AO2 SLP148 T02280211 56003

2010/08/10 08:53
KLAA 100853Z AUTO 00000KT 10SM CLR 19/18 A2999 RMK AO2 SLP097 T01940178 58005

2010/08/10 08:53
KLAR 100853Z AUTO 01004KT 10SM CLR 11/07 A3022 RMK AO2 SLP126 T01060072 55002

2010/08/10 08:53
KLAW 100853Z AUTO 16003KT 10SM CLR 26/21 A2991 RMK AO2 SLP110 T02560206 56007

2010/08/10 08:53
KLBF 100853Z AUTO 23004KT 10SM FEW100 19/19 A2994 RMK AO2 LTG DSNT SE-W SLP107 60007 T01940189 55009

2010/08/10 08:53
KLEB 100853Z AUTO 03003KT 3SM BR OVC001 21/19 A2991 RMK AO2 SLP120 T02060189 58002

2010/08/10 08:53
KLEE 100853Z AUTO 11013G17KT 10SM CLR 26/24 A2992 RMK AO2 SLP130 T02610239 56008

2010/08/10 08:53
KLHQ 100853Z AUTO 00000KT 6SM BR SCT060 BKN075 22/20 A2998 RMK AO2 SLP142 T02170200 55001

2010/08/10 08:53
KLHX 100853Z AUTO 18004KT 10SM CLR 19/17 A3004 RMK AO2 SLP109 T01890167 55002 $

2010/08/10 08:53
KLMT 100853Z AUTO 00000KT 10SM FEW090 13/06 A2998 RMK AO2 SLP109 T01330061 58005

2010/08/10 08:53
KLNS 100853Z AUTO 00000KT 6SM HZ CLR 23/20 A2993 RMK AO2 SLP131 T02280200 55003

2010/08/10 08:53
KLOU 100853Z AUTO 00000KT 8SM CLR 26/23 A2995 RMK AO2 SLP134 T02560233 58002

2010/08/10 08:53
KLOZ 100853Z AUTO 00000KT 4SM BR CLR 23/22 A3002 RMK AO2 SLP149 T02280222 58001

2010/08/10 08:53
KLPR 100853Z AUTO 00000KT 5SM HZ CLR 23/20 A2996 RMK AO2 SLP137 T02330200 50002

2010/08/10 08:53
KLUK 100853Z AUTO 00000KT 3SM R21L/2400VP6000FT BR CLR 23/22 A2996 RMK AO2 SLP140 T02280217 58002

2010/08/10 08:53
KLVS 100853Z AUTO 00000KT 10SM CLR 12/11 A3025 RMK AO2 SLP133 T01220111 58004

2010/08/10 08:53
KLWV 100853Z AUTO 00000KT 2 1/2SM BR CLR 25/23 A2992 RMK AO2 SLP126 T02500233 58007

2010/08/10 08:53
KLXT 100853Z AUTO 20008KT 10SM CLR 29/22 A2989 RMK AO2 SLP110 T02890222 56008

2010/08/10 08:53
KFWN 100853Z AUTO 00000KT 6SM BR CLR 22/21 A2995 RMK AO2 RAE0758 SLP138 P0000 60000 T02170206 51003

2010/08/10 08:53
KFXE 100853Z 17007G22KT 4SM RA SCT020 SCT027 26/23 A2987 RMK AO2 RAB50 SLP117 P0015 60016 T02610233 56010

2010/08/10 08:53
KGAG 100853Z AUTO 16007KT 10SM CLR 23/18 A2993 RMK AO2 SLP102 T02330178 58002

2010/08/10 08:53
KGEZ 100853Z AUTO 06005KT 4SM BR CLR 23/22 A2994 RMK AO2 SLP130 T02280217 57002

2010/08/10 08:53
KGFL 100853Z AUTO 00000KT 2 1/2SM BR OVC002 21/21 A2992 RMK AO2 SLP129 T02060206 50000

2010/08/10 08:53
KGGG 100853Z AUTO 00000KT 10SM CLR 27/23 A2991 RMK AO2 SLP119 T02720228 58004

2010/08/10 08:53
KGGW 100853Z AUTO 00000KT 10SM CLR 19/17 A2977 RMK AO2 SLP065 60002 T01890172 58010 TSNO

2010/08/10 08:53
KGIF 100853Z AUTO 09007KT 10SM SCT008 25/23 A2990 RMK AO2 SLP123 T02500233 56007 TSNO

2010/08/10 08:53
KGJT 100853Z AUTO 10011KT 10SM CLR 18/04 A3009 RMK AO2 SLP119 T01830044 51004

2010/08/10 08:53
KGKJ 100853Z AUTO 19005KT 9SM OVC048 23/18 A2997 RMK AO2 SLP137 T02330183 56005

2010/08/10 08:53
KGKY 100853Z AUTO 14007KT 10SM CLR 27/21 A2990 RMK AO2 SLP114 T02670206 55009

2010/08/10 08:53
KGLD 100853Z AUTO 33003KT 10SM BKN120 19/18 A3001 RMK AO2 SLP111 60007 T01890183 53001

2010/08/10 08:53
KGNV 100853Z AUTO 00000KT 10SM CLR 24/23 A2993 RMK AO2 SLP130 T02440233 56007

2010/08/10 08:53
KGOK 100853Z AUTO 20004KT 10SM CLR 28/21 A2989 RMK AO2 SLP106 T02780206 56009

2010/08/10 08:53
KGUP 100853Z AUTO 00000KT 10SM FEW100 13/11 A3024 RMK AO2 SLP095 T01280106 53001

2010/08/10 08:54
RKNY 100854Z 16003KT 4500 -RA BR FEW015 BKN030 OVC100 25/22 Q1007 NOSIG 

2010/08/10 08:53
KMSY 100853Z 26004KT 8SM FEW250 25/24 A2992 RMK AO2 SLP133 T02500244 55006

2010/08/10 08:53
PHJR 100853Z AUTO 07005KT 10SM CLR 25/17 A3011 RMK AO2 SLP204 T02500172 51012 TSNO

2010/08/10 08:53
KSFF 100853Z AUTO 00000KT 10SM CLR 19/06 A2980 RMK AO2 SLP075 T01890056 51004

2010/08/10 08:53
KSHN 100853Z AUTO 23008KT 5SM BR BKN007 OVC012 12/11 A2994 RMK AO2 CIG 005V011 SLP140 T01220111 56007

2010/08/10 08:53
KSHR 100853Z AUTO 21005KT 10SM CLR 12/11 A2992 RMK AO2 SLP094 T01220106 58007

2010/08/10 08:53
KSJC 100853Z AUTO 12005KT 10SM BKN012 14/11 A2990 RMK AO2 SLP123 T01440111 58008

2010/08/10 08:53
KSLC 100853Z 14005KT 10SM CLR 18/03 A2999 RMK AO2 SLP104 T01780028 55001

2010/08/10 08:53
KSMF 100853Z 15008KT 10SM CLR 16/12 A2981 RMK AO2 SLP094 T01560117 50000

2010/08/10 08:53
KSNA 100853Z 00000KT 8SM CLR 18/13 A2990 RMK AO2 SLP122 T01780133 58002

2010/08/10 08:53
KSNS 100853Z AUTO 28004KT 8SM OVC003 12/11 A2992 RMK AO2 SLP140 T01220111 58008

2010/08/10 08:55
KSPA 100855Z AUTO 00000KT 7SM SCT100 23/23 A3002 RMK AO2

2010/08/10 08:53
KSPB 100853Z AUTO 22003KT 10SM OVC034 12/11 A2998 RMK AO2 SLP152 T01170106 58004

2010/08/10 08:53
KSPW 100853Z AUTO 14018G24KT 8SM TS BKN007 OVC011 25/24 A2986 RMK AO2 LTG DSNT ALQDS TSB01 SLP099 T02500239 58021

2010/08/10 08:53
KSSF 100853Z AUTO 00000KT 10SM BKN012 27/24 A2992 RMK AO2 SLP117 T02720239 56014

2010/08/10 08:53
KSTP 100853Z AUTO 00000KT 9SM CLR 24/22 A2993 RMK AO2 SLP127 T02390222 56005

2010/08/10 08:53
KSTS 100853Z AUTO 16003KT 4SM BR OVC002 12/11 A2988 RMK AO2 SLP112 T01170106 58004

2010/08/10 08:53
KTCL 100853Z AUTO 00000KT 5SM BR CLR 26/24 A2994 RMK AO2 SLP137 T02610239 56002

2010/08/10 08:53
KTIW 100853Z 23006KT 10SM OVC008 13/11 A2996 RMK AO2 SLP145 T01280111 58004

2010/08/10 08:53
KTOI 100853Z AUTO 00000KT 6SM BR CLR 23/22 A2996 RMK AO2 SLP139 T02330222 55003

2010/08/10 08:53
KTTD 100853Z 00000KT 10SM OVC038 15/12 A2997 RMK AO2 SLP150 T01500117 57002

2010/08/10 08:53
KTVC 100853Z AUTO 00000KT 6SM BR CLR 20/19 A2995 RMK AO2 SLP137 T02000194 50001

2010/08/10 08:53
KTVL 100853Z AUTO 00000KT 10SM FEW090 10/07 A3011 RMK AO2 SLP138 T01000067 58003

2010/08/10 08:53
KTVR 100853Z AUTO 00000KT 5SM BR SCT004 24/23 A2994 RMK AO2 SLP143 T02440228 55004

2010/08/10 08:53
KUAO 100853Z AUTO 35006KT 10SM OVC039 14/11 A2999 RMK AO2 SLP155 T01440111 56001

2010/08/10 08:53
KUTS 100853Z AUTO 00000KT 1 1/2SM HZ CLR 26/23 A2992 RMK AO2 SLP125 T02610233 56005

2010/08/10 08:53
KVCB 100853Z AUTO 23006KT 10SM CLR 16/11 A2981 RMK AO2 SLP094 T01560106 58002

2010/08/10 08:53
KVEL 100853Z AUTO 32003KT 10SM CLR 12/02 A3011 RMK AO2 SLP137 T01170022 50003

2010/08/10 08:53
KVGT 100853Z AUTO 32003KT 10SM CLR 25/M02 A2984 RMK AO2 SLP070 T02501017 58002 TSNO

2010/08/10 08:53
KVPC 100853Z AUTO 00000KT 6SM BR CLR 23/22 A3001 RMK AO2 SLP149 T02330222 56001

2010/08/10 08:53
KVPZ 100853Z AUTO 06003KT 3SM BR CLR 22/21 A2994 RMK AO2 SLP131 T02170211 58009

2010/08/10 08:53
KVUO 100853Z AUTO VRB03KT 10SM OVC031 15/11 A2999 RMK AO2 SLP154 T01500111 58002

2010/08/10 08:53
KRTN 100853Z AUTO 00000KT 10SM CLR 14/13 A3020 RMK AO2 SLP144 T01390128 58001 TSNO

2010/08/10 08:53
KSGR 100853Z AUTO 00000KT 10SM CLR 25/24 A2990 RMK AO2 SLP133 T02500239 56010 TSNO

2010/08/10 08:53
KOVE 100853Z AUTO 17006KT 10SM CLR 19/12 A2983 RMK AO2 SLP102 T01940117 50001 TSNO $

2010/08/10 08:53
KABY 100853Z 07005KT 10SM CLR 25/23 A2997 RMK AO2 SLP146 T02500233 56005

2010/08/10 08:53
KACK 100853Z AUTO 00000KT 6SM -RA BR BKN055 BKN070 23/22 A2992 RMK AO2 RAB0759 SLP130 P0000 60000 T02280217 58002 TSNO

2010/08/10 08:53
KADG 100853Z AUTO 00000KT 1/4SM FG BKN001 OVC009 21/19 A2997 RMK AO2 SLP144 T02060194 58001

2010/08/10 08:53
KAFW 100853Z 23003KT 10SM CLR 28/20 A2988 RMK AO2 SLP098 T02780200 56012 $

2010/08/10 08:53
KAGC 100853Z 17005KT 7SM CLR 21/19 A2999 RMK AO2 SLP147 T02110189 56001

2010/08/10 08:53
KAIA 100853Z AUTO 22004KT 10SM CLR 16/15 A2996 RMK AO2 SLP098 60001 T01610150 58005

2010/08/10 08:50
BGSF 100850Z 04007KT 9999 BKN023 08/04 Q1007

2010/08/10 08:50
BGBW 100850Z AUTO 06002KT 2100NDV BR SCT003/// BKN005/// 08/07 Q1009

2010/08/10 08:50
BGGH 100850Z 21008KT 0200 RA FG VV002 08/08 Q1007

2010/08/10 08:50
BGJN 100850Z AUTO 18002KT 9999NDV BKN018/// OVC024/// 08/04 Q1008

2010/08/10 08:50
BGKK 100850Z 07018KT 9999 -DZ SCT020 SCT035 BKN045 07/04 Q1013

2010/08/10 08:50
BGCO 100850Z 16004KT 9999 SCT180 07/00 Q1013

2010/08/10 08:50
BGSS 100850Z VRB01KT 9999 SCT035 BKN080 BKN120 10/07 Q1006

2010/08/10 08:50
BGAA 100850Z AUTO 02002KT 0150NDV FG VV003/// 06/05 Q1008

2010/08/10 08:50
BGUQ 100850Z VRB01KT 9999 FEW100 09/07 Q1008

2010/08/10 08:50
BGMQ 100850Z AUTO 31006KT 9999NDV OVC080/// 09/09 Q1005

2010/08/10 08:50
BGUK 100850Z AUTO 33003KT 0100NDV -SN FG NCD 04/04 Q1009

2010/08/10 08:50
BGQQ 100850Z AUTO 00000KT 9999NDV NCD 04/01 Q1010

2010/08/10 08:50
BGPT 100850Z AUTO 13002KT //// FEW008/// SCT094/// BKN180/// 09/09 Q1008

2010/08/10 08:53
KMCW 100853Z AUTO 12005KT 5SM BR BKN042 24/23 A2996 RMK AO2 LTG DSNT SW SLP129 T02390233 53001

2010/08/10 08:53
KMGW 100853Z AUTO 00000KT 4SM BR CLR 19/18 A3002 RMK AO2 SLP153 T01940178 53000

2010/08/10 08:53
KMGY 100853Z AUTO 00000KT 7SM CLR 23/21 A2997 RMK AO2 SLP140 T02280206 55000

2010/08/10 08:53
KMHT 100853Z 00000KT 3SM R35/5500VP6000FT BR FEW080 22/21 A2988 RMK AO2 RAE07 SLP127 P0000 60002 T02220206 55003

2010/08/10 08:53
KMIA 100853Z 13004KT 10SM FEW020 BKN029 BKN070 OVC130 26/24 A2986 RMK AO2 RAE04 SLP113 P0000 60001 T02610244 56015 $

2010/08/10 08:53
KMIE 100853Z AUTO 00000KT 5SM BR CLR 23/22 A2997 RMK AO2 SLP134 T02280217 58002

2010/08/10 08:53
KMKO 100853Z AUTO 15004KT 10SM CLR 23/20 A2991 RMK AO2 SLP120 T02330200 58007

2010/08/10 08:53
KMLB 100853Z 11005KT 10SM FEW022 27/23 A2991 RMK AO2 SLP126 T02670233 58008

2010/08/10 08:53
KMLC 100853Z AUTO 00000KT 10SM CLR 24/20 A2992 RMK AO2 SLP119 T02440200 56009

2010/08/10 08:53
KMLT 100853Z AUTO 27003KT 10SM CLR 18/16 A2984 RMK AO2 SLP108 T01780161 58004

2010/08/10 08:53
KMMK 100853Z AUTO 00000KT 7SM SCT060 BKN110 22/20 A2993 RMK AO2 RAB07E22 SLP134 P0000 60000 T02170200 53004

2010/08/10 08:53
KMNN 100853Z AUTO 00000KT 6SM BR 22/21 A2997 RMK AO2 SLP142 T02220206 $

2010/08/10 08:53
KMOD 100853Z AUTO 33006KT 10SM CLR 19/12 A2982 RMK AO2 SLP097 T01940122 58003

2010/08/10 08:53
KMRB 100853Z AUTO 22004KT 8SM CLR 23/18 A2996 RMK AO2 SLP138 T02280183 53002

2010/08/10 08:53
KMSS 100853Z AUTO 22004KT 10SM OVC004 22/21 A2992 RMK AO2 SLP128 T02170206 53001

2010/08/10 08:53
KMTH 100853Z AUTO 21009G15KT 5SM RA BR SCT011 BKN040 OVC070 26/24 A2984 RMK AO2 LTG DSNT SW SLP103 P0010 60058 T02560239 56009

2010/08/10 08:53
KMTJ 100853Z AUTO 13010KT 10SM FEW100 16/07 A3019 RMK AO2 SLP145 T01610067 50004

2010/08/10 08:53
KMTO 100853Z AUTO 00000KT 6SM BR CLR 26/23 A2992 RMK AO2 SLP124 T02560233 58011

2010/08/10 08:53
KMVY 100853Z AUTO 00000KT 4SM HZ FEW065 SCT090 BKN100 24/21 A2992 RMK AO2 RAE10 SLP130 P0000 60002 T02440211 51001

2010/08/10 08:53
KMWL 100853Z AUTO 14005KT 10SM CLR 24/19 A2989 RMK AO2 SLP105 T02440194 56012

2010/08/10 08:53
KODO 100853Z AUTO 11004KT 10SM CLR 21/19 A3000 RMK AO2 SLP109 T02110189 58008 $

2010/08/10 08:53
KOGB 100853Z AUTO 00000KT 10SM CLR 24/24 A3001 RMK AO2 SLP158 T02440239 55005

2010/08/10 08:53
KCAG 100853Z AUTO 00000KT 10SM CLR 07/06 A3019 RMK AO2 SLP181 T00670061 51003

2010/08/10 08:53
KCDS 100853Z AUTO 28005KT 10SM CLR 22/19 A2994 RMK AO2 SLP109 60000 T02220194 58016

2010/08/10 08:53
KCDW 100853Z AUTO 00000KT 8SM -RA FEW050 24/21 A2993 RMK AO2 RAB0754E07B31 SLP137 P0000 60000 T02390206 50002 TSNO $

2010/08/10 08:53
KCEW 100853Z AUTO 00000KT 2 1/2SM BR CLR 23/22 A2993 RMK AO2 SLP130 T02280222 56006

2010/08/10 08:53
KCEZ 100853Z AUTO 00000KT 10SM FEW085 BKN120 13/09 A3019 RMK AO2 SLP148 T01330094 50002

2010/08/10 08:53
KCGI 100853Z AUTO 00000KT 9SM CLR 26/24 A2991 RMK AO2 SLP125 T02560244 58006 TSNO

2010/08/10 08:53
KCKB 100853Z AUTO 00000KT 1 1/4SM BR CLR 18/18 A3002 RMK AO2 SLP149 T01780178 53001 TSNO

2010/08/10 08:53
KCNM 100853Z AUTO 18005KT 10SM CLR 20/16 A2999 RMK AO2 SLP095 T02000156 56008

2010/08/10 08:53
KCPR 100853Z AUTO 23010KT 10SM CLR 17/02 A3004 RMK AO2 SLP102 T01670017 58001

2010/08/10 08:53
KCPS 100853Z AUTO 17004KT 7SM CLR 26/24 A2990 RMK AO2 SLP120 T02560244 58010

2010/08/10 08:53
KCRE 100853Z AUTO 26003KT 10SM FEW021 27/26 A3000 RMK AO2 SLP160 T02720256 58004

2010/08/10 08:53
KCRG 100853Z AUTO 14007KT 10SM FEW060 26/24 A2994 RMK AO2 SLP138 T02610239 56006

2010/08/10 08:53
KCRS 100853Z AUTO 22006KT 10SM CLR 26/23 A2989 RMK AO2 SLP115 T02610228 56012

2010/08/10 08:53
KCSM 100853Z AUTO 20008KT 10SM CLR 26/19 A2994 RMK AO2 SLP108 T02560194 56013

2010/08/10 08:53
KCUB 100853Z AUTO 00000KT 10SM CLR 24/23 A3001 RMK AO2 SLP159 T02440228 56006

2010/08/10 08:53
KCYS 100853Z AUTO 24005KT 10SM CLR 12/11 A3012 RMK AO2 SLP116 T01220106 56010 TSNO

2010/08/10 08:53
KCTY 100853Z AUTO 09003KT 24/24 A2991 RMK AO2 SLP128 T02440239 56006 PWINO TSNO

2010/08/10 08:53
KFAR 100853Z 13003KT 10SM CLR 22/19 A2987 RMK AO2 SLP108 T02220189 58007

2010/08/10 08:53
PHTO 100853Z AUTO 24003KT 10SM FEW031 SCT065 23/19 A3012 RMK AO2 SLP198 T02280189 51013 TSNO

2010/08/10 08:53
PHKO 100853Z AUTO 09005KT 10SM CLR 23/17 A3005 RMK AO2 SLP176 T02330172 50009 TSNO

2010/08/10 08:53
PHLI 100853Z AUTO 05013KT 10SM FEW024 OVC065 25/19 A3014 RMK AO2 SLP203 60000 T02500194 51012 TSNO

2010/08/10 08:53
KSTC 100853Z AUTO 00000KT 7SM CLR 21/19 A2992 RMK AO2 SLP133 T02060194 58008 $

2010/08/10 08:53
KOQT 100853Z AUTO 00000KT 5SM BR FEW050 24/23 A3003 RMK AO2 SLP148 T02440233 55001 TSNO

2010/08/10 08:53
KLND 100853Z AUTO 35009KT 10SM CLR 17/03 A3005 RMK AO2 SLP102 T01670033 51001

2010/08/10 08:53
KNUI 100853Z AUTO 22006KT 10SM CLR 26/22 A2994 RMK AO2 SLP137 T02560222 57007

2010/08/10 08:53
KCUT 100853Z AUTO 24006KT 10SM SCT110 16/13 A3002 RMK AO2 SLP095 T01610133 56019 TSNO

2010/08/10 08:53
KSAV 100853Z 00000KT 10SM FEW019 25/23 A2998 RMK AO2 SLP153 T02500233 56005 $

2010/08/10 08:53
KLXV 100853Z AUTO 00000KT 10SM CLR 04/04 A3044 RMK AO2 SLP164 T00440039 51002 TSNO

2010/08/10 08:53
KRQE 100853Z AUTO 00000KT 10SM SCT075 12/09 A3026 RMK AO2 SLP132 T01220094 58000 TSNO

2010/08/10 08:53
KRNM 100853Z AUTO 00000KT 9SM CLR 12/09 A2991 RMK AO2 SLP115 T01170094 58003 TSNO

2010/08/10 08:53
KTLH 100853Z 07006KT 10SM FEW008 26/23 A2992 RMK AO2 SLP130 T02610233 55005

2010/08/10 08:53
KMCN 100853Z AUTO 00000KT 6SM BR CLR 23/22 A2999 RMK AO2 SLP149 T02330222 55003 TSNO

2010/08/10 08:53
KDAB 100853Z 12005KT 10SM FEW020 27/24 A2993 RMK AO2 SLP133 T02670239 56009

2010/08/10 08:53
KMGM 100853Z 00000KT 8SM BKN075 26/23 A2994 RMK AO2 SLP136 T02560228 56003

2010/08/10 08:53
KTRI 100853Z 00000KT 6SM BR FEW060 BKN090 BKN100 23/21 A3005 RMK AO2 SLP155 T02280206 55003

2010/08/10 08:53
KCQC 100853Z AUTO 04007KT 10SM CLR 16/12 A3024 RMK AO2 SLP137 T01560122 58003 TSNO

2010/08/10 08:53
KHTL 100853Z AUTO 33003KT 3SM BR OVC003 21/21 A2999 RMK AO2 SLP149 T02110211 50004

2010/08/10 08:53
KBTR 100853Z 00000KT 3/4SM BR FEW001 BKN004 24/24 A2992 RMK AO2 SLP131 T02440244 56008 RVRNO

2010/08/10 08:53
KLAX 100853Z 25004KT 10SM OVC007 16/13 A2991 RMK AO2 SLP126 T01560128 50002 $

2010/08/10 08:53
KTUP 100853Z AUTO 19003KT 9SM CLR 25/23 A2995 RMK AO2 SLP136 T02500233 56006

2010/08/10 08:53
KMSN 100853Z 00000KT 2 1/2SM BR CLR 22/21 A2996 RMK AO2 SLP137 T02170211 55003

2010/08/10 08:53
KSDM 100853Z AUTO 00000KT 9SM OVC008 17/14 A2991 RMK AO2 SLP123 T01670139 58003 TSNO

2010/08/10 08:53
KTCS 100853Z AUTO 30004KT 10SM CLR 22/11 A3007 RMK AO2 SLP090 T02170111 55003 TSNO

2010/08/10 08:53
KTYS 100853Z 00000KT 7SM CLR 25/23 A3001 RMK AO2 SLP147 T02500228 55001

2010/08/10 08:53
K40J 100853Z AUTO 06003KT 24/23 A2991 RMK AO2 SLP128 T02440233 55005 PWINO TSNO

2010/08/10 08:53
KBNO 100853Z AUTO 25007KT 10SM SCT110 14/04 A2994 RMK AO2 SLP100 T01440039 50000 TSNO

2010/08/10 08:54
KBTV 100854Z 00000KT 1/4SM FG VV001 17/17 A2991 RMK AO2 SLP128 T01720172 50000 RVRNO

2010/08/10 08:51
KVCT 100851Z AUTO 00000KT 10SM CLR 25/24 A2991 RMK AO2 SLP126 T02500244 56011

2010/08/10 08:53
KELY 100853Z AUTO 20009KT 10SM CLR 14/M04 A3013 RMK AO2 SLP102 T01441044 50000

2010/08/10 08:53
KAAF 100853Z AUTO 05006KT 10SM FEW023 26/24 A2987 RMK AO2 SLP116 T02610244 56013

2010/08/10 08:53
KBFF 100853Z AUTO 11005KT 10SM CLR 17/16 A2998 RMK AO2 SLP106 T01670161 58015

2010/08/10 08:53
KEMP 100853Z AUTO 18008KT 10SM CLR 25/21 A2989 RMK AO2 SLP106 T02500206 58009

2010/08/10 08:53
KFMN 100853Z AUTO 02005KT 10SM FEW100 17/07 A3016 RMK AO2 SLP146 T01670072 53002

2010/08/10 08:53
KFNB 100853Z AUTO 20006KT 10SM CLR 26/22 A2986 RMK AO2 SLP097 T02610222 55003

2010/08/10 08:53
KFNT 100853Z 00000KT 1/4SM FG 18/18 A2995 RMK AO2 SLP139 T01830178 50000 RVRNO $

2010/08/10 08:53
KPOF 100853Z AUTO 00000KT 7SM CLR 25/24 A2991 RMK AO2 SLP121 T02500239 58006

2010/08/10 08:53
KRMG 100853Z AUTO 00000KT 7SM FEW100 24/23 A2999 RMK AO2 SLP145 T02440228 56000

2010/08/10 08:53
KMLU 100853Z AUTO A2993 RMK AO2 SLPNO 6//// 57003 PWINO FZRANO $

2010/08/10 08:53
KCDR 100853Z AUTO 23009KT 10SM SCT110 21/16 A2990 RMK AO2 SLP097 T02060156 58007

2010/08/10 08:53
KDAL 100853Z 17005KT 10SM CLR 29/20 A2989 RMK AO2 SLP114 T02940200 55008

2010/08/10 08:53
KDMN 100853Z AUTO 20006KT 10SM CLR 18/10 A3005 RMK AO2 SLP093 T01830100 57002

2010/08/10 08:50
KSOW 100850Z AUTO 00000KT 10SM CLR 15/09 A3026 RMK AO2

2010/08/10 08:53
KTUS 100853Z 14005KT 10SM CLR 27/16 A2996 RMK AO2 SLP091 T02720156 50003

2010/08/10 08:53
KJLN 100853Z AUTO 19006KT 10SM FEW060 25/21 A2994 RMK AO2 SLP122 T02500206 55005 $

2010/08/10 08:53
KLAN 100853Z 00000KT 3SM BR MIFG CLR 19/19 A2997 RMK AO2 SLP143 T01940189 50001

2010/08/10 08:53
KLBB 100853Z 21005KT 10SM FEW160 19/17 A3002 RMK AO2 SLP111 T01940172 58004

2010/08/10 08:53
KLWD 100853Z AUTO 04012KT 7SM FEW013 26/25 A2995 RMK AO2 SLP129 T02610250 53016

2010/08/10 08:53
KGCC 100853Z AUTO 00000KT 10SM CLR 13/11 A2993 RMK AO2 SLP084 T01330106 58012

2010/08/10 08:53
KHLC 100853Z AUTO 35012KT 10SM CLR 22/19 A2989 RMK AO2 SLP093 T02220194 55004 $

2010/08/10 08:54
KJAN 100854Z 00000KT 10SM CLR 24/23 A2995 RMK AO2 SLP138 T02390228 56002

2010/08/10 08:53
KGNT 100853Z AUTO 31006KT 14/11 A3025 RMK AO2 SLP153 T01390111 55001 PWINO TSNO

2010/08/10 08:53
PANT 100853Z AUTO 13005KT 1/4SM FG OVC001 12/11 A3002 RMK AO2 SLP166 T01220111 401610122 58002 TSNO

2010/08/10 08:53
PAOM 100853Z 07007KT 10SM -RA FEW023 OVC044 11/10 A2941 RMK AO2 SLP959 P0001 60008 T01110100 401390106 53007

2010/08/10 08:53
PAOR 100853Z 00000KT 10SM SCT060 BKN100 11/11 A2972 RMK AO2 SLP062 T01110106 401940100 52009

2010/08/10 08:53
PAOT 100853Z 16009KT 10SM SCT015 BKN026 BKN034 13/12 A2945 RMK AO2 RAE50 SLP974 P0002 60011 T01330122 401610133 53008

2010/08/10 08:53
PAQT 100853Z AUTO 05011KT 2 1/2SM BR OVC004 03/03 A2979 RMK AO2 SLP089 T00280028 400670022 51007 TSNO

2010/08/10 08:53
PASN 100853Z 27009KT 1/2SM FG VV001 08/08 A2942 RMK AO2 SLP963 T00780078 401060078 51014

2010/08/10 08:53
PATK 100853Z AUTO 18005KT 6SM RA BR BKN012 BKN031 OVC038 12/11 A2977 RMK AO2 SLP083 P0008 60012 T01220111 401440106 51011 TSNO

2010/08/10 08:53
PAYA 100853Z 08004KT 2 1/2SM -RA BR OVC006 13/12 A2997 RMK AO2 SLP148 BAY TWR WND 100MMKT P0002 60006 T01280117 401500122 53005

2010/08/10 08:54
PHOG 100854Z 04010KT 10SM OVC050 26/18 A3011 RMK AO2 SLP200 T02560183

2010/08/10 08:53
PABE 100853Z 17017G23KT 6SM -RA BR BKN006 BKN010 OVC024 09/09 A2948 RMK AO2 SLP982 P0003 60005 T00940089 401060089 53004

2010/08/10 08:53
PABT 100853Z 00000KT 10SM FEW055 OVC085 12/11 A2964 RMK AO2 SLP042 T01170106 401610117 53008

2010/08/10 08:53
PACD 100853Z AUTO 14007KT 10SM OVC060 09/08 A2964 RMK AO2 SLP036 T00890078 401500078 53010 TSNO

2010/08/10 08:53
PADQ 100853Z 19007KT 10SM FEW025 BKN200 12/08 A2978 RMK SLP084 T01220083 401830089 51008

2010/08/10 08:53
PAFA 100853Z 30003KT 10SM BKN110 13/11 A2962 RMK AO2 SLP033 T01330106 402000128 51007

2010/08/10 08:53
PAHO 100853Z AUTO 00000KT 10SM OVC046 12/09 A2976 RMK AO2 SLP079 T01220089 401610111 53004 TSNO

2010/08/10 08:53
PAJN 100853Z 06005KT 4SM -DZ BR FEW005 BKN012 OVC030 12/12 A3001 RMK AO2 SLP160 P0001 60003 T01220117 401610111 51004

2010/08/10 08:53
PAMC 100853Z 00000KT 10SM OVC025 12/10 A2961 RMK AO2 SLP029 60000 T01220100 401440111 51008

2010/08/10 08:53
PANC 100853Z 00000KT 10SM SCT006 BKN030 OVC045 12/11 A2977 RMK AO2 SLP082 60001 T01170111 401780111 51006

2010/08/10 08:53
PANN 100853Z AUTO 08004KT 10SM CLR 12/09 A2960 RMK AO2 SLP027 T01170094 402110117 51006 TSNO

2010/08/10 08:51
KSAN 100851Z 00000KT 10SM OVC015 18/14 A2992 RMK AO2 SLP130 T01780139 58002

2010/08/10 08:51
KSAD 100851Z AUTO 16003KT 10SM CLR 24/14 A2996 RMK AO2 SLP087 T02390139 51001 TSNO

2010/08/10 08:54
KCAR 100854Z AUTO 00000KT 1SM BR VV002 14/14 A2981 RMK AO2 SLP097 T01390139 53001

2010/08/10 08:53
KELZ 100853Z AUTO 00000KT 4SM BR OVC050 19/18 A3003 RMK AO2

2010/08/10 08:52
KP69 100852Z AUTO 34003KT 16/15 A2988 RMK AO2 SLP095 T01560150 55001 PWINO TSNO

2010/08/10 08:54
KBUF 100854Z 13003KT 3SM BR FEW038 BKN055 OVC075 21/20 A2994 RMK AO2 SLP137 T02110200 50001

2010/08/10 08:54
KCOS 100854Z AUTO 06005KT 10SM CLR 17/12 A3017 RMK AO2 SLP133 T01670122 53004 TSNO

2010/08/10 08:54
KCOU 100854Z AUTO 19003KT 9SM CLR 26/24 A2992 RMK AO2 SLP121 T02560244 55006 TSNO $

2010/08/10 08:54
KROC 100854Z 23003KT 2 1/2SM BR FEW060 OVC080 21/20 A2994 RMK AO2 SLP135 60000 T02060200 56003

2010/08/10 08:54
KMQE 100854Z AUTO 23006KT 21/21 A2991 RMK AO1 SLP132 P0001 60009 T02060206 56007

2010/08/10 08:54
K1V4 100854Z AUTO 18/17 A2991 RMK AO2 SLP119 T01780172 50000 PWINO TSNO

2010/08/10 08:54
KAVP 100854Z 00000KT 10SM FEW075 23/19 A2997 RMK AO2 SLP134 T02280189 53001 $

2010/08/10 08:54
KRIC 100854Z 25006KT 10SM SCT060 26/21 A2996 RMK AO2 SLP148 T02560206 58005 $

2010/08/10 08:54
KACY 100854Z 23004KT 10SM CLR 24/22 A2995 RMK AO2 SLP140 T02440217 56006 $

2010/08/10 08:54
KNAK 100854Z AUTO 00000KT 8SM CLR 25/19 A2992 RMK AO2 SLP132 T02500194 58006 TSNO

2010/08/10 08:54
KDMH 100854Z AUTO 26/21 A2992 RMK AO2 SLP132 T02610206 56007 PWINO TSNO

2010/08/10 08:54
KGSO 100854Z 21004KT 7SM CLR 24/21 A3003 RMK AO2 SLP155 T02390206 56006

2010/08/10 08:54
KFWA 100854Z 00000KT 1/4SM FG SCT036 23/22 A2996 RMK AO2 SLP138 R32/0500FT T02280222 58002

2010/08/10 08:54
K12N 100854Z AUTO 00000KT 22/21 A2995 RMK AO2 SLP132 T02220206 50001 PWINO TSNO

2010/08/10 08:50
EFJO 100850Z 18008KT 140V220 9999 FEW030 BKN063 22/15 Q1011

2010/08/10 08:50
EFLP 100850Z 21009KT 150V260 9999 FEW016 SCT055 21/17 Q1012

2010/08/10 08:50
EFMI 100850Z AUTO 17009KT 130V220 9999 FEW016 SCT019 BKN070 22/17 Q1011

2010/08/10 08:50
EFSA 100850Z AUTO 20006KT 140V280 9999NDV FEW028 BKN041 BKN065 22/16 Q1011

2010/08/10 08:50
EFUT 100850Z 23004KT 210V280 9999 -SHRA FEW022 SCT028CB BKN053 20/18 Q1012

2010/08/10 08:50
EFVR 100850Z AUTO 18007KT 130V230 9999 SCT025 BKN050 22/16 Q1011

2010/08/10 08:50
KLSF 100850Z AUTO 00000KT 2SM R33/2000V5000FT BR CLR 22/22 A2996 RMK AO2 SLP144 PNO $

2010/08/10 08:52
KLSF 100852Z AUTO 00000KT 3SM R33/2600V5500FT BR CLR 22/22 A2996 RMK AO2 SLP144 PNO $

2010/08/10 08:51
KMTC 100851Z 00000KT 1SM R19/1000FT BCFG CLR 20/20 A2994 RMK VIS S 1/4

2010/08/10 08:53
KNJM 100853Z AUTO 00000KT 10SM SCT017 SCT021 27/25 A3001 RMK AO2

2010/08/10 08:53
KIDA 100853Z AUTO 00000KT 10SM CLR 11/08 A3003 RMK AO2 SLP136 T01060083 50001

2010/08/10 08:53
KIPL 100853Z AUTO 00000KT 10SM CLR 27/03 A2973 RMK AO2 SLP067 T02670028 51002

2010/08/10 08:51
KJCT 100851Z AUTO 19006KT 10SM CLR 27/22 A2997 RMK AO2 SLP106 T02670217 58006 TSNO

2010/08/10 08:53
KJER 100853Z AUTO 04014KT 10SM CLR 15/12 A2992 RMK AO2 SLP095 6//// T01500117 58013 $

2010/08/10 08:55
KJZI 100855Z AUTO 15003KT 10SM CLR 27/27 A3000 RMK A02 P000

2010/08/10 08:53
KLBX 100853Z AUTO 00000KT 9SM CLR 25/24 A2991 RMK AO2 SLP128 T02500244 56007

2010/08/10 08:53
KLCH 100853Z AUTO 06004KT 10SM CLR 26/25 A2991 RMK AO2 SLP137 T02610250 55003

2010/08/10 08:53
KLFK 100853Z AUTO 00000KT 10SM CLR 26/24 A2991 RMK AO2 SLP124 T02610239 56007

2010/08/10 08:53
KLFT 100853Z AUTO 00000KT 10SM FEW050 25/24 A2993 RMK AO2 SLP133 T02500239 55005

2010/08/10 08:53
KLGB 100853Z AUTO 35003KT 8SM BKN010 16/13 A2990 RMK AO2 SLP125 T01610133 58000 TSNO

2010/08/10 08:55
KLKR 100855Z AUTO 00000KT 2SM BR CLR 20/20 A3002 RMK AO2

2010/08/10 08:53
KLLQ 100853Z AUTO 00000KT 10SM CLR 26/24 A2993 RMK AO2 SLP131 T02610239 58003

2010/08/10 08:53
KLOL 100853Z AUTO 34006KT 10SM CLR 21/M01 A2993 RMK AO2 SLP089 T02111011 51013

2010/08/10 08:53
KLSE 100853Z AUTO 10004KT 1SM BR OVC002 23/23 A2995 RMK AO2 SLP129 T02280228 55001

2010/08/10 08:53
KLVJ 100853Z AUTO 00000KT 10SM CLR 26/23 A2992 RMK AO2 SLP132 T02610233 56007

2010/08/10 08:53
KLVK 100853Z AUTO 30005KT 10SM CLR 12/11 A2988 RMK AO2 SLP116 T01220111 58005 $

2010/08/10 08:53
KLVM 100853Z AUTO 25012G18KT 10SM CLR 16/08 A2998 RMK AO2 SLP104 T01610078 56002

2010/08/10 08:53
KMAE 100853Z AUTO 28005KT 10SM CLR 18/15 A2981 RMK AO2 SLP092 T01780150 58003

2010/08/10 08:53
KMCB 100853Z AUTO 00000KT 5SM BR CLR 24/22 A2995 RMK AO2 SLP137 T02390222 58003

2010/08/10 08:53
KMCE 100853Z AUTO 31006KT 10SM CLR 18/14 A2980 RMK AO2 SLP091 T01780139 58004

2010/08/10 08:53
KMEM 100853Z 14007KT 10SM CLR 28/24 A2993 RMK AO2 SLP131 T02830244 57003

2010/08/10 08:55
KMEZ 100855Z AUTO 00000KT 7SM CLR 24/23 A2996 RMK AO2

2010/08/10 08:53
KMFE 100853Z AUTO 16003KT 10SM FEW014 27/26 A2988 RMK AO2 SLP114 T02720261 58014 $

2010/08/10 08:53
KMFR 100853Z AUTO 02006KT 10SM CLR 17/08 A2992 RMK AO2 SLP120 T01720083 58002

2010/08/10 08:53
KMHE 100853Z AUTO 18005KT 8SM OVC010 25/23 A2985 RMK AO2 CIG 007V011 SLP098 T02500233 55009 TSNO

2010/08/10 08:53
KMIC 100853Z AUTO 00000KT 7SM CLR 22/21 A2991 RMK AO2 SLP122 T02170206 57006

2010/08/10 08:53
KDCU 100853Z AUTO 00000KT 4SM BR CLR 24/23 A2997 RMK AO2 SLP142 T02440228 56007

2010/08/10 08:53
KDEW 100853Z AUTO 00000KT 10SM CLR 12/06 A2980 RMK AO2 SLP080 T01170061 51003

2010/08/10 08:53
KDHT 100853Z AUTO 23004KT 10SM CLR 21/18 A3005 RMK AO2 SLP109 T02060178 56006

2010/08/10 08:53
KDLN 100853Z AUTO 20011KT 10SM SCT085 OVC110 12/07 A3004 RMK AO2 SLP126 T01220072 53001

2010/08/10 08:53
KDLS 100853Z AUTO 29008KT 10SM CLR 18/09 A2988 RMK AO2 SLP115 T01830089 58002

2010/08/10 08:53
KDNL 100853Z AUTO 13003KT FEW100 24/22 A3001 RMK AO2 SLP155 T02440222 55005 $

2010/08/10 08:53
KDVT 100853Z 00000KT 10SM CLR 28/12 A2983 RMK AO2 SLP072 T02830122 50003

2010/08/10 08:53
KDWH 100853Z AUTO 00000KT 9SM CLR 24/24 A2991 RMK AO2 SLP126 T02440239 56010

2010/08/10 08:55
KDYB 100855Z AUTO 00000KT 10SM CLR 24/24 A2999 RMK AO1

2010/08/10 08:53
KEET 100853Z AUTO 00000KT 5SM BR CLR 26/24 A2997 RMK AO2 SLP138 T02560239 55005

2010/08/10 08:53
KELN 100853Z AUTO 32013KT 10SM CLR 15/08 A2985 RMK AO2 SLP100 T01500083 58002

2010/08/10 08:53
KENW 100853Z AUTO 00000KT 4SM BR FEW008 21/20 A2995 RMK AO2 SLP136 T02060200 55007

2010/08/10 08:53
KEPH 100853Z AUTO 33010G18KT 10SM CLR 18/09 A2980 RMK AO2 SLP083 T01830089 51008

2010/08/10 08:53
KEQY 100853Z AUTO 00000KT 6SM BR CLR 23/22 A3001 RMK AO2 SLP159 T02280217 58006

2010/08/10 08:53
KESF 100853Z AUTO 00000KT 9SM CLR 24/23 A2993 RMK AO2 SLP133 T02440233 58002

2010/08/10 08:53
KFCM 100853Z AUTO 06003KT 8SM CLR 23/21 A2992 RMK AO2 SLP122 T02330211 56007

2010/08/10 08:54
KMVE 100854Z AUTO 16004KT 7SM SCT036 SCT042 23/22 A2987 RMK AO2 LTG DSNT SW

2010/08/10 08:53
KTKC 100853Z AUTO 00000KT 7SM SCT042 23/21 A2990 RMK AO2 LTG DSNT SE THRU SW T02250214

2010/08/10 08:54
KGYL 100854Z AUTO 09003KT 7SM CLR 21/20 A2992 RMK AO2 T02130203

2010/08/10 08:54
KDXX 100854Z AUTO 00000KT 10SM SCT036 BKN041 23/23 A2987 RMK AO2

2010/08/10 08:51
KHZX 100851Z AUTO 00000KT 10SM CLR 17/17 A2996 RMK AO2

2010/08/10 08:52
KCDD 100852Z AUTO 00000KT 5SM BR CLR 19/19 A2996 RMK AO2

2010/08/10 08:54
KSAZ 100854Z AUTO 00000KT 10SM CLR 21/20 A2993 RMK AO2

2010/08/10 08:51
KONA 100851Z AUTO 13003KT 1/2SM FG OVC001 23/22 A2994 RMK AO2

2010/08/10 08:53
KFOZ 100853Z AUTO 00000KT 10SM CLR 18/17 A2997 RMK AO2

2010/08/10 08:54
KAQP 100854Z AUTO 12004KT 7SM CLR 22/22 A2988 RMK AO2

2010/08/10 08:54
KETH 100854Z AUTO 12006KT 7SM CLR 20/19 A2991 RMK AO2

2010/08/10 08:54
KOVL 100854Z AUTO 12009KT 10SM CLR 22/20 A2989 RMK AO2 T02230201

2010/08/10 08:53
KLJF 100853Z AUTO 10003KT 7SM CLR 21/21 A2992 RMK AO2

2010/08/10 08:56
KXVG 100856Z AUTO 00000KT 4SM BR SCT001 16/16 A2993 RMK AO2

2010/08/10 08:54
KORB 100854Z AUTO 00000KT 7SM CLR 19/18 A2994 RMK AO2

2010/08/10 08:51
KMZH 100851Z AUTO 00000KT 1/4SM FG OVC001 18/17 A2994 RMK AO2

2010/08/10 08:53
KBFW 100853Z AUTO 00000KT 7SM CLR 16/15 A2995 RMK AO2

2010/08/10 08:49
KVWU 100849Z AUTO 00000KT 10SM CLR 19/18 A2994 RMK AO2

2010/08/10 08:50
KAEL 100850Z AUTO 15003KT 10SM SCT031 23/22 A2994 RMK AO2 LTG DSNT SE AND S

2010/08/10 08:54
KOWA 100854Z AUTO 11005KT 7SM CLR 21/21 A2993 RMK AO2 LTG DSNT S AND SW

2010/08/10 08:53
K29G 100853Z AUTO 25003KT 10SM SCT035 22/19 A2997 RMK AO2 T02220188 PWINO

2010/08/10 08:53
KMRT 100853Z AUTO 28004KT 7SM CLR 23/20 A3001 RMK AO2 T02250201

2010/08/10 08:54
KIKW 100854Z AUTO 00000KT 1 1/2SM BR VV007 20/19 A2994 RMK AO2 T02000190

2010/08/10 08:54
KCOU 100854Z AUTO 19003KT 9SM CLR 26/24 A2992 RMK AO2 SLP121 T02560244 55006 TSNO $

2010/08/10 08:54
KROC 100854Z 23003KT 2 1/2SM BR FEW060 OVC080 21/20 A2994 RMK AO2 SLP135 60000 T02060200 56003

2010/08/10 08:54
KMQE 100854Z AUTO 23006KT 21/21 A2991 RMK AO1 SLP132 P0001 60009 T02060206 56007

2010/08/10 08:54
K1V4 100854Z AUTO 18/17 A2991 RMK AO2 SLP119 T01780172 50000 PWINO TSNO

2010/08/10 08:54
KAVP 100854Z 00000KT 10SM FEW075 23/19 A2997 RMK AO2 SLP134 T02280189 53001 $

2010/08/10 08:54
KRIC 100854Z 25006KT 10SM SCT060 26/21 A2996 RMK AO2 SLP148 T02560206 58005 $

2010/08/10 08:54
KACY 100854Z 23004KT 10SM CLR 24/22 A2995 RMK AO2 SLP140 T02440217 56006 $

2010/08/10 08:54
KNAK 100854Z AUTO 00000KT 8SM CLR 25/19 A2992 RMK AO2 SLP132 T02500194 58006 TSNO

2010/08/10 08:54
KDMH 100854Z AUTO 26/21 A2992 RMK AO2 SLP132 T02610206 56007 PWINO TSNO

2010/08/10 08:54
KGSO 100854Z 21004KT 7SM CLR 24/21 A3003 RMK AO2 SLP155 T02390206 56006

2010/08/10 08:54
KFWA 100854Z 00000KT 1/4SM FG SCT036 23/22 A2996 RMK AO2 SLP138 R32/0500FT T02280222 58002

2010/08/10 08:54
K12N 100854Z AUTO 00000KT 22/21 A2995 RMK AO2 SLP132 T02220206 50001 PWINO TSNO

2010/08/10 08:53
KGPT 100853Z AUTO 00000KT 6SM BR CLR 27/24 A2991 RMK AO2 SLP128 T02670244 55004

2010/08/10 08:53
KGRB 100853Z AUTO 00000KT 2 1/2SM BR FEW001 21/20 A2994 RMK AO2 SLP135 T02060200 56005 TSNO

2010/08/10 08:53
KGRI 100853Z AUTO 33014G22KT 10SM CLR 23/18 A2989 RMK AO2 PK WND 31027/0836 WSHFT 0833 SLP101 T02280183 55000

2010/08/10 08:53
KGSH 100853Z AUTO 00000KT 3SM BR SCT044 BKN050 22/21 A2996 RMK AO2 SLP138 T02220211 58004

2010/08/10 08:53
KGSP 100853Z AUTO 00000KT 8SM CLR 24/22 A3002 RMK AO2 SLP152 T02390222 55008

2010/08/10 08:53
KGTF 100853Z 21013KT 10SM CLR 16/08 A2985 RMK AO2 SLP073 T01610083 58005

2010/08/10 08:53
KGVL 100853Z AUTO 03004KT 8SM BKN090 25/22 A3006 RMK AO2 SLP161 T02500217 56004

2010/08/10 08:53
KGWO 100853Z AUTO 16003KT 5SM BR CLR 24/24 A2994 RMK AO2 SLP137 T02390239 55003

2010/08/10 08:53
KHBG 100853Z AUTO 00000KT 6SM BR CLR 24/24 A2993 RMK AO2 SLP130 T02440239 58006

2010/08/10 08:53
KHEI 100853Z AUTO 12008KT 10SM CLR 20/14 A2981 RMK AO2 SLP069 T02000139 58016

2010/08/10 08:53
KHGR 100853Z AUTO 20004KT 7SM CLR 24/19 A2995 RMK AO2 SLP145 T02440189 53003

2010/08/10 08:53
KHHR 100853Z AUTO 24004KT 10SM OVC009 16/14 A2991 RMK AO2 SLP126 T01610139 50002 $

2010/08/10 08:53
KHIB 100853Z AUTO 00000KT 1/2SM FG VV001 16/16 A2997 RMK AO2 SLP144 T01560156 58001

2010/08/10 08:53
KHIO 100853Z AUTO 00000KT 10SM FEW035 12/09 A2999 RMK AO2 SLP153 T01170094 58002 TSNO

2010/08/10 08:53
KHKA 100853Z AUTO 00000KT 5SM BR CLR 26/24 A2992 RMK AO2 SLP130 T02610244 58005

2010/08/10 08:53
KHKS 100853Z AUTO 00000KT 10SM CLR 24/23 A2996 RMK AO2 SLP137 T02440233 55002

2010/08/10 08:53
KHKY 100853Z AUTO 00000KT 7SM CLR 24/22 A3004 RMK AO2 SLP147 T02390222 56007

2010/08/10 08:53
KHLN 100853Z AUTO 00000KT 10SM CLR 13/10 A2993 RMK AO2 SLP118 T01280100 53002

2010/08/10 08:53
KHOT 100853Z AUTO 00000KT 10SM CLR 28/23 A2992 RMK AO2 SLP123 T02780233 58006

2010/08/10 08:53
KHOU 100853Z 00000KT 10SM FEW250 27/24 A2990 RMK AO2 SLP130 T02670239 55008

2010/08/10 08:53
KHQM 100853Z AUTO 27003KT 9SM OVC011 13/11 A2998 RMK AO2 SLP155 T01280111 58009

2010/08/10 08:53
KHRI 100853Z AUTO 24014KT 10SM CLR 18/09 A2985 RMK AO2 SLP100 T01780094 50006

2010/08/10 08:53
KHRO 100853Z AUTO 00000KT 8SM CLR 25/23 A2997 RMK AO2 SLP127 T02500233 56007

2010/08/10 08:53
KHYR 100853Z AUTO 00000KT 9SM CLR 17/16 A2998 RMK AO2 SLP146 60002 T01720161 58004

2010/08/10 08:53
KMIW 100853Z AUTO 14008KT 6SM TSRA BR OVC037 23/22 A2995 RMK AO2 LTG DSNT ALQDS SLP132 P0013 60017 T02330222 $

2010/08/10 08:53
KMKL 100853Z AUTO 00000KT 4SM BR CLR 26/24 A2995 RMK AO2 SLP135 T02560244 58002

2010/08/10 08:53
KMLP 100853Z AUTO 19004KT 10SM CLR 11/06 A2998 RMK AO2 SLP062 T01110056 56005 TSNO

2010/08/10 08:53
KMLS 100853Z AUTO 27006KT 10SM CLR 18/15 A2984 RMK AO2 PRESRR SLP079 T01830150 51014

2010/08/10 08:53
KMMV 100853Z AUTO 24006KT 10SM CLR 11/10 A3000 RMK AO2 SLP157 T01110100 58002

2010/08/10 08:53
KMSL 100853Z AUTO 00000KT 3/4SM BR VV001 24/23 A2998 RMK AO2 SLP143 T02440233 56005

2010/08/10 08:53
KMSO 100853Z AUTO 10006KT 10SM CLR 16/11 A2991 RMK AO2 SLP110 T01610111 55001

2010/08/10 08:53
KMSP 100853Z 10006KT 8SM CLR 24/22 A2993 RMK AO2 SLP126 T02440222 58006

2010/08/10 08:53
KMSY 100853Z 26004KT 8SM FEW250 25/24 A2992 RMK AO2 SLP133 T02500244 55006

2010/08/10 08:53
KMYF 100853Z AUTO 00000KT 10SM OVC011 17/14 A2991 RMK AO2 SLP123 T01670144 58002 TSNO

2010/08/10 08:53
KMYV 100853Z AUTO 16004KT 10SM CLR 17/12 A2982 RMK AO2 SLP101 T01720122 51004

2010/08/10 08:53
KNEW 100853Z AUTO 05004KT 9SM BKN012 BKN022 28/26 A2992 RMK AO2 SLP124 T02830256 56006 TSNO

2010/08/10 08:53
KOAK 100853Z 03003KT 10SM OVC006 14/11 A2991 RMK AO2 SLP126 T01440111 58007

2010/08/10 08:53
KOGD 100853Z AUTO 17010KT 10SM CLR 18/04 A2999 RMK AO2 SLP098 T01780044 58003

2010/08/10 08:53
KOMK 100853Z AUTO 34008KT 10SM BKN120 16/11 A2983 RMK AO2 SLP095 T01610106 58004

2010/08/10 08:53
KONO 100853Z AUTO 35004KT 10SM CLR 18/12 A2984 RMK AO2 SLP089 T01830117 50003

2010/08/10 08:50
LIBD 100850Z 36010KT 330V030 CAVOK 28/15 Q1014

2010/08/10 08:45
LIBR 100845Z 33021KT CAVOK 27/21 Q1013 NOSIG

2010/08/10 08:50
LICC 100850Z 07005KT CAVOK 30/17 Q1014

2010/08/10 08:50
LICJ 100850Z 03010KT CAVOK 26/17 Q1016

2010/08/10 08:50
LIPB 100850Z 14002KT 9999 SCT060TCU 26/15 Q1017

2010/08/10 08:50
LIPE 100850Z VRB03KT CAVOK 26/19 Q1016

2010/08/10 08:45
LIPH 100845Z 08005KT CAVOK 27/19 Q1016

2010/08/10 08:50
LIPK 100850Z VRB02KT CAVOK 25/18 Q1015

2010/08/10 08:50
LIPQ 100850Z 36004KT CAVOK 27/19 Q1015

2010/08/10 08:45
LIPR 100845Z 31001KT CAVOK 27/22 Q1015

2010/08/10 08:45
LIPX 100845Z 19003KT 9999 SCT050 28/19 Q1016

2010/08/10 08:50
LIPZ 100850Z VRB03KT CAVOK 26/20 Q1016

2010/08/10 08:53
KFOE 100853Z AUTO 17005KT 10SM CLR 26/21 A2988 RMK AO2 SLP103 T02610206 56008

2010/08/10 08:53
KFOK 100853Z AUTO 00000KT 9SM FEW100 23/19 A2993 RMK AO2 SLP135 T02330194 50001 TSNO

2010/08/10 08:53
KFPR 100853Z AUTO 13006KT 10SM SCT019 BKN027 27/24 A2990 RMK AO2 RAB03E17 SLP123 P0000 60000 T02670239 56007

2010/08/10 08:53
KFRG 100853Z AUTO 25004KT 10SM FEW055 25/20 A2992 RMK AO2 SLP131 T02500200 58001

2010/08/10 08:53
KFTW 100853Z 24004KT 10SM CLR 28/20 A2988 RMK AO2 SLP106 T02780200 56015

2010/08/10 08:53
KFVE 100853Z AUTO 32005KT 5SM BR CLR 15/14 A2983 RMK AO2 SLP095 T01500139 51003

2010/08/10 08:53
KOJC 100853Z AUTO 19004KT 10SM CLR 26/22 A2989 RMK AO2 SLP107 T02610222 55006

2010/08/10 08:53
KOLF 100853Z AUTO 12008KT 10SM FEW100 19/17 A2975 RMK AO2 TSE15RAE24 SLP060 P0003 60007 T01890167 58030

2010/08/10 08:53
KOPF 100853Z AUTO 16006KT 7SM -RA FEW014 SCT039 OVC055 25/24 A2987 RMK AO2 RAB43 SLP114 P0004 60004 T02500244 58005

2010/08/10 08:53
KORL 100853Z AUTO 10007KT 10SM CLR 25/23 A2991 RMK AO2 SLP131 T02500233 56010

2010/08/10 08:53
KOSU 100853Z AUTO 25003KT 6SM HZ CLR 24/21 A2997 RMK AO2 SLP139 T02390206 55000 $

2010/08/10 08:53
KOWD 100853Z AUTO 00000KT 2 1/2SM BR FEW046 SCT075 OVC095 22/20 A2990 RMK AO2 RAE43 SLP123 P0002 60012 T02170200 56005

2010/08/10 08:53
KOXB 100853Z AUTO 25007KT 10SM CLR 25/23 A2995 RMK AO2 SLP141 T02500233 56007 $

2010/08/10 08:53
KPBG 100853Z AUTO 00000KT 3/4SM BR OVC002 16/16 A2990 RMK AO2 SLP124 60001 T01610156 58000

2010/08/10 08:53
KPBI 100853Z 15007KT 10SM SCT023CB BKN060 BKN130 27/23 A2987 RMK AO2 SLP115 CB N-E-S MOV N 60010 T02650226 58009 $

2010/08/10 08:53
KPEO 100853Z AUTO 18005KT 10SM FEW044 OVC070 21/19 A2996 RMK AO2 RAE26 SLP137 P0001 60003 T02110194 58007 $

2010/08/10 08:53
KPGD 100853Z AUTO 10008KT 10SM BKN008 24/23 A2987 RMK AO2 SLP115 T02440233 56008 TSNO

2010/08/10 08:53
KPHD 100853Z AUTO 17003KT 4SM BR FEW050 BKN110 22/19 A2997 RMK AO2 SLP142 T02170194 56003

2010/08/10 08:53
KPIE 100853Z AUTO 10006KT 10SM FEW011 26/23 A2986 RMK AO2 SLP112 T02560233 56007

2010/08/10 08:53
KPKB 100853Z AUTO 00000KT 3SM BR CLR 20/19 A3001 RMK AO2 SLP153 T02000189 55001

2010/08/10 08:53
KPMP 100853Z AUTO 14011KT 10SM SCT021 SCT028 SCT036 27/24 A2987 RMK AO2 SLP115 60000 T02720239 58006

2010/08/10 08:50
KPNA 100850Z AUTO 00000KT 10SM CLR 05/04 A3019 RMK AO2 T00540040

2010/08/10 08:53
KPNC 100853Z AUTO 17006KT 10SM CLR 28/21 A2988 RMK AO2 SLP103 T02830206 56009

2010/08/10 08:53
KPNS 100853Z AUTO 35006KT 8SM CLR 26/24 A2990 RMK AO2 SLP126 T02610239 58008

2010/08/10 08:53
KPOU 100853Z 00000KT 5SM BR OVC095 22/21 A2991 RMK AO2 RAE25 SLP124 P0001 60003 T02170211 58004

2010/08/10 08:53
KPTK 100853Z 00000KT 6SM BR CLR 22/21 A2996 RMK AO2 SLP137 T02220211 53002

2010/08/10 08:50
KPTT 100850Z AUTO 19009KT 10SM CLR 25/18 A2990 RMK AO2

2010/08/10 08:53
KPUB 100853Z AUTO 00000KT 10SM FEW110 15/14 A3007 RMK AO2 SLP123 T01500139 51004

2010/08/10 08:53
KPWA 100853Z AUTO 19010KT 10SM CLR 28/20 A2991 RMK AO2 SLP106 T02780200 56010

2010/08/10 08:53
KRBD 100853Z 17003KT 10SM CLR 28/21 A2990 RMK AO2 SLP112 T02780206 55010

2010/08/10 08:53
KRME 100853Z AUTO 00000KT 4SM BR OVC021 21/20 A2996 RMK AO2 SLP142 T02060200 56003 $

2010/08/10 08:53
KRSL 100853Z AUTO 17007KT 10SM CLR 24/21 A2983 RMK AO2 SLP078 T02390206 58015

2010/08/10 08:53
KRSW 100853Z AUTO 10009KT 10SM BKN008 24/23 A2984 RMK AO2 CIG 006V011 SLP101 T02440233 56016

2010/08/10 08:53
KMAF 100853Z AUTO 12006KT 10SM CLR 21/19 A2999 RMK AO2 SLP105 T02110194 56008

2010/08/10 08:53
KMAI 100853Z AUTO 05004KT 9SM CLR 25/22 A2992 RMK AO2 SLP128 T02500222 56006 $

2010/08/10 08:53
KMBS 100853Z 36006KT 8SM CLR 22/21 A2996 RMK AO2 SLP140 T02170211 53000

2010/08/10 08:53
KMCI 100853Z 19007KT 10SM CLR 26/22 A2988 RMK AO2 SLP105 T02560222 55008 $

2010/08/10 08:53
KMCK 100853Z AUTO 00000KT 10SM FEW070 21/19 A2994 RMK AO2 SLP109 T02060189 58001

2010/08/10 08:53
KMCO 100853Z 10006KT 10SM FEW028 25/23 A2991 RMK AO2 SLP126 T02500228 56009

2010/08/10 08:50
ENNO 100850Z VRB02KT 9999 SCT010 BKN015 17/15 Q1010

2010/08/10 08:50
ENOV 100850Z VRB02KT 9999 FEW008 SCT012 BKN027 15/13 Q1010 

2010/08/10 08:50
ENSG 100850Z 24003KT 9999 SCT002 BKN020 14/13B Q1010

2010/08/10 08:50
ENSN 100850Z 21008KT 150V270 9999 FEW023 19/10 Q1011

2010/08/10 08:50
ENSR 100850Z 35006KT 9999 FEW015 SCT050 13/10 Q1011

2010/08/10 08:50
ENSS 100850Z 11005KT 9999 SCT010 BKN030 09/06 Q1014 

2010/08/10 08:50
ENAL 100850Z 04010KT 9999 FEW010 BKN035 15/12 Q1010

2010/08/10 08:50
ENCN 100850Z 22003KT 150V270 9999 OVC015 17/14 Q1012 REDZ

2010/08/10 08:50
ENHD 100850Z 13012KT 9999 FEW025 BKN053 17/11 Q1009

2010/08/10 08:50
ENRO 100850Z 00000KT 9999 -DZ SCT003 BKN009 14/13 Q1011

2010/08/10 08:50
ENRY 100850Z 20013KT 160V220 9999 FEW020 19/13 Q1011 NOSIG

2010/08/10 08:50
ENSB 100850Z 27010KT 9999 FEW025 BKN035 04/M00 Q1006 NOSIG 

2010/08/10 08:50
ENTC 100850Z 03007KT 9999 FEW009 SCT050 12/09 Q1011 NOSIG

2010/08/10 08:50
ENTO 100850Z 21014KT 9999 FEW010 19/11 Q1011

2010/08/10 08:50
LIEA 100850Z 29006KT 250V340 CAVOK 29/18 Q1016

2010/08/10 08:45
LIEE 100845Z 24004KT CAVOK 30/10 Q1015 NOSIG

2010/08/10 08:50
LIEO 100850Z 07004KT 020V130 CAVOK 27/14 Q1016

2010/08/10 08:50
LIMC 100850Z VRB02KT 9999 BKN070 25/18 Q1017 NOSIG

2010/08/10 08:50
LIME 100850Z VRB02KT 9999 SCT060 24/17 Q1017

2010/08/10 08:50
LIMF 100850Z 05005KT 9999 SCT050 SCT110 24/17 1017

2010/08/10 08:50
LIMJ 100850Z 16004KT 9999 FEW020 25/21 Q1016

2010/08/10 08:50
LIML 100850Z VRB03KT 9999 FEW040 25/19 Q1016 NOSIG

2010/08/10 08:45
LIRA 100845Z 34003KT CAVOK 28/16 Q1015

2010/08/10 08:50
LIRF 100850Z 27006KT 180V320 CAVOK 28/19 Q1015 NOSIG

2010/08/10 08:50
LIRN 100850Z VRB02KT 9999 SCT070 27/21 Q1015

2010/08/10 08:45
LIRP 100845Z 13001KT 9999 SCT020 24/20 Q1016 NOSIG

2010/08/10 08:50
LIRQ 100850Z VRB02KT 8000 NSC 26/20 Q1016

2010/08/10 08:52
KBIS 100852Z AUTO 15006KT 10SM CLR 22/19 A2983 RMK AO2 SLP087 T02220189 58012

2010/08/10 08:52
KBLF 100852Z AUTO 26005KT 10SM OVC050 23/17 A3013 RMK AO2 SLP153 T02280172 55004

2010/08/10 08:52
KBLH 100852Z AUTO 21006KT 10SM CLR 29/M02 A2976 RMK AO2 SLP070 T02941017 51006

2010/08/10 08:52
KBML 100852Z AUTO 00000KT 1/4SM FG BKN001 OVC011 15/15 A2994 RMK AO2 SLP133 P0001 60001 T01500150 53001

2010/08/10 08:50
KBTA 100850Z AUTO 16005KT 10SM CLR 27/23 A2985 RMK AO2 T02690233

2010/08/10 08:50
KBVN 100850Z AUTO 32011G19KT 7SM RA SCT025 BKN042 OVC075 22/19 A2991 RMK AO2 LTG DSNT N P0001 60001 T02210190

2010/08/10 08:45
KBVS 100845Z AUTO 23003KT 9SM OVC011 13/13 A2996 RMK A01 P000

2010/08/10 08:52
KCFV 100852Z AUTO 15004KT 10SM CLR 26/22 A2990 RMK AO2 SLP116 T02560217 56007

2010/08/10 08:50
KCHK 100850Z AUTO 18004KT 10SM CLR 27/21 A2990 RMK AO2

2010/08/10 08:52
KCKV 100852Z AUTO 00000KT 4SM BR CLR 25/24 A2995 RMK AO2 SLP135 T02500239 58004

2010/08/10 08:51
KCLE 100851Z COR 25004KT 6SM BR FEW055 SCT250 23/21 A2996 RMK AO2 SLP139 8/501 T02280206 50002

2010/08/10 08:50
KCLK 100850Z AUTO 15007KT 10SM CLR 27/18 A2991 RMK AO2

2010/08/10 08:52
KCLT 100852Z 00000KT 8SM CLR 24/22 A3002 RMK AO2 SLP157 T02390217 58006

2010/08/10 08:50
KSRE 100850Z AUTO 00000KT 10SM CLR 26/20 A2991 RMK AO2

2010/08/10 08:52
KSUX 100852Z 10005KT 9SM OVC012 26/24 A2984 RMK AO2 SLP094 60000 T02560239 55013

2010/08/10 08:45
KSVC 100845Z AUTO 35008KT 10SM CLR 18/08 A3016 RMK AO2

2010/08/10 08:52
KTAN 100852Z AUTO 00000KT 3SM -RA BR SCT120 21/21 A2990 RMK AO2 RAB21 SLP122 P0001 60016 T02110211 56002

2010/08/10 08:54
KTMK 100854Z AUTO 18003KT 10SM OVC024 14/13 A3002 RMK AO2

2010/08/10 08:52
KTRM 100852Z AUTO 01008KT 10SM CLR 27/08 A2971 RMK AO2 SLP063 T02720078 50001

2010/08/10 08:55
KUDG 100855Z 00000KT 3SM CLR 23/22 A3003 RMK AO1 57003

2010/08/10 08:52
KUGN 100852Z AUTO 00000KT 3SM BR CLR 22/21 A2993 RMK AO2 SLP123 T02170206 55004

2010/08/10 08:54
KWDG 100854Z AUTO 15007KT 10SM CLR 25/21 A2991 RMK AO2

2010/08/10 08:48
KWWR 100848Z AUTO 19007KT 10SM CLR 26/19 A2995 RMK AO2 T02550185

2010/08/10 08:50
KCQB 100850Z AUTO 17004KT 10SM 27/21 A2990 RMK AO2 TSNO

2010/08/10 08:52
KCQX 100852Z AUTO 00000KT 4SM BR FEW048 21/21 A2991 RMK AO2 RAE44 SLP130 P0005 60014 T02110206 58005

2010/08/10 08:50
KCUH 100850Z AUTO 19003KT 10SM CLR 26/21 A2990 RMK AO2

2010/08/10 08:52
KCVG 100852Z 00000KT 7SM BKN120 24/22 A2997 RMK AO2 SLP136 T02440217 55002

2010/08/10 08:52
KDCA 100852Z 19007KT 8SM BKN250 26/21 A2994 RMK AO2 SLP138 T02560206 56004

2010/08/10 08:52
KDDC 100852Z AUTO 30010G17KT 10SM CLR 23/18 A2992 RMK AO2 SLP095 T02280183 55003

2010/08/10 08:52
KDPA 100852Z 00000KT 8SM FEW034 24/23 A2994 RMK AO2 SLP130 T02390228 58005

2010/08/10 08:52
KDVN 100852Z AUTO 08006KT 9SM BKN039 24/22 A2993 RMK AO2 SLP130 T02440222 55003

2010/08/10 08:50
KDVO 100850Z AUTO 00000KT 10SM OVC007 12/11 A2990 RMK AO2

2010/08/10 08:52
KEST 100852Z AUTO 15009KT 6SM BR FEW012 BKN039 24/24 A2991 RMK AO2 LTG DSNT SW SLP119 T02440239 55006

2010/08/10 08:50
KFET 100850Z AUTO 13003KT 10SM CLR 27/25 A2984 RMK AO2 LTG DSNT NW T02650246

2010/08/10 08:52
KFIT 100852Z AUTO 00000KT 10SM OVC100 22/20 A2991 RMK AO2 SLP126 60001 T02220200 55006

2010/08/10 08:50
KGCD 100850Z AUTO 26008KT 10SM CLR 16/00 A2995 RMK AO2 T01611005

2010/08/10 08:51
KGMJ 100851Z AUTO 00000KT 10SM CLR 23/21 A2993 RMK AO2

2010/08/10 08:50
KHDE 100850Z AUTO 36005KT 10SM CLR 21/18 A2990 RMK AO2 T02110180

2010/08/10 08:52
KHIE 100852Z AUTO 00000KT 3SM BR OVC001 17/17 A2994 RMK AO2 SLP133 P0001 60001 T01720172 50000

2010/08/10 08:50
KHJH 100850Z AUTO 18006KT 10SM CLR 26/22 A2984 RMK AO2 T02550215

2010/08/10 08:52
KHUT 100852Z AUTO 17006KT 10SM CLR 28/21 A2988 RMK AO2 SLP088 T02780206 56010

2010/08/10 08:52
KIAD 100852Z 18004KT 6SM HZ CLR 24/21 A2994 RMK AO2 SLP136 T02390211 56002

2010/08/10 08:50
KIBM 100850Z AUTO 26004KT 10SM CLR 15/15 A3004 RMK AO2 T01500148

2010/08/10 08:50
KIDP 100850Z AUTO 18005KT 10SM CLR 24/20 A2989 RMK AO2

2010/08/10 08:52
KIEN 100852Z AUTO 14003KT 10SM CLR 18/16 A2991 RMK AO2 SLP093 60002 T01780161 56012

2010/08/10 08:53
KAKO 100853Z AUTO 21004KT 10SM FEW110 17/16 A3007 RMK AO2 SLP120 T01720161 53000 TSNO

2010/08/10 08:53
KAMG 100853Z AUTO 08003KT 8SM CLR 24/23 A2997 RMK AO2 SLP144 T02390228 56004

2010/08/10 08:53
KAOH 100853Z AUTO 18003KT 3SM BR CLR 23/21 A2997 RMK AO2 SLP140 T02280211 50000

2010/08/10 08:53
KAOO 100853Z AUTO 25003KT 8SM OVC120 22/18 A3001 RMK AO2 SLP148 T02170178 55002

2010/08/10 08:53
KAPA 100853Z 26005KT 10SM FEW120 16/12 A3015 RMK AO2 SLP143 T01560122 51003

2010/08/10 08:53
KAPF 100853Z AUTO 08008KT 10SM BKN008 BKN035 OVC050 25/24 A2984 RMK AO2 CIG 006V012 SLP103 T02500239 56010

2010/08/10 08:53
KARB 100853Z AUTO 00000KT 1/4SM FG VV001 19/19 A2996 RMK AO2 SLP139 T01940194 51004

2010/08/10 08:53
KASE 100853Z AUTO 22004KT 10SM OVC100 09/06 A3031 RMK AO2 SLP159 T00940061 51002

2010/08/10 08:53
KAUG 100853Z AUTO 31005KT 10SM CLR 20/17 A2987 RMK AO2 SLP112 T02000172 50001

2010/08/10 08:53
KBAF 100853Z 00000KT 3SM BR CLR 22/21 A2992 RMK AO2 RAE0759 SLP128 P0001 60008 T02170206 55003

2010/08/10 08:53
KBBW 100853Z AUTO 00000KT 10SM CLR 20/18 A2989 RMK AO2 TSB0749E0750B0751E01 SLP095 P0033 60111 T02000183 $

2010/08/10 08:53
KBFD 100853Z AUTO 00000KT 3SM BR OVC070 19/18 A3001 RMK AO2 RAB39E53 SLP145 P0001 60001 T01940183 56005

2010/08/10 08:53
KBGM 100853Z AUTO 00000KT 1 1/4SM BR SCT001 OVC070 20/19 A3001 RMK AO2 RAE34 SLP147 P0000 60007 T02000194 57003

2010/08/10 08:53
KBGR 100853Z 00000KT 9SM FEW100 18/18 A2985 RMK AO2 SLP103 60001 T01830178 55002

2010/08/10 08:53
KBKL 100853Z 26006KT 7SM CLR 26/21 A2993 RMK AO2 SLP129 T02560211 51003

2010/08/10 08:53
KBKV 100853Z AUTO 08004KT 10SM CLR 24/23 A2990 RMK AO2 SLP121 T02390228 56010

2010/08/10 08:53
KBMG 100853Z 00000KT 5SM BR BKN110 23/22 A2995 RMK AO2 SLP132 T02280217 58004

2010/08/10 08:53
KBRL 100853Z AUTO 09003KT 10SM CLR 26/24 A2992 RMK AO2 LTG DSNT NW SLP124 T02610239 55004

2010/08/10 08:53
KBVO 100853Z AUTO 00000KT 10SM CLR 24/21 A2989 RMK AO2 SLP109 T02390211 58009

2010/08/10 08:53
KBVY 100853Z AUTO 00000KT 4SM BR CLR 22/21 A2988 RMK AO2 SLP112 60004 T02170211 55009

2010/08/10 08:53
KBYG 100853Z AUTO 30005KT 10SM CLR 14/09 A2998 RMK AO2 SLP091 T01440094 58006 $

2010/08/10 08:53
KDTO 100853Z AUTO 00000KT 10SM CLR 27/21 A2989 RMK AO2 SLP110 T02720206 55007

2010/08/10 08:53
KDTW 100853Z 00000KT 4SM R04R/1800V2400FT OVC009 21/20 A2996 RMK AO2 SLP141 T02110200 51003 $

2010/08/10 08:53
KDXR 100853Z AUTO 00000KT 6SM -RA BR OVC100 22/21 A2994 RMK AO2 RAE00B37 SLP134 P0000 60000 T02220206 58002

2010/08/10 08:53
KECP 100853Z 04005KT 8SM CLR 25/23 A2989 RMK AO2 SLP133 T02500233 56007

2010/08/10 08:53
KEEO 100853Z AUTO 07006KT 10SM CLR 10/06 A3021 RMK AO2 SLP166 T01000056 51003 TSNO

2010/08/10 08:53
KELD 100853Z AUTO 00000KT 10SM CLR 26/24 A2991 RMK AO2 SLP122 T02560239 58009

2010/08/10 08:53
KELM 100853Z AUTO 08003KT 5SM BR OVC070 21/20 A2995 RMK AO2 RAB26E53 SLP135 P0000 60015 T02110200 58008 $

2010/08/10 08:53
KEWB 100853Z AUTO 00000KT 4SM BR SCT090 BKN120 22/21 A2991 RMK AO2 SLP126 60002 T02220206 55002

2010/08/10 08:53
KEYE 100853Z AUTO 00000KT 8SM CLR 26/22 A2995 RMK AO2 SLP131 T02610222 58003

2010/08/10 08:53
KEYW 100853Z AUTO 23010KT 10SM -RA FEW033 BKN055 26/23 A2985 RMK AO2 SLP106 P0001 60002 T02610233 55004 TSNO

2010/08/10 08:53
KFAY 100853Z AUTO 22003KT 10SM OVC003 24/23 A3000 RMK AO2 CIG 002V007 SLP153 T02440233 58002

2010/08/10 08:53
KFDR 100853Z AUTO 26006KT 10SM 27/19 A2988 RMK AO2 SLP095 T02720194 58009

2010/08/10 08:53
KFDY 100853Z AUTO 00000KT 3SM BR CLR 22/21 A2995 RMK AO2 SLP131 T02170206 50000

2010/08/10 08:53
KFFT 100853Z AUTO 00000KT 7SM CLR 23/22 A2996 RMK AO2 SLP137 T02330222 58002

2010/08/10 08:53
KFLL 100853Z 14008KT 10SM BKN017 BKN100 26/24 A2986 RMK AO2 RAE0757B24E46 SLP112 P0013 60013 T02610244 56012

2010/08/10 08:53
KFLO 100853Z AUTO 00000KT 10SM CLR 24/24 A3000 RMK AO2 SLP157 T02440239 56005

2010/08/10 08:53
KFMY 100853Z AUTO 11008G14KT 10SM BKN008 BKN037 25/23 A2983 RMK AO2 SLP104 T02500233 58006

2010/08/10 08:55
KCOD 100855Z AUTO 29005KT 10SM CLR 17/06 A3000 RMK AO1 54000

2010/08/10 08:55
KCOE 100855Z AUTO 16007KT 10SM CLR 17/07 A2982 RMK AO1 52003

2010/08/10 08:53
KGUY 100853Z AUTO 19004KT 10SM CLR 23/17 A2997 RMK AO2 SLP091 T02280167 50001

2010/08/10 08:53
KGZH 100853Z AUTO 00000KT 3SM BR SCT080 23/23 A2995 RMK AO2 SLP139 T02330233 53000

2010/08/10 08:53
KHAO 100853Z AUTO 00000KT 5SM BR CLR 22/21 A2997 RMK AO2 SLP143 T02170206 53000

2010/08/10 08:53
KHBR 100853Z AUTO 19009KT 10SM CLR 27/20 A2992 RMK AO2 SLP107 T02670200 56011

2010/08/10 08:53
KHFD 100853Z AUTO 14003KT 4SM -RA BR FEW033 SCT075 OVC095 23/22 A2991 RMK AO2 SLP127 P0003 60003 T02280217 58002

2010/08/10 08:53
KHJO 100853Z AUTO 30009KT 10SM CLR 22/14 A2981 RMK AO2 SLP093 T02170144 50000

2010/08/10 08:53
KHLG 100853Z AUTO 17003KT 5SM HZ OVC100 22/19 A2999 RMK AO2 SLP145 T02220194 56002

2010/08/10 08:53
KHUF 100853Z 00000KT 5SM BR CLR 24/23 A2993 RMK AO2 SLP130 T02440233 58008

2010/08/10 08:53
KHUL 100853Z AUTO 00000KT 2SM BR CLR 13/13 A2981 RMK AO2 VIS 1 1/4V4 SLP094 T01330128 57003

2010/08/10 08:53
KHVN 100853Z AUTO 00000KT 9SM SCT060 SCT085 BKN120 24/20 A2993 RMK AO2 SLP134 T02390200 53005

2010/08/10 08:53
KHWO 100853Z AUTO 13008KT 9SM -RA FEW020 SCT029 BKN055 26/26 A2988 RMK AO2 RAB41 SLP118 P0001 60001 T02610256 56014 $

2010/08/10 08:53
KHZY 100853Z AUTO 00000KT 4SM BR CLR 21/20 A2995 RMK AO2 SLP134 T02110200 56004

2010/08/10 08:53
KTXK 100853Z AUTO 18003KT 10SM CLR 27/23 A2991 RMK AO2 SLP121 T02720233 58006

2010/08/10 08:53
KTYR 100853Z 23004KT 10SM CLR 28/23 A2993 RMK AO2 SLP125 T02780233 58003

2010/08/10 08:53
KUNO 100853Z AUTO 00000KT 8SM CLR 24/23 A2997 RMK AO2 SLP131 T02440228 56005

2010/08/10 08:53
KUUU 100853Z AUTO 00000KT 8SM -RA CLR 22/20 A2993 RMK AO2 RAB48 SLP132 P0000 60000 T02220200 55002

2010/08/10 08:53
KVIH 100853Z AUTO 20007KT 10SM CLR 26/23 A2993 RMK AO2 SLP120 T02560228 $

2010/08/10 08:53
KVLD 100853Z AUTO 07003KT 10SM FEW015 24/23 A2995 RMK AO2 SLP145 T02440233 55005

2010/08/10 08:53
KVRB 100853Z AUTO 13007KT 10SM FEW036 26/23 A2990 RMK AO2 SLP123 T02610233 58006

2010/08/10 08:53
KWST 100853Z AUTO 00000KT 4SM -RA BR FEW070 SCT090 BKN110 22/21 A2993 RMK AO2 RAB16 SLP133 P0000 60000 T02220211 55001

2010/08/10 08:53
KYIP 100853Z 00000KT 1/4SM FG BKN001 BKN025 20/19 A2996 RMK AO2 SLP140 T02000189 51004 RVRNO

2010/08/10 08:53
KZZV 100853Z AUTO 00000KT 7SM OVC090 21/19 A2997 RMK AO2 SLP141 T02110194 55003

2010/08/10 08:53
PAPB 100853Z AUTO 26003KT 1/2SM FG VV001 07/07 A2946 RMK AO2 SLP965 T00720072 400890072 51014 TSNO

2010/08/10 08:53
PASC 100853Z 05014KT 2SM BR OVC003 03/03 A2975 RMK AO2 SLP074 T00330028 400610028 51008

2010/08/10 08:53
PASI 100853Z 00000KT 10SM FEW005 SCT015 OVC026 13/12 A3002 RMK AO2 SLP164 60000 T01330122 401390122 52005

2010/08/10 08:53
PASO 100853Z AUTO VRB03KT 10SM OVC049 12/09 A2975 RMK AO2 SLP075 T01220094 401670100 53003 TSNO

2010/08/10 08:53
PATO 100853Z AUTO 12008G16KT 4SM -RA BR FEW021 BKN028 OVC035 11/11 A2982 RMK AO2 SLP100 P0002 60004 T01110106 401390111 51011 TSNO

2010/08/10 08:53
PAVL 100853Z AUTO 07017KT 8SM -RA FEW049 OVC060 12/11 A2948 RMK AO2 SLP982 P0002 60004 T01170111 401940111 50002 TSNO

2010/08/10 08:53
PAWD 100853Z AUTO A2984 RMK AO2 SLP106 52010 PWINO FZRANO TSNO $

2010/08/10 08:54
PHMK 100854Z AUTO 04009G15KT 10SM CLR 23/18 A3012 RMK AO2 SLP198 60000 T02330178 51011 TSNO

2010/08/10 08:53
PAAQ 100853Z AUTO 17003KT 10SM BKN008 OVC015 12/11 A2980 RMK AO2 SLP085 T01170106 401940117 51009 TSNO

2010/08/10 08:53
PABR 100853Z 08018KT 6SM BR OVC002 02/02 A2986 RMK AO2 SLP112 60000 T00220022 400220017 $

2010/08/10 08:53
PACV 100853Z 00000KT 10SM SCT018 BKN025 OVC037 12/12 A2992 RMK AO2 SLP131 60000 T01220117 401560106 51005

2010/08/10 08:53
PADE 100853Z AUTO 00000KT 10SM -RA BKN047 OVC060 13/12 A2945 RMK AO2 SLP972 P0001 60003 T01280117 401560122 52010 TSNO

2010/08/10 08:53
PAEG 100853Z AUTO 15004KT 10SM CLR 08/06 A2965 RMK AO2 SLP042 T00780056 402170044 53018 TSNO

2010/08/10 08:53
KDEN 100853Z 26010KT 10SM SCT140 16/15 A3011 RMK AO2 SLP116 T01610150 55004

2010/08/10 08:53
KDEQ 100853Z AUTO 00000KT 1 1/2SM BR FEW001 24/23 A2989 RMK AO2 SLP116 T02390233 56003

2010/08/10 08:53
KDET 100853Z 00000KT 6SM BR CLR 22/21 A2995 RMK AO2 SLP139 T02170206 51002

2010/08/10 08:53
KDFI 100853Z AUTO 00000KT 1/4SM FG VV001 22/21 A2995 RMK AO2 SLP137 T02170211 58002

2010/08/10 08:53
KDFW 100853Z 20005KT 10SM CLR 29/20 A2988 RMK AO2 SLP108 T02890200 55011

2010/08/10 08:53
KDGW 100853Z AUTO 00000KT 10SM CLR 18/07 A3000 RMK AO2 SLP097 T01780072 58008

2010/08/10 08:53
KDHN 100853Z AUTO 08003KT 10SM CLR 24/22 A2998 RMK AO2 SLP145 T02390222 56006

2010/08/10 08:53
KDKK 100853Z AUTO 00000KT 4SM BR OVC050 22/21 A2994 RMK AO2 RAB0754E36 SLP133 P0003 60003 T02220211 58003 $

2010/08/10 08:53
KDMO 100853Z AUTO 19005KT 10SM CLR 27/24 A2991 RMK AO2 SLP117 T02670239 56007

2010/08/10 08:53
KDRO 100853Z AUTO 00000KT 10SM FEW110 13/06 A3025 RMK AO2 SLP153 T01280061 53002

2010/08/10 08:53
KDTN 100853Z AUTO 00000KT 10SM CLR 27/24 A2991 RMK AO2 SLP124 T02720239 58002

2010/08/10 08:53
KRVS 100853Z 00000KT 10SM CLR 26/21 A2989 RMK AO2 SLP122 T02610211 56009

2010/08/10 08:53
KRWL 100853Z AUTO 26005KT 10SM CLR 11/03 A3018 RMK AO2 SLP137 T01060033 58002

2010/08/10 08:53
KSEG 100853Z AUTO 00000KT 8SM CLR 22/20 A2995 RMK AO2 SLP136 T02170200 53001

2010/08/10 08:49
KSEZ 100849Z AUTO 04010KT 10SM SCT090 20/09 A3010 RMK AO2 T02040089

2010/08/10 08:53
KSIY 100853Z AUTO 33004KT 10SM 19/07 A2993 RMK AO2 SLP119 T01890072 58005 $

2010/08/10 08:53
KSLN 100853Z 18007KT 10SM CLR 28/21 A2984 RMK AO2 SLP084 T02830206 58014

2010/08/10 08:53
KSMQ 100853Z AUTO 00000KT 8SM CLR 22/20 A2991 RMK AO2 SLP126 T02170200 58000

2010/08/10 08:53
KSNY 100853Z AUTO 00000KT 10SM CLR 17/16 A3003 RMK AO2 SLP109 60002 T01720156 55013

2010/08/10 08:53
KSPG 100853Z AUTO 11012KT 10SM SCT012 27/24 A2985 RMK AO2 SLP108 T02720244 56011

2010/08/10 08:53
KSRQ 100853Z AUTO 08007KT 10SM CLR 25/24 A2984 RMK AO2 SLP104 T02500239 56012 TSNO

2010/08/10 08:53
KSSI 100853Z AUTO 12011KT 10SM SCT024 28/23 A2996 RMK AO2 SLP143 T02830233 57008

2010/08/10 08:53
KSTJ 100853Z AUTO 20003KT 10SM CLR 26/22 A2987 RMK AO2 SLP104 T02610222 55006

2010/08/10 08:50
KSUN 100850Z AUTO 31010KT 10SM CLR 12/10 A3006 RMK AO2 LTG DSNT NW

2010/08/10 08:53
KSWO 100853Z AUTO 18005KT 10SM CLR 27/21 A2989 RMK AO2 SLP103 T02720206 56008

2010/08/10 08:50
KSZT 100850Z AUTO 00000KT 10SM CLR 11/10 A2981 RMK AO2

2010/08/10 08:53
KTCC 100853Z AUTO 24005KT 10SM CLR 23/17 A3004 RMK AO2 SLP099 T02280172 58007

2010/08/10 08:53
KTDZ 100853Z AUTO 00000KT 3/4SM BR CLR 23/22 A2996 RMK AO2 SLP138 T02280217 57001

2010/08/10 08:50
KTEX 100850Z AUTO 11004KT 10SM CLR 11/05 A3041 RMK AO2

2010/08/10 08:53
KTHV 100853Z AUTO 00000KT 4SM BR CLR 22/21 A2993 RMK AO2 SLP134 T02170206 57001

2010/08/10 08:50
KTIF 100850Z AUTO 03003KT 10SM SCT013 19/18 A2991 RMK AO2 LTG DSNT NE 60026 T01930180

2010/08/10 08:53
KTKI 100853Z AUTO 00000KT 10SM CLR 25/22 A2990 RMK AO2 SLP115 T02500222 56010

2010/08/10 08:53
KTMB 100853Z AUTO 16005KT 10SM FEW024 BKN049 BKN060 27/22 A2986 RMK AO2 SLP111 T02670222 56013

2010/08/10 08:53
KTOP 100853Z AUTO 00000KT 10SM CLR 28/21 A2987 RMK AO2 SLP101 T02780211 56008

2010/08/10 08:53
KTOR 100853Z AUTO 14008KT 10SM CLR 17/15 A2998 RMK AO2 SLP109 T01670150 $

2010/08/10 08:53
KTPA 100853Z 07004KT 10SM FEW050 25/23 A2988 RMK AO2 SLP116 T02500233 56010

2010/08/10 08:50
KTRK 100850Z AUTO 00000KT 10SM CLR 07/04 A3011 RMK AO2

2010/08/10 08:53
KTRL 100853Z AUTO 20007KT 10SM CLR 28/21 A2990 RMK AO2 SLP115 T02830206 56010

2010/08/10 08:53
KTTN 100853Z AUTO 00000KT 8SM SCT065 SCT080 25/21 A2992 RMK AO2 SLP125 T02500206 56003

2010/08/10 08:53
KTUL 100853Z 19007KT 10SM CLR 29/19 A2989 RMK AO2 SLP109 T02940194 56008

2010/08/10 08:53
KTWF 100853Z AUTO 10004KT 10SM CLR 15/12 A2992 RMK AO2 SLP075 T01500117 $

2010/08/10 08:53
KICT 100853Z 15008KT 10SM FEW100 SCT200 27/21 A2988 RMK AO2 SLP098 T02670211 58012

2010/08/10 08:53
KONT 100853Z 29005KT 10SM CLR 16/12 A2990 RMK AO2 SLP111 T01610122 50001

2010/08/10 08:53
KOSH 100853Z AUTO 00000KT 1 1/2SM BR CLR 21/20 A2994 RMK AO2 SLP124 T02110200 58003

2010/08/10 08:53
KOVS 100853Z AUTO 00000KT 1/4SM FG VV001 23/23 A2995 RMK AO2 SLP138 60001 T02330228 55003

2010/08/10 08:53
KPAE 100853Z AUTO 20008KT 10SM BKN080 13/12 A2995 RMK AO2 SLP142 T01330117 58006

2010/08/10 08:53
KPAH 100853Z AUTO 00000KT 7SM CLR 26/24 A2992 RMK AO2 SLP126 T02560244 58005

2010/08/10 08:53
KPBF 100853Z AUTO 19003KT 10SM CLR 26/24 A2993 RMK AO2 SLP129 T02610239 55004

2010/08/10 08:53
KPDK 100853Z AUTO 00000KT 10SM CLR 24/21 A3002 RMK AO2 SLP143 T02440206 55003

2010/08/10 08:53
KPDT 100853Z AUTO 21005KT 10SM CLR 16/07 A2988 RMK AO2 SLP101 T01610072 50001

2010/08/10 08:53
KPIH 100853Z AUTO 01004KT 10SM CLR 12/09 A3000 RMK AO2 SLP123 T01170089 56006

2010/08/10 08:53
KPIL 100853Z AUTO 15003KT 10SM CLR 30/26 A2988 RMK AO2 SLP118 T03000261 58013

2010/08/10 08:53
KBNA 100853Z 00000KT 8SM CLR 26/24 A2997 RMK AO2 SLP141 T02560239 56004

2010/08/10 08:53
KBOI 100853Z 12007KT 10SM CLR 21/12 A2984 RMK AO2 TSE16 SLP073 60002 T02060117 55008

2010/08/10 08:55
KBOW 100855Z AUTO 09005KT 10SM FEW020 24/24 A2989 RMK AO2

2010/08/10 08:53
KBPI 100853Z AUTO 30003KT 10SM CLR 04/03 A3020 RMK AO2 SLP149 T00440028 57000 TSNO

2010/08/10 08:53
KBPK 100853Z AUTO 20003KT 8SM CLR 27/24 A2993 RMK AO2 SLP121 T02670239 58008

2010/08/10 08:53
KBPT 100853Z AUTO 27003KT 10SM CLR 26/24 A2990 RMK AO2 SLP125 T02560244 56007

2010/08/10 08:53
KBRD 100853Z AUTO 00000KT 1/2SM FG CLR 19/18 A2994 RMK AO2 SLP131 T01940178 58005

2010/08/10 08:53
KBRO 100853Z 14004KT 10SM CLR 28/26 A2988 RMK AO2 SLP116 T02830261 56016

2010/08/10 08:53
KBTL 100853Z AUTO 00000KT 1 1/2SM BR BKN004 20/20 A2997 RMK AO2 CIG 001V006 SLP142 T02000200 58002

2010/08/10 08:53
KBTM 100853Z AUTO 06004KT 10SM FEW075 13/08 A3004 RMK AO2 SLP122 60000 T01280083 55002

2010/08/10 08:53
KBUR 100853Z AUTO 15003KT 7SM CLR 16/13 A2989 RMK AO2 SLP111 T01610133 50001 TSNO

2010/08/10 08:53
KBWG 100853Z AUTO 00000KT 8SM CLR 26/23 A2996 RMK AO2 SLP138 T02560233 58003

2010/08/10 08:53
KBYI 100853Z AUTO 35004KT 10SM CLR 14/11 A2993 RMK AO2 SLP100 T01390111 58012

2010/08/10 08:53
KCCR 100853Z AUTO 00000KT 10SM CLR 13/09 A2987 RMK AO2 SLP101 T01280094 58002

2010/08/10 08:53
KCDC 100853Z AUTO 00000KT 10SM CLR 12/04 A3012 RMK AO2 SLP132 T01170039 58005

2010/08/10 08:53
KCHO 100853Z AUTO 19003KT 6SM BR CLR 23/21 A2996 RMK AO2 SLP135 T02330211 56005 TSNO

2010/08/10 08:55
KCKI 100855Z AUTO 00000KT 10SM CLR 23/23 A3000 RMK AO2

2010/08/10 08:53
KCLM 100853Z AUTO 31005KT 10SM OVC009 12/10 A2996 RMK AO2 SLP146 T01170100 56007

2010/08/10 08:53
KCMI 100853Z AUTO 16003KT 4SM BR CLR 24/24 A2993 RMK AO2 SLP126 T02440239 58011

2010/08/10 08:53
KCMX 100853Z AUTO 00000KT 8SM CLR 17/16 A2996 RMK AO2 SLP139 T01670161 58003 $

2010/08/10 08:53
KCNO 100853Z AUTO 32003KT 5SM BR CLR 14/12 A2991 RMK AO2 SLP124 T01390117 50001

2010/08/10 08:53
KCOT 100853Z AUTO 14004KT 10SM CLR 26/24 A2990 RMK AO2 SLP117 T02610239 58012

2010/08/10 08:53
KCSV 100853Z AUTO 00000KT 6SM HZ CLR 23/20 A3007 RMK AO2 SLP159 T02280200 55001

2010/08/10 08:53
KCXO 100853Z AUTO 00000KT 10SM CLR 24/23 A2991 RMK AO2 SLP125 T02390228 55008

2010/08/10 08:51
KDAG 100851Z AUTO 27008KT 10SM CLR 22/01 A2986 RMK AO2 SLP084 T02220006 50003 TSNO

2010/08/10 08:53
KDAN 100853Z AUTO 22003KT 5SM BR CLR 23/21 A3000 RMK AO2 SLP147 T02280206 56003

2010/08/10 08:53
KWRL 100853Z AUTO 21003KT 10SM CLR 16/08 A2997 RMK AO2 SLP101 T01560078 51003 $

2010/08/10 08:53
KWVI 100853Z AUTO 00000KT 5SM BR OVC002 12/11 A2992 RMK AO2 PK WND 14030/0810 SLP132 T01220111 58007

2010/08/10 08:53
KXNA 100853Z AUTO 22003KT 10SM CLR 24/21 A2997 RMK AO2 SLP127 T02390211 56005

2010/08/10 08:52
PATA 100852Z AUTO 34003KT 10SM FEW080 OVC100 13/12 A2961 RMK AO2 SLP030 60000 T01330122 401890122 52004 TSNO

2010/08/10 08:53
PHJR 100853Z AUTO 07005KT 10SM CLR 25/17 A3011 RMK AO2 SLP204 T02500172 51012 TSNO

2010/08/10 09:00
OPKC 100900Z 23012KT 7000 FEW020 SCT030 33/25 Q1002 NOSIG

2010/08/10 08:53
PAEN 100853Z AUTO 00000KT 7SM -RA FEW003 BKN023 OVC040 12/12 A2978 RMK AO2 RAE14B38 SLP085 P0000 60002 T01220117 401780122 53004 TSNO

2010/08/10 08:53
PAGY 100853Z AUTO 20016G24KT 10SM OVC046 14/10 A2994 RMK AO2 SLP140 T01390100 401610106 53002 TSNO

2010/08/10 08:53
PAIL 100853Z AUTO 12011G17KT 10SM OVC029 12/08 A2968 RMK AO2 SLP052 T01170083 401390111 53005 TSNO

2010/08/10 08:53
PAKT 100853Z AUTO 12003KT 10SM BKN006 OVC013 13/12 A3002 RMK AO2 SLP168 T01330122 401560117 58003 TSNO

2010/08/10 08:53
PAKV 100853Z AUTO 00000KT 4SM -RA BR FEW027 BKN043 OVC050 12/11 A2957 RMK AO2 RAB05 SLP015 P0003 60004 T01170111 401390117 51009 TSNO

2010/08/10 08:53
PAKW 100853Z AUTO 00000KT 7SM BKN006 OVC010 13/12 A3002 RMK AO2 CIG 002V007 SLP163 60001 T01280117 401500117 55000 TSNO

2010/08/10 08:53
PALH 100853Z 32005KT 10SM FEW007 BKN012 OVC050 13/11 A2978 RMK AO2 SLP085 60000 T01280111 402000128 50007

2010/08/10 08:53
PAMR 100853Z 32004KT 10SM FEW006 BKN022 OVC050 12/11 A2977 RMK AO2 SLP082 60000 T01220106 401940117 51006

2010/08/10 08:53
KBRO 100853Z 14004KT 10SM CLR 28/26 A2988 RMK AO2 SLP116 T02830261 56016

2010/08/10 08:51
KJFK 100851Z 25006KT 9SM FEW060 BKN140 OVC250 25/20 A2992 RMK AO2 SLP133 T02500200 58001

2010/08/10 08:53
KBUR 100853Z AUTO 15003KT 7SM CLR 16/13 A2989 RMK AO2 SLP111 T01610133 50001 TSNO

2010/08/10 08:54
KAAO 100854Z AUTO 18009KT 10SM CLR 28/20 A2988 RMK AO2 SLP099 T02780200 58013

2010/08/10 08:55
KAEG 100855Z AUTO 00000KT 10SM FEW100 18/07 A3017 RMK AO1

2010/08/10 08:55
KAIK 100855Z AUTO 00000KT 5SM HZ CLR 22/ A3004 RMK AO2 PNO

2010/08/10 08:55
KAIZ 100855Z AUTO 00000KT 10SM CLR 25/23 A2994 RMK AO1 57007

2010/08/10 08:54
KAKH 100854Z AUTO 00000KT 6SM BR CLR 23/21 A3002 RMK AO2 SLP157 T02280206 57007

2010/08/10 08:54
KAKR 100854Z AUTO 25003KT 9SM CLR 23/19 A2997 RMK AO2 SLP137 T02280194 55000

2010/08/10 08:54
KALO 100854Z 00000KT 8SM BKN050 24/24 A2995 RMK AO2 LTG DSNT SE-W RAB09E18B40E50 SLP136 P0000 60000 T02440239 53012

2010/08/10 08:54
KAPC 100854Z AUTO 29006KT 10SM OVC007 12/11 A2988 RMK AO2 SLP110 T01170106 58003 $

2010/08/10 08:55
KARG 100855Z AUTO 21003KT 10SM CLR 27/23 A2991 RMK AO1 57010

2010/08/10 08:55
KAUO 100855Z AUTO 10006KT 10SM CLR 26/20 A2998 RMK AO1 57003

2010/08/10 08:54
KAUW 100854Z AUTO 32003KT 7SM CLR 20/19 A2998 RMK AO2 SLP146 T02000189 58003

2010/08/10 08:54
KAVL 100854Z AUTO 00000KT 5SM R34/2400VP6000FT BR CLR 19/19 A3012 RMK AO2 SLP169 T01940189 55005

2010/08/10 08:55
KAWO 100855Z AUTO 00000KT 10SM 14/13 A2996 RMK AO1 57003

2010/08/10 08:55
KBBP 100855Z AUTO 00000KT 7SM BKN005 BKN008 23/22 A3001 RMK AO2

2010/08/10 08:54
KBFL 100854Z AUTO 29003KT 10SM CLR 23/06 A2982 RMK AO2 SLP090 T02330056 50001

2010/08/10 08:55
KBHB 100855Z AUTO 00000KT 1SM CLR 17/17 A2983 RMK AO1 57003

2010/08/10 08:55
KBID 100855Z AUTO 00000KT 10SM FEW075 SCT085 23/21 A2991 RMK AO1 54000

2010/08/10 08:55
KBKX 100855Z AUTO 12009KT 10SM OVC034 24/22 A2990 RMK AO1 57017

2010/08/10 08:55
KBLM 100855Z AUTO 24005KT 10SM SCT060 BKN070 BKN090 24/19 A2995 RMK AO1 57003

2010/08/10 08:55
KBNL 100855Z AUTO 00000KT 6SM BR CLR 24/24 A3000 RMK AO2

2010/08/10 08:54
KBOS 100854Z 20007KT 3SM BR FEW040 BKN110 OVC200 21/21 A2989 RMK AO2 TWR VIS 4 VIS 2 E RAE24 SLP120 P0000 60007 T02110206 56012

2010/08/10 08:55
KBTP 100855Z AUTO 00000KT 5SM OVC090 22/18 A2999 RMK AO1

2010/08/10 08:54
KBUY 100854Z AUTO 00000KT 6SM BR CLR 23/21 A3001 RMK AO2 SLP153 T02280211 56005

2010/08/10 08:55
KBVX 100855Z AUTO 00000KT 10SM CLR 27/24 A2992 RMK AO1 57010

2010/08/10 08:55
KBWD 100855Z AUTO 15004KT 10SM CLR 27/20 A2994 RMK AO2

2010/08/10 08:54
KBWI 100854Z 23005KT 8SM FEW250 24/21 A2992 RMK AO2 SLP130 T02440206 56006

2010/08/10 08:55
KCDN 100855Z AUTO 00000KT 7SM CLR 24/24 A3002 RMK A02 P000

2010/08/10 08:54
KCEU 100854Z AUTO 33003KT 7SM OVC100 26/23 A3003 RMK AO2 SLP156 T02610233 56007

2010/08/10 08:55
KCGC 100855Z AUTO 00000KT 10SM CLR 24/23 A2988 RMK

2010/08/10 08:55
KCGZ 100855Z AUTO 27005KT 10SM CLR 30/08 A2985 RMK AO1 52003

2010/08/10 08:55
KCIU 100855Z AUTO 03005KT 1 3/4SM OVC002 19/19 A2996 RMK AO1 54000

2010/08/10 08:52
KNRB 100852Z AUTO 14011KT 10SM FEW021 SCT026 BKN060 28/23 A2994 RMK AO2 SLP138 T02830228 56007

2010/08/10 08:52
KNFW 100852Z AUTO 21004KT 10SM CLR 29/19 A2992 RMK AO2 SLP116 T02890189 56014

2010/08/10 08:53
PHNL 100853Z 06010G19KT 10SM FEW042 26/18 A3010 RMK AO2 SLP192 T02560178 50011

2010/08/10 08:53
KNQX 100853Z AUTO 22009KT 10SM TS CLR 26/23 A2984 RMK AO2 RAE23 SLP104 P0000 60001 T02610233 55003 $

2010/08/10 08:53
KNIP 100853Z 11006KT 10SM FEW020 27/24 A2994 RMK AO2 SLP135 T02720239 56007

2010/08/10 08:53
KDNK 100853Z AUTO 13004KT 10SM CLR 25/23 A2993 RMK AO2 SLP130 T02500228 55001

2010/08/10 08:53
KDTS 100853Z AUTO 04005KT 10SM CLR 28/23 A2989 RMK AO2 SLP121 T02780233 56009

2010/08/10 08:53
KIAG 100853Z AUTO 00000KT 2 1/2SM BR FEW043 OVC055 22/21 A2993 RMK AO2 SLP132 T02170211 58001

2010/08/10 08:53
PABI 100853Z AUTO 19011G16KT 10SM 16/06 A2968 RMK AO2 SLP048 T01560061 402110128 53006 TSNO $

2010/08/10 08:52
KNHK 100852Z AUTO 22005KT 10SM CLR 26/21 A2994 RMK AO2 SLP138 T02560211 58006 $

2010/08/10 08:55
KCEF 100855Z AUTO 22003KT 9SM BKN065 21/21 A2991 RMK AO2 VIS 2 1/2 RWY05 SLP130 60007 T02140208 55002 $

2010/08/10 08:55
KGRF 100855Z AUTO 18007KT 10SM OVC011 13/11 A2996 RMK AO2 SLP147 T01340110 58005

2010/08/10 08:55
KHMN 100855Z 00000KT 10SM CLR 20/12 A3002 RMK AO2A SLP082 T02040117 52001 $

2010/08/10 08:55
KLRF 100855Z AUTO 00000KT 10SM CLR 27/26 A2991 RMK AO2 SLP126 T02670258 57006

2010/08/10 08:55
KMMT 100855Z AUTO 00000KT 8SM R32/5000V5500FT BKN011 23/23 A3000 RMK AO2 CIG 010V015 SLP158 T02340232 57007

2010/08/10 08:52
KNHK 100852Z AUTO 22005KT 10SM CLR 26/21 A2994 RMK AO2 SLP138 T02560211 58006 $

2010/08/10 08:55
KRDR 100855Z AUTO 00000KT 10SM CLR 20/20 A2987 RMK AO2 SLP126 T01970197 58001 $

2010/08/10 08:55
KSUU 100855Z AUTO 25021G26KT 10SM CLR 13/11 A2982 RMK AO2 PK WND 25027/0809 SLP098 T01280111 58004 RVRNO $

2010/08/10 08:55
KSZL 100855Z AUTO 18004KT 10SM CLR 26/24 A2989 RMK AO2 SLP113 T02600239 56008 PNO $

2010/08/10 08:54
KBKB 100854Z AUTO 00000KT 10SM CLR 26/24 A2991 RMK AO2 SLP152 T02560239 55001 $

2010/08/10 08:54
KNKT 100854Z AUTO 22003KT 10SM CLR 24/24 A3001 RMK AO2 SLP159 T02440239 58005

2010/08/10 08:54
KRSP 100854Z AUTO 31003KT 7SM CLR 23/18 A3002 RMK AO2 SLP151 T02330178 53001 $

2010/08/10 08:52
CYMX 100852Z 22003KT 1SM R06/2400FT/N BR SKC 18/15 RMK FG3 VIS VRB 1/2-11/2

2010/08/10 08:50
EDNY 100850Z VRB03KT 9999 FEW035 20/14 Q1018

2010/08/10 08:50
EDVK 100850Z 19005KT 150V240 CAVOK 22/12 Q1016

2010/08/10 08:50
EDXW 100850Z 17013KT 9999 FEW011 20/16 Q1013

2010/08/10 08:50
EDLN 100850Z VRB04KT CAVOK 22/16 Q1014

2010/08/10 08:50
EDLP 100850Z 19007KT CAVOK 23/10 Q1015

2010/08/10 08:50
EDLW 100850Z 21007KT CAVOK 22/13 Q1015

2010/08/10 08:50
EDMA 100850Z 28003KT 220V020 CAVOK 19/15 Q1018

2010/08/10 08:50
EDMO 100850Z 31005KT 270V340 CAVOK 20/14 Q1019

2010/08/10 08:50
EDQM 100850Z 20006KT 170V230 9999 FEW034 BKN059 20/11 Q1019

2010/08/10 08:50
EDVE 100850Z VRB04KT CAVOK 22/15 Q1016

2010/08/10 08:50
EDDF 100850Z 19004KT 9999 FEW030 SCT300 22/15 Q1016 NOSIG

2010/08/10 08:50
EDDH 100850Z 17007KT 9999 FEW030 SCT120 BKN280 22/14 Q1015 NOSIG

2010/08/10 08:50
EDDK 100850Z 14004KT 9999 FEW030 22/15 Q1015 NOSIG

2010/08/10 08:50
EDDL 100850Z 18006KT CAVOK 21/14 Q1015 NOSIG

2010/08/10 08:50
EDDM 100850Z 33001KT CAVOK 20/15 Q1018 NOSIG

2010/08/10 08:50
EDDN 100850Z 15003KT 9999 FEW040 21/14 Q1017 NOSIG

2010/08/10 08:50
EDDS 100850Z VRB02KT 9999 FEW035 22/13 Q1018 NOSIG

2010/08/10 08:50
EDDW 100850Z 17008KT CAVOK 23/12 Q1014 NOSIG

2010/08/10 08:50
EDFE 100850Z 19004KT 160V220 CAVOK 22/16 Q1016

2010/08/10 08:50
EDFM 100850Z 17004KT 120V210 CAVOK 23/15 Q1017

2010/08/10 08:50
EDHI 100850Z 16006KT 110V230 CAVOK 22/14 Q1015

2010/08/10 08:50
EDHL 100850Z 16007KT 130V200 CAVOK 22/20 Q1015

2010/08/10 08:50
EDJA 100850Z 27005KT 240V330 CAVOK 20/14 Q1019

2010/08/10 08:50
EKAH 100850Z AUTO 17009KT 140V230 9999NDV NCD 19/11 Q1015

2010/08/10 08:50
EKBI 100850Z 17008KT 120V200 9999 FEW025 BKN250 19/14 Q1014

2010/08/10 08:50
EKCH 100850Z 18006KT 130V230 9999 FEW025 20/13 Q1016 NOSIG

2010/08/10 08:50
EKEB 100850Z AUTO 17012KT 9999NDV FEW014/// 20/15 Q1013

2010/08/10 08:50
EKKA 100850Z 19010KT 150V220 9999 FEW030 SCT220 20/12 Q1013 NOSIG

2010/08/10 08:50
EKOD 100850Z 17007KT 140V200 9999 FEW020TCU 20/13 Q1015

2010/08/10 08:50
EKRK 100850Z AUTO 14008KT 100V160 9999NDV NCD 20/11 Q1016

2010/08/10 08:50
EKRN 100850Z AUTO 13007KT 090V150 9999NDV BKN034/// BKN056/// 18/15 Q1017

2010/08/10 08:50
EKSB 100850Z 15008KT 120V190 9999 FEW025 21/13 Q1014

2010/08/10 08:50
EKSN 100850Z 22010KT 9999 FEW028 SCT060 18/12 Q1013

2010/08/10 08:50
EKSP 100850Z 17009KT 140V200 9999 FEW027 SCT200 21/14 Q1014 NOSIG

2010/08/10 08:50
EKVD 100850Z 19010KT 160V220 9999 SCT029 20/13 Q1014

2010/08/10 08:52
EKVG 100852Z 33002KT 9999 FEW010 SCT060 14/11 Q1008 RMK/RWY 13-31 CLOSED DUE WIP NOTAM E0050/10 WIND 850FT 09007KT

2010/08/10 08:50
EKYT 100850Z 21009KT 9999 FEW045 21/12 Q1013 NOSIG

2010/08/10 08:50
ENMS 100850Z 34010KT 9999 SCT040 17/13 Q1010 

2010/08/10 08:50
ENRM 100850Z VRB02KT 6000 BKN003 12/11 Q1011

2010/08/10 08:50
ENRS 100850Z 35013KT 9999 SCT005 BKN013 11/10 Q1011

2010/08/10 08:50
ENSK 100850Z VRB02KT 9999 SCT008 BKN010 13/10 Q1011

2010/08/10 08:50
ENSO 100850Z 12010KT 090V150 9999 FEW035 BKN060 18/11 Q1009

2010/08/10 08:50
ENST 100850Z 25003KT 190V320 6000 2000NE -DZ BR BKN002 12/11 Q1011

2010/08/10 08:50
ENBN 100850Z 26004KT 5000 BR SCT002 BKN003 13/12 Q1011

2010/08/10 08:50
ENBV 100850Z 09009KT 9999 BKN035 10/08 Q1013

2010/08/10 08:50
ENFG 100850Z 16005KT 9999 SCT004 BKN007 14/12 Q1011

2010/08/10 08:50
ENHF 100850Z 04005KT 9999 FEW035 SCT050 14/09 Q1011 

2010/08/10 08:50
ENRA 100850Z VRB03KT 9999 BKN050 19/12 Q1010

2010/08/10 08:50
ENSH 100850Z 02013KT 9999 FEW010 14/11 Q1010

2010/08/10 08:50
EETN 100850Z 24012KT 9999 FEW026CB SCT039 BKN054 21/15 Q1013 NOSIG

2010/08/10 08:50
EFHF 100850Z 21008KT 170V250 9999 VCSH SCT016 SCT020 FEW030CB 20/17 Q1012

2010/08/10 08:50
EFHK 100850Z 21009KT 9999 SCT012 FEW030CB BKN055 21/17 Q1012 NOSIG

2010/08/10 08:50
EFJY 100850Z 20006KT 150V260 9999 SCT035 BKN060 21/16 Q1010

2010/08/10 08:50
EFKK 100850Z AUTO 35006KT 310V020 9999 ////// 18/17 Q1008

2010/08/10 08:50
EFKU 100850Z AUTO 17009KT 140V210 9999NDV BKN020 BKN060 22/15 Q1010

2010/08/10 08:50
EFMA 100850Z 22010KT 210V270 9999 FEW012 BKN015 BKN060 20/17 Q1010

2010/08/10 08:50
EFPO 100850Z 21005KT 170V260 9999 SCT008 BKN012 BKN050 20/18 Q1009

2010/08/10 08:50
EFRO 100850Z AUTO 35009KT 9999NDV OVC012 12/10 Q1010

2010/08/10 08:50
EFTP 100850Z 21006KT 150V240 9999 SCT025 20/16 Q1010

2010/08/10 08:50
EFTU 100850Z AUTO 24007KT 190V280 9999 SCT018 BKN050 20/16 Q1010

2010/08/10 08:50
EFVA 100850Z VRB05KT 9999 -SHRA FEW006 SCT015 BKN038 BKN050 19/17 Q1008

2010/08/10 08:50
ENCN 100850Z 22003KT 150V270 9999 OVC015 17/14 Q1012 REDZ

2010/08/10 08:50
ENHD 100850Z 13012KT 9999 FEW025 BKN053 17/11 Q1009

2010/08/10 08:50
ENKR 100850Z 01006KT 9999 BKN009 10/08 Q1013

2010/08/10 08:50
ENSB 100850Z 27010KT 9999 FEW025 BKN035 04/M00 Q1006 NOSIG

2010/08/10 08:50
ENTC 100850Z 03007KT 9999 FEW009 SCT050 12/09 Q1011 NOSIG

2010/08/10 08:50
EVRA 100850Z 19008KT 160V220 9999 BKN023 21/16 Q1016 NOSIG

2010/08/10 08:50
EYVI 100850Z VRB03KT 9999 SCT034 BKN120 22/15 Q1017 NOSIG

2010/08/10 08:50
ENNO 100850Z VRB02KT 9999 SCT010 BKN015 17/15 Q1010

2010/08/10 08:50
ENOV 100850Z VRB02KT 9999 FEW008 SCT012 BKN027 15/13 Q1010 

2010/08/10 08:50
ENSG 100850Z 24003KT 9999 SCT002 BKN020 14/13B Q1010

2010/08/10 08:50
ENSN 100850Z 21008KT 150V270 9999 FEW023 19/10 Q1011

2010/08/10 08:50
ENSR 100850Z 35006KT 9999 FEW015 SCT050 13/10 Q1011

2010/08/10 08:50
ENSS 100850Z 11005KT 9999 SCT010 BKN030 09/06 Q1014 

2010/08/10 08:50
ENAN 100850Z 03011KT 9999 SCT006 BKN008 11/10 Q1011 NOSIG

2010/08/10 08:50
ENBR 100850Z 22004KT 180V250 9999 BKN054 17/11 Q1009 

2010/08/10 08:50
ENBO 100850Z 27006KT 9999 FEW002 BKN050 14/13 Q1010 TEMPO 4000 BR SCT003 BKN008 

2010/08/10 08:50
ENDU 100850Z 00000KT 9999 FEW045 BKN070 16/10 Q1010 NOSIG

2010/08/10 08:50
ENVA 100850Z VRB01KT 9999 FEW006 SCT010 BKN015 15/13 Q1011 NOSIG 

2010/08/10 08:50
ENZV 100850Z 15013KT 9999 FEW030 SCT050 BKN140 19/13 Q1009 NOSIG

2010/08/10 08:50
ENBN 100850Z 26004KT 5000 BR SCT002 BKN003 13/12 Q1011

2010/08/10 08:50
ENBV 100850Z 09009KT 9999 BKN035 10/08 Q1013

2010/08/10 08:50
ENFG 100850Z 16005KT 9999 SCT004 BKN007 14/12 Q1011

2010/08/10 08:50
ENHF 100850Z 04005KT 9999 FEW035 SCT050 14/09 Q1011 

2010/08/10 08:50
ENRA 100850Z VRB03KT 9999 BKN050 19/12 Q1010

2010/08/10 08:50
ENSH 100850Z 02013KT 9999 FEW010 14/11 Q1010

2010/08/10 08:50
ENAN 100850Z 03011KT 9999 SCT006 BKN008 11/10 Q1011 NOSIG

2010/08/10 08:50
ENBR 100850Z 22004KT 180V250 9999 BKN054 17/11 Q1009 

2010/08/10 08:50
ENBO 100850Z 27006KT 9999 FEW002 BKN050 14/13 Q1010 TEMPO 4000 BR SCT003 BKN008 

2010/08/10 08:50
ENDU 100850Z 00000KT 9999 FEW045 BKN070 16/10 Q1010 NOSIG

2010/08/10 08:50
ENVA 100850Z VRB01KT 9999 FEW006 SCT010 BKN015 15/13 Q1011 NOSIG 

2010/08/10 08:50
ENZV 100850Z 15013KT 9999 FEW030 SCT050 BKN140 19/13 Q1009 NOSIG

2010/08/10 09:00
SBBE 100900Z 06004KT CAVOK 24/22 Q1012

2010/08/10 08:54
KROA 100854Z 00000KT 9SM CLR 23/21 A3003 RMK AO2 SLP155 T02330206 56004 

2010/08/10 08:50
ENAL 100850Z 04010KT 9999 FEW010 BKN035 15/12 Q1010

2010/08/10 08:50
ENAT 100850Z 17007KT 9999 FEW030 BKN050 17/08 Q1011

2010/08/10 08:50
ENBL 100850Z VRB02KT 9999 FEW018 SCT040 BKN055 15/11 Q1009

2010/08/10 08:50
ENEV 100850Z 33006KT 300V010 9999 FEW025 14/10 Q1010

2010/08/10 08:50
ENFL 100850Z VRB01KT 9999 FEW010 BKN043 16/13 Q1010

2010/08/10 08:50
ENGC 100850Z 10020KT 9999 SCT015 BKN030 14/12 Q1008

2010/08/10 08:50
ENKB 100850Z VRB02KT 9999 -RA SCT007 SCT070 14/13 Q1010

2010/08/10 08:50
ENML 100850Z 12002KT 9999 FEW010 BKN037 17/13 Q1010

2010/08/10 08:50
ENNA 100850Z 19010KT 9999 FEW020 SCT047 17/09 Q1012

2010/08/10 08:50
ENOA 100850Z 12023KT 4000 -RA BR BKN008 14/13 Q1007

2010/08/10 08:50
ENRO 100850Z 00000KT 9999 -DZ SCT003 BKN009 14/13 Q1011

2010/08/10 08:50
ENRY 100850Z 20013KT 160V220 9999 FEW020 19/13 Q1011 NOSIG

2010/08/10 08:50
ENTO 100850Z 21014KT 9999 FEW010 19/11 Q1011

2010/08/10 08:50
ESDF 100850Z AUTO 26005KT 210V320 9999NDV FEW032/// 19/11 Q1017

2010/08/10 08:50
ESGG 100850Z 22012KT 9999 SCT025 BKN035 18/11 Q1015

2010/08/10 08:50
ESGJ 100850Z 25011KT 9999 FEW020 SCT041 17/12 Q1015

2010/08/10 08:50
ESGP 100850Z 21010KT 9999 FEW030 BKN046 OVC062 18/13 Q1014

2010/08/10 08:50
ESKN 100850Z 25009KT 220V290 9999 BKN020 18/14 Q1013

2010/08/10 08:50
ESMK 100850Z VRB02KT CAVOK 21/11 Q1016

2010/08/10 08:50
ESMS 100850Z 20006KT 140V240 9999 FEW035 19/11 Q1016

2010/08/10 08:50
ESMX 100850Z 22008KT 9999 FEW018 SCT023 BKN039 17/13 Q1016

2010/08/10 08:50
ESNN 100850Z 04005KT 360V110 9999 FEW007 SCT009 OVC011 17/15 Q1010

2010/08/10 08:50
ESNO 100850Z AUTO 03006KT 9999NDV FEW008/// SCT012/// BKN015/// 15/13 Q1010

2010/08/10 08:50
ESNQ 100850Z 15003KT 130V190 9999 SCT018 BKN028 14/09 Q1011

2010/08/10 08:50
ESNS 100850Z 01005KT 5000 RA FEW004 SCT006 BKN008 13/13 Q1011

2010/08/10 08:50
ESNU 100850Z 01006KT 4300 BR FEW005 SCT008 BKN010 15/13 Q1010

2010/08/10 08:50
ESOK 100850Z AUTO 22004KT 190V260 9999NDV FEW020/// OVC024/// 17/14 Q1012

2010/08/10 08:50
ESOW 100850Z 23012KT 9999 OVC010 17/15 Q1012

2010/08/10 08:50
ESPA 100850Z 01005KT 340V050 9999 BKN015 14/12 Q1011

2010/08/10 08:50
ESSA 100850Z 24011KT 9999 FEW009 BKN011 17/16 Q1011 BECMG BKN015

2010/08/10 08:50
ESSB 100850Z 24009KT 9999 BKN008 17/15 Q1012

2010/08/10 08:50
ESSP 100850Z 25010KT 9999 FEW019 BKN021 17/13 Q1013

2010/08/10 08:50
ESSV 100850Z 24011KT 9999 FEW018 BKN039 17/13 Q1015

2010/08/10 08:50
EDAC 100850Z VRB02KT CAVOK 24/15 Q1017

2010/08/10 08:50
EDAH 100850Z 17007KT 9999 SCT033 20/16 Q1017

2010/08/10 08:50
EDLN 100850Z VRB04KT CAVOK 22/16 Q1014

2010/08/10 08:50
EDLP 100850Z 19007KT CAVOK 23/10 Q1015

2010/08/10 08:50
EDMA 100850Z 28003KT 220V020 CAVOK 19/15 Q1018

2010/08/10 08:50
EDNY 100850Z VRB03KT 9999 FEW035 20/14 Q1018

2010/08/10 08:50
EDXW 100850Z 17013KT 9999 FEW011 20/16 Q1013

2010/08/10 08:50
EGBB 100850Z 23008KT 190V260 9999 BKN007 16/13 Q1009

2010/08/10 08:50
EGCC 100850Z 23015KT 9999 FEW021 SCT038 16/09 Q1008

2010/08/10 08:50
EGGP 100850Z 25014KT 9999 FEW035 17/08 Q1007

2010/08/10 08:50
EGHD 100850Z 14004KT 100V160 0400 +DZ FG VV/// 14/14 Q1011

2010/08/10 08:50
EGHE 100850Z 23020KT 2500 -RA FEW002 SCT005 BKN009 16/16 Q1010

2010/08/10 08:50
EGJB 100850Z 23010KT 0150 R27/0400 -RA FG OVC000 16/16 Q1013

2010/08/10 08:50
EGJJ 100850Z 24011KT 200V270 9999 3000N -DZ SCT001 BKN002 17/17 Q1013 TEMPO 3000

2010/08/10 08:50
EGKK 100850Z 26010KT 9000 -RA SCT005 BKN009 BKN016 15/14 Q1011 RERA

2010/08/10 08:50
EGLL 100850Z 26010KT 9999 -RA SCT032 BKN036 14/12 Q1011

2010/08/10 08:50
EGNS 100850Z 24014KT 9999 FEW013 SCT016 BKN024 14/11 Q1006 NOSIG

2010/08/10 08:50
EGNV 100850Z 19007KT 9000 FEW009 SCT025 BKN049 15/13 Q1006

2010/08/10 08:50
EGPF 100850Z 19006KT 9999 -RA FEW010 SCT020 BKN045 13/10 Q1004

2010/08/10 08:50
EGPH 100850Z VRB03KT 9999 -SHRA SCT020 BKN045 14/10 Q1004 RERA

2010/08/10 08:50
EGPK 100850Z 25013KT 9999 -SHRA FEW005 SCT014CB BKN018 13/11 Q1003

2010/08/10 08:50
EGSS 100850Z 25006KT 9000 -RADZ FEW004 SCT012 BKN024 14/13 Q1011 RERA

2010/08/10 08:50
EGTE 100850Z 15005KT 5000 -RADZ BR BKN007 14/13 Q1011

2010/08/10 08:50
EGTG 100850Z 22011KT 9999 -RA SCT016 14/12 Q1011

2010/08/10 09:00
LQSA 100900Z VRB02KT 9999 FEW040 22/15 Q1019 NOSIG

2010/08/10 08:50
EDAC 100850Z VRB02KT CAVOK 24/15 Q1017

2010/08/10 08:50
EDAH 100850Z 17007KT 9999 SCT033 20/16 Q1017

2010/08/10 08:50
EDFH 100850Z 24007KT 190V290 9999 FEW045 BKN300 22/10 Q1017

2010/08/10 08:50
EDHI 100850Z 16006KT 110V230 CAVOK 22/14 Q1015

2010/08/10 08:50
EDHL 100850Z 16007KT 130V200 CAVOK 22/20 Q1015

2010/08/10 08:50
EDLN 100850Z VRB04KT CAVOK 22/16 Q1014

2010/08/10 08:50
EDLP 100850Z 19007KT CAVOK 23/10 Q1015

2010/08/10 08:50
EDLW 100850Z 21007KT CAVOK 22/13 Q1015

2010/08/10 08:50
EDMA 100850Z 28003KT 220V020 CAVOK 19/15 Q1018

2010/08/10 08:50
EDMO 100850Z 31005KT 270V340 CAVOK 20/14 Q1019

2010/08/10 08:50
EDNY 100850Z VRB03KT 9999 FEW035 20/14 Q1018

2010/08/10 08:50
EDOP 100850Z 19007KT 130V230 9999 FEW025 SCT070 22/15 Q1016

2010/08/10 08:50
EDQM 100850Z 20006KT 170V230 9999 FEW034 BKN059 20/11 Q1019

2010/08/10 08:50
EDSB 100850Z 23004KT 170V280 CAVOK 22/16 Q1017

2010/08/10 08:50
EDTL 100850Z 23004KT 200V270 CAVOK 22/15 Q1017

2010/08/10 08:50
EDVE 100850Z VRB04KT CAVOK 22/15 Q1016

2010/08/10 08:50
EDVK 100850Z 19005KT 150V240 CAVOK 22/12 Q1016

2010/08/10 08:50
EDXW 100850Z 17013KT 9999 FEW011 20/16 Q1013

2010/08/10 08:50
EGJJ 100850Z 24011KT 200V270 9999 3000N -DZ SCT001 BKN002 17/17 Q1013 TEMPO 3000

2010/08/10 08:55
EHEH 100855Z AUTO 19005KT 9999NDV FEW130 SCT300 21/14 Q1014 BLU BLU NOSIG

2010/08/10 08:50
EKBI 100850Z 17008KT 120V200 9999 FEW025 BKN250 19/14 Q1014

2010/08/10 08:50
EKCH 100850Z 18006KT 130V230 9999 FEW025 20/13 Q1016 NOSIG

2010/08/10 08:50
EKEB 100850Z AUTO 17012KT 9999NDV FEW014/// 20/15 Q1013

2010/08/10 08:50
EKRK 100850Z AUTO 14008KT 100V160 9999NDV NCD 20/11 Q1016

2010/08/10 08:50
EKRN 100850Z AUTO 13007KT 090V150 9999NDV BKN034/// BKN056/// 18/15 Q1017

2010/08/10 08:50
EKVD 100850Z 19010KT 160V220 9999 SCT029 20/13 Q1014

2010/08/10 08:50
EKYT 100850Z 21009KT 9999 FEW045 21/12 Q1013 NOSIG

2010/08/10 08:50
EBAW 100850Z 22006KT 170V260 CAVOK 20/13 Q1014 NOSIG

2010/08/10 08:50
EBBR 100850Z 21006KT CAVOK 20/12 Q1014 NOSIG

2010/08/10 08:50
EBCI 100850Z 19006KT 150V240 CAVOK 21/11 Q1015 NOSIG

2010/08/10 08:50
EBOS 100850Z 19012KT 150V220 9999 BKN020 19/14 Q1013 TEMPO 4500 RA BKN012

2010/08/10 08:50
EDFH 100850Z 24007KT 190V290 9999 FEW045 BKN300 22/10 Q1017

2010/08/10 08:50
EDHI 100850Z 16006KT 110V230 CAVOK 22/14 Q1015

2010/08/10 08:50
EDHL 100850Z 16007KT 130V200 CAVOK 22/20 Q1015

2010/08/10 08:50
EDLW 100850Z 21007KT CAVOK 22/13 Q1015

2010/08/10 08:50
EDMO 100850Z 31005KT 270V340 CAVOK 20/14 Q1019

2010/08/10 08:50
EDOP 100850Z 19007KT 130V230 9999 FEW025 SCT070 22/15 Q1016

2010/08/10 08:50
EDQM 100850Z 20006KT 170V230 9999 FEW034 BKN059 20/11 Q1019

2010/08/10 08:50
EDSB 100850Z 23004KT 170V280 CAVOK 22/16 Q1017

2010/08/10 08:50
EDTL 100850Z 23004KT 200V270 CAVOK 22/15 Q1017

2010/08/10 08:50
EDVE 100850Z VRB04KT CAVOK 22/15 Q1016

2010/08/10 08:50
EDVK 100850Z 19005KT 150V240 CAVOK 22/12 Q1016

2010/08/10 08:50
EGBE 100850Z 21009KT 180V240 9999 -RA FEW006 SCT009 15/14 Q1009

2010/08/10 08:50
EGBJ 100850Z 21007KT 9999 -RA FEW015 15/13 Q1010

2010/08/10 08:50
EGSC 100850Z 21006KT 150V250 9999 BKN039 15/12 Q1010

2010/08/10 08:50
EGSH 100850Z 26008KT 230V300 9999 -RA FEW010 BKN039 15/13 Q1010

2010/08/10 08:55
EHEH 100855Z AUTO 19005KT 9999NDV FEW130 SCT300 21/14 Q1014 BLU BLU NOSIG

2010/08/10 08:50
ENGC 100850Z 10020KT 9999 SCT015 BKN030 14/12 Q1008

2010/08/10 08:50
ENHE 100850Z 05012KT 9999 OVC016 10/08 Q1012

2010/08/10 08:50
LOWG 100850Z VRB03KT 9999 FEW038 23/16 Q1018 NOSIG

2010/08/10 08:50
LOWI 100850Z VRB02KT 9999 FEW070 21/13 Q1018 NOSIG

2010/08/10 08:50
LOWK 100850Z VRB02KT 9999 FEW015 SCT300 20/15 Q1019 NOSIG

2010/08/10 08:50
LOWL 100850Z VRB02KT 9999 FEW035 21/14 Q1018 NOSIG

2010/08/10 08:50
LOWS 100850Z 15004KT 090V190 9999 FEW060 SCT300 22/11 Q1018 NOSIG

2010/08/10 08:50
LOWW 100850Z 06004KT 020V090 9999 FEW060 21/16 Q1018 NOSIG

2010/08/10 08:50
LSGC 100850Z VRB04KT 9999 FEW040 20/10 Q1020

2010/08/10 08:50
LSGG 100850Z 06006KT 010V100 9999 FEW035 SCT350 23/13 Q1018 NOSIG

2010/08/10 08:50
LSGS 100850Z VRB01KT 9999 FEW070 24/10 Q1018

2010/08/10 08:50
LSZA 100850Z VRB01KT 9999 SCT045 25/16 Q1017 NOSIG

2010/08/10 08:50
LSZB 100850Z VRB02KT 9999 SCT080 22/15 Q1018 NOSIG

2010/08/10 08:50
LSZG 100850Z VRB01KT 9999 FEW045 SCT082 21/13 Q1018 NOSIG

2010/08/10 08:50
LSZH 100850Z 36003KT 290V060 9999 FEW030 22/14 Q1018 NOSIG

2010/08/10 08:50
LSZR 100850Z VRB02KT 9999 FEW040 21/15 Q1018 NOSIG RMK E

2010/08/10 08:50
LSZS 100850Z VRB02KT 9999 SCT040 16/09 Q1022

2010/08/10 08:50
BGJN 100850Z AUTO 18002KT 9999NDV BKN018/// OVC024/// 08/04 Q1008

2010/08/10 08:50
BGKK 100850Z 07018KT 9999 -DZ SCT020 SCT035 BKN045 07/04 Q1013

2010/08/10 08:50
BGSF 100850Z 04007KT 9999 BKN023 08/04 Q1007

2010/08/10 08:55
KBAD 100855Z AUTO 14003KT 10SM CLR 25/23 A2991 RMK AO2 SLP129 T02530230 58003

2010/08/10 08:53
KBAF 100853Z 00000KT 3SM BR CLR 22/21 A2992 RMK AO2 RAE0759 SLP128 P0001 60008 T02170206 55003

2010/08/10 08:53
KDTS 100853Z AUTO 04005KT 10SM CLR 28/23 A2989 RMK AO2 SLP121 T02780233 56009

2010/08/10 08:55
KEDW 100855Z AUTO 18007KT 10SM CLR 18/M03 A2988 RMK AO2 SLP071 T01791027 50000

2010/08/10 08:55
KGRK 100855Z 16006KT 7SM FEW060 28/23 A2992 RMK SLP106 56014

2010/08/10 08:55
KGUS 100855Z AUTO 14003KT 10SM FEW032 23/23 A2995 RMK AO2 SLP135 T02310231 58002

2010/08/10 08:55
KHST 100855Z AUTO 17004KT 10SM SCT060 26/23 A2987 RMK AO2 RAB0801E0810 SLP115 P0000 60000 T02560226 56014

2010/08/10 08:55
KIAB 100855Z AUTO 15008KT 10SM CLR 28/21 A2989 RMK AO2 SLP102 T02770207 58012 $

2010/08/10 08:55
KOFF 100855Z AUTO 10005KT 10SM SCT090 27/25 A2985 RMK AO2 SLP090 T02650250 53002 $

2010/08/10 08:53
KTOI 100853Z AUTO 00000KT 6SM BR CLR 23/22 A2996 RMK AO2 SLP139 T02330222 55003

2010/08/10 08:53
PHJR 100853Z AUTO 07005KT 10SM CLR 25/17 A3011 RMK AO2 SLP204 T02500172 51012 TSNO

2010/08/10 08:53
TIST 100853Z AUTO 10010KT 10SM FEW060 28/24 A2992 RMK AO2 SLP131 T02830244 56005 TSNO

2010/08/10 08:53
TISX 100853Z AUTO 08006KT 10SM CLR 26/23 A2992 RMK AO2 SLP132 60001 T02610233 55004 TSNO

2010/08/10 08:55
TXKF 100855Z 17008KT 9999 FEW015 FEW180 SCT300 27/23 Q1020

2010/08/10 08:50
EGLL 100850Z 26010KT 9999 -RA SCT032 BKN036 14/12 Q1011 NOSIG

2010/08/10 08:50
EGNM 100850Z 24007KT 200V280 9999 SCT008 SCT045 14/12 Q1007

2010/08/10 08:50
EGNS 100850Z 24014KT 9999 FEW013 SCT016 BKN024 14/11 Q1006 NOSIG

2010/08/10 08:50
EGNT 100850Z 21004KT 120V260 9999 SCT028 19/12 Q1005

2010/08/10 08:50
EGNV 100850Z 19007KT 9000 FEW009 SCT025 BKN049 15/13 Q1006

2010/08/10 08:50
EGNX 100850Z 23010KT 9999 FEW015 SCT045 16/12 Q1008

2010/08/10 08:50
EGPB 100850Z 16004KT 9999 FEW012 FEW015CB 15/13 Q1004 TEMPO 4000 TSRA BKN012CB

2010/08/10 08:50
EGPD 100850Z 20005KT 160V250 9999 FEW020 15/10 Q1004 NOSIG

2010/08/10 08:50
EGPF 100850Z 19006KT 9999 -RA FEW010 SCT020 BKN045 13/10 Q1004

2010/08/10 08:50
EGPH 100850Z VRB03KT 9999 -SHRA SCT020 BKN045 14/10 Q1004 RERA

2010/08/10 08:50
EGPK 100850Z 25013KT 9999 -SHRA FEW005 SCT014CB BKN018 13/11 Q1003

2010/08/10 08:50
EGTE 100850Z 15005KT 5000 -RADZ BR BKN007 14/13 Q1011

2010/08/10 08:50
EGTG 100850Z 22011KT 9999 -RA SCT016 14/12 Q1011

2010/08/10 08:50
EGAC 100850Z 26010KT 9999 FEW015 SCT021 15/10 Q1005

2010/08/10 08:50
EGGP 100850Z 25014KT 9999 FEW035 17/08 Q1007

2010/08/10 08:50
EGGW 100850Z 25009KT 9999 BKN045 14/12 Q1010

2010/08/10 08:50
EGHE 100850Z 23020KT 2500 -RA FEW002 SCT005 BKN009 16/16 Q1010

2010/08/10 08:50
EGLC 100850Z 26008KT 9999 -RA SCT012 BKN018 15/13 Q1011 RERA

2010/08/10 08:50
EGNT 100850Z 21004KT 120V260 9999 SCT028 19/12 Q1005

2010/08/10 08:50
EGPF 100850Z 19006KT 9999 -RA FEW010 SCT020 BKN045 13/10 Q1004

2010/08/10 08:50
EGSS 100850Z 25006KT 9000 -RADZ FEW004 SCT012 BKN024 14/13 Q1011 RERA

2010/08/10 08:50
EGTC 100850Z 21007KT 9999 FEW046 14/11 Q1009

2010/08/10 08:50
EGAA 100850Z 26014KT 9999 SCT019 13/10 Q1005

2010/08/10 08:50
EGBB 100850Z 23008KT 190V260 9999 BKN007 16/13 Q1009

2010/08/10 08:50
EGCC 100850Z 23015KT 9999 FEW021 SCT038 16/09 Q1008

2010/08/10 08:50
EGFF 100850Z 23006KT 190V250 6000 -RA FEW008 BKN012 15/13 Q1010

2010/08/10 08:50
EGGD 100850Z 22008KT 9999 FEW006 SCT049 13/12 Q1011

2010/08/10 08:50
EGGP 100850Z 25014KT 9999 FEW035 17/08 Q1007

2010/08/10 08:50
EGGW 100850Z 25009KT 9999 BKN045 14/12 Q1010

2010/08/10 08:50
EGHD 100850Z 14004KT 100V160 0400 +DZ FG VV/// 14/14 Q1011

2010/08/10 08:50
EGHH 100850Z 27007KT 9999 -RA FEW018 BKN045 15/14 Q1012

2010/08/10 08:50
EGHI 100850Z 27005KT 220V290 9000 -RA FEW012 SCT020 BKN035 14/12 Q1012

2010/08/10 08:50
EGJB 100850Z 23010KT 0150 R27/0400 -RA FG OVC000 16/16 Q1013

2010/08/10 08:50
EGJJ 100850Z 24011KT 200V270 9999 3000N -DZ SCT001 BKN002 17/17 Q1013 TEMPO 3000

2010/08/10 08:50
EGKB 100850Z 29007KT 260V320 8000 RA BKN010 14/13 Q1011 RERA

2010/08/10 08:50
EGKK 100850Z 26010KT 9000 -RA SCT005 BKN009 BKN016 15/14 Q1011 RERA

2010/08/10 08:50
EGLL 100850Z 26010KT 9999 -RA SCT032 BKN036 14/12 Q1011

2010/08/10 08:50
EGMC 100850Z 23009KT 8000 -RA FEW006 SCT010 BKN025 17/16 Q1010

2010/08/10 08:54
CYVM 100854Z AUTO 00000KT 2 1/2SM BKN002 03/03 A2993 RMK VSBY VRBL 1.4V9.+

2010/08/10 09:00
OYSY 100900Z 26007KT 220V330 CAVOK 40/13 Q1005

2010/08/10 08:50
LIEA 100850Z 29006KT 250V340 CAVOK 29/18 Q1016

2010/08/10 08:45
LIEE 100845Z 24004KT CAVOK 30/10 Q1015 NOSIG

2010/08/10 08:50
LIEO 100850Z 07004KT 020V130 CAVOK 27/14 Q1016

2010/08/10 08:50
LIMC 100850Z VRB02KT 9999 BKN070 25/18 Q1017 NOSIG

2010/08/10 08:50
LIME 100850Z VRB02KT 9999 SCT060 24/17 Q1017

2010/08/10 08:50
LIMF 100850Z 05005KT 9999 SCT050 SCT110 24/17 1017

2010/08/10 08:50
LIMJ 100850Z 16004KT 9999 FEW020 25/21 Q1016

2010/08/10 08:50
LIML 100850Z VRB03KT 9999 FEW040 25/19 Q1016 NOSIG

2010/08/10 08:45
LIRA 100845Z 34003KT CAVOK 28/16 Q1015

2010/08/10 08:50
LIRF 100850Z 27006KT 180V320 CAVOK 28/19 Q1015 NOSIG

2010/08/10 08:50
LIRN 100850Z VRB02KT 9999 SCT070 27/21 Q1015

2010/08/10 08:45
LIRP 100845Z 13001KT 9999 SCT020 24/20 Q1016 NOSIG

2010/08/10 08:50
LIRQ 100850Z VRB02KT 8000 NSC 26/20 Q1016

2010/08/10 08:50
LIBD 100850Z 36010KT 330V030 CAVOK 28/15 Q1014

2010/08/10 08:45
LIBR 100845Z 33021KT CAVOK 27/21 Q1013 NOSIG

2010/08/10 08:50
LICC 100850Z 07005KT CAVOK 30/17 Q1014

2010/08/10 08:50
LICJ 100850Z 03010KT CAVOK 26/17 Q1016

2010/08/10 08:50
LIPB 100850Z 14002KT 9999 SCT060TCU 26/15 Q1017

2010/08/10 08:50
LIPE 100850Z VRB03KT CAVOK 26/19 Q1016

2010/08/10 08:45
LIPH 100845Z 08005KT CAVOK 27/19 Q1016

2010/08/10 08:50
LIPK 100850Z VRB02KT CAVOK 25/18 Q1015

2010/08/10 08:50
LIPQ 100850Z 36004KT CAVOK 27/19 Q1015

2010/08/10 08:45
LIPR 100845Z 31001KT CAVOK 27/22 Q1015

2010/08/10 08:45
LIPX 100845Z 19003KT 9999 SCT050 28/19 Q1016

2010/08/10 08:50
LIPZ 100850Z VRB03KT CAVOK 26/20 Q1016

2010/08/10 08:54
KNFG 100854Z 04003KT BR CLR 11/09 A2990 RMK AO2 SLP125 T01110094 50000 

2010/08/10 08:50
ENBS 100850Z 02005KT 9999 FEW020 BKN035 11/06 Q1012

2010/08/10 08:50
ENHK 100850Z VRB02KT 9999 NSC 15/09 Q1011

2010/08/10 08:50
ENLK 100850Z 02008KT 9999 BKN008 13/10 Q1011

2010/08/10 08:50
ENMH 100850Z 33004KT 9999 BKN035 12/08 Q1012

2010/08/10 08:50
ENNK 100850Z 25005KT 9999 SCT050 15/12 Q1010 

2010/08/10 08:50
ENNM 100850Z VRB02KT 9999 BKN004 13/12 Q1011

2010/08/10 08:54
KMTP 100854Z AUTO 00000KT 24/19 A2993 RMK AO2 SLP134 T02390194 51003 PWINO TSNO  REQ NYCMTRMTP 

2010/08/10 08:55
KBAD 100855Z AUTO 14003KT 10SM CLR 25/23 A2991 RMK AO2 SLP129 T02530230 58003

2010/08/10 08:55
KBLV 100855Z AUTO 17003KT 10SM CLR 26/26 A2991 RMK AO2 SLP124 T02580256 58008

2010/08/10 08:55
KCBM 100855Z AUTO 00000KT 9SM CLR 25/25 A2995 RMK AO2 SLP141 T02500250 56003 $

2010/08/10 08:55
KCEF 100855Z AUTO 22003KT 9SM BKN065 21/21 A2991 RMK AO2 VIS 2 1/2 RWY05 SLP130 60007 T02140208 55002 $

2010/08/10 08:55
KEDW 100855Z AUTO 18007KT 10SM CLR 18/M03 A2988 RMK AO2 SLP071 T01791027 50000

2010/08/10 08:51
KEFD 100851Z 00000KT FEW250 26/25 A2993

2010/08/10 08:55
KGRF 100855Z AUTO 18007KT 10SM OVC011 13/11 A2996 RMK AO2 SLP147 T01340110 58005

2010/08/10 08:55
KGRK 100855Z 16006KT 7SM FEW060 28/23 A2992 RMK SLP106 56014

2010/08/10 08:55
KGUS 100855Z AUTO 14003KT 10SM FEW032 23/23 A2995 RMK AO2 SLP135 T02310231 58002

2010/08/10 08:55
KHMN 100855Z 00000KT 10SM CLR 20/12 A3002 RMK AO2A SLP082 T02040117 52001 $

2010/08/10 08:55
KHST 100855Z AUTO 17004KT 10SM SCT060 26/23 A2987 RMK AO2 RAB0801E0810 SLP115 P0000 60000 T02560226 56014

2010/08/10 08:55
KIAB 100855Z AUTO 15008KT 10SM CLR 28/21 A2989 RMK AO2 SLP102 T02770207 58012 $

2010/08/10 08:55
KLRF 100855Z AUTO 00000KT 10SM CLR 27/26 A2991 RMK AO2 SLP126 T02670258 57006

2010/08/10 08:55
KMGE 100855Z AUTO 34003KT 10SM CLR 25/21 A3002 RMK AO2 SLP153 T02520214 56004 $

2010/08/10 08:55
KMMT 100855Z AUTO 00000KT 8SM R32/5000V5500FT BKN011 23/23 A3000 RMK AO2 CIG 010V015 SLP158 T02340232 57007

2010/08/10 08:55
KMUI 100855Z AUTO 00000KT 8SM BKN170 22/22 A2994 RMK AO2 SLP134 T02240220 55001 $

2010/08/10 08:52
CYYE 100852Z 00000KT 1SM BR BKN050 OVC150 RMK FG5SC2AC1

2010/08/10 08:50
EGBE 100850Z 21009KT 180V240 9999 -RA FEW006 SCT009 15/14 Q1009

2010/08/10 08:50
EGBJ 100850Z 21007KT 9999 -RA FEW015 15/13 Q1010

2010/08/10 08:50
EGCN 100850Z 24013KT 9999 FEW018 18/11 Q1008

2010/08/10 08:50
EGSC 100850Z 21006KT 150V250 9999 BKN039 15/12 Q1010

2010/08/10 08:50
EGSH 100850Z 26008KT 230V300 9999 -RA FEW010 BKN039 15/13 Q1010

2010/08/10 08:55
OAHR 100855Z 36010G21KT CAVOK 35/M01 Q1010 RMK SKC VIS MIN 9999 BLU

2010/08/10 08:50
LOXZ 100850Z VRB02KT 30KM FEW035CU SCT270CI 20/15 Q1019 NOSIG RMK SCT

2010/08/10 08:54
CYNM 100854Z AUTO 30004KT 9SM -RA FEW027 FEW035 FEW045 FEW053 14/12 A2991

2010/08/10 08:50
LOWW 100850Z 06004KT 020V090 9999 FEW060 21/16 Q1018 NOSIG

2010/08/10 08:50
LOWL 100850Z VRB02KT 9999 FEW035 21/14 Q1018 NOSIG

2010/08/10 08:50
LOWS 100850Z 15004KT 090V190 9999 FEW060 SCT300 22/11 Q1018 NOSIG

2010/08/10 08:50
LOWI 100850Z VRB02KT 9999 FEW070 21/13 Q1018 NOSIG

2010/08/10 08:50
LOWG 100850Z VRB03KT 9999 FEW038 23/16 Q1018 NOSIG

2010/08/10 08:50
LOWK 100850Z VRB02KT 9999 FEW015 SCT300 20/15 Q1019 NOSIG

2010/08/10 08:50
EFJO 100850Z 18008KT 140V220 9999 FEW030 BKN063 22/15 Q1011

2010/08/10 08:50
EFLP 100850Z 21009KT 150V260 9999 FEW016 SCT055 21/17 Q1012

2010/08/10 08:50
EFMI 100850Z AUTO 17009KT 130V220 9999 FEW016 SCT019 BKN070 22/17 Q1011

2010/08/10 08:50
EFSA 100850Z AUTO 20006KT 140V280 9999NDV FEW028 BKN041 BKN065 22/16 Q1011

2010/08/10 08:50
EFUT 100850Z 23004KT 210V280 9999 -SHRA FEW022 SCT028CB BKN053 20/18 Q1012

2010/08/10 08:50
EFVR 100850Z AUTO 18007KT 130V230 9999 SCT025 BKN050 22/16 Q1011

2010/08/10 08:50
EBLG 100850Z 21009KT CAVOK 22/12 Q1015 NOSIG

2010/08/10 08:55
EGUL 100855Z AUTO 20007KT 9999 OVC042 14/12 A2981 RMK AO2 RAE0807DZB0807E0809 SLP095 P0000 60004 T01430117 50000

2010/08/10 08:50
ELLX 100850Z 15005KT 100V200 CAVOK 22/12 Q1016 NOSIG

2010/08/10 08:50
ENAL 100850Z 04010KT 9999 FEW010 BKN035 15/12 Q1010

2010/08/10 08:50
ENAT 100850Z 17007KT 9999 FEW030 BKN050 17/08 Q1011

2010/08/10 08:50
ENBL 100850Z VRB02KT 9999 FEW018 SCT040 BKN055 15/11 Q1009

2010/08/10 08:50
ENCN 100850Z 22003KT 150V270 9999 OVC015 17/14 Q1012 REDZ

2010/08/10 08:50
ENEV 100850Z 33006KT 300V010 9999 FEW025 14/10 Q1010

2010/08/10 08:50
ENFL 100850Z VRB01KT 9999 FEW010 BKN043 16/13 Q1010

2010/08/10 08:50
ENHD 100850Z 13012KT 9999 FEW025 BKN053 17/11 Q1009

2010/08/10 08:50
ENKB 100850Z VRB02KT 9999 -RA SCT007 SCT070 14/13 Q1010

2010/08/10 08:50
ENKR 100850Z 01006KT 9999 BKN009 10/08 Q1013

2010/08/10 08:50
ENML 100850Z 12002KT 9999 FEW010 BKN037 17/13 Q1010

2010/08/10 08:50
ENNA 100850Z 19010KT 9999 FEW020 SCT047 17/09 Q1012

2010/08/10 08:50
ENOA 100850Z 12023KT 4000 -RA BR BKN008 14/13 Q1007

2010/08/10 08:50
ENRO 100850Z 00000KT 9999 -DZ SCT003 BKN009 14/13 Q1011

2010/08/10 08:50
ENRY 100850Z 20013KT 160V220 9999 FEW020 19/13 Q1011 NOSIG

2010/08/10 08:50
ENSB 100850Z 27010KT 9999 FEW025 BKN035 04/M00 Q1006 NOSIG

2010/08/10 08:50
ENTC 100850Z 03007KT 9999 FEW009 SCT050 12/09 Q1011 NOSIG

2010/08/10 08:50
ENTO 100850Z 21014KT 9999 FEW010 19/11 Q1011

2010/08/10 08:55
ETEB 100855Z AUTO 36005KT 9999 CLR 22/12 A3007 RMK AO2 SLP170 T02150117 53003

2010/08/10 08:45
LIBR 100845Z 33021KT CAVOK 27/21 Q1013 NOSIG

2010/08/10 08:50
LICJ 100850Z 03010KT CAVOK 26/17 Q1016

2010/08/10 08:50
LIPB 100850Z 14002KT 9999 SCT060TCU 26/15 Q1017

2010/08/10 08:50
LIPE 100850Z VRB03KT CAVOK 26/19 Q1016

2010/08/10 08:45
LIPH 100845Z 08005KT CAVOK 27/19 Q1016

2010/08/10 08:50
LIPK 100850Z VRB02KT CAVOK 25/18 Q1015

2010/08/10 08:45
LIPR 100845Z 31001KT CAVOK 27/22 Q1015

2010/08/10 09:00
GVNP 100900Z 03005KT 9999 FEW023 SCT031 25/21 Q1015 NOSIG

2010/08/10 08:50
EBAW 100850Z 22006KT 170V260 CAVOK 20/13 Q1014 NOSIG

2010/08/10 08:50
EBBR 100850Z 21006KT CAVOK 20/12 Q1014 NOSIG

2010/08/10 08:50
EBCI 100850Z 19006KT 150V240 CAVOK 21/11 Q1015 NOSIG

2010/08/10 08:50
EBLG 100850Z 21009KT CAVOK 22/12 Q1015 NOSIG

2010/08/10 08:50
EBOS 100850Z 19012KT 150V220 9999 BKN020 19/14 Q1013 TEMPO 4500 RA BKN012

2010/08/10 08:50
ELLX 100850Z 15005KT 100V200 CAVOK 22/12 Q1016 NOSIG

2010/08/10 08:55
KQB6 100855Z AUTO VRB04KT 12SM SCT085 BKN100 26/14 A2982 RMK AO2 LTG DSNT NE SLP990 T02550142 57013 PNO $

2010/08/10 08:55
KQD9 100855Z 27009KT 9000 -TSRA FEW030 SCT036CB SCT085 BKN110 BKN140 24/19 A2984 RMK CB ALQDS MOV E SLP048 WND DATA ESTMD ALSTG/SLP ESTMD 60000 55011

2010/08/10 08:55
KQGX 100855Z 22009G16KT 9000 HZ CLR 46/11 A2950 RMK AO2A SLP990 58014

2010/08/10 08:55
KQLD 100855Z AUTO VRB05KT 9999 SCT090 BKN100 BKN130 21/12 A3021 RMK AO2 SLP133 T02070118 58009

2010/08/10 08:55
KQMG 100855Z AUTO 18012KT 10SM CLR 24/15 A3005 RMK AO2 SLP093 T02390146 54000

2010/08/10 08:55
KQWM 100855Z 08006KT 9999 FEW180 FEW220 45/04 A2955 RMK SLP993 QNH1000 58005

2010/08/10 08:53
KMWT 100853Z AUTO 00000KT 10SM CLR 24/23 A2992 RMK AO2 SLP115 T02440233 56006 TSNO 

2010/08/10 08:52
KHFF 100852Z AUTO 00000KT 8SM R22/5000V5500FT CLR 23/23 A3003 RMK AO2 SLP164 $

2010/08/10 08:50
KLSF 100850Z AUTO 00000KT 2SM R33/2000V5000FT BR CLR 22/22 A2996 RMK AO2 SLP144 PNO $

2010/08/10 08:52
KLSF 100852Z AUTO 00000KT 3SM R33/2600V5500FT BR CLR 22/22 A2996 RMK AO2 SLP144 PNO $

2010/08/10 08:51
KMTC 100851Z 00000KT 1SM R19/1000FT BCFG CLR 20/20 A2994 RMK VIS S 1/4

2010/08/10 08:50
BGBW 100850Z AUTO 06002KT 2100NDV BR SCT003/// BKN005/// 08/07 Q1009

2010/08/10 08:50
BGGH 100850Z 21008KT 0200 RA FG VV002 08/08 Q1007

2010/08/10 08:55
KBIX 100855Z AUTO 03004KT 10SM CLR 26/25 A2991 RMK AO2 SLPNO T02560250 56005 $

2010/08/10 08:55
KCBM 100855Z AUTO 00000KT 9SM CLR 25/25 A2995 RMK AO2 SLP141 T02500250 56003 $

2010/08/10 08:55
KFSI 100855Z AUTO 18006KT 10SM CLR 27/20 A2990 RMK AO2 SLP097 T02660199 56009

2010/08/10 08:55
KMUI 100855Z AUTO 00000KT 8SM BKN170 22/22 A2994 RMK AO2 SLP134 T02240220 55001 $

2010/08/10 08:55
KRIV 100855Z AUTO 32003KT 10SM CLR 14/10 A2991 RMK AO2 SLP123 T01380105 58003

2010/08/10 08:55
KRND 100855Z AUTO 19005KT 10SM FEW013 26/24 A2994 RMK AO2 SLP126 T02640243 56013

2010/08/10 08:55
KSLI 100855Z AUTO 00000KT 7SM CLR 14/14 A2990 RMK AO2 SLP127 T01450143 58001

2010/08/10 08:55
KWRB 100855Z AUTO 00000KT 10SM CLR 23/23 A2999 RMK AO2 SLP151 T02300230 55002

2010/08/10 08:55
KWRI 100855Z AUTO 24003KT 9SM FEW070 23/22 A2991 RMK AO2 SLP128 T02330220 56005 $

2010/08/10 08:50
OAMS 100850Z 27009KT 9999 BKN160 39/M01 Q1006 BLU BLU

2010/08/10 08:53
PABI 100853Z AUTO 19011G16KT 10SM 16/06 A2968 RMK AO2 SLP048 T01560061 402110128 53006 TSNO $

2010/08/10 08:53
PASC 100853Z 05014KT 2SM BR OVC003 03/03 A2975 RMK AO2 SLP074 T00330028 400610028 51008

2010/08/10 08:55
PGUA 100855Z AUTO 09009KT 10SM -RA SCT019 SCT025 BKN034 BKN048 OVC055 27/24 A2993 RMK AO2 RAB0847 CIG 018 RWY24L SLP117 P0000 60000 T02660244 53017 $

2010/08/10 08:54
KACY 100854Z 23004KT 10SM CLR 24/22 A2995 RMK AO2 SLP140 T02440217 56006 $

2010/08/10 08:55
KBAD 100855Z AUTO 14003KT 10SM CLR 25/23 A2991 RMK AO2 SLP129 T02530230 58003

2010/08/10 08:55
KBIX 100855Z AUTO 03004KT 10SM CLR 26/25 A2991 RMK AO2 SLPNO T02560250 56005 $

2010/08/10 08:54
KBOS 100854Z 20007KT 3SM BR FEW040 BKN110 OVC200 21/21 A2989 RMK AO2 TWR VIS 4 VIS 2 E RAE24 SLP120 P0000 60007 T02110206 56012

2010/08/10 08:53
KDAB 100853Z 12005KT 10SM FEW020 27/24 A2993 RMK AO2 SLP133 T02670239 56009

2010/08/10 08:53
KFLL 100853Z 14008KT 10SM BKN017 BKN100 26/24 A2986 RMK AO2 RAE0757B24E46 SLP112 P0013 60013 T02610244 56012

2010/08/10 08:55
KHST 100855Z AUTO 17004KT 10SM SCT060 26/23 A2987 RMK AO2 RAB0801E0810 SLP115 P0000 60000 T02560226 56014

2010/08/10 08:53
KMCO 100853Z 10006KT 10SM FEW028 25/23 A2991 RMK AO2 SLP126 T02500228 56009

2010/08/10 08:55
KOFF 100855Z AUTO 10005KT 10SM SCT090 27/25 A2985 RMK AO2 SLP090 T02650250 53002 $

2010/08/10 08:53
KPBI 100853Z 15007KT 10SM SCT023CB BKN060 BKN130 27/23 A2987 RMK AO2 SLP115 CB N-E-S MOV N 60010 T02650226 58009 $

2010/08/10 08:53
KSAV 100853Z 00000KT 10SM FEW019 25/23 A2998 RMK AO2 SLP153 T02500233 56005 $

2010/08/10 08:55
KWRI 100855Z AUTO 24003KT 9SM FEW070 23/22 A2991 RMK AO2 SLP128 T02330220 56005 $

2010/08/10 08:53
TIST 100853Z AUTO 10010KT 10SM FEW060 28/24 A2992 RMK AO2 SLP131 T02830244 56005 TSNO

2010/08/10 08:53
TISX 100853Z AUTO 08006KT 10SM CLR 26/23 A2992 RMK AO2 SLP132 60001 T02610233 55004 TSNO

2010/08/10 08:55
TXKF 100855Z 17008KT 9999 FEW015 FEW180 SCT300 27/23 Q1020

2010/08/10 08:56
CYZP 100856Z AUTO 26011KT 3SM -RA BR FEW013 BKN020 OVC025 14/13 A3003 RMK SLP169

2010/08/10 08:54
KRFD 100854Z 15003KT 10SM FEW180 24/22 A2997 RMK AO2 SLP142 T02390222 55000 $ 

2010/08/10 08:50
ENBN 100850Z 26004KT 5000 BR SCT002 BKN003 13/12 Q1011

2010/08/10 08:50
ENBV 100850Z 09009KT 9999 BKN035 10/08 Q1013

2010/08/10 08:50
ENFG 100850Z 16005KT 9999 SCT004 BKN007 14/12 Q1011

2010/08/10 08:50
ENHF 100850Z 04005KT 9999 FEW035 SCT050 14/09 Q1011

2010/08/10 08:50
ENNO 100850Z VRB02KT 9999 SCT010 BKN015 17/15 Q1010

2010/08/10 08:50
ENOV 100850Z VRB02KT 9999 FEW008 SCT012 BKN027 15/13 Q1010

2010/08/10 08:50
ENSG 100850Z 24003KT 9999 SCT002 BKN020 14/13B Q1010

2010/08/10 08:50
ENSH 100850Z 02013KT 9999 FEW010 14/11 Q1010

2010/08/10 08:50
ENSN 100850Z 21008KT 150V270 9999 FEW023 19/10 Q1011

2010/08/10 08:50
ENSO 100850Z 12010KT 090V150 9999 FEW035 BKN060 18/11 Q1009

2010/08/10 08:50
ENSR 100850Z 35006KT 9999 FEW015 SCT050 13/10 Q1011

2010/08/10 08:50
ENSS 100850Z 11005KT 9999 SCT010 BKN030 09/06 Q1014

2010/08/10 08:50
LIBD 100850Z 36010KT 330V030 CAVOK 28/15 Q1014

2010/08/10 08:50
LICC 100850Z 07005KT CAVOK 30/17 Q1014

2010/08/10 08:50
LIEA 100850Z 29006KT 250V340 CAVOK 29/18 Q1016

2010/08/10 08:45
LIEE 100845Z 24004KT CAVOK 30/10 Q1015 NOSIG

2010/08/10 08:50
LIEO 100850Z 07004KT 020V130 CAVOK 27/14 Q1016

2010/08/10 08:50
LIMC 100850Z VRB02KT 9999 BKN070 25/18 Q1017 NOSIG

2010/08/10 08:50
LIME 100850Z VRB02KT 9999 SCT060 24/17 Q1017

2010/08/10 08:50
LIMF 100850Z 05005KT 9999 SCT050 SCT110 24/17 1017

2010/08/10 08:50
LIMJ 100850Z 16004KT 9999 FEW020 25/21 Q1016

2010/08/10 08:50
LIML 100850Z VRB03KT 9999 FEW040 25/19 Q1016 NOSIG

2010/08/10 08:50
LIPQ 100850Z 36004KT CAVOK 27/19 Q1015

2010/08/10 08:45
LIPX 100845Z 19003KT 9999 SCT050 28/19 Q1016

2010/08/10 08:50
LIPZ 100850Z VRB03KT CAVOK 26/20 Q1016

2010/08/10 08:45
LIRA 100845Z 34003KT CAVOK 28/16 Q1015

2010/08/10 08:50
LIRF 100850Z 27006KT 180V320 CAVOK 28/19 Q1015 NOSIG

2010/08/10 08:50
LIRN 100850Z VRB02KT 9999 SCT070 27/21 Q1015

2010/08/10 08:45
LIRP 100845Z 13001KT 9999 SCT020 24/20 Q1016 NOSIG

2010/08/10 08:50
LIRQ 100850Z VRB02KT 8000 NSC 26/20 Q1016

2010/08/10 08:55
KEGI 100855Z AUTO 05005KT 6SM R18/5000V5500FT BR CLR 24/23 A2992 RMK AO2 SLP130 T02390232 56009 $

2010/08/10 08:52
KNHK 100852Z AUTO 22005KT 10SM CLR 26/21 A2994 RMK AO2 SLP138 T02560211 58006 $

2010/08/10 08:52
KNRB 100852Z AUTO 14011KT 10SM FEW021 SCT026 BKN060 28/23 A2994 RMK AO2 SLP138 T02830228 56007

2010/08/10 08:55
KOFF 100855Z AUTO 10005KT 10SM SCT090 27/25 A2985 RMK AO2 SLP090 T02650250 53002 $

2010/08/10 08:55
KOZR 100855Z AUTO 06005KT 10SM CLR 24/23 A2994 RMK AO2 SLP134 T02370230 56004 $

2010/08/10 08:55
KRDR 100855Z AUTO 00000KT 10SM CLR 20/20 A2987 RMK AO2 SLP126 T01970197 58001 $

2010/08/10 08:55
KRIV 100855Z AUTO 32003KT 10SM CLR 14/10 A2991 RMK AO2 SLP123 T01380105 58003

2010/08/10 08:55
KRND 100855Z AUTO 19005KT 10SM FEW013 26/24 A2994 RMK AO2 SLP126 T02640243 56013

2010/08/10 08:55
KSKF 100855Z AUTO 00000KT 10SM OVC011 27/ A2993 RMK AO2 SLP123 T0265 58013 $

2010/08/10 08:55
KSLI 100855Z AUTO 00000KT 7SM CLR 14/14 A2990 RMK AO2 SLP127 T01450143 58001

2010/08/10 08:55
KSUU 100855Z AUTO 25021G26KT 10SM CLR 13/11 A2982 RMK AO2 PK WND 25027/0809 SLP098 T01280111 58004 RVRNO $

2010/08/10 08:55
KSZL 100855Z AUTO 18004KT 10SM CLR 26/24 A2989 RMK AO2 SLP113 T02600239 56008 PNO $

2010/08/10 08:55
KWRB 100855Z AUTO 00000KT 10SM CLR 23/23 A2999 RMK AO2 SLP151 T02300230 55002

2010/08/10 08:55
KWRI 100855Z AUTO 24003KT 9SM FEW070 23/22 A2991 RMK AO2 SLP128 T02330220 56005 $

2010/08/10 09:00
SBBR 100900Z 00000KT CAVOK 13/04 Q1023

2010/08/10 09:00
SPIM 100900Z 18003KT 8000 BKN015 14/13 Q1016 NOSIG RMK PP000

2010/08/10 08:54
KAKQ 100854Z AUTO 00000KT 6SM BR FEW070 23/22 A2998 RMK AO2 SLP149 T02330217 56003 TSNO 

2010/08/10 08:55
KAFF 100855Z AUTO 36005KT 10SM SCT110 16/12 A3019 RMK AO2 SLP130 T01640115 55000

2010/08/10 08:55
KBIX 100855Z AUTO 03004KT 10SM CLR 26/25 A2991 RMK AO2 SLPNO T02560250 56005 $

2010/08/10 08:55
KBKF 100855Z 24007KT 25SM SCT120 16/14 A3013 RMK SLP134 50000

2010/08/10 08:55
KCOF 100855Z AUTO 12006KT 10SM CLR 26/ A2991 RMK AO2 SLP130 T0262 58008

2010/08/10 08:55
KDAA 100855Z AUTO 00000KT 10SM CLR 22/21 A2994 RMK AO2 SLP139 T02250207 56003

2010/08/10 08:55
KDYS 100855Z AUTO 19009KT 10SM BKN170 28/18 A2994 RMK AO2 SLP109 T02790180 56014 $

2010/08/10 08:55
KFSI 100855Z AUTO 18006KT 10SM CLR 27/20 A2990 RMK AO2 SLP097 T02660199 56009

2010/08/10 08:55
KHFF 100855Z AUTO 00000KT 7SM R22/5000V5500FT CLR 23/22 A3003 RMK AO2 SLP164 T02290221 58002 $

2010/08/10 08:55
KHIF 100855Z 10013KT 10SM CLR 18/03 A3001 RMK AO2A SLP058 T01820034 58003

2010/08/10 08:55
KLHW 100855Z AUTO 00000KT 10SM CLR 24/24 A2997 RMK AO2 SLP149 T02430238 56006

2010/08/10 08:55
KLSF 100855Z AUTO 00000KT 5SM R33/4000V5500FT BR CLR 22/22 A2996 RMK AO2 SLP144 T02240217 55002 PNO $

2010/08/10 08:55
KMTC 100855Z 00000KT 1SM R19/0800FT BCFG CLR 20/20 A2994 RMK VIS S 1/4 SLP142 50000

2010/08/10 08:55
KMUO 100855Z AUTO VRB03KT 10SM CLR 17/13 A2987 RMK AO2 SLP089 T01750133 52002

2010/08/10 08:55
KMXF 100855Z AUTO 00000KT 10SM BKN070 26/24 A2994 RMK AO2 SLP136 T02630239 57003

2010/08/10 08:52
KNFW 100852Z AUTO 21004KT 10SM CLR 29/19 A2992 RMK AO2 SLP116 T02890189 56014

2010/08/10 08:50
BGCO 100850Z 16004KT 9999 SCT180 07/00 Q1013

2010/08/10 08:55
KAFF 100855Z AUTO 36005KT 10SM SCT110 16/12 A3019 RMK AO2 SLP130 T01640115 55000

2010/08/10 08:55
KBKF 100855Z 24007KT 25SM SCT120 16/14 A3013 RMK SLP134 50000

2010/08/10 08:55
KDAA 100855Z AUTO 00000KT 10SM CLR 22/21 A2994 RMK AO2 SLP139 T02250207 56003

2010/08/10 08:55
KDYS 100855Z AUTO 19009KT 10SM BKN170 28/18 A2994 RMK AO2 SLP109 T02790180 56014 $

2010/08/10 08:55
KGTB 100855Z AUTO 21003KT 10SM SCT012 OVC017 21/20 A2993 RMK AO2 SLP134 T02100201 58002

2010/08/10 08:55
KLHW 100855Z AUTO 00000KT 10SM CLR 24/24 A2997 RMK AO2 SLP149 T02430238 56006

2010/08/10 08:55
KLSF 100855Z AUTO 00000KT 5SM R33/4000V5500FT BR CLR 22/22 A2996 RMK AO2 SLP144 T02240217 55002 PNO $

2010/08/10 08:55
KMTC 100855Z 00000KT 1SM R19/0800FT BCFG CLR 20/20 A2994 RMK VIS S 1/4 SLP142 50000

2010/08/10 08:52
KNFW 100852Z AUTO 21004KT 10SM CLR 29/19 A2992 RMK AO2 SLP116 T02890189 56014

2010/08/10 08:53
KNIP 100853Z 11006KT 10SM FEW020 27/24 A2994 RMK AO2 SLP135 T02720239 56007

2010/08/10 08:54
KNKT 100854Z AUTO 22003KT 10SM CLR 24/24 A3001 RMK AO2 SLP159 T02440239 58005

2010/08/10 08:53
KNQX 100853Z AUTO 22009KT 10SM TS CLR 26/23 A2984 RMK AO2 RAE23 SLP104 P0000 60001 T02610233 55003 $

2010/08/10 08:52
KNRB 100852Z AUTO 14011KT 10SM FEW021 SCT026 BKN060 28/23 A2994 RMK AO2 SLP138 T02830228 56007

2010/08/10 08:55
KOZR 100855Z AUTO 06005KT 10SM CLR 24/23 A2994 RMK AO2 SLP134 T02370230 56004 $

2010/08/10 08:55
KSKF 100855Z AUTO 00000KT 10SM OVC011 27/ A2993 RMK AO2 SLP123 T0265 58013 $

2010/08/10 08:53
K6R6 100853Z AUTO 13004KT 25/18 A2995 RMK AO2 SLP102 T02500178 58004 PWINO TSNO 

2010/08/10 08:55
KDRA 100855Z AUTO 09007KT 10SM CLR 21/M08 A2991 RMK AO2 SLP079 T02111083 58004 TSNO 

2010/08/10 09:00
FAVV 100900Z AUTO 09013KT //// // ////// 12/M09 Q1032

2010/08/10 09:00
FASI 100900Z AUTO 10013KT //// // ////// 12/M15 Q1033

2010/08/10 09:00
FAGC 100900Z AUTO 10016KT //// // ////// 12/M09 Q1032

2010/08/10 08:56
CYSF 100856Z AUTO 13003KT 1 1/4SM BR SCT007 OVC018 14/14 A2989 RMK SLP130 DENSITY ALT 900FT

2010/08/10 08:56
KCHS 100856Z 14003KT 10SM FEW025 27/25 A3000 RMK AO2 SLP158 T02670250 55002 

2010/08/10 08:55
KINL 100855Z AUTO 00000KT 10SM CLR 17/17 A2993 RMK AO2 VIS 1/2 RWY 31 SLP131 T01720172 50000 $ 

2010/08/10 08:55
KVBG 100855Z AUTO 00000KT 10SM OVC003 13/12 A2992 RMK AO2 SLP122 T01280117 58006 TSNO CHINO RWY12 $ 

2010/08/10 08:55
KHON 100855Z AUTO 15004KT 9SM FEW013 BKN036 24/23 A2984 RMK AO2 SLP093 T02440228 55015 TSNO 

2010/08/10 08:55
KAAT 100855Z AUTO 16003KT 10SM CLR 13/06 A3000 RMK AO2 SLP115 T01330056 58001 TSNO 

2010/08/10 08:55
KMBG 100855Z AUTO 14006KT 10SM CLR 23/22 A2982 RMK AO2 SLP082 T02280217 55008 TSNO 

2010/08/10 08:55
KPHP 100855Z AUTO 18009KT 10SM -RA SCT050 BKN070 22/18 A2987 RMK AO2 RAB42 SLP088 P0000 60000 T02170178 51002 TSNO 

2010/08/10 08:50
HLLM 100850Z 01006KT 6000 SKC 28/18 Q1017

2010/08/10 08:54
KMOT 100854Z AUTO 11006KT 10SM CLR 20/17 A2985 RMK AO2 SLP097 T02000167 56023

2010/08/10 08:55
KMRF 100855Z AUTO 33006KT 10SM CLR A3013 RMK AO1 57010

2010/08/10 08:54
KMRY 100854Z AUTO 00000KT 9SM OVC003 12/10 A2992 RMK AO2 SLP144 T01170100 58009

2010/08/10 08:55
KMSV 100855Z AUTO 30006KT 10SM OVC100 21/18 A2999 RMK AO1 57003

2010/08/10 08:55
KMTW 100855Z 00000KT 5SM CLR 21/19 A2994 RMK AO1 54000

2010/08/10 08:54
KMVL 100854Z AUTO 00000KT 1/4SM FG VV001 17/17 A2995 RMK AO2 SLP139 T01670167 58000

2010/08/10 08:55
KMVN 100855Z AUTO 00000KT 3SM CLR 23/22 A2993 RMK AO1 57010

2010/08/10 08:55
KOCH 100855Z AUTO 00000KT 10SM CLR 26/23 A2991 RMK AO1 57003

2010/08/10 08:54
KOFP 100854Z AUTO 17003KT 9SM CLR 24/20 A2998 RMK AO2 SLP148 T02440200 57005

2010/08/10 08:55
KOKK 100855Z AUTO 11003KT 3SM CLR 23/18 A2996 RMK AO1

2010/08/10 08:54
KOLM 100854Z AUTO 24008KT 10SM OVC010 13/11 A2997 RMK AO2 SLP148 T01280106 58006

2010/08/10 08:54
KOLS 100854Z AUTO 00000KT 10SM CLR 20/15 A3004 RMK AO2 SLP102 T02000150 58001

2010/08/10 08:54
KFZY 100854Z AUTO 00000KT 2 1/2SM -RA BR OVC036 21/19 A2994 RMK AO2 RAB40 SLP134 P0000 60000 T02060194 58003

2010/08/10 08:55
KGAD 100855Z AUTO 00000KT 9SM CLR 23/22 A2998 RMK AO1 57003

2010/08/10 08:55
KGAI 100855Z 00000KT 8SM CLR 24/21 A2997 RMK AO1 57003

2010/08/10 08:55
KGBD 100855Z AUTO 18007KT 10SM CLR 25/18 A2986 RMK AO1 57014

2010/08/10 08:54
KGCK 100854Z 00000KT 10SM CLR 23/18 A2996 RMK AO2 SLP100 60000 T02280178 50005

2010/08/10 08:55
KGCM 100855Z AUTO 00000KT 10SM CLR 24/21 A2994 RMK AO2

2010/08/10 08:54
KGCN 100854Z AUTO 00000KT 10SM CLR 08/07 A3023 RMK AO2 SLP151 T00830067 58002

2010/08/10 08:55
KGDV 100855Z AUTO 01011KT 10SM CLR 21/15 A2979 RMK AO1 52007

2010/08/10 08:54
KGED 100854Z AUTO 21003KT 6SM BR CLR 23/22 A2995 RMK AO2 SLP141 T02280222 56006

2010/08/10 08:55
KGPZ 100855Z AUTO 00000KT 2SM CLR 18/17 A2997 RMK AO1 54000

2010/08/10 08:55
KGTR 100855Z 00000KT 3SM CLR 24/24 A2995 RMK AO1 57003

2010/08/10 08:55
KGTU 100855Z 22007KT 10SM CLR 27/21 A2996 RMK AO1 57010

2010/08/10 08:55
KGUC 100855Z AUTO 00000KT 10SM CLR 09/02 A3036 RMK AO1 52010

2010/08/10 08:55
KGXY 100855Z AUTO 00000KT 10SM CLR 15/13 A3008 RMK AO1 57007

2010/08/10 08:55
KGYH 100855Z AUTO 00000KT 10SM CLR 26/21 A3003 RMK AO2

2010/08/10 08:55
KHDN 100855Z 11009KT 10SM CLR 11/07 A3020 RMK AO1 54000

2010/08/10 08:55
KHEF 100855Z AUTO 00000KT 6SM 22/20 A2995 RMK AO1 57003

2010/08/10 08:55
KHEZ 100855Z AUTO 14003KT 10SM CLR 24/22 A2995 RMK AO1 57007

2010/08/10 08:55
KHNB 100855Z AUTO 00000KT 7SM CLR 24/23 A2993 RMK AO1 57010

2010/08/10 08:54
KHWD 100854Z AUTO 00000KT 10SM OVC009 14/11 A2990 RMK AO2 SLP132 T01390111 58008

2010/08/10 08:55
KHYI 100855Z AUTO 00000KT 10SM CLR 26/24 A2993 RMK AO1 57014

2010/08/10 08:55
KHYS 100855Z AUTO 31003KT 10SM CLR 23/17 A2987 RMK AO1 57014

2010/08/10 08:55
KHYW 100855Z AUTO 00000KT 7SM CLR 23/ A3001 RMK AO2

2010/08/10 08:55
KILE 100855Z AUTO 21006KT 10SM CLR 26/22 A2991 RMK AO1 57017

2010/08/10 08:54
KILN 100854Z AUTO 00000KT 6SM BR CLR 22/21 A2998 RMK AO2 SLP139 T02220206 56001

2010/08/10 08:54
KIMT 100854Z AUTO 00000KT 1/2SM FG OVC002 19/19 A2997 RMK AO2 SLP143 T01890189 58002

2010/08/10 08:54
KIND 100854Z 25003KT 9SM OVC120 27/22 A2993 RMK AO2 SLP127 T02670222 58004

2010/08/10 08:54
KINT 100854Z AUTO 23003KT 10SM CLR 25/21 A3004 RMK AO2 SLP158 T02500211 55005

2010/08/10 08:54
KIPT 100854Z AUTO 00000KT 8SM SCT120 22/19 A2993 RMK AO2 SLP131 T02220189 56003

2010/08/10 08:54
KISW 100854Z AUTO 00000KT 5SM BR CLR 20/20 A2998 RMK AO2 SLP146 T02000200 55002 TSNO $

2010/08/10 08:55
KIWD 100855Z AUTO 00000KT 1SM CLR 17/16 A2996 RMK AO1 54000

2010/08/10 08:54
KIZG 100854Z AUTO 00000KT 5SM BR CLR 17/16 A2990 RMK AO2 SLP123 T01670161 51006

2010/08/10 08:55
KJAC 100855Z 00000KT 10SM CLR 07/04 A3016 RMK AO1 54000

2010/08/10 08:55
KJHW 100855Z AUTO 18003KT 1 1/2SM BKN075 OVC080 20/19 A2998 RMK AO1 P0001 60001

2010/08/10 08:54
KJST 100854Z AUTO 25005KT 9SM OVC100 21/16 A3004 RMK AO2 SLP155 T02060161 56002

2010/08/10 08:55
KKLS 100855Z AUTO 00000KT 10SM OVC021 14/11 A2998 RMK AO1 57010

2010/08/10 08:55
KOLU 100855Z AUTO 1 1/4SM CLR 24/23 A2985 RMK AO1 57014

2010/08/10 08:55
KSLG 100855Z AUTO 00000KT 10SM CLR 24/21 A2997 RMK AO1 57003

2010/08/10 08:55
KSMN 100855Z AUTO 00000KT 10SM BKN080 OVC110 14/12 A3007 RMK AO1 TSE15 P0009 60020 52014

2010/08/10 08:55
KSPL 100855Z AUTO 12004KT 28/26 A2988 RMK AO2 PWINO PNO

2010/08/10 08:55
KSQI 100855Z AUTO 00000KT 10SM SCT041 23/22 A2996 RMK AO1 54000

2010/08/10 08:55
KSUE 100855Z AUTO 00000KT 3SM CLR 21/20 A2995 RMK AO1 54000

2010/08/10 08:54
KSUS 100854Z AUTO 00000KT 9SM CLR 26/24 A2989 RMK AO2 SLP110 T02610244 56010

2010/08/10 08:54
KSYR 100854Z 00000KT 4SM BR OVC044 22/21 A2993 RMK AO2 RAB05E33 SLP130 P0000 60000 T02170206 58004

2010/08/10 08:54
KTAD 100854Z AUTO 35005KT 10SM CLR 17/13 A3013 RMK AO2 SLP133 T01720128 53001

2010/08/10 08:55
KTPL 100855Z 19006KT 10SM CLR 26/23 A2992 RMK AO1

2010/08/10 08:54
KTQE 100854Z AUTO 12003KT 5SM BR BKN110 24/24 A2984 RMK AO2 SLP088 T02440239 55007

2010/08/10 08:55
KTSP 100855Z AUTO RMK AO2 PWINO PNO FZRANO TSNO

2010/08/10 08:55
KTVF 100855Z AUTO 15004KT 10SM CLR 21/18 A2990 RMK AO1 57003

2010/08/10 08:56
KUCP 100856Z AUTO 32007KT 9SM BKN044 23/19 A2998 RMK AO2 56006 T02330194 SLP156

2010/08/10 08:54
KUIN 100854Z AUTO 21003KT 9SM CLR 26/24 A2992 RMK AO2 SLP123 T02610244 55006

2010/08/10 08:54
KUZA 100854Z AUTO 00000KT 5SM BR CLR 22/21 A3003 RMK AO2 SLP152 T02220211

2010/08/10 08:54
KVAY 100854Z AUTO 00000KT 9SM CLR 24/21 A2992 RMK AO2 SLP131 T02440206 56006

2010/08/10 08:55
KVBT 100855Z AUTO 00000KT 10SM CLR 24/21 A2994 RMK AO1 57007

2010/08/10 08:55
KVIS 100855Z AUTO 29004KT 10SM CLR 19/16 A2981 RMK AO1 52003

2010/08/10 08:54
KVSF 100854Z AUTO 00000KT 1/4SM FG OVC001 20/19 A2993 RMK AO2 SLP131 60000 T02000194 58001

2010/08/10 08:54
KVTA 100854Z AUTO 00000KT 2 1/2SM BR CLR 20/19 A2997 RMK AO2 SLP141 T02000194 55001

2010/08/10 08:54
KWLD 100854Z AUTO 16007KT 10SM CLR 27/21 A2990 RMK AO2 SLP107 T02670206 56010

2010/08/10 08:55
KWVL 100855Z AUTO 00000KT 6SM CLR 17/16 A2982 RMK AO1 57003

2010/08/10 08:55
KX40 100855Z AUTO 06003KT 7SM CLR 26/25 A2990 RMK AO2 T02610250

2010/08/10 08:55
KYKN 100855Z AUTO 03006KT 5SM OVC006 25/23 A2983 RMK AO1 LTG DSNT W TSE26 57020

2010/08/10 08:54
KLAF 100854Z AUTO 31011KT 7SM FEW019 BKN036 OVC085 27/24 A2996 RMK AO2 LTG DSNT W SLP136 P0001 60001 T02670239 53005

2010/08/10 08:55
KLBL 100855Z 21006KT 10SM CLR 22/17 A2998 RMK AO1 52003

2010/08/10 08:54
KLBT 100854Z AUTO 21003KT 1/4SM FG VV001 25/24 A3001 RMK AO2 SLP159 T02500244 55003

2010/08/10 08:55
KLCI 100855Z AUTO 22006KT 6SM CLR 20/17 A2989 RMK AO1 60001 57003

2010/08/10 08:55
KLEW 100855Z 00000KT 10SM CLR 18/17 A2990 RMK AO1 54000

2010/08/10 08:54
KLEX 100854Z 16003KT 8SM CLR 24/21 A2999 RMK AO2 SLP143 T02390211 58001

2010/08/10 08:55
KLGD 100855Z AUTO 29011KT 10SM BKN120 17/02 A2987 RMK AO1 52003

2010/08/10 08:54
KLNK 100854Z 18005KT 10SM CLR 25/22 A2985 RMK AO2 SLP092 T02500222 55005

2010/08/10 08:55
KLPC 100855Z AUTO 00000KT 10SM OVC006 13/11 A2991 RMK AO1 57007 PNO

2010/08/10 08:54
KLWM 100854Z AUTO 23004KT 4SM BR CLR 23/21 A2990 RMK AO2 SLP124 60000 T02280211 55007 $

2010/08/10 08:54
KLWT 100854Z AUTO 16004KT 10SM OVC120 14/10 A2989 RMK AO2 SLP082 T01390100 56008

2010/08/10 08:54
KLYH 100854Z AUTO 22003KT 5SM BR CLR 22/21 A3001 RMK AO2 SLP151 T02170211 56004

2010/08/10 08:55
KMBL 100855Z AUTO 00000KT 1/2SM OVC002 20/18 A2995 RMK AO1 57007

2010/08/10 08:54
KMFI 100854Z AUTO 05003KT 10SM CLR 21/19 A2998 RMK AO2 SLP144 T02110189 55002

2010/08/10 08:54
KMGJ 100854Z AUTO 00000KT 5SM BR OVC110 22/20 A2994 RMK AO2 RAE0756 SLP134 P0000 60001 T02170200 58001

2010/08/10 08:54
KMIV 100854Z AUTO 00000KT 8SM CLR 24/22 A2992 RMK AO2 SLP129 T02390222 56007

2010/08/10 08:55
KMJX 100855Z AUTO 24004KT 10SM FEW065 SCT080 23/21 A2993 RMK AO1 57003

2010/08/10 08:54
KMKC 100854Z 22004KT 10SM CLR 29/22 A2987 RMK AO2 SLP103 T02890217 55008

2010/08/10 08:55
KMKT 100855Z AUTO 11005KT 10SM CLR 23/22 A2992 RMK AO1 57007

2010/08/10 08:55
KMML 100855Z AUTO 14006KT 10SM BKN045 23/23 A2989 RMK AO1 57014

2010/08/10 08:55
KMNI 100855Z AUTO 00000KT 10SM CLR 23/23 A3000 RMK AO2

2010/08/10 08:55
KMNM 100855Z AUTO 01003KT 1/2SM OVC001 21/19 A2994 RMK AO1 57003

2010/08/10 08:54
KORH 100854Z AUTO 27007KT 8SM OVC060 21/20 A2994 RMK AO2 SLP130 60001 T02060200 55006

2010/08/10 08:55
KOTG 100855Z AUTO 11007KT 5SM OVC003 23/22 A2990 RMK AO1 LTG DSNT S 57014

2010/08/10 08:55
KOTH 100855Z 34005KT 10SM OVC017 13/11 A3003 RMK AO1 57007

2010/08/10 08:54
KPHF 100854Z 26004KT 10SM CLR 25/24 A2997 RMK AO2 SLP147 T02500239 56005 $

2010/08/10 08:54
KPHL 100854Z 20005KT 10SM SCT150 BKN200 26/21 A2992 RMK AO2 SLP133 T02560211 56008 $

2010/08/10 08:55
KPIB 100855Z AUTO 00000KT 4SM CLR 23/21 A2995 RMK AO1 57010

2010/08/10 08:54
KPLN 100854Z AUTO 00000KT 2SM BR OVC002 22/22 A2996 RMK AO2 SLP142 T02170217 50002

2010/08/10 08:54
KPNE 100854Z 24003KT 10SM CLR 26/22 A2994 RMK AO2 SLP135 T02610217 55005

2010/08/10 08:55
KPQI 100855Z AUTO 00000KT 5SM CLR 13/12 A2980 RMK AO1 54000

2010/08/10 08:55
KPRX 100855Z 00000KT 10SM CLR 25/22 A2990 RMK AO1 57007

2010/08/10 08:54
KPSF 100854Z AUTO 00000KT 6SM BR FEW020 SCT036 19/18 A2996 RMK AO2 SLP115 T01940183 56002

2010/08/10 08:55
KPTN 100855Z AUTO 05004KT 10SM CLR 25/14 A2994 RMK AO1 57007

2010/08/10 08:55
KPTV 100855Z AUTO 18005KT 10SM CLR 19/09 A2984 RMK AO1 52003

2010/08/10 08:54
KPTW 100854Z AUTO 00000KT 7SM CLR 26/21 A2994 RMK AO2 SLP132 T02560211 56005

2010/08/10 08:55
KPVC 100855Z 21005KT 5SM FEW100 SCT120 21/19 A2990 RMK AO1 P0001 60024 57014

2010/08/10 08:55
KPVU 100855Z 11004KT 10SM CLR 16/03 A3005 RMK AO1 54000

2010/08/10 08:55
KPWG 100855Z AUTO 21008KT 10SM CLR 27/22 A2991 RMK AO1 57014

2010/08/10 08:55
KPWT 100855Z AUTO 19005KT 4SM OVC003 12/10 A2998 RMK AO1 57010

2010/08/10 08:54
KRBL 100854Z AUTO 18006KT 10SM CLR 22/13 A2983 RMK AO2 SLP096 T02220133 50002

2010/08/10 08:54
KRDG 100854Z AUTO 00000KT CLR 25/20 A2992 RMK AO2 SLP132 T02500200 56004 $

2010/08/10 08:55
KRKD 100855Z AUTO 32004KT 10SM CLR 19/18 A2985 RMK AO1 54000

2010/08/10 08:54
KRKS 100854Z AUTO 20007KT 10SM CLR 12/00 A3018 RMK AO2 SLP137 T01220000 51002

2010/08/10 08:54
KROC 100854Z 23003KT 2 1/2SM BR FEW060 OVC080 21/20 A2994 RMK AO2 SLP135 60000 T02060200 56003

2010/08/10 08:54
KRST 100854Z AUTO 13004KT 5SM BR CLR 22/21 A2997 RMK AO2 SLP140 T02170211 55000

2010/08/10 08:55
KRUT 100855Z 00000KT 4SM SCT016 OVC023 20/19 A2993 RMK AO1 54000

2010/08/10 08:54
KSBY 100854Z AUTO 00000KT 6SM BR CLR 23/22 A2995 RMK AO2 SLP144 T02280222 56006 $

2010/08/10 08:55
KSDY 100855Z AUTO 35011KT 10SM CLR 20/17 A2980 RMK AO1 60003 54000

2010/08/10 08:54
KSET 100854Z AUTO 00000KT 5SM BR CLR 26/25 A2989 RMK AO2 SLP116 T02610250 55010

2010/08/10 08:55
KSFM 100855Z 27003KT 7SM CLR 20/19 A2989 RMK AO1 60002 57003

2010/08/10 08:55
KSFZ 100855Z 22003KT 2SM BKN070 OVC080 21/20 A2991 RMK AO1 P0004 60005 54000

2010/08/10 08:55
KSGT 100855Z 19004KT CLR 28/25 A2991 RMK AO1 57007

2010/08/10 08:55
KSGU 100855Z AUTO 00000KT 10SM CLR 22/05 A2996 RMK AO1 54000

2010/08/10 08:54
KSJN 100854Z AUTO 20005KT 10SM CLR 16/11 A3018 RMK AO2 SLP128 T01560111 51002 $

2010/08/10 08:55
KSKX 100855Z AUTO 00000KT 10SM CLR 12/04 A3028 RMK AO1 52003

2010/08/10 08:55
KCQW 100855Z AUTO 00000KT 1/2SM FG BKN001 22/22 A3002 RMK AO2

2010/08/10 08:54
KCRW 100854Z 00000KT 4SM BR FEW001 21/19 A3000 RMK AO2 SLP147 DNS VLY FG T02060194 58001

2010/08/10 08:55
KCVN 100855Z 20005KT 10SM OVC090 19/16 A3009 RMK AO1 57003

2010/08/10 08:55
KCVO 100855Z AUTO 29004KT 10SM CLR 13/09 A3000 RMK AO1 54000

2010/08/10 08:55
KCWI 100855Z 07003KT 9SM FEW032 BKN041 23/23 A2996 RMK AO1 54000

2010/08/10 08:54
KDDH 100854Z AUTO 00000KT 3SM BR BKN012 OVC032 20/19 A2995 RMK AO2 SLP136 T02000194 56002

2010/08/10 08:54
KDEC 100854Z AUTO 00000KT 10SM CLR 25/21 A2993 RMK AO2 SLP128 T02500211 58010

2010/08/10 08:54
KDSM 100854Z 11005KT 5SM +TSRA BR FEW009 BKN075CB OVC095 23/21 A2995 RMK AO2 TSE28B43RAE0756B48 PRESRR SLP132 CONS LTGICCG OHD-S-SW AND DSNT E-SE TS OHD-S-SW MOV NE TS MOV E CB DSNT E-SE MOV NE P0003 60158 T

2010/08/10 08:54
KDSV 100854Z AUTO 00000KT 4SM BR SCT050 OVC060 22/21 A2996 RMK AO2 SLP148 60013 T02170206 58008 $

2010/08/10 08:55
KDVL 100855Z AUTO 10007KT 10SM CLR 22/18 A2987 RMK AO1 57003

2010/08/10 08:54
KDYL 100854Z AUTO 00000KT 10SM CLR 23/21 A2993 RMK AO2 SLP127 T02330206 56004 TSNO

2010/08/10 08:56
TJSJ 100856Z 13003KT 10SM SCT028 26/24 A2993 RMK AO2 SLP132 OCNL LTGIC DSNT N-SW CB DSNT N-SW 60000 T02610239 55007 $ 

2010/08/10 08:55
KANJ 100855Z AUTO 30005KT 6SM BR OVC004 20/19 A2995 RMK AO2 SLP136 T02000194 50001 

2010/08/10 08:56
KSHV 100856Z 00000KT 10SM BKN290 27/23 A2991 RMK AO2 SLP122 T02720228 58001 

2010/08/10 08:56
KABQ 100856Z 00000KT 10SM FEW110 22/08 A3014 RMK AO2 SLP105 T02220078 51001 

2010/08/10 08:54
KUGN 100854Z AUTO 00000KT 1 3/4SM BR CLR 22/21 A2993 RMK AO2

2010/08/10 08:54
KEAU 100854Z AUTO 05003KT 1 3/4SM BR FEW001 21/19 A2994 RMK AO2

2010/08/10 08:55
KDYR 100855Z AUTO 09003KT 7SM CLR 25/22 A2993 RMK AO1 57007

2010/08/10 08:55
KE80 100855Z AUTO 00000KT 10SM CLR 20/08 A3012 RMK AO2 T01970078

2010/08/10 08:55
KEAR 100855Z AUTO 36008KT 10SM CLR 21/18 A2992 RMK AO1 52007

2010/08/10 08:54
KECG 100854Z AUTO 25004KT 9SM CLR 23/23 A2999 RMK AO2 SLP154 T02330233 55003

2010/08/10 08:55
KEEN 100855Z AUTO 00000KT 3SM SCT004 OVC100 20/19 A2991 RMK AO1 57007

2010/08/10 08:55
KEGE 100855Z AUTO 00000KT 10SM FEW110 13/08 A3025 RMK AO1 52007

2010/08/10 08:55
KEHR 100855Z AUTO 00000KT 4SM CLR 24/21 A2994 RMK AO1 57007

2010/08/10 08:55
KENV 100855Z AUTO 00000KT 10SM CLR 18/08 A2997 RMK AO1 57007

2010/08/10 08:55
KESC 100855Z AUTO 00000KT 1 3/4SM CLR 19/17 A2996 RMK AO1 54000

2010/08/10 08:54
KEUG 100854Z 00000KT 10SM FEW040 11/09 A2999 RMK AO2 SLP154 T01060089 58001 $

2010/08/10 08:55
KEUL 100855Z AUTO 13007KT 10SM CLR 18/11 A2985 RMK AO1 54000

2010/08/10 08:54
KEVV 100854Z AUTO 00000KT 7SM CLR 25/23 A2993 RMK AO2 SLP131 T02500228 58007

2010/08/10 08:55
KEWK 100855Z AUTO 18010KT 10SM SCT110 28/19 A2986 RMK AO1 57014

2010/08/10 08:54
KEWN 100854Z AUTO 00000KT 10SM CLR 24/23 A3001 RMK AO2 SLP163 T02390228 58005

2010/08/10 08:55
KFAM 100855Z AUTO 16003KT 10SM CLR 25/24 A2996 RMK AO1 57010

2010/08/10 08:54
KFIG 100854Z AUTO 00000KT 7SM OVC100 19/18 A3000 RMK AO2 SLP148 T01940178 56002

2010/08/10 08:55
KFKL 100855Z AUTO 16003KT 10SM BKN048 BKN055 OVC075 21/19 A3001 RMK AO1

2010/08/10 08:55
KFLP 100855Z AUTO 00000KT 10SM CLR 26/24 A2993 RMK AO1 57007

2010/08/10 08:55
KFNL 100855Z AUTO 00000KT 10SM CLR 16/13 A3008 RMK AO1 57014

2010/08/10 08:55
KFOD 100855Z AUTO 18003KT 10SM TS BKN080 BKN095 OVC110 22/22 A2993 RMK AO1 LTG DSNT ALQDS 60024 52003

2010/08/10 08:55
KFRM 100855Z 11007KT 9SM SCT028 BKN034 24/22 A2992 RMK AO1 57010

2010/08/10 08:54
PAHN 100854Z AUTO 10009G15KT 070V150 10SM BKN011 BKN017 OVC065 13/11 A2997 RMK AO2 SLP151 T01330111 401670122 53003 TSNO

2010/08/10 08:54
PAKN 100854Z 20007KT 5SM -RA BR SCT007 OVC010 10/09 A2964 RMK AO2 RAB00 SLP037 P0000 60000 T01000094 401330100 53011

2010/08/10 08:50
ENBS 100850Z 02005KT 9999 FEW020 BKN035 11/06 Q1012

2010/08/10 08:50
ENHK 100850Z VRB02KT 9999 NSC 15/09 Q1011

2010/08/10 08:50
ENLK 100850Z 02008KT 9999 BKN008 13/10 Q1011

2010/08/10 08:50
ENMH 100850Z 33004KT 9999 BKN035 12/08 Q1012

2010/08/10 08:50
ENNK 100850Z 25005KT 9999 SCT050 15/12 Q1010 

2010/08/10 08:50
ENNM 100850Z VRB02KT 9999 BKN004 13/12 Q1011

2010/08/10 08:52
PTKK 100852Z VRB03KT 15SM FEW014CB SCT120 OVC280 28/24 A2986 RMK CB DSNT SW-NW SLP113 8/371 T02780242 52019

2010/08/10 08:50
ENMS 100850Z 34010KT 9999 SCT040 17/13 Q1010 

2010/08/10 08:50
ENRM 100850Z VRB02KT 6000 BKN003 12/11 Q1011

2010/08/10 08:50
ENRS 100850Z 35013KT 9999 SCT005 BKN013 11/10 Q1011

2010/08/10 08:50
ENSK 100850Z VRB02KT 9999 SCT008 BKN010 13/10 Q1011

2010/08/10 08:50
ENSO 100850Z 12010KT 090V150 9999 FEW035 BKN060 18/11 Q1009

2010/08/10 08:50
ENST 100850Z 25003KT 190V320 6000 2000NE -DZ BR BKN002 12/11 Q1011

2010/08/10 09:00
FAVV 100900Z AUTO 09013KT //// // ////// 12/M09 Q1032

2010/08/10 09:00
FASI 100900Z AUTO 10013KT //// // ////// 12/M15 Q1033

2010/08/10 09:00
FAGC 100900Z AUTO 10016KT //// // ////// 12/M09 Q1032

2010/08/10 08:55
PWAK 100855Z 07014KT 8SM FEW021 28/24 A3004 RMK AO2A 

2010/08/10 08:50
MMCL 100850Z 00000KT 10SM SCT100 BKN220 28/26 A2982 RMK 8/077

2010/08/10 08:49
MMHO 100849Z 00000KT 10SM FEW080 30/18 A2983 RMK SLP081 54000 958 8/030 HZY ISOL CI

2010/08/10 08:45
MMMZ 100845Z 06004KT 10SM SCT220 28/23 A2980 RMK SLP095 57017 915 8/002

2010/08/10 08:50
RKNY 100850Z 16003KT 4500 -RA BR FEW015 BKN030 OVC100 25/22 Q1007 NOSIG

2010/08/10 09:00
SGAS 100900Z 19006KT CAVOK 11/07 Q1019

2010/08/10 09:00
SGES 100900Z 18006KT CAVOK 12/19 Q1020

2010/08/10 08:50
EFET 100850Z AUTO 07004KT 020V120 9999 SCT011 OVC033 12/09 Q1012

2010/08/10 08:50
EFIV 100850Z AUTO 02009KT 9999 FEW013 BKN016 12/10 Q1012

2010/08/10 08:50
EFKE 100850Z AUTO 35010KT 9999 OVC018 14/10 Q1010

2010/08/10 08:50
EFKI 100850Z AUTO 21005KT 160V250 //// BKN033 BKN074 20/17 Q1009

2010/08/10 08:50
EFKS 100850Z AUTO 35002KT 9999 OVC005 14/13 Q1009

2010/08/10 08:50
EFKT 100850Z AUTO 01005KT 320V060 9999 OVC014 12/09 Q1012

2010/08/10 09:00
SVBC 100900Z 00000KT 9999 FEW010 25/21 Q1012

2010/08/10 09:00
SVMI 100900Z 00000KT 9999 FEW016 28/24 Q1011 NOSIG

2010/08/10 08:55
EGUN 100855Z AUTO 21007KT 9999 OVC042 14/14 A2982 RMK AO2 RAE0807 SLP087 P0000 60008 T01400140 50001

2010/08/10 08:50
ENAN 100850Z 03011KT 9999 SCT006 BKN008 11/10 Q1011 NOSIG

2010/08/10 08:50
ENBO 100850Z 27006KT 9999 FEW002 BKN050 14/13 Q1010 TEMPO 4000 BR SCT003 BKN008

2010/08/10 08:50
ENBR 100850Z 22004KT 180V250 9999 BKN054 17/11 Q1009

2010/08/10 08:50
ENBS 100850Z 02005KT 9999 FEW020 BKN035 11/06 Q1012

2010/08/10 08:50
ENDU 100850Z 00000KT 9999 FEW045 BKN070 16/10 Q1010 NOSIG

2010/08/10 08:50
ENHK 100850Z VRB02KT 9999 NSC 15/09 Q1011

2010/08/10 08:50
ENLK 100850Z 02008KT 9999 BKN008 13/10 Q1011

2010/08/10 08:50
ENMH 100850Z 33004KT 9999 BKN035 12/08 Q1012

2010/08/10 08:50
ENMS 100850Z 34010KT 9999 SCT040 17/13 Q1010

2010/08/10 08:50
ENNK 100850Z 25005KT 9999 SCT050 15/12 Q1010

2010/08/10 08:50
ENNM 100850Z VRB02KT 9999 BKN004 13/12 Q1011

2010/08/10 08:50
ENRA 100850Z VRB03KT 9999 BKN050 19/12 Q1010

2010/08/10 08:50
ENRM 100850Z VRB02KT 6000 BKN003 12/11 Q1011

2010/08/10 08:50
ENRS 100850Z 35013KT 9999 SCT005 BKN013 11/10 Q1011

2010/08/10 08:50
ENSK 100850Z VRB02KT 9999 SCT008 BKN010 13/10 Q1011

2010/08/10 08:50
ENST 100850Z 25003KT 190V320 6000 2000NE -DZ BR BKN002 12/11 Q1011

2010/08/10 08:50
ENVA 100850Z VRB01KT 9999 FEW006 SCT010 BKN015 15/13 Q1011 NOSIG

2010/08/10 08:50
ENZV 100850Z 15013KT 9999 FEW030 SCT050 BKN140 19/13 Q1009 NOSIG

2010/08/10 08:55
ETAD 100855Z AUTO VRB06KT 9999 CLR 23/12 A3003 RMK AO2 SLPNO T02280123 VISNO RWY05 CHINO RWY05 $

2010/08/10 08:55
ETAR 100855Z AUTO 24003KT 9999 CLR 22/16 A3003 RMK AO2 SLP163 T02180161 52001 $

2010/08/10 08:55
ETOU 100855Z AUTO 00000KT 9999 CLR 21/15 A3003 RMK AO2 SLP167 T02150149 50001

2010/08/10 08:55
ETAD 100855Z AUTO VRB06KT 9999 CLR 23/12 A3003 RMK AO2 SLPNO T02280123 VISNO RWY05 CHINO RWY05 $

2010/08/10 08:55
ETAR 100855Z AUTO 24003KT 9999 CLR 22/16 A3003 RMK AO2 SLP163 T02180161 52001 $

2010/08/10 08:55
ETOU 100855Z AUTO 00000KT 9999 CLR 21/15 A3003 RMK AO2 SLP167 T02150149 50001

2010/08/10 08:55
KBAB 100855Z AUTO 00000KT 10SM CLR 18/10 A2982 RMK AO2 SLP097 T01800103 51004 $

2010/08/10 08:55
KCOF 100855Z AUTO 12006KT 10SM CLR 26/ A2991 RMK AO2 SLP130 T0262 58008

2010/08/10 08:55
KFHU 100855Z 23003KT 10SM SKC 22/14 A3010 RMK SLP120 58003

2010/08/10 08:55
KHIF 100855Z 10013KT 10SM CLR 18/03 A3001 RMK AO2A SLP058 T01820034 58003

2010/08/10 08:55
KLTS 100855Z AUTO 28005KT 10SM CLR 27/20 A2991 RMK AO2 SLP107 T02700200 56011 $

2010/08/10 08:55
KMUO 100855Z AUTO VRB03KT 10SM CLR 17/13 A2987 RMK AO2 SLP089 T01750133 52002

2010/08/10 08:55
KMXF 100855Z AUTO 00000KT 10SM BKN070 26/24 A2994 RMK AO2 SLP136 T02630239 57003

2010/08/10 08:55
KPOB 100855Z AUTO 23005KT 10SM CLR 24/24 A3000 RMK AO2 SLP159 T02430243 58003 $

2010/08/10 08:55
KTIK 100855Z 18009KT 10SM CLR 26/21 A2991 RMK AO2A SLP111 T02580208 56011

2010/08/10 08:55
PAEI 100855Z AUTO 00000KT 10SM OVC080 13/11 A2963 RMK AO2 SLP034 T01350108 402210118 52007 $

2010/08/10 08:55
PHHI 100855Z AUTO 08009KT 10SM SCT037 SCT045 23/17 A3013 RMK AO2 SLP190 T02340171 51011 $

2010/08/10 08:55
RODN 100855Z 20005KT 9999 SCT016 SCT140 29/26 A2980 RMK AO2A RAE0811B0830E0849DZB0849E0852 SLP091 P0000 60000 T02850264 56004

2010/08/10 08:54
RKNY 100854Z 16003KT 4500 -RA BR FEW015 BKN030 OVC100 25/22 Q1007 NOSIG

2010/08/10 08:50
EGDL 100850Z 22008KT 9999 SCT006 BKN011 BKN050 13/12 Q1011 YLO1 TEMPO SCT007 GRN

2010/08/10 08:50
EGOS 100850Z 25010KT 9999 SCT028 BKN050 16/09 Q1008 BLU NOSIG

2010/08/10 08:50
EGOV 100850Z 22015KT 9999 FEW020 BKN060 15/12 Q1007 BLU NOSIG

2010/08/10 08:50
EGQL 100850Z 10007KT 9999 FEW012 FEW024TCU BKN090 14/10 Q1004 BLU TEMPO -SHRA SCT020 WHT

2010/08/10 08:50
EGQS 100850Z 04007KT 9999 FEW020TCU SCT060 15/09 Q1004 BLU NOSIG

2010/08/10 08:50
EGUB 100850Z 19007KT 9999 -RA BKN050 BKN070 14/12 Q1010 BLACKBLU NOSIG

2010/08/10 08:50
EGUW 100850Z 28007KT 9999 -RA FEW006 SCT020 OVC050 14/13 Q1010 RERA WHT BECMG FEW020 BLU

2010/08/10 08:50
EGVO 100850Z 24011KT 9999 -RA FEW008 BKN110 14/13 Q1011 BLU NOSIG

2010/08/10 08:50
EGVP 100850Z 23006KT 9999 -RA FEW007 SCT045 OVC100 14/12 Q1011 BLU BECMG 5000 BKN007 GRN

2010/08/10 08:50
EGWU 100850Z 26010KT 9999 -RA FEW007 BKN035 OVC060 14/12 Q1011 BLU TEMPO SCT015 WHT

2010/08/10 08:50
EGXC 100850Z 24009KT 9999 FEW015 SCT030 BKN130 15/13 Q1008 BLU TEMPO SCT020 WHT

2010/08/10 08:50
EGXD 100850Z 19006KT 9999 -SHRA FEW012 FEW018TCU BKN060 14/13 Q1007 BLU NOSIG

2010/08/10 08:50
EGXE 100850Z 15004KT 9999 FEW015 BKN050 14/13 Q1006 BLU TEMPO SCT020 WHT

2010/08/10 08:50
EGXG 100850Z 25014KT 9999 FEW020 17/11 Q1007 BLU

2010/08/10 08:50
EGXW 100850Z 25009KT 9999 FEW009 SCT200 14/13 Q1008 BLU NOSIG

2010/08/10 08:50
EGYD 100850Z 24010KT 9999 FEW012 SCT040 BKN150 15/13 Q1008 BLU TEMPO SCT018 WHT

2010/08/10 08:50
EGYM 100850Z 21007KT 9999 FEW012 BKN045 BKN130 15/12 Q1009 BLU TEMPO SCT016 WHT

2010/08/10 09:00
SBFZ 100900Z 14010KT 9999 FEW017 SCT090 24/20 Q1015

2010/08/10 08:50
LCRA 100850Z 20008KT 8000 HZ FEW020 30/24 Q1006 NOSIG

2010/08/10 09:00
LEJR 100900Z 00000KT 9999 FEW020 31/08 Q1016

2010/08/10 08:56
KSDF 100856Z 00000KT 8SM CLR 28/23 A2994 RMK AO2 SLP133 T02830233 58002 $ 

2010/08/10 09:00
SVMI 100900Z 00000KT 9999 FEW016 28/24 Q1011 NOSIG

2010/08/10 09:00
LWOH 100900Z 33003KT 9999 FEW050 26/13 Q1017

2010/08/10 09:00
OPPS 100900Z N--08 4000 HZ SCT030 SCT100 34/26 Q1002.3

2010/08/10 08:50
EFET 100850Z AUTO 07004KT 020V120 9999 SCT011 OVC033 12/09 Q1012

2010/08/10 08:50
EFIV 100850Z AUTO 02009KT 9999 FEW013 BKN016 12/10 Q1012

2010/08/10 08:50
EFKE 100850Z AUTO 35010KT 9999 OVC018 14/10 Q1010

2010/08/10 08:50
EFKI 100850Z AUTO 21005KT 160V250 //// BKN033 BKN074 20/17 Q1009

2010/08/10 08:50
EFKS 100850Z AUTO 35002KT 9999 OVC005 14/13 Q1009

2010/08/10 08:50
EFKT 100850Z AUTO 01005KT 320V060 9999 OVC014 12/09 Q1012

2010/08/10 08:50
HLLT 100850Z VRB03KT CAVOK 29/13 Q1016

2010/08/10 08:55
KPOE 100855Z AUTO 15004KT 10SM CLR 26/23 A2993 RMK AO2 SLP134 T02560233 55001 

2010/08/10 08:55
KAST 100855Z AUTO 23003KT 10SM OVC018 13/12 A3000 RMK AO2 SLP157 T01330117 58007 

2010/08/10 08:56
KJAX 100856Z 03003KT 10SM CLR 24/23 A2994 RMK AO2 SLP139 T02440228 56004 

2010/08/10 08:55
EHDL 100855Z AUTO 20007KT 9999NDV OVC220 19/14 Q1014 BLU

2010/08/10 08:55
EHEH 100855Z AUTO 19005KT 9999NDV FEW130 SCT300 21/14 Q1014 BLU BLU NOSIG

2010/08/10 08:55
EHGR 100855Z AUTO 22005KT 9999NDV OVC200 19/14 Q1013 BLU BLU TEMPO WHT TEMPO SCT020

2010/08/10 08:55
EHLW 100855Z AUTO 20009KT 7000NDV BR FEW008 SCT011 BKN016 18/16 Q1012 GRN WHT TEMPO GRN 6000 BR SCT023 TEMPO SCT012

2010/08/10 08:55
EHVK 100855Z AUTO 19006KT 9999NDV NCD 20/14 Q1014 BLU BLU NOSIG

2010/08/10 08:55
EHVL 100855Z AUTO 21018KT 9999NDV -RA FEW007 SCT008 BKN010 18/15 Q1011 GRN

2010/08/10 08:55
EHWO 100855Z AUTO 20006G16KT 9999NDV OVC190 19/14 Q1013 BLU BLU TEMPO WHT OVC200 TEMPO SCT020

2010/08/10 08:55
KNBG 100855Z AUTO 00000KT 6SM HZ CLR A2992 RMK AO2 SLP132 56004 PWINO FZRANO $ 

2010/08/10 09:00
SGAS 100900Z 19006KT CAVOK 11/07 Q1019

2010/08/10 09:00
SGES 100900Z 18006KT CAVOK 12/19 Q1020

2010/08/10 08:56
KNJK 100856Z AUTO 00000KT 10SM CLR 25/05 A2973 RMK AO2 SLP083 T02500050 50003 TSNO 

2010/08/10 09:00
SBBE 100900Z 06004KT CAVOK 24/22 Q1012

2010/08/10 09:00
SBBR 100900Z 00000KT CAVOK 13/04 Q1023

2010/08/10 09:00
SBFN 100900Z 12010KT 9999 FEW017 26/22 Q1015

2010/08/10 09:00
SBRF 100900Z 15011KT 9999 FEW018 SCT070 25/19 Q1017

2010/08/10 09:00
SBSJ 100900Z 00000KT 3000 BR BKN006 12/11 Q1024

2010/08/10 09:00
SPIM 100900Z 18003KT 8000 BKN015 14/13 Q1016 NOSIG RMK PP000

2010/08/10 08:52
MMMX 100852Z 00000KT 6SM FEW020 SCT090 16/15 A3028 NOSIG RMK SLP057 57007 908 8/530 CI HZY LWR SC

2010/08/10 08:55
PAEI 100855Z AUTO 00000KT 10SM OVC080 13/11 A2963 RMK AO2 SLP034 T01350108 402210118 52007 $

2010/08/10 08:55
PGUA 100855Z AUTO 09009KT 10SM -RA SCT019 SCT025 BKN034 BKN048 OVC055 27/24 A2993 RMK AO2 RAB0847 CIG 018 RWY24L SLP117 P0000 60000 T02660244 53017 $

2010/08/10 08:55
PHHI 100855Z AUTO 08009KT 10SM SCT037 SCT045 23/17 A3013 RMK AO2 SLP190 T02340171 51011 $

2010/08/10 08:53
PHJR 100853Z AUTO 07005KT 10SM CLR 25/17 A3011 RMK AO2 SLP204 T02500172 51012 TSNO

2010/08/10 08:51
PTYA 100851Z 18009KT 12SM FEW016 FEW140 BKN300 29/24 A2986 RMK SLP112 8/171 T02880235 53010

2010/08/10 08:55
RJTY 100855Z AUTO 18010KT 9999 FEW110 27/24 A3000 RMK AO2 SLP152 T02710236 55001 $

2010/08/10 08:55
RKSO 100855Z 11005KT 9999 -RA BKN020 OVC040 26/24 A2973 RMK AO2A RAE0808B0848DZB0808E0848 SLP067 P0004 60020 T02610261 56003 $

2010/08/10 08:55
RODN 100855Z 20005KT 9999 SCT016 SCT140 29/26 A2980 RMK AO2A RAE0811B0830E0849DZB0849E0852 SLP091 P0000 60000 T02850264 56004

2010/08/10 08:55
TXKF 100855Z 17008KT 9999 FEW015 FEW180 SCT300 27/23 Q1020

2010/08/10 08:50
VECC 100850Z 14008KT 6000 FEW020 SCT025 36/25 Q1000 NOSIG

2010/08/10 08:56
CYOY 100856Z AUTO 00000KT 1SM FEW073 12/10 A2986 RMK VSBY VRBL 0.2V9.+

2010/08/10 08:54
KWAL 100854Z AUTO 25005KT 6SM BR CLR 24/22 A2996 RMK AO2 SLP141 T02390222 58006 TSNO 

2010/08/10 09:00
FIMP 100900Z 09012KT 9999 SCT019 25/16 Q1023

2010/08/10 08:50
EGBB 100850Z 23008KT 190V260 9999 BKN007 16/13 Q1009

2010/08/10 08:50
EGBE 100850Z 21009KT 180V240 9999 -RA FEW006 SCT009 15/14 Q1009

2010/08/10 08:50
EGBJ 100850Z 21007KT 9999 -RA FEW015 15/13 Q1010

2010/08/10 08:50
EGCC 100850Z 23015KT 9999 FEW021 SCT038 16/09 Q1008

2010/08/10 08:50
EGDL 100850Z 22008KT 9999 SCT006 BKN011 BKN050 13/12 Q1011 YLO1 TEMPO SCT007 GRN

2010/08/10 08:50
EGLL 100850Z 26010KT 9999 -RA SCT032 BKN036 14/12 Q1011

2010/08/10 08:50
EGNS 100850Z 24014KT 9999 FEW013 SCT016 BKN024 14/11 Q1006 NOSIG

2010/08/10 08:50
EGOV 100850Z 22015KT 9999 FEW020 BKN060 15/12 Q1007 BLU NOSIG

2010/08/10 08:50
EGPF 100850Z 19006KT 9999 -RA FEW010 SCT020 BKN045 13/10 Q1004

2010/08/10 08:50
EGPH 100850Z VRB03KT 9999 -SHRA SCT020 BKN045 14/10 Q1004 RERA

2010/08/10 08:50
EGPK 100850Z 25013KT 9999 -SHRA FEW005 SCT014CB BKN018 13/11 Q1003

2010/08/10 08:50
EGQS 100850Z 04007KT 9999 FEW020TCU SCT060 15/09 Q1004 BLU NOSIG

2010/08/10 08:50
EGSC 100850Z 21006KT 150V250 9999 BKN039 15/12 Q1010

2010/08/10 08:50
EGSH 100850Z 26008KT 230V300 9999 -RA FEW010 BKN039 15/13 Q1010

2010/08/10 08:50
EGSS 100850Z 25006KT 9000 -RADZ FEW004 SCT012 BKN024 14/13 Q1011 RERA

2010/08/10 08:55
EGUL 100855Z AUTO 20007KT 9999 OVC042 14/12 A2981 RMK AO2 RAE0807DZB0807E0809 SLP095 P0000 60004 T01430117 50000

2010/08/10 08:55
EGUN 100855Z AUTO 21007KT 9999 OVC042 14/14 A2982 RMK AO2 RAE0807 SLP087 P0000 60008 T01400140 50001

2010/08/10 08:50
EGVO 100850Z 24011KT 9999 -RA FEW008 BKN110 14/13 Q1011 BLU NOSIG

2010/08/10 08:50
EGVP 100850Z 23006KT 9999 -RA FEW007 SCT045 OVC100 14/12 Q1011 BLU BECMG 5000 BKN007 GRN

2010/08/10 08:50
EGYM 100850Z 21007KT 9999 FEW012 BKN045 BKN130 15/12 Q1009 BLU TEMPO SCT016 WHT

2010/08/10 08:50
EGDL 100850Z 22008KT 9999 SCT006 BKN011 BKN050 13/12 Q1011 YLO1 TEMPO SCT007 GRN

2010/08/10 08:50
EGOS 100850Z 25010KT 9999 SCT028 BKN050 16/09 Q1008 BLU NOSIG

2010/08/10 08:50
EGOV 100850Z 22015KT 9999 FEW020 BKN060 15/12 Q1007 BLU NOSIG

2010/08/10 08:50
EGQL 100850Z 10007KT 9999 FEW012 FEW024TCU BKN090 14/10 Q1004 BLU TEMPO -SHRA SCT020 WHT

2010/08/10 08:50
EGQS 100850Z 04007KT 9999 FEW020TCU SCT060 15/09 Q1004 BLU NOSIG

2010/08/10 08:50
EGUW 100850Z 28007KT 9999 -RA FEW006 SCT020 OVC050 14/13 Q1010 RERA WHT BECMG FEW020 BLU

2010/08/10 08:50
EGVO 100850Z 24011KT 9999 -RA FEW008 BKN110 14/13 Q1011 BLU NOSIG

2010/08/10 08:50
EGVP 100850Z 23006KT 9999 -RA FEW007 SCT045 OVC100 14/12 Q1011 BLU BECMG 5000 BKN007 GRN

2010/08/10 08:50
EGXC 100850Z 24009KT 9999 FEW015 SCT030 BKN130 15/13 Q1008 BLU TEMPO SCT020 WHT

2010/08/10 08:50
EGXE 100850Z 15004KT 9999 FEW015 BKN050 14/13 Q1006 BLU TEMPO SCT020 WHT

2010/08/10 08:50
EGXG 100850Z 25014KT 9999 FEW020 17/11 Q1007 BLU

2010/08/10 08:50
EGYD 100850Z 24010KT 9999 FEW012 SCT040 BKN150 15/13 Q1008 BLU TEMPO SCT018 WHT

2010/08/10 08:50
EGYM 100850Z 21007KT 9999 FEW012 BKN045 BKN130 15/12 Q1009 BLU TEMPO SCT016 WHT

2010/08/10 08:56
ETIC 100856Z AUTO 00000KT 9999 SCT045 BKN055 17/17 A3008 RMK AO2 SLP180 T01750175 53003

2010/08/10 08:56
ETOR 100856Z VRB04KT 9999 FEW040 FEW200 26/14 A3003 RMK 52002 BLU

2010/08/10 09:00
LEJR 100900Z 00000KT 9999 FEW020 31/08 Q1016

2010/08/10 08:55
LIYW 100855Z AUTO 00000KT 9999 CLR 27/18 A3002 RMK AO2 SLP161 T02670183 52001

2010/08/10 09:00
LWOH 100900Z 33003KT 9999 FEW050 26/13 Q1017

2010/08/10 08:55
BGTL 100855Z AUTO 00000KT 9999 CLR 04/03 A2980 RMK AO2 SLP096 T00360027 57005

2010/08/10 08:50
EFKI 100850Z AUTO 21005KT 160V250 //// BKN033 BKN074 20/17 Q1009

2010/08/10 08:55
KDLF 100855Z AUTO 11011KT 10SM CLR 28/23 A2992 RMK AO2 SLP114 T02780226 58004

2010/08/10 08:55
KDOV 100855Z AUTO 20008KT 10SM CLR 24/24 A2992 RMK AO2 SLP132 T02430241 58006

2010/08/10 08:55
KEND 100855Z 17009KT 10SM FEW100 27/20 A2989 RMK AO2A SLP103 T02690201 58010

2010/08/10 08:55
KFBG 100855Z 00000KT 10SM CLR 25/24 A3000 RMK AO2A SLP158 T02480238 58001 $

2010/08/10 08:55
KFRI 100855Z AUTO 20007KT 10SM CLR 28/20 A2984 RMK AO2 SLP082 T02780204 58012

2010/08/10 08:55
KPAM 100855Z AUTO 06005KT 10SM CLR 26/24 A2989 RMK AO2 SLP122 T02610240 56010 $

2010/08/10 08:55
KSKA 100855Z AUTO 22016G19KT 10SM SCT100 BKN140 OVC170 17/07 A2980 RMK AO2 CIG 095 RWY05 SLP078 T01660070 54000

2010/08/10 08:55
KSSC 100855Z 00000KT 10SM CLR 25/23 A2999 RMK AO2A SLP155 T02450234 56008 $

2010/08/10 08:55
KTCM 100855Z AUTO 21005KT 10SM OVC010 14/11 A2997 RMK AO2 SLP150 T01350108 58004

2010/08/10 08:55
KVAD 100855Z AUTO 09003KT 10SM CLR 24/24 A2995 RMK AO2 SLP140 T02430238 56006 $

2010/08/10 08:55
KXMR 100855Z AUTO 12005KT 10SM FEW033 26/24 A2991 RMK AO2 SLP131 T02590240 58007

2010/08/10 08:55
MHSC 100855Z AUTO 12003KT 9999 FEW002 21/21 A2994 RMK AO2 VIS 1600 RWY17 SLP104 60000 T02100208 56012 $

2010/08/10 08:55
OAHR 100855Z 36010G21KT CAVOK 35/M01 Q1010 RMK SKC VIS MIN 9999 BLU

2010/08/10 08:55
CYEK 100855Z AUTO 00000KT 2 1/4SM CLR 08/08 A3008 RMK VSBY VRBL 0.5V9.+

2010/08/10 08:50
OAKN 100850Z 31010KT 8000 DU BKN150 OVC250 37/02 Q1007 BLU TEMPO 6000 WHT RMK A2974 DA6700

2010/08/10 08:55
KQA4 100855Z AUTO 36016KT 6000 HZ FEW180 38/M01 A2979 RMK AO2 SLP993 T03761014 58011 $

2010/08/10 08:55
KQAQ 100855Z 34008KT 8000 HZ 45/07 A2961 RMK SLP023 PA +407 DA +3902 50002

2010/08/10 08:55
KQAR 100855Z AUTO 25004G10KT 11SM CLR 40/01 A2962 RMK AO2 SLP969 T04020006 58010 $

2010/08/10 08:55
KQAY 100855Z AUTO VRB04KT 9000 CLR 42/20 A2953 RMK AO2 SLP996 T04190195 58002 $

2010/08/10 08:55
KQBL 100855Z AUTO VRB02KT 8SM CLR 26/23 A2993 RMK AO2 SLP134 T02610231 56010

2010/08/10 08:55
KQC3 100855Z AUTO VRB03KT 9999 CLR 27/14 A3008 RMK AO2 SLP080 T02690144 58013 PNO $

2010/08/10 08:55
KQCQ 100855Z 36008G15KT 9999 CLR 47/M02 A2955 RMK SLP007 58003

2010/08/10 08:55
KQDX 100855Z AUTO 31008G15KT 4400 HZ 39/00 A2970 RMK AO2 SLP977 T03940000 57012 $

2010/08/10 08:55
KQON 100855Z AUTO RMK AO2 SLPNO $

2010/08/10 08:55
KQSA 100855Z 33005KT 9999 FEW070 BKN150 32/14 A2987 RMK SLP289 WND DATA ESTMD ALSTG/SLP ESTMD 57016

2010/08/10 08:55
KQTI 100855Z AUTO 29007KT 9999 43/03 A2970 RMK AO2 SLP029 T04250034 54000 $

2010/08/10 08:55
KQTZ 100855Z 34009G15KT 9000 HZ CLR 46/05 A2959 RMK SLP013 QNH1002MB WND DATA ESTMD ALTSG/SLP ESTMD T04570052 50002

2010/08/10 08:55
KQYU 100855Z AUTO 03013G25KT 9999 FEW230 34/M01 A2988 RMK AO2 SLP040 T03391013 57011

2010/08/10 08:55
KCOF 100855Z AUTO 12006KT 10SM CLR 26/ A2991 RMK AO2 SLP130 T0262 58008

2010/08/10 08:55
KDOV 100855Z AUTO 20008KT 10SM CLR 24/24 A2992 RMK AO2 SLP132 T02430241 58006

2010/08/10 08:55
KMCF 100855Z AUTO 08009KT 10SM SCT011 BKN017 25/25 A2987 RMK AO2 BKN V SCT CIG 010 RWY22 SLP117 T02540249 56009

2010/08/10 08:53
KNIP 100853Z 11006KT 10SM FEW020 27/24 A2994 RMK AO2 SLP135 T02720239 56007

2010/08/10 08:54
KNKT 100854Z AUTO 22003KT 10SM CLR 24/24 A3001 RMK AO2 SLP159 T02440239 58005

2010/08/10 08:53
KNQX 100853Z AUTO 22009KT 10SM TS CLR 26/23 A2984 RMK AO2 RAE23 SLP104 P0000 60001 T02610233 55003 $

2010/08/10 08:52
KNRB 100852Z AUTO 14011KT 10SM FEW021 SCT026 BKN060 28/23 A2994 RMK AO2 SLP138 T02830228 56007

2010/08/10 08:55
KPAM 100855Z AUTO 06005KT 10SM CLR 26/24 A2989 RMK AO2 SLP122 T02610240 56010 $

2010/08/10 08:54
KPHL 100854Z 20005KT 10SM SCT150 BKN200 26/21 A2992 RMK AO2 SLP133 T02560211 56008 $

2010/08/10 08:55
KPOB 100855Z AUTO 23005KT 10SM CLR 24/24 A3000 RMK AO2 SLP159 T02430243 58003 $

2010/08/10 08:55
KSSC 100855Z 00000KT 10SM CLR 25/23 A2999 RMK AO2A SLP155 T02450234 56008 $

2010/08/10 08:54
KSYR 100854Z 00000KT 4SM BR OVC044 22/21 A2993 RMK AO2 RAB05E33 SLP130 P0000 60000 T02170206 58004

2010/08/10 08:55
KVAD 100855Z AUTO 09003KT 10SM CLR 24/24 A2995 RMK AO2 SLP140 T02430238 56006 $

2010/08/10 08:55
KVPS 100855Z 01004KT 10SM SKC 25/24 A2991 RMK AO2A SLP127 T02520236 56010 $

2010/08/10 08:55
MMVR 100855Z 00000KT 7SM -RA BKN012TCU 26/25 A2988 RMK SLP080 57010 958 60005 8/200

2010/08/10 08:56
KGNR 100856Z AUTO 00000KT 16/14 A2987 RMK AO1 SLP113 T01560144 57002 

2010/08/10 09:00
TFFR 100900Z 13003KT 9999 SCT020 SCT050 25/24 Q1013 TEMPO 4000 SHRA

2010/08/10 08:56
KP28 100856Z AUTO 17005KT 27/19 A2989 RMK AO2 SLP098 T02670189 58001 PWINO TSNO 

2010/08/10 08:56
KCDJ 100856Z AUTO 00000KT 26/24 A2991 RMK AO2 SLP110 T02610244 55000 PWINO TSNO 

2010/08/10 08:56
KFSD 100856Z 13006KT 10SM OVC016 25/23 A2985 RMK AO2 SLP096 CONS LTGIC DSNT SE-SW T02500233 56019 $ 

2010/08/10 08:56
KABH 100856Z AUTO 08007KT 10SM CLR 15/13 A3015 RMK AO2 SLP133 T01500128 55001 $ 

2010/08/10 08:56
KNTU 100856Z 24005KT 10SM FEW200 23/22 A2997 RMK AO2 SLP150 T02330222 56004 $ 

2010/08/10 08:56
KNYG 100856Z AUTO 22007KT 8SM CLR 26/21 A2995 RMK AO2 SLP141 T02560206 58003 $ 

2010/08/10 08:56
KNFE 100856Z AUTO 00000KT 1 3/4SM HZ CLR 24/21 A2998 RMK AO2 SLP153 T02390211 56003 $ 

2010/08/10 08:56
K8D3 100856Z AUTO 00000KT 21/21 A2987 RMK AO2 SLP092 T02110206 55011 PWINO TSNO 

2010/08/10 08:56
KNLC 100856Z AUTO 31011KT 10SM CLR 22/12 A2981 RMK AO2 SLP091 T02220122 58004 TSNO 

2010/08/10 08:56
KNCA 100856Z AUTO 00000KT 10SM 24/24 A3001 RMK AO2 SLP164 T02390239 58005 $ 

2010/08/10 08:56
KGNA 100856Z AUTO 00000KT 14/13 A2994 RMK AO2 SLP135 T01440128 50000 PWINO TSNO 

2010/08/10 08:56
K2WX 100856Z AUTO 20008KT 19/12 A2978 RMK AO1 SLP053 T01940122 58001 

2010/08/10 08:50
EBAW 100850Z 22006KT 170V260 CAVOK 20/13 Q1014 NOSIG

2010/08/10 08:50
EBBR 100850Z 21006KT CAVOK 20/12 Q1014 NOSIG

2010/08/10 08:50
EBCI 100850Z 19006KT 150V240 CAVOK 21/11 Q1015 NOSIG

2010/08/10 08:50
EBLG 100850Z 21009KT CAVOK 22/12 Q1015 NOSIG

2010/08/10 08:50
EBOS 100850Z 19012KT 150V220 9999 BKN020 19/14 Q1013 TEMPO 4500 RA BKN012

2010/08/10 08:55
EHBK 100855Z AUTO 19006KT 140V220 9999NDV NCD 22/13 Q1014 NOSIG

2010/08/10 08:55
EHDL 100855Z AUTO 20007KT 9999NDV OVC220 19/14 Q1014 BLU

2010/08/10 08:55
EHGR 100855Z AUTO 22005KT 9999NDV OVC200 19/14 Q1013 BLU BLU TEMPO WHT TEMPO SCT020

2010/08/10 08:55
EHLW 100855Z AUTO 20009KT 7000NDV BR FEW008 SCT011 BKN016 18/16 Q1012 GRN WHT TEMPO GRN 6000 BR SCT023 TEMPO SCT012

2010/08/10 08:55
EHVK 100855Z AUTO 19006KT 9999NDV NCD 20/14 Q1014 BLU BLU NOSIG

2010/08/10 08:55
EHVL 100855Z AUTO 21018KT 9999NDV -RA FEW007 SCT008 BKN010 18/15 Q1011 GRN

2010/08/10 08:55
EHWO 100855Z AUTO 20006G16KT 9999NDV OVC190 19/14 Q1013 BLU BLU TEMPO WHT OVC200 TEMPO SCT020

2010/08/10 08:50
ELLX 100850Z 15005KT 100V200 CAVOK 22/12 Q1016 NOSIG

2010/08/10 08:55
ETAD 100855Z AUTO VRB06KT 9999 CLR 23/12 A3003 RMK AO2 SLPNO T02280123 VISNO RWY05 CHINO RWY05 $

2010/08/10 08:55
ETAR 100855Z AUTO 24003KT 9999 CLR 22/16 A3003 RMK AO2 SLP163 T02180161 52001 $

2010/08/10 08:55
ETEB 100855Z AUTO 36005KT 9999 CLR 22/12 A3007 RMK AO2 SLP170 T02150117 53003

2010/08/10 08:56
ETIC 100856Z AUTO 00000KT 9999 SCT045 BKN055 17/17 A3008 RMK AO2 SLP180 T01750175 53003

2010/08/10 08:56
ETOR 100856Z VRB04KT 9999 FEW040 FEW200 26/14 A3003 RMK 52002 BLU

2010/08/10 08:55
ETOU 100855Z AUTO 00000KT 9999 CLR 21/15 A3003 RMK AO2 SLP167 T02150149 50001

2010/08/10 08:55
KBAB 100855Z AUTO 00000KT 10SM CLR 18/10 A2982 RMK AO2 SLP097 T01800103 51004 $

2010/08/10 08:55
KDLF 100855Z AUTO 11011KT 10SM CLR 28/23 A2992 RMK AO2 SLP114 T02780226 58004

2010/08/10 08:55
KDOV 100855Z AUTO 20008KT 10SM CLR 24/24 A2992 RMK AO2 SLP132 T02430241 58006

2010/08/10 08:55
KEND 100855Z 17009KT 10SM FEW100 27/20 A2989 RMK AO2A SLP103 T02690201 58010

2010/08/10 08:55
KFAF 100855Z AUTO 21005KT 10SM CLR 26/26 A2996 RMK AO2 SLP147 T02580258 58006 $

2010/08/10 08:55
KFBG 100855Z 00000KT 10SM CLR 25/24 A3000 RMK AO2A SLP158 T02480238 58001 $

2010/08/10 08:55
KFHU 100855Z 23003KT 10SM SKC 22/14 A3010 RMK SLP120 58003

2010/08/10 08:55
KFMH 100855Z AUTO 00000KT 5SM BR FEW060 OVC075 20/20 A2992 RMK AO2

2010/08/10 08:55
KFRI 100855Z AUTO 20007KT 10SM CLR 28/20 A2984 RMK AO2 SLP082 T02780204 58012

2010/08/10 08:55
KFTK 100855Z AUTO 00000KT 10SM CLR 26/25 A2996 RMK AO2 SLP138 T02570246 58003 $

2010/08/10 08:55
KLFI 100855Z 22005KT 10SM CLR 25/23 A2997 RMK AO2A SLP149 T02520226 56005

2010/08/10 08:55
KLTS 100855Z AUTO 28005KT 10SM CLR 27/20 A2991 RMK AO2 SLP107 T02700200 56011 $

2010/08/10 08:55
KMCF 100855Z AUTO 08009KT 10SM SCT011 BKN017 25/25 A2987 RMK AO2 BKN V SCT CIG 010 RWY22 SLP117 T02540249 56009

2010/08/10 08:55
KMIB 100855Z AUTO 08009KT 10SM BKN045 20/16 A2984 RMK AO2 SLP096 60002 T01970163 56029

2010/08/10 08:55
KSVN 100855Z 00000KT 7SM FEW005 25/24 A2997 RMK SLP152 ALSTG/SLP ESTMD WND DATA ESTMD 56008

2010/08/10 08:57
CYZE 100857Z AUTO 00000KT 3SM BR FEW002 17/17 A2993 RMK SLP137 DENSITY ALT 1000FT VIS VRB 3/4-3

2010/08/10 08:55
KBDN 100855Z AUTO 00000KT 10SM CLR 10/02 A2999 RMK AO2

2010/08/10 08:58
KBDU 100858Z AUTO 16003KT 10SM SCT120 17/15 A3010 RMK AO2

2010/08/10 08:53
KBFW 100853Z AUTO 00000KT 7SM CLR 16/15 A2995 RMK AO2

2010/08/10 08:56
KBMI 100856Z AUTO 00000KT 10SM CLR 24/23 A2993 RMK AO2 PWINO 58017 60003 T02380227 LTG DSNT N P0001 SLP118 $

2010/08/10 08:56
KBOK 100856Z AUTO 00000KT 1 3/4SM BR OVC002 11/11 A2993 RMK AO2 58002 T01110111 SLP137

2010/08/10 08:53
KBTR 100853Z 00000KT 3/4SM BR FEW001 BKN004 24/24 A2992 RMK AO2 SLP131 T02440244 56008 RVRNO

2010/08/10 08:54
KBTV 100854Z 00000KT 1/4SM FG VV001 17/17 A2991 RMK AO2 SLP128 T01720172 50000 RVRNO

2010/08/10 08:51
KCAK 100851Z 25003KT 8SM SCT070 OVC100 24/19 A2997 RMK AO2 SLP137 8/07/ T02390189 56002

2010/08/10 08:57
KCCU 100857Z AUTO 24007KT 10SM SCT034 SCT043 08/01 A3057 RMK AO2

2010/08/10 08:52
KCDD 100852Z AUTO 00000KT 5SM BR CLR 19/19 A2996 RMK AO2

2010/08/10 08:53
KCHA 100853Z 00000KT 10SM CLR 26/23 A3001 RMK AO2 SLP150 T02610228 53001 $

2010/08/10 08:55
KCIC 100855Z AUTO 13003KT 10SM CLR 22/10 A2981 RMK AO1

2010/08/10 08:55
KCMA 100855Z 00000KT 10SM BKN007 14/12 A2989 RMK AO2 SLP130 T01390117 55002

2010/08/10 08:55
KCNK 100855Z AUTO 19012KT 10SM CLR 28/21 A2985 RMK AO2 SLP085 T02780211 56014

2010/08/10 09:02
KCPW 100902Z AUTO 23009KT 10SM CLR 07/00 A3058 RMK AO2

2010/08/10 08:50
KCVH 100850Z AUTO 00000KT 10SM OVC005 13/12 A2992 RMK AO1

2010/08/10 08:53
KDAB 100853Z 12005KT 10SM FEW020 27/24 A2993 RMK AO2 SLP133 T02670239 56009

2010/08/10 08:55
KDCM 100855Z AUTO 00000KT 7SM CLR 22/22 A3002 RMK AO2

2010/08/10 08:55
KDLH 100855Z 00000KT 10SM CLR 19/18 A2997 RMK AO2 SLP143 T01940178 58002

2010/08/10 08:56
KDVP 100856Z AUTO 12007KT 4SM BR OVC004 24/22 A2992 RMK AO2 LTG DSNT SE T02360223

2010/08/10 08:54
KDXX 100854Z AUTO 00000KT 10SM SCT036 BKN041 23/23 A2987 RMK AO2

2010/08/10 08:54
KDYT 100854Z AUTO 00000KT 10SM CLR 23/21 A2994 RMK AO2

2010/08/10 08:55
KEAT 100855Z AUTO 29009KT 10SM CLR 18/07 A2982 RMK AO2 SLP091 T01780072 50000

2010/08/10 08:55
KEDC 100855Z AUTO 22005KT 10SM CLR 25/24 A2993 RMK AO1

2010/08/10 08:56
KEFK 100856Z AUTO 00000KT 1/4SM FG OVC001 14/13 A2994 RMK AO2

2010/08/10 08:55
KEIK 100855Z AUTO 22003KT 5SM BR CLR 15/14 A3010 RMK AO2

2010/08/10 08:53
KELO 100853Z AUTO 00000KT 5SM BR CLR 16/16 A2996 RMK AO2

2010/08/10 08:55
KEOE 100855Z AUTO 00000KT 7SM CLR 23/22 A3004 RMK AO2

2010/08/10 08:54
KETH 100854Z AUTO 12006KT 7SM CLR 20/19 A2991 RMK AO2

2010/08/10 08:52
KEVM 100852Z AUTO 00000KT 1/4SM FG OVC001 16/15 A2995 RMK AO1

2010/08/10 08:54
KFBL 100854Z AUTO 08003KT 5SM BR CLR 21/19 A2994 RMK AO2

2010/08/10 08:53
KFFM 100853Z AUTO 10003KT 10SM CLR 23/21 A2987 RMK AO2

2010/08/10 08:54
KFGN 100854Z AUTO 00000KT 7SM CLR 24/21 A2988 RMK AO2

2010/08/10 09:02
KFKA 100902Z AUTO 14003KT 10SM CLR 24/23 A2998 RMK AO2 LTG DSNT SW T02360226

2010/08/10 08:55
KFMH 100855Z AUTO 00000KT 5SM BR FEW060 OVC075 20/20 A2992 RMK AO2

2010/08/10 08:53
KFOZ 100853Z AUTO 00000KT 10SM CLR 18/17 A2997 RMK AO2

2010/08/10 08:59
KFSO 100859Z AUTO 00000KT 5SM BR CLR 16/16 A2991 RMK AO2

2010/08/10 08:54
KFWA 100854Z 00000KT 1/4SM FG SCT036 23/22 A2996 RMK AO2 SLP138 R32/0500FT T02280222 58002

2010/08/10 08:52
KGDB 100852Z AUTO 08005KT 10SM BKN034 23/22 A2990 RMK AO2 T02300221

2010/08/10 08:53
KGHW 100853Z AUTO 11006KT 4SM BR CLR 21/19 A2993 RMK AO2

2010/08/10 08:55
KGPI 100855Z AUTO 30003KT 10SM FEW095 12/09 A2984 RMK AO2 SLP090 T01220094 51003 $

2010/08/10 08:54
KGSO 100854Z 21004KT 7SM CLR 24/21 A3003 RMK AO2 SLP155 T02390206 56006

2010/08/10 08:54
KGYL 100854Z AUTO 09003KT 7SM CLR 21/20 A2992 RMK AO2 T02130203

2010/08/10 08:52
KHCD 100852Z AUTO 10005KT 7SM CLR 22/21 A2992 RMK AO2 T02210208

2010/08/10 08:54
KHCO 100854Z AUTO 00000KT 10SM CLR 22/22 A2992 RMK AO2

2010/08/10 08:55
KHVS 100855Z AUTO 00000KT 2 1/2SM SCT013 22/ A3002 RMK AO2

2010/08/10 08:51
KHZX 100851Z AUTO 00000KT 10SM CLR 17/17 A2996 RMK AO2

2010/08/10 08:55
KIFP 100855Z AUTO 00000KT 10SM CLR 29/05 A2977 RMK AO2

2010/08/10 08:54
KIKW 100854Z AUTO 00000KT 1 1/2SM BR VV007 20/19 A2994 RMK AO2 T02000190

2010/08/10 08:55
KIRK 100855Z AUTO 00000KT 9SM CLR 27/25 A2994 RMK AO2 SLP131 T02670250 53000

2010/08/10 08:55
KJKJ 100855Z AUTO 14004KT 10SM CLR 22/21 A2987 RMK AO2

2010/08/10 08:55
KLRO 100855Z AUTO 00000KT 7SM CLR 23/23 A3000 RMK AO2

2010/08/10 08:55
KLUX 100855Z AUTO 00000KT 7SM CLR 22/22 A3003 RMK AO2

2010/08/10 08:54
KLVN 100854Z AUTO 00000KT M1/4SM FG OVC001 19/19 A2994 RMK AO2

2010/08/10 08:53
KLXL 100853Z AUTO 08003KT 10SM CLR 20/18 A2991 RMK AO2

2010/08/10 08:53
KLXV 100853Z AUTO 00000KT 10SM CLR 04/04 A3044 RMK AO2 SLP164 T00440039 51002 TSNO

2010/08/10 08:58
KLYV 100858Z AUTO 10009KT 7SM BKN020 BKN025 BKN035 25/23 A2986 RMK AO2 LTG DSNT SE THRU W

2010/08/10 08:55
KMAO 100855Z AUTO 00000KT 5SM BR BKN002 24/24 A3000 RMK AO2

2010/08/10 08:55
KMGG 100855Z AUTO 00000KT 7SM CLR 20/20 A2993 RMK AO2 T01970195

2010/08/10 08:51
KMJQ 100851Z AUTO 13006KT 7SM BKN006 OVC039 23/23 A2992 RMK AO2

2010/08/10 08:55
KMKG 100855Z 00000KT 2SM BR SCT002 21/20 A2995 RMK AO2 SLP138 T02060200 58002

2010/08/10 08:55
KMKS 100855Z AUTO 00000KT 7SM CLR 24/23 A3000 RMK AO2 TSNO

2010/08/10 08:48
KMOX 100848Z AUTO 12006KT 7SM CLR 22/21 A2986 RMK AO2

2010/08/10 08:53
KMRT 100853Z AUTO 28004KT 7SM CLR 23/20 A3001 RMK AO2 T02250201

2010/08/10 08:53
KMSN 100853Z 00000KT 2 1/2SM BR CLR 22/21 A2996 RMK AO2 SLP137 T02170211 55003

2010/08/10 08:54
KMVE 100854Z AUTO 16004KT 7SM SCT036 SCT042 23/22 A2987 RMK AO2 LTG DSNT SW

2010/08/10 08:53
KMWM 100853Z AUTO 10006KT 7SM CLR 23/22 A2990 RMK AO2 LTG DSNT SE AND S

2010/08/10 08:51
KMZH 100851Z AUTO 00000KT 1/4SM FG OVC001 18/17 A2994 RMK AO2

2010/08/10 08:55
KNQA 100855Z AUTO 00000KT 7SM CLR 26/25 A2993 RMK

2010/08/10 08:55
KO22 100855Z AUTO 00000KT 10SM CLR 14/10 A2991 RMK AO1

2010/08/10 08:51
KONA 100851Z AUTO 13003KT 1/2SM FG OVC001 23/22 A2994 RMK AO2

2010/08/10 08:54
KONZ 100854Z AUTO 00000KT 1 1/2SM BR VV007 22/21 A2994 RMK AO2 VIS 3/4V3

2010/08/10 08:54
KORB 100854Z AUTO 00000KT 7SM CLR 19/18 A2994 RMK AO2

2010/08/10 08:53
KOVE 100853Z AUTO 17006KT 10SM CLR 19/12 A2983 RMK AO2 SLP102 T01940117 50001 TSNO $

2010/08/10 08:54
KOVL 100854Z AUTO 12009KT 10SM CLR 22/20 A2989 RMK AO2 T02230201

2010/08/10 08:54
KOWA 100854Z AUTO 11005KT 7SM CLR 21/21 A2993 RMK AO2 LTG DSNT S AND SW

2010/08/10 08:53
KPEX 100853Z AUTO 11004KT 7SM CLR 22/21 A2992 RMK AO2 T02210209

2010/08/10 08:53
KPNM 100853Z AUTO 00000KT 1 1/4SM BR CLR 19/19 A2994 RMK AO2 VIS 1/4V5

2010/08/10 08:53
KPQN 100853Z AUTO 12006KT 7SM SCT005 BKN039 24/23 A2989 RMK AO2 LTG DSNT SW

2010/08/10 08:50
KPVJ 100850Z AUTO 14004KT 10SM CLR 27/21 A2991 RMK AO2

2010/08/10 08:53
KPWC 100853Z AUTO 00000KT 3/4SM BR OVC001 17/16 A2996 RMK AO2

2010/08/10 08:55
KRBW 100855Z AUTO 00000KT 10SM CLR 24/24 A3001 RMK AO2

2010/08/10 08:55
KRCE 100855Z AUTO 20007KT 10SM CLR 26/20 A2992 RMK AO2

2010/08/10 08:55
KRNO 100855Z 32005KT 10SM CLR 20/04 A3000 RMK AO2 SLP102 T02000039 50004

2010/08/10 08:54
KROS 100854Z AUTO 00000KT 5SM BR CLR 18/18 A2994 RMK AO2 T01820175

2010/08/10 08:54
KROX 100854Z AUTO 20005KT 10SM CLR 22/20 A2990 RMK AO2

2010/08/10 08:53
KLAX 100853Z 25004KT 10SM OVC007 16/13 A2991 RMK AO2 SLP126 T01560128 50002 $

2010/08/10 08:54
KRIC 100854Z 25006KT 10SM SCT060 26/21 A2996 RMK AO2 SLP148 T02560206 58005 $

2010/08/10 08:53
K04W 100853Z AUTO 00000KT 7SM SCT002 19/18 A2995 RMK AO2 T01870182

2010/08/10 08:55
K0A9 100855Z AUTO 00000KT 10SM SCT080 21/19 A3007 RMK

2010/08/10 08:56
K20V 100856Z AUTO 00000KT 10SM CLR 07/04 A3030 RMK AO2

2010/08/10 08:53
K29G 100853Z AUTO 25003KT 10SM SCT035 22/19 A2997 RMK AO2 T02220188 PWINO

2010/08/10 08:54
K4BM 100854Z AUTO 27003KT 10SM 07/05 A3055 RMK AO2

2010/08/10 08:52
K5SM 100852Z AUTO 00000KT 10SM 09/01 A3050 RMK AO2

2010/08/10 08:54
K7BM 100854Z AUTO 28004KT 10SM CLR 13/02 A3045 RMK AO2

2010/08/10 08:50
KAEL 100850Z AUTO 15003KT 10SM SCT031 23/22 A2994 RMK AO2 LTG DSNT SE AND S

2010/08/10 08:53
KAIT 100853Z AUTO 00000KT 10SM CLR 16/14 A2994 RMK AO2

2010/08/10 08:55
KANE 100855Z AUTO 00000KT 7SM CLR 22/21 A2993 RMK AO2

2010/08/10 08:54
KAQP 100854Z AUTO 12004KT 7SM CLR 22/22 A2988 RMK AO2

2010/08/10 08:55
KARW 100855Z AUTO 00000KT 10SM SCT022 SCT029 SCT035 26/23 A2999 RMK AO2

2010/08/10 08:54
KAVP 100854Z 00000KT 10SM FEW075 23/19 A2997 RMK AO2 SLP134 T02280189 53001 $

2010/08/10 08:53
KBBB 100853Z AUTO 13006KT 10SM CLR 23/22 A2993 RMK AO2

2010/08/10 08:55
KJMR 100855Z AUTO 00000KT 3/4SM BR VV005 18/18 A2996 RMK AO2

2010/08/10 08:55
KLIC 100855Z AUTO 00000KT 10SM CLR 13/13 A3011 RMK AO2 SLP124 T01280128 51000

2010/08/10 08:53
KLJF 100853Z AUTO 10003KT 7SM CLR 21/21 A2992 RMK AO2

2010/08/10 08:55
KLLJ 100855Z AUTO 32004KT 10SM FEW075 BKN090 OVC120 12/09 A3009 RMK AO2 LTG DSNT S SLPNO 60000 T01170094 51013 $

2010/08/10 08:53
KLND 100853Z AUTO 35009KT 10SM CLR 17/03 A3005 RMK AO2 SLP102 T01670033 51001

2010/08/10 08:55
KLQK 100855Z AUTO 00000KT 1SM BR VV007 23/23 A3003 RMK AO2 VIS 1/2V4 6//// T02300225 PNO

2010/08/10 08:54
KRRT 100854Z AUTO 22003KT 10SM CLR 23/21 A2991 RMK AO2 TSNO

2010/08/10 08:53
KSAV 100853Z 00000KT 10SM FEW019 25/23 A2998 RMK AO2 SLP153 T02500233 56005 $

2010/08/10 08:54
KSAZ 100854Z AUTO 00000KT 10SM CLR 21/20 A2993 RMK AO2

2010/08/10 08:55
KSCK 100855Z 01005KT 10SM CLR 16/12 A2983 RMK AO2 SLP101 T01610122 58002

2010/08/10 08:53
KSGR 100853Z AUTO 00000KT 10SM CLR 25/24 A2990 RMK AO2 SLP133 T02500239 56010 TSNO

2010/08/10 08:53
KSGS 100853Z AUTO 00000KT 10SM CLR 23/21 A2993 RMK AO2 T02330213

2010/08/10 08:55
KSMS 100855Z AUTO 00000KT 4SM BR SCT001 23/23 A3001 RMK AO2

2010/08/10 08:55
KSYN 100855Z AUTO 00000KT 1/4SM FG OVC001 20/19 A2993 RMK AO2 T01970187

2010/08/10 08:54
KTEW 100854Z AUTO 00000KT 1/4SM FG OVC017 18/18 A2996 RMK AO2

2010/08/10 08:53
KTKC 100853Z AUTO 00000KT 7SM SCT042 23/21 A2990 RMK AO2 LTG DSNT SE THRU SW T02250214

2010/08/10 08:53
KTLH 100853Z 07006KT 10SM FEW008 26/23 A2992 RMK AO2 SLP130 T02610233 55005

2010/08/10 08:55
KTME 100855Z AUTO 00000KT 10SM 24/24 A2992 RMK AO2

2010/08/10 08:55
KTOB 100855Z AUTO 11005KT 1/2SM FG VV005 21/19 A2997 RMK AO2

2010/08/10 08:53
KTRI 100853Z 00000KT 6SM BR FEW060 BKN090 BKN100 23/21 A3005 RMK AO2 SLP155 T02280206 55003

2010/08/10 08:53
KTWM 100853Z AUTO 00000KT 5SM HZ CLR 18/16 A2994 RMK AO2

2010/08/10 08:53
KTYS 100853Z 00000KT 7SM CLR 25/23 A3001 RMK AO2 SLP147 T02500228 55001

2010/08/10 08:55
KUTA 100855Z AUTO 15005KT 7SM CLR 26/25 A2993 RMK AO2

2010/08/10 09:00
KVTP 100900Z AUTO 26007KT 220V300 10SM CLR 09/06 A3046 RMK AO2

2010/08/10 08:56
KVVV 100856Z AUTO 13004KT 7SM SCT033 23/22 A2988 RMK AO2

2010/08/10 08:49
KVWU 100849Z AUTO 00000KT 10SM CLR 19/18 A2994 RMK AO2

2010/08/10 08:50
KWYS 100850Z AUTO 00000KT 10SM CLR 05/05 A3015 RMK AO2

2010/08/10 08:56
KXVG 100856Z AUTO 00000KT 4SM BR SCT001 16/16 A2993 RMK AO2

2010/08/10 08:56
K1M4 100856Z AUTO 00000KT 4SM BR CLR 23/23 A3001 RMK AO2 56005 T02330233 SLP158

2010/08/10 08:56
KAND 100856Z AUTO 00000KT 8SM CLR 24/21 A3002 RMK AO2 SLP152 T02390211 55007

2010/08/10 08:55
KBIX 100855Z AUTO 03004KT 10SM CLR 26/25 A2991 RMK AO2 SLPNO T02560250 56005 $

2010/08/10 08:56
KBZN 100856Z AUTO 14006KT 10SM CLR 12/09 A2998 RMK AO2 SLP117 T01220089 58002

2010/08/10 08:56
KCEC 100856Z AUTO 00000KT 10SM OVC004 12/11 A2993 RMK AO2 SLP135 T01220111 58003

2010/08/10 08:55
KCEF 100855Z AUTO 22003KT 9SM BKN065 21/21 A2991 RMK AO2 VIS 2 1/2 RWY05 SLP130 60007 T02140208 55002 $

2010/08/10 08:56
KDIK 100856Z AUTO 16009KT 10SM CLR 20/16 A2980 RMK AO2 SLP065 T02000156 55008

2010/08/10 08:56
KDUG 100856Z AUTO 10003KT 10SM CLR 21/17 A3006 RMK AO2 SLP103 T02110167 58001

2010/08/10 08:56
KDUJ 100856Z AUTO 00000KT 8SM OVC110 21/18 A3000 RMK AO2 SLP143 60000 T02060178 56003

2010/08/10 08:56
KEAU 100856Z AUTO 00000KT 1 1/2SM BR FEW001 21/19 A2994 RMK AO2 SLP132 60001 T02060194 55001

2010/08/10 08:56
KEED 100856Z AUTO 00000KT 10SM CLR 31/M03 A2978 RMK AO2 SLP047 T03111033 53003 TSNO

2010/08/10 08:51
KEFD 100851Z 00000KT FEW250 26/25 A2993

2010/08/10 08:56
KGRD 100856Z AUTO 00000KT 10SM CLR 22/21 A3003 RMK AO2 SLP160 T02220211 55007

2010/08/10 08:55
KGUS 100855Z AUTO 14003KT 10SM FEW032 23/23 A2995 RMK AO2 SLP135 T02310231 58002

2010/08/10 08:55
KHFF 100855Z AUTO 00000KT 7SM R22/5000V5500FT CLR 23/22 A3003 RMK AO2 SLP164 T02290221 58002 $

2010/08/10 08:56
KHND 100856Z AUTO 20007KT 10SM CLR 25/M02 A2989 RMK AO2 58002 T02501022 SLP065

2010/08/10 08:56
KIGX 100856Z AUTO 00000KT 7SM CLR 24/22 A3001 RMK AO2 SLP156 T02390222 58006

2010/08/10 08:56
KINW 100856Z AUTO 00000KT 10SM SCT095 19/09 A3012 RMK AO2 SLP121 T01940094 58000 $

2010/08/10 08:56
KJMS 100856Z AUTO 12004KT 10SM CLR 20/18 A2986 RMK AO2 SLP100 T02000183 58015

2010/08/10 08:56
KLAS 100856Z 22007KT 10SM CLR 28/M04 A2982 RMK AO2 SLP068 T02781039 56001

2010/08/10 08:56
KLNR 100856Z AUTO 00000KT 1/4SM FG VV001 23/22 A2997 RMK AO2 SLP137 T02280217 55001

2010/08/10 08:55
KLRF 100855Z AUTO 00000KT 10SM CLR 27/26 A2991 RMK AO2 SLP126 T02670258 57006

2010/08/10 08:56
KM19 100856Z AUTO 00000KT 10SM CLR 27/26 A2991 RMK AO2 58012 T02720255 SLPNO

2010/08/10 08:55
KMMT 100855Z AUTO 00000KT 8SM R32/5000V5500FT BKN011 23/23 A3000 RMK AO2 CIG 010V015 SLP158 T02340232 57007

2010/08/10 08:56
KMOB 100856Z 02004KT 10SM FEW250 25/24 A2993 RMK AO2 SLP132 T02500239 58004

2010/08/10 08:56
KMQY 100856Z AUTO 18003KT 7SM CLR 24/24 A2999 RMK AO2 55003 T02440238 SLP144 $

2010/08/10 08:55
KMXF 100855Z AUTO 00000KT 10SM BKN070 26/24 A2994 RMK AO2 SLP136 T02630239 57003

2010/08/10 08:52
KNRB 100852Z AUTO 14011KT 10SM FEW021 SCT026 BKN060 28/23 A2994 RMK AO2 SLP138 T02830228 56007

2010/08/10 08:56
KOFK 100856Z AUTO 12005KT 2 1/2SM BR OVC001 26/25 A2986 RMK AO2 SLP094 T02560250 55015

2010/08/10 08:55
KOZR 100855Z AUTO 06005KT 10SM CLR 24/23 A2994 RMK AO2 SLP134 T02370230 56004 $

2010/08/10 08:56
KRDM 100856Z AUTO 16004KT 10SM CLR 09/04 A2995 RMK AO2 SLP123 T00890039 50001

2010/08/10 08:56
KSBP 100856Z 33003KT 10SM OVC006 13/12 A2991 RMK AO2 SLP126 T01280117 58006 $

2010/08/10 08:56
KSFO 100856Z 28003KT 10SM FEW003 OVC010 13/10 A2990 RMK AO2 SLP125 T01330100 58006

2010/08/10 08:56
KSLE 100856Z AUTO 29004KT 10SM CLR 13/10 A2998 RMK AO2 SLP151 T01280100 58002 TSNO

2010/08/10 08:56
KSRC 100856Z AUTO 22003KT 7SM CLR 27/26 A2992 RMK AO2 TSNO 58008 T02720261 SLP131

2010/08/10 08:56
KUKI 100856Z AUTO 17003KT 10SM CLR 15/11 A2986 RMK AO2 SLP102 T01500111 58001

2010/08/10 08:56
KWJF 100856Z 27011KT 10SM CLR 21/M07 A2990 RMK AO2 SLP102 T02111072 58002

2010/08/10 08:55
KWRB 100855Z AUTO 00000KT 10SM CLR 23/23 A2999 RMK AO2 SLP151 T02300230 55002

2010/08/10 08:56
PAAK 100856Z AUTO 27010KT 10SM OVC005 08/06 A2990 RMK AO1 52027 PNO

2010/08/10 08:56
PACM 100856Z AUTO 18007KT 5SM -RA BR FEW019 BKN049 OVC065 11/09 A2934 RMK AO2 TSNO 51012 60009 T01050088 401160094 P0001 SLP932 $

2010/08/10 08:56
PAHP 100856Z AUTO 18009KT 10SM BKN010 OVC014 10/07 A2931 RMK AO1 52010 PNO TSNO

2010/08/10 08:56
PAAK 100856Z AUTO 27010KT 10SM OVC005 08/06 A2990 RMK AO1 52027 PNO

2010/08/10 08:56
PABL 100856Z AUTO 00000KT 10SM BKN017 OVC021 12/11 A2949 RMK AO1 52010 PNO

2010/08/10 08:56
PABV 100856Z AUTO 09003KT 10SM OVC008 12/08 A2978 RMK AO1 52010 PNO

2010/08/10 08:56
PACM 100856Z AUTO 18007KT 5SM -RA BR FEW019 BKN049 OVC065 11/09 A2934 RMK AO2 TSNO 51012 60009 T01050088 401160094 P0001 SLP932 $

2010/08/10 08:56
PADK 100856Z 23010KT 10SM FEW080 OVC100 09/07 A2990 RMK AO1 52010 PNO

2010/08/10 08:56
PAEM 100856Z AUTO 16011KT 3SM SCT006 BKN016 OVC034 11/08 A2933 RMK AO1 52007 PNO

2010/08/10 08:56
PAFE 100856Z AUTO 00000KT 6SM BKN008 OVC021 13/11 A3005 RMK AO1 52003 PNO

2010/08/10 08:56
PAFM 100856Z AUTO 10003KT 10SM BKN034 OVC040 13/11 A2958 RMK AO1 52010 PNO

2010/08/10 08:56
PAGL 100856Z AUTO 11008KT 10SM SCT020 BKN100 OVC120 12/09 A2950 RMK AO1 52010 PNO

2010/08/10 08:56
PAGM 100856Z AUTO 05008KT 5SM OVC004 08/07 A2942 RMK AO1 52010

2010/08/10 08:56
PAGS 100856Z AUTO 00000KT 7SM FEW014 SCT044 BKN120 13/12 A2999 RMK AO1 54000 PNO

2010/08/10 08:56
PAHP 100856Z AUTO 18009KT 10SM BKN010 OVC014 10/07 A2931 RMK AO1 52010 PNO TSNO

2010/08/10 08:56
PAHY 100856Z AUTO 00000KT 10SM OVC013 13/12 A3002 RMK AO1 57003 PNO

2010/08/10 08:56
PAII 100856Z AUTO 16004KT 4SM OVC006 10/09 A2970 RMK AO1 52007 PNO

2010/08/10 08:56
PAIN 100856Z AUTO 24004KT 10SM BKN048 OVC055 13/08 A2968 RMK AO1 52003 PNO

2010/08/10 08:56
PAJC 100856Z AUTO 26008KT 10SM SCT018 BKN025 OVC044 12/07 A2967 RMK AO1 52007 PNO

2010/08/10 08:56
PAKK 100856Z AUTO 17005KT 10SM SCT022 BKN075 OVC100 13/10 A2945 RMK AO1 52010 PNO

2010/08/10 08:56
PAKP 100856Z AUTO 05003KT 1/2SM OVC003 09/08 A2962 RMK AO1 60001 52007

2010/08/10 08:56
PAMD 100856Z AUTO 18004KT 4SM BKN011 OVC020 11/09 A2992 RMK AO1 52007 PNO

2010/08/10 08:56
PAMH 100856Z RMK AO1 PNO

2010/08/10 08:56
PAMM 100856Z AUTO 00000KT 10SM BKN015 13/11 A3004 RMK AO1 57007 PNO

2010/08/10 08:56
PAMY 100856Z 22005KT 10SM FEW009 SCT032 BKN045 09/07 A2935 RMK AO1 52010

2010/08/10 08:56
PANI 100856Z AUTO 13006KT 10SM OVC050 12/08 A2952 RMK AO1 52010 PNO

2010/08/10 08:56
PANV 100856Z AUTO 18008KT 10SM SCT014 BKN038 OVC070 11/09 A2949 RMK AO1 52010 PNO

2010/08/10 08:56
PAOU 100856Z AUTO 00000KT 10SM OVC027 10/08 A2965 RMK AO2 PWINO TSNO 51011 T01000083 401330100 SLP042 $

2010/08/10 08:56
PAPG 100856Z 07003KT 8SM FEW004 BKN028 OVC045 11/10 A3002 RMK AO1 54000 PNO

2010/08/10 08:56
PAPH 100856Z AUTO 08005KT 10SM OVC045 11/08 A2965 RMK AO1 52007 PNO

2010/08/10 08:56
PAPN 100856Z AUTO 00000KT 9SM FEW008 OVC016 11/09 A2966 RMK AO2 PWINO TSNO 51004 T01050094 401550094 SLP047

2010/08/10 08:56
PARC 100856Z AUTO 05004KT 10SM FEW008 OVC060 11/08 A2962 RMK AO1 54000 PNO

2010/08/10 08:56
PASA 100856Z AUTO 04008KT 8SM SCT006 BKN025 OVC060 09/07 A2941 RMK AO1 52010 PNO

2010/08/10 08:56
PASD 100856Z AUTO 22013G18KT 10SM OVC015 10/08 A2971 RMK AO1 52014 PNO

2010/08/10 08:56
PASH 100856Z AUTO 02003KT 7SM OVC070 12/11 A2946 RMK AO1 52003 PNO

2010/08/10 08:56
PASK 100856Z AUTO 10009G14KT 10SM BKN049 OVC100 14/11 A2950 RMK AO1 52007 PNO

2010/08/10 08:56
PASL 100856Z AUTO 13006KT 10SM SCT026 SCT033 OVC060 12/08 A2964 RMK AO1 52017 PNO

2010/08/10 08:56
PASM 100856Z AUTO 15011G17KT 10SM OVC005 09/08 A2941 RMK AO1 52010 PNO

2010/08/10 08:56
PASX 100856Z AUTO 00000KT 10SM OVC046 11/10 A2978 RMK AO1 52003 PNO

2010/08/10 08:56
PATG 100856Z AUTO 18015KT 9SM SCT008 BKN027 OVC041 10/09 A2955 RMK AO1 52007 PNO

2010/08/10 08:56
PAUN 100856Z AUTO 09006KT 10SM SCT027 BKN036 OVC050 12/07 A2947 RMK AO1 52010 PNO

2010/08/10 08:56
PAVD 100856Z 00000KT 2 1/2SM SCT004 OVC016 11/09 A2989 RMK AO1 52003 PNO

2010/08/10 08:56
PAWG 100856Z AUTO 00000KT 10SM SCT014 OVC043 13/11 A3003 RMK AO1 57003 PNO

2010/08/10 08:56
PAWN 100856Z AUTO 03004KT 10SM BKN023 OVC030 12/10 A2952 RMK AO1 52003 PNO

2010/08/10 08:56
PAWS 100856Z AUTO 00000KT 10SM BKN017 OVC060 11/10 A2977 RMK AO1 52007 PNO

2010/08/10 08:55
KMSL 100855Z AUTO 00000KT 1 1/4SM BR SCT001 24/23 A2998 RMK AO2

2010/08/10 08:55
KDEQ 100855Z AUTO 00000KT 4SM BR CLR 24/23 A2989 RMK AO2

2010/08/10 08:55
KHIE 100855Z AUTO 00000KT 1 3/4SM BR OVC001 17/17 A2994 RMK AO2

2010/08/10 08:56
KBTL 100856Z AUTO 00000KT 3SM BR BKN004 21/20 A2997 RMK AO2 CIG 001V006

2010/08/10 08:52
KHFF 100852Z AUTO 00000KT 8SM R22/5000V5500FT CLR 23/23 A3003 RMK AO2 SLP164 $

2010/08/10 08:56
KOTM 100856Z AUTO 32009KT 1 1/4SM +TSRA BR BKN018 OVC055 22/21 A3000 RMK AO2 WSHFT 0838 LTG DSNT NW-E P0008

2010/08/10 08:50
RKNY 100850Z 16003KT 4500 -RA BR FEW015 BKN030 OVC100 25/22 Q1007 NOSIG 

2010/08/10 08:54
KROA 100854Z 00000KT 9SM CLR 23/21 A3003 RMK AO2 SLP155 T02330206 56004

2010/08/10 08:54
KMTP 100854Z AUTO 00000KT 24/19 A2993 RMK AO2 SLP134 T02390194 51003 PWINO TSNO  REQ NYCMTRMTP

2010/08/10 08:53
KMWT 100853Z AUTO 00000KT 10SM CLR 24/23 A2992 RMK AO2 SLP115 T02440233 56006 TSNO

2010/08/10 08:54
KRFD 100854Z 15003KT 10SM FEW180 24/22 A2997 RMK AO2 SLP142 T02390222 55000 $

2010/08/10 08:54
KAKQ 100854Z AUTO 00000KT 6SM BR FEW070 23/22 A2998 RMK AO2 SLP149 T02330217 56003 TSNO

2010/08/10 08:55
KDRA 100855Z AUTO 09007KT 10SM CLR 21/M08 A2991 RMK AO2 SLP079 T02111083 58004 TSNO

2010/08/10 08:53
K6R6 100853Z AUTO 13004KT 25/18 A2995 RMK AO2 SLP102 T02500178 58004 PWINO TSNO

2010/08/10 08:56
KCHS 100856Z 14003KT 10SM FEW025 27/25 A3000 RMK AO2 SLP158 T02670250 55002

2010/08/10 08:55
KINL 100855Z AUTO 00000KT 10SM CLR 17/17 A2993 RMK AO2 VIS 1/2 RWY 31 SLP131 T01720172 50000 $

2010/08/10 08:55
KPHP 100855Z AUTO 18009KT 10SM -RA SCT050 BKN070 22/18 A2987 RMK AO2 RAB42 SLP088 P0000 60000 T02170178 51002 TSNO

2010/08/10 08:55
KVBG 100855Z AUTO 00000KT 10SM OVC003 13/12 A2992 RMK AO2 SLP122 T01280117 58006 TSNO CHINO RWY12 $

2010/08/10 08:55
KMBG 100855Z AUTO 14006KT 10SM CLR 23/22 A2982 RMK AO2 SLP082 T02280217 55008 TSNO

2010/08/10 08:55
KHON 100855Z AUTO 15004KT 9SM FEW013 BKN036 24/23 A2984 RMK AO2 SLP093 T02440228 55015 TSNO

2010/08/10 08:55
KAAT 100855Z AUTO 16003KT 10SM CLR 13/06 A3000 RMK AO2 SLP115 T01330056 58001 TSNO

2010/08/10 08:56
TJSJ 100856Z 13003KT 10SM SCT028 26/24 A2993 RMK AO2 SLP132 OCNL LTGIC DSNT N-SW CB DSNT N-SW 60000 T02610239 55007 $

2010/08/10 08:56
KSHV 100856Z 00000KT 10SM BKN290 27/23 A2991 RMK AO2 SLP122 T02720228 58001

2010/08/10 08:55
KANJ 100855Z AUTO 30005KT 6SM BR OVC004 20/19 A2995 RMK AO2 SLP136 T02000194 50001

2010/08/10 08:56
KABQ 100856Z 00000KT 10SM FEW110 22/08 A3014 RMK AO2 SLP105 T02220078 51001

2010/08/10 08:56
KSDF 100856Z 00000KT 8SM CLR 28/23 A2994 RMK AO2 SLP133 T02830233 58002 $

2010/08/10 08:55
KAST 100855Z AUTO 23003KT 10SM OVC018 13/12 A3000 RMK AO2 SLP157 T01330117 58007

2010/08/10 08:55
KPOE 100855Z AUTO 15004KT 10SM CLR 26/23 A2993 RMK AO2 SLP134 T02560233 55001

2010/08/10 08:56
KJAX 100856Z 03003KT 10SM CLR 24/23 A2994 RMK AO2 SLP139 T02440228 56004

2010/08/10 08:54
KWAL 100854Z AUTO 25005KT 6SM BR CLR 24/22 A2996 RMK AO2 SLP141 T02390222 58006 TSNO

2010/08/10 08:56
KGNR 100856Z AUTO 00000KT 16/14 A2987 RMK AO1 SLP113 T01560144 57002

2010/08/10 08:56
KCDJ 100856Z AUTO 00000KT 26/24 A2991 RMK AO2 SLP110 T02610244 55000 PWINO TSNO

2010/08/10 08:56
KP28 100856Z AUTO 17005KT 27/19 A2989 RMK AO2 SLP098 T02670189 58001 PWINO TSNO

2010/08/10 08:56
KNTU 100856Z 24005KT 10SM FEW200 23/22 A2997 RMK AO2 SLP150 T02330222 56004 $

2010/08/10 08:56
KFSD 100856Z 13006KT 10SM OVC016 25/23 A2985 RMK AO2 SLP096 CONS LTGIC DSNT SE-SW T02500233 56019 $

2010/08/10 08:56
KGNA 100856Z AUTO 00000KT 14/13 A2994 RMK AO2 SLP135 T01440128 50000 PWINO TSNO

2010/08/10 08:56
K8D3 100856Z AUTO 00000KT 21/21 A2987 RMK AO2 SLP092 T02110206 55011 PWINO TSNO

2010/08/10 08:56
KNFE 100856Z AUTO 00000KT 1 3/4SM HZ CLR 24/21 A2998 RMK AO2 SLP153 T02390211 56003 $

2010/08/10 08:56
K2WX 100856Z AUTO 20008KT 19/12 A2978 RMK AO1 SLP053 T01940122 58001

2010/08/10 08:55
KSLG 100855Z AUTO 00000KT 10SM CLR 24/21 A2997 RMK AO1 57003

2010/08/10 08:55
KSMN 100855Z AUTO 00000KT 10SM BKN080 OVC110 14/12 A3007 RMK AO1 TSE15 P0009 60020 52014

2010/08/10 08:55
KSPL 100855Z AUTO 12004KT 28/26 A2988 RMK AO2 PWINO PNO

2010/08/10 08:55
KSQI 100855Z AUTO 00000KT 10SM SCT041 23/22 A2996 RMK AO1 54000

2010/08/10 08:55
KSUE 100855Z AUTO 00000KT 3SM CLR 21/20 A2995 RMK AO1 54000

2010/08/10 08:54
KTAD 100854Z AUTO 35005KT 10SM CLR 17/13 A3013 RMK AO2 SLP133 T01720128 53001

2010/08/10 08:55
KTPL 100855Z 19006KT 10SM CLR 26/23 A2992 RMK AO1

2010/08/10 08:54
KTQE 100854Z AUTO 12003KT 5SM BR BKN110 24/24 A2984 RMK AO2 SLP088 T02440239 55007

2010/08/10 08:55
KTSP 100855Z AUTO RMK AO2 PWINO PNO FZRANO TSNO

2010/08/10 08:55
KTVF 100855Z AUTO 15004KT 10SM CLR 21/18 A2990 RMK AO1 57003

2010/08/10 08:56
KUCP 100856Z AUTO 32007KT 9SM BKN044 23/19 A2998 RMK AO2 56006 T02330194 SLP156

2010/08/10 08:54
KUIN 100854Z AUTO 21003KT 9SM CLR 26/24 A2992 RMK AO2 SLP123 T02610244 55006

2010/08/10 08:54
KUZA 100854Z AUTO 00000KT 5SM BR CLR 22/21 A3003 RMK AO2 SLP152 T02220211

2010/08/10 08:54
KVAY 100854Z AUTO 00000KT 9SM CLR 24/21 A2992 RMK AO2 SLP131 T02440206 56006

2010/08/10 08:55
KVBT 100855Z AUTO 00000KT 10SM CLR 24/21 A2994 RMK AO1 57007

2010/08/10 08:55
KVIS 100855Z AUTO 29004KT 10SM CLR 19/16 A2981 RMK AO1 52003

2010/08/10 08:54
KVSF 100854Z AUTO 00000KT 1/4SM FG OVC001 20/19 A2993 RMK AO2 SLP131 60000 T02000194 58001

2010/08/10 08:54
KVTA 100854Z AUTO 00000KT 2 1/2SM BR CLR 20/19 A2997 RMK AO2 SLP141 T02000194 55001

2010/08/10 08:54
KWLD 100854Z AUTO 16007KT 10SM CLR 27/21 A2990 RMK AO2 SLP107 T02670206 56010

2010/08/10 08:55
KWVL 100855Z AUTO 00000KT 6SM CLR 17/16 A2982 RMK AO1 57003

2010/08/10 08:55
KX40 100855Z AUTO 06003KT 7SM CLR 26/25 A2990 RMK AO2 T02610250

2010/08/10 08:55
KYKN 100855Z AUTO 03006KT 5SM OVC006 25/23 A2983 RMK AO1 LTG DSNT W TSE26 57020

2010/08/10 08:54
KLAF 100854Z AUTO 31011KT 7SM FEW019 BKN036 OVC085 27/24 A2996 RMK AO2 LTG DSNT W SLP136 P0001 60001 T02670239 53005

2010/08/10 08:55
KLBL 100855Z 21006KT 10SM CLR 22/17 A2998 RMK AO1 52003

2010/08/10 08:54
KLBT 100854Z AUTO 21003KT 1/4SM FG VV001 25/24 A3001 RMK AO2 SLP159 T02500244 55003

2010/08/10 08:55
KLCI 100855Z AUTO 22006KT 6SM CLR 20/17 A2989 RMK AO1 60001 57003

2010/08/10 08:55
KLEW 100855Z 00000KT 10SM CLR 18/17 A2990 RMK AO1 54000

2010/08/10 08:55
KLGD 100855Z AUTO 29011KT 10SM BKN120 17/02 A2987 RMK AO1 52003

2010/08/10 08:54
KLNK 100854Z 18005KT 10SM CLR 25/22 A2985 RMK AO2 SLP092 T02500222 55005

2010/08/10 08:55
KLPC 100855Z AUTO 00000KT 10SM OVC006 13/11 A2991 RMK AO1 57007 PNO

2010/08/10 08:54
KLWM 100854Z AUTO 23004KT 4SM BR CLR 23/21 A2990 RMK AO2 SLP124 60000 T02280211 55007 $

2010/08/10 08:54
KLWT 100854Z AUTO 16004KT 10SM OVC120 14/10 A2989 RMK AO2 SLP082 T01390100 56008

2010/08/10 08:55
KMBL 100855Z AUTO 00000KT 1/2SM OVC002 20/18 A2995 RMK AO1 57007

2010/08/10 08:54
KMFI 100854Z AUTO 05003KT 10SM CLR 21/19 A2998 RMK AO2 SLP144 T02110189 55002

2010/08/10 08:54
KMGJ 100854Z AUTO 00000KT 5SM BR OVC110 22/20 A2994 RMK AO2 RAE0756 SLP134 P0000 60001 T02170200 58001

2010/08/10 08:54
KMIV 100854Z AUTO 00000KT 8SM CLR 24/22 A2992 RMK AO2 SLP129 T02390222 56007

2010/08/10 08:55
KMJX 100855Z AUTO 24004KT 10SM FEW065 SCT080 23/21 A2993 RMK AO1 57003

2010/08/10 08:54
KMKC 100854Z 22004KT 10SM CLR 29/22 A2987 RMK AO2 SLP103 T02890217 55008

2010/08/10 08:55
KMKT 100855Z AUTO 11005KT 10SM CLR 23/22 A2992 RMK AO1 57007

2010/08/10 08:55
KMML 100855Z AUTO 14006KT 10SM BKN045 23/23 A2989 RMK AO1 57014

2010/08/10 08:55
KMNI 100855Z AUTO 00000KT 10SM CLR 23/23 A3000 RMK AO2

2010/08/10 08:55
KMNM 100855Z AUTO 01003KT 1/2SM OVC001 21/19 A2994 RMK AO1 57003

2010/08/10 08:54
KMOT 100854Z AUTO 11006KT 10SM CLR 20/17 A2985 RMK AO2 SLP097 T02000167 56023

2010/08/10 08:55
KMRF 100855Z AUTO 33006KT 10SM CLR A3013 RMK AO1 57010

2010/08/10 08:54
KMRY 100854Z AUTO 00000KT 9SM OVC003 12/10 A2992 RMK AO2 SLP144 T01170100 58009

2010/08/10 08:55
KMSV 100855Z AUTO 30006KT 10SM OVC100 21/18 A2999 RMK AO1 57003

2010/08/10 08:55
KMTW 100855Z 00000KT 5SM CLR 21/19 A2994 RMK AO1 54000

2010/08/10 08:53
PABI 100853Z AUTO 19011G16KT 10SM 16/06 A2968 RMK AO2 SLP048 T01560061 402110128 53006 TSNO $

2010/08/10 08:55
PGUA 100855Z AUTO 09009KT 10SM -RA SCT019 SCT025 BKN034 BKN048 OVC055 27/24 A2993 RMK AO2 RAB0847 CIG 018 RWY24L SLP117 P0000 60000 T02660244 53017 $

2010/08/10 08:52
KNHK 100852Z AUTO 22005KT 10SM CLR 26/21 A2994 RMK AO2 SLP138 T02560211 58006 $

2010/08/10 08:52
KNRB 100852Z AUTO 14011KT 10SM FEW021 SCT026 BKN060 28/23 A2994 RMK AO2 SLP138 T02830228 56007

2010/08/10 08:55
KOFF 100855Z AUTO 10005KT 10SM SCT090 27/25 A2985 RMK AO2 SLP090 T02650250 53002 $

2010/08/10 08:55
KOZR 100855Z AUTO 06005KT 10SM CLR 24/23 A2994 RMK AO2 SLP134 T02370230 56004 $

2010/08/10 08:55
KRDR 100855Z AUTO 00000KT 10SM CLR 20/20 A2987 RMK AO2 SLP126 T01970197 58001 $

2010/08/10 08:55
KRIV 100855Z AUTO 32003KT 10SM CLR 14/10 A2991 RMK AO2 SLP123 T01380105 58003

2010/08/10 08:55
KRND 100855Z AUTO 19005KT 10SM FEW013 26/24 A2994 RMK AO2 SLP126 T02640243 56013

2010/08/10 08:55
KSKF 100855Z AUTO 00000KT 10SM OVC011 27/ A2993 RMK AO2 SLP123 T0265 58013 $

2010/08/10 08:55
KSLI 100855Z AUTO 00000KT 7SM CLR 14/14 A2990 RMK AO2 SLP127 T01450143 58001

2010/08/10 08:55
KSUU 100855Z AUTO 25021G26KT 10SM CLR 13/11 A2982 RMK AO2 PK WND 25027/0809 SLP098 T01280111 58004 RVRNO $

2010/08/10 08:55
KSZL 100855Z AUTO 18004KT 10SM CLR 26/24 A2989 RMK AO2 SLP113 T02600239 56008 PNO $

2010/08/10 08:55
KWRB 100855Z AUTO 00000KT 10SM CLR 23/23 A2999 RMK AO2 SLP151 T02300230 55002

2010/08/10 08:55
KWRI 100855Z AUTO 24003KT 9SM FEW070 23/22 A2991 RMK AO2 SLP128 T02330220 56005 $

2010/08/10 08:55
KNKX 100855Z 00000KT 10SM OVC010 17/14 A2990 RMK AO2 SLP120 T01720139 58003

2010/08/10 08:55
KAFF 100855Z AUTO 36005KT 10SM SCT110 16/12 A3019 RMK AO2 SLP130 T01640115 55000

2010/08/10 08:55
KBIX 100855Z AUTO 03004KT 10SM CLR 26/25 A2991 RMK AO2 SLPNO T02560250 56005 $

2010/08/10 08:55
KBKF 100855Z 24007KT 25SM SCT120 16/14 A3013 RMK SLP134 50000

2010/08/10 08:55
KCOF 100855Z AUTO 12006KT 10SM CLR 26/ A2991 RMK AO2 SLP130 T0262 58008

2010/08/10 08:55
KDAA 100855Z AUTO 00000KT 10SM CLR 22/21 A2994 RMK AO2 SLP139 T02250207 56003

2010/08/10 08:55
KDYS 100855Z AUTO 19009KT 10SM BKN170 28/18 A2994 RMK AO2 SLP109 T02790180 56014 $

2010/08/10 08:55
KFSI 100855Z AUTO 18006KT 10SM CLR 27/20 A2990 RMK AO2 SLP097 T02660199 56009

2010/08/10 08:55
KHIF 100855Z 10013KT 10SM CLR 18/03 A3001 RMK AO2A SLP058 T01820034 58003

2010/08/10 08:55
KLHW 100855Z AUTO 00000KT 10SM CLR 24/24 A2997 RMK AO2 SLP149 T02430238 56006

2010/08/10 08:55
KLSF 100855Z AUTO 00000KT 5SM R33/4000V5500FT BR CLR 22/22 A2996 RMK AO2 SLP144 T02240217 55002 PNO $

2010/08/10 08:55
KMTC 100855Z 00000KT 1SM R19/0800FT BCFG CLR 20/20 A2994 RMK VIS S 1/4 SLP142 50000

2010/08/10 08:55
KMUO 100855Z AUTO VRB03KT 10SM CLR 17/13 A2987 RMK AO2 SLP089 T01750133 52002

2010/08/10 08:55
KMXF 100855Z AUTO 00000KT 10SM BKN070 26/24 A2994 RMK AO2 SLP136 T02630239 57003

2010/08/10 08:52
KNFW 100852Z AUTO 21004KT 10SM CLR 29/19 A2992 RMK AO2 SLP116 T02890189 56014

2010/08/10 08:55
KAFF 100855Z AUTO 36005KT 10SM SCT110 16/12 A3019 RMK AO2 SLP130 T01640115 55000

2010/08/10 08:55
KBKF 100855Z 24007KT 25SM SCT120 16/14 A3013 RMK SLP134 50000

2010/08/10 08:55
KDAA 100855Z AUTO 00000KT 10SM CLR 22/21 A2994 RMK AO2 SLP139 T02250207 56003

2010/08/10 08:55
KDYS 100855Z AUTO 19009KT 10SM BKN170 28/18 A2994 RMK AO2 SLP109 T02790180 56014 $

2010/08/10 08:55
KGTB 100855Z AUTO 21003KT 10SM SCT012 OVC017 21/20 A2993 RMK AO2 SLP134 T02100201 58002

2010/08/10 08:55
KLHW 100855Z AUTO 00000KT 10SM CLR 24/24 A2997 RMK AO2 SLP149 T02430238 56006

2010/08/10 08:55
KLSF 100855Z AUTO 00000KT 5SM R33/4000V5500FT BR CLR 22/22 A2996 RMK AO2 SLP144 T02240217 55002 PNO $

2010/08/10 08:55
KMTC 100855Z 00000KT 1SM R19/0800FT BCFG CLR 20/20 A2994 RMK VIS S 1/4 SLP142 50000

2010/08/10 08:52
KNFW 100852Z AUTO 21004KT 10SM CLR 29/19 A2992 RMK AO2 SLP116 T02890189 56014

2010/08/10 08:53
KNIP 100853Z 11006KT 10SM FEW020 27/24 A2994 RMK AO2 SLP135 T02720239 56007

2010/08/10 08:54
KFZY 100854Z AUTO 00000KT 2 1/2SM -RA BR OVC036 21/19 A2994 RMK AO2 RAB40 SLP134 P0000 60000 T02060194 58003

2010/08/10 08:54
KECG 100854Z AUTO 25004KT 9SM CLR 23/23 A2999 RMK AO2 SLP154 T02330233 55003

2010/08/10 08:55
KBAD 100855Z AUTO 14003KT 10SM CLR 25/23 A2991 RMK AO2 SLP129 T02530230 58003

2010/08/10 08:53
KDTS 100853Z AUTO 04005KT 10SM CLR 28/23 A2989 RMK AO2 SLP121 T02780233 56009

2010/08/10 08:55
KEDW 100855Z AUTO 18007KT 10SM CLR 18/M03 A2988 RMK AO2 SLP071 T01791027 50000

2010/08/10 08:55
KGRK 100855Z 16006KT 7SM FEW060 28/23 A2992 RMK SLP106 56014

2010/08/10 08:55
KGUS 100855Z AUTO 14003KT 10SM FEW032 23/23 A2995 RMK AO2 SLP135 T02310231 58002

2010/08/10 08:55
KHST 100855Z AUTO 17004KT 10SM SCT060 26/23 A2987 RMK AO2 RAB0801E0810 SLP115 P0000 60000 T02560226 56014

2010/08/10 08:55
KIAB 100855Z AUTO 15008KT 10SM CLR 28/21 A2989 RMK AO2 SLP102 T02770207 58012 $

2010/08/10 08:55
KOFF 100855Z AUTO 10005KT 10SM SCT090 27/25 A2985 RMK AO2 SLP090 T02650250 53002 $

2010/08/10 08:54
KNFG 100854Z 04003KT BR CLR 11/09 A2990 RMK AO2 SLP125 T01110094 50000

2010/08/10 08:55
KBAD 100855Z AUTO 14003KT 10SM CLR 25/23 A2991 RMK AO2 SLP129 T02530230 58003

2010/08/10 08:55
KBLV 100855Z AUTO 17003KT 10SM CLR 26/26 A2991 RMK AO2 SLP124 T02580256 58008

2010/08/10 08:55
KCBM 100855Z AUTO 00000KT 9SM CLR 25/25 A2995 RMK AO2 SLP141 T02500250 56003 $

2010/08/10 08:55
KCEF 100855Z AUTO 22003KT 9SM BKN065 21/21 A2991 RMK AO2 VIS 2 1/2 RWY05 SLP130 60007 T02140208 55002 $

2010/08/10 08:55
KEDW 100855Z AUTO 18007KT 10SM CLR 18/M03 A2988 RMK AO2 SLP071 T01791027 50000

2010/08/10 08:55
KGRF 100855Z AUTO 18007KT 10SM OVC011 13/11 A2996 RMK AO2 SLP147 T01340110 58005

2010/08/10 08:55
KGRK 100855Z 16006KT 7SM FEW060 28/23 A2992 RMK SLP106 56014

2010/08/10 08:55
KGUS 100855Z AUTO 14003KT 10SM FEW032 23/23 A2995 RMK AO2 SLP135 T02310231 58002

2010/08/10 08:55
KHMN 100855Z 00000KT 10SM CLR 20/12 A3002 RMK AO2A SLP082 T02040117 52001 $

2010/08/10 08:55
KHST 100855Z AUTO 17004KT 10SM SCT060 26/23 A2987 RMK AO2 RAB0801E0810 SLP115 P0000 60000 T02560226 56014

2010/08/10 08:55
KIAB 100855Z AUTO 15008KT 10SM CLR 28/21 A2989 RMK AO2 SLP102 T02770207 58012 $

2010/08/10 08:55
KLRF 100855Z AUTO 00000KT 10SM CLR 27/26 A2991 RMK AO2 SLP126 T02670258 57006

2010/08/10 08:55
KMGE 100855Z AUTO 34003KT 10SM CLR 25/21 A3002 RMK AO2 SLP153 T02520214 56004 $

2010/08/10 08:55
KMMT 100855Z AUTO 00000KT 8SM R32/5000V5500FT BKN011 23/23 A3000 RMK AO2 CIG 010V015 SLP158 T02340232 57007

2010/08/10 08:55
KMUI 100855Z AUTO 00000KT 8SM BKN170 22/22 A2994 RMK AO2 SLP134 T02240220 55001 $

2010/08/10 08:55
KBAD 100855Z AUTO 14003KT 10SM CLR 25/23 A2991 RMK AO2 SLP129 T02530230 58003

2010/08/10 08:55
KBIX 100855Z AUTO 03004KT 10SM CLR 26/25 A2991 RMK AO2 SLPNO T02560250 56005 $

2010/08/10 08:55
KHST 100855Z AUTO 17004KT 10SM SCT060 26/23 A2987 RMK AO2 RAB0801E0810 SLP115 P0000 60000 T02560226 56014

2010/08/10 08:55
KOFF 100855Z AUTO 10005KT 10SM SCT090 27/25 A2985 RMK AO2 SLP090 T02650250 53002 $

2010/08/10 08:55
KWRI 100855Z AUTO 24003KT 9SM FEW070 23/22 A2991 RMK AO2 SLP128 T02330220 56005 $

2010/08/10 08:55
KBIX 100855Z AUTO 03004KT 10SM CLR 26/25 A2991 RMK AO2 SLPNO T02560250 56005 $

2010/08/10 08:55
KCBM 100855Z AUTO 00000KT 9SM CLR 25/25 A2995 RMK AO2 SLP141 T02500250 56003 $

2010/08/10 08:55
KFSI 100855Z AUTO 18006KT 10SM CLR 27/20 A2990 RMK AO2 SLP097 T02660199 56009

2010/08/10 08:55
KMUI 100855Z AUTO 00000KT 8SM BKN170 22/22 A2994 RMK AO2 SLP134 T02240220 55001 $

2010/08/10 08:55
KRIV 100855Z AUTO 32003KT 10SM CLR 14/10 A2991 RMK AO2 SLP123 T01380105 58003

2010/08/10 08:55
KRND 100855Z AUTO 19005KT 10SM FEW013 26/24 A2994 RMK AO2 SLP126 T02640243 56013

2010/08/10 08:55
KSLI 100855Z AUTO 00000KT 7SM CLR 14/14 A2990 RMK AO2 SLP127 T01450143 58001

2010/08/10 08:55
KWRB 100855Z AUTO 00000KT 10SM CLR 23/23 A2999 RMK AO2 SLP151 T02300230 55002

2010/08/10 08:55
KWRI 100855Z AUTO 24003KT 9SM FEW070 23/22 A2991 RMK AO2 SLP128 T02330220 56005 $

2010/08/10 08:54
KMVL 100854Z AUTO 00000KT 1/4SM FG VV001 17/17 A2995 RMK AO2 SLP139 T01670167 58000

2010/08/10 08:55
KMVN 100855Z AUTO 00000KT 3SM CLR 23/22 A2993 RMK AO1 57010

2010/08/10 08:55
KOCH 100855Z AUTO 00000KT 10SM CLR 26/23 A2991 RMK AO1 57003

2010/08/10 08:54
KOFP 100854Z AUTO 17003KT 9SM CLR 24/20 A2998 RMK AO2 SLP148 T02440200 57005

2010/08/10 08:55
KOKK 100855Z AUTO 11003KT 3SM CLR 23/18 A2996 RMK AO1

2010/08/10 08:54
KOLM 100854Z AUTO 24008KT 10SM OVC010 13/11 A2997 RMK AO2 SLP148 T01280106 58006

2010/08/10 08:54
KOLS 100854Z AUTO 00000KT 10SM CLR 20/15 A3004 RMK AO2 SLP102 T02000150 58001

2010/08/10 08:55
KGAD 100855Z AUTO 00000KT 9SM CLR 23/22 A2998 RMK AO1 57003

2010/08/10 08:55
KGAI 100855Z 00000KT 8SM CLR 24/21 A2997 RMK AO1 57003

2010/08/10 08:55
KGBD 100855Z AUTO 18007KT 10SM CLR 25/18 A2986 RMK AO1 57014

2010/08/10 08:54
KGCK 100854Z 00000KT 10SM CLR 23/18 A2996 RMK AO2 SLP100 60000 T02280178 50005

2010/08/10 08:55
KGCM 100855Z AUTO 00000KT 10SM CLR 24/21 A2994 RMK AO2

2010/08/10 08:54
KGCN 100854Z AUTO 00000KT 10SM CLR 08/07 A3023 RMK AO2 SLP151 T00830067 58002

2010/08/10 08:55
KGDV 100855Z AUTO 01011KT 10SM CLR 21/15 A2979 RMK AO1 52007

2010/08/10 08:54
KGED 100854Z AUTO 21003KT 6SM BR CLR 23/22 A2995 RMK AO2 SLP141 T02280222 56006

2010/08/10 08:55
KGTR 100855Z 00000KT 3SM CLR 24/24 A2995 RMK AO1 57003

2010/08/10 08:55
KGTU 100855Z 22007KT 10SM CLR 27/21 A2996 RMK AO1 57010

2010/08/10 08:55
KGUC 100855Z AUTO 00000KT 10SM CLR 09/02 A3036 RMK AO1 52010

2010/08/10 08:55
KGXY 100855Z AUTO 00000KT 10SM CLR 15/13 A3008 RMK AO1 57007

2010/08/10 08:55
KGYH 100855Z AUTO 00000KT 10SM CLR 26/21 A3003 RMK AO2

2010/08/10 08:55
KHDN 100855Z 11009KT 10SM CLR 11/07 A3020 RMK AO1 54000

2010/08/10 08:55
KHEF 100855Z AUTO 00000KT 6SM 22/20 A2995 RMK AO1 57003

2010/08/10 08:55
KHEZ 100855Z AUTO 14003KT 10SM CLR 24/22 A2995 RMK AO1 57007

2010/08/10 08:55
KHNB 100855Z AUTO 00000KT 7SM CLR 24/23 A2993 RMK AO1 57010

2010/08/10 08:54
KHWD 100854Z AUTO 00000KT 10SM OVC009 14/11 A2990 RMK AO2 SLP132 T01390111 58008

2010/08/10 08:55
KHYI 100855Z AUTO 00000KT 10SM CLR 26/24 A2993 RMK AO1 57014

2010/08/10 08:55
KHYS 100855Z AUTO 31003KT 10SM CLR 23/17 A2987 RMK AO1 57014

2010/08/10 08:55
KHYW 100855Z AUTO 00000KT 7SM CLR 23/ A3001 RMK AO2

2010/08/10 08:55
KILE 100855Z AUTO 21006KT 10SM CLR 26/22 A2991 RMK AO1 57017

2010/08/10 08:54
KILN 100854Z AUTO 00000KT 6SM BR CLR 22/21 A2998 RMK AO2 SLP139 T02220206 56001

2010/08/10 08:54
KIMT 100854Z AUTO 00000KT 1/2SM FG OVC002 19/19 A2997 RMK AO2 SLP143 T01890189 58002

2010/08/10 08:54
KIND 100854Z 25003KT 9SM OVC120 27/22 A2993 RMK AO2 SLP127 T02670222 58004

2010/08/10 08:54
KINT 100854Z AUTO 23003KT 10SM CLR 25/21 A3004 RMK AO2 SLP158 T02500211 55005

2010/08/10 08:54
KIPT 100854Z AUTO 00000KT 8SM SCT120 22/19 A2993 RMK AO2 SLP131 T02220189 56003

2010/08/10 08:54
KISW 100854Z AUTO 00000KT 5SM BR CLR 20/20 A2998 RMK AO2 SLP146 T02000200 55002 TSNO $

2010/08/10 08:55
KIWD 100855Z AUTO 00000KT 1SM CLR 17/16 A2996 RMK AO1 54000

2010/08/10 08:54
KIZG 100854Z AUTO 00000KT 5SM BR CLR 17/16 A2990 RMK AO2 SLP123 T01670161 51006

2010/08/10 08:55
KJAC 100855Z 00000KT 10SM CLR 07/04 A3016 RMK AO1 54000

2010/08/10 08:55
KJHW 100855Z AUTO 18003KT 1 1/2SM BKN075 OVC080 20/19 A2998 RMK AO1 P0001 60001

2010/08/10 08:54
KJST 100854Z AUTO 25005KT 9SM OVC100 21/16 A3004 RMK AO2 SLP155 T02060161 56002

2010/08/10 08:55
KKLS 100855Z AUTO 00000KT 10SM OVC021 14/11 A2998 RMK AO1 57010

2010/08/10 08:55
KOLU 100855Z AUTO 1 1/4SM CLR 24/23 A2985 RMK AO1 57014

2010/08/10 08:55
KOTG 100855Z AUTO 11007KT 5SM OVC003 23/22 A2990 RMK AO1 LTG DSNT S 57014

2010/08/10 08:55
KOTH 100855Z 34005KT 10SM OVC017 13/11 A3003 RMK AO1 57007

2010/08/10 08:54
KPHF 100854Z 26004KT 10SM CLR 25/24 A2997 RMK AO2 SLP147 T02500239 56005 $

2010/08/10 08:54
KPHL 100854Z 20005KT 10SM SCT150 BKN200 26/21 A2992 RMK AO2 SLP133 T02560211 56008 $

2010/08/10 08:55
KPIB 100855Z AUTO 00000KT 4SM CLR 23/21 A2995 RMK AO1 57010

2010/08/10 08:54
KPLN 100854Z AUTO 00000KT 2SM BR OVC002 22/22 A2996 RMK AO2 SLP142 T02170217 50002

2010/08/10 08:54
KPNE 100854Z 24003KT 10SM CLR 26/22 A2994 RMK AO2 SLP135 T02610217 55005

2010/08/10 08:55
KPQI 100855Z AUTO 00000KT 5SM CLR 13/12 A2980 RMK AO1 54000

2010/08/10 08:55
KPRX 100855Z 00000KT 10SM CLR 25/22 A2990 RMK AO1 57007

2010/08/10 08:54
KPSF 100854Z AUTO 00000KT 6SM BR FEW020 SCT036 19/18 A2996 RMK AO2 SLP115 T01940183 56002

2010/08/10 08:55
KPTN 100855Z AUTO 05004KT 10SM CLR 25/14 A2994 RMK AO1 57007

2010/08/10 08:55
KPTV 100855Z AUTO 18005KT 10SM CLR 19/09 A2984 RMK AO1 52003

2010/08/10 08:54
KPTW 100854Z AUTO 00000KT 7SM CLR 26/21 A2994 RMK AO2 SLP132 T02560211 56005

2010/08/10 08:55
KPVC 100855Z 21005KT 5SM FEW100 SCT120 21/19 A2990 RMK AO1 P0001 60024 57014

2010/08/10 08:55
KPVU 100855Z 11004KT 10SM CLR 16/03 A3005 RMK AO1 54000

2010/08/10 08:55
KPWG 100855Z AUTO 21008KT 10SM CLR 27/22 A2991 RMK AO1 57014

2010/08/10 08:55
KPWT 100855Z AUTO 19005KT 4SM OVC003 12/10 A2998 RMK AO1 57010

2010/08/10 08:54
KRBL 100854Z AUTO 18006KT 10SM CLR 22/13 A2983 RMK AO2 SLP096 T02220133 50002

2010/08/10 08:54
KRDG 100854Z AUTO 00000KT CLR 25/20 A2992 RMK AO2 SLP132 T02500200 56004 $

2010/08/10 08:55
KRKD 100855Z AUTO 32004KT 10SM CLR 19/18 A2985 RMK AO1 54000

2010/08/10 08:54
KRKS 100854Z AUTO 20007KT 10SM CLR 12/00 A3018 RMK AO2 SLP137 T01220000 51002

2010/08/10 08:54
KRST 100854Z AUTO 13004KT 5SM BR CLR 22/21 A2997 RMK AO2 SLP140 T02170211 55000

2010/08/10 08:55
KRUT 100855Z 00000KT 4SM SCT016 OVC023 20/19 A2993 RMK AO1 54000

2010/08/10 08:54
KSBY 100854Z AUTO 00000KT 6SM BR CLR 23/22 A2995 RMK AO2 SLP144 T02280222 56006 $

2010/08/10 08:55
KSDY 100855Z AUTO 35011KT 10SM CLR 20/17 A2980 RMK AO1 60003 54000

2010/08/10 08:54
KSET 100854Z AUTO 00000KT 5SM BR CLR 26/25 A2989 RMK AO2 SLP116 T02610250 55010

2010/08/10 08:55
KSFM 100855Z 27003KT 7SM CLR 20/19 A2989 RMK AO1 60002 57003

2010/08/10 08:55
KSFZ 100855Z 22003KT 2SM BKN070 OVC080 21/20 A2991 RMK AO1 P0004 60005 54000

2010/08/10 08:55
KSGT 100855Z 19004KT CLR 28/25 A2991 RMK AO1 57007

2010/08/10 08:55
KSGU 100855Z AUTO 00000KT 10SM CLR 22/05 A2996 RMK AO1 54000

2010/08/10 08:54
KSJN 100854Z AUTO 20005KT 10SM CLR 16/11 A3018 RMK AO2 SLP128 T01560111 51002 $

2010/08/10 08:55
KSKX 100855Z AUTO 00000KT 10SM CLR 12/04 A3028 RMK AO1 52003

2010/08/10 08:55
KCQW 100855Z AUTO 00000KT 1/2SM FG BKN001 22/22 A3002 RMK AO2

2010/08/10 08:55
KCVN 100855Z 20005KT 10SM OVC090 19/16 A3009 RMK AO1 57003

2010/08/10 08:55
KCVO 100855Z AUTO 29004KT 10SM CLR 13/09 A3000 RMK AO1 54000

2010/08/10 08:55
KCWI 100855Z 07003KT 9SM FEW032 BKN041 23/23 A2996 RMK AO1 54000

2010/08/10 08:54
KDDH 100854Z AUTO 00000KT 3SM BR BKN012 OVC032 20/19 A2995 RMK AO2 SLP136 T02000194 56002

2010/08/10 08:54
KDEC 100854Z AUTO 00000KT 10SM CLR 25/21 A2993 RMK AO2 SLP128 T02500211 58010

2010/08/10 08:54
KDSV 100854Z AUTO 00000KT 4SM BR SCT050 OVC060 22/21 A2996 RMK AO2 SLP148 60013 T02170206 58008 $

2010/08/10 08:54
KDYL 100854Z AUTO 00000KT 10SM CLR 23/21 A2993 RMK AO2 SLP127 T02330206 56004 TSNO

2010/08/10 08:55
KDYR 100855Z AUTO 09003KT 7SM CLR 25/22 A2993 RMK AO1 57007

2010/08/10 08:55
KE80 100855Z AUTO 00000KT 10SM CLR 20/08 A3012 RMK AO2 T01970078

2010/08/10 08:55
KEEN 100855Z AUTO 00000KT 3SM SCT004 OVC100 20/19 A2991 RMK AO1 57007

2010/08/10 08:55
KEGE 100855Z AUTO 00000KT 10SM FEW110 13/08 A3025 RMK AO1 52007

2010/08/10 08:55
KEHR 100855Z AUTO 00000KT 4SM CLR 24/21 A2994 RMK AO1 57007

2010/08/10 08:55
KENV 100855Z AUTO 00000KT 10SM CLR 18/08 A2997 RMK AO1 57007

2010/08/10 08:55
KESC 100855Z AUTO 00000KT 1 3/4SM CLR 19/17 A2996 RMK AO1 54000

2010/08/10 08:54
KEUG 100854Z 00000KT 10SM FEW040 11/09 A2999 RMK AO2 SLP154 T01060089 58001 $

2010/08/10 08:55
KEUL 100855Z AUTO 13007KT 10SM CLR 18/11 A2985 RMK AO1 54000

2010/08/10 08:54
KEVV 100854Z AUTO 00000KT 7SM CLR 25/23 A2993 RMK AO2 SLP131 T02500228 58007

2010/08/10 08:55
KEWK 100855Z AUTO 18010KT 10SM SCT110 28/19 A2986 RMK AO1 57014

2010/08/10 08:54
KEWN 100854Z AUTO 00000KT 10SM CLR 24/23 A3001 RMK AO2 SLP163 T02390228 58005

2010/08/10 08:55
KFAM 100855Z AUTO 16003KT 10SM CLR 25/24 A2996 RMK AO1 57010

2010/08/10 08:54
KFIG 100854Z AUTO 00000KT 7SM OVC100 19/18 A3000 RMK AO2 SLP148 T01940178 56002

2010/08/10 08:55
KFKL 100855Z AUTO 16003KT 10SM BKN048 BKN055 OVC075 21/19 A3001 RMK AO1

2010/08/10 08:55
KFLP 100855Z AUTO 00000KT 10SM CLR 26/24 A2993 RMK AO1 57007

2010/08/10 08:56
KP53 100856Z AUTO 19005KT 17/17 A2995 RMK AO2 SLP142 T01720167 58002 PWINO TSNO 

2010/08/10 08:56
K9L2 100856Z AUTO 13005KT 10SM CLR 18/M05 A2988 RMK AO2 SLP098 T01781050 50002 $ 

2010/08/10 08:54
KSBN 100854Z 00000KT 7SM BKN043 22/21 A2995 RMK AO2 SLP136 T02220206 58005 

2010/08/10 08:56
KNUW 100856Z 00000KT 7SM FEW005 BKN010 OVC040 15/11 A2995 RMK AO2 SLP146 T01470108 58005 $ 

2010/08/10 08:52
PTKK 100852Z VRB03KT 15SM FEW014CB SCT120 OVC280 28/24 A2986 RMK CB DSNT SW-NW SLP113 8/371 T02780242 52019

2010/08/10 08:54
KNKT 100854Z AUTO 22003KT 10SM CLR 24/24 A3001 RMK AO2 SLP159 T02440239 58005

2010/08/10 08:53
KNQX 100853Z AUTO 22009KT 10SM TS CLR 26/23 A2984 RMK AO2 RAE23 SLP104 P0000 60001 T02610233 55003 $

2010/08/10 08:52
KNRB 100852Z AUTO 14011KT 10SM FEW021 SCT026 BKN060 28/23 A2994 RMK AO2 SLP138 T02830228 56007

2010/08/10 08:55
KOZR 100855Z AUTO 06005KT 10SM CLR 24/23 A2994 RMK AO2 SLP134 T02370230 56004 $

2010/08/10 08:55
KSKF 100855Z AUTO 00000KT 10SM OVC011 27/ A2993 RMK AO2 SLP123 T0265 58013 $

2010/08/10 08:55
KVBG 100855Z AUTO 00000KT 10SM OVC003 13/12 A2992 RMK AO2 SLP122 T01280117 58006 TSNO CHINO RWY12 $

2010/08/10 08:55
KNYL 100855Z AUTO 25003KT 10SM CLR 28/02 A2975 RMK AO2 SLP070 T02780022 50000

2010/08/10 08:55
KBAB 100855Z AUTO 00000KT 10SM CLR 18/10 A2982 RMK AO2 SLP097 T01800103 51004 $

2010/08/10 08:55
KCOF 100855Z AUTO 12006KT 10SM CLR 26/ A2991 RMK AO2 SLP130 T0262 58008

2010/08/10 08:55
KFHU 100855Z 23003KT 10SM SKC 22/14 A3010 RMK SLP120 58003

2010/08/10 08:55
KHIF 100855Z 10013KT 10SM CLR 18/03 A3001 RMK AO2A SLP058 T01820034 58003

2010/08/10 08:55
KLTS 100855Z AUTO 28005KT 10SM CLR 27/20 A2991 RMK AO2 SLP107 T02700200 56011 $

2010/08/10 08:55
KMUO 100855Z AUTO VRB03KT 10SM CLR 17/13 A2987 RMK AO2 SLP089 T01750133 52002

2010/08/10 08:55
KMXF 100855Z AUTO 00000KT 10SM BKN070 26/24 A2994 RMK AO2 SLP136 T02630239 57003

2010/08/10 08:55
KPOB 100855Z AUTO 23005KT 10SM CLR 24/24 A3000 RMK AO2 SLP159 T02430243 58003 $

2010/08/10 08:55
KTIK 100855Z 18009KT 10SM CLR 26/21 A2991 RMK AO2A SLP111 T02580208 56011

2010/08/10 08:55
PAEI 100855Z AUTO 00000KT 10SM OVC080 13/11 A2963 RMK AO2 SLP034 T01350108 402210118 52007 $

2010/08/10 08:55
PHHI 100855Z AUTO 08009KT 10SM SCT037 SCT045 23/17 A3013 RMK AO2 SLP190 T02340171 51011 $

2010/08/10 08:53
KMRT 100853Z AUTO 28004KT 7SM CLR 23/20 A3001 RMK AO2 T02250201

2010/08/10 08:55
KPOE 100855Z AUTO 15004KT 10SM CLR 26/23 A2993 RMK AO2 SLP134 T02560233 55001

2010/08/10 08:55
KNBG 100855Z AUTO 00000KT 6SM HZ CLR A2992 RMK AO2 SLP132 56004 PWINO FZRANO $

2010/08/10 08:55
KBIX 100855Z AUTO 03004KT 10SM CLR 26/25 A2991 RMK AO2 SLPNO T02560250 56005 $

2010/08/10 08:55
KCEF 100855Z AUTO 22003KT 9SM BKN065 21/21 A2991 RMK AO2 VIS 2 1/2 RWY05 SLP130 60007 T02140208 55002 $

2010/08/10 08:55
KGUS 100855Z AUTO 14003KT 10SM FEW032 23/23 A2995 RMK AO2 SLP135 T02310231 58002

2010/08/10 08:55
KLRF 100855Z AUTO 00000KT 10SM CLR 27/26 A2991 RMK AO2 SLP126 T02670258 57006

2010/08/10 08:55
KMMT 100855Z AUTO 00000KT 8SM R32/5000V5500FT BKN011 23/23 A3000 RMK AO2 CIG 010V015 SLP158 T02340232 57007

2010/08/10 08:55
KMXF 100855Z AUTO 00000KT 10SM BKN070 26/24 A2994 RMK AO2 SLP136 T02630239 57003

2010/08/10 08:52
KNRB 100852Z AUTO 14011KT 10SM FEW021 SCT026 BKN060 28/23 A2994 RMK AO2 SLP138 T02830228 56007

2010/08/10 08:56
KNJK 100856Z AUTO 00000KT 10SM CLR 25/05 A2973 RMK AO2 SLP083 T02500050 50003 TSNO

2010/08/10 08:55
KOZR 100855Z AUTO 06005KT 10SM CLR 24/23 A2994 RMK AO2 SLP134 T02370230 56004 $

2010/08/10 08:55
KWRB 100855Z AUTO 00000KT 10SM CLR 23/23 A2999 RMK AO2 SLP151 T02300230 55002

2010/08/10 08:55
KDLF 100855Z AUTO 11011KT 10SM CLR 28/23 A2992 RMK AO2 SLP114 T02780226 58004

2010/08/10 08:55
KDOV 100855Z AUTO 20008KT 10SM CLR 24/24 A2992 RMK AO2 SLP132 T02430241 58006

2010/08/10 08:55
KEND 100855Z 17009KT 10SM FEW100 27/20 A2989 RMK AO2A SLP103 T02690201 58010

2010/08/10 08:55
KFBG 100855Z 00000KT 10SM CLR 25/24 A3000 RMK AO2A SLP158 T02480238 58001 $

2010/08/10 08:55
KFRI 100855Z AUTO 20007KT 10SM CLR 28/20 A2984 RMK AO2 SLP082 T02780204 58012

2010/08/10 08:55
KPAM 100855Z AUTO 06005KT 10SM CLR 26/24 A2989 RMK AO2 SLP122 T02610240 56010 $

2010/08/10 08:55
KSKA 100855Z AUTO 22016G19KT 10SM SCT100 BKN140 OVC170 17/07 A2980 RMK AO2 CIG 095 RWY05 SLP078 T01660070 54000

2010/08/10 08:55
KSSC 100855Z 00000KT 10SM CLR 25/23 A2999 RMK AO2A SLP155 T02450234 56008 $

2010/08/10 08:55
KTCM 100855Z AUTO 21005KT 10SM OVC010 14/11 A2997 RMK AO2 SLP150 T01350108 58004

2010/08/10 08:55
KFNL 100855Z AUTO 00000KT 10SM CLR 16/13 A3008 RMK AO1 57014

2010/08/10 08:55
KFOD 100855Z AUTO 18003KT 10SM TS BKN080 BKN095 OVC110 22/22 A2993 RMK AO1 LTG DSNT ALQDS 60024 52003

2010/08/10 08:55
KFRM 100855Z 11007KT 9SM SCT028 BKN034 24/22 A2992 RMK AO1 57010

2010/08/10 08:53
KBAF 100853Z 00000KT 3SM BR CLR 22/21 A2992 RMK AO2 RAE0759 SLP128 P0001 60008 T02170206 55003

2010/08/10 08:53
KTOI 100853Z AUTO 00000KT 6SM BR CLR 23/22 A2996 RMK AO2 SLP139 T02330222 55003

2010/08/10 08:53
PHJR 100853Z AUTO 07005KT 10SM CLR 25/17 A3011 RMK AO2 SLP204 T02500172 51012 TSNO

2010/08/10 08:53
TIST 100853Z AUTO 10010KT 10SM FEW060 28/24 A2992 RMK AO2 SLP131 T02830244 56005 TSNO

2010/08/10 08:53
TISX 100853Z AUTO 08006KT 10SM CLR 26/23 A2992 RMK AO2 SLP132 60001 T02610233 55004 TSNO

2010/08/10 08:51
KEFD 100851Z 00000KT FEW250 26/25 A2993

2010/08/10 08:54
KBOS 100854Z 20007KT 3SM BR FEW040 BKN110 OVC200 21/21 A2989 RMK AO2 TWR VIS 4 VIS 2 E RAE24 SLP120 P0000 60007 T02110206 56012

2010/08/10 08:53
KFLL 100853Z 14008KT 10SM BKN017 BKN100 26/24 A2986 RMK AO2 RAE0757B24E46 SLP112 P0013 60013 T02610244 56012

2010/08/10 08:53
KMCO 100853Z 10006KT 10SM FEW028 25/23 A2991 RMK AO2 SLP126 T02500228 56009

2010/08/10 08:53
KPBI 100853Z 15007KT 10SM SCT023CB BKN060 BKN130 27/23 A2987 RMK AO2 SLP115 CB N-E-S MOV N 60010 T02650226 58009 $

2010/08/10 08:53
TIST 100853Z AUTO 10010KT 10SM FEW060 28/24 A2992 RMK AO2 SLP131 T02830244 56005 TSNO

2010/08/10 08:53
TISX 100853Z AUTO 08006KT 10SM CLR 26/23 A2992 RMK AO2 SLP132 60001 T02610233 55004 TSNO

2010/08/10 08:53
PASC 100853Z 05014KT 2SM BR OVC003 03/03 A2975 RMK AO2 SLP074 T00330028 400610028 51008

2010/08/10 08:54
PAHN 100854Z AUTO 10009G15KT 070V150 10SM BKN011 BKN017 OVC065 13/11 A2997 RMK AO2 SLP151 T01330111 401670122 53003 TSNO

2010/08/10 08:54
PAKN 100854Z 20007KT 5SM -RA BR SCT007 OVC010 10/09 A2964 RMK AO2 RAB00 SLP037 P0000 60000 T01000094 401330100 53011

2010/08/10 08:55
KHFF 100855Z AUTO 00000KT 7SM R22/5000V5500FT CLR 23/22 A3003 RMK AO2 SLP164 T02290221 58002 $

2010/08/10 08:55
KLRO 100855Z AUTO 00000KT 7SM CLR 23/23 A3000 RMK AO2

2010/08/10 08:55
KLUX 100855Z AUTO 00000KT 7SM CLR 22/22 A3003 RMK AO2

2010/08/10 08:54
KLVN 100854Z AUTO 00000KT M1/4SM FG OVC001 19/19 A2994 RMK AO2

2010/08/10 08:53
KLXL 100853Z AUTO 08003KT 10SM CLR 20/18 A2991 RMK AO2

2010/08/10 08:55
KMAO 100855Z AUTO 00000KT 5SM BR BKN002 24/24 A3000 RMK AO2

2010/08/10 08:55
KMGG 100855Z AUTO 00000KT 7SM CLR 20/20 A2993 RMK AO2 T01970195

2010/08/10 08:51
KMJQ 100851Z AUTO 13006KT 7SM BKN006 OVC039 23/23 A2992 RMK AO2

2010/08/10 08:55
KMKS 100855Z AUTO 00000KT 7SM CLR 24/23 A3000 RMK AO2 TSNO

2010/08/10 08:48
KMOX 100848Z AUTO 12006KT 7SM CLR 22/21 A2986 RMK AO2

2010/08/10 08:54
KMVE 100854Z AUTO 16004KT 7SM SCT036 SCT042 23/22 A2987 RMK AO2 LTG DSNT SW

2010/08/10 08:53
KMWM 100853Z AUTO 10006KT 7SM CLR 23/22 A2990 RMK AO2 LTG DSNT SE AND S

2010/08/10 08:51
KMZH 100851Z AUTO 00000KT 1/4SM FG OVC001 18/17 A2994 RMK AO2

2010/08/10 08:55
KNQA 100855Z AUTO 00000KT 7SM CLR 26/25 A2993 RMK

2010/08/10 08:55
KO22 100855Z AUTO 00000KT 10SM CLR 14/10 A2991 RMK AO1

2010/08/10 08:51
KONA 100851Z AUTO 13003KT 1/2SM FG OVC001 23/22 A2994 RMK AO2

2010/08/10 08:54
KONZ 100854Z AUTO 00000KT 1 1/2SM BR VV007 22/21 A2994 RMK AO2 VIS 3/4V3

2010/08/10 08:54
KORB 100854Z AUTO 00000KT 7SM CLR 19/18 A2994 RMK AO2

2010/08/10 08:53
KOVE 100853Z AUTO 17006KT 10SM CLR 19/12 A2983 RMK AO2 SLP102 T01940117 50001 TSNO $

2010/08/10 08:54
KOVL 100854Z AUTO 12009KT 10SM CLR 22/20 A2989 RMK AO2 T02230201

2010/08/10 08:54
KOWA 100854Z AUTO 11005KT 7SM CLR 21/21 A2993 RMK AO2 LTG DSNT S AND SW

2010/08/10 08:53
KPEX 100853Z AUTO 11004KT 7SM CLR 22/21 A2992 RMK AO2 T02210209

2010/08/10 08:53
KPNM 100853Z AUTO 00000KT 1 1/4SM BR CLR 19/19 A2994 RMK AO2 VIS 1/4V5

2010/08/10 08:53
KPQN 100853Z AUTO 12006KT 7SM SCT005 BKN039 24/23 A2989 RMK AO2 LTG DSNT SW

2010/08/10 08:50
KPVJ 100850Z AUTO 14004KT 10SM CLR 27/21 A2991 RMK AO2

2010/08/10 08:53
KPWC 100853Z AUTO 00000KT 3/4SM BR OVC001 17/16 A2996 RMK AO2

2010/08/10 08:55
KRBW 100855Z AUTO 00000KT 10SM CLR 24/24 A3001 RMK AO2

2010/08/10 08:54
KSUS 100854Z AUTO 00000KT 9SM CLR 26/24 A2989 RMK AO2 SLP110 T02610244 56010

2010/08/10 08:54
KSYR 100854Z 00000KT 4SM BR OVC044 22/21 A2993 RMK AO2 RAB05E33 SLP130 P0000 60000 T02170206 58004

2010/08/10 08:54
KLEX 100854Z 16003KT 8SM CLR 24/21 A2999 RMK AO2 SLP143 T02390211 58001

2010/08/10 08:54
KLYH 100854Z AUTO 22003KT 5SM BR CLR 22/21 A3001 RMK AO2 SLP151 T02170211 56004

2010/08/10 08:55
KGPZ 100855Z AUTO 00000KT 2SM CLR 18/17 A2997 RMK AO1 54000

2010/08/10 08:54
KORH 100854Z AUTO 27007KT 8SM OVC060 21/20 A2994 RMK AO2 SLP130 60001 T02060200 55006

2010/08/10 08:54
KROC 100854Z 23003KT 2 1/2SM BR FEW060 OVC080 21/20 A2994 RMK AO2 SLP135 60000 T02060200 56003

2010/08/10 08:54
KCRW 100854Z 00000KT 4SM BR FEW001 21/19 A3000 RMK AO2 SLP147 DNS VLY FG T02060194 58001

2010/08/10 08:54
KDSM 100854Z 11005KT 5SM +TSRA BR FEW009 BKN075CB OVC095 23/21 A2995 RMK AO2 TSE28B43RAE0756B48 PRESRR SLP132 CONS LTGICCG OHD-S-SW AND DSNT E-SE TS OHD-S-SW MOV NE TS MOV E CB DSNT E-SE MOV NE P0003 60158 T

2010/08/10 08:55
KDVL 100855Z AUTO 10007KT 10SM CLR 22/18 A2987 RMK AO1 57003

2010/08/10 08:55
KEAR 100855Z AUTO 36008KT 10SM CLR 21/18 A2992 RMK AO1 52007

2010/08/10 08:54
KROA 100854Z 00000KT 9SM CLR 23/21 A3003 RMK AO2 SLP155 T02330206 56004

2010/08/10 08:54
KMTP 100854Z AUTO 00000KT 24/19 A2993 RMK AO2 SLP134 T02390194 51003 PWINO TSNO  REQ NYCMTRMTP

2010/08/10 08:53
KMWT 100853Z AUTO 00000KT 10SM CLR 24/23 A2992 RMK AO2 SLP115 T02440233 56006 TSNO

2010/08/10 08:54
KACY 100854Z 23004KT 10SM CLR 24/22 A2995 RMK AO2 SLP140 T02440217 56006 $

2010/08/10 08:53
KDAB 100853Z 12005KT 10SM FEW020 27/24 A2993 RMK AO2 SLP133 T02670239 56009

2010/08/10 08:53
KSAV 100853Z 00000KT 10SM FEW019 25/23 A2998 RMK AO2 SLP153 T02500233 56005 $

2010/08/10 08:54
KRFD 100854Z 15003KT 10SM FEW180 24/22 A2997 RMK AO2 SLP142 T02390222 55000 $

2010/08/10 08:54
KAKQ 100854Z AUTO 00000KT 6SM BR FEW070 23/22 A2998 RMK AO2 SLP149 T02330217 56003 TSNO

2010/08/10 08:55
KDRA 100855Z AUTO 09007KT 10SM CLR 21/M08 A2991 RMK AO2 SLP079 T02111083 58004 TSNO

2010/08/10 08:53
K6R6 100853Z AUTO 13004KT 25/18 A2995 RMK AO2 SLP102 T02500178 58004 PWINO TSNO

2010/08/10 08:56
KCHS 100856Z 14003KT 10SM FEW025 27/25 A3000 RMK AO2 SLP158 T02670250 55002

2010/08/10 08:55
KINL 100855Z AUTO 00000KT 10SM CLR 17/17 A2993 RMK AO2 VIS 1/2 RWY 31 SLP131 T01720172 50000 $

2010/08/10 08:55
KPHP 100855Z AUTO 18009KT 10SM -RA SCT050 BKN070 22/18 A2987 RMK AO2 RAB42 SLP088 P0000 60000 T02170178 51002 TSNO

2010/08/10 08:55
KMBG 100855Z AUTO 14006KT 10SM CLR 23/22 A2982 RMK AO2 SLP082 T02280217 55008 TSNO

2010/08/10 08:55
KHON 100855Z AUTO 15004KT 9SM FEW013 BKN036 24/23 A2984 RMK AO2 SLP093 T02440228 55015 TSNO

2010/08/10 08:55
KAAT 100855Z AUTO 16003KT 10SM CLR 13/06 A3000 RMK AO2 SLP115 T01330056 58001 TSNO

2010/08/10 08:56
TJSJ 100856Z 13003KT 10SM SCT028 26/24 A2993 RMK AO2 SLP132 OCNL LTGIC DSNT N-SW CB DSNT N-SW 60000 T02610239 55007 $

2010/08/10 08:56
KSHV 100856Z 00000KT 10SM BKN290 27/23 A2991 RMK AO2 SLP122 T02720228 58001

2010/08/10 08:55
KANJ 100855Z AUTO 30005KT 6SM BR OVC004 20/19 A2995 RMK AO2 SLP136 T02000194 50001

2010/08/10 08:56
KABQ 100856Z 00000KT 10SM FEW110 22/08 A3014 RMK AO2 SLP105 T02220078 51001

2010/08/10 08:53
KLXV 100853Z AUTO 00000KT 10SM CLR 04/04 A3044 RMK AO2 SLP164 T00440039 51002 TSNO

2010/08/10 08:58
KLYV 100858Z AUTO 10009KT 7SM BKN020 BKN025 BKN035 25/23 A2986 RMK AO2 LTG DSNT SE THRU W

2010/08/10 08:55
KMKG 100855Z 00000KT 2SM BR SCT002 21/20 A2995 RMK AO2 SLP138 T02060200 58002

2010/08/10 08:53
KMSN 100853Z 00000KT 2 1/2SM BR CLR 22/21 A2996 RMK AO2 SLP137 T02170211 55003

2010/08/10 08:55
KRNO 100855Z 32005KT 10SM CLR 20/04 A3000 RMK AO2 SLP102 T02000039 50004

2010/08/10 08:54
KROS 100854Z AUTO 00000KT 5SM BR CLR 18/18 A2994 RMK AO2 T01820175

2010/08/10 08:53
KLAX 100853Z 25004KT 10SM OVC007 16/13 A2991 RMK AO2 SLP126 T01560128 50002 $

2010/08/10 08:54
KRIC 100854Z 25006KT 10SM SCT060 26/21 A2996 RMK AO2 SLP148 T02560206 58005 $

2010/08/10 08:55
KRCE 100855Z AUTO 20007KT 10SM CLR 26/20 A2992 RMK AO2

2010/08/10 08:54
KROX 100854Z AUTO 20005KT 10SM CLR 22/20 A2990 RMK AO2

2010/08/10 08:53
K04W 100853Z AUTO 00000KT 7SM SCT002 19/18 A2995 RMK AO2 T01870182

2010/08/10 08:55
K0A9 100855Z AUTO 00000KT 10SM SCT080 21/19 A3007 RMK

2010/08/10 08:56
K20V 100856Z AUTO 00000KT 10SM CLR 07/04 A3030 RMK AO2

2010/08/10 08:52
K5SM 100852Z AUTO 00000KT 10SM 09/01 A3050 RMK AO2

2010/08/10 08:54
K7BM 100854Z AUTO 28004KT 10SM CLR 13/02 A3045 RMK AO2

2010/08/10 08:50
KAEL 100850Z AUTO 15003KT 10SM SCT031 23/22 A2994 RMK AO2 LTG DSNT SE AND S

2010/08/10 08:53
KAIT 100853Z AUTO 00000KT 10SM CLR 16/14 A2994 RMK AO2

2010/08/10 08:55
KANE 100855Z AUTO 00000KT 7SM CLR 22/21 A2993 RMK AO2

2010/08/10 08:54
KAQP 100854Z AUTO 12004KT 7SM CLR 22/22 A2988 RMK AO2

2010/08/10 08:55
KARW 100855Z AUTO 00000KT 10SM SCT022 SCT029 SCT035 26/23 A2999 RMK AO2

2010/08/10 08:53
KBBB 100853Z AUTO 13006KT 10SM CLR 23/22 A2993 RMK AO2

2010/08/10 08:55
KBDN 100855Z AUTO 00000KT 10SM CLR 10/02 A2999 RMK AO2

2010/08/10 08:58
KBDU 100858Z AUTO 16003KT 10SM SCT120 17/15 A3010 RMK AO2

2010/08/10 08:53
KBFW 100853Z AUTO 00000KT 7SM CLR 16/15 A2995 RMK AO2

2010/08/10 08:56
KBMI 100856Z AUTO 00000KT 10SM CLR 24/23 A2993 RMK AO2 PWINO 58017 60003 T02380227 LTG DSNT N P0001 SLP118 $

2010/08/10 08:56
KBOK 100856Z AUTO 00000KT 1 3/4SM BR OVC002 11/11 A2993 RMK AO2 58002 T01110111 SLP137

2010/08/10 08:57
KCCU 100857Z AUTO 24007KT 10SM SCT034 SCT043 08/01 A3057 RMK AO2

2010/08/10 08:52
KCDD 100852Z AUTO 00000KT 5SM BR CLR 19/19 A2996 RMK AO2

2010/08/10 08:55
KCIC 100855Z AUTO 13003KT 10SM CLR 22/10 A2981 RMK AO1

2010/08/10 08:55
KCMA 100855Z 00000KT 10SM BKN007 14/12 A2989 RMK AO2 SLP130 T01390117 55002

2010/08/10 08:50
KCVH 100850Z AUTO 00000KT 10SM OVC005 13/12 A2992 RMK AO1

2010/08/10 08:55
KDCM 100855Z AUTO 00000KT 7SM CLR 22/22 A3002 RMK AO2

2010/08/10 08:56
KDVP 100856Z AUTO 12007KT 4SM BR OVC004 24/22 A2992 RMK AO2 LTG DSNT SE T02360223

2010/08/10 08:54
KDXX 100854Z AUTO 00000KT 10SM SCT036 BKN041 23/23 A2987 RMK AO2

2010/08/10 08:54
KDYT 100854Z AUTO 00000KT 10SM CLR 23/21 A2994 RMK AO2

2010/08/10 08:55
KEAT 100855Z AUTO 29009KT 10SM CLR 18/07 A2982 RMK AO2 SLP091 T01780072 50000

2010/08/10 08:55
KEDC 100855Z AUTO 22005KT 10SM CLR 25/24 A2993 RMK AO1

2010/08/10 08:56
KEFK 100856Z AUTO 00000KT 1/4SM FG OVC001 14/13 A2994 RMK AO2

2010/08/10 08:55
KEIK 100855Z AUTO 22003KT 5SM BR CLR 15/14 A3010 RMK AO2

2010/08/10 08:53
KELO 100853Z AUTO 00000KT 5SM BR CLR 16/16 A2996 RMK AO2

2010/08/10 08:55
KEOE 100855Z AUTO 00000KT 7SM CLR 23/22 A3004 RMK AO2

2010/08/10 08:54
KETH 100854Z AUTO 12006KT 7SM CLR 20/19 A2991 RMK AO2

2010/08/10 08:52
KEVM 100852Z AUTO 00000KT 1/4SM FG OVC001 16/15 A2995 RMK AO1

2010/08/10 08:54
KFBL 100854Z AUTO 08003KT 5SM BR CLR 21/19 A2994 RMK AO2

2010/08/10 08:53
KFFM 100853Z AUTO 10003KT 10SM CLR 23/21 A2987 RMK AO2

2010/08/10 08:54
KFGN 100854Z AUTO 00000KT 7SM CLR 24/21 A2988 RMK AO2

2010/08/10 08:55
KFMH 100855Z AUTO 00000KT 5SM BR FEW060 OVC075 20/20 A2992 RMK AO2

2010/08/10 08:53
KFOZ 100853Z AUTO 00000KT 10SM CLR 18/17 A2997 RMK AO2

2010/08/10 08:59
KFSO 100859Z AUTO 00000KT 5SM BR CLR 16/16 A2991 RMK AO2

2010/08/10 08:52
KGDB 100852Z AUTO 08005KT 10SM BKN034 23/22 A2990 RMK AO2 T02300221

2010/08/10 08:53
KGHW 100853Z AUTO 11006KT 4SM BR CLR 21/19 A2993 RMK AO2

2010/08/10 08:54
KGYL 100854Z AUTO 09003KT 7SM CLR 21/20 A2992 RMK AO2 T02130203

2010/08/10 08:52
KHCD 100852Z AUTO 10005KT 7SM CLR 22/21 A2992 RMK AO2 T02210208

2010/08/10 08:54
KHCO 100854Z AUTO 00000KT 10SM CLR 22/22 A2992 RMK AO2

2010/08/10 08:55
KHVS 100855Z AUTO 00000KT 2 1/2SM SCT013 22/ A3002 RMK AO2

2010/08/10 08:51
KHZX 100851Z AUTO 00000KT 10SM CLR 17/17 A2996 RMK AO2

2010/08/10 08:55
KIFP 100855Z AUTO 00000KT 10SM CLR 29/05 A2977 RMK AO2

2010/08/10 08:55
KJKJ 100855Z AUTO 14004KT 10SM CLR 22/21 A2987 RMK AO2

2010/08/10 08:55
KJMR 100855Z AUTO 00000KT 3/4SM BR VV005 18/18 A2996 RMK AO2

2010/08/10 08:53
KLJF 100853Z AUTO 10003KT 7SM CLR 21/21 A2992 RMK AO2

2010/08/10 08:55
KLLJ 100855Z AUTO 32004KT 10SM FEW075 BKN090 OVC120 12/09 A3009 RMK AO2 LTG DSNT S SLPNO 60000 T01170094 51013 $

2010/08/10 08:55
KLQK 100855Z AUTO 00000KT 1SM BR VV007 23/23 A3003 RMK AO2 VIS 1/2V4 6//// T02300225 PNO

2010/08/10 08:56
PHBK 100856Z AUTO 00000KT 10SM SCT060 26/14 A3010 RMK AO2 SLP196 T02560144 51015 TSNO $ 

2010/08/10 08:56
KSDF 100856Z 00000KT 8SM CLR 28/23 A2994 RMK AO2 SLP133 T02830233 58002 $

2010/08/10 08:54
KRRT 100854Z AUTO 22003KT 10SM CLR 23/21 A2991 RMK AO2 TSNO

2010/08/10 08:54
KSAZ 100854Z AUTO 00000KT 10SM CLR 21/20 A2993 RMK AO2

2010/08/10 08:53
KSGR 100853Z AUTO 00000KT 10SM CLR 25/24 A2990 RMK AO2 SLP133 T02500239 56010 TSNO

2010/08/10 08:53
KSGS 100853Z AUTO 00000KT 10SM CLR 23/21 A2993 RMK AO2 T02330213

2010/08/10 08:54
KTEW 100854Z AUTO 00000KT 1/4SM FG OVC017 18/18 A2996 RMK AO2

2010/08/10 08:55
KTME 100855Z AUTO 00000KT 10SM 24/24 A2992 RMK AO2

2010/08/10 08:55
KTOB 100855Z AUTO 11005KT 1/2SM FG VV005 21/19 A2997 RMK AO2

2010/08/10 08:53
KTWM 100853Z AUTO 00000KT 5SM HZ CLR 18/16 A2994 RMK AO2

2010/08/10 08:55
KUTA 100855Z AUTO 15005KT 7SM CLR 26/25 A2993 RMK AO2

2010/08/10 08:56
KVVV 100856Z AUTO 13004KT 7SM SCT033 23/22 A2988 RMK AO2

2010/08/10 08:49
KVWU 100849Z AUTO 00000KT 10SM CLR 19/18 A2994 RMK AO2

2010/08/10 08:50
KWYS 100850Z AUTO 00000KT 10SM CLR 05/05 A3015 RMK AO2

2010/08/10 08:56
KXVG 100856Z AUTO 00000KT 4SM BR SCT001 16/16 A2993 RMK AO2

2010/08/10 08:56
K1M4 100856Z AUTO 00000KT 4SM BR CLR 23/23 A3001 RMK AO2 56005 T02330233 SLP158

2010/08/10 08:56
KAND 100856Z AUTO 00000KT 8SM CLR 24/21 A3002 RMK AO2 SLP152 T02390211 55007

2010/08/10 08:56
KCEC 100856Z AUTO 00000KT 10SM OVC004 12/11 A2993 RMK AO2 SLP135 T01220111 58003

2010/08/10 08:56
KDIK 100856Z AUTO 16009KT 10SM CLR 20/16 A2980 RMK AO2 SLP065 T02000156 55008

2010/08/10 08:56
KDUG 100856Z AUTO 10003KT 10SM CLR 21/17 A3006 RMK AO2 SLP103 T02110167 58001

2010/08/10 08:56
KDUJ 100856Z AUTO 00000KT 8SM OVC110 21/18 A3000 RMK AO2 SLP143 60000 T02060178 56003

2010/08/10 08:56
KEAU 100856Z AUTO 00000KT 1 1/2SM BR FEW001 21/19 A2994 RMK AO2 SLP132 60001 T02060194 55001

2010/08/10 08:56
KEED 100856Z AUTO 00000KT 10SM CLR 31/M03 A2978 RMK AO2 SLP047 T03111033 53003 TSNO

2010/08/10 08:51
KEFD 100851Z 00000KT FEW250 26/25 A2993

2010/08/10 08:56
KGRD 100856Z AUTO 00000KT 10SM CLR 22/21 A3003 RMK AO2 SLP160 T02220211 55007

2010/08/10 08:55
KHFF 100855Z AUTO 00000KT 7SM R22/5000V5500FT CLR 23/22 A3003 RMK AO2 SLP164 T02290221 58002 $

2010/08/10 08:56
KHND 100856Z AUTO 20007KT 10SM CLR 25/M02 A2989 RMK AO2 58002 T02501022 SLP065

2010/08/10 08:56
KIGX 100856Z AUTO 00000KT 7SM CLR 24/22 A3001 RMK AO2 SLP156 T02390222 58006

2010/08/10 08:56
KJMS 100856Z AUTO 12004KT 10SM CLR 20/18 A2986 RMK AO2 SLP100 T02000183 58015

2010/08/10 08:56
KLAS 100856Z 22007KT 10SM CLR 28/M04 A2982 RMK AO2 SLP068 T02781039 56001

2010/08/10 08:56
KLNR 100856Z AUTO 00000KT 1/4SM FG VV001 23/22 A2997 RMK AO2 SLP137 T02280217 55001

2010/08/10 08:56
KM19 100856Z AUTO 00000KT 10SM CLR 27/26 A2991 RMK AO2 58012 T02720255 SLPNO

2010/08/10 08:56
KMQY 100856Z AUTO 18003KT 7SM CLR 24/24 A2999 RMK AO2 55003 T02440238 SLP144 $

2010/08/10 08:56
KRDM 100856Z AUTO 16004KT 10SM CLR 09/04 A2995 RMK AO2 SLP123 T00890039 50001

2010/08/10 08:56
KSBP 100856Z 33003KT 10SM OVC006 13/12 A2991 RMK AO2 SLP126 T01280117 58006 $

2010/08/10 08:56
KSLE 100856Z AUTO 29004KT 10SM CLR 13/10 A2998 RMK AO2 SLP151 T01280100 58002 TSNO

2010/08/10 08:56
KSRC 100856Z AUTO 22003KT 7SM CLR 27/26 A2992 RMK AO2 TSNO 58008 T02720261 SLP131

2010/08/10 08:56
KUKI 100856Z AUTO 17003KT 10SM CLR 15/11 A2986 RMK AO2 SLP102 T01500111 58001

2010/08/10 08:56
KWJF 100856Z 27011KT 10SM CLR 21/M07 A2990 RMK AO2 SLP102 T02111072 58002

2010/08/10 08:56
PAAK 100856Z AUTO 27010KT 10SM OVC005 08/06 A2990 RMK AO1 52027 PNO

2010/08/10 08:56
PACM 100856Z AUTO 18007KT 5SM -RA BR FEW019 BKN049 OVC065 11/09 A2934 RMK AO2 TSNO 51012 60009 T01050088 401160094 P0001 SLP932 $

2010/08/10 08:56
PAHP 100856Z AUTO 18009KT 10SM BKN010 OVC014 10/07 A2931 RMK AO1 52010 PNO TSNO

2010/08/10 08:56
PAAK 100856Z AUTO 27010KT 10SM OVC005 08/06 A2990 RMK AO1 52027 PNO

2010/08/10 08:56
PABL 100856Z AUTO 00000KT 10SM BKN017 OVC021 12/11 A2949 RMK AO1 52010 PNO

2010/08/10 08:56
PABV 100856Z AUTO 09003KT 10SM OVC008 12/08 A2978 RMK AO1 52010 PNO

2010/08/10 08:52
KNZY 100852Z 25003KT 10SM OVC013 19/14 A2989 RMK AO2 SLP123 T01940139 58003 $

2010/08/10 08:55
KNYL 100855Z AUTO 25003KT 10SM CLR 28/02 A2975 RMK AO2 SLP070 T02780022 50000

2010/08/10 08:56
KNPA 100856Z AUTO 33004KT 6SM BR CLR 26/24 A2990 RMK AO2 SLP125 T02560244 58006 

2010/08/10 08:54
KUGN 100854Z AUTO 00000KT 1 3/4SM BR CLR 22/21 A2993 RMK AO2

2010/08/10 08:54
KEAU 100854Z AUTO 05003KT 1 3/4SM BR FEW001 21/19 A2994 RMK AO2

2010/08/10 08:55
KMSL 100855Z AUTO 00000KT 1 1/4SM BR SCT001 24/23 A2998 RMK AO2

2010/08/10 08:55
KDEQ 100855Z AUTO 00000KT 4SM BR CLR 24/23 A2989 RMK AO2

2010/08/10 08:55
KHIE 100855Z AUTO 00000KT 1 3/4SM BR OVC001 17/17 A2994 RMK AO2

2010/08/10 08:56
KBTL 100856Z AUTO 00000KT 3SM BR BKN004 21/20 A2997 RMK AO2 CIG 001V006

2010/08/10 08:52
KHFF 100852Z AUTO 00000KT 8SM R22/5000V5500FT CLR 23/23 A3003 RMK AO2 SLP164 $

2010/08/10 08:56
KOTM 100856Z AUTO 32009KT 1 1/4SM +TSRA BR BKN018 OVC055 22/21 A3000 RMK AO2 WSHFT 0838 LTG DSNT NW-E P0008

2010/08/10 09:02
KCPW 100902Z AUTO 23009KT 10SM CLR 07/00 A3058 RMK AO2

2010/08/10 09:02
KFKA 100902Z AUTO 14003KT 10SM CLR 24/23 A2998 RMK AO2 LTG DSNT SW T02360226

2010/08/10 08:55
KVAD 100855Z AUTO 09003KT 10SM CLR 24/24 A2995 RMK AO2 SLP140 T02430238 56006 $

2010/08/10 08:55
KXMR 100855Z AUTO 12005KT 10SM FEW033 26/24 A2991 RMK AO2 SLP131 T02590240 58007

2010/08/10 08:55
MHSC 100855Z AUTO 12003KT 9999 FEW002 21/21 A2994 RMK AO2 VIS 1600 RWY17 SLP104 60000 T02100208 56012 $

2010/08/10 08:56
KPRN 100856Z AUTO 00000KT 10SM CLR 24/23 A2995 RMK AO2 SLP134 T02440233 55004 $

2010/08/10 08:55
KCOF 100855Z AUTO 12006KT 10SM CLR 26/ A2991 RMK AO2 SLP130 T0262 58008

2010/08/10 08:55
KDOV 100855Z AUTO 20008KT 10SM CLR 24/24 A2992 RMK AO2 SLP132 T02430241 58006

2010/08/10 08:55
KMCF 100855Z AUTO 08009KT 10SM SCT011 BKN017 25/25 A2987 RMK AO2 BKN V SCT CIG 010 RWY22 SLP117 T02540249 56009

2010/08/10 08:53
KNIP 100853Z 11006KT 10SM FEW020 27/24 A2994 RMK AO2 SLP135 T02720239 56007

2010/08/10 08:54
KNKT 100854Z AUTO 22003KT 10SM CLR 24/24 A3001 RMK AO2 SLP159 T02440239 58005

2010/08/10 08:53
KNQX 100853Z AUTO 22009KT 10SM TS CLR 26/23 A2984 RMK AO2 RAE23 SLP104 P0000 60001 T02610233 55003 $

2010/08/10 08:52
KNRB 100852Z AUTO 14011KT 10SM FEW021 SCT026 BKN060 28/23 A2994 RMK AO2 SLP138 T02830228 56007

2010/08/10 08:55
KPAM 100855Z AUTO 06005KT 10SM CLR 26/24 A2989 RMK AO2 SLP122 T02610240 56010 $

2010/08/10 08:55
KPOB 100855Z AUTO 23005KT 10SM CLR 24/24 A3000 RMK AO2 SLP159 T02430243 58003 $

2010/08/10 08:55
KSSC 100855Z 00000KT 10SM CLR 25/23 A2999 RMK AO2A SLP155 T02450234 56008 $

2010/08/10 08:55
KVAD 100855Z AUTO 09003KT 10SM CLR 24/24 A2995 RMK AO2 SLP140 T02430238 56006 $

2010/08/10 08:55
KVPS 100855Z 01004KT 10SM SKC 25/24 A2991 RMK AO2A SLP127 T02520236 56010 $

2010/08/10 08:56
PMDY 100856Z AUTO 07010KT 10SM CLR 26/22 A3024 RMK AO2 TSNO 51014 60000 T02610216 SLP547

2010/08/10 08:55
PWAK 100855Z 07014KT 8SM FEW021 28/24 A3004 RMK AO2A

2010/08/10 08:56
KNTD 100856Z AUTO 00000KT 9SM OVC007 14/13 A2990 RMK AO2 SLP125 T01440133 57002 TSNO $

2010/08/10 08:56
KABH 100856Z AUTO 08007KT 10SM CLR 15/13 A3015 RMK AO2 SLP133 T01500128 55001 $

2010/08/10 08:56
KNTU 100856Z 24005KT 10SM FEW200 23/22 A2997 RMK AO2 SLP150 T02330222 56004 $

2010/08/10 08:56
KNYG 100856Z AUTO 22007KT 8SM CLR 26/21 A2995 RMK AO2 SLP141 T02560206 58003 $

2010/08/10 08:56
KNCA 100856Z AUTO 00000KT 10SM 24/24 A3001 RMK AO2 SLP164 T02390239 58005 $

2010/08/10 08:56
KNLC 100856Z AUTO 31011KT 10SM CLR 22/12 A2981 RMK AO2 SLP091 T02220122 58004 TSNO

2010/08/10 08:55
KBAB 100855Z AUTO 00000KT 10SM CLR 18/10 A2982 RMK AO2 SLP097 T01800103 51004 $

2010/08/10 08:55
KDLF 100855Z AUTO 11011KT 10SM CLR 28/23 A2992 RMK AO2 SLP114 T02780226 58004

2010/08/10 08:55
KDOV 100855Z AUTO 20008KT 10SM CLR 24/24 A2992 RMK AO2 SLP132 T02430241 58006

2010/08/10 08:55
KEND 100855Z 17009KT 10SM FEW100 27/20 A2989 RMK AO2A SLP103 T02690201 58010

2010/08/10 08:55
KFAF 100855Z AUTO 21005KT 10SM CLR 26/26 A2996 RMK AO2 SLP147 T02580258 58006 $

2010/08/10 08:55
KFBG 100855Z 00000KT 10SM CLR 25/24 A3000 RMK AO2A SLP158 T02480238 58001 $

2010/08/10 08:55
KFHU 100855Z 23003KT 10SM SKC 22/14 A3010 RMK SLP120 58003

2010/08/10 08:55
KFRI 100855Z AUTO 20007KT 10SM CLR 28/20 A2984 RMK AO2 SLP082 T02780204 58012

2010/08/10 08:55
KFTK 100855Z AUTO 00000KT 10SM CLR 26/25 A2996 RMK AO2 SLP138 T02570246 58003 $

2010/08/10 08:55
KLFI 100855Z 22005KT 10SM CLR 25/23 A2997 RMK AO2A SLP149 T02520226 56005

2010/08/10 08:55
KLTS 100855Z AUTO 28005KT 10SM CLR 27/20 A2991 RMK AO2 SLP107 T02700200 56011 $

2010/08/10 08:55
KMCF 100855Z AUTO 08009KT 10SM SCT011 BKN017 25/25 A2987 RMK AO2 BKN V SCT CIG 010 RWY22 SLP117 T02540249 56009

2010/08/10 08:55
KMIB 100855Z AUTO 08009KT 10SM BKN045 20/16 A2984 RMK AO2 SLP096 60002 T01970163 56029

2010/08/10 08:55
KSVN 100855Z 00000KT 7SM FEW005 25/24 A2997 RMK SLP152 ALSTG/SLP ESTMD WND DATA ESTMD 56008

2010/08/10 09:00
KVTP 100900Z AUTO 26007KT 220V300 10SM CLR 09/06 A3046 RMK AO2

2010/08/10 08:56
PACM 100856Z AUTO 18007KT 5SM -RA BR FEW019 BKN049 OVC065 11/09 A2934 RMK AO2 TSNO 51012 60009 T01050088 401160094 P0001 SLP932 $

2010/08/10 08:56
PAEM 100856Z AUTO 16011KT 3SM SCT006 BKN016 OVC034 11/08 A2933 RMK AO1 52007 PNO

2010/08/10 08:56
PAFE 100856Z AUTO 00000KT 6SM BKN008 OVC021 13/11 A3005 RMK AO1 52003 PNO

2010/08/10 08:56
PAFM 100856Z AUTO 10003KT 10SM BKN034 OVC040 13/11 A2958 RMK AO1 52010 PNO

2010/08/10 08:56
PAGL 100856Z AUTO 11008KT 10SM SCT020 BKN100 OVC120 12/09 A2950 RMK AO1 52010 PNO

2010/08/10 08:56
PAGM 100856Z AUTO 05008KT 5SM OVC004 08/07 A2942 RMK AO1 52010

2010/08/10 08:56
PAGS 100856Z AUTO 00000KT 7SM FEW014 SCT044 BKN120 13/12 A2999 RMK AO1 54000 PNO

2010/08/10 08:56
PAHP 100856Z AUTO 18009KT 10SM BKN010 OVC014 10/07 A2931 RMK AO1 52010 PNO TSNO

2010/08/10 08:56
PAHY 100856Z AUTO 00000KT 10SM OVC013 13/12 A3002 RMK AO1 57003 PNO

2010/08/10 08:56
PAII 100856Z AUTO 16004KT 4SM OVC006 10/09 A2970 RMK AO1 52007 PNO

2010/08/10 08:56
PAIN 100856Z AUTO 24004KT 10SM BKN048 OVC055 13/08 A2968 RMK AO1 52003 PNO

2010/08/10 08:56
PAJC 100856Z AUTO 26008KT 10SM SCT018 BKN025 OVC044 12/07 A2967 RMK AO1 52007 PNO

2010/08/10 08:56
PAKK 100856Z AUTO 17005KT 10SM SCT022 BKN075 OVC100 13/10 A2945 RMK AO1 52010 PNO

2010/08/10 08:56
PAKP 100856Z AUTO 05003KT 1/2SM OVC003 09/08 A2962 RMK AO1 60001 52007

2010/08/10 08:56
PAMD 100856Z AUTO 18004KT 4SM BKN011 OVC020 11/09 A2992 RMK AO1 52007 PNO

2010/08/10 08:56
PAMH 100856Z RMK AO1 PNO

2010/08/10 08:56
PAMM 100856Z AUTO 00000KT 10SM BKN015 13/11 A3004 RMK AO1 57007 PNO

2010/08/10 08:56
PAMY 100856Z 22005KT 10SM FEW009 SCT032 BKN045 09/07 A2935 RMK AO1 52010

2010/08/10 08:56
PANI 100856Z AUTO 13006KT 10SM OVC050 12/08 A2952 RMK AO1 52010 PNO

2010/08/10 08:56
PANV 100856Z AUTO 18008KT 10SM SCT014 BKN038 OVC070 11/09 A2949 RMK AO1 52010 PNO

2010/08/10 08:56
PAOU 100856Z AUTO 00000KT 10SM OVC027 10/08 A2965 RMK AO2 PWINO TSNO 51011 T01000083 401330100 SLP042 $

2010/08/10 08:56
PAPG 100856Z 07003KT 8SM FEW004 BKN028 OVC045 11/10 A3002 RMK AO1 54000 PNO

2010/08/10 08:56
PAPH 100856Z AUTO 08005KT 10SM OVC045 11/08 A2965 RMK AO1 52007 PNO

2010/08/10 08:56
PARC 100856Z AUTO 05004KT 10SM FEW008 OVC060 11/08 A2962 RMK AO1 54000 PNO

2010/08/10 08:56
PASA 100856Z AUTO 04008KT 8SM SCT006 BKN025 OVC060 09/07 A2941 RMK AO1 52010 PNO

2010/08/10 08:56
PASD 100856Z AUTO 22013G18KT 10SM OVC015 10/08 A2971 RMK AO1 52014 PNO

2010/08/10 08:56
PASH 100856Z AUTO 02003KT 7SM OVC070 12/11 A2946 RMK AO1 52003 PNO

2010/08/10 08:54
KPHL 100854Z 20005KT 10SM SCT150 BKN200 26/21 A2992 RMK AO2 SLP133 T02560211 56008 $

2010/08/10 08:56
PASK 100856Z AUTO 10009G14KT 10SM BKN049 OVC100 14/11 A2950 RMK AO1 52007 PNO

2010/08/10 08:56
PASL 100856Z AUTO 13006KT 10SM SCT026 SCT033 OVC060 12/08 A2964 RMK AO1 52017 PNO

2010/08/10 08:56
PASM 100856Z AUTO 15011G17KT 10SM OVC005 09/08 A2941 RMK AO1 52010 PNO

2010/08/10 08:56
PASX 100856Z AUTO 00000KT 10SM OVC046 11/10 A2978 RMK AO1 52003 PNO

2010/08/10 08:56
PATG 100856Z AUTO 18015KT 9SM SCT008 BKN027 OVC041 10/09 A2955 RMK AO1 52007 PNO

2010/08/10 08:56
PAUN 100856Z AUTO 09006KT 10SM SCT027 BKN036 OVC050 12/07 A2947 RMK AO1 52010 PNO

2010/08/10 08:56
PAVD 100856Z 00000KT 2 1/2SM SCT004 OVC016 11/09 A2989 RMK AO1 52003 PNO

2010/08/10 08:56
PAWG 100856Z AUTO 00000KT 10SM SCT014 OVC043 13/11 A3003 RMK AO1 57003 PNO

2010/08/10 08:56
PAWN 100856Z AUTO 03004KT 10SM BKN023 OVC030 12/10 A2952 RMK AO1 52003 PNO

2010/08/10 08:56
PAWS 100856Z AUTO 00000KT 10SM BKN017 OVC060 11/10 A2977 RMK AO1 52007 PNO

2010/08/10 08:56
KNFE 100856Z AUTO 00000KT 1 3/4SM HZ CLR 24/21 A2998 RMK AO2 SLP153 T02390211 56003 $

2010/08/10 08:55
KFMH 100855Z AUTO 00000KT 5SM BR FEW060 OVC075 20/20 A2992 RMK AO2

2010/08/10 08:53
K29G 100853Z AUTO 25003KT 10SM SCT035 22/19 A2997 RMK AO2 T02220188 PWINO

2010/08/10 08:54
K4BM 100854Z AUTO 27003KT 10SM 07/05 A3055 RMK AO2

2010/08/10 08:54
KAVP 100854Z 00000KT 10SM FEW075 23/19 A2997 RMK AO2 SLP134 T02280189 53001 $

2010/08/10 08:53
KBTR 100853Z 00000KT 3/4SM BR FEW001 BKN004 24/24 A2992 RMK AO2 SLP131 T02440244 56008 RVRNO

2010/08/10 08:54
KBTV 100854Z 00000KT 1/4SM FG VV001 17/17 A2991 RMK AO2 SLP128 T01720172 50000 RVRNO

2010/08/10 08:51
KCAK 100851Z 25003KT 8SM SCT070 OVC100 24/19 A2997 RMK AO2 SLP137 8/07/ T02390189 56002

2010/08/10 08:53
KCHA 100853Z 00000KT 10SM CLR 26/23 A3001 RMK AO2 SLP150 T02610228 53001 $

2010/08/10 08:55
KCNK 100855Z AUTO 19012KT 10SM CLR 28/21 A2985 RMK AO2 SLP085 T02780211 56014

2010/08/10 08:53
KDAB 100853Z 12005KT 10SM FEW020 27/24 A2993 RMK AO2 SLP133 T02670239 56009

2010/08/10 08:55
KDLH 100855Z 00000KT 10SM CLR 19/18 A2997 RMK AO2 SLP143 T01940178 58002

2010/08/10 08:54
KFWA 100854Z 00000KT 1/4SM FG SCT036 23/22 A2996 RMK AO2 SLP138 R32/0500FT T02280222 58002

2010/08/10 08:55
KGPI 100855Z AUTO 30003KT 10SM FEW095 12/09 A2984 RMK AO2 SLP090 T01220094 51003 $

2010/08/10 08:54
KGSO 100854Z 21004KT 7SM CLR 24/21 A3003 RMK AO2 SLP155 T02390206 56006

2010/08/10 08:54
KIKW 100854Z AUTO 00000KT 1 1/2SM BR VV007 20/19 A2994 RMK AO2 T02000190

2010/08/10 08:55
KIRK 100855Z AUTO 00000KT 9SM CLR 27/25 A2994 RMK AO2 SLP131 T02670250 53000

2010/08/10 08:55
KLIC 100855Z AUTO 00000KT 10SM CLR 13/13 A3011 RMK AO2 SLP124 T01280128 51000

2010/08/10 08:53
KLND 100853Z AUTO 35009KT 10SM CLR 17/03 A3005 RMK AO2 SLP102 T01670033 51001

2010/08/10 08:55
KAST 100855Z AUTO 23003KT 10SM OVC018 13/12 A3000 RMK AO2 SLP157 T01330117 58007

2010/08/10 08:56
KJAX 100856Z 03003KT 10SM CLR 24/23 A2994 RMK AO2 SLP139 T02440228 56004

2010/08/10 08:53
KSAV 100853Z 00000KT 10SM FEW019 25/23 A2998 RMK AO2 SLP153 T02500233 56005 $

2010/08/10 08:55
KSCK 100855Z 01005KT 10SM CLR 16/12 A2983 RMK AO2 SLP101 T01610122 58002

2010/08/10 08:55
KSMS 100855Z AUTO 00000KT 4SM BR SCT001 23/23 A3001 RMK AO2

2010/08/10 08:55
KSYN 100855Z AUTO 00000KT 1/4SM FG OVC001 20/19 A2993 RMK AO2 T01970187

2010/08/10 08:53
KTKC 100853Z AUTO 00000KT 7SM SCT042 23/21 A2990 RMK AO2 LTG DSNT SE THRU SW T02250214

2010/08/10 08:53
KTLH 100853Z 07006KT 10SM FEW008 26/23 A2992 RMK AO2 SLP130 T02610233 55005

2010/08/10 08:53
KTRI 100853Z 00000KT 6SM BR FEW060 BKN090 BKN100 23/21 A3005 RMK AO2 SLP155 T02280206 55003

2010/08/10 08:53
KTYS 100853Z 00000KT 7SM CLR 25/23 A3001 RMK AO2 SLP147 T02500228 55001

2010/08/10 08:56
KBZN 100856Z AUTO 14006KT 10SM CLR 12/09 A2998 RMK AO2 SLP117 T01220089 58002

2010/08/10 08:56
KINW 100856Z AUTO 00000KT 10SM SCT095 19/09 A3012 RMK AO2 SLP121 T01940094 58000 $

2010/08/10 08:56
KMOB 100856Z 02004KT 10SM FEW250 25/24 A2993 RMK AO2 SLP132 T02500239 58004

2010/08/10 08:54
KWAL 100854Z AUTO 25005KT 6SM BR CLR 24/22 A2996 RMK AO2 SLP141 T02390222 58006 TSNO

2010/08/10 08:56
KOFK 100856Z AUTO 12005KT 2 1/2SM BR OVC001 26/25 A2986 RMK AO2 SLP094 T02560250 55015

2010/08/10 08:56
KSFO 100856Z 28003KT 10SM FEW003 OVC010 13/10 A2990 RMK AO2 SLP125 T01330100 58006

2010/08/10 08:56
PADK 100856Z 23010KT 10SM FEW080 OVC100 09/07 A2990 RMK AO1 52010 PNO

2010/08/10 08:54
KSYR 100854Z 00000KT 4SM BR OVC044 22/21 A2993 RMK AO2 RAB05E33 SLP130 P0000 60000 T02170206 58004

2010/08/10 08:56
KGNR 100856Z AUTO 00000KT 16/14 A2987 RMK AO1 SLP113 T01560144 57002

2010/08/10 08:56
KCDJ 100856Z AUTO 00000KT 26/24 A2991 RMK AO2 SLP110 T02610244 55000 PWINO TSNO

2010/08/10 08:56
KP28 100856Z AUTO 17005KT 27/19 A2989 RMK AO2 SLP098 T02670189 58001 PWINO TSNO

2010/08/10 08:56
KFSD 100856Z 13006KT 10SM OVC016 25/23 A2985 RMK AO2 SLP096 CONS LTGIC DSNT SE-SW T02500233 56019 $

2010/08/10 08:56
KGNA 100856Z AUTO 00000KT 14/13 A2994 RMK AO2 SLP135 T01440128 50000 PWINO TSNO

2010/08/10 08:56
K8D3 100856Z AUTO 00000KT 21/21 A2987 RMK AO2 SLP092 T02110206 55011 PWINO TSNO

2010/08/10 08:56
K2WX 100856Z AUTO 20008KT 19/12 A2978 RMK AO1 SLP053 T01940122 58001

2010/08/10 09:00
OPPS 100900Z N--08 4000 HZ SCT030 SCT100 34/26 Q1002.3

2010/08/10 08:50
EBAW 100850Z 22006KT 170V260 CAVOK 20/13 Q1014 NOSIG

2010/08/10 08:50
EBBR 100850Z 21006KT CAVOK 20/12 Q1014 NOSIG

2010/08/10 08:50
EBCI 100850Z 19006KT 150V240 CAVOK 21/11 Q1015 NOSIG

2010/08/10 08:50
EBLG 100850Z 21009KT CAVOK 22/12 Q1015 NOSIG

2010/08/10 08:50
EBOS 100850Z 19012KT 150V220 9999 BKN020 19/14 Q1013 TEMPO 4500 RA BKN012

2010/08/10 08:50
ELLX 100850Z 15005KT 100V200 CAVOK 22/12 Q1016 NOSIG

2010/08/10 08:50
EFIV 100850Z AUTO 02009KT 9999 FEW013 BKN016 12/10 Q1012

2010/08/10 08:50
EFKE 100850Z AUTO 35010KT 9999 OVC018 14/10 Q1010

2010/08/10 08:50
ENBO 100850Z 27006KT 9999 FEW002 BKN050 14/13 Q1010 TEMPO 4000 BR SCT003 BKN008

2010/08/10 08:50
ENBR 100850Z 22004KT 180V250 9999 BKN054 17/11 Q1009

2010/08/10 08:50
ENVA 100850Z VRB01KT 9999 FEW006 SCT010 BKN015 15/13 Q1011 NOSIG

2010/08/10 08:50
ENZV 100850Z 15013KT 9999 FEW030 SCT050 BKN140 19/13 Q1009 NOSIG

2010/08/10 08:50
ENBR 100850Z 22004KT 180V250 9999 BKN054 17/11 Q1009 NOSIG

2010/08/10 08:50
RKNY 100850Z 16003KT 4500 -RA BR FEW015 BKN030 OVC100 25/22 Q1007 NOSIG

2010/08/10 08:50
LOWG 100850Z VRB03KT 9999 FEW038 23/16 Q1018 NOSIG

2010/08/10 08:50
LOWI 100850Z VRB02KT 9999 FEW070 21/13 Q1018 NOSIG

2010/08/10 08:50
LOWK 100850Z VRB02KT 9999 FEW015 SCT300 20/15 Q1019 NOSIG

2010/08/10 08:50
LOWL 100850Z VRB02KT 9999 FEW035 21/14 Q1018 NOSIG

2010/08/10 08:50
LOWS 100850Z 15004KT 090V190 9999 FEW060 SCT300 22/11 Q1018 NOSIG

2010/08/10 08:50
LOWW 100850Z 06004KT 020V090 9999 FEW060 21/16 Q1018 NOSIG

2010/08/10 08:50
LIBD 100850Z 36010KT 330V030 CAVOK 28/15 Q1014

2010/08/10 08:50
LICC 100850Z 07005KT CAVOK 30/17 Q1014

2010/08/10 08:50
LICJ 100850Z 03010KT CAVOK 26/17 Q1016

2010/08/10 08:50
LIEA 100850Z 29006KT 250V340 CAVOK 29/18 Q1016

2010/08/10 08:50
LIEO 100850Z 07004KT 020V130 CAVOK 27/14 Q1016

2010/08/10 08:50
LIMC 100850Z VRB02KT 9999 BKN070 25/18 Q1017 NOSIG

2010/08/10 08:50
LIME 100850Z VRB02KT 9999 SCT060 24/17 Q1017

2010/08/10 08:50
LIMF 100850Z 05005KT 9999 SCT050 SCT110 24/17 1017

2010/08/10 08:50
LIMJ 100850Z 16004KT 9999 FEW020 25/21 Q1016

2010/08/10 08:50
LIML 100850Z VRB03KT 9999 FEW040 25/19 Q1016 NOSIG

2010/08/10 08:45
LIBR 100845Z 33021KT CAVOK 27/21 Q1013 NOSIG

2010/08/10 08:45
LIEE 100845Z 24004KT CAVOK 30/10 Q1015 NOSIG

2010/08/10 08:50
LIPB 100850Z 14002KT 9999 SCT060TCU 26/15 Q1017

2010/08/10 08:50
LIPE 100850Z VRB03KT CAVOK 26/19 Q1016

2010/08/10 08:50
LIPK 100850Z VRB02KT CAVOK 25/18 Q1015

2010/08/10 08:50
LIPQ 100850Z 36004KT CAVOK 27/19 Q1015

2010/08/10 08:50
LIPZ 100850Z VRB03KT CAVOK 26/20 Q1016

2010/08/10 08:50
LIRF 100850Z 27006KT 180V320 CAVOK 28/19 Q1015 NOSIG

2010/08/10 08:50
LIRQ 100850Z VRB02KT 8000 NSC 26/20 Q1016

2010/08/10 08:45
LIPH 100845Z 08005KT CAVOK 27/19 Q1016

2010/08/10 08:45
LIPR 100845Z 31001KT CAVOK 27/22 Q1015

2010/08/10 08:45
LIPX 100845Z 19003KT 9999 SCT050 28/19 Q1016

2010/08/10 08:45
LIRA 100845Z 34003KT CAVOK 28/16 Q1015

2010/08/10 08:45
LIRP 100845Z 13001KT 9999 SCT020 24/20 Q1016 NOSIG

2010/08/10 08:45
LIPX 100845Z 19003KT 9999 SCT050 28/19 Q1016

2010/08/10 08:50
LIMC 100850Z VRB02KT 9999 BKN070 25/18 Q1017 NOSIG

2010/08/10 08:50
LCRA 100850Z 20008KT 8000 HZ FEW020 30/24 Q1006 NOSIG

2010/08/10 08:49
MMAA 100849Z 06004KT 7SM SCT015 BKN070 OVC120 26/24 A2982 RMK SLP097 57016 903 60055 8/27/

2010/08/10 08:45
MMMZ 100845Z 06004KT 10SM SCT220 28/23 A2980 RMK SLP095 57017 915 8/002

2010/08/10 08:55
MMVR 100855Z 00000KT 7SM -RA BKN012TCU 26/25 A2988 RMK SLP080 57010 958 60005 8/200

2010/08/10 08:50
MMCL 100850Z 00000KT 10SM SCT100 BKN220 28/26 A2982 RMK 8/077

2010/08/10 08:49
MMHO 100849Z 00000KT 10SM FEW080 30/18 A2983 RMK SLP081 54000 958 8/030 HZY ISOL CI

2010/08/10 08:45
MMTO 100845Z 17006KT 4SM SCT015 BKN200 11/10 A3037 RMK SLP075 57014 961 8/502 HZ

2010/08/10 08:55
EHBK 100855Z AUTO 19006KT 140V220 9999NDV NCD 22/13 Q1014 NOSIG

2010/08/10 08:55
EHDL 100855Z AUTO 20007KT 9999NDV OVC220 19/14 Q1014 BLU

2010/08/10 08:55
EHEH 100855Z AUTO 19005KT 9999NDV FEW130 SCT300 21/14 Q1014 BLU BLU NOSIG

2010/08/10 08:55
EHGR 100855Z AUTO 22005KT 9999NDV OVC200 19/14 Q1013 BLU BLU TEMPO WHT TEMPO SCT020

2010/08/10 08:55
EHLW 100855Z AUTO 20009KT 7000NDV BR FEW008 SCT011 BKN016 18/16 Q1012 GRN WHT TEMPO GRN 6000 BR SCT023 TEMPO SCT012

2010/08/10 08:55
EHVK 100855Z AUTO 19006KT 9999NDV NCD 20/14 Q1014 BLU BLU NOSIG

2010/08/10 08:55
EHVL 100855Z AUTO 21018KT 9999NDV -RA FEW007 SCT008 BKN010 18/15 Q1011 GRN

2010/08/10 08:55
EHWO 100855Z AUTO 20006G16KT 9999NDV OVC190 19/14 Q1013 BLU BLU TEMPO WHT OVC200 TEMPO SCT020

2010/08/10 08:50
ENAN 100850Z 03011KT 9999 SCT006 BKN008 11/10 Q1011 NOSIG

2010/08/10 08:50
ENBN 100850Z 26004KT 5000 BR SCT002 BKN003 13/12 Q1011

2010/08/10 08:50
ENBV 100850Z 09009KT 9999 BKN035 10/08 Q1013

2010/08/10 08:50
ENDU 100850Z 00000KT 9999 FEW045 BKN070 16/10 Q1010 NOSIG

2010/08/10 08:50
ENFG 100850Z 16005KT 9999 SCT004 BKN007 14/12 Q1011

2010/08/10 08:50
ENHF 100850Z 04005KT 9999 FEW035 SCT050 14/09 Q1011

2010/08/10 08:50
ENLK 100850Z 02008KT 9999 BKN008 13/10 Q1011

2010/08/10 08:50
ENMH 100850Z 33004KT 9999 BKN035 12/08 Q1012

2010/08/10 08:50
ENMS 100850Z 34010KT 9999 SCT040 17/13 Q1010

2010/08/10 08:50
ENNK 100850Z 25005KT 9999 SCT050 15/12 Q1010

2010/08/10 08:50
ENNM 100850Z VRB02KT 9999 BKN004 13/12 Q1011

2010/08/10 08:50
ENNO 100850Z VRB02KT 9999 SCT010 BKN015 17/15 Q1010

2010/08/10 08:50
ENOV 100850Z VRB02KT 9999 FEW008 SCT012 BKN027 15/13 Q1010

2010/08/10 08:50
ENRA 100850Z VRB03KT 9999 BKN050 19/12 Q1010

2010/08/10 08:50
ENRM 100850Z VRB02KT 6000 BKN003 12/11 Q1011

2010/08/10 08:50
ENRS 100850Z 35013KT 9999 SCT005 BKN013 11/10 Q1011

2010/08/10 08:50
ENSG 100850Z 24003KT 9999 SCT002 BKN020 14/13B Q1010

2010/08/10 08:50
ENSH 100850Z 02013KT 9999 FEW010 14/11 Q1010

2010/08/10 08:50
ENSK 100850Z VRB02KT 9999 SCT008 BKN010 13/10 Q1011

2010/08/10 08:50
ENSN 100850Z 21008KT 150V270 9999 FEW023 19/10 Q1011

2010/08/10 08:50
ENSO 100850Z 12010KT 090V150 9999 FEW035 BKN060 18/11 Q1009

2010/08/10 08:50
ENSR 100850Z 35006KT 9999 FEW015 SCT050 13/10 Q1011

2010/08/10 08:50
ENST 100850Z 25003KT 190V320 6000 2000NE -DZ BR BKN002 12/11 Q1011

2010/08/10 08:55
CWLY 100855Z AUTO 20002KT 9SM BKN001 OVC018 OVC031 13/12 A2994

2010/08/10 08:50
EGSH 100850Z 26008KT 230V300 9999 - RA FEW010 BKN039 15/13 Q1010 NOSIG

2010/08/10 08:50
EGCC 100850Z 23015KT 9999 FEW021 SCT038 16/09 Q1008 NOSIG

2010/08/10 08:50
EGBE 100850Z 21009KT 180V240 9999 -RA FEW006 SCT009 15/14 Q1009

2010/08/10 08:50
EGBJ 100850Z 21007KT 9999 -RA FEW015 15/13 Q1010

2010/08/10 08:50
EGDL 100850Z 22008KT 9999 SCT006 BKN011 BKN050 13/12 Q1011 YLO1 TEMPO SCT007 GRN

2010/08/10 08:50
EGSH 100850Z 26008KT 230V300 9999 -RA FEW010 BKN039 15/13 Q1010

2010/08/10 08:50
EGOS 100850Z 25010KT 9999 SCT028 BKN050 16/09 Q1008 BLU NOSIG

2010/08/10 08:50
EGOV 100850Z 22015KT 9999 FEW020 BKN060 15/12 Q1007 BLU NOSIG

2010/08/10 08:50
EGQL 100850Z 10007KT 9999 FEW012 FEW024TCU BKN090 14/10 Q1004 BLU TEMPO -SHRA SCT020 WHT

2010/08/10 08:50
EGQS 100850Z 04007KT 9999 FEW020TCU SCT060 15/09 Q1004 BLU NOSIG

2010/08/10 08:50
EGSC 100850Z 21006KT 150V250 9999 BKN039 15/12 Q1010

2010/08/10 08:56
KAQV 100856Z AUTO 00000KT 10SM CLR 25/23 A2992 RMK AO2 SLP126 T02500233 55002 

2010/08/10 08:56
KNQI 100856Z AUTO 00000KT 7SM CLR 27/25 A2989 RMK AO2 SLP117 T02720250 58014 $ 

2010/08/10 08:45
MMQT 100845Z 06010KT 3SM RA BKN015 BKN030 OVC100 17/15 A3025 RMK 8/46/ RABE40

2010/08/10 08:56
KNGP 100856Z AUTO 10SM CLR 28/27 A2988 RMK AO2 SLP118 T02780272 58011 $ 

2010/08/10 08:56
KHLR 100856Z AUTO 18006KT 10SM CLR 28/23 A2992 RMK AO2 SLP122 T02780233 56016 $ 

2010/08/10 08:56
KNBT 100856Z AUTO 22004KT 7SM CLR 27/24 A3000 RMK AO2 SLP163 T02670244 56006 TSNO 

2010/08/10 08:56
KNUQ 100856Z AUTO 00000KT 10SM OVC008 15/13 A2990 RMK AO2 SLP128 T01500128 58008 TSNO 

2010/08/10 09:00
OSDI 100900Z VRB02KT CAVOK 33/15 Q1008

2010/08/10 09:00
OSAP 100900Z 31008KT CAVOK 34/17 Q1006

2010/08/10 09:00
OSLK 100900Z 24009KT 9999 SCT030 31/22 Q1007

2010/08/10 09:00
OSDZ 100900Z 31006KT CAVOK 36/16 Q1005

2010/08/10 09:00
OSKL 100900Z VRB03KT CAVOK 38/06 Q1006

2010/08/10 08:50
LSME 100850Z AUTO 00000KT 9999NDV NCD 22/15 Q1018 RMK BLU

2010/08/10 08:55
EHAM 100855Z 18010KT 150V210 9999 FEW012 BKN015 18/15 Q1012 NOSIG

2010/08/10 08:55
EHBK 100855Z AUTO 19006KT 140V220 9999NDV NCD 22/13 Q1014 NOSIG

2010/08/10 08:55
EHGG 100855Z AUTO 19010KT 160V230 9999NDV BKN022 20/15 Q1012 NOSIG

2010/08/10 08:55
EHRD 100855Z 19008KT 160V220 9999 SCT016 BKN020 19/15 Q1012 NOSIG

2010/08/10 08:54
KEAU 100854Z AUTO 05003KT 1 3/4SM BR FEW001 21/19 A2994

2010/08/10 08:56
KWMC 100856Z AUTO 00000KT 10SM CLR 13/M01 A2995 RMK AO2 SLP093 60001 T01281011 50005 

2010/08/10 08:56
KNFL 100856Z AUTO 28006KT 10SM CLR 21/03 A2994 RMK AO2 SLP113 T02060028 51005 TSNO 

2010/08/10 08:56
KSPD 100856Z AUTO 03003KT 20/17 A3005 RMK AO2 SLP102 T02000172 58003 PWINO TSNO 

2010/08/10 08:55
KCVS 100855Z 19003KT 10SM CLR 19/15 A3008 RMK AO2A SLP140 T01900150 57002 $

2010/08/10 08:55
KFAF 100855Z AUTO 21005KT 10SM CLR 26/26 A2996 RMK AO2 SLP147 T02580258 58006 $

2010/08/10 08:55
KFCS 100855Z AUTO 30007KT 10SM OVC100 16/13 A3014 RMK AO2 SLP129 T01640127 50003

2010/08/10 08:55
KFMH 100855Z AUTO 00000KT 5SM BR FEW060 OVC075 20/20 A2992 RMK AO2

2010/08/10 08:55
KFTK 100855Z AUTO 00000KT 10SM CLR 26/25 A2996 RMK AO2 SLP138 T02570246 58003 $

2010/08/10 08:55
KHRT 100855Z 36004KT 10SM CLR 25/24 A2989 RMK AO2A SLP123 T02510244 56010 $

2010/08/10 08:55
KLFI 100855Z 22005KT 10SM CLR 25/23 A2997 RMK AO2A SLP149 T02520226 56005

2010/08/10 08:55
KLSV 100855Z AUTO 29003KT 10SM CLR 25/M02 A2983 RMK AO2 SLP085 T02551018 58002 PWINO

2010/08/10 08:55
KMCF 100855Z AUTO 08009KT 10SM SCT011 BKN017 25/25 A2987 RMK AO2 BKN V SCT CIG 010 RWY22 SLP117 T02540249 56009

2010/08/10 08:55
KMIB 100855Z AUTO 08009KT 10SM BKN045 20/16 A2984 RMK AO2 SLP096 60002 T01970163 56029

2010/08/10 08:55
KSVN 100855Z 00000KT 7SM FEW005 25/24 A2997 RMK SLP152 ALSTG/SLP ESTMD WND DATA ESTMD 56008

2010/08/10 08:55
KVPS 100855Z 01004KT 10SM SKC 25/24 A2991 RMK AO2A SLP127 T02520236 56010 $

2010/08/10 08:55
PAED 100855Z 00000KT 10SM OVC006 12/10 A2978 RMK AO2A CIG 005V007 SLP084 60000 T01150104 401950113 51006

2010/08/10 08:55
PWAK 100855Z 07014KT 8SM FEW021 28/24 A3004 RMK AO2A

2010/08/10 08:51
CWLY 100851Z AUTO 19002KT 9SM BKN002 OVC018 OVC031 13/12 A2994

2010/08/10 08:52
CYMX 100852Z 22003KT 1SM R06/2400FT/N BR SKC 18/15 RMK FG3 VIS VRB 1/2-11/2

2010/08/10 08:54
CYNM 100854Z AUTO 30004KT 9SM -RA FEW027 FEW035 FEW045 FEW053 14/12 A2991

2010/08/10 08:56
CYOY 100856Z AUTO 00000KT 1SM FEW073 12/10 A2986 RMK VSBY VRBL 0.2V9.+

2010/08/10 08:56
CYSF 100856Z AUTO 13003KT 1 1/4SM BR SCT007 OVC018 14/14 A2989 RMK SLP130 DENSITY ALT 900FT

2010/08/10 08:54
CYVM 100854Z AUTO 00000KT 2 1/2SM BKN002 03/03 A2993 RMK VSBY VRBL 1.4V9.+

2010/08/10 08:53
CYVO 100853Z AUTO 00000KT 9SM -RA BKN064 17/17 A2991

2010/08/10 08:52
CYYE 100852Z 00000KT 1SM BR BKN050 OVC150 RMK FG5SC2AC1

2010/08/10 08:56
CYZP 100856Z AUTO 26011KT 3SM -RA BR FEW013 BKN020 OVC025 14/13 A3003 RMK SLP169

2010/08/10 08:52
ETIK 100852Z AUTO 00000KT 9999 -RA CLR 22/12 A3007 RMK AO2 RAB0852 SLP172 $

2010/08/10 08:53
KGTB 100853Z AUTO 00000KT 10SM SCT012 OVC018 21/20 A2993 RMK AO2 SLP134

2010/08/10 08:54
KMCF 100854Z AUTO 08010KT 10SM SCT011 BKN017 25/25 A2987 RMK AO2 BKN V SCT CIG 010 RWY22 SLP117

2010/08/10 08:56
KMCF 100856Z AUTO 07008KT 10SM SCT011 SCT017 25/25 A2987 RMK AO2 SLP117

2010/08/10 08:57
PGUA 100857Z AUTO 08008KT 10SM FEW019 SCT025 BKN034 BKN045 OVC055 27/24 A2993 RMK AO2 RAE0857 FEW V SCT CIG 018 RWY24L SLP117 $

2010/08/10 08:50
RKNY 100850Z 16003KT 4500 -RA BR FEW015 BKN030 OVC100 25/22 Q1007 NOSIG

2010/08/10 08:54
RKNY 100854Z 16003KT 4500 -RA BR FEW015 BKN030 OVC100 25/22 Q1007 NOSIG

2010/08/10 08:56
KINS 100856Z 24004KT 10SM CLR 19/M07 A2992 RMK AO2 SLP080 T01891067 50000 

2010/08/10 08:56
KCAE 100856Z 00000KT 6SM BR CLR 25/23 A3000 RMK AO2 SLP154 T02500228 58005 

2010/08/10 08:54
KWAL 100854Z AUTO 25005KT 6SM BR CLR 24/22 A2996 RMK AO2 SLP141 T02390222 58006 TSNO 

2010/08/10 08:53
KUIL 100853Z AUTO 18003KT 2SM BR BKN001 OVC013 12/11 A2997 RMK AO2 RAB0758E12 SLP148 P0000 60000 T01220111 56009 TSNO 

2010/08/10 09:00
TFFR 100900Z 13003KT 9999 SCT020 SCT050 25/24 Q1013 TEMPO 4000 SHRA

2010/08/10 09:00
SGAS 100900Z 19006KT CAVOK 11/07 Q1019

2010/08/10 09:00
SGES 100900Z 18006KT CAVOK 12/11 Q1020

2010/08/10 08:57
CYPQ 100857Z AUTO ///// 5/8SM OVC019 18/18 A2993

2010/08/10 08:56
KNXP 100856Z AUTO 29004KT CLR 23/00 A2992 RMK AO2 SLP094 T02330000 58001 $ 

2010/08/10 08:56
KGFA 100856Z AUTO 19011KT 10SM CLR 16/09 A2983 RMK AO2 SLP096 T01610089 58005 

2010/08/10 08:56
KFLG 100856Z AUTO 00000KT 10SM FEW075 09/07 A3027 RMK AO2 SLP160 T00940072 58002 TSNO 

2010/08/10 08:56
KD07 100856Z AUTO 17012KT 21/17 A2983 RMK AO2 SLP080 T02110172 58016 PWINO TSNO 

2010/08/10 08:55
KGTB 100855Z AUTO 21003KT 10SM SCT012 OVC017 21/20 A2993 RMK AO2 SLP134 T02100201 58002

2010/08/10 08:53
KNIP 100853Z 11006KT 10SM FEW020 27/24 A2994 RMK AO2 SLP135 T02720239 56007

2010/08/10 08:54
KNKT 100854Z AUTO 22003KT 10SM CLR 24/24 A3001 RMK AO2 SLP159 T02440239 58005

2010/08/10 08:53
KNQX 100853Z AUTO 22009KT 10SM TS CLR 26/23 A2984 RMK AO2 RAE23 SLP104 P0000 60001 T02610233 55003 $

2010/08/10 08:52
KNZY 100852Z 25003KT 10SM OVC013 19/14 A2989 RMK AO2 SLP123 T01940139 58003 $

2010/08/10 08:55
KPAM 100855Z AUTO 06005KT 10SM CLR 26/24 A2989 RMK AO2 SLP122 T02610240 56010 $

2010/08/10 08:55
KPOB 100855Z AUTO 23005KT 10SM CLR 24/24 A3000 RMK AO2 SLP159 T02430243 58003 $

2010/08/10 08:55
KPOE 100855Z AUTO 15004KT 10SM CLR 26/23 A2993 RMK AO2 SLP134 T02560233 55001

2010/08/10 08:55
KPSM 100855Z 26004KT 3SM BR FEW045 BKN140 21/21 A2987 RMK AO2A SLP116 60003 T02130208 56008

2010/08/10 08:55
KSKA 100855Z AUTO 22016G19KT 10SM SCT100 BKN140 OVC170 17/07 A2980 RMK AO2 CIG 095 RWY05 SLP078 T01660070 54000

2010/08/10 08:55
KSSC 100855Z 00000KT 10SM CLR 25/23 A2999 RMK AO2A SLP155 T02450234 56008 $

2010/08/10 08:55
KTCM 100855Z AUTO 21005KT 10SM OVC010 14/11 A2997 RMK AO2 SLP150 T01350108 58004

2010/08/10 08:55
KTIK 100855Z 18009KT 10SM CLR 26/21 A2991 RMK AO2A SLP111 T02580208 56011

2010/08/10 08:55
KVAD 100855Z AUTO 09003KT 10SM CLR 24/24 A2995 RMK AO2 SLP140 T02430238 56006 $

2010/08/10 08:55
KVPS 100855Z 01004KT 10SM SKC 25/24 A2991 RMK AO2A SLP127 T02520236 56010 $

2010/08/10 08:50
EGUB 100850Z 19007KT 9999 -RA BKN050 BKN070 14/12 Q1010 BLACKBLU NOSIG

2010/08/10 08:50
EGWU 100850Z 26010KT 9999 -RA FEW007 BKN035 OVC060 14/12 Q1011 BLU TEMPO SCT015 WHT

2010/08/10 08:50
EGXD 100850Z 19006KT 9999 -SHRA FEW012 FEW018TCU BKN060 14/13 Q1007 BLU NOSIG

2010/08/10 08:50
EGXW 100850Z 25009KT 9999 FEW009 SCT200 14/13 Q1008 BLU NOSIG

2010/08/10 08:55
EHAM 100855Z 18010KT 150V210 9999 FEW012 BKN015 18/15 Q1012 NOSIG

2010/08/10 08:55
EHBK 100855Z AUTO 19006KT 140V220 9999NDV NCD 22/13 Q1014 NOSIG

2010/08/10 08:55
EHDL 100855Z AUTO 20007KT 9999NDV OVC220 19/14 Q1014 BLU

2010/08/10 08:55
EHGG 100855Z AUTO 19010KT 160V230 9999NDV BKN022 20/15 Q1012 NOSIG

2010/08/10 08:55
EHGR 100855Z AUTO 22005KT 9999NDV OVC200 19/14 Q1013 BLU BLU TEMPO WHT TEMPO SCT020

2010/08/10 08:55
EHLW 100855Z AUTO 20009KT 7000NDV BR FEW008 SCT011 BKN016 18/16 Q1012 GRN WHT TEMPO GRN 6000 BR SCT023 TEMPO SCT012

2010/08/10 08:55
EHRD 100855Z 19008KT 160V220 9999 SCT016 BKN020 19/15 Q1012 NOSIG

2010/08/10 08:55
EHVK 100855Z AUTO 19006KT 9999NDV NCD 20/14 Q1014 BLU BLU NOSIG

2010/08/10 08:55
EHVL 100855Z AUTO 21018KT 9999NDV -RA FEW007 SCT008 BKN010 18/15 Q1011 GRN

2010/08/10 08:55
EHWO 100855Z AUTO 20006G16KT 9999NDV OVC190 19/14 Q1013 BLU BLU TEMPO WHT OVC200 TEMPO SCT020

2010/08/10 08:55
ETIK 100855Z AUTO 00000KT 9999 -RA CLR 22/13 A3007 RMK AO2 RAB0852 SLP172 P0000 60000 T02220129 53003 $

2010/08/10 08:50
LGBL 100850Z 08004KT 9999 FEW030 34/17 Q1011 NOSIG BLU

2010/08/10 08:50
LGPZ 100850Z 27005KT CAVOK 31/24 Q1011 NOSIG BLU

2010/08/10 08:50
LGRX 100850Z 00000KT CAVOK 32/20 Q1010 NOSIG BLU

2010/08/10 08:50
LGSR 100850Z 34015KT CAVOK 31/22 Q1007 NOSIG BLU

2010/08/10 08:50
LGTG 100850Z 36006KT 9999 SCT025 31/18 Q1011 NOSIG BLU

2010/08/10 08:55
KNBG 100855Z AUTO 00000KT 6SM HZ CLR A2992 RMK AO2 SLP132 56004 PWINO FZRANO $

2010/08/10 08:56
KNJK 100856Z AUTO 00000KT 10SM CLR 25/05 A2973 RMK AO2 SLP083 T02500050 50003 TSNO

2010/08/10 08:55
KNKX 100855Z 00000KT 10SM OVC010 17/14 A2990 RMK AO2 SLP120 T01720139 58003

2010/08/10 08:56
KNYG 100856Z AUTO 22007KT 8SM CLR 26/21 A2995 RMK AO2 SLP141 T02560206 58003 $

2010/08/10 08:55
KNYL 100855Z AUTO 25003KT 10SM CLR 28/02 A2975 RMK AO2 SLP070 T02780022 50000

2010/08/10 08:52
KNZY 100852Z 25003KT 10SM OVC013 19/14 A2989 RMK AO2 SLP123 T01940139 58003 $

2010/08/10 08:55
KPOE 100855Z AUTO 15004KT 10SM CLR 26/23 A2993 RMK AO2 SLP134 T02560233 55001

2010/08/10 08:55
KPSM 100855Z 26004KT 3SM BR FEW045 BKN140 21/21 A2987 RMK AO2A SLP116 60003 T02130208 56008

2010/08/10 08:56
KWJF 100856Z 27011KT 10SM CLR 21/M07 A2990 RMK AO2 SLP102 T02111072 58002

2010/08/10 08:50
OAKN 100850Z 31010KT 8000 DU BKN150 OVC250 37/02 Q1007 BLU TEMPO 6000 WHT RMK A2974 DA6700

2010/08/10 09:00
OSAP 100900Z 31008KT CAVOK 34/17 Q1006

2010/08/10 09:00
OSDI 100900Z VRB02KT CAVOK 33/15 Q1008

2010/08/10 09:00
OSLK 100900Z 24009KT 9999 SCT030 31/22 Q1007

2010/08/10 08:56
PMDY 100856Z AUTO 07010KT 10SM CLR 26/22 A3024 RMK AO2 TSNO 51014 60000 T02610216 SLP547

2010/08/10 09:00
TFFR 100900Z 13003KT 9999 SCT020 SCT050 25/24 Q1013 TEMPO 4000 SHRA

2010/08/10 08:56
TJSJ 100856Z 13003KT 10SM SCT028 26/24 A2993 RMK AO2 SLP132 OCNL LTGIC DSNT N-SW CB DSNT N-SW 60000 T02610239 55007 $

2010/08/10 08:56
KLWS 100856Z AUTO 15003KT 10SM CLR 17/03 A2980 RMK AO2 SLP083 T01720033 53006 

2010/08/10 09:00
FMEP 100900Z 17006KT 9999 FEW013 FEW040TCU BKN083 25/16 Q1022

2010/08/10 08:55
KCAO 100855Z AUTO 24006KT 10SM OVC100 23/15 A3009 RMK AO2 SLP102 T02280150 55001 TSNO 

2010/08/10 09:00
OYMB 100900Z 04010KT 9999 SCT030 38/11 Q1005

2010/08/10 09:00
UBBN 100900Z 10012KT 9999 FEW100 35/06 Q1010 R14R/CLRD60 NOSIG RMK G/O QFE683

2010/08/10 09:00
LWSK 100900Z 33007G19KT 9999 FEW050 27/13 Q1016 NOSIG

2010/08/10 09:00
MYNN 100900Z 19004KT 9999 SCT020 OVC080 25/24 A2993

2010/08/10 08:50
ETUO 100850Z 15003KT 9999 FEW045 22/13 Q1015 BLU

2010/08/10 08:57
KNJM 100857Z AUTO 27003KT 10SM SCT017 27/25 A3001 RMK AO2 SLP165 T02670250 56004 

2010/08/10 08:55
KY63 100855Z AUTO 13005KT 10SM CLR 24/22 A2988 RMK AO2 T02370219

2010/08/10 08:55
PGUA 100855Z AUTO 09009KT 10SM -RA SCT019 SCT025 BKN034 BKN048 OVC055 27/24 A2993 RMK AO2 RAB0847 CIG 018 RWY24L SLP117 P0000 60000 T02660244 53017 $

2010/08/10 08:56
TJSJ 100856Z 13003KT 10SM SCT028 26/24 A2993 RMK AO2 SLP132 OCNL LTGIC DSNT N-SW CB DSNT N-SW 60000 T02610239 55007 $

2010/08/10 08:59
KSAW 100859Z AUTO 00000KT 5SM BR CLR 17/16 A2997 RMK AO2

2010/08/10 08:55
KLDM 100855Z AUTO 00000KT 1/2SM FG OVC001 21/20 A2995 RMK AO2

2010/08/10 08:55
KPHN 100855Z AUTO 00000KT 1/4SM FG OVC001 17/17 A2994 RMK AO2

2010/08/10 08:55
KRMY 100855Z AUTO 00000KT M1/4SM FG 20/19 A2996 RMK AO2

2010/08/10 08:56
KOSC 100856Z AUTO 32004KT OVC001 21/19 A2995 RMK AO2 PWINO

2010/08/10 08:54
KTTF 100854Z AUTO 00000KT 3SM BR CLR 21/21 A2994 RMK AO2

2010/08/10 08:55
KMCD 100855Z AUTO 00000KT 1/4SM HZ OVC002 21/18 A2997 RMK AO2

2010/08/10 08:56
KFPK 100856Z AUTO 00000KT M1/4SM FG OVC001 18/18 A2995 RMK AO2

2010/08/10 08:55
KCVX 100855Z AUTO 00000KT 3SM BR OVC005 23/21 A2998 RMK AO2

2010/08/10 08:54
KMOP 100854Z AUTO 00000KT 2 1/2SM BR CLR 20/20 A2995 RMK AO2

2010/08/10 08:54
KFKS 100854Z AUTO 00000KT 1/4SM FG OVC001 19/18 A2995 RMK AO2

2010/08/10 08:54
KCAD 100854Z AUTO 00000KT 1SM BR VV007 17/17 A2998 RMK AO2

2010/08/10 08:55
KMGN 100855Z AUTO 00000KT 5SM BR OVC007 24/22 A2996 RMK AO2

2010/08/10 08:55
KSLH 100855Z AUTO 00000KT 1/4SM FG OVC001 21/20 A2995 RMK AO2

2010/08/10 08:55
KSJX 100855Z AUTO 00000KT 1 1/4SM BR VV007 21/20 A2996 RMK AO2

2010/08/10 08:55
KHAI 100855Z AUTO 00000KT 1/2SM FG VV005 20/20 A2996 RMK AO2

2010/08/10 08:56
KLWA 100856Z AUTO 00000KT 4SM BR CLR 20/19 A2994 RMK AO2

2010/08/10 08:57
KDRM 100857Z AUTO 00000KT 1/2SM FG OVC001 17/17 A2994 RMK AO2

2010/08/10 08:54
KVLL 100854Z AUTO 00000KT 5SM BR CLR 22/20 A2998 RMK AO2

2010/08/10 08:55
KGOV 100855Z AUTO 31003KT 3SM BR OVC003 21/21 A2999 RMK AO2

2010/08/10 08:54
KPZQ 100854Z AUTO 29003KT 1/2SM FG OVC001 20/19 A2997 RMK AO2

2010/08/10 08:55
KCFS 100855Z AUTO 34004KT 5SM BR CLR 21/21 A2995 RMK AO2

2010/08/10 08:55
KHYX 100855Z AUTO 34003KT 7SM CLR 21/20 A2995 RMK AO2

2010/08/10 08:55
KOZW 100855Z AUTO 00000KT 1/4SM FG BKN001 20/19 A2996 RMK AO2

2010/08/10 08:55
KRNP 100855Z AUTO 00000KT 1/4SM FG BKN001 18/18 A2996 RMK AO2

2010/08/10 08:54
KDUH 100854Z AUTO 00000KT 1/4SM FG OVC001 21/19 A2996 RMK AO2

2010/08/10 08:55
KISQ 100855Z AUTO 00000KT 2 1/2SM BR CLR 18/17 A2996 RMK AO2 VIS 1 3/4V4

2010/08/10 08:55
KJYM 100855Z AUTO 00000KT M1/4SM FG OVC001 19/19 A2998 RMK AO2

2010/08/10 09:05
KBAX 100905Z AUTO 34003KT 1/4SM FG OVC002 21/21 A2995 RMK AO2

2010/08/10 08:55
KIRS 100855Z AUTO 00000KT 2SM BR CLR 20/19 A2996 RMK AO2

2010/08/10 08:55
KAMN 100855Z AUTO 00000KT M1/4SM FG OVC001 18/17 A2994 RMK AO2

2010/08/10 08:55
KACB 100855Z AUTO 00000KT M1/4SM FG OVC001 22/22 A2996 RMK AO2

2010/08/10 08:54
KRQB 100854Z AUTO 00000KT M1/4SM FG OVC001 19/19 A2997 RMK AO2

2010/08/10 08:55
KERY 100855Z AUTO 33003KT M1/4SM FG OVC002 19/18 A2998 RMK AO2

2010/08/10 08:55
KOEB 100855Z AUTO 00000KT 3/4SM BR BKN001 BKN006 20/19 A2997 RMK AO2

2010/08/10 08:56
K4I3 100856Z AUTO 27006KT 7SM CLR 23/20 A2998 RMK AO2

2010/08/10 08:55
KAUM 100855Z AUTO 13003KT 7SM CLR 23/22 A2994 RMK AO2 LTG DSNT SE AND S

2010/08/10 08:55
KFFX 100855Z AUTO 00000KT 1/2SM FG OVC002 18/18 A2995 RMK AO2

2010/08/10 08:54
KCNB 100854Z AUTO 00000KT 3SM BR OVC045 23/22 A2989 RMK AO2 T02250221

2010/08/10 08:55
KCKN 100855Z AUTO 14005KT 10SM CLR 21/19 A2989 RMK AO2

2010/08/10 09:03
KCFE 100903Z AUTO 00000KT 10SM CLR 21/20 A2993 RMK AO2 T02080196

2010/08/10 08:57
KCQM 100857Z AUTO 00000KT 7SM CLR 17/17 A2996 RMK AO2

2010/08/10 08:55
KDTL 100855Z AUTO 13004KT 10SM CLR 21/17 A2993 RMK AO2

2010/08/10 08:55
KBDH 100855Z AUTO 11007KT 7SM CLR 23/22 A2991 RMK AO2

2010/08/10 08:55
KCBG 100855Z AUTO 00000KT 2SM BR CLR 19/17 A2994 RMK AO2

2010/08/10 08:56
KADC 100856Z AUTO 07003KT 10SM CLR 18/17 A2992 RMK AO2

2010/08/10 08:55
KHAF 100855Z AUTO 00000KT 3SM BR OVC002 11/11 A2992 RMK AO2

2010/08/10 08:55
KCKC 100855Z AUTO 00000KT 7SM CLR 16/14 A3001 RMK AO2

2010/08/10 08:54
KJYG 100854Z AUTO 00000KT 10SM CLR 24/24 A2992 RMK AO2 LTG DSNT S AND SW

2010/08/10 08:56
KCOQ 100856Z AUTO 33003KT 7SM CLR 18/16 A2997 RMK AO2

2010/08/10 08:58
KACQ 100858Z AUTO 09006KT 10SM CLR 22/21 A2995 RMK AO2 LTG DSNT S

2010/08/10 08:56
KSDF 100856Z 00000KT 8SM CLR 28/23 A2994 RMK AO2 SLP133 T02830233 58002 $

2010/08/10 08:57
K14Y 100857Z AUTO 05004KT 5SM BR CLR 20/20 A2993 RMK AO2 T02010196

2010/08/10 08:55
K21D 100855Z AUTO 00000KT 5SM BR SCT003 20/19 A2994 RMK AO2

2010/08/10 08:56
KART 100856Z AUTO 00000KT 4SM BR OVC013 21/20 A2992 RMK AO2 SLP127 T02060200 58002

2010/08/10 08:55
KATW 100855Z AUTO 35003KT 7SM CLR 22/20 A2995 RMK AO2

2010/08/10 08:55
KBBG 100855Z AUTO 00000KT 10SM CLR 26/23 A2996 RMK AO2

2010/08/10 08:56
KBED 100856Z AUTO 24005KT 4SM BR OVC110 22/21 A2988 RMK AO2 SLP127 60003 T02220211 56009

2010/08/10 08:54
KBJI 100854Z AUTO 00000KT 10SM CLR 17/16 A2994 RMK AO2

2010/08/10 08:56
KBJJ 100856Z AUTO 00000KT 6SM BR CLR 21/19 A2998 RMK AO2 SLP142 T02110194 55001

2010/08/10 08:55
KBKN 100855Z AUTO 15004KT 10SM CLR 25/21 A2988 RMK AO2

2010/08/10 08:55
KBUU 100855Z AUTO 00000KT 1/4SM FG OVC001 18/18 A2995 RMK AO2 T01780176

2010/08/10 08:54
KC29 100854Z AUTO 00000KT M1/4SM VV000 21/20 A2997 RMK AO2 T02060195

2010/08/10 08:56
KCTB 100856Z AUTO 26003KT 10SM BKN110 12/09 A2985 RMK AO2 SLP080 T01170094 58002 PWINO

2010/08/10 08:56
KCXY 100856Z AUTO 00000KT 6SM HZ CLR 24/21 A2993 RMK AO2 SLP132 T02390211 55001

2010/08/10 08:53
KD39 100853Z AUTO 10003KT 7SM CLR 22/21 A2991 RMK AO2 T02230212

2010/08/10 08:56
KDAY 100856Z 24003KT 7SM CLR 24/20 A2999 RMK AO2 SLP145 T02440200 50001

2010/08/10 08:55
KDVK 100855Z AUTO 00000KT 3SM CLR 24/23 A2999 RMK AO1

2010/08/10 08:56
KEKO 100856Z AUTO 24003KT 10SM FEW110 14/04 A2999 RMK AO2 SLP097 T01440044 53001

2010/08/10 08:56
KELZ 100856Z AUTO 00000KT 4SM BR OVC050 19/18 A3003 RMK AO2 SLP156 60000 T01890183 52000

2010/08/10 08:54
KEZS 100854Z AUTO 02005KT 10SM BKN006 22/21 A2996 RMK AO2 T02210206

2010/08/10 08:55
KGGE 100855Z AUTO 00000KT 10SM CLR 23/23 A3000 RMK AO2

2010/08/10 08:56
KGON 100856Z AUTO 00000KT 10SM SCT065 BKN120 23/20 A2992 RMK AO2 SLP130 T02330200 53003

2010/08/10 08:55
KHFJ 100855Z AUTO 00000KT 10SM CLR 26/22 A2992 RMK AO1

2010/08/10 08:56
KHPN 100856Z 00000KT 7SM -RA SCT040 BKN110 23/19 A2993 RMK AO2 RAB02 SLP127 P0000 60000 T02280189 50000

2010/08/10 08:56
KHWV 100856Z AUTO 00000KT 10SM FEW095 24/20 A2993 RMK AO2 RAE07B44E53 SLP134 P0000 60000 T02390200 53004

2010/08/10 08:56
KHYA 100856Z AUTO 00000KT 4SM BR FEW085 21/21 A2991 RMK AO2 RAE29 SLP128 P0000 60016 T02110206 58003

2010/08/10 08:56
KISP 100856Z 34004KT 10SM BKN140 OVC250 24/18 A2991 RMK AO2 SLP127 T02440178 51002

2010/08/10 08:56
KITH 100856Z AUTO 00000KT 3SM BR OVC041 21/20 A2998 RMK AO2 58003 60000 T02050200 RAB06E32 P0000 SLP145

2010/08/10 08:56
KIWA 100856Z AUTO 35003KT 10SM CLR 31/12 A2984 RMK AO2

2010/08/10 08:56
KJXN 100856Z 00000KT 1/4SM FG FEW001 OVC018 20/20 A2998 RMK AO2 SLP145 T02000200 51003 $

2010/08/10 08:55
KLCK 100855Z AUTO 00000KT 5SM BR CLR 23/21 A2997 RMK AO2 T02300210

2010/08/10 08:56
KLRD 100856Z AUTO 16007KT 10SM CLR 28/25 A2991 RMK AO2 58014 T02830250 SLP115

2010/08/10 08:56
KMDT 100856Z 00000KT 6SM HZ BKN150 26/22 A2991 RMK AO2 SLP128 T02560222 55002

2010/08/10 08:55
KMHR 100855Z 12005KT 10SM SKC 13/10 A2984

2010/08/10 08:56
KMRH 100856Z AUTO 24006KT 10SM BKN100 27/24 A3001 RMK AO2 SLP162 T02720244 58004 TSNO

2010/08/10 08:55
KMWO 100855Z AUTO 00000KT 2SM BR CLR 23/22 A2998 RMK AO2

2010/08/10 08:56
KOWB 100856Z AUTO 18003KT 8SM CLR 26/25 A2994 RMK AO2 58004 T02610250 SLP132

2010/08/10 08:55
KPVF 100855Z AUTO 11004KT 10SM CLR 19/09 A2994 RMK AO1

2010/08/10 08:56
KSGH 100856Z AUTO 00000KT 4SM BR CLR 22/22 A2999 RMK AO2 56002 T02160216 SLP146 $

2010/08/10 08:58
KSGJ 100858Z AUTO 13009KT 10SM FEW021 SCT027 27/24 A2994 RMK AO2 SLP139 T02720239 57006

2010/08/10 08:55
KSME 100855Z AUTO 00000KT 4SM BR 23/23 A3000 RMK AO2

2010/08/10 08:55
KSRR 100855Z AUTO 27010KT 10SM BKN110 15/10 A3025 RMK AO2

2010/08/10 08:56
KTPH 100856Z AUTO 01006KT 10SM CLR 12/M12 A3006 RMK AO2 SLP109 T01221117 58002

2010/08/10 08:53
KUNI 100853Z AUTO 00000KT 7SM SCT110 23/18 A2997 RMK AO2

2010/08/10 08:55
KVQQ 100855Z AUTO 00000KT 9SM CLR 23/23 A2994 RMK AO2

2010/08/10 08:55
KY51 100855Z AUTO 00000KT 10SM CLR 23/22 A2998 RMK AO1 T02300221

2010/08/10 08:55
KRGK 100855Z AUTO 00000KT 4SM BR BKN003 21/20 A2993 RMK AO2

2010/08/10 08:54
KFSE 100854Z AUTO 12003KT 10SM CLR 18/17 A2991 RMK AO2

2010/08/10 08:55
KY70 100855Z AUTO 00000KT 1/2SM FG SCT003 20/20 A2995 RMK AO2 T02020197

2010/08/10 08:50
KUKT 100850Z AUTO 00000KT 10SM CLR 23/21 A2995 RMK AO1

2010/08/10 08:54
KCDA 100854Z AUTO 00000KT 1/4SM FG OVC002 16/14 A2996 RMK AO2

2010/08/10 08:56
PAFS 100856Z AUTO 00000KT 10SM -RA FEW033 BKN047 11/09 A2963 RMK AO2 TSNO 51008 60005 T01050088 BKN V OVC RAB04 P0004 SLP043 $

2010/08/10 08:56
PAGN 100856Z AUTO 00000KT OVC006 RMK AO2 PWINO TSNO 5//// SLPNO $

2010/08/10 08:56
PAHC 100856Z AUTO VRB03KT 10SM -RA BKN047 OVC070 12/09 A2950 RMK AO2 TSNO 51012 60002 T01160094 401440105 RAB50 P0000 SLP992 $

2010/08/10 08:56
PAIG 100856Z AUTO 00000KT 10SM SCT036 OVC046 11/10 A2966 RMK AO2 PWINO TSNO 53003 60001 T01050100 401330105 SLP047 $

2010/08/10 08:56
PAMO 100856Z AUTO 15018KT 6SM RA BR OVC003 09/09 A2940 RMK AO2 TSNO 51010 60002 T00940094 401050088 CIG 001V006 RAB03E14B39 P0001 SLP953 $

2010/08/10 08:56
PAOO 100856Z AUTO 17012KT 8SM -RA OVC007 09/08 A2936 RMK AO2 TSNO 51010 60000 T00940083 401000088 RAB38 P0000 SLP943 $

2010/08/10 08:56
PAPM 100856Z AUTO 18020KT 4SM -RA BR BKN010 OVC033 09/09 A2951 RMK AO2 TSNO 51005 60002 T00940088 OVC V BKN RAB55 P0000 SLP993 $

2010/08/10 08:56
PARS 100856Z AUTO 19011KT 4SM -RA BR BKN010 BKN014 OVC022 10/09 A2947 RMK AO2 TSNO 52008 60000 T01000088 401270100 CIG 007V012 P0000 SLP986 $

2010/08/10 08:56
PARY 100856Z AUTO 00000KT 10SM BKN065 OVC080 12/09 A2960 RMK AO2 PWINO TSNO 53009 T01220094 401550100 OVC V BKN SLP028

2010/08/10 08:56
PATQ 100856Z AUTO 07018KT 10SM OVC005 02/02 A2978 RMK AO2 TSNO 51006 60000 T00220016 400380005 SLP088 $

2010/08/10 08:56
KABQ 100856Z 00000KT 10SM FEW110 22/08 A3014 RMK AO2 SLP105 T02220078 51001

2010/08/10 08:56
KJAX 100856Z 03003KT 10SM CLR 24/23 A2994 RMK AO2 SLP139 T02440228 56004

2010/08/10 08:55
K1A6 100855Z AUTO 00000KT 4SM BR SCT004 24/24 A3003 RMK AO2

2010/08/10 08:55
K46D 100855Z AUTO 00000KT 10SM CLR 19/19 A2989 RMK AO2

2010/08/10 08:55
KAIG 100855Z AUTO 00000KT 10SM CLR 16/15 A2999 RMK AO2

2010/08/10 08:56
KAJO 100856Z AUTO 27003KT 10SM CLR 14/13 A2991 RMK AO2 50002 T01440133 SLP121 $

2010/08/10 08:51
KARV 100851Z AUTO 00000KT 2SM BR CLR 17/16 A3001 RMK AO2 T01720161

2010/08/10 08:55
KBBF 100855Z AUTO 19009KT 10SM FEW020 30/27 A2987 RMK A01

2010/08/10 08:55
KBQX 100855Z AUTO 19008KT 10SM CLR 30/26 A2990 RMK A01

2010/08/10 08:50
KBWP 100850Z AUTO 11004KT 10SM CLR 21/19 A2988 RMK AO1 T02060191

2010/08/10 08:56
KCHS 100856Z 14003KT 10SM FEW025 27/25 A3000 RMK AO2 SLP158 T02670250 55002

2010/08/10 08:55
KCLI 100855Z AUTO 00000KT 10SM CLR 20/18 A2995 RMK AO2

2010/08/10 08:55
KCMB 100855Z AUTO 32004KT 10SM CLR 31/24 A2991 RMK A01

2010/08/10 08:55
KCMY 100855Z AUTO 00000KT M1/4SM FG OVC001 19/19 A2997 RMK AO2 T01930188

2010/08/10 08:55
KCRH 100855Z AUTO 29005KT 10SM CLR 30/25 A2991 RMK A01

2010/08/10 08:55
KCWA 100855Z AUTO 04005KT 10SM CLR 19/18 A2999 RMK AO2 T01910182

2010/08/10 08:56
KDIJ 100856Z AUTO 06005KT 10SM CLR 08/06 A3013 RMK AO2 56005 T00770055 SLP136 $

2010/08/10 08:55
KDLL 100855Z AUTO 00000KT 1/4SM FG VV002 21/21 A2997 RMK AO2 T02110205

2010/08/10 09:00
KEDU 100900Z AUTO 14006KT 10SM CLR 13/11 A2981 RMK AO1

2010/08/10 08:55
KEFT 100855Z AUTO 00000KT 10SM CLR 24/22 A2996 RMK AO2 T02390220

2010/08/10 08:51
KEGV 100851Z AUTO 00000KT 5SM BR CLR 15/15 A3001 RMK AO2 T01500150

2010/08/10 08:55
KEHC 100855Z AUTO 25004KT 10SM CLR 31/24 A2991 RMK A01

2010/08/10 08:55
KEIR 100855Z AUTO 00000KT 10SM CLR 29/26 A2989 RMK A01

2010/08/10 08:56
KEKQ 100856Z AUTO 00000KT 1 3/4SM BR BKN080 22/22 A3002 RMK AO2 55002 T02220222 SLP159

2010/08/10 08:55
KEMK 100855Z AUTO 00000KT 10SM SCT023 BKN035 30/25 A2992 RMK A01

2010/08/10 08:52
KETB 100852Z AUTO 00000KT 3/4SM BR BKN002 20/20 A2995 RMK AO2 VIS 1/4V5 60001 T02020195

2010/08/10 08:55
KFAF 100855Z AUTO 21005KT 10SM CLR 26/26 A2996 RMK AO2 SLP147 T02580258 58006 $

2010/08/10 08:55
KFBG 100855Z 00000KT 10SM CLR 25/24 A3000 RMK AO2A SLP158 T02480238 58001 $

2010/08/10 08:56
KFSD 100856Z 13006KT 10SM OVC016 25/23 A2985 RMK AO2 SLP096 CONS LTGIC DSNT SE-SW T02500233 56019 $

2010/08/10 08:55
KGBK 100855Z AUTO 00000KT 10SM SCT024 BKN038 30/25 A2991 RMK A01

2010/08/10 08:52
KGLW 100852Z AUTO 00000KT 5SM BR SCT085 24/23 A2997 RMK AO2 T02420231

2010/08/10 08:55
KGUL 100855Z AUTO 10SM CLR 30/24 A2992 RMK A01

2010/08/10 08:50
KHQI 100850Z AUTO 20006KT 10SM 31/25 A2991 RMK A01

2010/08/10 08:55
KIPN 100855Z AUTO VRB03G10KT 10SM FEW020 FEW025 30/25 A2988 RMK A01

2010/08/10 08:55
KJVL 100855Z AUTO 00000KT 2SM BR CLR 22/20 A2995 RMK AO2 T02150200

2010/08/10 08:55
KLFI 100855Z 22005KT 10SM CLR 25/23 A2997 RMK AO2A SLP149 T02520226 56005

2010/08/10 08:56
KM89 100856Z AUTO 00000KT 7SM CLR 26/25 A2991 RMK AO2 58003 T02610250 SLP141 $

2010/08/10 08:55
KMCF 100855Z AUTO 08009KT 10SM SCT011 BKN017 25/25 A2987 RMK AO2 BKN V SCT CIG 010 RWY22 SLP117 T02540249 56009

2010/08/10 08:55
KMDJ 100855Z AUTO 00000KT 10SM BKN022 29/25 A2991 RMK A01

2010/08/10 08:55
KMIU 100855Z AUTO 19012KT 10SM CLR 30/27 A2989 RMK A01

2010/08/10 08:53
KMWT 100853Z AUTO 00000KT 10SM CLR 24/23 A2992 RMK AO2 SLP115 T02440233 56006 TSNO

2010/08/10 08:55
KMZG 100855Z AUTO 19015KT 10SM FEW021 FEW031 30/26 A2988 RMK A01

2010/08/10 08:56
KNTU 100856Z 24005KT 10SM FEW200 23/22 A2997 RMK AO2 SLP150 T02330222 56004 $

2010/08/10 08:52
KPVB 100852Z AUTO 09003KT 7SM CLR 24/22 A2997 RMK AO1 T02350223

2010/08/10 08:54
KRFD 100854Z 15003KT 10SM FEW180 24/22 A2997 RMK AO2 SLP142 T02390222 55000 $

2010/08/10 08:54
KROA 100854Z 00000KT 9SM CLR 23/21 A3003 RMK AO2 SLP155 T02330206 56004

2010/08/10 08:53
KRZN 100853Z AUTO 00000KT 10SM CLR 20/19 A2996 RMK AO2 T02020189

2010/08/10 08:55
KSCF 100855Z AUTO 07005KT 10SM CLR 29/25 A2985 RMK A01

2010/08/10 08:56
KSHV 100856Z 00000KT 10SM BKN290 27/23 A2991 RMK AO2 SLP122 T02720228 58001

2010/08/10 08:55
KSPR 100855Z AUTO 14004KT 10SM CLR 30/26 A2989 RMK A01

2010/08/10 08:55
KVAF 100855Z AUTO 23008KT 10SM SCT022 SCT028 30/25 A2987 RMK A01

2010/08/10 08:55
KVBS 100855Z AUTO 27006KT 10SM SCT024 31/26 A2990 RMK A01

2010/08/10 08:53
KVES 100853Z AUTO 00000KT 3SM BR CLR 22/21 A2997 RMK AO2 T02150210

2010/08/10 08:56
PAGN 100856Z AUTO 00000KT OVC006 RMK AO2 PWINO TSNO 5//// SLPNO $

2010/08/10 08:56
PATQ 100856Z AUTO 07018KT 10SM OVC005 02/02 A2978 RMK AO2 TSNO 51006 60000 T00220016 400380005 SLP088 $

2010/08/10 08:56
KSLK 100856Z AUTO 00000KT 1 3/4SM BR FEW005 BKN018 19/18 A2996 RMK AO2

2010/08/10 08:57
KAZO 100857Z AUTO 00000KT 1 1/4SM BR FEW001 21/20 A2996 RMK AO2

2010/08/10 08:57
PGUA 100857Z AUTO 08008KT 10SM FEW019 SCT025 BKN034 BKN045 OVC055 27/24 A2993

2010/08/10 08:52
KMLF 100852Z AUTO 23010KT 10SM CLR 15/M02 A3006 RMK AO2 SLP116 T01501017 55003 TSNO 

2010/08/10 08:57
PGUA 100857Z AUTO 08008KT 10SM FEW019 SCT025 BKN034 BKN045 OVC055 27/24 A2993 RMK AO2 RAE0857 FEW V SCT CIG 018 RWY24L SLP117 $

2010/08/10 08:56
KBTL 100856Z AUTO 00000KT 3SM BR BKN004 21/20 A2997

2010/08/10 08:57
CYVM 100857Z AUTO 00000KT 2 1/2SM OVC001 02/02 A2993 RMK VSBY VRBL 2.5V9.+

2010/08/10 08:56
KOTM 100856Z AUTO 32009KT 1 1/4SM +TSRA BR BKN018 OVC055 22/21 A3000

2010/08/10 08:58
CYWA 100858Z AUTO 21002KT 5/8SM CLR 13/13 A2990

2010/08/10 08:56
KINS 100856Z 24004KT 10SM CLR 19/M07 A2992 RMK AO2 SLP080 T01891067 50000 

2010/08/10 08:55
KMSL 100855Z AUTO 00000KT 1 1/4SM BR SCT001 24/23 A2998

2010/08/10 08:50
VECC 100850Z 14008KT 6000 FEW020 SCT025 36/25 Q1000 NOSIG

2010/08/10 08:50
VGZR 100850Z 21006KT 5000 HZ SCT012 FEW030CB BKN100 34/26 Q1000 TEMPO TSRA

2010/08/10 08:50
VNKT 100850Z 00000KT 8000 SCT025 FEW030CB SCT040 28/XX Q1010 NOSIG

2010/08/10 08:56
KBTL 100856Z AUTO 00000KT 3SM BR BKN004 21/20 A2997

2010/08/10 08:56
KOTM 100856Z AUTO 32009KT 1 1/4SM +TSRA BR BKN018 OVC055 22/21 A3000

2010/08/10 08:56
KSXT 100856Z AUTO 36008KT 7SM CLR 11/09 A2999 RMK AO2 SLP119 T01060094 58004 TSNO 

2010/08/10 08:58
CWOB 100858Z AUTO ///// 1/8SM CLR 03/ A2979

2010/08/10 08:50
EGJA 100850Z 24010KT 0700 R26/0750 FG BKN000 16/15 Q1013

2010/08/10 08:55
EHEH 100855Z AUTO 19005KT 9999NDV FEW130 SCT300 21/14 Q1014 BLU BLU NOSIG

2010/08/10 08:55
EHKD 100855Z AUTO 22013KT 9999NDV -RA FEW009/// BKN011/// BKN014/// 18/15 Q1011 GRN WHT TEMPO GRN TEMPO SCT012 SCT015CB BKN020

2010/08/10 08:50
EGLF 100850Z 25006KT 9999 -RADZ SCT007 BKN012 BKN035 15/14 Q1011

2010/08/10 08:50
HLLM 100850Z 01006KT 6000 SKC 28/18 Q1017

2010/08/10 08:55
KQAQ 100855Z COR 34008KT 8000 HZ CLR 45/07 A2961 RMK SLP023 PA +407 DA +3902 50002

2010/08/10 08:55
KQDM 100855Z AUTO 21006KT 9SM SCT048 BKN110 27/02 A3012 RMK AO2 LTG DSNT NE SLP079 T02700015 57013 PWINO $

2010/08/10 08:55
KQDP 100855Z AUTO RMK AO2 SLPNO $

2010/08/10 08:55
KQIR 100855Z 11004KT 9999 CLR 44/13 A2952 RMK AO2A SLP994 T04350126 57007

2010/08/10 08:55
KQIU 100855Z AUTO 21006KT 9999 BKN065 26/10 A3009 RMK AO2 SLP077

2010/08/10 08:55
KQL5 100855Z 21007G15KT 9999 -TSRA SCT060 BKN150 31/21 A2961 RMK AO2A LTG DSNT ALQDS CB OHD MOV N SLP988 WND DATA ESTMD ALSTG/SLP ESTMD 58019

2010/08/10 08:55
KQQR 100855Z AUTO 16004KT 9999 CLR 30/20 A2984 RMK AO2 LTG DSNT E SLP031 T02960195 57015 $

2010/08/10 08:55
KQSB 100855Z AUTO 25006KT 5000 36/00 A2981 RMK AO2 SLP993 T03630004 57010 $

2010/08/10 08:55
KQSD 100855Z 25012G18KT 210V270 9000 HZ BKN120 30/00 A2998 RMK AO2A SLP023 58009 $

2010/08/10 08:55
KQSL 100855Z 35003KT 9999 CLR 45/03 A2964 RMK SLP025 Q1003MB 58005

2010/08/10 08:50
KHMS 100850Z 29012KT 15SM FEW250 19/08 A2981 RMK SLP093 8/001 T01870082 52012 RSNK 13.4/33010KT 

2010/08/10 08:50
K3A6 100850Z AUTO 36002KT 14/09 A2989 RMK AO1 SLP136 T01350093 54000 

2010/08/10 08:58
CYOY 100858Z AUTO 00000KT 3SM FEW073 12/10 A2986

2010/08/10 08:53
KLOR 100853Z AUTO 00000KT 9SM CLR 24/21 A2993 RMK AO2 SLP132 6//// T02390211 56005 TSNO PNO $ 

2010/08/10 08:56
KSMP 100856Z AUTO VRB05KT 1/4SM FG SCT001 BKN008 OVC022 08/08 A2997 RMK AO2 SLP145 T00830078 55006 TSNO $ 

2010/08/10 08:56
PASY 100856Z AUTO 27009KT 1SM BR VV001 09/09 A2989 RMK AO2 SLP123 6//// T00890089 401280083 53009 TSNO PNO $ 

2010/08/10 08:51
KP58 100851Z AUTO 26003KT 22/21 A2993 RMK AO2 SLP127 T02170211 53004 PWINO TSNO 

2010/08/10 08:55
PACZ 100855Z AUTO 20008KT 10SM BKN008 BKN011 OVC022 09/08 A2931 RMK AO1 T00940084

2010/08/10 08:55
PALU 100855Z AUTO 08016KT 7SM 08/08 A2960 RMK AO1 T00830078

2010/08/10 08:55
PATC 100855Z AUTO 02008KT 7SM BKN024 OVC029 11/10 A2944 RMK AO1 T01060101

2010/08/10 08:55
PAIM 100855Z AUTO 00000KT 10SM BKN048 OVC060 12/12 A2963 RMK AO1 T01170117

2010/08/10 08:55
PATL 100855Z AUTO 16004KT 10SM BKN017 OVC024 11/09 A2960 RMK AO1 T01110095

2010/08/10 08:55
PAEH 100855Z AUTO 17018G31KT 1 3/4SM OVC004 08/07 RMK AO1 949 T00830073

2010/08/10 08:55
PASV 100855Z AUTO 22004KT 10SM SCT020 SCT055 OVC095 09/08 A2963 RMK AO1 T00940084

2010/08/10 08:55
K1P1 100855Z AUTO 00000KT 3SM BR CLR 20/18 A2991 RMK AO2 T01950182

2010/08/10 08:55
KCMR 100855Z AUTO 15009KT 10SM CLR 12/08 A3025 RMK AO1

2010/08/10 08:55
KGTB 100855Z AUTO 21003KT 10SM SCT012 OVC017 21/20 A2993 RMK AO2 SLP134 T02100201 58002

2010/08/10 08:55
KMAN 100855Z AUTO 13004KT 10SM CLR 17/13 A2984 RMK AO1

2010/08/10 08:58
KMEI 100858Z AUTO 00000KT 6SM BR CLR 24/24 A2995 RMK AO2 SLP136 T02440239 58005

2010/08/10 08:53
KNQX 100853Z AUTO 22009KT 10SM TS CLR 26/23 A2984 RMK AO2 RAE23 SLP104 P0000 60001 T02610233 55003 $

2010/08/10 08:55
KPAM 100855Z AUTO 06005KT 10SM CLR 26/24 A2989 RMK AO2 SLP122 T02610240 56010 $

2010/08/10 08:55
KPSM 100855Z 26004KT 3SM BR FEW045 BKN140 21/21 A2987 RMK AO2A SLP116 60003 T02130208 56008

2010/08/10 08:55
KSNC 100855Z AUTO 00000KT 10SM CLR 22/22 A2995 RMK AO2

2010/08/10 08:55
KSSC 100855Z 00000KT 10SM CLR 25/23 A2999 RMK AO2A SLP155 T02450234 56008 $

2010/08/10 08:55
KVAD 100855Z AUTO 09003KT 10SM CLR 24/24 A2995 RMK AO2 SLP140 T02430238 56006 $

2010/08/10 08:57
PAGH 100857Z AUTO 11011KT 10SM FEW017 BKN026 OVC033 13/12 A2959 RMK AO2 RAE11B35E57 SLP048 P0000 60015 T01330122 401560128 53010

2010/08/10 08:56
PAMB 100856Z AUTO 18006KT 1 3/4SM BR OVC003 09/09 A2958 RMK AO2 PWINO TSNO 51006 T00940094 401160094 SLP019 $

2010/08/10 08:56
PAOH 100856Z AUTO 11003KT 10SM FEW024 OVC033 13/13 A3000 RMK AO2 TSNO 50004 T01270127 SLP161 $

2010/08/10 08:56
PPIZ 100856Z AUTO 06018G26KT 10SM FEW011 04/03 A2967 RMK AO2 TSNO 53004 T00440027 400830022 PK WND 05029/0808 SLP051 $

2010/08/10 08:57
PAVA 100857Z AUTO 19007KT 10SM FEW008 OVC014 10/09 A2937 RMK AO2 401110094

2010/08/10 08:54
KAPN 100854Z AUTO 29005KT 1/2SM FG OVC001 19/19 A2996 RMK AO2 SLP142 T01940189 50003 $ 

2010/08/10 08:56
KMHS 100856Z AUTO 00000KT 10SM CLR 13/09 A2996 RMK AO2 SLP133 T01330089 58003 TSNO 

2010/08/10 08:56
K9L2 100856Z AUTO 13005KT 10SM CLR 18/M05 A2988 RMK AO2 SLP098 T01781050 50002 $

2010/08/10 08:56
KP53 100856Z AUTO 19005KT 17/17 A2995 RMK AO2 SLP142 T01720167 58002 PWINO TSNO

2010/08/10 08:56
KNRS 100856Z AUTO 23003KT 10SM OVC015 17/15 A2991 RMK AO2 SLP126 T01720150 58005 TSNO

2010/08/10 08:56
KAQV 100856Z AUTO 00000KT 10SM CLR 25/23 A2992 RMK AO2 SLP126 T02500233 55002

2010/08/10 08:56
KNGP 100856Z AUTO 10SM CLR 28/27 A2988 RMK AO2 SLP118 T02780272 58011 $

2010/08/10 08:56
KNBT 100856Z AUTO 22004KT 7SM CLR 27/24 A3000 RMK AO2 SLP163 T02670244 56006 TSNO

2010/08/10 08:56
KNUQ 100856Z AUTO 00000KT 10SM OVC008 15/13 A2990 RMK AO2 SLP128 T01500128 58008 TSNO

2010/08/10 08:56
KWMC 100856Z AUTO 00000KT 10SM CLR 13/M01 A2995 RMK AO2 SLP093 60001 T01281011 50005

2010/08/10 08:56
KSPD 100856Z AUTO 03003KT 20/17 A3005 RMK AO2 SLP102 T02000172 58003 PWINO TSNO

2010/08/10 08:59
KSAW 100859Z AUTO 00000KT 5SM BR CLR 17/16 A2997 RMK AO2

2010/08/10 08:55
KLDM 100855Z AUTO 00000KT 1/2SM FG OVC001 21/20 A2995 RMK AO2

2010/08/10 08:55
KPHN 100855Z AUTO 00000KT 1/4SM FG OVC001 17/17 A2994 RMK AO2

2010/08/10 08:55
KRMY 100855Z AUTO 00000KT M1/4SM FG 20/19 A2996 RMK AO2

2010/08/10 08:56
KOSC 100856Z AUTO 32004KT OVC001 21/19 A2995 RMK AO2 PWINO

2010/08/10 08:54
KTTF 100854Z AUTO 00000KT 3SM BR CLR 21/21 A2994 RMK AO2

2010/08/10 08:55
KMCD 100855Z AUTO 00000KT 1/4SM HZ OVC002 21/18 A2997 RMK AO2

2010/08/10 08:56
KCAE 100856Z 00000KT 6SM BR CLR 25/23 A3000 RMK AO2 SLP154 T02500228 58005

2010/08/10 08:56
KNXP 100856Z AUTO 29004KT CLR 23/00 A2992 RMK AO2 SLP094 T02330000 58001 $

2010/08/10 08:56
KFLG 100856Z AUTO 00000KT 10SM FEW075 09/07 A3027 RMK AO2 SLP160 T00940072 58002 TSNO

2010/08/10 08:56
KGFA 100856Z AUTO 19011KT 10SM CLR 16/09 A2983 RMK AO2 SLP096 T01610089 58005

2010/08/10 08:56
KD07 100856Z AUTO 17012KT 21/17 A2983 RMK AO2 SLP080 T02110172 58016 PWINO TSNO

2010/08/10 08:56
KLWS 100856Z AUTO 15003KT 10SM CLR 17/03 A2980 RMK AO2 SLP083 T01720033 53006

2010/08/10 08:55
KCAO 100855Z AUTO 24006KT 10SM OVC100 23/15 A3009 RMK AO2 SLP102 T02280150 55001 TSNO

2010/08/10 08:56
KFPK 100856Z AUTO 00000KT M1/4SM FG OVC001 18/18 A2995 RMK AO2

2010/08/10 08:55
KCVX 100855Z AUTO 00000KT 3SM BR OVC005 23/21 A2998 RMK AO2

2010/08/10 08:54
KMOP 100854Z AUTO 00000KT 2 1/2SM BR CLR 20/20 A2995 RMK AO2

2010/08/10 08:54
KFKS 100854Z AUTO 00000KT 1/4SM FG OVC001 19/18 A2995 RMK AO2

2010/08/10 08:54
KCAD 100854Z AUTO 00000KT 1SM BR VV007 17/17 A2998 RMK AO2

2010/08/10 08:55
KMGN 100855Z AUTO 00000KT 5SM BR OVC007 24/22 A2996 RMK AO2

2010/08/10 08:55
KSLH 100855Z AUTO 00000KT 1/4SM FG OVC001 21/20 A2995 RMK AO2

2010/08/10 08:55
KSJX 100855Z AUTO 00000KT 1 1/4SM BR VV007 21/20 A2996 RMK AO2

2010/08/10 08:55
KHAI 100855Z AUTO 00000KT 1/2SM FG VV005 20/20 A2996 RMK AO2

2010/08/10 08:56
KLWA 100856Z AUTO 00000KT 4SM BR CLR 20/19 A2994 RMK AO2

2010/08/10 08:57
KDRM 100857Z AUTO 00000KT 1/2SM FG OVC001 17/17 A2994 RMK AO2

2010/08/10 08:54
KVLL 100854Z AUTO 00000KT 5SM BR CLR 22/20 A2998 RMK AO2

2010/08/10 08:55
KGOV 100855Z AUTO 31003KT 3SM BR OVC003 21/21 A2999 RMK AO2

2010/08/10 08:54
KPZQ 100854Z AUTO 29003KT 1/2SM FG OVC001 20/19 A2997 RMK AO2

2010/08/10 08:55
KCFS 100855Z AUTO 34004KT 5SM BR CLR 21/21 A2995 RMK AO2

2010/08/10 08:55
KHYX 100855Z AUTO 34003KT 7SM CLR 21/20 A2995 RMK AO2

2010/08/10 08:55
KOZW 100855Z AUTO 00000KT 1/4SM FG BKN001 20/19 A2996 RMK AO2

2010/08/10 08:55
KRNP 100855Z AUTO 00000KT 1/4SM FG BKN001 18/18 A2996 RMK AO2

2010/08/10 08:54
KDUH 100854Z AUTO 00000KT 1/4SM FG OVC001 21/19 A2996 RMK AO2

2010/08/10 08:55
KISQ 100855Z AUTO 00000KT 2 1/2SM BR CLR 18/17 A2996 RMK AO2 VIS 1 3/4V4

2010/08/10 08:55
KJYM 100855Z AUTO 00000KT M1/4SM FG OVC001 19/19 A2998 RMK AO2

2010/08/10 09:05
KBAX 100905Z AUTO 34003KT 1/4SM FG OVC002 21/21 A2995 RMK AO2

2010/08/10 08:54
KSBN 100854Z 00000KT 7SM BKN043 22/21 A2995 RMK AO2 SLP136 T02220206 58005

2010/08/10 08:54
KWAL 100854Z AUTO 25005KT 6SM BR CLR 24/22 A2996 RMK AO2 SLP141 T02390222 58006 TSNO

2010/08/10 08:53
KUIL 100853Z AUTO 18003KT 2SM BR BKN001 OVC013 12/11 A2997 RMK AO2 RAB0758E12 SLP148 P0000 60000 T01220111 56009 TSNO

2010/08/10 08:56
KINS 100856Z 24004KT 10SM CLR 19/M07 A2992 RMK AO2 SLP080 T01891067 50000

2010/08/10 08:52
KMLF 100852Z AUTO 23010KT 10SM CLR 15/M02 A3006 RMK AO2 SLP116 T01501017 55003 TSNO

2010/08/10 08:56
KINS 100856Z 24004KT 10SM CLR 19/M07 A2992 RMK AO2 SLP080 T01891067 50000

2010/08/10 08:53
KLOR 100853Z AUTO 00000KT 9SM CLR 24/21 A2993 RMK AO2 SLP132 6//// T02390211 56005 TSNO PNO $

2010/08/10 08:56
KSMP 100856Z AUTO VRB05KT 1/4SM FG SCT001 BKN008 OVC022 08/08 A2997 RMK AO2 SLP145 T00830078 55006 TSNO $

2010/08/10 08:51
KP58 100851Z AUTO 26003KT 22/21 A2993 RMK AO2 SLP127 T02170211 53004 PWINO TSNO

2010/08/10 08:54
KAPN 100854Z AUTO 29005KT 1/2SM FG OVC001 19/19 A2996 RMK AO2 SLP142 T01940189 50003 $

2010/08/10 08:55
KIRS 100855Z AUTO 00000KT 2SM BR CLR 20/19 A2996 RMK AO2

2010/08/10 08:55
KAMN 100855Z AUTO 00000KT M1/4SM FG OVC001 18/17 A2994 RMK AO2

2010/08/10 08:55
KACB 100855Z AUTO 00000KT M1/4SM FG OVC001 22/22 A2996 RMK AO2

2010/08/10 08:54
KRQB 100854Z AUTO 00000KT M1/4SM FG OVC001 19/19 A2997 RMK AO2

2010/08/10 08:55
KERY 100855Z AUTO 33003KT M1/4SM FG OVC002 19/18 A2998 RMK AO2

2010/08/10 08:55
KOEB 100855Z AUTO 00000KT 3/4SM BR BKN001 BKN006 20/19 A2997 RMK AO2

2010/08/10 08:56
K4I3 100856Z AUTO 27006KT 7SM CLR 23/20 A2998 RMK AO2

2010/08/10 08:55
KAUM 100855Z AUTO 13003KT 7SM CLR 23/22 A2994 RMK AO2 LTG DSNT SE AND S

2010/08/10 08:55
KFFX 100855Z AUTO 00000KT 1/2SM FG OVC002 18/18 A2995 RMK AO2

2010/08/10 08:54
KCNB 100854Z AUTO 00000KT 3SM BR OVC045 23/22 A2989 RMK AO2 T02250221

2010/08/10 08:55
KCKN 100855Z AUTO 14005KT 10SM CLR 21/19 A2989 RMK AO2

2010/08/10 09:03
KCFE 100903Z AUTO 00000KT 10SM CLR 21/20 A2993 RMK AO2 T02080196

2010/08/10 08:57
KCQM 100857Z AUTO 00000KT 7SM CLR 17/17 A2996 RMK AO2

2010/08/10 08:55
KDTL 100855Z AUTO 13004KT 10SM CLR 21/17 A2993 RMK AO2

2010/08/10 08:55
KBDH 100855Z AUTO 11007KT 7SM CLR 23/22 A2991 RMK AO2

2010/08/10 08:55
KCBG 100855Z AUTO 00000KT 2SM BR CLR 19/17 A2994 RMK AO2

2010/08/10 08:56
KADC 100856Z AUTO 07003KT 10SM CLR 18/17 A2992 RMK AO2

2010/08/10 08:55
KHAF 100855Z AUTO 00000KT 3SM BR OVC002 11/11 A2992 RMK AO2

2010/08/10 08:55
KCKC 100855Z AUTO 00000KT 7SM CLR 16/14 A3001 RMK AO2

2010/08/10 08:54
KJYG 100854Z AUTO 00000KT 10SM CLR 24/24 A2992 RMK AO2 LTG DSNT S AND SW

2010/08/10 08:56
KCOQ 100856Z AUTO 33003KT 7SM CLR 18/16 A2997 RMK AO2

2010/08/10 08:58
KACQ 100858Z AUTO 09006KT 10SM CLR 22/21 A2995 RMK AO2 LTG DSNT S

2010/08/10 08:55
KRGK 100855Z AUTO 00000KT 4SM BR BKN003 21/20 A2993 RMK AO2

2010/08/10 08:54
KFSE 100854Z AUTO 12003KT 10SM CLR 18/17 A2991 RMK AO2

2010/08/10 08:55
KY70 100855Z AUTO 00000KT 1/2SM FG SCT003 20/20 A2995 RMK AO2 T02020197

2010/08/10 08:50
KUKT 100850Z AUTO 00000KT 10SM CLR 23/21 A2995 RMK AO1

2010/08/10 08:54
KCDA 100854Z AUTO 00000KT 1/4SM FG OVC002 16/14 A2996 RMK AO2

2010/08/10 08:56
KSXT 100856Z AUTO 36008KT 7SM CLR 11/09 A2999 RMK AO2 SLP119 T01060094 58004 TSNO

2010/08/10 08:50
K3A6 100850Z AUTO 36002KT 14/09 A2989 RMK AO1 SLP136 T01350093 54000

2010/08/10 08:50
KHMS 100850Z 29012KT 15SM FEW250 19/08 A2981 RMK SLP093 8/001 T01870082 52012 RSNK 13.4/33010KT

2010/08/10 08:55
PACZ 100855Z AUTO 20008KT 10SM BKN008 BKN011 OVC022 09/08 A2931 RMK AO1 T00940084

2010/08/10 08:55
PALU 100855Z AUTO 08016KT 7SM 08/08 A2960 RMK AO1 T00830078

2010/08/10 08:55
PATC 100855Z AUTO 02008KT 7SM BKN024 OVC029 11/10 A2944 RMK AO1 T01060101

2010/08/10 08:55
PAIM 100855Z AUTO 00000KT 10SM BKN048 OVC060 12/12 A2963 RMK AO1 T01170117

2010/08/10 08:55
PATL 100855Z AUTO 16004KT 10SM BKN017 OVC024 11/09 A2960 RMK AO1 T01110095

2010/08/10 08:55
PAEH 100855Z AUTO 17018G31KT 1 3/4SM OVC004 08/07 RMK AO1 949 T00830073

2010/08/10 08:55
PASV 100855Z AUTO 22004KT 10SM SCT020 SCT055 OVC095 09/08 A2963 RMK AO1 T00940084

2010/08/10 08:56
KMHS 100856Z AUTO 00000KT 10SM CLR 13/09 A2996 RMK AO2 SLP133 T01330089 58003 TSNO

2010/08/10 08:56
KSDF 100856Z 00000KT 8SM CLR 28/23 A2994 RMK AO2 SLP133 T02830233 58002 $

2010/08/10 08:57
K14Y 100857Z AUTO 05004KT 5SM BR CLR 20/20 A2993 RMK AO2 T02010196

2010/08/10 08:55
K21D 100855Z AUTO 00000KT 5SM BR SCT003 20/19 A2994 RMK AO2

2010/08/10 08:56
KART 100856Z AUTO 00000KT 4SM BR OVC013 21/20 A2992 RMK AO2 SLP127 T02060200 58002

2010/08/10 08:55
KATW 100855Z AUTO 35003KT 7SM CLR 22/20 A2995 RMK AO2

2010/08/10 08:55
KBBG 100855Z AUTO 00000KT 10SM CLR 26/23 A2996 RMK AO2

2010/08/10 08:56
KBED 100856Z AUTO 24005KT 4SM BR OVC110 22/21 A2988 RMK AO2 SLP127 60003 T02220211 56009

2010/08/10 08:54
KBJI 100854Z AUTO 00000KT 10SM CLR 17/16 A2994 RMK AO2

2010/08/10 08:56
KBJJ 100856Z AUTO 00000KT 6SM BR CLR 21/19 A2998 RMK AO2 SLP142 T02110194 55001

2010/08/10 08:55
KBKN 100855Z AUTO 15004KT 10SM CLR 25/21 A2988 RMK AO2

2010/08/10 08:55
KBUU 100855Z AUTO 00000KT 1/4SM FG OVC001 18/18 A2995 RMK AO2 T01780176

2010/08/10 08:54
KC29 100854Z AUTO 00000KT M1/4SM VV000 21/20 A2997 RMK AO2 T02060195

2010/08/10 08:56
KCTB 100856Z AUTO 26003KT 10SM BKN110 12/09 A2985 RMK AO2 SLP080 T01170094 58002 PWINO

2010/08/10 08:56
KCXY 100856Z AUTO 00000KT 6SM HZ CLR 24/21 A2993 RMK AO2 SLP132 T02390211 55001

2010/08/10 08:53
KD39 100853Z AUTO 10003KT 7SM CLR 22/21 A2991 RMK AO2 T02230212

2010/08/10 08:56
KDAY 100856Z 24003KT 7SM CLR 24/20 A2999 RMK AO2 SLP145 T02440200 50001

2010/08/10 08:56
KEKO 100856Z AUTO 24003KT 10SM FEW110 14/04 A2999 RMK AO2 SLP097 T01440044 53001

2010/08/10 08:56
KELZ 100856Z AUTO 00000KT 4SM BR OVC050 19/18 A3003 RMK AO2 SLP156 60000 T01890183 52000

2010/08/10 08:54
KEZS 100854Z AUTO 02005KT 10SM BKN006 22/21 A2996 RMK AO2 T02210206

2010/08/10 08:55
KGGE 100855Z AUTO 00000KT 10SM CLR 23/23 A3000 RMK AO2

2010/08/10 08:56
KGON 100856Z AUTO 00000KT 10SM SCT065 BKN120 23/20 A2992 RMK AO2 SLP130 T02330200 53003

2010/08/10 08:55
KHFJ 100855Z AUTO 00000KT 10SM CLR 26/22 A2992 RMK AO1

2010/08/10 08:56
KHPN 100856Z 00000KT 7SM -RA SCT040 BKN110 23/19 A2993 RMK AO2 RAB02 SLP127 P0000 60000 T02280189 50000

2010/08/10 08:56
KHWV 100856Z AUTO 00000KT 10SM FEW095 24/20 A2993 RMK AO2 RAE07B44E53 SLP134 P0000 60000 T02390200 53004

2010/08/10 08:56
KHYA 100856Z AUTO 00000KT 4SM BR FEW085 21/21 A2991 RMK AO2 RAE29 SLP128 P0000 60016 T02110206 58003

2010/08/10 08:56
KISP 100856Z 34004KT 10SM BKN140 OVC250 24/18 A2991 RMK AO2 SLP127 T02440178 51002

2010/08/10 08:56
KITH 100856Z AUTO 00000KT 3SM BR OVC041 21/20 A2998 RMK AO2 58003 60000 T02050200 RAB06E32 P0000 SLP145

2010/08/10 08:56
KIWA 100856Z AUTO 35003KT 10SM CLR 31/12 A2984 RMK AO2

2010/08/10 08:56
KJXN 100856Z 00000KT 1/4SM FG FEW001 OVC018 20/20 A2998 RMK AO2 SLP145 T02000200 51003 $

2010/08/10 08:55
KLCK 100855Z AUTO 00000KT 5SM BR CLR 23/21 A2997 RMK AO2 T02300210

2010/08/10 08:56
KLRD 100856Z AUTO 16007KT 10SM CLR 28/25 A2991 RMK AO2 58014 T02830250 SLP115

2010/08/10 08:56
KMDT 100856Z 00000KT 6SM HZ BKN150 26/22 A2991 RMK AO2 SLP128 T02560222 55002

2010/08/10 08:56
KMRH 100856Z AUTO 24006KT 10SM BKN100 27/24 A3001 RMK AO2 SLP162 T02720244 58004 TSNO

2010/08/10 08:55
KMWO 100855Z AUTO 00000KT 2SM BR CLR 23/22 A2998 RMK AO2

2010/08/10 08:56
KOWB 100856Z AUTO 18003KT 8SM CLR 26/25 A2994 RMK AO2 58004 T02610250 SLP132

2010/08/10 08:55
KPVF 100855Z AUTO 11004KT 10SM CLR 19/09 A2994 RMK AO1

2010/08/10 08:56
KSGH 100856Z AUTO 00000KT 4SM BR CLR 22/22 A2999 RMK AO2 56002 T02160216 SLP146 $

2010/08/10 08:58
KSGJ 100858Z AUTO 13009KT 10SM FEW021 SCT027 27/24 A2994 RMK AO2 SLP139 T02720239 57006

2010/08/10 08:55
KSME 100855Z AUTO 00000KT 4SM BR 23/23 A3000 RMK AO2

2010/08/10 08:55
KSRR 100855Z AUTO 27010KT 10SM BKN110 15/10 A3025 RMK AO2

2010/08/10 08:56
KTPH 100856Z AUTO 01006KT 10SM CLR 12/M12 A3006 RMK AO2 SLP109 T01221117 58002

2010/08/10 08:53
KUNI 100853Z AUTO 00000KT 7SM SCT110 23/18 A2997 RMK AO2

2010/08/10 08:55
KVQQ 100855Z AUTO 00000KT 9SM CLR 23/23 A2994 RMK AO2

2010/08/10 08:55
KY51 100855Z AUTO 00000KT 10SM CLR 23/22 A2998 RMK AO1 T02300221

2010/08/10 08:55
KY63 100855Z AUTO 13005KT 10SM CLR 24/22 A2988 RMK AO2 T02370219

2010/08/10 08:55
KMZG 100855Z AUTO 19015KT 10SM FEW021 FEW031 30/26 A2988 RMK A01

2010/08/10 08:52
KPVB 100852Z AUTO 09003KT 7SM CLR 24/22 A2997 RMK AO1 T02350223

2010/08/10 08:53
KRZN 100853Z AUTO 00000KT 10SM CLR 20/19 A2996 RMK AO2 T02020189

2010/08/10 08:55
KSPR 100855Z AUTO 14004KT 10SM CLR 30/26 A2989 RMK A01

2010/08/10 08:55
KVAF 100855Z AUTO 23008KT 10SM SCT022 SCT028 30/25 A2987 RMK A01

2010/08/10 08:55
KVBS 100855Z AUTO 27006KT 10SM SCT024 31/26 A2990 RMK A01

2010/08/10 08:53
KVES 100853Z AUTO 00000KT 3SM BR CLR 22/21 A2997 RMK AO2 T02150210

2010/08/10 08:56
PAGN 100856Z AUTO 00000KT OVC006 RMK AO2 PWINO TSNO 5//// SLPNO $

2010/08/10 08:56
PATQ 100856Z AUTO 07018KT 10SM OVC005 02/02 A2978 RMK AO2 TSNO 51006 60000 T00220016 400380005 SLP088 $

2010/08/10 08:55
K1P1 100855Z AUTO 00000KT 3SM BR CLR 20/18 A2991 RMK AO2 T01950182

2010/08/10 08:55
KCMR 100855Z AUTO 15009KT 10SM CLR 12/08 A3025 RMK AO1

2010/08/10 08:55
KMAN 100855Z AUTO 13004KT 10SM CLR 17/13 A2984 RMK AO1

2010/08/10 08:58
KMEI 100858Z AUTO 00000KT 6SM BR CLR 24/24 A2995 RMK AO2 SLP136 T02440239 58005

2010/08/10 08:56
KNSE 100856Z AUTO 35004KT 5SM HZ CLR 25/22 A2991 RMK AO2 SLP112 T02500222 58008 $

2010/08/10 08:56
PAMB 100856Z AUTO 18006KT 1 3/4SM BR OVC003 09/09 A2958 RMK AO2 PWINO TSNO 51006 T00940094 401160094 SLP019 $

2010/08/10 08:56
PAOH 100856Z AUTO 11003KT 10SM FEW024 OVC033 13/13 A3000 RMK AO2 TSNO 50004 T01270127 SLP161 $

2010/08/10 08:56
PPIZ 100856Z AUTO 06018G26KT 10SM FEW011 04/03 A2967 RMK AO2 TSNO 53004 T00440027 400830022 PK WND 05029/0808 SLP051 $

2010/08/10 08:55
KPOB 100855Z AUTO 23005KT 10SM CLR 24/24 A3000 RMK AO2 SLP159 T02430243 58003 $

2010/08/10 08:55
KPOE 100855Z AUTO 15004KT 10SM CLR 26/23 A2993 RMK AO2 SLP134 T02560233 55001

2010/08/10 08:55
KPSM 100855Z 26004KT 3SM BR FEW045 BKN140 21/21 A2987 RMK AO2A SLP116 60003 T02130208 56008

2010/08/10 08:55
KSKA 100855Z AUTO 22016G19KT 10SM SCT100 BKN140 OVC170 17/07 A2980 RMK AO2 CIG 095 RWY05 SLP078 T01660070 54000

2010/08/10 08:55
KSSC 100855Z 00000KT 10SM CLR 25/23 A2999 RMK AO2A SLP155 T02450234 56008 $

2010/08/10 08:55
KTCM 100855Z AUTO 21005KT 10SM OVC010 14/11 A2997 RMK AO2 SLP150 T01350108 58004

2010/08/10 08:55
KTIK 100855Z 18009KT 10SM CLR 26/21 A2991 RMK AO2A SLP111 T02580208 56011

2010/08/10 08:55
KVAD 100855Z AUTO 09003KT 10SM CLR 24/24 A2995 RMK AO2 SLP140 T02430238 56006 $

2010/08/10 08:55
KVPS 100855Z 01004KT 10SM SKC 25/24 A2991 RMK AO2A SLP127 T02520236 56010 $

2010/08/10 08:55
KNBG 100855Z AUTO 00000KT 6SM HZ CLR A2992 RMK AO2 SLP132 56004 PWINO FZRANO $

2010/08/10 08:56
KNJK 100856Z AUTO 00000KT 10SM CLR 25/05 A2973 RMK AO2 SLP083 T02500050 50003 TSNO

2010/08/10 08:55
KNKX 100855Z 00000KT 10SM OVC010 17/14 A2990 RMK AO2 SLP120 T01720139 58003

2010/08/10 08:56
KNYG 100856Z AUTO 22007KT 8SM CLR 26/21 A2995 RMK AO2 SLP141 T02560206 58003 $

2010/08/10 08:55
KNYL 100855Z AUTO 25003KT 10SM CLR 28/02 A2975 RMK AO2 SLP070 T02780022 50000

2010/08/10 08:52
KNZY 100852Z 25003KT 10SM OVC013 19/14 A2989 RMK AO2 SLP123 T01940139 58003 $

2010/08/10 08:55
KPOE 100855Z AUTO 15004KT 10SM CLR 26/23 A2993 RMK AO2 SLP134 T02560233 55001

2010/08/10 08:55
KPSM 100855Z 26004KT 3SM BR FEW045 BKN140 21/21 A2987 RMK AO2A SLP116 60003 T02130208 56008

2010/08/10 08:56
PMDY 100856Z AUTO 07010KT 10SM CLR 26/22 A3024 RMK AO2 TSNO 51014 60000 T02610216 SLP547

2010/08/10 08:55
KFAF 100855Z AUTO 21005KT 10SM CLR 26/26 A2996 RMK AO2 SLP147 T02580258 58006 $

2010/08/10 08:55
KFBG 100855Z 00000KT 10SM CLR 25/24 A3000 RMK AO2A SLP158 T02480238 58001 $

2010/08/10 08:55
KGBK 100855Z AUTO 00000KT 10SM SCT024 BKN038 30/25 A2991 RMK A01

2010/08/10 08:55
KLFI 100855Z 22005KT 10SM CLR 25/23 A2997 RMK AO2A SLP149 T02520226 56005

2010/08/10 08:55
KMCF 100855Z AUTO 08009KT 10SM SCT011 BKN017 25/25 A2987 RMK AO2 BKN V SCT CIG 010 RWY22 SLP117 T02540249 56009

2010/08/10 08:56
KNTU 100856Z 24005KT 10SM FEW200 23/22 A2997 RMK AO2 SLP150 T02330222 56004 $

2010/08/10 08:57
KNJM 100857Z AUTO 27003KT 10SM SCT017 27/25 A3001 RMK AO2 SLP165 T02670250 56004

2010/08/10 08:56
KNID 100856Z AUTO 00000KT CLR 22/05 A2984 RMK AO2 SLP083 T02220050 58000 TSNO $

2010/08/10 08:55
KGTB 100855Z AUTO 21003KT 10SM SCT012 OVC017 21/20 A2993 RMK AO2 SLP134 T02100201 58002

2010/08/10 08:53
KNQX 100853Z AUTO 22009KT 10SM TS CLR 26/23 A2984 RMK AO2 RAE23 SLP104 P0000 60001 T02610233 55003 $

2010/08/10 08:55
KPAM 100855Z AUTO 06005KT 10SM CLR 26/24 A2989 RMK AO2 SLP122 T02610240 56010 $

2010/08/10 08:55
KPSM 100855Z 26004KT 3SM BR FEW045 BKN140 21/21 A2987 RMK AO2A SLP116 60003 T02130208 56008

2010/08/10 08:55
KSSC 100855Z 00000KT 10SM CLR 25/23 A2999 RMK AO2A SLP155 T02450234 56008 $

2010/08/10 08:55
KVAD 100855Z AUTO 09003KT 10SM CLR 24/24 A2995 RMK AO2 SLP140 T02430238 56006 $

2010/08/10 08:55
PACZ 100855Z AUTO 20008KT 10SM BKN008 BKN011 OVC022 09/08 A2931 RMK AO1 T00940084

2010/08/10 08:55
PALU 100855Z AUTO 08016KT 7SM 08/08 A2960 RMK AO1 T00830078

2010/08/10 08:55
PATC 100855Z AUTO 02008KT 7SM BKN024 OVC029 11/10 A2944 RMK AO1 T01060101

2010/08/10 08:55
PAIM 100855Z AUTO 00000KT 10SM BKN048 OVC060 12/12 A2963 RMK AO1 T01170117

2010/08/10 08:55
PATL 100855Z AUTO 16004KT 10SM BKN017 OVC024 11/09 A2960 RMK AO1 T01110095

2010/08/10 08:55
PAEH 100855Z AUTO 17018G31KT 1 3/4SM OVC004 08/07 RMK AO1 949 T00830073

2010/08/10 08:55
PASV 100855Z AUTO 22004KT 10SM SCT020 SCT055 OVC095 09/08 A2963 RMK AO1 T00940084

2010/08/10 08:58
K0J4 100858Z AUTO 00000KT 10SM CLR 24/23 RMK AO2 SLPNO T02440228 $

2010/08/10 08:56
K9L2 100856Z AUTO 13005KT 10SM CLR 18/M05 A2988 RMK AO2 SLP098 T01781050 50002 $

2010/08/10 08:56
PHBK 100856Z AUTO 00000KT 10SM SCT060 26/14 A3010 RMK AO2 SLP196 T02560144 51015 TSNO $

2010/08/10 08:56
KNUW 100856Z 00000KT 7SM FEW005 BKN010 OVC040 15/11 A2995 RMK AO2 SLP146 T01470108 58005 $

2010/08/10 08:56
KNRS 100856Z AUTO 23003KT 10SM OVC015 17/15 A2991 RMK AO2 SLP126 T01720150 58005 TSNO

2010/08/10 08:56
K79J 100856Z AUTO 00000KT 6SM BR CLR 24/22 A2993 RMK AO2 SLP129 6//// T02440222 55004 TSNO PNO $

2010/08/10 08:56
KNDZ 100856Z AUTO 35006KT 10SM CLR 27/22 A2991 RMK AO2 SLP113 T02670222 58008 PWINO $

2010/08/10 08:56
KNPA 100856Z AUTO 33004KT 6SM BR CLR 26/24 A2990 RMK AO2 SLP125 T02560244 58006

2010/08/10 08:56
KNQI 100856Z AUTO 00000KT 7SM CLR 27/25 A2989 RMK AO2 SLP117 T02720250 58014 $

2010/08/10 08:56
KAQV 100856Z AUTO 00000KT 10SM CLR 25/23 A2992 RMK AO2 SLP126 T02500233 55002

2010/08/10 08:56
KNMM 100856Z AUTO 00000KT 6SM BR CLR 25/23 A2995 RMK AO2 SLP145 T02500233 58005 $

2010/08/10 08:56
KNXX 100856Z AUTO 00000KT 10SM CLR 24/19 A2994 RMK AO2 SLP142 T02440194 56004 $

2010/08/10 08:56
KNGP 100856Z AUTO 10SM CLR 28/27 A2988 RMK AO2 SLP118 T02780272 58011 $

2010/08/10 08:56
KHLR 100856Z AUTO 18006KT 10SM CLR 28/23 A2992 RMK AO2 SLP122 T02780233 56016 $

2010/08/10 08:56
KNBT 100856Z AUTO 22004KT 7SM CLR 27/24 A3000 RMK AO2 SLP163 T02670244 56006 TSNO

2010/08/10 08:56
KNUQ 100856Z AUTO 00000KT 10SM OVC008 15/13 A2990 RMK AO2 SLP128 T01500128 58008 TSNO

2010/08/10 08:56
KNBC 100856Z AUTO 00000KT 10SM CLR 27/25 A2999 RMK AO2 SLP155 T02670250 55005 $

2010/08/10 08:55
KMHR 100855Z 12005KT 10SM SKC 13/10 A2984

2010/08/10 08:55
PGUA 100855Z AUTO 09009KT 10SM -RA SCT019 SCT025 BKN034 BKN048 OVC055 27/24 A2993 RMK AO2 RAB0847 CIG 018 RWY24L SLP117 P0000 60000 T02660244 53017 $

2010/08/10 08:56
KNFL 100856Z AUTO 28006KT 10SM CLR 21/03 A2994 RMK AO2 SLP113 T02060028 51005 TSNO

2010/08/10 08:55
KCVS 100855Z 19003KT 10SM CLR 19/15 A3008 RMK AO2A SLP140 T01900150 57002 $

2010/08/10 08:55
KFAF 100855Z AUTO 21005KT 10SM CLR 26/26 A2996 RMK AO2 SLP147 T02580258 58006 $

2010/08/10 08:55
KFCS 100855Z AUTO 30007KT 10SM OVC100 16/13 A3014 RMK AO2 SLP129 T01640127 50003

2010/08/10 08:55
KFTK 100855Z AUTO 00000KT 10SM CLR 26/25 A2996 RMK AO2 SLP138 T02570246 58003 $

2010/08/10 08:55
KHRT 100855Z 36004KT 10SM CLR 25/24 A2989 RMK AO2A SLP123 T02510244 56010 $

2010/08/10 08:55
KLFI 100855Z 22005KT 10SM CLR 25/23 A2997 RMK AO2A SLP149 T02520226 56005

2010/08/10 08:55
KLSV 100855Z AUTO 29003KT 10SM CLR 25/M02 A2983 RMK AO2 SLP085 T02551018 58002 PWINO

2010/08/10 08:55
KMCF 100855Z AUTO 08009KT 10SM SCT011 BKN017 25/25 A2987 RMK AO2 BKN V SCT CIG 010 RWY22 SLP117 T02540249 56009

2010/08/10 08:55
KMIB 100855Z AUTO 08009KT 10SM BKN045 20/16 A2984 RMK AO2 SLP096 60002 T01970163 56029

2010/08/10 08:55
KSVN 100855Z 00000KT 7SM FEW005 25/24 A2997 RMK SLP152 ALSTG/SLP ESTMD WND DATA ESTMD 56008

2010/08/10 08:55
KVPS 100855Z 01004KT 10SM SKC 25/24 A2991 RMK AO2A SLP127 T02520236 56010 $

2010/08/10 08:55
PAED 100855Z 00000KT 10SM OVC006 12/10 A2978 RMK AO2A CIG 005V007 SLP084 60000 T01150104 401950113 51006

2010/08/10 08:55
PWAK 100855Z 07014KT 8SM FEW021 28/24 A3004 RMK AO2A

2010/08/10 08:56
KNXP 100856Z AUTO 29004KT CLR 23/00 A2992 RMK AO2 SLP094 T02330000 58001 $

2010/08/10 08:55
KGTB 100855Z AUTO 21003KT 10SM SCT012 OVC017 21/20 A2993 RMK AO2 SLP134 T02100201 58002

2010/08/10 08:53
KNIP 100853Z 11006KT 10SM FEW020 27/24 A2994 RMK AO2 SLP135 T02720239 56007

2010/08/10 08:54
KNKT 100854Z AUTO 22003KT 10SM CLR 24/24 A3001 RMK AO2 SLP159 T02440239 58005

2010/08/10 08:53
KNQX 100853Z AUTO 22009KT 10SM TS CLR 26/23 A2984 RMK AO2 RAE23 SLP104 P0000 60001 T02610233 55003 $

2010/08/10 08:52
KNZY 100852Z 25003KT 10SM OVC013 19/14 A2989 RMK AO2 SLP123 T01940139 58003 $

2010/08/10 08:55
KPAM 100855Z AUTO 06005KT 10SM CLR 26/24 A2989 RMK AO2 SLP122 T02610240 56010 $

2010/08/10 08:55
KNYL 100855Z AUTO 25003KT 10SM CLR 28/02 A2975 RMK AO2 SLP070 T02780022 50000

2010/08/10 08:56
KINS 100856Z 24004KT 10SM CLR 19/M07 A2992 RMK AO2 SLP080 T01891067 50000

2010/08/10 08:56
KINS 100856Z 24004KT 10SM CLR 19/M07 A2992 RMK AO2 SLP080 T01891067 50000

2010/08/10 08:53
KLOR 100853Z AUTO 00000KT 9SM CLR 24/21 A2993 RMK AO2 SLP132 6//// T02390211 56005 TSNO PNO $

2010/08/10 08:54
KSBN 100854Z 00000KT 7SM BKN043 22/21 A2995 RMK AO2 SLP136 T02220206 58005

2010/08/10 08:54
KWAL 100854Z AUTO 25005KT 6SM BR CLR 24/22 A2996 RMK AO2 SLP141 T02390222 58006 TSNO

2010/08/10 08:53
KUIL 100853Z AUTO 18003KT 2SM BR BKN001 OVC013 12/11 A2997 RMK AO2 RAB0758E12 SLP148 P0000 60000 T01220111 56009 TSNO

2010/08/10 08:52
KMLF 100852Z AUTO 23010KT 10SM CLR 15/M02 A3006 RMK AO2 SLP116 T01501017 55003 TSNO

2010/08/10 08:56
KSMP 100856Z AUTO VRB05KT 1/4SM FG SCT001 BKN008 OVC022 08/08 A2997 RMK AO2 SLP145 T00830078 55006 TSNO $

2010/08/10 08:51
KP58 100851Z AUTO 26003KT 22/21 A2993 RMK AO2 SLP127 T02170211 53004 PWINO TSNO

2010/08/10 08:54
KAPN 100854Z AUTO 29005KT 1/2SM FG OVC001 19/19 A2996 RMK AO2 SLP142 T01940189 50003 $

2010/08/10 08:53
KGTB 100853Z AUTO 00000KT 10SM SCT012 OVC018 21/20 A2993 RMK AO2 SLP134

2010/08/10 08:54
KMCF 100854Z AUTO 08010KT 10SM SCT011 BKN017 25/25 A2987 RMK AO2 BKN V SCT CIG 010 RWY22 SLP117

2010/08/10 08:56
KMCF 100856Z AUTO 07008KT 10SM SCT011 SCT017 25/25 A2987 RMK AO2 SLP117

2010/08/10 08:57
PGUA 100857Z AUTO 08008KT 10SM FEW019 SCT025 BKN034 BKN045 OVC055 27/24 A2993 RMK AO2 RAE0857 FEW V SCT CIG 018 RWY24L SLP117 $

2010/08/10 08:55
KFMH 100855Z AUTO 00000KT 5SM BR FEW060 OVC075 20/20 A2992 RMK AO2

2010/08/10 08:56
KGFA 100856Z AUTO 19011KT 10SM CLR 16/09 A2983 RMK AO2 SLP096 T01610089 58005

2010/08/10 08:56
KWJF 100856Z 27011KT 10SM CLR 21/M07 A2990 RMK AO2 SLP102 T02111072 58002

2010/08/10 08:56
PAFS 100856Z AUTO 00000KT 10SM -RA FEW033 BKN047 11/09 A2963 RMK AO2 TSNO 51008 60005 T01050088 BKN V OVC RAB04 P0004 SLP043 $

2010/08/10 08:56
PAGN 100856Z AUTO 00000KT OVC006 RMK AO2 PWINO TSNO 5//// SLPNO $

2010/08/10 08:56
PAHC 100856Z AUTO VRB03KT 10SM -RA BKN047 OVC070 12/09 A2950 RMK AO2 TSNO 51012 60002 T01160094 401440105 RAB50 P0000 SLP992 $

2010/08/10 08:56
PAIG 100856Z AUTO 00000KT 10SM SCT036 OVC046 11/10 A2966 RMK AO2 PWINO TSNO 53003 60001 T01050100 401330105 SLP047 $

2010/08/10 08:56
PAMO 100856Z AUTO 15018KT 6SM RA BR OVC003 09/09 A2940 RMK AO2 TSNO 51010 60002 T00940094 401050088 CIG 001V006 RAB03E14B39 P0001 SLP953 $

2010/08/10 08:56
PAOO 100856Z AUTO 17012KT 8SM -RA OVC007 09/08 A2936 RMK AO2 TSNO 51010 60000 T00940083 401000088 RAB38 P0000 SLP943 $

2010/08/10 08:56
PAPM 100856Z AUTO 18020KT 4SM -RA BR BKN010 OVC033 09/09 A2951 RMK AO2 TSNO 51005 60002 T00940088 OVC V BKN RAB55 P0000 SLP993 $

2010/08/10 08:56
PARS 100856Z AUTO 19011KT 4SM -RA BR BKN010 BKN014 OVC022 10/09 A2947 RMK AO2 TSNO 52008 60000 T01000088 401270100 CIG 007V012 P0000 SLP986 $

2010/08/10 08:56
PARY 100856Z AUTO 00000KT 10SM BKN065 OVC080 12/09 A2960 RMK AO2 PWINO TSNO 53009 T01220094 401550100 OVC V BKN SLP028

2010/08/10 08:56
PATQ 100856Z AUTO 07018KT 10SM OVC005 02/02 A2978 RMK AO2 TSNO 51006 60000 T00220016 400380005 SLP088 $

2010/08/10 08:55
K1A6 100855Z AUTO 00000KT 4SM BR SCT004 24/24 A3003 RMK AO2

2010/08/10 08:55
K46D 100855Z AUTO 00000KT 10SM CLR 19/19 A2989 RMK AO2

2010/08/10 08:55
KAIG 100855Z AUTO 00000KT 10SM CLR 16/15 A2999 RMK AO2

2010/08/10 08:56
KAJO 100856Z AUTO 27003KT 10SM CLR 14/13 A2991 RMK AO2 50002 T01440133 SLP121 $

2010/08/10 08:51
KARV 100851Z AUTO 00000KT 2SM BR CLR 17/16 A3001 RMK AO2 T01720161

2010/08/10 08:55
KBBF 100855Z AUTO 19009KT 10SM FEW020 30/27 A2987 RMK A01

2010/08/10 08:55
KBQX 100855Z AUTO 19008KT 10SM CLR 30/26 A2990 RMK A01

2010/08/10 08:50
KBWP 100850Z AUTO 11004KT 10SM CLR 21/19 A2988 RMK AO1 T02060191

2010/08/10 08:55
KCMB 100855Z AUTO 32004KT 10SM CLR 31/24 A2991 RMK A01

2010/08/10 08:55
KCMY 100855Z AUTO 00000KT M1/4SM FG OVC001 19/19 A2997 RMK AO2 T01930188

2010/08/10 08:55
KCRH 100855Z AUTO 29005KT 10SM CLR 30/25 A2991 RMK A01

2010/08/10 08:55
KCWA 100855Z AUTO 04005KT 10SM CLR 19/18 A2999 RMK AO2 T01910182

2010/08/10 08:56
KDIJ 100856Z AUTO 06005KT 10SM CLR 08/06 A3013 RMK AO2 56005 T00770055 SLP136 $

2010/08/10 08:55
KDLL 100855Z AUTO 00000KT 1/4SM FG VV002 21/21 A2997 RMK AO2 T02110205

2010/08/10 08:55
KEFT 100855Z AUTO 00000KT 10SM CLR 24/22 A2996 RMK AO2 T02390220

2010/08/10 08:51
KEGV 100851Z AUTO 00000KT 5SM BR CLR 15/15 A3001 RMK AO2 T01500150

2010/08/10 08:55
KEHC 100855Z AUTO 25004KT 10SM CLR 31/24 A2991 RMK A01

2010/08/10 08:55
KEIR 100855Z AUTO 00000KT 10SM CLR 29/26 A2989 RMK A01

2010/08/10 08:56
KEKQ 100856Z AUTO 00000KT 1 3/4SM BR BKN080 22/22 A3002 RMK AO2 55002 T02220222 SLP159

2010/08/10 08:55
KEMK 100855Z AUTO 00000KT 10SM SCT023 BKN035 30/25 A2992 RMK A01

2010/08/10 08:52
KETB 100852Z AUTO 00000KT 3/4SM BR BKN002 20/20 A2995 RMK AO2 VIS 1/4V5 60001 T02020195

2010/08/10 08:52
KGLW 100852Z AUTO 00000KT 5SM BR SCT085 24/23 A2997 RMK AO2 T02420231

2010/08/10 08:55
KGUL 100855Z AUTO 10SM CLR 30/24 A2992 RMK A01

2010/08/10 08:50
KHQI 100850Z AUTO 20006KT 10SM 31/25 A2991 RMK A01

2010/08/10 08:55
KIPN 100855Z AUTO VRB03G10KT 10SM FEW020 FEW025 30/25 A2988 RMK A01

2010/08/10 08:55
KJVL 100855Z AUTO 00000KT 2SM BR CLR 22/20 A2995 RMK AO2 T02150200

2010/08/10 08:56
KM89 100856Z AUTO 00000KT 7SM CLR 26/25 A2991 RMK AO2 58003 T02610250 SLP141 $

2010/08/10 08:55
KMDJ 100855Z AUTO 00000KT 10SM BKN022 29/25 A2991 RMK A01

2010/08/10 08:55
KMIU 100855Z AUTO 19012KT 10SM CLR 30/27 A2989 RMK A01

2010/08/10 08:56
KSLK 100856Z AUTO 00000KT 1 3/4SM BR FEW005 BKN018 19/18 A2996 RMK AO2

2010/08/10 08:57
KAZO 100857Z AUTO 00000KT 1 1/4SM BR FEW001 21/20 A2996 RMK AO2

2010/08/10 08:56
KP53 100856Z AUTO 19005KT 17/17 A2995 RMK AO2 SLP142 T01720167 58002 PWINO TSNO

2010/08/10 08:55
KDVK 100855Z AUTO 00000KT 3SM CLR 24/23 A2999 RMK AO1

2010/08/10 08:56
TJSJ 100856Z 13003KT 10SM SCT028 26/24 A2993 RMK AO2 SLP132 OCNL LTGIC DSNT N-SW CB DSNT N-SW 60000 T02610239 55007 $

2010/08/10 08:56
KWMC 100856Z AUTO 00000KT 10SM CLR 13/M01 A2995 RMK AO2 SLP093 60001 T01281011 50005

2010/08/10 08:56
KSPD 100856Z AUTO 03003KT 20/17 A3005 RMK AO2 SLP102 T02000172 58003 PWINO TSNO

2010/08/10 08:56
KCAE 100856Z 00000KT 6SM BR CLR 25/23 A3000 RMK AO2 SLP154 T02500228 58005

2010/08/10 08:56
KFLG 100856Z AUTO 00000KT 10SM FEW075 09/07 A3027 RMK AO2 SLP160 T00940072 58002 TSNO

2010/08/10 08:56
KD07 100856Z AUTO 17012KT 21/17 A2983 RMK AO2 SLP080 T02110172 58016 PWINO TSNO

2010/08/10 08:56
TJSJ 100856Z 13003KT 10SM SCT028 26/24 A2993 RMK AO2 SLP132 OCNL LTGIC DSNT N-SW CB DSNT N-SW 60000 T02610239 55007 $

2010/08/10 08:56
KLWS 100856Z AUTO 15003KT 10SM CLR 17/03 A2980 RMK AO2 SLP083 T01720033 53006

2010/08/10 08:55
KCAO 100855Z AUTO 24006KT 10SM OVC100 23/15 A3009 RMK AO2 SLP102 T02280150 55001 TSNO

2010/08/10 08:56
KABQ 100856Z 00000KT 10SM FEW110 22/08 A3014 RMK AO2 SLP105 T02220078 51001

2010/08/10 08:56
KJAX 100856Z 03003KT 10SM CLR 24/23 A2994 RMK AO2 SLP139 T02440228 56004

2010/08/10 08:56
KCHS 100856Z 14003KT 10SM FEW025 27/25 A3000 RMK AO2 SLP158 T02670250 55002

2010/08/10 08:55
KCLI 100855Z AUTO 00000KT 10SM CLR 20/18 A2995 RMK AO2

2010/08/10 08:56
KFSD 100856Z 13006KT 10SM OVC016 25/23 A2985 RMK AO2 SLP096 CONS LTGIC DSNT SE-SW T02500233 56019 $

2010/08/10 08:53
KMWT 100853Z AUTO 00000KT 10SM CLR 24/23 A2992 RMK AO2 SLP115 T02440233 56006 TSNO

2010/08/10 08:54
KRFD 100854Z 15003KT 10SM FEW180 24/22 A2997 RMK AO2 SLP142 T02390222 55000 $

2010/08/10 08:54
KROA 100854Z 00000KT 9SM CLR 23/21 A3003 RMK AO2 SLP155 T02330206 56004

2010/08/10 08:55
KSCF 100855Z AUTO 07005KT 10SM CLR 29/25 A2985 RMK A01

2010/08/10 08:56
KSHV 100856Z 00000KT 10SM BKN290 27/23 A2991 RMK AO2 SLP122 T02720228 58001

2010/08/10 08:56
KSXT 100856Z AUTO 36008KT 7SM CLR 11/09 A2999 RMK AO2 SLP119 T01060094 58004 TSNO

2010/08/10 08:55
KSNC 100855Z AUTO 00000KT 10SM CLR 22/22 A2995 RMK AO2

2010/08/10 08:50
K3A6 100850Z AUTO 36002KT 14/09 A2989 RMK AO1 SLP136 T01350093 54000

2010/08/10 08:50
KHMS 100850Z 29012KT 15SM FEW250 19/08 A2981 RMK SLP093 8/001 T01870082 52012 RSNK 13.4/33010KT

2010/08/10 08:56
KMHS 100856Z AUTO 00000KT 10SM CLR 13/09 A2996 RMK AO2 SLP133 T01330089 58003 TSNO

2010/08/10 08:50
OAKN 100850Z 31010KT 8000 DU BKN150 OVC250 37/02 Q1007 BLU TEMPO 6000 WHT RMK A2974 DA6700

2010/08/10 08:57
CYEK 100857Z AUTO 00000KT 1 1/8SM CLR 08/08 A3008 RMK VSBY VRBL 0.4V9.+

2010/08/10 08:50
LGSR 100850Z 34015KT CAVOK 31/22 Q1007 NOSIG BLU

2010/08/10 08:50
LGPZ 100850Z 27005KT CAVOK 31/24 Q1011 NOSIG BLU

2010/08/10 08:50
LGRX 100850Z 00000KT CAVOK 32/20 Q1010 NOSIG BLU

2010/08/10 08:55
EHAM 100855Z 18010KT 150V210 9999 FEW012 BKN015 18/15 Q1012 NOSIG

2010/08/10 08:55
EHGG 100855Z AUTO 19010KT 160V230 9999NDV BKN022 20/15 Q1012 NOSIG

2010/08/10 08:55
EHKD 100855Z AUTO 22013KT 9999NDV -RA FEW009/// BKN011/// BKN014/// 18/15 Q1011 GRN WHT TEMPO GRN TEMPO SCT012 SCT015CB BKN020

2010/08/10 08:55
EHRD 100855Z 19008KT 160V220 9999 SCT016 BKN020 19/15 Q1012 NOSIG

2010/08/10 08:50
EGJA 100850Z 24010KT 0700 R26/0750 FG BKN000 16/15 Q1013

2010/08/10 08:50
EGLF 100850Z 25006KT 9999 -RADZ SCT007 BKN012 BKN035 15/14 Q1011

2010/08/10 08:50
EGJA 100850Z 24010KT 0700 R26/0750 FG BKN000 16/15 Q1013

2010/08/10 08:50
EGLF 100850Z 25006KT 9999 -RADZ SCT007 BKN012 BKN035 15/14 Q1011

2010/08/10 08:50
EGNH 100850Z 23015KT 9999 FEW012 SCT026 16/11 Q1007

2010/08/10 08:50
EGOS 100850Z 25010KT 9999 SCT028 BKN050 16/09 Q1008 BLU NOSIG

2010/08/10 08:50
EGPA 100850Z 24006KT 190V270 9999 SCT015 16/12 Q1004

2010/08/10 08:50
EGPL 100850Z 01007KT 9999 FEW012 16/11 Q1005

2010/08/10 08:50
EGPN 100850Z 07004KT 350V120 9999 SHRA SCT018CB BKN035 14/11 Q1004

2010/08/10 08:50
EGQL 100850Z 10007KT 9999 FEW012 FEW024TCU BKN090 14/10 Q1004 BLU TEMPO -SHRA SCT020 WHT

2010/08/10 08:50
EGUB 100850Z 19007KT 9999 -RA BKN050 BKN070 14/12 Q1010 BLACKBLU NOSIG

2010/08/10 08:50
EGUW 100850Z 28007KT 9999 -RA FEW006 SCT020 OVC050 14/13 Q1010 RERA WHT BECMG FEW020 BLU

2010/08/10 08:55
EGVA 100855Z AUTO 24009KT 9999 SCT075 SCT090 14/13 A2983 RMK AO2 RAB0757E0825DZE0757B0820E0824 SLP102 P0000 60000 T01420131 53001 $

2010/08/10 08:50
EGWU 100850Z 26010KT 9999 -RA FEW007 BKN035 OVC060 14/12 Q1011 BLU TEMPO SCT015 WHT

2010/08/10 08:50
EGXC 100850Z 24009KT 9999 FEW015 SCT030 BKN130 15/13 Q1008 BLU TEMPO SCT020 WHT

2010/08/10 08:50
EGXD 100850Z 19006KT 9999 -SHRA FEW012 FEW018TCU BKN060 14/13 Q1007 BLU NOSIG

2010/08/10 08:50
EGXE 100850Z 15004KT 9999 FEW015 BKN050 14/13 Q1006 BLU TEMPO SCT020 WHT

2010/08/10 08:50
EGXG 100850Z 25014KT 9999 FEW020 17/11 Q1007 BLU

2010/08/10 08:50
EGXW 100850Z 25009KT 9999 FEW009 SCT200 14/13 Q1008 BLU NOSIG

2010/08/10 08:50
EGYD 100850Z 24010KT 9999 FEW012 SCT040 BKN150 15/13 Q1008 BLU TEMPO SCT018 WHT

2010/08/10 08:50
EDHL 100850Z 16007KT 130V200 CAVOK 22/20 Q1015 RMK M

2010/08/10 08:50
EDLN 100850Z VRB04KT CAVOK 22/16 Q1014 RMK ATIS I

2010/08/10 08:50
EDLP 100850Z 19007KT CAVOK 23/10 Q1015 RMK RWY24 TRL60 OK ATIS N

2010/08/10 08:50
EDLW 100850Z 21007KT CAVOK 22/13 Q1015 RMK ATIS L

2010/08/10 08:50
EDNY 100850Z VRB03KT 9999 FEW035 20/14 Q1018 RMK ATIS K

2010/08/10 08:50
EDXW 100850Z 17013KT 9999 FEW011 20/16 Q1013 RMK ATIS INFO F

2010/08/10 08:50
EGJA 100850Z 24010KT 0700 R26/0750 FG BKN000 16/15 Q1013

2010/08/10 08:50
EGLF 100850Z 25006KT 9999 -RADZ SCT007 BKN012 BKN035 15/14 Q1011

2010/08/10 08:50
EGNH 100850Z 23015KT 9999 FEW012 SCT026 16/11 Q1007

2010/08/10 08:50
EGNJ 100850Z 21011KT 9999 FEW010 SCT013 16/14 Q1007

2010/08/10 08:50
EGPA 100850Z 24006KT 190V270 9999 SCT015 16/12 Q1004

2010/08/10 08:50
EGPC 100850Z VRB02KT 9999 FEW020 15/12 Q1004

2010/08/10 08:50
EGPL 100850Z 01007KT 9999 FEW012 16/11 Q1005

2010/08/10 08:50
EGPN 100850Z 07004KT 350V120 9999 SHRA SCT018CB BKN035 14/11 Q1004

2010/08/10 08:50
EGPU 100850Z 01010KT 350V050 9999 VCSH SCT014CB SCT020 13/11 Q1002

2010/08/10 08:55
EGVA 100855Z AUTO 24009KT 9999 SCT075 SCT090 14/13 A2983 RMK AO2 RAB0757E0825DZE0757B0820E0824 SLP102 P0000 60000 T01420131 53001 $

2010/08/10 08:55
EHKD 100855Z AUTO 22013KT 9999NDV -RA FEW009/// BKN011/// BKN014/// 18/15 Q1011 GRN WHT TEMPO GRN TEMPO SCT012 SCT015CB BKN020

2010/08/10 08:50
ETUO 100850Z 15003KT 9999 FEW045 22/13 Q1015 BLU

2010/08/10 08:50
LGSY 100850Z 36010KT 9999 FEW020 30/21 Q1009 NOSIG BLU

2010/08/10 08:50
LOXT 100850Z VRB02KT 50KM FEW035CU 22/14 Q1018 NOSIG RMK FEW

2010/08/10 09:00
LQBK 100900Z 11003KT 9999 FEW030 23/19 Q1017 NOSIG

2010/08/10 09:00
LWSK 100900Z 33007G19KT 9999 FEW050 27/13 Q1016 NOSIG

2010/08/10 08:57
KAZO 100857Z AUTO 00000KT 1 1/4SM BR FEW001 21/20 A2996

2010/08/10 09:00
UBBB 100900Z 02006KT 9999 SCT060CB OVC100 31/30 Q1011 NOSIG RMK R88CLRD70

2010/08/10 09:00
SBGR 100900Z 16003KT 9999 OVC023 13/12 Q1025

2010/08/10 08:55
EHAK 100855Z AUTO 17022KT 9999NDV FEW007/// SCT035/// BKN042/// 17/16 Q1007

2010/08/10 08:55
EHDV 100855Z AUTO 21016KT 9999NDV -RA FEW006/// SCT008/// BKN010/// 17/16 Q1007

2010/08/10 08:55
EHFD 100855Z AUTO 18023KT 9999NDV FEW004/// SCT006/// BKN007/// 18/16 Q1010

2010/08/10 08:55
EHFZ 100855Z AUTO 20023KT 9999NDV ///////// 17/15 Q1009

2010/08/10 08:55
EHJA 100855Z AUTO 19017KT //// // FEW004/// SCT008/// BKN010/// 16/15 Q1008 RE//

2010/08/10 08:55
EHKV 100855Z AUTO 20024KT 9999NDV FEW008/// BKN020/// OVC023/// 18/15 Q1009

2010/08/10 08:55
EHMG 100855Z AUTO 22025KT 9999NDV FEW009/// SCT012/// BKN016/// 17/15 Q1010

2010/08/10 08:55
EHPG 100855Z AUTO 21024KT 9999NDV FEW011/// BKN018/// OVC022/// 18/15 Q1010

2010/08/10 08:55
EHQE 100855Z AUTO 21018KT 9999NDV ///////// 17/15 Q1011

2010/08/10 08:50
EGWU 100850Z 26010KT 9999 -RA FEW007 BKN035 OVC060 14/12 Q1011 TEMPO SCT015

2010/08/10 08:50
EGPA 100850Z 24006KT 190V270 9999 SCT015 16/12 Q1004

2010/08/10 08:50
EGPC 100850Z VRB02KT 9999 FEW020 15/12 Q1004

2010/08/10 08:50
EGPL 100850Z 01007KT 9999 FEW012 16/11 Q1005

2010/08/10 08:50
EGPO 100850Z 04004KT 330V070 9999 FEW016 17/11 Q1005

2010/08/10 08:50
EGPU 100850Z 01010KT 350V050 9999 VCSH SCT014CB SCT020 13/11 Q1002

2010/08/10 08:50
LGAV 100850Z 03013KT 010V070 9999 FEW025 32/19 Q1010 NOSIG

2010/08/10 08:50
LGIR 100850Z 31013KT 9999 FEW020 SCT080 30/24 Q1009 NOSIG

2010/08/10 08:50
LGKL 100850Z 15008KT 9999 FEW025 30/21 Q1009

2010/08/10 08:50
LGKO 100850Z 34011KT CAVOK 33/20 Q1006

2010/08/10 08:50
LGKR 100850Z 13005KT CAVOK 31/19 Q1010 NOSIG

2010/08/10 08:50
LGLM 100850Z 03012KT CAVOK 30/20 Q1010

2010/08/10 08:50
LGSA 100850Z 30011KT 9999 FEW030 31/19 Q1010

2010/08/10 08:50
LGSM 100850Z 01010KT 330V050 CAVOK 33/18 Q1006

2010/08/10 08:50
LGTS 100850Z 30011KT CAVOK 29/18 Q1013 NOSIG

2010/08/10 08:50
LGAD 100850Z 31004KT CAVOK 30/22 Q1011

2010/08/10 08:50
EGAE 100850Z 27010KT 9999 5000W SHRA FEW009 SCT015 BKN027 14/12 Q1004

2010/08/10 08:50
EGNC 100850Z 21011KT 170V250 9999 RA FEW019 SCT025 14/10 Q1005

2010/08/10 08:50
EGNH 100850Z 23015KT 9999 FEW012 SCT026 16/11 Q1007

2010/08/10 08:50
EGNJ 100850Z 21011KT 9999 FEW010 SCT013 16/14 Q1007

2010/08/10 08:50
EGNR 100850Z 26007KT 230V310 9999 SCT028 18/09 Q1008

2010/08/10 08:50
EGPE 100850Z 32003KT 9999 FEW015 SCT030TCU 15/11 Q1004

2010/08/10 08:50
EGPI 100850Z 30009KT 9999 FEW017 SCT024 13/10 Q1003

2010/08/10 08:50
EGPN 100850Z 07004KT 350V120 9999 SHRA SCT018CB BKN035 14/11 Q1004

2010/08/10 08:50
EGDL 100850Z 22008KT 9999 SCT006 BKN011 BKN050 13/12 Q1011 TEMPO SCT007

2010/08/10 08:50
LGNX 100850Z 34013KT 9999 FEW020 29/24 Q1008

2010/08/10 08:50
EKVJ 100850Z 18010KT CAVOK 20/18 Q1013

2010/08/10 08:50
LGAL 100850Z 04010KT CAVOK 34/17 Q1011

2010/08/10 08:50
LGEL 100850Z 34010KT 9999 FEW030 33/19 Q1010

2010/08/10 08:50
LGKV 100850Z 27006KT CAVOK 32/18 Q1010

2010/08/10 08:50
LGMT 100850Z /////KT CAVOK 32/23 Q1008

2010/08/10 08:50
LGPZ 100850Z 27005KT CAVOK 31/24 Q1011 NOSIG

2010/08/10 08:50
LGRX 100850Z 00000KT CAVOK 32/20 Q1010 NOSIG

2010/08/10 08:50
LGSR 100850Z 34015KT CAVOK 31/22 Q1007 NOSIG

2010/08/10 08:50
LGZA 100850Z 02005KT CAVOK 31/22 Q1011

2010/08/10 09:00
FOOL 100900Z 15008KT 110V180 9999 SCT012 BKN046 26/21 Q1016 NOSIG

2010/08/10 09:00
GLRB 100900Z 00000KT 9999 BKN014 26/24 Q1015 NOSIG

2010/08/10 08:50
EGVN 100850Z 23005KT 9999 FEW010 SCT050 BKN080 14/12 Q1010 NOSIG

2010/08/10 09:00
OPKC 100900Z 23012KT 7000 FEW020 SCT030 33/25 Q1002 NOSIG

2010/08/10 08:55
OPLA 100855Z 15008KT 3500 FU SCT040 BKN100 30/26 Q1002 RETSRA NOSIG

2010/08/10 09:00
OPPS 100900Z N--08 4000 HZ SCT030 SCT100 34/26 Q1002.3

2010/08/10 08:55
OPSK 100855Z 05004KT 6000 HZ SCT040 FEW100 36/27 QNH 1000 R.H.63PC

2010/08/10 08:50
LGHI 100850Z 36010KT CAVOK 30/21 Q1008

2010/08/10 08:50
LGKC 100850Z 02009KT 330V070 9999 FEW020 29/23 Q1012

2010/08/10 08:50
LGKF 100850Z 27007KT 9999 FEW025 27/22 Q1011

2010/08/10 08:50
LGKP 100850Z 32026KT 9999 FEW010 30/24 Q1005

2010/08/10 08:50
LGKZ 100850Z 33010KT 9999 FEW020 26/12 Q1016

2010/08/10 08:50
LGMK 100850Z 35019KT 9999 FEW012 29/22 Q1008

2010/08/10 08:50
LGPA 100850Z 35017KT 9999 FEW025 30/23 Q1008

2010/08/10 08:50
LGSO 100850Z 36013KT 9999 FEW020 30/22 Q1008

2010/08/10 09:00
SBFI 100900Z 23002KT CAVOK 10/09 Q1019

2010/08/10 09:00
SBKP 100900Z 11016KT CAVOK 12/10 Q1023

2010/08/10 08:56
KSLK 100856Z AUTO 00000KT 1 3/4SM BR FEW005 BKN018 19/18 A2996

2010/08/10 08:57
KAZO 100857Z AUTO 00000KT 1 1/4SM BR FEW001 21/20 A2996

2010/08/10 08:56
KINS 100856Z 24004KT 10SM CLR 19/M07 A2992 RMK AO2 SLP080 T01891067 50000 

2010/08/10 09:00
OKBK 100900Z 11005KT 6000 NSC 43/16 Q0999 NOSIG

2010/08/10 08:50
ESSA 100850Z 24011KT 9999 FEW009 BKN011 17/16 Q1011 BECMG BKN015

2010/08/10 09:00
UBBB 100900Z 02006KT 9999 SCT060CB OVC100 31/30 Q1011 NOSIG RMK R88CLRD70

2010/08/10 08:50
BGBW 100850Z AUTO 06002KT 2100NDV BR SCT003/// BKN005/// 08/07 Q1009

2010/08/10 08:50
BGCO 100850Z 16004KT 9999 SCT180 07/00 Q1013

2010/08/10 08:50
BGGH 100850Z 21008KT 0200 RA FG VV002 08/08 Q1007

2010/08/10 08:50
BGJN 100850Z AUTO 18002KT 9999NDV BKN018/// OVC024/// 08/04 Q1008

2010/08/10 08:50
BGKK 100850Z 07018KT 9999 -DZ SCT020 SCT035 BKN045 07/04 Q1013

2010/08/10 08:50
BGSF 100850Z 04007KT 9999 BKN023 08/04 Q1007

2010/08/10 08:55
BGTL 100855Z AUTO 00000KT 9999 CLR 04/03 A2980 RMK AO2 SLP096 T00360027 57005

2010/08/10 08:54
PGSN 100854Z 06005KT 10SM FEW020 27/24 A2993 RMK AO2 SLP132 T02720244 53015

2010/08/10 08:55
PGUA 100855Z AUTO 09009KT 10SM -RA SCT019 SCT025 BKN034 BKN048 OVC055 27/24 A2993 RMK AO2 RAB0847 CIG 018 RWY24L SLP117 P0000 60000 T02660244 53017 $

2010/08/10 08:54
PGUM 100854Z 07007KT 10SM FEW020 SCT110 28/23 A2992 RMK AO2 TSE18 SLP125 CB DSNT W MOV NW T02780233 53012

2010/08/10 08:55
PHHI 100855Z AUTO 08009KT 10SM SCT037 SCT045 23/17 A3013 RMK AO2 SLP190 T02340171 51011 $

2010/08/10 08:53
PHJR 100853Z AUTO 07005KT 10SM CLR 25/17 A3011 RMK AO2 SLP204 T02500172 51012 TSNO

2010/08/10 08:53
PHKO 100853Z AUTO 09005KT 10SM CLR 23/17 A3005 RMK AO2 SLP176 T02330172 50009 TSNO

2010/08/10 08:54
PHMK 100854Z AUTO 04009G15KT 10SM CLR 23/18 A3012 RMK AO2 SLP198 60000 T02330178 51011 TSNO

2010/08/10 08:53
PHNL 100853Z 06010G19KT 10SM FEW042 26/18 A3010 RMK AO2 SLP192 T02560178 50011

2010/08/10 08:54
PHOG 100854Z 04010KT 10SM OVC050 26/18 A3011 RMK AO2 SLP200 T02560183

2010/08/10 08:53
PHTO 100853Z AUTO 24003KT 10SM FEW031 SCT065 23/19 A3012 RMK AO2 SLP198 T02280189 51013 TSNO

2010/08/10 08:52
PTKK 100852Z VRB03KT 15SM FEW014CB SCT120 OVC280 28/24 A2986 RMK CB DSNT SW-NW SLP113 8/371 T02780242 52019

2010/08/10 08:55
PWAK 100855Z 07014KT 8SM FEW021 28/24 A3004 RMK AO2A

2010/08/10 08:55
RJTY 100855Z AUTO 18010KT 9999 FEW110 27/24 A3000 RMK AO2 SLP152 T02710236 55001 $

2010/08/10 08:55
RODN 100855Z 20005KT 9999 SCT016 SCT140 29/26 A2980 RMK AO2A RAE0811B0830E0849DZB0849E0852 SLP091 P0000 60000 T02850264 56004

2010/08/10 08:54
KMCF 100854Z AUTO 08010KT 10SM SCT011 BKN017 25/25 A2987 RMK AO2 BKN V SCT CIG 010 RWY22 SLP117

2010/08/10 08:56
KMCF 100856Z AUTO 07008KT 10SM SCT011 SCT017 25/25 A2987 RMK AO2 SLP117

2010/08/10 08:53
KNJM 100853Z AUTO 00000KT 10SM SCT017 SCT021 27/25 A3001 RMK AO2

2010/08/10 08:55
CWLY 100855Z AUTO 20002KT 9SM BKN001 OVC018 OVC031 13/12 A2994

2010/08/10 08:58
CWOB 100858Z AUTO ///// 1/8SM CLR 03/ A2979

2010/08/10 08:55
CYEK 100855Z AUTO 00000KT 2 1/4SM CLR 08/08 A3008 RMK VSBY VRBL 0.5V9.+

2010/08/10 08:57
CYPQ 100857Z AUTO ///// 5/8SM OVC019 18/18 A2993

2010/08/10 08:57
CYVM 100857Z AUTO 00000KT 2 1/2SM OVC001 02/02 A2993 RMK VSBY VRBL 2.5V9.+

2010/08/10 08:58
CYWA 100858Z AUTO 21002KT 5/8SM CLR 13/13 A2990

2010/08/10 08:57
CYZE 100857Z AUTO 00000KT 3SM BR FEW002 17/17 A2993 RMK SLP137 DENSITY ALT 1000FT VIS VRB 3/4-3

2010/08/10 08:59
EHKD 100859Z AUTO 22012KT 9999NDV FEW009/// SCT017/// BKN021/// 18/16 Q1011 WHT WHT TEMPO GRN TEMPO SCT012 SCT015CB BKN020

2010/08/10 08:54
KMCF 100854Z AUTO 08010KT 10SM SCT011 BKN017 25/25 A2987 RMK AO2 BKN V SCT CIG 010 RWY22 SLP117

2010/08/10 08:56
KMCF 100856Z AUTO 07008KT 10SM SCT011 SCT017 25/25 A2987 RMK AO2 SLP117

2010/08/10 08:53
KNJM 100853Z AUTO 00000KT 10SM SCT017 SCT021 27/25 A3001 RMK AO2

2010/08/10 08:58
CYCY 100858Z AUTO 00000KT 9SM CLR 04/04 A2987

2010/08/10 08:59
CYPQ 100859Z AUTO ///// 1SM OVC019 18/18 A2993

2010/08/10 09:00
LZKC 100900Z VRB02KT 9999 SCT029 23/17 Q1017

2010/08/10 09:00
LZLU 100900Z VRB02KT 9999 FEW036 23/15 Q1018

2010/08/10 09:00
LZNI 100900Z 24002KT 9999 FEW030 24/16 Q1018

2010/08/10 09:00
LZPE 100900Z 22003KT 9999 FEW033 23/14 Q1018

2010/08/10 08:53
KRYT 100853Z AUTO 00000KT 10SM CLR 23/19 A2996 RMK AO2 SLP126 T02280194 53002 $ 

2010/08/10 08:55
FJDG 100855Z 14014G20KT 9000 -SHRA FEW020 BKN040 BKN080 26/26 A2981 RMK SLP091 8/870 T02620258 57014

2010/08/10 08:55
KDMA 100855Z AUTO 17005KT 10SM CLR 26/16 A2995 RMK AO2 SLPNO T02580163 51002 VISNO RWY12 CHINO RWY12 $

2010/08/10 08:55
KFFO 100855Z 00000KT 10SM CLR 24/22 A2997 RMK AO2A SLP143 56001

2010/08/10 08:55
KHOP 100855Z AUTO 00000KT 10SM CLR 25/25 A2995 RMK AO2 SLP137 T02540249 58007

2010/08/10 08:56
KNCA 100856Z AUTO 00000KT 10SM 24/24 A3001 RMK AO2 SLP164 T02390239 58005 $

2010/08/10 08:54
KNFG 100854Z 04003KT BR CLR 11/09 A2990 RMK AO2 SLP125 T01110094 50000

2010/08/10 08:56
KNLC 100856Z AUTO 31011KT 10SM CLR 22/12 A2981 RMK AO2 SLP091 T02220122 58004 TSNO

2010/08/10 08:56
KNTD 100856Z AUTO 00000KT 9SM OVC007 14/13 A2990 RMK AO2 SLP125 T01440133 57002 TSNO $

2010/08/10 08:56
KNTU 100856Z 24005KT 10SM FEW200 23/22 A2997 RMK AO2 SLP150 T02330222 56004 $

2010/08/10 08:55
KNYL 100855Z AUTO 25003KT 10SM CLR 28/02 A2975 RMK AO2 SLP070 T02780022 50000

2010/08/10 08:56
KSGH 100856Z AUTO 00000KT 4SM BR CLR 22/22 A2999 RMK AO2 56002 T02160216 SLP146 $

2010/08/10 08:55
KVBG 100855Z AUTO 00000KT 10SM OVC003 13/12 A2992 RMK AO2 SLP122 T01280117 58006 TSNO CHINO RWY12 $

2010/08/10 09:00
LQBK 100900Z 11003KT 9999 FEW030 23/19 Q1017 NOSIG

2010/08/10 08:56
MUGM 100856Z 33004KT 9999 FEW025 SCT250 26/23 A2991 RMKS SLP128 T02560233 57009

2010/08/10 09:00
MYNN 100900Z 19004KT 9999 SCT020 OVC080 25/24 A2993

2010/08/10 08:55
ORER 100855Z 26004KT CAVOK 44/04 Q1005 NOSIG

2010/08/10 09:00
ORSU 100900Z 01010KT 9999 FEW045 42/02 Q1010

2010/08/10 08:50
ENVD 100850Z 11007KT 9999 FEW010 BKN038 10/07 Q1013

2010/08/10 08:50
ENEK 100850Z 14007KT 9999 FEW005 FEW010TCU BKN045 16/13 Q1006 W16/S3

2010/08/10 09:00
FASK 100900Z 15020KT CAVOK 12/// Q1033

2010/08/10 09:00
FALM 100900Z 13015G20KT 8000 NSC 17/// Q1031

2010/08/10 09:00
FAWK 100900Z 13015KT CAVOK 11/// Q1035

2010/08/10 08:49
MMAA 100849Z 06004KT 7SM SCT015 BKN070 OVC120 26/24 A2982 RMK SLP097 57016 903 60055 8/27/

2010/08/10 08:50
MMCL 100850Z 00000KT 10SM SCT100 BKN220 28/26 A2982 RMK 8/077

2010/08/10 08:49
MMHO 100849Z 00000KT 10SM FEW080 30/18 A2983 RMK SLP081 54000 958 8/030 HZY ISOL CI

2010/08/10 08:45
MMMZ 100845Z 06004KT 10SM SCT220 28/23 A2980 RMK SLP095 57017 915 8/002

2010/08/10 08:45
MMQT 100845Z 06010KT 3SM RA BKN015 BKN030 OVC100 17/15 A3025 RMK 8/46/ RABE40

2010/08/10 08:45
MMTO 100845Z 17006KT 4SM SCT015 BKN200 11/10 A3037 RMK SLP075 57014 961 8/502 HZ

2010/08/10 08:55
MMVR 100855Z 00000KT 7SM -RA BKN012TCU 26/25 A2988 RMK SLP080 57010 958 60005 8/200

2010/08/10 08:56
MUGM 100856Z 33004KT 9999 FEW025 SCT250 26/23 A2991 RMKS SLP128 T02560233 57009

2010/08/10 09:00
MYNN 100900Z 19004KT 9999 SCT020 OVC080 25/24 A2993

2010/08/10 08:55
PAED 100855Z 00000KT 10SM OVC006 12/10 A2978 RMK AO2A CIG 005V007 SLP084 60000 T01150104 401950113 51006

2010/08/10 08:56
PASY 100856Z AUTO 27009KT 1SM BR VV001 09/09 A2989 RMK AO2 SLP123 6//// T00890089 401280083 53009 TSNO PNO $

2010/08/10 08:55
PATL 100855Z AUTO 16004KT 10SM BKN017 OVC024 11/09 A2960 RMK AO1 T01110095

2010/08/10 08:52
PTKK 100852Z VRB03KT 15SM FEW014CB SCT120 OVC280 28/24 A2986 RMK CB DSNT SW-NW SLP113 8/371 T02780242 52019

2010/08/10 08:55
PWAK 100855Z 07014KT 8SM FEW021 28/24 A3004 RMK AO2A

2010/08/10 09:00
SVMI 100900Z 00000KT 9999 FEW016 28/24 Q1011 NOSIG

2010/08/10 09:00
TFFR 100900Z 13003KT 9999 SCT020 SCT050 25/24 Q1013 TEMPO 4000 SHRA

2010/08/10 08:55
TXKF 100855Z 17008KT 9999 FEW015 FEW180 SCT300 27/23 Q1020 /

2010/08/10 08:56
K79J 100856Z AUTO 00000KT 6SM BR CLR 24/22 A2993 RMK AO2 SLP129 6//// T02440222 55004 TSNO PNO $

2010/08/10 08:55
KCVS 100855Z 19003KT 10SM CLR 19/15 A3008 RMK AO2A SLP140 T01900150 57002 $

2010/08/10 08:55
KDMA 100855Z AUTO 17005KT 10SM CLR 26/16 A2995 RMK AO2 SLPNO T02580163 51002 VISNO RWY12 CHINO RWY12 $

2010/08/10 08:55
KFCS 100855Z AUTO 30007KT 10SM OVC100 16/13 A3014 RMK AO2 SLP129 T01640127 50003

2010/08/10 08:55
KFFO 100855Z 00000KT 10SM CLR 24/22 A2997 RMK AO2A SLP143 56001

2010/08/10 08:55
KHOP 100855Z AUTO 00000KT 10SM CLR 25/25 A2995 RMK AO2 SLP137 T02540249 58007

2010/08/10 08:55
KHRT 100855Z 36004KT 10SM CLR 25/24 A2989 RMK AO2A SLP123 T02510244 56010 $

2010/08/10 08:56
KIWA 100856Z AUTO 35003KT 10SM CLR 31/12 A2984 RMK AO2

2010/08/10 08:55
KLSV 100855Z AUTO 29003KT 10SM CLR 25/M02 A2983 RMK AO2 SLP085 T02551018 58002 PWINO

2010/08/10 08:55
KNBG 100855Z AUTO 00000KT 6SM HZ CLR A2992 RMK AO2 SLP132 56004 PWINO FZRANO $

2010/08/10 08:56
KNCA 100856Z AUTO 00000KT 10SM 24/24 A3001 RMK AO2 SLP164 T02390239 58005 $

2010/08/10 08:56
KNJK 100856Z AUTO 00000KT 10SM CLR 25/05 A2973 RMK AO2 SLP083 T02500050 50003 TSNO

2010/08/10 08:57
KNJM 100857Z AUTO 27003KT 10SM SCT017 27/25 A3001 RMK AO2 SLP165 T02670250 56004

2010/08/10 08:56
KNRS 100856Z AUTO 23003KT 10SM OVC015 17/15 A2991 RMK AO2 SLP126 T01720150 58005 TSNO

2010/08/10 08:56
KNUQ 100856Z AUTO 00000KT 10SM OVC008 15/13 A2990 RMK AO2 SLP128 T01500128 58008 TSNO

2010/08/10 08:56
PPIZ 100856Z AUTO 06018G26KT 10SM FEW011 04/03 A2967 RMK AO2 TSNO 53004 T00440027 400830022 PK WND 05029/0808 SLP051 $

2010/08/10 08:56
K79J 100856Z AUTO 00000KT 6SM BR CLR 24/22 A2993 RMK AO2 SLP129 6//// T02440222 55004 TSNO PNO $

2010/08/10 08:56
KHLR 100856Z AUTO 18006KT 10SM CLR 28/23 A2992 RMK AO2 SLP122 T02780233 56016 $

2010/08/10 08:56
KNFL 100856Z AUTO 28006KT 10SM CLR 21/03 A2994 RMK AO2 SLP113 T02060028 51005 TSNO

2010/08/10 08:56
KNID 100856Z AUTO 00000KT CLR 22/05 A2984 RMK AO2 SLP083 T02220050 58000 TSNO $

2010/08/10 08:56
KNMM 100856Z AUTO 00000KT 6SM BR CLR 25/23 A2995 RMK AO2 SLP145 T02500233 58005 $

2010/08/10 08:56
KNPA 100856Z AUTO 33004KT 6SM BR CLR 26/24 A2990 RMK AO2 SLP125 T02560244 58006

2010/08/10 08:56
KNQI 100856Z AUTO 00000KT 7SM CLR 27/25 A2989 RMK AO2 SLP117 T02720250 58014 $

2010/08/10 08:56
KNRS 100856Z AUTO 23003KT 10SM OVC015 17/15 A2991 RMK AO2 SLP126 T01720150 58005 TSNO

2010/08/10 08:56
KNSE 100856Z AUTO 35004KT 5SM HZ CLR 25/22 A2991 RMK AO2 SLP112 T02500222 58008 $

2010/08/10 08:56
KNUQ 100856Z AUTO 00000KT 10SM OVC008 15/13 A2990 RMK AO2 SLP128 T01500128 58008 TSNO

2010/08/10 08:56
KNUW 100856Z 00000KT 7SM FEW005 BKN010 OVC040 15/11 A2995 RMK AO2 SLP146 T01470108 58005 $

2010/08/10 08:56
KNXX 100856Z AUTO 00000KT 10SM CLR 24/19 A2994 RMK AO2 SLP142 T02440194 56004 $

2010/08/10 08:52
KNZY 100852Z 25003KT 10SM OVC013 19/14 A2989 RMK AO2 SLP123 T01940139 58003 $

2010/08/10 08:56
PASY 100856Z AUTO 27009KT 1SM BR VV001 09/09 A2989 RMK AO2 SLP123 6//// T00890089 401280083 53009 TSNO PNO $

2010/08/10 08:56
PHBK 100856Z AUTO 00000KT 10SM SCT060 26/14 A3010 RMK AO2 SLP196 T02560144 51015 TSNO $

2010/08/10 08:54
KNFG 100854Z 04003KT BR CLR 11/09 A2990 RMK AO2 SLP125 T01110094 50000

2010/08/10 08:56
KNID 100856Z AUTO 00000KT CLR 22/05 A2984 RMK AO2 SLP083 T02220050 58000 TSNO $

2010/08/10 08:55
KNKX 100855Z 00000KT 10SM OVC010 17/14 A2990 RMK AO2 SLP120 T01720139 58003

2010/08/10 08:56
KNLC 100856Z AUTO 31011KT 10SM CLR 22/12 A2981 RMK AO2 SLP091 T02220122 58004 TSNO

2010/08/10 08:56
KNMM 100856Z AUTO 00000KT 6SM BR CLR 25/23 A2995 RMK AO2 SLP145 T02500233 58005 $

2010/08/10 08:56
KNQI 100856Z AUTO 00000KT 7SM CLR 27/25 A2989 RMK AO2 SLP117 T02720250 58014 $

2010/08/10 08:56
KNSE 100856Z AUTO 35004KT 5SM HZ CLR 25/22 A2991 RMK AO2 SLP112 T02500222 58008 $

2010/08/10 08:56
KNTD 100856Z AUTO 00000KT 9SM OVC007 14/13 A2990 RMK AO2 SLP125 T01440133 57002 TSNO $

2010/08/10 08:56
KNTU 100856Z 24005KT 10SM FEW200 23/22 A2997 RMK AO2 SLP150 T02330222 56004 $

2010/08/10 08:56
KNYG 100856Z AUTO 22007KT 8SM CLR 26/21 A2995 RMK AO2 SLP141 T02560206 58003 $

2010/08/10 08:55
KNYL 100855Z AUTO 25003KT 10SM CLR 28/02 A2975 RMK AO2 SLP070 T02780022 50000

2010/08/10 08:55
KNYL 100855Z AUTO 25003KT 10SM CLR 28/02 A2975 RMK AO2 SLP070 T02780022 50000

2010/08/10 08:52
KNZY 100852Z 25003KT 10SM OVC013 19/14 A2989 RMK AO2 SLP123 T01940139 58003 $

2010/08/10 08:56
KSGH 100856Z AUTO 00000KT 4SM BR CLR 22/22 A2999 RMK AO2 56002 T02160216 SLP146 $

2010/08/10 08:55
KVBG 100855Z AUTO 00000KT 10SM OVC003 13/12 A2992 RMK AO2 SLP122 T01280117 58006 TSNO CHINO RWY12 $

2010/08/10 09:00
SBCG 100900Z 16005KT CAVOK 13/10 Q1019

2010/08/10 09:00
GOOY 100900Z 32006KT 270V340 9999 FEW013 SCT230 29/22 Q1013 NOSIG

2010/08/10 09:00
GQNN 100900Z 28006KT 250V310 8000 NSC 27/19 Q1013 NOSIG

2010/08/10 08:50
ENOL 100850Z 35004KT 9999 FEW003 BKN008 14/12 Q1011 BECMG BKN012

2010/08/10 08:56
KBIH 100856Z AUTO 36006KT 10SM CLR 16/M06 A2995 RMK AO2 SLP091 T01611061 50004 TSNO 

2010/08/10 09:00
LDLO 100900Z 31004KT CAVOK 29/19 Q1015

2010/08/10 09:00
LDSB 100900Z VRB02KT CAVOK 26/11 Q1015

2010/08/10 08:55
TXKF 100855Z 17008KT 9999 FEW015 FEW180 SCT300 27/23 Q1020

2010/08/10 09:00
WSAP 100900Z 14005KT 9999 FEW020 BKN300 31/25 Q1006

2010/08/10 09:00
GVBA 100900Z 07005KT 9999 FEW015 26/19 Q1015 NOSIG

2010/08/10 08:56
KCOQ 100856Z AUTO 33003KT 7SM CLR 18/16 A2997 RMK AO2

2010/08/10 08:57
KCQM 100857Z AUTO 00000KT 7SM CLR 17/17 A2996 RMK AO2

2010/08/10 08:55
KCSQ 100855Z AUTO 09013KT 10SM CLR 23/21 A2994 RMK AO2

2010/08/10 08:55
KCVX 100855Z AUTO 00000KT 3SM BR OVC005 23/21 A2998 RMK AO2

2010/08/10 08:55
KDEH 100855Z AUTO 00000KT 4SM CLR 24/22 A2999 RMK AO2

2010/08/10 08:55
KDNS 100855Z AUTO 11011G16KT 7SM SCT007 SCT110 27/23 A2991 RMK AO2

2010/08/10 08:57
KDRM 100857Z AUTO 00000KT 1/2SM FG OVC001 17/17 A2994 RMK AO2

2010/08/10 08:55
KDTL 100855Z AUTO 13004KT 10SM CLR 21/17 A2993 RMK AO2

2010/08/10 08:54
KDUH 100854Z AUTO 00000KT 1/4SM FG OVC001 21/19 A2996 RMK AO2

2010/08/10 08:55
KEBS 100855Z AUTO 29004KT 10SM -RA SCT021 SCT034 SCT070 23/22 A2992 RMK AO2 P0001

2010/08/10 08:55
KEOK 100855Z AUTO 22004KT 7SM SCT110 28/25 A2992 RMK AO2

2010/08/10 08:55
KERY 100855Z AUTO 33003KT M1/4SM FG OVC002 19/18 A2998 RMK AO2

2010/08/10 08:55
KFFL 100855Z AUTO 02008KT 10SM OVC036 22/21 A2997 RMK AO2

2010/08/10 08:55
KFFX 100855Z AUTO 00000KT 1/2SM FG OVC002 18/18 A2995 RMK AO2

2010/08/10 08:54
KFKS 100854Z AUTO 00000KT 1/4SM FG OVC001 19/18 A2995 RMK AO2

2010/08/10 08:56
KFPK 100856Z AUTO 00000KT M1/4SM FG OVC001 18/18 A2995 RMK AO2

2010/08/10 08:54
KFSE 100854Z AUTO 12003KT 10SM CLR 18/17 A2991 RMK AO2

2010/08/10 08:55
KFSW 100855Z AUTO 00000KT 3SM CLR 27/25 A2991 RMK AO2

2010/08/10 08:55
KFXY 100855Z AUTO 10005KT 7SM BKN036 OVC042 24/23 A2993 RMK AO2

2010/08/10 08:55
KGGI 100855Z AUTO 21004KT 7SM +RA SCT015 BKN070 OVC080 23/22 A3001 RMK AO2 P0005

2010/08/10 08:55
KGOV 100855Z AUTO 31003KT 3SM BR OVC003 21/21 A2999 RMK AO2

2010/08/10 08:55
KHAF 100855Z AUTO 00000KT 3SM BR OVC002 11/11 A2992 RMK AO2

2010/08/10 08:55
KHAI 100855Z AUTO 00000KT 1/2SM FG VV005 20/20 A2996 RMK AO2

2010/08/10 08:55
KHNR 100855Z AUTO 13004KT 7SM SCT110 25/25 A2991 RMK AO2

2010/08/10 08:55
KHYX 100855Z AUTO 34003KT 7SM CLR 21/20 A2995 RMK AO2

2010/08/10 08:55
KI75 100855Z AUTO 07010G15KT 10SM CLR 22/20 A2995 RMK AO2

2010/08/10 08:55
KICL 100855Z AUTO 00000KT 7SM CLR 25/22 A2989 RMK AO2

2010/08/10 08:56
KIIB 100856Z AUTO 12003KT 4SM SCT055 23/23 A2997 RMK AO1

2010/08/10 08:55
KIKV 100855Z AUTO 15005KT 5SM +RA SCT011 BKN065 OVC075 22/21 A2998 RMK AO2 P0014

2010/08/10 08:55
KIRS 100855Z AUTO 00000KT 2SM BR CLR 20/19 A2996 RMK AO2

2010/08/10 08:55
KISQ 100855Z AUTO 00000KT 2 1/2SM BR CLR 18/17 A2996 RMK AO2 VIS 1 3/4V4

2010/08/10 08:54
KJYG 100854Z AUTO 00000KT 10SM CLR 24/24 A2992 RMK AO2 LTG DSNT S AND SW

2010/08/10 08:55
KJYM 100855Z AUTO 00000KT M1/4SM FG OVC001 19/19 A2998 RMK AO2

2010/08/10 08:55
KLDM 100855Z AUTO 00000KT 1/2SM FG OVC001 21/20 A2995 RMK AO2

2010/08/10 08:55
KLRJ 100855Z AUTO 13004KT 7SM BKN007 25/23 A2985 RMK AO2

2010/08/10 08:56
KLWA 100856Z AUTO 00000KT 4SM BR CLR 20/19 A2994 RMK AO2

2010/08/10 08:55
KMCD 100855Z AUTO 00000KT 1/4SM HZ OVC002 21/18 A2997 RMK AO2

2010/08/10 08:55
KMCJ 100855Z AUTO 00000KT 10SM CLR 28/25 A2989 RMK AO1

2010/08/10 08:55
KMGN 100855Z AUTO 00000KT 5SM BR OVC007 24/22 A2996 RMK AO2

2010/08/10 08:54
KMOP 100854Z AUTO 00000KT 2 1/2SM BR CLR 20/20 A2995 RMK AO2

2010/08/10 08:56
KMPZ 100856Z AUTO 32014G26KT 10SM SCT007 BKN011 OVC080 25/23 A2997 RMK AO2

2010/08/10 08:56
KMUT 100856Z AUTO 28014G22KT 7SM SCT030 26/23 A2994 RMK AO2

2010/08/10 08:55
KMXO 100855Z AUTO 00000KT 5SM SCT029 22/21 A2996 RMK AO2

2010/08/10 08:55
KOEB 100855Z AUTO 00000KT 3/4SM BR BKN001 BKN006 20/19 A2997 RMK AO2

2010/08/10 08:55
KOOA 100855Z AUTO 27005KT 10SM -RA SCT036 SCT043 BKN110 22/21 A3000 RMK AO2 P0067

2010/08/10 08:55
KORC 100855Z AUTO 13007KT 10SM -RA SCT002 BKN014 OVC050 26/26 A2986 RMK AO2 P0037

2010/08/10 08:56
KOSC 100856Z AUTO 32004KT OVC001 21/19 A2995 RMK AO2 PWINO

2010/08/10 08:55
KOZW 100855Z AUTO 00000KT 1/4SM FG BKN001 20/19 A2996 RMK AO2

2010/08/10 08:55
KPEA 100855Z AUTO 7SM RA SCT002 BKN018 OVC024 A3001 RMK AO2 P0026

2010/08/10 08:55
KPHN 100855Z AUTO 00000KT 1/4SM FG OVC001 17/17 A2994 RMK AO2

2010/08/10 08:54
KPZQ 100854Z AUTO 29003KT 1/2SM FG OVC001 20/19 A2997 RMK AO2

2010/08/10 08:55
KRDK 100855Z AUTO 00000KT 10SM SCT080 SCT095 27/23 A2987 RMK AO2

2010/08/10 08:55
KRGK 100855Z AUTO 00000KT 4SM BR BKN003 21/20 A2993 RMK AO2

2010/08/10 08:55
KRMY 100855Z AUTO 00000KT M1/4SM FG 20/19 A2996 RMK AO2

2010/08/10 08:55
KRNP 100855Z AUTO 00000KT 1/4SM FG BKN001 18/18 A2996 RMK AO2

2010/08/10 08:55
KLNL 100855Z AUTO 00000KT 1 1/4SM BR VV007 13/12 A3002 RMK AO2 T01300124

2010/08/10 08:55
KLUM 100855Z AUTO 00000KT 5SM BR CLR 20/20 A2996 RMK AO2

2010/08/10 08:55
KMDZ 100855Z AUTO 00000KT 7SM CLR 18/17 A3000 RMK AO2

2010/08/10 08:55
KMRJ 100855Z AUTO 06003KT 7SM CLR 24/22 A2997 RMK AO2 T02430223

2010/08/10 08:55
KMWC 100855Z AUTO 00000KT 7SM CLR 20/19 A2995 RMK AO2

2010/08/10 08:55
KOEO 100855Z AUTO 00000KT 3/4SM BR BKN001 19/18 A2996 RMK AO2 VIS 1/2V5

2010/08/10 08:55
KPBH 100855Z AUTO 00000KT 7SM CLR 18/17 A3001 RMK AO2

2010/08/10 08:55
KPCZ 100855Z AUTO 00000KT 7SM CLR 20/19 A2996 RMK AO2 T02020192

2010/08/10 08:52
KPDC 100852Z AUTO 00000KT 1/2SM FG OVC001 25/24 A2994 RMK AO2 T02450235

2010/08/10 08:55
KRCX 100855Z AUTO 00000KT 7SM CLR 19/18 A3000 RMK AO2 T01860176

2010/08/10 08:56
KRNH 100856Z AUTO 00000KT 4SM BR CLR 19/19 A2996 RMK AO2 T01930188

2010/08/10 08:55
KRPD 100855Z AUTO 00000KT 5SM BR CLR 19/19 A2999 RMK AO2 T01920190

2010/08/10 08:55
KRRL 100855Z AUTO 00000KT 5SM BR CLR 16/15 A3000 RMK AO2 T01560152

2010/08/10 08:56
KY50 100856Z AUTO 00000KT 6SM BR CLR 18/18 A2996 RMK AO2 55003 60000 T01830183 SLP137

2010/08/10 09:01
PADM 100901Z AUTO 16015KT 4SM -RA BR OVC016 09/08 A2948 RMK AO2 TSNO 51008 60006 T00940083 400940094 P0002 SLP971 $

2010/08/10 08:58
PADU 100858Z AUTO 23016G28KT 10SM FEW024 BKN070 11/07 A2968 RMK AO2 PK WND 22031/0847 SLP055 T01110067 401330100 51018

2010/08/10 08:58
PAGA 100858Z AUTO 12008KT 10SM BKN038 BKN049 OVC090 14/10 A2957 RMK AO2 SLPNO T01390100 401500139 51012

2010/08/10 08:56
PAJZ 100856Z AUTO 15009KT 1 3/4SM BR FEW003 BKN010 OVC015 10/09 A2967 RMK AO2 PWINO TSNO 51004 60001 T01000094 401270100 P0001 SLP037 $

2010/08/10 08:56
PAKI 100856Z AUTO 19015KT 4SM +RA BR OVC008 09/09 A2940 RMK AO2 TSNO 51009 60000 T00940094 401000088 CIG 007V011 P0000 SLP957 $

2010/08/10 08:56
PALG 100856Z AUTO 00000KT 10SM BKN036 11/09 A2949 RMK AO2 TSNO 51006 60000 T01110094 401380105 SLP991 $

2010/08/10 08:58
PATE 100858Z AUTO 06006KT 10SM -RA SCT060 OVC070 12/10 A2943 RMK AO2 RAB12 SLP978 P0000 60000 T01170100 401440117 51006

2010/08/10 08:56
K4I3 100856Z AUTO 27006KT 7SM CLR 23/20 A2998 RMK AO2

2010/08/10 08:55
K4M9 100855Z AUTO 00000KT 6SM BR 25/25 A2991 RMK AO2

2010/08/10 08:55
KACB 100855Z AUTO 00000KT M1/4SM FG OVC001 22/22 A2996 RMK AO2

2010/08/10 08:58
KACQ 100858Z AUTO 09006KT 10SM CLR 22/21 A2995 RMK AO2 LTG DSNT S

2010/08/10 08:56
KADC 100856Z AUTO 07003KT 10SM CLR 18/17 A2992 RMK AO2

2010/08/10 08:55
KAMN 100855Z AUTO 00000KT M1/4SM FG OVC001 18/17 A2994 RMK AO2

2010/08/10 08:55
KAUM 100855Z AUTO 13003KT 7SM CLR 23/22 A2994 RMK AO2 LTG DSNT SE AND S

2010/08/10 08:55
KAWG 100855Z AUTO 07013G26KT 1 3/4SM +RA OVC003 21/19 A2998 RMK AO2 P0198

2010/08/10 08:55
KAXA 100855Z AUTO 15008KT 4SM -RA SCT007 OVC011 25/25 A2991 RMK AO2

2010/08/10 09:05
KBAX 100905Z AUTO 34003KT 1/4SM FG OVC002 21/21 A2995 RMK AO2

2010/08/10 08:55
KBDH 100855Z AUTO 11007KT 7SM CLR 23/22 A2991 RMK AO2

2010/08/10 08:55
KBNW 100855Z AUTO 00000KT 10SM CLR 25/22 A2991 RMK AO2

2010/08/10 08:55
KBVU 100855Z AUTO 00000KT 10SM CLR 23/04 A2987 RMK AO2

2010/08/10 08:54
KCAD 100854Z AUTO 00000KT 1SM BR VV007 17/17 A2998 RMK AO2

2010/08/10 08:56
KCAE 100856Z 00000KT 6SM BR CLR 25/23 A3000 RMK AO2 SLP154 T02500228 58005

2010/08/10 08:55
KCAV 100855Z AUTO 16006KT 3 1/2SM -RA BKN006 BKN014 27/25 A2994 RMK AO2 P0001

2010/08/10 08:55
KCBF 100855Z AUTO 14005KT 10SM SCT100 27/22 A2987 RMK AO2

2010/08/10 08:55
KCBG 100855Z AUTO 00000KT 2SM BR CLR 19/17 A2994 RMK AO2

2010/08/10 08:54
KCDA 100854Z AUTO 00000KT 1/4SM FG OVC002 16/14 A2996 RMK AO2

2010/08/10 09:03
KCFE 100903Z AUTO 00000KT 10SM CLR 21/20 A2993 RMK AO2 T02080196

2010/08/10 08:55
KCFS 100855Z AUTO 34004KT 5SM BR CLR 21/21 A2995 RMK AO2

2010/08/10 08:55
KCKC 100855Z AUTO 00000KT 7SM CLR 16/14 A3001 RMK AO2

2010/08/10 08:55
KCKN 100855Z AUTO 14005KT 10SM CLR 21/19 A2989 RMK AO2

2010/08/10 08:55
KCKP 100855Z AUTO 10005KT 10SM OVC022 25/23 A2987 RMK AO2

2010/08/10 08:54
KCNB 100854Z AUTO 00000KT 3SM BR OVC045 23/22 A2989 RMK AO2 T02250221

2010/08/10 08:55
KCNC 100855Z AUTO 07014G20KT 10SM CLR 22/20 A2996 RMK AO2

2010/08/10 08:54
KRQB 100854Z AUTO 00000KT M1/4SM FG OVC001 19/19 A2997 RMK AO2

2010/08/10 08:55
KRYV 100855Z AUTO 00000KT 2SM BR CLR 22/20 A2997 RMK AO2

2010/08/10 08:59
KSAW 100859Z AUTO 00000KT 5SM BR CLR 17/16 A2997 RMK AO2

2010/08/10 08:54
KSBN 100854Z 00000KT 7SM BKN043 22/21 A2995 RMK AO2 SLP136 T02220206 58005

2010/08/10 08:55
KSDA 100855Z AUTO 00000KT 10SM CLR 25/22 A2988 RMK AO2

2010/08/10 08:55
KSHL 100855Z AUTO 22024G44KT 3SM +RA SCT005 BKN021 BKN028 25/23 A2994 RMK AO2 P0033

2010/08/10 08:55
KSJX 100855Z AUTO 00000KT 1 1/4SM BR VV007 21/20 A2996 RMK AO2

2010/08/10 08:55
KSLH 100855Z AUTO 00000KT 1/4SM FG OVC001 21/20 A2995 RMK AO2

2010/08/10 08:55
KSTE 100855Z AUTO 00000KT 10SM CLR 19/18 A2998 RMK AO2

2010/08/10 08:55
KTKV 100855Z AUTO 00000KT 2 1/2SM BR CLR 14/13 A3000 RMK AO2 VIS 1 1/4V5 T01370130

2010/08/10 08:55
KTNU 100855Z AUTO 19009KT 10SM -RA SCT013 SCT030 BKN046 23/18 A2999 RMK AO2 P0002

2010/08/10 08:54
KTTF 100854Z AUTO 00000KT 3SM BR CLR 21/21 A2994 RMK AO2

2010/08/10 08:55
KTVK 100855Z AUTO 10SM FEW006 BKN020 BKN030 23/22 A3000 RMK AO2

2010/08/10 08:55
KUES 100855Z AUTO 00000KT 5SM BR CLR 20/19 A2997 RMK AO2 T01990187

2010/08/10 08:50
KUKT 100850Z AUTO 00000KT 10SM CLR 23/21 A2995 RMK AO1

2010/08/10 08:55
KUNU 100855Z AUTO 00000KT 4SM BR CLR 21/20 A2997 RMK AO2 T02110199

2010/08/10 08:54
KVLL 100854Z AUTO 00000KT 5SM BR CLR 22/20 A2998 RMK AO2

2010/08/10 08:55
KVTI 100855Z AUTO 16003KT 4SM SCT017 BKN038 OVC047 23/23 A2997 RMK AO2

2010/08/10 08:55
KY70 100855Z AUTO 00000KT 1/2SM FG SCT003 20/20 A2995 RMK AO2 T02020197

2010/08/10 08:58
KALB 100858Z 22003KT 2SM BR SCT005 BKN019 BKN055 21/21 A2994 RMK AO2 SFC VIS 2 1/2

2010/08/10 08:58
KDEQ 100858Z AUTO 00000KT 1 3/4SM BR CLR 24/24 A2989 RMK AO2

2010/08/10 08:53
KGTB 100853Z AUTO 00000KT 10SM SCT012 OVC018 21/20 A2993 RMK AO2 SLP134

2010/08/10 08:58
KTDZ 100858Z AUTO 00000KT 3/4SM BR VV001 23/22 A2996 RMK AO2

2010/08/10 09:00
KUCP 100900Z AUTO 00000KT 2 1/2SM RA BR FEW003 BKN044 22/21 A2997 RMK AO2 RAB0857 P0002

2010/08/10 08:59
KHIE 100859Z AUTO 00000KT 3/4SM BR OVC001 17/17 A2994 RMK AO2

2010/08/10 09:00
SBEG 100900Z 00000KT CAVOK 23/22 Q1012

2010/08/10 09:00
SBCF 100900Z 17006KT CAVOK 12/09 Q1022

2010/08/10 09:00
SBUG 100900Z 20005KT CAVOK 03/02 Q1016 

2010/08/10 09:00
SBNT 100900Z 17005KT 9999 SCT025 BKN070 22/22 Q1016

2010/08/10 09:00
SBRB 100900Z 00000KT 5000 FU NSC 21/19 Q1014

2010/08/10 09:00
SBPS 100900Z 26003KT 9999 SCT020 16/16 Q1020

2010/08/10 09:00
SBPV 100900Z 00000KT 3000 FU NSC 22/19 Q1012

2010/08/10 09:00
SBCT 100900Z 07003KT 7000 OVC006 08/07 Q1025

2010/08/10 08:59
EHKD 100859Z AUTO 22012KT 9999NDV FEW009/// SCT017/// BKN021/// 18/16 Q1011 WHT WHT TEMPO GRN TEMPO SCT012 SCT015CB BKN020

2010/08/10 09:00
TFFF 100900Z AUTO 07002KT 9999NDV NCD 25/24 Q1013

2010/08/10 09:00
SBFI 100900Z 23002KT CAVOK 10/09 Q1019

2010/08/10 09:00
SBGR 100900Z 16003KT 9999 OVC023 13/12 Q1025

2010/08/10 08:56
KMEH 100856Z AUTO 00000KT 10SM CLR 07/03 A2994 RMK AO2 SLP125 T00670033 58002 TSNO 

2010/08/10 08:59
KNGU 100859Z 21004KT 10SM FEW200 26/23 A2998 RMK AO2 SLP153 T02610233 55003 

2010/08/10 09:00
AYMO 100900Z AUTO 15003KT //// // ////// 28/23 Q1010

2010/08/10 09:00
AYPY 100900Z 00000KT 9999 SCT040 BKN280 27/25 Q1010 RMKS

2010/08/10 08:55
EBFS 100855Z 23009KT 9999 BKN230 20/13 Q1015 BLU BLU

2010/08/10 08:50
EGAE 100850Z 27010KT 9999 5000W SHRA FEW009 SCT015 BKN027 14/12 Q1004

2010/08/10 08:50
EGNC 100850Z 21011KT 170V250 9999 RA FEW019 SCT025 14/10 Q1005

2010/08/10 08:50
EGPE 100850Z 32003KT 9999 FEW015 SCT030TCU 15/11 Q1004

2010/08/10 08:50
EGPO 100850Z 04004KT 330V070 9999 FEW016 17/11 Q1005

2010/08/10 08:50
EGVN 100850Z 23005KT 9999 FEW010 SCT050 BKN080 14/12 Q1010 NOSIG

2010/08/10 08:50
EKVJ 100850Z 18010KT CAVOK 20/18 Q1013

2010/08/10 08:50
LGAD 100850Z 31004KT CAVOK 30/22 Q1011

2010/08/10 08:50
LGAL 100850Z 04010KT CAVOK 34/17 Q1011

2010/08/10 08:50
LGEL 100850Z 34010KT 9999 FEW030 33/19 Q1010

2010/08/10 08:50
LGHI 100850Z 36010KT CAVOK 30/21 Q1008

2010/08/10 08:50
LGIR 100850Z 31013KT 9999 FEW020 SCT080 30/24 Q1009 NOSIG

2010/08/10 08:50
LGKC 100850Z 02009KT 330V070 9999 FEW020 29/23 Q1012

2010/08/10 08:50
LGKF 100850Z 27007KT 9999 FEW025 27/22 Q1011

2010/08/10 08:50
LGKL 100850Z 15008KT 9999 FEW025 30/21 Q1009

2010/08/10 08:50
LGKO 100850Z 34011KT CAVOK 33/20 Q1006

2010/08/10 08:50
LGKP 100850Z 32026KT 9999 FEW010 30/24 Q1005

2010/08/10 08:50
LGKR 100850Z 13005KT CAVOK 31/19 Q1010 NOSIG

2010/08/10 08:50
LGKV 100850Z 27006KT CAVOK 32/18 Q1010

2010/08/10 08:50
LGKZ 100850Z 33010KT 9999 FEW020 26/12 Q1016

2010/08/10 08:50
LGLM 100850Z 03012KT CAVOK 30/20 Q1010

2010/08/10 08:50
LGMK 100850Z 35019KT 9999 FEW012 29/22 Q1008

2010/08/10 08:50
LGMT 100850Z /////KT CAVOK 32/23 Q1008

2010/08/10 08:50
LGSA 100850Z 30011KT 9999 FEW030 31/19 Q1010

2010/08/10 08:50
LGSM 100850Z 01010KT 330V050 CAVOK 33/18 Q1006

2010/08/10 08:50
LGSO 100850Z 36013KT 9999 FEW020 30/22 Q1008

2010/08/10 08:50
LGTS 100850Z 30011KT CAVOK 29/18 Q1013 NOSIG

2010/08/10 08:50
LGZA 100850Z 02005KT CAVOK 31/22 Q1011

2010/08/10 08:50
KQEI 100850Z AUTO 11002KT 7SM -RA BKN036 25/23 A2992 RMK A02

2010/08/10 08:50
KQEJ 100850Z AUTO 05001KT 7SM -RA FEW050 BKN065 26/23 A2990 RMK A02

2010/08/10 08:50
KQEP 100850Z AUTO 15003KT 2SM RA OVC050 25/23 A2982 RMK A02

2010/08/10 08:50
KQEQ 100850Z AUTO 08002KT M1/4SM +SHRA OVC025 25/23 A2976 RMK A02

2010/08/10 08:50
KQER 100850Z AUTO 13001KT 7SM -RA BKN046 26/23 A2986 RMK A02

2010/08/10 08:50
KQEW 100850Z AUTO 02004KT 7SM SCT007 BKN048 26/24 A2980 RMK A02

2010/08/10 08:50
KQEX 100850Z AUTO 02001KT 7SM BKN050 BKN095 28/24 A2971 RMK A02

2010/08/10 08:50
KQFB 100850Z AUTO 33004KT 7SM OVC060 29/22 A2987 RMK A02

2010/08/10 08:50
KQFU 100850Z AUTO 12001KT 1SM -RA VV003 26/24 A2985 RMK A02

2010/08/10 08:50
KQFW 100850Z AUTO 15001KT 5SM SHRA OVC010 27/24 A2987 RMK A02

2010/08/10 08:55
KQBS 100855Z 15004KT 8000 HZ FEW250 46/10 A2948 RMK SLP990 WND/ALSTG/SLP/QNH ESTMD QNH998 58007

2010/08/10 08:55
KQPV 100855Z AUTO 04008KT 9999 FEW200 44/07 A2963 RMK AO2 SLP026 T04350071 58005

2010/08/10 08:55
KQRY 100855Z AUTO VRB05KT 9999 FEW130 24/13 A3008 RMK AO2 SLP089 T02390132 58011 PWINO $

2010/08/10 08:55
KQXF 100855Z AUTO 02004G12KT 9999 CLR 47/00 A2958 RMK AO2 SLP001 T04651004 57005 $

2010/08/10 09:00
KQEN 100900Z AUTO 26008KT 7SM RA BKN031 22/20 A3041 RMK A02

2010/08/10 09:00
KQEY 100900Z AUTO 16002KT 7SM -RA BKN046 26/23 A2952 RMK A02

2010/08/10 09:10
KQEV 100910Z AUTO 12003KT 7SM -SHRA SCT007 BKN065 27/24 A2972 RMK A02

2010/08/10 09:00
GOOY 100900Z 32006KT 270V340 9999 FEW013 SCT230 29/22 Q1013 NOSIG

2010/08/10 08:50
LGAV 100850Z 03013KT 010V070 9999 FEW025 32/19 Q1010 NOSIG

2010/08/10 08:50
LGIR 100850Z 31013KT 9999 FEW020 SCT080 30/24 Q1009 NOSIG

2010/08/10 08:50
LGKL 100850Z 15008KT 9999 FEW025 30/21 Q1009

2010/08/10 08:50
LGKO 100850Z 34011KT CAVOK 33/20 Q1006

2010/08/10 08:50
LGKR 100850Z 13005KT CAVOK 31/19 Q1010 NOSIG

2010/08/10 08:50
LGLM 100850Z 03012KT CAVOK 30/20 Q1010

2010/08/10 08:50
LGSA 100850Z 30011KT 9999 FEW030 31/19 Q1010

2010/08/10 08:50
LGSM 100850Z 01010KT 330V050 CAVOK 33/18 Q1006

2010/08/10 08:50
LGTS 100850Z 30011KT CAVOK 29/18 Q1013 NOSIG

2010/08/10 08:50
LGHI 100850Z 36010KT CAVOK 30/21 Q1008

2010/08/10 08:50
LGKC 100850Z 02009KT 330V070 9999 FEW020 29/23 Q1012

2010/08/10 08:50
LGKF 100850Z 27007KT 9999 FEW025 27/22 Q1011

2010/08/10 08:50
LGKP 100850Z 32026KT 9999 FEW010 30/24 Q1005

2010/08/10 08:50
LGKZ 100850Z 33010KT 9999 FEW020 26/12 Q1016

2010/08/10 08:50
LGMK 100850Z 35019KT 9999 FEW012 29/22 Q1008

2010/08/10 08:50
LGPA 100850Z 35017KT 9999 FEW025 30/23 Q1008

2010/08/10 08:50
LGSO 100850Z 36013KT 9999 FEW020 30/22 Q1008

2010/08/10 08:54
KWAL 100854Z AUTO 25005KT 6SM BR CLR 24/22 A2996 RMK AO2 SLP141 T02390222 58006 TSNO 

2010/08/10 09:00
OEDF 100900Z 13009KT 090V160 5000 DU SKC 42/20 Q0998 NOSIG

2010/08/10 09:00
OEJN 100900Z 22006KT CAVOK 39/24 Q1002 NOSIG

2010/08/10 09:00
OEMA 100900Z 00000KT 7000 NSC 43/M01 Q1006 NOSIG

2010/08/10 09:00
OERK 100900Z 01010KT 8000 SKC 43/01 Q1005 NOSIG

2010/08/10 09:00
OERY 100900Z 03009KT 8000 SKC 43/03 Q1006 NOSIG

2010/08/10 09:00
OYRN 100900Z 12010KT CAVOK 31/23 Q1003

2010/08/10 09:00
LBSF 100900Z VRB01MPS CAVOK 26/17 Q1016 NOSIG

2010/08/10 09:00
LBWN 100900Z 32004MPS 270V010 CAVOK 29/22 Q1011 WS RWY09 NOSIG

2010/08/10 09:00
LBBG 100900Z 35006MPS 310V010 CAVOK 30/21 Q1011 NOSIG

2010/08/10 09:00
LBPD 100900Z 29006MPS 250V320 CAVOK 29/19 Q1013 NOSIG

2010/08/10 09:00
LBGO 100900Z 28003MPS 240V330 CAVOK 27/19 Q1015 NOSIG

2010/08/10 09:00
LUBL 100900Z 31009KT CAVOK 26/19 Q1015 RWY33

2010/08/10 09:00
RPLC 100900Z 18011KT 160V220 9000 VCSHRA FEW020CB FEW025 OVC100 29/24 Q1008 A2978 RMK DSTNT PCPN N

2010/08/10 09:00
URMT 100900Z 10010G13MPS CAVOK 34/09 Q1012 NOSIG RMK QFE719 SC07

2010/08/10 09:00
DIAP 100900Z 25009KT 7000 SCT011 SCT020 BKN070 26/23 Q1015 NOSIG

2010/08/10 09:00
OYHD 100900Z 31015KT 6000 BKN029 37/31 Q1003

2010/08/10 09:00
LUKK 100900Z 02011KT CAVOK 31/15 Q1013 08CLRD65 NOSIG

2010/08/10 09:00
LDSP 100900Z 13004KT 030V330 CAVOK 30/12 Q1014 NOSIG 

2010/08/10 09:00
LDPL 100900Z VRB03KT CAVOK 28/16 Q1015 NOSIG 

2010/08/10 09:00
LDDU 100900Z 19005KT 140V250 CAVOK 28/12 Q1014 NOSIG 

2010/08/10 09:00
LDZA 100900Z VRB03KT 9999 FEW030 25/17 Q1017 NOSIG 

2010/08/10 09:00
LDZD 100900Z VRB03KT CAVOK 30/12 Q1014 NOSIG 

2010/08/10 09:00
LDRI 100900Z 26004KT 190V300 CAVOK 28/17 Q1015

2010/08/10 09:00
LDOS 100900Z VRB03KT CAVOK 25/16 Q1018

2010/08/10 09:00
UTTT 100900Z 32003MPS 210V360 CAVOK 37/02 Q1008 R08R/CLRD70 NOSIG

2010/08/10 08:59
CYEK 100859Z AUTO 00000KT 1SM CLR 08/08 A3008 RMK VSBY VRBL 0.4V9.+

2010/08/10 08:49
KMWN 100849Z 33021KT 80SM BCFG BKN/// FEW/// FEW000 FEW100 FEW200 09/08 RMK BCFG FEW000 TPS LWR BKN056 BBLO FEW W BCFG INTMT PTCHY VLY FG ALQDS 

2010/08/10 09:00
NWWW 100900Z AUTO 11006KT 9999NDV NCD 19/15 Q1023

2010/08/10 09:00
WSSS 100900Z 13008KT 110V200 9999 FEW022 BKN300 31/25 Q1006 NOSIG

2010/08/10 09:00
FMCZ 100900Z 16010KT 9999 FEW023 28/20 Q1017

2010/08/10 09:00
NWWL 100900Z AUTO 11015KT 9999NDV BKN026/// BKN032/// BKN040/// 22/17 Q1023

2010/08/10 09:00
NWWU 100900Z AUTO 10017KT 9999NDV BKN028/// BKN036/// OVC043/// 23/18 Q1022

2010/08/10 09:00
NWWM 100900Z AUTO 11013KT 9999NDV SCT037/// SCT045/// BKN052/// 21/18 Q1024

2010/08/10 09:00
ORSU 100900Z 01010KT 9999 FEW045 42/02 Q1010 

2010/08/10 09:01
CYTZ 100901Z AUTO 31003KT 3SM FEW046 OVC061 21/21 A2992 RMK SLP131 DENSITY ALT 1000FT RVR MISG

2010/08/10 09:00
SBKP 100900Z 11016KT CAVOK 12/10 Q1023

2010/08/10 08:55
KDMA 100855Z AUTO 17005KT 10SM CLR 26/16 A2995 RMK AO2 SLPNO T02580163 51002 VISNO RWY12 CHINO RWY12 $

2010/08/10 08:55
KHRT 100855Z 36004KT 10SM CLR 25/24 A2989 RMK AO2A SLP123 T02510244 56010 $

2010/08/10 08:55
KNBG 100855Z AUTO 00000KT 6SM HZ CLR A2992 RMK AO2 SLP132 56004 PWINO FZRANO $

2010/08/10 08:56
KNCA 100856Z AUTO 00000KT 10SM 24/24 A3001 RMK AO2 SLP164 T02390239 58005 $

2010/08/10 08:54
KNFG 100854Z 04003KT BR CLR 11/09 A2990 RMK AO2 SLP125 T01110094 50000

2010/08/10 08:56
KNMM 100856Z AUTO 00000KT 6SM BR CLR 25/23 A2995 RMK AO2 SLP145 T02500233 58005 $

2010/08/10 08:56
KNSE 100856Z AUTO 35004KT 5SM HZ CLR 25/22 A2991 RMK AO2 SLP112 T02500222 58008 $

2010/08/10 09:00
KCID 100900Z AUTO 22009KT 9SM BKN014 BKN023 OVC035 24/23 A2997 RMK AO2 LTG DSNT ALQDS

2010/08/10 09:00
KHUL 100900Z AUTO 00000KT 1 1/2SM BR CLR 13/13 A2981 RMK AO2 VIS 3/4V4

2010/08/10 09:00
KLGB 100900Z AUTO 35003KT 8SM SCT010 16/13 A2990 RMK AO2 TSNO

2010/08/10 08:54
KMCF 100854Z AUTO 08010KT 10SM SCT011 BKN017 25/25 A2987 RMK AO2 BKN V SCT CIG 010 RWY22 SLP117

2010/08/10 08:56
KMCF 100856Z AUTO 07008KT 10SM SCT011 SCT017 25/25 A2987 RMK AO2 SLP117

2010/08/10 09:00
KMSL 100900Z AUTO 00000KT 3SM BR SCT001 24/23 A2998 RMK AO2

2010/08/10 09:00
SBCG 100900Z 16005KT CAVOK 13/10 Q1019

2010/08/10 08:56
KINS 100856Z 24004KT 10SM CLR 19/M07 A2992 RMK AO2 SLP080 T01891067 50000

2010/08/10 08:56
KBIH 100856Z AUTO 36006KT 10SM CLR 16/M06 A2995 RMK AO2 SLP091 T01611061 50004 TSNO

2010/08/10 08:56
KMEH 100856Z AUTO 00000KT 10SM CLR 07/03 A2994 RMK AO2 SLP125 T00670033 58002 TSNO

2010/08/10 08:54
KWAL 100854Z AUTO 25005KT 6SM BR CLR 24/22 A2996 RMK AO2 SLP141 T02390222 58006 TSNO

2010/08/10 09:00
SBLO 100900Z 10006KT CAVOK 12/11 Q1022

2010/08/10 08:49
KMWN 100849Z 33021KT 80SM BCFG BKN/// FEW/// FEW000 FEW100 FEW200 09/08 RMK BCFG FEW000 TPS LWR BKN056 BBLO FEW W BCFG INTMT PTCHY VLY FG ALQDS

2010/08/10 09:00
SBNF 100900Z 27004KT 9999 BKN045 15/13 Q1024

2010/08/10 09:00
SBBV 100900Z 00000KT CAVOK 24/23 Q1013

2010/08/10 09:00
SBGL 100900Z 29004KT 9999 FEW012 BKN030 19/16 Q1024

2010/08/10 09:00
SBGO 100900Z 34002KT CAVOK 14/11 Q1019 

2010/08/10 09:00
SBCR 100900Z 23004KT CAVOK 16/11 Q1017

2010/08/10 08:54
PGSN 100854Z 06005KT 10SM FEW020 27/24 A2993 RMK AO2 SLP132 T02720244 53015

2010/08/10 08:54
PGUM 100854Z 07007KT 10SM FEW020 SCT110 28/23 A2992 RMK AO2 TSE18 SLP125 CB DSNT W MOV NW T02780233 53012

2010/08/10 08:52
PTKK 100852Z VRB03KT 15SM FEW014CB SCT120 OVC280 28/24 A2986 RMK CB DSNT SW-NW SLP113 8/371 T02780242 52019

2010/08/10 09:00
SBSV 100900Z 27002KT 9999 SCT017 18/18 Q1018

2010/08/10 08:53
KGTB 100853Z AUTO 00000KT 10SM SCT012 OVC018 21/20 A2993 RMK AO2 SLP134

2010/08/10 08:54
KMCF 100854Z AUTO 08010KT 10SM SCT011 BKN017 25/25 A2987 RMK AO2 BKN V SCT CIG 010 RWY22 SLP117

2010/08/10 08:56
KMCF 100856Z AUTO 07008KT 10SM SCT011 SCT017 25/25 A2987 RMK AO2 SLP117

2010/08/10 08:56
KINS 100856Z 24004KT 10SM CLR 19/M07 A2992 RMK AO2 SLP080 T01891067 50000

2010/08/10 08:55
KCFS 100855Z AUTO 34004KT 5SM BR CLR 21/21 A2995 RMK AO2

2010/08/10 08:55
KCKC 100855Z AUTO 00000KT 7SM CLR 16/14 A3001 RMK AO2

2010/08/10 08:55
KCKN 100855Z AUTO 14005KT 10SM CLR 21/19 A2989 RMK AO2

2010/08/10 08:54
KCNB 100854Z AUTO 00000KT 3SM BR OVC045 23/22 A2989 RMK AO2 T02250221

2010/08/10 08:55
KCNC 100855Z AUTO 07014G20KT 10SM CLR 22/20 A2996 RMK AO2

2010/08/10 08:56
KCOQ 100856Z AUTO 33003KT 7SM CLR 18/16 A2997 RMK AO2

2010/08/10 08:57
KCQM 100857Z AUTO 00000KT 7SM CLR 17/17 A2996 RMK AO2

2010/08/10 08:55
KCSQ 100855Z AUTO 09013KT 10SM CLR 23/21 A2994 RMK AO2

2010/08/10 08:55
KCVX 100855Z AUTO 00000KT 3SM BR OVC005 23/21 A2998 RMK AO2

2010/08/10 08:55
KDEH 100855Z AUTO 00000KT 4SM CLR 24/22 A2999 RMK AO2

2010/08/10 08:55
KDNS 100855Z AUTO 11011G16KT 7SM SCT007 SCT110 27/23 A2991 RMK AO2

2010/08/10 08:57
KDRM 100857Z AUTO 00000KT 1/2SM FG OVC001 17/17 A2994 RMK AO2

2010/08/10 08:55
KDTL 100855Z AUTO 13004KT 10SM CLR 21/17 A2993 RMK AO2

2010/08/10 08:54
KDUH 100854Z AUTO 00000KT 1/4SM FG OVC001 21/19 A2996 RMK AO2

2010/08/10 08:55
KEBS 100855Z AUTO 29004KT 10SM -RA SCT021 SCT034 SCT070 23/22 A2992 RMK AO2 P0001

2010/08/10 08:55
KEOK 100855Z AUTO 22004KT 7SM SCT110 28/25 A2992 RMK AO2

2010/08/10 08:55
KERY 100855Z AUTO 33003KT M1/4SM FG OVC002 19/18 A2998 RMK AO2

2010/08/10 08:55
KFFL 100855Z AUTO 02008KT 10SM OVC036 22/21 A2997 RMK AO2

2010/08/10 08:55
KFFX 100855Z AUTO 00000KT 1/2SM FG OVC002 18/18 A2995 RMK AO2

2010/08/10 08:54
KFKS 100854Z AUTO 00000KT 1/4SM FG OVC001 19/18 A2995 RMK AO2

2010/08/10 08:56
KFPK 100856Z AUTO 00000KT M1/4SM FG OVC001 18/18 A2995 RMK AO2

2010/08/10 08:54
KFSE 100854Z AUTO 12003KT 10SM CLR 18/17 A2991 RMK AO2

2010/08/10 08:55
KFSW 100855Z AUTO 00000KT 3SM CLR 27/25 A2991 RMK AO2

2010/08/10 08:55
KFXY 100855Z AUTO 10005KT 7SM BKN036 OVC042 24/23 A2993 RMK AO2

2010/08/10 08:55
KGGI 100855Z AUTO 21004KT 7SM +RA SCT015 BKN070 OVC080 23/22 A3001 RMK AO2 P0005

2010/08/10 08:55
KGOV 100855Z AUTO 31003KT 3SM BR OVC003 21/21 A2999 RMK AO2

2010/08/10 08:55
KHAF 100855Z AUTO 00000KT 3SM BR OVC002 11/11 A2992 RMK AO2

2010/08/10 08:55
KHAI 100855Z AUTO 00000KT 1/2SM FG VV005 20/20 A2996 RMK AO2

2010/08/10 08:55
KHNR 100855Z AUTO 13004KT 7SM SCT110 25/25 A2991 RMK AO2

2010/08/10 08:55
KHYX 100855Z AUTO 34003KT 7SM CLR 21/20 A2995 RMK AO2

2010/08/10 08:55
KICL 100855Z AUTO 00000KT 7SM CLR 25/22 A2989 RMK AO2

2010/08/10 08:56
KIIB 100856Z AUTO 12003KT 4SM SCT055 23/23 A2997 RMK AO1

2010/08/10 08:55
KIKV 100855Z AUTO 15005KT 5SM +RA SCT011 BKN065 OVC075 22/21 A2998 RMK AO2 P0014

2010/08/10 08:55
KIRS 100855Z AUTO 00000KT 2SM BR CLR 20/19 A2996 RMK AO2

2010/08/10 08:55
KISQ 100855Z AUTO 00000KT 2 1/2SM BR CLR 18/17 A2996 RMK AO2 VIS 1 3/4V4

2010/08/10 08:54
KJYG 100854Z AUTO 00000KT 10SM CLR 24/24 A2992 RMK AO2 LTG DSNT S AND SW

2010/08/10 08:55
KJYM 100855Z AUTO 00000KT M1/4SM FG OVC001 19/19 A2998 RMK AO2

2010/08/10 08:55
KLDM 100855Z AUTO 00000KT 1/2SM FG OVC001 21/20 A2995 RMK AO2

2010/08/10 08:55
KLRJ 100855Z AUTO 13004KT 7SM BKN007 25/23 A2985 RMK AO2

2010/08/10 08:56
KLWA 100856Z AUTO 00000KT 4SM BR CLR 20/19 A2994 RMK AO2

2010/08/10 08:55
KMCD 100855Z AUTO 00000KT 1/4SM HZ OVC002 21/18 A2997 RMK AO2

2010/08/10 08:55
KMCJ 100855Z AUTO 00000KT 10SM CLR 28/25 A2989 RMK AO1

2010/08/10 08:55
KMGN 100855Z AUTO 00000KT 5SM BR OVC007 24/22 A2996 RMK AO2

2010/08/10 08:54
KMOP 100854Z AUTO 00000KT 2 1/2SM BR CLR 20/20 A2995 RMK AO2

2010/08/10 08:56
KMPZ 100856Z AUTO 32014G26KT 10SM SCT007 BKN011 OVC080 25/23 A2997 RMK AO2

2010/08/10 08:56
KMUT 100856Z AUTO 28014G22KT 7SM SCT030 26/23 A2994 RMK AO2

2010/08/10 08:55
KMXO 100855Z AUTO 00000KT 5SM SCT029 22/21 A2996 RMK AO2

2010/08/10 08:55
KOEB 100855Z AUTO 00000KT 3/4SM BR BKN001 BKN006 20/19 A2997 RMK AO2

2010/08/10 08:55
KOOA 100855Z AUTO 27005KT 10SM -RA SCT036 SCT043 BKN110 22/21 A3000 RMK AO2 P0067

2010/08/10 08:55
KORC 100855Z AUTO 13007KT 10SM -RA SCT002 BKN014 OVC050 26/26 A2986 RMK AO2 P0037

2010/08/10 08:56
KOSC 100856Z AUTO 32004KT OVC001 21/19 A2995 RMK AO2 PWINO

2010/08/10 08:55
KOZW 100855Z AUTO 00000KT 1/4SM FG BKN001 20/19 A2996 RMK AO2

2010/08/10 08:55
KPEA 100855Z AUTO 7SM RA SCT002 BKN018 OVC024 A3001 RMK AO2 P0026

2010/08/10 08:55
KPHN 100855Z AUTO 00000KT 1/4SM FG OVC001 17/17 A2994 RMK AO2

2010/08/10 08:55
KRDK 100855Z AUTO 00000KT 10SM SCT080 SCT095 27/23 A2987 RMK AO2

2010/08/10 08:55
OPLA 100855Z 15008KT 3500 FU SCT040 BKN100 30/26 Q1002 RETSRA NOSIG

2010/08/10 08:55
OPSK 100855Z 05004KT 6000 HZ SCT040 FEW100 36/27 QNH 1000 R.H.63PC

2010/08/10 09:00
UTTT 100900Z 32003MPS 210V360 CAVOK 37/02 Q1008 R08R/CLRD70 NOSIG

2010/08/10 08:55
PGUA 100855Z AUTO 09009KT 10SM -RA SCT019 SCT025 BKN034 BKN048 OVC055 27/24 A2993 RMK AO2 RAB0847 CIG 018 RWY24L SLP117 P0000 60000 T02660244 53017 $

2010/08/10 08:55
PHHI 100855Z AUTO 08009KT 10SM SCT037 SCT045 23/17 A3013 RMK AO2 SLP190 T02340171 51011 $

2010/08/10 08:53
PHNL 100853Z 06010G19KT 10SM FEW042 26/18 A3010 RMK AO2 SLP192 T02560178 50011

2010/08/10 08:55
PWAK 100855Z 07014KT 8SM FEW021 28/24 A3004 RMK AO2A

2010/08/10 08:53
KRYT 100853Z AUTO 00000KT 10SM CLR 23/19 A2996 RMK AO2 SLP126 T02280194 53002 $

2010/08/10 08:55
KDMA 100855Z AUTO 17005KT 10SM CLR 26/16 A2995 RMK AO2 SLPNO T02580163 51002 VISNO RWY12 CHINO RWY12 $

2010/08/10 08:55
KFFO 100855Z 00000KT 10SM CLR 24/22 A2997 RMK AO2A SLP143 56001

2010/08/10 08:55
KHOP 100855Z AUTO 00000KT 10SM CLR 25/25 A2995 RMK AO2 SLP137 T02540249 58007

2010/08/10 08:56
KNCA 100856Z AUTO 00000KT 10SM 24/24 A3001 RMK AO2 SLP164 T02390239 58005 $

2010/08/10 08:54
KNFG 100854Z 04003KT BR CLR 11/09 A2990 RMK AO2 SLP125 T01110094 50000

2010/08/10 08:56
KNLC 100856Z AUTO 31011KT 10SM CLR 22/12 A2981 RMK AO2 SLP091 T02220122 58004 TSNO

2010/08/10 08:56
KNTD 100856Z AUTO 00000KT 9SM OVC007 14/13 A2990 RMK AO2 SLP125 T01440133 57002 TSNO $

2010/08/10 08:56
KNTU 100856Z 24005KT 10SM FEW200 23/22 A2997 RMK AO2 SLP150 T02330222 56004 $

2010/08/10 08:55
KNYL 100855Z AUTO 25003KT 10SM CLR 28/02 A2975 RMK AO2 SLP070 T02780022 50000

2010/08/10 08:55
KVBG 100855Z AUTO 00000KT 10SM OVC003 13/12 A2992 RMK AO2 SLP122 T01280117 58006 TSNO CHINO RWY12 $

2010/08/10 08:56
K79J 100856Z AUTO 00000KT 6SM BR CLR 24/22 A2993 RMK AO2 SLP129 6//// T02440222 55004 TSNO PNO $

2010/08/10 08:56
KHLR 100856Z AUTO 18006KT 10SM CLR 28/23 A2992 RMK AO2 SLP122 T02780233 56016 $

2010/08/10 08:56
KNFL 100856Z AUTO 28006KT 10SM CLR 21/03 A2994 RMK AO2 SLP113 T02060028 51005 TSNO

2010/08/10 08:56
KNID 100856Z AUTO 00000KT CLR 22/05 A2984 RMK AO2 SLP083 T02220050 58000 TSNO $

2010/08/10 08:56
KNMM 100856Z AUTO 00000KT 6SM BR CLR 25/23 A2995 RMK AO2 SLP145 T02500233 58005 $

2010/08/10 08:56
KNPA 100856Z AUTO 33004KT 6SM BR CLR 26/24 A2990 RMK AO2 SLP125 T02560244 58006

2010/08/10 08:56
KNQI 100856Z AUTO 00000KT 7SM CLR 27/25 A2989 RMK AO2 SLP117 T02720250 58014 $

2010/08/10 08:56
KNRS 100856Z AUTO 23003KT 10SM OVC015 17/15 A2991 RMK AO2 SLP126 T01720150 58005 TSNO

2010/08/10 08:56
KNUQ 100856Z AUTO 00000KT 10SM OVC008 15/13 A2990 RMK AO2 SLP128 T01500128 58008 TSNO

2010/08/10 08:56
KNUW 100856Z 00000KT 7SM FEW005 BKN010 OVC040 15/11 A2995 RMK AO2 SLP146 T01470108 58005 $

2010/08/10 08:56
KNXX 100856Z AUTO 00000KT 10SM CLR 24/19 A2994 RMK AO2 SLP142 T02440194 56004 $

2010/08/10 08:52
KNZY 100852Z 25003KT 10SM OVC013 19/14 A2989 RMK AO2 SLP123 T01940139 58003 $

2010/08/10 08:56
PASY 100856Z AUTO 27009KT 1SM BR VV001 09/09 A2989 RMK AO2 SLP123 6//// T00890089 401280083 53009 TSNO PNO $

2010/08/10 08:56
PHBK 100856Z AUTO 00000KT 10SM SCT060 26/14 A3010 RMK AO2 SLP196 T02560144 51015 TSNO $

2010/08/10 08:56
K79J 100856Z AUTO 00000KT 6SM BR CLR 24/22 A2993 RMK AO2 SLP129 6//// T02440222 55004 TSNO PNO $

2010/08/10 08:55
KCVS 100855Z 19003KT 10SM CLR 19/15 A3008 RMK AO2A SLP140 T01900150 57002 $

2010/08/10 08:55
KDMA 100855Z AUTO 17005KT 10SM CLR 26/16 A2995 RMK AO2 SLPNO T02580163 51002 VISNO RWY12 CHINO RWY12 $

2010/08/10 08:55
KFCS 100855Z AUTO 30007KT 10SM OVC100 16/13 A3014 RMK AO2 SLP129 T01640127 50003

2010/08/10 08:55
KFFO 100855Z 00000KT 10SM CLR 24/22 A2997 RMK AO2A SLP143 56001

2010/08/10 08:55
KHOP 100855Z AUTO 00000KT 10SM CLR 25/25 A2995 RMK AO2 SLP137 T02540249 58007

2010/08/10 08:55
KHRT 100855Z 36004KT 10SM CLR 25/24 A2989 RMK AO2A SLP123 T02510244 56010 $

2010/08/10 08:55
KLSV 100855Z AUTO 29003KT 10SM CLR 25/M02 A2983 RMK AO2 SLP085 T02551018 58002 PWINO

2010/08/10 08:55
KNBG 100855Z AUTO 00000KT 6SM HZ CLR A2992 RMK AO2 SLP132 56004 PWINO FZRANO $

2010/08/10 08:56
KNCA 100856Z AUTO 00000KT 10SM 24/24 A3001 RMK AO2 SLP164 T02390239 58005 $

2010/08/10 08:50
LTAC 100850Z VRB04KT 9999 FEW040 32/05 Q1014 NOSIG

2010/08/10 08:50
LTAF 100850Z /////KT 9999 SCT035 33/21 Q1006 NOSIG

2010/08/10 08:50
LTAI 100850Z 17005KT 110V200 9999 SCT030 BKN100 30/24 Q1007 NOSIG

2010/08/10 08:50
LTBA 100850Z 02010KT 340V110 9999 SCT035 32/22 Q1010 NOSIG

2010/08/10 08:50
LTBJ 100850Z 35013KT CAVOK 34/20 Q1007 NOSIG

2010/08/10 08:50
LTBS 100850Z 23010KT CAVOK 31/24 Q1006 NOSIG

2010/08/10 08:55
KLNL 100855Z AUTO 00000KT 1 1/4SM BR VV007 13/12 A3002 RMK AO2 T01300124

2010/08/10 08:55
KLUM 100855Z AUTO 00000KT 5SM BR CLR 20/20 A2996 RMK AO2

2010/08/10 08:55
KMDZ 100855Z AUTO 00000KT 7SM CLR 18/17 A3000 RMK AO2

2010/08/10 08:55
KMRJ 100855Z AUTO 06003KT 7SM CLR 24/22 A2997 RMK AO2 T02430223

2010/08/10 08:55
KMWC 100855Z AUTO 00000KT 7SM CLR 20/19 A2995 RMK AO2

2010/08/10 08:55
KOEO 100855Z AUTO 00000KT 3/4SM BR BKN001 19/18 A2996 RMK AO2 VIS 1/2V5

2010/08/10 08:55
KPBH 100855Z AUTO 00000KT 7SM CLR 18/17 A3001 RMK AO2

2010/08/10 08:55
KPCZ 100855Z AUTO 00000KT 7SM CLR 20/19 A2996 RMK AO2 T02020192

2010/08/10 08:52
KPDC 100852Z AUTO 00000KT 1/2SM FG OVC001 25/24 A2994 RMK AO2 T02450235

2010/08/10 08:55
KRCX 100855Z AUTO 00000KT 7SM CLR 19/18 A3000 RMK AO2 T01860176

2010/08/10 08:56
KRNH 100856Z AUTO 00000KT 4SM BR CLR 19/19 A2996 RMK AO2 T01930188

2010/08/10 08:55
KRPD 100855Z AUTO 00000KT 5SM BR CLR 19/19 A2999 RMK AO2 T01920190

2010/08/10 08:55
KRRL 100855Z AUTO 00000KT 5SM BR CLR 16/15 A3000 RMK AO2 T01560152

2010/08/10 08:56
KY50 100856Z AUTO 00000KT 6SM BR CLR 18/18 A2996 RMK AO2 55003 60000 T01830183 SLP137

2010/08/10 08:53
PHJR 100853Z AUTO 07005KT 10SM CLR 25/17 A3011 RMK AO2 SLP204 T02500172 51012 TSNO

2010/08/10 08:54
PHMK 100854Z AUTO 04009G15KT 10SM CLR 23/18 A3012 RMK AO2 SLP198 60000 T02330178 51011 TSNO

2010/08/10 08:56
KSGH 100856Z AUTO 00000KT 4SM BR CLR 22/22 A2999 RMK AO2 56002 T02160216 SLP146 $

2010/08/10 08:56
KNSE 100856Z AUTO 35004KT 5SM HZ CLR 25/22 A2991 RMK AO2 SLP112 T02500222 58008 $

2010/08/10 08:56
KIWA 100856Z AUTO 35003KT 10SM CLR 31/12 A2984 RMK AO2

2010/08/10 08:56
PPIZ 100856Z AUTO 06018G26KT 10SM FEW011 04/03 A2967 RMK AO2 TSNO 53004 T00440027 400830022 PK WND 05029/0808 SLP051 $

2010/08/10 08:56
KNSE 100856Z AUTO 35004KT 5SM HZ CLR 25/22 A2991 RMK AO2 SLP112 T02500222 58008 $

2010/08/10 08:56
KSGH 100856Z AUTO 00000KT 4SM BR CLR 22/22 A2999 RMK AO2 56002 T02160216 SLP146 $

2010/08/10 08:58
PADU 100858Z AUTO 23016G28KT 10SM FEW024 BKN070 11/07 A2968 RMK AO2 PK WND 22031/0847 SLP055 T01110067 401330100 51018

2010/08/10 08:58
PAGA 100858Z AUTO 12008KT 10SM BKN038 BKN049 OVC090 14/10 A2957 RMK AO2 SLPNO T01390100 401500139 51012

2010/08/10 08:56
PAJZ 100856Z AUTO 15009KT 1 3/4SM BR FEW003 BKN010 OVC015 10/09 A2967 RMK AO2 PWINO TSNO 51004 60001 T01000094 401270100 P0001 SLP037 $

2010/08/10 08:56
PAKI 100856Z AUTO 19015KT 4SM +RA BR OVC008 09/09 A2940 RMK AO2 TSNO 51009 60000 T00940094 401000088 CIG 007V011 P0000 SLP957 $

2010/08/10 08:56
PALG 100856Z AUTO 00000KT 10SM BKN036 11/09 A2949 RMK AO2 TSNO 51006 60000 T01110094 401380105 SLP991 $

2010/08/10 08:58
PATE 100858Z AUTO 06006KT 10SM -RA SCT060 OVC070 12/10 A2943 RMK AO2 RAB12 SLP978 P0000 60000 T01170100 401440117 51006

2010/08/10 08:56
K4I3 100856Z AUTO 27006KT 7SM CLR 23/20 A2998 RMK AO2

2010/08/10 08:55
K4M9 100855Z AUTO 00000KT 6SM BR 25/25 A2991 RMK AO2

2010/08/10 08:55
KACB 100855Z AUTO 00000KT M1/4SM FG OVC001 22/22 A2996 RMK AO2

2010/08/10 08:58
KACQ 100858Z AUTO 09006KT 10SM CLR 22/21 A2995 RMK AO2 LTG DSNT S

2010/08/10 08:56
KADC 100856Z AUTO 07003KT 10SM CLR 18/17 A2992 RMK AO2

2010/08/10 08:55
KAMN 100855Z AUTO 00000KT M1/4SM FG OVC001 18/17 A2994 RMK AO2

2010/08/10 08:55
KAUM 100855Z AUTO 13003KT 7SM CLR 23/22 A2994 RMK AO2 LTG DSNT SE AND S

2010/08/10 08:55
KAWG 100855Z AUTO 07013G26KT 1 3/4SM +RA OVC003 21/19 A2998 RMK AO2 P0198

2010/08/10 08:55
KAXA 100855Z AUTO 15008KT 4SM -RA SCT007 OVC011 25/25 A2991 RMK AO2

2010/08/10 08:55
KBDH 100855Z AUTO 11007KT 7SM CLR 23/22 A2991 RMK AO2

2010/08/10 08:55
KBNW 100855Z AUTO 00000KT 10SM CLR 25/22 A2991 RMK AO2

2010/08/10 08:55
KBVU 100855Z AUTO 00000KT 10SM CLR 23/04 A2987 RMK AO2

2010/08/10 08:54
KCAD 100854Z AUTO 00000KT 1SM BR VV007 17/17 A2998 RMK AO2

2010/08/10 08:55
KCAV 100855Z AUTO 16006KT 3 1/2SM -RA BKN006 BKN014 27/25 A2994 RMK AO2 P0001

2010/08/10 08:55
KCBF 100855Z AUTO 14005KT 10SM SCT100 27/22 A2987 RMK AO2

2010/08/10 08:55
KCBG 100855Z AUTO 00000KT 2SM BR CLR 19/17 A2994 RMK AO2

2010/08/10 08:54
KCDA 100854Z AUTO 00000KT 1/4SM FG OVC002 16/14 A2996 RMK AO2

2010/08/10 09:01
PADM 100901Z AUTO 16015KT 4SM -RA BR OVC016 09/08 A2948 RMK AO2 TSNO 51008 60006 T00940083 400940094 P0002 SLP971 $

2010/08/10 09:05
KBAX 100905Z AUTO 34003KT 1/4SM FG OVC002 21/21 A2995 RMK AO2

2010/08/10 09:03
KCFE 100903Z AUTO 00000KT 10SM CLR 21/20 A2993 RMK AO2 T02080196

2010/08/10 08:56
KNJK 100856Z AUTO 00000KT 10SM CLR 25/05 A2973 RMK AO2 SLP083 T02500050 50003 TSNO

2010/08/10 08:57
KNJM 100857Z AUTO 27003KT 10SM SCT017 27/25 A3001 RMK AO2 SLP165 T02670250 56004

2010/08/10 08:56
KNRS 100856Z AUTO 23003KT 10SM OVC015 17/15 A2991 RMK AO2 SLP126 T01720150 58005 TSNO

2010/08/10 08:56
KNUQ 100856Z AUTO 00000KT 10SM OVC008 15/13 A2990 RMK AO2 SLP128 T01500128 58008 TSNO

2010/08/10 08:54
KNFG 100854Z 04003KT BR CLR 11/09 A2990 RMK AO2 SLP125 T01110094 50000

2010/08/10 08:56
KNID 100856Z AUTO 00000KT CLR 22/05 A2984 RMK AO2 SLP083 T02220050 58000 TSNO $

2010/08/10 08:55
KNKX 100855Z 00000KT 10SM OVC010 17/14 A2990 RMK AO2 SLP120 T01720139 58003

2010/08/10 08:56
KNLC 100856Z AUTO 31011KT 10SM CLR 22/12 A2981 RMK AO2 SLP091 T02220122 58004 TSNO

2010/08/10 08:56
KNMM 100856Z AUTO 00000KT 6SM BR CLR 25/23 A2995 RMK AO2 SLP145 T02500233 58005 $

2010/08/10 08:56
KNQI 100856Z AUTO 00000KT 7SM CLR 27/25 A2989 RMK AO2 SLP117 T02720250 58014 $

2010/08/10 08:56
KNTD 100856Z AUTO 00000KT 9SM OVC007 14/13 A2990 RMK AO2 SLP125 T01440133 57002 TSNO $

2010/08/10 08:56
KNTU 100856Z 24005KT 10SM FEW200 23/22 A2997 RMK AO2 SLP150 T02330222 56004 $

2010/08/10 08:56
KNYG 100856Z AUTO 22007KT 8SM CLR 26/21 A2995 RMK AO2 SLP141 T02560206 58003 $

2010/08/10 08:55
KNYL 100855Z AUTO 25003KT 10SM CLR 28/02 A2975 RMK AO2 SLP070 T02780022 50000

2010/08/10 08:55
KNYL 100855Z AUTO 25003KT 10SM CLR 28/02 A2975 RMK AO2 SLP070 T02780022 50000

2010/08/10 08:52
KNZY 100852Z 25003KT 10SM OVC013 19/14 A2989 RMK AO2 SLP123 T01940139 58003 $

2010/08/10 08:55
KVBG 100855Z AUTO 00000KT 10SM OVC003 13/12 A2992 RMK AO2 SLP122 T01280117 58006 TSNO CHINO RWY12 $

2010/08/10 08:59
KNGU 100859Z 21004KT 10SM FEW200 26/23 A2998 RMK AO2 SLP153 T02610233 55003

2010/08/10 08:55
KDMA 100855Z AUTO 17005KT 10SM CLR 26/16 A2995 RMK AO2 SLPNO T02580163 51002 VISNO RWY12 CHINO RWY12 $

2010/08/10 08:55
KHRT 100855Z 36004KT 10SM CLR 25/24 A2989 RMK AO2A SLP123 T02510244 56010 $

2010/08/10 08:55
KNBG 100855Z AUTO 00000KT 6SM HZ CLR A2992 RMK AO2 SLP132 56004 PWINO FZRANO $

2010/08/10 08:56
KNCA 100856Z AUTO 00000KT 10SM 24/24 A3001 RMK AO2 SLP164 T02390239 58005 $

2010/08/10 08:54
KNFG 100854Z 04003KT BR CLR 11/09 A2990 RMK AO2 SLP125 T01110094 50000

2010/08/10 08:56
KNMM 100856Z AUTO 00000KT 6SM BR CLR 25/23 A2995 RMK AO2 SLP145 T02500233 58005 $

2010/08/10 08:56
KBIH 100856Z AUTO 36006KT 10SM CLR 16/M06 A2995 RMK AO2 SLP091 T01611061 50004 TSNO

2010/08/10 08:56
KMEH 100856Z AUTO 00000KT 10SM CLR 07/03 A2994 RMK AO2 SLP125 T00670033 58002 TSNO

2010/08/10 08:54
KWAL 100854Z AUTO 25005KT 6SM BR CLR 24/22 A2996 RMK AO2 SLP141 T02390222 58006 TSNO

2010/08/10 08:58
KALB 100858Z 22003KT 2SM BR SCT005 BKN019 BKN055 21/21 A2994 RMK AO2 SFC VIS 2 1/2

2010/08/10 09:00
KCID 100900Z AUTO 22009KT 9SM BKN014 BKN023 OVC035 24/23 A2997 RMK AO2 LTG DSNT ALQDS

2010/08/10 08:55
KRGK 100855Z AUTO 00000KT 4SM BR BKN003 21/20 A2993 RMK AO2

2010/08/10 08:55
KRMY 100855Z AUTO 00000KT M1/4SM FG 20/19 A2996 RMK AO2

2010/08/10 08:55
KRNP 100855Z AUTO 00000KT 1/4SM FG BKN001 18/18 A2996 RMK AO2

2010/08/10 08:54
KRQB 100854Z AUTO 00000KT M1/4SM FG OVC001 19/19 A2997 RMK AO2

2010/08/10 08:55
KRYV 100855Z AUTO 00000KT 2SM BR CLR 22/20 A2997 RMK AO2

2010/08/10 08:59
KSAW 100859Z AUTO 00000KT 5SM BR CLR 17/16 A2997 RMK AO2

2010/08/10 08:55
KSDA 100855Z AUTO 00000KT 10SM CLR 25/22 A2988 RMK AO2

2010/08/10 08:55
KSHL 100855Z AUTO 22024G44KT 3SM +RA SCT005 BKN021 BKN028 25/23 A2994 RMK AO2 P0033

2010/08/10 08:55
KSJX 100855Z AUTO 00000KT 1 1/4SM BR VV007 21/20 A2996 RMK AO2

2010/08/10 08:55
KSLH 100855Z AUTO 00000KT 1/4SM FG OVC001 21/20 A2995 RMK AO2

2010/08/10 08:55
KSTE 100855Z AUTO 00000KT 10SM CLR 19/18 A2998 RMK AO2

2010/08/10 08:55
KTNU 100855Z AUTO 19009KT 10SM -RA SCT013 SCT030 BKN046 23/18 A2999 RMK AO2 P0002

2010/08/10 08:54
KTTF 100854Z AUTO 00000KT 3SM BR CLR 21/21 A2994 RMK AO2

2010/08/10 08:55
KTVK 100855Z AUTO 10SM FEW006 BKN020 BKN030 23/22 A3000 RMK AO2

2010/08/10 08:55
KUES 100855Z AUTO 00000KT 5SM BR CLR 20/19 A2997 RMK AO2 T01990187

2010/08/10 08:50
KUKT 100850Z AUTO 00000KT 10SM CLR 23/21 A2995 RMK AO1

2010/08/10 08:55
KUNU 100855Z AUTO 00000KT 4SM BR CLR 21/20 A2997 RMK AO2 T02110199

2010/08/10 08:54
KVLL 100854Z AUTO 00000KT 5SM BR CLR 22/20 A2998 RMK AO2

2010/08/10 08:55
KY70 100855Z AUTO 00000KT 1/2SM FG SCT003 20/20 A2995 RMK AO2 T02020197

2010/08/10 08:56
KNSE 100856Z AUTO 35004KT 5SM HZ CLR 25/22 A2991 RMK AO2 SLP112 T02500222 58008 $

2010/08/10 08:50
LTAD 100850Z 14006KT 090V200 9999 FEW040 32/08 Q1013 NOSIG RMK RWY29 VRB03KT

2010/08/10 08:50
LTAG 100850Z 29006KT 9999 SCT035 33/22 Q1006 NOSIG

2010/08/10 08:50
LTAH 100850Z VRB03KT CAVOK 31/12 Q1014 RMK RWY13 VRB03KT

2010/08/10 08:50
LTAJ 100850Z 18004KT 100V220 CAVOK 35/13 Q1008 NOSIG

2010/08/10 08:50
LTAN 100850Z 34014KT 9999 FEW040 32/12 Q1013 NOSIG RMK RWY19 36013KT

2010/08/10 08:50
LTAN 100850Z 34014KT 9999 FEW040 32/12 Q1013 NOSIG

2010/08/10 08:50
LTAP 100850Z 18003KT 100V230 CAVOK 30/14 Q1010 NOSIG RMK RWY23 16004KT 070V230

2010/08/10 08:50
LTAT 100850Z 10005KT CAVOK 34/07 Q1010 NOSIG RMK RWY03 10005KT

2010/08/10 08:50
LTAU 100850Z 07004KT 030V110 9999 FEW040 30/07 Q1014 NOSIG RMK RWY07 VRB06KT

2010/08/10 08:50
LTAU 100850Z 07004KT 030V110 9999 FEW040 30/07 Q1014 NOSIG

2010/08/10 08:50
LTBF 100850Z 02012KT 350V050 9999 SCT035 32/20 Q1009 NOSIG RMK RWY18 02013KT

2010/08/10 08:50
LTBG 100850Z 02016KT 350V050 9999 SCT035 30/23 Q1010 NOSIG RMK RWY18 03015KT

2010/08/10 08:50
LTBI 100850Z VRB02KT 9999 FEW040 31/14 Q1013 NOSIG RMK RWY09 07004KT 340V140

2010/08/10 08:50
LTBL 100850Z 34010KT CAVOK 35/21 Q1007 NOSIG RMK RWY17 01012KT

2010/08/10 08:50
LTBQ 100850Z VRB04KT 9999 FEW035 32/22 Q1010 NOSIG RMK RWY09 04006KT 350V080

2010/08/10 08:50
LTCC 100850Z 01006KT 280V080 CAVOK 35/01 Q1007 NOSIG RMK RWY16 VRB03KT

2010/08/10 08:50
LTCC 100850Z 01006KT 280V080 CAVOK 35/01 Q1007 NOSIG

2010/08/10 08:50
LTCG 100850Z 34006KT 9999 FEW035 SCT100 31/23 Q1008 NOSIG

2010/08/10 08:50
LTCI 100850Z 30009KT 290V360 9999 FEW040 28/11 Q1016 NOSIG

2010/08/10 08:50
LTFE 100850Z 28012KT 9999 FEW035 35/20 Q1005 NOSIG

2010/08/10 08:55
EBFS 100855Z 23009KT 9999 BKN230 20/13 Q1015 BLU BLU

2010/08/10 08:53
PHKO 100853Z AUTO 09005KT 10SM CLR 23/17 A3005 RMK AO2 SLP176 T02330172 50009 TSNO

2010/08/10 08:54
PHOG 100854Z 04010KT 10SM OVC050 26/18 A3011 RMK AO2 SLP200 T02560183

2010/08/10 08:53
PHTO 100853Z AUTO 24003KT 10SM FEW031 SCT065 23/19 A3012 RMK AO2 SLP198 T02280189 51013 TSNO

2010/08/10 08:56
PHNY 100856Z AUTO 03009KT 10SM CLR 21/18 A3015 RMK AO2 TSNO 51009 T02110177 SLP188 $

2010/08/10 08:56
KCAE 100856Z 00000KT 6SM BR CLR 25/23 A3000 RMK AO2 SLP154 T02500228 58005

2010/08/10 08:55
KCKP 100855Z AUTO 10005KT 10SM OVC022 25/23 A2987 RMK AO2

2010/08/10 08:54
KPZQ 100854Z AUTO 29003KT 1/2SM FG OVC001 20/19 A2997 RMK AO2

2010/08/10 08:54
KSBN 100854Z 00000KT 7SM BKN043 22/21 A2995 RMK AO2 SLP136 T02220206 58005

2010/08/10 08:55
KTKV 100855Z AUTO 00000KT 2 1/2SM BR CLR 14/13 A3000 RMK AO2 VIS 1 1/4V5 T01370130

2010/08/10 08:55
KVTI 100855Z AUTO 16003KT 4SM SCT017 BKN038 OVC047 23/23 A2997 RMK AO2

2010/08/10 08:49
KMWN 100849Z 33021KT 80SM BCFG BKN/// FEW/// FEW000 FEW100 FEW200 09/08 RMK BCFG FEW000 TPS LWR BKN056 BBLO FEW W BCFG INTMT PTCHY VLY FG ALQDS

2010/08/10 08:58
KDEQ 100858Z AUTO 00000KT 1 3/4SM BR CLR 24/24 A2989 RMK AO2

2010/08/10 08:58
KTDZ 100858Z AUTO 00000KT 3/4SM BR VV001 23/22 A2996 RMK AO2

2010/08/10 09:00
KUCP 100900Z AUTO 00000KT 2 1/2SM RA BR FEW003 BKN044 22/21 A2997 RMK AO2 RAB0857 P0002

2010/08/10 08:59
KHIE 100859Z AUTO 00000KT 3/4SM BR OVC001 17/17 A2994 RMK AO2

2010/08/10 09:00
KHUL 100900Z AUTO 00000KT 1 1/2SM BR CLR 13/13 A2981 RMK AO2 VIS 3/4V4

2010/08/10 09:00
KLGB 100900Z AUTO 35003KT 8SM SCT010 16/13 A2990 RMK AO2 TSNO

2010/08/10 09:00
KMSL 100900Z AUTO 00000KT 3SM BR SCT001 24/23 A2998 RMK AO2

2010/08/10 08:50
EDHL 100850Z 16007KT 130V200 CAVOK 22/20 Q1015 RMK M

2010/08/10 08:50
EDLN 100850Z VRB04KT CAVOK 22/16 Q1014 RMK ATIS I

2010/08/10 08:50
EDLP 100850Z 19007KT CAVOK 23/10 Q1015 RMK RWY24 TRL60 OK ATIS N

2010/08/10 08:50
EDLW 100850Z 21007KT CAVOK 22/13 Q1015 RMK ATIS L

2010/08/10 09:00
KFSD 100900Z VRB04KT 10SM TS FEW008 OVC014CB 25/23 A2985 RMK AO2 TSB00 CONS LTGIC SE-SW TS SW MOV NE $ 

2010/08/10 08:50
EDNY 100850Z VRB03KT 9999 FEW035 20/14 Q1018 RMK ATIS K

2010/08/10 08:50
EDXW 100850Z 17013KT 9999 FEW011 20/16 Q1013 RMK ATIS INFO F

2010/08/10 08:50
EKVJ 100850Z 18010KT CAVOK 20/18 Q1013

2010/08/10 08:50
LGKP 100850Z 32026KT 9999 FEW010 30/24 Q1005

2010/08/10 08:50
LGKZ 100850Z 33010KT 9999 FEW020 26/12 Q1016

2010/08/10 08:50
LGMK 100850Z 35019KT 9999 FEW012 29/22 Q1008

2010/08/10 08:50
LGPZ 100850Z 27005KT CAVOK 31/24 Q1011 NOSIG

2010/08/10 08:50
LGRX 100850Z 00000KT CAVOK 32/20 Q1010 NOSIG

2010/08/10 08:50
LGZA 100850Z 02005KT CAVOK 31/22 Q1011

2010/08/10 08:50
LGAD 100850Z 31004KT CAVOK 30/22 Q1011

2010/08/10 08:50
LGAL 100850Z 04010KT CAVOK 34/17 Q1011

2010/08/10 08:50
LGAV 100850Z 03013KT 010V070 9999 FEW025 32/19 Q1010 NOSIG

2010/08/10 08:50
LGEL 100850Z 34010KT 9999 FEW030 33/19 Q1010

2010/08/10 08:50
LGIR 100850Z 31013KT 9999 FEW020 SCT080 30/24 Q1009 NOSIG

2010/08/10 08:50
LGKF 100850Z 27007KT 9999 FEW025 27/22 Q1011

2010/08/10 08:50
LGKL 100850Z 15008KT 9999 FEW025 30/21 Q1009

2010/08/10 08:50
LGKO 100850Z 34011KT CAVOK 33/20 Q1006

2010/08/10 08:50
LGKR 100850Z 13005KT CAVOK 31/19 Q1010 NOSIG

2010/08/10 08:50
LGKV 100850Z 27006KT CAVOK 32/18 Q1010

2010/08/10 08:50
LGLM 100850Z 03012KT CAVOK 30/20 Q1010

2010/08/10 08:50
LGMT 100850Z /////KT CAVOK 32/23 Q1008

2010/08/10 08:50
LGSA 100850Z 30011KT 9999 FEW030 31/19 Q1010

2010/08/10 08:50
LGSM 100850Z 01010KT 330V050 CAVOK 33/18 Q1006

2010/08/10 08:50
LGSR 100850Z 34015KT CAVOK 31/22 Q1007 NOSIG

2010/08/10 08:50
LGTS 100850Z 30011KT CAVOK 29/18 Q1013 NOSIG

2010/08/10 08:50
LCEN 100850Z 06005KT 9999 FEW025 34/21 Q1006 NOSIG

2010/08/10 08:50
ENEK 100850Z 14007KT 9999 FEW005 FEW010TCU BKN045 16/13 Q1006 W16/S3

2010/08/10 08:50
ENOL 100850Z 35004KT 9999 FEW003 BKN008 14/12 Q1011 BECMG BKN012

2010/08/10 08:50
ENVD 100850Z 11007KT 9999 FEW010 BKN038 10/07 Q1013

2010/08/10 08:58
KALB 100858Z 22003KT 2SM BR SCT005 BKN019 BKN055 21/21 A2994

2010/08/10 08:50
EGNH 100850Z 23015KT 9999 FEW012 SCT026 16/11 Q1007

2010/08/10 08:50
EGNJ 100850Z 21011KT 9999 FEW010 SCT013 16/14 Q1007

2010/08/10 08:50
EGAE 100850Z 27010KT 9999 5000W SHRA FEW009 SCT015 BKN027 14/12 Q1004

2010/08/10 08:50
EGDL 100850Z 22008KT 9999 SCT006 BKN011 BKN050 13/12 Q1011 TEMPO SCT007

2010/08/10 08:50
EGNC 100850Z 21011KT 170V250 9999 RA FEW019 SCT025 14/10 Q1005

2010/08/10 08:50
EGPA 100850Z 24006KT 190V270 9999 SCT015 16/12 Q1004

2010/08/10 08:50
EGPC 100850Z VRB02KT 9999 FEW020 15/12 Q1004

2010/08/10 08:50
EGPC 100850Z VRB02KT 9999 FEW020 15/12 Q1004

2010/08/10 08:50
EGPE 100850Z 32003KT 9999 FEW015 SCT030TCU 15/11 Q1004

2010/08/10 08:50
EGPL 100850Z 01007KT 9999 FEW012 16/11 Q1005

2010/08/10 08:50
EGPM 100850Z 11014KT 6000 VCSH SCT004 BKN006 15/14 Q1005 TEMPO 4000 TSRA BKN006 BKN012CB

2010/08/10 08:50
EGPN 100850Z 07004KT 350V120 9999 SHRA SCT018CB BKN035 14/11 Q1004

2010/08/10 08:50
EGPO 100850Z 04004KT 330V070 9999 FEW016 17/11 Q1005

2010/08/10 08:50
EGPU 100850Z 01010KT 350V050 9999 VCSH SCT014CB SCT020 13/11 Q1002

2010/08/10 09:01
CYWA 100901Z AUTO 00000KT 2SM CLR 14/14 A2990 RMK VSBY VRBL 0.9V8.0

2010/08/10 08:50
EGDM 100850Z 22009KT 9999 -RA FEW007 BKN050 OVC090 14/12 Q1011 RERA BLU BECMG BKN020 WHT

2010/08/10 08:50
EGDR 100850Z 23014KT 2500 RA FEW000 SCT001 OVC004 16/16 Q1010 RED

2010/08/10 08:50
EGDX 100850Z 24005KT 6000 DZ FEW010 SCT015 BKN050 15/13 Q1010 WHT

2010/08/10 08:50
EGDY 100850Z 19008KT 9999 FEW008 SCT040 OVC070 14/12 Q1011 RERA BLU

2010/08/10 08:50
EGOM 100850Z 21015KT 9999 -SHRA SCT016 BKN040 12/10 Q1004 WHT

2010/08/10 08:50
EGOP 100850Z AUTO 23009KT 9999NDV // BKN008/// BKN014/// 14/13 Q1009

2010/08/10 08:50
EGOW 100850Z 24015KT 9999 FEW015 15/11 Q1007 BLU

2010/08/10 08:50
EGQK 100850Z 24001KT 9999 FEW022CB SCT100 15/10 Q1004 BLU NOSIG

2010/08/10 08:50
EGUY 100850Z 22010KT 9999 FEW020 SCT060 BKN140 15/12 Q1010 BLU

2010/08/10 08:50
EGVN 100850Z 23005KT 9999 FEW010 SCT050 BKN080 14/12 Q1010 BLU NOSIG

2010/08/10 08:50
EGWC 100850Z 23010KT 9999 BKN022 16/12 Q1009 WHT

2010/08/10 08:50
EGXJ 100850Z 24007KT 9999 FEW010 SCT090 14/13 Q1008 BLU TEMPO SCT016 WHT

2010/08/10 08:50
EGXT 100850Z 23010KT 9999 FEW010 BKN040 BKN150 16/12 Q1009 BLU TEMPO 7000 SHRA SCT020 WHT

2010/08/10 08:50
EGXU 100850Z 22008KT 9999 FEW025 BKN050 15/12 Q1007 BLU NOSIG

2010/08/10 08:50
EGXX 100850Z 22009KT 9999 FEW012 SCT030 BKN160 16/14 Q1008 BLU

2010/08/10 08:50
EGXZ 100850Z 18005KT 9999 FEW007 BKN022 14/13 Q1007 WHT

2010/08/10 08:50
EGYH 100850Z 24014KT 9999 FEW009 SCT016 BKN250 16/// Q1009 WHT

2010/08/10 08:50
EEKA 100850Z 22009KT 9999 SCT023 BKN034 19/15 Q1013

2010/08/10 08:50
EEKE 100850Z 24013KT 9999 BKN021 20/16 Q1014

2010/08/10 08:50
EEPU 100850Z 21013KT 9999 BKN027 22/16 Q1014

2010/08/10 08:50
EETU 100850Z AUTO 25010KT 9999NDV NCD 23/16 Q1015

2010/08/10 08:58
KSMP 100858Z AUTO VRB05KT 1/4SM FG SCT001 BKN015 OVC022 08/08 A2997 RMK AO2 TSNO $ 

2010/08/10 09:00
SBFL 100900Z 00000KT 9999 BKN025 14/11 Q1025

2010/08/10 09:00
SBGL 100900Z 29004KT 9999 FEW012 BKN030 19/16 Q1024

2010/08/10 09:00
SCAR 100900Z 08005KT CAVOK 09/05 Q1015

2010/08/10 09:00
SCFA 100900Z 33006KT 9999 OVC019 13/08 Q1016

2010/08/10 09:00
SCAT 100900Z 35003KT 320V030 7000 OVC013 10/07 Q1018

2010/08/10 09:00
SCVM 100900Z 10003KT 4000 BR OVC040 06/06 Q1016

2010/08/10 09:00
SCIE 100900Z 18003KT CAVOK 04/02 Q1016

2010/08/10 09:00
SBTE 100900Z 19003KT CAVOK 21/19 Q1014

2010/08/10 09:00
SBCZ 100900Z 00000KT 8000 NSC 19/19 Q1013

2010/08/10 09:00
SBRP 100900Z 13007KT CAVOK 15/12 Q1021

2010/08/10 09:00
SBMQ 100900Z 30001KT 9999 FEW015 SCT090 25/24 Q1013

2010/08/10 09:00
SBVT 100900Z 22006KT 9999 FEW020 SCT100 21/18 Q1022

2010/08/10 09:00
SBAR 100900Z 12005KT 9999 FEW015 24/20 Q1018

2010/08/10 09:00
SBJP 100900Z 20006KT 9999 BKN020 BKN070 23/21 Q1017 

2010/08/10 09:00
SBRJ 100900Z 22003KT 9999 SCT025 BKN090 21/16 Q1023

2010/08/10 09:00
SBFL 100900Z 00000KT 9999 BKN025 14/11 Q1025

2010/08/10 09:00
YSDU 100900Z AUTO 35014KT 9999NDV // ////// 14/13 Q1011

2010/08/10 08:58
KALB 100858Z 22003KT 2SM BR SCT005 BKN019 BKN055 21/21 A2994

2010/08/10 09:00
YSDU 100900Z AUTO 35014KT 9999NDV // ////// 14/13 Q1011

2010/08/10 09:00
KNEL 100900Z AUTO 00000KT 7SM BKN070 BKN085 23/20 A2992 RMK AO2 SLP131 T02330200 56006 $ 

2010/08/10 09:01
KCON 100901Z AUTO 00000KT 3SM BR SCT049 BKN060 OVC070 21/21 A2990 RMK AO2 

2010/08/10 09:00
SCIE 100900Z 18003KT CAVOK 04/02 Q1016

2010/08/10 09:00
SCTC 100900Z VRB01KT 0100 FG VV/// M00/M01 Q1018

2010/08/10 09:00
SCTE 100900Z 18007KT 9999 OVC006 7/06 Q1022 NOSIG

2010/08/10 09:00
SCON 100900Z AUTO VRB01KT CAVOK 03/03 Q1023

2010/08/10 09:00
SCFT 100900Z AUTO 28002KT 0900 R/////// FG VV001 M02/M03 Q1024

2010/08/10 09:00
SCBA 100900Z AUTO 28004KT CAVOK M04/M05 Q1021

2010/08/10 09:00
SCCI 100900Z 30009KT 9999 FEW016 SCT100 04/01 Q1004 NOSIG

2010/08/10 09:00
LZIB 100900Z 00000KT 9999 FEW026 23/16 Q1018

2010/08/10 09:00
LZKZ 100900Z 35004KT 300V040 CAVOK 24/14 Q1018 NOSIG

2010/08/10 09:00
LZTT 100900Z VRB03KT 9999 SCT031 21/13 Q1019 NOSIG

2010/08/10 09:00
YAMB 100900Z AUTO 21005KT 3300NDV // SCT003 OVC007 18/18 Q1017

2010/08/10 09:00
OJAI 100900Z 27010KT 7000 NSC 32/12 Q1009 NOSIG

2010/08/10 09:00
OJAM 100900Z 36004KT 5000 HZ NSC 32/07 Q1010 NOSIG

2010/08/10 09:00
OJAQ 100900Z 36018KT 8000 NSC 34/20 Q1005

2010/08/10 09:00
LZPP 100900Z 27002KT 9999 FEW020 22/16 Q1018

2010/08/10 09:00
LZSL 100900Z 20002KT 9999 FEW040 24/15 Q1018

2010/08/10 09:00
LZZI 100900Z VRB01KT 9999 FEW025 20/14 Q1018

2010/08/10 09:00
LHBP 100900Z VRB05KT 9999 FEW035 24/16 Q1018 NOSIG

2010/08/10 09:00
DTTB 100900Z 18002KT CAVOK 31/14 Q1017

2010/08/10 09:00
DTTD 100900Z 11006KT CAVOK 26/15 Q1018

2010/08/10 09:00
DTTK 100900Z 27002KT CAVOK 32/12 Q1016

2010/08/10 09:00
DTTL 100900Z 08004KT CAVOK 31/15 Q1016

2010/08/10 09:00
DTTN 100900Z 22002KT CAVOK 31/12 Q1015

2010/08/10 09:00
DTTR 100900Z 06014KT CAVOK 30/09 Q1017

2010/08/10 08:58
KALB 100858Z 22003KT 2SM BR SCT005 BKN019 BKN055 21/21 A2994

2010/08/10 09:00
TTPP 100900Z 00000KT 9999 FEW016 BKN280 24/23 Q1013 NOSIG

2010/08/10 09:00
TTCP 100900Z 16005KT 9999 FEW016 SCT300 27/23 Q1013 NOSIG

2010/08/10 09:00
OJAI 100900Z 27010KT 7000 NSC 32/12 Q1009 NOSIG

2010/08/10 09:00
OJAM 100900Z 36004KT 5000 HZ NSC 32/07 Q1010 NOSIG

2010/08/10 09:00
OJAQ 100900Z 36018KT 8000 NSC 34/20 Q1005

2010/08/10 09:00
LQTZ 100900Z VRB02KT 9999 FEW045 25/// Q1018

2010/08/10 09:00
TFFF 100900Z AUTO 07002KT 9999NDV NCD 25/24 Q1013

2010/08/10 08:57
PHNG 100857Z AUTO 07010G16KT 10SM SCT027 SCT036 26/20 A3012 RMK AO2 SLP195 T02560200 51011 $ 

2010/08/10 08:59
CYAH 100859Z AUTO 28002KT 9SM OVC009 OVC053 11/10 A2987

2010/08/10 09:00
GGOV 100900Z 30003KT 250V340 4000 RA BKN005 SCT014TCU OVC090 25/24 Q1014 NOSIG

2010/08/10 08:50
EGXP 100850Z 24011KT 9999 FEW010 SCT040 14/13 Q1008 BLU

2010/08/10 08:55
EBBL 100855Z 22005KT 9999 BKN190 22/11 Q1014 BLU BLU

2010/08/10 08:55
EBFN 100855Z 19013KT 9999 FEW015 SCT022 BKN200 19/15 Q1013 WHT WHT

2010/08/10 08:55
EBFS 100855Z 23009KT 9999 BKN230 20/13 Q1015 BLU BLU

2010/08/10 08:50
EDHL 100850Z 16007KT 130V200 CAVOK 22/20 Q1015 RMK M

2010/08/10 08:50
EDLN 100850Z VRB04KT CAVOK 22/16 Q1014 RMK ATIS I

2010/08/10 08:50
EDLP 100850Z 19007KT CAVOK 23/10 Q1015 RMK RWY24 TRL60 OK ATIS N

2010/08/10 08:50
EDLW 100850Z 21007KT CAVOK 22/13 Q1015 RMK ATIS L

2010/08/10 08:50
EDNY 100850Z VRB03KT 9999 FEW035 20/14 Q1018 RMK ATIS K

2010/08/10 08:50
EDXW 100850Z 17013KT 9999 FEW011 20/16 Q1013 RMK ATIS INFO F

2010/08/10 08:55
EHAM 100855Z 18010KT 150V210 9999 FEW012 BKN015 18/15 Q1012 NOSIG

2010/08/10 08:55
EHGG 100855Z AUTO 19010KT 160V230 9999NDV BKN022 20/15 Q1012 NOSIG

2010/08/10 08:55
EHKD 100855Z AUTO 22013KT 9999NDV -RA FEW009/// BKN011/// BKN014/// 18/15 Q1011 GRN WHT TEMPO GRN TEMPO SCT012 SCT015CB BKN020

2010/08/10 08:55
EHRD 100855Z 19008KT 160V220 9999 SCT016 BKN020 19/15 Q1012 NOSIG

2010/08/10 08:50
EKVJ 100850Z 18010KT CAVOK 20/18 Q1013

2010/08/10 08:55
ETIK 100855Z AUTO 00000KT 9999 -RA CLR 22/13 A3007 RMK AO2 RAB0852 SLP172 P0000 60000 T02220129 53003 $

2010/08/10 08:50
ETUO 100850Z 15003KT 9999 FEW045 22/13 Q1015 BLU

2010/08/10 09:00
SBCF 100900Z 17006KT CAVOK 12/09 Q1022

2010/08/10 09:00
SBCG 100900Z 16005KT CAVOK 13/10 Q1019

2010/08/10 09:00
SBCT 100900Z 07003KT 7000 OVC006 08/07 Q1025

2010/08/10 09:00
SBEG 100900Z 00000KT CAVOK 23/22 Q1012

2010/08/10 09:00
SBFI 100900Z 23002KT CAVOK 10/09 Q1019

2010/08/10 09:00
SBFZ 100900Z 14010KT 9999 FEW017 SCT090 24/20 Q1015

2010/08/10 09:00
SBGR 100900Z 16003KT 9999 OVC023 13/12 Q1025

2010/08/10 09:00
SBKP 100900Z 11016KT CAVOK 12/10 Q1023

2010/08/10 09:00
SBNT 100900Z 17005KT 9999 SCT025 BKN070 22/22 Q1016

2010/08/10 09:00
SBPV 100900Z 00000KT 3000 FU NSC 22/19 Q1012

2010/08/10 09:00
SBRB 100900Z 00000KT 5000 FU NSC 21/19 Q1014

2010/08/10 09:00
SBUG 100900Z 20005KT CAVOK 03/02 Q1016

2010/08/10 09:00
SGAS 100900Z 19006KT CAVOK 11/07 Q1019

2010/08/10 09:00
SGAS 100900Z 19006KT CAVOK 11/07 Q1019

2010/08/10 09:00
SGES 100900Z 18006KT CAVOK 12/11 Q1020

2010/08/10 09:00
SGES 100900Z 18006KT CAVOK 12/19 Q1020

2010/08/10 09:00
SOCA 100900Z VRB01KT 9999 FEW020 BKN120 23/23 Q1013 NOSIG

2010/08/10 09:00
SVBC 100900Z 00000KT 9999 FEW010 25/21 Q1012

2010/08/10 09:00
SVMI 100900Z 00000KT 9999 FEW016 28/24 Q1011 NOSIG

2010/08/10 08:55
KHUA 100855Z AUTO RMK AO2 SLPNO PWINO PNO TSNO $

2010/08/10 08:55
KLUF 100855Z AUTO 00000KT 10SM FEW120 28/15 A2980 RMK AO2 SLP062 T02830153 50001 $

2010/08/10 08:56
KNBC 100856Z AUTO 00000KT 10SM CLR 27/25 A2999 RMK AO2 SLP155 T02670250 55005 $

2010/08/10 08:56
KNXP 100856Z AUTO 29004KT CLR 23/00 A2992 RMK AO2 SLP094 T02330000 58001 $

2010/08/10 08:55
KTBN 100855Z AUTO 17004KT 10SM CLR 25/23 A2995 RMK AO2 SLP116 T02460229 57005 $

2010/08/10 09:00
LQTZ 100900Z VRB02KT 9999 FEW045 25/// Q1018

2010/08/10 08:50
MUCM 100850Z 03004KT 350V070 9000 FEW025 BKN300 24/22 Q1014

2010/08/10 08:55
MUCU 100855Z 00000KT 9000 SCT020 26/24 Q1014

2010/08/10 08:50
MUHG 100850Z 09004KT 5000 VCFG FEW020 25/23 Q1013

2010/08/10 08:51
MUVR 100851Z 17005KT 130V240 9000 FEW018 OVC070 22/21 Q1013

2010/08/10 09:00
NTAA 100900Z 08004KT 9999 FEW020 22/16 Q1018 WS ALL RWY NOSIG

2010/08/10 09:00
OEMA 100900Z 00000KT 7000 NSC 43/M01 Q1006 NOSIG

2010/08/10 09:00
OERK 100900Z 01010KT 8000 SKC 43/01 Q1005 NOSIG

2010/08/10 09:00
OERY 100900Z 03009KT 8000 SKC 43/03 Q1006 NOSIG

2010/08/10 09:00
OJAI 100900Z 27010KT 7000 NSC 32/12 Q1009 NOSIG

2010/08/10 09:00
OJAM 100900Z 36004KT 5000 HZ NSC 32/07 Q1010 NOSIG

2010/08/10 09:00
OJAQ 100900Z 36018KT 8000 NSC 34/20 Q1005

2010/08/10 09:00
OKBK 100900Z 11005KT 6000 NSC 43/16 Q0999 NOSIG

2010/08/10 09:00
OLBA 100900Z 24006KT 8000 SCT026 31/22 Q1009 NOSIG

2010/08/10 08:58
PAGA 100858Z AUTO 12008KT 10SM BKN038 BKN049 OVC090 14/10 A2957 RMK AO2 SLPNO T01390100 401500139 51012

2010/08/10 09:00
TAPA 100900Z 09009KT 9999 RESH FEW017 26/24 Q1013

2010/08/10 09:00
TFFF 100900Z AUTO 07002KT 9999NDV NCD 25/24 Q1013

2010/08/10 08:55
TXKF 100855Z 17008KT 9999 FEW015 FEW180 SCT300 27/23 Q1020 /

2010/08/10 09:00
WSAP 100900Z 14005KT 9999 FEW020 BKN300 31/25 Q1006

2010/08/10 09:00
WSSS 100900Z 13008KT 110V200 9999 FEW022 BKN300 31/25 Q1006 NOSIG

2010/08/10 08:56
KCHS 100856Z 14003KT 10SM FEW025 27/25 A3000 RMK AO2 SLP158 T02670250 55002

2010/08/10 08:55
KLFI 100855Z 22005KT 10SM CLR 25/23 A2997 RMK AO2A SLP149 T02520226 56005

2010/08/10 08:56
KNBC 100856Z AUTO 00000KT 10SM CLR 27/25 A2999 RMK AO2 SLP155 T02670250 55005 $

2010/08/10 08:55
KNBG 100855Z AUTO 00000KT 6SM HZ CLR A2992 RMK AO2 SLP132 56004 PWINO FZRANO $

2010/08/10 08:56
KNCA 100856Z AUTO 00000KT 10SM 24/24 A3001 RMK AO2 SLP164 T02390239 58005 $

2010/08/10 08:57
KNJM 100857Z AUTO 27003KT 10SM SCT017 27/25 A3001 RMK AO2 SLP165 T02670250 56004

2010/08/10 08:56
KNPA 100856Z AUTO 33004KT 6SM BR CLR 26/24 A2990 RMK AO2 SLP125 T02560244 58006

2010/08/10 08:56
KNTU 100856Z 24005KT 10SM FEW200 23/22 A2997 RMK AO2 SLP150 T02330222 56004 $

2010/08/10 08:56
MUGM 100856Z 33004KT 9999 FEW025 SCT250 26/23 A2991 RMKS SLP128 T02560233 57009

2010/08/10 09:00
MYNN 100900Z 19004KT 9999 SCT020 OVC080 25/24 A2993

2010/08/10 09:00
TFFF 100900Z AUTO 07002KT 9999NDV NCD 25/24 Q1013

2010/08/10 09:00
TFFR 100900Z 13003KT 9999 SCT020 SCT050 25/24 Q1013 TEMPO 4000 SHRA

2010/08/10 08:55
TXKF 100855Z 17008KT 9999 FEW015 FEW180 SCT300 27/23 Q1020 /

2010/08/10 08:55
KQAE 100855Z 02007KT 8000 DU HZ CLR 47/07 A2961 RMK SLP021 50002

2010/08/10 08:55
KQLE 100855Z 20007G15KT 6000 DU SKC 39/00 A2972 RMK SLP979 T03930003 58014 PA3133 DA6577

2010/08/10 08:55
KQXJ 100855Z 36017G23KT 9999 SKC 49/01 A2951 RMK SLP999 57009 PA+401 DA+4216

2010/08/10 08:54
KWAL 100854Z AUTO 25005KT 6SM BR CLR 24/22 A2996 RMK AO2 SLP141 T02390222 58006 TSNO 

2010/08/10 08:50
ENHV 100850Z 22009KT 9999 FEW016 12/08 Q1012

2010/08/10 09:00
GMFK 100900Z 18003KT 9999 SCT030 31/17 Q1023

2010/08/10 09:00
GMFM 100900Z 23006KT CAVOK 35/11 Q1019

2010/08/10 09:00
GMFO 100900Z 36009KT 9999 FEW033 30/19 Q1019 NOSIG

2010/08/10 09:00
GMMC 100900Z 06003KT 5000 NSC 33/19 Q1013

2010/08/10 09:00
GMMH 100900Z 36010KT 6000 SCT008 BKN200 22/19 Q1015

2010/08/10 09:00
GMML 100900Z 03008KT 8000 BKN100 25/21 Q1016

2010/08/10 09:00
GMMW 100900Z 00000KT 6000 SCT016 SCT100 27/21 Q1018

2010/08/10 09:00
GMMZ 100900Z VRB03KT 8000 NSC 30/11 Q1025

2010/08/10 09:00
GMAD 100900Z 20003KT 5000 SCT004 BKN016 20/19 Q1015 NOSIG

2010/08/10 09:00
GMME 100900Z 32004KT 280V350 5000 NSC 32/19 Q1015 NOSIG

2010/08/10 09:00
GMMX 100900Z 08006KT 8000 SCT100 33/14 Q1017 NOSIG

2010/08/10 09:00
GMTT 100900Z 08006KT CAVOK 33/14 Q1016 NOSIG

2010/08/10 09:00
YBCS 100900Z 00000KT 9999 FEW005 BKN017 OVC025 24/23 Q1014

2010/08/10 09:00
YBCS 100900Z 00000KT 9999 FEW005 BKN017 OVC025 24/23 Q1014

2010/08/10 09:00
UTST 100900Z 30006MPS CAVOK 37/05 Q1005 R88/CLRD70 NOSIG

2010/08/10 09:00
UKLR 100900Z 00000MPS 9999 SCT026CB BKN200 25/18 Q1017 30090070 NOSIG

2010/08/10 09:00
UKLI 100900Z 00000MPS CAVOK 24/17 Q1017 28090070 NOSIG

2010/08/10 09:00
UKON 100900Z 03006MPS 350V060 CAVOK 34/15 Q1011 05090075 NOSIG

2010/08/10 09:00
UKCM 100900Z 07006MPS 030V130 CAVOK 36/14 Q1011 02010065 NOSIG

2010/08/10 09:00
UKCW 100900Z 06004MPS 340V130 CAVOK 39/06 Q1013 0909//70 NOSIG

2010/08/10 09:00
UKLU 100900Z 32002MPS 9999 SCT033 24/17 Q1018 10090070 NOSIG

2010/08/10 09:00
UKKK 100900Z 06002MPS 020V100 7000 NSC 29/19 Q1015 26CLRD70 NOSIG

2010/08/10 09:00
UKKM 100900Z 08002MPS 020V120 CAVOK 29/18 Q1015 33CLRD70 NOSIG

2010/08/10 09:00
UKLN 100900Z 31004MPS 270V340 9999 SCT033CB BKN100 21/18 Q1018 3309//70 NOSIG

2010/08/10 09:00
OYAS 100900Z 20004G14KT 9000 BKN040 33/24 Q1007

2010/08/10 08:50
EGAE 100850Z 27010KT 9999 5000W SHRA FEW009 SCT015 BKN027 14/12 Q1004

2010/08/10 08:50
EGDM 100850Z 22009KT 9999 -RA FEW007 BKN050 OVC090 14/12 Q1011 RERA BLU BECMG BKN020 WHT

2010/08/10 08:50
EGDR 100850Z 23014KT 2500 RA FEW000 SCT001 OVC004 16/16 Q1010 RED

2010/08/10 08:50
EGDY 100850Z 19008KT 9999 FEW008 SCT040 OVC070 14/12 Q1011 RERA BLU

2010/08/10 08:50
EGNC 100850Z 21011KT 170V250 9999 RA FEW019 SCT025 14/10 Q1005

2010/08/10 08:50
EGNJ 100850Z 21011KT 9999 FEW010 SCT013 16/14 Q1007

2010/08/10 08:50
EGOM 100850Z 21015KT 9999 -SHRA SCT016 BKN040 12/10 Q1004 WHT

2010/08/10 08:50
EGOP 100850Z AUTO 23009KT 9999NDV // BKN008/// BKN014/// 14/13 Q1009

2010/08/10 08:50
EGPC 100850Z VRB02KT 9999 FEW020 15/12 Q1004

2010/08/10 08:50
EGPE 100850Z 32003KT 9999 FEW015 SCT030TCU 15/11 Q1004

2010/08/10 08:50
EGPO 100850Z 04004KT 330V070 9999 FEW016 17/11 Q1005

2010/08/10 08:50
EGPU 100850Z 01010KT 350V050 9999 VCSH SCT014CB SCT020 13/11 Q1002

2010/08/10 08:50
EGQK 100850Z 24001KT 9999 FEW022CB SCT100 15/10 Q1004 BLU NOSIG

2010/08/10 08:50
EGVN 100850Z 23005KT 9999 FEW010 SCT050 BKN080 14/12 Q1010 NOSIG

2010/08/10 08:50
EGWC 100850Z 23010KT 9999 BKN022 16/12 Q1009 WHT

2010/08/10 08:50
EGXJ 100850Z 24007KT 9999 FEW010 SCT090 14/13 Q1008 BLU TEMPO SCT016 WHT

2010/08/10 08:50
EGXT 100850Z 23010KT 9999 FEW010 BKN040 BKN150 16/12 Q1009 BLU TEMPO 7000 SHRA SCT020 WHT

2010/08/10 08:50
EGXU 100850Z 22008KT 9999 FEW025 BKN050 15/12 Q1007 BLU NOSIG

2010/08/10 08:50
EGXZ 100850Z 18005KT 9999 FEW007 BKN022 14/13 Q1007 WHT

2010/08/10 08:50
EGYH 100850Z 24014KT 9999 FEW009 SCT016 BKN250 16/// Q1009 WHT

2010/08/10 08:55
EBBL 100855Z 22005KT 9999 BKN190 22/11 Q1014 BLU BLU

2010/08/10 08:55
EBFN 100855Z 19013KT 9999 FEW015 SCT022 BKN200 19/15 Q1013 WHT WHT

2010/08/10 08:50
EGDY 100850Z 19008KT 9999 FEW008 SCT040 OVC070 14/12 Q1011 RERA BLU

2010/08/10 08:50
EGOM 100850Z 21015KT 9999 -SHRA SCT016 BKN040 12/10 Q1004 WHT

2010/08/10 08:50
EGXJ 100850Z 24007KT 9999 FEW010 SCT090 14/13 Q1008 BLU TEMPO SCT016 WHT

2010/08/10 08:50
EGXT 100850Z 23010KT 9999 FEW010 BKN040 BKN150 16/12 Q1009 BLU TEMPO 7000 SHRA SCT020 WHT

2010/08/10 08:50
ENEK 100850Z 14007KT 9999 FEW005 FEW010TCU BKN045 16/13 Q1006 W16/S3

2010/08/10 08:50
ENOL 100850Z 35004KT 9999 FEW003 BKN008 14/12 Q1011 BECMG BKN012

2010/08/10 08:50
ENVD 100850Z 11007KT 9999 FEW010 BKN038 10/07 Q1013

2010/08/10 09:00
LBBG 100900Z 35006MPS 310V010 CAVOK 30/21 Q1011 NOSIG

2010/08/10 09:00
LBGO 100900Z 28003MPS 240V330 CAVOK 27/19 Q1015 NOSIG

2010/08/10 09:00
LBPD 100900Z 29006MPS 250V320 CAVOK 29/19 Q1013 NOSIG

2010/08/10 09:00
LBSF 100900Z VRB01MPS CAVOK 26/17 Q1016 NOSIG

2010/08/10 09:00
LBWN 100900Z 32004MPS 270V010 CAVOK 29/22 Q1011 WS RWY09 NOSIG

2010/08/10 09:00
LDDU 100900Z 19005KT 140V250 CAVOK 28/12 Q1014 NOSIG

2010/08/10 09:00
LDPL 100900Z VRB03KT CAVOK 28/16 Q1015 NOSIG

2010/08/10 09:00
LDRI 100900Z 26004KT 190V300 CAVOK 28/17 Q1015

2010/08/10 09:00
LDSP 100900Z 13004KT 030V330 CAVOK 30/12 Q1014 NOSIG

2010/08/10 09:00
LDZA 100900Z VRB03KT 9999 FEW030 25/17 Q1017 NOSIG

2010/08/10 09:00
LDZD 100900Z VRB03KT CAVOK 30/12 Q1014 NOSIG

2010/08/10 09:00
LHBP 100900Z VRB05KT 9999 FEW035 24/16 Q1018 NOSIG

2010/08/10 09:00
LQTZ 100900Z VRB02KT 9999 FEW045 25/// Q1018

2010/08/10 09:00
LZIB 100900Z 00000KT 9999 FEW026 23/16 Q1018

2010/08/10 09:00
LZTT 100900Z VRB03KT 9999 SCT031 21/13 Q1019 NOSIG

2010/08/10 09:02
CYSC 100902Z AUTO 00000KT 3/8SM FG VV010 14/14 A2991 RMK SLP132 DENSITY ALT 800FT

2010/08/10 09:01
CYVM 100901Z AUTO 00000KT 9SM FEW001 03/03 A2993

2010/08/10 09:00
SCAR 100900Z 08005KT CAVOK 09/05 Q1015

2010/08/10 09:00
SCFA 100900Z 33006KT 9999 OVC019 13/08 Q1016

2010/08/10 09:00
SCAT 100900Z 35003KT 320V030 7000 OVC013 10/07 Q1018

2010/08/10 09:00
SCIE 100900Z 18003KT CAVOK 04/02 Q1016

2010/08/10 09:00
SCTC 100900Z VRB01KT 0100 FG VV/// M00/M01 Q1018

2010/08/10 09:00
SCTE 100900Z 18007KT 9999 OVC006 7/06 Q1022 NOSIG

2010/08/10 09:00
SCBA 100900Z AUTO 28004KT CAVOK M04/M05 Q1021

2010/08/10 09:00
SCCI 100900Z 30009KT 9999 FEW016 SCT100 04/01 Q1004 NOSIG

2010/08/10 09:00
VHHH 100900Z 16012KT 140V200 9999 FEW016 31/25 Q1005 NOSIG

2010/08/10 09:00
KRHP 100900Z AUTO 00000KT 21/21 A3009 RMK AO2 PWINO

2010/08/10 08:56
PAVC 100856Z AUTO 22011KT 3SM BR 09/08 A2969 RMK AO2 PWINO TSNO 51013 T00880077 401050088 SLP056 $

2010/08/10 08:59
K0R3 100859Z AUTO 00000KT 25/25 A2992 RMK AO2 PWINO

2010/08/10 09:00
K3A1 100900Z AUTO 00000KT 3SM BR CLR 23/23 A3001 RMK AO2 T02300231 TSNO

2010/08/10 09:02
K47A 100902Z AUTO 00000KT 4SM BR CLR 23/21 A3004 RMK AO2

2010/08/10 08:58
K4A9 100858Z AUTO 00000KT 4SM BR SCT060 24/23 A3000 RMK AO2 T02380225

2010/08/10 09:00
K4R4 100900Z AUTO 00000KT 3SM BR CLR 27/26 A2991 RMK AO2 T02670255

2010/08/10 08:58
K8A0 100858Z AUTO 10003KT 10SM CLR 26/22 A2999 RMK AO2

2010/08/10 09:00
KAFP 100900Z AUTO 00000KT 3SM BR CLR 22/22 A3000 RMK AO2 T02220222

2010/08/10 09:00
KALX 100900Z AUTO 00000KT 7SM CLR 24/22 A2998 RMK AO1

2010/08/10 09:00
KASJ 100900Z AUTO 00000KT 4SM BR CLR 23/21 A2999 RMK AO2

2010/08/10 09:00
KAVC 100900Z AUTO 00000KT 7SM SCT090 23/22 A3004 RMK AO2

2010/08/10 09:00
KBCB 100900Z AUTO 00000KT 4SM CLR 21/21 A3010 RMK AO2 PWINO

2010/08/10 08:59
KCJR 100859Z AUTO 00000KT 4SM BR CLR 23/22 A2995 RMK AO2

2010/08/10 09:00
KCPK 100900Z AUTO 00000KT 3SM -RA CLR 22/21 A2998 RMK AO2

2010/08/10 09:00
KDPL 100900Z AUTO 00000KT 10SM CLR 23/23 A3001 RMK AO2

2010/08/10 09:00
KDQH 100900Z AUTO 06003KT 10SM CLR 26/24 A2996 RMK AO1

2010/08/10 08:59
KEDE 100859Z AUTO 24003KT 10SM CLR 26/24 A2997 RMK AO2

2010/08/10 08:55
KEMV 100855Z AUTO 00000KT 5SM BR SCT070 22/21 A2998 RMK AO2

2010/08/10 09:00
KEXX 100900Z AUTO 00000KT 5SM BR CLR 22/22 A3002 RMK AO2

2010/08/10 08:57
KEZF 100857Z AUTO 00000KT 10SM CLR 25/23 A2994 RMK AO2 T02470233

2010/08/10 09:00
KFQD 100900Z AUTO 00000KT 3SM BR CLR 23/22 A3004 RMK AO2

2010/08/10 09:00
KGEV 100900Z AUTO 00000KT 7SM SCT065 20/19 A3015 RMK AO2

2010/08/10 09:00
KHBI 100900Z AUTO 00000KT 7SM CLR 23/22 A3004 RMK AO2

2010/08/10 09:00
KHLX 100900Z AUTO 17005KT 5SM BR CLR 23/23 A3013 RMK AO2

2010/08/10 09:00
KHQU 100900Z AUTO 00000KT 4SM CLR 21/19 A3005 RMK AO1

2010/08/10 08:59
KHRJ 100859Z AUTO 00000KT 7SM CLR 24/23 A3001 RMK AO2

2010/08/10 08:59
KJNX 100859Z AUTO 00000KT 10SM SCT009 22/22 A3000 RMK AO2

2010/08/10 09:01
KMFV 100901Z AUTO 00000KT 2 1/2SM BR CLR 24/24 A2997 RMK AO2

2010/08/10 09:00
KMQI 100900Z AUTO 26004KT 10SM SCT007 SCT085 26/26 A2999 RMK AO2

2010/08/10 09:00
KONX 100900Z AUTO 00000KT 7SM CLR 24/23 A2999 RMK AO2

2010/08/10 09:01
KPTB 100901Z AUTO 01204KT 10SM CLR 25/25 A2997 RMK AO2

2010/08/10 09:01
KTDF 100901Z AUTO 00000KT 22/22 A3002 RMK AO1

2010/08/10 09:00
KUKF 100900Z AUTO 00000KT 3/4SM BKN001 22/21 A3006 RMK AO1

2010/08/10 09:00
KUNV 100900Z AUTO 00000KT 10SM SCT110 21/17 A2998 RMK AO2 T02070170

2010/08/10 08:55
KVVG 100855Z AUTO 08006KT 24/24 A2991 RMK AO2

2010/08/10 09:00
KFNT 100900Z 00000KT 1SM BR 19/18 A2995 RMK AO2 RVRNO $

2010/08/10 09:00
PAKW 100900Z AUTO 00000KT 6SM BR BKN003 OVC010 13/12 A3002 RMK AO2 TSNO

2010/08/10 09:00
PALH 100900Z 34005KT 10SM SCT012 OVC050 13/11 A2978 RMK AO2

2010/08/10 09:00
PAMC 100900Z 00000KT 10SM SCT027 BKN036 OVC110 12/10 A2961 RMK AO2

2010/08/10 09:01
KBTL 100901Z AUTO 00000KT 2 1/2SM BR SCT004 21/20 A2997 RMK AO2

2010/08/10 09:01
KGRB 100901Z AUTO 00000KT 4SM BR CLR 21/21 A2994 RMK AO2 TSNO

2010/08/10 09:01
KIMT 100901Z AUTO 00000KT 1/4SM FG VV001 19/19 A2998 RMK AO2

2010/08/10 09:01
KMDH 100901Z AUTO 00000KT 2 1/2SM BR FEW080 25/23 A2992 RMK AO2 TSNO

2010/08/10 09:01
KMKG 100901Z 12003KT 1 3/4SM BR BKN002 21/19 A2995 RMK AO2 VIS 1 RWY 14

2010/08/10 09:01
KMTH 100901Z AUTO 21008KT 7SM RA FEW013 BKN026 OVC070 25/23 A2984 RMK AO2 LTG DSNT SW P0001

2010/08/10 09:01
KPBG 100901Z AUTO 00000KT 1/2SM FG OVC002 16/16 A2990 RMK AO2

2010/08/10 09:01
KTVR 100901Z AUTO 00000KT 5SM BR BKN004 24/23 A2993 RMK AO2

2010/08/10 08:55
EHAM 100855Z 18010KT 150V210 9999 FEW012 BKN015 18/15 Q1012 NOSIG

2010/08/10 08:55
EHBK 100855Z AUTO 19006KT 140V220 9999NDV NCD 22/13 Q1014 NOSIG

2010/08/10 08:55
EHGG 100855Z AUTO 19010KT 160V230 9999NDV BKN022 20/15 Q1012 NOSIG

2010/08/10 08:55
EHRD 100855Z 19008KT 160V220 9999 SCT016 BKN020 19/15 Q1012 NOSIG

2010/08/10 08:50
LSME 100850Z AUTO 00000KT 9999NDV NCD 22/15 Q1018 RMK BLU

2010/08/10 09:00
SGAS 100900Z 19006KT CAVOK 11/07 Q1019

2010/08/10 09:00
SGES 100900Z 18006KT CAVOK 12/11 Q1020

2010/08/10 09:00
MROC 100900Z 00000KT 9999 4500WSW BR VCBCFG SCT001 BKN020 21/21 A2999 RMK VIS QUAD N 5000 NOSIG

2010/08/10 08:50
OAKN 100850Z 31010KT 8000 DU BKN150 OVC250 37/02 Q1007 BLU TEMPO 6000 WHT RMK A2974 DA6700

2010/08/10 08:50
EGJA 100850Z 24010KT 0700 R26/0750 FG BKN000 16/15 Q1013

2010/08/10 08:55
MMMY 100855Z 07006KT 10SM SKC 24/22 A2989 RMK SLP106 58039 901

2010/08/10 08:55
EHEH 100855Z AUTO 19005KT 9999NDV FEW130 SCT300 21/14 Q1014 BLU BLU NOSIG

2010/08/10 08:55
EHKD 100855Z AUTO 22013KT 9999NDV -RA FEW009/// BKN011/// BKN014/// 18/15 Q1011 GRN WHT TEMPO GRN TEMPO SCT012 SCT015CB BKN020

2010/08/10 08:57
PTRO 100857Z 16006KT 15SM SCT016CB BKN120 BKN300 29/24 A2988 RMK CB VC SW-W 

2010/08/10 08:58
PTTP 100858Z 13003KT 15SM BKN018 OVC300 26/25 A2990 RMK SLP123 8/101 T02610247 52022 

2010/08/10 09:00
TFFR 100900Z 13003KT 9999 SCT020 SCT050 25/24 Q1013 TEMPO 4000 SHRA

2010/08/10 09:00
LQBK 100900Z 11003KT 9999 FEW030 23/19 Q1017 NOSIG

2010/08/10 09:00
UBBN 100900Z 10012KT 9999 FEW100 35/06 Q1010 R14R/CLRD60 NOSIG RMK G/O QFE683

2010/08/10 09:00
UBBB 100900Z 02006KT 9999 SCT060CB OVC100 31/30 Q1011 NOSIG RMK R88CLRD70

2010/08/10 08:50
EGLF 100850Z 25006KT 9999 -RADZ SCT007 BKN012 BKN035 15/14 Q1011

2010/08/10 08:55
EHAK 100855Z AUTO 17022KT 9999NDV FEW007/// SCT035/// BKN042/// 17/16 Q1007

2010/08/10 08:55
EHDV 100855Z AUTO 21016KT 9999NDV -RA FEW006/// SCT008/// BKN010/// 17/16 Q1007

2010/08/10 08:55
EHFD 100855Z AUTO 18023KT 9999NDV FEW004/// SCT006/// BKN007/// 18/16 Q1010

2010/08/10 08:55
EHFZ 100855Z AUTO 20023KT 9999NDV ///////// 17/15 Q1009

2010/08/10 08:55
EHJA 100855Z AUTO 19017KT //// // FEW004/// SCT008/// BKN010/// 16/15 Q1008 RE//

2010/08/10 08:55
EHKV 100855Z AUTO 20024KT 9999NDV FEW008/// BKN020/// OVC023/// 18/15 Q1009

2010/08/10 08:55
EHMG 100855Z AUTO 22025KT 9999NDV FEW009/// SCT012/// BKN016/// 17/15 Q1010

2010/08/10 08:55
EHPG 100855Z AUTO 21024KT 9999NDV FEW011/// BKN018/// OVC022/// 18/15 Q1010

2010/08/10 08:55
EHQE 100855Z AUTO 21018KT 9999NDV ///////// 17/15 Q1011

2010/08/10 09:00
YSDU 100900Z AUTO 35014KT 9999NDV // ////// 14/13 Q1011

2010/08/10 09:00
YBCS 100900Z 00000KT 9999 FEW005 BKN017 OVC025 24/23 Q1014

2010/08/10 09:00
GBYD 100900Z 03004KT 9999 SCT011 BKN110 27/24 Q1013

2010/08/10 08:50
EGDL 100850Z 22008KT 9999 SCT006 BKN011 BKN050 13/12 Q1011 TEMPO SCT007

2010/08/10 09:00
SBSN 100900Z 00000KT CAVOK 23/22 Q1012

2010/08/10 08:50
EGDL 100850Z 22008KT 9999 SCT006 BKN011 BKN050 13/12 Q1011 TEMPO SCT007

2010/08/10 08:50
EGOV 100850Z 22015KT 9999 FEW020 BKN060 15/12 Q1007 NOSIG

2010/08/10 08:50
EGUB 100850Z 19007KT 9999 -RA BKN050 BKN070 14/12 Q1010 NOSIG

2010/08/10 08:50
EGVN 100850Z 23005KT 9999 FEW010 SCT050 BKN080 14/12 Q1010 NOSIG

2010/08/10 08:50
EGWU 100850Z 26010KT 9999 -RA FEW007 BKN035 OVC060 14/12 Q1011 TEMPO SCT015

2010/08/10 08:50
EGXC 100850Z 24009KT 9999 FEW015 SCT030 BKN130 15/13 Q1008 TEMPO SCT020

2010/08/10 08:50
EGYD 100850Z 24010KT 9999 FEW012 SCT040 BKN150 15/13 Q1008 TEMPO SCT018

2010/08/10 08:50
EGPA 100850Z 24006KT 190V270 9999 SCT015 16/12 Q1004

2010/08/10 08:50
EGPC 100850Z VRB02KT 9999 FEW020 15/12 Q1004

2010/08/10 08:50
EGPL 100850Z 01007KT 9999 FEW012 16/11 Q1005

2010/08/10 08:50
EGPO 100850Z 04004KT 330V070 9999 FEW016 17/11 Q1005

2010/08/10 08:50
EGPU 100850Z 01010KT 350V050 9999 VCSH SCT014CB SCT020 13/11 Q1002

2010/08/10 08:50
EGWU 100850Z 26010KT 9999 -RA FEW007 BKN035 OVC060 14/12 Q1011 TEMPO SCT015

2010/08/10 08:50
EGAE 100850Z 27010KT 9999 5000W SHRA FEW009 SCT015 BKN027 14/12 Q1004

2010/08/10 08:50
EGNC 100850Z 21011KT 170V250 9999 RA FEW019 SCT025 14/10 Q1005

2010/08/10 08:50
EGNH 100850Z 23015KT 9999 FEW012 SCT026 16/11 Q1007

2010/08/10 08:50
EGNJ 100850Z 21011KT 9999 FEW010 SCT013 16/14 Q1007

2010/08/10 08:50
EGNR 100850Z 26007KT 230V310 9999 SCT028 18/09 Q1008

2010/08/10 08:50
EGPE 100850Z 32003KT 9999 FEW015 SCT030TCU 15/11 Q1004

2010/08/10 08:50
EGPI 100850Z 30009KT 9999 FEW017 SCT024 13/10 Q1003

2010/08/10 08:50
EGPN 100850Z 07004KT 350V120 9999 SHRA SCT018CB BKN035 14/11 Q1004

2010/08/10 08:50
LGAV 100850Z 03013KT 010V070 9999 FEW025 32/19 Q1010 NOSIG

2010/08/10 08:50
LGIR 100850Z 31013KT 9999 FEW020 SCT080 30/24 Q1009 NOSIG

2010/08/10 08:50
LGKL 100850Z 15008KT 9999 FEW025 30/21 Q1009

2010/08/10 08:50
LGKO 100850Z 34011KT CAVOK 33/20 Q1006

2010/08/10 08:50
LGKR 100850Z 13005KT CAVOK 31/19 Q1010 NOSIG

2010/08/10 08:50
LGLM 100850Z 03012KT CAVOK 30/20 Q1010

2010/08/10 08:50
LGSA 100850Z 30011KT 9999 FEW030 31/19 Q1010

2010/08/10 08:50
LGSM 100850Z 01010KT 330V050 CAVOK 33/18 Q1006

2010/08/10 08:50
LGTS 100850Z 30011KT CAVOK 29/18 Q1013 NOSIG

2010/08/10 08:50
EGVN 100850Z 23005KT 9999 FEW010 SCT050 BKN080 14/12 Q1010 NOSIG

2010/08/10 09:02
CYSF 100902Z AUTO 12002KT 1 1/4SM BR BKN007 OVC018 14/14 A2989 RMK SLP130 DENSITY ALT 900FT

2010/08/10 09:02
CYZP 100902Z AUTO 26010KT 3SM -RA BR FEW013 SCT020 OVC029 14/13 A3003 RMK SLP169

2010/08/10 09:00
KHUL 100900Z AUTO 00000KT 1 1/2SM BR CLR 13/13 A2981

2010/08/10 09:00
SAWG 100900Z 32012KT 9999 FEW035 02/M05 Q1009

2010/08/10 09:00
OPKC 100900Z 23012KT 7000 FEW020 SCT030 33/25 Q1002 NOSIG

2010/08/10 08:55
OPLA 100855Z 15008KT 3500 FU SCT040 BKN100 30/26 Q1002 RETSRA NOSIG

2010/08/10 09:00
OPPS 100900Z N--08 4000 HZ SCT030 SCT100 34/26 Q1002.3

2010/08/10 08:55
OPSK 100855Z 05004KT 6000 HZ SCT040 FEW100 36/27 QNH 1000 R.H.63PC

2010/08/10 08:50
LGAL 100850Z 04010KT CAVOK 34/17 Q1011

2010/08/10 08:50
LGEL 100850Z 34010KT 9999 FEW030 33/19 Q1010

2010/08/10 08:50
LGKV 100850Z 27006KT CAVOK 32/18 Q1010

2010/08/10 08:50
LGMT 100850Z /////KT CAVOK 32/23 Q1008

2010/08/10 08:50
LGPZ 100850Z 27005KT CAVOK 31/24 Q1011 NOSIG

2010/08/10 08:50
LGRX 100850Z 00000KT CAVOK 32/20 Q1010 NOSIG

2010/08/10 08:50
LGSR 100850Z 34015KT CAVOK 31/22 Q1007 NOSIG

2010/08/10 08:50
LGZA 100850Z 02005KT CAVOK 31/22 Q1011

2010/08/10 09:01
KCON 100901Z AUTO 00000KT 3SM BR SCT049 BKN060 OVC070 21/21 A2990

2010/08/10 08:49
KMWN 100849Z 33021KT 80SM BCFG BKN/// FEW/// FEW000 FEW100 FEW200 09/08

2010/08/10 09:00
KCID 100900Z AUTO 22009KT 9SM BKN014 BKN023 OVC035 24/23 A2997

2010/08/10 09:00
KFSD 100900Z VRB04KT 10SM TS FEW008 OVC014CB 25/23 A2985

2010/08/10 09:00
VHHH 100900Z 16012KT 140V200 9999 FEW016 31/25 Q1005 NOSIG

2010/08/10 09:00
RCTP 100900Z 24014KT 9999 FEW025 BKN220 33/25 Q1005 NOSIG

2010/08/10 09:00
RCKH 100900Z 21005KT 170V250 9999 FEW012 SCT070 BKN250 29/27 Q1007 NOSIG

2010/08/10 09:00
RCSS 100900Z 10008KT 9999 FEW025 SCT040 32/25 Q1005 NOSIG

2010/08/10 09:00
VMMC 100900Z 18008KT 9999 FEW020 SCT080 31/26 Q1005 NOSIG

2010/08/10 09:00
RPLL 100900Z 25010KT 9000 SCT025 OVC300 29/25 Q1008 NOSIG RMK A2977

2010/08/10 09:00
RPVM 100900Z 00000KT 8000 -RASH FEW018CB OVC250 30/26 Q1009 A2982 LGT RASH CB NE

2010/08/10 09:00
RPMD 100900Z 14006KT 8000 -RA SCT015CB BKN090 OVC290 26/25 Q1009 RETS LIRA INT CB NE NW

2010/08/10 09:00
RPLB 100900Z 24016KT 6000 SCT018 OVC080 28/25 Q1009 DSTNT PCPN W

2010/08/10 09:00
RPLI 100900Z 22008KT 9999 SCT019CB BKN100 29/26 Q1006 RESH

2010/08/10 09:00
RPMZ 100900Z 27004KT 9999 FEW018 BKN120 30/25 Q1010

2010/08/10 09:00
KLGB 100900Z AUTO 35003KT 8SM SCT010 16/13 A2990

2010/08/10 08:58
KSMP 100858Z AUTO VRB05KT 1/4SM FG SCT001 BKN015 OVC022 08/08 A2997

2010/08/10 08:50
ESSD 100850Z 25010KT 220V280 9999 BKN029 20/14 Q1010

2010/08/10 09:00
WSSL 100900Z 16005KT 130V190 9999 SCT020 BKN300 32/24 Q1006 RMK 0830Z Q1006 

2010/08/10 09:00
YSDU 100900Z AUTO 35014KT 9999NDV // ////// 14/13 Q1011

2010/08/10 09:00
DTTB 100900Z 18002KT CAVOK 31/14 Q1017

2010/08/10 09:00
DTTD 100900Z 11006KT CAVOK 26/15 Q1018

2010/08/10 09:00
DTTK 100900Z 27002KT CAVOK 32/12 Q1016

2010/08/10 09:00
DTTL 100900Z 08004KT CAVOK 31/15 Q1016

2010/08/10 09:00
DTTN 100900Z 22002KT CAVOK 31/12 Q1015

2010/08/10 09:00
DTTR 100900Z 06014KT CAVOK 30/09 Q1017

2010/08/10 09:00
KMSL 100900Z AUTO 00000KT 3SM BR SCT001 24/23 A2998

2010/08/10 09:00
FDMS 100900Z 14008KT CAVOK 17/M02 Q1033 NOSIG

2010/08/10 09:00
KCID 100900Z AUTO 22009KT 9SM BKN014 BKN023 OVC035 24/23 A2997

2010/08/10 09:00
KFSD 100900Z VRB04KT 10SM TS FEW008 OVC014CB 25/23 A2985

2010/08/10 08:56
KNXF 100856Z AUTO 05005KT 9SM OVC012 15/12 A2990 RMK AO2 SLP208 T01500122 58002 TSNO 

2010/08/10 09:00
KLGB 100900Z AUTO 35003KT 8SM SCT010 16/13 A2990

2010/08/10 09:00
FLLS 100900Z 09012KT CAVOK 25/07 Q1025

2010/08/10 09:00
KCID 100900Z AUTO 22009KT 9SM BKN014 BKN023 OVC035 24/23 A2997

2010/08/10 09:01
KCON 100901Z AUTO 00000KT 3SM BR SCT049 BKN060 OVC070 21/21 A2990

2010/08/10 09:00
KFSD 100900Z VRB04KT 10SM TS FEW008 OVC014CB 25/23 A2985

2010/08/10 09:00
YBBN 100900Z 09007KT 3000 -RA SCT009 SCT020 BKN028 19/19 Q1016 FM0900 02012KT 7000 -RA BKN008 BKN025 TEMPO 0900/1200 02015G25KT 3000 RA BKN006 FM0900 MOD TURB BLW 7000FT

2010/08/10 08:58
KSMP 100858Z AUTO VRB05KT 1/4SM FG SCT001 BKN015 OVC022 08/08 A2997

2010/08/10 09:00
YBBN 100900Z 09007KT 3000 -RA SCT009 SCT020 BKN028 19/19 Q1016 FM0900 02012KT 7000 -RA BKN008 BKN025 TEMPO 0900/1200 02015G25KT 3000 RA BKN006 FM0900 MOD TURB BLW 7000FT

2010/08/10 09:00
YMML 100900Z 27006KT 7000 OVC009 08/07 Q1008 FM0900 VRB03KT 9000 -RA SCT010 SCT030 TEMPO 0900/1200 6000 RA BKN010

2010/08/10 09:00
SUMU 100900Z 00000KT 1500 R24/0600 BR NSC 02/02 Q1027 BECMG FM 1000Z 3000 BR NSC

2010/08/10 09:00
SULS 100900Z 00000KT CAVOK 02/02 Q1027

2010/08/10 09:00
SUDU 100900Z 00000KT CAVOK 02/01 Q1026

2010/08/10 09:00
SLLP 100900Z 02005KT 9999 SKC M03/M21 Q1037

2010/08/10 09:00
SLCB 100900Z 25003KT 8000 NSC 04/00 Q1025

2010/08/10 09:00
SLVR 100900Z 18020KT 8000 NSC 16/06 Q1018

2010/08/10 09:00
FMMI 100900Z 11006KT 020V180 9999 SCT023 23/10 Q1025 NOSIG

2010/08/10 09:00
YMML 100900Z 27006KT 7000 OVC009 08/07 Q1008 FM0900 VRB03KT 9000 -RA SCT010 SCT030 TEMPO 0900/1200 6000 RA BKN010

2010/08/10 09:00
FLLS 100900Z 09012KT CAVOK 25/07 Q1025

2010/08/10 09:02
KCAR 100902Z AUTO 00000KT 1 1/2SM BR BKN001 14/14 A2982 RMK AO2 

2010/08/10 09:00
AYPY 100900Z 00000KT 9999 SCT040 BKN280 27/25 Q1010 RMKS/RESH

2010/08/10 09:00
MROC 100900Z 00000KT 9999 4500WSW BR VCBCFG SCT001 BKN020 21/21 A2999 RMK VIS QUAD N 5000 NOSIG

2010/08/10 09:00
NTAA 100900Z 08004KT 9999 FEW020 22/16 Q1018 WS ALL RWY NOSIG

2010/08/10 09:00
NWWW 100900Z AUTO 11006KT 9999NDV NCD 19/15 Q1023

2010/08/10 08:55
PACZ 100855Z AUTO 20008KT 10SM BKN008 BKN011 OVC022 09/08 A2931 RMK AO1 T00940084

2010/08/10 08:55
PAEH 100855Z AUTO 17018G31KT 1 3/4SM OVC004 08/07 RMK AO1 949 T00830073

2010/08/10 08:58
PAGA 100858Z AUTO 12008KT 10SM BKN038 BKN049 OVC090 14/10 A2957 RMK AO2 SLPNO T01390100 401500139 51012

2010/08/10 08:55
PAIM 100855Z AUTO 00000KT 10SM BKN048 OVC060 12/12 A2963 RMK AO1 T01170117

2010/08/10 08:55
PALU 100855Z AUTO 08016KT 7SM 08/08 A2960 RMK AO1 T00830078

2010/08/10 08:55
PATC 100855Z AUTO 02008KT 7SM BKN024 OVC029 11/10 A2944 RMK AO1 T01060101

2010/08/10 09:00
PKWA 100900Z AUTO 07017KT 10SM SCT018 SCT022 28/24 A2989 RMK AO2 T02820235

2010/08/10 09:00
RCKH 100900Z 21005KT 170V250 9999 FEW012 SCT070 BKN250 29/27 Q1007 NOSIG

2010/08/10 09:00
RCTP 100900Z 24014KT 9999 FEW025 BKN220 33/25 Q1005 NOSIG

2010/08/10 09:00
RJOI 100900Z 15009KT 9999 FEW025 SCT050 BKN100 31/23 A2988 RMK SLP118 T03110233 55003

2010/08/10 09:00
SOCA 100900Z VRB01KT 9999 FEW020 BKN120 23/23 Q1013 NOSIG

2010/08/10 09:00
TAPA 100900Z 09009KT 9999 RESH FEW017 26/24 Q1013

2010/08/10 09:00
TFFF 100900Z AUTO 07002KT 9999NDV NCD 25/24 Q1013

2010/08/10 09:00
TTCP 100900Z 16005KT 9999 FEW016 SCT300 27/23 Q1013 NOSIG

2010/08/10 09:00
TTPP 100900Z 00000KT 9999 FEW016 BKN280 24/23 Q1013 NOSIG

2010/08/10 08:55
TXKF 100855Z 17008KT 9999 FEW015 FEW180 SCT300 27/23 Q1020 /

2010/08/10 09:00
VHHH 100900Z 16012KT 140V200 9999 FEW016 31/25 Q1005 NOSIG

2010/08/10 09:00
YBCS 100900Z 00000KT 9999 FEW005 BKN017 OVC025 24/23 Q1014 TEMPO 0900/1200 3000 -SHRA FEW003 BKN010

2010/08/10 09:00
YBCS 100900Z 00000KT 9999 FEW005 BKN017 OVC025 24/23 Q1014 TEMPO 0900/1200 3000 -SHRA FEW003 BKN010

2010/08/10 08:59
CYAH 100859Z AUTO 28002KT 9SM OVC009 OVC053 11/10 A2987

2010/08/10 08:58
CYCY 100858Z AUTO 00000KT 9SM CLR 04/04 A2987

2010/08/10 08:57
CYEK 100857Z AUTO 00000KT 1 1/8SM CLR 08/08 A3008 RMK VSBY VRBL 0.4V9.+

2010/08/10 08:59
CYEK 100859Z AUTO 00000KT 1SM CLR 08/08 A3008 RMK VSBY VRBL 0.4V9.+

2010/08/10 08:58
CYOY 100858Z AUTO 00000KT 3SM FEW073 12/10 A2986

2010/08/10 08:59
CYPQ 100859Z AUTO ///// 1SM OVC019 18/18 A2993

2010/08/10 09:02
CYSC 100902Z AUTO 00000KT 3/8SM FG VV010 14/14 A2991 RMK SLP132 DENSITY ALT 800FT

2010/08/10 09:02
CYSF 100902Z AUTO 12002KT 1 1/4SM BR BKN007 OVC018 14/14 A2989 RMK SLP130 DENSITY ALT 900FT

2010/08/10 09:01
CYTZ 100901Z AUTO 31003KT 3SM FEW046 OVC061 21/21 A2992 RMK SLP131 DENSITY ALT 1000FT RVR MISG

2010/08/10 09:01
CYVM 100901Z AUTO 00000KT 9SM FEW001 03/03 A2993

2010/08/10 09:01
CYWA 100901Z AUTO 00000KT 2SM CLR 14/14 A2990 RMK VSBY VRBL 0.9V8.0

2010/08/10 09:02
CYZP 100902Z AUTO 26010KT 3SM -RA BR FEW013 SCT020 OVC029 14/13 A3003 RMK SLP169

2010/08/10 09:01
EHGR 100901Z AUTO 23006KT 9999NDV FEW020 SCT024 OVC200 19/14 Q1013 WHT BLU TEMPO WHT TEMPO SCT020

2010/08/10 08:57
EHLW 100857Z AUTO 20009KT 7000NDV BR FEW008 SCT010 BKN016 18/16 Q1012 GRN WHT TEMPO GRN 6000 BR SCT023 TEMPO SCT012

2010/08/10 09:01
KVOK 100901Z 00000KT 1/2SM R27/0700V1200FT FG CLR 17/17 A2997 RMK AO2A SLP142

2010/08/10 09:00
YBBN 100900Z 09007KT 3000 -RA SCT009 SCT020 BKN028 19/19 Q1016 FM0900 02012KT 7000 -RA BKN008 BKN025 TEMPO 0900/1200 02015G25KT 3000 RA BKN006 FM0900 MOD TURB BLW 7000FT

2010/08/10 09:00
YBCS 100900Z 00000KT 9999 FEW005 BKN017 OVC025 24/23 Q1014

2010/08/10 09:00
YMML 100900Z 27006KT 7000 OVC009 08/07 Q1008 FM0900 VRB03KT 9000 -RA SCT010 SCT030 TEMPO 0900/1200 6000 RA BKN010

2010/08/10 09:00
YSDU 100900Z AUTO 35014KT 9999NDV // ////// 14/13 Q1011

2010/08/10 08:50
EGDM 100850Z 22009KT 9999 -RA FEW007 BKN050 OVC090 14/12 Q1011 RERA BLU BECMG BKN020 WHT

2010/08/10 08:50
EGDR 100850Z 23014KT 2500 RA FEW000 SCT001 OVC004 16/16 Q1010 RED

2010/08/10 08:50
EGDX 100850Z 24005KT 6000 DZ FEW010 SCT015 BKN050 15/13 Q1010 WHT

2010/08/10 08:50
EGOP 100850Z AUTO 23009KT 9999NDV // BKN008/// BKN014/// 14/13 Q1009

2010/08/10 08:50
EGQK 100850Z 24001KT 9999 FEW022CB SCT100 15/10 Q1004 BLU NOSIG

2010/08/10 08:50
EGVN 100850Z 23005KT 9999 FEW010 SCT050 BKN080 14/12 Q1010 BLU NOSIG

2010/08/10 08:50
EGWC 100850Z 23010KT 9999 BKN022 16/12 Q1009 WHT

2010/08/10 08:50
EGXU 100850Z 22008KT 9999 FEW025 BKN050 15/12 Q1007 BLU NOSIG

2010/08/10 08:50
EGXX 100850Z 22009KT 9999 FEW012 SCT030 BKN160 16/14 Q1008 BLU

2010/08/10 08:50
EGXZ 100850Z 18005KT 9999 FEW007 BKN022 14/13 Q1007 WHT

2010/08/10 08:50
EGYH 100850Z 24014KT 9999 FEW009 SCT016 BKN250 16/// Q1009 WHT

2010/08/10 08:50
ENHV 100850Z 22009KT 9999 FEW016 12/08 Q1012

2010/08/10 09:00
EPGD 100900Z 06003KT 360V120 CAVOK 20/15 Q1018

2010/08/10 09:00
EPKK 100900Z 20004KT 160V270 9999 FEW015 22/18 Q1018

2010/08/10 09:00
EPKT 100900Z 27005KT 230V310 9999 SCT017 21/16 Q1018

2010/08/10 09:00
EPPO 100900Z 28003KT 210V360 CAVOK 21/17 Q1017

2010/08/10 09:00
EPRZ 100900Z 25006KT 220V300 9999 SCT017 22/18 Q1017

2010/08/10 09:00
EPWA 100900Z 19005KT 140V250 9999 FEW026 23/16 Q1017 NOSIG

2010/08/10 09:00
EPWR 100900Z 31004KT 280V340 9999 FEW020TCU SCT023 23/18 Q1018

2010/08/10 08:45
LHDC 100845Z 14001KT 9999 FEW016 22/18 Q1018 NOSIG

2010/08/10 08:45
LHPA 100845Z 27002MPS 9999 FEW027 SCT083 22/18 Q1020 NOSIG RMK BLU

2010/08/10 08:45
LHPP 100845Z 12003KT 9999 FEW033 24/16 Q1019

2010/08/10 08:45
LHSN 100845Z VRB01MPS CAVOK 24/16 Q1018 NOSIG RMK BLU

2010/08/10 08:45
LHUD 100845Z 35005KT CAVOK 25/16 Q1018

2010/08/10 09:01
PAIK 100901Z AUTO 09008KT 10SM BKN015 OVC019 13/12 A2953 RMK AO2 RAE0852 SLP040 P0001 60002 T01330122 401330133 51009

2010/08/10 09:01
PAKF 100901Z AUTO VRB03KT 10SM SCT016 BKN021 OVC070 09/08 A2964 RMK AO2 SLP129 T00940078 400940094 53011

2010/08/10 08:56
PANW 100856Z AUTO 18005KT 1 3/4SM BR BKN001 OVC010 09/09 A2965 RMK AO2 PWINO TSNO 51003 60003 T00940088 P0003 SLP017 $

2010/08/10 08:45
CWSK 100845Z AUTO 32001KT 14/13 RMK AO1 T01420133

2010/08/10 08:50
PKMR 100850Z 08010KT 15SM SCT015 BKN050 OVC120 26/23 A2987 RMK RAE20 SLP117 60011 8/87/ T02600231 52017 

2010/08/10 09:00
FOOL 100900Z 15008KT 110V180 9999 SCT012 BKN046 26/21 Q1016 NOSIG

2010/08/10 08:50
LGNX 100850Z 34013KT 9999 FEW020 29/24 Q1008

2010/08/10 08:50
LGAD 100850Z 31004KT CAVOK 30/22 Q1011

2010/08/10 09:00
SBMN 100900Z 00000KT 9999 FEW015 25/23 Q1012

2010/08/10 09:00
RPLL 100900Z 25010KT 9000 SCT025 OVC300 29/25 Q1008 NOSIG RMK A2977

2010/08/10 09:00
RPVM 100900Z 00000KT 8000 -RASH FEW018CB OVC250 30/26 Q1009 A2982 LGT RASH CB NE

2010/08/10 09:00
RPMZ 100900Z 27004KT 9999 FEW018 BKN120 30/25 Q1010

2010/08/10 09:00
RPLB 100900Z 24016KT 6000 SCT018 OVC080 28/25 Q1009 DSTNT PCPN W

2010/08/10 08:50
LGHI 100850Z 36010KT CAVOK 30/21 Q1008

2010/08/10 08:50
LGKC 100850Z 02009KT 330V070 9999 FEW020 29/23 Q1012

2010/08/10 08:50
LGKF 100850Z 27007KT 9999 FEW025 27/22 Q1011

2010/08/10 08:50
LGKP 100850Z 32026KT 9999 FEW010 30/24 Q1005

2010/08/10 08:50
LGKZ 100850Z 33010KT 9999 FEW020 26/12 Q1016

2010/08/10 08:50
LGMK 100850Z 35019KT 9999 FEW012 29/22 Q1008

2010/08/10 08:50
LGPA 100850Z 35017KT 9999 FEW025 30/23 Q1008

2010/08/10 08:50
LGSO 100850Z 36013KT 9999 FEW020 30/22 Q1008

2010/08/10 09:00
GLRB 100900Z 00000KT 9999 BKN014 26/24 Q1015 NOSIG

2010/08/10 08:50
EKVJ 100850Z 18010KT CAVOK 20/18 Q1013

2010/08/10 08:58
KSMP 100858Z AUTO VRB05KT 1/4SM FG SCT001 BKN015 OVC022 08/08 A2997 RMK AO2 TSNO $

2010/08/10 09:00
KNEL 100900Z AUTO 00000KT 7SM BKN070 BKN085 23/20 A2992 RMK AO2 SLP131 T02330200 56006 $

2010/08/10 08:54
KWAL 100854Z AUTO 25005KT 6SM BR CLR 24/22 A2996 RMK AO2 SLP141 T02390222 58006 TSNO

2010/08/10 09:00
SBMO 100900Z 14003KT 5000 BR SCT009 BKN020 20/19 Q1017 

2010/08/10 09:00
LEMO 100900Z 00000KT CAVOK 33/13 Q1017 NOSIG

2010/08/10 09:00
KFSD 100900Z VRB04KT 10SM TS FEW008 OVC014CB 25/23 A2985 RMK AO2 TSB00 CONS LTGIC SE-SW TS SW MOV NE $

2010/08/10 09:01
KCON 100901Z AUTO 00000KT 3SM BR SCT049 BKN060 OVC070 21/21 A2990 RMK AO2

2010/08/10 09:02
KCAR 100902Z AUTO 00000KT 1 1/2SM BR BKN001 14/14 A2982 RMK AO2

2010/08/10 09:00
RPLC 100900Z 18011KT 160V220 9000 VCSHRA FEW020CB FEW025 OVC100 29/24 Q1008 A2978 RMK DSTNT PCPN N 

2010/08/10 08:58
PTTP 100858Z 13003KT 15SM BKN018 OVC300 26/25 A2990 RMK SLP123 8/101 T02610247 52022

2010/08/10 08:57
PTRO 100857Z 16006KT 15SM SCT016CB BKN120 BKN300 29/24 A2988 RMK CB VC SW-W

2010/08/10 08:50
PKMR 100850Z 08010KT 15SM SCT015 BKN050 OVC120 26/23 A2987 RMK RAE20 SLP117 60011 8/87/ T02600231 52017

2010/08/10 09:00
KFSD 100900Z VRB04KT 10SM TS FEW008 OVC014CB 25/23 A2985 RMK AO2 TSB00 CONS LTGIC SE-SW TS SW MOV NE $

2010/08/10 09:00
KFNT 100900Z 00000KT 1SM BR 19/18 A2995 RMK AO2 RVRNO $

2010/08/10 09:01
KCON 100901Z AUTO 00000KT 3SM BR SCT049 BKN060 OVC070 21/21 A2990 RMK AO2

2010/08/10 09:00
PAMC 100900Z 00000KT 10SM SCT027 BKN036 OVC110 12/10 A2961 RMK AO2

2010/08/10 09:01
KMKG 100901Z 12003KT 1 3/4SM BR BKN002 21/19 A2995 RMK AO2 VIS 1 RWY 14

2010/08/10 09:02
KCAR 100902Z AUTO 00000KT 1 1/2SM BR BKN001 14/14 A2982 RMK AO2

2010/08/10 09:01
KVOK 100901Z 00000KT 1/2SM R27/0700V1200FT FG CLR 17/17 A2997 RMK AO2A SLP142

2010/08/10 08:58
KSMP 100858Z AUTO VRB05KT 1/4SM FG SCT001 BKN015 OVC022 08/08 A2997 RMK AO2 TSNO $

2010/08/10 09:00
PAKW 100900Z AUTO 00000KT 6SM BR BKN003 OVC010 13/12 A3002 RMK AO2 TSNO

2010/08/10 09:00
PALH 100900Z 34005KT 10SM SCT012 OVC050 13/11 A2978 RMK AO2

2010/08/10 09:01
KBTL 100901Z AUTO 00000KT 2 1/2SM BR SCT004 21/20 A2997 RMK AO2

2010/08/10 09:01
KGRB 100901Z AUTO 00000KT 4SM BR CLR 21/21 A2994 RMK AO2 TSNO

2010/08/10 09:01
KIMT 100901Z AUTO 00000KT 1/4SM FG VV001 19/19 A2998 RMK AO2

2010/08/10 09:01
KMDH 100901Z AUTO 00000KT 2 1/2SM BR FEW080 25/23 A2992 RMK AO2 TSNO

2010/08/10 09:01
KMTH 100901Z AUTO 21008KT 7SM RA FEW013 BKN026 OVC070 25/23 A2984 RMK AO2 LTG DSNT SW P0001

2010/08/10 09:01
KPBG 100901Z AUTO 00000KT 1/2SM FG OVC002 16/16 A2990 RMK AO2

2010/08/10 09:01
KTVR 100901Z AUTO 00000KT 5SM BR BKN004 24/23 A2993 RMK AO2

2010/08/10 08:56
KCHS 100856Z 14003KT 10SM FEW025 27/25 A3000 RMK AO2 SLP158 T02670250 55002

2010/08/10 08:59
KJNX 100859Z AUTO 00000KT 10SM SCT009 22/22 A3000 RMK AO2

2010/08/10 08:54
KWAL 100854Z AUTO 25005KT 6SM BR CLR 24/22 A2996 RMK AO2 SLP141 T02390222 58006 TSNO

2010/08/10 09:00
KNEL 100900Z AUTO 00000KT 7SM BKN070 BKN085 23/20 A2992 RMK AO2 SLP131 T02330200 56006 $

2010/08/10 08:55
KLFI 100855Z 22005KT 10SM CLR 25/23 A2997 RMK AO2A SLP149 T02520226 56005

2010/08/10 08:56
KNBC 100856Z AUTO 00000KT 10SM CLR 27/25 A2999 RMK AO2 SLP155 T02670250 55005 $

2010/08/10 08:55
KNBG 100855Z AUTO 00000KT 6SM HZ CLR A2992 RMK AO2 SLP132 56004 PWINO FZRANO $

2010/08/10 08:56
KNCA 100856Z AUTO 00000KT 10SM 24/24 A3001 RMK AO2 SLP164 T02390239 58005 $

2010/08/10 08:57
KNJM 100857Z AUTO 27003KT 10SM SCT017 27/25 A3001 RMK AO2 SLP165 T02670250 56004

2010/08/10 08:56
KNPA 100856Z AUTO 33004KT 6SM BR CLR 26/24 A2990 RMK AO2 SLP125 T02560244 58006

2010/08/10 08:56
KNTU 100856Z 24005KT 10SM FEW200 23/22 A2997 RMK AO2 SLP150 T02330222 56004 $

2010/08/10 08:55
KHUA 100855Z AUTO RMK AO2 SLPNO PWINO PNO TSNO $

2010/08/10 08:55
KLUF 100855Z AUTO 00000KT 10SM FEW120 28/15 A2980 RMK AO2 SLP062 T02830153 50001 $

2010/08/10 08:56
KNBC 100856Z AUTO 00000KT 10SM CLR 27/25 A2999 RMK AO2 SLP155 T02670250 55005 $

2010/08/10 08:56
KNXP 100856Z AUTO 29004KT CLR 23/00 A2992 RMK AO2 SLP094 T02330000 58001 $

2010/08/10 08:55
KTBN 100855Z AUTO 17004KT 10SM CLR 25/23 A2995 RMK AO2 SLP116 T02460229 57005 $

2010/08/10 08:56
KNXF 100856Z AUTO 05005KT 9SM OVC012 15/12 A2990 RMK AO2 SLP208 T01500122 58002 TSNO

2010/08/10 08:55
KNYL 100855Z AUTO 25003KT 10SM CLR 28/02 A2975 RMK AO2 SLP070 T02780022 50000

2010/08/10 09:02
K47A 100902Z AUTO 00000KT 4SM BR CLR 23/21 A3004 RMK AO2

2010/08/10 09:01
KMFV 100901Z AUTO 00000KT 2 1/2SM BR CLR 24/24 A2997 RMK AO2

2010/08/10 09:01
KPTB 100901Z AUTO 01204KT 10SM CLR 25/25 A2997 RMK AO2

2010/08/10 09:01
KTDF 100901Z AUTO 00000KT 22/22 A3002 RMK AO1

2010/08/10 09:01
PAIK 100901Z AUTO 09008KT 10SM BKN015 OVC019 13/12 A2953 RMK AO2 RAE0852 SLP040 P0001 60002 T01330122 401330133 51009

2010/08/10 09:00
KRHP 100900Z AUTO 00000KT 21/21 A3009 RMK AO2 PWINO

2010/08/10 08:58
PAGA 100858Z AUTO 12008KT 10SM BKN038 BKN049 OVC090 14/10 A2957 RMK AO2 SLPNO T01390100 401500139 51012

2010/08/10 08:59
K0R3 100859Z AUTO 00000KT 25/25 A2992 RMK AO2 PWINO

2010/08/10 09:00
K3A1 100900Z AUTO 00000KT 3SM BR CLR 23/23 A3001 RMK AO2 T02300231 TSNO

2010/08/10 08:58
K4A9 100858Z AUTO 00000KT 4SM BR SCT060 24/23 A3000 RMK AO2 T02380225

2010/08/10 09:00
K4R4 100900Z AUTO 00000KT 3SM BR CLR 27/26 A2991 RMK AO2 T02670255

2010/08/10 08:58
K8A0 100858Z AUTO 10003KT 10SM CLR 26/22 A2999 RMK AO2

2010/08/10 09:00
KAFP 100900Z AUTO 00000KT 3SM BR CLR 22/22 A3000 RMK AO2 T02220222

2010/08/10 09:00
KALX 100900Z AUTO 00000KT 7SM CLR 24/22 A2998 RMK AO1

2010/08/10 09:00
KASJ 100900Z AUTO 00000KT 4SM BR CLR 23/21 A2999 RMK AO2

2010/08/10 09:00
KAVC 100900Z AUTO 00000KT 7SM SCT090 23/22 A3004 RMK AO2

2010/08/10 09:00
KBCB 100900Z AUTO 00000KT 4SM CLR 21/21 A3010 RMK AO2 PWINO

2010/08/10 08:59
KCJR 100859Z AUTO 00000KT 4SM BR CLR 23/22 A2995 RMK AO2

2010/08/10 09:00
KCPK 100900Z AUTO 00000KT 3SM -RA CLR 22/21 A2998 RMK AO2

2010/08/10 09:00
KDPL 100900Z AUTO 00000KT 10SM CLR 23/23 A3001 RMK AO2

2010/08/10 09:00
KDQH 100900Z AUTO 06003KT 10SM CLR 26/24 A2996 RMK AO1

2010/08/10 08:59
KEDE 100859Z AUTO 24003KT 10SM CLR 26/24 A2997 RMK AO2

2010/08/10 08:55
KEMV 100855Z AUTO 00000KT 5SM BR SCT070 22/21 A2998 RMK AO2

2010/08/10 09:00
KEXX 100900Z AUTO 00000KT 5SM BR CLR 22/22 A3002 RMK AO2

2010/08/10 08:57
KEZF 100857Z AUTO 00000KT 10SM CLR 25/23 A2994 RMK AO2 T02470233

2010/08/10 09:00
KFQD 100900Z AUTO 00000KT 3SM BR CLR 23/22 A3004 RMK AO2

2010/08/10 09:00
KGEV 100900Z AUTO 00000KT 7SM SCT065 20/19 A3015 RMK AO2

2010/08/10 09:00
KHBI 100900Z AUTO 00000KT 7SM CLR 23/22 A3004 RMK AO2

2010/08/10 09:00
KHLX 100900Z AUTO 17005KT 5SM BR CLR 23/23 A3013 RMK AO2

2010/08/10 09:00
KHQU 100900Z AUTO 00000KT 4SM CLR 21/19 A3005 RMK AO1

2010/08/10 08:59
KHRJ 100859Z AUTO 00000KT 7SM CLR 24/23 A3001 RMK AO2

2010/08/10 09:00
KMQI 100900Z AUTO 26004KT 10SM SCT007 SCT085 26/26 A2999 RMK AO2

2010/08/10 09:00
KONX 100900Z AUTO 00000KT 7SM CLR 24/23 A2999 RMK AO2

2010/08/10 09:00
KUKF 100900Z AUTO 00000KT 3/4SM BKN001 22/21 A3006 RMK AO1

2010/08/10 09:00
KUNV 100900Z AUTO 00000KT 10SM SCT110 21/17 A2998 RMK AO2 T02070170

2010/08/10 08:55
KVVG 100855Z AUTO 08006KT 24/24 A2991 RMK AO2

2010/08/10 08:56
PANW 100856Z AUTO 18005KT 1 3/4SM BR BKN001 OVC010 09/09 A2965 RMK AO2 PWINO TSNO 51003 60003 T00940088 P0003 SLP017 $

2010/08/10 09:00
YMML 100900Z 27006KT 7000 OVC009 08/07 Q1008 FM0900 VRB03KT 9000 -RA SCT010 SCT030 TEMPO 0900/1200 6000 RA BKN010

2010/08/10 09:00
YBBN 100900Z 09007KT 3000 -RA SCT009 SCT020 BKN028 19/19 Q1016 FM0900 02012KT 7000 -RA BKN008 BKN025 TEMPO 0900/1200 02015G25KT 3000 RA BKN006 FM0900 MOD TURB BLW 7000FT

2010/08/10 09:00
YBCS 100900Z 00000KT 9999 FEW005 BKN017 OVC025 24/23 Q1014 TEMPO 0900/1200 3000 -SHRA FEW003 BKN010

2010/08/10 08:50
LTCE 100850Z 08013KT 9999 FEW030 27/08 Q1017 NOSIG RMK RWY08R 07012KT 040V100 RWY26R /////KT RWY08L 07012KT

2010/08/10 08:50
LTCE 100850Z 08013KT 9999 FEW030 27/08 Q1017 NOSIG

2010/08/10 08:55
EBBL 100855Z 22005KT 9999 BKN190 22/11 Q1014 BLU BLU

2010/08/10 08:55
EBFN 100855Z 19013KT 9999 FEW015 SCT022 BKN200 19/15 Q1013 WHT WHT

2010/08/10 08:57
EHLW 100857Z AUTO 20009KT 7000NDV BR FEW008 SCT010 BKN016 18/16 Q1012 GRN WHT TEMPO GRN 6000 BR SCT023 TEMPO SCT012

2010/08/10 09:01
EHGR 100901Z AUTO 23006KT 9999NDV FEW020 SCT024 OVC200 19/14 Q1013 WHT BLU TEMPO WHT TEMPO SCT020

2010/08/10 08:50
ENHV 100850Z 22009KT 9999 FEW016 12/08 Q1012

2010/08/10 08:50
ESSD 100850Z 25010KT 220V280 9999 BKN029 20/14 Q1010

2010/08/10 08:50
EGOV 100850Z 22015KT 9999 FEW020 BKN060 15/12 Q1007 NOSIG

2010/08/10 08:50
EGQK 100850Z 24001KT 9999 FEW022CB SCT100 15/10 Q1004 BLU NOSIG

2010/08/10 08:50
EGDM 100850Z 22009KT 9999 -RA FEW007 BKN050 OVC090 14/12 Q1011 RERA BLU BECMG BKN020 WHT

2010/08/10 08:50
EGDR 100850Z 23014KT 2500 RA FEW000 SCT001 OVC004 16/16 Q1010 RED

2010/08/10 08:50
EGDY 100850Z 19008KT 9999 FEW008 SCT040 OVC070 14/12 Q1011 RERA BLU

2010/08/10 08:45
LHDC 100845Z 14001KT 9999 FEW016 22/18 Q1018 NOSIG

2010/08/10 08:45
LHPP 100845Z 12003KT 9999 FEW033 24/16 Q1019

2010/08/10 08:45
LHSN 100845Z VRB01MPS CAVOK 24/16 Q1018 NOSIG RMK BLU

2010/08/10 08:45
LHUD 100845Z 35005KT CAVOK 25/16 Q1018

2010/08/10 09:01
KBTL 100901Z AUTO 00000KT 2 1/2SM BR SCT004 21/20 A2997

2010/08/10 09:01
KGRB 100901Z AUTO 00000KT 4SM BR CLR 21/21 A2994

2010/08/10 09:00
KFNT 100900Z 00000KT 1SM BR 19/18 A2995

2010/08/10 08:50
VEPT 100850Z 18003KT 2500 HZ SCT018 SCT025 FEW030CB BKN100 31/25 Q1001 NOSIG

2010/08/10 09:00
MGGT 100900Z 36006KT 9999 SCT016 18/16 Q1023 A3021 VOL. PACAYA EN ACTIVIDAD NOSIG

2010/08/10 09:00
MGGT 100900Z 36006KT 9999 SCT016 18/16 Q1023 A3021 VOL. PACAYA EN ACTIVIDAD NOSIG

2010/08/10 09:00
MGGT 100900Z 36006KT 9999 SCT016 18/16 Q1023 A3021 VOL. PACAYA EN ACTI VIDAD NOSIG

2010/08/10 09:00
UTTT 100900Z 32003MPS 210V360 CAVOK 37/02 Q1008 R08R/CLRD70 NOSIG

2010/08/10 09:01
KMKG 100901Z 12003KT 1 3/4SM BR BKN002 21/19 A2995

2010/08/10 09:00
UBBY 100900Z 17004KT 9999 FEW040 SCT100 32/12 Q1015 NOSIG RMK R33/CLRD70 G/O

2010/08/10 09:00
UKBB 100900Z 01004MPS 9999 FEW033CB 28/20 Q1015 88CLRD95 NOSIG

2010/08/10 09:00
UKHH 100900Z 08005MPS CAVOK 38/08 Q1013 080///65 NOSIG

2010/08/10 09:00
UKOO 100900Z 06006MPS CAVOK 35/15 Q1011 34090070 NOSIG

2010/08/10 09:00
UKDE 100900Z 09002MPS 020V160 CAVOK 35/15 Q1012 02CLRD70 NOSIG

2010/08/10 09:00
UKDD 100900Z 11004MPS 070V140 CAVOK 35/17 Q1012 08090070 NOSIG

2010/08/10 09:00
UKFF 100900Z 03005MPS 340V070 CAVOK 35/19 Q1009 01010070 NOSIG

2010/08/10 09:00
UKLL 100900Z VRB02MPS 9999 BKN026 20/16 Q1018 31110360 NOSIG

2010/08/10 09:00
UKCC 100900Z 13003MPS 060V190 CAVOK 38/08 Q1013 08090070 NOSIG

2010/08/10 09:00
UKDR 100900Z 35007MPS 320V030 CAVOK 34/16 Q1012 3609//70 NOSIG

2010/08/10 08:45
LHDC 100845Z 14001KT 9999 FEW016 22/18 Q1018 NOSIG

2010/08/10 08:45
LHKE 100845Z 02002MPS 9999 FEW033 24/16 Q1018 NOSIG RMK BLU

2010/08/10 08:45
LHPA 100845Z 27002MPS 9999 FEW027 SCT083 22/18 Q1020 NOSIG RMK BLU

2010/08/10 08:45
LHPP 100845Z 12003KT 9999 FEW033 24/16 Q1019

2010/08/10 08:45
LHPR 100845Z 27004KT 9999 FEW026 SCT083 23/17 Q1019

2010/08/10 08:45
LHSM 100845Z 18002KT 9999 FEW026TCU 23/17 Q1019 NOSIG

2010/08/10 08:45
LHSN 100845Z VRB01MPS CAVOK 24/16 Q1018 NOSIG RMK BLU

2010/08/10 08:45
LHUD 100845Z 35005KT CAVOK 25/16 Q1018

2010/08/10 09:00
UGTB 100900Z 28004KT 9999 SCT050 BKN100 33/13 Q1015 NOSIG RMK 31CLRD80

2010/08/10 09:00
UGKO 100900Z 27004KT 9999 BKN100 35/22 Q1009 NOSIG

2010/08/10 09:02
KCAR 100902Z AUTO 00000KT 1 1/2SM BR BKN001 14/14 A2982

2010/08/10 09:00
YBTL 100900Z 05004KT 8000 -RA FEW006 SCT020 BKN045 23/22 Q1014

2010/08/10 09:00
YSTW 100900Z AUTO 00000KT 9999NDV // OVC024 14/13 Q1014

2010/08/10 09:00
YSWG 100900Z AUTO 02006KT 9999NDV // SCT032 BKN064 OVC110 12/08 Q1007

2010/08/10 09:00
YTEF 100900Z AUTO 11014KT //// // ////// 19/M04 Q1019

2010/08/10 09:00
YTNK 100900Z AUTO 18004KT 9999NDV // NCD 19/M05 Q1018

2010/08/10 09:00
YTRE 100900Z AUTO 35004KT //// // ////// 17/16 Q1014

2010/08/10 09:00
YWGT 100900Z AUTO 13005KT //// // ////// 09/08 Q1008

2010/08/10 09:00
YWHA 100900Z AUTO 21012KT 9999NDV // SCT049 12/07 Q1016

2010/08/10 09:00
YWLM 100900Z 03007KT CAVOK 16/15 Q1013 INTER 0900/1000 4000 RA BKN010 FM0900 MOD TURB BLW 5000FT

2010/08/10 09:01
KBTL 100901Z AUTO 00000KT 2 1/2SM BR SCT004 21/20 A2997

2010/08/10 09:00
UGTB 100900Z 28004KT 9999 SCT050 BKN100 33/13 Q1015 NOSIG RMK 31CLRD80

2010/08/10 09:00
UGKO 100900Z 27004KT 9999 BKN100 35/22 Q1009 NOSIG

2010/08/10 09:00
UKBB 100900Z 01004MPS 9999 FEW033CB 28/20 Q1015 88CLRD95 NOSIG

2010/08/10 09:00
UKHH 100900Z 08005MPS CAVOK 38/08 Q1013 080///65 NOSIG

2010/08/10 09:00
UKOO 100900Z 06006MPS CAVOK 35/15 Q1011 34090070 NOSIG

2010/08/10 09:00
UKDE 100900Z 09002MPS 020V160 CAVOK 35/15 Q1012 02CLRD70 NOSIG

2010/08/10 09:00
UKDD 100900Z 11004MPS 070V140 CAVOK 35/17 Q1012 08090070 NOSIG

2010/08/10 09:00
UKFF 100900Z 03005MPS 340V070 CAVOK 35/19 Q1009 01010070 NOSIG

2010/08/10 09:00
UKLL 100900Z VRB02MPS 9999 BKN026 20/16 Q1018 31110360 NOSIG

2010/08/10 09:00
UKCC 100900Z 13003MPS 060V190 CAVOK 38/08 Q1013 08090070 NOSIG

2010/08/10 09:00
UKDR 100900Z 35007MPS 320V030 CAVOK 34/16 Q1012 3609//70 NOSIG

2010/08/10 09:00
YBTL 100900Z 05004KT 8000 -RA FEW006 SCT020 BKN045 23/22 Q1014

2010/08/10 09:00
KFNT 100900Z 00000KT 1SM BR 19/18 A2995

2010/08/10 09:01
KGRB 100901Z AUTO 00000KT 4SM BR CLR 21/21 A2994

2010/08/10 09:01
KMKG 100901Z 12003KT 1 3/4SM BR BKN002 21/19 A2995

2010/08/10 09:00
SAWG 100900Z 32012KT 9999 FEW035 02/M05 Q1009

2010/08/10 09:00
SBAR 100900Z 12005KT 9999 FEW015 24/20 Q1018

2010/08/10 09:00
SBBV 100900Z 00000KT CAVOK 24/23 Q1013

2010/08/10 09:00
SBCR 100900Z 23004KT CAVOK 16/11 Q1017

2010/08/10 09:00
SBCZ 100900Z 00000KT 8000 NSC 19/19 Q1013

2010/08/10 09:00
SBFL 100900Z 00000KT 9999 BKN025 14/11 Q1025

2010/08/10 09:00
SBGL 100900Z 29004KT 9999 FEW012 BKN030 19/16 Q1024

2010/08/10 09:00
SBGO 100900Z 34002KT CAVOK 14/11 Q1019

2010/08/10 09:00
SBJP 100900Z 20006KT 9999 BKN020 BKN070 23/21 Q1017

2010/08/10 09:00
SBLO 100900Z 10006KT CAVOK 12/11 Q1022

2010/08/10 09:00
SBMA 100900Z 00000KT 7000 NSC 22/21 Q1013

2010/08/10 09:00
SBMQ 100900Z 30001KT 9999 FEW015 SCT090 25/24 Q1013

2010/08/10 09:00
SBPA 100900Z 09001KT 0100 R11/0300 R29/0300 FG NSC 05/05 Q1027

2010/08/10 09:00
SBRJ 100900Z 22003KT 9999 SCT025 BKN090 21/16 Q1023

2010/08/10 09:00
SBRP 100900Z 13007KT CAVOK 15/12 Q1021

2010/08/10 09:00
SBSN 100900Z 00000KT CAVOK 23/22 Q1012

2010/08/10 09:00
SBSV 100900Z 27002KT 9999 SCT017 18/18 Q1018

2010/08/10 09:00
SBTE 100900Z 19003KT CAVOK 21/19 Q1014

2010/08/10 09:00
SBVT 100900Z 22006KT 9999 FEW020 SCT100 21/18 Q1022

2010/08/10 09:00
SCAR 100900Z 08005KT CAVOK 09/05 Q1015

2010/08/10 09:00
SCBA 100900Z AUTO 28004KT CAVOK M04/M05 Q1021

2010/08/10 09:00
SCCI 100900Z 30009KT 9999 FEW016 SCT100 04/01 Q1004 NOSIG

2010/08/10 09:00
SCFA 100900Z 33006KT 9999 OVC019 13/08 Q1016

2010/08/10 09:00
SCIE 100900Z 18003KT CAVOK 04/02 Q1016

2010/08/10 09:00
SCON 100900Z AUTO VRB01KT CAVOK 03/03 Q1023

2010/08/10 09:00
SCTE 100900Z 18007KT 9999 OVC006 7/06 Q1022 NOSIG

2010/08/10 09:00
SULS 100900Z 00000KT CAVOK 02/02 Q1027

2010/08/10 09:00
SUMU 100900Z 00000KT 1500 R24/0600 BR NSC 02/02 Q1027 BECMG FM 1000Z 3000 BR NSC

2010/08/10 09:00
SVMG 100900Z 00000KT 9999 FEW010 BKN080 27/25 Q1012 NOSIG

2010/08/10 09:02
KCAR 100902Z AUTO 00000KT 1 1/2SM BR BKN001 14/14 A2982

2010/08/10 09:00
KFNT 100900Z 00000KT 1SM BR 19/18 A2995

2010/08/10 09:00
LKKV 100900Z VRB03KT 9999 FEW033 19/11 Q1019

2010/08/10 09:00
LKMT 100900Z VRB01KT 9999 FEW026 22/16 Q1018 NOSIG

2010/08/10 09:00
LKPR 100900Z 11003KT 010V180 9999 SCT025 22/14 Q1018 NOSIG

2010/08/10 09:00
LKTB 100900Z VRB02KT 9999 FEW032 23/16 Q1018 NOSIG

2010/08/10 09:00
LYBE 100900Z 36005KT 310V040 CAVOK 25/15 Q1018 NOSIG

2010/08/10 09:00
LYBT 100900Z 36005KT 300V060 CAVOK 26/16 Q1018 NOSIG

2010/08/10 09:00
LYKV 100900Z VRB02KT 9999 FEW040 24/18 Q1018 NOSIG

2010/08/10 09:00
LYNI 100900Z 33006KT 270V360 9999 FEW030 24/18 Q1017 NOSIG

2010/08/10 09:00
LYPG 100900Z 10003KT 9999 FEW040 30/10 Q1013 NOSIG

2010/08/10 09:00
LYTV 100900Z 22003KT CAVOK 30/14 Q1013 NOSIG

2010/08/10 09:00
LYUZ 100900Z 07004KT 350V140 9999 SCT020 20/13 Q1021 NOSIG

2010/08/10 09:00
LYVR 100900Z VRB06KT 9999 FEW030 26/18 Q1017

2010/08/10 09:00
BIAR 100900Z 12001KT 9999 OVC011 10/08 Q1014

2010/08/10 09:00
BIEG 100900Z 01007KT 7000 BR OVC004 08/08 Q1014

2010/08/10 09:00
BIKF 100900Z 34012KT 9999 FEW016 BKN025 13/08 Q1014

2010/08/10 09:00
EIDW 100900Z 25013KT 9999 FEW012 SCT018 BKN036 15/11 Q1007 NOSIG

2010/08/10 09:00
EINN 100900Z 25012KT 9999 FEW020 BKN042 16/12 Q1009 NOSIG

2010/08/10 09:00
EICK 100900Z 31012KT 9999 FEW025 15/09 Q1009 NOSIG

2010/08/10 09:00
EIKN 100900Z 30011KT 270V330 9999 FEW015 SCT021 13/10 Q1007 NOSIG

2010/08/10 09:01
KMKG 100901Z 12003KT 1 3/4SM BR BKN002 21/19 A2995

2010/08/10 09:00
PAMC 100900Z 00000KT 10SM SCT027 BKN036 OVC110 12/10 A2961

2010/08/10 08:55
KQA7 100855Z AUTO VRB03KT 9999 CLR 37/00 A2986 RMK AO2A SLP989 T03730004 57011 $

2010/08/10 08:55
KQGV 100855Z 03005KT 9999 BKN150 44/05 A2955 RMK SLP995 58005

2010/08/10 08:55
KQPD 100855Z AUTO 23010G17KT 9000 37/00 A2967 RMK AO2 SLP955 T03710000 57010 $

2010/08/10 08:55
KQQS 100855Z AUTO 24004KT 9999 SCT050 BKN065 25/12 A3008 RMK AO2 LTG DSNT E SLP075 T02520115 57012 $

2010/08/10 08:55
KQTO 100855Z 29010KT 9999 CLR 46/08 A2958 RMK SLP014 58002

2010/08/10 08:55
KQTX 100855Z 32007G14KT 9000 HZ FEW080 44/03 A2966 RMK SLP009 51001

2010/08/10 09:00
LFBG 100900Z AUTO VRB02KT 9999NDV SCT019 SCT024 20/14 Q1019

2010/08/10 09:00
LFKS 100900Z AUTO 12006KT 100V160 9999NDV SCT031 BKN240 27/20 Q1016

2010/08/10 09:00
LFMI 100900Z AUTO 25005KT 200V320 9999NDV NSC 27/17 Q1015

2010/08/10 09:00
LFMO 100900Z AUTO VRB02KT 9999NDV NSC 27/17 Q1016

2010/08/10 09:00
LFMY 100900Z VRB03KT CAVOK 27/18 Q1016

2010/08/10 09:00
LFOA 100900Z AUTO 27009KT 9999NDV NSC 22/13 Q1018

2010/08/10 09:00
LFOC 100900Z AUTO 22012KT 9999NDV NSC 22/11 Q1016

2010/08/10 09:00
LFOE 100900Z AUTO 20014KT 9999NDV NSC 20/13 Q1015

2010/08/10 09:00
LFOJ 100900Z 20009KT 170V230 CAVOK 22/14 Q1016

2010/08/10 09:00
LFPC 100900Z 18006KT 150V210 CAVOK 19/13 Q1015

2010/08/10 09:00
LFPV 100900Z AUTO 22005KT 170V250 9999NDV NSC 20/13 Q1016

2010/08/10 09:00
LFQI 100900Z 22009KT CAVOK 18/14 Q1014

2010/08/10 09:00
LFSD 100900Z AUTO VRB03KT 9999NDV NSC 22/15 Q1017

2010/08/10 09:00
LFSF 100900Z AUTO 13004KT 060V180 9999NDV NSC 25/13 Q1016

2010/08/10 09:00
LFSI 100900Z AUTO 22007KT 9999NDV NSC 24/13 Q1016

2010/08/10 09:00
LFSO 100900Z 23006KT 200V260 CAVOK 25/12 Q1017

2010/08/10 09:00
LFSR 100900Z AUTO VRB02KT 9999NDV NSC 22/13 Q1015

2010/08/10 09:00
LFSX 100900Z AUTO VRB02KT 9999NDV NSC 23/14 Q1017

2010/08/10 09:00
LFYR 100900Z 24007KT 200V270 CAVOK 21/13 Q1017

2010/08/10 08:45
LHKE 100845Z 02002MPS 9999 FEW033 24/16 Q1018 NOSIG RMK BLU

2010/08/10 09:00
LKCV 100900Z VRB02KT 9999 FEW030 21/16 Q1018 NOSIG RMK BLU+ BLU+

2010/08/10 09:00
LKKV 100900Z VRB03KT 9999 FEW033 19/11 Q1019

2010/08/10 09:00
LKMT 100900Z VRB01KT 9999 FEW026 22/16 Q1018 NOSIG

2010/08/10 09:00
LKPR 100900Z 11003KT 010V180 9999 SCT025 22/14 Q1018 NOSIG

2010/08/10 09:00
LKTB 100900Z VRB02KT 9999 FEW032 23/16 Q1018 NOSIG

2010/08/10 09:00
LYBE 100900Z 36005KT 310V040 CAVOK 25/15 Q1018 NOSIG

2010/08/10 09:00
LYNI 100900Z 33006KT 270V360 9999 FEW030 24/18 Q1017 NOSIG

2010/08/10 09:00
LYPG 100900Z 10003KT 9999 FEW040 30/10 Q1013 NOSIG

2010/08/10 09:00
LYTV 100900Z 22003KT CAVOK 30/14 Q1013 NOSIG

2010/08/10 09:00
SLRI 100900Z 17004KT 3000 FU SKC 21/18 Q1013

2010/08/10 09:00
SLCA 100900Z 00000KT 9999 BKN080 10/04 Q1024

2010/08/10 09:00
ORBI 100900Z 01008KT CAVOK 45/07 Q1002

2010/08/10 09:00
ORMM 100900Z 16008KT CAVOK 45/16 Q0999

2010/08/10 09:00
WBGR 100900Z 35004KT 9999 FEW014 SCT150 BKN300 30/26 Q1006

2010/08/10 09:00
WBGS 100900Z 27002KT 9999 FEW018 SCT150 BKN300 33/24 Q1006

2010/08/10 09:00
WBGY 100900Z 09001KT 9999 SCT023 BKN300 33/26 Q1006

2010/08/10 09:00
WBKL 100900Z 31004KT 9999 FEW014 SCT140 BKN290 31/26 Q1006

2010/08/10 09:00
WBKS 100900Z 07008KT 9999 FEW017 FEW018CB BKN300 30/26 Q1007

2010/08/10 09:00
WBKT 100900Z 28003KT 9999 FEW016 BKN270 31/23 Q1007

2010/08/10 09:00
WBKW 100900Z 15005KT 9999 FEW018 BKN300 30/25 Q1007

2010/08/10 09:00
KTMA 100900Z AUTO 00000KT 7SM CLR 24/24 A2997 RMK AO2 T02400236

2010/08/10 09:02
KTNB 100902Z AUTO 00000KT 1SM BR VV007 18/17 A3016 RMK AO2

2010/08/10 09:04
KTTA 100904Z AUTO 00000KT 2 1/2SM BR CLR 21/21 A3001 RMK AO2

2010/08/10 08:56
KVDF 100856Z AUTO 09003KT 10SM SCT017 25/23 A2988 RMK AO2

2010/08/10 08:58
KVUJ 100858Z AUTO 00000KT 5SM BKN095 22/21 A3000 RMK AO2

2010/08/10 08:59
KW99 100859Z AUTO 00000KT 4SM HZ CLR 19/17 A3001 RMK AO2

2010/08/10 09:00
FASK 100900Z 15020KT CAVOK 12/// Q1033

2010/08/10 09:00
FALM 100900Z 13015G20KT 8000 NSC 17/// Q1031

2010/08/10 09:00
FAWK 100900Z 13015KT CAVOK 11/// Q1035

2010/08/10 09:00
K1A5 100900Z AUTO 00000KT 1/2SM FG OVC002 20/18 A3012 RMK AO2 T01960183

2010/08/10 08:59
K3I2 100859Z AUTO 00000KT 7SM CLR 19/18 A2999 RMK AO2

2010/08/10 09:00
K3J7 100900Z AUTO 00000KT 10SM CLR 24/22 A2999 RMK AO2 T02430215

2010/08/10 09:00
KUXL 100900Z AUTO 00000KT 10SM CLR 26/26 A2992 RMK AO2

2010/08/10 08:58
KACP 100858Z AUTO 00000KT 5SM BR SCT031 SCT065 24/24 A2993 RMK AO2

2010/08/10 09:00
KAYS 100900Z AUTO 00000KT 7SM CLR 25/24 A2996 RMK AO1

2010/08/10 09:02
KBGE 100902Z AUTO 04003KT 10SM CLR 24/22 A2993 RMK AO2

2010/08/10 09:00
KBQK 100900Z AUTO 12004KT 10SM CLR 27/25 A2996 RMK AO1 6//// T02740245 PNO

2010/08/10 09:00
KCCO 100900Z AUTO 00000KT 2 1/2SM CLR 21/21 A3002 RMK AO1

2010/08/10 09:00
KCDH 100900Z AUTO 00000KT 10SM CLR 25/24 A2991 RMK AO2

2010/08/10 08:55
KCLS 100855Z AUTO 23003KT 10SM OVC016 13/11 A2999 RMK AO2

2010/08/10 09:00
KCPC 100900Z AUTO 00000KT 10SM CLR 25/24 A3000 RMK AO2 T02470243

2010/08/10 09:00
KCTJ 100900Z AUTO 00000KT 7SM CLR 23/22 A3002 RMK AO2 T02280221

2010/08/10 09:01
KCWV 100901Z AUTO 00000KT 7SM CLR 24/24 A2999 RMK AO2 T02420242

2010/08/10 08:58
KDBN 100858Z AUTO 00000KT 5SM CLR 23/23 A2998 RMK AO1

2010/08/10 08:58
KDNN 100858Z AUTO 00000KT 7SM CLR 23/22 A3000 RMK AO2

2010/08/10 09:00
KDRI 100900Z AUTO 00000KT 10SM CLR 25/25 A2994 RMK AO2

2010/08/10 09:00
KEYF 100900Z AUTO 00000KT 10SM CLR 25/25 A3001 RMK AO2 T02500247

2010/08/10 09:00
KF24 100900Z AUTO 00000KT 10SM CLR 26/23 A2994 RMK AO2 T02570230

2010/08/10 09:15
KFDW 100915Z AUTO 14003KT 10SM CLR 25/23 A3002 RMK AO1

2010/08/10 09:00
KFFA 100900Z AUTO 27005KT 10SM CLR 26/25 A2999 RMK AO2 T02610246

2010/08/10 09:00
KFKN 100900Z AUTO 18003KT 10SM BKN070 24/23 A2998 RMK AO1

2010/08/10 09:00
KFVX 100900Z AUTO 00000KT 5SM BR CLR 24/23 A2995 RMK AO2

2010/08/10 09:00
KGAO 100900Z AUTO 00000KT 3SM BR 24/23 A2992 RMK AO2 SKY OBSCURED

2010/08/10 08:55
KGHG 100855Z AUTO 00000KT 2SM -DZ CLR 21/21 A2991 RMK AO2

2010/08/10 09:00
KGWW 100900Z AUTO 22003KT 10SM SCT005 SCT110 24/24 A3001 RMK AO2 T02360235

2010/08/10 09:00
KHNZ 100900Z AUTO 21003KT 7SM CLR 23/22 A3000 RMK AO2 T02310218

2010/08/10 08:58
KHOE 100858Z AUTO 00000KT 10SM SCT017 25/ A2996 RMK AO2 T0245

2010/08/10 09:00
KHSP 100900Z AUTO 27010KT 10SM CLR 20/17 A3018 RMK AO2

2010/08/10 09:00
KHUM 100900Z AUTO 02003KT 5SM BR CLR 25/25 A2991 RMK AO2 T02500250

2010/08/10 09:00
KHWY 100900Z AUTO 00000KT 7SM CLR 22/20 A2994 RMK AO2

2010/08/10 09:00
KI16 100900Z AUTO 00000KT 5SM BR SCT002 SCT060 19/19 A3007 RMK AO2

2010/08/10 09:01
KIDI 100901Z AUTO 00000KT 7SM OVC100 20/19 A3001 RMK AO2

2010/08/10 09:00
KIER 100900Z AUTO 00000KT 10SM CLR 26/25 A2992 RMK AO2 PWINO

2010/08/10 09:00
KIPJ 100900Z AUTO 00000KT 4SM BR CLR 22/21 A3003 RMK AO2 T02220212

2010/08/10 09:00
KISO 100900Z AUTO 21004KT 10SM CLR 24/23 A3001 RMK AO2 T02360227

2010/08/10 09:00
KIXA 100900Z AUTO 20003KT 7SM CLR 23/23 A2998 RMK AO2 T02300225

2010/08/10 09:00
KJES 100900Z AUTO 00000KT 10SM CLR 24/24 A2997 RMK AO2 T02420242

2010/08/10 09:00
KJGG 100900Z AUTO 00000KT 10SM CLR 26/22 A2998 RMK AO1

2010/08/10 09:00
KJKA 100900Z AUTO 01003KT 5SM BR CLR 28/27 A2991 RMK AO2 T02800265

2010/08/10 09:00
KJYO 100900Z AUTO 00000KT 5SM BR CLR 23/22 A2995 RMK AO2

2010/08/10 09:00
KLDJ 100900Z AUTO 24003KT 7SM CLR 26/19 A2992 RMK AO2 T02560187

2010/08/10 09:00
KLHZ 100900Z AUTO 00000KT 7SM CLR 24/22 A3001 RMK AO2 T02370221

2010/08/10 09:00
KLKU 100900Z AUTO 18003KT 7SM CLR 24/21 A2996 RMK AO2

2010/08/10 09:00
KLNP 100900Z AUTO 20003KT 5SM OVC036 23/21 A3012 RMK AO1

2010/08/10 09:01
KLWB 100901Z AUTO 00000KT 5SM BR CLR 17/17 A3010 RMK AO2

2010/08/10 09:00
KMDQ 100900Z AUTO 00000KT 5SM BR CLR 24/24 A2999 RMK AO2 T02400235

2010/08/10 09:00
KMGR 100900Z AUTO 00000KT 10SM CLR 26/24 A2996 RMK AO2

2010/08/10 09:01
KMLJ 100901Z AUTO 00000KT 7SM CLR 24/24 A2999 RMK AO2

2010/08/10 09:01
KMRN 100901Z AUTO 00000KT 2 1/2SM BR CLR 22/22 A3009 RMK AO2

2010/08/10 09:02
KMWK 100902Z AUTO 00000KT 5SM BR CLR 23/21 A3004 RMK AO2

2010/08/10 09:01
KPGV 100901Z AUTO 25003KT 10SM CLR 23/23 A3001 RMK AO2

2010/08/10 09:00
KSIF 100900Z AUTO 00000KT 7SM CLR 24/22 A3001 RMK AO2 T02350219

2010/08/10 09:00
KSUT 100900Z AUTO 23004KT 10SM CLR 26/22 A3001 RMK AO2

2010/08/10 09:00
KSVH 100900Z AUTO 00000KT 7SM CLR 23/23 A3002 RMK AO2 T02320227

2010/08/10 08:50
ENVD 100850Z 11007KT 9999 FEW010 BKN038 10/07 Q1013

2010/08/10 09:00
LUBL 100900Z 31009KT CAVOK 26/19 Q1015 RWY33

2010/08/10 09:00
DIAP 100900Z 25009KT 7000 SCT011 SCT020 BKN070 26/23 Q1015 NOSIG

2010/08/10 09:02
KBFD 100902Z AUTO 00000KT 2SM BR OVC070 19/18 A3002 RMK AO2

2010/08/10 09:02
KBGM 100902Z AUTO 00000KT 1SM BR BKN001 OVC070 20/20 A3000 RMK AO2 RVRNO

2010/08/10 09:02
KEAU 100902Z AUTO 04003KT 3/4SM BR VV001 20/19 A2995 RMK AO2

2010/08/10 09:02
KMHE 100902Z AUTO 20007KT 9SM OVC008 25/23 A2987 RMK AO2 CIG 006V011 TSNO

2010/08/10 09:02
KOSH 100902Z AUTO 00000KT 2SM BR CLR 21/20 A2994 RMK AO2

2010/08/10 09:02
KSPG 100902Z AUTO 11014KT 10SM BKN012 27/24 A2985 RMK AO2

2010/08/10 09:02
KTAN 100902Z AUTO 14003KT 2 1/2SM -RA BR FEW027 BKN110 21/21 A2989 RMK AO2 P0001

2010/08/10 09:02
PATK 100902Z AUTO 18007KT 7SM -RA FEW009 BKN012 OVC032 12/11 A2977 RMK AO2 P0000 TSNO

2010/08/10 09:00
NWWW 100900Z AUTO 11006KT 9999NDV NCD 19/15 Q1023

2010/08/10 09:00
YBTL 100900Z 05004KT 8000 -RA FEW006 SCT020 BKN045 23/22 Q1014

2010/08/10 08:50
ENEK 100850Z 14007KT 9999 FEW005 FEW010TCU BKN045 16/13 Q1006 W16/S3

2010/08/10 09:00
SAVC 100900Z 27015KT CAVOK 06/M02 Q1020

2010/08/10 08:50
ENOL 100850Z 35004KT 9999 FEW003 BKN008 14/12 Q1011 BECMG BKN012

2010/08/10 09:00
SPHI 100900Z 18003KT CAVOK 15/13 Q1015 RMK PP000

2010/08/10 09:00
SPIM 100900Z 18003KT 8000 BKN015 14/13 Q1016 NOSIG RMK PP000

2010/08/10 09:00
SPQU 100900Z 05007KT CAVOK 07/M16 Q1026 RMK PP000

2010/08/10 09:00
SPRU 100900Z 15005KT 5000 BR BKN008 OVC012 14/13 Q1014 RMK BIRDS HAZARD RWY 20 PP000

2010/08/10 09:00
SPSO 100900Z 07003KT 7000 SCT012 11/09 Q1016 RMK PP000

2010/08/10 09:00
SPTN 100900Z 00000KT CAVOK 07/04 Q1012 RMK PP000

2010/08/10 09:00
SPZO 100900Z 00000KT 9999 SKC 01/M06 Q1033 RMK PP000

2010/08/10 09:00
LBSF 100900Z VRB01MPS CAVOK 26/17 Q1016 NOSIG

2010/08/10 09:00
LBWN 100900Z 32004MPS 270V010 CAVOK 29/22 Q1011 WS RWY09 NOSIG

2010/08/10 09:00
LBBG 100900Z 35006MPS 310V010 CAVOK 30/21 Q1011 NOSIG

2010/08/10 09:00
LBPD 100900Z 29006MPS 250V320 CAVOK 29/19 Q1013 NOSIG

2010/08/10 09:00
LBGO 100900Z 28003MPS 240V330 CAVOK 27/19 Q1015 NOSIG

2010/08/10 09:00
LUKK 100900Z 02011KT CAVOK 31/15 Q1013 08CLRD65 NOSIG

2010/08/10 09:00
SARF 100900Z 20005KT CAVOK 11/10 Q1021

2010/08/10 09:00
TFFF 100900Z AUTO 07002KT 9999NDV NCD 25/24 Q1013

2010/08/10 09:00
SARE 100900Z 23003KT 6000 NSC 04/04 Q1023

2010/08/10 09:00
OEDF 100900Z 13009KT 090V160 5000 DU SKC 42/20 Q0998 NOSIG

2010/08/10 09:00
OEJN 100900Z 22006KT CAVOK 39/24 Q1002 NOSIG

2010/08/10 09:00
OEMA 100900Z 00000KT 7000 NSC 43/M01 Q1006 NOSIG

2010/08/10 09:00
OERK 100900Z 01010KT 8000 SKC 43/01 Q1005 NOSIG

2010/08/10 09:00
OERY 100900Z 03009KT 8000 SKC 43/03 Q1006 NOSIG

2010/08/10 09:00
YAMB 100900Z AUTO 21005KT 3300NDV // SCT003 OVC007 18/18 Q1017

2010/08/10 09:00
SAZM 100900Z 32004KT CAVOK 00/M03 Q1026

2010/08/10 09:00
LHBP 100900Z VRB05KT 9999 FEW035 24/16 Q1018 NOSIG

2010/08/10 09:00
TTPP 100900Z 00000KT 9999 FEW016 BKN280 24/23 Q1013 NOSIG

2010/08/10 09:00
TTCP 100900Z 16005KT 9999 FEW016 SCT300 27/23 Q1013 NOSIG

2010/08/10 09:00
SACO 100900Z 32005KT CAVOK 03/M01 Q1027

2010/08/10 09:00
URMT 100900Z 10010G13MPS CAVOK 34/09 Q1012 NOSIG RMK QFE719 SC07

2010/08/10 09:00
LQTZ 100900Z VRB02KT 9999 FEW045 25/// Q1018

2010/08/10 09:00
MZBZ 100900Z 00000KT CAVOK 28/26 A2983 Q1010 NOSIG

2010/08/10 09:00
SAAR 100900Z 18004KT 7000 NSC 03/02 Q1026

2010/08/10 09:00
SACO 100900Z 32005KT CAVOK 03/M01 Q1027

2010/08/10 09:00
SADF 100900Z 00000KT 7000 MIFG SKC 03/03 Q1027

2010/08/10 09:00
SAEZ 100900Z 00000KT 8000 R11/0300D RMID/0400D R29/P1500 MIFGBR 03/03 Q1028

2010/08/10 09:00
SAME 100900Z 00000KT CAVOK 04/M03 Q1022

2010/08/10 09:00
SANT 100900Z 09002KT 6000 BKN040 OVC100 11/06 Q1024

2010/08/10 09:00
SARE 100900Z 23003KT 6000 NSC 04/04 Q1023

2010/08/10 09:00
SARF 100900Z 20005KT CAVOK 11/10 Q1021

2010/08/10 09:00
SASA 100900Z 00000KT 9999 SCT025 OVC100 04/03 Q1024

2010/08/10 09:00
SAVC 100900Z 27015KT CAVOK 06/M02 Q1020

2010/08/10 09:00
SAWG 100900Z 32012KT 9999 FEW035 02/M05 Q1009

2010/08/10 09:00
SAZM 100900Z 32004KT CAVOK 00/M03 Q1026

2010/08/10 09:00
SAZN 100900Z 00000KT CAVOK M03/M05 Q1024

2010/08/10 09:00
FBKE 100900Z 14009KT CAVOK 23/01 Q1025

2010/08/10 09:00
FBMN 100900Z 14010KT CAVOK 16/M09 Q1029

2010/08/10 09:00
FBSK 100900Z 13009KT CAVOK 14/M065 Q1032 NOSIG

2010/08/10 09:00
FYGB 100900Z AUTO 09004KT //// // ////// 11/M13 Q1033

2010/08/10 09:00
FYGF 100900Z AUTO 12009KT //// // ////// 13/M11 Q1032

2010/08/10 09:00
FYLZ 100900Z AUTO 05029KT //// // ////// 23/M14 Q1021

2010/08/10 09:00
FYML 100900Z AUTO 10011KT //// // ////// ///// Q1035

2010/08/10 09:00
FYOA 100900Z AUTO 08012KT //// // ////// 21/M06 Q1025

2010/08/10 09:00
FYOJ 100900Z AUTO 09011KT //// // ////// 18/M09 Q1026

2010/08/10 09:00
FYOW 100900Z AUTO 11008KT //// // ////// 18/M14 Q1028

2010/08/10 09:00
FYWB 100900Z 09035KT 0400 R09/0200V0400N R27/0400V1000U VV/// 29/M13 Q1016 

2010/08/10 09:00
FYWH 100900Z 10007KT CAVOK 09/M12 Q1034

2010/08/10 09:00
FYWW 100900Z 12007KT CAVOK 11/M17 Q1031

2010/08/10 09:00
FABL 100900Z 11013KT CAVOK 09/M07 Q1035 NOSIG

2010/08/10 09:00
FACT 100900Z 35003KT 270V060 9999 FEW040 15/06 Q1037 NOSIG

2010/08/10 09:00
FAEL 100900Z 25013KT 220V280 9999 SCT026 BKN047 13/10 Q1038

2010/08/10 09:00
FAGG 100900Z VRB03KT 9999 FEW015 SCT023 13/07 Q1040

2010/08/10 09:00
FAJS 100900Z 10018KT CAVOK 11/M07 Q1034 NOSIG

2010/08/10 09:00
FAKN 100900Z 24003KT CAVOK 16/M03 Q1034 NOSIG

2010/08/10 09:00
FALA 100900Z 10013KT 070V140 CAVOK 13/M06 Q1033 NOSIG

2010/08/10 09:00
FALE 100900Z 19016KT 9999 FEW040 18/02 Q1034 NOSIG

2010/08/10 09:00
FAMM 100900Z 11009G19KT CAVOK 12/M12 Q1033 NOSIG

2010/08/10 09:00
FAPE 100900Z 17007KT 130V210 9999 SCT033 16/07 Q1039 NOSIG

2010/08/10 09:00
FAPP 100900Z 05006KT CAVOK 13/05 Q1031 NOSIG

2010/08/10 09:00
FAUP 100900Z 07008KT CAVOK 12/M07 Q1036 NOSIG

2010/08/10 09:00
SBSL 100900Z 08005KT 9999 SCT017 25/23 Q1013

2010/08/10 09:00
WSSS 100900Z 13008KT 110V200 9999 FEW022 BKN300 31/25 Q1006 NOSIG

2010/08/10 08:50
ESSD 100850Z 25010KT 220V280 9999 BKN029 20/14 Q1010

2010/08/10 09:00
RJFM 100900Z 15010KT 9999 FEW012 SCT020 BKN/// 28/25 Q1011

2010/08/10 09:00
RJFO 100900Z 14016KT 9999 FEW015 BKN060 BKN180 26/25 Q1010

2010/08/10 09:00
RJFR 100900Z 11024KT 9999 FEW025 BKN150 BKN/// 29/24 Q1008

2010/08/10 09:00
RJFT 100900Z 14007KT 100V180 9999 FEW015 SCT060 BKN/// 30/21 Q1009

2010/08/10 09:00
RJFU 100900Z 14020KT 9999 -SHRA FEW015 SCT025 BKN040 28/25 Q1007

2010/08/10 09:00
RJGG 100900Z 15008KT 9999 -SHRA FEW010 SCT020 BKN070 27/25 Q1013 NOSIG

2010/08/10 09:00
RJKA 100900Z 17015KT 9999 FEW015 SCT150 BKN/// 29/26 Q1009

2010/08/10 09:00
RJNT 100900Z 17006KT 120V210 9999 -SHRA FEW005 SCT040 BKN080 26/25 Q1012

2010/08/10 09:00
RJNW 100900Z VRB02KT 9999 FEW020 SCT070 BKN130 26/24 Q1013

2010/08/10 09:00
RJNS 100900Z 20003KT 140V300 9999 FEW002 BKN/// 27/24 Q1015

2010/08/10 09:00
RJOA 100900Z 15003KT 120V180 9999 FEW025 SCT045 BKN120 28/23 Q1014

2010/08/10 09:00
RJOB 100900Z 11007KT 9999 FEW025 SCT150 BKN/// 29/23 Q1013

2010/08/10 09:00
RJOC 100900Z 10003KT 9999 FEW025 SCT090 BKN/// 33/22 Q1010

2010/08/10 09:00
RJOH 100900Z 06009KT 9999 FEW030 BKN210 30/26 Q1010

2010/08/10 09:00
RJOK 100900Z 17005KT 140V210 9999 FEW020 BKN/// 29/25 Q1013

2010/08/10 09:00
RJOM 100900Z 32004KT 280V010 9999 FEW020 SCT/// 29/24 Q1011

2010/08/10 09:00
RJOO 100900Z VRB03KT 9999 -SHRA FEW008 SCT025 FEW025CB BKN040 29/22 Q1013

2010/08/10 09:00
RJOR 100900Z 20005KT 9999 FEW025 FEW030TCU SCT110 BKN130 32/24 Q1011

2010/08/10 09:00
RJOT 100900Z VRB02KT 9999 FEW020CB SCT100 27/23 Q1013

2010/08/10 09:00
RJOW 100900Z 16013KT 9999 FEW035 BKN140 BKN/// 31/19 Q1010

2010/08/10 09:00
RJAA 100900Z 17009KT 9999 FEW025 SCT120 BKN/// 27/23 Q1014 NOSIG

2010/08/10 09:00
RJBB 100900Z 21010KT 9999 FEW015 SCT100 BKN120 29/24 Q1013 NOSIG

2010/08/10 09:00
RJBD 100900Z 15007KT 9999 FEW008 BKN100 BKN/// 28/25 Q1014

2010/08/10 09:00
RJBE 100900Z 22011KT 9999 FEW025 FEW030CB BKN080 BKN120 28/24 Q1013

2010/08/10 09:00
RJBH 100900Z 21008KT 9999 FEW030 SCT130 BKN/// 31/22 Q1011

2010/08/10 09:00
RJBT 100900Z 21008KT 9999 FEW005 BKN100 26/23 Q1013

2010/08/10 09:00
RJCB 100900Z 12005KT 9999 FEW015 BKN/// 25/22 Q1013

2010/08/10 09:00
RJCC 100900Z 16010KT 1800 -DZ BR FEW001 BKN002 BKN003 22/20 Q1013

2010/08/10 09:00
RJCH 100900Z 14005KT 9999 FEW003 24/23 Q1013

2010/08/10 09:00
RJCK 100900Z 20003KT 1600 BR SCT001 BKN002 BKN/// 21/19 Q1014

2010/08/10 09:00
RJCM 100900Z 21004KT 180V250 9999 FEW015 SCT070 BKN/// 26/23 Q1012

2010/08/10 09:00
RJCN 100900Z 25005KT 9999 FEW015 BKN/// 25/22 Q1013

2010/08/10 09:00
RJCW 100900Z 22007KT 9999 FEW010 SCT040 BKN/// 25/22 Q1012

2010/08/10 09:00
RJDC 100900Z 11021KT 9999 FEW020 SCT100 BKN/// 28/24 Q1009

2010/08/10 09:00
RJDT 100900Z 17021G38KT 130V210 3500 +SHRA FEW010 SCT015 BKN025 27/24 Q1007

2010/08/10 09:00
RJEC 100900Z 32005KT 9999 FEW025 27/23 Q1013

2010/08/10 09:00
RJFS 100900Z 17022KT 9999 -SHRA FEW025 SCT040 BKN080 30/24 Q1007

2010/08/10 09:00
RJFF 100900Z 16014KT 9999 FEW025 BKN160 BKN/// 33/21 Q1006

2010/08/10 09:00
RJFG 100900Z 14013KT 9999 FEW004 BKN005 26/26 Q1012

2010/08/10 09:00
RJFK 100900Z 14012KT 9999 FEW005 SCT025 BKN035 27/24 Q1011

2010/08/10 09:00
RJOY 100900Z 31008KT 9999 TS VCSH FEW010 FEW025CB SCT030 BKN100 30/23 Q1013

2010/08/10 09:00
RJSA 100900Z 36004KT 330V030 9999 FEW035 SCT110 BKN/// 26/23 Q1014

2010/08/10 09:00
RJSC 100900Z 08008KT 9999 VCSH FEW025 FEW040TCU SCT100 BKN/// 30/24 Q1012

2010/08/10 09:00
RJSF 100900Z 18009KT 9999 FEW025 BKN/// 27/23 Q1015

2010/08/10 09:00
RJSI 100900Z 19008KT 9999 FEW030 BKN/// 30/23 Q1013

2010/08/10 09:00
RJSK 100900Z 30004KT 9999 FEW025 SCT180 BKN/// 30/24 Q1012

2010/08/10 09:00
RJSR 100900Z 27003KT 9999 FEW040 BKN/// 29/23 Q1012

2010/08/10 09:00
RJSN 100900Z 33005KT 9999 FEW030 SCT/// BKN/// 30/24 Q1012

2010/08/10 09:00
RJSS 100900Z 16007KT 9999 FEW015 BKN/// 27/24 Q1012

2010/08/10 09:00
RJSY 100900Z 31003KT 280V340 9999 FEW030 BKN/// 30/21 Q1011

2010/08/10 09:00
RJTH 100900Z 21006KT 180V250 9999 FEW015 BKN180 27/25 Q1015

2010/08/10 09:00
RJTT 100900Z 19013KT 9999 FEW015 BKN/// 29/23 Q1014

2010/08/10 09:00
ROAH 100900Z 20009KT 150V230 9999 SCT012 SCT100 BKN150 29/27 Q1008

2010/08/10 09:00
ROIG 100900Z 20010KT 9999 FEW015 BKN180 BKN/// 29/27 Q1007

2010/08/10 09:00
ROMY 100900Z 20007KT 9999 -RA FEW015 SCT150 BKN/// 29/27 Q1008

2010/08/10 09:00
RORS 100900Z 20007KT 9999 FEW010 SCT070 BKN170 29/26 Q1007

2010/08/10 09:00
RJAH 100900Z 20006KT 9999 FEW020 BKN025 BKN350 28/25 Q1013

2010/08/10 09:00
EICK 100900Z 31012KT 9999 FEW025 15/09 Q1009 NOSIG

2010/08/10 09:00
EIDW 100900Z 25013KT 9999 FEW012 SCT018 BKN036 15/11 Q1007 NOSIG

2010/08/10 09:00
EIKN 100900Z 30011KT 270V330 9999 FEW015 SCT021 13/10 Q1007 NOSIG

2010/08/10 09:00
EINN 100900Z 25012KT 9999 FEW020 BKN042 16/12 Q1009 NOSIG

2010/08/10 09:00
LEMO 100900Z 00000KT CAVOK 33/13 Q1017 NOSIG

2010/08/10 09:00
LFBC 100900Z AUTO 12005KT 070V210 9999NDV BKN025 21/13 Q1019

2010/08/10 09:00
LFBF 100900Z AUTO VRB04KT 9999NDV // NSC 22/15 Q1019

2010/08/10 09:00
LFKB 100900Z 12004KT 070V150 9999 FEW030 SCT036 28/19 Q1016 NOSIG

2010/08/10 09:00
LFKC 100900Z 36006KT 290V060 9999 FEW016 27/17 Q1016 NOSIG

2010/08/10 09:00
LFKF 100900Z 24004KT 180V290 9999 FEW036 28/16 Q1016 NOSIG

2010/08/10 09:00
LFKJ 100900Z 24006KT 9999 FEW066 26/19 Q1016 NOSIG

2010/08/10 09:00
LFLC 100900Z VRB02KT 9999 FEW033 BKN250 23/16 Q1018 NOSIG

2010/08/10 09:00
LFLL 100900Z 02006KT 330V050 CAVOK 24/15 Q1017 NOSIG

2010/08/10 09:00
LFMN 100900Z 13006KT 9999 FEW020 26/20 Q1016 NOSIG

2010/08/10 09:00
LFMP 100900Z 31005KT 210V010 9999 FEW080 26/15 Q1017 NOSIG

2010/08/10 09:00
LFPG 100900Z 20004KT 170V230 CAVOK 20/12 Q1016 NOSIG

2010/08/10 09:00
LFPO 100900Z 19005KT 160V230 CAVOK 21/13 Q1016 NOSIG

2010/08/10 09:00
LFQQ 100900Z 21010KT 9999 FEW017 BKN150 19/14 Q1013 NOSIG

2010/08/10 09:00
LFRB 100900Z 24015KT 9999 BKN006 BKN016 18/18 Q1014 RERA NOSIG

2010/08/10 09:00
LFSL 100900Z AUTO VRB03KT 9999NDV FEW025 20/12 Q1019

2010/08/10 09:00
LKNA 100900Z VRB02KT 9999 SCT041 21/12 Q1019 NOSIG RMK BLU+ BLU+

2010/08/10 09:00
LKPD 100900Z VRB01KT 9999 SCT021 21/16 Q1018 NOSIG RMK BLU+ BLU+

2010/08/10 09:00
LKPO 100900Z VRB02KT 9999 FEW024 21/15 Q1018 NOSIG RMK BLU+ BLU+

2010/08/10 09:00
LRBS 100900Z 33004KT 270V040 CAVOK 29/20 Q1014 NOSIG

2010/08/10 09:00
LRCK 100900Z 28006KT 230V340 CAVOK 32/20 Q1012 NOSIG

2010/08/10 09:00
LROP 100900Z 02004KT 310V100 CAVOK 30/18 Q1014 880///95 NOSIG

2010/08/10 09:00
LRSB 100900Z 33004KT 280V030 9999 SCT033 BKN090 22/16 Q1018

2010/08/10 09:00
LRTR 100900Z 34005KT 300V020 9999 FEW030 26/16 Q1017 NOSIG

2010/08/10 09:00
LFBC 100900Z AUTO 12005KT 070V210 9999NDV BKN025 21/13 Q1019

2010/08/10 09:00
LFBF 100900Z AUTO VRB04KT 9999NDV // NSC 22/15 Q1019

2010/08/10 09:00
LFBG 100900Z AUTO VRB02KT 9999NDV SCT019 SCT024 20/14 Q1019

2010/08/10 09:00
LFKS 100900Z AUTO 12006KT 100V160 9999NDV SCT031 BKN240 27/20 Q1016

2010/08/10 09:00
LFLL 100900Z 02006KT 330V050 CAVOK 24/15 Q1017 NOSIG

2010/08/10 09:00
LFMI 100900Z AUTO 25005KT 200V320 9999NDV NSC 27/17 Q1015

2010/08/10 09:00
LFMN 100900Z 13006KT 9999 FEW020 26/20 Q1016 NOSIG

2010/08/10 09:00
LFMO 100900Z AUTO VRB02KT 9999NDV NSC 27/17 Q1016

2010/08/10 09:00
LFMP 100900Z 31005KT 210V010 9999 FEW080 26/15 Q1017 NOSIG

2010/08/10 09:00
LFMY 100900Z VRB03KT CAVOK 27/18 Q1016

2010/08/10 09:00
LFOA 100900Z AUTO 27009KT 9999NDV NSC 22/13 Q1018

2010/08/10 09:00
LFOC 100900Z AUTO 22012KT 9999NDV NSC 22/11 Q1016

2010/08/10 09:00
LFOE 100900Z AUTO 20014KT 9999NDV NSC 20/13 Q1015

2010/08/10 09:00
LFOJ 100900Z 20009KT 170V230 CAVOK 22/14 Q1016

2010/08/10 09:00
LFPC 100900Z 18006KT 150V210 CAVOK 19/13 Q1015

2010/08/10 09:00
LFPG 100900Z 20004KT 170V230 CAVOK 20/12 Q1016 NOSIG

2010/08/10 09:00
LFPO 100900Z 19005KT 160V230 CAVOK 21/13 Q1016 NOSIG

2010/08/10 09:00
LFPV 100900Z AUTO 22005KT 170V250 9999NDV NSC 20/13 Q1016

2010/08/10 09:00
LFQI 100900Z 22009KT CAVOK 18/14 Q1014

2010/08/10 09:00
LFQQ 100900Z 21010KT 9999 FEW017 BKN150 19/14 Q1013 NOSIG

2010/08/10 09:00
LFRB 100900Z 24015KT 9999 BKN006 BKN016 18/18 Q1014 RERA NOSIG

2010/08/10 09:00
LFSD 100900Z AUTO VRB03KT 9999NDV NSC 22/15 Q1017

2010/08/10 09:00
LFSF 100900Z AUTO 13004KT 060V180 9999NDV NSC 25/13 Q1016

2010/08/10 09:00
LFSI 100900Z AUTO 22007KT 9999NDV NSC 24/13 Q1016

2010/08/10 09:00
LFSO 100900Z 23006KT 200V260 CAVOK 25/12 Q1017

2010/08/10 09:00
LFSR 100900Z AUTO VRB02KT 9999NDV NSC 22/13 Q1015

2010/08/10 09:00
LFSX 100900Z AUTO VRB02KT 9999NDV NSC 23/14 Q1017

2010/08/10 09:00
LFYR 100900Z 24007KT 200V270 CAVOK 21/13 Q1017

2010/08/10 09:00
UKKM 100900Z 08002MPS 020V120 CAVOK 29/18 Q1015 33CLRD70 NOSIG

2010/08/10 09:00
OMAA 100900Z 27005KT 210V340 CAVOK 45/11 Q0998 A2948 NOSIG

2010/08/10 09:00
OMAL 100900Z 22008KT 170V270 9999 FEW045 42/13 Q1002 A2958

2010/08/10 09:00
OMDB 100900Z 34004KT 260V050 CAVOK 44/14 Q0999 NOSIG

2010/08/10 09:00
OMDW 100900Z 36005KT 300V060 CAVOK 44/12 Q1000 NOSIG

2010/08/10 09:00
OMRK 100900Z 11008KT CAVOK 43/20 Q0998 A2950

2010/08/10 09:00
OMSJ 100900Z VRB03KT 7000 NSC 45/13 Q0999

2010/08/10 09:00
UBBG 100900Z 08009KT 9999 FEW100 34/11 Q1011 NOSIG RMK R12L/CLRD70 

2010/08/10 09:03
YSDU 100903Z AUTO 35013KT 9999NDV // ////// 14/13 Q1011

2010/08/10 09:00
LEMD 100900Z 01001KT CAVOK 29/13 Q1019 NOSIG

2010/08/10 09:00
LEBL 100900Z 13006KT 100V170 9999 SCT016 26/20 Q1017 NOSIG

2010/08/10 09:00
LEZL 100900Z 20003KT 160V240 CAVOK 31/15 Q1016 NOSIG

2010/08/10 09:00
LEMG 100900Z 14007KT CAVOK 29/13 Q1017 NOSIG

2010/08/10 09:00
LEVC 100900Z VRB02KT CAVOK 29/17 Q1017 NOSIG

2010/08/10 09:00
LEAL 100900Z 08003KT 050V130 CAVOK 32/16 Q1016 NOSIG

2010/08/10 09:00
LEIB 100900Z 10007KT 060V140 CAVOK 30/19 Q1017 NOSIG

2010/08/10 09:00
LELC 100900Z 03003KT 340V070 9999 FEW040 28/19 Q1016 NOSIG

2010/08/10 09:00
LEVX 100900Z 19003KT 130V240 CAVOK 26/17 Q1018

2010/08/10 09:00
OMAA 100900Z 27005KT 210V340 CAVOK 45/11 Q0998 A2948 NOSIG

2010/08/10 09:00
OMAL 100900Z 22008KT 170V270 9999 FEW045 42/13 Q1002 A2958

2010/08/10 09:00
OMDB 100900Z 34004K 260V050 CAVOK 44/14 Q0999 NOSIG

2010/08/10 09:00
OMDW 100900Z 36005KT 300V060 CAVOK 44/12 Q1000 NOSIG

2010/08/10 09:00
OMRK 100900Z 11008KT CAVOK 43/20 Q0998 A2950

2010/08/10 09:00
OMSJ 100900Z VRB03KT 7000 NSC 45/13 Q0999

2010/08/10 09:03
YSDU 100903Z AUTO 35013KT 9999NDV // ////// 14/13 Q1011

2010/08/10 09:00
LFAQ 100900Z AUTO 20010KT 9999NDV NSC 18/13 Q1015

2010/08/10 09:00
LFBU 100900Z AUTO 27003KT 170V340 9999NDV FEW019 19/13 Q1019

2010/08/10 09:00
LFLN 100900Z AUTO 30003KT 240V340 9999NDV NSC 22/15 Q1018

2010/08/10 09:00
LFPM 100900Z 20004KT 130V250 CAVOK 23/14 Q1016

2010/08/10 09:00
LFRH 100900Z 24012KT 5000 BKN004 BKN008 18/18 Q1016

2010/08/10 09:00
LFRQ 100900Z 24010KT 200V280 9999 BKN005 BKN009 18/18 Q1015 NOSIG

2010/08/10 09:00
LFRT 100900Z 25007KT 200V280 4000 -DZ BR SCT005 OVC013 18/18 Q1015

2010/08/10 09:00
LFSD 100900Z AUTO VRB03KT 9999NDV NSC 22/15 Q1017

2010/08/10 09:00
LFTW 100900Z AUTO VRB03KT 9999NDV NSC 27/15 Q1016

2010/08/10 09:00
LFBA 100900Z 00000KT 9999 SCT026 SCT250 21/14 Q1019 NOSIG

2010/08/10 09:00
LFBE 100900Z VRB02KT 9999 FEW030 SCT260 21/13 Q1019 NOSIG

2010/08/10 09:00
LFGJ 100900Z AUTO 21004KT 130V290 9999NDV NSC 23/16 Q1017

2010/08/10 09:00
LFJR 100900Z AUTO 23007KT 200V270 9999NDV FEW015 BKN020 BKN190 20/15 Q1018

2010/08/10 09:00
LFMD 100900Z AUTO 15006KT 110V190 9999NDV FEW034 26/21 Q1016

2010/08/10 09:00
LFMH 100900Z 26004KT 200V340 9999 FEW043 BKN250 22/13 Q1018 NOSIG

2010/08/10 09:00
LFOT 100900Z AUTO 23008KT 210V270 9999NDV FEW011 BKN160 BKN200 18/14 Q1017

2010/08/10 09:00
LFPN 100900Z 22008KT CAVOK 21/13 Q1016 NOSIG

2010/08/10 09:00
LFRC 100900Z AUTO 24012KT 3400NDV -DZ BR BKN006 OVC016 16/16 Q1013

2010/08/10 09:00
LFRG 100900Z AUTO 22012KT 3100NDV RA BR SCT012 BKN019 BKN027 16/15 Q1015

2010/08/10 09:00
LFRK 100900Z 19012KT 9999 -RA SCT023 BKN040 18/17 Q1014 NOSIG

2010/08/10 09:00
LFCR 100900Z AUTO VRB02KT 9999NDV FEW024 21/13 Q1020

2010/08/10 09:00
LFJL 100900Z AUTO 19006KT 130V230 9999NDV NSC 24/12 Q1016

2010/08/10 09:00
LFLP 100900Z AUTO VRB02KT 9999NDV FEW078 SCT240 24/14 Q1018

2010/08/10 09:00
LFLS 100900Z 36005KT 290V030 9999 FEW040 SCT250 24/15 Q1017 NOSIG

2010/08/10 09:00
LFLY 100900Z 04005KT 360V080 CAVOK 25/15 Q1017 NOSIG

2010/08/10 09:00
LFMT 100900Z 16004KT 120V180 CAVOK 27/15 Q1016 BECMG 20012KT

2010/08/10 09:00
LFMU 100900Z AUTO 29011KT 9999NDV NSC 26/12 Q1016

2010/08/10 09:00
LFOB 100900Z 22011KT CAVOK 21/12 Q1015 NOSIG

2010/08/10 09:00
LFOH 100900Z AUTO 20011KT 8000NDV -RA SCT012 BKN017 BKN022 16/15 Q1014

2010/08/10 09:00
LFOK 100900Z AUTO 23008KT 9999NDV NSC 22/12 Q1016

2010/08/10 09:00
LFOP 100900Z 17007KT CAVOK 18/13 Q1015 BECMG 8000 -RA BKN030 OVC090

2010/08/10 09:00
LFPB 100900Z VRB02KT CAVOK 21/13 Q1015 NOSIG

2010/08/10 09:00
LFSN 100900Z 13003KT 050V220 CAVOK 25/13 Q1017 NOSIG

2010/08/10 09:00
LFKB 100900Z 12004KT 070V150 9999 FEW030 SCT036 28/19 Q1016 NOSIG

2010/08/10 09:00
LFKC 100900Z 36006KT 290V060 9999 FEW016 27/17 Q1016 NOSIG

2010/08/10 09:00
LFKF 100900Z 24004KT 180V290 9999 FEW036 28/16 Q1016 NOSIG

2010/08/10 09:00
LFKJ 100900Z 24006KT 9999 FEW066 26/19 Q1016 NOSIG

2010/08/10 09:00
LFLC 100900Z VRB02KT 9999 FEW033 BKN250 23/16 Q1018 NOSIG

2010/08/10 09:00
LFMP 100900Z 31005KT 210V010 9999 FEW080 26/15 Q1017 NOSIG

2010/08/10 09:00
LFMV 100900Z AUTO VRB02KT 9999NDV NSC 26/18 Q1016

2010/08/10 09:00
LFSL 100900Z AUTO VRB03KT 9999NDV FEW025 20/12 Q1019

2010/08/10 09:00
LCLK 100900Z 18011KT 9999 FEW025 32/26 Q1006 NOSIG

2010/08/10 09:00
LCPH 100900Z 24007KT 200V280 8000 FEW020 31/26 Q1007

2010/08/10 09:00
LFMI 100900Z AUTO 25005KT 200V320 9999NDV NSC 27/17 Q1015

2010/08/10 09:00
LFMK 100900Z 28008KT 230V310 9999 FEW036 SCT230 23/14 Q1018 NOSIG

2010/08/10 09:00
LFRD 100900Z AUTO 23009KT 4200NDV -RA BR BKN006 BKN014 BKN029 18/17 Q1015

2010/08/10 09:00
LFRN 100900Z AUTO 21010KT 9999NDV BKN013 OVC018 19/17 Q1016

2010/08/10 09:00
LFRO 100900Z AUTO 23009KT 9999NDV BKN008 BKN016 OVC050 18/18 Q1014

2010/08/10 09:00
LFRZ 100900Z AUTO 22008KT 9999NDV -RA SCT014 BKN020 OVC026 19/17 Q1017

2010/08/10 09:00
LFSB 100900Z VRB02KT 9999 FEW040 24/13 Q1017 NOSIG

2010/08/10 09:00
LFST 100900Z 17005KT 120V220 9999 FEW058 22/15 Q1017 NOSIG

2010/08/10 09:00
LFTH 100900Z 13004KT 070V200 9999 FEW026 27/20 Q1016 NOSIG

2010/08/10 09:00
LFBH 100900Z AUTO 17005KT 140V200 9999NDV FEW020 BKN030 20/15 Q1018

2010/08/10 09:00
LFBI 100900Z 20005KT 160V250 9999 BKN007 16/14 Q1018 BECMG BKN007

2010/08/10 09:00
LFBL 100900Z 26004KT 200V300 9999 FEW021 SCT026 BKN300 17/12 Q1019 NOSIG

2010/08/10 09:00
LFBO 100900Z 34004KT 290V040 9999 FEW025 SCT250 22/14 Q1019 NOSIG

2010/08/10 09:00
LFBP 100900Z 06004KT 360V130 9999 SCT020 20/15 Q1019 NOSIG

2010/08/10 09:00
LFBT 100900Z VRB02KT 9999 SCT016 SCT020 19/15 Q1019 TEMPO BKN008

2010/08/10 09:00
LFBZ 100900Z 08007KT 050V120 9999 FEW020 SCT230 22/16 Q1018 NOSIG

2010/08/10 09:00
LFLB 100900Z VRB02KT 9999 SCT080 24/15 Q1017 NOSIG

2010/08/10 09:00
LFLX 100900Z 24011KT CAVOK 21/13 Q1018 NOSIG

2010/08/10 09:00
LFML 100900Z 30003KT CAVOK 26/19 Q1016 NOSIG

2010/08/10 09:00
LFLL 100900Z 02006KT 330V050 CAVOK 24/15 Q1017 NOSIG

2010/08/10 09:00
LFMN 100900Z 13006KT 9999 FEW020 26/20 Q1016 NOSIG

2010/08/10 09:00
LFPG 100900Z 20004KT 170V230 CAVOK 20/12 Q1016 NOSIG

2010/08/10 09:00
LFPO 100900Z 19005KT 160V230 CAVOK 21/13 Q1016 NOSIG

2010/08/10 09:00
LFQQ 100900Z 21010KT 9999 FEW017 BKN150 19/14 Q1013 NOSIG

2010/08/10 09:00
LFRB 100900Z 24015KT 9999 BKN006 BKN016 18/18 Q1014 RERA NOSIG

2010/08/10 09:00
RKSI 100900Z 16013KT 8000 -RA FEW010 BKN025 BKN100 26/24 Q1006 TEMPO 4000 TSRA

2010/08/10 09:00
RKSS 100900Z 04008KT 020V120 6000 -TSRA FEW010CB BKN025 OVC080 25/23 Q1006 NOSIG RMK TS S MOV SW OCNL LTGICCC 

2010/08/10 09:00
RKPC 100900Z 13012KT 100V160 3500 RA BR FEW008 BKN025 OVC070 27/25 Q0995 WS ALL RWY NOSIG 

2010/08/10 09:00
RKPK 100900Z 10012KT 9999 FEW030 BKN060 29/23 Q1006 NOSIG 

2010/08/10 09:00
RKTU 100900Z 06005KT 4000 -RA FEW012 BKN030 OVC060 26/25 Q1007 BECMG 2500 

2010/08/10 09:00
RKTN 100900Z 11005KT 9000 -RA BKN020 OVC030 29/24 Q1006 NOSIG

2010/08/10 09:00
RKJB 100900Z 08011KT 050V130 4500 RA BR FEW010 BKN030 OVC070 26/24 Q1002 NOSIG 

2010/08/10 09:00
RKNY 100900Z 16003KT 4500 -RA BR FEW015 BKN030 OVC100 25/22 Q1007 NOSIG 

2010/08/10 09:00
LRBS 100900Z 33004KT 270V040 CAVOK 29/20 Q1014 NOSIG

2010/08/10 09:00
LRCK 100900Z 28006KT 230V340 CAVOK 32/20 Q1012 NOSIG

2010/08/10 09:00
LROP 100900Z 02004KT 310V100 CAVOK 30/18 Q1014 880///95 NOSIG

2010/08/10 09:00
LRSB 100900Z 33004KT 280V030 9999 SCT033 BKN090 22/16 Q1018

2010/08/10 09:00
LRTR 100900Z 34005KT 300V020 9999 FEW030 26/16 Q1017 NOSIG

2010/08/10 09:00
ZBAA 100900Z 15005MPS 4000 HZ NSC 30/21 Q1005 NOSIG

2010/08/10 09:00
ZBSJ 100900Z 14002MPS 8000 NSC 29/23 Q1005 NOSIG

2010/08/10 09:00
ZBTJ 100900Z 15005MPS 8000 NSC 29/21 Q1005 NOSIG

2010/08/10 09:00
ZBYN 100900Z 09006MPS 8000 SCT040 24/18 Q1009 NOSIG

2010/08/10 09:00
ZGGG 100900Z 16004MPS 130V190 9999 FEW040 36/22 Q1003 NOSIG

2010/08/10 09:00
ZSHC 100900Z 02004MPS 9999 FEW020 34/24 Q1002 NOSIG

2010/08/10 09:00
ZSPD 100900Z 34007MPS 9999 FEW030 31/24 Q1002 NOSIG

2010/08/10 09:00
ZSSS 100900Z 01006MPS 9999 FEW030 32/25 Q1002 NOSIG

2010/08/10 09:00
ZWSH 100900Z 21005MPS 180V240 9999 FEW040CB 32/05 Q1008 NOSIG

2010/08/10 09:00
ZWWW 100900Z 36004MPS 320V050 CAVOK 31/07 Q1004 NOSIG

2010/08/10 09:00
ZYTL 100900Z 01002MPS 320V060 CAVOK 26/22 Q1006 NOSIG

2010/08/10 09:00
ZYTX 100900Z 22002MPS 9999 FEW030 28/22 Q1005 NOSIG

2010/08/10 09:00
LATI 100900Z 00000KT 9999 SCT150 31/22 Q1012 NOSIG

2010/08/10 09:00
GCLP 100900Z 01013KT 340V050 9000 FEW025 25/19 Q1016 NOSIG

2010/08/10 09:00
GCXO 100900Z 28008KT 6000 2000NW PRFG FEW000 BKN100 20/18 Q1018 NOSIG

2010/08/10 09:00
GCTS 100900Z VRB01KT 9999 BKN100 22/19 Q1016 NOSIG

2010/08/10 09:00
GCRR 100900Z 14006KT 9999 FEW020 24/20 Q1016

2010/08/10 09:00
GCFV 100900Z VRB01KT 9999 SCT040 24/19 Q1016

2010/08/10 09:00
LEAB 100900Z 27003KT 230V340 CAVOK 29/12 Q1020 NOSIG

2010/08/10 09:00
LEBZ 100900Z 01001KT CAVOK 31/17 Q1017

2010/08/10 09:00
LELN 100900Z 21003KT 160V300 CAVOK 21/12 Q1021

2010/08/10 09:00
LESA 100900Z 00000KT 8000 SCT040 26/16 Q1021

2010/08/10 09:00
LETO 100900Z 00000KT CAVOK 28/14 Q1019 NOSIG

2010/08/10 09:00
LEVD 100900Z 24005KT 170V270 CAVOK 24/12 Q1021

2010/08/10 09:00
LEVS 100900Z 00000KT 9000 NSC 30/14 Q1020

2010/08/10 09:00
LEAS 100900Z 31005KT 260V340 9999 FEW025 20/17 Q1019 NOSIG

2010/08/10 09:00
LEBB 100900Z 00000KT 9999 FEW030 23/16 Q1018 NOSIG

2010/08/10 09:00
LECO 100900Z VRB01KT CAVOK 21/18 Q1019

2010/08/10 09:00
LEGE 100900Z 18012KT 9999 FEW010 SCT020 25/21 Q1017

2010/08/10 09:00
LEST 100900Z VRB01KT CAVOK 21/12 Q1019 NOSIG

2010/08/10 09:00
LEZG 100900Z 30006KT 260V330 9999 FEW060 23/14 Q1018

2010/08/10 09:00
LESO 100900Z VRB02KT CAVOK 21/16 Q1018

2010/08/10 09:00
LEVT 100900Z 00000KT 9999 FEW015 SCT030 17/14 Q1020

2010/08/10 09:00
LERS 100900Z VRB02KT 9999 BKN015 25/20 Q1018

2010/08/10 09:00
LEMH 100900Z 09005KT 050V120 CAVOK 29/17 Q1017

2010/08/10 09:00
LEAM 100900Z 21005KT CAVOK 27/20 Q1017

2010/08/10 09:00
LEGR 100900Z VRB02KT 9999 FEW100 29/12 Q1020

2010/08/10 09:00
LERL 100900Z 33001KT CAVOK 31/11 Q1020

2010/08/10 09:00
GMFF 100900Z 27005KT 8000 FEW033 SCT100 35/11 Q1019 NOSIG

2010/08/10 09:00
GMMN 100900Z 08005KT 030V160 CAVOK 36/13 Q1016 NOSIG

2010/08/10 09:00
LEBA 100900Z 28003KT 240V330 CAVOK 31/12 Q1017

2010/08/10 09:00
LEDA 100900Z 21005KT 170V250 9999 FEW010 24/15 Q1019

2010/08/10 09:00
LEJR 100900Z 00000KT 9999 FEW020 31/08 Q1016

2010/08/10 09:00
LELL 100900Z 14001KT 9000 FEW010 BKN028 24/17 Q1018

2010/08/10 09:00
LEPP 100900Z VRB01KT CAVOK 20/14 Q1019

2010/08/10 09:00
LEXJ 100900Z 02002KT 9999 FEW020 21/16 Q1019

2010/08/10 09:00
GMFF 100900Z 27005KT 8000 FEW033 SCT100 35/11 Q1019 NOSIG

2010/08/10 09:00
GCHI 100900Z 01005KT 320V060 9999 FEW013 BKN023 23/19 Q1016

2010/08/10 09:00
GCLA 100900Z VRB02KT 9999 FEW016 BKN025 23/19 Q1016

2010/08/10 09:00
GEML 100900Z 07005KT 010V100 9999 FEW015 27/22 Q1017

2010/08/10 08:54
KWAL 100854Z AUTO 25005KT 6SM BR CLR 24/22 A2996 RMK AO2 SLP141 T02390222 58006 TSNO 

2010/08/10 09:00
ZGKL 100900Z 21002MPS 180V250 9999 SCT043 36/23 Q1002 NOSIG

2010/08/10 09:00
ZGNN 100900Z 16006G11MPS 120V190 5000 SHRA FEW020 FEW030CB SCT040 30/25 Q1003 TEMPO VRB12G17MPS 3000 TSRA SCT020 FEW026CB

2010/08/10 09:00
ZGOW 100900Z 16006MPS 9999 FEW020 31/27 Q1005 NOSIG

2010/08/10 09:00
ZGSZ 100900Z 19007MPS 9999 FEW022 32/24 Q1005 NOSIG

2010/08/10 09:00
ZLXY 100900Z 06005MPS 5000 HZ NSC 34/24 Q1001 NOSIG

2010/08/10 09:00
ZMUB 100900Z 36002MPS 9999 FEW030CB SCT033 27/01 Q1004 NOSIG RMK QFE646.8 18

2010/08/10 09:00
ZPPP 100900Z 24004G09MPS 160V270 9999 -SHRA FEW026CB SCT026 28/17 Q1014 NOSIG

2010/08/10 09:00
ZSAM 100900Z 14006MPS CAVOK 32/24 Q1005 NOSIG

2010/08/10 09:00
ZSFZ 100900Z 20008MPS 9999 FEW026CB 32/25 Q1004 NOSIG

2010/08/10 09:00
ZSNB 100900Z 29003MPS 9999 FEW040 35/24 Q1002 NOSIG

2010/08/10 09:00
ZSQD 100900Z 08003MPS 030V140 9999 FEW033 31/22 Q1004 NOSIG

2010/08/10 09:00
ZUUU 100900Z 21003MPS 180V240 9999 SCT030 35/24 Q1001 NOSIG

2010/08/10 09:00
LPFR 100900Z 26004KT 220V280 CAVOK 30/19 Q1016

2010/08/10 09:00
LPMA 100900Z 10003KT 050V140 9999 BKN016 23/18 Q1016 RS07001KT 0514002KT 2310002KT

2010/08/10 09:00
LPPR 100900Z 00000KT CAVOK 28/17 Q1017

2010/08/10 09:00
LPPS 100900Z 34004KT 310V010 9000 SCT011 BKN030 22/20 Q1017

2010/08/10 09:00
LPPT 100900Z VRB02KT CAVOK 33/14 Q1017 NOSIG

2010/08/10 09:00
LATI 100900Z 00000KT 9999 SCT150 31/22 Q1012 NOSIG

2010/08/10 09:00
LFBA 100900Z 00000KT 9999 SCT026 SCT250 21/14 Q1019 NOSIG

2010/08/10 09:00
LFBE 100900Z VRB02KT 9999 FEW030 SCT260 21/13 Q1019 NOSIG

2010/08/10 09:00
LFBI 100900Z 20005KT 160V250 9999 BKN007 16/14 Q1018 BECMG BKN007

2010/08/10 09:00
LFBL 100900Z 26004KT 200V300 9999 FEW021 SCT026 BKN300 17/12 Q1019 NOSIG

2010/08/10 09:00
LFBO 100900Z 34004KT 290V040 9999 FEW025 SCT250 22/14 Q1019 NOSIG

2010/08/10 09:00
LFBP 100900Z 06004KT 360V130 9999 SCT020 20/15 Q1019 NOSIG

2010/08/10 09:00
LFBT 100900Z VRB02KT 9999 SCT016 SCT020 19/15 Q1019 TEMPO BKN008

2010/08/10 09:00
LFBZ 100900Z 08007KT 050V120 9999 FEW020 SCT230 22/16 Q1018 NOSIG

2010/08/10 09:00
LFGJ 100900Z AUTO 21004KT 130V290 9999NDV NSC 23/16 Q1017

2010/08/10 09:00
LFLB 100900Z VRB02KT 9999 SCT080 24/15 Q1017 NOSIG

2010/08/10 09:00
LFLX 100900Z 24011KT CAVOK 21/13 Q1018 NOSIG

2010/08/10 09:00
LFMD 100900Z AUTO 15006KT 110V190 9999NDV FEW034 26/21 Q1016

2010/08/10 09:00
LFMH 100900Z 26004KT 200V340 9999 FEW043 BKN250 22/13 Q1018 NOSIG

2010/08/10 09:00
LFMK 100900Z 28008KT 230V310 9999 FEW036 SCT230 23/14 Q1018 NOSIG

2010/08/10 09:00
LFML 100900Z 30003KT CAVOK 26/19 Q1016 NOSIG

2010/08/10 09:00
LFMT 100900Z 16004KT 120V180 CAVOK 27/15 Q1016 BECMG 20012KT

2010/08/10 09:00
LFOT 100900Z AUTO 23008KT 210V270 9999NDV FEW011 BKN160 BKN200 18/14 Q1017

2010/08/10 09:00
LFPN 100900Z 22008KT CAVOK 21/13 Q1016 NOSIG

2010/08/10 09:00
LFRC 100900Z AUTO 24012KT 3400NDV -DZ BR BKN006 OVC016 16/16 Q1013

2010/08/10 09:00
LFRD 100900Z AUTO 23009KT 4200NDV -RA BR BKN006 BKN014 BKN029 18/17 Q1015

2010/08/10 09:00
LFRK 100900Z 19012KT 9999 -RA SCT023 BKN040 18/17 Q1014 NOSIG

2010/08/10 09:00
LFRZ 100900Z AUTO 22008KT 9999NDV -RA SCT014 BKN020 OVC026 19/17 Q1017

2010/08/10 09:00
LFSN 100900Z 13003KT 050V220 CAVOK 25/13 Q1017 NOSIG

2010/08/10 09:00
LFST 100900Z 17005KT 120V220 9999 FEW058 22/15 Q1017 NOSIG

2010/08/10 09:00
LFBA 100900Z 00000KT 9999 SCT026 SCT250 21/14 Q1019 NOSIG

2010/08/10 09:00
LFBE 100900Z VRB02KT 9999 FEW030 SCT260 21/13 Q1019 NOSIG

2010/08/10 09:00
LFBI 100900Z 20005KT 160V250 9999 BKN007 16/14 Q1018 BECMG BKN007

2010/08/10 09:00
LFBL 100900Z 26004KT 200V300 9999 FEW021 SCT026 BKN300 17/12 Q1019 NOSIG

2010/08/10 09:00
LFBO 100900Z 34004KT 290V040 9999 FEW025 SCT250 22/14 Q1019 NOSIG

2010/08/10 09:00
LFBP 100900Z 06004KT 360V130 9999 SCT020 20/15 Q1019 NOSIG

2010/08/10 09:00
LFBT 100900Z VRB02KT 9999 SCT016 SCT020 19/15 Q1019 TEMPO BKN008

2010/08/10 09:00
LFBZ 100900Z 08007KT 050V120 9999 FEW020 SCT230 22/16 Q1018 NOSIG

2010/08/10 09:00
LFGJ 100900Z AUTO 21004KT 130V290 9999NDV NSC 23/16 Q1017

2010/08/10 09:00
LFKB 100900Z 12004KT 070V150 9999 FEW030 SCT036 28/19 Q1016 NOSIG

2010/08/10 09:00
LFKC 100900Z 36006KT 290V060 9999 FEW016 27/17 Q1016 NOSIG

2010/08/10 09:00
LFKF 100900Z 24004KT 180V290 9999 FEW036 28/16 Q1016 NOSIG

2010/08/10 09:00
LFKJ 100900Z 24006KT 9999 FEW066 26/19 Q1016 NOSIG

2010/08/10 09:00
LFLB 100900Z VRB02KT 9999 SCT080 24/15 Q1017 NOSIG

2010/08/10 09:00
LFLC 100900Z VRB02KT 9999 FEW033 BKN250 23/16 Q1018 NOSIG

2010/08/10 09:00
LFLX 100900Z 24011KT CAVOK 21/13 Q1018 NOSIG

2010/08/10 09:00
LFMD 100900Z AUTO 15006KT 110V190 9999NDV FEW034 26/21 Q1016

2010/08/10 09:00
LFMH 100900Z 26004KT 200V340 9999 FEW043 BKN250 22/13 Q1018 NOSIG

2010/08/10 09:00
LFOT 100900Z AUTO 23008KT 210V270 9999NDV FEW011 BKN160 BKN200 18/14 Q1017

2010/08/10 09:00
LFPN 100900Z 22008KT CAVOK 21/13 Q1016 NOSIG

2010/08/10 09:00
LFRC 100900Z AUTO 24012KT 3400NDV -DZ BR BKN006 OVC016 16/16 Q1013

2010/08/10 09:00
LFRK 100900Z 19012KT 9999 -RA SCT023 BKN040 18/17 Q1014 NOSIG

2010/08/10 09:00
LFRZ 100900Z AUTO 22008KT 9999NDV -RA SCT014 BKN020 OVC026 19/17 Q1017

2010/08/10 09:00
LFSL 100900Z AUTO VRB03KT 9999NDV FEW025 20/12 Q1019

2010/08/10 09:00
BIKF 100900Z 34012KT 9999 FEW016 BKN025 13/08 Q1014

2010/08/10 09:00
LUKK 100900Z 02011KT CAVOK 31/15 Q1013 08CLRD65 NOSIG

2010/08/10 09:00
UHHH 100900Z METAR 21003MPS 9999 FEW026 SCT100 25/19 Q1005 NOSIG

2010/08/10 09:00
UKBB 100900Z 01004MPS 9999 FEW033CB 28/20 Q1015 88CLRD95 NOSIG

2010/08/10 09:00
UKFF 100900Z 03005MPS 340V070 CAVOK 35/19 Q1009 01010070 NOSIG

2010/08/10 09:00
UKKK 100900Z 06002MPS 020V100 7000 NSC 29/19 Q1015 26CLRD70 NOSIG

2010/08/10 09:00
UKLL 100900Z VRB02MPS 9999 BKN026 20/16 Q1018 31110360 NOSIG

2010/08/10 09:00
UKOO 100900Z 06006MPS CAVOK 35/15 Q1011 34090070 NOSIG

2010/08/10 09:00
UTTT 100900Z 32003MPS 210V360 CAVOK 37/02 Q1008 R08R/CLRD70 NOSIG

2010/08/10 09:00
KNEL 100900Z AUTO 00000KT 7SM BKN070 BKN085 23/20 A2992 RMK AO2 SLP131 T02330200 56006 $

2010/08/10 08:56
KNFL 100856Z AUTO 28006KT 10SM CLR 21/03 A2994 RMK AO2 SLP113 T02060028 51005 TSNO

2010/08/10 08:59
KNGU 100859Z 21004KT 10SM FEW200 26/23 A2998 RMK AO2 SLP153 T02610233 55003

2010/08/10 08:56
KNPA 100856Z AUTO 33004KT 6SM BR CLR 26/24 A2990 RMK AO2 SLP125 T02560244 58006

2010/08/10 08:56
KNUW 100856Z 00000KT 7SM FEW005 BKN010 OVC040 15/11 A2995 RMK AO2 SLP146 T01470108 58005 $

2010/08/10 08:56
KNXP 100856Z AUTO 29004KT CLR 23/00 A2992 RMK AO2 SLP094 T02330000 58001 $

2010/08/10 08:56
KNXX 100856Z AUTO 00000KT 10SM CLR 24/19 A2994 RMK AO2 SLP142 T02440194 56004 $

2010/08/10 08:56
KOSC 100856Z AUTO 32004KT OVC001 21/19 A2995 RMK AO2 PWINO

2010/08/10 08:55
KTBN 100855Z AUTO 17004KT 10SM CLR 25/23 A2995 RMK AO2 SLP116 T02460229 57005 $

2010/08/10 08:55
KTTS 100855Z 12005KT 10SM FEW015 FEW065 26/24 A2992 RMK SLP132 1CU 1SC /0/ 57010

2010/08/10 08:56
KHLR 100856Z AUTO 18006KT 10SM CLR 28/23 A2992 RMK AO2 SLP122 T02780233 56016 $

2010/08/10 08:55
KLUF 100855Z AUTO 00000KT 10SM FEW120 28/15 A2980 RMK AO2 SLP062 T02830153 50001 $

2010/08/10 08:56
KNBC 100856Z AUTO 00000KT 10SM CLR 27/25 A2999 RMK AO2 SLP155 T02670250 55005 $

2010/08/10 08:56
KHLR 100856Z AUTO 18006KT 10SM CLR 28/23 A2992 RMK AO2 SLP122 T02780233 56016 $

2010/08/10 08:56
PHBK 100856Z AUTO 00000KT 10SM SCT060 26/14 A3010 RMK AO2 SLP196 T02560144 51015 TSNO $

2010/08/10 08:56
PHNY 100856Z AUTO 03009KT 10SM CLR 21/18 A3015 RMK AO2 TSNO 51009 T02110177 SLP188 $

2010/08/10 09:00
RJSM 100900Z 02004KT 7000 FEW003 SCT008 24/22 Q1012 RMK 1ST003 3ST008 A2991 FCST 0915 TEMPO 0912 3000 BR FEW001ST BKN003ST BECMG 1212 2000 BR SCT001ST BKN003ST TEMPO 1215 1500 BR SCT000ST BKN001ST/ ST 12Z-15Z

2010/08/10 09:00
HRYR 100900Z 14007KT 9999 FEW030 25/12 Q1022 NOSIG

2010/08/10 09:00
HRZA 100900Z 26008KT 9999 SCT023 23/13 Q1023 NOSIG

2010/08/10 09:00
HRYG 100900Z 20006KT 8000 SCT023 25/16 Q1022 NOSIG

2010/08/10 09:00
LFCR 100900Z AUTO VRB02KT 9999NDV FEW024 21/13 Q1020

2010/08/10 09:00
LFJL 100900Z AUTO 19006KT 130V230 9999NDV NSC 24/12 Q1016

2010/08/10 09:00
LFLN 100900Z AUTO 30003KT 240V340 9999NDV NSC 22/15 Q1018

2010/08/10 09:00
LFLS 100900Z 36005KT 290V030 9999 FEW040 SCT250 24/15 Q1017 NOSIG

2010/08/10 09:00
LFLY 100900Z 04005KT 360V080 CAVOK 25/15 Q1017 NOSIG

2010/08/10 09:00
LFMK 100900Z 28008KT 230V310 9999 FEW036 SCT230 23/14 Q1018 NOSIG

2010/08/10 09:00
LFML 100900Z 30003KT CAVOK 26/19 Q1016 NOSIG

2010/08/10 09:00
LFMT 100900Z 16004KT 120V180 CAVOK 27/15 Q1016 BECMG 20012KT

2010/08/10 09:00
LFMU 100900Z AUTO 29011KT 9999NDV NSC 26/12 Q1016

2010/08/10 09:00
LFOB 100900Z 22011KT CAVOK 21/12 Q1015 NOSIG

2010/08/10 09:00
LFOH 100900Z AUTO 20011KT 8000NDV -RA SCT012 BKN017 BKN022 16/15 Q1014

2010/08/10 09:00
LFOP 100900Z 17007KT CAVOK 18/13 Q1015 BECMG 8000 -RA BKN030 OVC090

2010/08/10 09:00
LFPB 100900Z VRB02KT CAVOK 21/13 Q1015 NOSIG

2010/08/10 09:00
LFRD 100900Z AUTO 23009KT 4200NDV -RA BR BKN006 BKN014 BKN029 18/17 Q1015

2010/08/10 09:00
LFRH 100900Z 24012KT 5000 BKN004 BKN008 18/18 Q1016

2010/08/10 09:00
LFRJ 100900Z AUTO 23013KT 9999NDV BKN007/// OVC011/// 18/17 Q1014

2010/08/10 09:00
LFRN 100900Z AUTO 21010KT 9999NDV BKN013 OVC018 19/17 Q1016

2010/08/10 09:00
LFRO 100900Z AUTO 23009KT 9999NDV BKN008 BKN016 OVC050 18/18 Q1014

2010/08/10 09:00
LFRQ 100900Z 24010KT 200V280 9999 BKN005 BKN009 18/18 Q1015 NOSIG

2010/08/10 09:00
LFRT 100900Z 25007KT 200V280 4000 -DZ BR SCT005 OVC013 18/18 Q1015

2010/08/10 09:00
LFSB 100900Z VRB02KT 9999 FEW040 24/13 Q1017 NOSIG

2010/08/10 09:00
LFSN 100900Z 13003KT 050V220 CAVOK 25/13 Q1017 NOSIG

2010/08/10 09:00
LFST 100900Z 17005KT 120V220 9999 FEW058 22/15 Q1017 NOSIG

2010/08/10 09:00
LFTH 100900Z 13004KT 070V200 9999 FEW026 27/20 Q1016 NOSIG

2010/08/10 09:00
LFTW 100900Z AUTO VRB03KT 9999NDV NSC 27/15 Q1016

2010/08/10 09:00
LFCG 100900Z VRB02KT 9999 BKN011 19/14 Q1019

2010/08/10 09:00
LFCR 100900Z AUTO VRB02KT 9999NDV FEW024 21/13 Q1020

2010/08/10 09:00
LFDB 100900Z VRB03KT 9999 FEW026 22/14 Q1019

2010/08/10 09:00
LFDH 100900Z VRB01KT 9999 SCT020 21/15 Q1019

2010/08/10 09:00
LFJL 100900Z AUTO 19006KT 130V230 9999NDV NSC 24/12 Q1016

2010/08/10 09:00
LFLD 100900Z 26006KT 220V300 CAVOK 22/12 Q1018

2010/08/10 09:00
LFLN 100900Z AUTO 30003KT 240V340 9999NDV NSC 22/15 Q1018

2010/08/10 09:00
LFLS 100900Z 36005KT 290V030 9999 FEW040 SCT250 24/15 Q1017 NOSIG

2010/08/10 09:00
LFLV 100900Z VRB03KT 9999 FEW033 BKN250 23/15 Q1018

2010/08/10 09:00
LFLY 100900Z 04005KT 360V080 CAVOK 25/15 Q1017 NOSIG

2010/08/10 09:00
LFMC 100900Z 16003KT 090V250 9999 SCT030 28/19 Q1016

2010/08/10 09:00
LFMU 100900Z AUTO 29011KT 9999NDV NSC 26/12 Q1016

2010/08/10 09:00
LFOB 100900Z 22011KT CAVOK 21/12 Q1015 NOSIG

2010/08/10 09:00
LFOH 100900Z AUTO 20011KT 8000NDV -RA SCT012 BKN017 BKN022 16/15 Q1014

2010/08/10 09:00
LFOP 100900Z 17007KT CAVOK 18/13 Q1015 BECMG 8000 -RA BKN030 OVC090

2010/08/10 09:00
LFPB 100900Z VRB02KT CAVOK 21/13 Q1015 NOSIG

2010/08/10 09:00
LFPM 100900Z 20004KT 130V250 CAVOK 23/14 Q1016

2010/08/10 09:00
LFRH 100900Z 24012KT 5000 BKN004 BKN008 18/18 Q1016

2010/08/10 09:00
LFRJ 100900Z AUTO 23013KT 9999NDV BKN007/// OVC011/// 18/17 Q1014

2010/08/10 09:00
LFRN 100900Z AUTO 21010KT 9999NDV BKN013 OVC018 19/17 Q1016

2010/08/10 09:00
LFRO 100900Z AUTO 23009KT 9999NDV BKN008 BKN016 OVC050 18/18 Q1014

2010/08/10 09:00
LFRQ 100900Z 24010KT 200V280 9999 BKN005 BKN009 18/18 Q1015 NOSIG

2010/08/10 09:00
LFRT 100900Z 25007KT 200V280 4000 -DZ BR SCT005 OVC013 18/18 Q1015

2010/08/10 09:00
LFSB 100900Z VRB02KT 9999 FEW040 24/13 Q1017 NOSIG

2010/08/10 09:00
LFTH 100900Z 13004KT 070V200 9999 FEW026 27/20 Q1016 NOSIG

2010/08/10 09:00
LFTW 100900Z AUTO VRB03KT 9999NDV NSC 27/15 Q1016

2010/08/10 09:00
MZBZ 100900Z 00000KT 9999 CAVOK 28/26 A2983 NOSIG

2010/08/10 09:00
BIAR 100900Z 12001KT 9999 OVC011 10/08 Q1014

2010/08/10 09:00
BIEG 100900Z 01007KT 7000 BR OVC004 08/08 Q1014

2010/08/10 09:00
BIKF 100900Z 34012KT 9999 FEW016 BKN025 13/08 Q1014

2010/08/10 09:00
KNEL 100900Z AUTO 00000KT 7SM BKN070 BKN085 23/20 A2992 RMK AO2 SLP131 T02330200 56006 $

2010/08/10 08:59
KNGU 100859Z 21004KT 10SM FEW200 26/23 A2998 RMK AO2 SLP153 T02610233 55003

2010/08/10 08:55
KTTS 100855Z 12005KT 10SM FEW015 FEW065 26/24 A2992 RMK SLP132 1CU 1SC /0/ 57010

2010/08/10 09:00
LEMO 100900Z 00000KT CAVOK 33/13 Q1017 NOSIG

2010/08/10 09:00
LKKV 100900Z VRB03KT 9999 FEW033 19/11 Q1019

2010/08/10 09:00
MGGT 100900Z 36006KT 9999 SCT016 18/16 Q1023 A3021 VOL/ PACAYA EN ACTI VIDAD NOSIG

2010/08/10 09:00
MHLM 100900Z 00000KT 9999 SCT026 26/26 Q1010 A2983 NOSIG

2010/08/10 09:00
MHTG 100900Z 22002KT 9999 FEW026 18/18 Q1017 A3003 NOSIG

2010/08/10 09:00
MROC 100900Z 00000KT 9999 4500WSW BR VCBCFG SCT001 BKN020 21/21 A2999 RMK VIS QUAD N 5000 NOSIG

2010/08/10 09:00
MZBZ 100900Z 00000KT CAVOK 28/26 A2983 Q1010 NOSIG

2010/08/10 09:00
ORBI 100900Z 01008KT CAVOK 45/07 Q1002

2010/08/10 09:00
ORMM 100900Z 16008KT CAVOK 45/16 Q0999

2010/08/10 09:00
RJAW 100900Z 13005KT 9999 FEW015 27/24 Q1013 RMK 1CU015 A2994

2010/08/10 09:00
RJSM 100900Z 02004KT 7000 FEW003 SCT008 24/22 Q1012 RMK 1ST003 3ST008 A2991 FCST 0915 TEMPO 0912 3000 BR FEW001ST BKN003ST BECMG 1212 2000 BR SCT001ST BKN003ST TEMPO 1215 1500 BR SCT000ST BKN001ST/ ST 12Z-15Z

2010/08/10 09:00
SCON 100900Z AUTO VRB01KT CAVOK 03/03 Q1023

2010/08/10 08:50
TJPS 100850Z 31005KT 08SM SCT030 BKN060 26/26 A2992

2010/08/10 09:00
TTCP 100900Z 16005KT 9999 FEW016 SCT300 27/23 Q1013 NOSIG

2010/08/10 09:00
TTPP 100900Z 00000KT 9999 FEW016 BKN280 24/23 Q1013 NOSIG

2010/08/10 09:00
ZBHH 100900Z 04002MPS 9999 SCT040 28/07 Q1009 NOSIG

2010/08/10 09:00
ZHCC 100900Z 02004MPS 340V080 3000 BR BKN040 28/26 Q1004 RESHRA NOSIG

2010/08/10 09:00
ZHHH 100900Z 21004MPS 4000 TS BR SCT025 SCT040CB 31/29 Q1002 BECMG TL1000 NSW

2010/08/10 09:00
ZJHK 100900Z 24006MPS 190V280 9999 TS SCT013 FEW025TCU FEW030CB BKN040 29/25 Q1004 TEMPO VRB07G12MPS

2010/08/10 09:00
ZJSY 100900Z 17002MPS 110V210 CAVOK 31/25 Q1004 NOSIG

2010/08/10 09:00
ZLLL 100900Z 09006MPS 9999 FEW026 FEW040CB 28/15 Q1010 NOSIG

2010/08/10 09:00
ZSNJ 100900Z 04001MPS 7000 SCT030 35/22 Q1003 NOSIG

2010/08/10 09:00
ZSOF 100900Z 16002MPS 9999 SCT030 34/25 Q1002 NOSIG

2010/08/10 09:00
ZUCK 100900Z VRB02MPS CAVOK 38/22 Q1000 NOSIG

2010/08/10 09:00
ZYCC 100900Z 28003MPS 240V310 CAVOK 26/15 Q1006 NOSIG

2010/08/10 09:00
ZYHB 100900Z 23005MPS CAVOK 24/13 Q1005 NOSIG

2010/08/10 09:00
LEAL 100900Z 08003KT 050V130 CAVOK 32/16 Q1016 NOSIG

2010/08/10 09:00
LEBL 100900Z 13006KT 100V170 9999 SCT016 26/20 Q1017 NOSIG

2010/08/10 09:00
LEBZ 100900Z 01001KT CAVOK 31/17 Q1017

2010/08/10 09:00
LECO 100900Z VRB01KT CAVOK 21/18 Q1019

2010/08/10 09:00
LEIB 100900Z 10007KT 060V140 CAVOK 30/19 Q1017 NOSIG

2010/08/10 09:00
LELC 100900Z 03003KT 340V070 9999 FEW040 28/19 Q1016 NOSIG

2010/08/10 09:00
LELN 100900Z 21003KT 160V300 CAVOK 21/12 Q1021

2010/08/10 09:00
LEMD 100900Z 01001KT CAVOK 29/13 Q1019 NOSIG

2010/08/10 09:00
LEMG 100900Z 14007KT CAVOK 29/13 Q1017 NOSIG

2010/08/10 09:00
LEMH 100900Z 09005KT 050V120 CAVOK 29/17 Q1017

2010/08/10 09:00
LESO 100900Z VRB02KT CAVOK 21/16 Q1018

2010/08/10 09:00
LEST 100900Z VRB01KT CAVOK 21/12 Q1019 NOSIG

2010/08/10 09:00
LEVC 100900Z VRB02KT CAVOK 29/17 Q1017 NOSIG

2010/08/10 09:00
LEVD 100900Z 24005KT 170V270 CAVOK 24/12 Q1021

2010/08/10 09:00
LEVT 100900Z 00000KT 9999 FEW015 SCT030 17/14 Q1020

2010/08/10 09:00
LEVX 100900Z 19003KT 130V240 CAVOK 26/17 Q1018

2010/08/10 09:00
LEZG 100900Z 30006KT 260V330 9999 FEW060 23/14 Q1018

2010/08/10 09:00
LEZL 100900Z 20003KT 160V240 CAVOK 31/15 Q1016 NOSIG

2010/08/10 09:00
LFHP 100900Z 00000KT 9999 FEW026 BKN250 19/14 Q1020

2010/08/10 09:00
LFLM 100900Z 31007KT 270V350 9999 FEW020 SCT230 24/15 Q1017

2010/08/10 09:00
LFLQ 100900Z 01010KT 350V050 9999 FEW026 SCT250 26/16 Q1016

2010/08/10 09:00
LFLW 100900Z 31004KT 230V340 9999 SCT021 SCT250 19/14 Q1020

2010/08/10 09:00
LFOW 100900Z 22006KT 180V250 CAVOK 20/13 Q1015

2010/08/10 09:00
LFQB 100900Z 24005KT 200V290 CAVOK 25/12 Q1015

2010/08/10 09:00
LFQG 100900Z 25004KT 200V300 CAVOK 22/14 Q1017

2010/08/10 09:00
LFRI 100900Z 23007KT 190V270 9999 BKN011 20/16 Q1018 NOSIG

2010/08/10 09:00
LFRL 100900Z 22012KT 180V250 9999 BKN004 BKN046 18/18 Q1015

2010/08/10 09:00
LFRM 100900Z 21004KT 180V250 9999 -RA FEW013 OVC100 17/14 Q1017

2010/08/10 09:00
LFXA 100900Z 35007KT CAVOK 24/15 Q1017

2010/08/10 09:02
KBIJ 100902Z AUTO 00000KT 7SM CLR 23/ A2995 RMK AO2

2010/08/10 09:00
KJFZ 100900Z AUTO 00000KT 10SM FEW050 SCT075 21/20 A3011 RMK

2010/08/10 09:00
KJQF 100900Z AUTO 00000KT 5SM HZ CLR 24/21 A3002 RMK AO2 T02400211

2010/08/10 08:55
KLGC 100855Z AUTO 00000KT 5SM CLR 22/22 A2999 RMK AO1

2010/08/10 09:00
KLOM 100900Z AUTO 00000KT 10SM CLR 25/22 A2992 RMK AO1 T02450215

2010/08/10 09:00
KMKJ 100900Z AUTO 00000KT 4SM SCT044 BKN060 19/08 A3017 RMK AO1

2010/08/10 09:00
KMMU 100900Z AUTO 00000KT 10SM CLR 23/20 A2993 RMK AO2 T02250202

2010/08/10 09:00
KMQS 100900Z AUTO 00000KT 7SM CLR 24/24 A2996 RMK AO2

2010/08/10 09:00
KMTV 100900Z AUTO 00000KT 2 1/2SM BR CLR 22/22 A3003 RMK AO2

2010/08/10 09:00
KOBE 100900Z AUTO 08003KT 10SM SCT019 SCT026 SCT040 23/23 A2989 RMK AO2

2010/08/10 09:00
KOKV 100900Z AUTO 27003KT 10SM CLR 25/21 A2997 RMK AO2 T02540210

2010/08/10 09:00
KOMH 100900Z AUTO 00000KT 7SM CLR 24/23 A2997 RMK AO2 T02350226

2010/08/10 09:00
KOPN 100900Z AUTO 11004KT 7SM CLR 24/23 A3002 RMK AO1

2010/08/10 09:00
KPCM 100900Z AUTO 08004KT 10SM CLR 26/24 A2990 RMK AO2

2010/08/10 09:00
KPSK 100900Z AUTO 00000KT 5SM BR CLR 21/19 A3010 RMK AO2

2010/08/10 09:00
KRCZ 100900Z AUTO 18003KT 5SM BR CLR 24/24 A3001 RMK AO2 T02420241

2010/08/10 09:00
KRMN 100900Z AUTO 00000KT 7SM CLR 23/22 A2999 RMK AO2

2010/08/10 09:02
KRUQ 100902Z AUTO 00000KT 7SM CLR 23/22 A3002 RMK AO2

2010/08/10 09:00
KSFQ 100900Z AUTO 00000KT 7SM CLR 24/23 A2999 RMK AO2

2010/08/10 09:00
KSHD 100900Z AUTO 00000KT 3SM BR CLR 21/21 A3001 RMK AO2

2010/08/10 09:00
KTBR 100900Z AUTO 00000KT 7SM CLR 24/24 A2999 RMK AO2 T02410240

2010/08/10 09:00
KTVI 100900Z AUTO 05003KT 10SM CLR 25/24 A2994 RMK AO2 T02510240

2010/08/10 09:01
KVDI 100901Z AUTO 09003KT 10SM CLR 25/24 A2999 RMK AO2

2010/08/10 09:00
KVJI 100900Z AUTO 00000KT 7SM SCT050 SCT060 OVC080 23/22 A3009 RMK AO2 TSNO

2010/08/10 09:00
KW22 100900Z AUTO 00000KT 4SM BR CLR 19/19 A3005 RMK AO2

2010/08/10 09:00
KW45 100900Z AUTO 00000KT 4SM BR CLR 22/22 A2998 RMK AO2 T02170218

2010/08/10 09:00
KWDR 100900Z AUTO 00000KT 5SM CLR 23/21 A3006 RMK AO1

2010/08/10 09:00
KXLL 100900Z AUTO 00000KT 10SM SCT120 24/22 A2995 RMK AO2 T02430217

2010/08/10 09:00
KXSA 100900Z AUTO 19003KT 10SM CLR 23/22 A2995 RMK AO2

2010/08/10 09:03
KBAF 100903Z 17003KT 2SM BR CLR 21/20 A2992 RMK AO2

2010/08/10 09:03
KBLI 100903Z AUTO 16005KT 10SM BKN012 BKN065 OVC080 14/12 A2993 RMK AO2

2010/08/10 09:03
KEST 100903Z AUTO 15009KT 6SM BR BKN010 BKN041 24/24 A2991 RMK AO2 LTG DSNT S-W CIG 007V013

2010/08/10 09:03
KFLD 100903Z AUTO 00000KT 3SM BR CLR 20/19 A2995 RMK AO2

2010/08/10 09:00
KFSD 100900Z VRB04KT 10SM TS FEW008 OVC014CB 25/23 A2985 RMK AO2 TSB00 CONS LTGIC SE-SW TS SW MOV NE $

2010/08/10 09:03
KLUK 100903Z AUTO 00000KT 2 1/2SM BR CLR 22/22 A2997 RMK AO2

2010/08/10 09:03
KLWV 100903Z AUTO 00000KT 3SM BR CLR 25/23 A2991 RMK AO2

2010/08/10 09:03
PAQT 100903Z AUTO 05012KT 3SM BR OVC004 03/02 A2979 RMK AO2 TSNO

2010/08/10 09:03
PASC 100903Z 05014KT 1 3/4SM BR OVC003 03/03 A2975 RMK AO2

2010/08/10 08:54
KWAL 100854Z AUTO 25005KT 6SM BR CLR 24/22 A2996 RMK AO2 SLP141 T02390222 58006 TSNO

2010/08/10 09:00
MKJS 100900Z 00000KT 9999 FEW024 BKN220 27/23 Q1012

2010/08/10 09:00
YSDU 100900Z AUTO 35014KT 9999NDV // ////// 14/13 Q1011

2010/08/10 09:00
UTST 100900Z 30006MPS CAVOK 37/05 Q1005 R88/CLRD70 NOSIG

2010/08/10 09:00
GMAD 100900Z 20003KT 5000 SCT004 BKN016 20/19 Q1015 NOSIG

2010/08/10 09:00
GMME 100900Z 32004KT 280V350 5000 NSC 32/19 Q1015 NOSIG

2010/08/10 09:00
GMMX 100900Z 08006KT 8000 SCT100 33/14 Q1017 NOSIG

2010/08/10 09:00
GMTT 100900Z 08006KT CAVOK 33/14 Q1016 NOSIG

2010/08/10 08:50
ENHV 100850Z 22009KT 9999 FEW016 12/08 Q1012

2010/08/10 09:00
GMFK 100900Z 18003KT 9999 SCT030 31/17 Q1023

2010/08/10 09:00
GMFM 100900Z 23006KT CAVOK 35/11 Q1019

2010/08/10 09:00
GMFO 100900Z 36009KT 9999 FEW033 30/19 Q1019 NOSIG

2010/08/10 09:00
GMMC 100900Z 06003KT 5000 NSC 33/19 Q1013

2010/08/10 09:00
GMMH 100900Z 36010KT 6000 SCT008 BKN200 22/19 Q1015

2010/08/10 09:00
GMML 100900Z 03008KT 8000 BKN100 25/21 Q1016

2010/08/10 09:00
GMMW 100900Z 00000KT 6000 SCT016 SCT100 27/21 Q1018

2010/08/10 09:00
GMMZ 100900Z VRB03KT 8000 NSC 30/11 Q1025

2010/08/10 09:00
UKLR 100900Z 00000MPS 9999 SCT026CB BKN200 25/18 Q1017 30090070 NOSIG

2010/08/10 09:00
UKLI 100900Z 00000MPS CAVOK 24/17 Q1017 28090070 NOSIG

2010/08/10 09:00
UKON 100900Z 03006MPS 350V060 CAVOK 34/15 Q1011 05090075 NOSIG

2010/08/10 09:00
UKCM 100900Z 07006MPS 030V130 CAVOK 36/14 Q1011 02010065 NOSIG

2010/08/10 09:00
UKCW 100900Z 06004MPS 340V130 CAVOK 39/06 Q1013 0909//70 NOSIG

2010/08/10 09:00
UKLU 100900Z 32002MPS 9999 SCT033 24/17 Q1018 10090070 NOSIG

2010/08/10 09:00
UKKK 100900Z 06002MPS 020V100 7000 NSC 29/19 Q1015 26CLRD70 NOSIG

2010/08/10 09:00
UKKM 100900Z 08002MPS 020V120 CAVOK 29/18 Q1015 33CLRD70 NOSIG

2010/08/10 09:00
UKLN 100900Z 31004MPS 270V340 9999 SCT033CB BKN100 21/18 Q1018 3309//70 NOSIG

2010/08/10 09:01
MMGL 100901Z RTD 06004KT 8SM -RA BKN020 BKN100 OVC300 19/17 A3012 RMK SLP056 56003 902 8/477 -RAB35

2010/08/10 09:00
SKBQ 100900Z 00000KT 9999 FEW015CB SCT070 26/25 A2983 RMK CB/W

2010/08/10 09:00
K1A5 100900Z AUTO 00000KT 1/2SM FG OVC002 20/18 A3012 RMK AO2 T01960183

2010/08/10 08:59
K3I2 100859Z AUTO 00000KT 7SM CLR 19/18 A2999 RMK AO2

2010/08/10 09:00
K3J7 100900Z AUTO 00000KT 10SM CLR 24/22 A2999 RMK AO2 T02430215

2010/08/10 09:00
KUXL 100900Z AUTO 00000KT 10SM CLR 26/26 A2992 RMK AO2

2010/08/10 08:58
KACP 100858Z AUTO 00000KT 5SM BR SCT031 SCT065 24/24 A2993 RMK AO2

2010/08/10 09:00
KBQK 100900Z AUTO 12004KT 10SM CLR 27/25 A2996 RMK AO1 6//// T02740245 PNO

2010/08/10 09:00
KCCO 100900Z AUTO 00000KT 2 1/2SM CLR 21/21 A3002 RMK AO1

2010/08/10 09:00
KCDH 100900Z AUTO 00000KT 10SM CLR 25/24 A2991 RMK AO2

2010/08/10 08:55
KCLS 100855Z AUTO 23003KT 10SM OVC016 13/11 A2999 RMK AO2

2010/08/10 09:00
KCPC 100900Z AUTO 00000KT 10SM CLR 25/24 A3000 RMK AO2 T02470243

2010/08/10 09:00
KCTJ 100900Z AUTO 00000KT 7SM CLR 23/22 A3002 RMK AO2 T02280221

2010/08/10 08:58
KDNN 100858Z AUTO 00000KT 7SM CLR 23/22 A3000 RMK AO2

2010/08/10 09:00
KDRI 100900Z AUTO 00000KT 10SM CLR 25/25 A2994 RMK AO2

2010/08/10 09:00
KEYF 100900Z AUTO 00000KT 10SM CLR 25/25 A3001 RMK AO2 T02500247

2010/08/10 09:00
KF24 100900Z AUTO 00000KT 10SM CLR 26/23 A2994 RMK AO2 T02570230

2010/08/10 09:00
KFFA 100900Z AUTO 27005KT 10SM CLR 26/25 A2999 RMK AO2 T02610246

2010/08/10 09:00
KFKN 100900Z AUTO 18003KT 10SM BKN070 24/23 A2998 RMK AO1

2010/08/10 09:00
KFVX 100900Z AUTO 00000KT 5SM BR CLR 24/23 A2995 RMK AO2

2010/08/10 09:00
KGAO 100900Z AUTO 00000KT 3SM BR 24/23 A2992 RMK AO2 SKY OBSCURED

2010/08/10 08:55
KGHG 100855Z AUTO 00000KT 2SM -DZ CLR 21/21 A2991 RMK AO2

2010/08/10 09:00
KGWW 100900Z AUTO 22003KT 10SM SCT005 SCT110 24/24 A3001 RMK AO2 T02360235

2010/08/10 09:00
KHNZ 100900Z AUTO 21003KT 7SM CLR 23/22 A3000 RMK AO2 T02310218

2010/08/10 08:58
KHOE 100858Z AUTO 00000KT 10SM SCT017 25/ A2996 RMK AO2 T0245

2010/08/10 09:00
KHSP 100900Z AUTO 27010KT 10SM CLR 20/17 A3018 RMK AO2

2010/08/10 09:00
KHUM 100900Z AUTO 02003KT 5SM BR CLR 25/25 A2991 RMK AO2 T02500250

2010/08/10 09:00
KHWY 100900Z AUTO 00000KT 7SM CLR 22/20 A2994 RMK AO2

2010/08/10 09:00
KI16 100900Z AUTO 00000KT 5SM BR SCT002 SCT060 19/19 A3007 RMK AO2

2010/08/10 09:00
KIER 100900Z AUTO 00000KT 10SM CLR 26/25 A2992 RMK AO2 PWINO

2010/08/10 09:00
KIPJ 100900Z AUTO 00000KT 4SM BR CLR 22/21 A3003 RMK AO2 T02220212

2010/08/10 09:00
KISO 100900Z AUTO 21004KT 10SM CLR 24/23 A3001 RMK AO2 T02360227

2010/08/10 09:00
KIXA 100900Z AUTO 20003KT 7SM CLR 23/23 A2998 RMK AO2 T02300225

2010/08/10 09:00
KJES 100900Z AUTO 00000KT 10SM CLR 24/24 A2997 RMK AO2 T02420242

2010/08/10 09:00
KJGG 100900Z AUTO 00000KT 10SM CLR 26/22 A2998 RMK AO1

2010/08/10 09:00
KJKA 100900Z AUTO 01003KT 5SM BR CLR 28/27 A2991 RMK AO2 T02800265

2010/08/10 09:00
KJYO 100900Z AUTO 00000KT 5SM BR CLR 23/22 A2995 RMK AO2

2010/08/10 09:00
KLDJ 100900Z AUTO 24003KT 7SM CLR 26/19 A2992 RMK AO2 T02560187

2010/08/10 09:00
KLHZ 100900Z AUTO 00000KT 7SM CLR 24/22 A3001 RMK AO2 T02370221

2010/08/10 09:00
KLKU 100900Z AUTO 18003KT 7SM CLR 24/21 A2996 RMK AO2

2010/08/10 09:00
KLNP 100900Z AUTO 20003KT 5SM OVC036 23/21 A3012 RMK AO1

2010/08/10 09:00
KMDQ 100900Z AUTO 00000KT 5SM BR CLR 24/24 A2999 RMK AO2 T02400235

2010/08/10 09:00
KMGR 100900Z AUTO 00000KT 10SM CLR 26/24 A2996 RMK AO2

2010/08/10 09:00
KSIF 100900Z AUTO 00000KT 7SM CLR 24/22 A3001 RMK AO2 T02350219

2010/08/10 09:00
KSUT 100900Z AUTO 23004KT 10SM CLR 26/22 A3001 RMK AO2

2010/08/10 09:00
KSVH 100900Z AUTO 00000KT 7SM CLR 23/23 A3002 RMK AO2 T02320227

2010/08/10 09:00
KTMA 100900Z AUTO 00000KT 7SM CLR 24/24 A2997 RMK AO2 T02400236

2010/08/10 08:56
KVDF 100856Z AUTO 09003KT 10SM SCT017 25/23 A2988 RMK AO2

2010/08/10 08:58
KVUJ 100858Z AUTO 00000KT 5SM BKN095 22/21 A3000 RMK AO2

2010/08/10 08:59
KW99 100859Z AUTO 00000KT 4SM HZ CLR 19/17 A3001 RMK AO2

2010/08/10 09:00
KJFZ 100900Z AUTO 00000KT 10SM FEW050 SCT075 21/20 A3011 RMK

2010/08/10 08:55
KLGC 100855Z AUTO 00000KT 5SM CLR 22/22 A2999 RMK AO1

2010/08/10 09:00
KLOM 100900Z AUTO 00000KT 10SM CLR 25/22 A2992 RMK AO1 T02450215

2010/08/10 09:00
KMKJ 100900Z AUTO 00000KT 4SM SCT044 BKN060 19/08 A3017 RMK AO1

2010/08/10 09:00
KMMU 100900Z AUTO 00000KT 10SM CLR 23/20 A2993 RMK AO2 T02250202

2010/08/10 09:00
KMQS 100900Z AUTO 00000KT 7SM CLR 24/24 A2996 RMK AO2

2010/08/10 09:00
SKBO 100900Z VRB02KT 9999 FEW017 SCT200 10/09 A3033 NOSIG

2010/08/10 09:00
SKBQ 100900Z 00000KT 9999 FEW015CB SCT070 26/25 A2983 RMK CB/W

2010/08/10 09:00
SKCL 100900Z 12003KT 9999 FEW025 SCT100 19/17 A2998

2010/08/10 09:00
SKCG 100900Z 00000KT 9999 TS FEW015CB SCT070 27/26 A2984 RMK CB/N

2010/08/10 09:00
SKRG 100900Z 00000KT 5000 HZ BKN010 14/14 A3028

2010/08/10 09:00
KMTV 100900Z AUTO 00000KT 2 1/2SM BR CLR 22/22 A3003 RMK AO2

2010/08/10 09:00
KOBE 100900Z AUTO 08003KT 10SM SCT019 SCT026 SCT040 23/23 A2989 RMK AO2

2010/08/10 09:00
KOKV 100900Z AUTO 27003KT 10SM CLR 25/21 A2997 RMK AO2 T02540210

2010/08/10 09:00
KOMH 100900Z AUTO 00000KT 7SM CLR 24/23 A2997 RMK AO2 T02350226

2010/08/10 09:00
KOPN 100900Z AUTO 11004KT 7SM CLR 24/23 A3002 RMK AO1

2010/08/10 09:00
KPCM 100900Z AUTO 08004KT 10SM CLR 26/24 A2990 RMK AO2

2010/08/10 09:00
KPSK 100900Z AUTO 00000KT 5SM BR CLR 21/19 A3010 RMK AO2

2010/08/10 09:00
KRCZ 100900Z AUTO 18003KT 5SM BR CLR 24/24 A3001 RMK AO2 T02420241

2010/08/10 09:00
KRMN 100900Z AUTO 00000KT 7SM CLR 23/22 A2999 RMK AO2

2010/08/10 09:00
KSFQ 100900Z AUTO 00000KT 7SM CLR 24/23 A2999 RMK AO2

2010/08/10 09:00
KSHD 100900Z AUTO 00000KT 3SM BR CLR 21/21 A3001 RMK AO2

2010/08/10 09:00
KTBR 100900Z AUTO 00000KT 7SM CLR 24/24 A2999 RMK AO2 T02410240

2010/08/10 09:00
KTVI 100900Z AUTO 05003KT 10SM CLR 25/24 A2994 RMK AO2 T02510240

2010/08/10 09:00
KVJI 100900Z AUTO 00000KT 7SM SCT050 SCT060 OVC080 23/22 A3009 RMK AO2 TSNO

2010/08/10 09:00
KW22 100900Z AUTO 00000KT 4SM BR CLR 19/19 A3005 RMK AO2

2010/08/10 09:00
KW45 100900Z AUTO 00000KT 4SM BR CLR 22/22 A2998 RMK AO2 T02170218

2010/08/10 09:00
KWDR 100900Z AUTO 00000KT 5SM CLR 23/21 A3006 RMK AO1

2010/08/10 09:00
KXLL 100900Z AUTO 00000KT 10SM SCT120 24/22 A2995 RMK AO2 T02430217

2010/08/10 09:00
KXSA 100900Z AUTO 19003KT 10SM CLR 23/22 A2995 RMK AO2

2010/08/10 08:56
KOSC 100856Z AUTO 32004KT OVC001 21/19 A2995 RMK AO2 PWINO

2010/08/10 08:55
KTTS 100855Z 12005KT 10SM FEW015 FEW065 26/24 A2992 RMK SLP132 1CU 1SC /0/ 57010

2010/08/10 08:55
KTTS 100855Z 12005KT 10SM FEW015 FEW065 26/24 A2992 RMK SLP132 1CU 1SC /0/ 57010

2010/08/10 08:50
TJPS 100850Z 31005KT 08SM SCT030 BKN060 26/26 A2992

2010/08/10 09:00
FLLS 100900Z 09012KT CAVOK 25/07 Q1025

2010/08/10 09:00
FNLU 100900Z 13004KT 9999 SCT015 BKN023 23/19 Q1017 NSG

2010/08/10 09:00
FQMA 100900Z 20014KT 160V230 9999 FEW020 22/00 Q1032 NOSIG

2010/08/10 09:00
FVHA 100900Z 13014KT CAVOK 22/08 Q1027

2010/08/10 08:56
KHLR 100856Z AUTO 18006KT 10SM CLR 28/23 A2992 RMK AO2 SLP122 T02780233 56016 $

2010/08/10 08:56
PHBK 100856Z AUTO 00000KT 10SM SCT060 26/14 A3010 RMK AO2 SLP196 T02560144 51015 TSNO $

2010/08/10 08:56
KHLR 100856Z AUTO 18006KT 10SM CLR 28/23 A2992 RMK AO2 SLP122 T02780233 56016 $

2010/08/10 08:55
KLUF 100855Z AUTO 00000KT 10SM FEW120 28/15 A2980 RMK AO2 SLP062 T02830153 50001 $

2010/08/10 08:56
KNBC 100856Z AUTO 00000KT 10SM CLR 27/25 A2999 RMK AO2 SLP155 T02670250 55005 $

2010/08/10 09:00
KNEL 100900Z AUTO 00000KT 7SM BKN070 BKN085 23/20 A2992 RMK AO2 SLP131 T02330200 56006 $

2010/08/10 08:56
KNFL 100856Z AUTO 28006KT 10SM CLR 21/03 A2994 RMK AO2 SLP113 T02060028 51005 TSNO

2010/08/10 08:59
KNGU 100859Z 21004KT 10SM FEW200 26/23 A2998 RMK AO2 SLP153 T02610233 55003

2010/08/10 08:56
KNPA 100856Z AUTO 33004KT 6SM BR CLR 26/24 A2990 RMK AO2 SLP125 T02560244 58006

2010/08/10 08:56
KNUW 100856Z 00000KT 7SM FEW005 BKN010 OVC040 15/11 A2995 RMK AO2 SLP146 T01470108 58005 $

2010/08/10 08:56
KNXP 100856Z AUTO 29004KT CLR 23/00 A2992 RMK AO2 SLP094 T02330000 58001 $

2010/08/10 08:56
KNXX 100856Z AUTO 00000KT 10SM CLR 24/19 A2994 RMK AO2 SLP142 T02440194 56004 $

2010/08/10 08:55
KTBN 100855Z AUTO 17004KT 10SM CLR 25/23 A2995 RMK AO2 SLP116 T02460229 57005 $

2010/08/10 09:00
KNEL 100900Z AUTO 00000KT 7SM BKN070 BKN085 23/20 A2992 RMK AO2 SLP131 T02330200 56006 $

2010/08/10 08:59
KNGU 100859Z 21004KT 10SM FEW200 26/23 A2998 RMK AO2 SLP153 T02610233 55003

2010/08/10 09:00
TTPP 100900Z 00000KT 9999 FEW016 BKN280 24/23 Q1013 NOSIG

2010/08/10 09:00
KAYS 100900Z AUTO 00000KT 7SM CLR 25/24 A2996 RMK AO1

2010/08/10 08:58
KDBN 100858Z AUTO 00000KT 5SM CLR 23/23 A2998 RMK AO1

2010/08/10 09:00
KJQF 100900Z AUTO 00000KT 5SM HZ CLR 24/21 A3002 RMK AO2 T02400211

2010/08/10 08:56
PHNY 100856Z AUTO 03009KT 10SM CLR 21/18 A3015 RMK AO2 TSNO 51009 T02110177 SLP188 $

2010/08/10 09:03
YSDU 100903Z AUTO 35013KT 9999NDV // ////// 14/13 Q1011

2010/08/10 09:02
KBFD 100902Z AUTO 00000KT 2SM BR OVC070 19/18 A3002 RMK AO2

2010/08/10 09:02
KBGM 100902Z AUTO 00000KT 1SM BR BKN001 OVC070 20/20 A3000 RMK AO2 RVRNO

2010/08/10 09:02
KEAU 100902Z AUTO 04003KT 3/4SM BR VV001 20/19 A2995 RMK AO2

2010/08/10 09:02
KMHE 100902Z AUTO 20007KT 9SM OVC008 25/23 A2987 RMK AO2 CIG 006V011 TSNO

2010/08/10 09:02
KOSH 100902Z AUTO 00000KT 2SM BR CLR 21/20 A2994 RMK AO2

2010/08/10 09:02
KSPG 100902Z AUTO 11014KT 10SM BKN012 27/24 A2985 RMK AO2

2010/08/10 09:02
KTAN 100902Z AUTO 14003KT 2 1/2SM -RA BR FEW027 BKN110 21/21 A2989 RMK AO2 P0001

2010/08/10 09:03
KBAF 100903Z 17003KT 2SM BR CLR 21/20 A2992 RMK AO2

2010/08/10 09:03
KBLI 100903Z AUTO 16005KT 10SM BKN012 BKN065 OVC080 14/12 A2993 RMK AO2

2010/08/10 09:03
KEST 100903Z AUTO 15009KT 6SM BR BKN010 BKN041 24/24 A2991 RMK AO2 LTG DSNT S-W CIG 007V013

2010/08/10 09:03
KFLD 100903Z AUTO 00000KT 3SM BR CLR 20/19 A2995 RMK AO2

2010/08/10 09:03
KLUK 100903Z AUTO 00000KT 2 1/2SM BR CLR 22/22 A2997 RMK AO2

2010/08/10 09:03
KLWV 100903Z AUTO 00000KT 3SM BR CLR 25/23 A2991 RMK AO2

2010/08/10 09:03
PASC 100903Z 05014KT 1 3/4SM BR OVC003 03/03 A2975 RMK AO2

2010/08/10 09:00
FOOL 100900Z 15008KT 110V180 9999 SCT012 BKN046 26/21 Q1016 NOSIG

2010/08/10 09:00
HECA 100900Z 29005KT CAVOK 32/20 Q1009 NOSIG

2010/08/10 08:50
HLLT 100850Z VRB03KT CAVOK 29/13 Q1016

2010/08/10 09:00
HSSS 100900Z 24011KT CAVOK 34/19 Q1010 NOSIG

2010/08/10 09:02
PATK 100902Z AUTO 18007KT 7SM -RA FEW009 BKN012 OVC032 12/11 A2977 RMK AO2 P0000 TSNO

2010/08/10 09:00
KFSD 100900Z VRB04KT 10SM TS FEW008 OVC014CB 25/23 A2985 RMK AO2 TSB00 CONS LTGIC SE-SW TS SW MOV NE $

2010/08/10 09:03
PAQT 100903Z AUTO 05012KT 3SM BR OVC004 03/02 A2979 RMK AO2 TSNO

2010/08/10 08:45
LHDC 100845Z 14001KT 9999 FEW016 22/18 Q1018 NOSIG

2010/08/10 08:45
LHKE 100845Z 02002MPS 9999 FEW033 24/16 Q1018 NOSIG RMK BLU

2010/08/10 08:45
LHPA 100845Z 27002MPS 9999 FEW027 SCT083 22/18 Q1020 NOSIG RMK BLU

2010/08/10 08:45
LHPP 100845Z 12003KT 9999 FEW033 24/16 Q1019

2010/08/10 08:45
LHPR 100845Z 27004KT 9999 FEW026 SCT083 23/17 Q1019

2010/08/10 08:45
LHSM 100845Z 18002KT 9999 FEW026TCU 23/17 Q1019 NOSIG

2010/08/10 08:45
LHSN 100845Z VRB01MPS CAVOK 24/16 Q1018 NOSIG RMK BLU

2010/08/10 08:45
LHUD 100845Z 35005KT CAVOK 25/16 Q1018

2010/08/10 09:00
DIAP 100900Z 25009KT 7000 SCT011 SCT020 BKN070 26/23 Q1015 NOSIG

2010/08/10 09:00
DXXX 100900Z 23008KT 9999 FEW010 BKN080 27/24 Q1014 NOSIG

2010/08/10 09:00
SUMU 100900Z 00000KT 1500 R24/0600 BR NSC 02/02 Q1027 BECMG FM 1000Z 3000 BR NSC

2010/08/10 09:00
SULS 100900Z 00000KT CAVOK 02/02 Q1027

2010/08/10 09:00
SUDU 100900Z 00000KT CAVOK 02/01 Q1026

2010/08/10 09:00
VHHH 100900Z 16012KT 140V200 9999 FEW016 31/25 Q1005 NOSIG

2010/08/10 09:00
RCTP 100900Z 24014KT 9999 FEW025 BKN220 33/25 Q1005 NOSIG

2010/08/10 09:00
RCKH 100900Z 21005KT 170V250 9999 FEW012 SCT070 BKN250 29/27 Q1007 NOSIG

2010/08/10 09:00
RCSS 100900Z 10008KT 9999 FEW025 SCT040 32/25 Q1005 NOSIG

2010/08/10 09:00
VMMC 100900Z 18008KT 9999 FEW020 SCT080 31/26 Q1005 NOSIG

2010/08/10 09:00
RPLL 100900Z 25010KT 9000 SCT025 OVC300 29/25 Q1008 NOSIG RMK A2977

2010/08/10 09:00
RPVM 100900Z 00000KT 8000 -RASH FEW018CB OVC250 30/26 Q1009 A2982 LGT RASH CB NE

2010/08/10 09:00
RPMD 100900Z 14006KT 8000 -RA SCT015CB BKN090 OVC290 26/25 Q1009 RETS LIRA INT CB NE NW

2010/08/10 09:00
RPLB 100900Z 24016KT 6000 SCT018 OVC080 28/25 Q1009 DSTNT PCPN W

2010/08/10 09:00
RPLI 100900Z 22008KT 9999 SCT019CB BKN100 29/26 Q1006 RESH

2010/08/10 09:00
RPMZ 100900Z 27004KT 9999 FEW018 BKN120 30/25 Q1010

2010/08/10 09:00
GGOV 100900Z 30003KT 250V340 4000 RA BKN005 SCT014TCU OVC090 25/24 Q1014 NOSIG

2010/08/10 09:00
YBCS 100900Z 00000KT 9999 FEW005 BKN017 OVC025 24/23 Q1014

2010/08/10 09:02
KBGE 100902Z AUTO 04003KT 10SM CLR 24/22 A2993 RMK AO2

2010/08/10 09:01
KCWV 100901Z AUTO 00000KT 7SM CLR 24/24 A2999 RMK AO2 T02420242

2010/08/10 09:15
KFDW 100915Z AUTO 14003KT 10SM CLR 25/23 A3002 RMK AO1

2010/08/10 09:01
KIDI 100901Z AUTO 00000KT 7SM OVC100 20/19 A3001 RMK AO2

2010/08/10 09:01
KLWB 100901Z AUTO 00000KT 5SM BR CLR 17/17 A3010 RMK AO2

2010/08/10 09:01
KMLJ 100901Z AUTO 00000KT 7SM CLR 24/24 A2999 RMK AO2

2010/08/10 09:01
KMRN 100901Z AUTO 00000KT 2 1/2SM BR CLR 22/22 A3009 RMK AO2

2010/08/10 09:02
KMWK 100902Z AUTO 00000KT 5SM BR CLR 23/21 A3004 RMK AO2

2010/08/10 09:01
KPGV 100901Z AUTO 25003KT 10SM CLR 23/23 A3001 RMK AO2

2010/08/10 09:02
KTNB 100902Z AUTO 00000KT 1SM BR VV007 18/17 A3016 RMK AO2

2010/08/10 09:04
KTTA 100904Z AUTO 00000KT 2 1/2SM BR CLR 21/21 A3001 RMK AO2

2010/08/10 09:02
KBIJ 100902Z AUTO 00000KT 7SM CLR 23/ A2995 RMK AO2

2010/08/10 09:02
KRUQ 100902Z AUTO 00000KT 7SM CLR 23/22 A3002 RMK AO2

2010/08/10 09:01
KVDI 100901Z AUTO 09003KT 10SM CLR 25/24 A2999 RMK AO2

2010/08/10 08:54
KWAL 100854Z AUTO 25005KT 6SM BR CLR 24/22 A2996 RMK AO2 SLP141 T02390222 58006 TSNO

2010/08/10 09:00
HAAB 100900Z 13006KT 7000 FEW005 BKN018 OVC070 16/13 Q1026 DIS RA

2010/08/10 09:00
HRYR 100900Z 14007KT 9999 FEW030 25/12 Q1022 NOSIG

2010/08/10 09:00
FALA 100900Z 10013KT 070V140 CAVOK 13/M06 Q1033 NOSIG

2010/08/10 09:00
FBKE 100900Z 14009KT CAVOK 23/01 Q1025

2010/08/10 09:00
FBMN 100900Z 14010KT CAVOK 16/M09 Q1029

2010/08/10 09:00
FBSK 100900Z 13009KT CAVOK 14/M065 Q1032 NOSIG

2010/08/10 09:00
FDMS 100900Z 14008KT CAVOK 17/M02 Q1033 NOSIG

2010/08/10 09:00
FYWB 100900Z 09035KT 0400 R09/0200V0400N R27/0400V1000U VV/// 29/M13 Q1016

2010/08/10 09:00
FYWH 100900Z 10007KT CAVOK 09/M12 Q1034

2010/08/10 09:00
GCFV 100900Z VRB01KT 9999 SCT040 24/19 Q1016

2010/08/10 09:00
GCHI 100900Z 01005KT 320V060 9999 FEW013 BKN023 23/19 Q1016

2010/08/10 09:00
GCLA 100900Z VRB02KT 9999 FEW016 BKN025 23/19 Q1016

2010/08/10 09:00
GCLP 100900Z 01013KT 340V050 9000 FEW025 25/19 Q1016 NOSIG

2010/08/10 09:00
GCRR 100900Z 14006KT 9999 FEW020 24/20 Q1016

2010/08/10 09:00
GCTS 100900Z VRB01KT 9999 BKN100 22/19 Q1016 NOSIG

2010/08/10 09:00
GCXO 100900Z 28008KT 6000 2000NW PRFG FEW000 BKN100 20/18 Q1018 NOSIG

2010/08/10 09:00
GEML 100900Z 07005KT 010V100 9999 FEW015 27/22 Q1017

2010/08/10 09:00
GMFF 100900Z 27005KT 8000 FEW033 SCT100 35/11 Q1019 NOSIG

2010/08/10 09:00
GMFO 100900Z 36009KT 9999 FEW033 30/19 Q1019 NOSIG

2010/08/10 09:00
GMME 100900Z 32004KT 280V350 5000 NSC 32/19 Q1015 NOSIG

2010/08/10 09:00
GMMN 100900Z 08005KT 030V160 CAVOK 36/13 Q1016 NOSIG

2010/08/10 09:00
GMMX 100900Z 08006KT 8000 SCT100 33/14 Q1017 NOSIG

2010/08/10 09:00
GMTT 100900Z 08006KT CAVOK 33/14 Q1016 NOSIG

2010/08/10 09:00
GQNN 100900Z 28006KT 250V310 8000 NSC 27/19 Q1013 NOSIG

2010/08/10 09:00
GBYD 100900Z 03004KT 9999 SCT011 BKN110 27/24 Q1013

2010/08/10 09:00
GOOY 100900Z 32006KT 270V340 9999 FEW013 SCT230 29/22 Q1013 NOSIG

2010/08/10 08:53
PABR 100853Z 08018KT 6SM BR OVC002 02/02 A2986

2010/08/10 08:53
PACD 100853Z AUTO 14007KT 10SM OVC060 09/08 A2964

2010/08/10 08:55
PAED 100855Z 00000KT 10SM OVC006 12/10 A2978

2010/08/10 08:55
PAEI 100855Z AUTO 00000KT 10SM OVC080 13/11 A2963

2010/08/10 08:53
PAEN 100853Z AUTO 00000KT 7SM -RA FEW003 BKN023 OVC040 12/12 A2978

2010/08/10 08:53
PAFA 100853Z 30003KT 10SM BKN110 13/11 A2962

2010/08/10 08:56
PAFS 100856Z AUTO 00000KT 10SM -RA FEW033 BKN047 11/09 A2963

2010/08/10 08:53
PAJN 100853Z 06005KT 4SM -DZ BR FEW005 BKN012 OVC030 12/12 A3001

2010/08/10 08:54
PAKN 100854Z 20007KT 5SM -RA BR SCT007 OVC010 10/09 A2964

2010/08/10 08:53
PAKT 100853Z AUTO 12003KT 10SM BKN006 OVC013 13/12 A3002

2010/08/10 08:53
PANC 100853Z 00000KT 10SM SCT006 BKN030 OVC045 12/11 A2977

2010/08/10 08:53
PAOM 100853Z 07007KT 10SM -RA FEW023 OVC044 11/10 A2941

2010/08/10 08:53
PAOR 100853Z 00000KT 10SM SCT060 BKN100 11/11 A2972

2010/08/10 08:53
PAOT 100853Z 16009KT 10SM SCT015 BKN026 BKN034 13/12 A2945

2010/08/10 08:56
PARY 100856Z AUTO 00000KT 10SM BKN065 OVC080 12/09 A2960

2010/08/10 08:53
PASC 100853Z 05014KT 2SM BR OVC003 03/03 A2975

2010/08/10 08:53
PASI 100853Z 00000KT 10SM FEW005 SCT015 OVC026 13/12 A3002

2010/08/10 08:56
PATQ 100856Z AUTO 07018KT 10SM OVC005 02/02 A2978

2010/08/10 08:56
PAVD 100856Z 00000KT 2 1/2SM SCT004 OVC016 11/09 A2989

2010/08/10 08:56
PAWG 100856Z AUTO 00000KT 10SM SCT014 OVC043 13/11 A3003

2010/08/10 09:00
OJAI 100900Z 27010KT 7000 NSC 32/12 Q1009 NOSIG

2010/08/10 09:00
OJAM 100900Z 36004KT 5000 HZ NSC 32/07 Q1010 NOSIG

2010/08/10 09:00
OLBA 100900Z 24006KT 8000 SCT026 31/22 Q1009 NOSIG

2010/08/10 09:00
OEDF 100900Z 13009KT 090V160 5000 DU SKC 42/20 Q0998 NOSIG

2010/08/10 09:00
OEJN 100900Z 22006KT CAVOK 39/24 Q1002 NOSIG

2010/08/10 09:00
OEMA 100900Z 00000KT 7000 NSC 43/M01 Q1006 NOSIG

2010/08/10 09:00
OERK 100900Z 01010KT 8000 SKC 43/01 Q1005 NOSIG

2010/08/10 09:00
OKBK 100900Z 11005KT 6000 NSC 43/16 Q0999 NOSIG

2010/08/10 09:00
ORBI 100900Z 01008KT CAVOK 45/07 Q1002

2010/08/10 09:00
ORMM 100900Z 16008KT CAVOK 45/16 Q0999

2010/08/10 09:00
OSAP 100900Z 31008KT CAVOK 34/17 Q1006

2010/08/10 09:00
OSDI 100900Z VRB02KT CAVOK 33/15 Q1008

2010/08/10 09:00
OSLK 100900Z 24009KT 9999 SCT030 31/22 Q1007

2010/08/10 09:00
OMAA 100900Z 27005KT 210V340 CAVOK 45/11 Q0998 A2948 NOSIG

2010/08/10 09:00
OMAL 100900Z 22008KT 170V270 9999 FEW045 42/13 Q1002 A2958

2010/08/10 09:00
OMDB 100900Z 34004K 260V050 CAVOK 44/14 Q0999 NOSIG

2010/08/10 09:00
OMDB 100900Z 34004KT 260V050 CAVOK 44/14 Q0999 NOSIG

2010/08/10 09:00
OMRK 100900Z 11008KT CAVOK 43/20 Q0998 A2950

2010/08/10 09:00
OMSJ 100900Z VRB03KT 7000 NSC 45/13 Q0999

2010/08/10 09:00
OYAA 100900Z 22016KT 7000 FEW030 BKN100 33/23 Q1004

2010/08/10 09:00
OYHD 100900Z 31015KT 6000 BKN029 37/31 Q1003

2010/08/10 09:00
OYMB 100900Z 04010KT 9999 SCT030 38/11 Q1005

2010/08/10 09:00
OJAQ 100900Z 36018KT 8000 NSC 34/20 Q1005

2010/08/10 09:00
SLCA 100900Z 00000KT 9999 BKN080 10/04 Q1024

2010/08/10 09:00
SLRI 100900Z 17004KT 3000 FU SKC 21/18 Q1013

2010/08/10 09:00
SBBE 100900Z 06004KT CAVOK 24/22 Q1012

2010/08/10 09:00
SBBR 100900Z 00000KT CAVOK 13/04 Q1023

2010/08/10 09:00
SBBV 100900Z 00000KT CAVOK 24/23 Q1013

2010/08/10 09:00
SBCF 100900Z 17006KT CAVOK 12/09 Q1022

2010/08/10 09:00
SBCG 100900Z 16005KT CAVOK 13/10 Q1019

2010/08/10 09:00
SBEG 100900Z 00000KT CAVOK 23/22 Q1012

2010/08/10 09:00
SBFI 100900Z 23002KT CAVOK 10/09 Q1019

2010/08/10 09:00
SBFZ 100900Z 14010KT 9999 FEW017 SCT090 24/20 Q1015

2010/08/10 09:00
SBGL 100900Z 29004KT 9999 FEW012 BKN030 19/16 Q1024

2010/08/10 09:00
SBGR 100900Z 16003KT 9999 OVC023 13/12 Q1025

2010/08/10 09:00
SBKP 100900Z 11016KT CAVOK 12/10 Q1023

2010/08/10 09:00
SBNT 100900Z 17005KT 9999 SCT025 BKN070 22/22 Q1016

2010/08/10 09:00
SBPA 100900Z 09001KT 0100 R11/0300 R29/0300 FG NSC 05/05 Q1027

2010/08/10 09:00
SBPS 100900Z 26003KT 9999 SCT020 16/16 Q1020

2010/08/10 09:00
SBRF 100900Z 15011KT 9999 FEW018 SCT070 25/19 Q1017

2010/08/10 09:00
SBSL 100900Z 08005KT 9999 SCT017 25/23 Q1013

2010/08/10 09:00
SBSN 100900Z 00000KT CAVOK 23/22 Q1012

2010/08/10 09:00
SBSV 100900Z 27002KT 9999 SCT017 18/18 Q1018

2010/08/10 09:00
SBAR 100900Z 12005KT 9999 FEW015 24/20 Q1018

2010/08/10 09:00
SBCR 100900Z 23004KT CAVOK 16/11 Q1017

2010/08/10 09:00
SBCT 100900Z 07003KT 7000 OVC006 08/07 Q1025

2010/08/10 09:00
SBCZ 100900Z 00000KT 8000 NSC 19/19 Q1013

2010/08/10 09:00
SBFL 100900Z 00000KT 9999 BKN025 14/11 Q1025

2010/08/10 09:00
SBFN 100900Z 12010KT 9999 FEW017 26/22 Q1015

2010/08/10 09:00
SBGO 100900Z 34002KT CAVOK 14/11 Q1019

2010/08/10 09:00
SBLO 100900Z 10006KT CAVOK 12/11 Q1022

2010/08/10 09:00
SBMA 100900Z 00000KT 7000 NSC 22/21 Q1013

2010/08/10 09:00
SBMN 100900Z 00000KT 9999 FEW015 25/23 Q1012

2010/08/10 09:00
SBMO 100900Z 14003KT 5000 BR SCT009 BKN020 20/19 Q1017

2010/08/10 09:00
SBMQ 100900Z 30001KT 9999 FEW015 SCT090 25/24 Q1013

2010/08/10 09:00
SBPV 100900Z 00000KT 3000 FU NSC 22/19 Q1012

2010/08/10 09:00
SBRB 100900Z 00000KT 5000 FU NSC 21/19 Q1014

2010/08/10 09:00
SBRJ 100900Z 22003KT 9999 SCT025 BKN090 21/16 Q1023

2010/08/10 09:00
SBSJ 100900Z 00000KT 3000 BR BKN006 12/11 Q1024

2010/08/10 09:00
SBTE 100900Z 19003KT CAVOK 21/19 Q1014

2010/08/10 09:00
SBUG 100900Z 20005KT CAVOK 03/02 Q1016

2010/08/10 09:00
SBVT 100900Z 22006KT 9999 FEW020 SCT100 21/18 Q1022

2010/08/10 09:00
FYKM 100900Z 19005KT CAVOK 20/M03 Q1025

2010/08/10 09:00
FYKT 100900Z AUTO 06016KT //// // ////// 13/M09 Q1034

2010/08/10 09:00
FYRU 100900Z 09014KT CAVOK 17/M10 Q1027

2010/08/10 09:05
CYBU 100905Z AUTO 12004KT 5SM BR CLR 13/13 A2987 RMK SLP123 DENSITY ALT 1300FT

2010/08/10 08:53
PABI 100853Z AUTO 19011G16KT 10SM 16/06 A2968

2010/08/10 08:55
PACZ 100855Z AUTO 20008KT 10SM BKN008 BKN011 OVC022 09/08 A2931

2010/08/10 08:56
PADK 100856Z 23010KT 10SM FEW080 OVC100 09/07 A2990

2010/08/10 08:53
PADQ 100853Z 19007KT 10SM FEW025 BKN200 12/08 A2978

2010/08/10 08:55
PAEH 100855Z AUTO 17018G31KT 1 3/4SM OVC004 08/07

2010/08/10 08:58
PAGA 100858Z AUTO 12008KT 10SM BKN038 BKN049 OVC090 14/10 A2957

2010/08/10 08:55
PAIM 100855Z AUTO 00000KT 10SM BKN048 OVC060 12/12 A2963

2010/08/10 08:55
PALU 100855Z AUTO 08016KT 7SM 08/08 A2960

2010/08/10 08:55
PASV 100855Z AUTO 22004KT 10SM SCT020 SCT055 OVC095 09/08 A2963

2010/08/10 08:56
PASY 100856Z AUTO 27009KT 1SM BR VV001 09/09 A2989

2010/08/10 08:55
PATC 100855Z AUTO 02008KT 7SM BKN024 OVC029 11/10 A2944

2010/08/10 08:55
PATL 100855Z AUTO 16004KT 10SM BKN017 OVC024 11/09 A2960

2010/08/10 09:00
SBJP 100900Z 20006KT 9999 BKN020 BKN070 23/21 Q1017

2010/08/10 09:00
SBRP 100900Z 13007KT CAVOK 15/12 Q1021

2010/08/10 08:50
MUCM 100850Z 03004KT 350V070 9000 FEW025 BKN300 24/22 Q1014

2010/08/10 08:55
MUCU 100855Z 00000KT 9000 SCT020 26/24 Q1014

2010/08/10 08:51
MUVR 100851Z 17005KT 130V240 9000 FEW018 OVC070 22/21 Q1013

2010/08/10 08:59
MYEG 100859Z AUTO 10003KT 10SM SCT025 SCT031 26/24 A2995 RMK AO2

2010/08/10 09:00
MYNN 100900Z 19004KT 9999 SCT020 OVC080 25/24 A2993

2010/08/10 09:00
MDPC 100900Z 00000KT 9999 -TS FEW018CB SCT018 26/24 Q1011 CB/NE/E/N

2010/08/10 09:00
MDPP 100900Z 00000KT 9999 FEW016 25/24 Q1013

2010/08/10 09:00
MDSD 100900Z VRB03KT 9999 +TS FEW016CB SCT018 24/22 Q1012 CB/NE/E/SE/N

2010/08/10 09:00
MDST 100900Z 00000KT 9999 FEW016 23/23 Q1012

2010/08/10 09:00
TAPA 100900Z 09009KT 9999 RESH FEW017 26/24 Q1013

2010/08/10 08:53
TIST 100853Z AUTO 10010KT 10SM FEW060 28/24 A2992 RMK AO2 SLP131 T02830244 56005 TSNO

2010/08/10 08:53
TISX 100853Z AUTO 08006KT 10SM CLR 26/23 A2992 RMK AO2 SLP132 60001 T02610233 55004 TSNO

2010/08/10 08:50
TJPS 100850Z 31005KT 08SM SCT030 BKN060 26/26 A2992

2010/08/10 08:56
TJSJ 100856Z 13003KT 10SM SCT028 26/24 A2993 RMK AO2 SLP132 OCNL LTGIC DSNT N-SW CB DSNT N-SW 60000 T02610239 55007 $

2010/08/10 09:00
TFFF 100900Z AUTO 07002KT 9999NDV NCD 25/24 Q1013

2010/08/10 09:00
TFFR 100900Z 13003KT 9999 SCT020 SCT050 25/24 Q1013 TEMPO 4000 SHRA

2010/08/10 09:00
TTCP 100900Z 16005KT 9999 FEW016 SCT300 27/23 Q1013 NOSIG

2010/08/10 09:00
TTPP 100900Z 00000KT 9999 FEW016 BKN280 24/23 Q1013 NOSIG

2010/08/10 09:00
MHLM 100900Z 00000KT 9999 SCT026 26/26 Q1010 A2983 NOSIG

2010/08/10 09:00
MHTG 100900Z 22002KT 9999 FEW026 18/18 Q1017 A3003 NOSIG

2010/08/10 09:00
MPTO 100900Z 00000KT 9999 SCT018CB 27/25 Q1010 NOSIG

2010/08/10 09:00
MROC 100900Z 00000KT 9999 4500WSW BR VCBCFG SCT001 BKN020 21/21 A2999 RMK VIS QUAD N 5000 NOSIG

2010/08/10 09:00
MZBZ 100900Z 00000KT 9999 CAVOK 28/26 A2983 NOSIG

2010/08/10 09:00
MZBZ 100900Z 00000KT CAVOK 28/26 A2983 Q1010 NOSIG

2010/08/10 08:50
MUCM 100850Z 03004KT 350V070 9000 FEW025 BKN300 24/22 Q1014

2010/08/10 08:55
MUCU 100855Z 00000KT 9000 SCT020 26/24 Q1014

2010/08/10 08:56
MUGM 100856Z 33004KT 9999 FEW025 SCT250 26/23 A2991 RMKS SLP128 T02560233 57009

2010/08/10 08:51
MUVR 100851Z 17005KT 130V240 9000 FEW018 OVC070 22/21 Q1013

2010/08/10 09:00
MGGT 100900Z 36006KT 9999 SCT016 18/16 Q1023 A3021 VOL/ PACAYA EN ACTI VIDAD NOSIG

2010/08/10 09:00
MGGT 100900Z 36006KT 9999 SCT016 18/16 Q1023 A3021 VOL. PACAYA EN ACTI VIDAD NOSIG

2010/08/10 09:00
MGGT 100900Z 36006KT 9999 SCT016 18/16 Q1023 A3021 VOL. PACAYA EN ACTIVIDAD NOSIG

2010/08/10 09:00
RCKH 100900Z 21005KT 170V250 9999 FEW012 SCT070 BKN250 29/27 Q1007 NOSIG

2010/08/10 09:00
RCSS 100900Z 10008KT 9999 FEW025 SCT040 32/25 Q1005 NOSIG

2010/08/10 09:00
RCTP 100900Z 24014KT 9999 FEW025 BKN220 33/25 Q1005 NOSIG

2010/08/10 08:53
TIST 100853Z AUTO 10010KT 10SM FEW060 28/24 A2992

2010/08/10 08:53
TISX 100853Z AUTO 08006KT 10SM CLR 26/23 A2992

2010/08/10 08:50
TJPS 100850Z 31005KT 08SM SCT030 BKN060 26/26 A2992

2010/08/10 08:56
TJSJ 100856Z 13003KT 10SM SCT028 26/24 A2993

2010/08/10 09:00
ZBAA 100900Z 15005MPS 4000 HZ NSC 30/21 Q1005 NOSIG

2010/08/10 09:00
ZBTJ 100900Z 15005MPS 8000 NSC 29/21 Q1005 NOSIG

2010/08/10 09:00
ZBYN 100900Z 09006MPS 8000 SCT040 24/18 Q1009 NOSIG

2010/08/10 09:00
ZGGG 100900Z 16004MPS 130V190 9999 FEW040 36/22 Q1003 NOSIG

2010/08/10 09:00
ZGNN 100900Z 16006G11MPS 120V190 5000 SHRA FEW020 FEW030CB SCT040 30/25 Q1003 TEMPO VRB12G17MPS 3000 TSRA SCT020 FEW026CB

2010/08/10 09:00
ZGSZ 100900Z 19007MPS 9999 FEW022 32/24 Q1005 NOSIG

2010/08/10 09:00
ZHHH 100900Z 21004MPS 4000 TS BR SCT025 SCT040CB 31/29 Q1002 BECMG TL1000 NSW

2010/08/10 09:00
ZLLL 100900Z 09006MPS 9999 FEW026 FEW040CB 28/15 Q1010 NOSIG

2010/08/10 09:00
ZMUB 100900Z 36002MPS 9999 FEW030CB SCT033 27/01 Q1004 NOSIG RMK QFE646.8 18

2010/08/10 09:00
ZPPP 100900Z 24004G09MPS 160V270 9999 -SHRA FEW026CB SCT026 28/17 Q1014 NOSIG

2010/08/10 09:00
ZSAM 100900Z 14006MPS CAVOK 32/24 Q1005 NOSIG

2010/08/10 09:00
ZSHC 100900Z 02004MPS 9999 FEW020 34/24 Q1002 NOSIG

2010/08/10 09:00
ZSNJ 100900Z 04001MPS 7000 SCT030 35/22 Q1003 NOSIG

2010/08/10 09:00
ZSOF 100900Z 16002MPS 9999 SCT030 34/25 Q1002 NOSIG

2010/08/10 09:00
ZSPD 100900Z 34007MPS 9999 FEW030 31/24 Q1002 NOSIG

2010/08/10 09:00
ZSSS 100900Z 01006MPS 9999 FEW030 32/25 Q1002 NOSIG

2010/08/10 09:00
ZUCK 100900Z VRB02MPS CAVOK 38/22 Q1000 NOSIG

2010/08/10 09:00
ZUUU 100900Z 21003MPS 180V240 9999 SCT030 35/24 Q1001 NOSIG

2010/08/10 09:00
ZWWW 100900Z 36004MPS 320V050 CAVOK 31/07 Q1004 NOSIG

2010/08/10 09:00
ZYHB 100900Z 23005MPS CAVOK 24/13 Q1005 NOSIG

2010/08/10 09:00
ZYTL 100900Z 01002MPS 320V060 CAVOK 26/22 Q1006 NOSIG

2010/08/10 09:00
UGTB 100900Z 28004KT 9999 SCT050 BKN100 33/13 Q1015 NOSIG RMK 31CLRD80

2010/08/10 09:00
UGKO 100900Z 27004KT 9999 BKN100 35/22 Q1009 NOSIG

2010/08/10 09:00
EPGD 100900Z 06003KT 360V120 CAVOK 20/15 Q1018

2010/08/10 09:00
EPKK 100900Z 20004KT 160V270 9999 FEW015 22/18 Q1018

2010/08/10 09:00
EPKT 100900Z 27005KT 230V310 9999 SCT017 21/16 Q1018

2010/08/10 09:00
EPPO 100900Z 28003KT 210V360 CAVOK 21/17 Q1017

2010/08/10 09:00
EPRZ 100900Z 25006KT 220V300 9999 SCT017 22/18 Q1017

2010/08/10 09:00
EPWA 100900Z 19005KT 140V250 9999 FEW026 23/16 Q1017 NOSIG

2010/08/10 09:00
UKBB 100900Z 01004MPS 9999 FEW033CB 28/20 Q1015 88CLRD95 NOSIG

2010/08/10 09:00
UKKK 100900Z 06002MPS 020V100 7000 NSC 29/19 Q1015 26CLRD70 NOSIG

2010/08/10 09:00
UKLL 100900Z VRB02MPS 9999 BKN026 20/16 Q1018 31110360 NOSIG

2010/08/10 09:00
UKOO 100900Z 06006MPS CAVOK 35/15 Q1011 34090070 NOSIG

2010/08/10 08:53
PHJR 100853Z AUTO 07005KT 10SM CLR 25/17 A3011

2010/08/10 08:53
PHKO 100853Z AUTO 09005KT 10SM CLR 23/17 A3005

2010/08/10 08:53
PHLI 100853Z AUTO 05013KT 10SM FEW024 OVC065 25/19 A3014

2010/08/10 08:53
PHNL 100853Z 06010G19KT 10SM FEW042 26/18 A3010

2010/08/10 08:54
PHOG 100854Z 04010KT 10SM OVC050 26/18 A3011

2010/08/10 08:53
PHTO 100853Z AUTO 24003KT 10SM FEW031 SCT065 23/19 A3012

2010/08/10 09:00
LBBG 100900Z 35006MPS 310V010 CAVOK 30/21 Q1011 NOSIG

2010/08/10 09:00
LBPD 100900Z 29006MPS 250V320 CAVOK 29/19 Q1013 NOSIG

2010/08/10 09:00
LBSF 100900Z VRB01MPS CAVOK 26/17 Q1016 NOSIG

2010/08/10 09:00
LBWN 100900Z 32004MPS 270V010 CAVOK 29/22 Q1011 WS RWY09 NOSIG

2010/08/10 09:00
LHBP 100900Z VRB05KT 9999 FEW035 24/16 Q1018 NOSIG

2010/08/10 09:00
LRBS 100900Z 33004KT 270V040 CAVOK 29/20 Q1014 NOSIG

2010/08/10 09:00
LRCK 100900Z 28006KT 230V340 CAVOK 32/20 Q1012 NOSIG

2010/08/10 09:00
LROP 100900Z 02004KT 310V100 CAVOK 30/18 Q1014 880///95 NOSIG

2010/08/10 09:00
LRTR 100900Z 34005KT 300V020 9999 FEW030 26/16 Q1017 NOSIG

2010/08/10 09:00
LATI 100900Z 00000KT 9999 SCT150 31/22 Q1012 NOSIG

2010/08/10 09:00
LDDU 100900Z 19005KT 140V250 CAVOK 28/12 Q1014 NOSIG

2010/08/10 09:00
LDOS 100900Z VRB03KT CAVOK 25/16 Q1018

2010/08/10 09:00
LDPL 100900Z VRB03KT CAVOK 28/16 Q1015 NOSIG

2010/08/10 09:00
LDRI 100900Z 26004KT 190V300 CAVOK 28/17 Q1015

2010/08/10 09:00
LDSP 100900Z 13004KT 030V330 CAVOK 30/12 Q1014 NOSIG

2010/08/10 09:00
LDZA 100900Z VRB03KT 9999 FEW030 25/17 Q1017 NOSIG

2010/08/10 09:00
LDZD 100900Z VRB03KT CAVOK 30/12 Q1014 NOSIG

2010/08/10 09:00
LKMT 100900Z VRB01KT 9999 FEW026 22/16 Q1018 NOSIG

2010/08/10 09:00
LKPR 100900Z 11003KT 010V180 9999 SCT025 22/14 Q1018 NOSIG

2010/08/10 09:00
LKTB 100900Z VRB02KT 9999 FEW032 23/16 Q1018 NOSIG

2010/08/10 09:00
LQSA 100900Z VRB02KT 9999 FEW040 22/15 Q1019 NOSIG

2010/08/10 09:00
LWOH 100900Z 33003KT 9999 FEW050 26/13 Q1017

2010/08/10 09:00
LWSK 100900Z 33007G19KT 9999 FEW050 27/13 Q1016 NOSIG

2010/08/10 09:00
LYBE 100900Z 36005KT 310V040 CAVOK 25/15 Q1018 NOSIG

2010/08/10 09:00
LYNI 100900Z 33006KT 270V360 9999 FEW030 24/18 Q1017 NOSIG

2010/08/10 09:00
LYPG 100900Z 10003KT 9999 FEW040 30/10 Q1013 NOSIG

2010/08/10 09:00
LYTV 100900Z 22003KT CAVOK 30/14 Q1013 NOSIG

2010/08/10 09:00
LZIB 100900Z 00000KT 9999 FEW026 23/16 Q1018

2010/08/10 09:00
LZKZ 100900Z 35004KT 300V040 CAVOK 24/14 Q1018 NOSIG

2010/08/10 09:00
LZTT 100900Z VRB03KT 9999 SCT031 21/13 Q1019 NOSIG

2010/08/10 09:00
LPFR 100900Z 26004KT 220V280 CAVOK 30/19 Q1016

2010/08/10 09:00
LPPR 100900Z 00000KT CAVOK 28/17 Q1017

2010/08/10 09:00
LPPS 100900Z 34004KT 310V010 9000 SCT011 BKN030 22/20 Q1017

2010/08/10 09:00
LPPT 100900Z VRB02KT CAVOK 33/14 Q1017 NOSIG

2010/08/10 08:54
PGSN 100854Z 06005KT 10SM FEW020 27/24 A2993

2010/08/10 08:55
PGUA 100855Z AUTO 09009KT 10SM -RA SCT019 SCT025 BKN034 BKN048 OVC055 27/24 A2993

2010/08/10 08:54
PGUM 100854Z 07007KT 10SM FEW020 SCT110 28/23 A2992

2010/08/10 09:00
PKWA 100900Z AUTO 07017KT 10SM SCT018 SCT022 28/24 A2989

2010/08/10 08:55
PWAK 100855Z 07014KT 8SM FEW021 28/24 A3004

2010/08/10 09:00
LFBH 100900Z AUTO 17005KT 140V200 9999NDV FEW020 BKN030 20/15 Q1018

2010/08/10 09:00
LFBI 100900Z 20005KT 160V250 9999 BKN007 16/14 Q1018 BECMG BKN007

2010/08/10 09:00
LFBO 100900Z 34004KT 290V040 9999 FEW025 SCT250 22/14 Q1019 NOSIG

2010/08/10 09:00
LFBP 100900Z 06004KT 360V130 9999 SCT020 20/15 Q1019 NOSIG

2010/08/10 09:00
LFBT 100900Z VRB02KT 9999 SCT016 SCT020 19/15 Q1019 TEMPO BKN008

2010/08/10 09:00
LFBZ 100900Z 08007KT 050V120 9999 FEW020 SCT230 22/16 Q1018 NOSIG

2010/08/10 09:00
LFGJ 100900Z AUTO 21004KT 130V290 9999NDV NSC 23/16 Q1017

2010/08/10 09:00
LFKB 100900Z 12004KT 070V150 9999 FEW030 SCT036 28/19 Q1016 NOSIG

2010/08/10 09:00
LFKC 100900Z 36006KT 290V060 9999 FEW016 27/17 Q1016 NOSIG

2010/08/10 09:00
LFKJ 100900Z 24006KT 9999 FEW066 26/19 Q1016 NOSIG

2010/08/10 09:00
LFLB 100900Z VRB02KT 9999 SCT080 24/15 Q1017 NOSIG

2010/08/10 09:00
LFLC 100900Z VRB02KT 9999 FEW033 BKN250 23/16 Q1018 NOSIG

2010/08/10 09:00
LFLL 100900Z 02006KT 330V050 CAVOK 24/15 Q1017 NOSIG

2010/08/10 09:00
LFLS 100900Z 36005KT 290V030 9999 FEW040 SCT250 24/15 Q1017 NOSIG

2010/08/10 09:00
LFLY 100900Z 04005KT 360V080 CAVOK 25/15 Q1017 NOSIG

2010/08/10 09:00
LFMD 100900Z AUTO 15006KT 110V190 9999NDV FEW034 26/21 Q1016

2010/08/10 09:00
LFMH 100900Z 26004KT 200V340 9999 FEW043 BKN250 22/13 Q1018 NOSIG

2010/08/10 09:00
LFML 100900Z 30003KT CAVOK 26/19 Q1016 NOSIG

2010/08/10 09:00
LFMN 100900Z 13006KT 9999 FEW020 26/20 Q1016 NOSIG

2010/08/10 09:00
LFMP 100900Z 31005KT 210V010 9999 FEW080 26/15 Q1017 NOSIG

2010/08/10 09:00
LFMT 100900Z 16004KT 120V180 CAVOK 27/15 Q1016 BECMG 20012KT

2010/08/10 09:00
LFOB 100900Z 22011KT CAVOK 21/12 Q1015 NOSIG

2010/08/10 09:00
LFOH 100900Z AUTO 20011KT 8000NDV -RA SCT012 BKN017 BKN022 16/15 Q1014

2010/08/10 09:00
LFOT 100900Z AUTO 23008KT 210V270 9999NDV FEW011 BKN160 BKN200 18/14 Q1017

2010/08/10 09:00
LFPB 100900Z VRB02KT CAVOK 21/13 Q1015 NOSIG

2010/08/10 09:00
LFPG 100900Z 20004KT 170V230 CAVOK 20/12 Q1016 NOSIG

2010/08/10 09:00
LFPN 100900Z 22008KT CAVOK 21/13 Q1016 NOSIG

2010/08/10 09:00
LFPO 100900Z 19005KT 160V230 CAVOK 21/13 Q1016 NOSIG

2010/08/10 09:00
LFQQ 100900Z 21010KT 9999 FEW017 BKN150 19/14 Q1013 NOSIG

2010/08/10 09:00
LFRB 100900Z 24015KT 9999 BKN006 BKN016 18/18 Q1014 RERA NOSIG

2010/08/10 09:00
LFRC 100900Z AUTO 24012KT 3400NDV -DZ BR BKN006 OVC016 16/16 Q1013

2010/08/10 09:00
LFRD 100900Z AUTO 23009KT 4200NDV -RA BR BKN006 BKN014 BKN029 18/17 Q1015

2010/08/10 09:00
LFRK 100900Z 19012KT 9999 -RA SCT023 BKN040 18/17 Q1014 NOSIG

2010/08/10 09:00
LFRN 100900Z AUTO 21010KT 9999NDV BKN013 OVC018 19/17 Q1016

2010/08/10 09:00
LFRO 100900Z AUTO 23009KT 9999NDV BKN008 BKN016 OVC050 18/18 Q1014

2010/08/10 09:00
LFRQ 100900Z 24010KT 200V280 9999 BKN005 BKN009 18/18 Q1015 NOSIG

2010/08/10 09:00
LFRS 100900Z 23007KT 190V270 9999 -RA FEW014 BKN020 20/17 Q1017 NOSIG

2010/08/10 09:00
LFRT 100900Z 25007KT 200V280 4000 -DZ BR SCT005 OVC013 18/18 Q1015

2010/08/10 09:00
LFRZ 100900Z AUTO 22008KT 9999NDV -RA SCT014 BKN020 OVC026 19/17 Q1017

2010/08/10 09:00
LFSB 100900Z VRB02KT 9999 FEW040 24/13 Q1017 NOSIG

2010/08/10 09:00
LFSF 100900Z AUTO 13004KT 060V180 9999NDV NSC 25/13 Q1016

2010/08/10 09:00
LFSN 100900Z 13003KT 050V220 CAVOK 25/13 Q1017 NOSIG

2010/08/10 09:00
LFSR 100900Z AUTO VRB02KT 9999NDV NSC 22/13 Q1015

2010/08/10 09:00
LFST 100900Z 17005KT 120V220 9999 FEW058 22/15 Q1017 NOSIG

2010/08/10 09:00
LFTW 100900Z AUTO VRB03KT 9999NDV NSC 27/15 Q1016

2010/08/10 09:00
LFBA 100900Z 00000KT 9999 SCT026 SCT250 21/14 Q1019 NOSIG

2010/08/10 09:00
LFBC 100900Z AUTO 12005KT 070V210 9999NDV BKN025 21/13 Q1019

2010/08/10 09:00
LFBL 100900Z 26004KT 200V300 9999 FEW021 SCT026 BKN300 17/12 Q1019 NOSIG

2010/08/10 09:00
LFKF 100900Z 24004KT 180V290 9999 FEW036 28/16 Q1016 NOSIG

2010/08/10 09:00
LFLD 100900Z 26006KT 220V300 CAVOK 22/12 Q1018

2010/08/10 09:00
LFLV 100900Z VRB03KT 9999 FEW033 BKN250 23/15 Q1018

2010/08/10 09:00
LFOE 100900Z AUTO 20014KT 9999NDV NSC 20/13 Q1015

2010/08/10 09:00
LFOP 100900Z 17007KT CAVOK 18/13 Q1015 BECMG 8000 -RA BKN030 OVC090

2010/08/10 09:00
LFPB 100900Z VRB02KT CAVOK 21/13 Q1015 NOSIG

2010/08/10 09:00
LFPG 100900Z 20004KT 170V230 CAVOK 20/12 Q1016 NOSIG

2010/08/10 09:00
LFPV 100900Z AUTO 22005KT 170V250 9999NDV NSC 20/13 Q1016

2010/08/10 09:00
LFQB 100900Z 24005KT 200V290 CAVOK 25/12 Q1015

2010/08/10 09:00
LFQQ 100900Z 21010KT 9999 FEW017 BKN150 19/14 Q1013 NOSIG

2010/08/10 09:00
LFRH 100900Z 24012KT 5000 BKN004 BKN008 18/18 Q1016

2010/08/10 09:00
LFRM 100900Z 21004KT 180V250 9999 -RA FEW013 OVC100 17/14 Q1017

2010/08/10 09:00
LFSD 100900Z AUTO VRB03KT 9999NDV NSC 22/15 Q1017

2010/08/10 09:00
LFSI 100900Z AUTO 22007KT 9999NDV NSC 24/13 Q1016

2010/08/10 09:00
LFSL 100900Z AUTO VRB03KT 9999NDV FEW025 20/12 Q1019

2010/08/10 09:00
LFSO 100900Z 23006KT 200V260 CAVOK 25/12 Q1017

2010/08/10 09:00
LFSX 100900Z AUTO VRB02KT 9999NDV NSC 23/14 Q1017

2010/08/10 09:00
LFTH 100900Z 13004KT 070V200 9999 FEW026 27/20 Q1016 NOSIG

2010/08/10 09:00
EICK 100900Z 31012KT 9999 FEW025 15/09 Q1009 NOSIG

2010/08/10 09:00
EIDW 100900Z 25013KT 9999 FEW012 SCT018 BKN036 15/11 Q1007 NOSIG

2010/08/10 09:00
EIKN 100900Z 30011KT 270V330 9999 FEW015 SCT021 13/10 Q1007 NOSIG

2010/08/10 09:00
EINN 100900Z 25012KT 9999 FEW020 BKN042 16/12 Q1009 NOSIG

2010/08/10 08:55
FJDG 100855Z 14014G20KT 9000 -SHRA FEW020 BKN040 BKN080 26/26 A2981 RMK SLP091 8/870 T02620258 57014

2010/08/10 09:00
FMMI 100900Z 11006KT 020V180 9999 SCT023 23/10 Q1025 NOSIG

2010/08/10 08:55
KQAE 100855Z 02007KT 8000 DU HZ CLR 47/07 A2961 RMK SLP021 50002

2010/08/10 08:55
KQMG 100855Z AUTO 18012KT 10SM CLR 24/15 A3005 RMK AO2 SLP093 T02390146 54000

2010/08/10 08:55
KQTO 100855Z 29010KT 9999 CLR 46/08 A2958 RMK SLP014 58002

2010/08/10 08:55
KQTU 100855Z 29006KT 9000 HZ CLR 43/04 A2967 RMK SLP025 58002

2010/08/10 08:55
KQTX 100855Z 32007G14KT 9000 HZ FEW080 44/03 A2966 RMK SLP009 51001

2010/08/10 08:55
KQTZ 100855Z 34009G15KT 9000 HZ CLR 46/05 A2959 RMK SLP013 QNH1002MB WND DATA ESTMD ALTSG/SLP ESTMD T04570052 50002

2010/08/10 08:55
KQXJ 100855Z 36017G23KT 9999 SKC 49/01 A2951 RMK SLP999 57009 PA+401 DA+4216

2010/08/10 09:00
ORBI 100900Z 01008KT CAVOK 45/07 Q1002

2010/08/10 08:55
ORER 100855Z 26004KT CAVOK 44/04 Q1005 NOSIG

2010/08/10 08:55
KQAJ 100855Z 04004G13KT 9999 CLR 43/06 A2968 RMK SLP031 WND DATA ESTMD ALSTG/SLP ESTMD 58005

2010/08/10 08:55
KQAQ 100855Z COR 34008KT 8000 HZ CLR 45/07 A2961 RMK SLP023 PA +407 DA +3902 50002

2010/08/10 08:55
KQAQ 100855Z 34008KT 8000 HZ 45/07 A2961 RMK SLP023 PA +407 DA +3902 50002

2010/08/10 08:55
KQPD 100855Z AUTO 23010G17KT 9000 37/00 A2967 RMK AO2 SLP955 T03710000 57010 $

2010/08/10 08:55
KQSL 100855Z 35003KT 9999 CLR 45/03 A2964 RMK SLP025 Q1003MB 58005

2010/08/10 08:55
KQTI 100855Z AUTO 29007KT 9999 43/03 A2970 RMK AO2 SLP029 T04250034 54000 $

2010/08/10 08:52
PGRO 100852Z 09009KT 7SM SCT020CB BKN080 25/23 A2994

2010/08/10 08:54
PGSN 100854Z 06005KT 10SM FEW020 27/24 A2993

2010/08/10 08:54
PGUM 100854Z 07007KT 10SM FEW020 SCT110 28/23 A2992

2010/08/10 08:50
PGWT 100850Z 06002KT 7SM SCT015CB BKN100 27/25 A2992

2010/08/10 08:50
PKMR 100850Z 08010KT 15SM SCT015 BKN050 OVC120 26/23 A2987

2010/08/10 09:00
PKWA 100900Z AUTO 07017KT 10SM SCT018 SCT022 28/24 A2989

2010/08/10 08:52
PTKK 100852Z VRB03KT 15SM FEW014CB SCT120 OVC280 28/24 A2986

2010/08/10 08:57
PTRO 100857Z 16006KT 15SM SCT016CB BKN120 BKN300 29/24 A2988

2010/08/10 08:58
PTTP 100858Z 13003KT 15SM BKN018 OVC300 26/25 A2990

2010/08/10 08:51
PTYA 100851Z 18009KT 12SM FEW016 FEW140 BKN300 29/24 A2986

2010/08/10 08:55
PWAK 100855Z 07014KT 8SM FEW021 28/24 A3004

2010/08/10 09:00
RJAA 100900Z 17009KT 9999 FEW025 SCT120 BKN/// 27/23 Q1014 NOSIG

2010/08/10 09:00
RJAH 100900Z 20006KT 9999 FEW020 BKN025 BKN350 28/25 Q1013

2010/08/10 09:00
RJCC 100900Z 16010KT 1800 -DZ BR FEW001 BKN002 BKN003 22/20 Q1013

2010/08/10 09:00
RJCH 100900Z 14005KT 9999 FEW003 24/23 Q1013

2010/08/10 09:00
RJFK 100900Z 14012KT 9999 FEW005 SCT025 BKN035 27/24 Q1011

2010/08/10 09:00
RJFT 100900Z 14007KT 100V180 9999 FEW015 SCT060 BKN/// 30/21 Q1009

2010/08/10 09:00
RJFU 100900Z 14020KT 9999 -SHRA FEW015 SCT025 BKN040 28/25 Q1007

2010/08/10 09:00
RJOO 100900Z VRB03KT 9999 -SHRA FEW008 SCT025 FEW025CB BKN040 29/22 Q1013

2010/08/10 09:00
RJSS 100900Z 16007KT 9999 FEW015 BKN/// 27/24 Q1012

2010/08/10 09:00
RJTT 100900Z 19013KT 9999 FEW015 BKN/// 29/23 Q1014

2010/08/10 08:55
RODN 100855Z 20005KT 9999 SCT016 SCT140 29/26 A2980 RMK AO2A RAE0811B0830E0849DZB0849E0852 SLP091 P0000 60000 T02850264 56004

2010/08/10 09:00
RJDT 100900Z 17021G38KT 130V210 3500 +SHRA FEW010 SCT015 BKN025 27/24 Q1007

2010/08/10 09:00
RJEC 100900Z 32005KT 9999 FEW025 27/23 Q1013

2010/08/10 09:00
RJFG 100900Z 14013KT 9999 FEW004 BKN005 26/26 Q1012

2010/08/10 09:00
RJFM 100900Z 15010KT 9999 FEW012 SCT020 BKN/// 28/25 Q1011

2010/08/10 09:00
RJFO 100900Z 14016KT 9999 FEW015 BKN060 BKN180 26/25 Q1010

2010/08/10 09:00
RJFR 100900Z 11024KT 9999 FEW025 BKN150 BKN/// 29/24 Q1008

2010/08/10 09:00
RJKA 100900Z 17015KT 9999 FEW015 SCT150 BKN/// 29/26 Q1009

2010/08/10 09:00
RJAW 100900Z 13005KT 9999 FEW015 27/24 Q1013 RMK 1CU015 A2994

2010/08/10 09:00
RJBD 100900Z 15007KT 9999 FEW008 BKN100 BKN/// 28/25 Q1014

2010/08/10 09:00
RJCB 100900Z 12005KT 9999 FEW015 BKN/// 25/22 Q1013

2010/08/10 09:00
RJCK 100900Z 20003KT 1600 BR SCT001 BKN002 BKN/// 21/19 Q1014

2010/08/10 09:00
RJCM 100900Z 21004KT 180V250 9999 FEW015 SCT070 BKN/// 26/23 Q1012

2010/08/10 09:00
RJCN 100900Z 25005KT 9999 FEW015 BKN/// 25/22 Q1013

2010/08/10 09:00
RJCW 100900Z 22007KT 9999 FEW010 SCT040 BKN/// 25/22 Q1012

2010/08/10 09:00
RJDC 100900Z 11021KT 9999 FEW020 SCT100 BKN/// 28/24 Q1009

2010/08/10 09:00
RJNT 100900Z 17006KT 120V210 9999 -SHRA FEW005 SCT040 BKN080 26/25 Q1012

2010/08/10 09:00
RJOA 100900Z 15003KT 120V180 9999 FEW025 SCT045 BKN120 28/23 Q1014

2010/08/10 09:00
RJOB 100900Z 11007KT 9999 FEW025 SCT150 BKN/// 29/23 Q1013

2010/08/10 09:00
RJOC 100900Z 10003KT 9999 FEW025 SCT090 BKN/// 33/22 Q1010

2010/08/10 09:00
RJOI 100900Z 15009KT 9999 FEW025 SCT050 BKN100 31/23 A2988 RMK SLP118 T03110233 55003

2010/08/10 09:00
RJOK 100900Z 17005KT 140V210 9999 FEW020 BKN/// 29/25 Q1013

2010/08/10 09:00
RJOM 100900Z 32004KT 280V010 9999 FEW020 SCT/// 29/24 Q1011

2010/08/10 09:00
RJOR 100900Z 20005KT 9999 FEW025 FEW030TCU SCT110 BKN130 32/24 Q1011

2010/08/10 09:00
RJOT 100900Z VRB02KT 9999 FEW020CB SCT100 27/23 Q1013

2010/08/10 09:00
RJOY 100900Z 31008KT 9999 TS VCSH FEW010 FEW025CB SCT030 BKN100 30/23 Q1013

2010/08/10 09:00
RJSA 100900Z 36004KT 330V030 9999 FEW035 SCT110 BKN/// 26/23 Q1014

2010/08/10 09:00
RJSC 100900Z 08008KT 9999 VCSH FEW025 FEW040TCU SCT100 BKN/// 30/24 Q1012

2010/08/10 09:00
RJSI 100900Z 19008KT 9999 FEW030 BKN/// 30/23 Q1013

2010/08/10 09:00
RJTH 100900Z 21006KT 180V250 9999 FEW015 BKN180 27/25 Q1015

2010/08/10 08:55
RJTY 100855Z AUTO 18010KT 9999 FEW110 27/24 A3000 RMK AO2 SLP152 T02710236 55001 $

2010/08/10 09:00
RKNY 100900Z 16003KT 4500 -RA BR FEW015 BKN030 OVC100 25/22 Q1007 NOSIG

2010/08/10 09:00
RKPC 100900Z 13012KT 100V160 3500 RA BR FEW008 BKN025 OVC070 27/25 Q0995 WS ALL RWY NOSIG

2010/08/10 09:00
RKPK 100900Z 10012KT 9999 FEW030 BKN060 29/23 Q1006 NOSIG

2010/08/10 09:00
RKSI 100900Z 16013KT 8000 -RA FEW010 BKN025 BKN100 26/24 Q1006 TEMPO 4000 TSRA

2010/08/10 09:00
RKSS 100900Z 04008KT 020V120 6000 -TSRA FEW010CB BKN025 OVC080 25/23 Q1006 NOSIG RMK TS S MOV SW OCNL LTGICCC

2010/08/10 09:00
RKTN 100900Z 11005KT 9000 -RA BKN020 OVC030 29/24 Q1006 NOSIG

2010/08/10 09:00
RKTU 100900Z 06005KT 4000 -RA FEW012 BKN030 OVC060 26/25 Q1007 BECMG 2500

2010/08/10 09:00
LCLK 100900Z 18011KT 9999 FEW025 32/26 Q1006 NOSIG

2010/08/10 09:00
LCPH 100900Z 24007KT 200V280 8000 FEW020 31/26 Q1007

2010/08/10 09:03
CYKL 100903Z AUTO 33009KT 2SM DZ OVC004 OVC027 09/08 A2971

2010/08/10 08:50
BGBW 100850Z AUTO 06002KT 2100NDV BR SCT003/// BKN005/// 08/07 Q1009

2010/08/10 08:50
BGCO 100850Z 16004KT 9999 SCT180 07/00 Q1013

2010/08/10 08:50
BGGH 100850Z 21008KT 0200 RA FG VV002 08/08 Q1007

2010/08/10 08:50
BGJN 100850Z 18002KT 9999 BKN018 08/04 Q1008 RMK 7ST

2010/08/10 08:50
BGJN 100850Z AUTO 18002KT 9999NDV BKN018/// OVC024/// 08/04 Q1008

2010/08/10 08:50
BGKK 100850Z 07018KT 9999 -DZ SCT020 SCT035 BKN045 07/04 Q1013

2010/08/10 08:50
BGSF 100850Z 04007KT 9999 BKN023 08/04 Q1007

2010/08/10 08:55
BGTL 100855Z AUTO 00000KT 9999 CLR 04/03 A2980 RMK AO2 SLP096 T00360027 57005

2010/08/10 09:00
BIAR 100900Z 12001KT 9999 OVC011 10/08 Q1014

2010/08/10 09:00
BIEG 100900Z 01007KT 7000 BR OVC004 08/08 Q1014

2010/08/10 09:00
BIKF 100900Z 34012KT 9999 FEW016 BKN025 13/08 Q1014

2010/08/10 09:00
LPLA 100900Z 34005KT 300V360 9999 FEW020 BKN035 22/17 Q1022

2010/08/10 08:55
TXKF 100855Z 17008KT 9999 FEW015 FEW180 SCT300 27/23 Q1020 /

2010/08/10 08:55
TXKF 100855Z 17008KT 9999 FEW015 FEW180 SCT300 27/23 Q1020

2010/08/10 09:00
AYPY 100900Z 00000KT 9999 SCT040 BKN280 27/25 Q1010 RMKS/RESH

2010/08/10 09:00
AYPY 100900Z 00000KT 9999 SCT040 BKN280 27/25 Q1010 RMKS

2010/08/10 08:52
PGRO 100852Z 09009KT 7SM SCT020CB BKN080 25/23 A2994 RMK CB N AND SW MOV W

2010/08/10 08:54
PGSN 100854Z 06005KT 10SM FEW020 27/24 A2993 RMK AO2 SLP132 T02720244 53015

2010/08/10 08:55
PGUA 100855Z AUTO 09009KT 10SM -RA SCT019 SCT025 BKN034 BKN048 OVC055 27/24 A2993 RMK AO2 RAB0847 CIG 018 RWY24L SLP117 P0000 60000 T02660244 53017 $

2010/08/10 08:54
PGUM 100854Z 07007KT 10SM FEW020 SCT110 28/23 A2992 RMK AO2 TSE18 SLP125 CB DSNT W MOV NW T02780233 53012

2010/08/10 08:50
PGWT 100850Z 06002KT 7SM SCT015CB BKN100 27/25 A2992 RMK CB NE AND E MOV NW WIND DATA ESTIMATED

2010/08/10 08:53
PHJR 100853Z AUTO 07005KT 10SM CLR 25/17 A3011 RMK AO2 SLP204 T02500172 51012 TSNO

2010/08/10 08:54
PHMK 100854Z AUTO 04009G15KT 10SM CLR 23/18 A3012 RMK AO2 SLP198 60000 T02330178 51011 TSNO

2010/08/10 08:50
PKMR 100850Z 08010KT 15SM SCT015 BKN050 OVC120 26/23 A2987 RMK RAE20 SLP117 60011 8/87/ T02600231 52017

2010/08/10 09:00
PKWA 100900Z AUTO 07017KT 10SM SCT018 SCT022 28/24 A2989 RMK AO2 T02820235

2010/08/10 08:56
PMDY 100856Z AUTO 07010KT 10SM CLR 26/22 A3024 RMK AO2 TSNO 51014 60000 T02610216 SLP547

2010/08/10 08:52
PTKK 100852Z VRB03KT 15SM FEW014CB SCT120 OVC280 28/24 A2986 RMK CB DSNT SW-NW SLP113 8/371 T02780242 52019

2010/08/10 08:57
PTRO 100857Z 16006KT 15SM SCT016CB BKN120 BKN300 29/24 A2988 RMK CB VC SW-W

2010/08/10 08:58
PTTP 100858Z 13003KT 15SM BKN018 OVC300 26/25 A2990 RMK SLP123 8/101 T02610247 52022

2010/08/10 08:51
PTYA 100851Z 18009KT 12SM FEW016 FEW140 BKN300 29/24 A2986 RMK SLP112 8/171 T02880235 53010

2010/08/10 08:55
PWAK 100855Z 07014KT 8SM FEW021 28/24 A3004 RMK AO2A

2010/08/10 09:00
RPLB 100900Z 24016KT 6000 SCT018 OVC080 28/25 Q1009 DSTNT PCPN W

2010/08/10 09:00
RPLC 100900Z 18011KT 160V220 9000 VCSHRA FEW020CB FEW025 OVC100 29/24 Q1008 A2978 RMK DSTNT PCPN N

2010/08/10 09:00
RPLL 100900Z 25010KT 9000 SCT025 OVC300 29/25 Q1008 NOSIG RMK A2977

2010/08/10 09:00
RPMD 100900Z 14006KT 8000 -RA SCT015CB BKN090 OVC290 26/25 Q1009 RETS LIRA INT CB NE NW

2010/08/10 09:00
RPMZ 100900Z 27004KT 9999 FEW018 BKN120 30/25 Q1010

2010/08/10 09:00
RPVM 100900Z 00000KT 8000 -RASH FEW018CB OVC250 30/26 Q1009 A2982 LGT RASH CB NE

2010/08/10 09:00
LPFR 100900Z 26004KT 220V280 CAVOK 30/19 Q1016

2010/08/10 09:00
LPLA 100900Z 34005KT 300V360 9999 FEW020 BKN035 22/17 Q1022

2010/08/10 09:00
LPMA 100900Z 10003KT 050V140 9999 BKN016 23/18 Q1016 RS07001KT 0514002KT 2310002KT

2010/08/10 09:00
LPPR 100900Z 00000KT CAVOK 28/17 Q1017

2010/08/10 09:00
LPPS 100900Z 34004KT 310V010 9000 SCT011 BKN030 22/20 Q1017

2010/08/10 09:00
LPPT 100900Z VRB02KT CAVOK 33/14 Q1017 NOSIG

2010/08/10 09:00
UTST 100900Z 30006MPS CAVOK 37/05 Q1005 R88/CLRD70 NOSIG

2010/08/10 09:00
UBBB 100900Z 02006KT 9999 SCT060CB OVC100 31/30 Q1011 NOSIG RMK R88CLRD70

2010/08/10 09:00
UBBG 100900Z 08009KT 9999 FEW100 34/11 Q1011 NOSIG RMK R12L/CLRD70

2010/08/10 09:00
UTTT 100900Z 32003MPS 210V360 CAVOK 37/02 Q1008 R08R/CLRD70 NOSIG

2010/08/10 09:00
URMT 100900Z 10010G13MPS CAVOK 34/09 Q1012 NOSIG RMK QFE719 SC07

2010/08/10 09:00
SOCA 100900Z VRB01KT 9999 FEW020 BKN120 23/23 Q1013 NOSIG

2010/08/10 09:00
SPIM 100900Z 18003KT 8000 BKN015 14/13 Q1016 NOSIG RMK PP000

2010/08/10 09:00
SPQU 100900Z 05007KT CAVOK 07/M16 Q1026 RMK PP000

2010/08/10 09:00
SPSO 100900Z 07003KT 7000 SCT012 11/09 Q1016 RMK PP000

2010/08/10 09:00
SPTN 100900Z 00000KT CAVOK 07/04 Q1012 RMK PP000

2010/08/10 09:00
SPZO 100900Z 00000KT 9999 SKC 01/M06 Q1033 RMK PP000

2010/08/10 09:00
SVBC 100900Z 00000KT 9999 FEW010 25/21 Q1012

2010/08/10 09:00
SVMG 100900Z 00000KT 9999 FEW010 BKN080 27/25 Q1012 NOSIG

2010/08/10 09:00
SVMI 100900Z 00000KT 9999 FEW016 28/24 Q1011 NOSIG

2010/08/10 08:56
KABQ 100856Z 00000KT 10SM FEW110 22/08 A3014

2010/08/10 08:52
KATL 100852Z 00000KT 9SM FEW250 26/21 A3001

2010/08/10 08:53
KBGR 100853Z 00000KT 9SM FEW100 18/18 A2985

2010/08/10 08:53
KBHM 100853Z 00000KT 8SM CLR 27/23 A2999

2010/08/10 08:53
KBNA 100853Z 00000KT 8SM CLR 26/24 A2997

2010/08/10 08:54
KBOS 100854Z 20007KT 3SM BR FEW040 BKN110 OVC200 21/21 A2989

2010/08/10 08:54
KBWI 100854Z 23005KT 8SM FEW250 24/21 A2992

2010/08/10 08:56
KCHS 100856Z 14003KT 10SM FEW025 27/25 A3000

2010/08/10 08:51
KCLE 100851Z COR 25004KT 6SM BR FEW055 SCT250 23/21 A2996

2010/08/10 08:51
KCLE 100851Z 25004KT 6SM BR FEW250 23/21 A2996

2010/08/10 08:52
KCLT 100852Z 00000KT 8SM CLR 24/22 A3002

2010/08/10 08:52
KCVG 100852Z 00000KT 7SM BKN120 24/22 A2997

2010/08/10 08:53
KDEN 100853Z 26010KT 10SM SCT140 16/15 A3011

2010/08/10 08:53
KDFW 100853Z 20005KT 10SM CLR 29/20 A2988

2010/08/10 08:53
KDTW 100853Z 00000KT 4SM R04R/1800V2400FT OVC009 21/20 A2996

2010/08/10 08:51
KEWR 100851Z 25004KT 10SM FEW050 BKN150 OVC250 27/18 A2991

2010/08/10 08:53
KFLL 100853Z 14008KT 10SM BKN017 BKN100 26/24 A2986

2010/08/10 08:52
KIAD 100852Z 18004KT 6SM HZ CLR 24/21 A2994

2010/08/10 08:53
KIAH 100853Z 00000KT 10SM FEW250 26/24 A2991

2010/08/10 08:54
KIND 100854Z 25003KT 9SM OVC120 27/22 A2993

2010/08/10 08:56
KJAX 100856Z 03003KT 10SM CLR 24/23 A2994

2010/08/10 08:51
KJFK 100851Z 25006KT 9SM FEW060 BKN140 OVC250 25/20 A2992

2010/08/10 08:56
KLAS 100856Z 22007KT 10SM CLR 28/M04 A2982

2010/08/10 08:53
KLAX 100853Z 25004KT 10SM OVC007 16/13 A2991

2010/08/10 08:51
KLGA 100851Z 25005KT 10SM BKN140 OVC250 28/18 A2991

2010/08/10 08:53
KLIT 100853Z 00000KT 7SM FEW250 28/25 A2991

2010/08/10 08:53
KLOU 100853Z AUTO 00000KT 8SM CLR 26/23 A2995

2010/08/10 08:53
KMCI 100853Z 19007KT 10SM CLR 26/22 A2988

2010/08/10 08:53
KMCO 100853Z 10006KT 10SM FEW028 25/23 A2991

2010/08/10 08:53
KMEM 100853Z 14007KT 10SM CLR 28/24 A2993

2010/08/10 08:53
KMIA 100853Z 13004KT 10SM FEW020 BKN029 BKN070 OVC130 26/24 A2986

2010/08/10 08:53
KMSP 100853Z 10006KT 8SM CLR 24/22 A2993

2010/08/10 09:00
SCAR 100900Z 08005KT CAVOK 09/05 Q1015

2010/08/10 09:00
SCBA 100900Z AUTO 28004KT CAVOK M04/M05 Q1021

2010/08/10 09:00
SCCI 100900Z 30009KT 9999 FEW016 SCT100 04/01 Q1004 NOSIG

2010/08/10 09:00
SCFA 100900Z 33006KT 9999 OVC019 13/08 Q1016

2010/08/10 09:00
SCIE 100900Z 18003KT CAVOK 04/02 Q1016

2010/08/10 09:00
SCTE 100900Z 18007KT 9999 OVC006 7/06 Q1022 NOSIG

2010/08/10 09:00
SGAS 100900Z 19006KT CAVOK 11/07 Q1019

2010/08/10 09:00
SGES 100900Z 18006KT CAVOK 12/19 Q1020

2010/08/10 09:00
SLCB 100900Z 25003KT 8000 NSC 04/00 Q1025

2010/08/10 09:00
SLLP 100900Z 02005KT 9999 SKC M03/M21 Q1037

2010/08/10 09:00
SLVR 100900Z 18020KT 8000 NSC 16/06 Q1018

2010/08/10 09:00
SULS 100900Z 00000KT CAVOK 02/02 Q1027

2010/08/10 09:00
SUMU 100900Z 00000KT 1500 R24/0600 BR NSC 02/02 Q1027 BECMG FM 1000Z 3000 BR NSC

2010/08/10 09:00
SGES 100900Z 18006KT CAVOK 12/11 Q1020

2010/08/10 09:00
SCTC 100900Z VRB01KT 0100 FG VV/// M00/M01 Q1018

2010/08/10 09:00
SUDU 100900Z 00000KT CAVOK 02/01 Q1026

2010/08/10 09:00
OERY 100900Z 03009KT 8000 SKC 43/03 Q1006 NOSIG

2010/08/10 09:00
YAMB 100900Z AUTO 21005KT 3300NDV // SCT003 OVC007 18/18 Q1017

2010/08/10 09:00
YBCG 100900Z AUTO 04019KT 9999NDV // BKN026 BKN050 OVC067 20/18 Q1017

2010/08/10 09:00
YBHM 100900Z AUTO 08005KT //// // ////// 23/20 Q1015

2010/08/10 09:00
YBMA 100900Z AUTO 21008KT 9999NDV // NCD 19/M02 Q1018

2010/08/10 09:00
YBRK 100900Z 36007KT 9999 SCT030 OVC080 24/19 Q1015

2010/08/10 09:00
YBRM 100900Z 11008KT CAVOK 24/06 Q1014

2010/08/10 09:00
YCIN 100900Z AUTO 14009KT //// // ////// 25/M02 Q1015

2010/08/10 09:00
YFRT 100900Z AUTO 18007KT //// // ////// 13/04 Q1025

2010/08/10 09:00
YMAV 100900Z AUTO 15004KT 9999NDV // SCT120 08/08 Q1008

2010/08/10 09:00
YMHB 100900Z 16006KT 9999 FEW020 BKN055 11/09 Q1021

2010/08/10 09:00
YMLT 100900Z AUTO 16015KT 9999NDV // SCT045 OVC055 10/08 Q1017

2010/08/10 09:00
YPEA 100900Z 02010KT CAVOK 20/M03 Q1018 NOSIG

2010/08/10 09:00
YPGV 100900Z 16010KT 9999 FEW018 BKN140 26/23 Q1012

2010/08/10 09:00
YPKG 100900Z AUTO 05006KT 9999NDV // NCD 15/M03 Q1024

2010/08/10 09:00
YPPD 100900Z AUTO 11012KT 9999NDV // NCD 24/M08 Q1017

2010/08/10 09:00
YSCB 100900Z 04011KT 9999 9000S VCSH SCT035 BKN060 12/09 Q1010

2010/08/10 09:03
YSDU 100903Z AUTO 35013KT 9999NDV // ////// 14/13 Q1011

2010/08/10 09:00
YSNF 100900Z 15008KT 9999 BKN038 14/06 Q1030

2010/08/10 09:05
YSRI 100905Z AUTO 00000KT 3100NDV // SCT006 BKN013 OVC018 12/12 Q1012

2010/08/10 09:00
YWLM 100900Z 03007KT CAVOK 16/15 Q1013 INTER 0900/1000 4000 RA BKN010 FM0900 MOD TURB BLW 5000FT

2010/08/10 09:05
YSRI 100905Z AUTO 00000KT 3100NDV // SCT006 BKN013 OVC018 12/12 Q1012

2010/08/10 08:53
KMSY 100853Z 26004KT 8SM FEW250 25/24 A2992

2010/08/10 08:53
KOAK 100853Z 03003KT 10SM OVC006 14/11 A2991

2010/08/10 08:52
KOKC 100852Z 17005KT 10SM CLR 25/21 A2991

2010/08/10 08:53
KONT 100853Z 29005KT 10SM CLR 16/12 A2990

2010/08/10 08:51
KORD 100851Z 00000KT 10SM BKN200 25/23 A2992

2010/08/10 08:51
KORF 100851Z 22007KT 10SM CLR 25/23 A2997

2010/08/10 08:53
KPBI 100853Z 15007KT 10SM SCT023CB BKN060 BKN130 27/23 A2987

2010/08/10 08:54
KPHF 100854Z 26004KT 10SM CLR 25/24 A2997

2010/08/10 08:54
KPHL 100854Z 20005KT 10SM SCT150 BKN200 26/21 A2992

2010/08/10 08:51
KPHX 100851Z 00000KT 10SM FEW120 33/11 A2980

2010/08/10 08:51
KPIT 100851Z 00000KT 7SM BKN050 OVC100 22/18 A2998

2010/08/10 08:51
KRDU 100851Z 23003KT 8SM FEW150 SCT250 24/22 A3001

2010/08/10 08:51
KSAN 100851Z 00000KT 10SM OVC015 18/14 A2992

2010/08/10 08:53
KSEA 100853Z 19006KT 10SM OVC012 13/12 A2996

2010/08/10 08:56
KSFO 100856Z 28003KT 10SM FEW003 OVC010 13/10 A2990

2010/08/10 08:51
KSTL 100851Z 19003KT 10SM SCT250 29/24 A2991

2010/08/10 08:51
KTEB 100851Z 15003KT 9SM -RA CLR 26/19 A2991

2010/08/10 08:53
KTPA 100853Z 07004KT 10SM FEW050 25/23 A2988

2010/08/10 09:00
LEAL 100900Z 08003KT 050V130 CAVOK 32/16 Q1016 NOSIG

2010/08/10 09:00
LEAM 100900Z 21005KT CAVOK 27/20 Q1017

2010/08/10 09:00
LEAS 100900Z 31005KT 260V340 9999 FEW025 20/17 Q1019 NOSIG

2010/08/10 09:00
LEBB 100900Z 00000KT 9999 FEW030 23/16 Q1018 NOSIG

2010/08/10 09:00
LEBL 100900Z 13006KT 100V170 9999 SCT016 26/20 Q1017 NOSIG

2010/08/10 09:00
LECO 100900Z VRB01KT CAVOK 21/18 Q1019

2010/08/10 09:00
LEGE 100900Z 18012KT 9999 FEW010 SCT020 25/21 Q1017

2010/08/10 09:00
LEGR 100900Z VRB02KT 9999 FEW100 29/12 Q1020

2010/08/10 09:00
LEIB 100900Z 10007KT 060V140 CAVOK 30/19 Q1017 NOSIG

2010/08/10 09:00
LEJR 100900Z 00000KT 9999 FEW020 31/08 Q1016

2010/08/10 09:00
LELC 100900Z 03003KT 340V070 9999 FEW040 28/19 Q1016 NOSIG

2010/08/10 09:00
LELL 100900Z 14001KT 9000 FEW010 BKN028 24/17 Q1018

2010/08/10 09:00
LEMD 100900Z 01001KT CAVOK 29/13 Q1019 NOSIG

2010/08/10 09:00
LEMG 100900Z 14007KT CAVOK 29/13 Q1017 NOSIG

2010/08/10 09:00
LEMH 100900Z 09005KT 050V120 CAVOK 29/17 Q1017

2010/08/10 09:00
LEPA 100900Z 00000KT CAVOK 31/10 Q1017 BECMG 23010KT

2010/08/10 09:00
LEPP 100900Z VRB01KT CAVOK 20/14 Q1019

2010/08/10 09:00
LERS 100900Z VRB02KT 9999 BKN015 25/20 Q1018

2010/08/10 09:00
LESO 100900Z VRB02KT CAVOK 21/16 Q1018

2010/08/10 09:00
LEST 100900Z VRB01KT CAVOK 21/12 Q1019 NOSIG

2010/08/10 09:00
LETO 100900Z 00000KT CAVOK 28/14 Q1019 NOSIG

2010/08/10 09:00
LEVC 100900Z VRB02KT CAVOK 29/17 Q1017 NOSIG

2010/08/10 09:00
LEVD 100900Z 24005KT 170V270 CAVOK 24/12 Q1021

2010/08/10 09:00
LEVS 100900Z 00000KT 9000 NSC 30/14 Q1020

2010/08/10 09:00
LEVT 100900Z 00000KT 9999 FEW015 SCT030 17/14 Q1020

2010/08/10 09:00
LEVX 100900Z 19003KT 130V240 CAVOK 26/17 Q1018

2010/08/10 09:00
LEXJ 100900Z 02002KT 9999 FEW020 21/16 Q1019

2010/08/10 09:00
LEZG 100900Z 30006KT 260V330 9999 FEW060 23/14 Q1018

2010/08/10 09:00
LEZL 100900Z 20003KT 160V240 CAVOK 31/15 Q1016 NOSIG

2010/08/10 09:00
DTMB 100900Z 04004KT 010V070 CAVOK 29/17 Q1016

2010/08/10 09:00
DTTA 100900Z 12003KT 9999 FEW033 31/13 Q1016 NOSIG

2010/08/10 09:00
DTTB 100900Z 18002KT CAVOK 31/14 Q1017

2010/08/10 09:00
DTTB 100900Z 18002KT CAVOK 31/14 Q1017 RMK SIROCCO

2010/08/10 09:00
DTTD 100900Z 11006KT CAVOK 26/15 Q1018

2010/08/10 09:00
DTTG 100900Z 10008KT CAVOK 28/15 Q1016 NOSIG

2010/08/10 09:00
DTTJ 100900Z 32004KT 260V020 9999 FEW26 30/23 Q1016 NOSIG

2010/08/10 09:00
DTTK 100900Z 27002KT CAVOK 32/12 Q1016

2010/08/10 09:00
DTTL 100900Z 08004KT CAVOK 31/15 Q1016

2010/08/10 09:00
DTTN 100900Z 22002KT CAVOK 31/12 Q1015

2010/08/10 09:00
DTTR 100900Z 06014KT CAVOK 30/09 Q1017

2010/08/10 09:00
DTTX 100900Z 11002KT CAVOK 31/09 Q1016 NOSIG

2010/08/10 09:00
DTTZ 100900Z 10012KT CAVOK 29/20 Q1016 NOSIG

2010/08/10 09:00
UKBB 100900Z 01004MPS 9999 FEW033CB 28/20 Q1015 88CLRD95 NOSIG

2010/08/10 09:00
UKCC 100900Z 13003MPS 060V190 CAVOK 38/08 Q1013 08090070 NOSIG

2010/08/10 09:00
UKCW 100900Z 06004MPS 340V130 CAVOK 39/06 Q1013 0909//70 NOSIG

2010/08/10 09:00
UKDD 100900Z 11004MPS 070V140 CAVOK 35/17 Q1012 08090070 NOSIG

2010/08/10 09:00
UKDE 100900Z 09002MPS 020V160 CAVOK 35/15 Q1012 02CLRD70 NOSIG

2010/08/10 09:00
UKDR 100900Z 35007MPS 320V030 CAVOK 34/16 Q1012 3609//70 NOSIG

2010/08/10 09:00
UKFF 100900Z 03005MPS 340V070 CAVOK 35/19 Q1009 01010070 NOSIG

2010/08/10 09:00
UKHH 100900Z 08005MPS CAVOK 38/08 Q1013 080///65 NOSIG

2010/08/10 09:00
UKKK 100900Z 06002MPS 020V100 7000 NSC 29/19 Q1015 26CLRD70 NOSIG

2010/08/10 09:00
UKKM 100900Z 08002MPS 020V120 CAVOK 29/18 Q1015 33CLRD70 NOSIG

2010/08/10 09:00
UKLI 100900Z 00000MPS CAVOK 24/17 Q1017 28090070 NOSIG

2010/08/10 09:00
UKLL 100900Z VRB02MPS 9999 BKN026 20/16 Q1018 31110360 NOSIG

2010/08/10 09:00
UKLN 100900Z 31004MPS 270V340 9999 SCT033CB BKN100 21/18 Q1018 3309//70 NOSIG

2010/08/10 09:00
UKLR 100900Z 00000MPS 9999 SCT026CB BKN200 25/18 Q1017 30090070 NOSIG

2010/08/10 09:00
UKLU 100900Z 32002MPS 9999 SCT033 24/17 Q1018 10090070 NOSIG

2010/08/10 09:00
UKON 100900Z 03006MPS 350V060 CAVOK 34/15 Q1011 05090075 NOSIG

2010/08/10 09:00
UKOO 100900Z 06006MPS CAVOK 35/15 Q1011 34090070 NOSIG

2010/08/10 08:50
EDAH 100850Z 17007KT 9999 SCT033 20/16 Q1017

2010/08/10 08:50
EDDS 100850Z VRB02KT 9999 FEW035 22/13 Q1018 NOSIG

2010/08/10 08:50
EDMA 100850Z 28003KT 220V020 CAVOK 19/15 Q1018

2010/08/10 08:50
EGPK 100850Z 25013KT 9999 -SHRA FEW005 SCT014CB BKN018 13/11 Q1003

2010/08/10 08:55
EGUL 100855Z AUTO 20007KT 9999 OVC042 14/12 A2981 RMK AO2 RAE0807DZB0807E0809 SLP095 P0000 60004 T01430117 50000

2010/08/10 08:55
EGUN 100855Z AUTO 21007KT 9999 OVC042 14/14 A2982 RMK AO2 RAE0807 SLP087 P0000 60008 T01400140 50001

2010/08/10 08:55
EGVA 100855Z AUTO 24009KT 9999 SCT075 SCT090 14/13 A2983 RMK AO2 RAB0757E0825DZE0757B0820E0824 SLP102 P0000 60000 T01420131 53001 $

2010/08/10 08:55
ETAD 100855Z AUTO VRB06KT 9999 CLR 23/12 A3003 RMK AO2 SLPNO T02280123 VISNO RWY05 CHINO RWY05 $

2010/08/10 08:55
ETAR 100855Z AUTO 24003KT 9999 CLR 22/16 A3003 RMK AO2 SLP163 T02180161 52001 $

2010/08/10 08:55
KQIR 100855Z 11004KT 9999 CLR 44/13 A2952 RMK AO2A SLP994 T04350126 57007

2010/08/10 09:00
LEMO 100900Z 00000KT CAVOK 33/13 Q1017 NOSIG

2010/08/10 08:50
LIRN 100850Z VRB02KT 9999 SCT070 27/21 Q1015

2010/08/10 08:55
LIYW 100855Z AUTO 00000KT 9999 CLR 27/18 A3002 RMK AO2 SLP161 T02670183 52001

2010/08/10 09:00
LPLA 100900Z 34005KT 300V360 9999 FEW020 BKN035 22/17 Q1022

2010/08/10 08:50
LTAC 100850Z VRB04KT 9999 FEW040 32/05 Q1014 NOSIG

2010/08/10 08:50
LTAG 100850Z 29006KT 9999 SCT035 33/22 Q1006 NOSIG

2010/08/10 09:05
YSRI 100905Z AUTO 00000KT 3100NDV // SCT006 BKN013 OVC018 12/12 Q1012

2010/08/10 09:00
YAMB 100900Z AUTO 21005KT 3300NDV // SCT003 OVC007 18/18 Q1017

2010/08/10 09:00
YBCG 100900Z AUTO 04019KT 9999NDV // BKN026 BKN050 OVC067 20/18 Q1017

2010/08/10 09:00
YBHM 100900Z AUTO 08005KT //// // ////// 23/20 Q1015

2010/08/10 09:00
YBMA 100900Z AUTO 21008KT 9999NDV // NCD 19/M02 Q1018

2010/08/10 09:00
YBRK 100900Z 36007KT 9999 SCT030 OVC080 24/19 Q1015

2010/08/10 09:00
YBRM 100900Z 11008KT CAVOK 24/06 Q1014

2010/08/10 09:00
YCIN 100900Z AUTO 14009KT //// // ////// 25/M02 Q1015

2010/08/10 09:00
YFRT 100900Z AUTO 18007KT //// // ////// 13/04 Q1025

2010/08/10 09:00
YMAV 100900Z AUTO 15004KT 9999NDV // SCT120 08/08 Q1008

2010/08/10 09:00
YMHB 100900Z 16006KT 9999 FEW020 BKN055 11/09 Q1021

2010/08/10 09:00
YMLT 100900Z AUTO 16015KT 9999NDV // SCT045 OVC055 10/08 Q1017

2010/08/10 09:00
YPEA 100900Z 02010KT CAVOK 20/M03 Q1018 NOSIG

2010/08/10 09:00
YPGV 100900Z 16010KT 9999 FEW018 BKN140 26/23 Q1012

2010/08/10 09:00
YPKG 100900Z AUTO 05006KT 9999NDV // NCD 15/M03 Q1024

2010/08/10 09:00
YPPD 100900Z AUTO 11012KT 9999NDV // NCD 24/M08 Q1017

2010/08/10 09:00
YSCB 100900Z 04011KT 9999 9000S VCSH SCT035 BKN060 12/09 Q1010

2010/08/10 09:03
YSDU 100903Z AUTO 35013KT 9999NDV // ////// 14/13 Q1011

2010/08/10 09:00
YSNF 100900Z 15008KT 9999 BKN038 14/06 Q1030

2010/08/10 09:05
YSRI 100905Z AUTO 00000KT 3100NDV // SCT006 BKN013 OVC018 12/12 Q1012

2010/08/10 09:00
YWLM 100900Z 03007KT CAVOK 16/15 Q1013 INTER 0900/1000 4000 RA BKN010 FM0900 MOD TURB BLW 5000FT

2010/08/10 08:55
FJDG 100855Z 14014G20KT 9000 -SHRA FEW020 BKN040 BKN080 26/26 A2981 RMK SLP091 8/870 T02620258 57014

2010/08/10 08:56
PHBK 100856Z AUTO 00000KT 10SM SCT060 26/14 A3010 RMK AO2 SLP196 T02560144 51015 TSNO $

2010/08/10 08:55
PHHI 100855Z AUTO 08009KT 10SM SCT037 SCT045 23/17 A3013 RMK AO2 SLP190 T02340171 51011 $

2010/08/10 09:00
PKWA 100900Z AUTO 07017KT 10SM SCT018 SCT022 28/24 A2989 RMK AO2 T02820235

2010/08/10 08:56
PMDY 100856Z AUTO 07010KT 10SM CLR 26/22 A3024 RMK AO2 TSNO 51014 60000 T02610216 SLP547

2010/08/10 08:55
PWAK 100855Z 07014KT 8SM FEW021 28/24 A3004 RMK AO2A

2010/08/10 09:00
RJOI 100900Z 15009KT 9999 FEW025 SCT050 BKN100 31/23 A2988 RMK SLP118 T03110233 55003

2010/08/10 08:55
RJTY 100855Z AUTO 18010KT 9999 FEW110 27/24 A3000 RMK AO2 SLP152 T02710236 55001 $

2010/08/10 09:00
RKPK 100900Z 10012KT 9999 FEW030 BKN060 29/23 Q1006 NOSIG

2010/08/10 08:55
RKSO 100855Z 11005KT 9999 -RA BKN020 OVC040 26/24 A2973 RMK AO2A RAE0808B0848DZB0808E0848 SLP067 P0004 60020 T02610261 56003 $

2010/08/10 08:55
RODN 100855Z 20005KT 9999 SCT016 SCT140 29/26 A2980 RMK AO2A RAE0811B0830E0849DZB0849E0852 SLP091 P0000 60000 T02850264 56004

2010/08/10 08:57
PHNG 100857Z AUTO 07010G16KT 10SM SCT027 SCT036 26/20 A3012 RMK AO2 SLP195 T02560200 51011 $

2010/08/10 09:00
AYMO 100900Z AUTO 15003KT //// // ////// 28/23 Q1010

2010/08/10 08:50
BGAA 100850Z AUTO 02002KT 0150NDV FG VV003/// 06/05 Q1008

2010/08/10 08:50
BGMQ 100850Z AUTO 31006KT 9999NDV OVC080/// 09/09 Q1005

2010/08/10 08:50
BGQQ 100850Z AUTO 00000KT 9999NDV NCD 04/01 Q1010

2010/08/10 08:50
BGSS 100850Z VRB01KT 9999 SCT035 BKN080 BKN120 10/07 Q1006

2010/08/10 08:50
BGUK 100850Z AUTO 33003KT 0100NDV -SN FG NCD 04/04 Q1009

2010/08/10 08:50
BGUQ 100850Z VRB01KT 9999 FEW100 09/07 Q1008

2010/08/10 09:00
BKPR 100900Z 36009KT 330V040 9999 FEW040 24/14 Q1018 NOSIG RMK BLU

2010/08/10 09:00
DTKA 100900Z 33004KT 290V020 CAVOK 33/16 Q1015 NOSIG

2010/08/10 09:00
DTTF 100900Z 01006KT CAVOK 29/11 Q1015 NOSIG

2010/08/10 08:50
EDAC 100850Z VRB02KT CAVOK 24/15 Q1017

2010/08/10 08:50
EDDE 100850Z 22004KT 9999 SCT046 22/11 Q1017 NOSIG

2010/08/10 08:50
EDFH 100850Z 24007KT 190V290 9999 FEW045 BKN300 22/10 Q1017

2010/08/10 08:50
EDGS 100850Z 23008KT CAVOK 19/13 Q1017

2010/08/10 08:50
EDLV 100850Z 18006KT 140V220 CAVOK 20/14 Q1014

2010/08/10 08:50
EDOP 100850Z 19007KT 130V230 9999 FEW025 SCT070 22/15 Q1016

2010/08/10 08:50
EDSB 100850Z 23004KT 170V280 CAVOK 22/16 Q1017

2010/08/10 08:50
EDTL 100850Z 23004KT 200V270 CAVOK 22/15 Q1017

2010/08/10 08:50
EEKA 100850Z 22009KT 9999 SCT023 BKN034 19/15 Q1013

2010/08/10 08:50
EEKE 100850Z 24013KT 9999 BKN021 20/16 Q1014

2010/08/10 08:50
EEPU 100850Z 21013KT 9999 BKN027 22/16 Q1014

2010/08/10 08:50
EETU 100850Z AUTO 25010KT 9999NDV NCD 23/16 Q1015

2010/08/10 08:50
EFET 100850Z AUTO 07004KT 020V120 9999 SCT011 OVC033 12/09 Q1012

2010/08/10 08:50
EFHA 100850Z 24007KT 200V280 9999 FEW040CB SCT040 20/14 Q1010

2010/08/10 08:50
EFJO 100850Z 18008KT 140V220 9999 FEW030 BKN063 22/15 Q1011

2010/08/10 08:50
EFKA 100850Z 26005KT 9999 FEW012 SCT020CB 20/18 Q1008

2010/08/10 08:50
EFKI 100850Z AUTO 21005KT 160V250 //// BKN033 BKN074 20/17 Q1009

2010/08/10 08:50
EFKS 100850Z AUTO 35002KT 9999 OVC005 14/13 Q1009

2010/08/10 08:50
EFKT 100850Z AUTO 01005KT 320V060 9999 OVC014 12/09 Q1012

2010/08/10 08:50
EFLP 100850Z 21009KT 150V260 9999 FEW016 SCT055 21/17 Q1012

2010/08/10 08:50
EFMI 100850Z AUTO 17009KT 130V220 9999 FEW016 SCT019 BKN070 22/17 Q1011

2010/08/10 08:50
EFSA 100850Z AUTO 20006KT 140V280 9999NDV FEW028 BKN041 BKN065 22/16 Q1011

2010/08/10 08:50
EFSI 100850Z AUTO 18006KT 140V230 9999 FEW017 SCT025 20/17 Q1009

2010/08/10 08:50
EFUT 100850Z 23004KT 210V280 9999 -SHRA FEW022 SCT028CB BKN053 20/18 Q1012

2010/08/10 08:50
EFVR 100850Z AUTO 18007KT 130V230 9999 SCT025 BKN050 22/16 Q1011

2010/08/10 08:50
EGCN 100850Z 24013KT 9999 FEW018 18/11 Q1008

2010/08/10 08:50
EGDX 100850Z 24005KT 6000 DZ FEW010 SCT015 BKN050 15/13 Q1010 WHT

2010/08/10 08:50
EGHK 100850Z 23010KT 4500 -DZRA SCT005 OVC010 17/16 Q1009

2010/08/10 08:50
EGMH 100850Z 21015KT 5000 -RA BR BKN006 18/17 Q1011

2010/08/10 08:50
EGNR 100850Z 26007KT 230V310 9999 SCT028 18/09 Q1008

2010/08/10 08:50
EGOM 100850Z 21015KT 9999 -SHRA SCT016 BKN040 12/10 Q1004 WHT

2010/08/10 08:50
EGOP 100850Z AUTO 23009KT 9999NDV // BKN008/// BKN014/// 14/13 Q1009

2010/08/10 08:50
EGPI 100850Z 30009KT 9999 FEW017 SCT024 13/10 Q1003

2010/08/10 08:50
EGTG 100850Z 22011KT 9999 -RA SCT016 14/12 Q1011

2010/08/10 08:50
EGUB 100850Z 19007KT 9999 -RA BKN050 BKN070 14/12 Q1010 NOSIG

2010/08/10 08:50
EGUB 100850Z 19007KT 9999 -RA BKN050 BKN070 14/12 Q1010 BLACKBLU NOSIG

2010/08/10 08:50
EGUW 100850Z 28007KT 9999 -RA FEW006 SCT020 OVC050 14/13 Q1010 RERA WHT BECMG FEW020 BLU

2010/08/10 08:50
EGUY 100850Z 22010KT 9999 FEW020 SCT060 BKN140 15/12 Q1010 BLU

2010/08/10 08:50
EGVN 100850Z 23005KT 9999 FEW010 SCT050 BKN080 14/12 Q1010 BLU NOSIG

2010/08/10 08:50
EGVN 100850Z 23005KT 9999 FEW010 SCT050 BKN080 14/12 Q1010 NOSIG

2010/08/10 08:50
EGVO 100850Z 24011KT 9999 -RA FEW008 BKN110 14/13 Q1011 BLU NOSIG

2010/08/10 08:50
EGVP 100850Z 23006KT 9999 -RA FEW007 SCT045 OVC100 14/12 Q1011 BLU BECMG 5000 BKN007 GRN

2010/08/10 08:50
EGWC 100850Z 23010KT 9999 BKN022 16/12 Q1009 WHT

2010/08/10 08:50
EGWU 100850Z 26010KT 9999 -RA FEW007 BKN035 OVC060 14/12 Q1011 TEMPO SCT015

2010/08/10 08:50
EGWU 100850Z 26010KT 9999 -RA FEW007 BKN035 OVC060 14/12 Q1011 BLU TEMPO SCT015 WHT

2010/08/10 08:50
EGXC 100850Z 24009KT 9999 FEW015 SCT030 BKN130 15/13 Q1008 TEMPO SCT020

2010/08/10 08:50
EGXC 100850Z 24009KT 9999 FEW015 SCT030 BKN130 15/13 Q1008 BLU TEMPO SCT020 WHT

2010/08/10 08:50
EGXD 100850Z 19006KT 9999 -SHRA FEW012 FEW018TCU BKN060 14/13 Q1007 BLU NOSIG

2010/08/10 08:50
EGXE 100850Z 15004KT 9999 FEW015 BKN050 14/13 Q1006 BLU TEMPO SCT020 WHT

2010/08/10 08:50
EGXG 100850Z 25014KT 9999 FEW020 17/11 Q1007 BLU

2010/08/10 08:50
EGXJ 100850Z 24007KT 9999 FEW010 SCT090 14/13 Q1008 BLU TEMPO SCT016 WHT

2010/08/10 08:50
EGXT 100850Z 23010KT 9999 FEW010 BKN040 BKN150 16/12 Q1009 BLU TEMPO 7000 SHRA SCT020 WHT

2010/08/10 08:50
EGXU 100850Z 22008KT 9999 FEW025 BKN050 15/12 Q1007 BLU NOSIG

2010/08/10 08:50
EGXW 100850Z 25009KT 9999 FEW009 SCT200 14/13 Q1008 BLU NOSIG

2010/08/10 08:50
EGXX 100850Z 22009KT 9999 FEW012 SCT030 BKN160 16/14 Q1008 BLU

2010/08/10 08:50
EGXZ 100850Z 18005KT 9999 FEW007 BKN022 14/13 Q1007 WHT

2010/08/10 08:50
EGYD 100850Z 24010KT 9999 FEW012 SCT040 BKN150 15/13 Q1008 TEMPO SCT018

2010/08/10 08:50
EGYD 100850Z 24010KT 9999 FEW012 SCT040 BKN150 15/13 Q1008 BLU TEMPO SCT018 WHT

2010/08/10 08:50
EGYH 100850Z 24014KT 9999 FEW009 SCT016 BKN250 16/// Q1009 WHT

2010/08/10 08:50
EGYM 100850Z 21007KT 9999 FEW012 BKN045 BKN130 15/12 Q1009 BLU TEMPO SCT016 WHT

2010/08/10 08:50
EKGF 100850Z 17025KT 9999 BKN010 17/17 Q1009

2010/08/10 08:50
ENBS 100850Z 02005KT 9999 FEW020 BKN035 11/06 Q1012

2010/08/10 08:50
ENHE 100850Z 05012KT 9999 OVC016 10/08 Q1012

2010/08/10 08:50
ENHK 100850Z VRB02KT 9999 NSC 15/09 Q1011

2010/08/10 08:50
ENSS 100850Z 11005KT 9999 SCT010 BKN030 09/06 Q1014

2010/08/10 09:00
EPWR 100900Z 31004KT 280V340 9999 FEW020TCU SCT023 23/18 Q1018

2010/08/10 08:50
ESGR 100850Z AUTO 24009KT 210V280 9999NDV SCT022/// BKN030/// 18/13 Q1013

2010/08/10 08:50
ESGT 100850Z 21011KT 9999 SCT025 SCT050 19/13 Q1013

2010/08/10 08:50
ESMQ 100850Z 27008KT 9999 BKN043 19/12 Q1016

2010/08/10 08:50
ESMT 100850Z 22009KT 190V250 9999 SCT045 19/13 Q1016

2010/08/10 08:50
ESNG 100850Z 09004KT 030V140 9999 OVC030 15/08 Q1011

2010/08/10 08:50
ESNK 100850Z 36005KT 9999 BKN014 17/14 Q1010

2010/08/10 08:50
ESNL 100850Z AUTO 36006KT 9999NDV FEW009/// OVC012/// 14/12 Q1011

2010/08/10 08:50
ESNX 100850Z AUTO 11006KT 080V150 9999NDV NCD 16/10 Q1011

2010/08/10 08:50
ESNY 100850Z AUTO 32001KT 1600 R30/1000VP1500N +RA FEW020 SCT041 18/18 Q1009

2010/08/10 08:50
ESOE 100850Z 24009KT 9999 BKN017 17/14 Q1012

2010/08/10 08:50
ESSL 100850Z 26009KT 9999 SCT024 BKN030 17/12 Q1014

2010/08/10 08:50
ESTA 100850Z 22007KT CAVOK 20/10 Q1016

2010/08/10 08:50
ESTL 100850Z 16004KT 090V200 CAVOK 19/12 Q1016

2010/08/10 08:50
ESUT 100850Z 16009KT 9999 OVC029 16/11 Q1011

2010/08/10 08:55
ETOU 100855Z AUTO 00000KT 9999 CLR 21/15 A3003 RMK AO2 SLP167 T02150149 50001

2010/08/10 08:50
ETUO 100850Z 15003KT 9999 FEW045 22/13 Q1015 BLU

2010/08/10 08:50
EVLA 100850Z 25011KT 9999 BKN025 20/14 Q1017

2010/08/10 08:50
EVVA 100850Z AUTO 24012KT 9999 SCT022 BKN030 BKN037 19/15 Q1015

2010/08/10 08:50
EYKA 100850Z 18003KT 140V240 CAVOK 23/17 Q1017

2010/08/10 08:50
EYPA 100850Z 26004KT 9999 FEW022 21/14 Q1017 NOSIG

2010/08/10 09:00
FAGC 100900Z AUTO 10016KT //// // ////// 12/M09 Q1032

2010/08/10 09:00
FAMM 100900Z 11009G19KT CAVOK 12/M12 Q1033 NOSIG

2010/08/10 09:00
FAPP 100900Z 05006KT CAVOK 13/05 Q1031 NOSIG

2010/08/10 09:00
FASI 100900Z AUTO 10013KT //// // ////// 12/M15 Q1033

2010/08/10 09:00
FAVV 100900Z AUTO 09013KT //// // ////// 12/M09 Q1032

2010/08/10 09:00
FMEP 100900Z 17006KT 9999 FEW013 FEW040TCU BKN083 25/16 Q1022

2010/08/10 09:00
FQIN 100900Z 19010G22KT 9999 BKN020 BKN090 20/14 Q1028

2010/08/10 09:00
FQNP 100900Z 09004KT 9999 SCT020 29/09 Q1022

2010/08/10 09:00
FQQL 100900Z 16005KT 130V200 9999 FEW020 29/22 Q1021

2010/08/10 09:00
FYML 100900Z AUTO 10011KT //// // ////// ///// Q1035

2010/08/10 09:00
FYOA 100900Z AUTO 08012KT //// // ////// 21/M06 Q1025

2010/08/10 09:00
FYOJ 100900Z AUTO 09011KT //// // ////// 18/M09 Q1026

2010/08/10 09:00
FYOW 100900Z AUTO 11008KT //// // ////// 18/M14 Q1028

2010/08/10 09:00
FYWW 100900Z 12007KT CAVOK 11/M17 Q1031

2010/08/10 09:00
GMAD 100900Z 20003KT 5000 SCT004 BKN016 20/19 Q1015 NOSIG

2010/08/10 09:00
GMFM 100900Z 23006KT CAVOK 35/11 Q1019

2010/08/10 09:00
GMMC 100900Z 06003KT 5000 NSC 33/19 Q1013

2010/08/10 09:00
GMML 100900Z 03008KT 8000 BKN100 25/21 Q1016

2010/08/10 09:00
GMMW 100900Z 00000KT 6000 SCT016 SCT100 27/21 Q1018

2010/08/10 09:00
GMMZ 100900Z VRB03KT 8000 NSC 30/11 Q1025

2010/08/10 08:50
HLLM 100850Z 01006KT 6000 SKC 28/18 Q1017

2010/08/10 08:55
KEGI 100855Z AUTO 05005KT 6SM R18/5000V5500FT BR CLR 24/23 A2992 RMK AO2 SLP130 T02390232 56009 $

2010/08/10 08:55
KGYH 100855Z AUTO 00000KT 10SM CLR 26/21 A3003 RMK AO2

2010/08/10 09:00
LBGO 100900Z 28003MPS 240V330 CAVOK 27/19 Q1015 NOSIG

2010/08/10 09:00
LDLO 100900Z 31004KT CAVOK 29/19 Q1015

2010/08/10 09:00
LDSB 100900Z VRB02KT CAVOK 26/11 Q1015

2010/08/10 09:00
LEAB 100900Z 27003KT 230V340 CAVOK 29/12 Q1020 NOSIG

2010/08/10 09:00
LEBA 100900Z 28003KT 240V330 CAVOK 31/12 Q1017

2010/08/10 09:00
LEBZ 100900Z 01001KT CAVOK 31/17 Q1017

2010/08/10 09:00
LELN 100900Z 21003KT 160V300 CAVOK 21/12 Q1021

2010/08/10 09:00
LESA 100900Z 00000KT 8000 SCT040 26/16 Q1021

2010/08/10 09:00
LETO 100900Z 00000KT CAVOK 28/14 Q1019 NOSIG

2010/08/10 09:00
LFBE 100900Z VRB02KT 9999 FEW030 SCT260 21/13 Q1019 NOSIG

2010/08/10 09:00
LFBG 100900Z AUTO VRB02KT 9999NDV SCT019 SCT024 20/14 Q1019

2010/08/10 09:00
LFCR 100900Z AUTO VRB02KT 9999NDV FEW024 21/13 Q1020

2010/08/10 09:00
LFJL 100900Z AUTO 19006KT 130V230 9999NDV NSC 24/12 Q1016

2010/08/10 09:00
LFLX 100900Z 24011KT CAVOK 21/13 Q1018 NOSIG

2010/08/10 09:00
LFMI 100900Z AUTO 25005KT 200V320 9999NDV NSC 27/17 Q1015

2010/08/10 09:00
LFMK 100900Z 28008KT 230V310 9999 FEW036 SCT230 23/14 Q1018 NOSIG

2010/08/10 09:00
LFMO 100900Z AUTO VRB02KT 9999NDV NSC 27/17 Q1016

2010/08/10 09:00
LFMU 100900Z AUTO 29011KT 9999NDV NSC 26/12 Q1016

2010/08/10 09:00
LFMV 100900Z AUTO VRB02KT 9999NDV NSC 26/18 Q1016

2010/08/10 09:00
LFOA 100900Z AUTO 27009KT 9999NDV NSC 22/13 Q1018

2010/08/10 09:00
LFOJ 100900Z 20009KT 170V230 CAVOK 22/14 Q1016

2010/08/10 09:00
LFOK 100900Z AUTO 23008KT 9999NDV NSC 22/12 Q1016

2010/08/10 09:00
LFQI 100900Z 22009KT CAVOK 18/14 Q1014

2010/08/10 08:50
LGHI 100850Z 36010KT CAVOK 30/21 Q1008

2010/08/10 08:50
LGKC 100850Z 02009KT 330V070 9999 FEW020 29/23 Q1012

2010/08/10 08:50
LGNX 100850Z 34013KT 9999 FEW020 29/24 Q1008

2010/08/10 08:50
LGPA 100850Z 35017KT 9999 FEW025 30/23 Q1008

2010/08/10 08:50
LGSO 100850Z 36013KT 9999 FEW020 30/22 Q1008

2010/08/10 09:00
LKCV 100900Z VRB02KT 9999 FEW030 21/16 Q1018 NOSIG RMK BLU+ BLU+

2010/08/10 09:00
LKKV 100900Z VRB03KT 9999 FEW033 19/11 Q1019

2010/08/10 09:00
LKNA 100900Z VRB02KT 9999 SCT041 21/12 Q1019 NOSIG RMK BLU+ BLU+

2010/08/10 09:00
LKPD 100900Z VRB01KT 9999 SCT021 21/16 Q1018 NOSIG RMK BLU+ BLU+

2010/08/10 09:00
LKPO 100900Z VRB02KT 9999 FEW024 21/15 Q1018 NOSIG RMK BLU+ BLU+

2010/08/10 08:50
LLIB 100850Z 13005KT CAVOK 31/20 Q1008

2010/08/10 08:50
LLSD 100850Z 27009KT 9999 FEW025 30/22 Q1007

2010/08/10 08:50
LOXT 100850Z VRB02KT 50KM FEW035CU 22/14 Q1018 NOSIG RMK FEW

2010/08/10 08:50
LOXZ 100850Z VRB02KT 30KM FEW035CU SCT270CI 20/15 Q1019 NOSIG RMK SCT

2010/08/10 09:00
LQBK 100900Z 11003KT 9999 FEW030 23/19 Q1017 NOSIG

2010/08/10 09:00
LQMO 100900Z VRB02KT CAVOK 31/11 Q1012

2010/08/10 09:00
LQTZ 100900Z VRB02KT 9999 FEW045 25/// Q1018

2010/08/10 08:50
LTAB 100850Z VRB02KT CAVOK 32/05 Q1012 NOSIG RMK RWY06 VRB04KT

2010/08/10 08:50
LTAE 100850Z 11004KT 070V160 CAVOK 33/08 Q1012 NOSIG RMK RWY21 VRB02KT

2010/08/10 08:50
LTAZ 100850Z 36010KT CAVOK 32/06 Q1013

2010/08/10 08:50
LTBR 100850Z 02004KT 9999 FEW035 32/19 Q1010 NOSIG RMK RWY07 05005KT

2010/08/10 08:50
LTBR 100850Z 02004KT 9999 FEW035 32/19 Q1010 NOSIG

2010/08/10 08:50
LTBU 100850Z 04014KT 9999 SCT030 30/21 Q1011 RMK RWY23 02012KT

2010/08/10 08:50
LTBU 100850Z 04014KT 9999 SCT030 30/21 Q1011

2010/08/10 08:50
LTCF 100850Z 09008KT 030V130 CAVOK 27/06 Q1020

2010/08/10 08:50
LTFH 100850Z 36006KT 300V030 9999 FEW036 30/23 Q1007 NOSIG

2010/08/10 08:50
LTFJ 100850Z 07008KT 040V120 9999 SCT035 32/20 Q1010 NOSIG

2010/08/10 09:00
LZKC 100900Z VRB02KT 9999 SCT029 23/17 Q1017

2010/08/10 09:00
LZLU 100900Z VRB02KT 9999 FEW036 23/15 Q1018

2010/08/10 09:00
LZNI 100900Z 24002KT 9999 FEW030 24/16 Q1018

2010/08/10 09:00
LZPE 100900Z 22003KT 9999 FEW033 23/14 Q1018

2010/08/10 09:00
LZPP 100900Z 27002KT 9999 FEW020 22/16 Q1018

2010/08/10 09:00
LZSL 100900Z 20002KT 9999 FEW040 24/15 Q1018

2010/08/10 09:00
LZZI 100900Z VRB01KT 9999 FEW025 20/14 Q1018

2010/08/10 09:00
UHHH 100900Z 21003MPS 9999 FEW026 SCT100 25/19 Q1005 NOSIG

2010/08/10 08:50
MUHG 100850Z 09004KT 5000 VCFG FEW020 25/23 Q1013

2010/08/10 08:55
OAHR 100855Z 36010G21KT CAVOK 35/M01 Q1010 RMK SKC VIS MIN 9999 BLU

2010/08/10 09:00
OSDZ 100900Z 31006KT CAVOK 36/16 Q1005

2010/08/10 09:00
OSKL 100900Z VRB03KT CAVOK 38/06 Q1006

2010/08/10 09:00
YSTW 100900Z AUTO 00000KT 9999NDV // OVC024 14/13 Q1014

2010/08/10 09:00
YSWG 100900Z AUTO 02006KT 9999NDV // SCT032 BKN064 OVC110 12/08 Q1007

2010/08/10 09:00
YTEF 100900Z AUTO 11014KT //// // ////// 19/M04 Q1019

2010/08/10 09:00
YTNK 100900Z AUTO 18004KT 9999NDV // NCD 19/M05 Q1018

2010/08/10 09:00
YTRE 100900Z AUTO 35004KT //// // ////// 17/16 Q1014

2010/08/10 09:00
YWGT 100900Z AUTO 13005KT //// // ////// 09/08 Q1008

2010/08/10 09:00
YWHA 100900Z AUTO 21012KT 9999NDV // SCT049 12/07 Q1016

2010/08/10 09:00
YWLM 100900Z 03007KT CAVOK 16/15 Q1013 INTER 0900/1000 4000 RA BKN010 FM0900 MOD TURB BLW 5000FT

2010/08/10 09:00
ZBHH 100900Z 04002MPS 9999 SCT040 28/07 Q1009 NOSIG

2010/08/10 09:00
ZBSJ 100900Z 14002MPS 8000 NSC 29/23 Q1005 NOSIG

2010/08/10 09:00
ZGKL 100900Z 21002MPS 180V250 9999 SCT043 36/23 Q1002 NOSIG

2010/08/10 09:00
ZGOW 100900Z 16006MPS 9999 FEW020 31/27 Q1005 NOSIG

2010/08/10 09:00
ZJHK 100900Z 24006MPS 190V280 9999 TS SCT013 FEW025TCU FEW030CB BKN040 29/25 Q1004 TEMPO VRB07G12MPS

2010/08/10 09:00
ZLXY 100900Z 06005MPS 5000 HZ NSC 34/24 Q1001 NOSIG

2010/08/10 09:00
ZSQD 100900Z 08003MPS 030V140 9999 FEW033 31/22 Q1004 NOSIG

2010/08/10 09:00
ZWSH 100900Z 21005MPS 180V240 9999 FEW040CB 32/05 Q1008 NOSIG

2010/08/10 09:00
ZYCC 100900Z 28003MPS 240V310 CAVOK 26/15 Q1006 NOSIG

2010/08/10 09:00
ZYTX 100900Z 22002MPS 9999 FEW030 28/22 Q1005 NOSIG

2010/08/10 08:50
EGHK 100850Z 23010KT 4500 -DZRA SCT005 OVC010 17/16 Q1009 TEMPO RADZ BKN008

2010/08/10 09:00
OYSQ 100900Z 21036G46KT 9999 FEW018 32/23 Q1008

2010/08/10 09:00
RJBB 100900Z 21010KT 9999 FEW015 SCT100 BKN120 29/24 Q1013 NOSIG

2010/08/10 09:00
RJBH 100900Z 21008KT 9999 FEW030 SCT130 BKN/// 31/22 Q1011

2010/08/10 09:00
RJBT 100900Z 21008KT 9999 FEW005 BKN100 26/23 Q1013

2010/08/10 09:00
RJFS 100900Z 17022KT 9999 -SHRA FEW025 SCT040 BKN080 30/24 Q1007

2010/08/10 09:00
RJGG 100900Z 15008KT 9999 -SHRA FEW010 SCT020 BKN070 27/25 Q1013 NOSIG

2010/08/10 09:00
RJNW 100900Z VRB02KT 9999 FEW020 SCT070 BKN130 26/24 Q1013

2010/08/10 09:00
RJOW 100900Z 16013KT 9999 FEW035 BKN140 BKN/// 31/19 Q1010

2010/08/10 09:00
RJSF 100900Z 18009KT 9999 FEW025 BKN/// 27/23 Q1015

2010/08/10 09:00
RJSR 100900Z 27003KT 9999 FEW040 BKN/// 29/23 Q1012

2010/08/10 09:00
RJSY 100900Z 31003KT 280V340 9999 FEW030 BKN/// 30/21 Q1011

2010/08/10 09:00
ROIG 100900Z 20010KT 9999 FEW015 BKN180 BKN/// 29/27 Q1007

2010/08/10 09:00
ROMY 100900Z 20007KT 9999 -RA FEW015 SCT150 BKN/// 29/27 Q1008

2010/08/10 09:00
RORS 100900Z 20007KT 9999 FEW010 SCT070 BKN170 29/26 Q1007

2010/08/10 09:00
RPLI 100900Z 22008KT 9999 SCT019CB BKN100 29/26 Q1006 RESH

2010/08/10 09:00
UBBN 100900Z 10012KT 9999 FEW100 35/06 Q1010 R14R/CLRD60 NOSIG RMK G/O QFE683

2010/08/10 09:00
WBGB 100900Z 36004KT 8000 FEW016 SCT150 BKN300 32/27 Q1006

2010/08/10 09:00
WBGR 100900Z 35004KT 9999 FEW014 SCT150 BKN300 30/26 Q1006

2010/08/10 09:00
WBGS 100900Z 27002KT 9999 FEW018 SCT150 BKN300 33/24 Q1006

2010/08/10 09:00
WBGY 100900Z 09001KT 9999 SCT023 BKN300 33/26 Q1006

2010/08/10 09:00
WBKL 100900Z 31004KT 9999 FEW014 SCT140 BKN290 31/26 Q1006

2010/08/10 09:00
WBKS 100900Z 07008KT 9999 FEW017 FEW018CB BKN300 30/26 Q1007

2010/08/10 09:00
WBKT 100900Z 28003KT 9999 FEW016 BKN270 31/23 Q1007

2010/08/10 09:00
WBKW 100900Z 15005KT 9999 FEW018 BKN300 30/25 Q1007

2010/08/10 08:45
LHKE 100845Z 02002MPS 9999 FEW033 24/16 Q1018 NOSIG RMK BLU

2010/08/10 08:51
KABE 100851Z 05004KT 8SM CLR 23/21 A2994

2010/08/10 08:53
KAGC 100853Z 17005KT 7SM CLR 21/19 A2999

2010/08/10 08:54
KAKR 100854Z AUTO 25003KT 9SM CLR 23/19 A2997

2010/08/10 08:51
KALB 100851Z 21003KT 2SM BR SCT019 SCT055 BKN080 21/21 A2994

2010/08/10 08:56
KART 100856Z AUTO 00000KT 4SM BR OVC013 21/20 A2992

2010/08/10 08:54
KAVP 100854Z 00000KT 10SM FEW075 23/19 A2997

2010/08/10 08:53
KBAF 100853Z 00000KT 3SM BR CLR 22/21 A2992

2010/08/10 08:51
KBDL 100851Z 00000KT 3SM BR FEW004 BKN090 OVC200 22/21 A2992

2010/08/10 08:52
KBDR 100852Z AUTO 04003KT 10SM FEW055 26/18 A2992

2010/08/10 08:56
KBED 100856Z AUTO 24005KT 4SM BR OVC110 22/21 A2988

2010/08/10 08:54
KBTV 100854Z 00000KT 1/4SM FG VV001 17/17 A2991

2010/08/10 08:54
KBUF 100854Z 13003KT 3SM BR FEW038 BKN055 OVC075 21/20 A2994

2010/08/10 08:53
KBVY 100853Z AUTO 00000KT 4SM BR CLR 22/21 A2988

2010/08/10 08:56
KCAE 100856Z 00000KT 6SM BR CLR 25/23 A3000

2010/08/10 08:51
KCAK 100851Z 25003KT 8SM SCT070 OVC100 24/19 A2997

2010/08/10 08:55
KCEF 100855Z AUTO 22003KT 9SM BKN065 21/21 A2991

2010/08/10 08:51
KCMH 100851Z 00000KT 10SM FEW075 SCT150 24/21 A2997

2010/08/10 08:53
KCRQ 100853Z 08003KT 10SM OVC011 18/14 A2989

2010/08/10 08:54
KCRW 100854Z 00000KT 4SM BR FEW001 21/19 A3000

2010/08/10 08:56
KDAY 100856Z 24003KT 7SM CLR 24/20 A2999

2010/08/10 08:55
KDOV 100855Z AUTO 20008KT 10SM CLR 24/24 A2992

2010/08/10 08:51
KERI 100851Z 16003KT 5SM HZ BKN050 BKN060 23/21 A2994

2010/08/10 08:53
KEWB 100853Z AUTO 00000KT 4SM BR SCT090 BKN120 22/21 A2991

2010/08/10 08:53
KFVE 100853Z AUTO 32005KT 5SM BR CLR 15/14 A2983

2010/08/10 08:56
KGON 100856Z AUTO 00000KT 10SM SCT065 BKN120 23/20 A2992

2010/08/10 08:54
KGSO 100854Z 21004KT 7SM CLR 24/21 A3003

2010/08/10 08:53
KGSP 100853Z AUTO 00000KT 8SM CLR 24/22 A3002

2010/08/10 08:56
KHPN 100856Z 00000KT 7SM -RA SCT040 BKN110 23/19 A2993

2010/08/10 08:51
KHTS 100851Z 00000KT 2 1/2SM BR CLR 21/20 A2998

2010/08/10 08:53
KHUL 100853Z AUTO 00000KT 2SM BR CLR 13/13 A2981

2010/08/10 08:53
KHVN 100853Z AUTO 00000KT 9SM SCT060 SCT085 BKN120 24/20 A2993

2010/08/10 08:53
KIAG 100853Z AUTO 00000KT 2 1/2SM BR FEW043 OVC055 22/21 A2993

2010/08/10 08:51
KILG 100851Z 17003KT 9SM FEW080 24/22 A2993

2010/08/10 08:53
KILM 100853Z AUTO 20003KT 10SM CLR 26/24 A3000

2010/08/10 08:54
KINT 100854Z AUTO 23003KT 10SM CLR 25/21 A3004

2010/08/10 08:55
KLSV 100855Z AUTO 29003KT 10SM CLR 25/M02 A2983

2010/08/10 08:53
KLUK 100853Z AUTO 00000KT 3SM R21L/2400VP6000FT BR CLR 23/22 A2996

2010/08/10 08:54
KLWM 100854Z AUTO 23004KT 4SM BR CLR 23/21 A2990

2010/08/10 08:56
KMDT 100856Z 00000KT 6SM HZ BKN150 26/22 A2991

2010/08/10 08:53
KMSS 100853Z AUTO 22004KT 10SM OVC004 22/21 A2992

2010/08/10 08:54
KORH 100854Z AUTO 27007KT 8SM OVC060 21/20 A2994

2010/08/10 08:55
KPQI 100855Z AUTO 00000KT 5SM CLR 13/12 A2980

2010/08/10 08:55
KPSM 100855Z 26004KT 3SM BR FEW045 BKN140 21/21 A2987

2010/08/10 08:51
KPVD 100851Z 23003KT 8SM -RA FEW031 SCT090 SCT120 OVC150 22/20 A2992

2010/08/10 08:51
KPWM 100851Z 30003KT 10SM FEW085 21/19 A2987

2010/08/10 08:54
KRIC 100854Z 25006KT 10SM SCT060 26/21 A2996

2010/08/10 08:54
KROC 100854Z 23003KT 2 1/2SM BR FEW060 OVC080 21/20 A2994

2010/08/10 08:54
KSYR 100854Z 00000KT 4SM BR OVC044 22/21 A2993

2010/08/10 08:55
KWRI 100855Z AUTO 24003KT 9SM FEW070 23/22 A2991

2010/08/10 09:02
KBGM 100902Z AUTO 00000KT 1SM BR BKN001 OVC070 20/20 A3000

2010/08/10 09:00
UAFM 100900Z 30008MPS CAVOK 34/04 Q1010 TEMPO 32007G12MPS

2010/08/10 09:00
UAAA 100900Z 32006MPS 9999 VCTS SCT050CB BKN100 31/10 Q1009 88CLRD65 TEMPO VRB15MPS TS SQ

2010/08/10 09:00
UACC 100900Z 01006MPS 310V010 CAVOK 20/04 Q1019 040/0070 NOSIG RMK QFE733/0977

2010/08/10 09:00
UAKK 100900Z 35007MPS 9999 BKN050CB 18/06 Q1018 050///70 NOSIG RMK QFE716/0955

2010/08/10 09:00
UARR 100900Z 06007MPS 4200 FU NSC 35/04 Q1018 04CLRD70 NOSIG RMK QFE760/1014

2010/08/10 09:00
UATE 100900Z 13008MPS CAVOK 41/03 Q1012 120///70 NOSIG RMK QFE757/1009

2010/08/10 09:00
UATG 100900Z 08004G07MPS CAVOK 41/10 Q1013 14CLRD70 NOSIG RMK QFE761/1015 

2010/08/10 09:00
UATT 100900Z 08006MPS 050V110 6000 NSC 30/03 Q1021 13CLRD70 NOSIG RMK QFE746/0995

2010/08/10 09:00
UAUU 100900Z VRB01MPS CAVOK 25/02 Q1022 33CLRD70 NOSIG RMK QFE750/1001

2010/08/10 09:00
FMNN 100900Z 34006KT 9999 FEW020 SCT100 31/20 Q1016

2010/08/10 09:00
FMNA 100900Z 140//KT 9999 VCSH FEW017 BKN033 27/24 Q1016

2010/08/10 09:00
FMMS 100900Z 00000KT 9999 SCT017 OVC040 23/21 QXXXX

2010/08/10 09:00
FMMI 100900Z 11006KT 020V180 9999 SCT023 23/10 Q1025 NOSIG

2010/08/10 09:00
FMNM 100900Z 22010KT CAVOK 31/15 Q1017

2010/08/10 09:00
FMMT 100900Z 16008KT 9999 VCSH FEW017 25/20 Q1021

2010/08/10 09:00
FMCH 100900Z 21010KT 9999 FEW023TCU 29/26 Q1019 NOSIG

2010/08/10 09:00
UTAA 100900Z 33004MPS 300V030 9999 SKC 38/02 Q1010 NOSIG

2010/08/10 09:00
UTAK 100900Z 16006MPS CAVOK 39/04 Q1011 NOSIG

2010/08/10 09:00
UTAM 100900Z 35006MPS CAVOK 38/06 Q1006 NOSIG

2010/08/10 09:00
UTAT 100900Z 36005MPS CAVOK 37/18 Q1010 NOSIG

2010/08/10 09:00
FMSD 100900Z 06006KT 9999 FEW020 BKN033 25/19 Q1020

2010/08/10 09:00
FMNN 100900Z 34006KT 9999 FEW020 SCT100 31/20 Q1016

2010/08/10 09:00
FMNA 100900Z 140//KT 9999 VCSH FEW017 BKN033 27/24 Q1016

2010/08/10 09:00
FMMS 100900Z 00000KT 9999 SCT017 OVC040 23/21 QXXXX

2010/08/10 09:00
FMMI 100900Z 11006KT 020V180 9999 SCT023 23/10 Q1025 NOSIG

2010/08/10 09:00
FMNM 100900Z 22010KT CAVOK 31/15 Q1017

2010/08/10 09:00
FMMT 100900Z 16008KT 9999 VCSH FEW017 25/20 Q1021

2010/08/10 09:00
FMCH 100900Z 21010KT 9999 FEW023TCU 29/26 Q1019 NOSIG

2010/08/10 09:00
UDYZ 100900Z 20003MPS 130V230 9999 SKC 34/09 Q1011 09010070 NOSIG

2010/08/10 09:00
UDSG 100900Z 07008MPS 9999 NSC 31/08 Q1016 02CLRD70 NOSIG

2010/08/10 09:00
LQTZ 100900Z VRB02KT 9999 FEW045 25/// Q1018

2010/08/10 09:00
OYAT 100900Z 14010KT CAVOK 35/14 Q1002

2010/08/10 09:00
OOMS 100900Z 02009KT 340V060 8000 NSC 33/27 Q1001 NOSIG

2010/08/10 08:50
OOSA 100850Z 17011KT 150V210 9000 FEW012 BKN025 28/22 Q1004 NOSIG RMK05 RH72.

2010/08/10 08:53
KAMA 100853Z AUTO 18008KT 10SM CLR 21/17 A3004

2010/08/10 08:53
KAUS 100853Z 21006KT 10SM CLR 26/24 A2992

2010/08/10 08:53
KBPT 100853Z AUTO 27003KT 10SM CLR 26/24 A2990

2010/08/10 09:00
KBQK 100900Z AUTO 12004KT 10SM CLR 27/25 A2996

2010/08/10 08:53
KBRO 100853Z 14004KT 10SM CLR 28/26 A2988

2010/08/10 08:53
KBTR 100853Z 00000KT 3/4SM BR FEW001 BKN004 24/24 A2992

2010/08/10 08:53
KCHA 100853Z 00000KT 10SM CLR 26/23 A3001

2010/08/10 08:51
KCRP 100851Z 00000KT 10SM FEW017 26/25 A2989

2010/08/10 08:53
KDAL 100853Z 17005KT 10SM CLR 29/20 A2989

2010/08/10 08:53
KDRT 100853Z AUTO 12008KT 10SM CLR 28/23 A2990

2010/08/10 08:51
KELP 100851Z 13010KT 10SM FEW160 25/15 A3003

2010/08/10 08:53
KEYW 100853Z AUTO 23010KT 10SM -RA FEW033 BKN055 26/23 A2985

2010/08/10 08:53
KFPR 100853Z AUTO 13006KT 10SM SCT019 BKN027 27/24 A2990

2010/08/10 08:53
KFTW 100853Z 24004KT 10SM CLR 28/20 A2988

2010/08/10 08:53
KFTY 100853Z 00000KT 5SM BR CLR 24/22 A3001

2010/08/10 08:53
KFXE 100853Z 17007G22KT 4SM RA SCT020 SCT027 26/23 A2987

2010/08/10 08:52
KGLS 100852Z AUTO 28003KT 10SM FEW024 29/26 A2992

2010/08/10 08:53
KGPT 100853Z AUTO 00000KT 6SM BR CLR 27/24 A2991

2010/08/10 08:53
KHOU 100853Z 00000KT 10SM FEW250 27/24 A2990

2010/08/10 08:52
KHRL 100852Z AUTO 12004KT 10SM CLR 26/26 A2987

2010/08/10 08:53
KHSV 100853Z 00000KT 5SM BR FEW200 26/24 A2997

2010/08/10 08:53
KLCH 100853Z AUTO 06004KT 10SM CLR 26/25 A2991

2010/08/10 08:56
KLRD 100856Z AUTO 16007KT 10SM CLR 28/25 A2991

2010/08/10 08:53
KMAF 100853Z AUTO 12006KT 10SM CLR 21/19 A2999

2010/08/10 08:53
KMFE 100853Z AUTO 16003KT 10SM FEW014 27/26 A2988

2010/08/10 08:53
KMGM 100853Z 00000KT 8SM BKN075 26/23 A2994

2010/08/10 08:56
KMOB 100856Z 02004KT 10SM FEW250 25/24 A2993

2010/08/10 08:53
KNEW 100853Z AUTO 05004KT 9SM BKN012 BKN022 28/26 A2992

2010/08/10 08:53
KOPF 100853Z AUTO 16006KT 7SM -RA FEW014 SCT039 OVC055 25/24 A2987

2010/08/10 08:53
KPDK 100853Z AUTO 00000KT 10SM CLR 24/21 A3002

2010/08/10 08:53
KPIE 100853Z AUTO 10006KT 10SM FEW011 26/23 A2986

2010/08/10 08:53
KPNS 100853Z AUTO 35006KT 8SM CLR 26/24 A2990

2010/08/10 08:53
KRSW 100853Z AUTO 10009KT 10SM BKN008 24/23 A2984

2010/08/10 08:53
KSAT 100853Z 18007KT 10SM BKN017 27/24 A2994

2010/08/10 08:53
KSAV 100853Z 00000KT 10SM FEW019 25/23 A2998

2010/08/10 08:56
KSHV 100856Z 00000KT 10SM BKN290 27/23 A2991

2010/08/10 08:53
KSSI 100853Z AUTO 12011KT 10SM SCT024 28/23 A2996

2010/08/10 08:53
KTMB 100853Z AUTO 16005KT 10SM FEW024 BKN049 BKN060 27/22 A2986

2010/08/10 08:53
KTUL 100853Z 19007KT 10SM CLR 29/19 A2989

2010/08/10 08:53
KTYS 100853Z 00000KT 7SM CLR 25/23 A3001

2010/08/10 08:55
ETIH 100855Z AUTO 09004KT 9999 SCT055 19/19 A3008 RMK AO2 SLP180 T01910191 56001 $

2010/08/10 09:00
LEAB 100900Z 27003KT 230V340 CAVOK 29/12 Q1020 NOSIG

2010/08/10 09:00
LEAM 100900Z 21005KT CAVOK 27/20 Q1017

2010/08/10 09:00
LEAS 100900Z 31005KT 260V340 9999 FEW025 20/17 Q1019 NOSIG

2010/08/10 09:00
LEBA 100900Z 28003KT 240V330 CAVOK 31/12 Q1017

2010/08/10 09:00
LEBB 100900Z 00000KT 9999 FEW030 23/16 Q1018 NOSIG

2010/08/10 09:00
LEGE 100900Z 18012KT 9999 FEW010 SCT020 25/21 Q1017

2010/08/10 09:00
LEGR 100900Z VRB02KT 9999 FEW100 29/12 Q1020

2010/08/10 09:00
LEPP 100900Z VRB01KT CAVOK 20/14 Q1019

2010/08/10 09:00
LERS 100900Z VRB02KT 9999 BKN015 25/20 Q1018

2010/08/10 09:00
LESA 100900Z 00000KT 8000 SCT040 26/16 Q1021

2010/08/10 09:00
LETO 100900Z 00000KT CAVOK 28/14 Q1019 NOSIG

2010/08/10 09:00
LEVS 100900Z 00000KT 9000 NSC 30/14 Q1020

2010/08/10 09:00
LEXJ 100900Z 02002KT 9999 FEW020 21/16 Q1019

2010/08/10 09:00
LFOR 100900Z 19009KT 160V240 CAVOK 21/13 Q1016

2010/08/10 09:00
LJLJ 100900Z VRB02KT 9999 SCT033 24/16 Q1018 NOSIG

2010/08/10 09:00
LJMB 100900Z 12003KT 9999 FEW041 23/18 Q1018

2010/08/10 09:00
LJPZ 100900Z VRB02KT CAVOK 27/17 Q1015

2010/08/10 09:00
LPFR 100900Z 26004KT 220V280 CAVOK 30/19 Q1016

2010/08/10 09:00
LPPR 100900Z 00000KT CAVOK 28/17 Q1017

2010/08/10 09:00
LPPS 100900Z 34004KT 310V010 9000 SCT011 BKN030 22/20 Q1017

2010/08/10 09:00
LPPT 100900Z VRB02KT CAVOK 33/14 Q1017 NOSIG

2010/08/10 09:00
LRAR 100900Z 34006KT 290V080 CAVOK 25/16 Q1018

2010/08/10 09:00
LRBM 100900Z 25006KT 190V280 9999 SCT030 25/18 Q1017

2010/08/10 09:00
LROD 100900Z VRB04KT CAVOK 25/16 Q1018

2010/08/10 09:00
LRSM 100900Z VRB04KT 9999 SCT020 24/19 Q1018

2010/08/10 09:00
LRTM 100900Z VRB04KT 9999 FEW028 25/17 Q1017

2010/08/10 08:53
KAZO 100853Z AUTO 00000KT 1/2SM FG VV001 21/20 A2996

2010/08/10 08:53
KBDE 100853Z AUTO 19003KT 5SM BR CLR 19/19 A2991

2010/08/10 08:53
KBTL 100853Z AUTO 00000KT 1 1/2SM BR BKN004 20/20 A2997

2010/08/10 08:53
KBTM 100853Z AUTO 06004KT 10SM FEW075 13/08 A3004

2010/08/10 08:55
KCIU 100855Z AUTO 03005KT 1 3/4SM OVC002 19/19 A2996

2010/08/10 08:53
KCMX 100853Z AUTO 00000KT 8SM CLR 17/16 A2996

2010/08/10 08:54
KCOS 100854Z AUTO 06005KT 10SM CLR 17/12 A3017

2010/08/10 08:53
KCPR 100853Z AUTO 23010KT 10SM CLR 17/02 A3004

2010/08/10 08:53
KDET 100853Z 00000KT 6SM BR CLR 22/21 A2995

2010/08/10 08:55
KDLH 100855Z 00000KT 10SM CLR 19/18 A2997

2010/08/10 08:54
KDSM 100854Z 11005KT 5SM +TSRA BR FEW009 BKN075CB OVC095 23/21 A2995

2010/08/10 08:53
KELO 100853Z AUTO 00000KT 5SM BR CLR 16/16 A2996

2010/08/10 08:53
KFAR 100853Z 13003KT 10SM CLR 22/19 A2987

2010/08/10 08:53
KFNT 100853Z 00000KT 1/4SM FG 18/18 A2995

2010/08/10 08:53
KGFK 100853Z 17003KT 10SM FEW250 20/19 A2986

2010/08/10 08:53
KGRB 100853Z AUTO 00000KT 2 1/2SM BR FEW001 21/20 A2994

2010/08/10 08:53
KGRR 100853Z AUTO 18004KT 1/4SM FG VV001 20/20 A2996

2010/08/10 08:53
KICT 100853Z 15008KT 10SM FEW100 SCT200 27/21 A2988

2010/08/10 08:55
KINL 100855Z AUTO 00000KT 10SM CLR 17/17 A2993

2010/08/10 08:52
KISN 100852Z VRB04KT 10SM CLR 21/17 A2979

2010/08/10 08:54
KLEX 100854Z 16003KT 8SM CLR 24/21 A2999

2010/08/10 08:53
KMBS 100853Z 36006KT 8SM CLR 22/21 A2996

2010/08/10 08:51
KMDW 100851Z 14003KT 10SM FEW040 OVC250 26/21 A2992

2010/08/10 08:54
KMKC 100854Z 22004KT 10SM CLR 29/22 A2987

2010/08/10 08:52
KMKE 100852Z 00000KT 4SM BR FEW250 22/21 A2994

2010/08/10 08:52
KMLI 100852Z 11005KT 10SM SCT038 24/23 A2993

2010/08/10 08:54
KMOT 100854Z AUTO 11006KT 10SM CLR 20/17 A2985

2010/08/10 09:00
LJCE 100900Z 09004KT 040V170 9999 FEW030 24/18 Q1018 RMK BLU

2010/08/10 09:00
LKCV 100900Z VRB02KT 9999 FEW030 21/16 Q1018 NOSIG

2010/08/10 09:00
LKKB 100900Z VRB02KT 9999 FEW021 21/16 Q1018 NOSIG

2010/08/10 09:00
LKLN 100900Z AUTO VRB01KT CAVOK 20/16 Q1019

2010/08/10 09:00
LKNA 100900Z VRB02KT 9999 SCT041 21/12 Q1019 NOSIG

2010/08/10 09:00
LKPD 100900Z VRB01KT 9999 SCT021 21/16 Q1018 NOSIG

2010/08/10 09:00
LKPO 100900Z VRB02KT 9999 FEW024 21/15 Q1018 NOSIG

2010/08/10 09:00
LJLJ 100900Z VRB02KT 9999 SCT033 24/16 Q1018 NOSIG

2010/08/10 09:00
LJMB 100900Z 12003KT 9999 FEW041 23/18 Q1018

2010/08/10 09:00
LJPZ 100900Z VRB02KT CAVOK 27/17 Q1015

2010/08/10 09:00
LRAR 100900Z 34006KT 290V080 CAVOK 25/16 Q1018

2010/08/10 09:00
LRBM 100900Z 25006KT 190V280 9999 SCT030 25/18 Q1017

2010/08/10 09:00
LRCL 100900Z 35004KT 330V040 9999 BKN033 24/16 Q1018

2010/08/10 09:00
LROD 100900Z VRB04KT CAVOK 25/16 Q1018

2010/08/10 09:00
LRSM 100900Z VRB04KT 9999 SCT020 24/19 Q1018

2010/08/10 09:00
LRTM 100900Z VRB04KT 9999 FEW028 25/17 Q1017

2010/08/10 09:03
YSDU 100903Z AUTO 35013KT 9999NDV // ////// 14/13 Q1011

2010/08/10 09:00
BIRK 100900Z 02008KT 9999 FEW012 SCT022 BKN035 12/08 Q1013

2010/08/10 09:00
LRBC 100900Z 36012KT 330V040 CAVOK 27/20 Q1016

2010/08/10 09:00
LRCV 100900Z VRB04KT CAVOK 27/17 Q1015

2010/08/10 09:00
LRIA 100900Z 32008KT 280V350 CAVOK 27/20 Q1016

2010/08/10 09:00
LRSV 100900Z 33008KT CAVOK 23/20 Q1018

2010/08/10 09:00
LRTC 100900Z 34010KT CAVOK 31/19 Q1012

2010/08/10 08:54
KAPN 100854Z AUTO 29005KT 1/2SM FG OVC001 19/19 A2996

2010/08/10 08:52
KOMA 100852Z 14009KT 10SM FEW090 SCT250 28/24 A2985

2010/08/10 08:55
KPHN 100855Z AUTO 00000KT 1/4SM FG OVC001 17/17 A2994

2010/08/10 08:53
KPTK 100853Z 00000KT 6SM BR CLR 22/21 A2996

2010/08/10 08:53
KPUB 100853Z AUTO 00000KT 10SM FEW110 15/14 A3007

2010/08/10 08:59
KSAW 100859Z AUTO 00000KT 5SM BR CLR 17/16 A2997

2010/08/10 08:56
KSDF 100856Z 00000KT 8SM CLR 28/23 A2994

2010/08/10 08:52
KSGF 100852Z 19003KT 10SM CLR 25/23 A2994

2010/08/10 08:53
KSTP 100853Z AUTO 00000KT 9SM CLR 24/22 A2993

2010/08/10 08:54
KSUS 100854Z AUTO 00000KT 9SM CLR 26/24 A2989

2010/08/10 08:52
KTOL 100852Z 00000KT 1SM BR VV001 22/22 A2995

2010/08/10 09:02
KBFD 100902Z AUTO 00000KT 2SM BR OVC070 19/18 A3002

2010/08/10 09:02
KBGM 100902Z AUTO 00000KT 1SM BR BKN001 OVC070 20/20 A3000

2010/08/10 08:53
KBFI 100853Z 21005KT 10SM OVC017 15/12 A2995

2010/08/10 08:53
KBIL 100853Z 22007KT 10SM CLR 16/13 A2991

2010/08/10 08:53
KBKE 100853Z AUTO 25005KT 10SM BKN085 BKN110 13/11 A2990

2010/08/10 08:53
KBLI 100853Z AUTO 17005KT 10SM SCT012 BKN080 OVC100 14/12 A2993

2010/08/10 08:53
KBOI 100853Z 12007KT 10SM CLR 21/12 A2984

2010/08/10 08:53
KCLM 100853Z AUTO 31005KT 10SM OVC009 12/10 A2996

2010/08/10 08:56
KCTB 100856Z AUTO 26003KT 10SM BKN110 12/09 A2985

2010/08/10 08:56
KDUG 100856Z AUTO 10003KT 10SM CLR 21/17 A3006

2010/08/10 08:53
KFAT 100853Z 29006KT 10SM CLR 22/14 A2980

2010/08/10 08:55
KGDV 100855Z AUTO 01011KT 10SM CLR 21/15 A2979

2010/08/10 08:53
KGEG 100853Z 20009KT 10SM BKN130 OVC200 18/06 A2980

2010/08/10 08:53
KGGW 100853Z AUTO 00000KT 10SM CLR 19/17 A2977

2010/08/10 08:53
KGLH 100853Z AUTO 00000KT 10SM CLR 24/23 A2993

2010/08/10 08:55
KGPI 100855Z AUTO 30003KT 10SM FEW095 12/09 A2984

2010/08/10 08:53
KGTF 100853Z 21013KT 10SM CLR 16/08 A2985

2010/08/10 08:53
KGWO 100853Z AUTO 16003KT 5SM BR CLR 24/24 A2994

2010/08/10 08:53
KHLN 100853Z AUTO 00000KT 10SM CLR 13/10 A2993

2010/08/10 08:53
KHQM 100853Z AUTO 27003KT 9SM OVC011 13/11 A2998

2010/08/10 08:53
KHVR 100853Z AUTO 18003KT 10SM CLR 15/14 A2980

2010/08/10 08:53
KIPL 100853Z AUTO 00000KT 10SM CLR 27/03 A2973

2010/08/10 08:53
KLBB 100853Z 21005KT 10SM FEW160 19/17 A3002

2010/08/10 08:53
KMSO 100853Z AUTO 10006KT 10SM CLR 16/11 A2991

2010/08/10 08:52
KMWH 100852Z AUTO 29009KT 10SM FEW090 18/09 A2981

2010/08/10 08:56
KNUW 100856Z 00000KT 7SM FEW005 BKN010 OVC040 15/11 A2995

2010/08/10 08:53
KOLF 100853Z AUTO 12008KT 10SM FEW100 19/17 A2975

2010/08/10 08:54
KOLM 100854Z AUTO 24008KT 10SM OVC010 13/11 A2997

2010/08/10 08:54
KOLS 100854Z AUTO 00000KT 10SM CLR 20/15 A3004

2010/08/10 08:55
KOLV 100855Z AUTO 00000KT 6SM CLR 24/ A2995

2010/08/10 08:53
KPAE 100853Z AUTO 20008KT 10SM BKN080 13/12 A2995

2010/08/10 08:53
KPDX 100853Z 33004KT 10SM OVC032 15/11 A2999

2010/08/10 08:53
KPMD 100853Z AUTO 16004KT 10SM CLR 18/04 A2991

2010/08/10 08:55
KRNO 100855Z 32005KT 10SM CLR 20/04 A3000

2010/08/10 08:53
KRNT 100853Z AUTO 17006KT 10SM OVC016 14/12 A2995

2010/08/10 08:53
KSAC 100853Z 16004KT 10SM CLR 15/11 A2983

2010/08/10 08:55
KSCK 100855Z 01005KT 10SM CLR 16/12 A2983

2010/08/10 08:53
KSDM 100853Z AUTO 00000KT 9SM OVC008 17/14 A2991

2010/08/10 08:53
KSFF 100853Z AUTO 00000KT 10SM CLR 19/06 A2980

2010/08/10 08:53
KSJC 100853Z AUTO 12005KT 10SM BKN012 14/11 A2990

2010/08/10 08:53
KSLC 100853Z 14005KT 10SM CLR 18/03 A2999

2010/08/10 08:53
KSMF 100853Z 15008KT 10SM CLR 16/12 A2981

2010/08/10 08:53
KTIW 100853Z 23006KT 10SM OVC008 13/11 A2996

2010/08/10 08:53
KTUS 100853Z 14005KT 10SM CLR 27/16 A2996

2010/08/10 08:54
KACY 100854Z 23004KT 10SM CLR 24/22 A2995

2010/08/10 08:53
KAUG 100853Z AUTO 31005KT 10SM CLR 20/17 A2987

2010/08/10 08:54
KAVL 100854Z AUTO 00000KT 5SM R34/2400VP6000FT BR CLR 19/19 A3012

2010/08/10 08:53
KBGM 100853Z AUTO 00000KT 1 1/4SM BR SCT001 OVC070 20/19 A3001

2010/08/10 08:51
KBKW 100851Z AUTO 00000KT 6SM HZ CLR 19/17 A3010

2010/08/10 08:51
KCON 100851Z AUTO 00000KT 2 1/2SM BR BKN060 21/20 A2990

2010/08/10 08:52
KDCA 100852Z 19007KT 8SM BKN250 26/21 A2994

2010/08/10 08:51
KEKN 100851Z AUTO 00000KT 2 1/2SM BR SCT001 17/16 A3008

2010/08/10 08:53
KGFL 100853Z AUTO 00000KT 2 1/2SM BR OVC002 21/21 A2992

2010/08/10 08:53
KGSP 100853Z AUTO 00000KT 8SM CLR 24/22 A3002

2010/08/10 09:00
KIPJ 100900Z AUTO 00000KT 4SM BR CLR 22/21 A3003

2010/08/10 08:54
KIPT 100854Z AUTO 00000KT 8SM SCT120 22/19 A2993

2010/08/10 08:54
KLYH 100854Z AUTO 22003KT 5SM BR CLR 22/21 A3001

2010/08/10 08:53
KMHT 100853Z 00000KT 3SM R35/5500VP6000FT BR FEW080 22/21 A2988

2010/08/10 08:51
KMPV 100851Z AUTO 00000KT 1/4SM FG VV001 18/17 A2998

2010/08/10 08:55
KMYR 100855Z AUTO 00000KT 10SM SCT018 25/23 A3004

2010/08/10 08:51
KNYC 100851Z 00000KT 10SM CLR 26/18 A2994

2010/08/10 08:54
KPNE 100854Z 24003KT 10SM CLR 26/22 A2994

2010/08/10 08:54
KROA 100854Z 00000KT 9SM CLR 23/21 A3003

2010/08/10 08:53
KSMQ 100853Z AUTO 00000KT 8SM CLR 22/20 A2991

2010/08/10 08:54
KWAL 100854Z AUTO 25005KT 6SM BR CLR 24/22 A2996

2010/08/10 09:02
KEAU 100902Z AUTO 04003KT 3/4SM BR VV001 20/19 A2995

2010/08/10 08:55
KQSR 100855Z 28003KT 9999 FEW025 SCT050 OVC075 24/14 A3008 RMK AO2A SLP086 WND DATA/ALSTG ESTMD 57009

2010/08/10 08:59
KQHT 100859Z 31013G18KT 9999 SCT110 33/M04 A2984 RMK A02A SLP065 56003

2010/08/10 09:02
KOSH 100902Z AUTO 00000KT 2SM BR CLR 21/20 A2994

2010/08/10 08:53
KAAF 100853Z AUTO 05006KT 10SM FEW023 26/24 A2987

2010/08/10 08:53
KABR 100853Z AUTO 10004KT 10SM OVC031 23/22 A2986

2010/08/10 08:51
KACT 100851Z 21008KT 10SM CLR 28/23 A2990

2010/08/10 08:53
KAGS 100853Z AUTO 00000KT 4SM BR CLR 22/22 A2999

2010/08/10 08:51
KAHN 100851Z AUTO 00000KT 5SM BR CLR 22/21 A3002

2010/08/10 08:53
KALI 100853Z AUTO 20003KT 10SM CLR 26/26 A2989

2010/08/10 08:53
KAUS 100853Z 21006KT 10SM CLR 26/24 A2992

2010/08/10 09:00
KAYS 100900Z AUTO 00000KT 7SM CLR 25/24 A2996

2010/08/10 08:51
KBVE 100851Z AUTO 27004KT CLR 26/24 A2991

2010/08/10 08:55
KCAO 100855Z AUTO 24006KT 10SM OVC100 23/15 A3009

2010/08/10 08:53
KCDS 100853Z AUTO 28005KT 10SM CLR 22/19 A2994

2010/08/10 08:53
KCLL 100853Z AUTO 00000KT 10SM CLR 27/23 A2991

2010/08/10 08:53
KCNM 100853Z AUTO 18005KT 10SM CLR 20/16 A2999

2010/08/10 08:53
KCOT 100853Z AUTO 14004KT 10SM CLR 26/24 A2990

2010/08/10 08:51
KCSG 100851Z AUTO 09003KT 8SM CLR 25/19 A2997

2010/08/10 08:53
KCTY 100853Z AUTO 09003KT 24/24 A2991

2010/08/10 08:53
KDAB 100853Z 12005KT 10SM FEW020 27/24 A2993

2010/08/10 08:53
KDHT 100853Z AUTO 23004KT 10SM CLR 21/18 A3005

2010/08/10 08:53
KECP 100853Z 04005KT 8SM CLR 25/23 A2989

2010/08/10 08:53
KELD 100853Z AUTO 00000KT 10SM CLR 26/24 A2991

2010/08/10 08:51
KELP 100851Z 13010KT 10SM FEW160 25/15 A3003

2010/08/10 08:53
KESF 100853Z AUTO 00000KT 9SM CLR 24/23 A2993

2010/08/10 08:53
KFSM 100853Z AUTO 00000KT 10SM CLR 26/24 A2991

2010/08/10 08:53
KFYV 100853Z AUTO 00000KT 10SM CLR 23/22 A2997

2010/08/10 08:53
KGAG 100853Z AUTO 16007KT 10SM CLR 23/18 A2993

2010/08/10 08:51
KGDP 100851Z AUTO 00000KT 10SM CLR 23/14 A3016

2010/08/10 08:53
KHBR 100853Z AUTO 19009KT 10SM CLR 27/20 A2992

2010/08/10 08:51
KHDO 100851Z AUTO 15003KT 10SM FEW013 26/24 A2996

2010/08/10 08:53
KHOT 100853Z AUTO 00000KT 10SM CLR 28/23 A2992

2010/08/10 08:53
KHRO 100853Z AUTO 00000KT 8SM CLR 25/23 A2997

2010/08/10 08:54
KIPT 100854Z AUTO 00000KT 8SM SCT120 22/19 A2993

2010/08/10 08:54
KJAN 100854Z 00000KT 10SM CLR 24/23 A2995

2010/08/10 09:00
LPAZ 100900Z 04009KT 9999 FEW021 BKN039 21/15 Q1020

2010/08/10 09:00
LPFL 100900Z 16005KT 9999 FEW022 23/18 Q1022

2010/08/10 09:00
LPHR 100900Z 02004KT 360V130 9999 FEW016 BKN040 22/14 Q1022

2010/08/10 09:00
LPLA 100900Z 34005KT 300V360 9999 FEW020 BKN035 22/17 Q1022

2010/08/10 09:00
LPPD 100900Z 04005KT 010V110 9999 FEW022 BKN035 21/12 Q1021

2010/08/10 08:53
KJBR 100853Z AUTO 08004KT 10SM CLR 26/24 A2992

2010/08/10 08:51
KJCT 100851Z AUTO 19006KT 10SM CLR 27/22 A2997

2010/08/10 08:53
KLFK 100853Z AUTO 00000KT 10SM CLR 26/24 A2991

2010/08/10 08:53
KLFT 100853Z AUTO 00000KT 10SM FEW050 25/24 A2993

2010/08/10 08:53
KMCN 100853Z AUTO 00000KT 6SM BR CLR 23/22 A2999

2010/08/10 08:58
KMEI 100858Z AUTO 00000KT 6SM BR CLR 24/24 A2995

2010/08/10 08:53
KMLC 100853Z AUTO 00000KT 10SM CLR 24/20 A2992

2010/08/10 08:53
KMLU 100853Z AUTO A2993

2010/08/10 08:53
KMWL 100853Z AUTO 14005KT 10SM CLR 24/19 A2989

2010/08/10 08:53
KPBF 100853Z AUTO 19003KT 10SM CLR 26/24 A2993

2010/08/10 08:53
KPNC 100853Z AUTO 17006KT 10SM CLR 28/21 A2988

2010/08/10 08:53
KPSX 100853Z AUTO 24003KT 10SM CLR 29/26 A2990

2010/08/10 08:53
KPWA 100853Z AUTO 19010KT 10SM CLR 28/20 A2991

2010/08/10 08:53
KRMG 100853Z AUTO 00000KT 7SM FEW100 24/23 A2999

2010/08/10 08:53
KRSL 100853Z AUTO 17007KT 10SM CLR 24/21 A2983

2010/08/10 08:56
KSHV 100856Z 00000KT 10SM BKN290 27/23 A2991

2010/08/10 08:52
KSPS 100852Z AUTO 20008KT 10SM CLR 27/18 A2990

2010/08/10 08:53
KTLH 100853Z 07006KT 10SM FEW008 26/23 A2992

2010/08/10 08:53
KTOP 100853Z AUTO 00000KT 10SM CLR 28/21 A2987

2010/08/10 08:53
KTRI 100853Z 00000KT 6SM BR FEW060 BKN090 BKN100 23/21 A3005

2010/08/10 08:53
KTUP 100853Z AUTO 19003KT 9SM CLR 25/23 A2995

2010/08/10 08:51
KVCT 100851Z AUTO 00000KT 10SM CLR 25/24 A2991

2010/08/10 08:53
KVGT 100853Z AUTO 32003KT 10SM CLR 25/M02 A2984

2010/08/10 08:58
KVUJ 100858Z AUTO 00000KT 5SM BKN095 22/21 A3000

2010/08/10 08:55
KWRB 100855Z AUTO 00000KT 10SM CLR 23/23 A2999

2010/08/10 08:53
KAIA 100853Z AUTO 22004KT 10SM CLR 16/15 A2996

2010/08/10 08:54
KALO 100854Z 00000KT 8SM BKN050 24/24 A2995

2010/08/10 08:52
KALS 100852Z AUTO 29004KT 10SM CLR 08/06 A3029

2010/08/10 08:50
KANW 100850Z AUTO 03008KT 10SM -RA SCT045 SCT050 SCT120 19/18 A2987

2010/08/10 08:53
KBBW 100853Z AUTO 00000KT 10SM CLR 20/18 A2989

2010/08/10 08:53
KBFF 100853Z AUTO 11005KT 10SM CLR 17/16 A2998

2010/08/10 08:50
KBIE 100850Z AUTO 16005KT 10SM CLR 27/22 A2985

2010/08/10 08:52
KBIS 100852Z AUTO 15006KT 10SM CLR 22/19 A2983

2010/08/10 08:53
KBPI 100853Z AUTO 30003KT 10SM CLR 04/03 A3020

2010/08/10 08:53
KBRL 100853Z AUTO 09003KT 10SM CLR 26/24 A2992

2010/08/10 08:53
KCAG 100853Z AUTO 00000KT 10SM CLR 07/06 A3019

2010/08/10 08:53
KCGI 100853Z AUTO 00000KT 9SM CLR 26/24 A2991

2010/08/10 08:52
KCID 100852Z AUTO 22008KT 6SM BR BKN016 BKN023 BKN031 24/23 A2997

2010/08/10 08:55
KCNK 100855Z AUTO 19012KT 10SM CLR 28/21 A2985

2010/08/10 08:52
KCNU 100852Z AUTO 18006KT 10SM CLR 26/21 A2990

2010/08/10 08:54
KCOU 100854Z AUTO 19003KT 9SM CLR 26/24 A2992

2010/08/10 08:53
KCYS 100853Z AUTO 24005KT 10SM CLR 12/11 A3012

2010/08/10 08:53
KDBQ 100853Z AUTO 00000KT 5SM R36/3000VP6000FT BR FEW031 23/22 A2997

2010/08/10 08:52
KDDC 100852Z AUTO 30010G17KT 10SM CLR 23/18 A2992

2010/08/10 08:55
KDVL 100855Z AUTO 10007KT 10SM CLR 22/18 A2987

2010/08/10 08:55
KEAR 100855Z AUTO 36008KT 10SM CLR 21/18 A2992

2010/08/10 08:54
KEVV 100854Z AUTO 00000KT 7SM CLR 25/23 A2993

2010/08/10 08:53
KFNB 100853Z AUTO 20006KT 10SM CLR 26/22 A2986

2010/08/10 08:56
KFSD 100856Z 13006KT 10SM OVC016 25/23 A2985

2010/08/10 08:54
KFWA 100854Z 00000KT 1/4SM FG SCT036 23/22 A2996

2010/08/10 08:53
KGCC 100853Z AUTO 00000KT 10SM CLR 13/11 A2993

2010/08/10 08:54
KGCK 100854Z 00000KT 10SM CLR 23/18 A2996

2010/08/10 08:53
KGJT 100853Z AUTO 10011KT 10SM CLR 18/04 A3009

2010/08/10 08:53
KGLD 100853Z AUTO 33003KT 10SM BKN120 19/18 A3001

2010/08/10 08:55
KGPZ 100855Z AUTO 00000KT 2SM CLR 18/17 A2997

2010/08/10 09:05
K2W6 100905Z AUTO 22005KT 10SM CLR 24/21 A2996 RMK AO1

2010/08/10 09:05
K2G4 100905Z AUTO 25005KT 10SM CLR 20/15 A3009 RMK AO1

2010/08/10 08:53
KGRI 100853Z AUTO 33014G22KT 10SM CLR 23/18 A2989

2010/08/10 08:55
KHON 100855Z AUTO 15004KT 9SM FEW013 BKN036 24/23 A2984

2010/08/10 08:53
KHSI 100853Z AUTO 33012G19KT 10SM FEW095 23/19 A2989

2010/08/10 08:53
KHTL 100853Z AUTO 33003KT 3SM BR OVC003 21/21 A2999

2010/08/10 08:53
KIML 100853Z AUTO 29008KT 10SM SCT060 OVC110 19/17 A2997

2010/08/10 08:55
KIRK 100855Z AUTO 00000KT 9SM CLR 27/25 A2994

2010/08/10 08:55
KJAC 100855Z 00000KT 10SM CLR 07/04 A3016

2010/08/10 08:53
KJKL 100853Z AUTO 00000KT 7SM CLR 23/21 A3002

2010/08/10 08:53
KJLN 100853Z AUTO 19006KT 10SM FEW060 25/21 A2994

2010/08/10 08:59
KJNX 100859Z AUTO 00000KT 10SM SCT009 22/22 A3000

2010/08/10 08:53
KLAN 100853Z 00000KT 3SM BR MIFG CLR 19/19 A2997

2010/08/10 08:53
KLBF 100853Z AUTO 23004KT 10SM FEW100 19/19 A2994

2010/08/10 08:53
KLND 100853Z AUTO 35009KT 10SM CLR 17/03 A3005

2010/08/10 08:54
KLNK 100854Z 18005KT 10SM CLR 25/22 A2985

2010/08/10 08:53
KLXV 100853Z AUTO 00000KT 10SM CLR 04/04 A3044

2010/08/10 08:53
KMCK 100853Z AUTO 00000KT 10SM FEW070 21/19 A2994

2010/08/10 08:53
KMCW 100853Z AUTO 12005KT 5SM BR BKN042 24/23 A2996

2010/08/10 08:52
KMFD 100852Z AUTO 25005KT 6SM HZ CLR 23/19 A2999

2010/08/10 08:52
KMHK 100852Z AUTO 00000KT 9SM CLR 28/21 A2984

2010/08/10 08:55
KMKG 100855Z 00000KT 2SM BR SCT002 21/20 A2995

2010/08/10 08:53
KMSN 100853Z 00000KT 2 1/2SM BR CLR 22/21 A2996

2010/08/10 08:53
KODX 100853Z AUTO 35005KT 10SM FEW095 20/19 A2988

2010/08/10 08:50
KONL 100850Z AUTO 28012G17KT 10SM -VCTSRA SCT100 BKN120 21/19 A2990

2010/08/10 08:51
KOTM 100851Z AUTO 32012KT 2SM +TSRA BR SCT022 BKN050 OVC060 22/21 A3001

2010/08/10 08:53
KPAH 100853Z AUTO 00000KT 7SM CLR 26/24 A2992

2010/08/10 08:53
KPKD 100853Z AUTO 11003KT 10SM CLR 21/19 A2993

2010/08/10 08:52
KRAP 100852Z AUTO 15009KT 10SM CLR 19/17 A2985

2010/08/10 08:54
KRFD 100854Z 15003KT 10SM FEW180 24/22 A2997

2010/08/10 08:53
KRIW 100853Z AUTO 23004KT 10SM CLR 16/04 A3007

2010/08/10 08:54
KRST 100854Z AUTO 13004KT 5SM BR CLR 22/21 A2997

2010/08/10 08:53
KSHR 100853Z AUTO 21005KT 10SM CLR 12/11 A2992

2010/08/10 08:53
KSLN 100853Z 18007KT 10SM CLR 28/21 A2984

2010/08/10 08:52
KSPI 100852Z AUTO 12004KT 10SM CLR 25/22 A2993

2010/08/10 08:53
KSTC 100853Z AUTO 00000KT 7SM CLR 21/19 A2992

2010/08/10 08:52
KSUX 100852Z 10005KT 9SM OVC012 26/24 A2984

2010/08/10 08:53
KTCS 100853Z AUTO 30004KT 10SM CLR 22/11 A3007

2010/08/10 09:01
KTDF 100901Z AUTO 00000KT 22/22 A3002

2010/08/10 08:55
KUDG 100855Z 00000KT 3SM CLR 23/22 A3003

2010/08/10 08:54
KUIN 100854Z AUTO 21003KT 9SM CLR 26/24 A2992

2010/08/10 08:53
KVIH 100853Z AUTO 20007KT 10SM CLR 26/23 A2993

2010/08/10 08:52
KVTN 100852Z AUTO 29009KT 10SM -RA FEW025 19/18 A2988

2010/08/10 08:51
KYNG 100851Z 24004KT 9SM BKN041 BKN060 OVC110 23/18 A2996

2010/08/10 08:54
KSBN 100854Z 00000KT 7SM BKN043 22/21 A2995

2010/08/10 09:02
PATK 100902Z AUTO 18007KT 7SM -RA FEW009 BKN012 OVC032 12/11 A2977

2010/08/10 08:55
KAST 100855Z AUTO 23003KT 10SM OVC018 13/12 A3000

2010/08/10 08:54
KBFL 100854Z AUTO 29003KT 10SM CLR 23/06 A2982

2010/08/10 08:52
KBLU 100852Z AUTO 00000KT 10SM CLR 17/06 A3008

2010/08/10 08:56
KBZN 100856Z AUTO 14006KT 10SM CLR 12/09 A2998

2010/08/10 08:53
KCNY 100853Z AUTO 00000KT 10SM CLR 18/01 A3004

2010/08/10 08:52
KCZZ 100852Z AUTO 04005KT 09/04 A2993

2010/08/10 08:55
KDRA 100855Z AUTO 09007KT 10SM CLR 21/M08 A2991

2010/08/10 08:53
KELY 100853Z AUTO 20009KT 10SM CLR 14/M04 A3013

2010/08/10 08:54
KEUG 100854Z 00000KT 10SM FEW040 11/09 A2999

2010/08/10 08:56
KFLG 100856Z AUTO 00000KT 10SM FEW075 09/07 A3027

2010/08/10 08:50
KHMS 100850Z 29012KT 15SM FEW250 19/08 A2981

2010/08/10 08:56
KINW 100856Z AUTO 00000KT 10SM SCT095 19/09 A3012

2010/08/10 08:59
KJNX 100859Z AUTO 00000KT 10SM SCT009 22/22 A3000

2010/08/10 08:53
KLGB 100853Z AUTO 35003KT 8SM BKN010 16/13 A2990

2010/08/10 08:56
KLWS 100856Z AUTO 15003KT 10SM CLR 17/03 A2980

2010/08/10 08:53
KMFR 100853Z AUTO 02006KT 10SM CLR 17/08 A2992

2010/08/10 08:56
KMHS 100856Z AUTO 00000KT 10SM CLR 13/09 A2996

2010/08/10 08:56
KNUQ 100856Z AUTO 00000KT 10SM OVC008 15/13 A2990

2010/08/10 08:54
KOLM 100854Z AUTO 24008KT 10SM OVC010 13/11 A2997

2010/08/10 08:53
KPDT 100853Z AUTO 21005KT 10SM CLR 16/07 A2988

2010/08/10 08:53
KPGA 100853Z AUTO 21003KT 10SM SCT110 23/03 A3004

2010/08/10 08:53
KPIH 100853Z AUTO 01004KT 10SM CLR 12/09 A3000

2010/08/10 08:53
KPUC 100853Z AUTO 00000KT 10SM CLR 15/M02 A3014

2010/08/10 08:54
KRBL 100854Z AUTO 18006KT 10SM CLR 22/13 A2983

2010/08/10 08:53
KRDD 100853Z AUTO 00000KT 10SM CLR 22/09 A2982

2010/08/10 08:52
KSDB 100852Z AUTO 20005KT 10SM CLR 17/M02 A3003

2010/08/10 08:53
KSHN 100853Z AUTO 23008KT 5SM BR BKN007 OVC012 12/11 A2994

2010/08/10 08:54
KSJN 100854Z AUTO 20005KT 10SM CLR 16/11 A3018

2010/08/10 08:56
KBIH 100856Z AUTO 36006KT 10SM CLR 16/M06 A2995

2010/08/10 08:56
KMEH 100856Z AUTO 00000KT 10SM CLR 07/03 A2994

2010/08/10 08:52
KMLF 100852Z AUTO 23010KT 10SM CLR 15/M02 A3006

2010/08/10 08:56
KSMP 100856Z AUTO VRB05KT 1/4SM FG SCT001 BKN008 OVC022 08/08 A2997

2010/08/10 08:53
KUIL 100853Z AUTO 18003KT 2SM BR BKN001 OVC013 12/11 A2997

2010/08/10 08:53
KSLC 100853Z 14005KT 10SM CLR 18/03 A2999

2010/08/10 08:51
KSMX 100851Z AUTO 00000KT 8SM OVC004 12/11 A2992

2010/08/10 08:50
KSOW 100850Z AUTO 00000KT 10SM CLR 15/09 A3026

2010/08/10 08:50
KTRK 100850Z AUTO 00000KT 10SM CLR 07/04 A3011

2010/08/10 08:56
KWMC 100856Z AUTO 00000KT 10SM CLR 13/M01 A2995

2010/08/10 08:53
KYKM 100853Z AUTO 33012KT 10SM CLR 18/08 A2985

2010/08/10 09:00
WBKK 100900Z 33004KT 9999 FEW014 FEW017CB SCT140 BKN270 31/25 Q1007 NOSIG

2010/08/10 09:00
WMKJ 100900Z 19004KT 9999 FEW018 BKN280 32/25 Q1006

2010/08/10 09:00
WMKK 100900Z 15004KT 9999 FEW030 SCT140 BKN270 31/26 Q1005 NOSIG

2010/08/10 09:00
WMKP 100900Z 22007KT 9000 FEW020 BKN140 BKN270 31/26 Q1005 NOSIG

2010/08/10 09:00
WMSA 100900Z 15006KT 9999 FEW020 BKN140 33/25 Q1006 NOSIG

2010/08/10 08:51
KABE 100851Z 05004KT 8SM CLR 23/21 A2994

2010/08/10 08:53
KACK 100853Z AUTO 00000KT 6SM -RA BR BKN055 BKN070 23/22 A2992

2010/08/10 08:54
KACY 100854Z 23004KT 10SM CLR 24/22 A2995

2010/08/10 08:53
KAGC 100853Z 17005KT 7SM CLR 21/19 A2999

2010/08/10 08:53
KAGS 100853Z AUTO 00000KT 4SM BR CLR 22/22 A2999

2010/08/10 08:54
KAKR 100854Z AUTO 25003KT 9SM CLR 23/19 A2997

2010/08/10 08:51
KALB 100851Z 21003KT 2SM BR SCT019 SCT055 BKN080 21/21 A2994

2010/08/10 08:56
KAND 100856Z AUTO 00000KT 8SM CLR 24/21 A3002

2010/08/10 08:53
KAOO 100853Z AUTO 25003KT 8SM OVC120 22/18 A3001

2010/08/10 08:56
KART 100856Z AUTO 00000KT 4SM BR OVC013 21/20 A2992

2010/08/10 08:54
KAVL 100854Z AUTO 00000KT 5SM R34/2400VP6000FT BR CLR 19/19 A3012

2010/08/10 08:54
KAVP 100854Z 00000KT 10SM FEW075 23/19 A2997

2010/08/10 08:53
KBAF 100853Z 00000KT 3SM BR CLR 22/21 A2992

2010/08/10 08:51
KBDL 100851Z 00000KT 3SM BR FEW004 BKN090 OVC200 22/21 A2992

2010/08/10 08:52
KBDR 100852Z AUTO 04003KT 10SM FEW055 26/18 A2992

2010/08/10 08:56
KBED 100856Z AUTO 24005KT 4SM BR OVC110 22/21 A2988

2010/08/10 08:53
KBFD 100853Z AUTO 00000KT 3SM BR OVC070 19/18 A3001

2010/08/10 08:53
KBGM 100853Z AUTO 00000KT 1 1/4SM BR SCT001 OVC070 20/19 A3001

2010/08/10 08:53
KBGR 100853Z 00000KT 9SM FEW100 18/18 A2985

2010/08/10 08:53
KBKL 100853Z 26006KT 7SM CLR 26/21 A2993

2010/08/10 08:51
KBKW 100851Z AUTO 00000KT 6SM HZ CLR 19/17 A3010

2010/08/10 08:54
KBOS 100854Z 20007KT 3SM BR FEW040 BKN110 OVC200 21/21 A2989

2010/08/10 08:54
KBTV 100854Z 00000KT 1/4SM FG VV001 17/17 A2991

2010/08/10 08:54
KBUF 100854Z 13003KT 3SM BR FEW038 BKN055 OVC075 21/20 A2994

2010/08/10 08:53
KBVY 100853Z AUTO 00000KT 4SM BR CLR 22/21 A2988

2010/08/10 08:54
KBWI 100854Z 23005KT 8SM FEW250 24/21 A2992

2010/08/10 08:56
KCAE 100856Z 00000KT 6SM BR CLR 25/23 A3000

2010/08/10 08:51
KCAK 100851Z 25003KT 8SM SCT070 OVC100 24/19 A2997

2010/08/10 08:54
KCAR 100854Z AUTO 00000KT 1SM BR VV002 14/14 A2981

2010/08/10 08:55
KCEF 100855Z AUTO 22003KT 9SM BKN065 21/21 A2991

2010/08/10 08:53
KCHO 100853Z AUTO 19003KT 6SM BR CLR 23/21 A2996

2010/08/10 08:56
KCHS 100856Z 14003KT 10SM FEW025 27/25 A3000

2010/08/10 08:53
KCKB 100853Z AUTO 00000KT 1 1/4SM BR CLR 18/18 A3002

2010/08/10 08:51
KCLE 100851Z COR 25004KT 6SM BR FEW055 SCT250 23/21 A2996

2010/08/10 08:51
KCLE 100851Z 25004KT 6SM BR FEW250 23/21 A2996

2010/08/10 08:52
KCLT 100852Z 00000KT 8SM CLR 24/22 A3002

2010/08/10 08:51
KCMH 100851Z 00000KT 10SM FEW075 SCT150 24/21 A2997

2010/08/10 08:54
KCRW 100854Z 00000KT 4SM BR FEW001 21/19 A3000

2010/08/10 08:52
KCVG 100852Z 00000KT 7SM BKN120 24/22 A2997

2010/08/10 08:53
KDAN 100853Z AUTO 22003KT 5SM BR CLR 23/21 A3000

2010/08/10 08:56
KDAY 100856Z 24003KT 7SM CLR 24/20 A2999

2010/08/10 08:52
KDCA 100852Z 19007KT 8SM BKN250 26/21 A2994

2010/08/10 08:56
KDUJ 100856Z AUTO 00000KT 8SM OVC110 21/18 A3000

2010/08/10 08:54
KECG 100854Z AUTO 25004KT 9SM CLR 23/23 A2999

2010/08/10 08:51
KEKN 100851Z AUTO 00000KT 2 1/2SM BR SCT001 17/16 A3008

2010/08/10 08:53
KELM 100853Z AUTO 08003KT 5SM BR OVC070 21/20 A2995

2010/08/10 08:51
KERI 100851Z 16003KT 5SM HZ BKN050 BKN060 23/21 A2994

2010/08/10 08:53
KEWB 100853Z AUTO 00000KT 4SM BR SCT090 BKN120 22/21 A2991

2010/08/10 08:54
KEWN 100854Z AUTO 00000KT 10SM CLR 24/23 A3001

2010/08/10 08:51
KEWR 100851Z 25004KT 10SM FEW050 BKN150 OVC250 27/18 A2991

2010/08/10 08:53
KFAY 100853Z AUTO 22003KT 10SM OVC003 24/23 A3000

2010/08/10 08:53
KFLO 100853Z AUTO 00000KT 10SM CLR 24/24 A3000

2010/08/10 08:53
KFRG 100853Z AUTO 25004KT 10SM FEW055 25/20 A2992

2010/08/10 08:53
KFVE 100853Z AUTO 32005KT 5SM BR CLR 15/14 A2983

2010/08/10 08:53
KGFL 100853Z AUTO 00000KT 2 1/2SM BR OVC002 21/21 A2992

2010/08/10 08:56
KGON 100856Z AUTO 00000KT 10SM SCT065 BKN120 23/20 A2992

2010/08/10 08:54
KGSO 100854Z 21004KT 7SM CLR 24/21 A3003

2010/08/10 08:53
KGSP 100853Z AUTO 00000KT 8SM CLR 24/22 A3002

2010/08/10 08:53
KHFD 100853Z AUTO 14003KT 4SM -RA BR FEW033 SCT075 OVC095 23/22 A2991

2010/08/10 08:53
KHKY 100853Z AUTO 00000KT 7SM CLR 24/22 A3004

2010/08/10 08:56
KHPN 100856Z 00000KT 7SM -RA SCT040 BKN110 23/19 A2993

2010/08/10 09:05
KCBE 100905Z AUTO 00000KT 7SM CLR 20/20 A3002 RMK AO1

2010/08/10 09:05
KCGS 100905Z AUTO 00000KT 10SM CLR 26/22 A2994 RMK AO1

2010/08/10 09:03
KCGE 100903Z AUTO 00000KT 10SM CLR 25/24 A2995 RMK AO1

2010/08/10 09:09
KESN 100909Z AUTO 20003KT 10SM CLR 24/23 A2997 RMK AO2

2010/08/10 09:05
KFDK 100905Z AUTO 20003KT 5SM BR CLR 23/22 A2996 RMK AO2

2010/08/10 09:04
KDMW 100904Z AUTO 22003KT 7SM CLR 24/22 A2996 RMK AO2

2010/08/10 08:51
KHTS 100851Z 00000KT 2 1/2SM BR CLR 21/20 A2998

2010/08/10 08:53
KHVN 100853Z AUTO 00000KT 9SM SCT060 SCT085 BKN120 24/20 A2993

2010/08/10 08:56
KHYA 100856Z AUTO 00000KT 4SM BR FEW085 21/21 A2991

2010/08/10 08:52
KIAD 100852Z 18004KT 6SM HZ CLR 24/21 A2994

2010/08/10 08:53
KIAG 100853Z AUTO 00000KT 2 1/2SM BR FEW043 OVC055 22/21 A2993

2010/08/10 08:51
KILG 100851Z 17003KT 9SM FEW080 24/22 A2993

2010/08/10 08:53
KILM 100853Z AUTO 20003KT 10SM CLR 26/24 A3000

2010/08/10 08:54
KINT 100854Z AUTO 23003KT 10SM CLR 25/21 A3004

2010/08/10 08:54
KIPT 100854Z AUTO 00000KT 8SM SCT120 22/19 A2993

2010/08/10 08:56
KISP 100856Z 34004KT 10SM BKN140 OVC250 24/18 A2991

2010/08/10 08:51
KJFK 100851Z 25006KT 9SM FEW060 BKN140 OVC250 25/20 A2992

2010/08/10 08:54
KJST 100854Z AUTO 25005KT 9SM OVC100 21/16 A3004

2010/08/10 08:55
KLCK 100855Z AUTO 00000KT 5SM BR CLR 23/21 A2997

2010/08/10 08:53
KLEB 100853Z AUTO 03003KT 3SM BR OVC001 21/19 A2991

2010/08/10 08:51
KLGA 100851Z 25005KT 10SM BKN140 OVC250 28/18 A2991

2010/08/10 08:53
KLUK 100853Z AUTO 00000KT 3SM R21L/2400VP6000FT BR CLR 23/22 A2996

2010/08/10 08:54
KLWM 100854Z AUTO 23004KT 4SM BR CLR 23/21 A2990

2010/08/10 08:54
KLYH 100854Z AUTO 22003KT 5SM BR CLR 22/21 A3001

2010/08/10 08:56
KMDT 100856Z 00000KT 6SM HZ BKN150 26/22 A2991

2010/08/10 08:52
KMFD 100852Z AUTO 25005KT 6SM HZ CLR 23/19 A2999

2010/08/10 08:53
KMGW 100853Z AUTO 00000KT 4SM BR CLR 19/18 A3002

2010/08/10 08:53
KMHT 100853Z 00000KT 3SM R35/5500VP6000FT BR FEW080 22/21 A2988

2010/08/10 08:54
KMIV 100854Z AUTO 00000KT 8SM CLR 24/22 A2992

2010/08/10 08:53
KMRB 100853Z AUTO 22004KT 8SM CLR 23/18 A2996

2010/08/10 08:53
KMSS 100853Z AUTO 22004KT 10SM OVC004 22/21 A2992

2010/08/10 08:55
KMYR 100855Z AUTO 00000KT 10SM SCT018 25/23 A3004

2010/08/10 08:54
KNKT 100854Z AUTO 22003KT 10SM CLR 24/24 A3001

2010/08/10 08:51
KORF 100851Z 22007KT 10SM CLR 25/23 A2997

2010/08/10 08:54
KORH 100854Z AUTO 27007KT 8SM OVC060 21/20 A2994

2010/08/10 08:54
KPHF 100854Z 26004KT 10SM CLR 25/24 A2997

2010/08/10 08:54
KPHL 100854Z 20005KT 10SM SCT150 BKN200 26/21 A2992

2010/08/10 08:51
KPIT 100851Z 00000KT 7SM BKN050 OVC100 22/18 A2998

2010/08/10 08:53
KPKB 100853Z AUTO 00000KT 3SM BR CLR 20/19 A3001

2010/08/10 08:53
KPOU 100853Z 00000KT 5SM BR OVC095 22/21 A2991

2010/08/10 08:55
KPQI 100855Z AUTO 00000KT 5SM CLR 13/12 A2980

2010/08/10 08:55
KPSM 100855Z 26004KT 3SM BR FEW045 BKN140 21/21 A2987

2010/08/10 08:51
KPVD 100851Z 23003KT 8SM -RA FEW031 SCT090 SCT120 OVC150 22/20 A2992

2010/08/10 08:51
KPWM 100851Z 30003KT 10SM FEW085 21/19 A2987

2010/08/10 08:54
KRDG 100854Z AUTO 00000KT CLR 25/20 A2992

2010/08/10 08:51
KRDU 100851Z 23003KT 8SM FEW150 SCT250 24/22 A3001

2010/08/10 08:54
KRIC 100854Z 25006KT 10SM SCT060 26/21 A2996

2010/08/10 08:54
KROA 100854Z 00000KT 9SM CLR 23/21 A3003

2010/08/10 08:54
KROC 100854Z 23003KT 2 1/2SM BR FEW060 OVC080 21/20 A2994

2010/08/10 08:53
KRWI 100853Z AUTO 00000KT 8SM CLR 23/22 A3000

2010/08/10 08:53
KSAV 100853Z 00000KT 10SM FEW019 25/23 A2998

2010/08/10 08:54
KSBY 100854Z AUTO 00000KT 6SM BR CLR 23/22 A2995

2010/08/10 08:51
KSLK 100851Z AUTO 00000KT 2SM BR BKN020 BKN047 19/18 A2996

2010/08/10 08:54
KSYR 100854Z 00000KT 4SM BR OVC044 22/21 A2993

2010/08/10 08:51
KTEB 100851Z 15003KT 9SM -RA CLR 26/19 A2991

2010/08/10 08:52
KTOL 100852Z 00000KT 1SM BR VV001 22/22 A2995

2010/08/10 08:53
KTTN 100853Z AUTO 00000KT 8SM SCT065 SCT080 25/21 A2992

2010/08/10 08:55
KWRI 100855Z AUTO 24003KT 9SM FEW070 23/22 A2991

2010/08/10 08:51
KYNG 100851Z 24004KT 9SM BKN041 BKN060 OVC110 23/18 A2996

2010/08/10 08:53
KZZV 100853Z AUTO 00000KT 7SM OVC090 21/19 A2997

2010/08/10 09:00
TLPL 100900Z 16006KT 9999 SCT021 28/25 Q1013

2010/08/10 09:00
RJFR 100900Z 11024KT 9999 FEW025 BKN150 BKN/// 29/24 Q1008

2010/08/10 09:00
RJAA 100900Z 17009KT 9999 FEW025 SCT120 BKN/// 27/23 Q1014 NOSIG

2010/08/10 09:00
RJBB 100900Z 21010KT 9999 FEW015 SCT100 BKN120 29/24 Q1013 NOSIG

2010/08/10 09:00
RJTT 100900Z 19013KT 9999 FEW015 BKN/// 29/23 Q1014

2010/08/10 09:00
RJOO 100900Z VRB03KT 9999 -SHRA FEW008 SCT025 FEW025CB BKN040 29/22 Q1013

2010/08/10 09:00
RJFF 100900Z 16014KT 9999 FEW025 BKN160 BKN/// 33/21 Q1006

2010/08/10 09:00
RJGG 100900Z 15008KT 9999 -SHRA FEW010 SCT020 BKN070 27/25 Q1013 NOSIG

2010/08/10 09:00
RJFK 100900Z 14012KT 9999 FEW005 SCT025 BKN035 27/24 Q1011

2010/08/10 09:00
RJFU 100900Z 14020KT 9999 -SHRA FEW015 SCT025 BKN040 28/25 Q1007

2010/08/10 09:00
RJCH 100900Z 14005KT 9999 FEW003 24/23 Q1013

2010/08/10 09:00
RJNS 100900Z 20003KT 140V300 9999 FEW002 BKN/// 27/24 Q1015

2010/08/10 09:00
RJAA 100900Z 17009KT 9999 FEW025 SCT120 BKN/// 27/23 Q1014 NOSIG

2010/08/10 09:00
RJBB 100900Z 21010KT 9999 FEW015 SCT100 BKN120 29/24 Q1013 NOSIG

2010/08/10 09:00
RJTT 100900Z 19013KT 9999 FEW015 BKN/// 29/23 Q1014

2010/08/10 09:00
RJOO 100900Z VRB03KT 9999 -SHRA FEW008 SCT025 FEW025CB BKN040 29/22 Q1013

2010/08/10 09:00
ROAH 100900Z 20009KT 150V230 9999 SCT012 SCT100 BKN150 29/27 Q1008

2010/08/10 09:00
RJGG 100900Z 15008KT 9999 -SHRA FEW010 SCT020 BKN070 27/25 Q1013 NOSIG

2010/08/10 09:00
RJAA 100900Z 17009KT 9999 FEW025 SCT120 BKN/// 27/23 Q1014 NOSIG

2010/08/10 09:00
RJBB 100900Z 21010KT 9999 FEW015 SCT100 BKN120 29/24 Q1013 NOSIG

2010/08/10 09:00
RJTT 100900Z 19013KT 9999 FEW015 BKN/// 29/23 Q1014

2010/08/10 09:00
RJOO 100900Z VRB03KT 9999 -SHRA FEW008 SCT025 FEW025CB BKN040 29/22 Q1013

2010/08/10 09:00
RJGG 100900Z 15008KT 9999 -SHRA FEW010 SCT020 BKN070 27/25 Q1013 NOSIG

2010/08/10 09:00
RJSN 100900Z 33005KT 9999 FEW030 SCT/// BKN/// 30/24 Q1012

2010/08/10 09:00
RJCH 100900Z 14005KT 9999 FEW003 24/23 Q1013

2010/08/10 09:00
RJSA 100900Z 36004KT 330V030 9999 FEW035 SCT110 BKN/// 26/23 Q1014

2010/08/10 09:00
RJSF 100900Z 18009KT 9999 FEW025 BKN/// 27/23 Q1015

2010/08/10 09:00
RJFF 100900Z 16014KT 9999 FEW025 BKN160 BKN/// 33/21 Q1006

2010/08/10 09:00
RJCC 100900Z 16010KT 1800 -DZ BR FEW001 BKN002 BKN003 22/20 Q1013

2010/08/10 09:00
RJFK 100900Z 14012KT 9999 FEW005 SCT025 BKN035 27/24 Q1011

2010/08/10 09:00
RJSN 100900Z 33005KT 9999 FEW030 SCT/// BKN/// 30/24 Q1012

2010/08/10 09:00
RJFT 100900Z 14007KT 100V180 9999 FEW015 SCT060 BKN/// 30/21 Q1009

2010/08/10 09:00
RJFU 100900Z 14020KT 9999 -SHRA FEW015 SCT025 BKN040 28/25 Q1007

2010/08/10 09:00
RJCH 100900Z 14005KT 9999 FEW003 24/23 Q1013

2010/08/10 09:00
RJSS 100900Z 16007KT 9999 FEW015 BKN/// 27/24 Q1012

2010/08/10 09:00
RJOA 100900Z 15003KT 120V180 9999 FEW025 SCT045 BKN120 28/23 Q1014

2010/08/10 09:00
RJOB 100900Z 11007KT 9999 FEW025 SCT150 BKN/// 29/23 Q1013

2010/08/10 09:00
RJOT 100900Z VRB02KT 9999 FEW020CB SCT100 27/23 Q1013

2010/08/10 09:00
RJFO 100900Z 14016KT 9999 FEW015 BKN060 BKN180 26/25 Q1010

2010/08/10 09:00
MGGT 100900Z 36006KT 9999 SCT016 18/16 Q1023 A3021 VOL/ PACAYA EN ACTI VIDAD NOSIG

2010/08/10 09:00
MKJS 100900Z 00000KT 9999 FEW024 BKN220 27/23 Q1012

2010/08/10 08:55
MMMY 100855Z 07006KT 10SM SKC 24/22 A2989 RMK SLP106 58039 901

2010/08/10 09:00
MZBZ 100900Z 00000KT 9999 CAVOK 28/26 A2983 NOSIG

2010/08/10 08:57
PTRO 100857Z 16006KT 15SM SCT016CB BKN120 BKN300 29/24 A2988 RMK CB VC SW-W

2010/08/10 09:00
RJAA 100900Z 17009KT 9999 FEW025 SCT120 BKN/// 27/23 Q1014 NOSIG

2010/08/10 09:00
RJCC 100900Z 16010KT 1800 -DZ BR FEW001 BKN002 BKN003 22/20 Q1013 RMK 1ST001 5ST002 7ST003 A2993

2010/08/10 09:00
RJFF 100900Z 16014KT 9999 FEW025 BKN160 BKN/// 33/21 Q1006

2010/08/10 09:00
RJFK 100900Z 14012KT 9999 FEW005 SCT025 BKN035 27/24 Q1011

2010/08/10 09:00
RJOO 100900Z VRB03KT 9999 -SHRA FEW008 SCT025 FEW025CB BKN040 29/22 Q1013 RMK 1ST008 3CU025 1CB025 5CU040 A2993 CB 20KM N MOV E

2010/08/10 09:00
RJTT 100900Z 19013KT 9999 FEW015 BKN/// 29/23 Q1014 RMK 1CU015 A2995

2010/08/10 09:00
RKSS 100900Z 04008KT 020V120 6000 -TSRA FEW010CB BKN025 OVC080 25/23 Q1006 NOSIG RMK TS S MOV SW OCNL LTGICCC

2010/08/10 09:00
ROAH 100900Z 20009KT 150V230 9999 SCT012 SCT100 BKN150 29/27 Q1008 RMK 3CU012 3AC100 6AC150 A2979

2010/08/10 09:00
SVMG 100900Z 00000KT 9999 FEW010 BKN080 27/25 Q1012 NOSIG

2010/08/10 09:00
ZGGG 100900Z 16004MPS 130V190 9999 FEW040 36/22 Q1003 NOSIG

2010/08/10 08:52
KABI 100852Z 17005KT 10SM CLR 27/18 A2996

2010/08/10 08:56
KABQ 100856Z 00000KT 10SM FEW110 22/08 A3014

2010/08/10 08:53
KABY 100853Z 07005KT 10SM CLR 25/23 A2997

2010/08/10 08:51
KACT 100851Z 21008KT 10SM CLR 28/23 A2990

2010/08/10 08:53
KAEX 100853Z 00000KT 10SM FEW060 26/24 A2991

2010/08/10 08:53
KAFW 100853Z 23003KT 10SM CLR 28/20 A2988

2010/08/10 08:51
KAHN 100851Z AUTO 00000KT 5SM BR CLR 22/21 A3002

2010/08/10 08:53
KALI 100853Z AUTO 20003KT 10SM CLR 26/26 A2989

2010/08/10 08:53
KAMA 100853Z AUTO 18008KT 10SM CLR 21/17 A3004

2010/08/10 08:53
KANB 100853Z AUTO 00000KT 6SM HZ BKN085 24/22 A2999

2010/08/10 08:53
KAPF 100853Z AUTO 08008KT 10SM BKN008 BKN035 OVC050 25/24 A2984

2010/08/10 08:52
KATL 100852Z 00000KT 9SM FEW250 26/21 A3001

2010/08/10 08:53
KAUS 100853Z 21006KT 10SM CLR 26/24 A2992

2010/08/10 08:53
KBFM 100853Z 33004KT 7SM CLR 26/24 A2993

2010/08/10 08:53
KBHM 100853Z 00000KT 8SM CLR 27/23 A2999

2010/08/10 08:53
KBNA 100853Z 00000KT 8SM CLR 26/24 A2997

2010/08/10 08:53
KBPT 100853Z AUTO 27003KT 10SM CLR 26/24 A2990

2010/08/10 09:00
KBQK 100900Z AUTO 12004KT 10SM CLR 27/25 A2996

2010/08/10 08:53
KBRO 100853Z 14004KT 10SM CLR 28/26 A2988

2010/08/10 08:53
KBTR 100853Z 00000KT 3/4SM BR FEW001 BKN004 24/24 A2992

2010/08/10 08:53
KCEW 100853Z AUTO 00000KT 2 1/2SM BR CLR 23/22 A2993

2010/08/10 08:53
KCHA 100853Z 00000KT 10SM CLR 26/23 A3001

2010/08/10 08:53
KCLL 100853Z AUTO 00000KT 10SM CLR 27/23 A2991

2010/08/10 08:53
KCNM 100853Z AUTO 18005KT 10SM CLR 20/16 A2999

2010/08/10 08:51
KCRP 100851Z 00000KT 10SM FEW017 26/25 A2989

2010/08/10 08:51
KCSG 100851Z AUTO 09003KT 8SM CLR 25/19 A2997

2010/08/10 08:53
KCSV 100853Z AUTO 00000KT 6SM HZ CLR 23/20 A3007

2010/08/10 08:53
KDAB 100853Z 12005KT 10SM FEW020 27/24 A2993

2010/08/10 08:53
KDAL 100853Z 17005KT 10SM CLR 29/20 A2989

2010/08/10 08:53
KDFW 100853Z 20005KT 10SM CLR 29/20 A2988

2010/08/10 08:53
KDHN 100853Z AUTO 08003KT 10SM CLR 24/22 A2998

2010/08/10 08:55
KDLF 100855Z AUTO 11011KT 10SM CLR 28/23 A2992

2010/08/10 08:53
KDMN 100853Z AUTO 20006KT 10SM CLR 18/10 A3005

2010/08/10 09:06
KMTN 100906Z AUTO 18003KT 10SM CLR 26/22 A2993 RMK AO2

2010/08/10 09:06
KFME 100906Z AUTO 00000KT 3SM 19/19 A2995 RMK AO1 SKY OBSCURED

2010/08/10 09:06
KW29 100906Z AUTO 21006KT 10SM CLR 26/21 A2993 RMK AO1

2010/08/10 08:51
KELP 100851Z 13010KT 10SM FEW160 25/15 A3003

2010/08/10 08:53
KESF 100853Z AUTO 00000KT 9SM CLR 24/23 A2993

2010/08/10 08:53
KEYW 100853Z AUTO 23010KT 10SM -RA FEW033 BKN055 26/23 A2985

2010/08/10 08:53
KFLL 100853Z 14008KT 10SM BKN017 BKN100 26/24 A2986

2010/08/10 08:53
KFSM 100853Z AUTO 00000KT 10SM CLR 26/24 A2991

2010/08/10 08:53
KFTW 100853Z 24004KT 10SM CLR 28/20 A2988

2010/08/10 08:53
KFTY 100853Z 00000KT 5SM BR CLR 24/22 A3001

2010/08/10 08:53
KGGG 100853Z AUTO 00000KT 10SM CLR 27/23 A2991

2010/08/10 08:52
KGLS 100852Z AUTO 28003KT 10SM FEW024 29/26 A2992

2010/08/10 08:53
KGNV 100853Z AUTO 00000KT 10SM CLR 24/23 A2993

2010/08/10 08:53
KGPT 100853Z AUTO 00000KT 6SM BR CLR 27/24 A2991

2010/08/10 08:53
KGUP 100853Z AUTO 00000KT 10SM FEW100 13/11 A3024

2010/08/10 08:53
KGWO 100853Z AUTO 16003KT 5SM BR CLR 24/24 A2994

2010/08/10 08:53
KHOT 100853Z AUTO 00000KT 10SM CLR 28/23 A2992

2010/08/10 08:53
KHOU 100853Z 00000KT 10SM FEW250 27/24 A2990

2010/08/10 08:52
KHRL 100852Z AUTO 12004KT 10SM CLR 26/26 A2987

2010/08/10 08:53
KHRO 100853Z AUTO 00000KT 8SM CLR 25/23 A2997

2010/08/10 08:53
KHSV 100853Z 00000KT 5SM BR FEW200 26/24 A2997

2010/08/10 08:53
KIAH 100853Z 00000KT 10SM FEW250 26/24 A2991

2010/08/10 08:54
KJAN 100854Z 00000KT 10SM CLR 24/23 A2995

2010/08/10 08:56
KJAX 100856Z 03003KT 10SM CLR 24/23 A2994

2010/08/10 08:53
KJBR 100853Z AUTO 08004KT 10SM CLR 26/24 A2992

2010/08/10 08:53
KLBB 100853Z 21005KT 10SM FEW160 19/17 A3002

2010/08/10 08:53
KLCH 100853Z AUTO 06004KT 10SM CLR 26/25 A2991

2010/08/10 08:53
KLFT 100853Z AUTO 00000KT 10SM FEW050 25/24 A2993

2010/08/10 08:53
KLIT 100853Z 00000KT 7SM FEW250 28/25 A2991

2010/08/10 08:56
KLRD 100856Z AUTO 16007KT 10SM CLR 28/25 A2991

2010/08/10 08:50
KLRU 100850Z AUTO 07003KT 10SM CLR 21/09 A3008

2010/08/10 08:53
KMAF 100853Z AUTO 12006KT 10SM CLR 21/19 A2999

2010/08/10 08:53
KMCN 100853Z AUTO 00000KT 6SM BR CLR 23/22 A2999

2010/08/10 08:53
KMCO 100853Z 10006KT 10SM FEW028 25/23 A2991

2010/08/10 08:58
KMEI 100858Z AUTO 00000KT 6SM BR CLR 24/24 A2995

2010/08/10 08:53
KMEM 100853Z 14007KT 10SM CLR 28/24 A2993

2010/08/10 08:53
KMFE 100853Z AUTO 16003KT 10SM FEW014 27/26 A2988

2010/08/10 08:53
KMGM 100853Z 00000KT 8SM BKN075 26/23 A2994

2010/08/10 08:53
KMIA 100853Z 13004KT 10SM FEW020 BKN029 BKN070 OVC130 26/24 A2986

2010/08/10 08:53
KMKL 100853Z AUTO 00000KT 4SM BR CLR 26/24 A2995

2010/08/10 08:53
KMLB 100853Z 11005KT 10SM FEW022 27/23 A2991

2010/08/10 08:53
KMLC 100853Z AUTO 00000KT 10SM CLR 24/20 A2992

2010/08/10 08:53
KMLU 100853Z AUTO A2993

2010/08/10 08:56
KMOB 100856Z 02004KT 10SM FEW250 25/24 A2993

2010/08/10 08:53
KMSL 100853Z AUTO 00000KT 3/4SM BR VV001 24/23 A2998

2010/08/10 08:53
KMSY 100853Z 26004KT 8SM FEW250 25/24 A2992

2010/08/10 08:53
KNEW 100853Z AUTO 05004KT 9SM BKN012 BKN022 28/26 A2992

2010/08/10 08:56
KNGP 100856Z AUTO 10SM CLR 28/27 A2988

2010/08/10 08:52
KOKC 100852Z 17005KT 10SM CLR 25/21 A2991

2010/08/10 08:53
KPBI 100853Z 15007KT 10SM SCT023CB BKN060 BKN130 27/23 A2987

2010/08/10 08:53
KPDK 100853Z AUTO 00000KT 10SM CLR 24/21 A3002

2010/08/10 08:53
KPIE 100853Z AUTO 10006KT 10SM FEW011 26/23 A2986

2010/08/10 08:53
KPNS 100853Z AUTO 35006KT 8SM CLR 26/24 A2990

2010/08/10 08:51
KROW 100851Z AUTO 12004KT 10SM CLR 20/17 A3003

2010/08/10 08:53
KRSW 100853Z AUTO 10009KT 10SM BKN008 24/23 A2984

2010/08/10 08:53
KSAT 100853Z 18007KT 10SM BKN017 27/24 A2994

2010/08/10 08:56
KSHV 100856Z 00000KT 10SM BKN290 27/23 A2991

2010/08/10 08:51
KSJT 100851Z AUTO 21003KT 10SM CLR 27/18 A2995

2010/08/10 08:53
KSRQ 100853Z AUTO 08007KT 10SM CLR 25/24 A2984

2010/08/10 08:53
KSSI 100853Z AUTO 12011KT 10SM SCT024 28/23 A2996

2010/08/10 08:53
KTCC 100853Z AUTO 24005KT 10SM CLR 23/17 A3004

2010/08/10 08:53
KTCL 100853Z AUTO 00000KT 5SM BR CLR 26/24 A2994

2010/08/10 08:53
KTCS 100853Z AUTO 30004KT 10SM CLR 22/11 A3007

2010/08/10 08:53
KTLH 100853Z 07006KT 10SM FEW008 26/23 A2992

2010/08/10 08:53
KTPA 100853Z 07004KT 10SM FEW050 25/23 A2988

2010/08/10 08:53
KTRI 100853Z 00000KT 6SM BR FEW060 BKN090 BKN100 23/21 A3005

2010/08/10 08:53
KTUL 100853Z 19007KT 10SM CLR 29/19 A2989

2010/08/10 08:53
KTUP 100853Z AUTO 19003KT 9SM CLR 25/23 A2995

2010/08/10 08:53
KTXK 100853Z AUTO 18003KT 10SM CLR 27/23 A2991

2010/08/10 08:53
KTYR 100853Z 23004KT 10SM CLR 28/23 A2993

2010/08/10 08:53
KTYS 100853Z 00000KT 7SM CLR 25/23 A3001

2010/08/10 08:51
KVCT 100851Z AUTO 00000KT 10SM CLR 25/24 A2991

2010/08/10 08:53
KVLD 100853Z AUTO 07003KT 10SM FEW015 24/23 A2995

2010/08/10 08:53
KVRB 100853Z AUTO 13007KT 10SM FEW036 26/23 A2990

2010/08/10 08:53
TIST 100853Z AUTO 10010KT 10SM FEW060 28/24 A2992

2010/08/10 08:53
TISX 100853Z AUTO 08006KT 10SM CLR 26/23 A2992

2010/08/10 08:50
TJPS 100850Z 31005KT 08SM SCT030 BKN060 26/26 A2992

2010/08/10 08:56
TJSJ 100856Z 13003KT 10SM SCT028 26/24 A2993

2010/08/10 08:53
KABR 100853Z AUTO 10004KT 10SM OVC031 23/22 A2986

2010/08/10 08:54
KALO 100854Z 00000KT 8SM BKN050 24/24 A2995

2010/08/10 08:53
KASE 100853Z AUTO 22004KT 10SM OVC100 09/06 A3031

2010/08/10 08:53
KATY 100853Z AUTO 13004KT 10SM OVC031 24/22 A2988

2010/08/10 08:53
KAXN 100853Z AUTO 12006KT 7SM CLR 22/21 A2992

2010/08/10 08:53
KAZO 100853Z AUTO 00000KT 1/2SM FG VV001 21/20 A2996

2010/08/10 08:53
KBDE 100853Z AUTO 19003KT 5SM BR CLR 19/19 A2991

2010/08/10 08:53
KBFF 100853Z AUTO 11005KT 10SM CLR 17/16 A2998

2010/08/10 08:52
KBIS 100852Z AUTO 15006KT 10SM CLR 22/19 A2983

2010/08/10 08:55
KBKF 100855Z 24007KT 25SM SCT120 16/14 A3013

2010/08/10 08:53
KBRL 100853Z AUTO 09003KT 10SM CLR 26/24 A2992

2010/08/10 08:53
KBTL 100853Z AUTO 00000KT 1 1/2SM BR BKN004 20/20 A2997

2010/08/10 08:53
KCGI 100853Z AUTO 00000KT 9SM CLR 26/24 A2991

2010/08/10 08:52
KCID 100852Z AUTO 22008KT 6SM BR BKN016 BKN023 BKN031 24/23 A2997

2010/08/10 08:55
KCIU 100855Z AUTO 03005KT 1 3/4SM OVC002 19/19 A2996

2010/08/10 08:53
KCMI 100853Z AUTO 16003KT 4SM BR CLR 24/24 A2993

2010/08/10 08:53
KCMX 100853Z AUTO 00000KT 8SM CLR 17/16 A2996

2010/08/10 08:54
KCOS 100854Z AUTO 06005KT 10SM CLR 17/12 A3017

2010/08/10 08:54
KCOU 100854Z AUTO 19003KT 9SM CLR 26/24 A2992

2010/08/10 08:53
KCPR 100853Z AUTO 23010KT 10SM CLR 17/02 A3004

2010/08/10 08:53
KCYS 100853Z AUTO 24005KT 10SM CLR 12/11 A3012

2010/08/10 08:52
KDDC 100852Z AUTO 30010G17KT 10SM CLR 23/18 A2992

2010/08/10 08:54
KDEC 100854Z AUTO 00000KT 10SM CLR 25/21 A2993

2010/08/10 08:53
KDEN 100853Z 26010KT 10SM SCT140 16/15 A3011

2010/08/10 08:53
KDET 100853Z 00000KT 6SM BR CLR 22/21 A2995

2010/08/10 08:55
KDLH 100855Z 00000KT 10SM CLR 19/18 A2997

2010/08/10 08:54
KDSM 100854Z 11005KT 5SM +TSRA BR FEW009 BKN075CB OVC095 23/21 A2995

2010/08/10 08:53
KDTW 100853Z 00000KT 4SM R04R/1800V2400FT OVC009 21/20 A2996

2010/08/10 08:56
KEAU 100856Z AUTO 00000KT 1 1/2SM BR FEW001 21/19 A2994

2010/08/10 08:55
KEGE 100855Z AUTO 00000KT 10SM FEW110 13/08 A3025

2010/08/10 08:53
KELO 100853Z AUTO 00000KT 5SM BR CLR 16/16 A2996

2010/08/10 08:54
KEVV 100854Z AUTO 00000KT 7SM CLR 25/23 A2993

2010/08/10 08:53
KFAR 100853Z 13003KT 10SM CLR 22/19 A2987

2010/08/10 08:53
KFNT 100853Z 00000KT 1/4SM FG 18/18 A2995

2010/08/10 08:56
KFSD 100856Z 13006KT 10SM OVC016 25/23 A2985

2010/08/10 08:54
KFWA 100854Z 00000KT 1/4SM FG SCT036 23/22 A2996

2010/08/10 08:54
KGCK 100854Z 00000KT 10SM CLR 23/18 A2996

2010/08/10 08:53
KGFK 100853Z 17003KT 10SM FEW250 20/19 A2986

2010/08/10 08:53
KGJT 100853Z AUTO 10011KT 10SM CLR 18/04 A3009

2010/08/10 08:53
KGRB 100853Z AUTO 00000KT 2 1/2SM BR FEW001 21/20 A2994

2010/08/10 08:53
KGRI 100853Z AUTO 33014G22KT 10SM CLR 23/18 A2989

2010/08/10 08:53
KGRR 100853Z AUTO 18004KT 1/4SM FG VV001 20/20 A2996

2010/08/10 08:53
KHIB 100853Z AUTO 00000KT 1/2SM FG VV001 16/16 A2997

2010/08/10 08:55
KHON 100855Z AUTO 15004KT 9SM FEW013 BKN036 24/23 A2984

2010/08/10 08:53
KHUF 100853Z 00000KT 5SM BR CLR 24/23 A2993

2010/08/10 08:52
KHUT 100852Z AUTO 17006KT 10SM CLR 28/21 A2988

2010/08/10 08:53
KICT 100853Z 15008KT 10SM FEW100 SCT200 27/21 A2988

2010/08/10 08:54
KIND 100854Z 25003KT 9SM OVC120 27/22 A2993

2010/08/10 08:55
KINL 100855Z AUTO 00000KT 10SM CLR 17/17 A2993

2010/08/10 08:55
KIRK 100855Z AUTO 00000KT 9SM CLR 27/25 A2994

2010/08/10 08:55
KJAC 100855Z 00000KT 10SM CLR 07/04 A3016

2010/08/10 08:53
KJLN 100853Z AUTO 19006KT 10SM FEW060 25/21 A2994

2010/08/10 08:56
KJMS 100856Z AUTO 12004KT 10SM CLR 20/18 A2986

2010/08/10 08:56
KJXN 100856Z 00000KT 1/4SM FG FEW001 OVC018 20/20 A2998

2010/08/10 08:53
KLAN 100853Z 00000KT 3SM BR MIFG CLR 19/19 A2997

2010/08/10 08:53
KLAR 100853Z AUTO 01004KT 10SM CLR 11/07 A3022

2010/08/10 08:53
KLBF 100853Z AUTO 23004KT 10SM FEW100 19/19 A2994

2010/08/10 08:55
KLBL 100855Z 21006KT 10SM CLR 22/17 A2998

2010/08/10 08:54
KLEX 100854Z 16003KT 8SM CLR 24/21 A2999

2010/08/10 08:54
KLNK 100854Z 18005KT 10SM CLR 25/22 A2985

2010/08/10 08:53
KLOU 100853Z AUTO 00000KT 8SM CLR 26/23 A2995

2010/08/10 08:53
KLOZ 100853Z AUTO 00000KT 4SM BR CLR 23/22 A3002

2010/08/10 08:53
KLSE 100853Z AUTO 10004KT 1SM BR OVC002 23/23 A2995

2010/08/10 08:53
KMBS 100853Z 36006KT 8SM CLR 22/21 A2996

2010/08/10 08:53
KMCI 100853Z 19007KT 10SM CLR 26/22 A2988

2010/08/10 08:51
KMDW 100851Z 14003KT 10SM FEW040 OVC250 26/21 A2992

2010/08/10 08:52
KMHK 100852Z AUTO 00000KT 9SM CLR 28/21 A2984

2010/08/10 08:54
KMKC 100854Z 22004KT 10SM CLR 29/22 A2987

2010/08/10 08:52
KMKE 100852Z 00000KT 4SM BR FEW250 22/21 A2994

2010/08/10 08:55
KMKG 100855Z 00000KT 2SM BR SCT002 21/20 A2995

2010/08/10 08:52
KMLI 100852Z 11005KT 10SM SCT038 24/23 A2993

2010/08/10 08:54
KMOT 100854Z AUTO 11006KT 10SM CLR 20/17 A2985

2010/08/10 08:53
KMSN 100853Z 00000KT 2 1/2SM BR CLR 22/21 A2996

2010/08/10 08:53
KMSP 100853Z 10006KT 8SM CLR 24/22 A2993

2010/08/10 08:55
KOFF 100855Z AUTO 10005KT 10SM SCT090 27/25 A2985

2010/08/10 08:52
KOMA 100852Z 14009KT 10SM FEW090 SCT250 28/24 A2985

2010/08/10 08:51
KORD 100851Z 00000KT 10SM BKN200 25/23 A2992

2010/08/10 08:53
KOSH 100853Z AUTO 00000KT 1 1/2SM BR CLR 21/20 A2994

2010/08/10 08:51
KOTM 100851Z AUTO 32012KT 2SM +TSRA BR SCT022 BKN050 OVC060 22/21 A3001

2010/08/10 08:56
KOWB 100856Z AUTO 18003KT 8SM CLR 26/25 A2994

2010/08/10 08:53
KPAH 100853Z AUTO 00000KT 7SM CLR 26/24 A2992

2010/08/10 08:53
KPIR 100853Z AUTO 17007KT 6SM -RA BR SCT019 BKN028 BKN037 24/23 A2985

2010/08/10 08:54
KPLN 100854Z AUTO 00000KT 2SM BR OVC002 22/22 A2996

2010/08/10 08:53
KPTK 100853Z 00000KT 6SM BR CLR 22/21 A2996

2010/08/10 08:53
KPUB 100853Z AUTO 00000KT 10SM FEW110 15/14 A3007

2010/08/10 08:52
KRAP 100852Z AUTO 15009KT 10SM CLR 19/17 A2985

2010/08/10 08:54
KRFD 100854Z 15003KT 10SM FEW180 24/22 A2997

2010/08/10 08:54
KRKS 100854Z AUTO 20007KT 10SM CLR 12/00 A3018

2010/08/10 08:54
KRST 100854Z AUTO 13004KT 5SM BR CLR 22/21 A2997

2010/08/10 08:59
KSAW 100859Z AUTO 00000KT 5SM BR CLR 17/16 A2997

2010/08/10 08:56
KSDF 100856Z 00000KT 8SM CLR 28/23 A2994

2010/08/10 08:53
KSDM 100853Z AUTO 00000KT 9SM OVC008 17/14 A2991

2010/08/10 08:52
KSGF 100852Z 19003KT 10SM CLR 25/23 A2994

2010/08/10 08:53
KSLN 100853Z 18007KT 10SM CLR 28/21 A2984

2010/08/10 08:52
KSPI 100852Z AUTO 12004KT 10SM CLR 25/22 A2993

2010/08/10 08:53
KSTC 100853Z AUTO 00000KT 7SM CLR 21/19 A2992

2010/08/10 08:53
KSTJ 100853Z AUTO 20003KT 10SM CLR 26/22 A2987

2010/08/10 08:51
KSTL 100851Z 19003KT 10SM SCT250 29/24 A2991

2010/08/10 08:53
KSTP 100853Z AUTO 00000KT 9SM CLR 24/22 A2993

2010/08/10 08:54
KSUS 100854Z AUTO 00000KT 9SM CLR 26/24 A2989

2010/08/10 08:52
KSUX 100852Z 10005KT 9SM OVC012 26/24 A2984

2010/08/10 08:53
KTVC 100853Z AUTO 00000KT 6SM BR CLR 20/19 A2995

2010/08/10 08:54
KUIN 100854Z AUTO 21003KT 9SM CLR 26/24 A2992

2010/08/10 08:53
KWRL 100853Z AUTO 21003KT 10SM CLR 16/08 A2997

2010/08/10 08:53
KYIP 100853Z 00000KT 1/4SM FG BKN001 BKN025 20/19 A2996

2010/08/10 08:54
KAPN 100854Z AUTO 29005KT 1/2SM FG OVC001 19/19 A2996

2010/08/10 08:54
KSBN 100854Z 00000KT 7SM BKN043 22/21 A2995

2010/08/10 09:00
FBSK 100900Z 13009KT CAVOK 14/M06 Q1032 NOSIG

2010/08/10 09:04
KFYJ 100904Z AUTO 00000KT 10SM CLR 26/24 A2997 RMK AO1

2010/08/10 09:03
KOCW 100903Z AUTO 23004KT 10SM CLR 26/21 A3000 RMK AO2

2010/08/10 08:53
KPTK 100853Z COR 00000KT 6SM BR FEW140 22/21 A2996 RMK AO2 SLP137 T02220211 53002

2010/08/10 09:03
KTPF 100903Z AUTO 09006KT 10SM SCT015 SCT020 25/24 A2987 RMK AO2

2010/08/10 08:55
KLUF 100855Z AUTO 00000KT 10SM FEW120 28/15 A2980 RMK AO2 SLP062 T02830153 50001 $

2010/08/10 08:56
KNXX 100856Z AUTO 00000KT 10SM CLR 24/19 A2994 RMK AO2 SLP142 T02440194 56004 $

2010/08/10 08:55
KTTS 100855Z 12005KT 10SM FEW015 FEW065 26/24 A2992 RMK SLP132 1CU 1SC /0/ 57010

2010/08/10 09:04
KCEW 100904Z AUTO 00000KT 3SM BR CLR 22/22 A2993 RMK AO2

2010/08/10 09:04
KMIW 100904Z AUTO 09009KT 7SM -RA OVC037 23/22 A2992 RMK AO2 LTG DSNT ALQDS TSE0858 PRESFR P0002 $

2010/08/10 09:04
KOTM 100904Z AUTO 36010KT 2SM VCTS -RA BR SCT019 BKN050 OVC100 22/21 A2999 RMK AO2 WSHFT 0838 LTG DSNT ALQDS PRESFR P0009

2010/08/10 09:04
KRHI 100904Z AUTO 00000KT 10SM CLR 17/16 A3001 RMK AO2

2010/08/10 09:04
KSPW 100904Z AUTO 13009KT 10SM -TSRA SCT007 SCT011 BKN035 24/23 A2986 RMK AO2 LTG DSNT ALQDS RAB0858 P0001

2010/08/10 09:05
KSJC 100905Z AUTO 12005KT 10SM SCT012 14/11 A2990 RMK AO2

2010/08/10 09:04
PAOT 100904Z 16010KT 10SM FEW015 BKN034 13/12 A2945 RMK AO2

2010/08/10 09:00
LKKV 100900Z VRB03KT 9999 FEW033 19/11 Q1019

2010/08/10 09:00
LKMT 100900Z VRB01KT 9999 FEW026 22/16 Q1018 NOSIG

2010/08/10 09:00
LKPR 100900Z 11003KT 010V180 9999 SCT025 22/14 Q1018 NOSIG

2010/08/10 09:00
LKTB 100900Z VRB02KT 9999 FEW032 23/16 Q1018 NOSIG

2010/08/10 09:00
SCAR 100900Z 08005KT CAVOK 09/05 Q1015

2010/08/10 09:00
SCFA 100900Z 33006KT 9999 OVC019 13/08 Q1016

2010/08/10 09:00
SCAT 100900Z 35003KT 320V030 7000 OVC013 10/07 Q1018

2010/08/10 09:00
SCIE 100900Z 18003KT CAVOK 04/02 Q1016

2010/08/10 09:00
SCTC 100900Z VRB01KT 0100 FG VV/// M00/M01 Q1018

2010/08/10 09:00
SCTE 100900Z 18007KT 9999 OVC006 7/06 Q1022 NOSIG

2010/08/10 09:00
SCBA 100900Z AUTO 28004KT CAVOK M04/M05 Q1021

2010/08/10 09:00
SCCI 100900Z 30009KT 9999 FEW016 SCT100 04/01 Q1004 NOSIG

2010/08/10 09:00
SBCY 100900Z 11003KT CAVOK 20/16 Q1016

2010/08/10 09:00
UKBB 100900Z 01004MPS 9999 FEW033CB 28/20 Q1015 88CLRD95 NOSIG

2010/08/10 09:00
UKHH 100900Z 08005MPS CAVOK 38/08 Q1013 080///65 NOSIG

2010/08/10 09:00
UKOO 100900Z 06006MPS CAVOK 35/15 Q1011 34090070 NOSIG

2010/08/10 09:00
UKDE 100900Z 09002MPS 020V160 CAVOK 35/15 Q1012 02CLRD70 NOSIG

2010/08/10 09:00
UKDD 100900Z 11004MPS 070V140 CAVOK 35/17 Q1012 08090070 NOSIG

2010/08/10 09:00
UKFF 100900Z 03005MPS 340V070 CAVOK 35/19 Q1009 01010070 NOSIG

2010/08/10 09:00
UKLL 100900Z VRB02MPS 9999 BKN026 20/16 Q1018 31110360 NOSIG

2010/08/10 09:00
UKCC 100900Z 13003MPS 060V190 CAVOK 38/08 Q1013 08090070 NOSIG

2010/08/10 09:00
UKDR 100900Z 35007MPS 320V030 CAVOK 34/16 Q1012 3609//70 NOSIG

2010/08/10 09:00
FLLS 100900Z 09012KT CAVOK 25/07 Q1025

2010/08/10 09:03
PASC 100903Z 05014KT 1 3/4SM BR OVC003 03/03 A2975

2010/08/10 09:05
YSRI 100905Z AUTO 00000KT 3100NDV // SCT006 BKN013 OVC018 12/12 Q1012

2010/08/10 09:03
CYKL 100903Z AUTO 33009KT 2SM DZ OVC004 OVC027 09/08 A2971

2010/08/10 09:03
KBAF 100903Z 17003KT 2SM BR CLR 21/20 A2992

2010/08/10 09:03
KLUK 100903Z AUTO 00000KT 2 1/2SM BR CLR 22/22 A2997

2010/08/10 08:53
KACV 100853Z AUTO 17009KT 10SM OVC005 11/10 A2991

2010/08/10 08:53
KALW 100853Z AUTO 18010KT 10SM CLR 18/08 A2987

2010/08/10 08:53
KBFI 100853Z 21005KT 10SM OVC017 15/12 A2995

2010/08/10 08:54
KBFL 100854Z AUTO 29003KT 10SM CLR 23/06 A2982

2010/08/10 08:53
KBIL 100853Z 22007KT 10SM CLR 16/13 A2991

2010/08/10 08:53
KBKE 100853Z AUTO 25005KT 10SM BKN085 BKN110 13/11 A2990

2010/08/10 08:53
KBLI 100853Z AUTO 17005KT 10SM SCT012 BKN080 OVC100 14/12 A2993

2010/08/10 08:53
KBOI 100853Z 12007KT 10SM CLR 21/12 A2984

2010/08/10 08:53
KBTM 100853Z AUTO 06004KT 10SM FEW075 13/08 A3004

2010/08/10 08:53
KBUR 100853Z AUTO 15003KT 7SM CLR 16/13 A2989

2010/08/10 08:53
KBYI 100853Z AUTO 35004KT 10SM CLR 14/11 A2993

2010/08/10 08:56
KBZN 100856Z AUTO 14006KT 10SM CLR 12/09 A2998

2010/08/10 08:53
KCDC 100853Z AUTO 00000KT 10SM CLR 12/04 A3012

2010/08/10 08:56
KCEC 100856Z AUTO 00000KT 10SM OVC004 12/11 A2993

2010/08/10 08:53
KCLM 100853Z AUTO 31005KT 10SM OVC009 12/10 A2996

2010/08/10 08:56
KCTB 100856Z AUTO 26003KT 10SM BKN110 12/09 A2985

2010/08/10 08:56
KEKO 100856Z AUTO 24003KT 10SM FEW110 14/04 A2999

2010/08/10 08:54
KEUG 100854Z 00000KT 10SM FEW040 11/09 A2999

2010/08/10 08:53
KFAT 100853Z 29006KT 10SM CLR 22/14 A2980

2010/08/10 08:56
KFLG 100856Z AUTO 00000KT 10SM FEW075 09/07 A3027

2010/08/10 08:54
KGCN 100854Z AUTO 00000KT 10SM CLR 08/07 A3023

2010/08/10 08:53
KGEG 100853Z 20009KT 10SM BKN130 OVC200 18/06 A2980

2010/08/10 08:53
KGGW 100853Z AUTO 00000KT 10SM CLR 19/17 A2977

2010/08/10 08:53
KGTF 100853Z 21013KT 10SM CLR 16/08 A2985

2010/08/10 08:53
KHLN 100853Z AUTO 00000KT 10SM CLR 13/10 A2993

2010/08/10 08:53
KHQM 100853Z AUTO 27003KT 9SM OVC011 13/11 A2998

2010/08/10 08:53
KIDA 100853Z AUTO 00000KT 10SM CLR 11/08 A3003

2010/08/10 08:56
KIWA 100856Z AUTO 35003KT 10SM CLR 31/12 A2984

2010/08/10 08:56
KLAS 100856Z 22007KT 10SM CLR 28/M04 A2982

2010/08/10 08:53
KLAX 100853Z 25004KT 10SM OVC007 16/13 A2991

2010/08/10 08:53
KLGB 100853Z AUTO 35003KT 8SM BKN010 16/13 A2990

2010/08/10 08:53
KLMT 100853Z AUTO 00000KT 10SM FEW090 13/06 A2998

2010/08/10 09:00
SABE 100900Z 00000KT 5000 BR SKC 08/05 Q1028

2010/08/10 08:53
KLVM 100853Z AUTO 25012G18KT 10SM CLR 16/08 A2998

2010/08/10 08:53
KMFR 100853Z AUTO 02006KT 10SM CLR 17/08 A2992

2010/08/10 08:53
KMLS 100853Z AUTO 27006KT 10SM CLR 18/15 A2984

2010/08/10 08:54
KMRY 100854Z AUTO 00000KT 9SM OVC003 12/10 A2992

2010/08/10 08:53
KMSO 100853Z AUTO 10006KT 10SM CLR 16/11 A2991

2010/08/10 08:53
KMYV 100853Z AUTO 16004KT 10SM CLR 17/12 A2982

2010/08/10 08:56
KNTD 100856Z AUTO 00000KT 9SM OVC007 14/13 A2990

2010/08/10 08:53
KOAK 100853Z 03003KT 10SM OVC006 14/11 A2991

2010/08/10 08:53
KOGD 100853Z AUTO 17010KT 10SM CLR 18/04 A2999

2010/08/10 08:54
KOLM 100854Z AUTO 24008KT 10SM OVC010 13/11 A2997

2010/08/10 08:53
KONT 100853Z 29005KT 10SM CLR 16/12 A2990

2010/08/10 08:55
KOTH 100855Z 34005KT 10SM OVC017 13/11 A3003

2010/08/10 08:53
KPAE 100853Z AUTO 20008KT 10SM BKN080 13/12 A2995

2010/08/10 08:53
KPDX 100853Z 33004KT 10SM OVC032 15/11 A2999

2010/08/10 08:51
KPHX 100851Z 00000KT 10SM FEW120 33/11 A2980

2010/08/10 08:53
KPIH 100853Z AUTO 01004KT 10SM CLR 12/09 A3000

2010/08/10 08:53
KPMD 100853Z AUTO 16004KT 10SM CLR 18/04 A2991

2010/08/10 08:53
KPRB 100853Z AUTO A2990

2010/08/10 08:53
KPRC 100853Z AUTO 19007KT 10SM CLR 17/07 A3011

2010/08/10 08:53
KPSP 100853Z AUTO 00000KT 10SM CLR 24/08 A2975

2010/08/10 08:54
KRBL 100854Z AUTO 18006KT 10SM CLR 22/13 A2983

2010/08/10 08:53
KRDD 100853Z AUTO 00000KT 10SM CLR 22/09 A2982

2010/08/10 08:56
KRDM 100856Z AUTO 16004KT 10SM CLR 09/04 A2995

2010/08/10 08:55
KRNO 100855Z 32005KT 10SM CLR 20/04 A3000

2010/08/10 08:53
KRNT 100853Z AUTO 17006KT 10SM OVC016 14/12 A2995

2010/08/10 08:53
KSAC 100853Z 16004KT 10SM CLR 15/11 A2983

2010/08/10 08:51
KSAN 100851Z 00000KT 10SM OVC015 18/14 A2992

2010/08/10 08:53
KSBA 100853Z AUTO 06003KT 10SM OVC004 14/13 A2988

2010/08/10 08:56
KSBP 100856Z 33003KT 10SM OVC006 13/12 A2991

2010/08/10 08:55
KSCK 100855Z 01005KT 10SM CLR 16/12 A2983

2010/08/10 08:53
KSEA 100853Z 19006KT 10SM OVC012 13/12 A2996

2010/08/10 08:53
KSFF 100853Z AUTO 00000KT 10SM CLR 19/06 A2980

2010/08/10 08:56
KSFO 100856Z 28003KT 10SM FEW003 OVC010 13/10 A2990

2010/08/10 09:00
CYBG 100900Z 00000KT 15SM FEW045 SCT210 14/12 A2984 RMK SC2CI1 SLP105

2010/08/10 09:00
CYEG 100900Z 32004KT 15SM SCT080 BKN110 14/14 A2985 RMK AC4AC2 VIRGA OCNL LTNG DIST N SLP108

2010/08/10 09:00
CYFB 100900Z 34006KT 30SM SCT027 OVC064 11/10 A2987 RMK SC3SC5 SLP116

2010/08/10 09:00
CYFC 100900Z AUTO 00000KT 1/4SM FG VV002 17/17 A2980 RMK SLP093 DENSITY ALT 400FT RVR MISG

2010/08/10 09:00
CYGL 100900Z 32002KT 12SM -RA OVC007 08/08 A2994 RMK SC8 TWLGT SLP145

2010/08/10 09:00
CYHZ 100900Z 21007KT 1/2SM R14/P6000FT/U R23/3000FT/N -SHRA FG VV001 17/17 A2986 RMK FG8 SLP112

2010/08/10 09:00
CYJT 100900Z 18012KT 15SM FEW008 BKN030 OVC050 17/15 A2976 RMK SF2SC6SC1 SLP078

2010/08/10 09:00
CYMX 100900Z 22003KT 1/2SM R06/2200FT/N FG SKC 18/15 A2990 RMK FG3 SLP126

2010/08/10 09:00
CYOW 100900Z 20003KT 0SM R07/1100FT/N R32/0800V1100FT/N FG VV000 17/17 A2991 RMK FG8 SLP129

2010/08/10 09:00
CYQB 100900Z 00000KT 12SM PRFG FEW005 FEW100 FEW250 15/14 A2986 RMK SF1AC1CI1 SLP113

2010/08/10 09:00
CYQG 100900Z 00000KT 4SM BR SKC 22/21 A2995 RMK SLP139

2010/08/10 09:00
CYQM 100900Z 23006KT 1/4SM R06/3000FT/D R29/1400FT/N FG VV001 17/17 A2980 RMK FG8 SLP091

2010/08/10 09:00
CYQQ 100900Z 31005KT 20SM FEW040 FEW080 FEW240 15/12 A2994 RMK SC1AC1CI0 SLP139

2010/08/10 09:00
CYQX 100900Z 20012KT 20SM -SHRA FEW010 BKN090 BKN130 15/13 A2985 RMK SC2AC5AC1 SLP109

2010/08/10 09:00
CYQY 100900Z 21005KT 15SM FEW021 SCT058 BKN240 17/16 A2982 RMK SC2SC2CI1 SLP097

2010/08/10 09:00
CYTR 100900Z 00000KT 1SM BR BKN020 OVC056 19/15 A2992 RMK FG4SC2SC2 SLP131

2010/08/10 09:00
CYUL 100900Z 25005KT 2 1/2SM BR OVC001 20/19 A2990 RMK SF8 SLP124

2010/08/10 09:00
CYVR 100900Z 12006KT 15SM FEW012 SCT040 BKN080 OVC100 15/11 A2993 RMK SC2SC2AC2AC3 SLP136

2010/08/10 09:00
CYWG 100900Z 32016KT 9SM -SHRA FEW014 OVC042 23/20 A2984 RMK SF2SC6 CB EMBD LTGCCCG DST NW-N PRESFR SLP101

2010/08/10 09:00
CYXX 100900Z 24003KT 10SM FEW005 OVC020 15/10 A2994 RMK SF2SC6 SLP138

2010/08/10 09:00
CYYC 100900Z 36002KT 15SM BKN110 13/10 A2989 RMK AC6 VIRGA SLP117

2010/08/10 09:00
CYYJ 100900Z 00000KT 5SM BR FEW005 BKN014 OVC020 12/11 A2993 RMK SF1SC6SC2 SLP137

2010/08/10 09:00
CYYQ 100900Z 13004KT 1/4SM R33/1600FT/N FG VV002 08/08 A3006 RMK FG8 SLP182

2010/08/10 09:00
CYYR 100900Z 27008KT 15SM FEW003 FEW051 FEW083 SCT240 13/12 A2960 RMK SF1SC1AC1CI0 SLP025

2010/08/10 09:00
CYYT 100900Z 13003KT 2SM -DZ BR FEW003 OVC007 14/13 A2990 RMK SF2SF6 SLP128

2010/08/10 09:00
CYYZ 100900Z 27003KT 6SM BR SCT040 BKN062 22/21 A2993 RMK SC3SC3 SLP134

2010/08/10 09:00
CYZF 100900Z 12003KT 15SM FEW110 FEW230 16/13 A2975 RMK AC1CI2 SLP080

2010/08/10 09:00
CYZV 100900Z 00000KT 30SM FEW100 13/11 A2973 RMK AC1 SLP070

2010/08/10 09:00
CYZX 100900Z 34004KT 3/4SM BR BKN090 BKN150 18/18 A2981 RETS RMK FG3AC2AC2 WNDY HILL 18007KT VIS VRB 1/2 - 1 SLP095

2010/08/10 09:00
CWRF 100900Z AUTO ///// 14/ A2976

2010/08/10 09:00
CWVD 100900Z AUTO ///// 04/ A2987 RMK SLP154

2010/08/10 09:00
CYCY 100900Z AUTO 00000KT 9SM CLR 04/04 A2987 RMK SLP117

2010/08/10 09:00
CYEK 100900Z AUTO 00000KT 1SM CLR 08/08 A3008 RMK VSBY VRBL 0.4V9.+ SLP188

2010/08/10 09:00
CYOD 100900Z 10004KT 15SM FEW050CB FEW090 FEW140 BKN220 18/14 A2985 RMK CB1AC1AC1CI1 CB DIST W MOVG N OCNL LTNG SLP109

2010/08/10 09:00
CYPE 100900Z 32003KT 15SM SKC 11/07 A2986 RMK SLP120

2010/08/10 09:00
CYQV 100900Z AUTO 01003KT 8SM FEW068 16/16 A2986 RMK SLP115

2010/08/10 09:00
CYSF 100900Z AUTO 13002KT 1 1/4SM BR SCT007 OVC018 14/14 A2989 RMK SLP130 DENSITY ALT 900FT

2010/08/10 09:00
CYTH 100900Z 07005KT 15SM SCT050 OVC080 16/11 A2993 RMK SC4AC4 SLP140

2010/08/10 09:00
CYUS 100900Z AUTO ///// 9SM CLR 10/ A2992 RMK SLP136

2010/08/10 09:00
CYUX 100900Z AUTO 25006KT 9SM CLR 09/07 A2993 RMK SLP135

2010/08/10 09:00
CYXH 100900Z AUTO 34003KT 9SM CLR 16/14 A2979 RMK SLP077

2010/08/10 09:00
CYDB 100900Z AUTO 14005KT 9SM CLR 10/05 A2978 RMK SLP101

2010/08/10 09:00
CYDQ 100900Z AUTO 00000KT 9SM CLR 07/05 A2989 RMK SLP139

2010/08/10 09:00
CYEV 100900Z 07004KT 15SM FEW100 SCT200 14/10 A2966 RMK AC2CI1 SLP046

2010/08/10 09:00
CYHE 100900Z AUTO 13002KT 9SM BKN016 BKN040 OVC049 15/14 A2992 RMK SLP134

2010/08/10 09:00
CYIV 100900Z 09004KT 15SM FEW060 FEW250 15/12 A2990 RMK SC1CI0 SLP129

2010/08/10 09:00
CYKY 100900Z 12008KT 15SM OVC040 18/15 A2981 RMK SC8 SLP088

2010/08/10 09:00
CYPR 100900Z AUTO /////KT 1/4SM VV002 11/11 A3002 RMK SLP165 WND MISG

2010/08/10 09:00
CYQD 100900Z 00000KT 1/2SM FG SKC 18/18 A2989 RMK FG6 SLP121

2010/08/10 09:00
CYQZ 100900Z AUTO VRB02KT 9SM CLR 09/08 A2994 RMK SLP152

2010/08/10 09:00
CYRV 100900Z AUTO 28006KT 9SM FEW011 FEW024 BKN041 OVC067 15/14 A2985 RMK SLP108

2010/08/10 09:00
CYUA 100900Z AUTO 29010KT 1/4SM CLR 11/ A2965 RMK SLP044

2010/08/10 09:00
CYXC 100900Z 35003KT 25SM SKC 12/10 A2987 RMK SLP107

2010/08/10 09:00
CYXE 100900Z 08005KT 15SM BKN250 16/14 A2983 RMK CI2 SLP103

2010/08/10 09:00
CYXS 100900Z AUTO 17005KT 9SM FEW091 09/07 A2993 RMK SLP150

2010/08/10 09:00
CYZP 100900Z AUTO 26009KT 3SM -RA BR FEW013 BKN020 OVC027 14/13 A3003 RMK SLP169

2010/08/10 09:00
CYZT 100900Z 00000KT 15SM FEW019 12/09 A3000 RMK SC2 SLP158

2010/08/10 09:00
CWHN 100900Z AUTO 05006KT 9SM CLR 15/12 A2987 RMK SLP117

2010/08/10 09:00
CYBK 100900Z 00000KT 20SM FEW090 08/07 A3004 RMK AS1 SLP174

2010/08/10 09:00
CYBR 100900Z 08003KT 15SM FEW060 OVC150 22/19 A2991 RMK SC2AC6 SLP124

2010/08/10 09:00
CYBU 100900Z AUTO 10003KT 9SM CLR 13/13 A2988 RMK SLP123 DENSITY ALT 1300FT

2010/08/10 09:00
CYDN 100900Z AUTO 26005KT 9SM SCT110 16/15 A2986 RMK SLP115 DENSITY ALT 1400FT

2010/08/10 09:00
CYEN 100900Z 10005KT 15SM -TSRA OVC060CB 18/16 A2987 RERA RMK CB8 LTGIC E-SE PRESRR PAST HR SLP110

2010/08/10 09:00
CYET 100900Z AUTO 19002KT 9SM FEW057 FEW071 FEW079 FEW089 12/12 A2991 RMK SLP132

2010/08/10 09:00
CYKJ 100900Z AUTO 08002KT 1/8SM VV002 13/13 A2991 RMK SLP147 DENSITY ALT 1800FT

2010/08/10 09:00
CYLL 100900Z AUTO 09005KT 9SM OVC100 14/13 A2984 RMK SLP104 DENSITY ALT 2600FT

2010/08/10 09:00
CYNE 100900Z AUTO 05002KT 9SM CLR 15/15 A2988 RMK SLP121

2010/08/10 09:00
CYOJ 100900Z 00000KT 15SM FEW030 FEW080 BKN250 14/13 A2980 RMK SC1AC1CI1 SLP096

2010/08/10 09:00
CYPA 100900Z 00000KT 10SM OVC000 14/12 A2986 RMK ST1 SLP115

2010/08/10 09:00
CYPY 100900Z AUTO 00000KT 9SM CLR 14/13 A2979 RMK SLP092

2010/08/10 09:00
CYQF 100900Z 34004KT 15SM BKN100 14/10 A2986 RMK AC5 SLP111

2010/08/10 09:00
CYQL 100900Z AUTO 15004KT 9SM CLR 12/10 A2979 RMK SLP077

2010/08/10 09:00
CYQR 100900Z 09012KT 15SM OVC120 20/15 A2983 RMK AC8 SLP098

2010/08/10 09:00
CYQW 100900Z AUTO 10009KT 9SM BKN230 16/13 A2984 RMK SLP109 DENSITY ALT 2400FT

2010/08/10 09:00
CYVC 100900Z 00000KT 15SM MIFG SKC 15/14 A2989 RMK SLP126

2010/08/10 09:00
CYXD 100900Z AUTO 34006KT 9SM CLR 15/12 A2984 RMK SLP101

2010/08/10 09:00
CYYL 100900Z AUTO 00000KT 9SM OVC005 14/14 A2990 RMK SLP138 DENSITY ALT 1300FT

2010/08/10 09:00
CYYN 100900Z AUTO 14010KT 5SM RA OVC023 17/16 A2985 RMK SLP095

2010/08/10 09:00
CYZH 100900Z AUTO 14002KT 9SM FEW080 13/10 A2986 RMK SLP115

2010/08/10 09:00
CBBC 100900Z AUTO 00000KT 9SM CLR A2998

2010/08/10 09:00
CYKA 100900Z 11004KT 40SM SCT060 OVC085 15/13 A2991 RMK SC3AC5 SLP130

2010/08/10 09:00
CYLW 100900Z AUTO 13003KT 9SM -RA BKN049 OVC061 14/13 A2989 RMK SLP123 DENSITY ALT 1600FT

2010/08/10 09:00
CYMA 100900Z 00000KT 20SM FEW050 FEW080 08/07 A2973 RMK SC1AC1 SLP081

2010/08/10 09:00
CYQH 100900Z 00000KT 20SM FEW035 11/06 A2981 RMK SC2 SLP100

2010/08/10 09:00
CYQU 100900Z 00000KT 25SM FEW090 FEW250 07/04 A2991 RMK AC1CI0 SLP137

2010/08/10 09:00
CYWL 100900Z 00000KT 15SM SKC 07/05 A2994 RMK SLP152

2010/08/10 09:00
CYXJ 100900Z 00000KT 15SM OVC070 14/08 A2988 RMK AC8 SLP126

2010/08/10 09:00
CYXT 100900Z 22002KT 15SM FEW052 13/11 A3001 RMK SC2 SLP165

2010/08/10 09:00
CYXY 100900Z 16010KT 40SM SCT060 SCT100 11/06 A2984 RMK SC3AC0 SLP117

2010/08/10 09:00
CYYD 100900Z AUTO 00000KT 9SM CLR 08/06 A2997 RMK SLP155

2010/08/10 09:00
CYYE 100900Z 00000KT 1/2SM FG BKN050 OVC150 14/09 A2979 RMK FG5SC2AC1 SLP097

2010/08/10 09:00
CYYF 100900Z 32003KT 15SM -SHRA SCT045 BKN080 OVC110 15/11 A2989 RMK SC3AC3AC2 SLP117

2010/08/10 09:00
CYZY 100900Z AUTO 00000KT 9SM BKN081 09/08 A2992 RMK SLP147

2010/08/10 08:53
KSHR 100853Z AUTO 21005KT 10SM CLR 12/11 A2992

2010/08/10 08:53
KSJC 100853Z AUTO 12005KT 10SM BKN012 14/11 A2990

2010/08/10 08:53
KSLC 100853Z 14005KT 10SM CLR 18/03 A2999

2010/08/10 08:53
KSMF 100853Z 15008KT 10SM CLR 16/12 A2981

2010/08/10 08:51
KSMX 100851Z AUTO 00000KT 8SM OVC004 12/11 A2992

2010/08/10 08:53
KSNA 100853Z 00000KT 8SM CLR 18/13 A2990

2010/08/10 08:53
KSNS 100853Z AUTO 28004KT 8SM OVC003 12/11 A2992

2010/08/10 08:53
KTIW 100853Z 23006KT 10SM OVC008 13/11 A2996

2010/08/10 08:53
KTUS 100853Z 14005KT 10SM CLR 27/16 A2996

2010/08/10 08:53
KTVL 100853Z AUTO 00000KT 10SM FEW090 10/07 A3011

2010/08/10 08:53
KTWF 100853Z AUTO 10004KT 10SM CLR 15/12 A2992

2010/08/10 08:56
KUKI 100856Z AUTO 17003KT 10SM CLR 15/11 A2986

2010/08/10 08:53
KYKM 100853Z AUTO 33012KT 10SM CLR 18/08 A2985

2010/08/10 09:03
KBLI 100903Z AUTO 16005KT 10SM BKN012 BKN065 OVC080 14/12 A2993

2010/08/10 09:00
FMNN 100900Z 34006KT 9999 FEW020 SCT100 31/20 Q1016

2010/08/10 09:00
FMNA 100900Z 140//KT 9999 VCSH FEW017 BKN033 27/24 Q1016

2010/08/10 09:00
FMMS 100900Z 00000KT 9999 SCT017 OVC040 23/21 QXXXX

2010/08/10 09:00
FMMI 100900Z 11006KT 020V180 9999 SCT023 23/10 Q1025 NOSIG

2010/08/10 09:00
FMNM 100900Z 22010KT CAVOK 31/15 Q1017

2010/08/10 09:00
FMMT 100900Z 16008KT 9999 VCSH FEW017 25/20 Q1021

2010/08/10 09:00
FMCH 100900Z 21010KT 9999 FEW023TCU 29/26 Q1019 NOSIG

2010/08/10 08:55
LIBA 100855Z 31002KT 9999 FEW030 29/21 Q1014 RMK SCT SCT090 VIS MIN 9999 WIND THR29 29002KT BLU

2010/08/10 08:55
LIBH 100855Z 33010KT CAVOK 32/15 Q1012 RMK BKN SCT060 SCT190 QUK 1 QUL 0 VIS MAR 20 KM VIS MIN 9999

2010/08/10 08:50
LIBP 100850Z 03006KT CAVOK 27/19 Q1015 RMK VIS MIN 9999

2010/08/10 08:55
LIBY 100855Z 36012G22KT CAVOK 28/18 Q1012 RMK SCT SCT200 QUK 3 QUL 1 N VIS MAR 20 KM VIS MIN 9999

2010/08/10 08:55
LICG 100855Z 01005KT CAVOK 28/16 Q1016 RMK SKC VIS MIN 9999 WIND THR08 /////KT WIND THR21 VRB04KT BLU

2010/08/10 08:55
LICL 100855Z 24004KT CAVOK 25/20 Q1015 RMK SKC QUK 1 QUL 0 VIS MAR 20 KM VIS MIN 9999

2010/08/10 08:50
LIEA 100850Z 29006KT 250V340 CAVOK 29/18 Q1016 RMK VIS MIN 9999

2010/08/10 08:55
LIMH 100855Z 21006KT 9999 FEW000 05/M04 Q1031 RMK FEW MON CLD SCT VAL CLD SCT VIS MIN 9999

2010/08/10 08:55
LIMV 100855Z 21004KT 8000 FEW012 21/18 Q1018 RMK FEW MON LIB ELEV SLW VAL FOSCHIA VIS MIN 8000

2010/08/10 08:50
LIQN 100850Z VRB02KT CAVOK 25/19 Q1017 RMK VIS MIN 9999

2010/08/10 08:55
LIQW 100855Z 35002KT CAVOK 24/19 Q1016 RMK SKC VIS MIN 9999 BLU

2010/08/10 08:55
LIRE 100855Z 23006KT CAVOK 26/23 Q1015 RMK SKC VIS MIN 9999 WIND THR31 21006KT BLU

2010/08/10 08:55
LIRM 100855Z 03002KT 9999 FEW070 31/25 Q1016 RMK FEW VIS MIN 9999 WIND THR06 03004KT BLU

2010/08/10 08:50
LIRZ 100850Z VRB02KT CAVOK 26/15 Q1016 RMK VIS MIN 9999

2010/08/10 08:55
LIVD 100855Z 00000KT 9999 SCT035 20/15 Q1021 RMK SCT VIS MIN 9999

2010/08/10 08:50
LIBC 100850Z 06007KT CAVOK 30/12 Q1014 RMK VIS MIN 9999

2010/08/10 08:50
LIBD 100850Z 36010KT 330V030 CAVOK 28/15 Q1014 RMK VIS MIN 9999

2010/08/10 08:55
LIBN 100855Z 34015KT CAVOK 29/20 Q1013 RMK SCT SCT180 VIS MIN 9999 WIND THR14 35014KT BLU

2010/08/10 08:45
LIBR 100845Z 33021KT CAVOK 27/21 Q1013 NOSIG RMK SCT SCT200 VIS MIN 9999 WIND THR13 /////KT WIND THR31 31018KT BLU

2010/08/10 08:55
LIBV 100855Z 01011KT CAVOK 27/15 Q1013 RMK BKN BKN120 VIS MIN 9999 WIND THR14 36011KT BLU

2010/08/10 08:50
LICC 100850Z 07005KT CAVOK 30/17 Q1014 RMK VIS MIN 9999

2010/08/10 08:55
LICF 100855Z 04007KT 9999 FEW025 28/23 Q1015 RMK FEW QUK 2 QUL 0 VIS MAR 16 KM MON W LIB VAR RAPID MON E LIB NC VIS MIN 9999

2010/08/10 08:50
LICR 100850Z 35012G24KT 9999 FEW025 28/19 Q1014 RMK VIS MIN 9999

2010/08/10 08:55
LICT 100855Z 33008KT CAVOK 30/12 Q1015 RMK FEW FEW200 VIS MIN 9999 WIND THR13 33008KT BLU

2010/08/10 08:55
LICZ 100855Z 21004KT CAVOK 31/15 Q1014 RMK SKC VIS MIN 9999 WIND THR28 /////KT BLU

2010/08/10 08:55
LIMU 100855Z 07008KT 9999 FEW023 24/20 Q1017 RMK FEW QUK 2 QUL 1 E VIS MAR 15 KM VIS MIN 9999

2010/08/10 08:55
LIMY 100855Z /////KT CAVOK 21/16 Q1017 RMK FEW FEW190 VAL FOSCHIA VIS MIN 9999

2010/08/10 08:55
LIVE 100855Z 20004KT 9999 BKN025 17/10 Q1020 RMK BKN VIS MIN 9999

2010/08/10 08:55
LIVR 100855Z 11008KT 9999 BKN020 15/11 Q1023 RMK BKN MON CIME INC VIS MIN 9999

2010/08/10 08:55
LIVT 100855Z 16002KT CAVOK 28/16 Q1015 RMK FEW FEW200 QUK 0 QUL 0 VIS MAR 25 KM VIS MIN 9999

2010/08/10 09:00
LECV 100900Z 14003KT 9999 FEW050 29/17 Q1022

2010/08/10 09:00
LEGT 100900Z 00000KT 9000 NSC 30/14 Q1020

2010/08/10 09:00
LELO 100900Z VRB02KT CAVOK 20/14 Q1019

2010/08/10 09:00
LERI 100900Z VRB01KT CAVOK 32/20 Q1016 NOSIG

2010/08/10 09:00
LERT 100900Z VRB01KT CAVOK 34/08 Q1016 NOSIG

2010/08/10 08:50
LIBG 100850Z 34015KT CAVOK 31/14 Q1013 RMK VIS MIN 9999

2010/08/10 08:50
LICA 100850Z 25013KT 9999 SCT020 27/21 Q1015 RMK VIS MIN 9999

2010/08/10 08:50
LICD 100850Z 29007KT CAVOK 27/21 Q1016 RMK VIS MIN 9999

2010/08/10 08:50
LICJ 100850Z 03010KT CAVOK 26/17 Q1016 RMK VIS MIN 9999

2010/08/10 08:55
LIVM 100855Z 11002KT CAVOK 27/23 Q1016 RMK SKC QUK 0 QUL 0 VIS MAR 12 KM VIS MIN 9999

2010/08/10 08:55
LIVO 100855Z 12002KT 9999 SCT025 20/17 Q1019 RMK SCT VIS MIN 9999

2010/08/10 09:00
LKKV 100900Z VRB03KT 9999 FEW033 19/11 Q1019 RMK REG QNH 1015

2010/08/10 09:00
LKMT 100900Z VRB01KT 9999 FEW026 22/16 Q1018 NOSIG RMK REG QNH 1015

2010/08/10 09:00
LKPR 100900Z 11003KT 010V180 9999 SCT025 22/14 Q1018 NOSIG RMK REG QNH 1015

2010/08/10 09:00
LKTB 100900Z VRB02KT 9999 FEW032 23/16 Q1018 NOSIG RMK REG QNH 1015

2010/08/10 09:00
LPAZ 100900Z 04009KT 9999 FEW021 BKN039 21/15 Q1020

2010/08/10 09:00
LPFL 100900Z 16005KT 9999 FEW022 23/18 Q1022

2010/08/10 09:00
LPHR 100900Z 02004KT 360V130 9999 FEW016 BKN040 22/14 Q1022

2010/08/10 09:00
LPPD 100900Z 04005KT 010V110 9999 FEW022 BKN035 21/12 Q1021

2010/08/10 09:00
LRBC 100900Z 36012KT 330V040 CAVOK 27/20 Q1016

2010/08/10 09:00
LRCL 100900Z 35004KT 330V040 9999 BKN033 24/16 Q1018

2010/08/10 09:00
LRCV 100900Z VRB04KT CAVOK 27/17 Q1015

2010/08/10 09:00
LRIA 100900Z 32008KT 280V350 CAVOK 27/20 Q1016

2010/08/10 09:00
LRSV 100900Z 33008KT CAVOK 23/20 Q1018

2010/08/10 09:00
LRTC 100900Z 34010KT CAVOK 31/19 Q1012

2010/08/10 08:53
PABR 100853Z 08018KT 6SM BR OVC002 02/02 A2986

2010/08/10 08:53
PABT 100853Z 00000KT 10SM FEW055 OVC085 12/11 A2964

2010/08/10 08:53
PACV 100853Z 00000KT 10SM SCT018 BKN025 OVC037 12/12 A2992

2010/08/10 08:58
PADU 100858Z AUTO 23016G28KT 10SM FEW024 BKN070 11/07 A2968

2010/08/10 08:53
PAEN 100853Z AUTO 00000KT 7SM -RA FEW003 BKN023 OVC040 12/12 A2978

2010/08/10 08:58
PAGA 100858Z AUTO 12008KT 10SM BKN038 BKN049 OVC090 14/10 A2957

2010/08/10 08:53
PAGY 100853Z AUTO 20016G24KT 10SM OVC046 14/10 A2994

2010/08/10 08:53
PAIL 100853Z AUTO 12011G17KT 10SM OVC029 12/08 A2968

2010/08/10 08:54
PAKN 100854Z 20007KT 5SM -RA BR SCT007 OVC010 10/09 A2964

2010/08/10 08:53
PAKT 100853Z AUTO 12003KT 10SM BKN006 OVC013 13/12 A3002

2010/08/10 08:53
PASC 100853Z 05014KT 2SM BR OVC003 03/03 A2975

2010/08/10 08:53
PASI 100853Z 00000KT 10SM FEW005 SCT015 OVC026 13/12 A3002

2010/08/10 08:52
PATA 100852Z AUTO 34003KT 10SM FEW080 OVC100 13/12 A2961

2010/08/10 08:56
PAUN 100856Z AUTO 09006KT 10SM SCT027 BKN036 OVC050 12/07 A2947

2010/08/10 08:56
PAVD 100856Z 00000KT 2 1/2SM SCT004 OVC016 11/09 A2989

2010/08/10 08:54
PHMK 100854Z AUTO 04009G15KT 10SM CLR 23/18 A3012

2010/08/10 08:56
PMDY 100856Z AUTO 07010KT 10SM CLR 26/22 A3024

2010/08/10 09:00
SLVR 100900Z 18020KT 8000 NSC 16/06 Q1018

2010/08/10 09:00
SLLP 100900Z 02005KT 9999 SKC M03/M21 Q1037

2010/08/10 09:00
SLCB 100900Z 25003KT 8000 NSC 04/00 Q1025

2010/08/10 09:00
CWEU 100900Z 27009KT 40SM FEW006 00/M01 A3001 RMK CF1 SLP165

2010/08/10 09:00
CWFD 100900Z AUTO 36023KT 9SM 05/ RMK ALTM MISG

2010/08/10 09:00
CWKP 100900Z AUTO 29012KT 09/ A2970 RMK SLP078

2010/08/10 09:00
CWRH 100900Z AUTO ///// 03/ A2979 RMK SLP117

2010/08/10 09:00
CWSA 100900Z AUTO 23004KT 4SM OVC006 19/18 A2989 RMK SLP124

2010/08/10 09:00
CWTU 100900Z AUTO 29012KT 07/ A2957 RMK SLP027

2010/08/10 09:00
CWWU 100900Z 00000KT 8SM -SHRA BKN010 OVC035 15/14 A2990 RMK SF6SC2 SLP124

2010/08/10 09:00
CWXR 100900Z AUTO 29004KT 08/ A2969 RMK SLP064

2010/08/10 09:00
CWYM 100900Z AUTO 07018KT 02/ RMK ALTM MISG SLP137

2010/08/10 09:00
CYPD 100900Z AUTO 24005KT 9SM BKN009 17/16 A2982 RMK SLP100 DENSITY ALT 800FT

2010/08/10 09:00
CZPC 100900Z AUTO 31007KT 9SM FEW093 11/10 A2985 RMK SLP094

2010/08/10 09:00
CZUM 100900Z AUTO 30005KT 9SM OVC010 10/09 A2967 RMK SLP057

2010/08/10 09:00
CYAM 100900Z 30003KT 1 1/2SM BR VV002 20/19 A2996 RMK FG8 SLP143

2010/08/10 09:00
CYFT 100900Z 30009KT 1/2SM -DZ FG VV001 09/09 A2960 RMK FG8 SLP028

2010/08/10 09:00
CYGP 100900Z 00000KT 15SM FEW120 13/12 A2974 RMK AC1 SLP070

2010/08/10 09:00
CYGR 100900Z 26011KT 15SM OVC008 19/11 A2975 RMK SC8 SLP075

2010/08/10 09:00
CYHD 100900Z AUTO 19008KT 9SM CLR 22/19 A2990 RMK SLP124

2010/08/10 09:00
CYHU 100900Z AUTO 23006KT 2 1/4SM CLR 17/ A2988 RMK SLP120 DENSITY ALT 300FT TD MISG RVR MISG

2010/08/10 09:00
CYMO 100900Z AUTO 35002KT 9SM OVC014 10/10 A2998 RMK SLP152

2010/08/10 09:00
CYNA 100900Z AUTO 25005KT 3SM FEW056 14/13 A2965 RMK SLP043

2010/08/10 09:00
CYPQ 100900Z AUTO ///// 1 1/8SM OVC019 18/18 A2993 RMK SLP134

2010/08/10 09:00
CYQT 100900Z 30002KT 5SM BR SKC 15/15 A2994 RMK SLP139

2010/08/10 09:00
CYRJ 100900Z 25007KT 25SM FEW050 15/10 A2984 RMK SC2 SLP106

2010/08/10 09:00
CYRL 100900Z 11006KT 15SM FEW020CB 20/18 A2988 RMK CB1 LTG DIST S SLP118

2010/08/10 09:00
CYTS 100900Z 31002KT 15SM FEW080 FEW120 15/13 A2990 RMK AC1AC2 SLP124

2010/08/10 09:00
CYTZ 100900Z AUTO 31002KT 2 1/2SM FEW046 OVC061 21/21 A2992 RMK SLP131 DENSITY ALT 1000FT RVR MISG

2010/08/10 09:00
CYVP 100900Z 32009KT 1 1/2SM BR OVC004 05/04 A2986 RMK SF8 VIS VRB 1-2 SLP112

2010/08/10 09:00
CYVV 100900Z 00000KT 4SM BR FEW007 OVC022 21/21 A2994 RMK SF2SC6 SLP138

2010/08/10 09:00
CYWA 100900Z AUTO 20002KT 1SM CLR 14/14 A2990 RMK VSBY VRBL 0.5V8.0 SLP129

2010/08/10 09:00
CYXR 100900Z AUTO 34002KT 6SM CLR 13/13 A2988 RMK SLP111

2010/08/10 09:00
CYYY 100900Z 22006KT 15SM FEW080 16/13 A2980 RMK AC1 SLP092

2010/08/10 09:00
CYZE 100900Z AUTO 00000KT 6SM BR CLR 17/17 A2993 RMK SLP138 DENSITY ALT 1000FT

2010/08/10 09:00
CYZR 100900Z AUTO 20003KT 1 3/4SM BR CLR 21/20 A2994 RMK SLP136 DENSITY ALT 1400FT

2010/08/10 09:00
CWCA 100900Z 00000KT 4SM -RA BR BKN030 OVC070 13/12 A2958 RMK SC6AS2 SLP016

2010/08/10 09:00
CWCL 100900Z AUTO 00000KT 9SM CLR 05/04 A2995 RMK SLP155

2010/08/10 09:00
CWIL 100900Z AUTO 19008KT 13/ A2987 RMK SLP122

2010/08/10 09:00
CWKM 100900Z AUTO 06007KT 09/ A2968 RMK SLP057

2010/08/10 09:00
CWKW 100900Z AUTO 34010KT 02/ A2976 RMK SLP103

2010/08/10 09:00
CWLI 100900Z AUTO 05006KT 09/ A2973 RMK SLP077

2010/08/10 09:00
CWLX 100900Z AUTO 33010KT 14/ A2987 RMK SLP124

2010/08/10 09:00
CWLY 100900Z AUTO 20002KT 9SM OVC001 OVC018 OVC031 13/12 A2994 RMK SLP142

2010/08/10 09:00
CWOB 100900Z AUTO ///// 1/8SM CLR 03/ A2979 RMK SLP122

2010/08/10 09:00
CWPX 100900Z AUTO ///// 09/ A2979 RMK SLP103

2010/08/10 09:00
CWRX 100900Z AUTO 26006KT 06/ A2990

2010/08/10 09:00
CWUP 100900Z AUTO 18005KT 07/ A2988 RMK SLP140

2010/08/10 09:00
CWUW 100900Z AUTO ///// 9SM CLR 10/ A2990 RMK SLP149

2010/08/10 09:00
CWVH 100900Z AUTO 11008KT 11/ A2967 RMK SLP061

2010/08/10 09:00
CWYK 100900Z AUTO ///// 04/ A2962 RMK SLP056

2010/08/10 09:00
CWZZ 100900Z AUTO ///// 0SM CLR 02/ A2969 RMK SLP079

2010/08/10 09:00
CZBF 100900Z 27004KT 15SM FEW060 FEW270 18/16 A2978 RMK SC1CI1 SLP084

2010/08/10 09:00
CZCP 100900Z AUTO 09006KT 1/8SM CLR 07/ A2974 RMK SLP078

2010/08/10 09:00
CYRB 100900Z CCA 04013KT 15SM FEW150 SCT240 04/01 A2996 RMK AC1CI0 SLP151

2010/08/10 09:00
CYAH 100900Z AUTO 29002KT 9SM OVC009 OVC053 11/10 A2987 RMK SLP125

2010/08/10 09:00
CYBX 100900Z 22017G22KT 2SM -DZ BR OVC003 13/13 A2962 RMK SF8 SLP033

2010/08/10 09:00
CYGV 100900Z AUTO 27002KT 9SM SCT038 OVC082 13/11 A2967 RMK SLP049

2010/08/10 09:00
CYMH 100900Z AUTO 23013G20KT 9SM OVC014 OVC070 16/14 A2957 RMK SLP016

2010/08/10 09:00
CYMT 100900Z 25005KT 15SM SCT100 10/10 A2987 RMK AC2 SLP119

2010/08/10 09:00
CYNM 100900Z AUTO 33004KT 6SM -RA FEW022 FEW033 BKN045 BKN061 15/12 A2991 RMK SLP132

2010/08/10 09:00
CYOY 100900Z AUTO 00000KT 5SM FEW073 12/10 A2986 RMK SLP112

2010/08/10 09:00
CYPH 100900Z AUTO 07003KT 010V090 9SM FEW039 08/08 A2994 RMK SLP142

2010/08/10 09:00
CYPX 100900Z 29007KT 15SM FEW005 BKN065 11/10 A2992 RMK SF1SC6 MEDIVAC SLP133

2010/08/10 09:00
CYQI 100900Z 22004KT 1/2SM FG VV002 17/17 A2985 RMK FG8 RVR RWY 24 4000 FT SLP108

2010/08/10 09:00
CYSL 100900Z 00000KT 1/8SM FG BKN220 12/12 A2983 RMK FG5CI0 SLP104

2010/08/10 09:00
CYUY 100900Z 00000KT 15SM FEW070 16/14 A2990 RMK AC2 SLP127

2010/08/10 09:00
CYWK 100900Z 27005KT 15SM SCT008 BKN030 BKN046 10/09 A2974 RMK SF2SC2SC4 SLP083

2010/08/10 09:00
CYBC 100900Z AUTO 27002KT 9SM FEW072 12/11 A2978 RMK SLP086

2010/08/10 09:00
CYBN 100900Z AUTO 00000KT 3 1/2SM CLR 20/18 A2994 RMK SLP138

2010/08/10 09:00
CYGQ 100900Z 00000KT 15SM SKC 16/16 A2997 RMK SLP149

2010/08/10 09:00
CYHM 100900Z 00000KT 2 1/2SM BR BKN016 20/20 A2994 RMK SC6 SLP137

2010/08/10 09:00
CYKF 100900Z AUTO 00000KT 1/4SM FG VV002 20/20 A2995 RMK SLP140 DENSITY ALT 1800FT

2010/08/10 09:00
CYKL 100900Z AUTO 34007KT 2SM DZ OVC006 OVC027 09/08 A2971 RMK SLP076

2010/08/10 09:00
CYKZ 100900Z 25003KT 3SM BR BKN028 OVC063 22/21 A2994 RMK SC6SC2 SLP137

2010/08/10 09:00
CYOO 100900Z AUTO 00000KT 2SM BR BKN038 OVC050 21/21 A2992 RMK SLP133 DENSITY ALT 1200FT

2010/08/10 09:00
CYQA 100900Z AUTO 00000KT 1 1/2SM BR OVC003 20/20 A2994 RMK SLP139 DENSITY ALT 1700FT

2010/08/10 09:00
CYQK 100900Z 18005KT 15SM SCT060 BKN140 BKN200 24/21 A2990 RMK SC3AC2CI1 LTNG DIST NE SLP119

2010/08/10 09:00
CYRB 100900Z 04013KT 15SM FEW150 SCT240 04/01 A2996 RMK AC1CI0 SLP151

2010/08/10 09:00
CYSB 100900Z 24004KT 15SM FEW150 18/18 A2993 RMK AC2 SLP134

2010/08/10 09:00
CYSC 100900Z AUTO 00000KT 3/8SM FG VV009 14/14 A2991 RMK SLP131 DENSITY ALT 800FT VIS VRB 3/8-3

2010/08/10 09:00
CYVO 100900Z AUTO 00000KT 7SM -RA FEW002 SCT031 SCT035 OVC070 17/17 A2990 RMK SLP128

2010/08/10 09:00
CYVQ 100900Z 00000KT 30SM FEW040 FEW100 BKN290 15/12 A2966 RMK SC1AC1CI2 SLP047

2010/08/10 09:00
CYXL 100900Z 00000KT 15SM TS SCT055CB BKN160 22/19 A2991 RMK CB4AC2 FRQ LTGICCCCG W-N SLP127

2010/08/10 09:00
CYXU 100900Z 00000KT 3SM BR FEW017 SCT037 21/21 A2996 RMK SC2SC2 SLP140

2010/08/10 09:00
CYYB 100900Z 31003KT 12SM SKC 18/17 A2994 RMK SLP138

2010/08/10 09:00
CYYU 100900Z 36003KT 15SM SCT085 14/14 A2992 RMK AC3 SLP133

2010/08/10 09:00
CYAY 100900Z AUTO 22011KT 9SM OVC013 17/15 A2964 RMK SLP038 DENSITY ALT 600FT MAX WND 23022KT AT 0813Z

2010/08/10 09:00
CYDF 100900Z 31004KT 12SM -SHRA BKN028 OVC055 15/14 A2975 RMK SC6SC2 SLP075

2010/08/10 09:00
CYDP 100900Z 31012KT 15SM SCT008 OVC016 10/08 A2968 RMK SF4SC4 SLP051

2010/08/10 09:00
CYGW 100900Z 22003KT 1/2SM -DZ FG VV001 08/08 A2995 RMK FG8 SLP144

2010/08/10 09:00
CYSJ 100900Z 00000KT 1/8SM R23/0900FT/N FG VV001 16/14 A2983 RMK FG8 SLP101

2010/08/10 09:00
CYYG 100900Z 24008KT 10SM OVC003 19/18 A2979 RMK SF8 SLP089

2010/08/10 09:00
CYCB 100900Z 07014KT 3SM BR OVC003 09/09 A2984 RMK SF8 SLP107

2010/08/10 09:00
CYCO 100900Z 23004KT 8SM MIFG VCFG FEW006 FEW050 SCT090 09/09 A2970 RMK SF1SC2AC1 TR SF SLP058

2010/08/10 09:00
CYFS 100900Z 22004KT 8SM -RA OVC008 OVC025 14/14 A2972 RMK ST7SC1 SLP069

2010/08/10 09:00
CYHK 100900Z AUTO 21007KT 9SM CLR 11/08 A2989 RMK SLP125

2010/08/10 09:00
CYHY 100900Z 19005KT 15SM BKN050 16/12 A2974 RMK SC6 SLP073

2010/08/10 09:00
CYRT 100900Z 33005KT 15SM FEW090 FEW240 10/09 A3008 RMK AC2CI0 SLP187

2010/08/10 09:00
CYTE 100900Z AUTO 14003KT 9SM OVC054 OVC085 11/08 A2992 RMK SLP137

2010/08/10 09:00
CYVM 100900Z AUTO 00000KT 9SM BKN001 03/03 A2993 RMK SLP136

2010/08/10 09:00
CYZS 100900Z 34011KT 15SM FEW090 FEW210 08/03 A2997 RMK AC1CI1 SLP152

2010/08/10 09:03
KBAF 100903Z 17003KT 2SM BR CLR 21/20 A2992

2010/08/10 09:00
UTDD 100900Z 17003MPS 120V210 9999 SCT066 FEW180 36/01 Q1007 09CLRD70 NOSIG RMK QFE688/0917

2010/08/10 09:00
UTDL 100900Z 25009MPS 9999 FEW046 35/09 Q1007 NOSIG RMK PFE718 8809//70

2010/08/10 08:50
LIBF 100850Z 31010KT CAVOK 30/12 Q1015 RMK VIS MIN 9999

2010/08/10 08:50
LIEA 100850Z 29006KT 250V340 CAVOK 29/18 Q1016 RMK VIS MIN 9999

2010/08/10 08:55
LIED 100855Z 36003KT CAVOK 31/10 Q1015 RMK SKC VIS MIN 9999 BLU

2010/08/10 08:50
LIEO 100850Z 07004KT 020V130 CAVOK 27/14 Q1016 RMK VIS MIN 9999

2010/08/10 08:50
LIMA 100850Z 03003KT 310V110 CAVOK 24/17 Q1017 RMK VIS MIN 9999

2010/08/10 08:50
LIQN 100850Z VRB02KT CAVOK 25/19 Q1017 RMK VIS MIN 9999

2010/08/10 08:55
LIQW 100855Z 35002KT CAVOK 24/19 Q1016 RMK SKC VIS MIN 9999 BLU

2010/08/10 08:55
LIRE 100855Z 23006KT CAVOK 26/23 Q1015 RMK SKC VIS MIN 9999 WIND THR31 21006KT BLU

2010/08/10 08:55
LIRG 100855Z 28002KT CAVOK 29/18 Q1015 RMK SKC MON NE LIB NC VIS MIN 9999 BLU

2010/08/10 08:50
LIRI 100850Z 00000KT 9999 BKN060 26/20 Q1016 RMK VIS MIN 9999

2010/08/10 08:55
LIRL 100855Z 20008KT 9999 FEW025 28/22 Q1015 RMK FEW MON LIB NC VIS MIN 9999 BLU

2010/08/10 08:55
LIRM 100855Z 03002KT 9999 FEW070 31/25 Q1016 RMK FEW VIS MIN 9999 WIND THR06 03004KT BLU

2010/08/10 08:55
LIRS 100855Z 36002KT CAVOK 26/16 Q1015 RMK SKC VIS MIN 9999 WIND THR21 /////KT BLU

2010/08/10 08:50
LIRU 100850Z 32003KT CAVOK 28/19 Q1015 RMK VIS MIN 9999

2010/08/10 08:55
LIRV 100855Z 05006KT CAVOK 26/14 Q1016 RMK SKC MON E SE LIB NC VIS MIN 9999 BLU

2010/08/10 08:55
LIRX 100855Z 36005KT 9999 SCT023 23/17 Q1015 RMK BKN VIS MIN 9999N VIS MAR 18 KM

2010/08/10 08:50
LIRZ 100850Z VRB02KT CAVOK 26/15 Q1016 RMK VIS MIN 9999

2010/08/10 08:55
LIMH 100855Z 21006KT 9999 FEW000 05/M04 Q1031 RMK FEW MON CLD SCT VAL CLD SCT VIS MIN 9999

2010/08/10 08:55
LIMU 100855Z 07008KT 9999 FEW023 24/20 Q1017 RMK FEW QUK 2 QUL 1 E VIS MAR 15 KM VIS MIN 9999

2010/08/10 08:55
LIMV 100855Z 21004KT 8000 FEW012 21/18 Q1018 RMK FEW MON LIB ELEV SLW VAL FOSCHIA VIS MIN 8000

2010/08/10 08:55
LIMY 100855Z /////KT CAVOK 21/16 Q1017 RMK FEW FEW190 VAL FOSCHIA VIS MIN 9999

2010/08/10 08:55
LIVD 100855Z 00000KT 9999 SCT035 20/15 Q1021 RMK SCT VIS MIN 9999

2010/08/10 08:55
LIVE 100855Z 20004KT 9999 BKN025 17/10 Q1020 RMK BKN VIS MIN 9999

2010/08/10 08:55
LIVM 100855Z 11002KT CAVOK 27/23 Q1016 RMK SKC QUK 0 QUL 0 VIS MAR 12 KM VIS MIN 9999

2010/08/10 08:55
LIVO 100855Z 12002KT 9999 SCT025 20/17 Q1019 RMK SCT VIS MIN 9999

2010/08/10 08:55
LIVR 100855Z 11008KT 9999 BKN020 15/11 Q1023 RMK BKN MON CIME INC VIS MIN 9999

2010/08/10 08:55
LIVT 100855Z 16002KT CAVOK 28/16 Q1015 RMK FEW FEW200 QUK 0 QUL 0 VIS MAR 25 KM VIS MIN 9999

2010/08/10 08:50
LIMG 100850Z 12003KT 9999 FEW030 27/21 Q1016 RMK VIS MIN 9999

2010/08/10 08:55
LIMN 100855Z 09004KT 9999 BKN060 24/18 Q1016 RMK BKN VIS MIN 9999 BLU

2010/08/10 08:50
LIMP 100850Z VRB03KT 4500 BR NSC 25/19 Q1016 RMK VIS MIN 4000N

2010/08/10 08:50
LIMZ 100850Z 36005KT CAVOK 24/19 Q1017 RMK VIS MIN 8000N

2010/08/10 08:55
LIPA 100855Z 22003KT 9999 FEW035 27/22 Q1016 RMK FEW VIS MIN 9999 A3001 BLU

2010/08/10 08:50
LIPB 100850Z 14002KT 9999 SCT060TCU 26/15 Q1017 RMK MON LIB VIS MIN9999

2010/08/10 08:55
LIPC 100855Z 30002KT CAVOK 27/21 Q1015 RMK SKC VIS MIN 9999 WIND THR12 23002KT BLU

2010/08/10 08:55
LIPF 100855Z 00000KT 9999 FEW045 26/21 Q1016 RMK FEW VIS MIN 9999

2010/08/10 08:45
LIPH 100845Z 08005KT CAVOK 27/19 Q1016 RMK FEW FEW100 VIS MIN 9999 WIND THR07 /////KT BLU

2010/08/10 08:55
LIPI 100855Z 06011KT 9999 FEW070 27/17 Q1016 RMK SCT VIS MIN 9999 WIND THR06 /////KT BLU

2010/08/10 08:55
LIPL 100855Z 13003KT CAVOK 26/21 Q1016 RMK BKN SCT100 VIS MIN 9999 BLK BLU

2010/08/10 08:50
LIPO 100850Z 18002KT 9999 SCT050 26/18 Q1016 RMK VIS MIN 9999

2010/08/10 08:50
LIPQ 100850Z 36004KT CAVOK 27/19 Q1015

2010/08/10 08:45
LIPR 100845Z 31001KT CAVOK 27/22 Q1015 RMK SKC VIS MIN 9999 WIND THR31 35002KT BLU

2010/08/10 08:55
LIPS 100855Z 07006KT CAVOK 27/17 Q1016 RMK SKC VIS MIN 9999 BLU

2010/08/10 08:45
LIPX 100845Z 19003KT 9999 SCT050 28/19 Q1016 RMK SCT VIS MIN 9999 BLU

2010/08/10 08:50
LIPY 100850Z 34006KT 310V020 CAVOK 27/20 Q1015 RMK VIS MIN 9999

2010/08/10 08:55
LIVC 100855Z 10006KT 9999 SCT001 12/10 Q1026 RMK SCT MON LIB VAL CLD SCT ELEV VIS MIN 9999

2010/08/10 08:55
LIVP 100855Z 18003KT 1300 BR BKN000TCU 11/09 Q1024 RMK BKN MON INVIS VAL CLD SCT NEBBIA INF VIS MIN 1300

2010/08/10 09:03
KLUK 100903Z AUTO 00000KT 2 1/2SM BR CLR 22/22 A2997

2010/08/10 09:00
VTBS 100900Z 18011KT 9999 FEW020CB SCT120 BKN300 32/23 Q1003 CB N NOSIG

2010/08/10 09:00
VTBD 100900Z 19004KT 9999 FEW020CB SCT120 BKN300 33/22 Q1002 CB NE SW NOSIG

2010/08/10 09:00
VTCC 100900Z 34005KT 9999 BKN035 SCT110 28/24 Q1004 A2967

2010/08/10 09:00
VTSS 100900Z 21005KT 9999 FEW020 SCT120 BKN300 31/23 Q1006 A2971

2010/08/10 09:00
VLVT 100900Z 16002KT 9999 SCT017 FEW027CB SCT040 31/24 Q1001 CB SW

2010/08/10 09:00
VYYY 100900Z 23003KT 7000 BKN018 FEW025CB OVC100 29/26 Q1003

2010/08/10 09:00
VVTS 100900Z 23013KT 9999 SCT017 BKN040 28/24 Q1005 NOSIG

2010/08/10 09:00
VVNB 100900Z 08010KT 9999 FEW027 BKN180 29/25 Q1002 NOSIG

2010/08/10 09:00
VDPP 100900Z 22013KT 9999 SCT015 SCT150 31/22 Q1003

2010/08/10 09:00
VVDN 100900Z 24012KT 200V260 TS 7000 FEW015CB SCT060 BKN270 27/24 Q1005 NOSIG CB/S/SW/W

2010/08/10 09:00
VDSR 100900Z 26006KT 9000 SCT013 FEW015CB BKN040 27/24 Q1003 CB SE SW NW

2010/08/10 09:00
VVPB 100900Z 16003KT 6000 FEW020CB BKN050 27/25 Q1004 NOSIG

2010/08/10 09:00
SEQU 100900Z 03002KT 9999 SCT040 11/05 Q1027 RMK A3033 NOSIG

2010/08/10 09:00
SEGU 100900Z VRB03KT 9999 FEW030 BKN100 23/19 Q1013 NOSIG

2010/08/10 09:00
SEMT 100900Z 18007KT 9999 BKN020 23/21 Q1013

2010/08/10 08:55
EHJR 100855Z AUTO 20026G29KT //// 17/16 Q1009 W17/S3

2010/08/10 09:00
LPFR 100900Z 26004KT 220V280 CAVOK 30/19 Q1016

2010/08/10 09:00
LPMA 100900Z 10003KT 050V140 9999 BKN016 23/18 Q1016 RS07001KT 0514002KT 2310002KT

2010/08/10 09:00
LPPR 100900Z 00000KT CAVOK 28/17 Q1017

2010/08/10 09:00
LPPS 100900Z 34004KT 310V010 9000 SCT011 BKN030 22/20 Q1017

2010/08/10 09:00
LPPT 100900Z VRB02KT CAVOK 33/14 Q1017 NOSIG

2010/08/10 08:55
LIRH 100855Z 15004KT 9999 FEW040 29/19 Q1015 RMK FEW MON LIB NC VIS MIN 9999 WIND THR16 14005KT BLU

2010/08/10 08:55
LIMH 100855Z 21006KT 9999 FEW000 05/M04 Q1031 RMK FEW MON CLD SCT VAL CLD SCT VIS MIN 9999

2010/08/10 08:55
LIMU 100855Z 07008KT 9999 FEW023 24/20 Q1017 RMK FEW QUK 2 QUL 1 E VIS MAR 15 KM VIS MIN 9999

2010/08/10 08:55
LIMV 100855Z 21004KT 8000 FEW012 21/18 Q1018 RMK FEW MON LIB ELEV SLW VAL FOSCHIA VIS MIN 8000

2010/08/10 08:55
LIMY 100855Z /////KT CAVOK 21/16 Q1017 RMK FEW FEW190 VAL FOSCHIA VIS MIN 9999

2010/08/10 08:55
LIVD 100855Z 00000KT 9999 SCT035 20/15 Q1021 RMK SCT VIS MIN 9999

2010/08/10 08:55
LIVE 100855Z 20004KT 9999 BKN025 17/10 Q1020 RMK BKN VIS MIN 9999

2010/08/10 08:55
LIVM 100855Z 11002KT CAVOK 27/23 Q1016 RMK SKC QUK 0 QUL 0 VIS MAR 12 KM VIS MIN 9999

2010/08/10 08:55
LIVO 100855Z 12002KT 9999 SCT025 20/17 Q1019 RMK SCT VIS MIN 9999

2010/08/10 08:55
LIVR 100855Z 11008KT 9999 BKN020 15/11 Q1023 RMK BKN MON CIME INC VIS MIN 9999

2010/08/10 08:55
LIVT 100855Z 16002KT CAVOK 28/16 Q1015 RMK FEW FEW200 QUK 0 QUL 0 VIS MAR 25 KM VIS MIN 9999

2010/08/10 08:55
LIMT 100855Z /////KT 7000 SCT014 17/16 Q1019 RMK SCT MON LIB VAL FOSCHIA VIS MIN 7000

2010/08/10 08:55
EHSA 100855Z AUTO 21021G23KT 9999 18/16 Q1012 W19/S4

2010/08/10 08:50
LIMG 100850Z 12003KT 9999 FEW030 27/21 Q1016 RMK VIS MIN 9999

2010/08/10 08:55
LIMN 100855Z 09004KT 9999 BKN060 24/18 Q1016 RMK BKN VIS MIN 9999 BLU

2010/08/10 08:50
LIMP 100850Z VRB03KT 4500 BR NSC 25/19 Q1016 RMK VIS MIN 4000N

2010/08/10 08:50
LIMZ 100850Z 36005KT CAVOK 24/19 Q1017 RMK VIS MIN 8000N

2010/08/10 08:55
LIPA 100855Z 22003KT 9999 FEW035 27/22 Q1016 RMK FEW VIS MIN 9999 A3001 BLU

2010/08/10 08:50
LIPB 100850Z 14002KT 9999 SCT060TCU 26/15 Q1017 RMK MON LIB VIS MIN9999

2010/08/10 08:55
LIPC 100855Z 30002KT CAVOK 27/21 Q1015 RMK SKC VIS MIN 9999 WIND THR12 23002KT BLU

2010/08/10 08:55
LIPF 100855Z 00000KT 9999 FEW045 26/21 Q1016 RMK FEW VIS MIN 9999

2010/08/10 08:45
LIPH 100845Z 08005KT CAVOK 27/19 Q1016 RMK FEW FEW100 VIS MIN 9999 WIND THR07 /////KT BLU

2010/08/10 08:55
LIPI 100855Z 06011KT 9999 FEW070 27/17 Q1016 RMK SCT VIS MIN 9999 WIND THR06 /////KT BLU

2010/08/10 08:55
LIPL 100855Z 13003KT CAVOK 26/21 Q1016 RMK BKN SCT100 VIS MIN 9999 BLK BLU

2010/08/10 08:50
LIPO 100850Z 18002KT 9999 SCT050 26/18 Q1016 RMK VIS MIN 9999

2010/08/10 08:50
LIPQ 100850Z 36004KT CAVOK 27/19 Q1015

2010/08/10 08:45
LIPR 100845Z 31001KT CAVOK 27/22 Q1015 RMK SKC VIS MIN 9999 WIND THR31 35002KT BLU

2010/08/10 08:55
LIPS 100855Z 07006KT CAVOK 27/17 Q1016 RMK SKC VIS MIN 9999 BLU

2010/08/10 08:45
LIPX 100845Z 19003KT 9999 SCT050 28/19 Q1016 RMK SCT VIS MIN 9999 BLU

2010/08/10 08:50
LIPY 100850Z 34006KT 310V020 CAVOK 27/20 Q1015 RMK VIS MIN 9999

2010/08/10 08:55
LIVC 100855Z 10006KT 9999 SCT001 12/10 Q1026 RMK SCT MON LIB VAL CLD SCT ELEV VIS MIN 9999

2010/08/10 08:55
LIVP 100855Z 18003KT 1300 BR BKN000TCU 11/09 Q1024 RMK BKN MON INVIS VAL CLD SCT NEBBIA INF VIS MIN 1300

2010/08/10 08:55
LIBA 100855Z 31002KT 9999 FEW030 29/21 Q1014 RMK SCT SCT090 VIS MIN 9999 WIND THR29 29002KT BLU

2010/08/10 08:50
LIBC 100850Z 06007KT CAVOK 30/12 Q1014 RMK VIS MIN 9999

2010/08/10 08:50
LIBD 100850Z 36010KT 330V030 CAVOK 28/15 Q1014 RMK VIS MIN 9999

2010/08/10 08:50
LIBG 100850Z 34015KT CAVOK 31/14 Q1013 RMK VIS MIN 9999

2010/08/10 08:55
LIBN 100855Z 34015KT CAVOK 29/20 Q1013 RMK SCT SCT180 VIS MIN 9999 WIND THR14 35014KT BLU

2010/08/10 08:50
LIBP 100850Z 03006KT CAVOK 27/19 Q1015 RMK VIS MIN 9999

2010/08/10 08:45
LIBR 100845Z 33021KT CAVOK 27/21 Q1013 NOSIG RMK SCT SCT200 VIS MIN 9999 WIND THR13 /////KT WIND THR31 31018KT BLU

2010/08/10 08:55
LIBV 100855Z 01011KT CAVOK 27/15 Q1013 RMK BKN BKN120 VIS MIN 9999 WIND THR14 36011KT BLU

2010/08/10 08:50
LICA 100850Z 25013KT 9999 SCT020 27/21 Q1015 RMK VIS MIN 9999

2010/08/10 08:50
LICC 100850Z 07005KT CAVOK 30/17 Q1014 RMK VIS MIN 9999

2010/08/10 08:50
LICD 100850Z 29007KT CAVOK 27/21 Q1016 RMK VIS MIN 9999

2010/08/10 08:55
LICG 100855Z 01005KT CAVOK 28/16 Q1016 RMK SKC VIS MIN 9999 WIND THR08 /////KT WIND THR21 VRB04KT BLU

2010/08/10 08:50
LICJ 100850Z 03010KT CAVOK 26/17 Q1016 RMK VIS MIN 9999

2010/08/10 08:50
LICR 100850Z 35012G24KT 9999 FEW025 28/19 Q1014 RMK VIS MIN 9999

2010/08/10 08:55
LICT 100855Z 33008KT CAVOK 30/12 Q1015 RMK FEW FEW200 VIS MIN 9999 WIND THR13 33008KT BLU

2010/08/10 08:55
LICZ 100855Z 21004KT CAVOK 31/15 Q1014 RMK SKC VIS MIN 9999 WIND THR28 /////KT BLU

2010/08/10 08:55
EHSC 100855Z AUTO 21021G24KT 9999 18/15 Q1012 W///S3

2010/08/10 08:50
LIBF 100850Z 31010KT CAVOK 30/12 Q1015 RMK VIS MIN 9999

2010/08/10 08:50
LIEA 100850Z 29006KT 250V340 CAVOK 29/18 Q1016 RMK VIS MIN 9999

2010/08/10 08:55
LIED 100855Z 36003KT CAVOK 31/10 Q1015 RMK SKC VIS MIN 9999 BLU

2010/08/10 08:50
LIEO 100850Z 07004KT 020V130 CAVOK 27/14 Q1016 RMK VIS MIN 9999

2010/08/10 08:50
LIMA 100850Z 03003KT 310V110 CAVOK 24/17 Q1017 RMK VIS MIN 9999

2010/08/10 08:50
LIQN 100850Z VRB02KT CAVOK 25/19 Q1017 RMK VIS MIN 9999

2010/08/10 08:55
LIQW 100855Z 35002KT CAVOK 24/19 Q1016 RMK SKC VIS MIN 9999 BLU

2010/08/10 08:55
LIRE 100855Z 23006KT CAVOK 26/23 Q1015 RMK SKC VIS MIN 9999 WIND THR31 21006KT BLU

2010/08/10 08:55
LIRG 100855Z 28002KT CAVOK 29/18 Q1015 RMK SKC MON NE LIB NC VIS MIN 9999 BLU

2010/08/10 08:50
LIRI 100850Z 00000KT 9999 BKN060 26/20 Q1016 RMK VIS MIN 9999

2010/08/10 08:55
LIRL 100855Z 20008KT 9999 FEW025 28/22 Q1015 RMK FEW MON LIB NC VIS MIN 9999 BLU

2010/08/10 08:55
LIRM 100855Z 03002KT 9999 FEW070 31/25 Q1016 RMK FEW VIS MIN 9999 WIND THR06 03004KT BLU

2010/08/10 08:55
LIRS 100855Z 36002KT CAVOK 26/16 Q1015 RMK SKC VIS MIN 9999 WIND THR21 /////KT BLU

2010/08/10 08:50
LIRU 100850Z 32003KT CAVOK 28/19 Q1015 RMK VIS MIN 9999

2010/08/10 08:55
LIRV 100855Z 05006KT CAVOK 26/14 Q1016 RMK SKC MON E SE LIB NC VIS MIN 9999 BLU

2010/08/10 08:55
LIRX 100855Z 36005KT 9999 SCT023 23/17 Q1015 RMK BKN VIS MIN 9999N VIS MAR 18 KM

2010/08/10 08:50
LIRZ 100850Z VRB02KT CAVOK 26/15 Q1016 RMK VIS MIN 9999

2010/08/10 09:00
WMBA 100900Z 20006KT 9999 FEW017CB SCT020TCU BKN260 32/25 Q1005

2010/08/10 09:00
WMKA 100900Z 31004KT 9999 FEW020 SCT140 BKN270 30/26 Q1006

2010/08/10 09:00
WMKB 100900Z 30007KT 250V350 7000 FEW020 SCT140 BKN270 31/26 Q1005 NOSIG

2010/08/10 09:00
WMKC 100900Z 04006KT 9999 SCT018 SCT140 BKN220 30/26 Q1005

2010/08/10 09:00
WMKD 100900Z 19007KT 9999 SCT020 BKN280 32/26 Q1005 NOSIG

2010/08/10 09:00
WMKI 100900Z 20005KT 9999 FEW020 BKN280 32/24 Q1005

2010/08/10 09:00
WMKL 100900Z 25003KT 9999 FEW020 BKN270 30/26 Q1006

2010/08/10 09:00
WMKM 100900Z 14006KT 090V200 9999 FEW022 BKN140 BKN270 31/25 Q1006

2010/08/10 09:00
WMKN 100900Z 11006KT 9999 SCT018 OVC220 31/28 Q1005

2010/08/10 09:00
GCLP 100900Z 01013KT 340V050 9000 FEW025 25/19 Q1016 NOSIG

2010/08/10 09:00
GCXO 100900Z 28008KT 6000 2000NW PRFG FEW000 BKN100 20/18 Q1018 NOSIG

2010/08/10 09:00
GCTS 100900Z VRB01KT 9999 BKN100 22/19 Q1016 NOSIG

2010/08/10 09:00
GCRR 100900Z 14006KT 9999 FEW020 24/20 Q1016

2010/08/10 09:00
GCFV 100900Z VRB01KT 9999 SCT040 24/19 Q1016

2010/08/10 09:05
YSRI 100905Z AUTO 00000KT 3100NDV // SCT006 BKN013 OVC018 12/12 Q1012

2010/08/10 09:03
KBLI 100903Z AUTO 16005KT 10SM BKN012 BKN065 OVC080 14/12 A2993

2010/08/10 08:55
LIEC 100855Z 24004KT CAVOK 26/23 Q1015 RMK SKC QUK 1 QUL 0 VIS MAR 30 KM VIS MIN 9999

2010/08/10 08:55
LIED 100855Z 36003KT CAVOK 31/10 Q1015 RMK SKC VIS MIN 9999 BLU

2010/08/10 08:55
LIEE 100855Z 24004KT CAVOK 30/10 Q1015 RMK VIS MIN 9999 WIND THR14 25005KT BLU

2010/08/10 08:50
LIEO 100850Z 07004KT 020V130 CAVOK 27/14 Q1016 RMK VIS MIN 9999

2010/08/10 08:55
LIPA 100855Z 22003KT 9999 FEW035 27/22 Q1016 RMK FEW VIS MIN 9999 A3001 BLU

2010/08/10 08:45
LIPH 100845Z 08005KT CAVOK 27/19 Q1016 RMK FEW FEW100 VIS MIN 9999 WIND THR07 /////KT BLU

2010/08/10 08:45
LIPR 100845Z 31001KT CAVOK 27/22 Q1015 RMK SKC VIS MIN 9999 WIND THR31 35002KT BLU

2010/08/10 08:45
LIPX 100845Z 19003KT 9999 SCT050 28/19 Q1016 RMK SCT VIS MIN 9999 BLU

2010/08/10 08:55
LIQC 100855Z 27002KT CAVOK 25/21 Q1017 RMK BKN SCT090 SCT200 QUK 1 QUL 0 VIS MAR 15 KM VIS MIN 9999

2010/08/10 08:55
LIRG 100855Z 28002KT CAVOK 29/18 Q1015 RMK SKC MON NE LIB NC VIS MIN 9999 BLU

2010/08/10 08:55
LIRL 100855Z 20008KT 9999 FEW025 28/22 Q1015 RMK FEW MON LIB NC VIS MIN 9999 BLU

2010/08/10 08:55
LIRS 100855Z 36002KT CAVOK 26/16 Q1015 RMK SKC VIS MIN 9999 WIND THR21 /////KT BLU

2010/08/10 08:50
LIRU 100850Z 32003KT CAVOK 28/19 Q1015 RMK VIS MIN 9999

2010/08/10 08:55
LIRV 100855Z 05006KT CAVOK 26/14 Q1016 RMK SKC MON E SE LIB NC VIS MIN 9999 BLU

2010/08/10 08:55
LIRX 100855Z 36005KT 9999 SCT023 23/17 Q1015 RMK BKN VIS MIN 9999N VIS MAR 18 KM

2010/08/10 09:03
PASC 100903Z 05014KT 1 3/4SM BR OVC003 03/03 A2975

2010/08/10 09:03
PAQT 100903Z AUTO 05012KT 3SM BR OVC004 03/02 A2979

2010/08/10 09:06
CYEG 100906Z 31005KT 15SM -SHRA SCT080 BKN110 14/ RMK AC4AC2 OCNL LTNG DIST N

2010/08/10 09:00
FMCZ 100900Z 16010KT 9999 FEW023 28/20 Q1017

2010/08/10 09:00
FMEE 100900Z 14012KT 9000 VCSH SCT016 BKN046 21/18 Q1023 TEMPO 5000 SHRA

2010/08/10 09:00
FMEP 100900Z 17006KT 9999 FEW013 FEW040TCU BKN083 25/16 Q1022

2010/08/10 08:59
KNGU 100859Z 21004KT 10SM FEW200 26/23 A2998 RMK AO2 SLP153 T02610233 55003

2010/08/10 09:00
MKJS 100900Z 00000KT 9999 FEW024 BKN220 27/23 Q1012

2010/08/10 09:00
SCAR 100900Z 08005KT CAVOK 09/05 Q1015

2010/08/10 09:00
SCBA 100900Z AUTO 28004KT CAVOK M04/M05 Q1021

2010/08/10 09:00
SCFA 100900Z 33006KT 9999 OVC019 13/08 Q1016

2010/08/10 09:00
SCIE 100900Z 18003KT CAVOK 04/02 Q1016

2010/08/10 09:00
SCTE 100900Z 18007KT 9999 OVC006 7/06 Q1022 NOSIG

2010/08/10 09:00
SKBQ 100900Z 00000KT 9999 FEW015CB SCT070 26/25 A2983 RMK CB/W

2010/08/10 09:00
SKCG 100900Z 00000KT 9999 TS FEW015CB SCT070 27/26 A2984 RMK CB/N

2010/08/10 09:00
SPHI 100900Z 18003KT CAVOK 15/13 Q1015 RMK PP000

2010/08/10 09:00
SPQU 100900Z 05007KT CAVOK 07/M16 Q1026 RMK PP000

2010/08/10 09:00
SPRU 100900Z 15005KT 5000 BR BKN008 OVC012 14/13 Q1014 RMK BIRDS HAZARD RWY 20 PP000

2010/08/10 09:00
SPSO 100900Z 07003KT 7000 SCT012 11/09 Q1016 RMK PP000

2010/08/10 09:00
TTPP 100900Z 00000KT 9999 FEW016 BKN280 24/23 Q1013 NOSIG

2010/08/10 08:50
EGDX 100850Z 24005KT 6000 DZ FEW010 SCT015 BKN050 15/13 Q1010 WHT

2010/08/10 08:50
EGVN 100850Z 23005KT 9999 FEW010 SCT050 BKN080 14/12 Q1010 BLU NOSIG

2010/08/10 08:50
EGXX 100850Z 22009KT 9999 FEW012 SCT030 BKN160 16/14 Q1008 BLU

2010/08/10 09:00
EICK 100900Z 31012KT 9999 FEW025 15/09 Q1009 NOSIG

2010/08/10 09:00
EIDW 100900Z 25013KT 9999 FEW012 SCT018 BKN036 15/11 Q1007 NOSIG

2010/08/10 09:00
EIKN 100900Z 30011KT 270V330 9999 FEW015 SCT021 13/10 Q1007 NOSIG

2010/08/10 09:00
EINN 100900Z 25012KT 9999 FEW020 BKN042 16/12 Q1009 NOSIG

2010/08/10 09:00
NZCH 100900Z 34002KT CAVOK 03/01 Q1026 NOSIG 

2010/08/10 09:00
WBKK 100900Z 33004KT 9999 FEW014 FEW017CB SCT140 BKN270 31/25 Q1007 NOSIG

2010/08/10 09:00
WBSB 100900Z 35005KT 9999 FEW016 FEW017CB BKN140 30/26 Q1006 NOSIG

2010/08/10 09:00
WMKK 100900Z 15004KT 9999 FEW030 SCT140 BKN270 31/26 Q1005 NOSIG

2010/08/10 09:00
WMKP 100900Z 22007KT 9000 FEW020 BKN140 BKN270 31/26 Q1005 NOSIG

2010/08/10 09:00
WSSL 100900Z 16005KT 130V190 9999 SCT020 BKN300 32/24 Q1006

2010/08/10 09:00
WSSS 100900Z 13008KT 110V200 9999 FEW022 BKN300 31/25 Q1006 NOSIG

2010/08/10 09:04
KSMP 100904Z AUTO VRB04KT 1/4SM FG BKN003 BKN013 OVC022 08/08 A2997 RMK AO2 TSNO $ 

2010/08/10 09:07
CYSF 100907Z AUTO VRB02KT 1 1/4SM BR BKN009 OVC018 14/14 A2989 RMK SLP130 DENSITY ALT 900FT

2010/08/10 09:00
YBTL 100900Z 05004KT 8000 -RA FEW006 SCT020 BKN045 23/22 Q1014 INTER 0900/0930 4000 SHRA BKN012

2010/08/10 09:00
YBTL 100900Z 05004KT 8000 -RA FEW006 SCT020 BKN045 23/22 Q1014 INTER 0900/0930 4000 SHRA BKN012

2010/08/10 09:06
KNFE 100906Z AUTO 00000KT 2SM HZ CLR 24/21 A2998 RMK AO2 $ 

2010/08/10 09:00
VTBS 100900Z 18011KT 9999 FEW020CB SCT120 BKN300 32/23 Q1003 CB N NOSIG

2010/08/10 09:00
VTBD 100900Z 19004KT 9999 FEW020CB SCT120 BKN300 33/22 Q1002 CB NE SW NOSIG

2010/08/10 09:00
VTCC 100900Z 34005KT 9999 BKN035 SCT110 28/24 Q1004 A2967

2010/08/10 09:00
VTSS 100900Z 21005KT 9999 FEW020 SCT120 BKN300 31/23 Q1006 A2971

2010/08/10 09:00
VLVT 100900Z 16002KT 9999 SCT017 FEW027CB SCT040 31/24 Q1001 CB SW

2010/08/10 09:00
VYYY 100900Z 23003KT 7000 BKN018 FEW025CB OVC100 29/26 Q1003

2010/08/10 09:00
VVTS 100900Z 23013KT 9999 SCT017 BKN040 28/24 Q1005 NOSIG

2010/08/10 09:00
VVNB 100900Z 08010KT 9999 FEW027 BKN180 29/25 Q1002 NOSIG

2010/08/10 09:00
VDPP 100900Z 22013KT 9999 SCT015 SCT150 31/22 Q1003

2010/08/10 09:00
VVDN 100900Z 24012KT 200V260 TS 7000 FEW015CB SCT060 BKN270 27/24 Q1005 NOSIG CB/S/SW/W

2010/08/10 09:00
VDSR 100900Z 26006KT 9000 SCT013 FEW015CB BKN040 27/24 Q1003 CB SE SW NW

2010/08/10 09:00
VVPB 100900Z 16003KT 6000 FEW020CB BKN050 27/25 Q1004 NOSIG

2010/08/10 09:15
KCCA 100915Z AUTO 00000KT 3SM BR CLR 26/25 A2993 RMK AO2

2010/08/10 08:55
KGZL 100855Z AUTO 00000KT 10SM 24/22 A2991 RMK AO2 PWINO

2010/08/10 09:03
K0F2 100903Z AUTO 21003KT 10SM CLR 26/20 A2990 RMK AO2 T02560202

2010/08/10 09:03
K11R 100903Z AUTO 00000KT 10SM CLR 26/24 A2992 RMK AO2

2010/08/10 09:05
K1H2 100905Z AUTO 00000KT 7SM CLR 25/24 A2992 RMK AO2 T02490236

2010/08/10 09:05
K3LF 100905Z AUTO 00000KT 7SM CLR 25/23 A2993 RMK AO2

2010/08/10 09:05
K3T5 100905Z AUTO 00000KT 10SM SCT014 25/24 A2991 RMK AO2 T02520237

2010/08/10 09:03
K5C1 100903Z AUTO 19004KT 10SM BKN013 26/23 A2997 RMK AO1

2010/08/10 09:02
KAAA 100902Z AUTO 00000KT 10SM CLR 23/21 A2992 RMK AO2 LTG DSNT N T02300212

2010/08/10 09:02
KADS 100902Z AUTO 19003KT 10SM CLR 29/18 A2989 RMK AO2 T02930184

2010/08/10 09:05
KAJG 100905Z AUTO 00000KT 4SM BR CLR 24/23 A2993 RMK AO2 T02350230

2010/08/10 09:05
KALN 100905Z AUTO 00000KT 5SM BR CLR 26/26 A2991 RMK AO2 T02640260

2010/08/10 09:02
KAPY 100902Z AUTO 13003KT 10SM SCT021 SCT026 27/24 A2987 RMK AO2 T02700240

2010/08/10 09:05
KARM 100905Z AUTO 00000KT 7SM CLR 26/24 A2992 RMK AO2 T02600236

2010/08/10 09:07
KASW 100907Z AUTO 00000KT 1 1/2SM BR OVC032 23/23 A2996 RMK AO2 T02300227

2010/08/10 09:05
KBBD 100905Z AUTO 18006KT 10SM CLR 26/20 A2996 RMK

2010/08/10 09:01
KBEA 100901Z AUTO 00000KT 10SM SCT120 25/25 A2990 RMK AO2 T02480245

2010/08/10 09:00
KBKD 100900Z AUTO 18004KT 10SM CLR 28/19 A2992 RMK AO2 T02770186

2010/08/10 09:05
KERV 100905Z AUTO 19004KT 10SM CLR 25/22 A2998 RMK AO2 T02470222

2010/08/10 09:02
KF05 100902Z AUTO 00000KT 10SM CLR 26/19 A2990 RMK AO2 T02640190

2010/08/10 09:03
KFWS 100903Z AUTO 00000KT 10SM CLR 26/20 A2990 RMK AO2 T02600203 TSNO

2010/08/10 09:02
KGDJ 100902Z AUTO 00000KT 10SM CLR 28/20 A2991 RMK AO2 T02810197

2010/08/10 09:05
KGNC 100905Z AUTO 00000KT 10SM CLR 20/19 A3003 RMK AO2 T02000186

2010/08/10 09:03
KGVT 100903Z AUTO 20005KT 10SM CLR 28/22 A2991 RMK AO2

2010/08/10 09:05
KGWB 100905Z AUTO 00000KT 1 1/4SM BR BKN039 BKN046 22/20 A2997 RMK AO2

2010/08/10 09:04
KGYB 100904Z AUTO 00000KT 10SM CLR 25/25 A2996 RMK AO2 T02510245

2010/08/10 09:04
KJOT 100904Z AUTO 00000KT 7SM CLR 25/22 A2993 RMK AO2 LTG DSNT SW

2010/08/10 09:04
KJYL 100904Z AUTO 00000KT 5SM BR CLR 25/24 A3001 RMK AO2

2010/08/10 09:05
KORG 100905Z AUTO 00000KT 3SM BR CLR 25/25 A2992 RMK AO2

2010/08/10 09:05
KOXI 100905Z AUTO 00000KT 3SM CLR 22/21 A2993 RMK AO1 T02170207

2010/08/10 09:00
KOZA 100900Z AUTO 17013G20KT 10SM CLR 27/21 A3001 RMK AO2 T02700206

2010/08/10 09:04
KPPQ 100904Z AUTO 00000KT 4SM BR CLR 27/25 A2993 RMK AO2

2010/08/10 09:05
KSFY 100905Z AUTO 04003KT 10SM SCT035 24/22 A2994 RMK AO2 LTG DSNT SE AND W

2010/08/10 09:04
KTFP 100904Z AUTO 19003KT 10SM SCT018 SCT023 BKN029 29/26 A2988 RMK AO2

2010/08/10 08:55
KMZZ 100855Z AUTO 00000KT 1 1/2SM BR VV007 22/21 A2997 RMK AO2

2010/08/10 09:05
KRSW 100905Z AUTO 10007KT 10SM SCT008 24/23 A2984 RMK AO2

2010/08/10 09:05
KTOL 100905Z 00000KT 1/4SM FG BKN001 BKN010 22/21 A2995 RMK AO2 RVRNO

2010/08/10 09:05
PAEN 100905Z AUTO 00000KT 4SM -RA BR BKN003 BKN009 OVC029 12/12 A2978 RMK AO2 CIG 003V007 P0001 TSNO

2010/08/10 09:04
PAMB 100904Z AUTO 17006KT 2SM BR OVC003 09/09 A2958 RMK AO2 PWINO TSNO $

2010/08/10 09:06
KACV 100906Z AUTO 18007KT 8SM OVC003 11/11 A2991 RMK AO2

2010/08/10 09:06
KELM 100906Z AUTO 00000KT 4SM BR FEW005 BKN065 OVC080 21/19 A2996 RMK AO2 $

2010/08/10 09:06
KFNT 100906Z 00000KT 3SM BR 19/19 A2995 RMK AO2 $

2010/08/10 09:06
KMKG 100906Z 14003KT 1/2SM FG VV001 21/19 A2995 RMK AO2

2010/08/10 09:00
NZCH 100900Z 34002KT CAVOK 03/01 Q1026 NOSIG 

2010/08/10 09:00
CWPK 100900Z AUTO 32001KT 12/ RMK AO1 SLP128 T0116 58001

2010/08/10 09:00
CWEP 100900Z AUTO 23008KT 18/18 RMK AO1 SLP082 T01810178 56009

2010/08/10 09:00
CWNH 100900Z AUTO 18003KT 16/15 RMK AO1 SLP099 T01550152 53002

2010/08/10 09:00
CWNH 100900Z AUTO 18003KT 16/15 RMK AO1 SLP099 T01550152 53002

2010/08/10 09:00
CWDM 100900Z AUTO 23005KT 11/10 RMK AO1 5008 SLP036 T01070103 50010

2010/08/10 09:00
CWBV 100900Z AUTO 25009KT 15/15 RMK AO1 SLP111 T01540151 56009

2010/08/10 09:00
CWRN 100900Z AUTO 20015KT 18/17 RMK AO1 PK WND 21020/0858 SLP099 T01800173 56017

2010/08/10 09:00
CWBV 100900Z AUTO 25009KT 15/15 RMK AO1 SLP111 T01540151 56009

2010/08/10 09:00
CWRN 100900Z AUTO 20015KT 18/17 RMK AO1 PK WND 21020/0858 SLP099 T01800173 56017

2010/08/10 09:00
CWBY 100900Z AUTO 05001KT 13/12 RMK AO1 SLP055 T01290117 53003

2010/08/10 09:00
CWBY 100900Z AUTO 05001KT 13/12 RMK AO1 SLP055 T01290117 53003

2010/08/10 09:00
CTRA 100900Z AUTO 21004KT 22/20 RMK AO1 SLP118 T02170197 58007

2010/08/10 09:00
CXZC 100900Z AUTO 35002KT 10/09 RMK AO1 SLP151 T00990087 51005

2010/08/10 09:00
CTRA 100900Z AUTO 21004KT 22/20 RMK AO1 SLP118 T02170197 58007

2010/08/10 09:00
CXZC 100900Z AUTO 35002KT 10/09 RMK AO1 SLP151 T00990087 51005

2010/08/10 09:00
EIDW 100900Z 25013KT 9999 FEW012 SCT018 BKN036 15/11 Q1007 NOSIG

2010/08/10 09:00
EINN 100900Z 25012KT 9999 FEW020 BKN042 16/12 Q1009 NOSIG

2010/08/10 09:00
EICK 100900Z 31012KT 9999 FEW025 15/09 Q1009 NOSIG

2010/08/10 09:00
EIKN 100900Z 30011KT 270V330 9999 FEW015 SCT021 13/10 Q1007 NOSIG

2010/08/10 09:00
YBBN 100900Z 09007KT 3000 -RA SCT009 SCT020 BKN028 19/19 Q1016 FM0900 02012KT 7000 -RA BKN008 BKN025 TEMPO 0900/1200 02015G25KT 3000 RA BKN006 FM0900 MOD TURB BLW 7000FT

2010/08/10 09:00
CWVT 100900Z AUTO 16005KT 18/15 RMK AO1 SLP122 T01770150 58001

2010/08/10 09:00
CWZW 100900Z AUTO 24012KT 13/06 RMK AO1 PK WND 24018/0846 SLP121 T01340061 51009

2010/08/10 09:00
CWZW 100900Z AUTO 24012KT 13/06 RMK AO1 PK WND 24018/0846 SLP121 T01340061 51009

2010/08/10 09:00
CWZW 100900Z AUTO 24012KT 13/06 RMK AO1 PK WND 24018/0846 SLP121 T01340061 51009

2010/08/10 09:00
CWZW 100900Z AUTO 24012KT 13/06 RMK AO1 PK WND 24018/0846 SLP121 T01340061 51009

2010/08/10 09:00
CWZW 100900Z AUTO 24012KT 13/06 RMK AO1 PK WND 24018/0846 SLP121 T01340061 51009

2010/08/10 09:00
CWLB 100900Z AUTO 21007KT 16/14 RMK AO1 7PAST HR 3007 SLP114 P0003 T01630144 50007

2010/08/10 09:00
CWZW 100900Z AUTO 24012KT 13/06 RMK AO1 PK WND 24018/0846 SLP121 T01340061 51009

2010/08/10 09:00
CWDC 100900Z AUTO 09003KT 15/15 RMK AO1 SLP116 T01510149 56002

2010/08/10 09:00
CWEH 100900Z AUTO 13005KT 16/12 RMK AO1 SLP077 T01580121 56008

2010/08/10 09:00
CWKO 100900Z AUTO 19007KT 18/15 RMK AO1 SLP084 T01800147 58007

2010/08/10 09:00
CWOY 100900Z AUTO 13003KT 15/13 RMK AO1 SLP120 T01500127 55006

2010/08/10 09:00
CWEK 100900Z AUTO 07001KT 11/ RMK AO1 SLP162 T0110 56006

2010/08/10 09:00
CWLP 100900Z AUTO 28012KT 12/12 RMK AO1 SLP156 T01210117 54000

2010/08/10 09:00
CWZG 100900Z AUTO 23003KT 08/08 RMK AO1 SLP133 T00790075 58005

2010/08/10 09:06
KNFE 100906Z AUTO 00000KT 2SM HZ CLR 24/21 A2998 RMK AO2 $

2010/08/10 09:04
KSMP 100904Z AUTO VRB04KT 1/4SM FG BKN003 BKN013 OVC022 08/08 A2997 RMK AO2 TSNO $

2010/08/10 09:05
K2W6 100905Z AUTO 22005KT 10SM CLR 24/21 A2996 RMK AO1

2010/08/10 09:05
K2G4 100905Z AUTO 25005KT 10SM CLR 20/15 A3009 RMK AO1

2010/08/10 09:04
KDMW 100904Z AUTO 22003KT 7SM CLR 24/22 A2996 RMK AO2

2010/08/10 09:05
KCGS 100905Z AUTO 00000KT 10SM CLR 26/22 A2994 RMK AO1

2010/08/10 09:09
KESN 100909Z AUTO 20003KT 10SM CLR 24/23 A2997 RMK AO2

2010/08/10 09:03
KCGE 100903Z AUTO 00000KT 10SM CLR 25/24 A2995 RMK AO1

2010/08/10 09:05
KCBE 100905Z AUTO 00000KT 7SM CLR 20/20 A3002 RMK AO1

2010/08/10 09:05
KFDK 100905Z AUTO 20003KT 5SM BR CLR 23/22 A2996 RMK AO2

2010/08/10 09:06
KFME 100906Z AUTO 00000KT 3SM 19/19 A2995 RMK AO1 SKY OBSCURED

2010/08/10 09:06
KMTN 100906Z AUTO 18003KT 10SM CLR 26/22 A2993 RMK AO2

2010/08/10 09:06
KW29 100906Z AUTO 21006KT 10SM CLR 26/21 A2993 RMK AO1

2010/08/10 09:00
CWLS 100900Z AUTO 00000KT 20/19 RMK AO1 SLP141 T01990189 50001

2010/08/10 09:00
CWLS 100900Z AUTO 00000KT 20/19 RMK AO1 SLP141 T01990189 50001

2010/08/10 09:00
CWWB 100900Z AUTO 22002KT 22/21 RMK AO1 SLP129 T02230208 57001

2010/08/10 09:00
CWWB 100900Z AUTO 22002KT 22/21 RMK AO1 SLP129 T02230208 57001

2010/08/10 08:51
KABE 100851Z 05004KT 8SM CLR 23/21 A2994

2010/08/10 08:51
KALB 100851Z 21003KT 2SM BR SCT019 SCT055 BKN080 21/21 A2994

2010/08/10 08:56
KART 100856Z AUTO 00000KT 4SM BR OVC013 21/20 A2992

2010/08/10 08:54
KAVP 100854Z 00000KT 10SM FEW075 23/19 A2997

2010/08/10 08:51
KBDL 100851Z 00000KT 3SM BR FEW004 BKN090 OVC200 22/21 A2992

2010/08/10 08:52
KBDR 100852Z AUTO 04003KT 10SM FEW055 26/18 A2992

2010/08/10 08:54
KBTV 100854Z 00000KT 1/4SM FG VV001 17/17 A2991

2010/08/10 08:54
KBUF 100854Z 13003KT 3SM BR FEW038 BKN055 OVC075 21/20 A2994

2010/08/10 08:56
KCAE 100856Z 00000KT 6SM BR CLR 25/23 A3000

2010/08/10 08:51
KCAK 100851Z 25003KT 8SM SCT070 OVC100 24/19 A2997

2010/08/10 08:51
KCMH 100851Z 00000KT 10SM FEW075 SCT150 24/21 A2997

2010/08/10 08:53
KCRQ 100853Z 08003KT 10SM OVC011 18/14 A2989

2010/08/10 08:54
KCRW 100854Z 00000KT 4SM BR FEW001 21/19 A3000

2010/08/10 08:56
KDAY 100856Z 24003KT 7SM CLR 24/20 A2999

2010/08/10 08:51
KERI 100851Z 16003KT 5SM HZ BKN050 BKN060 23/21 A2994

2010/08/10 08:54
KGSO 100854Z 21004KT 7SM CLR 24/21 A3003

2010/08/10 08:53
KGSP 100853Z AUTO 00000KT 8SM CLR 24/22 A3002

2010/08/10 08:51
KHTS 100851Z 00000KT 2 1/2SM BR CLR 21/20 A2998

2010/08/10 08:53
KHUL 100853Z AUTO 00000KT 2SM BR CLR 13/13 A2981

2010/08/10 08:53
KIAG 100853Z AUTO 00000KT 2 1/2SM BR FEW043 OVC055 22/21 A2993

2010/08/10 08:51
KILG 100851Z 17003KT 9SM FEW080 24/22 A2993

2010/08/10 08:53
KILM 100853Z AUTO 20003KT 10SM CLR 26/24 A3000

2010/08/10 08:53
KMSS 100853Z AUTO 22004KT 10SM OVC004 22/21 A2992

2010/08/10 08:54
KORH 100854Z AUTO 27007KT 8SM OVC060 21/20 A2994

2010/08/10 08:51
KPVD 100851Z 23003KT 8SM -RA FEW031 SCT090 SCT120 OVC150 22/20 A2992

2010/08/10 08:51
KPWM 100851Z 30003KT 10SM FEW085 21/19 A2987

2010/08/10 08:54
KRIC 100854Z 25006KT 10SM SCT060 26/21 A2996

2010/08/10 08:54
KROC 100854Z 23003KT 2 1/2SM BR FEW060 OVC080 21/20 A2994

2010/08/10 08:54
KSYR 100854Z 00000KT 4SM BR OVC044 22/21 A2993

2010/08/10 08:55
KMZZ 100855Z AUTO 00000KT 1 1/2SM BR VV007 22/21 A2997 RMK AO2

2010/08/10 09:00
CWTA 100900Z AUTO 29005KT 20/20 RMK AO1 SLP124 T02020195 50000

2010/08/10 09:00
CWTG 100900Z AUTO 27006KT 10/ RMK AO1 SLP083 T0096 53005

2010/08/10 09:00
CWUS 100900Z AUTO 26004KT 14/11 RMK AO1 8006 SLP118 T01410113 50006

2010/08/10 09:00
CWUX 100900Z AUTO 18003KT 12/12 RMK AO1 SLP102 T01220118 51004

2010/08/10 09:00
CWVF 100900Z AUTO 14008KT 15/ RMK AO1 T0148

2010/08/10 09:00
CWVI 100900Z AUTO 04004KT 15/15 RMK AO1 6013 SLP083 T01490145 50080

2010/08/10 09:00
CWWA 100900Z AUTO 00000KT 14/12 RMK AO1 SLP133 T01380121 58007

2010/08/10 09:00
CWXA 100900Z AUTO 24005KT 11/08 RMK AO1 SLP114 T01090078 58002

2010/08/10 09:00
CWWA 100900Z AUTO 00000KT 14/12 RMK AO1 SLP133 T01380121 58007

2010/08/10 09:00
CWXA 100900Z AUTO 24005KT 11/08 RMK AO1 SLP114 T01090078 58002

2010/08/10 09:00
CWGR 100900Z AUTO 26010KT 19/18 RMK AO1 SLP069 T01890181 56009

2010/08/10 09:00
CWGT 100900Z AUTO 13006KT 16/14 RMK AO1 SLP131 T01630144 50002

2010/08/10 09:00
CWGW 100900Z AUTO 03001KT 10/10 RMK AO1 SLP106 T01010098 51005

2010/08/10 09:00
CWGY 100900Z AUTO 09004KT 16/14 RMK AO1 SLP088 T01560144 58005

2010/08/10 09:00
CWHL 100900Z AUTO 27002KT 10/ RMK AO1 SLP161 T0102 56006

2010/08/10 09:00
CWHQ 100900Z AUTO 00000KT 12/12 RMK AO1 T01170116

2010/08/10 09:00
CWHT 100900Z AUTO 00000KT 06/03 RMK AO1 SLP118 T00570032 51013

2010/08/10 09:00
CWHV 100900Z AUTO 20002KT 14/14 RMK AO1 SLP116 T01370137 53002

2010/08/10 09:00
CWIG 100900Z AUTO 20010KT RMK AO1 

2010/08/10 09:00
CWIP 100900Z AUTO 27005KT 15/ RMK AO1 T0153

2010/08/10 09:00
CWIS 100900Z AUTO 23001KT 09/09 RMK AO1 SLP126 T00890085 52001

2010/08/10 09:00
CWIW 100900Z AUTO 07004KT 14/14 RMK AO1 SLP108 T01420142 55009

2010/08/10 09:00
CWJB 100900Z AUTO 28002KT 17/16 RMK AO1 T01720157

2010/08/10 09:00
CWJC 100900Z AUTO 12/11 RMK AO1 19 0825Z 1001 SLP152 T01190106

2010/08/10 09:00
CWHL 100900Z AUTO 27002KT 10/ RMK AO1 SLP161 T0102 56006

2010/08/10 09:00
CWHQ 100900Z AUTO 00000KT 12/12 RMK AO1 T01170116

2010/08/10 09:00
CWHT 100900Z AUTO 00000KT 06/03 RMK AO1 SLP118 T00570032 51013

2010/08/10 09:00
CWHV 100900Z AUTO 20002KT 14/14 RMK AO1 SLP116 T01370137 53002

2010/08/10 09:00
CWIG 100900Z AUTO 20010KT RMK AO1 

2010/08/10 09:00
CWIP 100900Z AUTO 27005KT 15/ RMK AO1 T0153

2010/08/10 09:00
CWIS 100900Z AUTO 23001KT 09/09 RMK AO1 SLP126 T00890085 52001

2010/08/10 09:00
CWIW 100900Z AUTO 07004KT 14/14 RMK AO1 SLP108 T01420142 55009

2010/08/10 09:00
CWJB 100900Z AUTO 28002KT 17/16 RMK AO1 T01720157

2010/08/10 09:00
CWJC 100900Z AUTO 12/11 RMK AO1 19 0825Z 1001 SLP152 T01190106

2010/08/10 09:00
CWAV 100900Z AUTO 32003KT 12/10 RMK AO1 SLP113 T01230103 51006

2010/08/10 09:00
CWBA 100900Z AUTO 18003KT 16/16 RMK AO1 T01560156

2010/08/10 09:00
CWBO 100900Z AUTO 24001KT 13/13 RMK AO1 SLP077 T01300127 58006

2010/08/10 09:00
CWBS 100900Z AUTO 23005KT 20/ RMK AO1 T0196

2010/08/10 09:00
CWBT 100900Z AUTO 23001KT 12/12 RMK AO1 SLP055 T01150115 53004

2010/08/10 09:00
CWCJ 100900Z AUTO 06002KT 18/17 RMK AO1 SLP134 T01760173 58001

2010/08/10 09:00
CWDJ 100900Z AUTO 09012KT 21/14 RMK AO1 PK WND 08017/0803 SLP095 T02050143 56012

2010/08/10 09:00
CWAV 100900Z AUTO 32003KT 12/10 RMK AO1 SLP113 T01230103 51006

2010/08/10 09:00
CWBA 100900Z AUTO 18003KT 16/16 RMK AO1 T01560156

2010/08/10 09:00
CWBO 100900Z AUTO 24001KT 13/13 RMK AO1 SLP077 T01300127 58006

2010/08/10 09:00
CWBS 100900Z AUTO 23005KT 20/ RMK AO1 T0196

2010/08/10 09:00
CWBT 100900Z AUTO 23001KT 12/12 RMK AO1 SLP055 T01150115 53004

2010/08/10 09:00
CWCJ 100900Z AUTO 06002KT 18/17 RMK AO1 SLP134 T01760173 58001

2010/08/10 09:00
CWDJ 100900Z AUTO 09012KT 21/14 RMK AO1 PK WND 08017/0803 SLP095 T02050143 56012

2010/08/10 09:00
CWCJ 100900Z AUTO 06002KT 18/17 RMK AO1 SLP134 T01760173 58001

2010/08/10 09:00
CWDJ 100900Z AUTO 09012KT 21/14 RMK AO1 PK WND 08017/0803 SLP095 T02050143 56012

2010/08/10 09:00
CWNE 100900Z AUTO 24014KT 19/18 RMK AO1 PK WND 23019/0806 SLP081 T01880180 55003

2010/08/10 09:00
CWNM 100900Z AUTO 15/15 RMK AO1 SLP096 T01540154 56007

2010/08/10 09:00
CWNP 100900Z AUTO 06001KT 18/18 RMK AO1 SLP092 T01750175 58010

2010/08/10 09:00
CWNQ 100900Z AUTO 16002KT 15/15 RMK AO1 SLP114 T01500145 53005

2010/08/10 09:00
CWPF 100900Z AUTO 24004KT 11/11 RMK AO1 SLP129 T01110109 56005

2010/08/10 09:00
CWPR 100900Z AUTO 29002KT 12/ RMK AO1 SLP127 T0115 58009

2010/08/10 09:00
CWPZ 100900Z AUTO 33001KT 04/03 RMK AO1 SLP159 T00350025 53005

2010/08/10 09:00
CWNM 100900Z AUTO 15/15 RMK AO1 SLP096 T01540154 56007

2010/08/10 09:00
CWNP 100900Z AUTO 06001KT 18/18 RMK AO1 SLP092 T01750175 58010

2010/08/10 09:00
CWNQ 100900Z AUTO 16002KT 15/15 RMK AO1 SLP114 T01500145 53005

2010/08/10 09:00
CWPF 100900Z AUTO 24004KT 11/11 RMK AO1 SLP129 T01110109 56005

2010/08/10 09:00
CWPR 100900Z AUTO 29002KT 12/ RMK AO1 SLP127 T0115 58009

2010/08/10 09:00
CWPZ 100900Z AUTO 33001KT 04/03 RMK AO1 SLP159 T00350025 53005

2010/08/10 09:00
CWPF 100900Z AUTO 24004KT 11/11 RMK AO1 SLP129 T01110109 56005

2010/08/10 09:00
CWPR 100900Z AUTO 29002KT 12/ RMK AO1 SLP127 T0115 58009

2010/08/10 09:00
CWPZ 100900Z AUTO 33001KT 04/03 RMK AO1 SLP159 T00350025 53005

2010/08/10 09:00
CWPR 100900Z AUTO 29002KT 12/ RMK AO1 SLP127 T0115 58009

2010/08/10 09:00
CWPZ 100900Z AUTO 33001KT 04/03 RMK AO1 SLP159 T00350025 53005

2010/08/10 09:01
MMGL 100901Z RTD 06004KT 8SM -RA BKN020 BKN100 OVC300 19/17 A3012 RMK SLP056 56003 902 8/477 -RAB35

2010/08/10 08:50
MMLO 100850Z 00000KT 8SM SCT030 BKN070 OVC200 17/17 A3019 RMK SLP096 57010 900 8/473

2010/08/10 08:55
MMMM 100855Z 00000KT 6SM SCT030 OVC070 17/16 A3019 RMK SLP046 57019 965 8/57/

2010/08/10 08:50
MMPR 100850Z 05010KT 7SM -TSRA SCT008 BKN020CB OVC070 27/26 A2986 RMK SLP106 57004 954 60005 8/97/ TS SE B45 -RA B45

2010/08/10 09:00
CWEL 100900Z AUTO 22001KT 15/14 RMK AO1 SLP128 T01470138 58003

2010/08/10 09:00
CWEW 100900Z AUTO 23002KT 17/17 RMK AO1 SLP124 T01710169 53001

2010/08/10 09:00
CWGB 100900Z AUTO 14004KT 15/14 RMK AO1 SLP133 T01540136 57002

2010/08/10 09:00
CWGL 100900Z AUTO 10001KT 20/20 RMK AO1 SLP141 T02020202 52003

2010/08/10 09:00
CWXL 100900Z AUTO 20003KT 13/11 RMK AO1 T01320112

2010/08/10 09:00
CWYY 100900Z AUTO 33007KT 17/13 RMK AO1 SLP101 T01740125 58007

2010/08/10 09:00
CWZA 100900Z AUTO 32001KT 15/15 RMK AO1 SLP133 T01520148 56010

2010/08/10 09:00
CWZO 100900Z AUTO 00000KT RMK AO1 

2010/08/10 09:00
CWZS 100900Z AUTO 16001KT 13/12 RMK AO1 SLP089 T01280119 55000

2010/08/10 09:00
CWJO 100900Z AUTO 25004KT 15/13 RMK AO1 SLP107 T01520129 51003

2010/08/10 09:00
CWJR 100900Z AUTO 07002KT 15/ RMK AO1 SLP101 T0146 53003

2010/08/10 09:00
CWKH 100900Z AUTO 13/ RMK AO1 T0128

2010/08/10 09:00
CWKX 100900Z AUTO 19004KT 12/06 RMK AO1 SLP147 T01150061 51004

2010/08/10 09:00
CWLC 100900Z AUTO 01003KT 11/ RMK AO1 T0108

2010/08/10 09:00
CWLE 100900Z AUTO 10004KT 17/15 RMK AO1 SLP099 T01680154 55011

2010/08/10 09:00
CWLM 100900Z AUTO 22012KT 11/10 RMK AO1 T01060096

2010/08/10 09:00
CWMM 100900Z AUTO 12002KT 14/13 RMK AO1 SLP140 T01430125 58006

2010/08/10 09:00
CWMQ 100900Z AUTO 11007KT 17/14 RMK AO1 SLP077 T01660144 56011

2010/08/10 09:00
CAHR 100900Z AUTO 22006KT 18/17 RMK AO1 SLP086 T01810172 56009

2010/08/10 09:00
CWBK 100900Z AUTO 23008KT 18/17 RMK AO1 SLP086 T01790166 56011

2010/08/10 09:00
CZSP 100900Z AUTO 21005KT 18/17 RMK AO1 SLP078 T01790170 56009

2010/08/10 09:00
CAHR 100900Z AUTO 22006KT 18/17 RMK AO1 SLP086 T01810172 56009

2010/08/10 09:00
CWBK 100900Z AUTO 23008KT 18/17 RMK AO1 SLP086 T01790166 56011

2010/08/10 09:00
CZSP 100900Z AUTO 21005KT 18/17 RMK AO1 SLP078 T01790170 56009

2010/08/10 09:00
YMML 100900Z 27006KT 7000 OVC009 08/07 Q1008 RMK BR FM0900 VRB03KT 9000 -RA SCT010 SCT030 TEMPO 0900/1200 6000 RA BKN010

2010/08/10 09:00
CXKI 100900Z AUTO 16/15 RMK AO1 SLP118 T01640154 58002

2010/08/10 09:00
CXLB 100900Z AUTO 05005KT 17/17 RMK AO1 SLP111 T01700165 55006

2010/08/10 09:00
CXTD 100900Z AUTO 21010KT 18/16 RMK AO1 SLP099 T01750163 57009

2010/08/10 09:00
CXVN 100900Z AUTO 04001KT 21/20 RMK AO1 SLP121 T02120203 57001

2010/08/10 09:00
CXBO 100900Z AUTO 27002KT 17/16 RMK AO1 T01670156

2010/08/10 09:00
CXCA 100900Z AUTO 17001KT 16/15 RMK AO1 SLP129 T01590152 58002

2010/08/10 09:00
CXCK 100900Z AUTO 11006KT 12/ RMK AO1 T0120

2010/08/10 09:00
CXDI 100900Z AUTO 21001KT 22/21 RMK AO1 SLP118 T02160207 58002

2010/08/10 09:00
CXHF 100900Z AUTO 15/15 RMK AO1 T01500148

2010/08/10 09:00
CXMI 100900Z AUTO 23003KT 17/16 RMK AO1 SLP111 T01660161 55006

2010/08/10 09:00
CXMY 100900Z AUTO 18/17 RMK AO1 T01770167

2010/08/10 09:00
CXOX 100900Z AUTO 09001KT 15/15 RMK AO1 SLP122 T01510145 52001

2010/08/10 09:00
CXSR 100900Z AUTO 26006KT 12/06 RMK AO1 SLP124 T01160056 53003

2010/08/10 09:00
CXSW 100900Z AUTO 13004KT RMK AO1 50003

2010/08/10 09:00
CXTP 100900Z AUTO 22006KT 14/12 RMK AO1 SLP119 T01370119 56016

2010/08/10 09:00
CXWN 100900Z AUTO 33006KT 24/20 RMK AO1 SLP103 T02420198 53010

2010/08/10 09:00
CXZU 100900Z AUTO 05005KT 13/12 RMK AO1 SLP115 T01250124 58001

2010/08/10 09:00
CXMI 100900Z AUTO 23003KT 17/16 RMK AO1 SLP111 T01660161 55006

2010/08/10 09:00
CXMY 100900Z AUTO 18/17 RMK AO1 T01770167

2010/08/10 09:00
CXOX 100900Z AUTO 09001KT 15/15 RMK AO1 SLP122 T01510145 52001

2010/08/10 09:00
CXSR 100900Z AUTO 26006KT 12/06 RMK AO1 SLP124 T01160056 53003

2010/08/10 09:00
CXSW 100900Z AUTO 13004KT RMK AO1 50003

2010/08/10 09:00
CXTP 100900Z AUTO 22006KT 14/12 RMK AO1 SLP119 T01370119 56016

2010/08/10 09:00
CXWN 100900Z AUTO 33006KT 24/20 RMK AO1 SLP103 T02420198 53010

2010/08/10 09:00
CXZU 100900Z AUTO 05005KT 13/12 RMK AO1 SLP115 T01250124 58001

2010/08/10 09:00
CXTP 100900Z AUTO 22006KT 14/12 RMK AO1 SLP119 T01370119 56016

2010/08/10 09:00
CXWN 100900Z AUTO 33006KT 24/20 RMK AO1 SLP103 T02420198 53010

2010/08/10 09:00
CXZU 100900Z AUTO 05005KT 13/12 RMK AO1 SLP115 T01250124 58001

2010/08/10 09:00
CXTP 100900Z AUTO 22006KT 14/12 RMK AO1 SLP119 T01370119 56016

2010/08/10 09:00
CXWN 100900Z AUTO 33006KT 24/20 RMK AO1 SLP103 T02420198 53010

2010/08/10 09:00
CXZU 100900Z AUTO 05005KT 13/12 RMK AO1 SLP115 T01250124 58001

2010/08/10 09:00
CXTP 100900Z AUTO 22006KT 14/12 RMK AO1 SLP119 T01370119 56016

2010/08/10 09:00
CXWN 100900Z AUTO 33006KT 24/20 RMK AO1 SLP103 T02420198 53010

2010/08/10 09:00
CXZU 100900Z AUTO 05005KT 13/12 RMK AO1 SLP115 T01250124 58001

2010/08/10 09:00
CXWN 100900Z AUTO 33006KT 24/20 RMK AO1 SLP103 T02420198 53010

2010/08/10 09:00
CXZU 100900Z AUTO 05005KT 13/12 RMK AO1 SLP115 T01250124 58001

2010/08/10 09:00
CXWN 100900Z AUTO 33006KT 24/20 RMK AO1 SLP103 T02420198 53010

2010/08/10 09:00
CXZU 100900Z AUTO 05005KT 13/12 RMK AO1 SLP115 T01250124 58001

2010/08/10 09:00
CXWN 100900Z AUTO 33006KT 24/20 RMK AO1 SLP103 T02420198 53010

2010/08/10 09:00
CXZU 100900Z AUTO 05005KT 13/12 RMK AO1 SLP115 T01250124 58001

2010/08/10 09:00
CXWN 100900Z AUTO 33006KT 24/20 RMK AO1 SLP103 T02420198 53010

2010/08/10 09:00
CXZU 100900Z AUTO 05005KT 13/12 RMK AO1 SLP115 T01250124 58001

2010/08/10 09:00
CWQH 100900Z AUTO 13001KT 14/14 RMK AO1 T01400140

2010/08/10 09:00
CWQK 100900Z AUTO 28013KT RMK AO1 PK WND 28018/0801

2010/08/10 09:00
CWRK 100900Z AUTO 00000KT 19/18 RMK AO1 SLP135 T01860182 50000

2010/08/10 09:00
CWRY 100900Z AUTO 18003KT 14/11 RMK AO1 SLP076 T01400113 58006

2010/08/10 09:00
CWRZ 100900Z AUTO 27007KT 16/14 RMK AO1 SLP064 T01570143 51002

2010/08/10 09:00
CWSD 100900Z AUTO 25008KT 18/17 RMK AO1 SLP088 T01770169 55006

2010/08/10 09:00
CWSG 100900Z AUTO 25012KT 16/13 RMK AO1 SLP085 T01560130 53003

2010/08/10 09:00
CWSK 100900Z AUTO 32001KT 14/13 RMK AO1 SLP131 T01420133 58005

2010/08/10 09:00
CWSL 100900Z AUTO 00000KT 14/13 RMK AO1 6PAST HR 8003 SLP124 P0010 T01410130 50034

2010/08/10 09:00
CWSP 100900Z AUTO 30010KT 12/10 RMK AO1 PK WND 30018/0822 SLP136 T01180103 58007

2010/08/10 09:00
UBBY 100900Z 17004KT 9999 FEW040 SCT100 32/12 Q1015 NOSIG RMK R33/CLRD70 G/O

2010/08/10 09:00
SMJP 100900Z 00000KT 9999 BKN030 24/23 Q1013 NOSIG

2010/08/10 09:04
KSMP 100904Z AUTO VRB04KT 1/4SM FG BKN003 BKN013 OVC022 08/08 A2997 RMK AO2 TSNO $

2010/08/10 09:04
KFYJ 100904Z AUTO 00000KT 10SM CLR 26/24 A2997 RMK AO1

2010/08/10 09:03
KOCW 100903Z AUTO 23004KT 10SM CLR 26/21 A3000 RMK AO2

2010/08/10 09:03
KTPF 100903Z AUTO 09006KT 10SM SCT015 SCT020 25/24 A2987 RMK AO2

2010/08/10 09:05
K2W6 100905Z AUTO 22005KT 10SM CLR 24/21 A2996 RMK AO1

2010/08/10 09:05
K2G4 100905Z AUTO 25005KT 10SM CLR 20/15 A3009 RMK AO1

2010/08/10 09:05
KCGS 100905Z AUTO 00000KT 10SM CLR 26/22 A2994 RMK AO1

2010/08/10 09:05
KFDK 100905Z AUTO 20003KT 5SM BR CLR 23/22 A2996 RMK AO2

2010/08/10 09:06
KMTN 100906Z AUTO 18003KT 10SM CLR 26/22 A2993 RMK AO2

2010/08/10 09:06
KW29 100906Z AUTO 21006KT 10SM CLR 26/21 A2993 RMK AO1

2010/08/10 09:15
KCCA 100915Z AUTO 00000KT 3SM BR CLR 26/25 A2993 RMK AO2

2010/08/10 09:03
K0F2 100903Z AUTO 21003KT 10SM CLR 26/20 A2990 RMK AO2 T02560202

2010/08/10 09:03
K11R 100903Z AUTO 00000KT 10SM CLR 26/24 A2992 RMK AO2

2010/08/10 09:05
K1H2 100905Z AUTO 00000KT 7SM CLR 25/24 A2992 RMK AO2 T02490236

2010/08/10 09:05
K3LF 100905Z AUTO 00000KT 7SM CLR 25/23 A2993 RMK AO2

2010/08/10 09:05
K3T5 100905Z AUTO 00000KT 10SM SCT014 25/24 A2991 RMK AO2 T02520237

2010/08/10 09:03
K5C1 100903Z AUTO 19004KT 10SM BKN013 26/23 A2997 RMK AO1

2010/08/10 09:02
KAAA 100902Z AUTO 00000KT 10SM CLR 23/21 A2992 RMK AO2 LTG DSNT N T02300212

2010/08/10 09:02
KADS 100902Z AUTO 19003KT 10SM CLR 29/18 A2989 RMK AO2 T02930184

2010/08/10 09:05
KAJG 100905Z AUTO 00000KT 4SM BR CLR 24/23 A2993 RMK AO2 T02350230

2010/08/10 09:05
KALN 100905Z AUTO 00000KT 5SM BR CLR 26/26 A2991 RMK AO2 T02640260

2010/08/10 09:05
KARM 100905Z AUTO 00000KT 7SM CLR 26/24 A2992 RMK AO2 T02600236

2010/08/10 09:07
KASW 100907Z AUTO 00000KT 1 1/2SM BR OVC032 23/23 A2996 RMK AO2 T02300227

2010/08/10 09:05
KBBD 100905Z AUTO 18006KT 10SM CLR 26/20 A2996 RMK

2010/08/10 09:01
KBEA 100901Z AUTO 00000KT 10SM SCT120 25/25 A2990 RMK AO2 T02480245

2010/08/10 09:05
KERV 100905Z AUTO 19004KT 10SM CLR 25/22 A2998 RMK AO2 T02470222

2010/08/10 09:02
KF05 100902Z AUTO 00000KT 10SM CLR 26/19 A2990 RMK AO2 T02640190

2010/08/10 09:03
KFWS 100903Z AUTO 00000KT 10SM CLR 26/20 A2990 RMK AO2 T02600203 TSNO

2010/08/10 09:02
KGDJ 100902Z AUTO 00000KT 10SM CLR 28/20 A2991 RMK AO2 T02810197

2010/08/10 09:05
KGNC 100905Z AUTO 00000KT 10SM CLR 20/19 A3003 RMK AO2 T02000186

2010/08/10 09:03
KGVT 100903Z AUTO 20005KT 10SM CLR 28/22 A2991 RMK AO2

2010/08/10 09:05
KGWB 100905Z AUTO 00000KT 1 1/4SM BR BKN039 BKN046 22/20 A2997 RMK AO2

2010/08/10 09:04
KGYB 100904Z AUTO 00000KT 10SM CLR 25/25 A2996 RMK AO2 T02510245

2010/08/10 09:04
KJOT 100904Z AUTO 00000KT 7SM CLR 25/22 A2993 RMK AO2 LTG DSNT SW

2010/08/10 09:04
KJYL 100904Z AUTO 00000KT 5SM BR CLR 25/24 A3001 RMK AO2

2010/08/10 09:05
KORG 100905Z AUTO 00000KT 3SM BR CLR 25/25 A2992 RMK AO2

2010/08/10 09:05
KOXI 100905Z AUTO 00000KT 3SM CLR 22/21 A2993 RMK AO1 T02170207

2010/08/10 09:04
KPPQ 100904Z AUTO 00000KT 4SM BR CLR 27/25 A2993 RMK AO2

2010/08/10 09:04
KTFP 100904Z AUTO 19003KT 10SM SCT018 SCT023 BKN029 29/26 A2988 RMK AO2

2010/08/10 08:55
KLUF 100855Z AUTO 00000KT 10SM FEW120 28/15 A2980 RMK AO2 SLP062 T02830153 50001 $

2010/08/10 08:56
KNXX 100856Z AUTO 00000KT 10SM CLR 24/19 A2994 RMK AO2 SLP142 T02440194 56004 $

2010/08/10 08:59
KNGU 100859Z 21004KT 10SM FEW200 26/23 A2998 RMK AO2 SLP153 T02610233 55003

2010/08/10 09:00
TTPP 100900Z 00000KT 9999 FEW016 BKN280 24/23 Q1013 NOSIG

2010/08/10 09:02
KAPY 100902Z AUTO 13003KT 10SM SCT021 SCT026 27/24 A2987 RMK AO2 T02700240

2010/08/10 09:04
KCEW 100904Z AUTO 00000KT 3SM BR CLR 22/22 A2993 RMK AO2

2010/08/10 09:04
KMIW 100904Z AUTO 09009KT 7SM -RA OVC037 23/22 A2992 RMK AO2 LTG DSNT ALQDS TSE0858 PRESFR P0002 $

2010/08/10 09:04
KOTM 100904Z AUTO 36010KT 2SM VCTS -RA BR SCT019 BKN050 OVC100 22/21 A2999 RMK AO2 WSHFT 0838 LTG DSNT ALQDS PRESFR P0009

2010/08/10 09:04
KRHI 100904Z AUTO 00000KT 10SM CLR 17/16 A3001 RMK AO2

2010/08/10 09:04
KSPW 100904Z AUTO 13009KT 10SM -TSRA SCT007 SCT011 BKN035 24/23 A2986 RMK AO2 LTG DSNT ALQDS RAB0858 P0001

2010/08/10 09:05
KSJC 100905Z AUTO 12005KT 10SM SCT012 14/11 A2990 RMK AO2

2010/08/10 09:05
KRSW 100905Z AUTO 10007KT 10SM SCT008 24/23 A2984 RMK AO2

2010/08/10 09:05
PAEN 100905Z AUTO 00000KT 4SM -RA BR BKN003 BKN009 OVC029 12/12 A2978 RMK AO2 CIG 003V007 P0001 TSNO

2010/08/10 09:04
PAMB 100904Z AUTO 17006KT 2SM BR OVC003 09/09 A2958 RMK AO2 PWINO TSNO $

2010/08/10 09:06
KACV 100906Z AUTO 18007KT 8SM OVC003 11/11 A2991 RMK AO2

2010/08/10 09:06
KELM 100906Z AUTO 00000KT 4SM BR FEW005 BKN065 OVC080 21/19 A2996 RMK AO2 $

2010/08/10 09:06
KNFE 100906Z AUTO 00000KT 2SM HZ CLR 24/21 A2998 RMK AO2 $

2010/08/10 09:04
PAOT 100904Z 16010KT 10SM FEW015 BKN034 13/12 A2945 RMK AO2

2010/08/10 09:05
KTOL 100905Z 00000KT 1/4SM FG BKN001 BKN010 22/21 A2995 RMK AO2 RVRNO

2010/08/10 09:06
KFNT 100906Z 00000KT 3SM BR 19/19 A2995 RMK AO2 $

2010/08/10 09:06
KMKG 100906Z 14003KT 1/2SM FG VV001 21/19 A2995 RMK AO2

2010/08/10 08:53
KPTK 100853Z COR 00000KT 6SM BR FEW140 22/21 A2996 RMK AO2 SLP137 T02220211 53002

2010/08/10 08:55
KTTS 100855Z 12005KT 10SM FEW015 FEW065 26/24 A2992 RMK SLP132 1CU 1SC /0/ 57010

2010/08/10 08:55
KGZL 100855Z AUTO 00000KT 10SM 24/22 A2991 RMK AO2 PWINO

2010/08/10 09:00
KBKD 100900Z AUTO 18004KT 10SM CLR 28/19 A2992 RMK AO2 T02770186

2010/08/10 09:00
KOZA 100900Z AUTO 17013G20KT 10SM CLR 27/21 A3001 RMK AO2 T02700206

2010/08/10 09:09
KESN 100909Z AUTO 20003KT 10SM CLR 24/23 A2997 RMK AO2

2010/08/10 09:05
KCBE 100905Z AUTO 00000KT 7SM CLR 20/20 A3002 RMK AO1

2010/08/10 09:05
KSFY 100905Z AUTO 04003KT 10SM SCT035 24/22 A2994 RMK AO2 LTG DSNT SE AND W

2010/08/10 09:00
FMNM 100900Z 22010KT CAVOK 31/15 Q1017

2010/08/10 09:04
PAOT 100904Z 16010KT 10SM FEW015 BKN034 13/12 A2945

2010/08/10 09:00
FBSK 100900Z 13009KT CAVOK 14/M06 Q1032 NOSIG

2010/08/10 09:00
YBTL 100900Z 05004KT 8000 -RA FEW006 SCT020 BKN045 23/22 Q1014 INTER 0900/0930 4000 SHRA BKN012

2010/08/10 08:50
OOSA 100850Z 17011KT 150V210 9000 FEW012 BKN025 28/22 Q1004 NOSIG RMK05 RH72.

2010/08/10 09:00
OOMS 100900Z 02009KT 340V060 8000 NSC 33/27 Q1001 NOSIG

2010/08/10 09:00
UAAA 100900Z 32006MPS 9999 VCTS SCT050CB BKN100 31/10 Q1009 88CLRD65 TEMPO VRB15MPS TS SQ

2010/08/10 09:00
UACC 100900Z 01006MPS 310V010 CAVOK 20/04 Q1019 040/0070 NOSIG RMK QFE733/0977

2010/08/10 09:00
UAKK 100900Z 35007MPS 9999 BKN050CB 18/06 Q1018 050///70 NOSIG RMK QFE716/0955

2010/08/10 09:00
UARR 100900Z 06007MPS 4200 FU NSC 35/04 Q1018 04CLRD70 NOSIG RMK QFE760/1014

2010/08/10 09:00
UATE 100900Z 13008MPS CAVOK 41/03 Q1012 120///70 NOSIG RMK QFE757/1009

2010/08/10 09:00
UATG 100900Z 08004G07MPS CAVOK 41/10 Q1013 14CLRD70 NOSIG RMK QFE761/1015

2010/08/10 09:00
UATT 100900Z 08006MPS 050V110 6000 NSC 30/03 Q1021 13CLRD70 NOSIG RMK QFE746/0995

2010/08/10 09:00
UAUU 100900Z VRB01MPS CAVOK 25/02 Q1022 33CLRD70 NOSIG RMK QFE750/1001

2010/08/10 09:00
UTDD 100900Z 17003MPS 120V210 9999 SCT066 FEW180 36/01 Q1007 09CLRD70 NOSIG RMK QFE688/0917

2010/08/10 09:06
CYEG 100906Z 31005KT 15SM -SHRA SCT080 BKN110 14/ RMK AC4AC2 OCNL LTNG DIST N

2010/08/10 09:00
SBCY 100900Z 11003KT CAVOK 20/16 Q1016

2010/08/10 09:00
MKJS 100900Z 00000KT 9999 FEW024 BKN220 27/23 Q1012

2010/08/10 09:00
TLPL 100900Z 16006KT 9999 SCT021 28/25 Q1013

2010/08/10 09:00
CYRB 100900Z CCA 04013KT 15SM FEW150 SCT240 04/01 A2996 RMK AC1CI0 SLP151

2010/08/10 09:00
CYBG 100900Z 00000KT 15SM FEW045 SCT210 14/12 A2984 RMK SC2CI1 SLP105

2010/08/10 09:00
CYDQ 100900Z AUTO 00000KT 9SM CLR 07/05 A2989 RMK SLP139

2010/08/10 09:00
CYEG 100900Z 32004KT 15SM SCT080 BKN110 14/14 A2985 RMK AC4AC2 VIRGA OCNL LTNG DIST N SLP108

2010/08/10 09:00
CYFB 100900Z 34006KT 30SM SCT027 OVC064 11/10 A2987 RMK SC3SC5 SLP116

2010/08/10 09:00
CYFC 100900Z AUTO 00000KT 1/4SM FG VV002 17/17 A2980 RMK SLP093 DENSITY ALT 400FT RVR MISG

2010/08/10 09:00
CYFT 100900Z 30009KT 1/2SM -DZ FG VV001 09/09 A2960 RMK FG8 SLP028

2010/08/10 09:00
CYGL 100900Z 32002KT 12SM -RA OVC007 08/08 A2994 RMK SC8 TWLGT SLP145

2010/08/10 09:00
CYHZ 100900Z 21007KT 1/2SM R14/P6000FT/U R23/3000FT/N -SHRA FG VV001 17/17 A2986 RMK FG8 SLP112

2010/08/10 09:00
CYJT 100900Z 18012KT 15SM FEW008 BKN030 OVC050 17/15 A2976 RMK SF2SC6SC1 SLP078

2010/08/10 09:00
CYKL 100900Z AUTO 34007KT 2SM DZ OVC006 OVC027 09/08 A2971 RMK SLP076

2010/08/10 09:00
CYMH 100900Z AUTO 23013G20KT 9SM OVC014 OVC070 16/14 A2957 RMK SLP016

2010/08/10 09:00
CYMX 100900Z 22003KT 1/2SM R06/2200FT/N FG SKC 18/15 A2990 RMK FG3 SLP126

2010/08/10 09:00
CYOW 100900Z 20003KT 0SM R07/1100FT/N R32/0800V1100FT/N FG VV000 17/17 A2991 RMK FG8 SLP129

2010/08/10 09:00
CYQB 100900Z 00000KT 12SM PRFG FEW005 FEW100 FEW250 15/14 A2986 RMK SF1AC1CI1 SLP113

2010/08/10 09:00
CYQG 100900Z 00000KT 4SM BR SKC 22/21 A2995 RMK SLP139

2010/08/10 09:00
CYQM 100900Z 23006KT 1/4SM R06/3000FT/D R29/1400FT/N FG VV001 17/17 A2980 RMK FG8 SLP091

2010/08/10 09:00
CYQQ 100900Z 31005KT 20SM FEW040 FEW080 FEW240 15/12 A2994 RMK SC1AC1CI0 SLP139

2010/08/10 09:00
CYQX 100900Z 20012KT 20SM -SHRA FEW010 BKN090 BKN130 15/13 A2985 RMK SC2AC5AC1 SLP109

2010/08/10 09:00
CYQY 100900Z 21005KT 15SM FEW021 SCT058 BKN240 17/16 A2982 RMK SC2SC2CI1 SLP097

2010/08/10 09:00
CYRB 100900Z 04013KT 15SM FEW150 SCT240 04/01 A2996 RMK AC1CI0 SLP151

2010/08/10 09:00
CYSJ 100900Z 00000KT 1/8SM R23/0900FT/N FG VV001 16/14 A2983 RMK FG8 SLP101

2010/08/10 09:00
CYTE 100900Z AUTO 14003KT 9SM OVC054 OVC085 11/08 A2992 RMK SLP137

2010/08/10 09:00
CYTR 100900Z 00000KT 1SM BR BKN020 OVC056 19/15 A2992 RMK FG4SC2SC2 SLP131

2010/08/10 09:00
CYUL 100900Z 25005KT 2 1/2SM BR OVC001 20/19 A2990 RMK SF8 SLP124

2010/08/10 09:00
CYUY 100900Z 00000KT 15SM FEW070 16/14 A2990 RMK AC2 SLP127

2010/08/10 09:00
CYVP 100900Z 32009KT 1 1/2SM BR OVC004 05/04 A2986 RMK SF8 VIS VRB 1-2 SLP112

2010/08/10 09:00
CYVR 100900Z 12006KT 15SM FEW012 SCT040 BKN080 OVC100 15/11 A2993 RMK SC2SC2AC2AC3 SLP136

2010/08/10 09:00
CYWG 100900Z 32016KT 9SM -SHRA FEW014 OVC042 23/20 A2984 RMK SF2SC6 CB EMBD LTGCCCG DST NW-N PRESFR SLP101

2010/08/10 09:00
CYWK 100900Z 27005KT 15SM SCT008 BKN030 BKN046 10/09 A2974 RMK SF2SC2SC4 SLP083

2010/08/10 09:00
CYXU 100900Z 00000KT 3SM BR FEW017 SCT037 21/21 A2996 RMK SC2SC2 SLP140

2010/08/10 09:00
CYXX 100900Z 24003KT 10SM FEW005 OVC020 15/10 A2994 RMK SF2SC6 SLP138

2010/08/10 09:00
CYXY 100900Z 16010KT 40SM SCT060 SCT100 11/06 A2984 RMK SC3AC0 SLP117

2010/08/10 09:00
CYYC 100900Z 36002KT 15SM BKN110 13/10 A2989 RMK AC6 VIRGA SLP117

2010/08/10 09:00
CYYJ 100900Z 00000KT 5SM BR FEW005 BKN014 OVC020 12/11 A2993 RMK SF1SC6SC2 SLP137

2010/08/10 09:00
CYYQ 100900Z 13004KT 1/4SM R33/1600FT/N FG VV002 08/08 A3006 RMK FG8 SLP182

2010/08/10 09:00
CYYR 100900Z 27008KT 15SM FEW003 FEW051 FEW083 SCT240 13/12 A2960 RMK SF1SC1AC1CI0 SLP025

2010/08/10 09:00
CYYT 100900Z 13003KT 2SM -DZ BR FEW003 OVC007 14/13 A2990 RMK SF2SF6 SLP128

2010/08/10 09:00
CYYZ 100900Z 27003KT 6SM BR SCT040 BKN062 22/21 A2993 RMK SC3SC3 SLP134

2010/08/10 09:00
CYZF 100900Z 12003KT 15SM FEW110 FEW230 16/13 A2975 RMK AC1CI2 SLP080

2010/08/10 09:00
CYZV 100900Z 00000KT 30SM FEW100 13/11 A2973 RMK AC1 SLP070

2010/08/10 09:00
CYZX 100900Z 34004KT 3/4SM BR BKN090 BKN150 18/18 A2981 RETS RMK FG3AC2AC2 WNDY HILL 18007KT VIS VRB 1/2 - 1 SLP095

2010/08/10 09:00
CYZY 100900Z AUTO 00000KT 9SM BKN081 09/08 A2992 RMK SLP147

2010/08/10 09:00
CZBF 100900Z 27004KT 15SM FEW060 FEW270 18/16 A2978 RMK SC1CI1 SLP084

2010/08/10 09:00
LRAR 100900Z 34006KT 290V080 CAVOK 25/16 Q1018

2010/08/10 09:00
LRTC 100900Z 34010KT CAVOK 31/19 Q1012

2010/08/10 09:00
LRTM 100900Z VRB04KT 9999 FEW028 25/17 Q1017

2010/08/10 09:00
EPSC 100900Z 14006KT 9999 BKN009 20/17 Q1017

2010/08/10 09:00
LJLJ 100900Z VRB02KT 9999 SCT033 24/16 Q1018 NOSIG

2010/08/10 09:00
LJMB 100900Z 12003KT 9999 FEW041 23/18 Q1018

2010/08/10 09:00
LJPZ 100900Z VRB02KT CAVOK 27/17 Q1015

2010/08/10 09:00
LKMT 100900Z VRB01KT 9999 FEW026 22/16 Q1018 NOSIG RMK REG QNH 1015

2010/08/10 09:00
LKPR 100900Z 11003KT 010V180 9999 SCT025 22/14 Q1018 NOSIG RMK REG QNH 1015

2010/08/10 09:00
LKTB 100900Z VRB02KT 9999 FEW032 23/16 Q1018 NOSIG RMK REG QNH 1015

2010/08/10 09:00
LPAZ 100900Z 04009KT 9999 FEW021 BKN039 21/15 Q1020

2010/08/10 09:00
LPPD 100900Z 04005KT 010V110 9999 FEW022 BKN035 21/12 Q1021

2010/08/10 09:00
LFVP 100900Z 17004KT 9999 FEW004 BKN008 BKN016 15/15 Q1011

2010/08/10 09:00
FMCH 100900Z 21010KT 9999 FEW023TCU 29/26 Q1019 NOSIG

2010/08/10 09:00
FMCZ 100900Z 16010KT 9999 FEW023 28/20 Q1017

2010/08/10 09:00
FMEE 100900Z 14012KT 9000 VCSH SCT016 BKN046 21/18 Q1023 TEMPO 5000 SHRA

2010/08/10 09:00
FMMT 100900Z 16008KT 9999 VCSH FEW017 25/20 Q1021

2010/08/10 09:00
FMNN 100900Z 34006KT 9999 FEW020 SCT100 31/20 Q1016

2010/08/10 09:00
VYYY 100900Z 23003KT 7000 BKN018 FEW025CB OVC100 29/26 Q1003

2010/08/10 09:00
WBGG 100900Z 26003KT 9999 -RA FEW015CB SCT020 BKN300 26/25 Q1007 RETSRA NOSIG

2010/08/10 09:00
WBKK 100900Z 33004KT 9999 FEW014 FEW017CB SCT140 BKN270 31/25 Q1007 NOSIG

2010/08/10 09:00
WBSB 100900Z 35005KT 9999 FEW016 FEW017CB BKN140 30/26 Q1006 NOSIG

2010/08/10 08:45
LIBR 100845Z 33021KT CAVOK 27/21 Q1013 NOSIG RMK SCT SCT200 VIS MIN 9999 WIND THR13 /////KT WIND THR31 31018KT BLU

2010/08/10 08:50
LIBC 100850Z 06007KT CAVOK 30/12 Q1014 RMK VIS MIN 9999

2010/08/10 08:50
LIBD 100850Z 36010KT 330V030 CAVOK 28/15 Q1014 RMK VIS MIN 9999

2010/08/10 08:50
LIBP 100850Z 03006KT CAVOK 27/19 Q1015 RMK VIS MIN 9999

2010/08/10 08:50
LICA 100850Z 25013KT 9999 SCT020 27/21 Q1015 RMK VIS MIN 9999

2010/08/10 08:50
LICC 100850Z 07005KT CAVOK 30/17 Q1014 RMK VIS MIN 9999

2010/08/10 08:55
LICG 100855Z 01005KT CAVOK 28/16 Q1016 RMK SKC VIS MIN 9999 WIND THR08 /////KT WIND THR21 VRB04KT BLU

2010/08/10 08:50
LICJ 100850Z 03010KT CAVOK 26/17 Q1016 RMK VIS MIN 9999

2010/08/10 08:50
LICR 100850Z 35012G24KT 9999 FEW025 28/19 Q1014 RMK VIS MIN 9999

2010/08/10 08:55
LICT 100855Z 33008KT CAVOK 30/12 Q1015 RMK FEW FEW200 VIS MIN 9999 WIND THR13 33008KT BLU

2010/08/10 08:50
LIEA 100850Z 29006KT 250V340 CAVOK 29/18 Q1016 RMK VIS MIN 9999

2010/08/10 08:55
LIEE 100855Z 24004KT CAVOK 30/10 Q1015 RMK VIS MIN 9999 WIND THR14 25005KT BLU

2010/08/10 08:50
LIEO 100850Z 07004KT 020V130 CAVOK 27/14 Q1016 RMK VIS MIN 9999

2010/08/10 08:50
LIMG 100850Z 12003KT 9999 FEW030 27/21 Q1016 RMK VIS MIN 9999

2010/08/10 08:50
LIPB 100850Z 14002KT 9999 SCT060TCU 26/15 Q1017 RMK MON LIB VIS MIN9999

2010/08/10 08:50
LIPO 100850Z 18002KT 9999 SCT050 26/18 Q1016 RMK VIS MIN 9999

2010/08/10 08:50
LIPY 100850Z 34006KT 310V020 CAVOK 27/20 Q1015 RMK VIS MIN 9999

2010/08/10 08:50
LIRZ 100850Z VRB02KT CAVOK 26/15 Q1016 RMK VIS MIN 9999

2010/08/10 08:55
LIBA 100855Z 31002KT 9999 FEW030 29/21 Q1014 RMK SCT SCT090 VIS MIN 9999 WIND THR29 29002KT BLU

2010/08/10 08:50
LIBG 100850Z 34015KT CAVOK 31/14 Q1013 RMK VIS MIN 9999

2010/08/10 08:55
LIBN 100855Z 34015KT CAVOK 29/20 Q1013 RMK SCT SCT180 VIS MIN 9999 WIND THR14 35014KT BLU

2010/08/10 08:55
LIBV 100855Z 01011KT CAVOK 27/15 Q1013 RMK BKN BKN120 VIS MIN 9999 WIND THR14 36011KT BLU

2010/08/10 08:55
LIBY 100855Z 36012G22KT CAVOK 28/18 Q1012 RMK SCT SCT200 QUK 3 QUL 1 N VIS MAR 20 KM VIS MIN 9999

2010/08/10 08:50
LICD 100850Z 29007KT CAVOK 27/21 Q1016 RMK VIS MIN 9999

2010/08/10 08:55
LICF 100855Z 04007KT 9999 FEW025 28/23 Q1015 RMK FEW QUK 2 QUL 0 VIS MAR 16 KM MON W LIB VAR RAPID MON E LIB NC VIS MIN 9999

2010/08/10 08:55
LICZ 100855Z 21004KT CAVOK 31/15 Q1014 RMK SKC VIS MIN 9999 WIND THR28 /////KT BLU

2010/08/10 08:55
LIED 100855Z 36003KT CAVOK 31/10 Q1015 RMK SKC VIS MIN 9999 BLU

2010/08/10 08:45
LIPH 100845Z 08005KT CAVOK 27/19 Q1016 RMK FEW FEW100 VIS MIN 9999 WIND THR07 /////KT BLU

2010/08/10 08:45
LIPR 100845Z 31001KT CAVOK 27/22 Q1015 RMK SKC VIS MIN 9999 WIND THR31 35002KT BLU

2010/08/10 08:45
LIPX 100845Z 19003KT 9999 SCT050 28/19 Q1016 RMK SCT VIS MIN 9999 BLU

2010/08/10 08:55
LIMH 100855Z 21006KT 9999 FEW000 05/M04 Q1031 RMK FEW MON CLD SCT VAL CLD SCT VIS MIN 9999

2010/08/10 08:55
LIMN 100855Z 09004KT 9999 BKN060 24/18 Q1016 RMK BKN VIS MIN 9999 BLU

2010/08/10 08:55
LIMU 100855Z 07008KT 9999 FEW023 24/20 Q1017 RMK FEW QUK 2 QUL 1 E VIS MAR 15 KM VIS MIN 9999

2010/08/10 08:55
LIMV 100855Z 21004KT 8000 FEW012 21/18 Q1018 RMK FEW MON LIB ELEV SLW VAL FOSCHIA VIS MIN 8000

2010/08/10 08:55
LIMY 100855Z /////KT CAVOK 21/16 Q1017 RMK FEW FEW190 VAL FOSCHIA VIS MIN 9999

2010/08/10 08:55
LIPA 100855Z 22003KT 9999 FEW035 27/22 Q1016 RMK FEW VIS MIN 9999 A3001 BLU

2010/08/10 08:55
LIPC 100855Z 30002KT CAVOK 27/21 Q1015 RMK SKC VIS MIN 9999 WIND THR12 23002KT BLU

2010/08/10 08:55
LIPF 100855Z 00000KT 9999 FEW045 26/21 Q1016 RMK FEW VIS MIN 9999

2010/08/10 08:55
LIPI 100855Z 06011KT 9999 FEW070 27/17 Q1016 RMK SCT VIS MIN 9999 WIND THR06 /////KT BLU

2010/08/10 08:55
LIPL 100855Z 13003KT CAVOK 26/21 Q1016 RMK BKN SCT100 VIS MIN 9999 BLK BLU

2010/08/10 08:55
LIPS 100855Z 07006KT CAVOK 27/17 Q1016 RMK SKC VIS MIN 9999 BLU

2010/08/10 08:55
LIMT 100855Z /////KT 7000 SCT014 17/16 Q1019 RMK SCT MON LIB VAL FOSCHIA VIS MIN 7000

2010/08/10 08:45
LIPX 100845Z 19003KT 9999 SCT050 28/19 Q1016 RMK SCT VIS MIN 9999 BLU

2010/08/10 08:55
LIQC 100855Z 27002KT CAVOK 25/21 Q1017 RMK BKN SCT090 SCT200 QUK 1 QUL 0 VIS MAR 15 KM VIS MIN 9999

2010/08/10 08:50
LIQN 100850Z VRB02KT CAVOK 25/19 Q1017 RMK VIS MIN 9999

2010/08/10 08:55
LIQW 100855Z 35002KT CAVOK 24/19 Q1016 RMK SKC VIS MIN 9999 BLU

2010/08/10 08:55
LIRE 100855Z 23006KT CAVOK 26/23 Q1015 RMK SKC VIS MIN 9999 WIND THR31 21006KT BLU

2010/08/10 08:55
LIRG 100855Z 28002KT CAVOK 29/18 Q1015 RMK SKC MON NE LIB NC VIS MIN 9999 BLU

2010/08/10 08:55
LIRH 100855Z 15004KT 9999 FEW040 29/19 Q1015 RMK FEW MON LIB NC VIS MIN 9999 WIND THR16 14005KT BLU

2010/08/10 08:55
LIRL 100855Z 20008KT 9999 FEW025 28/22 Q1015 RMK FEW MON LIB NC VIS MIN 9999 BLU

2010/08/10 08:55
LIRS 100855Z 36002KT CAVOK 26/16 Q1015 RMK SKC VIS MIN 9999 WIND THR21 /////KT BLU

2010/08/10 08:50
LIRU 100850Z 32003KT CAVOK 28/19 Q1015 RMK VIS MIN 9999

2010/08/10 08:55
LIRV 100855Z 05006KT CAVOK 26/14 Q1016 RMK SKC MON E SE LIB NC VIS MIN 9999 BLU

2010/08/10 08:55
LIRX 100855Z 36005KT 9999 SCT023 23/17 Q1015 RMK BKN VIS MIN 9999N VIS MAR 18 KM

2010/08/10 08:50
LIRZ 100850Z VRB02KT CAVOK 26/15 Q1016 RMK VIS MIN 9999

2010/08/10 08:55
LIVC 100855Z 10006KT 9999 SCT001 12/10 Q1026 RMK SCT MON LIB VAL CLD SCT ELEV VIS MIN 9999

2010/08/10 08:55
LIVD 100855Z 00000KT 9999 SCT035 20/15 Q1021 RMK SCT VIS MIN 9999

2010/08/10 08:55
LIVE 100855Z 20004KT 9999 BKN025 17/10 Q1020 RMK BKN VIS MIN 9999

2010/08/10 08:55
LIVM 100855Z 11002KT CAVOK 27/23 Q1016 RMK SKC QUK 0 QUL 0 VIS MAR 12 KM VIS MIN 9999

2010/08/10 08:55
LIVO 100855Z 12002KT 9999 SCT025 20/17 Q1019 RMK SCT VIS MIN 9999

2010/08/10 08:55
LIVP 100855Z 18003KT 1300 BR BKN000TCU 11/09 Q1024 RMK BKN MON INVIS VAL CLD SCT NEBBIA INF VIS MIN 1300

2010/08/10 08:55
LIVR 100855Z 11008KT 9999 BKN020 15/11 Q1023 RMK BKN MON CIME INC VIS MIN 9999

2010/08/10 08:55
LIVT 100855Z 16002KT CAVOK 28/16 Q1015 RMK FEW FEW200 QUK 0 QUL 0 VIS MAR 25 KM VIS MIN 9999

2010/08/10 09:00
RJCC 100900Z 16010KT 1800 -DZ BR FEW001 BKN002 BKN003 22/20 Q1013 RMK 1ST001 5ST002 7ST003 A2993

2010/08/10 09:00
RJOO 100900Z VRB03KT 9999 -SHRA FEW008 SCT025 FEW025CB BKN040 29/22 Q1013 RMK 1ST008 3CU025 1CB025 5CU040 A2993 CB 20KM N MOV E

2010/08/10 09:00
RJTT 100900Z 19013KT 9999 FEW015 BKN/// 29/23 Q1014 RMK 1CU015 A2995

2010/08/10 09:01
MMGL 100901Z RTD 06004KT 8SM -RA BKN020 BKN100 OVC300 19/17 A3012 RMK SLP056 56003 902 8/477 -RAB35

2010/08/10 08:55
MMMY 100855Z 07006KT 10SM SKC 24/22 A2989 RMK SLP106 58039 901

2010/08/10 09:01
MMGL 100901Z RTD 06004KT 8SM -RA BKN020 BKN100 OVC300 19/17 A3012 RMK SLP056 56003 902 8/477 -RAB35

2010/08/10 09:00
BIRK 100900Z 02008KT 9999 FEW012 SCT022 BKN035 12/08 Q1013

2010/08/10 09:00
LPAZ 100900Z 04009KT 9999 FEW021 BKN039 21/15 Q1020

2010/08/10 09:00
LPFL 100900Z 16005KT 9999 FEW022 23/18 Q1022

2010/08/10 09:00
LPHR 100900Z 02004KT 360V130 9999 FEW016 BKN040 22/14 Q1022

2010/08/10 09:00
LPPD 100900Z 04005KT 010V110 9999 FEW022 BKN035 21/12 Q1021

2010/08/10 09:00
UAAA 100900Z 32006MPS 9999 VCTS SCT050CB BKN100 31/10 Q1009 88CLRD65 TEMPO VRB15MPS TS SQ

2010/08/10 09:00
UACC 100900Z 01006MPS 310V010 CAVOK 20/04 Q1019 040/0070 NOSIG RMK QFE733/0977

2010/08/10 09:00
UAFM 100900Z 30008MPS CAVOK 34/04 Q1010 TEMPO 32007G12MPS

2010/08/10 09:00
UARR 100900Z 06007MPS 4200 FU NSC 35/04 Q1018 04CLRD70 NOSIG RMK QFE760/1014

2010/08/10 09:00
UATE 100900Z 13008MPS CAVOK 41/03 Q1012 120///70 NOSIG RMK QFE757/1009

2010/08/10 09:00
UATG 100900Z 08004G07MPS CAVOK 41/10 Q1013 14CLRD70 NOSIG RMK QFE761/1015

2010/08/10 09:00
UATT 100900Z 08006MPS 050V110 6000 NSC 30/03 Q1021 13CLRD70 NOSIG RMK QFE746/0995

2010/08/10 09:00
UTAA 100900Z 33004MPS 300V030 9999 SKC 38/02 Q1010 NOSIG

2010/08/10 09:00
UTAK 100900Z 16006MPS CAVOK 39/04 Q1011 NOSIG

2010/08/10 09:00
UTAT 100900Z 36005MPS CAVOK 37/18 Q1010 NOSIG

2010/08/10 09:00
UTDD 100900Z 17003MPS 120V210 9999 SCT066 FEW180 36/01 Q1007 09CLRD70 NOSIG RMK QFE688/0917

2010/08/10 09:00
UTDL 100900Z 25009MPS 9999 FEW046 35/09 Q1007 NOSIG RMK PFE718 8809//70

2010/08/10 09:00
UTAM 100900Z 35006MPS CAVOK 38/06 Q1006 NOSIG

2010/08/10 09:00
SEMT 100900Z 18007KT 9999 BKN020 23/21 Q1013

2010/08/10 09:00
SEGU 100900Z VRB03KT 9999 FEW030 BKN100 23/19 Q1013 NOSIG

2010/08/10 09:00
SEQU 100900Z 03002KT 9999 SCT040 11/05 Q1027 RMK A3033 NOSIG

2010/08/10 09:00
SKBO 100900Z VRB02KT 9999 FEW017 SCT200 10/09 A3033 NOSIG

2010/08/10 09:00
SKBQ 100900Z 00000KT 9999 FEW015CB SCT070 26/25 A2983 RMK CB/W

2010/08/10 09:00
SKCG 100900Z 00000KT 9999 TS FEW015CB SCT070 27/26 A2984 RMK CB/N

2010/08/10 09:00
SKCL 100900Z 12003KT 9999 FEW025 SCT100 19/17 A2998

2010/08/10 09:00
SKRG 100900Z 00000KT 5000 HZ BKN010 14/14 A3028

2010/08/10 08:59
KQHT 100859Z 31013G18KT 9999 SCT110 33/M04 A2984 RMK A02A SLP065 56003

2010/08/10 09:00
LERT 100900Z VRB01KT CAVOK 34/08 Q1016 NOSIG

2010/08/10 08:55
LICZ 100855Z 21004KT CAVOK 31/15 Q1014 RMK SKC VIS MIN 9999 WIND THR28 /////KT BLU

2010/08/10 09:00
CWCA 100900Z 00000KT 4SM -RA BR BKN030 OVC070 13/12 A2958 RMK SC6AS2 SLP016

2010/08/10 09:00
CWCL 100900Z AUTO 00000KT 9SM CLR 05/04 A2995 RMK SLP155

2010/08/10 09:00
CWEU 100900Z 27009KT 40SM FEW006 00/M01 A3001 RMK CF1 SLP165

2010/08/10 09:00
CWFD 100900Z AUTO 36023KT 9SM 05/ RMK ALTM MISG

2010/08/10 09:00
CWHN 100900Z AUTO 05006KT 9SM CLR 15/12 A2987 RMK SLP117

2010/08/10 09:00
CWIL 100900Z AUTO 19008KT 13/ A2987 RMK SLP122

2010/08/10 09:00
CWKM 100900Z AUTO 06007KT 09/ A2968 RMK SLP057

2010/08/10 09:00
CWKW 100900Z AUTO 34010KT 02/ A2976 RMK SLP103

2010/08/10 09:00
CWLI 100900Z AUTO 05006KT 09/ A2973 RMK SLP077

2010/08/10 09:00
CWLX 100900Z AUTO 33010KT 14/ A2987 RMK SLP124

2010/08/10 09:00
CWLY 100900Z AUTO 20002KT 9SM OVC001 OVC018 OVC031 13/12 A2994 RMK SLP142

2010/08/10 09:00
CWOB 100900Z AUTO ///// 1/8SM CLR 03/ A2979 RMK SLP122

2010/08/10 09:00
CWRH 100900Z AUTO ///// 03/ A2979 RMK SLP117

2010/08/10 09:00
CWRX 100900Z AUTO 26006KT 06/ A2990

2010/08/10 09:00
CWSA 100900Z AUTO 23004KT 4SM OVC006 19/18 A2989 RMK SLP124

2010/08/10 09:00
CWTU 100900Z AUTO 29012KT 07/ A2957 RMK SLP027

2010/08/10 09:00
CWUP 100900Z AUTO 18005KT 07/ A2988 RMK SLP140

2010/08/10 09:00
CWUW 100900Z AUTO ///// 9SM CLR 10/ A2990 RMK SLP149

2010/08/10 09:00
CWVD 100900Z AUTO ///// 04/ A2987 RMK SLP154

2010/08/10 09:00
CWVH 100900Z AUTO 11008KT 11/ A2967 RMK SLP061

2010/08/10 09:00
CWWU 100900Z 00000KT 8SM -SHRA BKN010 OVC035 15/14 A2990 RMK SF6SC2 SLP124

2010/08/10 09:00
CWXR 100900Z AUTO 29004KT 08/ A2969 RMK SLP064

2010/08/10 09:00
CWYK 100900Z AUTO ///// 04/ A2962 RMK SLP056

2010/08/10 09:00
CWYM 100900Z AUTO 07018KT 02/ RMK ALTM MISG SLP137

2010/08/10 09:00
CWZZ 100900Z AUTO ///// 0SM CLR 02/ A2969 RMK SLP079

2010/08/10 09:00
CYAH 100900Z AUTO 29002KT 9SM OVC009 OVC053 11/10 A2987 RMK SLP125

2010/08/10 09:00
CYAM 100900Z 30003KT 1 1/2SM BR VV002 20/19 A2996 RMK FG8 SLP143

2010/08/10 09:00
CYAY 100900Z AUTO 22011KT 9SM OVC013 17/15 A2964 RMK SLP038 DENSITY ALT 600FT MAX WND 23022KT AT 0813Z

2010/08/10 09:00
CYBC 100900Z AUTO 27002KT 9SM FEW072 12/11 A2978 RMK SLP086

2010/08/10 09:00
CYBK 100900Z 00000KT 20SM FEW090 08/07 A3004 RMK AS1 SLP174

2010/08/10 09:00
CYBN 100900Z AUTO 00000KT 3 1/2SM CLR 20/18 A2994 RMK SLP138

2010/08/10 09:00
CYBR 100900Z 08003KT 15SM FEW060 OVC150 22/19 A2991 RMK SC2AC6 SLP124

2010/08/10 09:00
CYBU 100900Z AUTO 10003KT 9SM CLR 13/13 A2988 RMK SLP123 DENSITY ALT 1300FT

2010/08/10 09:00
CYBX 100900Z 22017G22KT 2SM -DZ BR OVC003 13/13 A2962 RMK SF8 SLP033

2010/08/10 09:00
CYCB 100900Z 07014KT 3SM BR OVC003 09/09 A2984 RMK SF8 SLP107

2010/08/10 09:00
CYCO 100900Z 23004KT 8SM MIFG VCFG FEW006 FEW050 SCT090 09/09 A2970 RMK SF1SC2AC1 TR SF SLP058

2010/08/10 09:00
CYCY 100900Z AUTO 00000KT 9SM CLR 04/04 A2987 RMK SLP117

2010/08/10 09:00
CYDB 100900Z AUTO 14005KT 9SM CLR 10/05 A2978 RMK SLP101

2010/08/10 09:00
CYDF 100900Z 31004KT 12SM -SHRA BKN028 OVC055 15/14 A2975 RMK SC6SC2 SLP075

2010/08/10 09:00
CYDN 100900Z AUTO 26005KT 9SM SCT110 16/15 A2986 RMK SLP115 DENSITY ALT 1400FT

2010/08/10 09:00
CYDP 100900Z 31012KT 15SM SCT008 OVC016 10/08 A2968 RMK SF4SC4 SLP051

2010/08/10 09:00
CYEK 100900Z AUTO 00000KT 1SM CLR 08/08 A3008 RMK VSBY VRBL 0.4V9.+ SLP188

2010/08/10 09:00
CYEN 100900Z 10005KT 15SM -TSRA OVC060CB 18/16 A2987 RERA RMK CB8 LTGIC E-SE PRESRR PAST HR SLP110

2010/08/10 09:00
CYET 100900Z AUTO 19002KT 9SM FEW057 FEW071 FEW079 FEW089 12/12 A2991 RMK SLP132

2010/08/10 09:00
CYEV 100900Z 07004KT 15SM FEW100 SCT200 14/10 A2966 RMK AC2CI1 SLP046

2010/08/10 09:00
CYFS 100900Z 22004KT 8SM -RA OVC008 OVC025 14/14 A2972 RMK ST7SC1 SLP069

2010/08/10 09:00
CYGP 100900Z 00000KT 15SM FEW120 13/12 A2974 RMK AC1 SLP070

2010/08/10 09:00
CYGQ 100900Z 00000KT 15SM SKC 16/16 A2997 RMK SLP149

2010/08/10 09:00
CYGR 100900Z 26011KT 15SM OVC008 19/11 A2975 RMK SC8 SLP075

2010/08/10 09:00
CYGV 100900Z AUTO 27002KT 9SM SCT038 OVC082 13/11 A2967 RMK SLP049

2010/08/10 09:00
CYGW 100900Z 22003KT 1/2SM -DZ FG VV001 08/08 A2995 RMK FG8 SLP144

2010/08/10 09:00
CYHD 100900Z AUTO 19008KT 9SM CLR 22/19 A2990 RMK SLP124

2010/08/10 09:00
CYHE 100900Z AUTO 13002KT 9SM BKN016 BKN040 OVC049 15/14 A2992 RMK SLP134

2010/08/10 09:00
CYHK 100900Z AUTO 21007KT 9SM CLR 11/08 A2989 RMK SLP125

2010/08/10 09:00
CYHM 100900Z 00000KT 2 1/2SM BR BKN016 20/20 A2994 RMK SC6 SLP137

2010/08/10 09:00
CYHU 100900Z AUTO 23006KT 2 1/4SM CLR 17/ A2988 RMK SLP120 DENSITY ALT 300FT TD MISG RVR MISG

2010/08/10 09:00
CYHY 100900Z 19005KT 15SM BKN050 16/12 A2974 RMK SC6 SLP073

2010/08/10 09:00
CYIV 100900Z 09004KT 15SM FEW060 FEW250 15/12 A2990 RMK SC1CI0 SLP129

2010/08/10 09:00
CYKA 100900Z 11004KT 40SM SCT060 OVC085 15/13 A2991 RMK SC3AC5 SLP130

2010/08/10 09:00
CYKF 100900Z AUTO 00000KT 1/4SM FG VV002 20/20 A2995 RMK SLP140 DENSITY ALT 1800FT

2010/08/10 09:00
CYKJ 100900Z AUTO 08002KT 1/8SM VV002 13/13 A2991 RMK SLP147 DENSITY ALT 1800FT

2010/08/10 09:00
CYKY 100900Z 12008KT 15SM OVC040 18/15 A2981 RMK SC8 SLP088

2010/08/10 09:00
CYKZ 100900Z 25003KT 3SM BR BKN028 OVC063 22/21 A2994 RMK SC6SC2 SLP137

2010/08/10 09:00
CYLL 100900Z AUTO 09005KT 9SM OVC100 14/13 A2984 RMK SLP104 DENSITY ALT 2600FT

2010/08/10 09:00
CYLW 100900Z AUTO 13003KT 9SM -RA BKN049 OVC061 14/13 A2989 RMK SLP123 DENSITY ALT 1600FT

2010/08/10 09:00
CYMA 100900Z 00000KT 20SM FEW050 FEW080 08/07 A2973 RMK SC1AC1 SLP081

2010/08/10 09:00
CYMO 100900Z AUTO 35002KT 9SM OVC014 10/10 A2998 RMK SLP152

2010/08/10 09:00
CYMT 100900Z 25005KT 15SM SCT100 10/10 A2987 RMK AC2 SLP119

2010/08/10 09:00
CYNA 100900Z AUTO 25005KT 3SM FEW056 14/13 A2965 RMK SLP043

2010/08/10 09:00
CYNE 100900Z AUTO 05002KT 9SM CLR 15/15 A2988 RMK SLP121

2010/08/10 09:00
CYNM 100900Z AUTO 33004KT 6SM -RA FEW022 FEW033 BKN045 BKN061 15/12 A2991 RMK SLP132

2010/08/10 09:00
CYOD 100900Z 10004KT 15SM FEW050CB FEW090 FEW140 BKN220 18/14 A2985 RMK CB1AC1AC1CI1 CB DIST W MOVG N OCNL LTNG SLP109

2010/08/10 09:00
CYOJ 100900Z 00000KT 15SM FEW030 FEW080 BKN250 14/13 A2980 RMK SC1AC1CI1 SLP096

2010/08/10 09:00
CYOY 100900Z AUTO 00000KT 5SM FEW073 12/10 A2986 RMK SLP112

2010/08/10 09:00
CYPA 100900Z 00000KT 10SM OVC000 14/12 A2986 RMK ST1 SLP115

2010/08/10 09:00
CYPE 100900Z 32003KT 15SM SKC 11/07 A2986 RMK SLP120

2010/08/10 09:00
CYPH 100900Z AUTO 07003KT 010V090 9SM FEW039 08/08 A2994 RMK SLP142

2010/08/10 09:00
CYPQ 100900Z AUTO ///// 1 1/8SM OVC019 18/18 A2993 RMK SLP134

2010/08/10 09:00
CYPR 100900Z AUTO /////KT 1/4SM VV002 11/11 A3002 RMK SLP165 WND MISG

2010/08/10 09:00
CYPX 100900Z 29007KT 15SM FEW005 BKN065 11/10 A2992 RMK SF1SC6 MEDIVAC SLP133

2010/08/10 09:00
CYPY 100900Z AUTO 00000KT 9SM CLR 14/13 A2979 RMK SLP092

2010/08/10 09:00
CYQA 100900Z AUTO 00000KT 1 1/2SM BR OVC003 20/20 A2994 RMK SLP139 DENSITY ALT 1700FT

2010/08/10 09:00
CYQD 100900Z 00000KT 1/2SM FG SKC 18/18 A2989 RMK FG6 SLP121

2010/08/10 09:00
CYQF 100900Z 34004KT 15SM BKN100 14/10 A2986 RMK AC5 SLP111

2010/08/10 09:00
CYQH 100900Z 00000KT 20SM FEW035 11/06 A2981 RMK SC2 SLP100

2010/08/10 09:00
CYQI 100900Z 22004KT 1/2SM FG VV002 17/17 A2985 RMK FG8 RVR RWY 24 4000 FT SLP108

2010/08/10 09:00
CYQK 100900Z 18005KT 15SM SCT060 BKN140 BKN200 24/21 A2990 RMK SC3AC2CI1 LTNG DIST NE SLP119

2010/08/10 09:00
CYQL 100900Z AUTO 15004KT 9SM CLR 12/10 A2979 RMK SLP077

2010/08/10 09:00
CYQR 100900Z 09012KT 15SM OVC120 20/15 A2983 RMK AC8 SLP098

2010/08/10 09:00
CYQT 100900Z 30002KT 5SM BR SKC 15/15 A2994 RMK SLP139

2010/08/10 09:00
CYQU 100900Z 00000KT 25SM FEW090 FEW250 07/04 A2991 RMK AC1CI0 SLP137

2010/08/10 09:00
CYQV 100900Z AUTO 01003KT 8SM FEW068 16/16 A2986 RMK SLP115

2010/08/10 09:00
CYQW 100900Z AUTO 10009KT 9SM BKN230 16/13 A2984 RMK SLP109 DENSITY ALT 2400FT

2010/08/10 09:00
CYQZ 100900Z AUTO VRB02KT 9SM CLR 09/08 A2994 RMK SLP152

2010/08/10 09:00
CYRJ 100900Z 25007KT 25SM FEW050 15/10 A2984 RMK SC2 SLP106

2010/08/10 09:00
CYRL 100900Z 11006KT 15SM FEW020CB 20/18 A2988 RMK CB1 LTG DIST S SLP118

2010/08/10 09:00
CYRT 100900Z 33005KT 15SM FEW090 FEW240 10/09 A3008 RMK AC2CI0 SLP187

2010/08/10 09:00
CYRV 100900Z AUTO 28006KT 9SM FEW011 FEW024 BKN041 OVC067 15/14 A2985 RMK SLP108

2010/08/10 09:00
CYSB 100900Z 24004KT 15SM FEW150 18/18 A2993 RMK AC2 SLP134

2010/08/10 09:00
CYSC 100900Z AUTO 00000KT 3/8SM FG VV009 14/14 A2991 RMK SLP131 DENSITY ALT 800FT VIS VRB 3/8-3

2010/08/10 09:00
CYSF 100900Z AUTO 13002KT 1 1/4SM BR SCT007 OVC018 14/14 A2989 RMK SLP130 DENSITY ALT 900FT

2010/08/10 09:00
CYSL 100900Z 00000KT 1/8SM FG BKN220 12/12 A2983 RMK FG5CI0 SLP104

2010/08/10 09:00
CYTH 100900Z 07005KT 15SM SCT050 OVC080 16/11 A2993 RMK SC4AC4 SLP140

2010/08/10 09:00
CYTS 100900Z 31002KT 15SM FEW080 FEW120 15/13 A2990 RMK AC1AC2 SLP124

2010/08/10 09:00
CYTZ 100900Z AUTO 31002KT 2 1/2SM FEW046 OVC061 21/21 A2992 RMK SLP131 DENSITY ALT 1000FT RVR MISG

2010/08/10 09:00
CYUA 100900Z AUTO 29010KT 1/4SM CLR 11/ A2965 RMK SLP044

2010/08/10 09:00
CYUS 100900Z AUTO ///// 9SM CLR 10/ A2992 RMK SLP136

2010/08/10 09:00
CYUX 100900Z AUTO 25006KT 9SM CLR 09/07 A2993 RMK SLP135

2010/08/10 09:00
CYVC 100900Z 00000KT 15SM MIFG SKC 15/14 A2989 RMK SLP126

2010/08/10 09:00
CYVM 100900Z AUTO 00000KT 9SM BKN001 03/03 A2993 RMK SLP136

2010/08/10 09:00
CYVO 100900Z AUTO 00000KT 7SM -RA FEW002 SCT031 SCT035 OVC070 17/17 A2990 RMK SLP128

2010/08/10 09:00
CYVQ 100900Z 00000KT 30SM FEW040 FEW100 BKN290 15/12 A2966 RMK SC1AC1CI2 SLP047

2010/08/10 09:00
CYVV 100900Z 00000KT 4SM BR FEW007 OVC022 21/21 A2994 RMK SF2SC6 SLP138

2010/08/10 09:00
CYWA 100900Z AUTO 20002KT 1SM CLR 14/14 A2990 RMK VSBY VRBL 0.5V8.0 SLP129

2010/08/10 09:00
CYWL 100900Z 00000KT 15SM SKC 07/05 A2994 RMK SLP152

2010/08/10 09:00
CYXC 100900Z 35003KT 25SM SKC 12/10 A2987 RMK SLP107

2010/08/10 09:00
CYXD 100900Z AUTO 34006KT 9SM CLR 15/12 A2984 RMK SLP101

2010/08/10 09:00
CYXE 100900Z 08005KT 15SM BKN250 16/14 A2983 RMK CI2 SLP103

2010/08/10 09:00
CYXH 100900Z AUTO 34003KT 9SM CLR 16/14 A2979 RMK SLP077

2010/08/10 09:00
CYXJ 100900Z 00000KT 15SM OVC070 14/08 A2988 RMK AC8 SLP126

2010/08/10 09:00
CYXL 100900Z 00000KT 15SM TS SCT055CB BKN160 22/19 A2991 RMK CB4AC2 FRQ LTGICCCCG W-N SLP127

2010/08/10 09:00
CYXR 100900Z AUTO 34002KT 6SM CLR 13/13 A2988 RMK SLP111

2010/08/10 09:00
CYXS 100900Z AUTO 17005KT 9SM FEW091 09/07 A2993 RMK SLP150

2010/08/10 09:00
CYXT 100900Z 22002KT 15SM FEW052 13/11 A3001 RMK SC2 SLP165

2010/08/10 09:00
CYYB 100900Z 31003KT 12SM SKC 18/17 A2994 RMK SLP138

2010/08/10 09:00
CYYD 100900Z AUTO 00000KT 9SM CLR 08/06 A2997 RMK SLP155

2010/08/10 09:00
CYYE 100900Z 00000KT 1/2SM FG BKN050 OVC150 14/09 A2979 RMK FG5SC2AC1 SLP097

2010/08/10 09:00
CYYF 100900Z 32003KT 15SM -SHRA SCT045 BKN080 OVC110 15/11 A2989 RMK SC3AC3AC2 SLP117

2010/08/10 09:00
CYYG 100900Z 24008KT 10SM OVC003 19/18 A2979 RMK SF8 SLP089

2010/08/10 09:00
CYYL 100900Z AUTO 00000KT 9SM OVC005 14/14 A2990 RMK SLP138 DENSITY ALT 1300FT

2010/08/10 09:00
CYYN 100900Z AUTO 14010KT 5SM RA OVC023 17/16 A2985 RMK SLP095

2010/08/10 09:00
CYYU 100900Z 36003KT 15SM SCT085 14/14 A2992 RMK AC3 SLP133

2010/08/10 09:00
CYYY 100900Z 22006KT 15SM FEW080 16/13 A2980 RMK AC1 SLP092

2010/08/10 09:00
CYZE 100900Z AUTO 00000KT 6SM BR CLR 17/17 A2993 RMK SLP138 DENSITY ALT 1000FT

2010/08/10 09:00
CYZH 100900Z AUTO 14002KT 9SM FEW080 13/10 A2986 RMK SLP115

2010/08/10 09:00
CYZP 100900Z AUTO 26009KT 3SM -RA BR FEW013 BKN020 OVC027 14/13 A3003 RMK SLP169

2010/08/10 09:00
CYZR 100900Z AUTO 20003KT 1 3/4SM BR CLR 21/20 A2994 RMK SLP136 DENSITY ALT 1400FT

2010/08/10 09:00
CYZS 100900Z 34011KT 15SM FEW090 FEW210 08/03 A2997 RMK AC1CI1 SLP152

2010/08/10 09:00
CYZT 100900Z 00000KT 15SM FEW019 12/09 A3000 RMK SC2 SLP158

2010/08/10 09:00
CZCP 100900Z AUTO 09006KT 1/8SM CLR 07/ A2974 RMK SLP078

2010/08/10 09:00
CZPC 100900Z AUTO 31007KT 9SM FEW093 11/10 A2985 RMK SLP094

2010/08/10 09:00
CZUM 100900Z AUTO 30005KT 9SM OVC010 10/09 A2967 RMK SLP057

2010/08/10 09:00
EPLL 100900Z 10001KT 9999 FEW033TCU 23/15 Q1017

2010/08/10 09:00
FMMS 100900Z 00000KT 9999 SCT017 OVC040 23/21 QXXXX

2010/08/10 09:00
FMNA 100900Z 140//KT 9999 VCSH FEW017 BKN033 27/24 Q1016

2010/08/10 09:00
FMSD 100900Z 06006KT 9999 FEW020 BKN033 25/19 Q1020

2010/08/10 09:05
KCBE 100905Z AUTO 00000KT 7SM CLR 20/20 A3002 RMK AO1

2010/08/10 09:09
KESN 100909Z AUTO 20003KT 10SM CLR 24/23 A2997 RMK AO2

2010/08/10 09:06
KFME 100906Z AUTO 00000KT 3SM 19/19 A2995 RMK AO1 SKY OBSCURED

2010/08/10 09:00
LEGT 100900Z 00000KT 9000 NSC 30/14 Q1020

2010/08/10 09:00
LERI 100900Z VRB01KT CAVOK 32/20 Q1016 NOSIG

2010/08/10 08:50
LIMP 100850Z VRB03KT 4500 BR NSC 25/19 Q1016 RMK VIS MIN 4000N

2010/08/10 08:50
LIMZ 100850Z 36005KT CAVOK 24/19 Q1017 RMK VIS MIN 8000N

2010/08/10 08:55
LIRM 100855Z 03002KT 9999 FEW070 31/25 Q1016 RMK FEW VIS MIN 9999 WIND THR06 03004KT BLU

2010/08/10 09:00
LKCV 100900Z VRB02KT 9999 FEW030 21/16 Q1018 NOSIG

2010/08/10 09:00
LKKB 100900Z VRB02KT 9999 FEW021 21/16 Q1018 NOSIG

2010/08/10 09:00
LKKV 100900Z VRB03KT 9999 FEW033 19/11 Q1019 RMK REG QNH 1015

2010/08/10 09:00
LKLN 100900Z AUTO VRB01KT CAVOK 20/16 Q1019

2010/08/10 09:00
LKNA 100900Z VRB02KT 9999 SCT041 21/12 Q1019 NOSIG

2010/08/10 09:00
LKPD 100900Z VRB01KT 9999 SCT021 21/16 Q1018 NOSIG

2010/08/10 09:00
LKPO 100900Z VRB02KT 9999 FEW024 21/15 Q1018 NOSIG

2010/08/10 09:00
UDYZ 100900Z 20003MPS 130V230 9999 SKC 34/09 Q1011 09010070 NOSIG

2010/08/10 09:00
WMAU 100900Z 19003KT 9999 FEW018TCU BKN140 BKN270 31/25 Q//// QFF1006

2010/08/10 09:00
WMBA 100900Z 20006KT 9999 FEW017CB SCT020TCU BKN260 32/25 Q1005

2010/08/10 09:00
WMKA 100900Z 31004KT 9999 FEW020 SCT140 BKN270 30/26 Q1006

2010/08/10 09:00
WMKB 100900Z 30007KT 250V350 7000 FEW020 SCT140 BKN270 31/26 Q1005 NOSIG

2010/08/10 09:00
WMKC 100900Z 04006KT 9999 SCT018 SCT140 BKN220 30/26 Q1005

2010/08/10 09:00
WMKD 100900Z 19007KT 9999 SCT020 BKN280 32/26 Q1005 NOSIG

2010/08/10 09:00
WMKI 100900Z 20005KT 9999 FEW020 BKN280 32/24 Q1005

2010/08/10 09:00
WMKL 100900Z 25003KT 9999 FEW020 BKN270 30/26 Q1006

2010/08/10 09:00
WMKM 100900Z 14006KT 090V200 9999 FEW022 BKN140 BKN270 31/25 Q1006

2010/08/10 09:00
WMKN 100900Z 11006KT 9999 SCT018 OVC220 31/28 Q1005

2010/08/10 09:05
KSJC 100905Z AUTO 12005KT 10SM SCT012 14/11 A2990

2010/08/10 09:00
SACO 100900Z 32005KT CAVOK 03/M01 Q1027

2010/08/10 09:00
SARE 100900Z 23003KT 6000 NSC 04/04 Q1023

2010/08/10 09:00
SARF 100900Z 20005KT CAVOK 11/10 Q1021

2010/08/10 09:00
SAVC 100900Z 27015KT CAVOK 06/M02 Q1020

2010/08/10 09:00
SAZM 100900Z 32004KT CAVOK 00/M03 Q1026

2010/08/10 09:00
SBCY 100900Z 11003KT CAVOK 20/16 Q1016

2010/08/10 09:00
SBMN 100900Z 00000KT 9999 FEW015 25/23 Q1012

2010/08/10 09:00
SBMO 100900Z 14003KT 5000 BR SCT009 BKN020 20/19 Q1017

2010/08/10 09:00
SBSL 100900Z 08005KT 9999 SCT017 25/23 Q1013

2010/08/10 09:00
SEMT 100900Z 18007KT 9999 BKN020 23/21 Q1013

2010/08/10 09:00
SEQU 100900Z 03002KT 9999 SCT040 11/05 Q1027 RMK A3033 NOSIG

2010/08/10 09:00
SKBO 100900Z VRB02KT 9999 FEW017 SCT200 10/09 A3033 NOSIG

2010/08/10 09:00
SKBQ 100900Z 00000KT 9999 FEW015CB SCT070 26/25 A2983 RMK CB/W

2010/08/10 09:00
SKCG 100900Z 00000KT 9999 TS FEW015CB SCT070 27/26 A2984 RMK CB/N

2010/08/10 09:00
SKCL 100900Z 12003KT 9999 FEW025 SCT100 19/17 A2998

2010/08/10 09:00
SKRG 100900Z 00000KT 5000 HZ BKN010 14/14 A3028

2010/08/10 09:00
SLCA 100900Z 00000KT 9999 BKN080 10/04 Q1024

2010/08/10 09:00
SLCB 100900Z 25003KT 8000 NSC 04/00 Q1025

2010/08/10 09:00
SLLP 100900Z 02005KT 9999 SKC M03/M21 Q1037

2010/08/10 09:00
SLRI 100900Z 17004KT 3000 FU SKC 21/18 Q1013

2010/08/10 09:00
SLVR 100900Z 18020KT 8000 NSC 16/06 Q1018

2010/08/10 09:00
SPHI 100900Z 18003KT CAVOK 15/13 Q1015 RMK PP000

2010/08/10 09:00
SPQU 100900Z 05007KT CAVOK 07/M16 Q1026 RMK PP000

2010/08/10 09:00
SPRU 100900Z 15005KT 5000 BR BKN008 OVC012 14/13 Q1014 RMK BIRDS HAZARD RWY 20 PP000

2010/08/10 09:00
SPSO 100900Z 07003KT 7000 SCT012 11/09 Q1016 RMK PP000

2010/08/10 09:00
SPTN 100900Z 00000KT CAVOK 07/04 Q1012 RMK PP000

2010/08/10 09:00
SPZO 100900Z 00000KT 9999 SKC 01/M06 Q1033 RMK PP000

2010/08/10 09:00
SUDU 100900Z 00000KT CAVOK 02/01 Q1026

2010/08/10 09:05
CYBU 100905Z AUTO 12004KT 5SM BR CLR 13/13 A2987 RMK SLP123 DENSITY ALT 1300FT

2010/08/10 09:03
CYKL 100903Z AUTO 33009KT 2SM DZ OVC004 OVC027 09/08 A2971

2010/08/10 09:03
EHGR 100903Z AUTO 22006KT 9999NDV FEW020 OVC200 19/15 Q1013 BLU BLU TEMPO WHT TEMPO SCT020

2010/08/10 09:05
EHKD 100905Z AUTO 21011KT 9999NDV FEW023 OVC027 19/17 Q1011 BLU WHT TEMPO GRN TEMPO SCT012 SCT015CB BKN020

2010/08/10 09:01
EHLW 100901Z AUTO 20009KT 7000NDV BR FEW008 BKN010 BKN014 18/16 Q1012 GRN WHT TEMPO GRN 6000 BR SCT023 TEMPO SCT012

2010/08/10 09:04
EHVL 100904Z AUTO 21016KT 9999NDV FEW009 BKN017 OVC021 18/16 Q1011 WHT

2010/08/10 09:01
ETIK 100901Z AUTO 05003KT 9999 FEW090 22/12 A3007 RMK AO2 RAE0901 SLP172 $

2010/08/10 09:05
KGTB 100905Z AUTO 00000KT 10SM FEW010 OVC015 21/20 A2993 RMK AO2 CIG 014V019 CIG 009 RWY03 SLP135

2010/08/10 09:06
KMMT 100906Z AUTO 00000KT 9SM R32/5500VP6000FT OVC011 24/24 A3001 RMK AO2 CIG 010V015 SLP160

2010/08/10 09:05
LIYW 100905Z AUTO 00000KT 9999 -DZ CLR 27/18 A3001 RMK AO2 DZB0905 SLP160

2010/08/10 09:03
PASC 100903Z 05014KT 1 3/4SM BR OVC003 03/03 A2975 RMK AO2

2010/08/10 09:00
YBCS 100900Z 00000KT 9999 FEW005 BKN017 OVC025 24/23 Q1014 TEMPO 0900/1200 3000 -SHRA FEW003 BKN010

2010/08/10 09:00
YBTL 100900Z 05004KT 8000 -RA FEW006 SCT020 BKN045 23/22 Q1014

2010/08/10 09:00
YMML 100900Z 27006KT 7000 OVC009 08/07 Q1008 RMK BR FM0900 VRB03KT 9000 -RA SCT010 SCT030 TEMPO 0900/1200 6000 RA BKN010

2010/08/10 09:03
YSDU 100903Z AUTO 35013KT 9999NDV // ////// 14/13 Q1011

2010/08/10 09:05
YSRI 100905Z AUTO 00000KT 3100NDV // SCT006 BKN013 OVC018 12/12 Q1012

2010/08/10 09:04
KOTM 100904Z AUTO 36010KT 2SM VCTS -RA BR SCT019 BKN050 OVC100 22/21 A2999

2010/08/10 09:04
KSMP 100904Z AUTO VRB04KT 1/4SM FG BKN003 BKN013 OVC022 08/08 A2997

2010/08/10 09:00
GQPP 100900Z 32007KT CAVOK / 22/21 Q1014 NOSIG

2010/08/10 09:00
VTBU 100900Z 21009KT 9999 FEW020 BKN300 31/27 Q1003 A2964

2010/08/10 09:04
KCEW 100904Z AUTO 00000KT 3SM BR CLR 22/22 A2993

2010/08/10 09:04
KOTM 100904Z AUTO 36010KT 2SM VCTS -RA BR SCT019 BKN050 OVC100 22/21 A2999

2010/08/10 09:00
UBBL 100900Z 14007KT 9999 SCT100 33/17 Q1011 NOSIG RMK G/O SC07

2010/08/10 09:00
TLPL 100900Z 16006KT 9999 SCT021 28/25 Q1013

2010/08/10 09:00
DAAE 100900Z 36003KT 9999 FEW016 SCT233 29/23 Q1016

2010/08/10 09:00
DAAJ 100900Z 15006KT 2000 HZ NSC 35/11 Q1019

2010/08/10 09:00
DAAP 100900Z 09012KT 9999 SCT046 37/13 Q1015

2010/08/10 09:00
DAAS 100900Z 22006KT CAVOK 29/13 Q1021

2010/08/10 09:00
DAAV 100900Z 30014KT CAVOK 28/23 Q1015

2010/08/10 09:00
DAAY 100900Z 00000KT CAVOK 30/18 Q1025

2010/08/10 09:00
DABT 100900Z 31006KT CAVOK 30/11 Q1019

2010/08/10 09:00
DAFH 100900Z 15016KT CAVOK 32/18 Q1019

2010/08/10 09:00
DAMH 100900Z 00000KT CAVOK 39/17 Q1013

2010/08/10 09:00
DAOF 100900Z 07018KT 3000 DRSA FEW046 SCT100 36/10 Q1013

2010/08/10 09:00
DAOL 100900Z 03004KT CAVOK 28/23 Q1017

2010/08/10 09:00
DAOR 100900Z 36010KT 9999 FEW033 SCT100 35/12 Q1021

2010/08/10 09:00
DAOV 100900Z 02006KT CAVOK 31/16 Q1018

2010/08/10 09:00
DATM 100900Z 28016KT 5000 SCT046TCU 35/15 Q1011

2010/08/10 09:00
DAUA 100900Z 02013KT CAVOK 38/04 Q1014

2010/08/10 09:00
DAUB 100900Z 14004KT CAVOK 31/16 Q1015

2010/08/10 09:00
DAUG 100900Z 13005KT CAVOK 32/16 Q1018

2010/08/10 09:00
DAUK 100900Z 11008KT CAVOK 32/15 Q1015

2010/08/10 09:00
OOMS 100900Z 02009KT 340V060 8000 NSC 33/27 Q1001 NOSIG

2010/08/10 08:50
OOSA 100850Z 17011KT 150V210 9000 FEW012 BKN025 28/22 Q1004 NOSIG RMK05 RH72.

2010/08/10 09:00
VTCH 100900Z 34003KT 9999 FEW025CB SCT030 BKN300 32/23 Q1002

2010/08/10 09:00
UMGG 100900Z 27004MPS 9999 FEW040 BKN100 27/21 Q1016 R10/CLRD// NOSIG

2010/08/10 08:55
LIRH 100855Z 15004KT 9999 FEW040 29/19 Q1015 RMK FEW MON LIB NC VIS MIN 9999 WIND THR16 14005KT BLU

2010/08/10 09:00
UAFO 100900Z 34002MPS 9999 FEW050 34/09 Q1015 NOSIG RMK QFEM682

2010/08/10 09:00
VTSB 100900Z 22006KT 8000 VCSH BKN017 BKN120 28/23 Q1006 A2972 VCSH W AND N

2010/08/10 09:00
VTSM 100900Z 28011KT 9999 SCT020 SCT120 BKN300 31/25 Q1006 A2971

2010/08/10 09:00
VTSG 100900Z 27004KT 9999 SCT020 BKN120 27/24 Q1006/A2972 RWY32 INFO U

2010/08/10 09:00
UMBB 100900Z 00000MPS 9000 BKN020CB 22/18 Q1016 R29/CLRD// NOSIG

2010/08/10 09:00
UMII 100900Z 01003MPS P6000 FWE010 FEW030CB SCT100 22/17 Q1016 R05/CLRD// NOSIG

2010/08/10 09:00
UMMG 100900Z 15002MPS 9999 BKN030 23/16 Q1016 R17/CLRD// NOSIG

2010/08/10 09:00
UMMM 100900Z 01003MPS 9999 BKN033 BKN100 21/15 Q1016 R30/CLRD// NOSIG RMK QFE743

2010/08/10 09:00
UMMS 100900Z 01002MPS 9999 -SHRA SCT046CB BKN080 20/17 Q1017 R31/290060 NOSIG

2010/08/10 09:00
UMOO 100900Z 00000MPS 9999 FEW030TCU BKN/// 25/19 Q1014 R31/CLRD// NOSIG

2010/08/10 09:00
DAAG 100900Z 22006KT 180V260 8000 FEW020 26/22 Q1018

2010/08/10 09:00
DABB 100900Z 36008KT CAVOK 29/19 Q1015

2010/08/10 09:00
DABC 100900Z 00000KT CAVOK 32/13 Q1019

2010/08/10 09:00
DABS 100900Z 00000KT CAVOK 30/10 Q1020

2010/08/10 09:00
DAON 100900Z 00000KT CAVOK 28/22 Q1018

2010/08/10 09:00
DAOO 100900Z 02002KT 9000 FEW016 SCT100 27/22 Q1017

2010/08/10 09:00
DAUH 100900Z 13012KT CAVOK 35/09 Q1015

2010/08/10 09:00
DAUZ 100900Z 16016KT CAVOK 36/08 Q1016

2010/08/10 09:00
VTUD 100900Z 21004KT 130V250 9999 FEW020CB SCT025 BKN300 32/22 Q1002 A2961 CB S SW INFO K RWY30

2010/08/10 09:00
VTUU 100900Z 07005KT 9999 SCT023 BKN300 30/24 Q1002 A2959 NOSIG

2010/08/10 09:00
VTUW 100900Z 00000KT 9999 SCT024 BKN300 33/24 Q1003 A2963 RWY15 INFO I

2010/08/10 09:00
VTBO 100900Z 22012KT 9999 SCT024 SCT080 BKN300 28/24 Q1004

2010/08/10 09:00
FBKE 100900Z 14009KT CAVOK 23/01 Q1025

2010/08/10 09:00
FBMN 100900Z 14010KT CAVOK 16/M09 Q1029

2010/08/10 09:00
FBSK 100900Z 13009KT CAVOK 14/M065 Q1032 NOSIG

2010/08/10 09:05
KSJC 100905Z AUTO 12005KT 10SM SCT012 14/11 A2990

2010/08/10 09:04
KSMP 100904Z AUTO VRB04KT 1/4SM FG BKN003 BKN013 OVC022 08/08 A2997

2010/08/10 09:04
PAOT 100904Z 16010KT 10SM FEW015 BKN034 13/12 A2945

2010/08/10 08:55
KQOX 100855Z AUTO VRB04KT 22/13 A3014 RMK AO2 SLP107 T02200134 58010 TSNO $

2010/08/10 08:55
KQVE 100855Z AUTO 19511G15KT 9999 FEW090 33/20 A2978 RMK AO2 SLP017

2010/08/10 09:06
CYXU 100906Z 00000KT 2 1/2SM BR FEW025 21/ RMK FG1SC2

2010/08/10 08:50
EGUO 100850Z24010KT 9999 +RA FEW006 OVC035 13/12 Q1012 BLU

2010/08/10 09:00
TBPB 100900Z 14005KT 9999 SCT020 SCT280 27/24 Q1013 NOSIG

2010/08/10 09:08
CYZE 100908Z AUTO 32002KT 4SM BR CLR 17/17 A2993 RMK SLP137 DENSITY ALT 1000FT

2010/08/10 09:07
K1M4 100907Z AUTO 00000KT 2 1/2SM BR CLR 23/23 A3001 RMK AO2

2010/08/10 09:07
KLGB 100907Z AUTO 35003KT 9SM BKN010 16/13 A2990 RMK AO2 TSNO

2010/08/10 09:07
KSAT 100907Z 18007KT 10SM SCT017 27/24 A2994 RMK AO2

2010/08/10 09:06
PATQ 100906Z AUTO 07020KT 1 1/2SM -RA BR OVC005 02/02 A2978 RMK AO2 TSNO RAB05 P0000 $

2010/08/10 09:06
PATQ 100906Z AUTO 07020KT 1 1/2SM -RA BR OVC005 02/02 A2978 RMK AO2 TSNO RAB05 P0000 $

2010/08/10 09:05
K2G4 100905Z AUTO 25005KT 10SM CLR 20/15 A3009 RMK AO1

2010/08/10 09:05
K2W6 100905Z AUTO 22005KT 10SM CLR 24/21 A2996 RMK AO1

2010/08/10 09:05
KCBE 100905Z AUTO 00000KT 7SM CLR 20/20 A3002 RMK AO1

2010/08/10 09:03
KCGE 100903Z AUTO 00000KT 10SM CLR 25/24 A2995 RMK AO1

2010/08/10 09:05
KCGS 100905Z AUTO 00000KT 10SM CLR 26/22 A2994 RMK AO1

2010/08/10 09:05
KFDK 100905Z AUTO 20003KT 5SM BR CLR 23/22 A2996 RMK AO2

2010/08/10 09:04
KDMW 100904Z AUTO 22003KT 7SM CLR 24/22 A2996 RMK AO2

2010/08/10 09:09
KESN 100909Z AUTO 20003KT 10SM CLR 24/23 A2997 RMK AO2

2010/08/10 09:06
KFME 100906Z AUTO 00000KT 3SM 19/19 A2995 RMK AO1 SKY OBSCURED

2010/08/10 09:06
KMTN 100906Z AUTO 18003KT 10SM CLR 26/22 A2993 RMK AO2

2010/08/10 09:06
KW29 100906Z AUTO 21006KT 10SM CLR 26/21 A2993 RMK AO1

2010/08/10 09:00
PLCH 100900Z 12010KT 20KM SKC 24/24 Q1012

2010/08/10 09:00
YBCS 100900Z 00000KT 9999 FEW005 BKN017 OVC025 24/23 Q1014 TEMPO 0900/1200 3000 -SHRA FEW003 BKN010

2010/08/10 09:00
LCLK 100900Z 18011KT 9999 FEW025 32/26 Q1006 NOSIG

2010/08/10 09:00
LCPH 100900Z 24007KT 200V280 8000 FEW020 31/26 Q1007

2010/08/10 09:00
FMMI 100900Z 11006KT 020V180 9999 SCT023 23/10 Q1025 NOSIG

2010/08/10 08:50
EGDM 100850Z 22009KT 9999 -RA FEW007 BKN050 OVC090 14/12 Q1011 RERA BECMG BKN020

2010/08/10 08:50
EGDY 100850Z 19008KT 9999 FEW008 SCT040 OVC070 14/12 Q1011 RERA

2010/08/10 08:50
EGXT 100850Z 23010KT 9999 FEW010 BKN040 BKN150 16/12 Q1009 TEMPO 7000 SHRA SCT020

2010/08/10 09:00
LRBS 100900Z 33004KT 270V040 CAVOK 29/20 Q1014 NOSIG

2010/08/10 09:00
LRCK 100900Z 28006KT 230V340 CAVOK 32/20 Q1012 NOSIG

2010/08/10 09:00
LROP 100900Z 02004KT 310V100 CAVOK 30/18 Q1014 880///95 NOSIG

2010/08/10 09:00
LRSB 100900Z 33004KT 280V030 9999 SCT033 BKN090 22/16 Q1018

2010/08/10 09:00
LRTR 100900Z 34005KT 300V020 9999 FEW030 26/16 Q1017 NOSIG

2010/08/10 09:00
LFBA 100900Z 00000KT 9999 SCT026 SCT250 21/14 Q1019 NOSIG

2010/08/10 09:00
LFBE 100900Z VRB02KT 9999 FEW030 SCT260 21/13 Q1019 NOSIG

2010/08/10 09:00
LFGJ 100900Z AUTO 21004KT 130V290 9999NDV NSC 23/16 Q1017

2010/08/10 09:00
LFJR 100900Z AUTO 23007KT 200V270 9999NDV FEW015 BKN020 BKN190 20/15 Q1018

2010/08/10 09:00
LFMD 100900Z AUTO 15006KT 110V190 9999NDV FEW034 26/21 Q1016

2010/08/10 09:00
LFMH 100900Z 26004KT 200V340 9999 FEW043 BKN250 22/13 Q1018 NOSIG

2010/08/10 09:00
LFOT 100900Z AUTO 23008KT 210V270 9999NDV FEW011 BKN160 BKN200 18/14 Q1017

2010/08/10 09:00
LFPN 100900Z 22008KT CAVOK 21/13 Q1016 NOSIG

2010/08/10 09:00
LFRC 100900Z AUTO 24012KT 3400NDV -DZ BR BKN006 OVC016 16/16 Q1013

2010/08/10 09:00
LFRG 100900Z AUTO 22012KT 3100NDV RA BR SCT012 BKN019 BKN027 16/15 Q1015

2010/08/10 09:00
LFRK 100900Z 19012KT 9999 -RA SCT023 BKN040 18/17 Q1014 NOSIG

2010/08/10 09:00
LFLL 100900Z 02006KT 330V050 CAVOK 24/15 Q1017 NOSIG

2010/08/10 09:00
LFMN 100900Z 13006KT 9999 FEW020 26/20 Q1016 NOSIG

2010/08/10 09:00
LFPG 100900Z 20004KT 170V230 CAVOK 20/12 Q1016 NOSIG

2010/08/10 09:00
LFPO 100900Z 19005KT 160V230 CAVOK 21/13 Q1016 NOSIG

2010/08/10 09:00
LFQQ 100900Z 21010KT 9999 FEW017 BKN150 19/14 Q1013 NOSIG

2010/08/10 09:00
LFRB 100900Z 24015KT 9999 BKN006 BKN016 18/18 Q1014 RERA NOSIG

2010/08/10 09:00
LFAQ 100900Z AUTO 20010KT 9999NDV NSC 18/13 Q1015

2010/08/10 09:00
LFBU 100900Z AUTO 27003KT 170V340 9999NDV FEW019 19/13 Q1019

2010/08/10 09:00
LFLN 100900Z AUTO 30003KT 240V340 9999NDV NSC 22/15 Q1018

2010/08/10 09:00
LFPM 100900Z 20004KT 130V250 CAVOK 23/14 Q1016

2010/08/10 09:00
LFRH 100900Z 24012KT 5000 BKN004 BKN008 18/18 Q1016

2010/08/10 09:00
LFRQ 100900Z 24010KT 200V280 9999 BKN005 BKN009 18/18 Q1015 NOSIG

2010/08/10 09:00
LFRT 100900Z 25007KT 200V280 4000 -DZ BR SCT005 OVC013 18/18 Q1015

2010/08/10 09:00
LFSD 100900Z AUTO VRB03KT 9999NDV NSC 22/15 Q1017

2010/08/10 09:00
LFTW 100900Z AUTO VRB03KT 9999NDV NSC 27/15 Q1016

2010/08/10 09:00
YBTL 100900Z 05004KT 8000 -RA FEW006 SCT020 BKN045 23/22 Q1014

2010/08/10 09:05
PAEN 100905Z AUTO 00000KT 4SM -RA BR BKN003 BKN009 OVC029 12/12 A2978

2010/08/10 09:00
UKKM 100900Z 08002MPS 020V120 CAVOK 29/18 Q1015 33CLRD70 NOSIG

2010/08/10 09:00
SAEZ 100900Z 00000KT 8000 R11/0300D RMID/0400D R29/P1500 MIFGBR 03/03 Q1028

2010/08/10 09:00
SAME 100900Z 00000KT CAVOK 04/M03 Q1022

2010/08/10 09:00
FIMP 100900Z 09012KT 9999 SCT019 25/16 Q1023

2010/08/10 09:00
SADF 100900Z 00000KT 7000 MIFG SKC 03/03 Q1027

2010/08/10 09:00
UBBG 100900Z 08009KT 9999 FEW100 34/11 Q1011 NOSIG RMK R12L/CLRD70 

2010/08/10 09:00
LRBC 100900Z 36012KT 330V040 CAVOK 27/20 Q1016

2010/08/10 09:00
LRCV 100900Z VRB04KT CAVOK 27/17 Q1015

2010/08/10 09:00
LRIA 100900Z 32008KT 280V350 CAVOK 27/20 Q1016

2010/08/10 09:00
LRSV 100900Z 33008KT CAVOK 23/20 Q1018

2010/08/10 09:00
LRTC 100900Z 34010KT CAVOK 31/19 Q1012

2010/08/10 09:00
FYGB 100900Z AUTO 09004KT //// // ////// 11/M13 Q1033

2010/08/10 09:00
FYGF 100900Z AUTO 12009KT //// // ////// 13/M11 Q1032

2010/08/10 09:00
FYLZ 100900Z AUTO 05029KT //// // ////// 23/M14 Q1021

2010/08/10 09:00
FYML 100900Z AUTO 10011KT //// // ////// ///// Q1035

2010/08/10 09:00
FYOA 100900Z AUTO 08012KT //// // ////// 21/M06 Q1025

2010/08/10 09:00
FYOJ 100900Z AUTO 09011KT //// // ////// 18/M09 Q1026

2010/08/10 09:00
FYOW 100900Z AUTO 11008KT //// // ////// 18/M14 Q1028

2010/08/10 09:00
FYWB 100900Z 09035KT 0400 R09/0200V0400N R27/0400V1000U VV/// 29/M13 Q1016 

2010/08/10 09:00
FYWH 100900Z 10007KT CAVOK 09/M12 Q1034

2010/08/10 09:00
FYWW 100900Z 12007KT CAVOK 11/M17 Q1031

2010/08/10 09:00
YMML 100900Z 27006KT 7000 OVC009 08/07 Q1008 RMK BR FM0900 VRB03KT 9000 -RA SCT010 SCT030 TEMPO 0900/1200 6000 RA BKN010

2010/08/10 09:00
LKCV 100900Z VRB02KT 9999 FEW030 21/16 Q1018 NOSIG

2010/08/10 09:00
LKKB 100900Z VRB02KT 9999 FEW021 21/16 Q1018 NOSIG

2010/08/10 09:00
LKLN 100900Z AUTO VRB01KT CAVOK 20/16 Q1019

2010/08/10 09:00
LKNA 100900Z VRB02KT 9999 SCT041 21/12 Q1019 NOSIG

2010/08/10 09:00
LKPD 100900Z VRB01KT 9999 SCT021 21/16 Q1018 NOSIG

2010/08/10 09:00
LKPO 100900Z VRB02KT 9999 FEW024 21/15 Q1018 NOSIG

2010/08/10 08:46
HLLB 100846Z 30015KT 9999 BKN020 28/15 Q1013

2010/08/10 08:50
HLLS 100850Z 15005KT CAVOK 35/06 Q1015

2010/08/10 08:50
HLLT 100850Z VRB03KT CAVOK 29/13 Q1016

2010/08/10 09:06
CYXU 100906Z 00000KT 2 1/2SM BR FEW025 21/ RMK FG1SC2

2010/08/10 09:03
YSDU 100903Z AUTO 35013KT 9999NDV // ////// 14/13 Q1011

2010/08/10 09:00
RKSI 100900Z 16013KT 8000 -RA FEW010 BKN025 BKN100 26/24 Q1006 TEMPO 4000 TSRA

2010/08/10 09:00
RKSS 100900Z 04008KT 020V120 6000 -TSRA FEW010CB BKN025 OVC080 25/23 Q1006 NOSIG RMK TS S MOV SW OCNL LTGICCC 

2010/08/10 09:00
RKPC 100900Z 13012KT 100V160 3500 RA BR FEW008 BKN025 OVC070 27/25 Q0995 WS ALL RWY NOSIG 

2010/08/10 09:00
RKPK 100900Z 10012KT 9999 FEW030 BKN060 29/23 Q1006 NOSIG 

2010/08/10 09:00
RKTU 100900Z 06005KT 4000 -RA FEW012 BKN030 OVC060 26/25 Q1007 BECMG 2500 

2010/08/10 09:00
RKTN 100900Z 11005KT 9000 -RA BKN020 OVC030 29/24 Q1006 NOSIG

2010/08/10 09:00
RKJB 100900Z 08011KT 050V130 4500 RA BR FEW010 BKN030 OVC070 26/24 Q1002 NOSIG 

2010/08/10 09:00
RKNY 100900Z 16003KT 4500 -RA BR FEW015 BKN030 OVC100 25/22 Q1007 NOSIG 

2010/08/10 09:03
EHGR 100903Z AUTO 22006KT 9999NDV FEW020 OVC200 19/15 Q1013 BLU BLU TEMPO WHT TEMPO SCT020

2010/08/10 09:01
EHLW 100901Z AUTO 20009KT 7000NDV BR FEW008 BKN010 BKN014 18/16 Q1012 GRN WHT TEMPO GRN 6000 BR SCT023 TEMPO SCT012

2010/08/10 09:05
EHKD 100905Z AUTO 21011KT 9999NDV FEW023 OVC027 19/17 Q1011 BLU WHT TEMPO GRN TEMPO SCT012 SCT015CB BKN020

2010/08/10 09:04
EHVL 100904Z AUTO 21016KT 9999NDV FEW009 BKN017 OVC021 18/16 Q1011 WHT

2010/08/10 08:55
KLGC 100855Z AUTO 00000KT 5SM CLR 22/22 A2999

2010/08/10 09:00
SARI 100900Z 23005KT CAVOK 11/10 Q1021

2010/08/10 09:05
LIYW 100905Z AUTO 00000KT 9999 -DZ CLR 27/18 A3001 RMK AO2 DZB0905 SLP160

2010/08/10 09:05
KFDK 100905Z AUTO 20003KT 5SM BR CLR 23/22 A2996

2010/08/10 09:00
KMMU 100900Z AUTO 00000KT 10SM CLR 23/20 A2993

2010/08/10 09:00
KWDR 100900Z AUTO 00000KT 5SM CLR 23/21 A3006

2010/08/10 09:05
KRSW 100905Z AUTO 10007KT 10SM SCT008 24/23 A2984

2010/08/10 08:55
KLGC 100855Z AUTO 00000KT 5SM CLR 22/22 A2999

2010/08/10 09:00
KOPN 100900Z AUTO 11004KT 7SM CLR 24/23 A3002

2010/08/10 09:06
KFNT 100906Z 00000KT 3SM BR 19/19 A2995

2010/08/10 09:05
KTOL 100905Z 00000KT 1/4SM FG BKN001 BKN010 22/21 A2995

2010/08/10 09:05
K1H2 100905Z AUTO 00000KT 7SM CLR 25/24 A2992

2010/08/10 09:02
KAAA 100902Z AUTO 00000KT 10SM CLR 23/21 A2992

2010/08/10 09:04
KJOT 100904Z AUTO 00000KT 7SM CLR 25/22 A2993

2010/08/10 09:04
KPPQ 100904Z AUTO 00000KT 4SM BR CLR 27/25 A2993

2010/08/10 08:53
KPTK 100853Z COR 00000KT 6SM BR FEW140 22/21 A2996

2010/08/10 09:00
BIRK 100900Z 02008KT 9999 FEW012 SCT022 BKN035 12/08 Q1013

2010/08/10 09:00
CYBR 100900Z 08003KT 15SM FEW060 OVC150 22/19 A2991 RMK SC2AC6 SLP124

2010/08/10 09:00
DAAE 100900Z 36003KT 9999 FEW016 SCT233 29/23 Q1016

2010/08/10 09:00
LKKV 100900Z VRB03KT 9999 FEW033 19/11 Q1019 RMK REG QNH 1015

2010/08/10 09:00
MKJS 100900Z 00000KT 9999 FEW024 BKN220 27/23 Q1012

2010/08/10 08:59
MYEG 100859Z AUTO 10003KT 10SM SCT025 SCT031 26/24 A2995 RMK AO2

2010/08/10 09:00
MZBZ 100900Z 00000KT 9999 CAVOK 28/26 A2983 NOSIG

2010/08/10 08:50
OAUZ 100850Z 05003KT 9999 BKN150 40/05 Q1005 BLU

2010/08/10 08:57
PHNG 100857Z AUTO 07010G16KT 10SM SCT027 SCT036 26/20 A3012 RMK AO2 SLP195 T02560200 51011 $

2010/08/10 08:58
ROTM 100858Z 20010G16KT 9999 SCT010 OVC100 29/26 A2981 RMK SHRAE12 SLP080 WND WRNG XWND ADV P0000 60000 T02890261 58003

2010/08/10 09:00
TLPL 100900Z 16006KT 9999 SCT021 28/25 Q1013

2010/08/10 09:00
UACC 100900Z 01006MPS 310V010 CAVOK 20/04 Q1019 040/0070 NOSIG RMK QFE733/0977

2010/08/10 09:00
UAFM 100900Z 30008MPS CAVOK 34/04 Q1010 TEMPO 32007G12MPS

2010/08/10 09:00
UATT 100900Z 08006MPS 050V110 6000 NSC 30/03 Q1021 13CLRD70 NOSIG RMK QFE746/0995

2010/08/10 09:00
WMKJ 100900Z 19004KT 9999 FEW018 BKN280 32/25 Q1006

2010/08/10 09:00
WMKK 100900Z 15004KT 9999 FEW030 SCT140 BKN270 31/26 Q1005 NOSIG

2010/08/10 09:00
WMKP 100900Z 22007KT 9000 FEW020 BKN140 BKN270 31/26 Q1005 NOSIG

2010/08/10 09:00
WMSA 100900Z 15006KT 9999 FEW020 BKN140 33/25 Q1006 NOSIG

2010/08/10 09:00
ZBHH 100900Z 04002MPS 9999 SCT040 28/07 Q1009 NOSIG

2010/08/10 09:00
ZHHH 100900Z 21004MPS 4000 TS BR SCT025 SCT040CB 31/29 Q1002 BECMG TL1000 NSW

2010/08/10 09:00
ZSNJ 100900Z 04001MPS 7000 SCT030 35/22 Q1003 NOSIG

2010/08/10 09:00
ZUCK 100900Z VRB02MPS CAVOK 38/22 Q1000 NOSIG

2010/08/10 09:00
ZWSH 100900Z 21005MPS 180V240 9999 FEW040CB 32/05 Q1008 NOSIG

2010/08/10 09:03
K11R 100903Z AUTO 00000KT 10SM CLR 26/24 A2992

2010/08/10 09:05
KCBE 100905Z AUTO 00000KT 7SM CLR 20/20 A3002

2010/08/10 09:09
KESN 100909Z AUTO 20003KT 10SM CLR 24/23 A2997

2010/08/10 09:00
TGPY 100900Z 19008KT 9999 SCT018 SCT260 28/25 Q1013

2010/08/10 09:00
KJQF 100900Z AUTO 00000KT 5SM HZ CLR 24/21 A3002

2010/08/10 09:00
UWUU 100900Z 00000MPS CAVOK 31/12 Q1021 82010060 NOSIG RMK QFE754/1006

2010/08/10 09:00
USCC 100900Z 24003G07MPS 220V280 3000 FU BKN200 28/08 Q1020 NOSIG RMK QFE745 09000070

2010/08/10 09:00
USDD 100900Z 21003MPS 170V250 9999 SCT041 BKN070 15/08 Q1012 NOSIG RMK QFE754/1006 SC060

2010/08/10 09:00
USMU 100900Z 27004MPS 9999 FEW030CB BKN036 BKN066 15/09 Q1012 NOSIG RMK QFE753 27110060

2010/08/10 09:00
USNN 100900Z 29004MPS P6000 SCT022CB BKN066 OVC200 14/11 Q1014 NOSIG RMK QFE755 SC065

2010/08/10 09:00
USRK 100900Z 35005MPS 6000 SCT030 BKN066 16/06 Q1014 NOSIG RMK QFE754 350///60

2010/08/10 09:00
USRR 100900Z 03002G05MPS 7000 SCT041 BKN080 15/08 Q1015 NOSIG RMK QFE756 25////60

2010/08/10 09:00
USSS 100900Z 29005MPS CAVOK 28/13 Q1019 NOSIG RMK QFE743 260///70

2010/08/10 09:00
UIAA 100900Z 00000MPS 9999 SCT050 25/10 Q1004 NOSIG RMK QFE695 29CLRD70

2010/08/10 09:00
UIBB 100900Z 32003MPS 9999 SCT030CB OVC100 15/10 Q1006 NOSIG RMK QFE712/0949 30190055

2010/08/10 09:00
UIII 100900Z 17005MPS 9999 FEW050CB SCT100 OVC200 21/13 Q1003 NOSIG RMK QFE710/0947 12CLRD60

2010/08/10 09:00
UIUU 100900Z VRB01MPS 9999 FEW043 BKN200 28/08 Q1002 NOSIG RMK QFE707/0943

2010/08/10 09:00
UHHH 100900Z 21003MPS 9999 FEW026 SCT100 25/19 Q1005 NOSIG RMK QFE747/0996 23090060

2010/08/10 09:00
UHMM 100900Z 00000MPS 9999 SCT066 16/12 Q1009 RMK QFE742 88010070

2010/08/10 09:00
UHMP 100900Z 09003MPS 9999 -SHRA BKN040 BKN100 05/03 Q1012 NOSIG RMK QFE759

2010/08/10 09:00
UHNN 100900Z 11005G10MPS 9999 BKN070 OVC200 20/18 Q1009 NOSIG RMK QFE752 110///60

2010/08/10 09:00
UHPP 100900Z 19004MPS 100V230 9999 FEW043 18/09 Q1013 NOSIG RMK QFE756/1009 MT OBSC SC070

2010/08/10 09:00
UHSH 100900Z 13005G10MPS 5000 BR OVC004 14/13 Q1013 BECMG 2000 BR RMK QBB 120 QFE756 13090070

2010/08/10 09:00
UHSS 100900Z 18004MPS 3500 BR OVC003CB 21/21 Q1012 NOSIG RMK QBB100 MT OBSC QFE757/1010 19250260

2010/08/10 09:00
UHWW 100900Z 14004MPS 5000 -SHRA BR BKN010 OVC040CB 24/23 Q1008 NOSIG RMK QFE755/1006 7529//60

2010/08/10 09:00
USPP 100900Z 26005MPS 6000 SKC 32/17 Q1019 NOSIG 21090060 RMK QFE753/1004

2010/08/10 09:00
UWKD 100900Z 28003MPS 5000 HZ BKN200 34/13 Q1021 NOSIG RMK QFE754/1006 79CLRD70

2010/08/10 09:00
UWKE 100900Z 06002MPS CAVOK 33/15 Q1021 NOSIG RMK QFE749/0998 04090070

2010/08/10 09:00
UWKS 100900Z 16003MPS CAVOK 34/10 Q1021 NOSIG RMK QFE751 SC0.60

2010/08/10 09:00
UWLL 100900Z 13004MPS CAVOK 33/11 Q1021 NOSIG RMK QFE753/1005 SC065

2010/08/10 09:00
UWLW 100900Z 02002MPS 8000 SKC 34/14 Q1021 NOSIG 20CLRD60 RMK QFE760

2010/08/10 09:00
UWOR 100900Z 09005MPS 7000 SKC 27/05 Q1024 07CLRD65 NOSIG RMK QFE742/0990

2010/08/10 09:00
UWOO 100900Z 15003MPS 120V190 P5000 SKC 31/06 Q1021 08CLRD65 NOSIG RMK QFE755/1007

2010/08/10 09:00
UWPP 100900Z 14002MPS CAVOK 33/11 Q1019 NOSIG RMK QFE750 11090060

2010/08/10 09:00
UWSS 100900Z 07004MPS CAVOK 33/13 Q1020 NOSIG RMK QFE753 120///60

2010/08/10 09:00
UWWW 100900Z 09003G06MPS 020V140 CAVOK 33/10 Q1021 NOSIG RMK QFE753/1004 05CLRD60 15//99//

2010/08/10 09:00
UOHH 100900Z 33004MPS 9999 FEW023 SCT/// 11/04 Q1011 NOSIG RMK QFE753 06090060

2010/08/10 09:00
UOII 100900Z 35003MPS 9999 SCT026 14/05 Q1008 NOSIG RMK QFE753 30////60

2010/08/10 09:00
UOOO 100900Z 36004G05MPS 9999 BKN033 11/04 Q1008 NOSIG RMK QFE742 0119//56

2010/08/10 09:00
USCM 100900Z VRB01MPS 6000 SCT100 27/09 Q1022 NOSIG 19090065 RMK QFE728

2010/08/10 09:00
ULDD 100900Z 07006MPS 8000 VCFG FEW003 BKN/// 10/08 Q1012 TEMPO 0800 FG RMK QFE759

2010/08/10 09:00
UUYH 100900Z 27004MPS 4000 HZ OVC099 30/19 Q1012 NOSIG RMK QFE 746 18CLRD60

2010/08/10 09:00
UUYS 100900Z VRB02MPS 8000 BKN015 OVC/// 19/16 Q1009 TEMPO 2000 TSRA RMK QFE750 14290050

2010/08/10 09:00
UUYY 100900Z 23003G07MPS 200V280 4100 FU OVC200 33/16 Q1015 NOSIG 19CLRD61 RMK QFE752/1004

2010/08/10 09:00
UEEE 100900Z 00000MPS 9999 FEW050CB BKN100 28/12 Q1002 NOSIG RMK QFE743 2309//60

2010/08/10 09:00
UELL 100900Z VRB01MPS 9999 SCT033 BKN200 20/12 Q1006 NOSIG RMK QFE681 08CLRD70

2010/08/10 09:00
UERP 100900Z 08003MPS 9999 BKN033 OVC100 11/07 Q1004 NOSIG RMK QFE709 35090065

2010/08/10 09:00
UERR 100900Z 21003MPS 9999 SCT030CB OVC200 20/14 Q1003 NOSIG RMK QFE721 24CLRD60

2010/08/10 09:00
UESO 100900Z 15004MPS CAVOK 14/06 Q1010 NOSIG RMK QFE755 SC060

2010/08/10 09:00
UEST 100900Z 19004MPS CAVOK 14/09 Q1004 NOSIG RMK QFE752 21150060

2010/08/10 09:00
UNAA 100900Z 02004MPS 9999 SCT030CB BKN100 18/09 Q1007 NOSIG RMK QFE733 020///65

2010/08/10 09:00
UNBB 100900Z 36004MPS 9999 BKN033CB 18/08 Q1010 NOSIG RMK QFE735

2010/08/10 09:00
UNEE 100900Z 34005MPS 9999 SCT033 OVC066 17/07 Q1009 NOSIG RMK QFE734 23CLRD60

2010/08/10 09:00
UNKL 100900Z 27004MPS 240V300 9999 SCT043 BKN083 17/06 Q1008 NOSIG RMK QFE730 29////65

2010/08/10 09:00
UNNT 100900Z 35005G10MPS 9999 BKN048 19/03 Q1011 NOSIG RMK QFE748/0998 25090070

2010/08/10 09:00
UNOO 100900Z 33005MPS 9999 SCT033CB BKN066 14/06 Q1018 NOSIG 07CLRD06 RMK QFE755

2010/08/10 09:00
UNWW 100900Z 35004MPS 9999 BKN026CB BKN230 19/10 Q1007 NOSIG RMK QFE728 01CLRD70

2010/08/10 09:00
USTR 100900Z 23006G09MPS 6000 NSC 23/09 Q1017 NOSIG RMK QFE753/1004 30CLRD65 21CLRD65

2010/08/10 09:00
USHH 100900Z 13004MPS 8000 -SHRA BKN007CB OVC080 11/11 Q1012 TEMPO 1000 BR OVC004 RMK QFE755 SC055

2010/08/10 09:00
URKA 100900Z 31003MPS 9999 FEW040 SCT120 32/24 Q1008 NOSIG RMK 065

2010/08/10 09:00
URKK 100900Z 11005G08MPS 080V150 CAVOK 36/16 Q1008 NOSIG RMK QFE753 SC070

2010/08/10 09:00
URKM 100900Z 14003G07MPS CAVOK 35/18 Q1009 RMK QFE738

2010/08/10 09:00
URML 100900Z 10004MPS 9999 SKC 34/21 Q1011 NOSIG RMK QFE758 / 07

2010/08/10 09:00
URMM 100900Z 10008G11MPS 9999 SKC 34/16 Q1011 NOSIG RMK / SC070

2010/08/10 09:00
URMN 100900Z 09002MPS 9999 SKC 31/16 Q1012 NOSIG RMK / QFE722 SC07

2010/08/10 09:00
URMT 100900Z 10010G13MPS CAVOK 34/09 Q1012 NOSIG RMK QFE719 SC07

2010/08/10 09:00
URRR 100900Z 09005G08MPS CAVOK 37/10 Q1012 NOSIG RMK SC070

2010/08/10 09:00
URSS 100900Z 26003MPS 230V290 9999 FEW100 32/23 Q1007 NOSIG RMK / QFE754 06CLRD70

2010/08/10 09:00
URWA 100900Z 13005MPS CAVOK 39/11 Q1013 NOSIG RMK SC07

2010/08/10 09:00
URWI 100900Z 12007G10MPS 9999 SKC 38/19 Q1013 NOSIG RMK SC065

2010/08/10 09:00
URWW 100900Z 07007MPS 050V110 CAVOK 37/05 Q1015 NOSIG RMK SC070

2010/08/10 09:00
ULAA 100900Z 23003MPS 170V270 9999 VCTS FEW030CB BKN/// 27/19 Q1011 TEMPO VRB14MPS 2000 TSRA BR BKN007CB RMK QFE756/1009 SC070

2010/08/10 09:00
ULKK 100900Z 20004MPS 3300 -HZ OVC099 31/21 Q1015 NOSIG RMK QFE756 13000060

2010/08/10 09:00
ULMM 100900Z 02003G06MPS 9999 OVC009CB 11/08 Q1011 NOSIG RMK QFE751 32290250

2010/08/10 09:00
ULOO 100900Z 16003MPS P6000 BKN026 BKN200 23/17 Q1015 NOSIG RMK QFE757

2010/08/10 09:00
ULWW 100900Z 17004G07MPS 1200 HZ OVC/// 31/19 Q1015 TEMPO 1500 HZ RMK QFE751 15CLRD60

2010/08/10 09:00
UMKK 100900Z 36002MPS 300V360 P8000 FEW026 SCT200 20/16 Q1017 R24/CLRD70 NOSIG RMK QFE762/1016

2010/08/10 09:00
UUBP 100900Z 34003MPS CAVOK 30/16 Q1014 NOSIG

2010/08/10 09:00
UUOB 100900Z 14003MPS CAVOK 36/11 Q1015 NOSIG RMK SC065

2010/08/10 09:00
UUOK 100900Z 14003MPS 9999 SCT033CB BKN200 35/13 Q1013 NOSIG

2010/08/10 09:00
UUOO 100900Z 11006MPS 9999 FEW050CB BKN100 35/09 Q1016 NOSIG RMK 13090070

2010/08/10 09:00
UWGG 100900Z 18004MPS 160V220 4000 FU SCT230 35/10 Q1019 NOSIG 18090070 RMK QFE757

2010/08/10 09:00
ULLI 100900Z 23005MPS 9999 BKN033 BKN200 24/15 Q1014 NOSIG

2010/08/10 09:00
UUDD 100900Z 13005MPS 100V170 8000 SKC 33/13 Q1016 NOSIG

2010/08/10 09:00
UUEE 100900Z 17004MPS 130V200 3000 FU BKN200 33/12 Q1015 NOSIG

2010/08/10 09:00
UUWW 100900Z 14003MPS 110V180 5000 HZ SCT050CB 31/13 Q1015 24000070 TEMPO TSRA

2010/08/10 09:06
KMKG 100906Z 14003KT 1/2SM FG VV001 21/19 A2995

2010/08/10 09:06
KELM 100906Z AUTO 00000KT 4SM BR FEW005 BKN065 OVC080 21/19 A2996

2010/08/10 09:05
KTOL 100905Z 00000KT 1/4SM FG BKN001 BKN010 22/21 A2995

2010/08/10 09:00
GMTA 100900Z 36008KT 6000 OVC013 26/22 Q1018

2010/08/10 09:00
URKA 100900Z 31003MPS 9999 FEW040 SCT120 32/24 Q1008 NOSIG RMK  065

2010/08/10 09:00
URKK 100900Z 11005G08MPS 080V150 CAVOK 36/16 Q1008 NOSIG RMK QFE753 SC070

2010/08/10 09:00
URKM 100900Z 14003G07MPS CAVOK 35/18 Q1009 RMK QFE738

2010/08/10 09:00
URML 100900Z 10004MPS 9999 SKC 34/21 Q1011 NOSIG RMK QFE758 / 07

2010/08/10 09:00
URMM 100900Z 10008G11MPS 9999 SKC 34/16 Q1011 NOSIG RMK / SC070

2010/08/10 09:00
URMN 100900Z 09002MPS 9999 SKC 31/16 Q1012 NOSIG RMK / QFE722 SC07

2010/08/10 09:00
URMT 100900Z 10010G13MPS CAVOK 34/09 Q1012 NOSIG RMK QFE719 SC07

2010/08/10 09:00
URRR 100900Z 09005G08MPS CAVOK 37/10 Q1012 NOSIG RMK SC070

2010/08/10 09:00
URSS 100900Z 26003MPS 230V290 9999 FEW100 32/23 Q1007 NOSIG RMK / QFE754 06CLRD70

2010/08/10 09:00
URWA 100900Z 13005MPS CAVOK 39/11 Q1013 NOSIG RMK SC07

2010/08/10 09:00
URWI 100900Z 12007G10MPS 9999 SKC 38/19 Q1013 NOSIG RMK SC065

2010/08/10 09:00
URWW 100900Z 07007MPS 050V110 CAVOK 37/05 Q1015 NOSIG RMK SC070

2010/08/10 09:00
VTUK 100900Z VRB02KT 9999 -RA FEW015 FEW020CB SCT022 BKN100 25/24 Q1003 A2963 TS E CB E S N NW RWY21 INFO K

2010/08/10 08:55
LIBA 100855Z 31002KT 9999 FEW030 29/21 Q1014 RMK SCT SCT090 VIS MIN 9999 WIND THR29 29002KT BLU

2010/08/10 08:50
LIBC 100850Z 06007KT CAVOK 30/12 Q1014 RMK VIS MIN 9999

2010/08/10 08:50
LIBD 100850Z 36010KT 330V030 CAVOK 28/15 Q1014 RMK VIS MIN 9999

2010/08/10 08:50
LIBG 100850Z 34015KT CAVOK 31/14 Q1013 RMK VIS MIN 9999

2010/08/10 08:55
LIBN 100855Z 34015KT CAVOK 29/20 Q1013 RMK SCT SCT180 VIS MIN 9999 WIND THR14 35014KT BLU

2010/08/10 08:50
LIBP 100850Z 03006KT CAVOK 27/19 Q1015 RMK VIS MIN 9999

2010/08/10 08:45
LIBR 100845Z 33021KT CAVOK 27/21 Q1013 NOSIG RMK SCT SCT200 VIS MIN 9999 WIND THR13 /////KT WIND THR31 31018KT BLU

2010/08/10 08:55
LIBV 100855Z 01011KT CAVOK 27/15 Q1013 RMK BKN BKN120 VIS MIN 9999 WIND THR14 36011KT BLU

2010/08/10 08:50
LICA 100850Z 25013KT 9999 SCT020 27/21 Q1015 RMK VIS MIN 9999

2010/08/10 08:50
LICC 100850Z 07005KT CAVOK 30/17 Q1014 RMK VIS MIN 9999

2010/08/10 08:50
LICD 100850Z 29007KT CAVOK 27/21 Q1016 RMK VIS MIN 9999

2010/08/10 08:55
LICG 100855Z 01005KT CAVOK 28/16 Q1016 RMK SKC VIS MIN 9999 WIND THR08 /////KT WIND THR21 VRB04KT BLU

2010/08/10 08:50
LICJ 100850Z 03010KT CAVOK 26/17 Q1016 RMK VIS MIN 9999

2010/08/10 08:50
LICR 100850Z 35012G24KT 9999 FEW025 28/19 Q1014 RMK VIS MIN 9999

2010/08/10 08:55
LICT 100855Z 33008KT CAVOK 30/12 Q1015 RMK FEW FEW200 VIS MIN 9999 WIND THR13 33008KT BLU

2010/08/10 08:55
LICZ 100855Z 21004KT CAVOK 31/15 Q1014 RMK SKC VIS MIN 9999 WIND THR28 /////KT BLU

2010/08/10 08:55
LIMT 100855Z /////KT 7000 SCT014 17/16 Q1019 RMK SCT MON LIB VAL FOSCHIA VIS MIN 7000

2010/08/10 09:00
VTPP 100900Z 11003KT 9999 FEW020 CB FEW022 BKN300 32/25 Q1001 CB W S E

2010/08/10 09:00
VTPO 100900Z 33003KT 9999 TS FEW020CB SCT120 BKN300 32/25 Q1001 TS S

2010/08/10 09:00
KMMU 100900Z AUTO 00000KT 10SM CLR 23/20 A2993

2010/08/10 09:06
KMTN 100906Z AUTO 18003KT 10SM CLR 26/22 A2993

2010/08/10 09:05
KRSW 100905Z AUTO 10007KT 10SM SCT008 24/23 A2984

2010/08/10 09:00
GABS 100900Z 34005KT 310V010 9999 FEW025 25/22 Q1016 NOSIG

2010/08/10 09:00
GGOV 100900Z 30003KT 250V340 4000 RA BKN005 SCT014TCU OVC090 25/24 Q1014 NOSIG

2010/08/10 09:00
GOOY 100900Z 32006KT 270V340 9999 FEW013 SCT230 29/22 Q1013 NOSIG

2010/08/10 09:00
DIAP 100900Z 25009KT 7000 SCT011 SCT020 BKN070 26/23 Q1015 NOSIG

2010/08/10 09:00
GQNN 100900Z 28006KT 250V310 8000 NSC 27/19 Q1013 NOSIG

2010/08/10 09:00
GQPP 100900Z 32007KT CAVOK / 22/21 Q1014 NOSIG

2010/08/10 09:00
GFLL 100900Z 09002KT 8000 RA BKN010 FEWCB025 26/23 Q1014 CB-NW

2010/08/10 09:00
GBYD 100900Z 03004KT 9999 SCT011 BKN110 27/24 Q1013

2010/08/10 09:00
GLRB 100900Z 00000KT 9999 BKN014 26/24 Q1015 NOSIG

2010/08/10 09:06
KFNT 100906Z 00000KT 3SM BR 19/19 A2995

2010/08/10 09:06
KMKG 100906Z 14003KT 1/2SM FG VV001 21/19 A2995

2010/08/10 09:06
KACV 100906Z AUTO 18007KT 8SM OVC003 11/11 A2991

2010/08/10 09:05
KALN 100905Z AUTO 00000KT 5SM BR CLR 26/26 A2991

2010/08/10 08:53
KPTK 100853Z COR 00000KT 6SM BR FEW140 22/21 A2996

2010/08/10 09:05
PAEN 100905Z AUTO 00000KT 4SM -RA BR BKN003 BKN009 OVC029 12/12 A2978

2010/08/10 09:06
KFNT 100906Z 00000KT 3SM BR 19/19 A2995

2010/08/10 09:06
KMKG 100906Z 14003KT 1/2SM FG VV001 21/19 A2995

2010/08/10 09:00
ZGHA 100900Z 00000MPS 9999 FEW040 38/26 Q1001 NOSIG

2010/08/10 09:05
KTOL 100905Z 00000KT 1/4SM FG BKN001 BKN010 22/21 A2995

2010/08/10 09:00
BIAR 100900Z 12001KT 9999 OVC011 10/08 Q1014

2010/08/10 09:00
BIEG 100900Z 01007KT 7000 BR OVC004 08/08 Q1014

2010/08/10 09:00
BIKF 100900Z 34012KT 9999 FEW016 BKN025 13/08 Q1014

2010/08/10 09:00
BIRK 100900Z 02008KT 9999 FEW012 SCT022 BKN035 12/08 Q1013

2010/08/10 09:00
DNIB 100900Z 19004KT 8000 SCT011 25/23 Q1014

2010/08/10 09:00
DNAA 100900Z 21005KT 9999 SCT010 27/20 Q1015 NOSIG

2010/08/10 09:00
FBSK 100900Z 13009KT CAVOK 14/M06 Q1032 NOSIG

2010/08/10 09:00
FBFT 100900Z 11014KT 9999 SCT020 18/08 Q1030

2010/08/10 09:00
FBMN 100900Z 14010KT CAVOK 16/M09 Q1029

2010/08/10 09:00
FBKE 100900Z 14009KT CAVOK 23/01 Q1025

2010/08/10 09:00
DAOB 100900Z 00000KT CAVOK 31/06 Q1021

2010/08/10 09:00
GABS 100900Z 34005KT 310V010 9999 FEW025 25/22 Q1016 NOSIG

2010/08/10 09:00
GGOV 100900Z 30003KT 250V340 4000 RA BKN005 SCT014TCU OVC090 25/24 Q1014 NOSIG

2010/08/10 09:00
GOOY 100900Z 32006KT 270V340 9999 FEW013 SCT230 29/22 Q1013 NOSIG

2010/08/10 09:00
DIAP 100900Z 25009KT 7000 SCT011 SCT020 BKN070 26/23 Q1015 NOSIG

2010/08/10 09:00
GQNN 100900Z 28006KT 250V310 8000 NSC 27/19 Q1013 NOSIG

2010/08/10 09:00
GQPP 100900Z 32007KT CAVOK / 22/21 Q1014 NOSIG

2010/08/10 09:00
GFLL 100900Z 09002KT 8000 RA BKN010 FEWCB025 26/23 Q1014 CB-NW

2010/08/10 09:00
GBYD 100900Z 03004KT 9999 SCT011 BKN110 27/24 Q1013

2010/08/10 09:00
GLRB 100900Z 00000KT 9999 BKN014 26/24 Q1015 NOSIG

2010/08/10 09:00
UHHH 100900Z 21003MPS 9999 FEW026 SCT100 25/19 Q1005 NOSIG RMK QFE747/0996 23090060

2010/08/10 09:00
UHMM 100900Z 00000MPS 9999 SCT066 16/12 Q1009 RMK QFE742 88010070

2010/08/10 09:00
UHNN 100900Z 11005G10MPS 9999 BKN070 OVC200 20/18 Q1009 NOSIG RMK QFE752 110///60

2010/08/10 09:00
UHPP 100900Z 19004MPS 100V230 9999 FEW043 18/09 Q1013 NOSIG RMK QFE756/1009 MT OBSC SC070

2010/08/10 09:00
UHSS 100900Z 18004MPS 3500 BR OVC003CB 21/21 Q1012 NOSIG RMK QBB100 MT OBSC QFE757/1010 19250260

2010/08/10 09:00
UIBB 100900Z 32003MPS 9999 SCT030CB OVC100 15/10 Q1006 NOSIG RMK QFE712/0949 30190055

2010/08/10 09:00
UIII 100900Z 17005MPS 9999 FEW050CB SCT100 OVC200 21/13 Q1003 NOSIG RMK QFE710/0947 12CLRD60

2010/08/10 09:00
UIUU 100900Z VRB01MPS 9999 FEW043 BKN200 28/08 Q1002 NOSIG RMK QFE707/0943

2010/08/10 09:00
ULLI 100900Z 23005MPS 9999 BKN033 BKN200 24/15 Q1014 NOSIG

2010/08/10 09:00
ULWW 100900Z 17004G07MPS 1200 HZ OVC/// 31/19 Q1015 TEMPO 1500 HZ RMK QFE751 15CLRD60

2010/08/10 09:00
UMKK 100900Z 36002MPS 300V360 P8000 FEW026 SCT200 20/16 Q1017 R24/70D NOSIG RMK QFE762/1016

2010/08/10 09:00
URKA 100900Z 31003MPS 9999 FEW040 SCT120 32/24 Q1008 NOSIG RMK 065

2010/08/10 09:00
URMM 100900Z 10008G11MPS 9999 SKC 34/16 Q1011 NOSIG RMK / SC070

2010/08/10 09:00
URSS 100900Z 26003MPS 230V290 9999 FEW100 32/23 Q1007 NOSIG RMK / QFE754 06CLRD70

2010/08/10 09:00
UUDD 100900Z 13005MPS 100V170 8000 SKC 33/13 Q1016 NOSIG

2010/08/10 09:00
UUEE 100900Z 17004MPS 130V200 3000 FU BKN200 33/12 Q1015 NOSIG

2010/08/10 09:00
UWOO 100900Z 15003MPS 120V190 P5000 SKC 31/06 Q1021 08CLRD65 NOSIG RMK QFE755/1007

2010/08/10 09:00
UAAA 100900Z 32006MPS 9999 VCTS SCT050CB BKN100 31/10 Q1009 88CLRD65 TEMPO VRB15MPS TS SQ

2010/08/10 09:00
UACC 100900Z 01006MPS 310V010 CAVOK 20/04 Q1019 040/0070 NOSIG RMK QFE733/0977

2010/08/10 09:00
UAFM 100900Z 30008MPS CAVOK 34/04 Q1010 TEMPO 32007G12MPS

2010/08/10 09:00
UATE 100900Z 13008MPS CAVOK 41/03 Q1012 120///70 NOSIG RMK QFE757/1009

2010/08/10 09:00
UATT 100900Z 08006MPS 050V110 6000 NSC 30/03 Q1021 13CLRD70 NOSIG RMK QFE746/0995

2010/08/10 09:00
UELL 100900Z VRB01MPS 9999 SCT033 BKN200 20/12 Q1006 NOSIG RMK QFE681 08CLRD70

2010/08/10 09:00
UHWW 100900Z 14004MPS 5000 -SHRA BR BKN010 OVC040CB 24/23 Q1008 NOSIG RMK QFE755/1006 7529//60

2010/08/10 09:00
UIAA 100900Z 00000MPS 9999 SCT050 25/10 Q1004 NOSIG RMK QFE695 29CLRD70

2010/08/10 09:00
UMGG 100900Z 27004MPS 9999 FEW040 BKN100 27/21 Q1016 R10/D NOSIG

2010/08/10 09:00
UMII 100900Z 01003MPS P6000 FWE010 FEW030CB SCT100 22/17 Q1016 R05/D NOSIG

2010/08/10 09:00
UMMM 100900Z 01003MPS 9999 BKN033 BKN100 21/15 Q1016 R30/D NOSIG RMK QFE743

2010/08/10 09:00
UMMS 100900Z 01002MPS 9999 -SHRA SCT046CB BKN080 20/17 Q1017 R31/290060 NOSIG

2010/08/10 09:00
UTAA 100900Z 33004MPS 300V030 9999 SKC 38/02 Q1010 NOSIG

2010/08/10 09:00
UTDD 100900Z 17003MPS 120V210 9999 SCT066 FEW180 36/01 Q1007 09CLRD70 NOSIG RMK QFE688/0917

2010/08/10 09:00
UWKD 100900Z 28003MPS 5000 HZ BKN200 34/13 Q1021 NOSIG RMK QFE754/1006 79CLRD70

2010/08/10 09:00
UWPP 100900Z 14002MPS CAVOK 33/11 Q1019 NOSIG RMK QFE750 11090060

2010/08/10 09:00
VTBD 100900Z 19004KT 9999 FEW020CB SCT120 BKN300 33/22 Q1002 CB NE/SW NOSIG

2010/08/10 09:08
CYCB 100908Z 07015KT 2 1/2SM BR OVC003 RMK SF8

