2010/08/10 10:59
MYEG 101059Z AUTO 00000KT 10SM VCTS SCT021 SCT029 SCT034 24/22 A2994 RMK AO2 LTG DSNT S P0002 

2010/08/10 10:59
MYEG 101059Z AUTO 00000KT 10SM VCTS SCT021 SCT029 SCT034 24/22 A2994 RMK AO2 LTG DSNT S P0002

2010/08/10 10:45
KBAX 101045Z AUTO 34004KT M1/4SM FG OVC002 21/21 A2996 RMK AO2

2010/08/10 10:45
KBAX 101045Z AUTO 34004KT M1/4SM FG OVC002 21/21 A2996 RMK AO2

2010/08/10 10:50
OAKB 101050Z 23010KT 9999 SCT060 BKN140 30/12 Q1011 NOSIG RMK BLU BLU

2010/08/10 10:50
OAKB 101050Z 23010KT 9999 SCT060 BKN140 30/12 Q1011 NOSIG RMK BLU BLU

2010/08/10 10:45
KBAX 101045Z AUTO 34004KT M1/4SM FG OVC002 21/21 A2996 RMK AO2

2010/08/10 10:55
KFDW 101055Z AUTO 15004KT 2SM BR 25/23 A3004 RMK AO1 SKY OBSCURED VIS 1 1/4V5

2010/08/10 10:45
KBAX 101045Z AUTO 34004KT M1/4SM FG OVC002 21/21 A2996 RMK AO2

2010/08/10 10:55
KFDW 101055Z AUTO 15004KT 2SM BR 25/23 A3004 RMK AO1 SKY OBSCURED VIS 1 1/4V5

2010/08/10 11:00
HAAB 101100Z 27004KT 5000 RA FEW005 BKN018 OVC070 15/13 Q1026

2010/08/10 10:45
CYSC 101045Z AUTO 13002KT 6SM BR OVC006 15/15 A2992 RMK SLP136 DENSITY ALT 900FT

2010/08/10 10:47
KSUA 101047Z 15005KT 5SM RA SCT018 BKN025 BKN037 25/24 A2989

2010/08/10 10:47
KSUA 101047Z 15005KT 5SM RA SCT018 BKN025 BKN037 25/24 A2989

2010/08/10 10:45
MMVA 101045Z 00000KT 7SM SCT060 25/24 A2979 RMK 8/020 RTS

2010/08/10 10:45
SUAA 101045Z 36008KT 1000 FG SKC 04/03 Q1027

2010/08/10 10:45
CYWA 101045Z AUTO 00000KT 4SM CLR 13/13 A2992

2010/08/10 10:50
OAKB 101050Z 23010KT 9999 SCT060 BKN140 30/12 Q1011 NOSIG RMK BLU BLU

2010/08/10 10:45
CWZZ 101045Z AUTO ///// 0SM SCT002 02/ A2971

2010/08/10 10:45
KLOT 101045Z AUTO 00000KT 23/22 A2994 RMK AO2 LTG DSNT SW PWINO

2010/08/10 10:53
KPYX 101053Z AUTO 19007KT 10SM CLR 21/17 A2997 RMK AO2

2010/08/10 10:45
KRCR 101045Z AUTO 17004KT 4SM BR BKN034 26/26 A2998 RMK AO2

2010/08/10 10:45
KSFY 101045Z AUTO 00000KT 10SM SCT050 BKN070 BKN080 24/23 A2996 RMK AO2 LTG DSNT SE THRU SW

2010/08/10 10:45
KPQL 101045Z AUTO 00000KT 2 1/2SM BR CLR 25/24 A2993 RMK AO2

2010/08/10 10:45
KDSV 101045Z AUTO 13004KT 3SM BR BKN065 OVC095 22/20 A2997 RMK AO2 $

2010/08/10 10:45
KGRR 101045Z 00000KT 1/4SM FG VV001 21/21 A3000 RMK AO2

2010/08/10 10:45
KHWO 101045Z AUTO 13008KT 8SM -RA FEW050 BKN065 BKN085 26/24 A2989 RMK AO2 TSB15E39 P0000 $

2010/08/10 10:45
KMTH 101045Z AUTO 17007KT 140V210 7SM VCTS -RA SCT020 SCT028 OVC075 26/24 A2984 RMK AO2 TSB39RAE14B34 P0003

2010/08/10 10:45
KPSF 101045Z AUTO 00000KT 3SM BR OVC018 19/18 A2997 RMK AO2

2010/08/10 10:45
KRWI 101045Z AUTO 22005KT 2 1/2SM BR BKN002 24/23 A3001 RMK AO2

2010/08/10 10:45
KUGN 101045Z AUTO 00000KT 1/2SM FG CLR 21/20 A2997 RMK AO2

2010/08/10 10:46
CWOB 101046Z AUTO ///// 0SM CLR 02/ A2981

2010/08/10 10:46
CWZZ 101046Z AUTO ///// 0SM BKN002 02/ A2971

2010/08/10 10:45
CWWU 101045Z 04003KT 5SM -DZ BR BKN005 BKN010 OVC018 RMK SF6SF2SC1

2010/08/10 10:45
CWSK 101045Z AUTO 01002KT 14/14 RMK AO1 T01440136

2010/08/10 10:55
KCCA 101055Z AUTO 00000KT 3SM BR CLR 25/24 A2994 RMK AO2

2010/08/10 10:45
KJVL 101045Z 00000KT 7SM CLR 22/21 A2997 FIRST

2010/08/10 10:45
SUAA 101045Z 36008KT 1000 FG SKC 04/03 Q1027

2010/08/10 10:45
KGRR 101045Z 00000KT 1/4SM FG VV001 21/21 A3000 RMK AO2

2010/08/10 10:45
KPQL 101045Z AUTO 00000KT 2 1/2SM BR CLR 25/24 A2993 RMK AO2

2010/08/10 10:45
KDSV 101045Z AUTO 13004KT 3SM BR BKN065 OVC095 22/20 A2997 RMK AO2 $

2010/08/10 10:45
KHWO 101045Z AUTO 13008KT 8SM -RA FEW050 BKN065 BKN085 26/24 A2989 RMK AO2 TSB15E39 P0000 $

2010/08/10 10:45
KMTH 101045Z AUTO 17007KT 140V210 7SM VCTS -RA SCT020 SCT028 OVC075 26/24 A2984 RMK AO2 TSB39RAE14B34 P0003

2010/08/10 10:45
KPSF 101045Z AUTO 00000KT 3SM BR OVC018 19/18 A2997 RMK AO2

2010/08/10 10:45
KRWI 101045Z AUTO 22005KT 2 1/2SM BR BKN002 24/23 A3001 RMK AO2

2010/08/10 10:45
KUGN 101045Z AUTO 00000KT 1/2SM FG CLR 21/20 A2997 RMK AO2

2010/08/10 10:45
KSFY 101045Z AUTO 00000KT 10SM SCT050 BKN070 BKN080 24/23 A2996 RMK AO2 LTG DSNT SE THRU SW

2010/08/10 10:45
KLOT 101045Z AUTO 00000KT 23/22 A2994 RMK AO2 LTG DSNT SW PWINO

2010/08/10 10:53
KPYX 101053Z AUTO 19007KT 10SM CLR 21/17 A2997 RMK AO2

2010/08/10 10:45
KRCR 101045Z AUTO 17004KT 4SM BR BKN034 26/26 A2998 RMK AO2

2010/08/10 10:55
KCCA 101055Z AUTO 00000KT 3SM BR CLR 25/24 A2994 RMK AO2

2010/08/10 10:45
KJVL 101045Z 00000KT 7SM CLR 22/21 A2997 FIRST

2010/08/10 10:45
MMVA 101045Z 00000KT 7SM SCT060 25/24 A2979 RMK 8/020 RTS

2010/08/10 10:45
KGRR 101045Z 00000KT 1/4SM FG VV001 21/21 A3000

2010/08/10 10:45
KLOT 101045Z AUTO 00000KT 23/22 A2994

2010/08/10 10:45
KRWI 101045Z AUTO 22005KT 2 1/2SM BR BKN002 24/23 A3001

2010/08/10 10:45
KGRR 101045Z 00000KT 1/4SM FG VV001 21/21 A3000

2010/08/10 10:47
CYQY 101047Z 22009KT 15SM BKN012 OVC240 RMK SC6CI1

2010/08/10 10:45
KGRR 101045Z 00000KT 1/4SM FG VV001 21/21 A3000

2010/08/10 10:48
HLLB 101048Z 32018KT 9999 BKN020 28/18 Q1013

2010/08/10 10:46
CYSL 101046Z 00000KT 1/4SM FG SCT220 RMK FG2CI0

2010/08/10 10:46
CYQB 101046Z 30002KT 2SM BR OVC002 16/ RMK FG2SF5

2010/08/10 10:46
CWOB 101046Z AUTO ///// 0SM CLR 02/ A2981

2010/08/10 10:45
CWWU 101045Z 04003KT 5SM -DZ BR BKN005 BKN010 OVC018 RMK SF6SF2SC1

2010/08/10 10:45
CWZZ 101045Z AUTO ///// 0SM SCT002 02/ A2971

2010/08/10 10:46
CWZZ 101046Z AUTO ///// 0SM BKN002 02/ A2971

2010/08/10 10:45
CYSC 101045Z AUTO 13002KT 6SM BR OVC006 15/15 A2992 RMK SLP136 DENSITY ALT 900FT

2010/08/10 10:45
CYWA 101045Z AUTO 00000KT 4SM CLR 13/13 A2992

2010/08/10 10:45
EGUL 101045Z AUTO 22013KT 9999 FEW018 SCT080 17/14 A2980 RMK AO2 RAE1000B1025E1045DZB1000E1003B1023E1025 SLP092

2010/08/10 10:45
KLSF 101045Z AUTO 00000KT 4SM R33/4500FT BR CLR 22/22 A2998 RMK AO2 SLP152 PNO $

2010/08/10 10:46
KLSF 101046Z AUTO 00000KT 4SM R33/4500VP6000FT BR CLR 22/22 A2998 RMK AO2 SLP152 PNO $

2010/08/10 10:46
KVOK 101046Z 00000KT 1/4SM R27/0800V5500FT FG CLR 18/18 A2998 RMK AO2A SLP146

2010/08/10 10:45
PGUA 101045Z AUTO 09005KT 10SM SCT018 BKN023 BKN029 BKN034 26/25 A2996 RMK AO2 BKN023 V SCT CIG 016 RWY24L SLP127 $

2010/08/10 10:45
SUAA 101045Z 36008KT 1000 FG SKC 04/03 Q1027

2010/08/10 10:48
CYQZ 101048Z AUTO 00000KT 8SM FEW003 07/07 A2995 RMK SLP158

2010/08/10 10:45
KMWS 101045Z 19006G08KT 15/M19 RMK SNOW DEPTH M 

2010/08/10 10:46
CYQX 101046Z 20012KT 15SM FEW010 FEW040 BKN072 OVC100 15/ RMK SC1SC1AC6AC1 SHS DIST NE-SE

2010/08/10 10:47
KNBG 101047Z AUTO 00000KT 3/4SM BR CLR 25/23 A2994 RMK AO2 PWINO $ 

2010/08/10 10:45
K1H2 101045Z AUTO 00000KT 5SM BR SCT110 25/24 A2995 RMK AO2 LTG DSNT N T02450236

2010/08/10 10:45
K3LF 101045Z AUTO 00000KT 5SM BR SCT120 25/23 A2995 RMK AO2 LTG DSNT N

2010/08/10 10:45
K3T5 101045Z AUTO 00000KT 7SM CLR 25/24 A2990 RMK AO2 T02510237

2010/08/10 10:45
KAJG 101045Z AUTO 31004KT 2 1/2SM BR CLR 23/22 A2995 RMK AO2 T02280223

2010/08/10 10:45
KALN 101045Z AUTO 00000KT 7SM CLR 26/26 A2994 RMK AO2 T02610255

2010/08/10 10:45
KAQO 101045Z AUTO 00000KT CLR 26/22 A2996 RMK AO2 PWINO

2010/08/10 10:45
KARM 101045Z AUTO 00000KT 7SM CLR 26/24 A2991 RMK AO2 T02550238

2010/08/10 10:47
KASW 101047Z AUTO 00000KT 1 3/4SM BR SCT032 BKN085 23/22 A2998 RMK AO2 T02260219

2010/08/10 10:45
KAXH 101045Z AUTO 00000KT 1SM BR VV007 24/23 A2991 RMK AO2 T02390231

2010/08/10 10:45
KBBD 101045Z AUTO 16004KT 10SM CLR 25/22 A2996 RMK

2010/08/10 10:45
KBKS 101045Z AUTO 06003KT 5SM CLR 27/25 A2987 RMK AO1 T02650250

2010/08/10 10:47
KBPC 101047Z AUTO 22008KT 10SM CLR 22/17 A2997 RMK AO2

2010/08/10 10:45
KBYY 101045Z AUTO 07003KT 5SM BR CLR 25/25 A2991 RMK AO2 T02540253

2010/08/10 10:45
KC75 101045Z AUTO 34003KT 10SM -TSRA SCT003 SCT014 BKN045 24/24 A2994 RMK AO2 LTG DSNT ALQS P0016 T02380235

2010/08/10 10:45
KCGF 101045Z 27004KT 4SM BR BKN100 23/22 A2996

2010/08/10 10:45
KCUL 101045Z AUTO 17004KT 2 1/2SM BR CLR 23/21 A2994 RMK AO2 T02270211

2010/08/10 10:45
KDZB 101045Z AUTO 00000KT 7SM CLR 25/22 A2992 RMK AO2 T02500223

2010/08/10 10:45
KERV 101045Z AUTO 17004KT 10SM OVC019 25/22 A2997 RMK AO2 T02470220

2010/08/10 10:45
KGNC 101045Z AUTO 11003KT 10SM CLR 20/19 A3004 RMK AO2 T01950186

2010/08/10 10:45
KGWB 101045Z AUTO 00000KT 1 1/2SM BR BKN036 BKN042 BKN065 22/21 A2999 RMK AO2

2010/08/10 10:45
KHHF 101045Z AUTO 21003KT 10SM CLR 22/19 A2994 RMK AO2 T02190186

2010/08/10 10:45
KINJ 101045Z AUTO 16004KT 10SM CLR 25/22 A2992 RMK AO2 T02540220

2010/08/10 10:45
KJAS 101045Z AUTO 00000KT 7SM CLR 25/24 A2996 RMK AO2 T02500242

2010/08/10 10:45
KJSO 101045Z AUTO 00000KT 10SM CLR 26/24 A2995 RMK AO2 T02570242

2010/08/10 10:45
KMMU 101045Z 00000KT 6SM HZ OVC200 23/20 A2994

2010/08/10 10:45
KOXI 101045Z AUTO 00000KT 2SM CLR 23/22 A2995 RMK AO1 T02250215

2010/08/10 10:47
KPSN 101047Z AUTO 00000KT 25/24 A2994 RMK AO2 PWINO

2010/08/10 10:46
KBAK 101046Z 00000KT 5SM BR SCT120 23/22 A2996

2010/08/10 10:45
KCPT 101045Z AUTO 15004KT 10SM CLR 26/22 A2994 RMK AO2

2010/08/10 10:45
KCVB 101045Z AUTO 00000KT 10SM BKN010 OVC015 26/25 A2994 RMK AO2 T02630252

2010/08/10 10:45
KCWC 101045Z AUTO 00000KT 10SM CLR 27/19 A2992 RMK AO2 T02670194

2010/08/10 10:45
KDKB 101045Z AUTO 00000KT 2SM HZ CLR 23/20 A2996 RMK AO2 LTG DSNT S T02260200

2010/08/10 10:45
KDKR 101045Z AUTO 00000KT 7SM CLR 24/24 A2995 RMK AO2

2010/08/10 10:45
KDNV 101045Z AUTO 00000KT 7SM SCT095 22/21 A2993 RMK AO2 T02210208

2010/08/10 10:47
KDUX 101047Z AUTO 21010KT 10SM CLR 23/17 A3002 RMK AO2 T02280166

2010/08/10 10:50
KEBG 101050Z AUTO 07003KT 7SM SCT012 SCT025 27/26 A2986 RMK AO2 T02710255

2010/08/10 10:45
KECU 101045Z AUTO 15004KT 10SM SCT015 23/22 A3005 RMK AO2

2010/08/10 10:45
KENL 101045Z AUTO 00000KT 2 1/2SM BR CLR 23/23 A2995 RMK AO2 T02330227

2010/08/10 10:45
KFEP 101045Z AUTO 02003KT 3SM BR CLR 24/22 A2999 RMK AO2 LTG DSNT SE THRU W T02360216

2010/08/10 10:45
KFOA 101045Z AUTO 00000KT 5SM BR CLR 25/25 A2994 RMK AO2 T02520252

2010/08/10 10:45
KFWC 101045Z AUTO 00000KT 4SM BR CLR 24/23 A2994 RMK AO2

2010/08/10 10:45
KGBG 101045Z AUTO 35004KT 10SM SCT014 BKN030 OVC037 25/23 A2996 RMK AO2 LTG DSNT N THRU E

2010/08/10 10:45
KGOP 101045Z AUTO 21003KT 10SM CLR 26/23 A2994 RMK AO2

2010/08/10 10:45
KHSB 101045Z AUTO 00000KT 3SM BR CLR 22/21 A2995 RMK AO2

2010/08/10 10:45
KIGQ 101045Z AUTO 00000KT 5SM BR CLR 24/22 A2995 RMK AO2 LTG DSNT SW

2010/08/10 10:45
KIJX 101045Z AUTO 15003KT 10SM SCT110 24/23 A2993 RMK AO2 LTG DSNT NE T02380225

2010/08/10 10:45
KIKK 101045Z AUTO 00000KT 7SM TS SCT100 25/23 A2996 RMK AO2 LTG DSNT SW THRU NW

2010/08/10 10:45
KJDD 101045Z AUTO 00000KT 10SM CLR 25/23 A2993 RMK AO2

2010/08/10 10:45
KJXI 101045Z AUTO 00000KT 10SM CLR 24/24 A2994 RMK AO2

2010/08/10 10:45
KLBR 101045Z AUTO 00000KT 10SM CLR 25/22 A2992 RMK AO2 T02450216

2010/08/10 10:45
KLNC 101045Z AUTO 00000KT 10SM CLR 25/22 A2991 RMK AO2 T02520223

2010/08/10 10:45
KLUD 101045Z AUTO 20003KT 10SM CLR 27/18 A2993 RMK AO2 T02740183

2010/08/10 10:55
KOLV 101055Z AUTO 18004KT 4SM CLR 24/ A2996 RMK A01 P000

2010/08/10 10:46
KORG 101046Z AUTO 00000KT 1 1/2SM BR VV007 24/24 A2994 RMK AO2

2010/08/10 10:45
KPEQ 101045Z AUTO 19004KT 10SM CLR 21/18 A2995 RMK AO2 T02080176

2010/08/10 10:45
KPNT 101045Z AUTO 11003KT 5SM TSRA SCT008 BKN023 OVC060 26/24 A2997 RMK AO2 P0031 LTG DSNT ALQDS

2010/08/10 10:45
KPRG 101045Z AUTO 00000KT 5SM BR BKN045 24/23 A2997 RMK AO2 LTG DSNT NW T02470235

2010/08/10 10:45
KRPJ 101045Z AUTO 18003KT 3SM BR CLR 22/21 A2998 RMK AO2 LTG DSNT SE AND S T02210211

2010/08/10 10:45
KRSV 101045Z AUTO 00000KT 2 1/2SM BR CLR 24/23 A2996 RMK AO2 T02350228

2010/08/10 10:46
KAZO 101046Z 00000KT 1/4SM FG OVC003 20/19 A3000 RMK AO2

2010/08/10 10:46
KCRW 101046Z 00000KT 4SM BR SCT001 21/19 A3001 RMK AO2 DNS VLY FG

2010/08/10 10:46
KERI 101046Z 00000KT 1 3/4SM BR SCT010 BKN038 22/21 A2996 RMK AO2 CIG 010 NE

2010/08/10 10:46
KMCW 101046Z AUTO 19005KT 3SM -RA BR OVC003 24/24 A2998 RMK AO2 LTG DSNT W P0001

2010/08/10 10:46
KRAC 101046Z AUTO 00000KT 1 1/2SM BR CLR 21/19 A2999 RMK AO2 P0001

2010/08/10 10:46
KTVR 101046Z AUTO 00000KT 3/4SM BR VV007 24/23 A2995 RMK AO2

2010/08/10 10:47
KALO 101047Z 21004KT 3SM -RA BR BKN005 BKN014 OVC027 24/24 A2996 RMK AO2 LTG DSNT S P0004

2010/08/10 10:47
KSBM 101047Z AUTO 00000KT 3/4SM BR CLR 21/20 A2998 RMK AO2

2010/08/10 10:49
KUCP 101049Z AUTO 00000KT 3SM BR FEW110 21/20 A2998 RMK AO2

2010/08/10 10:46
CYQB 101046Z 30002KT 2SM BR OVC002 16/ RMK FG2SF5

2010/08/10 10:47
CYQY 101047Z 22009KT 15SM BKN012 OVC240 RMK SC6CI1

2010/08/10 10:45
SUAA 101045Z 36008KT 1000 FG SKC 04/03 Q1027

2010/08/10 10:50
ETNG 101050Z 25007KT 9999 FEW036 BKN250 25/14 Q1014 NOSIG

2010/08/10 10:50
MSLP 101050Z 20003KT 9999 8000S FEW020 FEW037CB SCT100 24/23 Q1010 A2983 LTGIC TO S

2010/08/10 10:46
CYQX 101046Z 20012KT 15SM FEW010 FEW040 BKN072 OVC100 15/ RMK SC1SC1AC6AC1 SHS DIST NE-SE

2010/08/10 10:45
PGUA 101045Z AUTO 09005KT 10SM SCT018 BKN023 BKN029 BKN034 26/25 A2996

2010/08/10 10:45
PGUA 101045Z AUTO 09005KT 10SM SCT018 BKN023 BKN029 BKN034 26/25 A2996 RMK AO2 BKN023 V SCT CIG 016 RWY24L SLP127 $

2010/08/10 10:45
EGUL 101045Z AUTO 22013KT 9999 FEW018 SCT080 17/14 A2980 RMK AO2 RAE1000B1025E1045DZB1000E1003B1023E1025 SLP092

2010/08/10 10:47
KCQT 101047Z AUTO 27004KT 8SM OVC007 17/13 A2989 RMK AO2 SLP120 T01720133 TSNO $ 

2010/08/10 10:48
CYFS 101048Z 00000KT 10SM -RA SCT007 OVC013 RMK ST2SC6

2010/08/10 10:45
KLSF 101045Z AUTO 00000KT 4SM R33/4500FT BR CLR 22/22 A2998 RMK AO2 SLP152 PNO $

2010/08/10 10:46
KLSF 101046Z AUTO 00000KT 4SM R33/4500VP6000FT BR CLR 22/22 A2998 RMK AO2 SLP152 PNO $

2010/08/10 10:46
CYGL 101046Z 32002KT 12SM -RA FEW004 OVC013 RMK SF1SC7

2010/08/10 10:48
KJDN 101048Z AUTO 00000KT 16/14 A2981 RMK AO2 SLP077 T01560144 PWINO TSNO $ 

2010/08/10 10:45
KMWS 101045Z 19006G08KT 15/M19 RMK SNOW DEPTH M

2010/08/10 10:47
KCQT 101047Z AUTO 27004KT 8SM OVC007 17/13 A2989 RMK AO2 SLP120 T01720133 TSNO $

2010/08/10 10:48
KJDN 101048Z AUTO 00000KT 16/14 A2981 RMK AO2 SLP077 T01560144 PWINO TSNO $

2010/08/10 10:48
KDWH 101048Z AUTO 26003KT 2SM BR CLR 23/23 A2991 RMK AO2

2010/08/10 10:47
PAIK 101047Z AUTO 09008KT 10SM OVC013 13/12 A2954 RMK AO2

2010/08/10 10:45
CWWA 101045Z AUTO 06001KT 14/12 RMK AO1 T01390123

2010/08/10 10:55
KOLV 101055Z AUTO 18004KT 4SM CLR 24/ A2996 RMK A01 P000

2010/08/10 10:46
KORG 101046Z AUTO 00000KT 1 1/2SM BR VV007 24/24 A2994 RMK AO2

2010/08/10 10:45
KPEQ 101045Z AUTO 19004KT 10SM CLR 21/18 A2995 RMK AO2 T02080176

2010/08/10 10:45
KPNT 101045Z AUTO 11003KT 5SM TSRA SCT008 BKN023 OVC060 26/24 A2997 RMK AO2 P0031 LTG DSNT ALQDS

2010/08/10 10:45
KPRG 101045Z AUTO 00000KT 5SM BR BKN045 24/23 A2997 RMK AO2 LTG DSNT NW T02470235

2010/08/10 10:45
KRPJ 101045Z AUTO 18003KT 3SM BR CLR 22/21 A2998 RMK AO2 LTG DSNT SE AND S T02210211

2010/08/10 10:45
KRSV 101045Z AUTO 00000KT 2 1/2SM BR CLR 24/23 A2996 RMK AO2 T02350228

2010/08/10 10:46
KAZO 101046Z 00000KT 1/4SM FG OVC003 20/19 A3000 RMK AO2

2010/08/10 10:46
KERI 101046Z 00000KT 1 3/4SM BR SCT010 BKN038 22/21 A2996 RMK AO2 CIG 010 NE

2010/08/10 10:46
KMCW 101046Z AUTO 19005KT 3SM -RA BR OVC003 24/24 A2998 RMK AO2 LTG DSNT W P0001

2010/08/10 10:46
KRAC 101046Z AUTO 00000KT 1 1/2SM BR CLR 21/19 A2999 RMK AO2 P0001

2010/08/10 10:46
KTVR 101046Z AUTO 00000KT 3/4SM BR VV007 24/23 A2995 RMK AO2

2010/08/10 10:47
KALO 101047Z 21004KT 3SM -RA BR BKN005 BKN014 OVC027 24/24 A2996 RMK AO2 LTG DSNT S P0004

2010/08/10 10:47
KSBM 101047Z AUTO 00000KT 3/4SM BR CLR 21/20 A2998 RMK AO2

2010/08/10 10:49
KUCP 101049Z AUTO 00000KT 3SM BR FEW110 21/20 A2998 RMK AO2

2010/08/10 10:48
KDWH 101048Z AUTO 26003KT 2SM BR CLR 23/23 A2991 RMK AO2

2010/08/10 10:47
PAIK 101047Z AUTO 09008KT 10SM OVC013 13/12 A2954 RMK AO2

2010/08/10 10:45
KCUL 101045Z AUTO 17004KT 2 1/2SM BR CLR 23/21 A2994 RMK AO2 T02270211

2010/08/10 10:47
KPSN 101047Z AUTO 00000KT 25/24 A2994 RMK AO2 PWINO

2010/08/10 10:45
KMWS 101045Z 19006G08KT 15/M19 RMK SNOW DEPTH M

2010/08/10 10:47
KCQT 101047Z AUTO 27004KT 8SM OVC007 17/13 A2989 RMK AO2 SLP120 T01720133 TSNO $

2010/08/10 10:48
KJDN 101048Z AUTO 00000KT 16/14 A2981 RMK AO2 SLP077 T01560144 PWINO TSNO $

2010/08/10 10:45
K1H2 101045Z AUTO 00000KT 5SM BR SCT110 25/24 A2995 RMK AO2 LTG DSNT N T02450236

2010/08/10 10:45
K3LF 101045Z AUTO 00000KT 5SM BR SCT120 25/23 A2995 RMK AO2 LTG DSNT N

2010/08/10 10:45
K3T5 101045Z AUTO 00000KT 7SM CLR 25/24 A2990 RMK AO2 T02510237

2010/08/10 10:45
KAJG 101045Z AUTO 31004KT 2 1/2SM BR CLR 23/22 A2995 RMK AO2 T02280223

2010/08/10 10:45
KALN 101045Z AUTO 00000KT 7SM CLR 26/26 A2994 RMK AO2 T02610255

2010/08/10 10:45
KAQO 101045Z AUTO 00000KT CLR 26/22 A2996 RMK AO2 PWINO

2010/08/10 10:45
KARM 101045Z AUTO 00000KT 7SM CLR 26/24 A2991 RMK AO2 T02550238

2010/08/10 10:47
KASW 101047Z AUTO 00000KT 1 3/4SM BR SCT032 BKN085 23/22 A2998 RMK AO2 T02260219

2010/08/10 10:45
KAXH 101045Z AUTO 00000KT 1SM BR VV007 24/23 A2991 RMK AO2 T02390231

2010/08/10 10:45
KBBD 101045Z AUTO 16004KT 10SM CLR 25/22 A2996 RMK

2010/08/10 10:45
KBKS 101045Z AUTO 06003KT 5SM CLR 27/25 A2987 RMK AO1 T02650250

2010/08/10 10:47
KBPC 101047Z AUTO 22008KT 10SM CLR 22/17 A2997 RMK AO2

2010/08/10 10:45
KBYY 101045Z AUTO 07003KT 5SM BR CLR 25/25 A2991 RMK AO2 T02540253

2010/08/10 10:45
KC75 101045Z AUTO 34003KT 10SM -TSRA SCT003 SCT014 BKN045 24/24 A2994 RMK AO2 LTG DSNT ALQS P0016 T02380235

2010/08/10 10:45
KCGF 101045Z 27004KT 4SM BR BKN100 23/22 A2996

2010/08/10 10:45
KDZB 101045Z AUTO 00000KT 7SM CLR 25/22 A2992 RMK AO2 T02500223

2010/08/10 10:45
KERV 101045Z AUTO 17004KT 10SM OVC019 25/22 A2997 RMK AO2 T02470220

2010/08/10 10:45
KGNC 101045Z AUTO 11003KT 10SM CLR 20/19 A3004 RMK AO2 T01950186

2010/08/10 10:45
KGWB 101045Z AUTO 00000KT 1 1/2SM BR BKN036 BKN042 BKN065 22/21 A2999 RMK AO2

2010/08/10 10:45
KHHF 101045Z AUTO 21003KT 10SM CLR 22/19 A2994 RMK AO2 T02190186

2010/08/10 10:45
KINJ 101045Z AUTO 16004KT 10SM CLR 25/22 A2992 RMK AO2 T02540220

2010/08/10 10:45
KJAS 101045Z AUTO 00000KT 7SM CLR 25/24 A2996 RMK AO2 T02500242

2010/08/10 10:45
KJSO 101045Z AUTO 00000KT 10SM CLR 26/24 A2995 RMK AO2 T02570242

2010/08/10 10:45
KMMU 101045Z 00000KT 6SM HZ OVC200 23/20 A2994

2010/08/10 10:45
KOXI 101045Z AUTO 00000KT 2SM CLR 23/22 A2995 RMK AO1 T02250215

2010/08/10 10:46
KBAK 101046Z 00000KT 5SM BR SCT120 23/22 A2996

2010/08/10 10:45
KCPT 101045Z AUTO 15004KT 10SM CLR 26/22 A2994 RMK AO2

2010/08/10 10:45
KCVB 101045Z AUTO 00000KT 10SM BKN010 OVC015 26/25 A2994 RMK AO2 T02630252

2010/08/10 10:45
KCWC 101045Z AUTO 00000KT 10SM CLR 27/19 A2992 RMK AO2 T02670194

2010/08/10 10:45
KDKB 101045Z AUTO 00000KT 2SM HZ CLR 23/20 A2996 RMK AO2 LTG DSNT S T02260200

2010/08/10 10:45
KDKR 101045Z AUTO 00000KT 7SM CLR 24/24 A2995 RMK AO2

2010/08/10 10:45
KDNV 101045Z AUTO 00000KT 7SM SCT095 22/21 A2993 RMK AO2 T02210208

2010/08/10 10:47
KDUX 101047Z AUTO 21010KT 10SM CLR 23/17 A3002 RMK AO2 T02280166

2010/08/10 10:50
KEBG 101050Z AUTO 07003KT 7SM SCT012 SCT025 27/26 A2986 RMK AO2 T02710255

2010/08/10 10:45
KECU 101045Z AUTO 15004KT 10SM SCT015 23/22 A3005 RMK AO2

2010/08/10 10:45
KENL 101045Z AUTO 00000KT 2 1/2SM BR CLR 23/23 A2995 RMK AO2 T02330227

2010/08/10 10:45
KFEP 101045Z AUTO 02003KT 3SM BR CLR 24/22 A2999 RMK AO2 LTG DSNT SE THRU W T02360216

2010/08/10 10:45
KFOA 101045Z AUTO 00000KT 5SM BR CLR 25/25 A2994 RMK AO2 T02520252

2010/08/10 10:45
KFWC 101045Z AUTO 00000KT 4SM BR CLR 24/23 A2994 RMK AO2

2010/08/10 10:45
KGBG 101045Z AUTO 35004KT 10SM SCT014 BKN030 OVC037 25/23 A2996 RMK AO2 LTG DSNT N THRU E

2010/08/10 10:45
KGOP 101045Z AUTO 21003KT 10SM CLR 26/23 A2994 RMK AO2

2010/08/10 10:45
KHSB 101045Z AUTO 00000KT 3SM BR CLR 22/21 A2995 RMK AO2

2010/08/10 10:45
KIGQ 101045Z AUTO 00000KT 5SM BR CLR 24/22 A2995 RMK AO2 LTG DSNT SW

2010/08/10 10:45
KIJX 101045Z AUTO 15003KT 10SM SCT110 24/23 A2993 RMK AO2 LTG DSNT NE T02380225

2010/08/10 10:45
KIKK 101045Z AUTO 00000KT 7SM TS SCT100 25/23 A2996 RMK AO2 LTG DSNT SW THRU NW

2010/08/10 10:45
KJDD 101045Z AUTO 00000KT 10SM CLR 25/23 A2993 RMK AO2

2010/08/10 10:45
KJXI 101045Z AUTO 00000KT 10SM CLR 24/24 A2994 RMK AO2

2010/08/10 10:45
KLBR 101045Z AUTO 00000KT 10SM CLR 25/22 A2992 RMK AO2 T02450216

2010/08/10 10:45
KLNC 101045Z AUTO 00000KT 10SM CLR 25/22 A2991 RMK AO2 T02520223

2010/08/10 10:45
KLUD 101045Z AUTO 20003KT 10SM CLR 27/18 A2993 RMK AO2 T02740183

2010/08/10 10:46
KCRW 101046Z 00000KT 4SM BR SCT001 21/19 A3001 RMK AO2 DNS VLY FG

2010/08/10 10:45
KLSF 101045Z AUTO 00000KT 4SM R33/4500FT BR CLR 22/22 A2998 RMK AO2 SLP152 PNO $

2010/08/10 10:46
KLSF 101046Z AUTO 00000KT 4SM R33/4500VP6000FT BR CLR 22/22 A2998 RMK AO2 SLP152 PNO $

2010/08/10 10:46
KVOK 101046Z 00000KT 1/4SM R27/0800V5500FT FG CLR 18/18 A2998 RMK AO2A SLP146

2010/08/10 10:45
PGUA 101045Z AUTO 09005KT 10SM SCT018 BKN023 BKN029 BKN034 26/25 A2996 RMK AO2 BKN023 V SCT CIG 016 RWY24L SLP127 $

2010/08/10 10:47
KNBG 101047Z AUTO 00000KT 3/4SM BR CLR 25/23 A2994 RMK AO2 PWINO $

2010/08/10 10:48
HLLB 101048Z 32018KT 9999 BKN020 28/18 Q1013

2010/08/10 10:50
OAKB 101050Z 23010KT 9999 SCT060 BKN140 30/12 Q1011 NOSIG RMK BLU BLU

2010/08/10 10:46
CYGL 101046Z 32002KT 12SM -RA FEW004 OVC013 RMK SF1SC7

2010/08/10 11:00
LQTZ 101100Z 10007KT 9999 FEW040 26/// Q1018

2010/08/10 10:46
KERI 101046Z 00000KT 1 3/4SM BR SCT010 BKN038 22/21 A2996

2010/08/10 10:46
KCRW 101046Z 00000KT 4SM BR SCT001 21/19 A3001

2010/08/10 10:46
KAZO 101046Z 00000KT 1/4SM FG OVC003 20/19 A3000

2010/08/10 10:48
KIGM 101048Z AUTO 10005KT 10SM CLR 19/02 A2997 RMK AO2 SLP076 T01940022 TSNO $ 

2010/08/10 10:47
KALO 101047Z 21004KT 3SM -RA BR BKN005 BKN014 OVC027 24/24 A2996

2010/08/10 10:46
KMCW 101046Z AUTO 19005KT 3SM -RA BR OVC003 24/24 A2998

2010/08/10 10:46
KCRW 101046Z 00000KT 4SM BR SCT001 21/19 A3001

2010/08/10 10:46
KERI 101046Z 00000KT 1 3/4SM BR SCT010 BKN038 22/21 A2996

2010/08/10 10:50
EETU 101050Z AUTO 27007KT 240V320 9999NDV SCT042/// 24/15 Q1015

2010/08/10 10:50
EEKA 101050Z 22009KT 190V270 9999 SCT021 OVC041 20/15 Q1014

2010/08/10 11:00
LQTZ 101100Z 10007KT 9999 FEW040 26/// Q1018

2010/08/10 10:50
EEKE 101050Z 25013KT 9999 SCT020 BKN043 20/15 Q1015

2010/08/10 10:47
KALO 101047Z 21004KT 3SM -RA BR BKN005 BKN014 OVC027 24/24 A2996

2010/08/10 10:46
KAZO 101046Z 00000KT 1/4SM FG OVC003 20/19 A3000

2010/08/10 10:48
HLLB 101048Z 32018KT 9999 BKN020 28/18 Q1013

2010/08/10 10:49
CWZZ 101049Z AUTO ///// 0SM BKN001 02/ A2971

2010/08/10 10:46
KCRW 101046Z 00000KT 4SM BR SCT001 21/19 A3001

2010/08/10 10:49
CBBC 101049Z AUTO 00000KT 9SM BKN002 A2998

2010/08/10 10:49
KANJ 101049Z AUTO 31004KT 1 3/4SM BR OVC002 20/19 A2997 RMK AO2 

2010/08/10 10:45
KUVA 101045Z AUTO 04004KT 10SM OVC012 26/24 A2992 RMK AO2 T02550239

2010/08/10 10:46
K5C1 101046Z AUTO 20007KT 10SM BKN013 OVC020 26/23 A2996 RMK AO1

2010/08/10 10:50
KGTR 101050Z 00000KT 5SM BR SKC 25/24 A2996

2010/08/10 10:47
KM30 101047Z AUTO 00000KT 2SM BR CLR 23/22 A2994 RMK AO2

2010/08/10 10:45
KMDD 101045Z AUTO 00000KT 10SM CLR 22/20 A3000 RMK AO2 T02150195

2010/08/10 10:55
KMNZ 101055Z AUTO 21004KT 10SM CLR 24/22 A2994 RMK AO2

2010/08/10 10:45
KMWA 101045Z AUTO 00000KT 4SM BR CLR 26/25 A2996 RMK AO2 T02580250

2010/08/10 10:50
KOMN 101050Z 12007KT 10SM SCT020 27/24 A2993 RMK FIRST

2010/08/10 10:45
KPEZ 101045Z AUTO 00000KT 10SM BKN013 26/24 A2992 RMK AO2 T02550236

2010/08/10 10:49
KPKV 101049Z AUTO 06004KT 10SM CLR 24/23 A2989 RMK AO2 T02410226

2010/08/10 10:45
KRAS 101045Z AUTO 22004KT 8SM FEW015 29/27 A2990 RMK AO2

2010/08/10 10:45
KRBO 101045Z AUTO 15003KT 10SM CLR 26/25 A2988 RMK AO2 T02630252

2010/08/10 10:45
KRPH 101045Z AUTO 16003KT 10SM CLR 25/18 A2990 RMK AO2 T02510183

2010/08/10 10:45
KRYW 101045Z AUTO 22004KT 1 1/2SM BR SCT011 25/23 A2995 RMK AO2 VIS 1/2V3

2010/08/10 10:45
KSAR 101045Z AUTO 00000KT 7SM CLR 27/26 A2994 RMK AO2

2010/08/10 10:46
KSLO 101046Z AUTO 00000KT 5SM BR CLR 26/24 A2995 RMK AO2 T02560238

2010/08/10 10:46
KSNK 101046Z AUTO 00000KT 10SM CLR 21/20 A2999 RMK AO2 T02120201

2010/08/10 10:45
KSWW 101045Z AUTO 19008KT 10SM CLR 26/20 A2999 RMK AO1 T02550198

2010/08/10 10:45
KT65 101045Z AUTO 10003KT 7SM CLR 28/26 A2986 RMK AO2 T02800262

2010/08/10 10:45
KT82 101045Z AUTO 21005KT 10SM OVC015 25/22 A2999 RMK AO1 T02450216

2010/08/10 10:45
KTAZ 101045Z AUTO 00000KT 10SM CLR 24/24 A2993 RMK AO2 LTG DSNT NE

2010/08/10 10:45
KTIP 101045Z AUTO 15003KT 7SM VCTS CLR 24/23 A2996 RMK AO2 LTG DSNT N AND NW T02400232

2010/08/10 10:45
KTYQ 101045Z AUTO 08003KT 7SM SCT037 SCT049 23/22 A2997 RMK AO2

2010/08/10 10:45
KUES 101045Z 00000KT SKC 19/18 A3000

2010/08/10 10:45
KATW 101045Z VRB04KT 7SM SCT100 21/19 A2999

2010/08/10 10:45
KGYY 101045Z 00000KT 7SM SCT038 BKN200 24/22 A2994

2010/08/10 10:48
PADL 101048Z 18008KT 2SM -RA BR BKN004 OVC010 10/09 A2963

2010/08/10 10:48
KBAF 101048Z 00000KT 1 1/2SM BR CLR 22/21 A2993 RMK AO2

2010/08/10 10:48
KDVN 101048Z AUTO 02008KT 8SM -TSRA BKN041 OVC065 23/22 A2995 RMK AO2 PK WND 27030/1009 WSHFT 1003 LTG DSNT NE-S TSB0954RAB11 P0035

2010/08/10 10:48
KJXN 101048Z 00000KT 3SM BR BKN001 OVC018 19/19 A3000 RMK AO2 $

2010/08/10 10:48
KRWF 101048Z AUTO 10005KT 10SM BKN027 BKN032 BKN060 24/23 A2991 RMK AO2 PRESRR

2010/08/10 10:48
KTOL 101048Z 00000KT 1/4SM FG OVC001 21/21 A2997 RMK AO2 TWR VIS 1/2 RVRNO

2010/08/10 10:49
KCEC 101049Z AUTO 23003KT 1 3/4SM BR OVC002 12/11 A2992 RMK AO2

2010/08/10 10:49
KMRH 101049Z AUTO 25007KT 10SM SCT016 BKN020 BKN025 28/24 A3002 RMK AO2 TSNO

2010/08/10 10:49
KSSF 101049Z AUTO 00000KT 10SM BKN014 27/24 A2991 RMK AO2

2010/08/10 10:48
PATQ 101048Z AUTO 08016KT 1 1/4SM -RA BR OVC005 02/01 A2979 RMK AO2 TSNO VIS 1/4V5 RAE14B34 P0000 $

2010/08/10 10:48
PATQ 101048Z AUTO 08016KT 1 1/4SM -RA BR OVC005 02/01 A2979 RMK AO2 TSNO VIS 1/4V5 RAE14B34 P0000 $

2010/08/10 10:50
EYPA 101050Z 27005KT 210V330 9999 SCT023 21/15 Q1017 NOSIG

2010/08/10 10:45
UTAK 101045Z T40 

2010/08/10 10:50
EYKA 101050Z 18004KT 130V290 CAVOK 26/16 Q1016

2010/08/10 10:50
EETN 101050Z 22011KT 9999 SCT032 BKN048 22/15 Q1014 NOSIG

2010/08/10 11:00
MPTO 101100Z 00000KT 9999 SCT018CB 26/24 Q1010 NOSIG

2010/08/10 11:00
SBBV 101100Z 33002KT 9999 FEW010 SCT100 25/23 Q1014

2010/08/10 10:50
EYVI 101050Z 06003KT 350V120 9999 SCT040 BKN110 24/15 Q1017 NOSIG

2010/08/10 10:50
EYSA 101050Z 26009KT 220V280 9999 SCT022 22/16 Q1017

2010/08/10 10:45
KMMU 101045Z 00000KT 6SM HZ OVC200 23/20 A2994

2010/08/10 10:45
K1H2 101045Z AUTO 00000KT 5SM BR SCT110 25/24 A2995

2010/08/10 10:45
KC75 101045Z AUTO 34003KT 10SM -TSRA SCT003 SCT014 BKN045 24/24 A2994

2010/08/10 10:45
KDKB 101045Z AUTO 00000KT 2SM HZ CLR 23/20 A2996

2010/08/10 10:45
KDNV 101045Z AUTO 00000KT 7SM SCT095 22/21 A2993

2010/08/10 10:45
KENL 101045Z AUTO 00000KT 2 1/2SM BR CLR 23/23 A2995

2010/08/10 10:45
KFEP 101045Z AUTO 02003KT 3SM BR CLR 24/22 A2999

2010/08/10 10:45
KFOA 101045Z AUTO 00000KT 5SM BR CLR 25/25 A2994

2010/08/10 10:45
KFWC 101045Z AUTO 00000KT 4SM BR CLR 24/23 A2994

2010/08/10 10:45
KGBG 101045Z AUTO 35004KT 10SM SCT014 BKN030 OVC037 25/23 A2996

2010/08/10 10:45
KHSB 101045Z AUTO 00000KT 3SM BR CLR 22/21 A2995

2010/08/10 10:45
KIGQ 101045Z AUTO 00000KT 5SM BR CLR 24/22 A2995

2010/08/10 10:45
KIJX 101045Z AUTO 15003KT 10SM SCT110 24/23 A2993

2010/08/10 10:45
KIKK 101045Z AUTO 00000KT 7SM TS SCT100 25/23 A2996

2010/08/10 10:45
KPNT 101045Z AUTO 11003KT 5SM TSRA SCT008 BKN023 OVC060 26/24 A2997

2010/08/10 10:45
KPRG 101045Z AUTO 00000KT 5SM BR BKN045 24/23 A2997

2010/08/10 10:45
KBYY 101045Z AUTO 07003KT 5SM BR CLR 25/25 A2991

2010/08/10 10:45
KLNC 101045Z AUTO 00000KT 10SM CLR 25/22 A2991

2010/08/10 10:48
KIGM 101048Z AUTO 10005KT 10SM CLR 19/02 A2997

2010/08/10 10:48
KJDN 101048Z AUTO 00000KT 16/14 A2981

2010/08/10 10:45
KMWS 101045Z 19006G08KT 15/M19

2010/08/10 10:45
UTAK 101045Z T40 

2010/08/10 10:50
EYKA 101050Z 18004KT 130V290 CAVOK 26/16 Q1016

2010/08/10 10:50
EYSA 101050Z 26009KT 220V280 9999 SCT022 22/16 Q1017

2010/08/10 10:48
HLLB 101048Z 32018KT 9999 BKN020 28/18 Q1013

2010/08/10 10:45
LMML 101045Z 20006KT 170V260 CAVOK 31/14 Q1015 NOSIG 

2010/08/10 10:50
EETN 101050Z 22011KT 9999 SCT032 BKN048 22/15 Q1014 NOSIG

2010/08/10 10:50
EYPA 101050Z 27005KT 210V330 9999 SCT023 21/15 Q1017 NOSIG

2010/08/10 10:50
LLBG 101050Z 30010KT 9999 FEW030 31/22 Q1007 NOSIG

2010/08/10 10:50
LLOV 101050Z 36006KT CAVOK 35/15 Q1008

2010/08/10 10:50
LLET 101050Z 03014G24KT CAVOK 39/18 Q1003

2010/08/10 10:50
LLHA 101050Z 29010KT 9999 SCT025 31/21 Q1007

2010/08/10 10:50
LLIB 101050Z 18004KT 9999 FEW040 34/20 Q1007

2010/08/10 10:50
LLSD 101050Z 29010KT 9999 FEW025 30/23 Q1007

2010/08/10 10:45
KMMU 101045Z 00000KT 6SM HZ OVC200 23/20 A2994

2010/08/10 10:45
MMVA 101045Z 00000KT 7SM SCT060 25/24 A2979 RMK 8/020 RTS

2010/08/10 11:00
MPTO 101100Z 00000KT 9999 SCT018CB 26/24 Q1010 NOSIG

2010/08/10 10:50
KQEN 101050Z AUTO 27011KT 7SM -RA BKN013 BKN095 21/20 A3041 RMK A02

2010/08/10 10:50
KQES 101050Z AUTO 10004KT 7SM SCT060 BKN130 25/23 A2977 RMK A02

2010/08/10 10:50
KQEY 101050Z AUTO 12001KT 2SM -RA BKN026 25/23 A2950 RMK A02

2010/08/10 10:55
KQHT 101055Z 32010G18KT 9999 FEW100 32/06 A2986 RMK AO2A SLP078

2010/08/10 11:00
KQEV 101100Z AUTO 11004KT 6SM -RA FEW037 BKN065 26/24 A2970 RMK A02

2010/08/10 10:49
CYEK 101049Z AUTO 00000KT 9SM CLR 08/08 A3009

2010/08/10 10:45
KALN 101045Z AUTO 00000KT 7SM CLR 26/26 A2994

2010/08/10 10:45
KIKK 101045Z AUTO 00000KT 7SM TS SCT100 25/23 A2996

2010/08/10 10:49
KANJ 101049Z AUTO 31004KT 1 3/4SM BR OVC002 20/19 A2997

2010/08/10 10:49
CYYT 101049Z 09005KT 3/4SM R11/P6000FT/D R16/P6000FT/D -DZ BR OVC002 14/ RMK FG4SF4

2010/08/10 10:50
KHON 101050Z AUTO 24011G17KT 6SM -RA BR SCT010 BKN015 OVC025 24/23 A2986 RMK AO2 RAB11 P0001 TSNO 

2010/08/10 10:48
KAJO 101048Z AUTO 00000KT 3SM BR CLR 12/12 A2990 RMK AO2 $

2010/08/10 10:49
KBLI 101049Z AUTO 17006KT 10SM BKN010 BKN015 OVC040 14/12 A2993 RMK AO2

2010/08/10 10:49
KBVY 101049Z AUTO 26004KT 4SM BR CLR 22/21 A2989 RMK AO2

2010/08/10 10:48
KEKQ 101048Z AUTO 00000KT 1SM BR CLR 22/22 A3003 RMK AO2

2010/08/10 10:49
KGZH 101049Z AUTO 00000KT 2 1/2SM BR CLR 23/23 A2997 RMK AO2

2010/08/10 10:49
KMIW 101049Z AUTO 22010KT 10SM VCTS CLR 23/21 A2997 RMK AO2 LTG DSNT ALQDS TSB03E20B43RAB0956E0959 P0000 $

2010/08/10 10:49
KMLI 101049Z 06007KT 10SM -TSRA SCT018 24/22 A2993 RMK AO2 LTG DSNT ALQDS TSB05E20B21RAB13 P0073 $

2010/08/10 10:49
KRME 101049Z AUTO 00000KT 3SM BR OVC023 21/20 A2998 RMK AO2

2010/08/10 10:50
KAQW 101050Z AUTO 00000KT 1 1/2SM BR FEW017 BKN025 21/20 A2996 RMK AO2

2010/08/10 10:50
KARR 101050Z AUTO 26003KT 1 3/4SM BR CLR 22/22 A2997 RMK AO2 VIS 1V3

2010/08/10 10:50
KBGM 101050Z 00000KT 1SM BR OVC065 20/19 A3001 RMK AO2 RVRNO

2010/08/10 10:50
KCMX 101050Z AUTO 00000KT 5SM BR CLR 16/15 A2997 RMK AO2 $

2010/08/10 10:50
KFLD 101050Z AUTO 00000KT 3/4SM BR VV001 20/19 A2997 RMK AO2

2010/08/10 10:50
KIMT 101050Z AUTO 00000KT 1/2SM FG OVC001 18/18 A3000 RMK AO2

2010/08/10 10:50
KLUK 101050Z 00000KT 5SM MIFG CLR 22/22 A2997 RMK AO2

2010/08/10 10:50
KPBG 101050Z AUTO 00000KT M1/4SM FG OVC002 16/16 A2991 RMK AO2

2010/08/10 10:47
KGVT 101047Z AUTO 12004KT 10SM CLR 26/22 A2992 RMK AO2

2010/08/10 10:50
KLZU 101050Z 07005KT 4SM BR SKC 22/21 A3005

2010/08/10 10:46
KXBP 101046Z AUTO 00000KT 10SM CLR 24/21 A2993 RMK AO2 T02360206

2010/08/10 11:00
TUPJ 101100Z 12011KT 9999 SCT019 28/23 A2995 RMK Q1014

2010/08/10 10:47
K1F0 101047Z AUTO 00000KT 10SM CLR 26/21 A2989 RMK AO2

2010/08/10 10:58
K36U 101058Z AUTO 00000KT 10SM CLR 06/03 A3013 RMK AO2

2010/08/10 10:47
KBVI 101047Z 00000KT 5SM BR BKN080 24/20 A3002

2010/08/10 10:51
KDUA 101051Z AUTO 00000KT 10SM CLR 26/21 A2992 RMK AO2

2010/08/10 10:53
KDUC 101053Z AUTO 14005KT 10SM CLR 24/21 A2991 RMK AO2

2010/08/10 10:48
KGLE 101048Z AUTO 00000KT 10SM CLR 26/20 A2993 RMK AO2

2010/08/10 10:48
KIZA 101048Z AUTO 00000KT 7SM OVC005 12/11 A2990 RMK AO2

2010/08/10 10:49
KL35 101049Z AUTO 00000KT 10SM CLR 04/M09 A3015 RMK AO2

2010/08/10 10:50
KLRU 101050Z AUTO 26004KT 10SM CLR 21/11 A3007 RMK AO2

2010/08/10 10:50
KONM 101050Z AUTO 33004KT 10SM CLR 21/10 A3009 RMK AO2 T02050104

2010/08/10 10:51
KONP 101051Z AUTO 00000KT 10SM OVC019 13/10 A3003 RMK AO1

2010/08/10 10:48
KEHA 101048Z AUTO 28003KT 22/17 RMK AO1 PK WND 06 000 T02220167

2010/08/10 10:49
KANJ 101049Z AUTO 31004KT 1 3/4SM BR OVC002 20/19 A2997 RMK AO2

2010/08/10 10:50
KHON 101050Z AUTO 24011G17KT 6SM -RA BR SCT010 BKN015 OVC025 24/23 A2986 RMK AO2 RAB11 P0001 TSNO

2010/08/10 10:48
KIGM 101048Z AUTO 10005KT 10SM CLR 19/02 A2997 RMK AO2 SLP076 T01940022 TSNO $

2010/08/10 10:48
KEHA 101048Z AUTO 28003KT 22/17 RMK AO1 PK WND 06 000 T02220167

2010/08/10 10:51
PTYA 101051Z VRB05KT 12SM FEW016 SCT140 BKN300 28/24 A2991 RMK SLP129 T02750236

2010/08/10 10:48
KTOL 101048Z 00000KT 1/4SM FG OVC001 21/21 A2997 RMK AO2 TWR VIS 1/2 RVRNO

2010/08/10 10:49
KANJ 101049Z AUTO 31004KT 1 3/4SM BR OVC002 20/19 A2997 RMK AO2

2010/08/10 10:50
KHON 101050Z AUTO 24011G17KT 6SM -RA BR SCT010 BKN015 OVC025 24/23 A2986 RMK AO2 RAB11 P0001 TSNO

2010/08/10 10:48
KBAF 101048Z 00000KT 1 1/2SM BR CLR 22/21 A2993 RMK AO2

2010/08/10 10:48
KDVN 101048Z AUTO 02008KT 8SM -TSRA BKN041 OVC065 23/22 A2995 RMK AO2 PK WND 27030/1009 WSHFT 1003 LTG DSNT NE-S TSB0954RAB11 P0035

2010/08/10 10:48
KJXN 101048Z 00000KT 3SM BR BKN001 OVC018 19/19 A3000 RMK AO2 $

2010/08/10 10:48
KRWF 101048Z AUTO 10005KT 10SM BKN027 BKN032 BKN060 24/23 A2991 RMK AO2 PRESRR

2010/08/10 10:49
KCEC 101049Z AUTO 23003KT 1 3/4SM BR OVC002 12/11 A2992 RMK AO2

2010/08/10 10:49
KMRH 101049Z AUTO 25007KT 10SM SCT016 BKN020 BKN025 28/24 A3002 RMK AO2 TSNO

2010/08/10 10:49
KSSF 101049Z AUTO 00000KT 10SM BKN014 27/24 A2991 RMK AO2

2010/08/10 10:48
PATQ 101048Z AUTO 08016KT 1 1/4SM -RA BR OVC005 02/01 A2979 RMK AO2 TSNO VIS 1/4V5 RAE14B34 P0000 $

2010/08/10 10:48
PATQ 101048Z AUTO 08016KT 1 1/4SM -RA BR OVC005 02/01 A2979 RMK AO2 TSNO VIS 1/4V5 RAE14B34 P0000 $

2010/08/10 10:48
KAJO 101048Z AUTO 00000KT 3SM BR CLR 12/12 A2990 RMK AO2 $

2010/08/10 10:49
KBLI 101049Z AUTO 17006KT 10SM BKN010 BKN015 OVC040 14/12 A2993 RMK AO2

2010/08/10 10:49
KBVY 101049Z AUTO 26004KT 4SM BR CLR 22/21 A2989 RMK AO2

2010/08/10 10:48
KEKQ 101048Z AUTO 00000KT 1SM BR CLR 22/22 A3003 RMK AO2

2010/08/10 10:49
KGZH 101049Z AUTO 00000KT 2 1/2SM BR CLR 23/23 A2997 RMK AO2

2010/08/10 10:49
KMIW 101049Z AUTO 22010KT 10SM VCTS CLR 23/21 A2997 RMK AO2 LTG DSNT ALQDS TSB03E20B43RAB0956E0959 P0000 $

2010/08/10 10:49
KMLI 101049Z 06007KT 10SM -TSRA SCT018 24/22 A2993 RMK AO2 LTG DSNT ALQDS TSB05E20B21RAB13 P0073 $

2010/08/10 10:49
KRME 101049Z AUTO 00000KT 3SM BR OVC023 21/20 A2998 RMK AO2

2010/08/10 10:50
KAQW 101050Z AUTO 00000KT 1 1/2SM BR FEW017 BKN025 21/20 A2996 RMK AO2

2010/08/10 10:50
KARR 101050Z AUTO 26003KT 1 3/4SM BR CLR 22/22 A2997 RMK AO2 VIS 1V3

2010/08/10 10:50
KBGM 101050Z 00000KT 1SM BR OVC065 20/19 A3001 RMK AO2 RVRNO

2010/08/10 10:50
KCMX 101050Z AUTO 00000KT 5SM BR CLR 16/15 A2997 RMK AO2 $

2010/08/10 10:50
KFLD 101050Z AUTO 00000KT 3/4SM BR VV001 20/19 A2997 RMK AO2

2010/08/10 10:50
KIMT 101050Z AUTO 00000KT 1/2SM FG OVC001 18/18 A3000 RMK AO2

2010/08/10 10:50
KLUK 101050Z 00000KT 5SM MIFG CLR 22/22 A2997 RMK AO2

2010/08/10 10:50
KPBG 101050Z AUTO 00000KT M1/4SM FG OVC002 16/16 A2991 RMK AO2

2010/08/10 10:45
KUVA 101045Z AUTO 04004KT 10SM OVC012 26/24 A2992 RMK AO2 T02550239

2010/08/10 10:46
K5C1 101046Z AUTO 20007KT 10SM BKN013 OVC020 26/23 A2996 RMK AO1

2010/08/10 10:50
KGTR 101050Z 00000KT 5SM BR SKC 25/24 A2996

2010/08/10 10:47
KM30 101047Z AUTO 00000KT 2SM BR CLR 23/22 A2994 RMK AO2

2010/08/10 10:45
KMDD 101045Z AUTO 00000KT 10SM CLR 22/20 A3000 RMK AO2 T02150195

2010/08/10 10:55
KMNZ 101055Z AUTO 21004KT 10SM CLR 24/22 A2994 RMK AO2

2010/08/10 10:45
KMWA 101045Z AUTO 00000KT 4SM BR CLR 26/25 A2996 RMK AO2 T02580250

2010/08/10 10:50
KOMN 101050Z 12007KT 10SM SCT020 27/24 A2993 RMK FIRST

2010/08/10 10:45
KPEZ 101045Z AUTO 00000KT 10SM BKN013 26/24 A2992 RMK AO2 T02550236

2010/08/10 10:49
KPKV 101049Z AUTO 06004KT 10SM CLR 24/23 A2989 RMK AO2 T02410226

2010/08/10 10:45
KRAS 101045Z AUTO 22004KT 8SM FEW015 29/27 A2990 RMK AO2

2010/08/10 10:45
KRBO 101045Z AUTO 15003KT 10SM CLR 26/25 A2988 RMK AO2 T02630252

2010/08/10 10:45
KRPH 101045Z AUTO 16003KT 10SM CLR 25/18 A2990 RMK AO2 T02510183

2010/08/10 10:45
KRYW 101045Z AUTO 22004KT 1 1/2SM BR SCT011 25/23 A2995 RMK AO2 VIS 1/2V3

2010/08/10 10:45
KSAR 101045Z AUTO 00000KT 7SM CLR 27/26 A2994 RMK AO2

2010/08/10 10:46
KSLO 101046Z AUTO 00000KT 5SM BR CLR 26/24 A2995 RMK AO2 T02560238

2010/08/10 10:46
KSNK 101046Z AUTO 00000KT 10SM CLR 21/20 A2999 RMK AO2 T02120201

2010/08/10 10:45
KSWW 101045Z AUTO 19008KT 10SM CLR 26/20 A2999 RMK AO1 T02550198

2010/08/10 10:45
KT65 101045Z AUTO 10003KT 7SM CLR 28/26 A2986 RMK AO2 T02800262

2010/08/10 10:45
KT82 101045Z AUTO 21005KT 10SM OVC015 25/22 A2999 RMK AO1 T02450216

2010/08/10 10:45
KTAZ 101045Z AUTO 00000KT 10SM CLR 24/24 A2993 RMK AO2 LTG DSNT NE

2010/08/10 10:45
KTIP 101045Z AUTO 15003KT 7SM VCTS CLR 24/23 A2996 RMK AO2 LTG DSNT N AND NW T02400232

2010/08/10 10:45
KTYQ 101045Z AUTO 08003KT 7SM SCT037 SCT049 23/22 A2997 RMK AO2

2010/08/10 10:45
KUES 101045Z 00000KT SKC 19/18 A3000

2010/08/10 10:45
KATW 101045Z VRB04KT 7SM SCT100 21/19 A2999

2010/08/10 10:45
KGYY 101045Z 00000KT 7SM SCT038 BKN200 24/22 A2994

2010/08/10 10:48
PADL 101048Z 18008KT 2SM -RA BR BKN004 OVC010 10/09 A2963

2010/08/10 10:47
KGVT 101047Z AUTO 12004KT 10SM CLR 26/22 A2992 RMK AO2

2010/08/10 10:50
KLZU 101050Z 07005KT 4SM BR SKC 22/21 A3005

2010/08/10 10:46
KXBP 101046Z AUTO 00000KT 10SM CLR 24/21 A2993 RMK AO2 T02360206

2010/08/10 10:47
K1F0 101047Z AUTO 00000KT 10SM CLR 26/21 A2989 RMK AO2

2010/08/10 10:58
K36U 101058Z AUTO 00000KT 10SM CLR 06/03 A3013 RMK AO2

2010/08/10 10:47
KBVI 101047Z 00000KT 5SM BR BKN080 24/20 A3002

2010/08/10 10:51
KDUA 101051Z AUTO 00000KT 10SM CLR 26/21 A2992 RMK AO2

2010/08/10 10:53
KDUC 101053Z AUTO 14005KT 10SM CLR 24/21 A2991 RMK AO2

2010/08/10 10:48
KGLE 101048Z AUTO 00000KT 10SM CLR 26/20 A2993 RMK AO2

2010/08/10 10:49
KL35 101049Z AUTO 00000KT 10SM CLR 04/M09 A3015 RMK AO2

2010/08/10 10:50
KLRU 101050Z AUTO 26004KT 10SM CLR 21/11 A3007 RMK AO2

2010/08/10 10:50
KONM 101050Z AUTO 33004KT 10SM CLR 21/10 A3009 RMK AO2 T02050104

2010/08/10 10:51
KONP 101051Z AUTO 00000KT 10SM OVC019 13/10 A3003 RMK AO1

2010/08/10 10:48
KIGM 101048Z AUTO 10005KT 10SM CLR 19/02 A2997 RMK AO2 SLP076 T01940022 TSNO $

2010/08/10 10:48
KIZA 101048Z AUTO 00000KT 7SM OVC005 12/11 A2990 RMK AO2

2010/08/10 10:48
KEHA 101048Z AUTO 28003KT 22/17 RMK AO1 PK WND 06 000 T02220167

2010/08/10 10:48
PATQ 101048Z AUTO 08016KT 1 1/4SM -RA BR OVC005 02/01 A2979

2010/08/10 10:50
LLBG 101050Z 30010KT 9999 FEW030 31/22 Q1007 NOSIG

2010/08/10 10:50
LLET 101050Z 03014G24KT CAVOK 39/18 Q1003

2010/08/10 10:50
LLOV 101050Z 36006KT CAVOK 35/15 Q1008

2010/08/10 10:49
CYYT 101049Z 09005KT 3/4SM R11/P6000FT/D R16/P6000FT/D -DZ BR OVC002 14/ RMK FG4SF4

2010/08/10 11:00
ZMUB 101100Z 33005MPS 9999 FEW030CB BKN033 25/02 Q1004 NOSIG RMK QFE646.8 23

2010/08/10 10:50
EYSA 101050Z 26009KT 220V280 9999 SCT022 22/16 Q1017

2010/08/10 10:45
LMML 101045Z 20006KT 170V260 CAVOK 31/14 Q1015 NOSIG

2010/08/10 10:45
UTAK 101045Z T40

2010/08/10 10:48
KBAF 101048Z 00000KT 1 1/2SM BR CLR 22/21 A2993

2010/08/10 10:50
KCMX 101050Z AUTO 00000KT 5SM BR CLR 16/15 A2997

2010/08/10 10:48
KTOL 101048Z 00000KT 1/4SM FG OVC001 21/21 A2997

2010/08/10 10:49
KBLI 101049Z AUTO 17006KT 10SM BKN010 BKN015 OVC040 14/12 A2993

2010/08/10 10:50
KBGM 101050Z 00000KT 1SM BR OVC065 20/19 A3001

2010/08/10 10:49
CWZZ 101049Z AUTO ///// 0SM BKN001 02/ A2971

2010/08/10 10:49
CYEK 101049Z AUTO 00000KT 9SM CLR 08/08 A3009

2010/08/10 10:48
CYFS 101048Z 00000KT 10SM -RA SCT007 OVC013 RMK ST2SC6

2010/08/10 10:46
CYGL 101046Z 32002KT 12SM -RA FEW004 OVC013 RMK SF1SC7

2010/08/10 10:46
CYQB 101046Z 30002KT 2SM BR OVC002 16/ RMK FG2SF5

2010/08/10 10:46
CYQX 101046Z 20012KT 15SM FEW010 FEW040 BKN072 OVC100 15/ RMK SC1SC1AC6AC1 SHS DIST NE-SE

2010/08/10 10:47
CYQY 101047Z 22009KT 15SM BKN012 OVC240 RMK SC6CI1

2010/08/10 10:48
CYQZ 101048Z AUTO 00000KT 8SM FEW003 07/07 A2995 RMK SLP158

2010/08/10 10:46
CYSL 101046Z 00000KT 1/4SM FG SCT220 RMK FG2CI0

2010/08/10 10:46
EGVA 101046Z AUTO 23009KT 9999 -DZ BKN015 BKN055 16/13 A2982 RMK AO2 RAE1000DZB1042 CIG 013V018 SLP098 $

2010/08/10 10:48
EHVL 101048Z AUTO 20018KT 9999NDV FEW010 SCT014 BKN025 19/16 Q1010 GRN

2010/08/10 10:51
KCEF 101051Z AUTO 00000KT 1/4SM R23/1200V3500FT R33/1000VP6000FT FG CLR 21/20 A2993 RMK AO2 SLP135 $

2010/08/10 10:47
KNBG 101047Z AUTO 00000KT 3/4SM BR CLR 25/23 A2994 RMK AO2 PWINO $

2010/08/10 10:48
KSKF 101048Z AUTO 17004KT 10SM BKN012 26/ A2992 RMK AO2 CIG 011V017 SLP120 $

2010/08/10 10:47
KTCM 101047Z AUTO 21007KT 10SM OVC009 13/11 A2996 RMK AO2 CIG 009V012 SLP149

2010/08/10 10:46
RJCB 101046Z 10003KT 050V120 4500 BR BKN001 BKN002 21/20 Q1014 RMK 5ST001 7ST002 A2995

2010/08/10 10:46
RJCC 101046Z 16010KT 1800 -DZ BR BKN001 BKN002 21/20 Q1014 RMK 5ST001 7ST002 A2995

2010/08/10 10:45
RJCH 101045Z 30005KT 4900 BR FEW002 BKN009 23/23 Q1013 RMK 2ST002 7ST009 A2994

2010/08/10 10:49
RJCK 101049Z 21005KT 2300 BR FEW001 BKN002 BKN006 20/19 Q1015 RMK 1ST001 5ST002 7ST006 A2997

2010/08/10 10:50
KHON 101050Z AUTO 24011G17KT 6SM -RA BR SCT010 BKN015 OVC025 24/23 A2986

2010/08/10 10:48
KBAF 101048Z 00000KT 1 1/2SM BR CLR 22/21 A2993

2010/08/10 10:50
KBGM 101050Z 00000KT 1SM BR OVC065 20/19 A3001

2010/08/10 10:48
HLLB 101048Z 32018KT 9999 BKN020 28/18 Q1013

2010/08/10 10:45
LMML 101045Z 20006KT 170V260 CAVOK 31/14 Q1015 NOSIG 

2010/08/10 10:50
EYVI 101050Z 06003KT 350V120 9999 SCT040 BKN110 24/15 Q1017 NOSIG

2010/08/10 10:48
KTOL 101048Z 00000KT 1/4SM FG OVC001 21/21 A2997

2010/08/10 10:50
KCMX 101050Z AUTO 00000KT 5SM BR CLR 16/15 A2997

2010/08/10 10:51
KSAN 101051Z 00000KT 10SM OVC015 18/14 A2991 RMK AO2 SLP129 T01780139 

2010/08/10 10:50
KHON 101050Z AUTO 24011G17KT 6SM -RA BR SCT010 BKN015 OVC025 24/23 A2986

2010/08/10 10:48
KJXN 101048Z 00000KT 3SM BR BKN001 OVC018 19/19 A3000

2010/08/10 10:49
KBLI 101049Z AUTO 17006KT 10SM BKN010 BKN015 OVC040 14/12 A2993

2010/08/10 10:49
KCEC 101049Z AUTO 23003KT 1 3/4SM BR OVC002 12/11 A2992

2010/08/10 10:50
KHON 101050Z AUTO 24011G17KT 6SM -RA BR SCT010 BKN015 OVC025 24/23 A2986

2010/08/10 10:48
KTOL 101048Z 00000KT 1/4SM FG OVC001 21/21 A2997

2010/08/10 10:51
K2W6 101051Z AUTO 22004KT 10SM CLR 24/22 A2997 RMK AO1

2010/08/10 10:50
K2G4 101050Z AUTO 25005KT 10SM SCT120 20/15 A3011 RMK AO1

2010/08/10 10:51
KNYC 101051Z 00000KT 10SM CLR 26/19 A2996 RMK AO2 SLP135 T02610189 $ 

2010/08/10 10:51
KSMX 101051Z AUTO 06003KT 7SM OVC004 12/11 A2990 RMK AO2 SLP126 T01220111 TSNO 

2010/08/10 10:51
KORF 101051Z 23007KT 10SM FEW040 25/23 A2998 RMK AO2 SLP151 T02500233 $ 

2010/08/10 10:51
CYHD 101051Z AUTO 03011KT 1 3/8SM +RA BKN004 BKN009 OVC042 19/19 A2995 RMK VSBY VRBL 1.4V4.0

2010/08/10 10:51
KBVE 101051Z AUTO 00000KT CLR 26/25 A2993 RMK AO2 SLP134 T02560250 TSNO $ 

2010/08/10 10:51
KCON 101051Z AUTO 32004KT 4SM BR CLR 21/20 A2991 RMK AO2 SLP128 T02110200 

2010/08/10 10:51
KJCT 101051Z AUTO 00000KT 10SM CLR 26/22 A2996 RMK AO2 SLP104 T02560217 TSNO 

2010/08/10 10:50
CYQM 101050Z 26007KT 1SM R06/P6000FT/U R29/3000FT/N BR VV002 17/ RMK FG8

2010/08/10 11:00
FDMS 101100Z 13004KT CAVOK 19/02 Q1032 NOSIG

2010/08/10 10:51
NSTU 101051Z 12010KT 10SM FEW017 BKN040 BKN080 26/24 A2996 RMK SLP146 T02600244 402990258

2010/08/10 10:52
KCBE 101052Z AUTO 00000KT 5SM CLR 19/18 A3004 RMK AO1

2010/08/10 10:55
KCGS 101055Z AUTO 00000KT 7SM CLR 25/22 A2994 RMK AO1

2010/08/10 10:49
KCGE 101049Z AUTO 00000KT 10SM CLR 25/24 A2996 RMK AO1

2010/08/10 10:54
KFME 101054Z AUTO 00000KT 3SM CLR 19/19 A2996 RMK AO1

2010/08/10 10:52
KFDK 101052Z AUTO 15003KT 4SM BR CLR 23/22 A2997 RMK AO2

2010/08/10 10:52
KW29 101052Z AUTO 24006KT 10SM CLR 26/21 A2993 RMK AO1

2010/08/10 10:51
KP59 101051Z AUTO 24005KT 19/18 A2994 RMK AO2 SLP132 T01940183 PWINO TSNO 

2010/08/10 10:51
KCRP 101051Z 15003KT 10SM FEW017 26/25 A2988 RMK AO2 SLP116 T02610250 

2010/08/10 10:51
KBAZ 101051Z AUTO 23004KT 10SM CLR 24/23 A2991 RMK AO2 SLP117 T02440233

2010/08/10 10:51
KHDO 101051Z AUTO 00000KT 10SM OVC013 26/24 A2994 RMK AO2 SLP122 T02560239

2010/08/10 10:45
KIYK 101045Z 21005KT 20SM SKC 18/ A2982 RMK FIRST

2010/08/10 10:55
KPAN 101055Z AUTO 00000KT 10SM CLR 16/08 A3014 RMK AO1

2010/08/10 10:51
KPHX 101051Z 33005KT 10SM FEW110 32/12 A2981 RMK AO2 SLP071 T03170117 $

2010/08/10 10:51
KPIT 101051Z 00000KT 6SM HZ FEW048 SCT075 OVC100 22/18 A2998 RMK AO2 RAB05E14 SLP149 P0000 T02220183

2010/08/10 10:51
KPVD 101051Z 20006KT 7SM FEW110 SCT112 SCT250 22/21 A2992 RMK AO2 RAE01 SLP129 P0001 T02220206

2010/08/10 10:51
KPWM 101051Z 27004KT 9SM FEW120 21/19 A2989 RMK AO2 SLP120 T02110189 $

2010/08/10 10:51
KRDU 101051Z 24004KT 6SM BR BKN250 24/22 A3002 RMK AO2 SLP161 T02390222

2010/08/10 10:51
KROW 101051Z AUTO 00000KT 10SM CLR 19/17 A3001 RMK AO2 SLP097 T01940167 TSNO

2010/08/10 10:51
KSJT 101051Z AUTO 22004KT 10SM CLR 27/20 A2995 RMK AO2 SLP110 T02670200

2010/08/10 10:51
KSLK 101051Z AUTO 00000KT M1/4SM FG BKN001 OVC008 17/17 A2997 RMK AO2 SLP145 T01720167

2010/08/10 10:51
KSMO 101051Z AUTO 23003KT 10SM OVC006 15/13 A2990 RMK AO2 SLP125 T01500128

2010/08/10 10:51
KSTL 101051Z 00000KT 9SM FEW130 SCT250 28/24 A2995 RMK AO2 SLP124 ACC W T02830239

2010/08/10 10:51
KTEB 101051Z 03005KT 8SM CLR 25/19 A2993 RMK AO2 DZE00 SLP135 P0000 T02500194

2010/08/10 10:51
KVNY 101051Z AUTO 00000KT 7SM CLR 14/12 A2989 RMK AO2 SLP114 T01440122

2010/08/10 10:51
KYNG 101051Z 00000KT 7SM FEW045 SCT080 SCT250 22/18 A2998 RMK AO2 SLP141 T02170178

2010/08/10 10:51
KACT 101051Z 21006KT 10SM CLR 26/23 A2991 RMK AO2 SLP121 T02610233 $

2010/08/10 10:51
KAHN 101051Z AUTO 00000KT 3SM BR CLR 22/21 A3004 RMK AO2 SLP166 T02220206

2010/08/10 10:51
KALB 101051Z 17003KT 3SM BR FEW045 21/20 A2995 RMK AO2 SFC VIS 4 SLP140 T02110200

2010/08/10 10:51
KASH 101051Z AUTO 00000KT 6SM BR FEW110 22/21 A2991 RMK AO2 T02160211 SLP130

2010/08/10 10:51
KAVX 101051Z AUTO 13007KT 7SM OVC001 12/12 A2992 RMK AO2 SLP120 T01220122 TSNO

2010/08/10 10:51
KBDL 101051Z 00000KT 3SM HZ BKN110 23/21 A2992 RMK AO2 TWR VIS 4 SLP131 T02330206

2010/08/10 10:51
KBGD 101051Z AUTO 22003KT 10SM CLR 22/17 A3001 RMK AO2 SLP111 T02220172

2010/08/10 10:51
KBKW 101051Z AUTO 00000KT 4SM HZ FEW043 20/17 A3011 RMK AO2 SLP156 T02000167 $

2010/08/10 10:51
KCLE 101051Z 25005KT 4SM BR HZ FEW060 SCT075 22/21 A2998 RMK AO2 SLP146 T02220206

2010/08/10 10:51
KCMH 101051Z 00000KT 7SM FEW080 SCT130 SCT250 24/21 A2997 RMK AO2 SLP142 T02390206

2010/08/10 10:51
KCSG 101051Z AUTO 06003KT 9SM CLR 26/20 A2999 RMK AO2 SLP151 T02560200 TSNO

2010/08/10 10:51
KDAW 101051Z AUTO 31005KT 6SM BR CLR 21/19 A2990 RMK AO2 SLP120 T02110189

2010/08/10 10:51
KEKN 101051Z AUTO 00000KT 1/4SM FG OVC005 17/17 A3010 RMK AO2 SLP179 T01720167 TSNO

2010/08/10 10:51
KELP 101051Z 14004KT 10SM CLR 24/14 A3002 RMK AO2 SLP086 T02390144 $

2010/08/10 10:51
KERI 101051Z 00000KT 1 1/2SM BR FEW010 BKN038 22/21 A2996 RMK AO2 CIG 010 NE SLP139 T02170206

2010/08/10 10:51
KEWR 101051Z 33006KT 8SM FEW110 BKN140 OVC200 27/19 A2993 RMK AO2 SLP135 T02670189 $

2010/08/10 10:55
KGLY 101055Z AUTO 00000KT 10SM CLR 27/23 A2993 RMK AO2

2010/08/10 10:47
KGYH 101047Z 00000KT 7SM SKC 24/22 A3005

2010/08/10 10:51
KHTS 101051Z 00000KT 1 3/4SM BR CLR 21/20 A2999 RMK AO2 SLP147 T02110200

2010/08/10 10:51
KILG 101051Z 00000KT 6SM HZ CLR 24/22 A2994 RMK AO2 SLP137 T02440217

2010/08/10 10:51
KJFK 101051Z VRB04KT 8SM FEW044 BKN140 OVC250 26/20 A2993 RMK AO2 SLP136 T02560200

2010/08/10 10:51
KLGA 101051Z 06005KT 9SM OVC140 26/19 A2993 RMK AO2 SLP134 T02560194

2010/08/10 10:51
KLGU 101051Z AUTO 00000KT 10SM CLR 11/07 A3002 RMK AO2 SLP123 T01110072

2010/08/10 10:55
KLZZ 101055Z AUTO 23003KT 10SM CLR 24/22 A2993 RMK AO2

2010/08/10 10:51
KMDW 101051Z 05003KT 10SM FEW038 SCT200 BKN250 26/22 A2995 RMK AO2 SLP129 T02560217 PNO

2010/08/10 10:51
KMPV 101051Z AUTO 00000KT 1/4SM FG VV001 18/17 A3000 RMK AO2 SLP155 T01780172

2010/08/10 10:45
KMTN 101045Z 00000KT 7SM SCT150 25/23 A2994

2010/08/10 10:51
KELZ 101051Z AUTO 11003KT 1 3/4SM -RA BR OVC060 19/18 A3004 RMK AO2 RAB29 P0000

2010/08/10 10:51
KFXE 101051Z 15007KT 8SM -RA FEW014 BKN044 OVC060 26/23 A2988 RMK AO2 RAB30 P0005

2010/08/10 10:51
KHIB 101051Z AUTO 00000KT 3/4SM BR OVC001 15/15 A2998 RMK AO2

2010/08/10 10:51
KMYL 101051Z AUTO 00000KT 10SM CLR 09/08 A2994 RMK AO2 SLP107 T00890083

2010/08/10 10:51
KORD 101051Z 03005KT 10SM FEW150 SCT180 BKN250 25/22 A2995 RMK AO2 SLP137 T02500222

2010/08/10 10:51
KOXR 101051Z AUTO 00000KT 9SM OVC008 15/13 A2989 RMK AO2 SLP121 T01500128 $

2010/08/10 11:00
LQSA 101100Z VRB03KT 9999 SCT050 26/13 Q1018 NOSIG

2010/08/10 10:50
LSMA 101050Z 05007KT 330V080 9999 FEW075 24/13 Q1017 RMK BLU

2010/08/10 10:50
LSMP 101050Z VRB02KT 9999 FEW080 24/14 Q1018 RMK BLU

2010/08/10 10:50
LSMS 101050Z 24006KT 200V280 9999 FEW070 26/13 Q1016

2010/08/10 10:50
LSZH 101050Z 22003KT 170V280 9999 FEW050 25/11 Q1018 NOSIG

2010/08/10 10:50
LSGG 101050Z 07006KT 350V110 9999 FEW040 BKN350 26/10 Q1017 NOSIG

2010/08/10 10:50
LSZB 101050Z 32005KT 250V360 9999 FEW045 SCT090 24/15 Q1017 NOSIG

2010/08/10 10:50
LSZA 101050Z 19005KT 150V220 9999 SCT045TCU 27/17 Q1016 NOSIG

2010/08/10 10:50
CYQM 101050Z 26007KT 1SM R06/P6000FT/U R29/3000FT/N BR VV002 17/ RMK FG8

2010/08/10 10:46
RJCC 101046Z 16010KT 1800 -DZ BR BKN001 BKN002 21/20 Q1014 RMK 5ST001 7ST002 A2995

2010/08/10 10:49
RJCK 101049Z 21005KT 2300 BR FEW001 BKN002 BKN006 20/19 Q1015 RMK 1ST001 5ST002 7ST006 A2997

2010/08/10 10:45
RJCH 101045Z 30005KT 4900 BR FEW002 BKN009 23/23 Q1013 RMK 2ST002 7ST009 A2994

2010/08/10 10:46
RJCB 101046Z 10003KT 050V120 4500 BR BKN001 BKN002 21/20 Q1014 RMK 5ST001 7ST002 A2995

2010/08/10 10:48
EHVL 101048Z AUTO 20018KT 9999NDV FEW010 SCT014 BKN025 19/16 Q1010 GRN

2010/08/10 10:49
KBVY 101049Z AUTO 26004KT 4SM BR CLR 22/21 A2989

2010/08/10 10:51
KCEF 101051Z AUTO 00000KT 1/4SM R23/1200V3500FT R33/1000VP6000FT FG CLR 21/20 A2993

2010/08/10 10:46
EGVA 101046Z AUTO 23009KT 9999 -DZ BKN015 BKN055 16/13 A2982 RMK AO2 RAE1000DZB1042 CIG 013V018 SLP098 $

2010/08/10 10:50
KLUK 101050Z 00000KT 5SM MIFG CLR 22/22 A2997

2010/08/10 10:48
KRNM 101048Z AUTO 00000KT 1/2SM FG BKN001 OVC009 10/09 A2991 RMK AO2 TSNO 

2010/08/10 10:51
KSNT 101051Z AUTO 12004KT 08/07 A3010 RMK AO2 SLP121 T00830072 PWINO TSNO 

2010/08/10 10:49
KMLI 101049Z 06007KT 10SM -TSRA SCT018 24/22 A2993

2010/08/10 10:50
CYPX 101050Z 29010KT 1SM BR OVC001 RMK SF8

2010/08/10 10:51
KDAG 101051Z AUTO 26009KT 10SM CLR 21/M02 A2987 RMK AO2 SLP085 T02111022 TSNO 

2010/08/10 10:51
KABE 101051Z 05005KT 6SM HZ CLR 23/21 A2995 RMK AO2 RAB35E39 SLP139 P0000 T02330206 

2010/08/10 10:51
KCAK 101051Z 27003KT 5SM HZ FEW035 BKN100 22/19 A2998 RMK AO2 SLP143 T02170189 

2010/08/10 10:51
KHSE 101051Z AUTO 25005KT 9SM CLR 25/25 A3001 RMK AO2 SLP163 T02500250 TSNO 

2010/08/10 10:49
KBVY 101049Z AUTO 26004KT 4SM BR CLR 22/21 A2989

2010/08/10 10:51
KCEF 101051Z AUTO 00000KT 1/4SM R23/1200V3500FT R33/1000VP6000FT FG CLR 21/20 A2993

2010/08/10 10:50
KLUK 101050Z 00000KT 5SM MIFG CLR 22/22 A2997

2010/08/10 11:00
GVNP 101100Z 09010KT 9999 FEW023 BKN032 27/22 Q1015 NOSIG

2010/08/10 11:00
GVAC 101100Z 09005KT 040V140 9999 BKN014 27/19 Q1015 NOSIG

2010/08/10 10:50
LSZH 101050Z 22003KT 170V280 9999 FEW050 25/11 Q1018 NOSIG

2010/08/10 10:50
LSGG 101050Z 07006KT 350V110 9999 FEW040 BKN350 26/10 Q1017 NOSIG

2010/08/10 10:50
LSZB 101050Z 32005KT 250V360 9999 FEW045 SCT090 24/15 Q1017 NOSIG

2010/08/10 10:50
LSZA 101050Z 19005KT 150V220 9999 SCT045TCU 27/17 Q1016 NOSIG

2010/08/10 11:00
OSDI 101100Z 24008KT CAVOK 37/12 Q1008

2010/08/10 11:00
OSAP 101100Z 25007KT CAVOK 38/16 Q1005

2010/08/10 11:00
OSLK 101100Z 24010KT 9999 SCT030 31/23 Q1007

2010/08/10 11:00
OSDZ 101100Z 06006KT CAVOK 39/17 Q1005

2010/08/10 11:00
OSKL 101100Z 28012KT CAVOK 39/06 Q1005

2010/08/10 10:52
CYAY 101052Z AUTO 23009G17KT 9SM OVC013 17/15 A2963 RMK SLP034 DENSITY ALT 700FT MAX WND 22021KT AT 1009Z

2010/08/10 10:52
CYZE 101052Z AUTO 00000KT 5SM BR CLR 16/16 A2994 RMK SLP140 DENSITY ALT 800FT

2010/08/10 10:49
KMLI 101049Z 06007KT 10SM -TSRA SCT018 24/22 A2993

2010/08/10 10:51
YBRK 101051Z 25012KT 2000 SHRA FEW008 BKN015 20/19 Q1016

2010/08/10 10:51
YBRK 101051Z 25012KT 2000 SHRA FEW008 BKN015 20/19 Q1016

2010/08/10 10:50
LSMA 101050Z 05007KT 330V080 9999 FEW075 24/13 Q1017 RMK BLU

2010/08/10 10:50
LSMP 101050Z VRB02KT 9999 FEW080 24/14 Q1018 RMK BLU

2010/08/10 10:50
LSMS 101050Z 24006KT 200V280 9999 FEW070 26/13 Q1016

2010/08/10 11:00
FDLV 101100Z AUTO 24014KT //// // ////// ///// Q////

2010/08/10 10:51
KATT 101051Z AUTO 00000KT 10SM CLR 25/23 A2993 RMK AO2 SLP117 T02500233 

2010/08/10 10:51
KGDP 101051Z AUTO 24005KT 10SM CLR 21/14 A3015 RMK AO2 SLP116 T02060144 TSNO $ 

2010/08/10 10:50
LXGB 101050Z 11007KT CAVOK 28/19 Q1017 NOSIG

2010/08/10 10:51
CYGQ 101051Z 00000KT 1/2SM FG VV001 RMK FG8

2010/08/10 10:50
MSLP 101050Z 20003KT 9999 8000S FEW020 FEW037CB SCT100 24/23 Q1010 A2983 LTGIC TO S

2010/08/10 10:55
KBLV 101055Z AUTO 00000KT 4SM R14R/4000VP6000FT BR CLR 25/25 A2993 RMK AO2 RAB1036E1041 SLP132 P0000 T02530251

2010/08/10 10:50
LLBG 101050Z 30010KT 9999 FEW030 31/22 Q1007 NOSIG

2010/08/10 10:50
LLET 101050Z 03014G24KT CAVOK 39/18 Q1003

2010/08/10 10:50
LLOV 101050Z 36006KT CAVOK 35/15 Q1008

2010/08/10 11:00
LQTZ 101100Z 10007KT 9999 FEW040 26/// Q1018

2010/08/10 11:00
MPTO 101100Z 00000KT 9999 SCT018CB 26/24 Q1010 NOSIG

2010/08/10 10:50
MSLP 101050Z 20003KT 9999 8000S FEW020 FEW037CB SCT100 24/23 Q1010 A2983 LTGIC TO S

2010/08/10 10:50
OAFZ 101050Z 05003KT 9999 BKN130 36/02 Q1011 BLU

2010/08/10 11:00
OSAP 101100Z 25007KT CAVOK 38/16 Q1005

2010/08/10 11:00
OSDI 101100Z 24008KT CAVOK 37/12 Q1008

2010/08/10 11:00
OSLK 101100Z 24010KT 9999 SCT030 31/23 Q1007

2010/08/10 11:00
TUPJ 101100Z 12011KT 9999 SCT019 28/23 A2995 RMK Q1014

2010/08/10 10:55
KQFS 101055Z AUTO 10004G15KT 9000 -RA FEW012 BKN050 26/24 A2974 RMK AO2 SLP066 P0002 T02620239 $

2010/08/10 10:55
KQW3 101055Z AUTO VRB06KT 31/21 A2973 RMK AO2 SLP993

2010/08/10 10:50
VECC 101050Z 17004KT 6000 FEW020 SCT025 35/25 Q1000 NOSIG

2010/08/10 10:51
KJCT 101051Z AUTO 00000KT 10SM CLR 26/22 A2996 RMK AO2 SLP104 T02560217 TSNO 

2010/08/10 10:50
EDDF 101050Z 24004KT 200V260 9999 FEW044 BKN300 25/14 Q1016 NOSIG

2010/08/10 10:50
EDDH 101050Z 15008KT 9999 FEW042 SCT280 24/12 Q1014 NOSIG

2010/08/10 10:50
EDDK 101050Z 18006KT 9999 FEW044 SCT320 25/12 Q1014 NOSIG

2010/08/10 10:50
EDDL 101050Z 19005KT 150V210 CAVOK 25/12 Q1013 NOSIG

2010/08/10 10:50
EDDM 101050Z 32002KT 9999 FEW040 SCT080 23/13 Q1018 NOSIG

2010/08/10 10:50
EDDN 101050Z 27004KT 9999 FEW045 23/13 Q1017 NOSIG

2010/08/10 10:50
EDDS 101050Z 20004KT 160V250 CAVOK 24/09 Q1017 NOSIG

2010/08/10 10:50
EDDT 101050Z VRB03KT 9999 SCT042 24/13 Q1016 NOSIG

2010/08/10 10:50
EDDV 101050Z 23005KT 200V290 CAVOK 24/09 Q1015 NOSIG

2010/08/10 10:50
EDDB 101050Z 18004KT 070V210 9999 SCT040 23/13 Q1016 NOSIG

2010/08/10 10:50
EDDC 101050Z 22004KT 9999 SCT042 SCT078 22/14 Q1017 NOSIG

2010/08/10 10:50
EDDE 101050Z VRB03KT CAVOK 23/09 Q1017 NOSIG

2010/08/10 10:50
EDDG 101050Z 20008KT CAVOK 25/12 Q1014 NOSIG

2010/08/10 10:50
EDDP 101050Z VRB03KT CAVOK 24/12 Q1016 NOSIG

2010/08/10 10:50
EDDR 101050Z 17006KT CAVOK 25/11 Q1016 NOSIG

2010/08/10 10:50
EDDW 101050Z 19011KT CAVOK 24/11 Q1013 NOSIG

2010/08/10 10:52
CYOD 101052Z 35006KT 15SM SCT070 BKN100 BKN220 RMK ACC4AC2CI1

2010/08/10 10:51
NSTU 101051Z COR 12010KT 10SM FEW017 BKN040 BKN080 26/24 A2996 RMK SHRAB14E31 SLP146 T02600244 402990258

2010/08/10 10:50
EGYP 101050Z 29014KT 9999 FEW018 BKN220 00/M01 Q1006 BLU NOSIG

2010/08/10 10:52
KNHK 101052Z 22007KT 9SM FEW090 SCT200 26/21 A2994 RMK AO2 SLP140 T02560211 

2010/08/10 10:52
KN60 101052Z AUTO 08008KT 20/18 A2982 RMK AO1 SLP084 T02000178 

2010/08/10 10:52
KABI 101052Z 19006KT 10SM CLR 27/19 A2996 RMK AO2 SLP113 T02670189 

2010/08/10 10:52
KSDB 101052Z AUTO 26007KT 10SM CLR 16/05 A3002 RMK AO2 SLP111 T01560050 TSNO 

2010/08/10 10:52
KNRB 101052Z 15009KT 10SM SCT024 SCT130 28/22 A2995 RMK AO2 SLP141 T02780222 

2010/08/10 10:52
KCZZ 101052Z AUTO 04005KT 07/M01 A2991 RMK AO2 SLP101 T00721011 PWINO TSNO 

2010/08/10 10:52
KREO 101052Z AUTO 19005KT 17/02 A2991 RMK AO2 SLP089 T01670022 PWINO TSNO 

2010/08/10 10:47
KEVB 101047Z 13006KT 10SM SCT035 27/24 A2994

2010/08/10 10:45
PANW 101045Z AUTO 19009KT 6SM BR OVC001 09/09 A2965 RMK AO2 PWINO TSNO $

2010/08/10 10:51
PAOM 101051Z AUTO 05005KT 10SM FEW026 BKN032 OVC065 11/09 A2941 RMK AO2 RAE43 P0003 TSNO

2010/08/10 10:52
KCKV 101052Z AUTO 13004KT 4SM BR CLR 24/23 A2997 RMK AO2 SLP140 T02440233

2010/08/10 10:52
KDCA 101052Z 21003KT 6SM HZ FEW150 SCT250 25/21 A2995 RMK AO2 SLP141 T02500206

2010/08/10 10:52
KGLS 101052Z 27005KT 10SM CLR 28/26 A2991 RMK AO2 SLP130 T02830256

2010/08/10 10:52
KHRL 101052Z 12004KT 9SM CLR 26/26 A2986 RMK AO2 SLP109 T02610261

2010/08/10 10:52
KIAD 101052Z 00000KT 4SM BR FEW150 23/21 A2996 RMK AO2 SLP140 T02280211

2010/08/10 10:52
KMEB 101052Z AUTO 25003KT 2 1/2SM BR OVC003 24/23 A3003 RMK AO2 SLP166 T02390233

2010/08/10 10:48
KRYY 101048Z 07005KT 7SM SCT200 24/22 A3005

2010/08/10 10:50
PAWI 101050Z 06017G24KT 10SM SCT005 OVC038 04/03 A2977 RMK ASOS VIA PHONE

2010/08/10 10:48
KRNM 101048Z AUTO 00000KT 1/2SM FG BKN001 OVC009 10/09 A2991 RMK AO2 TSNO

2010/08/10 10:51
KJCT 101051Z AUTO 00000KT 10SM CLR 26/22 A2996 RMK AO2 SLP104 T02560217 TSNO

2010/08/10 10:51
KSAN 101051Z 00000KT 10SM OVC015 18/14 A2991 RMK AO2 SLP129 T01780139

2010/08/10 10:50
K2G4 101050Z AUTO 25005KT 10SM SCT120 20/15 A3011 RMK AO1

2010/08/10 10:51
K2W6 101051Z AUTO 22004KT 10SM CLR 24/22 A2997 RMK AO1

2010/08/10 10:51
KSMX 101051Z AUTO 06003KT 7SM OVC004 12/11 A2990 RMK AO2 SLP126 T01220111 TSNO

2010/08/10 10:51
KORF 101051Z 23007KT 10SM FEW040 25/23 A2998 RMK AO2 SLP151 T02500233 $

2010/08/10 10:51
KNYC 101051Z 00000KT 10SM CLR 26/19 A2996 RMK AO2 SLP135 T02610189 $

2010/08/10 10:51
KCON 101051Z AUTO 32004KT 4SM BR CLR 21/20 A2991 RMK AO2 SLP128 T02110200

2010/08/10 10:51
KBVE 101051Z AUTO 00000KT CLR 26/25 A2993 RMK AO2 SLP134 T02560250 TSNO $

2010/08/10 10:51
KJCT 101051Z AUTO 00000KT 10SM CLR 26/22 A2996 RMK AO2 SLP104 T02560217 TSNO

2010/08/10 10:52
KCBE 101052Z AUTO 00000KT 5SM CLR 19/18 A3004 RMK AO1

2010/08/10 10:49
KCGE 101049Z AUTO 00000KT 10SM CLR 25/24 A2996 RMK AO1

2010/08/10 10:52
KFDK 101052Z AUTO 15003KT 4SM BR CLR 23/22 A2997 RMK AO2

2010/08/10 10:54
KFME 101054Z AUTO 00000KT 3SM CLR 19/19 A2996 RMK AO1

2010/08/10 10:52
KW29 101052Z AUTO 24006KT 10SM CLR 26/21 A2993 RMK AO1

2010/08/10 10:55
KCGS 101055Z AUTO 00000KT 7SM CLR 25/22 A2994 RMK AO1

2010/08/10 10:51
KP59 101051Z AUTO 24005KT 19/18 A2994 RMK AO2 SLP132 T01940183 PWINO TSNO

2010/08/10 10:51
KCRP 101051Z 15003KT 10SM FEW017 26/25 A2988 RMK AO2 SLP116 T02610250

2010/08/10 10:51
KSNT 101051Z AUTO 12004KT 08/07 A3010 RMK AO2 SLP121 T00830072 PWINO TSNO

2010/08/10 10:51
KABE 101051Z 05005KT 6SM HZ CLR 23/21 A2995 RMK AO2 RAB35E39 SLP139 P0000 T02330206

2010/08/10 10:51
KCAK 101051Z 27003KT 5SM HZ FEW035 BKN100 22/19 A2998 RMK AO2 SLP143 T02170189

2010/08/10 10:51
KDAG 101051Z AUTO 26009KT 10SM CLR 21/M02 A2987 RMK AO2 SLP085 T02111022 TSNO

2010/08/10 10:51
KHSE 101051Z AUTO 25005KT 9SM CLR 25/25 A3001 RMK AO2 SLP163 T02500250 TSNO

2010/08/10 10:51
KATT 101051Z AUTO 00000KT 10SM CLR 25/23 A2993 RMK AO2 SLP117 T02500233

2010/08/10 10:51
KGDP 101051Z AUTO 24005KT 10SM CLR 21/14 A3015 RMK AO2 SLP116 T02060144 TSNO $

2010/08/10 10:52
KN60 101052Z AUTO 08008KT 20/18 A2982 RMK AO1 SLP084 T02000178

2010/08/10 10:52
KSDB 101052Z AUTO 26007KT 10SM CLR 16/05 A3002 RMK AO2 SLP111 T01560050 TSNO

2010/08/10 10:52
KABI 101052Z 19006KT 10SM CLR 27/19 A2996 RMK AO2 SLP113 T02670189

2010/08/10 10:52
KCZZ 101052Z AUTO 04005KT 07/M01 A2991 RMK AO2 SLP101 T00721011 PWINO TSNO

2010/08/10 10:52
KREO 101052Z AUTO 19005KT 17/02 A2991 RMK AO2 SLP089 T01670022 PWINO TSNO

2010/08/10 10:50
PTKK 101050Z VRB05KT 15SM FEW014 SCT120 OVC280 28/24 A2989 RMK SLP125 T02780242

2010/08/10 11:00
LQMO 101100Z 31009KT 9999 FEW040 34/08 Q1011

2010/08/10 10:50
EKVJ 101050Z 18012KT 9999 FEW030 21/16 Q1013

2010/08/10 10:51
EKSB 101051Z 13011KT 9999 SCT040 22/13 Q1013

2010/08/10 10:50
EKOD 101050Z 17008KT 9999 SCT035TCU 21/12 Q1014

2010/08/10 10:45
MMCE 101045Z 00000KT 7SM SCT080 BKN200 27/24 A2981 RMK 8/035

2010/08/10 10:50
MMCP 101050Z 00000KT 7SM SKC 25/22 A2981

2010/08/10 10:45
MMMT 101045Z 24010KT 10SM BKN080 BKN100 OVC150 24/22 A2982 RMK 8/57/ 

2010/08/10 10:48
MMTG 101048Z 00000KT 7SM SCT070 22/22 A2993 RMK 8/070

2010/08/10 10:45
MMUN 101045Z 00000KT 7SM FEW015 SCT200 23/22 A2988 RMK 8/508

2010/08/10 10:45
MMVA 101045Z 00000KT 7SM SCT060 25/24 A2979 RMK 8/020 RTS

2010/08/10 10:52
PKMR 101052Z 07005KT 15SM FEW015 SCT050 BKN120 OVC140 26/24 A2988 RMK SLP120 T02600239 

2010/08/10 10:50
EKKA 101050Z 17009KT 110V210 9999 FEW042 SCT220 23/12 Q1012 NOSIG

2010/08/10 10:50
EKSP 101050Z 18010KT 150V210 9999 FEW034 SCT200 23/12 Q1013 NOSIG

2010/08/10 10:50
ESGG 101050Z 22013KT 9999 SCT027 BKN046 18/11 Q1015

2010/08/10 10:50
ESGJ 101050Z 25011KT 9999 FEW035 BKN056 19/12 Q1015

2010/08/10 10:50
ESGP 101050Z 20012KT 9999 SCT047 BKN051 BKN072 19/13 Q1014

2010/08/10 10:50
ESGT 101050Z 21014KT 9999 SCT027 SCT046 19/12 Q1013

2010/08/10 10:50
ESMK 101050Z 15006KT 110V180 9999 BKN043 21/11 Q1016

2010/08/10 10:50
ESMQ 101050Z 26004KT 220V320 9999 FEW035 SCT052 21/11 Q1016

2010/08/10 10:50
ESMS 101050Z 20008KT 9999 FEW037 21/12 Q1016

2010/08/10 10:50
ESMT 101050Z AUTO 21009KT 170V230 9999NDV FEW091/// 20/13 Q1016

2010/08/10 10:50
ESMX 101050Z 23008KT 200V260 9999 SCT027 BKN058 18/13 Q1016

2010/08/10 10:50
ESTA 101050Z 22007KT 140V270 CAVOK 21/11 Q1015

2010/08/10 10:50
ESTL 101050Z 14005KT 110V180 9999 BKN041 20/12 Q1016

2010/08/10 10:50
PTPN 101050Z 09007KT 15SM SCT017TCU BKN300 27/26 A2988 RMK TCU SE-SW 

2010/08/10 10:51
YBRK 101051Z 25012KT 2000 SHRA FEW008 BKN015 20/19 Q1016

2010/08/10 10:50
PTKK 101050Z VRB05KT 15SM FEW014 SCT120 OVC280 28/24 A2989 RMK SLP125 T02780242

2010/08/10 10:50
EDDB 101050Z 18004KT 070V210 9999 SCT040 23/13 Q1016 NOSIG

2010/08/10 10:50
EDDC 101050Z 22004KT 9999 SCT042 SCT078 22/14 Q1017 NOSIG

2010/08/10 10:50
EDDE 101050Z VRB03KT CAVOK 23/09 Q1017 NOSIG

2010/08/10 10:50
EDDG 101050Z 20008KT CAVOK 25/12 Q1014 NOSIG

2010/08/10 10:50
EDDP 101050Z VRB03KT CAVOK 24/12 Q1016 NOSIG

2010/08/10 10:50
EDDR 101050Z 17006KT CAVOK 25/11 Q1016 NOSIG

2010/08/10 10:50
EDDW 101050Z 19011KT CAVOK 24/11 Q1013 NOSIG

2010/08/10 10:48
KRNM 101048Z AUTO 00000KT 1/2SM FG BKN001 OVC009 10/09 A2991 RMK AO2 TSNO

2010/08/10 10:51
PAOM 101051Z AUTO 05005KT 10SM FEW026 BKN032 OVC065 11/09 A2941 RMK AO2 RAE43 P0003 TSNO

2010/08/10 11:00
MDST 101100Z 00000KT 5000 BR BKN016 24/24 Q1013 BR/ALL QDS

2010/08/10 11:00
MDSD 101100Z VRB03KT 8000 -TSRA FEW016CB BKN018 24/22 Q1013 CB/NE/E/SE/S/N

2010/08/10 10:55
KBLV 101055Z AUTO 00000KT 4SM R14R/4000VP6000FT BR CLR 25/25 A2993 RMK AO2 RAB1036E1041 SLP132 P0000 T02530251

2010/08/10 10:52
KNHK 101052Z 22007KT 9SM FEW090 SCT200 26/21 A2994 RMK AO2 SLP140 T02560211

2010/08/10 10:52
KNRB 101052Z 15009KT 10SM SCT024 SCT130 28/22 A2995 RMK AO2 SLP141 T02780222

2010/08/10 10:53
CYTZ 101053Z AUTO 25003KT 2 1/4SM BKN027 21/20 A2993 RMK SLP135 DENSITY ALT 1000FT RVR MISG

2010/08/10 10:51
KJCT 101051Z AUTO 00000KT 10SM CLR 26/22 A2996 RMK AO2 SLP104 T02560217 TSNO

2010/08/10 10:51
YBRK 101051Z 25012KT 2000 SHRA FEW008 BKN015 20/19 Q1016

2010/08/10 10:50
LXGB 101050Z 11007KT CAVOK 28/19 Q1017 NOSIG

2010/08/10 10:50
BGSF 101050Z 03008KT 9999 BKN023 09/04 Q1007

2010/08/10 10:50
BGBW 101050Z AUTO 07002KT 9999NDV FEW004/// 09/08 Q1009

2010/08/10 10:50
BGJN 101050Z 33003KT 9999 BKN023 08/04 Q1007 RMK 7ST 

2010/08/10 10:50
BGKK 101050Z 09015KT 9999 -DZ SCT020 BKN032 BKN045 07/05 Q1013

2010/08/10 10:50
EFHK 101050Z 20017KT 9999 SCT025 FEW035CB BKN065 21/16 Q1013 NOSIG

2010/08/10 10:50
EFJY 101050Z 23006KT 170V260 9999 SCT038 22/15 Q1010

2010/08/10 10:50
EFKU 101050Z AUTO 22009KT CAVOK 22/14 Q1010

2010/08/10 10:50
EFOU 101050Z 33008KT 9999 BKN011 BKN025 17/14 Q1009

2010/08/10 10:50
EFRO 101050Z AUTO 34008KT 9999NDV BKN015 OVC018 13/10 Q1010

2010/08/10 10:50
EFTP 101050Z 18006KT 160V240 9999 -SHRA FEW020 FEW030CB BKN080 19/17 Q1011

2010/08/10 10:50
EFTU 101050Z AUTO 23006KT 190V280 9999 FEW007 BKN009 OVC017 19/17 Q1011

2010/08/10 10:50
EFVA 101050Z 15004KT 100V190 9999 FEW008 SCT022 BKN035CB 19/18 Q1008

2010/08/10 11:00
SBCY 101100Z 20004KT CAVOK 21/15 Q1017

2010/08/10 10:49
RKPK 101049Z 16015KT 4800 -RA BR FEW010 SCT010CB OVC025 27/23 Q1007 NOSIG RMK TS E46 MOVED N 

2010/08/10 10:50
EKCH 101050Z 15010KT 9999 FEW030 FEW250 21/14 Q1016 NOSIG

2010/08/10 10:50
EKBI 101050Z 18009KT 110V220 9999 FEW040 BKN250 22/11 Q1013

2010/08/10 10:50
EKYT 101050Z 17011KT CAVOK 24/09 Q1013 NOSIG RMK FEW050 SCT250

2010/08/10 10:50
EKRK 101050Z AUTO 11012KT 9999NDV NCD 21/14 Q1015

2010/08/10 10:50
EKAH 101050Z AUTO 18008KT 130V230 9999NDV NCD 21/12 Q1014

2010/08/10 10:50
EKEB 101050Z AUTO 18014KT 9999NDV NCD 22/13 Q1012

2010/08/10 10:50
EKRN 101050Z AUTO 12007KT 9999NDV BKN035/// 20/16 Q1017

2010/08/10 10:49
RKPK 101049Z 16015KT 4800 -RA BR FEW010 SCT010CB OVC025 27/23 Q1007 NOSIG RMK TS E46 MOVED N

2010/08/10 10:51
KELZ 101051Z AUTO 11003KT 1 3/4SM -RA BR OVC060 19/18 A3004 RMK AO2 RAB29 P0000

2010/08/10 10:51
KFXE 101051Z 15007KT 8SM -RA FEW014 BKN044 OVC060 26/23 A2988 RMK AO2 RAB30 P0005

2010/08/10 10:51
KHIB 101051Z AUTO 00000KT 3/4SM BR OVC001 15/15 A2998 RMK AO2

2010/08/10 10:47
KEVB 101047Z 13006KT 10SM SCT035 27/24 A2994

2010/08/10 10:45
PANW 101045Z AUTO 19009KT 6SM BR OVC001 09/09 A2965 RMK AO2 PWINO TSNO $

2010/08/10 10:50
EDDF 101050Z 24004KT 200V260 9999 FEW044 BKN300 25/14 Q1016 NOSIG

2010/08/10 10:50
EDDH 101050Z 15008KT 9999 FEW042 SCT280 24/12 Q1014 NOSIG

2010/08/10 10:50
EDDK 101050Z 18006KT 9999 FEW044 SCT320 25/12 Q1014 NOSIG

2010/08/10 10:50
EDDL 101050Z 19005KT 150V210 CAVOK 25/12 Q1013 NOSIG

2010/08/10 10:50
EDDM 101050Z 32002KT 9999 FEW040 SCT080 23/13 Q1018 NOSIG

2010/08/10 10:50
EDDN 101050Z 27004KT 9999 FEW045 23/13 Q1017 NOSIG

2010/08/10 10:50
EDDS 101050Z 20004KT 160V250 CAVOK 24/09 Q1017 NOSIG

2010/08/10 10:50
EDDT 101050Z VRB03KT 9999 SCT042 24/13 Q1016 NOSIG

2010/08/10 10:50
EDDV 101050Z 23005KT 200V290 CAVOK 24/09 Q1015 NOSIG

2010/08/10 10:51
KCEF 101051Z AUTO 00000KT 1/4SM R23/1200V3500FT R33/1000VP6000FT FG CLR 21/20 A2993 RMK AO2 SLP135 $

2010/08/10 10:47
KNBG 101047Z AUTO 00000KT 3/4SM BR CLR 25/23 A2994 RMK AO2 PWINO $

2010/08/10 10:48
KSKF 101048Z AUTO 17004KT 10SM BKN012 26/ A2992 RMK AO2 CIG 011V017 SLP120 $

2010/08/10 10:47
KTCM 101047Z AUTO 21007KT 10SM OVC009 13/11 A2996 RMK AO2 CIG 009V012 SLP149

2010/08/10 10:52
KMEB 101052Z AUTO 25003KT 2 1/2SM BR OVC003 24/23 A3003 RMK AO2 SLP166 T02390233

2010/08/10 10:48
KRYY 101048Z 07005KT 7SM SCT200 24/22 A3005

2010/08/10 10:50
PAWI 101050Z 06017G24KT 10SM SCT005 OVC038 04/03 A2977 RMK ASOS VIA PHONE

2010/08/10 10:50
EKGF 101050Z 17024KT 9999 BKN008 17/17 Q1008

2010/08/10 10:50
EKHN 101050Z AUTO 16020KT 9999NDV SCT057/// 19/15 Q1013

2010/08/10 10:50
EKHR 101050Z AUTO 16020KT 9999NDV FEW060/// 19/16 Q1011

2010/08/10 10:51
KBAZ 101051Z AUTO 23004KT 10SM CLR 24/23 A2991 RMK AO2 SLP117 T02440233

2010/08/10 10:51
KHDO 101051Z AUTO 00000KT 10SM OVC013 26/24 A2994 RMK AO2 SLP122 T02560239

2010/08/10 10:45
KIYK 101045Z 21005KT 20SM SKC 18/ A2982 RMK FIRST

2010/08/10 10:55
KPAN 101055Z AUTO 00000KT 10SM CLR 16/08 A3014 RMK AO1

2010/08/10 10:51
KPHX 101051Z 33005KT 10SM FEW110 32/12 A2981 RMK AO2 SLP071 T03170117 $

2010/08/10 10:51
KPIT 101051Z 00000KT 6SM HZ FEW048 SCT075 OVC100 22/18 A2998 RMK AO2 RAB05E14 SLP149 P0000 T02220183

2010/08/10 10:51
KPWM 101051Z 27004KT 9SM FEW120 21/19 A2989 RMK AO2 SLP120 T02110189 $

2010/08/10 10:51
KRDU 101051Z 24004KT 6SM BR BKN250 24/22 A3002 RMK AO2 SLP161 T02390222

2010/08/10 10:51
KSJT 101051Z AUTO 22004KT 10SM CLR 27/20 A2995 RMK AO2 SLP110 T02670200

2010/08/10 10:51
KSLK 101051Z AUTO 00000KT M1/4SM FG BKN001 OVC008 17/17 A2997 RMK AO2 SLP145 T01720167

2010/08/10 10:51
KSMO 101051Z AUTO 23003KT 10SM OVC006 15/13 A2990 RMK AO2 SLP125 T01500128

2010/08/10 10:51
KSTL 101051Z 00000KT 9SM FEW130 SCT250 28/24 A2995 RMK AO2 SLP124 ACC W T02830239

2010/08/10 10:51
KVNY 101051Z AUTO 00000KT 7SM CLR 14/12 A2989 RMK AO2 SLP114 T01440122

2010/08/10 10:51
KACT 101051Z 21006KT 10SM CLR 26/23 A2991 RMK AO2 SLP121 T02610233 $

2010/08/10 10:51
KAHN 101051Z AUTO 00000KT 3SM BR CLR 22/21 A3004 RMK AO2 SLP166 T02220206

2010/08/10 10:51
KASH 101051Z AUTO 00000KT 6SM BR FEW110 22/21 A2991 RMK AO2 T02160211 SLP130

2010/08/10 10:51
KAVX 101051Z AUTO 13007KT 7SM OVC001 12/12 A2992 RMK AO2 SLP120 T01220122 TSNO

2010/08/10 10:51
KBGD 101051Z AUTO 22003KT 10SM CLR 22/17 A3001 RMK AO2 SLP111 T02220172

2010/08/10 10:51
KCLE 101051Z 25005KT 4SM BR HZ FEW060 SCT075 22/21 A2998 RMK AO2 SLP146 T02220206

2010/08/10 10:51
KCMH 101051Z 00000KT 7SM FEW080 SCT130 SCT250 24/21 A2997 RMK AO2 SLP142 T02390206

2010/08/10 10:51
KCSG 101051Z AUTO 06003KT 9SM CLR 26/20 A2999 RMK AO2 SLP151 T02560200 TSNO

2010/08/10 10:51
KDAW 101051Z AUTO 31005KT 6SM BR CLR 21/19 A2990 RMK AO2 SLP120 T02110189

2010/08/10 10:51
KERI 101051Z 00000KT 1 1/2SM BR FEW010 BKN038 22/21 A2996 RMK AO2 CIG 010 NE SLP139 T02170206

2010/08/10 10:51
KEWR 101051Z 33006KT 8SM FEW110 BKN140 OVC200 27/19 A2993 RMK AO2 SLP135 T02670189 $

2010/08/10 10:55
KGLY 101055Z AUTO 00000KT 10SM CLR 27/23 A2993 RMK AO2

2010/08/10 10:47
KGYH 101047Z 00000KT 7SM SKC 24/22 A3005

2010/08/10 10:51
KILG 101051Z 00000KT 6SM HZ CLR 24/22 A2994 RMK AO2 SLP137 T02440217

2010/08/10 10:51
KJFK 101051Z VRB04KT 8SM FEW044 BKN140 OVC250 26/20 A2993 RMK AO2 SLP136 T02560200

2010/08/10 10:51
KLGA 101051Z 06005KT 9SM OVC140 26/19 A2993 RMK AO2 SLP134 T02560194

2010/08/10 10:51
KLGU 101051Z AUTO 00000KT 10SM CLR 11/07 A3002 RMK AO2 SLP123 T01110072

2010/08/10 10:51
KMDW 101051Z 05003KT 10SM FEW038 SCT200 BKN250 26/22 A2995 RMK AO2 SLP129 T02560217 PNO

2010/08/10 10:51
KMPV 101051Z AUTO 00000KT 1/4SM FG VV001 18/17 A3000 RMK AO2 SLP155 T01780172

2010/08/10 10:45
KMTN 101045Z 00000KT 7SM SCT150 25/23 A2994

2010/08/10 10:51
KORD 101051Z 03005KT 10SM FEW150 SCT180 BKN250 25/22 A2995 RMK AO2 SLP137 T02500222

2010/08/10 10:50
K2G4 101050Z AUTO 25005KT 10SM SCT120 20/15 A3011 RMK AO1

2010/08/10 10:51
K2W6 101051Z AUTO 22004KT 10SM CLR 24/22 A2997 RMK AO1

2010/08/10 10:51
KJCT 101051Z AUTO 00000KT 10SM CLR 26/22 A2996 RMK AO2 SLP104 T02560217 TSNO

2010/08/10 10:52
KFDK 101052Z AUTO 15003KT 4SM BR CLR 23/22 A2997 RMK AO2

2010/08/10 10:52
KW29 101052Z AUTO 24006KT 10SM CLR 26/21 A2993 RMK AO1

2010/08/10 10:55
KCGS 101055Z AUTO 00000KT 7SM CLR 25/22 A2994 RMK AO1

2010/08/10 10:51
KDAG 101051Z AUTO 26009KT 10SM CLR 21/M02 A2987 RMK AO2 SLP085 T02111022 TSNO

2010/08/10 10:52
KCKV 101052Z AUTO 13004KT 4SM BR CLR 24/23 A2997 RMK AO2 SLP140 T02440233

2010/08/10 10:52
KDCA 101052Z 21003KT 6SM HZ FEW150 SCT250 25/21 A2995 RMK AO2 SLP141 T02500206

2010/08/10 10:52
KGLS 101052Z 27005KT 10SM CLR 28/26 A2991 RMK AO2 SLP130 T02830256

2010/08/10 10:52
KHRL 101052Z 12004KT 9SM CLR 26/26 A2986 RMK AO2 SLP109 T02610261

2010/08/10 10:52
KIAD 101052Z 00000KT 4SM BR FEW150 23/21 A2996 RMK AO2 SLP140 T02280211

2010/08/10 10:50
EDDB 101050Z 18004KT 070V210 9999 SCT040 23/13 Q1016 NOSIG

2010/08/10 10:50
EDDC 101050Z 22004KT 9999 SCT042 SCT078 22/14 Q1017 NOSIG

2010/08/10 10:50
EDDG 101050Z 20008KT CAVOK 25/12 Q1014 NOSIG

2010/08/10 10:50
EDDP 101050Z VRB03KT CAVOK 24/12 Q1016 NOSIG

2010/08/10 10:50
EDDR 101050Z 17006KT CAVOK 25/11 Q1016 NOSIG

2010/08/10 10:50
EDDT 101050Z VRB03KT 9999 SCT042 24/13 Q1016 NOSIG

2010/08/10 10:50
EDDV 101050Z 23005KT 200V290 CAVOK 24/09 Q1015 NOSIG

2010/08/10 10:50
EDDW 101050Z 19011KT CAVOK 24/11 Q1013 NOSIG

2010/08/10 10:51
KSAN 101051Z 00000KT 10SM OVC015 18/14 A2991 RMK AO2 SLP129 T01780139

2010/08/10 10:51
KPVD 101051Z 20006KT 7SM FEW110 SCT112 SCT250 22/21 A2992 RMK AO2 RAE01 SLP129 P0001 T02220206

2010/08/10 10:51
KROW 101051Z AUTO 00000KT 10SM CLR 19/17 A3001 RMK AO2 SLP097 T01940167 TSNO

2010/08/10 10:51
KTEB 101051Z 03005KT 8SM CLR 25/19 A2993 RMK AO2 DZE00 SLP135 P0000 T02500194

2010/08/10 10:51
KYNG 101051Z 00000KT 7SM FEW045 SCT080 SCT250 22/18 A2998 RMK AO2 SLP141 T02170178

2010/08/10 10:51
KALB 101051Z 17003KT 3SM BR FEW045 21/20 A2995 RMK AO2 SFC VIS 4 SLP140 T02110200

2010/08/10 10:51
KBDL 101051Z 00000KT 3SM HZ BKN110 23/21 A2992 RMK AO2 TWR VIS 4 SLP131 T02330206

2010/08/10 10:51
KBKW 101051Z AUTO 00000KT 4SM HZ FEW043 20/17 A3011 RMK AO2 SLP156 T02000167 $

2010/08/10 10:51
KEKN 101051Z AUTO 00000KT 1/4SM FG OVC005 17/17 A3010 RMK AO2 SLP179 T01720167 TSNO

2010/08/10 10:51
KELP 101051Z 14004KT 10SM CLR 24/14 A3002 RMK AO2 SLP086 T02390144 $

2010/08/10 10:51
KHTS 101051Z 00000KT 1 3/4SM BR CLR 21/20 A2999 RMK AO2 SLP147 T02110200

2010/08/10 10:55
KLZZ 101055Z AUTO 23003KT 10SM CLR 24/22 A2993 RMK AO2

2010/08/10 10:51
KMYL 101051Z AUTO 00000KT 10SM CLR 09/08 A2994 RMK AO2 SLP107 T00890083

2010/08/10 10:51
KOXR 101051Z AUTO 00000KT 9SM OVC008 15/13 A2989 RMK AO2 SLP121 T01500128 $

2010/08/10 10:51
KSMX 101051Z AUTO 06003KT 7SM OVC004 12/11 A2990 RMK AO2 SLP126 T01220111 TSNO

2010/08/10 10:51
KORF 101051Z 23007KT 10SM FEW040 25/23 A2998 RMK AO2 SLP151 T02500233 $

2010/08/10 10:51
KNYC 101051Z 00000KT 10SM CLR 26/19 A2996 RMK AO2 SLP135 T02610189 $

2010/08/10 10:51
KCON 101051Z AUTO 32004KT 4SM BR CLR 21/20 A2991 RMK AO2 SLP128 T02110200

2010/08/10 10:51
KBVE 101051Z AUTO 00000KT CLR 26/25 A2993 RMK AO2 SLP134 T02560250 TSNO $

2010/08/10 10:52
KCBE 101052Z AUTO 00000KT 5SM CLR 19/18 A3004 RMK AO1

2010/08/10 10:51
KP59 101051Z AUTO 24005KT 19/18 A2994 RMK AO2 SLP132 T01940183 PWINO TSNO

2010/08/10 10:51
KCRP 101051Z 15003KT 10SM FEW017 26/25 A2988 RMK AO2 SLP116 T02610250

2010/08/10 10:51
KSNT 101051Z AUTO 12004KT 08/07 A3010 RMK AO2 SLP121 T00830072 PWINO TSNO

2010/08/10 10:51
KABE 101051Z 05005KT 6SM HZ CLR 23/21 A2995 RMK AO2 RAB35E39 SLP139 P0000 T02330206

2010/08/10 10:51
KCAK 101051Z 27003KT 5SM HZ FEW035 BKN100 22/19 A2998 RMK AO2 SLP143 T02170189

2010/08/10 10:51
KHSE 101051Z AUTO 25005KT 9SM CLR 25/25 A3001 RMK AO2 SLP163 T02500250 TSNO

2010/08/10 10:51
KATT 101051Z AUTO 00000KT 10SM CLR 25/23 A2993 RMK AO2 SLP117 T02500233

2010/08/10 10:51
KGDP 101051Z AUTO 24005KT 10SM CLR 21/14 A3015 RMK AO2 SLP116 T02060144 TSNO $

2010/08/10 10:52
KN60 101052Z AUTO 08008KT 20/18 A2982 RMK AO1 SLP084 T02000178

2010/08/10 10:52
KSDB 101052Z AUTO 26007KT 10SM CLR 16/05 A3002 RMK AO2 SLP111 T01560050 TSNO

2010/08/10 10:52
KABI 101052Z 19006KT 10SM CLR 27/19 A2996 RMK AO2 SLP113 T02670189

2010/08/10 10:52
KCZZ 101052Z AUTO 04005KT 07/M01 A2991 RMK AO2 SLP101 T00721011 PWINO TSNO

2010/08/10 10:52
KREO 101052Z AUTO 19005KT 17/02 A2991 RMK AO2 SLP089 T01670022 PWINO TSNO

2010/08/10 10:50
LXGB 101050Z 11007KT CAVOK 28/19 Q1017 NOSIG

2010/08/10 10:48
PADL 101048Z 18008KT 2SM -RA BR BKN004 OVC010 10/09 A2963

2010/08/10 11:00
FAJS 101100Z 10016KT 050V120 CAVOK 13/M16 Q1034 NOSIG

2010/08/10 10:52
KBLU 101052Z AUTO 00000KT 10SM CLR 16/04 A3007 RMK AO2 SLP094 T01610044 TSNO 

2010/08/10 10:47
KGYH 101047Z 00000KT 7SM SKC 24/22 A3005

2010/08/10 11:00
FAJS 101100Z 10016KT 050V120 CAVOK 13/M16 Q1034 NOSIG

2010/08/10 11:00
SBCF 101100Z 17007KT CAVOK 13/10 Q1025

2010/08/10 10:51
KFXE 101051Z 15007KT 8SM -RA FEW014 BKN044 OVC060 26/23 A2988

2010/08/10 10:48
KGLE 101048Z AUTO 00000KT 10SM CLR 26/20 A2993

2010/08/10 10:50
LSGC 101050Z VRB03KT 9999 FEW048 20/08 Q1020

2010/08/10 10:50
LSGS 101050Z 24006KT 200V280 9999 FEW070 26/13 Q1016

2010/08/10 10:50
LSZR 101050Z VRB03KT 9999 FEW045 22/14 Q1018 NOSIG RMK G

2010/08/10 10:50
LSZS 101050Z 22013KT 190V250 9999 BKN080 20/09 Q1022

2010/08/10 10:50
EDDB 101050Z 18004KT 070V210 9999 SCT040 23/13 Q1016 NOSIG

2010/08/10 10:50
EDDC 101050Z 22004KT 9999 SCT042 SCT078 22/14 Q1017 NOSIG

2010/08/10 10:50
EDDE 101050Z VRB03KT CAVOK 23/09 Q1017 NOSIG

2010/08/10 10:50
EDDF 101050Z 24004KT 200V260 9999 FEW044 BKN300 25/14 Q1016 NOSIG

2010/08/10 10:50
EDDG 101050Z 20008KT CAVOK 25/12 Q1014 NOSIG

2010/08/10 10:50
EDDH 101050Z 15008KT 9999 FEW042 SCT280 24/12 Q1014 NOSIG

2010/08/10 10:50
EDDK 101050Z 18006KT 9999 FEW044 SCT320 25/12 Q1014 NOSIG

2010/08/10 10:50
EDDL 101050Z 19005KT 150V210 CAVOK 25/12 Q1013 NOSIG

2010/08/10 10:50
EDDM 101050Z 32002KT 9999 FEW040 SCT080 23/13 Q1018 NOSIG

2010/08/10 10:50
EDDN 101050Z 27004KT 9999 FEW045 23/13 Q1017 NOSIG

2010/08/10 10:50
EDDP 101050Z VRB03KT CAVOK 24/12 Q1016 NOSIG

2010/08/10 10:50
EDDR 101050Z 17006KT CAVOK 25/11 Q1016 NOSIG

2010/08/10 10:50
EDDS 101050Z 20004KT 160V250 CAVOK 24/09 Q1017 NOSIG

2010/08/10 10:50
EDDT 101050Z VRB03KT 9999 SCT042 24/13 Q1016 NOSIG

2010/08/10 10:50
EDDV 101050Z 23005KT 200V290 CAVOK 24/09 Q1015 NOSIG

2010/08/10 10:50
EDDW 101050Z 19011KT CAVOK 24/11 Q1013 NOSIG

2010/08/10 10:55
EHEH 101055Z AUTO 20007KT 9999NDV OVC170 22/14 Q1013 BLU BLU NOSIG

2010/08/10 10:50
EKCH 101050Z 15010KT 9999 FEW030 FEW250 21/14 Q1016 NOSIG

2010/08/10 10:50
EKKA 101050Z 17009KT 110V210 9999 FEW042 SCT220 23/12 Q1012 NOSIG

2010/08/10 10:50
EKSP 101050Z 18010KT 150V210 9999 FEW034 SCT200 23/12 Q1013 NOSIG

2010/08/10 10:50
ETNG 101050Z 25007KT 9999 FEW036 BKN250 25/14 Q1014 NOSIG

2010/08/10 11:00
GVAC 101100Z 09005KT 040V140 9999 BKN014 27/19 Q1015 NOSIG

2010/08/10 10:45
LMML 101045Z 20006KT 170V260 CAVOK 31/14 Q1015 NOSIG

2010/08/10 11:00
LQSA 101100Z VRB03KT 9999 SCT050 26/13 Q1018 NOSIG

2010/08/10 11:00
LQTZ 101100Z 10007KT 9999 FEW040 26/// Q1018

2010/08/10 10:50
LSGG 101050Z 07006KT 350V110 9999 FEW040 BKN350 26/10 Q1017 NOSIG

2010/08/10 10:50
LSZA 101050Z 19005KT 150V220 9999 SCT045TCU 27/17 Q1016 NOSIG

2010/08/10 10:50
LSZB 101050Z 32005KT 250V360 9999 FEW045 SCT090 24/15 Q1017 NOSIG

2010/08/10 10:50
LSZH 101050Z 22003KT 170V280 9999 FEW050 25/11 Q1018 NOSIG

2010/08/10 10:50
EDDB 101050Z 18004KT 070V210 9999 SCT040 23/13 Q1016 NOSIG

2010/08/10 10:50
EDDC 101050Z 22004KT 9999 SCT042 SCT078 22/14 Q1017 NOSIG

2010/08/10 10:50
EDDE 101050Z VRB03KT CAVOK 23/09 Q1017 NOSIG

2010/08/10 10:50
EDDF 101050Z 24004KT 200V260 9999 FEW044 BKN300 25/14 Q1016 NOSIG

2010/08/10 10:50
EDDG 101050Z 20008KT CAVOK 25/12 Q1014 NOSIG

2010/08/10 10:50
EDDH 101050Z 15008KT 9999 FEW042 SCT280 24/12 Q1014 NOSIG

2010/08/10 10:50
EDDK 101050Z 18006KT 9999 FEW044 SCT320 25/12 Q1014 NOSIG

2010/08/10 10:50
EDDL 101050Z 19005KT 150V210 CAVOK 25/12 Q1013 NOSIG

2010/08/10 10:50
EDDM 101050Z 32002KT 9999 FEW040 SCT080 23/13 Q1018 NOSIG

2010/08/10 10:50
EDDN 101050Z 27004KT 9999 FEW045 23/13 Q1017 NOSIG

2010/08/10 10:50
EDDP 101050Z VRB03KT CAVOK 24/12 Q1016 NOSIG

2010/08/10 10:50
EDDR 101050Z 17006KT CAVOK 25/11 Q1016 NOSIG

2010/08/10 10:50
EDDS 101050Z 20004KT 160V250 CAVOK 24/09 Q1017 NOSIG

2010/08/10 10:50
EDDT 101050Z VRB03KT 9999 SCT042 24/13 Q1016 NOSIG

2010/08/10 10:50
EDDV 101050Z 23005KT 200V290 CAVOK 24/09 Q1015 NOSIG

2010/08/10 10:50
EDDW 101050Z 19011KT CAVOK 24/11 Q1013 NOSIG

2010/08/10 10:55
EHEH 101055Z AUTO 20007KT 9999NDV OVC170 22/14 Q1013 BLU BLU NOSIG

2010/08/10 10:50
EKCH 101050Z 15010KT 9999 FEW030 FEW250 21/14 Q1016 NOSIG

2010/08/10 10:50
EKEB 101050Z AUTO 18014KT 9999NDV NCD 22/13 Q1012

2010/08/10 10:50
EKKA 101050Z 17009KT 110V210 9999 FEW042 SCT220 23/12 Q1012 NOSIG

2010/08/10 10:50
EKOD 101050Z 17008KT 9999 SCT035TCU 21/12 Q1014

2010/08/10 10:50
EKRN 101050Z AUTO 12007KT 9999NDV BKN035/// 20/16 Q1017

2010/08/10 10:50
EKSP 101050Z 18010KT 150V210 9999 FEW034 SCT200 23/12 Q1013 NOSIG

2010/08/10 10:50
EKVJ 101050Z 18012KT 9999 FEW030 21/16 Q1013

2010/08/10 10:50
ETNG 101050Z 25007KT 9999 FEW036 BKN250 25/14 Q1014 NOSIG

2010/08/10 10:50
LSGG 101050Z 07006KT 350V110 9999 FEW040 BKN350 26/10 Q1017 NOSIG

2010/08/10 10:50
LSZA 101050Z 19005KT 150V220 9999 SCT045TCU 27/17 Q1016 NOSIG

2010/08/10 10:50
LSZB 101050Z 32005KT 250V360 9999 FEW045 SCT090 24/15 Q1017 NOSIG

2010/08/10 10:50
LSZH 101050Z 22003KT 170V280 9999 FEW050 25/11 Q1018 NOSIG

2010/08/10 10:45
KMWA 101045Z AUTO 00000KT 4SM BR CLR 26/25 A2996

2010/08/10 10:45
KSAR 101045Z AUTO 00000KT 7SM CLR 27/26 A2994

2010/08/10 10:46
KSLO 101046Z AUTO 00000KT 5SM BR CLR 26/24 A2995

2010/08/10 10:45
KTAZ 101045Z AUTO 00000KT 10SM CLR 24/24 A2993

2010/08/10 10:45
KTIP 101045Z AUTO 15003KT 7SM VCTS CLR 24/23 A2996

2010/08/10 10:48
KEHA 101048Z AUTO 28003KT 22/17

2010/08/10 10:48
KIZA 101048Z AUTO 00000KT 7SM OVC005 12/11 A2990

2010/08/10 10:45
KMTN 101045Z 00000KT 7SM SCT150 25/23 A2994

2010/08/10 10:51
KHIB 101051Z AUTO 00000KT 3/4SM BR OVC001 15/15 A2998

2010/08/10 11:00
BKPR 101100Z 01011KT 340V050 9999 FEW040 26/12 Q1018 NOSIG RMK BLU

2010/08/10 10:50
BGSF 101050Z 03008KT 9999 BKN023 09/04 Q1007

2010/08/10 10:50
BGBW 101050Z AUTO 07002KT 9999NDV FEW004/// 09/08 Q1009

2010/08/10 10:50
BGJN 101050Z 33003KT 9999 BKN023 08/04 Q1007 RMK 7ST 

2010/08/10 10:50
BGKK 101050Z 09015KT 9999 -DZ SCT020 BKN032 BKN045 07/05 Q1013

2010/08/10 10:50
EEPU 101050Z 20012KT 160V220 9999 BKN023 21/16 Q1015

2010/08/10 10:50
EKVJ 101050Z 18012KT 9999 FEW030 21/16 Q1013

2010/08/10 10:51
EKSB 101051Z 13011KT 9999 SCT040 22/13 Q1013

2010/08/10 10:50
EKOD 101050Z 17008KT 9999 SCT035TCU 21/12 Q1014

2010/08/10 11:00
LQSA 101100Z VRB03KT 9999 SCT050 26/13 Q1018 NOSIG

2010/08/10 10:50
EKKA 101050Z 17009KT 110V210 9999 FEW042 SCT220 23/12 Q1012 NOSIG

2010/08/10 10:50
EKSP 101050Z 18010KT 150V210 9999 FEW034 SCT200 23/12 Q1013 NOSIG

2010/08/10 10:50
EKGF 101050Z 17024KT 9999 BKN008 17/17 Q1008

2010/08/10 10:50
EKHN 101050Z AUTO 16020KT 9999NDV SCT057/// 19/15 Q1013

2010/08/10 10:50
EKHR 101050Z AUTO 16020KT 9999NDV FEW060/// 19/16 Q1011

2010/08/10 11:00
LQMO 101100Z 31009KT 9999 FEW040 34/08 Q1011

2010/08/10 10:50
ESGG 101050Z 22013KT 9999 SCT027 BKN046 18/11 Q1015

2010/08/10 10:50
ESGJ 101050Z 25011KT 9999 FEW035 BKN056 19/12 Q1015

2010/08/10 10:50
ESGP 101050Z 20012KT 9999 SCT047 BKN051 BKN072 19/13 Q1014

2010/08/10 10:50
ESGT 101050Z 21014KT 9999 SCT027 SCT046 19/12 Q1013

2010/08/10 10:50
ESMK 101050Z 15006KT 110V180 9999 BKN043 21/11 Q1016

2010/08/10 10:50
ESMQ 101050Z 26004KT 220V320 9999 FEW035 SCT052 21/11 Q1016

2010/08/10 10:50
ESMS 101050Z 20008KT 9999 FEW037 21/12 Q1016

2010/08/10 10:50
ESMT 101050Z AUTO 21009KT 170V230 9999NDV FEW091/// 20/13 Q1016

2010/08/10 10:50
ESMX 101050Z 23008KT 200V260 9999 SCT027 BKN058 18/13 Q1016

2010/08/10 10:50
ESTA 101050Z 22007KT 140V270 CAVOK 21/11 Q1015

2010/08/10 10:50
ESTL 101050Z 14005KT 110V180 9999 BKN041 20/12 Q1016

2010/08/10 10:50
EFHK 101050Z 20017KT 9999 SCT025 FEW035CB BKN065 21/16 Q1013 NOSIG

2010/08/10 10:50
EFJY 101050Z 23006KT 170V260 9999 SCT038 22/15 Q1010

2010/08/10 10:50
EFKU 101050Z AUTO 22009KT CAVOK 22/14 Q1010

2010/08/10 10:50
EFOU 101050Z 33008KT 9999 BKN011 BKN025 17/14 Q1009

2010/08/10 10:50
EFRO 101050Z AUTO 34008KT 9999NDV BKN015 OVC018 13/10 Q1010

2010/08/10 10:50
EFTP 101050Z 18006KT 160V240 9999 -SHRA FEW020 FEW030CB BKN080 19/17 Q1011

2010/08/10 10:50
EFTU 101050Z AUTO 23006KT 190V280 9999 FEW007 BKN009 OVC017 19/17 Q1011

2010/08/10 10:50
EFVA 101050Z 15004KT 100V190 9999 FEW008 SCT022 BKN035CB 19/18 Q1008

2010/08/10 11:00
OKBK 101100Z 11007KT 6000 NSC 43/14 Q0999 NOSIG

2010/08/10 10:50
EKCH 101050Z 15010KT 9999 FEW030 FEW250 21/14 Q1016 NOSIG

2010/08/10 10:50
EKBI 101050Z 18009KT 110V220 9999 FEW040 BKN250 22/11 Q1013

2010/08/10 10:50
EKYT 101050Z 17011KT CAVOK 24/09 Q1013 NOSIG RMK FEW050 SCT250

2010/08/10 10:50
EKRK 101050Z AUTO 11012KT 9999NDV NCD 21/14 Q1015

2010/08/10 10:50
EKAH 101050Z AUTO 18008KT 130V230 9999NDV NCD 21/12 Q1014

2010/08/10 10:50
EKEB 101050Z AUTO 18014KT 9999NDV NCD 22/13 Q1012

2010/08/10 10:50
EKRN 101050Z AUTO 12007KT 9999NDV BKN035/// 20/16 Q1017

2010/08/10 10:45
KGYY 101045Z 00000KT 7SM SCT038 BKN200 24/22 A2994

2010/08/10 10:52
K9V9 101052Z AUTO 05009KT 20/18 A2972 RMK AO2 SLP048 P0002 T02000183 PWINO TSNO 

2010/08/10 10:52
KP69 101052Z AUTO VRB04KT 15/15 A2988 RMK AO2 SLP098 T01500150 PWINO TSNO 

2010/08/10 10:48
PADL 101048Z 18008KT 2SM -RA BR BKN004 OVC010 10/09 A2963

2010/08/10 10:48
KRNM 101048Z AUTO 00000KT 1/2SM FG BKN001 OVC009 10/09 A2991

2010/08/10 10:50
EETN 101050Z 22011KT 9999 SCT032 BKN048 22/15 Q1014 NOSIG

2010/08/10 10:50
EETU 101050Z AUTO 27007KT 240V320 9999NDV SCT042/// 24/15 Q1015

2010/08/10 10:50
EFHK 101050Z 20017KT 9999 SCT025 FEW035CB BKN065 21/16 Q1013 NOSIG

2010/08/10 10:50
EVLA 101050Z 25010KT CAVOK 20/13 Q1017

2010/08/10 10:50
EVRA 101050Z 20009KT 170V250 9999 SCT030 23/16 Q1016 NOSIG

2010/08/10 10:50
EYKA 101050Z 18004KT 130V290 CAVOK 26/16 Q1016

2010/08/10 10:50
EYPA 101050Z 27005KT 210V330 9999 SCT023 21/15 Q1017 NOSIG

2010/08/10 10:50
EYVI 101050Z 06003KT 350V120 9999 SCT040 BKN110 24/15 Q1017 NOSIG

2010/08/10 10:52
CYAY 101052Z AUTO 23009G17KT 9SM OVC013 17/15 A2963 RMK SLP034 DENSITY ALT 700FT MAX WND 22021KT AT 1009Z

2010/08/10 10:51
CYGQ 101051Z 00000KT 1/2SM FG VV001 RMK FG8

2010/08/10 10:51
CYHD 101051Z AUTO 03011KT 1 3/8SM +RA BKN004 BKN009 OVC042 19/19 A2995 RMK VSBY VRBL 1.4V4.0

2010/08/10 10:52
CYOD 101052Z 35006KT 15SM SCT070 BKN100 BKN220 RMK ACC4AC2CI1

2010/08/10 10:50
CYPX 101050Z 29010KT 1SM BR OVC001 RMK SF8

2010/08/10 10:50
CYQM 101050Z 26007KT 1SM R06/P6000FT/U R29/3000FT/N BR VV002 17/ RMK FG8

2010/08/10 10:49
CYYT 101049Z 09005KT 3/4SM R11/P6000FT/D R16/P6000FT/D -DZ BR OVC002 14/ RMK FG4SF4

2010/08/10 10:52
CYZE 101052Z AUTO 00000KT 5SM BR CLR 16/16 A2994 RMK SLP140 DENSITY ALT 800FT

2010/08/10 10:52
KCEF 101052Z AUTO 00000KT 1/2SM R23/1200V4500FT R33/0900VP6000FT FG CLR 21/20 A2993 RMK AO2 SLP135 $

2010/08/10 10:53
KCEF 101053Z AUTO 00000KT 1/2SM R23/1200V5500FT R33/0900VP6000FT FG CLR 21/20 A2993 RMK AO2 SLP135 $

2010/08/10 10:54
KMMT 101054Z AUTO 00000KT 7SM BKN003 BKN016 OVC025 24/24 A3002 RMK AO2 BKN003 V SCT SLP165

2010/08/10 10:51
KSKF 101051Z AUTO 16004KT 10SM BKN014 26/ A2992 RMK AO2 CIG 011V017 SLP120 $

2010/08/10 10:53
KSKF 101053Z AUTO 16004KT 10SM SCT013 26/ A2992 RMK AO2 SLP120 $

2010/08/10 10:51
PGUA 101051Z AUTO 07007KT 10SM FEW018 SCT023 BKN030 26/25 A2996 RMK AO2 FEW V SCT CIG 016 RWY24L SLP127 $

2010/08/10 10:52
PGUA 101052Z AUTO 07007KT 10SM SCT018 BKN023 BKN030 26/25 A2996 RMK AO2 BKN023 V SCT CIG 016 RWY24L SLP127 $

2010/08/10 10:49
RKPK 101049Z 16015KT 4800 -RA BR FEW010 SCT010CB OVC025 27/23 Q1007 NOSIG RMK TS E46 MOVED N

2010/08/10 10:51
YBRK 101051Z 25012KT 2000 SHRA FEW008 BKN015 20/19 Q1016

2010/08/10 10:54
YMAV 101054Z AUTO 34006KT 4000NDV // SCT012 SCT021 08/07 Q1009

2010/08/10 10:54
YMAV 101054Z AUTO 34006KT 4000NDV // SCT012 SCT021 08/07 Q1009

2010/08/10 10:53
KSAV 101053Z 00000KT 10SM FEW015 SCT025 SCT250 25/24 A3000 RMK AO2 SLP158 T02500239 

2010/08/10 10:53
CBBC 101053Z AUTO 00000KT 9SM OVC001 A2998

2010/08/10 10:53
KSDM 101053Z AUTO 00000KT 9SM OVC008 16/14 A2990 RMK AO2 SLP121 T01610139 TSNO 

2010/08/10 10:53
KNUI 101053Z AUTO 24005KT 10SM CLR 26/22 A2995 RMK AO2 SLP141 T02560217 

2010/08/10 10:53
KOQT 101053Z AUTO 00000KT 4SM BR SCT095 24/23 A3004 RMK AO2 SLP153 T02440233 TSNO 

2010/08/10 10:53
KMSY 101053Z 00000KT 9SM FEW250 26/25 A2993 RMK AO2 SLP138 T02560250 

2010/08/10 10:53
KLAX 101053Z 28005KT 6SM BR OVC007 15/13 A2991 RMK AO2 SLP125 T01500128 $ 

2010/08/10 10:53
KFAR 101053Z 13004KT 10SM CLR 22/19 A2988 RMK AO2 SLP112 T02170194 

2010/08/10 10:53
CYXU 101053Z 00000KT 1/4SM R15/1200V2000FT/N FG SKC 20/ RMK FG5

2010/08/10 10:50
BGBW 101050Z AUTO 07002KT 9999NDV FEW004/// 09/08 Q1009

2010/08/10 10:50
BGJN 101050Z 33003KT 9999 BKN023 08/04 Q1007 RMK 7ST

2010/08/10 10:50
BGKK 101050Z 09015KT 9999 -DZ SCT020 BKN032 BKN045 07/05 Q1013

2010/08/10 10:50
BGSF 101050Z 03008KT 9999 BKN023 09/04 Q1007

2010/08/10 10:50
EFKU 101050Z AUTO 22009KT CAVOK 22/14 Q1010

2010/08/10 10:50
EFOU 101050Z 33008KT 9999 BKN011 BKN025 17/14 Q1009

2010/08/10 10:55
KCEF 101055Z AUTO 00000KT 1/2SM R23/1200V5500FT R33/0900VP6000FT FG CLR 21/20 A2993 RMK AO2 SLP135 T02080205 $

2010/08/10 10:55
KEGI 101055Z AUTO 00000KT 7SM R18/5000V5500FT CLR 24/23 A2994 RMK AO2 SLP137 T02360228 $

2010/08/10 10:55
KGRF 101055Z AUTO 22005KT 10SM OVC009 13/11 A2996 RMK AO2 CIG 008V010 SLP146 T01260108

2010/08/10 10:55
KLRF 101055Z AUTO 17004KT 10SM CLR 27/25 A2993 RMK AO2 SLP131 T02720252

2010/08/10 10:52
KNHK 101052Z 22007KT 9SM FEW090 SCT200 26/21 A2994 RMK AO2 SLP140 T02560211

2010/08/10 10:52
KNRB 101052Z 15009KT 10SM SCT024 SCT130 28/22 A2995 RMK AO2 SLP141 T02780222

2010/08/10 10:55
KRDR 101055Z AUTO 00000KT 10SM CLR 18/18 A2990 RMK AO2 SLP135 T01840183 $

2010/08/10 10:51
KSAN 101051Z 00000KT 10SM OVC015 18/14 A2991 RMK AO2 SLP129 T01780139

2010/08/10 11:00
LPLA 101100Z 05008KT 9999 FEW020 BKN035 23/17 Q1023

2010/08/10 11:00
MDSD 101100Z VRB03KT 8000 -TSRA FEW016CB BKN018 24/22 Q1013 CB/NE/E/SE/S/N

2010/08/10 11:00
MDST 101100Z 00000KT 5000 BR BKN016 24/24 Q1013 BR/ALL QDS

2010/08/10 10:51
NSTU 101051Z COR 12010KT 10SM FEW017 BKN040 BKN080 26/24 A2996 RMK SHRAB14E31 SLP146 T02600244 402990258

2010/08/10 10:51
NSTU 101051Z 12010KT 10SM FEW017 BKN040 BKN080 26/24 A2996 RMK SLP146 T02600244 402990258

2010/08/10 10:50
OAMS 101050Z 27009KT 9999 SCT150 SCT220 39/M01 Q1005 BLU/BLU/

2010/08/10 11:00
OKBK 101100Z 11007KT 6000 NSC 43/14 Q0999 NOSIG

2010/08/10 10:48
K4O4 101048Z AUTO 00000KT 10SM CLR 24/22 A2993 RMK AO2

2010/08/10 10:51
KADH 101051Z AUTO 16004KT 10SM CLR 25/18 A2992 RMK AO2

2010/08/10 10:50
KADM 101050Z AUTO 10003KT 10SM CLR 23/22 A2991 RMK AO2

2010/08/10 10:53
KAEX 101053Z 00000KT 10SM BKN060 OVC075 26/24 A2993 RMK AO2 SLP136 T02610239

2010/08/10 10:50
KAFK 101050Z AUTO 16005KT 10SM CLR 25/22 A2986 RMK AO2 T02450218

2010/08/10 10:52
KAFN 101052Z AUTO 00000KT 2 1/2SM BR CLR 19/19 A2995 RMK AO2 SLP140 T01940189

2010/08/10 10:53
KALI 101053Z AUTO 15003KT 2 1/2SM BR CLR 24/24 A2987 RMK AO2 SLP113 T02440244

2010/08/10 10:45
KALM 101045Z AUTO 18003KT 10SM CLR 20/12 A3002 RMK AO2

2010/08/10 10:52
KALS 101052Z AUTO 00000KT 10SM CLR 06/04 A3030 RMK AO2 SLP178 T00560039

2010/08/10 10:50
KANW 101050Z AUTO 22004KT 10SM CLR 18/18 A2988 RMK AO2 T01840175

2010/08/10 10:52
KAQW 101052Z AUTO 00000KT 1 1/2SM BR FEW017 BKN025 21/20 A2996 RMK AO2 SLP141 T02060200

2010/08/10 10:53
KARA 101053Z 01003KT 10SM CLR 25/24 A2993 RMK AO2 SLP136 T02500239

2010/08/10 10:52
KARR 101052Z AUTO 26003KT 1 1/4SM BR FEW090 22/22 A2997 RMK AO2 VIS 1/2V3 SLP143 T02170217

2010/08/10 10:53
KASD 101053Z AUTO 00000KT 8SM CLR 24/23 A2993 RMK AO2 SLP136 T02440228

2010/08/10 10:52
KATL 101052Z 00000KT 7SM SCT250 25/21 A3004 RMK AO2 SLP158 T02500211

2010/08/10 10:50
KATS 101050Z AUTO 18004KT 10SM CLR 20/16 A3001 RMK AO2

2010/08/10 10:50
KAUH 101050Z AUTO 07006KT 10SM CLR 21/19 A2987 RMK AO2 T02100190

2010/08/10 10:50
KAUN 101050Z AUTO 09006KT 10SM CLR 19/10 A2986 RMK AO1

2010/08/10 10:53
KAUS 101053Z 00000KT 10SM CLR 24/23 A2992 RMK AO2 SLP120 T02440228

2010/08/10 10:50
KAXS 101050Z AUTO 00000KT 10SM CLR 24/20 A2992 RMK AO2 T02360203

2010/08/10 10:50
KAXX 101050Z AUTO 00000KT 3/4SM BR OVC003 07/07 A3038 RMK AO2

2010/08/10 10:53
KBCT 101053Z AUTO 17017KT 10SM FEW005 SCT023 OVC055 25/24 A2988

2010/08/10 10:52
KBDR 101052Z 35003KT 9SM -RA FEW050 SCT120 24/20 A2993 RMK AO2 RAB06 SLP137 P0000 T02440200

2010/08/10 10:53
KBFM 101053Z 34005KT 6SM BR CLR 26/24 A2995 RMK AO2 SLP141 T02560239

2010/08/10 10:50
KBIE 101050Z AUTO 11003KT 10SM CLR 25/22 A2986 RMK AO2 T02450221

2010/08/10 10:52
KBIS 101052Z 08008KT 10SM CLR 21/19 A2983 RMK AO2 SLP088 T02110189

2010/08/10 10:52
KBLF 101052Z AUTO 26004KT 10SM FEW034 23/17 A3014 RMK AO2 SLP161 T02280172

2010/08/10 10:52
KBLH 101052Z AUTO 09003KT 10SM CLR 25/03 A2976 RMK AO2 SLP069 T02500028

2010/08/10 10:52
KBML 101052Z AUTO 00000KT 4SM BR OVC003 16/15 A2996 RMK AO2 CIG 001V005 SLP141 T01560150

2010/08/10 10:53
KBMQ 101053Z AUTO 00000KT 10SM CLR 24/22 A2997 RMK AO2 SLP127 T02440222 $

2010/08/10 10:53
KBPT 101053Z 00000KT 10SM CLR 25/24 A2992 RMK AO2 SLP131 T02500244

2010/08/10 10:53
KBRO 101053Z 12004KT 10SM CLR 28/26 A2986 RMK AO2 SLP111 T02780261

2010/08/10 10:50
KBTA 101050Z AUTO 15005KT 10SM SCT080 26/22 A2987 RMK AO2 T02550222

2010/08/10 10:50
KBVN 101050Z AUTO 00000KT 10SM CLR 20/19 A2986 RMK AO2 T02000185

2010/08/10 10:45
KBVS 101045Z AUTO 18003KT 8SM OVC007 13/13 A2995 RMK A01 P000

2010/08/10 10:52
KCFV 101052Z AUTO 18004KT 10SM CLR 25/21 A2991 RMK AO2 SLP118 T02500211

2010/08/10 10:50
KCHK 101050Z AUTO 15005KT 10SM CLR 26/21 A2990 RMK AO2

2010/08/10 10:52
KCID 101052Z 29006KT 8SM -TSRA SCT041 23/22 A2995 RMK AO2 SLP135 TS W-NW MOV NE OCNL LTGICCC P0011 T02280217

2010/08/10 10:50
KCLK 101050Z AUTO 18004KT 10SM CLR 24/18 A2991 RMK AO2

2010/08/10 10:53
KCLL 101053Z AUTO 00000KT 10SM CLR 26/23 A2992 RMK AO2 SLP125 T02560228

2010/08/10 10:52
KCLT 101052Z 00000KT 5SM BR FEW250 23/21 A3005 RMK AO2 SLP164 T02330211

2010/08/10 10:52
KCNU 101052Z AUTO 18006KT 10SM CLR 25/21 A2991 RMK AO2 SLP114 T02500206

2010/08/10 10:53
KCOT 101053Z AUTO 00000KT 10SM CLR 25/24 A2989 RMK AO2 SLP111 T02500239

2010/08/10 10:50
KCQB 101050Z AUTO 14003KT 10SM 24/21 A2990 RMK AO2 TSNO

2010/08/10 10:52
KCQX 101052Z AUTO 00000KT 1 1/2SM -RA BR FEW021 22/21 A2992 RMK AO2 RAB44 SLP134 P0000 T02170211

2010/08/10 10:50
KCUH 101050Z AUTO 00000KT 10SM CLR 25/21 A2990 RMK AO2

2010/08/10 10:52
KCVG 101052Z 00000KT 6SM HZ FEW200 BKN250 24/22 A2998 RMK AO2 SLP139 T02440217

2010/08/10 10:53
KDNK 101053Z AUTO 00000KT 10SM FEW050 SCT075 BKN090 25/23 A2994 RMK AO2 SLP135 T02500228 

2010/08/10 10:53
KCTY 101053Z AUTO 06003KT 24/24 A2992 RMK AO2 SLP130 P0001 T02440239 PWINO TSNO 

2010/08/10 10:53
KFAY 101053Z AUTO 20005KT 2SM BR OVC001 24/23 A3002 RMK AO2 SLP159 T02440233

2010/08/10 10:53
KFCM 101053Z AUTO 12005KT 6SM BR CLR 23/21 A2993 RMK AO2 SLP127 T02330211

2010/08/10 10:53
KFFC 101053Z AUTO 00000KT 4SM BR CLR 21/20 A3003 RMK AO2 SLP162 T02110200

2010/08/10 10:53
KFHR 101053Z AUTO 00000KT 10SM BKN048 BKN060 OVC100 12/10 A2994 RMK AO2 SLP139 T01170100

2010/08/10 10:53
KFLD 101053Z AUTO 00000KT 1/2SM FG VV001 20/19 A2997 RMK AO2 SLP144 T02000189

2010/08/10 10:54
KFME 101054Z AUTO 00000KT 3SM CLR 19/19 A2996 RMK AO1

2010/08/10 10:53
KFMN 101053Z AUTO 04004KT 10SM CLR 15/08 A3017 RMK AO2 SLP153 T01500078

2010/08/10 10:53
KFNB 101053Z AUTO 13005KT 10SM CLR 24/23 A2986 RMK AO2 SLP100 T02390228

2010/08/10 10:53
KFOE 101053Z 15006KT 10SM CLR 26/21 A2988 RMK AO2 SLP104 T02610206

2010/08/10 10:53
KFSM 101053Z 05004KT 10SM CLR 26/24 A2992 RMK AO2 SLP124 T02610244 $

2010/08/10 10:53
KFST 101053Z AUTO 16007KT 10SM CLR 22/19 A2999 RMK AO2 SLP112 T02170194

2010/08/10 10:53
KFTY 101053Z 00000KT 2 1/2SM BR CLR 23/22 A3003 RMK AO2 SLP159 T02280217

2010/08/10 10:53
KFUL 101053Z 00000KT 5SM BR CLR 15/13 A2989 RMK AO2 SLP121 T01500128

2010/08/10 10:53
KFYV 101053Z 00000KT 9SM CLR 22/22 A2997 RMK AO2 SLP131 T02220217

2010/08/10 10:53
KGAG 101053Z AUTO 20007KT 10SM CLR 21/18 A2994 RMK AO2 SLP105 T02060183

2010/08/10 10:53
KGEG 101053Z 18008KT 10SM FEW100 SCT120 OVC200 16/08 A2982 RMK AO2 SLP082 T01560083

2010/08/10 10:53
KGFK 101053Z 14005KT 10SM SCT250 21/19 A2989 RMK AO2 SLP115 T02060189

2010/08/10 10:53
KGLD 101053Z AUTO 29006KT 10SM CLR 19/18 A3000 RMK AO2 SLP107 T01890178

2010/08/10 10:53
KGLH 101053Z AUTO 16004KT 10SM CLR 24/23 A2994 RMK AO2 SLP143 T02390233 $

2010/08/10 10:53
KGLR 101053Z AUTO 00000KT 6SM BR BKN009 OVC015 22/21 A3001 RMK AO2 CIG 007V013 SLP153 T02170206

2010/08/10 10:53
KGMU 101053Z 00000KT 6SM HZ CLR 24/21 A3006 RMK AO2 SLP168 T02440211

2010/08/10 10:53
KGRB 101053Z AUTO 01005KT 1/4SM FG VV001 22/21 A2997 RMK AO2 SLP146 T02170211 TSNO RVRNO

2010/08/10 10:53
KGRI 101053Z AUTO 08004KT 10SM CLR 20/18 A2988 RMK AO2 SLP098 T02000183

2010/08/10 10:53
KGRR 101053Z 00000KT 1/8SM FG VV001 21/21 A3000 RMK AO2 SLP152 T02060206

2010/08/10 10:53
KGSH 101053Z AUTO 00000KT 2SM BR CLR 21/21 A2999 RMK AO2 SLP149 T02110206

2010/08/10 10:53
KGSP 101053Z 00000KT 7SM CLR 23/22 A3004 RMK AO2 SLP160 T02280217

2010/08/10 10:53
KGUP 101053Z AUTO 00000KT 10SM CLR 12/09 A3024 RMK AO2 SLP096 T01170094

2010/08/10 10:53
KGUY 101053Z AUTO 22007KT 10SM CLR 22/17 A2997 RMK AO2 SLP093 T02220172

2010/08/10 10:53
KPAH 101053Z AUTO 00000KT 3SM BR CLR 24/24 A2993 RMK AO2 SLP130 T02440239

2010/08/10 10:53
KPBF 101053Z AUTO 00000KT 9SM CLR 25/23 A2993 RMK AO2 SLP132 T02500233

2010/08/10 10:53
KPDK 101053Z 00000KT 10SM CLR 24/21 A3005 RMK AO2 SLP152 T02390206

2010/08/10 10:53
KPDT 101053Z AUTO 25003KT 10SM CLR 15/07 A2987 RMK AO2 SLP100 T01500072

2010/08/10 10:53
KPDX 101053Z 33004KT 10SM OVC029 14/11 A2998 RMK AO2 SLP150 T01440106

2010/08/10 10:53
KPGA 101053Z AUTO 00000KT 10SM FEW100 21/03 A3005 RMK AO2 SLP108 T02060033

2010/08/10 10:53
KPIR 101053Z AUTO 04005KT 10SM -RA BKN038 OVC070 21/19 A2979 RMK AO2 LTG DSNT N AND NE TSE05 PRESFR SLP073 P0005 T02060194

2010/08/10 10:53
KPKD 101053Z AUTO 09003KT 10SM CLR 19/18 A2996 RMK AO2 SLP137 T01940178

2010/08/10 10:53
KPMD 101053Z AUTO 00000KT 10SM CLR 16/03 A2991 RMK AO2 SLP100 T01610033

2010/08/10 10:53
KPNC 101053Z AUTO 17004KT 10SM CLR 28/21 A2989 RMK AO2 SLP105 T02780206

2010/08/10 10:53
KPOF 101053Z AUTO 00000KT 7SM CLR 24/24 A2993 RMK AO2 SLP128 T02440239

2010/08/10 10:53
KPRB 101053Z AUTO A2989 RMK AO2 SLPNO PWINO FZRANO TSNO

2010/08/10 10:53
KPRC 101053Z AUTO 21006KT 10SM SCT095 17/08 A3011 RMK AO2 SLP111 T01720078

2010/08/10 10:53
KPSC 101053Z AUTO 21005KT 10SM CLR 17/10 A2984 RMK AO2 SLP100 T01720100

2010/08/10 10:55
KPSO 101055Z AUTO 00000KT 10SM BKN095 10/06 A3033 RMK AO2

2010/08/10 10:53
KPUW 101053Z AUTO 00000KT 10SM CLR 14/07 A2988 RMK AO2 SLP105 T01440067

2010/08/10 10:50
KMLE 101050Z AUTO 15003KT 10SM CLR 26/22 A2986 RMK AO2 T02550219

2010/08/10 10:52
KMLI 101052Z 06012KT 10SM -TSRA SCT026 24/22 A2993 RMK AO2 LTG DSNT ALQDS TSB05E20B21RAB13 SLP128 P0073 T02390222 $

2010/08/10 10:49
KMMH 101049Z AUTO 00000KT 10SM CLR 06/00 A3016 RMK AO1

2010/08/10 10:53
KMSY 101053Z 00000KT 9SM FEW250 26/25 A2993 RMK AO2 SLP138 T02560250

2010/08/10 10:52
KMWH 101052Z AUTO 27008KT 10SM FEW075 17/08 A2983 RMK AO2 SLP093 T01670083

2010/08/10 10:50
KMYR 101050Z 00000KT 10SM SCT025 26/24 A3005

2010/08/10 10:53
KNEW 101053Z AUTO 03006KT 9SM SCT014 29/26 A2994 RMK AO2 SLP131 T02890256 TSNO

2010/08/10 10:55
KOAJ 101055Z AUTO 23004KT 7SM CLR 23/23 A3003 RMK AO1

2010/08/10 10:50
KOJA 101050Z AUTO 21007KT 10SM CLR 26/20 A2991 RMK AO2

2010/08/10 10:52
KOKB 101052Z AUTO 00000KT 9SM OVC013 16/13 A2990 RMK AO2 SLP123 T01610128 $

2010/08/10 10:48
KWWR 101048Z AUTO 22004KT 10SM CLR 23/19 A2995 RMK AO2 T02290190

2010/08/10 10:52
KOKC 101052Z 16005KT 10SM FEW200 24/21 A2990 RMK AO2 SLP107 T02390211 $

2010/08/10 10:52
KOMA 101052Z 15005KT 10SM FEW090 SCT250 27/23 A2986 RMK AO2 SLP100 T02670228

2010/08/10 10:52
KORE 101052Z AUTO 00000KT M1/4SM FG VV005 20/20 A2994 RMK AO2 SLP134 T02000200

2010/08/10 10:50
KORS 101050Z AUTO 19008KT 10SM OVC034 14/11 A2991 RMK AO2

2010/08/10 10:50
KPLU 101050Z AUTO 00000KT 10SM OVC009 13/12 A2995 RMK AO2

2010/08/10 10:52
KPPF 101052Z AUTO 00000KT 10SM CLR 25/21 A2992 RMK AO2 SLP120 T02500211

2010/08/10 10:53
KPQL 101053Z 00000KT 3SM BR CLR 25/24 A2993 RMK AO2 SLP137 T02500244

2010/08/10 10:53
KPSX 101053Z AUTO 08003KT 9SM FEW070 28/26 A2990 RMK AO2 RAB21E42 SLP124 P0001 T02780261

2010/08/10 10:50
KPTS 101050Z AUTO 18003KT 10SM CLR 25/22 A2992 RMK AO2 T02480220

2010/08/10 10:52
KPWK 101052Z 00000KT 7SM CLR 24/22 A2998 RMK AO2 SLP145 T02390222

2010/08/10 10:52
KPYM 101052Z AUTO 22004KT 4SM HZ OVC070 23/20 A2992 RMK AO2 RAE29 SLP129 P0001 T02280200

2010/08/10 10:52
KRAP 101052Z AUTO 19004KT 10SM OVC110 21/17 A2986 RMK AO2 RAB06E15 SLP086 P0000 T02060167

2010/08/10 10:53
KRKP 101053Z AUTO 00000KT 10SM FEW060 27/26 A2988 RMK AO2 SLP121 T02720256

2010/08/10 10:51
KRKR 101051Z AUTO 00000KT 10SM CLR 26/25 A2992 RMK AO2

2010/08/10 10:53
KSAT 101053Z 20006KT 10SM FEW016 SCT024 27/24 A2993 RMK AO2 SLPNO T02670239

2010/08/10 10:52
KSGF 101052Z 18004KT 10SM CLR 24/23 A2996 RMK AO2 SLP129 T02440228

2010/08/10 10:53
KSNL 101053Z AUTO 16007KT 10SM CLR 27/20 A2992 RMK AO2

2010/08/10 10:55
KSOP 101055Z AUTO 25003KT 4SM SCT002 24/23 A3003 RMK AO1

2010/08/10 10:52
KSPI 101052Z 17004KT 10SM CLR 24/22 A2993 RMK AO2 SLP129 T02440222

2010/08/10 10:52
KSPS 101052Z 20005KT 10SM FEW200 24/19 A2991 RMK AO2 SLP111 P0007 T02390189

2010/08/10 10:50
KSRE 101050Z AUTO 14004KT 10SM CLR 25/20 A2992 RMK AO2

2010/08/10 10:53
KSSF 101053Z AUTO 00000KT 10SM BKN014 27/24 A2992 RMK AO2 SLP116 T02670239

2010/08/10 10:52
KSUX 101052Z 32015G23KT 8SM -RA FEW011 BKN036 OVC048 23/21 A2988 RMK AO2 WSHFT 1038 LTG DSNT E RAB40 SLP110 P0003 T02330211

2010/08/10 10:45
KSVC 101045Z AUTO 35009KT 10SM CLR 18/09 A3014 RMK AO2

2010/08/10 10:52
KTAN 101052Z AUTO 00000KT 4SM BR SCT060 BKN080 21/21 A2990 RMK AO2 RAE26 SLP122 P0001 T02110211

2010/08/10 10:54
KTMK 101054Z AUTO 00000KT 10SM OVC024 13/13 A3000 RMK AO2

2010/08/10 10:52
KTOL 101052Z 00000KT M1/4SM FG BKN001 OVC005 21/21 A2997 RMK AO2 TWR VIS 1/2 SLP143 T02110211 RVRNO

2010/08/10 10:52
KTRM 101052Z AUTO 32006KT 10SM CLR 23/08 A2972 RMK AO2 SLP077 T02330083

2010/08/10 10:55
KUDG 101055Z 00000KT 3SM CLR 23/21 A3005 RMK AO1

2010/08/10 10:52
KUGN 101052Z 00000KT 1/4SM FG CLR 21/19 A2997 RMK AO2 SLP134 T02060194

2010/08/10 10:53
KUTS 101053Z AUTO 22003KT 1 1/4SM BR CLR 26/23 A2993 RMK AO2 SLP127 T02560233

2010/08/10 10:52
KVTN 101052Z AUTO VRB03KT 10SM CLR 18/18 A2985 RMK AO2 SLP084 T01830178

2010/08/10 10:54
KWDG 101054Z AUTO 19010KT 10SM CLR 25/21 A2990 RMK AO2

2010/08/10 10:50
K2G4 101050Z AUTO 25005KT 10SM SCT120 20/15 A3011 RMK AO1

2010/08/10 10:51
K2W6 101051Z AUTO 22004KT 10SM CLR 24/22 A2997 RMK AO1

2010/08/10 10:52
KABI 101052Z 19006KT 10SM CLR 27/19 A2996 RMK AO2 SLP113 T02670189

2010/08/10 10:53
KRNM 101053Z AUTO 00000KT 1/2SM FG BKN001 OVC009 10/09 A2991 RMK AO2 SLP116 T01000089 TSNO 

2010/08/10 10:53
KELY 101053Z AUTO 19009KT 10SM CLR 11/M03 A3013 RMK AO2 SLP108 T01111033 

2010/08/10 10:53
KCHA 101053Z 00000KT 10SM SCT150 BKN250 26/23 A3002 RMK AO2 SLP155 T02560233 

2010/08/10 10:53
KCPS 101053Z 00000KT 6SM BR CLR 24/24 A2993 RMK AO2 SLP131 T02440239

2010/08/10 10:51
KCRP 101051Z 15003KT 10SM FEW017 26/25 A2988 RMK AO2 SLP116 T02610250

2010/08/10 10:53
KCRQ 101053Z 00000KT 10SM OVC009 18/14 A2989 RMK AO2 SLP120 T01780139

2010/08/10 10:53
KCSV 101053Z AUTO 00000KT 6SM HZ BKN070 23/21 A3008 RMK AO2 SLP162 T02330206

2010/08/10 10:50
KCWA 101050Z 00000KT 10SM SKC 18/17 A3002

2010/08/10 10:51
KDAG 101051Z AUTO 26009KT 10SM CLR 21/M02 A2987 RMK AO2 SLP085 T02111022 TSNO

2010/08/10 10:53
KDAN 101053Z AUTO 00000KT 3SM BR CLR 22/21 A3001 RMK AO2 SLP151 T02220206

2010/08/10 10:53
KDBQ 101053Z 00000KT 4SM BR SCT030 BKN035 BKN070 23/23 A2998 RMK AO2 LTG DSNT S SLP145 T02330228

2010/08/10 10:53
KDCU 101053Z AUTO 00000KT 4SM BR CLR 24/22 A2999 RMK AO2 SLP148 T02440222

2010/08/10 10:53
KDEW 101053Z AUTO 00000KT 10SM FEW013 BKN085 OVC110 14/09 A2983 RMK AO2 RAB29E51 SLP089 P0002 T01390094

2010/08/10 10:53
KDHT 101053Z AUTO 17005KT 10SM BKN120 22/17 A3006 RMK AO2 SLP109 T02170172

2010/08/10 10:53
KDLS 101053Z AUTO 29005KT 10SM CLR 17/09 A2989 RMK AO2 SLP119 T01670089

2010/08/10 10:53
KDMO 101053Z AUTO 00000KT 10SM CLR 26/23 A2994 RMK AO2 SLP129 T02610233

2010/08/10 10:52
KFDK 101052Z AUTO 15003KT 4SM BR CLR 23/22 A2997 RMK AO2

2010/08/10 10:53
KDNL 101053Z AUTO 13003KT 10SM CLR 24/22 A3003 RMK AO2 SLP162 T02390222 $

2010/08/10 10:53
KDVT 101053Z 03006KT 10SM SCT110 28/09 A2983 RMK AO2 SLP074 T02830089

2010/08/10 10:55
KDYB 101055Z AUTO 00000KT 10SM CLR 23/23 A3001 RMK AO1

2010/08/10 10:53
KEET 101053Z AUTO 00000KT 7SM FEW085 26/22 A2999 RMK AO2 SLP145 T02560222

2010/08/10 10:53
KELN 101053Z AUTO 32011KT 10SM CLR 14/08 A2986 RMK AO2 SLP103 T01440078

2010/08/10 10:53
KLLQ 101053Z AUTO 00000KT 10SM FEW090 25/23 A2995 RMK AO2 SLP138 T02500233

2010/08/10 10:53
KLSE 101053Z 11003KT 1/4SM FG OVC002 22/22 A2996 RMK AO2 SLP134 T02220222

2010/08/10 10:53
KLVS 101053Z AUTO 03004KT 10SM CLR 11/10 A3025 RMK AO2 SLP137 T01110100

2010/08/10 10:53
KLWD 101053Z AUTO 11007KT 10SM CLR 23/21 A2995 RMK AO2 SLP129 T02280211

2010/08/10 10:53
KMAE 101053Z AUTO 29006KT 10SM CLR 16/14 A2981 RMK AO2 SLP090 T01610139

2010/08/10 10:53
KMCI 101053Z 16007KT 10SM CLR 25/22 A2991 RMK AO2 SLP114 T02500217 $

2010/08/10 10:53
KMCW 101053Z AUTO 17008KT 3SM -RA BR OVC003 24/24 A2997 RMK AO2 LTG DSNT SW AND W SLP133 P0001 T02440239

2010/08/10 10:53
KMEM 101053Z 19005KT 10SM FEW250 26/24 A2995 RMK AO2 SLP136 T02610244

2010/08/10 10:55
KMEZ 101055Z AUTO 00000KT 7SM CLR 23/22 A2997 RMK AO2

2010/08/10 10:53
KMFR 101053Z AUTO 00000KT 10SM CLR 17/10 A2992 RMK AO2 SLP119 T01670100

2010/08/10 10:53
KMGW 101053Z 00000KT 6SM HZ BKN050 BKN100 21/18 A3002 RMK AO2 SLP154 T02110178

2010/08/10 10:53
KMHE 101053Z AUTO 35008KT 10SM -RA OVC033 22/19 A2979 RMK AO2 PRESFR SLP076 P0013 T02220194 TSNO

2010/08/10 10:53
KMIC 101053Z AUTO 00000KT 7SM CLR 23/22 A2993 RMK AO2 SLP128 T02330217

2010/08/10 10:53
KMIW 101053Z AUTO 25013KT 10SM TS CLR 23/21 A2998 RMK AO2 LTG DSNT ALQDS TSB03E20B43RAB0956E0959 SLP142 P0000 T02280211 $

2010/08/10 10:53
KMKL 101053Z AUTO 00000KT 4SM BR CLR 25/24 A2996 RMK AO2 SLP139 T02500239

2010/08/10 10:53
KMLP 101053Z AUTO 20003KT 10SM CLR 11/05 A2998 RMK AO2 SLP063 T01060050 TSNO

2010/08/10 10:53
KMMV 101053Z AUTO 25005KT 10SM BKN023 11/10 A2999 RMK AO2 SLP154 T01110100

2010/08/10 10:53
KMSL 101053Z AUTO 00000KT 2SM BR SCT001 24/23 A3000 RMK AO2 SLP151 T02390228

2010/08/10 10:53
KMSP 101053Z 13007KT 6SM BR FEW150 SCT200 24/22 A2994 RMK AO2 SLP133 T02390222

2010/08/10 10:53
KMTO 101053Z AUTO 00000KT 5SM BR CLR 24/23 A2995 RMK AO2 SLP134 T02390228

2010/08/10 10:53
KMYF 101053Z AUTO 25003KT 10SM OVC009 17/14 A2990 RMK AO2 SLP122 T01720144 TSNO

2010/08/10 10:53
KMYV 101053Z AUTO 17004KT 10SM CLR 16/12 A2981 RMK AO2 SLP098 T01560117

2010/08/10 10:53
KOAK 101053Z 00000KT 10SM OVC006 14/12 A2990 RMK AO2 SLP122 T01440117

2010/08/10 10:53
KODX 101053Z AUTO 18003KT 10SM SCT100 19/19 A2985 RMK AO2 SLP095 T01940189

2010/08/10 10:53
KUNO 101053Z AUTO 00000KT 5SM BR CLR 23/22 A2998 RMK AO2 SLP135 T02330222

2010/08/10 10:53
KVGT 101053Z AUTO 00000KT 10SM CLR 24/02 A2986 RMK AO2 SLP075 T02390017 TSNO

2010/08/10 10:53
KVIH 101053Z AUTO 20005KT 10SM CLR 25/23 A2996 RMK AO2 SLP129 T02500228 $

2010/08/10 10:53
KVPC 101053Z AUTO 00000KT 7SM SCT095 24/22 A3003 RMK AO2 SLP155 T02440222

2010/08/10 10:53
KVPZ 101053Z AUTO 19003KT 3SM BR CLR 23/22 A2997 RMK AO2 SLP143 T02280217

2010/08/10 10:53
KVUO 101053Z AUTO 32003KT 10SM OVC030 14/11 A2997 RMK AO2 SLP150 T01440106

2010/08/10 10:52
KW29 101052Z AUTO 24006KT 10SM CLR 26/21 A2993 RMK AO1

2010/08/10 10:53
KXNA 101053Z 00000KT 10SM CLR 23/21 A2997 RMK AO2 SLP129 T02280211

2010/08/10 10:53
KYKM 101053Z AUTO 30009KT 10SM CLR 17/08 A2986 RMK AO2 SLP103 T01670078

2010/08/10 10:53
PADQ 101053Z 19005KT 10SM SCT022 OVC200 12/08 A2978 RMK SLP083 T01220083

2010/08/10 10:52
PATA 101052Z AUTO 00000KT 10SM FEW095 BKN120 12/12 A2963 RMK AO2 SLP034 T01220117 TSNO

2010/08/10 10:53
PHJR 101053Z AUTO VRB05KT 10SM FEW055 25/18 A3010 RMK AO2 SLP197 T02500178 TSNO

2010/08/10 10:50
KPMV 101050Z AUTO 14005KT 10SM CLR 26/23 A2986 RMK AO2 T02560227

2010/08/10 10:53
KAAF 101053Z AUTO 04007KT 10SM FEW021 SCT031 26/24 A2989 RMK AO2 RAB33E45 SLP122 P0000 T02560244

2010/08/10 10:53
KABY 101053Z 08004KT 10SM CLR 25/24 A2999 RMK AO2 SLP154 T02500239

2010/08/10 10:53
KACK 101053Z 00000KT 4SM BR BKN005 22/21 A2992 RMK AO2 SLP133 P0001 T02170206

2010/08/10 10:53
KACV 101053Z AUTO 17006KT 8SM OVC003 11/10 A2990 RMK AO2 SLP130 T01060100

2010/08/10 10:53
KADG 101053Z AUTO 00000KT 1/4SM FG VV001 20/19 A2999 RMK AO2 SLP151 T02000189

2010/08/10 10:53
KAFW 101053Z 00000KT 10SM CLR 26/21 A2991 RMK AO2 SLP110 T02610206 $

2010/08/10 10:53
KAGC 101053Z 17006KT 4SM BR BKN047 OVC065 21/19 A2999 RMK AO2 SLP149 T02110194

2010/08/10 10:53
KAIA 101053Z AUTO 27005KT 10SM CLR 14/14 A2997 RMK AO2 SLP105 T01440139

2010/08/10 10:53
KAKO 101053Z AUTO 26008KT 9SM OVC002 17/16 A3006 RMK AO2 SLP116 T01670161 TSNO

2010/08/10 10:53
KAMG 101053Z AUTO 00000KT 6SM BR CLR 24/23 A2999 RMK AO2 SLP152 T02390228

2010/08/10 10:53
KAOH 101053Z AUTO 00000KT 2 1/2SM BR BKN038 BKN055 23/22 A2999 RMK AO2 SLP145 T02280217

2010/08/10 10:53
KAPA 101053Z 18004KT 10SM CLR 15/11 A3014 RMK AO2 SLP140 T01500106

2010/08/10 10:53
KAPF 101053Z 09009KT 10SM FEW008 25/24 A2983 RMK AO2 LTG DSNT S SLP100 T02500239

2010/08/10 10:53
KARB 101053Z AUTO 00000KT M1/4SM FG VV001 17/17 A2998 RMK AO2 SLP147 T01720172

2010/08/10 10:53
KASE 101053Z AUTO 20005KT 10SM SCT100 09/06 A3031 RMK AO2 SLP159 T00890056 $

2010/08/10 10:53
KAUG 101053Z AUTO 00000KT 10SM CLR 21/17 A2989 RMK AO2 SLP119 T02060172

2010/08/10 10:53
KBAF 101053Z 00000KT 3SM BR SCT090 22/21 A2993 RMK AO2 SLP131 T02170206

2010/08/10 10:53
KBBW 101053Z AUTO 00000KT 10SM CLR 19/18 A2988 RMK AO2 SLP094 T01890183

2010/08/10 10:53
KBCE 101053Z AUTO 28009KT 10SM FEW090 05/02 A3028 RMK AO2 SLP154 T00500022

2010/08/10 10:53
KBGM 101053Z 00000KT 1SM BR OVC060 20/19 A3001 RMK AO2 SLP150 T02000194 RVRNO

2010/08/10 10:53
KBGR 101053Z 23003KT 9SM CLR 19/18 A2986 RMK AO2 SLP109 T01940183

2010/08/10 10:53
KBHK 101053Z AUTO 19008KT 10SM -RA SCT080 BKN100 18/16 A2986 RMK AO2 RAB02E14B38 SLP079 P0000 T01830161

2010/08/10 10:53
KBIL 101053Z 22010KT 10SM CLR 14/12 A2991 RMK AO2 SLP108 T01390122

2010/08/10 10:53
KBKL 101053Z 35003KT 4SM BR CLR 25/23 A2995 RMK AO2 SLP136 T02500233

2010/08/10 10:53
KBKV 101053Z AUTO 09004KT 10SM BKN010 24/23 A2990 RMK AO2 SLP123 T02440228

2010/08/10 10:53
KBMG 101053Z 00000KT 2 1/2SM BR CLR 22/21 A2996 RMK AO2 SLP137 T02170211

2010/08/10 10:53
KBOI 101053Z 20003KT 10SM CLR 18/13 A2984 RMK AO2 SLP075 T01780128

2010/08/10 10:53
KBPI 101053Z AUTO 00000KT 10SM BKN110 05/02 A3021 RMK AO2 SLP149 T00500022 TSNO

2010/08/10 10:53
KBTM 101053Z AUTO 09005KT 10SM FEW075 BKN110 13/07 A3002 RMK AO2 RAE0957 SLP112 P0000 T01330067

2010/08/10 10:53
KBVY 101053Z 27004KT 4SM BR CLR 22/21 A2989 RMK AO2 SLP116 T02170206

2010/08/10 10:53
KOVE 101053Z AUTO 00000KT 10SM CLR 18/13 A2983 RMK AO2 SLP103 T01780128 TSNO $ 

2010/08/10 10:52
KPLN 101052Z AUTO 00000KT 1 1/4SM BR OVC017 22/21 A2998 RMK AO2

2010/08/10 10:53
KMKG 101053Z 00000KT 1/4SM FG OVC002 20/19 A2999 RMK AO2 TWR VIS 1/4

2010/08/10 10:53
KSLE 101053Z AUTO 00000KT 10SM BKN018 BKN042 12/09 A2997 RMK AO2 TSNO

2010/08/10 10:53
KTLH 101053Z 06006KT 10SM FEW013 26/23 A2994 RMK AO2 SLP136 T02560233 

2010/08/10 10:53
KTCS 101053Z AUTO 33004KT 10SM CLR 21/11 A3008 RMK AO2 SLP095 T02060111 TSNO 

2010/08/10 10:53
KHTL 101053Z AUTO 03005KT 5SM BR OVC005 21/21 A3001 RMK AO2 CIG 003V008 SLP157 T02110206 

2010/08/10 10:53
KLXV 101053Z AUTO 10003KT 10SM CLR 03/03 A3044 RMK AO2 SLP173 T00330028 TSNO 

2010/08/10 10:53
KNIP 101053Z 11010KT 10SM FEW012 SCT250 27/24 A2995 RMK AO2 SLP136 T02670239 

2010/08/10 10:53
KABR 101053Z AUTO 15005KT 10SM BKN018 BKN024 OVC050 24/22 A2985 RMK AO2 SLP097 T02390222

2010/08/10 10:47
KADS 101047Z 18006KT 13SM SKC 29/21 A2992

2010/08/10 10:53
KAGS 101053Z 00000KT 3SM BR CLR 22/21 A3001 RMK AO2 SLP162 T02170211

2010/08/10 10:53
KALW 101053Z AUTO 20008KT 10SM CLR 17/08 A2988 RMK AO2 SLP111 T01670083

2010/08/10 10:53
KAMA 101053Z 20007KT 10SM CLR 19/17 A3003 RMK AO2 SLP111 T01940167

2010/08/10 10:53
KAMW 101053Z AUTO 06011G22KT 10SM TS FEW012 OVC055 22/21 A2996 RMK AO2 LTG DSNT ALQDS RAE53 SLP136 P0019 T02220206

2010/08/10 10:53
KANB 101053Z AUTO 06004KT 6SM HZ CLR 25/21 A3001 RMK AO2 SLP148 T02500211

2010/08/10 10:53
KAOO 101053Z AUTO 22004KT 6SM HZ OVC110 22/18 A3002 RMK AO2 SLP152 T02170183

2010/08/10 10:48
KASG 101048Z 14005KT 10SM SKC 24/22 A2998

2010/08/10 10:53
KASX 101053Z AUTO 00000KT 3SM BR CLR 18/18 A2998 RMK AO2 SLP149 T01780178

2010/08/10 10:53
KATY 101053Z AUTO 00000KT 10SM OVC007 24/23 A2991 RMK AO2 LTG DSNT S AND SW CIG 005V010 SLP113 T02390228

2010/08/10 10:53
KAWM 101053Z AUTO 19005KT 9SM CLR 26/25 A2993 RMK AO2 SLP129 T02560250

2010/08/10 10:53
KAXN 101053Z AUTO 10005KT 6SM BR CLR 21/20 A2995 RMK AO2 SLP133 T02110200 $

2010/08/10 10:53
KAZO 101053Z 00000KT 1/2SM FG VV002 20/19 A3000 RMK AO2 SLP154 T02000194

2010/08/10 10:53
KBDE 101053Z AUTO 21004KT 10SM CLR 19/19 A2992 RMK AO2 SLP126 T01940189

2010/08/10 10:53
KBEH 101053Z AUTO 00000KT 9SM CLR 20/19 A2998 RMK AO2 SLP146 T02000194

2010/08/10 10:53
KBFD 101053Z AUTO 00000KT 2 1/2SM BR BKN050 OVC055 19/18 A3003 RMK AO2 SLP153 T01890183

2010/08/10 10:53
KBFF 101053Z AUTO 12005KT 10SM CLR 15/14 A2998 RMK AO2 SLP106 T01500144

2010/08/10 10:53
KBFI 101053Z 19006KT 10SM OVC015 14/11 A2995 RMK AO2 SLP142 T01390111

2010/08/10 10:53
KBHM 101053Z 00000KT 9SM CLR 26/23 A3000 RMK AO2 SLP148 T02610228

2010/08/10 10:53
KBIV 101053Z AUTO 00000KT 1/4SM FG VV001 21/19 A3001 RMK AO2 SLP157 T02060189

2010/08/10 10:53
KBKE 101053Z AUTO 23005KT 10SM SCT085 12/09 A2991 RMK AO2 RAB02E15 SLP108 P0000 T01170094

2010/08/10 10:53
KBLI 101053Z AUTO 17005KT 10SM BKN010 OVC040 14/12 A2993 RMK AO2 SLP141 T01440122

2010/08/10 10:53
KBNA 101053Z 18004KT 6SM BR FEW047 BKN200 25/23 A2999 RMK AO2 SLP148 T02500233

2010/08/10 10:55
KBOW 101055Z AUTO 09004KT 10SM CLR 23/23 A2990 RMK AO2

2010/08/10 10:53
KBPK 101053Z AUTO 00000KT 6SM BR CLR 25/24 A2995 RMK AO2 SLP128 T02500239

2010/08/10 10:53
KBRD 101053Z AUTO 00000KT 3/4SM BR CLR 19/17 A2996 RMK AO2 SLP138 T01890172

2010/08/10 10:53
KBRL 101053Z AUTO 03004KT 10SM CLR 26/22 A2993 RMK AO2 SLP128 T02560222

2010/08/10 10:53
KBTL 101053Z 00000KT 1/4SM FG OVC001 19/19 A3001 RMK AO2 SLP157 T01940194

2010/08/10 10:53
KBUR 101053Z AUTO 13003KT 6SM BR CLR 15/13 A2989 RMK AO2 SLP111 T01500128 TSNO

2010/08/10 10:51
KBVE 101051Z AUTO 00000KT CLR 26/25 A2993 RMK AO2 SLP134 T02560250 TSNO $

2010/08/10 10:53
KBVO 101053Z AUTO 00000KT 10SM CLR 23/22 A2991 RMK AO2 SLP114 T02280217

2010/08/10 10:53
KBWG 101053Z AUTO 00000KT 4SM BR CLR 25/23 A2997 RMK AO2 SLP142 T02500233

2010/08/10 10:51
KCAK 101051Z 27003KT 5SM HZ FEW035 BKN100 22/19 A2998 RMK AO2 SLP143 T02170189

2010/08/10 10:52
KCBE 101052Z AUTO 00000KT 5SM CLR 19/18 A3004 RMK AO1

2010/08/10 10:55
KCDN 101055Z AUTO 00000KT 1SM BR OVC003 24/24 A3004 RMK A02 P000

2010/08/10 10:49
KCGE 101049Z AUTO 00000KT 10SM CLR 25/24 A2996 RMK AO1

2010/08/10 10:53
KCGI 101053Z AUTO 13003KT 7SM CLR 24/23 A2993 RMK AO2 SLP131 T02390233 TSNO

2010/08/10 10:55
KCGS 101055Z AUTO 00000KT 7SM CLR 25/22 A2994 RMK AO1

2010/08/10 10:55
KCKI 101055Z AUTO 00000KT 23/23 A3002 RMK AO2 PWINO

2010/08/10 10:53
KCLM 101053Z AUTO 30005KT 7SM OVC003 11/10 A2995 RMK AO2 SLP140 T01110100

2010/08/10 10:53
KCMI 101053Z 07005KT 6SM BR CLR 25/23 A2996 RMK AO2 SLP139 T02500233

2010/08/10 10:53
KCMX 101053Z AUTO 28003KT 4SM BR CLR 16/16 A2997 RMK AO2 SLP146 T01610156 $

2010/08/10 10:53
KCNM 101053Z AUTO 00000KT 10SM CLR 19/16 A2999 RMK AO2 SLP097 T01890156

2010/08/10 10:53
KCNO 101053Z AUTO 00000KT 5SM BR CLR 14/12 A2991 RMK AO2 SLP121 T01440122

2010/08/10 10:53
KP68 101053Z AUTO 18007KT 13/M08 A3007 RMK AO2 SLP101 T01281083 PWINO TSNO 

2010/08/10 10:53
KSGR 101053Z 00000KT 10SM CLR 25/24 A2991 RMK AO2 SLP135 T02500239 

2010/08/10 10:53
KOJC 101053Z AUTO 15003KT 10SM CLR 25/22 A2992 RMK AO2 SLP117 T02500217

2010/08/10 10:53
KOMK 101053Z AUTO 33009KT 10SM BKN090 OVC110 16/10 A2984 RMK AO2 SLP097 T01560100

2010/08/10 10:53
KONT 101053Z 00000KT 5SM HZ CLR 16/12 A2989 RMK AO2 SLP109 T01560122

2010/08/10 10:51
KORF 101051Z 23007KT 10SM FEW040 25/23 A2998 RMK AO2 SLP151 T02500233 $

2010/08/10 10:53
KOSH 101053Z AUTO 00000KT M1/4SM FG VV001 22/21 A2997 RMK AO2 SLP133 T02170206 RVRNO

2010/08/10 10:53
KOTM 101053Z AUTO 08005KT 10SM CLR 22/21 A2995 RMK AO2 SLP135 T02170211

2010/08/10 10:53
KPAE 101053Z AUTO 19010KT 10SM OVC006 13/11 A2995 RMK AO2 SLP141 T01330111

2010/08/10 10:53
KGVL 101053Z AUTO 00000KT 8SM CLR 24/21 A3009 RMK AO2 SLP169 T02440211

2010/08/10 10:53
KGWO 101053Z AUTO 00000KT 4SM BR CLR 23/23 A2995 RMK AO2 SLP141 T02330233

2010/08/10 10:53
KHEI 101053Z AUTO 00000KT 10SM FEW090 19/17 A2982 RMK AO2 SLP071 T01940167

2010/08/10 10:53
KHHR 101053Z AUTO 00000KT 6SM HZ OVC007 16/13 A2990 RMK AO2 SLP125 T01610133 $

2010/08/10 10:53
KHIB 101053Z AUTO 00000KT 1/2SM FG OVC001 15/15 A2998 RMK AO2 SLP149 T01500150

2010/08/10 10:53
KHIO 101053Z AUTO 30004KT 10SM OVC028 12/09 A2998 RMK AO2 SLP149 T01220094 TSNO

2010/08/10 10:53
KHJO 101053Z AUTO 36004KT 10SM CLR 19/14 A2981 RMK AO2 SLP093 T01940139

2010/08/10 10:53
KHKA 101053Z AUTO 00000KT 5SM BR CLR 27/25 A2994 RMK AO2 SLP134 T02670250

2010/08/10 10:53
KHKS 101053Z AUTO 00000KT 10SM CLR 24/23 A2996 RMK AO2 SLP136 T02440233

2010/08/10 10:53
KHKY 101053Z 00000KT 3SM BR CLR 23/22 A3005 RMK AO2 SLP152 T02280222

2010/08/10 10:53
KHLC 101053Z AUTO 00000KT 10SM CLR 21/18 A2992 RMK AO2 SLP102 T02060183 $

2010/08/10 10:53
KHLG 101053Z 19005KT 5SM HZ FEW048 OVC085 22/19 A2999 RMK AO2 SLP149 T02220189

2010/08/10 10:53
KHOT 101053Z AUTO 00000KT 10SM CLR 27/24 A2994 RMK AO2 SLP131 T02670239

2010/08/10 10:53
KHQM 101053Z AUTO 00000KT 3SM BR BKN008 OVC013 13/12 A2996 RMK AO2 CIG 006V011 SLP149 T01280122

2010/08/10 10:53
KHRI 101053Z AUTO 23010KT 10SM CLR 16/09 A2986 RMK AO2 SLP106 T01610094

2010/08/10 10:53
KHRO 101053Z AUTO 27004KT 10SM CLR 26/21 A2998 RMK AO2 SLP132 T02610211

2010/08/10 10:53
KHSI 101053Z AUTO 03003KT 10SM CLR 21/19 A2989 RMK AO2 SLP100 T02060189 $

2010/08/10 10:53
KHSV 101053Z 11004KT 5SM BR FEW250 25/23 A2999 RMK AO2 SLP146 T02500233

2010/08/10 10:53
KHYR 101053Z AUTO 00000KT 6SM BR CLR 16/16 A3000 RMK AO2 SLP152 T01610156

2010/08/10 10:53
KICR 101053Z AUTO 28009KT 10SM CLR 19/18 A2980 RMK AO2 RAE04 SLP073 P0001 T01940178 TSNO $

2010/08/10 10:53
KICT 101053Z 17008KT 10SM SCT200 26/21 A2988 RMK AO2 SLP099 T02560206

2010/08/10 10:53
KILM 101053Z AUTO 00000KT 10SM CLR 25/23 A3002 RMK AO2 SLP165 P0001 T02500233

2010/08/10 10:53
KIXD 101053Z 13005KT 10SM CLR 26/21 A2993 RMK AO2 SLP119 T02610206

2010/08/10 10:53
KJBR 101053Z AUTO 00000KT 9SM CLR 26/24 A2993 RMK AO2 SLP131 T02560239

2010/08/10 10:51
KJCT 101051Z AUTO 00000KT 10SM CLR 26/22 A2996 RMK AO2 SLP104 T02560217 TSNO

2010/08/10 10:53
KJEF 101053Z 00000KT 9SM CLR 26/24 A2993 RMK AO2 SLP119 T02560239

2010/08/10 10:53
KJLN 101053Z AUTO 17004KT 10SM FEW060 24/20 A2994 RMK AO2 SLP125 T02440200 $

2010/08/10 10:55
KJZI 101055Z AUTO 00000KT 10SM CLR 26/26 A3001 RMK A02 P000

2010/08/10 10:53
KLBF 101053Z AUTO 12005KT 10SM CLR 19/19 A2989 RMK AO2 RAE05 SLP093 P0000 T01890189

2010/08/10 10:53
KLGB 101053Z AUTO 29004KT 7SM SCT008 16/13 A2990 RMK AO2 SLP125 T01560133 TSNO

2010/08/10 10:53
KLIT 101053Z 23004KT 7SM FEW075 SCT250 26/24 A2993 RMK AO2 SLP132 T02610244

2010/08/10 10:55
KLKR 101055Z AUTO 00000KT 1 1/4SM BR CLR 20/20 A3004 RMK AO2

2010/08/10 10:53
KEMP 101053Z AUTO 17009KT 10SM CLR 24/20 A2988 RMK AO2 SLP104 T02440200

2010/08/10 10:53
KENW 101053Z AUTO 00000KT 1/4SM FG VV006 20/19 A2998 RMK AO2 SLP145 T02000194

2010/08/10 10:53
KEPH 101053Z AUTO 33009G15KT 10SM OVC075 18/08 A2982 RMK AO2 SLP089 T01830083

2010/08/10 10:53
KEQY 101053Z AUTO 00000KT 3SM BR CLR 22/22 A3004 RMK AO2 SLP170 T02220217

2010/08/10 10:50
KESN 101050Z 23005KT 10SM SKC 25/24 A2997

2010/08/10 10:53
KP92 101053Z AUTO 00000KT 25/24 A2992 RMK AO2 SLP130 T02500244 PWINO TSNO 

2010/08/10 10:53
KBNO 101053Z AUTO 25008KT 10SM CLR 14/04 A2994 RMK AO2 SLP101 T01390039 TSNO 

2010/08/10 10:53
KCXO 101053Z AUTO 00000KT 10SM CLR 23/22 A2991 RMK AO2 SLP125 T02330222

2010/08/10 10:52
KDDC 101052Z AUTO 29005KT 10SM CLR 22/18 A2992 RMK AO2 SLP096 T02170183

2010/08/10 10:52
KDPA 101052Z 34004KT 6SM BR CLR 23/22 A2997 RMK AO2 SLP140 T02280217

2010/08/10 10:53
KDRT 101053Z AUTO 10006KT 10SM OVC022 27/23 A2990 RMK AO2 SLP105 T02720228

2010/08/10 10:52
KDVN 101052Z AUTO 01010KT 9SM -TSRA BKN043 BKN065 23/22 A2994 RMK AO2 PK WND 27030/1009 WSHFT 1003 LTG DSNT ALQDS TSB0954RAB11 SLP131 P0035 T02330217

2010/08/10 10:50
KDVO 101050Z AUTO 00000KT 10SM OVC006 12/12 A2989 RMK AO2

2010/08/10 10:53
KDWH 101053Z AUTO 25003KT 6SM BR CLR 23/23 A2991 RMK AO2 SLP126 T02330228

2010/08/10 10:53
KESF 101053Z AUTO 00000KT 9SM FEW028 SCT043 BKN065 25/24 A2995 RMK AO2 SLP139 T02500239

2010/08/10 10:52
KEST 101052Z AUTO 26005KT 5SM -TSRA BR 22/21 A2995 RMK AO2 LTG DSNT ALQDS TSB37RAB45 SLP131 P0052 T02170206 $

2010/08/10 10:50
KFET 101050Z AUTO 24004KT 10SM SCT090 26/23 A2988 RMK AO2 T02570225

2010/08/10 10:52
KFIT 101052Z AUTO 01003KT 9SM SCT065 22/20 A2993 RMK AO2 SLP132 T02220200

2010/08/10 10:50
KGCD 101050Z AUTO 23003KT 10SM CLR 15/00 A2994 RMK AO2 T01480000

2010/08/10 10:53
KGPT 101053Z AUTO 00000KT 6SM BR CLR 26/24 A2993 RMK AO2 SLP135 T02610244

2010/08/10 10:53
KHBG 101053Z AUTO 00000KT 6SM BR CLR 24/23 A2996 RMK AO2 SLP142 T02440233

2010/08/10 10:50
KHDE 101050Z AUTO 07005KT 10SM CLR 20/19 A2989 RMK AO2 P0002 T02020185

2010/08/10 10:52
KHIE 101052Z AUTO 00000KT 1/2SM FG OVC001 17/17 A2996 RMK AO2 SLP144 T01720172

2010/08/10 10:50
KHJH 101050Z AUTO 32006KT 10SM CLR 23/22 A2987 RMK AO2 T02340215

2010/08/10 10:53
KHOU 101053Z 21003KT 10SM FEW020 SCT250 26/24 A2990 RMK AO2 SLP130 T02610239

2010/08/10 10:52
KHUT 101052Z AUTO 18005KT 10SM CLR 26/20 A2988 RMK AO2 SLP090 T02610200

2010/08/10 10:53
KIAH 101053Z 00000KT 10SM FEW250 27/24 A2991 RMK AO2 SLP128 T02670244

2010/08/10 10:50
KIBM 101050Z AUTO 21005KT 10SM CLR 14/13 A3006 RMK AO2 T01370132

2010/08/10 10:50
KIDP 101050Z AUTO 15004KT 10SM CLR 23/20 A2990 RMK AO2

2010/08/10 10:52
KIEN 101052Z AUTO 00000KT 10SM FEW120 17/16 A2989 RMK AO2 SLP098 T01720156

2010/08/10 10:52
KIJD 101052Z AUTO 00000KT 3SM BR CLR 22/21 A2993 RMK AO2 SLP133 T02170206

2010/08/10 10:52
KIOW 101052Z AUTO 32005KT 10SM -RA FEW050 23/22 A2995 RMK AO2 LTG DSNT E TSB0956E11 SLP134 P0005 T02330222

2010/08/10 10:52
KISN 101052Z VRB04KT 10SM SCT100 21/17 A2978 RMK AO2 RAB0958E09 SLP070 P0000 T02110172

2010/08/10 10:51
KJSV 101051Z AUTO 07003KT 10SM CLR 23/21 A2992 RMK AO2

2010/08/10 10:50
KJYR 101050Z AUTO 02007KT 10SM CLR 23/20 A2987 RMK AO2

2010/08/10 10:50
KLAM 101050Z AUTO 00000KT 10SM OVC110 18/07 A3029 RMK AO2

2010/08/10 10:50
KLCG 101050Z AUTO 01004KT 10SM CLR 21/20 A2988 RMK AO2 LTG DSNT N P0001 T02130202

2010/08/10 10:53
KLBX 101053Z AUTO 00000KT 9SM CLR 25/24 A2991 RMK AO2 SLP129 T02500244

2010/08/10 10:53
KLCH 101053Z AUTO 00000KT 10SM CLR 26/24 A2993 RMK AO2 SLP142 T02560244

2010/08/10 10:53
KLFK 101053Z AUTO 10003KT 10SM CLR 24/23 A2993 RMK AO2 SLP130 T02440233

2010/08/10 10:53
KLFT 101053Z 00000KT 10SM FEW046 24/23 A2993 RMK AO2 SLP136 T02440233

2010/08/10 10:50
KLHM 101050Z AUTO 15006KT 10SM CLR 17/12 A2981 RMK AO1 T01660115

2010/08/10 10:53
KLVJ 101053Z AUTO 00000KT 7SM CLR 26/23 A2992 RMK AO2 SLP132 T02560233

2010/08/10 10:52
KLWC 101052Z AUTO 09004KT 10SM CLR 24/22 A2990 RMK AO2 SLP113 T02390217

2010/08/10 10:50
KLXN 101050Z AUTO 00000KT 10SM CLR 20/19 A2989 RMK AO2 T02010190

2010/08/10 10:53
KMCB 101053Z AUTO 00000KT 6SM BR CLR 23/22 A2996 RMK AO2 SLP140 T02330217

2010/08/10 10:52
KMDH 101052Z AUTO 00000KT 1 1/2SM BR FEW085 24/23 A2994 RMK AO2 SLP134 T02440228 TSNO

2010/08/10 10:52
KMFD 101052Z 00000KT 2 1/2SM BR CLR 22/19 A3000 RMK AO2 SLP147 T02170194

2010/08/10 10:53
KMFE 101053Z AUTO 09003KT 10SM CLR 27/26 A2986 RMK AO2 SLP111 T02720261 $

2010/08/10 10:52
KMHK 101052Z AUTO 00000KT 10SM CLR 26/21 A2984 RMK AO2 SLP091 T02560206

2010/08/10 10:52
KMKE 101052Z 00000KT 3SM BR FEW200 BKN250 21/21 A2997 RMK AO2 SLP144 T02060206

2010/08/10 10:53
KRAC 101053Z AUTO 00000KT 1 1/2SM BR CLR 22/21 A2999 RMK AO2 SLP149 P0001 T02170206

2010/08/10 10:53
KRBG 101053Z AUTO 00000KT 10SM OVC020 14/11 A2997 RMK AO2 SLP146 T01390111

2010/08/10 10:53
KRDD 101053Z AUTO 00000KT 10SM CLR 19/11 A2984 RMK AO2 SLP097 T01940106

2010/08/10 10:53
KRHI 101053Z AUTO 00000KT 10SM CLR 17/15 A3004 RMK AO2 SLP163 T01670150

2010/08/10 10:53
KRMG 101053Z AUTO 00000KT 6SM BR CLR 23/22 A3002 RMK AO2 SLP153 T02330222

2010/08/10 10:53
KRNT 101053Z AUTO 17004KT 9SM OVC012 14/12 A2995 RMK AO2 SLP146 T01390117

2010/08/10 10:53
KRSL 101053Z AUTO 21007KT 10SM CLR 23/20 A2986 RMK AO2 SLP088 T02280200

2010/08/10 10:53
KRUE 101053Z AUTO 00000KT 8SM CLR 26/24 A2993 RMK AO2 SLP127 T02560239

2010/08/10 10:53
KRVS 101053Z 00000KT 10SM CLR 24/22 A2990 RMK AO2 SLP126 T02440217

2010/08/10 10:53
KRWF 101053Z AUTO 12007KT 10SM BKN025 BKN030 24/23 A2991 RMK AO2 PRESRR SLP121 T02390228

2010/08/10 10:53
KRWI 101053Z AUTO 22005KT 2 1/2SM BR BKN002 24/23 A3001 RMK AO2 SLP162 T02390233

2010/08/10 10:53
KSAC 101053Z 16003KT 10SM 13/11 A2982 RMK AO2 SLP098 T01330106 $

2010/08/10 10:53
KSAF 101053Z AUTO 02008KT 10SM CLR 14/09 A3021 RMK AO2 SLP125 T01390089

2010/08/10 10:51
KSAN 101051Z 00000KT 10SM OVC015 18/14 A2991 RMK AO2 SLP129 T01780139

2010/08/10 10:53
KSBA 101053Z AUTO 09006KT 6SM BR OVC002 14/13 A2988 RMK AO2 SLP119 T01390133

2010/08/10 10:53
KSBM 101053Z AUTO 00000KT 3/4SM BR CLR 21/20 A2998 RMK AO2 SLP146 T02060200

2010/08/10 10:53
KSDL 101053Z 00000KT 10SM FEW110 29/12 A2985 RMK AO2 SLP078 T02890122

2010/08/10 10:53
KSEA 101053Z 21005KT 7SM BKN006 OVC011 13/11 A2996 RMK AO2 CIG 004V009 SLP150 T01280111

2010/08/10 10:53
KSFF 101053Z AUTO VRB03KT 10SM FEW075 SCT090 17/08 A2982 RMK AO2 SLP082 T01720083

2010/08/10 10:53
KSHN 101053Z AUTO 21005KT 7SM BKN007 OVC011 12/11 A2994 RMK AO2 CIG 006V010 SLP138 T01170106

2010/08/10 10:53
KSJC 101053Z AUTO 11005KT 10SM CLR 13/11 A2988 RMK AO2 SLP117 T01330106

2010/08/10 10:53
KSLN 101053Z 18007KT 10SM CLR 27/21 A2984 RMK AO2 SLP087 T02670206

2010/08/10 10:53
KSMF 101053Z 16008KT 10SM CLR 14/11 A2981 RMK AO2 SLP093 T01390111

2010/08/10 10:53
KSNA 101053Z 00000KT 8SM OVC009 17/14 A2990 RMK AO2 CIG 007V012 SLP124 T01720139

2010/08/10 10:55
KSPA 101055Z AUTO 00000KT 4SM BR CLR 22/22 A3004 RMK AO2

2010/08/10 10:53
KSPB 101053Z AUTO 00000KT 10SM OVC030 12/11 A2997 RMK AO2 SLP148 T01170106

2010/08/10 10:53
KSPW 101053Z AUTO 13013G17KT 3SM -TSRA BR FEW006 BKN015 OVC070 22/21 A2989 RMK AO2 WSHFT 1023 LTG DSNT ALQDS SLP113 P0045 T02170211

2010/08/10 10:53
KSTC 101053Z AUTO 11003KT 5SM BR CLR 20/19 A2993 RMK AO2 SLP137 T02000194 $

2010/08/10 10:53
KSTJ 101053Z AUTO 13003KT 10SM CLR 26/21 A2989 RMK AO2 SLP112 T02610211

2010/08/10 10:53
KSTP 101053Z 14004KT 8SM CLR 23/22 A2995 RMK AO2 SLP135 T02330217

2010/08/10 10:53
KSTS 101053Z AUTO 17003KT 6SM BR OVC002 11/10 A2987 RMK AO2 SLP109 T01110100

2010/08/10 10:53
KTCC 101053Z AUTO 22007KT 10SM -RA FEW032 BKN110 23/17 A3004 RMK AO2 RAB40 SLP101 P0000 T02280172

2010/08/10 10:53
KTCL 101053Z AUTO 06003KT 4SM BR CLR 26/24 A2996 RMK AO2 SLP142 T02610239

2010/08/10 10:53
KTIW 101053Z 22004KT 7SM OVC006 12/11 A2996 RMK AO2 SLP143 T01220111

2010/08/10 10:53
KTOI 101053Z AUTO 00000KT 7SM CLR 23/22 A2999 RMK AO2 SLP148 T02330217

2010/08/10 10:53
KTOP 101053Z AUTO 11004KT 10SM CLR 27/21 A2988 RMK AO2 SLP106 T02670211

2010/08/10 10:53
KTTD 101053Z VRB03KT 10SM OVC017 14/11 A2996 RMK AO2 SLP146 T01440111

2010/08/10 10:53
KTUL 101053Z 16006KT 10SM CLR 28/20 A2990 RMK AO2 SLP112 T02830200

2010/08/10 10:53
KTUS 101053Z AUTO 17006KT 10SM CLR 25/16 A2996 RMK AO2 SLP092 T02500156

2010/08/10 10:53
KTVC 101053Z 00000KT 6SM BR OVC002 20/19 A2998 RMK AO2 SLP148 T02000194

2010/08/10 10:53
KTVL 101053Z AUTO 00000KT 10SM CLR 07/04 A3010 RMK AO2 SLP137 T00720044

2010/08/10 10:53
KTVR 101053Z AUTO 00000KT 1/2SM FG CLR 24/23 A2995 RMK AO2 SLP148 T02390228

2010/08/10 10:53
KUAO 101053Z AUTO 35005KT 10SM FEW026 OVC041 14/10 A2998 RMK AO2 SLP152 T01390100

2010/08/10 10:53
KMSN 101053Z 00000KT 3SM BCFG BR FEW001 22/21 A2997 RMK AO2 SLP143 T02170211 

2010/08/10 10:53
KBYG 101053Z AUTO 21005KT 10SM CLR 14/08 A2998 RMK AO2 SLP095 T01440083 $

2010/08/10 10:50
EGHD 101050Z 22014G24KT 180V250 2000 RA BR BKN001 OVC002 16/16 Q1010

2010/08/10 10:50
EGHE 101050Z 24018KT 1800 -DZ BR OVC001 17/17 Q1010

2010/08/10 10:50
EGHQ 101050Z 24018KT 1200 -RA BR BKN003 17/17 Q1009

2010/08/10 10:50
EGJA 101050Z 22010KT 9999 SCT002 BKN012 17/16 Q1013

2010/08/10 10:50
EGJB 101050Z 23011KT 0700 R27/1300 -RA FG BKN000 17/17 Q1013

2010/08/10 10:50
EGJJ 101050Z 23013KT 190V260 9999 7000N -RADZ SCT003 BKN005 18/18 Q1014 TEMPO 3000 BKN002

2010/08/10 10:50
EGTE 101050Z 16011KT 6000 -RADZ SCT006 BKN012 16/15 Q1010

2010/08/10 10:50
EGTG 101050Z 17005KT 2500 RADZ BKN035 14/13 Q1010

2010/08/10 10:50
EGYP 101050Z 29014KT 9999 FEW018 BKN220 00/M01 Q1006 BLU NOSIG

2010/08/10 10:50
EGBB 101050Z 24009KT 9999 SCT020 SCT025 17/12 Q1008

2010/08/10 10:50
EGCC 101050Z 23012KT 190V260 9999 SCT042 17/08 Q1008

2010/08/10 10:50
EGKK 101050Z 22008KT 190V260 9999 BKN012 16/14 Q1011

2010/08/10 10:50
EGLL 101050Z 24009KT 200V270 9999 FEW011 SCT017 16/13 Q1011

2010/08/10 10:50
EGPF 101050Z VRB02KT 9999 FEW010 SCT035 14/10 Q1004

2010/08/10 10:50
EGPH 101050Z 23010KT 9999 8000N VCSH SCT024 BKN030 14/09 Q1003

2010/08/10 10:50
EGPK 101050Z 25012KT 9999 VCSH SCT018CB SCT028 16/10 Q1004

2010/08/10 10:50
EGSS 101050Z 23011KT 9999 FEW009 SCT018 BKN045 15/13 Q1010

2010/08/10 10:53
KCUT 101053Z AUTO 24006KT 10SM SCT110 16/13 A3001 RMK AO2 SLP096 T01560133 TSNO 

2010/08/10 10:50
LSGC 101050Z VRB03KT 9999 FEW048 20/08 Q1020

2010/08/10 10:50
LSGS 101050Z 24006KT 200V280 9999 FEW070 26/13 Q1016

2010/08/10 10:50
LSZR 101050Z VRB03KT 9999 FEW045 22/14 Q1018 NOSIG RMK G

2010/08/10 10:50
LSZS 101050Z 22013KT 190V250 9999 BKN080 20/09 Q1022

2010/08/10 10:50
ESKN 101050Z 26010KT 9999 BKN020 18/14 Q1013

2010/08/10 10:50
ESOE 101050Z 23011KT 9999 FEW022 BKN030 19/14 Q1012

2010/08/10 10:50
ESOK 101050Z AUTO 20007KT 9999NDV FEW036/// OVC046/// 20/13 Q1012

2010/08/10 10:50
ESOW 101050Z 24009KT 9999 BKN013 18/15 Q1012

2010/08/10 10:50
ESSA 101050Z 23012KT 9999 FEW011 BKN013 18/15 Q1012 BECMG BKN015

2010/08/10 10:50
ESSB 101050Z 25007KT 9999 FEW012 BKN016 18/15 Q1012

2010/08/10 10:50
ESSD 101050Z 22009KT 9999 FEW034 SCT041 21/15 Q1010

2010/08/10 10:50
ESSP 101050Z 25012KT 9999 SCT029 BKN039 19/13 Q1013

2010/08/10 10:50
ESSV 101050Z 26012KT 9999 SCT016 BKN024 17/13 Q1015

2010/08/10 10:50
EGHK 101050Z 24012KT 3000 SCT005 BKN007 17/17 Q1009

2010/08/10 10:50
EGHH 101050Z 20007KT 6000 BKN009 16/14 Q1011

2010/08/10 10:50
EGKB 101050Z 23006KT 190V270 9999 FEW010 SCT040 16/13 Q1011 

2010/08/10 10:50
EGLF 101050Z 26007KT 9999 FEW014 SCT040 16/13 Q1011

2010/08/10 10:50
EGMC 101050Z 26007KT 9999 FEW011 SCT014 17/15 Q1010

2010/08/10 10:50
EGMD 101050Z 25013KT 6000 -RA BKN004 BKN012 17/16 Q1011

2010/08/10 10:50
EGMH 101050Z 22010KT 6000 RA BKN006 18/18 Q1011 

2010/08/10 10:50
ESNG 101050Z AUTO 22003KT 170V260 9999NDV BKN035/// 16/08 Q1011

2010/08/10 10:50
ESNK 101050Z AUTO 20004KT 9999NDV OVC018/// 17/15 Q1010

2010/08/10 10:50
ESNN 101050Z 06006KT 010V090 9999 OVC008 17/15 Q1010

2010/08/10 10:50
ESNO 101050Z 01006KT 9999 SCT015 BKN020 16/13 Q1010

2010/08/10 10:50
ESNQ 101050Z 17004KT 9999 BKN023 15/09 Q1011

2010/08/10 10:50
ESNS 101050Z 03004KT 9999 DZ BKN015 14/13 Q1011

2010/08/10 10:50
ESNU 101050Z 36009KT 9999 FEW009 BKN011 BKN019 16/13 Q1010

2010/08/10 10:50
ESNZ 101050Z 08004KT 5000 -DZ VV007 15/14 Q1010

2010/08/10 10:50
ESUT 101050Z AUTO 17005KT 9999NDV OVC028/// 16/10 Q1011

2010/08/10 10:50
BGGH 101050Z 20013KT 5000 VCFG FEW001 BKN020 08/08 Q1007

2010/08/10 10:50
ESDF 101050Z 22005KT 170V250 9999NDV SCT039/// 20/11 Q1016

2010/08/10 10:50
ESPA 101050Z 02006KT 350V060 9999 BKN020 16/12 Q1010

2010/08/10 10:50
ESSL 101050Z 25006KT 220V280 9999 BKN040 18/13 Q1014

2010/08/10 10:50
ESGL 101050Z AUTO 22012KT 9999NDV FEW031/// SCT059/// 21/14 Q1013

2010/08/10 10:50
ESGR 101050Z AUTO 24010KT 220V290 9999NDV FEW043/// SCT055/// 20/13 Q1013

2010/08/10 10:50
ESNL 101050Z AUTO 06004KT 9999NDV FEW020/// BKN086/// 17/12 Q1011

2010/08/10 10:50
ESNX 101050Z 05006KT 360V090 CAVOK 18/10 Q1011

2010/08/10 10:50
ESNY 101050Z AUTO 16004KT 9999 FEW006 SCT053 BKN066 19/18 Q1009

2010/08/10 10:54
EKVG 101054Z VRB03KT 9999 FEW025 BKN045 12/10 Q1008 RMK/RWY 13-31 CLOSED DUE WIP NOTAM E0050/10 WIND 850FT 35002KT

2010/08/10 11:00
SPIM 101100Z 16004KT 8000 OVC018 15/12 Q1017 NOSIG RMK PP000

2010/08/10 10:50
BGGH 101050Z 20013KT 5000 VCFG FEW001 BKN020 08/08 Q1007

2010/08/10 10:50
EFHA 101050Z 25005KT 190V310 9999 BKN030 SCT200 21/14 Q1010

2010/08/10 10:50
EFHF 101050Z 21013KT 180V250 9999 SCT027 FEW040CB BKN055 21/16 Q1013

2010/08/10 10:50
EFKA 101050Z 17004KT 100V220 9999 FEW013 FEW024TCU SCT055 BKN095 21/18 Q1009

2010/08/10 10:50
EFKK 101050Z 36008KT 320V020 9999 BKN006 OVC009 17/16 Q1009

2010/08/10 10:50
EFPO 101050Z 23009KT 180V270 9999 BKN012 BKN018 20/17 Q1010

2010/08/10 10:50
EFSI 101050Z AUTO 18004KT 140V230 9999 FEW014 SCT033 20/17 Q1009

2010/08/10 10:54
YMAV 101054Z AUTO 34006KT 4000NDV // SCT012 SCT021 08/07 Q1009

2010/08/10 10:49
RKPK 101049Z 16015KT 4800 -RA BR FEW010 SCT010CB OVC025 27/23 Q1007 NOSIG RMK TS E46 MOVED N

2010/08/10 10:51
PAOM 101051Z AUTO 05005KT 10SM FEW026 BKN032 OVC065 11/09 A2941

2010/08/10 10:53
CYXU 101053Z 00000KT 1/4SM R15/1200V2000FT/N FG SKC 20/ RMK FG5

2010/08/10 10:52
PGUA 101052Z AUTO 07007KT 10SM SCT018 BKN023 BKN030 26/25 A2996

2010/08/10 10:51
PGUA 101051Z AUTO 07007KT 10SM FEW018 SCT023 BKN030 26/25 A2996

2010/08/10 10:49
RKPK 101049Z 16015KT 4800 -RA BR FEW010 SCT010CB OVC025 27/23 Q1007 NOSIG RMK TS E46 MOVED N

2010/08/10 10:51
PGUA 101051Z AUTO 07007KT 10SM FEW018 SCT023 BKN030 26/25 A2996 RMK AO2 FEW V SCT CIG 016 RWY24L SLP127 $

2010/08/10 10:52
PGUA 101052Z AUTO 07007KT 10SM SCT018 BKN023 BKN030 26/25 A2996 RMK AO2 BKN023 V SCT CIG 016 RWY24L SLP127 $

2010/08/10 10:49
RKPK 101049Z 16015KT 4800 -RA BR FEW010 SCT010CB OVC025 27/23 Q1007 NOSIG RMK TS E46 MOVED N

2010/08/10 10:53
KTRI 101053Z 00000KT 6SM BR BKN110 22/21 A3007 RMK AO2 SLP162 T02220206 

2010/08/10 10:53
KRTN 101053Z AUTO 03004KT 2SM BR CLR 13/11 A3020 RMK AO2 SLP142 T01280111 TSNO 

2010/08/10 10:52
KCEF 101052Z AUTO 00000KT 1/2SM R23/1200V4500FT R33/0900VP6000FT FG CLR 21/20 A2993

2010/08/10 10:53
KDAB 101053Z 11005KT 10SM FEW020 SCT120 SCT250 27/23 A2993 RMK AO2 SLP135 T02670233 

2010/08/10 10:53
KBTR 101053Z 04003KT 1 3/4SM BR SCT002 BKN200 23/23 A2994 RMK AO2 SLP136 VIS N-NE 3/4 SCT V BKN T02330233 

2010/08/10 10:53
KCEF 101053Z AUTO 00000KT 1/2SM R23/1200V5500FT R33/0900VP6000FT FG CLR 21/20 A2993

2010/08/10 10:53
KMCN 101053Z AUTO 00000KT 5SM BR CLR 23/22 A3001 RMK AO2 SLP155 T02330217 TSNO 

2010/08/10 10:53
KMGM 101053Z 10003KT 7SM FEW070 24/22 A2997 RMK AO2 SLP146 T02440222 

2010/08/10 10:53
KTUP 101053Z 00000KT 9SM CLR 25/23 A2997 RMK AO2 SLP143 T02500233 

2010/08/10 10:53
K6R6 101053Z AUTO 00000KT 24/21 A2995 RMK AO2 SLP103 T02390206 PWINO TSNO 

2010/08/10 10:51
KVCT 101051Z AUTO 06003KT 10SM CLR 25/24 A2990 RMK AO2 SLP123 T02500244 

2010/08/10 10:54
PGUM 101054Z 16003G16KT 2 1/2SM +RA BR FEW022 BKN044 OVC055 26/24 A2996 RMK AO2 VIS 1 1/4V5 RAB35 SLP138 P0008 T02560239 

2010/08/10 10:50
EGAA 101050Z 27011KT 230V300 9999 VCSH SCT019 SCT028 14/11 Q1005

2010/08/10 10:50
EGAC 101050Z 25011KT 210V270 9999 VCSH FEW012 SCT023 BKN048 15/10 Q1005

2010/08/10 10:50
EGFF 101050Z 15006KT 1900 RA BKN004 14/13 Q1010

2010/08/10 10:50
EGGW 101050Z 23007KT 200V260 9999 SCT013 16/13 Q1010

2010/08/10 10:50
EGLC 101050Z 24009KT 9999 SCT016 SCT045 17/12 Q1010

2010/08/10 10:50
EGNM 101050Z 24010KT 210V270 9999 FEW015CB SCT041 15/14 Q1007

2010/08/10 10:50
EGPD 101050Z 18006KT 150V230 9999 FEW023TCU 16/10 Q1004 TEMPO SHRA

2010/08/10 10:50
HLLT 101050Z 02004KT 330V140 CAVOK 32/10 Q1016

2010/08/10 10:50
EGBB 101050Z 24009KT 9999 SCT020 SCT025 17/12 Q1008

2010/08/10 10:50
EGCC 101050Z 23012KT 190V260 9999 SCT042 17/08 Q1008

2010/08/10 10:50
EGKK 101050Z 22008KT 190V260 9999 BKN012 16/14 Q1011

2010/08/10 10:50
EGLL 101050Z 24009KT 200V270 9999 FEW011 SCT017 16/13 Q1011

2010/08/10 10:50
EGPF 101050Z VRB02KT 9999 FEW010 SCT035 14/10 Q1004

2010/08/10 10:50
EGPH 101050Z 23010KT 9999 8000N VCSH SCT024 BKN030 14/09 Q1003

2010/08/10 10:50
EGPK 101050Z 25012KT 9999 VCSH SCT018CB SCT028 16/10 Q1004

2010/08/10 10:50
EGSS 101050Z 23011KT 9999 FEW009 SCT018 BKN045 15/13 Q1010

2010/08/10 10:53
KCEF 101053Z AUTO 00000KT 1/2SM R23/1200V5500FT R33/0900VP6000FT FG CLR 21/20 A2993

2010/08/10 10:52
KCEF 101052Z AUTO 00000KT 1/2SM R23/1200V4500FT R33/0900VP6000FT FG CLR 21/20 A2993

2010/08/10 10:53
KRIL 101053Z AUTO 00000KT 10SM CLR 12/08 A3018 RMK AO2 SLP159 T01170083 TSNO 

2010/08/10 10:54
KJAN 101054Z 00000KT 9SM CLR 24/23 A2995 RMK AO2 SLP138 T02390228 

2010/08/10 10:53
KGNT 101053Z AUTO 29004KT 12/10 A3025 RMK AO2 SLP156 T01220100 PWINO TSNO 

2010/08/10 10:53
KTYS 101053Z 00000KT 3SM BR BKN110 25/23 A3002 RMK AO2 SLP153 T02500228 

2010/08/10 10:50
ESKN 101050Z 26010KT 9999 BKN020 18/14 Q1013

2010/08/10 10:50
ESOE 101050Z 23011KT 9999 FEW022 BKN030 19/14 Q1012

2010/08/10 10:50
ESOK 101050Z AUTO 20007KT 9999NDV FEW036/// OVC046/// 20/13 Q1012

2010/08/10 10:50
ESOW 101050Z 24009KT 9999 BKN013 18/15 Q1012

2010/08/10 10:50
ESSA 101050Z 23012KT 9999 FEW011 BKN013 18/15 Q1012 BECMG BKN015

2010/08/10 10:50
ESSB 101050Z 25007KT 9999 FEW012 BKN016 18/15 Q1012

2010/08/10 10:50
ESSD 101050Z 22009KT 9999 FEW034 SCT041 21/15 Q1010

2010/08/10 10:50
ESSP 101050Z 25012KT 9999 SCT029 BKN039 19/13 Q1013

2010/08/10 10:50
ESSV 101050Z 26012KT 9999 SCT016 BKN024 17/13 Q1015

2010/08/10 10:50
EGGD 101050Z 22004KT 200V260 2500 DZRA FEW004 BKN011 13/13 Q1010

2010/08/10 10:50
EGGP 101050Z 23011KT 9999 FEW035 19/08 Q1007

2010/08/10 10:50
EGHI 101050Z 21011KT 180V240 9999 VCSH FEW012 SCT020 BKN035 16/13 Q1011 

2010/08/10 10:50
EGNS 101050Z 24017KT 9999 SCT017 16/12 Q1005 NOSIG

2010/08/10 10:50
EGNV 101050Z 24015KT 9999 SCT038 17/09 Q1005

2010/08/10 10:50
EGPB 101050Z VRB02KT 9999 3400S VCFG FEW002 BKN004 13/12 Q1005

2010/08/10 10:50
ESDF 101050Z 22005KT 170V250 9999NDV SCT039/// 20/11 Q1016

2010/08/10 10:50
ESPA 101050Z 02006KT 350V060 9999 BKN020 16/12 Q1010

2010/08/10 10:50
ESSL 101050Z 25006KT 220V280 9999 BKN040 18/13 Q1014

2010/08/10 10:50
EGHD 101050Z 22014G24KT 180V250 2000 RA BR BKN001 OVC002 16/16 Q1010

2010/08/10 10:50
EGHE 101050Z 24018KT 1800 -DZ BR OVC001 17/17 Q1010

2010/08/10 10:50
EGHQ 101050Z 24018KT 1200 -RA BR BKN003 17/17 Q1009

2010/08/10 10:50
EGJA 101050Z 22010KT 9999 SCT002 BKN012 17/16 Q1013

2010/08/10 10:50
EGJB 101050Z 23011KT 0700 R27/1300 -RA FG BKN000 17/17 Q1013

2010/08/10 10:50
EGJJ 101050Z 23013KT 190V260 9999 7000N -RADZ SCT003 BKN005 18/18 Q1014 TEMPO 3000 BKN002

2010/08/10 10:50
EGTE 101050Z 16011KT 6000 -RADZ SCT006 BKN012 16/15 Q1010

2010/08/10 10:50
EGTG 101050Z 17005KT 2500 RADZ BKN035 14/13 Q1010

2010/08/10 10:50
EGHK 101050Z 24012KT 3000 SCT005 BKN007 17/17 Q1009

2010/08/10 10:50
EGNX 101050Z 24011KT 9999 FEW030 SCT040 18/10 Q1008

2010/08/10 10:50
ESNG 101050Z AUTO 22003KT 170V260 9999NDV BKN035/// 16/08 Q1011

2010/08/10 10:50
ESNK 101050Z AUTO 20004KT 9999NDV OVC018/// 17/15 Q1010

2010/08/10 10:50
ESNN 101050Z 06006KT 010V090 9999 OVC008 17/15 Q1010

2010/08/10 10:50
ESNO 101050Z 01006KT 9999 SCT015 BKN020 16/13 Q1010

2010/08/10 10:50
ESNQ 101050Z 17004KT 9999 BKN023 15/09 Q1011

2010/08/10 10:50
ESNS 101050Z 03004KT 9999 DZ BKN015 14/13 Q1011

2010/08/10 10:50
ESNU 101050Z 36009KT 9999 FEW009 BKN011 BKN019 16/13 Q1010

2010/08/10 10:50
ESNZ 101050Z 08004KT 5000 -DZ VV007 15/14 Q1010

2010/08/10 10:50
ESUT 101050Z AUTO 17005KT 9999NDV OVC028/// 16/10 Q1011

2010/08/10 10:54
EKVG 101054Z VRB03KT 9999 FEW025 BKN045 12/10 Q1008 RMK/RWY 13-31 CLOSED DUE WIP NOTAM E0050/10 WIND 850FT 35002KT

2010/08/10 10:50
ESGL 101050Z AUTO 22012KT 9999NDV FEW031/// SCT059/// 21/14 Q1013

2010/08/10 10:50
ESGR 101050Z AUTO 24010KT 220V290 9999NDV FEW043/// SCT055/// 20/13 Q1013

2010/08/10 10:50
ESNL 101050Z AUTO 06004KT 9999NDV FEW020/// BKN086/// 17/12 Q1011

2010/08/10 10:50
ESNX 101050Z 05006KT 360V090 CAVOK 18/10 Q1011

2010/08/10 10:50
ESNY 101050Z AUTO 16004KT 9999 FEW006 SCT053 BKN066 19/18 Q1009

2010/08/10 10:50
BGGH 101050Z 20013KT 5000 VCFG FEW001 BKN020 08/08 Q1007

2010/08/10 10:50
EFHA 101050Z 25005KT 190V310 9999 BKN030 SCT200 21/14 Q1010

2010/08/10 10:50
EFHF 101050Z 21013KT 180V250 9999 SCT027 FEW040CB BKN055 21/16 Q1013

2010/08/10 10:50
EFKA 101050Z 17004KT 100V220 9999 FEW013 FEW024TCU SCT055 BKN095 21/18 Q1009

2010/08/10 10:50
EFKK 101050Z 36008KT 320V020 9999 BKN006 OVC009 17/16 Q1009

2010/08/10 10:50
EFPO 101050Z 23009KT 180V270 9999 BKN012 BKN018 20/17 Q1010

2010/08/10 10:50
EFSI 101050Z AUTO 18004KT 140V230 9999 FEW014 SCT033 20/17 Q1009

2010/08/10 10:54
YMAV 101054Z AUTO 34006KT 4000NDV // SCT012 SCT021 08/07 Q1009

2010/08/10 10:50
EGHH 101050Z 20007KT 6000 BKN009 16/14 Q1011

2010/08/10 10:50
EGKB 101050Z 23006KT 190V270 9999 FEW010 SCT040 16/13 Q1011 

2010/08/10 10:50
EGLF 101050Z 26007KT 9999 FEW014 SCT040 16/13 Q1011

2010/08/10 10:50
EGMC 101050Z 26007KT 9999 FEW011 SCT014 17/15 Q1010

2010/08/10 10:50
EGMD 101050Z 25013KT 6000 -RA BKN004 BKN012 17/16 Q1011

2010/08/10 10:50
EGMH 101050Z 22010KT 6000 RA BKN006 18/18 Q1011 

2010/08/10 10:51
YBRK 101051Z 25012KT 2000 SHRA FEW008 BKN015 20/19 Q1016

2010/08/10 10:54
KBTV 101054Z 00000KT 4SM BR OVC003 18/18 A2993 RMK AO2 SLP135 VIS N-NE 1 1/4 T01780178 

2010/08/10 10:51
PAOM 101051Z AUTO 05005KT 10SM FEW026 BKN032 OVC065 11/09 A2941

2010/08/10 10:50
EGAA 101050Z 27011KT 230V300 9999 VCSH SCT019 SCT028 14/11 Q1005

2010/08/10 10:50
EGAC 101050Z 25011KT 210V270 9999 VCSH FEW012 SCT023 BKN048 15/10 Q1005

2010/08/10 10:50
EGBB 101050Z 24009KT 9999 SCT020 SCT025 17/12 Q1008

2010/08/10 10:50
EGCC 101050Z 23012KT 190V260 9999 SCT042 17/08 Q1008

2010/08/10 10:50
EGFF 101050Z 15006KT 1900 RA BKN004 14/13 Q1010

2010/08/10 10:50
EGGP 101050Z 23011KT 9999 FEW035 19/08 Q1007

2010/08/10 10:50
EGGW 101050Z 23007KT 200V260 9999 SCT013 16/13 Q1010

2010/08/10 10:50
EGHD 101050Z 22014G24KT 180V250 2000 RA BR BKN001 OVC002 16/16 Q1010

2010/08/10 10:50
EGHE 101050Z 24018KT 1800 -DZ BR OVC001 17/17 Q1010

2010/08/10 10:50
EGHH 101050Z 20007KT 6000 BKN009 16/14 Q1011

2010/08/10 10:50
EGHI 101050Z 21011KT 180V240 9999 VCSH FEW012 SCT020 BKN035 16/13 Q1011

2010/08/10 10:50
EGJA 101050Z 22010KT 9999 SCT002 BKN012 17/16 Q1013

2010/08/10 10:50
EGJB 101050Z 23011KT 0700 R27/1300 -RA FG BKN000 17/17 Q1013

2010/08/10 10:50
EGJJ 101050Z 23013KT 190V260 9999 7000N -RADZ SCT003 BKN005 18/18 Q1014 TEMPO 3000 BKN002

2010/08/10 10:50
EGKK 101050Z 22008KT 190V260 9999 BKN012 16/14 Q1011

2010/08/10 10:50
EGLC 101050Z 24009KT 9999 SCT016 SCT045 17/12 Q1010

2010/08/10 10:50
EGLL 101050Z 24009KT 200V270 9999 FEW011 SCT017 16/13 Q1011

2010/08/10 10:50
EGMD 101050Z 25013KT 6000 -RA BKN004 BKN012 17/16 Q1011

2010/08/10 10:50
EGNM 101050Z 24010KT 210V270 9999 FEW015CB SCT041 15/14 Q1007

2010/08/10 10:50
EGPD 101050Z 18006KT 150V230 9999 FEW023TCU 16/10 Q1004 TEMPO SHRA

2010/08/10 10:50
EGPF 101050Z VRB02KT 9999 FEW010 SCT035 14/10 Q1004

2010/08/10 10:50
EGPH 101050Z 23010KT 9999 8000N VCSH SCT024 BKN030 14/09 Q1003

2010/08/10 10:50
EGPK 101050Z 25012KT 9999 VCSH SCT018CB SCT028 16/10 Q1004

2010/08/10 10:50
EGSS 101050Z 23011KT 9999 FEW009 SCT018 BKN045 15/13 Q1010

2010/08/10 10:50
EGTG 101050Z 17005KT 2500 RADZ BKN035 14/13 Q1010

2010/08/10 10:55
KBLV 101055Z AUTO 00000KT 4SM R14R/4000VP6000FT BR CLR 25/25 A2993 RMK AO2 RAB1036E1041 SLP132 P0000 T02530251

2010/08/10 10:55
KCEF 101055Z AUTO 00000KT 1/2SM R23/1200V5500FT R33/0900VP6000FT FG CLR 21/20 A2993 RMK AO2 SLP135 T02080205 $

2010/08/10 10:50
KEFD 101050Z 00000KT 10SM FEW250 26/24 A2993

2010/08/10 10:55
KGRF 101055Z AUTO 22005KT 10SM OVC009 13/11 A2996 RMK AO2 CIG 008V010 SLP146 T01260108

2010/08/10 10:55
KHST 101055Z AUTO 20004KT 10SM SCT032 25/24 A2987 RMK AO2 SLP117 T02500238

2010/08/10 10:55
KLRF 101055Z AUTO 17004KT 10SM CLR 27/25 A2993 RMK AO2 SLP131 T02720252

2010/08/10 10:55
KMMT 101055Z AUTO 00000KT 7SM BKN003 BKN016 OVC025 24/24 A3002 RMK AO2 BKN003 V SCT SLP164 T02400237

2010/08/10 10:50
EGAA 101050Z 27011KT 230V300 9999 VCSH SCT019 SCT028 14/11 Q1005

2010/08/10 10:50
EGAC 101050Z 25011KT 210V270 9999 VCSH FEW012 SCT023 BKN048 15/10 Q1005

2010/08/10 10:50
EGBB 101050Z 24009KT 9999 SCT020 SCT025 17/12 Q1008

2010/08/10 10:50
EGCC 101050Z 23012KT 190V260 9999 SCT042 17/08 Q1008

2010/08/10 10:50
EGFF 101050Z 15006KT 1900 RA BKN004 14/13 Q1010

2010/08/10 10:50
EGGW 101050Z 23007KT 200V260 9999 SCT013 16/13 Q1010

2010/08/10 10:50
EGKK 101050Z 22008KT 190V260 9999 BKN012 16/14 Q1011

2010/08/10 10:50
EGLC 101050Z 24009KT 9999 SCT016 SCT045 17/12 Q1010

2010/08/10 10:50
EGLL 101050Z 24009KT 200V270 9999 FEW011 SCT017 16/13 Q1011

2010/08/10 10:50
EGNM 101050Z 24010KT 210V270 9999 FEW015CB SCT041 15/14 Q1007

2010/08/10 10:50
EGPD 101050Z 18006KT 150V230 9999 FEW023TCU 16/10 Q1004 TEMPO SHRA

2010/08/10 10:50
EGPF 101050Z VRB02KT 9999 FEW010 SCT035 14/10 Q1004

2010/08/10 10:50
EGPH 101050Z 23010KT 9999 8000N VCSH SCT024 BKN030 14/09 Q1003

2010/08/10 10:50
EGPK 101050Z 25012KT 9999 VCSH SCT018CB SCT028 16/10 Q1004

2010/08/10 10:50
EGSS 101050Z 23011KT 9999 FEW009 SCT018 BKN045 15/13 Q1010

2010/08/10 10:50
EGTG 101050Z 17005KT 2500 RADZ BKN035 14/13 Q1010

2010/08/10 10:50
EKAH 101050Z AUTO 18008KT 130V230 9999NDV NCD 21/12 Q1014

2010/08/10 10:50
EKBI 101050Z 18009KT 110V220 9999 FEW040 BKN250 22/11 Q1013

2010/08/10 10:50
EKEB 101050Z AUTO 18014KT 9999NDV NCD 22/13 Q1012

2010/08/10 10:50
EKOD 101050Z 17008KT 9999 SCT035TCU 21/12 Q1014

2010/08/10 10:50
EKRK 101050Z AUTO 11012KT 9999NDV NCD 21/14 Q1015

2010/08/10 10:50
EKRN 101050Z AUTO 12007KT 9999NDV BKN035/// 20/16 Q1017

2010/08/10 10:51
EKSB 101051Z 13011KT 9999 SCT040 22/13 Q1013

2010/08/10 10:50
EKVJ 101050Z 18012KT 9999 FEW030 21/16 Q1013

2010/08/10 10:50
EKYT 101050Z 17011KT CAVOK 24/09 Q1013 NOSIG RMK FEW050 SCT250

2010/08/10 11:00
LPLA 101100Z 05008KT 9999 FEW020 BKN035 23/17 Q1023

2010/08/10 11:00
LQMO 101100Z 31009KT 9999 FEW040 34/08 Q1011

2010/08/10 10:50
LXGB 101050Z 11007KT CAVOK 28/19 Q1017 NOSIG

2010/08/10 10:55
KQCQ 101055Z 01012G19KT 9999 CLR 50/00 A2952 RMK SLP993

2010/08/10 10:55
KQSL 101055Z VRB02KT 9999 CLR 47/03 A2964 RMK SLP020 Q1003MB

2010/08/10 10:51
KSAD 101051Z AUTO 00000KT 10SM CLR 23/13 A2996 RMK AO2 SLP087 T02280133 TSNO 

2010/08/10 10:53
K40J 101053Z AUTO 03005KT 24/23 A2992 RMK AO2 SLP132 T02390228 PWINO TSNO 

2010/08/10 10:50
ENEK 101050Z 25001KT 9999 FEW005 SCT010TCU BKN025 15/14 Q1005 W16/S3 

2010/08/10 10:50
ENGC 101050Z 10022KT 9999 BKN020 14/13 Q1008

2010/08/10 10:50
ENHE 101050Z 06009KT 9999 OVC017 11/08 Q1012

2010/08/10 10:50
ENOA 101050Z 110229T 9000N -RA SCT008 BKN010 14/13 Q1006

2010/08/10 10:50
ENLK 101050Z 03008KT 9999 BKN009 13/10 Q1011

2010/08/10 10:50
ENMH 101050Z 34006KT 9999 FEW035 13/09 Q1012

2010/08/10 10:50
ENNK 101050Z 25006KT 9999 SCT060 18/13 Q1010 

2010/08/10 10:50
ENBN 101050Z VRB02KT 1000 FG BKN003 13/12 Q1011

2010/08/10 10:50
ENBV 101050Z 09010KT 9999 BKN035 12/09 Q1012

2010/08/10 10:50
ENFG 101050Z 18008KT 9999 FEW010 SCT025 19/11 Q1011

2010/08/10 10:50
ENHF 101050Z 06009KT 9999 FEW035 14/09 Q1011 

2010/08/10 10:50
ENRA 101050Z 08005KT 9999 BKN055 21/12 Q1010

2010/08/10 10:50
ENSH 101050Z 02012KT 9999 FEW010 BKN050 15/11 Q1010

2010/08/10 10:50
ENAN 101050Z 02010KT 9999 SCT006 BKN008 11/10 Q1011 NOSIG

2010/08/10 10:50
ENBR 101050Z 16009KT 9999 FEW045 SCT060 BKN078 19/11 Q1009 NOSIG 

2010/08/10 10:50
ENBO 101050Z 27006KT 230V330 9999 FEW002 BKN050 14/12 Q1011 TEMPO SCT003 BKN008 

2010/08/10 10:50
ENDU 101050Z 02006KT 340V070 9999 FEW045 SCT060 19/11 Q1010 NOSIG

2010/08/10 10:50
ENGM 101050Z 20004KT 150V280 9999 FEW018 SCT021 BKN025 18/14 Q1011 NOSIG

2010/08/10 10:50
ENOL 101050Z 34006KT 9999 FEW006 SCT010 BKN100 15/13 Q1010 NOSIG

2010/08/10 10:50
ENVA 101050Z 26005KT 9999 FEW012 SCT025 BKN120 16/14 Q1010 NOSIG 

2010/08/10 10:50
ENZV 101050Z 15011KT 9999 SCT019 BKN035 18/15 Q1009 NOSIG

2010/08/10 10:55
ENAT 101055Z 14006KT 100V190 9999 FEW040 19/07 Q1010 

2010/08/10 10:50
ENEV 101050Z 32007KT 280V350 9999 SCT050 16/11 Q1010 

2010/08/10 10:50
ENFL 101050Z 00000KT 9999 FEW020 18/12 Q1009

2010/08/10 10:50
ENKB 101050Z 04005KT 340V080 9999 FEW009 SCT032 17/14 Q1010

2010/08/10 10:50
ENKR 101050Z 13005KT 090V150 9999 FEW007 BKN030 12/09 Q1013 

2010/08/10 10:50
ENML 101050Z VRB02KT 9999 FEW015 SCT040 20/13 Q1010

2010/08/10 10:50
ENNA 101050Z 15012KT 9999 FEW047 17/07 Q1011 

2010/08/10 10:50
ENAL 101050Z 03009KT 9999 SCT035 BKN070 15/13 Q1010

2010/08/10 10:50
ENCN 101050Z 18007KT 9999 FEW015TCU BKN018 19/15 Q1012

2010/08/10 10:50
ENHD 101050Z 13013KT 9999 BKN017 18/13 Q1008

2010/08/10 10:50
ENRO 101050Z 14002KT 9999 VCSH FEW012 BKN078 18/13 Q1010

2010/08/10 10:50
ENRY 101050Z 20014KT 9999 SCT019 19/14 Q1011 NOSIG

2010/08/10 10:50
ENSB 101050Z 27004KT 240V300 9999 FEW025 BKN035 04/M00 Q1007 NOSIG 

2010/08/10 10:50
ENTC 101050Z 02007KT 9999 FEW020 SCT055 14/10 Q1011 NOSIG

2010/08/10 10:50
ENTO 101050Z 21012KT 9999 SCT030 20/13 Q1011

2010/08/10 10:47
KNBG 101047Z AUTO 00000KT 3/4SM BR CLR 25/23 A2994 RMK AO2 PWINO $

2010/08/10 10:51
KCEF 101051Z AUTO 00000KT 1/4SM R23/1200V3500FT R33/1000VP6000FT FG CLR 21/20 A2993 RMK AO2 SLP135 $

2010/08/10 10:52
KCEF 101052Z AUTO 00000KT 1/2SM R23/1200V4500FT R33/0900VP6000FT FG CLR 21/20 A2993 RMK AO2 SLP135 $

2010/08/10 10:53
KCEF 101053Z AUTO 00000KT 1/2SM R23/1200V5500FT R33/0900VP6000FT FG CLR 21/20 A2993 RMK AO2 SLP135 $

2010/08/10 10:49
KHFF 101049Z AUTO 00000KT 8SM BKN002 22/22 A3004 RMK AO2 SLP170 $

2010/08/10 10:54
KMMT 101054Z AUTO 00000KT 7SM BKN003 BKN016 OVC025 24/24 A3002 RMK AO2 BKN003 V SCT SLP165

2010/08/10 10:47
KNBG 101047Z AUTO 00000KT 3/4SM BR CLR 25/23 A2994 RMK AO2 PWINO $

2010/08/10 10:50
EDAC 101050Z 08003KT CAVOK 24/13 Q1017

2010/08/10 10:50
EDAH 101050Z 15006KT 9999 SCT020 22/16 Q1016

2010/08/10 10:50
EDBC 101050Z 21008KT 160V260 9999 FEW048 25/09 Q1016

2010/08/10 10:50
EDGS 101050Z 21006KT 150V280 9999 SCT040 21/12 Q1017

2010/08/10 10:50
EDHL 101050Z 16008KT 130V190 9999 SCT041 22/15 Q1014

2010/08/10 10:50
EDJA 101050Z VRB03KT 9999 FEW040 22/13 Q1019

2010/08/10 10:50
EDLN 101050Z 18005KT 110V260 CAVOK 26/16 Q1013

2010/08/10 10:50
EDLP 101050Z 22008KT CAVOK 24/10 Q1015

2010/08/10 10:50
EDLW 101050Z 21011KT 180V250 CAVOK 25/12 Q1014

2010/08/10 10:50
EDMA 101050Z 30005KT 220V090 9999 FEW037 24/15 Q1018

2010/08/10 10:50
EDNY 101050Z VRB03KT 9999 SCT055 23/13 Q1018

2010/08/10 10:50
EDQM 101050Z 16005KT 110V200 CAVOK 21/10 Q1018

2010/08/10 10:50
EDSB 101050Z 21005KT 180V270 CAVOK 25/14 Q1017

2010/08/10 10:50
EDXW 101050Z 16016KT CAVOK 21/13 Q1012

2010/08/10 10:50
EDHI 101050Z 18007KT 120V250 9999 FEW045 24/10 Q1014

2010/08/10 10:50
EDMO 101050Z 34005KT 310V020 9999 FEW040 23/13 Q1018

2010/08/10 10:50
EDOP 101050Z 20008KT 9999 SCT030 SCT080 23/13 Q1016

2010/08/10 10:50
EDTD 101050Z VRB03KT 190V190 CAVOK 22/09 Q1018

2010/08/10 10:50
EDVE 101050Z 26006KT CAVOK 25/11 Q1015

2010/08/10 10:50
EDFE 101050Z 25004KT 9999 9999 FEW040 26/14 Q1016

2010/08/10 10:50
EDFH 101050Z 27004KT 200V330 CAVOK 23/10 Q1016

2010/08/10 10:50
EDFM 101050Z 17005KT 080V310 CAVOK 26/15 Q1016

2010/08/10 10:50
EDLV 101050Z 18007KT 140V200 CAVOK 22/15 Q1013

2010/08/10 10:50
EDTL 101050Z 21005KT 180V260 CAVOK 26/14 Q1016

2010/08/10 10:50
EDVK 101050Z 20008G18KT 160V280 9999 SCT040 25/11 Q1016

2010/08/10 10:54
KRSP 101054Z AUTO VRB04KT 7SM CLR 23/17 A3003 RMK AO2 SLP965 T02330167 $ 

2010/08/10 10:54
KROC 101054Z 00000KT 2SM R04/6000VP6000FT BR FEW070 SCT100 SCT250 21/20 A2995 RMK AO2 SLP140 T02060200 

2010/08/10 10:50
ENNO 101050Z 10010KT 080V140 9999 SCT040 20/14 Q1010

2010/08/10 10:50
ENSG 101050Z 25005KT 190V310 9999 FEW004 SCT020 17/14 Q1009

2010/08/10 10:50
ENSN 101050Z 19010KT 9999 FEW040 21/09 Q1010

2010/08/10 10:50
ENSS 101050Z 15006KT 9999 SCT030 09/06 Q1013 

2010/08/10 10:50
ENMS 101050Z 35010KT 9999 BKN040 16/13 Q1010 -RERA 

2010/08/10 10:50
ENRM 101050Z 22003KT 170V270 9999 6000NE FEW004 SCT006 BKN008 13/12 Q1011

2010/08/10 10:50
ENSK 101050Z 00000KT 9999 FEW007 BKN009 13/11 Q1011

2010/08/10 10:50
ENSO 101050Z 11010KT 080V150 SCT035 BKN045 18/10 Q1008

2010/08/10 10:50
ENST 101050Z 24005KT 200V300 9999 8000NE SCT003 BKN005 13/11 Q1012

2010/08/10 10:50
ENVD 101050Z 12007KT 080V150 9999 SCT010 BKN039 10/07 Q1013

2010/08/10 10:54
KNKT 101054Z AUTO 25004KT 10SM BKN075 25/24 A3002 RMK AO2 SLP163 T02500239 

2010/08/10 10:54
KCOU 101054Z AUTO 11004KT 8SM CLR 25/24 A2994 RMK AO2 SLP129 T02500239 TSNO $ 

2010/08/10 10:54
KMTP 101054Z AUTO 00000KT 22/19 A2994 RMK AO* 2220189 PWINO TSNO 

2010/08/10 10:54
KGSO 101054Z 25005KT 5SM HZ CLR 24/21 A3004 RMK AO2 SLP160 T02390206 

2010/08/10 10:54
K1V4 101054Z AUTO 17/17 A2994 RMK AO2 SLP130 T01720167 PWINO TSNO 

2010/08/10 10:54
KMQE 101054Z AUTO 24006KT 21/21 A2992 RMK AO1 SLP137 T02060206 

2010/08/10 10:54
KNAK 101054Z AUTO 26005KT 6SM HZ CLR 26/20 A2993 RMK AO2 SLP136 T02560200 TSNO 

2010/08/10 11:00
GVBA 101100Z 07007KT 9999 SCT015 29/19 Q1016 NOSIG

2010/08/10 10:50
EDFH 101050Z 27004KT 200V330 CAVOK 23/10 Q1016

2010/08/10 10:50
EDLN 101050Z 18005KT 110V260 CAVOK 26/16 Q1013

2010/08/10 10:50
EDMO 101050Z 34005KT 310V020 9999 FEW040 23/13 Q1018

2010/08/10 10:50
EDOP 101050Z 20008KT 9999 SCT030 SCT080 23/13 Q1016

2010/08/10 10:50
EDTL 101050Z 21005KT 180V260 CAVOK 26/14 Q1016

2010/08/10 10:50
EDVK 101050Z 20008G18KT 160V280 9999 SCT040 25/11 Q1016

2010/08/10 10:50
EGGD 101050Z 22004KT 200V260 2500 DZRA FEW004 BKN011 13/13 Q1010

2010/08/10 10:50
EGGP 101050Z 23011KT 9999 FEW035 19/08 Q1007

2010/08/10 10:50
EGHD 101050Z 22014G24KT 180V250 2000 RA BR BKN001 OVC002 16/16 Q1010

2010/08/10 10:50
EGHE 101050Z 24018KT 1800 -DZ BR OVC001 17/17 Q1010

2010/08/10 10:50
EGHH 101050Z 20007KT 6000 BKN009 16/14 Q1011

2010/08/10 10:50
EGHI 101050Z 21011KT 180V240 9999 VCSH FEW012 SCT020 BKN035 16/13 Q1011

2010/08/10 10:50
EGJA 101050Z 22010KT 9999 SCT002 BKN012 17/16 Q1013

2010/08/10 10:50
EGJB 101050Z 23011KT 0700 R27/1300 -RA FG BKN000 17/17 Q1013

2010/08/10 10:50
EGJJ 101050Z 23013KT 190V260 9999 7000N -RADZ SCT003 BKN005 18/18 Q1014 TEMPO 3000 BKN002

2010/08/10 10:50
EGKB 101050Z 23006KT 190V270 9999 FEW010 SCT040 16/13 Q1011

2010/08/10 10:50
EGLF 101050Z 26007KT 9999 FEW014 SCT040 16/13 Q1011

2010/08/10 10:50
EGMC 101050Z 26007KT 9999 FEW011 SCT014 17/15 Q1010

2010/08/10 10:50
EGMD 101050Z 25013KT 6000 -RA BKN004 BKN012 17/16 Q1011

2010/08/10 10:50
EGMH 101050Z 22010KT 6000 RA BKN006 18/18 Q1011

2010/08/10 10:50
EGNS 101050Z 24017KT 9999 SCT017 16/12 Q1005 NOSIG

2010/08/10 10:50
EGNV 101050Z 24015KT 9999 SCT038 17/09 Q1005

2010/08/10 10:50
EGNX 101050Z 24011KT 9999 FEW030 SCT040 18/10 Q1008

2010/08/10 10:50
EGPB 101050Z VRB02KT 9999 3400S VCFG FEW002 BKN004 13/12 Q1005

2010/08/10 10:50
EGTE 101050Z 16011KT 6000 -RADZ SCT006 BKN012 16/15 Q1010

2010/08/10 10:54
EKVG 101054Z VRB03KT 9999 FEW025 BKN045 12/10 Q1008 RMK/RWY 13-31 CLOSED DUE WIP NOTAM E0050/10 WIND 850FT 35002KT

2010/08/10 10:50
BGGH 101050Z 20013KT 5000 VCFG FEW001 BKN020 08/08 Q1007

2010/08/10 10:50
EGMH 101050Z 22010KT 6000 RA BKN006 18/18 Q1011

2010/08/10 10:53
KBAF 101053Z 00000KT 3SM BR SCT090 22/21 A2993 RMK AO2 SLP131 T02170206

2010/08/10 10:53
KBUR 101053Z AUTO 13003KT 6SM BR CLR 15/13 A2989 RMK AO2 SLP111 T01500128 TSNO

2010/08/10 10:55
KDAA 101055Z AUTO 00000KT 7SM CLR 22/21 A2995 RMK AO2 SLP142 T02190208

2010/08/10 10:53
KDTS 101053Z AUTO 06005KT 10SM CLR 27/23 A2991 RMK AO2 SLP127 T02720233

2010/08/10 10:55
KGUS 101055Z AUTO 13004KT 7SM FEW100 24/24 A2996 RMK AO2 RAB1025E1036DZB1011E1020B1036E1040 SLP138 P0001 T02380238

2010/08/10 10:55
KHST 101055Z AUTO 20004KT 10SM SCT032 25/24 A2987 RMK AO2 SLP117 T02500238

2010/08/10 10:55
KIAB 101055Z AUTO 15007KT 10SM CLR 26/21 A2989 RMK AO2 SLP105 T02580206 $

2010/08/10 10:55
KMMT 101055Z AUTO 00000KT 7SM BKN003 BKN016 OVC025 24/24 A3002 RMK AO2 BKN003 V SCT SLP164 T02400237

2010/08/10 10:55
KOFF 101055Z AUTO 10005KT 10SM CLR 25/23 A2986 RMK AO2 SLP091 T02520226 $

2010/08/10 10:55
KSUU 101055Z AUTO 25019KT 10SM FEW004 12/11 A2981 RMK AO2 PK WND 25026/1024 SLP096 T01230110 RVRNO $

2010/08/10 10:55
KSZL 101055Z AUTO 00000KT 10SM CLR 25/24 A2993 RMK AO2 SLP125 T02540237 PNO $

2010/08/10 10:53
KTOI 101053Z AUTO 00000KT 7SM CLR 23/22 A2999 RMK AO2 SLP148 T02330217

2010/08/10 10:53
PHJR 101053Z AUTO VRB05KT 10SM FEW055 25/18 A3010 RMK AO2 SLP197 T02500178 TSNO

2010/08/10 10:53
TIST 101053Z 09007KT 10SM FEW070 29/24 A2994 RMK AO2 SLP137 T02890244

2010/08/10 10:53
TISX 101053Z 08008KT 10SM CLR 27/24 A2994 RMK AO2 SLP138 T02720244

2010/08/10 10:53
KGGG 101053Z 23003KT 10SM CLR 26/23 A2993 RMK AO2 SLP125 T02560233

2010/08/10 10:53
KGGW 101053Z AUTO 34003KT 10SM CLR 18/16 A2977 RMK AO2 SLP065 T01780161 TSNO

2010/08/10 10:53
KGIF 101053Z AUTO 11007KT 10SM FEW013 25/23 A2991 RMK AO2 SLP125 T02500233 TSNO

2010/08/10 10:53
KGJT 101053Z AUTO 10007KT 10SM CLR 16/04 A3010 RMK AO2 SLP127 T01610044

2010/08/10 10:53
KGKJ 101053Z AUTO 20003KT 5SM HZ CLR 21/18 A2999 RMK AO2 SLP143 T02110183

2010/08/10 10:53
KGKY 101053Z AUTO 20004KT 10SM CLR 24/21 A2991 RMK AO2 SLP119 T02440206

2010/08/10 10:53
KGMJ 101053Z AUTO 00000KT 10SM CLR 23/21 A2993 RMK AO2

2010/08/10 10:53
KGNV 101053Z 06003KT 10SM CLR 24/23 A2993 RMK AO2 SLP129 T02440228

2010/08/10 10:53
KGOK 101053Z AUTO 17005KT 10SM CLR 27/21 A2988 RMK AO2 SLP104 T02670206

2010/08/10 10:53
KGTF 101053Z 20009KT 10SM CLR 16/07 A2986 RMK AO2 SLP083 T01560072

2010/08/10 10:53
KGZH 101053Z AUTO 00000KT 2 1/2SM BR CLR 23/23 A2997 RMK AO2 SLP144 T02330228

2010/08/10 10:53
KHAO 101053Z AUTO 00000KT 3SM BR CLR 22/20 A2998 RMK AO2 SLP144 T02170200

2010/08/10 10:53
KHBR 101053Z AUTO 24005KT 10SM CLR 24/19 A2992 RMK AO2 SLP107 T02390194

2010/08/10 10:53
KHFD 101053Z 12003KT 5SM BR FEW100 23/22 A2992 RMK AO2 SLP130 T02330217

2010/08/10 10:53
KHGR 101053Z 00000KT 5SM HZ CLR 24/19 A2997 RMK AO2 SLP150 T02390189

2010/08/10 10:53
KHLN 101053Z AUTO 00000KT 10SM CLR 12/09 A2993 RMK AO2 SLP130 T01170094

2010/08/10 10:53
KHUF 101053Z 00000KT 4SM BR CLR 23/22 A2995 RMK AO2 SLP135 T02330222

2010/08/10 10:53
KHUL 101053Z AUTO 00000KT 6SM BR CLR 17/17 A2983 RMK AO2 SLP100 T01720167

2010/08/10 10:53
KHVN 101053Z 00000KT 8SM OVC100 24/20 A2993 RMK AO2 SLP135 T02440200

2010/08/10 10:53
KHVR 101053Z AUTO 17004KT 10SM CLR 13/12 A2981 RMK AO2 SLP076 T01330122

2010/08/10 10:53
KHWO 101053Z 14010G16KT 9SM -RA FEW050 BKN070 OVC100 25/23 A2989 RMK AO2 TSB15E39 SLP122 P0001 T02500233 $

2010/08/10 10:53
KHZY 101053Z AUTO 00000KT 1/4SM FG CLR 19/19 A2997 RMK AO2 SLP143 T01940194

2010/08/10 10:53
KIAG 101053Z AUTO 00000KT 1SM BR FEW032 BKN044 21/20 A2994 RMK AO2 SLP136 T02110200

2010/08/10 10:53
KIDA 101053Z AUTO 34005KT 10SM CLR 11/09 A3002 RMK AO2 SLP134 T01060089

2010/08/10 10:53
KIML 101053Z AUTO 23004KT 10SM CLR 18/17 A2996 RMK AO2 SLP110 T01830167

2010/08/10 10:53
KIPL 101053Z AUTO 00000KT 10SM CLR 24/08 A2973 RMK AO2 SLP067 T02390083

2010/08/10 10:53
KITR 101053Z AUTO 31005KT 10SM SCT120 18/16 A3003 RMK AO2 SLP109 T01780161

2010/08/10 10:53
KIWI 101053Z AUTO 00000KT 9SM CLR 19/18 A2989 RMK AO2 SLP119 T01890178

2010/08/10 10:53
KJER 101053Z AUTO 04015KT 10SM CLR 15/12 A2992 RMK AO2 SLP094 T01500117 $

2010/08/10 10:53
KJKL 101053Z AUTO 00000KT 4SM BR CLR 23/22 A3004 RMK AO2 SLP153 T02280217

2010/08/10 10:53
KLAA 101053Z AUTO 00000KT 10SM CLR 18/17 A3000 RMK AO2 SLP106 T01830172

2010/08/10 10:53
KLAN 101053Z 00000KT M1/4SM R28L/0800V1400FT FG OVC004 19/19 A2999 RMK AO2 SLP152 T01890189

2010/08/10 10:53
KLAR 101053Z AUTO 17007KT 10SM CLR 08/06 A3021 RMK AO2 SLP137 T00780061

2010/08/10 10:53
KMMK 101053Z AUTO 00000KT 4SM BR OVC100 22/21 A2994 RMK AO2 SLP135 T02220211

2010/08/10 10:53
KMNN 101053Z AUTO 00000KT 3SM BR CLR 21/20 A2999 RMK AO2 SLP147 T02110200 $

2010/08/10 10:53
KMOD 101053Z AUTO 31005KT 10SM CLR 17/12 A2981 RMK AO2 SLP095 T01720122

2010/08/10 10:53
KMRB 101053Z AUTO 00000KT 6SM HZ CLR 21/18 A2997 RMK AO2 SLP144 T02110183

2010/08/10 10:53
KMSO 101053Z AUTO 00000KT 10SM CLR 12/11 A2992 RMK AO2 SLP119 T01220106

2010/08/10 10:53
KMSS 101053Z AUTO 22006KT 10SM OVC004 22/21 A2993 RMK AO2 CIG 003V008 SLP134 T02170206

2010/08/10 10:53
KMTH 101053Z AUTO 18006G15KT 7SM VCTS -RA SCT020 BKN027 OVC075 26/24 A2984 RMK AO2 TSB39RAE14B34 SLP105 P0004 T02610239

2010/08/10 10:53
KMTJ 101053Z AUTO 12007KT 10SM CLR 14/07 A3020 RMK AO2 SLP147 T01440067

2010/08/10 10:53
KMVY 101053Z 31003KT 2SM HZ CLR 24/21 A2992 RMK AO2 SLP132 T02390206

2010/08/10 10:53
KMWL 101053Z AUTO 12006KT 10SM CLR 23/19 A2991 RMK AO2 SLP113 T02330194

2010/08/10 10:53
KEYW 101053Z 21007KT 5SM +RA BR FEW018 BKN030 OVC038 26/23 A2985 RMK AO2 SLP106 P0011 T02560233

2010/08/10 10:53
KFAT 101053Z 29006KT 10SM CLR 19/14 A2981 RMK AO2 SLP090 T01890144

2010/08/10 10:53
KFDR 101053Z AUTO 21004KT 10SM 25/19 A2989 RMK AO2 SLP099 T02500194

2010/08/10 10:53
KFDY 101053Z AUTO 00000KT 1 1/2SM BR SCT041 BKN060 22/21 A2997 RMK AO2 SLP140 T02220211

2010/08/10 10:53
KFFT 101053Z AUTO 00000KT 4SM BR CLR 23/22 A2997 RMK AO2 SLP140 T02280217

2010/08/10 10:53
KFLL 101053Z 15010KT 9SM -RA FEW012 SCT043 SCT060 25/24 A2988 RMK AO2 TSB15E36RAB03 SLP117 P0050 T02500239

2010/08/10 10:53
KFLO 101053Z 00000KT 10SM CLR 24/23 A3002 RMK AO2 SLP164 T02440233

2010/08/10 10:53
KFMY 101053Z 10008KT 10SM OVC008 25/24 A2983 RMK AO2 CIG 007V012 SLP103 T02500239

2010/08/10 10:53
KFNT 101053Z AUTO 27003KT M1/4SM FG 19/19 A2998 RMK AO2 SLP149 T01890189 RVRNO $

2010/08/10 10:53
KFOK 101053Z AUTO 21003KT 5SM BR FEW100 22/20 A2995 RMK AO2 RAE52 SLP139 P0000 T02220200 TSNO

2010/08/10 10:53
KFPR 101053Z AUTO 09003KT 10SM FEW035 SCT045 25/24 A2989 RMK AO2 SLP121 T02500239

2010/08/10 10:53
KFRG 101053Z AUTO 00000KT 10SM CLR 24/20 A2994 RMK AO2 SLP137 T02440200

2010/08/10 10:53
KFTW 101053Z 00000KT 10SM CLR 26/21 A2991 RMK AO2 SLP116 T02610206

2010/08/10 10:53
KFVE 101053Z AUTO 32004KT 5SM BR CLR 16/15 A2985 RMK AO2 SLP105 T01610150

2010/08/10 10:53
KFWN 101053Z AUTO 00000KT 3SM BR FEW120 22/21 A2997 RMK AO2 RAB02E11 SLP144 P0000 T02170206

2010/08/10 10:53
KFXE 101053Z 15008KT 7SM -RA FEW020 BKN044 OVC060 26/23 A2988 RMK AO2 RAB30 SLP121 P0005 T02560233

2010/08/10 10:53
KGCC 101053Z AUTO 26007KT 10SM CLR 13/11 A2994 RMK AO2 SLP089 T01330106

2010/08/10 10:53
KGEY 101053Z AUTO 14005KT 10SM CLR 14/09 A2996 RMK AO2 SLP106 T01440089

2010/08/10 10:53
KGEZ 101053Z AUTO 10004KT 1 3/4SM BR CLR 22/21 A2994 RMK AO2 SLP132 T02170206

2010/08/10 10:53
KGFL 101053Z AUTO 00000KT 1 1/4SM BR OVC004 21/21 A2994 RMK AO2 CIG 001V007 SLP136 T02060206

2010/08/10 10:53
KLAW 101053Z AUTO 22003KT 10SM CLR 25/19 A2990 RMK AO2 SLP110 T02500194

2010/08/10 10:53
KLBB 101053Z 28004KT 10SM FEW120 19/17 A3001 RMK AO2 SLP122 T01940172

2010/08/10 10:53
KLEB 101053Z 00000KT 1/4SM FG VV001 20/18 A2994 RMK AO2 SLP130 T02000183

2010/08/10 10:53
KLEE 101053Z AUTO 11012KT 10SM CLR 26/24 A2992 RMK AO2 SLP130 T02560239

2010/08/10 10:53
KLHQ 101053Z AUTO 00000KT 4SM BR CLR 21/19 A2999 RMK AO2 SLP148 T02060194

2010/08/10 10:53
KLHX 101053Z AUTO 29003KT 10SM CLR 17/16 A3004 RMK AO2 SLP116 T01670156 $

2010/08/10 10:53
KLMT 101053Z AUTO 00000KT 10SM FEW090 12/07 A2998 RMK AO2 SLP109 T01220067

2010/08/10 10:53
KLNS 101053Z 00000KT 4SM HZ CLR 23/20 A2994 RMK AO2 SLP135 T02280200

2010/08/10 10:53
KLOL 101053Z AUTO 00000KT 10SM CLR 13/M01 A2995 RMK AO2 SLP100 T01281006

2010/08/10 10:53
KLOU 101053Z 00000KT 6SM BR CLR 26/24 A2996 RMK AO2 SLP136 T02610239

2010/08/10 10:53
KLOZ 101053Z AUTO 00000KT 2 1/2SM BR SCT055 23/22 A3003 RMK AO2 SLP154 T02280222

2010/08/10 10:53
KLPR 101053Z AUTO 28003KT 1 1/4SM BR CLR 22/19 A2998 RMK AO2 SLP145 T02170194

2010/08/10 10:53
KLUK 101053Z 00000KT 5SM MIFG CLR 22/22 A2997 RMK AO2 SLP145 T02220222

2010/08/10 10:53
KLVK 101053Z AUTO 31004KT 10SM OVC007 13/11 A2987 RMK AO2 SLP110 T01330111 $

2010/08/10 10:53
KLVM 101053Z AUTO 27015G21KT 10SM CLR 16/08 A2996 RMK AO2 PK WND 27029/1035 SLP113 T01560078

2010/08/10 10:53
KLWV 101053Z AUTO 20003KT 3SM BR CLR 25/23 A2993 RMK AO2 SLP131 T02500233

2010/08/10 10:53
KLXT 101053Z AUTO 19004KT 10SM CLR 27/21 A2993 RMK AO2 SLP123 T02720211

2010/08/10 10:53
KMAF 101053Z 08005KT 10SM CLR 21/19 A2999 RMK AO2 SLP107 T02110189

2010/08/10 10:53
KMAI 101053Z AUTO 05005KT 8SM CLR 24/23 A2994 RMK AO2 SLP136 T02440228

2010/08/10 10:53
KMBS 101053Z 33003KT 3SM BR CLR 21/21 A2998 RMK AO2 SLP149 T02110206

2010/08/10 10:53
KMCE 101053Z AUTO 32008KT 10SM CLR 17/13 A2979 RMK AO2 SLP088 T01720128

2010/08/10 10:53
KMCK 101053Z AUTO 19003KT 10SM CLR 19/19 A2992 RMK AO2 SLP103 T01940194

2010/08/10 10:53
KYIP 101053Z 00000KT 1/4SM FG BKN001 BKN009 19/18 A2998 RMK AO2 SLP146 T01890178 RVRNO

2010/08/10 10:53
KZZV 101053Z AUTO 00000KT 3SM BR CLR 20/19 A2999 RMK AO2 SLP145 T02000194

2010/08/10 10:54
KAAO 101054Z AUTO 18006KT 10SM CLR 26/21 A2988 RMK AO2 SLP100 T02610206

2010/08/10 10:55
KAIZ 101055Z AUTO 00000KT 10SM CLR 24/23 A2997 RMK AO1

2010/08/10 10:54
KAKH 101054Z AUTO 00000KT 2SM BR CLR 21/20 A3004 RMK AO2 SLP165 T02110200

2010/08/10 10:54
KAKR 101054Z AUTO 21003KT 6SM BR CLR 21/19 A2998 RMK AO2 SLP142 T02110189

2010/08/10 10:54
KALO 101054Z 19003KT 4SM -RA BR SCT005 BKN010 OVC025 24/24 A2996 RMK AO2 LTG DSNT S SLP138 P0004 T02440239

2010/08/10 10:54
KAPC 101054Z AUTO 29005KT 10SM OVC005 12/11 A2988 RMK AO2 SLP108 T01170106 $

2010/08/10 10:55
KARG 101055Z AUTO 00000KT 8SM CLR 26/23 A2993 RMK AO1

2010/08/10 10:55
KAUO 101055Z AUTO 08003KT 10SM CLR 24/21 A3000 RMK AO1

2010/08/10 10:54
KAUW 101054Z AUTO 00000KT 4SM BR CLR 17/17 A3000 RMK AO2 SLP155 T01720167

2010/08/10 10:54
KAVL 101054Z 33003KT 1/2SM FG OVC002 19/19 A3013 RMK AO2 SLP177 T01940194 RVRNO

2010/08/10 10:55
KAWO 101055Z AUTO 23003KT 10SM 14/13 A2996 RMK AO1

2010/08/10 10:54
KBFL 101054Z AUTO 32004KT 10SM CLR 19/08 A2982 RMK AO2 SLP093 T01940083

2010/08/10 10:55
KBHB 101055Z AUTO 00000KT 3SM CLR 18/17 A2985 RMK AO1

2010/08/10 10:55
KBID 101055Z AUTO 00000KT 9SM FEW085 BKN120 22/20 A2992 RMK AO1

2010/08/10 10:55
KBKX 101055Z AUTO 10008KT 8SM TS FEW007 BKN021 OVC055 24/22 A2990 RMK AO1 LTG DSNT ALQDS TSB45 P0001

2010/08/10 10:55
KBLM 101055Z AUTO 29003KT 8SM CLR 23/20 A2996 RMK AO1

2010/08/10 10:54
KBOS 101054Z 27006KT 10SM BKN120 24/21 A2990 RMK AO2 SLP125 T02390206

2010/08/10 10:55
KBTP 101055Z AUTO 00000KT 4SM OVC045 21/19 A2999 RMK AO1

2010/08/10 10:54
KBUF 101054Z 19004KT 2 1/2SM BR FEW041 BKN050 BKN060 21/21 A2995 RMK AO2 SLP139 T02110206

2010/08/10 10:54
KBUY 101054Z AUTO 00000KT 4SM BR CLR 23/21 A3002 RMK AO2 SLP158 T02280211

2010/08/10 10:55
KBVX 101055Z AUTO 00000KT 10SM CLR 27/24 A2993 RMK AO1

2010/08/10 10:54
KBWI 101054Z 26005KT 6SM HZ SCT150 SCT250 24/21 A2993 RMK AO2 SLP133 T02390206

2010/08/10 10:54
KCEU 101054Z AUTO 00000KT 4SM BR CLR 26/23 A3006 RMK AO2 SLP164 T02560233

2010/08/10 10:55
KCGZ 101055Z AUTO 00000KT 10SM CLR 27/08 A2985 RMK AO1

2010/08/10 10:55
KCIU 101055Z AUTO 36005KT 7SM OVC004 19/19 A2998 RMK AO1

2010/08/10 10:55
KCOD 101055Z AUTO 24005KT 10SM CLR 16/06 A3001 RMK AO1

2010/08/10 10:55
KCOE 101055Z AUTO 18010G15KT 10SM SCT120 16/07 A2985 RMK AO1

2010/08/10 10:54
KCOS 101054Z AUTO 33003KT 10SM CLR 17/11 A3017 RMK AO2 SLP132 T01670111 TSNO

2010/08/10 10:54
KCRW 101054Z 00000KT 4SM BR SCT001 21/19 A3001 RMK AO2 SLP151 DNS VLY FG T02060194

2010/08/10 10:55
KCVN 101055Z 16004KT 10SM FEW120 18/16 A3008 RMK AO1

2010/08/10 10:55
KCVO 101055Z AUTO 27003KT 10SM CLR 11/09 A2999 RMK AO1

2010/08/10 10:55
KCWI 101055Z 26011G15KT 10SM VCTS FEW007 SCT037 BKN045 24/23 A3001 RMK AO1 LTG DSNT ALQDS TSB32

2010/08/10 10:54
KDDH 101054Z AUTO VRB03KT 4SM BR BKN008 BKN012 OVC035 21/20 A2997 RMK AO2 CIG 007V011 SLP141 T02060200

2010/08/10 10:54
KDEC 101054Z 00000KT 10SM CLR 24/21 A2995 RMK AO2 SLP134 T02440211 $

2010/08/10 10:54
KDSM 101054Z 08003KT 10SM FEW009 SCT050 BKN140 OVC200 23/21 A2994 RMK AO2 TSE09 SLP129 CONS LTGIC DSNT NW-NE TS MOV NE CB DSNT NW-NE MOV NE T02280211

2010/08/10 10:54
KDSV 101054Z AUTO 13003KT 3SM BR BKN065 OVC095 22/21 A2997 RMK AO2 SLP153 T02170206 $

2010/08/10 10:55
KDVL 101055Z AUTO 12008KT 10SM CLR 23/18 A2988 RMK AO1

2010/08/10 10:54
KDYL 101054Z AUTO 00000KT 8SM SCT080 23/21 A2994 RMK AO2 SLP132 T02280206 TSNO

2010/08/10 10:55
KDYR 101055Z AUTO 14003KT 5SM CLR 25/22 A2995 RMK AO1

2010/08/10 10:55
KEAR 101055Z AUTO 00000KT 10SM CLR 19/18 A2991 RMK AO1

2010/08/10 10:54
KECG 101054Z 25005KT 10SM CLR 24/24 A3000 RMK AO2 SLP157 P0001 T02440239

2010/08/10 10:55
KEEN 101055Z AUTO 00000KT M1/4SM OVC002 20/19 A2993 RMK AO1

2010/08/10 10:55
KEGE 101055Z AUTO 00000KT 10SM CLR 11/08 A3027 RMK AO1

2010/08/10 10:55
KEHR 101055Z AUTO 00000KT 2 1/2SM CLR 23/20 A2996 RMK AO1

2010/08/10 10:55
KENV 101055Z AUTO 00000KT 10SM CLR 14/07 A2997 RMK AO1

2010/08/10 10:55
KESC 101055Z AUTO 00000KT M1/4SM VV000 17/15 A2998 RMK AO1

2010/08/10 10:53
KODO 101053Z AUTO 14003KT 10SM CLR 21/18 A3000 RMK AO2 SLP107 T02110183 $

2010/08/10 10:50
KOGA 101050Z AUTO 26004KT 10SM CLR 18/16 A2995 RMK AO2 T01750164

2010/08/10 10:53
KOGB 101053Z AUTO 00000KT 6SM BR CLR 24/23 A3003 RMK AO2 SLP165 T02440233

2010/08/10 10:53
KOGD 101053Z AUTO 17008KT 10SM CLR 17/03 A2999 RMK AO2 SLP101 T01720028

2010/08/10 10:53
KOLF 101053Z AUTO 00000KT 10SM CLR 17/17 A2979 RMK AO2 SLP077 T01720167

2010/08/10 10:50
KONL 101050Z AUTO 11006KT 10SM CLR 20/19 A2983 RMK AO2 T02000192

2010/08/10 10:53
KONO 101053Z AUTO 25003KT 10SM CLR 17/12 A2985 RMK AO2 SLP091 T01670122

2010/08/10 10:53
KOPF 101053Z AUTO 13009KT 10SM SCT075 BKN085 25/24 A2988 RMK AO2 RAE38 SLP118 P0000 T02500239

2010/08/10 10:53
KORL 101053Z 08007KT 10SM FEW029 24/23 A2992 RMK AO2 SLP133 T02440233

2010/08/10 10:53
KOSU 101053Z 00000KT 4SM BR FEW070 23/21 A2998 RMK AO2 SLP143 T02280206

2010/08/10 10:53
KOVS 101053Z AUTO 00000KT 1/4SM FG VV001 23/22 A2997 RMK AO2 SLP143 T02280222

2010/08/10 10:53
KOWD 101053Z 00000KT 4SM BR OVC090 22/20 A2991 RMK AO2 SLP126 T02220200

2010/08/10 10:53
KOXB 101053Z AUTO 26006KT 8SM CLR 25/24 A2995 RMK AO2 SLP142 T02500239 $

2010/08/10 10:53
KPBG 101053Z AUTO 00000KT M1/4SM FG OVC002 17/16 A2991 RMK AO2 SLP129 T01670161

2010/08/10 10:53
KPBI 101053Z 14014KT 6SM +RA SCT022CB BKN035 BKN060 27/23 A2988 RMK AO2 RAB0957E08B46 SLP116 CB OHD-NW AND ALQDS MOV NW P0002 T02690232 $

2010/08/10 10:53
KPEO 101053Z AUTO 22003KT 10SM SCT090 21/20 A2997 RMK AO2 SLP143 T02110200

2010/08/10 10:53
KPGD 101053Z AUTO 10006KT 10SM BKN010 OVC013 24/23 A2987 RMK AO2 SLP116 T02440233 TSNO

2010/08/10 10:53
KPHD 101053Z AUTO 00000KT 2 1/2SM BR CLR 22/19 A2998 RMK AO2 RAE09 SLP145 P0000 T02170194

2010/08/10 10:53
KPIE 101053Z 10010KT 10SM BKN013 BKN023 26/23 A2986 RMK AO2 SLP112 T02560233

2010/08/10 10:53
KPIH 101053Z AUTO 36004KT 10SM SCT110 12/09 A3000 RMK AO2 SLP121 T01170094

2010/08/10 10:53
KPIL 101053Z AUTO 15004KT 10SM CLR 29/27 A2987 RMK AO2 SLP113 T02890267

2010/08/10 10:53
KTDZ 101053Z AUTO 00000KT 3/4SM BR OVC001 22/21 A2997 RMK AO2 SLP144 T02170211

2010/08/10 10:50
KTEX 101050Z AUTO 10003KT 10SM SCT070 OVC085 11/05 A3041 RMK AO2

2010/08/10 10:53
KTHV 101053Z AUTO 00000KT 2SM BR CLR 21/21 A2995 RMK AO2 SLP139 T02110206

2010/08/10 10:50
KTIF 101050Z AUTO 23005KT 10SM CLR 19/18 A2991 RMK AO2 T01850175

2010/08/10 10:53
KTKI 101053Z 15004KT 10SM CLR 27/22 A2992 RMK AO2 SLP123 T02670217

2010/08/10 10:53
KTMB 101053Z 20006KT 10SM FEW023 SCT041 OVC080 26/23 A2987 RMK AO2 RAB39E48 SLP113 P0000 T02610233

2010/08/10 10:53
KTOR 101053Z AUTO 13006KT 10SM CLR 15/14 A2998 RMK AO2 SLP103 T01500139 $

2010/08/10 10:53
KTPA 101053Z 08003KT 10SM FEW010 SCT020 25/23 A2987 RMK AO2 SLP114 T02500233

2010/08/10 10:50
KTRK 101050Z AUTO 00000KT 10SM CLR 06/04 A3010 RMK AO2

2010/08/10 10:53
KTRL 101053Z AUTO 15003KT 10SM CLR 27/21 A2993 RMK AO2 SLP125 T02670211

2010/08/10 10:53
KTTN 101053Z 00000KT 6SM HZ CLR 24/21 A2993 RMK AO2 SLP129 T02440211

2010/08/10 10:53
KTWF 101053Z AUTO 00000KT 10SM CLR 13/11 A2993 RMK AO2 SLP091 T01280106 $

2010/08/10 10:53
KTXK 101053Z AUTO 00000KT 10SM CLR 26/23 A2992 RMK AO2 SLP125 T02610233

2010/08/10 10:53
KTYR 101053Z 23003KT 10SM CLR 27/24 A2995 RMK AO2 SLP130 T02720239

2010/08/10 10:53
KUUU 101053Z AUTO 00000KT 3SM BR OVC095 22/21 A2992 RMK AO2 RAE52 SLP131 P0001 T02170211

2010/08/10 10:53
KVCB 101053Z AUTO 24008KT 10SM CLR 14/11 A2982 RMK AO2 SLP096 T01390106

2010/08/10 10:53
KVEL 101053Z AUTO 29006KT 10SM CLR 11/02 A3012 RMK AO2 SLP142 T01060017

2010/08/10 10:53
KVLD 101053Z 08003KT 10SM CLR 24/23 A2996 RMK AO2 SLP152 T02440233

2010/08/10 10:53
KVRB 101053Z AUTO 13006KT 10SM CLR 26/24 A2989 RMK AO2 SLP121 T02560239

2010/08/10 10:53
KWRL 101053Z AUTO 15003KT 10SM CLR 13/07 A2998 RMK AO2 SLP108 T01280072 $

2010/08/10 10:53
KWST 101053Z AUTO 00000KT 3SM -RA BR FEW037 BKN100 22/21 A2993 RMK AO2 RAB12 SLP133 P0000 T02220206

2010/08/10 10:53
KWVI 101053Z AUTO 00000KT 4SM BR OVC002 12/11 A2990 RMK AO2 SLP125 T01170111 $

2010/08/10 10:54
KBKB 101054Z AUTO 00000KT 10SM BKN065 BKN090 26/24 A2992 RMK AO2 SLP157 T02560239 $ 

2010/08/10 10:53
KMCO 101053Z 08006KT 10SM FEW026 FEW080 FEW250 24/23 A2992 RMK AO2 SLP129 T02440228

2010/08/10 10:53
KMGY 101053Z AUTO 00000KT 5SM BR CLR 22/21 A2998 RMK AO2 SLP143 T02220206

2010/08/10 10:53
KMHT 101053Z 33006KT 6SM BR SCT120 22/21 A2989 RMK AO2 SLP130 T02220206

2010/08/10 10:53
KMIA 101053Z 12009KT 8SM BKN025CB BKN090 OVC130 26/24 A2987 RMK AO2 RAE17 SLP114 CB NE-SE MOV NW P0000 T02610244 $

2010/08/10 10:53
KMIE 101053Z 00000KT 2 1/2SM BR CLR 22/21 A2998 RMK AO2 SLP139 T02170206

2010/08/10 10:53
KMKO 101053Z AUTO 17003KT 10SM CLR 23/20 A2992 RMK AO2 SLP122 T02280200

2010/08/10 10:53
KMLB 101053Z 11008KT 10SM FEW018 BKN050 27/23 A2991 RMK AO2 SLP128 T02720233

2010/08/10 10:53
KMLC 101053Z AUTO 00000KT 10SM CLR 25/20 A2992 RMK AO2 SLP120 T02500200

2010/08/10 10:53
KMLS 101053Z AUTO 23004KT 10SM CLR 17/14 A2983 RMK AO2 SLP077 T01720144

2010/08/10 10:53
KMLT 101053Z AUTO 00000KT 8SM CLR 17/16 A2986 RMK AO2 SLP115 T01720161

2010/08/10 10:53
KMLU 101053Z A2995 RMK AO2 SLPNO $

2010/08/10 10:53
KPKB 101053Z 00000KT 6SM BR OVC110 21/19 A3002 RMK AO2 SLP155 T02110194

2010/08/10 10:53
KPMP 101053Z AUTO 17009G19KT 5SM RA BR SCT013 BKN018 OVC041 26/24 A2989 RMK AO2 TSB15E35RAB45 SLP121 P0005 T02610244

2010/08/10 10:50
KPNA 101050Z AUTO 30003KT 10SM CLR 04/03 A3021 RMK AO2 T00350025

2010/08/10 10:53
KPNS 101053Z 03006KT 8SM CLR 26/24 A2993 RMK AO2 SLP134 T02560239

2010/08/10 10:53
KPOU 101053Z VRB03KT 2 1/2SM -RA BR OVC030 22/21 A2994 RMK AO2 SLP135 P0009 T02170211

2010/08/10 10:53
KPSP 101053Z AUTO 00000KT 10SM CLR 23/09 A2976 RMK AO2 SLP073 T02330094 TSNO

2010/08/10 10:53
KPTK 101053Z 00000KT 3SM BR FEW001 SCT120 21/21 A2997 RMK AO2 TWR VIS 5 SLP142 T02110206

2010/08/10 10:50
KPTT 101050Z AUTO 21008KT 10SM CLR 23/18 A2990 RMK AO2

2010/08/10 10:53
KPUB 101053Z AUTO 00000KT 10SM CLR 14/14 A3008 RMK AO2 SLP140 T01440139

2010/08/10 10:53
KPUC 101053Z AUTO 03005KT 10SM CLR 12/00 A3015 RMK AO2 SLP159 T01170000 $

2010/08/10 10:53
KPWA 101053Z AUTO 18009KT 10SM CLR 26/19 A2990 RMK AO2 SLP103 T02610194

2010/08/10 10:53
KRAL 101053Z AUTO 00000KT 10SM CLR 16/13 A2989 RMK AO2 SLP107 T01610128

2010/08/10 10:53
KRBD 101053Z VRB03KT 10SM CLR 27/22 A2991 RMK AO2 SLP117 T02720217

2010/08/10 10:53
KRIW 101053Z AUTO 25005KT 10SM CLR 14/03 A3007 RMK AO2 SLP114 T01440033

2010/08/10 10:53
KRME 101053Z AUTO 00000KT 3SM BR OVC023 21/20 A2998 RMK AO2 SLP147 T02060200

2010/08/10 10:53
KRSW 101053Z AUTO 10011KT 10SM OVC006 24/23 A2984 RMK AO2 CIG 005V010 SLP101 T02440233 TSNO

2010/08/10 10:53
KRWL 101053Z AUTO 00000KT 10SM CLR 09/02 A3018 RMK AO2 SLP139 T00940022

2010/08/10 10:53
KRXE 101053Z AUTO 00000KT 10SM CLR 10/09 A3005 RMK AO2 SLP149 T01000089

2010/08/10 10:53
KSEG 101053Z AUTO 00000KT 6SM BR SCT120 22/19 A2996 RMK AO2 SLP143 T02170194

2010/08/10 10:49
KSEZ 101049Z AUTO 04011KT 10SM OVC090 20/09 A3010 RMK AO2 T02000085

2010/08/10 10:53
KSHR 101053Z AUTO 00000KT 10SM CLR 12/10 A2993 RMK AO2 SLP096 T01170100

2010/08/10 10:53
KSIY 101053Z AUTO VRB04KT 10SM 17/07 A2992 RMK AO2 SLP117 T01720072 $

2010/08/10 10:53
KSLC 101053Z 14008KT 10SM CLR 18/03 A2999 RMK AO2 SLP106 T01780028

2010/08/10 10:53
KSMQ 101053Z AUTO 00000KT 6SM BR CLR 23/21 A2992 RMK AO2 SLP130 T02280206

2010/08/10 10:53
KSNS 101053Z AUTO 00000KT 7SM OVC003 12/11 A2990 RMK AO2 SLP133 T01220111

2010/08/10 10:53
KSNY 101053Z AUTO 22008KT 10SM CLR 17/15 A3003 RMK AO2 SLP125 T01670150

2010/08/10 10:50
KSOW 101050Z AUTO 00000KT 10SM CLR 13/09 A3025 RMK AO2

2010/08/10 10:53
KSPG 101053Z 11013KT 10SM BKN010 BKN025 27/24 A2985 RMK AO2 SLP107 T02670244

2010/08/10 10:53
KSRQ 101053Z 09010KT 10SM BKN012 25/23 A2984 RMK AO2 SLP103 T02500233

2010/08/10 10:53
KSSI 101053Z AUTO 14008KT 10SM FEW023 BKN049 28/23 A2997 RMK AO2 SLP149 T02830233

2010/08/10 10:50
KSUN 101050Z AUTO 33014KT 10SM CLR 11/09 A3005 RMK AO2

2010/08/10 10:45
KSWF 101045Z 00000KT 6SM BR BKN060 22/21 A2998

2010/08/10 10:53
KSWO 101053Z AUTO 13003KT 10SM CLR 26/21 A2989 RMK AO2 SLP105 T02610211

2010/08/10 10:50
KSZT 101050Z AUTO 00000KT 10SM SCT085 11/10 A2983 RMK AO2

2010/08/10 10:53
KBYI 101053Z AUTO 01005KT 10SM FEW120 13/12 A2993 RMK AO2 SLP097 T01330117

2010/08/10 10:53
KCAG 101053Z AUTO 00000KT 10SM CLR 06/05 A3021 RMK AO2 SLP176 T00610050

2010/08/10 10:53
KCCR 101053Z AUTO 00000KT 10SM CLR 12/09 A2986 RMK AO2 SLP099 T01220094

2010/08/10 10:53
KCDC 101053Z AUTO 00000KT 10SM CLR 13/02 A3012 RMK AO2 SLP129 T01280022

2010/08/10 10:53
KCDR 101053Z AUTO 24006KT 10SM CLR 18/14 A2990 RMK AO2 SLP102 T01780144

2010/08/10 10:53
KCDS 101053Z AUTO 25006KT 10SM CLR 21/19 A2995 RMK AO2 SLP112 T02110189

2010/08/10 10:53
KCDW 101053Z 00000KT 5SM HZ BKN120 24/21 A2995 RMK AO2 SLP144 T02390211 $

2010/08/10 10:53
KCEW 101053Z AUTO 00000KT 3SM BR CLR 23/22 A2995 RMK AO2 SLP139 T02280222

2010/08/10 10:53
KCEZ 101053Z AUTO 07003KT 10SM FEW110 11/08 A3020 RMK AO2 SLP155 T01110083

2010/08/10 10:53
KCHO 101053Z 00000KT 5SM BR CLR 22/21 A2998 RMK AO2 SLP143 T02220206

2010/08/10 10:53
KCKB 101053Z 00000KT 2 1/2SM BR CLR 19/18 A3002 RMK AO2 SLP150 T01890178

2010/08/10 10:53
KCNY 101053Z AUTO 00000KT 10SM CLR 16/02 A3005 RMK AO2 SLP119 T01610017

2010/08/10 10:53
KCPR 101053Z 25006KT 10SM CLR 13/02 A3004 RMK AO2 SLP109 T01330017

2010/08/10 10:53
KCRE 101053Z 00000KT 10SM SCT018 SCT033 26/25 A3001 RMK AO2 SLP164 T02610250

2010/08/10 10:53
KCRG 101053Z 12003KT 10SM CLR 25/23 A2995 RMK AO2 SLP141 T02500233

2010/08/10 10:53
KCRS 101053Z AUTO 17005KT 10SM 26/23 A2992 RMK AO2 SLP123 T02560233 $

2010/08/10 10:53
KCSM 101053Z AUTO 22006KT 10SM CLR 23/19 A2994 RMK AO2 SLP108 T02330189

2010/08/10 10:53
KCUB 101053Z AUTO 00000KT 9SM OVC003 25/23 A3003 RMK AO2 SLP165 T02500233

2010/08/10 10:53
KCYS 101053Z AUTO 28012KT 10SM CLR 14/08 A3013 RMK AO2 SLP120 T01440078 TSNO

2010/08/10 10:53
KDAL 101053Z 22004KT 10SM CLR 28/21 A2991 RMK AO2 SLP118 T02830206

2010/08/10 10:53
KDEN 101053Z 23008KT 10SM SCT140 16/12 A3010 RMK AO2 SLP122 T01560122

2010/08/10 10:53
KDEQ 101053Z AUTO 00000KT 6SM BR CLR 24/23 A2991 RMK AO2 SLP122 T02390228

2010/08/10 10:53
KDET 101053Z 00000KT 3SM BR CLR 21/21 A2997 RMK AO2 SLP144 T02110206

2010/08/10 10:53
KDFI 101053Z AUTO 00000KT 1/4SM FG OVC001 21/20 A2998 RMK AO2 SLP147 T02060200

2010/08/10 10:53
KDFW 101053Z 20006KT 10SM CLR 27/21 A2990 RMK AO2 SLP115 T02720206

2010/08/10 10:53
KDGW 101053Z AUTO 26009KT 10SM CLR 18/04 A3000 RMK AO2 SLP098 T01780044

2010/08/10 10:53
KDHN 101053Z 06004KT 7SM CLR 23/22 A3000 RMK AO2 SLP153 T02330222

2010/08/10 10:53
KDKK 101053Z AUTO 18004KT 3SM BR BKN046 OVC075 22/21 A2996 RMK AO2 RAE26 SLP140 P0003 T02170206 $

2010/08/10 10:53
KDLN 101053Z AUTO 19009KT 10SM SCT110 13/07 A3004 RMK AO2 SLP135 T01280067

2010/08/10 10:53
KDMN 101053Z AUTO 00000KT 10SM CLR 18/10 A3005 RMK AO2 SLP095 T01780100

2010/08/10 10:53
KDRO 101053Z AUTO 00000KT 10SM FEW080 12/06 A3025 RMK AO2 SLP159 T01170061

2010/08/10 10:53
KDTN 101053Z AUTO 00000KT 10SM CLR 28/23 A2992 RMK AO2 SLP127 T02780228

2010/08/10 10:53
KDTO 101053Z AUTO 23003KT 10SM CLR 24/21 A2991 RMK AO2 SLP118 T02390211

2010/08/10 10:53
KDTS 101053Z AUTO 06005KT 10SM CLR 27/23 A2991 RMK AO2 SLP127 T02720233

2010/08/10 10:53
KDTW 101053Z 00000KT 3SM R04R/1800VP6000FT CLR 21/21 A2997 RMK AO2 SLP145 T02110206 $

2010/08/10 10:53
KDXR 101053Z 00000KT 4SM BR OVC110 22/21 A2997 RMK AO2 RAE0955B12E49 SLP146 P0001 T02170206

2010/08/10 10:53
KECP 101053Z 02006KT 10SM CLR 25/23 A2991 RMK AO2 SLP140 T02500233

2010/08/10 10:53
KEEO 101053Z AUTO VRB03KT 10SM CLR 07/05 A3022 RMK AO2 SLP166 T00720050 TSNO $

2010/08/10 10:53
KELD 101053Z AUTO 12003KT 10SM CLR 25/24 A2993 RMK AO2 SLP130 T02500239

2010/08/10 10:53
KELM 101053Z 00000KT 1 3/4SM BR FEW003 BKN047 OVC065 21/20 A2997 RMK AO2 RAB10E43 SLP142 P0004 T02110200

2010/08/10 10:53
KEWB 101053Z AUTO 24003KT 4SM BR BKN095 22/21 A2991 RMK AO2 RAE35 SLP127 P0001 T02220206

2010/08/10 10:53
KEYE 101053Z AUTO 00000KT 6SM HZ CLR 25/22 A2995 RMK AO2 SLP132 T02500222

2010/08/10 10:54
KLNK 101054Z 00000KT 10SM CLR 24/22 A2986 RMK AO2 SLP097 T02440217

2010/08/10 10:55
KLPC 101055Z AUTO 00000KT 10SM OVC006 13/11 A2990 RMK AO1 PNO

2010/08/10 10:54
KLWM 101054Z 25005KT 3SM BR CLR 23/21 A2992 RMK AO2 SLP130 T02280211 $

2010/08/10 10:54
KLWT 101054Z AUTO 12004KT 10SM FEW120 13/09 A2990 RMK AO2 SLP094 T01280094

2010/08/10 10:54
KLYH 101054Z 22004KT 3SM BR CLR 22/21 A3002 RMK AO2 SLP155 T02170211

2010/08/10 10:55
KMBL 101055Z AUTO 11003KT M1/4SM OVC002 20/18 A2999 RMK AO1

2010/08/10 10:54
KMFI 101054Z AUTO 06003KT 8SM CLR 19/18 A3000 RMK AO2 SLP150 T01940178

2010/08/10 10:54
KMGJ 101054Z AUTO 00000KT 2 1/2SM BR FEW024 22/20 A2996 RMK AO2 SLP141 T02170200

2010/08/10 10:54
KMIV 101054Z AUTO 00000KT 4SM BR CLR 24/23 A2992 RMK AO2 SLP132 T02390228

2010/08/10 10:55
KMJX 101055Z AUTO 00000KT 10SM BKN070 BKN080 23/21 A2994 RMK AO1

2010/08/10 10:54
KMKC 101054Z 19005KT 10SM CLR 28/21 A2990 RMK AO2 SLP114 T02780211

2010/08/10 10:55
KMKT 101055Z AUTO 12008KT 10SM FEW085 24/22 A2991 RMK AO1

2010/08/10 10:54
KROC 101054Z 00000KT 2SM R04/6000VP6000FT BR FEW070 SCT100 SCT250 21/20 A2995 RMK AO2 SLP140 T02060200

2010/08/10 10:54
KRST 101054Z 11004KT 5SM BR CLR 22/22 A2998 RMK AO2 SLP144 T02220217

2010/08/10 10:55
KRUT 101055Z 26003KT 1/4SM BKN001 OVC018 20/19 A2996 RMK AO1

2010/08/10 10:54
KSBY 101054Z 22003KT 4SM BR CLR 23/23 A2996 RMK AO2 SLP147 T02280228 $

2010/08/10 10:55
KSDY 101055Z AUTO 01006KT 10SM FEW070 OVC100 19/18 A2978 RMK AO1 TSB23E38 P0002

2010/08/10 10:54
KSET 101054Z AUTO 00000KT 6SM BR CLR 26/24 A2992 RMK AO2 SLP127 T02560244

2010/08/10 10:55
KSFM 101055Z 29003KT 9SM CLR 21/19 A2990 RMK AO1

2010/08/10 10:55
KSFZ 101055Z 24003KT 2SM BKN070 OVC085 21/20 A2991 RMK AO1

2010/08/10 10:55
KSGT 101055Z 19005KT CLR 27/24 A2993 RMK AO1

2010/08/10 10:55
KSGU 101055Z AUTO 00000KT 10SM BKN120 21/05 A2998 RMK AO1

2010/08/10 10:54
KSJN 101054Z AUTO 17006KT 10SM CLR 15/11 A3018 RMK AO2 SLP133 T01500106 $

2010/08/10 10:55
KSKX 101055Z AUTO 36006KT 10SM BKN100 09/04 A3028 RMK AO1

2010/08/10 10:55
KSLG 101055Z AUTO 09004KT 10SM CLR 23/21 A2997 RMK AO1

2010/08/10 10:55
KSMN 101055Z AUTO 00000KT 10SM FEW055 SCT120 13/11 A3006 RMK AO1

2010/08/10 10:55
KSQI 101055Z AUTO 00000KT 10SM BKN033 OVC060 24/23 A2999 RMK AO1 LTG DSNT S

2010/08/10 10:55
KSUE 101055Z AUTO 00000KT M1/4SM OVC002 20/19 A2998 RMK AO1

2010/08/10 10:54
KSUS 101054Z 00000KT 7SM SCT070 25/24 A2992 RMK AO2 SLP122 T02500239

2010/08/10 10:54
KSYR 101054Z 00000KT 5SM BR SCT024 BKN041 BKN055 22/21 A2994 RMK AO2 SLP134 T02170206

2010/08/10 10:54
KTAD 101054Z AUTO 26004KT 10SM CLR 14/12 A3015 RMK AO2 SLP151 T01440117

2010/08/10 10:48
KTIX 101048Z 10007KT 7SM SCT020 27/23 A2992

2010/08/10 10:55
KTPL 101055Z 18006KT 10SM CLR 24/22 A2993 RMK AO1

2010/08/10 10:54
KTQE 101054Z AUTO 20004KT 8SM FEW100 26/24 A2985 RMK AO2 SLP092 T02560244

2010/08/10 10:55
KTVF 101055Z AUTO 00000KT 10SM CLR 19/17 A2993 RMK AO1

2010/08/10 10:56
KUCP 101056Z AUTO 00000KT 2 1/2SM BR CLR 21/20 A2998 RMK AO2 T02110200 SLP159

2010/08/10 10:54
KUIN 101054Z AUTO 19003KT 10SM CLR 26/24 A2992 RMK AO2 SLP123 T02610244

2010/08/10 10:54
KUZA 101054Z AUTO 00000KT 4SM BR CLR 23/21 A3005 RMK AO2 SLP161 T02280211 $

2010/08/10 10:54
KVAY 101054Z AUTO 00000KT 7SM CLR 23/22 A2993 RMK AO2 SLP135 T02330217

2010/08/10 10:55
KVBT 101055Z AUTO 14004KT 10SM CLR 23/20 A2994 RMK AO1

2010/08/10 10:55
KVIS 101055Z AUTO 33006KT 10SM CLR 18/14 A2981 RMK AO1

2010/08/10 10:50
KVQQ 101050Z 00000KT 10SM CLR 24/24 A2994

2010/08/10 10:54
KVSF 101054Z AUTO 00000KT M1/4SM FG VV002 20/19 A2995 RMK AO2 SLP139 T02000194

2010/08/10 10:54
KVTA 101054Z AUTO 00000KT 2 1/2SM BR CLR 20/19 A2998 RMK AO2 SLP143 T02000194

2010/08/10 10:54
KWLD 101054Z AUTO 17008KT 10SM FEW100 26/21 A2990 RMK AO2 SLP107 T02610206

2010/08/10 10:55
KWVL 101055Z AUTO 00000KT 10SM CLR 18/16 A2985 RMK AO1

2010/08/10 10:55
KYKN 101055Z AUTO 00000KT 10SM CLR 21/19 A2983 RMK AO1 TSE12 P0001

2010/08/10 10:53
PAAQ 101053Z AUTO 00000KT 10SM SCT006 BKN012 OVC019 12/11 A2979 RMK AO2 SLP083 T01170106 TSNO

2010/08/10 10:53
PABE 101053Z 17015G24KT 8SM -RA BKN008 BKN021 OVC026 09/08 A2948 RMK AO2 SLP983 P0000 T00940083

2010/08/10 10:53
PABI 101053Z AUTO 21006KT 10SM CLR 15/06 A2969 RMK AO2 SLP051 T01500056 TSNO $

2010/08/10 10:53
PABR 101053Z 07017KT 2 1/2SM -DZ BR OVC002 02/02 A2987 RMK AO2 DZB31 SLP115 P0000 T00170017 $

2010/08/10 10:53
PABT 101053Z 05003KT 10SM SCT040 OVC075 11/10 A2964 RMK AO2 SLP045 T01060100

2010/08/10 10:53
PACD 101053Z 12005KT 10SM -RA BKN048 BKN055 OVC080 09/08 A2965 RMK AO2 RAB39 SLP039 P0001 T00890078

2010/08/10 10:53
PACV 101053Z 00000KT 2SM -RA BR FEW008 OVC016 12/11 A2993 RMK AO2 RAB15 SLP136 P0002 T01170106

2010/08/10 10:53
PADE 101053Z AUTO 11005KT 10SM FEW085 11/10 A2945 RMK AO2 RAB0957E07 SLP974 P0000 T01060100 TSNO

2010/08/10 10:53
PAEG 101053Z AUTO 20003KT 10SM SCT110 06/05 A2968 RMK AO2 SLP052 T00610050 TSNO

2010/08/10 10:53
PAEN 101053Z AUTO 00000KT 8SM FEW003 OVC044 12/11 A2978 RMK AO2 RAB0958E51 SLP085 P0001 T01220111 TSNO

2010/08/10 10:53
PAFA 101053Z 07003KT 10SM BKN080 11/10 A2963 RMK AO2 SLP037 T01110100

2010/08/10 10:53
PAGY 101053Z AUTO 21017KT 10SM FEW047 OVC060 14/11 A2994 RMK AO2 SLP138 T01390106 TSNO

2010/08/10 10:53
PAHO 101053Z AUTO 11006G14KT 10SM BKN045 OVC060 12/08 A2976 RMK AO2 SLP077 T01220083 TSNO

2010/08/10 10:53
PAIL 101053Z AUTO 10013G18KT 10SM BKN027 OVC044 11/09 A2968 RMK AO2 SLP052 T01110089 TSNO

2010/08/10 10:53
PAJN 101053Z 06005KT 3SM -RA BR FEW005 BKN018 OVC035 12/12 A3001 RMK AO2 DZB06E35RAB35 SLP161 P0001 T01220117

2010/08/10 10:53
PAKT 101053Z AUTO 00000KT 10SM BKN016 OVC070 13/12 A3003 RMK AO2 SLP171 T01280117 TSNO

2010/08/10 10:53
PAKV 101053Z AUTO 00000KT 9SM -RA FEW008 OVC047 11/11 A2959 RMK AO2 RAE19B35 SLP020 P0002 T01110106 TSNO

2010/08/10 10:53
PAKW 101053Z AUTO 00000KT 5SM BR FEW003 OVC008 12/12 A3002 RMK AO2 CIG 006V010 SLP166 T01220117 TSNO

2010/08/10 10:53
PALH 101053Z 02004KT 10SM BKN008 OVC050 12/10 A2978 RMK AO2 SLP086 T01220100

2010/08/10 10:53
PAMC 101053Z 07004KT 10SM OVC027 12/10 A2962 RMK AO2 SLP032 T01220100

2010/08/10 10:53
PAMR 101053Z 00000KT 10SM SCT007 BKN027 OVC055 12/10 A2977 RMK AO2 SLP082 T01220100

2010/08/10 10:53
PANC 101053Z 00000KT 10SM SCT006 BKN015 OVC055 12/11 A2977 RMK AO2 SLP082 T01170106

2010/08/10 10:53
PANN 101053Z AUTO 09004KT 10SM OVC075 13/09 A2960 RMK AO2 SLP029 T01330094 TSNO

2010/08/10 10:53
PANT 101053Z 14004KT 1/2SM FG OVC001 12/11 A3003 RMK AO2 SLP169 T01170106

2010/08/10 10:53
PAOM 101053Z AUTO 04005KT 10SM SCT029 BKN034 OVC060 11/09 A2941 RMK AO2 RAE43 SLP959 P0003 T01060094 TSNO

2010/08/10 10:53
PAOR 101053Z 21003KT 10SM SCT080 SCT110 10/09 A2973 RMK AO2 SLP069 T01000094

2010/08/10 10:53
PAOT 101053Z 13005KT 10SM -RA FEW015 BKN065 OVC085 13/12 A2947 RMK AO2 SLP979 P0000 T01280122

2010/08/10 10:53
PAPB 101053Z AUTO 27008KT 3/4SM BR VV001 07/07 A2950 RMK AO2 SLP977 T00720072 TSNO

2010/08/10 10:53
PAQT 101053Z AUTO 06011KT 3SM BR OVC004 02/02 A2980 RMK AO2 CIG 003V008 SLP091 T00220022 TSNO

2010/08/10 10:53
PASC 101053Z 05014KT 1 1/2SM BR OVC003 03/03 A2975 RMK AO2 SLP075 T00330028

2010/08/10 10:53
PASI 101053Z 00000KT 10SM BKN003 BKN018 OVC047 13/12 A3002 RMK AO2 SLP165 T01280122

2010/08/10 10:53
PASN 101053Z 27010KT 3/4SM BR BKN001 OVC008 08/08 A2945 RMK AO2 SLP974 T00780078

2010/08/10 10:53
PASO 101053Z AUTO 19008G15KT 10SM OVC027 13/09 A2975 RMK AO2 SLP075 T01280089 TSNO

2010/08/10 10:53
PATK 101053Z AUTO 15005KT 4SM -RA BR FEW011 BKN019 OVC026 12/11 A2978 RMK AO2 SLP086 P0006 T01170106 TSNO

2010/08/10 10:53
PATO 101053Z AUTO 09011G21KT 10SM SCT023 BKN037 OVC049 12/09 A2984 RMK AO2 RAE03 SLP104 P0000 T01170094 TSNO

2010/08/10 10:53
PAVL 101053Z AUTO 06013KT 8SM -RA BKN041 BKN049 OVC080 12/11 A2948 RMK AO2 SLP983 P0001 T01170106 TSNO

2010/08/10 10:53
PAWD 101053Z AUTO A2984 RMK AO2 SLP106 PWINO FZRANO TSNO $

2010/08/10 10:54
PAWR 101054Z 10007G14KT 2SM BR OVC007 12/10 A2988 RMK SLP119 NOSPECI

2010/08/10 10:53
PAYA 101053Z 09004KT 3SM -RA BR OVC005 13/12 A2997 RMK AO2 CIG 004V008 SLP149 BAY TWR WND 110MMKT P0003 T01330117

2010/08/10 10:54
K12N 101054Z AUTO 00000KT 22/21 A2997 RMK AO2 SLP140 T02220206 PWINO TSNO 

2010/08/10 10:54
KWAL 101054Z AUTO 28005KT 6SM BR CLR 25/23 A2997 RMK AO2 SLP144 T02500228 TSNO 

2010/08/10 10:54
KAVP 101054Z 00000KT 6SM BR FEW120 22/19 A2997 RMK AO2 RAE31 SLP135 P0001 T02170194 

2010/08/10 10:54
KDMH 101054Z AUTO 26/21 A2993 RMK AO2 SLP136 T02560211 PWINO TSNO 

2010/08/10 10:55
KMML 101055Z AUTO 12008KT 8SM FEW005 SCT040 23/22 A2988 RMK AO1 LTG DSNT S

2010/08/10 10:55
KMNM 101055Z AUTO 00000KT 2SM OVC003 21/19 A2998 RMK AO1

2010/08/10 10:54
KMOT 101054Z AUTO 07004KT 10SM FEW036 20/17 A2984 RMK AO2 SLP093 T02000167

2010/08/10 10:55
KMRF 101055Z AUTO 02005KT 10SM CLR A3013 RMK AO1

2010/08/10 10:54
KMRY 101054Z AUTO 19003KT 10SM OVC003 12/10 A2991 RMK AO2 SLP139 T01170100

2010/08/10 10:55
KMSV 101055Z AUTO 00000KT 5SM FEW100 SCT120 19/18 A3000 RMK AO1

2010/08/10 10:55
KMTW 101055Z 00000KT 5SM CLR 19/19 A2998 RMK AO1

2010/08/10 10:54
KMVL 101054Z AUTO 00000KT 1/4SM FG VV001 16/16 A2997 RMK AO2 SLP147 T01610161

2010/08/10 10:55
KMVN 101055Z AUTO 00000KT 1 3/4SM CLR 23/22 A2995 RMK AO1

2010/08/10 10:50
KOCF 101050Z 09003KT 10SM SKC 24/23 A2990

2010/08/10 10:55
KOCH 101055Z AUTO 00000KT 10SM CLR 24/22 A2993 RMK AO1

2010/08/10 10:54
KOFP 101054Z AUTO 23005KT 9SM CLR 26/21 A2998 RMK AO2 SLP149 T02610206

2010/08/10 10:55
KOKK 101055Z AUTO 13006KT 2 1/2SM BKN100 BKN120 24/19 A2997 RMK AO1

2010/08/10 10:53
KOKM 101053Z AUTO 00000KT 10SM CLR 24/23 A2991 RMK AO1

2010/08/10 10:54
KOLM 101054Z AUTO 23007KT 10SM OVC019 13/09 A2996 RMK AO2 SLP146 T01280094

2010/08/10 10:54
KOLS 101054Z AUTO 07003KT 10SM CLR 19/15 A3003 RMK AO2 SLP098 T01940150

2010/08/10 10:55
KOLU 101055Z AUTO 10SM CLR 22/19 A2988 RMK AO1

2010/08/10 10:54
KORH 101054Z 27006KT 3SM BR FEW005 SCT075 21/20 A2995 RMK AO2 SLP135 T02060200

2010/08/10 10:55
KOTG 101055Z AUTO 05007KT 10SM TS FEW047 SCT050 BKN070 21/19 A2988 RMK AO1 LTG DSNT ALQDS P0004

2010/08/10 10:55
KOTH 101055Z 33004KT 10SM OVC015 12/11 A3002 RMK AO1

2010/08/10 10:54
KPHF 101054Z 23005KT 10SM FEW055 SCT075 26/23 A2998 RMK AO2 SLP150 T02560233 $

2010/08/10 10:54
KPHL 101054Z 20003KT 9SM FEW100 BKN150 BKN200 26/22 A2993 RMK AO2 SLP135 T02560222 $

2010/08/10 10:55
KPIB 101055Z AUTO 00000KT 5SM CLR 23/21 A2998 RMK AO1

2010/08/10 10:54
KPLN 101054Z AUTO 00000KT 1 1/4SM BR OVC017 22/21 A2998 RMK AO2 SLP148 T02170211

2010/08/10 10:54
KPNE 101054Z 00000KT 10SM CLR 26/22 A2995 RMK AO2 SLP139 T02610222

2010/08/10 10:55
KPQI 101055Z AUTO 00000KT 10SM CLR 15/13 A2982 RMK AO1

2010/08/10 10:55
KPRX 101055Z 12006KT 10SM CLR 24/22 A2992 RMK AO1

2010/08/10 10:54
KPSF 101054Z AUTO 00000KT 4SM BR FEW012 OVC018 20/19 A2997 RMK AO2 SLP119 T02000189

2010/08/10 10:55
KPTN 101055Z AUTO 06004KT 6SM OVC004 25/14 A2995 RMK AO1

2010/08/10 10:55
KPTV 101055Z AUTO 17004KT 10SM CLR 17/11 A2984 RMK AO1

2010/08/10 10:55
KPVC 101055Z 21009KT 2 1/2SM OVC090 21/19 A2991 RMK AO1 P0001

2010/08/10 10:55
KPVU 101055Z 14009KT 10SM CLR 15/03 A3006 RMK AO1

2010/08/10 10:55
KPWG 101055Z AUTO 19004KT 10SM CLR 25/22 A2993 RMK AO1

2010/08/10 10:55
KPWT 101055Z AUTO 19006KT 4SM OVC003 12/09 A2997 RMK AO1

2010/08/10 10:54
KRBL 101054Z AUTO 00000KT 10SM CLR 19/13 A2983 RMK AO2 SLP098 T01940128

2010/08/10 10:54
KRDG 101054Z 00000KT CLR 24/21 RMK AO2 SLPNO T02440206 $

2010/08/10 10:55
KRKD 101055Z AUTO 29003KT 7SM CLR 20/18 A2987 RMK AO1

2010/08/10 10:54
KRKS 101054Z AUTO 00000KT 10SM CLR 11/00 A3019 RMK AO2 SLP141 T01110000

2010/08/10 10:54
KEUG 101054Z 00000KT 10SM SCT040 10/08 A2998 RMK AO2 SLP152 T01000083 $

2010/08/10 10:55
KEUL 101055Z AUTO 13006KT 10SM CLR 16/09 A2985 RMK AO1

2010/08/10 10:54
KEVV 101054Z 00000KT 6SM BR CLR 25/23 A2995 RMK AO2 SLP136 T02500228

2010/08/10 10:55
KEWK 101055Z AUTO 19007KT 10SM CLR 27/19 A2986 RMK AO1

2010/08/10 10:54
KEWN 101054Z 00000KT 10SM CLR 24/23 A3003 RMK AO2 SLP168 T02390233

2010/08/10 10:55
KFAM 101055Z AUTO 16003KT 8SM CLR 24/23 A2998 RMK AO1

2010/08/10 10:54
KFIG 101054Z AUTO 24003KT 4SM BR SCT100 19/18 A3002 RMK AO2 SLP154 T01940178

2010/08/10 10:55
KFKL 101055Z AUTO 20005KT 5SM FEW060 SCT080 21/18 A3002 RMK AO1

2010/08/10 10:55
KFLP 101055Z AUTO 00000KT 7SM CLR 25/24 A2994 RMK AO1

2010/08/10 10:55
KFNL 101055Z AUTO 31003KT 9SM CLR 13/12 A3008 RMK AO1

2010/08/10 10:55
KFOD 101055Z AUTO 18021G26KT 10SM TS OVC100 22/22 A2998 RMK AO1 LTG DSNT ALQDS TSB00E15B44 P0004

2010/08/10 10:55
KFRM 101055Z 16010KT 8SM VCTS BKN014 OVC048 24/23 A2995 RMK AO1 LTG DSNT ALQDS TSB51

2010/08/10 10:54
KFZY 101054Z AUTO 00000KT 1SM BR SCT029 OVC060 21/20 A2994 RMK AO2 RAE0959 SLP136 P0000 T02110200

2010/08/10 10:55
KGAD 101055Z AUTO 00000KT 7SM FEW070 23/22 A3000 RMK AO1

2010/08/10 10:55
KGAI 101055Z 00000KT 3SM CLR 22/21 A2998 RMK AO1

2010/08/10 10:55
KGBD 101055Z AUTO 22006KT 10SM CLR 23/18 A2989 RMK AO1

2010/08/10 10:54
KGCK 101054Z AUTO 22003KT 10SM CLR 20/18 A2995 RMK AO2 SLP101 T02000178

2010/08/10 10:54
KGCN 101054Z AUTO 00000KT 10SM BKN080 09/07 A3023 RMK AO2 SLP152 T00890072

2010/08/10 10:55
KGDV 101055Z AUTO 32009KT 310V010 10SM FEW060 OVC110 19/16 A2977 RMK AO1 LTG DSNT E

2010/08/10 10:55
KGPZ 101055Z AUTO 16003KT 3SM CLR 18/17 A2998 RMK AO1

2010/08/10 10:55
KGTU 101055Z 20003KT 10SM CLR 26/21 A2997 RMK AO1

2010/08/10 10:55
KGUC 101055Z AUTO 00000KT 10SM BKN090 07/01 A3037 RMK AO1

2010/08/10 10:55
KGXY 101055Z AUTO 00000KT 5SM CLR 14/13 A3008 RMK AO1

2010/08/10 10:55
KHDN 101055Z 11009KT 10SM CLR 09/06 A3022 RMK AO1

2010/08/10 10:55
KHEF 101055Z AUTO 00000KT 3SM 22/20 A2996 RMK AO1

2010/08/10 10:55
KHEZ 101055Z AUTO 00000KT 10SM CLR 23/22 A2996 RMK AO1

2010/08/10 10:55
KHNB 101055Z AUTO 18003KT 6SM CLR 23/22 A2995 RMK AO1

2010/08/10 10:54
KHWD 101054Z AUTO 00000KT 10SM OVC009 14/12 A2988 RMK AO2 SLP127 T01390117

2010/08/10 10:55
KHYI 101055Z AUTO 00000KT 10SM CLR A2991 RMK AO1

2010/08/10 10:55
KHYS 101055Z AUTO 31009KT 10SM CLR 24/18 A2989 RMK AO1

2010/08/10 10:55
KILE 101055Z AUTO 21005KT 10SM CLR 25/22 A2992 RMK AO1

2010/08/10 10:54
KILN 101054Z AUTO 00000KT 4SM BR CLR 22/21 A2999 RMK AO2 SLP140 T02170206

2010/08/10 10:54
KIMT 101054Z AUTO 00000KT 1/2SM FG OVC001 18/18 A3001 RMK AO2 SLP155 T01780178

2010/08/10 10:54
KIND 101054Z 14004KT 6SM HZ SCT130 BKN250 26/23 A2994 RMK AO2 SLP128 T02560228

2010/08/10 10:54
KINT 101054Z 00000KT 10SM CLR 24/21 A3005 RMK AO2 SLP162 T02440206

2010/08/10 10:54
KIPT 101054Z 00000KT 9SM OVC100 23/18 A2995 RMK AO2 SLP138 T02280183

2010/08/10 10:54
KISW 101054Z AUTO 00000KT 5SM BR CLR 19/18 A3000 RMK AO2 SLP154 T01890183 TSNO $

2010/08/10 10:55
KIWD 101055Z AUTO 00000KT 4SM CLR 16/15 A2998 RMK AO1

2010/08/10 10:54
KIZG 101054Z AUTO 28003KT 10SM CLR 18/17 A2992 RMK AO2 SLP130 T01830172

2010/08/10 10:55
KJAC 101055Z 00000KT 10SM CLR 06/03 A3017 RMK AO1

2010/08/10 10:55
KJHW 101055Z AUTO 00000KT 1 1/2SM OVC039 20/19 A3000 RMK AO1 P0004

2010/08/10 10:54
KJST 101054Z AUTO 23003KT 6SM HZ OVC100 20/17 A3005 RMK AO2 SLP159 T02000167

2010/08/10 10:55
KKLS 101055Z AUTO 33003KT 10SM OVC017 14/11 A2997 RMK AO1

2010/08/10 10:54
KLAF 101054Z 00000KT 9SM FEW090 24/23 A2996 RMK AO2 SLP140 T02390233

2010/08/10 10:50
KLAL 101050Z 09007KT 7SM FEW012 SCT030 26/22 A2987

2010/08/10 10:55
KLBL 101055Z 31007KT 10SM CLR 22/17 A2999 RMK AO1

2010/08/10 10:54
KLBT 101054Z AUTO 00000KT 2SM BR OVC001 24/24 A3002 RMK AO2 SLP165 T02440239

2010/08/10 10:55
KLCI 101055Z AUTO 00000KT 5SM CLR 19/17 A2991 RMK AO1

2010/08/10 10:55
KLEW 101055Z 00000KT 10SM CLR 19/16 A2991 RMK AO1

2010/08/10 10:54
KLEX 101054Z 15005KT 4SM BR CLR 24/22 A2999 RMK AO2 SLP143 T02390217

2010/08/10 10:55
KLGD 101055Z AUTO 30011KT 10SM CLR 16/02 A2987 RMK AO1 TSB03E18

2010/08/10 10:55
KLKV 101055Z AUTO 00000KT 10SM CLR 07/00 A3002 RMK AO1

2010/08/10 10:54
KNFG 101054Z 00000KT BR OVC010 12/09 A2991 RMK AO2 SLP126 T01170094 

2010/08/10 10:54
KRIC 101054Z 23003KT 9SM FEW250 25/21 A2996 RMK AO2 SLP149 T02500206 $ 

2010/08/10 10:54
KFWA 101054Z 03003KT 1SM BR SCT041 BKN250 23/22 A2998 RMK AO2 SLP145 R05/5500FT TCU DSNT E AND W T02330222 

2010/08/10 10:50
EGBE 101050Z 22012KT 9999 SCT016 SCT045 17/14 Q1009

2010/08/10 10:50
EGCN 101050Z 24017KT 9999 FEW046 20/06 Q1007

2010/08/10 10:50
EGSC 101050Z 23008KT 190V270 9999 SCT015 SCT048 17/13 Q1009

2010/08/10 10:50
EGSH 101050Z 24012KT 9999 -RA FEW039 17/13 Q1009

2010/08/10 10:50
EBAW 101050Z 20009KT CAVOK 21/13 Q1013 NOSIG

2010/08/10 10:50
EBBR 101050Z 22008KT 180V250 CAVOK 22/11 Q1014 NOSIG

2010/08/10 10:50
EBCI 101050Z 24011KT CAVOK 22/11 Q1015 NOSIG

2010/08/10 10:50
EBLG 101050Z 25009KT CAVOK 23/12 Q1014 NOSIG

2010/08/10 10:50
EBOS 101050Z 20013KT 9999 FEW020 BKN045 20/14 Q1012 TEMPO 4500 RA BKN012

2010/08/10 10:50
ELLX 101050Z 20006KT 140V260 CAVOK 24/11 Q1015 NOSIG

2010/08/10 10:50
LCRA 101050Z 25011KT 8000 HZ SCT023 31/24 Q1006 NOSIG

2010/08/10 10:54
MMLM 101054Z 00000KT 10SM SCT100 29/21 A2979 RMK 8/030 RTS

2010/08/10 10:50
LOXZ 101050Z VRB03KT 30KM FEW050CU FEW050TCU SCT090AC 23/14 Q1018 NOSIG RMK TCU W/BKN

2010/08/10 10:54
MMCN 101054Z 00000KT 10SM FEW200 28/23 A2974 RMK 8/005 RTS

2010/08/10 10:50
ENAN 101050Z 02010KT 9999 SCT006 BKN008 11/10 Q1011 NOSIG

2010/08/10 10:50
ENBR 101050Z 16009KT 9999 FEW045 SCT060 BKN078 19/11 Q1009 NOSIG 

2010/08/10 10:50
ENBO 101050Z 27006KT 230V330 9999 FEW002 BKN050 14/12 Q1011 TEMPO SCT003 BKN008 

2010/08/10 10:50
ENDU 101050Z 02006KT 340V070 9999 FEW045 SCT060 19/11 Q1010 NOSIG

2010/08/10 10:50
ENGM 101050Z 20004KT 150V280 9999 FEW018 SCT021 BKN025 18/14 Q1011 NOSIG

2010/08/10 10:50
ENOL 101050Z 34006KT 9999 FEW006 SCT010 BKN100 15/13 Q1010 NOSIG

2010/08/10 10:50
ENVA 101050Z 26005KT 9999 FEW012 SCT025 BKN120 16/14 Q1010 NOSIG 

2010/08/10 10:50
ENZV 101050Z 15011KT 9999 SCT019 BKN035 18/15 Q1009 NOSIG

2010/08/10 10:52
KBLU 101052Z AUTO 00000KT 10SM CLR 16/04 A3007 RMK AO2 SLP094 T01610044 TSNO

2010/08/10 10:52
K9V9 101052Z AUTO 05009KT 20/18 A2972 RMK AO2 SLP048 P0002 T02000183 PWINO TSNO

2010/08/10 10:52
KP69 101052Z AUTO VRB04KT 15/15 A2988 RMK AO2 SLP098 T01500150 PWINO TSNO

2010/08/10 10:53
KSAV 101053Z 00000KT 10SM FEW015 SCT025 SCT250 25/24 A3000 RMK AO2 SLP158 T02500239

2010/08/10 10:53
KLAX 101053Z 28005KT 6SM BR OVC007 15/13 A2991 RMK AO2 SLP125 T01500128 $

2010/08/10 10:53
KMSY 101053Z 00000KT 9SM FEW250 26/25 A2993 RMK AO2 SLP138 T02560250

2010/08/10 10:53
KSDM 101053Z AUTO 00000KT 9SM OVC008 16/14 A2990 RMK AO2 SLP121 T01610139 TSNO

2010/08/10 10:53
KOQT 101053Z AUTO 00000KT 4SM BR SCT095 24/23 A3004 RMK AO2 SLP153 T02440233 TSNO

2010/08/10 10:53
KFAR 101053Z 13004KT 10SM CLR 22/19 A2988 RMK AO2 SLP112 T02170194

2010/08/10 10:53
KCTY 101053Z AUTO 06003KT 24/24 A2992 RMK AO2 SLP130 P0001 T02440239 PWINO TSNO

2010/08/10 10:53
KLXV 101053Z AUTO 10003KT 10SM CLR 03/03 A3044 RMK AO2 SLP173 T00330028 TSNO

2010/08/10 10:53
KDNK 101053Z AUTO 00000KT 10SM FEW050 SCT075 BKN090 25/23 A2994 RMK AO2 SLP135 T02500228

2010/08/10 10:53
KP68 101053Z AUTO 18007KT 13/M08 A3007 RMK AO2 SLP101 T01281083 PWINO TSNO

2010/08/10 10:53
KELY 101053Z AUTO 19009KT 10SM CLR 11/M03 A3013 RMK AO2 SLP108 T01111033

2010/08/10 10:53
KCHA 101053Z 00000KT 10SM SCT150 BKN250 26/23 A3002 RMK AO2 SLP155 T02560233

2010/08/10 10:53
KTCS 101053Z AUTO 33004KT 10SM CLR 21/11 A3008 RMK AO2 SLP095 T02060111 TSNO

2010/08/10 10:53
KMSN 101053Z 00000KT 3SM BCFG BR FEW001 22/21 A2997 RMK AO2 SLP143 T02170211

2010/08/10 10:53
KOVE 101053Z AUTO 00000KT 10SM CLR 18/13 A2983 RMK AO2 SLP103 T01780128 TSNO $

2010/08/10 10:53
KTLH 101053Z 06006KT 10SM FEW013 26/23 A2994 RMK AO2 SLP136 T02560233

2010/08/10 10:53
KP92 101053Z AUTO 00000KT 25/24 A2992 RMK AO2 SLP130 T02500244 PWINO TSNO

2010/08/10 10:53
KRNM 101053Z AUTO 00000KT 1/2SM FG BKN001 OVC009 10/09 A2991 RMK AO2 SLP116 T01000089 TSNO

2010/08/10 10:53
KCUT 101053Z AUTO 24006KT 10SM SCT110 16/13 A3001 RMK AO2 SLP096 T01560133 TSNO

2010/08/10 10:53
KHTL 101053Z AUTO 03005KT 5SM BR OVC005 21/21 A3001 RMK AO2 CIG 003V008 SLP157 T02110206

2010/08/10 10:53
KSGR 101053Z 00000KT 10SM CLR 25/24 A2991 RMK AO2 SLP135 T02500239

2010/08/10 10:53
KBNO 101053Z AUTO 25008KT 10SM CLR 14/04 A2994 RMK AO2 SLP101 T01390039 TSNO

2010/08/10 10:53
KTRI 101053Z 00000KT 6SM BR BKN110 22/21 A3007 RMK AO2 SLP162 T02220206

2010/08/10 10:53
KBTR 101053Z 04003KT 1 3/4SM BR SCT002 BKN200 23/23 A2994 RMK AO2 SLP136 VIS N-NE 3/4 SCT V BKN T02330233

2010/08/10 10:53
KRTN 101053Z AUTO 03004KT 2SM BR CLR 13/11 A3020 RMK AO2 SLP142 T01280111 TSNO

2010/08/10 10:53
KMCN 101053Z AUTO 00000KT 5SM BR CLR 23/22 A3001 RMK AO2 SLP155 T02330217 TSNO

2010/08/10 10:53
KMGM 101053Z 10003KT 7SM FEW070 24/22 A2997 RMK AO2 SLP146 T02440222

2010/08/10 10:53
KDAB 101053Z 11005KT 10SM FEW020 SCT120 SCT250 27/23 A2993 RMK AO2 SLP135 T02670233

2010/08/10 10:53
KTUP 101053Z 00000KT 9SM CLR 25/23 A2997 RMK AO2 SLP143 T02500233

2010/08/10 10:53
K6R6 101053Z AUTO 00000KT 24/21 A2995 RMK AO2 SLP103 T02390206 PWINO TSNO

2010/08/10 10:51
KVCT 101051Z AUTO 06003KT 10SM CLR 25/24 A2990 RMK AO2 SLP123 T02500244

2010/08/10 10:54
PGUM 101054Z 16003G16KT 2 1/2SM +RA BR FEW022 BKN044 OVC055 26/24 A2996 RMK AO2 VIS 1 1/4V5 RAB35 SLP138 P0008 T02560239

2010/08/10 10:53
KRIL 101053Z AUTO 00000KT 10SM CLR 12/08 A3018 RMK AO2 SLP159 T01170083 TSNO

2010/08/10 10:54
KJAN 101054Z 00000KT 9SM CLR 24/23 A2995 RMK AO2 SLP138 T02390228

2010/08/10 10:53
KGNT 101053Z AUTO 29004KT 12/10 A3025 RMK AO2 SLP156 T01220100 PWINO TSNO

2010/08/10 10:53
KTYS 101053Z 00000KT 3SM BR BKN110 25/23 A3002 RMK AO2 SLP153 T02500228

2010/08/10 10:55
MMRX 101055Z 00000KT 8SM SKC 27/25 A2987 RMK HZY RTS

2010/08/10 10:50
ENBN 101050Z VRB02KT 1000 FG BKN003 13/12 Q1011

2010/08/10 10:50
ENBV 101050Z 09010KT 9999 BKN035 12/09 Q1012

2010/08/10 10:50
ENFG 101050Z 18008KT 9999 FEW010 SCT025 19/11 Q1011

2010/08/10 10:50
ENHF 101050Z 06009KT 9999 FEW035 14/09 Q1011 

2010/08/10 10:50
ENRA 101050Z 08005KT 9999 BKN055 21/12 Q1010

2010/08/10 10:50
ENSH 101050Z 02012KT 9999 FEW010 BKN050 15/11 Q1010

2010/08/10 10:54
KBTV 101054Z 00000KT 4SM BR OVC003 18/18 A2993 RMK AO2 SLP135 VIS N-NE 1 1/4 T01780178

2010/08/10 10:51
KSAD 101051Z AUTO 00000KT 10SM CLR 23/13 A2996 RMK AO2 SLP087 T02280133 TSNO

2010/08/10 10:53
K40J 101053Z AUTO 03005KT 24/23 A2992 RMK AO2 SLP132 T02390228 PWINO TSNO

2010/08/10 10:54
KROC 101054Z 00000KT 2SM R04/6000VP6000FT BR FEW070 SCT100 SCT250 21/20 A2995 RMK AO2 SLP140 T02060200

2010/08/10 10:54
KCOU 101054Z AUTO 11004KT 8SM CLR 25/24 A2994 RMK AO2 SLP129 T02500239 TSNO $

2010/08/10 10:54
KGSO 101054Z 25005KT 5SM HZ CLR 24/21 A3004 RMK AO2 SLP160 T02390206

2010/08/10 10:54
KMTP 101054Z AUTO 00000KT 22/19 A2994 RMK AO* 2220189 PWINO TSNO

2010/08/10 10:54
KNAK 101054Z AUTO 26005KT 6SM HZ CLR 26/20 A2993 RMK AO2 SLP136 T02560200 TSNO

2010/08/10 10:54
K1V4 101054Z AUTO 17/17 A2994 RMK AO2 SLP130 T01720167 PWINO TSNO

2010/08/10 10:54
KMQE 101054Z AUTO 24006KT 21/21 A2992 RMK AO1 SLP137 T02060206

2010/08/10 10:54
KBKB 101054Z AUTO 00000KT 10SM BKN065 BKN090 26/24 A2992 RMK AO2 SLP157 T02560239 $

2010/08/10 10:54
K12N 101054Z AUTO 00000KT 22/21 A2997 RMK AO2 SLP140 T02220206 PWINO TSNO

2010/08/10 10:54
KAVP 101054Z 00000KT 6SM BR FEW120 22/19 A2997 RMK AO2 RAE31 SLP135 P0001 T02170194

2010/08/10 10:54
KWAL 101054Z AUTO 28005KT 6SM BR CLR 25/23 A2997 RMK AO2 SLP144 T02500228 TSNO

2010/08/10 10:54
KDMH 101054Z AUTO 26/21 A2993 RMK AO2 SLP136 T02560211 PWINO TSNO

2010/08/10 10:54
KRIC 101054Z 23003KT 9SM FEW250 25/21 A2996 RMK AO2 SLP149 T02500206 $

2010/08/10 10:54
KFWA 101054Z 03003KT 1SM BR SCT041 BKN250 23/22 A2998 RMK AO2 SLP145 R05/5500FT TCU DSNT E AND W T02330222

2010/08/10 10:55
ENAT 101055Z 14006KT 100V190 9999 FEW040 19/07 Q1010 

2010/08/10 10:50
ENEV 101050Z 32007KT 280V350 9999 SCT050 16/11 Q1010 

2010/08/10 10:50
ENFL 101050Z 00000KT 9999 FEW020 18/12 Q1009

2010/08/10 10:50
ENKB 101050Z 04005KT 340V080 9999 FEW009 SCT032 17/14 Q1010

2010/08/10 10:50
ENKR 101050Z 13005KT 090V150 9999 FEW007 BKN030 12/09 Q1013 

2010/08/10 10:50
ENML 101050Z VRB02KT 9999 FEW015 SCT040 20/13 Q1010

2010/08/10 10:50
ENNA 101050Z 15012KT 9999 FEW047 17/07 Q1011 

2010/08/10 11:00
SGAS 101100Z 17004KT 9000 NSC 11/09 Q1021

2010/08/10 11:00
SGES 101100Z 17006KT 8000 NSC 12/11 Q1020

2010/08/10 10:50
ENEK 101050Z 25001KT 9999 FEW005 SCT010TCU BKN025 15/14 Q1005 W16/S3 

2010/08/10 10:50
ENGC 101050Z 10022KT 9999 BKN020 14/13 Q1008

2010/08/10 10:50
ENHE 101050Z 06009KT 9999 OVC017 11/08 Q1012

2010/08/10 10:50
ENOA 101050Z 110229T 9000N -RA SCT008 BKN010 14/13 Q1006

2010/08/10 10:50
EFJO 101050Z AUTO 20008KT 150V250 9999 FEW033 BKN065 24/15 Q1011

2010/08/10 10:50
EFLP 101050Z AUTO 20011KT 150V240 9999 FEW029 BKN060 22/15 Q1012

2010/08/10 10:50
EFMI 101050Z AUTO 23005KT 170V310 9999 FEW018 22/17 Q1011

2010/08/10 10:50
EFSA 101050Z AUTO 19007KT 130V240 9999NDV FEW034 SCT050 BKN075 22/16 Q1011

2010/08/10 10:50
EFUT 101050Z 20010KT 170V230 9999 FEW015 FEW030CB SCT065 20/18 Q1013

2010/08/10 10:50
EFVR 101050Z AUTO VRB04G13KT 9999 -SHRA BKN022 BKN035 21/19 Q1011

2010/08/10 10:50
ENLK 101050Z 03008KT 9999 BKN009 13/10 Q1011

2010/08/10 10:50
ENMH 101050Z 34006KT 9999 FEW035 13/09 Q1012

2010/08/10 10:50
ENNK 101050Z 25006KT 9999 SCT060 18/13 Q1010 

2010/08/10 10:50
ENNO 101050Z 10010KT 080V140 9999 SCT040 20/14 Q1010

2010/08/10 10:50
ENSG 101050Z 25005KT 190V310 9999 FEW004 SCT020 17/14 Q1009

2010/08/10 10:50
ENSN 101050Z 19010KT 9999 FEW040 21/09 Q1010

2010/08/10 10:50
ENSS 101050Z 15006KT 9999 SCT030 09/06 Q1013 

2010/08/10 10:53
KICT 101053Z 17008KT 10SM SCT200 26/21 A2988 RMK AO2 SLP099 T02560206

2010/08/10 10:53
KILM 101053Z AUTO 00000KT 10SM CLR 25/23 A3002 RMK AO2 SLP165 P0001 T02500233

2010/08/10 10:53
KIXD 101053Z 13005KT 10SM CLR 26/21 A2993 RMK AO2 SLP119 T02610206

2010/08/10 10:51
KJCT 101051Z AUTO 00000KT 10SM CLR 26/22 A2996 RMK AO2 SLP104 T02560217 TSNO

2010/08/10 10:53
KJEF 101053Z 00000KT 9SM CLR 26/24 A2993 RMK AO2 SLP119 T02560239

2010/08/10 10:55
KJZI 101055Z AUTO 00000KT 10SM CLR 26/26 A3001 RMK A02 P000

2010/08/10 10:53
KLBF 101053Z AUTO 12005KT 10SM CLR 19/19 A2989 RMK AO2 RAE05 SLP093 P0000 T01890189

2010/08/10 10:53
KLGB 101053Z AUTO 29004KT 7SM SCT008 16/13 A2990 RMK AO2 SLP125 T01560133 TSNO

2010/08/10 10:55
KLKR 101055Z AUTO 00000KT 1 1/4SM BR CLR 20/20 A3004 RMK AO2

2010/08/10 10:53
KENW 101053Z AUTO 00000KT 1/4SM FG VV006 20/19 A2998 RMK AO2 SLP145 T02000194

2010/08/10 10:53
KEPH 101053Z AUTO 33009G15KT 10SM OVC075 18/08 A2982 RMK AO2 SLP089 T01830083

2010/08/10 10:53
KEQY 101053Z AUTO 00000KT 3SM BR CLR 22/22 A3004 RMK AO2 SLP170 T02220217

2010/08/10 10:53
KFAY 101053Z AUTO 20005KT 2SM BR OVC001 24/23 A3002 RMK AO2 SLP159 T02440233

2010/08/10 10:53
KFCM 101053Z AUTO 12005KT 6SM BR CLR 23/21 A2993 RMK AO2 SLP127 T02330211

2010/08/10 10:53
KFFC 101053Z AUTO 00000KT 4SM BR CLR 21/20 A3003 RMK AO2 SLP162 T02110200

2010/08/10 10:53
KFHR 101053Z AUTO 00000KT 10SM BKN048 BKN060 OVC100 12/10 A2994 RMK AO2 SLP139 T01170100

2010/08/10 10:53
KFLD 101053Z AUTO 00000KT 1/2SM FG VV001 20/19 A2997 RMK AO2 SLP144 T02000189

2010/08/10 10:53
KFOE 101053Z 15006KT 10SM CLR 26/21 A2988 RMK AO2 SLP104 T02610206

2010/08/10 10:53
KFSM 101053Z 05004KT 10SM CLR 26/24 A2992 RMK AO2 SLP124 T02610244 $

2010/08/10 10:53
KFST 101053Z AUTO 16007KT 10SM CLR 22/19 A2999 RMK AO2 SLP112 T02170194

2010/08/10 10:53
KFTY 101053Z 00000KT 2 1/2SM BR CLR 23/22 A3003 RMK AO2 SLP159 T02280217

2010/08/10 10:53
KFUL 101053Z 00000KT 5SM BR CLR 15/13 A2989 RMK AO2 SLP121 T01500128

2010/08/10 10:53
KFYV 101053Z 00000KT 9SM CLR 22/22 A2997 RMK AO2 SLP131 T02220217

2010/08/10 10:53
KGAG 101053Z AUTO 20007KT 10SM CLR 21/18 A2994 RMK AO2 SLP105 T02060183

2010/08/10 10:53
KGFK 101053Z 14005KT 10SM SCT250 21/19 A2989 RMK AO2 SLP115 T02060189

2010/08/10 10:53
KGLD 101053Z AUTO 29006KT 10SM CLR 19/18 A3000 RMK AO2 SLP107 T01890178

2010/08/10 10:53
KGLH 101053Z AUTO 16004KT 10SM CLR 24/23 A2994 RMK AO2 SLP143 T02390233 $

2010/08/10 10:53
KGLR 101053Z AUTO 00000KT 6SM BR BKN009 OVC015 22/21 A3001 RMK AO2 CIG 007V013 SLP153 T02170206

2010/08/10 10:53
KGMU 101053Z 00000KT 6SM HZ CLR 24/21 A3006 RMK AO2 SLP168 T02440211

2010/08/10 10:53
KGRB 101053Z AUTO 01005KT 1/4SM FG VV001 22/21 A2997 RMK AO2 SLP146 T02170211 TSNO RVRNO

2010/08/10 10:53
KGRI 101053Z AUTO 08004KT 10SM CLR 20/18 A2988 RMK AO2 SLP098 T02000183

2010/08/10 10:53
KGSH 101053Z AUTO 00000KT 2SM BR CLR 21/21 A2999 RMK AO2 SLP149 T02110206

2010/08/10 10:53
KGSP 101053Z 00000KT 7SM CLR 23/22 A3004 RMK AO2 SLP160 T02280217

2010/08/10 10:53
KGUP 101053Z AUTO 00000KT 10SM CLR 12/09 A3024 RMK AO2 SLP096 T01170094

2010/08/10 10:53
KGUY 101053Z AUTO 22007KT 10SM CLR 22/17 A2997 RMK AO2 SLP093 T02220172

2010/08/10 10:53
KPAH 101053Z AUTO 00000KT 3SM BR CLR 24/24 A2993 RMK AO2 SLP130 T02440239

2010/08/10 10:53
KPBF 101053Z AUTO 00000KT 9SM CLR 25/23 A2993 RMK AO2 SLP132 T02500233

2010/08/10 10:53
KPDK 101053Z 00000KT 10SM CLR 24/21 A3005 RMK AO2 SLP152 T02390206

2010/08/10 10:53
KPDT 101053Z AUTO 25003KT 10SM CLR 15/07 A2987 RMK AO2 SLP100 T01500072

2010/08/10 10:53
KPIR 101053Z AUTO 04005KT 10SM -RA BKN038 OVC070 21/19 A2979 RMK AO2 LTG DSNT N AND NE TSE05 PRESFR SLP073 P0005 T02060194

2010/08/10 10:53
KPKD 101053Z AUTO 09003KT 10SM CLR 19/18 A2996 RMK AO2 SLP137 T01940178

2010/08/10 10:53
KPMD 101053Z AUTO 00000KT 10SM CLR 16/03 A2991 RMK AO2 SLP100 T01610033

2010/08/10 10:53
KPNC 101053Z AUTO 17004KT 10SM CLR 28/21 A2989 RMK AO2 SLP105 T02780206

2010/08/10 10:53
KPRB 101053Z AUTO A2989 RMK AO2 SLPNO PWINO FZRANO TSNO

2010/08/10 10:50
LOWW 101050Z 06003KT 340V130 9999 FEW065 23/15 Q1018 NOSIG

2010/08/10 10:50
LOWL 101050Z VRB02KT 9999 FEW045 24/13 Q1018 NOSIG

2010/08/10 10:50
LOWS 101050Z 04005KT 010V110 9999 FEW060 25/08 Q1017 NOSIG

2010/08/10 10:50
LOWI 101050Z VRB01KT 9999 SCT080 FEW080TCU 24/13 Q1017 NOSIG

2010/08/10 10:50
LOWG 101050Z VRB04KT 9999 FEW040 SCT300 26/16 Q1018 NOSIG

2010/08/10 10:50
LOWK 101050Z 27003KT 200V320 9999 FEW030 FEW050CB 24/15 Q1018 NOSIG

2010/08/10 11:00
LEJR 101100Z VRB01KT 9999 FEW020 36/08 Q1016

2010/08/10 10:52
PKMR 101052Z 07005KT 15SM FEW015 SCT050 BKN120 OVC140 26/24 A2988 RMK SLP120 T02600239

2010/08/10 10:50
PTPN 101050Z 09007KT 15SM SCT017TCU BKN300 27/26 A2988 RMK TCU SE-SW

2010/08/10 10:54
PGUM 101054Z 16003G16KT 2 1/2SM +RA BR FEW022 BKN044 OVC055 26/24 A2996 RMK AO2 VIS 1 1/4V5 RAB35 SLP138 P0008 T02560239

2010/08/10 10:54
PGSN 101054Z 14007KT 9SM RA FEW014 SCT019 25/24 A2997 RMK AO2 RAB0959 SLP146 P0014 T02500239

2010/08/10 10:50
ENMS 101050Z 35010KT 9999 BKN040 16/13 Q1010 -RERA 

2010/08/10 10:50
ENRM 101050Z 22003KT 170V270 9999 6000NE FEW004 SCT006 BKN008 13/12 Q1011

2010/08/10 10:50
ENSK 101050Z 00000KT 9999 FEW007 BKN009 13/11 Q1011

2010/08/10 10:50
ENSO 101050Z 11010KT 080V150 SCT035 BKN045 18/10 Q1008

2010/08/10 10:50
ENST 101050Z 24005KT 200V300 9999 8000NE SCT003 BKN005 13/11 Q1012

2010/08/10 10:50
ENVD 101050Z 12007KT 080V150 9999 SCT010 BKN039 10/07 Q1013

2010/08/10 10:53
KHFD 101053Z 12003KT 5SM BR FEW100 23/22 A2992 RMK AO2 SLP130 T02330217

2010/08/10 10:53
KHGR 101053Z 00000KT 5SM HZ CLR 24/19 A2997 RMK AO2 SLP150 T02390189

2010/08/10 10:53
KHLN 101053Z AUTO 00000KT 10SM CLR 12/09 A2993 RMK AO2 SLP130 T01170094

2010/08/10 10:53
KHUF 101053Z 00000KT 4SM BR CLR 23/22 A2995 RMK AO2 SLP135 T02330222

2010/08/10 10:53
KHUL 101053Z AUTO 00000KT 6SM BR CLR 17/17 A2983 RMK AO2 SLP100 T01720167

2010/08/10 10:53
KHVN 101053Z 00000KT 8SM OVC100 24/20 A2993 RMK AO2 SLP135 T02440200

2010/08/10 10:53
KHWO 101053Z 14010G16KT 9SM -RA FEW050 BKN070 OVC100 25/23 A2989 RMK AO2 TSB15E39 SLP122 P0001 T02500233 $

2010/08/10 10:53
KHZY 101053Z AUTO 00000KT 1/4SM FG CLR 19/19 A2997 RMK AO2 SLP143 T01940194

2010/08/10 10:53
KIDA 101053Z AUTO 34005KT 10SM CLR 11/09 A3002 RMK AO2 SLP134 T01060089

2010/08/10 10:53
KIML 101053Z AUTO 23004KT 10SM CLR 18/17 A2996 RMK AO2 SLP110 T01830167

2010/08/10 10:53
KIPL 101053Z AUTO 00000KT 10SM CLR 24/08 A2973 RMK AO2 SLP067 T02390083

2010/08/10 10:53
KITR 101053Z AUTO 31005KT 10SM SCT120 18/16 A3003 RMK AO2 SLP109 T01780161

2010/08/10 10:53
KIWI 101053Z AUTO 00000KT 9SM CLR 19/18 A2989 RMK AO2 SLP119 T01890178

2010/08/10 10:53
KJER 101053Z AUTO 04015KT 10SM CLR 15/12 A2992 RMK AO2 SLP094 T01500117 $

2010/08/10 10:53
KJKL 101053Z AUTO 00000KT 4SM BR CLR 23/22 A3004 RMK AO2 SLP153 T02280217

2010/08/10 10:53
KLAA 101053Z AUTO 00000KT 10SM CLR 18/17 A3000 RMK AO2 SLP106 T01830172

2010/08/10 10:53
KLAR 101053Z AUTO 17007KT 10SM CLR 08/06 A3021 RMK AO2 SLP137 T00780061

2010/08/10 10:53
KMMK 101053Z AUTO 00000KT 4SM BR OVC100 22/21 A2994 RMK AO2 SLP135 T02220211

2010/08/10 10:53
KMNN 101053Z AUTO 00000KT 3SM BR CLR 21/20 A2999 RMK AO2 SLP147 T02110200 $

2010/08/10 10:53
KMOD 101053Z AUTO 31005KT 10SM CLR 17/12 A2981 RMK AO2 SLP095 T01720122

2010/08/10 10:53
KMRB 101053Z AUTO 00000KT 6SM HZ CLR 21/18 A2997 RMK AO2 SLP144 T02110183

2010/08/10 10:53
KMSO 101053Z AUTO 00000KT 10SM CLR 12/11 A2992 RMK AO2 SLP119 T01220106

2010/08/10 10:53
KMSS 101053Z AUTO 22006KT 10SM OVC004 22/21 A2993 RMK AO2 CIG 003V008 SLP134 T02170206

2010/08/10 10:53
KMTH 101053Z AUTO 18006G15KT 7SM VCTS -RA SCT020 BKN027 OVC075 26/24 A2984 RMK AO2 TSB39RAE14B34 SLP105 P0004 T02610239

2010/08/10 10:53
KMTJ 101053Z AUTO 12007KT 10SM CLR 14/07 A3020 RMK AO2 SLP147 T01440067

2010/08/10 10:53
KMVY 101053Z 31003KT 2SM HZ CLR 24/21 A2992 RMK AO2 SLP132 T02390206

2010/08/10 10:53
KMWL 101053Z AUTO 12006KT 10SM CLR 23/19 A2991 RMK AO2 SLP113 T02330194

2010/08/10 10:53
KODO 101053Z AUTO 14003KT 10SM CLR 21/18 A3000 RMK AO2 SLP107 T02110183 $

2010/08/10 10:50
KOGA 101050Z AUTO 26004KT 10SM CLR 18/16 A2995 RMK AO2 T01750164

2010/08/10 10:53
KOGB 101053Z AUTO 00000KT 6SM BR CLR 24/23 A3003 RMK AO2 SLP165 T02440233

2010/08/10 10:53
KOGD 101053Z AUTO 17008KT 10SM CLR 17/03 A2999 RMK AO2 SLP101 T01720028

2010/08/10 10:53
KOLF 101053Z AUTO 00000KT 10SM CLR 17/17 A2979 RMK AO2 SLP077 T01720167

2010/08/10 10:50
KONL 101050Z AUTO 11006KT 10SM CLR 20/19 A2983 RMK AO2 T02000192

2010/08/10 10:53
KONO 101053Z AUTO 25003KT 10SM CLR 17/12 A2985 RMK AO2 SLP091 T01670122

2010/08/10 10:53
KOPF 101053Z AUTO 13009KT 10SM SCT075 BKN085 25/24 A2988 RMK AO2 RAE38 SLP118 P0000 T02500239

2010/08/10 10:53
KORL 101053Z 08007KT 10SM FEW029 24/23 A2992 RMK AO2 SLP133 T02440233

2010/08/10 10:53
KOSU 101053Z 00000KT 4SM BR FEW070 23/21 A2998 RMK AO2 SLP143 T02280206

2010/08/10 10:53
KOVS 101053Z AUTO 00000KT 1/4SM FG VV001 23/22 A2997 RMK AO2 SLP143 T02280222

2010/08/10 10:53
KOWD 101053Z 00000KT 4SM BR OVC090 22/20 A2991 RMK AO2 SLP126 T02220200

2010/08/10 10:53
KOXB 101053Z AUTO 26006KT 8SM CLR 25/24 A2995 RMK AO2 SLP142 T02500239 $

2010/08/10 10:53
KPBG 101053Z AUTO 00000KT M1/4SM FG OVC002 17/16 A2991 RMK AO2 SLP129 T01670161

2010/08/10 10:53
KPBI 101053Z 14014KT 6SM +RA SCT022CB BKN035 BKN060 27/23 A2988 RMK AO2 RAB0957E08B46 SLP116 CB OHD-NW AND ALQDS MOV NW P0002 T02690232 $

2010/08/10 10:52
KOKB 101052Z AUTO 00000KT 9SM OVC013 16/13 A2990 RMK AO2 SLP123 T01610128 $

2010/08/10 10:48
KWWR 101048Z AUTO 22004KT 10SM CLR 23/19 A2995 RMK AO2 T02290190

2010/08/10 10:52
KOKC 101052Z 16005KT 10SM FEW200 24/21 A2990 RMK AO2 SLP107 T02390211 $

2010/08/10 10:52
KOMA 101052Z 15005KT 10SM FEW090 SCT250 27/23 A2986 RMK AO2 SLP100 T02670228

2010/08/10 10:52
KORE 101052Z AUTO 00000KT M1/4SM FG VV005 20/20 A2994 RMK AO2 SLP134 T02000200

2010/08/10 10:50
KORS 101050Z AUTO 19008KT 10SM OVC034 14/11 A2991 RMK AO2

2010/08/10 10:50
KPLU 101050Z AUTO 00000KT 10SM OVC009 13/12 A2995 RMK AO2

2010/08/10 10:52
KPPF 101052Z AUTO 00000KT 10SM CLR 25/21 A2992 RMK AO2 SLP120 T02500211

2010/08/10 10:53
KPQL 101053Z 00000KT 3SM BR CLR 25/24 A2993 RMK AO2 SLP137 T02500244

2010/08/10 10:53
KPSX 101053Z AUTO 08003KT 9SM FEW070 28/26 A2990 RMK AO2 RAB21E42 SLP124 P0001 T02780261

2010/08/10 10:52
KPWK 101052Z 00000KT 7SM CLR 24/22 A2998 RMK AO2 SLP145 T02390222

2010/08/10 10:52
KPYM 101052Z AUTO 22004KT 4SM HZ OVC070 23/20 A2992 RMK AO2 RAE29 SLP129 P0001 T02280200

2010/08/10 10:52
KRAP 101052Z AUTO 19004KT 10SM OVC110 21/17 A2986 RMK AO2 RAB06E15 SLP086 P0000 T02060167

2010/08/10 10:53
KRKP 101053Z AUTO 00000KT 10SM FEW060 27/26 A2988 RMK AO2 SLP121 T02720256

2010/08/10 10:51
KRKR 101051Z AUTO 00000KT 10SM CLR 26/25 A2992 RMK AO2

2010/08/10 10:52
KSGF 101052Z 18004KT 10SM CLR 24/23 A2996 RMK AO2 SLP129 T02440228

2010/08/10 10:53
KSNL 101053Z AUTO 16007KT 10SM CLR 27/20 A2992 RMK AO2

2010/08/10 10:55
KSOP 101055Z AUTO 25003KT 4SM SCT002 24/23 A3003 RMK AO1

2010/08/10 10:52
KSPI 101052Z 17004KT 10SM CLR 24/22 A2993 RMK AO2 SLP129 T02440222

2010/08/10 10:50
KSRE 101050Z AUTO 14004KT 10SM CLR 25/20 A2992 RMK AO2

2010/08/10 10:53
KSSF 101053Z AUTO 00000KT 10SM BKN014 27/24 A2992 RMK AO2 SLP116 T02670239

2010/08/10 10:52
KSUX 101052Z 32015G23KT 8SM -RA FEW011 BKN036 OVC048 23/21 A2988 RMK AO2 WSHFT 1038 LTG DSNT E RAB40 SLP110 P0003 T02330211

2010/08/10 10:45
KSVC 101045Z AUTO 35009KT 10SM CLR 18/09 A3014 RMK AO2

2010/08/10 10:52
KTAN 101052Z AUTO 00000KT 4SM BR SCT060 BKN080 21/21 A2990 RMK AO2 RAE26 SLP122 P0001 T02110211

2010/08/10 10:54
KTMK 101054Z AUTO 00000KT 10SM OVC024 13/13 A3000 RMK AO2

2010/08/10 10:52
KTRM 101052Z AUTO 32006KT 10SM CLR 23/08 A2972 RMK AO2 SLP077 T02330083

2010/08/10 10:55
KUDG 101055Z 00000KT 3SM CLR 23/21 A3005 RMK AO1

2010/08/10 10:52
KUGN 101052Z 00000KT 1/4SM FG CLR 21/19 A2997 RMK AO2 SLP134 T02060194

2010/08/10 10:53
KUTS 101053Z AUTO 22003KT 1 1/4SM BR CLR 26/23 A2993 RMK AO2 SLP127 T02560233

2010/08/10 10:54
KWDG 101054Z AUTO 19010KT 10SM CLR 25/21 A2990 RMK AO2

2010/08/10 10:50
K2G4 101050Z AUTO 25005KT 10SM SCT120 20/15 A3011 RMK AO1

2010/08/10 10:51
K2W6 101051Z AUTO 22004KT 10SM CLR 24/22 A2997 RMK AO1

2010/08/10 10:53
KABR 101053Z AUTO 15005KT 10SM BKN018 BKN024 OVC050 24/22 A2985 RMK AO2 SLP097 T02390222

2010/08/10 10:47
KADS 101047Z 18006KT 13SM SKC 29/21 A2992

2010/08/10 10:53
KAGS 101053Z 00000KT 3SM BR CLR 22/21 A3001 RMK AO2 SLP162 T02170211

2010/08/10 10:53
KALW 101053Z AUTO 20008KT 10SM CLR 17/08 A2988 RMK AO2 SLP111 T01670083

2010/08/10 10:53
KAMA 101053Z 20007KT 10SM CLR 19/17 A3003 RMK AO2 SLP111 T01940167

2010/08/10 10:53
KAMW 101053Z AUTO 06011G22KT 10SM TS FEW012 OVC055 22/21 A2996 RMK AO2 LTG DSNT ALQDS RAE53 SLP136 P0019 T02220206

2010/08/10 10:53
KANB 101053Z AUTO 06004KT 6SM HZ CLR 25/21 A3001 RMK AO2 SLP148 T02500211

2010/08/10 10:53
KAOO 101053Z AUTO 22004KT 6SM HZ OVC110 22/18 A3002 RMK AO2 SLP152 T02170183

2010/08/10 10:48
KASG 101048Z 14005KT 10SM SKC 24/22 A2998

2010/08/10 10:53
KASX 101053Z AUTO 00000KT 3SM BR CLR 18/18 A2998 RMK AO2 SLP149 T01780178

2010/08/10 10:53
KATY 101053Z AUTO 00000KT 10SM OVC007 24/23 A2991 RMK AO2 LTG DSNT S AND SW CIG 005V010 SLP113 T02390228

2010/08/10 10:53
KAWM 101053Z AUTO 19005KT 9SM CLR 26/25 A2993 RMK AO2 SLP129 T02560250

2010/08/10 10:53
KAXN 101053Z AUTO 10005KT 6SM BR CLR 21/20 A2995 RMK AO2 SLP133 T02110200 $

2010/08/10 10:53
KAZO 101053Z 00000KT 1/2SM FG VV002 20/19 A3000 RMK AO2 SLP154 T02000194

2010/08/10 10:52
KNFW 101052Z AUTO 00000KT 10SM CLR 28/19 A2995 RMK AO2 SLP125 T02780194

2010/08/10 10:53
PHNL 101053Z 07010KT 10SM FEW032 SCT050 26/17 A3008 RMK AO2 SLP186 T02560172

2010/08/10 10:55
KCEF 101055Z AUTO 00000KT 1/2SM R23/1200V5500FT R33/0900VP6000FT FG CLR 21/20 A2993 RMK AO2 SLP135 T02080205 $

2010/08/10 10:55
KGRF 101055Z AUTO 22005KT 10SM OVC009 13/11 A2996 RMK AO2 CIG 008V010 SLP146 T01260108

2010/08/10 10:55
KLRF 101055Z AUTO 17004KT 10SM CLR 27/25 A2993 RMK AO2 SLP131 T02720252

2010/08/10 10:52
KNHK 101052Z 22007KT 9SM FEW090 SCT200 26/21 A2994 RMK AO2 SLP140 T02560211

2010/08/10 10:52
KNRB 101052Z 15009KT 10SM SCT024 SCT130 28/22 A2995 RMK AO2 SLP141 T02780222

2010/08/10 10:55
KRDR 101055Z AUTO 00000KT 10SM CLR 18/18 A2990 RMK AO2 SLP135 T01840183 $

2010/08/10 10:53
KNIP 101053Z 11010KT 10SM FEW012 SCT250 27/24 A2995 RMK AO2 SLP136 T02670239

2010/08/10 10:53
KDNK 101053Z AUTO 00000KT 10SM FEW050 SCT075 BKN090 25/23 A2994 RMK AO2 SLP135 T02500228

2010/08/10 10:53
KDTS 101053Z AUTO 06005KT 10SM CLR 27/23 A2991 RMK AO2 SLP127 T02720233

2010/08/10 10:53
KIAG 101053Z AUTO 00000KT 1SM BR FEW032 BKN044 21/20 A2994 RMK AO2 SLP136 T02110200

2010/08/10 10:53
KNQX 101053Z 23005KT 8SM -RA BKN010 BKN020 BKN040 BKN140 26/23 A2985 RMK AO2 SLP105 T1 SET P0011 T02560233 $

2010/08/10 10:55
KBLV 101055Z AUTO 00000KT 4SM R14R/4000VP6000FT BR CLR 25/25 A2993 RMK AO2 RAB1036E1041 SLP132 P0000 T02530251

2010/08/10 10:55
KCEF 101055Z AUTO 00000KT 1/2SM R23/1200V5500FT R33/0900VP6000FT FG CLR 21/20 A2993 RMK AO2 SLP135 T02080205 $

2010/08/10 10:55
KGRF 101055Z AUTO 22005KT 10SM OVC009 13/11 A2996 RMK AO2 CIG 008V010 SLP146 T01260108

2010/08/10 10:55
KHST 101055Z AUTO 20004KT 10SM SCT032 25/24 A2987 RMK AO2 SLP117 T02500238

2010/08/10 10:55
KLRF 101055Z AUTO 17004KT 10SM CLR 27/25 A2993 RMK AO2 SLP131 T02720252

2010/08/10 10:55
KMMT 101055Z AUTO 00000KT 7SM BKN003 BKN016 OVC025 24/24 A3002 RMK AO2 BKN003 V SCT SLP164 T02400237

2010/08/10 10:54
KECG 101054Z 25005KT 10SM CLR 24/24 A3000 RMK AO2 SLP157 P0001 T02440239

2010/08/10 10:54
KFZY 101054Z AUTO 00000KT 1SM BR SCT029 OVC060 21/20 A2994 RMK AO2 RAE0959 SLP136 P0000 T02110200

2010/08/10 10:54
KRSP 101054Z AUTO VRB04KT 7SM CLR 23/17 A3003 RMK AO2 SLP965 T02330167 $

2010/08/10 10:53
PABI 101053Z AUTO 21006KT 10SM CLR 15/06 A2969 RMK AO2 SLP051 T01500056 TSNO $

2010/08/10 10:54
KNKT 101054Z AUTO 25004KT 10SM BKN075 25/24 A3002 RMK AO2 SLP163 T02500239

2010/08/10 10:55
KDAA 101055Z AUTO 00000KT 7SM CLR 22/21 A2995 RMK AO2 SLP142 T02190208

2010/08/10 10:53
KDTS 101053Z AUTO 06005KT 10SM CLR 27/23 A2991 RMK AO2 SLP127 T02720233

2010/08/10 10:55
KGUS 101055Z AUTO 13004KT 7SM FEW100 24/24 A2996 RMK AO2 RAB1025E1036DZB1011E1020B1036E1040 SLP138 P0001 T02380238

2010/08/10 10:55
KHST 101055Z AUTO 20004KT 10SM SCT032 25/24 A2987 RMK AO2 SLP117 T02500238

2010/08/10 10:55
KIAB 101055Z AUTO 15007KT 10SM CLR 26/21 A2989 RMK AO2 SLP105 T02580206 $

2010/08/10 10:55
KMMT 101055Z AUTO 00000KT 7SM BKN003 BKN016 OVC025 24/24 A3002 RMK AO2 BKN003 V SCT SLP164 T02400237

2010/08/10 10:55
KOFF 101055Z AUTO 10005KT 10SM CLR 25/23 A2986 RMK AO2 SLP091 T02520226 $

2010/08/10 10:55
KSUU 101055Z AUTO 25019KT 10SM FEW004 12/11 A2981 RMK AO2 PK WND 25026/1024 SLP096 T01230110 RVRNO $

2010/08/10 10:55
KSZL 101055Z AUTO 00000KT 10SM CLR 25/24 A2993 RMK AO2 SLP125 T02540237 PNO $

2010/08/10 10:54
KBKB 101054Z AUTO 00000KT 10SM BKN065 BKN090 26/24 A2992 RMK AO2 SLP157 T02560239 $

2010/08/10 10:54
KNFG 101054Z 00000KT BR OVC010 12/09 A2991 RMK AO2 SLP126 T01170094

2010/08/10 10:53
KPKB 101053Z 00000KT 6SM BR OVC110 21/19 A3002 RMK AO2 SLP155 T02110194

2010/08/10 10:53
KPMP 101053Z AUTO 17009G19KT 5SM RA BR SCT013 BKN018 OVC041 26/24 A2989 RMK AO2 TSB15E35RAB45 SLP121 P0005 T02610244

2010/08/10 10:50
KPNA 101050Z AUTO 30003KT 10SM CLR 04/03 A3021 RMK AO2 T00350025

2010/08/10 10:53
KPNS 101053Z 03006KT 8SM CLR 26/24 A2993 RMK AO2 SLP134 T02560239

2010/08/10 10:53
KPOU 101053Z VRB03KT 2 1/2SM -RA BR OVC030 22/21 A2994 RMK AO2 SLP135 P0009 T02170211

2010/08/10 10:53
KPSP 101053Z AUTO 00000KT 10SM CLR 23/09 A2976 RMK AO2 SLP073 T02330094 TSNO

2010/08/10 10:53
KPTK 101053Z 00000KT 3SM BR FEW001 SCT120 21/21 A2997 RMK AO2 TWR VIS 5 SLP142 T02110206

2010/08/10 10:50
KPTT 101050Z AUTO 21008KT 10SM CLR 23/18 A2990 RMK AO2

2010/08/10 10:53
KPUB 101053Z AUTO 00000KT 10SM CLR 14/14 A3008 RMK AO2 SLP140 T01440139

2010/08/10 10:53
KPUC 101053Z AUTO 03005KT 10SM CLR 12/00 A3015 RMK AO2 SLP159 T01170000 $

2010/08/10 10:53
KPWA 101053Z AUTO 18009KT 10SM CLR 26/19 A2990 RMK AO2 SLP103 T02610194

2010/08/10 10:53
KRAL 101053Z AUTO 00000KT 10SM CLR 16/13 A2989 RMK AO2 SLP107 T01610128

2010/08/10 10:53
KRBD 101053Z VRB03KT 10SM CLR 27/22 A2991 RMK AO2 SLP117 T02720217

2010/08/10 10:53
KRME 101053Z AUTO 00000KT 3SM BR OVC023 21/20 A2998 RMK AO2 SLP147 T02060200

2010/08/10 10:53
KRSW 101053Z AUTO 10011KT 10SM OVC006 24/23 A2984 RMK AO2 CIG 005V010 SLP101 T02440233 TSNO

2010/08/10 10:53
KRWL 101053Z AUTO 00000KT 10SM CLR 09/02 A3018 RMK AO2 SLP139 T00940022

2010/08/10 10:53
KRXE 101053Z AUTO 00000KT 10SM CLR 10/09 A3005 RMK AO2 SLP149 T01000089

2010/08/10 10:53
KSEG 101053Z AUTO 00000KT 6SM BR SCT120 22/19 A2996 RMK AO2 SLP143 T02170194

2010/08/10 10:49
KSEZ 101049Z AUTO 04011KT 10SM OVC090 20/09 A3010 RMK AO2 T02000085

2010/08/10 10:53
KSHR 101053Z AUTO 00000KT 10SM CLR 12/10 A2993 RMK AO2 SLP096 T01170100

2010/08/10 10:53
KSIY 101053Z AUTO VRB04KT 10SM 17/07 A2992 RMK AO2 SLP117 T01720072 $

2010/08/10 10:53
KSLC 101053Z 14008KT 10SM CLR 18/03 A2999 RMK AO2 SLP106 T01780028

2010/08/10 10:53
KSMQ 101053Z AUTO 00000KT 6SM BR CLR 23/21 A2992 RMK AO2 SLP130 T02280206

2010/08/10 10:53
KSNS 101053Z AUTO 00000KT 7SM OVC003 12/11 A2990 RMK AO2 SLP133 T01220111

2010/08/10 10:53
KSNY 101053Z AUTO 22008KT 10SM CLR 17/15 A3003 RMK AO2 SLP125 T01670150

2010/08/10 10:53
KSPG 101053Z 11013KT 10SM BKN010 BKN025 27/24 A2985 RMK AO2 SLP107 T02670244

2010/08/10 10:53
KSRQ 101053Z 09010KT 10SM BKN012 25/23 A2984 RMK AO2 SLP103 T02500233

2010/08/10 10:53
KSSI 101053Z AUTO 14008KT 10SM FEW023 BKN049 28/23 A2997 RMK AO2 SLP149 T02830233

2010/08/10 10:50
KSUN 101050Z AUTO 33014KT 10SM CLR 11/09 A3005 RMK AO2

2010/08/10 10:45
KSWF 101045Z 00000KT 6SM BR BKN060 22/21 A2998

2010/08/10 10:53
KSWO 101053Z AUTO 13003KT 10SM CLR 26/21 A2989 RMK AO2 SLP105 T02610211

2010/08/10 10:50
KSZT 101050Z AUTO 00000KT 10SM SCT085 11/10 A2983 RMK AO2

2010/08/10 10:53
KGGG 101053Z 23003KT 10SM CLR 26/23 A2993 RMK AO2 SLP125 T02560233

2010/08/10 10:53
KGGW 101053Z AUTO 34003KT 10SM CLR 18/16 A2977 RMK AO2 SLP065 T01780161 TSNO

2010/08/10 10:53
KGIF 101053Z AUTO 11007KT 10SM FEW013 25/23 A2991 RMK AO2 SLP125 T02500233 TSNO

2010/08/10 10:53
KGJT 101053Z AUTO 10007KT 10SM CLR 16/04 A3010 RMK AO2 SLP127 T01610044

2010/08/10 10:53
KGKJ 101053Z AUTO 20003KT 5SM HZ CLR 21/18 A2999 RMK AO2 SLP143 T02110183

2010/08/10 10:53
KGKY 101053Z AUTO 20004KT 10SM CLR 24/21 A2991 RMK AO2 SLP119 T02440206

2010/08/10 10:53
KGMJ 101053Z AUTO 00000KT 10SM CLR 23/21 A2993 RMK AO2

2010/08/10 10:53
KGNV 101053Z 06003KT 10SM CLR 24/23 A2993 RMK AO2 SLP129 T02440228

2010/08/10 10:53
KGOK 101053Z AUTO 17005KT 10SM CLR 27/21 A2988 RMK AO2 SLP104 T02670206

2010/08/10 10:53
KGTF 101053Z 20009KT 10SM CLR 16/07 A2986 RMK AO2 SLP083 T01560072

2010/08/10 10:53
KGZH 101053Z AUTO 00000KT 2 1/2SM BR CLR 23/23 A2997 RMK AO2 SLP144 T02330228

2010/08/10 10:53
KHAO 101053Z AUTO 00000KT 3SM BR CLR 22/20 A2998 RMK AO2 SLP144 T02170200

2010/08/10 10:53
KHBR 101053Z AUTO 24005KT 10SM CLR 24/19 A2992 RMK AO2 SLP107 T02390194

2010/08/10 10:53
KBYI 101053Z AUTO 01005KT 10SM FEW120 13/12 A2993 RMK AO2 SLP097 T01330117

2010/08/10 10:53
KCAG 101053Z AUTO 00000KT 10SM CLR 06/05 A3021 RMK AO2 SLP176 T00610050

2010/08/10 10:53
KCCR 101053Z AUTO 00000KT 10SM CLR 12/09 A2986 RMK AO2 SLP099 T01220094

2010/08/10 10:53
KCDC 101053Z AUTO 00000KT 10SM CLR 13/02 A3012 RMK AO2 SLP129 T01280022

2010/08/10 10:53
KCDS 101053Z AUTO 25006KT 10SM CLR 21/19 A2995 RMK AO2 SLP112 T02110189

2010/08/10 10:53
KCDW 101053Z 00000KT 5SM HZ BKN120 24/21 A2995 RMK AO2 SLP144 T02390211 $

2010/08/10 10:53
KCEW 101053Z AUTO 00000KT 3SM BR CLR 23/22 A2995 RMK AO2 SLP139 T02280222

2010/08/10 10:53
KCEZ 101053Z AUTO 07003KT 10SM FEW110 11/08 A3020 RMK AO2 SLP155 T01110083

2010/08/10 10:53
KCHO 101053Z 00000KT 5SM BR CLR 22/21 A2998 RMK AO2 SLP143 T02220206

2010/08/10 10:53
KCKB 101053Z 00000KT 2 1/2SM BR CLR 19/18 A3002 RMK AO2 SLP150 T01890178

2010/08/10 10:53
KCPR 101053Z 25006KT 10SM CLR 13/02 A3004 RMK AO2 SLP109 T01330017

2010/08/10 10:53
KCRE 101053Z 00000KT 10SM SCT018 SCT033 26/25 A3001 RMK AO2 SLP164 T02610250

2010/08/10 10:53
KCRG 101053Z 12003KT 10SM CLR 25/23 A2995 RMK AO2 SLP141 T02500233

2010/08/10 10:53
KCRS 101053Z AUTO 17005KT 10SM 26/23 A2992 RMK AO2 SLP123 T02560233 $

2010/08/10 10:53
KCSM 101053Z AUTO 22006KT 10SM CLR 23/19 A2994 RMK AO2 SLP108 T02330189

2010/08/10 10:53
KCUB 101053Z AUTO 00000KT 9SM OVC003 25/23 A3003 RMK AO2 SLP165 T02500233

2010/08/10 10:53
KCYS 101053Z AUTO 28012KT 10SM CLR 14/08 A3013 RMK AO2 SLP120 T01440078 TSNO

2010/08/10 10:53
KDEN 101053Z 23008KT 10SM SCT140 16/12 A3010 RMK AO2 SLP122 T01560122

2010/08/10 10:53
KDEQ 101053Z AUTO 00000KT 6SM BR CLR 24/23 A2991 RMK AO2 SLP122 T02390228

2010/08/10 10:53
KDET 101053Z 00000KT 3SM BR CLR 21/21 A2997 RMK AO2 SLP144 T02110206

2010/08/10 10:53
KDFI 101053Z AUTO 00000KT 1/4SM FG OVC001 21/20 A2998 RMK AO2 SLP147 T02060200

2010/08/10 10:53
KDFW 101053Z 20006KT 10SM CLR 27/21 A2990 RMK AO2 SLP115 T02720206

2010/08/10 10:53
KDGW 101053Z AUTO 26009KT 10SM CLR 18/04 A3000 RMK AO2 SLP098 T01780044

2010/08/10 10:53
KDHN 101053Z 06004KT 7SM CLR 23/22 A3000 RMK AO2 SLP153 T02330222

2010/08/10 10:53
KDKK 101053Z AUTO 18004KT 3SM BR BKN046 OVC075 22/21 A2996 RMK AO2 RAE26 SLP140 P0003 T02170206 $

2010/08/10 10:53
KDLN 101053Z AUTO 19009KT 10SM SCT110 13/07 A3004 RMK AO2 SLP135 T01280067

2010/08/10 10:53
KDRO 101053Z AUTO 00000KT 10SM FEW080 12/06 A3025 RMK AO2 SLP159 T01170061

2010/08/10 10:53
KDTN 101053Z AUTO 00000KT 10SM CLR 28/23 A2992 RMK AO2 SLP127 T02780228

2010/08/10 10:53
KDTO 101053Z AUTO 23003KT 10SM CLR 24/21 A2991 RMK AO2 SLP118 T02390211

2010/08/10 10:53
KDTW 101053Z 00000KT 3SM R04R/1800VP6000FT CLR 21/21 A2997 RMK AO2 SLP145 T02110206 $

2010/08/10 10:53
KDXR 101053Z 00000KT 4SM BR OVC110 22/21 A2997 RMK AO2 RAE0955B12E49 SLP146 P0001 T02170206

2010/08/10 10:53
KECP 101053Z 02006KT 10SM CLR 25/23 A2991 RMK AO2 SLP140 T02500233

2010/08/10 10:53
KEEO 101053Z AUTO VRB03KT 10SM CLR 07/05 A3022 RMK AO2 SLP166 T00720050 TSNO $

2010/08/10 10:53
KELD 101053Z AUTO 12003KT 10SM CLR 25/24 A2993 RMK AO2 SLP130 T02500239

2010/08/10 10:53
KELM 101053Z 00000KT 1 3/4SM BR FEW003 BKN047 OVC065 21/20 A2997 RMK AO2 RAB10E43 SLP142 P0004 T02110200

2010/08/10 10:53
KEWB 101053Z AUTO 24003KT 4SM BR BKN095 22/21 A2991 RMK AO2 RAE35 SLP127 P0001 T02220206

2010/08/10 10:53
KEYE 101053Z AUTO 00000KT 6SM HZ CLR 25/22 A2995 RMK AO2 SLP132 T02500222

2010/08/10 10:53
KEYW 101053Z 21007KT 5SM +RA BR FEW018 BKN030 OVC038 26/23 A2985 RMK AO2 SLP106 P0011 T02560233

2010/08/10 10:53
KFDR 101053Z AUTO 21004KT 10SM 25/19 A2989 RMK AO2 SLP099 T02500194

2010/08/10 10:53
KFDY 101053Z AUTO 00000KT 1 1/2SM BR SCT041 BKN060 22/21 A2997 RMK AO2 SLP140 T02220211

2010/08/10 10:53
KFFT 101053Z AUTO 00000KT 4SM BR CLR 23/22 A2997 RMK AO2 SLP140 T02280217

2010/08/10 10:53
KFLL 101053Z 15010KT 9SM -RA FEW012 SCT043 SCT060 25/24 A2988 RMK AO2 TSB15E36RAB03 SLP117 P0050 T02500239

2010/08/10 10:53
KFLO 101053Z 00000KT 10SM CLR 24/23 A3002 RMK AO2 SLP164 T02440233

2010/08/10 10:52
KPLN 101052Z AUTO 00000KT 1 1/4SM BR OVC017 22/21 A2998 RMK AO2

2010/08/10 10:53
KSLE 101053Z AUTO 00000KT 10SM BKN018 BKN042 12/09 A2997 RMK AO2 TSNO

2010/08/10 10:50
EFMA 101050Z 21012KT 9999 BKN009 18/16 Q1011

2010/08/10 10:53
KBDE 101053Z AUTO 21004KT 10SM CLR 19/19 A2992 RMK AO2 SLP126 T01940189

2010/08/10 10:53
KBEH 101053Z AUTO 00000KT 9SM CLR 20/19 A2998 RMK AO2 SLP146 T02000194

2010/08/10 10:53
KBFD 101053Z AUTO 00000KT 2 1/2SM BR BKN050 OVC055 19/18 A3003 RMK AO2 SLP153 T01890183

2010/08/10 10:53
KBFI 101053Z 19006KT 10SM OVC015 14/11 A2995 RMK AO2 SLP142 T01390111

2010/08/10 10:53
KBHM 101053Z 00000KT 9SM CLR 26/23 A3000 RMK AO2 SLP148 T02610228

2010/08/10 10:53
KBIV 101053Z AUTO 00000KT 1/4SM FG VV001 21/19 A3001 RMK AO2 SLP157 T02060189

2010/08/10 10:53
KBKE 101053Z AUTO 23005KT 10SM SCT085 12/09 A2991 RMK AO2 RAB02E15 SLP108 P0000 T01170094

2010/08/10 10:53
KBLI 101053Z AUTO 17005KT 10SM BKN010 OVC040 14/12 A2993 RMK AO2 SLP141 T01440122

2010/08/10 10:53
KBNA 101053Z 18004KT 6SM BR FEW047 BKN200 25/23 A2999 RMK AO2 SLP148 T02500233

2010/08/10 10:55
KBOW 101055Z AUTO 09004KT 10SM CLR 23/23 A2990 RMK AO2

2010/08/10 10:53
KBPK 101053Z AUTO 00000KT 6SM BR CLR 25/24 A2995 RMK AO2 SLP128 T02500239

2010/08/10 10:53
KBRD 101053Z AUTO 00000KT 3/4SM BR CLR 19/17 A2996 RMK AO2 SLP138 T01890172

2010/08/10 10:53
KBRL 101053Z AUTO 03004KT 10SM CLR 26/22 A2993 RMK AO2 SLP128 T02560222

2010/08/10 10:53
KBTL 101053Z 00000KT 1/4SM FG OVC001 19/19 A3001 RMK AO2 SLP157 T01940194

2010/08/10 10:53
KBUR 101053Z AUTO 13003KT 6SM BR CLR 15/13 A2989 RMK AO2 SLP111 T01500128 TSNO

2010/08/10 10:53
KBVO 101053Z AUTO 00000KT 10SM CLR 23/22 A2991 RMK AO2 SLP114 T02280217

2010/08/10 10:53
KBWG 101053Z AUTO 00000KT 4SM BR CLR 25/23 A2997 RMK AO2 SLP142 T02500233

2010/08/10 10:55
KCDN 101055Z AUTO 00000KT 1SM BR OVC003 24/24 A3004 RMK A02 P000

2010/08/10 10:53
KCGI 101053Z AUTO 13003KT 7SM CLR 24/23 A2993 RMK AO2 SLP131 T02390233 TSNO

2010/08/10 10:55
KCGS 101055Z AUTO 00000KT 7SM CLR 25/22 A2994 RMK AO1

2010/08/10 10:55
KCKI 101055Z AUTO 00000KT 23/23 A3002 RMK AO2 PWINO

2010/08/10 10:53
KCLM 101053Z AUTO 30005KT 7SM OVC003 11/10 A2995 RMK AO2 SLP140 T01110100

2010/08/10 10:53
KCMI 101053Z 07005KT 6SM BR CLR 25/23 A2996 RMK AO2 SLP139 T02500233

2010/08/10 10:53
KCMX 101053Z AUTO 28003KT 4SM BR CLR 16/16 A2997 RMK AO2 SLP146 T01610156 $

2010/08/10 10:53
KCNM 101053Z AUTO 00000KT 10SM CLR 19/16 A2999 RMK AO2 SLP097 T01890156

2010/08/10 10:53
KCNO 101053Z AUTO 00000KT 5SM BR CLR 14/12 A2991 RMK AO2 SLP121 T01440122

2010/08/10 10:53
KCPS 101053Z 00000KT 6SM BR CLR 24/24 A2993 RMK AO2 SLP131 T02440239

2010/08/10 10:53
KCSV 101053Z AUTO 00000KT 6SM HZ BKN070 23/21 A3008 RMK AO2 SLP162 T02330206

2010/08/10 10:50
KCWA 101050Z 00000KT 10SM SKC 18/17 A3002

2010/08/10 10:51
KDAG 101051Z AUTO 26009KT 10SM CLR 21/M02 A2987 RMK AO2 SLP085 T02111022 TSNO

2010/08/10 10:53
KDAN 101053Z AUTO 00000KT 3SM BR CLR 22/21 A3001 RMK AO2 SLP151 T02220206

2010/08/10 10:53
KDCU 101053Z AUTO 00000KT 4SM BR CLR 24/22 A2999 RMK AO2 SLP148 T02440222

2010/08/10 10:53
KDEW 101053Z AUTO 00000KT 10SM FEW013 BKN085 OVC110 14/09 A2983 RMK AO2 RAB29E51 SLP089 P0002 T01390094

2010/08/10 10:53
KDHT 101053Z AUTO 17005KT 10SM BKN120 22/17 A3006 RMK AO2 SLP109 T02170172

2010/08/10 10:53
KDLS 101053Z AUTO 29005KT 10SM CLR 17/09 A2989 RMK AO2 SLP119 T01670089

2010/08/10 10:53
KDMO 101053Z AUTO 00000KT 10SM CLR 26/23 A2994 RMK AO2 SLP129 T02610233

2010/08/10 10:52
KFDK 101052Z AUTO 15003KT 4SM BR CLR 23/22 A2997 RMK AO2

2010/08/10 10:53
KDNL 101053Z AUTO 13003KT 10SM CLR 24/22 A3003 RMK AO2 SLP162 T02390222 $

2010/08/10 10:53
KDVT 101053Z 03006KT 10SM SCT110 28/09 A2983 RMK AO2 SLP074 T02830089

2010/08/10 10:55
KDYB 101055Z AUTO 00000KT 10SM CLR 23/23 A3001 RMK AO1

2010/08/10 10:53
KEET 101053Z AUTO 00000KT 7SM FEW085 26/22 A2999 RMK AO2 SLP145 T02560222

2010/08/10 10:53
KELN 101053Z AUTO 32011KT 10SM CLR 14/08 A2986 RMK AO2 SLP103 T01440078

2010/08/10 10:53
KLLQ 101053Z AUTO 00000KT 10SM FEW090 25/23 A2995 RMK AO2 SLP138 T02500233

2010/08/10 10:53
KLSE 101053Z 11003KT 1/4SM FG OVC002 22/22 A2996 RMK AO2 SLP134 T02220222

2010/08/10 10:53
KLVS 101053Z AUTO 03004KT 10SM CLR 11/10 A3025 RMK AO2 SLP137 T01110100

2010/08/10 10:50
ENAL 101050Z 03009KT 9999 SCT035 BKN070 15/13 Q1010

2010/08/10 10:50
ENCN 101050Z 18007KT 9999 FEW015TCU BKN018 19/15 Q1012

2010/08/10 10:50
ENHD 101050Z 13013KT 9999 BKN017 18/13 Q1008

2010/08/10 10:50
ENRO 101050Z 14002KT 9999 VCSH FEW012 BKN078 18/13 Q1010

2010/08/10 10:50
ENRY 101050Z 20014KT 9999 SCT019 19/14 Q1011 NOSIG

2010/08/10 10:50
ENSB 101050Z 27004KT 240V300 9999 FEW025 BKN035 04/M00 Q1007 NOSIG 

2010/08/10 10:50
ENTC 101050Z 02007KT 9999 FEW020 SCT055 14/10 Q1011 NOSIG

2010/08/10 10:50
ENTO 101050Z 21012KT 9999 SCT030 20/13 Q1011

2010/08/10 10:53
KSEA 101053Z 21005KT 7SM BKN006 OVC011 13/11 A2996 RMK AO2 CIG 004V009 SLP150 T01280111

2010/08/10 10:53
KSTC 101053Z AUTO 11003KT 5SM BR CLR 20/19 A2993 RMK AO2 SLP137 T02000194 $

2010/08/10 10:53
KTUS 101053Z AUTO 17006KT 10SM CLR 25/16 A2996 RMK AO2 SLP092 T02500156

2010/08/10 10:53
KYKM 101053Z AUTO 30009KT 10SM CLR 17/08 A2986 RMK AO2 SLP103 T01670078

2010/08/10 10:53
PHTO 101053Z 23006KT 10SM FEW026 SCT060 22/17 A3010 RMK AO2 SLP191 T02170172

2010/08/10 10:53
PHKO 101053Z AUTO 00000KT 10SM CLR 23/17 A3002 RMK AO2 SLP166 T02330167 TSNO

2010/08/10 10:53
PHLI 101053Z 06019KT 8SM -RA SCT025 BKN037 OVC047 23/19 A3012 RMK AO2 RAB48 SLP197 P0000 T02330189

2010/08/10 10:53
PADQ 101053Z 19005KT 10SM SCT022 OVC200 12/08 A2978 RMK SLP083 T01220083

2010/08/10 10:53
KSAV 101053Z 00000KT 10SM FEW015 SCT025 SCT250 25/24 A3000 RMK AO2 SLP158 T02500239

2010/08/10 10:53
KAAF 101053Z AUTO 04007KT 10SM FEW021 SCT031 26/24 A2989 RMK AO2 RAB33E45 SLP122 P0000 T02560244

2010/08/10 10:53
KBIL 101053Z 22010KT 10SM CLR 14/12 A2991 RMK AO2 SLP108 T01390122

2010/08/10 10:53
KLAX 101053Z 28005KT 6SM BR OVC007 15/13 A2991 RMK AO2 SLP125 T01500128 $

2010/08/10 10:53
KSDM 101053Z AUTO 00000KT 9SM OVC008 16/14 A2990 RMK AO2 SLP121 T01610139 TSNO

2010/08/10 10:53
KOQT 101053Z AUTO 00000KT 4SM BR SCT095 24/23 A3004 RMK AO2 SLP153 T02440233 TSNO

2010/08/10 10:53
KFAR 101053Z 13004KT 10SM CLR 22/19 A2988 RMK AO2 SLP112 T02170194

2010/08/10 10:53
KNUI 101053Z AUTO 24005KT 10SM CLR 26/22 A2995 RMK AO2 SLP141 T02560217

2010/08/10 10:51
KSAN 101051Z 00000KT 10SM OVC015 18/14 A2991 RMK AO2 SLP129 T01780139

2010/08/10 10:53
KCTY 101053Z AUTO 06003KT 24/24 A2992 RMK AO2 SLP130 P0001 T02440239 PWINO TSNO

2010/08/10 10:53
KLXV 101053Z AUTO 10003KT 10SM CLR 03/03 A3044 RMK AO2 SLP173 T00330028 TSNO

2010/08/10 10:53
KP68 101053Z AUTO 18007KT 13/M08 A3007 RMK AO2 SLP101 T01281083 PWINO TSNO

2010/08/10 10:53
KELY 101053Z AUTO 19009KT 10SM CLR 11/M03 A3013 RMK AO2 SLP108 T01111033

2010/08/10 10:53
KCHA 101053Z 00000KT 10SM SCT150 BKN250 26/23 A3002 RMK AO2 SLP155 T02560233

2010/08/10 10:53
KTCS 101053Z AUTO 33004KT 10SM CLR 21/11 A3008 RMK AO2 SLP095 T02060111 TSNO

2010/08/10 10:53
KMSN 101053Z 00000KT 3SM BCFG BR FEW001 22/21 A2997 RMK AO2 SLP143 T02170211

2010/08/10 10:53
KTLH 101053Z 06006KT 10SM FEW013 26/23 A2994 RMK AO2 SLP136 T02560233

2010/08/10 10:53
KP92 101053Z AUTO 00000KT 25/24 A2992 RMK AO2 SLP130 T02500244 PWINO TSNO

2010/08/10 10:53
KRNM 101053Z AUTO 00000KT 1/2SM FG BKN001 OVC009 10/09 A2991 RMK AO2 SLP116 T01000089 TSNO

2010/08/10 10:53
KCUT 101053Z AUTO 24006KT 10SM SCT110 16/13 A3001 RMK AO2 SLP096 T01560133 TSNO

2010/08/10 10:53
KHTL 101053Z AUTO 03005KT 5SM BR OVC005 21/21 A3001 RMK AO2 CIG 003V008 SLP157 T02110206

2010/08/10 10:53
KBNO 101053Z AUTO 25008KT 10SM CLR 14/04 A2994 RMK AO2 SLP101 T01390039 TSNO

2010/08/10 10:53
KCDR 101053Z AUTO 24006KT 10SM CLR 18/14 A2990 RMK AO2 SLP102 T01780144

2010/08/10 10:53
KCNY 101053Z AUTO 00000KT 10SM CLR 16/02 A3005 RMK AO2 SLP119 T01610017

2010/08/10 10:53
KDAL 101053Z 22004KT 10SM CLR 28/21 A2991 RMK AO2 SLP118 T02830206

2010/08/10 10:53
KDMN 101053Z AUTO 00000KT 10SM CLR 18/10 A3005 RMK AO2 SLP095 T01780100

2010/08/10 10:53
KFAT 101053Z 29006KT 10SM CLR 19/14 A2981 RMK AO2 SLP090 T01890144

2010/08/10 10:53
KFNT 101053Z AUTO 27003KT M1/4SM FG 19/19 A2998 RMK AO2 SLP149 T01890189 RVRNO $

2010/08/10 10:53
KGCC 101053Z AUTO 26007KT 10SM CLR 13/11 A2994 RMK AO2 SLP089 T01330106

2010/08/10 10:53
KLBB 101053Z 28004KT 10SM FEW120 19/17 A3001 RMK AO2 SLP122 T01940172

2010/08/10 10:53
KMLU 101053Z A2995 RMK AO2 SLPNO $

2010/08/10 10:53
KRIW 101053Z AUTO 25005KT 10SM CLR 14/03 A3007 RMK AO2 SLP114 T01440033

2010/08/10 10:50
KSOW 101050Z AUTO 00000KT 10SM CLR 13/09 A3025 RMK AO2

2010/08/10 10:53
KHVR 101053Z AUTO 17004KT 10SM CLR 13/12 A2981 RMK AO2 SLP076 T01330122

2010/08/10 10:53
KLAN 101053Z 00000KT M1/4SM R28L/0800V1400FT FG OVC004 19/19 A2999 RMK AO2 SLP152 T01890189

2010/08/10 10:48
K4O4 101048Z AUTO 00000KT 10SM CLR 24/22 A2993 RMK AO2

2010/08/10 10:51
KADH 101051Z AUTO 16004KT 10SM CLR 25/18 A2992 RMK AO2

2010/08/10 10:50
KADM 101050Z AUTO 10003KT 10SM CLR 23/22 A2991 RMK AO2

2010/08/10 10:53
KAEX 101053Z 00000KT 10SM BKN060 OVC075 26/24 A2993 RMK AO2 SLP136 T02610239

2010/08/10 10:50
KAFK 101050Z AUTO 16005KT 10SM CLR 25/22 A2986 RMK AO2 T02450218

2010/08/10 10:52
KAFN 101052Z AUTO 00000KT 2 1/2SM BR CLR 19/19 A2995 RMK AO2 SLP140 T01940189

2010/08/10 10:53
KALI 101053Z AUTO 15003KT 2 1/2SM BR CLR 24/24 A2987 RMK AO2 SLP113 T02440244

2010/08/10 10:45
KALM 101045Z AUTO 18003KT 10SM CLR 20/12 A3002 RMK AO2

2010/08/10 10:50
KANW 101050Z AUTO 22004KT 10SM CLR 18/18 A2988 RMK AO2 T01840175

2010/08/10 10:52
KAQW 101052Z AUTO 00000KT 1 1/2SM BR FEW017 BKN025 21/20 A2996 RMK AO2 SLP141 T02060200

2010/08/10 10:53
KARA 101053Z 01003KT 10SM CLR 25/24 A2993 RMK AO2 SLP136 T02500239

2010/08/10 10:52
KARR 101052Z AUTO 26003KT 1 1/4SM BR FEW090 22/22 A2997 RMK AO2 VIS 1/2V3 SLP143 T02170217

2010/08/10 10:53
KASD 101053Z AUTO 00000KT 8SM CLR 24/23 A2993 RMK AO2 SLP136 T02440228

2010/08/10 10:52
KATL 101052Z 00000KT 7SM SCT250 25/21 A3004 RMK AO2 SLP158 T02500211

2010/08/10 10:50
KATS 101050Z AUTO 18004KT 10SM CLR 20/16 A3001 RMK AO2

2010/08/10 10:50
KAUH 101050Z AUTO 07006KT 10SM CLR 21/19 A2987 RMK AO2 T02100190

2010/08/10 10:50
KAUN 101050Z AUTO 09006KT 10SM CLR 19/10 A2986 RMK AO1

2010/08/10 10:53
KAUS 101053Z 00000KT 10SM CLR 24/23 A2992 RMK AO2 SLP120 T02440228

2010/08/10 10:50
KAXS 101050Z AUTO 00000KT 10SM CLR 24/20 A2992 RMK AO2 T02360203

2010/08/10 10:50
KAXX 101050Z AUTO 00000KT 3/4SM BR OVC003 07/07 A3038 RMK AO2

2010/08/10 10:53
KBCT 101053Z AUTO 17017KT 10SM FEW005 SCT023 OVC055 25/24 A2988

2010/08/10 10:53
KBFM 101053Z 34005KT 6SM BR CLR 26/24 A2995 RMK AO2 SLP141 T02560239

2010/08/10 10:50
KBIE 101050Z AUTO 11003KT 10SM CLR 25/22 A2986 RMK AO2 T02450221

2010/08/10 10:52
KBIS 101052Z 08008KT 10SM CLR 21/19 A2983 RMK AO2 SLP088 T02110189

2010/08/10 10:52
KBLF 101052Z AUTO 26004KT 10SM FEW034 23/17 A3014 RMK AO2 SLP161 T02280172

2010/08/10 10:52
KBLH 101052Z AUTO 09003KT 10SM CLR 25/03 A2976 RMK AO2 SLP069 T02500028

2010/08/10 10:52
KBML 101052Z AUTO 00000KT 4SM BR OVC003 16/15 A2996 RMK AO2 CIG 001V005 SLP141 T01560150

2010/08/10 10:53
KBMQ 101053Z AUTO 00000KT 10SM CLR 24/22 A2997 RMK AO2 SLP127 T02440222 $

2010/08/10 10:53
KBPT 101053Z 00000KT 10SM CLR 25/24 A2992 RMK AO2 SLP131 T02500244

2010/08/10 10:53
KBRO 101053Z 12004KT 10SM CLR 28/26 A2986 RMK AO2 SLP111 T02780261

2010/08/10 10:50
KBTA 101050Z AUTO 15005KT 10SM SCT080 26/22 A2987 RMK AO2 T02550222

2010/08/10 10:50
KBVN 101050Z AUTO 00000KT 10SM CLR 20/19 A2986 RMK AO2 T02000185

2010/08/10 10:45
KBVS 101045Z AUTO 18003KT 8SM OVC007 13/13 A2995 RMK A01 P000

2010/08/10 10:52
KCFV 101052Z AUTO 18004KT 10SM CLR 25/21 A2991 RMK AO2 SLP118 T02500211

2010/08/10 10:50
KCHK 101050Z AUTO 15005KT 10SM CLR 26/21 A2990 RMK AO2

2010/08/10 10:50
KCLK 101050Z AUTO 18004KT 10SM CLR 24/18 A2991 RMK AO2

2010/08/10 10:52
KCLT 101052Z 00000KT 5SM BR FEW250 23/21 A3005 RMK AO2 SLP164 T02330211

2010/08/10 10:53
KCOT 101053Z AUTO 00000KT 10SM CLR 25/24 A2989 RMK AO2 SLP111 T02500239

2010/08/10 10:50
KCQB 101050Z AUTO 14003KT 10SM 24/21 A2990 RMK AO2 TSNO

2010/08/10 10:52
KCQX 101052Z AUTO 00000KT 1 1/2SM -RA BR FEW021 22/21 A2992 RMK AO2 RAB44 SLP134 P0000 T02170211

2010/08/10 10:50
KCUH 101050Z AUTO 00000KT 10SM CLR 25/21 A2990 RMK AO2

2010/08/10 10:52
KCVG 101052Z 00000KT 6SM HZ FEW200 BKN250 24/22 A2998 RMK AO2 SLP139 T02440217

2010/08/10 10:53
KCXO 101053Z AUTO 00000KT 10SM CLR 23/22 A2991 RMK AO2 SLP125 T02330222

2010/08/10 10:52
KDDC 101052Z AUTO 29005KT 10SM CLR 22/18 A2992 RMK AO2 SLP096 T02170183

2010/08/10 10:52
KDPA 101052Z 34004KT 6SM BR CLR 23/22 A2997 RMK AO2 SLP140 T02280217

2010/08/10 10:52
KDVN 101052Z AUTO 01010KT 9SM -TSRA BKN043 BKN065 23/22 A2994 RMK AO2 PK WND 27030/1009 WSHFT 1003 LTG DSNT ALQDS TSB0954RAB11 SLP131 P0035 T02330217

2010/08/10 10:50
KDVO 101050Z AUTO 00000KT 10SM OVC006 12/12 A2989 RMK AO2

2010/08/10 10:53
KTRI 101053Z 00000KT 6SM BR BKN110 22/21 A3007 RMK AO2 SLP162 T02220206

2010/08/10 10:53
KBTR 101053Z 04003KT 1 3/4SM BR SCT002 BKN200 23/23 A2994 RMK AO2 SLP136 VIS N-NE 3/4 SCT V BKN T02330233

2010/08/10 10:53
KMCN 101053Z AUTO 00000KT 5SM BR CLR 23/22 A3001 RMK AO2 SLP155 T02330217 TSNO

2010/08/10 10:53
KMGM 101053Z 10003KT 7SM FEW070 24/22 A2997 RMK AO2 SLP146 T02440222

2010/08/10 10:53
KDAB 101053Z 11005KT 10SM FEW020 SCT120 SCT250 27/23 A2993 RMK AO2 SLP135 T02670233

2010/08/10 10:53
KTUP 101053Z 00000KT 9SM CLR 25/23 A2997 RMK AO2 SLP143 T02500233

2010/08/10 10:53
K6R6 101053Z AUTO 00000KT 24/21 A2995 RMK AO2 SLP103 T02390206 PWINO TSNO

2010/08/10 10:51
KVCT 101051Z AUTO 06003KT 10SM CLR 25/24 A2990 RMK AO2 SLP123 T02500244

2010/08/10 10:54
KJAN 101054Z 00000KT 9SM CLR 24/23 A2995 RMK AO2 SLP138 T02390228

2010/08/10 10:53
KGNT 101053Z AUTO 29004KT 12/10 A3025 RMK AO2 SLP156 T01220100 PWINO TSNO

2010/08/10 10:53
KTYS 101053Z 00000KT 3SM BR BKN110 25/23 A3002 RMK AO2 SLP153 T02500228

2010/08/10 10:54
KBTV 101054Z 00000KT 4SM BR OVC003 18/18 A2993 RMK AO2 SLP135 VIS N-NE 1 1/4 T01780178

2010/08/10 10:51
KSAD 101051Z AUTO 00000KT 10SM CLR 23/13 A2996 RMK AO2 SLP087 T02280133 TSNO

2010/08/10 10:53
K40J 101053Z AUTO 03005KT 24/23 A2992 RMK AO2 SLP132 T02390228 PWINO TSNO

2010/08/10 10:54
KBUF 101054Z 19004KT 2 1/2SM BR FEW041 BKN050 BKN060 21/21 A2995 RMK AO2 SLP139 T02110206

2010/08/10 10:54
KCOS 101054Z AUTO 33003KT 10SM CLR 17/11 A3017 RMK AO2 SLP132 T01670111 TSNO

2010/08/10 10:54
KCRW 101054Z 00000KT 4SM BR SCT001 21/19 A3001 RMK AO2 SLP151 DNS VLY FG T02060194

2010/08/10 10:54
KDSM 101054Z 08003KT 10SM FEW009 SCT050 BKN140 OVC200 23/21 A2994 RMK AO2 TSE09 SLP129 CONS LTGIC DSNT NW-NE TS MOV NE CB DSNT NW-NE MOV NE T02280211

2010/08/10 10:55
KDVL 101055Z AUTO 12008KT 10SM CLR 23/18 A2988 RMK AO1

2010/08/10 10:55
KEAR 101055Z AUTO 00000KT 10SM CLR 19/18 A2991 RMK AO1

2010/08/10 10:55
KGPZ 101055Z AUTO 16003KT 3SM CLR 18/17 A2998 RMK AO1

2010/08/10 10:54
KROC 101054Z 00000KT 2SM R04/6000VP6000FT BR FEW070 SCT100 SCT250 21/20 A2995 RMK AO2 SLP140 T02060200

2010/08/10 10:54
KLEX 101054Z 15005KT 4SM BR CLR 24/22 A2999 RMK AO2 SLP143 T02390217

2010/08/10 10:54
KLYH 101054Z 22004KT 3SM BR CLR 22/21 A3002 RMK AO2 SLP155 T02170211

2010/08/10 10:54
KROC 101054Z 00000KT 2SM R04/6000VP6000FT BR FEW070 SCT100 SCT250 21/20 A2995 RMK AO2 SLP140 T02060200

2010/08/10 10:54
KSUS 101054Z 00000KT 7SM SCT070 25/24 A2992 RMK AO2 SLP122 T02500239

2010/08/10 10:54
KSYR 101054Z 00000KT 5SM BR SCT024 BKN041 BKN055 22/21 A2994 RMK AO2 SLP134 T02170206

2010/08/10 10:53
PABE 101053Z 17015G24KT 8SM -RA BKN008 BKN021 OVC026 09/08 A2948 RMK AO2 SLP983 P0000 T00940083

2010/08/10 10:53
PABT 101053Z 05003KT 10SM SCT040 OVC075 11/10 A2964 RMK AO2 SLP045 T01060100

2010/08/10 10:53
PACD 101053Z 12005KT 10SM -RA BKN048 BKN055 OVC080 09/08 A2965 RMK AO2 RAB39 SLP039 P0001 T00890078

2010/08/10 10:53
PAFA 101053Z 07003KT 10SM BKN080 11/10 A2963 RMK AO2 SLP037 T01110100

2010/08/10 10:53
PAHO 101053Z AUTO 11006G14KT 10SM BKN045 OVC060 12/08 A2976 RMK AO2 SLP077 T01220083 TSNO

2010/08/10 10:53
PAJN 101053Z 06005KT 3SM -RA BR FEW005 BKN018 OVC035 12/12 A3001 RMK AO2 DZB06E35RAB35 SLP161 P0001 T01220117

2010/08/10 10:53
PAMC 101053Z 07004KT 10SM OVC027 12/10 A2962 RMK AO2 SLP032 T01220100

2010/08/10 10:53
PANC 101053Z 00000KT 10SM SCT006 BKN015 OVC055 12/11 A2977 RMK AO2 SLP082 T01170106

2010/08/10 10:53
PANN 101053Z AUTO 09004KT 10SM OVC075 13/09 A2960 RMK AO2 SLP029 T01330094 TSNO

2010/08/10 10:53
PANT 101053Z 14004KT 1/2SM FG OVC001 12/11 A3003 RMK AO2 SLP169 T01170106

2010/08/10 10:53
PAOM 101053Z AUTO 04005KT 10SM SCT029 BKN034 OVC060 11/09 A2941 RMK AO2 RAE43 SLP959 P0003 T01060094 TSNO

2010/08/10 10:53
PAOR 101053Z 21003KT 10SM SCT080 SCT110 10/09 A2973 RMK AO2 SLP069 T01000094

2010/08/10 10:53
PAOT 101053Z 13005KT 10SM -RA FEW015 BKN065 OVC085 13/12 A2947 RMK AO2 SLP979 P0000 T01280122

2010/08/10 10:52
KCEF 101052Z AUTO 00000KT 1/2SM R23/1200V4500FT R33/0900VP6000FT FG CLR 21/20 A2993 RMK AO2 SLP135 $

2010/08/10 10:53
KCEF 101053Z AUTO 00000KT 1/2SM R23/1200V5500FT R33/0900VP6000FT FG CLR 21/20 A2993 RMK AO2 SLP135 $

2010/08/10 10:54
KMMT 101054Z AUTO 00000KT 7SM BKN003 BKN016 OVC025 24/24 A3002 RMK AO2 BKN003 V SCT SLP165

2010/08/10 10:51
KSKF 101051Z AUTO 16004KT 10SM BKN014 26/ A2992 RMK AO2 CIG 011V017 SLP120 $

2010/08/10 10:53
KSKF 101053Z AUTO 16004KT 10SM SCT013 26/ A2992 RMK AO2 SLP120 $

2010/08/10 10:51
PGUA 101051Z AUTO 07007KT 10SM FEW018 SCT023 BKN030 26/25 A2996 RMK AO2 FEW V SCT CIG 016 RWY24L SLP127 $

2010/08/10 10:52
PGUA 101052Z AUTO 07007KT 10SM SCT018 BKN023 BKN030 26/25 A2996 RMK AO2 BKN023 V SCT CIG 016 RWY24L SLP127 $

2010/08/10 10:50
EGKA 101050Z 25009KT 9999 SCT012 17/15 Q1011

2010/08/10 10:53
PAQT 101053Z AUTO 06011KT 3SM BR OVC004 02/02 A2980 RMK AO2 CIG 003V008 SLP091 T00220022 TSNO

2010/08/10 10:53
PASN 101053Z 27010KT 3/4SM BR BKN001 OVC008 08/08 A2945 RMK AO2 SLP974 T00780078

2010/08/10 10:53
PATK 101053Z AUTO 15005KT 4SM -RA BR FEW011 BKN019 OVC026 12/11 A2978 RMK AO2 SLP086 P0006 T01170106 TSNO

2010/08/10 10:53
PAYA 101053Z 09004KT 3SM -RA BR OVC005 13/12 A2997 RMK AO2 CIG 004V008 SLP149 BAY TWR WND 110MMKT P0003 T01330117

2010/08/10 10:54
KORH 101054Z 27006KT 3SM BR FEW005 SCT075 21/20 A2995 RMK AO2 SLP135 T02060200

2010/08/10 10:54
PHOG 101054Z AUTO 04010KT 10SM FEW060 24/18 A3008 RMK AO2 SLP191 T02440183 TSNO

2010/08/10 10:54
KCOU 101054Z AUTO 11004KT 8SM CLR 25/24 A2994 RMK AO2 SLP129 T02500239 TSNO $

2010/08/10 10:54
KGSO 101054Z 25005KT 5SM HZ CLR 24/21 A3004 RMK AO2 SLP160 T02390206

2010/08/10 10:54
KMTP 101054Z AUTO 00000KT 22/19 A2994 RMK AO* 2220189 PWINO TSNO

2010/08/10 10:54
KNAK 101054Z AUTO 26005KT 6SM HZ CLR 26/20 A2993 RMK AO2 SLP136 T02560200 TSNO

2010/08/10 10:54
K1V4 101054Z AUTO 17/17 A2994 RMK AO2 SLP130 T01720167 PWINO TSNO

2010/08/10 10:54
KMQE 101054Z AUTO 24006KT 21/21 A2992 RMK AO1 SLP137 T02060206

2010/08/10 10:54
K12N 101054Z AUTO 00000KT 22/21 A2997 RMK AO2 SLP140 T02220206 PWINO TSNO

2010/08/10 10:54
KAVP 101054Z 00000KT 6SM BR FEW120 22/19 A2997 RMK AO2 RAE31 SLP135 P0001 T02170194

2010/08/10 10:54
KWAL 101054Z AUTO 28005KT 6SM BR CLR 25/23 A2997 RMK AO2 SLP144 T02500228 TSNO

2010/08/10 10:54
KDMH 101054Z AUTO 26/21 A2993 RMK AO2 SLP136 T02560211 PWINO TSNO

2010/08/10 10:54
KRIC 101054Z 23003KT 9SM FEW250 25/21 A2996 RMK AO2 SLP149 T02500206 $

2010/08/10 10:54
KFWA 101054Z 03003KT 1SM BR SCT041 BKN250 23/22 A2998 RMK AO2 SLP145 R05/5500FT TCU DSNT E AND W T02330222

2010/08/10 10:54
KBFL 101054Z AUTO 32004KT 10SM CLR 19/08 A2982 RMK AO2 SLP093 T01940083

2010/08/10 10:55
KBHB 101055Z AUTO 00000KT 3SM CLR 18/17 A2985 RMK AO1

2010/08/10 10:55
KBID 101055Z AUTO 00000KT 9SM FEW085 BKN120 22/20 A2992 RMK AO1

2010/08/10 10:55
KBKX 101055Z AUTO 10008KT 8SM TS FEW007 BKN021 OVC055 24/22 A2990 RMK AO1 LTG DSNT ALQDS TSB45 P0001

2010/08/10 10:55
KBLM 101055Z AUTO 29003KT 8SM CLR 23/20 A2996 RMK AO1

2010/08/10 10:54
KBOS 101054Z 27006KT 10SM BKN120 24/21 A2990 RMK AO2 SLP125 T02390206

2010/08/10 10:55
KBTP 101055Z AUTO 00000KT 4SM OVC045 21/19 A2999 RMK AO1

2010/08/10 10:54
KBUY 101054Z AUTO 00000KT 4SM BR CLR 23/21 A3002 RMK AO2 SLP158 T02280211

2010/08/10 10:55
KBVX 101055Z AUTO 00000KT 10SM CLR 27/24 A2993 RMK AO1

2010/08/10 10:54
KBWI 101054Z 26005KT 6SM HZ SCT150 SCT250 24/21 A2993 RMK AO2 SLP133 T02390206

2010/08/10 10:54
KCEU 101054Z AUTO 00000KT 4SM BR CLR 26/23 A3006 RMK AO2 SLP164 T02560233

2010/08/10 10:55
KCGZ 101055Z AUTO 00000KT 10SM CLR 27/08 A2985 RMK AO1

2010/08/10 10:55
KCIU 101055Z AUTO 36005KT 7SM OVC004 19/19 A2998 RMK AO1

2010/08/10 10:55
KCOD 101055Z AUTO 24005KT 10SM CLR 16/06 A3001 RMK AO1

2010/08/10 10:55
KCOE 101055Z AUTO 18010G15KT 10SM SCT120 16/07 A2985 RMK AO1

2010/08/10 10:55
KCVN 101055Z 16004KT 10SM FEW120 18/16 A3008 RMK AO1

2010/08/10 10:55
KCVO 101055Z AUTO 27003KT 10SM CLR 11/09 A2999 RMK AO1

2010/08/10 10:55
KCWI 101055Z 26011G15KT 10SM VCTS FEW007 SCT037 BKN045 24/23 A3001 RMK AO1 LTG DSNT ALQDS TSB32

2010/08/10 10:54
KDDH 101054Z AUTO VRB03KT 4SM BR BKN008 BKN012 OVC035 21/20 A2997 RMK AO2 CIG 007V011 SLP141 T02060200

2010/08/10 10:54
KDEC 101054Z 00000KT 10SM CLR 24/21 A2995 RMK AO2 SLP134 T02440211 $

2010/08/10 10:54
KDSV 101054Z AUTO 13003KT 3SM BR BKN065 OVC095 22/21 A2997 RMK AO2 SLP153 T02170206 $

2010/08/10 10:54
KDYL 101054Z AUTO 00000KT 8SM SCT080 23/21 A2994 RMK AO2 SLP132 T02280206 TSNO

2010/08/10 10:55
KDYR 101055Z AUTO 14003KT 5SM CLR 25/22 A2995 RMK AO1

2010/08/10 10:55
KEEN 101055Z AUTO 00000KT M1/4SM OVC002 20/19 A2993 RMK AO1

2010/08/10 10:55
KEGE 101055Z AUTO 00000KT 10SM CLR 11/08 A3027 RMK AO1

2010/08/10 10:55
KEHR 101055Z AUTO 00000KT 2 1/2SM CLR 23/20 A2996 RMK AO1

2010/08/10 10:55
KENV 101055Z AUTO 00000KT 10SM CLR 14/07 A2997 RMK AO1

2010/08/10 10:55
KESC 101055Z AUTO 00000KT M1/4SM VV000 17/15 A2998 RMK AO1

2010/08/10 10:54
KEUG 101054Z 00000KT 10SM SCT040 10/08 A2998 RMK AO2 SLP152 T01000083 $

2010/08/10 10:55
KEUL 101055Z AUTO 13006KT 10SM CLR 16/09 A2985 RMK AO1

2010/08/10 10:54
KEVV 101054Z 00000KT 6SM BR CLR 25/23 A2995 RMK AO2 SLP136 T02500228

2010/08/10 10:55
KEWK 101055Z AUTO 19007KT 10SM CLR 27/19 A2986 RMK AO1

2010/08/10 10:54
KEWN 101054Z 00000KT 10SM CLR 24/23 A3003 RMK AO2 SLP168 T02390233

2010/08/10 10:55
KFAM 101055Z AUTO 16003KT 8SM CLR 24/23 A2998 RMK AO1

2010/08/10 10:54
KFIG 101054Z AUTO 24003KT 4SM BR SCT100 19/18 A3002 RMK AO2 SLP154 T01940178

2010/08/10 10:55
KFKL 101055Z AUTO 20005KT 5SM FEW060 SCT080 21/18 A3002 RMK AO1

2010/08/10 10:55
KFLP 101055Z AUTO 00000KT 7SM CLR 25/24 A2994 RMK AO1

2010/08/10 10:55
KFNL 101055Z AUTO 31003KT 9SM CLR 13/12 A3008 RMK AO1

2010/08/10 10:55
KFOD 101055Z AUTO 18021G26KT 10SM TS OVC100 22/22 A2998 RMK AO1 LTG DSNT ALQDS TSB00E15B44 P0004

2010/08/10 10:55
KFRM 101055Z 16010KT 8SM VCTS BKN014 OVC048 24/23 A2995 RMK AO1 LTG DSNT ALQDS TSB51

2010/08/10 10:55
KGAD 101055Z AUTO 00000KT 7SM FEW070 23/22 A3000 RMK AO1

2010/08/10 10:55
KGAI 101055Z 00000KT 3SM CLR 22/21 A2998 RMK AO1

2010/08/10 10:55
KGBD 101055Z AUTO 22006KT 10SM CLR 23/18 A2989 RMK AO1

2010/08/10 10:54
KGCK 101054Z AUTO 22003KT 10SM CLR 20/18 A2995 RMK AO2 SLP101 T02000178

2010/08/10 10:54
KGCN 101054Z AUTO 00000KT 10SM BKN080 09/07 A3023 RMK AO2 SLP152 T00890072

2010/08/10 10:55
KGDV 101055Z AUTO 32009KT 310V010 10SM FEW060 OVC110 19/16 A2977 RMK AO1 LTG DSNT E

2010/08/10 10:55
KGTU 101055Z 20003KT 10SM CLR 26/21 A2997 RMK AO1

2010/08/10 10:55
KGUC 101055Z AUTO 00000KT 10SM BKN090 07/01 A3037 RMK AO1

2010/08/10 10:55
KGXY 101055Z AUTO 00000KT 5SM CLR 14/13 A3008 RMK AO1

2010/08/10 10:55
KHDN 101055Z 11009KT 10SM CLR 09/06 A3022 RMK AO1

2010/08/10 10:55
KHEF 101055Z AUTO 00000KT 3SM 22/20 A2996 RMK AO1

2010/08/10 10:55
KHEZ 101055Z AUTO 00000KT 10SM CLR 23/22 A2996 RMK AO1

2010/08/10 10:53
KMAE 101053Z AUTO 29006KT 10SM CLR 16/14 A2981 RMK AO2 SLP090 T01610139

2010/08/10 10:53
KMCI 101053Z 16007KT 10SM CLR 25/22 A2991 RMK AO2 SLP114 T02500217 $

2010/08/10 10:53
KMCW 101053Z AUTO 17008KT 3SM -RA BR OVC003 24/24 A2997 RMK AO2 LTG DSNT SW AND W SLP133 P0001 T02440239

2010/08/10 10:53
KMEM 101053Z 19005KT 10SM FEW250 26/24 A2995 RMK AO2 SLP136 T02610244

2010/08/10 10:55
KMEZ 101055Z AUTO 00000KT 7SM CLR 23/22 A2997 RMK AO2

2010/08/10 10:53
KMFR 101053Z AUTO 00000KT 10SM CLR 17/10 A2992 RMK AO2 SLP119 T01670100

2010/08/10 10:53
KMGW 101053Z 00000KT 6SM HZ BKN050 BKN100 21/18 A3002 RMK AO2 SLP154 T02110178

2010/08/10 10:53
KMHE 101053Z AUTO 35008KT 10SM -RA OVC033 22/19 A2979 RMK AO2 PRESFR SLP076 P0013 T02220194 TSNO

2010/08/10 10:53
KMIC 101053Z AUTO 00000KT 7SM CLR 23/22 A2993 RMK AO2 SLP128 T02330217

2010/08/10 10:53
KMIW 101053Z AUTO 25013KT 10SM TS CLR 23/21 A2998 RMK AO2 LTG DSNT ALQDS TSB03E20B43RAB0956E0959 SLP142 P0000 T02280211 $

2010/08/10 10:53
KMKL 101053Z AUTO 00000KT 4SM BR CLR 25/24 A2996 RMK AO2 SLP139 T02500239

2010/08/10 10:53
KMLP 101053Z AUTO 20003KT 10SM CLR 11/05 A2998 RMK AO2 SLP063 T01060050 TSNO

2010/08/10 10:53
KMMV 101053Z AUTO 25005KT 10SM BKN023 11/10 A2999 RMK AO2 SLP154 T01110100

2010/08/10 10:53
KMSL 101053Z AUTO 00000KT 2SM BR SCT001 24/23 A3000 RMK AO2 SLP151 T02390228

2010/08/10 10:53
KMSP 101053Z 13007KT 6SM BR FEW150 SCT200 24/22 A2994 RMK AO2 SLP133 T02390222

2010/08/10 10:53
KMTO 101053Z AUTO 00000KT 5SM BR CLR 24/23 A2995 RMK AO2 SLP134 T02390228

2010/08/10 10:53
KMYF 101053Z AUTO 25003KT 10SM OVC009 17/14 A2990 RMK AO2 SLP122 T01720144 TSNO

2010/08/10 10:53
KMYV 101053Z AUTO 17004KT 10SM CLR 16/12 A2981 RMK AO2 SLP098 T01560117

2010/08/10 10:53
KOAK 101053Z 00000KT 10SM OVC006 14/12 A2990 RMK AO2 SLP122 T01440117

2010/08/10 10:53
KOJC 101053Z AUTO 15003KT 10SM CLR 25/22 A2992 RMK AO2 SLP117 T02500217

2010/08/10 10:53
KOMK 101053Z AUTO 33009KT 10SM BKN090 OVC110 16/10 A2984 RMK AO2 SLP097 T01560100

2010/08/10 10:53
KONT 101053Z 00000KT 5SM HZ CLR 16/12 A2989 RMK AO2 SLP109 T01560122

2010/08/10 10:53
KOSH 101053Z AUTO 00000KT M1/4SM FG VV001 22/21 A2997 RMK AO2 SLP133 T02170206 RVRNO

2010/08/10 10:53
KOTM 101053Z AUTO 08005KT 10SM CLR 22/21 A2995 RMK AO2 SLP135 T02170211

2010/08/10 10:53
KPAE 101053Z AUTO 19010KT 10SM OVC006 13/11 A2995 RMK AO2 SLP141 T01330111

2010/08/10 10:53
KGVL 101053Z AUTO 00000KT 8SM CLR 24/21 A3009 RMK AO2 SLP169 T02440211

2010/08/10 10:53
KGWO 101053Z AUTO 00000KT 4SM BR CLR 23/23 A2995 RMK AO2 SLP141 T02330233

2010/08/10 10:53
KHEI 101053Z AUTO 00000KT 10SM FEW090 19/17 A2982 RMK AO2 SLP071 T01940167

2010/08/10 10:53
KHHR 101053Z AUTO 00000KT 6SM HZ OVC007 16/13 A2990 RMK AO2 SLP125 T01610133 $

2010/08/10 10:53
KHIB 101053Z AUTO 00000KT 1/2SM FG OVC001 15/15 A2998 RMK AO2 SLP149 T01500150

2010/08/10 10:53
KHIO 101053Z AUTO 30004KT 10SM OVC028 12/09 A2998 RMK AO2 SLP149 T01220094 TSNO

2010/08/10 10:53
KHJO 101053Z AUTO 36004KT 10SM CLR 19/14 A2981 RMK AO2 SLP093 T01940139

2010/08/10 10:53
KHKA 101053Z AUTO 00000KT 5SM BR CLR 27/25 A2994 RMK AO2 SLP134 T02670250

2010/08/10 10:53
KHKS 101053Z AUTO 00000KT 10SM CLR 24/23 A2996 RMK AO2 SLP136 T02440233

2010/08/10 10:53
KHKY 101053Z 00000KT 3SM BR CLR 23/22 A3005 RMK AO2 SLP152 T02280222

2010/08/10 10:53
KHLG 101053Z 19005KT 5SM HZ FEW048 OVC085 22/19 A2999 RMK AO2 SLP149 T02220189

2010/08/10 10:53
KHOT 101053Z AUTO 00000KT 10SM CLR 27/24 A2994 RMK AO2 SLP131 T02670239

2010/08/10 10:53
KHQM 101053Z AUTO 00000KT 3SM BR BKN008 OVC013 13/12 A2996 RMK AO2 CIG 006V011 SLP149 T01280122

2010/08/10 10:53
KHRI 101053Z AUTO 23010KT 10SM CLR 16/09 A2986 RMK AO2 SLP106 T01610094

2010/08/10 10:53
KHRO 101053Z AUTO 27004KT 10SM CLR 26/21 A2998 RMK AO2 SLP132 T02610211

2010/08/10 10:53
KHYR 101053Z AUTO 00000KT 6SM BR CLR 16/16 A3000 RMK AO2 SLP152 T01610156

2010/08/10 10:53
KICR 101053Z AUTO 28009KT 10SM CLR 19/18 A2980 RMK AO2 RAE04 SLP073 P0001 T01940178 TSNO $

2010/08/10 10:54
KTAD 101054Z AUTO 26004KT 10SM CLR 14/12 A3015 RMK AO2 SLP151 T01440117

2010/08/10 10:48
KTIX 101048Z 10007KT 7SM SCT020 27/23 A2992

2010/08/10 10:55
KTPL 101055Z 18006KT 10SM CLR 24/22 A2993 RMK AO1

2010/08/10 10:54
KTQE 101054Z AUTO 20004KT 8SM FEW100 26/24 A2985 RMK AO2 SLP092 T02560244

2010/08/10 10:55
KTVF 101055Z AUTO 00000KT 10SM CLR 19/17 A2993 RMK AO1

2010/08/10 10:56
KUCP 101056Z AUTO 00000KT 2 1/2SM BR CLR 21/20 A2998 RMK AO2 T02110200 SLP159

2010/08/10 10:54
KUIN 101054Z AUTO 19003KT 10SM CLR 26/24 A2992 RMK AO2 SLP123 T02610244

2010/08/10 10:54
KUZA 101054Z AUTO 00000KT 4SM BR CLR 23/21 A3005 RMK AO2 SLP161 T02280211 $

2010/08/10 10:54
KVAY 101054Z AUTO 00000KT 7SM CLR 23/22 A2993 RMK AO2 SLP135 T02330217

2010/08/10 10:55
KVBT 101055Z AUTO 14004KT 10SM CLR 23/20 A2994 RMK AO1

2010/08/10 10:55
KVIS 101055Z AUTO 33006KT 10SM CLR 18/14 A2981 RMK AO1

2010/08/10 10:50
KVQQ 101050Z 00000KT 10SM CLR 24/24 A2994

2010/08/10 10:54
KVSF 101054Z AUTO 00000KT M1/4SM FG VV002 20/19 A2995 RMK AO2 SLP139 T02000194

2010/08/10 10:54
KVTA 101054Z AUTO 00000KT 2 1/2SM BR CLR 20/19 A2998 RMK AO2 SLP143 T02000194

2010/08/10 10:54
KWLD 101054Z AUTO 17008KT 10SM FEW100 26/21 A2990 RMK AO2 SLP107 T02610206

2010/08/10 10:55
KWVL 101055Z AUTO 00000KT 10SM CLR 18/16 A2985 RMK AO1

2010/08/10 10:55
KYKN 101055Z AUTO 00000KT 10SM CLR 21/19 A2983 RMK AO1 TSE12 P0001

2010/08/10 10:53
PAAQ 101053Z AUTO 00000KT 10SM SCT006 BKN012 OVC019 12/11 A2979 RMK AO2 SLP083 T01170106 TSNO

2010/08/10 10:53
PABR 101053Z 07017KT 2 1/2SM -DZ BR OVC002 02/02 A2987 RMK AO2 DZB31 SLP115 P0000 T00170017 $

2010/08/10 10:53
PACV 101053Z 00000KT 2SM -RA BR FEW008 OVC016 12/11 A2993 RMK AO2 RAB15 SLP136 P0002 T01170106

2010/08/10 10:53
PADE 101053Z AUTO 11005KT 10SM FEW085 11/10 A2945 RMK AO2 RAB0957E07 SLP974 P0000 T01060100 TSNO

2010/08/10 10:53
PAEG 101053Z AUTO 20003KT 10SM SCT110 06/05 A2968 RMK AO2 SLP052 T00610050 TSNO

2010/08/10 10:53
PAEN 101053Z AUTO 00000KT 8SM FEW003 OVC044 12/11 A2978 RMK AO2 RAB0958E51 SLP085 P0001 T01220111 TSNO

2010/08/10 10:53
PAGY 101053Z AUTO 21017KT 10SM FEW047 OVC060 14/11 A2994 RMK AO2 SLP138 T01390106 TSNO

2010/08/10 10:53
PAIL 101053Z AUTO 10013G18KT 10SM BKN027 OVC044 11/09 A2968 RMK AO2 SLP052 T01110089 TSNO

2010/08/10 10:53
PAKT 101053Z AUTO 00000KT 10SM BKN016 OVC070 13/12 A3003 RMK AO2 SLP171 T01280117 TSNO

2010/08/10 10:53
PAKV 101053Z AUTO 00000KT 9SM -RA FEW008 OVC047 11/11 A2959 RMK AO2 RAE19B35 SLP020 P0002 T01110106 TSNO

2010/08/10 10:53
PAKW 101053Z AUTO 00000KT 5SM BR FEW003 OVC008 12/12 A3002 RMK AO2 CIG 006V010 SLP166 T01220117 TSNO

2010/08/10 10:53
PALH 101053Z 02004KT 10SM BKN008 OVC050 12/10 A2978 RMK AO2 SLP086 T01220100

2010/08/10 10:53
PAMR 101053Z 00000KT 10SM SCT007 BKN027 OVC055 12/10 A2977 RMK AO2 SLP082 T01220100

2010/08/10 10:53
PAPB 101053Z AUTO 27008KT 3/4SM BR VV001 07/07 A2950 RMK AO2 SLP977 T00720072 TSNO

2010/08/10 10:53
PASC 101053Z 05014KT 1 1/2SM BR OVC003 03/03 A2975 RMK AO2 SLP075 T00330028

2010/08/10 10:53
PASI 101053Z 00000KT 10SM BKN003 BKN018 OVC047 13/12 A3002 RMK AO2 SLP165 T01280122

2010/08/10 10:53
PASO 101053Z AUTO 19008G15KT 10SM OVC027 13/09 A2975 RMK AO2 SLP075 T01280089 TSNO

2010/08/10 10:53
PATO 101053Z AUTO 09011G21KT 10SM SCT023 BKN037 OVC049 12/09 A2984 RMK AO2 RAE03 SLP104 P0000 T01170094 TSNO

2010/08/10 10:53
PAVL 101053Z AUTO 06013KT 8SM -RA BKN041 BKN049 OVC080 12/11 A2948 RMK AO2 SLP983 P0001 T01170106 TSNO

2010/08/10 10:53
PAWD 101053Z AUTO A2984 RMK AO2 SLP106 PWINO FZRANO TSNO $

2010/08/10 10:54
PAWR 101054Z 10007G14KT 2SM BR OVC007 12/10 A2988 RMK SLP119 NOSPECI

2010/08/10 10:55
KMML 101055Z AUTO 12008KT 8SM FEW005 SCT040 23/22 A2988 RMK AO1 LTG DSNT S

2010/08/10 10:55
KMNM 101055Z AUTO 00000KT 2SM OVC003 21/19 A2998 RMK AO1

2010/08/10 10:54
KMOT 101054Z AUTO 07004KT 10SM FEW036 20/17 A2984 RMK AO2 SLP093 T02000167

2010/08/10 10:55
KMRF 101055Z AUTO 02005KT 10SM CLR A3013 RMK AO1

2010/08/10 10:54
KMRY 101054Z AUTO 19003KT 10SM OVC003 12/10 A2991 RMK AO2 SLP139 T01170100

2010/08/10 11:00
MGGT 101100Z 03008KT 9999 BKN014 18/16 Q1022 A3018 VOL. PACAYA EN ACTI VIDAD NOSIG

2010/08/10 10:53
KPRC 101053Z AUTO 21006KT 10SM SCT095 17/08 A3011 RMK AO2 SLP111 T01720078

2010/08/10 10:53
KPSC 101053Z AUTO 21005KT 10SM CLR 17/10 A2984 RMK AO2 SLP100 T01720100

2010/08/10 10:55
KPSO 101055Z AUTO 00000KT 10SM BKN095 10/06 A3033 RMK AO2

2010/08/10 10:53
KPUW 101053Z AUTO 00000KT 10SM CLR 14/07 A2988 RMK AO2 SLP105 T01440067

2010/08/10 10:53
KRAC 101053Z AUTO 00000KT 1 1/2SM BR CLR 22/21 A2999 RMK AO2 SLP149 P0001 T02170206

2010/08/10 10:53
KRBG 101053Z AUTO 00000KT 10SM OVC020 14/11 A2997 RMK AO2 SLP146 T01390111

2010/08/10 10:53
KRDD 101053Z AUTO 00000KT 10SM CLR 19/11 A2984 RMK AO2 SLP097 T01940106

2010/08/10 10:53
KRHI 101053Z AUTO 00000KT 10SM CLR 17/15 A3004 RMK AO2 SLP163 T01670150

2010/08/10 10:53
KRNT 101053Z AUTO 17004KT 9SM OVC012 14/12 A2995 RMK AO2 SLP146 T01390117

2010/08/10 10:53
KRSL 101053Z AUTO 21007KT 10SM CLR 23/20 A2986 RMK AO2 SLP088 T02280200

2010/08/10 10:53
KRUE 101053Z AUTO 00000KT 8SM CLR 26/24 A2993 RMK AO2 SLP127 T02560239

2010/08/10 10:53
KRVS 101053Z 00000KT 10SM CLR 24/22 A2990 RMK AO2 SLP126 T02440217

2010/08/10 10:53
KRWF 101053Z AUTO 12007KT 10SM BKN025 BKN030 24/23 A2991 RMK AO2 PRESRR SLP121 T02390228

2010/08/10 10:53
KRWI 101053Z AUTO 22005KT 2 1/2SM BR BKN002 24/23 A3001 RMK AO2 SLP162 T02390233

2010/08/10 10:53
KSAC 101053Z 16003KT 10SM 13/11 A2982 RMK AO2 SLP098 T01330106 $

2010/08/10 10:53
KSAF 101053Z AUTO 02008KT 10SM CLR 14/09 A3021 RMK AO2 SLP125 T01390089

2010/08/10 10:53
KSBA 101053Z AUTO 09006KT 6SM BR OVC002 14/13 A2988 RMK AO2 SLP119 T01390133

2010/08/10 10:53
KSBM 101053Z AUTO 00000KT 3/4SM BR CLR 21/20 A2998 RMK AO2 SLP146 T02060200

2010/08/10 10:53
KSDL 101053Z 00000KT 10SM FEW110 29/12 A2985 RMK AO2 SLP078 T02890122

2010/08/10 10:53
KSFF 101053Z AUTO VRB03KT 10SM FEW075 SCT090 17/08 A2982 RMK AO2 SLP082 T01720083

2010/08/10 10:53
KSHN 101053Z AUTO 21005KT 7SM BKN007 OVC011 12/11 A2994 RMK AO2 CIG 006V010 SLP138 T01170106

2010/08/10 10:53
KSJC 101053Z AUTO 11005KT 10SM CLR 13/11 A2988 RMK AO2 SLP117 T01330106

2010/08/10 10:53
KSLN 101053Z 18007KT 10SM CLR 27/21 A2984 RMK AO2 SLP087 T02670206

2010/08/10 10:53
KSMF 101053Z 16008KT 10SM CLR 14/11 A2981 RMK AO2 SLP093 T01390111

2010/08/10 10:53
KSNA 101053Z 00000KT 8SM OVC009 17/14 A2990 RMK AO2 CIG 007V012 SLP124 T01720139

2010/08/10 10:55
KSPA 101055Z AUTO 00000KT 4SM BR CLR 22/22 A3004 RMK AO2

2010/08/10 10:53
KSPB 101053Z AUTO 00000KT 10SM OVC030 12/11 A2997 RMK AO2 SLP148 T01170106

2010/08/10 10:53
KSPW 101053Z AUTO 13013G17KT 3SM -TSRA BR FEW006 BKN015 OVC070 22/21 A2989 RMK AO2 WSHFT 1023 LTG DSNT ALQDS SLP113 P0045 T02170211

2010/08/10 10:53
KSTJ 101053Z AUTO 13003KT 10SM CLR 26/21 A2989 RMK AO2 SLP112 T02610211

2010/08/10 10:53
KSTP 101053Z 14004KT 8SM CLR 23/22 A2995 RMK AO2 SLP135 T02330217

2010/08/10 10:53
KSTS 101053Z AUTO 17003KT 6SM BR OVC002 11/10 A2987 RMK AO2 SLP109 T01110100

2010/08/10 10:53
KTCC 101053Z AUTO 22007KT 10SM -RA FEW032 BKN110 23/17 A3004 RMK AO2 RAB40 SLP101 P0000 T02280172

2010/08/10 10:53
KTCL 101053Z AUTO 06003KT 4SM BR CLR 26/24 A2996 RMK AO2 SLP142 T02610239

2010/08/10 10:53
KTIW 101053Z 22004KT 7SM OVC006 12/11 A2996 RMK AO2 SLP143 T01220111

2010/08/10 10:53
KTOI 101053Z AUTO 00000KT 7SM CLR 23/22 A2999 RMK AO2 SLP148 T02330217

2010/08/10 10:53
KTOP 101053Z AUTO 11004KT 10SM CLR 27/21 A2988 RMK AO2 SLP106 T02670211

2010/08/10 10:53
KTTD 101053Z VRB03KT 10SM OVC017 14/11 A2996 RMK AO2 SLP146 T01440111

2010/08/10 10:53
KTUL 101053Z 16006KT 10SM CLR 28/20 A2990 RMK AO2 SLP112 T02830200

2010/08/10 10:53
KTVC 101053Z 00000KT 6SM BR OVC002 20/19 A2998 RMK AO2 SLP148 T02000194

2010/08/10 10:53
KTVL 101053Z AUTO 00000KT 10SM CLR 07/04 A3010 RMK AO2 SLP137 T00720044

2010/08/10 10:53
KTVR 101053Z AUTO 00000KT 1/2SM FG CLR 24/23 A2995 RMK AO2 SLP148 T02390228

2010/08/10 10:53
KUAO 101053Z AUTO 35005KT 10SM FEW026 OVC041 14/10 A2998 RMK AO2 SLP152 T01390100

2010/08/10 10:53
KUNO 101053Z AUTO 00000KT 5SM BR CLR 23/22 A2998 RMK AO2 SLP135 T02330222

2010/08/10 10:50
BGSF 101050Z 03008KT 9999 BKN023 09/04 Q1007

2010/08/10 10:50
BGBW 101050Z AUTO 07002KT 9999NDV FEW004/// 09/08 Q1009

2010/08/10 10:50
BGGH 101050Z 20013KT 5000 VCFG FEW001 BKN020 08/08 Q1007

2010/08/10 10:50
BGJN 101050Z 33003KT 9999 BKN023 08/04 Q1007 RMK 7ST 

2010/08/10 10:50
BGKK 101050Z 09015KT 9999 -DZ SCT020 BKN032 BKN045 07/05 Q1013

2010/08/10 10:50
BGCO 101050Z 16007KT 9999 SCT180 07/03 Q1013

2010/08/10 10:50
BGSS 101050Z 30005KT 210V350 9999 FEW035 BKN075 BKN120 11/10 Q1006 RMK 1SC 5AC 7AC 

2010/08/10 10:50
BGAA 101050Z 33001KT 0800 FG VV003 06/05 Q1007

2010/08/10 10:50
BGUQ 101050Z 33004KT 300V010 9999 FEW100 09/07 Q1007

2010/08/10 10:50
BGMQ 101050Z 30004KT 9999 SCT006 BKN008 10/09 Q1006

2010/08/10 10:50
BGQQ 101050Z 34001KT 9999 SKC 07/02 Q1010

2010/08/10 10:50
BGPT 101050Z 26003KT 3500 -DZ BCFG FEW001 SCT004 BKN006 09/08 Q1008 RMK 1ST 4ST 7ST 

2010/08/10 10:55
KMSV 101055Z AUTO 00000KT 5SM FEW100 SCT120 19/18 A3000 RMK AO1

2010/08/10 10:55
KMTW 101055Z 00000KT 5SM CLR 19/19 A2998 RMK AO1

2010/08/10 10:54
KMVL 101054Z AUTO 00000KT 1/4SM FG VV001 16/16 A2997 RMK AO2 SLP147 T01610161

2010/08/10 10:55
KMVN 101055Z AUTO 00000KT 1 3/4SM CLR 23/22 A2995 RMK AO1

2010/08/10 10:50
KOCF 101050Z 09003KT 10SM SKC 24/23 A2990

2010/08/10 10:55
KOCH 101055Z AUTO 00000KT 10SM CLR 24/22 A2993 RMK AO1

2010/08/10 10:54
KOFP 101054Z AUTO 23005KT 9SM CLR 26/21 A2998 RMK AO2 SLP149 T02610206

2010/08/10 10:55
KOKK 101055Z AUTO 13006KT 2 1/2SM BKN100 BKN120 24/19 A2997 RMK AO1

2010/08/10 10:53
KOKM 101053Z AUTO 00000KT 10SM CLR 24/23 A2991 RMK AO1

2010/08/10 10:54
KOLM 101054Z AUTO 23007KT 10SM OVC019 13/09 A2996 RMK AO2 SLP146 T01280094

2010/08/10 10:54
KOLS 101054Z AUTO 07003KT 10SM CLR 19/15 A3003 RMK AO2 SLP098 T01940150

2010/08/10 10:55
KOLU 101055Z AUTO 10SM CLR 22/19 A2988 RMK AO1

2010/08/10 10:55
KOTG 101055Z AUTO 05007KT 10SM TS FEW047 SCT050 BKN070 21/19 A2988 RMK AO1 LTG DSNT ALQDS P0004

2010/08/10 10:55
KOTH 101055Z 33004KT 10SM OVC015 12/11 A3002 RMK AO1

2010/08/10 10:54
KPHF 101054Z 23005KT 10SM FEW055 SCT075 26/23 A2998 RMK AO2 SLP150 T02560233 $

2010/08/10 10:54
KPHL 101054Z 20003KT 9SM FEW100 BKN150 BKN200 26/22 A2993 RMK AO2 SLP135 T02560222 $

2010/08/10 10:55
KPIB 101055Z AUTO 00000KT 5SM CLR 23/21 A2998 RMK AO1

2010/08/10 10:54
KPLN 101054Z AUTO 00000KT 1 1/4SM BR OVC017 22/21 A2998 RMK AO2 SLP148 T02170211

2010/08/10 10:54
KPNE 101054Z 00000KT 10SM CLR 26/22 A2995 RMK AO2 SLP139 T02610222

2010/08/10 10:55
KPQI 101055Z AUTO 00000KT 10SM CLR 15/13 A2982 RMK AO1

2010/08/10 10:55
KPRX 101055Z 12006KT 10SM CLR 24/22 A2992 RMK AO1

2010/08/10 10:54
KPSF 101054Z AUTO 00000KT 4SM BR FEW012 OVC018 20/19 A2997 RMK AO2 SLP119 T02000189

2010/08/10 10:55
KPTN 101055Z AUTO 06004KT 6SM OVC004 25/14 A2995 RMK AO1

2010/08/10 10:55
KPTV 101055Z AUTO 17004KT 10SM CLR 17/11 A2984 RMK AO1

2010/08/10 10:55
KPVC 101055Z 21009KT 2 1/2SM OVC090 21/19 A2991 RMK AO1 P0001

2010/08/10 10:55
KPVU 101055Z 14009KT 10SM CLR 15/03 A3006 RMK AO1

2010/08/10 10:55
KPWG 101055Z AUTO 19004KT 10SM CLR 25/22 A2993 RMK AO1

2010/08/10 10:55
KPWT 101055Z AUTO 19006KT 4SM OVC003 12/09 A2997 RMK AO1

2010/08/10 10:54
KRBL 101054Z AUTO 00000KT 10SM CLR 19/13 A2983 RMK AO2 SLP098 T01940128

2010/08/10 10:54
KRDG 101054Z 00000KT CLR 24/21 RMK AO2 SLPNO T02440206 $

2010/08/10 10:55
KRKD 101055Z AUTO 29003KT 7SM CLR 20/18 A2987 RMK AO1

2010/08/10 10:54
KRKS 101054Z AUTO 00000KT 10SM CLR 11/00 A3019 RMK AO2 SLP141 T01110000

2010/08/10 10:54
PHMK 101054Z AUTO 04011KT 10SM BKN048 24/19 A3009 RMK AO2 SLP190 T02390189 TSNO

2010/08/10 10:53
KBAF 101053Z 00000KT 3SM BR SCT090 22/21 A2993 RMK AO2 SLP131 T02170206

2010/08/10 10:53
KBUR 101053Z AUTO 13003KT 6SM BR CLR 15/13 A2989 RMK AO2 SLP111 T01500128 TSNO

2010/08/10 10:53
KTOI 101053Z AUTO 00000KT 7SM CLR 23/22 A2999 RMK AO2 SLP148 T02330217

2010/08/10 10:53
PHJR 101053Z AUTO VRB05KT 10SM FEW055 25/18 A3010 RMK AO2 SLP197 T02500178 TSNO

2010/08/10 10:53
TIST 101053Z 09007KT 10SM FEW070 29/24 A2994 RMK AO2 SLP137 T02890244

2010/08/10 10:53
TISX 101053Z 08008KT 10SM CLR 27/24 A2994 RMK AO2 SLP138 T02720244

2010/08/10 10:53
KMKG 101053Z 00000KT 1/4SM FG OVC002 20/19 A2999 RMK AO2 TWR VIS 1/4

2010/08/10 11:00
SBSL 101100Z 08006KT 9999 FEW017 28/24 Q1014

2010/08/10 10:53
KDWH 101053Z AUTO 25003KT 6SM BR CLR 23/23 A2991 RMK AO2 SLP126 T02330228

2010/08/10 10:53
KESF 101053Z AUTO 00000KT 9SM FEW028 SCT043 BKN065 25/24 A2995 RMK AO2 SLP139 T02500239

2010/08/10 10:52
KEST 101052Z AUTO 26005KT 5SM -TSRA BR 22/21 A2995 RMK AO2 LTG DSNT ALQDS TSB37RAB45 SLP131 P0052 T02170206 $

2010/08/10 10:50
KFET 101050Z AUTO 24004KT 10SM SCT090 26/23 A2988 RMK AO2 T02570225

2010/08/10 10:52
KFIT 101052Z AUTO 01003KT 9SM SCT065 22/20 A2993 RMK AO2 SLP132 T02220200

2010/08/10 10:50
KGCD 101050Z AUTO 23003KT 10SM CLR 15/00 A2994 RMK AO2 T01480000

2010/08/10 10:53
KGPT 101053Z AUTO 00000KT 6SM BR CLR 26/24 A2993 RMK AO2 SLP135 T02610244

2010/08/10 10:53
KHBG 101053Z AUTO 00000KT 6SM BR CLR 24/23 A2996 RMK AO2 SLP142 T02440233

2010/08/10 10:50
KHDE 101050Z AUTO 07005KT 10SM CLR 20/19 A2989 RMK AO2 P0002 T02020185

2010/08/10 10:52
KHIE 101052Z AUTO 00000KT 1/2SM FG OVC001 17/17 A2996 RMK AO2 SLP144 T01720172

2010/08/10 10:50
KHJH 101050Z AUTO 32006KT 10SM CLR 23/22 A2987 RMK AO2 T02340215

2010/08/10 10:53
KHOU 101053Z 21003KT 10SM FEW020 SCT250 26/24 A2990 RMK AO2 SLP130 T02610239

2010/08/10 10:52
KHUT 101052Z AUTO 18005KT 10SM CLR 26/20 A2988 RMK AO2 SLP090 T02610200

2010/08/10 10:53
KIAH 101053Z 00000KT 10SM FEW250 27/24 A2991 RMK AO2 SLP128 T02670244

2010/08/10 10:50
KIBM 101050Z AUTO 21005KT 10SM CLR 14/13 A3006 RMK AO2 T01370132

2010/08/10 10:50
KIDP 101050Z AUTO 15004KT 10SM CLR 23/20 A2990 RMK AO2

2010/08/10 10:52
KIEN 101052Z AUTO 00000KT 10SM FEW120 17/16 A2989 RMK AO2 SLP098 T01720156

2010/08/10 10:52
KIJD 101052Z AUTO 00000KT 3SM BR CLR 22/21 A2993 RMK AO2 SLP133 T02170206

2010/08/10 10:52
KIOW 101052Z AUTO 32005KT 10SM -RA FEW050 23/22 A2995 RMK AO2 LTG DSNT E TSB0956E11 SLP134 P0005 T02330222

2010/08/10 10:52
KISN 101052Z VRB04KT 10SM SCT100 21/17 A2978 RMK AO2 RAB0958E09 SLP070 P0000 T02110172

2010/08/10 10:51
KJSV 101051Z AUTO 07003KT 10SM CLR 23/21 A2992 RMK AO2

2010/08/10 10:50
KJYR 101050Z AUTO 02007KT 10SM CLR 23/20 A2987 RMK AO2

2010/08/10 10:50
KLAM 101050Z AUTO 00000KT 10SM OVC110 18/07 A3029 RMK AO2

2010/08/10 10:50
KLCG 101050Z AUTO 01004KT 10SM CLR 21/20 A2988 RMK AO2 LTG DSNT N P0001 T02130202

2010/08/10 10:53
KLBX 101053Z AUTO 00000KT 9SM CLR 25/24 A2991 RMK AO2 SLP129 T02500244

2010/08/10 10:53
KLCH 101053Z AUTO 00000KT 10SM CLR 26/24 A2993 RMK AO2 SLP142 T02560244

2010/08/10 10:53
KLFK 101053Z AUTO 10003KT 10SM CLR 24/23 A2993 RMK AO2 SLP130 T02440233

2010/08/10 10:53
KLFT 101053Z 00000KT 10SM FEW046 24/23 A2993 RMK AO2 SLP136 T02440233

2010/08/10 10:50
KLHM 101050Z AUTO 15006KT 10SM CLR 17/12 A2981 RMK AO1 T01660115

2010/08/10 10:53
KLVJ 101053Z AUTO 00000KT 7SM CLR 26/23 A2992 RMK AO2 SLP132 T02560233

2010/08/10 10:52
KLWC 101052Z AUTO 09004KT 10SM CLR 24/22 A2990 RMK AO2 SLP113 T02390217

2010/08/10 10:50
KLXN 101050Z AUTO 00000KT 10SM CLR 20/19 A2989 RMK AO2 T02010190

2010/08/10 10:53
KMCB 101053Z AUTO 00000KT 6SM BR CLR 23/22 A2996 RMK AO2 SLP140 T02330217

2010/08/10 10:52
KMDH 101052Z AUTO 00000KT 1 1/2SM BR FEW085 24/23 A2994 RMK AO2 SLP134 T02440228 TSNO

2010/08/10 10:53
KMFE 101053Z AUTO 09003KT 10SM CLR 27/26 A2986 RMK AO2 SLP111 T02720261 $

2010/08/10 10:52
KMKE 101052Z 00000KT 3SM BR FEW200 BKN250 21/21 A2997 RMK AO2 SLP144 T02060206

2010/08/10 10:50
KMLE 101050Z AUTO 15003KT 10SM CLR 26/22 A2986 RMK AO2 T02550219

2010/08/10 10:52
KMLI 101052Z 06012KT 10SM -TSRA SCT026 24/22 A2993 RMK AO2 LTG DSNT ALQDS TSB05E20B21RAB13 SLP128 P0073 T02390222 $

2010/08/10 10:49
KMMH 101049Z AUTO 00000KT 10SM CLR 06/00 A3016 RMK AO1

2010/08/10 10:53
KMSY 101053Z 00000KT 9SM FEW250 26/25 A2993 RMK AO2 SLP138 T02560250

2010/08/10 10:52
KMWH 101052Z AUTO 27008KT 10SM FEW075 17/08 A2983 RMK AO2 SLP093 T01670083

2010/08/10 10:50
KMYR 101050Z 00000KT 10SM SCT025 26/24 A3005

2010/08/10 10:53
KNEW 101053Z AUTO 03006KT 9SM SCT014 29/26 A2994 RMK AO2 SLP131 T02890256 TSNO

2010/08/10 10:55
KOAJ 101055Z AUTO 23004KT 7SM CLR 23/23 A3003 RMK AO1

2010/08/10 10:50
KOJA 101050Z AUTO 21007KT 10SM CLR 26/20 A2991 RMK AO2

2010/08/10 11:00
MGGT 101100Z 03008KT 9999 BKN014 18/16 Q1022 A3018 VOL. PACAYA EN ACTIVIDAD NOSIG

2010/08/10 10:50
LIEA 101050Z 30008KT 240V330 CAVOK 30/17 Q1016

2010/08/10 10:45
LIEE 101045Z 13008KT CAVOK 32/11 Q1015 NOSIG

2010/08/10 10:50
LIEO 101050Z 05009KT CAVOK 29/16 Q1016

2010/08/10 10:50
LIMC 101050Z VRB03KT 9999 SCT030 27/18 Q1016 NOSIG

2010/08/10 10:50
LIME 101050Z VRB03KT 9999 FEW060 27/16 Q1017

2010/08/10 10:50
LIMF 101050Z 11006KT 9999 FEW035 26/17 1017

2010/08/10 10:50
LIMJ 101050Z 20004KT 9999 FEW028 27/22 Q1016

2010/08/10 10:50
LIML 101050Z VRB03KT 9999 FEW030 28/17 Q1016 NOSIG

2010/08/10 10:45
LIRA 101045Z 15006KT 090V200 9999 FEW020 31/20 Q1015

2010/08/10 10:50
LIRF 101050Z 21009KT 170V260 CAVOK 29/19 Q1015 NOSIG

2010/08/10 10:50
LIRN 101050Z 18006KT 9999 FEW060 29/19 Q1014

2010/08/10 10:45
LIRP 101045Z 26005KT 230V310 9999 SCT025 27/20 Q1016 NOSIG

2010/08/10 10:50
LIRQ 101050Z VRB04KT CAVOK 28/18 Q1015

2010/08/10 10:53
KVGT 101053Z AUTO 00000KT 10SM CLR 24/02 A2986 RMK AO2 SLP075 T02390017 TSNO

2010/08/10 10:53
KVIH 101053Z AUTO 20005KT 10SM CLR 25/23 A2996 RMK AO2 SLP129 T02500228 $

2010/08/10 10:53
KVPC 101053Z AUTO 00000KT 7SM SCT095 24/22 A3003 RMK AO2 SLP155 T02440222

2010/08/10 10:53
KVPZ 101053Z AUTO 19003KT 3SM BR CLR 23/22 A2997 RMK AO2 SLP143 T02280217

2010/08/10 10:53
KVUO 101053Z AUTO 32003KT 10SM OVC030 14/11 A2997 RMK AO2 SLP150 T01440106

2010/08/10 10:52
KW29 101052Z AUTO 24006KT 10SM CLR 26/21 A2993 RMK AO1

2010/08/10 10:53
KXNA 101053Z 00000KT 10SM CLR 23/21 A2997 RMK AO2 SLP129 T02280211

2010/08/10 10:53
PHJR 101053Z AUTO VRB05KT 10SM FEW055 25/18 A3010 RMK AO2 SLP197 T02500178 TSNO

2010/08/10 10:52
PATA 101052Z AUTO 00000KT 10SM FEW095 BKN120 12/12 A2963 RMK AO2 SLP034 T01220117 TSNO

2010/08/10 10:53
PHJR 101053Z AUTO VRB05KT 10SM FEW055 25/18 A3010 RMK AO2 SLP197 T02500178 TSNO

2010/08/10 10:50
KPMV 101050Z AUTO 14005KT 10SM CLR 26/23 A2986 RMK AO2 T02560227

2010/08/10 10:53
KABY 101053Z 08004KT 10SM CLR 25/24 A2999 RMK AO2 SLP154 T02500239

2010/08/10 10:53
KACK 101053Z 00000KT 4SM BR BKN005 22/21 A2992 RMK AO2 SLP133 P0001 T02170206

2010/08/10 10:53
KACV 101053Z AUTO 17006KT 8SM OVC003 11/10 A2990 RMK AO2 SLP130 T01060100

2010/08/10 10:53
KADG 101053Z AUTO 00000KT 1/4SM FG VV001 20/19 A2999 RMK AO2 SLP151 T02000189

2010/08/10 10:53
KAFW 101053Z 00000KT 10SM CLR 26/21 A2991 RMK AO2 SLP110 T02610206 $

2010/08/10 10:53
KAGC 101053Z 17006KT 4SM BR BKN047 OVC065 21/19 A2999 RMK AO2 SLP149 T02110194

2010/08/10 10:53
KAIA 101053Z AUTO 27005KT 10SM CLR 14/14 A2997 RMK AO2 SLP105 T01440139

2010/08/10 10:53
KAKO 101053Z AUTO 26008KT 9SM OVC002 17/16 A3006 RMK AO2 SLP116 T01670161 TSNO

2010/08/10 10:53
KAMG 101053Z AUTO 00000KT 6SM BR CLR 24/23 A2999 RMK AO2 SLP152 T02390228

2010/08/10 10:53
KAOH 101053Z AUTO 00000KT 2 1/2SM BR BKN038 BKN055 23/22 A2999 RMK AO2 SLP145 T02280217

2010/08/10 10:53
KAPA 101053Z 18004KT 10SM CLR 15/11 A3014 RMK AO2 SLP140 T01500106

2010/08/10 10:53
KAPF 101053Z 09009KT 10SM FEW008 25/24 A2983 RMK AO2 LTG DSNT S SLP100 T02500239

2010/08/10 10:53
KARB 101053Z AUTO 00000KT M1/4SM FG VV001 17/17 A2998 RMK AO2 SLP147 T01720172

2010/08/10 10:53
KASE 101053Z AUTO 20005KT 10SM SCT100 09/06 A3031 RMK AO2 SLP159 T00890056 $

2010/08/10 10:53
KAUG 101053Z AUTO 00000KT 10SM CLR 21/17 A2989 RMK AO2 SLP119 T02060172

2010/08/10 10:53
KBAF 101053Z 00000KT 3SM BR SCT090 22/21 A2993 RMK AO2 SLP131 T02170206

2010/08/10 10:53
KBBW 101053Z AUTO 00000KT 10SM CLR 19/18 A2988 RMK AO2 SLP094 T01890183

2010/08/10 10:53
KBCE 101053Z AUTO 28009KT 10SM FEW090 05/02 A3028 RMK AO2 SLP154 T00500022

2010/08/10 10:53
KBGM 101053Z 00000KT 1SM BR OVC060 20/19 A3001 RMK AO2 SLP150 T02000194 RVRNO

2010/08/10 10:53
KBGR 101053Z 23003KT 9SM CLR 19/18 A2986 RMK AO2 SLP109 T01940183

2010/08/10 10:53
KBHK 101053Z AUTO 19008KT 10SM -RA SCT080 BKN100 18/16 A2986 RMK AO2 RAB02E14B38 SLP079 P0000 T01830161

2010/08/10 10:53
KBKL 101053Z 35003KT 4SM BR CLR 25/23 A2995 RMK AO2 SLP136 T02500233

2010/08/10 10:53
KBKV 101053Z AUTO 09004KT 10SM BKN010 24/23 A2990 RMK AO2 SLP123 T02440228

2010/08/10 10:53
KBMG 101053Z 00000KT 2 1/2SM BR CLR 22/21 A2996 RMK AO2 SLP137 T02170211

2010/08/10 10:53
KBOI 101053Z 20003KT 10SM CLR 18/13 A2984 RMK AO2 SLP075 T01780128

2010/08/10 10:53
KBPI 101053Z AUTO 00000KT 10SM BKN110 05/02 A3021 RMK AO2 SLP149 T00500022 TSNO

2010/08/10 10:53
KBTM 101053Z AUTO 09005KT 10SM FEW075 BKN110 13/07 A3002 RMK AO2 RAE0957 SLP112 P0000 T01330067

2010/08/10 10:53
KBVY 101053Z 27004KT 4SM BR CLR 22/21 A2989 RMK AO2 SLP116 T02170206

2010/08/10 10:53
KBYG 101053Z AUTO 21005KT 10SM CLR 14/08 A2998 RMK AO2 SLP095 T01440083 $

2010/08/10 10:53
KMSY 101053Z 00000KT 9SM FEW250 26/25 A2993 RMK AO2 SLP138 T02560250

2010/08/10 10:53
KOVE 101053Z AUTO 00000KT 10SM CLR 18/13 A2983 RMK AO2 SLP103 T01780128 TSNO $

2010/08/10 10:53
KSGR 101053Z 00000KT 10SM CLR 25/24 A2991 RMK AO2 SLP135 T02500239

2010/08/10 10:53
KPEO 101053Z AUTO 22003KT 10SM SCT090 21/20 A2997 RMK AO2 SLP143 T02110200

2010/08/10 10:53
KPGD 101053Z AUTO 10006KT 10SM BKN010 OVC013 24/23 A2987 RMK AO2 SLP116 T02440233 TSNO

2010/08/10 10:53
KPHD 101053Z AUTO 00000KT 2 1/2SM BR CLR 22/19 A2998 RMK AO2 RAE09 SLP145 P0000 T02170194

2010/08/10 10:53
KPIE 101053Z 10010KT 10SM BKN013 BKN023 26/23 A2986 RMK AO2 SLP112 T02560233

2010/08/10 10:53
KPIH 101053Z AUTO 36004KT 10SM SCT110 12/09 A3000 RMK AO2 SLP121 T01170094

2010/08/10 10:53
KPIL 101053Z AUTO 15004KT 10SM CLR 29/27 A2987 RMK AO2 SLP113 T02890267

2010/08/10 10:53
KTDZ 101053Z AUTO 00000KT 3/4SM BR OVC001 22/21 A2997 RMK AO2 SLP144 T02170211

2010/08/10 10:50
KTEX 101050Z AUTO 10003KT 10SM SCT070 OVC085 11/05 A3041 RMK AO2

2010/08/10 10:53
KTHV 101053Z AUTO 00000KT 2SM BR CLR 21/21 A2995 RMK AO2 SLP139 T02110206

2010/08/10 10:50
KTIF 101050Z AUTO 23005KT 10SM CLR 19/18 A2991 RMK AO2 T01850175

2010/08/10 10:53
KTKI 101053Z 15004KT 10SM CLR 27/22 A2992 RMK AO2 SLP123 T02670217

2010/08/10 10:53
KTMB 101053Z 20006KT 10SM FEW023 SCT041 OVC080 26/23 A2987 RMK AO2 RAB39E48 SLP113 P0000 T02610233

2010/08/10 10:53
KTOR 101053Z AUTO 13006KT 10SM CLR 15/14 A2998 RMK AO2 SLP103 T01500139 $

2010/08/10 10:53
KTPA 101053Z 08003KT 10SM FEW010 SCT020 25/23 A2987 RMK AO2 SLP114 T02500233

2010/08/10 10:50
KTRK 101050Z AUTO 00000KT 10SM CLR 06/04 A3010 RMK AO2

2010/08/10 10:53
KTRL 101053Z AUTO 15003KT 10SM CLR 27/21 A2993 RMK AO2 SLP125 T02670211

2010/08/10 10:53
KTTN 101053Z 00000KT 6SM HZ CLR 24/21 A2993 RMK AO2 SLP129 T02440211

2010/08/10 10:53
KTWF 101053Z AUTO 00000KT 10SM CLR 13/11 A2993 RMK AO2 SLP091 T01280106 $

2010/08/10 10:53
KTXK 101053Z AUTO 00000KT 10SM CLR 26/23 A2992 RMK AO2 SLP125 T02610233

2010/08/10 10:53
KTYR 101053Z 23003KT 10SM CLR 27/24 A2995 RMK AO2 SLP130 T02720239

2010/08/10 10:53
KUUU 101053Z AUTO 00000KT 3SM BR OVC095 22/21 A2992 RMK AO2 RAE52 SLP131 P0001 T02170211

2010/08/10 10:53
KVCB 101053Z AUTO 24008KT 10SM CLR 14/11 A2982 RMK AO2 SLP096 T01390106

2010/08/10 10:53
KVEL 101053Z AUTO 29006KT 10SM CLR 11/02 A3012 RMK AO2 SLP142 T01060017

2010/08/10 10:53
KVLD 101053Z 08003KT 10SM CLR 24/23 A2996 RMK AO2 SLP152 T02440233

2010/08/10 10:53
KVRB 101053Z AUTO 13006KT 10SM CLR 26/24 A2989 RMK AO2 SLP121 T02560239

2010/08/10 10:53
KWRL 101053Z AUTO 15003KT 10SM CLR 13/07 A2998 RMK AO2 SLP108 T01280072 $

2010/08/10 10:53
KWST 101053Z AUTO 00000KT 3SM -RA BR FEW037 BKN100 22/21 A2993 RMK AO2 RAB12 SLP133 P0000 T02220206

2010/08/10 10:53
KWVI 101053Z AUTO 00000KT 4SM BR OVC002 12/11 A2990 RMK AO2 SLP125 T01170111 $

2010/08/10 10:53
KYIP 101053Z 00000KT 1/4SM FG BKN001 BKN009 19/18 A2998 RMK AO2 SLP146 T01890178 RVRNO

2010/08/10 10:53
KZZV 101053Z AUTO 00000KT 3SM BR CLR 20/19 A2999 RMK AO2 SLP145 T02000194

2010/08/10 10:53
KRTN 101053Z AUTO 03004KT 2SM BR CLR 13/11 A3020 RMK AO2 SLP142 T01280111 TSNO

2010/08/10 10:53
KRIL 101053Z AUTO 00000KT 10SM CLR 12/08 A3018 RMK AO2 SLP159 T01170083 TSNO

2010/08/10 10:50
KEFD 101050Z 00000KT 10SM FEW250 26/24 A2993

2010/08/10 10:54
KAAO 101054Z AUTO 18006KT 10SM CLR 26/21 A2988 RMK AO2 SLP100 T02610206

2010/08/10 10:55
KAIZ 101055Z AUTO 00000KT 10SM CLR 24/23 A2997 RMK AO1

2010/08/10 10:54
KAKH 101054Z AUTO 00000KT 2SM BR CLR 21/20 A3004 RMK AO2 SLP165 T02110200

2010/08/10 10:54
KAKR 101054Z AUTO 21003KT 6SM BR CLR 21/19 A2998 RMK AO2 SLP142 T02110189

2010/08/10 10:54
KALO 101054Z 19003KT 4SM -RA BR SCT005 BKN010 OVC025 24/24 A2996 RMK AO2 LTG DSNT S SLP138 P0004 T02440239

2010/08/10 10:54
KAPC 101054Z AUTO 29005KT 10SM OVC005 12/11 A2988 RMK AO2 SLP108 T01170106 $

2010/08/10 10:55
KARG 101055Z AUTO 00000KT 8SM CLR 26/23 A2993 RMK AO1

2010/08/10 10:55
KAUO 101055Z AUTO 08003KT 10SM CLR 24/21 A3000 RMK AO1

2010/08/10 10:54
KAUW 101054Z AUTO 00000KT 4SM BR CLR 17/17 A3000 RMK AO2 SLP155 T01720167

2010/08/10 10:54
KAVL 101054Z 33003KT 1/2SM FG OVC002 19/19 A3013 RMK AO2 SLP177 T01940194 RVRNO

2010/08/10 10:55
KAWO 101055Z AUTO 23003KT 10SM 14/13 A2996 RMK AO1

2010/08/10 10:52
KALS 101052Z AUTO 00000KT 10SM CLR 06/04 A3030 RMK AO2 SLP178 T00560039

2010/08/10 10:52
KBDR 101052Z 35003KT 9SM -RA FEW050 SCT120 24/20 A2993 RMK AO2 RAB06 SLP137 P0000 T02440200

2010/08/10 10:52
KBLU 101052Z AUTO 00000KT 10SM CLR 16/04 A3007 RMK AO2 SLP094 T01610044 TSNO

2010/08/10 10:52
KCID 101052Z 29006KT 8SM -TSRA SCT041 23/22 A2995 RMK AO2 SLP135 TS W-NW MOV NE OCNL LTGICCC P0011 T02280217

2010/08/10 10:53
KCLL 101053Z AUTO 00000KT 10SM CLR 26/23 A2992 RMK AO2 SLP125 T02560228

2010/08/10 10:52
KCNU 101052Z AUTO 18006KT 10SM CLR 25/21 A2991 RMK AO2 SLP114 T02500206

2010/08/10 10:53
KDRT 101053Z AUTO 10006KT 10SM OVC022 27/23 A2990 RMK AO2 SLP105 T02720228

2010/08/10 10:52
KMFD 101052Z 00000KT 2 1/2SM BR CLR 22/19 A3000 RMK AO2 SLP147 T02170194

2010/08/10 10:52
KMHK 101052Z AUTO 00000KT 10SM CLR 26/21 A2984 RMK AO2 SLP091 T02560206

2010/08/10 10:50
KPTS 101050Z AUTO 18003KT 10SM CLR 25/22 A2992 RMK AO2 T02480220

2010/08/10 10:53
KSAT 101053Z 20006KT 10SM FEW016 SCT024 27/24 A2993 RMK AO2 SLPNO T02670239

2010/08/10 10:52
KSPS 101052Z 20005KT 10SM FEW200 24/19 A2991 RMK AO2 SLP111 P0007 T02390189

2010/08/10 10:52
KTOL 101052Z 00000KT M1/4SM FG BKN001 OVC005 21/21 A2997 RMK AO2 TWR VIS 1/2 SLP143 T02110211 RVRNO

2010/08/10 10:52
KVTN 101052Z AUTO VRB03KT 10SM CLR 18/18 A2985 RMK AO2 SLP084 T01830178

2010/08/10 10:52
K9V9 101052Z AUTO 05009KT 20/18 A2972 RMK AO2 SLP048 P0002 T02000183 PWINO TSNO

2010/08/10 10:52
KP69 101052Z AUTO VRB04KT 15/15 A2988 RMK AO2 SLP098 T01500150 PWINO TSNO

2010/08/10 10:52
KABI 101052Z 19006KT 10SM CLR 27/19 A2996 RMK AO2 SLP113 T02670189

2010/08/10 10:53
KBFF 101053Z AUTO 12005KT 10SM CLR 15/14 A2998 RMK AO2 SLP106 T01500144

2010/08/10 10:51
KBVE 101051Z AUTO 00000KT CLR 26/25 A2993 RMK AO2 SLP134 T02560250 TSNO $

2010/08/10 10:51
KCAK 101051Z 27003KT 5SM HZ FEW035 BKN100 22/19 A2998 RMK AO2 SLP143 T02170189

2010/08/10 10:52
KCBE 101052Z AUTO 00000KT 5SM CLR 19/18 A3004 RMK AO1

2010/08/10 10:51
KCRP 101051Z 15003KT 10SM FEW017 26/25 A2988 RMK AO2 SLP116 T02610250

2010/08/10 10:53
KCRQ 101053Z 00000KT 10SM OVC009 18/14 A2989 RMK AO2 SLP120 T01780139

2010/08/10 10:53
KDBQ 101053Z 00000KT 4SM BR SCT030 BKN035 BKN070 23/23 A2998 RMK AO2 LTG DSNT S SLP145 T02330228

2010/08/10 10:53
KLWD 101053Z AUTO 11007KT 10SM CLR 23/21 A2995 RMK AO2 SLP129 T02280211

2010/08/10 10:53
KODX 101053Z AUTO 18003KT 10SM SCT100 19/19 A2985 RMK AO2 SLP095 T01940189

2010/08/10 10:51
KORF 101051Z 23007KT 10SM FEW040 25/23 A2998 RMK AO2 SLP151 T02500233 $

2010/08/10 10:53
KHLC 101053Z AUTO 00000KT 10SM CLR 21/18 A2992 RMK AO2 SLP102 T02060183 $

2010/08/10 10:53
KHSI 101053Z AUTO 03003KT 10SM CLR 21/19 A2989 RMK AO2 SLP100 T02060189 $

2010/08/10 10:53
KHSV 101053Z 11004KT 5SM BR FEW250 25/23 A2999 RMK AO2 SLP146 T02500233

2010/08/10 10:53
KJBR 101053Z AUTO 00000KT 9SM CLR 26/24 A2993 RMK AO2 SLP131 T02560239

2010/08/10 10:53
KJLN 101053Z AUTO 17004KT 10SM FEW060 24/20 A2994 RMK AO2 SLP125 T02440200 $

2010/08/10 10:53
KLIT 101053Z 23004KT 7SM FEW075 SCT250 26/24 A2993 RMK AO2 SLP132 T02610244

2010/08/10 10:53
KEMP 101053Z AUTO 17009KT 10SM CLR 24/20 A2988 RMK AO2 SLP104 T02440200

2010/08/10 10:50
KESN 101050Z 23005KT 10SM SKC 25/24 A2997

2010/08/10 10:53
KFMN 101053Z AUTO 04004KT 10SM CLR 15/08 A3017 RMK AO2 SLP153 T01500078

2010/08/10 10:53
KFNB 101053Z AUTO 13005KT 10SM CLR 24/23 A2986 RMK AO2 SLP100 T02390228

2010/08/10 10:53
KGEG 101053Z 18008KT 10SM FEW100 SCT120 OVC200 16/08 A2982 RMK AO2 SLP082 T01560083

2010/08/10 10:53
KGRR 101053Z 00000KT 1/8SM FG VV001 21/21 A3000 RMK AO2 SLP152 T02060206

2010/08/10 10:53
KPDX 101053Z 33004KT 10SM OVC029 14/11 A2998 RMK AO2 SLP150 T01440106

2010/08/10 10:53
KPGA 101053Z AUTO 00000KT 10SM FEW100 21/03 A3005 RMK AO2 SLP108 T02060033

2010/08/10 10:53
KPOF 101053Z AUTO 00000KT 7SM CLR 24/24 A2993 RMK AO2 SLP128 T02440239

2010/08/10 10:53
KRMG 101053Z AUTO 00000KT 6SM BR CLR 23/22 A3002 RMK AO2 SLP153 T02330222

2010/08/10 10:51
KSAN 101051Z 00000KT 10SM OVC015 18/14 A2991 RMK AO2 SLP129 T01780139

2010/08/10 10:53
KFMY 101053Z 10008KT 10SM OVC008 25/24 A2983 RMK AO2 CIG 007V012 SLP103 T02500239

2010/08/10 10:53
KFOK 101053Z AUTO 21003KT 5SM BR FEW100 22/20 A2995 RMK AO2 RAE52 SLP139 P0000 T02220200 TSNO

2010/08/10 10:53
KFPR 101053Z AUTO 09003KT 10SM FEW035 SCT045 25/24 A2989 RMK AO2 SLP121 T02500239

2010/08/10 10:53
KFRG 101053Z AUTO 00000KT 10SM CLR 24/20 A2994 RMK AO2 SLP137 T02440200

2010/08/10 10:53
KFTW 101053Z 00000KT 10SM CLR 26/21 A2991 RMK AO2 SLP116 T02610206

2010/08/10 10:53
KFVE 101053Z AUTO 32004KT 5SM BR CLR 16/15 A2985 RMK AO2 SLP105 T01610150

2010/08/10 10:53
KFWN 101053Z AUTO 00000KT 3SM BR FEW120 22/21 A2997 RMK AO2 RAB02E11 SLP144 P0000 T02170206

2010/08/10 10:53
KFXE 101053Z 15008KT 7SM -RA FEW020 BKN044 OVC060 26/23 A2988 RMK AO2 RAB30 SLP121 P0005 T02560233

2010/08/10 10:53
KGEY 101053Z AUTO 14005KT 10SM CLR 14/09 A2996 RMK AO2 SLP106 T01440089

2010/08/10 10:53
KGEZ 101053Z AUTO 10004KT 1 3/4SM BR CLR 22/21 A2994 RMK AO2 SLP132 T02170206

2010/08/10 10:53
KGFL 101053Z AUTO 00000KT 1 1/4SM BR OVC004 21/21 A2994 RMK AO2 CIG 001V007 SLP136 T02060206

2010/08/10 10:53
KLAW 101053Z AUTO 22003KT 10SM CLR 25/19 A2990 RMK AO2 SLP110 T02500194

2010/08/10 10:53
KLEB 101053Z 00000KT 1/4SM FG VV001 20/18 A2994 RMK AO2 SLP130 T02000183

2010/08/10 10:53
KLEE 101053Z AUTO 11012KT 10SM CLR 26/24 A2992 RMK AO2 SLP130 T02560239

2010/08/10 10:53
KLHQ 101053Z AUTO 00000KT 4SM BR CLR 21/19 A2999 RMK AO2 SLP148 T02060194

2010/08/10 10:53
KLHX 101053Z AUTO 29003KT 10SM CLR 17/16 A3004 RMK AO2 SLP116 T01670156 $

2010/08/10 10:53
KLMT 101053Z AUTO 00000KT 10SM FEW090 12/07 A2998 RMK AO2 SLP109 T01220067

2010/08/10 10:53
KLNS 101053Z 00000KT 4SM HZ CLR 23/20 A2994 RMK AO2 SLP135 T02280200

2010/08/10 10:53
KLOL 101053Z AUTO 00000KT 10SM CLR 13/M01 A2995 RMK AO2 SLP100 T01281006

2010/08/10 10:53
KLOU 101053Z 00000KT 6SM BR CLR 26/24 A2996 RMK AO2 SLP136 T02610239

2010/08/10 10:53
KLOZ 101053Z AUTO 00000KT 2 1/2SM BR SCT055 23/22 A3003 RMK AO2 SLP154 T02280222

2010/08/10 10:53
KLPR 101053Z AUTO 28003KT 1 1/4SM BR CLR 22/19 A2998 RMK AO2 SLP145 T02170194

2010/08/10 10:53
KLUK 101053Z 00000KT 5SM MIFG CLR 22/22 A2997 RMK AO2 SLP145 T02220222

2010/08/10 10:53
KLVK 101053Z AUTO 31004KT 10SM OVC007 13/11 A2987 RMK AO2 SLP110 T01330111 $

2010/08/10 10:53
KLVM 101053Z AUTO 27015G21KT 10SM CLR 16/08 A2996 RMK AO2 PK WND 27029/1035 SLP113 T01560078

2010/08/10 10:53
KLWV 101053Z AUTO 20003KT 3SM BR CLR 25/23 A2993 RMK AO2 SLP131 T02500233

2010/08/10 10:53
KLXT 101053Z AUTO 19004KT 10SM CLR 27/21 A2993 RMK AO2 SLP123 T02720211

2010/08/10 10:53
KMAF 101053Z 08005KT 10SM CLR 21/19 A2999 RMK AO2 SLP107 T02110189

2010/08/10 10:53
KMAI 101053Z AUTO 05005KT 8SM CLR 24/23 A2994 RMK AO2 SLP136 T02440228

2010/08/10 10:53
KMBS 101053Z 33003KT 3SM BR CLR 21/21 A2998 RMK AO2 SLP149 T02110206

2010/08/10 10:53
KMCE 101053Z AUTO 32008KT 10SM CLR 17/13 A2979 RMK AO2 SLP088 T01720128

2010/08/10 10:53
KMCK 101053Z AUTO 19003KT 10SM CLR 19/19 A2992 RMK AO2 SLP103 T01940194

2010/08/10 10:53
KMCO 101053Z 08006KT 10SM FEW026 FEW080 FEW250 24/23 A2992 RMK AO2 SLP129 T02440228

2010/08/10 10:53
KMGY 101053Z AUTO 00000KT 5SM BR CLR 22/21 A2998 RMK AO2 SLP143 T02220206

2010/08/10 10:53
KMHT 101053Z 33006KT 6SM BR SCT120 22/21 A2989 RMK AO2 SLP130 T02220206

2010/08/10 10:53
KMIA 101053Z 12009KT 8SM BKN025CB BKN090 OVC130 26/24 A2987 RMK AO2 RAE17 SLP114 CB NE-SE MOV NW P0000 T02610244 $

2010/08/10 10:53
KMIE 101053Z 00000KT 2 1/2SM BR CLR 22/21 A2998 RMK AO2 SLP139 T02170206

2010/08/10 10:53
KMKO 101053Z AUTO 17003KT 10SM CLR 23/20 A2992 RMK AO2 SLP122 T02280200

2010/08/10 10:53
KMLB 101053Z 11008KT 10SM FEW018 BKN050 27/23 A2991 RMK AO2 SLP128 T02720233

2010/08/10 10:53
KMLC 101053Z AUTO 00000KT 10SM CLR 25/20 A2992 RMK AO2 SLP120 T02500200

2010/08/10 10:53
KMLS 101053Z AUTO 23004KT 10SM CLR 17/14 A2983 RMK AO2 SLP077 T01720144

2010/08/10 10:53
KMLT 101053Z AUTO 00000KT 8SM CLR 17/16 A2986 RMK AO2 SLP115 T01720161

2010/08/10 10:55
KHNB 101055Z AUTO 18003KT 6SM CLR 23/22 A2995 RMK AO1

2010/08/10 10:54
KHWD 101054Z AUTO 00000KT 10SM OVC009 14/12 A2988 RMK AO2 SLP127 T01390117

2010/08/10 10:55
KHYI 101055Z AUTO 00000KT 10SM CLR A2991 RMK AO1

2010/08/10 10:55
KHYS 101055Z AUTO 31009KT 10SM CLR 24/18 A2989 RMK AO1

2010/08/10 10:55
KILE 101055Z AUTO 21005KT 10SM CLR 25/22 A2992 RMK AO1

2010/08/10 10:54
KILN 101054Z AUTO 00000KT 4SM BR CLR 22/21 A2999 RMK AO2 SLP140 T02170206

2010/08/10 10:54
KIMT 101054Z AUTO 00000KT 1/2SM FG OVC001 18/18 A3001 RMK AO2 SLP155 T01780178

2010/08/10 10:54
KIND 101054Z 14004KT 6SM HZ SCT130 BKN250 26/23 A2994 RMK AO2 SLP128 T02560228

2010/08/10 10:54
KINT 101054Z 00000KT 10SM CLR 24/21 A3005 RMK AO2 SLP162 T02440206

2010/08/10 10:54
KIPT 101054Z 00000KT 9SM OVC100 23/18 A2995 RMK AO2 SLP138 T02280183

2010/08/10 10:54
KISW 101054Z AUTO 00000KT 5SM BR CLR 19/18 A3000 RMK AO2 SLP154 T01890183 TSNO $

2010/08/10 10:55
KIWD 101055Z AUTO 00000KT 4SM CLR 16/15 A2998 RMK AO1

2010/08/10 10:54
KIZG 101054Z AUTO 28003KT 10SM CLR 18/17 A2992 RMK AO2 SLP130 T01830172

2010/08/10 10:55
KJAC 101055Z 00000KT 10SM CLR 06/03 A3017 RMK AO1

2010/08/10 10:55
KJHW 101055Z AUTO 00000KT 1 1/2SM OVC039 20/19 A3000 RMK AO1 P0004

2010/08/10 10:54
KJST 101054Z AUTO 23003KT 6SM HZ OVC100 20/17 A3005 RMK AO2 SLP159 T02000167

2010/08/10 10:55
KKLS 101055Z AUTO 33003KT 10SM OVC017 14/11 A2997 RMK AO1

2010/08/10 10:54
KLAF 101054Z 00000KT 9SM FEW090 24/23 A2996 RMK AO2 SLP140 T02390233

2010/08/10 10:50
KLAL 101050Z 09007KT 7SM FEW012 SCT030 26/22 A2987

2010/08/10 10:55
KLBL 101055Z 31007KT 10SM CLR 22/17 A2999 RMK AO1

2010/08/10 10:54
KLBT 101054Z AUTO 00000KT 2SM BR OVC001 24/24 A3002 RMK AO2 SLP165 T02440239

2010/08/10 10:55
KLCI 101055Z AUTO 00000KT 5SM CLR 19/17 A2991 RMK AO1

2010/08/10 10:55
KLEW 101055Z 00000KT 10SM CLR 19/16 A2991 RMK AO1

2010/08/10 10:55
KLGD 101055Z AUTO 30011KT 10SM CLR 16/02 A2987 RMK AO1 TSB03E18

2010/08/10 10:55
KLKV 101055Z AUTO 00000KT 10SM CLR 07/00 A3002 RMK AO1

2010/08/10 10:54
KLNK 101054Z 00000KT 10SM CLR 24/22 A2986 RMK AO2 SLP097 T02440217

2010/08/10 10:55
KLPC 101055Z AUTO 00000KT 10SM OVC006 13/11 A2990 RMK AO1 PNO

2010/08/10 10:54
KLWM 101054Z 25005KT 3SM BR CLR 23/21 A2992 RMK AO2 SLP130 T02280211 $

2010/08/10 10:54
KLWT 101054Z AUTO 12004KT 10SM FEW120 13/09 A2990 RMK AO2 SLP094 T01280094

2010/08/10 10:55
KMBL 101055Z AUTO 11003KT M1/4SM OVC002 20/18 A2999 RMK AO1

2010/08/10 10:54
KMFI 101054Z AUTO 06003KT 8SM CLR 19/18 A3000 RMK AO2 SLP150 T01940178

2010/08/10 10:54
KMGJ 101054Z AUTO 00000KT 2 1/2SM BR FEW024 22/20 A2996 RMK AO2 SLP141 T02170200

2010/08/10 10:54
KMIV 101054Z AUTO 00000KT 4SM BR CLR 24/23 A2992 RMK AO2 SLP132 T02390228

2010/08/10 10:55
KMJX 101055Z AUTO 00000KT 10SM BKN070 BKN080 23/21 A2994 RMK AO1

2010/08/10 10:54
KMKC 101054Z 19005KT 10SM CLR 28/21 A2990 RMK AO2 SLP114 T02780211

2010/08/10 10:55
KMKT 101055Z AUTO 12008KT 10SM FEW085 24/22 A2991 RMK AO1

2010/08/10 10:54
KRST 101054Z 11004KT 5SM BR CLR 22/22 A2998 RMK AO2 SLP144 T02220217

2010/08/10 10:55
KRUT 101055Z 26003KT 1/4SM BKN001 OVC018 20/19 A2996 RMK AO1

2010/08/10 10:54
KSBY 101054Z 22003KT 4SM BR CLR 23/23 A2996 RMK AO2 SLP147 T02280228 $

2010/08/10 10:55
KSDY 101055Z AUTO 01006KT 10SM FEW070 OVC100 19/18 A2978 RMK AO1 TSB23E38 P0002

2010/08/10 10:54
KSET 101054Z AUTO 00000KT 6SM BR CLR 26/24 A2992 RMK AO2 SLP127 T02560244

2010/08/10 10:55
KSFM 101055Z 29003KT 9SM CLR 21/19 A2990 RMK AO1

2010/08/10 10:55
KSFZ 101055Z 24003KT 2SM BKN070 OVC085 21/20 A2991 RMK AO1

2010/08/10 10:55
KSGT 101055Z 19005KT CLR 27/24 A2993 RMK AO1

2010/08/10 10:55
KSGU 101055Z AUTO 00000KT 10SM BKN120 21/05 A2998 RMK AO1

2010/08/10 10:54
KSJN 101054Z AUTO 17006KT 10SM CLR 15/11 A3018 RMK AO2 SLP133 T01500106 $

2010/08/10 10:55
KSKX 101055Z AUTO 36006KT 10SM BKN100 09/04 A3028 RMK AO1

2010/08/10 10:55
KSLG 101055Z AUTO 09004KT 10SM CLR 23/21 A2997 RMK AO1

2010/08/10 10:55
KSMN 101055Z AUTO 00000KT 10SM FEW055 SCT120 13/11 A3006 RMK AO1

2010/08/10 10:55
KSQI 101055Z AUTO 00000KT 10SM BKN033 OVC060 24/23 A2999 RMK AO1 LTG DSNT S

2010/08/10 10:55
KSUE 101055Z AUTO 00000KT M1/4SM OVC002 20/19 A2998 RMK AO1

2010/08/10 10:50
EDDF 101050Z 24004KT 200V260 9999 FEW044 BKN300 25/14 Q1016 NOSIG

2010/08/10 10:50
EDDH 101050Z 15008KT 9999 FEW042 SCT280 24/12 Q1014 NOSIG

2010/08/10 10:50
EDDK 101050Z 18006KT 9999 FEW044 SCT320 25/12 Q1014 NOSIG

2010/08/10 10:50
EDDL 101050Z 19005KT 150V210 CAVOK 25/12 Q1013 NOSIG

2010/08/10 10:50
EDDM 101050Z 32002KT 9999 FEW040 SCT080 23/13 Q1018 NOSIG

2010/08/10 10:50
EDDN 101050Z 27004KT 9999 FEW045 23/13 Q1017 NOSIG

2010/08/10 10:50
EDDS 101050Z 20004KT 160V250 CAVOK 24/09 Q1017 NOSIG

2010/08/10 10:50
EDDW 101050Z 19011KT CAVOK 24/11 Q1013 NOSIG

2010/08/10 10:50
EDFE 101050Z 25004KT 9999 9999 FEW040 26/14 Q1016

2010/08/10 10:50
EDFM 101050Z 17005KT 080V310 CAVOK 26/15 Q1016

2010/08/10 10:50
EDHI 101050Z 18007KT 120V250 9999 FEW045 24/10 Q1014

2010/08/10 10:50
EDHL 101050Z 16008KT 130V190 9999 SCT041 22/15 Q1014

2010/08/10 10:50
EDJA 101050Z VRB03KT 9999 FEW040 22/13 Q1019

2010/08/10 10:50
EDNY 101050Z VRB03KT 9999 SCT055 23/13 Q1018

2010/08/10 10:50
EDVK 101050Z 20008G18KT 160V280 9999 SCT040 25/11 Q1016

2010/08/10 10:50
EDXW 101050Z 16016KT CAVOK 21/13 Q1012

2010/08/10 10:50
EDLN 101050Z 18005KT 110V260 CAVOK 26/16 Q1013

2010/08/10 10:50
EDLP 101050Z 22008KT CAVOK 24/10 Q1015

2010/08/10 10:50
EDLW 101050Z 21011KT 180V250 CAVOK 25/12 Q1014

2010/08/10 10:50
EDMA 101050Z 30005KT 220V090 9999 FEW037 24/15 Q1018

2010/08/10 10:50
EDMO 101050Z 34005KT 310V020 9999 FEW040 23/13 Q1018

2010/08/10 10:50
EDQM 101050Z 16005KT 110V200 CAVOK 21/10 Q1018

2010/08/10 10:50
EDTD 101050Z VRB03KT 190V190 CAVOK 22/09 Q1018

2010/08/10 10:50
EDVE 101050Z 26006KT CAVOK 25/11 Q1015

2010/08/10 10:50
EKAH 101050Z AUTO 18008KT 130V230 9999NDV NCD 21/12 Q1014

2010/08/10 10:50
EKBI 101050Z 18009KT 110V220 9999 FEW040 BKN250 22/11 Q1013

2010/08/10 10:50
EKCH 101050Z 15010KT 9999 FEW030 FEW250 21/14 Q1016 NOSIG

2010/08/10 10:50
EKEB 101050Z AUTO 18014KT 9999NDV NCD 22/13 Q1012

2010/08/10 10:50
EKKA 101050Z 17009KT 110V210 9999 FEW042 SCT220 23/12 Q1012 NOSIG

2010/08/10 10:50
EKOD 101050Z 17008KT 9999 SCT035TCU 21/12 Q1014

2010/08/10 10:50
EKRK 101050Z AUTO 11012KT 9999NDV NCD 21/14 Q1015

2010/08/10 10:50
EKRN 101050Z AUTO 12007KT 9999NDV BKN035/// 20/16 Q1017

2010/08/10 10:51
EKSB 101051Z 13011KT 9999 SCT040 22/13 Q1013

2010/08/10 10:50
EKSP 101050Z 18010KT 150V210 9999 FEW034 SCT200 23/12 Q1013 NOSIG

2010/08/10 10:54
EKVG 101054Z VRB03KT 9999 FEW025 BKN045 12/10 Q1008 RMK/RWY 13-31 CLOSED DUE WIP NOTAM E0050/10 WIND 850FT 35002KT

2010/08/10 10:50
EKVJ 101050Z 18012KT 9999 FEW030 21/16 Q1013

2010/08/10 10:50
EKYT 101050Z 17011KT CAVOK 24/09 Q1013 NOSIG RMK FEW050 SCT250

2010/08/10 10:50
EETN 101050Z 22011KT 9999 SCT032 BKN048 22/15 Q1014 NOSIG

2010/08/10 10:50
EFHF 101050Z 21013KT 180V250 9999 SCT027 FEW040CB BKN055 21/16 Q1013

2010/08/10 10:50
EFHK 101050Z 20017KT 9999 SCT025 FEW035CB BKN065 21/16 Q1013 NOSIG

2010/08/10 10:50
EFJY 101050Z 23006KT 170V260 9999 SCT038 22/15 Q1010

2010/08/10 10:50
EFKK 101050Z 36008KT 320V020 9999 BKN006 OVC009 17/16 Q1009

2010/08/10 10:50
EFKU 101050Z AUTO 22009KT CAVOK 22/14 Q1010

2010/08/10 10:50
EFOU 101050Z 33008KT 9999 BKN011 BKN025 17/14 Q1009

2010/08/10 10:50
EFPO 101050Z 23009KT 180V270 9999 BKN012 BKN018 20/17 Q1010

2010/08/10 10:50
EFRO 101050Z AUTO 34008KT 9999NDV BKN015 OVC018 13/10 Q1010

2010/08/10 10:50
EFTP 101050Z 18006KT 160V240 9999 -SHRA FEW020 FEW030CB BKN080 19/17 Q1011

2010/08/10 10:50
EFTU 101050Z AUTO 23006KT 190V280 9999 FEW007 BKN009 OVC017 19/17 Q1011

2010/08/10 10:50
EFVA 101050Z 15004KT 100V190 9999 FEW008 SCT022 BKN035CB 19/18 Q1008

2010/08/10 10:50
ENBO 101050Z 27006KT 230V330 9999 FEW002 BKN050 14/12 Q1011 TEMPO SCT003 BKN008

2010/08/10 10:50
ENBR 101050Z 16009KT 9999 FEW045 SCT060 BKN078 19/11 Q1009 NOSIG

2010/08/10 10:50
ENCN 101050Z 18007KT 9999 FEW015TCU BKN018 19/15 Q1012

2010/08/10 10:50
ENGM 101050Z 20004KT 150V280 9999 FEW018 SCT021 BKN025 18/14 Q1011 NOSIG

2010/08/10 10:50
ENHD 101050Z 13013KT 9999 BKN017 18/13 Q1008

2010/08/10 10:50
ENKR 101050Z 13005KT 090V150 9999 FEW007 BKN030 12/09 Q1013

2010/08/10 10:50
ENSB 101050Z 27004KT 240V300 9999 FEW025 BKN035 04/M00 Q1007 NOSIG

2010/08/10 10:50
ENTC 101050Z 02007KT 9999 FEW020 SCT055 14/10 Q1011 NOSIG

2010/08/10 10:50
ENVA 101050Z 26005KT 9999 FEW012 SCT025 BKN120 16/14 Q1010 NOSIG

2010/08/10 10:50
ENZV 101050Z 15011KT 9999 SCT019 BKN035 18/15 Q1009 NOSIG

2010/08/10 10:50
EVRA 101050Z 20009KT 170V250 9999 SCT030 23/16 Q1016 NOSIG

2010/08/10 10:50
EYVI 101050Z 06003KT 350V120 9999 SCT040 BKN110 24/15 Q1017 NOSIG

2010/08/10 10:53
MMMX 101053Z 00000KT 6SM SCT020 SCT090 16/14 A3028 NOSIG RMK 8/530 HZY CI

2010/08/10 10:45
MMUN 101045Z 00000KT 7SM FEW015 SCT200 23/22 A2988 RMK 8/508

2010/08/10 10:50
ENAL 101050Z 03009KT 9999 SCT035 BKN070 15/13 Q1010

2010/08/10 10:50
ENAN 101050Z 02010KT 9999 SCT006 BKN008 11/10 Q1011 NOSIG

2010/08/10 10:55
ENAT 101055Z 14006KT 100V190 9999 FEW040 19/07 Q1010

2010/08/10 10:50
ENBN 101050Z VRB02KT 1000 FG BKN003 13/12 Q1011

2010/08/10 10:50
ENBV 101050Z 09010KT 9999 BKN035 12/09 Q1012

2010/08/10 10:50
ENDU 101050Z 02006KT 340V070 9999 FEW045 SCT060 19/11 Q1010 NOSIG

2010/08/10 10:50
ENEK 101050Z 25001KT 9999 FEW005 SCT010TCU BKN025 15/14 Q1005 W16/S3

2010/08/10 10:50
ENEV 101050Z 32007KT 280V350 9999 SCT050 16/11 Q1010

2010/08/10 10:50
ENFG 101050Z 18008KT 9999 FEW010 SCT025 19/11 Q1011

2010/08/10 10:50
ENFL 101050Z 00000KT 9999 FEW020 18/12 Q1009

2010/08/10 10:50
ENGC 101050Z 10022KT 9999 BKN020 14/13 Q1008

2010/08/10 10:50
ENHF 101050Z 06009KT 9999 FEW035 14/09 Q1011

2010/08/10 10:50
ENKB 101050Z 04005KT 340V080 9999 FEW009 SCT032 17/14 Q1010

2010/08/10 10:50
ENLK 101050Z 03008KT 9999 BKN009 13/10 Q1011

2010/08/10 10:50
ENMH 101050Z 34006KT 9999 FEW035 13/09 Q1012

2010/08/10 10:55
EHEH 101055Z AUTO 20007KT 9999NDV OVC170 22/14 Q1013 BLU BLU NOSIG

2010/08/10 10:45
MMCE 101045Z 00000KT 7SM SCT080 BKN200 27/24 A2981 RMK 8/035

2010/08/10 10:45
MMMT 101045Z 24010KT 10SM BKN080 BKN100 OVC150 24/22 A2982 RMK 8/57/

2010/08/10 10:50
ENML 101050Z VRB02KT 9999 FEW015 SCT040 20/13 Q1010

2010/08/10 10:50
ENMS 101050Z 35010KT 9999 BKN040 16/13 Q1010 -RERA

2010/08/10 10:50
ENNA 101050Z 15012KT 9999 FEW047 17/07 Q1011

2010/08/10 10:50
ENNK 101050Z 25006KT 9999 SCT060 18/13 Q1010

2010/08/10 10:50
ENNO 101050Z 10010KT 080V140 9999 SCT040 20/14 Q1010

2010/08/10 10:50
ENOA 101050Z 110229T 9000N -RA SCT008 BKN010 14/13 Q1006

2010/08/10 10:50
ENOL 101050Z 34006KT 9999 FEW006 SCT010 BKN100 15/13 Q1010 NOSIG

2010/08/10 10:50
ENRA 101050Z 08005KT 9999 BKN055 21/12 Q1010

2010/08/10 10:50
ENRM 101050Z 22003KT 170V270 9999 6000NE FEW004 SCT006 BKN008 13/12 Q1011

2010/08/10 10:50
ENRO 101050Z 14002KT 9999 VCSH FEW012 BKN078 18/13 Q1010

2010/08/10 10:50
ENRY 101050Z 20014KT 9999 SCT019 19/14 Q1011 NOSIG

2010/08/10 10:50
ENSG 101050Z 25005KT 190V310 9999 FEW004 SCT020 17/14 Q1009

2010/08/10 10:50
ENSH 101050Z 02012KT 9999 FEW010 BKN050 15/11 Q1010

2010/08/10 10:50
ENSK 101050Z 00000KT 9999 FEW007 BKN009 13/11 Q1011

2010/08/10 10:50
ENSN 101050Z 19010KT 9999 FEW040 21/09 Q1010

2010/08/10 10:50
ENSO 101050Z 11010KT 080V150 SCT035 BKN045 18/10 Q1008

2010/08/10 10:50
ENST 101050Z 24005KT 200V300 9999 8000NE SCT003 BKN005 13/11 Q1012

2010/08/10 10:50
ENTO 101050Z 21012KT 9999 SCT030 20/13 Q1011

2010/08/10 10:50
ENVD 101050Z 12007KT 080V150 9999 SCT010 BKN039 10/07 Q1013

2010/08/10 10:50
ESDF 101050Z 22005KT 170V250 9999NDV SCT039/// 20/11 Q1016

2010/08/10 10:50
ESGG 101050Z 22013KT 9999 SCT027 BKN046 18/11 Q1015

2010/08/10 10:50
ESGJ 101050Z 25011KT 9999 FEW035 BKN056 19/12 Q1015

2010/08/10 10:50
ESGP 101050Z 20012KT 9999 SCT047 BKN051 BKN072 19/13 Q1014

2010/08/10 10:50
ESKN 101050Z 26010KT 9999 BKN020 18/14 Q1013

2010/08/10 10:50
ESMK 101050Z 15006KT 110V180 9999 BKN043 21/11 Q1016

2010/08/10 10:50
ESMS 101050Z 20008KT 9999 FEW037 21/12 Q1016

2010/08/10 10:50
ESMX 101050Z 23008KT 200V260 9999 SCT027 BKN058 18/13 Q1016

2010/08/10 10:50
ESNN 101050Z 06006KT 010V090 9999 OVC008 17/15 Q1010

2010/08/10 10:50
ESNO 101050Z 01006KT 9999 SCT015 BKN020 16/13 Q1010

2010/08/10 10:50
ESNQ 101050Z 17004KT 9999 BKN023 15/09 Q1011

2010/08/10 10:50
ESNS 101050Z 03004KT 9999 DZ BKN015 14/13 Q1011

2010/08/10 10:50
ESNU 101050Z 36009KT 9999 FEW009 BKN011 BKN019 16/13 Q1010

2010/08/10 10:50
ESOK 101050Z AUTO 20007KT 9999NDV FEW036/// OVC046/// 20/13 Q1012

2010/08/10 10:50
ESOW 101050Z 24009KT 9999 BKN013 18/15 Q1012

2010/08/10 10:50
ESPA 101050Z 02006KT 350V060 9999 BKN020 16/12 Q1010

2010/08/10 10:50
ESSA 101050Z 23012KT 9999 FEW011 BKN013 18/15 Q1012 BECMG BKN015

2010/08/10 10:50
ESSB 101050Z 25007KT 9999 FEW012 BKN016 18/15 Q1012

2010/08/10 10:50
ESSD 101050Z 22009KT 9999 FEW034 SCT041 21/15 Q1010

2010/08/10 10:50
ESSP 101050Z 25012KT 9999 SCT029 BKN039 19/13 Q1013

2010/08/10 10:50
ESSV 101050Z 26012KT 9999 SCT016 BKN024 17/13 Q1015

2010/08/10 10:50
LSGC 101050Z VRB03KT 9999 FEW048 20/08 Q1020

2010/08/10 10:50
LSGG 101050Z 07006KT 350V110 9999 FEW040 BKN350 26/10 Q1017 NOSIG

2010/08/10 10:50
LSGS 101050Z 24006KT 200V280 9999 FEW070 26/13 Q1016

2010/08/10 10:50
LSZA 101050Z 19005KT 150V220 9999 SCT045TCU 27/17 Q1016 NOSIG

2010/08/10 10:50
LSZB 101050Z 32005KT 250V360 9999 FEW045 SCT090 24/15 Q1017 NOSIG

2010/08/10 10:50
LSZH 101050Z 22003KT 170V280 9999 FEW050 25/11 Q1018 NOSIG

2010/08/10 10:50
LSZR 101050Z VRB03KT 9999 FEW045 22/14 Q1018 NOSIG RMK G

2010/08/10 10:50
LSZS 101050Z 22013KT 190V250 9999 BKN080 20/09 Q1022

2010/08/10 10:50
EGAA 101050Z 27011KT 230V300 9999 VCSH SCT019 SCT028 14/11 Q1005

2010/08/10 10:50
EGBB 101050Z 24009KT 9999 SCT020 SCT025 17/12 Q1008

2010/08/10 10:50
EGCC 101050Z 23012KT 190V260 9999 SCT042 17/08 Q1008

2010/08/10 10:50
EGFF 101050Z 15006KT 1900 RA BKN004 14/13 Q1010

2010/08/10 10:50
EGGD 101050Z 22004KT 200V260 2500 DZRA FEW004 BKN011 13/13 Q1010

2010/08/10 10:50
EGGP 101050Z 23011KT 9999 FEW035 19/08 Q1007

2010/08/10 10:50
EGGW 101050Z 23007KT 200V260 9999 SCT013 16/13 Q1010

2010/08/10 10:50
EGHD 101050Z 22014G24KT 180V250 2000 RA BR BKN001 OVC002 16/16 Q1010

2010/08/10 10:50
EGHH 101050Z 20007KT 6000 BKN009 16/14 Q1011

2010/08/10 10:50
EGHI 101050Z 21011KT 180V240 9999 VCSH FEW012 SCT020 BKN035 16/13 Q1011

2010/08/10 10:50
EGJB 101050Z 23011KT 0700 R27/1300 -RA FG BKN000 17/17 Q1013

2010/08/10 10:50
EGJJ 101050Z 23013KT 190V260 9999 7000N -RADZ SCT003 BKN005 18/18 Q1014 TEMPO 3000 BKN002

2010/08/10 10:50
EGKB 101050Z 23006KT 190V270 9999 FEW010 SCT040 16/13 Q1011

2010/08/10 10:50
EGKK 101050Z 22008KT 190V260 9999 BKN012 16/14 Q1011

2010/08/10 10:50
EGLF 101050Z 26007KT 9999 FEW014 SCT040 16/13 Q1011

2010/08/10 10:50
EGLL 101050Z 24009KT 200V270 9999 FEW011 SCT017 16/13 Q1011

2010/08/10 10:50
EGMC 101050Z 26007KT 9999 FEW011 SCT014 17/15 Q1010

2010/08/10 10:50
EGMD 101050Z 25013KT 6000 -RA BKN004 BKN012 17/16 Q1011

2010/08/10 10:50
EGNM 101050Z 24010KT 210V270 9999 FEW015CB SCT041 15/14 Q1007

2010/08/10 10:50
EGNS 101050Z 24017KT 9999 SCT017 16/12 Q1005 NOSIG

2010/08/10 10:50
EGNV 101050Z 24015KT 9999 SCT038 17/09 Q1005

2010/08/10 10:50
EGNX 101050Z 24011KT 9999 FEW030 SCT040 18/10 Q1008

2010/08/10 10:50
EGPB 101050Z VRB02KT 9999 3400S VCFG FEW002 BKN004 13/12 Q1005

2010/08/10 10:50
EGPD 101050Z 18006KT 150V230 9999 FEW023TCU 16/10 Q1004 TEMPO SHRA

2010/08/10 10:50
EGPF 101050Z VRB02KT 9999 FEW010 SCT035 14/10 Q1004

2010/08/10 10:50
EGPH 101050Z 23010KT 9999 8000N VCSH SCT024 BKN030 14/09 Q1003

2010/08/10 10:50
EGPK 101050Z 25012KT 9999 VCSH SCT018CB SCT028 16/10 Q1004

2010/08/10 10:50
EGTE 101050Z 16011KT 6000 -RADZ SCT006 BKN012 16/15 Q1010

2010/08/10 10:50
EGTG 101050Z 17005KT 2500 RADZ BKN035 14/13 Q1010

2010/08/10 10:54
KROA 101054Z 34003KT 7SM CLR 24/21 A3005 RMK AO2 SLP162 T02390206 

2010/08/10 10:50
EGAC 101050Z 25011KT 210V270 9999 VCSH FEW012 SCT023 BKN048 15/10 Q1005

2010/08/10 10:50
EGGP 101050Z 23011KT 9999 FEW035 19/08 Q1007

2010/08/10 10:50
EGGW 101050Z 23007KT 200V260 9999 SCT013 16/13 Q1010

2010/08/10 10:50
EGHE 101050Z 24018KT 1800 -DZ BR OVC001 17/17 Q1010

2010/08/10 10:50
EGJA 101050Z 22010KT 9999 SCT002 BKN012 17/16 Q1013

2010/08/10 10:50
EGLC 101050Z 24009KT 9999 SCT016 SCT045 17/12 Q1010

2010/08/10 10:50
EGPF 101050Z VRB02KT 9999 FEW010 SCT035 14/10 Q1004

2010/08/10 10:50
EGSS 101050Z 23011KT 9999 FEW009 SCT018 BKN045 15/13 Q1010

2010/08/10 10:48
K4O4 101048Z AUTO 00000KT 10SM CLR 24/22 A2993 RMK AO2

2010/08/10 10:48
MMTG 101048Z 00000KT 7SM SCT070 22/22 A2993 RMK 8/070

2010/08/10 11:00
OYSY 101100Z VRB03KT 9999 FEW030 42/10 Q1003

2010/08/10 11:00
OYRN 101100Z 19015KT CAVOK 33/20 Q1001

2010/08/10 11:00
OYAS 101100Z 20010KT 9999 BKN035 33/25 Q1004

2010/08/10 11:00
NIUE 101100Z AUTO 15010KT //// ////// 23/22 Q1018

2010/08/10 10:53
KMKG 101053Z 00000KT 1/4SM FG OVC002 20/19 A2999

2010/08/10 10:54
KCAR 101054Z AUTO 00000KT 6SM BR FEW065 16/15 A2984 RMK AO2 SLP105 T01560150 $ 

2010/08/10 10:50
EGNT 101050Z 24011KT 200V270 9999 FEW025 SCT045 19/08 Q1004

2010/08/10 10:50
HLLT 101050Z 02004KT 330V140 CAVOK 32/10 Q1016

2010/08/10 10:50
HLLT 101050Z 02004KT 330V140 CAVOK 32/10 Q1016

2010/08/10 10:50
EGKA 101050Z 25009KT 9999 SCT012 17/15 Q1011

2010/08/10 10:50
EGBE 101050Z 22012KT 9999 SCT016 SCT045 17/14 Q1009

2010/08/10 10:50
EGCN 101050Z 24017KT 9999 FEW046 20/06 Q1007

2010/08/10 10:50
EGSC 101050Z 23008KT 190V270 9999 SCT015 SCT048 17/13 Q1009

2010/08/10 10:50
EGSH 101050Z 24012KT 9999 -RA FEW039 17/13 Q1009

2010/08/10 10:50
LOWW 101050Z 06003KT 340V130 9999 FEW065 23/15 Q1018 NOSIG

2010/08/10 10:50
LOWL 101050Z VRB02KT 9999 FEW045 24/13 Q1018 NOSIG

2010/08/10 10:50
LOWS 101050Z 04005KT 010V110 9999 FEW060 25/08 Q1017 NOSIG

2010/08/10 10:50
LOWI 101050Z VRB01KT 9999 SCT080 FEW080TCU 24/13 Q1017 NOSIG

2010/08/10 10:50
LOWG 101050Z VRB04KT 9999 FEW040 SCT300 26/16 Q1018 NOSIG

2010/08/10 10:50
LOWK 101050Z 27003KT 200V320 9999 FEW030 FEW050CB 24/15 Q1018 NOSIG

2010/08/10 10:50
LIEA 101050Z 30008KT 240V330 CAVOK 30/17 Q1016

2010/08/10 10:45
LIEE 101045Z 13008KT CAVOK 32/11 Q1015 NOSIG

2010/08/10 10:50
LIEO 101050Z 05009KT CAVOK 29/16 Q1016

2010/08/10 10:50
LIMC 101050Z VRB03KT 9999 SCT030 27/18 Q1016 NOSIG

2010/08/10 10:50
LIME 101050Z VRB03KT 9999 FEW060 27/16 Q1017

2010/08/10 10:50
LIMF 101050Z 11006KT 9999 FEW035 26/17 1017

2010/08/10 10:50
LIMJ 101050Z 20004KT 9999 FEW028 27/22 Q1016

2010/08/10 10:50
LIML 101050Z VRB03KT 9999 FEW030 28/17 Q1016 NOSIG

2010/08/10 10:45
LIRA 101045Z 15006KT 090V200 9999 FEW020 31/20 Q1015

2010/08/10 10:50
LIRF 101050Z 21009KT 170V260 CAVOK 29/19 Q1015 NOSIG

2010/08/10 10:50
LIRN 101050Z 18006KT 9999 FEW060 29/19 Q1014

2010/08/10 10:45
LIRP 101045Z 26005KT 230V310 9999 SCT025 27/20 Q1016 NOSIG

2010/08/10 10:50
LIRQ 101050Z VRB04KT CAVOK 28/18 Q1015

2010/08/10 10:50
EFJO 101050Z AUTO 20008KT 150V250 9999 FEW033 BKN065 24/15 Q1011

2010/08/10 10:50
EFLP 101050Z AUTO 20011KT 150V240 9999 FEW029 BKN060 22/15 Q1012

2010/08/10 10:50
EFMI 101050Z AUTO 23005KT 170V310 9999 FEW018 22/17 Q1011

2010/08/10 10:50
EFSA 101050Z AUTO 19007KT 130V240 9999NDV FEW034 SCT050 BKN075 22/16 Q1011

2010/08/10 10:50
EFUT 101050Z 20010KT 170V230 9999 FEW015 FEW030CB SCT065 20/18 Q1013

2010/08/10 10:50
EFVR 101050Z AUTO VRB04G13KT 9999 -SHRA BKN022 BKN035 21/19 Q1011

2010/08/10 10:50
LOXZ 101050Z VRB03KT 30KM FEW050CU FEW050TCU SCT090AC 23/14 Q1018 NOSIG RMK TCU W/BKN

2010/08/10 10:50
EBAW 101050Z 20009KT CAVOK 21/13 Q1013 NOSIG

2010/08/10 10:50
EBBR 101050Z 22008KT 180V250 CAVOK 22/11 Q1014 NOSIG

2010/08/10 10:50
EBCI 101050Z 24011KT CAVOK 22/11 Q1015 NOSIG

2010/08/10 10:50
EBLG 101050Z 25009KT CAVOK 23/12 Q1014 NOSIG

2010/08/10 10:50
EBOS 101050Z 20013KT 9999 FEW020 BKN045 20/14 Q1012 TEMPO 4500 RA BKN012

2010/08/10 10:50
ELLX 101050Z 20006KT 140V260 CAVOK 24/11 Q1015 NOSIG

2010/08/10 10:50
EFMA 101050Z 21012KT 9999 BKN009 18/16 Q1011

2010/08/10 10:54
KACY 101054Z 23005KT 10SM CLR 24/22 A2994 RMK AO2 SLP138 T02440222 $ 

2010/08/10 10:50
OAKN 101050Z 27014KT 8000 DU SCT150 BKN250 38/01 Q1006 BLU TEMPO 6000 WHT RMK A2970 DA6900

2010/08/10 10:53
KMKG 101053Z 00000KT 1/4SM FG OVC002 20/19 A2999

2010/08/10 10:50
EDAC 101050Z 08003KT CAVOK 24/13 Q1017

2010/08/10 10:50
EDAH 101050Z 15006KT 9999 SCT020 22/16 Q1016

2010/08/10 10:50
EDHI 101050Z 18007KT 120V250 9999 FEW045 24/10 Q1014

2010/08/10 10:50
EDHL 101050Z 16008KT 130V190 9999 SCT041 22/15 Q1014

2010/08/10 10:50
EDLP 101050Z 22008KT CAVOK 24/10 Q1015

2010/08/10 10:50
EDLW 101050Z 21011KT 180V250 CAVOK 25/12 Q1014

2010/08/10 10:50
EDMA 101050Z 30005KT 220V090 9999 FEW037 24/15 Q1018

2010/08/10 10:50
EDNY 101050Z VRB03KT 9999 SCT055 23/13 Q1018

2010/08/10 10:50
EDQM 101050Z 16005KT 110V200 CAVOK 21/10 Q1018

2010/08/10 10:50
EDSB 101050Z 21005KT 180V270 CAVOK 25/14 Q1017

2010/08/10 10:50
EDVE 101050Z 26006KT CAVOK 25/11 Q1015

2010/08/10 10:50
EDXW 101050Z 16016KT CAVOK 21/13 Q1012

2010/08/10 10:50
EGBE 101050Z 22012KT 9999 SCT016 SCT045 17/14 Q1009

2010/08/10 10:50
EGNT 101050Z 24011KT 200V270 9999 FEW025 SCT045 19/08 Q1004

2010/08/10 10:50
EGSC 101050Z 23008KT 190V270 9999 SCT015 SCT048 17/13 Q1009

2010/08/10 10:50
EGSH 101050Z 24012KT 9999 -RA FEW039 17/13 Q1009

2010/08/10 10:50
ENAN 101050Z 02010KT 9999 SCT006 BKN008 11/10 Q1011 NOSIG

2010/08/10 10:50
ENBN 101050Z VRB02KT 1000 FG BKN003 13/12 Q1011

2010/08/10 10:50
ENFG 101050Z 18008KT 9999 FEW010 SCT025 19/11 Q1011

2010/08/10 10:50
ENGM 101050Z 20004KT 150V280 9999 FEW018 SCT021 BKN025 18/14 Q1011 NOSIG

2010/08/10 10:50
ENRA 101050Z 08005KT 9999 BKN055 21/12 Q1010

2010/08/10 10:50
ENZV 101050Z 15011KT 9999 SCT019 BKN035 18/15 Q1009 NOSIG

2010/08/10 10:50
LOWG 101050Z VRB04KT 9999 FEW040 SCT300 26/16 Q1018 NOSIG

2010/08/10 10:50
LOWI 101050Z VRB01KT 9999 SCT080 FEW080TCU 24/13 Q1017 NOSIG

2010/08/10 10:50
LOWK 101050Z 27003KT 200V320 9999 FEW030 FEW050CB 24/15 Q1018 NOSIG

2010/08/10 10:50
LOWL 101050Z VRB02KT 9999 FEW045 24/13 Q1018 NOSIG

2010/08/10 10:50
LOWS 101050Z 04005KT 010V110 9999 FEW060 25/08 Q1017 NOSIG

2010/08/10 10:50
LOWW 101050Z 06003KT 340V130 9999 FEW065 23/15 Q1018 NOSIG

2010/08/10 10:50
ENAL 101050Z 03009KT 9999 SCT035 BKN070 15/13 Q1010

2010/08/10 10:55
ENAT 101055Z 14006KT 100V190 9999 FEW040 19/07 Q1010

2010/08/10 10:50
ENBO 101050Z 27006KT 230V330 9999 FEW002 BKN050 14/12 Q1011 TEMPO SCT003 BKN008

2010/08/10 10:50
ENBR 101050Z 16009KT 9999 FEW045 SCT060 BKN078 19/11 Q1009 NOSIG

2010/08/10 10:50
ENBV 101050Z 09010KT 9999 BKN035 12/09 Q1012

2010/08/10 10:50
ENCN 101050Z 18007KT 9999 FEW015TCU BKN018 19/15 Q1012

2010/08/10 10:50
ENDU 101050Z 02006KT 340V070 9999 FEW045 SCT060 19/11 Q1010 NOSIG

2010/08/10 10:50
ENEK 101050Z 25001KT 9999 FEW005 SCT010TCU BKN025 15/14 Q1005 W16/S3

2010/08/10 10:50
ENFL 101050Z 00000KT 9999 FEW020 18/12 Q1009

2010/08/10 10:50
ENGC 101050Z 10022KT 9999 BKN020 14/13 Q1008

2010/08/10 10:50
ENHD 101050Z 13013KT 9999 BKN017 18/13 Q1008

2010/08/10 10:50
ENHE 101050Z 06009KT 9999 OVC017 11/08 Q1012

2010/08/10 10:50
ENHF 101050Z 06009KT 9999 FEW035 14/09 Q1011

2010/08/10 10:50
ENKR 101050Z 13005KT 090V150 9999 FEW007 BKN030 12/09 Q1013

2010/08/10 10:50
ENLK 101050Z 03008KT 9999 BKN009 13/10 Q1011

2010/08/10 10:50
ENMH 101050Z 34006KT 9999 FEW035 13/09 Q1012

2010/08/10 10:50
ENML 101050Z VRB02KT 9999 FEW015 SCT040 20/13 Q1010

2010/08/10 10:50
ENNA 101050Z 15012KT 9999 FEW047 17/07 Q1011

2010/08/10 10:50
ENOA 101050Z 110229T 9000N -RA SCT008 BKN010 14/13 Q1006

2010/08/10 10:50
ENOL 101050Z 34006KT 9999 FEW006 SCT010 BKN100 15/13 Q1010 NOSIG

2010/08/10 10:50
ENRO 101050Z 14002KT 9999 VCSH FEW012 BKN078 18/13 Q1010

2010/08/10 10:50
ENRY 101050Z 20014KT 9999 SCT019 19/14 Q1011 NOSIG

2010/08/10 10:50
ENSB 101050Z 27004KT 240V300 9999 FEW025 BKN035 04/M00 Q1007 NOSIG

2010/08/10 10:50
ENSH 101050Z 02012KT 9999 FEW010 BKN050 15/11 Q1010

2010/08/10 10:50
ENTC 101050Z 02007KT 9999 FEW020 SCT055 14/10 Q1011 NOSIG

2010/08/10 10:50
ENTO 101050Z 21012KT 9999 SCT030 20/13 Q1011

2010/08/10 10:50
ENVA 101050Z 26005KT 9999 FEW012 SCT025 BKN120 16/14 Q1010 NOSIG

2010/08/10 11:00
MDSD 101100Z VRB03KT 8000 -TSRA FEW016CB BKN018 24/22 Q1013 CB/NE/E/SE/S/N

2010/08/10 10:45
MMCE 101045Z 00000KT 7SM SCT080 BKN200 27/24 A2981 RMK 8/035

2010/08/10 10:50
MMCP 101050Z 00000KT 7SM SKC 25/22 A2981

2010/08/10 10:45
MMMT 101045Z 24010KT 10SM BKN080 BKN100 OVC150 24/22 A2982 RMK 8/57/

2010/08/10 10:53
MMMX 101053Z 00000KT 6SM SCT020 SCT090 16/14 A3028 NOSIG RMK 8/530 HZY CI

2010/08/10 10:48
MMTG 101048Z 00000KT 7SM SCT070 22/22 A2993 RMK 8/070

2010/08/10 10:45
MMUN 101045Z 00000KT 7SM FEW015 SCT200 23/22 A2988 RMK 8/508

2010/08/10 10:51
NSTU 101051Z COR 12010KT 10SM FEW017 BKN040 BKN080 26/24 A2996 RMK SHRAB14E31 SLP146 T02600244 402990258

2010/08/10 10:51
NSTU 101051Z 12010KT 10SM FEW017 BKN040 BKN080 26/24 A2996 RMK SLP146 T02600244 402990258

2010/08/10 10:53
PHJR 101053Z AUTO VRB05KT 10SM FEW055 25/18 A3010 RMK AO2 SLP197 T02500178 TSNO

2010/08/10 10:50
PTKK 101050Z VRB05KT 15SM FEW014 SCT120 OVC280 28/24 A2989 RMK SLP125 T02780242

2010/08/10 10:50
PTPN 101050Z 09007KT 15SM SCT017TCU BKN300 27/26 A2988 RMK TCU SE-SW

2010/08/10 10:51
PTYA 101051Z VRB05KT 12SM FEW016 SCT140 BKN300 28/24 A2991 RMK SLP129 T02750236

2010/08/10 10:55
RJTY 101055Z AUTO 19010KT 9999 FEW013 26/24 A3003 RMK AO2 SLP162 T02610238 $

2010/08/10 10:52
KPLN 101052Z AUTO 00000KT 1 1/4SM BR OVC017 22/21 A2998

2010/08/10 10:55
KBAD 101055Z AUTO 00000KT 10SM CLR 26/23 A2992 RMK AO2 SLP132 T02580233

2010/08/10 10:54
KBOS 101054Z 27006KT 10SM BKN120 24/21 A2990 RMK AO2 SLP125 T02390206

2010/08/10 10:53
KBRO 101053Z 12004KT 10SM CLR 28/26 A2986 RMK AO2 SLP111 T02780261

2010/08/10 10:53
KFLL 101053Z 15010KT 9SM -RA FEW012 SCT043 SCT060 25/24 A2988 RMK AO2 TSB15E36RAB03 SLP117 P0050 T02500239

2010/08/10 10:55
KHST 101055Z AUTO 20004KT 10SM SCT032 25/24 A2987 RMK AO2 SLP117 T02500238

2010/08/10 10:51
KJFK 101051Z VRB04KT 8SM FEW044 BKN140 OVC250 26/20 A2993 RMK AO2 SLP136 T02560200

2010/08/10 10:53
KMCO 101053Z 08006KT 10SM FEW026 FEW080 FEW250 24/23 A2992 RMK AO2 SLP129 T02440228

2010/08/10 10:52
KNHK 101052Z 22007KT 9SM FEW090 SCT200 26/21 A2994 RMK AO2 SLP140 T02560211

2010/08/10 10:52
KNRB 101052Z 15009KT 10SM SCT024 SCT130 28/22 A2995 RMK AO2 SLP141 T02780222

2010/08/10 10:55
KOFF 101055Z AUTO 10005KT 10SM CLR 25/23 A2986 RMK AO2 SLP091 T02520226 $

2010/08/10 10:53
KPBI 101053Z 14014KT 6SM +RA SCT022CB BKN035 BKN060 27/23 A2988 RMK AO2 RAB0957E08B46 SLP116 CB OHD-NW AND ALQDS MOV NW P0002 T02690232 $

2010/08/10 10:55
KVPS 101055Z 02004KT 10SM FEW015 FEW250 25/23 A2993 RMK A02A SLP135 T02470228 $

2010/08/10 10:55
KWRI 101055Z AUTO 00000KT 9SM CLR 23/22 A2992 RMK AO2 SLP132 T02300220 $

2010/08/10 11:00
MDSD 101100Z VRB03KT 8000 -TSRA FEW016CB BKN018 24/22 Q1013 CB/NE/E/SE/S/N

2010/08/10 11:00
SPIM 101100Z 16004KT 8000 OVC018 15/12 Q1017 NOSIG RMK PP000

2010/08/10 10:53
TIST 101053Z 09007KT 10SM FEW070 29/24 A2994 RMK AO2 SLP137 T02890244

2010/08/10 10:53
TISX 101053Z 08008KT 10SM CLR 27/24 A2994 RMK AO2 SLP138 T02720244

2010/08/10 10:53
KMKG 101053Z 00000KT 1/4SM FG OVC002 20/19 A2999

2010/08/10 10:50
EBAW 101050Z 20009KT CAVOK 21/13 Q1013 NOSIG

2010/08/10 10:50
EBCI 101050Z 24011KT CAVOK 22/11 Q1015 NOSIG

2010/08/10 10:50
EBLG 101050Z 25009KT CAVOK 23/12 Q1014 NOSIG

2010/08/10 10:50
EDAC 101050Z 08003KT CAVOK 24/13 Q1017

2010/08/10 10:50
EDAH 101050Z 15006KT 9999 SCT020 22/16 Q1016

2010/08/10 10:50
EDFH 101050Z 27004KT 200V330 CAVOK 23/10 Q1016

2010/08/10 10:50
EDHI 101050Z 18007KT 120V250 9999 FEW045 24/10 Q1014

2010/08/10 10:50
EDHL 101050Z 16008KT 130V190 9999 SCT041 22/15 Q1014

2010/08/10 10:50
EDLN 101050Z 18005KT 110V260 CAVOK 26/16 Q1013

2010/08/10 10:50
EDLP 101050Z 22008KT CAVOK 24/10 Q1015

2010/08/10 10:50
EDLW 101050Z 21011KT 180V250 CAVOK 25/12 Q1014

2010/08/10 10:50
EDMA 101050Z 30005KT 220V090 9999 FEW037 24/15 Q1018

2010/08/10 10:50
EDMO 101050Z 34005KT 310V020 9999 FEW040 23/13 Q1018

2010/08/10 10:50
EDNY 101050Z VRB03KT 9999 SCT055 23/13 Q1018

2010/08/10 10:50
EDOP 101050Z 20008KT 9999 SCT030 SCT080 23/13 Q1016

2010/08/10 10:50
EDQM 101050Z 16005KT 110V200 CAVOK 21/10 Q1018

2010/08/10 10:50
EDSB 101050Z 21005KT 180V270 CAVOK 25/14 Q1017

2010/08/10 10:50
EDTL 101050Z 21005KT 180V260 CAVOK 26/14 Q1016

2010/08/10 10:50
EDVE 101050Z 26006KT CAVOK 25/11 Q1015

2010/08/10 10:50
EDVK 101050Z 20008G18KT 160V280 9999 SCT040 25/11 Q1016

2010/08/10 10:50
EDXW 101050Z 16016KT CAVOK 21/13 Q1012

2010/08/10 10:50
EGJJ 101050Z 23013KT 190V260 9999 7000N -RADZ SCT003 BKN005 18/18 Q1014 TEMPO 3000 BKN002

2010/08/10 10:50
EKAH 101050Z AUTO 18008KT 130V230 9999NDV NCD 21/12 Q1014

2010/08/10 10:50
EKBI 101050Z 18009KT 110V220 9999 FEW040 BKN250 22/11 Q1013

2010/08/10 10:50
EKRK 101050Z AUTO 11012KT 9999NDV NCD 21/14 Q1015

2010/08/10 10:51
EKSB 101051Z 13011KT 9999 SCT040 22/13 Q1013

2010/08/10 10:54
EKVG 101054Z VRB03KT 9999 FEW025 BKN045 12/10 Q1008 RMK/RWY 13-31 CLOSED DUE WIP NOTAM E0050/10 WIND 850FT 35002KT

2010/08/10 10:50
EKYT 101050Z 17011KT CAVOK 24/09 Q1013 NOSIG RMK FEW050 SCT250

2010/08/10 11:00
SBBV 101100Z 33002KT 9999 FEW010 SCT100 25/23 Q1014

2010/08/10 11:00
SBCF 101100Z 17007KT CAVOK 13/10 Q1025

2010/08/10 11:00
SBCY 101100Z 20004KT CAVOK 21/15 Q1017

2010/08/10 11:00
SPIM 101100Z 16004KT 8000 OVC018 15/12 Q1017 NOSIG RMK PP000

2010/08/10 10:55
KBAD 101055Z AUTO 00000KT 10SM CLR 26/23 A2992 RMK AO2 SLP132 T02580233

2010/08/10 10:55
KBIX 101055Z AUTO 04005KT 10SM CLR 25/25 A2993 RMK AO2 SLP138 T02520246 $

2010/08/10 10:55
KCBM 101055Z AUTO 00000KT 10SM BKN130 25/25 A2996 RMK AO2 SLP145 T02500250 $

2010/08/10 10:55
KDYS 101055Z AUTO 18007KT 10SM BKN190 26/19 A2995 RMK AO2 SLP112 T02630185 $

2010/08/10 10:55
KEDW 101055Z AUTO 18008KT 10SM CLR 17/01 A2988 RMK AO2 SLP070 T01700006

2010/08/10 10:55
KFSI 101055Z AUTO 21004KT 10SM CLR 26/20 A2989 RMK AO2 SLP096 T02560197

2010/08/10 10:55
KLSF 101055Z AUTO 00000KT 2 1/2SM BR CLR 22/22 A2999 RMK AO2 SLP153 T02220217 PNO $

2010/08/10 10:55
KMGE 101055Z 00000KT 10SM FEW090 BKN250 24/21 A3005 RMK AO2A SLP163 T02380214 $

2010/08/10 10:55
KOZR 101055Z AUTO 05006KT 10SM CLR 23/23 A2996 RMK AO2 SLP142 T02320230 $

2010/08/10 10:55
KRIV 101055Z AUTO 00000KT 10SM CLR 12/10 A2990 RMK AO2 SLP122 T01230097

2010/08/10 10:55
KRND 101055Z AUTO 21003KT 10SM CLR 26/24 A2993 RMK AO2 SLP123 T02570242

2010/08/10 10:55
KSLI 101055Z AUTO 00000KT 9SM CLR 14/14 A2990 RMK AO2 SLP128 T01380136

2010/08/10 10:55
KVPS 101055Z 02004KT 10SM FEW015 FEW250 25/23 A2993 RMK A02A SLP135 T02470228 $

2010/08/10 10:55
KWRI 101055Z AUTO 00000KT 9SM CLR 23/22 A2992 RMK AO2 SLP132 T02300220 $

2010/08/10 10:55
PGUA 101055Z AUTO 08006KT 10SM SCT018 BKN030 26/25 A2996 RMK AO2 SCT V BKN CIG 016 RWY24L SLP127 T02640253 $

2010/08/10 11:00
SGAS 101100Z 17004KT 9000 NSC 11/09 Q1021

2010/08/10 11:00
SGES 101100Z 17006KT 8000 NSC 12/11 Q1020

2010/08/10 10:53
KMWT 101053Z AUTO 00000KT 10SM CLR 23/23 A2993 RMK AO2 SLP120 T02330228 TSNO 

2010/08/10 10:49
KMWN 101049Z 33026KT 35SM SCT/// FEW000 FEW200 09/08 RMK TPS LWR SCT030 PTCHY VLY FG N-NE HZ DSNT ALQDS 

2010/08/10 10:51
NSTU 101051Z COR 12010KT 10SM FEW017 BKN040 BKN080 26/24 A2996 RMK SHRAB14E31 SLP146 T02600244 402990258

2010/08/10 10:51
NSTU 101051Z 12010KT 10SM FEW017 BKN040 BKN080 26/24 A2996 RMK SLP146 T02600244 402990258

2010/08/10 10:54
PGSN 101054Z 14007KT 9SM RA FEW014 SCT019 25/24 A2997 RMK AO2 RAB0959 SLP146 P0014 T02500239

2010/08/10 10:55
PGUA 101055Z AUTO 08006KT 10SM SCT018 BKN030 26/25 A2996 RMK AO2 SCT V BKN CIG 016 RWY24L SLP127 T02640253 $

2010/08/10 10:54
PGUM 101054Z 16003G16KT 2 1/2SM +RA BR FEW022 BKN044 OVC055 26/24 A2996 RMK AO2 VIS 1 1/4V5 RAB35 SLP138 P0008 T02560239

2010/08/10 10:53
PHJR 101053Z AUTO VRB05KT 10SM FEW055 25/18 A3010 RMK AO2 SLP197 T02500178 TSNO

2010/08/10 10:53
PHKO 101053Z AUTO 00000KT 10SM CLR 23/17 A3002 RMK AO2 SLP166 T02330167 TSNO

2010/08/10 10:54
PHMK 101054Z AUTO 04011KT 10SM BKN048 24/19 A3009 RMK AO2 SLP190 T02390189 TSNO

2010/08/10 10:53
PHNL 101053Z 07010KT 10SM FEW032 SCT050 26/17 A3008 RMK AO2 SLP186 T02560172

2010/08/10 10:54
PHOG 101054Z AUTO 04010KT 10SM FEW060 24/18 A3008 RMK AO2 SLP191 T02440183 TSNO

2010/08/10 10:53
PHTO 101053Z 23006KT 10SM FEW026 SCT060 22/17 A3010 RMK AO2 SLP191 T02170172

2010/08/10 10:50
PTKK 101050Z VRB05KT 15SM FEW014 SCT120 OVC280 28/24 A2989 RMK SLP125 T02780242

2010/08/10 10:50
PTPN 101050Z 09007KT 15SM SCT017TCU BKN300 27/26 A2988 RMK TCU SE-SW

2010/08/10 10:55
RJTY 101055Z AUTO 19010KT 9999 FEW013 26/24 A3003 RMK AO2 SLP162 T02610238 $

2010/08/10 10:55
RODN 101055Z 15009KT 9999 FEW021 SCT220 28/26 A2982 RMK AO2A RAB1015E1034 SLP099 P0000 T02810263

2010/08/10 10:50
EBAW 101050Z 20009KT CAVOK 21/13 Q1013 NOSIG

2010/08/10 10:50
EBBR 101050Z 22008KT 180V250 CAVOK 22/11 Q1014 NOSIG

2010/08/10 10:50
EBCI 101050Z 24011KT CAVOK 22/11 Q1015 NOSIG

2010/08/10 10:50
EBLG 101050Z 25009KT CAVOK 23/12 Q1014 NOSIG

2010/08/10 10:50
EBOS 101050Z 20013KT 9999 FEW020 BKN045 20/14 Q1012 TEMPO 4500 RA BKN012

2010/08/10 10:55
EGUL 101055Z AUTO 22008KT 9999 SCT017 17/13 A2979 RMK AO2 RAE1000B1025E1045DZB1000E1003B1023E1025 SLP090 P0000 T01700133

2010/08/10 10:50
ELLX 101050Z 20006KT 140V260 CAVOK 24/11 Q1015 NOSIG

2010/08/10 10:50
ENEV 101050Z 32007KT 280V350 9999 SCT050 16/11 Q1010

2010/08/10 10:50
ENKB 101050Z 04005KT 340V080 9999 FEW009 SCT032 17/14 Q1010

2010/08/10 10:50
ENMS 101050Z 35010KT 9999 BKN040 16/13 Q1010 -RERA

2010/08/10 10:50
ENNK 101050Z 25006KT 9999 SCT060 18/13 Q1010

2010/08/10 10:50
ENNO 101050Z 10010KT 080V140 9999 SCT040 20/14 Q1010

2010/08/10 10:50
ENRM 101050Z 22003KT 170V270 9999 6000NE FEW004 SCT006 BKN008 13/12 Q1011

2010/08/10 10:50
ENSG 101050Z 25005KT 190V310 9999 FEW004 SCT020 17/14 Q1009

2010/08/10 10:50
ENSK 101050Z 00000KT 9999 FEW007 BKN009 13/11 Q1011

2010/08/10 10:50
ENSN 101050Z 19010KT 9999 FEW040 21/09 Q1010

2010/08/10 10:50
ENSO 101050Z 11010KT 080V150 SCT035 BKN045 18/10 Q1008

2010/08/10 10:50
ENSS 101050Z 15006KT 9999 SCT030 09/06 Q1013

2010/08/10 10:50
ENST 101050Z 24005KT 200V300 9999 8000NE SCT003 BKN005 13/11 Q1012

2010/08/10 10:50
ENVD 101050Z 12007KT 080V150 9999 SCT010 BKN039 10/07 Q1013

2010/08/10 11:00
LEJR 101100Z VRB01KT 9999 FEW020 36/08 Q1016

2010/08/10 10:50
LIME 101050Z VRB03KT 9999 FEW060 27/16 Q1017

2010/08/10 10:50
BGCO 101050Z 16007KT 9999 SCT180 07/03 Q1013

2010/08/10 10:55
KFAF 101055Z AUTO 23003KT 10SM SCT060 SCT080 25/25 A2997 RMK AO2 SLP150 T02520252 $

2010/08/10 10:55
KGTB 101055Z AUTO 21003KT 10SM OVC011 21/20 A2994 RMK AO2 CIG 011V015 SLP139 T02130203

2010/08/10 10:55
KHMN 101055Z 09003KT 10SM CLR 20/13 A3002 RMK AO2A SLP080 T02000125 $

2010/08/10 10:55
KMTC 101055Z 00000KT 1 1/2SM BR CLR 20/20 A2995 RMK VIS N 2 S 1 SLP147

2010/08/10 10:54
KNFG 101054Z 00000KT BR OVC010 12/09 A2991 RMK AO2 SLP126 T01170094

2010/08/10 10:52
KNFW 101052Z AUTO 00000KT 10SM CLR 28/19 A2995 RMK AO2 SLP125 T02780194

2010/08/10 10:53
KNIP 101053Z 11010KT 10SM FEW012 SCT250 27/24 A2995 RMK AO2 SLP136 T02670239

2010/08/10 10:54
KNKT 101054Z AUTO 25004KT 10SM BKN075 25/24 A3002 RMK AO2 SLP163 T02500239

2010/08/10 10:53
KNQX 101053Z 23005KT 8SM -RA BKN010 BKN020 BKN040 BKN140 26/23 A2985 RMK AO2 SLP105 T1 SET P0011 T02560233 $

2010/08/10 10:55
KSKF 101055Z AUTO 16003KT 10SM SCT013 26/ A2992 RMK AO2 SLP120 T0260 $

2010/08/10 10:55
KWRB 101055Z AUTO 00000KT 9SM CLR 23/23 A3001 RMK AO2 SLP158 T02260226

2010/08/10 11:00
MGGT 101100Z 03008KT 9999 BKN014 18/16 Q1022 A3018 VOL/ PACAYA EN ACTI VIDAD NOSIG

2010/08/10 10:53
PABI 101053Z AUTO 21006KT 10SM CLR 15/06 A2969 RMK AO2 SLP051 T01500056 TSNO $

2010/08/10 10:53
PASC 101053Z 05014KT 1 1/2SM BR OVC003 03/03 A2975 RMK AO2 SLP075 T00330028

2010/08/10 10:55
KEGI 101055Z AUTO 00000KT 7SM R18/5000V5500FT CLR 24/23 A2994 RMK AO2 SLP137 T02360228 $

2010/08/10 10:52
KNHK 101052Z 22007KT 9SM FEW090 SCT200 26/21 A2994 RMK AO2 SLP140 T02560211

2010/08/10 10:54
KNKT 101054Z AUTO 25004KT 10SM BKN075 25/24 A3002 RMK AO2 SLP163 T02500239

2010/08/10 10:52
KNRB 101052Z 15009KT 10SM SCT024 SCT130 28/22 A2995 RMK AO2 SLP141 T02780222

2010/08/10 10:55
KOFF 101055Z AUTO 10005KT 10SM CLR 25/23 A2986 RMK AO2 SLP091 T02520226 $

2010/08/10 10:55
KOZR 101055Z AUTO 05006KT 10SM CLR 23/23 A2996 RMK AO2 SLP142 T02320230 $

2010/08/10 10:55
KRDR 101055Z AUTO 00000KT 10SM CLR 18/18 A2990 RMK AO2 SLP135 T01840183 $

2010/08/10 10:55
KRIV 101055Z AUTO 00000KT 10SM CLR 12/10 A2990 RMK AO2 SLP122 T01230097

2010/08/10 10:55
KRND 101055Z AUTO 21003KT 10SM CLR 26/24 A2993 RMK AO2 SLP123 T02570242

2010/08/10 10:55
KSLI 101055Z AUTO 00000KT 9SM CLR 14/14 A2990 RMK AO2 SLP128 T01380136

2010/08/10 10:55
KSUU 101055Z AUTO 25019KT 10SM FEW004 12/11 A2981 RMK AO2 PK WND 25026/1024 SLP096 T01230110 RVRNO $

2010/08/10 10:55
KSZL 101055Z AUTO 00000KT 10SM CLR 25/24 A2993 RMK AO2 SLP125 T02540237 PNO $

2010/08/10 10:55
KVPS 101055Z 02004KT 10SM FEW015 FEW250 25/23 A2993 RMK A02A SLP135 T02470228 $

2010/08/10 10:55
KWRI 101055Z AUTO 00000KT 9SM CLR 23/22 A2992 RMK AO2 SLP132 T02300220 $

2010/08/10 11:00
SPIM 101100Z 16004KT 8000 OVC018 15/12 Q1017 NOSIG RMK PP000

2010/08/10 10:55
KBAD 101055Z AUTO 00000KT 10SM CLR 26/23 A2992 RMK AO2 SLP132 T02580233

2010/08/10 10:55
KBIX 101055Z AUTO 04005KT 10SM CLR 25/25 A2993 RMK AO2 SLP138 T02520246 $

2010/08/10 10:55
KCBM 101055Z AUTO 00000KT 10SM BKN130 25/25 A2996 RMK AO2 SLP145 T02500250 $

2010/08/10 10:55
KDAA 101055Z AUTO 00000KT 7SM CLR 22/21 A2995 RMK AO2 SLP142 T02190208

2010/08/10 10:55
KDYS 101055Z AUTO 18007KT 10SM BKN190 26/19 A2995 RMK AO2 SLP112 T02630185 $

2010/08/10 10:55
KEDW 101055Z AUTO 18008KT 10SM CLR 17/01 A2988 RMK AO2 SLP070 T01700006

2010/08/10 10:55
KFAF 101055Z AUTO 23003KT 10SM SCT060 SCT080 25/25 A2997 RMK AO2 SLP150 T02520252 $

2010/08/10 10:55
KFSI 101055Z AUTO 21004KT 10SM CLR 26/20 A2989 RMK AO2 SLP096 T02560197

2010/08/10 10:55
KGUS 101055Z AUTO 13004KT 7SM FEW100 24/24 A2996 RMK AO2 RAB1025E1036DZB1011E1020B1036E1040 SLP138 P0001 T02380238

2010/08/10 10:55
KHFF 101055Z AUTO 00000KT 10SM BKN002 22/22 A3004 RMK AO2 SLP170 T02230216 $

2010/08/10 10:55
KHMN 101055Z 09003KT 10SM CLR 20/13 A3002 RMK AO2A SLP080 T02000125 $

2010/08/10 10:55
KIAB 101055Z AUTO 15007KT 10SM CLR 26/21 A2989 RMK AO2 SLP105 T02580206 $

2010/08/10 10:55
KLSF 101055Z AUTO 00000KT 2 1/2SM BR CLR 22/22 A2999 RMK AO2 SLP153 T02220217 PNO $

2010/08/10 10:55
KMGE 101055Z 00000KT 10SM FEW090 BKN250 24/21 A3005 RMK AO2A SLP163 T02380214 $

2010/08/10 10:52
KNFW 101052Z AUTO 00000KT 10SM CLR 28/19 A2995 RMK AO2 SLP125 T02780194

2010/08/10 10:54
KMTP 101054Z AUTO 00000KT 22/19 A2994 RMK AO2 SLP137 T02220189 PWINO TSNO 

2010/08/10 10:54
KWAL 101054Z AUTO 28005KT 6SM BR CLR 25/23 A2997 RMK AO2 SLP144 T02500228 TSNO 

2010/08/10 10:54
KRFD 101054Z 00000KT 10SM OVC180 23/22 A2997 RMK AO2 SLP143 T02330217 $ 

2010/08/10 10:55
KDRA 101055Z AUTO 07004KT 10SM CLR 21/M08 A2992 RMK AO2 SLP080 T02111078 TSNO 

2010/08/10 10:55
OAHR 101055Z 01012G22KT //// // ////// 35/M02 Q1009 RMK SKC VIS MNI 9999 BLU

2010/08/10 10:50
EGKA 101050Z 25009KT 9999 SCT012 17/15 Q1011

2010/08/10 10:55
EGUN 101055Z AUTO 23011KT 9999 FEW040 BKN095 17/16 A2980 RMK AO2 RAE1003B1023E1043 SLP080 P0000 T01710165

2010/08/10 10:55
ETEB 101055Z AUTO 00000KT 9999 SCT065 SCT080 SCT170 22/09 A3007 RMK AO2 SLP170 T02170093

2010/08/10 10:55
ETOR 101055Z 14006KT 9999 FEW040 SCT200 29/13 A3000 RMK BLU

2010/08/10 10:50
LIBD 101050Z 01009KT 340V050 CAVOK 28/17 Q1014

2010/08/10 10:45
LIBR 101045Z 33018G28KT 9999 FEW018CB 26/22 Q1013 NOSIG

2010/08/10 10:50
LICC 101050Z 07010KT CAVOK 29/17 Q1015

2010/08/10 10:50
LICJ 101050Z 04015KT CAVOK 27/20 Q1015

2010/08/10 10:50
LIEA 101050Z 30008KT 240V330 CAVOK 30/17 Q1016

2010/08/10 10:45
LIEE 101045Z 13008KT CAVOK 32/11 Q1015 NOSIG

2010/08/10 10:50
LIEO 101050Z 05009KT CAVOK 29/16 Q1016

2010/08/10 10:50
LIMC 101050Z VRB03KT 9999 SCT030 27/18 Q1016 NOSIG

2010/08/10 10:50
LIMF 101050Z 11006KT 9999 FEW035 26/17 1017

2010/08/10 10:50
LIMJ 101050Z 20004KT 9999 FEW028 27/22 Q1016

2010/08/10 10:50
LIML 101050Z VRB03KT 9999 FEW030 28/17 Q1016 NOSIG

2010/08/10 10:50
LIPE 101050Z VRB02KT 9999 FEW050 29/19 Q1015

2010/08/10 10:45
LIPH 101045Z 33002KT 9999 FEW020 28/19 Q1016

2010/08/10 10:50
LIPK 101050Z VRB02KT 9999 FEW020 28/18 Q1015

2010/08/10 10:50
LIPQ 101050Z VRB03KT CAVOK 29/18 Q1015

2010/08/10 10:45
LIPR 101045Z 03007KT 9999 FEW025 27/25 Q1015

2010/08/10 10:45
LIPX 101045Z 14004KT 9999 FEW050 29/16 Q1016

2010/08/10 10:50
LIPZ 101050Z 12004KT 9999 FEW025 28/21 Q1015

2010/08/10 10:45
LIRA 101045Z 15006KT 090V200 9999 FEW020 31/20 Q1015

2010/08/10 10:50
LIRF 101050Z 21009KT 170V260 CAVOK 29/19 Q1015 NOSIG

2010/08/10 10:50
LIRN 101050Z 18006KT 9999 FEW060 29/19 Q1014

2010/08/10 10:45
LIRP 101045Z 26005KT 230V310 9999 SCT025 27/20 Q1016 NOSIG

2010/08/10 10:50
LIRQ 101050Z VRB04KT CAVOK 28/18 Q1015

2010/08/10 10:53
KCQC 101053Z AUTO 02006KT 10SM CLR 14/12 A3025 RMK AO2 SLP145 T01440122 TSNO 

2010/08/10 11:00
FAVV 101100Z AUTO 10012KT //// // ////// 15/M17 Q1031

2010/08/10 11:00
FASI 101100Z AUTO 09011KT //// // ////// 14/M13 Q1033

2010/08/10 11:00
FAGC 101100Z AUTO 09016KT //// // ////// 15/M17 Q1032

2010/08/10 10:55
KMBG 101055Z AUTO 15010KT 10SM CLR 23/22 A2979 RMK AO2 SLP072 T02330217 TSNO 

2010/08/10 10:54
KAKQ 101054Z AUTO 16003KT 4SM BR CLR 23/22 A2998 RMK AO2 SLP150 T02330217 TSNO 

2010/08/10 10:55
KNBG 101055Z AUTO 00000KT 1/2SM FG CLR 24/23 A2994 RMK AO2 SLP137 T02440233 PWINO $ 

2010/08/10 10:55
KPOE 101055Z AUTO 00000KT 10SM FEW050 BKN070 25/23 A2994 RMK AO2 SLP139 T02500233 

2010/08/10 10:54
CYKL 101054Z AUTO 33010KT 3SM DZ OVC005 OVC019 08/08 A2975

2010/08/10 10:55
ETAD 101055Z AUTO 18013G18KT 9999 CLR 26/10 A3000 RMK AO2 SLPNO T02630100 VISNO RWY05 CHINO RWY05 $

2010/08/10 10:55
ETAR 101055Z AUTO 20007KT 160V230 9999 CLR 25/14 A3000 RMK AO2 SLP155 T02510142 $

2010/08/10 10:55
KADW 101055Z AUTO 24005KT 10SM CLR 24/21 A2995 RMK AO2 SLP141 T02410211 $

2010/08/10 10:55
KBAB 101055Z AUTO 00000KT 10SM CLR 17/12 A2981 RMK AO2 SLP094 T01670117 $

2010/08/10 10:55
KBKF 101055Z 21006KT 25SM FEW120 15/12 A3012 RMK SLP139

2010/08/10 10:55
KCOF 101055Z AUTO 12008KT 10SM CLR 26/ A2992 RMK AO2 SLP132 T0262

2010/08/10 10:55
KDOV 101055Z AUTO 21007KT 10SM CLR 24/24 A2992 RMK AO2 SLP132 T02440242

2010/08/10 10:55
KFBG 101055Z VRB03KT 10SM OVC003 25/24 A3002 RMK AO2A SLP163 T02460239 $

2010/08/10 10:55
KFMH 101055Z AUTO 22004KT 3SM BR FEW100 22/21 A2993 RMK AO2

2010/08/10 10:55
KLHW 101055Z AUTO 00000KT 10SM CLR 24/23 A2999 RMK AO2 SLP155 T02380233

2010/08/10 10:55
KLTS 101055Z AUTO 00000KT 10SM CLR 23/20 A2991 RMK AO2 SLP108 T02270200 $

2010/08/10 10:55
KPOB 101055Z AUTO 23005KT 10SM OVC004 24/24 A3002 RMK AO2 SLP166 T02420242 $

2010/08/10 10:55
KSSC 101055Z 00000KT 6SM BR OVC002 24/23 A3001 RMK AO2A SLP162 T02380230 $

2010/08/10 10:55
KTIK 101055Z 19008KT 10SM CLR 25/21 A2990 RMK AO2A SLP109 T02490207

2010/08/10 10:55
KVOK 101055Z 00000KT 1/4SM R27/1000V1600FT FG CLR 17/17 A2998 RMK AO2A SLP146 T01740174

2010/08/10 10:55
PAEI 101055Z AUTO 00000KT 10SM SCT085 OVC100 12/10 A2964 RMK AO2 SLP038 T01200101 $

2010/08/10 10:55
RODN 101055Z 15009KT 9999 FEW021 SCT220 28/26 A2982 RMK AO2A RAB1015E1034 SLP099 P0000 T02810263

2010/08/10 11:00
ORSU 101100Z 33019KT 9999 FEW045 42/02 Q1009 

2010/08/10 10:55
KRBW 101055Z AUTO 00000KT 10SM SCT023 SCT029 23/23 A3002 RMK AO2

2010/08/10 10:55
KSPL 101055Z AUTO 13005KT 28/27 A2986 RMK AO2 PWINO PNO

2010/08/10 10:55
KTME 101055Z AUTO 00000KT 10SM 24/24 A2993 RMK AO2

2010/08/10 10:55
KUTA 101055Z AUTO 18004KT 5SM BR CLR 26/25 A2995 RMK AO2

2010/08/10 10:55
KX40 101055Z AUTO 00000KT 7SM CLR 26/25 A2990 RMK AO2 T02610247

2010/08/10 10:55
KAEG 101055Z AUTO 00000KT 10SM SCT100 SCT120 16/08 A3018 RMK AO1

2010/08/10 10:55
KAIK 101055Z AUTO 00000KT 2 1/2SM BR CLR 22/ A3006 RMK AO2 PNO

2010/08/10 10:55
KBBP 101055Z AUTO 00000KT 2 1/2SM BR OVC003 23/22 A3003 RMK AO2

2010/08/10 10:55
KBNL 101055Z AUTO 00000KT 5SM BR FEW002 23/23 A3003 RMK AO2

2010/08/10 10:55
KBWD 101055Z AUTO 00000KT 10SM CLR 24/20 A2995 RMK AO2

2010/08/10 10:55
KCEF 101055Z AUTO 00000KT 1/2SM R23/1200V5500FT R33/0900VP6000FT FG CLR 21/20 A2993 RMK AO2 SLP135 T02080205 $

2010/08/10 10:55
KCGC 101055Z AUTO 08003KT 10SM CLR 24/24 A2989 RMK

2010/08/10 10:55
KCIC 101055Z AUTO 13003KT 10SM CLR 19/09 A2983 RMK AO1

2010/08/10 10:55
KCQW 101055Z AUTO 00000KT M1/4SM FG OVC001 22/22 A3003 RMK AO2

2010/08/10 10:55
KDCM 101055Z AUTO 00000KT 4SM BR CLR 22/22 A3005 RMK AO2

2010/08/10 10:55
KE80 101055Z AUTO 00000KT 10SM CLR 19/08 A3014 RMK AO2 T01890083

2010/08/10 10:55
KEDC 101055Z AUTO 14003KT 10SM CLR 24/24 A2993 RMK AO1

2010/08/10 10:50
KEFD 101050Z 00000KT 10SM FEW250 26/24 A2993

2010/08/10 10:55
KEOE 101055Z AUTO 00000KT 4SM BR CLR 22/22 A3006 RMK AO2

2010/08/10 10:55
KFMH 101055Z AUTO 22004KT 3SM BR FEW100 22/21 A2993 RMK AO2

2010/08/10 10:54
KGED 101054Z AUTO 22005KT 5SM BR CLR 24/23 A2995 RMK AO2 SLP142 T02440228

2010/08/10 10:55
KGYH 101055Z AUTO 00000KT 7SM CLR 25/21 A3005 RMK AO2

2010/08/10 10:55
KHVS 101055Z AUTO 00000KT 1 1/4SM OVC001 23/ A3004 RMK AO2

2010/08/10 10:55
KHYW 101055Z AUTO 00000KT 7SM CLR 23/ A3002 RMK AO2

2010/08/10 10:55
KIFP 101055Z AUTO 00000KT 10SM CLR 27/03 A2977 RMK AO2

2010/08/10 10:50
KISM 101050Z 08008KT 10SM SCT022 24/23 A2992 RMK FIRST

2010/08/10 10:55
KJQF 101055Z 00000KT 5SM BR CLR 23/21 A3004

2010/08/10 10:55
KLQK 101055Z AUTO 00000KT 1 1/2SM BR VV007 22/22 A3005 RMK AO2 T02210217 PNO

2010/08/10 10:55
KLRF 101055Z AUTO 17004KT 10SM CLR 27/25 A2993 RMK AO2 SLP131 T02720252

2010/08/10 10:55
KLRO 101055Z AUTO 00000KT 5SM BR CLR 23/23 A3001 RMK AO2

2010/08/10 10:55
KLUX 101055Z AUTO 00000KT 5SM BR CLR 22/22 A3005 RMK AO2

2010/08/10 10:55
KMAO 101055Z AUTO 00000KT 7SM CLR 23/23 A3002 RMK AO2

2010/08/10 10:55
KMKS 101055Z AUTO 00000KT 7SM SCT020 24/23 A3002 RMK AO2 TSNO

2010/08/10 10:55
KMMT 101055Z AUTO 00000KT 7SM BKN003 BKN016 OVC025 24/24 A3002 RMK AO2 BKN003 V SCT SLP164 T02400237

2010/08/10 10:55
KMNI 101055Z AUTO 00000KT 10SM SCT020 23/23 A3002 RMK AO2

2010/08/10 10:54
KPTW 101054Z AUTO 00000KT 5SM HZ CLR 24/21 A2995 RMK AO2 SLP137 T02440211

2010/08/10 10:53
KLAX 101053Z 28005KT 6SM BR OVC007 15/13 A2991 RMK AO2 SLP125 T01500128 $

2010/08/10 10:54
KRIC 101054Z 23003KT 9SM FEW250 25/21 A2996 RMK AO2 SLP149 T02500206 $

2010/08/10 10:53
K4BM 101053Z AUTO 27003KT 10SM 07/03 A3055 RMK AO2

2010/08/10 10:52
K5SM 101052Z AUTO 00000KT 10SM 08/00 A3050 RMK AO2

2010/08/10 10:54
K7BM 101054Z AUTO 29004KT 10SM CLR 12/01 A3044 RMK AO2

2010/08/10 10:54
KAVP 101054Z 00000KT 6SM BR FEW120 22/19 A2997 RMK AO2 RAE31 SLP135 P0001 T02170194

2010/08/10 10:58
KBDU 101058Z AUTO 25004KT 10SM CLR 19/11 A3008 RMK AO2

2010/08/10 10:56
KBMI 101056Z 04008KT 8SM SCT060 23/23 A2999 RMK AO2 T02330227 TSB00E18 SLP138 $

2010/08/10 10:56
KBOK 101056Z AUTO 00000KT 1/2SM FG OVC002 11/11 A2992 RMK AO2 T01050105 SLP133

2010/08/10 10:53
KBTR 101053Z 04003KT 1 3/4SM BR SCT002 BKN200 23/23 A2994 RMK AO2 SLP136 VIS N-NE 3/4 SCT V BKN T02330233

2010/08/10 10:54
KBTV 101054Z 00000KT 4SM BR OVC003 18/18 A2993 RMK AO2 SLP135 VIS N-NE 1 1/4 T01780178

2010/08/10 10:57
KCCU 101057Z AUTO 23012KT 10SM CLR 08/00 A3056 RMK AO2

2010/08/10 10:53
KCHA 101053Z 00000KT 10SM SCT150 BKN250 26/23 A3002 RMK AO2 SLP155 T02560233

2010/08/10 10:55
KCMA 101055Z 00000KT 10SM OVC005 14/11 A2989 RMK AO2 SLP130 T01440111

2010/08/10 10:55
KCNK 101055Z AUTO 02003KT 10SM BKN090 26/21 A2986 RMK AO2 SLP089 T02560211

2010/08/10 11:02
KCPW 101102Z AUTO 24010KT 10SM OVC055 07/00 A3058 RMK AO2

2010/08/10 10:53
KDAB 101053Z 11005KT 10SM FEW020 SCT120 SCT250 27/23 A2993 RMK AO2 SLP135 T02670233

2010/08/10 10:55
KDLH 101055Z 00000KT 9SM CLR 20/17 A2999 RMK AO2 SLP148 T02000167

2010/08/10 10:55
KEAT 101055Z AUTO 30005KT 10SM CLR 16/08 A2983 RMK AO2 SLP094 T01560078

2010/08/10 10:54
KFWA 101054Z 03003KT 1SM BR SCT041 BKN250 23/22 A2998 RMK AO2 SLP145 R05/5500FT TCU DSNT E AND W T02330222

2010/08/10 10:55
KGPI 101055Z AUTO 00000KT 10SM FEW100 12/10 A2986 RMK AO2 SLP096 T01170100 $

2010/08/10 10:54
KGSO 101054Z 25005KT 5SM HZ CLR 24/21 A3004 RMK AO2 SLP160 T02390206

2010/08/10 10:55
KIRK 101055Z AUTO 02008KT 10SM CLR 24/22 A2996 RMK AO2 SLP139 T02390222

2010/08/10 10:55
KLIC 101055Z AUTO 00000KT 10SM CLR 13/13 A3012 RMK AO2 SLP125 T01280128

2010/08/10 10:55
KLLJ 101055Z AUTO 02004KT 10SM FEW090 SCT110 11/09 A3006 RMK AO2 RAB05E28 SLP142 P0003 T01110094 $

2010/08/10 10:53
KLXV 101053Z AUTO 10003KT 10SM CLR 03/03 A3044 RMK AO2 SLP173 T00330028 TSNO

2010/08/10 10:55
KMKG 101055Z 19003KT 1/4SM FG OVC002 20/19 A2999 RMK AO2 TWR VIS 1/4 SLP154 T02000194

2010/08/10 10:53
KMSN 101053Z 00000KT 3SM BCFG BR FEW001 22/21 A2997 RMK AO2 SLP143 T02170211

2010/08/10 10:53
KOVE 101053Z AUTO 00000KT 10SM CLR 18/13 A2983 RMK AO2 SLP103 T01780128 TSNO $

2010/08/10 10:53
KRIL 101053Z AUTO 00000KT 10SM CLR 12/08 A3018 RMK AO2 SLP159 T01170083 TSNO

2010/08/10 10:55
KRNO 101055Z 00000KT 10SM FEW100 18/04 A3000 RMK AO2 SLP102 T01830044

2010/08/10 10:53
KSAV 101053Z 00000KT 10SM FEW015 SCT025 SCT250 25/24 A3000 RMK AO2 SLP158 T02500239

2010/08/10 10:50
KSAW 101050Z 00000KT 1/4SM FG VV002 17/16 A2998

2010/08/10 10:55
KSCK 101055Z AUTO 34005KT 10SM CLR 14/11 A2982 RMK AO2 SLP097 T01390111

2010/08/10 10:53
KSGR 101053Z 00000KT 10SM CLR 25/24 A2991 RMK AO2 SLP135 T02500239

2010/08/10 10:53
KTLH 101053Z 06006KT 10SM FEW013 26/23 A2994 RMK AO2 SLP136 T02560233

2010/08/10 10:53
KTRI 101053Z 00000KT 6SM BR BKN110 22/21 A3007 RMK AO2 SLP162 T02220206

2010/08/10 10:53
KTYS 101053Z 00000KT 3SM BR BKN110 25/23 A3002 RMK AO2 SLP153 T02500228

2010/08/10 11:00
KVTP 101100Z AUTO 25009G14KT 10SM CLR 08/06 A3046 RMK AO2

2010/08/10 10:50
KWYS 101050Z AUTO 23003KT M1/4SM FG OVC001 05/04 A3015 RMK AO2

2010/08/10 10:55
KXFL 101055Z 13007KT 10SM CLR 27/24 A2994

2010/08/10 10:54
PAHN 101054Z AUTO 08008G18KT 10SM OVC009 13/12 A2997 RMK AO2 CIG 007V015 SLP152 T01330117 TSNO

2010/08/10 10:54
PAKN 101054Z 18011KT 5SM -RA BR OVC004 10/09 A2964 RMK AO2 SLP038 P0002 T01000094

2010/08/10 10:53
KPQN 101053Z AUTO 22017KT 7SM +TSRA SCT008 BKN014 OVC024 21/20 A2996 RMK AO2 P0025 LTG DSNT ALQDS

2010/08/10 10:53
KFGN 101053Z AUTO 24004KT 7SM CLR 23/20 A2989 RMK AO2

2010/08/10 10:53
KPNM 101053Z AUTO 00000KT 10SM CLR 20/19 A2996 RMK AO2

2010/08/10 10:53
KPWC 101053Z AUTO 00000KT 3/4SM BR OVC001 17/16 A2998 RMK AO2

2010/08/10 10:53
KFFM 101053Z AUTO 11005KT 10SM CLR 22/21 A2989 RMK AO2

2010/08/10 10:52
KGDB 101052Z AUTO 09004KT 10SM OVC050 23/22 A2991 RMK AO2 LTG DSNT SW T02300221

2010/08/10 10:53
KAIT 101053Z AUTO 00000KT 2 1/2SM BR BKN001 15/13 A2997 RMK AO2

2010/08/10 10:53
KGHW 101053Z AUTO 10006KT 5SM BR CLR 21/19 A2995 RMK AO2

2010/08/10 10:53
KMWM 101053Z AUTO 12007KT 7SM -RA SCT007 SCT080 24/23 A2990 RMK AO2 LTG DSNT ALQDS

2010/08/10 10:53
KBBB 101053Z AUTO 13003KT 7SM CLR 22/21 A2994 RMK AO2

2010/08/10 10:53
KTWM 101053Z AUTO 00000KT 5SM HZ CLR 17/14 A2996 RMK AO2

2010/08/10 10:55
KMGG 101055Z AUTO 11003KT 7SM CLR 22/22 A2995 RMK AO2 T02230219

2010/08/10 10:48
KMOX 101048Z AUTO 11005KT 5SM BR CLR 22/22 A2987 RMK AO2

2010/08/10 10:54
KONZ 101054Z AUTO 00000KT 1 1/4SM BR VV007 22/21 A2996 RMK AO2

2010/08/10 10:53
KTEW 101053Z AUTO 00000KT M1/4SM FG OVC001 18/17 A2999 RMK AO2

2010/08/10 10:50
KCVH 101050Z AUTO 00000KT 10SM OVC005 13/12 A2990 RMK AO1

2010/08/10 10:54
KDYT 101054Z AUTO 00000KT 10SM CLR 22/21 A2996 RMK AO2

2010/08/10 10:59
KFSO 101059Z AUTO 15003KT 5SM BR OVC013 18/18 A2992 RMK AO2

2010/08/10 10:54
KFBL 101054Z AUTO 10004KT 10SM CLR 23/21 A2995 RMK AO2 LTG DSNT S AND SW

2010/08/10 10:57
KLYV 101057Z AUTO 27017G34KT 1SM +TSRA BKN005 OVC011 21/20 A2999 RMK AO2 LTG DSNT ALQS P0013

2010/08/10 10:56
KEFK 101056Z AUTO 00000KT M1/4SM FG OVC001 14/13 A2995 RMK AO2

2010/08/10 10:54
KRRT 101054Z AUTO 23004KT 10SM CLR 21/19 A2991 RMK AO2 TSNO

2010/08/10 10:55
KTOB 101055Z AUTO 12005KT 4SM BR CLR 22/21 A2997 RMK AO2

2010/08/10 10:53
KLXL 101053Z AUTO 00000KT 7SM CLR 19/18 A2993 RMK AO2

2010/08/10 10:52
KEVM 101052Z AUTO 00000KT 1/4SM FG OVC001 15/13 A2997 RMK AO1

2010/08/10 10:53
KELO 101053Z AUTO 00000KT 7SM CLR 16/16 A2998 RMK AO2

2010/08/10 10:55
KANE 101055Z AUTO 00000KT 10SM CLR 22/21 A2996 RMK AO2

2010/08/10 10:54
KROX 101054Z AUTO 00000KT 10SM CLR 19/17 A2991 RMK AO2

2010/08/10 10:55
KSYN 101055Z AUTO 00000KT 1/2SM FG VV005 19/18 A2994 RMK AO2 T01920182

2010/08/10 10:56
KVVV 101056Z AUTO 12005KT 10SM SCT037 SCT060 BKN080 23/22 A2989 RMK AO2

2010/08/10 11:02
KFKA 101102Z AUTO 00000KT 4SM BR CLR 22/22 A2999 RMK AO2 LTG DSNT SW T02240217

2010/08/10 10:54
KROS 101054Z AUTO 00000KT 1 3/4SM BR VV007 18/17 A2996 RMK AO2 T01800174

2010/08/10 10:52
KHCD 101052Z AUTO 12005KT 7SM CLR 22/21 A2992 RMK AO2 T02210210

2010/08/10 10:53
KSGS 101053Z AUTO 00000KT 10SM CLR 23/21 A2995 RMK AO2 T02320210

2010/08/10 10:52
KMJQ 101052Z AUTO 13015KT 10SM VCTSRA SCT004 SCT014 BKN025 21/20 A2989 RMK AO2 P0001

2010/08/10 10:54
KHCO 101054Z AUTO 16009KT 10SM CLR 20/20 A2991 RMK AO2

2010/08/10 10:53
KLVN 101053Z AUTO 14003KT 3/4SM BR BKN001 BKN029 19/19 A2995 RMK AO2

2010/08/10 10:53
KPEX 101053Z AUTO 12007KT 7SM CLR 23/22 A2993 RMK AO2 T02310216

2010/08/10 10:54
KJMR 101054Z AUTO 00000KT 2 1/2SM BR CLR 18/18 A2999 RMK AO2 VIS 3/4V5

2010/08/10 10:54
KJKJ 101054Z AUTO 14004KT 10SM CLR 22/21 A2988 RMK AO2

2010/08/10 10:54
KMVE 101054Z AUTO 16006KT 7SM SCT036 OVC050 23/23 A2989 RMK AO2 LTG DSNT S AND SW

2010/08/10 10:53
KTKC 101053Z AUTO 00000KT 7SM BKN007 23/22 A2989 RMK AO2 LTG DSNT SE THRU W T02290220

2010/08/10 10:54
KGYL 101054Z AUTO 11005KT 7SM CLR 22/20 A2992 RMK AO2 T02160202

2010/08/10 10:54
KDXX 101054Z AUTO 12004KT 10SM SCT033 24/24 A2989 RMK AO2 LTG DSNT SW

2010/08/10 10:51
KHZX 101051Z AUTO 00000KT 10SM CLR 16/16 A2999 RMK AO2

2010/08/10 10:52
KCDD 101052Z AUTO 00000KT 4SM BR CLR 18/18 A2997 RMK AO2

2010/08/10 10:53
KSAZ 101053Z AUTO 00000KT 10SM CLR 20/20 A2995 RMK AO2

2010/08/10 10:51
KONA 101051Z AUTO 00000KT 1/2SM FG OVC001 23/22 A2996 RMK AO2

2010/08/10 10:53
KFOZ 101053Z AUTO 00000KT 1/4SM FG BKN001 BKN016 17/16 A2998 RMK AO2

2010/08/10 10:54
KAQP 101054Z AUTO 13006KT 7SM BKN065 22/22 A2989 RMK AO2 LTG DSNT S

2010/08/10 10:54
KETH 101054Z AUTO 09005KT 5SM BR SCT049 19/19 A2992 RMK AO2

2010/08/10 10:53
KOVL 101053Z AUTO 13007KT 10SM OVC085 22/20 A2991 RMK AO2 LTG DSNT SW T02230201

2010/08/10 10:52
KLJF 101052Z AUTO 13004KT 5SM BR CLR 21/21 A2993 RMK AO2

2010/08/10 10:56
KXVG 101056Z AUTO 00000KT 2SM BR OVC001 15/15 A2995 RMK AO2

2010/08/10 10:54
KORB 101054Z AUTO 00000KT 4SM BR CLR 19/17 A2996 RMK AO2

2010/08/10 10:50
KMZH 101050Z AUTO 00000KT 1/2SM FG OVC001 17/16 A2997 RMK AO2

2010/08/10 10:53
KBFW 101053Z AUTO 00000KT 7SM CLR 16/14 A2996 RMK AO2

2010/08/10 10:49
KVWU 101049Z AUTO 18004KT 10SM CLR 20/19 A2994 RMK AO2

2010/08/10 10:50
KAEL 101050Z AUTO 13006KT 5SM BR SCT033 SCT042 BKN060 24/23 A2995 RMK AO2 LTG DSNT SE

2010/08/10 10:54
KOWA 101054Z AUTO 12005KT 10SM CLR 23/22 A2994 RMK AO2 LTG DSNT S

2010/08/10 10:53
K29G 101053Z AUTO 00000KT 7SM CLR 21/19 A2998 RMK AO2 T02110188 PWINO

2010/08/10 10:53
KMRT 101053Z AUTO 00000KT 2SM CLR 20/19 A3001 RMK AO2 T02020191

2010/08/10 10:54
KIKW 101054Z AUTO 00000KT 1/2SM FG BKN010 19/18 A2998 RMK AO2 T01930183

2010/08/10 10:51
KCEF 101051Z AUTO 00000KT 1/4SM R23/1200V3500FT R33/1000VP6000FT FG CLR 21/20 A2993 RMK AO2 SLP135 $

2010/08/10 10:52
KCEF 101052Z AUTO 00000KT 1/2SM R23/1200V4500FT R33/0900VP6000FT FG CLR 21/20 A2993 RMK AO2 SLP135 $

2010/08/10 10:53
KCEF 101053Z AUTO 00000KT 1/2SM R23/1200V5500FT R33/0900VP6000FT FG CLR 21/20 A2993 RMK AO2 SLP135 $

2010/08/10 10:49
KHFF 101049Z AUTO 00000KT 8SM BKN002 22/22 A3004 RMK AO2 SLP170 $

2010/08/10 10:54
KMMT 101054Z AUTO 00000KT 7SM BKN003 BKN016 OVC025 24/24 A3002 RMK AO2 BKN003 V SCT SLP165

2010/08/10 10:47
KNBG 101047Z AUTO 00000KT 3/4SM BR CLR 25/23 A2994 RMK AO2 PWINO $

2010/08/10 10:55
KASX 101055Z AUTO 00000KT 3/4SM BR CLR 17/17 A2998 RMK AO2

2010/08/10 11:00
SVMI 101100Z 00000KT 9999 FEW016 BKN300 28/24 Q1011 NOSIG

2010/08/10 10:55
KPHP 101055Z AUTO 14003KT 10SM SCT110 22/18 A2983 RMK AO2 SLP076 T02170183 TSNO 

2010/08/10 10:53
KRQE 101053Z AUTO 00000KT 10SM FEW100 10/08 A3026 RMK AO2 SLP142 T01000083 TSNO 

2010/08/10 10:55
KAST 101055Z AUTO 00000KT 10SM OVC014 13/11 A2997 RMK AO2 PK WND 21027/0958 SLP150 T01330111 

2010/08/10 10:55
KHON 101055Z AUTO 24013G18KT 6SM -RA BR SCT010 BKN015 OVC055 24/22 A2986 RMK AO2 RAB11 SLP098 P0001 T02440222 TSNO 

2010/08/10 10:56
KJAX 101056Z 11006KT 10SM FEW020 SCT150 SCT250 26/23 A2995 RMK AO2 SLP141 T02610228 

2010/08/10 10:55
KANJ 101055Z AUTO VRB06KT 1 1/2SM BR OVC002 20/19 A2997 RMK AO2 SLP142 T02000189 

2010/08/10 10:56
KSHV 101056Z 00000KT 10SM SCT290 26/23 A2991 RMK AO2 SLP125 T02610228 

2010/08/10 11:00
MGGT 101100Z 03008KT 9999 BKN014 18/16 Q1022 A3018 VOL. PACAYA EN ACTIVIDAD NOSIG

2010/08/10 11:00
SBCB 101100Z 18003KT 9000 SCT030 BKN070 20/16 Q1024

2010/08/10 11:00
MROC 101100Z 04002KT 9999 4500WSW BR FEW002 BKN013 21/21 A3000 NOSIG

2010/08/10 10:50
LIBD 101050Z 01009KT 340V050 CAVOK 28/17 Q1014

2010/08/10 10:45
LIBR 101045Z 33018G28KT 9999 FEW018CB 26/22 Q1013 NOSIG

2010/08/10 10:50
LICC 101050Z 07010KT CAVOK 29/17 Q1015

2010/08/10 10:50
LICJ 101050Z 04015KT CAVOK 27/20 Q1015

2010/08/10 10:50
LIPE 101050Z VRB02KT 9999 FEW050 29/19 Q1015

2010/08/10 10:45
LIPH 101045Z 33002KT 9999 FEW020 28/19 Q1016

2010/08/10 10:50
LIPK 101050Z VRB02KT 9999 FEW020 28/18 Q1015

2010/08/10 10:50
LIPQ 101050Z VRB03KT CAVOK 29/18 Q1015

2010/08/10 10:45
LIPR 101045Z 03007KT 9999 FEW025 27/25 Q1015

2010/08/10 10:45
LIPX 101045Z 14004KT 9999 FEW050 29/16 Q1016

2010/08/10 10:50
LIPZ 101050Z 12004KT 9999 FEW025 28/21 Q1015

2010/08/10 10:54
MMCN 101054Z 00000KT 10SM FEW200 28/23 A2974 RMK 8/005 RTS

2010/08/10 10:47
MMHO 101047Z 00000KT 10SM SCT080 30/22 A2981 RMK 8/030 HZY ISOL CI

2010/08/10 10:54
MMLM 101054Z 00000KT 10SM SCT100 29/21 A2979 RMK 8/030 RTS

2010/08/10 10:50
EGWU 101050Z 24008KT 9999 BKN013 BKN050 16/13 Q1010 BECMG BKN015

2010/08/10 10:50
OAKN 101050Z 27014KT 8000 DU SCT150 BKN250 38/01 Q1006 BLU TEMPO 6000 WHT RMK A2970 DA6900

2010/08/10 10:50
EFET 101050Z AUTO 09004KT 040V140 9999 BKN028 OVC033 13/09 Q1012

2010/08/10 10:50
EFIV 101050Z AUTO 04007KT 020V090 9999 FEW022 BKN027 13/10 Q1012

2010/08/10 10:50
EFKE 101050Z 36008KT 320V030 9999 BKN020 15/11 Q1010

2010/08/10 10:50
EFKI 101050Z 18005KT 130V230 9999 VCSH SCT015 SCT030CB BKN100 21/17 Q1009

2010/08/10 10:50
EFKS 101050Z AUTO 35002KT 9999 OVC008 15/13 Q1009

2010/08/10 10:50
EFKT 101050Z AUTO 04005KT 350V080 9999 OVC017 13/09 Q1012

2010/08/10 11:00
MROC 101100Z 04002KT 9999 4500WSW BR FEW002 BKN013 21/21 A3000 NOSIG

2010/08/10 10:50
EGDL 101050Z 22006KT 4500 RADZ BKN006 BKN011 OVC030 14/13 Q1010 YLO1 BECMG 5000 -RADZ BKN007 GRN

2010/08/10 10:50
EGDM 101050Z 23008KT 7000 -RADZ BKN008 BKN040 16/13 Q1011 GRN BECMG 3500 BKN006 YLO1

2010/08/10 10:50
EGDR 101050Z 24016G26KT 0200 -DZ FG SCT000 OVC002 17/16 Q1010 RED

2010/08/10 10:50
EGDX 101050Z 15006KT 2000 -RA BKN002 14/14 Q1010 AMB

2010/08/10 10:50
EGDY 101050Z 14006KT 9999 -RA BKN009 BKN030 14/14 Q1010 GRN

2010/08/10 10:50
EGOS 101050Z 24012KT 9999 BKN038 19/10 Q1008 BLU NOSIG

2010/08/10 10:50
EGOV 101050Z 23018KT 9999 FEW025 BKN045 16/13 Q1007 BLU NOSIG

2010/08/10 10:50
EGQK 101050Z 03006KT 9999 FEW022CB BKN120 14/10 Q1004 BLU TEMPO 7000 SHRA SCT020CB WHT

2010/08/10 10:50
EGQL 101050Z 35003KT 9999 -SHRA SCT019 BKN090 14/11 Q1004 WHT TEMPO 7000 SHRA SCT020 WHT

2010/08/10 10:50
EGQS 101050Z 05008KT 9999 FEW012 FEW018TCU SCT025 14/10 Q1004 BLU TEMPO SCT020 WHT

2010/08/10 10:50
EGUB 101050Z 20010KT 9999 -RA FEW015 BKN070 16/12 Q1010 BLU TEMPO 6000 SCT014 GRN

2010/08/10 10:50
EGUW 101050Z 22010KT 9999 -DZ FEW012 SCT022 BKN048 16/13 Q1009 WHT TEMPO FEW022 BLU

2010/08/10 10:50
EGVO 101050Z 22010KT 9999 SCT013 SCT045 BKN100 16/13 Q1011 GRN TEMPO 6000 -RA GRN

2010/08/10 10:50
EGVP 101050Z 25008KT 9999 VCSH SCT012 BKN035 16/13 Q1011 GRN TEMPO 4000 -RADZ SCT006 YLO1

2010/08/10 10:50
EGWU 101050Z 24008KT 9999 BKN013 BKN050 16/13 Q1010 GRN BECMG BKN015 WHT

2010/08/10 10:50
EGXC 101050Z 24012KT 9999 FEW030 SCT050 19/09 Q1007 BLU NOSIG

2010/08/10 10:50
EGXD 101050Z 23016KT 9999 FEW020 BKN060 16/11 Q1006 BLU NOSIG

2010/08/10 10:50
EGXE 101050Z 24014KT 9999 FEW034 BKN060 16/09 Q1006 BLU NOSIG

2010/08/10 10:50
EGXG 101050Z 27014KT 9999 FEW035 SCT070 18/09 Q1006 BLU

2010/08/10 10:50
EGXT 101050Z 22009KT 9999 FEW015 BKN120 16/13 Q1008 BLU NOSIG

2010/08/10 10:50
EGXU 101050Z 24015KT 9999 FEW033 BKN060 18/09 Q1006 BLU NOSIG

2010/08/10 10:50
EGXW 101050Z 27013KT 9999 SCT038 18/08 Q1007 BLU NOSIG

2010/08/10 10:50
EGYD 101050Z 25014KT 9999 FEW035 19/11 Q1008 BLU NOSIG

2010/08/10 10:50
EGYM 101050Z 23009KT 9999 -RA FEW015 SCT100 BKN130 16/13 Q1009 BLU NOSIG

2010/08/10 11:00
SVBC 101100Z 00000KT 9999 SCT010 SCT060 25/21 Q1013

2010/08/10 11:00
SBFI 101100Z 29002KT 8000 FEW006 SCT100 11/10 Q1021

2010/08/10 11:00
SBCR 101100Z 20003KT CAVOK 15/11 Q1018

2010/08/10 11:00
SBMO 101100Z 15004KT 9999 SCT020 24/19 Q1019 

2010/08/10 11:00
MNMG 101100Z 00000KT 8000 -TSRA FEW020CB SCT022 24/23 Q1010 A2984 CB/N/NE/E/SE/S/SW NOSIG

2010/08/10 11:00
SBAR 101100Z 12009KT 9999 SCT017 26/21 Q1019

2010/08/10 10:54
CYKL 101054Z AUTO 33010KT 3SM DZ OVC005 OVC019 08/08 A2975

2010/08/10 10:45
KSWF 101045Z 00000KT 6SM BR BKN060 22/21 A2998

2010/08/10 10:56
KSDF 101056Z 13003KT 6SM HZ CLR 27/23 A2995 RMK AO2 SLP135 T02720233 $ 

2010/08/10 10:55
KAAT 101055Z AUTO 00000KT 10SM BKN070 11/03 A3001 RMK AO2 SLP121 T01060028 TSNO 

2010/08/10 10:56
KABQ 101056Z 33005KT 10SM SCT120 21/09 A3015 RMK AO2 SLP112 T02110089 

2010/08/10 10:55
KQAR 101055Z AUTO 30008G16KT 10SM CLR 41/00 A2959 RMK AO2 SLP959 T04070002 $

2010/08/10 10:55
KQB6 101055Z AUTO VRB02KT 1 7/8SM +SHRA FEW010 SCT033 BKN038 BKN055 18/16 A2980 RMK AO2 LTG DSNT E SLP016 T01830162 PNO $

2010/08/10 10:55
KQC3 101055Z AUTO 17007KT 8000 CLR 29/09 A3002 RMK AO2 SLP052 T02930090 PNO $

2010/08/10 10:55
KQD9 101055Z 05003KT 9999 FEW034 SCT040CB SCT085 BKN140 26/19 A2981 RMK CB 15N-NE AND 7SE MOV NE SLP030 WND DATA ESTMD ALSTG/SLP ESTMD

2010/08/10 10:55
KQDD 101055Z AUTO VRB02KT 9999 SCT060 33/12 A2986 RMK AO2 SLP109

2010/08/10 10:55
KQDX 101055Z AUTO 30009G15KT 4400 HZ VCTS 40/M01 A2966 RMK AO2 SLP962 T04001008 $

2010/08/10 10:55
KQGX 101055Z 30013KT 9000 HZ CLR 47/11 A2947 RMK AO2A SLP978 $

2010/08/10 10:55
KQLD 101055Z AUTO VRB04KT 9999 SCT100 BKN120 BKN170 23/12 A3018 RMK AO2 SLP113 T02260120

2010/08/10 10:55
KQMG 101055Z AUTO 15010KT 10SM CLR 23/14 A3005 RMK AO2 SLP090 T02290144

2010/08/10 10:55
KQON 101055Z AUTO RMK AO2 SLPNO $

2010/08/10 10:55
KQTI 101055Z AUTO 29004KT 9999 CLR 44/02 A2967 RMK AO2 SLP020 T04410021

2010/08/10 10:55
KQTX 101055Z 29005G16KT 9999 FEW080 46/03 A2964 RMK SLP005

2010/08/10 10:55
KQTZ 101055Z 34009KT 9000 HZ CLR 48/03 A2956 RMK SLP005 QNH1001MB WND DATA ESTMD ALTSG/SLP ESTMD

2010/08/10 10:49
KMWN 101049Z 33026KT 35SM SCT/// FEW000 FEW200 09/08

2010/08/10 10:55
KVBG 101055Z AUTO 13003KT 10SM OVC001 12/11 A2991 RMK AO2 SLP118 T01170111 TSNO CHINO RWY12 VISNO RWY12 $ 

2010/08/10 11:00
SBFI 101100Z 29002KT 8000 FEW006 SCT100 11/10 Q1021

2010/08/10 10:45
KSWF 101045Z 00000KT 6SM BR BKN060 22/21 A2998

2010/08/10 10:54
KWAL 101054Z AUTO 28005KT 6SM BR CLR 25/23 A2997 RMK AO2 SLP144 T02500228 TSNO 

2010/08/10 10:56
KCHS 101056Z 00000KT 10SM FEW025 26/25 A3002 RMK AO2 SLP164 T02560250 

2010/08/10 10:56
TJSJ 101056Z 13004KT 10SM FEW022 SCT045 SCT070 27/24 A2996 RMK AO2 SLP143 T02720239 

2010/08/10 10:50
EFET 101050Z AUTO 09004KT 040V140 9999 BKN028 OVC033 13/09 Q1012

2010/08/10 10:50
EFIV 101050Z AUTO 04007KT 020V090 9999 FEW022 BKN027 13/10 Q1012

2010/08/10 10:50
EFKE 101050Z 36008KT 320V030 9999 BKN020 15/11 Q1010

2010/08/10 10:50
EFKI 101050Z 18005KT 130V230 9999 VCSH SCT015 SCT030CB BKN100 21/17 Q1009

2010/08/10 10:50
EFKS 101050Z AUTO 35002KT 9999 OVC008 15/13 Q1009

2010/08/10 10:50
EFKT 101050Z AUTO 04005KT 350V080 9999 OVC017 13/09 Q1012

2010/08/10 10:50
HLLT 101050Z 02004KT 330V140 CAVOK 32/10 Q1016

2010/08/10 11:00
FNLU 101100Z 27004KT 9999 FEW016 BKN024 25/19 Q1015 NSG

2010/08/10 10:50
LIBD 101050Z 01009KT 340V050 CAVOK 28/17 Q1014

2010/08/10 10:45
LIBR 101045Z 33018G28KT 9999 FEW018CB 26/22 Q1013 NOSIG

2010/08/10 10:50
LICC 101050Z 07010KT CAVOK 29/17 Q1015

2010/08/10 10:50
LICJ 101050Z 04015KT CAVOK 27/20 Q1015

2010/08/10 10:50
LIPE 101050Z VRB02KT 9999 FEW050 29/19 Q1015

2010/08/10 10:45
LIPH 101045Z 33002KT 9999 FEW020 28/19 Q1016

2010/08/10 10:50
LIPK 101050Z VRB02KT 9999 FEW020 28/18 Q1015

2010/08/10 10:50
LIPQ 101050Z VRB03KT CAVOK 29/18 Q1015

2010/08/10 10:45
LIPR 101045Z 03007KT 9999 FEW025 27/25 Q1015

2010/08/10 10:45
LIPX 101045Z 14004KT 9999 FEW050 29/16 Q1016

2010/08/10 10:50
LIPZ 101050Z 12004KT 9999 FEW025 28/21 Q1015

2010/08/10 10:50
EGWU 101050Z 24008KT 9999 BKN013 BKN050 16/13 Q1010 BECMG BKN015

2010/08/10 10:55
EHDL 101055Z AUTO 20008KT 9999NDV OVC170 20/14 Q1013 BLU

2010/08/10 10:55
EHEH 101055Z AUTO 20007KT 9999NDV OVC170 22/14 Q1013 BLU BLU NOSIG

2010/08/10 10:55
EHGR 101055Z AUTO 20008KT 9999NDV OVC170 21/15 Q1012 BLU BLU

2010/08/10 10:55
EHLW 101055Z AUTO 20013KT 9999NDV SCT015 BKN019 BKN023 19/15 Q1011 WHT WHT TEMPO GRN FEW012 SCT023 TEMPO SCT012 BKN 020

2010/08/10 10:55
EHVK 101055Z AUTO 20007KT 9999NDV OVC190 21/14 Q1013 BLU BLU NOSIG

2010/08/10 10:55
EHVL 101055Z AUTO 20020KT 9999NDV FEW011 SCT013 BKN016 19/16 Q1010 GRN

2010/08/10 10:55
EHWO 101055Z AUTO 20008KT //// R//////// // OVC150 22/14 Q1012 RE// BLU TEMPO WHT OVC200 TEMPO SCT022

2010/08/10 10:50
LGAD 101050Z 32009KT 9999 FEW020 32/21 Q1011

2010/08/10 10:50
LGAV 101050Z 03019KT 9999 SCT025 34/17 Q1010 NOSIG

2010/08/10 10:50
LGIR 101050Z 31016KT 9999 FEW020 31/24 Q1008 NOSIG

2010/08/10 10:50
LGKL 101050Z 18010KT 9999 FEW030 31/21 Q1009

2010/08/10 10:50
LGKO 101050Z 30010KT CAVOK 33/22 Q1006

2010/08/10 10:50
LGKR 101050Z 11005KT 9999 FEW020 33/18 Q1010 NOSIG

2010/08/10 10:50
LGLM 101050Z 02011KT 9999 FEW020 31/19 Q1010

2010/08/10 10:50
LGRP 101050Z 25013KT 8000 NSC 31/26 Q1005 NOSIG

2010/08/10 10:50
LGSA 101050Z 32016KT 9999 FEW030 32/21 Q1010

2010/08/10 10:50
LGSM 101050Z 01010KT CAVOK 35/18 Q1005

2010/08/10 10:50
LGTS 101050Z 28010KT CAVOK 31/18 Q1012 NOSIG

2010/08/10 11:00
SVMI 101100Z 00000KT 9999 FEW016 BKN300 28/24 Q1011 NOSIG

2010/08/10 10:55
KADW 101055Z AUTO 24005KT 10SM CLR 24/21 A2995 RMK AO2 SLP141 T02410211 $

2010/08/10 10:54
KAPG 101054Z 00000KT 7SM SCT080 25/23 A2994

2010/08/10 10:55
KBAB 101055Z AUTO 00000KT 10SM CLR 17/12 A2981 RMK AO2 SLP094 T01670117 $

2010/08/10 10:55
KBKF 101055Z 21006KT 25SM FEW120 15/12 A3012 RMK SLP139

2010/08/10 10:55
KCOF 101055Z AUTO 12008KT 10SM CLR 26/ A2992 RMK AO2 SLP132 T0262

2010/08/10 10:55
KDOV 101055Z AUTO 21007KT 10SM CLR 24/24 A2992 RMK AO2 SLP132 T02440242

2010/08/10 10:55
KFBG 101055Z VRB03KT 10SM OVC003 25/24 A3002 RMK AO2A SLP163 T02460239 $

2010/08/10 10:55
KFCS 101055Z AUTO 35005KT 10SM CLR 15/11 A3015 RMK AO2 SLP132 T01520114

2010/08/10 10:55
KFMH 101055Z AUTO 22004KT 3SM BR FEW100 22/21 A2993 RMK AO2

2010/08/10 10:55
KFTK 101055Z AUTO 00000KT 9SM CLR 25/24 A2997 RMK AO2 SLP142 T02460245 $

2010/08/10 10:55
KHIF 101055Z AUTO 10012KT 10SM CLR 17/02 A3002 RMK AO2 SLP065 T01730023

2010/08/10 10:55
KLFI 101055Z 26007KT 10SM SCT055 25/23 A2997 RMK AO2A SLP151 T02520229

2010/08/10 10:55
KLHW 101055Z AUTO 00000KT 10SM CLR 24/23 A2999 RMK AO2 SLP155 T02380233

2010/08/10 10:55
KLTS 101055Z AUTO 00000KT 10SM CLR 23/20 A2991 RMK AO2 SLP108 T02270200 $

2010/08/10 10:55
KMTC 101055Z 00000KT 1 1/2SM BR CLR 20/20 A2995 RMK VIS N 2 S 1 SLP147

2010/08/10 10:55
KMUI 101055Z 00000KT 5SM BR BKN130 OVC170 23/22 A2995 RMK AO2A SLP139 T02260221 $

2010/08/10 10:55
KMUO 101055Z AUTO 16008KT 10SM BKN150 16/15 A2986 RMK AO2 SLP086 T01590145

2010/08/10 10:55
BGTL 101055Z AUTO 00000KT 9999 CLR 05/03 A2979 RMK AO2 SLP093 T00510029

2010/08/10 10:55
ETOU 101055Z AUTO 00000KT 9999 CLR 25/15 A3000 RMK AO2 SLP157 T02460147

2010/08/10 10:54
KAPG 101054Z 00000KT 7SM SCT080 25/23 A2994

2010/08/10 10:55
KDLF 101055Z AUTO 09006KT 10SM FEW020 BKN041 27/23 A2992 RMK AO2 SLP112 T02660228

2010/08/10 10:55
KFCS 101055Z AUTO 35005KT 10SM CLR 15/11 A3015 RMK AO2 SLP132 T01520114

2010/08/10 10:55
KFTK 101055Z AUTO 00000KT 9SM CLR 25/24 A2997 RMK AO2 SLP142 T02460245 $

2010/08/10 10:55
KHIF 101055Z AUTO 10012KT 10SM CLR 17/02 A3002 RMK AO2 SLP065 T01730023

2010/08/10 10:55
KLFI 101055Z 26007KT 10SM SCT055 25/23 A2997 RMK AO2A SLP151 T02520229

2010/08/10 10:55
KMUI 101055Z 00000KT 5SM BR BKN130 OVC170 23/22 A2995 RMK AO2A SLP139 T02260221 $

2010/08/10 10:55
KMUO 101055Z AUTO 16008KT 10SM BKN150 16/15 A2986 RMK AO2 SLP086 T01590145

2010/08/10 10:55
KVAD 101055Z AUTO 08004KT 10SM CLR 24/24 A2998 RMK AO2 SLP149 T02400237 $

2010/08/10 10:55
KXMR 101055Z AUTO 11006KT 10SM SCT024 BKN032 26/24 A2992 RMK AO2 SLP132 T02620243

2010/08/10 10:50
OAKN 101050Z 27014KT 8000 DU SCT150 BKN250 38/01 Q1006 BLU TEMPO 6000 WHT RMK A2970 DA6900

2010/08/10 10:55
PHHI 101055Z AUTO 08008KT 10SM BKN046 23/17 A3011 RMK AO2 SLP182 T02290171 $

2010/08/10 10:58
ROTM 101058Z 18009KT 9999 FEW010 BKN100 27/26 A2984 RMK SLP088 XWND ADV T02720256

2010/08/10 10:50
EGDM 101050Z 23008KT 7000 -RADZ BKN008 BKN040 16/13 Q1011 GRN BECMG 3500 BKN006 YLO1

2010/08/10 10:50
EGDY 101050Z 14006KT 9999 -RA BKN009 BKN030 14/14 Q1010 GRN

2010/08/10 10:50
EGOV 101050Z 23018KT 9999 FEW025 BKN045 16/13 Q1007 BLU NOSIG

2010/08/10 10:50
EGQL 101050Z 35003KT 9999 -SHRA SCT019 BKN090 14/11 Q1004 WHT TEMPO 7000 SHRA SCT020 WHT

2010/08/10 10:50
EGQS 101050Z 05008KT 9999 FEW012 FEW018TCU SCT025 14/10 Q1004 BLU TEMPO SCT020 WHT

2010/08/10 10:50
EGUB 101050Z 20010KT 9999 -RA FEW015 BKN070 16/12 Q1010 BLU TEMPO 6000 SCT014 GRN

2010/08/10 10:50
EGUW 101050Z 22010KT 9999 -DZ FEW012 SCT022 BKN048 16/13 Q1009 WHT TEMPO FEW022 BLU

2010/08/10 10:50
EGVP 101050Z 25008KT 9999 VCSH SCT012 BKN035 16/13 Q1011 GRN TEMPO 4000 -RADZ SCT006 YLO1

2010/08/10 10:50
EGWU 101050Z 24008KT 9999 BKN013 BKN050 16/13 Q1010 GRN BECMG BKN015 WHT

2010/08/10 10:50
EGXE 101050Z 24014KT 9999 FEW034 BKN060 16/09 Q1006 BLU NOSIG

2010/08/10 10:50
EGXU 101050Z 24015KT 9999 FEW033 BKN060 18/09 Q1006 BLU NOSIG

2010/08/10 10:50
EGYM 101050Z 23009KT 9999 -RA FEW015 SCT100 BKN130 16/13 Q1009 BLU NOSIG

2010/08/10 10:55
ETAD 101055Z AUTO 18013G18KT 9999 CLR 26/10 A3000 RMK AO2 SLPNO T02630100 VISNO RWY05 CHINO RWY05 $

2010/08/10 10:55
ETAR 101055Z AUTO 20007KT 160V230 9999 CLR 25/14 A3000 RMK AO2 SLP155 T02510142 $

2010/08/10 10:56
ETIC 101056Z AUTO 00000KT 9999 FEW180 20/20 A3007 RMK AO2 SLP176 T01960196

2010/08/10 10:55
ETOU 101055Z AUTO 00000KT 9999 CLR 25/15 A3000 RMK AO2 SLP157 T02460147

2010/08/10 10:55
LIYW 101055Z AUTO 15003KT 9999 CLR 28/17 A3000 RMK AO2 SLP157 T02820171

2010/08/10 10:50
EGBE 101050Z 22012KT 9999 SCT016 SCT045 17/14 Q1009

2010/08/10 10:50
EGGD 101050Z 22004KT 200V260 2500 DZRA FEW004 BKN011 13/13 Q1010

2010/08/10 10:50
EGKA 101050Z 25009KT 9999 SCT012 17/15 Q1011

2010/08/10 10:50
EGKB 101050Z 23006KT 190V270 9999 FEW010 SCT040 16/13 Q1011

2010/08/10 10:50
EGLF 101050Z 26007KT 9999 FEW014 SCT040 16/13 Q1011

2010/08/10 10:50
EGMC 101050Z 26007KT 9999 FEW011 SCT014 17/15 Q1010

2010/08/10 10:50
EGMH 101050Z 22010KT 6000 RA BKN006 18/18 Q1011

2010/08/10 10:50
EGNS 101050Z 24017KT 9999 SCT017 16/12 Q1005 NOSIG

2010/08/10 10:50
EGNT 101050Z 24011KT 200V270 9999 FEW025 SCT045 19/08 Q1004

2010/08/10 10:50
EGNV 101050Z 24015KT 9999 SCT038 17/09 Q1005

2010/08/10 10:50
EGNX 101050Z 24011KT 9999 FEW030 SCT040 18/10 Q1008

2010/08/10 10:50
EGPB 101050Z VRB02KT 9999 3400S VCFG FEW002 BKN004 13/12 Q1005

2010/08/10 10:50
EGSC 101050Z 23008KT 190V270 9999 SCT015 SCT048 17/13 Q1009

2010/08/10 10:50
EGSH 101050Z 24012KT 9999 -RA FEW039 17/13 Q1009

2010/08/10 10:50
EGTE 101050Z 16011KT 6000 -RADZ SCT006 BKN012 16/15 Q1010

2010/08/10 10:50
EGUB 101050Z 20010KT 9999 -RA FEW015 BKN070 16/12 Q1010 BLU TEMPO 6000 SCT014 GRN

2010/08/10 10:55
EGUL 101055Z AUTO 22008KT 9999 SCT017 17/13 A2979 RMK AO2 RAE1000B1025E1045DZB1000E1003B1023E1025 SLP090 P0000 T01700133

2010/08/10 10:55
EGUN 101055Z AUTO 23011KT 9999 FEW040 BKN095 17/16 A2980 RMK AO2 RAE1003B1023E1043 SLP080 P0000 T01710165

2010/08/10 10:50
EGVP 101050Z 25008KT 9999 VCSH SCT012 BKN035 16/13 Q1011 GRN TEMPO 4000 -RADZ SCT006 YLO1

2010/08/10 10:50
EGWU 101050Z 24008KT 9999 BKN013 BKN050 16/13 Q1010 GRN BECMG BKN015 WHT

2010/08/10 10:50
EGXU 101050Z 24015KT 9999 FEW033 BKN060 18/09 Q1006 BLU NOSIG

2010/08/10 11:00
MGGT 101100Z 03008KT 9999 BKN014 18/16 Q1022 A3018 VOL/ PACAYA EN ACTI VIDAD NOSIG

2010/08/10 10:49
MMAA 101049Z 00000KT 8SM FEW015 SCT080 SCT300 26/24 A2979 RMK 8/272 OCNL LTG SW

2010/08/10 10:54
MMCN 101054Z 00000KT 10SM FEW200 28/23 A2974 RMK 8/005 RTS

2010/08/10 10:47
MMHO 101047Z 00000KT 10SM SCT080 30/22 A2981 RMK 8/030 HZY ISOL CI

2010/08/10 10:54
MMLM 101054Z 00000KT 10SM SCT100 29/21 A2979 RMK 8/030 RTS

2010/08/10 10:50
MMQT 101050Z 02003KT 6SM BKN020 OVC100 17/16 A3025 RMK 8/47/

2010/08/10 10:55
MMRX 101055Z 00000KT 8SM SKC 27/25 A2987 RMK HZY RTS

2010/08/10 10:52
MMTM 101052Z 00000KT 5SM SCT200 27/25 A2987 RMK 8/001 HZY RTS

2010/08/10 11:00
MNMG 101100Z 00000KT 8000 -TSRA FEW020CB SCT022 24/23 Q1010 A2984 CB/N/NE/E/SE/S/SW NOSIG

2010/08/10 11:00
MROC 101100Z 04002KT 9999 4500WSW BR FEW002 BKN013 21/21 A3000 NOSIG

2010/08/10 10:55
PAEI 101055Z AUTO 00000KT 10SM SCT085 OVC100 12/10 A2964 RMK AO2 SLP038 T01200101 $

2010/08/10 10:55
PGUA 101055Z AUTO 08006KT 10SM SCT018 BKN030 26/25 A2996 RMK AO2 SCT V BKN CIG 016 RWY24L SLP127 T02640253 $

2010/08/10 10:55
PHHI 101055Z AUTO 08008KT 10SM BKN046 23/17 A3011 RMK AO2 SLP182 T02290171 $

2010/08/10 10:55
RKSO 101055Z 08006KT 9000 -RA FEW015 BKN025 26/24 A2971 RMK AO2A RAB1044DZE1047 SLP062 P0002 T0255 $

2010/08/10 10:55
RODN 101055Z 15009KT 9999 FEW021 SCT220 28/26 A2982 RMK AO2A RAB1015E1034 SLP099 P0000 T02810263

2010/08/10 11:00
SVMI 101100Z 00000KT 9999 FEW016 BKN300 28/24 Q1011 NOSIG

2010/08/10 10:55
KADW 101055Z AUTO 24005KT 10SM CLR 24/21 A2995 RMK AO2 SLP141 T02410211 $

2010/08/10 10:55
KBIX 101055Z AUTO 04005KT 10SM CLR 25/25 A2993 RMK AO2 SLP138 T02520246 $

2010/08/10 10:55
KCOF 101055Z AUTO 12008KT 10SM CLR 26/ A2992 RMK AO2 SLP132 T0262

2010/08/10 10:53
KDAB 101053Z 11005KT 10SM FEW020 SCT120 SCT250 27/23 A2993 RMK AO2 SLP135 T02670233

2010/08/10 10:55
KDOV 101055Z AUTO 21007KT 10SM CLR 24/24 A2992 RMK AO2 SLP132 T02440242

2010/08/10 10:55
KLFI 101055Z 26007KT 10SM SCT055 25/23 A2997 RMK AO2A SLP151 T02520229

2010/08/10 10:53
KNIP 101053Z 11010KT 10SM FEW012 SCT250 27/24 A2995 RMK AO2 SLP136 T02670239

2010/08/10 10:54
KNKT 101054Z AUTO 25004KT 10SM BKN075 25/24 A3002 RMK AO2 SLP163 T02500239

2010/08/10 10:53
KNQX 101053Z 23005KT 8SM -RA BKN010 BKN020 BKN040 BKN140 26/23 A2985 RMK AO2 SLP105 T1 SET P0011 T02560233 $

2010/08/10 10:54
KPHL 101054Z 20003KT 9SM FEW100 BKN150 BKN200 26/22 A2993 RMK AO2 SLP135 T02560222 $

2010/08/10 10:55
KPOB 101055Z AUTO 23005KT 10SM OVC004 24/24 A3002 RMK AO2 SLP166 T02420242 $

2010/08/10 10:53
KSAV 101053Z 00000KT 10SM FEW015 SCT025 SCT250 25/24 A3000 RMK AO2 SLP158 T02500239

2010/08/10 10:55
KSSC 101055Z 00000KT 6SM BR OVC002 24/23 A3001 RMK AO2A SLP162 T02380230 $

2010/08/10 10:54
KSYR 101054Z 00000KT 5SM BR SCT024 BKN041 BKN055 22/21 A2994 RMK AO2 SLP134 T02170206

2010/08/10 10:55
KVAD 101055Z AUTO 08004KT 10SM CLR 24/24 A2998 RMK AO2 SLP149 T02400237 $

2010/08/10 10:52
MMVR 101052Z 00000KT 7SM SCT250 25/24 A2986 RMK 8/001 HZY

2010/08/10 10:56
CYUA 101056Z AUTO 27010KT 9SM -RA FEW001 FEW006 FEW051 SCT064 11/ A2966

2010/08/10 10:55
CYHE 101055Z AUTO 10002KT 9SM BKN009 OVC021 15/14 A2992

2010/08/10 11:00
FIMP 101100Z 08011KT 9999 SCT019 25/16 Q1022

2010/08/10 11:00
TBPB 101100Z 15005KT 9999 FEW020 SCT280 27/24 Q1014 NOSIG

2010/08/10 10:56
KCAE 101056Z 00000KT 1/2SM FG OVC002 24/23 A3002 RMK AO2 SLP162 T02390233 RVRNO 

2010/08/10 10:50
EGDL 101050Z 22006KT 4500 RADZ BKN006 BKN011 OVC030 14/13 Q1010 YLO1 BECMG 5000 -RADZ BKN007 GRN

2010/08/10 10:50
EGDR 101050Z 24016G26KT 0200 -DZ FG SCT000 OVC002 17/16 Q1010 RED

2010/08/10 10:50
EGDX 101050Z 15006KT 2000 -RA BKN002 14/14 Q1010 AMB

2010/08/10 10:50
EGOS 101050Z 24012KT 9999 BKN038 19/10 Q1008 BLU NOSIG

2010/08/10 10:50
EGQK 101050Z 03006KT 9999 FEW022CB BKN120 14/10 Q1004 BLU TEMPO 7000 SHRA SCT020CB WHT

2010/08/10 10:50
EGVO 101050Z 22010KT 9999 SCT013 SCT045 BKN100 16/13 Q1011 GRN TEMPO 6000 -RA GRN

2010/08/10 10:50
EGXC 101050Z 24012KT 9999 FEW030 SCT050 19/09 Q1007 BLU NOSIG

2010/08/10 10:50
EGXD 101050Z 23016KT 9999 FEW020 BKN060 16/11 Q1006 BLU NOSIG

2010/08/10 10:50
EGXG 101050Z 27014KT 9999 FEW035 SCT070 18/09 Q1006 BLU

2010/08/10 10:50
EGXT 101050Z 22009KT 9999 FEW015 BKN120 16/13 Q1008 BLU NOSIG

2010/08/10 10:50
EGXW 101050Z 27013KT 9999 SCT038 18/08 Q1007 BLU NOSIG

2010/08/10 10:50
EGYD 101050Z 25014KT 9999 FEW035 19/11 Q1008 BLU NOSIG

2010/08/10 10:50
LGAD 101050Z 32009KT 9999 FEW020 32/21 Q1011

2010/08/10 10:50
LGIR 101050Z 31016KT 9999 FEW020 31/24 Q1008 NOSIG

2010/08/10 10:50
LGKF 101050Z 27006KT 9999 FEW025 30/19 Q1011

2010/08/10 10:50
LGKL 101050Z 18010KT 9999 FEW030 31/21 Q1009

2010/08/10 10:50
LGKO 101050Z 30010KT CAVOK 33/22 Q1006

2010/08/10 10:50
LGKR 101050Z 11005KT 9999 FEW020 33/18 Q1010 NOSIG

2010/08/10 10:50
LGKZ 101050Z 33008KT 9999 FEW020 29/12 Q1016

2010/08/10 10:50
LGLM 101050Z 02011KT 9999 FEW020 31/19 Q1010

2010/08/10 10:50
LGMK 101050Z 35021G32KT 9999 FEW012 30/22 Q1008

2010/08/10 10:50
LGRP 101050Z 25013KT 8000 NSC 31/26 Q1005 NOSIG

2010/08/10 10:50
LGSA 101050Z 32016KT 9999 FEW030 32/21 Q1010

2010/08/10 10:50
LGSM 101050Z 01010KT CAVOK 35/18 Q1005

2010/08/10 10:50
LGSO 101050Z 35013KT 9999 FEW020 30/22 Q1008

2010/08/10 10:50
LGTS 101050Z 28010KT CAVOK 31/18 Q1012 NOSIG

2010/08/10 10:56
KNTU 101056Z 24005KT 10SM FEW050 SCT200 24/23 A2997 RMK AO2 SLP152 T02440233 $ 

2010/08/10 10:56
KNCA 101056Z 25003KT 10SM FEW025 SCT150 24/24 A3003 RMK AO2 SLP169 T02440239 $ 

2010/08/10 10:56
KNFE 101056Z AUTO 00000KT 1 1/4SM HZ CLR 24/21 A2999 RMK AO2 SLP156 T02390211 $ 

2010/08/10 10:56
KGNA 101056Z AUTO 00000KT 17/16 A2995 RMK AO2 SLP140 T01720156 PWINO TSNO 

2010/08/10 10:56
KGNR 101056Z AUTO 00000KT 17/16 A2989 RMK AO1 SLP119 T01720156 

2010/08/10 10:56
KCDJ 101056Z AUTO 00000KT 26/ A2993 RMK AO2 SLP116 T0256 PWINO TSNO $ 

2010/08/10 10:56
KNYG 101056Z 00000KT 7SM CLR 24/21 A2996 RMK AO2 SLP145 T02440206 $ 

2010/08/10 10:56
KP28 101056Z AUTO 18003KT 25/18 A2988 RMK AO2 SLP097 T02500178 PWINO TSNO 

2010/08/10 10:56
KNLC 101056Z AUTO 32007KT 10SM CLR 19/12 A2981 RMK AO2 SLP092 T01940122 TSNO 

2010/08/10 10:56
KABH 101056Z AUTO 18003KT 10SM CLR 12/10 A3016 RMK AO2 SLP144 T01170100 $ 

2010/08/10 10:56
KMHS 101056Z AUTO 00000KT 10SM CLR 12/08 A2996 RMK AO2 SLP132 T01170078 TSNO 

2010/08/10 10:56
KNUQ 101056Z AUTO 00000KT 10SM OVC012 16/12 A2988 RMK AO2 SLP122 T01560122 TSNO 

2010/08/10 10:50
EBBR 101050Z 22008KT 180V250 CAVOK 22/11 Q1014 NOSIG

2010/08/10 10:50
EBOS 101050Z 20013KT 9999 FEW020 BKN045 20/14 Q1012 TEMPO 4500 RA BKN012

2010/08/10 10:55
EHAM 101055Z 20012KT 9999 BKN019 20/15 Q1011 NOSIG

2010/08/10 10:55
EHBK 101055Z AUTO 25007KT 200V290 9999NDV NSC 24/12 Q1013 NOSIG

2010/08/10 10:55
EHDL 101055Z AUTO 20008KT 9999NDV OVC170 20/14 Q1013 BLU

2010/08/10 10:55
EHGG 101055Z AUTO 21012KT 180V250 9999NDV SCT022 BKN025 20/15 Q1012 NOSIG

2010/08/10 10:55
EHGR 101055Z AUTO 20008KT 9999NDV OVC170 21/15 Q1012 BLU BLU

2010/08/10 10:55
EHLW 101055Z AUTO 20013KT 9999NDV SCT015 BKN019 BKN023 19/15 Q1011 WHT WHT TEMPO GRN FEW012 SCT023 TEMPO SCT012 BKN 020

2010/08/10 10:55
EHRD 101055Z 19011KT 150V220 9999 FEW022 BKN027 21/15 Q1011 NOSIG

2010/08/10 10:55
EHVK 101055Z AUTO 20007KT 9999NDV OVC190 21/14 Q1013 BLU BLU NOSIG

2010/08/10 10:55
EHVL 101055Z AUTO 20020KT 9999NDV FEW011 SCT013 BKN016 19/16 Q1010 GRN

2010/08/10 10:55
EHWO 101055Z AUTO 20008KT //// R//////// // OVC150 22/14 Q1012 RE// BLU TEMPO WHT OVC200 TEMPO SCT022

2010/08/10 10:50
ELLX 101050Z 20006KT 140V260 CAVOK 24/11 Q1015 NOSIG

2010/08/10 10:55
ETAD 101055Z AUTO 18013G18KT 9999 CLR 26/10 A3000 RMK AO2 SLPNO T02630100 VISNO RWY05 CHINO RWY05 $

2010/08/10 10:55
ETAR 101055Z AUTO 20007KT 160V230 9999 CLR 25/14 A3000 RMK AO2 SLP155 T02510142 $

2010/08/10 10:55
ETEB 101055Z AUTO 00000KT 9999 SCT065 SCT080 SCT170 22/09 A3007 RMK AO2 SLP170 T02170093

2010/08/10 10:56
ETIC 101056Z AUTO 00000KT 9999 FEW180 20/20 A3007 RMK AO2 SLP176 T01960196

2010/08/10 10:55
ETOR 101055Z 14006KT 9999 FEW040 SCT200 29/13 A3000 RMK BLU

2010/08/10 10:55
ETOU 101055Z AUTO 00000KT 9999 CLR 25/15 A3000 RMK AO2 SLP157 T02460147

2010/08/10 10:50
EFKI 101050Z 18005KT 130V230 9999 VCSH SCT015 SCT030CB BKN100 21/17 Q1009

2010/08/10 10:55
KFHU 101055Z 23005KT 10SM SKC 22/14 A3009 RMK SLP115

2010/08/10 10:55
KFRI 101055Z AUTO VRB05KT 10SM CLR 28/20 A2984 RMK AO2 SLP084 T02750203

2010/08/10 10:55
KGRK 101055Z 17005KT 7SM FEW060 27/23 A2993 RMK SLP111

2010/08/10 10:55
KMCF 101055Z AUTO 07012KT 10SM SCT009 25/25 A2987 RMK AO2 SLP116 T02500248

2010/08/10 10:55
KMIB 101055Z AUTO 10005KT 10SM FEW120 19/17 A2983 RMK AO2 LTG DSNT NW SLP095 T01880169

2010/08/10 10:52
KNZY 101052Z 00000KT 10SM OVC013 19/13 A2989 RMK AO2 SLP122 T01940133 $

2010/08/10 10:55
KPAM 101055Z AUTO 07005KT 10SM CLR 25/24 A2991 RMK AO2 SLP130 T02510242 $

2010/08/10 10:55
KPSM 101055Z 31006KT 4SM SCT140 21/21 A2988 RMK AO2A SLP121 T02120205

2010/08/10 10:55
KSKA 101055Z AUTO 22010KT 10SM BKN120 OVC160 15/09 A2981 RMK AO2 SLP082 T01500086

2010/08/10 10:55
KTCM 101055Z AUTO 22007KT 10SM OVC009 13/11 A2997 RMK AO2 CIG 009V012 SLP149 T01300106

2010/08/10 11:00
MNMG 101100Z 00000KT 8000 -TSRA FEW020CB SCT022 24/23 Q1010 A2984 CB/N/NE/E/SE/S/SW NOSIG

2010/08/10 11:00
MROC 101100Z 04002KT 9999 4500WSW BR FEW002 BKN013 21/21 A3000 NOSIG

2010/08/10 10:56
MUGM 101056Z 36007KT 9999 FEW028CB BKN250 26/23 A2992 RMK SLP130 CB DSNT E TCU DSNT NE T02560228

2010/08/10 10:55
OAHR 101055Z 01012G22KT //// // ////// 35/M02 Q1009 RMK SKC VIS MNI 9999 BLU

2010/08/10 11:00
ORSU 101100Z 33019KT 9999 FEW045 42/02 Q1009

2010/08/10 11:00
SBCB 101100Z 18003KT 9000 SCT030 BKN070 20/16 Q1024

2010/08/10 10:55
KPVF 101055Z AUTO 10007KT 10SM CLR 18/09 A2992 RMK AO1

2010/08/10 10:55
KRCE 101055Z AUTO 18008KT 10SM CLR 25/20 A2991 RMK AO2

2010/08/10 10:56
KRDM 101056Z AUTO 00000KT 10SM CLR 09/04 A2995 RMK AO2 SLP121 T00890039

2010/08/10 10:56
KSBP 101056Z 30003KT 10SM OVC004 13/12 A2989 RMK AO2 SLP121 T01280117 $

2010/08/10 10:56
KSFO 101056Z 25003KT 10SM OVC008 14/11 A2989 RMK AO2 SLP120 T01390106

2010/08/10 10:56
KSLE 101056Z AUTO 00000KT 10SM BKN018 BKN042 12/09 A2997 RMK AO2 SLP149 T01170094 TSNO

2010/08/10 10:55
KSMS 101055Z AUTO 00000KT M1/4SM FG OVC001 23/23 A3004 RMK AO2

2010/08/10 10:56
KSRC 101056Z AUTO 00000KT 1 3/4SM BR CLR 26/26 A2993 RMK AO2 TSNO T02610255 SLP135

2010/08/10 10:56
KTPH 101056Z AUTO 36008KT 10SM CLR 12/M11 A3006 RMK AO2 SLP116 T01171111

2010/08/10 10:56
KUKI 101056Z AUTO 00000KT 10SM CLR 13/11 A2986 RMK AO2 SLP103 T01280106

2010/08/10 10:56
KWJF 101056Z 28007KT 10SM CLR 19/M02 A2990 RMK AO2 SLP103 T01891022

2010/08/10 10:56
PAAK 101056Z AUTO 29006KT 1 3/4SM OVC003 08/06 A2991 RMK AO1 PNO

2010/08/10 10:56
PACM 101056Z AUTO VRB04KT 10SM FEW014 SCT020 OVC060 10/08 A2936 RMK AO2 TSNO T01000083 RAE50 P0001 SLP937 $

2010/08/10 10:56
PAHP 101056Z AUTO 21009KT 10SM OVC008 10/07 A2933 RMK AO1 PNO TSNO

2010/08/10 10:55
K0A9 101055Z AUTO 07004KT 8SM FEW100 21/19 A3008 RMK

2010/08/10 10:56
K1M4 101056Z AUTO 00000KT 2SM BR CLR 23/23 A3003 RMK AO2 T02270227 SLP165

2010/08/10 10:56
KAND 101056Z AUTO 00000KT 5SM BR CLR 23/21 A3004 RMK AO2 SLP161 T02280206

2010/08/10 10:55
KARW 101055Z AUTO 14003KT 10SM CLR 26/23 A3000 RMK AO2

2010/08/10 10:55
KBDN 101055Z AUTO 00000KT 10SM CLR 09/03 A2998 RMK AO2

2010/08/10 10:55
KBIX 101055Z AUTO 04005KT 10SM CLR 25/25 A2993 RMK AO2 SLP138 T02520246 $

2010/08/10 10:55
KBKN 101055Z AUTO 14004KT 10SM CLR 24/21 A2987 RMK AO2

2010/08/10 10:56
KCEC 101056Z AUTO 24003KT 1 1/2SM BR OVC002 12/11 A2992 RMK AO2 SLP131 T01170111

2010/08/10 10:56
KDIK 101056Z AUTO 19009KT 10SM CLR 19/16 A2980 RMK AO2 SLP072 T01940156

2010/08/10 10:56
KDUG 101056Z AUTO 02003KT 10SM CLR 19/17 A3005 RMK AO2 SLP100 T01890167

2010/08/10 10:56
KDUJ 101056Z AUTO 00000KT 3SM BR FEW050 OVC080 20/18 A3002 RMK AO2 SLP150 T02000178

2010/08/10 10:56
KEAU 101056Z 00000KT 1 1/2SM BR CLR 19/19 A2997 RMK AO2 TWR VIS 3 SLP141 T01940194

2010/08/10 10:56
KEED 101056Z AUTO 24003KT 10SM CLR 28/M03 A2979 RMK AO2 SLP050 T02831028 TSNO

2010/08/10 10:55
KEIK 101055Z AUTO 00000KT 10SM CLR 13/12 A3008 RMK AO2

2010/08/10 10:55
KFAF 101055Z AUTO 23003KT 10SM SCT060 SCT080 25/25 A2997 RMK AO2 SLP150 T02520252 $

2010/08/10 10:55
KGGE 101055Z AUTO 00000KT 10SM CLR 23/23 A3002 RMK AO2

2010/08/10 10:56
KGRD 101056Z AUTO 00000KT 10SM CLR 22/21 A3005 RMK AO2 SLP168 T02220211

2010/08/10 10:55
KGUS 101055Z AUTO 13004KT 7SM FEW100 24/24 A2996 RMK AO2 RAB1025E1036DZB1011E1020B1036E1040 SLP138 P0001 T02380238

2010/08/10 10:55
KHFF 101055Z AUTO 00000KT 10SM BKN002 22/22 A3004 RMK AO2 SLP170 T02230216 $

2010/08/10 10:56
KHND 101056Z AUTO 21008KT 10SM CLR 24/M04 A2989 RMK AO2 T02441044 SLP067

2010/08/10 10:50
KHXD 101050Z 00000KT 8SM SCT008 26/24 A3001

2010/08/10 10:56
KINW 101056Z AUTO 15005KT 10SM FEW100 17/10 A3013 RMK AO2 SLP133 T01670100 $

2010/08/10 10:56
KJMS 101056Z AUTO 00000KT 8SM SCT011 BKN033 20/19 A2989 RMK AO2 SLP111 T02000189

2010/08/10 10:56
KLAS 101056Z 18005KT 10SM CLR 26/M02 A2983 RMK AO2 SLP072 T02561022

2010/08/10 10:47
KLBE 101047Z 21003KT 6SM BR FEW110 SCT200 19/18 A3001

2010/08/10 10:56
KLNR 101056Z AUTO 00000KT M1/4SM FG VV001 23/22 A2998 RMK AO2 SLP140 T02280217

2010/08/10 10:56
KM19 101056Z AUTO 15004KT 6SM BR CLR 26/25 A2993 RMK AO2 T02610250 SLPNO

2010/08/10 10:56
KMOB 101056Z 36005KT 9SM FEW100 SCT200 26/23 A2995 RMK AO2 SLP139 T02560233

2010/08/10 10:56
KMQY 101056Z AUTO 00000KT 7SM CLR 25/24 A3000 RMK AO2 T02500238 SLP149 $

2010/08/10 10:55
KNQA 101055Z COR 00000KT 10SM CLR 25/25 A2995 RMK

2010/08/10 10:52
KNRB 101052Z 15009KT 10SM SCT024 SCT130 28/22 A2995 RMK AO2 SLP141 T02780222

2010/08/10 10:55
KO22 101055Z AUTO 00000KT 10SM CLR 13/10 A2989 RMK AO1

2010/08/10 10:56
KOFK 101056Z AUTO 04005KT 10SM CLR 22/19 A2987 RMK AO2 SLP101 T02170189

2010/08/10 10:56
KMEB 101056Z AUTO 00000KT 3/4SM BR OVC003 24/23 A3003 RMK AO2

2010/08/10 10:55
KOZR 101055Z AUTO 05006KT 10SM CLR 23/23 A2996 RMK AO2 SLP142 T02320230 $

2010/08/10 10:56
KSDF 101056Z 13003KT 6SM HZ CLR 27/23 A2995 RMK AO2 SLP135 T02720233 $

2010/08/10 10:53
K04W 101053Z AUTO 00000KT 1/2SM FG OVC003 18/17 A2997 RMK AO2 T01780174

2010/08/10 10:55
K21D 101055Z AUTO 00000KT 10SM CLR 20/19 A2996 RMK AO2

2010/08/10 10:54
KAPG 101054Z 00000KT 7SM SCT080 25/23 A2994

2010/08/10 10:56
KART 101056Z AUTO 00000KT 3SM BR OVC019 21/20 A2993 RMK AO2 SLP131 T02110200

2010/08/10 10:56
KBED 101056Z 25003KT 3SM BR CLR 22/21 A2990 RMK AO2 SLP133 T02220211

2010/08/10 10:54
KBJI 101054Z AUTO 00000KT 4SM BR CLR 18/18 A2996 RMK AO2

2010/08/10 10:56
KBJJ 101056Z AUTO 00000KT 2 1/2SM BR CLR 20/19 A3000 RMK AO2 SLP149 T02000189

2010/08/10 10:55
KBUU 101055Z AUTO 00000KT M1/4SM FG OVC001 18/18 A2998 RMK AO2 T01760175

2010/08/10 10:56
KBZN 101056Z AUTO 00000KT 10SM CLR 11/08 A3000 RMK AO2 SLP132 T01060078

2010/08/10 10:54
KC29 101054Z AUTO 00000KT 1 1/4SM SCT002 21/19 A2999 RMK AO2 VIS 1/2V2 1/2 T02060194

2010/08/10 10:56
KCTB 101056Z AUTO 00000KT 10SM CLR 13/07 A2986 RMK AO2 SLP081 T01280072 PWINO

2010/08/10 10:56
KCXY 101056Z 00000KT 6SM HZ CLR 24/21 A2994 RMK AO2 SLP137 T02390211

2010/08/10 10:53
KD39 101053Z AUTO 09004KT 5SM BR CLR 22/21 A2994 RMK AO2 T02210212

2010/08/10 10:56
KDAY 101056Z 00000KT 5SM HZ FEW200 SCT250 24/20 A3000 RMK AO2 SLP147 T02440200

2010/08/10 10:55
KDVK 101055Z AUTO 20003KT 5SM CLR 24/23 A3000 RMK AO1

2010/08/10 10:56
KEKO 101056Z AUTO 17004KT 10SM CLR 12/04 A3000 RMK AO2 SLP107 T01170044

2010/08/10 10:56
KELZ 101056Z AUTO 00000KT 1SM -RA BR OVC065 19/19 A3004 RMK AO2 RAB29 SLP158 P0000 T01890189

2010/08/10 10:55
KFBG 101055Z VRB03KT 10SM OVC003 25/24 A3002 RMK AO2A SLP163 T02460239 $

2010/08/10 10:56
KGON 101056Z 00000KT 7SM OVC100 23/20 A2991 RMK AO2 RAB21E43 SLP128 P0000 T02330200

2010/08/10 10:55
KHFJ 101055Z AUTO 00000KT 10SM CLR 24/21 A2994 RMK AO1

2010/08/10 10:56
KHPN 101056Z 00000KT 7SM BKN110 22/20 A2995 RMK AO2 SLP134 P0001 T02220200

2010/08/10 10:56
KHWV 101056Z AUTO 00000KT 5SM BR BKN110 23/21 A2994 RMK AO2 RAB06E15 SLP138 P0000 T02330211

2010/08/10 10:56
KHYA 101056Z 23004KT 4SM -RA BR FEW028 23/21 A2991 RMK AO2 RAB18 SLP130 P0000 T02280211

2010/08/10 10:56
KIGX 101056Z AUTO 00000KT 4SM BR CLR 23/22 A3004 RMK AO2 SLP164 T02280217

2010/08/10 10:56
KISP 101056Z 35003KT 9SM BKN140 OVC250 24/19 A2992 RMK AO2 RAE04 SLP132 P0000 T02390189

2010/08/10 10:56
KITH 101056Z 00000KT 4SM BR SCT046 BKN080 21/19 A3000 RMK AO2 T02050194 RAE25 P0000 SLP151

2010/08/10 10:56
KJXN 101056Z 00000KT 2 1/2SM BR BKN001 OVC018 19/19 A3000 RMK AO2 SLP152 T01890189 $

2010/08/10 10:55
KLCK 101055Z AUTO 00000KT 5SM BR CLR 22/21 A2998 RMK AO2 T02210206

2010/08/10 10:55
KLFI 101055Z 26007KT 10SM SCT055 25/23 A2997 RMK AO2A SLP151 T02520229

2010/08/10 10:56
KLRD 101056Z 13007KT 10SM CLR 28/25 A2989 RMK AO2 T02770250 SLP108

2010/08/10 10:56
KMDT 101056Z 00000KT 4SM HZ OVC120 25/22 A2993 RMK AO2 SLP134 T02500222 $

2010/08/10 10:56
KMRH 101056Z AUTO 23005KT 10SM BKN016 BKN025 BKN037 28/24 A3002 RMK AO2 SLP164 T02780244 TSNO

2010/08/10 10:56
PATG 101056Z AUTO 17018G22KT 9SM BKN009 OVC018 10/09 A2955 RMK AO1 PNO

2010/08/10 10:56
PAUN 101056Z AUTO 12008KT 10SM OVC037 11/07 A2948 RMK AO1 PNO

2010/08/10 10:56
PAVD 101056Z 24003KT 3SM SCT011 OVC016 11/09 A2990 RMK AO1 PNO

2010/08/10 10:56
PAWG 101056Z AUTO 00000KT 5SM OVC010 12/11 A3004 RMK AO1 PNO

2010/08/10 10:56
PAWN 101056Z AUTO 06005KT 10SM BKN032 BKN042 OVC050 12/11 A2953 RMK AO1 PNO

2010/08/10 10:56
PAWS 101056Z AUTO 00000KT 10SM FEW006 OVC060 11/09 A2977 RMK AO1 PNO

2010/08/10 10:56
PAZK 101056Z AUTO 26008KT 1/4SM OVC001 07/05 A2977 RMK AO1 PNO

2010/08/10 10:56
KOWB 101056Z 18003KT 5SM BR CLR 26/25 A2996 RMK AO2 T02550250 SLP141

2010/08/10 10:56
KSGH 101056Z AUTO 00000KT 4SM BR CLR 21/21 A3000 RMK AO2 T02050205 SLP150 $

2010/08/10 10:58
KSGJ 101058Z 13009KT 10SM SCT012 27/24 A2995 RMK AO2 SLP141 T02720239

2010/08/10 10:55
KSME 101055Z AUTO 00000KT 2 1/2SM BR 23/23 A3001 RMK AO2

2010/08/10 10:55
KY51 101055Z AUTO 08003KT 5SM CLR 22/22 A3000 RMK AO1 T02210217

2010/08/10 10:55
PACZ 101055Z AUTO 19009KT 10SM BKN006 OVC010 09/08 A2932 RMK AO1 T00890078

2010/08/10 10:55
PALU 101055Z AUTO 06017KT 7SM 08/08 A2960 RMK AO1 T00780078

2010/08/10 10:55
PAIM 101055Z AUTO 00000KT 10SM SCT036 BKN070 OVC095 11/11 A2964 RMK AO1 T01110112

2010/08/10 10:55
PATL 101055Z AUTO 31005KT 10SM SCT020 BKN025 OVC100 11/09 A2961 RMK AO1 T01060089

2010/08/10 10:55
PAEH 101055Z AUTO 17016G27KT 1 3/4SM OVC004 08/07 RMK AO1 VSBY 11/2V21/2 T00830073

2010/08/10 10:55
PASV 101055Z AUTO 00000KT 10SM OVC028 09/08 A2963 RMK AO1 T00940078

2010/08/10 10:55
PGUA 101055Z AUTO 08006KT 10SM SCT018 BKN030 26/25 A2996 RMK AO2 SCT V BKN CIG 016 RWY24L SLP127 T02640253 $

2010/08/10 10:56
TJSJ 101056Z 13004KT 10SM FEW022 SCT045 SCT070 27/24 A2996 RMK AO2 SLP143 T02720239

2010/08/10 10:56
PAAK 101056Z AUTO 29006KT 1 3/4SM OVC003 08/06 A2991 RMK AO1 PNO

2010/08/10 10:56
PABL 101056Z AUTO 13006KT 10SM BKN070 BKN100 11/09 A2950 RMK AO1 PNO

2010/08/10 10:56
PABV 101056Z AUTO 00000KT 10SM SCT012 OVC060 12/08 A2977 RMK AO1 PNO

2010/08/10 10:56
PACM 101056Z AUTO VRB04KT 10SM FEW014 SCT020 OVC060 10/08 A2936 RMK AO2 TSNO T01000083 RAE50 P0001 SLP937 $

2010/08/10 10:56
PADK 101056Z 26013KT 10SM OVC070 09/07 A2990 RMK AO1 PNO

2010/08/10 10:56
PAEM 101056Z AUTO 15010KT 10SM FEW015 SCT022 BKN045 10/08 A2934 RMK AO1 PNO

2010/08/10 10:56
PAFE 101056Z AUTO 16003KT 5SM OVC006 13/11 A3005 RMK AO1 PNO

2010/08/10 10:56
PAFM 101056Z AUTO 10003KT 10SM OVC048 13/11 A2959 RMK AO1 PNO

2010/08/10 10:56
PAGL 101056Z AUTO 11009KT 10SM BKN050 12/09 A2950 RMK AO1 PNO

2010/08/10 10:56
PAGM 101056Z AUTO 05008KT 7SM BKN004 OVC008 08/07 A2944 RMK AO1

2010/08/10 10:56
PAGS 101056Z AUTO 00000KT 3SM SCT013 BKN021 BKN065 13/12 A3000 RMK AO1 PNO

2010/08/10 10:56
PAHP 101056Z AUTO 21009KT 10SM OVC008 10/07 A2933 RMK AO1 PNO TSNO

2010/08/10 10:56
PAHY 101056Z AUTO 00000KT 10SM OVC010 13/12 A3004 RMK AO1 PNO

2010/08/10 10:56
PAII 101056Z AUTO 14006KT 9SM FEW004 BKN021 OVC028 10/09 A2970 RMK AO1 PNO

2010/08/10 10:56
PAIN 101056Z AUTO 00000KT 10SM OVC046 12/09 A2969 RMK AO1 PNO

2010/08/10 10:56
PAJC 101056Z AUTO 00000KT 10SM SCT018 OVC026 13/06 A2968 RMK AO1 PNO

2010/08/10 10:56
PAKK 101056Z AUTO 08003KT 10SM OVC110 11/08 A2946 RMK AO1 PNO

2010/08/10 10:56
PAKP 101056Z AUTO 00000KT 1/4SM OVC001 09/08 A2962 RMK AO1

2010/08/10 10:56
PAMD 101056Z AUTO 19005KT 4SM FEW004 SCT008 BKN014 11/09 A2994 RMK AO1 PNO

2010/08/10 10:56
PAMH 101056Z RMK AO1 PNO

2010/08/10 10:56
PAMM 101056Z AUTO 00000KT 10SM OVC050 12/09 A3005 RMK AO1 PNO

2010/08/10 10:56
PAMY 101056Z 23006KT 10SM FEW025 OVC035 08/07 A2937 RMK AO1

2010/08/10 10:56
PANI 101056Z AUTO 13006KT 10SM OVC050 11/08 A2952 RMK AO1 PNO

2010/08/10 10:56
PANV 101056Z AUTO 13005KT 10SM SCT016 SCT023 OVC034 11/09 A2950 RMK AO1 PNO

2010/08/10 10:56
PAOU 101056Z AUTO 00000KT 9SM BKN021 OVC027 10/08 A2966 RMK AO2 PWINO TSNO T01000083 SLP046 $

2010/08/10 10:56
PAPG 101056Z 05003KT 5SM OVC006 10/09 A3003 RMK AO1 PNO

2010/08/10 10:56
PAPH 101056Z AUTO 17006KT 10SM OVC041 12/07 A2966 RMK AO1 PNO

2010/08/10 10:56
PAPN 101056Z AUTO 16007KT 10SM FEW039 OVC048 11/09 A2967 RMK AO2 PWINO TSNO T01110088 SLP049

2010/08/10 10:56
PARC 101056Z AUTO 00000KT 10SM OVC004 10/07 A2963 RMK AO1 PNO

2010/08/10 10:56
PASA 101056Z AUTO 04010KT 10SM FEW005 OVC009 09/07 A2942 RMK AO1 PNO

2010/08/10 10:56
PASD 101056Z AUTO 17010G19KT 7SM BKN017 OVC025 10/08 A2972 RMK AO1 PNO

2010/08/10 10:56
PASH 101056Z AUTO 07004KT 10SM BKN030 OVC047 12/10 A2946 RMK AO1 PNO

2010/08/10 10:56
PASK 101056Z AUTO 12011KT 10SM SCT090 BKN120 13/10 A2952 RMK AO1 PNO

2010/08/10 10:56
PASL 101056Z AUTO 00000KT 10SM BKN008 BKN016 OVC065 11/09 A2963 RMK AO1 PNO

2010/08/10 10:56
PASM 101056Z AUTO 16011G16KT 8SM OVC005 09/08 A2941 RMK AO1 PNO

2010/08/10 10:56
PASX 101056Z AUTO 00000KT 10SM OVC005 11/10 A2978 RMK AO1 PNO

2010/08/10 11:00
FAVV 101100Z AUTO 10012KT //// // ////// 15/M17 Q1031

2010/08/10 11:00
FASI 101100Z AUTO 09011KT //// // ////// 14/M13 Q1033

2010/08/10 11:00
FAGC 101100Z AUTO 09016KT //// // ////// 15/M17 Q1032

2010/08/10 10:54
KROA 101054Z 34003KT 7SM CLR 24/21 A3005 RMK AO2 SLP162 T02390206

2010/08/10 10:54
KCAR 101054Z AUTO 00000KT 6SM BR FEW065 16/15 A2984 RMK AO2 SLP105 T01560150 $

2010/08/10 10:54
KACY 101054Z 23005KT 10SM CLR 24/22 A2994 RMK AO2 SLP138 T02440222 $

2010/08/10 10:49
KMWN 101049Z 33026KT 35SM SCT/// FEW000 FEW200 09/08 RMK TPS LWR SCT030 PTCHY VLY FG N-NE HZ DSNT ALQDS

2010/08/10 10:53
KMWT 101053Z AUTO 00000KT 10SM CLR 23/23 A2993 RMK AO2 SLP120 T02330228 TSNO

2010/08/10 10:54
KRFD 101054Z 00000KT 10SM OVC180 23/22 A2997 RMK AO2 SLP143 T02330217 $

2010/08/10 10:55
KDRA 101055Z AUTO 07004KT 10SM CLR 21/M08 A2992 RMK AO2 SLP080 T02111078 TSNO

2010/08/10 10:53
KCQC 101053Z AUTO 02006KT 10SM CLR 14/12 A3025 RMK AO2 SLP145 T01440122 TSNO

2010/08/10 10:55
KMBG 101055Z AUTO 15010KT 10SM CLR 23/22 A2979 RMK AO2 SLP072 T02330217 TSNO

2010/08/10 10:54
KAKQ 101054Z AUTO 16003KT 4SM BR CLR 23/22 A2998 RMK AO2 SLP150 T02330217 TSNO

2010/08/10 10:55
KPOE 101055Z AUTO 00000KT 10SM FEW050 BKN070 25/23 A2994 RMK AO2 SLP139 T02500233

2010/08/10 10:53
KPQN 101053Z AUTO 22017KT 7SM +TSRA SCT008 BKN014 OVC024 21/20 A2996 RMK AO2 P0025 LTG DSNT ALQDS

2010/08/10 10:53
KFGN 101053Z AUTO 24004KT 7SM CLR 23/20 A2989 RMK AO2

2010/08/10 10:53
KPNM 101053Z AUTO 00000KT 10SM CLR 20/19 A2996 RMK AO2

2010/08/10 10:53
KPWC 101053Z AUTO 00000KT 3/4SM BR OVC001 17/16 A2998 RMK AO2

2010/08/10 10:53
KFFM 101053Z AUTO 11005KT 10SM CLR 22/21 A2989 RMK AO2

2010/08/10 10:52
KGDB 101052Z AUTO 09004KT 10SM OVC050 23/22 A2991 RMK AO2 LTG DSNT SW T02300221

2010/08/10 10:53
KAIT 101053Z AUTO 00000KT 2 1/2SM BR BKN001 15/13 A2997 RMK AO2

2010/08/10 10:53
KGHW 101053Z AUTO 10006KT 5SM BR CLR 21/19 A2995 RMK AO2

2010/08/10 10:53
KMWM 101053Z AUTO 12007KT 7SM -RA SCT007 SCT080 24/23 A2990 RMK AO2 LTG DSNT ALQDS

2010/08/10 10:53
KBBB 101053Z AUTO 13003KT 7SM CLR 22/21 A2994 RMK AO2

2010/08/10 10:53
KTWM 101053Z AUTO 00000KT 5SM HZ CLR 17/14 A2996 RMK AO2

2010/08/10 10:55
KMGG 101055Z AUTO 11003KT 7SM CLR 22/22 A2995 RMK AO2 T02230219

2010/08/10 10:48
KMOX 101048Z AUTO 11005KT 5SM BR CLR 22/22 A2987 RMK AO2

2010/08/10 10:54
KONZ 101054Z AUTO 00000KT 1 1/4SM BR VV007 22/21 A2996 RMK AO2

2010/08/10 10:53
KTEW 101053Z AUTO 00000KT M1/4SM FG OVC001 18/17 A2999 RMK AO2

2010/08/10 10:50
KCVH 101050Z AUTO 00000KT 10SM OVC005 13/12 A2990 RMK AO1

2010/08/10 10:54
KDYT 101054Z AUTO 00000KT 10SM CLR 22/21 A2996 RMK AO2

2010/08/10 10:59
KFSO 101059Z AUTO 15003KT 5SM BR OVC013 18/18 A2992 RMK AO2

2010/08/10 10:54
KFBL 101054Z AUTO 10004KT 10SM CLR 23/21 A2995 RMK AO2 LTG DSNT S AND SW

2010/08/10 10:57
KLYV 101057Z AUTO 27017G34KT 1SM +TSRA BKN005 OVC011 21/20 A2999 RMK AO2 LTG DSNT ALQS P0013

2010/08/10 10:56
KEFK 101056Z AUTO 00000KT M1/4SM FG OVC001 14/13 A2995 RMK AO2

2010/08/10 10:54
KRRT 101054Z AUTO 23004KT 10SM CLR 21/19 A2991 RMK AO2 TSNO

2010/08/10 10:55
KTOB 101055Z AUTO 12005KT 4SM BR CLR 22/21 A2997 RMK AO2

2010/08/10 10:53
KLXL 101053Z AUTO 00000KT 7SM CLR 19/18 A2993 RMK AO2

2010/08/10 10:52
KEVM 101052Z AUTO 00000KT 1/4SM FG OVC001 15/13 A2997 RMK AO1

2010/08/10 10:53
KELO 101053Z AUTO 00000KT 7SM CLR 16/16 A2998 RMK AO2

2010/08/10 10:55
KANE 101055Z AUTO 00000KT 10SM CLR 22/21 A2996 RMK AO2

2010/08/10 10:54
KROX 101054Z AUTO 00000KT 10SM CLR 19/17 A2991 RMK AO2

2010/08/10 10:55
KSYN 101055Z AUTO 00000KT 1/2SM FG VV005 19/18 A2994 RMK AO2 T01920182

2010/08/10 10:56
KVVV 101056Z AUTO 12005KT 10SM SCT037 SCT060 BKN080 23/22 A2989 RMK AO2

2010/08/10 10:54
KROS 101054Z AUTO 00000KT 1 3/4SM BR VV007 18/17 A2996 RMK AO2 T01800174

2010/08/10 10:52
KHCD 101052Z AUTO 12005KT 7SM CLR 22/21 A2992 RMK AO2 T02210210

2010/08/10 10:53
KSGS 101053Z AUTO 00000KT 10SM CLR 23/21 A2995 RMK AO2 T02320210

2010/08/10 10:52
KMJQ 101052Z AUTO 13015KT 10SM VCTSRA SCT004 SCT014 BKN025 21/20 A2989 RMK AO2 P0001

2010/08/10 11:02
KFKA 101102Z AUTO 00000KT 4SM BR CLR 22/22 A2999 RMK AO2 LTG DSNT SW T02240217

2010/08/10 10:54
KWAL 101054Z AUTO 28005KT 6SM BR CLR 25/23 A2997 RMK AO2 SLP144 T02500228 TSNO

2010/08/10 10:54
KMTP 101054Z AUTO 00000KT 22/19 A2994 RMK AO2 SLP137 T02220189 PWINO TSNO

2010/08/10 10:54
KWAL 101054Z AUTO 28005KT 6SM BR CLR 25/23 A2997 RMK AO2 SLP144 T02500228 TSNO

2010/08/10 10:56
KNFE 101056Z AUTO 00000KT 1 1/4SM HZ CLR 24/21 A2999 RMK AO2 SLP156 T02390211 $

2010/08/10 10:56
KGNA 101056Z AUTO 00000KT 17/16 A2995 RMK AO2 SLP140 T01720156 PWINO TSNO

2010/08/10 10:56
KCDJ 101056Z AUTO 00000KT 26/ A2993 RMK AO2 SLP116 T0256 PWINO TSNO $

2010/08/10 10:56
KGNR 101056Z AUTO 00000KT 17/16 A2989 RMK AO1 SLP119 T01720156

2010/08/10 10:56
KNUQ 101056Z AUTO 00000KT 10SM OVC012 16/12 A2988 RMK AO2 SLP122 T01560122 TSNO

2010/08/10 10:56
KP28 101056Z AUTO 18003KT 25/18 A2988 RMK AO2 SLP097 T02500178 PWINO TSNO

2010/08/10 10:56
KMHS 101056Z AUTO 00000KT 10SM CLR 12/08 A2996 RMK AO2 SLP132 T01170078 TSNO

2010/08/10 10:55
PACZ 101055Z AUTO 19009KT 10SM BKN006 OVC010 09/08 A2932 RMK AO1 T00890078

2010/08/10 10:55
PALU 101055Z AUTO 06017KT 7SM 08/08 A2960 RMK AO1 T00780078

2010/08/10 10:55
PAIM 101055Z AUTO 00000KT 10SM SCT036 BKN070 OVC095 11/11 A2964 RMK AO1 T01110112

2010/08/10 10:55
PATL 101055Z AUTO 31005KT 10SM SCT020 BKN025 OVC100 11/09 A2961 RMK AO1 T01060089

2010/08/10 10:55
PAEH 101055Z AUTO 17016G27KT 1 3/4SM OVC004 08/07 RMK AO1 VSBY 11/2V21/2 T00830073

2010/08/10 10:55
PASV 101055Z AUTO 00000KT 10SM OVC028 09/08 A2963 RMK AO1 T00940078

2010/08/10 10:54
KHCO 101054Z AUTO 16009KT 10SM CLR 20/20 A2991 RMK AO2

2010/08/10 10:53
KLVN 101053Z AUTO 14003KT 3/4SM BR BKN001 BKN029 19/19 A2995 RMK AO2

2010/08/10 10:53
KPEX 101053Z AUTO 12007KT 7SM CLR 23/22 A2993 RMK AO2 T02310216

2010/08/10 10:54
KJMR 101054Z AUTO 00000KT 2 1/2SM BR CLR 18/18 A2999 RMK AO2 VIS 3/4V5

2010/08/10 10:54
KJKJ 101054Z AUTO 14004KT 10SM CLR 22/21 A2988 RMK AO2

2010/08/10 10:54
KMVE 101054Z AUTO 16006KT 7SM SCT036 OVC050 23/23 A2989 RMK AO2 LTG DSNT S AND SW

2010/08/10 10:53
KTKC 101053Z AUTO 00000KT 7SM BKN007 23/22 A2989 RMK AO2 LTG DSNT SE THRU W T02290220

2010/08/10 10:54
KGYL 101054Z AUTO 11005KT 7SM CLR 22/20 A2992 RMK AO2 T02160202

2010/08/10 10:54
KDXX 101054Z AUTO 12004KT 10SM SCT033 24/24 A2989 RMK AO2 LTG DSNT SW

2010/08/10 10:51
KHZX 101051Z AUTO 00000KT 10SM CLR 16/16 A2999 RMK AO2

2010/08/10 10:52
KCDD 101052Z AUTO 00000KT 4SM BR CLR 18/18 A2997 RMK AO2

2010/08/10 10:53
KSAZ 101053Z AUTO 00000KT 10SM CLR 20/20 A2995 RMK AO2

2010/08/10 10:51
KONA 101051Z AUTO 00000KT 1/2SM FG OVC001 23/22 A2996 RMK AO2

2010/08/10 10:53
KFOZ 101053Z AUTO 00000KT 1/4SM FG BKN001 BKN016 17/16 A2998 RMK AO2

2010/08/10 10:54
KAQP 101054Z AUTO 13006KT 7SM BKN065 22/22 A2989 RMK AO2 LTG DSNT S

2010/08/10 10:54
KETH 101054Z AUTO 09005KT 5SM BR SCT049 19/19 A2992 RMK AO2

2010/08/10 10:53
KOVL 101053Z AUTO 13007KT 10SM OVC085 22/20 A2991 RMK AO2 LTG DSNT SW T02230201

2010/08/10 10:52
KLJF 101052Z AUTO 13004KT 5SM BR CLR 21/21 A2993 RMK AO2

2010/08/10 10:56
KXVG 101056Z AUTO 00000KT 2SM BR OVC001 15/15 A2995 RMK AO2

2010/08/10 10:54
KORB 101054Z AUTO 00000KT 4SM BR CLR 19/17 A2996 RMK AO2

2010/08/10 10:50
KMZH 101050Z AUTO 00000KT 1/2SM FG OVC001 17/16 A2997 RMK AO2

2010/08/10 10:53
KBFW 101053Z AUTO 00000KT 7SM CLR 16/14 A2996 RMK AO2

2010/08/10 10:49
KVWU 101049Z AUTO 18004KT 10SM CLR 20/19 A2994 RMK AO2

2010/08/10 10:50
KAEL 101050Z AUTO 13006KT 5SM BR SCT033 SCT042 BKN060 24/23 A2995 RMK AO2 LTG DSNT SE

2010/08/10 10:54
KOWA 101054Z AUTO 12005KT 10SM CLR 23/22 A2994 RMK AO2 LTG DSNT S

2010/08/10 10:53
K29G 101053Z AUTO 00000KT 7SM CLR 21/19 A2998 RMK AO2 T02110188 PWINO

2010/08/10 10:53
KMRT 101053Z AUTO 00000KT 2SM CLR 20/19 A3001 RMK AO2 T02020191

2010/08/10 10:54
KIKW 101054Z AUTO 00000KT 1/2SM FG BKN010 19/18 A2998 RMK AO2 T01930183

2010/08/10 10:53
KRQE 101053Z AUTO 00000KT 10SM FEW100 10/08 A3026 RMK AO2 SLP142 T01000083 TSNO

2010/08/10 10:55
KANJ 101055Z AUTO VRB06KT 1 1/2SM BR OVC002 20/19 A2997 RMK AO2 SLP142 T02000189

2010/08/10 10:55
KAST 101055Z AUTO 00000KT 10SM OVC014 13/11 A2997 RMK AO2 PK WND 21027/0958 SLP150 T01330111

2010/08/10 10:56
KJAX 101056Z 11006KT 10SM FEW020 SCT150 SCT250 26/23 A2995 RMK AO2 SLP141 T02610228

2010/08/10 10:55
KHON 101055Z AUTO 24013G18KT 6SM -RA BR SCT010 BKN015 OVC055 24/22 A2986 RMK AO2 RAB11 SLP098 P0001 T02440222 TSNO

2010/08/10 10:55
KPHP 101055Z AUTO 14003KT 10SM SCT110 22/18 A2983 RMK AO2 SLP076 T02170183 TSNO

2010/08/10 10:56
KSHV 101056Z 00000KT 10SM SCT290 26/23 A2991 RMK AO2 SLP125 T02610228

2010/08/10 10:55
KAAT 101055Z AUTO 00000KT 10SM BKN070 11/03 A3001 RMK AO2 SLP121 T01060028 TSNO

2010/08/10 10:56
KABQ 101056Z 33005KT 10SM SCT120 21/09 A3015 RMK AO2 SLP112 T02110089

2010/08/10 10:56
KSDF 101056Z 13003KT 6SM HZ CLR 27/23 A2995 RMK AO2 SLP135 T02720233 $

2010/08/10 10:55
KVBG 101055Z AUTO 13003KT 10SM OVC001 12/11 A2991 RMK AO2 SLP118 T01170111 TSNO CHINO RWY12 VISNO RWY12 $

2010/08/10 10:56
TJSJ 101056Z 13004KT 10SM FEW022 SCT045 SCT070 27/24 A2996 RMK AO2 SLP143 T02720239

2010/08/10 10:56
KCHS 101056Z 00000KT 10SM FEW025 26/25 A3002 RMK AO2 SLP164 T02560250

2010/08/10 10:56
KCAE 101056Z 00000KT 1/2SM FG OVC002 24/23 A3002 RMK AO2 SLP162 T02390233 RVRNO

2010/08/10 10:56
KNTU 101056Z 24005KT 10SM FEW050 SCT200 24/23 A2997 RMK AO2 SLP152 T02440233 $

2010/08/10 10:54
PGSN 101054Z 14007KT 9SM RA FEW014 SCT019 25/24 A2997 RMK AO2 RAB0959 SLP146 P0014 T02500239

2010/08/10 10:54
PGUM 101054Z 16003G16KT 2 1/2SM +RA BR FEW022 BKN044 OVC055 26/24 A2996 RMK AO2 VIS 1 1/4V5 RAB35 SLP138 P0008 T02560239

2010/08/10 10:50
PTKK 101050Z VRB05KT 15SM FEW014 SCT120 OVC280 28/24 A2989 RMK SLP125 T02780242

2010/08/10 10:50
PTPN 101050Z 09007KT 15SM SCT017TCU BKN300 27/26 A2988 RMK TCU SE-SW

2010/08/10 10:50
LGAD 101050Z 32009KT 9999 FEW020 32/21 Q1011

2010/08/10 10:50
LGAV 101050Z 03019KT 9999 SCT025 34/17 Q1010 NOSIG

2010/08/10 10:50
LGIR 101050Z 31016KT 9999 FEW020 31/24 Q1008 NOSIG

2010/08/10 10:50
LGKL 101050Z 18010KT 9999 FEW030 31/21 Q1009

2010/08/10 10:50
LGKO 101050Z 30010KT CAVOK 33/22 Q1006

2010/08/10 10:50
LGKR 101050Z 11005KT 9999 FEW020 33/18 Q1010 NOSIG

2010/08/10 10:50
LGLM 101050Z 02011KT 9999 FEW020 31/19 Q1010

2010/08/10 10:50
LGRP 101050Z 25013KT 8000 NSC 31/26 Q1005 NOSIG

2010/08/10 10:50
LGSA 101050Z 32016KT 9999 FEW030 32/21 Q1010

2010/08/10 10:50
LGSM 101050Z 01010KT CAVOK 35/18 Q1005

2010/08/10 10:50
LGTS 101050Z 28010KT CAVOK 31/18 Q1012 NOSIG

2010/08/10 10:50
LGHI 101050Z 02012KT CAVOK 31/18 Q1008

2010/08/10 10:50
LGKF 101050Z 27006KT 9999 FEW025 30/19 Q1011

2010/08/10 10:50
LGKZ 101050Z 33008KT 9999 FEW020 29/12 Q1016

2010/08/10 10:50
LGMK 101050Z 35021G32KT 9999 FEW012 30/22 Q1008

2010/08/10 10:50
LGNX 101050Z 35013KT 9999 FEW020 30/24 Q1008

2010/08/10 10:50
LGPA 101050Z 35018KT 9999 FEW025 31/23 Q1008

2010/08/10 10:50
LGSO 101050Z 35013KT 9999 FEW020 30/22 Q1008

2010/08/10 10:55
KFCS 101055Z AUTO 35005KT 10SM CLR 15/11 A3015 RMK AO2 SLP132 T01520114

2010/08/10 10:55
KFTK 101055Z AUTO 00000KT 9SM CLR 25/24 A2997 RMK AO2 SLP142 T02460245 $

2010/08/10 10:55
KHIF 101055Z AUTO 10012KT 10SM CLR 17/02 A3002 RMK AO2 SLP065 T01730023

2010/08/10 10:55
KLFI 101055Z 26007KT 10SM SCT055 25/23 A2997 RMK AO2A SLP151 T02520229

2010/08/10 10:55
KMUI 101055Z 00000KT 5SM BR BKN130 OVC170 23/22 A2995 RMK AO2A SLP139 T02260221 $

2010/08/10 10:55
KMUO 101055Z AUTO 16008KT 10SM BKN150 16/15 A2986 RMK AO2 SLP086 T01590145

2010/08/10 10:55
KVAD 101055Z AUTO 08004KT 10SM CLR 24/24 A2998 RMK AO2 SLP149 T02400237 $

2010/08/10 10:55
KXMR 101055Z AUTO 11006KT 10SM SCT024 BKN032 26/24 A2992 RMK AO2 SLP132 T02620243

2010/08/10 10:55
PHHI 101055Z AUTO 08008KT 10SM BKN046 23/17 A3011 RMK AO2 SLP182 T02290171 $

2010/08/10 10:55
KADW 101055Z AUTO 24005KT 10SM CLR 24/21 A2995 RMK AO2 SLP141 T02410211 $

2010/08/10 10:55
KBAB 101055Z AUTO 00000KT 10SM CLR 17/12 A2981 RMK AO2 SLP094 T01670117 $

2010/08/10 10:55
KBKF 101055Z 21006KT 25SM FEW120 15/12 A3012 RMK SLP139

2010/08/10 10:55
KCOF 101055Z AUTO 12008KT 10SM CLR 26/ A2992 RMK AO2 SLP132 T0262

2010/08/10 10:55
KDOV 101055Z AUTO 21007KT 10SM CLR 24/24 A2992 RMK AO2 SLP132 T02440242

2010/08/10 10:55
KFBG 101055Z VRB03KT 10SM OVC003 25/24 A3002 RMK AO2A SLP163 T02460239 $

2010/08/10 10:55
KFCS 101055Z AUTO 35005KT 10SM CLR 15/11 A3015 RMK AO2 SLP132 T01520114

2010/08/10 10:55
KFTK 101055Z AUTO 00000KT 9SM CLR 25/24 A2997 RMK AO2 SLP142 T02460245 $

2010/08/10 10:55
KHIF 101055Z AUTO 10012KT 10SM CLR 17/02 A3002 RMK AO2 SLP065 T01730023

2010/08/10 10:55
KLFI 101055Z 26007KT 10SM SCT055 25/23 A2997 RMK AO2A SLP151 T02520229

2010/08/10 10:55
KLHW 101055Z AUTO 00000KT 10SM CLR 24/23 A2999 RMK AO2 SLP155 T02380233

2010/08/10 10:55
KLTS 101055Z AUTO 00000KT 10SM CLR 23/20 A2991 RMK AO2 SLP108 T02270200 $

2010/08/10 10:55
KMTC 101055Z 00000KT 1 1/2SM BR CLR 20/20 A2995 RMK VIS N 2 S 1 SLP147

2010/08/10 10:55
KMUI 101055Z 00000KT 5SM BR BKN130 OVC170 23/22 A2995 RMK AO2A SLP139 T02260221 $

2010/08/10 10:55
KMUO 101055Z AUTO 16008KT 10SM BKN150 16/15 A2986 RMK AO2 SLP086 T01590145

2010/08/10 10:55
KADW 101055Z AUTO 24005KT 10SM CLR 24/21 A2995 RMK AO2 SLP141 T02410211 $

2010/08/10 10:55
KBIX 101055Z AUTO 04005KT 10SM CLR 25/25 A2993 RMK AO2 SLP138 T02520246 $

2010/08/10 10:55
KCOF 101055Z AUTO 12008KT 10SM CLR 26/ A2992 RMK AO2 SLP132 T0262

2010/08/10 10:55
KDOV 101055Z AUTO 21007KT 10SM CLR 24/24 A2992 RMK AO2 SLP132 T02440242

2010/08/10 10:55
KLFI 101055Z 26007KT 10SM SCT055 25/23 A2997 RMK AO2A SLP151 T02520229

2010/08/10 10:53
KNIP 101053Z 11010KT 10SM FEW012 SCT250 27/24 A2995 RMK AO2 SLP136 T02670239

2010/08/10 10:54
KNKT 101054Z AUTO 25004KT 10SM BKN075 25/24 A3002 RMK AO2 SLP163 T02500239

2010/08/10 10:53
KNQX 101053Z 23005KT 8SM -RA BKN010 BKN020 BKN040 BKN140 26/23 A2985 RMK AO2 SLP105 T1 SET P0011 T02560233 $

2010/08/10 10:55
KPOB 101055Z AUTO 23005KT 10SM OVC004 24/24 A3002 RMK AO2 SLP166 T02420242 $

2010/08/10 10:55
KSSC 101055Z 00000KT 6SM BR OVC002 24/23 A3001 RMK AO2A SLP162 T02380230 $

2010/08/10 10:55
KVAD 101055Z AUTO 08004KT 10SM CLR 24/24 A2998 RMK AO2 SLP149 T02400237 $

2010/08/10 10:55
KBIX 101055Z AUTO 04005KT 10SM CLR 25/25 A2993 RMK AO2 SLP138 T02520246 $

2010/08/10 10:55
KFAF 101055Z AUTO 23003KT 10SM SCT060 SCT080 25/25 A2997 RMK AO2 SLP150 T02520252 $

2010/08/10 10:55
KGUS 101055Z AUTO 13004KT 7SM FEW100 24/24 A2996 RMK AO2 RAB1025E1036DZB1011E1020B1036E1040 SLP138 P0001 T02380238

2010/08/10 10:52
KNRB 101052Z 15009KT 10SM SCT024 SCT130 28/22 A2995 RMK AO2 SLP141 T02780222

2010/08/10 10:55
KOZR 101055Z AUTO 05006KT 10SM CLR 23/23 A2996 RMK AO2 SLP142 T02320230 $

2010/08/10 10:56
KNCA 101056Z 25003KT 10SM FEW025 SCT150 24/24 A3003 RMK AO2 SLP169 T02440239 $

2010/08/10 10:56
KNTU 101056Z 24005KT 10SM FEW050 SCT200 24/23 A2997 RMK AO2 SLP152 T02440233 $

2010/08/10 10:56
KNTD 101056Z AUTO 00000KT 9SM OVC007 15/13 A2990 RMK AO2 SLP125 T01500133 TSNO $

2010/08/10 10:56
KNXP 101056Z AUTO 32004KT CLR 22/M01 A2992 RMK AO2 SLP094 T02171006 $ 

2010/08/10 10:56
KNGP 101056Z 20003KT 10SM FEW015 28/25 A2987 RMK AO2 SLP114 T02820250 $ 

2010/08/10 10:54
KSBN 101054Z 00000KT 7SM SCT032 23/21 A2998 RMK AO2 SLP147 T02280206 

2010/08/10 10:56
KGFA 101056Z AUTO 20010KT 10SM CLR 15/08 A2984 RMK AO2 SLP103 T01500083 

2010/08/10 10:55
KCEF 101055Z AUTO 00000KT 1/2SM R23/1200V5500FT R33/0900VP6000FT FG CLR 21/20 A2993 RMK AO2 SLP135 T02080205 $

2010/08/10 10:55
KLRF 101055Z AUTO 17004KT 10SM CLR 27/25 A2993 RMK AO2 SLP131 T02720252

2010/08/10 10:55
KMMT 101055Z AUTO 00000KT 7SM BKN003 BKN016 OVC025 24/24 A3002 RMK AO2 BKN003 V SCT SLP164 T02400237

2010/08/10 10:55
KBAD 101055Z AUTO 00000KT 10SM CLR 26/23 A2992 RMK AO2 SLP132 T02580233

2010/08/10 10:55
KHST 101055Z AUTO 20004KT 10SM SCT032 25/24 A2987 RMK AO2 SLP117 T02500238

2010/08/10 10:52
KNHK 101052Z 22007KT 9SM FEW090 SCT200 26/21 A2994 RMK AO2 SLP140 T02560211

2010/08/10 10:52
KNRB 101052Z 15009KT 10SM SCT024 SCT130 28/22 A2995 RMK AO2 SLP141 T02780222

2010/08/10 10:55
KOFF 101055Z AUTO 10005KT 10SM CLR 25/23 A2986 RMK AO2 SLP091 T02520226 $

2010/08/10 10:55
KVPS 101055Z 02004KT 10SM FEW015 FEW250 25/23 A2993 RMK A02A SLP135 T02470228 $

2010/08/10 10:55
KWRI 101055Z AUTO 00000KT 9SM CLR 23/22 A2992 RMK AO2 SLP132 T02300220 $

2010/08/10 10:55
KBAD 101055Z AUTO 00000KT 10SM CLR 26/23 A2992 RMK AO2 SLP132 T02580233

2010/08/10 10:55
KBIX 101055Z AUTO 04005KT 10SM CLR 25/25 A2993 RMK AO2 SLP138 T02520246 $

2010/08/10 10:55
KCBM 101055Z AUTO 00000KT 10SM BKN130 25/25 A2996 RMK AO2 SLP145 T02500250 $

2010/08/10 10:55
KDYS 101055Z AUTO 18007KT 10SM BKN190 26/19 A2995 RMK AO2 SLP112 T02630185 $

2010/08/10 10:55
KEDW 101055Z AUTO 18008KT 10SM CLR 17/01 A2988 RMK AO2 SLP070 T01700006

2010/08/10 10:55
KFSI 101055Z AUTO 21004KT 10SM CLR 26/20 A2989 RMK AO2 SLP096 T02560197

2010/08/10 10:55
KLSF 101055Z AUTO 00000KT 2 1/2SM BR CLR 22/22 A2999 RMK AO2 SLP153 T02220217 PNO $

2010/08/10 10:55
KMGE 101055Z 00000KT 10SM FEW090 BKN250 24/21 A3005 RMK AO2A SLP163 T02380214 $

2010/08/10 10:55
KOZR 101055Z AUTO 05006KT 10SM CLR 23/23 A2996 RMK AO2 SLP142 T02320230 $

2010/08/10 10:55
KRIV 101055Z AUTO 00000KT 10SM CLR 12/10 A2990 RMK AO2 SLP122 T01230097

2010/08/10 10:55
KRND 101055Z AUTO 21003KT 10SM CLR 26/24 A2993 RMK AO2 SLP123 T02570242

2010/08/10 10:55
KSLI 101055Z AUTO 00000KT 9SM CLR 14/14 A2990 RMK AO2 SLP128 T01380136

2010/08/10 10:55
KVPS 101055Z 02004KT 10SM FEW015 FEW250 25/23 A2993 RMK A02A SLP135 T02470228 $

2010/08/10 10:55
KWRI 101055Z AUTO 00000KT 9SM CLR 23/22 A2992 RMK AO2 SLP132 T02300220 $

2010/08/10 10:55
PGUA 101055Z AUTO 08006KT 10SM SCT018 BKN030 26/25 A2996 RMK AO2 SCT V BKN CIG 016 RWY24L SLP127 T02640253 $

2010/08/10 10:55
KFAF 101055Z AUTO 23003KT 10SM SCT060 SCT080 25/25 A2997 RMK AO2 SLP150 T02520252 $

2010/08/10 10:55
KGTB 101055Z AUTO 21003KT 10SM OVC011 21/20 A2994 RMK AO2 CIG 011V015 SLP139 T02130203

2010/08/10 10:55
KHMN 101055Z 09003KT 10SM CLR 20/13 A3002 RMK AO2A SLP080 T02000125 $

2010/08/10 10:55
KMTC 101055Z 00000KT 1 1/2SM BR CLR 20/20 A2995 RMK VIS N 2 S 1 SLP147

2010/08/10 10:54
KNFG 101054Z 00000KT BR OVC010 12/09 A2991 RMK AO2 SLP126 T01170094

2010/08/10 10:52
KNFW 101052Z AUTO 00000KT 10SM CLR 28/19 A2995 RMK AO2 SLP125 T02780194

2010/08/10 10:53
KNIP 101053Z 11010KT 10SM FEW012 SCT250 27/24 A2995 RMK AO2 SLP136 T02670239

2010/08/10 10:54
KNKT 101054Z AUTO 25004KT 10SM BKN075 25/24 A3002 RMK AO2 SLP163 T02500239

2010/08/10 10:53
KNQX 101053Z 23005KT 8SM -RA BKN010 BKN020 BKN040 BKN140 26/23 A2985 RMK AO2 SLP105 T1 SET P0011 T02560233 $

2010/08/10 10:55
KSKF 101055Z AUTO 16003KT 10SM SCT013 26/ A2992 RMK AO2 SLP120 T0260 $

2010/08/10 10:55
KWRB 101055Z AUTO 00000KT 9SM CLR 23/23 A3001 RMK AO2 SLP158 T02260226

2010/08/10 10:53
PABI 101053Z AUTO 21006KT 10SM CLR 15/06 A2969 RMK AO2 SLP051 T01500056 TSNO $

2010/08/10 10:55
KBAD 101055Z AUTO 00000KT 10SM CLR 26/23 A2992 RMK AO2 SLP132 T02580233

2010/08/10 10:55
KBIX 101055Z AUTO 04005KT 10SM CLR 25/25 A2993 RMK AO2 SLP138 T02520246 $

2010/08/10 10:55
KCBM 101055Z AUTO 00000KT 10SM BKN130 25/25 A2996 RMK AO2 SLP145 T02500250 $

2010/08/10 10:55
KDAA 101055Z AUTO 00000KT 7SM CLR 22/21 A2995 RMK AO2 SLP142 T02190208

2010/08/10 10:55
KDYS 101055Z AUTO 18007KT 10SM BKN190 26/19 A2995 RMK AO2 SLP112 T02630185 $

2010/08/10 10:56
KNQI 101056Z AUTO 00000KT 5SM BR CLR 27/24 A2987 RMK AO2 SLP112 T02670244 $ 

2010/08/10 10:56
KHLR 101056Z AUTO 18004KT 10SM CLR 27/23 A2993 RMK AO2 SLP126 T02670228 $ 

2010/08/10 10:56
KFLG 101056Z AUTO 00000KT 10SM FEW070 08/07 A3027 RMK AO2 SLP163 T00830072 TSNO 

2010/08/10 10:56
KFSD 101056Z 00000KT 10SM -TSRA BKN037 OVC100CB 21/19 A2993 RMK AO2 PK WND 27035/1006 SLP126 CONS LTGICCGCC NE-S TS NE-S MOV NE P0044 T02110194 $ 

2010/08/10 10:55
KEDW 101055Z AUTO 18008KT 10SM CLR 17/01 A2988 RMK AO2 SLP070 T01700006

2010/08/10 10:55
KFAF 101055Z AUTO 23003KT 10SM SCT060 SCT080 25/25 A2997 RMK AO2 SLP150 T02520252 $

2010/08/10 10:55
KFSI 101055Z AUTO 21004KT 10SM CLR 26/20 A2989 RMK AO2 SLP096 T02560197

2010/08/10 10:55
KGUS 101055Z AUTO 13004KT 7SM FEW100 24/24 A2996 RMK AO2 RAB1025E1036DZB1011E1020B1036E1040 SLP138 P0001 T02380238

2010/08/10 10:55
KHMN 101055Z 09003KT 10SM CLR 20/13 A3002 RMK AO2A SLP080 T02000125 $

2010/08/10 10:55
KIAB 101055Z AUTO 15007KT 10SM CLR 26/21 A2989 RMK AO2 SLP105 T02580206 $

2010/08/10 10:55
KLSF 101055Z AUTO 00000KT 2 1/2SM BR CLR 22/22 A2999 RMK AO2 SLP153 T02220217 PNO $

2010/08/10 10:55
KMGE 101055Z 00000KT 10SM FEW090 BKN250 24/21 A3005 RMK AO2A SLP163 T02380214 $

2010/08/10 10:52
KNFW 101052Z AUTO 00000KT 10SM CLR 28/19 A2995 RMK AO2 SLP125 T02780194

2010/08/10 10:52
KNHK 101052Z 22007KT 9SM FEW090 SCT200 26/21 A2994 RMK AO2 SLP140 T02560211

2010/08/10 10:54
KNKT 101054Z AUTO 25004KT 10SM BKN075 25/24 A3002 RMK AO2 SLP163 T02500239

2010/08/10 10:52
KNRB 101052Z 15009KT 10SM SCT024 SCT130 28/22 A2995 RMK AO2 SLP141 T02780222

2010/08/10 10:55
KOFF 101055Z AUTO 10005KT 10SM CLR 25/23 A2986 RMK AO2 SLP091 T02520226 $

2010/08/10 10:55
KOZR 101055Z AUTO 05006KT 10SM CLR 23/23 A2996 RMK AO2 SLP142 T02320230 $

2010/08/10 10:55
KRDR 101055Z AUTO 00000KT 10SM CLR 18/18 A2990 RMK AO2 SLP135 T01840183 $

2010/08/10 10:55
KRIV 101055Z AUTO 00000KT 10SM CLR 12/10 A2990 RMK AO2 SLP122 T01230097

2010/08/10 10:55
KRND 101055Z AUTO 21003KT 10SM CLR 26/24 A2993 RMK AO2 SLP123 T02570242

2010/08/10 10:55
KSLI 101055Z AUTO 00000KT 9SM CLR 14/14 A2990 RMK AO2 SLP128 T01380136

2010/08/10 10:55
KSUU 101055Z AUTO 25019KT 10SM FEW004 12/11 A2981 RMK AO2 PK WND 25026/1024 SLP096 T01230110 RVRNO $

2010/08/10 10:55
KSZL 101055Z AUTO 00000KT 10SM CLR 25/24 A2993 RMK AO2 SLP125 T02540237 PNO $

2010/08/10 10:55
KVPS 101055Z 02004KT 10SM FEW015 FEW250 25/23 A2993 RMK A02A SLP135 T02470228 $

2010/08/10 10:55
KWRI 101055Z AUTO 00000KT 9SM CLR 23/22 A2992 RMK AO2 SLP132 T02300220 $

2010/08/10 10:55
PGUA 101055Z AUTO 08006KT 10SM SCT018 BKN030 26/25 A2996 RMK AO2 SCT V BKN CIG 016 RWY24L SLP127 T02640253 $

2010/08/10 10:53
PHNL 101053Z 07010KT 10SM FEW032 SCT050 26/17 A3008 RMK AO2 SLP186 T02560172

2010/08/10 10:55
KNBG 101055Z AUTO 00000KT 1/2SM FG CLR 24/23 A2994 RMK AO2 SLP137 T02440233 PWINO $

2010/08/10 10:55
KPOE 101055Z AUTO 00000KT 10SM FEW050 BKN070 25/23 A2994 RMK AO2 SLP139 T02500233

2010/08/10 10:55
KADW 101055Z AUTO 24005KT 10SM CLR 24/21 A2995 RMK AO2 SLP141 T02410211 $

2010/08/10 10:55
KBAB 101055Z AUTO 00000KT 10SM CLR 17/12 A2981 RMK AO2 SLP094 T01670117 $

2010/08/10 10:55
KBKF 101055Z 21006KT 25SM FEW120 15/12 A3012 RMK SLP139

2010/08/10 10:55
KCOF 101055Z AUTO 12008KT 10SM CLR 26/ A2992 RMK AO2 SLP132 T0262

2010/08/10 10:55
KDOV 101055Z AUTO 21007KT 10SM CLR 24/24 A2992 RMK AO2 SLP132 T02440242

2010/08/10 10:55
KFBG 101055Z VRB03KT 10SM OVC003 25/24 A3002 RMK AO2A SLP163 T02460239 $

2010/08/10 10:55
KLHW 101055Z AUTO 00000KT 10SM CLR 24/23 A2999 RMK AO2 SLP155 T02380233

2010/08/10 10:55
KLTS 101055Z AUTO 00000KT 10SM CLR 23/20 A2991 RMK AO2 SLP108 T02270200 $

2010/08/10 10:55
KPOB 101055Z AUTO 23005KT 10SM OVC004 24/24 A3002 RMK AO2 SLP166 T02420242 $

2010/08/10 10:55
KSSC 101055Z 00000KT 6SM BR OVC002 24/23 A3001 RMK AO2A SLP162 T02380230 $

2010/08/10 10:55
KTIK 101055Z 19008KT 10SM CLR 25/21 A2990 RMK AO2A SLP109 T02490207

2010/08/10 10:55
KVOK 101055Z 00000KT 1/4SM R27/1000V1600FT FG CLR 17/17 A2998 RMK AO2A SLP146 T01740174

2010/08/10 10:55
PAEI 101055Z AUTO 00000KT 10SM SCT085 OVC100 12/10 A2964 RMK AO2 SLP038 T01200101 $

2010/08/10 10:55
KNKX 101055Z 00000KT 10SM OVC010 17/14 A2990 RMK AO2 SLP119 T01720139

2010/08/10 10:55
KVBG 101055Z AUTO 13003KT 10SM OVC001 12/11 A2991 RMK AO2 SLP118 T01170111 TSNO CHINO RWY12 VISNO RWY12 $

2010/08/10 10:55
KDLF 101055Z AUTO 09006KT 10SM FEW020 BKN041 27/23 A2992 RMK AO2 SLP112 T02660228

2010/08/10 10:50
LGAL 101050Z 14004KT CAVOK 32/16 Q1010

2010/08/10 10:50
LGEL 101050Z 34013KT 9999 FEW030 35/18 Q1009

2010/08/10 10:50
LGKV 101050Z 23006KT 9999 FEW035 34/18 Q1010

2010/08/10 10:50
LGMT 101050Z /////KT CAVOK 34/22 Q1008

2010/08/10 10:50
LGPZ 101050Z 26010KT 9999 FEW025 30/23 Q1011 NOSIG

2010/08/10 10:50
LGRX 101050Z 28008KT 9999 FEW025 31/22 Q1009 NOSIG

2010/08/10 10:50
LGSR 101050Z 34018KT CAVOK 32/21 Q1007 NOSIG

2010/08/10 10:56
KNPA 101056Z 01007KT 8SM SCT280 26/24 A2992 RMK AO2 SLP132 T02610239 

2010/08/10 10:56
KP53 101056Z AUTO 18007KT 17/17 A2996 RMK AO2 SLP145 T01720167 PWINO TSNO 

2010/08/10 10:55
KHON 101055Z AUTO 24013G18KT 6SM -RA BR SCT010 BKN015 OVC055 24/22 A2986 RMK AO2 RAB11 SLP098 P0001 T02440222 TSNO

2010/08/10 10:55
KPHP 101055Z AUTO 14003KT 10SM SCT110 22/18 A2983 RMK AO2 SLP076 T02170183 TSNO

2010/08/10 10:56
KSHV 101056Z 00000KT 10SM SCT290 26/23 A2991 RMK AO2 SLP125 T02610228

2010/08/10 10:55
KAAT 101055Z AUTO 00000KT 10SM BKN070 11/03 A3001 RMK AO2 SLP121 T01060028 TSNO

2010/08/10 10:56
KABQ 101056Z 33005KT 10SM SCT120 21/09 A3015 RMK AO2 SLP112 T02110089

2010/08/10 10:56
TJSJ 101056Z 13004KT 10SM FEW022 SCT045 SCT070 27/24 A2996 RMK AO2 SLP143 T02720239

2010/08/10 10:56
KCHS 101056Z 00000KT 10SM FEW025 26/25 A3002 RMK AO2 SLP164 T02560250

2010/08/10 10:53
KDAB 101053Z 11005KT 10SM FEW020 SCT120 SCT250 27/23 A2993 RMK AO2 SLP135 T02670233

2010/08/10 10:53
KSAV 101053Z 00000KT 10SM FEW015 SCT025 SCT250 25/24 A3000 RMK AO2 SLP158 T02500239

2010/08/10 10:54
KSYR 101054Z 00000KT 5SM BR SCT024 BKN041 BKN055 22/21 A2994 RMK AO2 SLP134 T02170206

2010/08/10 10:56
KSFO 101056Z 25003KT 10SM OVC008 14/11 A2989 RMK AO2 SLP120 T01390106

2010/08/10 10:55
KSMS 101055Z AUTO 00000KT M1/4SM FG OVC001 23/23 A3004 RMK AO2

2010/08/10 10:56
KINW 101056Z AUTO 15005KT 10SM FEW100 17/10 A3013 RMK AO2 SLP133 T01670100 $

2010/08/10 10:56
KMOB 101056Z 36005KT 9SM FEW100 SCT200 26/23 A2995 RMK AO2 SLP139 T02560233

2010/08/10 10:56
KOFK 101056Z AUTO 04005KT 10SM CLR 22/19 A2987 RMK AO2 SLP101 T02170189

2010/08/10 10:56
KCAE 101056Z 00000KT 1/2SM FG OVC002 24/23 A3002 RMK AO2 SLP162 T02390233 RVRNO

2010/08/10 10:56
KBZN 101056Z AUTO 00000KT 10SM CLR 11/08 A3000 RMK AO2 SLP132 T01060078

2010/08/10 10:55
KDVK 101055Z AUTO 20003KT 5SM CLR 24/23 A3000 RMK AO1

2010/08/10 10:56
TJSJ 101056Z 13004KT 10SM FEW022 SCT045 SCT070 27/24 A2996 RMK AO2 SLP143 T02720239

2010/08/10 10:56
PADK 101056Z 26013KT 10SM OVC070 09/07 A2990 RMK AO1 PNO

2010/08/10 10:56
KGNA 101056Z AUTO 00000KT 17/16 A2995 RMK AO2 SLP140 T01720156 PWINO TSNO

2010/08/10 10:56
KCDJ 101056Z AUTO 00000KT 26/ A2993 RMK AO2 SLP116 T0256 PWINO TSNO $

2010/08/10 10:56
KGNR 101056Z AUTO 00000KT 17/16 A2989 RMK AO1 SLP119 T01720156

2010/08/10 10:56
KP28 101056Z AUTO 18003KT 25/18 A2988 RMK AO2 SLP097 T02500178 PWINO TSNO

2010/08/10 10:56
KMHS 101056Z AUTO 00000KT 10SM CLR 12/08 A2996 RMK AO2 SLP132 T01170078 TSNO

2010/08/10 10:55
KLLJ 101055Z AUTO 02004KT 10SM FEW090 SCT110 11/09 A3006 RMK AO2 RAB05E28 SLP142 P0003 T01110094 $

2010/08/10 10:53
KOVE 101053Z AUTO 00000KT 10SM CLR 18/13 A2983 RMK AO2 SLP103 T01780128 TSNO $

2010/08/10 10:53
KRIL 101053Z AUTO 00000KT 10SM CLR 12/08 A3018 RMK AO2 SLP159 T01170083 TSNO

2010/08/10 10:50
KSAW 101050Z 00000KT 1/4SM FG VV002 17/16 A2998

2010/08/10 10:53
KSGR 101053Z 00000KT 10SM CLR 25/24 A2991 RMK AO2 SLP135 T02500239

2010/08/10 10:50
KWYS 101050Z AUTO 23003KT M1/4SM FG OVC001 05/04 A3015 RMK AO2

2010/08/10 10:55
KXFL 101055Z 13007KT 10SM CLR 27/24 A2994

2010/08/10 10:54
PAHN 101054Z AUTO 08008G18KT 10SM OVC009 13/12 A2997 RMK AO2 CIG 007V015 SLP152 T01330117 TSNO

2010/08/10 10:54
PAKN 101054Z 18011KT 5SM -RA BR OVC004 10/09 A2964 RMK AO2 SLP038 P0002 T01000094

2010/08/10 10:55
KFMH 101055Z AUTO 22004KT 3SM BR FEW100 22/21 A2993 RMK AO2

2010/08/10 10:56
KSDF 101056Z 13003KT 6SM HZ CLR 27/23 A2995 RMK AO2 SLP135 T02720233 $

2010/08/10 10:54
KAPG 101054Z 00000KT 7SM SCT080 25/23 A2994

2010/08/10 10:54
KAPG 101054Z 00000KT 7SM SCT080 25/23 A2994

2010/08/10 10:55
KFMH 101055Z AUTO 22004KT 3SM BR FEW100 22/21 A2993 RMK AO2

2010/08/10 10:54
KPHL 101054Z 20003KT 9SM FEW100 BKN150 BKN200 26/22 A2993 RMK AO2 SLP135 T02560222 $

2010/08/10 10:55
KPVF 101055Z AUTO 10007KT 10SM CLR 18/09 A2992 RMK AO1

2010/08/10 10:55
KRCE 101055Z AUTO 18008KT 10SM CLR 25/20 A2991 RMK AO2

2010/08/10 10:56
KRDM 101056Z AUTO 00000KT 10SM CLR 09/04 A2995 RMK AO2 SLP121 T00890039

2010/08/10 10:56
KSBP 101056Z 30003KT 10SM OVC004 13/12 A2989 RMK AO2 SLP121 T01280117 $

2010/08/10 10:56
KSLE 101056Z AUTO 00000KT 10SM BKN018 BKN042 12/09 A2997 RMK AO2 SLP149 T01170094 TSNO

2010/08/10 10:56
KSRC 101056Z AUTO 00000KT 1 3/4SM BR CLR 26/26 A2993 RMK AO2 TSNO T02610255 SLP135

2010/08/10 10:56
KTPH 101056Z AUTO 36008KT 10SM CLR 12/M11 A3006 RMK AO2 SLP116 T01171111

2010/08/10 10:56
KUKI 101056Z AUTO 00000KT 10SM CLR 13/11 A2986 RMK AO2 SLP103 T01280106

2010/08/10 10:56
KWJF 101056Z 28007KT 10SM CLR 19/M02 A2990 RMK AO2 SLP103 T01891022

2010/08/10 10:56
PAAK 101056Z AUTO 29006KT 1 3/4SM OVC003 08/06 A2991 RMK AO1 PNO

2010/08/10 10:56
PACM 101056Z AUTO VRB04KT 10SM FEW014 SCT020 OVC060 10/08 A2936 RMK AO2 TSNO T01000083 RAE50 P0001 SLP937 $

2010/08/10 10:56
PAHP 101056Z AUTO 21009KT 10SM OVC008 10/07 A2933 RMK AO1 PNO TSNO

2010/08/10 10:55
K0A9 101055Z AUTO 07004KT 8SM FEW100 21/19 A3008 RMK

2010/08/10 10:56
K1M4 101056Z AUTO 00000KT 2SM BR CLR 23/23 A3003 RMK AO2 T02270227 SLP165

2010/08/10 10:56
KAND 101056Z AUTO 00000KT 5SM BR CLR 23/21 A3004 RMK AO2 SLP161 T02280206

2010/08/10 10:55
KARW 101055Z AUTO 14003KT 10SM CLR 26/23 A3000 RMK AO2

2010/08/10 10:55
KBDN 101055Z AUTO 00000KT 10SM CLR 09/03 A2998 RMK AO2

2010/08/10 10:55
KBKN 101055Z AUTO 14004KT 10SM CLR 24/21 A2987 RMK AO2

2010/08/10 10:56
KCEC 101056Z AUTO 24003KT 1 1/2SM BR OVC002 12/11 A2992 RMK AO2 SLP131 T01170111

2010/08/10 10:56
KDIK 101056Z AUTO 19009KT 10SM CLR 19/16 A2980 RMK AO2 SLP072 T01940156

2010/08/10 10:56
KDUG 101056Z AUTO 02003KT 10SM CLR 19/17 A3005 RMK AO2 SLP100 T01890167

2010/08/10 10:56
KDUJ 101056Z AUTO 00000KT 3SM BR FEW050 OVC080 20/18 A3002 RMK AO2 SLP150 T02000178

2010/08/10 10:56
KEAU 101056Z 00000KT 1 1/2SM BR CLR 19/19 A2997 RMK AO2 TWR VIS 3 SLP141 T01940194

2010/08/10 10:56
KEED 101056Z AUTO 24003KT 10SM CLR 28/M03 A2979 RMK AO2 SLP050 T02831028 TSNO

2010/08/10 10:55
KEIK 101055Z AUTO 00000KT 10SM CLR 13/12 A3008 RMK AO2

2010/08/10 10:55
KGGE 101055Z AUTO 00000KT 10SM CLR 23/23 A3002 RMK AO2

2010/08/10 10:56
KGRD 101056Z AUTO 00000KT 10SM CLR 22/21 A3005 RMK AO2 SLP168 T02220211

2010/08/10 10:55
KHFF 101055Z AUTO 00000KT 10SM BKN002 22/22 A3004 RMK AO2 SLP170 T02230216 $

2010/08/10 10:56
KHND 101056Z AUTO 21008KT 10SM CLR 24/M04 A2989 RMK AO2 T02441044 SLP067

2010/08/10 10:50
KHXD 101050Z 00000KT 8SM SCT008 26/24 A3001

2010/08/10 10:56
KJMS 101056Z AUTO 00000KT 8SM SCT011 BKN033 20/19 A2989 RMK AO2 SLP111 T02000189

2010/08/10 10:56
KLAS 101056Z 18005KT 10SM CLR 26/M02 A2983 RMK AO2 SLP072 T02561022

2010/08/10 10:47
KLBE 101047Z 21003KT 6SM BR FEW110 SCT200 19/18 A3001

2010/08/10 11:02
KCPW 101102Z AUTO 24010KT 10SM OVC055 07/00 A3058 RMK AO2

2010/08/10 10:56
PMDY 101056Z AUTO 08010KT 10SM CLR 26/22 A3023 RMK AO2 TSNO T02550222 403050238 RAB03E16 P0000 SLP544

2010/08/10 10:55
KFBG 101055Z VRB03KT 10SM OVC003 25/24 A3002 RMK AO2A SLP163 T02460239 $

2010/08/10 10:55
KLFI 101055Z 26007KT 10SM SCT055 25/23 A2997 RMK AO2A SLP151 T02520229

2010/08/10 10:55
PGUA 101055Z AUTO 08006KT 10SM SCT018 BKN030 26/25 A2996 RMK AO2 SCT V BKN CIG 016 RWY24L SLP127 T02640253 $

2010/08/10 10:56
KNYG 101056Z 00000KT 7SM CLR 24/21 A2996 RMK AO2 SLP145 T02440206 $

2010/08/10 10:56
KPRN 101056Z AUTO 00000KT 9SM CLR 24/23 A2998 RMK AO2 SLP143 T02390228 $

2010/08/10 10:56
KNUQ 101056Z AUTO 00000KT 10SM OVC012 16/12 A2988 RMK AO2 SLP122 T01560122 TSNO

2010/08/10 10:56
KABH 101056Z AUTO 18003KT 10SM CLR 12/10 A3016 RMK AO2 SLP144 T01170100 $

2010/08/10 10:56
KNBC 101056Z 36003KT 6SM BR SCT020 SCT080 BKN250 24/23 A3000 RMK AO2 SLP160 T02440233

2010/08/10 10:56
KNLC 101056Z AUTO 32007KT 10SM CLR 19/12 A2981 RMK AO2 SLP092 T01940122 TSNO

2010/08/10 10:56
KNXX 101056Z 00000KT 8SM BKN150 BKN200 24/20 A2995 RMK AO2 SLP147 T02440200 $

2010/08/10 10:55
KFHU 101055Z 23005KT 10SM SKC 22/14 A3009 RMK SLP115

2010/08/10 10:55
KFRI 101055Z AUTO VRB05KT 10SM CLR 28/20 A2984 RMK AO2 SLP084 T02750203

2010/08/10 10:55
KGRK 101055Z 17005KT 7SM FEW060 27/23 A2993 RMK SLP111

2010/08/10 10:55
KMCF 101055Z AUTO 07012KT 10SM SCT009 25/25 A2987 RMK AO2 SLP116 T02500248

2010/08/10 10:55
KMIB 101055Z AUTO 10005KT 10SM FEW120 19/17 A2983 RMK AO2 LTG DSNT NW SLP095 T01880169

2010/08/10 10:52
KNZY 101052Z 00000KT 10SM OVC013 19/13 A2989 RMK AO2 SLP122 T01940133 $

2010/08/10 10:55
KPAM 101055Z AUTO 07005KT 10SM CLR 25/24 A2991 RMK AO2 SLP130 T02510242 $

2010/08/10 10:55
KPSM 101055Z 31006KT 4SM SCT140 21/21 A2988 RMK AO2A SLP121 T02120205

2010/08/10 10:55
KSKA 101055Z AUTO 22010KT 10SM BKN120 OVC160 15/09 A2981 RMK AO2 SLP082 T01500086

2010/08/10 10:55
KTCM 101055Z AUTO 22007KT 10SM OVC009 13/11 A2997 RMK AO2 CIG 009V012 SLP149 T01300106

2010/08/10 10:55
PACZ 101055Z AUTO 19009KT 10SM BKN006 OVC010 09/08 A2932 RMK AO1 T00890078

2010/08/10 10:55
PALU 101055Z AUTO 06017KT 7SM 08/08 A2960 RMK AO1 T00780078

2010/08/10 10:55
PAIM 101055Z AUTO 00000KT 10SM SCT036 BKN070 OVC095 11/11 A2964 RMK AO1 T01110112

2010/08/10 10:55
PATL 101055Z AUTO 31005KT 10SM SCT020 BKN025 OVC100 11/09 A2961 RMK AO1 T01060089

2010/08/10 10:55
PAEH 101055Z AUTO 17016G27KT 1 3/4SM OVC004 08/07 RMK AO1 VSBY 11/2V21/2 T00830073

2010/08/10 10:55
PASV 101055Z AUTO 00000KT 10SM OVC028 09/08 A2963 RMK AO1 T00940078

2010/08/10 10:56
PASY 101056Z AUTO 28010KT 1 1/4SM BR OVC001 09/09 A2990 RMK AO2 SLP124 T00890089 TSNO PNO $ 

2010/08/10 10:55
KRBW 101055Z AUTO 00000KT 10SM SCT023 SCT029 23/23 A3002 RMK AO2

2010/08/10 10:55
KSPL 101055Z AUTO 13005KT 28/27 A2986 RMK AO2 PWINO PNO

2010/08/10 10:55
KTME 101055Z AUTO 00000KT 10SM 24/24 A2993 RMK AO2

2010/08/10 10:55
KUTA 101055Z AUTO 18004KT 5SM BR CLR 26/25 A2995 RMK AO2

2010/08/10 10:55
KX40 101055Z AUTO 00000KT 7SM CLR 26/25 A2990 RMK AO2 T02610247

2010/08/10 10:55
KAEG 101055Z AUTO 00000KT 10SM SCT100 SCT120 16/08 A3018 RMK AO1

2010/08/10 10:55
KAIK 101055Z AUTO 00000KT 2 1/2SM BR CLR 22/ A3006 RMK AO2 PNO

2010/08/10 10:55
KBBP 101055Z AUTO 00000KT 2 1/2SM BR OVC003 23/22 A3003 RMK AO2

2010/08/10 10:55
KBNL 101055Z AUTO 00000KT 5SM BR FEW002 23/23 A3003 RMK AO2

2010/08/10 10:55
KBWD 101055Z AUTO 00000KT 10SM CLR 24/20 A2995 RMK AO2

2010/08/10 10:55
KCGC 101055Z AUTO 08003KT 10SM CLR 24/24 A2989 RMK

2010/08/10 10:55
KCIC 101055Z AUTO 13003KT 10SM CLR 19/09 A2983 RMK AO1

2010/08/10 10:55
KCQW 101055Z AUTO 00000KT M1/4SM FG OVC001 22/22 A3003 RMK AO2

2010/08/10 10:55
KDCM 101055Z AUTO 00000KT 4SM BR CLR 22/22 A3005 RMK AO2

2010/08/10 10:55
KE80 101055Z AUTO 00000KT 10SM CLR 19/08 A3014 RMK AO2 T01890083

2010/08/10 10:55
KEDC 101055Z AUTO 14003KT 10SM CLR 24/24 A2993 RMK AO1

2010/08/10 10:50
KEFD 101050Z 00000KT 10SM FEW250 26/24 A2993

2010/08/10 10:55
KEOE 101055Z AUTO 00000KT 4SM BR CLR 22/22 A3006 RMK AO2

2010/08/10 10:55
KFMH 101055Z AUTO 22004KT 3SM BR FEW100 22/21 A2993 RMK AO2

2010/08/10 10:54
KGED 101054Z AUTO 22005KT 5SM BR CLR 24/23 A2995 RMK AO2 SLP142 T02440228

2010/08/10 10:55
KGYH 101055Z AUTO 00000KT 7SM CLR 25/21 A3005 RMK AO2

2010/08/10 10:55
KHVS 101055Z AUTO 00000KT 1 1/4SM OVC001 23/ A3004 RMK AO2

2010/08/10 10:55
KHYW 101055Z AUTO 00000KT 7SM CLR 23/ A3002 RMK AO2

2010/08/10 10:55
KIFP 101055Z AUTO 00000KT 10SM CLR 27/03 A2977 RMK AO2

2010/08/10 10:55
KLQK 101055Z AUTO 00000KT 1 1/2SM BR VV007 22/22 A3005 RMK AO2 T02210217 PNO

2010/08/10 10:55
KLRO 101055Z AUTO 00000KT 5SM BR CLR 23/23 A3001 RMK AO2

2010/08/10 10:55
KLUX 101055Z AUTO 00000KT 5SM BR CLR 22/22 A3005 RMK AO2

2010/08/10 10:55
KMAO 101055Z AUTO 00000KT 7SM CLR 23/23 A3002 RMK AO2

2010/08/10 10:55
KMKS 101055Z AUTO 00000KT 7SM SCT020 24/23 A3002 RMK AO2 TSNO

2010/08/10 10:55
KMNI 101055Z AUTO 00000KT 10SM SCT020 23/23 A3002 RMK AO2

2010/08/10 10:54
KPTW 101054Z AUTO 00000KT 5SM HZ CLR 24/21 A2995 RMK AO2 SLP137 T02440211

2010/08/10 10:54
KBOS 101054Z 27006KT 10SM BKN120 24/21 A2990 RMK AO2 SLP125 T02390206

2010/08/10 10:53
KBRO 101053Z 12004KT 10SM CLR 28/26 A2986 RMK AO2 SLP111 T02780261

2010/08/10 10:53
KFLL 101053Z 15010KT 9SM -RA FEW012 SCT043 SCT060 25/24 A2988 RMK AO2 TSB15E36RAB03 SLP117 P0050 T02500239

2010/08/10 10:51
KJFK 101051Z VRB04KT 8SM FEW044 BKN140 OVC250 26/20 A2993 RMK AO2 SLP136 T02560200

2010/08/10 10:53
KMCO 101053Z 08006KT 10SM FEW026 FEW080 FEW250 24/23 A2992 RMK AO2 SLP129 T02440228

2010/08/10 10:53
KPBI 101053Z 14014KT 6SM +RA SCT022CB BKN035 BKN060 27/23 A2988 RMK AO2 RAB0957E08B46 SLP116 CB OHD-NW AND ALQDS MOV NW P0002 T02690232 $

2010/08/10 10:53
TIST 101053Z 09007KT 10SM FEW070 29/24 A2994 RMK AO2 SLP137 T02890244

2010/08/10 10:53
TISX 101053Z 08008KT 10SM CLR 27/24 A2994 RMK AO2 SLP138 T02720244

2010/08/10 10:53
PASC 101053Z 05014KT 1 1/2SM BR OVC003 03/03 A2975 RMK AO2 SLP075 T00330028

2010/08/10 10:55
KHFF 101055Z AUTO 00000KT 10SM BKN002 22/22 A3004 RMK AO2 SLP170 T02230216 $

2010/08/10 10:53
PHJR 101053Z AUTO VRB05KT 10SM FEW055 25/18 A3010 RMK AO2 SLP197 T02500178 TSNO

2010/08/10 10:54
PHMK 101054Z AUTO 04011KT 10SM BKN048 24/19 A3009 RMK AO2 SLP190 T02390189 TSNO

2010/08/10 10:52
K5SM 101052Z AUTO 00000KT 10SM 08/00 A3050 RMK AO2

2010/08/10 10:54
K7BM 101054Z AUTO 29004KT 10SM CLR 12/01 A3044 RMK AO2

2010/08/10 10:58
KBDU 101058Z AUTO 25004KT 10SM CLR 19/11 A3008 RMK AO2

2010/08/10 10:56
KBMI 101056Z 04008KT 8SM SCT060 23/23 A2999 RMK AO2 T02330227 TSB00E18 SLP138 $

2010/08/10 10:56
KBOK 101056Z AUTO 00000KT 1/2SM FG OVC002 11/11 A2992 RMK AO2 T01050105 SLP133

2010/08/10 10:57
KCCU 101057Z AUTO 23012KT 10SM CLR 08/00 A3056 RMK AO2

2010/08/10 10:55
KCMA 101055Z 00000KT 10SM OVC005 14/11 A2989 RMK AO2 SLP130 T01440111

2010/08/10 10:55
KEAT 101055Z AUTO 30005KT 10SM CLR 16/08 A2983 RMK AO2 SLP094 T01560078

2010/08/10 10:54
KWAL 101054Z AUTO 28005KT 6SM BR CLR 25/23 A2997 RMK AO2 SLP144 T02500228 TSNO

2010/08/10 10:54
KMTP 101054Z AUTO 00000KT 22/19 A2994 RMK AO2 SLP137 T02220189 PWINO TSNO

2010/08/10 10:54
KWAL 101054Z AUTO 28005KT 6SM BR CLR 25/23 A2997 RMK AO2 SLP144 T02500228 TSNO

2010/08/10 10:56
KSXT 101056Z AUTO 01009KT 8SM CLR 11/08 A2997 RMK AO2 SLP112 T01060078 TSNO 

2010/08/10 10:56
PHBK 101056Z AUTO 07004KT 10SM CLR 23/14 A3008 RMK AO2 SLP188 T02330144 TSNO $ 

2010/08/10 10:56
KLNR 101056Z AUTO 00000KT M1/4SM FG VV001 23/22 A2998 RMK AO2 SLP140 T02280217

2010/08/10 10:56
KM19 101056Z AUTO 15004KT 6SM BR CLR 26/25 A2993 RMK AO2 T02610250 SLPNO

2010/08/10 10:56
KMQY 101056Z AUTO 00000KT 7SM CLR 25/24 A3000 RMK AO2 T02500238 SLP149 $

2010/08/10 10:55
KNQA 101055Z COR 00000KT 10SM CLR 25/25 A2995 RMK

2010/08/10 10:55
KO22 101055Z AUTO 00000KT 10SM CLR 13/10 A2989 RMK AO1

2010/08/10 10:56
KNFE 101056Z AUTO 00000KT 1 1/4SM HZ CLR 24/21 A2999 RMK AO2 SLP156 T02390211 $

2010/08/10 10:56
KSDF 101056Z 13003KT 6SM HZ CLR 27/23 A2995 RMK AO2 SLP135 T02720233 $

2010/08/10 10:53
K04W 101053Z AUTO 00000KT 1/2SM FG OVC003 18/17 A2997 RMK AO2 T01780174

2010/08/10 10:55
K21D 101055Z AUTO 00000KT 10SM CLR 20/19 A2996 RMK AO2

2010/08/10 10:54
KAPG 101054Z 00000KT 7SM SCT080 25/23 A2994

2010/08/10 10:56
KART 101056Z AUTO 00000KT 3SM BR OVC019 21/20 A2993 RMK AO2 SLP131 T02110200

2010/08/10 10:56
KBED 101056Z 25003KT 3SM BR CLR 22/21 A2990 RMK AO2 SLP133 T02220211

2010/08/10 10:54
KBJI 101054Z AUTO 00000KT 4SM BR CLR 18/18 A2996 RMK AO2

2010/08/10 10:56
KBJJ 101056Z AUTO 00000KT 2 1/2SM BR CLR 20/19 A3000 RMK AO2 SLP149 T02000189

2010/08/10 10:55
KBUU 101055Z AUTO 00000KT M1/4SM FG OVC001 18/18 A2998 RMK AO2 T01760175

2010/08/10 10:54
KC29 101054Z AUTO 00000KT 1 1/4SM SCT002 21/19 A2999 RMK AO2 VIS 1/2V2 1/2 T02060194

2010/08/10 10:56
KCTB 101056Z AUTO 00000KT 10SM CLR 13/07 A2986 RMK AO2 SLP081 T01280072 PWINO

2010/08/10 10:56
KCXY 101056Z 00000KT 6SM HZ CLR 24/21 A2994 RMK AO2 SLP137 T02390211

2010/08/10 10:53
KD39 101053Z AUTO 09004KT 5SM BR CLR 22/21 A2994 RMK AO2 T02210212

2010/08/10 10:56
KDAY 101056Z 00000KT 5SM HZ FEW200 SCT250 24/20 A3000 RMK AO2 SLP147 T02440200

2010/08/10 10:56
KEKO 101056Z AUTO 17004KT 10SM CLR 12/04 A3000 RMK AO2 SLP107 T01170044

2010/08/10 10:56
KELZ 101056Z AUTO 00000KT 1SM -RA BR OVC065 19/19 A3004 RMK AO2 RAB29 SLP158 P0000 T01890189

2010/08/10 10:56
KGON 101056Z 00000KT 7SM OVC100 23/20 A2991 RMK AO2 RAB21E43 SLP128 P0000 T02330200

2010/08/10 10:55
KHFJ 101055Z AUTO 00000KT 10SM CLR 24/21 A2994 RMK AO1

2010/08/10 10:56
KHPN 101056Z 00000KT 7SM BKN110 22/20 A2995 RMK AO2 SLP134 P0001 T02220200

2010/08/10 10:56
KHWV 101056Z AUTO 00000KT 5SM BR BKN110 23/21 A2994 RMK AO2 RAB06E15 SLP138 P0000 T02330211

2010/08/10 10:56
KHYA 101056Z 23004KT 4SM -RA BR FEW028 23/21 A2991 RMK AO2 RAB18 SLP130 P0000 T02280211

2010/08/10 10:56
KIGX 101056Z AUTO 00000KT 4SM BR CLR 23/22 A3004 RMK AO2 SLP164 T02280217

2010/08/10 10:56
KISP 101056Z 35003KT 9SM BKN140 OVC250 24/19 A2992 RMK AO2 RAE04 SLP132 P0000 T02390189

2010/08/10 10:56
KITH 101056Z 00000KT 4SM BR SCT046 BKN080 21/19 A3000 RMK AO2 T02050194 RAE25 P0000 SLP151

2010/08/10 10:56
KJXN 101056Z 00000KT 2 1/2SM BR BKN001 OVC018 19/19 A3000 RMK AO2 SLP152 T01890189 $

2010/08/10 10:55
KLCK 101055Z AUTO 00000KT 5SM BR CLR 22/21 A2998 RMK AO2 T02210206

2010/08/10 10:56
KLRD 101056Z 13007KT 10SM CLR 28/25 A2989 RMK AO2 T02770250 SLP108

2010/08/10 10:56
KMDT 101056Z 00000KT 4SM HZ OVC120 25/22 A2993 RMK AO2 SLP134 T02500222 $

2010/08/10 10:56
KMRH 101056Z AUTO 23005KT 10SM BKN016 BKN025 BKN037 28/24 A3002 RMK AO2 SLP164 T02780244 TSNO

2010/08/10 10:56
PATG 101056Z AUTO 17018G22KT 9SM BKN009 OVC018 10/09 A2955 RMK AO1 PNO

2010/08/10 10:56
PAUN 101056Z AUTO 12008KT 10SM OVC037 11/07 A2948 RMK AO1 PNO

2010/08/10 10:56
PAVD 101056Z 24003KT 3SM SCT011 OVC016 11/09 A2990 RMK AO1 PNO

2010/08/10 10:56
PAWG 101056Z AUTO 00000KT 5SM OVC010 12/11 A3004 RMK AO1 PNO

2010/08/10 10:56
PAWN 101056Z AUTO 06005KT 10SM BKN032 BKN042 OVC050 12/11 A2953 RMK AO1 PNO

2010/08/10 10:56
PAWS 101056Z AUTO 00000KT 10SM FEW006 OVC060 11/09 A2977 RMK AO1 PNO

2010/08/10 10:56
PAZK 101056Z AUTO 26008KT 1/4SM OVC001 07/05 A2977 RMK AO1 PNO

2010/08/10 10:56
KOWB 101056Z 18003KT 5SM BR CLR 26/25 A2996 RMK AO2 T02550250 SLP141

2010/08/10 10:56
KSGH 101056Z AUTO 00000KT 4SM BR CLR 21/21 A3000 RMK AO2 T02050205 SLP150 $

2010/08/10 10:58
KSGJ 101058Z 13009KT 10SM SCT012 27/24 A2995 RMK AO2 SLP141 T02720239

2010/08/10 10:55
KSME 101055Z AUTO 00000KT 2 1/2SM BR 23/23 A3001 RMK AO2

2010/08/10 10:52
KNZY 101052Z 00000KT 10SM OVC013 19/13 A2989 RMK AO2 SLP122 T01940133 $

2010/08/10 10:49
KHFF 101049Z AUTO 00000KT 8SM BKN002 22/22 A3004 RMK AO2 SLP170 $

2010/08/10 10:55
KASX 101055Z AUTO 00000KT 3/4SM BR CLR 17/17 A2998 RMK AO2

2010/08/10 10:56
KMEB 101056Z AUTO 00000KT 3/4SM BR OVC003 24/23 A3003 RMK AO2

2010/08/10 10:51
KCEF 101051Z AUTO 00000KT 1/4SM R23/1200V3500FT R33/1000VP6000FT FG CLR 21/20 A2993 RMK AO2 SLP135 $

2010/08/10 10:52
KCEF 101052Z AUTO 00000KT 1/2SM R23/1200V4500FT R33/0900VP6000FT FG CLR 21/20 A2993 RMK AO2 SLP135 $

2010/08/10 10:53
KCEF 101053Z AUTO 00000KT 1/2SM R23/1200V5500FT R33/0900VP6000FT FG CLR 21/20 A2993 RMK AO2 SLP135 $

2010/08/10 10:54
KMMT 101054Z AUTO 00000KT 7SM BKN003 BKN016 OVC025 24/24 A3002 RMK AO2 BKN003 V SCT SLP165

2010/08/10 10:47
KNBG 101047Z AUTO 00000KT 3/4SM BR CLR 25/23 A2994 RMK AO2 PWINO $

2010/08/10 10:54
KROA 101054Z 34003KT 7SM CLR 24/21 A3005 RMK AO2 SLP162 T02390206

2010/08/10 10:54
KCAR 101054Z AUTO 00000KT 6SM BR FEW065 16/15 A2984 RMK AO2 SLP105 T01560150 $

2010/08/10 10:50
KISM 101050Z 08008KT 10SM SCT022 24/23 A2992 RMK FIRST

2010/08/10 10:55
KJQF 101055Z 00000KT 5SM BR CLR 23/21 A3004

2010/08/10 10:54
KACY 101054Z 23005KT 10SM CLR 24/22 A2994 RMK AO2 SLP138 T02440222 $

2010/08/10 10:49
KMWN 101049Z 33026KT 35SM SCT/// FEW000 FEW200 09/08 RMK TPS LWR SCT030 PTCHY VLY FG N-NE HZ DSNT ALQDS

2010/08/10 10:53
KMWT 101053Z AUTO 00000KT 10SM CLR 23/23 A2993 RMK AO2 SLP120 T02330228 TSNO

2010/08/10 10:53
PHKO 101053Z AUTO 00000KT 10SM CLR 23/17 A3002 RMK AO2 SLP166 T02330167 TSNO

2010/08/10 10:54
PHOG 101054Z AUTO 04010KT 10SM FEW060 24/18 A3008 RMK AO2 SLP191 T02440183 TSNO

2010/08/10 10:53
PHTO 101053Z 23006KT 10SM FEW026 SCT060 22/17 A3010 RMK AO2 SLP191 T02170172

2010/08/10 10:54
KRFD 101054Z 00000KT 10SM OVC180 23/22 A2997 RMK AO2 SLP143 T02330217 $

2010/08/10 10:55
KDRA 101055Z AUTO 07004KT 10SM CLR 21/M08 A2992 RMK AO2 SLP080 T02111078 TSNO

2010/08/10 10:53
KCQC 101053Z AUTO 02006KT 10SM CLR 14/12 A3025 RMK AO2 SLP145 T01440122 TSNO

2010/08/10 10:53
KLAX 101053Z 28005KT 6SM BR OVC007 15/13 A2991 RMK AO2 SLP125 T01500128 $

2010/08/10 10:54
KRIC 101054Z 23003KT 9SM FEW250 25/21 A2996 RMK AO2 SLP149 T02500206 $

2010/08/10 10:53
K4BM 101053Z AUTO 27003KT 10SM 07/03 A3055 RMK AO2

2010/08/10 10:54
KAVP 101054Z 00000KT 6SM BR FEW120 22/19 A2997 RMK AO2 RAE31 SLP135 P0001 T02170194

2010/08/10 10:53
KBTR 101053Z 04003KT 1 3/4SM BR SCT002 BKN200 23/23 A2994 RMK AO2 SLP136 VIS N-NE 3/4 SCT V BKN T02330233

2010/08/10 10:54
KBTV 101054Z 00000KT 4SM BR OVC003 18/18 A2993 RMK AO2 SLP135 VIS N-NE 1 1/4 T01780178

2010/08/10 10:53
KCHA 101053Z 00000KT 10SM SCT150 BKN250 26/23 A3002 RMK AO2 SLP155 T02560233

2010/08/10 10:55
KCNK 101055Z AUTO 02003KT 10SM BKN090 26/21 A2986 RMK AO2 SLP089 T02560211

2010/08/10 10:53
KDAB 101053Z 11005KT 10SM FEW020 SCT120 SCT250 27/23 A2993 RMK AO2 SLP135 T02670233

2010/08/10 10:55
KDLH 101055Z 00000KT 9SM CLR 20/17 A2999 RMK AO2 SLP148 T02000167

2010/08/10 10:54
KFWA 101054Z 03003KT 1SM BR SCT041 BKN250 23/22 A2998 RMK AO2 SLP145 R05/5500FT TCU DSNT E AND W T02330222

2010/08/10 10:55
KGPI 101055Z AUTO 00000KT 10SM FEW100 12/10 A2986 RMK AO2 SLP096 T01170100 $

2010/08/10 10:54
KGSO 101054Z 25005KT 5SM HZ CLR 24/21 A3004 RMK AO2 SLP160 T02390206

2010/08/10 10:55
KIRK 101055Z AUTO 02008KT 10SM CLR 24/22 A2996 RMK AO2 SLP139 T02390222

2010/08/10 10:55
KLIC 101055Z AUTO 00000KT 10SM CLR 13/13 A3012 RMK AO2 SLP125 T01280128

2010/08/10 10:53
KLXV 101053Z AUTO 10003KT 10SM CLR 03/03 A3044 RMK AO2 SLP173 T00330028 TSNO

2010/08/10 10:55
KMKG 101055Z 19003KT 1/4SM FG OVC002 20/19 A2999 RMK AO2 TWR VIS 1/4 SLP154 T02000194

2010/08/10 10:53
KMSN 101053Z 00000KT 3SM BCFG BR FEW001 22/21 A2997 RMK AO2 SLP143 T02170211

2010/08/10 10:55
KRNO 101055Z 00000KT 10SM FEW100 18/04 A3000 RMK AO2 SLP102 T01830044

2010/08/10 10:53
KSAV 101053Z 00000KT 10SM FEW015 SCT025 SCT250 25/24 A3000 RMK AO2 SLP158 T02500239

2010/08/10 10:55
KSCK 101055Z AUTO 34005KT 10SM CLR 14/11 A2982 RMK AO2 SLP097 T01390111

2010/08/10 10:53
KTLH 101053Z 06006KT 10SM FEW013 26/23 A2994 RMK AO2 SLP136 T02560233

2010/08/10 10:53
KTRI 101053Z 00000KT 6SM BR BKN110 22/21 A3007 RMK AO2 SLP162 T02220206

2010/08/10 10:53
KTYS 101053Z 00000KT 3SM BR BKN110 25/23 A3002 RMK AO2 SLP153 T02500228

2010/08/10 10:55
KMBG 101055Z AUTO 15010KT 10SM CLR 23/22 A2979 RMK AO2 SLP072 T02330217 TSNO

2010/08/10 10:54
KAKQ 101054Z AUTO 16003KT 4SM BR CLR 23/22 A2998 RMK AO2 SLP150 T02330217 TSNO

2010/08/10 10:53
KRQE 101053Z AUTO 00000KT 10SM FEW100 10/08 A3026 RMK AO2 SLP142 T01000083 TSNO

2010/08/10 10:55
KANJ 101055Z AUTO VRB06KT 1 1/2SM BR OVC002 20/19 A2997 RMK AO2 SLP142 T02000189

2010/08/10 10:55
KAST 101055Z AUTO 00000KT 10SM OVC014 13/11 A2997 RMK AO2 PK WND 21027/0958 SLP150 T01330111

2010/08/10 10:56
KJAX 101056Z 11006KT 10SM FEW020 SCT150 SCT250 26/23 A2995 RMK AO2 SLP141 T02610228

2010/08/10 10:55
KY51 101055Z AUTO 08003KT 5SM CLR 22/22 A3000 RMK AO1 T02210217

2010/08/10 10:56
PAAK 101056Z AUTO 29006KT 1 3/4SM OVC003 08/06 A2991 RMK AO1 PNO

2010/08/10 10:56
PABL 101056Z AUTO 13006KT 10SM BKN070 BKN100 11/09 A2950 RMK AO1 PNO

2010/08/10 10:56
PABV 101056Z AUTO 00000KT 10SM SCT012 OVC060 12/08 A2977 RMK AO1 PNO

2010/08/10 10:56
PACM 101056Z AUTO VRB04KT 10SM FEW014 SCT020 OVC060 10/08 A2936 RMK AO2 TSNO T01000083 RAE50 P0001 SLP937 $

2010/08/10 10:56
PAEM 101056Z AUTO 15010KT 10SM FEW015 SCT022 BKN045 10/08 A2934 RMK AO1 PNO

2010/08/10 10:56
PAFE 101056Z AUTO 16003KT 5SM OVC006 13/11 A3005 RMK AO1 PNO

2010/08/10 10:56
PAFM 101056Z AUTO 10003KT 10SM OVC048 13/11 A2959 RMK AO1 PNO

2010/08/10 10:56
PAGL 101056Z AUTO 11009KT 10SM BKN050 12/09 A2950 RMK AO1 PNO

2010/08/10 10:56
PAGM 101056Z AUTO 05008KT 7SM BKN004 OVC008 08/07 A2944 RMK AO1

2010/08/10 10:56
PAGS 101056Z AUTO 00000KT 3SM SCT013 BKN021 BKN065 13/12 A3000 RMK AO1 PNO

2010/08/10 10:56
PAHP 101056Z AUTO 21009KT 10SM OVC008 10/07 A2933 RMK AO1 PNO TSNO

2010/08/10 10:56
PAHY 101056Z AUTO 00000KT 10SM OVC010 13/12 A3004 RMK AO1 PNO

2010/08/10 10:56
PAII 101056Z AUTO 14006KT 9SM FEW004 BKN021 OVC028 10/09 A2970 RMK AO1 PNO

2010/08/10 10:56
PAIN 101056Z AUTO 00000KT 10SM OVC046 12/09 A2969 RMK AO1 PNO

2010/08/10 10:56
PAJC 101056Z AUTO 00000KT 10SM SCT018 OVC026 13/06 A2968 RMK AO1 PNO

2010/08/10 10:56
PAKK 101056Z AUTO 08003KT 10SM OVC110 11/08 A2946 RMK AO1 PNO

2010/08/10 10:56
PAKP 101056Z AUTO 00000KT 1/4SM OVC001 09/08 A2962 RMK AO1

2010/08/10 10:56
PAMD 101056Z AUTO 19005KT 4SM FEW004 SCT008 BKN014 11/09 A2994 RMK AO1 PNO

2010/08/10 10:56
PAMH 101056Z RMK AO1 PNO

2010/08/10 10:56
PAMM 101056Z AUTO 00000KT 10SM OVC050 12/09 A3005 RMK AO1 PNO

2010/08/10 10:56
PAMY 101056Z 23006KT 10SM FEW025 OVC035 08/07 A2937 RMK AO1

2010/08/10 10:56
PANI 101056Z AUTO 13006KT 10SM OVC050 11/08 A2952 RMK AO1 PNO

2010/08/10 10:56
PANV 101056Z AUTO 13005KT 10SM SCT016 SCT023 OVC034 11/09 A2950 RMK AO1 PNO

2010/08/10 10:56
PAOU 101056Z AUTO 00000KT 9SM BKN021 OVC027 10/08 A2966 RMK AO2 PWINO TSNO T01000083 SLP046 $

2010/08/10 10:56
PAPG 101056Z 05003KT 5SM OVC006 10/09 A3003 RMK AO1 PNO

2010/08/10 10:56
PAPH 101056Z AUTO 17006KT 10SM OVC041 12/07 A2966 RMK AO1 PNO

2010/08/10 10:56
PARC 101056Z AUTO 00000KT 10SM OVC004 10/07 A2963 RMK AO1 PNO

2010/08/10 10:56
PASA 101056Z AUTO 04010KT 10SM FEW005 OVC009 09/07 A2942 RMK AO1 PNO

2010/08/10 10:56
PASD 101056Z AUTO 17010G19KT 7SM BKN017 OVC025 10/08 A2972 RMK AO1 PNO

2010/08/10 10:56
PASH 101056Z AUTO 07004KT 10SM BKN030 OVC047 12/10 A2946 RMK AO1 PNO

2010/08/10 10:56
PASK 101056Z AUTO 12011KT 10SM SCT090 BKN120 13/10 A2952 RMK AO1 PNO

2010/08/10 10:56
PASL 101056Z AUTO 00000KT 10SM BKN008 BKN016 OVC065 11/09 A2963 RMK AO1 PNO

2010/08/10 10:56
PASM 101056Z AUTO 16011G16KT 8SM OVC005 09/08 A2941 RMK AO1 PNO

2010/08/10 10:56
PASX 101056Z AUTO 00000KT 10SM OVC005 11/10 A2978 RMK AO1 PNO

2010/08/10 10:56
KLWS 101056Z AUTO 12005KT 10SM CLR 17/08 A2982 RMK AO2 SLP089 T01720083 

2010/08/10 11:00
KVTP 101100Z AUTO 25009G14KT 10SM CLR 08/06 A3046 RMK AO2

2010/08/10 10:56
K2WX 101056Z AUTO 36004KT 18/13 A2978 RMK AO1 SLP057 T01830133 

2010/08/10 10:50
OAKN 101050Z 27014KT 8000 DU SCT150 BKN250 38/01 Q1006 BLU TEMPO 6000 WHT RMK A2970 DA6900

2010/08/10 10:50
EBAW 101050Z 20009KT CAVOK 21/13 Q1013 NOSIG

2010/08/10 10:50
EBBR 101050Z 22008KT 180V250 CAVOK 22/11 Q1014 NOSIG

2010/08/10 10:50
EBCI 101050Z 24011KT CAVOK 22/11 Q1015 NOSIG

2010/08/10 10:50
EBLG 101050Z 25009KT CAVOK 23/12 Q1014 NOSIG

2010/08/10 10:50
EBOS 101050Z 20013KT 9999 FEW020 BKN045 20/14 Q1012 TEMPO 4500 RA BKN012

2010/08/10 10:50
ELLX 101050Z 20006KT 140V260 CAVOK 24/11 Q1015 NOSIG

2010/08/10 10:50
LOWG 101050Z VRB04KT 9999 FEW040 SCT300 26/16 Q1018 NOSIG

2010/08/10 10:50
LOWI 101050Z VRB01KT 9999 SCT080 FEW080TCU 24/13 Q1017 NOSIG

2010/08/10 10:50
LOWK 101050Z 27003KT 200V320 9999 FEW030 FEW050CB 24/15 Q1018 NOSIG

2010/08/10 10:50
LOWL 101050Z VRB02KT 9999 FEW045 24/13 Q1018 NOSIG

2010/08/10 10:50
LOWS 101050Z 04005KT 010V110 9999 FEW060 25/08 Q1017 NOSIG

2010/08/10 10:50
LOWW 101050Z 06003KT 340V130 9999 FEW065 23/15 Q1018 NOSIG

2010/08/10 10:50
EFIV 101050Z AUTO 04007KT 020V090 9999 FEW022 BKN027 13/10 Q1012

2010/08/10 10:50
EFKE 101050Z 36008KT 320V030 9999 BKN020 15/11 Q1010

2010/08/10 10:50
EFMA 101050Z 21012KT 9999 BKN009 18/16 Q1011

2010/08/10 10:50
LGAD 101050Z 32009KT 9999 FEW020 32/21 Q1011

2010/08/10 10:50
LGAV 101050Z 03019KT 9999 SCT025 34/17 Q1010 NOSIG

2010/08/10 10:50
LGIR 101050Z 31016KT 9999 FEW020 31/24 Q1008 NOSIG

2010/08/10 10:50
LGKF 101050Z 27006KT 9999 FEW025 30/19 Q1011

2010/08/10 10:50
LGKL 101050Z 18010KT 9999 FEW030 31/21 Q1009

2010/08/10 10:50
LGKO 101050Z 30010KT CAVOK 33/22 Q1006

2010/08/10 10:50
LGKR 101050Z 11005KT 9999 FEW020 33/18 Q1010 NOSIG

2010/08/10 10:50
LGLM 101050Z 02011KT 9999 FEW020 31/19 Q1010

2010/08/10 10:50
LGRP 101050Z 25013KT 8000 NSC 31/26 Q1005 NOSIG

2010/08/10 10:50
LGSA 101050Z 32016KT 9999 FEW030 32/21 Q1010

2010/08/10 10:50
LGSM 101050Z 01010KT CAVOK 35/18 Q1005

2010/08/10 10:50
LGTS 101050Z 28010KT CAVOK 31/18 Q1012 NOSIG

2010/08/10 10:50
LGKZ 101050Z 33008KT 9999 FEW020 29/12 Q1016

2010/08/10 10:50
LGMK 101050Z 35021G32KT 9999 FEW012 30/22 Q1008

2010/08/10 10:45
LIBR 101045Z 33018G28KT 9999 FEW018CB 26/22 Q1013 NOSIG

2010/08/10 10:45
LIEE 101045Z 13008KT CAVOK 32/11 Q1015 NOSIG

2010/08/10 10:50
LIBD 101050Z 01009KT 340V050 CAVOK 28/17 Q1014

2010/08/10 10:50
LICC 101050Z 07010KT CAVOK 29/17 Q1015

2010/08/10 10:50
LICJ 101050Z 04015KT CAVOK 27/20 Q1015

2010/08/10 10:50
LIEA 101050Z 30008KT 240V330 CAVOK 30/17 Q1016

2010/08/10 10:50
LIEO 101050Z 05009KT CAVOK 29/16 Q1016

2010/08/10 10:50
LIMC 101050Z VRB03KT 9999 SCT030 27/18 Q1016 NOSIG

2010/08/10 10:50
LIME 101050Z VRB03KT 9999 FEW060 27/16 Q1017

2010/08/10 10:50
LIMF 101050Z 11006KT 9999 FEW035 26/17 1017

2010/08/10 10:50
LIMJ 101050Z 20004KT 9999 FEW028 27/22 Q1016

2010/08/10 10:50
LIML 101050Z VRB03KT 9999 FEW030 28/17 Q1016 NOSIG

2010/08/10 10:50
LIPE 101050Z VRB02KT 9999 FEW050 29/19 Q1015

2010/08/10 10:50
LIPK 101050Z VRB02KT 9999 FEW020 28/18 Q1015

2010/08/10 10:50
LIPQ 101050Z VRB03KT CAVOK 29/18 Q1015

2010/08/10 10:50
LIPZ 101050Z 12004KT 9999 FEW025 28/21 Q1015

2010/08/10 10:50
LIRF 101050Z 21009KT 170V260 CAVOK 29/19 Q1015 NOSIG

2010/08/10 10:50
LIRQ 101050Z VRB04KT CAVOK 28/18 Q1015

2010/08/10 10:45
LIPH 101045Z 33002KT 9999 FEW020 28/19 Q1016

2010/08/10 10:45
LIPR 101045Z 03007KT 9999 FEW025 27/25 Q1015

2010/08/10 10:45
LIPX 101045Z 14004KT 9999 FEW050 29/16 Q1016

2010/08/10 10:45
LIRA 101045Z 15006KT 090V200 9999 FEW020 31/20 Q1015

2010/08/10 10:45
LIRP 101045Z 26005KT 230V310 9999 SCT025 27/20 Q1016 NOSIG

2010/08/10 10:50
LIMC 101050Z VRB03KT 9999 SCT030 27/18 Q1016 NOSIG

2010/08/10 10:45
LIPX 101045Z 14004KT 9999 FEW050 29/16 Q1016

2010/08/10 10:50
LCRA 101050Z 25011KT 8000 HZ SCT023 31/24 Q1006 NOSIG

2010/08/10 11:00
MNMG 101100Z 00000KT 8000 -TSRA FEW020CB SCT022 24/23 Q1010 A2984 CB/N/NE/E/SE/S/SW NOSIG

2010/08/10 10:49
MMAA 101049Z 00000KT 8SM FEW015 SCT080 SCT300 26/24 A2979 RMK 8/272 OCNL LTG SW

2010/08/10 10:52
MMTM 101052Z 00000KT 5SM SCT200 27/25 A2987 RMK 8/001 HZY RTS

2010/08/10 10:52
MMVR 101052Z 00000KT 7SM SCT250 25/24 A2986 RMK 8/001 HZY

2010/08/10 10:54
MMCN 101054Z 00000KT 10SM FEW200 28/23 A2974 RMK 8/005 RTS

2010/08/10 10:47
MMHO 101047Z 00000KT 10SM SCT080 30/22 A2981 RMK 8/030 HZY ISOL CI

2010/08/10 10:55
MMRX 101055Z 00000KT 8SM SKC 27/25 A2987 RMK HZY RTS

2010/08/10 10:45
MMTO 101045Z 18005KT 4SM SCT015 BKN200 11/10 A3035 RMK 8/502 HZ

2010/08/10 10:55
EHAM 101055Z 20012KT 9999 BKN019 20/15 Q1011 NOSIG

2010/08/10 10:55
EHBK 101055Z AUTO 25007KT 200V290 9999NDV NSC 24/12 Q1013 NOSIG

2010/08/10 10:55
EHDL 101055Z AUTO 20008KT 9999NDV OVC170 20/14 Q1013 BLU

2010/08/10 10:55
EHGG 101055Z AUTO 21012KT 180V250 9999NDV SCT022 BKN025 20/15 Q1012 NOSIG

2010/08/10 10:55
EHGR 101055Z AUTO 20008KT 9999NDV OVC170 21/15 Q1012 BLU BLU

2010/08/10 10:55
EHLW 101055Z AUTO 20013KT 9999NDV SCT015 BKN019 BKN023 19/15 Q1011 WHT WHT TEMPO GRN FEW012 SCT023 TEMPO SCT012 BKN 020

2010/08/10 10:55
EHRD 101055Z 19011KT 150V220 9999 FEW022 BKN027 21/15 Q1011 NOSIG

2010/08/10 10:55
EHVK 101055Z AUTO 20007KT 9999NDV OVC190 21/14 Q1013 BLU BLU NOSIG

2010/08/10 10:55
EHVL 101055Z AUTO 20020KT 9999NDV FEW011 SCT013 BKN016 19/16 Q1010 GRN

2010/08/10 10:55
EHWO 101055Z AUTO 20008KT //// R//////// // OVC150 22/14 Q1012 RE// BLU TEMPO WHT OVC200 TEMPO SCT022

2010/08/10 10:50
EGCC 101050Z 23012KT 190V260 9999 SCT042 17/08 Q1008 NOSIG

2010/08/10 10:50
EGLL 101050Z 24009KT 200V270 9999 FEW011 SCT017 16/13 Q1011 NOSIG

2010/08/10 10:50
EGKA 101050Z 25009KT 9999 SCT012 17/15 Q1011

2010/08/10 10:50
EGNT 101050Z 24011KT 200V270 9999 FEW025 SCT045 19/08 Q1004

2010/08/10 10:50
EGSH 101050Z 24012KT 9999 -RA FEW039 17/13 Q1009

2010/08/10 10:50
EGSH 101050Z 24012KT 9999 -RA FEW039 17/13 Q1009 NOSIG

2010/08/10 10:50
EGBE 101050Z 22012KT 9999 SCT016 SCT045 17/14 Q1009

2010/08/10 10:50
EGDL 101050Z 22006KT 4500 RADZ BKN006 BKN011 OVC030 14/13 Q1010 YLO1 BECMG 5000 -RADZ BKN007 GRN

2010/08/10 10:50
EGDM 101050Z 23008KT 7000 -RADZ BKN008 BKN040 16/13 Q1011 GRN BECMG 3500 BKN006 YLO1

2010/08/10 10:50
EGDR 101050Z 24016G26KT 0200 -DZ FG SCT000 OVC002 17/16 Q1010 RED

2010/08/10 10:50
EGDY 101050Z 14006KT 9999 -RA BKN009 BKN030 14/14 Q1010 GRN

2010/08/10 10:50
EGNT 101050Z 24011KT 200V270 9999 FEW025 SCT045 19/08 Q1004

2010/08/10 10:50
EGOS 101050Z 24012KT 9999 BKN038 19/10 Q1008 BLU NOSIG

2010/08/10 10:50
EGOV 101050Z 23018KT 9999 FEW025 BKN045 16/13 Q1007 BLU NOSIG

2010/08/10 10:50
EGQK 101050Z 03006KT 9999 FEW022CB BKN120 14/10 Q1004 BLU TEMPO 7000 SHRA SCT020CB WHT

2010/08/10 10:50
EGQL 101050Z 35003KT 9999 -SHRA SCT019 BKN090 14/11 Q1004 WHT TEMPO 7000 SHRA SCT020 WHT

2010/08/10 10:50
EGQS 101050Z 05008KT 9999 FEW012 FEW018TCU SCT025 14/10 Q1004 BLU TEMPO SCT020 WHT

2010/08/10 10:50
EGSC 101050Z 23008KT 190V270 9999 SCT015 SCT048 17/13 Q1009

2010/08/10 10:56
KD07 101056Z AUTO 17008KT 21/16 A2982 RMK AO2 SLP079 T02060156 PWINO TSNO 

2010/08/10 10:56
KNBT 101056Z AUTO 26003KT 5SM BR CLR 27/24 A3001 RMK AO2 SLP168 T02670244 TSNO 

2010/08/10 10:56
KINS 101056Z 00000KT 10SM CLR 20/M06 A2992 RMK AO2 SLP077 T02001056 $ 

2010/08/10 10:56
CYHZ 101056Z 19004KT 3SM BR BKN002 OVC100 18/ RMK SF6AC2

2010/08/10 11:00
OPPS 101100Z 27008KT 4000 TS SCT008ST FEW030CB SCT030 OVC100 30/23 Q1002.1

2010/08/10 10:50
LGHI 101050Z 02012KT CAVOK 31/18 Q1008

2010/08/10 10:50
LGKF 101050Z 27006KT 9999 FEW025 30/19 Q1011

2010/08/10 10:50
LGKZ 101050Z 33008KT 9999 FEW020 29/12 Q1016

2010/08/10 10:50
LGMK 101050Z 35021G32KT 9999 FEW012 30/22 Q1008

2010/08/10 10:50
LGNX 101050Z 35013KT 9999 FEW020 30/24 Q1008

2010/08/10 10:50
LGPA 101050Z 35018KT 9999 FEW025 31/23 Q1008

2010/08/10 10:50
LGSO 101050Z 35013KT 9999 FEW020 30/22 Q1008

2010/08/10 10:55
EHAM 101055Z 20012KT 9999 BKN019 20/15 Q1011 NOSIG

2010/08/10 10:55
EHBK 101055Z AUTO 25007KT 200V290 9999NDV NSC 24/12 Q1013 NOSIG

2010/08/10 10:55
EHGG 101055Z AUTO 21012KT 180V250 9999NDV SCT022 BKN025 20/15 Q1012 NOSIG

2010/08/10 10:55
EHRD 101055Z 19011KT 150V220 9999 FEW022 BKN027 21/15 Q1011 NOSIG

2010/08/10 11:00
OPKC 101100Z 24011KT 7000 FEW020 SCT030 32/25 Q1001 TEMPO 2000 TSRA FEW025CB

2010/08/10 10:50
LGAL 101050Z 14004KT CAVOK 32/16 Q1010

2010/08/10 10:50
LGEL 101050Z 34013KT 9999 FEW030 35/18 Q1009

2010/08/10 10:50
LGKV 101050Z 23006KT 9999 FEW035 34/18 Q1010

2010/08/10 10:50
LGMT 101050Z /////KT CAVOK 34/22 Q1008

2010/08/10 10:50
LGPZ 101050Z 26010KT 9999 FEW025 30/23 Q1011 NOSIG

2010/08/10 10:50
LGRX 101050Z 28008KT 9999 FEW025 31/22 Q1009 NOSIG

2010/08/10 10:50
LGSR 101050Z 34018KT CAVOK 32/21 Q1007 NOSIG

2010/08/10 11:00
RPLC 101100Z VRB05G19KT 9999 FEW036 OVC100 27/23 Q1009 A2983 RMK NOSIG

2010/08/10 10:50
EGTC 101050Z 24009KT 9999 SCT016 16/12 Q1009

2010/08/10 10:50
LSMD 101050Z AUTO 00000KT 9999NDV FEW049 25/09 Q1018 RMK BLU

2010/08/10 10:50
LSME 101050Z AUTO VRB02KT 9999NDV NCD 25/14 Q1018 RMK BLU

2010/08/10 10:50
LSMM 101050Z AUTO 25007KT 230V300 9999NDV FEW078 21/15 Q1018 RMK BLU

2010/08/10 10:56
KAQV 101056Z AUTO 00000KT 10SM SCT070 OVC085 25/23 A2994 RMK AO2 SLP132 T02500233 

2010/08/10 11:00
SBFL 101100Z 18005KT 9999 BKN030 15/11 Q1027

2010/08/10 10:56
KSPD 101056Z AUTO 32003KT 19/16 A3004 RMK AO2 SLP103 T01940161 PWINO TSNO 

2010/08/10 10:56
KNUW 101056Z 00000KT 6SM BR FEW004 BKN008 OVC040 13/11 A2995 RMK AO2 SLP146 T01320111 $ 

2010/08/10 10:56
KALK 101056Z AUTO 26005KT 10SM CLR 18/14 A3011 RMK AO2 SLP101 T01830144 $ 

2010/08/10 10:56
CYYN 101056Z AUTO 03006KT 020V080 9SM -RA OVC014 OVC093 16/15 A2983

2010/08/10 10:55
CYHD 101055Z AUTO 05012KT 2 1/4SM +RA FEW018 SCT042 19/19 A2994 RMK VSBY VRBL 1.9V4.0

2010/08/10 11:00
LWOH 101100Z 16005KT 140V200 9999 FEW050 24/16 Q1016

2010/08/10 10:55
KQBL 101055Z AUTO 02002KT 8SM CLR 26/23 A2995 RMK AO2 SLP142 T02550226

2010/08/10 10:55
KQBS 101055Z VRB06KT 8000 HZ CLR 48/11 A2945 RMK SLP979 WND/ALSTG/SLP/QNH ESTMD QNH997

2010/08/10 10:55
KQIU 101055Z AUTO 21006KT 9999 FEW050 SCT085 26/11 A3005 RMK AO2 SLP063

2010/08/10 10:55
KQQR 101055Z AUTO 00000KT 9999 -SHRA FEW043 27/20 A2982 RMK AO2 LTG DSNT E SLP031 T02710201 $

2010/08/10 10:55
KQSA 101055Z 32003KT 9999 FEW070 SCT150 BKN200 32/14 A2983 RMK SLP274 WND DATA ESTMD ALSTG/SLP ESTMD

2010/08/10 10:55
KQSB 101055Z AUTO VRB03KT 9000 37/M01 A2977 RMK AO2 SLP977 T03701011 $

2010/08/10 10:55
KQWM 101055Z VRB04KT 9999 FEW150 SCT220 47/03 A2952 RMK SLP982 QNH999

2010/08/10 10:55
KQXR 101055Z AUTO VRB04KT 9000 CLR 48/03 A2948 RMK AO2 SLP984 T04770027 $

2010/08/10 10:55
KQYU 101055Z AUTO 03014G23KT 9999 FEW180 35/M02 A2986 RMK AO2 SLP033 T03451018

2010/08/10 10:55
KGTB 101055Z AUTO 21003KT 10SM OVC011 21/20 A2994 RMK AO2 CIG 011V015 SLP139 T02130203

2010/08/10 10:54
KNFG 101054Z 00000KT BR OVC010 12/09 A2991 RMK AO2 SLP126 T01170094

2010/08/10 10:53
KNIP 101053Z 11010KT 10SM FEW012 SCT250 27/24 A2995 RMK AO2 SLP136 T02670239

2010/08/10 10:53
KNQX 101053Z 23005KT 8SM -RA BKN010 BKN020 BKN040 BKN140 26/23 A2985 RMK AO2 SLP105 T1 SET P0011 T02560233 $

2010/08/10 10:52
KNZY 101052Z 00000KT 10SM OVC013 19/13 A2989 RMK AO2 SLP122 T01940133 $

2010/08/10 10:55
KPAM 101055Z AUTO 07005KT 10SM CLR 25/24 A2991 RMK AO2 SLP130 T02510242 $

2010/08/10 10:55
KPOB 101055Z AUTO 23005KT 10SM OVC004 24/24 A3002 RMK AO2 SLP166 T02420242 $

2010/08/10 10:55
KPSM 101055Z 31006KT 4SM SCT140 21/21 A2988 RMK AO2A SLP121 T02120205

2010/08/10 10:55
KSKA 101055Z AUTO 22010KT 10SM BKN120 OVC160 15/09 A2981 RMK AO2 SLP082 T01500086

2010/08/10 10:55
KSKF 101055Z AUTO 16003KT 10SM SCT013 26/ A2992 RMK AO2 SLP120 T0260 $

2010/08/10 10:55
KSSC 101055Z 00000KT 6SM BR OVC002 24/23 A3001 RMK AO2A SLP162 T02380230 $

2010/08/10 10:55
KTCM 101055Z AUTO 22007KT 10SM OVC009 13/11 A2997 RMK AO2 CIG 009V012 SLP149 T01300106

2010/08/10 10:55
KTIK 101055Z 19008KT 10SM CLR 25/21 A2990 RMK AO2A SLP109 T02490207

2010/08/10 10:55
KVAD 101055Z AUTO 08004KT 10SM CLR 24/24 A2998 RMK AO2 SLP149 T02400237 $

2010/08/10 10:55
KVOK 101055Z 00000KT 1/4SM R27/1000V1600FT FG CLR 17/17 A2998 RMK AO2A SLP146 T01740174

2010/08/10 10:55
KWRB 101055Z AUTO 00000KT 9SM CLR 23/23 A3001 RMK AO2 SLP158 T02260226

2010/08/10 10:54
KWAL 101054Z AUTO 28005KT 6SM BR CLR 25/23 A2997 RMK AO2 SLP144 T02500228 TSNO 

2010/08/10 10:55
KLSV 101055Z AUTO 07003KT 10SM CLR 23/M03 A2985 RMK AO2 SLP090 T02341026 PWINO

2010/08/10 10:56
KNCA 101056Z 25003KT 10SM FEW025 SCT150 24/24 A3003 RMK AO2 SLP169 T02440239 $

2010/08/10 10:56
KNLC 101056Z AUTO 32007KT 10SM CLR 19/12 A2981 RMK AO2 SLP092 T01940122 TSNO

2010/08/10 10:56
KNTD 101056Z AUTO 00000KT 9SM OVC007 15/13 A2990 RMK AO2 SLP125 T01500133 TSNO $

2010/08/10 10:56
KNTU 101056Z 24005KT 10SM FEW050 SCT200 24/23 A2997 RMK AO2 SLP152 T02440233 $

2010/08/10 10:56
KNYG 101056Z 00000KT 7SM CLR 24/21 A2996 RMK AO2 SLP145 T02440206 $

2010/08/10 10:52
KNZY 101052Z 00000KT 10SM OVC013 19/13 A2989 RMK AO2 SLP122 T01940133 $

2010/08/10 10:56
KSGH 101056Z AUTO 00000KT 4SM BR CLR 21/21 A3000 RMK AO2 T02050205 SLP150 $

2010/08/10 10:56
KWJF 101056Z 28007KT 10SM CLR 19/M02 A2990 RMK AO2 SLP103 T01891022

2010/08/10 10:55
MHSC 101055Z AUTO 00000KT 9999 CLR 20/19 A2996 RMK AO2 SLP105 T02010194 $

2010/08/10 10:50
OAUZ 101050Z VRB03KT 9999 BKN150 41/04 Q1004 BLU

2010/08/10 10:55
PAED 101055Z 00000KT 10SM OVC009 11/10 A2977 RMK AO2A CIG 005V011 CIG 003 RWY24 SLP083 T01140102

2010/08/10 10:56
PMDY 101056Z AUTO 08010KT 10SM CLR 26/22 A3023 RMK AO2 TSNO T02550222 403050238 RAB03E16 P0000 SLP544

2010/08/10 11:00
TBPB 101100Z 15005KT 9999 FEW020 SCT280 27/24 Q1014 NOSIG

2010/08/10 10:56
TJSJ 101056Z 13004KT 10SM FEW022 SCT045 SCT070 27/24 A2996 RMK AO2 SLP143 T02720239

2010/08/10 10:56
K8D3 101056Z AUTO 09004KT 21/21 A2987 RMK AO2 SLP093 T02110206 PWINO TSNO 

2010/08/10 10:56
K9L2 101056Z AUTO 18007KT 10SM CLR 16/M04 A2988 RMK AO2 SLP099 T01611039 $ 

2010/08/10 10:55
CWSA 101055Z AUTO 22006KT 6SM SCT010 19/18 A2988

2010/08/10 10:50
EGDL 101050Z 22006KT 4500 RADZ BKN006 BKN011 OVC030 14/13 Q1010 YLO1 BECMG 5000 -RADZ BKN007 GRN

2010/08/10 10:50
EGDM 101050Z 23008KT 7000 -RADZ BKN008 BKN040 16/13 Q1011 GRN BECMG 3500 BKN006 YLO1

2010/08/10 10:50
EGDR 101050Z 24016G26KT 0200 -DZ FG SCT000 OVC002 17/16 Q1010 RED

2010/08/10 10:50
EGDX 101050Z 15006KT 2000 -RA BKN002 14/14 Q1010 AMB

2010/08/10 10:50
EGDY 101050Z 14006KT 9999 -RA BKN009 BKN030 14/14 Q1010 GRN

2010/08/10 10:50
EGOS 101050Z 24012KT 9999 BKN038 19/10 Q1008 BLU NOSIG

2010/08/10 10:50
EGOV 101050Z 23018KT 9999 FEW025 BKN045 16/13 Q1007 BLU NOSIG

2010/08/10 10:50
EGQK 101050Z 03006KT 9999 FEW022CB BKN120 14/10 Q1004 BLU TEMPO 7000 SHRA SCT020CB WHT

2010/08/10 10:50
EGQL 101050Z 35003KT 9999 -SHRA SCT019 BKN090 14/11 Q1004 WHT TEMPO 7000 SHRA SCT020 WHT

2010/08/10 10:50
EGQS 101050Z 05008KT 9999 FEW012 FEW018TCU SCT025 14/10 Q1004 BLU TEMPO SCT020 WHT

2010/08/10 10:50
EGUW 101050Z 22010KT 9999 -DZ FEW012 SCT022 BKN048 16/13 Q1009 WHT TEMPO FEW022 BLU

2010/08/10 10:50
EGVO 101050Z 22010KT 9999 SCT013 SCT045 BKN100 16/13 Q1011 GRN TEMPO 6000 -RA GRN

2010/08/10 10:50
EGXC 101050Z 24012KT 9999 FEW030 SCT050 19/09 Q1007 BLU NOSIG

2010/08/10 10:50
EGXD 101050Z 23016KT 9999 FEW020 BKN060 16/11 Q1006 BLU NOSIG

2010/08/10 10:50
EGXE 101050Z 24014KT 9999 FEW034 BKN060 16/09 Q1006 BLU NOSIG

2010/08/10 10:50
EGXG 101050Z 27014KT 9999 FEW035 SCT070 18/09 Q1006 BLU

2010/08/10 10:50
EGXT 101050Z 22009KT 9999 FEW015 BKN120 16/13 Q1008 BLU NOSIG

2010/08/10 10:50
EGXW 101050Z 27013KT 9999 SCT038 18/08 Q1007 BLU NOSIG

2010/08/10 10:50
EGYD 101050Z 25014KT 9999 FEW035 19/11 Q1008 BLU NOSIG

2010/08/10 10:50
EGYM 101050Z 23009KT 9999 -RA FEW015 SCT100 BKN130 16/13 Q1009 BLU NOSIG

2010/08/10 10:55
EHAM 101055Z 20012KT 9999 BKN019 20/15 Q1011 NOSIG

2010/08/10 10:55
EHBK 101055Z AUTO 25007KT 200V290 9999NDV NSC 24/12 Q1013 NOSIG

2010/08/10 10:55
EHDL 101055Z AUTO 20008KT 9999NDV OVC170 20/14 Q1013 BLU

2010/08/10 10:55
EHGG 101055Z AUTO 21012KT 180V250 9999NDV SCT022 BKN025 20/15 Q1012 NOSIG

2010/08/10 10:55
EHGR 101055Z AUTO 20008KT 9999NDV OVC170 21/15 Q1012 BLU BLU

2010/08/10 10:55
EHLW 101055Z AUTO 20013KT 9999NDV SCT015 BKN019 BKN023 19/15 Q1011 WHT WHT TEMPO GRN FEW012 SCT023 TEMPO SCT012 BKN 020

2010/08/10 10:55
EHRD 101055Z 19011KT 150V220 9999 FEW022 BKN027 21/15 Q1011 NOSIG

2010/08/10 10:55
EHVK 101055Z AUTO 20007KT 9999NDV OVC190 21/14 Q1013 BLU BLU NOSIG

2010/08/10 10:55
EHVL 101055Z AUTO 20020KT 9999NDV FEW011 SCT013 BKN016 19/16 Q1010 GRN

2010/08/10 10:55
EHWO 101055Z AUTO 20008KT //// R//////// // OVC150 22/14 Q1012 RE// BLU TEMPO WHT OVC200 TEMPO SCT022

2010/08/10 10:55
ETIK 101055Z AUTO VRB03KT 9999 BKN090 BKN140 24/10 A3006 RMK AO2 SLP167 T02370101 $

2010/08/10 10:50
LGAL 101050Z 14004KT CAVOK 32/16 Q1010

2010/08/10 10:50
LGEL 101050Z 34013KT 9999 FEW030 35/18 Q1009

2010/08/10 10:50
LGHI 101050Z 02012KT CAVOK 31/18 Q1008

2010/08/10 10:50
LGKV 101050Z 23006KT 9999 FEW035 34/18 Q1010

2010/08/10 10:50
LGMT 101050Z /////KT CAVOK 34/22 Q1008

2010/08/10 10:50
LGPZ 101050Z 26010KT 9999 FEW025 30/23 Q1011 NOSIG

2010/08/10 10:50
LGRX 101050Z 28008KT 9999 FEW025 31/22 Q1009 NOSIG BLU

2010/08/10 10:50
LGSR 101050Z 34018KT CAVOK 32/21 Q1007 NOSIG BLU

2010/08/10 11:00
LWOH 101100Z 16005KT 140V200 9999 FEW050 24/16 Q1016

2010/08/10 10:58
CYSF 101058Z AUTO 09002KT 1 3/4SM BR BKN009 OVC016 14/14 A2989 RMK SLP132 DENSITY ALT 900FT

2010/08/10 11:00
SBBR 101100Z 35002KT CAVOK 16/06 Q1025

2010/08/10 11:00
SBGL 101100Z 35004KT 9000 SCT008 BKN018 20/17 Q1025

2010/08/10 10:55
KCAO 101055Z AUTO 25007KT 10SM BKN100 21/15 A3008 RMK AO2 SLP109 T02110150 TSNO 

2010/08/10 10:55
CYHD 101055Z AUTO 05012KT 2 1/4SM +RA FEW018 SCT042 19/19 A2994 RMK VSBY VRBL 1.9V4.0

2010/08/10 10:55
CYHE 101055Z AUTO 10002KT 9SM BKN009 OVC021 15/14 A2992

2010/08/10 10:56
CYHZ 101056Z 19004KT 3SM BR BKN002 OVC100 18/ RMK SF6AC2

2010/08/10 10:54
CYKL 101054Z AUTO 33010KT 3SM DZ OVC005 OVC019 08/08 A2975

2010/08/10 10:53
CYTZ 101053Z AUTO 25003KT 2 1/4SM BKN027 21/20 A2993 RMK SLP135 DENSITY ALT 1000FT RVR MISG

2010/08/10 10:56
CYUA 101056Z AUTO 27010KT 9SM -RA FEW001 FEW006 FEW051 SCT064 11/ A2966

2010/08/10 10:53
CYXU 101053Z 00000KT 1/4SM R15/1200V2000FT/N FG SKC 20/ RMK FG5

2010/08/10 10:57
EHKD 101057Z AUTO 20016KT 9999NDV FEW014/// BKN018/// BKN022/// 19/15 Q1011 WHT WHT TEMPO GRN TEMPO SCT012 SCT015CB BKN020

2010/08/10 10:56
KEGI 101056Z AUTO 00000KT 7SM R18/5000VP6000FT CLR 24/23 A2994 RMK AO2 SLP137 $

2010/08/10 10:53
KGTB 101053Z AUTO 20003KT 10SM OVC011 21/20 A2994 RMK AO2 CIG 011V015 SLP139

2010/08/10 10:58
KHST 101058Z AUTO 20004KT 8SM -RA FEW015 SCT032 BKN065 25/24 A2988 RMK AO2 RAB1058 CIG 048 RWY23 SLP119

2010/08/10 10:57
KMMT 101057Z AUTO 00000KT 7SM SCT003 BKN016 BKN025 24/24 A3002 RMK AO2 SLP164

2010/08/10 10:57
KMTC 101057Z 00000KT 1 1/4SM BR CLR 20/20 A2995 RMK VIS NE 2 S 1

2010/08/10 10:56
PGUA 101056Z AUTO 08006KT 10SM BKN018 BKN027 BKN034 26/25 A2996 RMK AO2 CIG 017V022 SLP127 $

2010/08/10 10:47
RJFN 101047Z 15007KT 9999 SCT008 BKN015 28/26 Q1012 RMK 3CU008 7CU015 A2989

2010/08/10 10:46
RJNG 101046Z VRB02KT 8000 -TSRA FEW002 BKN006 BKN008 SCT030CB 25/25 Q1014 RMK 1CU002 5CU006 5CU008 3CB030 A2996 FBL TS NW-NE

2010/08/10 10:55
KGBK 101055Z AUTO VRB04KT 10SM BKN023 OVC033 31/25 A2992 RMK A01

2010/08/10 10:52
KGDB 101052Z AUTO 09004KT 10SM OVC050 23/22 A2991 RMK AO2 LTG DSNT SW T02300221

2010/08/10 10:53
KGHW 101053Z AUTO 10006KT 5SM BR CLR 21/19 A2995 RMK AO2

2010/08/10 10:52
KGLW 101052Z AUTO 00000KT 3SM BR CLR 24/23 A2998 RMK AO2 T02360228

2010/08/10 10:55
KGUL 101055Z AUTO 10SM CLR 29/25 A2991 RMK A01

2010/08/10 10:54
KGYL 101054Z AUTO 11005KT 7SM CLR 22/20 A2992 RMK AO2 T02160202

2010/08/10 10:52
KHCD 101052Z AUTO 12005KT 7SM CLR 22/21 A2992 RMK AO2 T02210210

2010/08/10 10:54
KHCO 101054Z AUTO 16009KT 10SM CLR 20/20 A2991 RMK AO2

2010/08/10 10:50
KHQI 101050Z AUTO 23004KT 10SM 30/25 A2991 RMK A01

2010/08/10 10:51
KHZX 101051Z AUTO 00000KT 10SM CLR 16/16 A2999 RMK AO2

2010/08/10 10:54
KIKW 101054Z AUTO 00000KT 1/2SM FG BKN010 19/18 A2998 RMK AO2 T01930183

2010/08/10 10:55
KIPN 101055Z AUTO VRB04KT 10SM BKN050 OVC065 30/25 A2989 RMK A01

2010/08/10 10:55
KISO 101055Z 00000KT 3SM BR SCT004 23/23 A3002

2010/08/10 10:56
KIWA 101056Z AUTO 10005KT 10SM SCT120 31/11 A2985 RMK AO2

2010/08/10 10:54
KJKJ 101054Z AUTO 14004KT 10SM CLR 22/21 A2988 RMK AO2

2010/08/10 10:54
KJMR 101054Z AUTO 00000KT 2 1/2SM BR CLR 18/18 A2999 RMK AO2 VIS 3/4V5

2010/08/10 10:52
KLJF 101052Z AUTO 13004KT 5SM BR CLR 21/21 A2993 RMK AO2

2010/08/10 10:53
KLVN 101053Z AUTO 14003KT 3/4SM BR BKN001 BKN029 19/19 A2995 RMK AO2

2010/08/10 10:53
KLXL 101053Z AUTO 00000KT 7SM CLR 19/18 A2993 RMK AO2

2010/08/10 10:57
KLYV 101057Z AUTO 27017G34KT 1SM +TSRA BKN005 OVC011 21/20 A2999 RMK AO2 LTG DSNT ALQS P0013

2010/08/10 10:56
KM89 101056Z AUTO 00000KT 6SM BR CLR 26/24 A2992 RMK AO2 T02550244 SLP145 $

2010/08/10 10:55
KMDJ 101055Z AUTO 02005KT 10SM CLR 29/25 A2993 RMK A01

2010/08/10 10:55
KMGG 101055Z AUTO 11003KT 7SM CLR 22/22 A2995 RMK AO2 T02230219

2010/08/10 10:55
KMHR 101055Z AUTO 00000KT 10SM CLR 12/09 A2983 RMK AO1

2010/08/10 10:55
KMIU 101055Z AUTO 21011KT 10SM CLR 30/27 A2987 RMK A01

2010/08/10 10:52
KMJQ 101052Z AUTO 13015KT 10SM VCTSRA SCT004 SCT014 BKN025 21/20 A2989 RMK AO2 P0001

2010/08/10 10:48
KMOX 101048Z AUTO 11005KT 5SM BR CLR 22/22 A2987 RMK AO2

2010/08/10 10:53
KMRT 101053Z AUTO 00000KT 2SM CLR 20/19 A3001 RMK AO2 T02020191

2010/08/10 10:54
KMVE 101054Z AUTO 16006KT 7SM SCT036 OVC050 23/23 A2989 RMK AO2 LTG DSNT S AND SW

2010/08/10 10:53
KMWM 101053Z AUTO 12007KT 7SM -RA SCT007 SCT080 24/23 A2990 RMK AO2 LTG DSNT ALQDS

2010/08/10 10:55
KMWO 101055Z AUTO 00000KT 2 1/2SM BR CLR 22/21 A2998 RMK AO2

2010/08/10 10:53
KMWT 101053Z AUTO 00000KT 10SM CLR 23/23 A2993 RMK AO2 SLP120 T02330228 TSNO

2010/08/10 10:55
KMZG 101055Z AUTO 00000KT 10SM FEW034 FEW055 BKN075 29/26 A2988 RMK A01

2010/08/10 10:50
KMZH 101050Z AUTO 00000KT 1/2SM FG OVC001 17/16 A2997 RMK AO2

2010/08/10 10:56
KNTU 101056Z 24005KT 10SM FEW050 SCT200 24/23 A2997 RMK AO2 SLP152 T02440233 $

2010/08/10 10:51
KONA 101051Z AUTO 00000KT 1/2SM FG OVC001 23/22 A2996 RMK AO2

2010/08/10 10:54
KONZ 101054Z AUTO 00000KT 1 1/4SM BR VV007 22/21 A2996 RMK AO2

2010/08/10 10:54
KORB 101054Z AUTO 00000KT 4SM BR CLR 19/17 A2996 RMK AO2

2010/08/10 10:53
KOVL 101053Z AUTO 13007KT 10SM OVC085 22/20 A2991 RMK AO2 LTG DSNT SW T02230201

2010/08/10 10:54
KOWA 101054Z AUTO 12005KT 10SM CLR 23/22 A2994 RMK AO2 LTG DSNT S

2010/08/10 10:45
KOXC 101045Z 00000KT 3SM -RA BR OVC090 21/19 A2999

2010/08/10 10:53
KPEX 101053Z AUTO 12007KT 7SM CLR 23/22 A2993 RMK AO2 T02310216

2010/08/10 10:53
KPNM 101053Z AUTO 00000KT 10SM CLR 20/19 A2996 RMK AO2

2010/08/10 10:53
KPQN 101053Z AUTO 22017KT 7SM +TSRA SCT008 BKN014 OVC024 21/20 A2996 RMK AO2 P0025 LTG DSNT ALQDS

2010/08/10 10:52
KPVB 101052Z AUTO 10005KT 7SM SCT042 BKN070 24/23 A2999 RMK AO1 T02380226

2010/08/10 10:53
KPWC 101053Z AUTO 00000KT 3/4SM BR OVC001 17/16 A2998 RMK AO2

2010/08/10 10:54
KRFD 101054Z 00000KT 10SM OVC180 23/22 A2997 RMK AO2 SLP143 T02330217 $

2010/08/10 10:54
KROA 101054Z 34003KT 7SM CLR 24/21 A3005 RMK AO2 SLP162 T02390206

2010/08/10 10:54
KROS 101054Z AUTO 00000KT 1 3/4SM BR VV007 18/17 A2996 RMK AO2 T01800174

2010/08/10 10:54
KROX 101054Z AUTO 00000KT 10SM CLR 19/17 A2991 RMK AO2

2010/08/10 10:56
KABQ 101056Z 33005KT 10SM SCT120 21/09 A3015 RMK AO2 SLP112 T02110089

2010/08/10 10:56
KJAX 101056Z 11006KT 10SM FEW020 SCT150 SCT250 26/23 A2995 RMK AO2 SLP141 T02610228

2010/08/10 10:57
K14Y 101057Z AUTO 00000KT 3SM BR CLR 20/19 A2995 RMK AO2 T01950191

2010/08/10 10:55
K1A6 101055Z AUTO 00000KT 1/2SM FG OVC004 24/24 A3005 RMK AO2

2010/08/10 10:55
K1P1 101055Z AUTO 31004KT 2 1/2SM BR OVC002 20/19 A2994 RMK AO2 T01960185

2010/08/10 10:53
K29G 101053Z AUTO 00000KT 7SM CLR 21/19 A2998 RMK AO2 T02110188 PWINO

2010/08/10 10:55
K46D 101055Z AUTO 13005KT 10SM CLR 19/19 A2989 RMK AO2

2010/08/10 10:50
KAEL 101050Z AUTO 13006KT 5SM BR SCT033 SCT042 BKN060 24/23 A2995 RMK AO2 LTG DSNT SE

2010/08/10 10:55
KAIG 101055Z AUTO 00000KT 7SM CLR 14/14 A3002 RMK AO2

2010/08/10 10:53
KAIT 101053Z AUTO 00000KT 2 1/2SM BR BKN001 15/13 A2997 RMK AO2

2010/08/10 10:56
KAJO 101056Z AUTO 00000KT 8SM CLR 11/11 A2990 RMK AO2 T01050105 SLP119 $

2010/08/10 10:55
KANE 101055Z AUTO 00000KT 10SM CLR 22/21 A2996 RMK AO2

2010/08/10 10:54
KAQP 101054Z AUTO 13006KT 7SM BKN065 22/22 A2989 RMK AO2 LTG DSNT S

2010/08/10 10:51
KARV 101051Z AUTO 00000KT 10SM CLR 17/16 A3003 RMK AO2 T01680155

2010/08/10 10:53
KBBB 101053Z AUTO 13003KT 7SM CLR 22/21 A2994 RMK AO2

2010/08/10 10:55
KBBF 101055Z AUTO 20006KT 10SM CLR 30/27 A2988 RMK A01

2010/08/10 10:55
KBBG 101055Z AUTO 00000KT 10SM CLR 25/22 A2998 RMK AO2

2010/08/10 10:53
KBFW 101053Z AUTO 00000KT 7SM CLR 16/14 A2996 RMK AO2

2010/08/10 10:55
KBQX 101055Z AUTO 19008KT 10SM CLR 30/26 A2990 RMK A01

2010/08/10 10:50
KBWP 101050Z AUTO 11005KT 10SM SCT034 22/20 A2989 RMK AO1 T02170200

2010/08/10 10:56
KCAE 101056Z 00000KT 1/2SM FG OVC002 24/23 A3002 RMK AO2 SLP162 T02390233 RVRNO

2010/08/10 10:52
KCDD 101052Z AUTO 00000KT 4SM BR CLR 18/18 A2997 RMK AO2

2010/08/10 10:56
KCHS 101056Z 00000KT 10SM FEW025 26/25 A3002 RMK AO2 SLP164 T02560250

2010/08/10 10:55
KCLI 101055Z AUTO 00000KT 5SM BR CLR 19/17 A2998 RMK AO2

2010/08/10 10:55
KCMB 101055Z AUTO 35008KT 10SM SCT029 SCT034 31/25 A2992 RMK A01

2010/08/10 10:55
KCMR 101055Z AUTO 15006KT 10SM FEW070 11/08 A3025 RMK AO1

2010/08/10 10:55
KCMY 101055Z AUTO 00000KT 3/4SM BR OVC001 20/19 A2998 RMK AO2 T01950190

2010/08/10 10:55
KCRH 101055Z AUTO VRB04KT 10SM CLR 30/25 A2992 RMK A01

2010/08/10 10:50
KCVH 101050Z AUTO 00000KT 10SM OVC005 13/12 A2990 RMK AO1

2010/08/10 10:56
KDIJ 101056Z AUTO 00000KT 10SM CLR 06/04 A3013 RMK AO2 T00610044 SLP144 $

2010/08/10 10:55
KDLL 101055Z AUTO 00000KT 1/4SM FG OVC002 21/20 A2998 RMK AO2 T02070201

2010/08/10 10:54
KDXX 101054Z AUTO 12004KT 10SM SCT033 24/24 A2989 RMK AO2 LTG DSNT SW

2010/08/10 10:54
KDYT 101054Z AUTO 00000KT 10SM CLR 22/21 A2996 RMK AO2

2010/08/10 11:00
KEDU 101100Z AUTO 00000KT 10SM CLR 12/10 A2981 RMK AO1

2010/08/10 10:56
KEFK 101056Z AUTO 00000KT M1/4SM FG OVC001 14/13 A2995 RMK AO2

2010/08/10 10:55
KEFT 101055Z AUTO 00000KT 7SM CLR 24/22 A2998 RMK AO2 T02370221

2010/08/10 10:51
KEGV 101051Z AUTO 00000KT M1/4SM FG OVC001 15/15 A3003 RMK AO2 T01500150

2010/08/10 10:55
KEHC 101055Z AUTO 31011KT 10SM CLR 29/23 A2992 RMK A01

2010/08/10 10:55
KEIR 101055Z AUTO 00000KT 10SM FEW019 SCT024 BKN029 30/26 A2990 RMK A01

2010/08/10 10:56
KEKQ 101056Z AUTO 00000KT 3/4SM BR CLR 22/22 A3003 RMK AO2 T02220216 SLP164

2010/08/10 10:53
KELO 101053Z AUTO 00000KT 7SM CLR 16/16 A2998 RMK AO2

2010/08/10 10:55
KEMK 101055Z AUTO 22006G11KT 10SM FEW021 SCT027 BKN035 29/25 A2991 RMK A01

2010/08/10 10:52
KETB 101052Z AUTO 00000KT 2SM BR CLR 20/20 A2998 RMK AO2 T02020195

2010/08/10 10:54
KETH 101054Z AUTO 09005KT 5SM BR SCT049 19/19 A2992 RMK AO2

2010/08/10 10:52
KEVM 101052Z AUTO 00000KT 1/4SM FG OVC001 15/13 A2997 RMK AO1

2010/08/10 10:54
KEZS 101054Z AUTO 03006KT 4SM BR BKN004 22/21 A2998 RMK AO2 T02150205

2010/08/10 10:54
KFBL 101054Z AUTO 10004KT 10SM CLR 23/21 A2995 RMK AO2 LTG DSNT S AND SW

2010/08/10 10:53
KFFM 101053Z AUTO 11005KT 10SM CLR 22/21 A2989 RMK AO2

2010/08/10 10:53
KFGN 101053Z AUTO 24004KT 7SM CLR 23/20 A2989 RMK AO2

2010/08/10 11:02
KFKA 101102Z AUTO 00000KT 4SM BR CLR 22/22 A2999 RMK AO2 LTG DSNT SW T02240217

2010/08/10 10:53
KFOZ 101053Z AUTO 00000KT 1/4SM FG BKN001 BKN016 17/16 A2998 RMK AO2

2010/08/10 10:59
KFSO 101059Z AUTO 15003KT 5SM BR OVC013 18/18 A2992 RMK AO2

2010/08/10 10:54
KRRT 101054Z AUTO 23004KT 10SM CLR 21/19 A2991 RMK AO2 TSNO

2010/08/10 10:53
KRZN 101053Z AUTO 00000KT 5SM BR CLR 19/18 A2998 RMK AO2 T01920184

2010/08/10 10:53
KSAZ 101053Z AUTO 00000KT 10SM CLR 20/20 A2995 RMK AO2

2010/08/10 10:55
KSCF 101055Z AUTO 05008KT 10SM CLR 29/25 A2986 RMK A01

2010/08/10 10:53
KSGS 101053Z AUTO 00000KT 10SM CLR 23/21 A2995 RMK AO2 T02320210

2010/08/10 10:56
KSHV 101056Z 00000KT 10SM SCT290 26/23 A2991 RMK AO2 SLP125 T02610228

2010/08/10 10:55
KSPR 101055Z AUTO VRB03KT 10SM FEW019 SCT029 30/26 A2990 RMK A01

2010/08/10 10:55
KSRR 101055Z AUTO 27009KT 10SM CLR 16/09 A3025 RMK AO2

2010/08/10 10:55
KSYN 101055Z AUTO 00000KT 1/2SM FG VV005 19/18 A2994 RMK AO2 T01920182

2010/08/10 10:53
KTEW 101053Z AUTO 00000KT M1/4SM FG OVC001 18/17 A2999 RMK AO2

2010/08/10 10:53
KTKC 101053Z AUTO 00000KT 7SM BKN007 23/22 A2989 RMK AO2 LTG DSNT SE THRU W T02290220

2010/08/10 10:55
KTOB 101055Z AUTO 12005KT 4SM BR CLR 22/21 A2997 RMK AO2

2010/08/10 10:53
KTWM 101053Z AUTO 00000KT 5SM HZ CLR 17/14 A2996 RMK AO2

2010/08/10 10:54
KUNI 101054Z AUTO 00000KT 5SM HZ SCT110 23/18 A2998 RMK AO2

2010/08/10 10:55
KVAF 101055Z AUTO 22004KT 10SM CLR 30/25 A2987 RMK A01

2010/08/10 10:55
KVBS 101055Z AUTO 30006KT 10SM SCT023 BKN028 30/25 A2991 RMK A01

2010/08/10 10:53
KVES 101053Z AUTO 00000KT 2SM BR CLR 21/20 A2999 RMK AO2 T02070203

2010/08/10 10:56
KVVV 101056Z AUTO 12005KT 10SM SCT037 SCT060 BKN080 23/22 A2989 RMK AO2

2010/08/10 10:49
KVWU 101049Z AUTO 18004KT 10SM CLR 20/19 A2994 RMK AO2

2010/08/10 10:56
KXVG 101056Z AUTO 00000KT 2SM BR OVC001 15/15 A2995 RMK AO2

2010/08/10 10:55
KY63 101055Z AUTO 12007KT 10SM CLR 23/22 A2991 RMK AO2 T02300218

2010/08/10 10:56
PAGN 101056Z AUTO 00000KT OVC006 RMK AO2 PWINO TSNO SLPNO $

2010/08/10 10:56
PATQ 101056Z AUTO 07015KT 7SM OVC005 02/01 A2979 RMK AO2 TSNO T00160011 RAE14B34E53 P0000 SLP092 $

2010/08/10 10:56
PAFS 101056Z AUTO 04003KT 10SM CLR 10/09 A2964 RMK AO2 TSNO T01000094 RAE49 P0000 SLP043 $

2010/08/10 10:56
PAGN 101056Z AUTO 00000KT OVC006 RMK AO2 PWINO TSNO SLPNO $

2010/08/10 10:56
PAHC 101056Z AUTO 00000KT 10SM BKN044 OVC055 11/09 A2950 RMK AO2 TSNO T01110088 BKN V OVC RAB06E20 P0000 SLP992 $

2010/08/10 10:56
PAIG 101056Z AUTO 22007KT 6SM BR FEW006 OVC038 10/09 A2967 RMK AO2 PWINO TSNO T01000094 P0001 SLP050 $

2010/08/10 10:56
PAMO 101056Z AUTO 14014KT 4SM RA BR OVC003 09/09 A2941 RMK AO2 TSNO T00940094 CIG 001V005 P0005 SLP956 $

2010/08/10 10:56
PAOO 101056Z AUTO 18012KT 10SM OVC007 09/09 A2937 RMK AO2 TSNO T00940088 CIG 005V011 SLP946 $

2010/08/10 10:56
PAPM 101056Z AUTO 17018KT 2SM BR BKN008 BKN012 OVC090 09/08 A2951 RMK AO2 TSNO T00940083 BKN V SCT RAE32 P0001 SLP993 $

2010/08/10 10:56
PARS 101056Z AUTO 17008KT 5SM -RA BR BKN010 OVC014 10/09 A2948 RMK AO2 TSNO T01000094 RAB07 P0000 SLP987 $

2010/08/10 10:56
PARY 101056Z AUTO 00000KT 10SM OVC060 12/09 A2962 RMK AO2 PWINO TSNO T01160094 SLP032

2010/08/10 10:56
PATQ 101056Z AUTO 07015KT 7SM OVC005 02/01 A2979 RMK AO2 TSNO T00160011 RAE14B34E53 P0000 SLP092 $

2010/08/10 10:56
CYHZ 101056Z 19004KT 3SM BR BKN002 OVC100 18/ RMK SF6AC2

2010/08/10 10:56
PGUA 101056Z AUTO 08006KT 10SM BKN018 BKN027 BKN034 26/25 A2996

2010/08/10 10:47
RJFN 101047Z 15007KT 9999 SCT008 BKN015 28/26 Q1012 RMK 3CU008 7CU015 A2989

2010/08/10 10:46
RJNG 101046Z VRB02KT 8000 -TSRA FEW002 BKN006 BKN008 SCT030CB 25/25 Q1014 RMK 1CU002 5CU006 5CU008 3CB030 A2996 FBL TS NW-NE

2010/08/10 10:57
EHKD 101057Z AUTO 20016KT 9999NDV FEW014/// BKN018/// BKN022/// 19/15 Q1011 WHT WHT TEMPO GRN TEMPO SCT012 SCT015CB BKN020

2010/08/10 10:56
KWMC 101056Z AUTO 00000KT 10SM CLR 11/M01 A2996 RMK AO2 SLP099 T01061006 

2010/08/10 10:56
PGUA 101056Z AUTO 08006KT 10SM BKN018 BKN027 BKN034 26/25 A2996 RMK AO2 CIG 017V022 SLP127 $

2010/08/10 10:55
KINL 101055Z AUTO 00000KT 10SM FEW090 17/17 A2994 RMK AO2 VIS 3/4 RWY 31 SLP135 T01670167 $ 

2010/08/10 10:57
KNJM 101057Z AUTO 26003KT 10SM CLR 27/25 A3002 RMK AO2 SLP169 T02670250 

2010/08/10 10:58
CYTZ 101058Z AUTO 26003KT 3SM BKN027 21/20 A2993 RMK SLP136 DENSITY ALT 900FT RVR MISG

2010/08/10 10:57
CYYN 101057Z AUTO 03007KT 020V080 6SM +RA VV005 16/15 A2983

2010/08/10 10:50
LGHI 101050Z 02012KT CAVOK 31/18 Q1008

2010/08/10 10:50
LGKF 101050Z 27006KT 9999 FEW025 30/19 Q1011

2010/08/10 10:50
LGKZ 101050Z 33008KT 9999 FEW020 29/12 Q1016

2010/08/10 10:50
LGMK 101050Z 35021G32KT 9999 FEW012 30/22 Q1008

2010/08/10 10:50
LGNX 101050Z 35013KT 9999 FEW020 30/24 Q1008

2010/08/10 10:50
LGPA 101050Z 35018KT 9999 FEW025 31/23 Q1008

2010/08/10 10:50
LGSO 101050Z 35013KT 9999 FEW020 30/22 Q1008

2010/08/10 10:50
LGAL 101050Z 14004KT CAVOK 32/16 Q1010

2010/08/10 10:50
LGEL 101050Z 34013KT 9999 FEW030 35/18 Q1009

2010/08/10 10:50
LGKV 101050Z 23006KT 9999 FEW035 34/18 Q1010

2010/08/10 10:50
LGMT 101050Z /////KT CAVOK 34/22 Q1008

2010/08/10 10:50
LGPZ 101050Z 26010KT 9999 FEW025 30/23 Q1011 NOSIG

2010/08/10 10:50
LGRX 101050Z 28008KT 9999 FEW025 31/22 Q1009 NOSIG

2010/08/10 10:50
LGSR 101050Z 34018KT CAVOK 32/21 Q1007 NOSIG

2010/08/10 10:50
EGBJ 101050Z 22007KT 9000 -SHRA FEW010 SCT020 16/13 Q1009

2010/08/10 10:55
EHEH 101055Z AUTO 20007KT 9999NDV OVC170 22/14 Q1013 BLU BLU NOSIG

2010/08/10 10:55
EHKD 101055Z AUTO 20016KT 9999NDV SCT014/// BKN018/// OVC024/// 19/15 Q1011 GRN WHT TEMPO GRN TEMPO SCT012 SCT015CB BKN020

2010/08/10 10:50
VECC 101050Z 17004KT 6000 FEW020 SCT025 35/25 Q1000 NOSIG

2010/08/10 10:50
VEPT 101050Z 11002KT 3000 HZ FEW020 SCT025 BKN100 31/25 Q1000 NOSIG

2010/08/10 10:50
VGEG 101050Z 18003KT 6000 SCT018 FEW028CB BKN100 29/27 Q0999 NOSIG

2010/08/10 10:50
VNKT 101050Z 34008KT 4000 TSRA SCT025 FEW030CB BKN100 22/XX Q1010 NOSIG

2010/08/10 10:56
KALK 101056Z AUTO 26005KT 10SM CLR 18/14 A3011 RMK AO2 SLP101 T01830144 $ 

2010/08/10 10:53
KNUI 101053Z AUTO 24005KT 10SM CLR 26/22 A2995 RMK AO2 SLP141 T02560217 

2010/08/10 10:58
CWOB 101058Z AUTO ///// 0SM CLR 03/ A2981

2010/08/10 10:50
ESSA 101050Z 23012KT 9999 FEW011 BKN013 18/15 Q1012 BECMG BKN015

2010/08/10 10:50
BGBW 101050Z AUTO 07002KT 9999NDV FEW004/// 09/08 Q1009

2010/08/10 10:50
BGCO 101050Z 16007KT 9999 SCT180 07/03 Q1013

2010/08/10 10:50
BGGH 101050Z 20013KT 5000 VCFG FEW001 BKN020 08/08 Q1007

2010/08/10 10:50
BGJN 101050Z 33003KT 9999 BKN023 08/04 Q1007 RMK 7ST

2010/08/10 10:50
BGKK 101050Z 09015KT 9999 -DZ SCT020 BKN032 BKN045 07/05 Q1013

2010/08/10 10:50
BGSF 101050Z 03008KT 9999 BKN023 09/04 Q1007

2010/08/10 10:55
BGTL 101055Z AUTO 00000KT 9999 CLR 05/03 A2979 RMK AO2 SLP093 T00510029

2010/08/10 11:00
UBBN 101100Z 14006KT 9999 FEW100 37/04 Q1008 R14R/CLRD60 NOSIG RMK G/O QFE682

2010/08/10 10:53
KLOR 101053Z AUTO 00000KT 7SM CLR 23/21 A2996 RMK AO2 SLP140 T02330211 TSNO PNO $ 

2010/08/10 10:55
FJDG 101055Z 14014G25KT 9999 FEW020 SCT050 BKN080 27/24 A2980 RMK SLP088 T02670239

2010/08/10 10:55
KCVS 101055Z 10003KT 10SM CLR 18/16 A3007 RMK AO2A SLP136 T01790160 $

2010/08/10 10:55
KEND 101055Z 17006KT 10SM FEW100 FEW200 25/20 A2989 RMK AO2A SLP103 T02510203

2010/08/10 10:55
KFTK 101055Z COR 23002KT 4SM BR FEW250 25/24 A2997 RMK SLP142 T02460245 COR 1100 $

2010/08/10 10:55
KHRT 101055Z 03004KT 10SM FEW250 CLR 25/24 A2991 RMK AO2A SLP132 T02480236 $

2010/08/10 10:56
KNBC 101056Z 36003KT 6SM BR SCT020 SCT080 BKN250 24/23 A3000 RMK AO2 SLP160 T02440233

2010/08/10 10:55
KNBG 101055Z AUTO 00000KT 1/2SM FG CLR 24/23 A2994 RMK AO2 SLP137 T02440233 PWINO $

2010/08/10 10:55
KNKX 101055Z 00000KT 10SM OVC010 17/14 A2990 RMK AO2 SLP119 T01720139

2010/08/10 10:56
KNUQ 101056Z AUTO 00000KT 10SM OVC012 16/12 A2988 RMK AO2 SLP122 T01560122 TSNO

2010/08/10 10:56
KNXX 101056Z 00000KT 8SM BKN150 BKN200 24/20 A2995 RMK AO2 SLP147 T02440200 $

2010/08/10 10:55
KPOE 101055Z AUTO 00000KT 10SM FEW050 BKN070 25/23 A2994 RMK AO2 SLP139 T02500233

2010/08/10 10:55
KPSM 101055Z COR 31006KT 4SM BR SCT140 21/21 A2988 RMK AO2A SLP121 T02120205 COR 1100

2010/08/10 10:55
KRCA 101055Z VRB03KT 10SM OVC110 20/17 A2984 RMK AO2A SLP081 T02040167 $

2010/08/10 10:55
KVBG 101055Z AUTO 13003KT 10SM OVC001 12/11 A2991 RMK AO2 SLP118 T01170111 TSNO CHINO RWY12 VISNO RWY12 $

2010/08/10 11:00
LQBK 101100Z 05004KT 9999 FEW033 27/17 Q1017 NOSIG

2010/08/10 10:56
PASY 101056Z AUTO 28010KT 1 1/4SM BR OVC001 09/09 A2990 RMK AO2 SLP124 T00890089 TSNO PNO $

2010/08/10 10:50
KQEI 101050Z AUTO 09001KT 1SM RA BKN002 25/23 A2993 RMK A02

2010/08/10 10:50
KQEJ 101050Z AUTO 08001KT 2SM RA BKN004 OVC047 25/23 A2991 RMK A02

2010/08/10 10:50
KQEP 101050Z AUTO 17003KT 7SM -SHRA FEW018 BKN110 BKN120 25/23 A2981 RMK A02

2010/08/10 10:50
KQEQ 101050Z AUTO 27001KT 7SM SHRA SCT003 BKN041 25/23 A2975 RMK A02

2010/08/10 10:50
KQER 101050Z AUTO 18001KT 1SM RA BR BKN050 25/23 A2986 RMK A02

2010/08/10 10:50
KQEW 101050Z AUTO 01005KT 7SM -RA BKN006 25/24 A2978 RMK A02

2010/08/10 10:50
KQEX 101050Z AUTO 05001KT 4SM -RA SCT036 27/24 A2969 RMK A02

2010/08/10 10:50
KQFB 101050Z AUTO 30004KT 1SM -RA OVC035 26/23 A2986 RMK A02

2010/08/10 10:50
KQFU 101050Z AUTO 33004KT 3SM +RA BR VV001 25/23 A2985 RMK A02

2010/08/10 10:50
KQFW 101050Z AUTO 10002KT 7SM -RA CLR 25/23 A2988 RMK A02

2010/08/10 10:55
KQA4 101055Z AUTO 35015G25KT 6000 BLDU HZ FEW200 37/M01 A2977 RMK AO2 SLP987 T03691014

2010/08/10 10:55
KQAE 101055Z 35007G15KT 8000 DU HZ CLR 47/05 A2959 RMK SLP013

2010/08/10 10:55
KQAQ 101055Z 01006KT 8000 HZ CLR 47/07 A2959 RMK SLP014 PA +431 DA +4080

2010/08/10 10:55
KQAY 101055Z AUTO VRB05KT 9999 CLR 43/12 A2952 RMK AO2 SLP990 T04290119 $

2010/08/10 10:55
KQDM 101055Z AUTO 34003KT 8SM FEW060 BKN075 26/00 A3008 RMK AO2 LTG DSNT SE SLP072 T02611005 PWINO $

2010/08/10 10:55
KQDP 101055Z AUTO RMK AO2 SLPNO $

2010/08/10 10:55
KQIR 101055Z 06004KT 9999 CLR 44/13 A2949 RMK AO2A SLP984 T04360132

2010/08/10 10:56
KSMP 101056Z AUTO VRB04KT 1/4SM FG BKN002 OVC007 08/08 A2995 RMK AO2 SLP139 T00780078 TSNO PNO $ 

2010/08/10 10:53
KLND 101053Z AUTO 23006KT 10SM CLR 14/03 A3007 RMK AO2 SLP112 T01390033 

2010/08/10 10:50
KHMS 101050Z 25008KT 15SM SKC 17/07 A2982 RMK SLP096 T01700072 RSNK 13.2/33005KT 

2010/08/10 10:52
KMLF 101052Z AUTO 17006KT 10SM CLR 10/02 A3007 RMK AO2 SLP125 T01000017 TSNO 

2010/08/10 10:50
K3A6 101050Z AUTO 36001KT 13/09 A2989 RMK AO1 SLP137 T01280088 

2010/08/10 10:56
KNXF 101056Z AUTO 08003KT 9SM OVC014 17/13 A2990 RMK AO2 SLP210 T01670128 TSNO 

2010/08/10 10:51
KP58 101051Z AUTO 00000KT 22/22 A2995 RMK AO2 SLP135 T02170217 PWINO TSNO 

2010/08/10 10:59
CYDN 101059Z AUTO 30003KT 9SM -RA FEW061 SCT074 SCT094 OVC120 18/17 A2987 RMK SLP118 DENSITY ALT 1600FT

2010/08/10 10:55
KCVS 101055Z 10003KT 10SM CLR 18/16 A3007 RMK AO2A SLP136 T01790160 $

2010/08/10 10:55
KDLF 101055Z AUTO 09006KT 10SM FEW020 BKN041 27/23 A2992 RMK AO2 SLP112 T02660228

2010/08/10 10:55
KEND 101055Z 17006KT 10SM FEW100 FEW200 25/20 A2989 RMK AO2A SLP103 T02510203

2010/08/10 10:55
KFHU 101055Z 23005KT 10SM SKC 22/14 A3009 RMK SLP115

2010/08/10 10:55
KFRI 101055Z AUTO VRB05KT 10SM CLR 28/20 A2984 RMK AO2 SLP084 T02750203

2010/08/10 10:55
KFTK 101055Z COR 23002KT 4SM BR FEW250 25/24 A2997 RMK SLP142 T02460245 COR 1100 $

2010/08/10 10:55
KGRK 101055Z 17005KT 7SM FEW060 27/23 A2993 RMK SLP111

2010/08/10 10:55
KHRT 101055Z 03004KT 10SM FEW250 CLR 25/24 A2991 RMK AO2A SLP132 T02480236 $

2010/08/10 10:56
KIWA 101056Z AUTO 10005KT 10SM SCT120 31/11 A2985 RMK AO2

2010/08/10 10:55
KLSV 101055Z AUTO 07003KT 10SM CLR 23/M03 A2985 RMK AO2 SLP090 T02341026 PWINO

2010/08/10 10:55
KMCF 101055Z AUTO 07012KT 10SM SCT009 25/25 A2987 RMK AO2 SLP116 T02500248

2010/08/10 10:55
KMIB 101055Z AUTO 10005KT 10SM FEW120 19/17 A2983 RMK AO2 LTG DSNT NW SLP095 T01880169

2010/08/10 10:56
KNBC 101056Z 36003KT 6SM BR SCT020 SCT080 BKN250 24/23 A3000 RMK AO2 SLP160 T02440233

2010/08/10 10:55
KNBG 101055Z AUTO 00000KT 1/2SM FG CLR 24/23 A2994 RMK AO2 SLP137 T02440233 PWINO $

2010/08/10 10:56
KNCA 101056Z 25003KT 10SM FEW025 SCT150 24/24 A3003 RMK AO2 SLP169 T02440239 $

2010/08/10 10:56
KNUQ 101056Z AUTO 00000KT 10SM OVC012 16/12 A2988 RMK AO2 SLP122 T01560122 TSNO

2010/08/10 11:00
MYNN 101100Z 17007KT 9999 SCT020 SCT050 OVC080 27/26 A2993

2010/08/10 11:00
TKPK 101100Z 09007KT 9999 SCT015 28/25 Q1014

2010/08/10 11:00
TKPN 101100Z 12009KT 9999 SCT017 29/25 Q1013

2010/08/10 10:55
KGTB 101055Z AUTO 21003KT 10SM OVC011 21/20 A2994 RMK AO2 CIG 011V015 SLP139 T02130203

2010/08/10 10:50
KMHR 101050Z 12003KT 10SM SKC 12/09 A2983

2010/08/10 10:54
KNFG 101054Z 00000KT BR OVC010 12/09 A2991 RMK AO2 SLP126 T01170094

2010/08/10 10:53
KNQX 101053Z 23005KT 8SM -RA BKN010 BKN020 BKN040 BKN140 26/23 A2985 RMK AO2 SLP105 T1 SET P0011 T02560233 $

2010/08/10 10:55
KPAM 101055Z AUTO 07005KT 10SM CLR 25/24 A2991 RMK AO2 SLP130 T02510242 $

2010/08/10 10:55
KPSM 101055Z 31006KT 4SM SCT140 21/21 A2988 RMK AO2A SLP121 T02120205

2010/08/10 10:55
KSSC 101055Z 00000KT 6SM BR OVC002 24/23 A3001 RMK AO2A SLP162 T02380230 $

2010/08/10 10:55
KVAD 101055Z AUTO 08004KT 10SM CLR 24/24 A2998 RMK AO2 SLP149 T02400237 $

2010/08/10 10:55
KWRB 101055Z AUTO 00000KT 9SM CLR 23/23 A3001 RMK AO2 SLP158 T02260226

2010/08/10 10:56
KFPK 101056Z AUTO 00000KT M1/4SM FG OVC001 18/18 A2998 RMK AO2

2010/08/10 10:55
KCVX 101055Z AUTO 00000KT 2SM BR SCT005 BKN010 BKN013 22/20 A3000 RMK AO2

2010/08/10 10:54
KMOP 101054Z AUTO 00000KT 1 1/4SM BR VV007 19/19 A2998 RMK AO2

2010/08/10 10:54
KFKS 101054Z AUTO 00000KT 4SM BR BKN001 18/17 A2998 RMK AO2

2010/08/10 10:54
KCAD 101054Z AUTO 00000KT M1/4SM FG VV000 17/17 A3001 RMK AO2

2010/08/10 10:55
KMGN 101055Z AUTO 00000KT 2SM BR CLR 21/20 A2998 RMK AO2

2010/08/10 10:55
KSLH 101055Z AUTO 30003KT M1/4SM FG OVC001 21/21 A2997 RMK AO2

2010/08/10 10:55
KSJX 101055Z AUTO 00000KT 3/4SM BR OVC001 21/20 A2998 RMK AO2

2010/08/10 10:55
KHAI 101055Z AUTO 00000KT M1/4SM FG OVC001 20/20 A2999 RMK AO2

2010/08/10 10:56
KLWA 101056Z AUTO 00000KT 3/4SM BR VV005 20/19 A2998 RMK AO2

2010/08/10 10:57
KDRM 101057Z AUTO 00000KT M1/4SM FG OVC001 20/20 A2995 RMK AO2

2010/08/10 10:54
KVLL 101054Z AUTO 00000KT 3SM BR CLR 21/20 A2999 RMK AO2

2010/08/10 10:55
KGOV 101055Z AUTO 00000KT 4SM BR OVC009 21/21 A3001 RMK AO2

2010/08/10 10:54
KPZQ 101054Z AUTO 29005KT 1/4SM FG OVC001 21/20 A2998 RMK AO2

2010/08/10 10:55
KCFS 101055Z AUTO 00000KT 1/2SM FG OVC001 21/20 A2996 RMK AO2

2010/08/10 10:54
KHYX 101054Z AUTO 30003KT 1 1/2SM BR VV007 20/19 A2997 RMK AO2

2010/08/10 10:55
KOZW 101055Z AUTO 24003KT M1/4SM FG OVC001 19/19 A2999 RMK AO2

2010/08/10 10:55
KRNP 101055Z AUTO 00000KT M1/4SM FG OVC001 19/19 A2998 RMK AO2

2010/08/10 10:54
KDUH 101054Z AUTO 00000KT M1/4SM FG OVC001 21/19 A2998 RMK AO2

2010/08/10 10:55
KISQ 101055Z AUTO 00000KT 1/4SM FG OVC001 18/16 A2998 RMK AO2

2010/08/10 10:55
KJYM 101055Z AUTO 00000KT M1/4SM FG OVC001 21/19 A3000 RMK AO2

2010/08/10 11:05
KBAX 101105Z AUTO 35004KT M1/4SM FG OVC002 21/21 A2997 RMK AO2

2010/08/10 10:55
KIRS 101055Z AUTO 00000KT 1 1/4SM BR BKN001 21/20 A2999 RMK AO2

2010/08/10 10:55
KAMN 101055Z AUTO 00000KT M1/4SM FG OVC003 17/17 A2998 RMK AO2

2010/08/10 10:55
KACB 101055Z AUTO 00000KT 1SM BR OVC014 22/22 A2998 RMK AO2

2010/08/10 10:54
KRQB 101054Z AUTO 00000KT M1/4SM FG OVC001 18/18 A3000 RMK AO2

2010/08/10 10:55
KERY 101055Z AUTO 00000KT M1/4SM FG OVC002 19/18 A2999 RMK AO2

2010/08/10 10:55
KOEB 101055Z AUTO 00000KT M1/4SM FG OVC001 21/19 A3000 RMK AO2

2010/08/10 10:56
K4I3 101056Z AUTO 28003KT 5SM BR CLR 22/20 A2999 RMK AO2

2010/08/10 10:57
KDVP 101057Z AUTO 20011KT VCTS 24/22 A2992 RMK AO2 LTG DSNT ALQS P0001 T02360223

2010/08/10 10:55
KAUM 101055Z AUTO 00000KT 4SM BR BKN060 23/22 A2996 RMK AO2 LTG DSNT SW

2010/08/10 10:55
KFFX 101055Z AUTO 00000KT M1/4SM FG OVC002 18/18 A2999 RMK AO2

2010/08/10 10:54
KCNB 101054Z AUTO 00000KT 2 1/2SM BR OVC003 23/23 A2990 RMK AO2 LTG DSNT S AND SW T02310226

2010/08/10 10:55
KCKN 101055Z AUTO 12004KT 10SM CLR 21/19 A2991 RMK AO2

2010/08/10 11:03
KCFE 101103Z AUTO 07003KT 7SM CLR 22/21 A2995 RMK AO2 T02170210

2010/08/10 10:57
KCQM 101057Z AUTO 00000KT 7SM CLR 16/16 A2998 RMK AO2

2010/08/10 10:55
KDTL 101055Z AUTO 13005KT 10SM CLR 21/18 A2995 RMK AO2

2010/08/10 10:55
KBDH 101055Z AUTO 13007KT 7SM CLR 23/22 A2992 RMK AO2 LTG DSNT S

2010/08/10 10:55
KCBG 101055Z AUTO 00000KT 10SM CLR 21/19 A2996 RMK AO2

2010/08/10 10:57
KADC 101057Z AUTO 00000KT 3SM BR CLR 17/16 A2994 RMK AO2

2010/08/10 10:55
KHAF 101055Z AUTO 19003KT 5SM BR OVC003 11/11 A2991 RMK AO2

2010/08/10 10:55
KCKC 101055Z AUTO 00000KT 10SM CLR 14/12 A3002 RMK AO2

2010/08/10 10:55
KJYG 101055Z AUTO 00000KT 7SM -TSRA BKN009 BKN013 25/25 A2993 RMK AO2 LTG DSNT S AND SW

2010/08/10 10:56
KCOQ 101056Z AUTO 00000KT 7SM CLR 18/16 A2998 RMK AO2

2010/08/10 10:53
KGTB 101053Z AUTO 20003KT 10SM OVC011 21/20 A2994 RMK AO2 CIG 011V015 SLP139

2010/08/10 10:58
KACQ 101058Z AUTO 09006KT 7SM SCT065 BKN085 22/21 A2995 RMK AO2 LTG DSNT S AND W

2010/08/10 10:55
KRGK 101055Z AUTO 00000KT 3SM BR BKN003 22/21 A2995 RMK AO2

2010/08/10 10:54
KFSE 101054Z AUTO 00000KT 10SM CLR 18/17 A2993 RMK AO2

2010/08/10 10:50
KUKT 101050Z AUTO 00000KT 6SM FEW080 22/21 A2996 RMK AO1

2010/08/10 10:54
KCDA 101054Z AUTO 00000KT M1/4SM FG OVC002 15/13 A2998 RMK AO2

2010/08/10 10:57
PAGH 101057Z AUTO 10008KT 10SM OVC049 13/12 A2960 RMK AO2 RAE57 SLP052 P0001 T01330117

2010/08/10 10:56
PAMB 101056Z AUTO 19008KT 3SM BR OVC003 09/09 A2958 RMK AO2 PWINO TSNO T00940094 SLP018 $

2010/08/10 10:56
PAOH 101056Z AUTO 00000KT 6SM BR OVC026 13/13 A3001 RMK AO2 TSNO T01270127 SLP163 $

2010/08/10 10:57
PAVA 101057Z AUTO 17005KT 10SM BKN007 OVC016 10/09 A2938 RMK AO2 CIG 005V013 SLP953 T01000094

2010/08/10 10:56
PPIZ 101056Z AUTO 06017G23KT 10SM CLR 04/03 A2967 RMK AO2 TSNO T00440027 PK WND 06027/1028 SLP051 $

2010/08/10 10:55
KLDM 101055Z AUTO 00000KT M1/4SM FG OVC001 21/20 A2999 RMK AO2

2010/08/10 10:55
KPHN 101055Z AUTO 00000KT 1 1/4SM BR OVC004 19/19 A2996 RMK AO2

2010/08/10 10:55
KRMY 101055Z AUTO 00000KT M1/4SM FG OVC003 19/18 A3000 RMK AO2

2010/08/10 10:56
KOSC 101056Z AUTO 32007KT OVC001 21/20 A2997 RMK AO2 PWINO

2010/08/10 10:53
KTTF 101053Z AUTO 00000KT M1/4SM FG OVC001 21/21 A2996 RMK AO2

2010/08/10 10:55
KMCD 101055Z AUTO 03003KT 1/4SM HZ OVC002 20/17 A2998 RMK AO2

2010/08/10 10:55
PATC 101055Z AUTO 03011KT 1/2SM BKN070 BKN090 10/09 A2944 RMK AO1 T01000095

2010/08/10 10:55
KACB 101055Z AUTO 00000KT 1SM BR OVC014 22/22 A2998 RMK AO2

2010/08/10 10:54
KRQB 101054Z AUTO 00000KT M1/4SM FG OVC001 18/18 A3000 RMK AO2

2010/08/10 10:55
KERY 101055Z AUTO 00000KT M1/4SM FG OVC002 19/18 A2999 RMK AO2

2010/08/10 10:55
KOEB 101055Z AUTO 00000KT M1/4SM FG OVC001 21/19 A3000 RMK AO2

2010/08/10 10:56
K4I3 101056Z AUTO 28003KT 5SM BR CLR 22/20 A2999 RMK AO2

2010/08/10 10:57
KDVP 101057Z AUTO 20011KT VCTS 24/22 A2992 RMK AO2 LTG DSNT ALQS P0001 T02360223

2010/08/10 10:55
KAUM 101055Z AUTO 00000KT 4SM BR BKN060 23/22 A2996 RMK AO2 LTG DSNT SW

2010/08/10 10:55
KFFX 101055Z AUTO 00000KT M1/4SM FG OVC002 18/18 A2999 RMK AO2

2010/08/10 10:54
KCNB 101054Z AUTO 00000KT 2 1/2SM BR OVC003 23/23 A2990 RMK AO2 LTG DSNT S AND SW T02310226

2010/08/10 10:55
KCKN 101055Z AUTO 12004KT 10SM CLR 21/19 A2991 RMK AO2

2010/08/10 11:03
KCFE 101103Z AUTO 07003KT 7SM CLR 22/21 A2995 RMK AO2 T02170210

2010/08/10 10:57
KCQM 101057Z AUTO 00000KT 7SM CLR 16/16 A2998 RMK AO2

2010/08/10 10:55
KDTL 101055Z AUTO 13005KT 10SM CLR 21/18 A2995 RMK AO2

2010/08/10 10:55
KBDH 101055Z AUTO 13007KT 7SM CLR 23/22 A2992 RMK AO2 LTG DSNT S

2010/08/10 10:55
KCBG 101055Z AUTO 00000KT 10SM CLR 21/19 A2996 RMK AO2

2010/08/10 10:57
KADC 101057Z AUTO 00000KT 3SM BR CLR 17/16 A2994 RMK AO2

2010/08/10 10:55
KHAF 101055Z AUTO 19003KT 5SM BR OVC003 11/11 A2991 RMK AO2

2010/08/10 10:55
KCKC 101055Z AUTO 00000KT 10SM CLR 14/12 A3002 RMK AO2

2010/08/10 10:55
KJYG 101055Z AUTO 00000KT 7SM -TSRA BKN009 BKN013 25/25 A2993 RMK AO2 LTG DSNT S AND SW

2010/08/10 10:56
KCOQ 101056Z AUTO 00000KT 7SM CLR 18/16 A2998 RMK AO2

2010/08/10 10:58
KACQ 101058Z AUTO 09006KT 7SM SCT065 BKN085 22/21 A2995 RMK AO2 LTG DSNT S AND W

2010/08/10 10:55
KRGK 101055Z AUTO 00000KT 3SM BR BKN003 22/21 A2995 RMK AO2

2010/08/10 10:54
KFSE 101054Z AUTO 00000KT 10SM CLR 18/17 A2993 RMK AO2

2010/08/10 10:50
KUKT 101050Z AUTO 00000KT 6SM FEW080 22/21 A2996 RMK AO1

2010/08/10 10:54
KCDA 101054Z AUTO 00000KT M1/4SM FG OVC002 15/13 A2998 RMK AO2

2010/08/10 10:50
KHMS 101050Z 25008KT 15SM SKC 17/07 A2982 RMK SLP096 T01700072 RSNK 13.2/33005KT

2010/08/10 10:50
K3A6 101050Z AUTO 36001KT 13/09 A2989 RMK AO1 SLP137 T01280088

2010/08/10 10:55
KLDM 101055Z AUTO 00000KT M1/4SM FG OVC001 21/20 A2999 RMK AO2

2010/08/10 10:55
KPHN 101055Z AUTO 00000KT 1 1/4SM BR OVC004 19/19 A2996 RMK AO2

2010/08/10 10:55
KRMY 101055Z AUTO 00000KT M1/4SM FG OVC003 19/18 A3000 RMK AO2

2010/08/10 10:56
KOSC 101056Z AUTO 32007KT OVC001 21/20 A2997 RMK AO2 PWINO

2010/08/10 10:53
KTTF 101053Z AUTO 00000KT M1/4SM FG OVC001 21/21 A2996 RMK AO2

2010/08/10 10:55
KMCD 101055Z AUTO 03003KT 1/4SM HZ OVC002 20/17 A2998 RMK AO2

2010/08/10 10:54
KSBN 101054Z 00000KT 7SM SCT032 23/21 A2998 RMK AO2 SLP147 T02280206

2010/08/10 10:54
KWAL 101054Z AUTO 28005KT 6SM BR CLR 25/23 A2997 RMK AO2 SLP144 T02500228 TSNO

2010/08/10 10:55
KINL 101055Z AUTO 00000KT 10SM FEW090 17/17 A2994 RMK AO2 VIS 3/4 RWY 31 SLP135 T01670167 $

2010/08/10 10:56
KALK 101056Z AUTO 26005KT 10SM CLR 18/14 A3011 RMK AO2 SLP101 T01830144 $

2010/08/10 10:53
KLOR 101053Z AUTO 00000KT 7SM CLR 23/21 A2996 RMK AO2 SLP140 T02330211 TSNO PNO $

2010/08/10 10:56
KSMP 101056Z AUTO VRB04KT 1/4SM FG BKN002 OVC007 08/08 A2995 RMK AO2 SLP139 T00780078 TSNO PNO $

2010/08/10 10:53
KLND 101053Z AUTO 23006KT 10SM CLR 14/03 A3007 RMK AO2 SLP112 T01390033

2010/08/10 10:52
KMLF 101052Z AUTO 17006KT 10SM CLR 10/02 A3007 RMK AO2 SLP125 T01000017 TSNO

2010/08/10 10:51
KP58 101051Z AUTO 00000KT 22/22 A2995 RMK AO2 SLP135 T02170217 PWINO TSNO

2010/08/10 10:56
K2WX 101056Z AUTO 36004KT 18/13 A2978 RMK AO1 SLP057 T01830133

2010/08/10 10:56
KNGP 101056Z 20003KT 10SM FEW015 28/25 A2987 RMK AO2 SLP114 T02820250 $

2010/08/10 10:56
KFSD 101056Z 00000KT 10SM -TSRA BKN037 OVC100CB 21/19 A2993 RMK AO2 PK WND 27035/1006 SLP126 CONS LTGICCGCC NE-S TS NE-S MOV NE P0044 T02110194 $

2010/08/10 10:56
KFLG 101056Z AUTO 00000KT 10SM FEW070 08/07 A3027 RMK AO2 SLP163 T00830072 TSNO

2010/08/10 10:56
KSXT 101056Z AUTO 01009KT 8SM CLR 11/08 A2997 RMK AO2 SLP112 T01060078 TSNO

2010/08/10 10:56
KGFA 101056Z AUTO 20010KT 10SM CLR 15/08 A2984 RMK AO2 SLP103 T01500083

2010/08/10 10:56
KNXP 101056Z AUTO 32004KT CLR 22/M01 A2992 RMK AO2 SLP094 T02171006 $

2010/08/10 10:56
KLWS 101056Z AUTO 12005KT 10SM CLR 17/08 A2982 RMK AO2 SLP089 T01720083

2010/08/10 10:56
KP53 101056Z AUTO 18007KT 17/17 A2996 RMK AO2 SLP145 T01720167 PWINO TSNO

2010/08/10 10:56
KD07 101056Z AUTO 17008KT 21/16 A2982 RMK AO2 SLP079 T02060156 PWINO TSNO

2010/08/10 10:56
KNBT 101056Z AUTO 26003KT 5SM BR CLR 27/24 A3001 RMK AO2 SLP168 T02670244 TSNO

2010/08/10 10:56
KINS 101056Z 00000KT 10SM CLR 20/M06 A2992 RMK AO2 SLP077 T02001056 $

2010/08/10 10:56
KAQV 101056Z AUTO 00000KT 10SM SCT070 OVC085 25/23 A2994 RMK AO2 SLP132 T02500233

2010/08/10 10:56
KSPD 101056Z AUTO 32003KT 19/16 A3004 RMK AO2 SLP103 T01940161 PWINO TSNO

2010/08/10 10:56
KALK 101056Z AUTO 26005KT 10SM CLR 18/14 A3011 RMK AO2 SLP101 T01830144 $

2010/08/10 10:56
K9L2 101056Z AUTO 18007KT 10SM CLR 16/M04 A2988 RMK AO2 SLP099 T01611039 $

2010/08/10 10:56
K8D3 101056Z AUTO 09004KT 21/21 A2987 RMK AO2 SLP093 T02110206 PWINO TSNO

2010/08/10 10:55
KCAO 101055Z AUTO 25007KT 10SM BKN100 21/15 A3008 RMK AO2 SLP109 T02110150 TSNO

2010/08/10 10:56
KWMC 101056Z AUTO 00000KT 10SM CLR 11/M01 A2996 RMK AO2 SLP099 T01061006

2010/08/10 10:56
KFPK 101056Z AUTO 00000KT M1/4SM FG OVC001 18/18 A2998 RMK AO2

2010/08/10 10:55
KCVX 101055Z AUTO 00000KT 2SM BR SCT005 BKN010 BKN013 22/20 A3000 RMK AO2

2010/08/10 10:54
KMOP 101054Z AUTO 00000KT 1 1/4SM BR VV007 19/19 A2998 RMK AO2

2010/08/10 10:54
KFKS 101054Z AUTO 00000KT 4SM BR BKN001 18/17 A2998 RMK AO2

2010/08/10 10:54
KCAD 101054Z AUTO 00000KT M1/4SM FG VV000 17/17 A3001 RMK AO2

2010/08/10 10:55
KMGN 101055Z AUTO 00000KT 2SM BR CLR 21/20 A2998 RMK AO2

2010/08/10 10:55
KSLH 101055Z AUTO 30003KT M1/4SM FG OVC001 21/21 A2997 RMK AO2

2010/08/10 10:55
KSJX 101055Z AUTO 00000KT 3/4SM BR OVC001 21/20 A2998 RMK AO2

2010/08/10 10:55
KHAI 101055Z AUTO 00000KT M1/4SM FG OVC001 20/20 A2999 RMK AO2

2010/08/10 10:56
KLWA 101056Z AUTO 00000KT 3/4SM BR VV005 20/19 A2998 RMK AO2

2010/08/10 10:57
KDRM 101057Z AUTO 00000KT M1/4SM FG OVC001 20/20 A2995 RMK AO2

2010/08/10 10:54
KVLL 101054Z AUTO 00000KT 3SM BR CLR 21/20 A2999 RMK AO2

2010/08/10 10:55
KGOV 101055Z AUTO 00000KT 4SM BR OVC009 21/21 A3001 RMK AO2

2010/08/10 10:54
KPZQ 101054Z AUTO 29005KT 1/4SM FG OVC001 21/20 A2998 RMK AO2

2010/08/10 10:55
KCFS 101055Z AUTO 00000KT 1/2SM FG OVC001 21/20 A2996 RMK AO2

2010/08/10 10:54
KHYX 101054Z AUTO 30003KT 1 1/2SM BR VV007 20/19 A2997 RMK AO2

2010/08/10 10:55
KOZW 101055Z AUTO 24003KT M1/4SM FG OVC001 19/19 A2999 RMK AO2

2010/08/10 10:55
KRNP 101055Z AUTO 00000KT M1/4SM FG OVC001 19/19 A2998 RMK AO2

2010/08/10 10:54
KDUH 101054Z AUTO 00000KT M1/4SM FG OVC001 21/19 A2998 RMK AO2

2010/08/10 10:55
KISQ 101055Z AUTO 00000KT 1/4SM FG OVC001 18/16 A2998 RMK AO2

2010/08/10 10:55
KJYM 101055Z AUTO 00000KT M1/4SM FG OVC001 21/19 A3000 RMK AO2

2010/08/10 11:05
KBAX 101105Z AUTO 35004KT M1/4SM FG OVC002 21/21 A2997 RMK AO2

2010/08/10 10:55
KIRS 101055Z AUTO 00000KT 1 1/4SM BR BKN001 21/20 A2999 RMK AO2

2010/08/10 10:55
KAMN 101055Z AUTO 00000KT M1/4SM FG OVC003 17/17 A2998 RMK AO2

2010/08/10 10:54
KAPN 101054Z AUTO 00000KT 1/4SM FG VV001 21/20 A2998 RMK AO2 SLP149 T02060200 $ 

2010/08/10 10:53
KUIL 101053Z AUTO 00000KT 1 3/4SM BR OVC001 12/12 A2995 RMK AO2 SLP142 P0001 T01220117 TSNO 

2010/08/10 10:56
KNSE 101056Z AUTO 03004KT 4SM HZ CLR 26/23 A2994 RMK AO2 SLP122 T02560228 $

2010/08/10 10:56
KGFA 101056Z AUTO 20010KT 10SM CLR 15/08 A2984 RMK AO2 SLP103 T01500083

2010/08/10 10:57
K14Y 101057Z AUTO 00000KT 3SM BR CLR 20/19 A2995 RMK AO2 T01950191

2010/08/10 10:55
K1A6 101055Z AUTO 00000KT 1/2SM FG OVC004 24/24 A3005 RMK AO2

2010/08/10 10:55
K1P1 101055Z AUTO 31004KT 2 1/2SM BR OVC002 20/19 A2994 RMK AO2 T01960185

2010/08/10 10:55
K46D 101055Z AUTO 13005KT 10SM CLR 19/19 A2989 RMK AO2

2010/08/10 10:50
KAEL 101050Z AUTO 13006KT 5SM BR SCT033 SCT042 BKN060 24/23 A2995 RMK AO2 LTG DSNT SE

2010/08/10 10:55
KAIG 101055Z AUTO 00000KT 7SM CLR 14/14 A3002 RMK AO2

2010/08/10 10:53
KAIT 101053Z AUTO 00000KT 2 1/2SM BR BKN001 15/13 A2997 RMK AO2

2010/08/10 10:56
KAJO 101056Z AUTO 00000KT 8SM CLR 11/11 A2990 RMK AO2 T01050105 SLP119 $

2010/08/10 10:55
KANE 101055Z AUTO 00000KT 10SM CLR 22/21 A2996 RMK AO2

2010/08/10 10:54
KAQP 101054Z AUTO 13006KT 7SM BKN065 22/22 A2989 RMK AO2 LTG DSNT S

2010/08/10 10:51
KARV 101051Z AUTO 00000KT 10SM CLR 17/16 A3003 RMK AO2 T01680155

2010/08/10 10:53
KBBB 101053Z AUTO 13003KT 7SM CLR 22/21 A2994 RMK AO2

2010/08/10 10:55
KBBF 101055Z AUTO 20006KT 10SM CLR 30/27 A2988 RMK A01

2010/08/10 10:55
KBBG 101055Z AUTO 00000KT 10SM CLR 25/22 A2998 RMK AO2

2010/08/10 10:53
KBFW 101053Z AUTO 00000KT 7SM CLR 16/14 A2996 RMK AO2

2010/08/10 10:55
KBQX 101055Z AUTO 19008KT 10SM CLR 30/26 A2990 RMK A01

2010/08/10 10:50
KBWP 101050Z AUTO 11005KT 10SM SCT034 22/20 A2989 RMK AO1 T02170200

2010/08/10 10:52
KCDD 101052Z AUTO 00000KT 4SM BR CLR 18/18 A2997 RMK AO2

2010/08/10 10:55
KCMB 101055Z AUTO 35008KT 10SM SCT029 SCT034 31/25 A2992 RMK A01

2010/08/10 10:55
KCMR 101055Z AUTO 15006KT 10SM FEW070 11/08 A3025 RMK AO1

2010/08/10 10:55
KCMY 101055Z AUTO 00000KT 3/4SM BR OVC001 20/19 A2998 RMK AO2 T01950190

2010/08/10 10:55
KCRH 101055Z AUTO VRB04KT 10SM CLR 30/25 A2992 RMK A01

2010/08/10 10:50
KCVH 101050Z AUTO 00000KT 10SM OVC005 13/12 A2990 RMK AO1

2010/08/10 10:56
KDIJ 101056Z AUTO 00000KT 10SM CLR 06/04 A3013 RMK AO2 T00610044 SLP144 $

2010/08/10 10:55
KDLL 101055Z AUTO 00000KT 1/4SM FG OVC002 21/20 A2998 RMK AO2 T02070201

2010/08/10 10:54
KDXX 101054Z AUTO 12004KT 10SM SCT033 24/24 A2989 RMK AO2 LTG DSNT SW

2010/08/10 10:54
KDYT 101054Z AUTO 00000KT 10SM CLR 22/21 A2996 RMK AO2

2010/08/10 10:56
KEFK 101056Z AUTO 00000KT M1/4SM FG OVC001 14/13 A2995 RMK AO2

2010/08/10 10:55
KEFT 101055Z AUTO 00000KT 7SM CLR 24/22 A2998 RMK AO2 T02370221

2010/08/10 10:51
KEGV 101051Z AUTO 00000KT M1/4SM FG OVC001 15/15 A3003 RMK AO2 T01500150

2010/08/10 10:55
KEHC 101055Z AUTO 31011KT 10SM CLR 29/23 A2992 RMK A01

2010/08/10 10:56
KSGH 101056Z AUTO 00000KT 4SM BR CLR 21/21 A3000 RMK AO2 T02050205 SLP150 $

2010/08/10 10:56
KWJF 101056Z 28007KT 10SM CLR 19/M02 A2990 RMK AO2 SLP103 T01891022

2010/08/10 10:55
KEIR 101055Z AUTO 00000KT 10SM FEW019 SCT024 BKN029 30/26 A2990 RMK A01

2010/08/10 10:56
KEKQ 101056Z AUTO 00000KT 3/4SM BR CLR 22/22 A3003 RMK AO2 T02220216 SLP164

2010/08/10 10:53
KELO 101053Z AUTO 00000KT 7SM CLR 16/16 A2998 RMK AO2

2010/08/10 10:55
KEMK 101055Z AUTO 22006G11KT 10SM FEW021 SCT027 BKN035 29/25 A2991 RMK A01

2010/08/10 10:52
KETB 101052Z AUTO 00000KT 2SM BR CLR 20/20 A2998 RMK AO2 T02020195

2010/08/10 10:54
KETH 101054Z AUTO 09005KT 5SM BR SCT049 19/19 A2992 RMK AO2

2010/08/10 10:52
KEVM 101052Z AUTO 00000KT 1/4SM FG OVC001 15/13 A2997 RMK AO1

2010/08/10 10:54
KEZS 101054Z AUTO 03006KT 4SM BR BKN004 22/21 A2998 RMK AO2 T02150205

2010/08/10 10:54
KFBL 101054Z AUTO 10004KT 10SM CLR 23/21 A2995 RMK AO2 LTG DSNT S AND SW

2010/08/10 10:53
KFFM 101053Z AUTO 11005KT 10SM CLR 22/21 A2989 RMK AO2

2010/08/10 10:53
KFGN 101053Z AUTO 24004KT 7SM CLR 23/20 A2989 RMK AO2

2010/08/10 11:02
KFKA 101102Z AUTO 00000KT 4SM BR CLR 22/22 A2999 RMK AO2 LTG DSNT SW T02240217

2010/08/10 10:53
KFOZ 101053Z AUTO 00000KT 1/4SM FG BKN001 BKN016 17/16 A2998 RMK AO2

2010/08/10 10:59
KFSO 101059Z AUTO 15003KT 5SM BR OVC013 18/18 A2992 RMK AO2

2010/08/10 10:52
KGDB 101052Z AUTO 09004KT 10SM OVC050 23/22 A2991 RMK AO2 LTG DSNT SW T02300221

2010/08/10 10:53
KGHW 101053Z AUTO 10006KT 5SM BR CLR 21/19 A2995 RMK AO2

2010/08/10 10:53
KGTB 101053Z AUTO 20003KT 10SM OVC011 21/20 A2994 RMK AO2 CIG 011V015 SLP139

2010/08/10 10:58
KHST 101058Z AUTO 20004KT 8SM -RA FEW015 SCT032 BKN065 25/24 A2988 RMK AO2 RAB1058 CIG 048 RWY23 SLP119

2010/08/10 10:57
KMMT 101057Z AUTO 00000KT 7SM SCT003 BKN016 BKN025 24/24 A3002 RMK AO2 SLP164

2010/08/10 10:57
KMTC 101057Z 00000KT 1 1/4SM BR CLR 20/20 A2995 RMK VIS NE 2 S 1

2010/08/10 10:56
PGUA 101056Z AUTO 08006KT 10SM BKN018 BKN027 BKN034 26/25 A2996 RMK AO2 CIG 017V022 SLP127 $

2010/08/10 10:53
KGTB 101053Z AUTO 20003KT 10SM OVC011 21/20 A2994 RMK AO2 CIG 011V015 SLP139

2010/08/10 10:56
KHLR 101056Z AUTO 18004KT 10SM CLR 27/23 A2993 RMK AO2 SLP126 T02670228 $

2010/08/10 10:56
KNGP 101056Z 20003KT 10SM FEW015 28/25 A2987 RMK AO2 SLP114 T02820250 $

2010/08/10 10:56
PHBK 101056Z AUTO 07004KT 10SM CLR 23/14 A3008 RMK AO2 SLP188 T02330144 TSNO $

2010/08/10 10:56
KNQI 101056Z AUTO 00000KT 5SM BR CLR 27/24 A2987 RMK AO2 SLP112 T02670244 $

2010/08/10 10:56
KNDZ 101056Z AUTO 05006KT 10SM CLR 27/22 A2994 RMK AO2 SLP123 T02670222 PWINO $

2010/08/10 10:56
K79J 101056Z AUTO 00000KT 8SM CLR 24/21 A2996 RMK AO2 SLP140 T02440211 TSNO PNO $

2010/08/10 10:56
KNXP 101056Z AUTO 32004KT CLR 22/M01 A2992 RMK AO2 SLP094 T02171006 $

2010/08/10 10:56
KNPA 101056Z 01007KT 8SM SCT280 26/24 A2992 RMK AO2 SLP132 T02610239

2010/08/10 10:56
KNBT 101056Z AUTO 26003KT 5SM BR CLR 27/24 A3001 RMK AO2 SLP168 T02670244 TSNO

2010/08/10 10:56
KINS 101056Z 00000KT 10SM CLR 20/M06 A2992 RMK AO2 SLP077 T02001056 $

2010/08/10 10:56
KAQV 101056Z AUTO 00000KT 10SM SCT070 OVC085 25/23 A2994 RMK AO2 SLP132 T02500233

2010/08/10 10:56
KNMM 101056Z 00000KT 6SM BR FEW250 24/23 A2996 RMK AO2 SLP152 T02440228 $

2010/08/10 10:56
KNUW 101056Z 00000KT 6SM BR FEW004 BKN008 OVC040 13/11 A2995 RMK AO2 SLP146 T01320111 $

2010/08/10 10:55
KGTB 101055Z AUTO 21003KT 10SM OVC011 21/20 A2994 RMK AO2 CIG 011V015 SLP139 T02130203

2010/08/10 10:54
KNFG 101054Z 00000KT BR OVC010 12/09 A2991 RMK AO2 SLP126 T01170094

2010/08/10 10:53
KNIP 101053Z 11010KT 10SM FEW012 SCT250 27/24 A2995 RMK AO2 SLP136 T02670239

2010/08/10 10:53
KNQX 101053Z 23005KT 8SM -RA BKN010 BKN020 BKN040 BKN140 26/23 A2985 RMK AO2 SLP105 T1 SET P0011 T02560233 $

2010/08/10 10:52
KNZY 101052Z 00000KT 10SM OVC013 19/13 A2989 RMK AO2 SLP122 T01940133 $

2010/08/10 10:55
KPAM 101055Z AUTO 07005KT 10SM CLR 25/24 A2991 RMK AO2 SLP130 T02510242 $

2010/08/10 10:55
KPOB 101055Z AUTO 23005KT 10SM OVC004 24/24 A3002 RMK AO2 SLP166 T02420242 $

2010/08/10 10:55
KPSM 101055Z 31006KT 4SM SCT140 21/21 A2988 RMK AO2A SLP121 T02120205

2010/08/10 10:55
KSKA 101055Z AUTO 22010KT 10SM BKN120 OVC160 15/09 A2981 RMK AO2 SLP082 T01500086

2010/08/10 10:55
KSKF 101055Z AUTO 16003KT 10SM SCT013 26/ A2992 RMK AO2 SLP120 T0260 $

2010/08/10 10:55
KSSC 101055Z 00000KT 6SM BR OVC002 24/23 A3001 RMK AO2A SLP162 T02380230 $

2010/08/10 10:55
KTCM 101055Z AUTO 22007KT 10SM OVC009 13/11 A2997 RMK AO2 CIG 009V012 SLP149 T01300106

2010/08/10 10:55
KTIK 101055Z 19008KT 10SM CLR 25/21 A2990 RMK AO2A SLP109 T02490207

2010/08/10 10:55
KVAD 101055Z AUTO 08004KT 10SM CLR 24/24 A2998 RMK AO2 SLP149 T02400237 $

2010/08/10 10:55
KVOK 101055Z 00000KT 1/4SM R27/1000V1600FT FG CLR 17/17 A2998 RMK AO2A SLP146 T01740174

2010/08/10 10:55
KWRB 101055Z AUTO 00000KT 9SM CLR 23/23 A3001 RMK AO2 SLP158 T02260226

2010/08/10 10:56
KNID 101056Z AUTO 19007KT CLR 19/01 A2985 RMK AO2 SLP086 T01940011 TSNO $

2010/08/10 10:55
KLSV 101055Z AUTO 07003KT 10SM CLR 23/M03 A2985 RMK AO2 SLP090 T02341026 PWINO

2010/08/10 10:56
KNCA 101056Z 25003KT 10SM FEW025 SCT150 24/24 A3003 RMK AO2 SLP169 T02440239 $

2010/08/10 10:56
KNLC 101056Z AUTO 32007KT 10SM CLR 19/12 A2981 RMK AO2 SLP092 T01940122 TSNO

2010/08/10 10:56
KNTD 101056Z AUTO 00000KT 9SM OVC007 15/13 A2990 RMK AO2 SLP125 T01500133 TSNO $

2010/08/10 10:56
KNTU 101056Z 24005KT 10SM FEW050 SCT200 24/23 A2997 RMK AO2 SLP152 T02440233 $

2010/08/10 10:56
KNYG 101056Z 00000KT 7SM CLR 24/21 A2996 RMK AO2 SLP145 T02440206 $

2010/08/10 10:52
KNZY 101052Z 00000KT 10SM OVC013 19/13 A2989 RMK AO2 SLP122 T01940133 $

2010/08/10 10:55
MHSC 101055Z AUTO 00000KT 9999 CLR 20/19 A2996 RMK AO2 SLP105 T02010194 $

2010/08/10 10:55
PAED 101055Z 00000KT 10SM OVC009 11/10 A2977 RMK AO2A CIG 005V011 CIG 003 RWY24 SLP083 T01140102

2010/08/10 10:56
PMDY 101056Z AUTO 08010KT 10SM CLR 26/22 A3023 RMK AO2 TSNO T02550222 403050238 RAB03E16 P0000 SLP544

2010/08/10 10:56
K9L2 101056Z AUTO 18007KT 10SM CLR 16/M04 A2988 RMK AO2 SLP099 T01611039 $

2010/08/10 10:55
KGBK 101055Z AUTO VRB04KT 10SM BKN023 OVC033 31/25 A2992 RMK A01

2010/08/10 10:55
KMHR 101055Z AUTO 00000KT 10SM CLR 12/09 A2983 RMK AO1

2010/08/10 10:53
KMRT 101053Z AUTO 00000KT 2SM CLR 20/19 A3001 RMK AO2 T02020191

2010/08/10 10:56
KNTU 101056Z 24005KT 10SM FEW050 SCT200 24/23 A2997 RMK AO2 SLP152 T02440233 $

2010/08/10 10:57
KNJM 101057Z AUTO 26003KT 10SM CLR 27/25 A3002 RMK AO2 SLP169 T02670250

2010/08/10 10:55
KGTB 101055Z AUTO 21003KT 10SM OVC011 21/20 A2994 RMK AO2 CIG 011V015 SLP139 T02130203

2010/08/10 10:50
KMHR 101050Z 12003KT 10SM SKC 12/09 A2983

2010/08/10 10:54
KNFG 101054Z 00000KT BR OVC010 12/09 A2991 RMK AO2 SLP126 T01170094

2010/08/10 10:53
KNQX 101053Z 23005KT 8SM -RA BKN010 BKN020 BKN040 BKN140 26/23 A2985 RMK AO2 SLP105 T1 SET P0011 T02560233 $

2010/08/10 10:55
KPAM 101055Z AUTO 07005KT 10SM CLR 25/24 A2991 RMK AO2 SLP130 T02510242 $

2010/08/10 10:55
KPSM 101055Z 31006KT 4SM SCT140 21/21 A2988 RMK AO2A SLP121 T02120205

2010/08/10 10:55
KSSC 101055Z 00000KT 6SM BR OVC002 24/23 A3001 RMK AO2A SLP162 T02380230 $

2010/08/10 10:55
KVAD 101055Z AUTO 08004KT 10SM CLR 24/24 A2998 RMK AO2 SLP149 T02400237 $

2010/08/10 10:55
KWRB 101055Z AUTO 00000KT 9SM CLR 23/23 A3001 RMK AO2 SLP158 T02260226

2010/08/10 10:55
KCVS 101055Z 10003KT 10SM CLR 18/16 A3007 RMK AO2A SLP136 T01790160 $

2010/08/10 10:55
KEND 101055Z 17006KT 10SM FEW100 FEW200 25/20 A2989 RMK AO2A SLP103 T02510203

2010/08/10 10:55
KFTK 101055Z COR 23002KT 4SM BR FEW250 25/24 A2997 RMK SLP142 T02460245 COR 1100 $

2010/08/10 10:55
KHRT 101055Z 03004KT 10SM FEW250 CLR 25/24 A2991 RMK AO2A SLP132 T02480236 $

2010/08/10 10:56
KNBC 101056Z 36003KT 6SM BR SCT020 SCT080 BKN250 24/23 A3000 RMK AO2 SLP160 T02440233

2010/08/10 10:55
KNBG 101055Z AUTO 00000KT 1/2SM FG CLR 24/23 A2994 RMK AO2 SLP137 T02440233 PWINO $

2010/08/10 10:55
KNKX 101055Z 00000KT 10SM OVC010 17/14 A2990 RMK AO2 SLP119 T01720139

2010/08/10 10:56
KNUQ 101056Z AUTO 00000KT 10SM OVC012 16/12 A2988 RMK AO2 SLP122 T01560122 TSNO

2010/08/10 10:56
KNXX 101056Z 00000KT 8SM BKN150 BKN200 24/20 A2995 RMK AO2 SLP147 T02440200 $

2010/08/10 10:55
KPOE 101055Z AUTO 00000KT 10SM FEW050 BKN070 25/23 A2994 RMK AO2 SLP139 T02500233

2010/08/10 10:55
KPSM 101055Z COR 31006KT 4SM BR SCT140 21/21 A2988 RMK AO2A SLP121 T02120205 COR 1100

2010/08/10 10:55
KRCA 101055Z VRB03KT 10SM OVC110 20/17 A2984 RMK AO2A SLP081 T02040167 $

2010/08/10 10:55
KVBG 101055Z AUTO 13003KT 10SM OVC001 12/11 A2991 RMK AO2 SLP118 T01170111 TSNO CHINO RWY12 VISNO RWY12 $

2010/08/10 10:56
PASY 101056Z AUTO 28010KT 1 1/4SM BR OVC001 09/09 A2990 RMK AO2 SLP124 T00890089 TSNO PNO $

2010/08/10 10:56
KNXF 101056Z AUTO 08003KT 9SM OVC014 17/13 A2990 RMK AO2 SLP210 T01670128 TSNO

2010/08/10 10:55
KCVS 101055Z 10003KT 10SM CLR 18/16 A3007 RMK AO2A SLP136 T01790160 $

2010/08/10 10:55
KDLF 101055Z AUTO 09006KT 10SM FEW020 BKN041 27/23 A2992 RMK AO2 SLP112 T02660228

2010/08/10 10:55
KEND 101055Z 17006KT 10SM FEW100 FEW200 25/20 A2989 RMK AO2A SLP103 T02510203

2010/08/10 10:55
KFHU 101055Z 23005KT 10SM SKC 22/14 A3009 RMK SLP115

2010/08/10 10:55
KFRI 101055Z AUTO VRB05KT 10SM CLR 28/20 A2984 RMK AO2 SLP084 T02750203

2010/08/10 10:55
KFTK 101055Z COR 23002KT 4SM BR FEW250 25/24 A2997 RMK SLP142 T02460245 COR 1100 $

2010/08/10 10:55
KGRK 101055Z 17005KT 7SM FEW060 27/23 A2993 RMK SLP111

2010/08/10 10:55
KHRT 101055Z 03004KT 10SM FEW250 CLR 25/24 A2991 RMK AO2A SLP132 T02480236 $

2010/08/10 10:55
KLSV 101055Z AUTO 07003KT 10SM CLR 23/M03 A2985 RMK AO2 SLP090 T02341026 PWINO

2010/08/10 10:55
KMCF 101055Z AUTO 07012KT 10SM SCT009 25/25 A2987 RMK AO2 SLP116 T02500248

2010/08/10 10:55
KMIB 101055Z AUTO 10005KT 10SM FEW120 19/17 A2983 RMK AO2 LTG DSNT NW SLP095 T01880169

2010/08/10 10:56
KNBC 101056Z 36003KT 6SM BR SCT020 SCT080 BKN250 24/23 A3000 RMK AO2 SLP160 T02440233

2010/08/10 10:55
KNBG 101055Z AUTO 00000KT 1/2SM FG CLR 24/23 A2994 RMK AO2 SLP137 T02440233 PWINO $

2010/08/10 10:56
KNCA 101056Z 25003KT 10SM FEW025 SCT150 24/24 A3003 RMK AO2 SLP169 T02440239 $

2010/08/10 10:56
KNUQ 101056Z AUTO 00000KT 10SM OVC012 16/12 A2988 RMK AO2 SLP122 T01560122 TSNO

2010/08/10 10:53
KLOR 101053Z AUTO 00000KT 7SM CLR 23/21 A2996 RMK AO2 SLP140 T02330211 TSNO PNO $

2010/08/10 10:49
KVWU 101049Z AUTO 18004KT 10SM CLR 20/19 A2994 RMK AO2

2010/08/10 10:56
KXVG 101056Z AUTO 00000KT 2SM BR OVC001 15/15 A2995 RMK AO2

2010/08/10 10:55
KY63 101055Z AUTO 12007KT 10SM CLR 23/22 A2991 RMK AO2 T02300218

2010/08/10 10:56
PAGN 101056Z AUTO 00000KT OVC006 RMK AO2 PWINO TSNO SLPNO $

2010/08/10 10:56
PATQ 101056Z AUTO 07015KT 7SM OVC005 02/01 A2979 RMK AO2 TSNO T00160011 RAE14B34E53 P0000 SLP092 $

2010/08/10 10:56
PAFS 101056Z AUTO 04003KT 10SM CLR 10/09 A2964 RMK AO2 TSNO T01000094 RAE49 P0000 SLP043 $

2010/08/10 10:56
PAGN 101056Z AUTO 00000KT OVC006 RMK AO2 PWINO TSNO SLPNO $

2010/08/10 10:56
PAHC 101056Z AUTO 00000KT 10SM BKN044 OVC055 11/09 A2950 RMK AO2 TSNO T01110088 BKN V OVC RAB06E20 P0000 SLP992 $

2010/08/10 10:56
PAIG 101056Z AUTO 22007KT 6SM BR FEW006 OVC038 10/09 A2967 RMK AO2 PWINO TSNO T01000094 P0001 SLP050 $

2010/08/10 10:56
PAMO 101056Z AUTO 14014KT 4SM RA BR OVC003 09/09 A2941 RMK AO2 TSNO T00940094 CIG 001V005 P0005 SLP956 $

2010/08/10 10:56
PAOO 101056Z AUTO 18012KT 10SM OVC007 09/09 A2937 RMK AO2 TSNO T00940088 CIG 005V011 SLP946 $

2010/08/10 10:56
PAPM 101056Z AUTO 17018KT 2SM BR BKN008 BKN012 OVC090 09/08 A2951 RMK AO2 TSNO T00940083 BKN V SCT RAE32 P0001 SLP993 $

2010/08/10 10:56
PARS 101056Z AUTO 17008KT 5SM -RA BR BKN010 OVC014 10/09 A2948 RMK AO2 TSNO T01000094 RAB07 P0000 SLP987 $

2010/08/10 10:56
PARY 101056Z AUTO 00000KT 10SM OVC060 12/09 A2962 RMK AO2 PWINO TSNO T01160094 SLP032

2010/08/10 10:56
PATQ 101056Z AUTO 07015KT 7SM OVC005 02/01 A2979 RMK AO2 TSNO T00160011 RAE14B34E53 P0000 SLP092 $

2010/08/10 10:56
PAMB 101056Z AUTO 19008KT 3SM BR OVC003 09/09 A2958 RMK AO2 PWINO TSNO T00940094 SLP018 $

2010/08/10 10:56
PAOH 101056Z AUTO 00000KT 6SM BR OVC026 13/13 A3001 RMK AO2 TSNO T01270127 SLP163 $

2010/08/10 10:56
PPIZ 101056Z AUTO 06017G23KT 10SM CLR 04/03 A2967 RMK AO2 TSNO T00440027 PK WND 06027/1028 SLP051 $

2010/08/10 10:56
KIWA 101056Z AUTO 10005KT 10SM SCT120 31/11 A2985 RMK AO2

2010/08/10 10:54
KSBN 101054Z 00000KT 7SM SCT032 23/21 A2998 RMK AO2 SLP147 T02280206

2010/08/10 10:54
KWAL 101054Z AUTO 28005KT 6SM BR CLR 25/23 A2997 RMK AO2 SLP144 T02500228 TSNO

2010/08/10 10:55
KINL 101055Z AUTO 00000KT 10SM FEW090 17/17 A2994 RMK AO2 VIS 3/4 RWY 31 SLP135 T01670167 $

2010/08/10 10:53
KNUI 101053Z AUTO 24005KT 10SM CLR 26/22 A2995 RMK AO2 SLP141 T02560217

2010/08/10 10:56
KALK 101056Z AUTO 26005KT 10SM CLR 18/14 A3011 RMK AO2 SLP101 T01830144 $

2010/08/10 10:56
KSMP 101056Z AUTO VRB04KT 1/4SM FG BKN002 OVC007 08/08 A2995 RMK AO2 SLP139 T00780078 TSNO PNO $

2010/08/10 10:53
KLND 101053Z AUTO 23006KT 10SM CLR 14/03 A3007 RMK AO2 SLP112 T01390033

2010/08/10 10:52
KMLF 101052Z AUTO 17006KT 10SM CLR 10/02 A3007 RMK AO2 SLP125 T01000017 TSNO

2010/08/10 10:51
KP58 101051Z AUTO 00000KT 22/22 A2995 RMK AO2 SLP135 T02170217 PWINO TSNO

2010/08/10 10:54
KAPN 101054Z AUTO 00000KT 1/4SM FG VV001 21/20 A2998 RMK AO2 SLP149 T02060200 $

2010/08/10 10:53
KUIL 101053Z AUTO 00000KT 1 3/4SM BR OVC001 12/12 A2995 RMK AO2 SLP142 P0001 T01220117 TSNO

2010/08/10 10:52
KGLW 101052Z AUTO 00000KT 3SM BR CLR 24/23 A2998 RMK AO2 T02360228

2010/08/10 10:55
KGUL 101055Z AUTO 10SM CLR 29/25 A2991 RMK A01

2010/08/10 10:54
KGYL 101054Z AUTO 11005KT 7SM CLR 22/20 A2992 RMK AO2 T02160202

2010/08/10 10:52
KHCD 101052Z AUTO 12005KT 7SM CLR 22/21 A2992 RMK AO2 T02210210

2010/08/10 10:54
KHCO 101054Z AUTO 16009KT 10SM CLR 20/20 A2991 RMK AO2

2010/08/10 10:50
KHQI 101050Z AUTO 23004KT 10SM 30/25 A2991 RMK A01

2010/08/10 10:51
KHZX 101051Z AUTO 00000KT 10SM CLR 16/16 A2999 RMK AO2

2010/08/10 10:55
KIPN 101055Z AUTO VRB04KT 10SM BKN050 OVC065 30/25 A2989 RMK A01

2010/08/10 10:55
KISO 101055Z 00000KT 3SM BR SCT004 23/23 A3002

2010/08/10 10:56
KIWA 101056Z AUTO 10005KT 10SM SCT120 31/11 A2985 RMK AO2

2010/08/10 10:54
KJKJ 101054Z AUTO 14004KT 10SM CLR 22/21 A2988 RMK AO2

2010/08/10 10:54
KJMR 101054Z AUTO 00000KT 2 1/2SM BR CLR 18/18 A2999 RMK AO2 VIS 3/4V5

2010/08/10 10:52
KLJF 101052Z AUTO 13004KT 5SM BR CLR 21/21 A2993 RMK AO2

2010/08/10 10:53
KLVN 101053Z AUTO 14003KT 3/4SM BR BKN001 BKN029 19/19 A2995 RMK AO2

2010/08/10 10:53
KLXL 101053Z AUTO 00000KT 7SM CLR 19/18 A2993 RMK AO2

2010/08/10 10:56
KM89 101056Z AUTO 00000KT 6SM BR CLR 26/24 A2992 RMK AO2 T02550244 SLP145 $

2010/08/10 10:55
KMDJ 101055Z AUTO 02005KT 10SM CLR 29/25 A2993 RMK A01

2010/08/10 10:55
KMGG 101055Z AUTO 11003KT 7SM CLR 22/22 A2995 RMK AO2 T02230219

2010/08/10 10:55
KMIU 101055Z AUTO 21011KT 10SM CLR 30/27 A2987 RMK A01

2010/08/10 10:52
KMJQ 101052Z AUTO 13015KT 10SM VCTSRA SCT004 SCT014 BKN025 21/20 A2989 RMK AO2 P0001

2010/08/10 10:48
KMOX 101048Z AUTO 11005KT 5SM BR CLR 22/22 A2987 RMK AO2

2010/08/10 10:54
KMVE 101054Z AUTO 16006KT 7SM SCT036 OVC050 23/23 A2989 RMK AO2 LTG DSNT S AND SW

2010/08/10 10:53
KMWM 101053Z AUTO 12007KT 7SM -RA SCT007 SCT080 24/23 A2990 RMK AO2 LTG DSNT ALQDS

2010/08/10 10:55
KMWO 101055Z AUTO 00000KT 2 1/2SM BR CLR 22/21 A2998 RMK AO2

2010/08/10 10:55
KMZG 101055Z AUTO 00000KT 10SM FEW034 FEW055 BKN075 29/26 A2988 RMK A01

2010/08/10 10:50
KMZH 101050Z AUTO 00000KT 1/2SM FG OVC001 17/16 A2997 RMK AO2

2010/08/10 10:51
KONA 101051Z AUTO 00000KT 1/2SM FG OVC001 23/22 A2996 RMK AO2

2010/08/10 10:54
KONZ 101054Z AUTO 00000KT 1 1/4SM BR VV007 22/21 A2996 RMK AO2

2010/08/10 10:54
KORB 101054Z AUTO 00000KT 4SM BR CLR 19/17 A2996 RMK AO2

2010/08/10 10:53
KOVL 101053Z AUTO 13007KT 10SM OVC085 22/20 A2991 RMK AO2 LTG DSNT SW T02230201

2010/08/10 10:54
KOWA 101054Z AUTO 12005KT 10SM CLR 23/22 A2994 RMK AO2 LTG DSNT S

2010/08/10 10:45
KOXC 101045Z 00000KT 3SM -RA BR OVC090 21/19 A2999

2010/08/10 10:53
KPEX 101053Z AUTO 12007KT 7SM CLR 23/22 A2993 RMK AO2 T02310216

2010/08/10 10:53
KPNM 101053Z AUTO 00000KT 10SM CLR 20/19 A2996 RMK AO2

2010/08/10 10:53
KPQN 101053Z AUTO 22017KT 7SM +TSRA SCT008 BKN014 OVC024 21/20 A2996 RMK AO2 P0025 LTG DSNT ALQDS

2010/08/10 10:52
KPVB 101052Z AUTO 10005KT 7SM SCT042 BKN070 24/23 A2999 RMK AO1 T02380226

2010/08/10 10:53
KPWC 101053Z AUTO 00000KT 3/4SM BR OVC001 17/16 A2998 RMK AO2

2010/08/10 10:54
KROX 101054Z AUTO 00000KT 10SM CLR 19/17 A2991 RMK AO2

2010/08/10 10:54
KRRT 101054Z AUTO 23004KT 10SM CLR 21/19 A2991 RMK AO2 TSNO

2010/08/10 10:53
KRZN 101053Z AUTO 00000KT 5SM BR CLR 19/18 A2998 RMK AO2 T01920184

2010/08/10 10:53
KSAZ 101053Z AUTO 00000KT 10SM CLR 20/20 A2995 RMK AO2

2010/08/10 10:53
KSGS 101053Z AUTO 00000KT 10SM CLR 23/21 A2995 RMK AO2 T02320210

2010/08/10 10:55
KSPR 101055Z AUTO VRB03KT 10SM FEW019 SCT029 30/26 A2990 RMK A01

2010/08/10 10:55
KSRR 101055Z AUTO 27009KT 10SM CLR 16/09 A3025 RMK AO2

2010/08/10 10:53
KTEW 101053Z AUTO 00000KT M1/4SM FG OVC001 18/17 A2999 RMK AO2

2010/08/10 10:55
KTOB 101055Z AUTO 12005KT 4SM BR CLR 22/21 A2997 RMK AO2

2010/08/10 10:53
KTWM 101053Z AUTO 00000KT 5SM HZ CLR 17/14 A2996 RMK AO2

2010/08/10 10:54
KUNI 101054Z AUTO 00000KT 5SM HZ SCT110 23/18 A2998 RMK AO2

2010/08/10 10:55
KVAF 101055Z AUTO 22004KT 10SM CLR 30/25 A2987 RMK A01

2010/08/10 10:55
KVBS 101055Z AUTO 30006KT 10SM SCT023 BKN028 30/25 A2991 RMK A01

2010/08/10 10:53
KVES 101053Z AUTO 00000KT 2SM BR CLR 21/20 A2999 RMK AO2 T02070203

2010/08/10 10:56
KVVV 101056Z AUTO 12005KT 10SM SCT037 SCT060 BKN080 23/22 A2989 RMK AO2

2010/08/10 10:56
K2WX 101056Z AUTO 36004KT 18/13 A2978 RMK AO1 SLP057 T01830133

2010/08/10 10:56
KFSD 101056Z 00000KT 10SM -TSRA BKN037 OVC100CB 21/19 A2993 RMK AO2 PK WND 27035/1006 SLP126 CONS LTGICCGCC NE-S TS NE-S MOV NE P0044 T02110194 $

2010/08/10 10:56
KFLG 101056Z AUTO 00000KT 10SM FEW070 08/07 A3027 RMK AO2 SLP163 T00830072 TSNO

2010/08/10 10:56
KSXT 101056Z AUTO 01009KT 8SM CLR 11/08 A2997 RMK AO2 SLP112 T01060078 TSNO

2010/08/10 10:56
KLWS 101056Z AUTO 12005KT 10SM CLR 17/08 A2982 RMK AO2 SLP089 T01720083

2010/08/10 10:56
KP53 101056Z AUTO 18007KT 17/17 A2996 RMK AO2 SLP145 T01720167 PWINO TSNO

2010/08/10 10:56
KD07 101056Z AUTO 17008KT 21/16 A2982 RMK AO2 SLP079 T02060156 PWINO TSNO

2010/08/10 10:56
KSPD 101056Z AUTO 32003KT 19/16 A3004 RMK AO2 SLP103 T01940161 PWINO TSNO

2010/08/10 10:56
KALK 101056Z AUTO 26005KT 10SM CLR 18/14 A3011 RMK AO2 SLP101 T01830144 $

2010/08/10 10:56
KABQ 101056Z 33005KT 10SM SCT120 21/09 A3015 RMK AO2 SLP112 T02110089

2010/08/10 10:56
KJAX 101056Z 11006KT 10SM FEW020 SCT150 SCT250 26/23 A2995 RMK AO2 SLP141 T02610228

2010/08/10 10:53
K29G 101053Z AUTO 00000KT 7SM CLR 21/19 A2998 RMK AO2 T02110188 PWINO

2010/08/10 10:56
KCAE 101056Z 00000KT 1/2SM FG OVC002 24/23 A3002 RMK AO2 SLP162 T02390233 RVRNO

2010/08/10 10:56
KCHS 101056Z 00000KT 10SM FEW025 26/25 A3002 RMK AO2 SLP164 T02560250

2010/08/10 10:55
KCLI 101055Z AUTO 00000KT 5SM BR CLR 19/17 A2998 RMK AO2

2010/08/10 10:56
TJSJ 101056Z 13004KT 10SM FEW022 SCT045 SCT070 27/24 A2996 RMK AO2 SLP143 T02720239

2010/08/10 10:56
K8D3 101056Z AUTO 09004KT 21/21 A2987 RMK AO2 SLP093 T02110206 PWINO TSNO

2010/08/10 10:54
KIKW 101054Z AUTO 00000KT 1/2SM FG BKN010 19/18 A2998 RMK AO2 T01930183

2010/08/10 10:57
KLYV 101057Z AUTO 27017G34KT 1SM +TSRA BKN005 OVC011 21/20 A2999 RMK AO2 LTG DSNT ALQS P0013

2010/08/10 10:53
KMWT 101053Z AUTO 00000KT 10SM CLR 23/23 A2993 RMK AO2 SLP120 T02330228 TSNO

2010/08/10 10:54
KRFD 101054Z 00000KT 10SM OVC180 23/22 A2997 RMK AO2 SLP143 T02330217 $

2010/08/10 10:54
KROA 101054Z 34003KT 7SM CLR 24/21 A3005 RMK AO2 SLP162 T02390206

2010/08/10 10:54
KROS 101054Z AUTO 00000KT 1 3/4SM BR VV007 18/17 A2996 RMK AO2 T01800174

2010/08/10 10:55
KSCF 101055Z AUTO 05008KT 10SM CLR 29/25 A2986 RMK A01

2010/08/10 10:56
KSHV 101056Z 00000KT 10SM SCT290 26/23 A2991 RMK AO2 SLP125 T02610228

2010/08/10 10:55
KSYN 101055Z AUTO 00000KT 1/2SM FG VV005 19/18 A2994 RMK AO2 T01920182

2010/08/10 10:53
KTKC 101053Z AUTO 00000KT 7SM BKN007 23/22 A2989 RMK AO2 LTG DSNT SE THRU W T02290220

2010/08/10 10:55
KCAO 101055Z AUTO 25007KT 10SM BKN100 21/15 A3008 RMK AO2 SLP109 T02110150 TSNO

2010/08/10 10:56
KWMC 101056Z AUTO 00000KT 10SM CLR 11/M01 A2996 RMK AO2 SLP099 T01061006

2010/08/10 10:50
KHMS 101050Z 25008KT 15SM SKC 17/07 A2982 RMK SLP096 T01700072 RSNK 13.2/33005KT

2010/08/10 10:50
K3A6 101050Z AUTO 36001KT 13/09 A2989 RMK AO1 SLP137 T01280088

2010/08/10 10:55
PATC 101055Z AUTO 03011KT 1/2SM BKN070 BKN090 10/09 A2944 RMK AO1 T01000095

2010/08/10 11:00
OPKC 101100Z 24011KT 7000 FEW020 SCT030 32/25 Q1001 TEMPO 2000 TSRA FEW025CB

2010/08/10 11:00
OPPS 101100Z 27008KT 4000 TS SCT008ST FEW030CB SCT030 OVC100 30/23 Q1002.1

2010/08/10 10:50
LGPZ 101050Z 26010KT 9999 FEW025 30/23 Q1011 NOSIG

2010/08/10 10:50
LGRX 101050Z 28008KT 9999 FEW025 31/22 Q1009 NOSIG BLU

2010/08/10 10:50
LGRX 101050Z 28008KT 9999 FEW025 31/22 Q1009 NOSIG

2010/08/10 10:50
LGAL 101050Z 14004KT CAVOK 32/16 Q1010

2010/08/10 10:50
LGEL 101050Z 34013KT 9999 FEW030 35/18 Q1009

2010/08/10 10:50
LGKV 101050Z 23006KT 9999 FEW035 34/18 Q1010

2010/08/10 10:50
LGMT 101050Z /////KT CAVOK 34/22 Q1008

2010/08/10 10:50
LGSR 101050Z 34018KT CAVOK 32/21 Q1007 NOSIG BLU

2010/08/10 10:50
LGSR 101050Z 34018KT CAVOK 32/21 Q1007 NOSIG

2010/08/10 10:55
EHKD 101055Z AUTO 20016KT 9999NDV SCT014/// BKN018/// OVC024/// 19/15 Q1011 GRN WHT TEMPO GRN TEMPO SCT012 SCT015CB BKN020

2010/08/10 10:55
KINL 101055Z AUTO 00000KT 10SM FEW090 17/17 A2994 RMK AO2 VIS 3/4 RWY 31 SLP135 T01670167 $ 

2010/08/10 10:50
EGPB 101050Z VRB02KT 9999 3400S VCFG FEW002 BKN004 13/12 Q1005 TEMPO BKN006

2010/08/10 10:50
EGBJ 101050Z 22007KT 9000 -SHRA FEW010 SCT020 16/13 Q1009

2010/08/10 10:50
EGTC 101050Z 24009KT 9999 SCT016 16/12 Q1009

2010/08/10 11:00
LZKC 101100Z 31004KT 250V070 9999 BKN036 25/17 Q1017

2010/08/10 11:00
LZLU 101100Z VRB02KT 9999 FEW040 24/14 Q1018

2010/08/10 11:00
LZNI 101100Z 30005KT 080V340 9999 SCT045 25/14 Q1017

2010/08/10 11:00
LZPE 101100Z 22005KT 150V280 9999 SCT050 26/15 Q1018

2010/08/10 10:53
KRYT 101053Z AUTO 23003KT 10SM CLR 23/19 A2997 RMK AO2 SLP131 T02330194 $ 

2010/08/10 10:47
KLBE 101047Z 21003KT 6SM BR FEW110 SCT200 19/18 A3001

2010/08/10 10:59
CYUA 101059Z AUTO 27010KT 8SM -RA BKN001 BKN051 BKN064 11/ A2966

2010/08/10 10:50
EGAE 101050Z 30011KT 9999 -SHRA FEW015 SCT027 BKN040 15/11 Q1005

2010/08/10 10:50
EGNC 101050Z 22012G22KT 9999 VCSH FEW016 BKN025 14/11 Q1004

2010/08/10 10:50
EGNH 101050Z 23017KT 9999 SCT027 17/11 Q1007

2010/08/10 10:50
EGNJ 101050Z 24018KT 9999 SCT045 20/08 Q1007

2010/08/10 10:50
EGNR 101050Z 24012KT 210V280 9999 FEW020 BKN028 19/10 Q1008

2010/08/10 10:50
EGPE 101050Z 09007KT 9999 FEW015 SCT035TCU 15/10 Q1004

2010/08/10 10:50
EGPI 101050Z 29013KT 9999 SCT025 15/11 Q1004

2010/08/10 10:50
EGPN 101050Z 24001KT 9999 FEW018CB SCT022 BKN048 16/11 Q1004

2010/08/10 10:50
EGPA 101050Z 02005KT 9999 FEW012CB SCT020 16/12 Q1004

2010/08/10 10:50
EGPC 101050Z 11007KT 9999 VCSH FEW018CB 16/13 Q1004

2010/08/10 10:50
EGPL 101050Z 36008KT 320V020 9999 FEW018 SCT024 17/11 Q1005

2010/08/10 10:50
EGPO 101050Z 05005KT 9999 VCSH FEW018 16/13 Q1005

2010/08/10 10:50
EGPU 101050Z 04013KT 9999 FEW018TCU SCT019 15/11 Q1004

2010/08/10 10:50
EGVN 101050Z 24007KT 9999 -RA SCT014 SCT050 BKN080 16/12 Q1010 NOSIG

2010/08/10 11:00
UBBB 101100Z 08008KT 9999 SCT060CB BKN100 34/23 Q1010 NOSIG RMK R88CLRD70

2010/08/10 10:55
EHAK 101055Z AUTO 19015KT 3400NDV SHRA +DZ FEW004/// SCT014/// BKN021/// 16/15 Q1007 RERADZ

2010/08/10 10:55
EHDV 101055Z AUTO 24015KT 200V290 9999NDV FEW007/// SCT040/// 16/14 Q1007

2010/08/10 10:55
EHFD 101055Z AUTO 18022KT 9999NDV FEW007/// SCT009/// BKN011/// 18/16 Q1009

2010/08/10 10:55
EHFZ 101055Z AUTO 20033KT 6000NDV -RA FEW003/// SCT004/// BKN005/// 17/16 Q1008 REDZRA

2010/08/10 10:55
EHJA 101055Z AUTO 22015KT 9999NDV -RA FEW004/// SCT017/// BKN034/// 15/13 Q1008

2010/08/10 10:55
EHKV 101055Z AUTO 24020KT 9999NDV FEW006/// SCT009/// BKN013/// 16/14 Q1009

2010/08/10 10:55
EHPG 101055Z AUTO 20023KT 160V250 9999NDV FEW008/// BKN012/// OVC015/// 18/16 Q1010

2010/08/10 10:55
EHQE 101055Z AUTO 21024KT 9999NDV SCT000/// OVC018/// 18/15 Q1010

2010/08/10 11:00
OPKC 101100Z 24011KT 7000 FEW020 SCT030 32/25 Q1001 TEMPO 2000 TSRA FEW025CB

2010/08/10 10:55
OPLA 101055Z 21006KT 4000 FU SCT040 BKN100 32/27 Q1002 TEMPO 33030KT 2500 TSRA FEW030CB

2010/08/10 11:00
OPPS 101100Z 27008KT 4000 TS SCT008ST FEW030CB SCT030 OVC100 30/23 Q1002.1

2010/08/10 10:59
YBCG 101059Z AUTO 05014KT 6000NDV // SCT008 BKN039 OVC058 20/19 Q1017

2010/08/10 10:50
EKSN 101050Z 21008KT 9999 SCT032 22/10 Q1013

2010/08/10 11:00
FOOL 101100Z 16007KT 9999 SCT011 BKN033 28/22 Q1015 NOSIG

2010/08/10 10:56
KNGP 101056Z 20003KT 10SM FEW015 28/25 A2987 RMK AO2 SLP114 T02820250 $

2010/08/10 10:55
KNKX 101055Z 00000KT 10SM OVC010 17/14 A2990 RMK AO2 SLP119 T01720139

2010/08/10 10:56
KNLC 101056Z AUTO 32007KT 10SM CLR 19/12 A2981 RMK AO2 SLP092 T01940122 TSNO

2010/08/10 10:56
KNMM 101056Z 00000KT 6SM BR FEW250 24/23 A2996 RMK AO2 SLP152 T02440228 $

2010/08/10 10:56
KNTD 101056Z AUTO 00000KT 9SM OVC007 15/13 A2990 RMK AO2 SLP125 T01500133 TSNO $

2010/08/10 10:56
KNTU 101056Z 24005KT 10SM FEW050 SCT200 24/23 A2997 RMK AO2 SLP152 T02440233 $

2010/08/10 10:56
KNUW 101056Z 00000KT 6SM BR FEW004 BKN008 OVC040 13/11 A2995 RMK AO2 SLP146 T01320111 $

2010/08/10 10:56
KNXX 101056Z 00000KT 8SM BKN150 BKN200 24/20 A2995 RMK AO2 SLP147 T02440200 $

2010/08/10 10:56
KNYG 101056Z 00000KT 7SM CLR 24/21 A2996 RMK AO2 SLP145 T02440206 $

2010/08/10 10:52
KNZY 101052Z 00000KT 10SM OVC013 19/13 A2989 RMK AO2 SLP122 T01940133 $

2010/08/10 10:55
KPOE 101055Z AUTO 00000KT 10SM FEW050 BKN070 25/23 A2994 RMK AO2 SLP139 T02500233

2010/08/10 10:55
KPSM 101055Z COR 31006KT 4SM BR SCT140 21/21 A2988 RMK AO2A SLP121 T02120205 COR 1100

2010/08/10 10:55
KRCA 101055Z VRB03KT 10SM OVC110 20/17 A2984 RMK AO2A SLP081 T02040167 $

2010/08/10 10:56
KSGH 101056Z AUTO 00000KT 4SM BR CLR 21/21 A3000 RMK AO2 T02050205 SLP150 $

2010/08/10 10:55
KVBG 101055Z AUTO 13003KT 10SM OVC001 12/11 A2991 RMK AO2 SLP118 T01170111 TSNO CHINO RWY12 VISNO RWY12 $

2010/08/10 11:00
SBBR 101100Z 35002KT CAVOK 16/06 Q1025

2010/08/10 10:56
K79J 101056Z AUTO 00000KT 8SM CLR 24/21 A2996 RMK AO2 SLP140 T02440211 TSNO PNO $

2010/08/10 10:55
KDMA 101055Z AUTO 16006KT 10SM CLR 24/17 A2995 RMK AO2 SLP071 T02430169 VISNO RWY12 CHINO RWY12 $

2010/08/10 10:56
KHLR 101056Z AUTO 18004KT 10SM CLR 27/23 A2993 RMK AO2 SLP126 T02670228 $

2010/08/10 10:55
KHOP 101055Z AUTO 00000KT 10SM CLR 25/25 A2997 RMK AO2 SLP144 T02540247

2010/08/10 10:55
KMXF 101055Z AUTO 00000KT 9SM FEW070 25/24 A2997 RMK AO2 SLP146 T02510236

2010/08/10 10:56
KNGP 101056Z 20003KT 10SM FEW015 28/25 A2987 RMK AO2 SLP114 T02820250 $

2010/08/10 10:56
KNID 101056Z AUTO 19007KT CLR 19/01 A2985 RMK AO2 SLP086 T01940011 TSNO $

2010/08/10 10:56
KNMM 101056Z 00000KT 6SM BR FEW250 24/23 A2996 RMK AO2 SLP152 T02440228 $

2010/08/10 10:56
KNPA 101056Z 01007KT 8SM SCT280 26/24 A2992 RMK AO2 SLP132 T02610239

2010/08/10 10:56
KNQI 101056Z AUTO 00000KT 5SM BR CLR 27/24 A2987 RMK AO2 SLP112 T02670244 $

2010/08/10 10:56
KNUW 101056Z 00000KT 6SM BR FEW004 BKN008 OVC040 13/11 A2995 RMK AO2 SLP146 T01320111 $

2010/08/10 10:56
KNXP 101056Z AUTO 32004KT CLR 22/M01 A2992 RMK AO2 SLP094 T02171006 $

2010/08/10 10:55
KSVN 101055Z 25002KT 8SM FEW010 FEW030 FEW250 27/25 A2999 RMK SLP157 WND DATA ESTMD ALSTG/SLP ESTMD

2010/08/10 11:00
MYNN 101100Z 17007KT 9999 SCT020 SCT050 OVC080 27/26 A2993

2010/08/10 10:56
PHBK 101056Z AUTO 07004KT 10SM CLR 23/14 A3008 RMK AO2 SLP188 T02330144 TSNO $

2010/08/10 11:00
TKPK 101100Z 09007KT 9999 SCT015 28/25 Q1014

2010/08/10 11:00
TKPN 101100Z 12009KT 9999 SCT017 29/25 Q1013

2010/08/10 11:00
MYGF 101100Z 14010KT 9999 BKN018 SCT100 27/24 A2994  

2010/08/10 11:00
HRYR 101100Z 21007KT 9999 SCT030 27/12 Q1020 NOSIG

2010/08/10 11:00
HRZA 101100Z 05006KT 9999 SCT023 26/11 Q1022 NOSIG

2010/08/10 11:00
HRYG 101100Z 21006KT 8000 FEW023CB SCT100 24/12 Q1021 NOSIG

2010/08/10 11:00
SBKP 101100Z 12009KT 7000 NSC 14/11 Q1025

2010/08/10 11:00
TLPL 101100Z 15008KT 9999 FEW010 SCT024 28/25 Q1014

2010/08/10 11:00
YMAV 101100Z AUTO 35007KT 4000NDV // SCT014 07/07 Q1009

2010/08/10 10:55
CWSA 101055Z AUTO 22006KT 6SM SCT010 19/18 A2988

2010/08/10 10:58
CYSF 101058Z AUTO 09002KT 1 3/4SM BR BKN009 OVC016 14/14 A2989 RMK SLP132 DENSITY ALT 900FT

2010/08/10 10:58
CYTZ 101058Z AUTO 26003KT 3SM BKN027 21/20 A2993 RMK SLP136 DENSITY ALT 900FT RVR MISG

2010/08/10 10:56
CYYN 101056Z AUTO 03006KT 020V080 9SM -RA OVC014 OVC093 16/15 A2983

2010/08/10 10:57
CYYN 101057Z AUTO 03007KT 020V080 6SM +RA VV005 16/15 A2983

2010/08/10 10:59
EHVL 101059Z AUTO 20019KT 9999NDV FEW011 SCT017 BKN022 19/16 Q1010 WHT

2010/08/10 10:58
KCEF 101058Z 00000KT 3/4SM R23/1600V5500FT BR FEW004 SCT080 BKN150 21/21 A2993 RMK AO2A SLP135 $

2010/08/10 11:00
SBAR 101100Z 12009KT 9999 SCT017 26/21 Q1019

2010/08/10 11:00
SBBR 101100Z 35002KT CAVOK 16/06 Q1025

2010/08/10 11:00
SBCB 101100Z 18003KT 9000 SCT030 BKN070 20/16 Q1024

2010/08/10 11:00
SBCR 101100Z 20003KT CAVOK 15/11 Q1018

2010/08/10 11:00
SBFI 101100Z 29002KT 8000 FEW006 SCT100 11/10 Q1021

2010/08/10 11:00
SBFL 101100Z 18005KT 9999 BKN030 15/11 Q1027

2010/08/10 11:00
SBGL 101100Z 35004KT 9000 SCT008 BKN018 20/17 Q1025

2010/08/10 11:00
SBMO 101100Z 15004KT 9999 SCT020 24/19 Q1019

2010/08/10 11:00
SBSL 101100Z 08006KT 9999 FEW017 28/24 Q1014

2010/08/10 11:00
SGAS 101100Z 17004KT 9000 NSC 11/09 Q1021

2010/08/10 11:00
SGES 101100Z 17006KT 8000 NSC 12/11 Q1020

2010/08/10 11:00
SVBC 101100Z 00000KT 9999 SCT010 SCT060 25/21 Q1013

2010/08/10 11:00
SVMI 101100Z 00000KT 9999 FEW016 BKN300 28/24 Q1011 NOSIG

2010/08/10 10:58
KHST 101058Z AUTO 20004KT 8SM -RA FEW015 SCT032 BKN065 25/24 A2988 RMK AO2 RAB1058 CIG 048 RWY23 SLP119

2010/08/10 10:58
KCEF 101058Z 00000KT 3/4SM R23/1600V5500FT BR FEW004 SCT080 BKN150 21/21 A2993 RMK AO2A SLP135 $

2010/08/10 10:58
KHST 101058Z AUTO 20004KT 8SM -RA FEW015 SCT032 BKN065 25/24 A2988 RMK AO2 RAB1058 CIG 048 RWY23 SLP119

2010/08/10 10:57
KMMT 101057Z AUTO 00000KT 7SM SCT003 BKN016 BKN025 24/24 A3002 RMK AO2 SLP164

2010/08/10 10:57
KMTC 101057Z 00000KT 1 1/4SM BR CLR 20/20 A2995 RMK VIS NE 2 S 1

2010/08/10 11:00
YMAV 101100Z AUTO 35007KT 4000NDV // SCT014 07/07 Q1009

2010/08/10 11:00
OYHD 101100Z 36006KT 6000 TS SCT029CB SCT059 35/31 Q1002

2010/08/10 11:00
OYAT 101100Z 15014KT 9999 FEW030 37/13 Q1001

2010/08/10 10:50
ENBS 101050Z 03005KT 9999 BKN036 12/07 Q1012

2010/08/10 10:50
ENOV 101050Z VRB02KT 9999 SCT012 BKN018 16/13 Q1010 

2010/08/10 11:00
UTTT 101100Z 34002MPS 270V360 CAVOK 38/01 Q1007 R08R/CLRD70 NOSIG

2010/08/10 10:50
ENBL 101050Z 22005KT 9999 FEW035 SCT050 17/10 Q1009

2010/08/10 11:00
OEDF 101100Z 12008KT 6000 SKC 44/14 Q0998 NOSIG

2010/08/10 11:00
OEDR 101100Z 13009KT 7000 SKC 41/16 Q0997 NOSIG

2010/08/10 11:00
OEJN 101100Z 28010KT CAVOK 36/25 Q1001 NOSIG

2010/08/10 11:00
OEMA 101100Z 21005KT 8000 SKC 45/M02 Q1005 NOSIG

2010/08/10 11:00
OERK 101100Z 05008KT 8000 NSC 44/04 Q1004 NOSIG

2010/08/10 11:00
OERY 101100Z 03003KT 8000 SKC 44/04 Q1004 NOSIG

2010/08/10 10:55
EBFS 101055Z 24009KT 9999 FEW060 SCT130 BKN200 20/12 Q1015 BLU BLU

2010/08/10 10:50
EDHL 101050Z 16008KT 130V190 9999 SCT041 22/15 Q1014 RMK Q

2010/08/10 10:50
EDLN 101050Z 18005KT 110V260 CAVOK 26/16 Q1013 RMK ATIS M

2010/08/10 10:50
EDLP 101050Z 22008KT CAVOK 24/10 Q1015 RMK RWY24 TRL60 HS ATIS R

2010/08/10 10:50
EDLW 101050Z 21011KT 180V250 CAVOK 25/12 Q1014 RMK ATIS P

2010/08/10 10:50
EDNY 101050Z VRB03KT 9999 SCT055 23/13 Q1018 RMK ATIS N

2010/08/10 10:50
EDXW 101050Z 16016KT CAVOK 21/13 Q1012 RMK ATIS INFO J

2010/08/10 10:50
EGBJ 101050Z 22007KT 9000 -SHRA FEW010 SCT020 16/13 Q1009

2010/08/10 10:50
EGPA 101050Z 02005KT 9999 FEW012CB SCT020 16/12 Q1004

2010/08/10 10:50
EGPC 101050Z 11007KT 9999 VCSH FEW018CB 16/13 Q1004

2010/08/10 10:50
EGPL 101050Z 36008KT 320V020 9999 FEW018 SCT024 17/11 Q1005

2010/08/10 10:50
EGPO 101050Z 05005KT 9999 VCSH FEW018 16/13 Q1005

2010/08/10 10:50
EGPU 101050Z 04013KT 9999 FEW018TCU SCT019 15/11 Q1004

2010/08/10 10:50
EGTC 101050Z 24009KT 9999 SCT016 16/12 Q1009

2010/08/10 10:55
EGVA 101055Z AUTO 23011KT 9999 -RA BKN014 16/13 A2982 RMK AO2 RAE1000B1051DZB1042E1051 CIG 013V018 SLP099 P0000 T01570133 $

2010/08/10 10:50
EGVN 101050Z 24007KT 9999 -RA SCT014 SCT050 BKN080 16/12 Q1010 NOSIG

2010/08/10 10:55
EHKD 101055Z AUTO 20016KT 9999NDV SCT014/// BKN018/// OVC024/// 19/15 Q1011 GRN WHT TEMPO GRN TEMPO SCT012 SCT015CB BKN020

2010/08/10 10:50
LGLR 101050Z 00000KT 9999 FEW035 35/16 Q1011 NOSIG BLU

2010/08/10 10:50
LGPZ 101050Z 26010KT 9999 FEW025 30/23 Q1011 NOSIG BLU

2010/08/10 10:50
LGSY 101050Z 33012KT 9999 FEW020 31/21 Q1009 NOSIG BLU

2010/08/10 10:50
LGTG 101050Z 35007KT 9999 FEW025 32/18 Q1011 NOSIG BLU

2010/08/10 10:50
LOXT 101050Z VRB03KT 50KM FEW045CU 26/14 Q1018 NOSIG RMK SCT

2010/08/10 11:00
LQBK 101100Z 05004KT 9999 FEW033 27/17 Q1017 NOSIG

2010/08/10 10:56
KBIH 101056Z AUTO 33004KT 10SM CLR 12/M06 A2996 RMK AO2 SLP097 T01221056 TSNO 

2010/08/10 11:00
GQNN 101100Z 28007KT 240V320 8000 NSC 29/18 Q1013 NOSIG

2010/08/10 11:00
GOOY 101100Z 32006KT 260V350 9999 SCT013 SCT130 29/23 Q1013 NOSIG

2010/08/10 10:59
KNGU 101059Z 22003KT 10SM FEW060 26/23 A2999 RMK AO2 SLP156 T02560228 

2010/08/10 11:00
GOOY 101100Z 32006KT 260V350 9999 SCT013 SCT130 29/23 Q1013 NOSIG

2010/08/10 11:00
MBPV 101100Z 11006KT 9999 SCT015 27/25 A2994  

2010/08/10 10:55
TXKF 101055Z 19008KT 9999 FEW015 FEW180 27/23 Q1020  

2010/08/10 10:55
K4M9 101055Z AUTO 00000KT 7SM 25/25 A2993 RMK AO2

2010/08/10 10:55
KLNL 101055Z AUTO 00000KT 1/2SM FG OVC001 13/12 A3005 RMK AO2 T01270123

2010/08/10 10:55
KLUM 101055Z AUTO 00000KT 5SM BR CLR 18/18 A2998 RMK AO2

2010/08/10 10:55
KMAN 101055Z AUTO 13006KT 10SM CLR 16/12 A2983 RMK AO1

2010/08/10 10:55
KMCJ 101055Z AUTO 24003KT 10SM CLR 27/25 A2988 RMK AO1

2010/08/10 10:55
KMDZ 101055Z AUTO 00000KT 7SM CLR 17/16 A3002 RMK AO2

2010/08/10 10:58
KMEI 101058Z 00000KT 6SM BR CLR 23/23 A2997 RMK AO2 SLP142 T02330228

2010/08/10 10:55
KMRJ 101055Z AUTO 00000KT 2 1/2SM BR CLR 24/22 A2999 RMK AO2 T02350218

2010/08/10 10:55
KMWC 101055Z AUTO 21003KT 5SM BR CLR 19/18 A2999 RMK AO2

2010/08/10 10:55
KOEO 101055Z AUTO 12003KT 10SM CLR 21/19 A2998 RMK AO2

2010/08/10 10:55
KPBH 101055Z AUTO 00000KT 1/2SM FG VV005 17/16 A3003 RMK AO2 VIS 1/4V2

2010/08/10 10:55
KPCZ 101055Z AUTO 00000KT 4SM BR CLR 19/18 A2998 RMK AO2 T01920178

2010/08/10 10:52
KPDC 101052Z AUTO 10003KT 1 1/2SM BR OVC003 25/24 A2996 RMK AO2 T02450235

2010/08/10 10:55
KRCX 101055Z AUTO 00000KT 7SM CLR 18/17 A3002 RMK AO2 T01750166

2010/08/10 10:56
KRNH 101056Z AUTO 09003KT 10SM CLR 20/19 A2998 RMK AO2 T02000189

2010/08/10 10:55
KRPD 101055Z AUTO 00000KT 3/4SM BR BKN002 18/18 A3001 RMK AO2 VIS 1/4V5 T01830180

2010/08/10 10:55
KRRL 101055Z AUTO 00000KT 7SM CLR 14/14 A3003 RMK AO2 T01420138

2010/08/10 10:55
KRYV 101055Z AUTO 00000KT 2 1/2SM BR CLR 21/19 A2999 RMK AO2

2010/08/10 10:55
KSNC 101055Z AUTO 00000KT 6SM HZ SCT090 21/ A2995 RMK AO2

2010/08/10 10:55
KSTE 101055Z AUTO 00000KT 7SM CLR 18/17 A3001 RMK AO2

2010/08/10 10:56
KY50 101056Z AUTO 00000KT 6SM BR CLR 18/18 A2999 RMK AO2 T01830183 SLP146

2010/08/10 11:01
PADM 101101Z AUTO 16017G22KT 4SM -RA BR FEW003 OVC016 09/08 A2948 RMK AO2 TSNO T00940077 P0004 SLP972 $

2010/08/10 10:58
PADU 101058Z AUTO 22022G31KT 10SM FEW025 OVC044 12/07 A2970 RMK AO2 PK WND 20031/1049 SLP064 T01170067

2010/08/10 10:58
PAGA 101058Z AUTO 12007KT 10SM OVC110 13/11 A2958 RMK AO2 SLPNO T01330106

2010/08/10 10:56
PAJZ 101056Z AUTO 17007KT 10SM SCT003 BKN027 OVC035 09/09 A2967 RMK AO2 PWINO TSNO T00940094 SLP035 $

2010/08/10 10:56
PAKI 101056Z AUTO 19015KT 2SM +RA BR OVC006 09/09 A2941 RMK AO2 TSNO T00880088 OVC V BKN P0000 SLP959 $

2010/08/10 10:56
PALG 101056Z AUTO 00000KT 10SM -RA OVC037 11/09 A2950 RMK AO2 TSNO T01050094 RAB16 P0000 SLP994 $

2010/08/10 10:58
PATE 101058Z AUTO 07009KT 10SM -RA BKN060 OVC075 11/10 A2943 RMK AO2 RAB11 SLP977 P0000 T01110100

2010/08/10 10:56
K4I3 101056Z AUTO 28003KT 5SM BR CLR 22/20 A2999 RMK AO2

2010/08/10 10:55
KACB 101055Z AUTO 00000KT 1SM BR OVC014 22/22 A2998 RMK AO2

2010/08/10 10:58
KACQ 101058Z AUTO 09006KT 7SM SCT065 BKN085 22/21 A2995 RMK AO2 LTG DSNT S AND W

2010/08/10 10:57
KADC 101057Z AUTO 00000KT 3SM BR CLR 17/16 A2994 RMK AO2

2010/08/10 10:55
KAMN 101055Z AUTO 00000KT M1/4SM FG OVC003 17/17 A2998 RMK AO2

2010/08/10 10:55
KAUM 101055Z AUTO 00000KT 4SM BR BKN060 23/22 A2996 RMK AO2 LTG DSNT SW

2010/08/10 10:55
KAWG 101055Z AUTO 00000KT 10SM CLR 22/21 A2994 RMK AO2

2010/08/10 10:55
KAXA 101055Z AUTO 27007G21KT 10SM RA SCT011 SCT042 OVC060 23/22 A2993 RMK AO2 P0003

2010/08/10 11:05
KBAX 101105Z AUTO 35004KT M1/4SM FG OVC002 21/21 A2997 RMK AO2

2010/08/10 10:55
KBDH 101055Z AUTO 13007KT 7SM CLR 23/22 A2992 RMK AO2 LTG DSNT S

2010/08/10 10:55
KBNW 101055Z AUTO 08008KT 10SM -RA SCT009 OVC044 23/21 A2998 RMK AO2 P0015

2010/08/10 10:54
KCAD 101054Z AUTO 00000KT M1/4SM FG VV000 17/17 A3001 RMK AO2

2010/08/10 10:55
KCAV 101055Z AUTO 14006KT 10SM -RA SCT018 BKN028 BKN040 25/22 A2996 RMK AO2 P0006

2010/08/10 10:55
KCBF 101055Z AUTO 13004KT 10SM CLR 26/21 A2988 RMK AO2

2010/08/10 10:55
KCBG 101055Z AUTO 00000KT 10SM CLR 21/19 A2996 RMK AO2

2010/08/10 10:54
KCDA 101054Z AUTO 00000KT M1/4SM FG OVC002 15/13 A2998 RMK AO2

2010/08/10 11:03
KCFE 101103Z AUTO 07003KT 7SM CLR 22/21 A2995 RMK AO2 T02170210

2010/08/10 10:55
KCFS 101055Z AUTO 00000KT 1/2SM FG OVC001 21/20 A2996 RMK AO2

2010/08/10 10:55
KCKC 101055Z AUTO 00000KT 10SM CLR 14/12 A3002 RMK AO2

2010/08/10 10:55
KCKN 101055Z AUTO 12004KT 10SM CLR 21/19 A2991 RMK AO2

2010/08/10 10:54
KCNB 101054Z AUTO 00000KT 2 1/2SM BR OVC003 23/23 A2990 RMK AO2 LTG DSNT S AND SW T02310226

2010/08/10 10:55
KCNC 101055Z AUTO 00000KT 10SM BKN065 23/20 A2995 RMK AO2

2010/08/10 10:56
KCOQ 101056Z AUTO 00000KT 7SM CLR 18/16 A2998 RMK AO2

2010/08/10 10:57
KCQM 101057Z AUTO 00000KT 7SM CLR 16/16 A2998 RMK AO2

2010/08/10 10:55
KCSQ 101055Z AUTO 09008KT 10SM CLR 21/20 A2996 RMK AO2

2010/08/10 10:55
KCVX 101055Z AUTO 00000KT 2SM BR SCT005 BKN010 BKN013 22/20 A3000 RMK AO2

2010/08/10 10:55
KDEH 101055Z AUTO 00000KT 3 1/2SM CLR 24/22 A3000 RMK AO2

2010/08/10 10:55
KDNS 101055Z AUTO 10009KT 10SM BKN080 BKN110 25/20 A2994 RMK AO2

2010/08/10 10:57
KDRM 101057Z AUTO 00000KT M1/4SM FG OVC001 20/20 A2995 RMK AO2

2010/08/10 10:55
KDTL 101055Z AUTO 13005KT 10SM CLR 21/18 A2995 RMK AO2

2010/08/10 10:54
KDUH 101054Z AUTO 00000KT M1/4SM FG OVC001 21/19 A2998 RMK AO2

2010/08/10 10:57
KDVP 101057Z AUTO 20011KT VCTS 24/22 A2992 RMK AO2 LTG DSNT ALQS P0001 T02360223

2010/08/10 10:55
KEBS 101055Z AUTO 19014KT 10SM SCT085 BKN110 22/21 A2999 RMK AO2 P0002

2010/08/10 10:55
KEOK 101055Z AUTO 01004KT 10SM CLR 26/22 A2994 RMK AO2

2010/08/10 10:55
KERY 101055Z AUTO 00000KT M1/4SM FG OVC002 19/18 A2999 RMK AO2

2010/08/10 10:55
KFFL 101055Z AUTO 00000KT 10SM SCT110 21/21 A2994 RMK AO2

2010/08/10 10:55
KFFX 101055Z AUTO 00000KT M1/4SM FG OVC002 18/18 A2999 RMK AO2

2010/08/10 10:54
KFKS 101054Z AUTO 00000KT 4SM BR BKN001 18/17 A2998 RMK AO2

2010/08/10 10:56
KFPK 101056Z AUTO 00000KT M1/4SM FG OVC001 18/18 A2998 RMK AO2

2010/08/10 10:56
KFSD 101056Z 00000KT 10SM -TSRA BKN037 OVC100CB 21/19 A2993 RMK AO2 PK WND 27035/1006 SLP126 CONS LTGICCGCC NE-S TS NE-S MOV NE P0044 T02110194 $

2010/08/10 10:54
KFSE 101054Z AUTO 00000KT 10SM CLR 18/17 A2993 RMK AO2

2010/08/10 10:55
KFSW 101055Z AUTO 00000KT 10SM CLR 25/22 A2993 RMK AO2

2010/08/10 10:55
KFXY 101055Z AUTO 16006KT 4SM OVC003 25/23 A2994 RMK AO2

2010/08/10 10:55
KGGI 101055Z AUTO 32005KT 4SM RA BKN029 BKN049 OVC080 23/21 A2995 RMK AO2 P0012

2010/08/10 10:55
KGOV 101055Z AUTO 00000KT 4SM BR OVC009 21/21 A3001 RMK AO2

2010/08/10 10:55
KHAF 101055Z AUTO 19003KT 5SM BR OVC003 11/11 A2991 RMK AO2

2010/08/10 10:55
KHAI 101055Z AUTO 00000KT M1/4SM FG OVC001 20/20 A2999 RMK AO2

2010/08/10 10:55
KHNR 101055Z AUTO 10008G14KT 10SM SCT080 22/21 A2994 RMK AO2

2010/08/10 10:55
KHRT 101055Z 03004KT 10SM FEW250 CLR 25/24 A2991 RMK AO2A SLP132 T02480236 $

2010/08/10 10:55
KHUM 101055Z 31004KT 4SM BR OVC003 25/25 A2993

2010/08/10 10:54
KHYX 101054Z AUTO 30003KT 1 1/2SM BR VV007 20/19 A2997 RMK AO2

2010/08/10 10:55
KICL 101055Z AUTO 00000KT 10SM CLR 25/21 A2990 RMK AO2

2010/08/10 10:55
KIKV 101055Z AUTO 00000KT 10SM SCT070 BKN080 22/21 A2994 RMK AO2

2010/08/10 10:55
KIRS 101055Z AUTO 00000KT 1 1/4SM BR BKN001 21/20 A2999 RMK AO2

2010/08/10 10:55
KISQ 101055Z AUTO 00000KT 1/4SM FG OVC001 18/16 A2998 RMK AO2

2010/08/10 10:55
KJYG 101055Z AUTO 00000KT 7SM -TSRA BKN009 BKN013 25/25 A2993 RMK AO2 LTG DSNT S AND SW

2010/08/10 10:55
KJYM 101055Z AUTO 00000KT M1/4SM FG OVC001 21/19 A3000 RMK AO2

2010/08/10 10:55
KLDM 101055Z AUTO 00000KT M1/4SM FG OVC001 21/20 A2999 RMK AO2

2010/08/10 10:53
KLND 101053Z AUTO 23006KT 10SM CLR 14/03 A3007 RMK AO2 SLP112 T01390033

2010/08/10 10:55
KLRJ 101055Z AUTO 32005G11KT 5SM RA SCT016 BKN037 OVC050 22/20 A2992 RMK AO2

2010/08/10 10:56
KLWA 101056Z AUTO 00000KT 3/4SM BR VV005 20/19 A2998 RMK AO2

2010/08/10 10:55
KMCD 101055Z AUTO 03003KT 1/4SM HZ OVC002 20/17 A2998 RMK AO2

2010/08/10 10:55
KMCF 101055Z AUTO 07012KT 10SM SCT009 25/25 A2987 RMK AO2 SLP116 T02500248

2010/08/10 10:55
KMGN 101055Z AUTO 00000KT 2SM BR CLR 21/20 A2998 RMK AO2

2010/08/10 10:54
KMOP 101054Z AUTO 00000KT 1 1/4SM BR VV007 19/19 A2998 RMK AO2

2010/08/10 10:55
KNBG 101055Z AUTO 00000KT 1/2SM FG CLR 24/23 A2994 RMK AO2 SLP137 T02440233 PWINO $

2010/08/10 10:56
KNCA 101056Z 25003KT 10SM FEW025 SCT150 24/24 A3003 RMK AO2 SLP169 T02440239 $

2010/08/10 10:55
KOEB 101055Z AUTO 00000KT M1/4SM FG OVC001 21/19 A3000 RMK AO2

2010/08/10 10:56
KOSC 101056Z AUTO 32007KT OVC001 21/20 A2997 RMK AO2 PWINO

2010/08/10 10:55
KOZW 101055Z AUTO 24003KT M1/4SM FG OVC001 19/19 A2999 RMK AO2

2010/08/10 10:55
KPHN 101055Z AUTO 00000KT 1 1/4SM BR OVC004 19/19 A2996 RMK AO2

2010/08/10 10:54
KPZQ 101054Z AUTO 29005KT 1/4SM FG OVC001 21/20 A2998 RMK AO2

2010/08/10 10:55
KRGK 101055Z AUTO 00000KT 3SM BR BKN003 22/21 A2995 RMK AO2

2010/08/10 10:55
KRMY 101055Z AUTO 00000KT M1/4SM FG OVC003 19/18 A3000 RMK AO2

2010/08/10 10:55
KRNP 101055Z AUTO 00000KT M1/4SM FG OVC001 19/19 A2998 RMK AO2

2010/08/10 10:54
KRQB 101054Z AUTO 00000KT M1/4SM FG OVC001 18/18 A3000 RMK AO2

2010/08/10 10:54
KSBN 101054Z 00000KT 7SM SCT032 23/21 A2998 RMK AO2 SLP147 T02280206

2010/08/10 10:55
KSJX 101055Z AUTO 00000KT 3/4SM BR OVC001 21/20 A2998 RMK AO2

2010/08/10 10:55
KSLH 101055Z AUTO 30003KT M1/4SM FG OVC001 21/21 A2997 RMK AO2

2010/08/10 10:55
KSUW 101055Z AUTO 00000KT 1/4SM FG VV002 19/18 A2994 RMK AO2

2010/08/10 10:55
KTKV 101055Z AUTO 00000KT 3SM BR 13/12 A3003 RMK AO2 SKY OBSCURED T01270121

2010/08/10 10:53
KTTF 101053Z AUTO 00000KT M1/4SM FG OVC001 21/21 A2996 RMK AO2

2010/08/10 10:55
KUES 101055Z AUTO 00000KT 2SM BR CLR 19/18 A3000 RMK AO2 T01870175

2010/08/10 10:50
KUKT 101050Z AUTO 00000KT 6SM FEW080 22/21 A2996 RMK AO1

2010/08/10 10:54
KVLL 101054Z AUTO 00000KT 3SM BR CLR 21/20 A2999 RMK AO2

2010/08/10 10:58
KFZY 101058Z AUTO 00000KT 1 1/4SM BR BKN029 OVC060 21/20 A2994 RMK AO2

2010/08/10 10:58
KSLK 101058Z AUTO 00000KT 1/4SM FG FEW001 OVC010 18/17 A2998 RMK AO2

2010/08/10 10:59
KHZY 101059Z AUTO 00000KT 1 1/4SM BR CLR 20/19 A2998 RMK AO2

2010/08/10 10:59
KJXN 101059Z 00000KT 3SM BR SCT001 OVC018 19/19 A3000 RMK AO2 $

2010/08/10 10:59
KRWI 101059Z AUTO 22004KT 3SM BR SCT002 24/23 A3001 RMK AO2

2010/08/10 10:59
KSBM 101059Z AUTO 00000KT 2SM BR CLR 21/20 A2998 RMK AO2

2010/08/10 10:59
KSUX 101059Z 34011G21KT 10SM -RA FEW014 BKN047 OVC070 23/21 A2988 RMK AO2 WSHFT 1039 LTG DSNT E P0000

2010/08/10 11:00
SBPV 101100Z 00000KT 5000 BR NSC 21/19 Q1013

2010/08/10 11:00
SBNT 101100Z 15008KT 9999 BKN025 BKN070 24/22 Q1017

2010/08/10 11:00
SBGL 101100Z 35004KT 9000 SCT008 BKN018 20/17 Q1025

2010/08/10 11:00
SBRF 101100Z 15014KT CAVOK 27/17 Q1018

2010/08/10 11:00
SBSV 101100Z 11004KT 9999 FEW017 24/21 Q1020

2010/08/10 11:00
SBRJ 101100Z 16004KT 9999 FEW005 BKN030 BKN070 21/17 Q1025

2010/08/10 11:00
SBCJ 101100Z 08002KT CAVOK 23/16 Q1018

2010/08/10 11:00
SBPS 101100Z 30004KT 9999 FEW020 19/18 Q1022

2010/08/10 11:00
SBBR 101100Z 35002KT CAVOK 16/06 Q1025

2010/08/10 11:00
SBFZ 101100Z 16013KT 9999 SCT018 BKN090 26/20 Q1016

2010/08/10 11:00
SBUG 101100Z 16005KT CAVOK 03/02 Q1026 

2010/08/10 11:00
SBBE 101100Z 08007KT CAVOK 27/23 Q1013

2010/08/10 11:00
SBKP 101100Z 12009KT 7000 NSC 14/11 Q1025

2010/08/10 11:00
SBCT 101100Z 05002KT 8000 BKN005 OVC009 09/08 Q1027

2010/08/10 10:59
EHVL 101059Z AUTO 20019KT 9999NDV FEW011 SCT017 BKN022 19/16 Q1010 WHT

2010/08/10 10:58
KCEF 101058Z 00000KT 3/4SM R23/1600V5500FT BR FEW004 SCT080 BKN150 21/21 A2993

2010/08/10 11:00
LDLO 101100Z 30009KT CAVOK 29/18 Q1015

2010/08/10 11:00
LDSB 101100Z 20010KT CAVOK 27/11 Q1015

2010/08/10 11:00
SBPK 101100Z 29002KT CAVOK 05/04 Q1029

2010/08/10 10:58
KCEF 101058Z 00000KT 3/4SM R23/1600V5500FT BR FEW004 SCT080 BKN150 21/21 A2993

2010/08/10 11:00
TFFF 101100Z 09003KT 030V110 9999 FEW023 SCT300 27/25 Q1014 NOSIG

2010/08/10 10:55
KINL 101055Z AUTO 00000KT 10SM FEW090 17/17 A2994 RMK AO2 VIS 3/4 RWY 31 SLP135 T01670167 $ 

2010/08/10 10:59
CYHD 101059Z AUTO 05008KT 2 3/8SM +RA SCT001 BKN020 BKN042 19/19 A2994

2010/08/10 10:56
KMEH 101056Z AUTO 00000KT 10SM CLR 07/04 A2993 RMK AO2 SLP118 T00720039 TSNO 

2010/08/10 11:00
WSAP 101100Z 11004KT 9999 FEW018 FEW020TCU SCT150 31/25 Q1006

2010/08/10 11:00
LUBL 101100Z 33008KT CAVOK 28/16 Q1015 RWY33

2010/08/10 11:00
UBBL 101100Z 11008KT 9999 SCT100 35/15 Q1010 NOSIG RMK G/O SC07

2010/08/10 11:00
TBPB 101100Z 15005KT 9999 FEW020 SCT280 27/24 Q1014 NOSIG

2010/08/10 11:00
DIAP 101100Z 24008KT 8000 SCT011 SCT020 BKN070 26/23 Q1015 NOSIG

2010/08/10 10:45
MMTO 101045Z 18005KT 4SM SCT015 BKN200 11/10 A3035 RMK 8/502 HZ

2010/08/10 10:52
MMVR 101052Z 00000KT 7SM SCT250 25/24 A2986 RMK 8/001 HZY

2010/08/10 10:56
MUGM 101056Z 36007KT 9999 FEW028CB BKN250 26/23 A2992 RMK SLP130 CB DSNT E TCU DSNT NE T02560228

2010/08/10 11:00
MYGF 101100Z 14010KT 9999 BKN018 SCT100 27/24 A2994

2010/08/10 11:00
MYNN 101100Z 17007KT 9999 SCT020 SCT050 OVC080 27/26 A2993

2010/08/10 10:55
PACZ 101055Z AUTO 19009KT 10SM BKN006 OVC010 09/08 A2932 RMK AO1 T00890078

2010/08/10 10:55
PAED 101055Z 00000KT 10SM OVC009 11/10 A2977 RMK AO2A CIG 005V011 CIG 003 RWY24 SLP083 T01140102

2010/08/10 10:55
PAEH 101055Z AUTO 17016G27KT 1 3/4SM OVC004 08/07 RMK AO1 VSBY 11/2V21/2 T00830073

2010/08/10 10:55
PAIM 101055Z AUTO 00000KT 10SM SCT036 BKN070 OVC095 11/11 A2964 RMK AO1 T01110112

2010/08/10 10:55
PALU 101055Z AUTO 06017KT 7SM 08/08 A2960 RMK AO1 T00780078

2010/08/10 10:55
PASV 101055Z AUTO 00000KT 10SM OVC028 09/08 A2963 RMK AO1 T00940078

2010/08/10 10:56
PASY 101056Z AUTO 28010KT 1 1/4SM BR OVC001 09/09 A2990 RMK AO2 SLP124 T00890089 TSNO PNO $

2010/08/10 10:55
PATC 101055Z AUTO 03011KT 1/2SM BKN070 BKN090 10/09 A2944 RMK AO1 T01000095

2010/08/10 10:55
PATL 101055Z AUTO 31005KT 10SM SCT020 BKN025 OVC100 11/09 A2961 RMK AO1 T01060089

2010/08/10 11:00
RJOI 101100Z 14004KT 9999 -SHRA FEW025 BKN040 BKN080 29/24 A2989 RMK SLP120 P0000 T02940239

2010/08/10 11:00
TBPB 101100Z 15005KT 9999 FEW020 SCT280 27/24 Q1014 NOSIG

2010/08/10 11:00
TKPK 101100Z 09007KT 9999 SCT015 28/25 Q1014

2010/08/10 11:00
NWWW 101100Z AUTO 11005KT 9999NDV NCD 18/14 Q1024

2010/08/10 11:00
YSRI 101100Z AUTO 00000KT 2000NDV // OVC014 12/12 Q1012

2010/08/10 10:55
KQPV 101055Z AUTO 07008KT 9999 FEW190 46/06 A2961 RMK AO2 SLP018 T04590059

2010/08/10 10:55
KQRY 101055Z AUTO VRB02KT 9999 24/13 A3006 RMK AO2 SLP081 T02400134 PWINO $

2010/08/10 10:55
KQSD 101055Z 23011G20KT 9999 SCT120 BKN150 31/00 A2994 RMK AO2A SLP015

2010/08/10 10:55
KQTD 101055Z VRB05KT 9999 CLR 39/01 A2977 RMK AO2 SLP047 T03930006

2010/08/10 10:55
KQTO 101055Z 30010KT 9999 FEW080 47/04 A2955 RMK SLP004

2010/08/10 10:56
KHLR 101056Z AUTO 18004KT 10SM CLR 27/23 A2993 RMK AO2 SLP126 T02670228 $

2010/08/10 10:56
PHBK 101056Z AUTO 07004KT 10SM CLR 23/14 A3008 RMK AO2 SLP188 T02330144 TSNO $

2010/08/10 10:55
PHHI 101055Z AUTO 08008KT 10SM BKN046 23/17 A3011 RMK AO2 SLP182 T02290171 $

2010/08/10 10:56
PHNY 101056Z AUTO 01005KT 10SM CLR 20/17 A3013 RMK AO2 TSNO T02000172 SLP182 $

2010/08/10 11:00
YSRI 101100Z AUTO 00000KT 2000NDV // OVC014 12/12 Q1012

2010/08/10 11:00
NWWU 101100Z AUTO 09016KT 9999NDV BKN037/// OVC047/// 24/17 Q1022

2010/08/10 11:00
NWWM 101100Z AUTO 07006KT 040V110 9999NDV SCT036/// BKN045/// OVC054/// 21/16 Q1025

2010/08/10 11:00
NWWL 101100Z AUTO 10015KT 9999NDV SCT050/// 22/15 Q1023

2010/08/10 10:55
TXKF 101055Z 19008KT 9999 FEW015 FEW180 27/23 Q1020 

2010/08/10 11:01
CYQA 101101Z AUTO 00000KT 1 1/2SM BR BKN002 OVC008 20/20 A2995 RMK SLP142 DENSITY ALT 1600FT

2010/08/10 11:00
UBBL 101100Z 11008KT 9999 SCT100 35/15 Q1010 NOSIG RMK G/O SC07

2010/08/10 10:58
YBRK 101058Z 26011KT 2000 SHRA FEW008 BKN015 20/19 Q1017 RESHRA

2010/08/10 10:58
YBRK 101058Z 26011KT 2000 SHRA FEW008 BKN015 20/19 Q1017 RESHRA

2010/08/10 10:58
KCEF 101058Z 00000KT 3/4SM R23/1600V5500FT BR FEW004 SCT080 BKN150 21/21 A2993 RMK AO2A SLP135 $

2010/08/10 10:57
KMMT 101057Z AUTO 00000KT 7SM SCT003 BKN016 BKN025 24/24 A3002 RMK AO2 SLP164

2010/08/10 11:00
KAFN 101100Z AUTO 00000KT 4SM BR CLR 19/19 A2995 RMK AO2

2010/08/10 11:00
KLWV 101100Z AUTO 21003KT 2 1/2SM BR CLR 24/23 A2994 RMK AO2

2010/08/10 11:00
KMTH 101100Z AUTO VRB04G20KT 8SM -RA FEW010 BKN022 OVC075 26/24 A2985 RMK AO2 TSE1054 P0001

2010/08/10 10:55
KCKP 101055Z AUTO 06004KT 10SM TS -DZ BKN090 22/21 A2988 RMK AO2

2010/08/10 10:55
KI75 101055Z AUTO 09003KT 10SM CLR 21/20 A2995 RMK AO2

2010/08/10 10:55
KMPZ 101055Z AUTO 34004KT 10SM CLR 22/20 A2994 RMK AO2

2010/08/10 10:55
KMUT 101055Z AUTO 31009KT 10SM SCT006 23/21 A2993 RMK AO2

2010/08/10 10:55
KMXO 101055Z AUTO 00000KT 3 1/2SM -RA SCT024 23/22 A2996 RMK AO2

2010/08/10 10:56
KNMM 101056Z 00000KT 6SM BR FEW250 24/23 A2996 RMK AO2 SLP152 T02440228 $

2010/08/10 10:56
KNXX 101056Z 00000KT 8SM BKN150 BKN200 24/20 A2995 RMK AO2 SLP147 T02440200 $

2010/08/10 10:55
KOOA 101055Z AUTO 00000KT 10SM CLR 22/21 A2995 RMK AO2

2010/08/10 10:55
KORC 101055Z AUTO 14005G17KT 10SM SCT025 BKN042 BKN050 25/24 A2986 RMK AO2

2010/08/10 10:55
KPEA 101055Z AUTO 10SM CLR A2994 RMK AO2

2010/08/10 10:55
KPSM 101055Z COR 31006KT 4SM BR SCT140 21/21 A2988 RMK AO2A SLP121 T02120205 COR 1100

2010/08/10 10:55
KRDK 101055Z AUTO 00000KT 10SM CLR 26/22 A2988 RMK AO2

2010/08/10 10:55
KSDA 101055Z AUTO 00000KT 10SM CLR 25/22 A2988 RMK AO2

2010/08/10 10:55
KSHL 101055Z AUTO 14005KT 10SM BKN031 BKN090 22/20 A2989 RMK AO2

2010/08/10 10:55
KTNU 101055Z AUTO 08006KT 10SM CLR 22/17 A2994 RMK AO2 P0009

2010/08/10 10:55
KTVK 101055Z AUTO 10SM CLR 21/21 A2996 RMK AO2

2010/08/10 10:55
KUNU 101055Z AUTO 00000KT 5SM BR CLR 20/19 A2999 RMK AO2 T02020190

2010/08/10 10:55
KVTI 101055Z AUTO 23005KT 7SM RA SCT008 BKN050 OVC090 23/23 A2997 RMK AO2

2010/08/10 10:55
KBVU 101055Z AUTO 00000KT 10SM CLR 22/03 A2987 RMK AO2

2010/08/10 10:57
KIIB 101057Z AUTO 16005KT 5SM SCT008 23/23 A2998 RMK AO1 P0001

2010/08/10 11:00
KRHP 101100Z AUTO 00000KT 20/20 A3010 RMK AO2 PWINO

2010/08/10 11:00
SBSJ 101100Z 12004KT 5000 BR BKN010 BKN070 16/13 Q1026

2010/08/10 10:55
PATC 101055Z AUTO 03011KT 1/2SM BKN070 BKN090 10/09 A2944 RMK AO1 T01000095

2010/08/10 10:56
KNRS 101056Z AUTO 00000KT 10SM OVC013 17/14 A2990 RMK AO2 SLP125 T01720144 TSNO

2010/08/10 10:54
KAPN 101054Z AUTO 00000KT 1/4SM FG VV001 21/20 A2998 RMK AO2 SLP149 T02060200 $

2010/08/10 10:53
KUIL 101053Z AUTO 00000KT 1 3/4SM BR OVC001 12/12 A2995 RMK AO2 SLP142 P0001 T01220117 TSNO

2010/08/10 10:55
KINL 101055Z AUTO 00000KT 10SM FEW090 17/17 A2994 RMK AO2 VIS 3/4 RWY 31 SLP135 T01670167 $

2010/08/10 10:56
KBIH 101056Z AUTO 33004KT 10SM CLR 12/M06 A2996 RMK AO2 SLP097 T01221056 TSNO

2010/08/10 10:55
KINL 101055Z AUTO 00000KT 10SM FEW090 17/17 A2994 RMK AO2 VIS 3/4 RWY 31 SLP135 T01670167 $

2010/08/10 10:56
KMEH 101056Z AUTO 00000KT 10SM CLR 07/04 A2993 RMK AO2 SLP118 T00720039 TSNO

2010/08/10 11:00
SBPL 101100Z 14010KT 9999 FEW017 22/17 Q1021

2010/08/10 11:00
SBGO 101100Z 12007KT CAVOK 17/11 Q1022 

2010/08/10 11:00
SBRP 101100Z 12008KT 2000 BR NSC 15/12 Q1022

2010/08/10 11:00
SBVT 101100Z 20010KT 9999 SCT020 BKN100 24/19 Q1024

2010/08/10 11:00
SBNF 101100Z 26004KT 9999 BKN035 15/13 Q1026

2010/08/10 11:00
SBMQ 101100Z 33003KT 9999 SCT015 BKN090 26/25 Q1014

2010/08/10 11:00
SBPB 101100Z 11007KT CAVOK 27/23 Q1014

2010/08/10 11:00
SBTT 101100Z 00000KT 5000 BR NSC 23/21 Q1013

2010/08/10 11:00
SBSN 101100Z 00000KT CAVOK 27/23 Q1013

2010/08/10 10:50
MMMY 101050Z 00000KT 8SM BKN010 OVC020 24/23 A2988 RMK 8/5// HZY BINOVC

2010/08/10 11:00
SBCZ 101100Z 00000KT 5000 FU NSC 20/20 Q1014

2010/08/10 10:50
EDHL 101050Z 16008KT 130V190 9999 SCT041 22/15 Q1014 RMK Q

2010/08/10 10:50
LTAN 101050Z 34009KT 9999 FEW040 34/11 Q1013 NOSIG

2010/08/10 10:50
LTAU 101050Z 28006KT 230V340 9999 FEW040 32/06 Q1014 NOSIG

2010/08/10 10:50
LTCC 101050Z VRB05KT CAVOK 37/M01 Q1007 NOSIG

2010/08/10 10:50
LTCE 101050Z 07010KT 040V100 9999 FEW030 29/04 Q1017 NOSIG

2010/08/10 11:00
SBTE 101100Z 20004KT CAVOK 26/19 Q1015

2010/08/10 10:50
LSMD 101050Z AUTO 00000KT 9999NDV FEW049 25/09 Q1018 RMK BLU

2010/08/10 10:50
LSME 101050Z AUTO VRB02KT 9999NDV NCD 25/14 Q1018 RMK BLU

2010/08/10 10:50
LSMM 101050Z AUTO 25007KT 230V300 9999NDV FEW078 21/15 Q1018 RMK BLU

2010/08/10 10:55
K4M9 101055Z AUTO 00000KT 7SM 25/25 A2993 RMK AO2

2010/08/10 10:55
KLNL 101055Z AUTO 00000KT 1/2SM FG OVC001 13/12 A3005 RMK AO2 T01270123

2010/08/10 10:55
KLUM 101055Z AUTO 00000KT 5SM BR CLR 18/18 A2998 RMK AO2

2010/08/10 10:55
KMAN 101055Z AUTO 13006KT 10SM CLR 16/12 A2983 RMK AO1

2010/08/10 10:55
KMCJ 101055Z AUTO 24003KT 10SM CLR 27/25 A2988 RMK AO1

2010/08/10 10:55
KMDZ 101055Z AUTO 00000KT 7SM CLR 17/16 A3002 RMK AO2

2010/08/10 10:58
KMEI 101058Z 00000KT 6SM BR CLR 23/23 A2997 RMK AO2 SLP142 T02330228

2010/08/10 10:55
KMRJ 101055Z AUTO 00000KT 2 1/2SM BR CLR 24/22 A2999 RMK AO2 T02350218

2010/08/10 10:55
KMWC 101055Z AUTO 21003KT 5SM BR CLR 19/18 A2999 RMK AO2

2010/08/10 10:55
KOEO 101055Z AUTO 12003KT 10SM CLR 21/19 A2998 RMK AO2

2010/08/10 10:55
KPBH 101055Z AUTO 00000KT 1/2SM FG VV005 17/16 A3003 RMK AO2 VIS 1/4V2

2010/08/10 10:55
KPCZ 101055Z AUTO 00000KT 4SM BR CLR 19/18 A2998 RMK AO2 T01920178

2010/08/10 10:52
KPDC 101052Z AUTO 10003KT 1 1/2SM BR OVC003 25/24 A2996 RMK AO2 T02450235

2010/08/10 10:55
KRCX 101055Z AUTO 00000KT 7SM CLR 18/17 A3002 RMK AO2 T01750166

2010/08/10 10:56
KRNH 101056Z AUTO 09003KT 10SM CLR 20/19 A2998 RMK AO2 T02000189

2010/08/10 10:55
KRPD 101055Z AUTO 00000KT 3/4SM BR BKN002 18/18 A3001 RMK AO2 VIS 1/4V5 T01830180

2010/08/10 10:55
KRRL 101055Z AUTO 00000KT 7SM CLR 14/14 A3003 RMK AO2 T01420138

2010/08/10 10:55
KRYV 101055Z AUTO 00000KT 2 1/2SM BR CLR 21/19 A2999 RMK AO2

2010/08/10 10:55
KSTE 101055Z AUTO 00000KT 7SM CLR 18/17 A3001 RMK AO2

2010/08/10 10:56
KY50 101056Z AUTO 00000KT 6SM BR CLR 18/18 A2999 RMK AO2 T01830183 SLP146

2010/08/10 10:56
KSGH 101056Z AUTO 00000KT 4SM BR CLR 21/21 A3000 RMK AO2 T02050205 SLP150 $

2010/08/10 10:58
PADU 101058Z AUTO 22022G31KT 10SM FEW025 OVC044 12/07 A2970 RMK AO2 PK WND 20031/1049 SLP064 T01170067

2010/08/10 10:58
PAGA 101058Z AUTO 12007KT 10SM OVC110 13/11 A2958 RMK AO2 SLPNO T01330106

2010/08/10 10:56
PAJZ 101056Z AUTO 17007KT 10SM SCT003 BKN027 OVC035 09/09 A2967 RMK AO2 PWINO TSNO T00940094 SLP035 $

2010/08/10 10:56
PAKI 101056Z AUTO 19015KT 2SM +RA BR OVC006 09/09 A2941 RMK AO2 TSNO T00880088 OVC V BKN P0000 SLP959 $

2010/08/10 10:56
PALG 101056Z AUTO 00000KT 10SM -RA OVC037 11/09 A2950 RMK AO2 TSNO T01050094 RAB16 P0000 SLP994 $

2010/08/10 10:58
PATE 101058Z AUTO 07009KT 10SM -RA BKN060 OVC075 11/10 A2943 RMK AO2 RAB11 SLP977 P0000 T01110100

2010/08/10 10:56
K4I3 101056Z AUTO 28003KT 5SM BR CLR 22/20 A2999 RMK AO2

2010/08/10 10:55
KACB 101055Z AUTO 00000KT 1SM BR OVC014 22/22 A2998 RMK AO2

2010/08/10 10:58
KACQ 101058Z AUTO 09006KT 7SM SCT065 BKN085 22/21 A2995 RMK AO2 LTG DSNT S AND W

2010/08/10 10:57
KADC 101057Z AUTO 00000KT 3SM BR CLR 17/16 A2994 RMK AO2

2010/08/10 10:55
KAMN 101055Z AUTO 00000KT M1/4SM FG OVC003 17/17 A2998 RMK AO2

2010/08/10 10:55
KAUM 101055Z AUTO 00000KT 4SM BR BKN060 23/22 A2996 RMK AO2 LTG DSNT SW

2010/08/10 10:55
KAWG 101055Z AUTO 00000KT 10SM CLR 22/21 A2994 RMK AO2

2010/08/10 10:55
KAXA 101055Z AUTO 27007G21KT 10SM RA SCT011 SCT042 OVC060 23/22 A2993 RMK AO2 P0003

2010/08/10 10:55
KBDH 101055Z AUTO 13007KT 7SM CLR 23/22 A2992 RMK AO2 LTG DSNT S

2010/08/10 10:55
KBNW 101055Z AUTO 08008KT 10SM -RA SCT009 OVC044 23/21 A2998 RMK AO2 P0015

2010/08/10 10:54
KCAD 101054Z AUTO 00000KT M1/4SM FG VV000 17/17 A3001 RMK AO2

2010/08/10 10:55
KCAV 101055Z AUTO 14006KT 10SM -RA SCT018 BKN028 BKN040 25/22 A2996 RMK AO2 P0006

2010/08/10 10:55
KCBF 101055Z AUTO 13004KT 10SM CLR 26/21 A2988 RMK AO2

2010/08/10 10:55
KCBG 101055Z AUTO 00000KT 10SM CLR 21/19 A2996 RMK AO2

2010/08/10 10:54
KCDA 101054Z AUTO 00000KT M1/4SM FG OVC002 15/13 A2998 RMK AO2

2010/08/10 10:55
KCFS 101055Z AUTO 00000KT 1/2SM FG OVC001 21/20 A2996 RMK AO2

2010/08/10 10:55
KCKC 101055Z AUTO 00000KT 10SM CLR 14/12 A3002 RMK AO2

2010/08/10 10:55
KCKN 101055Z AUTO 12004KT 10SM CLR 21/19 A2991 RMK AO2

2010/08/10 10:54
KCNB 101054Z AUTO 00000KT 2 1/2SM BR OVC003 23/23 A2990 RMK AO2 LTG DSNT S AND SW T02310226

2010/08/10 10:55
KCNC 101055Z AUTO 00000KT 10SM BKN065 23/20 A2995 RMK AO2

2010/08/10 10:56
KCOQ 101056Z AUTO 00000KT 7SM CLR 18/16 A2998 RMK AO2

2010/08/10 10:57
KCQM 101057Z AUTO 00000KT 7SM CLR 16/16 A2998 RMK AO2

2010/08/10 11:00
SBRB 101100Z 00000KT 3000 FU NSC 21/19 Q1015

2010/08/10 10:55
OPLA 101055Z 21006KT 4000 FU SCT040 BKN100 32/27 Q1002 TEMPO 33030KT 2500 TSRA FEW030CB

2010/08/10 11:00
UTTT 101100Z 34002MPS 270V360 CAVOK 38/01 Q1007 R08R/CLRD70 NOSIG

2010/08/10 10:58
YBRK 101058Z 26011KT 2000 SHRA FEW008 BKN015 20/19 Q1017 RESHRA

2010/08/10 11:00
SBMN 101100Z 34003KT 9999 FEW015 26/23 Q1013

2010/08/10 10:50
EEKA 101050Z 22009KT 190V270 9999 SCT021 OVC041 20/15 Q1014

2010/08/10 10:50
EEKE 101050Z 25013KT 9999 SCT020 BKN043 20/15 Q1015

2010/08/10 10:50
EEPU 101050Z 20012KT 160V220 9999 BKN023 21/16 Q1015

2010/08/10 10:50
EETU 101050Z AUTO 27007KT 240V320 9999NDV SCT042/// 24/15 Q1015

2010/08/10 10:50
EDNY 101050Z VRB03KT 9999 SCT055 23/13 Q1018 RMK ATIS N

2010/08/10 10:50
EDXW 101050Z 16016KT CAVOK 21/13 Q1012 RMK ATIS INFO J

2010/08/10 11:00
RPLC 101100Z VRB05G19KT 9999 FEW036 OVC100 27/23 Q1009 A2983 RMK NOSIG 

2010/08/10 10:55
KCSQ 101055Z AUTO 09008KT 10SM CLR 21/20 A2996 RMK AO2

2010/08/10 10:55
KCVX 101055Z AUTO 00000KT 2SM BR SCT005 BKN010 BKN013 22/20 A3000 RMK AO2

2010/08/10 10:55
KDEH 101055Z AUTO 00000KT 3 1/2SM CLR 24/22 A3000 RMK AO2

2010/08/10 10:55
KDNS 101055Z AUTO 10009KT 10SM BKN080 BKN110 25/20 A2994 RMK AO2

2010/08/10 10:57
KDRM 101057Z AUTO 00000KT M1/4SM FG OVC001 20/20 A2995 RMK AO2

2010/08/10 10:55
KDTL 101055Z AUTO 13005KT 10SM CLR 21/18 A2995 RMK AO2

2010/08/10 10:54
KDUH 101054Z AUTO 00000KT M1/4SM FG OVC001 21/19 A2998 RMK AO2

2010/08/10 10:57
KDVP 101057Z AUTO 20011KT VCTS 24/22 A2992 RMK AO2 LTG DSNT ALQS P0001 T02360223

2010/08/10 10:55
KEBS 101055Z AUTO 19014KT 10SM SCT085 BKN110 22/21 A2999 RMK AO2 P0002

2010/08/10 10:55
KEOK 101055Z AUTO 01004KT 10SM CLR 26/22 A2994 RMK AO2

2010/08/10 10:55
KERY 101055Z AUTO 00000KT M1/4SM FG OVC002 19/18 A2999 RMK AO2

2010/08/10 10:55
KFFL 101055Z AUTO 00000KT 10SM SCT110 21/21 A2994 RMK AO2

2010/08/10 10:55
KFFX 101055Z AUTO 00000KT M1/4SM FG OVC002 18/18 A2999 RMK AO2

2010/08/10 10:54
KFKS 101054Z AUTO 00000KT 4SM BR BKN001 18/17 A2998 RMK AO2

2010/08/10 10:56
KFPK 101056Z AUTO 00000KT M1/4SM FG OVC001 18/18 A2998 RMK AO2

2010/08/10 10:54
KFSE 101054Z AUTO 00000KT 10SM CLR 18/17 A2993 RMK AO2

2010/08/10 10:55
KFSW 101055Z AUTO 00000KT 10SM CLR 25/22 A2993 RMK AO2

2010/08/10 10:55
KFXY 101055Z AUTO 16006KT 4SM OVC003 25/23 A2994 RMK AO2

2010/08/10 10:55
KGGI 101055Z AUTO 32005KT 4SM RA BKN029 BKN049 OVC080 23/21 A2995 RMK AO2 P0012

2010/08/10 10:55
KGOV 101055Z AUTO 00000KT 4SM BR OVC009 21/21 A3001 RMK AO2

2010/08/10 10:55
KHAF 101055Z AUTO 19003KT 5SM BR OVC003 11/11 A2991 RMK AO2

2010/08/10 10:55
KHAI 101055Z AUTO 00000KT M1/4SM FG OVC001 20/20 A2999 RMK AO2

2010/08/10 10:55
KHNR 101055Z AUTO 10008G14KT 10SM SCT080 22/21 A2994 RMK AO2

2010/08/10 10:55
KHUM 101055Z 31004KT 4SM BR OVC003 25/25 A2993

2010/08/10 10:54
KHYX 101054Z AUTO 30003KT 1 1/2SM BR VV007 20/19 A2997 RMK AO2

2010/08/10 10:55
KICL 101055Z AUTO 00000KT 10SM CLR 25/21 A2990 RMK AO2

2010/08/10 10:55
KIKV 101055Z AUTO 00000KT 10SM SCT070 BKN080 22/21 A2994 RMK AO2

2010/08/10 10:55
KIRS 101055Z AUTO 00000KT 1 1/4SM BR BKN001 21/20 A2999 RMK AO2

2010/08/10 10:55
KISQ 101055Z AUTO 00000KT 1/4SM FG OVC001 18/16 A2998 RMK AO2

2010/08/10 10:55
KJYG 101055Z AUTO 00000KT 7SM -TSRA BKN009 BKN013 25/25 A2993 RMK AO2 LTG DSNT S AND SW

2010/08/10 10:55
KJYM 101055Z AUTO 00000KT M1/4SM FG OVC001 21/19 A3000 RMK AO2

2010/08/10 10:55
KLDM 101055Z AUTO 00000KT M1/4SM FG OVC001 21/20 A2999 RMK AO2

2010/08/10 10:55
KLRJ 101055Z AUTO 32005G11KT 5SM RA SCT016 BKN037 OVC050 22/20 A2992 RMK AO2

2010/08/10 10:56
KLWA 101056Z AUTO 00000KT 3/4SM BR VV005 20/19 A2998 RMK AO2

2010/08/10 10:55
KMCD 101055Z AUTO 03003KT 1/4SM HZ OVC002 20/17 A2998 RMK AO2

2010/08/10 10:55
KMGN 101055Z AUTO 00000KT 2SM BR CLR 21/20 A2998 RMK AO2

2010/08/10 10:54
KMOP 101054Z AUTO 00000KT 1 1/4SM BR VV007 19/19 A2998 RMK AO2

2010/08/10 10:55
KOEB 101055Z AUTO 00000KT M1/4SM FG OVC001 21/19 A3000 RMK AO2

2010/08/10 10:56
KOSC 101056Z AUTO 32007KT OVC001 21/20 A2997 RMK AO2 PWINO

2010/08/10 10:55
KOZW 101055Z AUTO 24003KT M1/4SM FG OVC001 19/19 A2999 RMK AO2

2010/08/10 10:55
KPHN 101055Z AUTO 00000KT 1 1/4SM BR OVC004 19/19 A2996 RMK AO2

2010/08/10 10:55
KRGK 101055Z AUTO 00000KT 3SM BR BKN003 22/21 A2995 RMK AO2

2010/08/10 10:55
KRMY 101055Z AUTO 00000KT M1/4SM FG OVC003 19/18 A3000 RMK AO2

2010/08/10 10:55
KRNP 101055Z AUTO 00000KT M1/4SM FG OVC001 19/19 A2998 RMK AO2

2010/08/10 10:54
KRQB 101054Z AUTO 00000KT M1/4SM FG OVC001 18/18 A3000 RMK AO2

2010/08/10 10:55
KSJX 101055Z AUTO 00000KT 3/4SM BR OVC001 21/20 A2998 RMK AO2

2010/08/10 10:55
KSLH 101055Z AUTO 30003KT M1/4SM FG OVC001 21/21 A2997 RMK AO2

2010/08/10 10:55
KSUW 101055Z AUTO 00000KT 1/4SM FG VV002 19/18 A2994 RMK AO2

2010/08/10 10:53
KTTF 101053Z AUTO 00000KT M1/4SM FG OVC001 21/21 A2996 RMK AO2

2010/08/10 10:55
KUES 101055Z AUTO 00000KT 2SM BR CLR 19/18 A3000 RMK AO2 T01870175

2010/08/10 10:50
KUKT 101050Z AUTO 00000KT 6SM FEW080 22/21 A2996 RMK AO1

2010/08/10 10:54
KVLL 101054Z AUTO 00000KT 3SM BR CLR 21/20 A2999 RMK AO2

2010/08/10 10:55
KMPZ 101055Z AUTO 34004KT 10SM CLR 22/20 A2994 RMK AO2

2010/08/10 10:55
KMUT 101055Z AUTO 31009KT 10SM SCT006 23/21 A2993 RMK AO2

2010/08/10 10:55
KMXO 101055Z AUTO 00000KT 3 1/2SM -RA SCT024 23/22 A2996 RMK AO2

2010/08/10 11:01
PADM 101101Z AUTO 16017G22KT 4SM -RA BR FEW003 OVC016 09/08 A2948 RMK AO2 TSNO T00940077 P0004 SLP972 $

2010/08/10 11:05
KBAX 101105Z AUTO 35004KT M1/4SM FG OVC002 21/21 A2997 RMK AO2

2010/08/10 11:03
KCFE 101103Z AUTO 07003KT 7SM CLR 22/21 A2995 RMK AO2 T02170210

2010/08/10 10:50
EGOM 101050Z 21014KT 9999 SHRA BKN018 SCT030 13/10 Q1004 WHT

2010/08/10 10:50
EGOP 101050Z AUTO 22003KT 6000NDV HZ BKN005/// 15/13 Q1009

2010/08/10 10:50
EGUY 101050Z 24011KT 9999 FEW020 SCT060 16/12 Q1010 BLU

2010/08/10 10:50
EGVN 101050Z 24007KT 9999 -RA SCT014 SCT050 BKN080 16/12 Q1010 GRN NOSIG

2010/08/10 10:50
EGWC 101050Z 24006KT 9999 FEW022 BKN027 18/09 Q1009 BLU

2010/08/10 10:50
EGXJ 101050Z 23014KT 9999 SCT025 SCT250 18/11 Q1008 BLU NOSIG

2010/08/10 10:50
EGXP 101050Z 24015KT 9999 FEW020 BKN050 18/07 Q1007 BLU

2010/08/10 10:50
EGXX 101050Z 22016KT 9999 SCT035 18/10 Q1007 BLU

2010/08/10 10:50
EGXZ 101050Z 24012KT 9999 FEW031 BKN060 17/08 Q1006 BLU

2010/08/10 10:50
EDLN 101050Z 18005KT 110V260 CAVOK 26/16 Q1013 RMK ATIS M

2010/08/10 10:50
EDLP 101050Z 22008KT CAVOK 24/10 Q1015 RMK RWY24 TRL60 HS ATIS R

2010/08/10 10:50
EDLW 101050Z 21011KT 180V250 CAVOK 25/12 Q1014 RMK ATIS P

2010/08/10 10:50
EKSN 101050Z 21008KT 9999 SCT032 22/10 Q1013

2010/08/10 11:00
SBEG 101100Z 35002KT 5000 BR FEW010 23/22 Q1014

2010/08/10 11:00
SBLO 101100Z 14006KT CAVOK 12/11 Q1023

2010/08/10 11:00
SBGR 101100Z 14005KT 5000 BR FEW006 13/13 Q1026

2010/08/10 10:58
KSLK 101058Z AUTO 00000KT 1/4SM FG FEW001 OVC010 18/17 A2998 RMK AO2

2010/08/10 10:59
KHZY 101059Z AUTO 00000KT 1 1/4SM BR CLR 20/19 A2998 RMK AO2

2010/08/10 10:59
KJXN 101059Z 00000KT 3SM BR SCT001 OVC018 19/19 A3000 RMK AO2 $

2010/08/10 10:59
KRWI 101059Z AUTO 22004KT 3SM BR SCT002 24/23 A3001 RMK AO2

2010/08/10 10:59
KSBM 101059Z AUTO 00000KT 2SM BR CLR 21/20 A2998 RMK AO2

2010/08/10 10:59
KSUX 101059Z 34011G21KT 10SM -RA FEW014 BKN047 OVC070 23/21 A2988 RMK AO2 WSHFT 1039 LTG DSNT E P0000

2010/08/10 11:00
KAFN 101100Z AUTO 00000KT 4SM BR CLR 19/19 A2995 RMK AO2

2010/08/10 11:00
KLWV 101100Z AUTO 21003KT 2 1/2SM BR CLR 24/23 A2994 RMK AO2

2010/08/10 11:00
KMTH 101100Z AUTO VRB04G20KT 8SM -RA FEW010 BKN022 OVC075 26/24 A2985 RMK AO2 TSE1054 P0001

2010/08/10 10:57
PTKR 101057Z 17013KT 15SM SCT018 SCT120 OVC300 28/24 A2988 RMK SLP119 T02780239

2010/08/10 10:55
EBFS 101055Z 24009KT 9999 FEW060 SCT130 BKN200 20/12 Q1015 BLU BLU

2010/08/10 10:58
KFZY 101058Z AUTO 00000KT 1 1/4SM BR BKN029 OVC060 21/20 A2994 RMK AO2

2010/08/10 10:58
KCEF 101058Z 00000KT 3/4SM R23/1600V5500FT BR FEW004 SCT080 BKN150 21/21 A2993 RMK AO2A SLP135 $

2010/08/10 10:58
KCEF 101058Z 00000KT 3/4SM R23/1600V5500FT BR FEW004 SCT080 BKN150 21/21 A2993 RMK AO2A SLP135 $

2010/08/10 10:57
KMMT 101057Z AUTO 00000KT 7SM SCT003 BKN016 BKN025 24/24 A3002 RMK AO2 SLP164

2010/08/10 10:55
EHAM 101055Z 20012KT 9999 BKN019 20/15 Q1011 NOSIG

2010/08/10 10:55
EHBK 101055Z AUTO 25007KT 200V290 9999NDV NSC 24/12 Q1013 NOSIG

2010/08/10 10:55
EHGG 101055Z AUTO 21012KT 180V250 9999NDV SCT022 BKN025 20/15 Q1012 NOSIG

2010/08/10 10:55
EHRD 101055Z 19011KT 150V220 9999 FEW022 BKN027 21/15 Q1011 NOSIG

2010/08/10 10:50
EGTC 101050Z 24009KT 9999 SCT016 16/12 Q1009

2010/08/10 10:55
KINL 101055Z AUTO 00000KT 10SM FEW090 17/17 A2994 RMK AO2 VIS 3/4 RWY 31 SLP135 T01670167 $

2010/08/10 10:56
KBIH 101056Z AUTO 33004KT 10SM CLR 12/M06 A2996 RMK AO2 SLP097 T01221056 TSNO

2010/08/10 10:55
KINL 101055Z AUTO 00000KT 10SM FEW090 17/17 A2994 RMK AO2 VIS 3/4 RWY 31 SLP135 T01670167 $

2010/08/10 10:56
KMEH 101056Z AUTO 00000KT 10SM CLR 07/04 A2993 RMK AO2 SLP118 T00720039 TSNO

2010/08/10 10:55
KOOA 101055Z AUTO 00000KT 10SM CLR 22/21 A2995 RMK AO2

2010/08/10 10:55
KORC 101055Z AUTO 14005G17KT 10SM SCT025 BKN042 BKN050 25/24 A2986 RMK AO2

2010/08/10 10:55
KPEA 101055Z AUTO 10SM CLR A2994 RMK AO2

2010/08/10 10:55
KRDK 101055Z AUTO 00000KT 10SM CLR 26/22 A2988 RMK AO2

2010/08/10 10:55
KSDA 101055Z AUTO 00000KT 10SM CLR 25/22 A2988 RMK AO2

2010/08/10 10:55
KSHL 101055Z AUTO 14005KT 10SM BKN031 BKN090 22/20 A2989 RMK AO2

2010/08/10 10:55
KTNU 101055Z AUTO 08006KT 10SM CLR 22/17 A2994 RMK AO2 P0009

2010/08/10 10:55
KTVK 101055Z AUTO 10SM CLR 21/21 A2996 RMK AO2

2010/08/10 10:55
KUNU 101055Z AUTO 00000KT 5SM BR CLR 20/19 A2999 RMK AO2 T02020190

2010/08/10 10:55
KBVU 101055Z AUTO 00000KT 10SM CLR 22/03 A2987 RMK AO2

2010/08/10 10:57
KIIB 101057Z AUTO 16005KT 5SM SCT008 23/23 A2998 RMK AO1 P0001

2010/08/10 11:00
KRHP 101100Z AUTO 00000KT 20/20 A3010 RMK AO2 PWINO

2010/08/10 11:00
SBFL 101100Z 18005KT 9999 BKN030 15/11 Q1027

2010/08/10 11:00
YSRI 101100Z AUTO 00000KT 2000NDV // OVC014 12/12 Q1012

2010/08/10 10:58
K0J4 101058Z AUTO 00000KT 10SM CLR 24/22 RMK AO2 SLPNO T02440217 $

2010/08/10 10:53
KRYT 101053Z AUTO 23003KT 10SM CLR 23/19 A2997 RMK AO2 SLP131 T02330194 $

2010/08/10 10:56
KNGP 101056Z 20003KT 10SM FEW015 28/25 A2987 RMK AO2 SLP114 T02820250 $

2010/08/10 10:55
KNKX 101055Z 00000KT 10SM OVC010 17/14 A2990 RMK AO2 SLP119 T01720139

2010/08/10 10:56
KNLC 101056Z AUTO 32007KT 10SM CLR 19/12 A2981 RMK AO2 SLP092 T01940122 TSNO

2010/08/10 10:56
KNMM 101056Z 00000KT 6SM BR FEW250 24/23 A2996 RMK AO2 SLP152 T02440228 $

2010/08/10 10:56
KNTD 101056Z AUTO 00000KT 9SM OVC007 15/13 A2990 RMK AO2 SLP125 T01500133 TSNO $

2010/08/10 10:56
KNTU 101056Z 24005KT 10SM FEW050 SCT200 24/23 A2997 RMK AO2 SLP152 T02440233 $

2010/08/10 10:56
KNUW 101056Z 00000KT 6SM BR FEW004 BKN008 OVC040 13/11 A2995 RMK AO2 SLP146 T01320111 $

2010/08/10 10:56
KNXX 101056Z 00000KT 8SM BKN150 BKN200 24/20 A2995 RMK AO2 SLP147 T02440200 $

2010/08/10 10:56
KNYG 101056Z 00000KT 7SM CLR 24/21 A2996 RMK AO2 SLP145 T02440206 $

2010/08/10 10:52
KNZY 101052Z 00000KT 10SM OVC013 19/13 A2989 RMK AO2 SLP122 T01940133 $

2010/08/10 10:55
KPOE 101055Z AUTO 00000KT 10SM FEW050 BKN070 25/23 A2994 RMK AO2 SLP139 T02500233

2010/08/10 10:55
KPSM 101055Z COR 31006KT 4SM BR SCT140 21/21 A2988 RMK AO2A SLP121 T02120205 COR 1100

2010/08/10 10:55
KRCA 101055Z VRB03KT 10SM OVC110 20/17 A2984 RMK AO2A SLP081 T02040167 $

2010/08/10 10:55
KVBG 101055Z AUTO 13003KT 10SM OVC001 12/11 A2991 RMK AO2 SLP118 T01170111 TSNO CHINO RWY12 VISNO RWY12 $

2010/08/10 10:56
K79J 101056Z AUTO 00000KT 8SM CLR 24/21 A2996 RMK AO2 SLP140 T02440211 TSNO PNO $

2010/08/10 10:55
KDMA 101055Z AUTO 16006KT 10SM CLR 24/17 A2995 RMK AO2 SLP071 T02430169 VISNO RWY12 CHINO RWY12 $

2010/08/10 10:56
KHLR 101056Z AUTO 18004KT 10SM CLR 27/23 A2993 RMK AO2 SLP126 T02670228 $

2010/08/10 10:55
KHOP 101055Z AUTO 00000KT 10SM CLR 25/25 A2997 RMK AO2 SLP144 T02540247

2010/08/10 10:55
KMXF 101055Z AUTO 00000KT 9SM FEW070 25/24 A2997 RMK AO2 SLP146 T02510236

2010/08/10 10:56
KNGP 101056Z 20003KT 10SM FEW015 28/25 A2987 RMK AO2 SLP114 T02820250 $

2010/08/10 10:56
KNID 101056Z AUTO 19007KT CLR 19/01 A2985 RMK AO2 SLP086 T01940011 TSNO $

2010/08/10 10:56
KNMM 101056Z 00000KT 6SM BR FEW250 24/23 A2996 RMK AO2 SLP152 T02440228 $

2010/08/10 10:56
KNPA 101056Z 01007KT 8SM SCT280 26/24 A2992 RMK AO2 SLP132 T02610239

2010/08/10 10:56
KNQI 101056Z AUTO 00000KT 5SM BR CLR 27/24 A2987 RMK AO2 SLP112 T02670244 $

2010/08/10 10:56
KNUW 101056Z 00000KT 6SM BR FEW004 BKN008 OVC040 13/11 A2995 RMK AO2 SLP146 T01320111 $

2010/08/10 10:56
KNXP 101056Z AUTO 32004KT CLR 22/M01 A2992 RMK AO2 SLP094 T02171006 $

2010/08/10 10:55
KSVN 101055Z 25002KT 8SM FEW010 FEW030 FEW250 27/25 A2999 RMK SLP157 WND DATA ESTMD ALSTG/SLP ESTMD

2010/08/10 10:56
PHBK 101056Z AUTO 07004KT 10SM CLR 23/14 A3008 RMK AO2 SLP188 T02330144 TSNO $

2010/08/10 10:55
KHRT 101055Z 03004KT 10SM FEW250 CLR 25/24 A2991 RMK AO2A SLP132 T02480236 $

2010/08/10 10:55
KMCF 101055Z AUTO 07012KT 10SM SCT009 25/25 A2987 RMK AO2 SLP116 T02500248

2010/08/10 10:55
KNBG 101055Z AUTO 00000KT 1/2SM FG CLR 24/23 A2994 RMK AO2 SLP137 T02440233 PWINO $

2010/08/10 10:56
KNCA 101056Z 25003KT 10SM FEW025 SCT150 24/24 A3003 RMK AO2 SLP169 T02440239 $

2010/08/10 10:56
KNRS 101056Z AUTO 00000KT 10SM OVC013 17/14 A2990 RMK AO2 SLP125 T01720144 TSNO

2010/08/10 10:59
KNGU 101059Z 22003KT 10SM FEW060 26/23 A2999 RMK AO2 SLP156 T02560228

2010/08/10 10:56
KNMM 101056Z 00000KT 6SM BR FEW250 24/23 A2996 RMK AO2 SLP152 T02440228 $

2010/08/10 10:56
KNXX 101056Z 00000KT 8SM BKN150 BKN200 24/20 A2995 RMK AO2 SLP147 T02440200 $

2010/08/10 10:55
KPSM 101055Z COR 31006KT 4SM BR SCT140 21/21 A2988 RMK AO2A SLP121 T02120205 COR 1100

2010/08/10 10:56
KHLR 101056Z AUTO 18004KT 10SM CLR 27/23 A2993 RMK AO2 SLP126 T02670228 $

2010/08/10 10:56
PHBK 101056Z AUTO 07004KT 10SM CLR 23/14 A3008 RMK AO2 SLP188 T02330144 TSNO $

2010/08/10 10:55
PHHI 101055Z AUTO 08008KT 10SM BKN046 23/17 A3011 RMK AO2 SLP182 T02290171 $

2010/08/10 10:55
KSNC 101055Z AUTO 00000KT 6SM HZ SCT090 21/ A2995 RMK AO2

2010/08/10 10:56
KFSD 101056Z 00000KT 10SM -TSRA BKN037 OVC100CB 21/19 A2993 RMK AO2 PK WND 27035/1006 SLP126 CONS LTGICCGCC NE-S TS NE-S MOV NE P0044 T02110194 $

2010/08/10 10:53
KLND 101053Z AUTO 23006KT 10SM CLR 14/03 A3007 RMK AO2 SLP112 T01390033

2010/08/10 10:54
KPZQ 101054Z AUTO 29005KT 1/4SM FG OVC001 21/20 A2998 RMK AO2

2010/08/10 10:54
KSBN 101054Z 00000KT 7SM SCT032 23/21 A2998 RMK AO2 SLP147 T02280206

2010/08/10 10:55
KTKV 101055Z AUTO 00000KT 3SM BR 13/12 A3003 RMK AO2 SKY OBSCURED T01270121

2010/08/10 10:56
PHNY 101056Z AUTO 01005KT 10SM CLR 20/17 A3013 RMK AO2 TSNO T02000172 SLP182 $

2010/08/10 10:55
KCKP 101055Z AUTO 06004KT 10SM TS -DZ BKN090 22/21 A2988 RMK AO2

2010/08/10 10:55
KVTI 101055Z AUTO 23005KT 7SM RA SCT008 BKN050 OVC090 23/23 A2997 RMK AO2

2010/08/10 10:56
PHNY 101056Z AUTO 01005KT 10SM CLR 20/17 A3013 RMK AO2 TSNO T02000172 SLP182 $

2010/08/10 10:50
LGPZ 101050Z 26010KT 9999 FEW025 30/23 Q1011 NOSIG BLU

2010/08/10 10:50
LCEN 101050Z 12008KT 9999 FEW025 36/21 Q1006 NOSIG

2010/08/10 10:50
ENBL 101050Z 22005KT 9999 FEW035 SCT050 17/10 Q1009

2010/08/10 10:50
ENOV 101050Z VRB02KT 9999 SCT012 BKN018 16/13 Q1010

2010/08/10 10:50
EGPA 101050Z 02005KT 9999 FEW012CB SCT020 16/12 Q1004

2010/08/10 10:50
EGPC 101050Z 11007KT 9999 VCSH FEW018CB 16/13 Q1004

2010/08/10 10:50
EGNH 101050Z 23017KT 9999 SCT027 17/11 Q1007

2010/08/10 10:50
EGNJ 101050Z 24018KT 9999 SCT045 20/08 Q1007

2010/08/10 10:50
EGAE 101050Z 30011KT 9999 -SHRA FEW015 SCT027 BKN040 15/11 Q1005

2010/08/10 10:50
EGNC 101050Z 22012G22KT 9999 VCSH FEW016 BKN025 14/11 Q1004

2010/08/10 10:50
EGPC 101050Z 11007KT 9999 VCSH FEW018CB 16/13 Q1004

2010/08/10 10:50
EGPE 101050Z 09007KT 9999 FEW015 SCT035TCU 15/10 Q1004

2010/08/10 10:50
EGPL 101050Z 36008KT 320V020 9999 FEW018 SCT024 17/11 Q1005

2010/08/10 10:50
EGPM 101050Z 10013KT 6000 VCSH SCT004 SCT006 15/14 Q1005 TEMPO SHRA BKN006

2010/08/10 10:50
EGPN 101050Z 24001KT 9999 FEW018CB SCT022 BKN048 16/11 Q1004

2010/08/10 10:50
EGPO 101050Z 05005KT 9999 VCSH FEW018 16/13 Q1005

2010/08/10 10:50
EGPU 101050Z 04013KT 9999 FEW018TCU SCT019 15/11 Q1004

2010/08/10 11:00
KNEL 101100Z AUTO 00000KT 5SM HZ FEW080 24/21 A2993 RMK AO2 SLP134 T02390206 $ 

2010/08/10 10:59
KSUX 101059Z 34011G21KT 10SM -RA FEW014 BKN047 OVC070 23/21 A2988

2010/08/10 10:59
KRWI 101059Z AUTO 22004KT 3SM BR SCT002 24/23 A3001

2010/08/10 10:58
KSLK 101058Z AUTO 00000KT 1/4SM FG FEW001 OVC010 18/17 A2998

2010/08/10 10:58
KFFO 101058Z 00000KT 4SM BR SCT250 23/21 A2998 RMK AO2A SLP146

2010/08/10 10:55
KLUF 101055Z AUTO 04005KT 10SM FEW120 28/15 A2981 RMK AO2 SLP065 T02830150 $

2010/08/10 10:56
KNSE 101056Z AUTO 03004KT 4SM HZ CLR 26/23 A2994 RMK AO2 SLP122 T02560228 $

2010/08/10 10:55
KTTS 101055Z 10005KT 10SM FEW025 SCT050 26/25 A2993 RMK SLP135 2CU 2SC /4/

2010/08/10 11:00
MHLC 101100Z 00000KT 9999 SCT024 24/23 Q1010 A2982 NOSIG

2010/08/10 11:00
MHLM 101100Z 00000KT 9999 SCT026 26/26 Q1010 A2983 NOSIG

2010/08/10 11:00
MHTG 101100Z 21003KT 9999 FEW006 18/17 Q1017 A3003 NOSIG

2010/08/10 10:56
MUCF 101056Z 00000KT 9999 BKN070 23/22 Q1012

2010/08/10 10:51
MUCL 101051Z 12003KT 9000 FEW015 SCT060 25/25 Q1013

2010/08/10 10:52
MUCM 101052Z 04004KT 010V070 9000 FEW018 24/23 Q1013

2010/08/10 10:52
MUCU 101052Z 35004KT 9000 FEW025 25/24 Q1014

2010/08/10 10:55
MUHA 101055Z 19005KT 8000 FEW035 BKN150 23/22 Q1011

2010/08/10 10:55
MUHG 101055Z 00000KT 5000 VCFG FEW020 24/22 Q1013

2010/08/10 10:52
MUVR 101052Z 17005KT 130V210 9000 FEW018 BKN060 23/20 Q1013

2010/08/10 11:00
MYGF 101100Z 14010KT 9999 BKN018 SCT100 27/24 A2994

2010/08/10 11:00
NTAA 101100Z 09004KT 9999 FEW020 22/17 Q1017 WS ALL RWY NOSIG

2010/08/10 11:00
OEDR 101100Z 13009KT 7000 SKC 41/16 Q0997 NOSIG

2010/08/10 11:00
OEMA 101100Z 21005KT 8000 SKC 45/M02 Q1005 NOSIG

2010/08/10 11:00
OERK 101100Z 05008KT 8000 NSC 44/04 Q1004 NOSIG

2010/08/10 11:00
OERY 101100Z 03003KT 8000 SKC 44/04 Q1004 NOSIG

2010/08/10 11:00
OJAI 101100Z 28008KT 7000 NSC 35/10 Q1009 NOSIG

2010/08/10 10:58
PAGA 101058Z AUTO 12007KT 10SM OVC110 13/11 A2958 RMK AO2 SLPNO T01330106

2010/08/10 11:00
TFFF 101100Z 09003KT 030V110 9999 FEW023 SCT300 27/25 Q1014 NOSIG

2010/08/10 11:00
TLPL 101100Z 15008KT 9999 FEW010 SCT024 28/25 Q1014

2010/08/10 10:55
TXKF 101055Z 19008KT 9999 FEW015 FEW180 27/23 Q1020

2010/08/10 11:00
WSAP 101100Z 11004KT 9999 FEW018 FEW020TCU SCT150 31/25 Q1006

2010/08/10 10:59
KJXN 101059Z 00000KT 3SM BR SCT001 OVC018 19/19 A3000

2010/08/10 10:59
KSUX 101059Z 34011G21KT 10SM -RA FEW014 BKN047 OVC070 23/21 A2988

2010/08/10 11:00
LUKK 101100Z 02010KT CAVOK 33/13 Q1013 08CLRD65 NOSIG

2010/08/10 11:00
TLPL 101100Z 15008KT 9999 FEW010 SCT024 28/25 Q1014

2010/08/10 11:00
DTTB 101100Z 17006KT CAVOK 35/07 Q1016

2010/08/10 11:00
DTTD 101100Z 11006KT CAVOK 30/11 Q1017

2010/08/10 11:00
DTTK 101100Z 18002KT CAVOK 35/09 Q1015

2010/08/10 11:00
DTTL 101100Z 11004KT CAVOK 31/12 Q1016

2010/08/10 11:00
DTTN 101100Z 05006KT CAVOK 36/13 Q1014

2010/08/10 11:00
DTTR 101100Z 04010KT CAVOK 35/02 Q1016

2010/08/10 11:00
DTTB 101100Z 17006KT CAVOK 35/07 Q1016

2010/08/10 11:00
DTTD 101100Z 11006KT CAVOK 30/11 Q1017

2010/08/10 11:00
DTTK 101100Z 18002KT CAVOK 35/09 Q1015

2010/08/10 11:00
DTTL 101100Z 11004KT CAVOK 31/12 Q1016

2010/08/10 11:00
DTTN 101100Z 05006KT CAVOK 36/13 Q1014

2010/08/10 11:00
DTTR 101100Z 04010KT CAVOK 35/02 Q1016

2010/08/10 11:00
VHHH 101100Z 16014KT 9999 FEW016 30/25 Q1005 NOSIG

2010/08/10 11:00
LDSP 101100Z 23010KT 190V260 9999 FEW028 31/13 Q1014 NOSIG 

2010/08/10 11:00
LDPL 101100Z 22004KT 080V330 CAVOK 29/18 Q1015 NOSIG 

2010/08/10 11:00
LDDU 101100Z VRB04KT CAVOK 29/11 Q1014 NOSIG 

2010/08/10 11:00
LDZA 101100Z VRB04KT 9999 FEW035 27/17 Q1017 NOSIG 

2010/08/10 11:00
LDZD 101100Z 26009KT 230V310 9999 FEW050 31/13 Q1014 NOSIG 

2010/08/10 11:00
LDRI 101100Z 28006KT 240V320 9999 FEW045 29/16 Q1015

2010/08/10 11:00
LDOS 101100Z 36003KT 9999 FEW033 27/15 Q1018

2010/08/10 11:00
GMAD 101100Z 27008KT 8000 NSC 27/20 Q1016 NOSIG

2010/08/10 11:00
GMFF 101100Z 3209KT 8000 FEW033 SCT100 38/09 Q1019 NOSIG

2010/08/10 11:00
GMME 101100Z 34006KT 300V360 6000 NSC 34/19 Q1016 NOSIG

2010/08/10 11:00
GMMX 101100Z 03004KT 340V090 8000 SCT100 39/13 Q1017 NOSIG

2010/08/10 11:00
GMTT 101100Z 06010KT CAVOK 35/12 Q1016 NOSIG

2010/08/10 11:00
YMAV 101100Z AUTO 35007KT 4000NDV // SCT014 07/07 Q1009

2010/08/10 11:00
YAMB 101100Z AUTO 20004KT 2100NDV // OVC003 18/18 Q1017

2010/08/10 11:00
YBCG 101100Z AUTO 05014KT 6000NDV // SCT008 BKN039 OVC058 20/19 Q1017

2010/08/10 11:00
LHBP 101100Z VRB03KT 9999 FEW045 SCT079 25/16 Q1018 NOSIG

2010/08/10 11:00
LZPP 101100Z 36002KT 9999 SCT036 25/13 Q1018

2010/08/10 11:00
LZSL 101100Z 20004KT 9999 SCT046 26/14 Q1017

2010/08/10 11:00
LZZI 101100Z 28003KT 170V350 9999 SCT030 24/13 Q1018

2010/08/10 11:00
GMFF 101100Z 3209KT 8000 FEW033 SCT100 38/09 Q1019 NOSIG

2010/08/10 11:00
GMFK 101100Z 16005KT CAVOK 36/16 Q1023

2010/08/10 11:00
GMFM 101100Z 30006KT CAVOK 38/10 Q1020

2010/08/10 11:00
GMFO 101100Z 01011KT 340V040 9999 FEW033 34/19 Q1019 NOSIG

2010/08/10 11:00
GMMH 101100Z 02015KT 8000 FEW010 BKN200 24/19 Q1015

2010/08/10 11:00
GMML 101100Z 03011KT 8000 FEW033 BKN100 28/19 Q1016

2010/08/10 11:00
GMMW 101100Z 00000KT CAVOK 32/19 Q1018

2010/08/10 11:00
GMMZ 101100Z VRB01KT 8000 FEW040 35/08 Q1025

2010/08/10 11:00
OJAI 101100Z 28008KT 7000 NSC 35/10 Q1009 NOSIG

2010/08/10 11:00
OJAM 101100Z 33005KT 5000 HZ NSC 34/13 Q1010 NOSIG

2010/08/10 11:00
OJAQ 101100Z 36018KT 7000 NSC 37/19 Q1004

2010/08/10 11:00
LBSF 101100Z VRB02MPS CAVOK 29/19 Q1016 NOSIG

2010/08/10 11:00
LBWN 101100Z 34006MPS 310V010 CAVOK 32/22 Q1011 WS RWY09 NOSIG

2010/08/10 11:00
LBBG 101100Z 35006MPS 310V020 CAVOK 32/22 Q1011 NOSIG

2010/08/10 11:00
LBPD 101100Z VRB02MPS CAVOK 31/18 Q1013 NOSIG

2010/08/10 11:00
LBGO 101100Z 30003MPS 250V350 CAVOK 29/18 Q1014 NOSIG

2010/08/10 11:00
UGTB 101100Z 24006KT 9999 SCT050 SCT100 33/11 Q1014 NOSIG RMK 13CLRD80

2010/08/10 11:00
UGKO 101100Z 27010KT 9999 SCT100 36/23 Q1009 NOSIG

2010/08/10 11:00
LZIB 101100Z VRB02KT 9999 SCT040 25/15 Q1018

2010/08/10 11:00
LZKZ 101100Z 23003KT 160V330 9999 SCT042 25/12 Q1017 NOSIG

2010/08/10 11:00
LZTT 101100Z VRB02KT 9999 SCT046 22/12 Q1018 NOSIG

2010/08/10 11:00
OJAI 101100Z 28008KT 7000 NSC 35/10 Q1009 NOSIG

2010/08/10 11:00
OJAM 101100Z 33005KT 5000 HZ NSC 34/13 Q1010 NOSIG

2010/08/10 11:00
OJAQ 101100Z 36018KT 7000 NSC 37/19 Q1004

2010/08/10 10:54
KACY 101054Z 23005KT 10SM CLR 24/22 A2994 RMK AO2 SLP138 T02440222 $

2010/08/10 10:56
KCHS 101056Z 00000KT 10SM FEW025 26/25 A3002 RMK AO2 SLP164 T02560250

2010/08/10 10:55
KMCF 101055Z AUTO 07012KT 10SM SCT009 25/25 A2987 RMK AO2 SLP116 T02500248

2010/08/10 10:56
KNBC 101056Z 36003KT 6SM BR SCT020 SCT080 BKN250 24/23 A3000 RMK AO2 SLP160 T02440233

2010/08/10 10:55
KNBG 101055Z AUTO 00000KT 1/2SM FG CLR 24/23 A2994 RMK AO2 SLP137 T02440233 PWINO $

2010/08/10 10:56
KNCA 101056Z 25003KT 10SM FEW025 SCT150 24/24 A3003 RMK AO2 SLP169 T02440239 $

2010/08/10 10:56
KNGP 101056Z 20003KT 10SM FEW015 28/25 A2987 RMK AO2 SLP114 T02820250 $

2010/08/10 10:57
KNJM 101057Z AUTO 26003KT 10SM CLR 27/25 A3002 RMK AO2 SLP169 T02670250

2010/08/10 10:56
KNPA 101056Z 01007KT 8SM SCT280 26/24 A2992 RMK AO2 SLP132 T02610239

2010/08/10 10:56
KNTU 101056Z 24005KT 10SM FEW050 SCT200 24/23 A2997 RMK AO2 SLP152 T02440233 $

2010/08/10 10:55
KPAM 101055Z AUTO 07005KT 10SM CLR 25/24 A2991 RMK AO2 SLP130 T02510242 $

2010/08/10 10:56
MUGM 101056Z 36007KT 9999 FEW028CB BKN250 26/23 A2992 RMK SLP130 CB DSNT E TCU DSNT NE T02560228

2010/08/10 11:00
MYGF 101100Z 14010KT 9999 BKN018 SCT100 27/24 A2994

2010/08/10 11:00
MYNN 101100Z 17007KT 9999 SCT020 SCT050 OVC080 27/26 A2993

2010/08/10 11:00
TBPB 101100Z 15005KT 9999 FEW020 SCT280 27/24 Q1014 NOSIG

2010/08/10 11:00
TFFF 101100Z 09003KT 030V110 9999 FEW023 SCT300 27/25 Q1014 NOSIG

2010/08/10 10:55
TXKF 101055Z 19008KT 9999 FEW015 FEW180 27/23 Q1020

2010/08/10 11:00
SBGR 101100Z 14005KT 5000 BR FEW006 13/13 Q1026

2010/08/10 11:00
SBCG 101100Z 13008KT CAVOK 15/11 Q1021

2010/08/10 10:55
EBBL 101055Z 21006KT 9999 BKN190 23/13 Q1014 BLU BLU

2010/08/10 10:55
EBFN 101055Z 20013KT 9999 FEW015 SCT022 BKN050 21/15 Q1012 WHT WHT

2010/08/10 10:50
EGAE 101050Z 30011KT 9999 -SHRA FEW015 SCT027 BKN040 15/11 Q1005

2010/08/10 10:50
EGNC 101050Z 22012G22KT 9999 VCSH FEW016 BKN025 14/11 Q1004

2010/08/10 10:50
EGNH 101050Z 23017KT 9999 SCT027 17/11 Q1007

2010/08/10 10:50
EGNJ 101050Z 24018KT 9999 SCT045 20/08 Q1007

2010/08/10 10:50
EGOP 101050Z AUTO 22003KT 6000NDV HZ BKN005/// 15/13 Q1009

2010/08/10 10:50
EGPE 101050Z 09007KT 9999 FEW015 SCT035TCU 15/10 Q1004

2010/08/10 10:50
EGPN 101050Z 24001KT 9999 FEW018CB SCT022 BKN048 16/11 Q1004

2010/08/10 10:50
EGVN 101050Z 24007KT 9999 -RA SCT014 SCT050 BKN080 16/12 Q1010 GRN NOSIG

2010/08/10 10:50
EKSN 101050Z 21008KT 9999 SCT032 22/10 Q1013

2010/08/10 10:50
ENBL 101050Z 22005KT 9999 FEW035 SCT050 17/10 Q1009

2010/08/10 10:50
ENBS 101050Z 03005KT 9999 BKN036 12/07 Q1012

2010/08/10 10:50
ENOV 101050Z VRB02KT 9999 SCT012 BKN018 16/13 Q1010

2010/08/10 11:00
LBBG 101100Z 35006MPS 310V020 CAVOK 32/22 Q1011 NOSIG

2010/08/10 11:00
LBGO 101100Z 30003MPS 250V350 CAVOK 29/18 Q1014 NOSIG

2010/08/10 11:00
LBPD 101100Z VRB02MPS CAVOK 31/18 Q1013 NOSIG

2010/08/10 11:00
LBSF 101100Z VRB02MPS CAVOK 29/19 Q1016 NOSIG

2010/08/10 11:00
LBWN 101100Z 34006MPS 310V010 CAVOK 32/22 Q1011 WS RWY09 NOSIG

2010/08/10 11:00
LDDU 101100Z VRB04KT CAVOK 29/11 Q1014 NOSIG

2010/08/10 11:00
LDPL 101100Z 22004KT 080V330 CAVOK 29/18 Q1015 NOSIG

2010/08/10 11:00
LDRI 101100Z 28006KT 240V320 9999 FEW045 29/16 Q1015

2010/08/10 11:00
LDSP 101100Z 23010KT 190V260 9999 FEW028 31/13 Q1014 NOSIG

2010/08/10 11:00
LDZA 101100Z VRB04KT 9999 FEW035 27/17 Q1017 NOSIG

2010/08/10 11:00
LDZD 101100Z 26009KT 230V310 9999 FEW050 31/13 Q1014 NOSIG

2010/08/10 11:00
LHBP 101100Z VRB03KT 9999 FEW045 SCT079 25/16 Q1018 NOSIG

2010/08/10 11:00
LZIB 101100Z VRB02KT 9999 SCT040 25/15 Q1018

2010/08/10 11:00
LZTT 101100Z VRB02KT 9999 SCT046 22/12 Q1018 NOSIG

2010/08/10 11:00
SBBE 101100Z 08007KT CAVOK 27/23 Q1013

2010/08/10 11:00
SBCT 101100Z 05002KT 8000 BKN005 OVC009 09/08 Q1027

2010/08/10 11:00
SBCZ 101100Z 00000KT 5000 FU NSC 20/20 Q1014

2010/08/10 11:00
SBEG 101100Z 35002KT 5000 BR FEW010 23/22 Q1014

2010/08/10 11:00
SBFZ 101100Z 16013KT 9999 SCT018 BKN090 26/20 Q1016

2010/08/10 11:00
SBGO 101100Z 12007KT CAVOK 17/11 Q1022

2010/08/10 11:00
SBGR 101100Z 14005KT 5000 BR FEW006 13/13 Q1026

2010/08/10 11:00
SBKP 101100Z 12009KT 7000 NSC 14/11 Q1025

2010/08/10 11:00
SBLO 101100Z 14006KT CAVOK 12/11 Q1023

2010/08/10 11:00
SBMA 101100Z 00000KT 8000 NSC 26/21 Q1014

2010/08/10 11:00
SBMN 101100Z 34003KT 9999 FEW015 26/23 Q1013

2010/08/10 11:00
SBMQ 101100Z 33003KT 9999 SCT015 BKN090 26/25 Q1014

2010/08/10 11:00
SBNT 101100Z 15008KT 9999 BKN025 BKN070 24/22 Q1017

2010/08/10 11:00
SBPA 101100Z 08001KT 0200 R11/0300 R29/0300 FG OVC002 05/05 Q1029

2010/08/10 11:00
SBPB 101100Z 11007KT CAVOK 27/23 Q1014

2010/08/10 11:00
SBPK 101100Z 29002KT CAVOK 05/04 Q1029

2010/08/10 11:00
SBPL 101100Z 14010KT 9999 FEW017 22/17 Q1021

2010/08/10 11:00
SBPV 101100Z 00000KT 5000 BR NSC 21/19 Q1013

2010/08/10 11:00
SBRB 101100Z 00000KT 3000 FU NSC 21/19 Q1015

2010/08/10 11:00
SBRF 101100Z 15014KT CAVOK 27/17 Q1018

2010/08/10 11:00
SBRJ 101100Z 16004KT 9999 FEW005 BKN030 BKN070 21/17 Q1025

2010/08/10 11:00
SBRP 101100Z 12008KT 2000 BR NSC 15/12 Q1022

2010/08/10 11:00
SBSJ 101100Z 12004KT 5000 BR BKN010 BKN070 16/13 Q1026

2010/08/10 11:00
SBSN 101100Z 00000KT CAVOK 27/23 Q1013

2010/08/10 11:00
SBSV 101100Z 11004KT 9999 FEW017 24/21 Q1020

2010/08/10 11:00
SBTE 101100Z 20004KT CAVOK 26/19 Q1015

2010/08/10 11:00
SBTT 101100Z 00000KT 5000 BR NSC 23/21 Q1013

2010/08/10 11:00
SBUG 101100Z 16005KT CAVOK 03/02 Q1026

2010/08/10 11:00
SBVT 101100Z 20010KT 9999 SCT020 BKN100 24/19 Q1024

2010/08/10 11:00
SOCA 101100Z VRB02KT 9999 FEW003 SCT021 BKN110 24/23 Q1014 NOSIG

2010/08/10 11:00
SCIE 101100Z 18004KT CAVOK 01/00 Q1016

2010/08/10 11:00
SCTC 101100Z 07003KT 0100 FG VV/// 01/01 Q1018

2010/08/10 11:00
SCTE 101100Z 16010KT 9999 OVC006 07/06 Q1021 NOSIG

2010/08/10 11:00
SCON 101100Z AUTO VRB02KT CAVOK 04/03 Q1022

2010/08/10 11:00
SCFT 101100Z AUTO 00000KT 0900 R/////// FG VV001 M01/M02 Q1024

2010/08/10 11:00
SCBA 101100Z AUTO 22005KT 200V260 CAVOK M02/M04 Q1020

2010/08/10 11:00
SCCI 101100Z 33005KT 9999 FEW016 SCT200 04/00 Q1002 NOSIG

2010/08/10 11:00
SCAR 101100Z 08006KT 9000 SKC 09/05 Q1016

2010/08/10 11:00
SCDA 101100Z 14008KT 9000 BKN020 13/08 Q1017

2010/08/10 11:00
SCCF 101100Z 09027KT CAVOK 00/M16 Q1025

2010/08/10 11:00
SCFA 101100Z 26003KT 230V300 9999 OVC019 12/07 Q1017 NOSIG

2010/08/10 11:00
SCIP 101100Z 33011KT 9999 SCT020 19/15 Q1016

2010/08/10 11:00
SCAT 101100Z 03004KT 340V050 7000 OVC015 11/07 Q1018

2010/08/10 11:00
SCSE 101100Z 30002KT 9999 OVC015 10/08 Q1017 NEFO PLAYA 1800FT

2010/08/10 11:00
SCVM 101100Z 12004KT 3000 BR OVC040 06/06 Q1016

2010/08/10 11:00
SCIE 101100Z 18004KT CAVOK 01/00 Q1016

2010/08/10 11:02
CYQA 101102Z AUTO 00000KT 1 1/2SM BR SCT002 OVC008 20/20 A2995 RMK SLP142 DENSITY ALT 1600FT

2010/08/10 11:01
YBCS 101101Z 00000KT 9999 FEW003 BKN017 BKN025 24/23 Q1015

2010/08/10 11:01
YBCS 101101Z 00000KT 9999 FEW003 BKN017 BKN025 24/23 Q1015

2010/08/10 10:50
ETUO 101050Z AUTO 22004KT 9999NDV // FEW050/// 25/12 Q1014

2010/08/10 11:00
SUMU 101100Z 01004KT 3000 BR NSC 01/01 Q1028 BECMG FM 1130Z CAVOK

2010/08/10 11:00
SUDU 101100Z 00000KT CAVOK M00/M01 Q1027

2010/08/10 11:00
SUSO 101100Z 13008KT CAVOK 03/01 Q1027

2010/08/10 11:00
SULS 101100Z 00000KT CAVOK 02/01 Q1028

2010/08/10 11:00
SUAA 101100Z 36007KT 1500 BR SKC 04/03 Q1028

2010/08/10 11:00
SUCA 101100Z VRB03KT CAVOK 08/05 Q1026

2010/08/10 11:00
SCAR 101100Z 08006KT 9000 SKC 09/05 Q1016

2010/08/10 11:00
SCDA 101100Z 14008KT 9000 BKN020 13/08 Q1017

2010/08/10 11:00
SCFA 101100Z 26003KT 230V300 9999 OVC019 12/07 Q1017 NOSIG

2010/08/10 11:00
SCCF 101100Z 09027KT CAVOK 00/M16 Q1025

2010/08/10 11:00
SCAT 101100Z 03004KT 340V050 7000 OVC015 11/07 Q1018

2010/08/10 11:00
SCIP 101100Z 33011KT 9999 SCT020 19/15 Q1016

2010/08/10 11:00
SCSE 101100Z 30002KT 9999 OVC015 10/08 Q1017 NEFO PLAYA 1800FT

2010/08/10 11:00
SCIE 101100Z 18004KT CAVOK 01/00 Q1016

2010/08/10 11:00
SCTC 101100Z 07003KT 0100 FG VV/// 01/01 Q1018

2010/08/10 11:00
SCTE 101100Z 16010KT 9999 OVC006 07/06 Q1021 NOSIG

2010/08/10 11:00
SCBA 101100Z AUTO 22005KT 200V260 CAVOK M02/M04 Q1020

2010/08/10 11:00
SCCI 101100Z 33005KT 9999 FEW016 SCT200 04/00 Q1002 NOSIG

2010/08/10 11:00
SCEL 101100Z 32002KT 6000 NSC 02/00 Q1015 NOSIG

2010/08/10 11:00
FLLS 101100Z 08010KT CAVOK 26/05 Q1024

2010/08/10 11:00
SCEL 101100Z 32002KT 6000 NSC 02/00 Q1015 NOSIG

2010/08/10 11:00
AYMO 101100Z AUTO 19005KT //// // ////// 28/25 Q1012

2010/08/10 11:00
AYPY 101100Z 00000KT 9999 SCT040 BKN280 26/25 Q1011 RMKS

2010/08/10 11:01
KAQW 101101Z AUTO 00000KT 1 1/4SM BR BKN017 BKN025 21/20 A2996 RMK AO2

2010/08/10 11:01
KBGM 101101Z 00000KT 1/2SM FG BKN060 BKN080 OVC100 20/19 A3001 RMK AO2 RVRNO

2010/08/10 11:01
KBML 101101Z AUTO 00000KT 2SM BR OVC003 16/16 A2996 RMK AO2 CIG 001V004

2010/08/10 11:00
KCWF 101100Z 00000KT 10SM SKC 26/26 A2994 RMK FIRST

2010/08/10 11:01
KHTS 101101Z 00000KT 2 1/2SM BR CLR 21/20 A3000 RMK AO2

2010/08/10 11:01
KIAG 101101Z 00000KT 1SM BR FEW032 SCT044 BKN100 BKN200 21/21 A2994 RMK AO2

2010/08/10 11:01
KMKL 101101Z AUTO 00000KT 2SM BR CLR 24/23 A2996 RMK AO2

2010/08/10 11:01
KMSL 101101Z AUTO 00000KT 5SM BR FEW001 24/23 A3000 RMK AO2

2010/08/10 11:00
PATQ 101100Z AUTO 07016KT 1 1/4SM -RA BR OVC005 02/02 A2979 RMK AO2 TSNO RAB00 P0000 $

2010/08/10 11:00
PASN 101100Z 27009KT 1/2SM FG BKN001 OVC008 08/08 A2945 RMK AO2

2010/08/10 11:00
PATQ 101100Z AUTO 07016KT 1 1/4SM -RA BR OVC005 02/02 A2979 RMK AO2 TSNO RAB00 P0000 $

2010/08/10 11:00
K3A1 101100Z AUTO 06003KT 7SM CLR 25/23 A3002 RMK AO2 T02450232 TSNO

2010/08/10 11:02
K47A 101102Z AUTO 00000KT 5SM HZ CLR 24/22 A3007 RMK AO2

2010/08/10 10:58
K4A9 101058Z AUTO 01003KT 3SM BR CLR 23/22 A3002 RMK AO2 T02310217

2010/08/10 11:00
K4R4 101100Z AUTO 00000KT 4SM BR CLR 26/25 A2994 RMK AO2 T02610248

2010/08/10 11:00
KASJ 101100Z AUTO 00000KT 3SM BR CLR 23/21 A3000 RMK AO2

2010/08/10 11:00
KAVC 101100Z AUTO 00000KT 5SM BR CLR 23/23 A3004 RMK AO2

2010/08/10 11:00
KBCB 101100Z AUTO 00000KT 3SM CLR 21/21 A3012 RMK AO2 PWINO

2010/08/10 10:59
KCJR 101059Z AUTO 00000KT 1SM BR VV007 22/21 A2997 RMK AO2

2010/08/10 11:00
KCPK 101100Z AUTO 18004KT 5SM BR 22/22 A2999 RMK AO2

2010/08/10 11:00
KDPL 101100Z AUTO 00000KT 10SM BKN001 BKN005 23/22 A3003 RMK AO2

2010/08/10 11:00
KDQH 101100Z AUTO 07003KT 10SM CLR 26/23 A2999 RMK AO1

2010/08/10 10:59
KEDE 101059Z AUTO 27005KT 10SM SCT008 26/24 A2998 RMK AO2

2010/08/10 11:00
KEXX 101100Z AUTO 00000KT 2 1/2SM BR CLR 22/22 A3004 RMK AO2

2010/08/10 11:00
KFQD 101100Z AUTO 00000KT 2SM BR CLR 22/22 A3005 RMK AO2

2010/08/10 11:01
KFYJ 101101Z AUTO 00000KT 10SM CLR 26/23 A2997 RMK AO1

2010/08/10 11:00
KHBI 101100Z AUTO 00000KT 5SM BR CLR 23/22 A3007 RMK AO2

2010/08/10 10:59
KHDC 101059Z AUTO 00000KT 1 1/2SM BR 25/25 A2996 RMK AO2

2010/08/10 11:00
KHQU 101100Z AUTO 00000KT 2 1/2SM CLR 21/19 A3006 RMK AO1

2010/08/10 10:59
KHRJ 101059Z AUTO 00000KT 1/4SM FG OVC002 24/23 A3002 RMK AO2

2010/08/10 10:59
KJNX 101059Z AUTO 00000KT 10SM OVC003 22/22 A3002 RMK AO2

2010/08/10 11:01
KMFV 101101Z AUTO 25003KT 3SM BR CLR 25/24 A2997 RMK AO2

2010/08/10 11:00
KONX 101100Z AUTO 23003KT 10SM CLR 24/23 A3000 RMK AO2

2010/08/10 11:01
KPTB 101101Z AUTO 20004KT 7SM CLR 26/ A2997 RMK AO2

2010/08/10 11:00
KUKF 101100Z AUTO 30003KT 1 1/2SM VV007 21/21 A3008 RMK AO1

2010/08/10 10:55
KVVG 101055Z AUTO 09006KT 24/24 A2991 RMK AO2

2010/08/10 10:56
PAVC 101056Z AUTO 20017KT 4SM BR 09/08 A2971 RMK AO2 PWINO TSNO T00880077 SLP060 $

2010/08/10 10:56
KY70 101056Z AUTO 26003KT M1/4SM FG OVC001 20/19 A2999 RMK AO2 T01950190

2010/08/10 11:00
SBCG 101100Z 13008KT CAVOK 15/11 Q1021

2010/08/10 11:00
SBSP 101100Z 15005KT 5000 BR BKN007 14/12 Q1027

2010/08/10 11:00
SMJP 101100Z 00000KT 9999 FEW012 SCT030 25/23 Q1014 NOSIG

2010/08/10 11:00
LQBK 101100Z 05004KT 9999 FEW033 27/17 Q1017 NOSIG

2010/08/10 10:55
EHEH 101055Z AUTO 20007KT 9999NDV OVC170 22/14 Q1013 BLU BLU NOSIG

2010/08/10 10:55
EHKD 101055Z AUTO 20016KT 9999NDV SCT014/// BKN018/// OVC024/// 19/15 Q1011 GRN WHT TEMPO GRN TEMPO SCT012 SCT015CB BKN020

2010/08/10 10:50
EGBJ 101050Z 22007KT 9000 -SHRA FEW010 SCT020 16/13 Q1009

2010/08/10 10:55
PWAK 101055Z 07011KT 10SM FEW023 28/24 A3006 RMK AO2A 

2010/08/10 10:50
EGVN 101050Z 24007KT 9999 -RA SCT014 SCT050 BKN080 16/12 Q1010 NOSIG

2010/08/10 10:50
EGAE 101050Z 30011KT 9999 -SHRA FEW015 SCT027 BKN040 15/11 Q1005

2010/08/10 10:50
EGNC 101050Z 22012G22KT 9999 VCSH FEW016 BKN025 14/11 Q1004

2010/08/10 10:50
EGNH 101050Z 23017KT 9999 SCT027 17/11 Q1007

2010/08/10 10:50
EGNJ 101050Z 24018KT 9999 SCT045 20/08 Q1007

2010/08/10 10:50
EGNR 101050Z 24012KT 210V280 9999 FEW020 BKN028 19/10 Q1008

2010/08/10 10:50
EGPE 101050Z 09007KT 9999 FEW015 SCT035TCU 15/10 Q1004

2010/08/10 10:50
EGPI 101050Z 29013KT 9999 SCT025 15/11 Q1004

2010/08/10 10:50
EGPN 101050Z 24001KT 9999 FEW018CB SCT022 BKN048 16/11 Q1004

2010/08/10 10:50
EGDL 101050Z 22006KT 4500 RADZ BKN006 BKN011 OVC030 14/13 Q1010 BECMG 5000 -RADZ BKN007

2010/08/10 10:50
EGDM 101050Z 23008KT 7000 -RADZ BKN008 BKN040 16/13 Q1011 BECMG 3500 BKN006

2010/08/10 10:50
EGDY 101050Z 14006KT 9999 -RA BKN009 BKN030 14/14 Q1010

2010/08/10 10:50
EGOV 101050Z 23018KT 9999 FEW025 BKN045 16/13 Q1007 NOSIG

2010/08/10 10:50
EGUB 101050Z 20010KT 9999 -RA FEW015 BKN070 16/12 Q1010 TEMPO 6000 SCT014

2010/08/10 10:50
EGVN 101050Z 24007KT 9999 -RA SCT014 SCT050 BKN080 16/12 Q1010 NOSIG

2010/08/10 10:50
EGWU 101050Z 24008KT 9999 BKN013 BKN050 16/13 Q1010 BECMG BKN015

2010/08/10 10:50
EGXC 101050Z 24012KT 9999 FEW030 SCT050 19/09 Q1007 NOSIG

2010/08/10 10:50
EGXT 101050Z 22009KT 9999 FEW015 BKN120 16/13 Q1008 NOSIG

2010/08/10 10:50
EGYD 101050Z 25014KT 9999 FEW035 19/11 Q1008 NOSIG

2010/08/10 11:01
YBCS 101101Z 00000KT 9999 FEW003 BKN017 BKN025 24/23 Q1015

2010/08/10 11:00
UBBN 101100Z 14006KT 9999 FEW100 37/04 Q1008 R14R/CLRD60 NOSIG RMK G/O QFE682

2010/08/10 10:55
EHAK 101055Z AUTO 19015KT 3400NDV SHRA +DZ FEW004/// SCT014/// BKN021/// 16/15 Q1007 RERADZ

2010/08/10 10:55
EHDV 101055Z AUTO 24015KT 200V290 9999NDV FEW007/// SCT040/// 16/14 Q1007

2010/08/10 10:55
EHFD 101055Z AUTO 18022KT 9999NDV FEW007/// SCT009/// BKN011/// 18/16 Q1009

2010/08/10 10:55
EHFZ 101055Z AUTO 20033KT 6000NDV -RA FEW003/// SCT004/// BKN005/// 17/16 Q1008 REDZRA

2010/08/10 10:55
EHJA 101055Z AUTO 22015KT 9999NDV -RA FEW004/// SCT017/// BKN034/// 15/13 Q1008

2010/08/10 10:55
EHKV 101055Z AUTO 24020KT 9999NDV FEW006/// SCT009/// BKN013/// 16/14 Q1009

2010/08/10 10:55
EHPG 101055Z AUTO 20023KT 160V250 9999NDV FEW008/// BKN012/// OVC015/// 18/16 Q1010

2010/08/10 10:55
EHQE 101055Z AUTO 21024KT 9999NDV SCT000/// OVC018/// 18/15 Q1010

2010/08/10 10:50
EKSN 101050Z 21008KT 9999 SCT032 22/10 Q1013

2010/08/10 10:50
EGPA 101050Z 02005KT 9999 FEW012CB SCT020 16/12 Q1004

2010/08/10 10:50
EGPC 101050Z 11007KT 9999 VCSH FEW018CB 16/13 Q1004

2010/08/10 10:50
EGPL 101050Z 36008KT 320V020 9999 FEW018 SCT024 17/11 Q1005

2010/08/10 10:50
EGPO 101050Z 05005KT 9999 VCSH FEW018 16/13 Q1005

2010/08/10 10:50
EGPU 101050Z 04013KT 9999 FEW018TCU SCT019 15/11 Q1004

2010/08/10 11:00
SBJP 101100Z 18010KT 9999 SCT020 BKN070 26/21 Q1018 

2010/08/10 11:00
MGHT 101100Z 00000KT 9999 SCT015 BKN200 15/14 QFE 817.2

2010/08/10 11:00
MGPB 101100Z 00000KT 9999 FEW016 SCT090 26/25 Q1010 A2983 CB/LTN G DIST NNW

2010/08/10 11:00
MGGT 101100Z 03008KT 9999 BKN014 18/16 Q1022 A3018 VOL. PACAYA EN ACTIVIDAD NOSIG

2010/08/10 11:00
MGSJ 101100Z 00000KT 9999 FEW016 BKN200 24/24 Q1012 A2988

2010/08/10 11:00
OPKC 101100Z 24011KT 7000 FEW020 SCT030 32/25 Q1001 TEMPO 2000 TSRA FEW025CB

2010/08/10 10:55
OPLA 101055Z 21006KT 4000 FU SCT040 BKN100 32/27 Q1002 TEMPO 33030KT 2500 TSRA FEW030CB

2010/08/10 11:00
OPPS 101100Z 27008KT 4000 TS SCT008ST FEW030CB SCT030 OVC100 30/23 Q1002.1

2010/08/10 11:00
WSSS 101100Z 15010KT 9999 FEW016TCU BKN180 BKN300 30/26 Q1007 NOSIG

2010/08/10 11:00
OMAA 101100Z 31010KT CAVOK 45/15 Q0997 A2945 NOSIG

2010/08/10 11:00
OMAL 101100Z VRB06KT 9999 FEW045 43/12 Q1000 A2955

2010/08/10 11:00
OMDB 101100Z 36011KT 340V050 9999 FEW040 40/24 Q0998 NOSIG

2010/08/10 11:00
OMDW 101100Z 33015KT 8000 NSC 43/18 Q0999 TEMPO 5000 DU

2010/08/10 11:00
OMFJ 101100Z 09008KT 040V130 8000 NSC 34/28 Q1001 A2955

2010/08/10 11:00
OMRK 101100Z 33008KT CAVOK 43/25 Q0997 A2946

2010/08/10 11:00
OMSJ 101100Z 01011KT 340V050 6000 NSC 41/22 Q0998

2010/08/10 11:00
LWSK 101100Z 03007KT 350V070 CAVOK 30/12 Q1015 NOSIG

2010/08/10 11:00
SCEL 101100Z 32002KT 6000 NSC 02/00 Q1015 NOSIG

2010/08/10 11:02
KRTN 101102Z AUTO 05004KT 10SM CLR 12/11 A3020 RMK AO2 TSNO 

2010/08/10 11:00
DNMM 101100Z 24013KT 9999 BKN011 28/23 Q1015 NOSIG

2010/08/10 11:00
FLLS 101100Z 08010KT CAVOK 26/05 Q1024

2010/08/10 11:01
CZUM 101101Z AUTO 29011KT 9SM BKN013 OVC036 OVC059 12/09 A2968

2010/08/10 11:00
UGTB 101100Z 24006KT 9999 SCT050 SCT100 33/11 Q1014 NOSIG RMK 13CLRD80

2010/08/10 11:00
UGKO 101100Z 27010KT 9999 SCT100 36/23 Q1009 NOSIG

2010/08/10 11:00
UKBB 101100Z 12003MPS 050V150 9999 FEW033CB 28/18 Q1015 88CLRD95 NOSIG

2010/08/10 11:00
UKHH 101100Z 12004MPS 060V170 9999 SCT046 BKN200 38/06 Q1013 080///65 NOSIG

2010/08/10 11:00
UKOO 101100Z 05004MPS 010V110 CAVOK 37/15 Q1011 34090070 NOSIG

2010/08/10 11:00
UKDE 101100Z 16005MPS 110V210 9999 FEW050 SCT100 39/10 Q1011 20CLRD70 NOSIG

2010/08/10 11:00
UKDD 101100Z 14004MPS 110V210 CAVOK 38/14 Q1012 08090070 NOSIG

2010/08/10 11:00
UKFF 101100Z 04007MPS 360V080 CAVOK 37/16 Q1008 01010070 NOSIG

2010/08/10 11:00
UKLL 101100Z 26003MPS 220V330 9999 BKN033 24/16 Q1018 31090070 NOSIG

2010/08/10 11:00
UKCC 101100Z 12006MPS 090V160 CAVOK 39/04 Q1013 08090070 NOSIG

2010/08/10 11:00
UKDR 101100Z 01005MPS 330V080 CAVOK 37/14 Q1012 3609//70 NOSIG

2010/08/10 11:00
WSSL 101100Z 09003KT 060V120 9999 FEW018TCU SCT160 BKN300 31/24 Q1006 RMK 1030Z Q1006 

2010/08/10 10:58
YBRK 101058Z 26011KT 2000 SHRA FEW008 BKN015 20/19 Q1017 RESHRA

2010/08/10 11:00
YMML 101100Z 36008KT 7000 -RA SCT011 SCT028 OVC055 08/07 Q1010 FM1100 29008KT 9000 -RA SCT006 BKN010 INTER 1100/1130 4000 RA BKN008 INTER 1130/1400 4000 RA BKN005

2010/08/10 11:00
YSRI 101100Z AUTO 00000KT 2000NDV // OVC014 12/12 Q1012

2010/08/10 11:00
YMML 101100Z 36008KT 7000 -RA SCT011 SCT028 OVC055 08/07 Q1010 FM1100 29008KT 9000 -RA SCT006 BKN010 INTER 1100/1130 4000 RA BKN008 INTER 1130/1400 4000 RA BKN005

2010/08/10 11:00
YMHB 101100Z 11007KT 7000 -SHRA FEW020 SCT040 BKN050 12/10 Q1021

2010/08/10 11:00
YMHB 101100Z 11007KT 7000 -SHRA FEW020 SCT040 BKN050 12/10 Q1021

2010/08/10 11:00
FMMI 101100Z 19007KT 170V250 9999 SCT023 25/11 Q1024 NOSIG

2010/08/10 10:50
EGAE 101050Z 30011KT 9999 -SHRA FEW015 SCT027 BKN040 15/11 Q1005

2010/08/10 10:50
EGBJ 101050Z 22007KT 9000 -SHRA FEW010 SCT020 16/13 Q1009

2010/08/10 10:50
EGNC 101050Z 22012G22KT 9999 VCSH FEW016 BKN025 14/11 Q1004

2010/08/10 10:50
EGNH 101050Z 23017KT 9999 SCT027 17/11 Q1007

2010/08/10 10:50
EGNJ 101050Z 24018KT 9999 SCT045 20/08 Q1007

2010/08/10 10:50
EGOM 101050Z 21014KT 9999 SHRA BKN018 SCT030 13/10 Q1004 WHT

2010/08/10 10:50
EGOP 101050Z AUTO 22003KT 6000NDV HZ BKN005/// 15/13 Q1009

2010/08/10 10:50
EGPA 101050Z 02005KT 9999 FEW012CB SCT020 16/12 Q1004

2010/08/10 10:50
EGPC 101050Z 11007KT 9999 VCSH FEW018CB 16/13 Q1004

2010/08/10 10:50
EGPE 101050Z 09007KT 9999 FEW015 SCT035TCU 15/10 Q1004

2010/08/10 10:50
EGPL 101050Z 36008KT 320V020 9999 FEW018 SCT024 17/11 Q1005

2010/08/10 10:50
EGPN 101050Z 24001KT 9999 FEW018CB SCT022 BKN048 16/11 Q1004

2010/08/10 10:50
EGPO 101050Z 05005KT 9999 VCSH FEW018 16/13 Q1005

2010/08/10 10:50
EGPU 101050Z 04013KT 9999 FEW018TCU SCT019 15/11 Q1004

2010/08/10 10:50
EGTC 101050Z 24009KT 9999 SCT016 16/12 Q1009

2010/08/10 10:55
EGVA 101055Z AUTO 23011KT 9999 -RA BKN014 16/13 A2982 RMK AO2 RAE1000B1051DZB1042E1051 CIG 013V018 SLP099 P0000 T01570133 $

2010/08/10 10:50
EGVN 101050Z 24007KT 9999 -RA SCT014 SCT050 BKN080 16/12 Q1010 GRN NOSIG

2010/08/10 10:50
EGWC 101050Z 24006KT 9999 FEW022 BKN027 18/09 Q1009 BLU

2010/08/10 10:50
EGXJ 101050Z 23014KT 9999 SCT025 SCT250 18/11 Q1008 BLU NOSIG

2010/08/10 10:50
EGXX 101050Z 22016KT 9999 SCT035 18/10 Q1007 BLU

2010/08/10 10:50
EGXZ 101050Z 24012KT 9999 FEW031 BKN060 17/08 Q1006 BLU

2010/08/10 10:55
EBBL 101055Z 21006KT 9999 BKN190 23/13 Q1014 BLU BLU

2010/08/10 10:55
EBFN 101055Z 20013KT 9999 FEW015 SCT022 BKN050 21/15 Q1012 WHT WHT

2010/08/10 10:55
EBFS 101055Z 24009KT 9999 FEW060 SCT130 BKN200 20/12 Q1015 BLU BLU

2010/08/10 10:50
EDHL 101050Z 16008KT 130V190 9999 SCT041 22/15 Q1014 RMK Q

2010/08/10 10:50
EDLN 101050Z 18005KT 110V260 CAVOK 26/16 Q1013 RMK ATIS M

2010/08/10 10:50
EDLP 101050Z 22008KT CAVOK 24/10 Q1015 RMK RWY24 TRL60 HS ATIS R

2010/08/10 10:50
EDLW 101050Z 21011KT 180V250 CAVOK 25/12 Q1014 RMK ATIS P

2010/08/10 10:50
EDNY 101050Z VRB03KT 9999 SCT055 23/13 Q1018 RMK ATIS N

2010/08/10 10:50
EDXW 101050Z 16016KT CAVOK 21/13 Q1012 RMK ATIS INFO J

2010/08/10 10:55
EHKD 101055Z AUTO 20016KT 9999NDV SCT014/// BKN018/// OVC024/// 19/15 Q1011 GRN WHT TEMPO GRN TEMPO SCT012 SCT015CB BKN020

2010/08/10 10:50
EKSN 101050Z 21008KT 9999 SCT032 22/10 Q1013

2010/08/10 10:55
ETIK 101055Z AUTO VRB03KT 9999 BKN090 BKN140 24/10 A3006 RMK AO2 SLP167 T02370101 $

2010/08/10 10:55
KQAJ 101055Z VRB03KT 9999 CLR 45/05 A2965 RMK SLP023 WND DATA ESTMD ALSTG/SLP ESTMD

2010/08/10 10:55
KQGV 101055Z VRB04KT 9999 SCT150 47/09 A2953 RMK SLP986

2010/08/10 10:55
KQLE 101055Z 21010G17KT 6000 DU SCT180 SCT250 39/M00 A2968 RMK SLP970 T03941005 PA3170 DA6630

2010/08/10 11:00
SLLP 101100Z 02006KT 9999 NSC M04/M16 Q1038

2010/08/10 11:00
SLVR 101100Z 18013KT 9999 NSC 17/06 Q1020

2010/08/10 11:00
SLCB 101100Z 00000KT 6000 NSC 02/00 Q1026

2010/08/10 11:01
CYKL 101101Z AUTO 33010KT 2 3/8SM DZ OVC005 08/08 A2975

2010/08/10 11:00
FBSK 101100Z 13008KT CAVOK 18/M09 Q1030 NOSIG

2010/08/10 11:00
YBTL 101100Z 19005KT 4000 -RA SCT005 SCT017 BKN045 23/23 Q1015 RERA

2010/08/10 11:01
YBCS 101101Z 00000KT 9999 FEW003 BKN017 BKN025 24/23 Q1015 TEMPO 1101/1401 3000 -SHRA FEW003 BKN010

2010/08/10 11:00
YBTL 101100Z 19005KT 4000 -RA SCT005 SCT017 BKN045 23/23 Q1015 RERA

2010/08/10 11:01
YBCS 101101Z 00000KT 9999 FEW003 BKN017 BKN025 24/23 Q1015 TEMPO 1101/1401 3000 -SHRA FEW003 BKN010

2010/08/10 11:00
UKLR 101100Z 00000MPS 9999 SCT026 25/17 Q1017 30090070 NOSIG

2010/08/10 11:00
UKLI 101100Z 00000MPS 9999 SCT040 26/17 Q1017 28090070 TEMPO 3000 TSRA BKN020CB

2010/08/10 11:00
UKON 101100Z 03004MPS 350V070 CAVOK 37/12 Q1011 05090075 NOSIG

2010/08/10 11:00
UKCM 101100Z 07007MPS 030V110 CAVOK 37/11 Q1011 02010065 NOSIG

2010/08/10 11:00
UKCW 101100Z 09005MPS 050V110 CAVOK 40/03 Q1013 0909//70 NOSIG

2010/08/10 11:00
UKLU 101100Z 00000MPS 9999 BKN036 25/17 Q1018 10090070 NOSIG

2010/08/10 11:00
UKKK 101100Z 12003MPS 080V160 5000 FU NSC 31/18 Q1015 08CLRD70 NOSIG

2010/08/10 11:00
UKKM 101100Z 14003MPS 090V180 CAVOK 32/15 Q1015 33CLRD70 NOSIG

2010/08/10 11:00
UKLN 101100Z 32003MPS 270V030 CAVOK 25/17 Q1017 3309//70 NOSIG

2010/08/10 10:45
LHDC 101045Z 26003KT 9999 FEW036 25/15 Q1018 NOSIG

2010/08/10 10:45
LHKE 101045Z 32002MPS 9999 FEW045 26/15 Q1017 NOSIG RMK BLU

2010/08/10 10:45
LHPA 101045Z 27002MPS 9999 FEW030 25/16 Q1019 NOSIG RMK BLU

2010/08/10 10:45
LHPP 101045Z 07004KT 9999 FEW040 SCT200 26/16 Q1019

2010/08/10 10:45
LHPR 101045Z 30003KT 9999 FEW033 SCT036 25/16 Q1018

2010/08/10 10:45
LHSM 101045Z 15002KT 9999 FEW040 25/16 Q1019 NOSIG

2010/08/10 10:45
LHSN 101045Z 31002MPS 9999 FEW040 26/15 Q1017 NOSIG RMK BLU

2010/08/10 10:45
LHUD 101045Z 35006KT 9999 FEW041 27/17 Q1018

2010/08/10 11:01
PAIK 101101Z AUTO 10008KT 10SM BKN013 BKN039 OVC070 13/12 A2954 RMK AO2 SLP043 T01280117

2010/08/10 11:01
PAKF 101101Z AUTO 22007G15KT 10SM -RA OVC070 10/08 A2965 RMK AO2 RAE1004B1039 SLP134 P0001 T01000078

2010/08/10 10:59
K0R3 101059Z AUTO 02003KT 25/25 A2993 RMK AO2 LTG DSNT S PWINO

2010/08/10 11:00
K1A5 101100Z AUTO 00000KT 1/2SM FG OVC002 19/18 A3014 RMK AO2 T01900179

2010/08/10 10:59
K3I2 101059Z AUTO 00000KT 5SM BR CLR 19/18 A3000 RMK AO2

2010/08/10 11:00
K3J7 101100Z AUTO 00000KT 4SM BR CLR 23/22 A3000 RMK AO2 T02270216

2010/08/10 10:58
K8A0 101058Z AUTO 09003KT 10SM CLR 26/21 A3001 RMK AO2

2010/08/10 11:00
KUXL 101100Z AUTO 00000KT 10SM CLR 27/26 A2993 RMK AO2

2010/08/10 10:58
KACP 101058Z AUTO 00000KT 5SM BR SCT070 24/24 A2994 RMK AO2

2010/08/10 11:00
KAFP 101100Z AUTO 00000KT 5SM BR CLR 22/22 A3003 RMK AO2 T02180218

2010/08/10 11:00
KALX 101100Z AUTO 00000KT 5SM HZ CLR 24/21 A3001 RMK AO1

2010/08/10 11:00
KAYS 101100Z AUTO 00000KT 7SM CLR 24/24 A2998 RMK AO1

2010/08/10 11:02
KBGE 101102Z AUTO 09005KT 10SM CLR 24/23 A2996 RMK AO2

2010/08/10 11:00
KBQK 101100Z AUTO 12004KT 10SM CLR 27/25 A2998 RMK AO1 T02710246 PNO

2010/08/10 11:00
KCDH 101100Z AUTO 00000KT 10SM SCT070 24/23 A2992 RMK AO2

2010/08/10 10:55
KCLS 101055Z AUTO 00000KT 10SM FEW014 OVC022 13/10 A2998 RMK AO2

2010/08/10 11:00
KCPC 101100Z AUTO 00000KT 7SM SCT015 24/24 A3002 RMK AO2 T02400237

2010/08/10 11:00
KCTJ 101100Z AUTO 00000KT 5SM BR CLR 22/22 A3005 RMK AO2 T02200215

2010/08/10 11:01
KCWV 101101Z AUTO 00000KT 7SM CLR 24/24 A3000 RMK AO2 T02370238

2010/08/10 10:58
KDBN 101058Z AUTO 00000KT 2SM CLR 23/23 A2999 RMK AO1

2010/08/10 10:58
KDNN 101058Z AUTO 00000KT 7SM CLR 23/22 A3002 RMK AO2

2010/08/10 11:00
KDRI 101100Z AUTO 00000KT 10SM SCT065 BKN075 25/25 A2996 RMK AO2

2010/08/10 10:55
KEMV 101055Z AUTO 00000KT 5SM BR CLR 22/22 A2999 RMK AO2

2010/08/10 11:00
KEYF 101100Z AUTO 00000KT 10SM CLR 25/25 A3003 RMK AO2 T02500250

2010/08/10 10:57
KEZF 101057Z AUTO 00000KT 7SM CLR 24/24 A2994 RMK AO2 T02400235

2010/08/10 11:00
KF24 101100Z AUTO 00000KT 10SM CLR 25/23 A2996 RMK AO2 T02540230

2010/08/10 11:15
KFDW 101115Z AUTO 14006KT 1 1/2SM BR OVC001 25/23 A3004 RMK AO1

2010/08/10 11:00
KFFA 101100Z AUTO 26005KT 10SM CLR 26/24 A3001 RMK AO2 T02590241

2010/08/10 11:00
KFKN 101100Z AUTO 00000KT 10SM SCT060 BKN070 25/24 A2998 RMK AO1

2010/08/10 11:00
KFVX 101100Z AUTO 00000KT 5SM BR CLR 24/23 A2996 RMK AO2

2010/08/10 11:00
KGAO 101100Z AUTO 01004KT 1 1/4SM BR VV007 25/25 A2993 RMK AO2

2010/08/10 11:01
KGEV 101101Z AUTO 00000KT 2 1/2SM BR CLR 19/18 A3016 RMK AO2

2010/08/10 10:55
KGHG 101055Z AUTO 21003KT 2SM BR BKN075 OVC090 22/21 A2991 RMK AO2

2010/08/10 11:00
KGWW 101100Z AUTO 26003KT 3/4SM BR OVC003 24/24 A3002 RMK AO2 T02420240

2010/08/10 11:02
KHLX 101102Z AUTO 22003KT 2 1/2SM BR CLR 22/22 A3014 RMK AO2

2010/08/10 11:00
KHNZ 101100Z AUTO 22005KT 3SM BR CLR 23/22 A3001 RMK AO2 T02300221

2010/08/10 10:58
KHOE 101058Z AUTO 00000KT 10SM CLR 24/ A2998 RMK AO2 T0242

2010/08/10 11:00
KHSP 101100Z AUTO A3020 RMK AO2 PWINO TSNO

2010/08/10 11:00
KHWY 101100Z AUTO 00000KT 2SM BR CLR 21/20 A2995 RMK AO2

2010/08/10 11:00
KIER 101100Z AUTO 00000KT 10SM SCT065 BKN085 25/25 A2994 RMK AO2 PWINO

2010/08/10 11:00
KIPJ 101100Z AUTO 00000KT 3SM BR CLR 22/21 A3004 RMK AO2 T02170207

2010/08/10 11:00
KIXA 101100Z AUTO 22003KT 4SM BR CLR 23/23 A2999 RMK AO2 T02300228

2010/08/10 11:00
KJES 101100Z AUTO 05003KT 10SM CLR 24/24 A2998 RMK AO2 T02400240

2010/08/10 11:00
KJGG 101100Z AUTO 26003KT 10SM CLR 26/22 A2998 RMK AO1

2010/08/10 11:00
KJKA 101100Z AUTO 36003KT 7SM CLR 28/26 A2993 RMK AO2 T02760258

2010/08/10 11:00
KJYO 101100Z AUTO 00000KT 5SM BR CLR 24/22 A2997 RMK AO2

2010/08/10 11:00
KLDJ 101100Z AUTO 30003KT 7SM SCT085 26/19 A2993 RMK AO2 T02550193

2010/08/10 11:00
KLHZ 101100Z AUTO 20003KT 5SM BR CLR 24/23 A3002 RMK AO2 T02370225

2010/08/10 11:00
KLKU 101100Z AUTO 25004KT 5SM BR CLR 23/21 A2997 RMK AO2

2010/08/10 11:00
KLNP 101100Z AUTO 21003KT 7SM SCT034 22/21 A3013 RMK AO1

2010/08/10 11:01
KLWB 101101Z AUTO 00000KT 1/2SM FG OVC001 17/16 A3012 RMK AO2

2010/08/10 11:00
KMDQ 101100Z AUTO 00000KT 5SM BR CLR 24/23 A3000 RMK AO2 T02390231

2010/08/10 11:00
KMGR 101100Z AUTO 00000KT 10SM BKN007 26/24 A2999 RMK AO2

2010/08/10 11:02
KARR 101102Z AUTO 00000KT 3/4SM BR BKN085 22/22 A2997 RMK AO2

2010/08/10 11:02
KEAU 101102Z 01003KT 3SM BR CLR 19/19 A2996 RMK AO2

2010/08/10 11:02
KEYW 101102Z 24009KT 4SM +RA BR SCT015 BKN021 OVC028 26/24 A2985 RMK AO2 P0005

2010/08/10 11:02
KGZH 101102Z AUTO 00000KT 3SM BR CLR 23/23 A2997 RMK AO2

2010/08/10 11:02
KHIB 101102Z AUTO 00000KT 1/4SM FG OVC001 16/15 A2999 RMK AO2

2010/08/10 11:02
KLBT 101102Z AUTO 00000KT 1 1/2SM BR OVC001 24/24 A3002 RMK AO2

2010/08/10 11:02
KSPW 101102Z AUTO 12010KT 10SM -TSRA FEW006 SCT022 OVC070 22/21 A2990 RMK AO2 LTG DSNT ALQDS P0002

2010/08/10 11:02
KYIP 101102Z 26003KT 3/4SM BR VV001 19/18 A2998 RMK AO2 RVRNO

2010/08/10 11:01
KMLJ 101101Z AUTO 00000KT 4SM BR CLR 23/23 A3001 RMK AO2

2010/08/10 11:01
KMQI 101101Z AUTO 25007KT 10SM CLR 26/26 A3001 RMK AO2

2010/08/10 11:01
KMRN 101101Z AUTO 00000KT M1/4SM FG OVC001 21/21 A3010 RMK AO2

2010/08/10 11:02
KMWK 101102Z AUTO 00000KT 2SM BR CLR 22/21 A3005 RMK AO2

2010/08/10 11:01
KOCW 101101Z AUTO 23003KT 10SM CLR 25/21 A3002 RMK AO2

2010/08/10 11:00
KRUQ 101100Z AUTO 00000KT 5SM BR CLR 23/22 A3004 RMK AO2

2010/08/10 11:00
KSIF 101100Z AUTO 24003KT 4SM BR CLR 23/22 A3002 RMK AO2 T02330220

2010/08/10 11:00
KSUT 101100Z AUTO 24005KT 10SM SCT016 26/22 A3002 RMK AO2

2010/08/10 11:00
KSVH 101100Z AUTO 00000KT 4SM BR CLR 23/23 A3003 RMK AO2 T02260227

2010/08/10 11:01
KTDF 101101Z AUTO 00000KT 22/22 A3003 RMK AO1

2010/08/10 11:00
KTMA 101100Z AUTO 00000KT 7SM SCT013 BKN021 BKN027 24/24 A2999 RMK AO2 T02400237

2010/08/10 11:04
KTTA 101104Z AUTO 00000KT 1/4SM FG OVC001 22/22 A3003 RMK AO2

2010/08/10 11:00
KUNV 101100Z AUTO 00000KT 10SM SCT100 SCT120 21/17 A3000 RMK AO2 T02060170

2010/08/10 10:56
KVDF 101056Z AUTO 00000KT 10SM CLR 25/23 A2988 RMK AO2

2010/08/10 10:58
KVUJ 101058Z AUTO 00000KT 5SM BKN085 BKN110 22/21 A3003 RMK AO2

2010/08/10 10:59
KW99 101059Z AUTO 00000KT 1 1/2SM BR VV007 18/16 A3002 RMK AO2

2010/08/10 11:02
KRTN 101102Z AUTO 05004KT 10SM CLR 12/11 A3020 RMK AO2 TSNO

2010/08/10 11:00
KNEL 101100Z AUTO 00000KT 5SM HZ FEW080 24/21 A2993 RMK AO2 SLP134 T02390206 $

2010/08/10 10:56
KY70 101056Z AUTO 26003KT M1/4SM FG OVC001 20/19 A2999 RMK AO2 T01950190

2010/08/10 11:00
SBFN 101100Z 15010KT 9999 FEW017 27/22 Q1016

2010/08/10 11:00
FOOL 101100Z 16007KT 9999 SCT011 BKN033 28/22 Q1015 NOSIG

2010/08/10 11:00
UBBB 101100Z 08008KT 9999 SCT060CB BKN100 34/23 Q1010 NOSIG RMK R88CLRD70

2010/08/10 11:00
UTTT 101100Z 34002MPS 270V360 CAVOK 38/01 Q1007 R08R/CLRD70 NOSIG

2010/08/10 11:00
LEMO 101100Z VRB02KT CAVOK 37/16 Q1017 NOSIG

2010/08/10 10:50
ENBL 101050Z 22005KT 9999 FEW035 SCT050 17/10 Q1009

2010/08/10 10:59
YBCG 101059Z AUTO 05014KT 6000NDV // SCT008 BKN039 OVC058 20/19 Q1017

2010/08/10 10:59
MMDO 101059Z RTD 19003KT 7SM SCT080 BKN200 19/16 A3017 RMK 8/034 HZY RTS

2010/08/10 11:00
SBPK 101100Z 29002KT CAVOK 05/04 Q1029

2010/08/10 11:01
KIAG 101101Z 00000KT 1SM BR FEW032 SCT044 BKN100 BKN200 21/21 A2994 RMK AO2

2010/08/10 10:57
PTKR 101057Z 17013KT 15SM SCT018 SCT120 OVC300 28/24 A2988 RMK SLP119 T02780239

2010/08/10 11:01
KHTS 101101Z 00000KT 2 1/2SM BR CLR 21/20 A3000 RMK AO2

2010/08/10 11:00
PASN 101100Z 27009KT 1/2SM FG BKN001 OVC008 08/08 A2945 RMK AO2

2010/08/10 11:00
KIPJ 101100Z AUTO 00000KT 3SM BR CLR 22/21 A3004 RMK AO2 T02170207

2010/08/10 11:00
KIXA 101100Z AUTO 22003KT 4SM BR CLR 23/23 A2999 RMK AO2 T02300228

2010/08/10 11:00
KJES 101100Z AUTO 05003KT 10SM CLR 24/24 A2998 RMK AO2 T02400240

2010/08/10 11:00
KJGG 101100Z AUTO 26003KT 10SM CLR 26/22 A2998 RMK AO1

2010/08/10 11:00
KJKA 101100Z AUTO 36003KT 7SM CLR 28/26 A2993 RMK AO2 T02760258

2010/08/10 11:00
KJYO 101100Z AUTO 00000KT 5SM BR CLR 24/22 A2997 RMK AO2

2010/08/10 11:00
KLDJ 101100Z AUTO 30003KT 7SM SCT085 26/19 A2993 RMK AO2 T02550193

2010/08/10 11:00
KLHZ 101100Z AUTO 20003KT 5SM BR CLR 24/23 A3002 RMK AO2 T02370225

2010/08/10 11:00
KLKU 101100Z AUTO 25004KT 5SM BR CLR 23/21 A2997 RMK AO2

2010/08/10 11:00
KLNP 101100Z AUTO 21003KT 7SM SCT034 22/21 A3013 RMK AO1

2010/08/10 11:00
KMDQ 101100Z AUTO 00000KT 5SM BR CLR 24/23 A3000 RMK AO2 T02390231

2010/08/10 11:00
KMGR 101100Z AUTO 00000KT 10SM BKN007 26/24 A2999 RMK AO2

2010/08/10 11:00
KRUQ 101100Z AUTO 00000KT 5SM BR CLR 23/22 A3004 RMK AO2

2010/08/10 11:00
KSIF 101100Z AUTO 24003KT 4SM BR CLR 23/22 A3002 RMK AO2 T02330220

2010/08/10 11:00
KSUT 101100Z AUTO 24005KT 10SM SCT016 26/22 A3002 RMK AO2

2010/08/10 11:00
KSVH 101100Z AUTO 00000KT 4SM BR CLR 23/23 A3003 RMK AO2 T02260227

2010/08/10 11:00
KTMA 101100Z AUTO 00000KT 7SM SCT013 BKN021 BKN027 24/24 A2999 RMK AO2 T02400237

2010/08/10 11:00
KUNV 101100Z AUTO 00000KT 10SM SCT100 SCT120 21/17 A3000 RMK AO2 T02060170

2010/08/10 10:56
KVDF 101056Z AUTO 00000KT 10SM CLR 25/23 A2988 RMK AO2

2010/08/10 10:58
KVUJ 101058Z AUTO 00000KT 5SM BKN085 BKN110 22/21 A3003 RMK AO2

2010/08/10 10:59
KW99 101059Z AUTO 00000KT 1 1/2SM BR VV007 18/16 A3002 RMK AO2

2010/08/10 11:00
KNEL 101100Z AUTO 00000KT 5SM HZ FEW080 24/21 A2993 RMK AO2 SLP134 T02390206 $

2010/08/10 10:58
KFFO 101058Z 00000KT 4SM BR SCT250 23/21 A2998 RMK AO2A SLP146

2010/08/10 10:55
KLUF 101055Z AUTO 04005KT 10SM FEW120 28/15 A2981 RMK AO2 SLP065 T02830150 $

2010/08/10 10:55
KMCF 101055Z AUTO 07012KT 10SM SCT009 25/25 A2987 RMK AO2 SLP116 T02500248

2010/08/10 10:56
KNBC 101056Z 36003KT 6SM BR SCT020 SCT080 BKN250 24/23 A3000 RMK AO2 SLP160 T02440233

2010/08/10 10:55
KNBG 101055Z AUTO 00000KT 1/2SM FG CLR 24/23 A2994 RMK AO2 SLP137 T02440233 PWINO $

2010/08/10 10:56
KNCA 101056Z 25003KT 10SM FEW025 SCT150 24/24 A3003 RMK AO2 SLP169 T02440239 $

2010/08/10 10:56
KNGP 101056Z 20003KT 10SM FEW015 28/25 A2987 RMK AO2 SLP114 T02820250 $

2010/08/10 10:57
KNJM 101057Z AUTO 26003KT 10SM CLR 27/25 A3002 RMK AO2 SLP169 T02670250

2010/08/10 10:56
KNPA 101056Z 01007KT 8SM SCT280 26/24 A2992 RMK AO2 SLP132 T02610239

2010/08/10 10:56
KNTU 101056Z 24005KT 10SM FEW050 SCT200 24/23 A2997 RMK AO2 SLP152 T02440233 $

2010/08/10 10:55
KPAM 101055Z AUTO 07005KT 10SM CLR 25/24 A2991 RMK AO2 SLP130 T02510242 $

2010/08/10 10:55
PWAK 101055Z 07011KT 10SM FEW023 28/24 A3006 RMK AO2A

2010/08/10 11:01
KAQW 101101Z AUTO 00000KT 1 1/4SM BR BKN017 BKN025 21/20 A2996 RMK AO2

2010/08/10 11:01
KBGM 101101Z 00000KT 1/2SM FG BKN060 BKN080 OVC100 20/19 A3001 RMK AO2 RVRNO

2010/08/10 11:01
KBML 101101Z AUTO 00000KT 2SM BR OVC003 16/16 A2996 RMK AO2 CIG 001V004

2010/08/10 11:00
KCWF 101100Z 00000KT 10SM SKC 26/26 A2994 RMK FIRST

2010/08/10 11:01
KMKL 101101Z AUTO 00000KT 2SM BR CLR 24/23 A2996 RMK AO2

2010/08/10 11:01
KMSL 101101Z AUTO 00000KT 5SM BR FEW001 24/23 A3000 RMK AO2

2010/08/10 11:00
PATQ 101100Z AUTO 07016KT 1 1/4SM -RA BR OVC005 02/02 A2979 RMK AO2 TSNO RAB00 P0000 $

2010/08/10 11:00
PATQ 101100Z AUTO 07016KT 1 1/4SM -RA BR OVC005 02/02 A2979 RMK AO2 TSNO RAB00 P0000 $

2010/08/10 11:01
KNSE 101101Z 04004KT 5SM BR FEW250 26/23 A2994 RMK AO2 $

2010/08/10 11:02
KRTN 101102Z AUTO 05004KT 10SM CLR 12/11 A3020 RMK AO2 TSNO

2010/08/10 11:02
KARR 101102Z AUTO 00000KT 3/4SM BR BKN085 22/22 A2997 RMK AO2

2010/08/10 11:02
KEAU 101102Z 01003KT 3SM BR CLR 19/19 A2996 RMK AO2

2010/08/10 11:02
KEYW 101102Z 24009KT 4SM +RA BR SCT015 BKN021 OVC028 26/24 A2985 RMK AO2 P0005

2010/08/10 11:02
KGZH 101102Z AUTO 00000KT 3SM BR CLR 23/23 A2997 RMK AO2

2010/08/10 11:02
KHIB 101102Z AUTO 00000KT 1/4SM FG OVC001 16/15 A2999 RMK AO2

2010/08/10 11:02
KLBT 101102Z AUTO 00000KT 1 1/2SM BR OVC001 24/24 A3002 RMK AO2

2010/08/10 11:02
KSPW 101102Z AUTO 12010KT 10SM -TSRA FEW006 SCT022 OVC070 22/21 A2990 RMK AO2 LTG DSNT ALQDS P0002

2010/08/10 11:02
KYIP 101102Z 26003KT 3/4SM BR VV001 19/18 A2998 RMK AO2 RVRNO

2010/08/10 10:54
KACY 101054Z 23005KT 10SM CLR 24/22 A2994 RMK AO2 SLP138 T02440222 $

2010/08/10 10:56
KCHS 101056Z 00000KT 10SM FEW025 26/25 A3002 RMK AO2 SLP164 T02560250

2010/08/10 10:59
KJNX 101059Z AUTO 00000KT 10SM OVC003 22/22 A3002 RMK AO2

2010/08/10 11:00
KAYS 101100Z AUTO 00000KT 7SM CLR 24/24 A2998 RMK AO1

2010/08/10 10:58
KDBN 101058Z AUTO 00000KT 2SM CLR 23/23 A2999 RMK AO1

2010/08/10 10:56
KNSE 101056Z AUTO 03004KT 4SM HZ CLR 26/23 A2994 RMK AO2 SLP122 T02560228 $

2010/08/10 10:55
KTTS 101055Z 10005KT 10SM FEW025 SCT050 26/25 A2993 RMK SLP135 2CU 2SC /4/

2010/08/10 10:58
PAGA 101058Z AUTO 12007KT 10SM OVC110 13/11 A2958 RMK AO2 SLPNO T01330106

2010/08/10 11:00
K3A1 101100Z AUTO 06003KT 7SM CLR 25/23 A3002 RMK AO2 T02450232 TSNO

2010/08/10 10:58
K4A9 101058Z AUTO 01003KT 3SM BR CLR 23/22 A3002 RMK AO2 T02310217

2010/08/10 11:00
K4R4 101100Z AUTO 00000KT 4SM BR CLR 26/25 A2994 RMK AO2 T02610248

2010/08/10 11:00
KASJ 101100Z AUTO 00000KT 3SM BR CLR 23/21 A3000 RMK AO2

2010/08/10 11:00
KAVC 101100Z AUTO 00000KT 5SM BR CLR 23/23 A3004 RMK AO2

2010/08/10 11:00
KBCB 101100Z AUTO 00000KT 3SM CLR 21/21 A3012 RMK AO2 PWINO

2010/08/10 10:59
KCJR 101059Z AUTO 00000KT 1SM BR VV007 22/21 A2997 RMK AO2

2010/08/10 11:00
KCPK 101100Z AUTO 18004KT 5SM BR 22/22 A2999 RMK AO2

2010/08/10 11:00
KDPL 101100Z AUTO 00000KT 10SM BKN001 BKN005 23/22 A3003 RMK AO2

2010/08/10 11:00
KDQH 101100Z AUTO 07003KT 10SM CLR 26/23 A2999 RMK AO1

2010/08/10 10:59
KEDE 101059Z AUTO 27005KT 10SM SCT008 26/24 A2998 RMK AO2

2010/08/10 11:00
KEXX 101100Z AUTO 00000KT 2 1/2SM BR CLR 22/22 A3004 RMK AO2

2010/08/10 11:00
KFQD 101100Z AUTO 00000KT 2SM BR CLR 22/22 A3005 RMK AO2

2010/08/10 11:00
KHBI 101100Z AUTO 00000KT 5SM BR CLR 23/22 A3007 RMK AO2

2010/08/10 10:59
KHDC 101059Z AUTO 00000KT 1 1/2SM BR 25/25 A2996 RMK AO2

2010/08/10 11:00
KHQU 101100Z AUTO 00000KT 2 1/2SM CLR 21/19 A3006 RMK AO1

2010/08/10 10:59
KHRJ 101059Z AUTO 00000KT 1/4SM FG OVC002 24/23 A3002 RMK AO2

2010/08/10 11:00
KONX 101100Z AUTO 23003KT 10SM CLR 24/23 A3000 RMK AO2

2010/08/10 11:00
KUKF 101100Z AUTO 30003KT 1 1/2SM VV007 21/21 A3008 RMK AO1

2010/08/10 10:55
KVVG 101055Z AUTO 09006KT 24/24 A2991 RMK AO2

2010/08/10 10:59
K0R3 101059Z AUTO 02003KT 25/25 A2993 RMK AO2 LTG DSNT S PWINO

2010/08/10 11:00
K1A5 101100Z AUTO 00000KT 1/2SM FG OVC002 19/18 A3014 RMK AO2 T01900179

2010/08/10 10:59
K3I2 101059Z AUTO 00000KT 5SM BR CLR 19/18 A3000 RMK AO2

2010/08/10 11:00
K3J7 101100Z AUTO 00000KT 4SM BR CLR 23/22 A3000 RMK AO2 T02270216

2010/08/10 10:58
K8A0 101058Z AUTO 09003KT 10SM CLR 26/21 A3001 RMK AO2

2010/08/10 11:00
KUXL 101100Z AUTO 00000KT 10SM CLR 27/26 A2993 RMK AO2

2010/08/10 10:58
KACP 101058Z AUTO 00000KT 5SM BR SCT070 24/24 A2994 RMK AO2

2010/08/10 11:00
KAFP 101100Z AUTO 00000KT 5SM BR CLR 22/22 A3003 RMK AO2 T02180218

2010/08/10 11:00
KALX 101100Z AUTO 00000KT 5SM HZ CLR 24/21 A3001 RMK AO1

2010/08/10 11:00
KBQK 101100Z AUTO 12004KT 10SM CLR 27/25 A2998 RMK AO1 T02710246 PNO

2010/08/10 11:00
KCDH 101100Z AUTO 00000KT 10SM SCT070 24/23 A2992 RMK AO2

2010/08/10 10:55
KCLS 101055Z AUTO 00000KT 10SM FEW014 OVC022 13/10 A2998 RMK AO2

2010/08/10 11:00
KCPC 101100Z AUTO 00000KT 7SM SCT015 24/24 A3002 RMK AO2 T02400237

2010/08/10 11:00
KCTJ 101100Z AUTO 00000KT 5SM BR CLR 22/22 A3005 RMK AO2 T02200215

2010/08/10 10:58
KDNN 101058Z AUTO 00000KT 7SM CLR 23/22 A3002 RMK AO2

2010/08/10 11:00
KDRI 101100Z AUTO 00000KT 10SM SCT065 BKN075 25/25 A2996 RMK AO2

2010/08/10 10:55
KEMV 101055Z AUTO 00000KT 5SM BR CLR 22/22 A2999 RMK AO2

2010/08/10 11:00
KEYF 101100Z AUTO 00000KT 10SM CLR 25/25 A3003 RMK AO2 T02500250

2010/08/10 10:57
KEZF 101057Z AUTO 00000KT 7SM CLR 24/24 A2994 RMK AO2 T02400235

2010/08/10 11:00
KF24 101100Z AUTO 00000KT 10SM CLR 25/23 A2996 RMK AO2 T02540230

2010/08/10 11:00
KFFA 101100Z AUTO 26005KT 10SM CLR 26/24 A3001 RMK AO2 T02590241

2010/08/10 11:00
KFKN 101100Z AUTO 00000KT 10SM SCT060 BKN070 25/24 A2998 RMK AO1

2010/08/10 11:00
KFVX 101100Z AUTO 00000KT 5SM BR CLR 24/23 A2996 RMK AO2

2010/08/10 11:00
KGAO 101100Z AUTO 01004KT 1 1/4SM BR VV007 25/25 A2993 RMK AO2

2010/08/10 10:55
KGHG 101055Z AUTO 21003KT 2SM BR BKN075 OVC090 22/21 A2991 RMK AO2

2010/08/10 11:00
KGWW 101100Z AUTO 26003KT 3/4SM BR OVC003 24/24 A3002 RMK AO2 T02420240

2010/08/10 11:00
KHNZ 101100Z AUTO 22005KT 3SM BR CLR 23/22 A3001 RMK AO2 T02300221

2010/08/10 10:58
KHOE 101058Z AUTO 00000KT 10SM CLR 24/ A2998 RMK AO2 T0242

2010/08/10 11:00
KHSP 101100Z AUTO A3020 RMK AO2 PWINO TSNO

2010/08/10 11:00
KHWY 101100Z AUTO 00000KT 2SM BR CLR 21/20 A2995 RMK AO2

2010/08/10 11:00
KIER 101100Z AUTO 00000KT 10SM SCT065 BKN085 25/25 A2994 RMK AO2 PWINO

2010/08/10 11:02
K47A 101102Z AUTO 00000KT 5SM HZ CLR 24/22 A3007 RMK AO2

2010/08/10 11:01
KFYJ 101101Z AUTO 00000KT 10SM CLR 26/23 A2997 RMK AO1

2010/08/10 11:01
KMFV 101101Z AUTO 25003KT 3SM BR CLR 25/24 A2997 RMK AO2

2010/08/10 11:01
KPTB 101101Z AUTO 20004KT 7SM CLR 26/ A2997 RMK AO2

2010/08/10 11:01
PAIK 101101Z AUTO 10008KT 10SM BKN013 BKN039 OVC070 13/12 A2954 RMK AO2 SLP043 T01280117

2010/08/10 11:02
KBGE 101102Z AUTO 09005KT 10SM CLR 24/23 A2996 RMK AO2

2010/08/10 11:01
KCWV 101101Z AUTO 00000KT 7SM CLR 24/24 A3000 RMK AO2 T02370238

2010/08/10 11:15
KFDW 101115Z AUTO 14006KT 1 1/2SM BR OVC001 25/23 A3004 RMK AO1

2010/08/10 11:01
KGEV 101101Z AUTO 00000KT 2 1/2SM BR CLR 19/18 A3016 RMK AO2

2010/08/10 11:02
KHLX 101102Z AUTO 22003KT 2 1/2SM BR CLR 22/22 A3014 RMK AO2

2010/08/10 11:01
KLWB 101101Z AUTO 00000KT 1/2SM FG OVC001 17/16 A3012 RMK AO2

2010/08/10 11:01
KMLJ 101101Z AUTO 00000KT 4SM BR CLR 23/23 A3001 RMK AO2

2010/08/10 11:01
KMQI 101101Z AUTO 25007KT 10SM CLR 26/26 A3001 RMK AO2

2010/08/10 11:01
KMRN 101101Z AUTO 00000KT M1/4SM FG OVC001 21/21 A3010 RMK AO2

2010/08/10 11:02
KMWK 101102Z AUTO 00000KT 2SM BR CLR 22/21 A3005 RMK AO2

2010/08/10 11:01
KOCW 101101Z AUTO 23003KT 10SM CLR 25/21 A3002 RMK AO2

2010/08/10 11:01
KTDF 101101Z AUTO 00000KT 22/22 A3003 RMK AO1

2010/08/10 11:04
KTTA 101104Z AUTO 00000KT 1/4SM FG OVC001 22/22 A3003 RMK AO2

2010/08/10 11:01
YBCS 101101Z 00000KT 9999 FEW003 BKN017 BKN025 24/23 Q1015 TEMPO 1101/1401 3000 -SHRA FEW003 BKN010

2010/08/10 11:00
YBTL 101100Z 19005KT 4000 -RA SCT005 SCT017 BKN045 23/23 Q1015 RERA

2010/08/10 11:00
YMML 101100Z 36008KT 7000 -RA SCT011 SCT028 OVC055 08/07 Q1010 FM1100 29008KT 9000 -RA SCT006 BKN010 INTER 1100/1130 4000 RA BKN008 INTER 1130/1400 4000 RA BKN005

2010/08/10 11:00
YMHB 101100Z 11007KT 7000 -SHRA FEW020 SCT040 BKN050 12/10 Q1021

2010/08/10 10:50
LTAC 101050Z 35005KT 9999 FEW040 33/04 Q1013 NOSIG

2010/08/10 10:50
LTAF 101050Z /////KT 9999 SCT035 35/22 Q1005 NOSIG

2010/08/10 10:50
LTAI 101050Z 18011KT 9999 SCT030 33/24 Q1006 NOSIG

2010/08/10 10:50
LTBA 101050Z 36016KT 9999 FEW035 32/22 Q1010 NOSIG

2010/08/10 10:50
LTBJ 101050Z 34012KT CAVOK 36/18 Q1006 NOSIG

2010/08/10 10:50
LTBS 101050Z 22012KT 9999 FEW030 31/24 Q1006 NOSIG

2010/08/10 11:00
PATQ 101100Z AUTO 07016KT 1 1/4SM -RA BR OVC005 02/02 A2979

2010/08/10 10:50
LTAD 101050Z 27006KT 210V350 9999 FEW040 34/06 Q1012 NOSIG RMK RWY29 VRB05KT

2010/08/10 10:50
LTAG 101050Z 2000

2010/08/10 10:50
LTAJ 101050Z 15004KT 100V260 9999 FEW040 37/11 Q1008 NOSIG

2010/08/10 10:50
LTCG 101050Z 35006KT 9999 SCT035 BKN100 30/23 Q1008 NOSIG

2010/08/10 10:50
LTCI 101050Z 33008KT 9999 FEW040 29/10 Q1015 NOSIG

2010/08/10 10:50
LTFE 101050Z 27014KT 9999 FEW035 36/20 Q1005 NOSIG

2010/08/10 11:00
DIAP 101100Z 24008KT 8000 SCT011 SCT020 BKN070 26/23 Q1015 NOSIG

2010/08/10 11:01
CYKL 101101Z AUTO 33010KT 2 3/8SM DZ OVC005 08/08 A2975

2010/08/10 10:55
EBBL 101055Z 21006KT 9999 BKN190 23/13 Q1014 BLU BLU

2010/08/10 10:55
EBFN 101055Z 20013KT 9999 FEW015 SCT022 BKN050 21/15 Q1012 WHT WHT

2010/08/10 11:02
KBTR 101102Z 06003KT 3/4SM BR SCT002 BKN200 23/23 A2994 RMK AO2 VIS SW-NW 2 SCT V BKN RVRNO 

2010/08/10 10:50
EGOV 101050Z 23018KT 9999 FEW025 BKN045 16/13 Q1007 NOSIG

2010/08/10 10:50
EGDL 101050Z 22006KT 4500 RADZ BKN006 BKN011 OVC030 14/13 Q1010 BECMG 5000 -RADZ BKN007

2010/08/10 10:50
EGDM 101050Z 23008KT 7000 -RADZ BKN008 BKN040 16/13 Q1011 BECMG 3500 BKN006

2010/08/10 10:50
EGDY 101050Z 14006KT 9999 -RA BKN009 BKN030 14/14 Q1010

2010/08/10 11:01
KIAG 101101Z 00000KT 1SM BR FEW032 SCT044 BKN100 BKN200 21/21 A2994

2010/08/10 11:01
KHTS 101101Z 00000KT 2 1/2SM BR CLR 21/20 A3000

2010/08/10 10:45
LHDC 101045Z 26003KT 9999 FEW036 25/15 Q1018 NOSIG

2010/08/10 10:45
LHKE 101045Z 32002MPS 9999 FEW045 26/15 Q1017 NOSIG RMK BLU

2010/08/10 10:45
LHPP 101045Z 07004KT 9999 FEW040 SCT200 26/16 Q1019

2010/08/10 10:45
LHSN 101045Z 31002MPS 9999 FEW040 26/15 Q1017 NOSIG RMK BLU

2010/08/10 10:45
LHUD 101045Z 35006KT 9999 FEW041 27/17 Q1018

2010/08/10 11:00
BIAR 101100Z 29004KT 9999 OVC013 11/08 Q1014

2010/08/10 11:00
BIEG 101100Z 36005KT 9999 SCT006 OVC008 09/08 Q1014

2010/08/10 11:00
BIKF 101100Z 34007KT 9999 FEW018 BKN021 12/07 Q1015

2010/08/10 11:00
LYBE 101100Z 36006KT 300V050 9999 SCT043 27/15 Q1018 NOSIG

2010/08/10 11:00
LYBT 101100Z 35007KT 280V060 CAVOK 27/15 Q1018 NOSIG

2010/08/10 11:00
LYKV 101100Z 35002KT 9999 BKN040 26/16 Q1018 NOSIG

2010/08/10 11:00
LYNI 101100Z 33011KT 9999 FEW030 27/16 Q1017 NOSIG

2010/08/10 11:00
LYPG 101100Z 22006KT 180V260 9999 FEW040 31/14 Q1012 NOSIG

2010/08/10 11:00
LYTV 101100Z 20005KT 150V280 CAVOK 31/17 Q1013 NOSIG

2010/08/10 11:00
LYUZ 101100Z 08004KT 020V130 9999 BKN020 20/12 Q1021 NOSIG

2010/08/10 11:00
LYVR 101100Z VRB05KT 9999 FEW030 28/16 Q1017

2010/08/10 10:50
HLLM 101050Z 36009KT 7000 SKC 28/19 Q1016

2010/08/10 11:00
LKKV 101100Z 29003KT 9999 FEW048 21/12 Q1019

2010/08/10 11:00
LKMT 101100Z VRB01KT 9999 FEW036 23/14 Q1018 NOSIG

2010/08/10 11:00
LKPR 101100Z 04004KT 330V090 9999 BKN045 23/12 Q1018 NOSIG

2010/08/10 11:00
LKTB 101100Z 21004KT 140V250 9999 SCT043 25/15 Q1018 NOSIG

2010/08/10 11:01
KBGM 101101Z 00000KT 1/2SM FG BKN060 BKN080 OVC100 20/19 A3001

2010/08/10 11:01
KBGM 101101Z 00000KT 1/2SM FG BKN060 BKN080 OVC100 20/19 A3001

2010/08/10 11:00
EIDW 101100Z 28015KT 9999 SCT028 16/10 Q1007 NOSIG

2010/08/10 11:00
EINN 101100Z 29010KT 9999 FEW021 BKN050 18/13 Q1009 NOSIG

2010/08/10 11:00
EICK 101100Z 31013KT 9999 BKN027 17/09 Q1010 NOSIG

2010/08/10 11:00
EIKN 101100Z 29012KT 9999 SCT022 SCT047 15/10 Q1008 NOSIG

2010/08/10 11:00
LEMD 101100Z 02002KT CAVOK 33/13 Q1019 NOSIG

2010/08/10 11:00
LEBL 101100Z 13010KT 9999 SCT020 26/19 Q1017 NOSIG

2010/08/10 11:00
LEPA 101100Z 23010KT 200V260 CAVOK 29/20 Q1017 NOSIG

2010/08/10 11:00
LEZL 101100Z 21002KT CAVOK 36/13 Q1016 NOSIG

2010/08/10 11:00
LEMG 101100Z 14009KT 110V190 CAVOK 30/17 Q1018 NOSIG

2010/08/10 11:00
LEVC 101100Z 08008KT 030V140 CAVOK 30/20 Q1017 NOSIG

2010/08/10 11:00
LEAL 101100Z 09008KT 060V140 CAVOK 32/19 Q1016 NOSIG

2010/08/10 11:00
LEIB 101100Z 09008KT 050V130 CAVOK 30/21 Q1017 NOSIG

2010/08/10 11:00
LELC 101100Z 13006KT 090V180 9999 FEW040 30/21 Q1017 NOSIG

2010/08/10 11:00
LEVX 101100Z VRB03KT CAVOK 30/16 Q1019

2010/08/10 11:00
GCLP 101100Z 03015KT 9999 FEW030 26/19 Q1017 NOSIG

2010/08/10 11:00
GCXO 101100Z VRB02KT 6000 2500NW R12/1400VP2000U PRFG FEW000 BKN100 22/18 Q1019 NOSIG

2010/08/10 11:00
GCTS 101100Z 11005KT 030V170 9999 FEW020 BKN080 23/19 Q1017 NOSIG

2010/08/10 11:00
GCRR 101100Z 18004KT CAVOK 25/21 Q1016

2010/08/10 11:00
GCFV 101100Z 05011KT 8000 SCT045 25/21 Q1016

2010/08/10 11:00
YMHB 101100Z 11007KT 7000 -SHRA FEW020 SCT040 BKN050 12/10 Q1021

2010/08/10 11:00
LEAB 101100Z VRB04KT CAVOK 33/12 Q1020 NOSIG

2010/08/10 11:00
LEBZ 101100Z 27004KT 160V300 CAVOK 36/13 Q1017

2010/08/10 11:00
LELN 101100Z 25009KT 200V300 CAVOK 27/05 Q1021

2010/08/10 11:00
LESA 101100Z VRB01KT 7000 FEW040 31/15 Q1021

2010/08/10 11:00
LETO 101100Z 19004KT 120V290 CAVOK 32/12 Q1019 NOSIG

2010/08/10 11:00
LEVD 101100Z 26008KT 230V300 CAVOK 29/09 Q1021

2010/08/10 11:00
LEVS 101100Z 20005KT 140V250 9000 NSC 34/13 Q1020

2010/08/10 11:00
LEAS 101100Z 31007KT 280V340 9999 FEW025 20/16 Q1019 NOSIG

2010/08/10 11:00
LEBB 101100Z VRB03KT 9999 FEW030 26/17 Q1018 NOSIG

2010/08/10 11:00
LECO 101100Z 03009KT 360V060 CAVOK 22/16 Q1020

2010/08/10 11:00
LEGE 101100Z 17014KT 110V210 9999 SCT020 27/20 Q1017

2010/08/10 11:00
LEST 101100Z 29003KT 230V340 CAVOK 26/06 Q1020 NOSIG

2010/08/10 11:00
LEZG 101100Z 28002KT CAVOK 26/14 Q1018

2010/08/10 11:00
LESO 101100Z 01006KT 290V060 CAVOK 22/16 Q1018

2010/08/10 11:00
LEVT 101100Z VRB02KT 9999 FEW030 24/14 Q1019

2010/08/10 11:00
LERS 101100Z 14005KT 090V210 9999 BKN016 27/20 Q1017

2010/08/10 11:00
LEMH 101100Z 12006KT 060V170 CAVOK 30/16 Q1017

2010/08/10 11:00
LEAM 101100Z 21005KT 170V250 CAVOK 27/21 Q1017

2010/08/10 11:00
LEGR 101100Z 35003KT 300V060 9999 FEW050 33/10 Q1020

2010/08/10 11:00
LERL 101100Z 23003KT 160V290 CAVOK 34/10 Q1020

2010/08/10 11:01
KHTS 101101Z 00000KT 2 1/2SM BR CLR 21/20 A3000

2010/08/10 11:01
KIAG 101101Z 00000KT 1SM BR FEW032 SCT044 BKN100 BKN200 21/21 A2994

2010/08/10 11:00
TFFR 101100Z 09002KT 9999 FEW020 28/25 Q1014 TEMPO 4000 SHRA

2010/08/10 11:00
YPXM 101100Z AUTO 09008KT 9999NDV // BKN008 OVC012 25/23 Q1011

2010/08/10 11:01
KMKL 101101Z AUTO 00000KT 2SM BR CLR 24/23 A2996

2010/08/10 11:01
KMSL 101101Z AUTO 00000KT 5SM BR FEW001 24/23 A3000

2010/08/10 11:00
GCHI 101100Z 36010KT 340V040 9999 FEW022 SCT030 24/19 Q1017

2010/08/10 11:00
GEML 101100Z 01006KT 330V070 9999 FEW015 28/22 Q1018

2010/08/10 11:00
LEBA 101100Z VRB01KT CAVOK 36/13 Q1016

2010/08/10 11:00
LEDA 101100Z 23004KT 150V320 CAVOK 28/14 Q1018

2010/08/10 11:00
LEJR 101100Z VRB01KT 9999 FEW020 36/08 Q1016

2010/08/10 11:00
LELL 101100Z 12007KT 080V150 9000 FEW012 BKN027 25/19 Q1017

2010/08/10 11:00
LEPP 101100Z 00000KT CAVOK 26/14 Q1019

2010/08/10 11:00
LEXJ 101100Z 04006KT 9999 FEW030 23/16 Q1019

2010/08/10 11:00
YPXM 101100Z AUTO 09008KT 9999NDV // BKN008 OVC012 25/23 Q1011

2010/08/10 10:58
CWOB 101058Z AUTO ///// 0SM CLR 03/ A2981

2010/08/10 10:59
CYDN 101059Z AUTO 30003KT 9SM -RA FEW061 SCT074 SCT094 OVC120 18/17 A2987 RMK SLP118 DENSITY ALT 1600FT

2010/08/10 10:59
CYHD 101059Z AUTO 05008KT 2 3/8SM +RA SCT001 BKN020 BKN042 19/19 A2994

2010/08/10 11:01
CYQA 101101Z AUTO 00000KT 1 1/2SM BR BKN002 OVC008 20/20 A2995 RMK SLP142 DENSITY ALT 1600FT

2010/08/10 11:02
CYQA 101102Z AUTO 00000KT 1 1/2SM BR SCT002 OVC008 20/20 A2995 RMK SLP142 DENSITY ALT 1600FT

2010/08/10 10:59
CYUA 101059Z AUTO 27010KT 8SM -RA BKN001 BKN051 BKN064 11/ A2966

2010/08/10 11:01
CZUM 101101Z AUTO 29011KT 9SM BKN013 OVC036 OVC059 12/09 A2968

2010/08/10 11:00
EGUL 101100Z AUTO 24008KT 9999 FEW006 SCT016 17/13 A2979 RMK AO2 FEW V SCT SLP090

2010/08/10 10:59
EHWO 101059Z AUTO 20010KT 9999NDV // BKN140 21/14 Q1012 RE// BLU BLU NOSIG

2010/08/10 11:00
KGTB 101100Z AUTO 00000KT 10SM OVC012 21/20 A2995 RMK AO2 CIG 011V015 SLP140

2010/08/10 11:01
KLSF 101101Z AUTO 00000KT 1 3/4SM BR CLR 22/22 A2999 RMK AO2 SLP154 PNO $

2010/08/10 11:02
KMTC 101102Z 00000KT 1SM R19/P6000FT BR CLR 20/20 A2995

2010/08/10 11:02
RODN 101102Z 16011KT 9999 BKN022 BKN220 28/26 A2983 RMK AO2A CIG 019V025 BKN022 V SCT SLP100

2010/08/10 11:01
YBCS 101101Z 00000KT 9999 FEW003 BKN017 BKN025 24/23 Q1015

2010/08/10 10:58
YBRK 101058Z 26011KT 2000 SHRA FEW008 BKN015 20/19 Q1017 RESHRA

2010/08/10 11:00
YMHB 101100Z 11007KT 7000 -SHRA FEW020 SCT040 BKN050 12/10 Q1021

2010/08/10 11:00
YMML 101100Z 36008KT 7000 -RA SCT011 SCT028 OVC055 08/07 Q1010 FM1100 29008KT 9000 -RA SCT006 BKN010 INTER 1100/1130 4000 RA BKN008 INTER 1130/1400 4000 RA BKN005

2010/08/10 11:00
YSRI 101100Z AUTO 00000KT 2000NDV // OVC014 12/12 Q1012

2010/08/10 11:01
KHTS 101101Z 00000KT 2 1/2SM BR CLR 21/20 A3000

2010/08/10 11:00
YBBN 101100Z 14006KT 2500 -RA SCT006 BKN014 BKN034 19/19 Q1016 FM1140 02012KT 7000 -RA BKN008 BKN025 TEMPO 1100/1400 02015G25KT 3000 RA BKN006 FM1110 MOD TURB BLW 7000FT

2010/08/10 11:00
PASN 101100Z 27009KT 1/2SM FG BKN001 OVC008 08/08 A2945

2010/08/10 11:00
YBBN 101100Z 14006KT 2500 -RA SCT006 BKN014 BKN034 19/19 Q1016 FM1140 02012KT 7000 -RA BKN008 BKN025 TEMPO 1100/1400 02015G25KT 3000 RA BKN006 FM1110 MOD TURB BLW 7000FT

2010/08/10 10:50
EGOM 101050Z 21014KT 9999 SHRA BKN018 SCT030 13/10 Q1004 WHT

2010/08/10 10:58
EGVP 101058Z 26007KT 9999 6000SW -DZ BKN012 BKN035 16/13 Q1011 GRN TEMPO 3000 SCT006 YLO1

2010/08/10 10:50
EGWC 101050Z 24006KT 9999 FEW022 BKN027 18/09 Q1009 BLU

2010/08/10 10:50
EGXJ 101050Z 23014KT 9999 SCT025 SCT250 18/11 Q1008 BLU NOSIG

2010/08/10 10:50
EGXX 101050Z 22016KT 9999 SCT035 18/10 Q1007 BLU

2010/08/10 10:50
EGXZ 101050Z 24012KT 9999 FEW031 BKN060 17/08 Q1006 BLU

2010/08/10 11:00
EPGD 101100Z 11004KT 060V140 9999 SCT036 21/14 Q1017

2010/08/10 11:00
EPKK 101100Z 28004KT 180V350 9999 SCT033 23/15 Q1018

2010/08/10 11:00
EPKT 101100Z 23007KT 9999 BKN030TCU 23/15 Q1018

2010/08/10 11:00
EPPO 101100Z 28003KT 220V360 9999 BKN030TCU 24/16 Q1017

2010/08/10 11:00
EPRZ 101100Z 26008KT 210V280 9999 SCT030 24/16 Q1017

2010/08/10 11:00
EPWA 101100Z 17004KT 130V250 9999 BKN036 26/17 Q1016 NOSIG

2010/08/10 11:00
EPWR 101100Z 30003KT 280V350 9999 FEW030TCU 24/16 Q1018

2010/08/10 10:50
ETUO 101050Z AUTO 22004KT 9999NDV // FEW050/// 25/12 Q1014

2010/08/10 10:50
LGBL 101050Z 12007KT 9999 FEW030 34/18 Q1011 NOSIG BLU

2010/08/10 10:45
LHKE 101045Z 32002MPS 9999 FEW045 26/15 Q1017 NOSIG RMK BLU

2010/08/10 10:45
LHPA 101045Z 27002MPS 9999 FEW030 25/16 Q1019 NOSIG RMK BLU

2010/08/10 10:45
LHPP 101045Z 07004KT 9999 FEW040 SCT200 26/16 Q1019

2010/08/10 10:45
LHSN 101045Z 31002MPS 9999 FEW040 26/15 Q1017 NOSIG RMK BLU

2010/08/10 10:45
LHUD 101045Z 35006KT 9999 FEW041 27/17 Q1018

2010/08/10 11:00
LKKV 101100Z 29003KT 9999 FEW048 21/12 Q1019

2010/08/10 11:00
LKMT 101100Z VRB01KT 9999 FEW036 23/14 Q1018 NOSIG

2010/08/10 11:00
LKPR 101100Z 04004KT 330V090 9999 BKN045 23/12 Q1018 NOSIG

2010/08/10 11:00
LKTB 101100Z 21004KT 140V250 9999 SCT043 25/15 Q1018 NOSIG

2010/08/10 11:00
LWSK 101100Z 03007KT 350V070 CAVOK 30/12 Q1015 NOSIG

2010/08/10 11:00
LYBE 101100Z 36006KT 300V050 9999 SCT043 27/15 Q1018 NOSIG

2010/08/10 11:00
LYNI 101100Z 33011KT 9999 FEW030 27/16 Q1017 NOSIG

2010/08/10 11:00
LYPG 101100Z 22006KT 180V260 9999 FEW040 31/14 Q1012 NOSIG

2010/08/10 11:00
LYTV 101100Z 20005KT 150V280 CAVOK 31/17 Q1013 NOSIG

2010/08/10 10:50
HLLM 101050Z 36009KT 7000 SKC 28/19 Q1016

2010/08/10 10:59
KNGU 101059Z 22003KT 10SM FEW060 26/23 A2999 RMK AO2 SLP156 T02560228

2010/08/10 10:56
KNID 101056Z AUTO 19007KT CLR 19/01 A2985 RMK AO2 SLP086 T01940011 TSNO $

2010/08/10 10:56
KNPA 101056Z 01007KT 8SM SCT280 26/24 A2992 RMK AO2 SLP132 T02610239

2010/08/10 10:56
KNQI 101056Z AUTO 00000KT 5SM BR CLR 27/24 A2987 RMK AO2 SLP112 T02670244 $

2010/08/10 10:56
KNSE 101056Z AUTO 03004KT 4SM HZ CLR 26/23 A2994 RMK AO2 SLP122 T02560228 $

2010/08/10 10:56
KNXP 101056Z AUTO 32004KT CLR 22/M01 A2992 RMK AO2 SLP094 T02171006 $

2010/08/10 10:56
KOSC 101056Z AUTO 32007KT OVC001 21/20 A2997 RMK AO2 PWINO

2010/08/10 10:55
KTTS 101055Z 10005KT 10SM FEW025 SCT050 26/25 A2993 RMK SLP135 2CU 2SC /4/

2010/08/10 10:56
K79J 101056Z AUTO 00000KT 8SM CLR 24/21 A2996 RMK AO2 SLP140 T02440211 TSNO PNO $

2010/08/10 10:55
KDMA 101055Z AUTO 16006KT 10SM CLR 24/17 A2995 RMK AO2 SLP071 T02430169 VISNO RWY12 CHINO RWY12 $

2010/08/10 10:58
KFFO 101058Z 00000KT 4SM BR SCT250 23/21 A2998 RMK AO2A SLP146

2010/08/10 10:56
KHLR 101056Z AUTO 18004KT 10SM CLR 27/23 A2993 RMK AO2 SLP126 T02670228 $

2010/08/10 10:55
KHOP 101055Z AUTO 00000KT 10SM CLR 25/25 A2997 RMK AO2 SLP144 T02540247

2010/08/10 10:55
KLUF 101055Z AUTO 04005KT 10SM FEW120 28/15 A2981 RMK AO2 SLP065 T02830150 $

2010/08/10 10:55
KMXF 101055Z AUTO 00000KT 9SM FEW070 25/24 A2997 RMK AO2 SLP146 T02510236

2010/08/10 10:57
KNJM 101057Z AUTO 26003KT 10SM CLR 27/25 A3002 RMK AO2 SLP169 T02670250

2010/08/10 10:56
KNRS 101056Z AUTO 00000KT 10SM OVC013 17/14 A2990 RMK AO2 SLP125 T01720144 TSNO

2010/08/10 10:55
KSVN 101055Z 25002KT 8SM FEW010 FEW030 FEW250 27/25 A2999 RMK SLP157 WND DATA ESTMD ALSTG/SLP ESTMD

2010/08/10 10:56
PPIZ 101056Z AUTO 06017G23KT 10SM CLR 04/03 A2967 RMK AO2 TSNO T00440027 PK WND 06027/1028 SLP051 $

2010/08/10 11:03
CYSL 101103Z 00000KT 1/2SM FG SCT220 RMK FG3CI0

2010/08/10 10:57
PHNG 101057Z AUTO 08008KT 10SM SCT026 SCT036 BKN060 25/20 A3010 RMK AO2 SLP186 T02500200 $ 

2010/08/10 10:50
EGYH 101050Z 24010KT 9999 FEW015 SCT035 18/// Q1008 BLU

2010/08/10 11:04
YMAV 101104Z AUTO 35006KT 4000NDV // SCT009 BKN014 08/08 Q1009

2010/08/10 11:04
YMAV 101104Z AUTO 35006KT 4000NDV // SCT009 BKN014 08/08 Q1009

2010/08/10 11:03
KCAE 101103Z 00000KT 1/4SM FG OVC002 24/23 A3002 RMK AO2 TWR VIS 1/4 RVRNO 

2010/08/10 11:00
FAJB 101100Z AUTO 09007KT //// // ////// 14/M15 Q1032

2010/08/10 11:00
WBKK 101100Z 06006KT 9999 -RA FEW014 SCT040 BKN260 28/25 Q1009 NOSIG

2010/08/10 11:00
WMKJ 101100Z 17003KT 9999 FEW020 BKN140 31/24 Q1006

2010/08/10 11:00
WMKK 101100Z 15002KT 9999 FEW018 SCT140 BKN280 29/26 Q1006 NOSIG

2010/08/10 11:00
WMKP 101100Z 24004KT 9000 FEW020 SCT140 BKN270 30/26 Q1006 NOSIG

2010/08/10 11:00
WMSA 101100Z 16005KT 9999 FEW020 BKN280 32/25 Q1006

2010/08/10 11:00
FMCZ 101100Z 17010KT 9999 FEW023 SCT100 28/19 Q1017

2010/08/10 11:00
EICK 101100Z 31013KT 9999 BKN027 17/09 Q1010 NOSIG

2010/08/10 11:00
EIDW 101100Z 28015KT 9999 SCT028 16/10 Q1007 NOSIG

2010/08/10 11:00
EIKN 101100Z 29012KT 9999 SCT022 SCT047 15/10 Q1008 NOSIG

2010/08/10 11:00
EINN 101100Z 29010KT 9999 FEW021 BKN050 18/13 Q1009 NOSIG

2010/08/10 11:00
LEAS 101100Z 31007KT 280V340 9999 FEW025 20/16 Q1019 NOSIG

2010/08/10 11:00
LEBB 101100Z VRB03KT 9999 FEW030 26/17 Q1018 NOSIG

2010/08/10 11:00
LEBZ 101100Z 27004KT 160V300 CAVOK 36/13 Q1017

2010/08/10 11:00
LECO 101100Z 03009KT 360V060 CAVOK 22/16 Q1020

2010/08/10 11:00
LEGE 101100Z 17014KT 110V210 9999 SCT020 27/20 Q1017

2010/08/10 11:00
LEGR 101100Z 35003KT 300V060 9999 FEW050 33/10 Q1020

2010/08/10 11:00
LELN 101100Z 25009KT 200V300 CAVOK 27/05 Q1021

2010/08/10 11:00
LEMD 101100Z 02002KT CAVOK 33/13 Q1019 NOSIG

2010/08/10 11:00
LEMH 101100Z 12006KT 060V170 CAVOK 30/16 Q1017

2010/08/10 11:00
LEMO 101100Z VRB02KT CAVOK 37/16 Q1017 NOSIG

2010/08/10 11:00
LERS 101100Z 14005KT 090V210 9999 BKN016 27/20 Q1017

2010/08/10 11:00
LESA 101100Z VRB01KT 7000 FEW040 31/15 Q1021

2010/08/10 11:00
LESO 101100Z 01006KT 290V060 CAVOK 22/16 Q1018

2010/08/10 11:00
LEST 101100Z 29003KT 230V340 CAVOK 26/06 Q1020 NOSIG

2010/08/10 11:00
LETO 101100Z 19004KT 120V290 CAVOK 32/12 Q1019 NOSIG

2010/08/10 11:00
LEVD 101100Z 26008KT 230V300 CAVOK 29/09 Q1021

2010/08/10 11:00
LEVS 101100Z 20005KT 140V250 9000 NSC 34/13 Q1020

2010/08/10 11:00
LEVT 101100Z VRB02KT 9999 FEW030 24/14 Q1019

2010/08/10 11:00
LEZG 101100Z 28002KT CAVOK 26/14 Q1018

2010/08/10 10:45
LHDC 101045Z 26003KT 9999 FEW036 25/15 Q1018 NOSIG

2010/08/10 11:00
LKCV 101100Z VRB03KT 9999 SCT037 23/14 Q1018 NOSIG RMK BLU+ BLU+

2010/08/10 11:00
LKNA 101100Z 19006KT 140V230 9999 BKN048 22/13 Q1019 NOSIG RMK BLU BLU

2010/08/10 11:00
LKPO 101100Z 23003KT 9999 SCT037 23/14 Q1018 NOSIG RMK BLU+ BLU+

2010/08/10 11:00
BIAR 101100Z 29004KT 9999 OVC013 11/08 Q1014

2010/08/10 11:00
BIEG 101100Z 36005KT 9999 SCT006 OVC008 09/08 Q1014

2010/08/10 11:00
BIKF 101100Z 34007KT 9999 FEW018 BKN021 12/07 Q1015

2010/08/10 10:55
KHUA 101055Z AUTO RMK AO2 SLPNO PWINO PNO TSNO $

2010/08/10 11:00
KNEL 101100Z AUTO 00000KT 5SM HZ FEW080 24/21 A2993 RMK AO2 SLP134 T02390206 $

2010/08/10 10:59
KNGU 101059Z 22003KT 10SM FEW060 26/23 A2999 RMK AO2 SLP156 T02560228

2010/08/10 10:56
KNRS 101056Z AUTO 00000KT 10SM OVC013 17/14 A2990 RMK AO2 SLP125 T01720144 TSNO

2010/08/10 11:00
LEMO 101100Z VRB02KT CAVOK 37/16 Q1017 NOSIG

2010/08/10 11:00
LKKV 101100Z 29003KT 9999 FEW048 21/12 Q1019

2010/08/10 11:00
MGHT 101100Z 00000KT 9999 SCT015 BKN200 15/14 QFE 817/2

2010/08/10 11:00
MGPB 101100Z 00000KT 9999 FEW016 SCT090 26/25 Q1010 A2983 CB/LTN G DIST NNW

2010/08/10 11:00
MGSJ 101100Z 00000KT 9999 FEW016 BKN200 24/24 Q1012 A2988

2010/08/10 11:00
MYGF 101100Z 14010KT 9999 BKN018 SCT100 27/24 A2994 /

2010/08/10 11:00
OJAM 101100Z 33005KT 5000 HZ NSC 34/13 Q1010 NOSIG

2010/08/10 11:00
OJAQ 101100Z 36018KT 7000 NSC 37/19 Q1004

2010/08/10 10:55
PWAK 101055Z 07011KT 10SM FEW023 28/24 A3006 RMK AO2A

2010/08/10 11:00
RJAW 101100Z 11005KT 9999 FEW015 26/24 Q1014 RMK 1CU015 A2997

2010/08/10 11:00
RJSM 101100Z 10004KT 3000 BR FEW001 SCT003 BKN005 23/22 Q1013 RMK 1ST001 3ST003 5ST005 A2993 VIS NE-E 1500M FCST 1117 BECMG 1112 2000 BR SCT001ST BKN003ST TEMPO 1215 1500 BR SCT000ST BKN001ST BECMG 1516 21006KT 6000 NSW TEMPO 1617 4000 BR SCT003ST BKN005ST/ ST 12Z-15Z

2010/08/10 11:00
SCON 101100Z AUTO VRB02KT CAVOK 04/03 Q1022

2010/08/10 11:00
SCSE 101100Z 30002KT 9999 OVC015 10/08 Q1017 NEFO PLAYA 1800FT

2010/08/10 11:00
TAPA 101100Z 10010KT 9999 FEW020 28/24 Q1013

2010/08/10 11:00
WSSS 101100Z 15010KT 9999 FEW016TCU BKN180 BKN300 30/26 Q1007 NOSIG

2010/08/10 11:04
CYZE 101104Z AUTO 00000KT 2SM BR CLR 16/16 A2994 RMK SLP141 DENSITY ALT 800FT VIS VRB 3/4-3

2010/08/10 11:03
KSXT 101103Z AUTO 36007KT 1 1/2SM BR FEW002 10/09 A2997 RMK AO2 TSNO 

2010/08/10 11:02
PATQ 101102Z AUTO 07016KT 3/4SM -RA BR OVC005 02/02 A2979 RMK AO2 TSNO RAB00 P0000 $

2010/08/10 11:03
KCKB 101103Z 00000KT 3SM BR CLR 19/18 A3002 RMK AO2

2010/08/10 11:03
KELZ 101103Z AUTO 00000KT 3/4SM -RA BR BKN060 OVC080 19/19 A3004 RMK AO2 P0000

2010/08/10 11:03
KHQM 101103Z AUTO 00000KT 5SM BR OVC010 13/12 A2996 RMK AO2 CIG 006V013

2010/08/10 11:02
PATQ 101102Z AUTO 07016KT 3/4SM -RA BR OVC005 02/02 A2979 RMK AO2 TSNO RAB00 P0000 $

2010/08/10 10:56
PANW 101056Z AUTO 18007KT 10SM OVC001 09/09 A2965 RMK AO2 PWINO TSNO T00940088 SLP018 $

2010/08/10 11:02
KBIJ 101102Z AUTO 00000KT 5SM HZ CLR 23/ A2997 RMK AO2

2010/08/10 11:00
KI16 101100Z AUTO 00000KT 5SM -DZ SCT042 BKN060 OVC090 20/20 A3007 RMK AO2

2010/08/10 11:01
KIDI 101101Z AUTO 00000KT 7SM SCT060 20/19 A3001 RMK AO2

2010/08/10 11:00
KJFZ 101100Z AUTO 00000KT 10SM FEW028 22/20 A3012 RMK

2010/08/10 10:55
KLGC 101055Z AUTO 00000KT 5SM CLR 21/ A3001 RMK AO1

2010/08/10 11:00
KLOM 101100Z AUTO 00000KT 5SM CLR 24/22 A2993 RMK AO1 T02360222

2010/08/10 11:00
KMKJ 101100Z AUTO 00000KT 4SM BKN080 19/08 A3018 RMK AO1

2010/08/10 11:00
KMQS 101100Z AUTO 00000KT 7SM CLR 24/24 A2997 RMK AO2

2010/08/10 11:00
KMTV 101100Z AUTO 00000KT 2SM BR CLR 22/22 A3004 RMK AO2

2010/08/10 11:00
KOBE 101100Z AUTO 10003KT 5SM BR CLR 23/22 A2989 RMK AO2

2010/08/10 11:00
KOKV 101100Z AUTO 25003KT 7SM SCT080 24/21 A2999 RMK AO2 T02360206

2010/08/10 11:00
KOMH 101100Z AUTO 00000KT 5SM BR CLR 23/23 A2998 RMK AO2 T02250226

2010/08/10 11:00
KOPN 101100Z AUTO 00000KT 5SM CLR 23/23 A3003 RMK AO1

2010/08/10 11:00
KPCM 101100Z AUTO 09007KT 10SM SCT012 BKN032 BKN050 26/24 A2990 RMK AO2

2010/08/10 11:00
KPSK 101100Z AUTO 00000KT 3SM BR CLR 22/19 A3012 RMK AO2

2010/08/10 11:00
KRCZ 101100Z AUTO 00000KT 1/2SM FG OVC001 24/23 A3003 RMK AO2 T02350233

2010/08/10 11:00
KRMN 101100Z AUTO 00000KT 3SM BR CLR 21/21 A2999 RMK AO2

2010/08/10 11:00
KSFQ 101100Z AUTO 00000KT 7SM CLR 24/23 A2999 RMK AO2

2010/08/10 11:00
KSHD 101100Z AUTO 00000KT 2SM BR CLR 19/19 A3003 RMK AO2

2010/08/10 11:00
KTBR 101100Z AUTO 00000KT 2 1/2SM BR SCT002 24/24 A3000 RMK AO2 T02360236

2010/08/10 11:03
KTNB 101103Z AUTO 00000KT 1SM BR VV007 17/17 A3018 RMK AO2

2010/08/10 11:00
KTVI 101100Z AUTO 06004KT 7SM BKN007 25/24 A2997 RMK AO2 T02490240

2010/08/10 11:00
KVDI 101100Z AUTO 00000KT 7SM CLR 25/24 A3001 RMK AO2

2010/08/10 11:00
KVJI 101100Z AUTO 00000KT 7SM BKN060 OVC070 23/22 A3011 RMK AO2 TSNO

2010/08/10 11:00
KW22 101100Z AUTO 00000KT 5SM BR CLR 19/19 A3006 RMK AO2

2010/08/10 11:00
KW45 101100Z AUTO 00000KT 2SM BR CLR 22/22 A3000 RMK AO2 T02150216

2010/08/10 11:00
KWDR 101100Z AUTO 00000KT 4SM CLR 23/21 A3008 RMK AO1

2010/08/10 11:00
KXLL 101100Z AUTO 05005KT 7SM SCT120 25/22 A2996 RMK AO2 T02470220

2010/08/10 11:00
KXSA 101100Z AUTO 00000KT 7SM CLR 23/22 A2996 RMK AO2

2010/08/10 10:56
KY70 101056Z AUTO 26003KT M1/4SM FG OVC001 20/19 A2999 RMK AO2 T01950190

2010/08/10 10:50
ENBS 101050Z 03005KT 9999 BKN036 12/07 Q1012

2010/08/10 11:00
FYGB 101100Z AUTO 11005KT //// // ////// 15/M13 Q1031

2010/08/10 11:00
FYGF 101100Z AUTO 12008KT //// // ////// 18/M11 Q1029

2010/08/10 11:00
FYKT 101100Z 09013KT CAVOK 16/M12 Q1032

2010/08/10 11:00
FYLZ 101100Z AUTO 06023KT //// // ////// 28/M15 Q1020

2010/08/10 11:00
FYML 101100Z AUTO 09007KT //// // ////// ///// Q1034

2010/08/10 11:00
FYOJ 101100Z AUTO 08010KT //// // ////// 23/M07 Q1025

2010/08/10 11:00
FYOW 101100Z AUTO 11008KT //// // ////// 23/M11 Q1026

2010/08/10 11:00
FYRU 101100Z 09010KT CAVOK 21/M08 Q1026

2010/08/10 11:00
FYWB 101100Z 08027KT 9999 VV/// 33/M12 Q1016 

2010/08/10 11:00
FYWH 101100Z 08007KT CAVOK 14/M16 Q1032

2010/08/10 11:00
FYWW 101100Z 11007KT CAVOK 16/08 Q1029

2010/08/10 10:50
ENOV 101050Z VRB02KT 9999 SCT012 BKN018 16/13 Q1010 

2010/08/10 11:00
OEDF 101100Z 12008KT 6000 SKC 44/14 Q0998 NOSIG

2010/08/10 11:00
OEDR 101100Z 13009KT 7000 SKC 41/16 Q0997 NOSIG

2010/08/10 11:00
OEJN 101100Z 28010KT CAVOK 36/25 Q1001 NOSIG

2010/08/10 11:00
OEMA 101100Z 21005KT 8000 SKC 45/M02 Q1005 NOSIG

2010/08/10 11:00
OERK 101100Z 05008KT 8000 NSC 44/04 Q1004 NOSIG

2010/08/10 11:00
OERY 101100Z 03003KT 8000 SKC 44/04 Q1004 NOSIG

2010/08/10 11:00
YMAV 101100Z AUTO 35007KT 4000NDV // SCT014 07/07 Q1009

2010/08/10 11:00
FABL 101100Z 15014KT 120V190 CAVOK 12/M09 Q1033 NOSIG

2010/08/10 11:00
FACT 101100Z VRB04KT CAVOK 17/04 Q1036 NOSIG

2010/08/10 11:00
FAEL 101100Z 24011KT 9999 FEW017 BKN045 FEW050TCU 14/09 Q1038

2010/08/10 11:00
FAGG 101100Z 09005KT 9999 BKN050 13/06 Q1038

2010/08/10 11:00
FAJS 101100Z 10016KT 050V120 CAVOK 13/M16 Q1034 NOSIG

2010/08/10 11:00
FAKN 101100Z 13005KT CAVOK 17/M07 Q1033 NOSIG

2010/08/10 11:00
FALA 101100Z 10014KT 070V130 CAVOK 17/M16 Q1032 NOSIG

2010/08/10 11:00
FALE 101100Z 18021G32KT 9999 FEW045 18/08 Q1034 NOSIG

2010/08/10 11:00
FAMM 101100Z 12010KT CAVOK 17/M20 Q1032 NOSIG

2010/08/10 11:00
FAPN 101100Z AUTO 09005KT //// // ////// 17/M05 Q1031

2010/08/10 11:00
FAPP 101100Z 08003KT 9999 FEW040 17/05 Q1030 NOSIG

2010/08/10 11:00
FAUP 101100Z 08008KT CAVOK 15/M08 Q1034 NOSIG

2010/08/10 11:00
YBBN 101100Z 14006KT 2500 -RA SCT006 BKN014 BKN034 19/19 Q1016 FM1140 02012KT 7000 -RA BKN008 BKN025 TEMPO 1100/1400 02015G25KT 3000 RA BKN006 FM1110 MOD TURB BLW 7000FT

2010/08/10 11:00
YAMB 101100Z AUTO 20004KT 2100NDV // OVC003 18/18 Q1017

2010/08/10 11:00
SAEZ 101100Z 11002KT 3000 R11/1300D RMID/1400U R29/1200 MIFG BR 02/01 Q1028

2010/08/10 11:03
CYYN 101103Z AUTO 36010KT 2 1/4SM +RA VV005 16/15 A2983

2010/08/10 11:00
YPXM 101100Z AUTO 09008KT 9999NDV // BKN008 OVC012 25/23 Q1011

2010/08/10 11:00
FBKE 101100Z 08013KT CAVOK 27/05 Q1023

2010/08/10 11:00
FBMN 101100Z 16010KT CAVOK 20/M11 Q1027

2010/08/10 11:00
YBCG 101100Z AUTO 05014KT 6000NDV // SCT008 BKN039 OVC058 20/19 Q1017

2010/08/10 11:00
LUKK 101100Z 02010KT CAVOK 33/13 Q1013 08CLRD65 NOSIG

2010/08/10 11:00
LUBL 101100Z 33008KT CAVOK 28/16 Q1015 RWY33

2010/08/10 10:49
RKPK 101049Z 16013KT 4800 -RA BR FEW010 SCT010CB OVC025 27/23 Q1007 NOSIG RMK TS E46 MOVED N 

2010/08/10 11:00
FBSK 101100Z 13008KT CAVOK 18/M09 Q1030 NOSIG

2010/08/10 11:00
GBYD 101100Z VRB03KT 9999 SCT011 SCT120 27/25 Q1013

2010/08/10 10:49
RKPK 101049Z 16013KT 4800 -RA BR FEW010 SCT010CB OVC025 27/23 Q1007 NOSIG RMK TS E46 MOVED N

2010/08/10 11:00
NWWW 101100Z AUTO 11005KT 9999NDV NCD 18/14 Q1024

2010/08/10 11:00
MKJS 101100Z 00000KT 9999 FEW024 BKN200 26/22 Q1012

2010/08/10 11:02
RODN 101102Z 16011KT 9999 BKN022 BKN220 28/26 A2983 RMK AO2A CIG 019V025 BKN022 V SCT SLP100

2010/08/10 11:00
SAAR 101100Z 00000KT 2000 NSC 02/02 Q1027

2010/08/10 11:00
SABE 101100Z 00000KT 4000 BR NSC 08/06 Q1029

2010/08/10 11:00
SACO 101100Z 29002KT 8000 NSC 01/M03 Q1028

2010/08/10 11:00
SADF 101100Z 00000KT 3000 BR SKC 05/04 Q1028 REFG

2010/08/10 11:00
SAEZ 101100Z 11002KT 3000 R11/1300D RMID/1400U R29/1200 MIFG BR 02/01 Q1028

2010/08/10 11:00
SAME 101100Z 00000KT CAVOK 03/M03 Q1023

2010/08/10 11:00
SANT 101100Z 18004KT 5000 FU OVC045 10/07 Q1025

2010/08/10 11:00
SARE 101100Z 16003KT 6000 NSC 05/04 Q1024

2010/08/10 11:00
SARF 101100Z 20004KT CAVOK 10/09 Q1022

2010/08/10 11:00
SARI 101100Z 23007KT 5000 BR NSC 11/11 Q1023

2010/08/10 11:00
SASA 101100Z 00000KT CAVOK 05/03 Q1025

2010/08/10 11:00
SASJ 101100Z 00000KT CAVOK 09/03 Q1024

2010/08/10 11:00
SAVC 101100Z 29008KT CAVOK 06/M02 Q1020

2010/08/10 11:00
SAZM 101100Z 32005KT CAVOK M01/M03 Q1027

2010/08/10 11:00
SAZS 101100Z 14009KT CAVOK M02/M05 Q1022

2010/08/10 11:00
RPLL 101100Z 23007KT 9000 SCT025 OVC300 28/25 Q1009 NOSIG RMK A2980

2010/08/10 11:00
RPVM 101100Z 00000KT 9999 FEW018CB BKN250 28/27 Q1010 A2984 OCNL LTNG N

2010/08/10 11:00
RPLB 101100Z VRB01KT 9999 FEW020 OVC300 27/24 Q1010 NOSIG

2010/08/10 11:00
MKJS 101100Z 00000KT 9999 FEW024 BKN200 26/22 Q1012

2010/08/10 11:00
EGUL 101100Z AUTO 24008KT 9999 FEW006 SCT016 17/13 A2979 RMK AO2 FEW V SCT SLP090

2010/08/10 10:59
EHWO 101059Z AUTO 20010KT 9999NDV // BKN140 21/14 Q1012 RE// BLU BLU NOSIG

2010/08/10 11:02
RODN 101102Z 16011KT 9999 BKN022 BKN220 28/26 A2983 RMK AO2A CIG 019V025 BKN022 V SCT SLP100

2010/08/10 11:03
KCAE 101103Z 00000KT 1/4SM FG OVC002 24/23 A3002

2010/08/10 11:00
RJGG 101100Z 14004KT 9999 FEW007 SCT030 BKN170 27/25 Q1014 NOSIG

2010/08/10 11:00
RJNT 101100Z 16003KT 110V200 9999 FEW005 SCT080 BKN120 27/25 Q1013

2010/08/10 11:00
RJOA 101100Z 11003KT 9999 FEW025 SCT070 26/23 Q1014

2010/08/10 11:00
RJOB 101100Z 08006KT 9999 FEW015 SCT040 BKN150 27/23 Q1014

2010/08/10 11:00
RJOC 101100Z 16006KT 9999 FEW025 SCT120 31/23 Q1010

2010/08/10 11:00
RJOH 101100Z 15008KT 9999 FEW050 BKN130 BKN180 31/24 Q1010

2010/08/10 11:00
RJOK 101100Z 13003KT 9999 FEW010 BKN160 BKN/// 27/25 Q1014

2010/08/10 11:00
RJOM 101100Z 13012KT 9999 FEW020 SCT080 30/22 Q1011

2010/08/10 11:00
RJOO 101100Z 07004KT 020V120 9999 FEW010 SCT045 BKN120 28/22 Q1014

2010/08/10 11:00
RJOR 101100Z 14011KT 9999 FEW030 BKN150 31/25 Q1011

2010/08/10 11:00
RJOT 101100Z 12005KT 9999 FEW025 SCT140 BKN/// 26/24 Q1013

2010/08/10 11:00
RJSA 101100Z VRB02KT 9999 FEW020 24/23 Q1014

2010/08/10 11:00
RJSK 101100Z VRB01KT 9999 FEW025 BKN180 BKN/// 27/24 Q1013

2010/08/10 11:00
RJSN 101100Z 30003KT 9999 FEW030 SCT050 BKN100 29/25 Q1013

2010/08/10 11:00
RJSS 101100Z 13003KT 9999 FEW020 SCT040 BKN/// 25/24 Q1013

2010/08/10 11:00
RJSY 101100Z 31001KT 9999 FEW040 SCT070 BKN/// 28/24 Q1013

2010/08/10 11:00
RJTT 101100Z 17012KT 9999 FEW015 SCT130 BKN/// 27/23 Q1015

2010/08/10 11:00
ROAH 101100Z 18012KT 9999 FEW015 BKN020 29/26 Q1009

2010/08/10 11:00
ROIG 101100Z 19010KT 9999 FEW015 SCT200 BKN/// 29/26 Q1008

2010/08/10 11:00
ROMY 101100Z 20004KT 160V220 9999 FEW015 SCT150 BKN/// 28/27 Q1008

2010/08/10 11:00
RJAA 101100Z 17006KT 9999 FEW015 SCT045 BKN/// 26/24 Q1015 NOSIG

2010/08/10 11:00
RJBB 101100Z 18004KT 9999 FEW015 BKN120 BKN/// 28/24 Q1014 NOSIG

2010/08/10 11:00
RJBE 101100Z 25004KT 9999 FEW025 SCT080 BKN140 27/24 Q1014

2010/08/10 11:00
RJBH 101100Z 21005KT 9999 FEW030 SCT130 BKN/// 29/23 Q1011

2010/08/10 11:00
RJCB 101100Z VRB02KT 3100 BR BKN001 BKN005 21/20 Q1014

2010/08/10 11:00
RJCC 101100Z 17010KT 1800 -DZ BR BKN001 BKN002 21/20 Q1014

2010/08/10 11:00
RJCH 101100Z 31005KT 2300 BR SCT002 BKN005 23/23 Q1013

2010/08/10 11:00
RJCK 101100Z 21005KT 0400 R35/0700V1800D FG VV001 20/18 Q1015

2010/08/10 11:00
RJCM 101100Z VRB02KT 9999 FEW015 BKN080 24/22 Q1013

2010/08/10 11:00
RJDC 101100Z 11021KT 9999 FEW020 SCT100 BKN130 27/24 Q1009

2010/08/10 11:00
RJDT 101100Z 16019G31KT 9999 -SHRA FEW007 SCT025 BKN030 27/24 Q1006

2010/08/10 11:00
RJEC 101100Z 11004KT 040V130 9999 FEW025 24/22 Q1014

2010/08/10 11:00
RJFS 101100Z 17011KT 9999 SHRA FEW025 BKN040 27/25 Q1008

2010/08/10 11:00
RJFF 101100Z 19010KT 150V210 9999 FEW025 SCT050 BKN080 31/21 Q1007

2010/08/10 11:00
RJFK 101100Z 13009KT 9999 FEW010 SCT015 BKN040 26/24 Q1012

2010/08/10 11:00
RJFM 101100Z 16008KT 9999 FEW010 SCT020 BKN/// 28/25 Q1011

2010/08/10 11:00
RJFO 101100Z 13017KT 9999 FEW015 SCT060 BKN/// 26/25 Q1011

2010/08/10 11:00
RJFR 101100Z 11023KT 9999 FEW025 BKN150 BKN/// 29/24 Q1009

2010/08/10 11:00
RJFT 101100Z 07006KT 050V120 9999 FEW020 SCT080 BKN/// 27/22 Q1009

2010/08/10 11:00
RJFU 101100Z 14015KT 9999 -SHRA FEW015 SCT020 BKN040 26/25 Q1007

2010/08/10 11:00
ZBAA 101100Z 13004MPS 4000 HZ NSC 27/21 Q1005 NOSIG

2010/08/10 11:00
ZBSJ 101100Z 12001MPS 5000 BR NSC 28/24 Q1006 NOSIG

2010/08/10 11:00
ZBTJ 101100Z 14004MPS 7000 NSC 28/21 Q1005 NOSIG

2010/08/10 11:00
ZBYN 101100Z 08005MPS 9999 SCT040 24/17 Q1009 NOSIG

2010/08/10 11:00
ZGGG 101100Z 14004MPS 9000 FEW033 34/24 Q1004 NOSIG

2010/08/10 11:00
ZSHC 101100Z 03002MPS CAVOK 33/24 Q1003 NOSIG

2010/08/10 11:00
ZSPD 101100Z 33004MPS CAVOK 29/24 Q1003 NOSIG

2010/08/10 11:00
ZSSS 101100Z 36004MPS 9999 FEW030TCU 31/24 Q1003 NOSIG

2010/08/10 11:00
ZWSH 101100Z 18004MPS 9999 FEW040CB 32/07 Q1007 NOSIG

2010/08/10 11:00
ZWWW 101100Z 01003MPS CAVOK 31/07 Q1003 NOSIG

2010/08/10 11:00
ZYTL 101100Z 09004MPS CAVOK 24/20 Q1006 NOSIG

2010/08/10 11:00
ZYTX 101100Z 01001MPS 9999 FEW033 26/20 Q1006 NOSIG

2010/08/10 11:00
RJAH 101100Z 18008KT 9999 FEW020 BKN030 BKN/// 27/25 Q1014

2010/08/10 11:02
KBTR 101102Z 06003KT 3/4SM BR SCT002 BKN200 23/23 A2994

2010/08/10 11:02
KEYW 101102Z 24009KT 4SM +RA BR SCT015 BKN021 OVC028 26/24 A2985

2010/08/10 11:00
LFMI 101100Z AUTO 21005KT 130V260 9999NDV NSC 29/17 Q1015

2010/08/10 11:00
LFMK 101100Z AUTO 29009KT 240V320 9999NDV NSC 26/13 Q1018

2010/08/10 11:00
LFRD 101100Z AUTO 24009KT 9999NDV FEW011 SCT022 BKN038 20/18 Q1015

2010/08/10 11:00
LFRN 101100Z AUTO 23011KT 9999NDV BKN014 OVC020 20/17 Q1015

2010/08/10 11:00
LFRO 101100Z AUTO 23014KT 9999NDV SCT022 BKN046 BKN092 20/17 Q1014

2010/08/10 11:00
LFRZ 101100Z AUTO 24012KT 9999NDV BKN011 BKN028 OVC038 20/18 Q1017

2010/08/10 11:00
LFSB 101100Z VRB04KT CAVOK 27/10 Q1017 NOSIG

2010/08/10 11:00
LFST 101100Z 18005KT 130V210 9999 FEW060 26/15 Q1016 NOSIG

2010/08/10 11:00
LFTH 101100Z 15007KT 100V200 9999 SCT016 26/21 Q1016 NOSIG

2010/08/10 11:00
LFBD 101100Z 02003KT 300V090 9999 FEW033 BKN250 23/12 Q1018 NOSIG

2010/08/10 11:00
LFBH 101100Z AUTO 23007KT 180V270 9999NDV FEW019 BKN031 21/15 Q1018

2010/08/10 11:00
LFBI 101100Z 22007KT 170V280 9999 SCT021 SCT110 BKN260 21/14 Q1018 BECMG BKN013

2010/08/10 10:54
LFBL 101054Z 20005KT 160V240 9999 FEW021 SCT026 BKN300 20/13 Q1019 NOSIG

2010/08/10 11:00
LFBO 101100Z VRB03KT 9999 FEW043 BKN250 25/14 Q1018 NOSIG

2010/08/10 11:00
LFBP 101100Z VRB02KT 9999 FEW026 23/16 Q1018 NOSIG

2010/08/10 11:00
LFBT 101100Z VRB03KT 9999 FEW033 22/15 Q1019 NOSIG

2010/08/10 11:00
LFBZ 101100Z 08004KT 350V130 9999 FEW025 SCT230 24/17 Q1018 NOSIG

2010/08/10 11:00
LFLB 101100Z 36005KT 9999 FEW053 SCT090 BKN260 26/17 Q1016 NOSIG

2010/08/10 11:00
LFLX 101100Z 23012KT 200V260 CAVOK 23/14 Q1017 NOSIG

2010/08/10 11:00
LFML 101100Z 27003KT 240V320 9999 FEW040 29/18 Q1015 NOSIG

2010/08/10 11:00
LATI 101100Z 34008KT 9999 FEW030 SCT150 33/17 Q1011 NOSIG

2010/08/10 11:00
RKPK 101100Z 16013KT 8000 -RA FEW015 SCT015 OVC040 27/23 Q1006 NOSIG

2010/08/10 11:00
LQTZ 101100Z 10007KT 9999 FEW040 26/// Q1018

2010/08/10 11:00
UBBY 101100Z 14006KT 9999 FEW045 SCT100 34/07 Q1015 NOSIG RMK R33/CLRD70 G/O

2010/08/10 11:00
WMBA 101100Z 17004KT 9999 FEW017CB BKN140 30/23 Q1006

2010/08/10 11:00
WMKA 101100Z 29004KT 9999 FEW030 SCT140 BKN280 29/26 Q1006

2010/08/10 11:00
WMKB 101100Z 32006KT 7000 -RA FEW010 SCT140 BKN270 30/26 Q1006 TEMPO 7000 RA

2010/08/10 11:00
WMKC 101100Z 05004KT 9999 FEW018 OVC220 30/26 Q1006

2010/08/10 11:00
WMKD 101100Z 18003KT 9999 FEW020 BKN160 BKN260 31/26 Q1006 NOSIG

2010/08/10 11:00
WMKI 101100Z 19004KT 9999 FEW030 SCT140 BKN280 31/25 Q1006

2010/08/10 11:00
WMKL 101100Z 25003KT 9999 FEW022 SCT140 BKN270 30/26 Q1006

2010/08/10 11:00
WMKM 101100Z 14004KT 9999 FEW022 SCT140 BKN270 30/25 Q1007

2010/08/10 11:00
WMKN 101100Z 12005KT 9999 TS FEW017CB SCT024 OVC220 29/27 Q1006

2010/08/10 11:00
LCLK 101100Z 19012KT 9999 FEW025 32/26 Q1006 NOSIG

2010/08/10 11:00
LCPH 101100Z 26010KT 230V290 9999 FEW025 31/25 Q1006

2010/08/10 11:00
LFKB 101100Z 12006KT 100V170 9999 FEW030 SCT036 29/19 Q1015 NOSIG

2010/08/10 11:00
LFKC 101100Z 36011KT 320V020 9999 FEW013 27/20 Q1016 NOSIG

2010/08/10 11:00
LFKF 101100Z 22010KT 190V250 9999 FEW036 28/20 Q1016 NOSIG

2010/08/10 11:00
LFKJ 101100Z 23011KT 9999 FEW036 27/21 Q1016 NOSIG

2010/08/10 11:00
LFLC 101100Z 06004KT 360V100 9999 FEW043 BKN250 24/15 Q1018 NOSIG

2010/08/10 11:00
LFMP 101100Z VRB02KT 9999 FEW050 29/13 Q1016 NOSIG

2010/08/10 11:00
LFMV 101100Z AUTO VRB05KT 9999NDV NSC 30/17 Q1015

2010/08/10 11:00
LFSL 101100Z AUTO VRB02KT 9999NDV NSC 22/12 Q1019

2010/08/10 11:00
LRBS 101100Z 06004KT CAVOK 31/18 Q1014 NOSIG

2010/08/10 11:00
LRCK 101100Z VRB06KT CAVOK 34/18 Q1012 NOSIG

2010/08/10 11:00
LROP 101100Z 03003KT 320V100 CAVOK 31/21 Q1013 880///95 NOSIG

2010/08/10 11:00
LRSB 101100Z VRB02KT 9999 SCT045 BKN090 24/17 Q1018

2010/08/10 11:00
LRTR 101100Z 35005KT 280V070 9999 FEW040 27/14 Q1017 NOSIG

2010/08/10 11:00
LFAQ 101100Z AUTO 22015KT 9999NDV FEW042 22/12 Q1014

2010/08/10 11:00
LFBU 101100Z AUTO 24004KT 130V280 9999NDV NSC 22/11 Q1018

2010/08/10 11:00
LFLN 101100Z AUTO 30005KT 260V020 9999NDV NSC 23/16 Q1018

2010/08/10 11:00
LFPM 101100Z 20014KT CAVOK 24/13 Q1015

2010/08/10 11:00
LFRH 101100Z 24013KT 8000 BKN006 BKN049 20/18 Q1016

2010/08/10 11:00
LFRQ 101100Z 24012KT 200V270 9999 SCT011 BKN024 20/17 Q1015 NOSIG

2010/08/10 11:00
LFRT 101100Z 25012KT 210V270 9999 SCT017 BKN026 20/17 Q1014

2010/08/10 11:00
LFSD 101100Z AUTO 19004KT 120V240 9999NDV NSC 27/16 Q1016

2010/08/10 11:00
LFTW 101100Z AUTO VRB04KT 9999NDV NSC 30/14 Q1015

2010/08/10 11:00
LFLL 101100Z 35007KT 290V030 CAVOK 26/15 Q1017 NOSIG

2010/08/10 11:00
LFMN 101100Z 14006KT 9999 FEW016 26/21 Q1016 NOSIG

2010/08/10 11:00
LFPG 101100Z 22013KT CAVOK 24/12 Q1015 NOSIG

2010/08/10 11:00
LFPO 101100Z 21011KT 180V240 9999 FEW046 BKN250 24/13 Q1015 NOSIG

2010/08/10 11:00
LFQQ 101100Z 22011KT 190V250 9999 FEW023 BKN110 21/14 Q1013 NOSIG

2010/08/10 11:00
LFRB 101100Z 22015KT 9999 -RA BKN009 BKN014 18/17 Q1014 NOSIG

2010/08/10 11:00
LFRS 101100Z 24010KT 200V260 9999 BKN019 BKN031 22/16 Q1017 NOSIG

2010/08/10 11:00
LFBA 101100Z VRB03KT 9999 FEW036 SCT250 24/13 Q1018 NOSIG

2010/08/10 11:00
LFBE 101100Z 36004KT 300V070 9999 FEW040 BKN260 24/11 Q1018 NOSIG

2010/08/10 11:00
LFGJ 101100Z AUTO 20006KT 140V270 9999NDV NSC 26/15 Q1017

2010/08/10 11:00
LFJR 101100Z AUTO 24009KT 200V270 9999NDV BKN023 OVC032 22/15 Q1017

2010/08/10 11:00
LFMD 101100Z AUTO 17008KT 120V200 9999NDV NSC 27/22 Q1015

2010/08/10 11:00
LFMH 101100Z VRB03KT 9999 FEW040 BKN210 25/13 Q1018 NOSIG

2010/08/10 11:00
LFOT 101100Z AUTO 23006KT 200V270 9999NDV BKN017 OVC023 20/15 Q1017

2010/08/10 11:00
LFPN 101100Z 21012KT 180V240 CAVOK 25/13 Q1015 NOSIG

2010/08/10 11:00
LFRC 101100Z AUTO 24013KT 9999NDV -RA BKN008 BKN037 18/17 Q1013

2010/08/10 11:00
LFRG 101100Z AUTO 22010KT 9999NDV OVC006 17/17 Q1014

2010/08/10 11:00
LFRK 101100Z 20012KT 4000 -RADZ BR BKN011 19/18 Q1014

2010/08/10 11:00
LFBC 101100Z AUTO 21006KT 160V240 9999NDV NSC 23/13 Q1018

2010/08/10 11:00
LFBF 101100Z AUTO VRB03KT 9999NDV // NSC 25/15 Q1018

2010/08/10 11:00
LFBG 101100Z AUTO 29005KT 210V360 9999NDV FEW031 SCT210 23/13 Q1018

2010/08/10 10:54
LFBL 101054Z 20005KT 160V240 9999 FEW021 SCT026 BKN300 20/13 Q1019 NOSIG

2010/08/10 11:00
LFBM 101100Z AUTO VRB03KT 9999NDV FEW031 24/15 Q1018

2010/08/10 11:00
LFBP 101100Z VRB02KT 9999 FEW026 23/16 Q1018 NOSIG

2010/08/10 11:00
LFBT 101100Z VRB03KT 9999 FEW033 22/15 Q1019 NOSIG

2010/08/10 11:00
LFKC 101100Z 36011KT 320V020 9999 FEW013 27/20 Q1016 NOSIG

2010/08/10 11:00
LFLB 101100Z 36005KT 9999 FEW053 SCT090 BKN260 26/17 Q1016 NOSIG

2010/08/10 11:00
LFLC 101100Z 06004KT 360V100 9999 FEW043 BKN250 24/15 Q1018 NOSIG

2010/08/10 11:00
LFLL 101100Z 35007KT 290V030 CAVOK 26/15 Q1017 NOSIG

2010/08/10 11:00
LFMN 101100Z 14006KT 9999 FEW016 26/21 Q1016 NOSIG

2010/08/10 11:00
LFOA 101100Z AUTO 25009KT 220V300 9999NDV NSC 25/13 Q1017

2010/08/10 11:00
LFOC 101100Z AUTO 24012KT 210V270 9999NDV NSC 22/13 Q1016

2010/08/10 11:00
LFOE 101100Z AUTO 24014KT 9999NDV NSC 23/11 Q1015

2010/08/10 11:00
LFOJ 101100Z 22013KT CAVOK 23/13 Q1016

2010/08/10 11:00
LFPC 101100Z 21010KT 170V250 CAVOK 24/12 Q1015

2010/08/10 11:00
LFPG 101100Z 22013KT CAVOK 24/12 Q1015 NOSIG

2010/08/10 11:00
LFPO 101100Z 21011KT 180V240 9999 FEW046 BKN250 24/13 Q1015 NOSIG

2010/08/10 11:00
LFPV 101100Z AUTO 22010KT 180V260 9999NDV FEW042 SCT160 23/13 Q1015

2010/08/10 11:00
LFQI 101100Z 22013KT CAVOK 21/14 Q1014

2010/08/10 11:00
LFQQ 101100Z 22011KT 190V250 9999 FEW023 BKN110 21/14 Q1013 NOSIG

2010/08/10 11:00
LFRB 101100Z 22015KT 9999 -RA BKN009 BKN014 18/17 Q1014 NOSIG

2010/08/10 11:00
LFRS 101100Z 24010KT 200V260 9999 BKN019 BKN031 22/16 Q1017 NOSIG

2010/08/10 11:00
LFSL 101100Z AUTO VRB02KT 9999NDV NSC 22/12 Q1019

2010/08/10 11:00
LFYR 101100Z 25010KT 220V300 9999 FEW033 SCT100 BKN230 24/13 Q1017

2010/08/10 11:00
LFCR 101100Z AUTO 31006KT 270V350 9999NDV NSC 23/11 Q1019

2010/08/10 11:00
LFJL 101100Z AUTO 21010KT 170V260 9999NDV NSC 27/07 Q1016

2010/08/10 11:00
LFLP 101100Z AUTO VRB04KT 9999NDV FEW070 SCT240 26/13 Q1017

2010/08/10 11:00
LFLS 101100Z 04005KT 320V090 9999 FEW060 BKN250 26/14 Q1017 NOSIG

2010/08/10 11:00
LFLY 101100Z 02005KT 340V060 9999 FEW043 BKN250 27/15 Q1017 NOSIG

2010/08/10 11:00
LFMT 101100Z 18008KT CAVOK 28/14 Q1015 BECMG 20012KT

2010/08/10 11:00
LFMU 101100Z AUTO VRB04KT 9999NDV NSC 30/13 Q1015

2010/08/10 11:00
LFOB 101100Z 23015KT 210V270 9999 FEW040 SCT060 BKN110 23/12 Q1014 NOSIG

2010/08/10 11:00
LFOH 101100Z AUTO 21011KT 7000NDV -RA BKN004 OVC011 18/17 Q1014

2010/08/10 11:00
LFOK 101100Z AUTO 24009KT 200V270 9999NDV NSC 25/11 Q1016

2010/08/10 11:00
LFOP 101100Z 25010KT 200V270 9999 -DZRA BKN030 BKN039 19/14 Q1015 BECMG 8000 RA SCT010 BKN025

2010/08/10 11:00
LFPB 101100Z 21010KT 180V260 9999 FEW040 BKN230 25/13 Q1015 NOSIG

2010/08/10 11:00
LFSN 101100Z 22005KT 130V300 CAVOK 28/10 Q1015 NOSIG

2010/08/10 10:50
ETUO 101050Z AUTO 22004KT 9999NDV // FEW050/// 25/12 Q1014

2010/08/10 11:00
LFBC 101100Z AUTO 21006KT 160V240 9999NDV NSC 23/13 Q1018

2010/08/10 11:00
LFBF 101100Z AUTO VRB03KT 9999NDV // NSC 25/15 Q1018

2010/08/10 11:00
LFBG 101100Z AUTO 29005KT 210V360 9999NDV FEW031 SCT210 23/13 Q1018

2010/08/10 11:00
LFKS 101100Z AUTO 13008KT 090V150 9999NDV BKN028 BKN240 27/20 Q1016

2010/08/10 11:00
LFLL 101100Z 35007KT 290V030 CAVOK 26/15 Q1017 NOSIG

2010/08/10 11:00
LFMI 101100Z AUTO 21005KT 130V260 9999NDV NSC 29/17 Q1015

2010/08/10 11:00
LFMN 101100Z 14006KT 9999 FEW016 26/21 Q1016 NOSIG

2010/08/10 11:00
LFMO 101100Z AUTO VRB03KT 9999NDV NSC 30/17 Q1015

2010/08/10 11:00
LFMY 101100Z 20009KT 160V230 9999 FEW045 BKN250 29/18 Q1015

2010/08/10 11:00
LFOA 101100Z AUTO 25009KT 220V300 9999NDV NSC 25/13 Q1017

2010/08/10 11:00
LFOC 101100Z AUTO 24012KT 210V270 9999NDV NSC 22/13 Q1016

2010/08/10 11:00
LFOE 101100Z AUTO 24014KT 9999NDV NSC 23/11 Q1015

2010/08/10 11:00
LFOJ 101100Z 22013KT CAVOK 23/13 Q1016

2010/08/10 11:00
LFPC 101100Z 21010KT 170V250 CAVOK 24/12 Q1015

2010/08/10 11:00
LFPO 101100Z 21011KT 180V240 9999 FEW046 BKN250 24/13 Q1015 NOSIG

2010/08/10 11:00
LFPV 101100Z AUTO 22010KT 180V260 9999NDV FEW042 SCT160 23/13 Q1015

2010/08/10 11:00
LFQI 101100Z 22013KT CAVOK 21/14 Q1014

2010/08/10 11:00
LFRS 101100Z 24010KT 200V260 9999 BKN019 BKN031 22/16 Q1017 NOSIG

2010/08/10 11:00
LFSD 101100Z AUTO 19004KT 120V240 9999NDV NSC 27/16 Q1016

2010/08/10 11:00
LFSF 101100Z AUTO 20008KT 160V260 9999NDV NSC 28/09 Q1015

2010/08/10 11:00
LFSI 101100Z AUTO 24008KT 200V280 9999NDV NSC 26/12 Q1016

2010/08/10 11:00
LFSO 101100Z AUTO 25006KT 180V310 9999NDV NSC 27/09 Q1016

2010/08/10 11:00
LFSR 101100Z AUTO 26008KT 220V300 9999NDV NSC 24/13 Q1015

2010/08/10 11:00
LFSX 101100Z AUTO 20004KT 150V230 9999NDV NSC 26/13 Q1017

2010/08/10 11:00
LFYR 101100Z 25010KT 220V300 9999 FEW033 SCT100 BKN230 24/13 Q1017

2010/08/10 11:00
LFBD 101100Z 02003KT 300V090 9999 FEW033 BKN250 23/12 Q1018 NOSIG

2010/08/10 11:00
LFBI 101100Z 22007KT 170V280 9999 SCT021 SCT110 BKN260 21/14 Q1018 BECMG BKN013

2010/08/10 10:54
LFBL 101054Z 20005KT 160V240 9999 FEW021 SCT026 BKN300 20/13 Q1019 NOSIG

2010/08/10 11:00
LFBM 101100Z AUTO VRB03KT 9999NDV FEW031 24/15 Q1018

2010/08/10 11:00
LFBO 101100Z VRB03KT 9999 FEW043 BKN250 25/14 Q1018 NOSIG

2010/08/10 11:00
LFBP 101100Z VRB02KT 9999 FEW026 23/16 Q1018 NOSIG

2010/08/10 11:00
LFBT 101100Z VRB03KT 9999 FEW033 22/15 Q1019 NOSIG

2010/08/10 11:00
LFBZ 101100Z 08004KT 350V130 9999 FEW025 SCT230 24/17 Q1018 NOSIG

2010/08/10 11:00
LFJL 101100Z AUTO 21010KT 170V260 9999NDV NSC 27/07 Q1016

2010/08/10 11:00
LFKB 101100Z 12006KT 100V170 9999 FEW030 SCT036 29/19 Q1015 NOSIG

2010/08/10 11:00
LFKC 101100Z 36011KT 320V020 9999 FEW013 27/20 Q1016 NOSIG

2010/08/10 11:00
LFKF 101100Z 22010KT 190V250 9999 FEW036 28/20 Q1016 NOSIG

2010/08/10 11:00
LFKJ 101100Z 23011KT 9999 FEW036 27/21 Q1016 NOSIG

2010/08/10 11:00
LFLB 101100Z 36005KT 9999 FEW053 SCT090 BKN260 26/17 Q1016 NOSIG

2010/08/10 11:00
LFLC 101100Z 06004KT 360V100 9999 FEW043 BKN250 24/15 Q1018 NOSIG

2010/08/10 11:00
LFLN 101100Z AUTO 30005KT 260V020 9999NDV NSC 23/16 Q1018

2010/08/10 11:00
LFLX 101100Z 23012KT 200V260 CAVOK 23/14 Q1017 NOSIG

2010/08/10 11:00
LFML 101100Z 27003KT 240V320 9999 FEW040 29/18 Q1015 NOSIG

2010/08/10 11:00
LFMP 101100Z VRB02KT 9999 FEW050 29/13 Q1016 NOSIG

2010/08/10 11:00
LFPG 101100Z 22013KT CAVOK 24/12 Q1015 NOSIG

2010/08/10 11:00
LFPM 101100Z 20014KT CAVOK 24/13 Q1015

2010/08/10 11:00
LFQQ 101100Z 22011KT 190V250 9999 FEW023 BKN110 21/14 Q1013 NOSIG

2010/08/10 11:00
LFRB 101100Z 22015KT 9999 -RA BKN009 BKN014 18/17 Q1014 NOSIG

2010/08/10 11:00
LFRH 101100Z 24013KT 8000 BKN006 BKN049 20/18 Q1016

2010/08/10 11:00
LFRQ 101100Z 24012KT 200V270 9999 SCT011 BKN024 20/17 Q1015 NOSIG

2010/08/10 11:00
LFRT 101100Z 25012KT 210V270 9999 SCT017 BKN026 20/17 Q1014

2010/08/10 11:00
LFSL 101100Z AUTO VRB02KT 9999NDV NSC 22/12 Q1019

2010/08/10 11:00
LFTH 101100Z 15007KT 100V200 9999 SCT016 26/21 Q1016 NOSIG

2010/08/10 11:00
LFBD 101100Z 02003KT 300V090 9999 FEW033 BKN250 23/12 Q1018 NOSIG

2010/08/10 11:00
LFBI 101100Z 22007KT 170V280 9999 SCT021 SCT110 BKN260 21/14 Q1018 BECMG BKN013

2010/08/10 11:00
LFBO 101100Z VRB03KT 9999 FEW043 BKN250 25/14 Q1018 NOSIG

2010/08/10 11:00
LFBZ 101100Z 08004KT 350V130 9999 FEW025 SCT230 24/17 Q1018 NOSIG

2010/08/10 11:00
LFCR 101100Z AUTO 31006KT 270V350 9999NDV NSC 23/11 Q1019

2010/08/10 11:00
LFJL 101100Z AUTO 21010KT 170V260 9999NDV NSC 27/07 Q1016

2010/08/10 11:00
LFKB 101100Z 12006KT 100V170 9999 FEW030 SCT036 29/19 Q1015 NOSIG

2010/08/10 11:00
LFKF 101100Z 22010KT 190V250 9999 FEW036 28/20 Q1016 NOSIG

2010/08/10 11:00
LFKJ 101100Z 23011KT 9999 FEW036 27/21 Q1016 NOSIG

2010/08/10 11:00
LFLN 101100Z AUTO 30005KT 260V020 9999NDV NSC 23/16 Q1018

2010/08/10 11:00
LFLS 101100Z 04005KT 320V090 9999 FEW060 BKN250 26/14 Q1017 NOSIG

2010/08/10 11:00
LFLX 101100Z 23012KT 200V260 CAVOK 23/14 Q1017 NOSIG

2010/08/10 11:00
LFML 101100Z 27003KT 240V320 9999 FEW040 29/18 Q1015 NOSIG

2010/08/10 11:00
LFMP 101100Z VRB02KT 9999 FEW050 29/13 Q1016 NOSIG

2010/08/10 11:00
LFMT 101100Z 18008KT CAVOK 28/14 Q1015 BECMG 20012KT

2010/08/10 11:00
LFOH 101100Z AUTO 21011KT 7000NDV -RA BKN004 OVC011 18/17 Q1014

2010/08/10 11:00
LFOP 101100Z 25010KT 200V270 9999 -DZRA BKN030 BKN039 19/14 Q1015 BECMG 8000 RA SCT010 BKN025

2010/08/10 11:00
LFPM 101100Z 20014KT CAVOK 24/13 Q1015

2010/08/10 11:00
LFRD 101100Z AUTO 24009KT 9999NDV FEW011 SCT022 BKN038 20/18 Q1015

2010/08/10 11:00
LFRH 101100Z 24013KT 8000 BKN006 BKN049 20/18 Q1016

2010/08/10 11:00
LFRN 101100Z AUTO 23011KT 9999NDV BKN014 OVC020 20/17 Q1015

2010/08/10 11:00
LFRO 101100Z AUTO 23014KT 9999NDV SCT022 BKN046 BKN092 20/17 Q1014

2010/08/10 11:00
LFRQ 101100Z 24012KT 200V270 9999 SCT011 BKN024 20/17 Q1015 NOSIG

2010/08/10 11:00
LFRT 101100Z 25012KT 210V270 9999 SCT017 BKN026 20/17 Q1014

2010/08/10 11:00
LFTH 101100Z 15007KT 100V200 9999 SCT016 26/21 Q1016 NOSIG

2010/08/10 11:00
LFTW 101100Z AUTO VRB04KT 9999NDV NSC 30/14 Q1015

2010/08/10 11:00
LEAB 101100Z VRB04KT CAVOK 33/12 Q1020 NOSIG

2010/08/10 11:00
LEAL 101100Z 09008KT 060V140 CAVOK 32/19 Q1016 NOSIG

2010/08/10 11:00
LEAM 101100Z 21005KT 170V250 CAVOK 27/21 Q1017

2010/08/10 11:00
LEBA 101100Z VRB01KT CAVOK 36/13 Q1016

2010/08/10 11:00
LEBL 101100Z 13010KT 9999 SCT020 26/19 Q1017 NOSIG

2010/08/10 11:00
LEIB 101100Z 09008KT 050V130 CAVOK 30/21 Q1017 NOSIG

2010/08/10 11:00
LELC 101100Z 13006KT 090V180 9999 FEW040 30/21 Q1017 NOSIG

2010/08/10 11:00
LEMG 101100Z 14009KT 110V190 CAVOK 30/17 Q1018 NOSIG

2010/08/10 11:00
LEPA 101100Z 23010KT 200V260 CAVOK 29/20 Q1017 NOSIG

2010/08/10 11:00
LEPP 101100Z 00000KT CAVOK 26/14 Q1019

2010/08/10 11:00
LEVC 101100Z 08008KT 030V140 CAVOK 30/20 Q1017 NOSIG

2010/08/10 11:00
LEVX 101100Z VRB03KT CAVOK 30/16 Q1019

2010/08/10 11:00
LEXJ 101100Z 04006KT 9999 FEW030 23/16 Q1019

2010/08/10 11:00
LEZL 101100Z 21002KT CAVOK 36/13 Q1016 NOSIG

2010/08/10 11:00
LFKS 101100Z AUTO 13008KT 090V150 9999NDV BKN028 BKN240 27/20 Q1016

2010/08/10 11:00
LFMI 101100Z AUTO 21005KT 130V260 9999NDV NSC 29/17 Q1015

2010/08/10 11:00
LFMO 101100Z AUTO VRB03KT 9999NDV NSC 30/17 Q1015

2010/08/10 11:00
LFMY 101100Z 20009KT 160V230 9999 FEW045 BKN250 29/18 Q1015

2010/08/10 11:00
LFSD 101100Z AUTO 19004KT 120V240 9999NDV NSC 27/16 Q1016

2010/08/10 11:00
LFSF 101100Z AUTO 20008KT 160V260 9999NDV NSC 28/09 Q1015

2010/08/10 11:00
LFSI 101100Z AUTO 24008KT 200V280 9999NDV NSC 26/12 Q1016

2010/08/10 11:00
LFSO 101100Z AUTO 25006KT 180V310 9999NDV NSC 27/09 Q1016

2010/08/10 11:00
LFSR 101100Z AUTO 26008KT 220V300 9999NDV NSC 24/13 Q1015

2010/08/10 11:00
LFSX 101100Z AUTO 20004KT 150V230 9999NDV NSC 26/13 Q1017

2010/08/10 11:00
LRBS 101100Z 06004KT CAVOK 31/18 Q1014 NOSIG

2010/08/10 11:00
LRCK 101100Z VRB06KT CAVOK 34/18 Q1012 NOSIG

2010/08/10 11:00
LROP 101100Z 03003KT 320V100 CAVOK 31/21 Q1013 880///95 NOSIG

2010/08/10 11:00
LRSB 101100Z VRB02KT 9999 SCT045 BKN090 24/17 Q1018

2010/08/10 11:00
LRTR 101100Z 35005KT 280V070 9999 FEW040 27/14 Q1017 NOSIG

2010/08/10 11:00
RKSI 101100Z 08005KT 8000 FEW008 BKN030 27/24 Q1006 NOSIG

2010/08/10 11:00
RKSS 101100Z 06005KT 6000 -RA FEW010 BKN025 BKN100 25/23 Q1006 NOSIG 

2010/08/10 11:00
RKPC 101100Z 11013KT 090V150 2000 RA BR FEW008 BKN025 OVC070 26/24 Q0993 WS ALL RWY TEMPO 3500 

2010/08/10 11:00
RKPK 101100Z 16015KT 4800 -RA BR FEW010 SCT010CB OVC025 27/23 Q1006 NOSIG 

2010/08/10 11:00
RKTU 101100Z 03005KT 2400 RA BR FEW012 BKN030 OVC060 25/24 Q1006 NOSIG 

2010/08/10 11:00
RKTN 101100Z 12003KT 4800 -RA BR FEW010 BKN020 OVC030 27/25 Q1006 BECMG 3200 -TSRA BR

2010/08/10 11:00
RKJB 101100Z 08012KT 050V110 4000 -RA BR FEW010 BKN025 OVC070 26/24 Q1001 NOSIG 

2010/08/10 11:00
RKNY 101100Z AUTO 17003KT2900NDV ///050 24/23 Q1008 

2010/08/10 10:56
KNFL 101056Z AUTO 22004KT 10SM CLR 16/04 A2995 RMK AO2 SLP114 T01560044 TSNO 

2010/08/10 11:00
LFBA 101100Z VRB03KT 9999 FEW036 SCT250 24/13 Q1018 NOSIG

2010/08/10 11:00
LFBE 101100Z 36004KT 300V070 9999 FEW040 BKN260 24/11 Q1018 NOSIG

2010/08/10 11:00
LFCR 101100Z AUTO 31006KT 270V350 9999NDV NSC 23/11 Q1019

2010/08/10 11:00
LFLS 101100Z 04005KT 320V090 9999 FEW060 BKN250 26/14 Q1017 NOSIG

2010/08/10 11:00
LFLY 101100Z 02005KT 340V060 9999 FEW043 BKN250 27/15 Q1017 NOSIG

2010/08/10 11:00
LFMD 101100Z AUTO 17008KT 120V200 9999NDV NSC 27/22 Q1015

2010/08/10 11:00
LFMH 101100Z VRB03KT 9999 FEW040 BKN210 25/13 Q1018 NOSIG

2010/08/10 11:00
LFMK 101100Z AUTO 29009KT 240V320 9999NDV NSC 26/13 Q1018

2010/08/10 11:00
LFMT 101100Z 18008KT CAVOK 28/14 Q1015 BECMG 20012KT

2010/08/10 11:00
LFMU 101100Z AUTO VRB04KT 9999NDV NSC 30/13 Q1015

2010/08/10 11:00
LFOB 101100Z 23015KT 210V270 9999 FEW040 SCT060 BKN110 23/12 Q1014 NOSIG

2010/08/10 11:00
LFOH 101100Z AUTO 21011KT 7000NDV -RA BKN004 OVC011 18/17 Q1014

2010/08/10 11:00
LFOP 101100Z 25010KT 200V270 9999 -DZRA BKN030 BKN039 19/14 Q1015 BECMG 8000 RA SCT010 BKN025

2010/08/10 11:00
LFPB 101100Z 21010KT 180V260 9999 FEW040 BKN230 25/13 Q1015 NOSIG

2010/08/10 11:00
LFPN 101100Z 21012KT 180V240 CAVOK 25/13 Q1015 NOSIG

2010/08/10 11:00
LFRC 101100Z AUTO 24013KT 9999NDV -RA BKN008 BKN037 18/17 Q1013

2010/08/10 11:00
LFRD 101100Z AUTO 24009KT 9999NDV FEW011 SCT022 BKN038 20/18 Q1015

2010/08/10 11:00
LFRN 101100Z AUTO 23011KT 9999NDV BKN014 OVC020 20/17 Q1015

2010/08/10 11:00
LFRO 101100Z AUTO 23014KT 9999NDV SCT022 BKN046 BKN092 20/17 Q1014

2010/08/10 11:00
LFRZ 101100Z AUTO 24012KT 9999NDV BKN011 BKN028 OVC038 20/18 Q1017

2010/08/10 11:00
LFSB 101100Z VRB04KT CAVOK 27/10 Q1017 NOSIG

2010/08/10 11:00
LFSN 101100Z 22005KT 130V300 CAVOK 28/10 Q1015 NOSIG

2010/08/10 11:00
LFST 101100Z 18005KT 130V210 9999 FEW060 26/15 Q1016 NOSIG

2010/08/10 11:00
LFTW 101100Z AUTO VRB04KT 9999NDV NSC 30/14 Q1015

2010/08/10 11:03
KCAE 101103Z 00000KT 1/4SM FG OVC002 24/23 A3002

2010/08/10 11:01
CBBC 101101Z AUTO 00000KT 2 1/8SM OVC001 A2998 RMK VSBY VRBL 0.6V9.+

2010/08/10 11:02
CBBC 101102Z AUTO 00000KT 1 3/8SM OVC001 A2998 RMK VSBY VRBL 0.4V9.+

2010/08/10 11:02
KBTR 101102Z 06003KT 3/4SM BR SCT002 BKN200 23/23 A2994

2010/08/10 11:02
KEYW 101102Z 24009KT 4SM +RA BR SCT015 BKN021 OVC028 26/24 A2985

2010/08/10 11:00
FBSK 101100Z 13008KT CAVOK 18/M09 Q1030 NOSIG

2010/08/10 11:00
TNCM 101100Z 12008KT 9999 -SHRA SCT019 29/24 Q1014

2010/08/10 11:00
AYPY 101100Z 00000KT 9999 SCT040 BKN280 26/25 Q1011 RMKS/ HZ

2010/08/10 11:00
MGSJ 101100Z 00000KT 9999 FEW016 BKN200 24/24 Q1012 A2988

2010/08/10 11:00
MHLC 101100Z 00000KT 9999 SCT024 24/23 Q1010 A2982 NOSIG

2010/08/10 10:59
MMDO 101059Z RTD 19003KT 7SM SCT080 BKN200 19/16 A3017 RMK 8/034 HZY RTS

2010/08/10 10:50
MMMY 101050Z 00000KT 8SM BKN010 OVC020 24/23 A2988 RMK 8/5// HZY BINOVC

2010/08/10 10:53
MMPB 101053Z 00000KT 10SM SKC 12/11 A3027 RMK HZY ISOL AS RTS

2010/08/10 10:55
MUHA 101055Z 19005KT 8000 FEW035 BKN150 23/22 Q1011

2010/08/10 11:00
MYGF 101100Z 14010KT 9999 BKN018 SCT100 27/24 A2994 /

2010/08/10 11:00
NTAA 101100Z 09004KT 9999 FEW020 22/17 Q1017 WS ALL RWY NOSIG

2010/08/10 11:00
NWWW 101100Z AUTO 11005KT 9999NDV NCD 18/14 Q1024

2010/08/10 10:58
PAGA 101058Z AUTO 12007KT 10SM OVC110 13/11 A2958 RMK AO2 SLPNO T01330106

2010/08/10 11:00
PKWA 101100Z AUTO 07018KT 10SM SCT019 SCT026 28/23 A2991 RMK AO2 T02800234

2010/08/10 10:55
PWAK 101055Z 07011KT 10SM FEW023 28/24 A3006 RMK AO2A

2010/08/10 11:00
RKSS 101100Z 06005KT 6000 -RA FEW010 BKN025 BKN100 25/23 Q1006 NOSIG

2010/08/10 11:00
SOCA 101100Z VRB02KT 9999 FEW003 SCT021 BKN110 24/23 Q1014 NOSIG

2010/08/10 11:00
TAPA 101100Z 10010KT 9999 FEW020 28/24 Q1013

2010/08/10 11:00
TFFF 101100Z 09003KT 030V110 9999 FEW023 SCT300 27/25 Q1014 NOSIG

2010/08/10 11:00
TFFR 101100Z 09002KT 9999 FEW020 28/25 Q1014 TEMPO 4000 SHRA

2010/08/10 11:00
TLPL 101100Z 15008KT 9999 FEW010 SCT024 28/25 Q1014

2010/08/10 10:55
TXKF 101055Z 19008KT 9999 FEW015 FEW180 27/23 Q1020

2010/08/10 11:00
VHHH 101100Z 16014KT 9999 FEW016 30/25 Q1005 NOSIG

2010/08/10 11:00
BIKF 101100Z 34007KT 9999 FEW018 BKN021 12/07 Q1015

2010/08/10 11:00
LUKK 101100Z 02010KT CAVOK 33/13 Q1013 08CLRD65 NOSIG

2010/08/10 11:00
UBBB 101100Z 08008KT 9999 SCT060CB BKN100 34/23 Q1010 NOSIG RMK R88CLRD70

2010/08/10 11:00
UHHH 101100Z METAR 18002MPS CAVOK 23/20 Q1005 NOSIG

2010/08/10 11:00
UKBB 101100Z 12003MPS 050V150 9999 FEW033CB 28/18 Q1015 88CLRD95 NOSIG

2010/08/10 11:00
UKFF 101100Z 04007MPS 360V080 CAVOK 37/16 Q1008 01010070 NOSIG

2010/08/10 11:00
UKKK 101100Z 12003MPS 080V160 5000 FU NSC 31/18 Q1015 08CLRD70 NOSIG

2010/08/10 11:00
UKLL 101100Z 26003MPS 220V330 9999 BKN033 24/16 Q1018 31090070 NOSIG

2010/08/10 11:00
UKOO 101100Z 05004MPS 010V110 CAVOK 37/15 Q1011 34090070 NOSIG

2010/08/10 11:00
UTTT 101100Z 34002MPS 270V360 CAVOK 38/01 Q1007 R08R/CLRD70 NOSIG

2010/08/10 10:55
KQA7 101055Z AUTO VRB05KT 9999 SCT150 38/01 A2981 RMK AO2A SLP978 T03840005 $

2010/08/10 10:55
KQPD 101055Z AUTO 18009G15KT 8000 37/00 A2963 RMK AO2 SLP942 T03671001 $

2010/08/10 10:55
KQQS 101055Z AUTO 01010KT 9999 SCT080 BKN095 BKN110 24/13 A3006 RMK AO2 SLP071 T02400127 $

2010/08/10 10:55
KQSR 101055Z 30003KT 9999 FEW050 SCT080 BKN140 25/15 A3003 RMK AO2A LTG DSNT E CB DSNT E SLP063 WND DATA/ALSTG ESTMD

2010/08/10 10:55
KQXJ 101055Z 34014G22KT 9999 SKC 50/00 A2949 RMK SLP998 PA+421 DA+4331

2010/08/10 11:02
KEAU 101102Z 01003KT 3SM BR CLR 19/19 A2996

2010/08/10 11:02
KHIB 101102Z AUTO 00000KT 1/4SM FG OVC001 16/15 A2999

2010/08/10 11:02
KYIP 101102Z 26003KT 3/4SM BR VV001 19/18 A2998

2010/08/10 11:04
KUIL 101104Z AUTO 00000KT 2 1/2SM BR BKN001 OVC006 12/12 A2995 RMK AO2 TSNO 

2010/08/10 11:00
ZGKL 101100Z 20001MPS CAVOK 34/24 Q1003 NOSIG

2010/08/10 11:00
ZGNN 101100Z 00000MPS 9999 -SHRA FEW020 FEW030CB BKN046 27/24 Q1005 RETS NOSIG

2010/08/10 11:00
ZGOW 101100Z 17004MPS 9999 FEW020 30/26 Q1007 NOSIG

2010/08/10 11:00
ZGSZ 101100Z 17005MPS 9999 FEW022 30/24 Q1005 NOSIG

2010/08/10 11:00
ZLXY 101100Z 06006MPS 7000 SKC 33/24 Q1001 NOSIG

2010/08/10 11:00
ZMUB 101100Z 33005MPS 9999 FEW030CB BKN033 25/02 Q1004 NOSIG RMK QFE646.8 23

2010/08/10 11:00
ZPPP 101100Z 18003MPS 160V240 9999 FEW026TCU FEW026 25/17 Q1014 NOSIG

2010/08/10 11:00
ZSAM 101100Z 20004MPS CAVOK 30/24 Q1006 NOSIG

2010/08/10 11:00
ZSFZ 101100Z 23004MPS 9999 FEW023TCU 30/25 Q1005 NOSIG

2010/08/10 11:00
ZSNB 101100Z 30002MPS CAVOK 32/24 Q1003 NOSIG

2010/08/10 11:00
ZSQD 101100Z 06003MPS 020V120 9999 SCT040 30/21 Q1004 NOSIG

2010/08/10 11:00
ZUUU 101100Z 20001MPS 9999 FEW030CB SCT030 33/25 Q1000 NOSIG

2010/08/10 11:02
KBTR 101102Z 06003KT 3/4SM BR SCT002 BKN200 23/23 A2994

2010/08/10 11:03
KCAE 101103Z 00000KT 1/4SM FG OVC002 24/23 A3002

2010/08/10 11:00
TGPY 101100Z 18007KT 9999 VCSH FEW015CB 29/26 Q1013 JP-N CB-WNW

2010/08/10 11:03
KSXT 101103Z AUTO 36007KT 1 1/2SM BR FEW002 10/09 A2997

2010/08/10 11:00
WBKK 101100Z 06006KT 9999 -RA FEW014 SCT040 BKN260 28/25 Q1009 NOSIG

2010/08/10 11:00
WBSB 101100Z 01004KT 9999 FEW016 FEW017CB BKN140 30/26 Q1007 NOSIG

2010/08/10 11:00
WMKK 101100Z 15002KT 9999 FEW018 SCT140 BKN280 29/26 Q1006 NOSIG

2010/08/10 11:00
WMKP 101100Z 24004KT 9000 FEW020 SCT140 BKN270 30/26 Q1006 NOSIG

2010/08/10 11:00
WSSL 101100Z 09003KT 060V120 9999 FEW018TCU SCT160 BKN300 31/24 Q1006

2010/08/10 11:00
WSSS 101100Z 15010KT 9999 FEW016TCU BKN180 BKN300 30/26 Q1007 NOSIG

2010/08/10 10:50
EGOW 101050Z 25017KT 9999 FEW025 SCT120 17/10 Q1007 BLU

2010/08/10 11:00
GGOV 101100Z 17005KT 130V210 9999 FEW005 SCT014TCU FEW020CB BKN090 25/24 Q1014 TEMPO TS

2010/08/10 11:00
WBGR 101100Z 35002KT 9999 FEW014 SCT150 BKN300 29/25 Q1007

2010/08/10 11:00
WBGS 101100Z 34004KT 9999 FEW015CB BKN150 30/26 Q1007

2010/08/10 11:00
WBGY 101100Z 25001KT 9999 SCT022 SCT150 BKN300 29/26 Q1007

2010/08/10 11:00
WBKL 101100Z 02003KT 9999 FEW014 BKN140 BKN290 29/26 Q1008

2010/08/10 11:00
WBKS 101100Z 07003KT 9999 SCT016 FEW017CB SCT050 BKN300 29/25 Q1009

2010/08/10 11:00
WBKT 101100Z 26002KT 9999 FEW016 SCT140 BKN270 27/24 Q1008

2010/08/10 11:00
WBKW 101100Z 03001KT 9999 FEW017 BKN140 28/25 Q1009

2010/08/10 10:50
EGYH 101050Z 24010KT 9999 FEW015 SCT035 18/// Q1008 BLU

2010/08/10 11:00
LATI 101100Z 34008KT 9999 FEW030 SCT150 33/17 Q1011 NOSIG

2010/08/10 11:00
LFBA 101100Z VRB03KT 9999 FEW036 SCT250 24/13 Q1018 NOSIG

2010/08/10 11:00
LFBE 101100Z 36004KT 300V070 9999 FEW040 BKN260 24/11 Q1018 NOSIG

2010/08/10 11:00
LFGJ 101100Z AUTO 20006KT 140V270 9999NDV NSC 26/15 Q1017

2010/08/10 11:00
LFLY 101100Z 02005KT 340V060 9999 FEW043 BKN250 27/15 Q1017 NOSIG

2010/08/10 11:00
LFMD 101100Z AUTO 17008KT 120V200 9999NDV NSC 27/22 Q1015

2010/08/10 11:00
LFMH 101100Z VRB03KT 9999 FEW040 BKN210 25/13 Q1018 NOSIG

2010/08/10 11:00
LFMK 101100Z AUTO 29009KT 240V320 9999NDV NSC 26/13 Q1018

2010/08/10 11:00
LFMU 101100Z AUTO VRB04KT 9999NDV NSC 30/13 Q1015

2010/08/10 11:00
LFOB 101100Z 23015KT 210V270 9999 FEW040 SCT060 BKN110 23/12 Q1014 NOSIG

2010/08/10 11:00
LFOT 101100Z AUTO 23006KT 200V270 9999NDV BKN017 OVC023 20/15 Q1017

2010/08/10 11:00
LFPB 101100Z 21010KT 180V260 9999 FEW040 BKN230 25/13 Q1015 NOSIG

2010/08/10 11:00
LFPN 101100Z 21012KT 180V240 CAVOK 25/13 Q1015 NOSIG

2010/08/10 11:00
LFRC 101100Z AUTO 24013KT 9999NDV -RA BKN008 BKN037 18/17 Q1013

2010/08/10 11:00
LFRK 101100Z 20012KT 4000 -RADZ BR BKN011 19/18 Q1014

2010/08/10 11:00
LFRZ 101100Z AUTO 24012KT 9999NDV BKN011 BKN028 OVC038 20/18 Q1017

2010/08/10 11:00
LFSB 101100Z VRB04KT CAVOK 27/10 Q1017 NOSIG

2010/08/10 11:00
LFSN 101100Z 22005KT 130V300 CAVOK 28/10 Q1015 NOSIG

2010/08/10 11:00
LFST 101100Z 18005KT 130V210 9999 FEW060 26/15 Q1016 NOSIG

2010/08/10 11:00
LRBM 101100Z 25006KT 220V300 9999 SCT036 27/17 Q1016

2010/08/10 11:00
LRCL 101100Z VRB04KT 9999 SCT039 25/16 Q1018

2010/08/10 11:00
LROD 101100Z 23004KT 180V320 9999 FEW045 26/15 Q1017

2010/08/10 11:00
LRSM 101100Z VRB04KT 9999 SCT033 27/18 Q1017

2010/08/10 11:00
LRTM 101100Z 29004KT 250V330 9999 SCT033 26/17 Q1017

2010/08/10 11:00
TDPD 101100Z 27005KT 9999 FEW017 FEW///CB 25/23 Q1014

2010/08/10 11:04
KFAY 101104Z AUTO 23004KT 7SM OVC001 24/23 A3002 RMK AO2 CIG 001V005

2010/08/10 11:04
KCEC 101104Z AUTO 25005KT 1 1/4SM BR OVC002 12/11 A2992 RMK AO2

2010/08/10 11:04
KHIE 101104Z AUTO 00000KT 1 1/4SM BR OVC001 17/17 A2997 RMK AO2

2010/08/10 11:04
KMEB 101104Z AUTO 00000KT 1/4SM FG OVC001 24/23 A3003 RMK AO2

2010/08/10 11:04
KSRC 101104Z AUTO 00000KT 1 1/4SM BR CLR 26/26 A2993 RMK AO2 TSNO

2010/08/10 10:55
KDMA 101055Z AUTO 16006KT 10SM CLR 24/17 A2995 RMK AO2 SLP071 T02430169 VISNO RWY12 CHINO RWY12 $

2010/08/10 10:55
KLUF 101055Z AUTO 04005KT 10SM FEW120 28/15 A2981 RMK AO2 SLP065 T02830150 $

2010/08/10 10:55
KMXF 101055Z AUTO 00000KT 9SM FEW070 25/24 A2997 RMK AO2 SLP146 T02510236

2010/08/10 10:56
KNSE 101056Z AUTO 03004KT 4SM HZ CLR 26/23 A2994 RMK AO2 SLP122 T02560228 $

2010/08/10 10:55
KTTS 101055Z 10005KT 10SM FEW025 SCT050 26/25 A2993 RMK SLP135 2CU 2SC /4/

2010/08/10 11:00
KCCO 101100Z AUTO 00000KT 2SM CLR 21/21 A3004 RMK AO1

2010/08/10 10:53
KFXE 101053Z COR 15008KT 6SM -RA FEW015 SCT044 BKN060 26/23 A2988 RMK AO2 RAB30 SLP121 P0005 T02560233

2010/08/10 11:02
KPGV 101102Z AUTO 00000KT 7SM OVC004 23/23 A3002 RMK AO2

2010/08/10 11:02
KBTR 101102Z 06003KT 3/4SM BR SCT002 BKN200 23/23 A2994 RMK AO2 VIS SW-NW 2 SCT V BKN RVRNO

2010/08/10 11:03
KCAE 101103Z 00000KT 1/4SM FG OVC002 24/23 A3002 RMK AO2 TWR VIS 1/4 RVRNO

2010/08/10 11:03
KSXT 101103Z AUTO 36007KT 1 1/2SM BR FEW002 10/09 A2997 RMK AO2 TSNO

2010/08/10 11:04
KUIL 101104Z AUTO 00000KT 2 1/2SM BR BKN001 OVC006 12/12 A2995 RMK AO2 TSNO

2010/08/10 11:00
LBSF 101100Z VRB02MPS CAVOK 29/19 Q1016 NOSIG

2010/08/10 11:00
LBWN 101100Z 34006MPS 310V010 CAVOK 32/22 Q1011 WS RWY09 NOSIG

2010/08/10 11:00
LBBG 101100Z 35006MPS 310V020 CAVOK 32/22 Q1011 NOSIG

2010/08/10 11:00
LBPD 101100Z VRB02MPS CAVOK 31/18 Q1013 NOSIG

2010/08/10 11:00
LBGO 101100Z 30003MPS 250V350 CAVOK 29/18 Q1014 NOSIG

2010/08/10 11:00
UBBL 101100Z 11008KT 9999 SCT100 35/15 Q1010 NOSIG RMK G/O SC07

2010/08/10 11:00
YSRI 101100Z AUTO 00000KT 2000NDV // OVC014 12/12 Q1012

2010/08/10 11:00
LHBP 101100Z VRB03KT 9999 FEW045 SCT079 25/16 Q1018 NOSIG

2010/08/10 11:00
SPHO 101100Z 00000KT CAVOK 06/M02 Q1028 RMK PP000

2010/08/10 11:00
SPHY 101100Z VRB02KT 9000 FEW020 M02/M08 Q1023 RMK PP000

2010/08/10 11:00
SPJL 101100Z VRB02KT CAVOK M06/M08 Q1038 RMK FU QDTE N PP000

2010/08/10 11:00
SPTU 101100Z 00000KT 6000 FEW030 19/19 Q1014 RMK PP000

2010/08/10 11:00
UGTB 101100Z 24006KT 9999 SCT050 SCT100 33/11 Q1014 NOSIG RMK 13CLRD80

2010/08/10 11:00
UGKO 101100Z 27010KT 9999 SCT100 36/23 Q1009 NOSIG

2010/08/10 11:00
SACO 101100Z 29002KT 8000 NSC 01/M03 Q1028

2010/08/10 11:00
SAZM 101100Z 32005KT CAVOK M01/M03 Q1027

2010/08/10 11:00
SARE 101100Z 16003KT 6000 NSC 05/04 Q1024

2010/08/10 10:58
PTRO 101058Z 17005KT 14SM SCT016TCU BKN120 BKN300 28/24 A2991 RMK TCU VC ALQDS 

2010/08/10 11:00
SADF 101100Z 00000KT 3000 BR SKC 05/04 Q1028 REFG

2010/08/10 10:58
YBRK 101058Z 26011KT 2000 SHRA FEW008 BKN015 20/19 Q1017 RESHRA

2010/08/10 11:00
SPHI 101100Z 17004KT CAVOK 14/13 Q1016 RMK BIRD HAZARD RWY 19/01 PP000

2010/08/10 11:00
SPIM 101100Z 16004KT 8000 OVC018 15/12 Q1017 NOSIG RMK PP000

2010/08/10 11:00
SPQT 101100Z /////KT 4000 BR SCT008 BKN100 23/22 Q1012 TEMPO 2000 RMK BIRD HAZARD RWY 06/24 PP000

2010/08/10 11:00
SPQU 101100Z 05008KT CAVOK 08/M16 Q1027 NOSIG RMK PP000

2010/08/10 11:00
SPRU 101100Z 16005KT 6000 OVC005 15/13 Q1015 RMK BIRDS HAZARD RWY 20 PP000

2010/08/10 11:00
SPSO 101100Z 19003KT 5000 BR SCT008 OVC012 14/12 Q1018 RMK PP000

2010/08/10 11:00
SPTN 101100Z VRB02KT 9999 SCT010 09/06 Q1013 RMK PP000

2010/08/10 11:00
SPZO 101100Z 00000KT 9999 FEW230 00/M07 Q1035 BECMG 8000 RMK PP000

2010/08/10 11:00
SARF 101100Z 20004KT CAVOK 10/09 Q1022

2010/08/10 11:01
YBCS 101101Z 00000KT 9999 FEW003 BKN017 BKN025 24/23 Q1015

2010/08/10 11:00
DIAP 101100Z 24008KT 8000 SCT011 SCT020 BKN070 26/23 Q1015 NOSIG

2010/08/10 11:00
DNMM 101100Z 24013KT 9999 BKN011 28/23 Q1015 NOSIG

2010/08/10 11:00
DXXX 101100Z 22012KT 9999 FEW013 BKN080 29/23 Q1014 NOSIG

2010/08/10 11:02
PATQ 101102Z AUTO 07016KT 3/4SM -RA BR OVC005 02/02 A2979 RMK AO2 TSNO RAB00 P0000 $

2010/08/10 11:03
KCKB 101103Z 00000KT 3SM BR CLR 19/18 A3002 RMK AO2

2010/08/10 11:03
KELZ 101103Z AUTO 00000KT 3/4SM -RA BR BKN060 OVC080 19/19 A3004 RMK AO2 P0000

2010/08/10 11:03
KHQM 101103Z AUTO 00000KT 5SM BR OVC010 13/12 A2996 RMK AO2 CIG 006V013

2010/08/10 11:02
PATQ 101102Z AUTO 07016KT 3/4SM -RA BR OVC005 02/02 A2979 RMK AO2 TSNO RAB00 P0000 $

2010/08/10 11:04
KFAY 101104Z AUTO 23004KT 7SM OVC001 24/23 A3002 RMK AO2 CIG 001V005

2010/08/10 11:04
KCEC 101104Z AUTO 25005KT 1 1/4SM BR OVC002 12/11 A2992 RMK AO2

2010/08/10 11:04
KHIE 101104Z AUTO 00000KT 1 1/4SM BR OVC001 17/17 A2997 RMK AO2

2010/08/10 11:04
KMEB 101104Z AUTO 00000KT 1/4SM FG OVC001 24/23 A3003 RMK AO2

2010/08/10 11:04
KSRC 101104Z AUTO 00000KT 1 1/4SM BR CLR 26/26 A2993 RMK AO2 TSNO

2010/08/10 11:00
KGTB 101100Z AUTO 00000KT 10SM OVC012 21/20 A2995 RMK AO2 CIG 011V015 SLP140

2010/08/10 11:01
KLSF 101101Z AUTO 00000KT 1 3/4SM BR CLR 22/22 A2999 RMK AO2 SLP154 PNO $

2010/08/10 11:02
KMTC 101102Z 00000KT 1SM R19/P6000FT BR CLR 20/20 A2995

2010/08/10 11:00
FOOL 101100Z 16007KT 9999 SCT011 BKN033 28/22 Q1015 NOSIG

2010/08/10 11:00
SUMU 101100Z 01004KT 3000 BR NSC 01/01 Q1028 BECMG FM 1130Z CAVOK

2010/08/10 11:00
SUDU 101100Z 00000KT CAVOK M00/M01 Q1027

2010/08/10 11:00
SUSO 101100Z 13008KT CAVOK 03/01 Q1027

2010/08/10 11:00
SULS 101100Z 00000KT CAVOK 02/01 Q1028

2010/08/10 11:00
SUAA 101100Z 36007KT 1500 BR SKC 04/03 Q1028

2010/08/10 11:00
SUCA 101100Z VRB03KT CAVOK 08/05 Q1026

2010/08/10 11:02
KBIJ 101102Z AUTO 00000KT 5SM HZ CLR 23/ A2997 RMK AO2

2010/08/10 11:01
KIDI 101101Z AUTO 00000KT 7SM SCT060 20/19 A3001 RMK AO2

2010/08/10 11:03
KTNB 101103Z AUTO 00000KT 1SM BR VV007 17/17 A3018 RMK AO2

2010/08/10 11:02
KPGV 101102Z AUTO 00000KT 7SM OVC004 23/23 A3002 RMK AO2

2010/08/10 11:02
PATQ 101102Z AUTO 07016KT 3/4SM -RA BR OVC005 02/02 A2979

2010/08/10 10:59
KNGU 101059Z 22003KT 10SM FEW060 26/23 A2999 RMK AO2 SLP156 T02560228

2010/08/10 10:56
KNID 101056Z AUTO 19007KT CLR 19/01 A2985 RMK AO2 SLP086 T01940011 TSNO $

2010/08/10 10:56
KNPA 101056Z 01007KT 8SM SCT280 26/24 A2992 RMK AO2 SLP132 T02610239

2010/08/10 10:56
KNQI 101056Z AUTO 00000KT 5SM BR CLR 27/24 A2987 RMK AO2 SLP112 T02670244 $

2010/08/10 10:56
KNXP 101056Z AUTO 32004KT CLR 22/M01 A2992 RMK AO2 SLP094 T02171006 $

2010/08/10 10:56
K79J 101056Z AUTO 00000KT 8SM CLR 24/21 A2996 RMK AO2 SLP140 T02440211 TSNO PNO $

2010/08/10 10:55
KDMA 101055Z AUTO 16006KT 10SM CLR 24/17 A2995 RMK AO2 SLP071 T02430169 VISNO RWY12 CHINO RWY12 $

2010/08/10 10:58
KFFO 101058Z 00000KT 4SM BR SCT250 23/21 A2998 RMK AO2A SLP146

2010/08/10 10:56
KHLR 101056Z AUTO 18004KT 10SM CLR 27/23 A2993 RMK AO2 SLP126 T02670228 $

2010/08/10 10:55
KHOP 101055Z AUTO 00000KT 10SM CLR 25/25 A2997 RMK AO2 SLP144 T02540247

2010/08/10 10:55
KLUF 101055Z AUTO 04005KT 10SM FEW120 28/15 A2981 RMK AO2 SLP065 T02830150 $

2010/08/10 10:55
KMXF 101055Z AUTO 00000KT 9SM FEW070 25/24 A2997 RMK AO2 SLP146 T02510236

2010/08/10 10:57
KNJM 101057Z AUTO 26003KT 10SM CLR 27/25 A3002 RMK AO2 SLP169 T02670250

2010/08/10 10:56
KNRS 101056Z AUTO 00000KT 10SM OVC013 17/14 A2990 RMK AO2 SLP125 T01720144 TSNO

2010/08/10 10:55
KSVN 101055Z 25002KT 8SM FEW010 FEW030 FEW250 27/25 A2999 RMK SLP157 WND DATA ESTMD ALSTG/SLP ESTMD

2010/08/10 10:55
KHUA 101055Z AUTO RMK AO2 SLPNO PWINO PNO TSNO $

2010/08/10 11:00
KNEL 101100Z AUTO 00000KT 5SM HZ FEW080 24/21 A2993 RMK AO2 SLP134 T02390206 $

2010/08/10 10:59
KNGU 101059Z 22003KT 10SM FEW060 26/23 A2999 RMK AO2 SLP156 T02560228

2010/08/10 10:56
KNRS 101056Z AUTO 00000KT 10SM OVC013 17/14 A2990 RMK AO2 SLP125 T01720144 TSNO

2010/08/10 10:55
PWAK 101055Z 07011KT 10SM FEW023 28/24 A3006 RMK AO2A

2010/08/10 10:55
KDMA 101055Z AUTO 16006KT 10SM CLR 24/17 A2995 RMK AO2 SLP071 T02430169 VISNO RWY12 CHINO RWY12 $

2010/08/10 10:55
KLUF 101055Z AUTO 04005KT 10SM FEW120 28/15 A2981 RMK AO2 SLP065 T02830150 $

2010/08/10 10:55
KMXF 101055Z AUTO 00000KT 9SM FEW070 25/24 A2997 RMK AO2 SLP146 T02510236

2010/08/10 10:56
KNFL 101056Z AUTO 22004KT 10SM CLR 16/04 A2995 RMK AO2 SLP114 T01560044 TSNO

2010/08/10 10:56
KNSE 101056Z AUTO 03004KT 4SM HZ CLR 26/23 A2994 RMK AO2 SLP122 T02560228 $

2010/08/10 10:56
KOSC 101056Z AUTO 32007KT OVC001 21/20 A2997 RMK AO2 PWINO

2010/08/10 10:55
KTTS 101055Z 10005KT 10SM FEW025 SCT050 26/25 A2993 RMK SLP135 2CU 2SC /4/

2010/08/10 10:56
PPIZ 101056Z AUTO 06017G23KT 10SM CLR 04/03 A2967 RMK AO2 TSNO T00440027 PK WND 06027/1028 SLP051 $

2010/08/10 10:56
PANW 101056Z AUTO 18007KT 10SM OVC001 09/09 A2965 RMK AO2 PWINO TSNO T00940088 SLP018 $

2010/08/10 11:00
KI16 101100Z AUTO 00000KT 5SM -DZ SCT042 BKN060 OVC090 20/20 A3007 RMK AO2

2010/08/10 11:00
KJFZ 101100Z AUTO 00000KT 10SM FEW028 22/20 A3012 RMK

2010/08/10 10:55
KLGC 101055Z AUTO 00000KT 5SM CLR 21/ A3001 RMK AO1

2010/08/10 11:00
KLOM 101100Z AUTO 00000KT 5SM CLR 24/22 A2993 RMK AO1 T02360222

2010/08/10 11:00
KMKJ 101100Z AUTO 00000KT 4SM BKN080 19/08 A3018 RMK AO1

2010/08/10 11:00
KMQS 101100Z AUTO 00000KT 7SM CLR 24/24 A2997 RMK AO2

2010/08/10 11:00
KMTV 101100Z AUTO 00000KT 2SM BR CLR 22/22 A3004 RMK AO2

2010/08/10 11:00
KOBE 101100Z AUTO 10003KT 5SM BR CLR 23/22 A2989 RMK AO2

2010/08/10 11:00
KOKV 101100Z AUTO 25003KT 7SM SCT080 24/21 A2999 RMK AO2 T02360206

2010/08/10 11:00
KOMH 101100Z AUTO 00000KT 5SM BR CLR 23/23 A2998 RMK AO2 T02250226

2010/08/10 11:00
KOPN 101100Z AUTO 00000KT 5SM CLR 23/23 A3003 RMK AO1

2010/08/10 11:00
KPCM 101100Z AUTO 09007KT 10SM SCT012 BKN032 BKN050 26/24 A2990 RMK AO2

2010/08/10 11:00
KPSK 101100Z AUTO 00000KT 3SM BR CLR 22/19 A3012 RMK AO2

2010/08/10 11:00
KRCZ 101100Z AUTO 00000KT 1/2SM FG OVC001 24/23 A3003 RMK AO2 T02350233

2010/08/10 11:00
KRMN 101100Z AUTO 00000KT 3SM BR CLR 21/21 A2999 RMK AO2

2010/08/10 11:00
KSFQ 101100Z AUTO 00000KT 7SM CLR 24/23 A2999 RMK AO2

2010/08/10 11:00
KSHD 101100Z AUTO 00000KT 2SM BR CLR 19/19 A3003 RMK AO2

2010/08/10 11:00
KTBR 101100Z AUTO 00000KT 2 1/2SM BR SCT002 24/24 A3000 RMK AO2 T02360236

2010/08/10 11:00
KTVI 101100Z AUTO 06004KT 7SM BKN007 25/24 A2997 RMK AO2 T02490240

2010/08/10 11:00
KVDI 101100Z AUTO 00000KT 7SM CLR 25/24 A3001 RMK AO2

2010/08/10 11:00
KVJI 101100Z AUTO 00000KT 7SM BKN060 OVC070 23/22 A3011 RMK AO2 TSNO

2010/08/10 11:00
KW22 101100Z AUTO 00000KT 5SM BR CLR 19/19 A3006 RMK AO2

2010/08/10 11:00
KW45 101100Z AUTO 00000KT 2SM BR CLR 22/22 A3000 RMK AO2 T02150216

2010/08/10 11:00
KWDR 101100Z AUTO 00000KT 4SM CLR 23/21 A3008 RMK AO1

2010/08/10 11:00
KXLL 101100Z AUTO 05005KT 7SM SCT120 25/22 A2996 RMK AO2 T02470220

2010/08/10 11:00
KXSA 101100Z AUTO 00000KT 7SM CLR 23/22 A2996 RMK AO2

2010/08/10 10:56
KY70 101056Z AUTO 26003KT M1/4SM FG OVC001 20/19 A2999 RMK AO2 T01950190

2010/08/10 10:56
KNSE 101056Z AUTO 03004KT 4SM HZ CLR 26/23 A2994 RMK AO2 SLP122 T02560228 $

2010/08/10 10:55
KTTS 101055Z 10005KT 10SM FEW025 SCT050 26/25 A2993 RMK SLP135 2CU 2SC /4/

2010/08/10 11:00
KCCO 101100Z AUTO 00000KT 2SM CLR 21/21 A3004 RMK AO1

2010/08/10 10:53
KFXE 101053Z COR 15008KT 6SM -RA FEW015 SCT044 BKN060 26/23 A2988 RMK AO2 RAB30 SLP121 P0005 T02560233

2010/08/10 11:00
FLLS 101100Z 08010KT CAVOK 26/05 Q1024

2010/08/10 11:00
FNLU 101100Z 27004KT 9999 FEW016 BKN024 25/19 Q1015 NSG

2010/08/10 11:00
FQMA 101100Z 18010KT 150V210 9999 FEW020 24/02 Q1031 NOSIG

2010/08/10 11:02
KBTR 101102Z 06003KT 3/4SM BR SCT002 BKN200 23/23 A2994 RMK AO2 VIS SW-NW 2 SCT V BKN RVRNO

2010/08/10 11:03
KCAE 101103Z 00000KT 1/4SM FG OVC002 24/23 A3002 RMK AO2 TWR VIS 1/4 RVRNO

2010/08/10 11:03
KSXT 101103Z AUTO 36007KT 1 1/2SM BR FEW002 10/09 A2997 RMK AO2 TSNO

2010/08/10 11:04
KUIL 101104Z AUTO 00000KT 2 1/2SM BR BKN001 OVC006 12/12 A2995 RMK AO2 TSNO

2010/08/10 11:00
GMAD 101100Z 27008KT 8000 NSC 27/20 Q1016 NOSIG

2010/08/10 11:00
GMFF 101100Z 3209KT 8000 FEW033 SCT100 38/09 Q1019 NOSIG

2010/08/10 11:00
GMME 101100Z 34006KT 300V360 6000 NSC 34/19 Q1016 NOSIG

2010/08/10 11:00
GMMX 101100Z 03004KT 340V090 8000 SCT100 39/13 Q1017 NOSIG

2010/08/10 11:00
GMTT 101100Z 06010KT CAVOK 35/12 Q1016 NOSIG

2010/08/10 11:00
FLLS 101100Z 08010KT CAVOK 26/05 Q1024

2010/08/10 11:00
SBCP 101100Z 22004KT 9999 FEW020 OVC090 20/19 Q1024

2010/08/10 11:00
FALA 101100Z 10014KT 070V130 CAVOK 17/M16 Q1032 NOSIG

2010/08/10 11:00
FBKE 101100Z 08013KT CAVOK 27/05 Q1023

2010/08/10 11:00
FBMN 101100Z 16010KT CAVOK 20/M11 Q1027

2010/08/10 11:00
FBSK 101100Z 13008KT CAVOK 18/M09 Q1030 NOSIG

2010/08/10 11:00
FDMS 101100Z 13004KT CAVOK 19/02 Q1032 NOSIG

2010/08/10 11:00
FYWB 101100Z 08027KT 9999 VV/// 33/M12 Q1016

2010/08/10 11:00
FYWH 101100Z 08007KT CAVOK 14/M16 Q1032

2010/08/10 11:00
GMFF 101100Z 3209KT 8000 FEW033 SCT100 38/09 Q1019 NOSIG

2010/08/10 11:00
GMFK 101100Z 16005KT CAVOK 36/16 Q1023

2010/08/10 11:00
GMFM 101100Z 30006KT CAVOK 38/10 Q1020

2010/08/10 11:00
GMFO 101100Z 01011KT 340V040 9999 FEW033 34/19 Q1019 NOSIG

2010/08/10 11:00
GMMH 101100Z 02015KT 8000 FEW010 BKN200 24/19 Q1015

2010/08/10 11:00
GMML 101100Z 03011KT 8000 FEW033 BKN100 28/19 Q1016

2010/08/10 11:00
GMMW 101100Z 00000KT CAVOK 32/19 Q1018

2010/08/10 11:00
GMMZ 101100Z VRB01KT 8000 FEW040 35/08 Q1025

2010/08/10 11:00
HECA 101100Z 33009KT CAVOK 34/18 Q1008 NOSIG

2010/08/10 10:50
HLLT 101050Z 02004KT 330V140 CAVOK 32/10 Q1016

2010/08/10 10:49
RKPK 101049Z 16013KT 4800 -RA BR FEW010 SCT010CB OVC025 27/23 Q1007 NOSIG RMK TS E46 MOVED N

2010/08/10 10:53
PABR 101053Z 07017KT 2 1/2SM -DZ BR OVC002 02/02 A2987

2010/08/10 10:53
PACD 101053Z 12005KT 10SM -RA BKN048 BKN055 OVC080 09/08 A2965

2010/08/10 10:55
PAED 101055Z 00000KT 10SM OVC009 11/10 A2977

2010/08/10 10:55
PAEI 101055Z AUTO 00000KT 10SM SCT085 OVC100 12/10 A2964

2010/08/10 10:53
PAEN 101053Z AUTO 00000KT 8SM FEW003 OVC044 12/11 A2978

2010/08/10 10:53
PAFA 101053Z 07003KT 10SM BKN080 11/10 A2963

2010/08/10 10:56
PAFS 101056Z AUTO 04003KT 10SM CLR 10/09 A2964

2010/08/10 10:53
PAJN 101053Z 06005KT 3SM -RA BR FEW005 BKN018 OVC035 12/12 A3001

2010/08/10 10:54
PAKN 101054Z 18011KT 5SM -RA BR OVC004 10/09 A2964

2010/08/10 10:53
PAKT 101053Z AUTO 00000KT 10SM BKN016 OVC070 13/12 A3003

2010/08/10 10:53
PANC 101053Z 00000KT 10SM SCT006 BKN015 OVC055 12/11 A2977

2010/08/10 10:53
PAOM 101053Z AUTO 04005KT 10SM SCT029 BKN034 OVC060 11/09 A2941

2010/08/10 10:53
PAOR 101053Z 21003KT 10SM SCT080 SCT110 10/09 A2973

2010/08/10 10:53
PAOT 101053Z 13005KT 10SM -RA FEW015 BKN065 OVC085 13/12 A2947

2010/08/10 10:56
PARY 101056Z AUTO 00000KT 10SM OVC060 12/09 A2962

2010/08/10 10:53
PASC 101053Z 05014KT 1 1/2SM BR OVC003 03/03 A2975

2010/08/10 10:53
PASI 101053Z 00000KT 10SM BKN003 BKN018 OVC047 13/12 A3002

2010/08/10 10:56
PATQ 101056Z AUTO 07015KT 7SM OVC005 02/01 A2979

2010/08/10 10:56
PAVD 101056Z 24003KT 3SM SCT011 OVC016 11/09 A2990

2010/08/10 10:56
PAWG 101056Z AUTO 00000KT 5SM OVC010 12/11 A3004

2010/08/10 11:00
HAAB 101100Z 27004KT 5000 RA FEW005 BKN018 OVC070 15/13 Q1026

2010/08/10 11:00
HRYR 101100Z 21007KT 9999 SCT030 27/12 Q1020 NOSIG

2010/08/10 11:00
GCFV 101100Z 05011KT 8000 SCT045 25/21 Q1016

2010/08/10 11:00
GCHI 101100Z 36010KT 340V040 9999 FEW022 SCT030 24/19 Q1017

2010/08/10 11:00
GCLA 101100Z 04006KT 350V080 9999 FEW025 26/19 Q1017

2010/08/10 11:00
GCLP 101100Z 03015KT 9999 FEW030 26/19 Q1017 NOSIG

2010/08/10 11:00
GCRR 101100Z 18004KT CAVOK 25/21 Q1016

2010/08/10 11:00
GCTS 101100Z 11005KT 030V170 9999 FEW020 BKN080 23/19 Q1017 NOSIG

2010/08/10 11:00
GCXO 101100Z VRB02KT 6000 2500NW R12/1400VP2000U PRFG FEW000 BKN100 22/18 Q1019 NOSIG

2010/08/10 11:00
GEML 101100Z 01006KT 330V070 9999 FEW015 28/22 Q1018

2010/08/10 11:00
GMFF 101100Z 3209KT 8000 FEW033 SCT100 38/09 Q1019 NOSIG

2010/08/10 11:00
GMFO 101100Z 01011KT 340V040 9999 FEW033 34/19 Q1019 NOSIG

2010/08/10 11:00
GMME 101100Z 34006KT 300V360 6000 NSC 34/19 Q1016 NOSIG

2010/08/10 11:00
GMMX 101100Z 03004KT 340V090 8000 SCT100 39/13 Q1017 NOSIG

2010/08/10 11:00
GMTT 101100Z 06010KT CAVOK 35/12 Q1016 NOSIG

2010/08/10 11:00
GQNN 101100Z 28007KT 240V320 8000 NSC 29/18 Q1013 NOSIG

2010/08/10 11:00
GBYD 101100Z VRB03KT 9999 SCT011 SCT120 27/25 Q1013

2010/08/10 11:00
GOOY 101100Z 32006KT 260V350 9999 SCT013 SCT130 29/23 Q1013 NOSIG

2010/08/10 11:00
OJAI 101100Z 28008KT 7000 NSC 35/10 Q1009 NOSIG

2010/08/10 11:00
OJAM 101100Z 33005KT 5000 HZ NSC 34/13 Q1010 NOSIG

2010/08/10 11:00
OLBA 101100Z 27005KT 200V310 8000 BKN026 31/22 Q1009 NOSIG

2010/08/10 11:00
OMAA 101100Z 31010KT CAVOK 45/15 Q0997 A2945 NOSIG

2010/08/10 11:00
OMAL 101100Z VRB06KT 9999 FEW045 43/12 Q1000 A2955

2010/08/10 11:00
OMDB 101100Z 36011KT 340V050 9999 FEW040 40/24 Q0998 NOSIG

2010/08/10 11:00
OMFJ 101100Z 09008KT 040V130 8000 NSC 34/28 Q1001 A2955

2010/08/10 11:00
OMRK 101100Z 33008KT CAVOK 43/25 Q0997 A2946

2010/08/10 11:00
OMSJ 101100Z 01011KT 340V050 6000 NSC 41/22 Q0998

2010/08/10 11:00
OYAA 101100Z 22017KT 7000 FEW030 BKN100 32/23 Q1002

2010/08/10 11:00
OYHD 101100Z 36006KT 6000 TS SCT029CB SCT059 35/31 Q1002

2010/08/10 11:00
OEDF 101100Z 12008KT 6000 SKC 44/14 Q0998 NOSIG

2010/08/10 11:00
OEDR 101100Z 13009KT 7000 SKC 41/16 Q0997 NOSIG

2010/08/10 11:00
OEJN 101100Z 28010KT CAVOK 36/25 Q1001 NOSIG

2010/08/10 11:00
OEMA 101100Z 21005KT 8000 SKC 45/M02 Q1005 NOSIG

2010/08/10 11:00
OERK 101100Z 05008KT 8000 NSC 44/04 Q1004 NOSIG

2010/08/10 11:00
OKBK 101100Z 11007KT 6000 NSC 43/14 Q0999 NOSIG

2010/08/10 11:00
OSAP 101100Z 25007KT CAVOK 38/16 Q1005

2010/08/10 11:00
OSDI 101100Z 24008KT CAVOK 37/12 Q1008

2010/08/10 11:00
OSLK 101100Z 24010KT 9999 SCT030 31/23 Q1007

2010/08/10 10:50
LTAG 101050Z 2000 SANO33 ENMI 101050 RRA METAR ENBL 101050Z 22005KT 9999 FEW035 SCT050 17/10 Q1009

2010/08/10 11:00
OJAQ 101100Z 36018KT 7000 NSC 37/19 Q1004

2010/08/10 11:00
UKBB 101100Z 12003MPS 050V150 9999 FEW033CB 28/18 Q1015 88CLRD95 NOSIG

2010/08/10 11:00
UKHH 101100Z 12004MPS 060V170 9999 SCT046 BKN200 38/06 Q1013 080///65 NOSIG

2010/08/10 11:00
UKOO 101100Z 05004MPS 010V110 CAVOK 37/15 Q1011 34090070 NOSIG

2010/08/10 11:00
UKDE 101100Z 16005MPS 110V210 9999 FEW050 SCT100 39/10 Q1011 20CLRD70 NOSIG

2010/08/10 11:00
UKDD 101100Z 14004MPS 110V210 CAVOK 38/14 Q1012 08090070 NOSIG

2010/08/10 11:00
UKFF 101100Z 04007MPS 360V080 CAVOK 37/16 Q1008 01010070 NOSIG

2010/08/10 11:00
UKLL 101100Z 26003MPS 220V330 9999 BKN033 24/16 Q1018 31090070 NOSIG

2010/08/10 11:00
UKCC 101100Z 12006MPS 090V160 CAVOK 39/04 Q1013 08090070 NOSIG

2010/08/10 11:00
UKDR 101100Z 01005MPS 330V080 CAVOK 37/14 Q1012 3609//70 NOSIG

2010/08/10 11:00
UKLR 101100Z 00000MPS 9999 SCT026 25/17 Q1017 30090070 NOSIG

2010/08/10 11:00
UKLI 101100Z 00000MPS 9999 SCT040 26/17 Q1017 28090070 TEMPO 3000 TSRA BKN020CB

2010/08/10 11:00
UKON 101100Z 03004MPS 350V070 CAVOK 37/12 Q1011 05090075 NOSIG

2010/08/10 11:00
UKCM 101100Z 07007MPS 030V110 CAVOK 37/11 Q1011 02010065 NOSIG

2010/08/10 11:00
UKCW 101100Z 09005MPS 050V110 CAVOK 40/03 Q1013 0909//70 NOSIG

2010/08/10 11:00
UKLU 101100Z 00000MPS 9999 BKN036 25/17 Q1018 10090070 NOSIG

2010/08/10 11:00
UKKK 101100Z 12003MPS 080V160 5000 FU NSC 31/18 Q1015 08CLRD70 NOSIG

2010/08/10 11:00
UKKM 101100Z 14003MPS 090V180 CAVOK 32/15 Q1015 33CLRD70 NOSIG

2010/08/10 11:00
UKLN 101100Z 32003MPS 270V030 CAVOK 25/17 Q1017 3309//70 NOSIG

2010/08/10 11:00
SBBE 101100Z 08007KT CAVOK 27/23 Q1013

2010/08/10 11:00
SBBR 101100Z 35002KT CAVOK 16/06 Q1025

2010/08/10 11:00
SBBV 101100Z 33002KT 9999 FEW010 SCT100 25/23 Q1014

2010/08/10 11:00
SBCF 101100Z 17007KT CAVOK 13/10 Q1025

2010/08/10 11:00
SBCG 101100Z 13008KT CAVOK 15/11 Q1021

2010/08/10 11:00
SBEG 101100Z 35002KT 5000 BR FEW010 23/22 Q1014

2010/08/10 11:00
SBFI 101100Z 29002KT 8000 FEW006 SCT100 11/10 Q1021

2010/08/10 11:00
SBFZ 101100Z 16013KT 9999 SCT018 BKN090 26/20 Q1016

2010/08/10 11:00
SBGL 101100Z 35004KT 9000 SCT008 BKN018 20/17 Q1025

2010/08/10 11:00
SBGR 101100Z 14005KT 5000 BR FEW006 13/13 Q1026

2010/08/10 11:00
SBKP 101100Z 12009KT 7000 NSC 14/11 Q1025

2010/08/10 11:00
SBNT 101100Z 15008KT 9999 BKN025 BKN070 24/22 Q1017

2010/08/10 11:00
SBPA 101100Z 08001KT 0200 R11/0300 R29/0300 FG OVC002 05/05 Q1029

2010/08/10 11:00
SBPS 101100Z 30004KT 9999 FEW020 19/18 Q1022

2010/08/10 11:00
SBRF 101100Z 15014KT CAVOK 27/17 Q1018

2010/08/10 11:00
SBSL 101100Z 08006KT 9999 FEW017 28/24 Q1014

2010/08/10 11:00
SBSN 101100Z 00000KT CAVOK 27/23 Q1013

2010/08/10 11:00
SBSV 101100Z 11004KT 9999 FEW017 24/21 Q1020

2010/08/10 11:00
SBTT 101100Z 00000KT 5000 BR NSC 23/21 Q1013

2010/08/10 11:00
SABE 101100Z 00000KT 4000 BR NSC 08/06 Q1029

2010/08/10 11:00
SBAR 101100Z 12009KT 9999 SCT017 26/21 Q1019

2010/08/10 11:00
SBCJ 101100Z 08002KT CAVOK 23/16 Q1018

2010/08/10 11:00
SBCR 101100Z 20003KT CAVOK 15/11 Q1018

2010/08/10 11:00
SBCT 101100Z 05002KT 8000 BKN005 OVC009 09/08 Q1027

2010/08/10 11:00
SBCY 101100Z 20004KT CAVOK 21/15 Q1017

2010/08/10 11:00
SBCZ 101100Z 00000KT 5000 FU NSC 20/20 Q1014

2010/08/10 11:00
SBFL 101100Z 18005KT 9999 BKN030 15/11 Q1027

2010/08/10 11:00
SBFN 101100Z 15010KT 9999 FEW017 27/22 Q1016

2010/08/10 11:00
SBGO 101100Z 12007KT CAVOK 17/11 Q1022

2010/08/10 11:00
SBLO 101100Z 14006KT CAVOK 12/11 Q1023

2010/08/10 11:00
SBMA 101100Z 00000KT 8000 NSC 26/21 Q1014

2010/08/10 11:00
SBMN 101100Z 34003KT 9999 FEW015 26/23 Q1013

2010/08/10 11:00
SBMO 101100Z 15004KT 9999 SCT020 24/19 Q1019

2010/08/10 11:00
SBMQ 101100Z 33003KT 9999 SCT015 BKN090 26/25 Q1014

2010/08/10 11:00
SBPK 101100Z 29002KT CAVOK 05/04 Q1029

2010/08/10 11:00
SBPV 101100Z 00000KT 5000 BR NSC 21/19 Q1013

2010/08/10 11:00
SBRB 101100Z 00000KT 3000 FU NSC 21/19 Q1015

2010/08/10 11:00
SBRJ 101100Z 16004KT 9999 FEW005 BKN030 BKN070 21/17 Q1025

2010/08/10 11:00
SBSJ 101100Z 12004KT 5000 BR BKN010 BKN070 16/13 Q1026

2010/08/10 11:00
SBSP 101100Z 15005KT 5000 BR BKN007 14/12 Q1027

2010/08/10 11:00
SBTE 101100Z 20004KT CAVOK 26/19 Q1015

2010/08/10 11:00
SBUG 101100Z 16005KT CAVOK 03/02 Q1026

2010/08/10 11:00
SBVT 101100Z 20010KT 9999 SCT020 BKN100 24/19 Q1024

2010/08/10 11:00
SBPB 101100Z 11007KT CAVOK 27/23 Q1014

2010/08/10 11:00
SBPL 101100Z 14010KT 9999 FEW017 22/17 Q1021

2010/08/10 11:00
SBRP 101100Z 12008KT 2000 BR NSC 15/12 Q1022

2010/08/10 10:49
RKPK 101049Z 16013KT 4800 -RA BR FEW010 SCT010CB OVC025 27/23 Q1007 NOSIG RMK TS E46 MOVED N

2010/08/10 11:00
MBPV 101100Z 11006KT 9999 SCT015 27/25 A2994

2010/08/10 10:52
MUCM 101052Z 04004KT 010V070 9000 FEW018 24/23 Q1013

2010/08/10 10:52
MUCU 101052Z 35004KT 9000 FEW025 25/24 Q1014

2010/08/10 10:55
MUHA 101055Z 19005KT 8000 FEW035 BKN150 23/22 Q1011

2010/08/10 10:52
MUVR 101052Z 17005KT 130V210 9000 FEW018 BKN060 23/20 Q1013

2010/08/10 10:59
MYEG 101059Z AUTO 00000KT 10SM VCTS SCT021 SCT029 SCT034 24/22 A2994 RMK AO2 LTG DSNT S P0002

2010/08/10 11:00
MYGF 101100Z 14010KT 9999 BKN018 SCT100 27/24 A2994 /

2010/08/10 11:00
MYGF 101100Z 14010KT 9999 BKN018 SCT100 27/24 A2994

2010/08/10 11:00
MYNN 101100Z 17007KT 9999 SCT020 SCT050 OVC080 27/26 A2993

2010/08/10 10:53
PABI 101053Z AUTO 21006KT 10SM CLR 15/06 A2969

2010/08/10 10:55
PACZ 101055Z AUTO 19009KT 10SM BKN006 OVC010 09/08 A2932

2010/08/10 10:56
PADK 101056Z 26013KT 10SM OVC070 09/07 A2990

2010/08/10 10:53
PADQ 101053Z 19005KT 10SM SCT022 OVC200 12/08 A2978

2010/08/10 10:55
PAEH 101055Z AUTO 17016G27KT 1 3/4SM OVC004 08/07

2010/08/10 10:58
PAGA 101058Z AUTO 12007KT 10SM OVC110 13/11 A2958

2010/08/10 10:55
PAIM 101055Z AUTO 00000KT 10SM SCT036 BKN070 OVC095 11/11 A2964

2010/08/10 10:55
PALU 101055Z AUTO 06017KT 7SM 08/08 A2960

2010/08/10 10:55
PASV 101055Z AUTO 00000KT 10SM OVC028 09/08 A2963

2010/08/10 10:56
PASY 101056Z AUTO 28010KT 1 1/4SM BR OVC001 09/09 A2990

2010/08/10 10:55
PATC 101055Z AUTO 03011KT 1/2SM BKN070 BKN090 10/09 A2944

2010/08/10 10:55
PATL 101055Z AUTO 31005KT 10SM SCT020 BKN025 OVC100 11/09 A2961

2010/08/10 11:00
TBPB 101100Z 15005KT 9999 FEW020 SCT280 27/24 Q1014 NOSIG

2010/08/10 11:00
TFFF 101100Z 09003KT 030V110 9999 FEW023 SCT300 27/25 Q1014 NOSIG

2010/08/10 11:00
TFFR 101100Z 09002KT 9999 FEW020 28/25 Q1014 TEMPO 4000 SHRA

2010/08/10 11:00
TLPL 101100Z 15008KT 9999 FEW010 SCT024 28/25 Q1014

2010/08/10 11:00
MDSD 101100Z VRB03KT 8000 -TSRA FEW016CB BKN018 24/22 Q1013 CB/NE/E/SE/S/N

2010/08/10 11:00
MDST 101100Z 00000KT 5000 BR BKN016 24/24 Q1013 BR/ALL QDS

2010/08/10 11:00
TAPA 101100Z 10010KT 9999 FEW020 28/24 Q1013

2010/08/10 10:53
TIST 101053Z 09007KT 10SM FEW070 29/24 A2994 RMK AO2 SLP137 T02890244

2010/08/10 10:53
TISX 101053Z 08008KT 10SM CLR 27/24 A2994 RMK AO2 SLP138 T02720244

2010/08/10 10:56
TJSJ 101056Z 13004KT 10SM FEW022 SCT045 SCT070 27/24 A2996 RMK AO2 SLP143 T02720239

2010/08/10 11:00
TKPK 101100Z 09007KT 9999 SCT015 28/25 Q1014

2010/08/10 11:00
TKPN 101100Z 12009KT 9999 SCT017 29/25 Q1013

2010/08/10 11:00
TUPJ 101100Z 12011KT 9999 SCT019 28/23 A2995 RMK Q1014

2010/08/10 11:00
MGPB 101100Z 00000KT 9999 FEW016 SCT090 26/25 Q1010 A2983 CB/LTN G DIST NNW

2010/08/10 11:00
MGSJ 101100Z 00000KT 9999 FEW016 BKN200 24/24 Q1012 A2988

2010/08/10 11:00
MHLC 101100Z 00000KT 9999 SCT024 24/23 Q1010 A2982 NOSIG

2010/08/10 11:00
MHLM 101100Z 00000KT 9999 SCT026 26/26 Q1010 A2983 NOSIG

2010/08/10 11:00
MHTG 101100Z 21003KT 9999 FEW006 18/17 Q1017 A3003 NOSIG

2010/08/10 11:00
MPTO 101100Z 00000KT 9999 SCT018CB 26/24 Q1010 NOSIG

2010/08/10 11:00
MROC 101100Z 04002KT 9999 4500WSW BR FEW002 BKN013 21/21 A3000 NOSIG

2010/08/10 10:50
MSLP 101050Z 20003KT 9999 8000S FEW020 FEW037CB SCT100 24/23 Q1010 A2983 LTGIC TO S

2010/08/10 10:51
MUCL 101051Z 12003KT 9000 FEW015 SCT060 25/25 Q1013

2010/08/10 10:52
MUCM 101052Z 04004KT 010V070 9000 FEW018 24/23 Q1013

2010/08/10 10:52
MUCU 101052Z 35004KT 9000 FEW025 25/24 Q1014

2010/08/10 10:56
MUGM 101056Z 36007KT 9999 FEW028CB BKN250 26/23 A2992 RMK SLP130 CB DSNT E TCU DSNT NE T02560228

2010/08/10 10:55
MUHA 101055Z 19005KT 8000 FEW035 BKN150 23/22 Q1011

2010/08/10 10:52
MUVR 101052Z 17005KT 130V210 9000 FEW018 BKN060 23/20 Q1013

2010/08/10 11:00
MGGT 101100Z 03008KT 9999 BKN014 18/16 Q1022 A3018 VOL/ PACAYA EN ACTI VIDAD NOSIG

2010/08/10 11:00
MGGT 101100Z 03008KT 9999 BKN014 18/16 Q1022 A3018 VOL. PACAYA EN ACTIVIDAD NOSIG

2010/08/10 11:00
MGGT 101100Z 03008KT 9999 BKN014 18/16 Q1022 A3018 VOL. PACAYA EN ACTI VIDAD NOSIG

2010/08/10 11:00
MGHT 101100Z 00000KT 9999 SCT015 BKN200 15/14 QFE 817/2

2010/08/10 11:00
MGHT 101100Z 00000KT 9999 SCT015 BKN200 15/14 QFE 817.2

2010/08/10 11:00
MNMG 101100Z 00000KT 8000 -TSRA FEW020CB SCT022 24/23 Q1010 A2984 CB/N/NE/E/SE/S/SW NOSIG

2010/08/10 11:00
ZBAA 101100Z 13004MPS 4000 HZ NSC 27/21 Q1005 NOSIG

2010/08/10 11:00
ZBTJ 101100Z 14004MPS 7000 NSC 28/21 Q1005 NOSIG

2010/08/10 11:00
ZBYN 101100Z 08005MPS 9999 SCT040 24/17 Q1009 NOSIG

2010/08/10 11:00
ZGGG 101100Z 14004MPS 9000 FEW033 34/24 Q1004 NOSIG

2010/08/10 11:00
ZGNN 101100Z 00000MPS 9999 -SHRA FEW020 FEW030CB BKN046 27/24 Q1005 RETS NOSIG

2010/08/10 11:00
ZGSZ 101100Z 17005MPS 9999 FEW022 30/24 Q1005 NOSIG

2010/08/10 11:00
ZMUB 101100Z 33005MPS 9999 FEW030CB BKN033 25/02 Q1004 NOSIG RMK QFE646.8 23

2010/08/10 11:00
ZPPP 101100Z 18003MPS 160V240 9999 FEW026TCU FEW026 25/17 Q1014 NOSIG

2010/08/10 11:00
ZSAM 101100Z 20004MPS CAVOK 30/24 Q1006 NOSIG

2010/08/10 11:00
ZSHC 101100Z 03002MPS CAVOK 33/24 Q1003 NOSIG

2010/08/10 11:00
ZSPD 101100Z 33004MPS CAVOK 29/24 Q1003 NOSIG

2010/08/10 11:00
ZSSS 101100Z 36004MPS 9999 FEW030TCU 31/24 Q1003 NOSIG

2010/08/10 11:00
ZUUU 101100Z 20001MPS 9999 FEW030CB SCT030 33/25 Q1000 NOSIG

2010/08/10 11:00
ZWWW 101100Z 01003MPS CAVOK 31/07 Q1003 NOSIG

2010/08/10 11:00
ZYTL 101100Z 09004MPS CAVOK 24/20 Q1006 NOSIG

2010/08/10 11:00
EPGD 101100Z 11004KT 060V140 9999 SCT036 21/14 Q1017

2010/08/10 11:00
EPKK 101100Z 28004KT 180V350 9999 SCT033 23/15 Q1018

2010/08/10 11:00
EPKT 101100Z 23007KT 9999 BKN030TCU 23/15 Q1018

2010/08/10 11:00
EPPO 101100Z 28003KT 220V360 9999 BKN030TCU 24/16 Q1017

2010/08/10 11:00
EPRZ 101100Z 26008KT 210V280 9999 SCT030 24/16 Q1017

2010/08/10 11:00
EPWA 101100Z 17004KT 130V250 9999 BKN036 26/17 Q1016 NOSIG

2010/08/10 11:00
UKBB 101100Z 12003MPS 050V150 9999 FEW033CB 28/18 Q1015 88CLRD95 NOSIG

2010/08/10 11:00
UKKK 101100Z 12003MPS 080V160 5000 FU NSC 31/18 Q1015 08CLRD70 NOSIG

2010/08/10 11:00
UKLL 101100Z 26003MPS 220V330 9999 BKN033 24/16 Q1018 31090070 NOSIG

2010/08/10 11:00
UKOO 101100Z 05004MPS 010V110 CAVOK 37/15 Q1011 34090070 NOSIG

2010/08/10 10:53
TIST 101053Z 09007KT 10SM FEW070 29/24 A2994

2010/08/10 10:53
TISX 101053Z 08008KT 10SM CLR 27/24 A2994

2010/08/10 10:56
TJSJ 101056Z 13004KT 10SM FEW022 SCT045 SCT070 27/24 A2996

2010/08/10 11:00
LBBG 101100Z 35006MPS 310V020 CAVOK 32/22 Q1011 NOSIG

2010/08/10 11:00
LBPD 101100Z VRB02MPS CAVOK 31/18 Q1013 NOSIG

2010/08/10 11:00
LBSF 101100Z VRB02MPS CAVOK 29/19 Q1016 NOSIG

2010/08/10 11:00
LBWN 101100Z 34006MPS 310V010 CAVOK 32/22 Q1011 WS RWY09 NOSIG

2010/08/10 11:00
LHBP 101100Z VRB03KT 9999 FEW045 SCT079 25/16 Q1018 NOSIG

2010/08/10 11:00
LRAR 101100Z 33006KT 300V030 CAVOK 27/14 Q1017

2010/08/10 11:00
LRBS 101100Z 06004KT CAVOK 31/18 Q1014 NOSIG

2010/08/10 11:00
LRCK 101100Z VRB06KT CAVOK 34/18 Q1012 NOSIG

2010/08/10 11:00
LROP 101100Z 03003KT 320V100 CAVOK 31/21 Q1013 880///95 NOSIG

2010/08/10 11:00
LRTM 101100Z 29004KT 250V330 9999 SCT033 26/17 Q1017

2010/08/10 11:00
LRTR 101100Z 35005KT 280V070 9999 FEW040 27/14 Q1017 NOSIG

2010/08/10 10:49
RKPK 101049Z 16013KT 4800 -RA BR FEW010 SCT010CB OVC025 27/23 Q1007 NOSIG RMK TS E46 MOVED N

2010/08/10 11:00
LATI 101100Z 34008KT 9999 FEW030 SCT150 33/17 Q1011 NOSIG

2010/08/10 11:00
LDDU 101100Z VRB04KT CAVOK 29/11 Q1014 NOSIG

2010/08/10 11:00
LDOS 101100Z 36003KT 9999 FEW033 27/15 Q1018

2010/08/10 11:00
LDPL 101100Z 22004KT 080V330 CAVOK 29/18 Q1015 NOSIG

2010/08/10 11:00
LDRI 101100Z 28006KT 240V320 9999 FEW045 29/16 Q1015

2010/08/10 11:00
LDSP 101100Z 23010KT 190V260 9999 FEW028 31/13 Q1014 NOSIG

2010/08/10 11:00
LDZA 101100Z VRB04KT 9999 FEW035 27/17 Q1017 NOSIG

2010/08/10 11:00
LDZD 101100Z 26009KT 230V310 9999 FEW050 31/13 Q1014 NOSIG

2010/08/10 11:00
LKMT 101100Z VRB01KT 9999 FEW036 23/14 Q1018 NOSIG

2010/08/10 11:00
LKPR 101100Z 04004KT 330V090 9999 BKN045 23/12 Q1018 NOSIG

2010/08/10 11:00
LKTB 101100Z 21004KT 140V250 9999 SCT043 25/15 Q1018 NOSIG

2010/08/10 11:00
LQSA 101100Z VRB03KT 9999 SCT050 26/13 Q1018 NOSIG

2010/08/10 11:00
LWOH 101100Z 16005KT 140V200 9999 FEW050 24/16 Q1016

2010/08/10 11:00
LWSK 101100Z 03007KT 350V070 CAVOK 30/12 Q1015 NOSIG

2010/08/10 11:00
LYBE 101100Z 36006KT 300V050 9999 SCT043 27/15 Q1018 NOSIG

2010/08/10 11:00
LYNI 101100Z 33011KT 9999 FEW030 27/16 Q1017 NOSIG

2010/08/10 11:00
LYPG 101100Z 22006KT 180V260 9999 FEW040 31/14 Q1012 NOSIG

2010/08/10 11:00
LYTV 101100Z 20005KT 150V280 CAVOK 31/17 Q1013 NOSIG

2010/08/10 11:00
LZIB 101100Z VRB02KT 9999 SCT040 25/15 Q1018

2010/08/10 11:00
LZKZ 101100Z 23003KT 160V330 9999 SCT042 25/12 Q1017 NOSIG

2010/08/10 11:00
LZTT 101100Z VRB02KT 9999 SCT046 22/12 Q1018 NOSIG

2010/08/10 11:00
LFBD 101100Z 02003KT 300V090 9999 FEW033 BKN250 23/12 Q1018 NOSIG

2010/08/10 11:00
LFBH 101100Z AUTO 23007KT 180V270 9999NDV FEW019 BKN031 21/15 Q1018

2010/08/10 11:00
LFBI 101100Z 22007KT 170V280 9999 SCT021 SCT110 BKN260 21/14 Q1018 BECMG BKN013

2010/08/10 11:00
LFBO 101100Z VRB03KT 9999 FEW043 BKN250 25/14 Q1018 NOSIG

2010/08/10 11:00
LFBP 101100Z VRB02KT 9999 FEW026 23/16 Q1018 NOSIG

2010/08/10 11:00
LFBT 101100Z VRB03KT 9999 FEW033 22/15 Q1019 NOSIG

2010/08/10 11:00
LFBZ 101100Z 08004KT 350V130 9999 FEW025 SCT230 24/17 Q1018 NOSIG

2010/08/10 11:00
LFGJ 101100Z AUTO 20006KT 140V270 9999NDV NSC 26/15 Q1017

2010/08/10 11:00
LFKB 101100Z 12006KT 100V170 9999 FEW030 SCT036 29/19 Q1015 NOSIG

2010/08/10 11:00
LFKC 101100Z 36011KT 320V020 9999 FEW013 27/20 Q1016 NOSIG

2010/08/10 11:00
LFKJ 101100Z 23011KT 9999 FEW036 27/21 Q1016 NOSIG

2010/08/10 11:00
LFLB 101100Z 36005KT 9999 FEW053 SCT090 BKN260 26/17 Q1016 NOSIG

2010/08/10 11:00
LFLC 101100Z 06004KT 360V100 9999 FEW043 BKN250 24/15 Q1018 NOSIG

2010/08/10 11:00
LFLL 101100Z 35007KT 290V030 CAVOK 26/15 Q1017 NOSIG

2010/08/10 11:00
LFLS 101100Z 04005KT 320V090 9999 FEW060 BKN250 26/14 Q1017 NOSIG

2010/08/10 11:00
LFLY 101100Z 02005KT 340V060 9999 FEW043 BKN250 27/15 Q1017 NOSIG

2010/08/10 11:00
LFMD 101100Z AUTO 17008KT 120V200 9999NDV NSC 27/22 Q1015

2010/08/10 11:00
LFMH 101100Z VRB03KT 9999 FEW040 BKN210 25/13 Q1018 NOSIG

2010/08/10 10:53
PHJR 101053Z AUTO VRB05KT 10SM FEW055 25/18 A3010

2010/08/10 10:53
PHKO 101053Z AUTO 00000KT 10SM CLR 23/17 A3002

2010/08/10 10:53
PHLI 101053Z 06019KT 8SM -RA SCT025 BKN037 OVC047 23/19 A3012

2010/08/10 10:53
PHNL 101053Z 07010KT 10SM FEW032 SCT050 26/17 A3008

2010/08/10 10:54
PHOG 101054Z AUTO 04010KT 10SM FEW060 24/18 A3008

2010/08/10 10:53
PHTO 101053Z 23006KT 10SM FEW026 SCT060 22/17 A3010

2010/08/10 11:00
LFML 101100Z 27003KT 240V320 9999 FEW040 29/18 Q1015 NOSIG

2010/08/10 11:00
LFMN 101100Z 14006KT 9999 FEW016 26/21 Q1016 NOSIG

2010/08/10 11:00
LFMP 101100Z VRB02KT 9999 FEW050 29/13 Q1016 NOSIG

2010/08/10 11:00
LFMT 101100Z 18008KT CAVOK 28/14 Q1015 BECMG 20012KT

2010/08/10 11:00
LFOB 101100Z 23015KT 210V270 9999 FEW040 SCT060 BKN110 23/12 Q1014 NOSIG

2010/08/10 11:00
LFOH 101100Z AUTO 21011KT 7000NDV -RA BKN004 OVC011 18/17 Q1014

2010/08/10 11:00
LFOT 101100Z AUTO 23006KT 200V270 9999NDV BKN017 OVC023 20/15 Q1017

2010/08/10 11:00
LFPB 101100Z 21010KT 180V260 9999 FEW040 BKN230 25/13 Q1015 NOSIG

2010/08/10 11:00
LFPG 101100Z 22013KT CAVOK 24/12 Q1015 NOSIG

2010/08/10 11:00
LFPN 101100Z 21012KT 180V240 CAVOK 25/13 Q1015 NOSIG

2010/08/10 11:00
LFPO 101100Z 21011KT 180V240 9999 FEW046 BKN250 24/13 Q1015 NOSIG

2010/08/10 11:00
LFQQ 101100Z 22011KT 190V250 9999 FEW023 BKN110 21/14 Q1013 NOSIG

2010/08/10 11:00
LFRB 101100Z 22015KT 9999 -RA BKN009 BKN014 18/17 Q1014 NOSIG

2010/08/10 11:00
LFRC 101100Z AUTO 24013KT 9999NDV -RA BKN008 BKN037 18/17 Q1013

2010/08/10 11:00
LFRD 101100Z AUTO 24009KT 9999NDV FEW011 SCT022 BKN038 20/18 Q1015

2010/08/10 11:00
LFRK 101100Z 20012KT 4000 -RADZ BR BKN011 19/18 Q1014

2010/08/10 11:00
LFRN 101100Z AUTO 23011KT 9999NDV BKN014 OVC020 20/17 Q1015

2010/08/10 11:00
LFRO 101100Z AUTO 23014KT 9999NDV SCT022 BKN046 BKN092 20/17 Q1014

2010/08/10 11:00
LFRQ 101100Z 24012KT 200V270 9999 SCT011 BKN024 20/17 Q1015 NOSIG

2010/08/10 11:00
LFRS 101100Z 24010KT 200V260 9999 BKN019 BKN031 22/16 Q1017 NOSIG

2010/08/10 11:00
LFRT 101100Z 25012KT 210V270 9999 SCT017 BKN026 20/17 Q1014

2010/08/10 11:00
LFRZ 101100Z AUTO 24012KT 9999NDV BKN011 BKN028 OVC038 20/18 Q1017

2010/08/10 11:00
LFSB 101100Z VRB04KT CAVOK 27/10 Q1017 NOSIG

2010/08/10 11:00
LFSF 101100Z AUTO 20008KT 160V260 9999NDV NSC 28/09 Q1015

2010/08/10 11:00
LFSN 101100Z 22005KT 130V300 CAVOK 28/10 Q1015 NOSIG

2010/08/10 11:00
LFSR 101100Z AUTO 26008KT 220V300 9999NDV NSC 24/13 Q1015

2010/08/10 11:00
LFST 101100Z 18005KT 130V210 9999 FEW060 26/15 Q1016 NOSIG

2010/08/10 11:00
LFTW 101100Z AUTO VRB04KT 9999NDV NSC 30/14 Q1015

2010/08/10 11:00
LFBA 101100Z VRB03KT 9999 FEW036 SCT250 24/13 Q1018 NOSIG

2010/08/10 11:00
LFBC 101100Z AUTO 21006KT 160V240 9999NDV NSC 23/13 Q1018

2010/08/10 11:00
LFBM 101100Z AUTO VRB03KT 9999NDV FEW031 24/15 Q1018

2010/08/10 11:00
LFKF 101100Z 22010KT 190V250 9999 FEW036 28/20 Q1016 NOSIG

2010/08/10 11:00
LFOE 101100Z AUTO 24014KT 9999NDV NSC 23/11 Q1015

2010/08/10 11:00
LFOP 101100Z 25010KT 200V270 9999 -DZRA BKN030 BKN039 19/14 Q1015 BECMG 8000 RA SCT010 BKN025

2010/08/10 11:00
LFPB 101100Z 21010KT 180V260 9999 FEW040 BKN230 25/13 Q1015 NOSIG

2010/08/10 11:00
LFPG 101100Z 22013KT CAVOK 24/12 Q1015 NOSIG

2010/08/10 11:00
LFPV 101100Z AUTO 22010KT 180V260 9999NDV FEW042 SCT160 23/13 Q1015

2010/08/10 11:00
LFQQ 101100Z 22011KT 190V250 9999 FEW023 BKN110 21/14 Q1013 NOSIG

2010/08/10 11:00
LFRH 101100Z 24013KT 8000 BKN006 BKN049 20/18 Q1016

2010/08/10 11:00
LFSD 101100Z AUTO 19004KT 120V240 9999NDV NSC 27/16 Q1016

2010/08/10 11:00
LFSI 101100Z AUTO 24008KT 200V280 9999NDV NSC 26/12 Q1016

2010/08/10 11:00
LFSL 101100Z AUTO VRB02KT 9999NDV NSC 22/12 Q1019

2010/08/10 11:00
LFSO 101100Z AUTO 25006KT 180V310 9999NDV NSC 27/09 Q1016

2010/08/10 11:00
LFSX 101100Z AUTO 20004KT 150V230 9999NDV NSC 26/13 Q1017

2010/08/10 11:00
LFTH 101100Z 15007KT 100V200 9999 SCT016 26/21 Q1016 NOSIG

2010/08/10 10:54
LFBL 101054Z 20005KT 160V240 9999 FEW021 SCT026 BKN300 20/13 Q1019 NOSIG

2010/08/10 10:54
PGSN 101054Z 14007KT 9SM RA FEW014 SCT019 25/24 A2997

2010/08/10 10:55
PGUA 101055Z AUTO 08006KT 10SM SCT018 BKN030 26/25 A2996

2010/08/10 10:54
PGUM 101054Z 16003G16KT 2 1/2SM +RA BR FEW022 BKN044 OVC055 26/24 A2996

2010/08/10 11:00
PKWA 101100Z AUTO 07018KT 10SM SCT019 SCT026 28/23 A2991

2010/08/10 10:55
PWAK 101055Z 07011KT 10SM FEW023 28/24 A3006

2010/08/10 11:00
EICK 101100Z 31013KT 9999 BKN027 17/09 Q1010 NOSIG

2010/08/10 11:00
EIDW 101100Z 28015KT 9999 SCT028 16/10 Q1007 NOSIG

2010/08/10 11:00
EIKN 101100Z 29012KT 9999 SCT022 SCT047 15/10 Q1008 NOSIG

2010/08/10 11:00
EINN 101100Z 29010KT 9999 FEW021 BKN050 18/13 Q1009 NOSIG

2010/08/10 10:55
FJDG 101055Z 14014G25KT 9999 FEW020 SCT050 BKN080 27/24 A2980 RMK SLP088 T02670239

2010/08/10 11:00
FMMI 101100Z 19007KT 170V250 9999 SCT023 25/11 Q1024 NOSIG

2010/08/10 11:00
WBGG 101100Z 28010KT 9999 SCT020 BKN300 25/22 Q1009 NOSIG

2010/08/10 11:00
WBKK 101100Z 06006KT 9999 -RA FEW014 SCT040 BKN260 28/25 Q1009 NOSIG

2010/08/10 11:00
WBSB 101100Z 01004KT 9999 FEW016 FEW017CB BKN140 30/26 Q1007 NOSIG

2010/08/10 10:55
KQAE 101055Z 35007G15KT 8000 DU HZ CLR 47/05 A2959 RMK SLP013

2010/08/10 10:55
KQMG 101055Z AUTO 15010KT 10SM CLR 23/14 A3005 RMK AO2 SLP090 T02290144

2010/08/10 10:55
KQTO 101055Z 30010KT 9999 FEW080 47/04 A2955 RMK SLP004

2010/08/10 10:55
KQTX 101055Z 29005G16KT 9999 FEW080 46/03 A2964 RMK SLP005

2010/08/10 10:55
KQTZ 101055Z 34009KT 9000 HZ CLR 48/03 A2956 RMK SLP005 QNH1001MB WND DATA ESTMD ALTSG/SLP ESTMD

2010/08/10 10:55
KQXJ 101055Z 34014G22KT 9999 SKC 50/00 A2949 RMK SLP998 PA+421 DA+4331

2010/08/10 10:55
KQAJ 101055Z VRB03KT 9999 CLR 45/05 A2965 RMK SLP023 WND DATA ESTMD ALSTG/SLP ESTMD

2010/08/10 10:55
KQAQ 101055Z 01006KT 8000 HZ CLR 47/07 A2959 RMK SLP014 PA +431 DA +4080

2010/08/10 10:55
KQPD 101055Z AUTO 18009G15KT 8000 37/00 A2963 RMK AO2 SLP942 T03671001 $

2010/08/10 10:55
KQSL 101055Z VRB02KT 9999 CLR 47/03 A2964 RMK SLP020 Q1003MB

2010/08/10 10:55
KQTI 101055Z AUTO 29004KT 9999 CLR 44/02 A2967 RMK AO2 SLP020 T04410021

2010/08/10 11:00
RJAA 101100Z 17006KT 9999 FEW015 SCT045 BKN/// 26/24 Q1015 NOSIG

2010/08/10 11:00
RJAH 101100Z 18008KT 9999 FEW020 BKN030 BKN/// 27/25 Q1014

2010/08/10 11:00
RJCC 101100Z 17010KT 1800 -DZ BR BKN001 BKN002 21/20 Q1014

2010/08/10 11:00
RJCH 101100Z 31005KT 2300 BR SCT002 BKN005 23/23 Q1013

2010/08/10 11:00
RJFK 101100Z 13009KT 9999 FEW010 SCT015 BKN040 26/24 Q1012

2010/08/10 11:00
RJFT 101100Z 07006KT 050V120 9999 FEW020 SCT080 BKN/// 27/22 Q1009

2010/08/10 11:00
RJFU 101100Z 14015KT 9999 -SHRA FEW015 SCT020 BKN040 26/25 Q1007

2010/08/10 11:00
RJOO 101100Z 07004KT 020V120 9999 FEW010 SCT045 BKN120 28/22 Q1014

2010/08/10 11:00
RJSS 101100Z 13003KT 9999 FEW020 SCT040 BKN/// 25/24 Q1013

2010/08/10 11:00
RJTT 101100Z 17012KT 9999 FEW015 SCT130 BKN/// 27/23 Q1015

2010/08/10 10:55
RODN 101055Z 15009KT 9999 FEW021 SCT220 28/26 A2982 RMK AO2A RAB1015E1034 SLP099 P0000 T02810263

2010/08/10 11:00
RJAW 101100Z 11005KT 9999 FEW015 26/24 Q1014 RMK 1CU015 A2997

2010/08/10 11:00
RJCB 101100Z VRB02KT 3100 BR BKN001 BKN005 21/20 Q1014

2010/08/10 11:00
RJCK 101100Z 21005KT 0400 R35/0700V1800D FG VV001 20/18 Q1015

2010/08/10 11:00
RJCM 101100Z VRB02KT 9999 FEW015 BKN080 24/22 Q1013

2010/08/10 11:00
RJDC 101100Z 11021KT 9999 FEW020 SCT100 BKN130 27/24 Q1009

2010/08/10 11:00
RJDT 101100Z 16019G31KT 9999 -SHRA FEW007 SCT025 BKN030 27/24 Q1006

2010/08/10 11:00
RJEC 101100Z 11004KT 040V130 9999 FEW025 24/22 Q1014

2010/08/10 11:00
RJFM 101100Z 16008KT 9999 FEW010 SCT020 BKN/// 28/25 Q1011

2010/08/10 11:00
RJFO 101100Z 13017KT 9999 FEW015 SCT060 BKN/// 26/25 Q1011

2010/08/10 11:00
RJFR 101100Z 11023KT 9999 FEW025 BKN150 BKN/// 29/24 Q1009

2010/08/10 10:54
PGSN 101054Z 14007KT 9SM RA FEW014 SCT019 25/24 A2997

2010/08/10 10:54
PGUM 101054Z 16003G16KT 2 1/2SM +RA BR FEW022 BKN044 OVC055 26/24 A2996

2010/08/10 10:52
PKMR 101052Z 07005KT 15SM FEW015 SCT050 BKN120 OVC140 26/24 A2988

2010/08/10 11:00
PKWA 101100Z AUTO 07018KT 10SM SCT019 SCT026 28/23 A2991

2010/08/10 10:50
PTKK 101050Z VRB05KT 15SM FEW014 SCT120 OVC280 28/24 A2989

2010/08/10 10:57
PTKR 101057Z 17013KT 15SM SCT018 SCT120 OVC300 28/24 A2988

2010/08/10 10:50
PTPN 101050Z 09007KT 15SM SCT017TCU BKN300 27/26 A2988

2010/08/10 10:51
PTYA 101051Z VRB05KT 12SM FEW016 SCT140 BKN300 28/24 A2991

2010/08/10 10:55
PWAK 101055Z 07011KT 10SM FEW023 28/24 A3006

2010/08/10 11:00
RJNT 101100Z 16003KT 110V200 9999 FEW005 SCT080 BKN120 27/25 Q1013

2010/08/10 11:00
RJOA 101100Z 11003KT 9999 FEW025 SCT070 26/23 Q1014

2010/08/10 11:00
RJOB 101100Z 08006KT 9999 FEW015 SCT040 BKN150 27/23 Q1014

2010/08/10 11:00
RJOC 101100Z 16006KT 9999 FEW025 SCT120 31/23 Q1010

2010/08/10 11:00
RJOI 101100Z 14004KT 9999 -SHRA FEW025 BKN040 BKN080 29/24 A2989 RMK SLP120 P0000 T02940239

2010/08/10 11:00
RJOK 101100Z 13003KT 9999 FEW010 BKN160 BKN/// 27/25 Q1014

2010/08/10 11:00
RJOM 101100Z 13012KT 9999 FEW020 SCT080 30/22 Q1011

2010/08/10 11:00
RJOR 101100Z 14011KT 9999 FEW030 BKN150 31/25 Q1011

2010/08/10 11:00
RJOT 101100Z 12005KT 9999 FEW025 SCT140 BKN/// 26/24 Q1013

2010/08/10 11:00
RJSA 101100Z VRB02KT 9999 FEW020 24/23 Q1014

2010/08/10 10:55
RJTY 101055Z AUTO 19010KT 9999 FEW013 26/24 A3003 RMK AO2 SLP162 T02610238 $

2010/08/10 11:00
RKPK 101100Z 16013KT 8000 -RA FEW015 SCT015 OVC040 27/23 Q1006 NOSIG

2010/08/10 11:00
RKNY 101100Z AUTO 17003KT2900NDV ///050 24/23 Q1008

2010/08/10 11:00
RKPC 101100Z 11013KT 090V150 2000 RA BR FEW008 BKN025 OVC070 26/24 Q0993 WS ALL RWY TEMPO 3500

2010/08/10 11:00
RKPK 101100Z 16015KT 4800 -RA BR FEW010 SCT010CB OVC025 27/23 Q1006 NOSIG

2010/08/10 11:00
RKSI 101100Z 08005KT 8000 FEW008 BKN030 27/24 Q1006 NOSIG

2010/08/10 11:00
RKSS 101100Z 06005KT 6000 -RA FEW010 BKN025 BKN100 25/23 Q1006 NOSIG

2010/08/10 11:00
RKTN 101100Z 12003KT 4800 -RA BR FEW010 BKN020 OVC030 27/25 Q1006 BECMG 3200 -TSRA BR

2010/08/10 11:00
RKTU 101100Z 03005KT 2400 RA BR FEW012 BKN030 OVC060 25/24 Q1006 NOSIG

2010/08/10 11:00
LCLK 101100Z 19012KT 9999 FEW025 32/26 Q1006 NOSIG

2010/08/10 11:00
LCPH 101100Z 26010KT 230V290 9999 FEW025 31/25 Q1006

2010/08/10 10:50
MMMY 101050Z 00000KT 8SM BKN010 OVC020 24/23 A2988 RMK 8/5// HZY BINOVC

2010/08/10 10:59
MMDO 101059Z RTD 19003KT 7SM SCT080 BKN200 19/16 A3017 RMK 8/034 HZY RTS

2010/08/10 10:50
BGBW 101050Z AUTO 07002KT 9999NDV FEW004/// 09/08 Q1009

2010/08/10 10:50
BGCO 101050Z 16007KT 9999 SCT180 07/03 Q1013

2010/08/10 10:50
BGGH 101050Z 20013KT 5000 VCFG FEW001 BKN020 08/08 Q1007

2010/08/10 10:50
BGJN 101050Z 33003KT 9999 BKN023 08/04 Q1007 RMK 7ST

2010/08/10 10:50
BGKK 101050Z 09015KT 9999 -DZ SCT020 BKN032 BKN045 07/05 Q1013

2010/08/10 10:50
BGSF 101050Z 03008KT 9999 BKN023 09/04 Q1007

2010/08/10 10:55
BGTL 101055Z AUTO 00000KT 9999 CLR 05/03 A2979 RMK AO2 SLP093 T00510029

2010/08/10 11:00
BIAR 101100Z 29004KT 9999 OVC013 11/08 Q1014

2010/08/10 11:00
BIEG 101100Z 36005KT 9999 SCT006 OVC008 09/08 Q1014

2010/08/10 11:00
BIKF 101100Z 34007KT 9999 FEW018 BKN021 12/07 Q1015

2010/08/10 11:00
GVAC 101100Z 09005KT 040V140 9999 BKN014 27/19 Q1015 NOSIG

2010/08/10 11:00
LPLA 101100Z 05008KT 9999 FEW020 BKN035 23/17 Q1023

2010/08/10 10:55
TXKF 101055Z 19008KT 9999 FEW015 FEW180 27/23 Q1020

2010/08/10 11:00
AYPY 101100Z 00000KT 9999 SCT040 BKN280 26/25 Q1011 RMKS/ HZ

2010/08/10 11:00
AYPY 101100Z 00000KT 9999 SCT040 BKN280 26/25 Q1011 RMKS

2010/08/10 10:54
PGSN 101054Z 14007KT 9SM RA FEW014 SCT019 25/24 A2997 RMK AO2 RAB0959 SLP146 P0014 T02500239

2010/08/10 10:55
PGUA 101055Z AUTO 08006KT 10SM SCT018 BKN030 26/25 A2996 RMK AO2 SCT V BKN CIG 016 RWY24L SLP127 T02640253 $

2010/08/10 10:54
PGUM 101054Z 16003G16KT 2 1/2SM +RA BR FEW022 BKN044 OVC055 26/24 A2996 RMK AO2 VIS 1 1/4V5 RAB35 SLP138 P0008 T02560239

2010/08/10 10:53
PHJR 101053Z AUTO VRB05KT 10SM FEW055 25/18 A3010 RMK AO2 SLP197 T02500178 TSNO

2010/08/10 10:54
PHMK 101054Z AUTO 04011KT 10SM BKN048 24/19 A3009 RMK AO2 SLP190 T02390189 TSNO

2010/08/10 10:52
PKMR 101052Z 07005KT 15SM FEW015 SCT050 BKN120 OVC140 26/24 A2988 RMK SLP120 T02600239

2010/08/10 11:00
PKWA 101100Z AUTO 07018KT 10SM SCT019 SCT026 28/23 A2991 RMK AO2 T02800234

2010/08/10 10:56
PMDY 101056Z AUTO 08010KT 10SM CLR 26/22 A3023 RMK AO2 TSNO T02550222 403050238 RAB03E16 P0000 SLP544

2010/08/10 10:50
PTKK 101050Z VRB05KT 15SM FEW014 SCT120 OVC280 28/24 A2989 RMK SLP125 T02780242

2010/08/10 10:57
PTKR 101057Z 17013KT 15SM SCT018 SCT120 OVC300 28/24 A2988 RMK SLP119 T02780239

2010/08/10 10:50
PTPN 101050Z 09007KT 15SM SCT017TCU BKN300 27/26 A2988 RMK TCU SE-SW

2010/08/10 10:51
PTYA 101051Z VRB05KT 12SM FEW016 SCT140 BKN300 28/24 A2991 RMK SLP129 T02750236

2010/08/10 10:55
PWAK 101055Z 07011KT 10SM FEW023 28/24 A3006 RMK AO2A

2010/08/10 11:00
LPLA 101100Z 05008KT 9999 FEW020 BKN035 23/17 Q1023

2010/08/10 11:00
RPLB 101100Z VRB01KT 9999 FEW020 OVC300 27/24 Q1010 NOSIG

2010/08/10 11:00
RPLC 101100Z VRB05G19KT 9999 FEW036 OVC100 27/23 Q1009 A2983 RMK NOSIG

2010/08/10 11:00
RPLL 101100Z 23007KT 9000 SCT025 OVC300 28/25 Q1009 NOSIG RMK A2980

2010/08/10 11:00
RPVM 101100Z 00000KT 9999 FEW018CB BKN250 28/27 Q1010 A2984 OCNL LTNG N

2010/08/10 11:00
UBBB 101100Z 08008KT 9999 SCT060CB BKN100 34/23 Q1010 NOSIG RMK R88CLRD70

2010/08/10 11:00
UTTT 101100Z 34002MPS 270V360 CAVOK 38/01 Q1007 R08R/CLRD70 NOSIG

2010/08/10 11:00
SKBQ 101100Z 30003KT 9999 FEW015 SCT070 27/26 A2987

2010/08/10 11:00
SOCA 101100Z VRB02KT 9999 FEW003 SCT021 BKN110 24/23 Q1014 NOSIG

2010/08/10 11:00
SPIM 101100Z 16004KT 8000 OVC018 15/12 Q1017 NOSIG RMK PP000

2010/08/10 11:00
SVBC 101100Z 00000KT 9999 SCT010 SCT060 25/21 Q1013

2010/08/10 11:00
SVMI 101100Z 00000KT 9999 FEW016 BKN300 28/24 Q1011 NOSIG

2010/08/10 10:56
KABQ 101056Z 33005KT 10SM SCT120 21/09 A3015

2010/08/10 10:52
KATL 101052Z 00000KT 7SM SCT250 25/21 A3004

2010/08/10 10:53
KBGR 101053Z 23003KT 9SM CLR 19/18 A2986

2010/08/10 10:53
KBHM 101053Z 00000KT 9SM CLR 26/23 A3000

2010/08/10 10:53
KBNA 101053Z 18004KT 6SM BR FEW047 BKN200 25/23 A2999

2010/08/10 10:54
KBOS 101054Z 27006KT 10SM BKN120 24/21 A2990

2010/08/10 10:54
KBWI 101054Z 26005KT 6SM HZ SCT150 SCT250 24/21 A2993

2010/08/10 10:56
KCHS 101056Z 00000KT 10SM FEW025 26/25 A3002

2010/08/10 10:51
KCLE 101051Z 25005KT 4SM BR HZ FEW060 SCT075 22/21 A2998

2010/08/10 10:52
KCLT 101052Z 00000KT 5SM BR FEW250 23/21 A3005

2010/08/10 10:52
KCVG 101052Z 00000KT 6SM HZ FEW200 BKN250 24/22 A2998

2010/08/10 10:53
KDEN 101053Z 23008KT 10SM SCT140 16/12 A3010

2010/08/10 10:53
KDFW 101053Z 20006KT 10SM CLR 27/21 A2990

2010/08/10 10:53
KDTW 101053Z 00000KT 3SM R04R/1800VP6000FT CLR 21/21 A2997

2010/08/10 10:51
KEWR 101051Z 33006KT 8SM FEW110 BKN140 OVC200 27/19 A2993

2010/08/10 10:53
KFLL 101053Z 15010KT 9SM -RA FEW012 SCT043 SCT060 25/24 A2988

2010/08/10 10:52
KIAD 101052Z 00000KT 4SM BR FEW150 23/21 A2996

2010/08/10 10:53
KIAH 101053Z 00000KT 10SM FEW250 27/24 A2991

2010/08/10 10:54
KIND 101054Z 14004KT 6SM HZ SCT130 BKN250 26/23 A2994

2010/08/10 10:56
KJAX 101056Z 11006KT 10SM FEW020 SCT150 SCT250 26/23 A2995

2010/08/10 10:51
KJFK 101051Z VRB04KT 8SM FEW044 BKN140 OVC250 26/20 A2993

2010/08/10 10:56
KLAS 101056Z 18005KT 10SM CLR 26/M02 A2983

2010/08/10 10:53
KLAX 101053Z 28005KT 6SM BR OVC007 15/13 A2991

2010/08/10 10:51
KLGA 101051Z 06005KT 9SM OVC140 26/19 A2993

2010/08/10 10:55
KLGC 101055Z AUTO 00000KT 5SM CLR 21/ A3001

2010/08/10 10:53
KLIT 101053Z 23004KT 7SM FEW075 SCT250 26/24 A2993

2010/08/10 10:53
KLOU 101053Z 00000KT 6SM BR CLR 26/24 A2996

2010/08/10 10:53
KMCI 101053Z 16007KT 10SM CLR 25/22 A2991

2010/08/10 10:53
KMCO 101053Z 08006KT 10SM FEW026 FEW080 FEW250 24/23 A2992

2010/08/10 10:53
KMEM 101053Z 19005KT 10SM FEW250 26/24 A2995

2010/08/10 10:53
KMIA 101053Z 12009KT 8SM BKN025CB BKN090 OVC130 26/24 A2987

2010/08/10 11:00
SCAR 101100Z 08006KT 9000 SKC 09/05 Q1016

2010/08/10 11:00
SCBA 101100Z AUTO 22005KT 200V260 CAVOK M02/M04 Q1020

2010/08/10 11:00
SCCF 101100Z 09027KT CAVOK 00/M16 Q1025

2010/08/10 11:00
SCCI 101100Z 33005KT 9999 FEW016 SCT200 04/00 Q1002 NOSIG

2010/08/10 11:00
SCDA 101100Z 14008KT 9000 BKN020 13/08 Q1017

2010/08/10 11:00
SCEL 101100Z 32002KT 6000 NSC 02/00 Q1015 NOSIG

2010/08/10 11:00
SCFA 101100Z 26003KT 230V300 9999 OVC019 12/07 Q1017 NOSIG

2010/08/10 11:00
SCIE 101100Z 18004KT CAVOK 01/00 Q1016

2010/08/10 11:00
SCIP 101100Z 33011KT 9999 SCT020 19/15 Q1016

2010/08/10 11:00
SCTE 101100Z 16010KT 9999 OVC006 07/06 Q1021 NOSIG

2010/08/10 11:00
SGAS 101100Z 17004KT 9000 NSC 11/09 Q1021

2010/08/10 11:00
SGES 101100Z 17006KT 8000 NSC 12/11 Q1020

2010/08/10 11:00
SLCB 101100Z 00000KT 6000 NSC 02/00 Q1026

2010/08/10 11:00
SLLP 101100Z 02006KT 9999 NSC M04/M16 Q1038

2010/08/10 11:00
SLVR 101100Z 18013KT 9999 NSC 17/06 Q1020

2010/08/10 11:00
SUAA 101100Z 36007KT 1500 BR SKC 04/03 Q1028

2010/08/10 11:00
SUCA 101100Z VRB03KT CAVOK 08/05 Q1026

2010/08/10 11:00
SULS 101100Z 00000KT CAVOK 02/01 Q1028

2010/08/10 11:00
SUMU 101100Z 01004KT 3000 BR NSC 01/01 Q1028 BECMG FM 1130Z CAVOK

2010/08/10 11:00
SUSO 101100Z 13008KT CAVOK 03/01 Q1027

2010/08/10 11:00
SMJP 101100Z 00000KT 9999 FEW012 SCT030 25/23 Q1014 NOSIG

2010/08/10 11:03
KHQM 101103Z AUTO 00000KT 5SM BR OVC010 13/12 A2996

2010/08/10 11:00
SCSE 101100Z 30002KT 9999 OVC015 10/08 Q1017 NEFO PLAYA 1800FT

2010/08/10 11:00
SCTC 101100Z 07003KT 0100 FG VV/// 01/01 Q1018

2010/08/10 11:00
SUDU 101100Z 00000KT CAVOK M00/M01 Q1027

2010/08/10 11:00
OERY 101100Z 03003KT 8000 SKC 44/04 Q1004 NOSIG

2010/08/10 11:00
LEAL 101100Z 09008KT 060V140 CAVOK 32/19 Q1016 NOSIG

2010/08/10 11:00
LEAM 101100Z 21005KT 170V250 CAVOK 27/21 Q1017

2010/08/10 11:00
LEAS 101100Z 31007KT 280V340 9999 FEW025 20/16 Q1019 NOSIG

2010/08/10 11:00
LEBB 101100Z VRB03KT 9999 FEW030 26/17 Q1018 NOSIG

2010/08/10 11:00
LEBL 101100Z 13010KT 9999 SCT020 26/19 Q1017 NOSIG

2010/08/10 11:00
LECO 101100Z 03009KT 360V060 CAVOK 22/16 Q1020

2010/08/10 11:00
LEGE 101100Z 17014KT 110V210 9999 SCT020 27/20 Q1017

2010/08/10 11:00
LEGR 101100Z 35003KT 300V060 9999 FEW050 33/10 Q1020

2010/08/10 11:00
LEIB 101100Z 09008KT 050V130 CAVOK 30/21 Q1017 NOSIG

2010/08/10 11:00
LEJR 101100Z VRB01KT 9999 FEW020 36/08 Q1016

2010/08/10 11:00
LELC 101100Z 13006KT 090V180 9999 FEW040 30/21 Q1017 NOSIG

2010/08/10 11:00
LELL 101100Z 12007KT 080V150 9000 FEW012 BKN027 25/19 Q1017

2010/08/10 11:00
LEMD 101100Z 02002KT CAVOK 33/13 Q1019 NOSIG

2010/08/10 11:00
LEMG 101100Z 14009KT 110V190 CAVOK 30/17 Q1018 NOSIG

2010/08/10 11:00
LEMH 101100Z 12006KT 060V170 CAVOK 30/16 Q1017

2010/08/10 11:00
LEPA 101100Z 23010KT 200V260 CAVOK 29/20 Q1017 NOSIG

2010/08/10 11:00
LEPP 101100Z 00000KT CAVOK 26/14 Q1019

2010/08/10 11:00
LERS 101100Z 14005KT 090V210 9999 BKN016 27/20 Q1017

2010/08/10 11:00
LESO 101100Z 01006KT 290V060 CAVOK 22/16 Q1018

2010/08/10 11:00
LEST 101100Z 29003KT 230V340 CAVOK 26/06 Q1020 NOSIG

2010/08/10 11:00
LETO 101100Z 19004KT 120V290 CAVOK 32/12 Q1019 NOSIG

2010/08/10 11:00
LEVC 101100Z 08008KT 030V140 CAVOK 30/20 Q1017 NOSIG

2010/08/10 11:00
LEVD 101100Z 26008KT 230V300 CAVOK 29/09 Q1021

2010/08/10 11:00
LEVS 101100Z 20005KT 140V250 9000 NSC 34/13 Q1020

2010/08/10 11:00
LEVT 101100Z VRB02KT 9999 FEW030 24/14 Q1019

2010/08/10 11:00
LEVX 101100Z VRB03KT CAVOK 30/16 Q1019

2010/08/10 11:00
LEXJ 101100Z 04006KT 9999 FEW030 23/16 Q1019

2010/08/10 11:00
LEZG 101100Z 28002KT CAVOK 26/14 Q1018

2010/08/10 11:00
LEZL 101100Z 21002KT CAVOK 36/13 Q1016 NOSIG

2010/08/10 10:53
KMSP 101053Z 13007KT 6SM BR FEW150 SCT200 24/22 A2994

2010/08/10 10:53
KMSY 101053Z 00000KT 9SM FEW250 26/25 A2993

2010/08/10 10:53
KOAK 101053Z 00000KT 10SM OVC006 14/12 A2990

2010/08/10 10:52
KOKC 101052Z 16005KT 10SM FEW200 24/21 A2990

2010/08/10 10:53
KONT 101053Z 00000KT 5SM HZ CLR 16/12 A2989

2010/08/10 10:51
KORD 101051Z 03005KT 10SM FEW150 SCT180 BKN250 25/22 A2995

2010/08/10 10:51
KORF 101051Z 23007KT 10SM FEW040 25/23 A2998

2010/08/10 10:53
KPBI 101053Z 14014KT 6SM +RA SCT022CB BKN035 BKN060 27/23 A2988

2010/08/10 10:54
KPHF 101054Z 23005KT 10SM FEW055 SCT075 26/23 A2998

2010/08/10 10:54
KPHL 101054Z 20003KT 9SM FEW100 BKN150 BKN200 26/22 A2993

2010/08/10 10:51
KPHX 101051Z 33005KT 10SM FEW110 32/12 A2981

2010/08/10 10:51
KPIT 101051Z 00000KT 6SM HZ FEW048 SCT075 OVC100 22/18 A2998

2010/08/10 10:51
KRDU 101051Z 24004KT 6SM BR BKN250 24/22 A3002

2010/08/10 10:51
KSAN 101051Z 00000KT 10SM OVC015 18/14 A2991

2010/08/10 10:53
KSEA 101053Z 21005KT 7SM BKN006 OVC011 13/11 A2996

2010/08/10 10:56
KSFO 101056Z 25003KT 10SM OVC008 14/11 A2989

2010/08/10 10:51
KSTL 101051Z 00000KT 9SM FEW130 SCT250 28/24 A2995

2010/08/10 10:51
KTEB 101051Z 03005KT 8SM CLR 25/19 A2993

2010/08/10 10:53
KTPA 101053Z 08003KT 10SM FEW010 SCT020 25/23 A2987

2010/08/10 11:00
DTMB 101100Z 03008KT CAVOK 31/13 Q1016 NOSIG

2010/08/10 11:00
DTTA 101100Z 12003KT 9999 FEW033 SCT200 34/08 Q1015 NOSIG RMK SIROCCO

2010/08/10 11:00
DTTB 101100Z 17006KT CAVOK 35/07 Q1016

2010/08/10 11:00
DTTB 101100Z 17006KT CAVOK 35/07 Q1016 RMK SIROCCO

2010/08/10 11:00
DTTD 101100Z 11006KT CAVOK 30/11 Q1017

2010/08/10 11:00
DTTG 101100Z 07008KT CAVOK 31/12 Q1015 NOSIG

2010/08/10 11:00
DTTJ 101100Z 35006KT 9999 FEW026 30/23 Q1016 NOSIG

2010/08/10 11:00
DTTK 101100Z 18002KT CAVOK 35/09 Q1015

2010/08/10 11:00
DTTL 101100Z 11004KT CAVOK 31/12 Q1016

2010/08/10 11:00
DTTN 101100Z 05006KT CAVOK 36/13 Q1014

2010/08/10 11:00
DTTN 101100Z 05006KT CAVOK 36/13 Q1014 RMK SIROCCO

2010/08/10 11:00
DTTR 101100Z 04010KT CAVOK 35/02 Q1016

2010/08/10 11:00
DTTX 101100Z 14004KT CAVOK 32/12 Q1016 NOSIG

2010/08/10 11:00
DTTZ 101100Z 10010KT CAVOK 32/21 Q1015 NOSIG

2010/08/10 11:00
UKBB 101100Z 12003MPS 050V150 9999 FEW033CB 28/18 Q1015 88CLRD95 NOSIG

2010/08/10 11:00
UKCC 101100Z 12006MPS 090V160 CAVOK 39/04 Q1013 08090070 NOSIG

2010/08/10 11:00
UKCW 101100Z 09005MPS 050V110 CAVOK 40/03 Q1013 0909//70 NOSIG

2010/08/10 11:00
UKDD 101100Z 14004MPS 110V210 CAVOK 38/14 Q1012 08090070 NOSIG

2010/08/10 11:00
UKDE 101100Z 16005MPS 110V210 9999 FEW050 SCT100 39/10 Q1011 20CLRD70 NOSIG

2010/08/10 11:00
UKDR 101100Z 01005MPS 330V080 CAVOK 37/14 Q1012 3609//70 NOSIG

2010/08/10 11:00
UKFF 101100Z 04007MPS 360V080 CAVOK 37/16 Q1008 01010070 NOSIG

2010/08/10 11:00
UKHH 101100Z 12004MPS 060V170 9999 SCT046 BKN200 38/06 Q1013 080///65 NOSIG

2010/08/10 11:00
UKKK 101100Z 12003MPS 080V160 5000 FU NSC 31/18 Q1015 08CLRD70 NOSIG

2010/08/10 11:00
UKKM 101100Z 14003MPS 090V180 CAVOK 32/15 Q1015 33CLRD70 NOSIG

2010/08/10 11:00
UKLI 101100Z 00000MPS 9999 SCT040 26/17 Q1017 28090070 TEMPO 3000 TSRA BKN020CB

2010/08/10 11:00
UKLL 101100Z 26003MPS 220V330 9999 BKN033 24/16 Q1018 31090070 NOSIG

2010/08/10 11:00
UKLN 101100Z 32003MPS 270V030 CAVOK 25/17 Q1017 3309//70 NOSIG

2010/08/10 11:00
UKLR 101100Z 00000MPS 9999 SCT026 25/17 Q1017 30090070 NOSIG

2010/08/10 11:00
UKLU 101100Z 00000MPS 9999 BKN036 25/17 Q1018 10090070 NOSIG

2010/08/10 11:00
UKON 101100Z 03004MPS 350V070 CAVOK 37/12 Q1011 05090075 NOSIG

2010/08/10 11:00
UKOO 101100Z 05004MPS 010V110 CAVOK 37/15 Q1011 34090070 NOSIG

2010/08/10 10:50
EDAH 101050Z 15006KT 9999 SCT020 22/16 Q1016

2010/08/10 10:50
EDDS 101050Z 20004KT 160V250 CAVOK 24/09 Q1017 NOSIG

2010/08/10 10:50
EDMA 101050Z 30005KT 220V090 9999 FEW037 24/15 Q1018

2010/08/10 10:50
EGPK 101050Z 25012KT 9999 VCSH SCT018CB SCT028 16/10 Q1004

2010/08/10 10:55
EGUL 101055Z AUTO 22008KT 9999 SCT017 17/13 A2979 RMK AO2 RAE1000B1025E1045DZB1000E1003B1023E1025 SLP090 P0000 T01700133

2010/08/10 10:55
EGUN 101055Z AUTO 23011KT 9999 FEW040 BKN095 17/16 A2980 RMK AO2 RAE1003B1023E1043 SLP080 P0000 T01710165

2010/08/10 10:55
EGVA 101055Z AUTO 23011KT 9999 -RA BKN014 16/13 A2982 RMK AO2 RAE1000B1051DZB1042E1051 CIG 013V018 SLP099 P0000 T01570133 $

2010/08/10 10:55
ETAD 101055Z AUTO 18013G18KT 9999 CLR 26/10 A3000 RMK AO2 SLPNO T02630100 VISNO RWY05 CHINO RWY05 $

2010/08/10 10:55
ETAR 101055Z AUTO 20007KT 160V230 9999 CLR 25/14 A3000 RMK AO2 SLP155 T02510142 $

2010/08/10 10:55
KQHT 101055Z 32010G18KT 9999 FEW100 32/06 A2986 RMK AO2A SLP078

2010/08/10 10:55
KQIR 101055Z 06004KT 9999 CLR 44/13 A2949 RMK AO2A SLP984 T04360132

2010/08/10 11:00
LEMO 101100Z VRB02KT CAVOK 37/16 Q1017 NOSIG

2010/08/10 10:50
LIRN 101050Z 18006KT 9999 FEW060 29/19 Q1014

2010/08/10 10:55
LIYW 101055Z AUTO 15003KT 9999 CLR 28/17 A3000 RMK AO2 SLP157 T02820171

2010/08/10 11:00
LPLA 101100Z 05008KT 9999 FEW020 BKN035 23/17 Q1023

2010/08/10 10:50
LTAC 101050Z 35005KT 9999 FEW040 33/04 Q1013 NOSIG

2010/08/10 10:50
LTAG 101050Z 2000 SANO33 ENMI 101050 RRA METAR ENBL 101050Z 22005KT 9999 FEW035 SCT050 17/10 Q1009

2010/08/10 10:50
LTAG 101050Z 2000

2010/08/10 10:55
FJDG 101055Z 14014G25KT 9999 FEW020 SCT050 BKN080 27/24 A2980 RMK SLP088 T02670239

2010/08/10 10:56
PHBK 101056Z AUTO 07004KT 10SM CLR 23/14 A3008 RMK AO2 SLP188 T02330144 TSNO $

2010/08/10 10:55
PHHI 101055Z AUTO 08008KT 10SM BKN046 23/17 A3011 RMK AO2 SLP182 T02290171 $

2010/08/10 11:00
PKWA 101100Z AUTO 07018KT 10SM SCT019 SCT026 28/23 A2991 RMK AO2 T02800234

2010/08/10 10:56
PMDY 101056Z AUTO 08010KT 10SM CLR 26/22 A3023 RMK AO2 TSNO T02550222 403050238 RAB03E16 P0000 SLP544

2010/08/10 10:55
PWAK 101055Z 07011KT 10SM FEW023 28/24 A3006 RMK AO2A

2010/08/10 11:00
RJOI 101100Z 14004KT 9999 -SHRA FEW025 BKN040 BKN080 29/24 A2989 RMK SLP120 P0000 T02940239

2010/08/10 10:55
RJTY 101055Z AUTO 19010KT 9999 FEW013 26/24 A3003 RMK AO2 SLP162 T02610238 $

2010/08/10 11:00
RKPK 101100Z 16015KT 4800 -RA BR FEW010 SCT010CB OVC025 27/23 Q1006 NOSIG

2010/08/10 10:55
RKSO 101055Z 08006KT 9000 -RA FEW015 BKN025 26/24 A2971 RMK AO2A RAB1044DZE1047 SLP062 P0002 T0255 $

2010/08/10 10:55
RODN 101055Z 15009KT 9999 FEW021 SCT220 28/26 A2982 RMK AO2A RAB1015E1034 SLP099 P0000 T02810263

2010/08/10 10:57
PHNG 101057Z AUTO 08008KT 10SM SCT026 SCT036 BKN060 25/20 A3010 RMK AO2 SLP186 T02500200 $

2010/08/10 11:00
RKPK 101100Z 16013KT 8000 -RA FEW015 SCT015 OVC040 27/23 Q1006 NOSIG

2010/08/10 11:00
ZBHH 101100Z 10003MPS 9999 FEW050 25/15 Q1009 NOSIG

2010/08/10 11:00
ZHCC 101100Z 02004MPS 340V080 3000 BR BKN040 27/25 Q1005 NOSIG

2010/08/10 11:00
ZHHH 101100Z VRB01MPS 4000 BR SKC 31/29 Q1002 NOSIG

2010/08/10 11:00
ZJHK 101100Z 21002MPS 9999 FEW025TCU SCT033 26/24 Q1005 NOSIG

2010/08/10 11:00
ZJSY 101100Z 12002MPS 090V160 CAVOK 30/26 Q1005 NOSIG

2010/08/10 11:00
ZLLL 101100Z 01007MPS 9999 FEW040CB 23/16 Q1011 BECMG TL1145 31004MPS

2010/08/10 11:00
ZSNJ 101100Z 04002MPS 9999 SCT040 32/23 Q1003 NOSIG

2010/08/10 11:00
ZSOF 101100Z 15001MPS 9999 FEW030 32/25 Q1003 NOSIG

2010/08/10 11:00
ZUCK 101100Z 07002MPS CAVOK 38/20 Q0999 NOSIG

2010/08/10 11:00
ZYCC 101100Z 30002MPS 270V330 CAVOK 21/15 Q1007 NOSIG

2010/08/10 11:00
ZYHB 101100Z 19002MPS CAVOK 19/14 Q1006 NOSIG

2010/08/10 11:00
AYMO 101100Z AUTO 19005KT //// // ////// 28/25 Q1012

2010/08/10 10:50
BGAA 101050Z 33001KT 0800 FG VV003 06/05 Q1007

2010/08/10 10:50
BGMQ 101050Z 30004KT 9999 SCT006 BKN008 10/09 Q1006

2010/08/10 10:50
BGQQ 101050Z 34001KT 9999 SKC 07/02 Q1010

2010/08/10 10:50
BGSS 101050Z 30005KT 210V350 9999 FEW035 BKN075 BKN120 11/10 Q1006 RMK 1SC 5AC 7AC

2010/08/10 10:50
BGUK 101050Z 35004KT 280V080 0100 FG VV000 03/03 Q1009

2010/08/10 10:50
BGUQ 101050Z 33004KT 300V010 9999 FEW100 09/07 Q1007

2010/08/10 11:00
BKPR 101100Z 01011KT 340V050 9999 FEW040 26/12 Q1018 NOSIG RMK BLU

2010/08/10 11:00
DTKA 101100Z 34010KT CAVOK 34/17 Q1015 NOSIG

2010/08/10 11:00
DTTF 101100Z 17006KT CAVOK 33/09 Q1015 NOSIG

2010/08/10 10:50
EDAC 101050Z 08003KT CAVOK 24/13 Q1017

2010/08/10 10:50
EDDE 101050Z VRB03KT CAVOK 23/09 Q1017 NOSIG

2010/08/10 10:50
EDFH 101050Z 27004KT 200V330 CAVOK 23/10 Q1016

2010/08/10 10:50
EDGS 101050Z 21006KT 150V280 9999 SCT040 21/12 Q1017

2010/08/10 10:50
EDLV 101050Z 18007KT 140V200 CAVOK 22/15 Q1013

2010/08/10 10:50
EDOP 101050Z 20008KT 9999 SCT030 SCT080 23/13 Q1016

2010/08/10 10:50
EDSB 101050Z 21005KT 180V270 CAVOK 25/14 Q1017

2010/08/10 10:50
EDTL 101050Z 21005KT 180V260 CAVOK 26/14 Q1016

2010/08/10 10:50
EEKA 101050Z 22009KT 190V270 9999 SCT021 OVC041 20/15 Q1014

2010/08/10 10:50
EEKE 101050Z 25013KT 9999 SCT020 BKN043 20/15 Q1015

2010/08/10 10:50
EEPU 101050Z 20012KT 160V220 9999 BKN023 21/16 Q1015

2010/08/10 10:50
EETU 101050Z AUTO 27007KT 240V320 9999NDV SCT042/// 24/15 Q1015

2010/08/10 10:50
EFET 101050Z AUTO 09004KT 040V140 9999 BKN028 OVC033 13/09 Q1012

2010/08/10 10:50
EFHA 101050Z 25005KT 190V310 9999 BKN030 SCT200 21/14 Q1010

2010/08/10 10:50
EFJO 101050Z AUTO 20008KT 150V250 9999 FEW033 BKN065 24/15 Q1011

2010/08/10 10:50
EFKA 101050Z 17004KT 100V220 9999 FEW013 FEW024TCU SCT055 BKN095 21/18 Q1009

2010/08/10 10:50
EFKI 101050Z 18005KT 130V230 9999 VCSH SCT015 SCT030CB BKN100 21/17 Q1009

2010/08/10 10:50
EFKS 101050Z AUTO 35002KT 9999 OVC008 15/13 Q1009

2010/08/10 10:50
EFKT 101050Z AUTO 04005KT 350V080 9999 OVC017 13/09 Q1012

2010/08/10 10:50
EFLP 101050Z AUTO 20011KT 150V240 9999 FEW029 BKN060 22/15 Q1012

2010/08/10 10:50
EFMI 101050Z AUTO 23005KT 170V310 9999 FEW018 22/17 Q1011

2010/08/10 10:50
EFSA 101050Z AUTO 19007KT 130V240 9999NDV FEW034 SCT050 BKN075 22/16 Q1011

2010/08/10 10:50
EFSI 101050Z AUTO 18004KT 140V230 9999 FEW014 SCT033 20/17 Q1009

2010/08/10 10:50
EFUT 101050Z 20010KT 170V230 9999 FEW015 FEW030CB SCT065 20/18 Q1013

2010/08/10 10:50
EFVR 101050Z AUTO VRB04G13KT 9999 -SHRA BKN022 BKN035 21/19 Q1011

2010/08/10 10:50
EGCN 101050Z 24017KT 9999 FEW046 20/06 Q1007

2010/08/10 10:50
EGDX 101050Z 15006KT 2000 -RA BKN002 14/14 Q1010 AMB

2010/08/10 10:50
EGHK 101050Z 24012KT 3000 SCT005 BKN007 17/17 Q1009

2010/08/10 10:50
EGMH 101050Z 22010KT 6000 RA BKN006 18/18 Q1011

2010/08/10 10:50
EGNR 101050Z 24012KT 210V280 9999 FEW020 BKN028 19/10 Q1008

2010/08/10 10:50
EGOM 101050Z 21014KT 9999 SHRA BKN018 SCT030 13/10 Q1004 WHT

2010/08/10 10:50
EGOP 101050Z AUTO 22003KT 6000NDV HZ BKN005/// 15/13 Q1009

2010/08/10 10:50
EGPI 101050Z 29013KT 9999 SCT025 15/11 Q1004

2010/08/10 10:50
EGTG 101050Z 17005KT 2500 RADZ BKN035 14/13 Q1010

2010/08/10 10:50
EGUB 101050Z 20010KT 9999 -RA FEW015 BKN070 16/12 Q1010 TEMPO 6000 SCT014

2010/08/10 10:50
EGUB 101050Z 20010KT 9999 -RA FEW015 BKN070 16/12 Q1010 BLU TEMPO 6000 SCT014 GRN

2010/08/10 10:50
EGUW 101050Z 22010KT 9999 -DZ FEW012 SCT022 BKN048 16/13 Q1009 WHT TEMPO FEW022 BLU

2010/08/10 10:50
EGUY 101050Z 24011KT 9999 FEW020 SCT060 16/12 Q1010 BLU

2010/08/10 10:50
EGVN 101050Z 24007KT 9999 -RA SCT014 SCT050 BKN080 16/12 Q1010 GRN NOSIG

2010/08/10 10:50
EGVN 101050Z 24007KT 9999 -RA SCT014 SCT050 BKN080 16/12 Q1010 NOSIG

2010/08/10 10:50
EGVO 101050Z 22010KT 9999 SCT013 SCT045 BKN100 16/13 Q1011 GRN TEMPO 6000 -RA GRN

2010/08/10 11:00
UTAA 101100Z 33004MPS 300V030 9999 SKC 39/01 Q1010 NOSIG

2010/08/10 11:00
UTAK 101100Z 19006MPS CAVOK 41/02 Q1010 NOSIG

2010/08/10 11:00
UTAM 101100Z 34005G10MPS CAVOK 39/03 Q1005 NOSIG

2010/08/10 11:00
UTAT 101100Z 33006MPS CAVOK 39/17 Q1010 NOSIG

2010/08/10 11:00
UAAA 101100Z 33006MPS 300V360 9999 SCT050CB BKN100 29/11 Q1011 88CLRD65 TEMPO TS

2010/08/10 11:00
UACC 101100Z 36004MPS 310V010 CAVOK 20/03 Q1019 040/0070 NOSIG RMK QFE732/0977

2010/08/10 11:00
UAKK 101100Z 35008MPS 9999 BKN050CB 17/06 Q1018 050///70 NOSIG RMK QFE716/0955

2010/08/10 11:00
UARR 101100Z 07007MPS 4200 FU NSC 36/04 Q1018 04CLRD70 NOSIG RMK QFE760/1013

2010/08/10 11:00
UATE 101100Z 21007MPS 9999 FEW060CB BKN180 38/06 Q1012 WS RWY12 120///70 NOSIG RMK QFE757/1009

2010/08/10 11:00
UATG 101100Z 22005MPS CAVOK 39/14 Q1013 WS RWY14 14CLRD70 NOSIG RMK QFE761/1015 

2010/08/10 11:00
UATT 101100Z 05005MPS 020V090 9999 NSC 31/03 Q1020 13CLRD70 NOSIG RMK QFE746/0994

2010/08/10 11:00
UAUU 101100Z 28003MPS 220V340 CAVOK 27/00 Q1021 33CLRD70 NOSIG RMK QFE750/1000

2010/08/10 11:00
UAFM 101100Z 32009MPS CAVOK 32/08 Q1011 TEMPO 32007G12MPS

2010/08/10 11:00
UTDD 101100Z 22002MPS 170V270 9999 SCT066 37/05 Q1006 09CLRD70 NOSIG RMK QFE687/0916

2010/08/10 11:00
UTDL 101100Z 24008MPS 9999 FEW046 36/10 Q1007 NOSIG RMK QFE717 8809//70

2010/08/10 11:00
UBBG 101100Z 08016KT 9999 FEW100 35/08 Q1010 NOSIG RMK R12L/CLRD70 

2010/08/10 11:00
UDYZ 101100Z VRB02MPS 9999 SKC 36/09 Q1009 09010070 NOSIG

2010/08/10 11:00
UDSG 101100Z 06010MPS 9999 FEW050 30/09 Q1015 02CLRD70 NOSIG

2010/08/10 10:58
EGVP 101058Z 26007KT 9999 6000SW -DZ BKN012 BKN035 16/13 Q1011 GRN TEMPO 3000 SCT006 YLO1

2010/08/10 10:50
EGVP 101050Z 25008KT 9999 VCSH SCT012 BKN035 16/13 Q1011 GRN TEMPO 4000 -RADZ SCT006 YLO1

2010/08/10 10:50
EGWC 101050Z 24006KT 9999 FEW022 BKN027 18/09 Q1009 BLU

2010/08/10 10:50
EGWU 101050Z 24008KT 9999 BKN013 BKN050 16/13 Q1010 GRN BECMG BKN015 WHT

2010/08/10 10:50
EGWU 101050Z 24008KT 9999 BKN013 BKN050 16/13 Q1010 BECMG BKN015

2010/08/10 10:50
EGXC 101050Z 24012KT 9999 FEW030 SCT050 19/09 Q1007 NOSIG

2010/08/10 10:50
EGXC 101050Z 24012KT 9999 FEW030 SCT050 19/09 Q1007 BLU NOSIG

2010/08/10 10:50
EGXD 101050Z 23016KT 9999 FEW020 BKN060 16/11 Q1006 BLU NOSIG

2010/08/10 10:50
EGXE 101050Z 24014KT 9999 FEW034 BKN060 16/09 Q1006 BLU NOSIG

2010/08/10 10:50
EGXG 101050Z 27014KT 9999 FEW035 SCT070 18/09 Q1006 BLU

2010/08/10 10:50
EGXJ 101050Z 23014KT 9999 SCT025 SCT250 18/11 Q1008 BLU NOSIG

2010/08/10 10:50
EGXT 101050Z 22009KT 9999 FEW015 BKN120 16/13 Q1008 NOSIG

2010/08/10 10:50
EGXT 101050Z 22009KT 9999 FEW015 BKN120 16/13 Q1008 BLU NOSIG

2010/08/10 10:50
EGXU 101050Z 24015KT 9999 FEW033 BKN060 18/09 Q1006 BLU NOSIG

2010/08/10 10:50
EGXW 101050Z 27013KT 9999 SCT038 18/08 Q1007 BLU NOSIG

2010/08/10 10:50
EGXX 101050Z 22016KT 9999 SCT035 18/10 Q1007 BLU

2010/08/10 10:50
EGXZ 101050Z 24012KT 9999 FEW031 BKN060 17/08 Q1006 BLU

2010/08/10 10:50
EGYD 101050Z 25014KT 9999 FEW035 19/11 Q1008 NOSIG

2010/08/10 10:50
EGYD 101050Z 25014KT 9999 FEW035 19/11 Q1008 BLU NOSIG

2010/08/10 10:50
EGYH 101050Z 24010KT 9999 FEW015 SCT035 18/// Q1008 BLU

2010/08/10 10:50
EGYM 101050Z 23009KT 9999 -RA FEW015 SCT100 BKN130 16/13 Q1009 BLU NOSIG

2010/08/10 10:50
EKGF 101050Z 17024KT 9999 BKN008 17/17 Q1008

2010/08/10 10:50
ENBS 101050Z 03005KT 9999 BKN036 12/07 Q1012

2010/08/10 10:50
ENHE 101050Z 06009KT 9999 OVC017 11/08 Q1012

2010/08/10 10:50
ENSS 101050Z 15006KT 9999 SCT030 09/06 Q1013

2010/08/10 11:00
EPWR 101100Z 30003KT 280V350 9999 FEW030TCU 24/16 Q1018

2010/08/10 10:50
ESGR 101050Z AUTO 24010KT 220V290 9999NDV FEW043/// SCT055/// 20/13 Q1013

2010/08/10 10:50
ESGT 101050Z 21014KT 9999 SCT027 SCT046 19/12 Q1013

2010/08/10 10:50
ESMQ 101050Z 26004KT 220V320 9999 FEW035 SCT052 21/11 Q1016

2010/08/10 10:50
ESMT 101050Z AUTO 21009KT 170V230 9999NDV FEW091/// 20/13 Q1016

2010/08/10 10:50
ESNG 101050Z AUTO 22003KT 170V260 9999NDV BKN035/// 16/08 Q1011

2010/08/10 10:50
ESNK 101050Z AUTO 20004KT 9999NDV OVC018/// 17/15 Q1010

2010/08/10 10:50
ESNL 101050Z AUTO 06004KT 9999NDV FEW020/// BKN086/// 17/12 Q1011

2010/08/10 10:50
ESNX 101050Z 05006KT 360V090 CAVOK 18/10 Q1011

2010/08/10 10:50
ESNY 101050Z AUTO 16004KT 9999 FEW006 SCT053 BKN066 19/18 Q1009

2010/08/10 10:50
ESOE 101050Z 23011KT 9999 FEW022 BKN030 19/14 Q1012

2010/08/10 10:50
ESSL 101050Z 25006KT 220V280 9999 BKN040 18/13 Q1014

2010/08/10 10:50
ESTA 101050Z 22007KT 140V270 CAVOK 21/11 Q1015

2010/08/10 10:50
ESTL 101050Z 14005KT 110V180 9999 BKN041 20/12 Q1016

2010/08/10 10:50
ESUT 101050Z AUTO 17005KT 9999NDV OVC028/// 16/10 Q1011

2010/08/10 10:55
ETOU 101055Z AUTO 00000KT 9999 CLR 25/15 A3000 RMK AO2 SLP157 T02460147

2010/08/10 10:50
ETUO 101050Z AUTO 22004KT 9999NDV // FEW050/// 25/12 Q1014

2010/08/10 10:50
EVLA 101050Z 25010KT CAVOK 20/13 Q1017

2010/08/10 10:50
EVVA 101050Z AUTO 23012KT 9999 SCT032 SCT038 19/13 Q1016

2010/08/10 10:50
EYKA 101050Z 18004KT 130V290 CAVOK 26/16 Q1016

2010/08/10 10:50
EYPA 101050Z 27005KT 210V330 9999 SCT023 21/15 Q1017 NOSIG

2010/08/10 11:00
FAGC 101100Z AUTO 09016KT //// // ////// 15/M17 Q1032

2010/08/10 11:00
FAJB 101100Z AUTO 09007KT //// // ////// 14/M15 Q1032

2010/08/10 11:00
FAMM 101100Z 12010KT CAVOK 17/M20 Q1032 NOSIG

2010/08/10 11:00
FAPP 101100Z 08003KT 9999 FEW040 17/05 Q1030 NOSIG

2010/08/10 11:00
FASI 101100Z AUTO 09011KT //// // ////// 14/M13 Q1033

2010/08/10 11:00
FAVV 101100Z AUTO 10012KT //// // ////// 15/M17 Q1031

2010/08/10 11:00
FQIN 101100Z 22020KT 9999 BKN020 BKN090 22/12 Q1028

2010/08/10 11:00
FQQL 101100Z 15008KT 9999 FEW020 29/21 Q1020

2010/08/10 11:00
FYML 101100Z AUTO 09007KT //// // ////// ///// Q1034

2010/08/10 11:00
FYOJ 101100Z AUTO 08010KT //// // ////// 23/M07 Q1025

2010/08/10 11:00
FYOW 101100Z AUTO 11008KT //// // ////// 23/M11 Q1026

2010/08/10 11:00
FYWW 101100Z 11007KT CAVOK 16/08 Q1029

2010/08/10 11:00
GMAD 101100Z 27008KT 8000 NSC 27/20 Q1016 NOSIG

2010/08/10 11:00
GMFM 101100Z 30006KT CAVOK 38/10 Q1020

2010/08/10 11:00
GMML 101100Z 03011KT 8000 FEW033 BKN100 28/19 Q1016

2010/08/10 11:00
GMMW 101100Z 00000KT CAVOK 32/19 Q1018

2010/08/10 11:00
GMMZ 101100Z VRB01KT 8000 FEW040 35/08 Q1025

2010/08/10 10:50
HLLM 101050Z 36009KT 7000 SKC 28/19 Q1016

2010/08/10 10:52
KCBE 101052Z AUTO 00000KT 5SM CLR 19/18 A3004 RMK AO1

2010/08/10 10:55
KEGI 101055Z AUTO 00000KT 7SM R18/5000V5500FT CLR 24/23 A2994 RMK AO2 SLP137 T02360228 $

2010/08/10 10:50
KESN 101050Z 23005KT 10SM SKC 25/24 A2997

2010/08/10 10:54
KFME 101054Z AUTO 00000KT 3SM CLR 19/19 A2996 RMK AO1

2010/08/10 10:55
KGYH 101055Z AUTO 00000KT 7SM CLR 25/21 A3005 RMK AO2

2010/08/10 11:00
LBGO 101100Z 30003MPS 250V350 CAVOK 29/18 Q1014 NOSIG

2010/08/10 11:00
LDLO 101100Z 30009KT CAVOK 29/18 Q1015

2010/08/10 11:00
LDSB 101100Z 20010KT CAVOK 27/11 Q1015

2010/08/10 11:00
LEAB 101100Z VRB04KT CAVOK 33/12 Q1020 NOSIG

2010/08/10 11:00
LEBA 101100Z VRB01KT CAVOK 36/13 Q1016

2010/08/10 11:00
LEBZ 101100Z 27004KT 160V300 CAVOK 36/13 Q1017

2010/08/10 11:00
LELN 101100Z 25009KT 200V300 CAVOK 27/05 Q1021

2010/08/10 11:00
LESA 101100Z VRB01KT 7000 FEW040 31/15 Q1021

2010/08/10 11:00
LETO 101100Z 19004KT 120V290 CAVOK 32/12 Q1019 NOSIG

2010/08/10 11:00
LFBE 101100Z 36004KT 300V070 9999 FEW040 BKN260 24/11 Q1018 NOSIG

2010/08/10 11:00
LFBG 101100Z AUTO 29005KT 210V360 9999NDV FEW031 SCT210 23/13 Q1018

2010/08/10 11:00
LFCR 101100Z AUTO 31006KT 270V350 9999NDV NSC 23/11 Q1019

2010/08/10 11:00
LFJL 101100Z AUTO 21010KT 170V260 9999NDV NSC 27/07 Q1016

2010/08/10 11:00
LFLX 101100Z 23012KT 200V260 CAVOK 23/14 Q1017 NOSIG

2010/08/10 11:00
LFMI 101100Z AUTO 21005KT 130V260 9999NDV NSC 29/17 Q1015

2010/08/10 11:00
LFMK 101100Z AUTO 29009KT 240V320 9999NDV NSC 26/13 Q1018

2010/08/10 11:00
LFMO 101100Z AUTO VRB03KT 9999NDV NSC 30/17 Q1015

2010/08/10 11:00
LFMU 101100Z AUTO VRB04KT 9999NDV NSC 30/13 Q1015

2010/08/10 11:00
LFMV 101100Z AUTO VRB05KT 9999NDV NSC 30/17 Q1015

2010/08/10 11:00
LFOA 101100Z AUTO 25009KT 220V300 9999NDV NSC 25/13 Q1017

2010/08/10 11:00
LFOJ 101100Z 22013KT CAVOK 23/13 Q1016

2010/08/10 11:00
LFOK 101100Z AUTO 24009KT 200V270 9999NDV NSC 25/11 Q1016

2010/08/10 11:00
LFQI 101100Z 22013KT CAVOK 21/14 Q1014

2010/08/10 10:50
LGHI 101050Z 02012KT CAVOK 31/18 Q1008

2010/08/10 10:50
LGNX 101050Z 35013KT 9999 FEW020 30/24 Q1008

2010/08/10 10:50
LGPA 101050Z 35018KT 9999 FEW025 31/23 Q1008

2010/08/10 10:50
LGSO 101050Z 35013KT 9999 FEW020 30/22 Q1008

2010/08/10 11:00
LKCV 101100Z VRB03KT 9999 SCT037 23/14 Q1018 NOSIG RMK BLU+ BLU+

2010/08/10 11:00
LKKV 101100Z 29003KT 9999 FEW048 21/12 Q1019

2010/08/10 11:00
LKNA 101100Z 19006KT 140V230 9999 BKN048 22/13 Q1019 NOSIG RMK BLU BLU

2010/08/10 11:00
LKPD 101100Z 33004KT 270V050 9999 SCT035 23/16 Q1018 NOSIG RMK BLU+ BLU+

2010/08/10 11:00
LKPO 101100Z 23003KT 9999 SCT037 23/14 Q1018 NOSIG RMK BLU+ BLU+

2010/08/10 10:50
LLIB 101050Z 18004KT 9999 FEW040 34/20 Q1007

2010/08/10 10:50
LLSD 101050Z 29010KT 9999 FEW025 30/23 Q1007

2010/08/10 10:50
LOXT 101050Z VRB03KT 50KM FEW045CU 26/14 Q1018 NOSIG RMK SCT

2010/08/10 10:50
LOXZ 101050Z VRB03KT 30KM FEW050CU FEW050TCU SCT090AC 23/14 Q1018 NOSIG RMK TCU W/BKN

2010/08/10 11:00
LQBK 101100Z 05004KT 9999 FEW033 27/17 Q1017 NOSIG

2010/08/10 11:00
LQMO 101100Z 31009KT 9999 FEW040 34/08 Q1011

2010/08/10 11:00
LQTZ 101100Z 10007KT 9999 FEW040 26/// Q1018

2010/08/10 10:50
LTAB 101050Z VRB06KT 9999 FEW040 34/03 Q1012 NOSIG RMK RWY06 26007KT 210V350

2010/08/10 10:50
LTAE 101050Z 25006KT 9999 FEW040 SCT200 34/07 Q1012 NOSIG RMK RWY21 22004KT 140V290

2010/08/10 10:50
LTAZ 101050Z 36006KT 300V110 CAVOK 34/04 Q1013

2010/08/10 10:50
LTBR 101050Z 03005KT 9999 FEW035 34/19 Q1010 NOSIG

2010/08/10 10:50
LTBU 101050Z 02015KT CAVOK 32/18 Q1011

2010/08/10 10:50
LTCF 101050Z 10008KT 060V160 9999 FEW030 29/06 Q1019

2010/08/10 10:50
LTFH 101050Z 35006KT 300V060 CAVOK 33/19 Q1008 NOSIG

2010/08/10 10:50
LTFJ 101050Z 36012KT 9999 SCT035 33/21 Q1010 NOSIG

2010/08/10 11:00
LZKC 101100Z 31004KT 250V070 9999 BKN036 25/17 Q1017

2010/08/10 11:00
LZLU 101100Z VRB02KT 9999 FEW040 24/14 Q1018

2010/08/10 11:00
LZNI 101100Z 30005KT 080V340 9999 SCT045 25/14 Q1017

2010/08/10 11:00
LZPE 101100Z 22005KT 150V280 9999 SCT050 26/15 Q1018

2010/08/10 11:00
LZPP 101100Z 36002KT 9999 SCT036 25/13 Q1018

2010/08/10 11:00
LZSL 101100Z 20004KT 9999 SCT046 26/14 Q1017

2010/08/10 11:00
LZZI 101100Z 28003KT 170V350 9999 SCT030 24/13 Q1018

2010/08/10 11:00
UHHH 101100Z 18002MPS CAVOK 23/20 Q1005 NOSIG

2010/08/10 11:00
MGTK 101100Z 00000KT CAVOK 23/23 Q1012 A2988

2010/08/10 10:50
MMCP 101050Z 00000KT 7SM SKC 25/22 A2981

2010/08/10 10:54
MMLM 101054Z 00000KT 10SM SCT100 29/21 A2979 RMK 8/030 RTS

2010/08/10 10:50
MMPA 101050Z RTD 30007KT 1 1/2SM BR SKC 25/24 A2990 RMK VRB CNDS RTS

2010/08/10 10:53
MMPB 101053Z 00000KT 10SM SKC 12/11 A3027 RMK HZY ISOL AS RTS

2010/08/10 10:50
MMQT 101050Z 02003KT 6SM BKN020 OVC100 17/16 A3025 RMK 8/47/

2010/08/10 10:56
MUCF 101056Z 00000KT 9999 BKN070 23/22 Q1012

2010/08/10 10:55
MUHG 101055Z 00000KT 5000 VCFG FEW020 24/22 Q1013

2010/08/10 10:55
OAHR 101055Z 01012G22KT //// // ////// 35/M02 Q1009 RMK SKC VIS MNI 9999 BLU

2010/08/10 11:00
OSDZ 101100Z 06006KT CAVOK 39/17 Q1005

2010/08/10 11:00
OSKL 101100Z 28012KT CAVOK 39/06 Q1005

2010/08/10 11:00
OYSQ 101100Z 21034G44KT 9999 FEW018 32/23 Q1007

2010/08/10 11:00
RJBB 101100Z 18004KT 9999 FEW015 BKN120 BKN/// 28/24 Q1014 NOSIG

2010/08/10 11:00
RJBH 101100Z 21005KT 9999 FEW030 SCT130 BKN/// 29/23 Q1011

2010/08/10 11:00
RJFS 101100Z 17011KT 9999 SHRA FEW025 BKN040 27/25 Q1008

2010/08/10 11:00
RJGG 101100Z 14004KT 9999 FEW007 SCT030 BKN170 27/25 Q1014 NOSIG

2010/08/10 11:00
RJSY 101100Z 31001KT 9999 FEW040 SCT070 BKN/// 28/24 Q1013

2010/08/10 11:00
ROIG 101100Z 19010KT 9999 FEW015 SCT200 BKN/// 29/26 Q1008

2010/08/10 11:00
ROMY 101100Z 20004KT 160V220 9999 FEW015 SCT150 BKN/// 28/27 Q1008

2010/08/10 10:58
ROTM 101058Z 18009KT 9999 FEW010 BKN100 27/26 A2984 RMK SLP088 XWND ADV T02720256

2010/08/10 11:00
TRPG 101100Z 11013KT 9999 SCT018 27/25 Q1014 RMK SLT HZ

2010/08/10 11:00
UBBN 101100Z 14006KT 9999 FEW100 37/04 Q1008 R14R/CLRD60 NOSIG RMK G/O QFE682

2010/08/10 11:00
WBGB 101100Z 01003KT 9999 FEW016 SCT150 BKN300 29/25 Q1007

2010/08/10 11:00
WBGR 101100Z 35002KT 9999 FEW014 SCT150 BKN300 29/25 Q1007

2010/08/10 11:00
WBGS 101100Z 34004KT 9999 FEW015CB BKN150 30/26 Q1007

2010/08/10 11:00
WBGY 101100Z 25001KT 9999 SCT022 SCT150 BKN300 29/26 Q1007

2010/08/10 11:00
WBKL 101100Z 02003KT 9999 FEW014 BKN140 BKN290 29/26 Q1008

2010/08/10 11:00
WBKS 101100Z 07003KT 9999 SCT016 FEW017CB SCT050 BKN300 29/25 Q1009

2010/08/10 10:50
EGHK 101050Z 24012KT 3000 SCT005 BKN007 17/17 Q1009 BECMG 6000 NSW

2010/08/10 11:00
WBKT 101100Z 26002KT 9999 FEW016 SCT140 BKN270 27/24 Q1008

2010/08/10 11:00
WBKW 101100Z 03001KT 9999 FEW017 BKN140 28/25 Q1009

2010/08/10 11:00
WMAU 101100Z 14004KT 080V190 9999 FEW022 BKN140 BKN270 28/25 Q//// QFF1006

2010/08/10 11:00
WMBA 101100Z 17004KT 9999 FEW017CB BKN140 30/23 Q1006

2010/08/10 11:00
WMKA 101100Z 29004KT 9999 FEW030 SCT140 BKN280 29/26 Q1006

2010/08/10 11:00
WMKB 101100Z 32006KT 7000 -RA FEW010 SCT140 BKN270 30/26 Q1006 TEMPO 7000 RA

2010/08/10 11:00
WMKC 101100Z 05004KT 9999 FEW018 OVC220 30/26 Q1006

2010/08/10 11:00
WMKD 101100Z 18003KT 9999 FEW020 BKN160 BKN260 31/26 Q1006 NOSIG

2010/08/10 11:00
WMKI 101100Z 19004KT 9999 FEW030 SCT140 BKN280 31/25 Q1006

2010/08/10 11:00
WMKL 101100Z 25003KT 9999 FEW022 SCT140 BKN270 30/26 Q1006

2010/08/10 11:00
WMKM 101100Z 14004KT 9999 FEW022 SCT140 BKN270 30/25 Q1007

2010/08/10 11:00
WMKN 101100Z 12005KT 9999 TS FEW017CB SCT024 OVC220 29/27 Q1006

2010/08/10 11:00
ZBSJ 101100Z 12001MPS 5000 BR NSC 28/24 Q1006 NOSIG

2010/08/10 11:00
ZGKL 101100Z 20001MPS CAVOK 34/24 Q1003 NOSIG

2010/08/10 11:00
ZGOW 101100Z 17004MPS 9999 FEW020 30/26 Q1007 NOSIG

2010/08/10 11:00
ZLXY 101100Z 06006MPS 7000 SKC 33/24 Q1001 NOSIG

2010/08/10 11:00
ZSQD 101100Z 06003MPS 020V120 9999 SCT040 30/21 Q1004 NOSIG

2010/08/10 11:00
ZWSH 101100Z 18004MPS 9999 FEW040CB 32/07 Q1007 NOSIG

2010/08/10 11:00
ZYTX 101100Z 01001MPS 9999 FEW033 26/20 Q1006 NOSIG

2010/08/10 10:55
ETIH 101055Z AUTO VRB03KT 9999 FEW039 BKN090 BKN190 BKN210 22/19 A3007 RMK AO2 SLP172 T02190194 $

2010/08/10 11:00
LFBY 101100Z 12004KT 030V190 9999 FEW030 SCT230 24/16 Q1018

2010/08/10 11:00
LFCG 101100Z VRB02KT 9999 FEW033 23/16 Q1019

2010/08/10 11:00
LFDH 101100Z VRB02KT 9999 FEW033 BKN250 23/15 Q1018

2010/08/10 11:00
LFHP 101100Z VRB03KT 9999 FEW043 BKN230 23/12 Q1019

2010/08/10 11:00
LFLD 101100Z 24008KT 200V290 CAVOK 25/13 Q1017

2010/08/10 11:00
LFLM 101100Z VRB03KT 9999 FEW026 BKN230 27/14 Q1017

2010/08/10 11:00
LFLQ 101100Z 01008KT 330V060 9999 FEW030 BKN250 29/14 Q1015

2010/08/10 11:00
LFLV 101100Z 32003KT 250V350 9999 FEW033 BKN250 24/16 Q1018

2010/08/10 11:00
LFMC 101100Z 35003KT 290V070 9999 BKN043 29/19 Q1015

2010/08/10 11:00
LFOF 101100Z 26010KT 230V290 3500 -DZRA SCT008 BKN020 19/16 Q1016 NOSIG

2010/08/10 11:00
LFOI 101100Z 22014KT 9999 BKN040 21/13 Q1013

2010/08/10 11:00
LFOR 101100Z 24011KT 190V290 CAVOK 22/11 Q1016

2010/08/10 11:00
LFOW 101100Z 22011KT 180V250 9999 FEW033 BKN083 23/13 Q1014

2010/08/10 11:00
LFQB 101100Z 27011KT CAVOK 26/12 Q1015

2010/08/10 11:00
LFQG 101100Z 26007KT 210V320 9999 FEW040 BKN250 24/15 Q1017

2010/08/10 11:00
LFRI 101100Z 24007KT 190V280 9999 BKN016 BKN026 22/16 Q1018 NOSIG

2010/08/10 11:00
LFRJ 101100Z AUTO 23016KT 9999NDV BKN012/// BKN020/// BKN025/// 19/17 Q1014

2010/08/10 11:00
LFRM 101100Z 23008KT 180V280 9999 SCT011 BKN023 22/15 Q1016

2010/08/10 11:00
LFXA 101100Z 35005KT 300V040 9999 FEW040 BKN230 27/15 Q1017

2010/08/10 11:00
LJMB 101100Z 16005KT 9999 FEW032 25/17 Q1018

2010/08/10 11:00
LJPZ 101100Z 30009KT 9999 FEW050 28/18 Q1015

2010/08/10 11:00
LRBC 101100Z 36010KT 340V040 CAVOK 29/23 Q1015

2010/08/10 11:00
LRCV 101100Z VRB04KT 9999 FEW040 29/17 Q1015

2010/08/10 11:00
LRIA 101100Z 34010KT 310V010 CAVOK 30/19 Q1015

2010/08/10 11:00
LRSV 101100Z 35007KT 9999 FEW045 25/21 Q1017

2010/08/10 11:00
LRTC 101100Z 34010KT 310V020 CAVOK 33/17 Q1011

2010/08/10 10:51
KABE 101051Z 05005KT 6SM HZ CLR 23/21 A2995

2010/08/10 10:53
KAGC 101053Z 17006KT 4SM BR BKN047 OVC065 21/19 A2999

2010/08/10 10:54
KAKR 101054Z AUTO 21003KT 6SM BR CLR 21/19 A2998

2010/08/10 10:51
KALB 101051Z 17003KT 3SM BR FEW045 21/20 A2995

2010/08/10 10:56
KART 101056Z AUTO 00000KT 3SM BR OVC019 21/20 A2993

2010/08/10 10:54
KAVP 101054Z 00000KT 6SM BR FEW120 22/19 A2997

2010/08/10 10:53
KBAF 101053Z 00000KT 3SM BR SCT090 22/21 A2993

2010/08/10 10:51
KBDL 101051Z 00000KT 3SM HZ BKN110 23/21 A2992

2010/08/10 10:52
KBDR 101052Z 35003KT 9SM -RA FEW050 SCT120 24/20 A2993

2010/08/10 10:56
KBED 101056Z 25003KT 3SM BR CLR 22/21 A2990

2010/08/10 10:54
KBTV 101054Z 00000KT 4SM BR OVC003 18/18 A2993

2010/08/10 10:54
KBUF 101054Z 19004KT 2 1/2SM BR FEW041 BKN050 BKN060 21/21 A2995

2010/08/10 10:53
KBVY 101053Z 27004KT 4SM BR CLR 22/21 A2989

2010/08/10 10:56
KCAE 101056Z 00000KT 1/2SM FG OVC002 24/23 A3002

2010/08/10 10:51
KCAK 101051Z 27003KT 5SM HZ FEW035 BKN100 22/19 A2998

2010/08/10 10:55
KCEF 101055Z AUTO 00000KT 1/2SM R23/1200V5500FT R33/0900VP6000FT FG CLR 21/20 A2993

2010/08/10 10:51
KCMH 101051Z 00000KT 7SM FEW080 SCT130 SCT250 24/21 A2997

2010/08/10 10:53
KCRQ 101053Z 00000KT 10SM OVC009 18/14 A2989

2010/08/10 10:54
KCRW 101054Z 00000KT 4SM BR SCT001 21/19 A3001

2010/08/10 10:56
KDAY 101056Z 00000KT 5SM HZ FEW200 SCT250 24/20 A3000

2010/08/10 10:55
KDOV 101055Z AUTO 21007KT 10SM CLR 24/24 A2992

2010/08/10 10:51
KERI 101051Z 00000KT 1 1/2SM BR FEW010 BKN038 22/21 A2996

2010/08/10 10:53
KEWB 101053Z AUTO 24003KT 4SM BR BKN095 22/21 A2991

2010/08/10 10:52
KFDK 101052Z AUTO 15003KT 4SM BR CLR 23/22 A2997

2010/08/10 10:53
KFVE 101053Z AUTO 32004KT 5SM BR CLR 16/15 A2985

2010/08/10 10:56
KGON 101056Z 00000KT 7SM OVC100 23/20 A2991

2010/08/10 10:54
KGSO 101054Z 25005KT 5SM HZ CLR 24/21 A3004

2010/08/10 10:53
KGSP 101053Z 00000KT 7SM CLR 23/22 A3004

2010/08/10 10:56
KHPN 101056Z 00000KT 7SM BKN110 22/20 A2995

2010/08/10 10:51
KHTS 101051Z 00000KT 1 3/4SM BR CLR 21/20 A2999

2010/08/10 11:04
KUIL 101104Z AUTO 00000KT 2 1/2SM BR BKN001 OVC006 12/12 A2995

2010/08/10 10:53
KHUL 101053Z AUTO 00000KT 6SM BR CLR 17/17 A2983

2010/08/10 10:53
KHVN 101053Z 00000KT 8SM OVC100 24/20 A2993

2010/08/10 10:53
KIAG 101053Z AUTO 00000KT 1SM BR FEW032 BKN044 21/20 A2994

2010/08/10 10:51
KILG 101051Z 00000KT 6SM HZ CLR 24/22 A2994

2010/08/10 10:53
KILM 101053Z AUTO 00000KT 10SM CLR 25/23 A3002

2010/08/10 10:54
KINT 101054Z 00000KT 10SM CLR 24/21 A3005

2010/08/10 10:55
KLSV 101055Z AUTO 07003KT 10SM CLR 23/M03 A2985

2010/08/10 10:53
KLUK 101053Z 00000KT 5SM MIFG CLR 22/22 A2997

2010/08/10 10:54
KLWM 101054Z 25005KT 3SM BR CLR 23/21 A2992

2010/08/10 10:56
KMDT 101056Z 00000KT 4SM HZ OVC120 25/22 A2993

2010/08/10 10:53
KMSS 101053Z AUTO 22006KT 10SM OVC004 22/21 A2993

2010/08/10 10:54
KORH 101054Z 27006KT 3SM BR FEW005 SCT075 21/20 A2995

2010/08/10 10:55
KPQI 101055Z AUTO 00000KT 10SM CLR 15/13 A2982

2010/08/10 10:55
KPSM 101055Z COR 31006KT 4SM BR SCT140 21/21 A2988

2010/08/10 10:55
KPSM 101055Z 31006KT 4SM SCT140 21/21 A2988

2010/08/10 10:51
KPVD 101051Z 20006KT 7SM FEW110 SCT112 SCT250 22/21 A2992

2010/08/10 10:51
KPWM 101051Z 27004KT 9SM FEW120 21/19 A2989

2010/08/10 10:54
KRIC 101054Z 23003KT 9SM FEW250 25/21 A2996

2010/08/10 10:54
KROC 101054Z 00000KT 2SM R04/6000VP6000FT BR FEW070 SCT100 SCT250 21/20 A2995

2010/08/10 10:54
KSYR 101054Z 00000KT 5SM BR SCT024 BKN041 BKN055 22/21 A2994

2010/08/10 11:00
KWDR 101100Z AUTO 00000KT 4SM CLR 23/21 A3008

2010/08/10 10:55
KWRI 101055Z AUTO 00000KT 9SM CLR 23/22 A2992

2010/08/10 11:03
KCKB 101103Z 00000KT 3SM BR CLR 19/18 A3002

2010/08/10 11:00
OIAW 101100Z 15006KT CAVOK 48/10 Q0998 A2949

2010/08/10 11:00
OIFM 101100Z 27006KT 9999 FEW035 33/M03 Q1016 A3003

2010/08/10 11:00
OIKB 101100Z 20010KT 5000 HZ SKC 36/26 Q1000 A2953

2010/08/10 11:00
OIKK 101100Z 32010KT CAVOK 32/M01 Q1016 A3001

2010/08/10 11:00
OIMM 101100Z 02018KT CAVOK 34/M03 Q1013 A2993

2010/08/10 11:00
OISS 101100Z 24006KT CAVOK 35/M05 Q1013 A2994

2010/08/10 11:00
OITT 101100Z 06010KT 9999 FEW035 FEW040CB 36/07 Q1014 A2997

2010/08/10 11:00
OIZH 101100Z 30006KT 8000 NSC 36/M02 Q1010 A2985

2010/08/10 11:00
LJCE 101100Z 09007KT 030V140 9999 FEW035 26/17 Q1017 RMK BLU

2010/08/10 11:00
LKCV 101100Z VRB03KT 9999 SCT037 23/14 Q1018 NOSIG

2010/08/10 11:00
LKKB 101100Z VRB02KT 9999 SCT048 23/13 Q1018 NOSIG

2010/08/10 11:00
LKLN 101100Z AUTO VRB03KT CAVOK 24/13 Q1018

2010/08/10 11:00
LKNA 101100Z 19006KT 140V230 9999 BKN048 22/13 Q1019 NOSIG

2010/08/10 11:00
LKPO 101100Z 23003KT 9999 SCT037 23/14 Q1018 NOSIG

2010/08/10 11:00
GLRB 101100Z 00000KT 8000 -DZ FEW008 BKN015 26/25 Q1015

2010/08/10 10:55
LIMH 101055Z 21007KT 9999 FEW000TCU 05/M05 Q1031 RMK SCT MON CLD SCT VAL CLD SCT VIS MIN 9999

2010/08/10 10:55
LIMT 101055Z /////KT 8000 SCT013TCU 18/17 Q1019 RMK SCT MON LIB VAL FOSCHIA VIS MIN 8000

2010/08/10 10:55
LIMU 101055Z 09006KT 9999 FEW023 26/21 Q1018 RMK SCT QUK 1 QUL 1 SE VIS MAR 12 KM VIS MIN 9999

2010/08/10 10:55
LIMY 101055Z /////KT 9999 SCT025 23/16 Q1018 RMK BKN SCT190 VAL FOSCHIA VIS MIN 9999

2010/08/10 10:55
LIVD 101055Z 00000KT 9999 SCT040 22/10 Q1020 RMK BKN SCT200 VIS MIN 9999

2010/08/10 10:55
LIVM 101055Z 10006KT 9999 FEW025 28/24 Q1016 RMK FEW QUK 0 QUL 0 VIS MAR 20 KM VIS MIN 9999

2010/08/10 10:55
LIVO 101055Z 12003KT 9999 SCT030 23/16 Q1018 RMK SCT VIS MIN 9999

2010/08/10 10:55
LIVR 101055Z 14013KT 9999 RA BKN020 14/09 Q1023 RMK BKN MON GEN INC VIS MIN 9999

2010/08/10 10:55
LIVT 101055Z 23006KT CAVOK 29/19 Q1014 RMK SKC QUK 1 QUL 1 SW VIS MAR 25 KM VIS MIN 9999

2010/08/10 10:50
LIBF 101050Z 32008KT 9999 FEW040 32/12 Q1014 RMK VIS MIN 9999

2010/08/10 10:50
LIEA 101050Z 30008KT 240V330 CAVOK 30/17 Q1016 RMK VIS MIN 9999

2010/08/10 10:55
LIED 101055Z 31005KT CAVOK 35/11 Q1015 RMK SKC VIS MIN 9999 BLU

2010/08/10 10:50
LIEO 101050Z 05009KT CAVOK 29/16 Q1016 RMK VIS MIN 9999

2010/08/10 10:50
LIMA 101050Z VRB03KT 9999 SCT035 26/18 Q1016 RMK VIS MIN 9999

2010/08/10 10:50
LIQN 101050Z 33004KT 9999 FEW045 29/14 Q1016 RMK VIS MIN 9999

2010/08/10 10:55
LIQW 101055Z 11003KT 9999 FEW025 27/19 Q1016 RMK FEW VIS MIN 9999 BLU

2010/08/10 10:55
LIRE 101055Z 22008KT 9999 FEW020 27/22 Q1015 RMK FEW VIS MIN 9999 WIND THR31 21009KT BLU

2010/08/10 10:55
LIRG 101055Z 26004KT 9999 FEW040 32/17 Q1015 RMK FEW MON NE LIB NC VIS MIN 9999 BLU

2010/08/10 10:55
LIRH 101055Z 17002KT 9999 FEW040 32/17 Q1015 RMK FEW MON LIB NC VIS MIN 9999 WIND THR16 11003KT BLU

2010/08/10 10:50
LIRI 101050Z 23006KT 190V270 9999 BKN060 27/20 Q1015 RMK VIS MIN 9999

2010/08/10 10:55
LIRL 101055Z 19005KT 9999 FEW025 29/20 Q1015 RMK FEW MON LIB NC VIS MIN 9999 BLU

2010/08/10 10:55
LIRM 101055Z 24011KT 9999 FEW020 33/29 Q1015 RMK FEW VIS MIN 9999 WIND THR06 21008KT BLU

2010/08/10 10:55
LIRS 101055Z 22004KT 9999 FEW025 29/18 Q1015 RMK FEW VIS MIN 9999 WIND THR21 /////KT BLU

2010/08/10 10:50
LIRU 101050Z 29003KT CAVOK 32/20 Q1015 RMK VIS MIN 9999

2010/08/10 10:55
LIRV 101055Z 19006KT CAVOK 30/14 Q1016 RMK FEW FEW060 MON E SE LIB NC VIS MIN 9999 BLU

2010/08/10 10:55
LIRX 101055Z 36005KT 9999 BKN023 24/18 Q1016 RMK BKN VIS MIN 9999N VIS MAR 15 KM

2010/08/10 10:50
LIRZ 101050Z VRB02KT 9999 FEW050 30/13 Q1015 RMK VIS MIN 9999

2010/08/10 11:00
BIRK 101100Z 36008KT 9999 FEW020 SCT036 13/08 Q1014

2010/08/10 11:00
LRBM 101100Z 25006KT 220V300 9999 SCT036 27/17 Q1016

2010/08/10 11:00
LRCL 101100Z VRB04KT 9999 SCT039 25/16 Q1018

2010/08/10 11:00
LROD 101100Z 23004KT 180V320 9999 FEW045 26/15 Q1017

2010/08/10 11:00
LRSM 101100Z VRB04KT 9999 SCT033 27/18 Q1017

2010/08/10 11:00
LRTM 101100Z 29004KT 250V330 9999 SCT033 26/17 Q1017

2010/08/10 11:00
LJLJ 101100Z 12005KT 070V200 9999 SCT040 SCT300 25/15 Q1018 NOSIG

2010/08/10 11:00
LJMB 101100Z 16005KT 9999 FEW032 25/17 Q1018

2010/08/10 11:00
LJPZ 101100Z 30009KT 9999 FEW050 28/18 Q1015

2010/08/10 10:50
LIBC 101050Z 03010KT CAVOK 30/12 Q1014 RMK VIS MIN 9999

2010/08/10 10:50
LIBD 101050Z 01009KT 340V050 CAVOK 28/17 Q1014 RMK VIS MIN 9999

2010/08/10 10:50
LIBG 101050Z 36012KT 330V040 CAVOK 31/14 Q1013 RMK VIS MIN 9999

2010/08/10 10:55
LIBN 101055Z 35015KT CAVOK 29/16 Q1013 RMK BKN FEW100 SCT180 VIS MIN 9999 WIND THR14 36012KT BLU

2010/08/10 10:50
LIBP 101050Z 01007KT CAVOK 27/20 Q1015 RMK VIS MIN 9999

2010/08/10 10:45
LIBR 101045Z 33018G28KT 9999 FEW018CB 26/22 Q1013 NOSIG RMK BKN SCT090 BKN200 VIS MIN 9999 WIND THR13 /////KT WIND THR31 31015KT BLU

2010/08/10 10:55
LIBV 101055Z 36010KT CAVOK 29/18 Q1013 RMK BKN BKN100 VIS MIN 9999 WIND THR14 34012KT BLU

2010/08/10 10:50
LICA 101050Z 26014KT 9999 FEW030 27/20 Q1015 RMK VIS MIN 9999

2010/08/10 10:50
LICC 101050Z 07010KT CAVOK 29/17 Q1015 RMK VIS MIN 9999

2010/08/10 10:50
LICD 101050Z 31007KT CAVOK 28/19 Q1016 RMK VIS MIN 9999

2010/08/10 10:55
LICG 101055Z 32004KT CAVOK 29/18 Q1016 RMK SKC VIS MIN 9999 WIND THR08 /////KT WIND THR21 35005KT BLU

2010/08/10 10:50
LICJ 101050Z 04015KT CAVOK 27/20 Q1015

2010/08/10 10:50
LICR 101050Z 35013KT 9999 FEW025 30/16 Q1014 RMK VIS MIN 9999

2010/08/10 10:55
LICT 101055Z 33010KT CAVOK 31/10 Q1015 RMK SKC VIS MIN 9999 WIND THR13 32007KT BLU

2010/08/10 10:55
LICZ 101055Z 06013KT CAVOK 34/12 Q1014 RMK SKC VIS MIN 9999 WIND THR28 /////KT BLU

2010/08/10 10:53
KAMA 101053Z 20007KT 10SM CLR 19/17 A3003

2010/08/10 10:53
KAUS 101053Z 00000KT 10SM CLR 24/23 A2992

2010/08/10 10:53
KBPT 101053Z 00000KT 10SM CLR 25/24 A2992

2010/08/10 11:00
KBQK 101100Z AUTO 12004KT 10SM CLR 27/25 A2998

2010/08/10 10:53
KBRO 101053Z 12004KT 10SM CLR 28/26 A2986

2010/08/10 10:53
KBTR 101053Z 04003KT 1 3/4SM BR SCT002 BKN200 23/23 A2994

2010/08/10 10:53
KCHA 101053Z 00000KT 10SM SCT150 BKN250 26/23 A3002

2010/08/10 10:51
KCRP 101051Z 15003KT 10SM FEW017 26/25 A2988

2010/08/10 10:53
KDAL 101053Z 22004KT 10SM CLR 28/21 A2991

2010/08/10 10:53
KDRT 101053Z AUTO 10006KT 10SM OVC022 27/23 A2990

2010/08/10 10:51
KELP 101051Z 14004KT 10SM CLR 24/14 A3002

2010/08/10 10:53
KEYW 101053Z 21007KT 5SM +RA BR FEW018 BKN030 OVC038 26/23 A2985

2010/08/10 10:53
KFPR 101053Z AUTO 09003KT 10SM FEW035 SCT045 25/24 A2989

2010/08/10 10:53
KFTW 101053Z 00000KT 10SM CLR 26/21 A2991

2010/08/10 10:53
KFTY 101053Z 00000KT 2 1/2SM BR CLR 23/22 A3003

2010/08/10 10:53
KFXE 101053Z 15008KT 7SM -RA FEW020 BKN044 OVC060 26/23 A2988

2010/08/10 10:52
KGLS 101052Z 27005KT 10SM CLR 28/26 A2991

2010/08/10 10:53
KGPT 101053Z AUTO 00000KT 6SM BR CLR 26/24 A2993

2010/08/10 10:53
KHOU 101053Z 21003KT 10SM FEW020 SCT250 26/24 A2990

2010/08/10 10:52
KHRL 101052Z 12004KT 9SM CLR 26/26 A2986

2010/08/10 10:53
KHSV 101053Z 11004KT 5SM BR FEW250 25/23 A2999

2010/08/10 10:53
KLCH 101053Z AUTO 00000KT 10SM CLR 26/24 A2993

2010/08/10 10:55
KLGC 101055Z AUTO 00000KT 5SM CLR 21/ A3001

2010/08/10 10:56
KLRD 101056Z 13007KT 10SM CLR 28/25 A2989

2010/08/10 10:53
KMAF 101053Z 08005KT 10SM CLR 21/19 A2999

2010/08/10 10:53
KMFE 101053Z AUTO 09003KT 10SM CLR 27/26 A2986

2010/08/10 10:53
KMGM 101053Z 10003KT 7SM FEW070 24/22 A2997

2010/08/10 10:56
KMOB 101056Z 36005KT 9SM FEW100 SCT200 26/23 A2995

2010/08/10 10:53
KNEW 101053Z AUTO 03006KT 9SM SCT014 29/26 A2994

2010/08/10 10:53
KOPF 101053Z AUTO 13009KT 10SM SCT075 BKN085 25/24 A2988

2010/08/10 11:00
KOPN 101100Z AUTO 00000KT 5SM CLR 23/23 A3003

2010/08/10 10:53
KPDK 101053Z 00000KT 10SM CLR 24/21 A3005

2010/08/10 11:04
YMAV 101104Z AUTO 35006KT 4000NDV // SCT009 BKN014 08/08 Q1009

2010/08/10 11:00
OOMS 101100Z 03006KT 350V070 8000 NSC 33/28 Q1000 NOSIG

2010/08/10 10:50
LIMG 101050Z 07011KT 9999 FEW040 27/21 Q1016 RMK VIS MIN 9999

2010/08/10 10:55
LIMN 101055Z VRB03KT 9999 SCT020 27/16 Q1016 RMK SCT VIS MIN 9999 BLU

2010/08/10 10:50
LIMP 101050Z VRB02KT 7000 FEW030 28/19 Q1016 RMK VIS MIN 6000N

2010/08/10 10:55
LIMS 101055Z 08004KT 9999 FEW030 27/20 Q1016 RMK FEW VIS MIN 9999 WIND THR30 06004KT BLU

2010/08/10 10:50
LIMZ 101050Z VRB03KT 9999 FEW040 25/18 Q1017 RMK VIS MIN 8000N

2010/08/10 10:55
LIPA 101055Z 26002KT 9999 FEW040 28/22 Q1015 RMK FEW VIS MIN 9999 A3000 BLU

2010/08/10 10:55
LIPC 101055Z 08006KT 9999 FEW030 29/20 Q1015 RMK FEW VIS MIN 9999 WIND THR12 08006KT BLU

2010/08/10 10:55
LIPF 101055Z 00000KT 9999 SCT040 29/22 Q1015 RMK SCT VIS MIN 9999

2010/08/10 10:45
LIPH 101045Z 33002KT 9999 FEW020 28/19 Q1016 RMK FEW VIS MIN 9999 WIND THR07 /////KT BLU

2010/08/10 10:55
LIPI 101055Z 05004KT CAVOK 29/18 Q1015 RMK SKC VIS MIN 9999 WIND THR06 /////KT BLU

2010/08/10 10:55
LIPL 101055Z 23003KT CAVOK 27/22 Q1016 RMK BKN BKN100 VIS MIN 9999 BLK BLU

2010/08/10 10:50
LIPO 101050Z 26005KT 210V290 9999 FEW050 28/18 Q1015 RMK VIS MIN 9999

2010/08/10 10:50
LIPQ 101050Z VRB03KT CAVOK 29/18 Q1015

2010/08/10 10:45
LIPR 101045Z 03007KT 9999 FEW025 27/25 Q1015 RMK FEW VIS MIN 9999 WIND THR31 04007KT BLU

2010/08/10 10:55
LIPS 101055Z 14002KT 9999 FEW025 29/17 Q1016 RMK FEW VIS MIN 9999 BLU

2010/08/10 10:45
LIPX 101045Z 14004KT 9999 FEW050 29/16 Q1016 RMK FEW VIS MIN 9999 BLU

2010/08/10 10:50
LIPY 101050Z 35007KT 310V020 9999 FEW050 27/21 Q1015 RMK VIS MIN 9999

2010/08/10 10:55
LIVC 101055Z 17007KT 0300 FG VV001 13/10 Q1026 RMK MON INVIS VAL INVIS VIS MIN 0300

2010/08/10 10:55
LIVP 101055Z 18008KT 1500 BR BKN000TCU 14/11 Q1024 RMK BKN MON CIME INC VAL CLD SCT VIS MIN 1500

2010/08/10 11:04
KHON 101104Z AUTO 23009KT 9SM -RA SCT010 SCT014 BKN055 23/21 A2984 RMK AO2 P0002 TSNO 

2010/08/10 11:00
GCLP 101100Z 03015KT 9999 FEW030 26/19 Q1017 NOSIG

2010/08/10 11:00
GCXO 101100Z VRB02KT 6000 2500NW R12/1400VP2000U PRFG FEW000 BKN100 22/18 Q1019 NOSIG

2010/08/10 11:00
GCTS 101100Z 11005KT 030V170 9999 FEW020 BKN080 23/19 Q1017 NOSIG

2010/08/10 11:00
GCRR 101100Z 18004KT CAVOK 25/21 Q1016

2010/08/10 11:00
GCFV 101100Z 05011KT 8000 SCT045 25/21 Q1016

2010/08/10 11:00
LRBC 101100Z 36010KT 340V040 CAVOK 29/23 Q1015

2010/08/10 11:00
LRCV 101100Z VRB04KT 9999 FEW040 29/17 Q1015

2010/08/10 11:00
LRIA 101100Z 34010KT 310V010 CAVOK 30/19 Q1015

2010/08/10 11:00
LRSV 101100Z 35007KT 9999 FEW045 25/21 Q1017

2010/08/10 11:00
LRTC 101100Z 34010KT 310V020 CAVOK 33/17 Q1011

2010/08/10 10:53
KPIE 101053Z 10010KT 10SM BKN013 BKN023 26/23 A2986

2010/08/10 10:53
KPNS 101053Z 03006KT 8SM CLR 26/24 A2993

2010/08/10 10:53
KRSW 101053Z AUTO 10011KT 10SM OVC006 24/23 A2984

2010/08/10 10:53
KSAT 101053Z 20006KT 10SM FEW016 SCT024 27/24 A2993

2010/08/10 10:53
KSAV 101053Z 00000KT 10SM FEW015 SCT025 SCT250 25/24 A3000

2010/08/10 10:56
KSHV 101056Z 00000KT 10SM SCT290 26/23 A2991

2010/08/10 10:53
KSSI 101053Z AUTO 14008KT 10SM FEW023 BKN049 28/23 A2997

2010/08/10 10:53
KTMB 101053Z 20006KT 10SM FEW023 SCT041 OVC080 26/23 A2987

2010/08/10 10:53
KTUL 101053Z 16006KT 10SM CLR 28/20 A2990

2010/08/10 10:53
KTYS 101053Z 00000KT 3SM BR BKN110 25/23 A3002

2010/08/10 10:53
KAZO 101053Z 00000KT 1/2SM FG VV002 20/19 A3000

2010/08/10 10:53
KBDE 101053Z AUTO 21004KT 10SM CLR 19/19 A2992

2010/08/10 10:53
KBTL 101053Z 00000KT 1/4SM FG OVC001 19/19 A3001

2010/08/10 10:53
KBTM 101053Z AUTO 09005KT 10SM FEW075 BKN110 13/07 A3002

2010/08/10 10:55
KCIU 101055Z AUTO 36005KT 7SM OVC004 19/19 A2998

2010/08/10 10:53
KCMX 101053Z AUTO 28003KT 4SM BR CLR 16/16 A2997

2010/08/10 10:54
KCOS 101054Z AUTO 33003KT 10SM CLR 17/11 A3017

2010/08/10 10:53
KCPR 101053Z 25006KT 10SM CLR 13/02 A3004

2010/08/10 10:53
KDET 101053Z 00000KT 3SM BR CLR 21/21 A2997

2010/08/10 10:55
KDLH 101055Z 00000KT 9SM CLR 20/17 A2999

2010/08/10 10:54
KDSM 101054Z 08003KT 10SM FEW009 SCT050 BKN140 OVC200 23/21 A2994

2010/08/10 10:53
KELO 101053Z AUTO 00000KT 7SM CLR 16/16 A2998

2010/08/10 10:53
KFAR 101053Z 13004KT 10SM CLR 22/19 A2988

2010/08/10 10:53
KFNT 101053Z AUTO 27003KT M1/4SM FG 19/19 A2998

2010/08/10 10:53
KGFK 101053Z 14005KT 10SM SCT250 21/19 A2989

2010/08/10 10:53
KGRB 101053Z AUTO 01005KT 1/4SM FG VV001 22/21 A2997

2010/08/10 10:53
KGRR 101053Z 00000KT 1/8SM FG VV001 21/21 A3000

2010/08/10 10:53
KICT 101053Z 17008KT 10SM SCT200 26/21 A2988

2010/08/10 10:52
KISN 101052Z VRB04KT 10SM SCT100 21/17 A2978

2010/08/10 10:54
KLEX 101054Z 15005KT 4SM BR CLR 24/22 A2999

2010/08/10 10:53
KMBS 101053Z 33003KT 3SM BR CLR 21/21 A2998

2010/08/10 10:51
KMDW 101051Z 05003KT 10SM FEW038 SCT200 BKN250 26/22 A2995

2010/08/10 10:54
KMKC 101054Z 19005KT 10SM CLR 28/21 A2990

2010/08/10 10:52
KMKE 101052Z 00000KT 3SM BR FEW200 BKN250 21/21 A2997

2010/08/10 10:52
KMLI 101052Z 06012KT 10SM -TSRA SCT026 24/22 A2993

2010/08/10 10:54
KMOT 101054Z AUTO 07004KT 10SM FEW036 20/17 A2984

2010/08/10 10:52
KOMA 101052Z 15005KT 10SM FEW090 SCT250 27/23 A2986

2010/08/10 11:00
OIAA 101100Z 00000KT CAVOK 45/17 Q0999

2010/08/10 11:00
OIBK 101100Z 14012KT 7000 SKC 38/22 Q0999 A2950

2010/08/10 11:00
OICC 101100Z 31006KT 9999 FEW045 SCT100 38/M08 Q10134 A2994 865.2

2010/08/10 11:00
OIGG 101100Z 02016KT CAVOK 33/25 Q1009 A2980

2010/08/10 11:00
OIIE 101100Z 12013KT 9999 FEW050 36/M00 Q1012 A2990

2010/08/10 11:00
OITR 101100Z 15010KT 9999 FEW035 35/06 Q1013 A2993

2010/08/10 11:00
OIYY 101100Z 33008KT CAVOK 36/M07 Q1014 A2995

2010/08/10 11:00
OIBB 101100Z 31010KT CAVOK 39/28 Q0998 A2948 FEW100

2010/08/10 11:00
OITL 101100Z 06022KT 9999 FEW040 27/12 Q1017 A3004

2010/08/10 11:00
OMAA 101100Z 31010KT CAVOK 45/15 Q0997 A2945 NOSIG

2010/08/10 11:00
OMDB 101100Z 36011KT 340V050 9999 FEW040 40/24 Q0998 NOSIG

2010/08/10 11:00
OMDW 101100Z 33015KT 8000 NSC 43/18 Q0999 TEMPO 5000 DU

2010/08/10 11:00
OMRK 101100Z 33008KT CAVOK 43/25 Q0997 A2946

2010/08/10 11:00
OMSJ 101100Z 01011KT 340V050 6000 NSC 41/22 Q0998

2010/08/10 11:00
OBBI 101100Z 10007KT CAVOK 40/18 Q0998 NOSIG

2010/08/10 11:00
OEDF 101100Z 12008KT 6000 SKC 44/14 Q0998 NOSIG

2010/08/10 11:00
OEDR 101100Z 13009KT 7000 SKC 41/16 Q0997 NOSIG

2010/08/10 11:00
OTBD 101100Z 08007KT CAVOK 41/20 Q0999 NOSIG

2010/08/10 11:00
OKBK 101100Z 11007KT 6000 NSC 43/14 Q0999 NOSIG

2010/08/10 10:54
KAPN 101054Z AUTO 00000KT 1/4SM FG VV001 21/20 A2998

2010/08/10 10:55
KINL 101055Z AUTO 00000KT 10SM FEW090 17/17 A2994

2010/08/10 10:55
KPHN 101055Z AUTO 00000KT 1 1/4SM BR OVC004 19/19 A2996

2010/08/10 10:53
KPTK 101053Z 00000KT 3SM BR FEW001 SCT120 21/21 A2997

2010/08/10 10:53
KPUB 101053Z AUTO 00000KT 10SM CLR 14/14 A3008

2010/08/10 10:50
KSAW 101050Z 00000KT 1/4SM FG VV002 17/16 A2998

2010/08/10 10:56
KSDF 101056Z 13003KT 6SM HZ CLR 27/23 A2995

2010/08/10 10:52
KSGF 101052Z 18004KT 10SM CLR 24/23 A2996

2010/08/10 10:53
KSTP 101053Z 14004KT 8SM CLR 23/22 A2995

2010/08/10 10:54
KSUS 101054Z 00000KT 7SM SCT070 25/24 A2992

2010/08/10 10:52
KTOL 101052Z 00000KT M1/4SM FG BKN001 OVC005 21/21 A2997

2010/08/10 11:03
KHQM 101103Z AUTO 00000KT 5SM BR OVC010 13/12 A2996

2010/08/10 10:53
KBFI 101053Z 19006KT 10SM OVC015 14/11 A2995

2010/08/10 10:53
KBIL 101053Z 22010KT 10SM CLR 14/12 A2991

2010/08/10 10:53
KBKE 101053Z AUTO 23005KT 10SM SCT085 12/09 A2991

2010/08/10 10:53
KBLI 101053Z AUTO 17005KT 10SM BKN010 OVC040 14/12 A2993

2010/08/10 10:53
KBOI 101053Z 20003KT 10SM CLR 18/13 A2984

2010/08/10 10:53
KCLM 101053Z AUTO 30005KT 7SM OVC003 11/10 A2995

2010/08/10 10:56
KCTB 101056Z AUTO 00000KT 10SM CLR 13/07 A2986

2010/08/10 10:56
KDUG 101056Z AUTO 02003KT 10SM CLR 19/17 A3005

2010/08/10 10:53
KFAT 101053Z 29006KT 10SM CLR 19/14 A2981

2010/08/10 10:55
KGDV 101055Z AUTO 32009KT 310V010 10SM FEW060 OVC110 19/16 A2977

2010/08/10 10:53
KGEG 101053Z 18008KT 10SM FEW100 SCT120 OVC200 16/08 A2982

2010/08/10 10:53
KGGW 101053Z AUTO 34003KT 10SM CLR 18/16 A2977

2010/08/10 10:53
KGLH 101053Z AUTO 16004KT 10SM CLR 24/23 A2994

2010/08/10 10:55
KGPI 101055Z AUTO 00000KT 10SM FEW100 12/10 A2986

2010/08/10 10:53
KGTF 101053Z 20009KT 10SM CLR 16/07 A2986

2010/08/10 10:53
KGWO 101053Z AUTO 00000KT 4SM BR CLR 23/23 A2995

2010/08/10 10:53
KHLN 101053Z AUTO 00000KT 10SM CLR 12/09 A2993

2010/08/10 10:53
KHQM 101053Z AUTO 00000KT 3SM BR BKN008 OVC013 13/12 A2996

2010/08/10 10:53
KHVR 101053Z AUTO 17004KT 10SM CLR 13/12 A2981

2010/08/10 10:53
KIPL 101053Z AUTO 00000KT 10SM CLR 24/08 A2973

2010/08/10 10:53
KLBB 101053Z 28004KT 10SM FEW120 19/17 A3001

2010/08/10 10:53
KMSO 101053Z AUTO 00000KT 10SM CLR 12/11 A2992

2010/08/10 10:52
KMWH 101052Z AUTO 27008KT 10SM FEW075 17/08 A2983

2010/08/10 10:56
KNUW 101056Z 00000KT 6SM BR FEW004 BKN008 OVC040 13/11 A2995

2010/08/10 10:53
KOLF 101053Z AUTO 00000KT 10SM CLR 17/17 A2979

2010/08/10 10:54
KOLM 101054Z AUTO 23007KT 10SM OVC019 13/09 A2996

2010/08/10 10:54
KOLS 101054Z AUTO 07003KT 10SM CLR 19/15 A3003

2010/08/10 10:55
KOLV 101055Z AUTO 18004KT 4SM CLR 24/ A2996

2010/08/10 10:53
KPAE 101053Z AUTO 19010KT 10SM OVC006 13/11 A2995

2010/08/10 10:53
KPDX 101053Z 33004KT 10SM OVC029 14/11 A2998

2010/08/10 10:53
KPMD 101053Z AUTO 00000KT 10SM CLR 16/03 A2991

2010/08/10 10:55
KRNO 101055Z 00000KT 10SM FEW100 18/04 A3000

2010/08/10 10:53
KRNT 101053Z AUTO 17004KT 9SM OVC012 14/12 A2995

2010/08/10 10:53
KSAC 101053Z 16003KT 10SM 13/11 A2982

2010/08/10 10:55
KSCK 101055Z AUTO 34005KT 10SM CLR 14/11 A2982

2010/08/10 10:53
KSDM 101053Z AUTO 00000KT 9SM OVC008 16/14 A2990

2010/08/10 10:53
KSFF 101053Z AUTO VRB03KT 10SM FEW075 SCT090 17/08 A2982

2010/08/10 10:53
KSJC 101053Z AUTO 11005KT 10SM CLR 13/11 A2988

2010/08/10 10:53
KSLC 101053Z 14008KT 10SM CLR 18/03 A2999

2010/08/10 10:53
KSMF 101053Z 16008KT 10SM CLR 14/11 A2981

2010/08/10 10:53
KTIW 101053Z 22004KT 7SM OVC006 12/11 A2996

2010/08/10 10:53
KTUS 101053Z AUTO 17006KT 10SM CLR 25/16 A2996

2010/08/10 11:04
CBBC 101104Z AUTO 00000KT 3/4SM VV001 A2998 RMK VSBY VRBL 0.3V9.+

2010/08/10 11:00
LPAZ 101100Z 06010KT 030V090 9999 FEW023 BKN037 21/15 Q1021

2010/08/10 11:00
LPFL 101100Z 16007KT 130V190 9999 FEW022 SCT037 24/17 Q1022

2010/08/10 11:00
LPHR 101100Z 12006KT 070V150 9999 FEW016 SCT040 25/15 Q1022

2010/08/10 11:00
LPLA 101100Z 05008KT 9999 FEW020 BKN035 23/17 Q1023

2010/08/10 11:00
LPPD 101100Z 06006KT 020V110 9999 FEW022 BKN040 22/13 Q1021

2010/08/10 11:04
KUIL 101104Z AUTO 00000KT 2 1/2SM BR BKN001 OVC006 12/12 A2995

2010/08/10 10:54
KACY 101054Z 23005KT 10SM CLR 24/22 A2994

2010/08/10 10:53
KAUG 101053Z AUTO 00000KT 10SM CLR 21/17 A2989

2010/08/10 10:54
KAVL 101054Z 33003KT 1/2SM FG OVC002 19/19 A3013

2010/08/10 10:53
KBGM 101053Z 00000KT 1SM BR OVC060 20/19 A3001

2010/08/10 10:51
KBKW 101051Z AUTO 00000KT 4SM HZ FEW043 20/17 A3011

2010/08/10 10:52
KCBE 101052Z AUTO 00000KT 5SM CLR 19/18 A3004

2010/08/10 10:51
KCON 101051Z AUTO 32004KT 4SM BR CLR 21/20 A2991

2010/08/10 10:52
KDCA 101052Z 21003KT 6SM HZ FEW150 SCT250 25/21 A2995

2010/08/10 10:51
KEKN 101051Z AUTO 00000KT 1/4SM FG OVC005 17/17 A3010

2010/08/10 10:50
KESN 101050Z 23005KT 10SM SKC 25/24 A2997

2010/08/10 10:53
KGFL 101053Z AUTO 00000KT 1 1/4SM BR OVC004 21/21 A2994

2010/08/10 10:53
KGSP 101053Z 00000KT 7SM CLR 23/22 A3004

2010/08/10 11:00
KIPJ 101100Z AUTO 00000KT 3SM BR CLR 22/21 A3004

2010/08/10 10:54
KIPT 101054Z 00000KT 9SM OVC100 23/18 A2995

2010/08/10 10:54
KLYH 101054Z 22004KT 3SM BR CLR 22/21 A3002

2010/08/10 10:53
KMHT 101053Z 33006KT 6SM BR SCT120 22/21 A2989

2010/08/10 10:51
KMPV 101051Z AUTO 00000KT 1/4SM FG VV001 18/17 A3000

2010/08/10 10:50
KMYR 101050Z 00000KT 10SM SCT025 26/24 A3005

2010/08/10 10:51
KNYC 101051Z 00000KT 10SM CLR 26/19 A2996

2010/08/10 10:54
KPNE 101054Z 00000KT 10SM CLR 26/22 A2995

2010/08/10 10:54
KROA 101054Z 34003KT 7SM CLR 24/21 A3005

2010/08/10 10:53
KSMQ 101053Z AUTO 00000KT 6SM BR CLR 23/21 A2992

2010/08/10 10:54
KWAL 101054Z AUTO 28005KT 6SM BR CLR 25/23 A2997

2010/08/10 10:53
KAAF 101053Z AUTO 04007KT 10SM FEW021 SCT031 26/24 A2989

2010/08/10 10:53
KABR 101053Z AUTO 15005KT 10SM BKN018 BKN024 OVC050 24/22 A2985

2010/08/10 10:51
KACT 101051Z 21006KT 10SM CLR 26/23 A2991

2010/08/10 10:53
KAGS 101053Z 00000KT 3SM BR CLR 22/21 A3001

2010/08/10 10:51
KAHN 101051Z AUTO 00000KT 3SM BR CLR 22/21 A3004

2010/08/10 10:53
KALI 101053Z AUTO 15003KT 2 1/2SM BR CLR 24/24 A2987

2010/08/10 10:53
KAUS 101053Z 00000KT 10SM CLR 24/23 A2992

2010/08/10 11:00
KAYS 101100Z AUTO 00000KT 7SM CLR 24/24 A2998

2010/08/10 10:51
KBVE 101051Z AUTO 00000KT CLR 26/25 A2993

2010/08/10 10:55
KCAO 101055Z AUTO 25007KT 10SM BKN100 21/15 A3008

2010/08/10 10:53
KCDS 101053Z AUTO 25006KT 10SM CLR 21/19 A2995

2010/08/10 10:53
KCLL 101053Z AUTO 00000KT 10SM CLR 26/23 A2992

2010/08/10 10:53
KCNM 101053Z AUTO 00000KT 10SM CLR 19/16 A2999

2010/08/10 10:53
KCOT 101053Z AUTO 00000KT 10SM CLR 25/24 A2989

2010/08/10 10:51
KCSG 101051Z AUTO 06003KT 9SM CLR 26/20 A2999

2010/08/10 10:53
KCTY 101053Z AUTO 06003KT 24/24 A2992

2010/08/10 10:53
KDAB 101053Z 11005KT 10SM FEW020 SCT120 SCT250 27/23 A2993

2010/08/10 10:53
KDHT 101053Z AUTO 17005KT 10SM BKN120 22/17 A3006

2010/08/10 10:53
KECP 101053Z 02006KT 10SM CLR 25/23 A2991

2010/08/10 10:53
KELD 101053Z AUTO 12003KT 10SM CLR 25/24 A2993

2010/08/10 10:51
KELP 101051Z 14004KT 10SM CLR 24/14 A3002

2010/08/10 10:53
KESF 101053Z AUTO 00000KT 9SM FEW028 SCT043 BKN065 25/24 A2995

2010/08/10 10:53
KFSM 101053Z 05004KT 10SM CLR 26/24 A2992

2010/08/10 10:53
KFYV 101053Z 00000KT 9SM CLR 22/22 A2997

2010/08/10 10:53
KGAG 101053Z AUTO 20007KT 10SM CLR 21/18 A2994

2010/08/10 10:51
KGDP 101051Z AUTO 24005KT 10SM CLR 21/14 A3015

2010/08/10 10:53
KHBR 101053Z AUTO 24005KT 10SM CLR 24/19 A2992

2010/08/10 10:51
KHDO 101051Z AUTO 00000KT 10SM OVC013 26/24 A2994

2010/08/10 10:53
KHOT 101053Z AUTO 00000KT 10SM CLR 27/24 A2994

2010/08/10 10:53
KHRO 101053Z AUTO 27004KT 10SM CLR 26/21 A2998

2010/08/10 10:54
KIPT 101054Z 00000KT 9SM OVC100 23/18 A2995

2010/08/10 10:54
KJAN 101054Z 00000KT 9SM CLR 24/23 A2995

2010/08/10 11:00
OIAW 101100Z 15006KT CAVOK 48/10 Q0998 A2949

2010/08/10 11:00
OIFM 101100Z 27006KT 9999 FEW035 33/M03 Q1016 A3003

2010/08/10 11:00
OIKB 101100Z 20010KT 5000 HZ SKC 36/26 Q1000 A2953

2010/08/10 11:00
OIKK 101100Z 32010KT CAVOK 32/M01 Q1016 A3001

2010/08/10 11:00
OIMM 101100Z 02018KT CAVOK 34/M03 Q1013 A2993

2010/08/10 11:00
OISS 101100Z 24006KT CAVOK 35/M05 Q1013 A2994

2010/08/10 11:00
OITT 101100Z 06010KT 9999 FEW035 FEW040CB 36/07 Q1014 A2997

2010/08/10 11:00
OIZH 101100Z 30006KT 8000 NSC 36/M02 Q1010 A2985

2010/08/10 10:53
KJBR 101053Z AUTO 00000KT 9SM CLR 26/24 A2993

2010/08/10 10:51
KJCT 101051Z AUTO 00000KT 10SM CLR 26/22 A2996

2010/08/10 10:55
KJQF 101055Z 00000KT 5SM BR CLR 23/21 A3004

2010/08/10 10:53
KLFK 101053Z AUTO 10003KT 10SM CLR 24/23 A2993

2010/08/10 10:53
KLFT 101053Z 00000KT 10SM FEW046 24/23 A2993

2010/08/10 10:53
KMCN 101053Z AUTO 00000KT 5SM BR CLR 23/22 A3001

2010/08/10 10:58
KMEI 101058Z 00000KT 6SM BR CLR 23/23 A2997

2010/08/10 10:53
KMLC 101053Z AUTO 00000KT 10SM CLR 25/20 A2992

2010/08/10 10:53
KMLU 101053Z A2995

2010/08/10 10:53
KMWL 101053Z AUTO 12006KT 10SM CLR 23/19 A2991

2010/08/10 10:53
KPBF 101053Z AUTO 00000KT 9SM CLR 25/23 A2993

2010/08/10 10:53
KPNC 101053Z AUTO 17004KT 10SM CLR 28/21 A2989

2010/08/10 10:53
KPSX 101053Z AUTO 08003KT 9SM FEW070 28/26 A2990

2010/08/10 10:53
KPWA 101053Z AUTO 18009KT 10SM CLR 26/19 A2990

2010/08/10 10:53
KRMG 101053Z AUTO 00000KT 6SM BR CLR 23/22 A3002

2010/08/10 10:53
KRSL 101053Z AUTO 21007KT 10SM CLR 23/20 A2986

2010/08/10 10:56
KSHV 101056Z 00000KT 10SM SCT290 26/23 A2991

2010/08/10 10:52
KSPS 101052Z 20005KT 10SM FEW200 24/19 A2991

2010/08/10 10:53
KTLH 101053Z 06006KT 10SM FEW013 26/23 A2994

2010/08/10 10:53
KTOP 101053Z AUTO 11004KT 10SM CLR 27/21 A2988

2010/08/10 10:53
KTRI 101053Z 00000KT 6SM BR BKN110 22/21 A3007

2010/08/10 10:53
KTUP 101053Z 00000KT 9SM CLR 25/23 A2997

2010/08/10 10:51
KVCT 101051Z AUTO 06003KT 10SM CLR 25/24 A2990

2010/08/10 10:53
KVGT 101053Z AUTO 00000KT 10SM CLR 24/02 A2986

2010/08/10 10:58
KVUJ 101058Z AUTO 00000KT 5SM BKN085 BKN110 22/21 A3003

2010/08/10 10:55
KWRB 101055Z AUTO 00000KT 9SM CLR 23/23 A3001

2010/08/10 11:00
GMMN 101100Z 03010KT 350V060 CAVOK 40/13 Q1016 NOSIG

2010/08/10 11:01
KLSF 101101Z AUTO 00000KT 1 3/4SM BR CLR 22/22 A2999 RMK AO2 SLP154 PNO $

2010/08/10 11:05
KMMT 101105Z AUTO 00000KT 6SM BR SCT003 SCT017 SCT027 24/24 A3003 RMK AO2 SLP167

2010/08/10 11:02
KMTC 101102Z 00000KT 1SM R19/P6000FT BR CLR 20/20 A2995

2010/08/10 11:05
KMTC 101105Z 00000KT 1SM R19/4500FT BR CLR 20/20 A2996

2010/08/10 10:53
KAIA 101053Z AUTO 27005KT 10SM CLR 14/14 A2997

2010/08/10 10:54
KALO 101054Z 19003KT 4SM -RA BR SCT005 BKN010 OVC025 24/24 A2996

2010/08/10 10:52
KALS 101052Z AUTO 00000KT 10SM CLR 06/04 A3030

2010/08/10 10:50
KANW 101050Z AUTO 22004KT 10SM CLR 18/18 A2988

2010/08/10 10:53
KBBW 101053Z AUTO 00000KT 10SM CLR 19/18 A2988

2010/08/10 10:53
KBFF 101053Z AUTO 12005KT 10SM CLR 15/14 A2998

2010/08/10 10:50
KBIE 101050Z AUTO 11003KT 10SM CLR 25/22 A2986

2010/08/10 10:52
KBIS 101052Z 08008KT 10SM CLR 21/19 A2983

2010/08/10 10:53
KBPI 101053Z AUTO 00000KT 10SM BKN110 05/02 A3021

2010/08/10 10:53
KBRL 101053Z AUTO 03004KT 10SM CLR 26/22 A2993

2010/08/10 10:53
KCAG 101053Z AUTO 00000KT 10SM CLR 06/05 A3021

2010/08/10 10:53
KCGI 101053Z AUTO 13003KT 7SM CLR 24/23 A2993

2010/08/10 10:52
KCID 101052Z 29006KT 8SM -TSRA SCT041 23/22 A2995

2010/08/10 10:55
KCNK 101055Z AUTO 02003KT 10SM BKN090 26/21 A2986

2010/08/10 10:52
KCNU 101052Z AUTO 18006KT 10SM CLR 25/21 A2991

2010/08/10 10:54
KCOU 101054Z AUTO 11004KT 8SM CLR 25/24 A2994

2010/08/10 10:53
KCYS 101053Z AUTO 28012KT 10SM CLR 14/08 A3013

2010/08/10 10:53
KDBQ 101053Z 00000KT 4SM BR SCT030 BKN035 BKN070 23/23 A2998

2010/08/10 10:52
KDDC 101052Z AUTO 29005KT 10SM CLR 22/18 A2992

2010/08/10 10:55
KDVL 101055Z AUTO 12008KT 10SM CLR 23/18 A2988

2010/08/10 10:55
KEAR 101055Z AUTO 00000KT 10SM CLR 19/18 A2991

2010/08/10 10:54
KEVV 101054Z 00000KT 6SM BR CLR 25/23 A2995

2010/08/10 10:53
KFNB 101053Z AUTO 13005KT 10SM CLR 24/23 A2986

2010/08/10 10:56
KFSD 101056Z 00000KT 10SM -TSRA BKN037 OVC100CB 21/19 A2993

2010/08/10 10:54
KFWA 101054Z 03003KT 1SM BR SCT041 BKN250 23/22 A2998

2010/08/10 10:53
KGCC 101053Z AUTO 26007KT 10SM CLR 13/11 A2994

2010/08/10 10:54
KGCK 101054Z AUTO 22003KT 10SM CLR 20/18 A2995

2010/08/10 10:53
KGJT 101053Z AUTO 10007KT 10SM CLR 16/04 A3010

2010/08/10 10:53
KGLD 101053Z AUTO 29006KT 10SM CLR 19/18 A3000

2010/08/10 10:55
KGPZ 101055Z AUTO 16003KT 3SM CLR 18/17 A2998

2010/08/10 10:53
KGRI 101053Z AUTO 08004KT 10SM CLR 20/18 A2988

2010/08/10 10:55
KHON 101055Z AUTO 24013G18KT 6SM -RA BR SCT010 BKN015 OVC055 24/22 A2986

2010/08/10 10:53
KHSI 101053Z AUTO 03003KT 10SM CLR 21/19 A2989

2010/08/10 10:53
KHTL 101053Z AUTO 03005KT 5SM BR OVC005 21/21 A3001

2010/08/10 10:53
KIML 101053Z AUTO 23004KT 10SM CLR 18/17 A2996

2010/08/10 10:55
KIRK 101055Z AUTO 02008KT 10SM CLR 24/22 A2996

2010/08/10 10:55
KJAC 101055Z 00000KT 10SM CLR 06/03 A3017

2010/08/10 10:53
KJKL 101053Z AUTO 00000KT 4SM BR CLR 23/22 A3004

2010/08/10 10:53
KJLN 101053Z AUTO 17004KT 10SM FEW060 24/20 A2994

2010/08/10 10:59
KJNX 101059Z AUTO 00000KT 10SM OVC003 22/22 A3002

2010/08/10 10:53
KLAN 101053Z 00000KT M1/4SM R28L/0800V1400FT FG OVC004 19/19 A2999

2010/08/10 10:53
KLBF 101053Z AUTO 12005KT 10SM CLR 19/19 A2989

2010/08/10 10:54
KLNK 101054Z 00000KT 10SM CLR 24/22 A2986

2010/08/10 10:53
KLXV 101053Z AUTO 10003KT 10SM CLR 03/03 A3044

2010/08/10 10:53
KMCK 101053Z AUTO 19003KT 10SM CLR 19/19 A2992

2010/08/10 10:53
KMCW 101053Z AUTO 17008KT 3SM -RA BR OVC003 24/24 A2997

2010/08/10 10:52
KMFD 101052Z 00000KT 2 1/2SM BR CLR 22/19 A3000

2010/08/10 10:52
KMHK 101052Z AUTO 00000KT 10SM CLR 26/21 A2984

2010/08/10 10:55
KMKG 101055Z 19003KT 1/4SM FG OVC002 20/19 A2999

2010/08/10 10:53
KMSN 101053Z 00000KT 3SM BCFG BR FEW001 22/21 A2997

2010/08/10 10:53
KODX 101053Z AUTO 18003KT 10SM SCT100 19/19 A2985

2010/08/10 10:50
KONL 101050Z AUTO 11006KT 10SM CLR 20/19 A2983

2010/08/10 10:53
KOTM 101053Z AUTO 08005KT 10SM CLR 22/21 A2995

2010/08/10 10:53
KPAH 101053Z AUTO 00000KT 3SM BR CLR 24/24 A2993

2010/08/10 10:53
KPKD 101053Z AUTO 09003KT 10SM CLR 19/18 A2996

2010/08/10 10:52
KRAP 101052Z AUTO 19004KT 10SM OVC110 21/17 A2986

2010/08/10 10:54
KRFD 101054Z 00000KT 10SM OVC180 23/22 A2997

2010/08/10 10:53
KRIW 101053Z AUTO 25005KT 10SM CLR 14/03 A3007

2010/08/10 10:54
KRST 101054Z 11004KT 5SM BR CLR 22/22 A2998

2010/08/10 10:53
KSHR 101053Z AUTO 00000KT 10SM CLR 12/10 A2993

2010/08/10 10:53
KSLN 101053Z 18007KT 10SM CLR 27/21 A2984

2010/08/10 11:00
OIBB 101100Z 31010KT CAVOK 39/28 Q0998 A2948 FEW100

2010/08/10 11:00
OINZ 101100Z 36006KT 9999 FEW100 35/20 Q1009 A2981

2010/08/10 11:00
OITL 101100Z 06022KT 9999 FEW040 27/12 Q1017 A3004

2010/08/10 10:53
KLND 101053Z AUTO 23006KT 10SM CLR 14/03 A3007

2010/08/10 10:54
KSBN 101054Z 00000KT 7SM SCT032 23/21 A2998

2010/08/10 10:52
KSPI 101052Z 17004KT 10SM CLR 24/22 A2993

2010/08/10 10:53
KSTC 101053Z AUTO 11003KT 5SM BR CLR 20/19 A2993

2010/08/10 10:52
KSUX 101052Z 32015G23KT 8SM -RA FEW011 BKN036 OVC048 23/21 A2988

2010/08/10 10:53
KTCS 101053Z AUTO 33004KT 10SM CLR 21/11 A3008

2010/08/10 11:01
KTDF 101101Z AUTO 00000KT 22/22 A3003

2010/08/10 10:55
KUDG 101055Z 00000KT 3SM CLR 23/21 A3005

2010/08/10 10:54
KUIN 101054Z AUTO 19003KT 10SM CLR 26/24 A2992

2010/08/10 10:53
KVIH 101053Z AUTO 20005KT 10SM CLR 25/23 A2996

2010/08/10 10:52
KVTN 101052Z AUTO VRB03KT 10SM CLR 18/18 A2985

2010/08/10 10:51
KYNG 101051Z 00000KT 7SM FEW045 SCT080 SCT250 22/18 A2998

2010/08/10 11:00
SAEZ 101100Z 11002KT 3000 R11/1300D RMID/1400U R29/1200 MIFG BR 02/01 Q1028

2010/08/10 11:00
SARE 101100Z 16003KT 6000 NSC 05/04 Q1024

2010/08/10 11:00
SAZM 101100Z 32005KT CAVOK M01/M03 Q1027

2010/08/10 11:00
SBCG 101100Z 13008KT CAVOK 15/11 Q1021

2010/08/10 11:00
SBFN 101100Z 15010KT 9999 FEW017 27/22 Q1016

2010/08/10 11:00
SBJP 101100Z 18010KT 9999 SCT020 BKN070 26/21 Q1018

2010/08/10 11:00
SBSP 101100Z 15005KT 5000 BR BKN007 14/12 Q1027

2010/08/10 11:00
SCAR 101100Z 08006KT 9000 SKC 09/05 Q1016

2010/08/10 11:00
SCBA 101100Z AUTO 22005KT 200V260 CAVOK M02/M04 Q1020

2010/08/10 11:00
SCCI 101100Z 33005KT 9999 FEW016 SCT200 04/00 Q1002 NOSIG

2010/08/10 11:00
SCDA 101100Z 14008KT 9000 BKN020 13/08 Q1017

2010/08/10 11:00
SCEL 101100Z 32002KT 6000 NSC 02/00 Q1015 NOSIG

2010/08/10 11:00
SCFA 101100Z 26003KT 230V300 9999 OVC019 12/07 Q1017 NOSIG

2010/08/10 11:00
SCIE 101100Z 18004KT CAVOK 01/00 Q1016

2010/08/10 11:00
SCON 101100Z AUTO VRB02KT CAVOK 04/03 Q1022

2010/08/10 11:00
SCSE 101100Z 30002KT 9999 OVC015 10/08 Q1017 NEFO PLAYA 1800FT

2010/08/10 11:00
SCTE 101100Z 16010KT 9999 OVC006 07/06 Q1021 NOSIG

2010/08/10 11:00
SLCB 101100Z 00000KT 6000 NSC 02/00 Q1026

2010/08/10 11:00
SLLP 101100Z 02006KT 9999 NSC M04/M16 Q1038

2010/08/10 11:00
SLVR 101100Z 18013KT 9999 NSC 17/06 Q1020

2010/08/10 11:00
SMJP 101100Z 00000KT 9999 FEW012 SCT030 25/23 Q1014 NOSIG

2010/08/10 11:00
SPSO 101100Z 19003KT 5000 BR SCT008 OVC012 14/12 Q1018 RMK PP000

2010/08/10 11:00
SPTN 101100Z VRB02KT 9999 SCT010 09/06 Q1013 RMK PP000

2010/08/10 11:00
SUAA 101100Z 36007KT 1500 BR SKC 04/03 Q1028

2010/08/10 11:00
SUCA 101100Z VRB03KT CAVOK 08/05 Q1026

2010/08/10 11:00
SUDU 101100Z 00000KT CAVOK M00/M01 Q1027

2010/08/10 11:00
SULS 101100Z 00000KT CAVOK 02/01 Q1028

2010/08/10 11:00
SUMU 101100Z 01004KT 3000 BR NSC 01/01 Q1028 BECMG FM 1130Z CAVOK

2010/08/10 11:00
SUSO 101100Z 13008KT CAVOK 03/01 Q1027

2010/08/10 10:55
KAST 101055Z AUTO 00000KT 10SM OVC014 13/11 A2997

2010/08/10 10:54
KBFL 101054Z AUTO 32004KT 10SM CLR 19/08 A2982

2010/08/10 10:52
KBLU 101052Z AUTO 00000KT 10SM CLR 16/04 A3007

2010/08/10 10:56
KBZN 101056Z AUTO 00000KT 10SM CLR 11/08 A3000

2010/08/10 10:53
KCNY 101053Z AUTO 00000KT 10SM CLR 16/02 A3005

2010/08/10 10:52
KCZZ 101052Z AUTO 04005KT 07/M01 A2991

2010/08/10 10:55
KDRA 101055Z AUTO 07004KT 10SM CLR 21/M08 A2992

2010/08/10 10:53
KELY 101053Z AUTO 19009KT 10SM CLR 11/M03 A3013

2010/08/10 10:54
KEUG 101054Z 00000KT 10SM SCT040 10/08 A2998

2010/08/10 10:56
KFLG 101056Z AUTO 00000KT 10SM FEW070 08/07 A3027

2010/08/10 10:50
KHMS 101050Z 25008KT 15SM SKC 17/07 A2982

2010/08/10 10:56
KINW 101056Z AUTO 15005KT 10SM FEW100 17/10 A3013

2010/08/10 10:59
KJNX 101059Z AUTO 00000KT 10SM OVC003 22/22 A3002

2010/08/10 10:53
KLGB 101053Z AUTO 29004KT 7SM SCT008 16/13 A2990

2010/08/10 10:56
KLWS 101056Z AUTO 12005KT 10SM CLR 17/08 A2982

2010/08/10 10:53
KMFR 101053Z AUTO 00000KT 10SM CLR 17/10 A2992

2010/08/10 10:56
KMHS 101056Z AUTO 00000KT 10SM CLR 12/08 A2996

2010/08/10 10:56
KNUQ 101056Z AUTO 00000KT 10SM OVC012 16/12 A2988

2010/08/10 10:54
KOLM 101054Z AUTO 23007KT 10SM OVC019 13/09 A2996

2010/08/10 10:53
KPDT 101053Z AUTO 25003KT 10SM CLR 15/07 A2987

2010/08/10 10:53
KPGA 101053Z AUTO 00000KT 10SM FEW100 21/03 A3005

2010/08/10 10:53
KPIH 101053Z AUTO 36004KT 10SM SCT110 12/09 A3000

2010/08/10 10:53
KPUC 101053Z AUTO 03005KT 10SM CLR 12/00 A3015

2010/08/10 10:54
KRBL 101054Z AUTO 00000KT 10SM CLR 19/13 A2983

2010/08/10 10:53
KRDD 101053Z AUTO 00000KT 10SM CLR 19/11 A2984

2010/08/10 10:52
KSDB 101052Z AUTO 26007KT 10SM CLR 16/05 A3002

2010/08/10 10:53
KSHN 101053Z AUTO 21005KT 7SM BKN007 OVC011 12/11 A2994

2010/08/10 10:54
KSJN 101054Z AUTO 17006KT 10SM CLR 15/11 A3018

2010/08/10 10:53
KSLC 101053Z 14008KT 10SM CLR 18/03 A2999

2010/08/10 10:51
KSMX 101051Z AUTO 06003KT 7SM OVC004 12/11 A2990

2010/08/10 10:50
KSOW 101050Z AUTO 00000KT 10SM CLR 13/09 A3025

2010/08/10 10:50
KTRK 101050Z AUTO 00000KT 10SM CLR 06/04 A3010

2010/08/10 10:56
KWMC 101056Z AUTO 00000KT 10SM CLR 11/M01 A2996

2010/08/10 10:53
KYKM 101053Z AUTO 30009KT 10SM CLR 17/08 A2986

2010/08/10 10:56
KBIH 101056Z AUTO 33004KT 10SM CLR 12/M06 A2996

2010/08/10 10:56
KMEH 101056Z AUTO 00000KT 10SM CLR 07/04 A2993

2010/08/10 10:52
KMLF 101052Z AUTO 17006KT 10SM CLR 10/02 A3007

2010/08/10 10:56
KSMP 101056Z AUTO VRB04KT 1/4SM FG BKN002 OVC007 08/08 A2995

2010/08/10 10:53
KUIL 101053Z AUTO 00000KT 1 3/4SM BR OVC001 12/12 A2995

2010/08/10 10:55
LIED 101055Z 31005KT CAVOK 35/11 Q1015 RMK SKC VIS MIN 9999 BLU

2010/08/10 10:55
LIMT 101055Z /////KT 8000 SCT013TCU 18/17 Q1019 RMK SCT MON LIB VAL FOSCHIA VIS MIN 8000

2010/08/10 10:55
LIQW 101055Z 11003KT 9999 FEW025 27/19 Q1016 RMK FEW VIS MIN 9999 BLU

2010/08/10 10:55
LIRG 101055Z 26004KT 9999 FEW040 32/17 Q1015 RMK FEW MON NE LIB NC VIS MIN 9999 BLU

2010/08/10 10:55
LIRS 101055Z 22004KT 9999 FEW025 29/18 Q1015 RMK FEW VIS MIN 9999 WIND THR21 /////KT BLU

2010/08/10 10:55
LIRV 101055Z 19006KT CAVOK 30/14 Q1016 RMK FEW FEW060 MON E SE LIB NC VIS MIN 9999 BLU

2010/08/10 10:55
LIVD 101055Z 00000KT 9999 SCT040 22/10 Q1020 RMK BKN SCT200 VIS MIN 9999

2010/08/10 10:55
LIVM 101055Z 10006KT 9999 FEW025 28/24 Q1016 RMK FEW QUK 0 QUL 0 VIS MAR 20 KM VIS MIN 9999

2010/08/10 11:00
LJLJ 101100Z 12005KT 070V200 9999 SCT040 SCT300 25/15 Q1018 NOSIG

2010/08/10 11:00
LKKV 101100Z 29003KT 9999 FEW048 21/12 Q1019 RMK REG QNH 1015

2010/08/10 11:00
LKMT 101100Z VRB01KT 9999 FEW036 23/14 Q1018 NOSIG RMK REG QNH 1015

2010/08/10 11:00
LKPR 101100Z 04004KT 330V090 9999 BKN045 23/12 Q1018 NOSIG RMK REG QNH 1015

2010/08/10 11:00
LKTB 101100Z 21004KT 140V250 9999 SCT043 25/15 Q1018 NOSIG RMK REG QNH 1015

2010/08/10 11:00
BIRK 101100Z 36008KT 9999 FEW020 SCT036 13/08 Q1014

2010/08/10 10:56
KNFL 101056Z AUTO 22004KT 10SM CLR 16/04 A2995 RMK AO2 SLP114 T01560044 TSNO

2010/08/10 11:00
LKKV 101100Z 29003KT 9999 FEW048 21/12 Q1019 RMK REG QNH 1015

2010/08/10 11:00
MKJS 101100Z 00000KT 9999 FEW024 BKN200 26/22 Q1012

2010/08/10 10:59
MYEG 101059Z AUTO 00000KT 10SM VCTS SCT021 SCT029 SCT034 24/22 A2994 RMK AO2 LTG DSNT S P0002

2010/08/10 11:00
OIKK 101100Z 32010KT CAVOK 32/M01 Q1016 A3001

2010/08/10 11:00
OITT 101100Z 06010KT 9999 FEW035 FEW040CB 36/07 Q1014 A2997

2010/08/10 11:00
OIZH 101100Z 30006KT 8000 NSC 36/M02 Q1010 A2985

2010/08/10 11:00
OLBA 101100Z 27005KT 200V310 8000 BKN026 31/22 Q1009 NOSIG

2010/08/10 11:00
SADF 101100Z 00000KT 3000 BR SKC 05/04 Q1028 REFG

2010/08/10 11:00
TDPD 101100Z 27005KT 9999 FEW017 FEW///CB 25/23 Q1014

2010/08/10 11:00
TFFR 101100Z 09002KT 9999 FEW020 28/25 Q1014 TEMPO 4000 SHRA

2010/08/10 11:00
TGPY 101100Z 18007KT 9999 VCSH FEW015CB 29/26 Q1013 JP-N/ CB-WNW

2010/08/10 11:00
TNCM 101100Z 12008KT 9999 -SHRA SCT019 29/24 Q1014

2010/08/10 11:00
UACC 101100Z 36004MPS 310V010 CAVOK 20/03 Q1019 040/0070 NOSIG RMK QFE732/0977

2010/08/10 11:00
UAFM 101100Z 32009MPS CAVOK 32/08 Q1011 TEMPO 32007G12MPS

2010/08/10 11:00
UATT 101100Z 05005MPS 020V090 9999 NSC 31/03 Q1020 13CLRD70 NOSIG RMK QFE746/0994

2010/08/10 11:00
WMKJ 101100Z 17003KT 9999 FEW020 BKN140 31/24 Q1006

2010/08/10 11:00
WMKK 101100Z 15002KT 9999 FEW018 SCT140 BKN280 29/26 Q1006 NOSIG

2010/08/10 11:00
WMKP 101100Z 24004KT 9000 FEW020 SCT140 BKN270 30/26 Q1006 NOSIG

2010/08/10 11:00
WMSA 101100Z 16005KT 9999 FEW020 BKN280 32/25 Q1006

2010/08/10 11:00
ZBHH 101100Z 10003MPS 9999 FEW050 25/15 Q1009 NOSIG

2010/08/10 11:00
ZHHH 101100Z VRB01MPS 4000 BR SKC 31/29 Q1002 NOSIG

2010/08/10 11:00
ZUCK 101100Z 07002MPS CAVOK 38/20 Q0999 NOSIG

2010/08/10 11:00
ZWSH 101100Z 18004MPS 9999 FEW040CB 32/07 Q1007 NOSIG

2010/08/10 10:51
KABE 101051Z 05005KT 6SM HZ CLR 23/21 A2995

2010/08/10 10:53
KACK 101053Z 00000KT 4SM BR BKN005 22/21 A2992

2010/08/10 10:54
KACY 101054Z 23005KT 10SM CLR 24/22 A2994

2010/08/10 10:53
KAGC 101053Z 17006KT 4SM BR BKN047 OVC065 21/19 A2999

2010/08/10 10:53
KAGS 101053Z 00000KT 3SM BR CLR 22/21 A3001

2010/08/10 10:54
KAKR 101054Z AUTO 21003KT 6SM BR CLR 21/19 A2998

2010/08/10 10:51
KALB 101051Z 17003KT 3SM BR FEW045 21/20 A2995

2010/08/10 10:56
KAND 101056Z AUTO 00000KT 5SM BR CLR 23/21 A3004

2010/08/10 10:53
KAOO 101053Z AUTO 22004KT 6SM HZ OVC110 22/18 A3002

2010/08/10 10:54
KAPG 101054Z 00000KT 7SM SCT080 25/23 A2994

2010/08/10 10:56
KART 101056Z AUTO 00000KT 3SM BR OVC019 21/20 A2993

2010/08/10 10:54
KAVL 101054Z 33003KT 1/2SM FG OVC002 19/19 A3013

2010/08/10 10:54
KAVP 101054Z 00000KT 6SM BR FEW120 22/19 A2997

2010/08/10 10:53
KBAF 101053Z 00000KT 3SM BR SCT090 22/21 A2993

2010/08/10 10:51
KBDL 101051Z 00000KT 3SM HZ BKN110 23/21 A2992

2010/08/10 10:52
KBDR 101052Z 35003KT 9SM -RA FEW050 SCT120 24/20 A2993

2010/08/10 10:56
KBED 101056Z 25003KT 3SM BR CLR 22/21 A2990

2010/08/10 10:53
KBFD 101053Z AUTO 00000KT 2 1/2SM BR BKN050 OVC055 19/18 A3003

2010/08/10 10:53
KBGM 101053Z 00000KT 1SM BR OVC060 20/19 A3001

2010/08/10 10:53
KBGR 101053Z 23003KT 9SM CLR 19/18 A2986

2010/08/10 10:53
KBKL 101053Z 35003KT 4SM BR CLR 25/23 A2995

2010/08/10 10:51
KBKW 101051Z AUTO 00000KT 4SM HZ FEW043 20/17 A3011

2010/08/10 10:54
KBOS 101054Z 27006KT 10SM BKN120 24/21 A2990

2010/08/10 10:54
KBTV 101054Z 00000KT 4SM BR OVC003 18/18 A2993

2010/08/10 10:54
KBUF 101054Z 19004KT 2 1/2SM BR FEW041 BKN050 BKN060 21/21 A2995

2010/08/10 10:53
KBVY 101053Z 27004KT 4SM BR CLR 22/21 A2989

2010/08/10 10:54
KBWI 101054Z 26005KT 6SM HZ SCT150 SCT250 24/21 A2993

2010/08/10 10:56
KCAE 101056Z 00000KT 1/2SM FG OVC002 24/23 A3002

2010/08/10 10:51
KCAK 101051Z 27003KT 5SM HZ FEW035 BKN100 22/19 A2998

2010/08/10 10:54
KCAR 101054Z AUTO 00000KT 6SM BR FEW065 16/15 A2984

2010/08/10 10:55
KCEF 101055Z AUTO 00000KT 1/2SM R23/1200V5500FT R33/0900VP6000FT FG CLR 21/20 A2993

2010/08/10 11:00
RJFF 101100Z 19010KT 150V210 9999 FEW025 SCT050 BKN080 31/21 Q1007

2010/08/10 11:00
RJCC 101100Z 17010KT 1800 -DZ BR BKN001 BKN002 21/20 Q1014

2010/08/10 11:00
RJFK 101100Z 13009KT 9999 FEW010 SCT015 BKN040 26/24 Q1012

2010/08/10 11:00
RJSN 101100Z 30003KT 9999 FEW030 SCT050 BKN100 29/25 Q1013

2010/08/10 11:00
RJFT 101100Z 07006KT 050V120 9999 FEW020 SCT080 BKN/// 27/22 Q1009

2010/08/10 11:00
RJFU 101100Z 14015KT 9999 -SHRA FEW015 SCT020 BKN040 26/25 Q1007

2010/08/10 11:00
RJCH 101100Z 31005KT 2300 BR SCT002 BKN005 23/23 Q1013

2010/08/10 11:00
RJSS 101100Z 13003KT 9999 FEW020 SCT040 BKN/// 25/24 Q1013

2010/08/10 11:00
RJOA 101100Z 11003KT 9999 FEW025 SCT070 26/23 Q1014

2010/08/10 11:00
RJOB 101100Z 08006KT 9999 FEW015 SCT040 BKN150 27/23 Q1014

2010/08/10 11:00
RJAA 101100Z 17006KT 9999 FEW015 SCT045 BKN/// 26/24 Q1015 NOSIG

2010/08/10 11:00
RJBB 101100Z 18004KT 9999 FEW015 BKN120 BKN/// 28/24 Q1014 NOSIG

2010/08/10 11:00
RJTT 101100Z 17012KT 9999 FEW015 SCT130 BKN/// 27/23 Q1015

2010/08/10 11:00
RJOO 101100Z 07004KT 020V120 9999 FEW010 SCT045 BKN120 28/22 Q1014

2010/08/10 11:00
ROAH 101100Z 18012KT 9999 FEW015 BKN020 29/26 Q1009

2010/08/10 11:00
RJGG 101100Z 14004KT 9999 FEW007 SCT030 BKN170 27/25 Q1014 NOSIG

2010/08/10 11:00
RJAA 101100Z 17006KT 9999 FEW015 SCT045 BKN/// 26/24 Q1015 NOSIG

2010/08/10 11:00
RJBB 101100Z 18004KT 9999 FEW015 BKN120 BKN/// 28/24 Q1014 NOSIG

2010/08/10 11:00
RJTT 101100Z 17012KT 9999 FEW015 SCT130 BKN/// 27/23 Q1015

2010/08/10 11:00
RJOO 101100Z 07004KT 020V120 9999 FEW010 SCT045 BKN120 28/22 Q1014

2010/08/10 11:00
RJFF 101100Z 19010KT 150V210 9999 FEW025 SCT050 BKN080 31/21 Q1007

2010/08/10 11:00
RJGG 101100Z 14004KT 9999 FEW007 SCT030 BKN170 27/25 Q1014 NOSIG

2010/08/10 11:00
RJFK 101100Z 13009KT 9999 FEW010 SCT015 BKN040 26/24 Q1012

2010/08/10 11:00
RJFU 101100Z 14015KT 9999 -SHRA FEW015 SCT020 BKN040 26/25 Q1007

2010/08/10 11:00
RJCH 101100Z 31005KT 2300 BR SCT002 BKN005 23/23 Q1013

2010/08/10 11:00
RJFR 101100Z 11023KT 9999 FEW025 BKN150 BKN/// 29/24 Q1009

2010/08/10 10:53
KCHO 101053Z 00000KT 5SM BR CLR 22/21 A2998

2010/08/10 10:56
KCHS 101056Z 00000KT 10SM FEW025 26/25 A3002

2010/08/10 10:53
KCKB 101053Z 00000KT 2 1/2SM BR CLR 19/18 A3002

2010/08/10 10:51
KCLE 101051Z 25005KT 4SM BR HZ FEW060 SCT075 22/21 A2998

2010/08/10 10:52
KCLT 101052Z 00000KT 5SM BR FEW250 23/21 A3005

2010/08/10 10:51
KCMH 101051Z 00000KT 7SM FEW080 SCT130 SCT250 24/21 A2997

2010/08/10 10:54
KCRW 101054Z 00000KT 4SM BR SCT001 21/19 A3001

2010/08/10 10:52
KCVG 101052Z 00000KT 6SM HZ FEW200 BKN250 24/22 A2998

2010/08/10 10:53
KDAN 101053Z AUTO 00000KT 3SM BR CLR 22/21 A3001

2010/08/10 10:56
KDAY 101056Z 00000KT 5SM HZ FEW200 SCT250 24/20 A3000

2010/08/10 10:52
KDCA 101052Z 21003KT 6SM HZ FEW150 SCT250 25/21 A2995

2010/08/10 10:56
KDUJ 101056Z AUTO 00000KT 3SM BR FEW050 OVC080 20/18 A3002

2010/08/10 10:54
KECG 101054Z 25005KT 10SM CLR 24/24 A3000

2010/08/10 10:51
KEKN 101051Z AUTO 00000KT 1/4SM FG OVC005 17/17 A3010

2010/08/10 10:53
KELM 101053Z 00000KT 1 3/4SM BR FEW003 BKN047 OVC065 21/20 A2997

2010/08/10 10:51
KERI 101051Z 00000KT 1 1/2SM BR FEW010 BKN038 22/21 A2996

2010/08/10 10:53
KEWB 101053Z AUTO 24003KT 4SM BR BKN095 22/21 A2991

2010/08/10 10:54
KEWN 101054Z 00000KT 10SM CLR 24/23 A3003

2010/08/10 10:51
KEWR 101051Z 33006KT 8SM FEW110 BKN140 OVC200 27/19 A2993

2010/08/10 10:53
KFAY 101053Z AUTO 20005KT 2SM BR OVC001 24/23 A3002

2010/08/10 10:53
KFLO 101053Z 00000KT 10SM CLR 24/23 A3002

2010/08/10 10:53
KFRG 101053Z AUTO 00000KT 10SM CLR 24/20 A2994

2010/08/10 10:53
KFVE 101053Z AUTO 32004KT 5SM BR CLR 16/15 A2985

2010/08/10 10:53
KGFL 101053Z AUTO 00000KT 1 1/4SM BR OVC004 21/21 A2994

2010/08/10 10:56
KGON 101056Z 00000KT 7SM OVC100 23/20 A2991

2010/08/10 10:54
KGSO 101054Z 25005KT 5SM HZ CLR 24/21 A3004

2010/08/10 10:53
KGSP 101053Z 00000KT 7SM CLR 23/22 A3004

2010/08/10 10:53
KHFD 101053Z 12003KT 5SM BR FEW100 23/22 A2992

2010/08/10 10:53
KHKY 101053Z 00000KT 3SM BR CLR 23/22 A3005

2010/08/10 10:56
KHPN 101056Z 00000KT 7SM BKN110 22/20 A2995

2010/08/10 10:51
KHTS 101051Z 00000KT 1 3/4SM BR CLR 21/20 A2999

2010/08/10 11:00
RJAA 101100Z 17006KT 9999 FEW015 SCT045 BKN/// 26/24 Q1015 NOSIG

2010/08/10 11:00
RJBB 101100Z 18004KT 9999 FEW015 BKN120 BKN/// 28/24 Q1014 NOSIG

2010/08/10 11:00
RJTT 101100Z 17012KT 9999 FEW015 SCT130 BKN/// 27/23 Q1015

2010/08/10 11:00
RJOO 101100Z 07004KT 020V120 9999 FEW010 SCT045 BKN120 28/22 Q1014

2010/08/10 11:00
RJGG 101100Z 14004KT 9999 FEW007 SCT030 BKN170 27/25 Q1014 NOSIG

2010/08/10 11:00
RJSN 101100Z 30003KT 9999 FEW030 SCT050 BKN100 29/25 Q1013

2010/08/10 11:00
RJCH 101100Z 31005KT 2300 BR SCT002 BKN005 23/23 Q1013

2010/08/10 11:00
RJSA 101100Z VRB02KT 9999 FEW020 24/23 Q1014

2010/08/10 10:53
KHVN 101053Z 00000KT 8SM OVC100 24/20 A2993

2010/08/10 10:56
KHYA 101056Z 23004KT 4SM -RA BR FEW028 23/21 A2991

2010/08/10 10:52
KIAD 101052Z 00000KT 4SM BR FEW150 23/21 A2996

2010/08/10 10:53
KIAG 101053Z AUTO 00000KT 1SM BR FEW032 BKN044 21/20 A2994

2010/08/10 10:51
KILG 101051Z 00000KT 6SM HZ CLR 24/22 A2994

2010/08/10 10:53
KILM 101053Z AUTO 00000KT 10SM CLR 25/23 A3002

2010/08/10 10:54
KINT 101054Z 00000KT 10SM CLR 24/21 A3005

2010/08/10 10:54
KIPT 101054Z 00000KT 9SM OVC100 23/18 A2995

2010/08/10 10:56
KISP 101056Z 35003KT 9SM BKN140 OVC250 24/19 A2992

2010/08/10 10:51
KJFK 101051Z VRB04KT 8SM FEW044 BKN140 OVC250 26/20 A2993

2010/08/10 10:54
KJST 101054Z AUTO 23003KT 6SM HZ OVC100 20/17 A3005

2010/08/10 10:55
KLCK 101055Z AUTO 00000KT 5SM BR CLR 22/21 A2998

2010/08/10 10:53
KLEB 101053Z 00000KT 1/4SM FG VV001 20/18 A2994

2010/08/10 10:51
KLGA 101051Z 06005KT 9SM OVC140 26/19 A2993

2010/08/10 10:53
KLUK 101053Z 00000KT 5SM MIFG CLR 22/22 A2997

2010/08/10 10:54
KLWM 101054Z 25005KT 3SM BR CLR 23/21 A2992

2010/08/10 10:54
KLYH 101054Z 22004KT 3SM BR CLR 22/21 A3002

2010/08/10 10:56
KMDT 101056Z 00000KT 4SM HZ OVC120 25/22 A2993

2010/08/10 10:52
KMFD 101052Z 00000KT 2 1/2SM BR CLR 22/19 A3000

2010/08/10 10:53
KMGW 101053Z 00000KT 6SM HZ BKN050 BKN100 21/18 A3002

2010/08/10 10:53
KMHT 101053Z 33006KT 6SM BR SCT120 22/21 A2989

2010/08/10 10:54
KMIV 101054Z AUTO 00000KT 4SM BR CLR 24/23 A2992

2010/08/10 10:53
KMRB 101053Z AUTO 00000KT 6SM HZ CLR 21/18 A2997

2010/08/10 10:53
KMSS 101053Z AUTO 22006KT 10SM OVC004 22/21 A2993

2010/08/10 10:50
KMYR 101050Z 00000KT 10SM SCT025 26/24 A3005

2010/08/10 10:54
KNKT 101054Z AUTO 25004KT 10SM BKN075 25/24 A3002

2010/08/10 10:51
KORF 101051Z 23007KT 10SM FEW040 25/23 A2998

2010/08/10 10:54
KORH 101054Z 27006KT 3SM BR FEW005 SCT075 21/20 A2995

2010/08/10 10:54
KPHF 101054Z 23005KT 10SM FEW055 SCT075 26/23 A2998

2010/08/10 10:54
KPHL 101054Z 20003KT 9SM FEW100 BKN150 BKN200 26/22 A2993

2010/08/10 10:51
KPIT 101051Z 00000KT 6SM HZ FEW048 SCT075 OVC100 22/18 A2998

2010/08/10 11:00
RJOT 101100Z 12005KT 9999 FEW025 SCT140 BKN/// 26/24 Q1013

2010/08/10 11:00
RJFO 101100Z 13017KT 9999 FEW015 SCT060 BKN/// 26/25 Q1011

2010/08/10 10:53
KPKB 101053Z 00000KT 6SM BR OVC110 21/19 A3002

2010/08/10 10:53
KPOU 101053Z VRB03KT 2 1/2SM -RA BR OVC030 22/21 A2994

2010/08/10 10:55
KPQI 101055Z AUTO 00000KT 10SM CLR 15/13 A2982

2010/08/10 10:55
KPSM 101055Z COR 31006KT 4SM BR SCT140 21/21 A2988

2010/08/10 10:55
KPSM 101055Z 31006KT 4SM SCT140 21/21 A2988

2010/08/10 10:51
KPVD 101051Z 20006KT 7SM FEW110 SCT112 SCT250 22/21 A2992

2010/08/10 10:51
KPWM 101051Z 27004KT 9SM FEW120 21/19 A2989

2010/08/10 10:54
KRDG 101054Z 00000KT CLR 24/21

2010/08/10 10:51
KRDU 101051Z 24004KT 6SM BR BKN250 24/22 A3002

2010/08/10 10:54
KRIC 101054Z 23003KT 9SM FEW250 25/21 A2996

2010/08/10 10:54
KROA 101054Z 34003KT 7SM CLR 24/21 A3005

2010/08/10 10:54
KROC 101054Z 00000KT 2SM R04/6000VP6000FT BR FEW070 SCT100 SCT250 21/20 A2995

2010/08/10 10:53
KRWI 101053Z AUTO 22005KT 2 1/2SM BR BKN002 24/23 A3001

2010/08/10 10:53
KSAV 101053Z 00000KT 10SM FEW015 SCT025 SCT250 25/24 A3000

2010/08/10 10:54
KSBY 101054Z 22003KT 4SM BR CLR 23/23 A2996

2010/08/10 10:51
KSLK 101051Z AUTO 00000KT M1/4SM FG BKN001 OVC008 17/17 A2997

2010/08/10 10:54
KSYR 101054Z 00000KT 5SM BR SCT024 BKN041 BKN055 22/21 A2994

2010/08/10 10:51
KTEB 101051Z 03005KT 8SM CLR 25/19 A2993

2010/08/10 10:52
KTOL 101052Z 00000KT M1/4SM FG BKN001 OVC005 21/21 A2997

2010/08/10 10:53
KTTN 101053Z 00000KT 6SM HZ CLR 24/21 A2993

2010/08/10 10:55
KWRI 101055Z AUTO 00000KT 9SM CLR 23/22 A2992

2010/08/10 10:51
KYNG 101051Z 00000KT 7SM FEW045 SCT080 SCT250 22/18 A2998

2010/08/10 10:53
KZZV 101053Z AUTO 00000KT 3SM BR CLR 20/19 A2999

2010/08/10 11:00
OIBA 101100Z 02008KT CAVOK 37/27 Q0998 A2948

2010/08/10 11:00
OIBV 101100Z 16010KT 7000 NSC 37/27 Q0998 A2950

2010/08/10 11:00
OIFS 101100Z 09006KT 9999 SCT040 30/M03 Q1021 A3017

2010/08/10 11:00
OIIP 101100Z 00000KT 9999 FEW040 34/00 Q1014

2010/08/10 11:00
OIMB 101100Z 21004KT CAVOK 33/12 Q1013 A2994

2010/08/10 11:00
OIMN 101100Z 05018KT 9999 FEW040 33/06 Q1016 A3000

2010/08/10 11:00
OIMS 101100Z 36008KT CAVOK 36/02 Q1013 A2994

2010/08/10 11:00
OIMT 101100Z 06016KT CAVOK 38/01 Q1008 A2977 926.3

2010/08/10 11:00
OIZJ 101100Z 12016KT 4000 SA NSC 32/27 Q1000 A2955

2010/08/10 11:00
OIAG 101100Z 24004KT 9999 SCT040 48/08 Q0999 A2951

2010/08/10 11:00
OIAM 101100Z 20010KT CAVOK 43/20 Q0998 A2948

2010/08/10 11:00
OICI 101100Z 34008KT 9999 FEW040 SCT100 36/M04 Q1013 A2992 864.0

2010/08/10 11:00
OIKQ 101100Z 06010KT 7000 SKC 36/26 Q0996 A2941

2010/08/10 11:00
OINN 101100Z 05006KT 9999 FEW030TCU FEW110 32/25 Q1009 A2980

2010/08/10 11:00
OINR 101100Z 09004KT 9999 FEW030 31/23 Q1009 A2979

2010/08/10 11:00
OISL 101100Z 00000KT CAVOK 42/05 Q1004 A2966

2010/08/10 11:00
OISY 101100Z 08004KT 9999 FEW040 33/08 Q1019 A3011

2010/08/10 11:00
OITZ 101100Z 10008KT 9999 SCT035 33/02 Q1016 A3002

2010/08/10 11:00
OIBJ 101100Z 22020KT CAVOK 34/26 Q1005 A2968

2010/08/10 11:00
OIBS 101100Z 08016KT CAVOK 35/27 Q0999 A2950

2010/08/10 10:51
KELP 101051Z 14004KT 10SM CLR 24/14 A3002

2010/08/10 10:53
KESF 101053Z AUTO 00000KT 9SM FEW028 SCT043 BKN065 25/24 A2995

2010/08/10 10:53
KEYW 101053Z 21007KT 5SM +RA BR FEW018 BKN030 OVC038 26/23 A2985

2010/08/10 10:53
KFLL 101053Z 15010KT 9SM -RA FEW012 SCT043 SCT060 25/24 A2988

2010/08/10 10:53
KFSM 101053Z 05004KT 10SM CLR 26/24 A2992

2010/08/10 10:53
KFTW 101053Z 00000KT 10SM CLR 26/21 A2991

2010/08/10 10:53
KFTY 101053Z 00000KT 2 1/2SM BR CLR 23/22 A3003

2010/08/10 10:53
KGGG 101053Z 23003KT 10SM CLR 26/23 A2993

2010/08/10 10:52
KGLS 101052Z 27005KT 10SM CLR 28/26 A2991

2010/08/10 10:53
KGNV 101053Z 06003KT 10SM CLR 24/23 A2993

2010/08/10 10:53
KGPT 101053Z AUTO 00000KT 6SM BR CLR 26/24 A2993

2010/08/10 10:53
KGUP 101053Z AUTO 00000KT 10SM CLR 12/09 A3024

2010/08/10 10:53
KGWO 101053Z AUTO 00000KT 4SM BR CLR 23/23 A2995

2010/08/10 10:53
KHOT 101053Z AUTO 00000KT 10SM CLR 27/24 A2994

2010/08/10 10:53
KHOU 101053Z 21003KT 10SM FEW020 SCT250 26/24 A2990

2010/08/10 10:52
KHRL 101052Z 12004KT 9SM CLR 26/26 A2986

2010/08/10 10:53
KHRO 101053Z AUTO 27004KT 10SM CLR 26/21 A2998

2010/08/10 10:53
KHSV 101053Z 11004KT 5SM BR FEW250 25/23 A2999

2010/08/10 10:53
KIAH 101053Z 00000KT 10SM FEW250 27/24 A2991

2010/08/10 10:54
KJAN 101054Z 00000KT 9SM CLR 24/23 A2995

2010/08/10 10:56
KJAX 101056Z 11006KT 10SM FEW020 SCT150 SCT250 26/23 A2995

2010/08/10 10:53
KJBR 101053Z AUTO 00000KT 9SM CLR 26/24 A2993

2010/08/10 10:53
KLBB 101053Z 28004KT 10SM FEW120 19/17 A3001

2010/08/10 10:53
KLCH 101053Z AUTO 00000KT 10SM CLR 26/24 A2993

2010/08/10 10:53
KLFT 101053Z 00000KT 10SM FEW046 24/23 A2993

2010/08/10 10:53
KLIT 101053Z 23004KT 7SM FEW075 SCT250 26/24 A2993

2010/08/10 10:56
KLRD 101056Z 13007KT 10SM CLR 28/25 A2989

2010/08/10 10:50
KLRU 101050Z AUTO 26004KT 10SM CLR 21/11 A3007

2010/08/10 10:53
KMAF 101053Z 08005KT 10SM CLR 21/19 A2999

2010/08/10 10:53
KMCN 101053Z AUTO 00000KT 5SM BR CLR 23/22 A3001

2010/08/10 10:53
KMCO 101053Z 08006KT 10SM FEW026 FEW080 FEW250 24/23 A2992

2010/08/10 10:58
KMEI 101058Z 00000KT 6SM BR CLR 23/23 A2997

2010/08/10 10:50
LIBC 101050Z 03010KT CAVOK 30/12 Q1014 RMK VIS MIN 9999

2010/08/10 10:50
LIBG 101050Z 36012KT 330V040 CAVOK 31/14 Q1013 RMK VIS MIN 9999

2010/08/10 10:55
LIBN 101055Z 35015KT CAVOK 29/16 Q1013 RMK BKN FEW100 SCT180 VIS MIN 9999 WIND THR14 36012KT BLU

2010/08/10 10:50
LICD 101050Z 31007KT CAVOK 28/19 Q1016 RMK VIS MIN 9999

2010/08/10 10:55
LICG 101055Z 32004KT CAVOK 29/18 Q1016 RMK SKC VIS MIN 9999 WIND THR08 /////KT WIND THR21 35005KT BLU

2010/08/10 10:55
LICZ 101055Z 06013KT CAVOK 34/12 Q1014 RMK SKC VIS MIN 9999 WIND THR28 /////KT BLU

2010/08/10 10:50
LIEA 101050Z 30008KT 240V330 CAVOK 30/17 Q1016 RMK VIS MIN 9999

2010/08/10 10:50
LIEO 101050Z 05009KT CAVOK 29/16 Q1016 RMK VIS MIN 9999

2010/08/10 10:55
LIMH 101055Z 21007KT 9999 FEW000TCU 05/M05 Q1031 RMK SCT MON CLD SCT VAL CLD SCT VIS MIN 9999

2010/08/10 10:55
LIMU 101055Z 09006KT 9999 FEW023 26/21 Q1018 RMK SCT QUK 1 QUL 1 SE VIS MAR 12 KM VIS MIN 9999

2010/08/10 10:55
LIRE 101055Z 22008KT 9999 FEW020 27/22 Q1015 RMK FEW VIS MIN 9999 WIND THR31 21009KT BLU

2010/08/10 10:55
LIRH 101055Z 17002KT 9999 FEW040 32/17 Q1015 RMK FEW MON LIB NC VIS MIN 9999 WIND THR16 11003KT BLU

2010/08/10 10:50
LIRU 101050Z 29003KT CAVOK 32/20 Q1015 RMK VIS MIN 9999

2010/08/10 10:55
LIRX 101055Z 36005KT 9999 BKN023 24/18 Q1016 RMK BKN VIS MIN 9999N VIS MAR 15 KM

2010/08/10 10:55
LIVO 101055Z 12003KT 9999 SCT030 23/16 Q1018 RMK SCT VIS MIN 9999

2010/08/10 10:55
LIVR 101055Z 14013KT 9999 RA BKN020 14/09 Q1023 RMK BKN MON GEN INC VIS MIN 9999

2010/08/10 11:00
LECV 101100Z 17003KT 9999 FEW050 33/18 Q1022

2010/08/10 11:00
LELO 101100Z VRB02KT CAVOK 25/15 Q1018

2010/08/10 11:00
LERI 101100Z 10003KT CAVOK 36/23 Q1016 NOSIG

2010/08/10 11:00
LERT 101100Z 18005KT CAVOK 36/08 Q1017 NOSIG

2010/08/10 10:50
LIBD 101050Z 01009KT 340V050 CAVOK 28/17 Q1014 RMK VIS MIN 9999

2010/08/10 10:50
LIBP 101050Z 01007KT CAVOK 27/20 Q1015 RMK VIS MIN 9999

2010/08/10 10:45
LIBR 101045Z 33018G28KT 9999 FEW018CB 26/22 Q1013 NOSIG RMK BKN SCT090 BKN200 VIS MIN 9999 WIND THR13 /////KT WIND THR31 31015KT BLU

2010/08/10 10:55
LIBV 101055Z 36010KT CAVOK 29/18 Q1013 RMK BKN BKN100 VIS MIN 9999 WIND THR14 34012KT BLU

2010/08/10 10:50
LICA 101050Z 26014KT 9999 FEW030 27/20 Q1015 RMK VIS MIN 9999

2010/08/10 10:50
LICC 101050Z 07010KT CAVOK 29/17 Q1015 RMK VIS MIN 9999

2010/08/10 10:50
LICR 101050Z 35013KT 9999 FEW025 30/16 Q1014 RMK VIS MIN 9999

2010/08/10 10:55
LICT 101055Z 33010KT CAVOK 31/10 Q1015 RMK SKC VIS MIN 9999 WIND THR13 32007KT BLU

2010/08/10 10:55
LIMY 101055Z /////KT 9999 SCT025 23/16 Q1018 RMK BKN SCT190 VAL FOSCHIA VIS MIN 9999

2010/08/10 10:45
LIPR 101045Z 03007KT 9999 FEW025 27/25 Q1015 RMK FEW VIS MIN 9999 WIND THR31 04007KT BLU

2010/08/10 10:50
LIQN 101050Z 33004KT 9999 FEW045 29/14 Q1016 RMK VIS MIN 9999

2010/08/10 10:55
LIRL 101055Z 19005KT 9999 FEW025 29/20 Q1015 RMK FEW MON LIB NC VIS MIN 9999 BLU

2010/08/10 10:55
LIRM 101055Z 24011KT 9999 FEW020 33/29 Q1015 RMK FEW VIS MIN 9999 WIND THR06 21008KT BLU

2010/08/10 10:50
LIRZ 101050Z VRB02KT 9999 FEW050 30/13 Q1015 RMK VIS MIN 9999

2010/08/10 10:55
LIVT 101055Z 23006KT CAVOK 29/19 Q1014 RMK SKC QUK 1 QUL 1 SW VIS MAR 25 KM VIS MIN 9999

2010/08/10 10:52
KABI 101052Z 19006KT 10SM CLR 27/19 A2996

2010/08/10 10:56
KABQ 101056Z 33005KT 10SM SCT120 21/09 A3015

2010/08/10 10:53
KABY 101053Z 08004KT 10SM CLR 25/24 A2999

2010/08/10 10:51
KACT 101051Z 21006KT 10SM CLR 26/23 A2991

2010/08/10 10:53
KAEX 101053Z 00000KT 10SM BKN060 OVC075 26/24 A2993

2010/08/10 10:53
KAFW 101053Z 00000KT 10SM CLR 26/21 A2991

2010/08/10 10:51
KAHN 101051Z AUTO 00000KT 3SM BR CLR 22/21 A3004

2010/08/10 10:53
KALI 101053Z AUTO 15003KT 2 1/2SM BR CLR 24/24 A2987

2010/08/10 10:53
KAMA 101053Z 20007KT 10SM CLR 19/17 A3003

2010/08/10 10:53
KANB 101053Z AUTO 06004KT 6SM HZ CLR 25/21 A3001

2010/08/10 10:53
KAPF 101053Z 09009KT 10SM FEW008 25/24 A2983

2010/08/10 10:52
KATL 101052Z 00000KT 7SM SCT250 25/21 A3004

2010/08/10 10:53
KAUS 101053Z 00000KT 10SM CLR 24/23 A2992

2010/08/10 10:53
KBFM 101053Z 34005KT 6SM BR CLR 26/24 A2995

2010/08/10 10:53
KBHM 101053Z 00000KT 9SM CLR 26/23 A3000

2010/08/10 10:53
KBNA 101053Z 18004KT 6SM BR FEW047 BKN200 25/23 A2999

2010/08/10 10:53
KBPT 101053Z 00000KT 10SM CLR 25/24 A2992

2010/08/10 11:00
KBQK 101100Z AUTO 12004KT 10SM CLR 27/25 A2998

2010/08/10 10:53
KBRO 101053Z 12004KT 10SM CLR 28/26 A2986

2010/08/10 10:53
KBTR 101053Z 04003KT 1 3/4SM BR SCT002 BKN200 23/23 A2994

2010/08/10 10:53
KCEW 101053Z AUTO 00000KT 3SM BR CLR 23/22 A2995

2010/08/10 10:53
KCHA 101053Z 00000KT 10SM SCT150 BKN250 26/23 A3002

2010/08/10 10:53
KCLL 101053Z AUTO 00000KT 10SM CLR 26/23 A2992

2010/08/10 10:53
KCNM 101053Z AUTO 00000KT 10SM CLR 19/16 A2999

2010/08/10 10:51
KCRP 101051Z 15003KT 10SM FEW017 26/25 A2988

2010/08/10 10:51
KCSG 101051Z AUTO 06003KT 9SM CLR 26/20 A2999

2010/08/10 10:53
KCSV 101053Z AUTO 00000KT 6SM HZ BKN070 23/21 A3008

2010/08/10 10:53
KDAB 101053Z 11005KT 10SM FEW020 SCT120 SCT250 27/23 A2993

2010/08/10 10:53
KDAL 101053Z 22004KT 10SM CLR 28/21 A2991

2010/08/10 10:53
KDFW 101053Z 20006KT 10SM CLR 27/21 A2990

2010/08/10 10:53
KDHN 101053Z 06004KT 7SM CLR 23/22 A3000

2010/08/10 10:55
KDLF 101055Z AUTO 09006KT 10SM FEW020 BKN041 27/23 A2992

2010/08/10 10:53
KDMN 101053Z AUTO 00000KT 10SM CLR 18/10 A3005

2010/08/10 10:53
KMEM 101053Z 19005KT 10SM FEW250 26/24 A2995

2010/08/10 10:53
KMFE 101053Z AUTO 09003KT 10SM CLR 27/26 A2986

2010/08/10 10:53
KMGM 101053Z 10003KT 7SM FEW070 24/22 A2997

2010/08/10 10:53
KMIA 101053Z 12009KT 8SM BKN025CB BKN090 OVC130 26/24 A2987

2010/08/10 10:53
KMKL 101053Z AUTO 00000KT 4SM BR CLR 25/24 A2996

2010/08/10 10:53
KMLB 101053Z 11008KT 10SM FEW018 BKN050 27/23 A2991

2010/08/10 10:53
KMLC 101053Z AUTO 00000KT 10SM CLR 25/20 A2992

2010/08/10 10:53
KMLU 101053Z A2995

2010/08/10 10:56
KMOB 101056Z 36005KT 9SM FEW100 SCT200 26/23 A2995

2010/08/10 10:53
KMSL 101053Z AUTO 00000KT 2SM BR SCT001 24/23 A3000

2010/08/10 10:53
KMSY 101053Z 00000KT 9SM FEW250 26/25 A2993

2010/08/10 10:53
KNEW 101053Z AUTO 03006KT 9SM SCT014 29/26 A2994

2010/08/10 10:56
KNGP 101056Z 20003KT 10SM FEW015 28/25 A2987

2010/08/10 10:52
KOKC 101052Z 16005KT 10SM FEW200 24/21 A2990

2010/08/10 10:53
KPBI 101053Z 14014KT 6SM +RA SCT022CB BKN035 BKN060 27/23 A2988

2010/08/10 10:53
KPDK 101053Z 00000KT 10SM CLR 24/21 A3005

2010/08/10 10:53
KPIE 101053Z 10010KT 10SM BKN013 BKN023 26/23 A2986

2010/08/10 10:53
KPNS 101053Z 03006KT 8SM CLR 26/24 A2993

2010/08/10 10:51
KROW 101051Z AUTO 00000KT 10SM CLR 19/17 A3001

2010/08/10 10:53
KRSW 101053Z AUTO 10011KT 10SM OVC006 24/23 A2984

2010/08/10 10:53
KSAT 101053Z 20006KT 10SM FEW016 SCT024 27/24 A2993

2010/08/10 10:56
KSHV 101056Z 00000KT 10SM SCT290 26/23 A2991

2010/08/10 10:51
KSJT 101051Z AUTO 22004KT 10SM CLR 27/20 A2995

2010/08/10 10:53
KSRQ 101053Z 09010KT 10SM BKN012 25/23 A2984

2010/08/10 10:53
KSSI 101053Z AUTO 14008KT 10SM FEW023 BKN049 28/23 A2997

2010/08/10 10:53
KTCC 101053Z AUTO 22007KT 10SM -RA FEW032 BKN110 23/17 A3004

2010/08/10 10:53
KTCL 101053Z AUTO 06003KT 4SM BR CLR 26/24 A2996

2010/08/10 10:53
KTCS 101053Z AUTO 33004KT 10SM CLR 21/11 A3008

2010/08/10 10:53
KTLH 101053Z 06006KT 10SM FEW013 26/23 A2994

2010/08/10 10:53
KTPA 101053Z 08003KT 10SM FEW010 SCT020 25/23 A2987

2010/08/10 10:53
KTRI 101053Z 00000KT 6SM BR BKN110 22/21 A3007

2010/08/10 10:53
KTUL 101053Z 16006KT 10SM CLR 28/20 A2990

2010/08/10 10:53
KTUP 101053Z 00000KT 9SM CLR 25/23 A2997

2010/08/10 10:53
KTXK 101053Z AUTO 00000KT 10SM CLR 26/23 A2992

2010/08/10 10:53
KTYR 101053Z 23003KT 10SM CLR 27/24 A2995

2010/08/10 10:53
KTYS 101053Z 00000KT 3SM BR BKN110 25/23 A3002

2010/08/10 10:51
KVCT 101051Z AUTO 06003KT 10SM CLR 25/24 A2990

2010/08/10 10:53
KVLD 101053Z 08003KT 10SM CLR 24/23 A2996

2010/08/10 10:53
KVRB 101053Z AUTO 13006KT 10SM CLR 26/24 A2989

2010/08/10 10:53
TIST 101053Z 09007KT 10SM FEW070 29/24 A2994

2010/08/10 10:53
TISX 101053Z 08008KT 10SM CLR 27/24 A2994

2010/08/10 10:56
TJSJ 101056Z 13004KT 10SM FEW022 SCT045 SCT070 27/24 A2996

2010/08/10 11:00
TKPK 101100Z 09007KT 9999 SCT015 28/25 Q1014

2010/08/10 10:53
KABR 101053Z AUTO 15005KT 10SM BKN018 BKN024 OVC050 24/22 A2985

2010/08/10 10:54
KALO 101054Z 19003KT 4SM -RA BR SCT005 BKN010 OVC025 24/24 A2996

2010/08/10 10:53
KASE 101053Z AUTO 20005KT 10SM SCT100 09/06 A3031

2010/08/10 10:53
KATY 101053Z AUTO 00000KT 10SM OVC007 24/23 A2991

2010/08/10 10:53
KAXN 101053Z AUTO 10005KT 6SM BR CLR 21/20 A2995

2010/08/10 10:53
KAZO 101053Z 00000KT 1/2SM FG VV002 20/19 A3000

2010/08/10 10:53
KBDE 101053Z AUTO 21004KT 10SM CLR 19/19 A2992

2010/08/10 10:53
KBFF 101053Z AUTO 12005KT 10SM CLR 15/14 A2998

2010/08/10 10:52
KBIS 101052Z 08008KT 10SM CLR 21/19 A2983

2010/08/10 10:55
KBKF 101055Z 21006KT 25SM FEW120 15/12 A3012

2010/08/10 10:53
KBRL 101053Z AUTO 03004KT 10SM CLR 26/22 A2993

2010/08/10 10:53
KBTL 101053Z 00000KT 1/4SM FG OVC001 19/19 A3001

2010/08/10 10:53
KCGI 101053Z AUTO 13003KT 7SM CLR 24/23 A2993

2010/08/10 10:52
KCID 101052Z 29006KT 8SM -TSRA SCT041 23/22 A2995

2010/08/10 10:55
KCIU 101055Z AUTO 36005KT 7SM OVC004 19/19 A2998

2010/08/10 10:53
KCMI 101053Z 07005KT 6SM BR CLR 25/23 A2996

2010/08/10 10:53
KCMX 101053Z AUTO 28003KT 4SM BR CLR 16/16 A2997

2010/08/10 10:54
KCOS 101054Z AUTO 33003KT 10SM CLR 17/11 A3017

2010/08/10 10:54
KCOU 101054Z AUTO 11004KT 8SM CLR 25/24 A2994

2010/08/10 10:53
KCPR 101053Z 25006KT 10SM CLR 13/02 A3004

2010/08/10 10:53
KCYS 101053Z AUTO 28012KT 10SM CLR 14/08 A3013

2010/08/10 10:52
KDDC 101052Z AUTO 29005KT 10SM CLR 22/18 A2992

2010/08/10 10:54
KDEC 101054Z 00000KT 10SM CLR 24/21 A2995

2010/08/10 10:53
KDEN 101053Z 23008KT 10SM SCT140 16/12 A3010

2010/08/10 10:53
KDET 101053Z 00000KT 3SM BR CLR 21/21 A2997

2010/08/10 10:55
KDLH 101055Z 00000KT 9SM CLR 20/17 A2999

2010/08/10 10:54
KDSM 101054Z 08003KT 10SM FEW009 SCT050 BKN140 OVC200 23/21 A2994

2010/08/10 10:53
KDTW 101053Z 00000KT 3SM R04R/1800VP6000FT CLR 21/21 A2997

2010/08/10 10:56
KEAU 101056Z 00000KT 1 1/2SM BR CLR 19/19 A2997

2010/08/10 10:55
KEGE 101055Z AUTO 00000KT 10SM CLR 11/08 A3027

2010/08/10 10:53
KELO 101053Z AUTO 00000KT 7SM CLR 16/16 A2998

2010/08/10 10:50
LIMG 101050Z 07011KT 9999 FEW040 27/21 Q1016 RMK VIS MIN 9999

2010/08/10 10:55
LIMN 101055Z VRB03KT 9999 SCT020 27/16 Q1016 RMK SCT VIS MIN 9999 BLU

2010/08/10 10:55
LIMS 101055Z 08004KT 9999 FEW030 27/20 Q1016 RMK FEW VIS MIN 9999 WIND THR30 06004KT BLU

2010/08/10 10:55
LIPA 101055Z 26002KT 9999 FEW040 28/22 Q1015 RMK FEW VIS MIN 9999 A3000 BLU

2010/08/10 10:55
LIPC 101055Z 08006KT 9999 FEW030 29/20 Q1015 RMK FEW VIS MIN 9999 WIND THR12 08006KT BLU

2010/08/10 10:55
LIPF 101055Z 00000KT 9999 SCT040 29/22 Q1015 RMK SCT VIS MIN 9999

2010/08/10 10:45
LIPH 101045Z 33002KT 9999 FEW020 28/19 Q1016 RMK FEW VIS MIN 9999 WIND THR07 /////KT BLU

2010/08/10 10:55
LIPI 101055Z 05004KT CAVOK 29/18 Q1015 RMK SKC VIS MIN 9999 WIND THR06 /////KT BLU

2010/08/10 10:55
LIPL 101055Z 23003KT CAVOK 27/22 Q1016 RMK BKN BKN100 VIS MIN 9999 BLK BLU

2010/08/10 10:55
LIPS 101055Z 14002KT 9999 FEW025 29/17 Q1016 RMK FEW VIS MIN 9999 BLU

2010/08/10 10:45
LIPX 101045Z 14004KT 9999 FEW050 29/16 Q1016 RMK FEW VIS MIN 9999 BLU

2010/08/10 10:50
LIPY 101050Z 35007KT 310V020 9999 FEW050 27/21 Q1015 RMK VIS MIN 9999

2010/08/10 10:55
LIVC 101055Z 17007KT 0300 FG VV001 13/10 Q1026 RMK MON INVIS VAL INVIS VIS MIN 0300

2010/08/10 10:55
LIVP 101055Z 18008KT 1500 BR BKN000TCU 14/11 Q1024 RMK BKN MON CIME INC VAL CLD SCT VIS MIN 1500

2010/08/10 11:00
LPFL 101100Z 16007KT 130V190 9999 FEW022 SCT037 24/17 Q1022

2010/08/10 11:00
LPHR 101100Z 12006KT 070V150 9999 FEW016 SCT040 25/15 Q1022

2010/08/10 11:00
LPPD 101100Z 06006KT 020V110 9999 FEW022 BKN040 22/13 Q1021

2010/08/10 11:05
MMNL 101105Z RTD 14006KT 10SM SKC 27/24 A2987 RMK RTS

2010/08/10 11:05
KBRD 101105Z AUTO 00000KT 1 3/4SM BR CLR 19/17 A2996 RMK AO2

2010/08/10 11:02
KBTR 101102Z 06003KT 3/4SM BR SCT002 BKN200 23/23 A2994 RMK AO2 VIS SW-NW 2 SCT V BKN RVRNO

2010/08/10 11:03
KCAE 101103Z 00000KT 1/4SM FG OVC002 24/23 A3002 RMK AO2 TWR VIS 1/4 RVRNO

2010/08/10 11:05
KFFC 101105Z AUTO 00000KT 2 1/2SM BR CLR 21/20 A3004 RMK AO2

2010/08/10 11:05
KUTS 101105Z AUTO 00000KT 3/4SM BR CLR 25/23 A2993 RMK AO2

2010/08/10 11:04
PAAQ 101104Z AUTO 00000KT 10SM BKN006 OVC012 12/10 A2979 RMK AO2 TSNO

2010/08/10 11:04
PANT 101104Z 14003KT 1/4SM FG OVC001 12/11 A3003 RMK AO2

2010/08/10 11:00
SAVC 101100Z 29008KT CAVOK 06/M02 Q1020

2010/08/10 11:00
LKKV 101100Z 29003KT 9999 FEW048 21/12 Q1019

2010/08/10 11:00
LKMT 101100Z VRB01KT 9999 FEW036 23/14 Q1018 NOSIG

2010/08/10 11:00
LKPR 101100Z 04004KT 330V090 9999 BKN045 23/12 Q1018 NOSIG

2010/08/10 11:00
LKTB 101100Z 21004KT 140V250 9999 SCT043 25/15 Q1018 NOSIG

2010/08/10 11:00
WSSS 101100Z 15010KT 9999 FEW016TCU BKN180 BKN300 30/26 Q1007 NOSIG

2010/08/10 11:00
YMML 101100Z 36008KT 7000 -RA SCT011 SCT028 OVC055 08/07 Q1010 FM1100 29008KT 9000 -RA SCT006 BKN010 INTER 1100/1130 4000 RA BKN008 INTER 1130/1400 4000 RA BKN005

2010/08/10 10:45
LHDC 101045Z 26003KT 9999 FEW036 25/15 Q1018 NOSIG

2010/08/10 10:45
LHKE 101045Z 32002MPS 9999 FEW045 26/15 Q1017 NOSIG RMK BLU

2010/08/10 10:45
LHPA 101045Z 27002MPS 9999 FEW030 25/16 Q1019 NOSIG RMK BLU

2010/08/10 10:45
LHPP 101045Z 07004KT 9999 FEW040 SCT200 26/16 Q1019

2010/08/10 10:45
LHPR 101045Z 30003KT 9999 FEW033 SCT036 25/16 Q1018

2010/08/10 10:45
LHSM 101045Z 15002KT 9999 FEW040 25/16 Q1019 NOSIG

2010/08/10 10:45
LHSN 101045Z 31002MPS 9999 FEW040 26/15 Q1017 NOSIG RMK BLU

2010/08/10 10:45
LHUD 101045Z 35006KT 9999 FEW041 27/17 Q1018

2010/08/10 11:00
YMHB 101100Z 11007KT 7000 -SHRA FEW020 SCT040 BKN050 12/10 Q1021

2010/08/10 10:54
KEVV 101054Z 00000KT 6SM BR CLR 25/23 A2995

2010/08/10 10:53
KFAR 101053Z 13004KT 10SM CLR 22/19 A2988

2010/08/10 10:53
KFNT 101053Z AUTO 27003KT M1/4SM FG 19/19 A2998

2010/08/10 10:56
KFSD 101056Z 00000KT 10SM -TSRA BKN037 OVC100CB 21/19 A2993

2010/08/10 10:54
KFWA 101054Z 03003KT 1SM BR SCT041 BKN250 23/22 A2998

2010/08/10 10:54
KGCK 101054Z AUTO 22003KT 10SM CLR 20/18 A2995

2010/08/10 10:53
KGFK 101053Z 14005KT 10SM SCT250 21/19 A2989

2010/08/10 10:53
KGJT 101053Z AUTO 10007KT 10SM CLR 16/04 A3010

2010/08/10 10:53
KGRB 101053Z AUTO 01005KT 1/4SM FG VV001 22/21 A2997

2010/08/10 10:53
KGRI 101053Z AUTO 08004KT 10SM CLR 20/18 A2988

2010/08/10 10:53
KGRR 101053Z 00000KT 1/8SM FG VV001 21/21 A3000

2010/08/10 10:53
KHIB 101053Z AUTO 00000KT 1/2SM FG OVC001 15/15 A2998

2010/08/10 10:55
KHON 101055Z AUTO 24013G18KT 6SM -RA BR SCT010 BKN015 OVC055 24/22 A2986

2010/08/10 10:53
KHUF 101053Z 00000KT 4SM BR CLR 23/22 A2995

2010/08/10 10:52
KHUT 101052Z AUTO 18005KT 10SM CLR 26/20 A2988

2010/08/10 10:53
KICT 101053Z 17008KT 10SM SCT200 26/21 A2988

2010/08/10 10:54
KIND 101054Z 14004KT 6SM HZ SCT130 BKN250 26/23 A2994

2010/08/10 10:55
KIRK 101055Z AUTO 02008KT 10SM CLR 24/22 A2996

2010/08/10 10:55
KJAC 101055Z 00000KT 10SM CLR 06/03 A3017

2010/08/10 10:53
KJLN 101053Z AUTO 17004KT 10SM FEW060 24/20 A2994

2010/08/10 10:56
KJMS 101056Z AUTO 00000KT 8SM SCT011 BKN033 20/19 A2989

2010/08/10 10:56
KJXN 101056Z 00000KT 2 1/2SM BR BKN001 OVC018 19/19 A3000

2010/08/10 10:53
KLAN 101053Z 00000KT M1/4SM R28L/0800V1400FT FG OVC004 19/19 A2999

2010/08/10 10:53
KLAR 101053Z AUTO 17007KT 10SM CLR 08/06 A3021

2010/08/10 10:53
KLBF 101053Z AUTO 12005KT 10SM CLR 19/19 A2989

2010/08/10 10:55
KLBL 101055Z 31007KT 10SM CLR 22/17 A2999

2010/08/10 10:54
KLEX 101054Z 15005KT 4SM BR CLR 24/22 A2999

2010/08/10 10:54
KLNK 101054Z 00000KT 10SM CLR 24/22 A2986

2010/08/10 10:53
KLOU 101053Z 00000KT 6SM BR CLR 26/24 A2996

2010/08/10 10:53
KLOZ 101053Z AUTO 00000KT 2 1/2SM BR SCT055 23/22 A3003

2010/08/10 10:53
KLSE 101053Z 11003KT 1/4SM FG OVC002 22/22 A2996

2010/08/10 10:53
KMBS 101053Z 33003KT 3SM BR CLR 21/21 A2998

2010/08/10 10:53
KMCI 101053Z 16007KT 10SM CLR 25/22 A2991

2010/08/10 10:51
KMDW 101051Z 05003KT 10SM FEW038 SCT200 BKN250 26/22 A2995

2010/08/10 10:52
KMHK 101052Z AUTO 00000KT 10SM CLR 26/21 A2984

2010/08/10 10:54
KMKC 101054Z 19005KT 10SM CLR 28/21 A2990

2010/08/10 10:52
KMKE 101052Z 00000KT 3SM BR FEW200 BKN250 21/21 A2997

2010/08/10 10:55
KMKG 101055Z 19003KT 1/4SM FG OVC002 20/19 A2999

2010/08/10 10:52
KMLI 101052Z 06012KT 10SM -TSRA SCT026 24/22 A2993

2010/08/10 10:54
KMOT 101054Z AUTO 07004KT 10SM FEW036 20/17 A2984

2010/08/10 10:53
KMSN 101053Z 00000KT 3SM BCFG BR FEW001 22/21 A2997

2010/08/10 10:53
KMSP 101053Z 13007KT 6SM BR FEW150 SCT200 24/22 A2994

2010/08/10 10:55
KOFF 101055Z AUTO 10005KT 10SM CLR 25/23 A2986

2010/08/10 10:52
KOMA 101052Z 15005KT 10SM FEW090 SCT250 27/23 A2986

2010/08/10 10:51
KORD 101051Z 03005KT 10SM FEW150 SCT180 BKN250 25/22 A2995

2010/08/10 10:53
KOSH 101053Z AUTO 00000KT M1/4SM FG VV001 22/21 A2997

2010/08/10 10:53
KOTM 101053Z AUTO 08005KT 10SM CLR 22/21 A2995

2010/08/10 10:56
KOWB 101056Z 18003KT 5SM BR CLR 26/25 A2996

2010/08/10 10:53
KPAH 101053Z AUTO 00000KT 3SM BR CLR 24/24 A2993

2010/08/10 10:53
KPIR 101053Z AUTO 04005KT 10SM -RA BKN038 OVC070 21/19 A2979

2010/08/10 10:54
KPLN 101054Z AUTO 00000KT 1 1/4SM BR OVC017 22/21 A2998

2010/08/10 10:53
KPTK 101053Z 00000KT 3SM BR FEW001 SCT120 21/21 A2997

2010/08/10 10:53
KPUB 101053Z AUTO 00000KT 10SM CLR 14/14 A3008

2010/08/10 10:52
KRAP 101052Z AUTO 19004KT 10SM OVC110 21/17 A2986

2010/08/10 10:54
KRFD 101054Z 00000KT 10SM OVC180 23/22 A2997

2010/08/10 10:54
KRKS 101054Z AUTO 00000KT 10SM CLR 11/00 A3019

2010/08/10 10:54
KRST 101054Z 11004KT 5SM BR CLR 22/22 A2998

2010/08/10 10:50
KSAW 101050Z 00000KT 1/4SM FG VV002 17/16 A2998

2010/08/10 10:56
KSDF 101056Z 13003KT 6SM HZ CLR 27/23 A2995

2010/08/10 10:53
KSDM 101053Z AUTO 00000KT 9SM OVC008 16/14 A2990

2010/08/10 10:52
KSGF 101052Z 18004KT 10SM CLR 24/23 A2996

2010/08/10 11:00
GMTA 101100Z 02008KT 8000 SCT013 25/22 Q1018

2010/08/10 10:54
KAPN 101054Z AUTO 00000KT 1/4SM FG VV001 21/20 A2998

2010/08/10 10:55
KINL 101055Z AUTO 00000KT 10SM FEW090 17/17 A2994

2010/08/10 10:54
KSBN 101054Z 00000KT 7SM SCT032 23/21 A2998

2010/08/10 10:53
KSLN 101053Z 18007KT 10SM CLR 27/21 A2984

2010/08/10 10:52
KSPI 101052Z 17004KT 10SM CLR 24/22 A2993

2010/08/10 10:53
KSTC 101053Z AUTO 11003KT 5SM BR CLR 20/19 A2993

2010/08/10 10:53
KSTJ 101053Z AUTO 13003KT 10SM CLR 26/21 A2989

2010/08/10 10:51
KSTL 101051Z 00000KT 9SM FEW130 SCT250 28/24 A2995

2010/08/10 10:53
KSTP 101053Z 14004KT 8SM CLR 23/22 A2995

2010/08/10 10:54
KSUS 101054Z 00000KT 7SM SCT070 25/24 A2992

2010/08/10 10:52
KSUX 101052Z 32015G23KT 8SM -RA FEW011 BKN036 OVC048 23/21 A2988

2010/08/10 10:53
KTVC 101053Z 00000KT 6SM BR OVC002 20/19 A2998

2010/08/10 10:54
KUIN 101054Z AUTO 19003KT 10SM CLR 26/24 A2992

2010/08/10 10:53
KWRL 101053Z AUTO 15003KT 10SM CLR 13/07 A2998

2010/08/10 10:53
KYIP 101053Z 00000KT 1/4SM FG BKN001 BKN009 19/18 A2998

2010/08/10 11:00
SARP 101100Z 14008KT CAVOK 09/06 Q1022

2010/08/10 11:00
SAWH 101100Z 14004KT 9999 BKN035 02/M01 Q0997

2010/08/10 11:00
HKJK 101100Z 04008KT 9999 BKN023 BKN090 20/14 Q1022 NOSIG

2010/08/10 11:00
SBCG 101100Z 13008KT 6000 NSC 15/11 Q1021

2010/08/10 10:53
KACV 101053Z AUTO 17006KT 8SM OVC003 11/10 A2990

2010/08/10 10:53
KALW 101053Z AUTO 20008KT 10SM CLR 17/08 A2988

2010/08/10 10:53
KBFI 101053Z 19006KT 10SM OVC015 14/11 A2995

2010/08/10 10:54
KBFL 101054Z AUTO 32004KT 10SM CLR 19/08 A2982

2010/08/10 10:53
KBIL 101053Z 22010KT 10SM CLR 14/12 A2991

2010/08/10 10:53
KBKE 101053Z AUTO 23005KT 10SM SCT085 12/09 A2991

2010/08/10 10:53
KBLI 101053Z AUTO 17005KT 10SM BKN010 OVC040 14/12 A2993

2010/08/10 10:53
KBOI 101053Z 20003KT 10SM CLR 18/13 A2984

2010/08/10 10:53
KBTM 101053Z AUTO 09005KT 10SM FEW075 BKN110 13/07 A3002

2010/08/10 10:53
KBUR 101053Z AUTO 13003KT 6SM BR CLR 15/13 A2989

2010/08/10 10:53
KBYI 101053Z AUTO 01005KT 10SM FEW120 13/12 A2993

2010/08/10 10:56
KBZN 101056Z AUTO 00000KT 10SM CLR 11/08 A3000

2010/08/10 10:53
KCDC 101053Z AUTO 00000KT 10SM CLR 13/02 A3012

2010/08/10 10:56
KCEC 101056Z AUTO 24003KT 1 1/2SM BR OVC002 12/11 A2992

2010/08/10 10:53
KCLM 101053Z AUTO 30005KT 7SM OVC003 11/10 A2995

2010/08/10 10:56
KCTB 101056Z AUTO 00000KT 10SM CLR 13/07 A2986

2010/08/10 10:56
KEKO 101056Z AUTO 17004KT 10SM CLR 12/04 A3000

2010/08/10 10:54
KEUG 101054Z 00000KT 10SM SCT040 10/08 A2998

2010/08/10 10:53
KFAT 101053Z 29006KT 10SM CLR 19/14 A2981

2010/08/10 10:56
KFLG 101056Z AUTO 00000KT 10SM FEW070 08/07 A3027

2010/08/10 10:54
KGCN 101054Z AUTO 00000KT 10SM BKN080 09/07 A3023

2010/08/10 10:53
KGEG 101053Z 18008KT 10SM FEW100 SCT120 OVC200 16/08 A2982

2010/08/10 10:53
KGGW 101053Z AUTO 34003KT 10SM CLR 18/16 A2977

2010/08/10 10:53
KGTF 101053Z 20009KT 10SM CLR 16/07 A2986

2010/08/10 10:53
KHLN 101053Z AUTO 00000KT 10SM CLR 12/09 A2993

2010/08/10 10:53
KHQM 101053Z AUTO 00000KT 3SM BR BKN008 OVC013 13/12 A2996

2010/08/10 10:53
KIDA 101053Z AUTO 34005KT 10SM CLR 11/09 A3002

2010/08/10 10:56
KIWA 101056Z AUTO 10005KT 10SM SCT120 31/11 A2985

2010/08/10 10:56
KLAS 101056Z 18005KT 10SM CLR 26/M02 A2983

2010/08/10 10:53
KLAX 101053Z 28005KT 6SM BR OVC007 15/13 A2991

2010/08/10 10:53
KLGB 101053Z AUTO 29004KT 7SM SCT008 16/13 A2990

2010/08/10 10:53
KLMT 101053Z AUTO 00000KT 10SM FEW090 12/07 A2998

2010/08/10 11:06
CYZE 101106Z AUTO 00000KT 1 1/4SM BR FEW003 16/16 A2994 RMK SLP140 DENSITY ALT 800FT VIS VRB 1/2-3

2010/08/10 10:53
KLVM 101053Z AUTO 27015G21KT 10SM CLR 16/08 A2996

2010/08/10 10:53
KMFR 101053Z AUTO 00000KT 10SM CLR 17/10 A2992

2010/08/10 10:53
KMLS 101053Z AUTO 23004KT 10SM CLR 17/14 A2983

2010/08/10 10:54
KMRY 101054Z AUTO 19003KT 10SM OVC003 12/10 A2991

2010/08/10 10:53
KMSO 101053Z AUTO 00000KT 10SM CLR 12/11 A2992

2010/08/10 10:53
KMYV 101053Z AUTO 17004KT 10SM CLR 16/12 A2981

2010/08/10 10:56
KNTD 101056Z AUTO 00000KT 9SM OVC007 15/13 A2990

2010/08/10 10:53
KOAK 101053Z 00000KT 10SM OVC006 14/12 A2990

2010/08/10 10:53
KOGD 101053Z AUTO 17008KT 10SM CLR 17/03 A2999

2010/08/10 10:54
KOLM 101054Z AUTO 23007KT 10SM OVC019 13/09 A2996

2010/08/10 10:53
KONT 101053Z 00000KT 5SM HZ CLR 16/12 A2989

2010/08/10 10:55
KOTH 101055Z 33004KT 10SM OVC015 12/11 A3002

2010/08/10 10:53
KPAE 101053Z AUTO 19010KT 10SM OVC006 13/11 A2995

2010/08/10 10:53
KPDX 101053Z 33004KT 10SM OVC029 14/11 A2998

2010/08/10 10:51
KPHX 101051Z 33005KT 10SM FEW110 32/12 A2981

2010/08/10 10:53
KPIH 101053Z AUTO 36004KT 10SM SCT110 12/09 A3000

2010/08/10 10:53
KPMD 101053Z AUTO 00000KT 10SM CLR 16/03 A2991

2010/08/10 10:53
KPRB 101053Z AUTO A2989

2010/08/10 10:53
KPRC 101053Z AUTO 21006KT 10SM SCT095 17/08 A3011

2010/08/10 10:53
KPSP 101053Z AUTO 00000KT 10SM CLR 23/09 A2976

2010/08/10 10:54
KRBL 101054Z AUTO 00000KT 10SM CLR 19/13 A2983

2010/08/10 10:53
KRDD 101053Z AUTO 00000KT 10SM CLR 19/11 A2984

2010/08/10 10:56
KRDM 101056Z AUTO 00000KT 10SM CLR 09/04 A2995

2010/08/10 10:55
KRNO 101055Z 00000KT 10SM FEW100 18/04 A3000

2010/08/10 10:53
KRNT 101053Z AUTO 17004KT 9SM OVC012 14/12 A2995

2010/08/10 10:53
KSAC 101053Z 16003KT 10SM 13/11 A2982

2010/08/10 10:51
KSAN 101051Z 00000KT 10SM OVC015 18/14 A2991

2010/08/10 10:53
KSBA 101053Z AUTO 09006KT 6SM BR OVC002 14/13 A2988

2010/08/10 10:56
KSBP 101056Z 30003KT 10SM OVC004 13/12 A2989

2010/08/10 10:55
KSCK 101055Z AUTO 34005KT 10SM CLR 14/11 A2982

2010/08/10 10:53
KSEA 101053Z 21005KT 7SM BKN006 OVC011 13/11 A2996

2010/08/10 10:53
KSFF 101053Z AUTO VRB03KT 10SM FEW075 SCT090 17/08 A2982

2010/08/10 10:56
KSFO 101056Z 25003KT 10SM OVC008 14/11 A2989

2010/08/10 11:01
CYKL 101101Z AUTO 33010KT 2 3/8SM DZ OVC005 08/08 A2975

2010/08/10 11:03
CYSL 101103Z 00000KT 1/2SM FG SCT220 RMK FG3CI0

2010/08/10 11:03
CYYN 101103Z AUTO 36010KT 2 1/4SM +RA VV005 16/15 A2983

2010/08/10 11:04
CYZE 101104Z AUTO 00000KT 2SM BR CLR 16/16 A2994 RMK SLP141 DENSITY ALT 800FT VIS VRB 3/4-3

2010/08/10 11:06
KLSF 101106Z AUTO 00000KT 2SM BR CLR 22/22 A2999 RMK AO2 SLP154 PNO $

2010/08/10 11:05
KMMT 101105Z AUTO 00000KT 6SM BR SCT003 SCT017 SCT027 24/24 A3003 RMK AO2 SLP167

2010/08/10 11:05
KMTC 101105Z 00000KT 1SM R19/4500FT BR CLR 20/20 A2996

2010/08/10 11:01
KNSE 101101Z 04004KT 5SM BR FEW250 26/23 A2994 RMK AO2 $

2010/08/10 11:04
KSSC 101104Z 00000KT 4SM BR OVC002 24/23 A3002 RMK AO2A SLP164 $

2010/08/10 11:03
PGUA 101103Z AUTO 06006KT 10SM SCT017 SCT023 BKN031 26/25 A2996 RMK AO2 LTG DSNT W CIG 016 RWY24L SLP128 $

2010/08/10 11:02
RJOF 101102Z 12016G27KT 9999 FEW020 SCT045 BKN090 28/24 Q1010 RMK 1CU020 3SC045 6AC090 A2985

2010/08/10 11:01
RJSM 101101Z 11004KT 1500 R10/P1800N BR FEW000 SCT001 BKN003 23/22 Q1013 RMK 2ST000 3ST001 5ST003 A2993 VIS NE-E 600M

2010/08/10 10:49
RKPK 101049Z 16013KT 4800 -RA BR FEW010 SCT010CB OVC025 27/23 Q1007 NOSIG RMK TS E46 MOVED N

2010/08/10 11:00
YBBN 101100Z 14006KT 2500 -RA SCT006 BKN014 BKN034 19/19 Q1016 FM1140 02012KT 7000 -RA BKN008 BKN025 TEMPO 1100/1400 02015G25KT 3000 RA BKN006 FM1110 MOD TURB BLW 7000FT

2010/08/10 11:01
YBCS 101101Z 00000KT 9999 FEW003 BKN017 BKN025 24/23 Q1015 TEMPO 1101/1401 3000 -SHRA FEW003 BKN010

2010/08/10 11:00
YBTL 101100Z 19005KT 4000 -RA SCT005 SCT017 BKN045 23/23 Q1015 RERA

2010/08/10 11:00
YPXM 101100Z AUTO 09008KT 9999NDV // BKN008 OVC012 25/23 Q1011

2010/08/10 10:53
KSHR 101053Z AUTO 00000KT 10SM CLR 12/10 A2993

2010/08/10 10:53
KSJC 101053Z AUTO 11005KT 10SM CLR 13/11 A2988

2010/08/10 10:53
KSLC 101053Z 14008KT 10SM CLR 18/03 A2999

2010/08/10 10:53
KSMF 101053Z 16008KT 10SM CLR 14/11 A2981

2010/08/10 10:51
KSMX 101051Z AUTO 06003KT 7SM OVC004 12/11 A2990

2010/08/10 10:53
KSNA 101053Z 00000KT 8SM OVC009 17/14 A2990

2010/08/10 10:53
KSNS 101053Z AUTO 00000KT 7SM OVC003 12/11 A2990

2010/08/10 10:53
KTIW 101053Z 22004KT 7SM OVC006 12/11 A2996

2010/08/10 10:53
KTUS 101053Z AUTO 17006KT 10SM CLR 25/16 A2996

2010/08/10 10:53
KTVL 101053Z AUTO 00000KT 10SM CLR 07/04 A3010

2010/08/10 10:53
KTWF 101053Z AUTO 00000KT 10SM CLR 13/11 A2993

2010/08/10 10:56
KUKI 101056Z AUTO 00000KT 10SM CLR 13/11 A2986

2010/08/10 10:53
KYKM 101053Z AUTO 30009KT 10SM CLR 17/08 A2986

2010/08/10 11:04
KHON 101104Z AUTO 23009KT 9SM -RA SCT010 SCT014 BKN055 23/21 A2984

2010/08/10 10:53
PABR 101053Z 07017KT 2 1/2SM -DZ BR OVC002 02/02 A2987

2010/08/10 10:53
PABT 101053Z 05003KT 10SM SCT040 OVC075 11/10 A2964

2010/08/10 10:53
PACV 101053Z 00000KT 2SM -RA BR FEW008 OVC016 12/11 A2993

2010/08/10 10:58
PADU 101058Z AUTO 22022G31KT 10SM FEW025 OVC044 12/07 A2970

2010/08/10 10:53
PAEN 101053Z AUTO 00000KT 8SM FEW003 OVC044 12/11 A2978

2010/08/10 10:58
PAGA 101058Z AUTO 12007KT 10SM OVC110 13/11 A2958

2010/08/10 10:53
PAGY 101053Z AUTO 21017KT 10SM FEW047 OVC060 14/11 A2994

2010/08/10 10:53
PAIL 101053Z AUTO 10013G18KT 10SM BKN027 OVC044 11/09 A2968

2010/08/10 10:54
PAKN 101054Z 18011KT 5SM -RA BR OVC004 10/09 A2964

2010/08/10 10:53
PAKT 101053Z AUTO 00000KT 10SM BKN016 OVC070 13/12 A3003

2010/08/10 10:53
PASC 101053Z 05014KT 1 1/2SM BR OVC003 03/03 A2975

2010/08/10 10:53
PASI 101053Z 00000KT 10SM BKN003 BKN018 OVC047 13/12 A3002

2010/08/10 10:52
PATA 101052Z AUTO 00000KT 10SM FEW095 BKN120 12/12 A2963

2010/08/10 10:56
PAUN 101056Z AUTO 12008KT 10SM OVC037 11/07 A2948

2010/08/10 10:56
PAVD 101056Z 24003KT 3SM SCT011 OVC016 11/09 A2990

2010/08/10 10:54
PHMK 101054Z AUTO 04011KT 10SM BKN048 24/19 A3009

2010/08/10 10:56
PMDY 101056Z AUTO 08010KT 10SM CLR 26/22 A3023

2010/08/10 11:00
CYAD 101100Z 36003KT 15SM BKN012 BKN045 10/08 A2994 RMK SF5SC1 SLP147

2010/08/10 11:00
CYAH 101100Z AUTO 27002KT 9SM OVC009 10/09 A2991 RMK SLP138

2010/08/10 11:00
CYBX 101100Z 23013G18KT 3/4SM -DZ BR OVC001 13/13 A2962 RMK FG6ST2 SLP031

2010/08/10 11:00
CYGV 101100Z AUTO 32004KT 280V340 9SM SCT051 SCT077 16/12 A2968 RMK SLP054

2010/08/10 11:00
CYMH 101100Z 22010G15KT 15SM FEW009 BKN016 OVC045 17/14 A2955 RMK SF2CU3SC2 SLP008

2010/08/10 11:00
CYMT 101100Z 27003KT 15SM SCT100 SCT220 12/10 A2990 RMK AC3CC1 SLP129

2010/08/10 11:00
CYNM 101100Z AUTO 30004KT 9SM SCT061 14/12 A2993 RMK SLP139

2010/08/10 11:00
CYOY 101100Z AUTO 01002KT 9SM FEW082 14/12 A2987 RMK SLP117

2010/08/10 11:00
CYPH 101100Z AUTO 33007KT 9SM FEW098 10/10 A2996 RMK SLP148

2010/08/10 11:00
CYPX 101100Z 29008KT 5SM BR SCT002 BKN035 11/11 A2993 RMK SF4SC3 FG DSIPTG SLP135

2010/08/10 11:00
CYQI 101100Z 25010KT 2SM BR FEW003 SCT040 OVC090 17/17 A2986 RMK FG1SF2SC2AC3 SLP111

2010/08/10 11:00
CYSL 101100Z 00000KT 3/8SM FG SCT220 14/13 A2986 RMK FG2CI0 SLP112

2010/08/10 11:00
CYUY 101100Z 00000KT 15SM FEW070 FEW200 15/13 A2992 RMK AC1CI0 ACC ASOCTD SLP133

2010/08/10 11:00
CYWK 101100Z 36006KT 15SM SCT012 BKN034 11/09 A2976 RMK SF2SC5 SLP089

2010/08/10 11:00
CBBC 101100Z AUTO 00000KT 3 1/2SM OVC001 A2998

2010/08/10 11:00
CYKA 101100Z 27003KT 40SM OVC061 15/12 A2991 RMK SC8 SLP130

2010/08/10 11:00
CYLW 101100Z AUTO 06002KT 9SM SCT038 BKN046 OVC066 13/12 A2988 RMK SLP119 DENSITY ALT 1500FT

2010/08/10 11:00
CYMA 101100Z 35003KT 20SM FEW050 09/07 A2975 RMK SC2 SLP086

2010/08/10 11:00
CYQH 101100Z 00000KT 20SM FEW030 SCT040 SCT080 09/05 A2983 RMK SC2SC2AC1 SLP107

2010/08/10 11:00
CYQU 101100Z 30005KT 25SM FEW250 08/06 A2992 RMK CI0 SLP140

2010/08/10 11:00
CYWL 101100Z 00000KT 15SM SKC 07/06 A2995 RMK SLP154

2010/08/10 11:00
CYXJ 101100Z 00000KT 15SM FEW090 11/07 A2988 RMK AC2 SLP126

2010/08/10 11:00
CYXT 101100Z 00000KT 15SM FEW022 FEW050 SCT200 12/10 A3001 RMK SC1SC1CI0 SLP165

2010/08/10 11:00
CYXY 101100Z 22005KT 40SM SCT050 09/06 A2985 RMK SC4 SLP123

2010/08/10 11:00
CYYD 101100Z AUTO 00000KT 9SM CLR 06/05 A2999 RMK SLP164

2010/08/10 11:00
CYYE 101100Z 00000KT 8SM BCFG BKN050 OVC150 13/09 A2978 RMK SC6AC2 SLP094

2010/08/10 11:00
CYYF 101100Z 01003KT 15SM FEW060 BKN140 OVC220 13/11 A2987 RMK SC2AC4CI2 SLP113

2010/08/10 11:00
CYZY 101100Z AUTO 15002KT 9SM OVC081 10/09 A2992 RMK SLP147

2010/08/10 11:00
CWEU 101100Z 27009KT 40SM FEW002 FEW080 00/M02 A3001 RMK CF1AC1 SLP164

2010/08/10 11:00
CWFD 101100Z AUTO 36025G32KT 9SM 05/ RMK ALTM MISG

2010/08/10 11:00
CWKP 101100Z AUTO 28010KT 09/ A2972 RMK SLP085

2010/08/10 11:00
CWRH 101100Z AUTO ///// 03/ A2981 RMK SLP122

2010/08/10 11:00
CWTU 101100Z AUTO 29019KT 06/ A2957 RMK SLP026

2010/08/10 11:00
CWWU 101100Z 04003KT 6SM -DZ BR BKN004 BKN008 OVC012 15/14 A2986 RMK SF5SF2SF2 SLP111

2010/08/10 11:00
CWXR 101100Z AUTO 28010KT 08/ A2971 RMK SLP068

2010/08/10 11:00
CWYM 101100Z AUTO 08014KT 03/ RMK ALTM MISG SLP143

2010/08/10 11:00
CYPD 101100Z AUTO 25005KT 9SM CLR 19/18 A2982 RMK SLP098 DENSITY ALT 1000FT

2010/08/10 11:00
CZPC 101100Z AUTO 28006KT 9SM CLR 10/08 A2987 RMK SLP102

2010/08/10 11:00
CZUM 101100Z AUTO 29011KT 9SM BKN015 OVC036 OVC059 12/09 A2968 RMK SLP061

2010/08/10 11:00
CWHN 101100Z AUTO 02004KT 9SM CLR 14/13 A2987 RMK SLP118

2010/08/10 11:00
CYBK 101100Z 00000KT 20SM FEW030 FEW090 FEW220 09/09 A3005 RMK SC1AS1CI1 SLP176

2010/08/10 11:00
CYBR 101100Z 30005KT 15SM SCT060 OVC170 20/19 A2986 RMK SC3AC4 SLP109

2010/08/10 11:00
CYBU 101100Z AUTO 34003KT 9SM CLR 12/12 A2988 RMK SLP125

2010/08/10 11:00
CYDN 101100Z AUTO 28003KT 9SM -RA SCT061 SCT089 OVC120 18/17 A2987 RMK SLP118 DENSITY ALT 1600FT

2010/08/10 11:00
CYEN 101100Z 02002KT 15SM BKN050 OVC100 18/17 A2983 RMK SC6AC2 DIST LTNG E DIST SH ALQDS SLP096

2010/08/10 11:00
CYET 101100Z AUTO 26005KT 9SM SCT042 OVC052 12/11 A2990 RMK SLP130

2010/08/10 11:00
CYGX 101100Z 08003KT 15SM OVC080 11/10 A3000 RMK AC6 SLP164

2010/08/10 11:00
CYKJ 101100Z AUTO 06003KT 0SM VV002 12/12 A2992 RMK SLP148 DENSITY ALT 1700FT

2010/08/10 11:00
CYLL 101100Z AUTO 15008KT 9SM BKN110 BKN150 BKN170 16/14 A2983 RMK SLP101 DENSITY ALT 2900FT

2010/08/10 11:00
CYNE 101100Z AUTO 11005KT 050V120 9SM CLR 15/15 A2989 RMK SLP128

2010/08/10 11:00
CYOJ 101100Z 00000KT 15SM BKN015 OVC080 13/13 A2980 RMK SC6AC2 SLP095

2010/08/10 11:00
CYPA 101100Z 00000KT 15SM BKN250 14/13 A2986 RMK CI1 SLP115

2010/08/10 11:00
CYPG 101100Z 25003KT 15SM BKN120 21/17 A2984 RMK AC7 ACC ASOCTD SLP103

2010/08/10 11:00
CYPY 101100Z AUTO 00000KT 9SM CLR 11/11 A2979 RMK SLP095

2010/08/10 11:00
CYQF 101100Z 30007KT 15SM SCT090 BKN130 13/10 A2988 RMK AC3AC2 SLP116

2010/08/10 11:00
CYQL 101100Z AUTO 26005KT 9SM BKN099 13/11 A2982 RMK SLP087

2010/08/10 11:00
CYQR 101100Z 15012KT 15SM -SHRA BKN050 OVC120 19/17 A2980 RMK SC6AC2 CB EMBD LGTNG SE-NW SLP090

2010/08/10 11:00
CYQW 101100Z AUTO 08007KT 9SM OVC120 16/14 A2987 RMK SLP119 DENSITY ALT 2300FT

2010/08/10 11:00
CYVC 101100Z 00000KT 15SM MIFG FEW250 14/13 A2990 RMK CI1 SLP128

2010/08/10 11:00
CYXD 101100Z AUTO 35002KT 9SM FEW054 FEW099 14/12 A2983 RMK SLP098

2010/08/10 11:00
CYYL 101100Z AUTO 02002KT 1/8SM FG VV003 14/14 A2990 RMK SLP138 DENSITY ALT 1300FT

2010/08/10 11:00
CYYN 101100Z AUTO 02009KT 010V070 3 1/2SM +RA VV005 16/15 A2983 RMK SLP090

2010/08/10 11:00
CYZH 101100Z AUTO 27005KT 9SM BKN062 15/11 A2987 RMK SLP121

2010/08/10 11:00
CYND 101100Z CCA 00000KT 4SM BR FEW003 FEW230 14/14 A2993 RMK ST2CI1 VIS W 9 SLP134

2010/08/10 11:00
CYCB 101100Z 08014KT 1/4SM FG OVC003 08/08 A2983 RMK FG2SF6 SLP105

2010/08/10 11:00
CYCO 101100Z 24006KT 8SM MIFG VCFG FEW003 FEW040 BKN090 10/10 A2971 RMK SF1SC2AC5 TR SF SLP061

2010/08/10 11:00
CYFS 101100Z 00000KT 12SM -RA BKN020 14/14 A2972 RMK SC7 SLP069

2010/08/10 11:00
CYHK 101100Z AUTO 20007KT 9SM CLR 10/09 A2989 RMK SLP125

2010/08/10 11:00
CYHY 101100Z 19006KT 15SM SCT050 BKN070 15/13 A2973 RMK SC2AC2 SLP072

2010/08/10 11:00
CYOA 101100Z 13007KT 5SM FU OVC040 15/13 A2978 RMK SC8 22.2/15.4/0 SLP099

2010/08/10 11:00
CYRT 101100Z 35004KT 15SM FEW090 FEW240 11/10 A3009 RMK AC1CI0 SLP190

2010/08/10 11:00
CYTE 101100Z AUTO 12004KT 9SM OVC054 OVC071 12/10 A2994 RMK SLP142

2010/08/10 11:00
CYVM 101100Z AUTO 19006KT 9SM FEW063 04/04 A2991 RMK SLP129

2010/08/10 11:00
CYZS 101100Z 34004KT 15SM FEW210 09/04 A2998 RMK CI1 SLP157

2010/08/10 11:00
CWRF 101100Z AUTO ///// 14/ A2976

2010/08/10 11:00
CWVD 101100Z AUTO ///// 05/ A2986 RMK SLP148

2010/08/10 11:00
CYBW 101100Z 30006KT 12SM OVC010 09/08 A2993 RMK SC8 SLP138

2010/08/10 11:00
CYCY 101100Z AUTO 00000KT 9SM CLR 07/06 A2986 RMK SLP113

2010/08/10 11:00
CYEK 101100Z AUTO 00000KT 6SM CLR 08/08 A3009 RMK SLP190

2010/08/10 11:00
CYIO 101100Z 08006KT 30SM VCSH BKN052 OVC061 12/09 A2980 RMK SC5SC3 CALL-OUT SLP096

2010/08/10 11:00
CYMJ 101100Z 10004KT 8SM -TSRA BKN045CB OVC100 18/16 A2981 RMK CB6AC2 LTGIC ALQDS SLP091

2010/08/10 11:00
CYOD 101100Z 32004KT 15SM SCT070 BKN100 BKN220 16/14 A2985 RMK ACC4AC2CI1 SLP108

2010/08/10 11:00
CYPE 101100Z 36003KT 15SM FEW250 08/06 A2988 RMK CI1 SLP125

2010/08/10 11:00
CYQV 101100Z AUTO 08005KT 9SM FEW055 SCT087 SCT096 17/16 A2986 RMK SLP113

2010/08/10 11:00
CYSF 101100Z AUTO 11002KT 1 3/4SM BR BKN009 OVC016 14/14 A2989 RMK SLP132 DENSITY ALT 900FT

2010/08/10 11:00
CYTH 101100Z 09003KT 15SM FEW050 FEW080 14/11 A2994 RMK SC1AC1 SLP143

2010/08/10 11:00
CYUS 101100Z AUTO ///// 9SM CLR 12/ A2992 RMK SLP134

2010/08/10 11:00
CYUX 101100Z AUTO 00000KT 9SM CLR 11/07 A2993 RMK SLP136

2010/08/10 11:00
CYXH 101100Z AUTO 36003KT 9SM CLR 16/13 A2979 RMK SLP079

2010/08/10 11:00
CYAM 101100Z 30004KT 1/2SM R12/2800FT/N FG VV001 20/20 A2997 RMK FG8 SLP148

2010/08/10 11:00
CYFT 101100Z 31015KT 5/8SM -DZ BR OVC002 09/09 A2962 RMK ST8 SLP032

2010/08/10 11:00
CYGP 101100Z 29006KT 15SM FEW035 FEW220 18/14 A2976 RMK SC1CI1 SLP077

2010/08/10 11:00
CYGR 101100Z 27011KT 15SM OVC006 19/11 A2976 RMK SC8 SLP077

2010/08/10 11:00
CYHD 101100Z AUTO 04007KT 2 1/8SM RA BKN001 BKN020 BKN042 19/19 A2994 RMK PCPN 3.5MM PAST HR SLP139

2010/08/10 11:00
CYHU 101100Z AUTO 24006KT 1 1/2SM OVC004 17/ A2990 RMK SLP126 DENSITY ALT 300FT TD MISG RVR MISG

2010/08/10 11:00
CYMO 101100Z AUTO 34004KT 9SM OVC010 10/10 A3001 RMK SLP162

2010/08/10 11:00
CYNA 101100Z AUTO 28006KT 9SM FEW092 17/14 A2967 RMK SLP048

2010/08/10 11:00
CYND 101100Z 00000KT 4SM BR FEW003 FEW230 14/14 A2993 RMK ST2CI1 SLP134

2010/08/10 11:00
CYPQ 101100Z AUTO ///// 2 1/2SM BKN021 19/19 A2994 RMK SLP139

2010/08/10 11:00
CYQT 101100Z 22003KT 20SM FEW080 16/16 A2996 RMK AC1 BR SLP146

2010/08/10 11:00
CYRJ 101100Z 26006KT 25SM FEW040 FEW220 17/13 A2986 RMK SC2CI1 SLP111

2010/08/10 11:00
CYRL 101100Z 13006KT 15SM FEW090 BKN240 21/20 A2988 RMK AC1CI2 SLP117

2010/08/10 11:00
CYTS 101100Z 30004KT 15SM FEW110 15/13 A2992 RMK AC2 SLP133

2010/08/10 11:00
CYTZ 101100Z AUTO 27003KT 3SM BKN027 21/20 A2993 RMK SLP136 DENSITY ALT 900FT RVR MISG

2010/08/10 11:00
CYVP 101100Z 35007KT 2SM -DZ BR OVC004 06/04 A2989 RMK FG4SF4 SLP124

2010/08/10 11:00
CYVV 101100Z 00000KT 1/2SM FG VV002 21/21 A2996 RMK FG8 SLP142

2010/08/10 11:00
CYWA 101100Z AUTO 00000KT 9SM CLR 14/14 A2992 RMK SLP134

2010/08/10 11:00
CYXR 101100Z AUTO 00000KT 7SM CLR 14/13 A2990 RMK SLP117

2010/08/10 11:00
CYYY 101100Z 23005KT 30SM BKN040 BKN090 17/13 A2983 RMK SC6AC1 SLP100

2010/08/10 11:00
CYZE 101100Z AUTO 00000KT 3SM BR CLR 17/17 A2994 RMK SLP141 DENSITY ALT 900FT VIS VRB 1-3

2010/08/10 11:00
CYZR 101100Z AUTO 20002KT 1 3/4SM BR OVC007 21/20 A2995 RMK SLP140 DENSITY ALT 1400FT

2010/08/10 11:00
CYBG 101100Z 00000KT 25SM FEW080 FEW210 15/12 A2985 RMK AC1CI1 SLP109

2010/08/10 11:00
CYEG 101100Z 23006KT 15SM FEW080 BKN110 BKN200 12/12 A2986 RMK AC2AC2CI2 SLP111

2010/08/10 11:00
CYFB 101100Z 33011KT 30SM BKN042 BKN280 13/12 A2988 RMK SC6CI1 SLP119

2010/08/10 11:00
CYFC 101100Z AUTO VRB02KT 1/4SM FG VV002 17/17 A2982 RMK SLP100 DENSITY ALT 400FT RVR MISG

2010/08/10 11:00
CYGL 101100Z 34002KT 12SM -RA FEW004 OVC013 08/08 A2997 RMK SF1SC6 SLP157

2010/08/10 11:00
CYHZ 101100Z 18005KT 3SM BR BKN002 OVC100 18/18 A2986 RMK SF6AC2 SLP110

2010/08/10 11:00
CYJT 101100Z 19004KT 15SM FEW008 BKN030 OVC050 17/15 A2975 RMK SF2SC6SC1 SLP076

2010/08/10 11:00
CYMX 101100Z 22003KT 1/8SM R06/1800FT/N FG VV001 18/16 A2992 RMK FG8 SLP131

2010/08/10 11:00
CYOW 101100Z 21003KT 0SM R07/1000FT/N R32/2600FT/N FG VV001 18/18 A2993 RMK FG8 SLP135

2010/08/10 11:00
CYQB 101100Z 29002KT 2SM BR OVC003 16/15 A2988 RMK FG2SF5 SLP119

2010/08/10 11:00
CYQG 101100Z 26003KT 2 1/2SM BR MIFG SKC 22/22 A2997 RMK SLP144

2010/08/10 11:00
CYQM 101100Z 26006KT 2SM BR OVC003 18/18 A2982 RMK FG6SF2 SLP098

2010/08/10 11:00
CYQQ 101100Z 31003KT 20SM FEW040 FEW100 FEW240 13/11 A2995 RMK SC1AC1CI0 SLP142

2010/08/10 11:00
CYQX 101100Z 21012KT 15SM FEW012 FEW040 BKN074 OVC100 15/13 A2982 RMK SC1SC1AC6AC1 SHS DIST NE-SE SLP101

2010/08/10 11:00
CYQY 101100Z 22008KT 15SM OVC011 19/17 A2981 RMK SC7 SLP095

2010/08/10 11:00
CYTR 101100Z 00000KT 2SM BR OVC020 19/19 A2993 RMK FG2SF6 CIG VRB 15-25 VIS VRB 11/2-21/2 SLP135

2010/08/10 11:00
CYUL 101100Z 26005KT 5/8SM BR OVC002 20/19 A2991 RMK FG4SF4 SLP128

2010/08/10 11:00
CYVR 101100Z 10002KT 15SM BKN012 BKN045 OVC100 15/10 A2994 RMK SC6SC1AC1 SLP138

2010/08/10 11:00
CYWG 101100Z 20004KT 15SM FEW065CB SCT110 BKN250 21/19 A2984 RMK CB2AC2CI2 CB DIST W SLP103

2010/08/10 11:00
CYXX 101100Z 27002KT 10SM FEW010 BKN050 14/10 A2994 RMK SF2SC4 SLP138

2010/08/10 11:00
CYYC 101100Z 35007KT 15SM FEW008 SCT090 BKN120 12/10 A2992 RMK ST2AC2AC2 SLP127

2010/08/10 11:00
CYYJ 101100Z 00000KT 3SM BR FEW005 BKN012 OVC027 13/12 A2994 RMK SF1SC6SC2 SLP139

2010/08/10 11:00
CYYQ 101100Z 11004KT 1/8SM R33/1400FT/D FG VV001 08/08 A3007 RMK FG8 SLP184

2010/08/10 11:00
CYYR 101100Z 27007KT 15SM FEW030 BKN076 BKN250 15/12 A2962 RMK CU1AC6CI0 SLP031

2010/08/10 11:00
CYYT 101100Z 10005KT 1 1/2SM -DZ BR OVC003 14/13 A2987 RMK FG3SF5 SLP116

2010/08/10 11:00
CYYZ 101100Z 26003KT 6SM BR SCT043 BKN053 21/21 A2994 RMK SC3SC3 VIS HIER SE 10 SLP138

2010/08/10 11:00
CYZF 101100Z 00000KT 15SM FEW110 SCT230 16/12 A2974 RMK AC1CI2 SLP077

2010/08/10 11:00
CYZV 101100Z 27008KT 30SM FEW020 FEW070 FEW240 16/12 A2976 RMK CF1AC1CI1 SLP080

2010/08/10 11:00
CYZX 101100Z 27004KT 9SM FEW002 BKN012 BKN050 19/18 A2984 RMK SF2SF2SC2 WNDY HILL 23005KT CIG VRB 8-14 SLP105

2010/08/10 11:00
CYAY 101100Z AUTO 23009KT 9SM OVC013 17/15 A2963 RMK SLP034 DENSITY ALT 700FT MAX WND 22021KT AT 1009Z

2010/08/10 11:00
CYCX 101100Z 00000KT 1/4SM FG VV001 17/17 A2983 RMK FG8 DA+787FT SLP100

2010/08/10 11:00
CYDF 101100Z 00000KT 15SM BKN023 17/15 A2974 RMK SC7 SLP071

2010/08/10 11:00
CYDP 101100Z 31013KT 15SM -RA FEW009 OVC016 10/08 A2970 RMK SF2SC6 SLP059

2010/08/10 11:00
CYGW 101100Z 22003KT 1/4SM -DZ FG VV000 08/08 A2999 RMK FG8 SLP156

2010/08/10 11:00
CYHH 101100Z 32004KT 15SM OVC025 10/08 A2994 RMK SC8 SLP147

2010/08/10 11:00
CYSJ 101100Z 19003KT 1/8SM R23/1600FT/N FG VV001 16/14 A2985 RMK FG8 SLP108

2010/08/10 11:00
CYYG 101100Z 26008KT 10SM OVC003 18/17 A2980 RMK SF8 SLP092

2010/08/10 11:00
CWCA 101100Z 00000KT 12SM -RA SCT007 BKN025 OVC070 13/12 A2958 RMK ST3SC3AS2 FG PTH TPG HLS E SLP017

2010/08/10 11:00
CWCL 101100Z AUTO 00000KT 9SM CLR 04/03 A2994 RMK SLP152

2010/08/10 11:00
CWIL 101100Z AUTO 19010KT 12/ A2986 RMK SLP120

2010/08/10 11:00
CWKM 101100Z AUTO 07004KT 09/ A2968 RMK SLP056

2010/08/10 11:00
CWKW 101100Z AUTO 33009KT 02/ A2978 RMK SLP110

2010/08/10 11:00
CWLI 101100Z AUTO 05004KT 08/ A2973 RMK SLP078

2010/08/10 11:00
CWLX 101100Z AUTO 34006KT 15/ A2989 RMK SLP129

2010/08/10 11:00
CWLY 101100Z AUTO 20003KT 9SM FEW003 SCT032 OVC086 13/12 A2994 RMK SLP142

2010/08/10 11:00
CWOB 101100Z AUTO ///// 0SM CLR 03/ A2981 RMK SLP131

2010/08/10 11:00
CWPX 101100Z AUTO ///// 09/ A2979 RMK SLP101

2010/08/10 11:00
CWRX 101100Z AUTO 26008KT 09/ A2989

2010/08/10 11:00
CWUP 101100Z AUTO 19003KT 07/ A2987 RMK SLP137

2010/08/10 11:00
CWUW 101100Z AUTO ///// 9SM CLR 11/ A2990 RMK SLP148

2010/08/10 11:00
CWVH 101100Z AUTO 14010KT 12/ A2968 RMK SLP061

2010/08/10 11:00
CWYK 101100Z AUTO ///// 03/ A2964 RMK SLP064

2010/08/10 11:00
CWZZ 101100Z AUTO ///// 0SM CLR 02/ A2971 RMK SLP087

2010/08/10 11:00
CZBF 101100Z 30003KT 15SM FEW100 FEW210 20/15 A2979 RMK AC1CI2 SLP089

2010/08/10 11:00
CZCP 101100Z AUTO 07005KT 1/8SM OVC007 07/ A2974 RMK SLP078

2010/08/10 11:00
CYDB 101100Z AUTO 12010KT 9SM CLR 11/04 A2979 RMK SLP105

2010/08/10 11:00
CYDQ 101100Z AUTO 00000KT 9SM CLR 05/04 A2989 RMK SLP141

2010/08/10 11:00
CYEV 101100Z 10008KT 15SM FEW100 SCT200 14/10 A2966 RMK AC2CI0 SLP048

2010/08/10 11:00
CYFO 101100Z 00000KT 3/4SM BR SKC 15/15 A2992 RMK FG1 SLP134

2010/08/10 11:00
CYHE 101100Z AUTO 00000KT 9SM BKN009 OVC021 15/14 A2992 RMK SLP134

2010/08/10 11:00
CYIV 101100Z 07003KT 15SM FEW050 FEW100 SCT250 15/11 A2991 RMK SC2AC1CI0 SLP133

2010/08/10 11:00
CYKY 101100Z 14004KT 12SM -SHRA OVC020 16/16 A2986 RERA RMK SC8 TCU EMBD SLP104

2010/08/10 11:00
CYPR 101100Z AUTO 02003KT 1/4SM VV002 10/ A3003 RMK SLP169 WND MISG TD MISG

2010/08/10 11:00
CYQD 101100Z 00000KT 1/2SM FG SKC 15/15 A2991 RMK FG5 SLP128

2010/08/10 11:00
CYQZ 101100Z AUTO 00000KT 9SM SCT003 07/07 A2995 RMK SLP158

2010/08/10 11:00
CYRV 101100Z AUTO 33008KT 9SM BKN021 OVC037 OVC072 OVC092 15/14 A2984 RMK SLP106

2010/08/10 11:00
CYUA 101100Z AUTO 27010KT 8SM -RA BKN001 BKN051 BKN064 11/ A2966 RMK SLP047

2010/08/10 11:00
CYXC 101100Z 21002KT 25SM FEW050 10/09 A2988 RMK SC1 SLP111

2010/08/10 11:00
CYXE 101100Z 34004KT 15SM SCT110 OVC250 15/14 A2983 RMK ACC3CI4 SLP104

2010/08/10 11:00
CYXS 101100Z AUTO 19002KT 9SM CLR 06/05 A2994 RMK SLP159

2010/08/10 11:00
CYZP 101100Z AUTO 26009KT 9SM BKN027 OVC037 14/13 A3003 RMK SLP169

2010/08/10 11:00
CYZT 101100Z 00000KT 15SM OVC013 13/10 A3000 RMK SC8 SLP159

2010/08/10 11:00
CYBC 101100Z AUTO 28003KT 240V320 9SM BKN064 16/13 A2981 RMK SLP094

2010/08/10 11:00
CYBN 101100Z AUTO 00000KT 3 1/2SM CLR 21/19 A2995 RMK SLP140

2010/08/10 11:00
CYEL 101100Z 27002KT 5SM BR SKC 18/17 A2996 RMK WNDS ESTD/LOW LEVEL FOG OVR RWY SLP144

2010/08/10 11:00
CYGK 101100Z 00000KT 6SM BR OVC005 22/20 A2994 RMK SF8 SLP138

2010/08/10 11:00
CYGQ 101100Z 00000KT 1/2SM FG VV001 15/15 A2998 RMK FG8 SLP153

2010/08/10 11:00
CYHM 101100Z 00000KT 1/4SM FG VV001 20/20 A2996 RMK FG8 SLP143

2010/08/10 11:00
CYKF 101100Z AUTO 00000KT 0SM FG VV003 19/19 A2997 RMK SLP147 DENSITY ALT 1700FT

2010/08/10 11:00
CYKL 101100Z AUTO 33009KT 3SM DZ OVC005 08/08 A2975 RMK PCPN 0.5MM PAST HR SLP090

2010/08/10 11:00
CYKZ 101100Z 31002KT 7SM FEW055 21/20 A2995 RMK SC2 SLP140

2010/08/10 11:00
CYLD 101100Z 00000KT 1/4SM FG VV003 18/18 A2997 RMK FG8 SLP148

2010/08/10 11:00
CYOO 101100Z AUTO 36003KT 2SM BR FEW014 BKN035 OVC076 21/21 A2993 RMK SLP136 DENSITY ALT 1200FT

2010/08/10 11:00
CYPL 101100Z 20005KT 15SM BKN040 BKN240 18/14 A2995 RMK SC5CI1 TCU ASOCTD SLP141

2010/08/10 11:00
CYQA 101100Z AUTO 00000KT 1 1/4SM BR BKN002 BKN008 OVC026 20/20 A2995 RMK SLP142 DENSITY ALT 1600FT

2010/08/10 11:00
CYQK 101100Z 21005KT 15SM FEW060 FEW130 SCT170 BKN220 23/20 A2992 RMK SC1AC1AC2CI1 SLP125

2010/08/10 11:00
CYRB 101100Z 03013KT 15SM FEW240 05/00 A2997 RMK CI0 SLP154

2010/08/10 11:00
CYSB 101100Z 00000KT 15SM FEW100 18/17 A2994 RMK AC1 SLP137

2010/08/10 11:00
CYSC 101100Z AUTO 00000KT 8SM OVC006 15/15 A2992 RMK SLP136 DENSITY ALT 900FT

2010/08/10 11:00
CYSN 101100Z 00000KT 4SM BR OVC028 22/21 A2994 RMK SC8 SLP137

2010/08/10 11:00
CYVO 101100Z 19005KT 15SM BKN050 BKN099 17/17 A2991 RMK SC6AC2 TCU EMBD SLP131

2010/08/10 11:00
CYVQ 101100Z 00000KT 30SM FEW040 FEW100 BKN280 15/11 A2966 RMK SC1AC1CI2 SLP047

2010/08/10 11:00
CYXL 101100Z 12006KT 10SM -TSRA FEW008 BKN042CB BKN080 OVC160 19/19 A2997 RERA RMK SF2CB3AC2AC1 OCNL LTGCG S SLP147

2010/08/10 11:00
CYXU 101100Z 00000KT 1/4SM R15/3000FT/N FG SKC 20/20 A2997 RMK FG6 SLP145

2010/08/10 11:00
CYXZ 101100Z 00000KT 0SM FG VV000 18/17 A2996 RMK FG8 SLP147

2010/08/10 11:00
CYYB 101100Z 23004KT 1/8SM FG VV002 19/19 A2995 RMK FG8 SLP140

2010/08/10 11:00
CYYU 101100Z 00000KT 10SM MIFG FEW040 SCT100 BKN240 13/13 A2994 RMK SC2AC2CI1 MIFG ALG RVR SLP141

2010/08/10 11:04
KFAY 101104Z AUTO 23004KT 7SM OVC001 24/23 A3002

2010/08/10 10:50
EDRZ 101050Z 28007KT 9999 FEW048 24/10 Q1016

2010/08/10 10:55
EHJR 101055Z AUTO 22011G13KT //// 16/14 Q1009 W17/S3

2010/08/10 11:00
TGPY 101100Z 18007KT 9999 VCSH FEW015CB 29/26 Q1013 JP-N CB-WNW

2010/08/10 10:55
EHSC 101055Z AUTO 21021G25KT 9999 19/15 Q1011 W01/S3

2010/08/10 10:55
EHSA 101055Z AUTO 20023G27KT 9999 18/16 Q1011 W19/S4

2010/08/10 11:00
HSSS 101100Z 26012KT CAVOK 36/17 Q1009

2010/08/10 11:00
TDPD 101100Z 27005KT 9999 FEW017 FEW///CB 25/23 Q1014

2010/08/10 10:50
LGZA 101050Z 14004KT 9999 FEW020 32/21 Q1011

2010/08/10 11:00
LPFR 101100Z 23007KT CAVOK 32/18 Q1016

2010/08/10 11:00
LPMA 101100Z VRB04KT 9999 SCT016 SCT030 25/19 Q1017 RS07001KT 0512003KT 2310003KT

2010/08/10 11:00
LPPR 101100Z 00000KT 8000 SKC 28/17 Q1018

2010/08/10 11:00
LPPS 101100Z 32007KT 290V360 9999 SCT015 24/19 Q1017

2010/08/10 11:00
LPPT 101100Z 11004KT 070V150 CAVOK 36/14 Q1017 NOSIG

2010/08/10 11:00
RKPK 101100Z 16013KT 8000 -RA FEW015 SCT025 OVC040 27/23 Q1006 NOSIG

2010/08/10 11:04
KHON 101104Z AUTO 23009KT 9SM -RA SCT010 SCT014 BKN055 23/21 A2984

2010/08/10 11:04
KCEC 101104Z AUTO 25005KT 1 1/4SM BR OVC002 12/11 A2992

2010/08/10 11:00
CQCM 101100Z 35016KT 8SM 050FEW 250SCT 44/19 A2949 RMK WND/ALTM ESTD CU1 CI1 MDT CU TCU ASOCTD T04420191

2010/08/10 11:04
KHON 101104Z AUTO 23009KT 9SM -RA SCT010 SCT014 BKN055 23/21 A2984

2010/08/10 10:57
PHNG 101057Z AUTO 08008KT 10SM SCT026 SCT036 BKN060 25/20 A3010 RMK AO2 SLP186 T02500200 $

2010/08/10 10:55
PWAK 101055Z 07011KT 10SM FEW023 28/24 A3006 RMK AO2A

2010/08/10 11:00
RJOO 101100Z 07004KT 020V120 9999 FEW010 SCT045 BKN120 28/22 Q1014

2010/08/10 11:00
RJSM 101100Z 10004KT 3000 BR FEW001 SCT003 BKN005 23/22 Q1013 RMK 1ST001 3ST003 5ST005 A2993 VIS NE-E 1500M FCST 1117 BECMG 1112 2000 BR SCT001ST BKN003ST TEMPO 1215 1500 BR SCT000ST BKN001ST BECMG 1516 21006KT 6000 NSW TEMPO 1617 4000 BR SCT003ST BKN005ST/ ST 12Z-15Z

2010/08/10 11:00
RJTT 101100Z 17012KT 9999 FEW015 SCT130 BKN/// 27/23 Q1015

2010/08/10 10:59
KNGU 101059Z 22003KT 10SM FEW060 26/23 A2999 RMK AO2 SLP156 T02560228

2010/08/10 11:00
MKJS 101100Z 00000KT 9999 FEW024 BKN200 26/22 Q1012

2010/08/10 11:00
MYGF 101100Z 14010KT 9999 BKN018 SCT100 27/24 A2994 /

2010/08/10 11:00
SCAR 101100Z 08006KT 9000 SKC 09/05 Q1016

2010/08/10 11:00
SCBA 101100Z AUTO 22005KT 200V260 CAVOK M02/M04 Q1020

2010/08/10 11:00
SCDA 101100Z 14008KT 9000 BKN020 13/08 Q1017

2010/08/10 11:00
SCEL 101100Z 32002KT 6000 NSC 02/00 Q1015 NOSIG

2010/08/10 11:00
SCFA 101100Z 26003KT 230V300 9999 OVC019 12/07 Q1017 NOSIG

2010/08/10 11:00
SCIE 101100Z 18004KT CAVOK 01/00 Q1016

2010/08/10 11:00
SCTE 101100Z 16010KT 9999 OVC006 07/06 Q1021 NOSIG

2010/08/10 11:00
SPHI 101100Z 17004KT CAVOK 14/13 Q1016 RMK BIRD HAZARD RWY 19/01 PP000

2010/08/10 11:00
SPQU 101100Z 05008KT CAVOK 08/M16 Q1027 NOSIG RMK PP000

2010/08/10 11:00
SPRU 101100Z 16005KT 6000 OVC005 15/13 Q1015 RMK BIRDS HAZARD RWY 20 PP000

2010/08/10 11:00
SPSO 101100Z 19003KT 5000 BR SCT008 OVC012 14/12 Q1018 RMK PP000

2010/08/10 11:00
TFFR 101100Z 09002KT 9999 FEW020 28/25 Q1014 TEMPO 4000 SHRA

2010/08/10 11:00
TNCM 101100Z 12008KT 9999 -SHRA SCT019 29/24 Q1014

2010/08/10 10:55
KQL5 101055Z 08005KT 9999 -SHRA FEW030 BKN160 30/23 A2960 RMK AO2A LTG DSNT NE-S CB DSNT ALQDS SLP987 WND DATA ESTMD ALSTG/SLP ESTMD

2010/08/10 10:55
KQOX 101055Z AUTO VRB03KT 23/12 A3011 RMK AO2 SLP095 T02250123 TSNO $

2010/08/10 11:00
FBSK 101100Z 13008KT CAVOK 18/M09 Q1030 NOSIG

2010/08/10 11:00
FBFT 101100Z 11013KT CAVOK 20/10 20/10 1029

2010/08/10 11:00
FBMN 101100Z 16010KT CAVOK 20/M11 Q1027

2010/08/10 11:00
FBKE 101100Z 08013KT CAVOK 27/05 Q1023

2010/08/10 11:00
OIBL 101100Z 12014KT 3000 SA SKC 37/29 Q0999 A2952

2010/08/10 11:00
OIBQ 101100Z 30004KT CAVOK 38/29 Q0999 A2950

2010/08/10 11:00
OIIK 101100Z 14008KT 9999 FEW040 34/M00 Q1015 A2998

2010/08/10 11:00
OIMC 101100Z 33022KT 8000 SKC 39/06 Q1009 A2979

2010/08/10 11:00
OIMD 101100Z 03012KT CAVOK 35/00 Q1008 A2978

2010/08/10 11:00
OIMQ 101100Z 00000KT CAVOK 35/M02 Q1013 A2992

2010/08/10 11:00
OITM 101100Z 25006KT 9999 FEW035 35/11 Q1014 A2995

2010/08/10 10:55
LIMH 101055Z 21007KT 9999 FEW000TCU 05/M05 Q1031 RMK SCT MON CLD SCT VAL CLD SCT VIS MIN 9999

2010/08/10 10:55
LIMT 101055Z /////KT 8000 SCT013TCU 18/17 Q1019 RMK SCT MON LIB VAL FOSCHIA VIS MIN 8000

2010/08/10 10:55
LIMU 101055Z 09006KT 9999 FEW023 26/21 Q1018 RMK SCT QUK 1 QUL 1 SE VIS MAR 12 KM VIS MIN 9999

2010/08/10 10:55
LIMY 101055Z /////KT 9999 SCT025 23/16 Q1018 RMK BKN SCT190 VAL FOSCHIA VIS MIN 9999

2010/08/10 10:55
LIVD 101055Z 00000KT 9999 SCT040 22/10 Q1020 RMK BKN SCT200 VIS MIN 9999

2010/08/10 10:55
LIVM 101055Z 10006KT 9999 FEW025 28/24 Q1016 RMK FEW QUK 0 QUL 0 VIS MAR 20 KM VIS MIN 9999

2010/08/10 10:55
LIVO 101055Z 12003KT 9999 SCT030 23/16 Q1018 RMK SCT VIS MIN 9999

2010/08/10 10:55
LIVR 101055Z 14013KT 9999 RA BKN020 14/09 Q1023 RMK BKN MON GEN INC VIS MIN 9999

2010/08/10 10:55
LIVT 101055Z 23006KT CAVOK 29/19 Q1014 RMK SKC QUK 1 QUL 1 SW VIS MAR 25 KM VIS MIN 9999

2010/08/10 11:00
OOMS 101100Z 03006KT 350V070 8000 NSC 33/28 Q1000 NOSIG

2010/08/10 10:50
LIBF 101050Z 32008KT 9999 FEW040 32/12 Q1014 RMK VIS MIN 9999

2010/08/10 10:50
LIEA 101050Z 30008KT 240V330 CAVOK 30/17 Q1016 RMK VIS MIN 9999

2010/08/10 10:55
LIED 101055Z 31005KT CAVOK 35/11 Q1015 RMK SKC VIS MIN 9999 BLU

2010/08/10 10:50
LIEO 101050Z 05009KT CAVOK 29/16 Q1016 RMK VIS MIN 9999

2010/08/10 10:50
LIMA 101050Z VRB03KT 9999 SCT035 26/18 Q1016 RMK VIS MIN 9999

2010/08/10 10:50
LIQN 101050Z 33004KT 9999 FEW045 29/14 Q1016 RMK VIS MIN 9999

2010/08/10 10:55
LIQW 101055Z 11003KT 9999 FEW025 27/19 Q1016 RMK FEW VIS MIN 9999 BLU

2010/08/10 10:55
LIRE 101055Z 22008KT 9999 FEW020 27/22 Q1015 RMK FEW VIS MIN 9999 WIND THR31 21009KT BLU

2010/08/10 10:55
LIRG 101055Z 26004KT 9999 FEW040 32/17 Q1015 RMK FEW MON NE LIB NC VIS MIN 9999 BLU

2010/08/10 10:55
LIRH 101055Z 17002KT 9999 FEW040 32/17 Q1015 RMK FEW MON LIB NC VIS MIN 9999 WIND THR16 11003KT BLU

2010/08/10 10:50
LIRI 101050Z 23006KT 190V270 9999 BKN060 27/20 Q1015 RMK VIS MIN 9999

2010/08/10 10:55
LIRL 101055Z 19005KT 9999 FEW025 29/20 Q1015 RMK FEW MON LIB NC VIS MIN 9999 BLU

2010/08/10 10:55
LIRM 101055Z 24011KT 9999 FEW020 33/29 Q1015 RMK FEW VIS MIN 9999 WIND THR06 21008KT BLU

2010/08/10 10:55
LIRS 101055Z 22004KT 9999 FEW025 29/18 Q1015 RMK FEW VIS MIN 9999 WIND THR21 /////KT BLU

2010/08/10 10:50
LIRU 101050Z 29003KT CAVOK 32/20 Q1015 RMK VIS MIN 9999

2010/08/10 10:55
LIRV 101055Z 19006KT CAVOK 30/14 Q1016 RMK FEW FEW060 MON E SE LIB NC VIS MIN 9999 BLU

2010/08/10 10:55
LIRX 101055Z 36005KT 9999 BKN023 24/18 Q1016 RMK BKN VIS MIN 9999N VIS MAR 15 KM

2010/08/10 10:50
LIRZ 101050Z VRB02KT 9999 FEW050 30/13 Q1015 RMK VIS MIN 9999

2010/08/10 10:50
LIMG 101050Z 07011KT 9999 FEW040 27/21 Q1016 RMK VIS MIN 9999

2010/08/10 10:55
LIMN 101055Z VRB03KT 9999 SCT020 27/16 Q1016 RMK SCT VIS MIN 9999 BLU

2010/08/10 10:50
LIMP 101050Z VRB02KT 7000 FEW030 28/19 Q1016 RMK VIS MIN 6000N

2010/08/10 10:55
LIMS 101055Z 08004KT 9999 FEW030 27/20 Q1016 RMK FEW VIS MIN 9999 WIND THR30 06004KT BLU

2010/08/10 10:50
LIMZ 101050Z VRB03KT 9999 FEW040 25/18 Q1017 RMK VIS MIN 8000N

2010/08/10 10:55
LIPA 101055Z 26002KT 9999 FEW040 28/22 Q1015 RMK FEW VIS MIN 9999 A3000 BLU

2010/08/10 10:55
LIPC 101055Z 08006KT 9999 FEW030 29/20 Q1015 RMK FEW VIS MIN 9999 WIND THR12 08006KT BLU

2010/08/10 10:55
LIPF 101055Z 00000KT 9999 SCT040 29/22 Q1015 RMK SCT VIS MIN 9999

2010/08/10 10:45
LIPH 101045Z 33002KT 9999 FEW020 28/19 Q1016 RMK FEW VIS MIN 9999 WIND THR07 /////KT BLU

2010/08/10 10:55
LIPI 101055Z 05004KT CAVOK 29/18 Q1015 RMK SKC VIS MIN 9999 WIND THR06 /////KT BLU

2010/08/10 10:55
LIPL 101055Z 23003KT CAVOK 27/22 Q1016 RMK BKN BKN100 VIS MIN 9999 BLK BLU

2010/08/10 10:50
LIPO 101050Z 26005KT 210V290 9999 FEW050 28/18 Q1015 RMK VIS MIN 9999

2010/08/10 10:50
LIPQ 101050Z VRB03KT CAVOK 29/18 Q1015

2010/08/10 10:45
LIPR 101045Z 03007KT 9999 FEW025 27/25 Q1015 RMK FEW VIS MIN 9999 WIND THR31 04007KT BLU

2010/08/10 10:55
LIPS 101055Z 14002KT 9999 FEW025 29/17 Q1016 RMK FEW VIS MIN 9999 BLU

2010/08/10 10:45
LIPX 101045Z 14004KT 9999 FEW050 29/16 Q1016 RMK FEW VIS MIN 9999 BLU

2010/08/10 10:50
LIPY 101050Z 35007KT 310V020 9999 FEW050 27/21 Q1015 RMK VIS MIN 9999

2010/08/10 10:55
LIVC 101055Z 17007KT 0300 FG VV001 13/10 Q1026 RMK MON INVIS VAL INVIS VIS MIN 0300

2010/08/10 10:55
LIVP 101055Z 18008KT 1500 BR BKN000TCU 14/11 Q1024 RMK BKN MON CIME INC VAL CLD SCT VIS MIN 1500

2010/08/10 11:00
MKJS 101100Z 00000KT 9999 FEW024 BKN200 26/22 Q1012

2010/08/10 10:57
PHNG 101057Z AUTO 08008KT 10SM SCT026 SCT036 BKN060 25/20 A3010 RMK AO2 SLP186 T02500200 $

2010/08/10 10:58
PTRO 101058Z 17005KT 14SM SCT016TCU BKN120 BKN300 28/24 A2991 RMK TCU VC ALQDS

2010/08/10 11:00
RJAA 101100Z 17006KT 9999 FEW015 SCT045 BKN/// 26/24 Q1015 NOSIG RMK 1CU015 4SC045 A2999

2010/08/10 11:00
RJCC 101100Z 17010KT 1800 -DZ BR BKN001 BKN002 21/20 Q1014 RMK 5ST001 7ST002 A2995

2010/08/10 11:00
RJFF 101100Z 19010KT 150V210 9999 FEW025 SCT050 BKN080 31/21 Q1007

2010/08/10 11:00
RJFK 101100Z 13009KT 9999 FEW010 SCT015 BKN040 26/24 Q1012 RMK 1CU010 3CU015 5CU040 A2988

2010/08/10 11:00
RJOO 101100Z 07004KT 020V120 9999 FEW010 SCT045 BKN120 28/22 Q1014 RMK 1CU010 3CU045 5AC120 A2995 LIGHTNING SE

2010/08/10 11:00
RJTT 101100Z 17012KT 9999 FEW015 SCT130 BKN/// 27/23 Q1015 RMK 1CU015 3AC130 A2997

2010/08/10 11:00
ROAH 101100Z 18012KT 9999 FEW015 BKN020 29/26 Q1009 RMK 2CU015 6CU020 A2981

2010/08/10 11:00
TGPY 101100Z 18007KT 9999 VCSH FEW015CB 29/26 Q1013 JP-N/ CB-WNW

2010/08/10 11:00
TNCM 101100Z 12008KT 9999 -SHRA SCT019 29/24 Q1014

2010/08/10 11:00
ZGGG 101100Z 14004MPS 9000 FEW033 34/24 Q1004 NOSIG

2010/08/10 11:00
FMCZ 101100Z 17010KT 9999 FEW023 SCT100 28/19 Q1017

2010/08/10 11:00
FMEE 101100Z 13008KT 9999 FEW020 SCT050 23/19 Q1022 NOSIG

2010/08/10 11:00
NZAA 101100Z 00000KT CAVOK 06/04 Q1028 NOSIG

2010/08/10 11:00
NZWN 101100Z 02008KT 9999 FEW050 06/04 Q1027 NOSIG 

2010/08/10 11:00
NZCH 101100Z 03003KT CAVOK 01/00 Q1026 NOSIG 

2010/08/10 11:00
SBCG 101100Z 13008KT 6000 NSC 15/11 Q1021

2010/08/10 11:00
SEQU 101100Z 33002KT 9999 FEW040 09/05 Q1027 RMK A3034 NOSIG

2010/08/10 11:00
SEGU 101100Z 23005KT 9999 BKN100 22/19 Q1013 NOSIG

2010/08/10 11:00
SEMT 101100Z 16008KT 9999 FEW010 BKN020 23/21 Q1013

2010/08/10 11:00
SELT 101100Z 00000KT 8000 VCFG BKN020 08/07 Q1032

2010/08/10 11:00
SLLP 101100Z 02006KT 9999 NSC M04/M16 Q1038

2010/08/10 11:00
SLVR 101100Z 18013KT 9999 NSC 17/06 Q1020

2010/08/10 11:00
SLCB 101100Z 00000KT 6000 NSC 02/00 Q1026

2010/08/10 11:00
SLTJ 101100Z 00000KT 9999 SKC 02/00 Q1025

2010/08/10 11:00
FBKE 101100Z 08013KT CAVOK 27/05 Q1023

2010/08/10 11:00
FBMN 101100Z 16010KT CAVOK 20/M11 Q1027

2010/08/10 11:00
FBSK 101100Z 13008KT CAVOK 18/M09 Q1030 NOSIG

2010/08/10 11:07
KBTV 101107Z 00000KT 1SM BR OVC003 18/18 A2993 RMK AO2 RVRNO 

2010/08/10 11:15
KCCA 101115Z AUTO 00000KT 4SM BR CLR 25/24 A2995 RMK AO2

2010/08/10 10:55
KGZL 101055Z AUTO 00000KT 10SM 23/22 A2992 RMK AO2 PWINO

2010/08/10 11:05
KBGM 101105Z 00000KT 1/4SM FG FEW001 BKN060 OVC095 20/19 A3001 RMK AO2 RVRNO

2010/08/10 11:05
KERI 101105Z 08003KT 2 1/2SM BR SCT010 OVC038 22/21 A2996 RMK AO2 CIG 010 NE

2010/08/10 11:05
KMTH 101105Z AUTO 25005G20KT 1 1/4SM +RA BR FEW008 BKN019 OVC031 25/24 A2985 RMK AO2 TSE1054 P0017

2010/08/10 11:05
KYIP 101105Z 00000KT 1 1/4SM BR SCT001 19/18 A2998 RMK AO2

2010/08/10 11:05
PABR 101105Z 08018KT 4SM -DZ BR OVC002 01/01 A2987 RMK AO2 P0000 $

2010/08/10 11:03
PAJZ 101103Z AUTO 17010KT 6SM BR SCT003 BKN009 OVC030 09/09 A2967 RMK AO2 PWINO TSNO CIG 007V011 $

2010/08/10 11:05
PALH 101105Z 02003KT 10SM FEW008 OVC050 12/10 A2978 RMK AO2

2010/08/10 11:04
PAMB 101104Z AUTO 20008KT 1 3/4SM BR OVC003 09/09 A2958 RMK AO2 PWINO TSNO $

2010/08/10 11:05
PATO 101105Z AUTO 12008G19KT 10SM SCT021 BKN026 OVC049 12/09 A2984 RMK AO2 T01170094 TSNO

2010/08/10 11:04
KHON 101104Z AUTO 23009KT 9SM -RA SCT010 SCT014 BKN055 23/21 A2984 RMK AO2 P0002 TSNO

2010/08/10 11:07
KBTV 101107Z 00000KT 1SM BR OVC003 18/18 A2993 RMK AO2 RVRNO

2010/08/10 10:51
KABE 101051Z 05005KT 6SM HZ CLR 23/21 A2995

2010/08/10 10:51
KALB 101051Z 17003KT 3SM BR FEW045 21/20 A2995

2010/08/10 10:56
KART 101056Z AUTO 00000KT 3SM BR OVC019 21/20 A2993

2010/08/10 10:54
KAVP 101054Z 00000KT 6SM BR FEW120 22/19 A2997

2010/08/10 10:51
KBDL 101051Z 00000KT 3SM HZ BKN110 23/21 A2992

2010/08/10 10:52
KBDR 101052Z 35003KT 9SM -RA FEW050 SCT120 24/20 A2993

2010/08/10 10:54
KBTV 101054Z 00000KT 4SM BR OVC003 18/18 A2993

2010/08/10 10:54
KBUF 101054Z 19004KT 2 1/2SM BR FEW041 BKN050 BKN060 21/21 A2995

2010/08/10 10:56
KCAE 101056Z 00000KT 1/2SM FG OVC002 24/23 A3002

2010/08/10 10:51
KCAK 101051Z 27003KT 5SM HZ FEW035 BKN100 22/19 A2998

2010/08/10 10:51
KCMH 101051Z 00000KT 7SM FEW080 SCT130 SCT250 24/21 A2997

2010/08/10 10:53
KCRQ 101053Z 00000KT 10SM OVC009 18/14 A2989

2010/08/10 10:54
KCRW 101054Z 00000KT 4SM BR SCT001 21/19 A3001

2010/08/10 10:56
KDAY 101056Z 00000KT 5SM HZ FEW200 SCT250 24/20 A3000

2010/08/10 10:51
KERI 101051Z 00000KT 1 1/2SM BR FEW010 BKN038 22/21 A2996

2010/08/10 10:52
KFDK 101052Z AUTO 15003KT 4SM BR CLR 23/22 A2997

2010/08/10 10:54
KGSO 101054Z 25005KT 5SM HZ CLR 24/21 A3004

2010/08/10 10:53
KGSP 101053Z 00000KT 7SM CLR 23/22 A3004

2010/08/10 10:51
KHTS 101051Z 00000KT 1 3/4SM BR CLR 21/20 A2999

2010/08/10 10:53
KHUL 101053Z AUTO 00000KT 6SM BR CLR 17/17 A2983

2010/08/10 10:53
KIAG 101053Z AUTO 00000KT 1SM BR FEW032 BKN044 21/20 A2994

2010/08/10 10:51
KILG 101051Z 00000KT 6SM HZ CLR 24/22 A2994

2010/08/10 10:53
KILM 101053Z AUTO 00000KT 10SM CLR 25/23 A3002

2010/08/10 10:53
KMSS 101053Z AUTO 22006KT 10SM OVC004 22/21 A2993

2010/08/10 10:54
KORH 101054Z 27006KT 3SM BR FEW005 SCT075 21/20 A2995

2010/08/10 10:51
KPVD 101051Z 20006KT 7SM FEW110 SCT112 SCT250 22/21 A2992

2010/08/10 10:51
KPWM 101051Z 27004KT 9SM FEW120 21/19 A2989

2010/08/10 10:54
KRIC 101054Z 23003KT 9SM FEW250 25/21 A2996

2010/08/10 10:54
KROC 101054Z 00000KT 2SM R04/6000VP6000FT BR FEW070 SCT100 SCT250 21/20 A2995

2010/08/10 10:54
KSYR 101054Z 00000KT 5SM BR SCT024 BKN041 BKN055 22/21 A2994

2010/08/10 11:00
NZAA 101100Z 00000KT CAVOK 06/04 Q1028 NOSIG

2010/08/10 11:00
NZWN 101100Z 02008KT 9999 FEW050 06/04 Q1027 NOSIG 

2010/08/10 11:00
NZCH 101100Z 03003KT CAVOK 01/00 Q1026 NOSIG 

2010/08/10 11:00
CMFM 101100Z AUTO 00000KT 09/09 RMK AO1 SLP133 T00920089 50003

2010/08/10 11:00
CWNE 101100Z AUTO 25011KT 19/18 RMK AO1 SLP087 T01850179 53008

2010/08/10 11:00
CWNM 101100Z AUTO 15/15 RMK AO1 SLP099 T01520152 53000

2010/08/10 11:00
CWNQ 101100Z AUTO 17002KT 16/16 RMK AO1 SLP118 T01630157 51006

2010/08/10 11:00
CWPE 101100Z AUTO 29002KT 14/14 RMK AO1 SLP100 T01410138 53003

2010/08/10 11:00
CWPF 101100Z AUTO 23004KT 11/11 RMK AO1 SLP127 T01090108 56005

2010/08/10 11:00
CWPZ 101100Z AUTO 33001KT 01/M00 RMK AO1 SLP162 T00091002 52003

2010/08/10 11:00
CWPK 101100Z AUTO 00000KT 13/ RMK AO1 SLP135 T0132 53005

2010/08/10 11:00
CWSF 101100Z AUTO 28010KT 17/13 RMK AO1 SLP077 T01670131 51008

2010/08/10 11:00
CWDM 101100Z AUTO 23006KT 12/12 RMK AO1 4000 SLP035 T01220117 50010

2010/08/10 11:00
CWSF 101100Z AUTO 28010KT 17/13 RMK AO1 SLP077 T01670131 51008

2010/08/10 11:00
CWEP 101100Z AUTO 24007KT 20/19 RMK AO1 SLP088 T02010193 53006

2010/08/10 11:00
CWER 101100Z AUTO 22009KT RMK AO1 

2010/08/10 11:00
CWBV 101100Z AUTO 22009KT 15/15 RMK AO1 SLP109 T01500148 56003

2010/08/10 11:00
CWRN 101100Z AUTO 21006KT 18/17 RMK AO1 SLP103 T01790170 55001

2010/08/10 11:00
CWBV 101100Z AUTO 22009KT 15/15 RMK AO1 SLP109 T01500148 56003

2010/08/10 11:00
CWRN 101100Z AUTO 21006KT 18/17 RMK AO1 SLP103 T01790170 55001

2010/08/10 11:00
CWBV 101100Z AUTO 22009KT 15/15 RMK AO1 SLP109 T01500148 56003

2010/08/10 11:00
CWRN 101100Z AUTO 21006KT 18/17 RMK AO1 SLP103 T01790170 55001

2010/08/10 11:00
CWBV 101100Z AUTO 22009KT 15/15 RMK AO1 SLP109 T01500148 56003

2010/08/10 11:00
CWRN 101100Z AUTO 21006KT 18/17 RMK AO1 SLP103 T01790170 55001

2010/08/10 11:00
CWXL 101100Z AUTO 16005KT 14/12 RMK AO1 T01350116

2010/08/10 11:00
CWYJ 101100Z AUTO 26003KT 12/11 RMK AO1 T01190108

2010/08/10 11:00
CWYY 101100Z AUTO 36002KT 16/12 RMK AO1 2PAST HR 5001 SLP103 P0001 T01630116 50004

2010/08/10 11:00
CWZA 101100Z AUTO 00000KT 15/15 RMK AO1 SLP132 T01520148 56005

2010/08/10 11:00
CWZO 101100Z AUTO 00000KT RMK AO1 

2010/08/10 11:00
CWZS 101100Z AUTO 23001KT 14/13 RMK AO1 SLP095 T01400128 53007

2010/08/10 11:00
CXKE 101100Z AUTO 22002KT 21/20 RMK AO1 SLP129 T02060196 53003

2010/08/10 11:00
CXKE 101100Z AUTO 22002KT 21/20 RMK AO1 SLP129 T02060196 53003

2010/08/10 11:00
CWLB 101100Z AUTO 30001KT 15/14 RMK AO1 5PAST HR 1017 SLP117 P0006 T01510143 50068

2010/08/10 11:00
CWLB 101100Z AUTO 30001KT 15/14 RMK AO1 5PAST HR 1017 SLP117 P0006 T01510143 50068

2010/08/10 11:00
CWEK 101100Z AUTO 30005KT 11/ RMK AO1 SLP166 T0108 53003

2010/08/10 11:00
CWLP 101100Z AUTO 29009KT 11/11 RMK AO1 SLP157 T01140111 53001

2010/08/10 11:00
CWZG 101100Z AUTO 30001KT 07/07 RMK AO1 SLP143 T00710068 53000

2010/08/10 11:00
CWDC 101100Z AUTO 08003KT 15/15 RMK AO1 SLP118 T01490147 54000

2010/08/10 11:00
CWEH 101100Z AUTO 14006KT 15/12 RMK AO1 SLP078 T01460117 57004

2010/08/10 11:00
CWKO 101100Z AUTO 22013G24KT 18/14 RMK AO1 PK WND 23023/1057 SLP077 T01830137 57009

2010/08/10 11:00
CWOY 101100Z AUTO 11006KT 16/14 RMK AO1 SLP106 T01640139 58009

2010/08/10 11:00
CWVT 101100Z AUTO 32001KT 15/14 RMK AO1 SLP122 T01460137 56001

2010/08/10 11:00
CWZW 101100Z AUTO 20006KT 12/06 RMK AO1 SLP127 T01230063 51009

2010/08/10 11:00
CWAQ 101100Z AUTO 13005KT 18/17 RMK AO1 T01820170

2010/08/10 11:00
CWBO 101100Z AUTO 11002KT 12/12 RMK AO1 SLP088 T01190118 53008

2010/08/10 11:00
CWBS 101100Z AUTO 20005KT 20/ RMK AO1 T0199

2010/08/10 11:00
CWBT 101100Z AUTO 31002KT 16/15 RMK AO1 SLP062 T01590154 53010

2010/08/10 11:00
CWCJ 101100Z AUTO 05003KT 16/16 RMK AO1 SLP137 T01630160 55000

2010/08/10 11:00
CWDK 101100Z AUTO 34005KT 13/10 RMK AO1 SLP100 T01270098 51010

2010/08/10 11:00
CWDZ 101100Z AUTO 36006KT 16/13 RMK AO1 SLP079 T01580125 50006

2010/08/10 11:00
CWAQ 101100Z AUTO 13005KT 18/17 RMK AO1 T01820170

2010/08/10 11:00
CWBO 101100Z AUTO 11002KT 12/12 RMK AO1 SLP088 T01190118 53008

2010/08/10 11:00
CWBS 101100Z AUTO 20005KT 20/ RMK AO1 T0199

2010/08/10 11:00
CWBT 101100Z AUTO 31002KT 16/15 RMK AO1 SLP062 T01590154 53010

2010/08/10 11:00
CWCJ 101100Z AUTO 05003KT 16/16 RMK AO1 SLP137 T01630160 55000

2010/08/10 11:00
CWDK 101100Z AUTO 34005KT 13/10 RMK AO1 SLP100 T01270098 51010

2010/08/10 11:00
CWDZ 101100Z AUTO 36006KT 16/13 RMK AO1 SLP079 T01580125 50006

2010/08/10 11:00
CWBO 101100Z AUTO 11002KT 12/12 RMK AO1 SLP088 T01190118 53008

2010/08/10 11:00
CWBS 101100Z AUTO 20005KT 20/ RMK AO1 T0199

2010/08/10 11:00
CWBT 101100Z AUTO 31002KT 16/15 RMK AO1 SLP062 T01590154 53010

2010/08/10 11:00
CWCJ 101100Z AUTO 05003KT 16/16 RMK AO1 SLP137 T01630160 55000

2010/08/10 11:00
CWDK 101100Z AUTO 34005KT 13/10 RMK AO1 SLP100 T01270098 51010

2010/08/10 11:00
CWDZ 101100Z AUTO 36006KT 16/13 RMK AO1 SLP079 T01580125 50006

2010/08/10 11:00
CTRA 101100Z AUTO 06003KT 21/20 RMK AO1 SLP129 T02120200 53006

2010/08/10 11:00
CWEL 101100Z AUTO 28003KT 15/14 RMK AO1 SLP129 T01470141 55001

2010/08/10 11:00
CWEW 101100Z AUTO 22003KT 17/17 RMK AO1 SLP129 T01720170 53004

2010/08/10 11:00
CWFJ 101100Z AUTO 29002KT 13/09 RMK AO1 T01260088

2010/08/10 11:00
CWFQ 101100Z AUTO 01001KT 19/19 RMK AO1 T01900187

2010/08/10 11:00
CWGB 101100Z AUTO 28004KT 15/14 RMK AO1 SLP135 T01510135 53001

2010/08/10 11:00
CWGD 101100Z AUTO 10002KT 21/21 RMK AO1 SLP137 T02090205 53006

2010/08/10 11:00
CWGM 101100Z AUTO 07003KT 10/07 RMK AO1 T01010070

2010/08/10 11:00
CWJR 101100Z AUTO 07003KT 14/ RMK AO1 SLP104 T0140 51006

2010/08/10 11:00
CWJV 101100Z AUTO 14002KT 13/12 RMK AO1 2PAST HR 6005 SLP116 P0001 T01270123 50036

2010/08/10 11:00
CWKH 101100Z AUTO 13/ RMK AO1 T0130

2010/08/10 11:00
CWKX 101100Z AUTO 19003KT 11/07 RMK AO1 SLP147 T01120065 50001

2010/08/10 11:00
CWLC 101100Z AUTO 33006KT 11/ RMK AO1 T0107

2010/08/10 11:00
CWLM 101100Z AUTO 25010KT 11/10 RMK AO1 T01090099

2010/08/10 11:00
CWMM 101100Z AUTO 19002KT 14/12 RMK AO1 SLP139 T01390117 56004

2010/08/10 11:00
YBTL 101100Z 19005KT 4000 -RA SCT005 SCT017 BKN045 23/23 Q1015 RERA

2010/08/10 11:00
CWQH 101100Z AUTO 07002KT 15/15 RMK AO1 T01480148

2010/08/10 11:00
CWQK 101100Z AUTO 28013KT RMK AO1 

2010/08/10 11:00
CWRZ 101100Z AUTO 00000KT 17/15 RMK AO1 SLP068 T01720145 51004

2010/08/10 11:00
CWSD 101100Z AUTO 25007KT 18/17 RMK AO1 SLP091 T01760169 53005

2010/08/10 11:00
CWSG 101100Z AUTO 26010KT 16/13 RMK AO1 SLP094 T01570133 53011

2010/08/10 11:00
CWSK 101100Z AUTO 05003KT 15/14 RMK AO1 SLP130 T01470137 56004

2010/08/10 11:00
CWSL 101100Z AUTO 23001KT 14/13 RMK AO1 4PAST HR 7004 SLP121 P0002 T01360128 50062

2010/08/10 11:00
CWSP 101100Z AUTO 30009KT 12/11 RMK AO1 SLP134 T01210105 56005

2010/08/10 11:00
CWSR 101100Z AUTO 18003KT 11/11 RMK AO1 SLP107 T01070105 55001

2010/08/10 11:00
CWST 101100Z AUTO 25002KT 19/17 RMK AO1 T01850168

2010/08/10 11:00
CWSG 101100Z AUTO 26010KT 16/13 RMK AO1 SLP094 T01570133 53011

2010/08/10 11:00
CWSK 101100Z AUTO 05003KT 15/14 RMK AO1 SLP130 T01470137 56004

2010/08/10 11:00
CWSL 101100Z AUTO 23001KT 14/13 RMK AO1 4PAST HR 7004 SLP121 P0002 T01360128 50062

2010/08/10 11:00
CWSP 101100Z AUTO 30009KT 12/11 RMK AO1 SLP134 T01210105 56005

2010/08/10 11:00
CWSR 101100Z AUTO 18003KT 11/11 RMK AO1 SLP107 T01070105 55001

2010/08/10 11:00
CWST 101100Z AUTO 25002KT 19/17 RMK AO1 T01850168

2010/08/10 11:00
CWSR 101100Z AUTO 18003KT 11/11 RMK AO1 SLP107 T01070105 55001

2010/08/10 11:00
CWST 101100Z AUTO 25002KT 19/17 RMK AO1 T01850168

2010/08/10 11:00
CWSR 101100Z AUTO 18003KT 11/11 RMK AO1 SLP107 T01070105 55001

2010/08/10 11:00
CWST 101100Z AUTO 25002KT 19/17 RMK AO1 T01850168

2010/08/10 11:00
CXLB 101100Z AUTO 18006KT 17/17 RMK AO1 SLP106 T01690167 50001

2010/08/10 11:00
CXTD 101100Z AUTO 21008KT 19/17 RMK AO1 SLP100 T01880171 55001

2010/08/10 11:00
CXZV 101100Z AUTO 29005KT 16/13 RMK AO1 SLP077 T01590129 53010

2010/08/10 11:00
CXLB 101100Z AUTO 18006KT 17/17 RMK AO1 SLP106 T01690167 50001

2010/08/10 11:00
CXTD 101100Z AUTO 21008KT 19/17 RMK AO1 SLP100 T01880171 55001

2010/08/10 11:00
CXZV 101100Z AUTO 29005KT 16/13 RMK AO1 SLP077 T01590129 53010

2010/08/10 11:00
CWGT 101100Z AUTO 08002KT 16/14 RMK AO1 SLP133 T01620138 53001

2010/08/10 11:00
CWGW 101100Z AUTO 00000KT 08/08 RMK AO1 SLP115 T00830082 53004

2010/08/10 11:00
CWHL 101100Z AUTO 28004KT 11/ RMK AO1 SLP160 T0105 55002

2010/08/10 11:00
CWHM 101100Z AUTO 24004KT 19/19 RMK AO1 T01940190

2010/08/10 11:00
CWHT 101100Z AUTO 07001KT 05/02 RMK AO1 SLP121 T00470024 51007

2010/08/10 11:00
CWHV 101100Z AUTO 17001KT 14/14 RMK AO1 SLP121 T01400140 51008

2010/08/10 11:00
CWIG 101100Z AUTO 21012KT RMK AO1 

2010/08/10 11:00
CWII 101100Z AUTO 02005KT 21/20 RMK AO1 PK WND 24044/1007 T02130195

2010/08/10 11:00
CWIP 101100Z AUTO 27006KT 16/ RMK AO1 T0158

2010/08/10 11:00
CWIS 101100Z AUTO 26002KT 11/10 RMK AO1 SLP128 T01050102 51003

2010/08/10 11:00
CWIZ 101100Z AUTO 26005KT 21/21 RMK AO1 T02070206

2010/08/10 11:00
CWJC 101100Z AUTO 11/10 RMK AO1 17 3002 SLP154 T01090102

2010/08/10 11:00
CXCA 101100Z AUTO 00000KT 15/15 RMK AO1 SLP136 T01520149 53003

2010/08/10 11:00
CXCK 101100Z AUTO 11006KT 11/ RMK AO1 T0107

2010/08/10 11:00
CXDI 101100Z AUTO 00000KT 21/20 RMK AO1 SLP125 T02070199 53002

2010/08/10 11:00
CXET 101100Z AUTO 29001KT 20/20 RMK AO1 SLP138 T02040196 51004

2010/08/10 11:00
CXHA 101100Z AUTO 31001KT 21/20 RMK AO1 SLP135 T02050202 53006

2010/08/10 11:00
CXHF 101100Z AUTO 15/15 RMK AO1 T01540153

2010/08/10 11:00
CXIB 101100Z AUTO 22003KT 20/17 RMK AO1 SLP082 T02020172 53003

2010/08/10 11:00
CXMI 101100Z AUTO 18013KT 17/16 RMK AO1 PK WND 17018/1003 SLP104 T01650161 58002

2010/08/10 11:00
CXOX 101100Z AUTO 11001KT 14/14 RMK AO1 SLP123 T01420136 53002

2010/08/10 11:00
CXRH 101100Z AUTO 15004KT 17/15 RMK AO1 T01690150

2010/08/10 11:00
CXSH 101100Z AUTO 33002KT 18/14 RMK AO1 SLP115 T01770136 53004

2010/08/10 11:00
CXSR 101100Z AUTO 26007KT 11/06 RMK AO1 SLP122 T01080057 51001

2010/08/10 11:00
CXSW 101100Z AUTO 08004KT RMK AO1 50003

2010/08/10 11:00
CXTP 101100Z AUTO 22004KT 16/13 RMK AO1 SLP111 T01610128 56013

2010/08/10 11:00
CXZU 101100Z AUTO 05005KT 13/13 RMK AO1 SLP121 T01280127 55005

2010/08/10 11:00
CERM 101100Z AUTO 02001KT 13/13 RMK AO1 SLP107 T01310125 51008

2010/08/10 11:00
CWBK 101100Z AUTO 22007KT 19/17 RMK AO1 SLP089 T01880170 53003

2010/08/10 11:00
CZSP 101100Z AUTO 24004KT 19/18 RMK AO1 SLP085 T01910178 53007

2010/08/10 11:00
CZSP 101100Z AUTO 24004KT 19/18 RMK AO1 SLP085 T01910178 53007

2010/08/10 11:00
CZSP 101100Z AUTO 24004KT 19/18 RMK AO1 SLP085 T01910178 53007

2010/08/10 11:00
CZSP 101100Z AUTO 24004KT 19/18 RMK AO1 SLP085 T01910178 53007

2010/08/10 10:58
PTRO 101058Z 17005KT 14SM SCT016TCU BKN120 BKN300 28/24 A2991 RMK TCU VC ALQDS

2010/08/10 11:00
SASJ 101100Z 00000KT CAVOK 09/03 Q1024

2010/08/10 11:00
CWTA 101100Z AUTO 27003KT 20/19 RMK AO1 SLP129 T01990194 53004

2010/08/10 11:00
CWTG 101100Z AUTO 27007KT 11/ RMK AO1 SLP090 T0108 53011

2010/08/10 11:00
CWTN 101100Z AUTO 35003KT 19/12 RMK AO1 SLP105 T01920120 51008

2010/08/10 11:00
CWTY 101100Z AUTO 20004KT 18/16 RMK AO1 SLP116 T01770164 52007

2010/08/10 11:00
CWUX 101100Z AUTO 11002KT 15/13 RMK AO1 SLP106 T01480131 50004

2010/08/10 11:00
CWVF 101100Z AUTO 10005KT 14/ RMK AO1 T0142

2010/08/10 11:00
CWVN 101100Z AUTO 06005KT 17/15 RMK AO1 SLP069 T01720148 58003

2010/08/10 11:00
CWVQ 101100Z AUTO 26005KT 20/20 RMK AO1 T02040204

2010/08/10 11:00
CWVV 101100Z AUTO 00000KT 12/10 RMK AO1 SLP133 T01160103 55004

2010/08/10 11:00
CWWA 101100Z AUTO 07001KT 14/13 RMK AO1 SLP134 T01410125 55004

2010/08/10 11:00
CWWF 101100Z AUTO 07012KT 19/18 RMK AO1 2PAST HRR+11/ PRESFR 8015 SLP077 P0020 T01880177 50110

2010/08/10 11:00
CWXA 101100Z AUTO 00000KT 08/07 RMK AO1 SLP125 T00820066 53009

2010/08/10 11:00
CWBE 101100Z AUTO 24004KT 19/19 RMK AO1 SLP147 T01910185 53002

2010/08/10 11:00
CWDQ 101100Z AUTO 00000KT 13/12 RMK AO1 SLP128 T01330124 53007

2010/08/10 11:00
CWDQ 101100Z AUTO 00000KT 13/12 RMK AO1 SLP128 T01330124 53007

2010/08/10 11:00
CWDQ 101100Z AUTO 00000KT 13/12 RMK AO1 SLP128 T01330124 53007

2010/08/10 11:00
CWNC 101100Z AUTO 35002KT 20/ RMK AO1 SLP127 T0201 51004

2010/08/10 11:00
CWNZ 101100Z AUTO 32003KT 13/13 RMK AO1 SLP139 T01330127 53005

2010/08/10 11:00
CWWB 101100Z AUTO 21002KT 22/21 RMK AO1 SLP133 T02200206 53003

2010/08/10 11:06
KLSF 101106Z AUTO 00000KT 2SM BR CLR 22/22 A2999 RMK AO2 SLP154 PNO $

2010/08/10 11:05
KMMT 101105Z AUTO 00000KT 6SM BR SCT003 SCT017 SCT027 24/24 A3003 RMK AO2 SLP167

2010/08/10 11:05
KMTC 101105Z 00000KT 1SM R19/4500FT BR CLR 20/20 A2996

2010/08/10 11:04
KSSC 101104Z 00000KT 4SM BR OVC002 24/23 A3002 RMK AO2A SLP164 $

2010/08/10 11:03
PGUA 101103Z AUTO 06006KT 10SM SCT017 SCT023 BKN031 26/25 A2996 RMK AO2 LTG DSNT W CIG 016 RWY24L SLP128 $

2010/08/10 11:01
YBCS 101101Z 00000KT 9999 FEW003 BKN017 BKN025 24/23 Q1015 TEMPO 1101/1401 3000 -SHRA FEW003 BKN010

2010/08/10 11:05
KBRD 101105Z AUTO 00000KT 1 3/4SM BR CLR 19/17 A2996 RMK AO2

2010/08/10 11:05
KFFC 101105Z AUTO 00000KT 2 1/2SM BR CLR 21/20 A3004 RMK AO2

2010/08/10 11:05
KUTS 101105Z AUTO 00000KT 3/4SM BR CLR 25/23 A2993 RMK AO2

2010/08/10 11:04
PAAQ 101104Z AUTO 00000KT 10SM BKN006 OVC012 12/10 A2979 RMK AO2 TSNO

2010/08/10 11:05
KBGM 101105Z 00000KT 1/4SM FG FEW001 BKN060 OVC095 20/19 A3001 RMK AO2 RVRNO

2010/08/10 11:05
KERI 101105Z 08003KT 2 1/2SM BR SCT010 OVC038 22/21 A2996 RMK AO2 CIG 010 NE

2010/08/10 11:05
KMTH 101105Z AUTO 25005G20KT 1 1/4SM +RA BR FEW008 BKN019 OVC031 25/24 A2985 RMK AO2 TSE1054 P0017

2010/08/10 11:05
KYIP 101105Z 00000KT 1 1/4SM BR SCT001 19/18 A2998 RMK AO2

2010/08/10 11:01
KNSE 101101Z 04004KT 5SM BR FEW250 26/23 A2994 RMK AO2 $

2010/08/10 11:05
PABR 101105Z 08018KT 4SM -DZ BR OVC002 01/01 A2987 RMK AO2 P0000 $

2010/08/10 11:03
PAJZ 101103Z AUTO 17010KT 6SM BR SCT003 BKN009 OVC030 09/09 A2967 RMK AO2 PWINO TSNO CIG 007V011 $

2010/08/10 11:05
PALH 101105Z 02003KT 10SM FEW008 OVC050 12/10 A2978 RMK AO2

2010/08/10 11:04
PAMB 101104Z AUTO 20008KT 1 3/4SM BR OVC003 09/09 A2958 RMK AO2 PWINO TSNO $

2010/08/10 11:05
PATO 101105Z AUTO 12008G19KT 10SM SCT021 BKN026 OVC049 12/09 A2984 RMK AO2 T01170094 TSNO

2010/08/10 10:56
KNFL 101056Z AUTO 22004KT 10SM CLR 16/04 A2995 RMK AO2 SLP114 T01560044 TSNO

2010/08/10 10:59
KNGU 101059Z 22003KT 10SM FEW060 26/23 A2999 RMK AO2 SLP156 T02560228

2010/08/10 10:57
PHNG 101057Z AUTO 08008KT 10SM SCT026 SCT036 BKN060 25/20 A3010 RMK AO2 SLP186 T02500200 $

2010/08/10 10:55
PWAK 101055Z 07011KT 10SM FEW023 28/24 A3006 RMK AO2A

2010/08/10 11:00
EIDW 101100Z 28015KT 9999 SCT028 16/10 Q1007 NOSIG

2010/08/10 11:00
EINN 101100Z 29010KT 9999 FEW021 BKN050 18/13 Q1009 NOSIG

2010/08/10 11:00
EICK 101100Z 31013KT 9999 BKN027 17/09 Q1010 NOSIG

2010/08/10 11:00
EIKN 101100Z 29012KT 9999 SCT022 SCT047 15/10 Q1008 NOSIG

2010/08/10 11:04
KHON 101104Z AUTO 23009KT 9SM -RA SCT010 SCT014 BKN055 23/21 A2984 RMK AO2 P0002 TSNO

2010/08/10 11:02
KBTR 101102Z 06003KT 3/4SM BR SCT002 BKN200 23/23 A2994 RMK AO2 VIS SW-NW 2 SCT V BKN RVRNO

2010/08/10 11:03
KCAE 101103Z 00000KT 1/4SM FG OVC002 24/23 A3002 RMK AO2 TWR VIS 1/4 RVRNO

2010/08/10 11:04
PANT 101104Z 14003KT 1/4SM FG OVC001 12/11 A3003 RMK AO2

2010/08/10 11:07
KBTV 101107Z 00000KT 1SM BR OVC003 18/18 A2993 RMK AO2 RVRNO

2010/08/10 11:15
KCCA 101115Z AUTO 00000KT 4SM BR CLR 25/24 A2995 RMK AO2

2010/08/10 10:55
KGZL 101055Z AUTO 00000KT 10SM 23/22 A2992 RMK AO2 PWINO

2010/08/10 11:00
HSSS 101100Z 26012KT CAVOK 36/17 Q1009

2010/08/10 11:00
FBFT 101100Z 11013KT CAVOK 20/10 20/10 1029

2010/08/10 11:00
GMMN 101100Z 03010KT 350V060 CAVOK 40/13 Q1016 NOSIG

2010/08/10 11:00
GMTA 101100Z 02008KT 8000 SCT013 25/22 Q1018

2010/08/10 11:00
OBBI 101100Z 10007KT CAVOK 40/18 Q0998 NOSIG

2010/08/10 11:00
OOMS 101100Z 03006KT 350V070 8000 NSC 33/28 Q1000 NOSIG

2010/08/10 11:00
OIAA 101100Z 00000KT CAVOK 45/17 Q0999

2010/08/10 11:00
OIAW 101100Z 15006KT CAVOK 48/10 Q0998 A2949

2010/08/10 11:00
OIBB 101100Z 31010KT CAVOK 39/28 Q0998 A2948 FEW100

2010/08/10 11:00
OIBK 101100Z 14012KT 7000 SKC 38/22 Q0999 A2950

2010/08/10 11:00
OICC 101100Z 31006KT 9999 FEW045 SCT100 38/M08 Q10134 A2994 865.2

2010/08/10 11:00
OIFM 101100Z 27006KT 9999 FEW035 33/M03 Q1016 A3003

2010/08/10 11:00
OIGG 101100Z 02016KT CAVOK 33/25 Q1009 A2980

2010/08/10 11:00
OIKB 101100Z 20010KT 5000 HZ SKC 36/26 Q1000 A2953

2010/08/10 11:00
OIKK 101100Z 32010KT CAVOK 32/M01 Q1016 A3001

2010/08/10 11:00
OIMM 101100Z 02018KT CAVOK 34/M03 Q1013 A2993

2010/08/10 11:00
OINZ 101100Z 36006KT 9999 FEW100 35/20 Q1009 A2981

2010/08/10 11:00
OINZ 101100 Z 009 A2981

2010/08/10 11:00
OISS 101100Z 24006KT CAVOK 35/M05 Q1013 A2994

2010/08/10 11:00
OITL 101100Z 06022KT 9999 FEW040 27/12 Q1017 A3004

2010/08/10 11:00
OITR 101100Z 15010KT 9999 FEW035 35/06 Q1013 A2993

2010/08/10 11:00
OITT 101100Z 06010KT 9999 FEW035 FEW040CB 36/07 Q1014 A2997

2010/08/10 11:00
OIYY 101100Z 33008KT CAVOK 36/M07 Q1014 A2995

2010/08/10 11:00
OIZH 101100Z 30006KT 8000 NSC 36/M02 Q1010 A2985

2010/08/10 11:00
OTBD 101100Z 08007KT CAVOK 41/20 Q0999 NOSIG

2010/08/10 11:00
UAAA 101100Z 33006MPS 300V360 9999 SCT050CB BKN100 29/11 Q1011 88CLRD65 TEMPO TS

2010/08/10 11:00
UACC 101100Z 36004MPS 310V010 CAVOK 20/03 Q1019 040/0070 NOSIG RMK QFE732/0977

2010/08/10 11:00
UAKK 101100Z 35008MPS 9999 BKN050CB 17/06 Q1018 050///70 NOSIG RMK QFE716/0955

2010/08/10 11:00
UARR 101100Z 07007MPS 4200 FU NSC 36/04 Q1018 04CLRD70 NOSIG RMK QFE760/1013

2010/08/10 11:00
UATE 101100Z 21007MPS 9999 FEW060CB BKN180 38/06 Q1012 WS RWY12 120///70 NOSIG RMK QFE757/1009

2010/08/10 11:00
UATG 101100Z 22005MPS CAVOK 39/14 Q1013 WS RWY14 14CLRD70 NOSIG RMK QFE761/1015

2010/08/10 11:00
UATT 101100Z 05005MPS 020V090 9999 NSC 31/03 Q1020 13CLRD70 NOSIG RMK QFE746/0994

2010/08/10 11:00
UAUU 101100Z 28003MPS 220V340 CAVOK 27/00 Q1021 33CLRD70 NOSIG RMK QFE750/1000

2010/08/10 11:00
UTDD 101100Z 22002MPS 170V270 9999 SCT066 37/05 Q1006 09CLRD70 NOSIG RMK QFE687/0916

2010/08/10 11:00
OBBI 101100Z 10007KT CAVOK 40/18 Q0998 NOSIG

2010/08/10 11:00
SBCG 101100Z 13008KT 6000 NSC 15/11 Q1021

2010/08/10 11:00
SBJP 101100Z 18010KT 9999 SCT020 BKN070 26/21 Q1018

2010/08/10 11:03
PGUA 101103Z AUTO 06006KT 10SM SCT017 SCT023 BKN031 26/25 A2996

2010/08/10 11:00
MKJS 101100Z 00000KT 9999 FEW024 BKN200 26/22 Q1012

2010/08/10 11:00
TDPD 101100Z 27005KT 9999 FEW017 FEW///CB 25/23 Q1014

2010/08/10 11:04
TFFR 101104Z 09002KT 9999 FEW020 28/25 Q1014 TEMPO 4000 SHRA

2010/08/10 11:00
TGPY 101100Z 18007KT 9999 VCSH FEW015CB 29/26 Q1013 JP-N/ CB-WNW

2010/08/10 11:00
TNCM 101100Z 12008KT 9999 -SHRA SCT019 29/24 Q1014

2010/08/10 11:00
ZHHH 101100Z VRB01MPS 4000 BR SKC 31/29 Q1002 NOSIG

2010/08/10 11:00
ZLLL 101100Z 01007MPS 9999 FEW040CB 23/16 Q1011 BECMG TL1145 31004MPS

2010/08/10 11:00
ZSNJ 101100Z 04002MPS 9999 SCT040 32/23 Q1003 NOSIG

2010/08/10 11:00
ZSOF 101100Z 15001MPS 9999 FEW030 32/25 Q1003 NOSIG

2010/08/10 11:00
ZUCK 101100Z 07002MPS CAVOK 38/20 Q0999 NOSIG

2010/08/10 11:00
ZYHB 101100Z 19002MPS CAVOK 19/14 Q1006 NOSIG

2010/08/10 11:00
CZBF 101100Z 30003KT 15SM FEW100 FEW210 20/15 A2979 RMK AC1CI2 SLP089

2010/08/10 11:00
CYBG 101100Z 00000KT 25SM FEW080 FEW210 15/12 A2985 RMK AC1CI1 SLP109

2010/08/10 11:00
CYDQ 101100Z AUTO 00000KT 9SM CLR 05/04 A2989 RMK SLP141

2010/08/10 11:00
CYEG 101100Z 23006KT 15SM FEW080 BKN110 BKN200 12/12 A2986 RMK AC2AC2CI2 SLP111

2010/08/10 11:00
CYFB 101100Z 33011KT 30SM BKN042 BKN280 13/12 A2988 RMK SC6CI1 SLP119

2010/08/10 11:00
CYFC 101100Z AUTO VRB02KT 1/4SM FG VV002 17/17 A2982 RMK SLP100 DENSITY ALT 400FT RVR MISG

2010/08/10 11:00
CYFT 101100Z 31015KT 5/8SM -DZ BR OVC002 09/09 A2962 RMK ST8 SLP032

2010/08/10 11:00
CYGL 101100Z 34002KT 12SM -RA FEW004 OVC013 08/08 A2997 RMK SF1SC6 SLP157

2010/08/10 11:00
CYHZ 101100Z 18005KT 3SM BR BKN002 OVC100 18/18 A2986 RMK SF6AC2 SLP110

2010/08/10 11:00
CYJT 101100Z 19004KT 15SM FEW008 BKN030 OVC050 17/15 A2975 RMK SF2SC6SC1 SLP076

2010/08/10 11:00
CYKL 101100Z AUTO 33009KT 3SM DZ OVC005 08/08 A2975 RMK PCPN 0.5MM PAST HR SLP090

2010/08/10 11:00
CYMH 101100Z 22010G15KT 15SM FEW009 BKN016 OVC045 17/14 A2955 RMK SF2CU3SC2 SLP008

2010/08/10 11:00
CYMX 101100Z 22003KT 1/8SM R06/1800FT/N FG VV001 18/16 A2992 RMK FG8 SLP131

2010/08/10 11:00
CYOW 101100Z 21003KT 0SM R07/1000FT/N R32/2600FT/N FG VV001 18/18 A2993 RMK FG8 SLP135

2010/08/10 11:00
CYPL 101100Z 20005KT 15SM BKN040 BKN240 18/14 A2995 RMK SC5CI1 TCU ASOCTD SLP141

2010/08/10 11:00
CYQB 101100Z 29002KT 2SM BR OVC003 16/15 A2988 RMK FG2SF5 SLP119

2010/08/10 11:00
CYQG 101100Z 26003KT 2 1/2SM BR MIFG SKC 22/22 A2997 RMK SLP144

2010/08/10 11:00
CYQM 101100Z 26006KT 2SM BR OVC003 18/18 A2982 RMK FG6SF2 SLP098

2010/08/10 11:00
CYQQ 101100Z 31003KT 20SM FEW040 FEW100 FEW240 13/11 A2995 RMK SC1AC1CI0 SLP142

2010/08/10 11:00
CYQX 101100Z 21012KT 15SM FEW012 FEW040 BKN074 OVC100 15/13 A2982 RMK SC1SC1AC6AC1 SHS DIST NE-SE SLP101

2010/08/10 11:00
CYQY 101100Z 22008KT 15SM OVC011 19/17 A2981 RMK SC7 SLP095

2010/08/10 11:00
CYRB 101100Z 03013KT 15SM FEW240 05/00 A2997 RMK CI0 SLP154

2010/08/10 11:00
CYSJ 101100Z 19003KT 1/8SM R23/1600FT/N FG VV001 16/14 A2985 RMK FG8 SLP108

2010/08/10 11:00
CYTE 101100Z AUTO 12004KT 9SM OVC054 OVC071 12/10 A2994 RMK SLP142

2010/08/10 11:00
CYTR 101100Z 00000KT 2SM BR OVC020 19/19 A2993 RMK FG2SF6 CIG VRB 15-25 VIS VRB 11/2-21/2 SLP135

2010/08/10 11:00
CYUL 101100Z 26005KT 5/8SM BR OVC002 20/19 A2991 RMK FG4SF4 SLP128

2010/08/10 11:00
CYUY 101100Z 00000KT 15SM FEW070 FEW200 15/13 A2992 RMK AC1CI0 ACC ASOCTD SLP133

2010/08/10 11:00
CYVP 101100Z 35007KT 2SM -DZ BR OVC004 06/04 A2989 RMK FG4SF4 SLP124

2010/08/10 11:00
CYVR 101100Z 10002KT 15SM BKN012 BKN045 OVC100 15/10 A2994 RMK SC6SC1AC1 SLP138

2010/08/10 11:00
CYWG 101100Z 20004KT 15SM FEW065CB SCT110 BKN250 21/19 A2984 RMK CB2AC2CI2 CB DIST W SLP103

2010/08/10 11:00
CYWK 101100Z 36006KT 15SM SCT012 BKN034 11/09 A2976 RMK SF2SC5 SLP089

2010/08/10 11:00
CYXU 101100Z 00000KT 1/4SM R15/3000FT/N FG SKC 20/20 A2997 RMK FG6 SLP145

2010/08/10 11:00
CYXX 101100Z 27002KT 10SM FEW010 BKN050 14/10 A2994 RMK SF2SC4 SLP138

2010/08/10 11:00
CYXY 101100Z 22005KT 40SM SCT050 09/06 A2985 RMK SC4 SLP123

2010/08/10 11:00
CYYC 101100Z 35007KT 15SM FEW008 SCT090 BKN120 12/10 A2992 RMK ST2AC2AC2 SLP127

2010/08/10 11:00
CYYJ 101100Z 00000KT 3SM BR FEW005 BKN012 OVC027 13/12 A2994 RMK SF1SC6SC2 SLP139

2010/08/10 11:00
CYYQ 101100Z 11004KT 1/8SM R33/1400FT/D FG VV001 08/08 A3007 RMK FG8 SLP184

2010/08/10 11:00
CYYR 101100Z 27007KT 15SM FEW030 BKN076 BKN250 15/12 A2962 RMK CU1AC6CI0 SLP031

2010/08/10 11:00
CYYT 101100Z 10005KT 1 1/2SM -DZ BR OVC003 14/13 A2987 RMK FG3SF5 SLP116

2010/08/10 11:00
CYYZ 101100Z 26003KT 6SM BR SCT043 BKN053 21/21 A2994 RMK SC3SC3 VIS HIER SE 10 SLP138

2010/08/10 11:00
CYZF 101100Z 00000KT 15SM FEW110 SCT230 16/12 A2974 RMK AC1CI2 SLP077

2010/08/10 11:00
CYZV 101100Z 27008KT 30SM FEW020 FEW070 FEW240 16/12 A2976 RMK CF1AC1CI1 SLP080

2010/08/10 11:00
CYZX 101100Z 27004KT 9SM FEW002 BKN012 BKN050 19/18 A2984 RMK SF2SF2SC2 WNDY HILL 23005KT CIG VRB 8-14 SLP105

2010/08/10 11:00
CYZY 101100Z AUTO 15002KT 9SM OVC081 10/09 A2992 RMK SLP147

2010/08/10 11:00
LRTC 101100Z 34010KT 310V020 CAVOK 33/17 Q1011

2010/08/10 11:02
RJOF 101102Z 12016G27KT 9999 FEW020 SCT045 BKN090 28/24 Q1010 RMK 1CU020 3SC045 6AC090 A2985

2010/08/10 11:01
RJSM 101101Z 11004KT 1500 R10/P1800N BR FEW000 SCT001 BKN003 23/22 Q1013 RMK 2ST000 3ST001 5ST003 A2993 VIS NE-E 600M

2010/08/10 11:00
EPSC 101100Z 23003KT 9999 BKN026 22/16 Q1016

2010/08/10 11:00
LJLJ 101100Z 12005KT 070V200 9999 SCT040 SCT300 25/15 Q1018 NOSIG

2010/08/10 11:00
LJMB 101100Z 16005KT 9999 FEW032 25/17 Q1018

2010/08/10 11:00
LJPZ 101100Z 30009KT 9999 FEW050 28/18 Q1015

2010/08/10 11:00
LKMT 101100Z VRB01KT 9999 FEW036 23/14 Q1018 NOSIG RMK REG QNH 1015

2010/08/10 11:00
LKPR 101100Z 04004KT 330V090 9999 BKN045 23/12 Q1018 NOSIG RMK REG QNH 1015

2010/08/10 11:00
LKTB 101100Z 21004KT 140V250 9999 SCT043 25/15 Q1018 NOSIG RMK REG QNH 1015

2010/08/10 11:00
LPAZ 101100Z 06010KT 030V090 9999 FEW023 BKN037 21/15 Q1021

2010/08/10 11:00
LPFR 101100Z 23007KT CAVOK 32/18 Q1016

2010/08/10 11:00
LPPD 101100Z 06006KT 020V110 9999 FEW022 BKN040 22/13 Q1021

2010/08/10 11:00
LPPR 101100Z 00000KT 8000 SKC 28/17 Q1018

2010/08/10 11:00
LPPS 101100Z 32007KT 290V360 9999 SCT015 24/19 Q1017

2010/08/10 11:00
LPPT 101100Z 11004KT 070V150 CAVOK 36/14 Q1017 NOSIG

2010/08/10 11:00
LFVP 101100Z 16006KT 9999 FEW004 BKN008 BKN016 16/16 Q1011 NOSIG

2010/08/10 10:50
LGZA 101050Z 14004KT 9999 FEW020 32/21 Q1011

2010/08/10 11:00
FMCZ 101100Z 17010KT 9999 FEW023 SCT100 28/19 Q1017

2010/08/10 11:00
FMEE 101100Z 13008KT 9999 FEW020 SCT050 23/19 Q1022 NOSIG

2010/08/10 11:00
LFLD 101100Z 24008KT 200V290 CAVOK 25/13 Q1017

2010/08/10 11:00
LFLV 101100Z 32003KT 250V350 9999 FEW033 BKN250 24/16 Q1018

2010/08/10 11:00
LFQB 101100Z 27011KT CAVOK 26/12 Q1015

2010/08/10 11:00
LFRM 101100Z 23008KT 180V280 9999 SCT011 BKN023 22/15 Q1016

2010/08/10 10:50
LIBC 101050Z 03010KT CAVOK 30/12 Q1014 RMK VIS MIN 9999

2010/08/10 10:50
LIBD 101050Z 01009KT 340V050 CAVOK 28/17 Q1014 RMK VIS MIN 9999

2010/08/10 10:50
LIBP 101050Z 01007KT CAVOK 27/20 Q1015 RMK VIS MIN 9999

2010/08/10 10:50
LICA 101050Z 26014KT 9999 FEW030 27/20 Q1015 RMK VIS MIN 9999

2010/08/10 10:50
LICC 101050Z 07010KT CAVOK 29/17 Q1015 RMK VIS MIN 9999

2010/08/10 10:55
LICG 101055Z 32004KT CAVOK 29/18 Q1016 RMK SKC VIS MIN 9999 WIND THR08 /////KT WIND THR21 35005KT BLU

2010/08/10 10:50
LICR 101050Z 35013KT 9999 FEW025 30/16 Q1014 RMK VIS MIN 9999

2010/08/10 10:55
LICT 101055Z 33010KT CAVOK 31/10 Q1015 RMK SKC VIS MIN 9999 WIND THR13 32007KT BLU

2010/08/10 10:50
LIEA 101050Z 30008KT 240V330 CAVOK 30/17 Q1016 RMK VIS MIN 9999

2010/08/10 10:50
LIEO 101050Z 05009KT CAVOK 29/16 Q1016 RMK VIS MIN 9999

2010/08/10 10:50
LIMG 101050Z 07011KT 9999 FEW040 27/21 Q1016 RMK VIS MIN 9999

2010/08/10 10:50
LIPO 101050Z 26005KT 210V290 9999 FEW050 28/18 Q1015 RMK VIS MIN 9999

2010/08/10 10:50
LIPY 101050Z 35007KT 310V020 9999 FEW050 27/21 Q1015 RMK VIS MIN 9999

2010/08/10 10:50
LIRZ 101050Z VRB02KT 9999 FEW050 30/13 Q1015 RMK VIS MIN 9999

2010/08/10 10:45
LIBR 101045Z 33018G28KT 9999 FEW018CB 26/22 Q1013 NOSIG RMK BKN SCT090 BKN200 VIS MIN 9999 WIND THR13 /////KT WIND THR31 31015KT BLU

2010/08/10 10:45
LIPH 101045Z 33002KT 9999 FEW020 28/19 Q1016 RMK FEW VIS MIN 9999 WIND THR07 /////KT BLU

2010/08/10 10:45
LIPR 101045Z 03007KT 9999 FEW025 27/25 Q1015 RMK FEW VIS MIN 9999 WIND THR31 04007KT BLU

2010/08/10 10:45
LIPX 101045Z 14004KT 9999 FEW050 29/16 Q1016 RMK FEW VIS MIN 9999 BLU

2010/08/10 10:55
LIMH 101055Z 21007KT 9999 FEW000TCU 05/M05 Q1031 RMK SCT MON CLD SCT VAL CLD SCT VIS MIN 9999

2010/08/10 10:55
LIMN 101055Z VRB03KT 9999 SCT020 27/16 Q1016 RMK SCT VIS MIN 9999 BLU

2010/08/10 10:55
LIMS 101055Z 08004KT 9999 FEW030 27/20 Q1016 RMK FEW VIS MIN 9999 WIND THR30 06004KT BLU

2010/08/10 10:55
LIMT 101055Z /////KT 8000 SCT013TCU 18/17 Q1019 RMK SCT MON LIB VAL FOSCHIA VIS MIN 8000

2010/08/10 10:55
LIMU 101055Z 09006KT 9999 FEW023 26/21 Q1018 RMK SCT QUK 1 QUL 1 SE VIS MAR 12 KM VIS MIN 9999

2010/08/10 10:55
LIMY 101055Z /////KT 9999 SCT025 23/16 Q1018 RMK BKN SCT190 VAL FOSCHIA VIS MIN 9999

2010/08/10 10:55
LIPA 101055Z 26002KT 9999 FEW040 28/22 Q1015 RMK FEW VIS MIN 9999 A3000 BLU

2010/08/10 10:55
LIPC 101055Z 08006KT 9999 FEW030 29/20 Q1015 RMK FEW VIS MIN 9999 WIND THR12 08006KT BLU

2010/08/10 10:55
LIPF 101055Z 00000KT 9999 SCT040 29/22 Q1015 RMK SCT VIS MIN 9999

2010/08/10 10:55
LIPI 101055Z 05004KT CAVOK 29/18 Q1015 RMK SKC VIS MIN 9999 WIND THR06 /////KT BLU

2010/08/10 10:55
LIPL 101055Z 23003KT CAVOK 27/22 Q1016 RMK BKN BKN100 VIS MIN 9999 BLK BLU

2010/08/10 10:55
LIPS 101055Z 14002KT 9999 FEW025 29/17 Q1016 RMK FEW VIS MIN 9999 BLU

2010/08/10 11:03
PGUA 101103Z AUTO 06006KT 10SM SCT017 SCT023 BKN031 26/25 A2996 RMK AO2 LTG DSNT W CIG 016 RWY24L SLP128 $

2010/08/10 10:50
LIBG 101050Z 36012KT 330V040 CAVOK 31/14 Q1013 RMK VIS MIN 9999

2010/08/10 10:55
LIBN 101055Z 35015KT CAVOK 29/16 Q1013 RMK BKN FEW100 SCT180 VIS MIN 9999 WIND THR14 36012KT BLU

2010/08/10 10:55
LIBV 101055Z 36010KT CAVOK 29/18 Q1013 RMK BKN BKN100 VIS MIN 9999 WIND THR14 34012KT BLU

2010/08/10 10:50
LICD 101050Z 31007KT CAVOK 28/19 Q1016 RMK VIS MIN 9999

2010/08/10 10:55
LICZ 101055Z 06013KT CAVOK 34/12 Q1014 RMK SKC VIS MIN 9999 WIND THR28 /////KT BLU

2010/08/10 10:55
LIED 101055Z 31005KT CAVOK 35/11 Q1015 RMK SKC VIS MIN 9999 BLU

2010/08/10 10:50
LIQN 101050Z 33004KT 9999 FEW045 29/14 Q1016 RMK VIS MIN 9999

2010/08/10 10:55
LIQW 101055Z 11003KT 9999 FEW025 27/19 Q1016 RMK FEW VIS MIN 9999 BLU

2010/08/10 10:55
LIRE 101055Z 22008KT 9999 FEW020 27/22 Q1015 RMK FEW VIS MIN 9999 WIND THR31 21009KT BLU

2010/08/10 10:55
LIRG 101055Z 26004KT 9999 FEW040 32/17 Q1015 RMK FEW MON NE LIB NC VIS MIN 9999 BLU

2010/08/10 10:55
LIRH 101055Z 17002KT 9999 FEW040 32/17 Q1015 RMK FEW MON LIB NC VIS MIN 9999 WIND THR16 11003KT BLU

2010/08/10 10:55
LIRL 101055Z 19005KT 9999 FEW025 29/20 Q1015 RMK FEW MON LIB NC VIS MIN 9999 BLU

2010/08/10 10:55
LIRS 101055Z 22004KT 9999 FEW025 29/18 Q1015 RMK FEW VIS MIN 9999 WIND THR21 /////KT BLU

2010/08/10 10:50
LIRU 101050Z 29003KT CAVOK 32/20 Q1015 RMK VIS MIN 9999

2010/08/10 10:55
LIRV 101055Z 19006KT CAVOK 30/14 Q1016 RMK FEW FEW060 MON E SE LIB NC VIS MIN 9999 BLU

2010/08/10 10:55
LIRX 101055Z 36005KT 9999 BKN023 24/18 Q1016 RMK BKN VIS MIN 9999N VIS MAR 15 KM

2010/08/10 10:50
LIRZ 101050Z VRB02KT 9999 FEW050 30/13 Q1015 RMK VIS MIN 9999

2010/08/10 10:55
LIVC 101055Z 17007KT 0300 FG VV001 13/10 Q1026 RMK MON INVIS VAL INVIS VIS MIN 0300

2010/08/10 10:55
LIVD 101055Z 00000KT 9999 SCT040 22/10 Q1020 RMK BKN SCT200 VIS MIN 9999

2010/08/10 10:55
LIVM 101055Z 10006KT 9999 FEW025 28/24 Q1016 RMK FEW QUK 0 QUL 0 VIS MAR 20 KM VIS MIN 9999

2010/08/10 10:55
LIVO 101055Z 12003KT 9999 SCT030 23/16 Q1018 RMK SCT VIS MIN 9999

2010/08/10 10:55
LIVP 101055Z 18008KT 1500 BR BKN000TCU 14/11 Q1024 RMK BKN MON CIME INC VAL CLD SCT VIS MIN 1500

2010/08/10 10:55
LIVR 101055Z 14013KT 9999 RA BKN020 14/09 Q1023 RMK BKN MON GEN INC VIS MIN 9999

2010/08/10 10:55
LIVT 101055Z 23006KT CAVOK 29/19 Q1014 RMK SKC QUK 1 QUL 1 SW VIS MAR 25 KM VIS MIN 9999

2010/08/10 10:45
LIPX 101045Z 14004KT 9999 FEW050 29/16 Q1016 RMK FEW VIS MIN 9999 BLU

2010/08/10 11:00
RJAA 101100Z 17006KT 9999 FEW015 SCT045 BKN/// 26/24 Q1015 NOSIG RMK 1CU015 4SC045 A2999

2010/08/10 11:00
RJCC 101100Z 17010KT 1800 -DZ BR BKN001 BKN002 21/20 Q1014 RMK 5ST001 7ST002 A2995

2010/08/10 11:00
RJFK 101100Z 13009KT 9999 FEW010 SCT015 BKN040 26/24 Q1012 RMK 1CU010 3CU015 5CU040 A2988

2010/08/10 11:00
RJOO 101100Z 07004KT 020V120 9999 FEW010 SCT045 BKN120 28/22 Q1014 RMK 1CU010 3CU045 5AC120 A2995 LIGHTNING SE

2010/08/10 11:00
RJTT 101100Z 17012KT 9999 FEW015 SCT130 BKN/// 27/23 Q1015 RMK 1CU015 3AC130 A2997

2010/08/10 11:00
RKPK 101100Z 16013KT 8000 -RA FEW015 SCT025 OVC040 27/23 Q1006 NOSIG

2010/08/10 11:07
KBTV 101107Z 00000KT 1SM BR OVC003 18/18 A2993

2010/08/10 11:00
BIRK 101100Z 36008KT 9999 FEW020 SCT036 13/08 Q1014

2010/08/10 10:58
PTRO 101058Z 17005KT 14SM SCT016TCU BKN120 BKN300 28/24 A2991 RMK TCU VC ALQDS

2010/08/10 11:01
RJSM 101101Z 11004KT 1500 R10/P1800N BR FEW000 SCT001 BKN003 23/22 Q1013 RMK 2ST000 3ST001 5ST003 A2993 VIS NE-E 600M

2010/08/10 11:00
LPAZ 101100Z 06010KT 030V090 9999 FEW023 BKN037 21/15 Q1021

2010/08/10 11:00
LPFL 101100Z 16007KT 130V190 9999 FEW022 SCT037 24/17 Q1022

2010/08/10 11:00
LPFR 101100Z 23007KT CAVOK 32/18 Q1016

2010/08/10 11:00
LPHR 101100Z 12006KT 070V150 9999 FEW016 SCT040 25/15 Q1022

2010/08/10 11:00
LPMA 101100Z VRB04KT 9999 SCT016 SCT030 25/19 Q1017 RS07001KT 0512003KT 2310003KT

2010/08/10 11:00
LPPD 101100Z 06006KT 020V110 9999 FEW022 BKN040 22/13 Q1021

2010/08/10 11:00
LPPR 101100Z 00000KT 8000 SKC 28/17 Q1018

2010/08/10 11:00
LPPS 101100Z 32007KT 290V360 9999 SCT015 24/19 Q1017

2010/08/10 11:00
LPPT 101100Z 11004KT 070V150 CAVOK 36/14 Q1017 NOSIG

2010/08/10 11:00
UAAA 101100Z 33006MPS 300V360 9999 SCT050CB BKN100 29/11 Q1011 88CLRD65 TEMPO TS

2010/08/10 11:00
UACC 101100Z 36004MPS 310V010 CAVOK 20/03 Q1019 040/0070 NOSIG RMK QFE732/0977

2010/08/10 11:00
UAFM 101100Z 32009MPS CAVOK 32/08 Q1011 TEMPO 32007G12MPS

2010/08/10 11:00
UARR 101100Z 07007MPS 4200 FU NSC 36/04 Q1018 04CLRD70 NOSIG RMK QFE760/1013

2010/08/10 11:00
UATE 101100Z 21007MPS 9999 FEW060CB BKN180 38/06 Q1012 WS RWY12 120///70 NOSIG RMK QFE757/1009

2010/08/10 11:00
UATG 101100Z 22005MPS CAVOK 39/14 Q1013 WS RWY14 14CLRD70 NOSIG RMK QFE761/1015

2010/08/10 11:00
UATT 101100Z 05005MPS 020V090 9999 NSC 31/03 Q1020 13CLRD70 NOSIG RMK QFE746/0994

2010/08/10 11:00
UBBG 101100Z 08016KT 9999 FEW100 35/08 Q1010 NOSIG RMK R12L/CLRD70

2010/08/10 11:00
UTAA 101100Z 33004MPS 300V030 9999 SKC 39/01 Q1010 NOSIG

2010/08/10 11:00
UTAK 101100Z 19006MPS CAVOK 41/02 Q1010 NOSIG

2010/08/10 11:00
UTAT 101100Z 33006MPS CAVOK 39/17 Q1010 NOSIG

2010/08/10 11:00
UTDD 101100Z 22002MPS 170V270 9999 SCT066 37/05 Q1006 09CLRD70 NOSIG RMK QFE687/0916

2010/08/10 11:00
UTDL 101100Z 24008MPS 9999 FEW046 36/10 Q1007 NOSIG RMK QFE717 8809//70

2010/08/10 11:00
UTAM 101100Z 34005G10MPS CAVOK 39/03 Q1005 NOSIG

2010/08/10 11:00
SEGU 101100Z 23005KT 9999 BKN100 22/19 Q1013 NOSIG

2010/08/10 11:00
SEQU 101100Z 33002KT 9999 FEW040 09/05 Q1027 RMK A3034 NOSIG

2010/08/10 11:00
SPQT 101100Z /////KT 4000 BR SCT008 BKN100 23/22 Q1012 TEMPO 2000 RMK BIRD HAZARD RWY 06/24 PP000

2010/08/10 11:00
SPQU 101100Z 05008KT CAVOK 08/M16 Q1027 NOSIG RMK PP000

2010/08/10 11:00
SPSO 101100Z 19003KT 5000 BR SCT008 OVC012 14/12 Q1018 RMK PP000

2010/08/10 11:00
SPTN 101100Z VRB02KT 9999 SCT010 09/06 Q1013 RMK PP000

2010/08/10 11:00
SPZO 101100Z 00000KT 9999 FEW230 00/M07 Q1035 BECMG 8000 RMK PP000

2010/08/10 11:00
SLTJ 101100Z 00000KT 9999 SKC 02/00 Q1025

2010/08/10 11:00
SELT 101100Z 00000KT 8000 VCFG BKN020 08/07 Q1032

2010/08/10 11:00
SEMT 101100Z 16008KT 9999 FEW010 BKN020 23/21 Q1013

2010/08/10 11:00
RKPK 101100Z 16013KT 8000 -RA FEW015 SCT025 OVC040 27/23 Q1006 NOSIG

2010/08/10 11:00
LERT 101100Z 18005KT CAVOK 36/08 Q1017 NOSIG

2010/08/10 10:55
LICZ 101055Z 06013KT CAVOK 34/12 Q1014 RMK SKC VIS MIN 9999 WIND THR28 /////KT BLU

2010/08/10 11:00
CQCM 101100Z 35016KT 8SM 050FEW 250SCT 44/19 A2949 RMK WND/ALTM ESTD CU1 CI1 MDT CU TCU ASOCTD T04420191

2010/08/10 11:00
CWCA 101100Z 00000KT 12SM -RA SCT007 BKN025 OVC070 13/12 A2958 RMK ST3SC3AS2 FG PTH TPG HLS E SLP017

2010/08/10 11:00
CWCL 101100Z AUTO 00000KT 9SM CLR 04/03 A2994 RMK SLP152

2010/08/10 11:00
CWEU 101100Z 27009KT 40SM FEW002 FEW080 00/M02 A3001 RMK CF1AC1 SLP164

2010/08/10 11:00
CWFD 101100Z AUTO 36025G32KT 9SM 05/ RMK ALTM MISG

2010/08/10 11:00
CWHN 101100Z AUTO 02004KT 9SM CLR 14/13 A2987 RMK SLP118

2010/08/10 11:00
CWIL 101100Z AUTO 19010KT 12/ A2986 RMK SLP120

2010/08/10 11:00
CWKM 101100Z AUTO 07004KT 09/ A2968 RMK SLP056

2010/08/10 11:00
CWKW 101100Z AUTO 33009KT 02/ A2978 RMK SLP110

2010/08/10 11:00
CWLI 101100Z AUTO 05004KT 08/ A2973 RMK SLP078

2010/08/10 11:00
CWLX 101100Z AUTO 34006KT 15/ A2989 RMK SLP129

2010/08/10 11:00
CWLY 101100Z AUTO 20003KT 9SM FEW003 SCT032 OVC086 13/12 A2994 RMK SLP142

2010/08/10 11:00
CWOB 101100Z AUTO ///// 0SM CLR 03/ A2981 RMK SLP131

2010/08/10 11:00
CWRH 101100Z AUTO ///// 03/ A2981 RMK SLP122

2010/08/10 11:00
CWRX 101100Z AUTO 26008KT 09/ A2989

2010/08/10 11:00
CWTU 101100Z AUTO 29019KT 06/ A2957 RMK SLP026

2010/08/10 11:00
CWUP 101100Z AUTO 19003KT 07/ A2987 RMK SLP137

2010/08/10 11:00
CWUW 101100Z AUTO ///// 9SM CLR 11/ A2990 RMK SLP148

2010/08/10 11:00
CWVD 101100Z AUTO ///// 05/ A2986 RMK SLP148

2010/08/10 11:00
CWVH 101100Z AUTO 14010KT 12/ A2968 RMK SLP061

2010/08/10 11:00
CWWU 101100Z 04003KT 6SM -DZ BR BKN004 BKN008 OVC012 15/14 A2986 RMK SF5SF2SF2 SLP111

2010/08/10 11:00
CWXR 101100Z AUTO 28010KT 08/ A2971 RMK SLP068

2010/08/10 11:00
CWYK 101100Z AUTO ///// 03/ A2964 RMK SLP064

2010/08/10 11:00
CWYM 101100Z AUTO 08014KT 03/ RMK ALTM MISG SLP143

2010/08/10 11:00
CWZZ 101100Z AUTO ///// 0SM CLR 02/ A2971 RMK SLP087

2010/08/10 11:00
CYAH 101100Z AUTO 27002KT 9SM OVC009 10/09 A2991 RMK SLP138

2010/08/10 11:00
CYAM 101100Z 30004KT 1/2SM R12/2800FT/N FG VV001 20/20 A2997 RMK FG8 SLP148

2010/08/10 11:00
CYAY 101100Z AUTO 23009KT 9SM OVC013 17/15 A2963 RMK SLP034 DENSITY ALT 700FT MAX WND 22021KT AT 1009Z

2010/08/10 11:00
CYBC 101100Z AUTO 28003KT 240V320 9SM BKN064 16/13 A2981 RMK SLP094

2010/08/10 11:00
CYBK 101100Z 00000KT 20SM FEW030 FEW090 FEW220 09/09 A3005 RMK SC1AS1CI1 SLP176

2010/08/10 11:00
CYBN 101100Z AUTO 00000KT 3 1/2SM CLR 21/19 A2995 RMK SLP140

2010/08/10 11:00
CYBR 101100Z 30005KT 15SM SCT060 OVC170 20/19 A2986 RMK SC3AC4 SLP109

2010/08/10 11:00
CYBU 101100Z AUTO 34003KT 9SM CLR 12/12 A2988 RMK SLP125

2010/08/10 11:00
CYBW 101100Z 30006KT 12SM OVC010 09/08 A2993 RMK SC8 SLP138

2010/08/10 11:00
CYBX 101100Z 23013G18KT 3/4SM -DZ BR OVC001 13/13 A2962 RMK FG6ST2 SLP031

2010/08/10 11:00
CYCB 101100Z 08014KT 1/4SM FG OVC003 08/08 A2983 RMK FG2SF6 SLP105

2010/08/10 11:00
CYCO 101100Z 24006KT 8SM MIFG VCFG FEW003 FEW040 BKN090 10/10 A2971 RMK SF1SC2AC5 TR SF SLP061

2010/08/10 11:00
CYCX 101100Z 00000KT 1/4SM FG VV001 17/17 A2983 RMK FG8 DA+787FT SLP100

2010/08/10 11:00
CYCY 101100Z AUTO 00000KT 9SM CLR 07/06 A2986 RMK SLP113

2010/08/10 11:00
CYDB 101100Z AUTO 12010KT 9SM CLR 11/04 A2979 RMK SLP105

2010/08/10 11:00
CYDF 101100Z 00000KT 15SM BKN023 17/15 A2974 RMK SC7 SLP071

2010/08/10 11:00
CYDN 101100Z AUTO 28003KT 9SM -RA SCT061 SCT089 OVC120 18/17 A2987 RMK SLP118 DENSITY ALT 1600FT

2010/08/10 11:00
CYDP 101100Z 31013KT 15SM -RA FEW009 OVC016 10/08 A2970 RMK SF2SC6 SLP059

2010/08/10 11:00
CYEK 101100Z AUTO 00000KT 6SM CLR 08/08 A3009 RMK SLP190

2010/08/10 11:00
CYEL 101100Z 27002KT 5SM BR SKC 18/17 A2996 RMK WNDS ESTD/LOW LEVEL FOG OVR RWY SLP144

2010/08/10 11:00
CYEN 101100Z 02002KT 15SM BKN050 OVC100 18/17 A2983 RMK SC6AC2 DIST LTNG E DIST SH ALQDS SLP096

2010/08/10 11:00
CYET 101100Z AUTO 26005KT 9SM SCT042 OVC052 12/11 A2990 RMK SLP130

2010/08/10 11:00
CYEV 101100Z 10008KT 15SM FEW100 SCT200 14/10 A2966 RMK AC2CI0 SLP048

2010/08/10 11:00
CYFO 101100Z 00000KT 3/4SM BR SKC 15/15 A2992 RMK FG1 SLP134

2010/08/10 11:00
CYFS 101100Z 00000KT 12SM -RA BKN020 14/14 A2972 RMK SC7 SLP069

2010/08/10 11:00
CYGK 101100Z 00000KT 6SM BR OVC005 22/20 A2994 RMK SF8 SLP138

2010/08/10 11:00
CYGP 101100Z 29006KT 15SM FEW035 FEW220 18/14 A2976 RMK SC1CI1 SLP077

2010/08/10 11:00
CYGQ 101100Z 00000KT 1/2SM FG VV001 15/15 A2998 RMK FG8 SLP153

2010/08/10 11:00
CYGR 101100Z 27011KT 15SM OVC006 19/11 A2976 RMK SC8 SLP077

2010/08/10 11:00
CYGV 101100Z AUTO 32004KT 280V340 9SM SCT051 SCT077 16/12 A2968 RMK SLP054

2010/08/10 11:00
CYGW 101100Z 22003KT 1/4SM -DZ FG VV000 08/08 A2999 RMK FG8 SLP156

2010/08/10 11:00
CYGX 101100Z 08003KT 15SM OVC080 11/10 A3000 RMK AC6 SLP164

2010/08/10 11:00
CYHD 101100Z AUTO 04007KT 2 1/8SM RA BKN001 BKN020 BKN042 19/19 A2994 RMK PCPN 3.5MM PAST HR SLP139

2010/08/10 11:00
CYHE 101100Z AUTO 00000KT 9SM BKN009 OVC021 15/14 A2992 RMK SLP134

2010/08/10 11:00
CYHH 101100Z 32004KT 15SM OVC025 10/08 A2994 RMK SC8 SLP147

2010/08/10 11:00
CYHK 101100Z AUTO 20007KT 9SM CLR 10/09 A2989 RMK SLP125

2010/08/10 11:00
CYHM 101100Z 00000KT 1/4SM FG VV001 20/20 A2996 RMK FG8 SLP143

2010/08/10 11:00
CYHU 101100Z AUTO 24006KT 1 1/2SM OVC004 17/ A2990 RMK SLP126 DENSITY ALT 300FT TD MISG RVR MISG

2010/08/10 11:00
CYHY 101100Z 19006KT 15SM SCT050 BKN070 15/13 A2973 RMK SC2AC2 SLP072

2010/08/10 11:00
CYIO 101100Z 08006KT 30SM VCSH BKN052 OVC061 12/09 A2980 RMK SC5SC3 CALL-OUT SLP096

2010/08/10 11:00
CYIV 101100Z 07003KT 15SM FEW050 FEW100 SCT250 15/11 A2991 RMK SC2AC1CI0 SLP133

2010/08/10 11:00
CYKA 101100Z 27003KT 40SM OVC061 15/12 A2991 RMK SC8 SLP130

2010/08/10 11:00
CYKF 101100Z AUTO 00000KT 0SM FG VV003 19/19 A2997 RMK SLP147 DENSITY ALT 1700FT

2010/08/10 11:00
CYKJ 101100Z AUTO 06003KT 0SM VV002 12/12 A2992 RMK SLP148 DENSITY ALT 1700FT

2010/08/10 11:00
CYKY 101100Z 14004KT 12SM -SHRA OVC020 16/16 A2986 RERA RMK SC8 TCU EMBD SLP104

2010/08/10 11:00
CYKZ 101100Z 31002KT 7SM FEW055 21/20 A2995 RMK SC2 SLP140

2010/08/10 11:00
CYLD 101100Z 00000KT 1/4SM FG VV003 18/18 A2997 RMK FG8 SLP148

2010/08/10 11:00
CYLL 101100Z AUTO 15008KT 9SM BKN110 BKN150 BKN170 16/14 A2983 RMK SLP101 DENSITY ALT 2900FT

2010/08/10 11:00
CYLW 101100Z AUTO 06002KT 9SM SCT038 BKN046 OVC066 13/12 A2988 RMK SLP119 DENSITY ALT 1500FT

2010/08/10 11:00
CYMA 101100Z 35003KT 20SM FEW050 09/07 A2975 RMK SC2 SLP086

2010/08/10 11:00
CYMJ 101100Z 10004KT 8SM -TSRA BKN045CB OVC100 18/16 A2981 RMK CB6AC2 LTGIC ALQDS SLP091

2010/08/10 11:00
CYMO 101100Z AUTO 34004KT 9SM OVC010 10/10 A3001 RMK SLP162

2010/08/10 11:00
CYMT 101100Z 27003KT 15SM SCT100 SCT220 12/10 A2990 RMK AC3CC1 SLP129

2010/08/10 11:00
CYNA 101100Z AUTO 28006KT 9SM FEW092 17/14 A2967 RMK SLP048

2010/08/10 11:00
CYND 101100Z 00000KT 4SM BR FEW003 FEW230 14/14 A2993 RMK ST2CI1 SLP134

2010/08/10 11:00
CYNE 101100Z AUTO 11005KT 050V120 9SM CLR 15/15 A2989 RMK SLP128

2010/08/10 11:00
CYNM 101100Z AUTO 30004KT 9SM SCT061 14/12 A2993 RMK SLP139

2010/08/10 11:00
CYOA 101100Z 13007KT 5SM FU OVC040 15/13 A2978 RMK SC8 22.2/15.4/0 SLP099

2010/08/10 11:00
CYOD 101100Z 32004KT 15SM SCT070 BKN100 BKN220 16/14 A2985 RMK ACC4AC2CI1 SLP108

2010/08/10 11:00
CYOJ 101100Z 00000KT 15SM BKN015 OVC080 13/13 A2980 RMK SC6AC2 SLP095

2010/08/10 11:00
CYOY 101100Z AUTO 01002KT 9SM FEW082 14/12 A2987 RMK SLP117

2010/08/10 11:00
CYPA 101100Z 00000KT 15SM BKN250 14/13 A2986 RMK CI1 SLP115

2010/08/10 11:00
CYPE 101100Z 36003KT 15SM FEW250 08/06 A2988 RMK CI1 SLP125

2010/08/10 11:00
CYPG 101100Z 25003KT 15SM BKN120 21/17 A2984 RMK AC7 ACC ASOCTD SLP103

2010/08/10 11:00
CYPH 101100Z AUTO 33007KT 9SM FEW098 10/10 A2996 RMK SLP148

2010/08/10 11:00
CYPQ 101100Z AUTO ///// 2 1/2SM BKN021 19/19 A2994 RMK SLP139

2010/08/10 11:00
CYPR 101100Z AUTO 02003KT 1/4SM VV002 10/ A3003 RMK SLP169 WND MISG TD MISG

2010/08/10 11:00
CYPX 101100Z 29008KT 5SM BR SCT002 BKN035 11/11 A2993 RMK SF4SC3 FG DSIPTG SLP135

2010/08/10 11:00
CYPY 101100Z AUTO 00000KT 9SM CLR 11/11 A2979 RMK SLP095

2010/08/10 11:00
CYQA 101100Z AUTO 00000KT 1 1/4SM BR BKN002 BKN008 OVC026 20/20 A2995 RMK SLP142 DENSITY ALT 1600FT

2010/08/10 11:00
CYQD 101100Z 00000KT 1/2SM FG SKC 15/15 A2991 RMK FG5 SLP128

2010/08/10 11:00
CYQF 101100Z 30007KT 15SM SCT090 BKN130 13/10 A2988 RMK AC3AC2 SLP116

2010/08/10 11:00
CYQH 101100Z 00000KT 20SM FEW030 SCT040 SCT080 09/05 A2983 RMK SC2SC2AC1 SLP107

2010/08/10 11:00
CYQI 101100Z 25010KT 2SM BR FEW003 SCT040 OVC090 17/17 A2986 RMK FG1SF2SC2AC3 SLP111

2010/08/10 11:00
CYQK 101100Z 21005KT 15SM FEW060 FEW130 SCT170 BKN220 23/20 A2992 RMK SC1AC1AC2CI1 SLP125

2010/08/10 11:00
CYQL 101100Z AUTO 26005KT 9SM BKN099 13/11 A2982 RMK SLP087

2010/08/10 11:00
CYQR 101100Z 15012KT 15SM -SHRA BKN050 OVC120 19/17 A2980 RMK SC6AC2 CB EMBD LGTNG SE-NW SLP090

2010/08/10 11:00
CYQT 101100Z 22003KT 20SM FEW080 16/16 A2996 RMK AC1 BR SLP146

2010/08/10 11:00
CYQU 101100Z 30005KT 25SM FEW250 08/06 A2992 RMK CI0 SLP140

2010/08/10 11:00
CYQV 101100Z AUTO 08005KT 9SM FEW055 SCT087 SCT096 17/16 A2986 RMK SLP113

2010/08/10 11:00
CYQW 101100Z AUTO 08007KT 9SM OVC120 16/14 A2987 RMK SLP119 DENSITY ALT 2300FT

2010/08/10 11:00
CYQZ 101100Z AUTO 00000KT 9SM SCT003 07/07 A2995 RMK SLP158

2010/08/10 11:00
CYRJ 101100Z 26006KT 25SM FEW040 FEW220 17/13 A2986 RMK SC2CI1 SLP111

2010/08/10 11:00
CYRL 101100Z 13006KT 15SM FEW090 BKN240 21/20 A2988 RMK AC1CI2 SLP117

2010/08/10 11:00
CYRT 101100Z 35004KT 15SM FEW090 FEW240 11/10 A3009 RMK AC1CI0 SLP190

2010/08/10 11:00
CYRV 101100Z AUTO 33008KT 9SM BKN021 OVC037 OVC072 OVC092 15/14 A2984 RMK SLP106

2010/08/10 11:00
CYSB 101100Z 00000KT 15SM FEW100 18/17 A2994 RMK AC1 SLP137

2010/08/10 11:00
CYSC 101100Z AUTO 00000KT 8SM OVC006 15/15 A2992 RMK SLP136 DENSITY ALT 900FT

2010/08/10 11:00
CYSF 101100Z AUTO 11002KT 1 3/4SM BR BKN009 OVC016 14/14 A2989 RMK SLP132 DENSITY ALT 900FT

2010/08/10 11:00
CYSL 101100Z 00000KT 3/8SM FG SCT220 14/13 A2986 RMK FG2CI0 SLP112

2010/08/10 11:00
CYSN 101100Z 00000KT 4SM BR OVC028 22/21 A2994 RMK SC8 SLP137

2010/08/10 11:00
CYTH 101100Z 09003KT 15SM FEW050 FEW080 14/11 A2994 RMK SC1AC1 SLP143

2010/08/10 11:00
CYTS 101100Z 30004KT 15SM FEW110 15/13 A2992 RMK AC2 SLP133

2010/08/10 11:00
CYTZ 101100Z AUTO 27003KT 3SM BKN027 21/20 A2993 RMK SLP136 DENSITY ALT 900FT RVR MISG

2010/08/10 11:00
CYUA 101100Z AUTO 27010KT 8SM -RA BKN001 BKN051 BKN064 11/ A2966 RMK SLP047

2010/08/10 11:00
CYUS 101100Z AUTO ///// 9SM CLR 12/ A2992 RMK SLP134

2010/08/10 11:00
CYUX 101100Z AUTO 00000KT 9SM CLR 11/07 A2993 RMK SLP136

2010/08/10 11:00
CYVC 101100Z 00000KT 15SM MIFG FEW250 14/13 A2990 RMK CI1 SLP128

2010/08/10 11:00
CYVM 101100Z AUTO 19006KT 9SM FEW063 04/04 A2991 RMK SLP129

2010/08/10 11:00
CYVO 101100Z 19005KT 15SM BKN050 BKN099 17/17 A2991 RMK SC6AC2 TCU EMBD SLP131

2010/08/10 11:00
CYVQ 101100Z 00000KT 30SM FEW040 FEW100 BKN280 15/11 A2966 RMK SC1AC1CI2 SLP047

2010/08/10 11:00
CYVV 101100Z 00000KT 1/2SM FG VV002 21/21 A2996 RMK FG8 SLP142

2010/08/10 11:00
CYWA 101100Z AUTO 00000KT 9SM CLR 14/14 A2992 RMK SLP134

2010/08/10 11:00
CYWL 101100Z 00000KT 15SM SKC 07/06 A2995 RMK SLP154

2010/08/10 11:00
CYXC 101100Z 21002KT 25SM FEW050 10/09 A2988 RMK SC1 SLP111

2010/08/10 11:00
CYXD 101100Z AUTO 35002KT 9SM FEW054 FEW099 14/12 A2983 RMK SLP098

2010/08/10 11:00
CYXE 101100Z 34004KT 15SM SCT110 OVC250 15/14 A2983 RMK ACC3CI4 SLP104

2010/08/10 11:00
CYXH 101100Z AUTO 36003KT 9SM CLR 16/13 A2979 RMK SLP079

2010/08/10 11:00
CYXJ 101100Z 00000KT 15SM FEW090 11/07 A2988 RMK AC2 SLP126

2010/08/10 11:00
CYXL 101100Z 12006KT 10SM -TSRA FEW008 BKN042CB BKN080 OVC160 19/19 A2997 RERA RMK SF2CB3AC2AC1 OCNL LTGCG S SLP147

2010/08/10 11:00
CYXR 101100Z AUTO 00000KT 7SM CLR 14/13 A2990 RMK SLP117

2010/08/10 11:00
CYXS 101100Z AUTO 19002KT 9SM CLR 06/05 A2994 RMK SLP159

2010/08/10 11:00
CYXT 101100Z 00000KT 15SM FEW022 FEW050 SCT200 12/10 A3001 RMK SC1SC1CI0 SLP165

2010/08/10 11:00
CYXZ 101100Z 00000KT 0SM FG VV000 18/17 A2996 RMK FG8 SLP147

2010/08/10 11:00
CYYB 101100Z 23004KT 1/8SM FG VV002 19/19 A2995 RMK FG8 SLP140

2010/08/10 11:00
CYYD 101100Z AUTO 00000KT 9SM CLR 06/05 A2999 RMK SLP164

2010/08/10 11:00
CYYE 101100Z 00000KT 8SM BCFG BKN050 OVC150 13/09 A2978 RMK SC6AC2 SLP094

2010/08/10 11:00
CYYF 101100Z 01003KT 15SM FEW060 BKN140 OVC220 13/11 A2987 RMK SC2AC4CI2 SLP113

2010/08/10 11:00
CYYG 101100Z 26008KT 10SM OVC003 18/17 A2980 RMK SF8 SLP092

2010/08/10 11:00
CYYL 101100Z AUTO 02002KT 1/8SM FG VV003 14/14 A2990 RMK SLP138 DENSITY ALT 1300FT

2010/08/10 11:00
CYYN 101100Z AUTO 02009KT 010V070 3 1/2SM +RA VV005 16/15 A2983 RMK SLP090

2010/08/10 11:00
CYYU 101100Z 00000KT 10SM MIFG FEW040 SCT100 BKN240 13/13 A2994 RMK SC2AC2CI1 MIFG ALG RVR SLP141

2010/08/10 11:00
FMMI 101100Z 19007KT 170V250 9999 SCT023 25/11 Q1024 NOSIG

2010/08/10 11:00
CYYY 101100Z 23005KT 30SM BKN040 BKN090 17/13 A2983 RMK SC6AC1 SLP100

2010/08/10 11:00
CYZE 101100Z AUTO 00000KT 3SM BR CLR 17/17 A2994 RMK SLP141 DENSITY ALT 900FT VIS VRB 1-3

2010/08/10 11:00
CYZH 101100Z AUTO 27005KT 9SM BKN062 15/11 A2987 RMK SLP121

2010/08/10 11:00
CYZP 101100Z AUTO 26009KT 9SM BKN027 OVC037 14/13 A3003 RMK SLP169

2010/08/10 11:00
CYZR 101100Z AUTO 20002KT 1 3/4SM BR OVC007 21/20 A2995 RMK SLP140 DENSITY ALT 1400FT

2010/08/10 11:00
CYZS 101100Z 34004KT 15SM FEW210 09/04 A2998 RMK CI1 SLP157

2010/08/10 11:00
CYZT 101100Z 00000KT 15SM OVC013 13/10 A3000 RMK SC8 SLP159

2010/08/10 11:00
CZCP 101100Z AUTO 07005KT 1/8SM OVC007 07/ A2974 RMK SLP078

2010/08/10 11:00
CZPC 101100Z AUTO 28006KT 9SM CLR 10/08 A2987 RMK SLP102

2010/08/10 11:00
CZUM 101100Z AUTO 29011KT 9SM BKN015 OVC036 OVC059 12/09 A2968 RMK SLP061

2010/08/10 10:50
EDRZ 101050Z 28007KT 9999 FEW048 24/10 Q1016

2010/08/10 11:00
EPLL 101100Z 31004KT 9999 SCT043TCU 23/16 Q1017

2010/08/10 11:00
LERI 101100Z 10003KT CAVOK 36/23 Q1016 NOSIG

2010/08/10 10:50
LIMP 101050Z VRB02KT 7000 FEW030 28/19 Q1016 RMK VIS MIN 6000N

2010/08/10 10:50
LIMZ 101050Z VRB03KT 9999 FEW040 25/18 Q1017 RMK VIS MIN 8000N

2010/08/10 10:55
LIRM 101055Z 24011KT 9999 FEW020 33/29 Q1015 RMK FEW VIS MIN 9999 WIND THR06 21008KT BLU

2010/08/10 11:00
LKCV 101100Z VRB03KT 9999 SCT037 23/14 Q1018 NOSIG

2010/08/10 11:00
LKKB 101100Z VRB02KT 9999 SCT048 23/13 Q1018 NOSIG

2010/08/10 11:00
LKKV 101100Z 29003KT 9999 FEW048 21/12 Q1019 RMK REG QNH 1015

2010/08/10 11:00
LKLN 101100Z AUTO VRB03KT CAVOK 24/13 Q1018

2010/08/10 11:00
LKNA 101100Z 19006KT 140V230 9999 BKN048 22/13 Q1019 NOSIG

2010/08/10 11:00
LKPD 101100Z 33004KT 270V050 9999 SCT035 23/16 Q1018 NOSIG

2010/08/10 11:00
LKPO 101100Z 23003KT 9999 SCT037 23/14 Q1018 NOSIG

2010/08/10 11:00
OIIE 101100Z 12013KT 9999 FEW050 36/M00 Q1012 A2990

2010/08/10 11:00
SADF 101100Z 00000KT 3000 BR SKC 05/04 Q1028 REFG

2010/08/10 11:00
UDYZ 101100Z VRB02MPS 9999 SKC 36/09 Q1009 09010070 NOSIG

2010/08/10 11:00
ZBHH 101100Z 10003MPS 9999 FEW050 25/15 Q1009 NOSIG

2010/08/10 11:00
ZJHK 101100Z 21002MPS 9999 FEW025TCU SCT033 26/24 Q1005 NOSIG

2010/08/10 11:00
ZYCC 101100Z 30002MPS 270V330 CAVOK 21/15 Q1007 NOSIG

2010/08/10 11:00
CYND 101100Z CCA 00000KT 4SM BR FEW003 FEW230 14/14 A2993 RMK ST2CI1 VIS W 9 SLP134

2010/08/10 10:55
TXKF 101055Z 19008KT 9999 FEW015 FEW180 27/23 Q1020

2010/08/10 11:00
SYCJ 101100Z 00000KT 9999 FEW016 FEW018CB SCT038 25/24 Q1014 CB ESE AND S NOSIG

2010/08/10 11:07
KBTV 101107Z 00000KT 1SM BR OVC003 18/18 A2993

2010/08/10 11:00
VTBS 101100Z 18012KT 9999 FEW020CB SCT035 BKN120 30/24 Q1003 CB W NOSIG

2010/08/10 11:00
VTBD 101100Z 20010KT 9999 FEW020CB SCT120 BKN300 31/23 Q1002 CB NW NOSIG

2010/08/10 11:00
VTSP 101100Z VRB03KT 7000 SCT015 BKN100 BKN300 27/24 Q1006 A2972

2010/08/10 11:00
VLVT 101100Z 24004KT 5000 VCRA BKN017 BKN040 30/25 Q1002

2010/08/10 11:00
VYYY 101100Z 00000KT 7000 BKN020 FEW025CB BKN110 29/26 Q1002

2010/08/10 11:00
VVTS 101100Z 26003KT 9999 FEW015TCU SCT017 BKN040 26/24 Q1006 NOSIG

2010/08/10 11:00
VVNB 101100Z 08007KT CAVOK 28/25 Q1002 NOSIG

2010/08/10 11:00
VDPP 101100Z 21013KT 9999 SCT015 SCT040 29/21 Q1004

2010/08/10 11:00
VVDN 101100Z 21004KT 9999 FEW015CB SCT060 BKN270 26/24 Q1005 NOSIG

2010/08/10 11:00
VDSR 101100Z 21005KT 9000 SCT013 FEW015CB BKN040 28/25 Q1003 CB S NW N

2010/08/10 11:06
KNBG 101106Z AUTO 00000KT 1 1/4SM BR CLR 24/23 A2994 RMK AO2 PWINO $ 

2010/08/10 11:00
GQPP 101100Z 31015KT 9999 SCT006 SCT130 24/21 Q1015 NOSIG

2010/08/10 11:00
UMBB 101100Z 09003MPS 9999 BKN022CB 23/17 Q1016 R11/CLRD// NOSIG

2010/08/10 11:00
UMGG 101100Z 29002MPS 9999 SCT040CB OVC100 28/20 Q1016 R10/CLRD// NOSIG

2010/08/10 11:00
UMII 101100Z 34003G06MPS P6000 FEW016 FEW040 SCT300 25/16 Q1016 R23/CLRD// NOSIG

2010/08/10 11:00
UMMG 101100Z 00000MPS 9999 BKN030 24/15 Q1016 R17/CLRD// NOSIG

2010/08/10 11:00
UMMM 101100Z 02001MPS 9999 BKN023 BKN100 23/17 Q1016 R30/CLRD// NOSIG RMK QFE743

2010/08/10 11:00
UMMS 101100Z 02003MPS 9999 SCT019 BKN120 24/18 Q1017 R31/290060 NOSIG

2010/08/10 11:00
UMOO 101100Z 00000MPS 9999 FEW030CB BKN/// 25/19 Q1014 R31/CLRD// NOSIG

2010/08/10 11:00
DAAG 101100Z 34008KT 9999 FEW030 SCT100 29/22 Q1018

2010/08/10 11:00
DAAT 101100Z 16009KT 110V200 9999 SCT053 34/11 Q1021

2010/08/10 11:00
DABB 101100Z 01012KT CAVOK 30/20 Q1015

2010/08/10 11:00
DABC 101100Z 34008KT CAVOK 34/12 Q1019

2010/08/10 11:00
DABS 101100Z 34008KT 9999 FEW040 SCT230 34/12 Q1020

2010/08/10 11:00
DAON 101100Z 00000KT CAVOK 33/22 Q1018

2010/08/10 11:00
DAOO 101100Z 36004KT 9999 FEW016 SCT233 32/22 Q1017

2010/08/10 11:00
DAUH 101100Z 14014KT CAVOK 38/09 Q1014

2010/08/10 11:00
DAUZ 101100Z 23006KT 9999 FEW040 39/05 Q1015

2010/08/10 11:00
FOOG 101100Z /////KT 9999 SCT011 BKN040 26/21 Q1016

2010/08/10 11:00
FOOB 101100Z /////KT 9999 BKN013 OVC100 24/22 Q////

2010/08/10 11:00
FOGM 101100Z 18004KT 9999 SCT015TCU BKN023 26/20 Q1017

2010/08/10 11:00
FOGR 101100Z 18808KT 9999 SCT012 BKN110 27/23 Q1015

2010/08/10 11:00
FOOK 101100Z 22006KT 9999 BKN013 24/20 Q1018

2010/08/10 11:00
FOON 101100Z 24008KT 9999 SCT020 BKN033 26/20 Q1018

2010/08/10 11:00
RKPK 101100Z 16013KT 8000 -RA FEW015 SCT015 OVC040 27/23 Q1006 NOSIG 

2010/08/10 10:55
OPSK 101055Z 00000KT 6000 HZ SCT040 SCT100 34/29 QNH 999 R.H. 71PC

2010/08/10 11:00
DAAD 101100Z 36008KT CAVOK 36/15 Q1019

2010/08/10 11:00
DAAE 101100Z 12004KT 9999 FEW016 SCT233 30/23 Q1016

2010/08/10 11:00
DAAJ 101100Z 16008KT 2000 HZ NSC 35/11 Q1018

2010/08/10 11:00
DAAP 101100Z 01010KT 9999 SCT046 39/13 Q1015

2010/08/10 11:00
DAAS 101100Z 34006KT CAVOK 32/07 Q1021

2010/08/10 11:00
DAAV 101100Z 34008KT 9999 FEW023 BKN200 29/23 Q1015

2010/08/10 11:00
DAAY 101100Z 00000KT CAVOK 33/18 Q1025

2010/08/10 11:00
DABT 101100Z 23012KT 9999 FEW026 34/12 Q1019

2010/08/10 11:00
DAFH 101100Z 15012KT CAVOK 34/18 Q1019

2010/08/10 11:00
DAMH 101100Z 36008KT CAVOK 41/16 Q1013

2010/08/10 11:00
DAOB 101100Z 31008KT 9999 FEW026 33/06 Q1021

2010/08/10 11:00
DAOF 101100Z 09019KT 6000 NSC 42/11 Q1014

2010/08/10 11:00
DAOI 101100Z 00000KT CAVOK 35/13 Q1015

2010/08/10 11:00
DAOR 101100Z 34010KT CAVOK 37/12 Q1021

2010/08/10 11:00
DAOV 101100Z 02012KT CAVOK 36/16 Q1018

2010/08/10 11:00
DAUB 101100Z 00000KT CAVOK 34/16 Q1015

2010/08/10 11:00
DAUE 101100Z 36008KT CAVOK 38/12 Q1017

2010/08/10 11:00
DAUG 101100Z 15004KT CAVOK 36/13 Q1018

2010/08/10 11:00
DAUK 101100Z 14006KT CAVOK 36/14 Q1015

2010/08/10 11:00
DAUO 101100Z /////KT CAVOK 34/10 Q1015

2010/08/10 11:00
DAUT 101100Z 00000KT 9000 NSC 41/08 Q1014

2010/08/10 11:00
DAUU 101100Z 09012KT CAVOK 39/17 Q1014

2010/08/10 10:55
LIBA 101055Z 26007KT 9999 FEW030 33/16 Q1013 RMK SCT SCT090 VIS MIN 9999 WIND THR29 00000KT BLU

2010/08/10 10:55
LIMH 101055Z 21007KT 9999 FEW000TCU 05/M05 Q1031 RMK SCT MON CLD SCT VAL CLD SCT VIS MIN 9999

2010/08/10 10:55
LIMT 101055Z /////KT 8000 SCT013TCU 18/17 Q1019 RMK SCT MON LIB VAL FOSCHIA VIS MIN 8000

2010/08/10 10:55
LIMU 101055Z 09006KT 9999 FEW023 26/21 Q1018 RMK SCT QUK 1 QUL 1 SE VIS MAR 12 KM VIS MIN 9999

2010/08/10 10:55
LIMY 101055Z /////KT 9999 SCT025 23/16 Q1018 RMK BKN SCT190 VAL FOSCHIA VIS MIN 9999

2010/08/10 10:55
LIVD 101055Z 00000KT 9999 SCT040 22/10 Q1020 RMK BKN SCT200 VIS MIN 9999

2010/08/10 10:55
LIVM 101055Z 10006KT 9999 FEW025 28/24 Q1016 RMK FEW QUK 0 QUL 0 VIS MAR 20 KM VIS MIN 9999

2010/08/10 10:55
LIVO 101055Z 12003KT 9999 SCT030 23/16 Q1018 RMK SCT VIS MIN 9999

2010/08/10 10:55
LIVR 101055Z 14013KT 9999 RA BKN020 14/09 Q1023 RMK BKN MON GEN INC VIS MIN 9999

2010/08/10 10:55
LIVT 101055Z 23006KT CAVOK 29/19 Q1014 RMK SKC QUK 1 QUL 1 SW VIS MAR 25 KM VIS MIN 9999

2010/08/10 10:50
LIBF 101050Z 32008KT 9999 FEW040 32/12 Q1014 RMK VIS MIN 9999

2010/08/10 10:50
LIEA 101050Z 30008KT 240V330 CAVOK 30/17 Q1016 RMK VIS MIN 9999

2010/08/10 10:55
LIED 101055Z 31005KT CAVOK 35/11 Q1015 RMK SKC VIS MIN 9999 BLU

2010/08/10 10:50
LIEO 101050Z 05009KT CAVOK 29/16 Q1016 RMK VIS MIN 9999

2010/08/10 10:50
LIMA 101050Z VRB03KT 9999 SCT035 26/18 Q1016 RMK VIS MIN 9999

2010/08/10 10:50
LIQN 101050Z 33004KT 9999 FEW045 29/14 Q1016 RMK VIS MIN 9999

2010/08/10 10:55
LIQW 101055Z 11003KT 9999 FEW025 27/19 Q1016 RMK FEW VIS MIN 9999 BLU

2010/08/10 10:55
LIRE 101055Z 22008KT 9999 FEW020 27/22 Q1015 RMK FEW VIS MIN 9999 WIND THR31 21009KT BLU

2010/08/10 10:55
LIRG 101055Z 26004KT 9999 FEW040 32/17 Q1015 RMK FEW MON NE LIB NC VIS MIN 9999 BLU

2010/08/10 10:55
LIRH 101055Z 17002KT 9999 FEW040 32/17 Q1015 RMK FEW MON LIB NC VIS MIN 9999 WIND THR16 11003KT BLU

2010/08/10 10:50
LIRI 101050Z 23006KT 190V270 9999 BKN060 27/20 Q1015 RMK VIS MIN 9999

2010/08/10 10:55
LIRL 101055Z 19005KT 9999 FEW025 29/20 Q1015 RMK FEW MON LIB NC VIS MIN 9999 BLU

2010/08/10 10:55
LIRM 101055Z 24011KT 9999 FEW020 33/29 Q1015 RMK FEW VIS MIN 9999 WIND THR06 21008KT BLU

2010/08/10 10:55
LIRS 101055Z 22004KT 9999 FEW025 29/18 Q1015 RMK FEW VIS MIN 9999 WIND THR21 /////KT BLU

2010/08/10 10:50
LIRU 101050Z 29003KT CAVOK 32/20 Q1015 RMK VIS MIN 9999

2010/08/10 10:55
LIRV 101055Z 19006KT CAVOK 30/14 Q1016 RMK FEW FEW060 MON E SE LIB NC VIS MIN 9999 BLU

2010/08/10 10:55
LIRX 101055Z 36005KT 9999 BKN023 24/18 Q1016 RMK BKN VIS MIN 9999N VI

2010/08/10 10:50
LIBC 101050Z 03010KT CAVOK 30/12 Q1014 RMK VIS MIN 9999

2010/08/10 10:50
LIBD 101050Z 01009KT 340V050 CAVOK 28/17 Q1014 RMK VIS MIN 9999

2010/08/10 10:50
LIBG 101050Z 36012KT 330V040 CAVOK 31/14 Q1013 RMK VIS MIN 9999

2010/08/10 10:55
LIBN 101055Z 35015KT CAVOK 29/16 Q1013 RMK BKN FEW100 SCT180 VIS MIN 9999 WIND THR14 36012KT BLU

2010/08/10 10:50
LIBP 101050Z 01007KT CAVOK 27/20 Q1015 RMK VIS MIN 9999

2010/08/10 10:45
LIBR 101045Z 33018G28KT 9999 FEW018CB 26/22 Q1013 NOSIG RMK BKN SCT090 BKN200 VIS MIN 9999 WIND THR13 /////KT WIND THR31 31015KT BLU

2010/08/10 10:55
LIBV 101055Z 36010KT CAVOK 29/18 Q1013 RMK BKN BKN100 VIS MIN 9999 WIND THR14 34012KT BLU

2010/08/10 10:50
LICA 101050Z 26014KT 9999 FEW030 27/20 Q1015 RMK VIS MIN 9999

2010/08/10 10:50
LICC 101050Z 07010KT CAVOK 29/17 Q1015 RMK VIS MIN 9999

2010/08/10 10:50
LICD 101050Z 31007KT CAVOK 28/19 Q1016 RMK VIS MIN 9999

2010/08/10 10:55
LICG 101055Z 32004KT CAVOK 29/18 Q1016 RMK SKC VIS MIN 9999 WIND THR08 /////KT WIND THR21 35005KT BLU

2010/08/10 10:50
LICJ 101050Z 04015KT CAVOK 27/20 Q1015

2010/08/10 10:50
LICR 101050Z 35013KT 9999 FEW025 30/16 Q1014 RMK VIS MIN 9999

2010/08/10 10:55
LICT 101055Z 33010KT CAVOK 31/10 Q1015 RMK SKC VIS MIN 9999 WIND THR13 32007KT BLU

2010/08/10 10:55
LICZ 101055Z 06013KT CAVOK 34/12 Q1014 RMK SKC VIS MIN 9999 WIND THR28 /////KT BLU

2010/08/10 10:55
OPSK 101055Z 00000KT 6000 HZ SCT040 SCT100 34/29 QNH 999 R.H. 71PC

2010/08/10 11:07
KBTV 101107Z 00000KT 1SM BR OVC003 18/18 A2993

2010/08/10 11:06
CYHD 101106Z AUTO 08011KT 1 3/4SM +RA FEW001 SCT020 BKN042 19/19 A2993

2010/08/10 11:00
LPFR 101100Z 23007KT CAVOK 32/18 Q1016

2010/08/10 11:00
LPMA 101100Z VRB04KT 9999 SCT016 SCT030 25/19 Q1017 RS07001KT 0512003KT 2310003KT

2010/08/10 11:00
LPPR 101100Z 00000KT 8000 SKC 28/17 Q1018

2010/08/10 11:00
LPPS 101100Z 32007KT 290V360 9999 SCT015 24/19 Q1017

2010/08/10 11:00
LPPT 101100Z 11004KT 070V150 CAVOK 36/14 Q1017 NOSIG

2010/08/10 11:04
PANT 101104Z 14003KT 1/4SM FG OVC001 12/11 A3003

2010/08/10 10:55
LIVE 101055Z 17006KT 9999 BKN025 20/09 Q1020 RMK BKN VIS MIN 9999

2010/08/10 10:55
LIBA 101055Z 26007KT 9999 FEW030 33/16 Q1013 RMK SCT SCT090 VIS MIN 9999 WIND THR29 00000KT BLU

2010/08/10 11:00
DNIB 101100Z 23007KT 9999 BKN013 27/23 Q1014

2010/08/10 11:00
DNAA 101100Z 170V260 9999 SCT013 29/20 Q1015 NOSIG

2010/08/10 11:00
DNIL 101100Z 23010KT 9999 BKN010 27/23 Q1013

2010/08/10 11:00
DNKA 101100Z 21010KT 9999 BKN010 26/19 Q1017

2010/08/10 10:58
EGVP 101058Z 26007KT 9999 6000SW -DZ BKN012 BKN035 16/13 Q1011 GRN TEMPO 3000 SCT006 YLO1

2010/08/10 10:50
EGYH 101050Z 24010KT 9999 FEW015 SCT035 18/// Q1008 BLU

2010/08/10 11:00
EICK 101100Z 31013KT 9999 BKN027 17/09 Q1010 NOSIG

2010/08/10 11:00
EIDW 101100Z 28015KT 9999 SCT028 16/10 Q1007 NOSIG

2010/08/10 11:00
EIKN 101100Z 29012KT 9999 SCT022 SCT047 15/10 Q1008 NOSIG

2010/08/10 11:00
EINN 101100Z 29010KT 9999 FEW021 BKN050 18/13 Q1009 NOSIG

2010/08/10 11:00
YBAS 101100Z AUTO 26004KT 9999NDV // NCD 09/01 Q1023

2010/08/10 11:00
YBBN 101100Z 14006KT 2500 -RA SCT006 BKN014 BKN034 19/19 Q1016 FM1140 02012KT 7000 -RA BKN008 BKN025 TEMPO 1100/1400 02015G25KT 3000 RA BKN006 FM1110 MOD TURB BLW 7000FT

2010/08/10 11:01
YBCS 101101Z 00000KT 9999 FEW003 BKN017 BKN025 24/23 Q1015 TEMPO 1101/1401 3000 -SHRA FEW003 BKN010

2010/08/10 11:00
YBTL 101100Z 19005KT 4000 -RA SCT005 SCT017 BKN045 23/23 Q1015 RERA

2010/08/10 11:00
YMML 101100Z 36008KT 7000 -RA SCT011 SCT028 OVC055 08/07 Q1010 FM1100 29008KT 9000 -RA SCT006 BKN010 INTER 1100/1130 4000 RA BKN008 INTER 1130/1400 4000 RA BKN005

2010/08/10 11:00
YPAD 101100Z 21013KT 9999 FEW035 SCT050 12/08 Q1015 NOSIG

2010/08/10 11:00
YPCC 101100Z AUTO 13010KT 9999NDV // NCD 27/21 Q1010

2010/08/10 11:00
YPDN 101100Z 30005KT CAVOK 26/20 Q1014 NOSIG

2010/08/10 11:00
YPKU 101100Z AUTO 12003KT 9999NDV // NCD 18/08 Q1016

2010/08/10 11:00
YPLM 101100Z AUTO 35003KT 9999NDV // NCD 19/12 Q1017

2010/08/10 11:00
YPPH 101100Z 06009KT CAVOK 14/M01 Q1018 NOSIG

2010/08/10 11:00
YPTN 101100Z AUTO 15005KT 9999NDV // NCD 21/07 Q1015

2010/08/10 11:00
YPXM 101100Z AUTO 09008KT 9999NDV // BKN008 OVC012 25/23 Q1011

2010/08/10 11:00
YSSY 101100Z 29007KT 9999 9000NW FEW015 SCT050 BKN100 15/13 Q1012 FM1200 33008KT 4000 BR SCT010 SCT015 TEMPO 1100/1400 4000 RA BKN010

2010/08/10 11:00
YBAS 101100Z AUTO 26004KT 9999NDV // NCD 09/01 Q1023

2010/08/10 11:00
YBBN 101100Z 14006KT 2500 -RA SCT006 BKN014 BKN034 19/19 Q1016 FM1140 02012KT 7000 -RA BKN008 BKN025 TEMPO 1100/1400 02015G25KT 3000 RA BKN006 FM1110 MOD TURB BLW 7000FT

2010/08/10 11:01
YBCS 101101Z 00000KT 9999 FEW003 BKN017 BKN025 24/23 Q1015 TEMPO 1101/1401 3000 -SHRA FEW003 BKN010

2010/08/10 11:00
YBTL 101100Z 19005KT 4000 -RA SCT005 SCT017 BKN045 23/23 Q1015 RERA

2010/08/10 11:00
YMML 101100Z 36008KT 7000 -RA SCT011 SCT028 OVC055 08/07 Q1010 FM1100 29008KT 9000 -RA SCT006 BKN010 INTER 1100/1130 4000 RA BKN008 INTER 1130/1400 4000 RA BKN005

2010/08/10 11:00
YPAD 101100Z 21013KT 9999 FEW035 SCT050 12/08 Q1015 NOSIG

2010/08/10 11:00
YPCC 101100Z AUTO 13010KT 9999NDV // NCD 27/21 Q1010

2010/08/10 11:00
YPDN 101100Z 30005KT CAVOK 26/20 Q1014 NOSIG

2010/08/10 11:00
YPKU 101100Z AUTO 12003KT 9999NDV // NCD 18/08 Q1016

2010/08/10 11:00
YPLM 101100Z AUTO 35003KT 9999NDV // NCD 19/12 Q1017

2010/08/10 11:00
YPPH 101100Z 06009KT CAVOK 14/M01 Q1018 NOSIG

2010/08/10 11:00
YPTN 101100Z AUTO 15005KT 9999NDV // NCD 21/07 Q1015

2010/08/10 11:00
YPXM 101100Z AUTO 09008KT 9999NDV // BKN008 OVC012 25/23 Q1011

2010/08/10 11:00
YSSY 101100Z 29007KT 9999 9000NW FEW015 SCT050 BKN100 15/13 Q1012 FM1200 33008KT 4000 BR SCT010 SCT015 TEMPO 1100/1400 4000 RA BKN010

2010/08/10 11:00
VTCC 101100Z 36005KT 9999 FEW025CB BKN035 27/23 Q1005 A2968 CB S SW

2010/08/10 11:00
OIII 101100Z 30004KT 9999 FEW040 34/M01 Q1014 A2997 879.8

2010/08/10 11:00
VTBU 101100Z 20010KT 9999 FEW018 BKN300 30/27 Q1004 A2967

2010/08/10 11:00
CYBR 101100Z 30005KT 15SM SCT060 OVC170 20/19 A2986 RMK SC3AC4 SLP109

2010/08/10 11:00
DAAE 101100Z 12004KT 9999 FEW016 SCT233 30/23 Q1016

2010/08/10 11:00
DAAJ 101100Z 16008KT 2000 HZ NSC 35/11 Q1018

2010/08/10 11:00
DAAP 101100Z 01010KT 9999 SCT046 39/13 Q1015

2010/08/10 11:00
DAAV 101100Z 34008KT 9999 FEW023 BKN200 29/23 Q1015

2010/08/10 11:00
DAAY 101100Z 00000KT CAVOK 33/18 Q1025

2010/08/10 11:00
DABT 101100Z 23012KT 9999 FEW026 34/12 Q1019

2010/08/10 11:00
DAOB 101100Z 31008KT 9999 FEW026 33/06 Q1021

2010/08/10 11:00
DAOF 101100Z 09019KT 6000 NSC 42/11 Q1014

2010/08/10 11:00
DAOR 101100Z 34010KT CAVOK 37/12 Q1021

2010/08/10 11:00
DAUB 101100Z 00000KT CAVOK 34/16 Q1015

2010/08/10 11:00
DAUE 101100Z 36008KT CAVOK 38/12 Q1017

2010/08/10 11:00
DAUG 101100Z 15004KT CAVOK 36/13 Q1018

2010/08/10 11:00
DAUK 101100Z 14006KT CAVOK 36/14 Q1015

2010/08/10 11:00
DAUO 101100Z /////KT CAVOK 34/10 Q1015

2010/08/10 11:00
DAUT 101100Z 00000KT 9000 NSC 41/08 Q1014

2010/08/10 11:00
DAUU 101100Z 09012KT CAVOK 39/17 Q1014

2010/08/10 10:56
KNFL 101056Z AUTO 22004KT 10SM CLR 16/04 A2995 RMK AO2 SLP114 T01560044 TSNO

2010/08/10 11:00
OIAW 101100Z 15006KT CAVOK 48/10 Q0998 A2949

2010/08/10 11:00
OIFM 101100Z 27006KT 9999 FEW035 33/M03 Q1016 A3003

2010/08/10 11:00
OIKB 101100Z 20010KT 5000 HZ SKC 36/26 Q1000 A2953

2010/08/10 11:00
OIMM 101100Z 02018KT CAVOK 34/M03 Q1013 A2993

2010/08/10 11:00
OISS 101100Z 24006KT CAVOK 35/M05 Q1013 A2994

2010/08/10 10:57
PHNG 101057Z AUTO 08008KT 10SM SCT026 SCT036 BKN060 25/20 A3010 RMK AO2 SLP186 T02500200 $

2010/08/10 10:57
PHNG 101057Z AUTO 08008KT 10SM SCT026 SCT036 BKN060 25/20 A3010 RMK AO2 SLP186 T02500200 $

2010/08/10 11:00
ZSNJ 101100Z 04002MPS 9999 SCT040 32/23 Q1003 NOSIG

2010/08/10 11:00
UEEE 101100Z 29003MPS 9999 FEW050CB BKN100 23/13 Q1003 NOSIG RMK QFE743 2309//60

2010/08/10 11:00
UELL 101100Z VRB02MPS 9999 SCT040 OVC200 18/12 Q1006 NOSIG RMK QFE680 08CLRD70

2010/08/10 11:00
UERP 101100Z 08003MPS 9999 -RA BKN026 OVC100 10/07 Q1004 NOSIG RMK QFE709 35190160

2010/08/10 11:00
UERR 101100Z VRB02MPS 9999 SCT030CB OVC200 19/15 Q1003 NOSIG RMK QFE721 24CLRD60

2010/08/10 11:00
UEST 101100Z 29003MPS CAVOK 12/09 Q1005 NOSIG RMK QFE752

2010/08/10 11:00
UOHH 101100Z 31003MPS 9999 FEW023 SCT/// 11/04 Q1012 NOSIG RMK QFE753 06090060

2010/08/10 11:00
UOII 101100Z 34003MPS 9999 SCT026 15/04 Q1008 NOSIG RMK QFE753 30////60

2010/08/10 11:00
UOOO 101100Z 02004MPS 9999 BKN031 11/04 Q1009 NOSIG RMK QFE742 0119//56

2010/08/10 11:00
USCM 101100Z 00000MPS 6000 SCT100 28/10 Q1021 NOSIG 19090065 RMK QFE728

2010/08/10 11:00
UIAA 101100Z 00000MPS 9999 SCT050 23/12 Q1004 NOSIG RMK QFE695 29CLRD70

2010/08/10 11:00
UIBB 101100Z 00000MPS 9999 -SHRA SCT030CB OVC100 14/11 Q1006 NOSIG RMK QFE712/0949 30190055

2010/08/10 11:00
UIII 101100Z 16005MPS CAVOK 19/12 Q1004 NOSIG RMK QFE711/0948 12CLRD60

2010/08/10 11:00
UIUU 101100Z 32002MPS 280V360 9999 FEW043 BKN200 27/07 Q1002 NOSIG RMK QFE707/0943 26CLRD60

2010/08/10 11:00
UHHH 101100Z 18002MPS CAVOK 23/20 Q1005 NOSIG RMK QFE747/0997 23090060

2010/08/10 11:00
UHMM 101100Z 09003MPS 9999 OVC066 15/13 Q1010 RMK QFE742 88010070

2010/08/10 11:00
UHNN 101100Z 12007G12MPS 9999 BKN011CB OVC070 18/17 Q1009 RMK QBB330 QFE752

2010/08/10 11:00
UHPP 101100Z 06002MPS 030V100 9999 SKC 13/09 Q1014 NOSIG RMK QFE757/1010 SC070

2010/08/10 11:00
UHSS 101100Z 16003MPS 0700 R19/1200D FG VV002 21/21 Q1012 NOSIG RMK QBB080 MT OBSC QFE757/1010 19190065

2010/08/10 11:00
UHWW 101100Z 25001MPS 5000 -SHRA BR BKN010 OVC040CB 23/23 Q1008 NOSIG RMK QFE755/1007 7529//60

2010/08/10 11:00
UNAA 101100Z 01003MPS 9999 SCT030CB BKN100 18/09 Q1007 NOSIG RMK QFE733 020///65

2010/08/10 11:00
UNBB 101100Z 01005MPS 9999 BKN040 18/09 Q1010 NOSIG RMK QFE735

2010/08/10 11:00
UNEE 101100Z 32004MPS 9999 FEW033 BKN066 17/08 Q1009 NOSIG RMK QFE734 23CLRD60

2010/08/10 11:00
UNKL 101100Z 31002MPS 280V350 9999 SCT043 BKN083 17/05 Q1008 NOSIG RMK QFE731 29////65

2010/08/10 11:00
UNNT 101100Z 36005MPS CAVOK 19/04 Q1011 NOSIG RMK QFE748/0998 25090070

2010/08/10 11:00
UNOO 101100Z 31005G08MPS 9999 SCT033CB BKN050 15/06 Q1018 NOSIG 25CLRD06 RMK QFE755

2010/08/10 11:00
UNWW 101100Z 31006MPS 9999 SCT026 BKN230 19/09 Q1007 NOSIG RMK QFE729 01CLRD70

2010/08/10 11:00
USTR 101100Z 23008G11MPS 5000 FU NSC 25/09 Q1015 TEMPO 22015MPS 2000 FU RMK QFE752/1002 30CLRD65 21CLRD65

2010/08/10 11:00
USHH 101100Z 13004MPS 9999 BKN014CB OVC080 12/11 Q1013 TEMPO 1000 BR OVC004 RMK QFE756 SC055

2010/08/10 10:50
MASA 101050Z 30006KT CAVOK 35/22 Q1010

2010/08/10 10:50
OIYY 101050Z 33008KT CAVOK 36/M07 Q1014 A2995

2010/08/10 11:00
OYMB 101100Z 10010KT 9999 BKN030 39/06 Q1004

2010/08/10 11:00
URKA 101100Z 36004MPS CAVOK 33/25 Q1008 NOSIG RMK 065

2010/08/10 11:00
URKK 101100Z 19003G06MPS 150V270 CAVOK 37/14 Q1007 NOSIG RMK QFE752 SC070

2010/08/10 11:00
URKM 101100Z 10005G09MPS CAVOK 37/18 Q1009 RMK QFE738

2010/08/10 11:00
URML 101100Z 10005MPS 9999 SKC 33/21 Q1010 NOSIG RMK QFE758 / 07

2010/08/10 11:00
URMM 101100Z 12010G13MPS 9999 SKC 36/14 Q1010 NOSIG RMK 0000-3000 / SC070

2010/08/10 11:00
URMN 101100Z 08002MPS 9999 FEW033 FEW110 33/15 Q1011 NOSIG RMK / QFE722 SC07

2010/08/10 11:00
URMT 101100Z 10010G13MPS CAVOK 36/04 Q1012 NOSIG RMK QFE719 SC07

2010/08/10 11:00
URRR 101100Z 10006G09MPS CAVOK 39/06 Q1011 NOSIG RMK SC070

2010/08/10 11:00
URSS 101100Z 27002MPS 230V290 9999 FEW040TCU SCT100 33/22 Q1007 NOSIG RMK / QFE754 06CLRD70

2010/08/10 11:00
URWA 101100Z 07005MPS CAVOK 40/09 Q1013 NOSIG RMK SC07

2010/08/10 11:00
URWI 101100Z 12009G14MPS 9999 SKC 40/18 Q1012 NOSIG RMK SC065

2010/08/10 11:00
URWW 101100Z 08005G09MPS 050V130 CAVOK 38/06 Q1015 NOSIG RMK SC070

2010/08/10 10:55
LIVE 101055Z 17006KT 9999 BKN025 20/09 Q1020 RMK BKN VIS MIN 9999

2010/08/10 11:00
UAFO 101100Z 31002MPS 9999 FEW050 34/11 Q1014 NOSIG RMK QFEM682

2010/08/10 11:00
USPP 101100Z 28005MPS 7000 SKC 34/14 Q1018 NOSIG 21090060 RMK QFE753/1004

2010/08/10 11:00
UWKD 101100Z 32003MPS 5000 HZ BKN200 35/13 Q1020 NOSIG RMK QFE754/1005 79CLRD70

2010/08/10 11:00
UWKE 101100Z 00000MPS CAVOK 34/14 Q1021 NOSIG RMK QFE748/0998 04090070

2010/08/10 11:00
UWKS 101100Z 23003MPS 180V270 CAVOK 35/10 Q1021 NOSIG RMK QFE751 SC0.60

2010/08/10 11:00
UWLL 101100Z 09006MPS CAVOK 34/12 Q1020 NOSIG RMK QFE753/1004 SC065

2010/08/10 11:00
UWLW 101100Z 33004MPS 8000 SKC 34/15 Q1020 NOSIG 20CLRD60 RMK QFE760

2010/08/10 11:00
UWOR 101100Z 11004MPS 7000 SKC 29/05 Q1023 07CLRD65 NOSIG RMK QFE742/0989

2010/08/10 11:00
UWOO 101100Z 18001MPS P5000 SKC 32/05 Q1020 08CLRD65 NOSIG RMK QFE755/1006

2010/08/10 11:00
UWPP 101100Z 14004MPS CAVOK 35/10 Q1019 NOSIG RMK QFE749 11090060

2010/08/10 11:00
UWSS 101100Z 07006MPS CAVOK 34/12 Q1019 NOSIG RMK QFE752 120///60

2010/08/10 11:00
UWWW 101100Z 09004MPS CAVOK 34/12 Q1020 NOSIG RMK QFE752/1003 05CLRD60 15//99//

2010/08/10 11:00
ULLI 101100Z 23005MPS 200V260 9999 BKN040 BKN200 25/15 Q1014 NOSIG

2010/08/10 11:00
UUDD 101100Z 17003MPS 140V210 8000 SCT050CB 36/12 Q1016 TEMPO TSRA

2010/08/10 11:00
UUEE 101100Z 19007MPS 9999 FEW050CB SCT100 BKN200 33/07 Q1015 TEMPO VRB17MPS TSRA

2010/08/10 11:00
UUWW 101100Z 12003MPS 110V180 6000 SCT040CB BKN100 31/12 Q1015 RETS 24000070 NOSIG

2010/08/10 11:00
UUMO 101100Z VRB02MPS 9999 BKN050CB 34/15 Q1016 TEMPO VRB15MRS TSRA RMK QFE747/0996

2010/08/10 11:00
ULAA 101100Z 05003MPS 030V100 3400 VCTS SHRA OVC014CB 19/19 Q1009 TEMPO 1000 TSRA BKN005CB RMK QFE755/1007 SC060

2010/08/10 11:00
ULKK 101100Z 21004MPS 3200 HZ OVC099 34/21 Q1015 NOSIG RMK QFE756 13000060

2010/08/10 11:00
ULMM 101100Z 04003MPS 9999 OVC012 11/08 Q1012 NOSIG RMK QFE752 32290250

2010/08/10 11:00
ULOO 101100Z 20002MPS P6000 BKN030 OVC200 24/16 Q1015 NOSIG RMK QFE757

2010/08/10 11:00
ULWW 101100Z 18007G10MPS 1800 HZ OVC/// 32/16 Q1015 NOSIG RMK QFE750 15CLRD60

2010/08/10 11:00
UMKK 101100Z 02002MPS 010V080 P8000 FEW026 21/15 Q1017 R24/CLRD70 NOSIG RMK QFE762/1016

2010/08/10 11:00
UUBP 101100Z 04004MPS CAVOK 32/16 Q1014 NOSIG

2010/08/10 11:00
UUOB 101100Z 15003MPS 9999 SCT040 38/08 Q1014 NOSIG RMK SC065

2010/08/10 11:00
UUOK 101100Z 13005MPS 9999 SCT033CB BKN066 37/13 Q1012 NOSIG

2010/08/10 11:00
UUOO 101100Z 12005G08MPS CAVOK 39/05 Q1015 NOSIG RMK 13090070

2010/08/10 11:00
UWGG 101100Z 19002MPS 120V250 4200 FU SCT230 36/10 Q1018 NOSIG 18090070 RMK QFE756

2010/08/10 11:00
UWUU 101100Z 01003MPS 260V010 CAVOK 32/13 Q1020 82010060 NOSIG RMK QFE754/1005

2010/08/10 11:00
USCC 101100Z 26004MPS 5000 FU BKN200 29/09 Q1019 NOSIG RMK QFE744 09000070

2010/08/10 11:00
USDD 101100Z 23003MPS 8000 SCT052 BKN070 16/08 Q1012 NOSIG RMK QFE755/1006 SC060

2010/08/10 11:00
USMU 101100Z 31003MPS 9999 FEW040CB SCT050 OVC066 16/10 Q1012 NOSIG RMK QFE753 27110060

2010/08/10 11:00
USNN 101100Z 32002MPS P6000 SCT023CB BKN066 15/10 Q1013 NOSIG RMK QFE755 SC065

2010/08/10 11:00
USRK 101100Z 01005MPS 6000 SCT030 BKN066 16/05 Q1013 NOSIG RMK QFE754 350///60

2010/08/10 11:00
USRR 101100Z 28003MPS 7000 SCT038 BKN080 16/07 Q1014 NOSIG RMK QFE756 07////60

2010/08/10 11:00
USSS 101100Z 27006MPS CAVOK 30/13 Q1018 NOSIG RMK QFE743 260///70

2010/08/10 11:00
UUYH 101100Z 28004MPS CAVOK 31/19 Q1011 NOSIG RMK QFE 746 18CLRD60

2010/08/10 11:00
UUYS 101100Z VRB02MPS 7000 BKN018 OVC/// 20/17 Q1009 TEMPO 2000 TSRA RMK QFE750 14CLRD60

2010/08/10 11:00
UUYY 101100Z 24004G07MPS 210V280 4600 HZ OVC200 35/14 Q1015 NOSIG 19CLRD61 RMK QFE752/1003

2010/08/10 11:06
KBKL 101106Z 00000KT 3SM BR FEW009 SCT045 26/24 A2995 RMK AO2

2010/08/10 11:06
KBML 101106Z AUTO 00000KT 3SM BR OVC001 16/16 A2996 RMK AO2 CIG 001V004

2010/08/10 11:06
KCQX 101106Z AUTO 00000KT 2SM BR FEW021 22/22 A2992 RMK AO2 RAE03 P0001

2010/08/10 11:06
KFTY 101106Z 00000KT 6SM BR CLR 23/22 A3003 RMK AO2

2010/08/10 11:06
KRME 101106Z 14003KT 2 1/2SM BR OVC023 21/21 A2998 RMK AO2

2010/08/10 11:06
KTHV 101106Z AUTO 00000KT 3SM BR CLR 22/21 A2995 RMK AO2

2010/08/10 11:07
KASX 101107Z AUTO 00000KT 2SM BR CLR 18/18 A2999 RMK AO2 VIS 1V3

2010/08/10 11:07
KBFD 101107Z AUTO 00000KT 1 3/4SM BR OVC048 19/18 A3003 RMK AO2

2010/08/10 11:07
KENW 101107Z AUTO 00000KT 1/4SM FG CLR 20/19 A2998 RMK AO2

2010/08/10 11:00
KGTB 101100Z AUTO 00000KT 10SM OVC012 21/20 A2995 RMK AO2 CIG 011V015 SLP140

2010/08/10 11:07
KMKG 101107Z 00000KT M1/4SM FG VV001 20/19 A2999 RMK AO2 TWR VIS 1/4

2010/08/10 11:05
KMMT 101105Z AUTO 00000KT 6SM BR SCT003 SCT017 SCT027 24/24 A3003 RMK AO2 SLP167

2010/08/10 11:01
KNSE 101101Z 04004KT 5SM BR FEW250 26/23 A2994 RMK AO2 $

2010/08/10 11:04
KSSC 101104Z 00000KT 4SM BR OVC002 24/23 A3002 RMK AO2A SLP164 $

2010/08/10 11:03
K0F2 101103Z AUTO 00000KT 10SM SCT080 24/21 A2993 RMK AO2 T02380205

2010/08/10 11:05
K1H2 101105Z AUTO 00000KT 4SM BR SCT110 25/24 A2995 RMK AO2 LTG DSNT N T02450235

2010/08/10 11:05
K3T5 101105Z AUTO 00000KT 4SM BR CLR 25/24 A2991 RMK AO2 T02510237

2010/08/10 11:03
K5C1 101103Z AUTO 20007KT 10SM BKN013 OVC020 26/23 A2996 RMK AO1

2010/08/10 11:02
KAAA 101102Z AUTO 00000KT 10SM CLR 23/21 A2994 RMK AO2 LTG DSNT NE AND NW T02310212

2010/08/10 11:02
KAPY 101102Z AUTO 10003KT 10SM CLR 26/25 A2986 RMK AO2 T02570246

2010/08/10 11:05
KAQO 101105Z AUTO 00000KT CLR 25/22 A2998 RMK AO2 PWINO

2010/08/10 11:04
KARM 101104Z AUTO 08003KT 4SM BR CLR 26/24 A2992 RMK AO2 T02560241

2010/08/10 11:07
KASW 101107Z AUTO 00000KT 1 3/4SM BR BKN033 OVC085 23/22 A2999 RMK AO2 T02300222

2010/08/10 11:05
KBBD 101105Z AUTO 16004KT 10SM CLR 25/22 A2996 RMK

2010/08/10 11:01
KBEA 101101Z AUTO 00000KT 3SM BR CLR 25/25 A2989 RMK AO2 T02520252

2010/08/10 11:05
KERV 101105Z AUTO 00000KT 10SM OVC021 25/22 A2998 RMK AO2 T02470220

2010/08/10 11:02
KF05 101102Z AUTO 15003KT 10SM CLR 25/19 A2992 RMK AO2 T02480192

2010/08/10 11:03
KFWS 101103Z AUTO 00000KT 10SM CLR 25/21 A2994 RMK AO2 T02480206

2010/08/10 11:02
KGDJ 101102Z AUTO 21003KT 10SM CLR 27/21 A2992 RMK AO2 T02670207

2010/08/10 11:03
KGLE 101103Z AUTO 25003KT 10SM CLR 26/20 A2993 RMK AO2

2010/08/10 11:05
KGNC 101105Z AUTO 09003KT 10SM CLR 20/19 A3004 RMK AO2 T01950185

2010/08/10 11:03
KGVT 101103Z AUTO 00000KT 10SM CLR 26/22 A2993 RMK AO2

2010/08/10 11:05
KGWB 101105Z AUTO 00000KT 1 1/4SM BR SCT036 BKN044 BKN065 22/21 A2999 RMK AO2

2010/08/10 11:04
KJOT 101104Z AUTO 00000KT 5SM HZ SCT090 24/21 A2996 RMK AO2 LTG DSNT S

2010/08/10 11:06
KORG 101106Z AUTO 00000KT 5SM BR CLR 24/24 A2994 RMK AO2

2010/08/10 11:05
KOXI 101105Z AUTO 00000KT 1 3/4SM VV007 22/21 A2996 RMK AO1 T02230213

2010/08/10 11:00
KOZA 101100Z AUTO 18009KT 10SM SCT017 25/22 A3001 RMK AO2 T02520216

2010/08/10 11:07
KPSN 101107Z AUTO 00000KT 24/24 A2995 RMK AO2 PWINO

2010/08/10 11:13
KPYX 101113Z AUTO 20007KT 10SM CLR 21/17 A2997 RMK AO2

2010/08/10 11:05
KRCR 101105Z AUTO 00000KT 2 1/2SM BR CLR 26/26 A2997 RMK AO2

2010/08/10 11:05
KSFY 101105Z AUTO 00000KT 7SM BKN060 BKN070 24/23 A2996 RMK AO2 LTG DSNT S THRU NW

2010/08/10 11:04
KTFP 101104Z AUTO 21003KT 10SM CLR 28/26 A2987 RMK AO2

2010/08/10 11:00
LRBS 101100Z 06004KT CAVOK 31/18 Q1014 NOSIG

2010/08/10 11:00
LRCK 101100Z VRB06KT CAVOK 34/18 Q1012 NOSIG

2010/08/10 11:00
LROP 101100Z 03003KT 320V100 CAVOK 31/21 Q1013 880///95 NOSIG

2010/08/10 11:00
LRSB 101100Z VRB02KT 9999 SCT045 BKN090 24/17 Q1018

2010/08/10 11:00
LRTR 101100Z 35005KT 280V070 9999 FEW040 27/14 Q1017 NOSIG

2010/08/10 11:00
LCLK 101100Z 19012KT 9999 FEW025 32/26 Q1006 NOSIG

2010/08/10 11:00
LCPH 101100Z 26010KT 230V290 9999 FEW025 31/25 Q1006

2010/08/10 11:00
FAJB 101100Z AUTO 09007KT //// // ////// 14/M15 Q1032

2010/08/10 11:00
LFLL 101100Z 35007KT 290V030 CAVOK 26/15 Q1017 NOSIG

2010/08/10 11:00
LFMN 101100Z 14006KT 9999 FEW016 26/21 Q1016 NOSIG

2010/08/10 11:00
LFPG 101100Z 22013KT CAVOK 24/12 Q1015 NOSIG

2010/08/10 11:00
LFPO 101100Z 21011KT 180V240 9999 FEW046 BKN250 24/13 Q1015 NOSIG

2010/08/10 11:00
LFQQ 101100Z 22011KT 190V250 9999 FEW023 BKN110 21/14 Q1013 NOSIG

2010/08/10 11:00
LFRB 101100Z 22015KT 9999 -RA BKN009 BKN014 18/17 Q1014 NOSIG

2010/08/10 11:00
LFRS 101100Z 24010KT 200V260 9999 BKN019 BKN031 22/16 Q1017 NOSIG

2010/08/10 11:00
YPXM 101100Z AUTO 09008KT 9999NDV // BKN008 OVC012 25/23 Q1011

2010/08/10 11:00
LFBA 101100Z VRB03KT 9999 FEW036 SCT250 24/13 Q1018 NOSIG

2010/08/10 11:00
LFBE 101100Z 36004KT 300V070 9999 FEW040 BKN260 24/11 Q1018 NOSIG

2010/08/10 11:00
LFGJ 101100Z AUTO 20006KT 140V270 9999NDV NSC 26/15 Q1017

2010/08/10 11:00
LFJR 101100Z AUTO 24009KT 200V270 9999NDV BKN023 OVC032 22/15 Q1017

2010/08/10 11:00
LFMD 101100Z AUTO 17008KT 120V200 9999NDV NSC 27/22 Q1015

2010/08/10 11:00
LFMH 101100Z VRB03KT 9999 FEW040 BKN210 25/13 Q1018 NOSIG

2010/08/10 11:00
LFOT 101100Z AUTO 23006KT 200V270 9999NDV BKN017 OVC023 20/15 Q1017

2010/08/10 11:00
LFPN 101100Z 21012KT 180V240 CAVOK 25/13 Q1015 NOSIG

2010/08/10 11:00
LFRC 101100Z AUTO 24013KT 9999NDV -RA BKN008 BKN037 18/17 Q1013

2010/08/10 11:00
LFRG 101100Z AUTO 22010KT 9999NDV OVC006 17/17 Q1014

2010/08/10 11:00
LFRK 101100Z 20012KT 4000 -RADZ BR BKN011 19/18 Q1014

2010/08/10 11:00
RKSI 101100Z 08005KT 8000 FEW008 BKN030 27/24 Q1006 NOSIG

2010/08/10 11:00
RKSS 101100Z 06005KT 6000 -RA FEW010 BKN025 BKN100 25/23 Q1006 NOSIG 

2010/08/10 11:00
RKPC 101100Z 11013KT 090V150 2000 RA BR FEW008 BKN025 OVC070 26/24 Q0993 WS ALL RWY TEMPO 3500 

2010/08/10 11:00
RKPK 101100Z 16015KT 4800 -RA BR FEW010 SCT010CB OVC025 27/23 Q1006 NOSIG 

2010/08/10 11:00
RKTU 101100Z 03005KT 2400 RA BR FEW012 BKN030 OVC060 25/24 Q1006 NOSIG 

2010/08/10 11:00
RKTN 101100Z 12003KT 4800 -RA BR FEW010 BKN020 OVC030 27/25 Q1006 BECMG 3200 -TSRA BR

2010/08/10 11:00
RKJB 101100Z 08012KT 050V110 4000 -RA BR FEW010 BKN025 OVC070 26/24 Q1001 NOSIG 

2010/08/10 11:00
RKNY 101100Z AUTO 17003KT2900NDV ///050 24/23 Q1008 

2010/08/10 11:00
YBBN 101100Z 14006KT 2500 -RA SCT006 BKN014 BKN034 19/19 Q1016 FM1140 02012KT 7000 -RA BKN008 BKN025 TEMPO 1100/1400 02015G25KT 3000 RA BKN006 FM1110 MOD TURB BLW 7000FT

2010/08/10 11:05
PABR 101105Z 08018KT 4SM -DZ BR OVC002 01/01 A2987

2010/08/10 11:04
YMAV 101104Z AUTO 35006KT 4000NDV // SCT009 BKN014 08/08 Q1009

2010/08/10 11:00
LFAQ 101100Z AUTO 22015KT 9999NDV FEW042 22/12 Q1014

2010/08/10 11:00
LFBU 101100Z AUTO 24004KT 130V280 9999NDV NSC 22/11 Q1018

2010/08/10 11:00
LFLN 101100Z AUTO 30005KT 260V020 9999NDV NSC 23/16 Q1018

2010/08/10 11:00
LFPM 101100Z 20014KT CAVOK 24/13 Q1015

2010/08/10 11:00
LFRH 101100Z 24013KT 8000 BKN006 BKN049 20/18 Q1016

2010/08/10 11:00
LFRQ 101100Z 24012KT 200V270 9999 SCT011 BKN024 20/17 Q1015 NOSIG

2010/08/10 11:00
LFRT 101100Z 25012KT 210V270 9999 SCT017 BKN026 20/17 Q1014

2010/08/10 11:00
LFSD 101100Z AUTO 19004KT 120V240 9999NDV NSC 27/16 Q1016

2010/08/10 11:00
LFTW 101100Z AUTO VRB04KT 9999NDV NSC 30/14 Q1015

2010/08/10 11:00
RKPK 101100Z 16013KT 8000 -RA FEW015 SCT015 OVC040 27/23 Q1006 NOSIG

2010/08/10 11:00
DNMM 101100Z 24013KT 9999 BKN011 28/23 Q1015 NOSIG

2010/08/10 11:00
UBBY 101100Z 14006KT 9999 FEW045 SCT100 34/07 Q1015 NOSIG RMK R33/CLRD70 G/O

2010/08/10 11:00
SAZS 101100Z 14009KT CAVOK M02/M05 Q1022

2010/08/10 11:00
FIMP 101100Z 08011KT 9999 SCT019 25/16 Q1022

2010/08/10 11:00
SARI 101100Z 23007KT 5000 BR NSC 11/11 Q1023

2010/08/10 11:00
LEAB 101100Z VRB04KT CAVOK 33/12 Q1020 NOSIG

2010/08/10 11:00
LEBZ 101100Z 27004KT 160V300 CAVOK 36/13 Q1017

2010/08/10 11:00
LELN 101100Z 25009KT 200V300 CAVOK 27/05 Q1021

2010/08/10 11:00
LESA 101100Z VRB01KT 7000 FEW040 31/15 Q1021

2010/08/10 11:00
LETO 101100Z 19004KT 120V290 CAVOK 32/12 Q1019 NOSIG

2010/08/10 11:00
LEVD 101100Z 26008KT 230V300 CAVOK 29/09 Q1021

2010/08/10 11:00
LEVS 101100Z 20005KT 140V250 9000 NSC 34/13 Q1020

2010/08/10 11:00
LEMD 101100Z 02002KT CAVOK 33/13 Q1019 NOSIG

2010/08/10 11:00
LEBL 101100Z 13010KT 9999 SCT020 26/19 Q1017 NOSIG

2010/08/10 11:00
LEPA 101100Z 23010KT 200V260 CAVOK 29/20 Q1017 NOSIG

2010/08/10 11:00
LEZL 101100Z 21002KT CAVOK 36/13 Q1016 NOSIG

2010/08/10 11:00
LEMG 101100Z 14009KT 110V190 CAVOK 30/17 Q1018 NOSIG

2010/08/10 11:00
LEVC 101100Z 08008KT 030V140 CAVOK 30/20 Q1017 NOSIG

2010/08/10 11:00
LEAL 101100Z 09008KT 060V140 CAVOK 32/19 Q1016 NOSIG

2010/08/10 11:00
LEIB 101100Z 09008KT 050V130 CAVOK 30/21 Q1017 NOSIG

2010/08/10 11:00
LELC 101100Z 13006KT 090V180 9999 FEW040 30/21 Q1017 NOSIG

2010/08/10 11:00
LEVX 101100Z VRB03KT CAVOK 30/16 Q1019

2010/08/10 10:48
HLLB 101048Z 32018KT 9999 BKN020 28/18 Q1013

2010/08/10 10:50
HLLS 101050Z 09004KT CAVOK 38/07 Q1014

2010/08/10 10:50
HLLT 101050Z 02004KT 330V140 CAVOK 32/10 Q1016

2010/08/10 11:00
GCHI 101100Z 36010KT 340V040 9999 FEW022 SCT030 24/19 Q1017

2010/08/10 11:00
GEML 101100Z 01006KT 330V070 9999 FEW015 28/22 Q1018

2010/08/10 11:00
SAME 101100Z 00000KT CAVOK 03/M03 Q1023

2010/08/10 10:58
PTRO 101058Z 17005KT 14SM SCT016TCU BKN120 BKN300 28/24 A2991

2010/08/10 11:05
KERI 101105Z 08003KT 2 1/2SM BR SCT010 OVC038 22/21 A2996

2010/08/10 11:00
FYGB 101100Z AUTO 11005KT //// // ////// 15/M13 Q1031

2010/08/10 11:00
FYGF 101100Z AUTO 12008KT //// // ////// 18/M11 Q1029

2010/08/10 11:00
FYKT 101100Z 09013KT CAVOK 16/M12 Q1032

2010/08/10 11:00
FYLZ 101100Z AUTO 06023KT //// // ////// 28/M15 Q1020

2010/08/10 11:00
FYML 101100Z AUTO 09007KT //// // ////// ///// Q1034

2010/08/10 11:00
FYOJ 101100Z AUTO 08010KT //// // ////// 23/M07 Q1025

2010/08/10 11:00
FYOW 101100Z AUTO 11008KT //// // ////// 23/M11 Q1026

2010/08/10 11:00
FYRU 101100Z 09010KT CAVOK 21/M08 Q1026

2010/08/10 11:00
FYWB 101100Z 08027KT 9999 VV/// 33/M12 Q1016 

2010/08/10 11:00
FYWH 101100Z 08007KT CAVOK 14/M16 Q1032

2010/08/10 11:00
FYWW 101100Z 11007KT CAVOK 16/08 Q1029

2010/08/10 11:00
LKCV 101100Z VRB03KT 9999 SCT037 23/14 Q1018 NOSIG

2010/08/10 11:00
LKKB 101100Z VRB02KT 9999 SCT048 23/13 Q1018 NOSIG

2010/08/10 11:00
LKLN 101100Z AUTO VRB03KT CAVOK 24/13 Q1018

2010/08/10 11:00
LKNA 101100Z 19006KT 140V230 9999 BKN048 22/13 Q1019 NOSIG

2010/08/10 11:00
LKPO 101100Z 23003KT 9999 SCT037 23/14 Q1018 NOSIG

2010/08/10 11:00
ZBAA 101100Z 13004MPS 4000 HZ NSC 27/21 Q1005 NOSIG

2010/08/10 11:00
ZBSJ 101100Z 12001MPS 5000 BR NSC 28/24 Q1006 NOSIG

2010/08/10 11:00
ZBTJ 101100Z 14004MPS 7000 NSC 28/21 Q1005 NOSIG

2010/08/10 11:00
ZBYN 101100Z 08005MPS 9999 SCT040 24/17 Q1009 NOSIG

2010/08/10 11:00
ZGGG 101100Z 14004MPS 9000 FEW033 34/24 Q1004 NOSIG

2010/08/10 11:00
ZSHC 101100Z 03002MPS CAVOK 33/24 Q1003 NOSIG

2010/08/10 11:00
ZSPD 101100Z 33004MPS CAVOK 29/24 Q1003 NOSIG

2010/08/10 11:00
ZSSS 101100Z 36004MPS 9999 FEW030TCU 31/24 Q1003 NOSIG

2010/08/10 11:00
ZWSH 101100Z 18004MPS 9999 FEW040CB 32/07 Q1007 NOSIG

2010/08/10 11:00
ZWWW 101100Z 01003MPS CAVOK 31/07 Q1003 NOSIG

2010/08/10 11:00
ZYTL 101100Z 09004MPS CAVOK 24/20 Q1006 NOSIG

2010/08/10 11:00
ZYTX 101100Z 01001MPS 9999 FEW033 26/20 Q1006 NOSIG

2010/08/10 11:00
SARP 101100Z 14008KT CAVOK 09/06 Q1022

2010/08/10 11:05
KBGM 101105Z 00000KT 1/4SM FG FEW001 BKN060 OVC095 20/19 A3001

2010/08/10 10:53
KFXE 101053Z COR 15008KT 6SM -RA FEW015 SCT044 BKN060 26/23 A2988

2010/08/10 11:00
RKPK 101100Z 16013KT 8000 -RA FEW015 SCT025 OVC040 27/23 Q1006 NOSIG 

2010/08/10 11:00
RKPK 101100Z 16013KT 8000 -RA FEW015 SCT025 OVC040 27/23 Q1006 NOSIG 

2010/08/10 11:00
VTPH 101100Z 00000KT 9999 BKN028 32/23 Q1002

2010/08/10 11:00
VTPP 101100Z 14002KT 9999 FEW020 CB FEW022 BKN300 31/24 Q1001 CB W S E

2010/08/10 11:00
VTPO 101100Z 15007KT 9999 SCT022 SCT120 BKN300 30/25 Q1001

2010/08/10 11:00
VTSB 101100Z 19005KT 9000 FEW018 OVC120 26/24 Q1006 A2972 RERA

2010/08/10 11:00
VTSM 101100Z 30005KT 9999 SCT020 BKN120 OVC300 31/25 Q1006 A2971

2010/08/10 11:00
VTUD 101100Z 24009KT 210V290 9999 VCSH FEW018CB BKN035 BKN060 BKN120 29/23 Q1004 A2964 CB W NW N INFO M RWY30

2010/08/10 11:00
URKA 101100Z 36004MPS CAVOK 33/25 Q1008 NOSIG RMK 065

2010/08/10 11:00
URKK 101100Z 19003G06MPS 150V270 CAVOK 37/14 Q1007 NOSIG RMK QFE752 SC070

2010/08/10 11:00
URKM 101100Z 10005G09MPS CAVOK 37/18 Q1009 RMK QFE738

2010/08/10 11:00
URML 101100Z 10005MPS 9999 SKC 33/21 Q1010 NOSIG RMK QFE758 / 07

2010/08/10 11:00
URMM 101100Z 12010G13MPS 9999 SKC 36/14 Q1010 NOSIG RMK 0000-3000 / SC070

2010/08/10 11:00
URMN 101100Z 08002MPS 9999 FEW033 FEW110 33/15 Q1011 NOSIG RMK / QFE722 SC07

2010/08/10 11:00
URMT 101100Z 10010G13MPS CAVOK 36/04 Q1012 NOSIG RMK QFE719 SC07

2010/08/10 11:00
URRR 101100Z 10006G09MPS CAVOK 39/06 Q1011 NOSIG RMK SC070

2010/08/10 11:00
URSS 101100Z 27002MPS 230V290 9999 FEW040TCU SCT100 33/22 Q1007 NOSIG RMK / QFE754 06CLRD70

2010/08/10 11:00
URWA 101100Z 07005MPS CAVOK 40/09 Q1013 NOSIG RMK SC07

2010/08/10 11:00
URWI 101100Z 12009G14MPS 9999 SKC 40/18 Q1012 NOSIG RMK SC065

2010/08/10 11:00
URWW 101100Z 08005G09MPS 050V130 CAVOK 38/06 Q1015 NOSIG RMK SC070

2010/08/10 11:00
VTSG 101100Z 00000KT 9999 SCT020 BKN300 27/25 Q1006/A2971 RWY32 INFO W

2010/08/10 11:00
YBAS 101100Z AUTO 26004KT 9999NDV // NCD 09/01 Q1023

2010/08/10 11:00
YBBN 101100Z 14006KT 2500 -RA SCT006 BKN014 BKN034 19/19 Q1016 FM1140 02012KT 7000 -RA BKN008 BKN025 TEMPO 1100/1400 02015G25KT 3000 RA BKN006 FM1110 MOD TURB BLW 7000FT

2010/08/10 11:01
YBCS 101101Z 00000KT 9999 FEW003 BKN017 BKN025 24/23 Q1015 TEMPO 1101/1401 3000 -SHRA FEW003 BKN010

2010/08/10 11:00
YBTL 101100Z 19005KT 4000 -RA SCT005 SCT017 BKN045 23/23 Q1015 RERA

2010/08/10 11:00
YMML 101100Z 36008KT 7000 -RA SCT011 SCT028 OVC055 08/07 Q1010 FM1100 29008KT 9000 -RA SCT006 BKN010 INTER 1100/1130 4000 RA BKN008 INTER 1130/1400 4000 RA BKN005

2010/08/10 11:00
YPAD 101100Z 21013KT 9999 FEW035 SCT050 12/08 Q1015 NOSIG

2010/08/10 11:00
YPCC 101100Z AUTO 13010KT 9999NDV // NCD 27/21 Q1010

2010/08/10 11:00
YPDN 101100Z 30005KT CAVOK 26/20 Q1014 NOSIG

2010/08/10 11:00
YPKU 101100Z AUTO 12003KT 9999NDV // NCD 18/08 Q1016

2010/08/10 11:00
YPLM 101100Z AUTO 35003KT 9999NDV // NCD 19/12 Q1017

2010/08/10 11:00
YPPH 101100Z 06009KT CAVOK 14/M01 Q1018 NOSIG

2010/08/10 11:00
YPTN 101100Z AUTO 15005KT 9999NDV // NCD 21/07 Q1015

2010/08/10 11:00
YPXM 101100Z AUTO 09008KT 9999NDV // BKN008 OVC012 25/23 Q1011

2010/08/10 11:00
YSSY 101100Z 29007KT 9999 9000NW FEW015 SCT050 BKN100 15/13 Q1012 FM1200 33008KT 4000 BR SCT010 SCT015 TEMPO 1100/1400 4000 RA BKN010

2010/08/10 11:05
KBGM 101105Z 00000KT 1/4SM FG FEW001 BKN060 OVC095 20/19 A3001

2010/08/10 11:05
KERI 101105Z 08003KT 2 1/2SM BR SCT010 OVC038 22/21 A2996

2010/08/10 11:00
UAAA 101100Z 33006MPS 300V360 9999 SCT050CB BKN100 29/11 Q1011 88CLRD65 TEMPO TS

2010/08/10 11:00
UACC 101100Z 36004MPS 310V010 CAVOK 20/03 Q1019 040/0070 NOSIG RMK QFE732/0977

2010/08/10 11:00
UAFM 101100Z 32009MPS CAVOK 32/08 Q1011 TEMPO 32007G12MPS

2010/08/10 11:00
UATE 101100Z 21007MPS 9999 FEW060CB BKN180 38/06 Q1012 WS RWY12 120///70 NOSIG RMK QFE757/1009

2010/08/10 11:00
UATT 101100Z 05005MPS 020V090 9999 NSC 31/03 Q1020 13CLRD70 NOSIG RMK QFE746/0994

2010/08/10 11:00
UELL 101100Z VRB02MPS 9999 SCT040 OVC200 18/12 Q1006 NOSIG RMK QFE680 08CLRD70

2010/08/10 11:00
UHWW 101100Z 25001MPS 5000 -SHRA BR BKN010 OVC040CB 23/23 Q1008 NOSIG RMK QFE755/1007 7529//60

2010/08/10 11:00
ULWW 101100Z 18007G10MPS 1800 HZ OVC/// 32/16 Q1015 NOSIG RMK QFE750 15CLRD60

2010/08/10 11:00
UMGG 101100Z 29002MPS 9999 SCT040CB OVC100 28/20 Q1016 R10/D NOSIG

2010/08/10 11:00
UMII 101100Z 34003G06MPS P6000 FEW016 FEW040 SCT300 25/16 Q1016 R23/D NOSIG

2010/08/10 11:00
UMMM 101100Z 02001MPS 9999 BKN023 BKN100 23/17 Q1016 R30/D NOSIG RMK QFE743

2010/08/10 11:00
UMMS 101100Z 02003MPS 9999 SCT019 BKN120 24/18 Q1017 R31/290060 NOSIG

2010/08/10 11:00
UTAA 101100Z 33004MPS 300V030 9999 SKC 39/01 Q1010 NOSIG

2010/08/10 11:00
UTDD 101100Z 22002MPS 170V270 9999 SCT066 37/05 Q1006 09CLRD70 NOSIG RMK QFE687/0916

2010/08/10 11:00
UUEE 101100Z 19007MPS 9999 FEW050CB SCT100 BKN200 33/07 Q1015 TEMPO VRB17MPS TSRA

2010/08/10 11:00
VTBD 101100Z 20010KT 9999 FEW020CB SCT120 BKN300 31/23 Q1002 CB NW NOSIG

2010/08/10 11:00
UHHH 101100Z 18002MPS CAVOK 23/20 Q1005 NOSIG RMK QFE747/0997 23090060

2010/08/10 11:00
UHMM 101100Z 09003MPS 9999 OVC066 15/13 Q1010 RMK QFE742 88010070

2010/08/10 11:00
UHNN 101100Z 12007G12MPS 9999 BKN011CB OVC070 18/17 Q1009 RMK QBB330 QFE752

2010/08/10 11:00
UHPP 101100Z 06002MPS 030V100 9999 SKC 13/09 Q1014 NOSIG RMK QFE757/1010 SC070

2010/08/10 11:00
UHSS 101100Z 16003MPS 0700 R19/1200D FG VV002 21/21 Q1012 NOSIG RMK QBB080 MT OBSC QFE757/1010 19190065

2010/08/10 11:00
UIBB 101100Z 00000MPS 9999 -SHRA SCT030CB OVC100 14/11 Q1006 NOSIG RMK QFE712/0949 30190055

2010/08/10 11:00
UIII 101100Z 16005MPS CAVOK 19/12 Q1004 NOSIG RMK QFE711/0948 12CLRD60

2010/08/10 11:00
UIUU 101100Z 32002MPS 280V360 9999 FEW043 BKN200 27/07 Q1002 NOSIG RMK QFE707/0943 26CLRD60

2010/08/10 11:00
ULLI 101100Z 23005MPS 200V260 9999 BKN040 BKN200 25/15 Q1014 NOSIG

2010/08/10 11:00
UMKK 101100Z 02002MPS 010V080 P8000 FEW026 21/15 Q1017 R24/70D NOSIG RMK QFE762/1016

2010/08/10 11:00
URKA 101100Z 36004MPS CAVOK 33/25 Q1008 NOSIG RMK 065

2010/08/10 11:00
URMM 101100Z 12010G13MPS 9999 SKC 36/14 Q1010 NOSIG RMK 0000-3000 / SC070

2010/08/10 11:00
URSS 101100Z 27002MPS 230V290 9999 FEW040TCU SCT100 33/22 Q1007 NOSIG RMK / QFE754 06CLRD70

2010/08/10 11:00
UUDD 101100Z 17003MPS 140V210 8000 SCT050CB 36/12 Q1016 TEMPO TSRA

2010/08/10 11:00
UUWW 101100Z 12003MPS 110V180 6000 SCT040CB BKN100 31/12 Q1015 RETS 24000070 NOSIG

2010/08/10 11:00
UWGG 101100Z 19002MPS 120V250 4200 FU SCT230 36/10 Q1018 NOSIG 18090070 RMK QFE756

2010/08/10 11:00
GGOV 101100Z 17005KT 130V210 9999 FEW005 SCT014TCU FEW020CB BKN090 25/24 Q1014 TEMPO TS

2010/08/10 11:00
GOOY 101100Z 32006KT 260V350 9999 SCT013 SCT130 29/23 Q1013 NOSIG

2010/08/10 11:00
DIAP 101100Z 24008KT 8000 SCT011 SCT020 BKN070 26/23 Q1015 NOSIG

2010/08/10 11:00
GQNN 101100Z 28007KT 240V320 8000 NSC 29/18 Q1013 NOSIG

2010/08/10 11:00
GQPP 101100Z 31015KT 9999 SCT006 SCT130 24/21 Q1015 NOSIG

2010/08/10 11:00
GVAC 101100Z 09005KT 040V140 9999 BKN014 27/19 Q1015 NOSIG

2010/08/10 11:00
GFLL 101100Z 27008KT 9999 SCT0110 FEWCB026 26/24 Q1014 CB-NE

2010/08/10 11:00
GBYD 101100Z VRB03KT 9999 SCT011 SCT120 27/25 Q1013

2010/08/10 11:00
GLRB 101100Z 00000KT 8000 -DZ FEW008 BKN015 26/25 Q1015

2010/08/10 11:00
GMMC 101100Z 36006KT 5000 NSC 32/20 Q1014

2010/08/10 11:05
KYIP 101105Z 00000KT 1 1/4SM BR SCT001 19/18 A2998

2010/08/10 11:05
PABR 101105Z 08018KT 4SM -DZ BR OVC002 01/01 A2987

2010/08/10 11:00
TNCM 101100Z 12008KT 9999 -SHRA SCT019 29/24 Q1014

2010/08/10 11:08
CYVP 101108Z 36003KT 3SM -DZ BR OVC004 RMK FG4SF4

2010/08/10 11:00
KNEL 101100Z AUTO 00000KT 5SM HZ FEW080 24/21 A2993 RMK AO2 SLP134 T02390206 $

2010/08/10 10:56
KNFL 101056Z AUTO 22004KT 10SM CLR 16/04 A2995 RMK AO2 SLP114 T01560044 TSNO

2010/08/10 10:56
KNFL 101056Z AUTO 22004KT 10SM CLR 16/04 A2995 RMK AO2 SLP114 T01560044 TSNO

2010/08/10 11:00
SEGU 101100Z 23005KT 9999 BKN100 22/19 Q1013 NOSIG

2010/08/10 11:00
TDPD 101100Z 27005KT 9999 FEW017 FEW///CB 25/23 Q1014

2010/08/10 11:00
BIAR 101100Z 29004KT 9999 OVC013 11/08 Q1014

2010/08/10 11:00
BIEG 101100Z 36005KT 9999 SCT006 OVC008 09/08 Q1014

2010/08/10 11:00
BIKF 101100Z 34007KT 9999 FEW018 BKN021 12/07 Q1015

2010/08/10 11:00
BIRK 101100Z 36008KT 9999 FEW020 SCT036 13/08 Q1014

2010/08/10 10:55
ETIH 101055Z AUTO VRB03KT 9999 FEW039 BKN090 BKN190 BKN210 22/19 A3007 RMK AO2 SLP172 T02190194 $

2010/08/10 11:00
LFBY 101100Z 12004KT 030V190 9999 FEW030 SCT230 24/16 Q1018

2010/08/10 11:00
LFCG 101100Z VRB02KT 9999 FEW033 23/16 Q1019

2010/08/10 11:00
LFDB 101100Z 28004KT 180V330 9999 FEW030 BKN250 24/14 Q1018

2010/08/10 11:00
LFDH 101100Z VRB02KT 9999 FEW033 BKN250 23/15 Q1018

2010/08/10 11:00
LFGJ 101100Z AUTO 20006KT 140V270 9999NDV NSC 26/15 Q1017

2010/08/10 11:00
LFHP 101100Z VRB03KT 9999 FEW043 BKN230 23/12 Q1019

2010/08/10 11:00
LFLD 101100Z 24008KT 200V290 CAVOK 25/13 Q1017

2010/08/10 11:00
LFLM 101100Z VRB03KT 9999 FEW026 BKN230 27/14 Q1017

2010/08/10 11:00
LFLQ 101100Z 01008KT 330V060 9999 FEW030 BKN250 29/14 Q1015

2010/08/10 11:00
LFLV 101100Z 32003KT 250V350 9999 FEW033 BKN250 24/16 Q1018

2010/08/10 11:00
LFMC 101100Z 35003KT 290V070 9999 BKN043 29/19 Q1015

2010/08/10 11:00
LFOF 101100Z 26010KT 230V290 3500 -DZRA SCT008 BKN020 19/16 Q1016 NOSIG

2010/08/10 11:00
LFOI 101100Z 22014KT 9999 BKN040 21/13 Q1013

2010/08/10 11:00
LFOR 101100Z 24011KT 190V290 CAVOK 22/11 Q1016

2010/08/10 11:00
LFOT 101100Z AUTO 23006KT 200V270 9999NDV BKN017 OVC023 20/15 Q1017

2010/08/10 11:00
LFOW 101100Z 22011KT 180V250 9999 FEW033 BKN083 23/13 Q1014

2010/08/10 11:00
LFQB 101100Z 27011KT CAVOK 26/12 Q1015

2010/08/10 11:00
LFQG 101100Z 26007KT 210V320 9999 FEW040 BKN250 24/15 Q1017

2010/08/10 11:00
LFRI 101100Z 24007KT 190V280 9999 BKN016 BKN026 22/16 Q1018 NOSIG

2010/08/10 11:00
LFRJ 101100Z AUTO 23016KT 9999NDV BKN012/// BKN020/// BKN025/// 19/17 Q1014

2010/08/10 11:00
LFRK 101100Z 20012KT 4000 -RADZ BR BKN011 19/18 Q1014

2010/08/10 11:00
LFRM 101100Z 23008KT 180V280 9999 SCT011 BKN023 22/15 Q1016

2010/08/10 11:00
LFXA 101100Z 35005KT 300V040 9999 FEW040 BKN230 27/15 Q1017

2010/08/10 11:00
SLCO 101100Z 22004KT 2000 FU SKC 19/18 Q1015

2010/08/10 11:00
SLRY 101100Z 00000KT 3000 FU SCT080 15/14 Q1017

2010/08/10 11:00
SLRQ 101100Z 00000KT 1500 FU FEW080 16/15 Q1017

2010/08/10 11:00
SLOR 101100Z 00000KT 9999 SKC M07/M09 Q1036

2010/08/10 11:00
SLRI 101100Z 00000KT 5000 FU SKC 19/17 Q1014

2010/08/10 11:00
SLJO 101100Z 14004KT 6000 SKC 16/14 Q1016

2010/08/10 11:00
SLMG 101100Z 16004KT 5000 FU SKC 17/14 Q1017

2010/08/10 11:00
SLSA 101100Z 00000KT 5000 FU NSC 15/13 Q1015

2010/08/10 11:00
SLSU 101100Z 00000KT 9999 SKC 04/03 Q1029

2010/08/10 11:00
SLTJ 101100Z 00000KT 9999 SKC 02/00 Q1025

2010/08/10 11:00
SLYA 101100Z 00000KT 9999 OVC070 09/07 Q1024

2010/08/10 11:00
SLET 101100Z 18015KT 9999 FEW070 16/06 Q1021

2010/08/10 11:00
SLCP 101100Z 19005KT 6000 SKC 15/11 Q1020

2010/08/10 11:00
SLSI 101100Z 18006KT 9999 SKC 17/12 Q1019

2010/08/10 11:00
SLJE 101100Z 12005KT 5000 FU SKC 19/08 Q1021

2010/08/10 11:00
SLRB 101100Z 00000KT 7000 SKC 11/08 Q1022

2010/08/10 11:00
SLPS 101100Z 00000KT 5000 FU SKC 18/11 Q1018

2010/08/10 11:00
SLCA 101100Z 00000KT 9999 OVC080 10/06 Q1025

2010/08/10 11:00
GGOV 101100Z 17005KT 130V210 9999 FEW005 SCT014TCU FEW020CB BKN090 25/24 Q1014 TEMPO TS

2010/08/10 11:00
GOOY 101100Z 32006KT 260V350 9999 SCT013 SCT130 29/23 Q1013 NOSIG

2010/08/10 11:00
DIAP 101100Z 24008KT 8000 SCT011 SCT020 BKN070 26/23 Q1015 NOSIG

2010/08/10 11:00
GQNN 101100Z 28007KT 240V320 8000 NSC 29/18 Q1013 NOSIG

2010/08/10 11:00
GQPP 101100Z 31015KT 9999 SCT006 SCT130 24/21 Q1015 NOSIG

2010/08/10 11:00
GVAC 101100Z 09005KT 040V140 9999 BKN014 27/19 Q1015 NOSIG

2010/08/10 11:00
GFLL 101100Z 27008KT 9999 SCT0110 FEWCB026 26/24 Q1014 CB-NE

2010/08/10 11:00
GBYD 101100Z VRB03KT 9999 SCT011 SCT120 27/25 Q1013

2010/08/10 11:00
GLRB 101100Z 00000KT 8000 -DZ FEW008 BKN015 26/25 Q1015

2010/08/10 10:50
OOSA 101050Z AUTO 20011KT 27/22 Q1003

2010/08/10 11:00
DAUL 101100Z 00000KT 8000 FEW030 SCT233 36/14 Q1019

