2010/08/09 16:59
MYEG 091659Z AUTO 11008KT 10SM CLR 29/24 A2999 RMK AO2 

2010/08/09 16:59
MYEG 091659Z AUTO 11008KT 10SM CLR 29/24 A2999 RMK AO2

2010/08/09 16:45
KBAX 091645Z AUTO 27006KT 1 3/4SM -RA SCT008 BKN012 OVC041 22/21 A2993 RMK AO2

2010/08/09 16:45
KBAX 091645Z AUTO 27006KT 1 3/4SM -RA SCT008 BKN012 OVC041 22/21 A2993 RMK AO2

2010/08/09 16:45
KBAX 091645Z AUTO 27006KT 1 3/4SM -RA SCT008 BKN012 OVC041 22/21 A2993 RMK AO2

2010/08/09 16:55
KFDW 091655Z AUTO 03003KT 10SM CLR 33/19 A3005 RMK AO1

2010/08/09 16:55
KQSA 091655Z 05006KT 9999 FEW100 BKN150 27/18 A2987 RMK SLP285 WND DATA ESTMD ALSTG/SLP ESTMD

2010/08/09 16:55
KFDW 091655Z AUTO 03003KT 10SM CLR 33/19 A3005 RMK AO1

2010/08/09 16:45
KBAX 091645Z AUTO 27006KT 1 3/4SM -RA SCT008 BKN012 OVC041 22/21 A2993 RMK AO2

2010/08/09 16:45
KSRQ 091645Z 08008KT 10SM FEW026 BKN031 29/24 A2992 RMK AO2

2010/08/09 16:45
KMHR 091645Z 20006KT 10SM FEW150 18/12 A2989

2010/08/09 16:47
KSUA 091647Z 12012G20KT 7SM VCSH SCT020 BKN030 30/24 A2996

2010/08/09 16:46
YBCG 091646Z AUTO 03021KT 9999NDV // SCT022 BKN060 OVC069 17/14 Q1021

2010/08/09 16:46
CWOB 091646Z AUTO ///// 0SM CLR 04/ A2970

2010/08/09 16:47
CYFC 091647Z AUTO 19010KT 6SM -RA BR BKN009 OVC014 20/19 A2990 RMK SLP126 DENSITY ALT 600FT RVR MISG

2010/08/09 16:47
LEGE 091647Z 36010KT 280V060 2500 TS SHRA FEW018 SCT030CB 21/20 Q1016

2010/08/09 16:55
KCCA 091655Z AUTO 00000KT 9SM CLR 34/26 A2997 RMK AO2

2010/08/09 16:46
KGYY 091646Z 00000KT 7SM SCT060 BKN095 28/21 A2994

2010/08/09 16:45
KJVL 091645Z 24008G15KT 10SM FEW009 BKN120 28/22 A2992

2010/08/09 16:45
KORG 091645Z AUTO 26003KT 10SM SCT034 SCT043 32/25 A2999 RMK AO2

2010/08/09 16:45
KSFY 091645Z AUTO 33004KT 10SM CLR 26/22 A2993 RMK AO2

2010/08/09 16:45
PAMO 091645Z AUTO 14017KT 3/4SM RA BR OVC003 09/09 A2930 RMK AO2 TSNO CIG 001V005 P0002 $

2010/08/09 16:46
KAZO 091646Z 14003KT 1 3/4SM +RA BR FEW002 BKN018 OVC070 22/21 A2999 RMK AO2 TSB19E32 P0041

2010/08/09 16:45
CWWA 091645Z AUTO 00000KT 15/13 RMK AO1 T01490126

2010/08/09 16:50
ETNG 091650Z 24005KT CAVOK 22/11 Q1016

2010/08/09 16:47
KSUA 091647Z 12012G20KT 7SM VCSH SCT020 BKN030 30/24 A2996

2010/08/09 16:55
KCCA 091655Z AUTO 00000KT 9SM CLR 34/26 A2997 RMK AO2

2010/08/09 16:46
KGYY 091646Z 00000KT 7SM SCT060 BKN095 28/21 A2994

2010/08/09 16:45
KJVL 091645Z 24008G15KT 10SM FEW009 BKN120 28/22 A2992

2010/08/09 16:45
KORG 091645Z AUTO 26003KT 10SM SCT034 SCT043 32/25 A2999 RMK AO2

2010/08/09 16:45
KMHR 091645Z 20006KT 10SM FEW150 18/12 A2989

2010/08/09 16:45
KSFY 091645Z AUTO 33004KT 10SM CLR 26/22 A2993 RMK AO2

2010/08/09 16:45
KSRQ 091645Z 08008KT 10SM FEW026 BKN031 29/24 A2992 RMK AO2

2010/08/09 16:45
PAMO 091645Z AUTO 14017KT 3/4SM RA BR OVC003 09/09 A2930 RMK AO2 TSNO CIG 001V005 P0002 $

2010/08/09 16:46
KAZO 091646Z 14003KT 1 3/4SM +RA BR FEW002 BKN018 OVC070 22/21 A2999 RMK AO2 TSB19E32 P0041

2010/08/09 16:47
CYFC 091647Z AUTO 19010KT 6SM -RA BR BKN009 OVC014 20/19 A2990 RMK SLP126 DENSITY ALT 600FT RVR MISG

2010/08/09 16:47
LEGE 091647Z 36010KT 280V060 2500 TS SHRA FEW018 SCT030CB 21/20 Q1016

2010/08/09 16:47
CYKJ 091647Z AUTO 09007KT 6SM -RA OVC005 16/15 A2975 RMK SLP089 DENSITY ALT 2300FT

2010/08/09 16:46
YBCG 091646Z AUTO 03021KT 9999NDV // SCT022 BKN060 OVC069 17/14 Q1021

2010/08/09 16:45
KSRQ 091645Z 08008KT 10SM FEW026 BKN031 29/24 A2992

2010/08/09 16:50
OAKB 091650Z 15007KT 9999 SCT080 BKN120 25/17 Q1012 NOSIG RMK BLU BLU 

2010/08/09 16:48
CYHU 091648Z AUTO 25008KT 9SM BKN019 BKN035 24/22 A2991 RMK SLP130 DENSITY ALT 1100FT RVR MISG

2010/08/09 16:48
CYFC 091648Z AUTO 20011KT 5SM -RA BR BKN009 OVC014 20/19 A2990 RMK SLP125 DENSITY ALT 600FT RVR MISG

2010/08/09 16:47
KGEU 091647Z 04004KT 20SM SCT120 34/06 A2990

2010/08/09 16:47
KRYY 091647Z 00000KT 10SM SCT040 33/22 A3006

2010/08/09 17:00
TUPJ 091700Z 14011KT 9999 VCSH SCT018CB BKN220 31/24 A2999

2010/08/09 16:47
KSBP 091647Z 35003KT 10SM OVC011 16/12 A2995 RMK AO2 $

2010/08/09 16:46
PAIL 091646Z 13008KT 10SM SCT026 BKN065 12/09 A2956 RMK AO2

2010/08/09 16:46
PAKW 091646Z AUTO 00000KT 10SM BKN013 14/12 A2998 RMK AO2 TSNO

2010/08/09 16:48
CYFC 091648Z AUTO 20011KT 5SM -RA BR BKN009 OVC014 20/19 A2990 RMK SLP125 DENSITY ALT 600FT RVR MISG

2010/08/09 16:46
KAZO 091646Z 14003KT 1 3/4SM +RA BR FEW002 BKN018 OVC070 22/21 A2999

2010/08/09 16:46
KAZO 091646Z 14003KT 1 3/4SM +RA BR FEW002 BKN018 OVC070 22/21 A2999

2010/08/09 16:45
K2G4 091645Z AUTO 21004KT 10SM CLR 26/13 A3014 RMK AO1

2010/08/09 16:48
KCBE 091648Z AUTO 00000KT 10SM CLR 31/18 A3005 RMK AO1

2010/08/09 16:47
K2W6 091647Z AUTO 23005KT 10SM CLR 31/16 A3003 RMK AO1

2010/08/09 16:47
CZUM 091647Z AUTO 26006KT 9SM -RA BKN017 OVC074 OVC089 14/12 A2963

2010/08/09 16:47
KCQT 091647Z AUTO 00000KT 6SM HZ SCT013 20/13 A2992 RMK AO2 SLP131 T02000128 TSNO $ 

2010/08/09 16:55
KQCQ 091655Z 31007KT 9999 CLR 40/M01 A2948 RMK SLP981 LAST

2010/08/09 16:50
KCGS 091650Z AUTO 20005KT 10SM SCT049 33/20 A3000 RMK AO1

2010/08/09 16:48
KFDK 091648Z AUTO 12003KT 10SM CLR 35/17 A3002 RMK AO2

2010/08/09 16:48
KW29 091648Z AUTO 14007KT 10SM CLR 30/23 A3000 RMK AO1

2010/08/09 16:49
KDMW 091649Z AUTO 21004KT 7SM CLR 32/19 A3004 RMK AO2

2010/08/09 16:46
KCGE 091646Z AUTO 18006KT 10SM SCT034 BKN046 32/25 A3002 RMK AO1

2010/08/09 16:51
KFME 091651Z AUTO 23005KT 10SM CLR 31/20 A3002 RMK AO1

2010/08/09 16:48
CYUS 091648Z AUTO ///// 9SM CLR 17/ A2993

2010/08/09 17:00
HAAB 091700Z 26008KT 9999 BKN025 FEW080 18/13 Q1023

2010/08/09 16:45
KINJ 091645Z AUTO 21005KT 10SM CLR 33/23 A2997 RMK AO2 T03290225

2010/08/09 16:45
KJAS 091645Z AUTO 27006KT 10SM CLR 33/23 A3001 RMK AO2 T03310228

2010/08/09 16:45
KJSO 091645Z AUTO 23006KT 10SM CLR 31/21 A3002 RMK AO2 T03130211

2010/08/09 16:45
KMMU 091645Z 22012G18KT 10SM SCT049 SCT070 33/18 A3000

2010/08/09 16:45
KOXI 091645Z AUTO 00000KT 7SM SCT045 SCT120 27/21 A2996 RMK AO1 T02660212

2010/08/09 16:47
KPSN 091647Z AUTO 20004KT 32/23 A3000 RMK AO2 PWINO

2010/08/09 16:45
KRCR 091645Z AUTO 13004KT 7SM SCT047 30/22 A2998 RMK AO2

2010/08/09 16:47
KSQL 091647Z 32005KT 10SM BKN017 16/11 A2993

2010/08/09 16:50
KVQQ 091650Z 04010KT 7SM BKN033 30/25 A2996

2010/08/09 16:45
K1H2 091645Z AUTO 23007KT 10SM CLR 33/25 A2996 RMK AO2 T03340247

2010/08/09 16:45
K3LF 091645Z AUTO 18005KT 10SM CLR 31/25 A2995 RMK AO2

2010/08/09 16:45
K3T5 091645Z AUTO 19007KT 10SM BKN033 32/24 A2997 RMK AO2 T03180241

2010/08/09 16:45
KAJG 091645Z AUTO 00000KT 10SM CLR 32/23 A2996 RMK AO2 T03200228

2010/08/09 16:45
KAQO 091645Z AUTO 21010G14KT 020V030 CLR 34/19 A3001 RMK AO2 PWINO

2010/08/09 16:47
KASW 091647Z AUTO 20004KT 7SM SCT120 30/20 A2999 RMK AO2 T03000196

2010/08/09 16:45
KAXH 091645Z AUTO 20004KT 10SM SCT050 SCT060 33/25 A2998 RMK AO2 T03270251

2010/08/09 16:45
KBBG 091645Z 25004KT 10SM SCT060 BKN250 34/22 A3001

2010/08/09 16:45
KBKS 091645Z AUTO 15007KT 10SM SCT029 BKN036 34/24 A2993 RMK AO1 T03380238

2010/08/09 16:46
KBPC 091646Z AUTO 25004KT 10SM CLR 32/16 A2996 RMK AO2

2010/08/09 16:45
KBYY 091645Z AUTO 14003KT 10SM CLR 34/26 A2997 RMK AO2 T03370256

2010/08/09 16:45
KC75 091645Z AUTO 21004KT 10SM CLR 28/21 A2993 RMK AO2 T02760213

2010/08/09 16:45
KCPT 091645Z AUTO 19008KT 10SM CLR 33/23 A2998 RMK AO2

2010/08/09 16:45
KCUL 091645Z AUTO 00000KT 10SM CLR 33/22 A2995 RMK AO2 LTG DSNT S T03270222 PWINO

2010/08/09 16:45
KDKB 091645Z AUTO 28005KT 10SM CLR 26/20 A2995 RMK AO2 T02560204

2010/08/09 16:45
KDKR 091645Z AUTO 21007KT 020V030 10SM FEW027 32/32 A3002 RMK AO2

2010/08/09 16:45
KDZB 091645Z AUTO 18004KT 7SM CLR 32/19 A2998 RMK AO2 T03230189

2010/08/09 16:45
KERV 091645Z AUTO 18006KT 10SM CLR 30/20 A3002 RMK AO2 T02970195

2010/08/09 16:45
KGNC 091645Z AUTO 18009KT 10SM BKN100 29/19 A3006 RMK AO2 T02940185

2010/08/09 16:45
KGWB 091645Z AUTO 22004KT 7SM CLR 30/18 A3001 RMK AO2

2010/08/09 16:45
KHHF 091645Z AUTO 17005KT 10SM CLR 35/17 A2993 RMK AO2 T03520172

2010/08/09 16:46
KHQZ 091646Z AUTO 17006KT 10SM CLR 33/22 A2996 RMK AO2

2010/08/09 16:45
KATW 091645Z 22006KT 10SM BKN020 27/22 A2990

2010/08/09 16:48
KBJC 091648Z 34004KT 50SM FEW080 BKN110 BKN140 24/10 A3016

2010/08/09 16:47
KBVI 091647Z 25007KT 10SM SCT200 28/17 A3007

2010/08/09 16:45
KCVB 091645Z AUTO 12005KT 7SM SCT036 31/21 A3000 RMK AO2 T03140208

2010/08/09 16:45
KCWC 091645Z AUTO 24008KT 200V300 10SM CLR 35/19 A2993 RMK AO2 T03540192

2010/08/09 16:45
KDNV 091645Z AUTO 21005KT 7SM CLR 30/23 A2994 RMK AO2 T02950226

2010/08/09 16:47
KDUX 091647Z AUTO 16006KT 10SM CLR 31/15 A3002 RMK AO2 T03120148

2010/08/09 16:50
KEBG 091650Z AUTO 20005KT 10SM SCT032 34/24 A2992 RMK AO2 LTG DSNT E T03380237

2010/08/09 16:45
KECU 091645Z AUTO 14011G14KT 10SM SCT021 29/22 A3010 RMK AO2

2010/08/09 16:45
KENL 091645Z AUTO 00000KT 10SM CLR 32/25 A2996 RMK AO2 T03150248

2010/08/09 16:45
KFEP 091645Z AUTO 25008KT 10SM SCT100 28/23 A2996 RMK AO2 T02800228

2010/08/09 16:45
KGBG 091645Z AUTO 17004KT 10SM -RA CLR 27/23 A2993 RMK AO2

2010/08/09 16:45
KGOP 091645Z AUTO 21006KT 10SM CLR 33/23 A2999 RMK AO2

2010/08/09 16:45
KGTU 091645Z 18011G16KT 10SM CLR 32/19 A3001

2010/08/09 16:45
KGVT 091645Z AUTO 20007KT 10SM CLR 36/19 A2996 RMK AO2

2010/08/09 16:45
KHSB 091645Z AUTO 25003KT 10SM CLR 33/21 A2995 RMK AO2 LTG DSNT S

2010/08/09 16:45
KIGQ 091645Z AUTO 00000KT 7SM SCT095 28/21 A2994 RMK AO2

2010/08/09 16:45
KIJX 091645Z AUTO 00000KT 7SM CLR 30/24 A2994 RMK AO2 T02980243

2010/08/09 16:45
KIKK 091645Z AUTO 28003KT 7SM CLR 31/23 A2994 RMK AO2

2010/08/09 16:45
KJDD 091645Z AUTO RMK AO2 PWINO TSNO

2010/08/09 16:45
KJXI 091645Z AUTO 22006KT 10SM CLR 32/24 A2999 RMK AO2

2010/08/09 16:45
KLNC 091645Z AUTO 20007KT 10SM CLR 34/23 A2995 RMK AO2 T03350232

2010/08/09 16:45
KLUD 091645Z AUTO 19009G15KT 10SM CLR 33/21 A2995 RMK AO2 T03330206

2010/08/09 16:47
KM30 091647Z AUTO 00000KT 10SM VCTS CLR 33/23 A2997 RMK AO2 LTG DSNT SE

2010/08/09 16:45
KMDD 091645Z AUTO 17011G15KT 10SM CLR 32/19 A3002 RMK AO2 T03190187

2010/08/09 16:45
KPEQ 091645Z AUTO 00000KT 7SM CLR 28/19 A3000 RMK AO2 T02810188

2010/08/09 16:45
KPEZ 091645Z AUTO 14005KT 10SM SCT037 33/20 A2998 RMK AO2 T03290199

2010/08/09 16:45
KPNT 091645Z AUTO 00000KT 7SM CLR 31/23 A2993 RMK AO2

2010/08/09 16:45
KPRG 091645Z AUTO 25006KT 10SM SCT060 32/22 A2998 RMK AO2 T03200227

2010/08/09 16:45
KRPJ 091645Z AUTO 28005KT 10SM CLR 26/22 A2995 RMK AO2 T02580219

2010/08/09 16:45
KRSV 091645Z AUTO 18004KT 10SM CLR 33/24 A2998 RMK AO2 T03270237

2010/08/09 17:00
SBBR 091700Z 07009KT CAVOK 29/M03 Q1022 

2010/08/09 17:00
HAAB 091700Z 26008KT 9999 BKN025 FEW080 18/13 Q1023

2010/08/09 16:47
K2W6 091647Z AUTO 23005KT 10SM CLR 31/16 A3003 RMK AO1

2010/08/09 16:48
KCBE 091648Z AUTO 00000KT 10SM CLR 31/18 A3005 RMK AO1

2010/08/09 16:45
K2G4 091645Z AUTO 21004KT 10SM CLR 26/13 A3014 RMK AO1

2010/08/09 16:47
KCQT 091647Z AUTO 00000KT 6SM HZ SCT013 20/13 A2992 RMK AO2 SLP131 T02000128 TSNO $

2010/08/09 16:48
KFDK 091648Z AUTO 12003KT 10SM CLR 35/17 A3002 RMK AO2

2010/08/09 16:50
KCGS 091650Z AUTO 20005KT 10SM SCT049 33/20 A3000 RMK AO1

2010/08/09 16:48
KW29 091648Z AUTO 14007KT 10SM CLR 30/23 A3000 RMK AO1

2010/08/09 16:49
KDMW 091649Z AUTO 21004KT 7SM CLR 32/19 A3004 RMK AO2

2010/08/09 16:51
KFME 091651Z AUTO 23005KT 10SM CLR 31/20 A3002 RMK AO1

2010/08/09 16:46
KCGE 091646Z AUTO 18006KT 10SM SCT034 BKN046 32/25 A3002 RMK AO1

2010/08/09 16:50
OAKB 091650Z 15007KT 9999 SCT080 BKN120 25/17 Q1012 NOSIG RMK BLU BLU 

2010/08/09 16:47
KSBP 091647Z 35003KT 10SM OVC011 16/12 A2995 RMK AO2 $

2010/08/09 16:46
PAIL 091646Z 13008KT 10SM SCT026 BKN065 12/09 A2956 RMK AO2

2010/08/09 16:46
PAKW 091646Z AUTO 00000KT 10SM BKN013 14/12 A2998 RMK AO2 TSNO

2010/08/09 16:47
KPSN 091647Z AUTO 20004KT 32/23 A3000 RMK AO2 PWINO

2010/08/09 16:45
KCUL 091645Z AUTO 00000KT 10SM CLR 33/22 A2995 RMK AO2 LTG DSNT S T03270222 PWINO

2010/08/09 16:48
KCBE 091648Z AUTO 00000KT 10SM CLR 31/18 A3005 RMK AO1

2010/08/09 16:47
KCQT 091647Z AUTO 00000KT 6SM HZ SCT013 20/13 A2992 RMK AO2 SLP131 T02000128 TSNO $

2010/08/09 16:47
KGEU 091647Z 04004KT 20SM SCT120 34/06 A2990

2010/08/09 16:47
KRYY 091647Z 00000KT 10SM SCT040 33/22 A3006

2010/08/09 16:45
KINJ 091645Z AUTO 21005KT 10SM CLR 33/23 A2997 RMK AO2 T03290225

2010/08/09 16:45
KJAS 091645Z AUTO 27006KT 10SM CLR 33/23 A3001 RMK AO2 T03310228

2010/08/09 16:45
KJSO 091645Z AUTO 23006KT 10SM CLR 31/21 A3002 RMK AO2 T03130211

2010/08/09 16:45
KMMU 091645Z 22012G18KT 10SM SCT049 SCT070 33/18 A3000

2010/08/09 16:45
KOXI 091645Z AUTO 00000KT 7SM SCT045 SCT120 27/21 A2996 RMK AO1 T02660212

2010/08/09 16:45
KRCR 091645Z AUTO 13004KT 7SM SCT047 30/22 A2998 RMK AO2

2010/08/09 16:47
KSQL 091647Z 32005KT 10SM BKN017 16/11 A2993

2010/08/09 16:50
KVQQ 091650Z 04010KT 7SM BKN033 30/25 A2996

2010/08/09 16:45
K1H2 091645Z AUTO 23007KT 10SM CLR 33/25 A2996 RMK AO2 T03340247

2010/08/09 16:45
K3LF 091645Z AUTO 18005KT 10SM CLR 31/25 A2995 RMK AO2

2010/08/09 16:45
K3T5 091645Z AUTO 19007KT 10SM BKN033 32/24 A2997 RMK AO2 T03180241

2010/08/09 16:45
KAJG 091645Z AUTO 00000KT 10SM CLR 32/23 A2996 RMK AO2 T03200228

2010/08/09 16:45
KAQO 091645Z AUTO 21010G14KT 020V030 CLR 34/19 A3001 RMK AO2 PWINO

2010/08/09 16:47
KASW 091647Z AUTO 20004KT 7SM SCT120 30/20 A2999 RMK AO2 T03000196

2010/08/09 16:45
KAXH 091645Z AUTO 20004KT 10SM SCT050 SCT060 33/25 A2998 RMK AO2 T03270251

2010/08/09 16:45
KBBG 091645Z 25004KT 10SM SCT060 BKN250 34/22 A3001

2010/08/09 16:45
KBKS 091645Z AUTO 15007KT 10SM SCT029 BKN036 34/24 A2993 RMK AO1 T03380238

2010/08/09 16:46
KBPC 091646Z AUTO 25004KT 10SM CLR 32/16 A2996 RMK AO2

2010/08/09 16:45
KBYY 091645Z AUTO 14003KT 10SM CLR 34/26 A2997 RMK AO2 T03370256

2010/08/09 16:45
KC75 091645Z AUTO 21004KT 10SM CLR 28/21 A2993 RMK AO2 T02760213

2010/08/09 16:45
KCPT 091645Z AUTO 19008KT 10SM CLR 33/23 A2998 RMK AO2

2010/08/09 16:45
KDKB 091645Z AUTO 28005KT 10SM CLR 26/20 A2995 RMK AO2 T02560204

2010/08/09 16:45
KDKR 091645Z AUTO 21007KT 020V030 10SM FEW027 32/32 A3002 RMK AO2

2010/08/09 16:45
KDZB 091645Z AUTO 18004KT 7SM CLR 32/19 A2998 RMK AO2 T03230189

2010/08/09 16:45
KERV 091645Z AUTO 18006KT 10SM CLR 30/20 A3002 RMK AO2 T02970195

2010/08/09 16:45
KGNC 091645Z AUTO 18009KT 10SM BKN100 29/19 A3006 RMK AO2 T02940185

2010/08/09 16:45
KGWB 091645Z AUTO 22004KT 7SM CLR 30/18 A3001 RMK AO2

2010/08/09 16:45
KHHF 091645Z AUTO 17005KT 10SM CLR 35/17 A2993 RMK AO2 T03520172

2010/08/09 16:46
KHQZ 091646Z AUTO 17006KT 10SM CLR 33/22 A2996 RMK AO2

2010/08/09 16:47
K2W6 091647Z AUTO 23005KT 10SM CLR 31/16 A3003 RMK AO1

2010/08/09 16:45
K2G4 091645Z AUTO 21004KT 10SM CLR 26/13 A3014 RMK AO1

2010/08/09 16:48
KFDK 091648Z AUTO 12003KT 10SM CLR 35/17 A3002 RMK AO2

2010/08/09 16:50
KCGS 091650Z AUTO 20005KT 10SM SCT049 33/20 A3000 RMK AO1

2010/08/09 16:48
KW29 091648Z AUTO 14007KT 10SM CLR 30/23 A3000 RMK AO1

2010/08/09 16:45
KATW 091645Z 22006KT 10SM BKN020 27/22 A2990

2010/08/09 16:48
KBJC 091648Z 34004KT 50SM FEW080 BKN110 BKN140 24/10 A3016

2010/08/09 16:47
KBVI 091647Z 25007KT 10SM SCT200 28/17 A3007

2010/08/09 16:45
KCVB 091645Z AUTO 12005KT 7SM SCT036 31/21 A3000 RMK AO2 T03140208

2010/08/09 16:45
KCWC 091645Z AUTO 24008KT 200V300 10SM CLR 35/19 A2993 RMK AO2 T03540192

2010/08/09 16:45
KDNV 091645Z AUTO 21005KT 7SM CLR 30/23 A2994 RMK AO2 T02950226

2010/08/09 16:47
KDUX 091647Z AUTO 16006KT 10SM CLR 31/15 A3002 RMK AO2 T03120148

2010/08/09 16:50
KEBG 091650Z AUTO 20005KT 10SM SCT032 34/24 A2992 RMK AO2 LTG DSNT E T03380237

2010/08/09 16:45
KECU 091645Z AUTO 14011G14KT 10SM SCT021 29/22 A3010 RMK AO2

2010/08/09 16:45
KENL 091645Z AUTO 00000KT 10SM CLR 32/25 A2996 RMK AO2 T03150248

2010/08/09 16:45
KFEP 091645Z AUTO 25008KT 10SM SCT100 28/23 A2996 RMK AO2 T02800228

2010/08/09 16:45
KGBG 091645Z AUTO 17004KT 10SM -RA CLR 27/23 A2993 RMK AO2

2010/08/09 16:45
KGOP 091645Z AUTO 21006KT 10SM CLR 33/23 A2999 RMK AO2

2010/08/09 16:45
KGTU 091645Z 18011G16KT 10SM CLR 32/19 A3001

2010/08/09 16:45
KGVT 091645Z AUTO 20007KT 10SM CLR 36/19 A2996 RMK AO2

2010/08/09 16:45
KHSB 091645Z AUTO 25003KT 10SM CLR 33/21 A2995 RMK AO2 LTG DSNT S

2010/08/09 16:45
KIGQ 091645Z AUTO 00000KT 7SM SCT095 28/21 A2994 RMK AO2

2010/08/09 16:45
KIJX 091645Z AUTO 00000KT 7SM CLR 30/24 A2994 RMK AO2 T02980243

2010/08/09 16:45
KIKK 091645Z AUTO 28003KT 7SM CLR 31/23 A2994 RMK AO2

2010/08/09 16:45
KJDD 091645Z AUTO RMK AO2 PWINO TSNO

2010/08/09 16:45
KJXI 091645Z AUTO 22006KT 10SM CLR 32/24 A2999 RMK AO2

2010/08/09 16:45
KLNC 091645Z AUTO 20007KT 10SM CLR 34/23 A2995 RMK AO2 T03350232

2010/08/09 16:45
KLUD 091645Z AUTO 19009G15KT 10SM CLR 33/21 A2995 RMK AO2 T03330206

2010/08/09 16:47
KM30 091647Z AUTO 00000KT 10SM VCTS CLR 33/23 A2997 RMK AO2 LTG DSNT SE

2010/08/09 16:45
KMDD 091645Z AUTO 17011G15KT 10SM CLR 32/19 A3002 RMK AO2 T03190187

2010/08/09 16:45
KPEQ 091645Z AUTO 00000KT 7SM CLR 28/19 A3000 RMK AO2 T02810188

2010/08/09 16:45
KPEZ 091645Z AUTO 14005KT 10SM SCT037 33/20 A2998 RMK AO2 T03290199

2010/08/09 16:45
KPNT 091645Z AUTO 00000KT 7SM CLR 31/23 A2993 RMK AO2

2010/08/09 16:45
KPRG 091645Z AUTO 25006KT 10SM SCT060 32/22 A2998 RMK AO2 T03200227

2010/08/09 16:45
KRPJ 091645Z AUTO 28005KT 10SM CLR 26/22 A2995 RMK AO2 T02580219

2010/08/09 16:45
KRSV 091645Z AUTO 18004KT 10SM CLR 33/24 A2998 RMK AO2 T03270237

2010/08/09 16:48
KIGM 091648Z AUTO 12009KT 10SM CLR 30/M06 A3004 RMK AO2 SLP097 T03001056 TSNO 

2010/08/09 16:48
MMMX 091648Z 36004KT 4SM SCT025TCU BKN200 22/13 A3032 NOSIG RMK 8/202 HZY AC

2010/08/09 16:48
KCBE 091648Z AUTO 00000KT 10SM CLR 31/18 A3005 RMK AO1

2010/08/09 16:48
KMSN 091648Z 30007KT 10SM SCT022 BKN029 26/21 A2993 RMK AO2 

2010/08/09 16:45
KCZK 091645Z 24011G20KT 10SM BKN022 17/12 RMK SLP162 NO SPECI CLD HGT AND VIS VISUALLY ESTMD 

2010/08/09 16:50
EETU 091650Z 21008KT 9999 FEW055CB OVC120 22/15 Q1014

2010/08/09 16:50
LLBG 091650Z 31008KT 9999 SCT026 28/22 Q1006 NOSIG

2010/08/09 16:50
LLOV 091650Z 29013KT CAVOK 32/16 Q1007

2010/08/09 16:50
LLET 091650Z 33012G25KT CAVOK 37/16 Q1002

2010/08/09 16:50
LLHA 091650Z 31007KT 9999 SCT025 29/22 Q1006

2010/08/09 16:50
LLSD 091650Z 32008KT 9999 SCT030 28/23 Q1006

2010/08/09 17:00
OSDI 091700Z 22012KT CAVOK 35/09 Q1006

2010/08/09 17:00
OSAP 091700Z 27014KT CAVOK 30/13 Q1004

2010/08/09 17:00
OSLK 091700Z 22004KT 9999 FEW030 28/22 Q1005

2010/08/09 16:48
KJDN 091648Z AUTO 08005KT 28/09 A2990 RMK AO2 SLP106 T02780089 PWINO TSNO 

2010/08/09 16:47
KSBP 091647Z 35003KT 10SM OVC011 16/12 A2995

2010/08/09 16:46
CWOB 091646Z AUTO ///// 0SM CLR 04/ A2970

2010/08/09 16:47
CYFC 091647Z AUTO 19010KT 6SM -RA BR BKN009 OVC014 20/19 A2990 RMK SLP126 DENSITY ALT 600FT RVR MISG

2010/08/09 16:48
CYFC 091648Z AUTO 20011KT 5SM -RA BR BKN009 OVC014 20/19 A2990 RMK SLP125 DENSITY ALT 600FT RVR MISG

2010/08/09 16:48
CYHU 091648Z AUTO 25008KT 9SM BKN019 BKN035 24/22 A2991 RMK SLP130 DENSITY ALT 1100FT RVR MISG

2010/08/09 16:47
CYKJ 091647Z AUTO 09007KT 6SM -RA OVC005 16/15 A2975 RMK SLP089 DENSITY ALT 2300FT

2010/08/09 16:48
CYUS 091648Z AUTO ///// 9SM CLR 17/ A2993

2010/08/09 16:47
CZUM 091647Z AUTO 26006KT 9SM -RA BKN017 OVC074 OVC089 14/12 A2963

2010/08/09 16:45
KSLI 091645Z VRB03KT 6SM HZ OVC015 18/14 A2994 RMK AO2A SLP139

2010/08/09 16:47
LEGE 091647Z 36010KT 280V060 2500 TS SHRA FEW018 SCT030CB 21/20 Q1016

2010/08/09 16:46
PGUA 091646Z AUTO 17003KT 10SM FEW049 SCT060 BKN160 BKN200 BKN230 25/ A2989 RMK AO2 DZB1619E1646 CIG 042 RWY24L SLP105 VISNO RWY24L $

2010/08/09 16:46
PAIL 091646Z 13008KT 10SM SCT026 BKN065 12/09 A2956

2010/08/09 17:00
SBBR 091700Z 07009KT CAVOK 29/M03 Q1022 

2010/08/09 16:49
KNFE 091649Z AUTO 07005KT 3SM HZ CLR 31/20 A3004 RMK AO2 $ 

2010/08/09 16:50
PASP 091650Z 00000KT 20SM FEW040 09/08 A2967 RMK EST PASS OPEN NO SPECI

2010/08/09 16:49
KBAK 091649Z 21007KT 7SM CLR 32/19 A2999

2010/08/09 16:50
KBYH 091650Z 24004KT 8SM BKN250 34/26 A2996

2010/08/09 16:50
KHXD 091650Z 05008KT 010V070 10SM FEW040 31/24 A3001

2010/08/09 16:45
K2G4 091645Z AUTO 21004KT 10SM CLR 26/13 A3014 RMK AO1

2010/08/09 16:47
K2W6 091647Z AUTO 23005KT 10SM CLR 31/16 A3003 RMK AO1

2010/08/09 16:45
KANE 091645Z 01004KT 12SM SKC 29/23 A2992

2010/08/09 16:48
KCBE 091648Z AUTO 00000KT 10SM CLR 31/18 A3005 RMK AO1

2010/08/09 16:46
KCGE 091646Z AUTO 18006KT 10SM SCT034 BKN046 32/25 A3002 RMK AO1

2010/08/09 16:50
KCGS 091650Z AUTO 20005KT 10SM SCT049 33/20 A3000 RMK AO1

2010/08/09 16:47
KCHD 091647Z VRB05KT 40SM FEW200 32/12 A2989

2010/08/09 16:48
KCWA 091648Z 28004KT 10SM BKN016 27/23 A2993

2010/08/09 16:48
KFDK 091648Z AUTO 12003KT 10SM CLR 35/17 A3002 RMK AO2

2010/08/09 16:49
KDMW 091649Z AUTO 21004KT 7SM CLR 32/19 A3004 RMK AO2

2010/08/09 16:51
KFME 091651Z AUTO 23005KT 10SM CLR 31/20 A3002 RMK AO1

2010/08/09 16:45
KFWC 091645Z AUTO 00000KT 10SM CLR 32/25 A2995 RMK AO2

2010/08/09 16:48
KPKV 091648Z AUTO 20004KT 10SM SCT045 32/22 A2996 RMK AO2 T03180219

2010/08/09 16:45
KRAS 091645Z AUTO 13005KT 10SM FEW023 32/26 A2998 RMK AO2

2010/08/09 16:45
KRYW 091645Z AUTO 15005KT 7SM CLR 32/20 A3001 RMK AO2

2010/08/09 16:45
KSAR 091645Z AUTO 00000KT 7SM CLR 33/26 A2995 RMK AO2

2010/08/09 16:47
KSEE 091647Z 00000KT 15SM FEW012 18/12 A2994

2010/08/09 16:45
KSLO 091645Z AUTO 22003KT 10SM SCT029 SCT060 32/24 A2996 RMK AO2 T03240241

2010/08/09 16:46
KSNK 091646Z AUTO 18008KT 10SM CLR 32/21 A3002 RMK AO2 T03200213

2010/08/09 16:45
KSWW 091645Z AUTO 17010G14KT 10SM CLR 33/20 A3003 RMK AO1 T03300197

2010/08/09 16:45
KT65 091645Z AUTO 16006KT 7SM BKN028 BKN034 32/25 A2992 RMK AO2 LTG DSNT E T03230249

2010/08/09 16:45
KT82 091645Z AUTO 24008KT 10SM CLR 31/18 A3004 RMK AO1 T03070180

2010/08/09 16:45
KTAZ 091645Z AUTO 18006KT 10SM CLR 33/26 A2993 RMK AO2

2010/08/09 16:45
KTIP 091645Z AUTO 20006KT 10SM CLR 33/27 A2996 RMK AO2 T03250270

2010/08/09 16:45
KTYQ 091645Z AUTO 24006KT 10SM CLR 31/22 A2999 RMK AO2

2010/08/09 16:45
KUVA 091645Z AUTO 16009G14KT 10SM CLR 33/22 A2998 RMK AO2 T03270215

2010/08/09 16:48
KW29 091648Z AUTO 14007KT 10SM CLR 30/23 A3000 RMK AO1

2010/08/09 16:46
KXBP 091646Z AUTO 22007KT 10SM CLR 33/22 A2995 RMK AO2 T03330220

2010/08/09 16:49
PACM 091649Z AUTO 15011KT 1 3/4SM -RA BR BKN013 BKN031 OVC095 10/08 A2923 RMK AO2 TSNO P0000 $

2010/08/09 16:49
PACM 091649Z AUTO 15011KT 1 3/4SM -RA BR BKN013 BKN031 OVC095 10/08 A2923 RMK AO2 TSNO P0000 $

2010/08/09 16:48
PAVA 091648Z AUTO 14012KT 9SM OVC005 10/09 A2924 RMK AO2 RAB1558E11 CIG 004V009 P0000

2010/08/09 16:49
KDBQ 091649Z 27007KT 10SM SCT010 25/22 A2995 RMK AO2

2010/08/09 16:49
KRAC 091649Z AUTO 20009KT 10SM SCT017 SCT025 28/23 A2994 RMK AO2

2010/08/09 16:50
EYKA 091650Z 13003KT 090V180 CAVOK 22/17 Q1016

2010/08/09 16:50
EYPA 091650Z VRB03KT CAVOK 21/16 Q1014

2010/08/09 16:50
MSLP 091650Z 11002KT 9999 FEW027 BKN300 32/24 Q1012 A2989

2010/08/09 16:50
MSSS 091650Z 12003KT 9999 FEW027 BKN300 28/23 Q1016 A3002

2010/08/09 16:50
EYVI 091650Z 16004KT 9999 FEW040 BKN110 19/17 Q1017 NOSIG

2010/08/09 16:50
EETN 091650Z 19009KT 9999 FEW029CB SCT048 BKN074 21/16 Q1012 NOSIG

2010/08/09 16:50
EKVG 091650Z 12014KT 9999 FEW012 BKN020 13/10 Q1009 RMK/RWY 13-31 CLOSED DUE WIP NOTAM E0050/10 WIND 850FT 13019KT

2010/08/09 16:46
PGUA 091646Z AUTO 17003KT 10SM FEW049 SCT060 BKN160 BKN200 BKN230 25/ A2989

2010/08/09 16:46
PGUA 091646Z AUTO 17003KT 10SM FEW049 SCT060 BKN160 BKN200 BKN230 25/ A2989 RMK AO2 DZB1619E1646 CIG 042 RWY24L SLP105 VISNO RWY24L $

2010/08/09 16:48
KFDK 091648Z AUTO 12003KT 10SM CLR 35/17 A3002

2010/08/09 16:45
KMMU 091645Z 22012G18KT 10SM SCT049 SCT070 33/18 A3000

2010/08/09 16:50
EYPA 091650Z VRB03KT CAVOK 21/16 Q1014

2010/08/09 16:50
EETN 091650Z 19009KT 9999 FEW029CB SCT048 BKN074 21/16 Q1012 NOSIG

2010/08/09 16:45
LMML 091645Z 33006KT 280V360 CAVOK 28/17 Q1015 NOSIG 

2010/08/09 16:45
K1H2 091645Z AUTO 23007KT 10SM CLR 33/25 A2996

2010/08/09 16:45
KC75 091645Z AUTO 21004KT 10SM CLR 28/21 A2993

2010/08/09 16:45
KDKB 091645Z AUTO 28005KT 10SM CLR 26/20 A2995

2010/08/09 16:45
KDNV 091645Z AUTO 21005KT 7SM CLR 30/23 A2994

2010/08/09 16:45
KENL 091645Z AUTO 00000KT 10SM CLR 32/25 A2996

2010/08/09 16:45
KFEP 091645Z AUTO 25008KT 10SM SCT100 28/23 A2996

2010/08/09 16:45
KGBG 091645Z AUTO 17004KT 10SM -RA CLR 27/23 A2993

2010/08/09 16:45
KHSB 091645Z AUTO 25003KT 10SM CLR 33/21 A2995

2010/08/09 16:45
KIGQ 091645Z AUTO 00000KT 7SM SCT095 28/21 A2994

2010/08/09 16:45
KIJX 091645Z AUTO 00000KT 7SM CLR 30/24 A2994

2010/08/09 16:45
KIKK 091645Z AUTO 28003KT 7SM CLR 31/23 A2994

2010/08/09 16:45
KPNT 091645Z AUTO 00000KT 7SM CLR 31/23 A2993

2010/08/09 16:45
KPRG 091645Z AUTO 25006KT 10SM SCT060 32/22 A2998

2010/08/09 16:50
EYKA 091650Z 13003KT 090V180 CAVOK 22/17 Q1016

2010/08/09 16:50
EKVG 091650Z 12014KT 9999 FEW012 BKN020 13/10 Q1009 RMK/RWY 13-31 CLOSED DUE WIP NOTAM E0050/10 WIND 850FT 13019KT

2010/08/09 16:45
KBYY 091645Z AUTO 14003KT 10SM CLR 34/26 A2997

2010/08/09 16:48
KCBE 091648Z AUTO 00000KT 10SM CLR 31/18 A3005

2010/08/09 16:48
KMSN 091648Z 30007KT 10SM SCT022 BKN029 26/21 A2993

2010/08/09 16:45
KLNC 091645Z AUTO 20007KT 10SM CLR 34/23 A2995

2010/08/09 16:45
KCZK 091645Z 24011G20KT 10SM BKN022 17/12

2010/08/09 16:49
CZUM 091649Z AUTO 25006KT 9SM BKN017 OVC074 OVC089 14/12 A2963

2010/08/09 16:48
KIGM 091648Z AUTO 12009KT 10SM CLR 30/M06 A3004

2010/08/09 16:48
KJDN 091648Z AUTO 08005KT 28/09 A2990

2010/08/09 16:45
KMMU 091645Z 22012G18KT 10SM SCT049 SCT070 33/18 A3000

2010/08/09 16:48
KMSN 091648Z 30007KT 10SM SCT022 BKN029 26/21 A2993

2010/08/09 16:48
KBJC 091648Z 34004KT 50SM FEW080 BKN110 BKN140 24/10 A3016

2010/08/09 16:46
KGYY 091646Z 00000KT 7SM SCT060 BKN095 28/21 A2994

2010/08/09 16:45
KIKK 091645Z AUTO 28003KT 7SM CLR 31/23 A2994

2010/08/09 16:45
KCZK 091645Z 24011G20KT 10SM BKN022 17/12

2010/08/09 16:48
KMSN 091648Z 30007KT 10SM SCT022 BKN029 26/21 A2993

2010/08/09 16:50
KQEN 091650Z AUTO 25008KT 1SM BR VV002 19/17 A3046 RMK A02

2010/08/09 16:50
KQEY 091650Z AUTO 16001KT 7SM SCT050 BKN085 25/22 A2961 RMK A02

2010/08/09 17:00
KQEV 091700Z AUTO 10002KT 6SM BR BKN085 26/23 A2979 RMK A02

2010/08/09 16:50
CZCP 091650Z AUTO 06013KT 5SM CLR 06/ A2982

2010/08/09 16:49
KMWN 091649Z 28024KT 0SM FG VV000 11/11 RMK 

2010/08/09 16:45
KSWF 091645Z 27007KT 10SM SKC 31/17 A3002

2010/08/09 16:50
PAER 091650Z 02015KT 11SM BKN070 BKN120 13/09 A2951 RMK EPO

2010/08/09 16:50
PALP 091650Z 06021KT 1SM BR 0VC003 02/01 A2980

2010/08/09 16:51
KBAZ 091651Z AUTO 23007KT 10SM CLR 33/21 A2997 RMK AO2 SLP139 T03280206

2010/08/09 16:51
KHDO 091651Z AUTO 16010G14KT 10SM FEW038 32/21 A3000 RMK AO2 SLP141 T03220211

2010/08/09 16:45
KLOT 091645Z AUTO 29005KT 10SM SCT060 SCT070 27/23 A2995 RMK AO2 T02680232

2010/08/09 16:49
KMHV 091649Z VRB03KT 40SM SKC 24/03 A2997

2010/08/09 16:45
KMWC 091645Z 23010KT 10SM SCT050 26/20 A2993

2010/08/09 16:45
KMYR 091645Z 12010KT 10SM FEW022 SCT030 31/25 A3006

2010/08/09 16:50
KOLV 091650Z 00000KT 7SM FEW045 FEW120 37/27 A3000

2010/08/09 16:47
KPAO 091647Z VRB06KT 25SM SCT015 A2992

2010/08/09 16:45
KRPH 091645Z AUTO 18009KT 10SM CLR 33/22 A2994 RMK AO2 T03320216

2010/08/09 16:50
KTZR 091650Z 20005KT 7SM SKC 29/20 A3004

2010/08/09 16:48
KMSN 091648Z 30007KT 10SM SCT022 BKN029 26/21 A2993 RMK AO2

2010/08/09 16:49
KNFE 091649Z AUTO 07005KT 3SM HZ CLR 31/20 A3004 RMK AO2 $

2010/08/09 16:48
KIGM 091648Z AUTO 12009KT 10SM CLR 30/M06 A3004 RMK AO2 SLP097 T03001056 TSNO

2010/08/09 16:45
KCZK 091645Z 24011G20KT 10SM BKN022 17/12 RMK SLP162 NO SPECI CLD HGT AND VIS VISUALLY ESTMD

2010/08/09 16:48
KJDN 091648Z AUTO 08005KT 28/09 A2990 RMK AO2 SLP106 T02780089 PWINO TSNO

2010/08/09 16:48
KFDK 091648Z AUTO 12003KT 10SM CLR 35/17 A3002

2010/08/09 16:49
KMWN 091649Z 28024KT 0SM FG VV000 11/11 RMK

2010/08/09 16:45
MMAS 091645Z 00000KT 10SM BKN020TCU BKN200 22/15 A3018 RMK 8/202

2010/08/09 16:48
MMEP 091648Z 00000KT 12SM BKN250 27/17 A3009 RMK 8/008 ISOL SC

2010/08/09 16:46
MMGL 091646Z 00000KT 6SM BKN020TCU 22/17 A3015 RMK 8/200 SC-CI

2010/08/09 16:45
MMIA 091645Z 00000KT 8SM SCT220 26/19 A2997 RMK 8/001

2010/08/09 16:46
MMMM 091646Z 00000KT 5SM BKN025 23/16 A3022 RMK 8/400 HZY

2010/08/09 16:46
MMPR 091646Z 36006KT 15SM OVC230 31/22 A2985 RMK 8/007

2010/08/09 16:45
KSLI 091645Z VRB03KT 6SM HZ OVC015 18/14 A2994 RMK AO2A SLP139

2010/08/09 16:46
PGUA 091646Z AUTO 17003KT 10SM FEW049 SCT060 BKN160 BKN200 BKN230 25/ A2989 RMK AO2 DZB1619E1646 CIG 042 RWY24L SLP105 VISNO RWY24L $

2010/08/09 16:48
KIGM 091648Z AUTO 12009KT 10SM CLR 30/M06 A3004 RMK AO2 SLP097 T03001056 TSNO

2010/08/09 16:45
KCZK 091645Z 24011G20KT 10SM BKN022 17/12 RMK SLP162 NO SPECI CLD HGT AND VIS VISUALLY ESTMD

2010/08/09 16:48
KJDN 091648Z AUTO 08005KT 28/09 A2990 RMK AO2 SLP106 T02780089 PWINO TSNO

2010/08/09 16:48
KCBE 091648Z AUTO 00000KT 10SM CLR 31/18 A3005 RMK AO1

2010/08/09 16:49
KMWN 091649Z 28024KT 0SM FG VV000 11/11 RMK

2010/08/09 16:50
PASP 091650Z 00000KT 20SM FEW040 09/08 A2967 RMK EST PASS OPEN NO SPECI

2010/08/09 16:49
KBAK 091649Z 21007KT 7SM CLR 32/19 A2999

2010/08/09 16:50
KHXD 091650Z 05008KT 010V070 10SM FEW040 31/24 A3001

2010/08/09 16:45
K2G4 091645Z AUTO 21004KT 10SM CLR 26/13 A3014 RMK AO1

2010/08/09 16:47
K2W6 091647Z AUTO 23005KT 10SM CLR 31/16 A3003 RMK AO1

2010/08/09 16:45
KANE 091645Z 01004KT 12SM SKC 29/23 A2992

2010/08/09 16:50
KCGS 091650Z AUTO 20005KT 10SM SCT049 33/20 A3000 RMK AO1

2010/08/09 16:47
KCHD 091647Z VRB05KT 40SM FEW200 32/12 A2989

2010/08/09 16:48
KCWA 091648Z 28004KT 10SM BKN016 27/23 A2993

2010/08/09 16:48
KFDK 091648Z AUTO 12003KT 10SM CLR 35/17 A3002 RMK AO2

2010/08/09 16:45
KFWC 091645Z AUTO 00000KT 10SM CLR 32/25 A2995 RMK AO2

2010/08/09 16:48
KPKV 091648Z AUTO 20004KT 10SM SCT045 32/22 A2996 RMK AO2 T03180219

2010/08/09 16:45
KRAS 091645Z AUTO 13005KT 10SM FEW023 32/26 A2998 RMK AO2

2010/08/09 16:45
KRYW 091645Z AUTO 15005KT 7SM CLR 32/20 A3001 RMK AO2

2010/08/09 16:45
KSAR 091645Z AUTO 00000KT 7SM CLR 33/26 A2995 RMK AO2

2010/08/09 16:47
KSEE 091647Z 00000KT 15SM FEW012 18/12 A2994

2010/08/09 16:45
KSLO 091645Z AUTO 22003KT 10SM SCT029 SCT060 32/24 A2996 RMK AO2 T03240241

2010/08/09 16:46
KSNK 091646Z AUTO 18008KT 10SM CLR 32/21 A3002 RMK AO2 T03200213

2010/08/09 16:45
KSWW 091645Z AUTO 17010G14KT 10SM CLR 33/20 A3003 RMK AO1 T03300197

2010/08/09 16:45
KT65 091645Z AUTO 16006KT 7SM BKN028 BKN034 32/25 A2992 RMK AO2 LTG DSNT E T03230249

2010/08/09 16:45
KT82 091645Z AUTO 24008KT 10SM CLR 31/18 A3004 RMK AO1 T03070180

2010/08/09 16:45
KTAZ 091645Z AUTO 18006KT 10SM CLR 33/26 A2993 RMK AO2

2010/08/09 16:45
KTIP 091645Z AUTO 20006KT 10SM CLR 33/27 A2996 RMK AO2 T03250270

2010/08/09 16:45
KTYQ 091645Z AUTO 24006KT 10SM CLR 31/22 A2999 RMK AO2

2010/08/09 16:45
KUVA 091645Z AUTO 16009G14KT 10SM CLR 33/22 A2998 RMK AO2 T03270215

2010/08/09 16:48
KW29 091648Z AUTO 14007KT 10SM CLR 30/23 A3000 RMK AO1

2010/08/09 16:46
KXBP 091646Z AUTO 22007KT 10SM CLR 33/22 A2995 RMK AO2 T03330220

2010/08/09 16:45
KSWF 091645Z 27007KT 10SM SKC 31/17 A3002

2010/08/09 16:50
PAER 091650Z 02015KT 11SM BKN070 BKN120 13/09 A2951 RMK EPO

2010/08/09 16:50
PALP 091650Z 06021KT 1SM BR 0VC003 02/01 A2980

2010/08/09 16:51
KBAZ 091651Z AUTO 23007KT 10SM CLR 33/21 A2997 RMK AO2 SLP139 T03280206

2010/08/09 16:51
KHDO 091651Z AUTO 16010G14KT 10SM FEW038 32/21 A3000 RMK AO2 SLP141 T03220211

2010/08/09 16:45
KLOT 091645Z AUTO 29005KT 10SM SCT060 SCT070 27/23 A2995 RMK AO2 T02680232

2010/08/09 16:49
KMHV 091649Z VRB03KT 40SM SKC 24/03 A2997

2010/08/09 16:45
KMWC 091645Z 23010KT 10SM SCT050 26/20 A2993

2010/08/09 16:45
KMYR 091645Z 12010KT 10SM FEW022 SCT030 31/25 A3006

2010/08/09 16:50
KOLV 091650Z 00000KT 7SM FEW045 FEW120 37/27 A3000

2010/08/09 16:47
KPAO 091647Z VRB06KT 25SM SCT015 A2992

2010/08/09 16:45
KRPH 091645Z AUTO 18009KT 10SM CLR 33/22 A2994 RMK AO2 T03320216

2010/08/09 16:50
KBYH 091650Z 24004KT 8SM BKN250 34/26 A2996

2010/08/09 16:50
EYSA 091650Z 18003KT 9999 SCT038 22/16 Q1016

2010/08/09 16:49
PACM 091649Z AUTO 15011KT 1 3/4SM -RA BR BKN013 BKN031 OVC095 10/08 A2923 RMK AO2 TSNO P0000 $

2010/08/09 16:49
PACM 091649Z AUTO 15011KT 1 3/4SM -RA BR BKN013 BKN031 OVC095 10/08 A2923 RMK AO2 TSNO P0000 $

2010/08/09 16:49
KNFE 091649Z AUTO 07005KT 3SM HZ CLR 31/20 A3004 RMK AO2 $

2010/08/09 16:49
KRAC 091649Z AUTO 20009KT 10SM SCT017 SCT025 28/23 A2994 RMK AO2

2010/08/09 16:50
KTZR 091650Z 20005KT 7SM SKC 29/20 A3004

2010/08/09 16:48
KMSN 091648Z 30007KT 10SM SCT022 BKN029 26/21 A2993 RMK AO2

2010/08/09 16:49
KDBQ 091649Z 27007KT 10SM SCT010 25/22 A2995 RMK AO2

2010/08/09 16:50
LLBG 091650Z 31008KT 9999 SCT026 28/22 Q1006 NOSIG

2010/08/09 16:50
LLET 091650Z 33012G25KT CAVOK 37/16 Q1002

2010/08/09 16:50
LLOV 091650Z 29013KT CAVOK 32/16 Q1007

2010/08/09 16:45
LMML 091645Z 33006KT 280V360 CAVOK 28/17 Q1015 NOSIG

2010/08/09 16:49
KDBQ 091649Z 27007KT 10SM SCT010 25/22 A2995

2010/08/09 16:51
KSAN 091651Z VRB03KT 10SM OVC017 18/13 A2995 RMK AO2 SLP141 T01830133 

2010/08/09 16:50
EYSA 091650Z 18003KT 9999 SCT038 22/16 Q1016

2010/08/09 16:50
EYVI 091650Z 16004KT 9999 FEW040 BKN110 19/17 Q1017 NOSIG

2010/08/09 16:45
LMML 091645Z 33006KT 280V360 CAVOK 28/17 Q1015 NOSIG 

2010/08/09 16:49
KDBQ 091649Z 27007KT 10SM SCT010 25/22 A2995

2010/08/09 16:50
EKVG 091650Z 12014KT 9999 FEW012 BKN020 13/10 Q1009 RMK/RWY 13-31 CLOSED DUE WIP NOTAM E0050/10 WIND 850FT 13019KT

2010/08/09 16:50
ETNG 091650Z 24005KT CAVOK 22/11 Q1016

2010/08/09 16:55
ETOR 091655Z VRB01KT 9999 FEW035 SCT065 26/10 A3001 RMK BLU

2010/08/09 16:55
KBLV 091655Z AUTO 23003KT 10SM CLR 33/26 A2994 RMK AO2 SLP135 T03300261

2010/08/09 16:50
KBYH 091650Z 24004KT 8SM BKN250 34/26 A2996

2010/08/09 16:50
LLBG 091650Z 31008KT 9999 SCT026 28/22 Q1006 NOSIG

2010/08/09 16:50
LLET 091650Z 33012G25KT CAVOK 37/16 Q1002

2010/08/09 16:50
LLOV 091650Z 29013KT CAVOK 32/16 Q1007

2010/08/09 16:50
MSLP 091650Z 11002KT 9999 FEW027 BKN300 32/24 Q1012 A2989

2010/08/09 16:50
MSSS 091650Z 12003KT 9999 FEW027 BKN300 28/23 Q1016 A3002

2010/08/09 16:50
OAKB 091650Z 15007KT 9999 SCT080 BKN120 25/17 Q1012 NOSIG RMK BLU BLU

2010/08/09 16:50
OAMS 091650Z 24009KT 9999 BKN160 36/02 Q1003 BLU BLU

2010/08/09 17:00
OSAP 091700Z 27014KT CAVOK 30/13 Q1004

2010/08/09 17:00
OSDI 091700Z 22012KT CAVOK 35/09 Q1006

2010/08/09 17:00
OSLK 091700Z 22004KT 9999 FEW030 28/22 Q1005

2010/08/09 17:00
TUPJ 091700Z 14011KT 9999 VCSH SCT018CB BKN220 31/24 A2999

2010/08/09 16:50
EKVG 091650Z 12014KT 9999 FEW012 BKN020 13/10 Q1009 RMK/RWY 13-31 CLOSED DUE WIP NOTAM E0050/10 WIND 850FT 13019KT

2010/08/09 16:50
ETNG 091650Z 24005KT CAVOK 22/11 Q1016

2010/08/09 16:55
ETOR 091655Z VRB01KT 9999 FEW035 SCT065 26/10 A3001 RMK BLU

2010/08/09 16:45
LMML 091645Z 33006KT 280V360 CAVOK 28/17 Q1015 NOSIG

2010/08/09 16:52
CYHU 091652Z AUTO 24009KT 9SM SCT017 BKN033 25/22 A2991 RMK SLP129 DENSITY ALT 1200FT RVR MISG

2010/08/09 16:52
LEGE 091652Z VRB08G19KT 1500 TS SHRA FEW018 SCT030CB 21/20 Q1016

2010/08/09 16:51
KSMX 091651Z 00000KT 8SM OVC006 13/11 A2995 RMK AO2 SLP145 T01330106 

2010/08/09 16:51
KCON 091651Z AUTO 29008G15KT 10SM SCT055 32/16 A2994 RMK AO2 SLP135 T03220156 

2010/08/09 16:51
KHSE 091651Z AUTO 14006KT 10SM SCT030 30/25 A3005 RMK AO2 SLP175 T03000250 TSNO 

2010/08/09 16:51
KCRP 091651Z 17006KT 10SM FEW035 SCT044 32/24 A2994 RMK AO2 SLP138 T03220239 

2010/08/09 16:51
KJCT 091651Z AUTO 19007KT 10SM CLR 32/19 A3000 RMK AO2 SLP118 T03220189 TSNO 

2010/08/09 16:51
KBVE 091651Z AUTO -RA OVC017 26/25 A3000 RMK AO2 WSHFT 1615 SLP159 P0043 T02610250 TSNO $ 

2010/08/09 16:52
CYSC 091652Z AUTO 25005KT 210V290 9SM SCT020 BKN026 BKN034 OVC071 23/19 A2993 RMK DENSITY ALT 1800FT

2010/08/09 16:51
KATT 091651Z AUTO VRB03KT 10SM CLR 33/21 A2999 RMK AO2 SLP138 T03330211 

2010/08/09 16:51
KSNT 091651Z AUTO VRB03KT 12/09 A3012 RMK AO2 SLP118 T01170089 PWINO TSNO 

2010/08/09 16:51
KVCT 091651Z 17008KT 10SM SCT041 34/23 A2997 RMK AO2 SLP145 T03390233 PNO $ 

2010/08/09 16:51
KAHN 091651Z 31003KT 6SM HZ BKN042 BKN095 33/22 A3006 RMK AO2 SLP169 T03280217

2010/08/09 16:51
KBGD 091651Z AUTO VRB03KT 10SM CLR 33/14 A2999 RMK AO2 SLP101 T03330144

2010/08/09 16:50
KCNO 091650Z 00000KT 4SM HZ CLR A2993

2010/08/09 16:51
KCSG 091651Z 13005KT 10SM CLR 34/20 A3000 RMK AO2 SLP152 T03390200

2010/08/09 16:51
KEKN 091651Z AUTO VRB03KT 8SM CLR 28/19 A3010 RMK AO2 SLP182 T02780189 TSNO

2010/08/09 16:51
KELP 091651Z 00000KT 10SM FEW060 29/14 A3007 RMK AO2 SLP110 TCU DSNT NE T02890139

2010/08/09 16:47
KLBE 091647Z 20005KT 15SM SCT200 28/17 A3006

2010/08/09 16:50
KLZU 091650Z 03004KT 10SM FEW042 33/22 A3006

2010/08/09 16:51
KMDW 091651Z 25003KT 9SM FEW035 SCT075 BKN150 BKN200 28/21 A2994 RMK AO2 SLP126 T02780211 PNO

2010/08/09 16:51
KORD 091651Z 23006KT 10SM FEW055 SCT150 BKN200 BKN250 27/22 A2994 RMK AO2 SLP132 T02720217

2010/08/09 16:51
KPHX 091651Z 00000KT 10SM FEW150 34/02 A2988 RMK AO2 SLP096 T03390017 $

2010/08/09 16:51
KRDU 091651Z 08003KT 9SM SCT045 32/21 A3005 RMK AO2 SLP169 T03170206

2010/08/09 16:51
KROW 091651Z 00000KT 10SM CLR 26/18 A3006 RMK AO2 SLP111 T02610178

2010/08/09 16:51
KSBD 091651Z 00000KT 7SM SKC 20/11 A2992

2010/08/09 16:51
KSTL 091651Z 00000KT 9SM FEW060 SCT130 BKN200 33/24 A2995 RMK AO2 SLP127 T03280244

2010/08/09 16:52
PAKU 091652Z 06021KT 1/4SM FG VV002 03/03 A2979

2010/08/09 16:47
K1F0 091647Z AUTO 21007KT 10SM CLR 35/22 A2991 RMK AO2

2010/08/09 16:58
K36U 091658Z AUTO 26005KT 10SM CLR 23/06 A3013 RMK AO2

2010/08/09 16:48
K5C1 091648Z AUTO 17003KT 10SM SCT034 31/20 A3002 RMK AO1

2010/08/09 16:51
KACT 091651Z 17011KT 10SM CLR 34/22 A2996 RMK AO2 SLP136 T03440222 $

2010/08/09 16:51
KALB 091651Z 23010G16KT 9SM SCT050 SCT110 31/18 A2996 RMK AO2 SLP144 SCT050 V FEW T03110178

2010/08/09 16:51
KASH 091651Z 26007G17KT 10SM SCT055 32/17 A2994 RMK AO2 T03220166 SLP141

2010/08/09 16:51
KAVX 091651Z AUTO 00000KT 10SM CLR 16/12 A2996 RMK AO2 SLP136 T01560117 TSNO

2010/08/09 16:51
KBDL 091651Z 20008KT 10SM FEW065 SCT100 33/16 A2996 RMK AO2 SLP143 T03280161

2010/08/09 16:51
KBKW 091651Z AUTO 22005KT 6SM HZ CLR 27/16 A3014 RMK AO2 SLP171 T02720156

2010/08/09 16:51
KCLE 091651Z 24006KT 10SM BKN250 29/20 A3002 RMK AO2 SLP159 T02940200

2010/08/09 16:51
KCMH 091651Z 22009KT 10SM BKN200 30/18 A3003 RMK AO2 SLP160 T03000178

2010/08/09 16:51
KDAW 091651Z AUTO VRB06KT 10SM FEW055 31/17 A2992 RMK AO2 SLP127 T03110167

2010/08/09 16:51
KDUA 091651Z AUTO 18007KT 10SM CLR 35/22 A2995 RMK AO2

2010/08/09 16:51
KERI 091651Z 25005KT 8SM FEW070 SCT095 30/19 A2999 RMK AO2 SLP149 T03000189

2010/08/09 16:51
KEWR 091651Z 21007G15KT 10SM FEW055 SCT250 34/17 A2999 RMK AO2 SLP153 HAZE ALOFT T03440167

2010/08/09 16:47
KGLE 091647Z AUTO 19009G14KT 10SM CLR 35/22 A2996 RMK AO2

2010/08/09 16:52
KGLS 091652Z 16008KT 10SM SCT028 33/24 A2999 RMK AO2 SLP154 T03280244

2010/08/09 16:55
KGLY 091655Z AUTO 00000KT 9SM CLR 33/26 A2995 RMK AO2

2010/08/09 16:52
KHRL 091652Z 15009KT 10SM SCT028 33/23 A2991 RMK AO2 SLP127 T03330233

2010/08/09 16:51
KHTS 091651Z 00000KT 8SM CLR 31/20 A3004 RMK AO2 SLP164 T03060200

2010/08/09 16:51
KILG 091651Z 15008KT 9SM SCT038 31/22 A3002 RMK AO2 SLP164 T03110222 $

2010/08/09 16:48
KIZA 091648Z AUTO 00000KT 10SM OVC008 14/11 A2995 RMK AO2

2010/08/09 16:51
KJFK 091651Z 18009KT 8SM FEW040 SCT250 29/22 A3001 RMK AO2 SLP163 T02940217

2010/08/09 16:49
KL35 091649Z AUTO 00000KT 10SM CLR 20/M13 A3017 RMK AO2

2010/08/09 16:51
KLGA 091651Z 23011KT 10SM FEW060 SCT250 33/18 A2998 RMK AO2 SLP153 T03280178

2010/08/09 16:51
KLGU 091651Z AUTO 23010G16KT 10SM FEW070 25/08 A3002 RMK AO2 LTG DSNT NW SLP111 T02500078

2010/08/09 16:50
KLRU 091650Z AUTO 00000KT 10SM CLR 26/14 A3013 RMK AO2

2010/08/09 16:55
KLZZ 091655Z AUTO 19008KT 10SM CLR 33/20 A2998 RMK AO2

2010/08/09 16:51
KMPV 091651Z AUTO 00000KT 10SM BKN043 BKN050 OVC060 25/17 A3000 RMK AO2 SLP155 T02500172

2010/08/09 16:51
KMYL 091651Z AUTO 00000KT 10SM CLR 18/09 A2998 RMK AO2 SLP109 T01830089

2010/08/09 16:50
KONM 091650Z AUTO 02003KT 10SM CLR 28/13 A3013 RMK AO2 T02770129

2010/08/09 16:50
KONP 091650Z AUTO 35008KT 10SM OVC020 14/10 A3005 RMK AO1

2010/08/09 16:51
KBTL 091651Z 19006KT 3SM RA BR OVC011 22/22 A3001 RMK AO2 TSE50 P0030

2010/08/09 16:48
KMSN 091648Z 30007KT 10SM SCT022 BKN029 26/21 A2993 RMK AO2

2010/08/09 16:50
PAGA 091650Z AUTO 12008KT 10SM SCT008 SCT013 OVC055 13/11 A2945 RMK AO2

2010/08/09 16:48
PAJZ 091648Z AUTO 18012KT 2SM BR SCT007 BKN020 OVC028 11/10 A2955 RMK AO2 PWINO TSNO BKN V SCT $

2010/08/09 16:51
KOXR 091651Z 27005KT 10SM FEW012 17/13 A2993 RMK AO2 SLP133 T01720128

2010/08/09 16:55
KPAN 091655Z AUTO 13003KT 10SM CLR 25/10 A3018 RMK AO1

2010/08/09 16:51
KPIT 091651Z 00000KT 10SM FEW140 BKN250 29/15 A3004 RMK AO2 SLP170 T02940150

2010/08/09 16:51
KPVD 091651Z 29007G16KT 10SM SCT045TCU SCT110 SCT300 32/18 A2998 RMK AO2 SLP151 TCU ALQDS T03170183

2010/08/09 16:51
KPWM 091651Z 30011KT 10SM FEW050 SCT100 31/18 A2991 RMK AO2 SLP129 T03060178

2010/08/09 16:51
KSJT 091651Z 16011G14KT 130V200 10SM FEW046 33/21 A2999 RMK AO2 SLP126 T03330211

2010/08/09 16:51
KSLK 091651Z AUTO 23009G16KT 7SM FEW024 BKN039 OVC060 26/19 A2997 RMK AO2 SLP140 T02560194

2010/08/09 16:51
KSMO 091651Z VRB04KT 8SM BKN013 19/13 A2993 RMK AO2 SLP135 T01890128

2010/08/09 16:51
KTEB 091651Z 21005KT 10SM FEW060 32/17 A2997 RMK AO2 SLP147 T03220172

2010/08/09 16:51
KVNY 091651Z 00000KT 10SM CLR 20/12 A2992 RMK AO2 SLP125 T02000122

2010/08/09 16:47
KWHP 091647Z 00000KT 10SM SKC 25/

2010/08/09 16:51
KYNG 091651Z 21005KT 10SM BKN250 29/16 A3003 RMK AO2 SLP159 T02890161

2010/08/09 16:50
LSMS 091650Z 26014KT 9999 FEW100 27/11 Q1014

2010/08/09 16:50
LSZH 091650Z 34004KT 300V030 9999 FEW048 25/14 Q1016 NOSIG

2010/08/09 16:50
LSGG 091650Z 27006KT 230V320 9999 FEW060 28/11 Q1015 NOSIG

2010/08/09 16:50
LSZB 091650Z 30007KT 9999 FEW055 26/13 Q1015 NOSIG

2010/08/09 16:50
LSZA 091650Z 18005KT 9999 FEW050 27/17 Q1014 NOSIG

2010/08/09 17:00
SPIM 091700Z 18006KT 6000 FEW013 OVC017 17/12 Q1018 NOSIG RMK BIRD HAZARD RWY 15 PP000

2010/08/09 16:52
LEGE 091652Z VRB08G19KT 1500 TS SHRA FEW018 SCT030CB 21/20 Q1016

2010/08/09 16:51
KP59 091651Z AUTO 35016KT 24/21 A2987 RMK AO2 SLP106 T02390211 PWINO TSNO 

2010/08/09 16:51
KDAG 091651Z AUTO 28004KT 10SM CLR 27/M02 A2992 RMK AO2 SLP106 T02721017 TSNO 

2010/08/09 16:51
KNYC 091651Z AUTO 22007KT 180V250 10SM CLR 33/18 A3002 RMK AO2 SLP155 T03330183 TSNO 

2010/08/09 16:51
KORF 091651Z 05006KT 10SM FEW030 30/22 A3004 RMK AO2 SLP172 T03000217 

2010/08/09 16:51
KNBT 091651Z AUTO 11005KT 1 1/4SM RA BR SCT002 27/24 A3005 RMK AO2 RAB34 P0002 TSNO 

2010/08/09 16:51
KABE 091651Z 26007KT 10SM FEW047 31/19 A3001 RMK AO2 SLP158 T03110194 

2010/08/09 16:51
KCAK 091651Z 23006KT 8SM SCT250 29/17 A3003 RMK AO2 SLP160 T02890172 

2010/08/09 16:50
LSMS 091650Z 26014KT 9999 FEW100 27/11 Q1014

2010/08/09 16:50
LSZH 091650Z 34004KT 300V030 9999 FEW048 25/14 Q1016 NOSIG

2010/08/09 16:50
LSGG 091650Z 27006KT 230V320 9999 FEW060 28/11 Q1015 NOSIG

2010/08/09 16:50
LSZB 091650Z 30007KT 9999 FEW055 26/13 Q1015 NOSIG

2010/08/09 16:50
LSZA 091650Z 18005KT 9999 FEW050 27/17 Q1014 NOSIG

2010/08/09 16:50
LXGB 091650Z 06006KT CAVOK 26/21 Q1014 NOSIG

2010/08/09 16:55
KQD9 091655Z VRB02KT 9999 FEW030 SCT050 SCT180 25/22 A2984 RMK SLP043 WND DATA ESTMD ALSTG/SLP ESTMD

2010/08/09 16:55
KQFS 091655Z AUTO VRB05KT 6000 RA SCT021 BKN027 BKN035 27/23 A2983 RMK AO2 LTG DSNT SW SLP096 P0002 T02660232 $

2010/08/09 16:55
KQHT 091655Z VRB03KT 9999 FEW150 24/08 A2984 RMK AO2A SLP065

2010/08/09 16:55
KQW3 091655Z AUTO RMK AO2 SLPNO

2010/08/09 17:00
OKBK 091700Z 16004KT 8000 NSC 39/09 Q0997 NOSIG

2010/08/09 16:50
EDDF 091650Z VRB02KT 9999 FEW046 SCT070 23/12 Q1016 NOSIG

2010/08/09 16:50
EDDH 091650Z 24002KT 9999 FEW021 SCT040 BKN130 17/14 Q1015 NOSIG

2010/08/09 16:50
EDDK 091650Z 03004KT 350V050 9999 FEW040 SCT070 BKN280 22/13 Q1016 NOSIG

2010/08/09 16:50
EDDL 091650Z 24002KT 9999 FEW040 SCT280 22/12 Q1016 NOSIG

2010/08/09 16:50
EDDM 091650Z 04005KT CAVOK 22/12 Q1017 NOSIG

2010/08/09 16:50
EDDN 091650Z 01002KT 9999 FEW035 SCT080 21/17 Q1017 NOSIG

2010/08/09 16:50
EDDS 091650Z 35004KT CAVOK 22/11 Q1016 NOSIG

2010/08/09 16:50
EDDT 091650Z 29006KT 9999 FEW035CB 22/16 Q1015 NOSIG

2010/08/09 16:50
EDDV 091650Z 29005KT 270V330 9999 FEW036 SCT076 BKN130 20/12 Q1016 NOSIG

2010/08/09 16:50
EDDB 091650Z 35004KT 9999 SCT040CB SCT076 20/16 Q1015 NOSIG

2010/08/09 16:50
EDDC 091650Z 30005KT 9999 FEW031 BKN100 21/14 Q1016 NOSIG

2010/08/09 16:50
EDDE 091650Z 28002KT 9999 FEW048 SCT062 BKN120 21/12 Q1017 NOSIG

2010/08/09 16:50
EDDG 091650Z 22005KT 9999 FEW040 SCT250 22/11 Q1016 NOSIG

2010/08/09 16:50
EDDP 091650Z 32004KT 9999 FEW020 BKN100 20/15 Q1016 NOSIG

2010/08/09 16:50
EDDR 091650Z 32001KT CAVOK 22/10 Q1016 NOSIG

2010/08/09 16:50
EDDW 091650Z 23004KT 9999 FEW030 BKN075 20/12 Q1016 NOSIG

2010/08/09 16:51
CZUM 091651Z AUTO 25008KT 9SM -RA BKN017 OVC074 OVC089 14/12 A2963

2010/08/09 17:00
ZMUB 091700Z VRB01MPS CAVOK 09/00 Q1008 NOSIG RMK QFE649.9 54

2010/08/09 16:52
KSDB 091652Z AUTO VRB04KT 10SM CLR 22/02 A3006 RMK AO2 SLP129 T02170017 TSNO 

2010/08/09 16:52
KREO 091652Z AUTO 03003KT 21/11 A2995 RMK AO2 SLP111 T02110111 PWINO TSNO 

2010/08/09 16:52
KP69 091652Z AUTO 00000KT 22/13 A2985 RMK AO2 SLP089 T02170128 PWINO TSNO 

2010/08/09 16:52
KBLU 091652Z AUTO 17005KT 10SM CLR 19/08 A3010 RMK AO2 SLP108 T01890078 TSNO 

2010/08/09 16:50
KEHA 091650Z AUTO 24004KT 31/17 RMK AO1 PK WND 06 000 T03110173

2010/08/09 16:50
PADL 091650Z 18015KT 5SM -RA BR SCT005 OVC012 11/09 A2951

2010/08/09 16:47
PALJ 091647Z 03006KT 30SM SCT060 BKN100 11/09 A2951 RMK EST PASS OPEN NOSPECI

2010/08/09 16:48
K4O4 091648Z AUTO 25003KT 10SM CLR 33/22 A2998 RMK AO2

2010/08/09 16:51
KADH 091651Z AUTO 20008KT 10SM SCT050 34/18 A2995 RMK AO2

2010/08/09 16:50
KAFK 091650Z AUTO 18008KT 10SM CLR 29/24 A2987 RMK AO2 T02940241

2010/08/09 16:52
KAFN 091652Z AUTO 28006KT 10SM FEW043 28/17 A3000 RMK AO2 SLP157 T02830167

2010/08/09 16:45
KALM 091645Z AUTO 34003KT 10SM CLR 27/14 A3009 RMK AO2

2010/08/09 16:50
KALN 091650Z 00000KT 7SM BKN200 33/26 A2995

2010/08/09 16:52
KALS 091652Z AUTO 00000KT 10SM CLR 22/09 A3028 RMK AO2 SLP153 T02170094 $

2010/08/09 16:50
KANW 091650Z AUTO 07004KT 10SM CLR 27/20 A2998 RMK AO2 T02720196

2010/08/09 16:52
KAQW 091652Z AUTO VRB04KT 9SM FEW050 30/18 A2998 RMK AO2 SLP146 T03000183

2010/08/09 16:52
KARR 091652Z 00000KT 10SM CLR 26/22 A2996 RMK AO2 SLP137 T02610222

2010/08/09 16:52
KATL 091652Z 00000KT 10SM SCT048 32/21 A3005 RMK AO2 SLP164 T03170206

2010/08/09 16:50
KATS 091650Z AUTO 16009KT 10SM FEW120 27/16 A3004 RMK AO2

2010/08/09 16:50
KAUH 091650Z AUTO 08005KT 10SM CLR 29/21 A2991 RMK AO2 T02850210

2010/08/09 16:50
KAUN 091650Z AUTO 26004KT 10SM CLR 24/13 A2991 RMK AO1

2010/08/09 16:50
KAXS 091650Z AUTO 17006KT 10SM CLR 33/21 A2992 RMK AO2 T03340209

2010/08/09 16:50
KAXX 091650Z AUTO 00000KT 10SM OVC120 17/11 A3037 RMK AO2

2010/08/09 16:52
KBDR 091652Z 22008KT 9SM CLR 29/19 A2999 RMK AO2 SLP154 T02890194

2010/08/09 16:50
KBIE 091650Z AUTO 14005KT 10SM CLR 32/23 A2986 RMK AO2 T03150228

2010/08/09 16:52
KBIS 091652Z 19011G15KT 10SM CLR 32/19 A2988 RMK AO2 SLP104 T03170194

2010/08/09 16:52
KBLF 091652Z AUTO 25005KT 10SM CLR 29/16 A3017 RMK AO2 SLP171 T02890161

2010/08/09 16:52
KBLH 091652Z AUTO 00000KT 10SM CLR 33/03 A2983 RMK AO2 SLP093 T03280028

2010/08/09 16:52
KBML 091652Z AUTO 23006KT 10SM FEW036 25/17 A2996 RMK AO2 SLP142 T02500167

2010/08/09 16:50
KBTA 091650Z AUTO 00000KT 10SM BKN012 29/23 A2987 RMK AO2 T02860234

2010/08/09 16:50
KBVN 091650Z AUTO 03003KT 10SM CLR 27/21 A2992 RMK AO2 T02690213

2010/08/09 16:45
KBVS 091645Z AUTO 18006KT 9SM BKN010 OVC042 16/13 A2997 RMK A01 P000

2010/08/09 16:52
KCFV 091652Z AUTO 14008KT 10SM CLR 36/23 A2994 RMK AO2 SLP127 T03560228

2010/08/09 16:50
KCHK 091650Z AUTO 18010G17KT 10SM CLR 35/23 A2991 RMK AO2

2010/08/09 16:52
KCID 091652Z 00000KT 10SM CLR 27/21 A2990 RMK AO2 SLP118 T02720211

2010/08/09 16:52
KCKV 091652Z AUTO 22006KT 10SM CLR 33/24 A2998 RMK AO2 SLP145 T03330239

2010/08/09 16:50
KCLK 091650Z AUTO 17008KT 10SM CLR 33/17 A2992 RMK AO2

2010/08/09 16:52
KCLT 091652Z 28003KT 10SM SCT040 BKN250 32/21 A3006 RMK AO2 SLP168 T03170211

2010/08/09 16:52
KCNU 091652Z AUTO 21009KT 10SM CLR 35/22 A2993 RMK AO2 SLP121 T03500222

2010/08/09 16:50
KCQB 091650Z AUTO 17008KT 10SM CLR 35/22 A2994 RMK AO2 TSNO

2010/08/09 16:52
KCQX 091652Z AUTO 22011G17KT 10SM BKN006 27/23 A3001 RMK AO2 CIG 004V010 SLP162 T02720228

2010/08/09 16:50
KCUH 091650Z AUTO 17006KT 10SM CLR 36/22 A2993 RMK AO2

2010/08/09 16:52
KCVG 091652Z 26005KT 9SM BKN250 33/18 A3002 RMK AO2 SLP153 T03280178

2010/08/09 16:52
KDCA 091652Z 17011KT 8SM SCT055 BKN250 32/20 A3000 RMK AO2 SLP159 T03220200

2010/08/09 16:52
KDDC 091652Z AUTO 15008KT 10SM CLR 34/17 A2994 RMK AO2 SLP096 T03440172

2010/08/09 16:52
KDPA 091652Z VRB04KT 10SM SCT060 BKN080 27/22 A2994 RMK AO2 SLP132 T02670217

2010/08/09 16:54
KDUC 091654Z AUTO 20006G14KT 10SM CLR 34/22 A2993 RMK AO2

2010/08/09 16:52
KDVN 091652Z AUTO 01004KT 10SM CLR 27/22 A2991 RMK AO2 RAB43E52 SLP120 P0000 T02670217

2010/08/09 16:50
KDVO 091650Z AUTO 00000KT 10SM OVC008 14/12 A2994 RMK AO2

2010/08/09 16:47
KEMT 091647Z VRB04KT 6SM HZ FEW015 A2993

2010/08/09 16:52
KEST 091652Z AUTO 16004KT 10SM OVC017 26/22 A2993 RMK AO2 SLP129 T02560222

2010/08/09 16:50
KFET 091650Z AUTO 33004KT 10SM SCT011 27/23 A2988 RMK AO2 T02700230

2010/08/09 16:52
KFIT 091652Z AUTO 27008KT 10SM CLR 31/18 A2997 RMK AO2 SLP146 T03110178

2010/08/09 16:52
KGCM 091652Z AUTO 19006KT 10SM CLR 34/23 A2998 RMK AO2

2010/08/09 16:51
KGMJ 091651Z AUTO 14004KT 10SM CLR 35/21 A2996 RMK AO2

2010/08/09 16:50
KGPM 091650Z 19004KT 10SM SKC 34/23 A2997

2010/08/09 16:50
KGTR 091650Z 00000KT 10SM FEW035 33/24 A2999

2010/08/09 16:47
KGYH 091647Z 26003KT 10SM SCT065 33/22 A3007

2010/08/09 16:50
KHDE 091650Z AUTO 05005KT 10SM CLR 28/21 A2995 RMK AO2 T02750213

2010/08/09 16:52
KHIE 091652Z AUTO VRB06KT 10SM FEW039 26/18 A2996 RMK AO2 SLP143 T02610183

2010/08/09 16:50
KHJH 091650Z AUTO 07003KT 10SM CLR 33/22 A2986 RMK AO2 T03300222

2010/08/09 16:52
KHUT 091652Z 19006KT 10SM CLR 37/21 A2992 RMK AO2 SLP101 T03670206

2010/08/09 16:52
KIAD 091652Z 20005KT 9SM FEW045 BKN250 32/21 A3001 RMK AO2 SLP158 T03170211

2010/08/09 16:50
KIBM 091650Z AUTO 28012G17KT 10SM SCT090 26/15 A3010 RMK AO2 T02620148

2010/08/09 16:50
KIDP 091650Z AUTO 17005KT 10SM CLR 33/22 A2993 RMK AO2

2010/08/09 16:52
KIEN 091652Z AUTO 18009KT 10SM CLR 32/17 A2996 RMK AO2 SLP109 T03170172

2010/08/09 16:52
KIJD 091652Z AUTO VRB06KT 10SM SCT055 BKN070 31/18 A2998 RMK AO2 SLP151 T03060178

2010/08/09 16:52
KIOW 091652Z AUTO 00000KT 10SM CLR 28/23 A2990 RMK AO2 SLP119 T02780228

2010/08/09 16:52
KISN 091652Z 33005KT 10SM CLR 24/17 A2987 RMK AO2 SLP107 T02390167

2010/08/09 16:51
KJAC 091651Z 00000KT 10SM FU SCT065 BKN120 18/08 A3018

2010/08/09 16:51
KJSV 091651Z AUTO 19006KT 10SM CLR 33/22 A2996 RMK AO2

2010/08/09 16:54
KJWG 091654Z AUTO 22009KT 10SM CLR 33/23 A2994 RMK AO2

2010/08/09 16:50
KJYR 091650Z AUTO 04004KT 9SM CLR 30/24 A2989 RMK AO2

2010/08/09 16:50
KLAM 091650Z AUTO 10003KT 10SM SCT120 22/12 A3028 RMK AO2

2010/08/09 16:50
KLCG 091650Z AUTO 00000KT 5SM BR OVC005 24/22 A2991 RMK AO2 T02400221

2010/08/09 16:50
KLHM 091650Z AUTO 19004KT 10SM CLR 21/12 A2988 RMK AO1 T02100121

2010/08/09 16:52
KLWC 091652Z AUTO 20010KT 10SM FEW100 36/23 A2989 RMK AO2 SLP109 T03560233

2010/08/09 16:50
KLXN 091650Z AUTO 04006KT 10SM CLR 29/22 A2995 RMK AO2 T02850221

2010/08/09 16:52
KMDH 091652Z 00000KT 10SM SCT040 35/23 A2995 RMK AO2 SLP135 T03500233

2010/08/09 16:52
KMEB 091652Z AUTO 05007KT 10SM FEW042 32/22 A3004 RMK AO2 SLP170 T03220217

2010/08/09 16:52
KMFD 091652Z 23010KT 8SM CLR 29/17 A3005 RMK AO2 SLP166 T02940172

2010/08/09 16:52
KMHK 091652Z 20007KT 10SM CLR 36/21 A2985 RMK AO2 SLP094 T03560206

2010/08/09 16:52
KVTN 091652Z AUTO 09005KT 10SM CLR 28/19 A2997 RMK AO2 SLP126 T02830194

2010/08/09 16:50
KWDG 091650Z 18006KT 10SM FEW200 36/21 A2989

2010/08/09 16:48
KWWR 091648Z AUTO 17007KT 10SM CLR 35/19 A2995 RMK AO2 T03520192

2010/08/09 16:52
KMKE 091652Z 22011KT 10SM SCT019 BKN160 BKN240 27/22 A2992 RMK AO2 SLP125 T02670222

2010/08/09 16:50
KMLE 091650Z AUTO 33003KT 10SM CLR 30/22 A2985 RMK AO2 T02960223

2010/08/09 16:52
KMLI 091652Z 00000KT 10SM CLR 27/22 A2991 RMK AO2 SLP121 T02670217

2010/08/09 16:49
KMMH 091649Z AUTO 11004KT 10SM CLR 17/M01 A3018 RMK AO1

2010/08/09 16:52
KMWH 091652Z AUTO 00000KT 10SM CLR 23/12 A2983 RMK AO2 SLP094 T02330122 TSNO

2010/08/09 16:55
KOAJ 091655Z AUTO 02008KT 10SM CLR 32/21 A3004 RMK AO1

2010/08/09 16:50
KOJA 091650Z AUTO 18006KT 10SM CLR 33/21 A2993 RMK AO2

2010/08/09 16:52
KOKB 091652Z AUTO VRB04KT 9SM FEW021 22/13 A2992 RMK AO2 SLP133 T02170133

2010/08/09 16:52
KOKC 091652Z 18010KT 10SM CLR 33/22 A2993 RMK AO2 SLP115 T03330217 $

2010/08/09 16:51
KOKM 091651Z AUTO 18009KT 10SM CLR 36/24 A2995 RMK AO1

2010/08/09 16:52
KOMA 091652Z 22004KT 10SM FEW030 SCT140 SCT250 32/24 A2985 RMK AO2 SLP096 T03170244

2010/08/09 16:52
KORE 091652Z AUTO 29006G15KT 10SM FEW055 31/16 A2997 RMK AO2 SLP145 T03060161

2010/08/09 16:50
KORS 091650Z AUTO 00000KT 9SM OVC019 15/13 A2993 RMK AO2

2010/08/09 16:52
KOUN 091652Z AUTO 18010G15KT 10SM CLR 35/22 A2994 RMK AO2

2010/08/09 16:50
KPLU 091650Z AUTO 00000KT 10SM BKN008 OVC040 14/13 A2997 RMK AO2

2010/08/09 16:52
KPPF 091652Z AUTO 20006KT 10SM CLR 35/23 A2995 RMK AO2 SLP129 T03500233

2010/08/09 16:50
KPTS 091650Z AUTO 20008KT 10SM CLR 33/21 A2994 RMK AO2 T03330210

2010/08/09 16:48
KPVJ 091648Z AUTO 22006KT 10SM CLR 35/22 A2994 RMK AO2

2010/08/09 16:52
KPWK 091652Z 22007KT 10SM FEW021 28/23 A2995 RMK AO2 SLP138 T02780228

2010/08/09 16:52
KPYM 091652Z AUTO 23008G16KT 10SM FEW035 32/21 A2998 RMK AO2 SLP150 T03220206

2010/08/09 16:52
KRAP 091652Z 16011KT 10SM CLR 29/18 A2995 RMK AO2 SLP111 T02940178

2010/08/09 16:51
KRKR 091651Z AUTO 22004KT 10SM CLR 37/26 A2996 RMK AO2

2010/08/09 16:52
KSGF 091652Z 21005KT 10SM CLR 33/23 A2998 RMK AO2 SLP136 T03330228

2010/08/09 16:53
KSNL 091653Z AUTO 22008KT 10SM CLR 35/22 A2995 RMK AO2

2010/08/09 16:55
KSOP 091655Z AUTO 13003KT 10SM FEW047 33/22 A3004 RMK AO1

2010/08/09 16:52
KSPI 091652Z 24005KT 10SM CLR 31/25 A2994 RMK AO2 SLP132 T03110250

2010/08/09 16:52
KSPS 091652Z 24010KT 10SM FEW070 36/19 A2991 RMK AO2 SLP111 P0004 T03610189

2010/08/09 16:50
KSRE 091650Z AUTO 16006KT 136V196 10SM CLR 35/22 A2994 RMK AO2

2010/08/09 16:52
KSUX 091652Z 00000KT 10SM OVC011 26/23 A2988 RMK AO2 SLP111 T02610228

2010/08/09 16:45
KSVC 091645Z AUTO 00000KT 10SM CLR 27/09 A3019 RMK AO2

2010/08/09 16:52
KTAN 091652Z AUTO 20007KT 10SM BKN100 30/22 A2996 RMK AO2 SLP143 T03000222

2010/08/09 16:54
KTMK 091654Z AUTO 00000KT 10SM SCT015 OVC025 15/11 A3002 RMK AO2

2010/08/09 16:52
KTOL 091652Z 25003KT 8SM CLR 28/19 A2998 RMK AO2 SLP146 T02830194

2010/08/09 16:53
KTQH 091653Z AUTO 24008KT 10SM CLR 36/23 A2997 RMK AO2

2010/08/09 16:52
KTRM 091652Z AUTO 29003KT 10SM CLR 32/06 A2978 RMK AO2 SLP096 T03170056

2010/08/09 16:55
KUDG 091655Z 12004KT 10SM FEW038 32/23 A3006 RMK AO1

2010/08/09 16:52
KUGN 091652Z 23007G16KT 10SM FEW019 27/22 A2993 RMK AO2 SLP122 T02720222

2010/08/09 17:00
LQBK 091700Z 09004KT 9999 FEW040 27/17 Q1016 NOSIG

2010/08/09 17:00
MGGT 091700Z 36012KT 9999 SCT017 BKN200 25/18 Q1025 A30.27 TCU SSE PACAYA EN ACTIVIDAD NOSIG

2010/08/09 17:00
MGGT 091700Z 36012KT 9999 SCT017 BKN200 25/18 Q1025 A30.27 TCU SSE PACAYA EN ACTIVIDAD NOSIG

2010/08/09 16:50
ESGG 091650Z 25008KT 9999 BKN025 16/13 Q1011

2010/08/09 16:50
ESGJ 091650Z 24011KT 9999 BKN013 17/14 Q1010

2010/08/09 16:50
ESGP 091650Z 26011KT 9999 OVC022 17/14 Q1011

2010/08/09 16:50
ESMK 091650Z 27008KT 9999 FEW035 19/12 Q1013

2010/08/09 16:50
ESMQ 091650Z 25009KT 9999 FEW030 BKN059 18/15 Q1012

2010/08/09 16:50
ESMS 091650Z 30008KT 9999 SCT037 19/12 Q1014

2010/08/09 16:50
ESMT 091650Z 26010KT 9999 FEW025 OVC033 17/13 Q1013

2010/08/09 16:50
ESMX 091650Z 23008KT 9999 FEW011 SCT020 OVC030 16/14 Q1012

2010/08/09 16:50
ESTA 091650Z 25011KT 9999 SCT025 BKN035 17/12 Q1013

2010/08/09 16:50
ESTL 091650Z AUTO 29011KT 9999NDV FEW031/// SCT040/// BKN046/// 17/13 Q1014

2010/08/09 16:51
KNBT 091651Z AUTO 11005KT 1 1/4SM RA BR SCT002 27/24 A3005 RMK AO2 RAB34 P0002 TSNO

2010/08/09 16:51
KSAN 091651Z VRB03KT 10SM OVC017 18/13 A2995 RMK AO2 SLP141 T01830133

2010/08/09 16:51
KSMX 091651Z 00000KT 8SM OVC006 13/11 A2995 RMK AO2 SLP145 T01330106

2010/08/09 16:51
KCON 091651Z AUTO 29008G15KT 10SM SCT055 32/16 A2994 RMK AO2 SLP135 T03220156

2010/08/09 16:51
KHSE 091651Z AUTO 14006KT 10SM SCT030 30/25 A3005 RMK AO2 SLP175 T03000250 TSNO

2010/08/09 16:51
KBVE 091651Z AUTO -RA OVC017 26/25 A3000 RMK AO2 WSHFT 1615 SLP159 P0043 T02610250 TSNO $

2010/08/09 16:51
KCRP 091651Z 17006KT 10SM FEW035 SCT044 32/24 A2994 RMK AO2 SLP138 T03220239

2010/08/09 16:51
KJCT 091651Z AUTO 19007KT 10SM CLR 32/19 A3000 RMK AO2 SLP118 T03220189 TSNO

2010/08/09 16:51
KSNT 091651Z AUTO VRB03KT 12/09 A3012 RMK AO2 SLP118 T01170089 PWINO TSNO

2010/08/09 16:51
KATT 091651Z AUTO VRB03KT 10SM CLR 33/21 A2999 RMK AO2 SLP138 T03330211

2010/08/09 16:51
KVCT 091651Z 17008KT 10SM SCT041 34/23 A2997 RMK AO2 SLP145 T03390233 PNO $

2010/08/09 16:51
KDAG 091651Z AUTO 28004KT 10SM CLR 27/M02 A2992 RMK AO2 SLP106 T02721017 TSNO

2010/08/09 16:51
KP59 091651Z AUTO 35016KT 24/21 A2987 RMK AO2 SLP106 T02390211 PWINO TSNO

2010/08/09 16:51
KNYC 091651Z AUTO 22007KT 180V250 10SM CLR 33/18 A3002 RMK AO2 SLP155 T03330183 TSNO

2010/08/09 16:51
KORF 091651Z 05006KT 10SM FEW030 30/22 A3004 RMK AO2 SLP172 T03000217

2010/08/09 16:51
KCAK 091651Z 23006KT 8SM SCT250 29/17 A3003 RMK AO2 SLP160 T02890172

2010/08/09 16:51
KABE 091651Z 26007KT 10SM FEW047 31/19 A3001 RMK AO2 SLP158 T03110194

2010/08/09 16:52
KSDB 091652Z AUTO VRB04KT 10SM CLR 22/02 A3006 RMK AO2 SLP129 T02170017 TSNO

2010/08/09 16:52
KP69 091652Z AUTO 00000KT 22/13 A2985 RMK AO2 SLP089 T02170128 PWINO TSNO

2010/08/09 16:52
KREO 091652Z AUTO 03003KT 21/11 A2995 RMK AO2 SLP111 T02110111 PWINO TSNO

2010/08/09 16:52
KBLU 091652Z AUTO 17005KT 10SM CLR 19/08 A3010 RMK AO2 SLP108 T01890078 TSNO

2010/08/09 16:50
KEHA 091650Z AUTO 24004KT 31/17 RMK AO1 PK WND 06 000 T03110173

2010/08/09 17:00
LQSA 091700Z 33007KT 300V040 9999 FEW050 26/15 Q1017 NOSIG

2010/08/09 17:00
SBCF 091700Z 28007KT CAVOK 26/05 Q1020

2010/08/09 16:50
BGSF 091650Z 22003KT 9999 SCT029 BKN045 16/11 Q1008

2010/08/09 16:50
BGJN 091650Z VRB02KT 9999 SCT100 BKN120 11/02 Q1007

2010/08/09 16:50
EDDB 091650Z 35004KT 9999 SCT040CB SCT076 20/16 Q1015 NOSIG

2010/08/09 16:50
EDDC 091650Z 30005KT 9999 FEW031 BKN100 21/14 Q1016 NOSIG

2010/08/09 16:50
EDDE 091650Z 28002KT 9999 FEW048 SCT062 BKN120 21/12 Q1017 NOSIG

2010/08/09 16:50
EDDG 091650Z 22005KT 9999 FEW040 SCT250 22/11 Q1016 NOSIG

2010/08/09 16:50
EDDP 091650Z 32004KT 9999 FEW020 BKN100 20/15 Q1016 NOSIG

2010/08/09 16:50
EDDR 091650Z 32001KT CAVOK 22/10 Q1016 NOSIG

2010/08/09 16:50
EDDW 091650Z 23004KT 9999 FEW030 BKN075 20/12 Q1016 NOSIG

2010/08/09 16:50
PTKK 091650Z VRB05KT 15SM FEW014 BKN120 OVC280 25/23 A2983 RMK SLP105 T02470234 

2010/08/09 16:50
PKMR 091650Z 06007KT 15SM SCT015 BKN045 BKN110 OVC300 28/25 A2981 RMK SLP095 T02760249 

2010/08/09 16:50
PTKK 091650Z VRB05KT 15SM FEW014 BKN120 OVC280 25/23 A2983 RMK SLP105 T02470234

2010/08/09 16:50
PKMR 091650Z 06007KT 15SM SCT015 BKN045 BKN110 OVC300 28/25 A2981 RMK SLP095 T02760249

2010/08/09 16:50
BGKK 091650Z 22013KT 9999 FEW100 BKN120 12/M00 Q1009

2010/08/09 16:50
EDDF 091650Z VRB02KT 9999 FEW046 SCT070 23/12 Q1016 NOSIG

2010/08/09 16:50
EDDH 091650Z 24002KT 9999 FEW021 SCT040 BKN130 17/14 Q1015 NOSIG

2010/08/09 16:50
EDDK 091650Z 03004KT 350V050 9999 FEW040 SCT070 BKN280 22/13 Q1016 NOSIG

2010/08/09 16:50
EDDL 091650Z 24002KT 9999 FEW040 SCT280 22/12 Q1016 NOSIG

2010/08/09 16:50
EDDM 091650Z 04005KT CAVOK 22/12 Q1017 NOSIG

2010/08/09 16:50
EDDN 091650Z 01002KT 9999 FEW035 SCT080 21/17 Q1017 NOSIG

2010/08/09 16:50
EDDS 091650Z 35004KT CAVOK 22/11 Q1016 NOSIG

2010/08/09 16:50
EDDT 091650Z 29006KT 9999 FEW035CB 22/16 Q1015 NOSIG

2010/08/09 16:50
EDDV 091650Z 29005KT 270V330 9999 FEW036 SCT076 BKN130 20/12 Q1016 NOSIG

2010/08/09 16:50
EFHK 091650Z 19011KT 9999 VCSH FEW030CB BKN050 21/15 Q1012 NOSIG

2010/08/09 16:50
EFJY 091650Z 19004KT 160V230 9999 FEW050CB BKN075 20/16 Q1010

2010/08/09 16:50
EFKU 091650Z AUTO 17010KT 9999NDV VCSH BKN083CB 21/18 Q1009

2010/08/09 16:50
EFOU 091650Z 28009KT 9999 SCT005 BKN019 19/18 Q1007

2010/08/09 16:50
EFRO 091650Z AUTO 36011KT 9999NDV SCT009 BKN011 BKN016 14/13 Q1008

2010/08/09 16:50
EFTP 091650Z 18005KT 140V230 9999 -SHRA FEW030CB BKN040 BKN070 20/16 Q1010

2010/08/09 16:50
EFTU 091650Z AUTO 18007KT 140V230 4200 -RA BKN008 BKN012 OVC015 19/18 Q1008

2010/08/09 16:50
EFVA 091650Z 23003KT 9999 FEW010 SCT023 BKN030 20/18 Q1008

2010/08/09 16:51
KNBT 091651Z AUTO 11005KT 1 1/4SM RA BR SCT002 27/24 A3005 RMK AO2 RAB34 P0002 TSNO

2010/08/09 16:50
PADL 091650Z 18015KT 5SM -RA BR SCT005 OVC012 11/09 A2951

2010/08/09 16:47
PALJ 091647Z 03006KT 30SM SCT060 BKN100 11/09 A2951 RMK EST PASS OPEN NOSPECI

2010/08/09 16:48
K4O4 091648Z AUTO 25003KT 10SM CLR 33/22 A2998 RMK AO2

2010/08/09 16:51
KADH 091651Z AUTO 20008KT 10SM SCT050 34/18 A2995 RMK AO2

2010/08/09 16:50
KAFK 091650Z AUTO 18008KT 10SM CLR 29/24 A2987 RMK AO2 T02940241

2010/08/09 16:52
KAFN 091652Z AUTO 28006KT 10SM FEW043 28/17 A3000 RMK AO2 SLP157 T02830167

2010/08/09 16:45
KALM 091645Z AUTO 34003KT 10SM CLR 27/14 A3009 RMK AO2

2010/08/09 16:50
KALN 091650Z 00000KT 7SM BKN200 33/26 A2995

2010/08/09 16:50
KANW 091650Z AUTO 07004KT 10SM CLR 27/20 A2998 RMK AO2 T02720196

2010/08/09 16:52
KAQW 091652Z AUTO VRB04KT 9SM FEW050 30/18 A2998 RMK AO2 SLP146 T03000183

2010/08/09 16:52
KARR 091652Z 00000KT 10SM CLR 26/22 A2996 RMK AO2 SLP137 T02610222

2010/08/09 16:52
KATL 091652Z 00000KT 10SM SCT048 32/21 A3005 RMK AO2 SLP164 T03170206

2010/08/09 16:50
KATS 091650Z AUTO 16009KT 10SM FEW120 27/16 A3004 RMK AO2

2010/08/09 16:50
KAUH 091650Z AUTO 08005KT 10SM CLR 29/21 A2991 RMK AO2 T02850210

2010/08/09 16:50
KAUN 091650Z AUTO 26004KT 10SM CLR 24/13 A2991 RMK AO1

2010/08/09 16:50
KAXS 091650Z AUTO 17006KT 10SM CLR 33/21 A2992 RMK AO2 T03340209

2010/08/09 16:50
KAXX 091650Z AUTO 00000KT 10SM OVC120 17/11 A3037 RMK AO2

2010/08/09 16:50
KBIE 091650Z AUTO 14005KT 10SM CLR 32/23 A2986 RMK AO2 T03150228

2010/08/09 16:52
KBIS 091652Z 19011G15KT 10SM CLR 32/19 A2988 RMK AO2 SLP104 T03170194

2010/08/09 16:52
KBLF 091652Z AUTO 25005KT 10SM CLR 29/16 A3017 RMK AO2 SLP171 T02890161

2010/08/09 16:52
KBLH 091652Z AUTO 00000KT 10SM CLR 33/03 A2983 RMK AO2 SLP093 T03280028

2010/08/09 16:52
KBML 091652Z AUTO 23006KT 10SM FEW036 25/17 A2996 RMK AO2 SLP142 T02500167

2010/08/09 16:50
KBTA 091650Z AUTO 00000KT 10SM BKN012 29/23 A2987 RMK AO2 T02860234

2010/08/09 16:50
KBVN 091650Z AUTO 03003KT 10SM CLR 27/21 A2992 RMK AO2 T02690213

2010/08/09 16:45
KBVS 091645Z AUTO 18006KT 9SM BKN010 OVC042 16/13 A2997 RMK A01 P000

2010/08/09 16:52
KCFV 091652Z AUTO 14008KT 10SM CLR 36/23 A2994 RMK AO2 SLP127 T03560228

2010/08/09 16:50
KCHK 091650Z AUTO 18010G17KT 10SM CLR 35/23 A2991 RMK AO2

2010/08/09 16:52
KCKV 091652Z AUTO 22006KT 10SM CLR 33/24 A2998 RMK AO2 SLP145 T03330239

2010/08/09 16:50
KCLK 091650Z AUTO 17008KT 10SM CLR 33/17 A2992 RMK AO2

2010/08/09 16:52
KCLT 091652Z 28003KT 10SM SCT040 BKN250 32/21 A3006 RMK AO2 SLP168 T03170211

2010/08/09 16:50
KCQB 091650Z AUTO 17008KT 10SM CLR 35/22 A2994 RMK AO2 TSNO

2010/08/09 16:52
KCQX 091652Z AUTO 22011G17KT 10SM BKN006 27/23 A3001 RMK AO2 CIG 004V010 SLP162 T02720228

2010/08/09 16:50
KCUH 091650Z AUTO 17006KT 10SM CLR 36/22 A2993 RMK AO2

2010/08/09 16:52
KCVG 091652Z 26005KT 9SM BKN250 33/18 A3002 RMK AO2 SLP153 T03280178

2010/08/09 16:52
KDCA 091652Z 17011KT 8SM SCT055 BKN250 32/20 A3000 RMK AO2 SLP159 T03220200

2010/08/09 16:52
KDDC 091652Z AUTO 15008KT 10SM CLR 34/17 A2994 RMK AO2 SLP096 T03440172

2010/08/09 16:52
KDPA 091652Z VRB04KT 10SM SCT060 BKN080 27/22 A2994 RMK AO2 SLP132 T02670217

2010/08/09 16:54
KDUC 091654Z AUTO 20006G14KT 10SM CLR 34/22 A2993 RMK AO2

2010/08/09 16:52
KDVN 091652Z AUTO 01004KT 10SM CLR 27/22 A2991 RMK AO2 RAB43E52 SLP120 P0000 T02670217

2010/08/09 16:50
KDVO 091650Z AUTO 00000KT 10SM OVC008 14/12 A2994 RMK AO2

2010/08/09 16:47
KEMT 091647Z VRB04KT 6SM HZ FEW015 A2993

2010/08/09 16:52
KEST 091652Z AUTO 16004KT 10SM OVC017 26/22 A2993 RMK AO2 SLP129 T02560222

2010/08/09 16:50
KFET 091650Z AUTO 33004KT 10SM SCT011 27/23 A2988 RMK AO2 T02700230

2010/08/09 16:52
KFIT 091652Z AUTO 27008KT 10SM CLR 31/18 A2997 RMK AO2 SLP146 T03110178

2010/08/09 16:52
KGCM 091652Z AUTO 19006KT 10SM CLR 34/23 A2998 RMK AO2

2010/08/09 16:51
KGMJ 091651Z AUTO 14004KT 10SM CLR 35/21 A2996 RMK AO2

2010/08/09 16:50
KGPM 091650Z 19004KT 10SM SKC 34/23 A2997

2010/08/09 16:50
KGTR 091650Z 00000KT 10SM FEW035 33/24 A2999

2010/08/09 16:47
KGYH 091647Z 26003KT 10SM SCT065 33/22 A3007

2010/08/09 16:50
KHDE 091650Z AUTO 05005KT 10SM CLR 28/21 A2995 RMK AO2 T02750213

2010/08/09 16:52
KHIE 091652Z AUTO VRB06KT 10SM FEW039 26/18 A2996 RMK AO2 SLP143 T02610183

2010/08/09 16:51
KSAN 091651Z VRB03KT 10SM OVC017 18/13 A2995 RMK AO2 SLP141 T01830133

2010/08/09 16:51
KEKN 091651Z AUTO VRB03KT 8SM CLR 28/19 A3010 RMK AO2 SLP182 T02780189 TSNO

2010/08/09 16:51
KELP 091651Z 00000KT 10SM FEW060 29/14 A3007 RMK AO2 SLP110 TCU DSNT NE T02890139

2010/08/09 16:51
KROW 091651Z 00000KT 10SM CLR 26/18 A3006 RMK AO2 SLP111 T02610178

2010/08/09 16:51
KSMX 091651Z 00000KT 8SM OVC006 13/11 A2995 RMK AO2 SLP145 T01330106

2010/08/09 16:51
KCON 091651Z AUTO 29008G15KT 10SM SCT055 32/16 A2994 RMK AO2 SLP135 T03220156

2010/08/09 16:51
KHSE 091651Z AUTO 14006KT 10SM SCT030 30/25 A3005 RMK AO2 SLP175 T03000250 TSNO

2010/08/09 16:51
KBVE 091651Z AUTO -RA OVC017 26/25 A3000 RMK AO2 WSHFT 1615 SLP159 P0043 T02610250 TSNO $

2010/08/09 16:51
KCRP 091651Z 17006KT 10SM FEW035 SCT044 32/24 A2994 RMK AO2 SLP138 T03220239

2010/08/09 16:51
KSNT 091651Z AUTO VRB03KT 12/09 A3012 RMK AO2 SLP118 T01170089 PWINO TSNO

2010/08/09 16:51
KATT 091651Z AUTO VRB03KT 10SM CLR 33/21 A2999 RMK AO2 SLP138 T03330211

2010/08/09 16:51
KVCT 091651Z 17008KT 10SM SCT041 34/23 A2997 RMK AO2 SLP145 T03390233 PNO $

2010/08/09 16:51
KALB 091651Z 23010G16KT 9SM SCT050 SCT110 31/18 A2996 RMK AO2 SLP144 SCT050 V FEW T03110178

2010/08/09 16:51
KBDL 091651Z 20008KT 10SM FEW065 SCT100 33/16 A2996 RMK AO2 SLP143 T03280161

2010/08/09 16:51
KBKW 091651Z AUTO 22005KT 6SM HZ CLR 27/16 A3014 RMK AO2 SLP171 T02720156

2010/08/09 16:51
KHTS 091651Z 00000KT 8SM CLR 31/20 A3004 RMK AO2 SLP164 T03060200

2010/08/09 16:48
KIZA 091648Z AUTO 00000KT 10SM OVC008 14/11 A2995 RMK AO2

2010/08/09 16:55
KLZZ 091655Z AUTO 19008KT 10SM CLR 33/20 A2998 RMK AO2

2010/08/09 16:51
KMYL 091651Z AUTO 00000KT 10SM CLR 18/09 A2998 RMK AO2 SLP109 T01830089

2010/08/09 16:51
KOXR 091651Z 27005KT 10SM FEW012 17/13 A2993 RMK AO2 SLP133 T01720128

2010/08/09 16:51
KPVD 091651Z 29007G16KT 10SM SCT045TCU SCT110 SCT300 32/18 A2998 RMK AO2 SLP151 TCU ALQDS T03170183

2010/08/09 16:51
KTEB 091651Z 21005KT 10SM FEW060 32/17 A2997 RMK AO2 SLP147 T03220172

2010/08/09 16:51
KYNG 091651Z 21005KT 10SM BKN250 29/16 A3003 RMK AO2 SLP159 T02890161

2010/08/09 16:51
KP59 091651Z AUTO 35016KT 24/21 A2987 RMK AO2 SLP106 T02390211 PWINO TSNO

2010/08/09 16:51
KNYC 091651Z AUTO 22007KT 180V250 10SM CLR 33/18 A3002 RMK AO2 SLP155 T03330183 TSNO

2010/08/09 16:51
KCAK 091651Z 23006KT 8SM SCT250 29/17 A3003 RMK AO2 SLP160 T02890172

2010/08/09 16:51
KORF 091651Z 05006KT 10SM FEW030 30/22 A3004 RMK AO2 SLP172 T03000217

2010/08/09 16:51
KABE 091651Z 26007KT 10SM FEW047 31/19 A3001 RMK AO2 SLP158 T03110194

2010/08/09 16:52
KSDB 091652Z AUTO VRB04KT 10SM CLR 22/02 A3006 RMK AO2 SLP129 T02170017 TSNO

2010/08/09 16:52
KP69 091652Z AUTO 00000KT 22/13 A2985 RMK AO2 SLP089 T02170128 PWINO TSNO

2010/08/09 16:52
KREO 091652Z AUTO 03003KT 21/11 A2995 RMK AO2 SLP111 T02110111 PWINO TSNO

2010/08/09 16:52
KBLU 091652Z AUTO 17005KT 10SM CLR 19/08 A3010 RMK AO2 SLP108 T01890078 TSNO

2010/08/09 16:52
KALS 091652Z AUTO 00000KT 10SM CLR 22/09 A3028 RMK AO2 SLP153 T02170094 $

2010/08/09 16:52
KBDR 091652Z 22008KT 9SM CLR 29/19 A2999 RMK AO2 SLP154 T02890194

2010/08/09 16:52
KCID 091652Z 00000KT 10SM CLR 27/21 A2990 RMK AO2 SLP118 T02720211

2010/08/09 16:52
KCNU 091652Z AUTO 21009KT 10SM CLR 35/22 A2993 RMK AO2 SLP121 T03500222

2010/08/09 16:52
KMFD 091652Z 23010KT 8SM CLR 29/17 A3005 RMK AO2 SLP166 T02940172

2010/08/09 16:52
KMHK 091652Z 20007KT 10SM CLR 36/21 A2985 RMK AO2 SLP094 T03560206

2010/08/09 16:52
KVTN 091652Z AUTO 09005KT 10SM CLR 28/19 A2997 RMK AO2 SLP126 T02830194

2010/08/09 16:50
KPTS 091650Z AUTO 20008KT 10SM CLR 33/21 A2994 RMK AO2 T03330210

2010/08/09 16:52
KSPS 091652Z 24010KT 10SM FEW070 36/19 A2991 RMK AO2 SLP111 P0004 T03610189

2010/08/09 16:52
KTOL 091652Z 25003KT 8SM CLR 28/19 A2998 RMK AO2 SLP146 T02830194

2010/08/09 16:50
KEHA 091650Z AUTO 24004KT 31/17 RMK AO1 PK WND 06 000 T03110173

2010/08/09 16:51
KBTL 091651Z 19006KT 3SM RA BR OVC011 22/22 A3001 RMK AO2 TSE50 P0030

2010/08/09 16:50
PAGA 091650Z AUTO 12008KT 10SM SCT008 SCT013 OVC055 13/11 A2945 RMK AO2

2010/08/09 16:48
PAJZ 091648Z AUTO 18012KT 2SM BR SCT007 BKN020 OVC028 11/10 A2955 RMK AO2 PWINO TSNO BKN V SCT $

2010/08/09 16:50
OAKB 091650Z 15007KT 9999 SCT080 BKN120 25/17 Q1012 NOSIG RMK BLU BLU

2010/08/09 16:50
BGKK 091650Z 22013KT 9999 FEW100 BKN120 12/M00 Q1009

2010/08/09 16:53
PTKR 091653Z 18005KT 12SM SCT016TCU OVC180 26/25 A2983 RMK SHRAE35 TCU ALQDS SLP102 T02610246

2010/08/09 16:50
EKKA 091650Z 28009KT 260V320 9999 FEW030 BKN038 17/11 Q1014

2010/08/09 16:50
EKSP 091650Z 27012KT 9999 FEW032 SCT220 18/11 Q1015

2010/08/09 16:50
EKCH 091650Z 29009KT 260V320 9999 FEW040 BKN210 19/11 Q1014 NOSIG

2010/08/09 16:50
EKBI 091650Z 27008KT 9999 FEW025 BKN045 17/11 Q1015

2010/08/09 16:50
EKYT 091650Z 26013KT 9999 BKN035 17/10 Q1012

2010/08/09 16:50
EKRK 091650Z AUTO 30009KT 9999NDV FEW043/// 18/10 Q1014

2010/08/09 16:50
EKAH 091650Z AUTO 27010KT 230V290 9999NDV BKN038/// 17/09 Q1014

2010/08/09 16:50
EKEB 091650Z AUTO 26010KT 230V290 9999NDV FEW029/// BKN041/// 18/11 Q1015

2010/08/09 16:50
EKRN 091650Z AUTO 28007KT 9999NDV NCD 19/14 Q1015

2010/08/09 16:51
KAHN 091651Z 31003KT 6SM HZ BKN042 BKN095 33/22 A3006 RMK AO2 SLP169 T03280217

2010/08/09 16:51
KBGD 091651Z AUTO VRB03KT 10SM CLR 33/14 A2999 RMK AO2 SLP101 T03330144

2010/08/09 16:50
KCNO 091650Z 00000KT 4SM HZ CLR A2993

2010/08/09 16:51
KCSG 091651Z 13005KT 10SM CLR 34/20 A3000 RMK AO2 SLP152 T03390200

2010/08/09 16:47
KLBE 091647Z 20005KT 15SM SCT200 28/17 A3006

2010/08/09 16:50
KLZU 091650Z 03004KT 10SM FEW042 33/22 A3006

2010/08/09 16:51
KMDW 091651Z 25003KT 9SM FEW035 SCT075 BKN150 BKN200 28/21 A2994 RMK AO2 SLP126 T02780211 PNO

2010/08/09 16:51
KORD 091651Z 23006KT 10SM FEW055 SCT150 BKN200 BKN250 27/22 A2994 RMK AO2 SLP132 T02720217

2010/08/09 16:51
KPHX 091651Z 00000KT 10SM FEW150 34/02 A2988 RMK AO2 SLP096 T03390017 $

2010/08/09 16:51
KRDU 091651Z 08003KT 9SM SCT045 32/21 A3005 RMK AO2 SLP169 T03170206

2010/08/09 16:51
KSBD 091651Z 00000KT 7SM SKC 20/11 A2992

2010/08/09 16:51
KSTL 091651Z 00000KT 9SM FEW060 SCT130 BKN200 33/24 A2995 RMK AO2 SLP127 T03280244

2010/08/09 16:52
PAKU 091652Z 06021KT 1/4SM FG VV002 03/03 A2979

2010/08/09 16:51
KJCT 091651Z AUTO 19007KT 10SM CLR 32/19 A3000 RMK AO2 SLP118 T03220189 TSNO

2010/08/09 16:47
K1F0 091647Z AUTO 21007KT 10SM CLR 35/22 A2991 RMK AO2

2010/08/09 16:58
K36U 091658Z AUTO 26005KT 10SM CLR 23/06 A3013 RMK AO2

2010/08/09 16:48
K5C1 091648Z AUTO 17003KT 10SM SCT034 31/20 A3002 RMK AO1

2010/08/09 16:51
KACT 091651Z 17011KT 10SM CLR 34/22 A2996 RMK AO2 SLP136 T03440222 $

2010/08/09 16:51
KASH 091651Z 26007G17KT 10SM SCT055 32/17 A2994 RMK AO2 T03220166 SLP141

2010/08/09 16:51
KAVX 091651Z AUTO 00000KT 10SM CLR 16/12 A2996 RMK AO2 SLP136 T01560117 TSNO

2010/08/09 16:51
KCLE 091651Z 24006KT 10SM BKN250 29/20 A3002 RMK AO2 SLP159 T02940200

2010/08/09 16:51
KCMH 091651Z 22009KT 10SM BKN200 30/18 A3003 RMK AO2 SLP160 T03000178

2010/08/09 16:51
KDAW 091651Z AUTO VRB06KT 10SM FEW055 31/17 A2992 RMK AO2 SLP127 T03110167

2010/08/09 16:51
KDUA 091651Z AUTO 18007KT 10SM CLR 35/22 A2995 RMK AO2

2010/08/09 16:51
KERI 091651Z 25005KT 8SM FEW070 SCT095 30/19 A2999 RMK AO2 SLP149 T03000189

2010/08/09 16:51
KEWR 091651Z 21007G15KT 10SM FEW055 SCT250 34/17 A2999 RMK AO2 SLP153 HAZE ALOFT T03440167

2010/08/09 16:47
KGLE 091647Z AUTO 19009G14KT 10SM CLR 35/22 A2996 RMK AO2

2010/08/09 16:52
KGLS 091652Z 16008KT 10SM SCT028 33/24 A2999 RMK AO2 SLP154 T03280244

2010/08/09 16:55
KGLY 091655Z AUTO 00000KT 9SM CLR 33/26 A2995 RMK AO2

2010/08/09 16:52
KHRL 091652Z 15009KT 10SM SCT028 33/23 A2991 RMK AO2 SLP127 T03330233

2010/08/09 16:51
KILG 091651Z 15008KT 9SM SCT038 31/22 A3002 RMK AO2 SLP164 T03110222 $

2010/08/09 16:51
KJFK 091651Z 18009KT 8SM FEW040 SCT250 29/22 A3001 RMK AO2 SLP163 T02940217

2010/08/09 16:49
KL35 091649Z AUTO 00000KT 10SM CLR 20/M13 A3017 RMK AO2

2010/08/09 16:51
KLGA 091651Z 23011KT 10SM FEW060 SCT250 33/18 A2998 RMK AO2 SLP153 T03280178

2010/08/09 16:51
KLGU 091651Z AUTO 23010G16KT 10SM FEW070 25/08 A3002 RMK AO2 LTG DSNT NW SLP111 T02500078

2010/08/09 16:50
KLRU 091650Z AUTO 00000KT 10SM CLR 26/14 A3013 RMK AO2

2010/08/09 16:51
KMPV 091651Z AUTO 00000KT 10SM BKN043 BKN050 OVC060 25/17 A3000 RMK AO2 SLP155 T02500172

2010/08/09 16:50
KONM 091650Z AUTO 02003KT 10SM CLR 28/13 A3013 RMK AO2 T02770129

2010/08/09 16:50
KONP 091650Z AUTO 35008KT 10SM OVC020 14/10 A3005 RMK AO1

2010/08/09 16:55
KPAN 091655Z AUTO 13003KT 10SM CLR 25/10 A3018 RMK AO1

2010/08/09 16:51
KPIT 091651Z 00000KT 10SM FEW140 BKN250 29/15 A3004 RMK AO2 SLP170 T02940150

2010/08/09 16:50
PHJH 091650Z 07015KT 15SM FEW035 FEW080 24/17 A3008

2010/08/09 16:51
KPWM 091651Z 30011KT 10SM FEW050 SCT100 31/18 A2991 RMK AO2 SLP129 T03060178

2010/08/09 16:51
KSJT 091651Z 16011G14KT 130V200 10SM FEW046 33/21 A2999 RMK AO2 SLP126 T03330211

2010/08/09 16:51
KSLK 091651Z AUTO 23009G16KT 7SM FEW024 BKN039 OVC060 26/19 A2997 RMK AO2 SLP140 T02560194

2010/08/09 16:51
KSMO 091651Z VRB04KT 8SM BKN013 19/13 A2993 RMK AO2 SLP135 T01890128

2010/08/09 16:51
KVNY 091651Z 00000KT 10SM CLR 20/12 A2992 RMK AO2 SLP125 T02000122

2010/08/09 16:47
KWHP 091647Z 00000KT 10SM SKC 25/

2010/08/09 16:51
KDAG 091651Z AUTO 28004KT 10SM CLR 27/M02 A2992 RMK AO2 SLP106 T02721017 TSNO

2010/08/09 16:48
KMSN 091648Z 30007KT 10SM SCT022 BKN029 26/21 A2993 RMK AO2

2010/08/09 16:50
KHJH 091650Z AUTO 07003KT 10SM CLR 33/22 A2986 RMK AO2 T03300222

2010/08/09 16:52
KHUT 091652Z 19006KT 10SM CLR 37/21 A2992 RMK AO2 SLP101 T03670206

2010/08/09 16:52
KIAD 091652Z 20005KT 9SM FEW045 BKN250 32/21 A3001 RMK AO2 SLP158 T03170211

2010/08/09 16:50
KIBM 091650Z AUTO 28012G17KT 10SM SCT090 26/15 A3010 RMK AO2 T02620148

2010/08/09 16:50
KIDP 091650Z AUTO 17005KT 10SM CLR 33/22 A2993 RMK AO2

2010/08/09 16:52
KIEN 091652Z AUTO 18009KT 10SM CLR 32/17 A2996 RMK AO2 SLP109 T03170172

2010/08/09 16:52
KIJD 091652Z AUTO VRB06KT 10SM SCT055 BKN070 31/18 A2998 RMK AO2 SLP151 T03060178

2010/08/09 16:52
KIOW 091652Z AUTO 00000KT 10SM CLR 28/23 A2990 RMK AO2 SLP119 T02780228

2010/08/09 16:52
KISN 091652Z 33005KT 10SM CLR 24/17 A2987 RMK AO2 SLP107 T02390167

2010/08/09 16:51
KJAC 091651Z 00000KT 10SM FU SCT065 BKN120 18/08 A3018

2010/08/09 16:51
KJSV 091651Z AUTO 19006KT 10SM CLR 33/22 A2996 RMK AO2

2010/08/09 16:54
KJWG 091654Z AUTO 22009KT 10SM CLR 33/23 A2994 RMK AO2

2010/08/09 16:50
KJYR 091650Z AUTO 04004KT 9SM CLR 30/24 A2989 RMK AO2

2010/08/09 16:50
KLAM 091650Z AUTO 10003KT 10SM SCT120 22/12 A3028 RMK AO2

2010/08/09 16:50
KLCG 091650Z AUTO 00000KT 5SM BR OVC005 24/22 A2991 RMK AO2 T02400221

2010/08/09 16:50
KLHM 091650Z AUTO 19004KT 10SM CLR 21/12 A2988 RMK AO1 T02100121

2010/08/09 16:52
KLWC 091652Z AUTO 20010KT 10SM FEW100 36/23 A2989 RMK AO2 SLP109 T03560233

2010/08/09 16:50
KLXN 091650Z AUTO 04006KT 10SM CLR 29/22 A2995 RMK AO2 T02850221

2010/08/09 16:52
KMDH 091652Z 00000KT 10SM SCT040 35/23 A2995 RMK AO2 SLP135 T03500233

2010/08/09 16:52
KMEB 091652Z AUTO 05007KT 10SM FEW042 32/22 A3004 RMK AO2 SLP170 T03220217

2010/08/09 16:50
KWDG 091650Z 18006KT 10SM FEW200 36/21 A2989

2010/08/09 16:48
KWWR 091648Z AUTO 17007KT 10SM CLR 35/19 A2995 RMK AO2 T03520192

2010/08/09 16:52
KMKE 091652Z 22011KT 10SM SCT019 BKN160 BKN240 27/22 A2992 RMK AO2 SLP125 T02670222

2010/08/09 16:50
KMLE 091650Z AUTO 33003KT 10SM CLR 30/22 A2985 RMK AO2 T02960223

2010/08/09 16:52
KMLI 091652Z 00000KT 10SM CLR 27/22 A2991 RMK AO2 SLP121 T02670217

2010/08/09 16:49
KMMH 091649Z AUTO 11004KT 10SM CLR 17/M01 A3018 RMK AO1

2010/08/09 16:52
KMWH 091652Z AUTO 00000KT 10SM CLR 23/12 A2983 RMK AO2 SLP094 T02330122 TSNO

2010/08/09 16:55
KOAJ 091655Z AUTO 02008KT 10SM CLR 32/21 A3004 RMK AO1

2010/08/09 16:50
KOJA 091650Z AUTO 18006KT 10SM CLR 33/21 A2993 RMK AO2

2010/08/09 16:52
KOKB 091652Z AUTO VRB04KT 9SM FEW021 22/13 A2992 RMK AO2 SLP133 T02170133

2010/08/09 16:52
KOKC 091652Z 18010KT 10SM CLR 33/22 A2993 RMK AO2 SLP115 T03330217 $

2010/08/09 16:51
KOKM 091651Z AUTO 18009KT 10SM CLR 36/24 A2995 RMK AO1

2010/08/09 16:52
KOMA 091652Z 22004KT 10SM FEW030 SCT140 SCT250 32/24 A2985 RMK AO2 SLP096 T03170244

2010/08/09 16:52
KORE 091652Z AUTO 29006G15KT 10SM FEW055 31/16 A2997 RMK AO2 SLP145 T03060161

2010/08/09 16:50
KORS 091650Z AUTO 00000KT 9SM OVC019 15/13 A2993 RMK AO2

2010/08/09 16:52
KOUN 091652Z AUTO 18010G15KT 10SM CLR 35/22 A2994 RMK AO2

2010/08/09 16:50
KPLU 091650Z AUTO 00000KT 10SM BKN008 OVC040 14/13 A2997 RMK AO2

2010/08/09 16:52
KPPF 091652Z AUTO 20006KT 10SM CLR 35/23 A2995 RMK AO2 SLP129 T03500233

2010/08/09 16:48
KPVJ 091648Z AUTO 22006KT 10SM CLR 35/22 A2994 RMK AO2

2010/08/09 16:52
KPWK 091652Z 22007KT 10SM FEW021 28/23 A2995 RMK AO2 SLP138 T02780228

2010/08/09 16:52
KPYM 091652Z AUTO 23008G16KT 10SM FEW035 32/21 A2998 RMK AO2 SLP150 T03220206

2010/08/09 16:52
KRAP 091652Z 16011KT 10SM CLR 29/18 A2995 RMK AO2 SLP111 T02940178

2010/08/09 16:51
KRKR 091651Z AUTO 22004KT 10SM CLR 37/26 A2996 RMK AO2

2010/08/09 16:52
KSGF 091652Z 21005KT 10SM CLR 33/23 A2998 RMK AO2 SLP136 T03330228

2010/08/09 16:53
KSNL 091653Z AUTO 22008KT 10SM CLR 35/22 A2995 RMK AO2

2010/08/09 16:55
KSOP 091655Z AUTO 13003KT 10SM FEW047 33/22 A3004 RMK AO1

2010/08/09 16:52
KSPI 091652Z 24005KT 10SM CLR 31/25 A2994 RMK AO2 SLP132 T03110250

2010/08/09 16:50
KSRE 091650Z AUTO 16006KT 136V196 10SM CLR 35/22 A2994 RMK AO2

2010/08/09 16:52
KSUX 091652Z 00000KT 10SM OVC011 26/23 A2988 RMK AO2 SLP111 T02610228

2010/08/09 16:45
KSVC 091645Z AUTO 00000KT 10SM CLR 27/09 A3019 RMK AO2

2010/08/09 16:52
KTAN 091652Z AUTO 20007KT 10SM BKN100 30/22 A2996 RMK AO2 SLP143 T03000222

2010/08/09 16:54
KTMK 091654Z AUTO 00000KT 10SM SCT015 OVC025 15/11 A3002 RMK AO2

2010/08/09 16:53
KTQH 091653Z AUTO 24008KT 10SM CLR 36/23 A2997 RMK AO2

2010/08/09 16:52
KTRM 091652Z AUTO 29003KT 10SM CLR 32/06 A2978 RMK AO2 SLP096 T03170056

2010/08/09 16:55
KUDG 091655Z 12004KT 10SM FEW038 32/23 A3006 RMK AO1

2010/08/09 16:52
KUGN 091652Z 23007G16KT 10SM FEW019 27/22 A2993 RMK AO2 SLP122 T02720222

2010/08/09 16:50
EKGF 091650Z 19022KT 9999 SCT020 17/16 Q1013

2010/08/09 16:50
EKHN 091650Z AUTO VRB04KT 9999NDV BKN056/// 18/14 Q1016

2010/08/09 16:50
EKHR 091650Z AUTO 23010KT 9999NDV NCD 17/12 Q1015

2010/08/09 16:50
EKSB 091650Z 27006KT 240V310 9999 FEW044 19/08 Q1014

2010/08/09 16:50
EKVD 091650Z 30009KT 9999 BKN036 18/09 Q1015 RMK LAST OBS

2010/08/09 16:50
EKOD 091650Z 25009KT 9999 SCT048 18/09 Q1014

2010/08/09 16:50
PAGA 091650Z AUTO 12008KT 10SM SCT008 SCT013 OVC055 13/11 A2945

2010/08/09 16:55
KBLV 091655Z AUTO 23003KT 10SM CLR 33/26 A2994 RMK AO2 SLP135 T03300261

2010/08/09 16:50
KBYH 091650Z 24004KT 8SM BKN250 34/26 A2996

2010/08/09 16:50
EDDB 091650Z 35004KT 9999 SCT040CB SCT076 20/16 Q1015 NOSIG

2010/08/09 16:50
EDDC 091650Z 30005KT 9999 FEW031 BKN100 21/14 Q1016 NOSIG

2010/08/09 16:50
EDDG 091650Z 22005KT 9999 FEW040 SCT250 22/11 Q1016 NOSIG

2010/08/09 16:50
EDDP 091650Z 32004KT 9999 FEW020 BKN100 20/15 Q1016 NOSIG

2010/08/09 16:50
EDDR 091650Z 32001KT CAVOK 22/10 Q1016 NOSIG

2010/08/09 16:50
EDDT 091650Z 29006KT 9999 FEW035CB 22/16 Q1015 NOSIG

2010/08/09 16:50
EDDV 091650Z 29005KT 270V330 9999 FEW036 SCT076 BKN130 20/12 Q1016 NOSIG

2010/08/09 16:50
EDDW 091650Z 23004KT 9999 FEW030 BKN075 20/12 Q1016 NOSIG

2010/08/09 16:50
EYSA 091650Z 18003KT 9999 SCT038 22/16 Q1016

2010/08/09 16:50
LXGB 091650Z 06006KT CAVOK 26/21 Q1014 NOSIG

2010/08/09 16:52
KN60 091652Z AUTO 16006KT 24/19 A2986 RMK AO1 SLP101 T02440194 

2010/08/09 16:45
KSWF 091645Z 27007KT 10SM SKC 31/17 A3002

2010/08/09 16:51
KBTL 091651Z 19006KT 3SM RA BR OVC011 22/22 A3001

2010/08/09 16:47
KGLE 091647Z AUTO 19009G14KT 10SM CLR 35/22 A2996

2010/08/09 16:45
KFWC 091645Z AUTO 00000KT 10SM CLR 32/25 A2995

2010/08/09 16:45
KLOT 091645Z AUTO 29005KT 10SM SCT060 SCT070 27/23 A2995

2010/08/09 16:45
KSAR 091645Z AUTO 00000KT 7SM CLR 33/26 A2995

2010/08/09 16:45
KSLO 091645Z AUTO 22003KT 10SM SCT029 SCT060 32/24 A2996

2010/08/09 16:45
KTAZ 091645Z AUTO 18006KT 10SM CLR 33/26 A2993

2010/08/09 16:45
KTIP 091645Z AUTO 20006KT 10SM CLR 33/27 A2996

2010/08/09 16:52
K9V9 091652Z AUTO 00000KT 27/22 A2992 RMK AO2 SLP118 T02670217 PWINO TSNO 

2010/08/09 16:50
LSGC 091650Z 29003KT 220V360 9999 FEW046 20/11 Q1019

2010/08/09 16:50
LSGS 091650Z 26014KT 9999 FEW100 27/11 Q1014

2010/08/09 16:50
LSZG 091650Z 04006KT 9999 FEW050 24/15 Q1016 NOSIG

2010/08/09 16:50
LSZR 091650Z VRB02KT CAVOK 23/12 Q1016 NOSIG RMK N

2010/08/09 16:49
KMWN 091649Z 28024KT 0SM FG VV000 11/11 RMK

2010/08/09 16:45
KMYR 091645Z 12010KT 10SM FEW022 SCT030 31/25 A3006

2010/08/09 16:52
CBBC 091652Z AUTO 34003KT 290V020 9SM OVC010 OVC020 OVC050 OVC071 A3002

2010/08/09 16:48
KIZA 091648Z AUTO 00000KT 10SM OVC008 14/11 A2995

2010/08/09 16:52
KNRB 091652Z 06010KT 10SM BKN030TCU 31/23 A2997 RMK AO2 RAB49E50 SLP149 TCU OHD P0000 T03060233 

2010/08/09 16:52
KNHK 091652Z 11010KT 6SM HZ FEW020 BKN250 30/24 A3001 RMK AO2 SLP163 T03000244 

2010/08/09 16:52
KABI 091652Z 23008KT 9SM CLR 32/22 A3000 RMK AO2 SLP127 T03220222 

2010/08/09 16:47
KLBE 091647Z 20005KT 15SM SCT200 28/17 A3006

2010/08/09 16:45
KMYR 091645Z 12010KT 10SM FEW022 SCT030 31/25 A3006

2010/08/09 16:45
KSWF 091645Z 27007KT 10SM SKC 31/17 A3002

2010/08/09 16:51
KBTL 091651Z 19006KT 3SM RA BR OVC011 22/22 A3001

2010/08/09 16:50
EDDB 091650Z 35004KT 9999 SCT040CB SCT076 20/16 Q1015 NOSIG

2010/08/09 16:50
EDDC 091650Z 30005KT 9999 FEW031 BKN100 21/14 Q1016 NOSIG

2010/08/09 16:50
EDDE 091650Z 28002KT 9999 FEW048 SCT062 BKN120 21/12 Q1017 NOSIG

2010/08/09 16:50
EDDF 091650Z VRB02KT 9999 FEW046 SCT070 23/12 Q1016 NOSIG

2010/08/09 16:50
EDDG 091650Z 22005KT 9999 FEW040 SCT250 22/11 Q1016 NOSIG

2010/08/09 16:50
EDDH 091650Z 24002KT 9999 FEW021 SCT040 BKN130 17/14 Q1015 NOSIG

2010/08/09 16:50
EDDK 091650Z 03004KT 350V050 9999 FEW040 SCT070 BKN280 22/13 Q1016 NOSIG

2010/08/09 16:50
EDDL 091650Z 24002KT 9999 FEW040 SCT280 22/12 Q1016 NOSIG

2010/08/09 16:50
EDDM 091650Z 04005KT CAVOK 22/12 Q1017 NOSIG

2010/08/09 16:50
EDDN 091650Z 01002KT 9999 FEW035 SCT080 21/17 Q1017 NOSIG

2010/08/09 16:50
EDDP 091650Z 32004KT 9999 FEW020 BKN100 20/15 Q1016 NOSIG

2010/08/09 16:50
EDDR 091650Z 32001KT CAVOK 22/10 Q1016 NOSIG

2010/08/09 16:50
EDDS 091650Z 35004KT CAVOK 22/11 Q1016 NOSIG

2010/08/09 16:50
EDDT 091650Z 29006KT 9999 FEW035CB 22/16 Q1015 NOSIG

2010/08/09 16:50
EDDV 091650Z 29005KT 270V330 9999 FEW036 SCT076 BKN130 20/12 Q1016 NOSIG

2010/08/09 16:50
EDDW 091650Z 23004KT 9999 FEW030 BKN075 20/12 Q1016 NOSIG

2010/08/09 16:50
EKBI 091650Z 27008KT 9999 FEW025 BKN045 17/11 Q1015

2010/08/09 16:50
EKKA 091650Z 28009KT 260V320 9999 FEW030 BKN038 17/11 Q1014

2010/08/09 16:50
EKRK 091650Z AUTO 30009KT 9999NDV FEW043/// 18/10 Q1014

2010/08/09 16:50
EKSP 091650Z 27012KT 9999 FEW032 SCT220 18/11 Q1015

2010/08/09 16:50
EKYT 091650Z 26013KT 9999 BKN035 17/10 Q1012

2010/08/09 17:00
LQBK 091700Z 09004KT 9999 FEW040 27/17 Q1016 NOSIG

2010/08/09 17:00
LQSA 091700Z 33007KT 300V040 9999 FEW050 26/15 Q1017 NOSIG

2010/08/09 16:50
LSGG 091650Z 27006KT 230V320 9999 FEW060 28/11 Q1015 NOSIG

2010/08/09 16:50
LSZA 091650Z 18005KT 9999 FEW050 27/17 Q1014 NOSIG

2010/08/09 16:50
LSZB 091650Z 30007KT 9999 FEW055 26/13 Q1015 NOSIG

2010/08/09 16:50
LSZH 091650Z 34004KT 300V030 9999 FEW048 25/14 Q1016 NOSIG

2010/08/09 16:50
LXGB 091650Z 06006KT CAVOK 26/21 Q1014 NOSIG

2010/08/09 16:50
EDDB 091650Z 35004KT 9999 SCT040CB SCT076 20/16 Q1015 NOSIG

2010/08/09 16:50
EDDC 091650Z 30005KT 9999 FEW031 BKN100 21/14 Q1016 NOSIG

2010/08/09 16:50
EDDE 091650Z 28002KT 9999 FEW048 SCT062 BKN120 21/12 Q1017 NOSIG

2010/08/09 16:50
EDDF 091650Z VRB02KT 9999 FEW046 SCT070 23/12 Q1016 NOSIG

2010/08/09 16:50
EDDG 091650Z 22005KT 9999 FEW040 SCT250 22/11 Q1016 NOSIG

2010/08/09 16:50
EDDH 091650Z 24002KT 9999 FEW021 SCT040 BKN130 17/14 Q1015 NOSIG

2010/08/09 16:50
EDDK 091650Z 03004KT 350V050 9999 FEW040 SCT070 BKN280 22/13 Q1016 NOSIG

2010/08/09 16:50
EDDL 091650Z 24002KT 9999 FEW040 SCT280 22/12 Q1016 NOSIG

2010/08/09 16:50
EDDM 091650Z 04005KT CAVOK 22/12 Q1017 NOSIG

2010/08/09 16:50
EDDN 091650Z 01002KT 9999 FEW035 SCT080 21/17 Q1017 NOSIG

2010/08/09 16:50
EDDP 091650Z 32004KT 9999 FEW020 BKN100 20/15 Q1016 NOSIG

2010/08/09 16:50
EDDR 091650Z 32001KT CAVOK 22/10 Q1016 NOSIG

2010/08/09 16:50
EDDS 091650Z 35004KT CAVOK 22/11 Q1016 NOSIG

2010/08/09 16:50
EDDT 091650Z 29006KT 9999 FEW035CB 22/16 Q1015 NOSIG

2010/08/09 16:50
EDDV 091650Z 29005KT 270V330 9999 FEW036 SCT076 BKN130 20/12 Q1016 NOSIG

2010/08/09 16:50
EDDW 091650Z 23004KT 9999 FEW030 BKN075 20/12 Q1016 NOSIG

2010/08/09 16:50
EKBI 091650Z 27008KT 9999 FEW025 BKN045 17/11 Q1015

2010/08/09 16:50
EKEB 091650Z AUTO 26010KT 230V290 9999NDV FEW029/// BKN041/// 18/11 Q1015

2010/08/09 16:50
EKKA 091650Z 28009KT 260V320 9999 FEW030 BKN038 17/11 Q1014

2010/08/09 16:50
EKRK 091650Z AUTO 30009KT 9999NDV FEW043/// 18/10 Q1014

2010/08/09 16:50
EKRN 091650Z AUTO 28007KT 9999NDV NCD 19/14 Q1015

2010/08/09 16:50
EKSP 091650Z 27012KT 9999 FEW032 SCT220 18/11 Q1015

2010/08/09 16:50
EKYT 091650Z 26013KT 9999 BKN035 17/10 Q1012

2010/08/09 16:50
LSGG 091650Z 27006KT 230V320 9999 FEW060 28/11 Q1015 NOSIG

2010/08/09 16:50
LSZA 091650Z 18005KT 9999 FEW050 27/17 Q1014 NOSIG

2010/08/09 16:50
LSZB 091650Z 30007KT 9999 FEW055 26/13 Q1015 NOSIG

2010/08/09 16:50
LSZH 091650Z 34004KT 300V030 9999 FEW048 25/14 Q1016 NOSIG

2010/08/09 16:52
KCZZ 091652Z AUTO 24006KT 25/M05 A2992 RMK AO2 SLP105 T02501050 PWINO TSNO 

2010/08/09 16:50
BGKK 091650Z 22013KT 9999 FEW100 BKN120 12/M00 Q1009

2010/08/09 16:50
ESGG 091650Z 25008KT 9999 BKN025 16/13 Q1011

2010/08/09 16:50
ESGJ 091650Z 24011KT 9999 BKN013 17/14 Q1010

2010/08/09 16:50
ESGP 091650Z 26011KT 9999 OVC022 17/14 Q1011

2010/08/09 16:50
ESMK 091650Z 27008KT 9999 FEW035 19/12 Q1013

2010/08/09 16:50
ESMQ 091650Z 25009KT 9999 FEW030 BKN059 18/15 Q1012

2010/08/09 16:50
ESMS 091650Z 30008KT 9999 SCT037 19/12 Q1014

2010/08/09 16:50
ESMT 091650Z 26010KT 9999 FEW025 OVC033 17/13 Q1013

2010/08/09 16:50
ESMX 091650Z 23008KT 9999 FEW011 SCT020 OVC030 16/14 Q1012

2010/08/09 16:50
ESTA 091650Z 25011KT 9999 SCT025 BKN035 17/12 Q1013

2010/08/09 16:50
ESTL 091650Z AUTO 29011KT 9999NDV FEW031/// SCT040/// BKN046/// 17/13 Q1014

2010/08/09 16:50
BGSF 091650Z 22003KT 9999 SCT029 BKN045 16/11 Q1008

2010/08/09 16:50
BGJN 091650Z VRB02KT 9999 SCT100 BKN120 11/02 Q1007

2010/08/09 16:50
EKSB 091650Z 27006KT 240V310 9999 FEW044 19/08 Q1014

2010/08/09 16:50
EKVD 091650Z 30009KT 9999 BKN036 18/09 Q1015 RMK LAST OBS

2010/08/09 16:50
EKOD 091650Z 25009KT 9999 SCT048 18/09 Q1014

2010/08/09 16:50
EKKA 091650Z 28009KT 260V320 9999 FEW030 BKN038 17/11 Q1014

2010/08/09 16:50
EKSP 091650Z 27012KT 9999 FEW032 SCT220 18/11 Q1015

2010/08/09 16:50
EFHK 091650Z 19011KT 9999 VCSH FEW030CB BKN050 21/15 Q1012 NOSIG

2010/08/09 16:50
EFJY 091650Z 19004KT 160V230 9999 FEW050CB BKN075 20/16 Q1010

2010/08/09 16:50
EFKU 091650Z AUTO 17010KT 9999NDV VCSH BKN083CB 21/18 Q1009

2010/08/09 16:50
EFOU 091650Z 28009KT 9999 SCT005 BKN019 19/18 Q1007

2010/08/09 16:50
EFRO 091650Z AUTO 36011KT 9999NDV SCT009 BKN011 BKN016 14/13 Q1008

2010/08/09 16:50
EFTP 091650Z 18005KT 140V230 9999 -SHRA FEW030CB BKN040 BKN070 20/16 Q1010

2010/08/09 16:50
EFTU 091650Z AUTO 18007KT 140V230 4200 -RA BKN008 BKN012 OVC015 19/18 Q1008

2010/08/09 16:50
EFVA 091650Z 23003KT 9999 FEW010 SCT023 BKN030 20/18 Q1008

2010/08/09 16:50
EKGF 091650Z 19022KT 9999 SCT020 17/16 Q1013

2010/08/09 16:50
EKHN 091650Z AUTO VRB04KT 9999NDV BKN056/// 18/14 Q1016

2010/08/09 16:50
EKHR 091650Z AUTO 23010KT 9999NDV NCD 17/12 Q1015

2010/08/09 16:50
EKCH 091650Z 29009KT 260V320 9999 FEW040 BKN210 19/11 Q1014 NOSIG

2010/08/09 16:50
EKBI 091650Z 27008KT 9999 FEW025 BKN045 17/11 Q1015

2010/08/09 16:50
EKYT 091650Z 26013KT 9999 BKN035 17/10 Q1012

2010/08/09 16:50
EKRK 091650Z AUTO 30009KT 9999NDV FEW043/// 18/10 Q1014

2010/08/09 16:50
EKAH 091650Z AUTO 27010KT 230V290 9999NDV BKN038/// 17/09 Q1014

2010/08/09 16:50
EKEB 091650Z AUTO 26010KT 230V290 9999NDV FEW029/// BKN041/// 18/11 Q1015

2010/08/09 16:50
EKRN 091650Z AUTO 28007KT 9999NDV NCD 19/14 Q1015

2010/08/09 17:00
LQSA 091700Z 33007KT 300V040 9999 FEW050 26/15 Q1017 NOSIG

2010/08/09 16:50
PAGA 091650Z AUTO 12008KT 10SM SCT008 SCT013 OVC055 13/11 A2945

2010/08/09 17:00
SBBR 091700Z 07009KT CAVOK 29/M03 Q1022

2010/08/09 17:00
SPIM 091700Z 18006KT 6000 FEW013 OVC017 17/12 Q1018 NOSIG RMK BIRD HAZARD RWY 15 PP000

2010/08/09 16:55
KRDR 091655Z AUTO 22008KT 10SM CLR 33/17 A2985 RMK AO2 SLP118 T03310169 TSNO $

2010/08/09 16:50
MSLP 091650Z 11002KT 9999 FEW027 BKN300 32/24 Q1012 A2989

2010/08/09 17:00
SBBR 091700Z 07009KT CAVOK 29/M03 Q1022

2010/08/09 17:00
SPIM 091700Z 18006KT 6000 FEW013 OVC017 17/12 Q1018 NOSIG RMK BIRD HAZARD RWY 15 PP000

2010/08/09 17:00
MHLC 091700Z 01006KT 9999 SCT024TCU BKN250 31/25 Q1013 A2991NOSIG

2010/08/09 16:45
MMAS 091645Z 00000KT 10SM BKN020TCU BKN200 22/15 A3018 RMK 8/202

2010/08/09 16:48
MMEP 091648Z 00000KT 12SM BKN250 27/17 A3009 RMK 8/008 ISOL SC

2010/08/09 16:46
MMGL 091646Z 00000KT 6SM BKN020TCU 22/17 A3015 RMK 8/200 SC-CI

2010/08/09 16:45
MMIA 091645Z 00000KT 8SM SCT220 26/19 A2997 RMK 8/001

2010/08/09 16:46
MMMM 091646Z 00000KT 5SM BKN025 23/16 A3022 RMK 8/400 HZY

2010/08/09 16:48
MMMX 091648Z 36004KT 4SM SCT025TCU BKN200 22/13 A3032 NOSIG RMK 8/202 HZY AC

2010/08/09 16:46
MMPR 091646Z 36006KT 15SM OVC230 31/22 A2985 RMK 8/007

2010/08/09 16:50
MSSS 091650Z 12003KT 9999 FEW027 BKN300 28/23 Q1016 A3002

2010/08/09 16:50
HLLM 091650Z 03008KT 8000 FEW020 27/18 Q1015

2010/08/09 16:54
CYHU 091654Z AUTO 25009KT 9SM SCT017 BKN022 25/22 A2991 RMK SLP129 DENSITY ALT 1200FT RVR MISG

2010/08/09 17:00
ORSU 091700Z 30008KT 9999 FEW045 30/M03 Q1007 

2010/08/09 16:52
KP69 091652Z AUTO 00000KT 22/13 A2985 RMK AO2 SLP089 T02170128 PWINO TSNO 

2010/08/09 16:53
KMGM 091653Z 08010G14KT 10SM CLR 34/22 A2999 RMK AO2 SLP150 T03390217 

2010/08/09 16:53
KBTR 091653Z VRB05KT 10SM SCT030 SCT050 SCT070 33/25 A2998 RMK AO2 SLP149 T03330250 

2010/08/09 16:53
KTRI 091653Z 28005KT 10SM FEW050 SCT150 32/19 A3009 RMK AO2 SLP172 T03170194 

2010/08/09 16:53
KDAB 091653Z 10008G16KT 10SM SCT022 SCT110 31/24 A2995 RMK AO2 SLP140 T03110244 

2010/08/09 16:54
CYFC 091654Z AUTO 20011KT 2 1/2SM RA BR BKN009 OVC014 20/19 A2990 RMK SLP125 DENSITY ALT 600FT PCPN 0.5MM PAST HR VIS VRB 1 3/4-3 RVR MISG

2010/08/09 16:53
KOQT 091653Z AUTO 26004KT 10SM CLR 32/23 A3007 RMK AO2 SLP162 T03170228 TSNO 

2010/08/09 16:53
KFAR 091653Z 20008KT 10SM CLR 29/20 A2989 RMK AO2 SLP117 T02890200 

2010/08/09 16:53
KMCN 091653Z 10009KT 9SM CLR 33/21 A3002 RMK AO2 SLP160 T03330206 

2010/08/09 16:53
KTYS 091653Z 25005KT 9SM FEW036 SCT070 32/23 A3005 RMK AO2 SLP163 T03170228 

2010/08/09 16:53
KGNT 091653Z AUTO VRB04KT 22/13 A3026 RMK AO2 SLP160 T02220128 PWINO TSNO 

2010/08/09 16:53
KMSY 091653Z 34008KT 10SM SCT060 33/26 A2999 RMK AO2 SLP159 T03280256 

2010/08/09 16:53
KTUP 091653Z 01006KT 10SM FEW027 34/25 A2999 RMK AO2 SLP151 T03390250 

2010/08/09 16:53
KNUI 091653Z AUTO 13008KT 10SM CLR 31/21 A3001 RMK AO2 SLP162 T03060211 

2010/08/09 16:53
KRNM 091653Z 30006KT 10SM CLR 21/09 A2993 RMK AO2 SLP125 T02060094 

2010/08/09 16:53
KHTL 091653Z AUTO 26004KT 10SM FEW021 26/21 A2991 RMK AO2 SLP124 T02560211 

2010/08/09 16:53
KP68 091653Z AUTO 19009KT 24/M03 A3008 RMK AO2 SLP099 T02441028 PWINO TSNO 

2010/08/09 16:53
KCQC 091653Z AUTO 31009KT 10SM CLR 24/11 A3025 RMK AO2 SLP139 T02390111 TSNO 

2010/08/09 16:51
KGDP 091651Z AUTO 24011KT 10SM SCT095 26/14 A3020 RMK AO2 SLP142 T02610144 TSNO 

2010/08/09 16:53
KSAV 091653Z 06010G18KT 10SM FEW030 SCT250 34/21 A3000 RMK AO2 SLP158 T03390206 

2010/08/09 17:00
FAJS 091700Z 22015KT CAVOK 09/M10 Q1026 NOSIG

2010/08/09 16:53
KCNO 091653Z 00000KT 10SM 20/13 A2993 RMK AO2 SLP132 T02000128 $

2010/08/09 16:53
KCOT 091653Z AUTO 00000KT 10SM CLR 32/21 A2995 RMK AO2 SLP133 T03220211

2010/08/09 16:53
KCRQ 091653Z 16003KT 10SM CLR 19/13 A2993 RMK AO2 SLP131 T01940128

2010/08/09 16:53
KCSV 091653Z AUTO 00000KT 10SM SCT036 31/22 A3011 RMK AO2 SLP168 T03060217

2010/08/09 16:53
KCXO 091653Z 17007KT 140V200 10SM CLR 33/24 A2998 RMK AO2 SLP147 T03330239

2010/08/09 16:53
KDAN 091653Z AUTO 22005KT 8SM CLR 34/21 A3004 RMK AO2 SLP162 T03390206

2010/08/09 16:53
KDBQ 091653Z 28009KT 10SM FEW010 25/22 A2995 RMK AO2 SLP135 T02500222

2010/08/09 16:53
KDCU 091653Z AUTO 09004KT 9SM FEW045 34/22 A3001 RMK AO2 SLP154 T03390217

2010/08/09 16:53
KDEW 091653Z AUTO 15005KT 10SM CLR 20/12 A2988 RMK AO2 SLP110 T02000117

2010/08/09 16:53
KDHT 091653Z AUTO 00000KT 10SM CLR 30/16 A3004 RMK AO2 SLP106 T03000161

2010/08/09 16:53
KDLS 091653Z AUTO 32016G21KT 10SM CLR 22/09 A2986 RMK AO2 SLP110 T02220089

2010/08/09 16:53
KDMN 091653Z AUTO 00000KT 10SM CLR 27/12 A3010 RMK AO2 SLP112 T02720122

2010/08/09 16:53
KDNL 091653Z AUTO 02006G14KT 10SM SCT044 33/21 A3004 RMK AO2 SLP167 T03330206 $

2010/08/09 16:53
KDRT 091653Z AUTO 14011KT 10SM BKN024 30/22 A2995 RMK AO2 SLP124 T03000222

2010/08/09 16:53
KDVT 091653Z 00000KT 10SM CLR 33/03 A2990 RMK AO2 SLP096 T03330028

2010/08/09 16:53
KDWH 091653Z 00000KT 10SM FEW037 33/24 A2997 RMK AO2 SLP147 T03280244

2010/08/09 16:55
KDYB 091655Z AUTO 02009KT 10SM CLR 32/22 A3001 RMK AO1 LTG DSNT SE

2010/08/09 16:53
KEET 091653Z AUTO 16005KT 10SM CLR 33/22 A3002 RMK AO2 SLP155 T03330222

2010/08/09 16:53
KELN 091653Z AUTO 31013G24KT 10SM CLR 22/11 A2985 RMK AO2 SLP099 T02170106

2010/08/09 16:53
KENW 091653Z 24005KT 10SM CLR 27/22 A2994 RMK AO2 SLP132 T02670222

2010/08/09 16:53
KEPH 091653Z AUTO 14004KT 10SM CLR 23/11 A2982 RMK AO2 SLP088 T02330106

2010/08/09 16:53
KEQY 091653Z AUTO 00000KT 10SM FEW042 32/22 A3005 RMK AO2 SLP172 T03220217

2010/08/09 16:53
KESF 091653Z AUTO 25003KT 10SM CLR 34/23 A2998 RMK AO2 SLP149 T03390228

2010/08/09 16:53
KFAT 091653Z 18004KT 10SM CLR 23/13 A2989 RMK AO2 SLP117 T02330128

2010/08/09 16:53
KFAY 091653Z AUTO 08007KT 10SM CLR 34/19 A3003 RMK AO2 SLP161 T03440194

2010/08/09 16:53
KFCM 091653Z 00000KT 10SM CLR 32/21 A2990 RMK AO2 SLP120 T03170206

2010/08/09 16:53
KFFC 091653Z AUTO 00000KT 9SM SCT046 SCT055 33/21 A3005 RMK AO2 SLP166 T03280211

2010/08/09 16:53
KFHR 091653Z AUTO 11003KT 10SM OVC016 14/12 A2996 RMK AO2 SLP147 T01440117

2010/08/09 16:53
KFMN 091653Z 26008KT 10SM CLR 26/11 A3018 RMK AO2 SLP155 T02560106

2010/08/09 16:53
KFSM 091653Z 00000KT 10SM CLR 35/22 A2995 RMK AO2 SLP135 T03500222

2010/08/09 16:53
KFST 091653Z AUTO 15009KT 10SM CLR 30/20 A3002 RMK AO2 SLP112 T03000200

2010/08/09 16:53
KFTY 091653Z 00000KT 7SM CLR 33/21 A3004 RMK AO2 SLP162 T03280211

2010/08/09 16:53
KFUL 091653Z 00000KT 6SM HZ CLR 19/12 A2992 RMK AO2 SLP132 T01940122

2010/08/09 16:53
KFYV 091653Z VRB04KT 10SM CLR 33/21 A3000 RMK AO2 SLP140 T03330211

2010/08/09 16:53
KGEG 091653Z 18007KT 10SM FEW050 SCT080 SCT200 22/10 A2988 RMK AO2 SLP102 T02170100

2010/08/09 16:53
KGLH 091653Z 32008KT 10SM CLR 36/24 A2995 RMK AO2 SLP147 T03610239

2010/08/09 16:53
KGLR 091653Z AUTO 09004KT 6SM HZ FEW015 SCT038 25/22 A2991 RMK AO2 SLP121 T02500217

2010/08/09 16:53
KGMU 091653Z VRB04KT 10SM CLR 32/21 A3008 RMK AO2 SLP172 T03170206

2010/08/09 16:53
KGPT 091653Z AUTO 04008KT 10SM SCT033 35/25 A2997 RMK AO2 LTG DSNT SW SLP149 T03500250

2010/08/09 16:53
KGRB 091653Z VRB05KT 9SM FEW021 BKN028 29/23 A2988 RMK AO2 SLP113 T02890228

2010/08/09 16:53
KGRI 091653Z 08005KT 10SM CLR 28/21 A2992 RMK AO2 SLP113 T02830211

2010/08/09 16:53
KGRR 091653Z 19007KT 10SM FEW060 25/22 A2994 RMK AO2 RAB1556E50 SLP134 P0000 T02500222

2010/08/09 16:53
KGSH 091653Z AUTO 00000KT 8SM 28/21 A2999 RMK AO2 SLP147 T02830206 PWINO $

2010/08/09 16:53
KGSP 091653Z 29003KT 10SM CLR 32/22 A3006 RMK AO2 SLP164 T03170217

2010/08/09 16:53
KGUP 091653Z AUTO 00000KT 10SM CLR 22/12 A3026 RMK AO2 SLP098 T02220122

2010/08/09 16:53
KGVL 091653Z AUTO 00000KT 10SM CLR 31/21 A3010 RMK AO2 SLP174 T03110211

2010/08/09 16:53
KGWO 091653Z AUTO VRB03KT 10SM FEW041 35/24 A2996 RMK AO2 SLP143 T03500244

2010/08/09 16:53
KHBG 091653Z AUTO 02004KT 10SM SCT028 33/24 A3000 RMK AO2 SLP154 T03330244 $

2010/08/09 16:53
KHEI 091653Z AUTO 17017G23KT 10SM CLR 31/17 A2990 RMK AO2 SLP101 T03110172

2010/08/09 16:53
KHGR 091653Z 00000KT 9SM CLR 32/15 A3001 RMK AO2 SLP164 T03170150

2010/08/09 16:53
KHHR 091653Z 23003KT 7SM BKN017 19/13 A2993 RMK AO2 SLP135 T01890133 $

2010/08/09 16:53
KHIB 091653Z AUTO 13004KT 10SM CLR 27/22 A2993 RMK AO2 SLP131 T02720222

2010/08/09 16:53
KHIO 091653Z VRB03KT 10SM OVC024 14/09 A3001 RMK AO2 SLP159 T01440089

2010/08/09 16:53
KHJO 091653Z AUTO 00000KT 10SM CLR 22/13 A2989 RMK AO2 SLP120 T02220133

2010/08/09 16:53
KHKA 091653Z AUTO 19004KT 7SM CLR 33/26 A2997 RMK AO2 SLP144 T03280256

2010/08/09 16:53
KHKS 091653Z 00000KT 10SM CLR 34/24 A2999 RMK AO2 SLP145 T03440244

2010/08/09 16:53
KHKY 091653Z 00000KT 9SM CLR 31/22 A3007 RMK AO2 SLP158 T03060222

2010/08/09 16:53
KHLG 091653Z VRB04KT 10SM CLR 31/15 A3005 RMK AO2 SLP168 T03060150

2010/08/09 16:53
KHOT 091653Z AUTO 17004KT 10SM CLR 35/23 A2998 RMK AO2 SLP144 T03500228

2010/08/09 16:53
KHOU 091653Z 16004KT 10SM SCT035 33/22 A2996 RMK AO2 SLP150 T03330222

2010/08/09 16:53
KHQM 091653Z AUTO 25006KT 7SM OVC004 13/12 A3000 RMK AO2 CIG 004V007 SLP161 T01330122

2010/08/09 16:53
KHRI 091653Z AUTO 26010KT 10SM CLR 22/07 A2986 RMK AO2 SLP105 T02170072

2010/08/09 16:53
KHRO 091653Z AUTO 00000KT 10SM CLR 33/22 A3001 RMK AO2 SLP144 T03330222

2010/08/09 16:53
KHSI 091653Z AUTO 07005KT 10SM CLR 28/22 A2992 RMK AO2 SLP110 T02830222

2010/08/09 16:53
KHSV 091653Z 00000KT 10SM BKN043TCU BKN110 34/22 A3001 RMK AO2 SLP152 TCU OHD T03390222

2010/08/09 16:53
KHYR 091653Z AUTO 00000KT 10SM FEW029 29/21 A2994 RMK AO2 SLP130 T02940206

2010/08/09 16:53
KIAH 091653Z 26004KT 10SM SCT031 BKN250 34/24 A2997 RMK AO2 SLP149 T03390239

2010/08/09 16:53
KICR 091653Z AUTO 08003KT 10SM CLR 29/21 A2994 RMK AO2 SLP119 T02940211 TSNO

2010/08/09 16:53
KILM 091653Z AUTO 13007KT 10SM SCT027 31/23 A3003 RMK AO2 SLP168 T03060228 TSNO

2010/08/09 16:53
KIPL 091653Z AUTO 01004KT 10SM CLR 32/07 A2980 RMK AO2 SLP090 T03220072

2010/08/09 16:53
KJBR 091653Z AUTO 00000KT 10SM CLR 34/24 A2995 RMK AO2 SLP139 T03390239

2010/08/09 16:55
KJZI 091655Z AUTO 06011G16KT 10SM BKN025 BKN036 BKN050 31/31 A3000 RMK A02 P000

2010/08/09 16:50
KLAL 091650Z 10008KT 9SM BKN022 31/24 A2992

2010/08/09 16:53
KLBX 091653Z AUTO 00000KT 10SM FEW040 33/25 A2997 RMK AO2 SLP149 T03330250

2010/08/09 16:53
KLCH 091653Z 29004KT 10SM SCT036 33/24 A2997 RMK AO2 SLP157 T03330239

2010/08/09 16:53
KLFK 091653Z AUTO 20005KT 10SM SCT037 33/23 A2999 RMK AO2 SLP149 T03330228

2010/08/09 16:53
KLFT 091653Z 30004KT 10SM FEW050 34/25 A2998 RMK AO2 SLP151 T03390250

2010/08/09 16:53
KLGB 091653Z 00000KT 6SM HZ OVC016 19/13 A2993 RMK AO2 SLP136 T01940133

2010/08/09 16:53
KLIT 091653Z 35004KT 10SM FEW050 BKN250 36/23 A2995 RMK AO2 SLP141 T03610233

2010/08/09 16:55
KLKR 091655Z AUTO 00000KT 7SM CLR 33/24 A3005 RMK AO2

2010/08/09 16:53
KLLQ 091653Z AUTO 24003KT 10SM CLR 34/24 A2998 RMK AO2 SLP146 T03440239

2010/08/09 16:53
KLMT 091653Z 00000KT 10SM FEW050 SCT100 19/09 A2998 RMK AO2 SLP113 T01940094

2010/08/09 16:53
KLOL 091653Z AUTO 19005KT 10SM CLR 26/06 A2998 RMK AO2 SLP105 T02610061

2010/08/09 16:53
KLSE 091653Z 27004KT 10SM SCT019 BKN090 29/23 A2991 RMK AO2 SLP117 T02890228

2010/08/09 16:53
KLVJ 091653Z AUTO 00000KT 10SM CLR 33/23 A2998 RMK AO2 SLP152 T03280233

2010/08/09 16:53
KLVK 091653Z 00000KT 10SM FEW014 17/12 A2990 RMK AO2 SLP123 T01720122 $

2010/08/09 16:53
KLVS 091653Z AUTO 35004KT 10SM BKN100 24/11 A3023 RMK AO2 SLP117 T02390106

2010/08/09 16:53
KMAE 091653Z AUTO 30007KT 10SM CLR 23/13 A2988 RMK AO2 SLP117 T02280133

2010/08/09 16:53
KMCB 091653Z AUTO 33006KT 10SM CLR 33/23 A2999 RMK AO2 SLP148 T03330233

2010/08/09 16:53
KMCE 091653Z AUTO 30005KT 10SM CLR 21/13 A2988 RMK AO2 SLP117 T02110128

2010/08/09 16:53
KABR 091653Z AUTO 19007KT 10SM CLR 30/19 A2991 RMK AO2 SLP121 T03000194

2010/08/09 16:53
KACV 091653Z AUTO 30004KT 10SM OVC005 12/12 A2995 RMK AO2 CIG 002V010 SLP146 T01220117

2010/08/09 16:53
KAEX 091653Z 02004KT 10SM CLR 34/22 A2996 RMK AO2 SLP147 T03440222

2010/08/09 16:53
KAGS 091653Z 06004KT 9SM CLR 33/22 A3002 RMK AO2 SLP162 T03280222

2010/08/09 16:53
KALI 091653Z AUTO 19006KT 10SM FEW032 SCT044 33/24 A2994 RMK AO2 SLP136 T03280244

2010/08/09 16:53
KALW 091653Z 26009G17KT 10SM CLR 23/07 A2987 RMK AO2 SLP108 T02330067

2010/08/09 16:53
KAMA 091653Z 19012KT 10SM CLR 31/16 A3003 RMK AO2 SLP107 T03060161

2010/08/09 16:53
KAMW 091653Z AUTO 14008KT 10SM CLR 28/23 A2991 RMK AO2 SLP118 T02780233

2010/08/09 16:53
KANB 091653Z AUTO 09003KT 10SM CLR 33/22 A3003 RMK AO2 SLP156 T03280217

2010/08/09 16:53
KAOO 091653Z AUTO 00000KT 10SM CLR 29/15 A3007 RMK AO2 SLP172 T02890150

2010/08/09 16:53
KASD 091653Z AUTO 01007KT 10SM CLR 33/26 A2997 RMK AO2 LTG DSNT SE SLP150 T03280256

2010/08/09 16:53
KASX 091653Z AUTO VRB03KT 10SM CLR 27/23 A2992 RMK AO2 SLP129 T02720228

2010/08/09 16:53
KATY 091653Z AUTO 15006KT 10SM CLR 30/18 A2994 RMK AO2 SLP127 T03000183

2010/08/09 16:53
KAUS 091653Z 16009KT 110V190 10SM FEW045 33/21 A2998 RMK AO2 SLP137 T03330206

2010/08/09 16:53
KAWM 091653Z AUTO VRB04KT 10SM SCT065 33/26 A2996 RMK AO2 SLP138 T03280256

2010/08/09 16:53
KAXN 091653Z AUTO 27003KT 10SM CLR 29/18 A2996 RMK AO2 SLP137 T02890183

2010/08/09 16:53
KAZO 091653Z 13003KT 3SM RA BR BKN016 OVC070 22/21 A2999 RMK AO2 TSB19E32 SLP149 P0044 T02220211

2010/08/09 16:53
KBDE 091653Z AUTO 10003KT 10SM CLR 28/21 A2988 RMK AO2 SLP116 T02780206

2010/08/09 16:53
KBEH 091653Z AUTO 14006KT 10SM SCT041 BKN100 24/22 A2996 RMK AO2 RAB07E25 SLP139 P0000 T02440222

2010/08/09 16:53
KBFD 091653Z AUTO VRB04KT 10SM FEW095 26/14 A3008 RMK AO2 SLP168 T02610144

2010/08/09 16:53
KBFI 091653Z 16004KT 10SM BKN012 OVC017 16/12 A2997 RMK AO2 SLP148 T01560122

2010/08/09 16:53
KBFM 091653Z 00000KT 10SM FEW031 32/24 A3000 RMK AO2 SLP159 TCU DSNT S T03170244

2010/08/09 16:53
KBHM 091653Z 11004KT 10SM FEW047 34/21 A3003 RMK AO2 SLP159 T03390211

2010/08/09 16:53
KBIV 091653Z AUTO 19009KT 10SM FEW008 26/23 A2994 RMK AO2 RAE20 SLP133 P0004 T02610228

2010/08/09 16:53
KBKE 091653Z AUTO 30005KT 10SM CLR 21/09 A2993 RMK AO2 SLP114 T02110089

2010/08/09 16:53
KBLI 091653Z 17008KT 10SM FEW007 SCT055 15/12 A2995 RMK AO2 SLP147 T01500122

2010/08/09 16:53
KBMQ 091653Z AUTO VRB06KT 10SM CLR 32/19 A3002 RMK AO2 SLP143 T03170189 $

2010/08/09 16:53
KBNA 091653Z 25005KT 10SM SCT039 SCT060 BKN200 33/23 A3000 RMK AO2 SLP149 T03280233

2010/08/09 16:53
KBPK 091653Z AUTO 25003KT 8SM CLR 32/24 A2998 RMK AO2 SLP139 T03220244

2010/08/09 16:53
KBPT 091653Z 27004KT 10SM SCT032 BKN048 32/24 A2997 RMK AO2 SLP150 T03220244

2010/08/09 16:53
KBRD 091653Z AUTO 00000KT 10SM CLR 29/17 A2994 RMK AO2 SLP130 T02890172

2010/08/09 16:53
KBRO 091653Z 16010KT 10SM BKN034 BKN044 34/24 A2992 RMK AO2 SLP130 T03440239

2010/08/09 16:53
KBTL 091653Z 19006KT 3SM RA BR OVC011 22/21 A3001 RMK AO2 TSE50 SLP157 P0031 T02220211

2010/08/09 16:53
KBUR 091653Z 00000KT 10SM CLR 19/12 A2992 RMK AO2 SLP122 T01940122

2010/08/09 16:53
KBWG 091653Z AUTO 00000KT 10SM CLR 33/23 A2999 RMK AO2 SLP149 T03330228

2010/08/09 16:53
KCCR 091653Z 21004KT 10SM OVC014 17/12 A2992 RMK AO2 SLP117 T01670117

2010/08/09 16:55
KCDN 091655Z AUTO 08005KT 10SM SCT043 34/23 A3005 RMK A02 P000

2010/08/09 16:53
KCHO 091653Z 25008KT 8SM FEW043 32/21 A3003 RMK AO2 SLP160 T03220211

2010/08/09 16:55
KCKI 091655Z AUTO 07007KT 10SM CLR 31/20 A3002 RMK AO2 LTG DSNT E

2010/08/09 16:53
KCLL 091653Z 18007KT 10SM FEW035 SCT047 33/22 A2998 RMK AO2 SLP148 T03280222

2010/08/09 16:53
KCLM 091653Z AUTO 33007KT 10SM BKN008 14/12 A2997 RMK AO2 SLP149 T01440117

2010/08/09 16:53
KCMI 091653Z 18006KT 10SM CLR 31/24 A2996 RMK AO2 SLP136 T03110244

2010/08/09 16:53
KCNM 091653Z AUTO 14004KT 10SM CLR 27/19 A3003 RMK AO2 SLP114 T02670189

2010/08/09 16:53
KMEM 091653Z 23004KT 10SM FEW040 SCT130 BKN250 34/24 A2997 RMK AO2 SLP144 T03440244

2010/08/09 16:55
KMEZ 091655Z AUTO 00000KT 10SM SCT049 BKN055 35/21 A3000 RMK AO2

2010/08/09 16:53
KMFE 091653Z AUTO 15009KT 10SM FEW030 33/24 A2992 RMK AO2 SLP130 T03280239 TSNO

2010/08/09 16:53
KMFR 091653Z 28004KT 10SM CLR 21/12 A2993 RMK AO2 SLP125 T02060117

2010/08/09 16:53
KMGW 091653Z 00000KT 10SM CLR 29/16 A3007 RMK AO2 SLP171 T02940161

2010/08/09 16:53
KMHE 091653Z AUTO 03004KT 10SM CLR 28/23 A2990 RMK AO2 SLP116 T02830228 TSNO

2010/08/09 16:53
KMIC 091653Z 00000KT 10SM CLR 31/21 A2990 RMK AO2 SLP119 T03060206

2010/08/09 16:53
KMIW 091653Z AUTO 15006KT 10SM FEW090 27/23 A2991 RMK AO2 RAB30E41 SLP119 P0000 T02720233

2010/08/09 16:53
KMKL 091653Z VRB04KT 10SM CLR 33/26 A2999 RMK AO2 SLP148 T03280261

2010/08/09 16:53
KMLP 091653Z AUTO 00000KT 10SM CLR 16/05 A3002 RMK AO2 SLP079 T01560050 TSNO

2010/08/09 16:53
KMMV 091653Z AUTO 00000KT 10SM OVC014 14/11 A3002 RMK AO2 SLP166 T01440106

2010/08/09 16:53
KMOD 091653Z 34009KT 10SM CLR 20/12 A2989 RMK AO2 SLP119 T02000122

2010/08/09 16:53
KMRB 091653Z 00000KT 8SM CLR 31/17 A3001 RMK AO2 SLP157 T03110172

2010/08/09 16:53
KMSL 091653Z AUTO 12003KT 10SM CLR 33/24 A3001 RMK AO2 SLP156 T03280244

2010/08/09 16:53
KMSP 091653Z 00000KT 10SM FEW150 32/21 A2991 RMK AO2 SLP121 T03170211

2010/08/09 16:53
KMSY 091653Z 34008KT 10SM SCT060 33/26 A2999 RMK AO2 SLP159 T03280256

2010/08/09 16:53
KMYF 091653Z 00000KT 10SM BKN015 18/13 A2994 RMK AO2 SLP134 T01830133

2010/08/09 16:53
KNEW 091653Z 34006KT 10SM SCT020 33/26 A2999 RMK AO2 SLP150 T03280256

2010/08/09 16:53
KOAK 091653Z 27004KT 10SM OVC012 16/11 A2994 RMK AO2 SLP138 T01610111

2010/08/09 16:53
KODX 091653Z AUTO 00000KT 10SM CLR 27/21 A2994 RMK AO2 PRESRR SLP126 T02670211

2010/08/09 16:53
KOMK 091653Z AUTO 02011KT 10SM CLR 24/09 A2982 RMK AO2 SLP088 T02440089

2010/08/09 16:53
KONT 091653Z 00000KT 5SM HZ CLR 19/12 A2992 RMK AO2 SLP123 T01940117

2010/08/09 16:53
KOSH 091653Z 21005KT 10SM BKN014 OVC021 26/22 A2990 RMK AO2 SLP113 T02610217

2010/08/09 16:53
KOVS 091653Z AUTO 30004KT 10SM BKN023 29/23 A2993 RMK AO2 SLP129 T02940228

2010/08/09 16:53
KOXB 091653Z AUTO 14006KT 10SM CLR 28/24 A3003 RMK AO2 SLP170 T02780244

2010/08/09 16:53
KPAE 091653Z AUTO 00000KT 10SM 15/12 A2997 RMK AO2 SLP148 T01500122 TSNO $

2010/08/09 16:53
KPAH 091653Z 20006KT 10SM FEW033 SCT040 BKN060 33/24 A2995 RMK AO2 SLP137 T03330239

2010/08/09 16:53
KPBF 091653Z AUTO 00000KT 10SM CLR 35/23 A2996 RMK AO2 SLP144 T03500233

2010/08/09 16:53
KPDK 091653Z VRB04KT 10SM CLR 34/19 A3006 RMK AO2 SLP155 T03390194

2010/08/09 16:53
KPDT 091653Z 29004KT 10SM CLR 22/05 A2987 RMK AO2 SLP099 T02220050 $

2010/08/09 16:53
KPDX 091653Z 33005KT 10SM BKN024 OVC029 15/10 A3001 RMK AO2 SLP160 T01500100

2010/08/09 16:53
KPGA 091653Z AUTO 02004KT 10SM CLR 24/12 A3010 RMK AO2 SLP133 T02440117

2010/08/09 16:53
KPIR 091653Z AUTO 16005KT 10SM CLR 28/21 A2991 RMK AO2 SLP116 T02830206

2010/08/09 16:53
KPKD 091653Z AUTO 26005KT 10SM CLR 29/17 A2994 RMK AO2 SLP129 T02940172

2010/08/09 16:53
KPQL 091653Z 05006KT 10SM FEW034 32/24 A2998 RMK AO2 SLP154 T03220244

2010/08/09 16:53
KPRB 091653Z AUTO 00000KT 10SM OVC007 15/12 A2994 RMK AO2 SLP137 T01500117 TSNO $

2010/08/09 16:53
KPSC 091653Z VRB03KT 10SM CLR 23/09 A2984 RMK AO2 SLP100 T02280094

2010/08/09 16:53
KPSP 091653Z 00000KT 10SM CLR 32/03 A2982 RMK AO2 SLP093 T03220028

2010/08/09 16:53
KPSX 091653Z AUTO 22010G18KT 10SM CLR 33/25 A2997 RMK AO2 SLP148 T03330250

2010/08/09 16:53
KPUW 091653Z AUTO 00000KT 10SM CLR 22/08 A2991 RMK AO2 SLP117 T02170078

2010/08/09 16:53
KRAC 091653Z AUTO 20008KT 10SM SCT019 BKN025 28/23 A2995 RMK AO2 SLP135 T02780228

2010/08/09 16:53
KRAL 091653Z 21004KT 6SM HZ CLR 20/13 A2992 RMK AO2 SLP118 T02000128

2010/08/09 16:53
KRBG 091653Z AUTO 36005KT 10SM OVC014 16/12 A2998 RMK AO2 SLP152 T01610122

2010/08/09 16:53
KRDD 091653Z 24005KT 10SM CLR 25/13 A2986 RMK AO2 SLP106 T02500133

2010/08/09 16:53
KRKP 091653Z AUTO 13007KT 10SM CLR 33/25 A2995 RMK AO2 SLP144 T03280250

2010/08/09 16:53
KRMG 091653Z AUTO 12003KT 10SM FEW039 34/22 A3002 RMK AO2 SLP153 T03440217

2010/08/09 16:53
KRNT 091653Z 17005KT 9SM OVC014 15/13 A2997 RMK AO2 SLP154 T01500128

2010/08/09 16:53
KRUE 091653Z AUTO 00000KT 10SM CLR 35/24 A2996 RMK AO2 SLP136 T03500239

2010/08/09 16:53
KRWF 091653Z AUTO 04004KT 10SM CLR 31/21 A2991 RMK AO2 SLP121 T03110211

2010/08/09 16:53
KRWI 091653Z AUTO VRB03KT 10SM CLR 33/21 A3004 RMK AO2 SLP169 T03280206

2010/08/09 16:53
KSAC 091653Z 18006KT 10SM CLR 19/13 A2989 RMK AO2 SLP121 T01890128

2010/08/09 16:53
KSAF 091653Z 00000KT 10SM FEW120 24/11 A3021 RMK AO2 SLP122 T02440111

2010/08/09 16:53
KSAT 091653Z 18007KT 10SM FEW035 31/21 A2999 RMK AO2 SLP137 T03110211

2010/08/09 16:53
KSBA 091653Z 16008KT 10SM FEW001 15/13 A2992 RMK AO2 SLP132 FG BNK ONSHR E-W T01500133

2010/08/09 16:53
KSBM 091653Z AUTO 25007KT 10SM BKN017 OVC025 26/22 A2991 RMK AO2 SLP125 T02560217

2010/08/09 16:53
KSDL 091653Z 00000KT 10SM CLR 33/07 A2992 RMK AO2 SLP100 T03330072

2010/08/09 16:53
KSEA 091653Z 21008KT 10SM BKN007 OVC012 14/12 A2998 RMK AO2 SLP159 T01440117

2010/08/09 16:53
KSFF 091653Z 00000KT 10SM CLR 22/11 A2987 RMK AO2 SLP104 T02170106

2010/08/09 16:53
KSHN 091653Z AUTO 23009KT 9SM BKN008 OVC025 14/12 A2996 RMK AO2 SLP146 T01440117

2010/08/09 16:53
KSIY 091653Z AUTO VRB03KT 10SM 23/06 A2994 RMK AO2 SLP126 T02280056

2010/08/09 16:53
KSJC 091653Z VRB05KT 10SM FEW007 SCT013 17/11 A2992 RMK AO2 SLP130 T01720106

2010/08/09 16:53
KSMF 091653Z 19004KT 10SM CLR 19/13 A2988 RMK AO2 SLP117 T01890133

2010/08/09 16:53
KSNS 091653Z 00000KT 10SM OVC011 15/11 A2995 RMK AO2 SLP151 T01500111

2010/08/09 16:55
KSPA 091655Z AUTO 27005KT 10SM CLR 32/26 A3005 RMK AO2

2010/08/09 16:53
KSPB 091653Z AUTO VRB03KT 10SM OVC023 15/10 A3000 RMK AO2 SLP159 T01500100

2010/08/09 16:53
KSPW 091653Z AUTO 14004KT 10SM OVC015 25/22 A2992 RMK AO2 SLP125 T02500222

2010/08/09 16:53
KSSF 091653Z 21007KT 10SM CLR 33/21 A2998 RMK AO2 SLP136 T03280206

2010/08/09 16:53
KSTC 091653Z 00000KT 10SM CLR 29/23 A2993 RMK AO2 SLP135 T02890228 $

2010/08/09 16:53
KSTP 091653Z VRB03KT 10SM CLR 30/22 A2991 RMK AO2 SLP121 T03000222

2010/08/09 16:53
KSTS 091653Z 00000KT 5SM BR OVC005 13/11 A2993 RMK AO2 SLP127 T01330111

2010/08/09 16:53
KTCC 091653Z AUTO 16008KT 10SM CLR 30/16 A3003 RMK AO2 SLP098 T03000156

2010/08/09 16:53
KTCL 091653Z 17009KT 10SM CLR 34/22 A3000 RMK AO2 SLP155 T03390222

2010/08/09 16:53
KTIW 091653Z 18005KT 10SM SCT009 BKN021 OVC050 14/12 A2998 RMK AO2 SLP149 T01390117

2010/08/09 16:53
KTOI 091653Z 09007KT 10SM CLR 33/23 A3001 RMK AO2 SLP157 T03330228

2010/08/09 16:53
KTTD 091653Z VRB03KT 10SM OVC027 16/11 A2999 RMK AO2 SLP154 T01610111

2010/08/09 16:53
KTUS 091653Z 15003KT 10SM CLR 31/17 A3000 RMK AO2 SLP108 T03060167

2010/08/09 16:53
KTVC 091653Z 24004KT 6SM HZ FEW017 SCT027 BKN060 28/22 A2986 RMK AO2 SLP106 T02780222

2010/08/09 16:53
KTVL 091653Z AUTO 06003KT 10SM CLR 19/07 A3012 RMK AO2 SLP149 T01890067

2010/08/09 16:53
KTVR 091653Z AUTO 06009KT 10SM FEW045 35/24 A2997 RMK AO2 SLP153 T03500244

2010/08/09 16:53
KUTS 091653Z AUTO 00000KT 10SM SCT039 33/22 A2999 RMK AO2 SLP150 T03280222

2010/08/09 16:53
KVCB 091653Z AUTO 23004KT 10SM CLR 21/12 A2990 RMK AO2 SLP121 T02060122

2010/08/09 16:53
KVGT 091653Z 17005KT 10SM CLR 28/09 A2996 RMK AO2 SLP112 T02780089

2010/08/09 16:53
KVPC 091653Z AUTO 00000KT 9SM CLR 32/23 A3005 RMK AO2 SLP160 T03220233

2010/08/09 16:53
KVPZ 091653Z AUTO 20008KT 7SM CLR 27/22 A2997 RMK AO2 SLP141 T02720222

2010/08/09 16:53
KVUO 091653Z AUTO VRB04KT 10SM OVC029 16/09 A3000 RMK AO2 SLP159 T01560094

2010/08/09 16:53
KXNA 091653Z 00000KT 2 1/2SM HZ CLR 33/21 A3000 RMK AO2 SLP140 T03280211

2010/08/09 16:53
KYKM 091653Z VRB05KT 10SM CLR 23/09 A2984 RMK AO2 SLP099 T02280089

2010/08/09 16:53
PHJR 091653Z 09004KT 10SM CLR 25/16 A3009 RMK AO2 SLP196 T02500156

2010/08/09 16:50
LXGB 091650Z 06006KT CAVOK 26/21 Q1014 NOSIG

2010/08/09 16:50
EGBB 091650Z 20012KT 170V240 9999 SCT021 BKN025 21/14 Q1012

2010/08/09 16:50
EGCC 091650Z 22010KT 180V250 9999 FEW019 SCT032 20/15 Q1010

2010/08/09 16:50
EGKK 091650Z 24011KT 210V280 9999 FEW032 21/13 Q1014

2010/08/09 16:50
EGLL 091650Z 21013KT 9999 SCT045 23/12 Q1013

2010/08/09 16:50
EGPF 091650Z 26011KT 9999 SCT030 17/10 Q1007

2010/08/09 16:50
EGPH 091650Z 25011KT 9999 FEW015 FEW020TCU 17/10 Q1006

2010/08/09 16:50
EGPK 091650Z 24010KT 9999 SCT025 17/10 Q1008

2010/08/09 16:50
EGSS 091650Z 23012KT CAVOK 23/10 Q1013

2010/08/09 17:00
SBSP 091700Z 20007KT 9999 BKN009 15/12 Q1023

2010/08/09 16:50
EGHH 091650Z 24012KT 9999 OVC014 18/14 Q1015

2010/08/09 16:50
EGKB 091650Z 22011KT CAVOK 21/11 Q1014 

2010/08/09 16:50
EGLF 091650Z 21012KT 9999 FEW028 SCT036 20/14 Q1014

2010/08/09 16:50
EGMC 091650Z 21010KT CAVOK 23/11 Q1013

2010/08/09 16:50
EGMD 091650Z 23021KT 9999 FEW030 18/13 Q1015

2010/08/09 16:50
EGMH 091650Z 21014KT 180V240 9999 FEW039 22/14 Q1014 

2010/08/09 16:50
LSGC 091650Z 29003KT 220V360 9999 FEW046 20/11 Q1019

2010/08/09 16:50
LSGS 091650Z 26014KT 9999 FEW100 27/11 Q1014

2010/08/09 16:50
LSZG 091650Z 04006KT 9999 FEW050 24/15 Q1016 NOSIG

2010/08/09 16:50
LSZR 091650Z VRB02KT CAVOK 23/12 Q1016 NOSIG RMK N

2010/08/09 16:50
EGHD 091650Z 23011KT 180V270 8000 FEW000 BKN003 18/17 Q1015

2010/08/09 16:50
EGHQ 091650Z 25012KT 9999 VCSH FEW012 SCT020 18/16 Q1014

2010/08/09 16:50
EGJA 091650Z 22008KT 170V260 9999 SCT038 18/15 Q1016

2010/08/09 16:50
EGJB 091650Z 25012KT 9999 FEW007 SCT030 18/16 Q1017

2010/08/09 16:50
EGJJ 091650Z 26008KT 210V320 9999 FEW012 19/15 Q1017 NOSIG

2010/08/09 16:50
EGTE 091650Z 20010KT 160V220 9999 FEW012 BKN016 20/17 Q1013

2010/08/09 16:50
EGTG 091650Z 21008KT 2300 RADZ BR SCT009 BKN015 17/17 Q1013

2010/08/09 16:50
ESKN 091650Z 24010KT 9999 FEW035 SCT110 20/17 Q1008

2010/08/09 16:50
ESOE 091650Z 23006KT 9999 -SHRA SCT020 20/18 Q1007 RERA

2010/08/09 16:50
ESOK 091650Z AUTO VRB02KT 9999NDV NCD 19/16 Q1008

2010/08/09 16:50
ESOW 091650Z 18002KT 9999 -DZ FEW004 BKN090 18/17 Q1007

2010/08/09 16:50
ESSA 091650Z 20005KT 9999 FEW020 21/18 Q1007 NOSIG

2010/08/09 16:50
ESSB 091650Z 20006KT 170V250 9999 FEW022 SCT027 21/17 Q1007

2010/08/09 16:50
ESSD 091650Z 27004KT 9000 DZ SCT015 BKN040 18/16 Q1007 RERA

2010/08/09 16:50
ESSP 091650Z 23008KT 9999 -SHRA FEW009 BKN025CB 19/18 Q1008

2010/08/09 16:50
ESSV 091650Z 22015KT 9999 SCT020 18/16 Q1010

2010/08/09 16:50
ESGL 091650Z AUTO 24011KT 9999NDV BKN007/// OVC012/// 18/// Q1009

2010/08/09 16:50
ESGR 091650Z AUTO 23007KT 4900NDV SCT010/// BKN015/// 17/16 Q1009

2010/08/09 16:50
ESNL 091650Z AUTO 03005KT 9999NDV SCT032/// BKN040/// 17/13 Q1010

2010/08/09 16:50
ESNX 091650Z AUTO 02007KT 9999NDV FEW016/// OVC023/// 15/12 Q1011

2010/08/09 16:50
ESNY 091650Z AUTO 34003KT 9999 OVC001 17/17 Q1006

2010/08/09 17:00
SBBE 091700Z 16007KT 9999 SCT025 FEW030TCU 33/23 Q1011

2010/08/09 16:50
ESDF 091650Z 23007KT 200V270 9999 FEW023 BKN031 18/13 Q1013

2010/08/09 16:50
ESPA 091650Z 02008KT 9999 BKN018 17/14 Q1009

2010/08/09 16:50
ESSL 091650Z 24009KT 9999 BKN017 18/16 Q1008

2010/08/09 16:50
ESNG 091650Z 04008KT 360V080 9999 FEW020 BKN032 15/11 Q1012

2010/08/09 16:50
ESNK 091650Z 20003KT 140V230 8000 RA FEW006 BKN013 17/16 Q1008

2010/08/09 16:50
ESNN 091650Z 36003KT 310V050 9999 BKN010 17/16 Q1007

2010/08/09 16:50
ESNO 091650Z 04008KT 6000 RA SCT005 BKN015 16/15 Q1008 RESHRA

2010/08/09 16:50
ESNQ 091650Z AUTO 04009KT 9999NDV BKN033/// OVC070/// 15/10 Q1013

2010/08/09 16:50
ESNS 091650Z 02002KT 9999 BR BKN016 17/16 Q1009 REDZ

2010/08/09 16:50
ESNU 091650Z 03005KT 9999 FEW009 BKN032 17/15 Q1008

2010/08/09 16:50
ESNZ 091650Z 05006KT 020V090 9999 -RA FEW018 16/14 Q1009 REDZ

2010/08/09 16:50
ESUT 091650Z AUTO 13003KT 9999NDV BKN098/// 18/13 Q1010

2010/08/09 17:00
GLRB 091700Z 18005KT 9000 -DZ FEW008 BKN015 26/25 Q1012

2010/08/09 16:54
CYFC 091654Z AUTO 20011KT 2 1/2SM RA BR BKN009 OVC014 20/19 A2990 RMK SLP125 DENSITY ALT 600FT PCPN 0.5MM PAST HR VIS VRB 1 3/4-3 RVR MISG

2010/08/09 17:00
SBCY 091700Z 05005KT CAVOK 35/06 Q1014

2010/08/09 17:00
MROC 091700Z 10011KT 9999 FEW040 BKN120 27/20 A3003 NOSIG

2010/08/09 16:53
K6R6 091653Z AUTO 11011KT 29/22 A2999 RMK AO2 SLP116 T02890217 PWINO TSNO 

2010/08/09 16:53
KLXV 091653Z AUTO VRB04KT 10SM BKN100 17/06 A3041 RMK AO2 SLP117 T01670061 TSNO 

2010/08/09 16:53
KCUT 091653Z AUTO 15004KT 10SM CLR 26/13 A3011 RMK AO2 SLP126 T02610133 TSNO 

2010/08/09 16:54
PGUM 091654Z 00000KT 10SM BKN050 25/24 A2989 RMK AO2 SLP114 T02500244 

2010/08/09 16:50
EGBB 091650Z 20012KT 170V240 9999 SCT021 BKN025 21/14 Q1012

2010/08/09 16:50
EGCC 091650Z 22010KT 180V250 9999 FEW019 SCT032 20/15 Q1010

2010/08/09 16:50
EGHD 091650Z 23011KT 180V270 8000 FEW000 BKN003 18/17 Q1015

2010/08/09 16:50
EGHH 091650Z 24012KT 9999 OVC014 18/14 Q1015

2010/08/09 16:50
EGHI 091650Z 22014KT 190V250 9999 SCT020 18/13 Q1014

2010/08/09 16:50
EGJA 091650Z 22008KT 170V260 9999 SCT038 18/15 Q1016

2010/08/09 16:50
EGKB 091650Z 22011KT CAVOK 21/11 Q1014

2010/08/09 16:50
EGKK 091650Z 24011KT 210V280 9999 FEW032 21/13 Q1014

2010/08/09 16:50
EGLF 091650Z 21012KT 9999 FEW028 SCT036 20/14 Q1014

2010/08/09 16:50
EGLL 091650Z 21013KT 9999 SCT045 23/12 Q1013

2010/08/09 16:50
EGMC 091650Z 21010KT CAVOK 23/11 Q1013

2010/08/09 16:50
EGMD 091650Z 23021KT 9999 FEW030 18/13 Q1015

2010/08/09 16:50
EGMH 091650Z 21014KT 180V240 9999 FEW039 22/14 Q1014

2010/08/09 16:50
EGNS 091650Z 22009KT 9999 FEW020 17/13 Q1009 NOSIG

2010/08/09 16:50
EGNT 091650Z 24007KT 200V270 9999 FEW048 22/09 Q1007

2010/08/09 16:50
EGNV 091650Z 20009KT 9999 VCSH SCT020 SCT030 18/17 Q1009

2010/08/09 16:50
EGPF 091650Z 26011KT 9999 SCT030 17/10 Q1007

2010/08/09 16:50
EGPH 091650Z 25011KT 9999 FEW015 FEW020TCU 17/10 Q1006

2010/08/09 16:50
EGPK 091650Z 24010KT 9999 SCT025 17/10 Q1008

2010/08/09 16:50
EGSS 091650Z 23012KT CAVOK 23/10 Q1013

2010/08/09 16:50
EKAH 091650Z AUTO 27010KT 230V290 9999NDV BKN038/// 17/09 Q1014

2010/08/09 16:50
EKCH 091650Z 29009KT 260V320 9999 FEW040 BKN210 19/11 Q1014 NOSIG

2010/08/09 16:50
EKEB 091650Z AUTO 26010KT 230V290 9999NDV FEW029/// BKN041/// 18/11 Q1015

2010/08/09 16:50
EKOD 091650Z 25009KT 9999 SCT048 18/09 Q1014

2010/08/09 16:50
EKRN 091650Z AUTO 28007KT 9999NDV NCD 19/14 Q1015

2010/08/09 16:50
EKSB 091650Z 27006KT 240V310 9999 FEW044 19/08 Q1014

2010/08/09 16:50
EKVD 091650Z 30009KT 9999 BKN036 18/09 Q1015 RMK LAST OBS

2010/08/09 16:53
KTCS 091653Z AUTO 00000KT 10SM CLR 26/14 A3013 RMK AO2 SLP121 T02560139 TSNO 

2010/08/09 16:53
KSGR 091653Z 00000KT 10SM FEW034 32/23 A2996 RMK AO2 SLP153 T03220228 

2010/08/09 16:53
KCTY 091653Z AUTO 07004KT 32/23 A2995 RMK AO2 SLP141 T03170233 PWINO TSNO 

2010/08/09 16:53
KTLH 091653Z 06007KT 10SM FEW050 33/20 A2997 RMK AO2 SLP147 T03330200 

2010/08/09 16:53
KNIP 091653Z 07008KT 10SM FEW024 BKN034TCU 31/24 A2997 RMK AO2 RAB30E46 SLP144 TCU E-S P0000 T03110244 

2010/08/09 16:54
KBTV 091654Z 20007KT 10SM FEW050 SCT110 27/19 A2992 RMK AO2 RAE04 SLP132 P0000 T02720194 

2010/08/09 16:53
KCHA 091653Z VRB04KT 10SM FEW030 SCT120 29/22 A3003 RMK AO2 SLP161 T02940222 

2010/08/09 16:50
EGHK 091650Z 23010KT 6000 -DZ SCT006 BKN008 19/17 Q1013

2010/08/09 16:53
KBNO 091653Z AUTO 00000KT 10SM CLR 21/07 A2997 RMK AO2 SLP111 T02060072 TSNO 

2010/08/09 17:00
GLRB 091700Z 18005KT 9000 -DZ FEW008 BKN015 26/25 Q1012

2010/08/09 16:53
KMSN 091653Z 30005KT 10SM SCT022 BKN029 26/21 A2993 RMK AO2 SLP130 T02610206 

2010/08/09 16:50
ESGL 091650Z AUTO 24011KT 9999NDV BKN007/// OVC012/// 18/// Q1009

2010/08/09 16:50
ESGR 091650Z AUTO 23007KT 4900NDV SCT010/// BKN015/// 17/16 Q1009

2010/08/09 16:50
ESNL 091650Z AUTO 03005KT 9999NDV SCT032/// BKN040/// 17/13 Q1010

2010/08/09 16:50
ESNX 091650Z AUTO 02007KT 9999NDV FEW016/// OVC023/// 15/12 Q1011

2010/08/09 16:50
ESNY 091650Z AUTO 34003KT 9999 OVC001 17/17 Q1006

2010/08/09 17:00
LWOH 091700Z 18001KT 9999 FEW050 26/16 Q1015

2010/08/09 16:50
ESNG 091650Z 04008KT 360V080 9999 FEW020 BKN032 15/11 Q1012

2010/08/09 16:50
ESNK 091650Z 20003KT 140V230 8000 RA FEW006 BKN013 17/16 Q1008

2010/08/09 16:50
ESNN 091650Z 36003KT 310V050 9999 BKN010 17/16 Q1007

2010/08/09 16:50
ESNO 091650Z 04008KT 6000 RA SCT005 BKN015 16/15 Q1008 RESHRA

2010/08/09 16:50
ESNQ 091650Z AUTO 04009KT 9999NDV BKN033/// OVC070/// 15/10 Q1013

2010/08/09 16:50
ESNS 091650Z 02002KT 9999 BR BKN016 17/16 Q1009 REDZ

2010/08/09 16:50
ESNU 091650Z 03005KT 9999 FEW009 BKN032 17/15 Q1008

2010/08/09 16:50
ESNZ 091650Z 05006KT 020V090 9999 -RA FEW018 16/14 Q1009 REDZ

2010/08/09 16:50
ESUT 091650Z AUTO 13003KT 9999NDV BKN098/// 18/13 Q1010

2010/08/09 16:53
KP92 091653Z AUTO VRB05KT 32/26 A2998 RMK AO2 SLP152 T03220256 PWINO TSNO 

2010/08/09 16:50
EGBB 091650Z 20012KT 170V240 9999 SCT021 BKN025 21/14 Q1012

2010/08/09 16:50
EGCC 091650Z 22010KT 180V250 9999 FEW019 SCT032 20/15 Q1010

2010/08/09 16:50
EGKK 091650Z 24011KT 210V280 9999 FEW032 21/13 Q1014

2010/08/09 16:50
EGLL 091650Z 21013KT 9999 SCT045 23/12 Q1013

2010/08/09 16:50
EGPF 091650Z 26011KT 9999 SCT030 17/10 Q1007

2010/08/09 16:50
EGPH 091650Z 25011KT 9999 FEW015 FEW020TCU 17/10 Q1006

2010/08/09 16:50
EGPK 091650Z 24010KT 9999 SCT025 17/10 Q1008

2010/08/09 16:50
EGSS 091650Z 23012KT CAVOK 23/10 Q1013

2010/08/09 17:00
LQMO 091700Z 19007KT 150V220 9999 FEW050 32/11 Q1010

2010/08/09 17:00
GVNP 091700Z 11008KT 9999 BKN020 27/22 Q1013 NOSIG

2010/08/09 16:50
EGHH 091650Z 24012KT 9999 OVC014 18/14 Q1015

2010/08/09 16:50
EGKB 091650Z 22011KT CAVOK 21/11 Q1014 

2010/08/09 16:50
EGLF 091650Z 21012KT 9999 FEW028 SCT036 20/14 Q1014

2010/08/09 16:50
EGMC 091650Z 21010KT CAVOK 23/11 Q1013

2010/08/09 16:50
EGMD 091650Z 23021KT 9999 FEW030 18/13 Q1015

2010/08/09 16:50
EGMH 091650Z 21014KT 180V240 9999 FEW039 22/14 Q1014 

2010/08/09 17:00
GVAC 091700Z 06009KT 9999 SCT014 28/19 Q1012 NOSIG

2010/08/09 16:50
EGHI 091650Z 22014KT 190V250 9999 SCT020 18/13 Q1014 

2010/08/09 16:50
EGNS 091650Z 22009KT 9999 FEW020 17/13 Q1009 NOSIG

2010/08/09 16:50
EGNT 091650Z 24007KT 200V270 9999 FEW048 22/09 Q1007

2010/08/09 16:50
EGNV 091650Z 20009KT 9999 VCSH SCT020 SCT030 18/17 Q1009

2010/08/09 16:50
ESDF 091650Z 23007KT 200V270 9999 FEW023 BKN031 18/13 Q1013

2010/08/09 16:50
ESPA 091650Z 02008KT 9999 BKN018 17/14 Q1009

2010/08/09 16:50
ESSL 091650Z 24009KT 9999 BKN017 18/16 Q1008

2010/08/09 16:50
EGHD 091650Z 23011KT 180V270 8000 FEW000 BKN003 18/17 Q1015

2010/08/09 16:50
EGHQ 091650Z 25012KT 9999 VCSH FEW012 SCT020 18/16 Q1014

2010/08/09 16:50
EGJA 091650Z 22008KT 170V260 9999 SCT038 18/15 Q1016

2010/08/09 16:50
EGJB 091650Z 25012KT 9999 FEW007 SCT030 18/16 Q1017

2010/08/09 16:50
EGJJ 091650Z 26008KT 210V320 9999 FEW012 19/15 Q1017 NOSIG

2010/08/09 16:50
EGTE 091650Z 20010KT 160V220 9999 FEW012 BKN016 20/17 Q1013

2010/08/09 16:50
EGTG 091650Z 21008KT 2300 RADZ BR SCT009 BKN015 17/17 Q1013

2010/08/09 16:50
EGAA 091650Z 24011KT 9999 FEW035 BKN043 15/11 Q1009

2010/08/09 16:50
EGAC 091650Z 25013KT 9999 FEW020 SCT028 BKN048 16/10 Q1008

2010/08/09 16:50
EGFF 091650Z 27011KT 9999 FEW004 18/17 Q1013

2010/08/09 16:50
EGGW 091650Z 23009KT 190V260 CAVOK 24/11 Q1013

2010/08/09 16:50
EGLC 091650Z 24010KT 200V260 CAVOK 23/09 Q1013

2010/08/09 16:50
EGNM 091650Z 26007KT 230V290 9999 SCT010 BKN015 17/14 Q1010

2010/08/09 16:50
EGNX 091650Z 20013KT 9999 FEW020 BKN032 21/12 Q1011

2010/08/09 16:50
EGPD 091650Z 16012KT 9999 SCT020 15/12 Q1005 TEMPO SHRA

2010/08/09 17:00
RPLC 091700Z 00000G20KT 9999 FEW036 BKN100 OVC270 25/24 Q1009 A2982 RMK NOSIG

2010/08/09 16:50
ESKN 091650Z 24010KT 9999 FEW035 SCT110 20/17 Q1008

2010/08/09 16:50
ESOE 091650Z 23006KT 9999 -SHRA SCT020 20/18 Q1007 RERA

2010/08/09 16:50
ESOK 091650Z AUTO VRB02KT 9999NDV NCD 19/16 Q1008

2010/08/09 16:50
ESOW 091650Z 18002KT 9999 -DZ FEW004 BKN090 18/17 Q1007

2010/08/09 16:50
ESSA 091650Z 20005KT 9999 FEW020 21/18 Q1007 NOSIG

2010/08/09 16:50
ESSB 091650Z 20006KT 170V250 9999 FEW022 SCT027 21/17 Q1007

2010/08/09 16:50
ESSD 091650Z 27004KT 9000 DZ SCT015 BKN040 18/16 Q1007 RERA

2010/08/09 16:50
ESSP 091650Z 23008KT 9999 -SHRA FEW009 BKN025CB 19/18 Q1008

2010/08/09 16:50
ESSV 091650Z 22015KT 9999 SCT020 18/16 Q1010

2010/08/09 16:50
EGGP 091650Z 30009KT 9999 SCT040 20/14 Q1010

2010/08/09 16:53
KDNK 091653Z AUTO VRB04KT 10SM CLR 33/21 A2998 RMK AO2 SLP148 T03280211 PNO 

2010/08/09 16:50
BGJN 091650Z VRB02KT 9999 SCT100 BKN120 11/02 Q1007

2010/08/09 16:50
BGKK 091650Z 22013KT 9999 FEW100 BKN120 12/M00 Q1009

2010/08/09 16:50
BGSF 091650Z 22003KT 9999 SCT029 BKN045 16/11 Q1008

2010/08/09 16:50
EFKU 091650Z AUTO 17010KT 9999NDV VCSH BKN083CB 21/18 Q1009

2010/08/09 16:50
EFOU 091650Z 28009KT 9999 SCT005 BKN019 19/18 Q1007

2010/08/09 16:50
EGMH 091650Z 21014KT 180V240 9999 FEW039 22/14 Q1014

2010/08/09 16:55
KCEF 091655Z AUTO 24005KT 10SM CLR 32/18 A2996 RMK AO2 SLP146 T03230180

2010/08/09 16:55
KGRF 091655Z 23005KT 10SM OVC012 15/11 A2998 RMK AO2A SLP154 T01460114

2010/08/09 16:55
KHMN 091655Z AUTO 25005KT 10SM CLR 27/15 A3008 RMK AO2 SLP107 T02710152 $

2010/08/09 16:55
KLRF 091655Z AUTO 32004KT 10SM CLR 34/25 A2996 RMK AO2 SLP143 T03430250

2010/08/09 16:55
KRDR 091655Z AUTO 22008KT 10SM CLR 33/17 A2985 RMK AO2 SLP118 T03310169 TSNO $

2010/08/09 16:51
KSAN 091651Z VRB03KT 10SM OVC017 18/13 A2995 RMK AO2 SLP141 T01830133

2010/08/09 17:00
LQBK 091700Z 09004KT 9999 FEW040 27/17 Q1016 NOSIG

2010/08/09 17:00
MGGT 091700Z 36012KT 9999 SCT017 BKN200 25/18 Q1025 A30/27 TCU SSE PACAYA EN ACTIVIDAD NOSIG

2010/08/09 17:00
MHLC 091700Z 01006KT 9999 SCT024TCU BKN250 31/25 Q1013 A2991NOSIG

2010/08/09 17:00
MHLM 091700Z 21006KT 9999 FEW028 BKN250 32/26 Q1013 A2991 NOSIG

2010/08/09 17:00
MHRO 091700Z 10013KT 9999 FEW026 BKN250 31/25 Q1013 A2991 NOSIG

2010/08/09 17:00
MHTG 091700Z 09007KT 9999 SCT028TCU BKN250 26/19 Q1019 A3009 NOSIG

2010/08/09 16:50
OAFZ 091650Z AUTO 23007KT //// ////// 30/02 Q1011

2010/08/09 17:00
OKBK 091700Z 16004KT 8000 NSC 39/09 Q0997 NOSIG

2010/08/09 16:55
PAFB 091655Z 06003KT 13SM VCSH FEW050 BKN070 OVC090 14/10 A2958 RMK SHRAB25E43 SLP014

2010/08/09 16:50
EGAA 091650Z 24011KT 9999 FEW035 BKN043 15/11 Q1009

2010/08/09 16:50
EGBB 091650Z 20012KT 170V240 9999 SCT021 BKN025 21/14 Q1012

2010/08/09 16:50
EGCC 091650Z 22010KT 180V250 9999 FEW019 SCT032 20/15 Q1010

2010/08/09 16:50
EGGW 091650Z 23009KT 190V260 CAVOK 24/11 Q1013

2010/08/09 16:50
EGHD 091650Z 23011KT 180V270 8000 FEW000 BKN003 18/17 Q1015

2010/08/09 16:50
EGHH 091650Z 24012KT 9999 OVC014 18/14 Q1015

2010/08/09 16:50
EGHI 091650Z 22014KT 190V250 9999 SCT020 18/13 Q1014

2010/08/09 16:50
EGJA 091650Z 22008KT 170V260 9999 SCT038 18/15 Q1016

2010/08/09 16:50
EGJB 091650Z 25012KT 9999 FEW007 SCT030 18/16 Q1017

2010/08/09 16:50
EGJJ 091650Z 26008KT 210V320 9999 FEW012 19/15 Q1017 NOSIG

2010/08/09 16:50
EGKB 091650Z 22011KT CAVOK 21/11 Q1014

2010/08/09 16:50
EGKK 091650Z 24011KT 210V280 9999 FEW032 21/13 Q1014

2010/08/09 16:50
EGLC 091650Z 24010KT 200V260 CAVOK 23/09 Q1013

2010/08/09 16:50
EGLF 091650Z 21012KT 9999 FEW028 SCT036 20/14 Q1014

2010/08/09 16:50
EGLL 091650Z 21013KT 9999 SCT045 23/12 Q1013

2010/08/09 16:50
EGMC 091650Z 21010KT CAVOK 23/11 Q1013

2010/08/09 16:50
EGMD 091650Z 23021KT 9999 FEW030 18/13 Q1015

2010/08/09 16:50
EGMH 091650Z 21014KT 180V240 9999 FEW039 22/14 Q1014

2010/08/09 16:50
EGNM 091650Z 26007KT 230V290 9999 SCT010 BKN015 17/14 Q1010

2010/08/09 16:50
EGNS 091650Z 22009KT 9999 FEW020 17/13 Q1009 NOSIG

2010/08/09 16:50
EGNT 091650Z 24007KT 200V270 9999 FEW048 22/09 Q1007

2010/08/09 16:50
EGNV 091650Z 20009KT 9999 VCSH SCT020 SCT030 18/17 Q1009

2010/08/09 16:50
EGPF 091650Z 26011KT 9999 SCT030 17/10 Q1007

2010/08/09 16:50
EGPH 091650Z 25011KT 9999 FEW015 FEW020TCU 17/10 Q1006

2010/08/09 16:50
EGPK 091650Z 24010KT 9999 SCT025 17/10 Q1008

2010/08/09 16:50
EGSS 091650Z 23012KT CAVOK 23/10 Q1013

2010/08/09 16:50
EGTE 091650Z 20010KT 160V220 9999 FEW012 BKN016 20/17 Q1013

2010/08/09 16:50
EGTG 091650Z 21008KT 2300 RADZ BR SCT009 BKN015 17/17 Q1013

2010/08/09 16:53
KELY 091653Z AUTO 17009KT 10SM CLR 21/01 A3014 RMK AO2 SLP110 T02110006 

2010/08/09 16:53
KRIL 091653Z AUTO 36003KT 10SM BKN100 17/11 A3022 RMK AO2 RAE1556 SLP175 P0000 T01720106 TSNO 

2010/08/09 16:53
KOVE 091653Z AUTO 00000KT 10SM CLR 21/13 A2990 RMK AO2 SLP125 T02060133 TSNO $ 

2010/08/09 16:52
KP69 091652Z AUTO 00000KT 22/13 A2985 RMK AO2 SLP089 T02170128 PWINO TSNO 

2010/08/09 16:50
EDHI 091650Z 26007KT CAVOK 18/15 Q1016

2010/08/09 16:50
EDMO 091650Z VRB03KT CAVOK 22/10 Q1017

2010/08/09 16:50
EDOP 091650Z 28008KT 250V310 9999 VCSH FEW020 BKN043 20/15 Q1016

2010/08/09 16:50
EDTD 091650Z 33007KT CAVOK 22/12 Q1018

2010/08/09 16:50
EDVE 091650Z 29007KT 9999 FEW040 BKN080 20/12 Q1016

2010/08/09 16:50
EDAC 091650Z 35006KT 320V030 CAVOK 21/14 Q1016

2010/08/09 16:50
EDGS 091650Z 29003KT 9999 FEW036 19/13 Q1018

2010/08/09 16:50
EDHL 091650Z 28006KT 9999 FEW028 BKN050 18/18 Q1016

2010/08/09 16:50
EDJA 091650Z VRB03KT 9999 FEW051 22/11 Q1017

2010/08/09 16:50
EDLN 091650Z VRB03KT CAVOK 22/11 Q1016

2010/08/09 16:50
EDLP 091650Z VRB02KT 9999 FEW036 21/12 Q1016

2010/08/09 16:50
EDLW 091650Z 25006KT CAVOK 21/12 Q1016

2010/08/09 16:50
EDMA 091650Z 06004KT 030V110 9999 FEW045 23/13 Q1017

2010/08/09 16:50
EDNY 091650Z 19005KT CAVOK 24/12 Q1016

2010/08/09 16:50
EDQM 091650Z 29005KT 9999 FEW035 SCT086 18/11 Q1018

2010/08/09 16:50
EDRZ 091650Z VRB03KT CAVOK 24/11 Q1017

2010/08/09 16:50
EDSB 091650Z 32004KT 300V360 CAVOK 25/11 Q1016

2010/08/09 16:50
EDFE 091650Z 28004KT 240V320 9999 FEW040 SCT070 24/11 Q1016

2010/08/09 16:50
EDFH 091650Z 28005KT 230V330 9999 FEW046 21/10 Q1017

2010/08/09 16:50
EDFM 091650Z 08005KT 040V130 CAVOK 24/12 Q1016

2010/08/09 16:50
EDLV 091650Z 23005KT CAVOK 22/14 Q1016

2010/08/09 16:50
EDTL 091650Z 34005KT 320V020 CAVOK 24/14 Q1016

2010/08/09 16:50
EDVK 091650Z 30004KT 250V340 9999 BKN045 BKN070 20/10 Q1017

2010/08/09 16:55
KBLV 091655Z AUTO 23003KT 10SM CLR 33/26 A2994 RMK AO2 SLP135 T03300261

2010/08/09 16:50
KBYH 091650Z 24004KT 8SM BKN250 34/26 A2996

2010/08/09 16:55
KCEF 091655Z AUTO 24005KT 10SM CLR 32/18 A2996 RMK AO2 SLP146 T03230180

2010/08/09 16:55
KGRF 091655Z 23005KT 10SM OVC012 15/11 A2998 RMK AO2A SLP154 T01460114

2010/08/09 16:55
KHMN 091655Z AUTO 25005KT 10SM CLR 27/15 A3008 RMK AO2 SLP107 T02710152 $

2010/08/09 16:55
KLRF 091655Z AUTO 32004KT 10SM CLR 34/25 A2996 RMK AO2 SLP143 T03430250

2010/08/09 16:50
EETN 091650Z 19009KT 9999 FEW029CB SCT048 BKN074 21/16 Q1012 NOSIG

2010/08/09 16:50
EETU 091650Z 21008KT 9999 FEW055CB OVC120 22/15 Q1014

2010/08/09 16:50
EFHK 091650Z 19011KT 9999 VCSH FEW030CB BKN050 21/15 Q1012 NOSIG

2010/08/09 16:50
ESSA 091650Z 20005KT 9999 FEW020 21/18 Q1007 NOSIG

2010/08/09 16:50
EVLA 091650Z AUTO 21009KT 9999 SCT018 OVC056 19/16 Q1014

2010/08/09 16:50
EVRA 091650Z 18006KT CAVOK 22/15 Q1014 NOSIG

2010/08/09 16:50
EYKA 091650Z 13003KT 090V180 CAVOK 22/17 Q1016

2010/08/09 16:50
EYPA 091650Z VRB03KT CAVOK 21/16 Q1014

2010/08/09 16:50
EYVI 091650Z 16004KT 9999 FEW040 BKN110 19/17 Q1017 NOSIG

2010/08/09 16:52
CYHU 091652Z AUTO 24009KT 9SM SCT017 BKN033 25/22 A2991 RMK SLP129 DENSITY ALT 1200FT RVR MISG

2010/08/09 16:54
CYHU 091654Z AUTO 25009KT 9SM SCT017 BKN022 25/22 A2991 RMK SLP129 DENSITY ALT 1200FT RVR MISG

2010/08/09 16:52
CYSC 091652Z AUTO 25005KT 210V290 9SM SCT020 BKN026 BKN034 OVC071 23/19 A2993 RMK DENSITY ALT 1800FT

2010/08/09 16:49
CZUM 091649Z AUTO 25006KT 9SM BKN017 OVC074 OVC089 14/12 A2963

2010/08/09 16:51
CZUM 091651Z AUTO 25008KT 9SM -RA BKN017 OVC074 OVC089 14/12 A2963

2010/08/09 16:52
KDLF 091652Z AUTO 11007G16KT 10SM SCT022 30/23 A2996 RMK AO2 SLP129

2010/08/09 16:52
LEGE 091652Z VRB08G19KT 1500 TS SHRA FEW018 SCT030CB 21/20 Q1016

2010/08/09 16:50
PAGA 091650Z AUTO 12008KT 10SM SCT008 SCT013 OVC055 13/11 A2945 RMK AO2

2010/08/09 16:55
KQAJ 091655Z 35004KT 9999 FEW160 40/04 A2960 RMK SLP007 WND DATA ESTMD ALSTG/SLP ESTMD

2010/08/09 16:55
KQGX 091655Z 02008KT 9999 CLR 36/25 A2946 RMK AO2A SLP976 T03620247 $

2010/08/09 16:55
KQSL 091655Z 31007KT 9999 CLR 40/02 A2957 RMK SLP000 Q1001MB

2010/08/09 16:55
KQTU 091655Z 31004KT 9999 CLR 40/03 A2957 RMK SLP996

2010/08/09 16:54
KJAN 091654Z VRB05KT 10SM SCT039 34/24 A2998 RMK AO2 SLP145 T03440239 

2010/08/09 16:50
ENBL 091650Z 33004KT 9999 2500E FEW003 SCT007 BKN015 14/12 Q1010

2010/08/09 16:50
ENEV 091650Z 34010KT 9999 FEW030 14/09 Q1012 

2010/08/09 16:50
ENFL 091650Z 24005KT 9999 VCSH FEW006 SCT010 BKN025 15/13 Q1010

2010/08/09 16:50
ENKB 091650Z 36009KT 9999 FEW015 16/13 Q1009

2010/08/09 16:50
ENKR 091650Z 06009KT 9999 -RA SCT006 OVC010 10/09 Q1015 

2010/08/09 16:50
ENML 091650Z 25008KT 9999 FEW015 21/14 Q1009

2010/08/09 16:50
ENNA 091650Z 35011KT 9999 VCSH SCT012 BKN020 11/08 Q1016 

2010/08/09 16:50
ENAL 091650Z 05005KT 9999 FEW015 BKN025 15/13 Q1010

2010/08/09 16:50
ENCN 091650Z 24011KT 210V280 CAVOK 20/13 Q1009

2010/08/09 16:50
ENHD 091650Z 24006KT 9999 SCT018 BKN044 15/11 Q1012

2010/08/09 16:50
ENRO 091650Z VRB01KT 9999 -SHRA FEW035 BKN053 14/13 Q1010

2010/08/09 16:50
ENRY 091650Z 21008KT 9999 FEW030TCU BKN100 21/15 Q1008

2010/08/09 16:50
ENSB 091650Z 23011KT 9999 FEW012 BKN030 09/03 Q1002 

2010/08/09 16:50
ENTC 091650Z 02014KT 9999 FEW023 SCT030 12/08 Q1014 NOSIG

2010/08/09 16:50
ENTO 091650Z 21009KT CAVOK 21/14 Q1008

2010/08/09 16:50
ENEK 091650Z 20020KT 9999 SCT015 16/14 Q1010 W16/S3

2010/08/09 16:50
ENGC 091650Z 22007KT 9999 FEW010 BKN038 13/11 Q1010

2010/08/09 16:50
ENNO 091650Z 14004KT 120V190 9999 SCT045TCU 23/16 Q1007

2010/08/09 16:50
ENOV 091650Z VRB03KT 9999 FEW015 BKN019 17/13 Q1010 

2010/08/09 16:50
ENSN 091650Z 17007KT 9999 VCSH SCT035TCU 22/13 Q1008

2010/08/09 16:50
ENSR 091650Z 01007KT 9999 FEW010 SCT015 BKN025 12/09 Q1015

2010/08/09 16:53
K40J 091653Z AUTO VRB03KT 32/22 A2996 RMK AO2 SLP143 T03220222 PWINO TSNO 

2010/08/09 16:50
ENAN 091650Z 03018KT 9999 FEW012 BKN025 11/08 Q1014 NOSIG

2010/08/09 16:50
ENBR 091650Z VRB02KT 9999 VCSH FEW010 BKN020 15/10 Q1011 NOSIG 

2010/08/09 16:50
ENDU 091650Z 36006KT 320V040 9999 FEW025 16/10 Q1012

2010/08/09 16:50
ENOL 091650Z 36008KT 9999 FEW014 16/13 Q1009 NOSIG

2010/08/09 16:50
ENVA 091650Z 26008KT 9999 FEW030TCU 19/15 Q1009 NOSIG 

2010/08/09 16:50
ENZV 091650Z 25004KT 9999 FEW020 BKN047 16/09 Q1012 NOSIG

2010/08/09 16:54
CZCP 091654Z AUTO 06012KT 2 1/2SM CLR 06/ A2982

2010/08/09 16:52
PAWI 091652Z 06015G25KT 10SM OVC007 03/01 A2980 RMK ASOS VIA PHONE

2010/08/09 16:50
ENBN 091650Z 34004KT 9999 BKN011 14/11 Q1011

2010/08/09 16:50
ENFG 091650Z 06004KT 360V120 9999 FEW025TCU SCT030 SCT046 19/08 Q1010

2010/08/09 16:50
ENHF 091650Z 03010KT 9999 BKN023 10/06 Q1015 

2010/08/09 16:50
ENRA 091650Z 35005KT 9999 FEW040 21/13 Q1009

2010/08/09 16:50
ENSH 091650Z 02013KT 9999 FEW020 14/09 Q1011

2010/08/09 16:50
ENHV 091650Z 07005KT 9999 FEW013 BKN016 10/06 Q1016

2010/08/09 16:50
ENLK 091650Z 03014KT 9999 FEW015 13/09 Q1012

2010/08/09 16:50
ENNK 091650Z 26008KT 9999 FEW080 18/13 Q1012 

2010/08/09 16:50
ENNM 091650Z 33007KT CAVOK 16/11 Q1010

2010/08/09 16:50
ENMS 091650Z 34009KT 9999 FEW040TCU 18/13 Q1009 

2010/08/09 16:50
ENRM 091650Z 02006KT 330V070 9999 BKN009 12/10 Q1011

2010/08/09 16:50
ENRS 091650Z 01019KT CAVOK 11/08 Q1012

2010/08/09 16:50
ENSK 091650Z 05009KT 9999 FEW012 SCT020 BKN025 14/09 Q1013

2010/08/09 16:50
ENSO 091650Z VRB01KT 9999 SCT017 BKN025 15/12 Q1011

2010/08/09 16:50
ENST 091650Z 36006KT CAVOK 16/12 Q1011

2010/08/09 16:50
ENVD 091650Z 05012KT 9999 -DZ BKN005 OVC008 10/08 Q1015

2010/08/09 17:00
MBPV 091700Z 14013KT 9999 SCT015 SCT060 32/25 A3000  

2010/08/09 16:54
KROA 091654Z 00000KT 9SM SCT040 31/21 A3008 RMK AO2 SLP170 T03060206 

2010/08/09 16:54
KFWA 091654Z VRB03KT 9SM FEW040 SCT140 BKN250 30/21 A3000 RMK AO2 SLP153 T03000211 

2010/08/09 16:54
KROC 091654Z 23007KT 9SM SCT070 SCT130 OVC150 27/21 A2996 RMK AO2 SLP142 T02720206 

2010/08/09 16:50
EDAC 091650Z 35006KT 320V030 CAVOK 21/14 Q1016

2010/08/09 16:50
EDHI 091650Z 26007KT CAVOK 18/15 Q1016

2010/08/09 16:50
EDHL 091650Z 28006KT 9999 FEW028 BKN050 18/18 Q1016

2010/08/09 16:50
EDLN 091650Z VRB03KT CAVOK 22/11 Q1016

2010/08/09 16:50
EDLP 091650Z VRB02KT 9999 FEW036 21/12 Q1016

2010/08/09 16:50
EDLW 091650Z 25006KT CAVOK 21/12 Q1016

2010/08/09 16:50
EDMA 091650Z 06004KT 030V110 9999 FEW045 23/13 Q1017

2010/08/09 16:50
EDMO 091650Z VRB03KT CAVOK 22/10 Q1017

2010/08/09 16:50
EDNY 091650Z 19005KT CAVOK 24/12 Q1016

2010/08/09 16:50
EDOP 091650Z 28008KT 250V310 9999 VCSH FEW020 BKN043 20/15 Q1016

2010/08/09 16:50
EDQM 091650Z 29005KT 9999 FEW035 SCT086 18/11 Q1018

2010/08/09 16:50
EDSB 091650Z 32004KT 300V360 CAVOK 25/11 Q1016

2010/08/09 16:50
EDVE 091650Z 29007KT 9999 FEW040 BKN080 20/12 Q1016

2010/08/09 16:50
EGAA 091650Z 24011KT 9999 FEW035 BKN043 15/11 Q1009

2010/08/09 16:50
EGAC 091650Z 25013KT 9999 FEW020 SCT028 BKN048 16/10 Q1008

2010/08/09 16:50
EGFF 091650Z 27011KT 9999 FEW004 18/17 Q1013

2010/08/09 16:50
EGGP 091650Z 30009KT 9999 SCT040 20/14 Q1010

2010/08/09 16:50
EGGW 091650Z 23009KT 190V260 CAVOK 24/11 Q1013

2010/08/09 16:50
EGJB 091650Z 25012KT 9999 FEW007 SCT030 18/16 Q1017

2010/08/09 16:50
EGJJ 091650Z 26008KT 210V320 9999 FEW012 19/15 Q1017 NOSIG

2010/08/09 16:50
EGLC 091650Z 24010KT 200V260 CAVOK 23/09 Q1013

2010/08/09 16:50
EGNM 091650Z 26007KT 230V290 9999 SCT010 BKN015 17/14 Q1010

2010/08/09 16:50
EGNX 091650Z 20013KT 9999 FEW020 BKN032 21/12 Q1011

2010/08/09 16:50
EGPD 091650Z 16012KT 9999 SCT020 15/12 Q1005 TEMPO SHRA

2010/08/09 16:50
EGTE 091650Z 20010KT 160V220 9999 FEW012 BKN016 20/17 Q1013

2010/08/09 16:50
EGTG 091650Z 21008KT 2300 RADZ BR SCT009 BKN015 17/17 Q1013

2010/08/09 16:55
EHEH 091655Z AUTO 27002KT 9999NDV SCT280 22/12 Q1015 BLU BLU NOSIG

2010/08/09 17:00
LWOH 091700Z 18001KT 9999 FEW050 26/16 Q1015

2010/08/09 16:55
KBAD 091655Z AUTO VRB04KT 10SM CLR 34/23 A2997 RMK AO2 SLP149 T03420229

2010/08/09 16:53
KBAF 091653Z 21008KT 10SM SCT060 33/16 A2996 RMK AO2 SLP142 T03280161

2010/08/09 16:55
KBKF 091655Z 23006KT 70SM FEW080 SCT140 25/13 A3015 RMK SLP143

2010/08/09 16:53
KBUR 091653Z 00000KT 10SM CLR 19/12 A2992 RMK AO2 SLP122 T01940122

2010/08/09 16:55
KDAA 091655Z AUTO VRB03KT 10SM CLR 33/21 A3001 RMK AO2 SLP162 T03300212

2010/08/09 16:53
KDTS 091653Z AUTO 05010KT 10SM CLR 33/24 A2997 RMK AO2 SLP147 T03330244

2010/08/09 16:55
KGSB 091655Z AUTO 07003KT 10SM CLR 32/19 A3002 RMK AO2 SLP167

2010/08/09 16:55
KHST 091655Z VRB06KT 5SM RA BR BKN007 OVC011 25/24 A2997 RMK AO2A SLP150 P0029 T02480242

2010/08/09 16:55
KIAB 091655Z AUTO 15008KT 10SM CLR 35/21 A2992 RMK AO2 SLP115 T03540208 $

2010/08/09 16:55
KMGE 091655Z VRB04KT 7SM BKN045 33/21 A3006 RMK AO2A SLP167 T03270208 $

2010/08/09 16:55
KOFF 091655Z AUTO 31005KT 9SM CLR 30/24 A2984 RMK AO2 SLP089 T03030241 $

2010/08/09 16:55
KSUU 091655Z AUTO 25017KT 10SM CLR 17/12 A2989 RMK AO2 SLP124 T01740120 RVRNO $

2010/08/09 16:53
KTOI 091653Z 09007KT 10SM CLR 33/23 A3001 RMK AO2 SLP157 T03330228

2010/08/09 16:55
KVPS 091655Z 09008KT 10SM SCT039 33/25 A2998 RMK AO2A SLP152 T03280251 $

2010/08/09 17:00
MPTO 091700Z 00000KT 8000 -DZ FEW009 SCT016 BKN080 27/25 Q1013 BECMGFM 1730 6000 RA RWY DAMP

2010/08/09 17:00
MROC 091700Z 10011KT 9999 FEW040 BKN120 27/20 A3003 NOSIG

2010/08/09 17:00
ORSU 091700Z 30008KT 9999 FEW045 30/M03 Q1007

2010/08/09 16:53
PHJR 091653Z 09004KT 10SM CLR 25/16 A3009 RMK AO2 SLP196 T02500156

2010/08/09 16:53
TISX 091653Z 04004KT 9SM -RA SCT018 BKN060 26/24 A2998 RMK AO2 SLP151 T02610239 $

2010/08/09 17:00
NIUE 091700Z AUTO 16004KT //// ////// 20/// Q1018

2010/08/09 16:54
KDMH 091654Z AUTO 32/22 A3001 RMK AO2 SLP160 T03220217 PWINO TSNO 

2010/08/09 16:54
KNAK 091654Z AUTO 13013KT 6SM HZ CLR 28/24 A3000 RMK AO2 SLP160 T02830239 TSNO 

2010/08/09 16:54
KAVP 091654Z AUTO 25011G16KT 10SM CLR 32/13 A3001 RMK AO2 SLP150 T03220133 TSNO 

2010/08/09 16:54
KACY 091654Z 20007KT 10SM CLR 33/18 A3003 RMK AO2 SLP168 T03330178 

2010/08/09 16:54
KGSO 091654Z 28006KT 10SM FEW048 32/20 A3006 RMK AO2 SLP167 T03170200 

2010/08/09 16:55
PAEH 091655Z AUTO 16022G32KT 130V200 5SM OVC005 08/07 RMK AO1 0 T00830073

2010/08/09 16:53
KCEZ 091653Z AUTO 29004KT 10SM CLR 24/12 A3021 RMK AO2 SLP152 T02390122

2010/08/09 16:45
KCGF 091645Z 22008KT 10SM FEW050 BKN120 33/17 A3001

2010/08/09 16:53
KCGI 091653Z 00000KT 10SM FEW031 33/25 A2995 RMK AO2 SLP136 T03330250

2010/08/09 16:53
KCKB 091653Z 18004KT 7SM CLR 29/19 A3007 RMK AO2 SLP167 T02890189

2010/08/09 16:53
KCMX 091653Z AUTO 27011KT 10SM 26/19 A2989 RMK AO2 SLP119 T02610194 $

2010/08/09 16:53
KCNY 091653Z AUTO VRB04KT 10SM CLR 26/10 A3010 RMK AO2 SLP138 T02610100

2010/08/09 16:53
KCPR 091653Z 22013G17KT 10SM CLR 28/04 A3006 RMK AO2 SLP107 T02830039

2010/08/09 16:53
KCPS 091653Z 00000KT 6SM HZ CLR 33/25 A2993 RMK AO2 SLP132 T03280250

2010/08/09 16:53
KCRE 091653Z 14009KT 10SM SCT041 30/26 A3002 RMK AO2 SLP167 T03000256

2010/08/09 16:53
KCRG 091653Z 07008KT 10SM BKN020 BKN042 30/24 A2997 RMK AO2 SLP148 T03000244

2010/08/09 16:51
KCRP 091651Z 17006KT 10SM FEW035 SCT044 32/24 A2994 RMK AO2 SLP138 T03220239

2010/08/09 16:53
KCRS 091653Z AUTO 17009KT 10SM CLR 33/22 A2996 RMK AO2 SLP138 T03330222

2010/08/09 16:53
KCSM 091653Z 19009G17KT 10SM CLR 34/18 A2996 RMK AO2 SLP112 T03440178

2010/08/09 16:53
KCUB 091653Z AUTO 00000KT 10SM BKN049 34/21 A3004 RMK AO2 SLP169 T03390206

2010/08/09 16:53
KCYS 091653Z 19011KT 10SM FEW050 SCT070 BKN100 22/11 A3019 RMK AO2 SLP136 T02220106

2010/08/09 16:51
KDAG 091651Z AUTO 28004KT 10SM CLR 27/M02 A2992 RMK AO2 SLP106 T02721017 TSNO

2010/08/09 16:53
KDAL 091653Z 17010KT 10SM FEW042 34/23 A2994 RMK AO2 SLP130 T03440228

2010/08/09 16:53
KDEN 091653Z 27004KT 10SM FEW080 SCT100 BKN140 26/13 A3012 RMK AO2 SLP115 T02610128

2010/08/09 16:53
KDEQ 091653Z AUTO 00000KT 10SM CLR 33/23 A2995 RMK AO2 SLP135 T03330233

2010/08/09 16:53
KDET 091653Z 29004KT 9SM CLR 28/19 A2996 RMK AO2 SLP140 T02780194

2010/08/09 16:53
KDFI 091653Z AUTO 23005KT 7SM CLR 29/20 A3000 RMK AO2 SLP153 T02890200

2010/08/09 16:53
KDFW 091653Z 15007KT 10SM CLR 34/22 A2994 RMK AO2 SLP128 T03390222

2010/08/09 16:53
KFVE 091653Z AUTO VRB04KT 9SM BKN024 OVC029 22/16 A2986 RMK AO2 SLP108 T02220161

2010/08/09 16:53
KFWN 091653Z AUTO VRB04KT 10SM CLR 32/17 A2999 RMK AO2 SLP153 T03170167

2010/08/09 16:53
KFXE 091653Z 14010G16KT 10SM SCT030 31/23 A2994 RMK AO2 SLP141 T03060228

2010/08/09 16:53
KGAG 091653Z AUTO 19011KT 10SM CLR 34/19 A2994 RMK AO2 SLP102 T03390194

2010/08/09 16:53
KGCC 091653Z AUTO 00000KT 10SM CLR 27/09 A2998 RMK AO2 SLP108 T02670094

2010/08/09 16:53
KGEY 091653Z AUTO VRB04KT 10SM CLR 27/07 A2995 RMK AO2 SLP098 T02670072

2010/08/09 16:53
KGEZ 091653Z AUTO 24007KT 9SM CLR 31/21 A2998 RMK AO2 SLP144 T03060206

2010/08/09 16:53
KGFK 091653Z 18006KT 10SM CLR 32/19 A2984 RMK AO2 SLP100 T03170194

2010/08/09 16:53
KGFL 091653Z AUTO 18008KT 10SM FEW060 30/19 A2994 RMK AO2 SLP134 T03000189

2010/08/09 16:53
KGGG 091653Z 20006KT 10SM CLR 33/22 A2998 RMK AO2 SLP142 T03330222

2010/08/09 16:53
KGGW 091653Z AUTO 00000KT 10SM CLR 27/11 A2988 RMK AO2 SLP105 T02720111 TSNO

2010/08/09 16:53
KGIF 091653Z AUTO 09006KT 10SM FEW023 SCT065 31/24 A2994 RMK AO2 SLP138 T03110239 TSNO

2010/08/09 16:53
KGJT 091653Z 00000KT 10SM SCT100 24/11 A3014 RMK AO2 SLP139 T02440111

2010/08/09 16:53
KGKJ 091653Z AUTO 21005KT 10SM CLR 28/17 A3004 RMK AO2 SLP161 T02780167

2010/08/09 16:53
KGKY 091653Z 15006KT 10SM CLR 33/23 A2995 RMK AO2 SLP132 T03280228

2010/08/09 16:53
KGLD 091653Z AUTO 05008KT 10SM CLR 31/19 A3001 RMK AO2 SLP111 T03060189

2010/08/09 16:53
KGNV 091653Z 06012G17KT 10SM SCT035 BKN047 33/23 A2994 RMK AO2 SLP135 T03280233

2010/08/09 16:53
KGOK 091653Z AUTO 15007KT 10SM CLR 36/22 A2991 RMK AO2 SLP115 T03560217

2010/08/09 16:53
KGTF 091653Z 19007KT 10SM CLR 24/08 A2991 RMK AO2 SLP096 T02440078

2010/08/09 16:53
KGUY 091653Z AUTO 16005KT 10SM CLR 34/15 A2995 RMK AO2 SLP084 T03390150

2010/08/09 16:53
KGZH 091653Z AUTO 12005KT 10SM BKN032 BKN040 32/24 A3001 RMK AO2 SLP157 T03220239

2010/08/09 16:53
KHAO 091653Z AUTO 23005KT 9SM CLR 33/18 A3001 RMK AO2 SLP158 T03330183

2010/08/09 16:53
KHBR 091653Z AUTO 18007G16KT 10SM CLR 36/18 A2993 RMK AO2 SLP109 T03560178

2010/08/09 16:50
KPMV 091650Z AUTO 12003KT 10SM CLR 30/25 A2986 RMK AO2 T02970247

2010/08/09 16:53
KAAF 091653Z AUTO 12008KT 10SM CLR 32/24 A2996 RMK AO2 SLP143 T03220244

2010/08/09 16:53
KABY 091653Z 07007G15KT 10SM FEW050 34/22 A3001 RMK AO2 SLP160 T03440217

2010/08/09 16:53
KACK 091653Z 23011KT 10SM FEW002 26/23 A3001 RMK AO2 SLP162 T02560228

2010/08/09 16:53
KADG 091653Z AUTO 27004KT 9SM CLR 28/20 A3000 RMK AO2 SLP154 T02780200

2010/08/09 16:53
KAFW 091653Z 22010G14KT 10SM FEW060 36/22 A2994 RMK AO2 SLP117 T03560217 $

2010/08/09 16:53
KAGC 091653Z 18005KT 10SM CLR 29/15 A3004 RMK AO2 SLP168 T02940150

2010/08/09 16:53
KAIA 091653Z AUTO 23007KT 10SM CLR 30/11 A3001 RMK AO2 SLP113 T03000111 $

2010/08/09 16:53
KAKO 091653Z AUTO 18005KT 10SM CLR 26/14 A3009 RMK AO2 SLP123 T02610139 TSNO

2010/08/09 16:53
KAMG 091653Z AUTO 09010G18KT 10SM FEW050 33/21 A2999 RMK AO2 SLP154 T03330211

2010/08/09 16:53
KAOH 091653Z AUTO 22006KT 9SM CLR 29/20 A3001 RMK AO2 SLP154 T02940200

2010/08/09 16:53
KAPA 091653Z 00000KT 10SM FEW080 SCT110 24/13 A3016 RMK AO2 SLP144 T02390128

2010/08/09 16:53
KAPF 091653Z 22009KT 10SM BKN019 28/26 A2992 RMK AO2 RAB21E37 SLP130 P0003 T02830261

2010/08/09 16:53
KARA 091653Z 36006KT 10SM FEW029 34/26 A2998 RMK AO2 SLP152 T03390256

2010/08/09 16:53
KARB 091653Z 28006KT 10SM CLR 27/20 A2998 RMK AO2 SLP144 T02720200

2010/08/09 16:53
KASE 091653Z 33006KT 10SM BKN075 14/08 A3033 RMK AO2 SLP166 T01440078

2010/08/09 16:53
KAUG 091653Z AUTO 32006KT 10SM SCT040 BKN049 27/18 A2993 RMK AO2 SLP134 T02720178

2010/08/09 16:53
KBAF 091653Z 21008KT 10SM SCT060 33/16 A2996 RMK AO2 SLP142 T03280161

2010/08/09 16:53
KBBW 091653Z AUTO 00000KT 8SM -RA SCT041 25/22 A2998 RMK AO2 RAB33 SLP128 P0000 T02500217

2010/08/09 16:53
KBCE 091653Z AUTO 14007KT 10SM CLR 18/07 A3030 RMK AO2 SLP155 T01780072

2010/08/09 16:53
KBFF 091653Z AUTO 23015G19KT 10SM CLR 31/13 A3001 RMK AO2 SLP110 T03110128

2010/08/09 16:53
KBGM 091653Z 25010KT 10SM FEW055 29/13 A3006 RMK AO2 SLP163 T02940133

2010/08/09 16:53
KBGR 091653Z 29006KT 10SM SCT035 BKN047 27/18 A2991 RMK AO2 SLP126 T02670183

2010/08/09 16:53
KBHK 091653Z AUTO VRB03KT 10SM CLR 31/11 A2991 RMK AO2 SLP101 T03060111

2010/08/09 16:53
KBIL 091653Z 19005KT 10SM FEW100 24/11 A2994 RMK AO2 SLP106 T02390106

2010/08/09 16:53
KBKL 091653Z 31004KT 3SM HZ CLR 29/21 A2998 RMK AO2 SLP148 T02890206

2010/08/09 16:53
KBKV 091653Z AUTO 07006KT 10SM CLR 32/24 A2993 RMK AO2 LTG DSNT NE SLP134 T03170244

2010/08/09 16:53
KBMG 091653Z 24006KT 10SM CLR 32/22 A2999 RMK AO2 SLP145 T03170222

2010/08/09 16:53
KBOI 091653Z 01004KT 10SM CLR 24/10 A2988 RMK AO2 SLP086 T02390100

2010/08/09 16:53
KBPI 091653Z AUTO 19007KT 10SM FEW090 20/05 A3018 RMK AO2 SLP126 T02000050 TSNO

2010/08/09 16:53
KBRL 091653Z AUTO 17007KT 10SM CLR 27/23 A2992 RMK AO2 SLP125 T02670228

2010/08/09 16:53
KBTM 091653Z AUTO 00000KT 10SM CLR 14/08 A3004 RMK AO2 SLP132 T01440083

2010/08/09 16:51
KBVE 091651Z AUTO -RA OVC017 26/25 A3000 RMK AO2 WSHFT 1615 SLP159 P0043 T02610250 TSNO $

2010/08/09 16:53
KBVO 091653Z AUTO 19005KT 10SM CLR 36/23 A2993 RMK AO2 SLP121 T03610228

2010/08/09 16:53
KBVY 091653Z 23010G22KT 10SM FEW055 33/17 A2993 RMK AO2 SLP129 T03330172

2010/08/09 16:53
KBYG 091653Z AUTO VRB03KT 10SM CLR 25/08 A3002 RMK AO2 SLP105 T02500078

2010/08/09 16:53
KBYI 091653Z AUTO 11004KT 10SM BKN100 21/11 A2998 RMK AO2 SLP115 T02060111

2010/08/09 16:53
KCAG 091653Z AUTO 00000KT 10SM BKN090 OVC110 17/12 A3023 RMK AO2 RAE35 SLP185 P0001 T01720117

2010/08/09 16:51
KCAK 091651Z 23006KT 8SM SCT250 29/17 A3003 RMK AO2 SLP160 T02890172

2010/08/09 16:53
KCDC 091653Z AUTO 23005KT 10SM CLR 22/08 A3016 RMK AO2 SLP149 T02220083

2010/08/09 16:53
KCDR 091653Z AUTO 18011KT 10SM CLR 33/15 A2994 RMK AO2 SLP107 T03280150

2010/08/09 16:53
KCDS 091653Z AUTO 26009KT 10SM CLR 33/21 A2996 RMK AO2 SLP112 T03280206

2010/08/09 16:53
KCDW 091653Z VRB05KT 9SM BKN070 32/18 A2999 RMK AO2 SLP160 T03170183

2010/08/09 16:53
KCEW 091653Z AUTO 07007KT 10SM FEW032 33/25 A2999 RMK AO2 SLP152 T03280250

2010/08/09 16:53
KDHN 091653Z 06007KT 10SM CLR 33/23 A3004 RMK AO2 SLP164 T03280233

2010/08/09 16:53
KDKK 091653Z AUTO 25010KT 9SM FEW055 29/18 A2997 RMK AO2 SLP144 T02940183

2010/08/09 16:53
KDLN 091653Z AUTO 00000KT 10SM FEW090 18/11 A3002 RMK AO2 SLP122 T01830111

2010/08/09 16:53
KDMO 091653Z AUTO 00000KT 10SM CLR 33/24 A2996 RMK AO2 SLP134 T03330244

2010/08/09 16:53
KDRO 091653Z AUTO 24006KT 10SM CLR 23/09 A3024 RMK AO2 SLP150 T02330094

2010/08/09 16:53
KDTN 091653Z VRB03KT 10SM CLR 33/23 A2997 RMK AO2 SLP144 T03330228

2010/08/09 16:53
KDTO 091653Z 21008G16KT 10SM CLR 35/22 A2993 RMK AO2 SLP125 T03500222

2010/08/09 16:53
KDTS 091653Z AUTO 05010KT 10SM CLR 33/24 A2997 RMK AO2 SLP147 T03330244

2010/08/09 16:53
KDTW 091653Z 26008KT 7SM FEW080 BKN130 OVC220 28/21 A2997 RMK AO2 SLP143 T02780206

2010/08/09 16:53
KDXR 091653Z 25009G16KT 8SM CLR 32/16 A3000 RMK AO2 SLP155 T03220161

2010/08/09 16:53
KECP 091653Z 06008KT 10SM FEW041 33/23 A2996 RMK AO2 SLP154 T03330233

2010/08/09 16:53
KELD 091653Z AUTO 33003KT 10SM CLR 33/23 A2997 RMK AO2 SLP145 T03330233

2010/08/09 16:53
KELM 091653Z VRB06KT 10SM CLR 29/16 A3000 RMK AO2 SLP151 T02940161

2010/08/09 16:53
KEMP 091653Z AUTO 18011KT 10SM CLR 36/21 A2991 RMK AO2 SLP114 T03560211

2010/08/09 16:53
KEWB 091653Z 21010KT 8SM SCT015 BKN095 30/21 A2998 RMK AO2 SLP151 T03000211

2010/08/09 16:53
KEYE 091653Z AUTO 29006KT 10SM CLR 32/21 A2998 RMK AO2 SLP143 T03170211

2010/08/09 16:53
KEYW 091653Z 23011KT 10SM -RA SCT023 SCT032 BKN055 28/24 A2994 RMK AO2 SLP137 P0003 T02830239

2010/08/09 16:53
KFDR 091653Z AUTO 20011G22KT 10SM 36/18 A2989 RMK AO2 SLP099 T03610183

2010/08/09 16:53
KFDY 091653Z AUTO 21004KT 7SM CLR 29/20 A2999 RMK AO2 SLP146 T02940200

2010/08/09 16:53
KFFT 091653Z AUTO VRB03KT 10SM CLR 33/21 A3001 RMK AO2 SLP153 T03280206

2010/08/09 16:53
KFLD 091653Z AUTO 24006KT 10SM BKN019 OVC026 25/21 A2991 RMK AO2 SLP124 T02500211

2010/08/09 16:53
KFLL 091653Z 13013G20KT 10SM FEW033 SCT090 31/24 A2994 RMK AO2 SLP139 T03060239

2010/08/09 16:53
KFLO 091653Z 05006KT 10SM CLR 32/22 A3003 RMK AO2 SLP166 T03220222

2010/08/09 16:53
KFMY 091653Z 12008KT 10SM FEW028 BKN060 31/23 A2990 RMK AO2 SLP128 T03110233

2010/08/09 16:53
KFNB 091653Z AUTO 15011KT 10SM CLR 32/24 A2985 RMK AO2 SLP095 T03220244

2010/08/09 16:53
KFNT 091653Z 23006KT 8SM CLR 26/21 A2995 RMK AO2 RAE1558 SLP137 P0000 T02560206

2010/08/09 16:53
KFOE 091653Z 18009KT 10SM CLR 36/21 A2989 RMK AO2 SLP108 T03560211

2010/08/09 16:53
KFOK 091653Z 19008G14KT 9SM CLR 28/21 A3003 RMK AO2 SLP167 T02830211

2010/08/09 16:53
KFPR 091653Z 11009KT 10SM SCT020 BKN080 29/24 A2995 RMK AO2 SLP139 T02940239

2010/08/09 16:53
KFRG 091653Z 19014KT 9SM CLR 29/23 A3001 RMK AO2 SLP161 T02890228

2010/08/09 16:53
KFTW 091653Z 18007KT 150V210 10SM CLR 35/23 A2994 RMK AO2 SLP126 T03500228

2010/08/09 16:50
KONL 091650Z AUTO 08003KT 10SM SCT011 23/22 A2996 RMK AO2 T02290221

2010/08/09 16:53
KONO 091653Z AUTO 00000KT 10SM CLR 23/09 A2987 RMK AO2 SLP099 T02330089

2010/08/09 16:53
KOPF 091653Z 19011KT 8SM -RA SCT016 BKN023 BKN030 26/24 A2997 RMK AO2 RAB1556 SLP150 P0035 T02560244

2010/08/09 16:51
KORF 091651Z 05006KT 10SM FEW030 30/22 A3004 RMK AO2 SLP172 T03000217

2010/08/09 16:53
KORL 091653Z 12007KT 10SM FEW025 31/25 A2993 RMK AO2 SLP137 T03060250

2010/08/09 16:53
KOSU 091653Z 23007KT 9SM CLR 31/19 A3003 RMK AO2 SLP162 T03060194 $

2010/08/09 16:53
KOTM 091653Z AUTO 18008KT 10SM CLR 27/23 A2991 RMK AO2 SLP119 T02720228

2010/08/09 16:53
KOWD 091653Z 26009KT 10SM FEW100 32/16 A2995 RMK AO2 SLP142 T03220161

2010/08/09 16:53
KPBG 091653Z AUTO 13008KT 10SM FEW045 26/19 A2991 RMK AO2 SLP127 T02560194

2010/08/09 16:53
KPBI 091653Z 15010KT 10SM SCT024 SCT085 BKN150 31/24 A2994 RMK AO2 SLP137 CB DSNT ALQDS T03050236

2010/08/09 16:53
KPEO 091653Z AUTO 20003KT 10SM CLR 28/19 A3000 RMK AO2 SLP151 T02830189

2010/08/09 16:53
KPGD 091653Z AUTO 09006KT 10SM -RA SCT025 BKN042 OVC050 29/24 A2995 RMK AO2 RAB28 SLP140 P0000 T02890244 TSNO

2010/08/09 16:53
KMWL 091653Z AUTO 23009KT 10SM CLR 34/22 A2994 RMK AO2 SLP123 T03440217

2010/08/09 16:53
KMYV 091653Z AUTO 20003KT 10SM CLR 20/12 A2988 RMK AO2 SLP122 T02000122 PWINO PNO $

2010/08/09 16:53
KODO 091653Z AUTO 16012G18KT 10SM CLR 31/19 A3003 RMK AO2 SLP119 T03110189

2010/08/09 16:50
KOGA 091650Z AUTO 05004KT 10SM CLR 31/16 A2999 RMK AO2 T03060157

2010/08/09 16:53
KOGB 091653Z AUTO 06007KT 10SM FEW039 33/22 A3004 RMK AO2 SLP168 T03280217

2010/08/09 16:53
KOGD 091653Z AUTO 17018G23KT 10SM CLR 25/08 A3004 RMK AO2 SLP110 T02500078

2010/08/09 16:53
KOJC 091653Z 19006KT 10SM CLR 34/24 A2992 RMK AO2 SLP116 T03390239

2010/08/09 16:53
KOLF 091653Z AUTO 15003KT 10SM CLR 27/14 A2987 RMK AO2 SLP104 T02720144

2010/08/09 16:53
KRIW 091653Z AUTO 10004KT 10SM CLR 23/05 A3007 RMK AO2 SLP113 T02330050

2010/08/09 16:53
KRME 091653Z 27007KT 10SM CLR 29/19 A2998 RMK AO2 SLP148 T02890189

2010/08/09 16:53
KRSL 091653Z AUTO 18007KT 10SM CLR 33/20 A2989 RMK AO2 SLP096 T03330200

2010/08/09 16:53
KRSW 091653Z 12008KT 10SM SCT025 SCT060 31/23 A2991 RMK AO2 SLP125 T03110233

2010/08/09 16:53
KRVS 091653Z 22007KT 10SM CLR 36/22 A2992 RMK AO2 SLP133 T03610222

2010/08/09 16:53
KRWL 091653Z AUTO 20015KT 10SM BKN095 22/05 A3020 RMK AO2 SLP132 T02170050 PNO $

2010/08/09 16:53
KRXE 091653Z AUTO 22007KT 10SM CLR 22/11 A3005 RMK AO2 SLP134 T02170106

2010/08/09 16:51
KSAN 091651Z VRB03KT 10SM OVC017 18/13 A2995 RMK AO2 SLP141 T01830133

2010/08/09 16:53
KSEG 091653Z AUTO VRB03KT 9SM CLR 31/17 A3001 RMK AO2 SLP160 T03110172

2010/08/09 16:49
KSEZ 091649Z AUTO 19005KT 10SM BKN120 28/09 A3015 RMK AO2 T02840094

2010/08/09 16:53
KSHR 091653Z AUTO 08005KT 10SM CLR 28/07 A2995 RMK AO2 SLP097 T02830072

2010/08/09 16:53
KSLC 091653Z 17017G26KT 10SM FEW080 SCT110 SCT200 26/06 A3002 RMK AO2 PK WND 15027/1632 SLP111 CB DSNT NW TCU DSNT SW ACSL DSNT SE T02560061

2010/08/09 16:53
KSLN 091653Z 21012KT 10SM CLR 37/21 A2987 RMK AO2 SLP096 T03720206

2010/08/09 16:53
KSMQ 091653Z AUTO 00000KT 10SM BKN050 32/20 A2998 RMK AO2 SLP150 T03170200 $

2010/08/09 16:53
KSNA 091653Z VRB03KT 6SM HZ BKN015 19/13 A2993 RMK AO2 SLP134 T01940128

2010/08/09 16:53
KSNY 091653Z AUTO 21004KT 10SM CLR 31/11 A3007 RMK AO2 SLP120 T03060106

2010/08/09 16:50
KSOW 091650Z AUTO 00000KT 10SM BKN090 22/11 A3029 RMK AO2

2010/08/09 16:53
KSPG 091653Z 14004KT 10SM FEW019 30/24 A2992 RMK AO2 SLP130 T03000244

2010/08/09 16:53
KSRQ 091653Z 10008KT 10SM FEW026 BKN033 29/24 A2992 RMK AO2 SLP132 T02940239

2010/08/09 16:53
KSSI 091653Z AUTO 04014KT 10SM FEW090 32/24 A2999 RMK AO2 SLP154 T03170244

2010/08/09 16:53
KSTJ 091653Z 15009KT 10SM CLR 32/24 A2988 RMK AO2 SLP107 T03220239

2010/08/09 16:50
KSUN 091650Z 27005KT 30SM SCT080 BKN120 17/10 A3006

2010/08/09 16:53
KSWO 091653Z 13007KT 10SM CLR 37/22 A2991 RMK AO2 SLP112 T03670217

2010/08/09 16:50
KSZT 091650Z AUTO 13003KT 10SM SCT070 20/16 A2988 RMK AO2

2010/08/09 16:53
KTDZ 091653Z AUTO 21008KT 8SM CLR 30/20 A2998 RMK AO2 SLP145 T03000200

2010/08/09 16:50
KTEX 091650Z AUTO 00000KT 10SM SCT065 BKN075 BKN090 17/10 A3042 RMK AO2

2010/08/09 16:53
KTHV 091653Z AUTO 00000KT 9SM CLR 31/18 A3002 RMK AO2 SLP164 T03110183

2010/08/09 16:50
KTIF 091650Z AUTO 12004KT 10SM CLR 26/20 A3001 RMK AO2 T02550196

2010/08/09 16:53
KTKI 091653Z 17008KT 10SM CLR 33/23 A2995 RMK AO2 SLP132 T03280233

2010/08/09 16:53
KTMB 091653Z 15007KT 1 1/4SM +RA BR BKN012 OVC028 24/23 A2997 RMK AO2 SLP148 P0040 T02440233

2010/08/09 16:53
KTOP 091653Z 19006KT 10SM CLR 37/21 A2987 RMK AO2 SLP103 T03670211

2010/08/09 16:53
KTOR 091653Z AUTO 30008KT 10SM FEW110 27/14 A3002 RMK AO2 LTG DSNT N SLP114 T02670139

2010/08/09 16:53
KTPA 091653Z VRB06KT 8SM SCT025 31/24 A2992 RMK AO2 SLP131 T03110239

2010/08/09 16:53
KTRL 091653Z AUTO 20008KT 150V240 10SM CLR 34/20 A2996 RMK AO2 SLP137 T03440200

2010/08/09 16:53
KTTN 091653Z 25007KT 220V280 8SM CLR 33/18 A3000 RMK AO2 SLP152 T03280183

2010/08/09 16:53
KTUL 091653Z 22005KT 10SM CLR 36/22 A2992 RMK AO2 SLP121 T03560217

2010/08/09 16:53
KTWF 091653Z 16016KT 10SM CLR 25/07 A2995 RMK AO2 SLP081 T02500072

2010/08/09 16:53
KPHD 091653Z AUTO 23003KT 10SM CLR 29/17 A3004 RMK AO2 SLP167 T02890172

2010/08/09 16:53
KPIE 091653Z 08005KT 10SM SCT020 31/24 A2993 RMK AO2 SLP133 T03060239

2010/08/09 16:53
KPIH 091653Z 00000KT 10SM FEW075 BKN095 21/09 A3002 RMK AO2 RAB40E50 SLP119 P0000 T02110094

2010/08/09 16:53
KPIL 091653Z AUTO 12007G14KT 10SM SCT032 34/25 A2992 RMK AO2 SLP132 T03440250

2010/08/09 16:53
KPKB 091653Z 21005KT 7SM CLR 30/18 A3007 RMK AO2 SLP174 T03000178

2010/08/09 16:53
KPMD 091653Z 02005KT 10SM CLR 26/03 A2996 RMK AO2 SLP118 T02610028

2010/08/09 16:53
KPMP 091653Z 15011KT 10SM SCT025 SCT075 29/24 A2995 RMK AO2 SLP142 T02940244

2010/08/09 16:50
KPNA 091650Z AUTO 11004KT 10SM SCT120 20/03 A3019 RMK AO2 LTG DSNT W T01950025

2010/08/09 16:53
KPNC 091653Z AUTO 16003KT 10SM CLR 34/21 A2991 RMK AO2 SLP112 T03440211

2010/08/09 16:53
KPNS 091653Z 15008KT 10SM FEW027 32/25 A2999 RMK AO2 SLP154 T03220250

2010/08/09 16:53
KPOF 091653Z AUTO 18003KT 10SM FEW031 34/27 A2994 RMK AO2 SLP132 T03390267

2010/08/09 16:53
KPOU 091653Z 22006KT 10SM CLR 32/16 A2997 RMK AO2 SLP144 T03170156

2010/08/09 16:53
KPRC 091653Z 00000KT 10SM SCT110 25/08 A3015 RMK AO2 SLP131 T02500078

2010/08/09 16:53
KPTK 091653Z 26005KT 10SM SCT130 OVC160 26/20 A2996 RMK AO2 RAB01E20 SLP138 P0000 T02610200

2010/08/09 16:50
KPTT 091650Z AUTO 19008KT 10SM CLR 36/16 A2993 RMK AO2

2010/08/09 16:53
KPUB 091653Z VRB05KT 10SM CLR 25/14 A3009 RMK AO2 SLP124 T02500144 $

2010/08/09 16:53
KPUC 091653Z AUTO 16003KT 10SM CLR 21/07 A3018 RMK AO2 SLP162 T02060067

2010/08/09 16:53
KPWA 091653Z 17008KT 10SM CLR 34/21 A2993 RMK AO2 SLP115 T03390211

2010/08/09 16:53
KRBD 091653Z 18007KT 10SM CLR 33/23 A2995 RMK AO2 SLP131 T03330228

2010/08/09 16:53
KRHI 091653Z AUTO VRB04KT 10SM CLR 28/21 A2994 RMK AO2 SLP129 T02830211

2010/08/09 16:53
KMAI 091653Z AUTO 09010G16KT 10SM FEW036 34/23 A2998 RMK AO2 SLP148 T03440228

2010/08/09 16:53
KMBS 091653Z 21010KT 10SM CLR 26/21 A2992 RMK AO2 SLP129 T02560211

2010/08/09 16:53
KMCI 091653Z 17007KT 10SM SCT250 34/23 A2991 RMK AO2 SLP114 T03390228

2010/08/09 16:53
KMCK 091653Z AUTO 04012KT 10SM CLR 31/22 A2995 RMK AO2 SLP113 T03060217

2010/08/09 16:53
KMCO 091653Z 10008KT 10SM SCT020 BKN070 BKN250 29/24 A2993 RMK AO2 SLP134 T02940239

2010/08/09 16:53
KMCW 091653Z AUTO 16006KT 10SM FEW055 27/22 A2995 RMK AO2 SLP128 T02720222

2010/08/09 16:53
KMGY 091653Z AUTO 21004KT 10SM CLR 30/19 A3002 RMK AO2 SLP157 T03000194

2010/08/09 16:53
KMHT 091653Z VRB05KT 10SM SCT060 32/16 A2992 RMK AO2 SLP140 T03170161

2010/08/09 16:53
KMIA 091653Z 17010KT 7SM -RA FEW007 BKN015CB BKN040 OVC130 26/24 A2997 RMK AO2 SLP149 CB N-E-SE MOV NW P0000 T02560244

2010/08/09 16:53
KMIE 091653Z 22005KT 10SM CLR 30/21 A3000 RMK AO2 SLP146 T03000211

2010/08/09 16:53
KMKO 091653Z AUTO 22010KT 10SM CLR 35/22 A2996 RMK AO2 SLP134 T03500217

2010/08/09 16:53
KMLB 091653Z 10010KT 10SM SCT017CB 29/24 A2994 RMK AO2 SLP139 T02940239

2010/08/09 16:53
KMLC 091653Z AUTO 20009G14KT 10SM CLR 35/22 A2996 RMK AO2 SLP132 T03500217

2010/08/09 16:53
KMLS 091653Z AUTO VRB03KT 10SM CLR 28/09 A2989 RMK AO2 SLP095 T02830094

2010/08/09 16:53
KMLT 091653Z AUTO 27005KT 10SM SCT028 BKN046 24/18 A2991 RMK AO2 SLP132 T02440178

2010/08/09 16:53
KMLU 091653Z 25004KT 10SM CLR 35/24 A2997 RMK AO2 SLP147 T03500239

2010/08/09 16:53
KMMK 091653Z AUTO VRB05KT CLR 32/18 A2997 RMK AO2 SLP147 T03170183 $

2010/08/09 16:53
KMNN 091653Z AUTO 28007KT 10SM CLR 30/19 A3003 RMK AO2 SLP163 T03000189

2010/08/09 16:53
KMSO 091653Z 00000KT 10SM CLR 20/09 A2992 RMK AO2 SLP112 T02000089

2010/08/09 16:53
KMSS 091653Z AUTO 27005KT 10SM OVC022 25/20 A2993 RMK AO2 SLP133 T02500200

2010/08/09 16:53
KMTH 091653Z AUTO VRB05KT 10SM BKN048 BKN065 27/24 A2995 RMK AO2 SLP142 T02670239

2010/08/09 16:53
KMTJ 091653Z AUTO 00000KT 10SM BKN100 23/11 A3022 RMK AO2 SLP155 T02280111

2010/08/09 16:53
KMTO 091653Z AUTO VRB04KT 10SM CLR 32/24 A2996 RMK AO2 SLP137 T03220244 $

2010/08/09 16:53
KMVY 091653Z 22011KT 10SM SCT009 29/23 A3000 RMK AO2 SLP159 T02890228

2010/08/09 16:53
KTXK 091653Z 21005KT 10SM CLR 34/23 A2997 RMK AO2 SLP144 T03390228

2010/08/09 16:53
KTYR 091653Z 21009KT 10SM CLR 33/21 A3000 RMK AO2 SLP148 T03280211

2010/08/09 16:53
KUAO 091653Z AUTO VRB04KT 10SM OVC024 16/11 A3001 RMK AO2 SLP162 T01560106

2010/08/09 16:53
KUNO 091653Z AUTO 28007KT 10SM CLR 36/21 A3000 RMK AO2 SLP140 T03560211

2010/08/09 16:53
KUUU 091653Z AUTO 22009G15KT 180V250 10SM CLR 27/22 A3001 RMK AO2 SLP158 T02670217

2010/08/09 16:53
KVEL 091653Z AUTO 14006KT 10SM SCT110 19/11 A3015 RMK AO2 SLP154 T01940106

2010/08/09 16:53
KVIH 091653Z AUTO 04004KT 10SM CLR 34/25 A2997 RMK AO2 SLP133 T03390250

2010/08/09 16:53
KVLD 091653Z 04010G16KT 10SM SCT040 33/22 A2998 RMK AO2 SLP156 T03280222

2010/08/09 16:53
KVRB 091653Z 10009KT 10SM BKN070 29/23 A2994 RMK AO2 SLP138 T02890233

2010/08/09 16:53
KWRL 091653Z AUTO 04004KT 10SM CLR 26/07 A2997 RMK AO2 SLP100 T02610067

2010/08/09 16:53
KWST 091653Z AUTO 26008KT 9SM CLR 28/22 A3001 RMK AO2 SLP161 T02780217

2010/08/09 16:53
KWVI 091653Z AUTO 21003KT 10SM OVC006 13/12 A2996 RMK AO2 SLP144 T01330117

2010/08/09 16:53
KYIP 091653Z AUTO 24010KT 10SM CLR 28/20 A2997 RMK AO2 SLP142 T02830200 TSNO

2010/08/09 16:53
KZZV 091653Z AUTO VRB04KT 10SM CLR 29/18 A3004 RMK AO2 SLP163 T02940183

2010/08/09 16:54
KAAO 091654Z AUTO 17009KT 10SM CLR 36/21 A2992 RMK AO2 SLP111 T03610206

2010/08/09 16:55
KAIZ 091655Z AUTO 22006KT 10SM CLR 34/24 A2997 RMK AO1

2010/08/09 16:54
KAKH 091654Z AUTO VRB03KT 10SM FEW080 33/21 A3006 RMK AO2 SLP169 T03280206

2010/08/09 16:54
KALO 091654Z AUTO 12007KT 10SM CLR 28/23 A2991 RMK AO2 SLP122 T02780228

2010/08/09 16:54
KAPC 091654Z 24004KT 10SM OVC008 14/12 A2993 RMK AO2 SLP127 T01390117

2010/08/09 16:55
KARG 091655Z AUTO 27003KT 10SM CLR 33/25 A2995 RMK AO1

2010/08/09 16:55
KAUO 091655Z AUTO 05008KT 10SM CLR 34/22 A3002 RMK AO1

2010/08/09 16:54
KAUW 091654Z AUTO 30006KT 8SM FEW022 29/22 A2990 RMK AO2 SLP120 T02890222

2010/08/09 16:54
KAVL 091654Z VRB05KT 10SM CLR 31/20 A3013 RMK AO2 SLP171 T03110200

2010/08/09 16:55
KAWO 091655Z AUTO 00000KT 10SM 16/13 A2998 RMK AO1

2010/08/09 16:50
KBCT 091650Z AUTO 17008KT 10SM FEW024 31/25 A2995

2010/08/09 16:54
KBFL 091654Z 24005KT 10SM CLR 24/13 A2988 RMK AO2 SLP113 T02440128

2010/08/09 16:55
KBHB 091655Z AUTO 19009KT 9SM OVC006 22/20 A2993 RMK AO1

2010/08/09 16:55
KBID 091655Z AUTO 23014KT 10SM FEW008 27/23 A3000 RMK AO1

2010/08/09 16:55
KBKX 091655Z AUTO 09006KT 10SM CLR 30/19 A2995 RMK AO1

2010/08/09 16:55
KBLM 091655Z AUTO 29008KT 10SM CLR 33/17 A3003 RMK AO1

2010/08/09 16:54
KBOS 091654Z 23011KT 10SM FEW050 SCT060 SCT100 32/17 A2994 RMK AO2 SLP139 T03170172

2010/08/09 16:55
KBTP 091655Z AUTO 00000KT 7SM CLR 28/17 A3005 RMK AO1

2010/08/09 16:54
KBUY 091654Z AUTO 00000KT 9SM SCT041 BKN050 31/21 A3004 RMK AO2 SLP166 T03110211

2010/08/09 16:55
KBVX 091655Z AUTO 35003KT 10SM FEW065 33/25 A2997 RMK AO1

2010/08/09 16:54
KBWI 091654Z VRB06KT 9SM SCT048 SCT180 BKN250 32/19 A3000 RMK AO2 SLP157 T03220189

2010/08/09 16:54
KCEU 091654Z AUTO 00000KT 9SM CLR 33/22 A3007 RMK AO2 SLP170 T03280222

2010/08/09 16:55
KCGZ 091655Z AUTO 00000KT 10SM CLR 33/07 A2992 RMK AO1

2010/08/09 16:55
KCIU 091655Z AUTO 19011KT 10SM FEW023 25/19 A2990 RMK AO1

2010/08/09 16:55
KCOD 091655Z 00000KT 10SM BKN110 24/09 A3002 RMK AO1

2010/08/09 16:55
KCOE 091655Z AUTO 15007KT 10SM CLR 21/12 A2989 RMK AO1

2010/08/09 16:54
KCOS 091654Z AUTO 18004KT 10SM FEW100 22/14 A3020 RMK AO2 SLP151 T02170139 TSNO

2010/08/09 16:54
KCRW 091654Z 00000KT 6SM HZ FEW040 30/19 A3005 RMK AO2 SLP164 T03000194

2010/08/09 16:55
KCVN 091655Z 22009KT 10SM CLR 28/16 A3010 RMK AO1

2010/08/09 16:55
KCVO 091655Z AUTO 30005KT 10SM OVC015 15/11 A3002 RMK AO1

2010/08/09 16:55
KCWI 091655Z 35005KT 10SM CLR 25/22 A2994 RMK AO1

2010/08/09 16:54
KDDH 091654Z AUTO 28007KT 9SM CLR 28/18 A2999 RMK AO2 SLP149 T02830183

2010/08/09 16:54
KDEC 091654Z 19006KT 10SM CLR 32/24 A2995 RMK AO2 SLP135 T03170244

2010/08/09 16:54
KDSM 091654Z 17011KT 10SM FEW022 SCT150 BKN250 28/23 A2989 RMK AO2 SLP114 T02830228

2010/08/09 16:55
KDVL 091655Z AUTO 20008KT 10SM CLR 29/19 A2985 RMK AO1

2010/08/09 16:54
KDYL 091654Z AUTO 17007KT 10SM SCT048 31/19 A3001 RMK AO2 SLP155 T03110194 TSNO

2010/08/09 16:53
KHFD 091653Z 24007G16KT 10SM CLR 33/14 A2995 RMK AO2 SLP143 T03280144

2010/08/09 16:53
KHLC 091653Z AUTO 10009KT 10SM CLR 32/19 A2992 RMK AO2 SLP100 T03220189

2010/08/09 16:53
KHLN 091653Z 00000KT 10SM BKN110 17/09 A2996 RMK AO2 RAB08E25 SLP139 P0000 T01670094

2010/08/09 16:50
KHSA 091650Z 05007KT 10SM SCT030 BKN050 33/26 A2997

2010/08/09 16:53
KHUF 091653Z 26005KT 9SM CLR 32/22 A2997 RMK AO2 SLP142 T03170217

2010/08/09 16:53
KHUL 091653Z AUTO 28003KT 10SM FEW018 SCT025 BKN055 22/19 A2987 RMK AO2 RAB12E28 SLP112 P0000 T02220189

2010/08/09 16:53
KHVN 091653Z 22007KT 10SM CLR 31/20 A2998 RMK AO2 SLP152 T03060200

2010/08/09 16:53
KHVR 091653Z AUTO 09004KT 10SM CLR 26/11 A2989 RMK AO2 SLP103 T02560106

2010/08/09 16:53
KHWO 091653Z 16013G18KT 10SM BKN026 29/23 A2996 RMK AO2 SLP146 T02940233

2010/08/09 16:53
KHZY 091653Z AUTO 19007KT 10SM FEW090 28/19 A3001 RMK AO2 SLP156 T02830194

2010/08/09 16:53
KIAG 091653Z 21010KT 10SM BKN075 BKN110 OVC140 27/21 A2995 RMK AO2 SLP136 T02670206

2010/08/09 16:53
KICT 091653Z 18009KT 10SM FEW200 SCT250 37/21 A2991 RMK AO2 SLP109 T03670206

2010/08/09 16:53
KIDA 091653Z 21004KT 10SM SCT090 BKN110 OVC150 21/10 A3005 RMK AO2 SLP132 T02110100

2010/08/09 16:53
KIML 091653Z AUTO 06008KT 10SM CLR 26/20 A2999 RMK AO2 SLP121 T02610200

2010/08/09 16:50
KISM 091650Z 15009KT 10SM BKN020 BKN035 29/25 A2995

2010/08/09 16:53
KITR 091653Z AUTO 10010KT 10SM CLR 28/16 A3005 RMK AO2 SLP113 T02830156

2010/08/09 16:53
KIWI 091653Z AUTO VRB03KT 10SM BKN034 BKN049 27/20 A2993 RMK AO2 SLP134 T02720200

2010/08/09 16:53
KIXD 091653Z 16009KT 10SM CLR 35/23 A2992 RMK AO2 SLP117 T03500233

2010/08/09 16:51
KJCT 091651Z AUTO 19007KT 10SM CLR 32/19 A3000 RMK AO2 SLP118 T03220189 TSNO

2010/08/09 16:53
KJEF 091653Z AUTO 00000KT 10SM CLR 32/24 A2994 RMK AO2 SLP123 T03170239

2010/08/09 16:53
KJER 091653Z AUTO VRB05KT 10SM CLR 24/07 A2996 RMK AO2 SLP103 T02390067

2010/08/09 16:53
KJKL 091653Z AUTO VRB03KT 10SM CLR 31/18 A3008 RMK AO2 SLP166 T03060178

2010/08/09 16:53
KJLN 091653Z 22007KT 10SM CLR 33/24 A2997 RMK AO2 SLP133 T03330239 $

2010/08/09 16:53
KLAA 091653Z AUTO 00000KT 10SM CLR 28/16 A2999 RMK AO2 SLP099 T02780161

2010/08/09 16:53
KLAN 091653Z 21008KT 10SM -RA FEW012 SCT065 OVC120 23/22 A2997 RMK AO2 SLP145 P0000 T02330217

2010/08/09 16:53
KLAR 091653Z AUTO VRB03KT 10SM FEW120 22/07 A3024 RMK AO2 SLP127 T02170072

2010/08/09 16:53
KLAW 091653Z AUTO 21008G14KT 10SM CLR 36/19 A2992 RMK AO2 SLP113 T03560189

2010/08/09 16:53
KLBB 091653Z 22012KT 10SM FEW180 31/18 A3004 RMK AO2 SLP112 T03110178

2010/08/09 16:53
KLBF 091653Z AUTO 05006KT 10SM CLR 27/21 A2997 RMK AO2 SLP120 T02670211

2010/08/09 16:53
KLEB 091653Z 25007G14KT 10SM FEW055 30/17 A2994 RMK AO2 SLP126 T03000172

2010/08/09 16:53
KLEE 091653Z 12003KT 10SM CLR 29/25 A2994 RMK AO2 RAE02 SLP138 P0000 T02940250

2010/08/09 16:53
KLHQ 091653Z AUTO 19006KT 9SM CLR 30/19 A3004 RMK AO2 SLP165 T03000194

2010/08/09 16:53
KLHX 091653Z AUTO 00000KT 10SM CLR 27/16 A3005 RMK AO2 SLP110 T02670161 $

2010/08/09 16:53
KLNS 091653Z 25006KT 8SM FEW041 31/21 A3002 RMK AO2 SLP161 T03060206

2010/08/09 16:53
KLOU 091653Z 18005KT 10SM CLR 33/21 A2999 RMK AO2 SLP150 T03280211

2010/08/09 16:53
KLOZ 091653Z AUTO VRB03KT 10SM CLR 31/22 A3006 RMK AO2 SLP166 T03060222

2010/08/09 16:53
KLPR 091653Z AUTO 22008KT 9SM CLR 31/21 A3001 RMK AO2 SLP156 T03060206

2010/08/09 16:53
KLUK 091653Z 18005KT 10SM CLR 32/21 A3001 RMK AO2 SLP156 T03170206

2010/08/09 16:53
KLVM 091653Z AUTO 27005KT 10SM FEW110 24/09 A2998 RMK AO2 SLP114 T02390089

2010/08/09 16:53
KLWD 091653Z AUTO 18010KT 10SM CLR 27/23 A2989 RMK AO2 SLP111 T02670233

2010/08/09 16:53
KLWV 091653Z AUTO 00000KT 7SM CLR 33/23 A2995 RMK AO2 SLP138 T03330228

2010/08/09 16:53
KLXT 091653Z AUTO 12009KT 10SM CLR 32/24 A2993 RMK AO2 SLP123 T03170244

2010/08/09 16:53
KMAF 091653Z 17011G18KT 10SM CLR 32/19 A3002 RMK AO2 SLP114 T03170189

2010/08/09 16:53
KDGW 091653Z AUTO VRB03KT 10SM CLR 29/07 A3005 RMK AO2 SLP108 T02890067

2010/08/09 17:00
MROC 091700Z 10011KT 9999 FEW040 BKN120 27/20 A3003 NOSIG

2010/08/09 16:55
KDYR 091655Z AUTO 00000KT 9SM CLR 31/25 A2997 RMK AO1 P0007

2010/08/09 16:55
KEAR 091655Z AUTO 09003KT 10SM CLR 27/22 A2996 RMK AO1

2010/08/09 16:54
KECG 091654Z 07006KT 10SM CLR 31/21 A3005 RMK AO2 SLP176 T03060206

2010/08/09 16:55
KEEN 091655Z AUTO 23007G14KT 200V260 10SM FEW048 BKN060 BKN070 29/18 A2996 RMK AO1

2010/08/09 16:53
KEGE 091653Z 00000KT 10SM OVC080 19/08 A3026

2010/08/09 16:55
KEHR 091655Z AUTO 00000KT 10SM FEW042 34/22 A2997 RMK AO1

2010/08/09 16:55
KENV 091655Z AUTO 09009KT 10SM CLR 24/07 A3002 RMK AO1

2010/08/09 16:55
KESC 091655Z AUTO 14007KT 8SM SCT024 SCT030 27/22 A2986 RMK AO1

2010/08/09 16:54
KEUG 091654Z 36007KT 9SM OVC009 14/12 A3001 RMK AO2 SLP161 T01440117

2010/08/09 16:55
KEUL 091655Z AUTO 30006KT 10SM FEW120 22/08 A2990 RMK AO1

2010/08/09 16:54
KEVV 091654Z 00000KT 10SM SCT049 34/21 A2997 RMK AO2 SLP142 T03440206

2010/08/09 16:55
KEWK 091655Z AUTO 18011KT 10SM CLR 36/19 A2989 RMK AO1

2010/08/09 16:54
KEWN 091654Z 15007KT 10SM FEW021 31/24 A3004 RMK AO2 SLP171 T03110244

2010/08/09 16:55
KFAM 091655Z AUTO 26003KT 10SM CLR 33/25 A2999 RMK AO1

2010/08/09 16:55
KFKL 091655Z AUTO 20009KT 170V230 10SM CLR 28/18 A3008 RMK AO1

2010/08/09 16:55
KFLP 091655Z AUTO 26005KT 10SM CLR 33/23 A2998 RMK AO1

2010/08/09 16:55
KFNL 091655Z AUTO 03003KT 10SM FEW060 BKN110 24/14 A3012 RMK AO1

2010/08/09 16:55
KFOD 091655Z AUTO 16005KT 10SM OVC022 27/24 A2991 RMK AO1

2010/08/09 16:55
KFRM 091655Z 19005KT 10SM OVC024 27/22 A2995 RMK AO1

2010/08/09 16:55
KGAD 091655Z AUTO 20004KT 10SM FEW060 33/23 A3002 RMK AO1

2010/08/09 16:55
KGAI 091655Z 18003KT 10SM FEW044 31/21 A3004 RMK AO1

2010/08/09 16:55
KGBD 091655Z AUTO 22006KT 10SM CLR 36/18 A2991 RMK AO1

2010/08/09 16:54
KGCK 091654Z VRB05KT 10SM FEW090 33/16 A2995 RMK AO2 SLP098 T03330161

2010/08/09 16:54
KGCN 091654Z 20008G14KT 10SM CLR 21/04 A3026 RMK AO2 SLP165 T02110044

2010/08/09 16:55
KGDV 091655Z AUTO 04003KT 10SM CLR 27/12 A2989 RMK AO1

2010/08/09 16:54
KGED 091654Z AUTO VRB03KT 10SM CLR 32/18 A3002 RMK AO2 SLP164 T03220178

2010/08/09 16:55
KGPZ 091655Z AUTO 28003KT 10SM CLR 28/21 A2993 RMK AO1

2010/08/09 16:55
KGUC 091655Z AUTO 22006KT 190V250 10SM BKN090 OVC110 18/04 A3033 RMK AO1

2010/08/09 16:55
KGXY 091655Z AUTO 35005KT 10SM SCT100 SCT120 23/15 A3011 RMK AO1

2010/08/09 16:55
KHDN 091655Z 29006KT 10SM BKN100 BKN120 18/08 A3026 RMK AO1

2010/08/09 16:55
KHEF 091655Z AUTO 18009KT 150V210 10SM 32/22 A3001 RMK AO1

2010/08/09 16:55
KHEZ 091655Z AUTO 34003KT 10SM CLR 33/24 A2999 RMK AO1

2010/08/09 16:55
KHNB 091655Z AUTO 11003KT 10SM CLR 33/22 A2998 RMK AO1

2010/08/09 16:54
KHWD 091654Z 33004KT 10SM OVC014 16/12 A2993 RMK AO2 SLP143 T01610117

2010/08/09 16:55
KHYS 091655Z AUTO 11006KT 10SM CLR 34/19 A2991 RMK AO1

2010/08/09 16:54
KILN 091654Z AUTO 18007KT 9SM CLR 30/19 A3004 RMK AO2 SLP159 T03000194

2010/08/09 16:54
KIMT 091654Z AUTO 34006KT 10SM FEW024 28/22 A2988 RMK AO2 SLP113 T02830217

2010/08/09 16:54
KIND 091654Z 22007KT 10SM FEW120 SCT250 33/21 A2997 RMK AO2 SLP140 ACC W T03280206

2010/08/09 16:54
KINT 091654Z 28006KT 10SM CLR 31/20 A3007 RMK AO2 SLP168 T03110200

2010/08/09 16:54
KIPT 091654Z VRB05KT 10SM CLR 30/14 A3000 RMK AO2 SLP153 T03000139

2010/08/09 16:54
KISW 091654Z AUTO 00000KT 10SM OVC006 26/23 A2993 RMK AO2 CIG 006V012 SLP129 T02560233 TSNO

2010/08/09 16:55
KIWD 091655Z AUTO 28006KT 10SM SCT016 26/22 A2991 RMK AO1

2010/08/09 16:54
KIZG 091654Z AUTO 00000KT 10SM BKN060 29/17 A2993 RMK AO2 SLP133 T02940167

2010/08/09 16:55
KJHW 091655Z AUTO 21004KT 10SM OVC080 27/17 A3003 RMK AO1

2010/08/09 16:55
KKLS 091655Z AUTO 26004KT 9SM OVC025 15/11 A3000 RMK AO1

2010/08/09 16:54
KLAF 091654Z 24005KT 9SM FEW039 32/23 A2996 RMK AO2 SLP139 T03170228

2010/08/09 16:55
KLBL 091655Z 18005KT 10SM CLR 34/17 A2997 RMK AO1

2010/08/09 16:54
KLBT 091654Z AUTO 11007KT 10SM CLR 33/21 A3002 RMK AO2 SLP165 T03330211

2010/08/09 16:55
KLCI 091655Z AUTO 29011G17KT 240V300 10SM SCT060 SCT070 29/16 A2994 RMK AO1

2010/08/09 16:55
KLEW 091655Z 26003KT 10SM BKN047 BKN120 28/17 A2995 RMK AO1

2010/08/09 16:54
KLEX 091654Z 00000KT 10SM CLR 33/17 A3004 RMK AO2 SLP159 T03280172

2010/08/09 16:55
KLGD 091655Z AUTO 00000KT 10SM SCT110 20/07 A2989 RMK AO1

2010/08/09 16:55
KLKV 091655Z AUTO 18008KT 10SM CLR 21/05 A3003 RMK AO1

2010/08/09 16:54
KPLN 091654Z AUTO 16007KT 10SM BKN006 24/22 A2989 RMK AO2 RAE1555B11E24 CIG 006V011 SLP118 P0000 T02390217

2010/08/09 16:54
KPNE 091654Z VRB06KT 10SM SCT049 BKN060 32/20 A3002 RMK AO2 SLP164 T03220200

2010/08/09 16:55
KPQI 091655Z AUTO 00000KT 10SM FEW020 BKN029 OVC034 21/17 A2985 RMK AO1

2010/08/09 16:54
KPSF 091654Z AUTO 30007KT 10SM CLR 29/17 A3001 RMK AO2 SLP130 T02940167

2010/08/09 16:55
KPTN 091655Z AUTO 35006KT 10SM CLR 33/17 A3002 RMK AO1 LTG DSNT SW

2010/08/09 16:55
KPTV 091655Z AUTO 21003KT 10SM CLR 24/13 A2991 RMK AO1

2010/08/09 16:55
KPVC 091655Z 22015G20KT 10SM CLR 28/22 A2997 RMK AO1

2010/08/09 16:55
KPWT 091655Z AUTO 20005KT 10SM SCT008 OVC017 15/11 A3000 RMK AO1

2010/08/09 16:54
KRBL 091654Z AUTO 00000KT 10SM CLR 24/13 A2988 RMK AO2 SLP115 T02390133

2010/08/09 16:54
KRDG 091654Z 27006KT 10SM CLR 32/19 A2999 RMK AO2 SLP158 T03220194

2010/08/09 16:55
KRKD 091655Z AUTO 17009KT 10SM FEW023 FEW030 24/20 A2992 RMK AO1

2010/08/09 16:54
KRKS 091654Z AUTO 00000KT 10SM SCT080 SCT100 22/04 A3019 RMK AO2 SLP137 T02170039

2010/08/09 16:54
KRST 091654Z 28005KT 10SM SCT016 28/23 A2996 RMK AO2 SLP133 T02780233

2010/08/09 16:55
KRUT 091655Z 24010KT 200V280 10SM OVC043 27/18 A2996 RMK AO1

2010/08/09 16:54
KSBY 091654Z 20005KT 10SM FEW055 31/18 A3002 RMK AO2 SLP167 T03060178

2010/08/09 16:55
KSDY 091655Z AUTO 03008KT 10SM CLR 27/15 A2988 RMK AO1

2010/08/09 16:54
KSET 091654Z AUTO 14004KT 9SM CLR 32/26 A2993 RMK AO2 SLP127 T03170256

2010/08/09 16:55
KSFM 091655Z 27010G16KT 2SM SCT060 32/17 A2992 RMK AO1

2010/08/09 16:55
KSFZ 091655Z 26006KT 10SM FEW043 SCT120 29/20 A2997 RMK AO1

2010/08/09 16:55
KSGT 091655Z 00000KT CLR 33/26 A2997 RMK AO1

2010/08/09 16:55
KSGU 091655Z AUTO 00000KT 10SM CLR 24/13 A3005 RMK AO1

2010/08/09 16:53
KSJC 091653Z COR VRB05KT 10SM FEW007 17/11 A2992 RMK AO2 SLP130 T01720106

2010/08/09 16:54
KSJN 091654Z AUTO 00000KT 10SM BKN110 22/12 A3022 RMK AO2 SLP150 T02170117

2010/08/09 16:55
KSKX 091655Z AUTO 15005KT 10SM BKN120 23/11 A3026 RMK AO1

2010/08/09 16:55
KSLG 091655Z AUTO 20006KT 10SM CLR 34/22 A3000 RMK AO1

2010/08/09 16:55
KSMN 091655Z AUTO 35004KT 10SM SCT120 22/11 A2998 RMK AO1

2010/08/09 16:55
KSQI 091655Z AUTO 03006KT 10SM CLR 26/22 A2995 RMK AO1

2010/08/09 16:55
KSUE 091655Z AUTO 00000KT 10SM CLR 28/23 A2990 RMK AO1

2010/08/09 16:54
KSUS 091654Z 17003KT 10SM BKN150 33/26 A2992 RMK AO2 SLP122 T03280256

2010/08/09 16:54
KSYR 091654Z 26006KT 10SM SCT060 BKN200 30/19 A2995 RMK AO2 SLP137 T03000194

2010/08/09 16:53
PAAQ 091653Z 35006KT 10SM OVC090 13/09 A2964 RMK AO2 SLP034 T01330094

2010/08/09 16:53
PABE 091653Z 16016KT 7SM -RA FEW010 BKN027 10/09 A2935 RMK AO2 SLP939 P0000 T01000089

2010/08/09 16:53
PABI 091653Z 15009G17KT 110V170 10SM FEW090 BKN110 BKN180 14/06 A2962 RMK AO2 SLP029 T01390056

2010/08/09 16:53
PABR 091653Z AUTO 07022G27KT 10SM OVC005 01/01 A2989 RMK AO2 PK WND 07027/1653 CIG 003V007 SLP124 T00110011 TSNO

2010/08/09 16:53
PABT 091653Z 03005KT 10SM FEW011 SCT050 BKN070 13/10 A2957 RMK AO2 SLP021 RAE36 P0001 T01330100 $

2010/08/09 16:53
PACD 091653Z 11006KT 10SM BKN043 OVC075 12/08 A2951 RMK AO2 SLP993 T01170083

2010/08/09 16:53
PACV 091653Z 00000KT 10SM FEW016 SCT027 OVC039 13/11 A2983 RMK AO2 SLP100 T01280106

2010/08/09 16:53
PADE 091653Z AUTO 08009KT 10SM -RA BKN055 OVC085 12/11 A2938 RMK AO2 RAB37 SLP948 P0000 T01220111 TSNO

2010/08/09 16:53
PAEG 091653Z AUTO 13007KT 080V150 10SM OVC070 16/09 A2961 RMK AO2 RAB43E52 SLP026 P0000 T01560094 TSNO

2010/08/09 16:53
PAEN 091653Z 04005KT 10SM BKN055 OVC070 14/11 A2961 RMK AO2 SLP027 T01440111

2010/08/09 16:53
PAFA 091653Z 10006KT 10SM BKN070 BKN095 OVC120 14/11 A2956 RMK AO2 RAB22E50 SLP013 P0000 T01440111

2010/08/09 16:53
PAGK 091653Z 17014G23KT 10SM FEW060 SCT080 SCT110 SCT140 SCT180 11/07 A2970 RMK AO2 SLP060 T01110072

2010/08/09 16:53
PAGY 091653Z AUTO 21012KT 10SM BKN050 OVC060 13/11 A2993 RMK AO2 SLP136 T01330106 TSNO

2010/08/09 16:53
PAHO 091653Z 26004KT 10SM SCT050 BKN200 15/10 A2962 RMK AO2 SLP029 T01500100

2010/08/09 16:53
PAIL 091653Z 13007KT 10SM SCT026 BKN065 12/09 A2956 RMK AO2 SLP012 T01220089

2010/08/09 16:50
EGHK 091650Z 23010KT 6000 -DZ SCT006 BKN008 19/17 Q1013

2010/08/09 17:00
MROC 091700Z 10011KT 9999 FEW040 BKN120 27/20 A3003 NOSIG

2010/08/09 17:00
FAJS 091700Z 22015KT CAVOK 09/M10 Q1026 NOSIG

2010/08/09 17:00
LQMO 091700Z 19007KT 150V220 9999 FEW050 32/11 Q1010

2010/08/09 16:54
KLNK 091654Z 34007KT 10SM CLR 32/24 A2985 RMK AO2 SLP094 T03220239

2010/08/09 16:55
KLPC 091655Z AUTO 00000KT 10SM OVC011 15/12 A2995 RMK AO1 PNO

2010/08/09 16:54
KLWM 091654Z 23009G17KT 190V270 10SM FEW055 SCT070 SCT090 32/17 A2995 RMK AO2 SLP140 T03220167

2010/08/09 16:54
KLWT 091654Z AUTO 05004KT 10SM CLR 24/09 A2995 RMK AO2 SLP106 T02390094

2010/08/09 16:54
KLYH 091654Z AUTO 18006KT 10SM SCT038 SCT046 31/22 A3007 RMK AO2 SLP171 T03060217 TSNO

2010/08/09 16:55
KMBL 091655Z AUTO 25007KT 220V280 10SM SCT055 BKN075 27/20 A2990 RMK AO1

2010/08/09 16:45
KMER 091645Z 29006KT 10SM SKC 23/14 A2989

2010/08/09 16:54
KMFI 091654Z AUTO 33005KT 7SM OVC009 27/23 A2993 RMK AO2 CIG 008V013 SLP127 T02670233

2010/08/09 16:54
KMGJ 091654Z AUTO 24007KT 10SM CLR 32/15 A2998 RMK AO2 SLP149 T03170150

2010/08/09 16:54
KMIV 091654Z AUTO 20004KT CLR 31/17 A3001 RMK AO2 SLP160 T03110167 $

2010/08/09 16:55
KMJX 091655Z AUTO 25003KT 10SM SCT050 SCT075 33/19 RMK AO1

2010/08/09 16:54
KMKC 091654Z 20007KT 10SM CLR 34/23 A2990 RMK AO2 SLP112 T03440233

2010/08/09 16:55
KMKT 091655Z AUTO 00000KT 10SM OVC019 27/24 A2992 RMK AO1

2010/08/09 16:55
KMML 091655Z AUTO 04007KT 10SM CLR 28/23 A2993 RMK AO1

2010/08/09 16:55
KMNM 091655Z AUTO 11008KT 8SM BKN031 27/23 A2986 RMK AO1

2010/08/09 16:54
KMOT 091654Z 00000KT 10SM CLR 28/18 A2983 RMK AO2 SLP093 T02780183

2010/08/09 16:55
KMRF 091655Z AUTO 18007KT 10SM CLR 27/16 A3015 RMK AO1

2010/08/09 16:54
KMRY 091654Z 28003KT 10SM OVC007 13/11 A2996 RMK AO2 SLP158 T01330106

2010/08/09 16:55
KMSV 091655Z AUTO 00000KT 10SM FEW050 28/16 A3005 RMK AO1

2010/08/09 16:55
KMTW 091655Z 22009KT 10SM FEW025 28/22 A2988 RMK AO1

2010/08/09 16:54
KMVL 091654Z AUTO 03003KT 10SM BKN039 BKN050 26/18 A2996 RMK AO2 SLP142 T02610178

2010/08/09 16:55
KMVN 091655Z AUTO 15003KT 10SM CLR 34/24 A2996 RMK AO1

2010/08/09 16:54
KOFP 091654Z AUTO VRB04KT 10SM FEW055 34/18 A3004 RMK AO2 SLP171 T03390183

2010/08/09 16:55
KOKK 091655Z AUTO 22007KT 9SM CLR 32/22 A2997 RMK AO1

2010/08/09 16:54
KOLM 091654Z 18006KT 10SM BKN011 BKN037 OVC046 15/12 A2998 RMK AO2 SLP153 T01500117

2010/08/09 16:54
KOLS 091654Z AUTO 00000KT 10SM CLR 27/17 A3008 RMK AO2 SLP115 T02720167

2010/08/09 16:55
KOLU 091655Z AUTO 10SM CLR 29/23 A2989 RMK AO1

2010/08/09 16:54
KTAD 091654Z AUTO 29004KT 10SM CLR 24/13 A3015 RMK AO2 SLP126 T02440133

2010/08/09 16:55
KTIX 091655Z 11010KT 7SM BKN015 29/24 A2994

2010/08/09 16:54
KTQE 091654Z AUTO 36004KT 10SM BKN013 28/24 A2986 RMK AO2 SLP098 T02830244

2010/08/09 16:55
KTVF 091655Z AUTO 18007KT 10SM CLR 29/19 A2987 RMK AO1

2010/08/09 16:52
KUGN 091652Z COR 23007G16KT 10SM SCT019 27/22 A2993 RMK AO2 SLP122 T02720222

2010/08/09 16:54
KUIN 091654Z AUTO 14004KT 10SM CLR 28/22 A2993 RMK AO2 SLP128 T02780222

2010/08/09 16:54
KUZA 091654Z AUTO 00000KT 7SM SCT039 31/21 A3006 RMK AO2 SLP165 T03110211

2010/08/09 16:54
KVAY 091654Z AUTO 24006KT 10SM CLR 32/17 A3001 RMK AO2 SLP161 T03220172

2010/08/09 16:55
KVBT 091655Z AUTO 24006KT 10SM CLR 34/21 A2998 RMK AO1

2010/08/09 16:55
KVIS 091655Z AUTO 20003KT 10SM CLR 21/15 A2989 RMK AO1

2010/08/09 16:54
KVSF 091654Z AUTO 27003KT 10SM BKN065 BKN085 28/18 A2997 RMK AO2 SLP145 T02830178

2010/08/09 16:54
KVTA 091654Z AUTO 19005KT 10SM CLR 29/18 A3004 RMK AO2 SLP164 T02890183

2010/08/09 16:54
KWLD 091654Z AUTO VRB04KT 10SM CLR 34/23 A2993 RMK AO2 SLP119 T03440228

2010/08/09 16:55
KWVL 091655Z AUTO 00000KT 10SM SCT031 BKN040 BKN047 26/19 A2989 RMK AO1

2010/08/09 16:55
KYKN 091655Z AUTO 12006KT 10SM BKN014 25/22 A2991 RMK AO1

2010/08/09 16:54
KORH 091654Z 24010KT 10SM CLR 29/16 A3001 RMK AO2 SLP156 T02940161

2010/08/09 16:55
KOTG 091655Z AUTO 13007KT 10SM BKN017 OVC023 26/19 A2996 RMK AO1

2010/08/09 16:55
KOTH 091655Z 03007KT 10SM OVC020 15/11 A3004 RMK AO1

2010/08/09 16:54
KPHF 091654Z 09007KT 10SM CLR 32/21 A3004 RMK AO2 SLP171 T03170211

2010/08/09 16:54
KPHL 091654Z 21009KT 10SM FEW050 SCT250 32/19 A3001 RMK AO2 SLP163 T03220189

2010/08/09 16:54
KPIA 091654Z 00000KT 8SM CLR 28/22 A2995 RMK AO2 SLP134 T02780222

2010/08/09 16:55
KPIB 091655Z AUTO 10005KT 10SM SCT028 32/24 A3001 RMK AO1

2010/08/09 16:50
MMCE 091650Z 10010KT 7SM SCT010 SCT200 29/26 A2988 RMK 8/105

2010/08/09 16:48
MMCZ 091648Z 13006KT 8SM SCT015TCU SCT250 29/24 A2996 RMK 8/206

2010/08/09 16:47
MMMD 091647Z 13009KT 7SM SCT020 32/25 A2992 RMK 8/100 CI

2010/08/09 16:45
MMVA 091645Z 00000KT 7SM SCT010 BKN015 OVC080 30/26 A2985 RMK 8/41/ HZY

2010/08/09 17:00
MPTO 091700Z 00000KT 8000 -DZ FEW009 SCT016 BKN080 27/25 Q1013 BECMGFM1730 6000 RA RWY DAMP

2010/08/09 16:50
EFHA 091650Z AUTO 19002KT CAVOK 20/17 Q1010

2010/08/09 16:50
EFHF 091650Z 20011KT 160V240 9999 FEW030CB BKN049 22/16 Q1011

2010/08/09 16:50
EFKA 091650Z AUTO 00000KT 9999 RA BKN047 21/19 Q1008

2010/08/09 16:50
EFKK 091650Z AUTO 33004KT 9999 ////// 19/18 Q1008

2010/08/09 16:50
EFMA 091650Z AUTO 18007KT 150V220 9999 FEW012 BKN050 19/17 Q1007

2010/08/09 16:50
EFPO 091650Z AUTO 16004KT 110V220 9999 FEW023 SCT045 BKN065 20/17 Q1008

2010/08/09 16:50
EFSI 091650Z AUTO 22003KT 9999 FEW033 BKN060 18/18 Q1008

2010/08/09 16:53
PAJN 091653Z 09009KT 10SM FEW011 BKN030 OVC060 13/11 A2997 RMK AO2 SLP148 MTN TPS OBSCD ALQDS THN SPTS IOVC T01280111

2010/08/09 16:53
PAKT 091653Z 15005KT 10SM SCT006 BKN017 OVC055 14/12 A3002 RMK AO2 SLP165 COND LWR E HARBOR WIND 11007KT T01390117

2010/08/09 16:53
PAKV 091653Z AUTO 00000KT 3SM -RA BR OVC008 12/12 A2946 RMK AO2 RAB03 SLP977 P0002 T01220117 TSNO

2010/08/09 16:53
PAKW 091653Z AUTO 02003KT 10SM BKN013 14/12 A2998 RMK AO2 SLP151 T01440117 TSNO

2010/08/09 16:53
PALH 091653Z 36003KT 10SM OVC070 14/12 A2963 RMK AO2 SLP033 T01440117

2010/08/09 16:53
PAMC 091653Z 12004KT 10SM BKN005 OVC020 12/11 A2950 RMK AO2 RAE24 CIG 004V009 SLP992 P0000 T01170106

2010/08/09 16:53
PAMR 091653Z 28005KT 10SM FEW040 BKN075 14/11 A2961 RMK AO2 SLP028 T01390106

2010/08/09 16:53
PANC 091653Z VRB05KT 10SM BKN070 BKN090 BKN200 13/12 A2962 RMK AO2 SLP030 T01330117

2010/08/09 16:53
PANN 091653Z AUTO 23004KT 10SM SCT070 BKN085 14/09 A2955 RMK AO2 SLP011 T01390089 TSNO

2010/08/09 16:53
PANT 091653Z 15004KT 4SM BR OVC005 14/12 A3001 RMK AO2 CIG 003V009 SLP164 T01390122

2010/08/09 16:53
PAOM 091653Z 13011KT 10SM FEW013 BKN019 BKN041 12/09 A2931 RMK AO2 SLP925 T01170094

2010/08/09 16:53
PAOR 091653Z AUTO 00000KT 10SM OVC080 12/10 A2969 RMK AO2 SLP053 T01170100 TSNO

2010/08/09 16:53
PAOT 091653Z 09017KT 10SM SCT060 BKN120 16/11 A2942 RMK AO2 SLP963 T01560106

2010/08/09 16:53
PAPB 091653Z AUTO 22011KT 1/4SM FG VV001 08/08 A2926 RMK AO2 SLP896 T00780078 TSNO

2010/08/09 16:53
PAQT 091653Z AUTO 05017G25KT 4SM BR OVC004 03/02 A2980 RMK AO2 PK WND 05027/1643 SLP091 T00280022 TSNO

2010/08/09 16:53
PASC 091653Z 06019G25KT 1 1/2SM BR OVC003 03/03 A2976 RMK AO2 PK WND 06028/1633 SLP077 T00330028

2010/08/09 16:53
PASI 091653Z 00000KT 10SM SCT006 OVC032 13/12 A2997 RMK AO2 SLP147 MTNS OBSCD SW-NW-NE MTNS PRTLY OBSCD E-SE T01330117

2010/08/09 16:53
PASN 091653Z 23012KT 4SM -DZ BR OVC003 08/08 A2921 RMK AO2 DZB29 SLP892 P0000 T00830083

2010/08/09 16:53
PASO 091653Z AUTO 03006KT 10SM SCT032 SCT040 13/11 A2961 RMK AO2 SLP028 T01280111 TSNO

2010/08/09 16:53
PATK 091653Z 02004KT 10SM OVC060 11/10 A2966 RMK AO2 RAE31 SLP048 P0000 T01110100

2010/08/09 16:53
PATO 091653Z AUTO 12015G27KT 2 1/2SM -RA BR BKN023 OVC029 12/11 A2973 RMK AO2 PK WND 10033/1620 SLP068 P0003 T01170106 TSNO

2010/08/09 16:53
PAVL 091653Z AUTO 06013KT 9SM -RA OVC080 13/09 A2946 RMK AO2 SLP976 P0000 T01330094 TSNO

2010/08/09 16:53
PAWD 091653Z AUTO A2970 RMK AO2 SLP059 PWINO FZRANO TSNO $

2010/08/09 16:52
PAWR 091652Z 08013G21KT 2SM -RA BR OVC020 12/12 A2980 RMK SLP091 NOSPECI

2010/08/09 16:53
PAYA 091653Z VRB04KT 10SM BKN007 OVC029 13/12 A2994 RMK AO2 RAB31E43 SLP137 BAY TWR WND 120MMKT P0000 T01330117

2010/08/09 16:50
PFYU 091650Z 01010KT 10SM BKN050 BKN070 13/ A2958

2010/08/09 17:00
RPLC 091700Z 00000G20KT 9999 FEW036 BKN100 OVC270 25/24 Q1009 A2982 RMK NOSIG 

2010/08/09 16:51
KEVB 091651Z 11012KT 10SM FEW020 32/25 A2996

2010/08/09 16:50
BGGH 091650Z 20012KT 9999 SCT010 BKN050 13/09 Q1008

2010/08/09 16:50
ENNO 091650Z 14004KT 120V190 9999 SCT045TCU 23/16 Q1007

2010/08/09 16:50
ENOV 091650Z VRB03KT 9999 FEW015 BKN019 17/13 Q1010 

2010/08/09 16:50
ENSN 091650Z 17007KT 9999 VCSH SCT035TCU 22/13 Q1008

2010/08/09 16:50
ENSR 091650Z 01007KT 9999 FEW010 SCT015 BKN025 12/09 Q1015

2010/08/09 16:50
BGGH 091650Z 20012KT 9999 SCT010 BKN050 13/09 Q1008

2010/08/09 16:52
KN60 091652Z AUTO 16006KT 24/19 A2986 RMK AO1 SLP101 T02440194

2010/08/09 16:52
K9V9 091652Z AUTO 00000KT 27/22 A2992 RMK AO2 SLP118 T02670217 PWINO TSNO

2010/08/09 16:52
KABI 091652Z 23008KT 9SM CLR 32/22 A3000 RMK AO2 SLP127 T03220222

2010/08/09 16:52
KCZZ 091652Z AUTO 24006KT 25/M05 A2992 RMK AO2 SLP105 T02501050 PWINO TSNO

2010/08/09 16:53
KMGM 091653Z 08010G14KT 10SM CLR 34/22 A2999 RMK AO2 SLP150 T03390217

2010/08/09 16:53
KBTR 091653Z VRB05KT 10SM SCT030 SCT050 SCT070 33/25 A2998 RMK AO2 SLP149 T03330250

2010/08/09 16:53
KDAB 091653Z 10008G16KT 10SM SCT022 SCT110 31/24 A2995 RMK AO2 SLP140 T03110244

2010/08/09 16:53
KTRI 091653Z 28005KT 10SM FEW050 SCT150 32/19 A3009 RMK AO2 SLP172 T03170194

2010/08/09 16:53
KFAR 091653Z 20008KT 10SM CLR 29/20 A2989 RMK AO2 SLP117 T02890200

2010/08/09 16:53
KGNT 091653Z AUTO VRB04KT 22/13 A3026 RMK AO2 SLP160 T02220128 PWINO TSNO

2010/08/09 16:53
KOQT 091653Z AUTO 26004KT 10SM CLR 32/23 A3007 RMK AO2 SLP162 T03170228 TSNO

2010/08/09 16:53
KMSY 091653Z 34008KT 10SM SCT060 33/26 A2999 RMK AO2 SLP159 T03280256

2010/08/09 16:53
KMCN 091653Z 10009KT 9SM CLR 33/21 A3002 RMK AO2 SLP160 T03330206

2010/08/09 16:53
KTUP 091653Z 01006KT 10SM FEW027 34/25 A2999 RMK AO2 SLP151 T03390250

2010/08/09 16:53
KTYS 091653Z 25005KT 9SM FEW036 SCT070 32/23 A3005 RMK AO2 SLP163 T03170228

2010/08/09 16:53
KRNM 091653Z 30006KT 10SM CLR 21/09 A2993 RMK AO2 SLP125 T02060094

2010/08/09 16:53
KSAV 091653Z 06010G18KT 10SM FEW030 SCT250 34/21 A3000 RMK AO2 SLP158 T03390206

2010/08/09 16:53
KP68 091653Z AUTO 19009KT 24/M03 A3008 RMK AO2 SLP099 T02441028 PWINO TSNO

2010/08/09 16:53
KHTL 091653Z AUTO 26004KT 10SM FEW021 26/21 A2991 RMK AO2 SLP124 T02560211

2010/08/09 16:51
KGDP 091651Z AUTO 24011KT 10SM SCT095 26/14 A3020 RMK AO2 SLP142 T02610144 TSNO

2010/08/09 16:53
KCQC 091653Z AUTO 31009KT 10SM CLR 24/11 A3025 RMK AO2 SLP139 T02390111 TSNO

2010/08/09 16:53
KLXV 091653Z AUTO VRB04KT 10SM BKN100 17/06 A3041 RMK AO2 SLP117 T01670061 TSNO

2010/08/09 16:53
KCUT 091653Z AUTO 15004KT 10SM CLR 26/13 A3011 RMK AO2 SLP126 T02610133 TSNO

2010/08/09 16:53
K6R6 091653Z AUTO 11011KT 29/22 A2999 RMK AO2 SLP116 T02890217 PWINO TSNO

2010/08/09 16:54
PGUM 091654Z 00000KT 10SM BKN050 25/24 A2989 RMK AO2 SLP114 T02500244

2010/08/09 16:53
KTLH 091653Z 06007KT 10SM FEW050 33/20 A2997 RMK AO2 SLP147 T03330200

2010/08/09 16:53
KSGR 091653Z 00000KT 10SM FEW034 32/23 A2996 RMK AO2 SLP153 T03220228

2010/08/09 16:53
KTCS 091653Z AUTO 00000KT 10SM CLR 26/14 A3013 RMK AO2 SLP121 T02560139 TSNO

2010/08/09 16:53
KCTY 091653Z AUTO 07004KT 32/23 A2995 RMK AO2 SLP141 T03170233 PWINO TSNO

2010/08/09 16:53
KMSN 091653Z 30005KT 10SM SCT022 BKN029 26/21 A2993 RMK AO2 SLP130 T02610206

2010/08/09 16:53
KBNO 091653Z AUTO 00000KT 10SM CLR 21/07 A2997 RMK AO2 SLP111 T02060072 TSNO

2010/08/09 16:53
KP92 091653Z AUTO VRB05KT 32/26 A2998 RMK AO2 SLP152 T03220256 PWINO TSNO

2010/08/09 16:53
KCHA 091653Z VRB04KT 10SM FEW030 SCT120 29/22 A3003 RMK AO2 SLP161 T02940222

2010/08/09 16:54
KBTV 091654Z 20007KT 10SM FEW050 SCT110 27/19 A2992 RMK AO2 RAE04 SLP132 P0000 T02720194

2010/08/09 16:53
KDNK 091653Z AUTO VRB04KT 10SM CLR 33/21 A2998 RMK AO2 SLP148 T03280211 PNO

2010/08/09 16:53
KELY 091653Z AUTO 17009KT 10SM CLR 21/01 A3014 RMK AO2 SLP110 T02110006

2010/08/09 16:53
KRIL 091653Z AUTO 36003KT 10SM BKN100 17/11 A3022 RMK AO2 RAE1556 SLP175 P0000 T01720106 TSNO

2010/08/09 16:53
KOVE 091653Z AUTO 00000KT 10SM CLR 21/13 A2990 RMK AO2 SLP125 T02060133 TSNO $

2010/08/09 16:54
KJAN 091654Z VRB05KT 10SM SCT039 34/24 A2998 RMK AO2 SLP145 T03440239

2010/08/09 16:53
K40J 091653Z AUTO VRB03KT 32/22 A2996 RMK AO2 SLP143 T03220222 PWINO TSNO

2010/08/09 16:54
KROA 091654Z 00000KT 9SM SCT040 31/21 A3008 RMK AO2 SLP170 T03060206

2010/08/09 16:52
KP69 091652Z AUTO 00000KT 22/13 A2985 RMK AO2 SLP089 T02170128 PWINO TSNO

2010/08/09 16:52
KP69 091652Z AUTO 00000KT 22/13 A2985 RMK AO2 SLP089 T02170128 PWINO TSNO

2010/08/09 16:50
LOWW 091650Z 07003KT 040V120 9999 FEW050 22/16 Q1017 NOSIG

2010/08/09 16:50
LOWL 091650Z 33005KT 290V360 9999 FEW048 23/12 Q1017 NOSIG

2010/08/09 16:50
LOWS 091650Z VRB02KT 9999 FEW050 24/08 Q1017 NOSIG

2010/08/09 16:50
LOWI 091650Z 10007KT 050V140 9999 FEW080 24/12 Q1016 NOSIG

2010/08/09 16:50
LOWG 091650Z 15005KT 120V190 9999 FEW040 23/13 Q1017 NOSIG

2010/08/09 16:50
LOWK 091650Z 10006KT 020V150 9999 FEW045 24/15 Q1016 NOSIG

2010/08/09 16:50
LCRA 091650Z 26012KT CAVOK 28/24 Q1004 NOSIG

2010/08/09 16:53
KCSV 091653Z AUTO 00000KT 10SM SCT036 31/22 A3011 RMK AO2 SLP168 T03060217

2010/08/09 16:53
KCXO 091653Z 17007KT 140V200 10SM CLR 33/24 A2998 RMK AO2 SLP147 T03330239

2010/08/09 16:53
KDAN 091653Z AUTO 22005KT 8SM CLR 34/21 A3004 RMK AO2 SLP162 T03390206

2010/08/09 16:53
KDCU 091653Z AUTO 09004KT 9SM FEW045 34/22 A3001 RMK AO2 SLP154 T03390217

2010/08/09 16:53
KDEW 091653Z AUTO 15005KT 10SM CLR 20/12 A2988 RMK AO2 SLP110 T02000117

2010/08/09 16:53
KDHT 091653Z AUTO 00000KT 10SM CLR 30/16 A3004 RMK AO2 SLP106 T03000161

2010/08/09 16:53
KDLS 091653Z AUTO 32016G21KT 10SM CLR 22/09 A2986 RMK AO2 SLP110 T02220089

2010/08/09 16:53
KDNL 091653Z AUTO 02006G14KT 10SM SCT044 33/21 A3004 RMK AO2 SLP167 T03330206 $

2010/08/09 16:53
KDVT 091653Z 00000KT 10SM CLR 33/03 A2990 RMK AO2 SLP096 T03330028

2010/08/09 16:53
KDWH 091653Z 00000KT 10SM FEW037 33/24 A2997 RMK AO2 SLP147 T03280244

2010/08/09 16:55
KDYB 091655Z AUTO 02009KT 10SM CLR 32/22 A3001 RMK AO1 LTG DSNT SE

2010/08/09 16:53
KEET 091653Z AUTO 16005KT 10SM CLR 33/22 A3002 RMK AO2 SLP155 T03330222

2010/08/09 16:53
KELN 091653Z AUTO 31013G24KT 10SM CLR 22/11 A2985 RMK AO2 SLP099 T02170106

2010/08/09 16:53
KENW 091653Z 24005KT 10SM CLR 27/22 A2994 RMK AO2 SLP132 T02670222

2010/08/09 16:53
KEPH 091653Z AUTO 14004KT 10SM CLR 23/11 A2982 RMK AO2 SLP088 T02330106

2010/08/09 16:53
KEQY 091653Z AUTO 00000KT 10SM FEW042 32/22 A3005 RMK AO2 SLP172 T03220217

2010/08/09 16:53
KESF 091653Z AUTO 25003KT 10SM CLR 34/23 A2998 RMK AO2 SLP149 T03390228

2010/08/09 16:53
KFAY 091653Z AUTO 08007KT 10SM CLR 34/19 A3003 RMK AO2 SLP161 T03440194

2010/08/09 16:53
KFCM 091653Z 00000KT 10SM CLR 32/21 A2990 RMK AO2 SLP120 T03170206

2010/08/09 16:53
KFFC 091653Z AUTO 00000KT 9SM SCT046 SCT055 33/21 A3005 RMK AO2 SLP166 T03280211

2010/08/09 16:53
KFHR 091653Z AUTO 11003KT 10SM OVC016 14/12 A2996 RMK AO2 SLP147 T01440117

2010/08/09 16:53
KFSM 091653Z 00000KT 10SM CLR 35/22 A2995 RMK AO2 SLP135 T03500222

2010/08/09 16:53
KFST 091653Z AUTO 15009KT 10SM CLR 30/20 A3002 RMK AO2 SLP112 T03000200

2010/08/09 16:53
KFTY 091653Z 00000KT 7SM CLR 33/21 A3004 RMK AO2 SLP162 T03280211

2010/08/09 16:53
KFUL 091653Z 00000KT 6SM HZ CLR 19/12 A2992 RMK AO2 SLP132 T01940122

2010/08/09 16:53
KFYV 091653Z VRB04KT 10SM CLR 33/21 A3000 RMK AO2 SLP140 T03330211

2010/08/09 16:53
KGLH 091653Z 32008KT 10SM CLR 36/24 A2995 RMK AO2 SLP147 T03610239

2010/08/09 16:53
KGLR 091653Z AUTO 09004KT 6SM HZ FEW015 SCT038 25/22 A2991 RMK AO2 SLP121 T02500217

2010/08/09 16:53
KGMU 091653Z VRB04KT 10SM CLR 32/21 A3008 RMK AO2 SLP172 T03170206

2010/08/09 16:53
KGPT 091653Z AUTO 04008KT 10SM SCT033 35/25 A2997 RMK AO2 LTG DSNT SW SLP149 T03500250

2010/08/09 16:53
KGRB 091653Z VRB05KT 9SM FEW021 BKN028 29/23 A2988 RMK AO2 SLP113 T02890228

2010/08/09 16:53
KGRI 091653Z 08005KT 10SM CLR 28/21 A2992 RMK AO2 SLP113 T02830211

2010/08/09 16:53
KGSH 091653Z AUTO 00000KT 8SM 28/21 A2999 RMK AO2 SLP147 T02830206 PWINO $

2010/08/09 16:53
KGSP 091653Z 29003KT 10SM CLR 32/22 A3006 RMK AO2 SLP164 T03170217

2010/08/09 16:53
KGUP 091653Z AUTO 00000KT 10SM CLR 22/12 A3026 RMK AO2 SLP098 T02220122

2010/08/09 16:53
KGVL 091653Z AUTO 00000KT 10SM CLR 31/21 A3010 RMK AO2 SLP174 T03110211

2010/08/09 16:53
KGWO 091653Z AUTO VRB03KT 10SM FEW041 35/24 A2996 RMK AO2 SLP143 T03500244

2010/08/09 16:53
KHBG 091653Z AUTO 02004KT 10SM SCT028 33/24 A3000 RMK AO2 SLP154 T03330244 $

2010/08/09 16:53
KHEI 091653Z AUTO 17017G23KT 10SM CLR 31/17 A2990 RMK AO2 SLP101 T03110172

2010/08/09 16:53
KHGR 091653Z 00000KT 9SM CLR 32/15 A3001 RMK AO2 SLP164 T03170150

2010/08/09 16:53
KHHR 091653Z 23003KT 7SM BKN017 19/13 A2993 RMK AO2 SLP135 T01890133 $

2010/08/09 16:53
KHIB 091653Z AUTO 13004KT 10SM CLR 27/22 A2993 RMK AO2 SLP131 T02720222

2010/08/09 16:53
KHIO 091653Z VRB03KT 10SM OVC024 14/09 A3001 RMK AO2 SLP159 T01440089

2010/08/09 16:53
KHJO 091653Z AUTO 00000KT 10SM CLR 22/13 A2989 RMK AO2 SLP120 T02220133

2010/08/09 16:53
KHKA 091653Z AUTO 19004KT 7SM CLR 33/26 A2997 RMK AO2 SLP144 T03280256

2010/08/09 16:53
PTKR 091653Z 18005KT 12SM SCT016TCU OVC180 26/25 A2983 RMK SHRAE35 TCU ALQDS SLP102 T02610246

2010/08/09 16:54
PGUM 091654Z 00000KT 10SM BKN050 25/24 A2989 RMK AO2 SLP114 T02500244

2010/08/09 16:54
PGSN 091654Z 11006KT 10SM -RA FEW016 SCT075 OVC090 25/23 A2988 RMK AO2 SLP116 P0004 T02500233

2010/08/09 16:51
KGDP 091651Z AUTO 24011KT 10SM SCT095 26/14 A3020 RMK AO2 SLP142 T02610144 TSNO

2010/08/09 16:53
KCQC 091653Z AUTO 31009KT 10SM CLR 24/11 A3025 RMK AO2 SLP139 T02390111 TSNO

2010/08/09 16:53
KLXV 091653Z AUTO VRB04KT 10SM BKN100 17/06 A3041 RMK AO2 SLP117 T01670061 TSNO

2010/08/09 16:53
KCUT 091653Z AUTO 15004KT 10SM CLR 26/13 A3011 RMK AO2 SLP126 T02610133 TSNO

2010/08/09 16:53
K6R6 091653Z AUTO 11011KT 29/22 A2999 RMK AO2 SLP116 T02890217 PWINO TSNO

2010/08/09 16:53
KTLH 091653Z 06007KT 10SM FEW050 33/20 A2997 RMK AO2 SLP147 T03330200

2010/08/09 16:53
KTCS 091653Z AUTO 00000KT 10SM CLR 26/14 A3013 RMK AO2 SLP121 T02560139 TSNO

2010/08/09 16:53
KCTY 091653Z AUTO 07004KT 32/23 A2995 RMK AO2 SLP141 T03170233 PWINO TSNO

2010/08/09 16:53
KMSN 091653Z 30005KT 10SM SCT022 BKN029 26/21 A2993 RMK AO2 SLP130 T02610206

2010/08/09 16:53
KBNO 091653Z AUTO 00000KT 10SM CLR 21/07 A2997 RMK AO2 SLP111 T02060072 TSNO

2010/08/09 16:53
KP92 091653Z AUTO VRB05KT 32/26 A2998 RMK AO2 SLP152 T03220256 PWINO TSNO

2010/08/09 16:53
KCHA 091653Z VRB04KT 10SM FEW030 SCT120 29/22 A3003 RMK AO2 SLP161 T02940222

2010/08/09 16:54
KBTV 091654Z 20007KT 10SM FEW050 SCT110 27/19 A2992 RMK AO2 RAE04 SLP132 P0000 T02720194

2010/08/09 16:53
KAAF 091653Z AUTO 12008KT 10SM CLR 32/24 A2996 RMK AO2 SLP143 T03220244

2010/08/09 16:53
KBFF 091653Z AUTO 23015G19KT 10SM CLR 31/13 A3001 RMK AO2 SLP110 T03110128

2010/08/09 16:53
KBIL 091653Z 19005KT 10SM FEW100 24/11 A2994 RMK AO2 SLP106 T02390106

2010/08/09 16:51
KBVE 091651Z AUTO -RA OVC017 26/25 A3000 RMK AO2 WSHFT 1615 SLP159 P0043 T02610250 TSNO $

2010/08/09 16:51
KCAK 091651Z 23006KT 8SM SCT250 29/17 A3003 RMK AO2 SLP160 T02890172

2010/08/09 16:53
KCDR 091653Z AUTO 18011KT 10SM CLR 33/15 A2994 RMK AO2 SLP107 T03280150

2010/08/09 16:53
KCNY 091653Z AUTO VRB04KT 10SM CLR 26/10 A3010 RMK AO2 SLP138 T02610100

2010/08/09 16:51
KCRP 091651Z 17006KT 10SM FEW035 SCT044 32/24 A2994 RMK AO2 SLP138 T03220239

2010/08/09 16:53
KDAL 091653Z 17010KT 10SM FEW042 34/23 A2994 RMK AO2 SLP130 T03440228

2010/08/09 16:53
KGCC 091653Z AUTO 00000KT 10SM CLR 27/09 A2998 RMK AO2 SLP108 T02670094

2010/08/09 16:53
KHLC 091653Z AUTO 10009KT 10SM CLR 32/19 A2992 RMK AO2 SLP100 T03220189

2010/08/09 16:53
KHVR 091653Z AUTO 09004KT 10SM CLR 26/11 A2989 RMK AO2 SLP103 T02560106

2010/08/09 16:50
KISM 091650Z 15009KT 10SM BKN020 BKN035 29/25 A2995

2010/08/09 16:53
KJLN 091653Z 22007KT 10SM CLR 33/24 A2997 RMK AO2 SLP133 T03330239 $

2010/08/09 16:53
KLAN 091653Z 21008KT 10SM -RA FEW012 SCT065 OVC120 23/22 A2997 RMK AO2 SLP145 P0000 T02330217

2010/08/09 16:53
KLBB 091653Z 22012KT 10SM FEW180 31/18 A3004 RMK AO2 SLP112 T03110178

2010/08/09 16:53
KLWD 091653Z AUTO 18010KT 10SM CLR 27/23 A2989 RMK AO2 SLP111 T02670233

2010/08/09 16:53
KEMP 091653Z AUTO 18011KT 10SM CLR 36/21 A2991 RMK AO2 SLP114 T03560211

2010/08/09 16:53
KFNB 091653Z AUTO 15011KT 10SM CLR 32/24 A2985 RMK AO2 SLP095 T03220244

2010/08/09 16:53
KFNT 091653Z 23006KT 8SM CLR 26/21 A2995 RMK AO2 RAE1558 SLP137 P0000 T02560206

2010/08/09 16:51
KORF 091651Z 05006KT 10SM FEW030 30/22 A3004 RMK AO2 SLP172 T03000217

2010/08/09 16:53
KPOF 091653Z AUTO 18003KT 10SM FEW031 34/27 A2994 RMK AO2 SLP132 T03390267

2010/08/09 16:53
KMLU 091653Z 25004KT 10SM CLR 35/24 A2997 RMK AO2 SLP147 T03500239

2010/08/09 16:53
KRIW 091653Z AUTO 10004KT 10SM CLR 23/05 A3007 RMK AO2 SLP113 T02330050

2010/08/09 16:51
KSAN 091651Z VRB03KT 10SM OVC017 18/13 A2995 RMK AO2 SLP141 T01830133

2010/08/09 16:50
KSOW 091650Z AUTO 00000KT 10SM BKN090 22/11 A3029 RMK AO2

2010/08/09 16:51
KSAN 091651Z VRB03KT 10SM OVC017 18/13 A2995 RMK AO2 SLP141 T01830133

2010/08/09 16:53
KELY 091653Z AUTO 17009KT 10SM CLR 21/01 A3014 RMK AO2 SLP110 T02110006

2010/08/09 16:54
KJAN 091654Z VRB05KT 10SM SCT039 34/24 A2998 RMK AO2 SLP145 T03440239

2010/08/09 16:53
K40J 091653Z AUTO VRB03KT 32/22 A2996 RMK AO2 SLP143 T03220222 PWINO TSNO

2010/08/09 16:54
KCOS 091654Z AUTO 18004KT 10SM FEW100 22/14 A3020 RMK AO2 SLP151 T02170139 TSNO

2010/08/09 16:53
KSPW 091653Z AUTO 14004KT 10SM OVC015 25/22 A2992 RMK AO2 SLP125 T02500222

2010/08/09 16:53
KSSF 091653Z 21007KT 10SM CLR 33/21 A2998 RMK AO2 SLP136 T03280206

2010/08/09 16:53
KSTP 091653Z VRB03KT 10SM CLR 30/22 A2991 RMK AO2 SLP121 T03000222

2010/08/09 16:53
KSTS 091653Z 00000KT 5SM BR OVC005 13/11 A2993 RMK AO2 SLP127 T01330111

2010/08/09 16:53
KTCC 091653Z AUTO 16008KT 10SM CLR 30/16 A3003 RMK AO2 SLP098 T03000156

2010/08/09 16:53
KTCL 091653Z 17009KT 10SM CLR 34/22 A3000 RMK AO2 SLP155 T03390222

2010/08/09 16:53
KTIW 091653Z 18005KT 10SM SCT009 BKN021 OVC050 14/12 A2998 RMK AO2 SLP149 T01390117

2010/08/09 16:53
KTOI 091653Z 09007KT 10SM CLR 33/23 A3001 RMK AO2 SLP157 T03330228

2010/08/09 16:53
KTTD 091653Z VRB03KT 10SM OVC027 16/11 A2999 RMK AO2 SLP154 T01610111

2010/08/09 16:53
KTVC 091653Z 24004KT 6SM HZ FEW017 SCT027 BKN060 28/22 A2986 RMK AO2 SLP106 T02780222

2010/08/09 16:53
KTVL 091653Z AUTO 06003KT 10SM CLR 19/07 A3012 RMK AO2 SLP149 T01890067

2010/08/09 16:53
KTVR 091653Z AUTO 06009KT 10SM FEW045 35/24 A2997 RMK AO2 SLP153 T03500244

2010/08/09 16:53
KUTS 091653Z AUTO 00000KT 10SM SCT039 33/22 A2999 RMK AO2 SLP150 T03280222

2010/08/09 16:53
KVCB 091653Z AUTO 23004KT 10SM CLR 21/12 A2990 RMK AO2 SLP121 T02060122

2010/08/09 16:53
KVGT 091653Z 17005KT 10SM CLR 28/09 A2996 RMK AO2 SLP112 T02780089

2010/08/09 16:53
KVPC 091653Z AUTO 00000KT 9SM CLR 32/23 A3005 RMK AO2 SLP160 T03220233

2010/08/09 16:53
KVPZ 091653Z AUTO 20008KT 7SM CLR 27/22 A2997 RMK AO2 SLP141 T02720222

2010/08/09 16:53
KVUO 091653Z AUTO VRB04KT 10SM OVC029 16/09 A3000 RMK AO2 SLP159 T01560094

2010/08/09 16:53
KXNA 091653Z 00000KT 2 1/2SM HZ CLR 33/21 A3000 RMK AO2 SLP140 T03280211

2010/08/09 16:53
PHJR 091653Z 09004KT 10SM CLR 25/16 A3009 RMK AO2 SLP196 T02500156

2010/08/09 16:53
PHJR 091653Z 09004KT 10SM CLR 25/16 A3009 RMK AO2 SLP196 T02500156

2010/08/09 16:53
KMSY 091653Z 34008KT 10SM SCT060 33/26 A2999 RMK AO2 SLP159 T03280256

2010/08/09 16:53
KSGR 091653Z 00000KT 10SM FEW034 32/23 A2996 RMK AO2 SLP153 T03220228

2010/08/09 16:50
KPMV 091650Z AUTO 12003KT 10SM CLR 30/25 A2986 RMK AO2 T02970247

2010/08/09 16:53
KABY 091653Z 07007G15KT 10SM FEW050 34/22 A3001 RMK AO2 SLP160 T03440217

2010/08/09 16:53
KACK 091653Z 23011KT 10SM FEW002 26/23 A3001 RMK AO2 SLP162 T02560228

2010/08/09 16:53
KADG 091653Z AUTO 27004KT 9SM CLR 28/20 A3000 RMK AO2 SLP154 T02780200

2010/08/09 16:53
KAFW 091653Z 22010G14KT 10SM FEW060 36/22 A2994 RMK AO2 SLP117 T03560217 $

2010/08/09 16:53
KAGC 091653Z 18005KT 10SM CLR 29/15 A3004 RMK AO2 SLP168 T02940150

2010/08/09 16:53
KAIA 091653Z AUTO 23007KT 10SM CLR 30/11 A3001 RMK AO2 SLP113 T03000111 $

2010/08/09 16:53
KAKO 091653Z AUTO 18005KT 10SM CLR 26/14 A3009 RMK AO2 SLP123 T02610139 TSNO

2010/08/09 16:53
KAMG 091653Z AUTO 09010G18KT 10SM FEW050 33/21 A2999 RMK AO2 SLP154 T03330211

2010/08/09 16:53
KAOH 091653Z AUTO 22006KT 9SM CLR 29/20 A3001 RMK AO2 SLP154 T02940200

2010/08/09 16:53
KAPA 091653Z 00000KT 10SM FEW080 SCT110 24/13 A3016 RMK AO2 SLP144 T02390128

2010/08/09 16:53
KAPF 091653Z 22009KT 10SM BKN019 28/26 A2992 RMK AO2 RAB21E37 SLP130 P0003 T02830261

2010/08/09 16:53
KARA 091653Z 36006KT 10SM FEW029 34/26 A2998 RMK AO2 SLP152 T03390256

2010/08/09 16:53
KARB 091653Z 28006KT 10SM CLR 27/20 A2998 RMK AO2 SLP144 T02720200

2010/08/09 16:53
KASE 091653Z 33006KT 10SM BKN075 14/08 A3033 RMK AO2 SLP166 T01440078

2010/08/09 16:53
KAUG 091653Z AUTO 32006KT 10SM SCT040 BKN049 27/18 A2993 RMK AO2 SLP134 T02720178

2010/08/09 16:53
KBAF 091653Z 21008KT 10SM SCT060 33/16 A2996 RMK AO2 SLP142 T03280161

2010/08/09 16:53
KBBW 091653Z AUTO 00000KT 8SM -RA SCT041 25/22 A2998 RMK AO2 RAB33 SLP128 P0000 T02500217

2010/08/09 16:53
KBCE 091653Z AUTO 14007KT 10SM CLR 18/07 A3030 RMK AO2 SLP155 T01780072

2010/08/09 16:53
KBGM 091653Z 25010KT 10SM FEW055 29/13 A3006 RMK AO2 SLP163 T02940133

2010/08/09 16:53
KBGR 091653Z 29006KT 10SM SCT035 BKN047 27/18 A2991 RMK AO2 SLP126 T02670183

2010/08/09 16:53
KMSP 091653Z 00000KT 10SM FEW150 32/21 A2991 RMK AO2 SLP121 T03170211

2010/08/09 16:53
KMSY 091653Z 34008KT 10SM SCT060 33/26 A2999 RMK AO2 SLP159 T03280256

2010/08/09 16:53
KMYF 091653Z 00000KT 10SM BKN015 18/13 A2994 RMK AO2 SLP134 T01830133

2010/08/09 16:53
KNEW 091653Z 34006KT 10SM SCT020 33/26 A2999 RMK AO2 SLP150 T03280256

2010/08/09 16:53
KOAK 091653Z 27004KT 10SM OVC012 16/11 A2994 RMK AO2 SLP138 T01610111

2010/08/09 16:53
KOMK 091653Z AUTO 02011KT 10SM CLR 24/09 A2982 RMK AO2 SLP088 T02440089

2010/08/09 16:53
KONT 091653Z 00000KT 5SM HZ CLR 19/12 A2992 RMK AO2 SLP123 T01940117

2010/08/09 16:53
KOSH 091653Z 21005KT 10SM BKN014 OVC021 26/22 A2990 RMK AO2 SLP113 T02610217

2010/08/09 16:53
KOVS 091653Z AUTO 30004KT 10SM BKN023 29/23 A2993 RMK AO2 SLP129 T02940228

2010/08/09 16:53
KOXB 091653Z AUTO 14006KT 10SM CLR 28/24 A3003 RMK AO2 SLP170 T02780244

2010/08/09 16:53
KPAE 091653Z AUTO 00000KT 10SM 15/12 A2997 RMK AO2 SLP148 T01500122 TSNO $

2010/08/09 16:53
KPAH 091653Z 20006KT 10SM FEW033 SCT040 BKN060 33/24 A2995 RMK AO2 SLP137 T03330239

2010/08/09 16:53
KPBF 091653Z AUTO 00000KT 10SM CLR 35/23 A2996 RMK AO2 SLP144 T03500233

2010/08/09 16:53
KPDK 091653Z VRB04KT 10SM CLR 34/19 A3006 RMK AO2 SLP155 T03390194

2010/08/09 16:53
KPDT 091653Z 29004KT 10SM CLR 22/05 A2987 RMK AO2 SLP099 T02220050 $

2010/08/09 16:53
KPIR 091653Z AUTO 16005KT 10SM CLR 28/21 A2991 RMK AO2 SLP116 T02830206

2010/08/09 16:53
KPKD 091653Z AUTO 26005KT 10SM CLR 29/17 A2994 RMK AO2 SLP129 T02940172

2010/08/09 16:53
KPQL 091653Z 05006KT 10SM FEW034 32/24 A2998 RMK AO2 SLP154 T03220244

2010/08/09 16:53
KPRB 091653Z AUTO 00000KT 10SM OVC007 15/12 A2994 RMK AO2 SLP137 T01500117 TSNO $

2010/08/09 16:53
KPSC 091653Z VRB03KT 10SM CLR 23/09 A2984 RMK AO2 SLP100 T02280094

2010/08/09 16:53
KPSP 091653Z 00000KT 10SM CLR 32/03 A2982 RMK AO2 SLP093 T03220028

2010/08/09 16:53
KPSX 091653Z AUTO 22010G18KT 10SM CLR 33/25 A2997 RMK AO2 SLP148 T03330250

2010/08/09 16:53
KPUW 091653Z AUTO 00000KT 10SM CLR 22/08 A2991 RMK AO2 SLP117 T02170078

2010/08/09 16:53
KRAC 091653Z AUTO 20008KT 10SM SCT019 BKN025 28/23 A2995 RMK AO2 SLP135 T02780228

2010/08/09 16:53
KRAL 091653Z 21004KT 6SM HZ CLR 20/13 A2992 RMK AO2 SLP118 T02000128

2010/08/09 16:53
KRBG 091653Z AUTO 36005KT 10SM OVC014 16/12 A2998 RMK AO2 SLP152 T01610122

2010/08/09 16:53
KRDD 091653Z 24005KT 10SM CLR 25/13 A2986 RMK AO2 SLP106 T02500133

2010/08/09 16:53
KRKP 091653Z AUTO 13007KT 10SM CLR 33/25 A2995 RMK AO2 SLP144 T03280250

2010/08/09 16:53
KRNT 091653Z 17005KT 9SM OVC014 15/13 A2997 RMK AO2 SLP154 T01500128

2010/08/09 16:53
KRUE 091653Z AUTO 00000KT 10SM CLR 35/24 A2996 RMK AO2 SLP136 T03500239

2010/08/09 16:53
KRWF 091653Z AUTO 04004KT 10SM CLR 31/21 A2991 RMK AO2 SLP121 T03110211

2010/08/09 16:53
KRWI 091653Z AUTO VRB03KT 10SM CLR 33/21 A3004 RMK AO2 SLP169 T03280206

2010/08/09 16:53
KSAC 091653Z 18006KT 10SM CLR 19/13 A2989 RMK AO2 SLP121 T01890128

2010/08/09 16:53
KSAF 091653Z 00000KT 10SM FEW120 24/11 A3021 RMK AO2 SLP122 T02440111

2010/08/09 16:53
KSBA 091653Z 16008KT 10SM FEW001 15/13 A2992 RMK AO2 SLP132 FG BNK ONSHR E-W T01500133

2010/08/09 16:53
KSBM 091653Z AUTO 25007KT 10SM BKN017 OVC025 26/22 A2991 RMK AO2 SLP125 T02560217

2010/08/09 16:53
KSDL 091653Z 00000KT 10SM CLR 33/07 A2992 RMK AO2 SLP100 T03330072

2010/08/09 16:53
KSFF 091653Z 00000KT 10SM CLR 22/11 A2987 RMK AO2 SLP104 T02170106

2010/08/09 16:53
KSHN 091653Z AUTO 23009KT 9SM BKN008 OVC025 14/12 A2996 RMK AO2 SLP146 T01440117

2010/08/09 16:53
KSIY 091653Z AUTO VRB03KT 10SM 23/06 A2994 RMK AO2 SLP126 T02280056

2010/08/09 16:53
KSJC 091653Z VRB05KT 10SM FEW007 SCT013 17/11 A2992 RMK AO2 SLP130 T01720106

2010/08/09 16:53
KSMF 091653Z 19004KT 10SM CLR 19/13 A2988 RMK AO2 SLP117 T01890133

2010/08/09 16:53
KSNS 091653Z 00000KT 10SM OVC011 15/11 A2995 RMK AO2 SLP151 T01500111

2010/08/09 16:55
KSPA 091655Z AUTO 27005KT 10SM CLR 32/26 A3005 RMK AO2

2010/08/09 16:53
KSPB 091653Z AUTO VRB03KT 10SM OVC023 15/10 A3000 RMK AO2 SLP159 T01500100

2010/08/09 16:52
KDLF 091652Z AUTO 11007G16KT 10SM SCT022 30/23 A2996 RMK AO2 SLP129

2010/08/09 16:50
LOXZ 091650Z 05006KT 30KM FEW038CU 22/15 Q1018 NOSIG RMK FEW

2010/08/09 16:50
ENEK 091650Z 20020KT 9999 SCT015 16/14 Q1010 W16/S3

2010/08/09 16:50
ENGC 091650Z 22007KT 9999 FEW010 BKN038 13/11 Q1010

2010/08/09 16:54
KCRW 091654Z 00000KT 6SM HZ FEW040 30/19 A3005 RMK AO2 SLP164 T03000194

2010/08/09 16:54
KDSM 091654Z 17011KT 10SM FEW022 SCT150 BKN250 28/23 A2989 RMK AO2 SLP114 T02830228

2010/08/09 16:55
KDVL 091655Z AUTO 20008KT 10SM CLR 29/19 A2985 RMK AO1

2010/08/09 16:55
KEAR 091655Z AUTO 09003KT 10SM CLR 27/22 A2996 RMK AO1

2010/08/09 16:55
KGPZ 091655Z AUTO 28003KT 10SM CLR 28/21 A2993 RMK AO1

2010/08/09 16:54
KLEX 091654Z 00000KT 10SM CLR 33/17 A3004 RMK AO2 SLP159 T03280172

2010/08/09 16:54
KLYH 091654Z AUTO 18006KT 10SM SCT038 SCT046 31/22 A3007 RMK AO2 SLP171 T03060217 TSNO

2010/08/09 16:54
KORH 091654Z 24010KT 10SM CLR 29/16 A3001 RMK AO2 SLP156 T02940161

2010/08/09 16:54
KPIA 091654Z 00000KT 8SM CLR 28/22 A2995 RMK AO2 SLP134 T02780222

2010/08/09 16:54
KSUS 091654Z 17003KT 10SM BKN150 33/26 A2992 RMK AO2 SLP122 T03280256

2010/08/09 16:54
KSYR 091654Z 26006KT 10SM SCT060 BKN200 30/19 A2995 RMK AO2 SLP137 T03000194

2010/08/09 16:54
PHOG 091654Z 05011KT 10SM SCT040 24/17 A3008 RMK AO2 SLP192 T02440167

2010/08/09 16:53
PABE 091653Z 16016KT 7SM -RA FEW010 BKN027 10/09 A2935 RMK AO2 SLP939 P0000 T01000089

2010/08/09 16:53
PABT 091653Z 03005KT 10SM FEW011 SCT050 BKN070 13/10 A2957 RMK AO2 SLP021 RAE36 P0001 T01330100 $

2010/08/09 16:53
PACD 091653Z 11006KT 10SM BKN043 OVC075 12/08 A2951 RMK AO2 SLP993 T01170083

2010/08/09 16:53
PAFA 091653Z 10006KT 10SM BKN070 BKN095 OVC120 14/11 A2956 RMK AO2 RAB22E50 SLP013 P0000 T01440111

2010/08/09 16:53
PAHO 091653Z 26004KT 10SM SCT050 BKN200 15/10 A2962 RMK AO2 SLP029 T01500100

2010/08/09 16:53
PAJN 091653Z 09009KT 10SM FEW011 BKN030 OVC060 13/11 A2997 RMK AO2 SLP148 MTN TPS OBSCD ALQDS THN SPTS IOVC T01280111

2010/08/09 16:53
PAMC 091653Z 12004KT 10SM BKN005 OVC020 12/11 A2950 RMK AO2 RAE24 CIG 004V009 SLP992 P0000 T01170106

2010/08/09 16:53
PANC 091653Z VRB05KT 10SM BKN070 BKN090 BKN200 13/12 A2962 RMK AO2 SLP030 T01330117

2010/08/09 16:53
PANN 091653Z AUTO 23004KT 10SM SCT070 BKN085 14/09 A2955 RMK AO2 SLP011 T01390089 TSNO

2010/08/09 16:53
PANT 091653Z 15004KT 4SM BR OVC005 14/12 A3001 RMK AO2 CIG 003V009 SLP164 T01390122

2010/08/09 16:53
PAOM 091653Z 13011KT 10SM FEW013 BKN019 BKN041 12/09 A2931 RMK AO2 SLP925 T01170094

2010/08/09 16:53
PAOR 091653Z AUTO 00000KT 10SM OVC080 12/10 A2969 RMK AO2 SLP053 T01170100 TSNO

2010/08/09 16:53
PAOT 091653Z 09017KT 10SM SCT060 BKN120 16/11 A2942 RMK AO2 SLP963 T01560106

2010/08/09 16:53
PAQT 091653Z AUTO 05017G25KT 4SM BR OVC004 03/02 A2980 RMK AO2 PK WND 05027/1643 SLP091 T00280022 TSNO

2010/08/09 16:53
PASN 091653Z 23012KT 4SM -DZ BR OVC003 08/08 A2921 RMK AO2 DZB29 SLP892 P0000 T00830083

2010/08/09 16:53
PATK 091653Z 02004KT 10SM OVC060 11/10 A2966 RMK AO2 RAE31 SLP048 P0000 T01110100

2010/08/09 16:53
PAYA 091653Z VRB04KT 10SM BKN007 OVC029 13/12 A2994 RMK AO2 RAB31E43 SLP137 BAY TWR WND 120MMKT P0000 T01330117

2010/08/09 16:54
KROA 091654Z 00000KT 9SM SCT040 31/21 A3008 RMK AO2 SLP170 T03060206

2010/08/09 16:54
KFWA 091654Z VRB03KT 9SM FEW040 SCT140 BKN250 30/21 A3000 RMK AO2 SLP153 T03000211

2010/08/09 16:54
KROC 091654Z 23007KT 9SM SCT070 SCT130 OVC150 27/21 A2996 RMK AO2 SLP142 T02720206

2010/08/09 16:54
KAVP 091654Z AUTO 25011G16KT 10SM CLR 32/13 A3001 RMK AO2 SLP150 T03220133 TSNO

2010/08/09 16:54
KDMH 091654Z AUTO 32/22 A3001 RMK AO2 SLP160 T03220217 PWINO TSNO

2010/08/09 16:54
KNAK 091654Z AUTO 13013KT 6SM HZ CLR 28/24 A3000 RMK AO2 SLP160 T02830239 TSNO

2010/08/09 16:54
KACY 091654Z 20007KT 10SM CLR 33/18 A3003 RMK AO2 SLP168 T03330178

2010/08/09 16:54
KGSO 091654Z 28006KT 10SM FEW048 32/20 A3006 RMK AO2 SLP167 T03170200

2010/08/09 16:50
EBAW 091650Z 21005KT CAVOK 23/10 Q1015 NOSIG

2010/08/09 16:50
EBBR 091650Z VRB02KT CAVOK 22/11 Q1016 NOSIG

2010/08/09 16:50
EBCI 091650Z 24006KT 9999 FEW048 23/10 Q1016 NOSIG

2010/08/09 16:50
EBLG 091650Z 28003KT 240V320 9999 FEW045 21/09 Q1016 NOSIG

2010/08/09 16:50
EBOS 091650Z 28005KT 250V320 CAVOK 19/14 Q1016 NOSIG

2010/08/09 16:50
ELLX 091650Z 21005KT 180V260 CAVOK 22/09 Q1016 NOSIG

2010/08/09 16:53
KPHD 091653Z AUTO 23003KT 10SM CLR 29/17 A3004 RMK AO2 SLP167 T02890172

2010/08/09 16:53
KPIE 091653Z 08005KT 10SM SCT020 31/24 A2993 RMK AO2 SLP133 T03060239

2010/08/09 16:53
KPIH 091653Z 00000KT 10SM FEW075 BKN095 21/09 A3002 RMK AO2 RAB40E50 SLP119 P0000 T02110094

2010/08/09 16:53
KPIL 091653Z AUTO 12007G14KT 10SM SCT032 34/25 A2992 RMK AO2 SLP132 T03440250

2010/08/09 16:53
KPKB 091653Z 21005KT 7SM CLR 30/18 A3007 RMK AO2 SLP174 T03000178

2010/08/09 16:53
KPMD 091653Z 02005KT 10SM CLR 26/03 A2996 RMK AO2 SLP118 T02610028

2010/08/09 16:53
KPMP 091653Z 15011KT 10SM SCT025 SCT075 29/24 A2995 RMK AO2 SLP142 T02940244

2010/08/09 16:50
KPNA 091650Z AUTO 11004KT 10SM SCT120 20/03 A3019 RMK AO2 LTG DSNT W T01950025

2010/08/09 16:53
KPNC 091653Z AUTO 16003KT 10SM CLR 34/21 A2991 RMK AO2 SLP112 T03440211

2010/08/09 16:53
KPNS 091653Z 15008KT 10SM FEW027 32/25 A2999 RMK AO2 SLP154 T03220250

2010/08/09 16:53
KPOU 091653Z 22006KT 10SM CLR 32/16 A2997 RMK AO2 SLP144 T03170156

2010/08/09 16:53
KPRC 091653Z 00000KT 10SM SCT110 25/08 A3015 RMK AO2 SLP131 T02500078

2010/08/09 16:53
KPTK 091653Z 26005KT 10SM SCT130 OVC160 26/20 A2996 RMK AO2 RAB01E20 SLP138 P0000 T02610200

2010/08/09 16:50
KPTT 091650Z AUTO 19008KT 10SM CLR 36/16 A2993 RMK AO2

2010/08/09 16:53
KPUB 091653Z VRB05KT 10SM CLR 25/14 A3009 RMK AO2 SLP124 T02500144 $

2010/08/09 16:53
KPUC 091653Z AUTO 16003KT 10SM CLR 21/07 A3018 RMK AO2 SLP162 T02060067

2010/08/09 16:53
KPWA 091653Z 17008KT 10SM CLR 34/21 A2993 RMK AO2 SLP115 T03390211

2010/08/09 16:53
KRBD 091653Z 18007KT 10SM CLR 33/23 A2995 RMK AO2 SLP131 T03330228

2010/08/09 16:53
KRHI 091653Z AUTO VRB04KT 10SM CLR 28/21 A2994 RMK AO2 SLP129 T02830211

2010/08/09 16:53
KMAI 091653Z AUTO 09010G16KT 10SM FEW036 34/23 A2998 RMK AO2 SLP148 T03440228

2010/08/09 16:53
KMBS 091653Z 21010KT 10SM CLR 26/21 A2992 RMK AO2 SLP129 T02560211

2010/08/09 16:53
KMCI 091653Z 17007KT 10SM SCT250 34/23 A2991 RMK AO2 SLP114 T03390228

2010/08/09 16:53
KMCK 091653Z AUTO 04012KT 10SM CLR 31/22 A2995 RMK AO2 SLP113 T03060217

2010/08/09 16:53
KMCO 091653Z 10008KT 10SM SCT020 BKN070 BKN250 29/24 A2993 RMK AO2 SLP134 T02940239

2010/08/09 16:53
KMCW 091653Z AUTO 16006KT 10SM FEW055 27/22 A2995 RMK AO2 SLP128 T02720222

2010/08/09 16:53
KMGY 091653Z AUTO 21004KT 10SM CLR 30/19 A3002 RMK AO2 SLP157 T03000194

2010/08/09 16:53
KMHT 091653Z VRB05KT 10SM SCT060 32/16 A2992 RMK AO2 SLP140 T03170161

2010/08/09 16:53
KMIA 091653Z 17010KT 7SM -RA FEW007 BKN015CB BKN040 OVC130 26/24 A2997 RMK AO2 SLP149 CB N-E-SE MOV NW P0000 T02560244

2010/08/09 16:53
KMIE 091653Z 22005KT 10SM CLR 30/21 A3000 RMK AO2 SLP146 T03000211

2010/08/09 16:53
KMKO 091653Z AUTO 22010KT 10SM CLR 35/22 A2996 RMK AO2 SLP134 T03500217

2010/08/09 16:53
KMLB 091653Z 10010KT 10SM SCT017CB 29/24 A2994 RMK AO2 SLP139 T02940239

2010/08/09 16:53
KMLC 091653Z AUTO 20009G14KT 10SM CLR 35/22 A2996 RMK AO2 SLP132 T03500217

2010/08/09 16:53
KMLS 091653Z AUTO VRB03KT 10SM CLR 28/09 A2989 RMK AO2 SLP095 T02830094

2010/08/09 16:53
KMLT 091653Z AUTO 27005KT 10SM SCT028 BKN046 24/18 A2991 RMK AO2 SLP132 T02440178

2010/08/09 16:53
KMMK 091653Z AUTO VRB05KT CLR 32/18 A2997 RMK AO2 SLP147 T03170183 $

2010/08/09 16:53
KMNN 091653Z AUTO 28007KT 10SM CLR 30/19 A3003 RMK AO2 SLP163 T03000189

2010/08/09 16:53
KMSO 091653Z 00000KT 10SM CLR 20/09 A2992 RMK AO2 SLP112 T02000089

2010/08/09 16:53
KMSS 091653Z AUTO 27005KT 10SM OVC022 25/20 A2993 RMK AO2 SLP133 T02500200

2010/08/09 16:53
KMTH 091653Z AUTO VRB05KT 10SM BKN048 BKN065 27/24 A2995 RMK AO2 SLP142 T02670239

2010/08/09 16:53
KMTJ 091653Z AUTO 00000KT 10SM BKN100 23/11 A3022 RMK AO2 SLP155 T02280111

2010/08/09 16:53
KMTO 091653Z AUTO VRB04KT 10SM CLR 32/24 A2996 RMK AO2 SLP137 T03220244 $

2010/08/09 16:53
KMVY 091653Z 22011KT 10SM SCT009 29/23 A3000 RMK AO2 SLP159 T02890228

2010/08/09 16:53
KMWL 091653Z AUTO 23009KT 10SM CLR 34/22 A2994 RMK AO2 SLP123 T03440217

2010/08/09 16:53
KMYV 091653Z AUTO 20003KT 10SM CLR 20/12 A2988 RMK AO2 SLP122 T02000122 PWINO PNO $

2010/08/09 16:50
EGBJ 091650Z 22011KT 9999 VCSH FEW012 BKN018 19/15 Q1012

2010/08/09 16:50
EGCN 091650Z 22015KT 9999 BKN034 22/14 Q1010

2010/08/09 16:50
EGSC 091650Z 23012KT 200V260 CAVOK 23/10 Q1012

2010/08/09 16:50
EGSH 091650Z 22010KT 180V250 9999 SCT046 24/10 Q1012

2010/08/09 16:54
KFWA 091654Z VRB03KT 9SM FEW040 SCT140 BKN250 30/21 A3000 RMK AO2 SLP153 T03000211

2010/08/09 16:54
KROC 091654Z 23007KT 9SM SCT070 SCT130 OVC150 27/21 A2996 RMK AO2 SLP142 T02720206

2010/08/09 16:54
KAVP 091654Z AUTO 25011G16KT 10SM CLR 32/13 A3001 RMK AO2 SLP150 T03220133 TSNO

2010/08/09 16:54
KDMH 091654Z AUTO 32/22 A3001 RMK AO2 SLP160 T03220217 PWINO TSNO

2010/08/09 16:54
KNAK 091654Z AUTO 13013KT 6SM HZ CLR 28/24 A3000 RMK AO2 SLP160 T02830239 TSNO

2010/08/09 16:54
KACY 091654Z 20007KT 10SM CLR 33/18 A3003 RMK AO2 SLP168 T03330178

2010/08/09 16:54
KGSO 091654Z 28006KT 10SM FEW048 32/20 A3006 RMK AO2 SLP167 T03170200

2010/08/09 16:55
PAEH 091655Z AUTO 16022G32KT 130V200 5SM OVC005 08/07 RMK AO1 0 T00830073

2010/08/09 16:53
KHKS 091653Z 00000KT 10SM CLR 34/24 A2999 RMK AO2 SLP145 T03440244

2010/08/09 16:53
KHKY 091653Z 00000KT 9SM CLR 31/22 A3007 RMK AO2 SLP158 T03060222

2010/08/09 16:53
KHLG 091653Z VRB04KT 10SM CLR 31/15 A3005 RMK AO2 SLP168 T03060150

2010/08/09 16:53
KHOT 091653Z AUTO 17004KT 10SM CLR 35/23 A2998 RMK AO2 SLP144 T03500228

2010/08/09 16:53
KHOU 091653Z 16004KT 10SM SCT035 33/22 A2996 RMK AO2 SLP150 T03330222

2010/08/09 16:53
KHQM 091653Z AUTO 25006KT 7SM OVC004 13/12 A3000 RMK AO2 CIG 004V007 SLP161 T01330122

2010/08/09 16:53
KHRI 091653Z AUTO 26010KT 10SM CLR 22/07 A2986 RMK AO2 SLP105 T02170072

2010/08/09 16:53
KHRO 091653Z AUTO 00000KT 10SM CLR 33/22 A3001 RMK AO2 SLP144 T03330222

2010/08/09 16:53
KHYR 091653Z AUTO 00000KT 10SM FEW029 29/21 A2994 RMK AO2 SLP130 T02940206

2010/08/09 16:53
KIAH 091653Z 26004KT 10SM SCT031 BKN250 34/24 A2997 RMK AO2 SLP149 T03390239

2010/08/09 16:53
KICR 091653Z AUTO 08003KT 10SM CLR 29/21 A2994 RMK AO2 SLP119 T02940211 TSNO

2010/08/09 16:53
KILM 091653Z AUTO 13007KT 10SM SCT027 31/23 A3003 RMK AO2 SLP168 T03060228 TSNO

2010/08/09 16:53
KIPL 091653Z AUTO 01004KT 10SM CLR 32/07 A2980 RMK AO2 SLP090 T03220072

2010/08/09 16:55
KJZI 091655Z AUTO 06011G16KT 10SM BKN025 BKN036 BKN050 31/31 A3000 RMK A02 P000

2010/08/09 16:50
KLAL 091650Z 10008KT 9SM BKN022 31/24 A2992

2010/08/09 16:53
KLBX 091653Z AUTO 00000KT 10SM FEW040 33/25 A2997 RMK AO2 SLP149 T03330250

2010/08/09 16:53
KLCH 091653Z 29004KT 10SM SCT036 33/24 A2997 RMK AO2 SLP157 T03330239

2010/08/09 16:53
KLFK 091653Z AUTO 20005KT 10SM SCT037 33/23 A2999 RMK AO2 SLP149 T03330228

2010/08/09 16:53
KLFT 091653Z 30004KT 10SM FEW050 34/25 A2998 RMK AO2 SLP151 T03390250

2010/08/09 16:53
KLGB 091653Z 00000KT 6SM HZ OVC016 19/13 A2993 RMK AO2 SLP136 T01940133

2010/08/09 16:55
KLKR 091655Z AUTO 00000KT 7SM CLR 33/24 A3005 RMK AO2

2010/08/09 16:53
KLLQ 091653Z AUTO 24003KT 10SM CLR 34/24 A2998 RMK AO2 SLP146 T03440239

2010/08/09 16:53
KLMT 091653Z 00000KT 10SM FEW050 SCT100 19/09 A2998 RMK AO2 SLP113 T01940094

2010/08/09 16:53
KLOL 091653Z AUTO 19005KT 10SM CLR 26/06 A2998 RMK AO2 SLP105 T02610061

2010/08/09 16:53
KLSE 091653Z 27004KT 10SM SCT019 BKN090 29/23 A2991 RMK AO2 SLP117 T02890228

2010/08/09 16:53
KLVJ 091653Z AUTO 00000KT 10SM CLR 33/23 A2998 RMK AO2 SLP152 T03280233

2010/08/09 16:53
KLVK 091653Z 00000KT 10SM FEW014 17/12 A2990 RMK AO2 SLP123 T01720122 $

2010/08/09 16:53
KLVS 091653Z AUTO 35004KT 10SM BKN100 24/11 A3023 RMK AO2 SLP117 T02390106

2010/08/09 16:53
KMAE 091653Z AUTO 30007KT 10SM CLR 23/13 A2988 RMK AO2 SLP117 T02280133

2010/08/09 16:53
KMCB 091653Z AUTO 33006KT 10SM CLR 33/23 A2999 RMK AO2 SLP148 T03330233

2010/08/09 16:53
KMCE 091653Z AUTO 30005KT 10SM CLR 21/13 A2988 RMK AO2 SLP117 T02110128

2010/08/09 16:53
KMEM 091653Z 23004KT 10SM FEW040 SCT130 BKN250 34/24 A2997 RMK AO2 SLP144 T03440244

2010/08/09 16:55
KMEZ 091655Z AUTO 00000KT 10SM SCT049 BKN055 35/21 A3000 RMK AO2

2010/08/09 16:53
KMFE 091653Z AUTO 15009KT 10SM FEW030 33/24 A2992 RMK AO2 SLP130 T03280239 TSNO

2010/08/09 16:53
KMFR 091653Z 28004KT 10SM CLR 21/12 A2993 RMK AO2 SLP125 T02060117

2010/08/09 16:53
KMGW 091653Z 00000KT 10SM CLR 29/16 A3007 RMK AO2 SLP171 T02940161

2010/08/09 16:53
KMHE 091653Z AUTO 03004KT 10SM CLR 28/23 A2990 RMK AO2 SLP116 T02830228 TSNO

2010/08/09 16:53
KMIC 091653Z 00000KT 10SM CLR 31/21 A2990 RMK AO2 SLP119 T03060206

2010/08/09 16:53
KMIW 091653Z AUTO 15006KT 10SM FEW090 27/23 A2991 RMK AO2 RAB30E41 SLP119 P0000 T02720233

2010/08/09 16:53
KMKL 091653Z VRB04KT 10SM CLR 33/26 A2999 RMK AO2 SLP148 T03280261

2010/08/09 16:53
KMLP 091653Z AUTO 00000KT 10SM CLR 16/05 A3002 RMK AO2 SLP079 T01560050 TSNO

2010/08/09 16:53
KMMV 091653Z AUTO 00000KT 10SM OVC014 14/11 A3002 RMK AO2 SLP166 T01440106

2010/08/09 16:53
KMOD 091653Z 34009KT 10SM CLR 20/12 A2989 RMK AO2 SLP119 T02000122

2010/08/09 16:53
KMRB 091653Z 00000KT 8SM CLR 31/17 A3001 RMK AO2 SLP157 T03110172

2010/08/09 16:53
KMSL 091653Z AUTO 12003KT 10SM CLR 33/24 A3001 RMK AO2 SLP156 T03280244

2010/08/09 16:53
KODO 091653Z AUTO 16012G18KT 10SM CLR 31/19 A3003 RMK AO2 SLP119 T03110189

2010/08/09 16:50
KOGA 091650Z AUTO 05004KT 10SM CLR 31/16 A2999 RMK AO2 T03060157

2010/08/09 16:53
KOGB 091653Z AUTO 06007KT 10SM FEW039 33/22 A3004 RMK AO2 SLP168 T03280217

2010/08/09 16:53
KOGD 091653Z AUTO 17018G23KT 10SM CLR 25/08 A3004 RMK AO2 SLP110 T02500078

2010/08/09 16:53
KOJC 091653Z 19006KT 10SM CLR 34/24 A2992 RMK AO2 SLP116 T03390239

2010/08/09 16:53
KOLF 091653Z AUTO 15003KT 10SM CLR 27/14 A2987 RMK AO2 SLP104 T02720144

2010/08/09 16:53
KRME 091653Z 27007KT 10SM CLR 29/19 A2998 RMK AO2 SLP148 T02890189

2010/08/09 16:53
KRSL 091653Z AUTO 18007KT 10SM CLR 33/20 A2989 RMK AO2 SLP096 T03330200

2010/08/09 16:53
KRSW 091653Z 12008KT 10SM SCT025 SCT060 31/23 A2991 RMK AO2 SLP125 T03110233

2010/08/09 16:53
KRVS 091653Z 22007KT 10SM CLR 36/22 A2992 RMK AO2 SLP133 T03610222

2010/08/09 16:53
KRWL 091653Z AUTO 20015KT 10SM BKN095 22/05 A3020 RMK AO2 SLP132 T02170050 PNO $

2010/08/09 16:53
KRXE 091653Z AUTO 22007KT 10SM CLR 22/11 A3005 RMK AO2 SLP134 T02170106

2010/08/09 16:53
KSEG 091653Z AUTO VRB03KT 9SM CLR 31/17 A3001 RMK AO2 SLP160 T03110172

2010/08/09 16:49
KSEZ 091649Z AUTO 19005KT 10SM BKN120 28/09 A3015 RMK AO2 T02840094

2010/08/09 16:53
KSHR 091653Z AUTO 08005KT 10SM CLR 28/07 A2995 RMK AO2 SLP097 T02830072

2010/08/09 16:53
KSLC 091653Z 17017G26KT 10SM FEW080 SCT110 SCT200 26/06 A3002 RMK AO2 PK WND 15027/1632 SLP111 CB DSNT NW TCU DSNT SW ACSL DSNT SE T02560061

2010/08/09 16:53
KSLN 091653Z 21012KT 10SM CLR 37/21 A2987 RMK AO2 SLP096 T03720206

2010/08/09 16:53
KSMQ 091653Z AUTO 00000KT 10SM BKN050 32/20 A2998 RMK AO2 SLP150 T03170200 $

2010/08/09 16:53
KSNA 091653Z VRB03KT 6SM HZ BKN015 19/13 A2993 RMK AO2 SLP134 T01940128

2010/08/09 16:53
KSNY 091653Z AUTO 21004KT 10SM CLR 31/11 A3007 RMK AO2 SLP120 T03060106

2010/08/09 16:53
KSPG 091653Z 14004KT 10SM FEW019 30/24 A2992 RMK AO2 SLP130 T03000244

2010/08/09 16:53
KSRQ 091653Z 10008KT 10SM FEW026 BKN033 29/24 A2992 RMK AO2 SLP132 T02940239

2010/08/09 16:53
KSSI 091653Z AUTO 04014KT 10SM FEW090 32/24 A2999 RMK AO2 SLP154 T03170244

2010/08/09 16:53
KSTJ 091653Z 15009KT 10SM CLR 32/24 A2988 RMK AO2 SLP107 T03220239

2010/08/09 16:50
KSUN 091650Z 27005KT 30SM SCT080 BKN120 17/10 A3006

2010/08/09 16:53
KSWO 091653Z 13007KT 10SM CLR 37/22 A2991 RMK AO2 SLP112 T03670217

2010/08/09 16:50
KSZT 091650Z AUTO 13003KT 10SM SCT070 20/16 A2988 RMK AO2

2010/08/09 16:53
KTDZ 091653Z AUTO 21008KT 8SM CLR 30/20 A2998 RMK AO2 SLP145 T03000200

2010/08/09 16:50
KTEX 091650Z AUTO 00000KT 10SM SCT065 BKN075 BKN090 17/10 A3042 RMK AO2

2010/08/09 16:53
KTHV 091653Z AUTO 00000KT 9SM CLR 31/18 A3002 RMK AO2 SLP164 T03110183

2010/08/09 16:50
KTIF 091650Z AUTO 12004KT 10SM CLR 26/20 A3001 RMK AO2 T02550196

2010/08/09 16:53
KTKI 091653Z 17008KT 10SM CLR 33/23 A2995 RMK AO2 SLP132 T03280233

2010/08/09 16:53
KTMB 091653Z 15007KT 1 1/4SM +RA BR BKN012 OVC028 24/23 A2997 RMK AO2 SLP148 P0040 T02440233

2010/08/09 16:53
KTOP 091653Z 19006KT 10SM CLR 37/21 A2987 RMK AO2 SLP103 T03670211

2010/08/09 16:53
KTOR 091653Z AUTO 30008KT 10SM FEW110 27/14 A3002 RMK AO2 LTG DSNT N SLP114 T02670139

2010/08/09 16:53
KTPA 091653Z VRB06KT 8SM SCT025 31/24 A2992 RMK AO2 SLP131 T03110239

2010/08/09 16:53
KRIL 091653Z AUTO 36003KT 10SM BKN100 17/11 A3022 RMK AO2 RAE1556 SLP175 P0000 T01720106 TSNO

2010/08/09 16:53
KOVE 091653Z AUTO 00000KT 10SM CLR 21/13 A2990 RMK AO2 SLP125 T02060133 TSNO $

2010/08/09 16:53
KTRL 091653Z AUTO 20008KT 150V240 10SM CLR 34/20 A2996 RMK AO2 SLP137 T03440200

2010/08/09 16:53
KTTN 091653Z 25007KT 220V280 8SM CLR 33/18 A3000 RMK AO2 SLP152 T03280183

2010/08/09 16:53
KTUL 091653Z 22005KT 10SM CLR 36/22 A2992 RMK AO2 SLP121 T03560217

2010/08/09 16:53
KTWF 091653Z 16016KT 10SM CLR 25/07 A2995 RMK AO2 SLP081 T02500072

2010/08/09 16:53
KTXK 091653Z 21005KT 10SM CLR 34/23 A2997 RMK AO2 SLP144 T03390228

2010/08/09 16:53
KTYR 091653Z 21009KT 10SM CLR 33/21 A3000 RMK AO2 SLP148 T03280211

2010/08/09 16:51
KEVB 091651Z 11012KT 10SM FEW020 32/25 A2996

2010/08/09 16:50
PAGA 091650Z AUTO 12008KT 10SM SCT008 SCT013 OVC055 13/11 A2945 RMK AO2

2010/08/09 16:53
KABR 091653Z AUTO 19007KT 10SM CLR 30/19 A2991 RMK AO2 SLP121 T03000194

2010/08/09 16:53
KACV 091653Z AUTO 30004KT 10SM OVC005 12/12 A2995 RMK AO2 CIG 002V010 SLP146 T01220117

2010/08/09 16:53
KAEX 091653Z 02004KT 10SM CLR 34/22 A2996 RMK AO2 SLP147 T03440222

2010/08/09 16:53
KAGS 091653Z 06004KT 9SM CLR 33/22 A3002 RMK AO2 SLP162 T03280222

2010/08/09 16:53
KALI 091653Z AUTO 19006KT 10SM FEW032 SCT044 33/24 A2994 RMK AO2 SLP136 T03280244

2010/08/09 16:53
KALW 091653Z 26009G17KT 10SM CLR 23/07 A2987 RMK AO2 SLP108 T02330067

2010/08/09 16:53
KAMA 091653Z 19012KT 10SM CLR 31/16 A3003 RMK AO2 SLP107 T03060161

2010/08/09 16:53
KAMW 091653Z AUTO 14008KT 10SM CLR 28/23 A2991 RMK AO2 SLP118 T02780233

2010/08/09 16:53
KANB 091653Z AUTO 09003KT 10SM CLR 33/22 A3003 RMK AO2 SLP156 T03280217

2010/08/09 16:53
KAOO 091653Z AUTO 00000KT 10SM CLR 29/15 A3007 RMK AO2 SLP172 T02890150

2010/08/09 16:53
KASD 091653Z AUTO 01007KT 10SM CLR 33/26 A2997 RMK AO2 LTG DSNT SE SLP150 T03280256

2010/08/09 16:53
KASX 091653Z AUTO VRB03KT 10SM CLR 27/23 A2992 RMK AO2 SLP129 T02720228

2010/08/09 16:53
KATY 091653Z AUTO 15006KT 10SM CLR 30/18 A2994 RMK AO2 SLP127 T03000183

2010/08/09 16:53
KAUS 091653Z 16009KT 110V190 10SM FEW045 33/21 A2998 RMK AO2 SLP137 T03330206

2010/08/09 16:53
KAWM 091653Z AUTO VRB04KT 10SM SCT065 33/26 A2996 RMK AO2 SLP138 T03280256

2010/08/09 16:53
KAXN 091653Z AUTO 27003KT 10SM CLR 29/18 A2996 RMK AO2 SLP137 T02890183

2010/08/09 16:53
KAZO 091653Z 13003KT 3SM RA BR BKN016 OVC070 22/21 A2999 RMK AO2 TSB19E32 SLP149 P0044 T02220211

2010/08/09 16:53
KBDE 091653Z AUTO 10003KT 10SM CLR 28/21 A2988 RMK AO2 SLP116 T02780206

2010/08/09 16:53
KBEH 091653Z AUTO 14006KT 10SM SCT041 BKN100 24/22 A2996 RMK AO2 RAB07E25 SLP139 P0000 T02440222

2010/08/09 16:53
KBFD 091653Z AUTO VRB04KT 10SM FEW095 26/14 A3008 RMK AO2 SLP168 T02610144

2010/08/09 16:53
KBFI 091653Z 16004KT 10SM BKN012 OVC017 16/12 A2997 RMK AO2 SLP148 T01560122

2010/08/09 16:53
KBFM 091653Z 00000KT 10SM FEW031 32/24 A3000 RMK AO2 SLP159 TCU DSNT S T03170244

2010/08/09 16:53
KBHM 091653Z 11004KT 10SM FEW047 34/21 A3003 RMK AO2 SLP159 T03390211

2010/08/09 16:53
KBIV 091653Z AUTO 19009KT 10SM FEW008 26/23 A2994 RMK AO2 RAE20 SLP133 P0004 T02610228

2010/08/09 16:53
KBKE 091653Z AUTO 30005KT 10SM CLR 21/09 A2993 RMK AO2 SLP114 T02110089

2010/08/09 16:53
KBLI 091653Z 17008KT 10SM FEW007 SCT055 15/12 A2995 RMK AO2 SLP147 T01500122

2010/08/09 16:53
KBMQ 091653Z AUTO VRB06KT 10SM CLR 32/19 A3002 RMK AO2 SLP143 T03170189 $

2010/08/09 16:53
KBNA 091653Z 25005KT 10SM SCT039 SCT060 BKN200 33/23 A3000 RMK AO2 SLP149 T03280233

2010/08/09 16:53
KBPK 091653Z AUTO 25003KT 8SM CLR 32/24 A2998 RMK AO2 SLP139 T03220244

2010/08/09 16:53
KBPT 091653Z 27004KT 10SM SCT032 BKN048 32/24 A2997 RMK AO2 SLP150 T03220244

2010/08/09 16:53
KBRD 091653Z AUTO 00000KT 10SM CLR 29/17 A2994 RMK AO2 SLP130 T02890172

2010/08/09 16:53
KBRO 091653Z 16010KT 10SM BKN034 BKN044 34/24 A2992 RMK AO2 SLP130 T03440239

2010/08/09 16:53
KBTL 091653Z 19006KT 3SM RA BR OVC011 22/21 A3001 RMK AO2 TSE50 SLP157 P0031 T02220211

2010/08/09 16:53
KBUR 091653Z 00000KT 10SM CLR 19/12 A2992 RMK AO2 SLP122 T01940122

2010/08/09 16:53
KBWG 091653Z AUTO 00000KT 10SM CLR 33/23 A2999 RMK AO2 SLP149 T03330228

2010/08/09 16:53
KCCR 091653Z 21004KT 10SM OVC014 17/12 A2992 RMK AO2 SLP117 T01670117

2010/08/09 16:55
KCDN 091655Z AUTO 08005KT 10SM SCT043 34/23 A3005 RMK A02 P000

2010/08/09 16:53
KCHO 091653Z 25008KT 8SM FEW043 32/21 A3003 RMK AO2 SLP160 T03220211

2010/08/09 16:55
KCKI 091655Z AUTO 07007KT 10SM CLR 31/20 A3002 RMK AO2 LTG DSNT E

2010/08/09 16:53
KCLM 091653Z AUTO 33007KT 10SM BKN008 14/12 A2997 RMK AO2 SLP149 T01440117

2010/08/09 16:53
KCMI 091653Z 18006KT 10SM CLR 31/24 A2996 RMK AO2 SLP136 T03110244

2010/08/09 16:53
KCNM 091653Z AUTO 14004KT 10SM CLR 27/19 A3003 RMK AO2 SLP114 T02670189

2010/08/09 16:53
KCNO 091653Z 00000KT 10SM 20/13 A2993 RMK AO2 SLP132 T02000128 $

2010/08/09 16:53
KCOT 091653Z AUTO 00000KT 10SM CLR 32/21 A2995 RMK AO2 SLP133 T03220211

2010/08/09 16:53
KBHK 091653Z AUTO VRB03KT 10SM CLR 31/11 A2991 RMK AO2 SLP101 T03060111

2010/08/09 16:53
KBKL 091653Z 31004KT 3SM HZ CLR 29/21 A2998 RMK AO2 SLP148 T02890206

2010/08/09 16:53
KBKV 091653Z AUTO 07006KT 10SM CLR 32/24 A2993 RMK AO2 LTG DSNT NE SLP134 T03170244

2010/08/09 16:53
KBMG 091653Z 24006KT 10SM CLR 32/22 A2999 RMK AO2 SLP145 T03170222

2010/08/09 16:53
KBOI 091653Z 01004KT 10SM CLR 24/10 A2988 RMK AO2 SLP086 T02390100

2010/08/09 16:53
KBPI 091653Z AUTO 19007KT 10SM FEW090 20/05 A3018 RMK AO2 SLP126 T02000050 TSNO

2010/08/09 16:53
KBRL 091653Z AUTO 17007KT 10SM CLR 27/23 A2992 RMK AO2 SLP125 T02670228

2010/08/09 16:53
KBTM 091653Z AUTO 00000KT 10SM CLR 14/08 A3004 RMK AO2 SLP132 T01440083

2010/08/09 16:53
KBVO 091653Z AUTO 19005KT 10SM CLR 36/23 A2993 RMK AO2 SLP121 T03610228

2010/08/09 16:53
KBVY 091653Z 23010G22KT 10SM FEW055 33/17 A2993 RMK AO2 SLP129 T03330172

2010/08/09 16:53
KBYG 091653Z AUTO VRB03KT 10SM CLR 25/08 A3002 RMK AO2 SLP105 T02500078

2010/08/09 16:53
KBYI 091653Z AUTO 11004KT 10SM BKN100 21/11 A2998 RMK AO2 SLP115 T02060111

2010/08/09 16:53
KCAG 091653Z AUTO 00000KT 10SM BKN090 OVC110 17/12 A3023 RMK AO2 RAE35 SLP185 P0001 T01720117

2010/08/09 16:53
KCDC 091653Z AUTO 23005KT 10SM CLR 22/08 A3016 RMK AO2 SLP149 T02220083

2010/08/09 16:53
KCDS 091653Z AUTO 26009KT 10SM CLR 33/21 A2996 RMK AO2 SLP112 T03280206

2010/08/09 16:53
KCDW 091653Z VRB05KT 9SM BKN070 32/18 A2999 RMK AO2 SLP160 T03170183

2010/08/09 16:53
KCEW 091653Z AUTO 07007KT 10SM FEW032 33/25 A2999 RMK AO2 SLP152 T03280250

2010/08/09 16:53
KCEZ 091653Z AUTO 29004KT 10SM CLR 24/12 A3021 RMK AO2 SLP152 T02390122

2010/08/09 16:45
KCGF 091645Z 22008KT 10SM FEW050 BKN120 33/17 A3001

2010/08/09 16:53
KCGI 091653Z 00000KT 10SM FEW031 33/25 A2995 RMK AO2 SLP136 T03330250

2010/08/09 16:53
KCKB 091653Z 18004KT 7SM CLR 29/19 A3007 RMK AO2 SLP167 T02890189

2010/08/09 16:53
KCMX 091653Z AUTO 27011KT 10SM 26/19 A2989 RMK AO2 SLP119 T02610194 $

2010/08/09 16:53
KCPR 091653Z 22013G17KT 10SM CLR 28/04 A3006 RMK AO2 SLP107 T02830039

2010/08/09 16:53
KCPS 091653Z 00000KT 6SM HZ CLR 33/25 A2993 RMK AO2 SLP132 T03280250

2010/08/09 16:53
KCRE 091653Z 14009KT 10SM SCT041 30/26 A3002 RMK AO2 SLP167 T03000256

2010/08/09 16:53
KCRG 091653Z 07008KT 10SM BKN020 BKN042 30/24 A2997 RMK AO2 SLP148 T03000244

2010/08/09 16:53
KCRS 091653Z AUTO 17009KT 10SM CLR 33/22 A2996 RMK AO2 SLP138 T03330222

2010/08/09 16:53
KCSM 091653Z 19009G17KT 10SM CLR 34/18 A2996 RMK AO2 SLP112 T03440178

2010/08/09 16:53
KCUB 091653Z AUTO 00000KT 10SM BKN049 34/21 A3004 RMK AO2 SLP169 T03390206

2010/08/09 16:53
KCYS 091653Z 19011KT 10SM FEW050 SCT070 BKN100 22/11 A3019 RMK AO2 SLP136 T02220106

2010/08/09 16:51
KDAG 091651Z AUTO 28004KT 10SM CLR 27/M02 A2992 RMK AO2 SLP106 T02721017 TSNO

2010/08/09 16:53
KDEN 091653Z 27004KT 10SM FEW080 SCT100 BKN140 26/13 A3012 RMK AO2 SLP115 T02610128

2010/08/09 16:53
KDEQ 091653Z AUTO 00000KT 10SM CLR 33/23 A2995 RMK AO2 SLP135 T03330233

2010/08/09 16:53
KDET 091653Z 29004KT 9SM CLR 28/19 A2996 RMK AO2 SLP140 T02780194

2010/08/09 16:53
KDFI 091653Z AUTO 23005KT 7SM CLR 29/20 A3000 RMK AO2 SLP153 T02890200

2010/08/09 16:53
KDFW 091653Z 15007KT 10SM CLR 34/22 A2994 RMK AO2 SLP128 T03390222

2010/08/09 16:53
KFVE 091653Z AUTO VRB04KT 9SM BKN024 OVC029 22/16 A2986 RMK AO2 SLP108 T02220161

2010/08/09 16:53
KFWN 091653Z AUTO VRB04KT 10SM CLR 32/17 A2999 RMK AO2 SLP153 T03170167

2010/08/09 16:53
KFXE 091653Z 14010G16KT 10SM SCT030 31/23 A2994 RMK AO2 SLP141 T03060228

2010/08/09 16:53
KGAG 091653Z AUTO 19011KT 10SM CLR 34/19 A2994 RMK AO2 SLP102 T03390194

2010/08/09 16:53
KGEY 091653Z AUTO VRB04KT 10SM CLR 27/07 A2995 RMK AO2 SLP098 T02670072

2010/08/09 16:53
KGEZ 091653Z AUTO 24007KT 9SM CLR 31/21 A2998 RMK AO2 SLP144 T03060206

2010/08/09 16:53
KGFK 091653Z 18006KT 10SM CLR 32/19 A2984 RMK AO2 SLP100 T03170194

2010/08/09 16:53
KGFL 091653Z AUTO 18008KT 10SM FEW060 30/19 A2994 RMK AO2 SLP134 T03000189

2010/08/09 16:53
KGGG 091653Z 20006KT 10SM CLR 33/22 A2998 RMK AO2 SLP142 T03330222

2010/08/09 16:53
KLVM 091653Z AUTO 27005KT 10SM FEW110 24/09 A2998 RMK AO2 SLP114 T02390089

2010/08/09 16:53
KLWV 091653Z AUTO 00000KT 7SM CLR 33/23 A2995 RMK AO2 SLP138 T03330228

2010/08/09 16:53
KLXT 091653Z AUTO 12009KT 10SM CLR 32/24 A2993 RMK AO2 SLP123 T03170244

2010/08/09 16:53
KMAF 091653Z 17011G18KT 10SM CLR 32/19 A3002 RMK AO2 SLP114 T03170189

2010/08/09 16:53
KDGW 091653Z AUTO VRB03KT 10SM CLR 29/07 A3005 RMK AO2 SLP108 T02890067

2010/08/09 16:53
KDHN 091653Z 06007KT 10SM CLR 33/23 A3004 RMK AO2 SLP164 T03280233

2010/08/09 16:53
KDKK 091653Z AUTO 25010KT 9SM FEW055 29/18 A2997 RMK AO2 SLP144 T02940183

2010/08/09 16:53
KDLN 091653Z AUTO 00000KT 10SM FEW090 18/11 A3002 RMK AO2 SLP122 T01830111

2010/08/09 16:53
KDMO 091653Z AUTO 00000KT 10SM CLR 33/24 A2996 RMK AO2 SLP134 T03330244

2010/08/09 16:53
KDRO 091653Z AUTO 24006KT 10SM CLR 23/09 A3024 RMK AO2 SLP150 T02330094

2010/08/09 16:53
KDTN 091653Z VRB03KT 10SM CLR 33/23 A2997 RMK AO2 SLP144 T03330228

2010/08/09 16:53
KDTO 091653Z 21008G16KT 10SM CLR 35/22 A2993 RMK AO2 SLP125 T03500222

2010/08/09 16:53
KDTW 091653Z 26008KT 7SM FEW080 BKN130 OVC220 28/21 A2997 RMK AO2 SLP143 T02780206

2010/08/09 16:53
KDXR 091653Z 25009G16KT 8SM CLR 32/16 A3000 RMK AO2 SLP155 T03220161

2010/08/09 16:53
KECP 091653Z 06008KT 10SM FEW041 33/23 A2996 RMK AO2 SLP154 T03330233

2010/08/09 16:53
KELD 091653Z AUTO 33003KT 10SM CLR 33/23 A2997 RMK AO2 SLP145 T03330233

2010/08/09 16:53
KELM 091653Z VRB06KT 10SM CLR 29/16 A3000 RMK AO2 SLP151 T02940161

2010/08/09 16:53
KEWB 091653Z 21010KT 8SM SCT015 BKN095 30/21 A2998 RMK AO2 SLP151 T03000211

2010/08/09 16:53
KEYE 091653Z AUTO 29006KT 10SM CLR 32/21 A2998 RMK AO2 SLP143 T03170211

2010/08/09 16:53
KEYW 091653Z 23011KT 10SM -RA SCT023 SCT032 BKN055 28/24 A2994 RMK AO2 SLP137 P0003 T02830239

2010/08/09 16:53
KFDR 091653Z AUTO 20011G22KT 10SM 36/18 A2989 RMK AO2 SLP099 T03610183

2010/08/09 16:53
KFDY 091653Z AUTO 21004KT 7SM CLR 29/20 A2999 RMK AO2 SLP146 T02940200

2010/08/09 16:53
KFFT 091653Z AUTO VRB03KT 10SM CLR 33/21 A3001 RMK AO2 SLP153 T03280206

2010/08/09 16:53
KFLD 091653Z AUTO 24006KT 10SM BKN019 OVC026 25/21 A2991 RMK AO2 SLP124 T02500211

2010/08/09 16:53
KFLL 091653Z 13013G20KT 10SM FEW033 SCT090 31/24 A2994 RMK AO2 SLP139 T03060239

2010/08/09 16:53
KFLO 091653Z 05006KT 10SM CLR 32/22 A3003 RMK AO2 SLP166 T03220222

2010/08/09 16:53
KFMY 091653Z 12008KT 10SM FEW028 BKN060 31/23 A2990 RMK AO2 SLP128 T03110233

2010/08/09 16:53
KFOE 091653Z 18009KT 10SM CLR 36/21 A2989 RMK AO2 SLP108 T03560211

2010/08/09 16:53
KFOK 091653Z 19008G14KT 9SM CLR 28/21 A3003 RMK AO2 SLP167 T02830211

2010/08/09 16:53
KFPR 091653Z 11009KT 10SM SCT020 BKN080 29/24 A2995 RMK AO2 SLP139 T02940239

2010/08/09 16:53
KFRG 091653Z 19014KT 9SM CLR 29/23 A3001 RMK AO2 SLP161 T02890228

2010/08/09 16:53
KFTW 091653Z 18007KT 150V210 10SM CLR 35/23 A2994 RMK AO2 SLP126 T03500228

2010/08/09 16:50
KONL 091650Z AUTO 08003KT 10SM SCT011 23/22 A2996 RMK AO2 T02290221

2010/08/09 16:53
KONO 091653Z AUTO 00000KT 10SM CLR 23/09 A2987 RMK AO2 SLP099 T02330089

2010/08/09 16:53
KOPF 091653Z 19011KT 8SM -RA SCT016 BKN023 BKN030 26/24 A2997 RMK AO2 RAB1556 SLP150 P0035 T02560244

2010/08/09 16:53
KORL 091653Z 12007KT 10SM FEW025 31/25 A2993 RMK AO2 SLP137 T03060250

2010/08/09 16:53
KOSU 091653Z 23007KT 9SM CLR 31/19 A3003 RMK AO2 SLP162 T03060194 $

2010/08/09 16:53
KOTM 091653Z AUTO 18008KT 10SM CLR 27/23 A2991 RMK AO2 SLP119 T02720228

2010/08/09 16:53
KOWD 091653Z 26009KT 10SM FEW100 32/16 A2995 RMK AO2 SLP142 T03220161

2010/08/09 16:53
KPBG 091653Z AUTO 13008KT 10SM FEW045 26/19 A2991 RMK AO2 SLP127 T02560194

2010/08/09 16:53
KPBI 091653Z 15010KT 10SM SCT024 SCT085 BKN150 31/24 A2994 RMK AO2 SLP137 CB DSNT ALQDS T03050236

2010/08/09 16:53
KPEO 091653Z AUTO 20003KT 10SM CLR 28/19 A3000 RMK AO2 SLP151 T02830189

2010/08/09 16:53
KPGD 091653Z AUTO 09006KT 10SM -RA SCT025 BKN042 OVC050 29/24 A2995 RMK AO2 RAB28 SLP140 P0000 T02890244 TSNO

2010/08/09 16:52
KNRB 091652Z 06010KT 10SM BKN030TCU 31/23 A2997 RMK AO2 RAB49E50 SLP149 TCU OHD P0000 T03060233

2010/08/09 16:52
KNHK 091652Z 11010KT 6SM HZ FEW020 BKN250 30/24 A3001 RMK AO2 SLP163 T03000244

2010/08/09 16:52
KNFW 091652Z 21008KT 10SM CLR 36/21 A2998 RMK AO2 SLP134 T03560211

2010/08/09 16:55
KRDR 091655Z AUTO 22008KT 10SM CLR 33/17 A2985 RMK AO2 SLP118 T03310169 TSNO $

2010/08/09 16:53
PHNL 091653Z 07009KT 10SM FEW032 26/16 A3008 RMK AO2 SLP184 T02560156

2010/08/09 16:53
KNIP 091653Z 07008KT 10SM FEW024 BKN034TCU 31/24 A2997 RMK AO2 RAB30E46 SLP144 TCU E-S P0000 T03110244

2010/08/09 16:53
KIAG 091653Z 21010KT 10SM BKN075 BKN110 OVC140 27/21 A2995 RMK AO2 SLP136 T02670206

2010/08/09 16:53
KDTS 091653Z AUTO 05010KT 10SM CLR 33/24 A2997 RMK AO2 SLP147 T03330244

2010/08/09 16:53
KDNK 091653Z AUTO VRB04KT 10SM CLR 33/21 A2998 RMK AO2 SLP148 T03280211 PNO

2010/08/09 16:55
KCEF 091655Z AUTO 24005KT 10SM CLR 32/18 A2996 RMK AO2 SLP146 T03230180

2010/08/09 16:55
KGRF 091655Z 23005KT 10SM OVC012 15/11 A2998 RMK AO2A SLP154 T01460114

2010/08/09 16:55
KHMN 091655Z AUTO 25005KT 10SM CLR 27/15 A3008 RMK AO2 SLP107 T02710152 $

2010/08/09 16:55
KLRF 091655Z AUTO 32004KT 10SM CLR 34/25 A2996 RMK AO2 SLP143 T03430250

2010/08/09 16:55
KRDR 091655Z AUTO 22008KT 10SM CLR 33/17 A2985 RMK AO2 SLP118 T03310169 TSNO $

2010/08/09 16:55
PAFB 091655Z 06003KT 13SM VCSH FEW050 BKN070 OVC090 14/10 A2958 RMK SHRAB25E43 SLP014

2010/08/09 16:55
KBLV 091655Z AUTO 23003KT 10SM CLR 33/26 A2994 RMK AO2 SLP135 T03300261

2010/08/09 16:50
KBYH 091650Z 24004KT 8SM BKN250 34/26 A2996

2010/08/09 16:55
KCEF 091655Z AUTO 24005KT 10SM CLR 32/18 A2996 RMK AO2 SLP146 T03230180

2010/08/09 16:55
KGRF 091655Z 23005KT 10SM OVC012 15/11 A2998 RMK AO2A SLP154 T01460114

2010/08/09 16:55
KHMN 091655Z AUTO 25005KT 10SM CLR 27/15 A3008 RMK AO2 SLP107 T02710152 $

2010/08/09 16:55
KLRF 091655Z AUTO 32004KT 10SM CLR 34/25 A2996 RMK AO2 SLP143 T03430250

2010/08/09 16:53
KNQX 091653Z 20006KT 3SM +RA SCT018CB BKN025 OVC065 27/24 A2994 RMK AO2 SLP137 CB OHD MOV S T1 SET P0015 T02720244 $

2010/08/09 16:54
KECG 091654Z 07006KT 10SM CLR 31/21 A3005 RMK AO2 SLP176 T03060206

2010/08/09 16:53
PABI 091653Z 15009G17KT 110V170 10SM FEW090 BKN110 BKN180 14/06 A2962 RMK AO2 SLP029 T01390056

2010/08/09 16:55
KBAD 091655Z AUTO VRB04KT 10SM CLR 34/23 A2997 RMK AO2 SLP149 T03420229

2010/08/09 16:55
KBKF 091655Z 23006KT 70SM FEW080 SCT140 25/13 A3015 RMK SLP143

2010/08/09 16:55
KDAA 091655Z AUTO VRB03KT 10SM CLR 33/21 A3001 RMK AO2 SLP162 T03300212

2010/08/09 16:53
KDTS 091653Z AUTO 05010KT 10SM CLR 33/24 A2997 RMK AO2 SLP147 T03330244

2010/08/09 16:55
KGSB 091655Z AUTO 07003KT 10SM CLR 32/19 A3002 RMK AO2 SLP167

2010/08/09 16:55
KHST 091655Z VRB06KT 5SM RA BR BKN007 OVC011 25/24 A2997 RMK AO2A SLP150 P0029 T02480242

2010/08/09 16:55
KIAB 091655Z AUTO 15008KT 10SM CLR 35/21 A2992 RMK AO2 SLP115 T03540208 $

2010/08/09 16:55
KMGE 091655Z VRB04KT 7SM BKN045 33/21 A3006 RMK AO2A SLP167 T03270208 $

2010/08/09 16:55
KOFF 091655Z AUTO 31005KT 9SM CLR 30/24 A2984 RMK AO2 SLP089 T03030241 $

2010/08/09 16:55
KSUU 091655Z AUTO 25017KT 10SM CLR 17/12 A2989 RMK AO2 SLP124 T01740120 RVRNO $

2010/08/09 16:55
KVPS 091655Z 09008KT 10SM SCT039 33/25 A2998 RMK AO2A SLP152 T03280251 $

2010/08/09 16:55
PAEH 091655Z AUTO 16022G32KT 130V200 5SM OVC005 08/07 RMK AO1 0 T00830073

2010/08/09 16:54
KMKC 091654Z 20007KT 10SM CLR 34/23 A2990 RMK AO2 SLP112 T03440233

2010/08/09 16:55
KMKT 091655Z AUTO 00000KT 10SM OVC019 27/24 A2992 RMK AO1

2010/08/09 16:55
KMML 091655Z AUTO 04007KT 10SM CLR 28/23 A2993 RMK AO1

2010/08/09 16:55
KMNM 091655Z AUTO 11008KT 8SM BKN031 27/23 A2986 RMK AO1

2010/08/09 16:54
KMOT 091654Z 00000KT 10SM CLR 28/18 A2983 RMK AO2 SLP093 T02780183

2010/08/09 16:55
KMRF 091655Z AUTO 18007KT 10SM CLR 27/16 A3015 RMK AO1

2010/08/09 16:54
KMRY 091654Z 28003KT 10SM OVC007 13/11 A2996 RMK AO2 SLP158 T01330106

2010/08/09 16:55
KMSV 091655Z AUTO 00000KT 10SM FEW050 28/16 A3005 RMK AO1

2010/08/09 16:55
KMTW 091655Z 22009KT 10SM FEW025 28/22 A2988 RMK AO1

2010/08/09 16:54
KMVL 091654Z AUTO 03003KT 10SM BKN039 BKN050 26/18 A2996 RMK AO2 SLP142 T02610178

2010/08/09 16:55
KMVN 091655Z AUTO 15003KT 10SM CLR 34/24 A2996 RMK AO1

2010/08/09 16:54
KOFP 091654Z AUTO VRB04KT 10SM FEW055 34/18 A3004 RMK AO2 SLP171 T03390183

2010/08/09 16:55
KOKK 091655Z AUTO 22007KT 9SM CLR 32/22 A2997 RMK AO1

2010/08/09 16:54
KOLM 091654Z 18006KT 10SM BKN011 BKN037 OVC046 15/12 A2998 RMK AO2 SLP153 T01500117

2010/08/09 16:54
KOLS 091654Z AUTO 00000KT 10SM CLR 27/17 A3008 RMK AO2 SLP115 T02720167

2010/08/09 16:55
KOLU 091655Z AUTO 10SM CLR 29/23 A2989 RMK AO1

2010/08/09 16:54
KTAD 091654Z AUTO 29004KT 10SM CLR 24/13 A3015 RMK AO2 SLP126 T02440133

2010/08/09 16:55
KTIX 091655Z 11010KT 7SM BKN015 29/24 A2994

2010/08/09 16:54
KTQE 091654Z AUTO 36004KT 10SM BKN013 28/24 A2986 RMK AO2 SLP098 T02830244

2010/08/09 16:55
KTVF 091655Z AUTO 18007KT 10SM CLR 29/19 A2987 RMK AO1

2010/08/09 16:52
KUGN 091652Z COR 23007G16KT 10SM SCT019 27/22 A2993 RMK AO2 SLP122 T02720222

2010/08/09 16:54
KUIN 091654Z AUTO 14004KT 10SM CLR 28/22 A2993 RMK AO2 SLP128 T02780222

2010/08/09 16:54
KUZA 091654Z AUTO 00000KT 7SM SCT039 31/21 A3006 RMK AO2 SLP165 T03110211

2010/08/09 16:54
KVAY 091654Z AUTO 24006KT 10SM CLR 32/17 A3001 RMK AO2 SLP161 T03220172

2010/08/09 16:55
KVBT 091655Z AUTO 24006KT 10SM CLR 34/21 A2998 RMK AO1

2010/08/09 16:55
KVIS 091655Z AUTO 20003KT 10SM CLR 21/15 A2989 RMK AO1

2010/08/09 16:54
KVSF 091654Z AUTO 27003KT 10SM BKN065 BKN085 28/18 A2997 RMK AO2 SLP145 T02830178

2010/08/09 16:54
KVTA 091654Z AUTO 19005KT 10SM CLR 29/18 A3004 RMK AO2 SLP164 T02890183

2010/08/09 16:54
KWLD 091654Z AUTO VRB04KT 10SM CLR 34/23 A2993 RMK AO2 SLP119 T03440228

2010/08/09 16:55
KWVL 091655Z AUTO 00000KT 10SM SCT031 BKN040 BKN047 26/19 A2989 RMK AO1

2010/08/09 16:55
KYKN 091655Z AUTO 12006KT 10SM BKN014 25/22 A2991 RMK AO1

2010/08/09 16:55
KOTG 091655Z AUTO 13007KT 10SM BKN017 OVC023 26/19 A2996 RMK AO1

2010/08/09 16:55
KOTH 091655Z 03007KT 10SM OVC020 15/11 A3004 RMK AO1

2010/08/09 16:54
KPHF 091654Z 09007KT 10SM CLR 32/21 A3004 RMK AO2 SLP171 T03170211

2010/08/09 16:54
KPHL 091654Z 21009KT 10SM FEW050 SCT250 32/19 A3001 RMK AO2 SLP163 T03220189

2010/08/09 16:55
KPIB 091655Z AUTO 10005KT 10SM SCT028 32/24 A3001 RMK AO1

2010/08/09 16:54
KPLN 091654Z AUTO 16007KT 10SM BKN006 24/22 A2989 RMK AO2 RAE1555B11E24 CIG 006V011 SLP118 P0000 T02390217

2010/08/09 16:54
KPNE 091654Z VRB06KT 10SM SCT049 BKN060 32/20 A3002 RMK AO2 SLP164 T03220200

2010/08/09 16:55
KPQI 091655Z AUTO 00000KT 10SM FEW020 BKN029 OVC034 21/17 A2985 RMK AO1

2010/08/09 16:54
KPSF 091654Z AUTO 30007KT 10SM CLR 29/17 A3001 RMK AO2 SLP130 T02940167

2010/08/09 16:55
KPTN 091655Z AUTO 35006KT 10SM CLR 33/17 A3002 RMK AO1 LTG DSNT SW

2010/08/09 16:55
KPTV 091655Z AUTO 21003KT 10SM CLR 24/13 A2991 RMK AO1

2010/08/09 16:55
KPVC 091655Z 22015G20KT 10SM CLR 28/22 A2997 RMK AO1

2010/08/09 16:55
KPWT 091655Z AUTO 20005KT 10SM SCT008 OVC017 15/11 A3000 RMK AO1

2010/08/09 16:54
KRBL 091654Z AUTO 00000KT 10SM CLR 24/13 A2988 RMK AO2 SLP115 T02390133

2010/08/09 16:54
KRDG 091654Z 27006KT 10SM CLR 32/19 A2999 RMK AO2 SLP158 T03220194

2010/08/09 16:55
KRKD 091655Z AUTO 17009KT 10SM FEW023 FEW030 24/20 A2992 RMK AO1

2010/08/09 16:54
KRKS 091654Z AUTO 00000KT 10SM SCT080 SCT100 22/04 A3019 RMK AO2 SLP137 T02170039

2010/08/09 16:54
KRST 091654Z 28005KT 10SM SCT016 28/23 A2996 RMK AO2 SLP133 T02780233

2010/08/09 16:55
KRUT 091655Z 24010KT 200V280 10SM OVC043 27/18 A2996 RMK AO1

2010/08/09 16:53
KGGW 091653Z AUTO 00000KT 10SM CLR 27/11 A2988 RMK AO2 SLP105 T02720111 TSNO

2010/08/09 16:53
KGIF 091653Z AUTO 09006KT 10SM FEW023 SCT065 31/24 A2994 RMK AO2 SLP138 T03110239 TSNO

2010/08/09 16:53
KGJT 091653Z 00000KT 10SM SCT100 24/11 A3014 RMK AO2 SLP139 T02440111

2010/08/09 16:53
KGKJ 091653Z AUTO 21005KT 10SM CLR 28/17 A3004 RMK AO2 SLP161 T02780167

2010/08/09 16:53
KGKY 091653Z 15006KT 10SM CLR 33/23 A2995 RMK AO2 SLP132 T03280228

2010/08/09 16:53
KGLD 091653Z AUTO 05008KT 10SM CLR 31/19 A3001 RMK AO2 SLP111 T03060189

2010/08/09 16:53
KGNV 091653Z 06012G17KT 10SM SCT035 BKN047 33/23 A2994 RMK AO2 SLP135 T03280233

2010/08/09 16:53
KGOK 091653Z AUTO 15007KT 10SM CLR 36/22 A2991 RMK AO2 SLP115 T03560217

2010/08/09 16:53
KGTF 091653Z 19007KT 10SM CLR 24/08 A2991 RMK AO2 SLP096 T02440078

2010/08/09 16:53
KGUY 091653Z AUTO 16005KT 10SM CLR 34/15 A2995 RMK AO2 SLP084 T03390150

2010/08/09 16:53
KGZH 091653Z AUTO 12005KT 10SM BKN032 BKN040 32/24 A3001 RMK AO2 SLP157 T03220239

2010/08/09 16:53
KHAO 091653Z AUTO 23005KT 9SM CLR 33/18 A3001 RMK AO2 SLP158 T03330183

2010/08/09 16:53
KHBR 091653Z AUTO 18007G16KT 10SM CLR 36/18 A2993 RMK AO2 SLP109 T03560178

2010/08/09 16:53
KHFD 091653Z 24007G16KT 10SM CLR 33/14 A2995 RMK AO2 SLP143 T03280144

2010/08/09 16:53
KHLN 091653Z 00000KT 10SM BKN110 17/09 A2996 RMK AO2 RAB08E25 SLP139 P0000 T01670094

2010/08/09 16:50
KHSA 091650Z 05007KT 10SM SCT030 BKN050 33/26 A2997

2010/08/09 16:53
KHUF 091653Z 26005KT 9SM CLR 32/22 A2997 RMK AO2 SLP142 T03170217

2010/08/09 16:53
KHUL 091653Z AUTO 28003KT 10SM FEW018 SCT025 BKN055 22/19 A2987 RMK AO2 RAB12E28 SLP112 P0000 T02220189

2010/08/09 16:53
KHVN 091653Z 22007KT 10SM CLR 31/20 A2998 RMK AO2 SLP152 T03060200

2010/08/09 16:53
KHWO 091653Z 16013G18KT 10SM BKN026 29/23 A2996 RMK AO2 SLP146 T02940233

2010/08/09 16:53
KHZY 091653Z AUTO 19007KT 10SM FEW090 28/19 A3001 RMK AO2 SLP156 T02830194

2010/08/09 16:53
KICT 091653Z 18009KT 10SM FEW200 SCT250 37/21 A2991 RMK AO2 SLP109 T03670206

2010/08/09 16:53
KIDA 091653Z 21004KT 10SM SCT090 BKN110 OVC150 21/10 A3005 RMK AO2 SLP132 T02110100

2010/08/09 16:53
KIML 091653Z AUTO 06008KT 10SM CLR 26/20 A2999 RMK AO2 SLP121 T02610200

2010/08/09 16:53
KITR 091653Z AUTO 10010KT 10SM CLR 28/16 A3005 RMK AO2 SLP113 T02830156

2010/08/09 16:53
KIWI 091653Z AUTO VRB03KT 10SM BKN034 BKN049 27/20 A2993 RMK AO2 SLP134 T02720200

2010/08/09 16:53
KIXD 091653Z 16009KT 10SM CLR 35/23 A2992 RMK AO2 SLP117 T03500233

2010/08/09 16:51
KJCT 091651Z AUTO 19007KT 10SM CLR 32/19 A3000 RMK AO2 SLP118 T03220189 TSNO

2010/08/09 16:53
KJEF 091653Z AUTO 00000KT 10SM CLR 32/24 A2994 RMK AO2 SLP123 T03170239

2010/08/09 16:53
KJER 091653Z AUTO VRB05KT 10SM CLR 24/07 A2996 RMK AO2 SLP103 T02390067

2010/08/09 16:53
KJKL 091653Z AUTO VRB03KT 10SM CLR 31/18 A3008 RMK AO2 SLP166 T03060178

2010/08/09 16:53
KLAA 091653Z AUTO 00000KT 10SM CLR 28/16 A2999 RMK AO2 SLP099 T02780161

2010/08/09 16:53
KLAR 091653Z AUTO VRB03KT 10SM FEW120 22/07 A3024 RMK AO2 SLP127 T02170072

2010/08/09 16:53
KLAW 091653Z AUTO 21008G14KT 10SM CLR 36/19 A2992 RMK AO2 SLP113 T03560189

2010/08/09 16:53
KLBF 091653Z AUTO 05006KT 10SM CLR 27/21 A2997 RMK AO2 SLP120 T02670211

2010/08/09 16:53
KLEB 091653Z 25007G14KT 10SM FEW055 30/17 A2994 RMK AO2 SLP126 T03000172

2010/08/09 16:53
KLEE 091653Z 12003KT 10SM CLR 29/25 A2994 RMK AO2 RAE02 SLP138 P0000 T02940250

2010/08/09 16:53
KLHQ 091653Z AUTO 19006KT 9SM CLR 30/19 A3004 RMK AO2 SLP165 T03000194

2010/08/09 16:53
KLHX 091653Z AUTO 00000KT 10SM CLR 27/16 A3005 RMK AO2 SLP110 T02670161 $

2010/08/09 16:53
KLNS 091653Z 25006KT 8SM FEW041 31/21 A3002 RMK AO2 SLP161 T03060206

2010/08/09 16:53
KLOU 091653Z 18005KT 10SM CLR 33/21 A2999 RMK AO2 SLP150 T03280211

2010/08/09 16:53
KLOZ 091653Z AUTO VRB03KT 10SM CLR 31/22 A3006 RMK AO2 SLP166 T03060222

2010/08/09 16:53
KLPR 091653Z AUTO 22008KT 9SM CLR 31/21 A3001 RMK AO2 SLP156 T03060206

2010/08/09 16:53
KLUK 091653Z 18005KT 10SM CLR 32/21 A3001 RMK AO2 SLP156 T03170206

2010/08/09 16:53
KUAO 091653Z AUTO VRB04KT 10SM OVC024 16/11 A3001 RMK AO2 SLP162 T01560106

2010/08/09 16:53
KUNO 091653Z AUTO 28007KT 10SM CLR 36/21 A3000 RMK AO2 SLP140 T03560211

2010/08/09 16:53
KUUU 091653Z AUTO 22009G15KT 180V250 10SM CLR 27/22 A3001 RMK AO2 SLP158 T02670217

2010/08/09 16:53
KVEL 091653Z AUTO 14006KT 10SM SCT110 19/11 A3015 RMK AO2 SLP154 T01940106

2010/08/09 16:53
KVIH 091653Z AUTO 04004KT 10SM CLR 34/25 A2997 RMK AO2 SLP133 T03390250

2010/08/09 16:53
KVLD 091653Z 04010G16KT 10SM SCT040 33/22 A2998 RMK AO2 SLP156 T03280222

2010/08/09 16:53
KVRB 091653Z 10009KT 10SM BKN070 29/23 A2994 RMK AO2 SLP138 T02890233

2010/08/09 16:53
KWRL 091653Z AUTO 04004KT 10SM CLR 26/07 A2997 RMK AO2 SLP100 T02610067

2010/08/09 16:53
KWST 091653Z AUTO 26008KT 9SM CLR 28/22 A3001 RMK AO2 SLP161 T02780217

2010/08/09 16:53
KWVI 091653Z AUTO 21003KT 10SM OVC006 13/12 A2996 RMK AO2 SLP144 T01330117

2010/08/09 16:53
KYIP 091653Z AUTO 24010KT 10SM CLR 28/20 A2997 RMK AO2 SLP142 T02830200 TSNO

2010/08/09 16:53
KZZV 091653Z AUTO VRB04KT 10SM CLR 29/18 A3004 RMK AO2 SLP163 T02940183

2010/08/09 16:54
KAAO 091654Z AUTO 17009KT 10SM CLR 36/21 A2992 RMK AO2 SLP111 T03610206

2010/08/09 16:55
KAIZ 091655Z AUTO 22006KT 10SM CLR 34/24 A2997 RMK AO1

2010/08/09 16:54
KAKH 091654Z AUTO VRB03KT 10SM FEW080 33/21 A3006 RMK AO2 SLP169 T03280206

2010/08/09 16:54
KALO 091654Z AUTO 12007KT 10SM CLR 28/23 A2991 RMK AO2 SLP122 T02780228

2010/08/09 16:54
KAPC 091654Z 24004KT 10SM OVC008 14/12 A2993 RMK AO2 SLP127 T01390117

2010/08/09 16:55
KARG 091655Z AUTO 27003KT 10SM CLR 33/25 A2995 RMK AO1

2010/08/09 16:55
KAUO 091655Z AUTO 05008KT 10SM CLR 34/22 A3002 RMK AO1

2010/08/09 16:54
KAUW 091654Z AUTO 30006KT 8SM FEW022 29/22 A2990 RMK AO2 SLP120 T02890222

2010/08/09 16:54
KAVL 091654Z VRB05KT 10SM CLR 31/20 A3013 RMK AO2 SLP171 T03110200

2010/08/09 16:55
KAWO 091655Z AUTO 00000KT 10SM 16/13 A2998 RMK AO1

2010/08/09 16:50
KBCT 091650Z AUTO 17008KT 10SM FEW024 31/25 A2995

2010/08/09 16:54
KBFL 091654Z 24005KT 10SM CLR 24/13 A2988 RMK AO2 SLP113 T02440128

2010/08/09 16:55
KBHB 091655Z AUTO 19009KT 9SM OVC006 22/20 A2993 RMK AO1

2010/08/09 16:55
KBID 091655Z AUTO 23014KT 10SM FEW008 27/23 A3000 RMK AO1

2010/08/09 16:55
KBKX 091655Z AUTO 09006KT 10SM CLR 30/19 A2995 RMK AO1

2010/08/09 16:55
KBLM 091655Z AUTO 29008KT 10SM CLR 33/17 A3003 RMK AO1

2010/08/09 16:54
KBOS 091654Z 23011KT 10SM FEW050 SCT060 SCT100 32/17 A2994 RMK AO2 SLP139 T03170172

2010/08/09 16:55
KBTP 091655Z AUTO 00000KT 7SM CLR 28/17 A3005 RMK AO1

2010/08/09 16:54
KBUY 091654Z AUTO 00000KT 9SM SCT041 BKN050 31/21 A3004 RMK AO2 SLP166 T03110211

2010/08/09 16:55
KBVX 091655Z AUTO 35003KT 10SM FEW065 33/25 A2997 RMK AO1

2010/08/09 16:54
KBWI 091654Z VRB06KT 9SM SCT048 SCT180 BKN250 32/19 A3000 RMK AO2 SLP157 T03220189

2010/08/09 16:54
KCEU 091654Z AUTO 00000KT 9SM CLR 33/22 A3007 RMK AO2 SLP170 T03280222

2010/08/09 16:55
KCGZ 091655Z AUTO 00000KT 10SM CLR 33/07 A2992 RMK AO1

2010/08/09 16:55
KCIU 091655Z AUTO 19011KT 10SM FEW023 25/19 A2990 RMK AO1

2010/08/09 16:55
KCOD 091655Z 00000KT 10SM BKN110 24/09 A3002 RMK AO1

2010/08/09 16:55
KCOE 091655Z AUTO 15007KT 10SM CLR 21/12 A2989 RMK AO1

2010/08/09 16:55
KCVN 091655Z 22009KT 10SM CLR 28/16 A3010 RMK AO1

2010/08/09 16:55
KCVO 091655Z AUTO 30005KT 10SM OVC015 15/11 A3002 RMK AO1

2010/08/09 16:55
KCWI 091655Z 35005KT 10SM CLR 25/22 A2994 RMK AO1

2010/08/09 16:54
KDDH 091654Z AUTO 28007KT 9SM CLR 28/18 A2999 RMK AO2 SLP149 T02830183

2010/08/09 16:54
KDEC 091654Z 19006KT 10SM CLR 32/24 A2995 RMK AO2 SLP135 T03170244

2010/08/09 16:54
KDYL 091654Z AUTO 17007KT 10SM SCT048 31/19 A3001 RMK AO2 SLP155 T03110194 TSNO

2010/08/09 16:55
KDYR 091655Z AUTO 00000KT 9SM CLR 31/25 A2997 RMK AO1 P0007

2010/08/09 16:55
KEEN 091655Z AUTO 23007G14KT 200V260 10SM FEW048 BKN060 BKN070 29/18 A2996 RMK AO1

2010/08/09 16:53
KEGE 091653Z 00000KT 10SM OVC080 19/08 A3026

2010/08/09 16:55
KEHR 091655Z AUTO 00000KT 10SM FEW042 34/22 A2997 RMK AO1

2010/08/09 16:55
KENV 091655Z AUTO 09009KT 10SM CLR 24/07 A3002 RMK AO1

2010/08/09 16:55
KESC 091655Z AUTO 14007KT 8SM SCT024 SCT030 27/22 A2986 RMK AO1

2010/08/09 16:54
KEUG 091654Z 36007KT 9SM OVC009 14/12 A3001 RMK AO2 SLP161 T01440117

2010/08/09 16:50
BGSF 091650Z 22003KT 9999 SCT029 BKN045 16/11 Q1008

2010/08/09 16:50
BGGH 091650Z 20012KT 9999 SCT010 BKN050 13/09 Q1008

2010/08/09 16:50
BGJN 091650Z VRB02KT 9999 SCT100 BKN120 11/02 Q1007

2010/08/09 16:50
BGKK 091650Z 22013KT 9999 FEW100 BKN120 12/M00 Q1009

2010/08/09 16:50
BGCO 091650Z 34028KT 9999 BLSA FEW210 11/M02 Q1009

2010/08/09 16:50
BGSS 091650Z 14005KT 9999 FEW011 BKN050 12/10 Q1008

2010/08/09 16:50
BGAA 091650Z 28003KT 9999 BKN110 10/06 Q1007

2010/08/09 16:50
BGUQ 091650Z 33004KT 260V020 9999 FEW200 11/04 Q1006

2010/08/09 16:50
BGMQ 091650Z VRB05KT 9999 BKN008 BKN032 11/09 Q1008

2010/08/09 16:50
BGUK 091650Z AUTO 34012KT 0400NDV FG NCD 06/06 Q1008

2010/08/09 16:50
BGQQ 091650Z AUTO 24003KT 9999NDV NCD 08/01 Q1013

2010/08/09 16:50
BGPT 091650Z AUTO 33002KT //// FEW003/// FEW027/// BKN140/// 09/09 Q1008

2010/08/09 16:55
KEUL 091655Z AUTO 30006KT 10SM FEW120 22/08 A2990 RMK AO1

2010/08/09 16:54
KEVV 091654Z 00000KT 10SM SCT049 34/21 A2997 RMK AO2 SLP142 T03440206

2010/08/09 16:55
KEWK 091655Z AUTO 18011KT 10SM CLR 36/19 A2989 RMK AO1

2010/08/09 16:54
KEWN 091654Z 15007KT 10SM FEW021 31/24 A3004 RMK AO2 SLP171 T03110244

2010/08/09 16:55
KFAM 091655Z AUTO 26003KT 10SM CLR 33/25 A2999 RMK AO1

2010/08/09 16:55
KFKL 091655Z AUTO 20009KT 170V230 10SM CLR 28/18 A3008 RMK AO1

2010/08/09 16:55
KFLP 091655Z AUTO 26005KT 10SM CLR 33/23 A2998 RMK AO1

2010/08/09 16:55
KFNL 091655Z AUTO 03003KT 10SM FEW060 BKN110 24/14 A3012 RMK AO1

2010/08/09 16:55
KFOD 091655Z AUTO 16005KT 10SM OVC022 27/24 A2991 RMK AO1

2010/08/09 16:55
KFRM 091655Z 19005KT 10SM OVC024 27/22 A2995 RMK AO1

2010/08/09 16:55
KGAD 091655Z AUTO 20004KT 10SM FEW060 33/23 A3002 RMK AO1

2010/08/09 16:55
KGAI 091655Z 18003KT 10SM FEW044 31/21 A3004 RMK AO1

2010/08/09 16:55
KGBD 091655Z AUTO 22006KT 10SM CLR 36/18 A2991 RMK AO1

2010/08/09 16:54
KGCK 091654Z VRB05KT 10SM FEW090 33/16 A2995 RMK AO2 SLP098 T03330161

2010/08/09 16:54
KGCN 091654Z 20008G14KT 10SM CLR 21/04 A3026 RMK AO2 SLP165 T02110044

2010/08/09 16:55
KGDV 091655Z AUTO 04003KT 10SM CLR 27/12 A2989 RMK AO1

2010/08/09 16:54
KGED 091654Z AUTO VRB03KT 10SM CLR 32/18 A3002 RMK AO2 SLP164 T03220178

2010/08/09 16:55
KGUC 091655Z AUTO 22006KT 190V250 10SM BKN090 OVC110 18/04 A3033 RMK AO1

2010/08/09 16:55
KGXY 091655Z AUTO 35005KT 10SM SCT100 SCT120 23/15 A3011 RMK AO1

2010/08/09 16:55
KHDN 091655Z 29006KT 10SM BKN100 BKN120 18/08 A3026 RMK AO1

2010/08/09 16:55
KHEF 091655Z AUTO 18009KT 150V210 10SM 32/22 A3001 RMK AO1

2010/08/09 16:55
KHEZ 091655Z AUTO 34003KT 10SM CLR 33/24 A2999 RMK AO1

2010/08/09 16:55
KHNB 091655Z AUTO 11003KT 10SM CLR 33/22 A2998 RMK AO1

2010/08/09 16:54
KHWD 091654Z 33004KT 10SM OVC014 16/12 A2993 RMK AO2 SLP143 T01610117

2010/08/09 16:55
KHYS 091655Z AUTO 11006KT 10SM CLR 34/19 A2991 RMK AO1

2010/08/09 16:54
KILN 091654Z AUTO 18007KT 9SM CLR 30/19 A3004 RMK AO2 SLP159 T03000194

2010/08/09 16:54
KIMT 091654Z AUTO 34006KT 10SM FEW024 28/22 A2988 RMK AO2 SLP113 T02830217

2010/08/09 16:54
KIND 091654Z 22007KT 10SM FEW120 SCT250 33/21 A2997 RMK AO2 SLP140 ACC W T03280206

2010/08/09 16:54
KINT 091654Z 28006KT 10SM CLR 31/20 A3007 RMK AO2 SLP168 T03110200

2010/08/09 16:54
KIPT 091654Z VRB05KT 10SM CLR 30/14 A3000 RMK AO2 SLP153 T03000139

2010/08/09 16:54
KISW 091654Z AUTO 00000KT 10SM OVC006 26/23 A2993 RMK AO2 CIG 006V012 SLP129 T02560233 TSNO

2010/08/09 16:55
KIWD 091655Z AUTO 28006KT 10SM SCT016 26/22 A2991 RMK AO1

2010/08/09 16:54
KIZG 091654Z AUTO 00000KT 10SM BKN060 29/17 A2993 RMK AO2 SLP133 T02940167

2010/08/09 16:55
KJHW 091655Z AUTO 21004KT 10SM OVC080 27/17 A3003 RMK AO1

2010/08/09 16:55
KKLS 091655Z AUTO 26004KT 9SM OVC025 15/11 A3000 RMK AO1

2010/08/09 16:54
KLAF 091654Z 24005KT 9SM FEW039 32/23 A2996 RMK AO2 SLP139 T03170228

2010/08/09 16:55
KLBL 091655Z 18005KT 10SM CLR 34/17 A2997 RMK AO1

2010/08/09 16:54
KLBT 091654Z AUTO 11007KT 10SM CLR 33/21 A3002 RMK AO2 SLP165 T03330211

2010/08/09 16:55
KLCI 091655Z AUTO 29011G17KT 240V300 10SM SCT060 SCT070 29/16 A2994 RMK AO1

2010/08/09 16:55
KLEW 091655Z 26003KT 10SM BKN047 BKN120 28/17 A2995 RMK AO1

2010/08/09 16:55
KLGD 091655Z AUTO 00000KT 10SM SCT110 20/07 A2989 RMK AO1

2010/08/09 16:55
KLKV 091655Z AUTO 18008KT 10SM CLR 21/05 A3003 RMK AO1

2010/08/09 16:54
KLNK 091654Z 34007KT 10SM CLR 32/24 A2985 RMK AO2 SLP094 T03220239

2010/08/09 16:55
KLPC 091655Z AUTO 00000KT 10SM OVC011 15/12 A2995 RMK AO1 PNO

2010/08/09 16:54
KLWM 091654Z 23009G17KT 190V270 10SM FEW055 SCT070 SCT090 32/17 A2995 RMK AO2 SLP140 T03220167

2010/08/09 16:54
KLWT 091654Z AUTO 05004KT 10SM CLR 24/09 A2995 RMK AO2 SLP106 T02390094

2010/08/09 16:55
KMBL 091655Z AUTO 25007KT 220V280 10SM SCT055 BKN075 27/20 A2990 RMK AO1

2010/08/09 16:45
KMER 091645Z 29006KT 10SM SKC 23/14 A2989

2010/08/09 16:54
KMFI 091654Z AUTO 33005KT 7SM OVC009 27/23 A2993 RMK AO2 CIG 008V013 SLP127 T02670233

2010/08/09 16:54
KMGJ 091654Z AUTO 24007KT 10SM CLR 32/15 A2998 RMK AO2 SLP149 T03170150

2010/08/09 16:54
KMIV 091654Z AUTO 20004KT CLR 31/17 A3001 RMK AO2 SLP160 T03110167 $

2010/08/09 16:55
KMJX 091655Z AUTO 25003KT 10SM SCT050 SCT075 33/19 RMK AO1

2010/08/09 16:54
KSBY 091654Z 20005KT 10SM FEW055 31/18 A3002 RMK AO2 SLP167 T03060178

2010/08/09 16:55
KSDY 091655Z AUTO 03008KT 10SM CLR 27/15 A2988 RMK AO1

2010/08/09 16:54
KSET 091654Z AUTO 14004KT 9SM CLR 32/26 A2993 RMK AO2 SLP127 T03170256

2010/08/09 16:55
KSFM 091655Z 27010G16KT 2SM SCT060 32/17 A2992 RMK AO1

2010/08/09 16:55
KSFZ 091655Z 26006KT 10SM FEW043 SCT120 29/20 A2997 RMK AO1

2010/08/09 16:55
KSGT 091655Z 00000KT CLR 33/26 A2997 RMK AO1

2010/08/09 16:55
KSGU 091655Z AUTO 00000KT 10SM CLR 24/13 A3005 RMK AO1

2010/08/09 16:53
KSJC 091653Z COR VRB05KT 10SM FEW007 17/11 A2992 RMK AO2 SLP130 T01720106

2010/08/09 16:54
KSJN 091654Z AUTO 00000KT 10SM BKN110 22/12 A3022 RMK AO2 SLP150 T02170117

2010/08/09 16:55
KSKX 091655Z AUTO 15005KT 10SM BKN120 23/11 A3026 RMK AO1

2010/08/09 16:55
KSLG 091655Z AUTO 20006KT 10SM CLR 34/22 A3000 RMK AO1

2010/08/09 16:55
KSMN 091655Z AUTO 35004KT 10SM SCT120 22/11 A2998 RMK AO1

2010/08/09 16:55
KSQI 091655Z AUTO 03006KT 10SM CLR 26/22 A2995 RMK AO1

2010/08/09 16:55
KSUE 091655Z AUTO 00000KT 10SM CLR 28/23 A2990 RMK AO1

2010/08/09 16:54
PHMK 091654Z 06004KT 10SM CLR 24/14 A3009 RMK AO2 SLP190 T02440144

2010/08/09 16:53
PAAQ 091653Z 35006KT 10SM OVC090 13/09 A2964 RMK AO2 SLP034 T01330094

2010/08/09 16:53
PABR 091653Z AUTO 07022G27KT 10SM OVC005 01/01 A2989 RMK AO2 PK WND 07027/1653 CIG 003V007 SLP124 T00110011 TSNO

2010/08/09 16:53
PACV 091653Z 00000KT 10SM FEW016 SCT027 OVC039 13/11 A2983 RMK AO2 SLP100 T01280106

2010/08/09 16:53
PADE 091653Z AUTO 08009KT 10SM -RA BKN055 OVC085 12/11 A2938 RMK AO2 RAB37 SLP948 P0000 T01220111 TSNO

2010/08/09 16:53
PAEG 091653Z AUTO 13007KT 080V150 10SM OVC070 16/09 A2961 RMK AO2 RAB43E52 SLP026 P0000 T01560094 TSNO

2010/08/09 16:53
PAEN 091653Z 04005KT 10SM BKN055 OVC070 14/11 A2961 RMK AO2 SLP027 T01440111

2010/08/09 16:53
PAGK 091653Z 17014G23KT 10SM FEW060 SCT080 SCT110 SCT140 SCT180 11/07 A2970 RMK AO2 SLP060 T01110072

2010/08/09 16:53
PAGY 091653Z AUTO 21012KT 10SM BKN050 OVC060 13/11 A2993 RMK AO2 SLP136 T01330106 TSNO

2010/08/09 16:53
PAIL 091653Z 13007KT 10SM SCT026 BKN065 12/09 A2956 RMK AO2 SLP012 T01220089

2010/08/09 16:53
PAKT 091653Z 15005KT 10SM SCT006 BKN017 OVC055 14/12 A3002 RMK AO2 SLP165 COND LWR E HARBOR WIND 11007KT T01390117

2010/08/09 16:53
PAKV 091653Z AUTO 00000KT 3SM -RA BR OVC008 12/12 A2946 RMK AO2 RAB03 SLP977 P0002 T01220117 TSNO

2010/08/09 16:53
PAKW 091653Z AUTO 02003KT 10SM BKN013 14/12 A2998 RMK AO2 SLP151 T01440117 TSNO

2010/08/09 16:53
PALH 091653Z 36003KT 10SM OVC070 14/12 A2963 RMK AO2 SLP033 T01440117

2010/08/09 16:53
PAMR 091653Z 28005KT 10SM FEW040 BKN075 14/11 A2961 RMK AO2 SLP028 T01390106

2010/08/09 16:53
PAPB 091653Z AUTO 22011KT 1/4SM FG VV001 08/08 A2926 RMK AO2 SLP896 T00780078 TSNO

2010/08/09 16:53
PASC 091653Z 06019G25KT 1 1/2SM BR OVC003 03/03 A2976 RMK AO2 PK WND 06028/1633 SLP077 T00330028

2010/08/09 16:53
PASI 091653Z 00000KT 10SM SCT006 OVC032 13/12 A2997 RMK AO2 SLP147 MTNS OBSCD SW-NW-NE MTNS PRTLY OBSCD E-SE T01330117

2010/08/09 16:53
PASO 091653Z AUTO 03006KT 10SM SCT032 SCT040 13/11 A2961 RMK AO2 SLP028 T01280111 TSNO

2010/08/09 16:53
PATO 091653Z AUTO 12015G27KT 2 1/2SM -RA BR BKN023 OVC029 12/11 A2973 RMK AO2 PK WND 10033/1620 SLP068 P0003 T01170106 TSNO

2010/08/09 16:53
PAVL 091653Z AUTO 06013KT 9SM -RA OVC080 13/09 A2946 RMK AO2 SLP976 P0000 T01330094 TSNO

2010/08/09 16:53
PAWD 091653Z AUTO A2970 RMK AO2 SLP059 PWINO FZRANO TSNO $

2010/08/09 16:52
PAWR 091652Z 08013G21KT 2SM -RA BR OVC020 12/12 A2980 RMK SLP091 NOSPECI

2010/08/09 16:50
PFYU 091650Z 01010KT 10SM BKN050 BKN070 13/ A2958

2010/08/09 16:53
KBAF 091653Z 21008KT 10SM SCT060 33/16 A2996 RMK AO2 SLP142 T03280161

2010/08/09 16:53
KBUR 091653Z 00000KT 10SM CLR 19/12 A2992 RMK AO2 SLP122 T01940122

2010/08/09 16:53
KTOI 091653Z 09007KT 10SM CLR 33/23 A3001 RMK AO2 SLP157 T03330228

2010/08/09 16:53
PHJR 091653Z 09004KT 10SM CLR 25/16 A3009 RMK AO2 SLP196 T02500156

2010/08/09 16:53
TISX 091653Z 04004KT 9SM -RA SCT018 BKN060 26/24 A2998 RMK AO2 SLP151 T02610239 $

2010/08/09 16:52
KP69 091652Z AUTO 00000KT 22/13 A2985 RMK AO2 SLP089 T02170128 PWINO TSNO

2010/08/09 16:52
KP69 091652Z AUTO 00000KT 22/13 A2985 RMK AO2 SLP089 T02170128 PWINO TSNO

2010/08/09 16:52
KN60 091652Z AUTO 16006KT 24/19 A2986 RMK AO1 SLP101 T02440194

2010/08/09 16:52
K9V9 091652Z AUTO 00000KT 27/22 A2992 RMK AO2 SLP118 T02670217 PWINO TSNO

2010/08/09 16:52
KABI 091652Z 23008KT 9SM CLR 32/22 A3000 RMK AO2 SLP127 T03220222

2010/08/09 16:52
KCZZ 091652Z AUTO 24006KT 25/M05 A2992 RMK AO2 SLP105 T02501050 PWINO TSNO

2010/08/09 16:53
KCLL 091653Z 18007KT 10SM FEW035 SCT047 33/22 A2998 RMK AO2 SLP148 T03280222

2010/08/09 16:53
KCRQ 091653Z 16003KT 10SM CLR 19/13 A2993 RMK AO2 SLP131 T01940128

2010/08/09 16:53
KDBQ 091653Z 28009KT 10SM FEW010 25/22 A2995 RMK AO2 SLP135 T02500222

2010/08/09 16:53
KDMN 091653Z AUTO 00000KT 10SM CLR 27/12 A3010 RMK AO2 SLP112 T02720122

2010/08/09 16:53
KDRT 091653Z AUTO 14011KT 10SM BKN024 30/22 A2995 RMK AO2 SLP124 T03000222

2010/08/09 16:53
KFAT 091653Z 18004KT 10SM CLR 23/13 A2989 RMK AO2 SLP117 T02330128

2010/08/09 16:53
KFMN 091653Z 26008KT 10SM CLR 26/11 A3018 RMK AO2 SLP155 T02560106

2010/08/09 16:53
KGEG 091653Z 18007KT 10SM FEW050 SCT080 SCT200 22/10 A2988 RMK AO2 SLP102 T02170100

2010/08/09 16:53
KGRR 091653Z 19007KT 10SM FEW060 25/22 A2994 RMK AO2 RAB1556E50 SLP134 P0000 T02500222

2010/08/09 16:53
KHSI 091653Z AUTO 07005KT 10SM CLR 28/22 A2992 RMK AO2 SLP110 T02830222

2010/08/09 16:53
KHSV 091653Z 00000KT 10SM BKN043TCU BKN110 34/22 A3001 RMK AO2 SLP152 TCU OHD T03390222

2010/08/09 16:53
KJBR 091653Z AUTO 00000KT 10SM CLR 34/24 A2995 RMK AO2 SLP139 T03390239

2010/08/09 16:53
KLIT 091653Z 35004KT 10SM FEW050 BKN250 36/23 A2995 RMK AO2 SLP141 T03610233

2010/08/09 16:53
KODX 091653Z AUTO 00000KT 10SM CLR 27/21 A2994 RMK AO2 PRESRR SLP126 T02670211

2010/08/09 16:53
KPDX 091653Z 33005KT 10SM BKN024 OVC029 15/10 A3001 RMK AO2 SLP160 T01500100

2010/08/09 16:53
KMGM 091653Z 08010G14KT 10SM CLR 34/22 A2999 RMK AO2 SLP150 T03390217

2010/08/09 16:53
KBTR 091653Z VRB05KT 10SM SCT030 SCT050 SCT070 33/25 A2998 RMK AO2 SLP149 T03330250

2010/08/09 16:53
KDAB 091653Z 10008G16KT 10SM SCT022 SCT110 31/24 A2995 RMK AO2 SLP140 T03110244

2010/08/09 16:53
KTRI 091653Z 28005KT 10SM FEW050 SCT150 32/19 A3009 RMK AO2 SLP172 T03170194

2010/08/09 16:53
KPGA 091653Z AUTO 02004KT 10SM CLR 24/12 A3010 RMK AO2 SLP133 T02440117

2010/08/09 16:53
KRMG 091653Z AUTO 12003KT 10SM FEW039 34/22 A3002 RMK AO2 SLP153 T03440217

2010/08/09 16:53
KSAT 091653Z 18007KT 10SM FEW035 31/21 A2999 RMK AO2 SLP137 T03110211

2010/08/09 16:53
KSEA 091653Z 21008KT 10SM BKN007 OVC012 14/12 A2998 RMK AO2 SLP159 T01440117

2010/08/09 16:53
KSTC 091653Z 00000KT 10SM CLR 29/23 A2993 RMK AO2 SLP135 T02890228 $

2010/08/09 16:53
KTUS 091653Z 15003KT 10SM CLR 31/17 A3000 RMK AO2 SLP108 T03060167

2010/08/09 16:53
KYKM 091653Z VRB05KT 10SM CLR 23/09 A2984 RMK AO2 SLP099 T02280089

2010/08/09 16:53
PHTO 091653Z 24006KT 10SM SCT027 BKN043 BKN055 BKN140 21/19 A3010 RMK AO2 RAE13 SLP192 P0002 T02060189 $

2010/08/09 16:53
PHKO 091653Z 07003KT 10SM FEW050 23/19 A3002 RMK AO2 SLP167 T02280189 PNO $

2010/08/09 16:53
PHLI 091653Z 08012KT 10SM SCT022 BKN036 OVC043 24/21 A3012 RMK AO2 SLP196 T02440206

2010/08/09 16:53
KFAR 091653Z 20008KT 10SM CLR 29/20 A2989 RMK AO2 SLP117 T02890200

2010/08/09 16:53
KGNT 091653Z AUTO VRB04KT 22/13 A3026 RMK AO2 SLP160 T02220128 PWINO TSNO

2010/08/09 16:53
KOQT 091653Z AUTO 26004KT 10SM CLR 32/23 A3007 RMK AO2 SLP162 T03170228 TSNO

2010/08/09 16:53
KMCN 091653Z 10009KT 9SM CLR 33/21 A3002 RMK AO2 SLP160 T03330206

2010/08/09 16:53
KTUP 091653Z 01006KT 10SM FEW027 34/25 A2999 RMK AO2 SLP151 T03390250

2010/08/09 16:53
KTYS 091653Z 25005KT 9SM FEW036 SCT070 32/23 A3005 RMK AO2 SLP163 T03170228

2010/08/09 16:53
KRNM 091653Z 30006KT 10SM CLR 21/09 A2993 RMK AO2 SLP125 T02060094

2010/08/09 16:53
KSAV 091653Z 06010G18KT 10SM FEW030 SCT250 34/21 A3000 RMK AO2 SLP158 T03390206

2010/08/09 16:53
KP68 091653Z AUTO 19009KT 24/M03 A3008 RMK AO2 SLP099 T02441028 PWINO TSNO

2010/08/09 16:53
KHTL 091653Z AUTO 26004KT 10SM FEW021 26/21 A2991 RMK AO2 SLP124 T02560211

2010/08/09 16:53
KNUI 091653Z AUTO 13008KT 10SM CLR 31/21 A3001 RMK AO2 SLP162 T03060211

2010/08/09 16:50
EDDF 091650Z VRB02KT 9999 FEW046 SCT070 23/12 Q1016 NOSIG

2010/08/09 16:50
EDDH 091650Z 24002KT 9999 FEW021 SCT040 BKN130 17/14 Q1015 NOSIG

2010/08/09 16:50
EDDK 091650Z 03004KT 350V050 9999 FEW040 SCT070 BKN280 22/13 Q1016 NOSIG

2010/08/09 16:50
EDDL 091650Z 24002KT 9999 FEW040 SCT280 22/12 Q1016 NOSIG

2010/08/09 16:50
EDDM 091650Z 04005KT CAVOK 22/12 Q1017 NOSIG

2010/08/09 16:50
EDDN 091650Z 01002KT 9999 FEW035 SCT080 21/17 Q1017 NOSIG

2010/08/09 16:50
EDDS 091650Z 35004KT CAVOK 22/11 Q1016 NOSIG

2010/08/09 16:50
EDDW 091650Z 23004KT 9999 FEW030 BKN075 20/12 Q1016 NOSIG

2010/08/09 16:50
EDFE 091650Z 28004KT 240V320 9999 FEW040 SCT070 24/11 Q1016

2010/08/09 16:50
EDFM 091650Z 08005KT 040V130 CAVOK 24/12 Q1016

2010/08/09 16:50
EDHI 091650Z 26007KT CAVOK 18/15 Q1016

2010/08/09 16:50
EDHL 091650Z 28006KT 9999 FEW028 BKN050 18/18 Q1016

2010/08/09 16:50
EDJA 091650Z VRB03KT 9999 FEW051 22/11 Q1017

2010/08/09 16:50
EDLN 091650Z VRB03KT CAVOK 22/11 Q1016

2010/08/09 16:50
EDLP 091650Z VRB02KT 9999 FEW036 21/12 Q1016

2010/08/09 16:50
EDLW 091650Z 25006KT CAVOK 21/12 Q1016

2010/08/09 16:50
EDMA 091650Z 06004KT 030V110 9999 FEW045 23/13 Q1017

2010/08/09 16:50
EDMO 091650Z VRB03KT CAVOK 22/10 Q1017

2010/08/09 16:50
EDQM 091650Z 29005KT 9999 FEW035 SCT086 18/11 Q1018

2010/08/09 16:50
EDTD 091650Z 33007KT CAVOK 22/12 Q1018

2010/08/09 16:50
EDVE 091650Z 29007KT 9999 FEW040 BKN080 20/12 Q1016

2010/08/09 16:50
EDNY 091650Z 19005KT CAVOK 24/12 Q1016

2010/08/09 16:50
EDVK 091650Z 30004KT 250V340 9999 BKN045 BKN070 20/10 Q1017

2010/08/09 16:50
EDXW 091650Z 26006KT 240V300 CAVOK 18/10 Q1015

2010/08/09 16:50
EKAH 091650Z AUTO 27010KT 230V290 9999NDV BKN038/// 17/09 Q1014

2010/08/09 16:50
EKBI 091650Z 27008KT 9999 FEW025 BKN045 17/11 Q1015

2010/08/09 16:50
EKCH 091650Z 29009KT 260V320 9999 FEW040 BKN210 19/11 Q1014 NOSIG

2010/08/09 16:50
EKEB 091650Z AUTO 26010KT 230V290 9999NDV FEW029/// BKN041/// 18/11 Q1015

2010/08/09 16:50
EKKA 091650Z 28009KT 260V320 9999 FEW030 BKN038 17/11 Q1014

2010/08/09 16:50
EKOD 091650Z 25009KT 9999 SCT048 18/09 Q1014

2010/08/09 16:50
EKRK 091650Z AUTO 30009KT 9999NDV FEW043/// 18/10 Q1014

2010/08/09 16:50
EKRN 091650Z AUTO 28007KT 9999NDV NCD 19/14 Q1015

2010/08/09 16:50
EKSB 091650Z 27006KT 240V310 9999 FEW044 19/08 Q1014

2010/08/09 16:50
EKSP 091650Z 27012KT 9999 FEW032 SCT220 18/11 Q1015

2010/08/09 16:50
EKVD 091650Z 30009KT 9999 BKN036 18/09 Q1015 RMK LAST OBS

2010/08/09 16:50
EKVG 091650Z 12014KT 9999 FEW012 BKN020 13/10 Q1009 RMK/RWY 13-31 CLOSED DUE WIP NOTAM E0050/10 WIND 850FT 13019KT

2010/08/09 16:50
EKYT 091650Z 26013KT 9999 BKN035 17/10 Q1012

2010/08/09 16:50
EETN 091650Z 19009KT 9999 FEW029CB SCT048 BKN074 21/16 Q1012 NOSIG

2010/08/09 16:50
EFHK 091650Z 19011KT 9999 VCSH FEW030CB BKN050 21/15 Q1012 NOSIG

2010/08/09 16:50
EFJY 091650Z 19004KT 160V230 9999 FEW050CB BKN075 20/16 Q1010

2010/08/09 16:50
EFKU 091650Z AUTO 17010KT 9999NDV VCSH BKN083CB 21/18 Q1009

2010/08/09 16:50
EFOU 091650Z 28009KT 9999 SCT005 BKN019 19/18 Q1007

2010/08/09 16:50
EFRO 091650Z AUTO 36011KT 9999NDV SCT009 BKN011 BKN016 14/13 Q1008

2010/08/09 16:50
EFTP 091650Z 18005KT 140V230 9999 -SHRA FEW030CB BKN040 BKN070 20/16 Q1010

2010/08/09 16:50
EFTU 091650Z AUTO 18007KT 140V230 4200 -RA BKN008 BKN012 OVC015 19/18 Q1008

2010/08/09 16:50
EFVA 091650Z 23003KT 9999 FEW010 SCT023 BKN030 20/18 Q1008

2010/08/09 16:50
ENBR 091650Z VRB02KT 9999 VCSH FEW010 BKN020 15/10 Q1011 NOSIG

2010/08/09 16:50
ENCN 091650Z 24011KT 210V280 CAVOK 20/13 Q1009

2010/08/09 16:50
ENHD 091650Z 24006KT 9999 SCT018 BKN044 15/11 Q1012

2010/08/09 16:50
ENKR 091650Z 06009KT 9999 -RA SCT006 OVC010 10/09 Q1015

2010/08/09 16:50
ENSB 091650Z 23011KT 9999 FEW012 BKN030 09/03 Q1002

2010/08/09 16:50
ENTC 091650Z 02014KT 9999 FEW023 SCT030 12/08 Q1014 NOSIG

2010/08/09 16:50
ENVA 091650Z 26008KT 9999 FEW030TCU 19/15 Q1009 NOSIG

2010/08/09 16:50
ENZV 091650Z 25004KT 9999 FEW020 BKN047 16/09 Q1012 NOSIG

2010/08/09 16:50
EVRA 091650Z 18006KT CAVOK 22/15 Q1014 NOSIG

2010/08/09 16:50
EYVI 091650Z 16004KT 9999 FEW040 BKN110 19/17 Q1017 NOSIG

2010/08/09 17:00
LEMO 091700Z 35007KT 320V030 CAVOK 41/15 Q1012 NOSIG

2010/08/09 16:50
LIEA 091650Z VRB02KT CAVOK 25/15 Q1016

2010/08/09 16:45
LIEE 091645Z 09007KT CAVOK 27/17 Q1015 NOSIG

2010/08/09 16:50
LIEO 091650Z 08006KT 050V130 9999 FEW050 27/20 Q1015

2010/08/09 16:50
LIMC 091650Z 27005KT 240V330 9999 FEW040 28/17 Q1014 NOSIG

2010/08/09 16:50
LIME 091650Z 17005KT 130V220 9999 FEW040 27/16 Q1015

2010/08/09 16:50
LIMF 091650Z 03006KT 9999 FEW030 SCT060 27/17 1015

2010/08/09 16:50
LIMJ 091650Z VRB02KT 9999 FEW020 26/21 Q1015

2010/08/09 16:50
LIML 091650Z 16004KT 9999 FEW030 29/16 Q1014 NOSIG

2010/08/09 16:45
LIRA 091645Z 26007KT 190V350 9999 FEW020 SCT200 29/13 Q1015

2010/08/09 16:50
LIRF 091650Z 28010KT 250V310 CAVOK 25/21 Q1015 NOSIG

2010/08/09 16:50
LIRN 091650Z 30006KT CAVOK 27/20 Q1014

2010/08/09 16:45
LIRP 091645Z 25007KT 210V290 9999 FEW020 SCT030 25/21 Q1015 NOSIG

2010/08/09 16:50
LIRQ 091650Z 26010KT 220V300 9999 FEW030 27/16 Q1015

2010/08/09 17:00
SBFI 091700Z 18002KT CAVOK 21/10 Q1019

2010/08/09 16:56
YBRM 091656Z AUTO 12017G27KT 9999NDV // NCD 19/03 Q1017

2010/08/09 16:46
MMGL 091646Z 00000KT 6SM BKN020TCU 22/17 A3015 RMK 8/200 SC-CI

2010/08/09 16:46
MMPR 091646Z 36006KT 15SM OVC230 31/22 A2985 RMK 8/007

2010/08/09 16:54
KBKB 091654Z AUTO 22004KT 10SM CLR 33/23 A2995 RMK AO2 SLP167 T03330228 

2010/08/09 16:54
KCOU 091654Z 00000KT 10SM CLR 31/25 A2996 RMK AO2 SLP134 T03110250 

2010/08/09 16:45
MMAS 091645Z 00000KT 10SM BKN020TCU BKN200 22/15 A3018 RMK 8/202

2010/08/09 16:46
MMGL 091646Z 00000KT 6SM BKN020TCU 22/17 A3015 RMK 8/200 SC-CI

2010/08/09 16:46
MMMM 091646Z 00000KT 5SM BKN025 23/16 A3022 RMK 8/400 HZY

2010/08/09 16:54
KNFG 091654Z VRB03KT 7SM FEW017 19/13 A2993 RMK AO2 SLP134 T01940128 $ 

2010/08/09 16:54
K12N 091654Z AUTO 21008KT 30/19 A3001 RMK AO2 SLP154 T03000189 PWINO TSNO 

2010/08/09 16:56
YBRM 091656Z AUTO 12017G27KT 9999NDV // NCD 19/03 Q1017

2010/08/09 16:55
EHEH 091655Z AUTO 27002KT 9999NDV SCT280 22/12 Q1015 BLU BLU NOSIG

2010/08/09 16:50
ENAL 091650Z 05005KT 9999 FEW015 BKN025 15/13 Q1010

2010/08/09 16:50
ENAN 091650Z 03018KT 9999 FEW012 BKN025 11/08 Q1014 NOSIG

2010/08/09 16:50
ENBL 091650Z 33004KT 9999 2500E FEW003 SCT007 BKN015 14/12 Q1010

2010/08/09 16:50
ENBN 091650Z 34004KT 9999 BKN011 14/11 Q1011

2010/08/09 16:50
ENDU 091650Z 36006KT 320V040 9999 FEW025 16/10 Q1012

2010/08/09 16:50
ENEK 091650Z 20020KT 9999 SCT015 16/14 Q1010 W16/S3

2010/08/09 16:50
ENEV 091650Z 34010KT 9999 FEW030 14/09 Q1012

2010/08/09 16:50
ENFG 091650Z 06004KT 360V120 9999 FEW025TCU SCT030 SCT046 19/08 Q1010

2010/08/09 16:50
ENFL 091650Z 24005KT 9999 VCSH FEW006 SCT010 BKN025 15/13 Q1010

2010/08/09 16:50
ENGC 091650Z 22007KT 9999 FEW010 BKN038 13/11 Q1010

2010/08/09 16:50
ENHF 091650Z 03010KT 9999 BKN023 10/06 Q1015

2010/08/09 16:50
ENHV 091650Z 07005KT 9999 FEW013 BKN016 10/06 Q1016

2010/08/09 16:50
ENKB 091650Z 36009KT 9999 FEW015 16/13 Q1009

2010/08/09 16:50
ENLK 091650Z 03014KT 9999 FEW015 13/09 Q1012

2010/08/09 16:50
ENML 091650Z 25008KT 9999 FEW015 21/14 Q1009

2010/08/09 16:50
ENMS 091650Z 34009KT 9999 FEW040TCU 18/13 Q1009

2010/08/09 16:50
ENNA 091650Z 35011KT 9999 VCSH SCT012 BKN020 11/08 Q1016

2010/08/09 16:50
ENNK 091650Z 26008KT 9999 FEW080 18/13 Q1012

2010/08/09 16:50
ENNM 091650Z 33007KT CAVOK 16/11 Q1010

2010/08/09 16:50
ENNO 091650Z 14004KT 120V190 9999 SCT045TCU 23/16 Q1007

2010/08/09 16:50
ENOL 091650Z 36008KT 9999 FEW014 16/13 Q1009 NOSIG

2010/08/09 16:50
ENOV 091650Z VRB03KT 9999 FEW015 BKN019 17/13 Q1010

2010/08/09 16:50
ENRA 091650Z 35005KT 9999 FEW040 21/13 Q1009

2010/08/09 16:50
ENRM 091650Z 02006KT 330V070 9999 BKN009 12/10 Q1011

2010/08/09 16:50
ENRO 091650Z VRB01KT 9999 -SHRA FEW035 BKN053 14/13 Q1010

2010/08/09 16:50
ENRS 091650Z 01019KT CAVOK 11/08 Q1012

2010/08/09 16:50
ENRY 091650Z 21008KT 9999 FEW030TCU BKN100 21/15 Q1008

2010/08/09 16:50
ENSH 091650Z 02013KT 9999 FEW020 14/09 Q1011

2010/08/09 16:50
ENSK 091650Z 05009KT 9999 FEW012 SCT020 BKN025 14/09 Q1013

2010/08/09 16:50
ENSN 091650Z 17007KT 9999 VCSH SCT035TCU 22/13 Q1008

2010/08/09 16:50
ENSO 091650Z VRB01KT 9999 SCT017 BKN025 15/12 Q1011

2010/08/09 16:50
ENSR 091650Z 01007KT 9999 FEW010 SCT015 BKN025 12/09 Q1015

2010/08/09 16:50
ENST 091650Z 36006KT CAVOK 16/12 Q1011

2010/08/09 16:50
ENTO 091650Z 21009KT CAVOK 21/14 Q1008

2010/08/09 16:50
ENVD 091650Z 05012KT 9999 -DZ BKN005 OVC008 10/08 Q1015

2010/08/09 16:50
ESDF 091650Z 23007KT 200V270 9999 FEW023 BKN031 18/13 Q1013

2010/08/09 16:50
ESGG 091650Z 25008KT 9999 BKN025 16/13 Q1011

2010/08/09 16:50
ESGJ 091650Z 24011KT 9999 BKN013 17/14 Q1010

2010/08/09 16:50
ESGP 091650Z 26011KT 9999 OVC022 17/14 Q1011

2010/08/09 16:50
ESKN 091650Z 24010KT 9999 FEW035 SCT110 20/17 Q1008

2010/08/09 16:50
ESMK 091650Z 27008KT 9999 FEW035 19/12 Q1013

2010/08/09 16:50
ESMS 091650Z 30008KT 9999 SCT037 19/12 Q1014

2010/08/09 16:50
ESMX 091650Z 23008KT 9999 FEW011 SCT020 OVC030 16/14 Q1012

2010/08/09 16:50
ESNN 091650Z 36003KT 310V050 9999 BKN010 17/16 Q1007

2010/08/09 16:50
ESNO 091650Z 04008KT 6000 RA SCT005 BKN015 16/15 Q1008 RESHRA

2010/08/09 16:50
ESNQ 091650Z AUTO 04009KT 9999NDV BKN033/// OVC070/// 15/10 Q1013

2010/08/09 16:50
ESNS 091650Z 02002KT 9999 BR BKN016 17/16 Q1009 REDZ

2010/08/09 16:50
ESNU 091650Z 03005KT 9999 FEW009 BKN032 17/15 Q1008

2010/08/09 16:50
ESOK 091650Z AUTO VRB02KT 9999NDV NCD 19/16 Q1008

2010/08/09 16:50
ESOW 091650Z 18002KT 9999 -DZ FEW004 BKN090 18/17 Q1007

2010/08/09 16:50
ESPA 091650Z 02008KT 9999 BKN018 17/14 Q1009

2010/08/09 16:50
ESSA 091650Z 20005KT 9999 FEW020 21/18 Q1007 NOSIG

2010/08/09 16:50
ESSB 091650Z 20006KT 170V250 9999 FEW022 SCT027 21/17 Q1007

2010/08/09 16:50
ESSD 091650Z 27004KT 9000 DZ SCT015 BKN040 18/16 Q1007 RERA

2010/08/09 16:50
ESSP 091650Z 23008KT 9999 -SHRA FEW009 BKN025CB 19/18 Q1008

2010/08/09 16:50
ESSV 091650Z 22015KT 9999 SCT020 18/16 Q1010

2010/08/09 16:50
LSGC 091650Z 29003KT 220V360 9999 FEW046 20/11 Q1019

2010/08/09 16:50
LSGG 091650Z 27006KT 230V320 9999 FEW060 28/11 Q1015 NOSIG

2010/08/09 16:50
LSGS 091650Z 26014KT 9999 FEW100 27/11 Q1014

2010/08/09 16:50
LSZA 091650Z 18005KT 9999 FEW050 27/17 Q1014 NOSIG

2010/08/09 16:50
LSZB 091650Z 30007KT 9999 FEW055 26/13 Q1015 NOSIG

2010/08/09 16:50
LSZG 091650Z 04006KT 9999 FEW050 24/15 Q1016 NOSIG

2010/08/09 16:50
LSZH 091650Z 34004KT 300V030 9999 FEW048 25/14 Q1016 NOSIG

2010/08/09 16:50
LSZR 091650Z VRB02KT CAVOK 23/12 Q1016 NOSIG RMK N

2010/08/09 16:50
EGAA 091650Z 24011KT 9999 FEW035 BKN043 15/11 Q1009

2010/08/09 16:50
EGBB 091650Z 20012KT 170V240 9999 SCT021 BKN025 21/14 Q1012

2010/08/09 16:50
EGCC 091650Z 22010KT 180V250 9999 FEW019 SCT032 20/15 Q1010

2010/08/09 16:50
EGFF 091650Z 27011KT 9999 FEW004 18/17 Q1013

2010/08/09 16:50
EGGP 091650Z 30009KT 9999 SCT040 20/14 Q1010

2010/08/09 16:50
EGGW 091650Z 23009KT 190V260 CAVOK 24/11 Q1013

2010/08/09 16:50
EGHD 091650Z 23011KT 180V270 8000 FEW000 BKN003 18/17 Q1015

2010/08/09 16:50
EGHH 091650Z 24012KT 9999 OVC014 18/14 Q1015

2010/08/09 16:50
EGHI 091650Z 22014KT 190V250 9999 SCT020 18/13 Q1014

2010/08/09 16:50
EGJB 091650Z 25012KT 9999 FEW007 SCT030 18/16 Q1017

2010/08/09 16:50
EGJJ 091650Z 26008KT 210V320 9999 FEW012 19/15 Q1017 NOSIG

2010/08/09 16:50
EGKB 091650Z 22011KT CAVOK 21/11 Q1014

2010/08/09 16:50
EGKK 091650Z 24011KT 210V280 9999 FEW032 21/13 Q1014

2010/08/09 16:50
EGLF 091650Z 21012KT 9999 FEW028 SCT036 20/14 Q1014

2010/08/09 16:50
EGLL 091650Z 21013KT 9999 SCT045 23/12 Q1013

2010/08/09 16:50
EGMC 091650Z 21010KT CAVOK 23/11 Q1013

2010/08/09 16:50
EGMD 091650Z 23021KT 9999 FEW030 18/13 Q1015

2010/08/09 16:50
EGAC 091650Z 25013KT 9999 FEW020 SCT028 BKN048 16/10 Q1008

2010/08/09 16:50
EGGP 091650Z 30009KT 9999 SCT040 20/14 Q1010

2010/08/09 16:50
EGGW 091650Z 23009KT 190V260 CAVOK 24/11 Q1013

2010/08/09 16:50
EGJA 091650Z 22008KT 170V260 9999 SCT038 18/15 Q1016

2010/08/09 16:50
EGLC 091650Z 24010KT 200V260 CAVOK 23/09 Q1013

2010/08/09 16:50
EGNT 091650Z 24007KT 200V270 9999 FEW048 22/09 Q1007

2010/08/09 16:50
EGNM 091650Z 26007KT 230V290 9999 SCT010 BKN015 17/14 Q1010

2010/08/09 16:50
EGNS 091650Z 22009KT 9999 FEW020 17/13 Q1009 NOSIG

2010/08/09 16:50
EGNT 091650Z 24007KT 200V270 9999 FEW048 22/09 Q1007

2010/08/09 16:50
EGNV 091650Z 20009KT 9999 VCSH SCT020 SCT030 18/17 Q1009

2010/08/09 16:50
EGNX 091650Z 20013KT 9999 FEW020 BKN032 21/12 Q1011

2010/08/09 16:50
EGPB 091650Z 10013KT 9999 -SHRA SCT010 BKN015 15/13 Q1008 NOSIG

2010/08/09 16:50
EGPD 091650Z 16012KT 9999 SCT020 15/12 Q1005 TEMPO SHRA

2010/08/09 16:50
EGPF 091650Z 26011KT 9999 SCT030 17/10 Q1007

2010/08/09 16:50
EGPH 091650Z 25011KT 9999 FEW015 FEW020TCU 17/10 Q1006

2010/08/09 16:50
EGPK 091650Z 24010KT 9999 SCT025 17/10 Q1008

2010/08/09 16:50
EGTE 091650Z 20010KT 160V220 9999 FEW012 BKN016 20/17 Q1013

2010/08/09 16:50
EGTG 091650Z 21008KT 2300 RADZ BR SCT009 BKN015 17/17 Q1013

2010/08/09 16:50
EGPF 091650Z 26011KT 9999 SCT030 17/10 Q1007

2010/08/09 16:50
EGSS 091650Z 23012KT CAVOK 23/10 Q1013

2010/08/09 16:48
K4O4 091648Z AUTO 25003KT 10SM CLR 33/22 A2998 RMK AO2

2010/08/09 16:47
KGYH 091647Z 26003KT 10SM SCT065 33/22 A3007

2010/08/09 16:48
MMEP 091648Z 00000KT 12SM BKN250 27/17 A3009 RMK 8/008 ISOL SC

2010/08/09 16:45
MMIA 091645Z 00000KT 8SM SCT220 26/19 A2997 RMK 8/001

2010/08/09 16:50
MSSA 091650Z 00000KT 9999 FEW037 SCT300 29/21 Q1016

2010/08/09 16:50
MSSS 091650Z 12003KT 9999 FEW027 BKN300 28/23 Q1016

2010/08/09 16:50
MSSM 091650Z 06002KT CAVOK 31/25 Q1011

2010/08/09 16:50
MSLU 091650Z 00000KT CAVOK 30/25 Q1011

2010/08/09 16:50
EBBR 091650Z VRB02KT CAVOK 22/11 Q1016 NOSIG

2010/08/09 16:50
EBCI 091650Z 24006KT 9999 FEW048 23/10 Q1016 NOSIG

2010/08/09 16:50
EBLG 091650Z 28003KT 240V320 9999 FEW045 21/09 Q1016 NOSIG

2010/08/09 16:50
EBOS 091650Z 28005KT 250V320 CAVOK 19/14 Q1016 NOSIG

2010/08/09 16:50
EDAC 091650Z 35006KT 320V030 CAVOK 21/14 Q1016

2010/08/09 16:50
EDFH 091650Z 28005KT 230V330 9999 FEW046 21/10 Q1017

2010/08/09 16:50
EDHI 091650Z 26007KT CAVOK 18/15 Q1016

2010/08/09 16:50
EDHL 091650Z 28006KT 9999 FEW028 BKN050 18/18 Q1016

2010/08/09 16:50
EDLN 091650Z VRB03KT CAVOK 22/11 Q1016

2010/08/09 16:50
EDLP 091650Z VRB02KT 9999 FEW036 21/12 Q1016

2010/08/09 16:50
EDLW 091650Z 25006KT CAVOK 21/12 Q1016

2010/08/09 16:50
EDMA 091650Z 06004KT 030V110 9999 FEW045 23/13 Q1017

2010/08/09 16:50
EDMO 091650Z VRB03KT CAVOK 22/10 Q1017

2010/08/09 16:50
EDNY 091650Z 19005KT CAVOK 24/12 Q1016

2010/08/09 16:50
EDOP 091650Z 28008KT 250V310 9999 VCSH FEW020 BKN043 20/15 Q1016

2010/08/09 16:50
EDQM 091650Z 29005KT 9999 FEW035 SCT086 18/11 Q1018

2010/08/09 16:50
EDSB 091650Z 32004KT 300V360 CAVOK 25/11 Q1016

2010/08/09 16:50
EDTL 091650Z 34005KT 320V020 CAVOK 24/14 Q1016

2010/08/09 16:50
EDVE 091650Z 29007KT 9999 FEW040 BKN080 20/12 Q1016

2010/08/09 16:50
EDVK 091650Z 30004KT 250V340 9999 BKN045 BKN070 20/10 Q1017

2010/08/09 16:50
EGJJ 091650Z 26008KT 210V320 9999 FEW012 19/15 Q1017 NOSIG

2010/08/09 16:55
EHEH 091655Z AUTO 27002KT 9999NDV SCT280 22/12 Q1015 BLU BLU NOSIG

2010/08/09 16:50
EKAH 091650Z AUTO 27010KT 230V290 9999NDV BKN038/// 17/09 Q1014

2010/08/09 16:50
EKCH 091650Z 29009KT 260V320 9999 FEW040 BKN210 19/11 Q1014 NOSIG

2010/08/09 16:50
EKOD 091650Z 25009KT 9999 SCT048 18/09 Q1014

2010/08/09 16:50
EKSB 091650Z 27006KT 240V310 9999 FEW044 19/08 Q1014

2010/08/09 16:50
EKVD 091650Z 30009KT 9999 BKN036 18/09 Q1015 RMK LAST OBS

2010/08/09 16:50
ELLX 091650Z 21005KT 180V260 CAVOK 22/09 Q1016 NOSIG

2010/08/09 16:54
YSDU 091654Z AUTO 09012KT 9999NDV // SCT028 BKN035 OVC051 10/09 Q1015

2010/08/09 16:54
KCAR 091654Z AUTO 25009KT 10SM FEW020 SCT027 OVC034 22/18 A2987 RMK AO2 PK WND 31030/1612 SLP114 T02170178 

2010/08/09 16:54
KRIC 091654Z VRB03KT 10SM SCT049 BKN250 32/19 A3002 RMK AO2 SLP169 T03220194 

2010/08/09 16:54
KNKT 091654Z 12008KT 10SM -RA FEW060 28/23 A3004 RMK AO2 RAB41 SLP171 P0000 T02830233 

2010/08/09 16:54
K1V4 091654Z AUTO 26/17 A2993 RMK AO2 SLP124 T02560172 PWINO TSNO 

2010/08/09 16:54
YSDU 091654Z AUTO 09012KT 9999NDV // SCT028 BKN035 OVC051 10/09 Q1015

2010/08/09 16:50
LIEA 091650Z VRB02KT CAVOK 25/15 Q1016

2010/08/09 16:45
LIEE 091645Z 09007KT CAVOK 27/17 Q1015 NOSIG

2010/08/09 16:50
LIEO 091650Z 08006KT 050V130 9999 FEW050 27/20 Q1015

2010/08/09 16:50
LIMC 091650Z 27005KT 240V330 9999 FEW040 28/17 Q1014 NOSIG

2010/08/09 16:50
LIME 091650Z 17005KT 130V220 9999 FEW040 27/16 Q1015

2010/08/09 16:50
LIMF 091650Z 03006KT 9999 FEW030 SCT060 27/17 1015

2010/08/09 16:50
LIMJ 091650Z VRB02KT 9999 FEW020 26/21 Q1015

2010/08/09 16:50
LIML 091650Z 16004KT 9999 FEW030 29/16 Q1014 NOSIG

2010/08/09 16:45
LIRA 091645Z 26007KT 190V350 9999 FEW020 SCT200 29/13 Q1015

2010/08/09 16:50
LIRF 091650Z 28010KT 250V310 CAVOK 25/21 Q1015 NOSIG

2010/08/09 16:50
LIRN 091650Z 30006KT CAVOK 27/20 Q1014

2010/08/09 16:45
LIRP 091645Z 25007KT 210V290 9999 FEW020 SCT030 25/21 Q1015 NOSIG

2010/08/09 16:50
LIRQ 091650Z 26010KT 220V300 9999 FEW030 27/16 Q1015

2010/08/09 16:50
HLLM 091650Z 03008KT 8000 FEW020 27/18 Q1015 

2010/08/09 16:50
LIBD 091650Z 02005KT 330V050 CAVOK 27/16 Q1013

2010/08/09 16:45
LIBR 091645Z 32018KT CAVOK 26/22 Q1014 NOSIG

2010/08/09 16:50
LICC 091650Z 06014KT CAVOK 28/21 Q1013

2010/08/09 16:50
LICJ 091650Z 03010KT CAVOK 27/20 Q1016

2010/08/09 16:50
LIPB 091650Z 15009KT CAVOK 29/16 Q1013

2010/08/09 16:50
LIPE 091650Z 36003KT 9999 SCT060 29/18 Q1013

2010/08/09 16:45
LIPH 091645Z 19005KT CAVOK 28/20 Q1014

2010/08/09 16:50
LIPK 091650Z 22006KT 9999 FEW030 29/14 Q1014

2010/08/09 16:50
LIPQ 091650Z 20005KT CAVOK 27/19 Q1014

2010/08/09 16:45
LIPR 091645Z 09007KT CAVOK 27/21 Q1014

2010/08/09 16:45
LIPX 091645Z 17002KT 9999 FEW040 30/17 Q1014

2010/08/09 16:50
LIPZ 091650Z 16004KT CAVOK 27/17 Q1014

2010/08/09 16:52
KDLF 091652Z AUTO 11007G16KT 10SM SCT022 30/23 A2996

2010/08/09 16:50
LOXZ 091650Z 05006KT 30KM FEW038CU 22/15 Q1018 NOSIG RMK FEW

2010/08/09 16:50
BGGH 091650Z 20012KT 9999 SCT010 BKN050 13/09 Q1008

2010/08/09 16:50
EGBJ 091650Z 22011KT 9999 VCSH FEW012 BKN018 19/15 Q1012

2010/08/09 16:50
EGCN 091650Z 22015KT 9999 BKN034 22/14 Q1010

2010/08/09 16:50
EGSC 091650Z 23012KT 200V260 CAVOK 23/10 Q1012

2010/08/09 16:50
EGSH 091650Z 22010KT 180V250 9999 SCT046 24/10 Q1012

2010/08/09 16:50
LOWW 091650Z 07003KT 040V120 9999 FEW050 22/16 Q1017 NOSIG

2010/08/09 16:50
LOWL 091650Z 33005KT 290V360 9999 FEW048 23/12 Q1017 NOSIG

2010/08/09 16:50
LOWS 091650Z VRB02KT 9999 FEW050 24/08 Q1017 NOSIG

2010/08/09 16:50
LOWI 091650Z 10007KT 050V140 9999 FEW080 24/12 Q1016 NOSIG

2010/08/09 16:50
LOWG 091650Z 15005KT 120V190 9999 FEW040 23/13 Q1017 NOSIG

2010/08/09 16:50
LOWK 091650Z 10006KT 020V150 9999 FEW045 24/15 Q1016 NOSIG

2010/08/09 16:50
EFHA 091650Z AUTO 19002KT CAVOK 20/17 Q1010

2010/08/09 16:50
EFHF 091650Z 20011KT 160V240 9999 FEW030CB BKN049 22/16 Q1011

2010/08/09 16:50
EFKA 091650Z AUTO 00000KT 9999 RA BKN047 21/19 Q1008

2010/08/09 16:50
EFKK 091650Z AUTO 33004KT 9999 ////// 19/18 Q1008

2010/08/09 16:50
EFMA 091650Z AUTO 18007KT 150V220 9999 FEW012 BKN050 19/17 Q1007

2010/08/09 16:50
EFPO 091650Z AUTO 16004KT 110V220 9999 FEW023 SCT045 BKN065 20/17 Q1008

2010/08/09 16:50
EFSI 091650Z AUTO 22003KT 9999 FEW033 BKN060 18/18 Q1008

2010/08/09 16:50
EGWU 091650Z 24012KT CAVOK 23/12 Q1013 NOSIG

2010/08/09 16:50
EBAW 091650Z 21005KT CAVOK 23/10 Q1015 NOSIG

2010/08/09 16:50
EBBR 091650Z VRB02KT CAVOK 22/11 Q1016 NOSIG

2010/08/09 16:50
EBCI 091650Z 24006KT 9999 FEW048 23/10 Q1016 NOSIG

2010/08/09 16:50
EBLG 091650Z 28003KT 240V320 9999 FEW045 21/09 Q1016 NOSIG

2010/08/09 16:50
EBOS 091650Z 28005KT 250V320 CAVOK 19/14 Q1016 NOSIG

2010/08/09 16:50
ELLX 091650Z 21005KT 180V260 CAVOK 22/09 Q1016 NOSIG

2010/08/09 16:50
EGHE 091650Z 23015KT 1200 -DZ BR BKN002 17/17 Q1014

2010/08/09 17:00
SVMI 091700Z 36003KT 9999 FEW016 SCT100 32/26 Q1013 NOSIG

2010/08/09 16:50
EFJO 091650Z 20009KT 160V260 CAVOK 26/15 Q1010

2010/08/09 16:50
EFLP 091650Z 19005KT 150V230 9999 FEW035CB SCT060 23/17 Q1012

2010/08/09 16:50
EFMI 091650Z AUTO 20007KT 150V250 9999 FEW042 23/15 Q1011

2010/08/09 16:50
EFSA 091650Z AUTO 19009KT 140V230 CAVOK 24/15 Q1011

2010/08/09 16:50
EFUT 091650Z AUTO 19006KT 160V230 9999 FEW043 22/15 Q1012

2010/08/09 16:50
EFVR 091650Z AUTO 18006KT 130V230 CAVOK 24/16 Q1010

2010/08/09 16:50
LIEA 091650Z VRB02KT CAVOK 25/15 Q1016

2010/08/09 16:45
LIEE 091645Z 09007KT CAVOK 27/17 Q1015 NOSIG

2010/08/09 16:50
LIEO 091650Z 08006KT 050V130 9999 FEW050 27/20 Q1015

2010/08/09 16:50
LIMC 091650Z 27005KT 240V330 9999 FEW040 28/17 Q1014 NOSIG

2010/08/09 16:50
LIME 091650Z 17005KT 130V220 9999 FEW040 27/16 Q1015

2010/08/09 16:50
LIMF 091650Z 03006KT 9999 FEW030 SCT060 27/17 1015

2010/08/09 16:50
LIMJ 091650Z VRB02KT 9999 FEW020 26/21 Q1015

2010/08/09 16:50
LIML 091650Z 16004KT 9999 FEW030 29/16 Q1014 NOSIG

2010/08/09 16:45
LIRA 091645Z 26007KT 190V350 9999 FEW020 SCT200 29/13 Q1015

2010/08/09 16:50
LIRF 091650Z 28010KT 250V310 CAVOK 25/21 Q1015 NOSIG

2010/08/09 16:50
LIRN 091650Z 30006KT CAVOK 27/20 Q1014

2010/08/09 16:45
LIRP 091645Z 25007KT 210V290 9999 FEW020 SCT030 25/21 Q1015 NOSIG

2010/08/09 16:50
LIRQ 091650Z 26010KT 220V300 9999 FEW030 27/16 Q1015

2010/08/09 16:50
EBAW 091650Z 21005KT CAVOK 23/10 Q1015 NOSIG

2010/08/09 16:50
EBBR 091650Z VRB02KT CAVOK 22/11 Q1016 NOSIG

2010/08/09 16:50
EBCI 091650Z 24006KT 9999 FEW048 23/10 Q1016 NOSIG

2010/08/09 16:50
EBLG 091650Z 28003KT 240V320 9999 FEW045 21/09 Q1016 NOSIG

2010/08/09 16:50
EBOS 091650Z 28005KT 250V320 CAVOK 19/14 Q1016 NOSIG

2010/08/09 16:50
EDFH 091650Z 28005KT 230V330 9999 FEW046 21/10 Q1017

2010/08/09 16:50
EDTL 091650Z 34005KT 320V020 CAVOK 24/14 Q1016

2010/08/09 16:50
EDVK 091650Z 30004KT 250V340 9999 BKN045 BKN070 20/10 Q1017

2010/08/09 16:50
EGBJ 091650Z 22011KT 9999 VCSH FEW012 BKN018 19/15 Q1012

2010/08/09 16:50
EGSC 091650Z 23012KT 200V260 CAVOK 23/10 Q1012

2010/08/09 16:50
EGSH 091650Z 22010KT 180V250 9999 SCT046 24/10 Q1012

2010/08/09 16:55
EGUL 091655Z AUTO 24010G19KT 9999 CLR 24/09 A2986 RMK AO2 SLP114 T02440089

2010/08/09 16:50
ELLX 091650Z 21005KT 180V260 CAVOK 22/09 Q1016 NOSIG

2010/08/09 16:50
ENEK 091650Z 20020KT 9999 SCT015 16/14 Q1010 W16/S3

2010/08/09 16:50
ENNO 091650Z 14004KT 120V190 9999 SCT045TCU 23/16 Q1007

2010/08/09 16:50
ENOV 091650Z VRB03KT 9999 FEW015 BKN019 17/13 Q1010

2010/08/09 16:50
ENSN 091650Z 17007KT 9999 VCSH SCT035TCU 22/13 Q1008

2010/08/09 16:50
ENSR 091650Z 01007KT 9999 FEW010 SCT015 BKN025 12/09 Q1015

2010/08/09 17:00
GVAC 091700Z 06009KT 9999 SCT014 28/19 Q1012 NOSIG

2010/08/09 16:50
LOWG 091650Z 15005KT 120V190 9999 FEW040 23/13 Q1017 NOSIG

2010/08/09 16:50
LOWI 091650Z 10007KT 050V140 9999 FEW080 24/12 Q1016 NOSIG

2010/08/09 16:50
LOWK 091650Z 10006KT 020V150 9999 FEW045 24/15 Q1016 NOSIG

2010/08/09 16:50
LOWL 091650Z 33005KT 290V360 9999 FEW048 23/12 Q1017 NOSIG

2010/08/09 16:50
LOWS 091650Z VRB02KT 9999 FEW050 24/08 Q1017 NOSIG

2010/08/09 16:50
LOWW 091650Z 07003KT 040V120 9999 FEW050 22/16 Q1017 NOSIG

2010/08/09 17:00
LQMO 091700Z 19007KT 150V220 9999 FEW050 32/11 Q1010

2010/08/09 16:55
KBAD 091655Z AUTO VRB04KT 10SM CLR 34/23 A2997 RMK AO2 SLP149 T03420229

2010/08/09 16:54
KBOS 091654Z 23011KT 10SM FEW050 SCT060 SCT100 32/17 A2994 RMK AO2 SLP139 T03170172

2010/08/09 16:53
KBRO 091653Z 16010KT 10SM BKN034 BKN044 34/24 A2992 RMK AO2 SLP130 T03440239

2010/08/09 16:53
KFLL 091653Z 13013G20KT 10SM FEW033 SCT090 31/24 A2994 RMK AO2 SLP139 T03060239

2010/08/09 16:55
KGSB 091655Z AUTO 07003KT 10SM CLR 32/19 A3002 RMK AO2 SLP167

2010/08/09 16:55
KHST 091655Z VRB06KT 5SM RA BR BKN007 OVC011 25/24 A2997 RMK AO2A SLP150 P0029 T02480242

2010/08/09 16:51
KJFK 091651Z 18009KT 8SM FEW040 SCT250 29/22 A3001 RMK AO2 SLP163 T02940217

2010/08/09 16:53
KMCO 091653Z 10008KT 10SM SCT020 BKN070 BKN250 29/24 A2993 RMK AO2 SLP134 T02940239

2010/08/09 16:55
KOFF 091655Z AUTO 31005KT 9SM CLR 30/24 A2984 RMK AO2 SLP089 T03030241 $

2010/08/09 16:53
KPBI 091653Z 15010KT 10SM SCT024 SCT085 BKN150 31/24 A2994 RMK AO2 SLP137 CB DSNT ALQDS T03050236

2010/08/09 16:55
KVPS 091655Z 09008KT 10SM SCT039 33/25 A2998 RMK AO2A SLP152 T03280251 $

2010/08/09 16:55
KWRI 091655Z AUTO 25008KT 10SM FEW150 33/19 A2999 RMK AO2 SLP156 T03260189 $

2010/08/09 17:00
SPIM 091700Z 18006KT 6000 FEW013 OVC017 17/12 Q1018 NOSIG RMK BIRD HAZARD RWY 15 PP000

2010/08/09 16:53
TIST 091653Z 11017G25KT 5SM -RA BR BKN018 BKN029 BKN048 28/26 A3000 RMK AO2 RAB08 SLP158 P0037 T02830261

2010/08/09 16:53
TISX 091653Z 04004KT 9SM -RA SCT018 BKN060 26/24 A2998 RMK AO2 SLP151 T02610239 $

2010/08/09 16:54
KMQE 091654Z AUTO 26009G17KT 29/17 A2998 RMK AO1 SLP158 T02940172 

2010/08/09 16:52
KP69 091652Z AUTO 00000KT 22/13 A2985 RMK AO2 SLP089 T02170128 PWINO TSNO 

2010/08/09 16:55
CYKJ 091655Z AUTO 11006KT 6SM OVC005 16/15 A2975 RMK SLP089 DENSITY ALT 2300FT

2010/08/09 16:50
ENAL 091650Z 05005KT 9999 FEW015 BKN025 15/13 Q1010

2010/08/09 16:50
ENAN 091650Z 03018KT 9999 FEW012 BKN025 11/08 Q1014 NOSIG

2010/08/09 16:50
ENBL 091650Z 33004KT 9999 2500E FEW003 SCT007 BKN015 14/12 Q1010

2010/08/09 16:50
ENBN 091650Z 34004KT 9999 BKN011 14/11 Q1011

2010/08/09 16:50
ENBR 091650Z VRB02KT 9999 VCSH FEW010 BKN020 15/10 Q1011 NOSIG

2010/08/09 16:50
ENCN 091650Z 24011KT 210V280 CAVOK 20/13 Q1009

2010/08/09 16:50
ENDU 091650Z 36006KT 320V040 9999 FEW025 16/10 Q1012

2010/08/09 16:50
ENEV 091650Z 34010KT 9999 FEW030 14/09 Q1012

2010/08/09 16:50
ENFG 091650Z 06004KT 360V120 9999 FEW025TCU SCT030 SCT046 19/08 Q1010

2010/08/09 16:50
ENFL 091650Z 24005KT 9999 VCSH FEW006 SCT010 BKN025 15/13 Q1010

2010/08/09 16:50
ENGC 091650Z 22007KT 9999 FEW010 BKN038 13/11 Q1010

2010/08/09 16:50
ENHD 091650Z 24006KT 9999 SCT018 BKN044 15/11 Q1012

2010/08/09 16:50
ENHF 091650Z 03010KT 9999 BKN023 10/06 Q1015

2010/08/09 16:50
ENKB 091650Z 36009KT 9999 FEW015 16/13 Q1009

2010/08/09 16:50
ENKR 091650Z 06009KT 9999 -RA SCT006 OVC010 10/09 Q1015

2010/08/09 16:50
ENLK 091650Z 03014KT 9999 FEW015 13/09 Q1012

2010/08/09 16:50
ENML 091650Z 25008KT 9999 FEW015 21/14 Q1009

2010/08/09 16:50
ENNA 091650Z 35011KT 9999 VCSH SCT012 BKN020 11/08 Q1016

2010/08/09 16:50
ENOL 091650Z 36008KT 9999 FEW014 16/13 Q1009 NOSIG

2010/08/09 16:50
ENRO 091650Z VRB01KT 9999 -SHRA FEW035 BKN053 14/13 Q1010

2010/08/09 16:50
ENRY 091650Z 21008KT 9999 FEW030TCU BKN100 21/15 Q1008

2010/08/09 16:50
ENSB 091650Z 23011KT 9999 FEW012 BKN030 09/03 Q1002

2010/08/09 16:50
ENTC 091650Z 02014KT 9999 FEW023 SCT030 12/08 Q1014 NOSIG

2010/08/09 16:50
ENTO 091650Z 21009KT CAVOK 21/14 Q1008

2010/08/09 16:50
ENVA 091650Z 26008KT 9999 FEW030TCU 19/15 Q1009 NOSIG

2010/08/09 16:50
ENZV 091650Z 25004KT 9999 FEW020 BKN047 16/09 Q1012 NOSIG

2010/08/09 16:50
LIEA 091650Z VRB02KT CAVOK 25/15 Q1016

2010/08/09 16:50
LIEO 091650Z 08006KT 050V130 9999 FEW050 27/20 Q1015

2010/08/09 16:50
LIRQ 091650Z 26010KT 220V300 9999 FEW030 27/16 Q1015

2010/08/09 16:50
BGGH 091650Z 20012KT 9999 SCT010 BKN050 13/09 Q1008

2010/08/09 16:55
FJDG 091655Z 15011G18KT 9999 FEW020 FEW080 BKN220 26/23 A2985 RMK SLP105 T02580226

2010/08/09 16:55
KCBM 091655Z AUTO VRB04KT 10SM FEW034 34/25 A2999 RMK AO2 SLP154 T03410250 $

2010/08/09 16:55
KLSF 091655Z AUTO 08006KT 10SM CLR 34/22 A2999 RMK AO2 SLP155 T03430223 PNO $

2010/08/09 16:55
KMTC 091655Z 26007KT 8SM SCT055 BKN170 OVC210 28/21 A2994 RMK SLP143

2010/08/09 16:55
KMUI 091655Z AUTO VRB04KT 10SM CLR 30/20 A3002 RMK AO2 SLP162 T03040204 $

2010/08/09 16:55
KOZR 091655Z AUTO 06008KT 10SM CLR 33/25 A3000 RMK AO2 SLP154 T03300248 $

2010/08/09 16:55
KRIV 091655Z VRB03KT 10SM CLR 23/12 A2993 RMK AO2A SLP132 T02320124 $

2010/08/09 16:55
KRND 091655Z AUTO 17003KT 10SM CLR 31/21 A2999 RMK AO2 SLP144 T03140214 $

2010/08/09 16:55
KWRI 091655Z AUTO 25008KT 10SM FEW150 33/19 A2999 RMK AO2 SLP156 T03260189 $

2010/08/09 16:50
OAUZ 091650Z AUTO 24004KT ////// 35/02 Q1003

2010/08/09 16:53
PABI 091653Z 15009G17KT 110V170 10SM FEW090 BKN110 BKN180 14/06 A2962 RMK AO2 SLP029 T01390056

2010/08/09 16:53
PASC 091653Z 06019G25KT 1 1/2SM BR OVC003 03/03 A2976 RMK AO2 PK WND 06028/1633 SLP077 T00330028

2010/08/09 16:55
PGUA 091655Z AUTO 16003KT 10SM BKN048 BKN200 BKN230 25/ A2989 RMK AO2 DZB1619E1646 CIG 040 RWY24L SLP103 P0000 T0246 VISNO RWY24L $

2010/08/09 16:53
TIST 091653Z 11017G25KT 5SM -RA BR BKN018 BKN029 BKN048 28/26 A3000 RMK AO2 RAB08 SLP158 P0037 T02830261

2010/08/09 16:55
KAFF 091655Z AUTO VRB04KT 10SM SCT160 22/13 A3022 RMK AO2 SLP136 T02210133

2010/08/09 16:55
KBAD 091655Z AUTO VRB04KT 10SM CLR 34/23 A2997 RMK AO2 SLP149 T03420229

2010/08/09 16:55
KBKF 091655Z 23006KT 70SM FEW080 SCT140 25/13 A3015 RMK SLP143

2010/08/09 16:55
KCBM 091655Z AUTO VRB04KT 10SM FEW034 34/25 A2999 RMK AO2 SLP154 T03410250 $

2010/08/09 16:55
KDAA 091655Z AUTO VRB03KT 10SM CLR 33/21 A3001 RMK AO2 SLP162 T03300212

2010/08/09 16:55
KDYS 091655Z AUTO 18009KT 10SM FEW042 33/22 A2998 RMK AO2 SLP125 T03320218 $

2010/08/09 16:55
KFBG 091655Z 06003KT 7SM FEW030 SCT045 SCT150 32/20 A3003 RMK AO2A SLP167 WND DATA ESTMD ALSTG/SLP ESTMD

2010/08/09 16:55
KGSB 091655Z AUTO 07003KT 10SM CLR 32/19 A3002 RMK AO2 SLP167

2010/08/09 16:55
KHFF 091655Z AUTO 00000KT 10SM CLR 33/21 A3006 RMK AO2 SLP174 T03280213 $

2010/08/09 16:55
KHST 091655Z VRB06KT 5SM RA BR BKN007 OVC011 25/24 A2997 RMK AO2A SLP150 P0029 T02480242

2010/08/09 16:55
KIAB 091655Z AUTO 15008KT 10SM CLR 35/21 A2992 RMK AO2 SLP115 T03540208 $

2010/08/09 16:55
KLHW 091655Z AUTO 03014G17KT 10SM CLR 33/21 A2999 RMK AO2 SLP156 T03310215

2010/08/09 16:55
KLSF 091655Z AUTO 08006KT 10SM CLR 34/22 A2999 RMK AO2 SLP155 T03430223 PNO $

2010/08/09 16:55
KMGE 091655Z VRB04KT 7SM BKN045 33/21 A3006 RMK AO2A SLP167 T03270208 $

2010/08/09 16:55
KMTC 091655Z 26007KT 8SM SCT055 BKN170 OVC210 28/21 A2994 RMK SLP143

2010/08/09 16:55
KMUI 091655Z AUTO VRB04KT 10SM CLR 30/20 A3002 RMK AO2 SLP162 T03040204 $

2010/08/09 16:50
ENHV 091650Z 07005KT 9999 FEW013 BKN016 10/06 Q1016

2010/08/09 16:50
ENNK 091650Z 26008KT 9999 FEW080 18/13 Q1012

2010/08/09 16:50
ENNM 091650Z 33007KT CAVOK 16/11 Q1010

2010/08/09 16:50
ENRA 091650Z 35005KT 9999 FEW040 21/13 Q1009

2010/08/09 16:50
ENRM 091650Z 02006KT 330V070 9999 BKN009 12/10 Q1011

2010/08/09 16:50
ENSH 091650Z 02013KT 9999 FEW020 14/09 Q1011

2010/08/09 16:50
ENSK 091650Z 05009KT 9999 FEW012 SCT020 BKN025 14/09 Q1013

2010/08/09 16:50
ENSO 091650Z VRB01KT 9999 SCT017 BKN025 15/12 Q1011

2010/08/09 16:50
ENST 091650Z 36006KT CAVOK 16/12 Q1011

2010/08/09 16:55
ETEB 091655Z AUTO 30004KT 9999 SCT044 21/12 A3005 RMK AO2 SLP166 T02080119

2010/08/09 16:50
LIBD 091650Z 02005KT 330V050 CAVOK 27/16 Q1013

2010/08/09 16:50
LICC 091650Z 06014KT CAVOK 28/21 Q1013

2010/08/09 16:50
LICJ 091650Z 03010KT CAVOK 27/20 Q1016

2010/08/09 16:45
LIEE 091645Z 09007KT CAVOK 27/17 Q1015 NOSIG

2010/08/09 16:50
LIMC 091650Z 27005KT 240V330 9999 FEW040 28/17 Q1014 NOSIG

2010/08/09 16:50
LIME 091650Z 17005KT 130V220 9999 FEW040 27/16 Q1015

2010/08/09 16:50
LIMF 091650Z 03006KT 9999 FEW030 SCT060 27/17 1015

2010/08/09 16:50
LIMJ 091650Z VRB02KT 9999 FEW020 26/21 Q1015

2010/08/09 16:50
LIML 091650Z 16004KT 9999 FEW030 29/16 Q1014 NOSIG

2010/08/09 16:50
LIPB 091650Z 15009KT CAVOK 29/16 Q1013

2010/08/09 16:50
LIPE 091650Z 36003KT 9999 SCT060 29/18 Q1013

2010/08/09 16:45
LIPH 091645Z 19005KT CAVOK 28/20 Q1014

2010/08/09 16:50
LIPQ 091650Z 20005KT CAVOK 27/19 Q1014

2010/08/09 16:45
LIPR 091645Z 09007KT CAVOK 27/21 Q1014

2010/08/09 16:45
LIPX 091645Z 17002KT 9999 FEW040 30/17 Q1014

2010/08/09 16:45
LIRA 091645Z 26007KT 190V350 9999 FEW020 SCT200 29/13 Q1015

2010/08/09 16:50
LIRF 091650Z 28010KT 250V310 CAVOK 25/21 Q1015 NOSIG

2010/08/09 16:50
LIRN 091650Z 30006KT CAVOK 27/20 Q1014

2010/08/09 16:45
LIRP 091645Z 25007KT 210V290 9999 FEW020 SCT030 25/21 Q1015 NOSIG

2010/08/09 16:53
KRTN 091653Z AUTO 11004KT 10SM CLR 29/13 A3017 RMK AO2 SLP105 T02890128 TSNO 

2010/08/09 16:53
KMWT 091653Z AUTO VRB03KT 10SM CLR 33/22 A2998 RMK AO2 SLP136 T03330222 TSNO 

2010/08/09 16:50
BGCO 091650Z 34028KT 9999 BLSA FEW210 11/M02 Q1009

2010/08/09 16:55
ETAR 091655Z AUTO 25004KT 9999 OVC075 23/12 A3002 RMK AO2 DZB1602E1610 SLP161 P0000 T02300124 $

2010/08/09 16:55
KADW 091655Z AUTO 21007KT 10SM CLR 32/21 A3001 RMK AO2 SLP161 T03180214 $

2010/08/09 16:55
KBAB 091655Z AUTO 20003KT 10SM CLR 20/13 A2988 RMK AO2 SLP118 T02020128 $

2010/08/09 16:55
KDOV 091655Z AUTO VRB05KT 10SM -RA FEW030 30/25 A3001 RMK AO2 RAB1559 SLP164 P0000 T03020249

2010/08/09 16:55
KFFO 091655Z 22005KT 10SM SCT250 31/19 A3002 RMK AO2A SLP160

2010/08/09 16:55
KFHU 091655Z VRB04KT 50SM FEW050 26/17 A3013 RMK SLP134

2010/08/09 16:55
KGTB 091655Z AUTO 23009KT 10SM FEW026 27/20 A2995 RMK AO2 SLP139 T02730201

2010/08/09 16:55
KHIF 091655Z AUTO 16014G22KT 10SM CLR 24/08 A3006 RMK AO2 DZB1557E1558 SLP068 P0000 T02450078

2010/08/09 16:55
KLTS 091655Z AUTO 19008KT 10SM CLR 36/19 A2991 RMK AO2 SLP108 T03560188 $

2010/08/09 16:55
KMUO 091655Z AUTO 09007KT 10SM FEW060 SCT080 BKN110 25/08 A2989 RMK AO2 SLP093 T02450077

2010/08/09 16:55
KSSC 091655Z VRB05KT 10SM SCT039 SCT050 BKN190 33/23 A3003 RMK AO2A SLP166 T03300226 $

2010/08/09 16:55
KSZL 091655Z 00000KT 10SM FEW180 33/25 A2994 RMK AO2A SLP130 T03290245

2010/08/09 16:55
KXMR 091655Z AUTO 15007KT 10SM CLR 30/25 A2994 RMK AO2 DZB1605E1609 SLP140 P0000 T03020250

2010/08/09 16:50
MSSM 091650Z 06002KT CAVOK 31/25 Q1011

2010/08/09 16:55
PAEI 091655Z AUTO 00000KT 10SM BKN080 BKN095 13/10 A2958 RMK AO2 RAE1601 SLP016 P0000 T01340097 $

2010/08/09 16:55
PHHI 091655Z AUTO 00000KT 10SM CLR 22/18 A3010 RMK AO2 SLP182 T02160182 $

2010/08/09 16:55
ETAD 091655Z AUTO 24005KT 9999 FEW055 SCT070 23/09 A3003 RMK AO2 SLP161 T02280088 $

2010/08/09 16:55
KAFF 091655Z AUTO VRB04KT 10SM SCT160 22/13 A3022 RMK AO2 SLP136 T02210133

2010/08/09 16:55
KDYS 091655Z AUTO 18009KT 10SM FEW042 33/22 A2998 RMK AO2 SLP125 T03320218 $

2010/08/09 16:55
KFAF 091655Z AUTO 27004KT 10SM FEW210 30/25 A3003 RMK AO2 SLP170 T03020249 $

2010/08/09 16:55
KFBG 091655Z 06003KT 7SM FEW030 SCT045 SCT150 32/20 A3003 RMK AO2A SLP167 WND DATA ESTMD ALSTG/SLP ESTMD

2010/08/09 16:55
KFCS 091655Z AUTO 35003KT 10SM FEW100 SCT160 22/14 A3018 RMK AO2 SLP143 T02170139

2010/08/09 16:55
KGUS 091655Z 22006KT 10SM FEW140 30/23 A2998 RMK AO2A CLDS LWR RWY05 SLP146 T03010232

2010/08/09 16:55
KLHW 091655Z AUTO 03014G17KT 10SM CLR 33/21 A2999 RMK AO2 SLP156 T03310215

2010/08/09 16:52
KNFW 091652Z 21008KT 10SM CLR 36/21 A2998 RMK AO2 SLP134 T03560211

2010/08/09 16:52
KNHK 091652Z 11010KT 6SM HZ FEW020 BKN250 30/24 A3001 RMK AO2 SLP163 T03000244

2010/08/09 16:53
KNIP 091653Z 07008KT 10SM FEW024 BKN034TCU 31/24 A2997 RMK AO2 RAB30E46 SLP144 TCU E-S P0000 T03110244

2010/08/09 16:53
KNQX 091653Z 20006KT 3SM +RA SCT018CB BKN025 OVC065 27/24 A2994 RMK AO2 SLP137 CB OHD MOV S T1 SET P0015 T02720244 $

2010/08/09 16:52
KNRB 091652Z 06010KT 10SM BKN030TCU 31/23 A2997 RMK AO2 RAB49E50 SLP149 TCU OHD P0000 T03060233

2010/08/09 16:55
KTIK 091655Z 18008KT 10SM CLR 34/22 A2994 RMK AO2A SLP121 T03360222

2010/08/09 17:00
LEMO 091700Z 35007KT 320V030 CAVOK 41/15 Q1012 NOSIG

2010/08/09 16:55
RODN 091655Z 18018G26KT 9999 SCT018 BKN024 28/26 A2972 RMK AO2A PK WND 17029/1559 CIG 024V029 SCT V BKN SLP063 T02790256

2010/08/09 16:54
KAKQ 091654Z AUTO 16005KT 10SM CLR 32/19 A3004 RMK AO2 SLP169 T03220194 TSNO 

2010/08/09 16:55
KDRA 091655Z AUTO VRB05KT 10SM CLR 27/06 A2999 RMK AO2 SLP112 T02720061 TSNO 

2010/08/09 17:00
MGGT 091700Z 36012KT 9999 SCT017 BKN200 25/18 Q1025 A30/27 TCU SSE PACAYA EN ACTIVIDAD NOSIG

2010/08/09 16:50
MMCE 091650Z 10010KT 7SM SCT010 SCT200 29/26 A2988 RMK 8/105

2010/08/09 16:48
MMCZ 091648Z 13006KT 8SM SCT015TCU SCT250 29/24 A2996 RMK 8/206

2010/08/09 16:47
MMMD 091647Z 13009KT 7SM SCT020 32/25 A2992 RMK 8/100 CI

2010/08/09 16:45
MMVA 091645Z 00000KT 7SM SCT010 BKN015 OVC080 30/26 A2985 RMK 8/41/ HZY

2010/08/09 17:00
MPTO 091700Z 00000KT 8000 -DZ FEW009 SCT016 BKN080 27/25 Q1013 BECMGFM 1730 6000 RA RWY DAMP

2010/08/09 17:00
MROC 091700Z 10011KT 9999 FEW040 BKN120 27/20 A3003 NOSIG

2010/08/09 16:55
PACZ 091655Z 17007KT 1SM BR -DZ OVC008 09/08 A2920 RMK SLPNO WR// BWC LOW

2010/08/09 16:55
PAEH 091655Z AUTO 16022G32KT 130V200 5SM OVC005 08/07 RMK AO1 0 T00830073

2010/08/09 16:55
PAFB 091655Z 06003KT 13SM VCSH FEW050 BKN070 OVC090 14/10 A2958 RMK SHRAB25E43 SLP014

2010/08/09 16:55
PGUA 091655Z AUTO 16003KT 10SM BKN048 BKN200 BKN230 25/ A2989 RMK AO2 DZB1619E1646 CIG 040 RWY24L SLP103 P0000 T0246 VISNO RWY24L $

2010/08/09 16:53
PHJR 091653Z 09004KT 10SM CLR 25/16 A3009 RMK AO2 SLP196 T02500156

2010/08/09 16:50
PTKK 091650Z VRB05KT 15SM FEW014 BKN120 OVC280 25/23 A2983 RMK SLP105 T02470234

2010/08/09 16:55
RKSO 091655Z 07004KT 9999 FEW070 25/25 A2978 RMK AO2A SLP086 T0253 $

2010/08/09 16:55
RODN 091655Z 18018G26KT 9999 SCT018 BKN024 28/26 A2972 RMK AO2A PK WND 17029/1559 CIG 024V029 SCT V BKN SLP063 T02790256

2010/08/09 17:00
SVMG 091700Z 18006KT 9999 SCT010CB SCT080 32/19 Q1013 TEMPO

2010/08/09 16:54
KRFD 091654Z 25009KT 10SM FEW080 SCT150 BKN250 27/21 A2995 RMK AO2 SLP135 T02670206 

2010/08/09 16:55
KHON 091655Z AUTO 12005KT 10SM CLR 29/22 A2990 RMK AO2 SLP115 T02890217 TSNO 

2010/08/09 16:55
KGTB 091655Z AUTO 23009KT 10SM FEW026 27/20 A2995 RMK AO2 SLP139 T02730201

2010/08/09 16:52
KNHK 091652Z 11010KT 6SM HZ FEW020 BKN250 30/24 A3001 RMK AO2 SLP163 T03000244

2010/08/09 16:53
KNIP 091653Z 07008KT 10SM FEW024 BKN034TCU 31/24 A2997 RMK AO2 RAB30E46 SLP144 TCU E-S P0000 T03110244

2010/08/09 16:53
KNQX 091653Z 20006KT 3SM +RA SCT018CB BKN025 OVC065 27/24 A2994 RMK AO2 SLP137 CB OHD MOV S T1 SET P0015 T02720244 $

2010/08/09 16:52
KNRB 091652Z 06010KT 10SM BKN030TCU 31/23 A2997 RMK AO2 RAB49E50 SLP149 TCU OHD P0000 T03060233

2010/08/09 16:55
KOFF 091655Z AUTO 31005KT 9SM CLR 30/24 A2984 RMK AO2 SLP089 T03030241 $

2010/08/09 16:55
KOZR 091655Z AUTO 06008KT 10SM CLR 33/25 A3000 RMK AO2 SLP154 T03300248 $

2010/08/09 16:55
KRIV 091655Z VRB03KT 10SM CLR 23/12 A2993 RMK AO2A SLP132 T02320124 $

2010/08/09 16:55
KRND 091655Z AUTO 17003KT 10SM CLR 31/21 A2999 RMK AO2 SLP144 T03140214 $

2010/08/09 16:55
KSSC 091655Z VRB05KT 10SM SCT039 SCT050 BKN190 33/23 A3003 RMK AO2A SLP166 T03300226 $

2010/08/09 16:55
KSUU 091655Z AUTO 25017KT 10SM CLR 17/12 A2989 RMK AO2 SLP124 T01740120 RVRNO $

2010/08/09 16:55
KSZL 091655Z 00000KT 10SM FEW180 33/25 A2994 RMK AO2A SLP130 T03290245

2010/08/09 16:55
KTIK 091655Z 18008KT 10SM CLR 34/22 A2994 RMK AO2A SLP121 T03360222

2010/08/09 16:55
KVPS 091655Z 09008KT 10SM SCT039 33/25 A2998 RMK AO2A SLP152 T03280251 $

2010/08/09 16:55
KWRI 091655Z AUTO 25008KT 10SM FEW150 33/19 A2999 RMK AO2 SLP156 T03260189 $

2010/08/09 17:00
FAVV 091700Z AUTO 23007KT //// // ////// 10/M12 Q1024

2010/08/09 17:00
FAJB 091700Z AUTO 22004KT //// // ////// 09/M10 Q1026

2010/08/09 17:00
FASI 091700Z AUTO 21003KT //// // ////// 10/M10 Q1026

2010/08/09 17:00
FAGC 091700Z AUTO 21013KT //// // ////// 10/M11 Q1025

2010/08/09 16:55
CYJF 091655Z 00000KT 7SM FEW007 OVC017 RMK SF2SC6

2010/08/09 16:56
TJSJ 091656Z 06013KT 10SM FEW025 SCT040 SCT090 32/24 A2996 RMK AO2 RAB11E30 SLP144 VCSH S-SW P0000 T03170244 

2010/08/09 16:56
KJAX 091656Z 06011KT 7SM RA SCT032TCU SCT200 29/24 A2996 RMK AO2 RAB44 SLP146 TCU OHD P0000 T02940244 

2010/08/09 16:55
KINL 091655Z AUTO 00000KT 10SM CLR 26/20 A2990 RMK AO2 SLP124 T02610200 

2010/08/09 16:55
KMBG 091655Z AUTO 15012KT 10SM CLR 29/20 A2988 RMK AO2 SLP105 T02940200 TSNO 

2010/08/09 16:55
KAEG 091655Z AUTO 00000KT 10SM SCT045 23/13 A3020 RMK AO1

2010/08/09 16:55
KAIK 091655Z AUTO 04003KT 10SM SCT046 32/26 A3007 RMK AO2 LTG DSNT E AND SE PNO

2010/08/09 16:54
KAKR 091654Z AUTO 22006KT 10SM CLR 29/17 A3003 RMK AO2 SLP158 T02940172

2010/08/09 16:48
KASG 091648Z 21006KT 10SM FEW060 SCT250 33/21 A3001

2010/08/09 16:55
KBBP 091655Z AUTO 10005KT 10SM SCT041 33/21 A3003 RMK AO2 LTG DSNT E

2010/08/09 16:55
KBNL 091655Z AUTO 02006KT 10SM CLR 32/22 A3003 RMK AO2

2010/08/09 16:54
KBOW 091654Z 11008KT 10SM BKN030 31/23 A2994

2010/08/09 16:54
KBUF 091654Z 22013KT 10SM BKN070 OVC130 27/19 A2996 RMK AO2 SLP143 T02670189

2010/08/09 16:55
KBWD 091655Z AUTO 20008G15KT 10SM CLR 33/21 A2999 RMK AO2

2010/08/09 16:55
KCEF 091655Z AUTO 24005KT 10SM CLR 32/18 A2996 RMK AO2 SLP146 T03230180

2010/08/09 16:55
KCGC 091655Z AUTO 10007KT 10SM FEW033 SCT047 33/24 A2991 RMK

2010/08/09 16:55
KCQW 091655Z AUTO 03004KT 5SM HZ FEW035 32/23 A3004 RMK AO2

2010/08/09 16:54
KDSV 091654Z AUTO 16004KT 10SM CLR 29/19 A2998 RMK AO2 SLP156 T02890189

2010/08/09 16:55
KE80 091655Z AUTO 30003KT 10SM CLR 26/12 A3016 RMK AO2 T02600122

2010/08/09 16:55
KEDC 091655Z AUTO 21006KT 10SM CLR 32/22 A2999 RMK AO1

2010/08/09 16:55
KEOE 091655Z AUTO 04003KT 10SM BKN044 BKN060 OVC070 33/21 A3007 RMK AO2 LTG DSNT E

2010/08/09 16:54
KFIG 091654Z AUTO 00000KT 10SM CLR 29/16 A3007 RMK AO2 SLP172 T02890156

2010/08/09 16:55
KFMH 091655Z AUTO 24013G17KT 10SM CLR 28/21 A3000 RMK AO2

2010/08/09 16:54
KFZY 091654Z AUTO 21006KT 9SM FEW038 29/21 A2995 RMK AO2 SLP139 T02890206

2010/08/09 16:55
KHYI 091655Z AUTO 00000KT 10SM FEW041 32/22 A2998 RMK AO1

2010/08/09 16:55
KHYW 091655Z AUTO 04007KT 10SM SCT038 32/26 A3002 RMK AO2 LTG DSNT E AND SE

2010/08/09 16:55
KIFP 091655Z AUTO 01003KT 10SM CLR 30/12 A2987 RMK AO2

2010/08/09 16:55
KILE 091655Z AUTO 18010G14KT 10SM CLR 33/21 A2997 RMK AO1

2010/08/09 16:54
KJST 091654Z AUTO 00000KT 10SM CLR 26/12 A3011 RMK AO2 SLP179 T02610117

2010/08/09 16:55
KLQK 091655Z AUTO 00000KT 10SM CLR 33/21 A3007 RMK AO2 T03280212 PNO

2010/08/09 16:55
KLRF 091655Z AUTO 32004KT 10SM CLR 34/25 A2996 RMK AO2 SLP143 T03430250

2010/08/09 16:55
KLRO 091655Z AUTO 06008KT 9SM FEW024 SCT029 SCT050 29/25 A3000 RMK AO2 LTG DSNT NE P0007

2010/08/09 16:55
KMNI 091655Z AUTO 02006KT 10SM CLR 32/25 A3002 RMK AO2

2010/08/09 16:55
KOCH 091655Z AUTO 17004KT 10SM CLR 34/22 A2997 RMK AO1

2010/08/09 16:55
KPRX 091655Z 20007KT 10SM CLR 35/21 A2997 RMK AO1

2010/08/09 16:55
KPSO 091655Z AUTO 00000KT 10SM OVC110 19/10 A3032 RMK AO2

2010/08/09 16:54
KPTW 091654Z AUTO 21007KT 180V270 7SM FEW043 SCT055 33/21 A3002 RMK AO2 SLP161 T03280211

2010/08/09 16:55
KPWG 091655Z AUTO 19010G16KT 10SM CLR 34/22 A2997 RMK AO1

2010/08/09 16:55
KRBW 091655Z AUTO 02007KT 10SM CLR 32/22 A3002 RMK AO2

2010/08/09 16:54
KROC 091654Z 23007KT 9SM SCT070 SCT130 OVC150 27/21 A2996 RMK AO2 SLP142 T02720206

2010/08/09 16:55
KSPL 091655Z AUTO 10007KT CLR 33/27 A2993 RMK AO2 LTG DSNT E PWINO PNO

2010/08/09 16:55
KTPL 091655Z 19012G17KT 10SM CLR 33/22 A2998 RMK AO1

2010/08/09 16:56
KUCP 091656Z AUTO 23004KT 10SM -RA FEW041 30/18 A3004 RMK AO2 T03000183 RAB44 P0000 SLP179

2010/08/09 16:55
KUTA 091655Z AUTO 09004KT 10SM CLR 35/25 A2997 RMK AO2

2010/08/09 16:55
KX40 091655Z AUTO 06006KT 7SM SCT028 SCT043 BKN060 34/25 A2993 RMK AO2 LTG DSNT NE T03350252

2010/08/09 16:54
PAHN 091654Z AUTO 10005KT 10SM OVC008 13/11 A2995 RMK AO2 CIG 007V012 SLP144 T01280111 TSNO

2010/08/09 16:50
PAHZ 091650Z 00000KT 1SM BR VV001 11/10 A2964 RMK NOSPECI

2010/08/09 16:54
PAKN 091654Z 19006KT 10SM OVC021 11/09 A2952 RMK AO2 RAB20E36 SLP996 P0000 T01110094

2010/08/09 16:52
PAWI 091652Z 06015G25KT 10SM OVC007 03/01 A2980 RMK ASOS VIA PHONE

2010/08/09 16:50
ENAL 091650Z 05005KT 9999 FEW015 BKN025 15/13 Q1010

2010/08/09 16:50
ENCN 091650Z 24011KT 210V280 CAVOK 20/13 Q1009

2010/08/09 16:50
ENHD 091650Z 24006KT 9999 SCT018 BKN044 15/11 Q1012

2010/08/09 16:50
ENRO 091650Z VRB01KT 9999 -SHRA FEW035 BKN053 14/13 Q1010

2010/08/09 16:50
ENRY 091650Z 21008KT 9999 FEW030TCU BKN100 21/15 Q1008

2010/08/09 16:50
ENSB 091650Z 23011KT 9999 FEW012 BKN030 09/03 Q1002 

2010/08/09 16:50
ENTC 091650Z 02014KT 9999 FEW023 SCT030 12/08 Q1014 NOSIG

2010/08/09 16:50
ENTO 091650Z 21009KT CAVOK 21/14 Q1008

2010/08/09 16:50
ENBL 091650Z 33004KT 9999 2500E FEW003 SCT007 BKN015 14/12 Q1010

2010/08/09 16:50
ENEV 091650Z 34010KT 9999 FEW030 14/09 Q1012 

2010/08/09 16:50
ENFL 091650Z 24005KT 9999 VCSH FEW006 SCT010 BKN025 15/13 Q1010

2010/08/09 16:50
ENKB 091650Z 36009KT 9999 FEW015 16/13 Q1009

2010/08/09 16:50
ENKR 091650Z 06009KT 9999 -RA SCT006 OVC010 10/09 Q1015 

2010/08/09 16:50
ENML 091650Z 25008KT 9999 FEW015 21/14 Q1009

2010/08/09 16:50
ENNA 091650Z 35011KT 9999 VCSH SCT012 BKN020 11/08 Q1016 

2010/08/09 17:00
SBBV 091700Z 01002KT 9999 SCT015 BKN080 31/22 Q1013

2010/08/09 16:50
ENHV 091650Z 07005KT 9999 FEW013 BKN016 10/06 Q1016

2010/08/09 16:50
ENLK 091650Z 03014KT 9999 FEW015 13/09 Q1012

2010/08/09 16:50
ENNK 091650Z 26008KT 9999 FEW080 18/13 Q1012 

2010/08/09 16:50
ENNM 091650Z 33007KT CAVOK 16/11 Q1010

2010/08/09 16:50
PTTP 091650Z 06003KT 15SM BKN018TCU OVC300 27/25 A2986 RMK SHRAE25 TCU ALQDS SLP110 T02660251

2010/08/09 16:50
LIBD 091650Z 02005KT 330V050 CAVOK 27/16 Q1013

2010/08/09 16:45
LIBR 091645Z 32018KT CAVOK 26/22 Q1014 NOSIG

2010/08/09 16:50
LICC 091650Z 06014KT CAVOK 28/21 Q1013

2010/08/09 16:50
LICJ 091650Z 03010KT CAVOK 27/20 Q1016

2010/08/09 16:50
LIPB 091650Z 15009KT CAVOK 29/16 Q1013

2010/08/09 16:50
LIPE 091650Z 36003KT 9999 SCT060 29/18 Q1013

2010/08/09 16:45
LIPH 091645Z 19005KT CAVOK 28/20 Q1014

2010/08/09 16:50
LIPK 091650Z 22006KT 9999 FEW030 29/14 Q1014

2010/08/09 16:50
LIPQ 091650Z 20005KT CAVOK 27/19 Q1014

2010/08/09 16:45
LIPR 091645Z 09007KT CAVOK 27/21 Q1014

2010/08/09 16:45
LIPX 091645Z 17002KT 9999 FEW040 30/17 Q1014

2010/08/09 16:50
LIPZ 091650Z 16004KT CAVOK 27/17 Q1014

2010/08/09 17:00
SBFZ 091700Z 11016KT CAVOK 30/19 Q1012

2010/08/09 16:50
ENAN 091650Z 03018KT 9999 FEW012 BKN025 11/08 Q1014 NOSIG

2010/08/09 16:50
ENBR 091650Z VRB02KT 9999 VCSH FEW010 BKN020 15/10 Q1011 NOSIG 

2010/08/09 16:50
ENDU 091650Z 36006KT 320V040 9999 FEW025 16/10 Q1012

2010/08/09 16:50
ENOL 091650Z 36008KT 9999 FEW014 16/13 Q1009 NOSIG

2010/08/09 16:50
ENVA 091650Z 26008KT 9999 FEW030TCU 19/15 Q1009 NOSIG 

2010/08/09 16:50
ENZV 091650Z 25004KT 9999 FEW020 BKN047 16/09 Q1012 NOSIG

2010/08/09 16:50
ENBN 091650Z 34004KT 9999 BKN011 14/11 Q1011

2010/08/09 16:50
ENFG 091650Z 06004KT 360V120 9999 FEW025TCU SCT030 SCT046 19/08 Q1010

2010/08/09 16:50
ENHF 091650Z 03010KT 9999 BKN023 10/06 Q1015 

2010/08/09 16:50
ENRA 091650Z 35005KT 9999 FEW040 21/13 Q1009

2010/08/09 16:50
ENSH 091650Z 02013KT 9999 FEW020 14/09 Q1011

2010/08/09 16:50
ENMS 091650Z 34009KT 9999 FEW040TCU 18/13 Q1009 

2010/08/09 16:50
ENRM 091650Z 02006KT 330V070 9999 BKN009 12/10 Q1011

2010/08/09 16:50
ENRS 091650Z 01019KT CAVOK 11/08 Q1012

2010/08/09 16:50
ENSK 091650Z 05009KT 9999 FEW012 SCT020 BKN025 14/09 Q1013

2010/08/09 16:50
ENSO 091650Z VRB01KT 9999 SCT017 BKN025 15/12 Q1011

2010/08/09 16:50
ENST 091650Z 36006KT CAVOK 16/12 Q1011

2010/08/09 16:50
ENVD 091650Z 05012KT 9999 -DZ BKN005 OVC008 10/08 Q1015

2010/08/09 17:00
SBGL 091700Z 23019KT 9999 SCT020 24/16 Q1020

2010/08/09 16:56
YBRM 091656Z AUTO 12017G27KT 9999NDV // NCD 19/03 Q1017

2010/08/09 16:50
EFJO 091650Z 20009KT 160V260 CAVOK 26/15 Q1010

2010/08/09 16:50
EFLP 091650Z 19005KT 150V230 9999 FEW035CB SCT060 23/17 Q1012

2010/08/09 16:50
EFMI 091650Z AUTO 20007KT 150V250 9999 FEW042 23/15 Q1011

2010/08/09 16:50
EFSA 091650Z AUTO 19009KT 140V230 CAVOK 24/15 Q1011

2010/08/09 16:50
EFUT 091650Z AUTO 19006KT 160V230 9999 FEW043 22/15 Q1012

2010/08/09 16:50
EFVR 091650Z AUTO 18006KT 130V230 CAVOK 24/16 Q1010

2010/08/09 17:00
MNMG 091700Z 12008KT 9999 FEW024TCU SCT070 30/24 Q1011 A2986 TCU/NE/SW

2010/08/09 16:50
EGWU 091650Z 24012KT CAVOK 23/12 Q1013 NOSIG

2010/08/09 17:00
SAZS 091700Z 00000KT CAVOK 04/M02 Q1024

2010/08/09 16:50
EGVN 091650Z 22007KT 9999 BKN024 BKN060 19/15 Q1013 NOSIG

2010/08/09 17:00
TVSV 091700Z 15008KT 9999 FEWCB020 SCT023 31/26 Q1014 CB NW/W

2010/08/09 17:00
SVMI 091700Z 36003KT 9999 FEW016 SCT100 32/26 Q1013 NOSIG

2010/08/09 16:50
EGHE 091650Z 23015KT 1200 -DZ BR BKN002 17/17 Q1014

2010/08/09 16:54
YSDU 091654Z AUTO 09012KT 9999NDV // SCT028 BKN035 OVC051 10/09 Q1015

2010/08/09 16:54
YSDU 091654Z AUTO 09012KT 9999NDV // SCT028 BKN035 OVC051 10/09 Q1015

2010/08/09 17:00
LEJR 091700Z 26008KT 230V330 CAVOK 37/12 Q1012

2010/08/09 17:00
SVBC 091700Z 18008KT 9999 -DZ OVC010/CB 28/23 Q1015

2010/08/09 17:00
SBCT 091700Z 07009KT 9999 SCT006 OVC008 12/10 Q1023

2010/08/09 16:53
PTRO 091653Z 20004KT 14SM BKN015CB OVC280 25/24 A2988 RMK CB VC ALQDS 

2010/08/09 16:50
EGTC 091650Z 24012KT 210V280 9999 -SHRA FEW040 21/12 Q1012

2010/08/09 16:55
KPOE 091655Z AUTO 32003KT 10SM CLR 33/23 A2999 RMK AO2 SLP153 T03280233 

2010/08/09 17:00
SBSL 091700Z 07003KT 9999 SCT020 32/22 Q1012

2010/08/09 16:56
KABQ 091656Z 00000KT 10SM FEW060 SCT140 26/12 A3017 RMK AO2 SLP127 T02560122 $ 

2010/08/09 16:50
EGDL 091650Z 20009KT 9999 BKN017 19/14 Q1013 WHT NOSIG

2010/08/09 16:50
EGDM 091650Z 22014KT 9999 BKN016 18/14 Q1014 WHT

2010/08/09 16:50
EGDR 091650Z 24012KT 7000 HZ FEW005 BKN012 18/16 Q1014 GRN

2010/08/09 16:50
EGDY 091650Z 21015KT 9999 FEW010 SCT020 BKN035 19/17 Q1013 WHT NOSIG

2010/08/09 16:50
EGQK 091650Z 29002KT 9999 FEW010 SCT030 17/14 Q1005 BLU NOSIG

2010/08/09 16:50
EGQL 091650Z 26007KT 9999 FEW020 BKN050 18/14 Q1005 BLU NOSIG

2010/08/09 16:50
EGQS 091650Z 32008KT 9999 FEW005 SCT080 15/14 Q1005 BLU NOSIG

2010/08/09 16:50
EGUB 091650Z 21012KT 9999 SCT025 BKN045 20/14 Q1013 BLU BECMG BKN020 WHT

2010/08/09 16:50
EGUW 091650Z 23010KT 9999 FEW048 23/08 Q1012 BLU NOSIG

2010/08/09 16:50
EGVN 091650Z 22007KT 9999 BKN024 BKN060 19/15 Q1013 WHT NOSIG

2010/08/09 16:50
EGVO 091650Z 20014KT 9999 SCT024 BKN035 21/14 Q1014 WHT NOSIG

2010/08/09 16:50
EGVP 091650Z 23013KT 9999 BKN018 19/14 Q1014 WHT BECMG BKN014 GRN

2010/08/09 16:50
EGWU 091650Z 24012KT CAVOK 23/12 Q1013 BLU NOSIG

2010/08/09 16:50
EGXC 091650Z 22011KT 9999 BKN048 BKN120 22/13 Q1010 BLU NOSIG

2010/08/09 16:50
EGXD 091650Z 22005KT 9999 FEW020 BKN036 17/16 Q1009 BLU NOSIG

2010/08/09 16:50
EGXE 091650Z 24009KT 9999 FEW009 BKN050 18/15 Q1009 BLU NOSIG

2010/08/09 16:50
EGXJ 091650Z 22017KT 9999 BKN035 21/12 Q1011 BLU NOSIG

2010/08/09 16:50
EGXW 091650Z 24016KT 9999 FEW034 BKN050 21/13 Q1010 BLU

2010/08/09 16:50
EGYM 091650Z 23016KT CAVOK 24/08 Q1011 BLU NOSIG

2010/08/09 17:00
MDPP 091700Z 09015KT 9999 SCT022 32/27 Q1015

2010/08/09 17:00
MDST 091700Z 10009KT 9999 SCT022 31/24 Q1014

2010/08/09 17:00
MDCY 091700Z 03010KT 8000 -TSRA FEW016CB BKN018 28/26 Q1017 CB/S/SE

2010/08/09 17:00
MDPC 091700Z 09005KT 9999 SCT025 SCT300 31/25 Q1013 NOSIG

2010/08/09 17:00
MDJB 091700Z 36006KT 9999 BKN020 SCT300 32/25 Q1013

2010/08/09 17:00
MDLR 091700Z 09015KT 9999 SCT026 32/24 Q1014

2010/08/09 17:00
MDSD 091700Z 17006KT 9999 SCT025 SCT300 32/24 Q1013

2010/08/09 16:50
EGTC 091650Z 24012KT 210V280 9999 -SHRA FEW040 21/12 Q1012

2010/08/09 16:56
KSHV 091656Z VRB03KT 10SM FEW040 SCT300 34/22 A2997 RMK AO2 SLP144 T03440222 

2010/08/09 16:54
YSDU 091654Z AUTO 09012KT 9999NDV // SCT028 BKN035 OVC051 10/09 Q1015

2010/08/09 16:55
EHDL 091655Z AUTO 21005KT 9999NDV FEW038 21/13 Q1015 BLU

2010/08/09 16:55
EHEH 091655Z AUTO 27002KT 9999NDV SCT280 22/12 Q1015 BLU BLU NOSIG

2010/08/09 16:55
EHGR 091655Z AUTO 21003KT 9999NDV FEW250 22/10 Q1015 BLU

2010/08/09 16:55
EHLW 091655Z AUTO 25007KT 9999NDV NCD 20/13 Q1015 BLU

2010/08/09 16:55
EHVK 091655Z AUTO 23001KT 9999NDV BKN068 21/13 Q1015 BLU

2010/08/09 16:55
EHVL 091655Z AUTO 22012KT 9999NDV NCD 20/14 Q1015 BLU

2010/08/09 16:55
EHWO 091655Z AUTO 16002KT 9999NDV FEW330 22/10 Q1015 BLU

2010/08/09 16:50
EGVN 091650Z 22007KT 9999 BKN024 BKN060 19/15 Q1013 NOSIG

2010/08/09 16:56
CYPR 091656Z AUTO /////KT 6SM BR SCT008 OVC024 13/12 A3001 RMK SLP164 WND MISG

2010/08/09 16:55
KADW 091655Z AUTO 21007KT 10SM CLR 32/21 A3001 RMK AO2 SLP161 T03180214 $

2010/08/09 16:55
KBAB 091655Z AUTO 20003KT 10SM CLR 20/13 A2988 RMK AO2 SLP118 T02020128 $

2010/08/09 16:55
KDLF 091655Z AUTO 10011G16KT 10SM SCT024 30/23 A2996 RMK AO2 SLP129 T03010227

2010/08/09 16:55
KDOV 091655Z AUTO VRB05KT 10SM -RA FEW030 30/25 A3001 RMK AO2 RAB1559 SLP164 P0000 T03020249

2010/08/09 16:55
KEDW 091655Z 00000KT 85SM CLR 23/01 A2994 RMK AO2A SLP098 T02310011

2010/08/09 16:55
KFAF 091655Z AUTO 27004KT 10SM FEW210 30/25 A3003 RMK AO2 SLP170 T03020249 $

2010/08/09 16:55
KFCS 091655Z AUTO 35003KT 10SM FEW100 SCT160 22/14 A3018 RMK AO2 SLP143 T02170139

2010/08/09 16:55
KFFO 091655Z 22005KT 10SM SCT250 31/19 A3002 RMK AO2A SLP160

2010/08/09 16:55
KFHU 091655Z VRB04KT 50SM FEW050 26/17 A3013 RMK SLP134

2010/08/09 16:55
KFMH 091655Z AUTO 24013G17KT 10SM CLR 28/21 A3000 RMK AO2

2010/08/09 16:55
KFRI 091655Z AUTO 21008KT 10SM CLR 36/22 A2986 RMK AO2 SLP088 T03600215

2010/08/09 16:55
KFSI 091655Z AUTO 20008KT 10SM CLR 35/20 A2991 RMK AO2 SLP102 T03490200

2010/08/09 16:55
KGUS 091655Z 22006KT 10SM FEW140 30/23 A2998 RMK AO2A CLDS LWR RWY05 SLP146 T03010232

2010/08/09 16:55
KHIF 091655Z AUTO 16014G22KT 10SM CLR 24/08 A3006 RMK AO2 DZB1557E1558 SLP068 P0000 T02450078

2010/08/09 16:55
KLTS 091655Z AUTO 19008KT 10SM CLR 36/19 A2991 RMK AO2 SLP108 T03560188 $

2010/08/09 16:55
KMUO 091655Z AUTO 09007KT 10SM FEW060 SCT080 BKN110 25/08 A2989 RMK AO2 SLP093 T02450077

2010/08/09 16:52
KNFW 091652Z 21008KT 10SM CLR 36/21 A2998 RMK AO2 SLP134 T03560211

2010/08/09 16:55
KPHP 091655Z AUTO 14010KT 10SM CLR 30/17 A2993 RMK AO2 SLP112 T03000172 TSNO 

2010/08/09 16:54
KRSP 091654Z AUTO 00000KT 7SM FEW050 29/15 A3009 RMK AO2 SLP986 T02940150 $ 

2010/08/09 16:55
KANJ 091655Z AUTO 12005KT 10SM SCT022 BKN028 BKN060 26/20 A2989 RMK AO2 SLP116 T02560200 

2010/08/09 16:55
KAAT 091655Z AUTO 11004KT 10SM CLR 22/05 A3000 RMK AO2 SLP116 T02170050 TSNO 

2010/08/09 16:53
KRQE 091653Z AUTO VRB04KT 10SM FEW060 22/09 A3028 RMK AO2 SLP141 T02220089 TSNO 

2010/08/09 16:56
KSDF 091656Z 00000KT 8SM FEW035 SCT150 SCT200 34/21 A2999 RMK AO2 SLP147 T03440211 

2010/08/09 16:56
KCHS 091656Z 04009KT 10SM FEW025 33/23 A3000 RMK AO2 SLP158 T03280233 

2010/08/09 16:55
KNBG 091655Z 04006KT 10SM SCT025 BKN100 OVC250 33/24 A2999 RMK AO2 SLP155 T2 SET T03280244 $ 

2010/08/09 16:55
KAST 091655Z AUTO 29005KT 4SM BR BKN007 BKN012 OVC026 14/13 A3000 RMK AO2 VIS 2 1/2 RWY 08 RAB03E30 CIG 005V009 SLP159 P0000 T01440128 

2010/08/09 17:00
SBGL 091700Z 23019KT 9999 SCT020 24/16 Q1020

2010/08/09 17:00
SBFI 091700Z 18002KT CAVOK 21/10 Q1019

2010/08/09 16:50
VECC 091650Z 20005KT 2800 HZ FEW020 30/27 Q1001 NOSIG

2010/08/09 16:55
BGTL 091655Z AUTO 25004KT 9999 CLR 05/02 A2988 RMK AO2 SLP122 T00500022

2010/08/09 16:55
ETOU 091655Z AUTO 25006KT 9999 CLR 23/12 A3001 RMK AO2 SLP162 T02300120

2010/08/09 16:55
KDLF 091655Z AUTO 10011G16KT 10SM SCT024 30/23 A2996 RMK AO2 SLP129 T03010227

2010/08/09 16:55
KEDW 091655Z 00000KT 85SM CLR 23/01 A2994 RMK AO2A SLP098 T02310011

2010/08/09 16:55
KFMH 091655Z AUTO 24013G17KT 10SM CLR 28/21 A3000 RMK AO2

2010/08/09 16:55
KFRI 091655Z AUTO 21008KT 10SM CLR 36/22 A2986 RMK AO2 SLP088 T03600215

2010/08/09 16:55
KFSI 091655Z AUTO 20008KT 10SM CLR 35/20 A2991 RMK AO2 SLP102 T03490200

2010/08/09 16:55
KMCF 091655Z AUTO 06005KT 10SM BKN023 30/26 A2993 RMK AO2 CIG 022V027 SLP135 T02980260

2010/08/09 16:55
KPOB 091655Z AUTO 00000KT 10SM SCT045 32/24 A3003 RMK AO2 SLP167 T03170235 $

2010/08/09 16:55
KSKA 091655Z AUTO 19008KT 10SM CLR 20/10 A2988 RMK AO2 SLP108 T02040102

2010/08/09 16:55
KSLI 091655Z 00000KT 6SM HZ OVC015 18/14 A2994 RMK AO2A SLP139 T01800140

2010/08/09 16:55
KVAD 091655Z AUTO 05011KT 10SM FEW041 32/22 A2998 RMK AO2 SLP150 T03230224 $

2010/08/09 16:55
MHSC 091655Z AUTO 31004KT 9999 FEW060 SCT100 SCT130 BKN150 BKN180 BKN200 28/21 A3001 RMK AO2 SLP120 T02770210 $

2010/08/09 16:50
MSAC 091650Z 14002KT 9999 FEW037 BKN300 30/23 Q1011

2010/08/09 16:50
MSSA 091650Z 00000KT 9999 FEW037 SCT300 29/21 Q1016

2010/08/09 16:50
OAUZ 091650Z AUTO 24004KT //// ////// 35/02 Q1003

2010/08/09 16:55
PAED 091655Z AUTO 33008KT 10SM OVC070 13/10 A2962 RMK AO2 SLP030 T01270101

2010/08/09 16:54
KACY 091654Z 20007KT 10SM CLR 33/18 A3003 RMK AO2 SLP168 T03330178

2010/08/09 16:55
KADW 091655Z AUTO 21007KT 10SM CLR 32/21 A3001 RMK AO2 SLP161 T03180214 $

2010/08/09 16:53
KDAB 091653Z 10008G16KT 10SM SCT022 SCT110 31/24 A2995 RMK AO2 SLP140 T03110244

2010/08/09 16:55
KDOV 091655Z AUTO VRB05KT 10SM -RA FEW030 30/25 A3001 RMK AO2 RAB1559 SLP164 P0000 T03020249

2010/08/09 16:55
KMCF 091655Z AUTO 06005KT 10SM BKN023 30/26 A2993 RMK AO2 CIG 022V027 SLP135 T02980260

2010/08/09 16:52
KNHK 091652Z 11010KT 6SM HZ FEW020 BKN250 30/24 A3001 RMK AO2 SLP163 T03000244

2010/08/09 16:53
KNIP 091653Z 07008KT 10SM FEW024 BKN034TCU 31/24 A2997 RMK AO2 RAB30E46 SLP144 TCU E-S P0000 T03110244

2010/08/09 16:53
KNQX 091653Z 20006KT 3SM +RA SCT018CB BKN025 OVC065 27/24 A2994 RMK AO2 SLP137 CB OHD MOV S T1 SET P0015 T02720244 $

2010/08/09 16:52
KNRB 091652Z 06010KT 10SM BKN030TCU 31/23 A2997 RMK AO2 RAB49E50 SLP149 TCU OHD P0000 T03060233

2010/08/09 16:54
KPHL 091654Z 21009KT 10SM FEW050 SCT250 32/19 A3001 RMK AO2 SLP163 T03220189

2010/08/09 16:55
KPOB 091655Z AUTO 00000KT 10SM SCT045 32/24 A3003 RMK AO2 SLP167 T03170235 $

2010/08/09 16:53
KSAV 091653Z 06010G18KT 10SM FEW030 SCT250 34/21 A3000 RMK AO2 SLP158 T03390206

2010/08/09 16:55
KSSC 091655Z VRB05KT 10SM SCT039 SCT050 BKN190 33/23 A3003 RMK AO2A SLP166 T03300226 $

2010/08/09 16:54
KSYR 091654Z 26006KT 10SM SCT060 BKN200 30/19 A2995 RMK AO2 SLP137 T03000194

2010/08/09 16:55
KVAD 091655Z AUTO 05011KT 10SM FEW041 32/22 A2998 RMK AO2 SLP150 T03230224 $

2010/08/09 16:55
KQAE 091655Z 34004KT 6000 DU HZ CLR 40/09 A2954 RMK SLP000

2010/08/09 16:55
KQCJ 091655Z AUTO 32011G14KT 9SM SCT015 BKN065 BKN085 18/15 A3018 RMK AO2 LTG DSNT NW SLP119 T01770149

2010/08/09 16:55
KQDD 091655Z AUTO VRB02KT 9999 -SHRA VCTS FEW110 27/13 A2987 RMK AO2 SLP113

2010/08/09 16:55
KQHY 091655Z AUTO VRB05KT 12SM FEW030 32/23 A3001 RMK AO2 SLP161 T03190232

2010/08/09 16:55
KQIR 091655Z 09006KT 9000 HZ FEW200 35/28 A2946 RMK AO2A SLP975 T03480275

2010/08/09 16:55
KQLD 091655Z AUTO 11003KT 9999 SCT090 BKN100 BKN120 17/14 A3024 RMK AO2 LTG DSNT SE SLP139 T01650136

2010/08/09 16:55
KQMG 091655Z AUTO 34005KT 10SM CLR 27/14 A3011 RMK AO2 SLP124 T02730137

2010/08/09 16:55
KQRH 091655Z AUTO 00000KT 9999 FEW130 BKN200 34/22 A2961 RMK AO2 SLP024

2010/08/09 16:55
KQTI 091655Z AUTO 30006KT 9999 FEW240 37/03 A2962 RMK AO2 SLP004 T03710029

2010/08/09 16:55
KQTZ 091655Z VRB03KT 6000 DU HZ CLR 39/06 A2952 RMK PRESRR SLP990 QNH999MB WND DATA ESTMD ALSTG/SLP ESTMD

2010/08/09 16:55
KQVF 091655Z AUTO 16004KT 12SM FEW029 SCT085 24/20 A2998 RMK AO2 SLP150 T02390203

2010/08/09 17:00
HRYR 091700Z 15005KT 9999 SCT030 26/11 Q1018 NOSIG

2010/08/09 16:50
EGYP 091650Z 27032G42KT 7000 -SHRA SCT012 BKN018 BKN040 06/M01 Q0994 GRN TEMPO 3000 SHRASN YLO1

2010/08/09 16:56
KNTU 091656Z 10008KT 10SM SCT030 BKN200 29/23 A3004 RMK AO2 SLP176 T02890228 $ 

2010/08/09 16:56
KNCA 091656Z VRB04KT 10SM SCT030 BKN080 32/23 A3003 RMK AO2 SLP171 T03200228 $ 

2010/08/09 16:56
KP53 091656Z AUTO 05004KT 27/23 A2986 RMK AO2 SLP109 T02670233 PWINO TSNO 

2010/08/09 16:56
KCAE 091656Z VRB06KT 9SM FEW048 33/21 A3003 RMK AO2 SLP163 T03330211 

2010/08/09 16:50
EGDR 091650Z 24012KT 7000 HZ FEW005 BKN012 18/16 Q1014 GRN

2010/08/09 16:50
EGDY 091650Z 21015KT 9999 FEW010 SCT020 BKN035 19/17 Q1013 WHT NOSIG

2010/08/09 16:50
EGHE 091650Z 23015KT 1200 -DZ BR BKN002 17/17 Q1014

2010/08/09 16:50
EGTC 091650Z 24012KT 210V280 9999 -SHRA FEW040 21/12 Q1012

2010/08/09 16:55
EGUN 091655Z AUTO 23011KT 9999 CLR 25/09 A2987 RMK AO2 SLP105 T02500088

2010/08/09 16:50
EGVN 091650Z 22007KT 9999 BKN024 BKN060 19/15 Q1013 NOSIG

2010/08/09 16:50
EGVO 091650Z 20014KT 9999 SCT024 BKN035 21/14 Q1014 WHT NOSIG

2010/08/09 16:50
EGWU 091650Z 24012KT CAVOK 23/12 Q1013 NOSIG

2010/08/09 16:50
ENMS 091650Z 34009KT 9999 FEW040TCU 18/13 Q1009

2010/08/09 16:50
ENRS 091650Z 01019KT CAVOK 11/08 Q1012

2010/08/09 16:50
ENVD 091650Z 05012KT 9999 -DZ BKN005 OVC008 10/08 Q1015

2010/08/09 16:55
ETAD 091655Z AUTO 24005KT 9999 FEW055 SCT070 23/09 A3003 RMK AO2 SLP161 T02280088 $

2010/08/09 16:55
ETAR 091655Z AUTO 25004KT 9999 OVC075 23/12 A3002 RMK AO2 DZB1602E1610 SLP161 P0000 T02300124 $

2010/08/09 16:56
ETIC 091656Z AUTO 23004KT 9999 CLR 21/18 A3004 RMK AO2 SLP162 T02090184

2010/08/09 16:55
ETOU 091655Z AUTO 25006KT 9999 CLR 23/12 A3001 RMK AO2 SLP162 T02300120

2010/08/09 17:00
LEJR 091700Z 26008KT 230V330 CAVOK 37/12 Q1012

2010/08/09 17:00
LEMO 091700Z 35007KT 320V030 CAVOK 41/15 Q1012 NOSIG

2010/08/09 16:45
LIBR 091645Z 32018KT CAVOK 26/22 Q1014 NOSIG

2010/08/09 16:50
LIPK 091650Z 22006KT 9999 FEW030 29/14 Q1014

2010/08/09 16:50
LIPZ 091650Z 16004KT CAVOK 27/17 Q1014

2010/08/09 16:55
LIYW 091655Z AUTO 24003KT 9999 CLR 28/18 A2996 RMK AO2 DZE1602 SLP142 P0000 T02790184

2010/08/09 17:00
LPLA 091700Z 05010KT 9999 FEW025 BKN045 24/18 Q1022

2010/08/09 16:50
EGAC 091650Z 25013KT 9999 FEW020 SCT028 BKN048 16/10 Q1008

2010/08/09 16:50
EGBJ 091650Z 22011KT 9999 VCSH FEW012 BKN018 19/15 Q1012

2010/08/09 16:50
EGDR 091650Z 24012KT 7000 HZ FEW005 BKN012 18/16 Q1014 GRN

2010/08/09 16:50
EGDY 091650Z 21015KT 9999 FEW010 SCT020 BKN035 19/17 Q1013 WHT NOSIG

2010/08/09 16:50
EGFF 091650Z 27011KT 9999 FEW004 18/17 Q1013

2010/08/09 16:50
EGGP 091650Z 30009KT 9999 SCT040 20/14 Q1010

2010/08/09 16:50
EGHE 091650Z 23015KT 1200 -DZ BR BKN002 17/17 Q1014

2010/08/09 16:50
EGNX 091650Z 20013KT 9999 FEW020 BKN032 21/12 Q1011

2010/08/09 16:50
EGPD 091650Z 16012KT 9999 SCT020 15/12 Q1005 TEMPO SHRA

2010/08/09 16:50
EGSC 091650Z 23012KT 200V260 CAVOK 23/10 Q1012

2010/08/09 16:50
EGSH 091650Z 22010KT 180V250 9999 SCT046 24/10 Q1012

2010/08/09 16:50
EGTC 091650Z 24012KT 210V280 9999 -SHRA FEW040 21/12 Q1012

2010/08/09 16:50
EGUB 091650Z 21012KT 9999 SCT025 BKN045 20/14 Q1013 BLU BECMG BKN020 WHT

2010/08/09 16:55
EGUL 091655Z AUTO 24010G19KT 9999 CLR 24/09 A2986 RMK AO2 SLP114 T02440089

2010/08/09 16:55
EGUN 091655Z AUTO 23011KT 9999 CLR 25/09 A2987 RMK AO2 SLP105 T02500088

2010/08/09 16:50
EGVN 091650Z 22007KT 9999 BKN024 BKN060 19/15 Q1013 WHT NOSIG

2010/08/09 16:50
EGVO 091650Z 20014KT 9999 SCT024 BKN035 21/14 Q1014 WHT NOSIG

2010/08/09 16:50
EGVP 091650Z 23013KT 9999 BKN018 19/14 Q1014 WHT BECMG BKN014 GRN

2010/08/09 16:50
EGWU 091650Z 24012KT CAVOK 23/12 Q1013 BLU NOSIG

2010/08/09 16:56
KNBT 091656Z AUTO 11004KT 1 1/2SM -RA FEW002 27/24 A3004 RMK AO2 RAB34 SLP177 P0002 T02720244 TSNO 

2010/08/09 16:56
KNYG 091656Z 18009KT 9SM FEW050 SCT200 31/22 A3001 RMK AO2 SLP162 T03110222 $ 

2010/08/09 16:56
KNJK 091656Z VRB03KT 10SM CLR 32/04 A2980 RMK AO2 SLP106 T03220044 

2010/08/09 16:56
PHBK 091656Z AUTO 11004KT 10SM CLR 23/16 A3009 RMK AO2 SLP190 T02330161 TSNO $ 

2010/08/09 16:56
KNXP 091656Z 00000KT CLR 28/M01 A2999 RMK AO2 SLP117 T02831011 $ 

2010/08/09 16:56
K2WX 091656Z AUTO 18015G20KT 29/16 A2985 RMK AO1 SLP079 T02940161 

2010/08/09 16:56
KGFA 091656Z AUTO VRB05KT 10SM CLR 25/08 A2989 RMK AO2 SLP116 T02500078 

2010/08/09 16:56
KLWS 091656Z 30005KT 10SM CLR 22/11 A2985 RMK AO2 SLP097 T02220106 

2010/08/09 16:56
KFLG 091656Z VRB06KT 10SM CLR 21/09 A3030 RMK AO2 SLP163 T02060089 

2010/08/09 16:56
KSXT 091656Z AUTO VRB04KT M1/4SM -RA FG VV001 13/12 A3000 RMK AO2 SLP131 P0000 T01280117 TSNO 

2010/08/09 16:56
K8D3 091656Z AUTO 14004KT 29/21 A2991 RMK AO2 SLP110 T02940211 PWINO TSNO 

2010/08/09 16:56
KNUQ 091656Z AUTO 09004KT 10SM CLR 18/12 A2992 RMK AO2 SLP135 T01780117 TSNO 

2010/08/09 16:55
KBKN 091655Z AUTO 16007KT 020V020 10SM CLR 36/20 A2989 RMK AO2

2010/08/09 16:56
KCEC 091656Z AUTO 33004KT 8SM OVC006 13/12 A2996 RMK AO2 SLP145 T01280117

2010/08/09 16:55
KDCM 091655Z AUTO 04004KT 5SM HZ SCT038 32/26 A3006 RMK AO2 LTG DSNT E AND SE

2010/08/09 16:56
KDIK 091656Z AUTO 10010KT 10SM CLR 28/13 A2990 RMK AO2 SLP104 T02780128

2010/08/09 16:56
KDUG 091656Z AUTO 00000KT 10SM CLR 27/17 A3010 RMK AO2 SLP122 T02670172

2010/08/09 16:56
KDUJ 091656Z AUTO 00000KT 10SM CLR 28/16 A3007 RMK AO2 SLP166 T02780156

2010/08/09 16:56
KEAU 091656Z VRB04KT 8SM BKN013 28/23 A2990 RMK AO2 SLP118 T02830233

2010/08/09 16:55
KEIK 091655Z AUTO 00000KT 10SM SCT120 25/11 A3011 RMK AO2

2010/08/09 16:55
KEKM 091655Z 11004KT 10SM SCT045 SCT060 BKN110 27/20 A2998 RMK AO2

2010/08/09 16:56
KEKO 091656Z AUTO VRB03KT 10SM BKN100 24/02 A3002 RMK AO2 SLP106 T02440022

2010/08/09 16:55
KFBG 091655Z 06003KT 7SM FEW030 SCT045 SCT150 32/20 A3003 RMK AO2A SLP167 WND DATA ESTMD ALSTG/SLP ESTMD

2010/08/09 16:56
KGRD 091656Z AUTO VRB03KT 10SM CLR 33/23 A3007 RMK AO2 SLP173 T03280228

2010/08/09 16:53
KGRR 091653Z COR 19007KT 10SM FEW060 SCT100 BKN160 25/22 A2994 RMK AO2 RAB1556E50 SLP134 P0000 T02500222

2010/08/09 16:55
KHFF 091655Z AUTO 00000KT 10SM CLR 33/21 A3006 RMK AO2 SLP174 T03280213 $

2010/08/09 16:55
KHVS 091655Z AUTO 11004KT 10SM SCT040 31/22 A3005 RMK AO2

2010/08/09 16:56
KIGX 091656Z AUTO VRB04KT 10SM BKN048 BKN065 32/20 A3005 RMK AO2 SLP170 T03220200 $

2010/08/09 16:56
KINW 091656Z AUTO 10SM CLR 24/13 A3016 RMK AO2 SLP144 T02390133 $

2010/08/09 16:56
KJMS 091656Z AUTO 19010KT 10SM CLR 31/21 A2989 RMK AO2 SLP113 T03060206

2010/08/09 16:56
KLNR 091656Z AUTO 31008KT 10SM SCT022 28/22 A2993 RMK AO2 SLP124 T02780217

2010/08/09 16:55
KLUX 091655Z AUTO 29003KT 10SM CLR 32/25 A3006 RMK AO2 LTG DSNT E

2010/08/09 16:56
KM19 091656Z AUTO 27005KT 10SM CLR A2996 RMK AO2 SLPNO $

2010/08/09 16:55
KMAO 091655Z AUTO 11008KT 10SM CLR 32/22 A3003 RMK AO2 LTG DSNT E AND SE

2010/08/09 16:55
KMKS 091655Z AUTO 06010KT 10SM CLR 32/21 A3001 RMK AO2 TSNO

2010/08/09 16:56
KMOB 091656Z VRB05KT 10SM FEW028 SCT200 33/23 A3000 RMK AO2 SLP157 T03280233

2010/08/09 16:56
KMQY 091656Z 08009KT 10SM SCT042 BKN060 31/24 A3001 RMK AO2 T00000000 SLP151 $

2010/08/09 16:56
KMRH 091656Z AUTO VRB03KT 10SM SCT017 BKN024 BKN035 28/24 A3004 RMK AO2 RAB06E21B38E49 SLP174 P0000 T02830244 TSNO

2010/08/09 16:50
KMWA 091650Z 25005KT 15SM SCT037 SCT090 34/22 A2996

2010/08/09 16:55
KNQA 091655Z COR 00000KT 10SM SCT100 BKN250 34/27 A2997 RMK

2010/08/09 16:55
KO22 091655Z AUTO 14004KT 10SM CLR 26/09 A2994 RMK AO1

2010/08/09 16:56
KOFK 091656Z AUTO VRB03KT 9SM CLR 26/21 A2991 RMK AO2 SLP116 T02610211

2010/08/09 16:55
KPVF 091655Z AUTO 00000KT 10SM CLR 24/11 A2996 RMK AO1

2010/08/09 16:55
KRCE 091655Z AUTO 20009G15KT 10SM CLR 34/22 A2995 RMK AO2

2010/08/09 16:56
KRDM 091656Z 00000KT 10SM CLR 19/08 A2995 RMK AO2 SLP119 T01940083

2010/08/09 16:56
KSFO 091656Z 17005KT 10SM R28R/6000VP6000FT FEW010 BKN017 17/11 A2993 RMK AO2 SLP134 T01670111

2010/08/09 16:56
KSLE 091656Z 33005KT 10SM OVC023 16/10 A2999 RMK AO2 SLP156 T01610100

2010/08/09 16:55
KSMS 091655Z AUTO 05006KT 5SM HZ FEW039 32/23 A3004 RMK AO2

2010/08/09 16:56
KSRC 091656Z AUTO 21004KT CLR 37/23 A2996 RMK AO2 TSNO T03720233 SLP146 $

2010/08/09 16:55
KTME 091655Z AUTO 17006KT 10SM CLR 33/24 A2998 RMK AO2

2010/08/09 16:56
KTPH 091656Z AUTO 18006KT 10SM CLR 22/01 A3010 RMK AO2 SLP121 T02220006

2010/08/09 16:50
KTRK 091650Z 00000KT 10SM FEW002 10/10 A3012 RMK NOSPCI

2010/08/09 16:56
KUKI 091656Z AUTO 11004KT 10SM CLR 17/12 A2990 RMK AO2 SLP117 T01720122

2010/08/09 16:56
PAAK 091656Z AUTO 27022G31KT 2SM OVC003 08/06 A2963 RMK AO1 PNO

2010/08/09 16:56
PACM 091656Z AUTO 15009KT 1SM -RA BR BKN013 BKN021 OVC100 10/09 A2924 RMK AO2 TSNO T01000088 OVC V BKN P0000 SLP896 $

2010/08/09 16:56
PAHP 091656Z AUTO 11012KT 10SM SCT006 BKN013 OVC020 10/08 A2918 RMK AO1 PNO TSNO

2010/08/09 16:55
PGUA 091655Z AUTO 16003KT 10SM BKN048 BKN200 BKN230 25/ A2989 RMK AO2 DZB1619E1646 CIG 040 RWY24L SLP103 P0000 T0246 VISNO RWY24L $

2010/08/09 16:56
PASH 091656Z AUTO 07010KT 10SM FEW070 FEW090 SCT120 14/11 A2939 RMK AO1 PNO

2010/08/09 16:56
PASK 091656Z AUTO 08015KT 10SM BKN040 OVC047 14/11 A2944 RMK AO1 PNO

2010/08/09 16:56
PASL 091656Z AUTO 14006KT 3SM OVC010 11/09 A2950 RMK AO1 PNO

2010/08/09 16:56
PASM 091656Z AUTO 14009G15KT 7SM BKN005 OVC014 09/08 A2931 RMK AO1 PNO

2010/08/09 16:56
PASX 091656Z AUTO 11007KT 10SM BKN055 BKN070 OVC090 14/09 A2961 RMK AO1 PNO

2010/08/09 16:56
PATG 091656Z AUTO 17020KT 2 1/2SM BKN006 OVC013 10/09 A2942 RMK AO1 PNO

2010/08/09 16:56
PAUN 091656Z AUTO 09008KT 4SM FEW030 SCT048 BKN050 12/09 A2937 RMK AO1 PNO

2010/08/09 16:56
PAVD 091656Z 09004KT 1SM SCT001 OVC010 11/09 A2981 RMK AO1 1647Z WEA

2010/08/09 16:56
PAWG 091656Z 01003KT 10SM SCT005 BKN030 OVC050 12/11 A3001 RMK AO1 WEA

2010/08/09 16:56
PAWN 091656Z AUTO 02008KT 10SM CLR 13/08 A2949 RMK AO1 PNO

2010/08/09 16:56
PAWS 091656Z AUTO 06005KT 10SM OVC070 13/09 A2963 RMK AO1 PNO

2010/08/09 16:56
PAZK 091656Z AUTO 21003KT 10SM CLR 08/04 A2970 RMK AO1 PNO

2010/08/09 16:56
PAAK 091656Z AUTO 27022G31KT 2SM OVC003 08/06 A2963 RMK AO1 PNO

2010/08/09 16:56
PABL 091656Z AUTO 10010KT 10SM OVC090 12/11 A2941 RMK AO1 PNO

2010/08/09 16:50
PABN 091650Z 35007KT 20SM BKN060 BKN090 12/05 A2969 RMK NOSPECI

2010/08/09 16:53
PABT 091653Z COR 03005KT 10SM FEW011 SCT050 BKN070 13/10 A2957 RMK AO2 SLP021 RAE36 SHRA VC N P0001 T01330100 $

2010/08/09 16:56
PABV 091656Z AUTO 00000KT 10SM BKN080 OVC090 13/09 A2962 RMK AO1 PNO

2010/08/09 16:53
PACD 091653Z COR 11006KT 10SM BKN043 BKN075 12/08 A2951 RMK AO2 SLP993 T01170083

2010/08/09 16:56
PACM 091656Z AUTO 15009KT 1SM -RA BR BKN013 BKN021 OVC100 10/09 A2924 RMK AO2 TSNO T01000088 OVC V BKN P0000 SLP896 $

2010/08/09 16:56
PADK 091656Z 30012KT 8SM OVC030 10/07 A2970 RMK AO1 PNO

2010/08/09 16:56
PAEM 091656Z AUTO 11012KT 10SM FEW009 BKN016 OVC023 10/07 A2925 RMK AO1 PNO

2010/08/09 16:56
PAFE 091656Z AUTO 17004KT 10SM SCT012 OVC030 13/10 A3001 RMK AO1 PNO

2010/08/09 16:56
PAFM 091656Z AUTO 04004KT 10SM SCT075 BKN095 OVC120 12/08 A2951 RMK AO1 PNO

2010/08/09 16:56
PAGL 091656Z AUTO 17012KT 10SM OVC028 13/09 A2938 RMK AO1 PNO

2010/08/09 16:56
PAGM 091656Z AUTO 06011KT 1/2SM OVC003 09/07 A2925 RMK AO1

2010/08/09 16:56
PAGS 091656Z AUTO 00000KT 10SM OVC030 13/12 A2996 RMK AO1 PNO

2010/08/09 16:56
PAHP 091656Z AUTO 11012KT 10SM SCT006 BKN013 OVC020 10/08 A2918 RMK AO1 PNO TSNO

2010/08/09 16:56
PAHY 091656Z AUTO 00000KT 10SM OVC016 13/12 A3000 RMK AO1 PNO

2010/08/09 16:56
PAII 091656Z AUTO 14007KT 7SM OVC018 10/09 A2958 RMK AO1 PNO

2010/08/09 16:56
PAIN 091656Z AUTO 00000KT 10SM OVC046 11/08 A2962 RMK AO1 PNO

2010/08/09 16:56
PAJC 091656Z AUTO 25010KT 10SM BKN006 OVC018 13/07 A2955 RMK AO1 PNO

2010/08/09 16:56
PAKK 091656Z AUTO 10004KT 1 1/4SM OVC005 12/11 A2935 RMK AO1 PNO

2010/08/09 16:56
PAKP 091656Z AUTO 02008KT 3/4SM OVC003 07/06 A2960 RMK AO1

2010/08/09 16:50
PALV 091650Z 27005KT 3SM BR SCT007 OVC020 11/11 A2960 RMK EST PASS CLSD

2010/08/09 16:56
PAMD 091656Z AUTO 12008KT 1/4SM OVC006 12/11 A2977 RMK AO1 PNO

2010/08/09 16:56
PAMH 091656Z RMK AO1 PNO

2010/08/09 16:56
PAMM 091656Z AUTO 20003KT 10SM FEW021 BKN036 OVC044 14/11 A3004 RMK AO1 PNO

2010/08/09 16:56
PAMY 091656Z 15009KT 10SM BKN041 OVC047 09/07 A2917 RMK AO1

2010/08/09 16:56
PANI 091656Z AUTO 09004KT 10SM FEW038 OVC060 12/10 A2939 RMK AO1 PNO

2010/08/09 16:56
PANV 091656Z AUTO 00000KT 6SM SCT004 BKN015 OVC048 11/09 A2939 RMK AO1 PNO

2010/08/09 16:56
PAOU 091656Z AUTO 00000KT 8SM OVC021 11/08 A2954 RMK AO2 PWINO TSNO T01110083 SLP006 $

2010/08/09 16:56
PAPG 091656Z 00000KT 2 1/2SM SCT003 BKN014 OVC034 11/10 A3000 RMK AO1 WEA

2010/08/09 16:56
PAPH 091656Z AUTO 33003KT 10SM OVC039 11/09 A2954 RMK AO1 PNO

2010/08/09 16:56
PAPN 091656Z AUTO 15006KT 9SM OVC032 11/09 A2955 RMK AO2 PWINO TSNO T01110094 SLP009

2010/08/09 16:56
PARC 091656Z AUTO 06007KT 10SM CLR 09/04 A2968 RMK AO1 PNO

2010/08/09 16:56
PASA 091656Z AUTO 07011KT 1/2SM OVC006 10/08 A2924 RMK AO1 PNO

2010/08/09 16:56
PASD 091656Z 19012G18KT 5SM BKN014 OVC020 11/09 A2960 RMK AO1 WEA

2010/08/09 16:53
KPQN 091653Z AUTO 11004KT 10SM CLR 29/23 A2994 RMK AO2

2010/08/09 16:54
KFGN 091654Z AUTO 17004KT 10SM CLR 23/20 A2987 RMK AO2

2010/08/09 16:53
KPNM 091653Z AUTO 33004KT 10SM SCT011 28/23 A2993 RMK AO2

2010/08/09 16:53
KPWC 091653Z AUTO 23003KT 10SM CLR 28/19 A2995 RMK AO2

2010/08/09 16:53
KFFM 091653Z AUTO 21006KT 10SM CLR 28/19 A2990 RMK AO2

2010/08/09 16:52
KGDB 091652Z AUTO 03004KT 10SM CLR 29/21 A2993 RMK AO2 T02900213

2010/08/09 16:53
KGHW 091653Z AUTO 07003KT 10SM CLR 30/16 A2997 RMK AO2

2010/08/09 16:53
KMWM 091653Z AUTO 00000KT 10SM SCT026 27/22 A2993 RMK AO2

2010/08/09 16:55
KULM 091655Z AUTO 11005KT 10SM CLR 28/23 A2992 RMK AO2

2010/08/09 16:53
KBBB 091653Z AUTO 15003KT 10SM CLR 30/22 A2996 RMK AO2

2010/08/09 16:53
KTWM 091653Z AUTO 15004KT 10SM CLR 25/21 A2990 RMK AO2

2010/08/09 16:55
KMGG 091655Z AUTO 00000KT 10SM CLR 30/23 A2993 RMK AO2 T02970234

2010/08/09 16:49
KMOX 091649Z AUTO 15003KT 10SM CLR 30/20 A2990 RMK AO2

2010/08/09 16:54
KONZ 091654Z AUTO 27005KT 10SM CLR 29/21 A2995 RMK AO2

2010/08/09 16:53
KTEW 091653Z AUTO 22004KT 10SM RA SCT017 SCT030 SCT110 23/21 A2998 RMK AO2

2010/08/09 16:50
KCVH 091650Z AUTO 00000KT 10SM OVC011 15/12 A2995 RMK AO1

2010/08/09 16:56
KDVP 091656Z AUTO 09005KT 10SM SCT019 28/21 A2995 RMK AO2 T02810211

2010/08/09 16:54
KDYT 091654Z AUTO 05005KT 10SM CLR 23/21 A2991 RMK AO2

2010/08/09 16:59
KFSO 091659Z AUTO 22003KT 10SM BKN070 BKN085 26/21 A2993 RMK AO2

2010/08/09 16:54
KFBL 091654Z AUTO 00000KT 10SM CLR 29/21 A2993 RMK AO2

2010/08/09 16:58
KLYV 091658Z AUTO 00000KT 10SM BKN018 27/22 A2992 RMK AO2

2010/08/09 16:55
KEFK 091655Z AUTO 23008KT 10SM SCT040 SCT050 24/17 A2995 RMK AO2

2010/08/09 16:54
KRRT 091654Z AUTO 06004KT 10SM CLR 26/22 A2988 RMK AO2 TSNO

2010/08/09 16:54
KTOB 091654Z AUTO 24004KT 10SM SCT015 28/24 A2995 RMK AO2

2010/08/09 16:53
KLXL 091653Z AUTO 01004KT 10SM CLR 28/18 A2993 RMK AO2

2010/08/09 16:52
KEVM 091652Z AUTO 13004KT 10SM CLR 26/23 A2991 RMK AO1 P0001

2010/08/09 16:53
KELO 091653Z AUTO 24003KT 10SM CLR 26/19 A2991 RMK AO2

2010/08/09 16:54
KROX 091654Z AUTO 10006KT 10SM CLR 29/22 A2987 RMK AO2

2010/08/09 16:54
KSYN 091654Z AUTO 00000KT 10SM CLR 30/23 A2990 RMK AO2 T02990231

2010/08/09 16:56
KVVV 091656Z AUTO 00000KT 10SM CLR 28/20 A2992 RMK AO2

2010/08/09 17:02
KFKA 091702Z AUTO 32005KT 10SM BKN022 BKN026 28/23 A2996 RMK AO2 T02770230

2010/08/09 16:54
KROS 091654Z AUTO 00000KT 10SM SCT007 27/24 A2993 RMK AO2 T02690235

2010/08/09 16:52
KHCD 091652Z AUTO 03003KT 10SM CLR 29/21 A2992 RMK AO2 T02910213

2010/08/09 16:53
KSGS 091653Z AUTO 05004KT 10SM CLR 31/21 A2991 RMK AO2 T03050205

2010/08/09 16:51
KMJQ 091651Z AUTO 19004KT 10SM BKN020 BKN024 25/22 A2995 RMK AO2

2010/08/09 16:54
KHCO 091654Z AUTO 18008KT 10SM CLR 31/19 A2986 RMK AO2

2010/08/09 16:53
KLVN 091653Z AUTO 09003KT 10SM CLR 29/23 A2992 RMK AO2

2010/08/09 16:53
KPEX 091653Z AUTO 30005KT 10SM CLR 29/20 A2994 RMK AO2 T02910197

2010/08/09 16:54
KJMR 091654Z AUTO 00000KT 10SM CLR 26/22 A2995 RMK AO2

2010/08/09 16:54
KJKJ 091654Z AUTO 22006KT 10SM CLR 29/22 A2989 RMK AO2

2010/08/09 16:54
KMVE 091654Z AUTO 00000KT 10SM CLR 29/23 A2991 RMK AO2

2010/08/09 16:53
KTKC 091653Z AUTO 00000KT 10SM CLR 27/22 A2994 RMK AO2 T02740221

2010/08/09 16:54
KGYL 091654Z AUTO 00000KT 10SM CLR 29/21 A2992 RMK AO2 T02930213

2010/08/09 16:54
KDXX 091654Z AUTO 00000KT 10SM CLR 28/21 A2992 RMK AO2

2010/08/09 16:51
KHZX 091651Z AUTO 28003KT 10SM CLR 28/20 A2993 RMK AO2

2010/08/09 16:52
KCDD 091652Z AUTO 00000KT 10SM CLR 27/23 A2993 RMK AO2

2010/08/09 16:54
KSAZ 091654Z AUTO 00000KT 10SM CLR 29/18 A2994 RMK AO2

2010/08/09 16:50
KONA 091650Z AUTO 00000KT 10SM CLR 27/21 A2991 RMK AO2

2010/08/09 16:53
KFOZ 091653Z AUTO 20005KT 10SM CLR 29/21 A2993 RMK AO2

2010/08/09 16:53
KAQP 091653Z AUTO 00000KT 10SM CLR 28/23 A2992 RMK AO2

2010/08/09 16:54
KETH 091654Z AUTO 00000KT 10SM CLR 29/18 A2995 RMK AO2

2010/08/09 16:53
KOVL 091653Z AUTO 04003KT 10SM CLR 28/19 A2991 RMK AO2 T02750187

2010/08/09 16:52
KLJF 091652Z AUTO 00000KT 10SM CLR 29/21 A2993 RMK AO2

2010/08/09 16:56
KXVG 091656Z AUTO 23003KT 10SM CLR 28/21 A2992 RMK AO2

2010/08/09 16:54
KORB 091654Z AUTO 00000KT 10SM CLR 27/19 A2990 RMK AO2

2010/08/09 16:50
KMZH 091650Z AUTO 00000KT 10SM CLR 28/22 A2991 RMK AO2

2010/08/09 16:53
KBFW 091653Z AUTO 19006KT 10SM CLR 25/19 A2990 RMK AO2

2010/08/09 16:56
K20V 091656Z AUTO 00000KT 10SM SCT080 21/06 A3028 RMK AO2

2010/08/09 16:48
K4BM 091648Z AUTO 00000KT 10SM 13/07 A3057 RMK AO2

2010/08/09 16:52
K5SM 091652Z AUTO 00000KT 7SM -RA 09/08 A3052 RMK AO2

2010/08/09 16:54
K7BM 091654Z AUTO 10003KT 10SM OVC100 17/10 A3043 RMK AO2

2010/08/09 16:52
KABI 091652Z 23008KT 9SM CLR 32/22 A3000 RMK AO2 SLP127 T03220222

2010/08/09 16:54
KAVP 091654Z AUTO 25011G16KT 10SM CLR 32/13 A3001 RMK AO2 SLP150 T03220133 TSNO

2010/08/09 16:58
KBDU 091658Z AUTO 03003KT 10SM BKN100 27/13 A3012 RMK AO2

2010/08/09 16:56
KBMI 091656Z 19005KT 10SM CLR 30/24 A2996 RMK AO2 T03000238 SLP128 $

2010/08/09 16:56
KBOK 091656Z AUTO VRB04KT 6SM BR OVC003 12/12 A2996 RMK AO2 T01160116 SLP145

2010/08/09 16:53
KBTR 091653Z VRB05KT 10SM SCT030 SCT050 SCT070 33/25 A2998 RMK AO2 SLP149 T03330250

2010/08/09 16:54
KBTV 091654Z 20007KT 10SM FEW050 SCT110 27/19 A2992 RMK AO2 RAE04 SLP132 P0000 T02720194

2010/08/09 16:57
KCCU 091657Z AUTO 00000KT 10SM BKN023 BKN037 OVC080 12/06 A3058 RMK AO2

2010/08/09 16:53
KCHA 091653Z VRB04KT 10SM FEW030 SCT120 29/22 A3003 RMK AO2 SLP161 T02940222

2010/08/09 16:55
KCMA 091655Z 00000KT 8SM SCT008 17/13 A2992 RMK AO2 SLP141 T01720128

2010/08/09 16:55
KCNK 091655Z AUTO VRB04KT 10SM CLR 34/21 A2987 RMK AO2 SLP095 T03390211

2010/08/09 17:02
KCPW 091702Z AUTO 23010KT 10SM OVC008 09/06 A3057 RMK AO2

2010/08/09 16:53
KDAB 091653Z 10008G16KT 10SM SCT022 SCT110 31/24 A2995 RMK AO2 SLP140 T03110244

2010/08/09 16:55
KDLH 091655Z 00000KT 10SM FEW008 28/19 A2993 RMK AO2 SLP129 T02780194

2010/08/09 16:55
KEAT 091655Z AUTO 31011KT 10SM CLR 22/09 A2983 RMK AO2 SLP093 T02220094

2010/08/09 16:54
KFWA 091654Z VRB03KT 9SM FEW040 SCT140 BKN250 30/21 A3000 RMK AO2 SLP153 T03000211

2010/08/09 16:55
KGPI 091655Z VRB03KT 10SM CLR 21/11 A2990 RMK AO2 SLP113 T02060106

2010/08/09 16:54
KGSO 091654Z 28006KT 10SM FEW048 32/20 A3006 RMK AO2 SLP167 T03170200

2010/08/09 16:55
KIRK 091655Z AUTO 14011KT 10SM CLR 26/22 A2993 RMK AO2 SLP129 T02560222

2010/08/09 16:55
KLIC 091655Z AUTO 16009G15KT 10SM CLR 25/14 A3014 RMK AO2 SLP124 T02500144

2010/08/09 16:55
KLLJ 091655Z AUTO 00000KT 10SM OVC090 17/09 A3004 RMK AO2 SLP116 T01720094

2010/08/09 16:53
KLXV 091653Z AUTO VRB04KT 10SM BKN100 17/06 A3041 RMK AO2 SLP117 T01670061 TSNO

2010/08/09 16:55
KMKG 091655Z 22011KT 10SM FEW011 BKN100 27/23 A2993 RMK AO2 SLP132 T02670228

2010/08/09 16:53
KMSN 091653Z 30005KT 10SM SCT022 BKN029 26/21 A2993 RMK AO2 SLP130 T02610206

2010/08/09 16:53
KOVE 091653Z AUTO 00000KT 10SM CLR 21/13 A2990 RMK AO2 SLP125 T02060133 TSNO $

2010/08/09 16:53
KRIL 091653Z AUTO 36003KT 10SM BKN100 17/11 A3022 RMK AO2 RAE1556 SLP175 P0000 T01720106 TSNO

2010/08/09 16:55
KRNO 091655Z 00000KT 10SM FEW090 21/06 A3003 RMK AO2 SLP120 T02110056

2010/08/09 16:54
KROA 091654Z 00000KT 9SM SCT040 31/21 A3008 RMK AO2 SLP170 T03060206

2010/08/09 16:53
KSAV 091653Z 06010G18KT 10SM FEW030 SCT250 34/21 A3000 RMK AO2 SLP158 T03390206

2010/08/09 16:55
KSCK 091655Z VRB06KT 10SM CLR 20/13 A2989 RMK AO2 SLP120 T02000128

2010/08/09 16:53
KSGR 091653Z 00000KT 10SM FEW034 32/23 A2996 RMK AO2 SLP153 T03220228

2010/08/09 16:53
KTLH 091653Z 06007KT 10SM FEW050 33/20 A2997 RMK AO2 SLP147 T03330200

2010/08/09 16:53
KTRI 091653Z 28005KT 10SM FEW050 SCT150 32/19 A3009 RMK AO2 SLP172 T03170194

2010/08/09 16:53
KTYS 091653Z 25005KT 9SM FEW036 SCT070 32/23 A3005 RMK AO2 SLP163 T03170228

2010/08/09 16:48
KVCV 091648Z 00000KT 10SM SKC 26/M03 A2997

2010/08/09 17:00
KVTP 091700Z AUTO 27005KT 10SM SCT080 BKN120 16/08 A3047 RMK AO2

2010/08/09 16:50
KWYS 091650Z AUTO 12003KT 10SM FEW080 SCT090 17/10 A3015 RMK AO2

2010/08/09 16:55
K0A9 091655Z AUTO 25007KT 10SM FEW044 31/20 A3009 RMK

2010/08/09 16:56
K1M4 091656Z AUTO 23004KT 10SM SCT035 BKN080 33/24 A3004 RMK AO2 T03270238 BKN V SCT LTG DSNT W SLP167

2010/08/09 16:50
KADS 091650Z 19006KT 13SM SKC 33/23 A2995

2010/08/09 16:56
KAND 091656Z AUTO 22007KT 10SM SCT043 33/21 A3005 RMK AO2 SLP164 T03330211

2010/08/09 16:55
KARW 091655Z AUTO 04011G14KT 10SM CLR 33/21 A2999 RMK AO2

2010/08/09 16:55
KBDN 091655Z AUTO 25005KT 10SM CLR 19/09 A2998 RMK AO2

2010/08/09 16:49
KVWU 091649Z AUTO 00000KT 10SM CLR 29/21 A2989 RMK AO2

2010/08/09 16:50
KAEL 091650Z AUTO 22005KT 10SM SCT026 SCT042 28/22 A2993 RMK AO2

2010/08/09 16:54
KOWA 091654Z AUTO 23005KT 10SM SCT018 27/23 A2993 RMK AO2

2010/08/09 16:53
K29G 091653Z AUTO 26004KT 10SM CLR 28/17 A3003 RMK AO2 T02820173 PWINO

2010/08/09 16:53
KMRT 091653Z AUTO 23007KT 10SM CLR 29/20 A3007 RMK AO2 T02940202

2010/08/09 16:54
KIKW 091654Z AUTO 23007KT 10SM BKN110 26/20 A2990 RMK AO2 T02580203

2010/08/09 16:49
MMHO 091649Z 00000KT 10SM SKC 33/23 A2982 RMK HZY

2010/08/09 16:45
MMLT 091645Z 06008KT 8SM FEW200 33/24 A2981 RMK 8/001

2010/08/09 16:46
MMSL 091646Z 20012KT 12SM SCT200 33/21 A2987 RMK 8/001 CU

2010/08/09 16:45
MMTJ 091645Z 29003KT 6SM SKC 19/12 A2996 RMK HZY ST W

2010/08/09 16:55
PAIM 091655Z AUTO 06006KT 10SM OVC075 13/09 A2951 RMK AO1 T01280095

2010/08/09 16:55
PATL 091655Z AUTO 00000KT 10SM OVC006 11/11 A2950 RMK AO1 T01060106

2010/08/09 16:55
PASV 091655Z AUTO 19006KT 10SM OVC037 11/08 A2950 RMK AO1 T01060084

2010/08/09 16:54
K12N 091654Z AUTO 21008KT 30/19 A3001 RMK AO2 SLP154 T03000189 PWINO TSNO

2010/08/09 16:54
KCOU 091654Z 00000KT 10SM CLR 31/25 A2996 RMK AO2 SLP134 T03110250

2010/08/09 16:54
KBKB 091654Z AUTO 22004KT 10SM CLR 33/23 A2995 RMK AO2 SLP167 T03330228

2010/08/09 16:54
KCAR 091654Z AUTO 25009KT 10SM FEW020 SCT027 OVC034 22/18 A2987 RMK AO2 PK WND 31030/1612 SLP114 T02170178

2010/08/09 16:54
KRIC 091654Z VRB03KT 10SM SCT049 BKN250 32/19 A3002 RMK AO2 SLP169 T03220194

2010/08/09 16:54
K1V4 091654Z AUTO 26/17 A2993 RMK AO2 SLP124 T02560172 PWINO TSNO

2010/08/09 16:54
KMQE 091654Z AUTO 26009G17KT 29/17 A2998 RMK AO1 SLP158 T02940172

2010/08/09 16:53
KMWT 091653Z AUTO VRB03KT 10SM CLR 33/22 A2998 RMK AO2 SLP136 T03330222 TSNO

2010/08/09 16:53
KRTN 091653Z AUTO 11004KT 10SM CLR 29/13 A3017 RMK AO2 SLP105 T02890128 TSNO

2010/08/09 16:55
KDRA 091655Z AUTO VRB05KT 10SM CLR 27/06 A2999 RMK AO2 SLP112 T02720061 TSNO

2010/08/09 16:54
KAKQ 091654Z AUTO 16005KT 10SM CLR 32/19 A3004 RMK AO2 SLP169 T03220194 TSNO

2010/08/09 16:54
KRFD 091654Z 25009KT 10SM FEW080 SCT150 BKN250 27/21 A2995 RMK AO2 SLP135 T02670206

2010/08/09 16:55
KHON 091655Z AUTO 12005KT 10SM CLR 29/22 A2990 RMK AO2 SLP115 T02890217 TSNO

2010/08/09 16:56
TJSJ 091656Z 06013KT 10SM FEW025 SCT040 SCT090 32/24 A2996 RMK AO2 RAB11E30 SLP144 VCSH S-SW P0000 T03170244

2010/08/09 16:55
KINL 091655Z AUTO 00000KT 10SM CLR 26/20 A2990 RMK AO2 SLP124 T02610200

2010/08/09 16:55
KMBG 091655Z AUTO 15012KT 10SM CLR 29/20 A2988 RMK AO2 SLP105 T02940200 TSNO

2010/08/09 16:56
KJAX 091656Z 06011KT 7SM RA SCT032TCU SCT200 29/24 A2996 RMK AO2 RAB44 SLP146 TCU OHD P0000 T02940244

2010/08/09 16:56
KABQ 091656Z 00000KT 10SM FEW060 SCT140 26/12 A3017 RMK AO2 SLP127 T02560122 $

2010/08/09 16:55
KPOE 091655Z AUTO 32003KT 10SM CLR 33/23 A2999 RMK AO2 SLP153 T03280233

2010/08/09 16:56
KSHV 091656Z VRB03KT 10SM FEW040 SCT300 34/22 A2997 RMK AO2 SLP144 T03440222

2010/08/09 16:55
KANJ 091655Z AUTO 12005KT 10SM SCT022 BKN028 BKN060 26/20 A2989 RMK AO2 SLP116 T02560200

2010/08/09 16:55
KPHP 091655Z AUTO 14010KT 10SM CLR 30/17 A2993 RMK AO2 SLP112 T03000172 TSNO

2010/08/09 16:55
KAAT 091655Z AUTO 11004KT 10SM CLR 22/05 A3000 RMK AO2 SLP116 T02170050 TSNO

2010/08/09 16:53
KRQE 091653Z AUTO VRB04KT 10SM FEW060 22/09 A3028 RMK AO2 SLP141 T02220089 TSNO

2010/08/09 16:56
KCHS 091656Z 04009KT 10SM FEW025 33/23 A3000 RMK AO2 SLP158 T03280233

2010/08/09 16:56
KSDF 091656Z 00000KT 8SM FEW035 SCT150 SCT200 34/21 A2999 RMK AO2 SLP147 T03440211

2010/08/09 16:55
KAST 091655Z AUTO 29005KT 4SM BR BKN007 BKN012 OVC026 14/13 A3000 RMK AO2 VIS 2 1/2 RWY 08 RAB03E30 CIG 005V009 SLP159 P0000 T01440128

2010/08/09 16:53
KPQN 091653Z AUTO 11004KT 10SM CLR 29/23 A2994 RMK AO2

2010/08/09 16:54
KFGN 091654Z AUTO 17004KT 10SM CLR 23/20 A2987 RMK AO2

2010/08/09 16:53
KPNM 091653Z AUTO 33004KT 10SM SCT011 28/23 A2993 RMK AO2

2010/08/09 16:53
KPWC 091653Z AUTO 23003KT 10SM CLR 28/19 A2995 RMK AO2

2010/08/09 16:53
KFFM 091653Z AUTO 21006KT 10SM CLR 28/19 A2990 RMK AO2

2010/08/09 16:52
KGDB 091652Z AUTO 03004KT 10SM CLR 29/21 A2993 RMK AO2 T02900213

2010/08/09 16:53
KGHW 091653Z AUTO 07003KT 10SM CLR 30/16 A2997 RMK AO2

2010/08/09 16:53
KMWM 091653Z AUTO 00000KT 10SM SCT026 27/22 A2993 RMK AO2

2010/08/09 16:55
KULM 091655Z AUTO 11005KT 10SM CLR 28/23 A2992 RMK AO2

2010/08/09 16:53
KBBB 091653Z AUTO 15003KT 10SM CLR 30/22 A2996 RMK AO2

2010/08/09 16:53
KTWM 091653Z AUTO 15004KT 10SM CLR 25/21 A2990 RMK AO2

2010/08/09 16:55
KMGG 091655Z AUTO 00000KT 10SM CLR 30/23 A2993 RMK AO2 T02970234

2010/08/09 16:49
KMOX 091649Z AUTO 15003KT 10SM CLR 30/20 A2990 RMK AO2

2010/08/09 16:54
KONZ 091654Z AUTO 27005KT 10SM CLR 29/21 A2995 RMK AO2

2010/08/09 16:53
KTEW 091653Z AUTO 22004KT 10SM RA SCT017 SCT030 SCT110 23/21 A2998 RMK AO2

2010/08/09 16:52
KP69 091652Z AUTO 00000KT 22/13 A2985 RMK AO2 SLP089 T02170128 PWINO TSNO

2010/08/09 16:50
KCVH 091650Z AUTO 00000KT 10SM OVC011 15/12 A2995 RMK AO1

2010/08/09 16:56
KDVP 091656Z AUTO 09005KT 10SM SCT019 28/21 A2995 RMK AO2 T02810211

2010/08/09 16:54
KDYT 091654Z AUTO 05005KT 10SM CLR 23/21 A2991 RMK AO2

2010/08/09 16:59
KFSO 091659Z AUTO 22003KT 10SM BKN070 BKN085 26/21 A2993 RMK AO2

2010/08/09 16:54
KFBL 091654Z AUTO 00000KT 10SM CLR 29/21 A2993 RMK AO2

2010/08/09 16:58
KLYV 091658Z AUTO 00000KT 10SM BKN018 27/22 A2992 RMK AO2

2010/08/09 16:55
KEFK 091655Z AUTO 23008KT 10SM SCT040 SCT050 24/17 A2995 RMK AO2

2010/08/09 16:54
KRRT 091654Z AUTO 06004KT 10SM CLR 26/22 A2988 RMK AO2 TSNO

2010/08/09 16:54
KTOB 091654Z AUTO 24004KT 10SM SCT015 28/24 A2995 RMK AO2

2010/08/09 16:53
KLXL 091653Z AUTO 01004KT 10SM CLR 28/18 A2993 RMK AO2

2010/08/09 16:52
KEVM 091652Z AUTO 13004KT 10SM CLR 26/23 A2991 RMK AO1 P0001

2010/08/09 16:53
KELO 091653Z AUTO 24003KT 10SM CLR 26/19 A2991 RMK AO2

2010/08/09 16:54
KROX 091654Z AUTO 10006KT 10SM CLR 29/22 A2987 RMK AO2

2010/08/09 16:54
KSYN 091654Z AUTO 00000KT 10SM CLR 30/23 A2990 RMK AO2 T02990231

2010/08/09 16:56
KVVV 091656Z AUTO 00000KT 10SM CLR 28/20 A2992 RMK AO2

2010/08/09 16:54
KROS 091654Z AUTO 00000KT 10SM SCT007 27/24 A2993 RMK AO2 T02690235

2010/08/09 16:52
KHCD 091652Z AUTO 03003KT 10SM CLR 29/21 A2992 RMK AO2 T02910213

2010/08/09 16:53
KSGS 091653Z AUTO 05004KT 10SM CLR 31/21 A2991 RMK AO2 T03050205

2010/08/09 16:51
KMJQ 091651Z AUTO 19004KT 10SM BKN020 BKN024 25/22 A2995 RMK AO2

2010/08/09 16:54
KHCO 091654Z AUTO 18008KT 10SM CLR 31/19 A2986 RMK AO2

2010/08/09 16:53
KLVN 091653Z AUTO 09003KT 10SM CLR 29/23 A2992 RMK AO2

2010/08/09 16:53
KPEX 091653Z AUTO 30005KT 10SM CLR 29/20 A2994 RMK AO2 T02910197

2010/08/09 16:54
KJMR 091654Z AUTO 00000KT 10SM CLR 26/22 A2995 RMK AO2

2010/08/09 16:54
KJKJ 091654Z AUTO 22006KT 10SM CLR 29/22 A2989 RMK AO2

2010/08/09 16:54
KMVE 091654Z AUTO 00000KT 10SM CLR 29/23 A2991 RMK AO2

2010/08/09 16:53
KTKC 091653Z AUTO 00000KT 10SM CLR 27/22 A2994 RMK AO2 T02740221

2010/08/09 16:54
KGYL 091654Z AUTO 00000KT 10SM CLR 29/21 A2992 RMK AO2 T02930213

2010/08/09 16:54
KDXX 091654Z AUTO 00000KT 10SM CLR 28/21 A2992 RMK AO2

2010/08/09 16:51
KHZX 091651Z AUTO 28003KT 10SM CLR 28/20 A2993 RMK AO2

2010/08/09 16:52
KCDD 091652Z AUTO 00000KT 10SM CLR 27/23 A2993 RMK AO2

2010/08/09 16:54
KSAZ 091654Z AUTO 00000KT 10SM CLR 29/18 A2994 RMK AO2

2010/08/09 16:50
KONA 091650Z AUTO 00000KT 10SM CLR 27/21 A2991 RMK AO2

2010/08/09 16:53
KFOZ 091653Z AUTO 20005KT 10SM CLR 29/21 A2993 RMK AO2

2010/08/09 16:53
KAQP 091653Z AUTO 00000KT 10SM CLR 28/23 A2992 RMK AO2

2010/08/09 16:54
KETH 091654Z AUTO 00000KT 10SM CLR 29/18 A2995 RMK AO2

2010/08/09 16:53
KOVL 091653Z AUTO 04003KT 10SM CLR 28/19 A2991 RMK AO2 T02750187

2010/08/09 16:52
KLJF 091652Z AUTO 00000KT 10SM CLR 29/21 A2993 RMK AO2

2010/08/09 16:56
KXVG 091656Z AUTO 23003KT 10SM CLR 28/21 A2992 RMK AO2

2010/08/09 16:54
KORB 091654Z AUTO 00000KT 10SM CLR 27/19 A2990 RMK AO2

2010/08/09 16:50
KMZH 091650Z AUTO 00000KT 10SM CLR 28/22 A2991 RMK AO2

2010/08/09 16:53
KBFW 091653Z AUTO 19006KT 10SM CLR 25/19 A2990 RMK AO2

2010/08/09 16:49
KVWU 091649Z AUTO 00000KT 10SM CLR 29/21 A2989 RMK AO2

2010/08/09 16:50
KAEL 091650Z AUTO 22005KT 10SM SCT026 SCT042 28/22 A2993 RMK AO2

2010/08/09 16:54
KOWA 091654Z AUTO 23005KT 10SM SCT018 27/23 A2993 RMK AO2

2010/08/09 16:53
K29G 091653Z AUTO 26004KT 10SM CLR 28/17 A3003 RMK AO2 T02820173 PWINO

2010/08/09 16:53
KMRT 091653Z AUTO 23007KT 10SM CLR 29/20 A3007 RMK AO2 T02940202

2010/08/09 16:54
KIKW 091654Z AUTO 23007KT 10SM BKN110 26/20 A2990 RMK AO2 T02580203

2010/08/09 16:56
KP53 091656Z AUTO 05004KT 27/23 A2986 RMK AO2 SLP109 T02670233 PWINO TSNO

2010/08/09 16:56
KNTU 091656Z 10008KT 10SM SCT030 BKN200 29/23 A3004 RMK AO2 SLP176 T02890228 $

2010/08/09 16:56
KCAE 091656Z VRB06KT 9SM FEW048 33/21 A3003 RMK AO2 SLP163 T03330211

2010/08/09 16:56
KNBT 091656Z AUTO 11004KT 1 1/2SM -RA FEW002 27/24 A3004 RMK AO2 RAB34 SLP177 P0002 T02720244 TSNO

2010/08/09 16:56
KSXT 091656Z AUTO VRB04KT M1/4SM -RA FG VV001 13/12 A3000 RMK AO2 SLP131 P0000 T01280117 TSNO

2010/08/09 16:56
KNXP 091656Z 00000KT CLR 28/M01 A2999 RMK AO2 SLP117 T02831011 $

2010/08/09 16:56
K2WX 091656Z AUTO 18015G20KT 29/16 A2985 RMK AO1 SLP079 T02940161

2010/08/09 16:56
K8D3 091656Z AUTO 14004KT 29/21 A2991 RMK AO2 SLP110 T02940211 PWINO TSNO

2010/08/09 16:56
KLWS 091656Z 30005KT 10SM CLR 22/11 A2985 RMK AO2 SLP097 T02220106

2010/08/09 16:56
KFLG 091656Z VRB06KT 10SM CLR 21/09 A3030 RMK AO2 SLP163 T02060089

2010/08/09 16:56
KGFA 091656Z AUTO VRB05KT 10SM CLR 25/08 A2989 RMK AO2 SLP116 T02500078

2010/08/09 16:56
KNUQ 091656Z AUTO 09004KT 10SM CLR 18/12 A2992 RMK AO2 SLP135 T01780117 TSNO

2010/08/09 16:55
PAIM 091655Z AUTO 06006KT 10SM OVC075 13/09 A2951 RMK AO1 T01280095

2010/08/09 16:55
PATL 091655Z AUTO 00000KT 10SM OVC006 11/11 A2950 RMK AO1 T01060106

2010/08/09 16:55
PASV 091655Z AUTO 19006KT 10SM OVC037 11/08 A2950 RMK AO1 T01060084

2010/08/09 17:02
KFKA 091702Z AUTO 32005KT 10SM BKN022 BKN026 28/23 A2996 RMK AO2 T02770230

2010/08/09 16:54
KNFG 091654Z VRB03KT 7SM FEW017 19/13 A2993 RMK AO2 SLP134 T01940128 $

2010/08/09 16:54
KBKB 091654Z AUTO 22004KT 10SM CLR 33/23 A2995 RMK AO2 SLP167 T03330228

2010/08/09 16:54
KNKT 091654Z 12008KT 10SM -RA FEW060 28/23 A3004 RMK AO2 RAB41 SLP171 P0000 T02830233

2010/08/09 16:55
KBAD 091655Z AUTO VRB04KT 10SM CLR 34/23 A2997 RMK AO2 SLP149 T03420229

2010/08/09 16:55
KGSB 091655Z AUTO 07003KT 10SM CLR 32/19 A3002 RMK AO2 SLP167

2010/08/09 16:55
KHST 091655Z VRB06KT 5SM RA BR BKN007 OVC011 25/24 A2997 RMK AO2A SLP150 P0029 T02480242

2010/08/09 16:55
KOFF 091655Z AUTO 31005KT 9SM CLR 30/24 A2984 RMK AO2 SLP089 T03030241 $

2010/08/09 16:55
KVPS 091655Z 09008KT 10SM SCT039 33/25 A2998 RMK AO2A SLP152 T03280251 $

2010/08/09 16:55
KWRI 091655Z AUTO 25008KT 10SM FEW150 33/19 A2999 RMK AO2 SLP156 T03260189 $

2010/08/09 16:55
KCEF 091655Z AUTO 24005KT 10SM CLR 32/18 A2996 RMK AO2 SLP146 T03230180

2010/08/09 16:54
KFZY 091654Z AUTO 21006KT 9SM FEW038 29/21 A2995 RMK AO2 SLP139 T02890206

2010/08/09 16:55
KLRF 091655Z AUTO 32004KT 10SM CLR 34/25 A2996 RMK AO2 SLP143 T03430250

2010/08/09 16:55
KCBM 091655Z AUTO VRB04KT 10SM FEW034 34/25 A2999 RMK AO2 SLP154 T03410250 $

2010/08/09 16:55
KLSF 091655Z AUTO 08006KT 10SM CLR 34/22 A2999 RMK AO2 SLP155 T03430223 PNO $

2010/08/09 16:55
KMTC 091655Z 26007KT 8SM SCT055 BKN170 OVC210 28/21 A2994 RMK SLP143

2010/08/09 16:55
KMUI 091655Z AUTO VRB04KT 10SM CLR 30/20 A3002 RMK AO2 SLP162 T03040204 $

2010/08/09 16:55
KOZR 091655Z AUTO 06008KT 10SM CLR 33/25 A3000 RMK AO2 SLP154 T03300248 $

2010/08/09 16:55
KRIV 091655Z VRB03KT 10SM CLR 23/12 A2993 RMK AO2A SLP132 T02320124 $

2010/08/09 16:55
KRND 091655Z AUTO 17003KT 10SM CLR 31/21 A2999 RMK AO2 SLP144 T03140214 $

2010/08/09 16:55
KWRI 091655Z AUTO 25008KT 10SM FEW150 33/19 A2999 RMK AO2 SLP156 T03260189 $

2010/08/09 16:53
PABI 091653Z 15009G17KT 110V170 10SM FEW090 BKN110 BKN180 14/06 A2962 RMK AO2 SLP029 T01390056

2010/08/09 16:55
PGUA 091655Z AUTO 16003KT 10SM BKN048 BKN200 BKN230 25/ A2989 RMK AO2 DZB1619E1646 CIG 040 RWY24L SLP103 P0000 T0246 VISNO RWY24L $

2010/08/09 16:55
KAFF 091655Z AUTO VRB04KT 10SM SCT160 22/13 A3022 RMK AO2 SLP136 T02210133

2010/08/09 16:55
KBAD 091655Z AUTO VRB04KT 10SM CLR 34/23 A2997 RMK AO2 SLP149 T03420229

2010/08/09 16:55
KBKF 091655Z 23006KT 70SM FEW080 SCT140 25/13 A3015 RMK SLP143

2010/08/09 16:55
KCBM 091655Z AUTO VRB04KT 10SM FEW034 34/25 A2999 RMK AO2 SLP154 T03410250 $

2010/08/09 16:55
KDAA 091655Z AUTO VRB03KT 10SM CLR 33/21 A3001 RMK AO2 SLP162 T03300212

2010/08/09 16:55
KDYS 091655Z AUTO 18009KT 10SM FEW042 33/22 A2998 RMK AO2 SLP125 T03320218 $

2010/08/09 16:55
KFBG 091655Z 06003KT 7SM FEW030 SCT045 SCT150 32/20 A3003 RMK AO2A SLP167 WND DATA ESTMD ALSTG/SLP ESTMD

2010/08/09 16:55
KGSB 091655Z AUTO 07003KT 10SM CLR 32/19 A3002 RMK AO2 SLP167

2010/08/09 16:55
KHST 091655Z VRB06KT 5SM RA BR BKN007 OVC011 25/24 A2997 RMK AO2A SLP150 P0029 T02480242

2010/08/09 16:55
KIAB 091655Z AUTO 15008KT 10SM CLR 35/21 A2992 RMK AO2 SLP115 T03540208 $

2010/08/09 16:55
KLHW 091655Z AUTO 03014G17KT 10SM CLR 33/21 A2999 RMK AO2 SLP156 T03310215

2010/08/09 16:55
KLSF 091655Z AUTO 08006KT 10SM CLR 34/22 A2999 RMK AO2 SLP155 T03430223 PNO $

2010/08/09 16:55
KMGE 091655Z VRB04KT 7SM BKN045 33/21 A3006 RMK AO2A SLP167 T03270208 $

2010/08/09 16:55
KMTC 091655Z 26007KT 8SM SCT055 BKN170 OVC210 28/21 A2994 RMK SLP143

2010/08/09 16:55
KMUI 091655Z AUTO VRB04KT 10SM CLR 30/20 A3002 RMK AO2 SLP162 T03040204 $

2010/08/09 16:55
KAFF 091655Z AUTO VRB04KT 10SM SCT160 22/13 A3022 RMK AO2 SLP136 T02210133

2010/08/09 16:55
KDYS 091655Z AUTO 18009KT 10SM FEW042 33/22 A2998 RMK AO2 SLP125 T03320218 $

2010/08/09 16:55
KFAF 091655Z AUTO 27004KT 10SM FEW210 30/25 A3003 RMK AO2 SLP170 T03020249 $

2010/08/09 16:55
KFBG 091655Z 06003KT 7SM FEW030 SCT045 SCT150 32/20 A3003 RMK AO2A SLP167 WND DATA ESTMD ALSTG/SLP ESTMD

2010/08/09 16:55
KFCS 091655Z AUTO 35003KT 10SM FEW100 SCT160 22/14 A3018 RMK AO2 SLP143 T02170139

2010/08/09 16:55
KGUS 091655Z 22006KT 10SM FEW140 30/23 A2998 RMK AO2A CLDS LWR RWY05 SLP146 T03010232

2010/08/09 16:55
KLHW 091655Z AUTO 03014G17KT 10SM CLR 33/21 A2999 RMK AO2 SLP156 T03310215

2010/08/09 16:52
KNFW 091652Z 21008KT 10SM CLR 36/21 A2998 RMK AO2 SLP134 T03560211

2010/08/09 16:52
KNHK 091652Z 11010KT 6SM HZ FEW020 BKN250 30/24 A3001 RMK AO2 SLP163 T03000244

2010/08/09 16:53
KNIP 091653Z 07008KT 10SM FEW024 BKN034TCU 31/24 A2997 RMK AO2 RAB30E46 SLP144 TCU E-S P0000 T03110244

2010/08/09 16:53
KNQX 091653Z 20006KT 3SM +RA SCT018CB BKN025 OVC065 27/24 A2994 RMK AO2 SLP137 CB OHD MOV S T1 SET P0015 T02720244 $

2010/08/09 16:52
KNRB 091652Z 06010KT 10SM BKN030TCU 31/23 A2997 RMK AO2 RAB49E50 SLP149 TCU OHD P0000 T03060233

2010/08/09 16:55
KTIK 091655Z 18008KT 10SM CLR 34/22 A2994 RMK AO2A SLP121 T03360222

2010/08/09 16:55
KADW 091655Z AUTO 21007KT 10SM CLR 32/21 A3001 RMK AO2 SLP161 T03180214 $

2010/08/09 16:55
KBAB 091655Z AUTO 20003KT 10SM CLR 20/13 A2988 RMK AO2 SLP118 T02020128 $

2010/08/09 16:55
KDOV 091655Z AUTO VRB05KT 10SM -RA FEW030 30/25 A3001 RMK AO2 RAB1559 SLP164 P0000 T03020249

2010/08/09 16:55
KFFO 091655Z 22005KT 10SM SCT250 31/19 A3002 RMK AO2A SLP160

2010/08/09 16:55
KFHU 091655Z VRB04KT 50SM FEW050 26/17 A3013 RMK SLP134

2010/08/09 16:55
KGTB 091655Z AUTO 23009KT 10SM FEW026 27/20 A2995 RMK AO2 SLP139 T02730201

2010/08/09 16:55
KHIF 091655Z AUTO 16014G22KT 10SM CLR 24/08 A3006 RMK AO2 DZB1557E1558 SLP068 P0000 T02450078

2010/08/09 16:55
KLTS 091655Z AUTO 19008KT 10SM CLR 36/19 A2991 RMK AO2 SLP108 T03560188 $

2010/08/09 16:55
KMUO 091655Z AUTO 09007KT 10SM FEW060 SCT080 BKN110 25/08 A2989 RMK AO2 SLP093 T02450077

2010/08/09 16:55
KSSC 091655Z VRB05KT 10SM SCT039 SCT050 BKN190 33/23 A3003 RMK AO2A SLP166 T03300226 $

2010/08/09 16:55
KSZL 091655Z 00000KT 10SM FEW180 33/25 A2994 RMK AO2A SLP130 T03290245

2010/08/09 16:55
KXMR 091655Z AUTO 15007KT 10SM CLR 30/25 A2994 RMK AO2 DZB1605E1609 SLP140 P0000 T03020250

2010/08/09 16:55
PAEI 091655Z AUTO 00000KT 10SM BKN080 BKN095 13/10 A2958 RMK AO2 RAE1601 SLP016 P0000 T01340097 $

2010/08/09 16:55
PHHI 091655Z AUTO 00000KT 10SM CLR 22/18 A3010 RMK AO2 SLP182 T02160182 $

2010/08/09 16:55
KGTB 091655Z AUTO 23009KT 10SM FEW026 27/20 A2995 RMK AO2 SLP139 T02730201

2010/08/09 16:52
KNHK 091652Z 11010KT 6SM HZ FEW020 BKN250 30/24 A3001 RMK AO2 SLP163 T03000244

2010/08/09 16:53
KNIP 091653Z 07008KT 10SM FEW024 BKN034TCU 31/24 A2997 RMK AO2 RAB30E46 SLP144 TCU E-S P0000 T03110244

2010/08/09 16:53
KNQX 091653Z 20006KT 3SM +RA SCT018CB BKN025 OVC065 27/24 A2994 RMK AO2 SLP137 CB OHD MOV S T1 SET P0015 T02720244 $

2010/08/09 16:52
KNRB 091652Z 06010KT 10SM BKN030TCU 31/23 A2997 RMK AO2 RAB49E50 SLP149 TCU OHD P0000 T03060233

2010/08/09 16:55
KOFF 091655Z AUTO 31005KT 9SM CLR 30/24 A2984 RMK AO2 SLP089 T03030241 $

2010/08/09 16:55
KOZR 091655Z AUTO 06008KT 10SM CLR 33/25 A3000 RMK AO2 SLP154 T03300248 $

2010/08/09 16:55
KRIV 091655Z VRB03KT 10SM CLR 23/12 A2993 RMK AO2A SLP132 T02320124 $

2010/08/09 16:55
KRND 091655Z AUTO 17003KT 10SM CLR 31/21 A2999 RMK AO2 SLP144 T03140214 $

2010/08/09 16:55
KSSC 091655Z VRB05KT 10SM SCT039 SCT050 BKN190 33/23 A3003 RMK AO2A SLP166 T03300226 $

2010/08/09 16:55
KSUU 091655Z AUTO 25017KT 10SM CLR 17/12 A2989 RMK AO2 SLP124 T01740120 RVRNO $

2010/08/09 16:55
KSZL 091655Z 00000KT 10SM FEW180 33/25 A2994 RMK AO2A SLP130 T03290245

2010/08/09 16:55
KTIK 091655Z 18008KT 10SM CLR 34/22 A2994 RMK AO2A SLP121 T03360222

2010/08/09 16:55
KVPS 091655Z 09008KT 10SM SCT039 33/25 A2998 RMK AO2A SLP152 T03280251 $

2010/08/09 16:55
KWRI 091655Z AUTO 25008KT 10SM FEW150 33/19 A2999 RMK AO2 SLP156 T03260189 $

2010/08/09 16:55
KPOE 091655Z AUTO 32003KT 10SM CLR 33/23 A2999 RMK AO2 SLP153 T03280233

2010/08/09 16:55
KADW 091655Z AUTO 21007KT 10SM CLR 32/21 A3001 RMK AO2 SLP161 T03180214 $

2010/08/09 16:55
KBAB 091655Z AUTO 20003KT 10SM CLR 20/13 A2988 RMK AO2 SLP118 T02020128 $

2010/08/09 16:55
KDLF 091655Z AUTO 10011G16KT 10SM SCT024 30/23 A2996 RMK AO2 SLP129 T03010227

2010/08/09 16:50
PTTP 091650Z 06003KT 15SM BKN018TCU OVC300 27/25 A2986 RMK SHRAE25 TCU ALQDS SLP110 T02660251

2010/08/09 16:53
PTRO 091653Z 20004KT 14SM BKN015CB OVC280 25/24 A2988 RMK CB VC ALQDS

2010/08/09 16:54
K12N 091654Z AUTO 21008KT 30/19 A3001 RMK AO2 SLP154 T03000189 PWINO TSNO

2010/08/09 16:54
KCOU 091654Z 00000KT 10SM CLR 31/25 A2996 RMK AO2 SLP134 T03110250

2010/08/09 16:54
KCAR 091654Z AUTO 25009KT 10SM FEW020 SCT027 OVC034 22/18 A2987 RMK AO2 PK WND 31030/1612 SLP114 T02170178

2010/08/09 16:54
KRIC 091654Z VRB03KT 10SM SCT049 BKN250 32/19 A3002 RMK AO2 SLP169 T03220194

2010/08/09 16:54
K1V4 091654Z AUTO 26/17 A2993 RMK AO2 SLP124 T02560172 PWINO TSNO

2010/08/09 16:54
KMQE 091654Z AUTO 26009G17KT 29/17 A2998 RMK AO1 SLP158 T02940172

2010/08/09 16:54
KBUF 091654Z 22013KT 10SM BKN070 OVC130 27/19 A2996 RMK AO2 SLP143 T02670189

2010/08/09 16:54
KROC 091654Z 23007KT 9SM SCT070 SCT130 OVC150 27/21 A2996 RMK AO2 SLP142 T02720206

2010/08/09 16:53
KMWT 091653Z AUTO VRB03KT 10SM CLR 33/22 A2998 RMK AO2 SLP136 T03330222 TSNO

2010/08/09 16:55
KDRA 091655Z AUTO VRB05KT 10SM CLR 27/06 A2999 RMK AO2 SLP112 T02720061 TSNO

2010/08/09 16:54
KAKQ 091654Z AUTO 16005KT 10SM CLR 32/19 A3004 RMK AO2 SLP169 T03220194 TSNO

2010/08/09 16:54
KRFD 091654Z 25009KT 10SM FEW080 SCT150 BKN250 27/21 A2995 RMK AO2 SLP135 T02670206

2010/08/09 16:55
KHON 091655Z AUTO 12005KT 10SM CLR 29/22 A2990 RMK AO2 SLP115 T02890217 TSNO

2010/08/09 16:56
TJSJ 091656Z 06013KT 10SM FEW025 SCT040 SCT090 32/24 A2996 RMK AO2 RAB11E30 SLP144 VCSH S-SW P0000 T03170244

2010/08/09 16:55
KINL 091655Z AUTO 00000KT 10SM CLR 26/20 A2990 RMK AO2 SLP124 T02610200

2010/08/09 16:55
KMBG 091655Z AUTO 15012KT 10SM CLR 29/20 A2988 RMK AO2 SLP105 T02940200 TSNO

2010/08/09 16:56
KJAX 091656Z 06011KT 7SM RA SCT032TCU SCT200 29/24 A2996 RMK AO2 RAB44 SLP146 TCU OHD P0000 T02940244

2010/08/09 16:48
K4BM 091648Z AUTO 00000KT 10SM 13/07 A3057 RMK AO2

2010/08/09 16:52
KABI 091652Z 23008KT 9SM CLR 32/22 A3000 RMK AO2 SLP127 T03220222

2010/08/09 16:54
KAVP 091654Z AUTO 25011G16KT 10SM CLR 32/13 A3001 RMK AO2 SLP150 T03220133 TSNO

2010/08/09 16:53
KBTR 091653Z VRB05KT 10SM SCT030 SCT050 SCT070 33/25 A2998 RMK AO2 SLP149 T03330250

2010/08/09 16:54
KBTV 091654Z 20007KT 10SM FEW050 SCT110 27/19 A2992 RMK AO2 RAE04 SLP132 P0000 T02720194

2010/08/09 16:53
KCHA 091653Z VRB04KT 10SM FEW030 SCT120 29/22 A3003 RMK AO2 SLP161 T02940222

2010/08/09 16:55
KCNK 091655Z AUTO VRB04KT 10SM CLR 34/21 A2987 RMK AO2 SLP095 T03390211

2010/08/09 16:53
KDAB 091653Z 10008G16KT 10SM SCT022 SCT110 31/24 A2995 RMK AO2 SLP140 T03110244

2010/08/09 16:55
KDLH 091655Z 00000KT 10SM FEW008 28/19 A2993 RMK AO2 SLP129 T02780194

2010/08/09 16:54
KFWA 091654Z VRB03KT 9SM FEW040 SCT140 BKN250 30/21 A3000 RMK AO2 SLP153 T03000211

2010/08/09 16:55
KGPI 091655Z VRB03KT 10SM CLR 21/11 A2990 RMK AO2 SLP113 T02060106

2010/08/09 16:54
KGSO 091654Z 28006KT 10SM FEW048 32/20 A3006 RMK AO2 SLP167 T03170200

2010/08/09 16:55
KIRK 091655Z AUTO 14011KT 10SM CLR 26/22 A2993 RMK AO2 SLP129 T02560222

2010/08/09 16:55
KLIC 091655Z AUTO 16009G15KT 10SM CLR 25/14 A3014 RMK AO2 SLP124 T02500144

2010/08/09 16:53
KLXV 091653Z AUTO VRB04KT 10SM BKN100 17/06 A3041 RMK AO2 SLP117 T01670061 TSNO

2010/08/09 16:55
KMKG 091655Z 22011KT 10SM FEW011 BKN100 27/23 A2993 RMK AO2 SLP132 T02670228

2010/08/09 16:53
KMSN 091653Z 30005KT 10SM SCT022 BKN029 26/21 A2993 RMK AO2 SLP130 T02610206

2010/08/09 16:55
KRNO 091655Z 00000KT 10SM FEW090 21/06 A3003 RMK AO2 SLP120 T02110056

2010/08/09 16:54
KROA 091654Z 00000KT 9SM SCT040 31/21 A3008 RMK AO2 SLP170 T03060206

2010/08/09 16:53
KSAV 091653Z 06010G18KT 10SM FEW030 SCT250 34/21 A3000 RMK AO2 SLP158 T03390206

2010/08/09 16:55
KSCK 091655Z VRB06KT 10SM CLR 20/13 A2989 RMK AO2 SLP120 T02000128

2010/08/09 16:53
KTLH 091653Z 06007KT 10SM FEW050 33/20 A2997 RMK AO2 SLP147 T03330200

2010/08/09 16:53
KTRI 091653Z 28005KT 10SM FEW050 SCT150 32/19 A3009 RMK AO2 SLP172 T03170194

2010/08/09 16:53
KTYS 091653Z 25005KT 9SM FEW036 SCT070 32/23 A3005 RMK AO2 SLP163 T03170228

2010/08/09 16:56
KABQ 091656Z 00000KT 10SM FEW060 SCT140 26/12 A3017 RMK AO2 SLP127 T02560122 $

2010/08/09 16:54
KBOS 091654Z 23011KT 10SM FEW050 SCT060 SCT100 32/17 A2994 RMK AO2 SLP139 T03170172

2010/08/09 16:53
KBRO 091653Z 16010KT 10SM BKN034 BKN044 34/24 A2992 RMK AO2 SLP130 T03440239

2010/08/09 16:53
KFLL 091653Z 13013G20KT 10SM FEW033 SCT090 31/24 A2994 RMK AO2 SLP139 T03060239

2010/08/09 16:51
KJFK 091651Z 18009KT 8SM FEW040 SCT250 29/22 A3001 RMK AO2 SLP163 T02940217

2010/08/09 16:53
KMCO 091653Z 10008KT 10SM SCT020 BKN070 BKN250 29/24 A2993 RMK AO2 SLP134 T02940239

2010/08/09 16:53
KPBI 091653Z 15010KT 10SM SCT024 SCT085 BKN150 31/24 A2994 RMK AO2 SLP137 CB DSNT ALQDS T03050236

2010/08/09 16:53
TIST 091653Z 11017G25KT 5SM -RA BR BKN018 BKN029 BKN048 28/26 A3000 RMK AO2 RAB08 SLP158 P0037 T02830261

2010/08/09 16:53
TISX 091653Z 04004KT 9SM -RA SCT018 BKN060 26/24 A2998 RMK AO2 SLP151 T02610239 $

2010/08/09 16:55
KAEG 091655Z AUTO 00000KT 10SM SCT045 23/13 A3020 RMK AO1

2010/08/09 16:55
KAIK 091655Z AUTO 04003KT 10SM SCT046 32/26 A3007 RMK AO2 LTG DSNT E AND SE PNO

2010/08/09 16:54
KAKR 091654Z AUTO 22006KT 10SM CLR 29/17 A3003 RMK AO2 SLP158 T02940172

2010/08/09 16:48
KASG 091648Z 21006KT 10SM FEW060 SCT250 33/21 A3001

2010/08/09 16:55
KBBP 091655Z AUTO 10005KT 10SM SCT041 33/21 A3003 RMK AO2 LTG DSNT E

2010/08/09 16:55
KBNL 091655Z AUTO 02006KT 10SM CLR 32/22 A3003 RMK AO2

2010/08/09 16:54
KBOW 091654Z 11008KT 10SM BKN030 31/23 A2994

2010/08/09 16:55
KBWD 091655Z AUTO 20008G15KT 10SM CLR 33/21 A2999 RMK AO2

2010/08/09 16:55
KCGC 091655Z AUTO 10007KT 10SM FEW033 SCT047 33/24 A2991 RMK

2010/08/09 16:55
KCQW 091655Z AUTO 03004KT 5SM HZ FEW035 32/23 A3004 RMK AO2

2010/08/09 16:54
KDSV 091654Z AUTO 16004KT 10SM CLR 29/19 A2998 RMK AO2 SLP156 T02890189

2010/08/09 16:55
KE80 091655Z AUTO 30003KT 10SM CLR 26/12 A3016 RMK AO2 T02600122

2010/08/09 16:55
KEDC 091655Z AUTO 21006KT 10SM CLR 32/22 A2999 RMK AO1

2010/08/09 16:55
KEOE 091655Z AUTO 04003KT 10SM BKN044 BKN060 OVC070 33/21 A3007 RMK AO2 LTG DSNT E

2010/08/09 16:54
KFIG 091654Z AUTO 00000KT 10SM CLR 29/16 A3007 RMK AO2 SLP172 T02890156

2010/08/09 16:55
KFMH 091655Z AUTO 24013G17KT 10SM CLR 28/21 A3000 RMK AO2

2010/08/09 16:55
KHYI 091655Z AUTO 00000KT 10SM FEW041 32/22 A2998 RMK AO1

2010/08/09 16:55
KHYW 091655Z AUTO 04007KT 10SM SCT038 32/26 A3002 RMK AO2 LTG DSNT E AND SE

2010/08/09 16:55
KIFP 091655Z AUTO 01003KT 10SM CLR 30/12 A2987 RMK AO2

2010/08/09 16:55
KILE 091655Z AUTO 18010G14KT 10SM CLR 33/21 A2997 RMK AO1

2010/08/09 16:54
KJST 091654Z AUTO 00000KT 10SM CLR 26/12 A3011 RMK AO2 SLP179 T02610117

2010/08/09 16:55
KLQK 091655Z AUTO 00000KT 10SM CLR 33/21 A3007 RMK AO2 T03280212 PNO

2010/08/09 16:55
KLRO 091655Z AUTO 06008KT 9SM FEW024 SCT029 SCT050 29/25 A3000 RMK AO2 LTG DSNT NE P0007

2010/08/09 16:55
KMNI 091655Z AUTO 02006KT 10SM CLR 32/25 A3002 RMK AO2

2010/08/09 16:55
KOCH 091655Z AUTO 17004KT 10SM CLR 34/22 A2997 RMK AO1

2010/08/09 16:55
KPRX 091655Z 20007KT 10SM CLR 35/21 A2997 RMK AO1

2010/08/09 16:55
KPSO 091655Z AUTO 00000KT 10SM OVC110 19/10 A3032 RMK AO2

2010/08/09 16:54
KPTW 091654Z AUTO 21007KT 180V270 7SM FEW043 SCT055 33/21 A3002 RMK AO2 SLP161 T03280211

2010/08/09 16:55
KPWG 091655Z AUTO 19010G16KT 10SM CLR 34/22 A2997 RMK AO1

2010/08/09 16:55
KRBW 091655Z AUTO 02007KT 10SM CLR 32/22 A3002 RMK AO2

2010/08/09 16:55
KSPL 091655Z AUTO 10007KT CLR 33/27 A2993 RMK AO2 LTG DSNT E PWINO PNO

2010/08/09 16:55
KTPL 091655Z 19012G17KT 10SM CLR 33/22 A2998 RMK AO1

2010/08/09 16:56
KUCP 091656Z AUTO 23004KT 10SM -RA FEW041 30/18 A3004 RMK AO2 T03000183 RAB44 P0000 SLP179

2010/08/09 16:55
KUTA 091655Z AUTO 09004KT 10SM CLR 35/25 A2997 RMK AO2

2010/08/09 16:55
KX40 091655Z AUTO 06006KT 7SM SCT028 SCT043 BKN060 34/25 A2993 RMK AO2 LTG DSNT NE T03350252

2010/08/09 16:53
PASC 091653Z 06019G25KT 1 1/2SM BR OVC003 03/03 A2976 RMK AO2 PK WND 06028/1633 SLP077 T00330028

2010/08/09 16:53
TIST 091653Z 11017G25KT 5SM -RA BR BKN018 BKN029 BKN048 28/26 A3000 RMK AO2 RAB08 SLP158 P0037 T02830261

2010/08/09 16:55
KHFF 091655Z AUTO 00000KT 10SM CLR 33/21 A3006 RMK AO2 SLP174 T03280213 $

2010/08/09 16:53
KRTN 091653Z AUTO 11004KT 10SM CLR 29/13 A3017 RMK AO2 SLP105 T02890128 TSNO

2010/08/09 16:55
KDOV 091655Z AUTO VRB05KT 10SM -RA FEW030 30/25 A3001 RMK AO2 RAB1559 SLP164 P0000 T03020249

2010/08/09 16:55
KEDW 091655Z 00000KT 85SM CLR 23/01 A2994 RMK AO2A SLP098 T02310011

2010/08/09 16:55
KFAF 091655Z AUTO 27004KT 10SM FEW210 30/25 A3003 RMK AO2 SLP170 T03020249 $

2010/08/09 16:55
KFCS 091655Z AUTO 35003KT 10SM FEW100 SCT160 22/14 A3018 RMK AO2 SLP143 T02170139

2010/08/09 16:55
KFFO 091655Z 22005KT 10SM SCT250 31/19 A3002 RMK AO2A SLP160

2010/08/09 16:55
KFHU 091655Z VRB04KT 50SM FEW050 26/17 A3013 RMK SLP134

2010/08/09 16:55
KFRI 091655Z AUTO 21008KT 10SM CLR 36/22 A2986 RMK AO2 SLP088 T03600215

2010/08/09 16:55
KFSI 091655Z AUTO 20008KT 10SM CLR 35/20 A2991 RMK AO2 SLP102 T03490200

2010/08/09 16:55
KGUS 091655Z 22006KT 10SM FEW140 30/23 A2998 RMK AO2A CLDS LWR RWY05 SLP146 T03010232

2010/08/09 16:55
KHIF 091655Z AUTO 16014G22KT 10SM CLR 24/08 A3006 RMK AO2 DZB1557E1558 SLP068 P0000 T02450078

2010/08/09 16:55
KLTS 091655Z AUTO 19008KT 10SM CLR 36/19 A2991 RMK AO2 SLP108 T03560188 $

2010/08/09 16:55
KMUO 091655Z AUTO 09007KT 10SM FEW060 SCT080 BKN110 25/08 A2989 RMK AO2 SLP093 T02450077

2010/08/09 16:52
KNFW 091652Z 21008KT 10SM CLR 36/21 A2998 RMK AO2 SLP134 T03560211

2010/08/09 16:54
KRSP 091654Z AUTO 00000KT 7SM FEW050 29/15 A3009 RMK AO2 SLP986 T02940150 $

2010/08/09 16:55
KNKX 091655Z 00000KT 10SM SCT014 19/13 A2994 RMK AO2 SLP133 T01890128

2010/08/09 16:55
KNBG 091655Z 04006KT 10SM SCT025 BKN100 OVC250 33/24 A2999 RMK AO2 SLP155 T2 SET T03280244 $

2010/08/09 16:55
KFBG 091655Z 06003KT 7SM FEW030 SCT045 SCT150 32/20 A3003 RMK AO2A SLP167 WND DATA ESTMD ALSTG/SLP ESTMD

2010/08/09 16:55
PGUA 091655Z AUTO 16003KT 10SM BKN048 BKN200 BKN230 25/ A2989 RMK AO2 DZB1619E1646 CIG 040 RWY24L SLP103 P0000 T0246 VISNO RWY24L $

2010/08/09 16:55
KADW 091655Z AUTO 21007KT 10SM CLR 32/21 A3001 RMK AO2 SLP161 T03180214 $

2010/08/09 16:55
KDOV 091655Z AUTO VRB05KT 10SM -RA FEW030 30/25 A3001 RMK AO2 RAB1559 SLP164 P0000 T03020249

2010/08/09 16:55
KMCF 091655Z AUTO 06005KT 10SM BKN023 30/26 A2993 RMK AO2 CIG 022V027 SLP135 T02980260

2010/08/09 16:52
KNHK 091652Z 11010KT 6SM HZ FEW020 BKN250 30/24 A3001 RMK AO2 SLP163 T03000244

2010/08/09 16:53
KNIP 091653Z 07008KT 10SM FEW024 BKN034TCU 31/24 A2997 RMK AO2 RAB30E46 SLP144 TCU E-S P0000 T03110244

2010/08/09 16:53
KNQX 091653Z 20006KT 3SM +RA SCT018CB BKN025 OVC065 27/24 A2994 RMK AO2 SLP137 CB OHD MOV S T1 SET P0015 T02720244 $

2010/08/09 16:52
KNRB 091652Z 06010KT 10SM BKN030TCU 31/23 A2997 RMK AO2 RAB49E50 SLP149 TCU OHD P0000 T03060233

2010/08/09 16:55
KPOB 091655Z AUTO 00000KT 10SM SCT045 32/24 A3003 RMK AO2 SLP167 T03170235 $

2010/08/09 16:55
KSSC 091655Z VRB05KT 10SM SCT039 SCT050 BKN190 33/23 A3003 RMK AO2A SLP166 T03300226 $

2010/08/09 16:55
KVAD 091655Z AUTO 05011KT 10SM FEW041 32/22 A2998 RMK AO2 SLP150 T03230224 $

2010/08/09 16:55
KDLF 091655Z AUTO 10011G16KT 10SM SCT024 30/23 A2996 RMK AO2 SLP129 T03010227

2010/08/09 16:55
KEDW 091655Z 00000KT 85SM CLR 23/01 A2994 RMK AO2A SLP098 T02310011

2010/08/09 16:55
KFRI 091655Z AUTO 21008KT 10SM CLR 36/22 A2986 RMK AO2 SLP088 T03600215

2010/08/09 16:55
KFSI 091655Z AUTO 20008KT 10SM CLR 35/20 A2991 RMK AO2 SLP102 T03490200

2010/08/09 16:55
KMCF 091655Z AUTO 06005KT 10SM BKN023 30/26 A2993 RMK AO2 CIG 022V027 SLP135 T02980260

2010/08/09 16:55
KPOB 091655Z AUTO 00000KT 10SM SCT045 32/24 A3003 RMK AO2 SLP167 T03170235 $

2010/08/09 16:55
KSKA 091655Z AUTO 19008KT 10SM CLR 20/10 A2988 RMK AO2 SLP108 T02040102

2010/08/09 16:55
KSLI 091655Z 00000KT 6SM HZ OVC015 18/14 A2994 RMK AO2A SLP139 T01800140

2010/08/09 16:55
KVAD 091655Z AUTO 05011KT 10SM FEW041 32/22 A2998 RMK AO2 SLP150 T03230224 $

2010/08/09 16:55
MHSC 091655Z AUTO 31004KT 9999 FEW060 SCT100 SCT130 BKN150 BKN180 BKN200 28/21 A3001 RMK AO2 SLP120 T02770210 $

2010/08/09 16:55
PAED 091655Z AUTO 33008KT 10SM OVC070 13/10 A2962 RMK AO2 SLP030 T01270101

2010/08/09 16:56
KNTU 091656Z 10008KT 10SM SCT030 BKN200 29/23 A3004 RMK AO2 SLP176 T02890228 $

2010/08/09 16:56
KSHV 091656Z VRB03KT 10SM FEW040 SCT300 34/22 A2997 RMK AO2 SLP144 T03440222

2010/08/09 16:55
KANJ 091655Z AUTO 12005KT 10SM SCT022 BKN028 BKN060 26/20 A2989 RMK AO2 SLP116 T02560200

2010/08/09 16:55
KPHP 091655Z AUTO 14010KT 10SM CLR 30/17 A2993 RMK AO2 SLP112 T03000172 TSNO

2010/08/09 16:55
KAAT 091655Z AUTO 11004KT 10SM CLR 22/05 A3000 RMK AO2 SLP116 T02170050 TSNO

2010/08/09 16:53
KRQE 091653Z AUTO VRB04KT 10SM FEW060 22/09 A3028 RMK AO2 SLP141 T02220089 TSNO

2010/08/09 16:56
KCHS 091656Z 04009KT 10SM FEW025 33/23 A3000 RMK AO2 SLP158 T03280233

2010/08/09 16:55
KAST 091655Z AUTO 29005KT 4SM BR BKN007 BKN012 OVC026 14/13 A3000 RMK AO2 VIS 2 1/2 RWY 08 RAB03E30 CIG 005V009 SLP159 P0000 T01440128

2010/08/09 16:53
KGRR 091653Z COR 19007KT 10SM FEW060 SCT100 BKN160 25/22 A2994 RMK AO2 RAB1556E50 SLP134 P0000 T02500222

2010/08/09 16:56
KINW 091656Z AUTO 10SM CLR 24/13 A3016 RMK AO2 SLP144 T02390133 $

2010/08/09 16:56
KMOB 091656Z VRB05KT 10SM FEW028 SCT200 33/23 A3000 RMK AO2 SLP157 T03280233

2010/08/09 16:56
KOFK 091656Z AUTO VRB03KT 9SM CLR 26/21 A2991 RMK AO2 SLP116 T02610211

2010/08/09 16:56
KSFO 091656Z 17005KT 10SM R28R/6000VP6000FT FEW010 BKN017 17/11 A2993 RMK AO2 SLP134 T01670111

2010/08/09 16:55
KSMS 091655Z AUTO 05006KT 5SM HZ FEW039 32/23 A3004 RMK AO2

2010/08/09 16:54
KACY 091654Z 20007KT 10SM CLR 33/18 A3003 RMK AO2 SLP168 T03330178

2010/08/09 16:53
KDAB 091653Z 10008G16KT 10SM SCT022 SCT110 31/24 A2995 RMK AO2 SLP140 T03110244

2010/08/09 16:53
KSAV 091653Z 06010G18KT 10SM FEW030 SCT250 34/21 A3000 RMK AO2 SLP158 T03390206

2010/08/09 16:54
KSYR 091654Z 26006KT 10SM SCT060 BKN200 30/19 A2995 RMK AO2 SLP137 T03000194

2010/08/09 16:53
PABT 091653Z COR 03005KT 10SM FEW011 SCT050 BKN070 13/10 A2957 RMK AO2 SLP021 RAE36 SHRA VC N P0001 T01330100 $

2010/08/09 16:53
PACD 091653Z COR 11006KT 10SM BKN043 BKN075 12/08 A2951 RMK AO2 SLP993 T01170083

2010/08/09 16:56
PADK 091656Z 30012KT 8SM OVC030 10/07 A2970 RMK AO1 PNO

2010/08/09 16:56
KP53 091656Z AUTO 05004KT 27/23 A2986 RMK AO2 SLP109 T02670233 PWINO TSNO

2010/08/09 16:56
KCAE 091656Z VRB06KT 9SM FEW048 33/21 A3003 RMK AO2 SLP163 T03330211

2010/08/09 16:56
KSXT 091656Z AUTO VRB04KT M1/4SM -RA FG VV001 13/12 A3000 RMK AO2 SLP131 P0000 T01280117 TSNO

2010/08/09 16:56
K2WX 091656Z AUTO 18015G20KT 29/16 A2985 RMK AO1 SLP079 T02940161

2010/08/09 16:56
K8D3 091656Z AUTO 14004KT 29/21 A2991 RMK AO2 SLP110 T02940211 PWINO TSNO

2010/08/09 16:56
KLWS 091656Z 30005KT 10SM CLR 22/11 A2985 RMK AO2 SLP097 T02220106

2010/08/09 16:56
KFLG 091656Z VRB06KT 10SM CLR 21/09 A3030 RMK AO2 SLP163 T02060089

2010/08/09 17:00
KVTP 091700Z AUTO 27005KT 10SM SCT080 BKN120 16/08 A3047 RMK AO2

2010/08/09 16:56
KMRH 091656Z AUTO VRB03KT 10SM SCT017 BKN024 BKN035 28/24 A3004 RMK AO2 RAB06E21B38E49 SLP174 P0000 T02830244 TSNO

2010/08/09 16:50
KMWA 091650Z 25005KT 15SM SCT037 SCT090 34/22 A2996

2010/08/09 16:55
KNQA 091655Z COR 00000KT 10SM SCT100 BKN250 34/27 A2997 RMK

2010/08/09 16:55
KO22 091655Z AUTO 14004KT 10SM CLR 26/09 A2994 RMK AO1

2010/08/09 16:55
KPVF 091655Z AUTO 00000KT 10SM CLR 24/11 A2996 RMK AO1

2010/08/09 16:55
KRCE 091655Z AUTO 20009G15KT 10SM CLR 34/22 A2995 RMK AO2

2010/08/09 16:56
KRDM 091656Z 00000KT 10SM CLR 19/08 A2995 RMK AO2 SLP119 T01940083

2010/08/09 16:56
KSLE 091656Z 33005KT 10SM OVC023 16/10 A2999 RMK AO2 SLP156 T01610100

2010/08/09 16:56
KSRC 091656Z AUTO 21004KT CLR 37/23 A2996 RMK AO2 TSNO T03720233 SLP146 $

2010/08/09 16:55
KTME 091655Z AUTO 17006KT 10SM CLR 33/24 A2998 RMK AO2

2010/08/09 16:56
KTPH 091656Z AUTO 18006KT 10SM CLR 22/01 A3010 RMK AO2 SLP121 T02220006

2010/08/09 16:50
KTRK 091650Z 00000KT 10SM FEW002 10/10 A3012 RMK NOSPCI

2010/08/09 16:56
KUKI 091656Z AUTO 11004KT 10SM CLR 17/12 A2990 RMK AO2 SLP117 T01720122

2010/08/09 16:56
PAAK 091656Z AUTO 27022G31KT 2SM OVC003 08/06 A2963 RMK AO1 PNO

2010/08/09 16:56
PACM 091656Z AUTO 15009KT 1SM -RA BR BKN013 BKN021 OVC100 10/09 A2924 RMK AO2 TSNO T01000088 OVC V BKN P0000 SLP896 $

2010/08/09 16:56
PAHP 091656Z AUTO 11012KT 10SM SCT006 BKN013 OVC020 10/08 A2918 RMK AO1 PNO TSNO

2010/08/09 16:54
KPHL 091654Z 21009KT 10SM FEW050 SCT250 32/19 A3001 RMK AO2 SLP163 T03220189

2010/08/09 16:55
KFMH 091655Z AUTO 24013G17KT 10SM CLR 28/21 A3000 RMK AO2

2010/08/09 16:56
PASH 091656Z AUTO 07010KT 10SM FEW070 FEW090 SCT120 14/11 A2939 RMK AO1 PNO

2010/08/09 16:56
PASK 091656Z AUTO 08015KT 10SM BKN040 OVC047 14/11 A2944 RMK AO1 PNO

2010/08/09 16:56
PASL 091656Z AUTO 14006KT 3SM OVC010 11/09 A2950 RMK AO1 PNO

2010/08/09 16:56
PASM 091656Z AUTO 14009G15KT 7SM BKN005 OVC014 09/08 A2931 RMK AO1 PNO

2010/08/09 16:56
PASX 091656Z AUTO 11007KT 10SM BKN055 BKN070 OVC090 14/09 A2961 RMK AO1 PNO

2010/08/09 16:56
PATG 091656Z AUTO 17020KT 2 1/2SM BKN006 OVC013 10/09 A2942 RMK AO1 PNO

2010/08/09 16:56
PAUN 091656Z AUTO 09008KT 4SM FEW030 SCT048 BKN050 12/09 A2937 RMK AO1 PNO

2010/08/09 16:56
PAVD 091656Z 09004KT 1SM SCT001 OVC010 11/09 A2981 RMK AO1 1647Z WEA

2010/08/09 16:56
PAWG 091656Z 01003KT 10SM SCT005 BKN030 OVC050 12/11 A3001 RMK AO1 WEA

2010/08/09 16:56
PAWN 091656Z AUTO 02008KT 10SM CLR 13/08 A2949 RMK AO1 PNO

2010/08/09 16:56
PAWS 091656Z AUTO 06005KT 10SM OVC070 13/09 A2963 RMK AO1 PNO

2010/08/09 16:56
PAZK 091656Z AUTO 21003KT 10SM CLR 08/04 A2970 RMK AO1 PNO

2010/08/09 16:56
PAAK 091656Z AUTO 27022G31KT 2SM OVC003 08/06 A2963 RMK AO1 PNO

2010/08/09 16:56
PABL 091656Z AUTO 10010KT 10SM OVC090 12/11 A2941 RMK AO1 PNO

2010/08/09 16:50
PABN 091650Z 35007KT 20SM BKN060 BKN090 12/05 A2969 RMK NOSPECI

2010/08/09 16:56
PABV 091656Z AUTO 00000KT 10SM BKN080 OVC090 13/09 A2962 RMK AO1 PNO

2010/08/09 16:56
PACM 091656Z AUTO 15009KT 1SM -RA BR BKN013 BKN021 OVC100 10/09 A2924 RMK AO2 TSNO T01000088 OVC V BKN P0000 SLP896 $

2010/08/09 16:56
PAEM 091656Z AUTO 11012KT 10SM FEW009 BKN016 OVC023 10/07 A2925 RMK AO1 PNO

2010/08/09 16:56
PAFE 091656Z AUTO 17004KT 10SM SCT012 OVC030 13/10 A3001 RMK AO1 PNO

2010/08/09 16:56
PAFM 091656Z AUTO 04004KT 10SM SCT075 BKN095 OVC120 12/08 A2951 RMK AO1 PNO

2010/08/09 16:56
PAGL 091656Z AUTO 17012KT 10SM OVC028 13/09 A2938 RMK AO1 PNO

2010/08/09 16:56
PAGM 091656Z AUTO 06011KT 1/2SM OVC003 09/07 A2925 RMK AO1

2010/08/09 16:56
PAGS 091656Z AUTO 00000KT 10SM OVC030 13/12 A2996 RMK AO1 PNO

2010/08/09 16:56
PAHP 091656Z AUTO 11012KT 10SM SCT006 BKN013 OVC020 10/08 A2918 RMK AO1 PNO TSNO

2010/08/09 16:56
PAHY 091656Z AUTO 00000KT 10SM OVC016 13/12 A3000 RMK AO1 PNO

2010/08/09 16:56
PAII 091656Z AUTO 14007KT 7SM OVC018 10/09 A2958 RMK AO1 PNO

2010/08/09 16:56
PAIN 091656Z AUTO 00000KT 10SM OVC046 11/08 A2962 RMK AO1 PNO

2010/08/09 16:56
PAJC 091656Z AUTO 25010KT 10SM BKN006 OVC018 13/07 A2955 RMK AO1 PNO

2010/08/09 16:56
PAKK 091656Z AUTO 10004KT 1 1/4SM OVC005 12/11 A2935 RMK AO1 PNO

2010/08/09 16:56
PAKP 091656Z AUTO 02008KT 3/4SM OVC003 07/06 A2960 RMK AO1

2010/08/09 16:54
PAHN 091654Z AUTO 10005KT 10SM OVC008 13/11 A2995 RMK AO2 CIG 007V012 SLP144 T01280111 TSNO

2010/08/09 16:50
PAHZ 091650Z 00000KT 1SM BR VV001 11/10 A2964 RMK NOSPECI

2010/08/09 16:54
PAKN 091654Z 19006KT 10SM OVC021 11/09 A2952 RMK AO2 RAB20E36 SLP996 P0000 T01110094

2010/08/09 16:52
PAWI 091652Z 06015G25KT 10SM OVC007 03/01 A2980 RMK ASOS VIA PHONE

2010/08/09 16:56
K20V 091656Z AUTO 00000KT 10SM SCT080 21/06 A3028 RMK AO2

2010/08/09 16:52
K5SM 091652Z AUTO 00000KT 7SM -RA 09/08 A3052 RMK AO2

2010/08/09 16:54
K7BM 091654Z AUTO 10003KT 10SM OVC100 17/10 A3043 RMK AO2

2010/08/09 16:58
KBDU 091658Z AUTO 03003KT 10SM BKN100 27/13 A3012 RMK AO2

2010/08/09 16:56
KBMI 091656Z 19005KT 10SM CLR 30/24 A2996 RMK AO2 T03000238 SLP128 $

2010/08/09 16:56
KBOK 091656Z AUTO VRB04KT 6SM BR OVC003 12/12 A2996 RMK AO2 T01160116 SLP145

2010/08/09 16:57
KCCU 091657Z AUTO 00000KT 10SM BKN023 BKN037 OVC080 12/06 A3058 RMK AO2

2010/08/09 16:55
KCMA 091655Z 00000KT 8SM SCT008 17/13 A2992 RMK AO2 SLP141 T01720128

2010/08/09 16:55
KEAT 091655Z AUTO 31011KT 10SM CLR 22/09 A2983 RMK AO2 SLP093 T02220094

2010/08/09 16:55
KLLJ 091655Z AUTO 00000KT 10SM OVC090 17/09 A3004 RMK AO2 SLP116 T01720094

2010/08/09 16:53
KOVE 091653Z AUTO 00000KT 10SM CLR 21/13 A2990 RMK AO2 SLP125 T02060133 TSNO $

2010/08/09 16:53
KRIL 091653Z AUTO 36003KT 10SM BKN100 17/11 A3022 RMK AO2 RAE1556 SLP175 P0000 T01720106 TSNO

2010/08/09 16:53
KSGR 091653Z 00000KT 10SM FEW034 32/23 A2996 RMK AO2 SLP153 T03220228

2010/08/09 16:48
KVCV 091648Z 00000KT 10SM SKC 26/M03 A2997

2010/08/09 16:50
KWYS 091650Z AUTO 12003KT 10SM FEW080 SCT090 17/10 A3015 RMK AO2

2010/08/09 16:55
KFMH 091655Z AUTO 24013G17KT 10SM CLR 28/21 A3000 RMK AO2

2010/08/09 16:56
KSDF 091656Z 00000KT 8SM FEW035 SCT150 SCT200 34/21 A2999 RMK AO2 SLP147 T03440211

2010/08/09 16:55
K0A9 091655Z AUTO 25007KT 10SM FEW044 31/20 A3009 RMK

2010/08/09 16:56
K1M4 091656Z AUTO 23004KT 10SM SCT035 BKN080 33/24 A3004 RMK AO2 T03270238 BKN V SCT LTG DSNT W SLP167

2010/08/09 16:50
KADS 091650Z 19006KT 13SM SKC 33/23 A2995

2010/08/09 16:56
KAND 091656Z AUTO 22007KT 10SM SCT043 33/21 A3005 RMK AO2 SLP164 T03330211

2010/08/09 16:55
KARW 091655Z AUTO 04011G14KT 10SM CLR 33/21 A2999 RMK AO2

2010/08/09 16:55
KBDN 091655Z AUTO 25005KT 10SM CLR 19/09 A2998 RMK AO2

2010/08/09 16:55
KBKN 091655Z AUTO 16007KT 020V020 10SM CLR 36/20 A2989 RMK AO2

2010/08/09 16:56
KCEC 091656Z AUTO 33004KT 8SM OVC006 13/12 A2996 RMK AO2 SLP145 T01280117

2010/08/09 16:55
KDCM 091655Z AUTO 04004KT 5SM HZ SCT038 32/26 A3006 RMK AO2 LTG DSNT E AND SE

2010/08/09 16:56
KDIK 091656Z AUTO 10010KT 10SM CLR 28/13 A2990 RMK AO2 SLP104 T02780128

2010/08/09 16:56
KDUG 091656Z AUTO 00000KT 10SM CLR 27/17 A3010 RMK AO2 SLP122 T02670172

2010/08/09 16:56
KDUJ 091656Z AUTO 00000KT 10SM CLR 28/16 A3007 RMK AO2 SLP166 T02780156

2010/08/09 16:56
KEAU 091656Z VRB04KT 8SM BKN013 28/23 A2990 RMK AO2 SLP118 T02830233

2010/08/09 16:55
KEIK 091655Z AUTO 00000KT 10SM SCT120 25/11 A3011 RMK AO2

2010/08/09 16:55
KEKM 091655Z 11004KT 10SM SCT045 SCT060 BKN110 27/20 A2998 RMK AO2

2010/08/09 16:56
KEKO 091656Z AUTO VRB03KT 10SM BKN100 24/02 A3002 RMK AO2 SLP106 T02440022

2010/08/09 16:56
KGRD 091656Z AUTO VRB03KT 10SM CLR 33/23 A3007 RMK AO2 SLP173 T03280228

2010/08/09 16:55
KHFF 091655Z AUTO 00000KT 10SM CLR 33/21 A3006 RMK AO2 SLP174 T03280213 $

2010/08/09 16:55
KHVS 091655Z AUTO 11004KT 10SM SCT040 31/22 A3005 RMK AO2

2010/08/09 16:56
KIGX 091656Z AUTO VRB04KT 10SM BKN048 BKN065 32/20 A3005 RMK AO2 SLP170 T03220200 $

2010/08/09 16:56
KJMS 091656Z AUTO 19010KT 10SM CLR 31/21 A2989 RMK AO2 SLP113 T03060206

2010/08/09 16:56
KLNR 091656Z AUTO 31008KT 10SM SCT022 28/22 A2993 RMK AO2 SLP124 T02780217

2010/08/09 16:55
KLUX 091655Z AUTO 29003KT 10SM CLR 32/25 A3006 RMK AO2 LTG DSNT E

2010/08/09 16:56
KM19 091656Z AUTO 27005KT 10SM CLR A2996 RMK AO2 SLPNO $

2010/08/09 16:55
KMAO 091655Z AUTO 11008KT 10SM CLR 32/22 A3003 RMK AO2 LTG DSNT E AND SE

2010/08/09 16:55
KMKS 091655Z AUTO 06010KT 10SM CLR 32/21 A3001 RMK AO2 TSNO

2010/08/09 16:56
KMQY 091656Z 08009KT 10SM SCT042 BKN060 31/24 A3001 RMK AO2 T00000000 SLP151 $

2010/08/09 16:56
KNCA 091656Z VRB04KT 10SM SCT030 BKN080 32/23 A3003 RMK AO2 SLP171 T03200228 $

2010/08/09 16:56
KNYG 091656Z 18009KT 9SM FEW050 SCT200 31/22 A3001 RMK AO2 SLP162 T03110222 $

2010/08/09 16:56
KNBT 091656Z AUTO 11004KT 1 1/2SM -RA FEW002 27/24 A3004 RMK AO2 RAB34 SLP177 P0002 T02720244 TSNO

2010/08/09 16:56
KNJK 091656Z VRB03KT 10SM CLR 32/04 A2980 RMK AO2 SLP106 T03220044

2010/08/09 16:56
PHBK 091656Z AUTO 11004KT 10SM CLR 23/16 A3009 RMK AO2 SLP190 T02330161 TSNO $

2010/08/09 16:56
KNXP 091656Z 00000KT CLR 28/M01 A2999 RMK AO2 SLP117 T02831011 $

2010/08/09 16:56
KNUQ 091656Z AUTO 09004KT 10SM CLR 18/12 A2992 RMK AO2 SLP135 T01780117 TSNO

2010/08/09 16:55
PAIM 091655Z AUTO 06006KT 10SM OVC075 13/09 A2951 RMK AO1 T01280095

2010/08/09 16:55
PATL 091655Z AUTO 00000KT 10SM OVC006 11/11 A2950 RMK AO1 T01060106

2010/08/09 16:55
PASV 091655Z AUTO 19006KT 10SM OVC037 11/08 A2950 RMK AO1 T01060084

2010/08/09 17:02
KCPW 091702Z AUTO 23010KT 10SM OVC008 09/06 A3057 RMK AO2

2010/08/09 16:50
PALV 091650Z 27005KT 3SM BR SCT007 OVC020 11/11 A2960 RMK EST PASS CLSD

2010/08/09 16:56
PAMD 091656Z AUTO 12008KT 1/4SM OVC006 12/11 A2977 RMK AO1 PNO

2010/08/09 16:56
PAMH 091656Z RMK AO1 PNO

2010/08/09 16:56
PAMM 091656Z AUTO 20003KT 10SM FEW021 BKN036 OVC044 14/11 A3004 RMK AO1 PNO

2010/08/09 16:56
PAMY 091656Z 15009KT 10SM BKN041 OVC047 09/07 A2917 RMK AO1

2010/08/09 16:56
PANI 091656Z AUTO 09004KT 10SM FEW038 OVC060 12/10 A2939 RMK AO1 PNO

2010/08/09 16:56
PANV 091656Z AUTO 00000KT 6SM SCT004 BKN015 OVC048 11/09 A2939 RMK AO1 PNO

2010/08/09 16:56
PAOU 091656Z AUTO 00000KT 8SM OVC021 11/08 A2954 RMK AO2 PWINO TSNO T01110083 SLP006 $

2010/08/09 16:56
PAPG 091656Z 00000KT 2 1/2SM SCT003 BKN014 OVC034 11/10 A3000 RMK AO1 WEA

2010/08/09 16:56
PAPH 091656Z AUTO 33003KT 10SM OVC039 11/09 A2954 RMK AO1 PNO

2010/08/09 16:56
PARC 091656Z AUTO 06007KT 10SM CLR 09/04 A2968 RMK AO1 PNO

2010/08/09 16:56
PASA 091656Z AUTO 07011KT 1/2SM OVC006 10/08 A2924 RMK AO1 PNO

2010/08/09 16:56
PASD 091656Z 19012G18KT 5SM BKN014 OVC020 11/09 A2960 RMK AO1 WEA

2010/08/09 16:56
KGFA 091656Z AUTO VRB05KT 10SM CLR 25/08 A2989 RMK AO2 SLP116 T02500078

2010/08/09 16:52
KNZY 091652Z 17004KT 10SM BKN017 22/14 A2993 RMK AO2 SLP135 T02170139 $

2010/08/09 16:52
KP69 091652Z AUTO 00000KT 22/13 A2985 RMK AO2 SLP089 T02170128 PWINO TSNO

2010/08/09 16:50
EBAW 091650Z 21005KT CAVOK 23/10 Q1015 NOSIG

2010/08/09 16:50
EBBR 091650Z VRB02KT CAVOK 22/11 Q1016 NOSIG

2010/08/09 16:50
EBCI 091650Z 24006KT 9999 FEW048 23/10 Q1016 NOSIG

2010/08/09 16:50
EBLG 091650Z 28003KT 240V320 9999 FEW045 21/09 Q1016 NOSIG

2010/08/09 16:50
EBOS 091650Z 28005KT 250V320 CAVOK 19/14 Q1016 NOSIG

2010/08/09 16:50
ELLX 091650Z 21005KT 180V260 CAVOK 22/09 Q1016 NOSIG

2010/08/09 16:50
LOWG 091650Z 15005KT 120V190 9999 FEW040 23/13 Q1017 NOSIG

2010/08/09 16:50
LOWI 091650Z 10007KT 050V140 9999 FEW080 24/12 Q1016 NOSIG

2010/08/09 16:50
LOWK 091650Z 10006KT 020V150 9999 FEW045 24/15 Q1016 NOSIG

2010/08/09 16:50
LOWL 091650Z 33005KT 290V360 9999 FEW048 23/12 Q1017 NOSIG

2010/08/09 16:50
LOWS 091650Z VRB02KT 9999 FEW050 24/08 Q1017 NOSIG

2010/08/09 16:50
LOWW 091650Z 07003KT 040V120 9999 FEW050 22/16 Q1017 NOSIG

2010/08/09 16:50
EFHF 091650Z 20011KT 160V240 9999 FEW030CB BKN049 22/16 Q1011

2010/08/09 16:50
EFKK 091650Z AUTO 33004KT 9999 ////// 19/18 Q1008

2010/08/09 16:50
EFMA 091650Z AUTO 18007KT 150V220 9999 FEW012 BKN050 19/17 Q1007

2010/08/09 16:50
EFPO 091650Z AUTO 16004KT 110V220 9999 FEW023 SCT045 BKN065 20/17 Q1008

2010/08/09 16:45
LIBR 091645Z 32018KT CAVOK 26/22 Q1014 NOSIG

2010/08/09 16:45
LIEE 091645Z 09007KT CAVOK 27/17 Q1015 NOSIG

2010/08/09 16:50
LIBD 091650Z 02005KT 330V050 CAVOK 27/16 Q1013

2010/08/09 16:50
LICC 091650Z 06014KT CAVOK 28/21 Q1013

2010/08/09 16:50
LICJ 091650Z 03010KT CAVOK 27/20 Q1016

2010/08/09 16:50
LIEA 091650Z VRB02KT CAVOK 25/15 Q1016

2010/08/09 16:50
LIEO 091650Z 08006KT 050V130 9999 FEW050 27/20 Q1015

2010/08/09 16:50
LIMC 091650Z 27005KT 240V330 9999 FEW040 28/17 Q1014 NOSIG

2010/08/09 16:50
LIME 091650Z 17005KT 130V220 9999 FEW040 27/16 Q1015

2010/08/09 16:50
LIMF 091650Z 03006KT 9999 FEW030 SCT060 27/17 1015

2010/08/09 16:50
LIMJ 091650Z VRB02KT 9999 FEW020 26/21 Q1015

2010/08/09 16:50
LIML 091650Z 16004KT 9999 FEW030 29/16 Q1014 NOSIG

2010/08/09 16:50
LIPB 091650Z 15009KT CAVOK 29/16 Q1013

2010/08/09 16:50
LIPE 091650Z 36003KT 9999 SCT060 29/18 Q1013

2010/08/09 16:50
LIPK 091650Z 22006KT 9999 FEW030 29/14 Q1014

2010/08/09 16:50
LIPQ 091650Z 20005KT CAVOK 27/19 Q1014

2010/08/09 16:50
LIPZ 091650Z 16004KT CAVOK 27/17 Q1014

2010/08/09 16:50
LIRF 091650Z 28010KT 250V310 CAVOK 25/21 Q1015 NOSIG

2010/08/09 16:50
LIRQ 091650Z 26010KT 220V300 9999 FEW030 27/16 Q1015

2010/08/09 16:45
LIPH 091645Z 19005KT CAVOK 28/20 Q1014

2010/08/09 16:45
LIPR 091645Z 09007KT CAVOK 27/21 Q1014

2010/08/09 16:45
LIPX 091645Z 17002KT 9999 FEW040 30/17 Q1014

2010/08/09 16:45
LIRA 091645Z 26007KT 190V350 9999 FEW020 SCT200 29/13 Q1015

2010/08/09 16:45
LIRP 091645Z 25007KT 210V290 9999 FEW020 SCT030 25/21 Q1015 NOSIG

2010/08/09 16:50
LIMC 091650Z 27005KT 240V330 9999 FEW040 28/17 Q1014 NOSIG

2010/08/09 16:45
LIPX 091645Z 17002KT 9999 FEW040 30/17 Q1014

2010/08/09 16:50
LCRA 091650Z 26012KT CAVOK 28/24 Q1004 NOSIG

2010/08/09 16:48
MMCZ 091648Z 13006KT 8SM SCT015TCU SCT250 29/24 A2996 RMK 8/206

2010/08/09 16:47
MMMD 091647Z 13009KT 7SM SCT020 32/25 A2992 RMK 8/100 CI

2010/08/09 17:00
MNMG 091700Z 12008KT 9999 FEW024TCU SCT070 30/24 Q1011 A2986 TCU/NE/SW

2010/08/09 16:55
EHDL 091655Z AUTO 21005KT 9999NDV FEW038 21/13 Q1015 BLU

2010/08/09 16:55
EHGR 091655Z AUTO 21003KT 9999NDV FEW250 22/10 Q1015 BLU

2010/08/09 16:55
EHLW 091655Z AUTO 25007KT 9999NDV NCD 20/13 Q1015 BLU

2010/08/09 16:55
EHVK 091655Z AUTO 23001KT 9999NDV BKN068 21/13 Q1015 BLU

2010/08/09 16:55
EHVL 091655Z AUTO 22012KT 9999NDV NCD 20/14 Q1015 BLU

2010/08/09 16:55
EHWO 091655Z AUTO 16002KT 9999NDV FEW330 22/10 Q1015 BLU

2010/08/09 16:50
MMCE 091650Z 10010KT 7SM SCT010 SCT200 29/26 A2988 RMK 8/105

2010/08/09 16:50
EFKI 091650Z AUTO 23003KT //// SKC 23/18 Q1008

2010/08/09 16:55
KCOF 091655Z 13008KT 10SM CLR 29/24 A2995 RMK AO2A SLP143 T02900241

2010/08/09 16:55
KEGI 091655Z 07007KT 10SM SCT030 33/24 A2998 RMK AO2A SLP152 T03280237 $

2010/08/09 16:55
KEND 091655Z 17011KT 10SM FEW200 36/20 A2991 RMK AO2A SLP109 T03560200

2010/08/09 16:55
KMIB 091655Z AUTO 00000KT 10SM CLR 26/19 A2983 RMK AO2 SLP094 T02560189

2010/08/09 16:55
KMMT 091655Z 09007KT 10SM FEW035 33/23 A3004 RMK SLP171

2010/08/09 16:55
KMXF 091655Z AUTO 11007KT 080V140 10SM CLR 35/23 A2998 RMK AO2 SLP152 T03520232

2010/08/09 16:55
KPAM 091655Z AUTO 07010G15KT 10SM CLR 33/24 A2996 RMK AO2 SLP146 T03270243 $

2010/08/09 16:55
KPSM 091655Z 25006KT 10SM SCT050 BKN200 32/19 A2991 RMK AO2A SLP131 T03190188

2010/08/09 16:55
KTCM 091655Z AUTO 22005KT 10SM BKN011 OVC025 15/12 A2998 RMK AO2 CIG 010V015 SLP156 T01450116

2010/08/09 16:55
KVOK 091655Z 25005KT 10SM SCT021 28/24 A2992 RMK AO2A SLP125

2010/08/09 17:00
LPLA 091700Z 05010KT 9999 FEW025 BKN045 24/18 Q1022

2010/08/09 17:00
MDPC 091700Z 09005KT 9999 SCT025 SCT300 31/25 Q1013 NOSIG

2010/08/09 17:00
MDPP 091700Z 09015KT 9999 SCT022 32/27 Q1015

2010/08/09 17:00
MDSD 091700Z 17006KT 9999 SCT025 SCT300 32/24 Q1013

2010/08/09 17:00
MDST 091700Z 10009KT 9999 SCT022 31/24 Q1014

2010/08/09 17:00
MNMG 091700Z 12008KT 9999 FEW024TCU SCT070 30/24 Q1011 A2986 TCU/NE/SW

2010/08/09 16:56
MUGM 091656Z 12013KT 9999 FEW025TCU BKN250 31/24 A2995 RMK SLP142 TCU DSNT NW-N T03110244

2010/08/09 17:00
TVSV 091700Z 15008KT 9999 FEWCB020 SCT023 31/26 Q1014/ CB NW/W

2010/08/09 16:50
EGCC 091650Z 22010KT 180V250 9999 FEW019 SCT032 20/15 Q1010 NOSIG

2010/08/09 16:50
EGLL 091650Z 21013KT 9999 SCT045 23/12 Q1013 NOSIG

2010/08/09 16:50
EGSH 091650Z 22010KT 180V250 9999 SCT046 24/10 Q1012

2010/08/09 16:50
EGSH 091650Z 22010KT 180V250 9999 SCT046 24/10 Q1012 NOSIG

2010/08/09 16:50
EGBJ 091650Z 22011KT 9999 VCSH FEW012 BKN018 19/15 Q1012

2010/08/09 16:50
EGDL 091650Z 20009KT 9999 BKN017 19/14 Q1013 WHT NOSIG

2010/08/09 16:50
EGDM 091650Z 22014KT 9999 BKN016 18/14 Q1014 WHT

2010/08/09 16:50
EGDR 091650Z 24012KT 7000 HZ FEW005 BKN012 18/16 Q1014 GRN

2010/08/09 16:50
EGDY 091650Z 21015KT 9999 FEW010 SCT020 BKN035 19/17 Q1013 WHT NOSIG

2010/08/09 16:50
EGHE 091650Z 23015KT 1200 -DZ BR BKN002 17/17 Q1014

2010/08/09 16:50
EGQK 091650Z 29002KT 9999 FEW010 SCT030 17/14 Q1005 BLU NOSIG

2010/08/09 16:50
EGQL 091650Z 26007KT 9999 FEW020 BKN050 18/14 Q1005 BLU NOSIG

2010/08/09 16:50
EGQS 091650Z 32008KT 9999 FEW005 SCT080 15/14 Q1005 BLU NOSIG

2010/08/09 16:50
EGSC 091650Z 23012KT 200V260 CAVOK 23/10 Q1012

2010/08/09 16:50
EGTC 091650Z 24012KT 210V280 9999 -SHRA FEW040 21/12 Q1012

2010/08/09 16:45
MMVA 091645Z 00000KT 7SM SCT010 BKN015 OVC080 30/26 A2985 RMK 8/41/ HZY

2010/08/09 16:56
KFSD 091656Z 07006KT 10SM FEW022 28/22 A2991 RMK AO2 SLP118 SCT ABV 120 T02780217 

2010/08/09 16:54
KWAL 091654Z 17008KT 10SM FEW025 SCT250 29/22 A3004 RMK AO2 SLP171 T02890222 

2010/08/09 16:56
KSPD 091656Z AUTO VRB03KT 29/16 A3004 RMK AO2 SLP097 T02890156 PWINO TSNO 

2010/08/09 16:56
KNQI 091656Z 12008KT 10SM BKN035 36/24 A2994 RMK AO2 SLP134 T03560244 

2010/08/09 16:56
KCDJ 091656Z AUTO 16010G15KT 29/24 A2991 RMK AO2 SLP112 T02940239 PWINO TSNO 

2010/08/09 16:50
EGDL 091650Z 20009KT 9999 BKN017 19/14 Q1013 NOSIG

2010/08/09 16:55
EHAM 091655Z 28004KT 210V320 9999 FEW040 22/12 Q1015 NOSIG

2010/08/09 16:55
EHBK 091655Z AUTO 28004KT 240V330 9999NDV NSC 22/10 Q1016 NOSIG

2010/08/09 16:55
EHGG 091655Z AUTO 28005KT 240V330 9999NDV NCD 21/12 Q1015 NOSIG

2010/08/09 16:55
EHRD 091655Z 19006KT 100V270 9999 FEW045 22/11 Q1015 NOSIG

2010/08/09 16:55
OPSK 091655Z 00000KT 2000 HZ SCT040 SCT100 30/28 Q1000 RH 89

2010/08/09 16:55
HLLT 091655Z HLLT 04008KT CAVOK 28/16 Q1015

2010/08/09 16:55
HLLT 091655Z HLLT 04008KT CAVOK 28/16 Q1015

2010/08/09 16:50
EFET 091650Z AUTO 04009KT 360V100 9999 OVC027 14/09 Q1013

2010/08/09 16:50
EFIV 091650Z 01011KT 8000 -RA BKN008 OVC020 11/11 Q1012

2010/08/09 16:50
EFKE 091650Z 36011KT 9999 BKN015 16/13 Q1008

2010/08/09 16:50
EFKI 091650Z AUTO 23003KT //// SKC 23/18 Q1008

2010/08/09 16:50
EFKS 091650Z AUTO 20003KT 9999 FEW045 20/17 Q1007

2010/08/09 16:50
EFKT 091650Z AUTO 02009KT 320V080 9999 OVC016 13/10 Q1011

2010/08/09 16:55
HLLT 091655Z HLLT 04008KT CAVOK 28/16 Q1015

2010/08/09 16:57
YAMB 091657Z AUTO 33004KT 6000NDV // SCT023 BKN054 OVC062 14/14 Q1021

2010/08/09 16:56
KGNR 091656Z AUTO 32004KT 21/17 A2993 RMK AO1 SLP134 T02110172 

2010/08/09 16:56
CBBC 091656Z AUTO 30003KT 270V020 9SM OVC009 OVC050 OVC071 OVC079 A3002

2010/08/09 16:56
KNFE 091656Z AUTO 13006KT 2 1/2SM HZ CLR 31/21 A3004 RMK AO2 SLP176 T03060206 $ 

2010/08/09 16:56
KP28 091656Z AUTO 16007KT 35/19 A2990 RMK AO2 SLP102 P0096 T03500194 PWINO TSNO 

2010/08/09 16:54
KSBN 091654Z 19004KT 10SM BKN040 26/21 A2998 RMK AO2 SLP146 T02560206 

2010/08/09 16:56
KHLR 091656Z AUTO 15007KT 130V200 10SM CLR 34/20 A2998 RMK AO2 SLP140 T03440200 $ 

2010/08/09 17:00
FDMS 091700Z 14008KT 9999 SCT030 15/13 Q1021 NOSIG

2010/08/09 16:56
KAQV 091656Z AUTO VRB05KT 10SM CLR 33/23 A2997 RMK AO2 SLP145 T03330228 

2010/08/09 16:56
KNGP 091656Z VRB06KT 10SM SCT023 SCT040 32/26 A2994 RMK AO2 SLP139 T03170261 VISNO 

2010/08/09 16:56
KWMC 091656Z AUTO VRB04KT 10SM CLR 24/04 A2998 RMK AO2 SLP106 T02440044 

2010/08/09 16:56
KINS 091656Z 02003KT 10SM 25/08 A2999 RMK AO2 SLP109 T02500083 $ 

2010/08/09 16:56
KGNA 091656Z AUTO 27007KT 19/17 A2988 RMK AO2 SLP115 T01940167 PWINO TSNO 

2010/08/09 16:56
KNUW 091656Z 21006KT 5SM BR BKN006 OVC015 14/12 A2997 RMK AO2 SLP152 T01370121 $ 

2010/08/09 16:56
KD07 091656Z AUTO 17015G22KT 28/19 A2993 RMK AO2 SLP117 T02830194 PWINO TSNO 

2010/08/09 16:50
BGCO 091650Z 34028KT 9999 BLSA FEW210 11/M02 Q1009

2010/08/09 16:50
BGGH 091650Z 20012KT 9999 SCT010 BKN050 13/09 Q1008

2010/08/09 16:50
BGJN 091650Z VRB02KT 9999 SCT100 BKN120 11/02 Q1007

2010/08/09 16:50
BGKK 091650Z 22013KT 9999 FEW100 BKN120 12/M00 Q1009

2010/08/09 16:50
BGSF 091650Z 22003KT 9999 SCT029 BKN045 16/11 Q1008

2010/08/09 16:55
BGTL 091655Z AUTO 25004KT 9999 CLR 05/02 A2988 RMK AO2 SLP122 T00500022

2010/08/09 16:52
KDLF 091652Z AUTO 11007G16KT 10SM SCT022 30/23 A2996 RMK AO2 SLP129

2010/08/09 16:50
EGDL 091650Z 20009KT 9999 BKN017 19/14 Q1013 WHT NOSIG

2010/08/09 16:50
EGDM 091650Z 22014KT 9999 BKN016 18/14 Q1014 WHT

2010/08/09 16:50
EGQK 091650Z 29002KT 9999 FEW010 SCT030 17/14 Q1005 BLU NOSIG

2010/08/09 16:50
EGQL 091650Z 26007KT 9999 FEW020 BKN050 18/14 Q1005 BLU NOSIG

2010/08/09 16:50
EGQS 091650Z 32008KT 9999 FEW005 SCT080 15/14 Q1005 BLU NOSIG

2010/08/09 16:50
EGUB 091650Z 21012KT 9999 SCT025 BKN045 20/14 Q1013 BLU BECMG BKN020 WHT

2010/08/09 16:50
EGUW 091650Z 23010KT 9999 FEW048 23/08 Q1012 BLU NOSIG

2010/08/09 16:50
EGVN 091650Z 22007KT 9999 BKN024 BKN060 19/15 Q1013 WHT NOSIG

2010/08/09 16:50
EGVP 091650Z 23013KT 9999 BKN018 19/14 Q1014 WHT BECMG BKN014 GRN

2010/08/09 16:50
EGWU 091650Z 24012KT CAVOK 23/12 Q1013 BLU NOSIG

2010/08/09 16:50
EGXC 091650Z 22011KT 9999 BKN048 BKN120 22/13 Q1010 BLU NOSIG

2010/08/09 16:50
EGXD 091650Z 22005KT 9999 FEW020 BKN036 17/16 Q1009 BLU NOSIG

2010/08/09 16:50
EGXE 091650Z 24009KT 9999 FEW009 BKN050 18/15 Q1009 BLU NOSIG

2010/08/09 16:50
EGXJ 091650Z 22017KT 9999 BKN035 21/12 Q1011 BLU NOSIG

2010/08/09 16:50
EGXW 091650Z 24016KT 9999 FEW034 BKN050 21/13 Q1010 BLU

2010/08/09 16:50
EGYM 091650Z 23016KT CAVOK 24/08 Q1011 BLU NOSIG

2010/08/09 16:55
EHAM 091655Z 28004KT 210V320 9999 FEW040 22/12 Q1015 NOSIG

2010/08/09 16:55
EHBK 091655Z AUTO 28004KT 240V330 9999NDV NSC 22/10 Q1016 NOSIG

2010/08/09 16:55
EHDL 091655Z AUTO 21005KT 9999NDV FEW038 21/13 Q1015 BLU

2010/08/09 16:55
EHGG 091655Z AUTO 28005KT 240V330 9999NDV NCD 21/12 Q1015 NOSIG

2010/08/09 16:55
EHGR 091655Z AUTO 21003KT 9999NDV FEW250 22/10 Q1015 BLU

2010/08/09 16:55
EHLW 091655Z AUTO 25007KT 9999NDV NCD 20/13 Q1015 BLU

2010/08/09 16:55
EHRD 091655Z 19006KT 100V270 9999 FEW045 22/11 Q1015 NOSIG

2010/08/09 16:55
EHVK 091655Z AUTO 23001KT 9999NDV BKN068 21/13 Q1015 BLU

2010/08/09 16:55
EHVL 091655Z AUTO 22012KT 9999NDV NCD 20/14 Q1015 BLU

2010/08/09 16:55
EHWO 091655Z AUTO 16002KT 9999NDV FEW330 22/10 Q1015 BLU

2010/08/09 16:55
ETIK 091655Z 00000KT 9999 FEW070 22/13 A3005 RMK AO2A SLP166 T02160132 $

2010/08/09 17:00
FIMP 091700Z 04006KT 9999 -SHRA FEW010 BKN015 BKN050 20/18 Q1024

2010/08/09 16:55
KCAO 091655Z AUTO VRB03KT 10SM CLR 30/14 A3009 RMK AO2 SLP105 T03000139 TSNO 

2010/08/09 16:56
KNPA 091656Z 12012KT 9SM SCT035 SCT280 32/25 A2998 RMK AO2 SLP152 T03220250 

2010/08/09 16:54
KWAL 091654Z 17008KT 10SM FEW025 SCT250 29/22 A3004 RMK AO2 SLP171 T02890222 

2010/08/09 16:55
KEGI 091655Z 07007KT 10SM SCT030 33/24 A2998 RMK AO2A SLP152 T03280237 $

2010/08/09 16:54
KNFG 091654Z VRB03KT 7SM FEW017 19/13 A2993 RMK AO2 SLP134 T01940128 $

2010/08/09 16:54
KNKT 091654Z 12008KT 10SM -RA FEW060 28/23 A3004 RMK AO2 RAB41 SLP171 P0000 T02830233

2010/08/09 16:55
KNKX 091655Z 00000KT 10SM SCT014 19/13 A2994 RMK AO2 SLP133 T01890128

2010/08/09 16:56
KNYG 091656Z 18009KT 9SM FEW050 SCT200 31/22 A3001 RMK AO2 SLP162 T03110222 $

2010/08/09 16:52
KNZY 091652Z 17004KT 10SM BKN017 22/14 A2993 RMK AO2 SLP135 T02170139 $

2010/08/09 16:55
KPAM 091655Z AUTO 07010G15KT 10SM CLR 33/24 A2996 RMK AO2 SLP146 T03270243 $

2010/08/09 16:55
KPOB 091655Z AUTO 00000KT 10SM SCT045 32/24 A3003 RMK AO2 SLP167 T03170235 $

2010/08/09 16:55
KPOE 091655Z AUTO 32003KT 10SM CLR 33/23 A2999 RMK AO2 SLP153 T03280233

2010/08/09 16:55
KPSM 091655Z 25006KT 10SM SCT050 BKN200 32/19 A2991 RMK AO2A SLP131 T03190188

2010/08/09 16:55
KSKA 091655Z AUTO 19008KT 10SM CLR 20/10 A2988 RMK AO2 SLP108 T02040102

2010/08/09 16:55
KSLI 091655Z 00000KT 6SM HZ OVC015 18/14 A2994 RMK AO2A SLP139 T01800140

2010/08/09 16:55
KTCM 091655Z AUTO 22005KT 10SM BKN011 OVC025 15/12 A2998 RMK AO2 CIG 010V015 SLP156 T01450116

2010/08/09 16:55
KVAD 091655Z AUTO 05011KT 10SM FEW041 32/22 A2998 RMK AO2 SLP150 T03230224 $

2010/08/09 16:55
KVOK 091655Z 25005KT 10SM SCT021 28/24 A2992 RMK AO2A SLP125

2010/08/09 17:00
TVSV 091700Z 15008KT 9999 FEWCB020 SCT023 31/26 Q1014/ CB NW/W

2010/08/09 16:50
OAKN 091650Z 24009KT 8000 DU FEW150 34/02 Q1004 BLU NOSIG RMK A2966 DA6500

2010/08/09 16:57
CZCP 091657Z AUTO 06013KT 1 1/4SM CLR 06/ A2982

2010/08/09 16:55
KFTK 091655Z 13004KT 10SM FEW040 SCT090 BKN250 34/22 A2999 RMK AO2A SLP152 T03380222

2010/08/09 16:55
KLSV 091655Z AUTO VRB03KT 10SM CLR 29/10 A2994 RMK AO2 SLP125 T02930098

2010/08/09 16:55
KNBG 091655Z 04006KT 10SM SCT025 BKN100 OVC250 33/24 A2999 RMK AO2 SLP155 T2 SET T03280244 $

2010/08/09 16:56
KNCA 091656Z VRB04KT 10SM SCT030 BKN080 32/23 A3003 RMK AO2 SLP171 T03200228 $

2010/08/09 16:54
KNFG 091654Z VRB03KT 7SM FEW017 19/13 A2993 RMK AO2 SLP134 T01940128 $

2010/08/09 16:54
KNKT 091654Z 12008KT 10SM -RA FEW060 28/23 A3004 RMK AO2 RAB41 SLP171 P0000 T02830233

2010/08/09 16:55
KNKX 091655Z 00000KT 10SM SCT014 19/13 A2994 RMK AO2 SLP133 T01890128

2010/08/09 16:56
KNTU 091656Z 10008KT 10SM SCT030 BKN200 29/23 A3004 RMK AO2 SLP176 T02890228 $

2010/08/09 16:55
KNUC 091655Z 36004KT 10SM BKN016 21/13 A2996 RMK SLP143 T02050125

2010/08/09 16:56
KNXP 091656Z 00000KT CLR 28/M01 A2999 RMK AO2 SLP117 T02831011 $

2010/08/09 16:56
KNYG 091656Z 18009KT 9SM FEW050 SCT200 31/22 A3001 RMK AO2 SLP162 T03110222 $

2010/08/09 16:52
KNZY 091652Z 17004KT 10SM BKN017 22/14 A2993 RMK AO2 SLP135 T02170139 $

2010/08/09 16:55
KPOE 091655Z AUTO 32003KT 10SM CLR 33/23 A2999 RMK AO2 SLP153 T03280233

2010/08/09 16:56
KWJF 091656Z 00000KT 10SM CLR 26/02 A2995 RMK AO2 SLP124 T02560017

2010/08/09 16:56
PHBK 091656Z AUTO 11004KT 10SM CLR 23/16 A3009 RMK AO2 SLP190 T02330161 TSNO $

2010/08/09 16:56
TJSJ 091656Z 06013KT 10SM FEW025 SCT040 SCT090 32/24 A2996 RMK AO2 RAB11E30 SLP144 VCSH S-SW P0000 T03170244

2010/08/09 16:50
EBAW 091650Z 21005KT CAVOK 23/10 Q1015 NOSIG

2010/08/09 16:50
EDLN 091650Z VRB03KT CAVOK 22/11 Q1016 RMK ATIS Y

2010/08/09 16:50
EDLP 091650Z VRB02KT 9999 FEW036 21/12 Q1016 RMK RWY24 TRL60 OK ATIS E

2010/08/09 16:50
EDLW 091650Z 25006KT CAVOK 21/12 Q1016 RMK ATISB

2010/08/09 16:50
EDNY 091650Z 19005KT CAVOK 24/12 Q1016 RMK ATIS A

2010/08/09 16:55
EHAM 091655Z 28004KT 210V320 9999 FEW040 22/12 Q1015 NOSIG

2010/08/09 16:55
EHBK 091655Z AUTO 28004KT 240V330 9999NDV NSC 22/10 Q1016 NOSIG

2010/08/09 16:55
EHDL 091655Z AUTO 21005KT 9999NDV FEW038 21/13 Q1015 BLU

2010/08/09 16:55
EHGG 091655Z AUTO 28005KT 240V330 9999NDV NCD 21/12 Q1015 NOSIG

2010/08/09 16:55
EHGR 091655Z AUTO 21003KT 9999NDV FEW250 22/10 Q1015 BLU

2010/08/09 16:55
EHLW 091655Z AUTO 25007KT 9999NDV NCD 20/13 Q1015 BLU

2010/08/09 16:55
EHRD 091655Z 19006KT 100V270 9999 FEW045 22/11 Q1015 NOSIG

2010/08/09 16:55
EHVK 091655Z AUTO 23001KT 9999NDV BKN068 21/13 Q1015 BLU

2010/08/09 16:55
EHVL 091655Z AUTO 22012KT 9999NDV NCD 20/14 Q1015 BLU

2010/08/09 16:55
EHWO 091655Z AUTO 16002KT 9999NDV FEW330 22/10 Q1015 BLU

2010/08/09 16:55
ETAD 091655Z AUTO 24005KT 9999 FEW055 SCT070 23/09 A3003 RMK AO2 SLP161 T02280088 $

2010/08/09 16:55
ETAR 091655Z AUTO 25004KT 9999 OVC075 23/12 A3002 RMK AO2 DZB1602E1610 SLP161 P0000 T02300124 $

2010/08/09 16:55
ETEB 091655Z AUTO 30004KT 9999 SCT044 21/12 A3005 RMK AO2 SLP166 T02080119

2010/08/09 16:56
ETIC 091656Z AUTO 23004KT 9999 CLR 21/18 A3004 RMK AO2 SLP162 T02090184

2010/08/09 16:55
ETIK 091655Z 00000KT 9999 FEW070 22/13 A3005 RMK AO2A SLP166 T02160132 $

2010/08/09 16:55
ETOU 091655Z AUTO 25006KT 9999 CLR 23/12 A3001 RMK AO2 SLP162 T02300120

2010/08/09 17:00
OYSY 091700Z 20006KT 9999 FEW039 BKN078 36/10 Q1003

2010/08/09 17:00
OYRN 091700Z 04004KT 9999 FEW020 28/21 Q1001

2010/08/09 17:00
OYHD 091700Z 36010KT 6000 BKN030 34/31 Q1001

2010/08/09 16:53
KMSY 091653Z COR 34008KT 10SM SCT060 BKN250 33/26 A2999 RMK AO2 CB DSNT SE SLP159 T03280256 

2010/08/09 16:56
KSDF 091656Z 00000KT 8SM FEW035 SCT150 SCT200 34/21 A2999 RMK AO2 SLP147 T03440211

2010/08/09 16:53
K04W 091653Z AUTO 24003KT 10SM CLR 28/24 A2993 RMK AO2 T02820239

2010/08/09 16:55
K21D 091655Z AUTO 00000KT 10SM CLR 28/22 A2992 RMK AO2

2010/08/09 16:56
KART 091656Z AUTO 25008KT 10SM FEW065 27/20 A2994 RMK AO2 SLP132 T02720200

2010/08/09 16:56
KBED 091656Z 23011G16KT 10SM CLR 33/17 A2994 RMK AO2 SLP146 T03330172

2010/08/09 16:54
KBJI 091654Z AUTO 00000KT 10SM CLR 29/18 A2991 RMK AO2

2010/08/09 16:56
KBJJ 091656Z AUTO 23004KT 9SM CLR 28/20 A3004 RMK AO2 SLP166 T02830200

2010/08/09 16:55
KBUU 091655Z AUTO 24007KT 10SM SCT120 27/22 A2993 RMK AO2 T02660218

2010/08/09 16:56
KBZN 091656Z 00000KT 10SM BKN100 18/11 A3002 RMK AO2 SLP138 T01830111

2010/08/09 16:53
KC29 091653Z AUTO 30008KT 10SM BKN019 BKN027 OVC032 28/21 A2994 RMK AO2 T02770212

2010/08/09 16:56
KCTB 091656Z AUTO 21010KT 10SM CLR 23/04 A2991 RMK AO2 SLP104 T02330044 PWINO

2010/08/09 16:56
KCXY 091656Z 32004KT 8SM CLR 31/18 A3001 RMK AO2 SLP160 T03110183

2010/08/09 16:53
KD39 091653Z AUTO 10004KT 10SM CLR 30/20 A2994 RMK AO2 T03020195

2010/08/09 16:56
KDAY 091656Z 23005KT 10SM FEW110 SCT250 31/18 A3004 RMK AO2 SLP161 T03110183

2010/08/09 16:55
KDVK 091655Z AUTO 00000KT 10SM CLR 33/21 A3003 RMK AO1

2010/08/09 16:56
KEED 091656Z AUTO 00000KT 10SM CLR 32/M01 A2988 RMK AO2 SLP084 T03171006 TSNO

2010/08/09 16:56
KELZ 091656Z AUTO 24007KT 10SM FEW080 27/17 A3008 RMK AO2 SLP171 T02670172

2010/08/09 16:55
KFAF 091655Z AUTO 27004KT 10SM FEW210 30/25 A3003 RMK AO2 SLP170 T03020249 $

2010/08/09 16:56
KGON 091656Z 22007KT 6SM HZ CLR 27/21 A2999 RMK AO2 SLP156 T02720211

2010/08/09 16:55
KGTB 091655Z AUTO 23009KT 10SM FEW026 27/20 A2995 RMK AO2 SLP139 T02730201

2010/08/09 16:55
KGUS 091655Z 22006KT 10SM FEW140 30/23 A2998 RMK AO2A CLDS LWR RWY05 SLP146 T03010232

2010/08/09 16:55
KHFJ 091655Z AUTO 21008KT 10SM CLR 34/24 A2995 RMK AO1

2010/08/09 16:56
KHND 091656Z 00000KT 10SM CLR 28/09 A2999 RMK AO2 T02830094 SLP105

2010/08/09 16:56
KHPN 091656Z VRB06KT 9SM FEW050 32/17 A2999 RMK AO2 SLP148 T03170172

2010/08/09 16:50
KHUM 091650Z 10010G15KT 10SM SCT020 31/24 A2995

2010/08/09 16:56
KHWV 091656Z AUTO 18010KT 8SM CLR 28/22 A3001 RMK AO2 SLP160 T02830222

2010/08/09 16:56
KHYA 091656Z 23015G21KT 10SM CLR 29/21 A2998 RMK AO2 SLP154 T02890211

2010/08/09 16:56
KISP 091656Z 20008KT 10SM FEW040TCU SCT080 29/20 A2999 RMK AO2 SLP154 TCU NW-N T02890200

2010/08/09 16:56
KITH 091656Z 24007KT 10SM FEW060 29/18 A3003 RMK AO2 T02940177 SLP160

2010/08/09 16:56
KJXN 091656Z 25006KT 5SM -RA BR BKN025 23/21 A3000 RMK AO2 RAB47 SLP153 P0001 T02330211 $

2010/08/09 16:56
KLAS 091656Z 16005KT 10SM CLR 29/09 A2993 RMK AO2 SLP108 T02890094

2010/08/09 16:55
KLCK 091655Z AUTO 22007KT 10SM CLR 31/20 A3003 RMK AO2 T03070199

2010/08/09 16:56
KLRD 091656Z 16007KT 140V200 10SM CLR 34/22 A2996 RMK AO2 T03440222 RAE26 P0000 SLP133

2010/08/09 16:56
KMDT 091656Z 00000KT 8SM FEW045 BKN250 31/21 A3000 RMK AO2 SLP157 T03060206

2010/08/09 16:53
KMSY 091653Z COR 34008KT 10SM SCT060 BKN250 33/26 A2999 RMK AO2 CB DSNT SE SLP159 T03280256

2010/08/09 16:53
KNQX 091653Z 20006KT 3SM +RA SCT018CB BKN025 OVC065 27/24 A2994 RMK AO2 SLP137 CB OHD MOV S T1 SET P0015 T02720244 $

2010/08/09 16:52
KNRB 091652Z 06010KT 10SM BKN030TCU 31/23 A2997 RMK AO2 RAB49E50 SLP149 TCU OHD P0000 T03060233

2010/08/09 16:56
KOWB 091656Z 00000KT 7SM CLR 35/22 A2998 RMK AO2 T03500222 SLP146

2010/08/09 16:55
KOZR 091655Z AUTO 06008KT 10SM CLR 33/25 A3000 RMK AO2 SLP154 T03300248 $

2010/08/09 16:56
KSBP 091656Z VRB03KT 10SM BKN011 16/12 A2995 RMK AO2 SLP141 T01560117 $

2010/08/09 16:56
KSGH 091656Z VRB03KT 5SM HZ CLR 30/22 A3005 RMK AO2 T03000216 SLP165 $

2010/08/09 16:58
KSGJ 091658Z 09012KT 10SM CLR 31/25 A2997 RMK AO2 SLP148 T03060250

2010/08/09 16:55
KSSC 091655Z VRB05KT 10SM SCT039 SCT050 BKN190 33/23 A3003 RMK AO2A SLP166 T03300226 $

2010/08/09 16:53
KUNI 091653Z AUTO 00000KT 10SM CLR 32/14 A3002 RMK AO2

2010/08/09 16:56
KWJF 091656Z 00000KT 10SM CLR 26/02 A2995 RMK AO2 SLP124 T02560017

2010/08/09 16:56
KDIJ 091656Z AUTO 23008KT 10SM FEW047 SCT100 21/07 A3013 RMK AO2 T02050066 SLP119 $

2010/08/09 16:55
KDLL 091655Z AUTO 26006KT 10SM BKN020 BKN100 26/22 A2993 RMK AO2 T02620215

2010/08/09 16:55
KDLP 091655Z AUTO 06022G29KT 3SM HZ SCT016 SCT049 BKN060 28/25 A2999 RMK A01

2010/08/09 16:56
KDVP 091656Z AUTO 09005KT 10SM SCT019 28/21 A2995 RMK AO2 T02810211

2010/08/09 16:54
KDXX 091654Z AUTO 00000KT 10SM CLR 28/21 A2992 RMK AO2

2010/08/09 16:54
KDYT 091654Z AUTO 05005KT 10SM CLR 23/21 A2991 RMK AO2

2010/08/09 17:00
KEDU 091700Z AUTO 00000KT 10SM CLR 19/13 A2989 RMK AO1

2010/08/09 16:55
KEFK 091655Z AUTO 23008KT 10SM SCT040 SCT050 24/17 A2995 RMK AO2

2010/08/09 16:51
KEGV 091651Z AUTO 35007KT 10SM SCT030 28/20 A2993 RMK AO2 T02790196

2010/08/09 16:55
KEHC 091655Z AUTO 00000KT 10SM CLR 31/24 A2999 RMK A01

2010/08/09 16:55
KVBS 091655Z AUTO 00000KT 10SM 31/25 A2998 RMK A01

2010/08/09 16:53
KVES 091653Z AUTO 22004KT 10SM SCT048 30/21 A3002 RMK AO2 T03020207

2010/08/09 16:56
KVVV 091656Z AUTO 00000KT 10SM CLR 28/20 A2992 RMK AO2

2010/08/09 16:49
KVWU 091649Z AUTO 00000KT 10SM CLR 29/21 A2989 RMK AO2

2010/08/09 16:56
KXVG 091656Z AUTO 23003KT 10SM CLR 28/21 A2992 RMK AO2

2010/08/09 16:55
KY63 091655Z AUTO 00000KT 10SM CLR 29/19 A2993 RMK AO2 T02900190

2010/08/09 16:56
PAGN 091656Z AUTO 00000KT BKN031 BKN044 RMK AO2 PWINO TSNO BKN V SCT SLPNO $

2010/08/09 16:56
PATQ 091656Z AUTO 07019KT 10SM OVC007 01/00 A2981 RMK AO2 TSNO T00110000 SLP100 $

2010/08/09 16:55
KMIU 091655Z AUTO 17008KT 10SM SCT022 SCT038 30/26 A2995 RMK A01

2010/08/09 16:51
KMJQ 091651Z AUTO 19004KT 10SM BKN020 BKN024 25/22 A2995 RMK AO2

2010/08/09 16:49
KMOX 091649Z AUTO 15003KT 10SM CLR 30/20 A2990 RMK AO2

2010/08/09 16:53
KMRT 091653Z AUTO 23007KT 10SM CLR 29/20 A3007 RMK AO2 T02940202

2010/08/09 16:54
KMVE 091654Z AUTO 00000KT 10SM CLR 29/23 A2991 RMK AO2

2010/08/09 16:53
KMWM 091653Z AUTO 00000KT 10SM SCT026 27/22 A2993 RMK AO2

2010/08/09 16:55
KMWO 091655Z AUTO 23006KT 10SM SCT055 33/20 A3002 RMK AO2

2010/08/09 16:53
KMWT 091653Z AUTO VRB03KT 10SM CLR 33/22 A2998 RMK AO2 SLP136 T03330222 TSNO

2010/08/09 16:55
KMZG 091655Z AUTO 00000KT FEW025 32/26 A2995 RMK A01

2010/08/09 16:50
KMZH 091650Z AUTO 00000KT 10SM CLR 28/22 A2991 RMK AO2

2010/08/09 16:56
KNTU 091656Z 10008KT 10SM SCT030 BKN200 29/23 A3004 RMK AO2 SLP176 T02890228 $

2010/08/09 16:50
KONA 091650Z AUTO 00000KT 10SM CLR 27/21 A2991 RMK AO2

2010/08/09 16:54
KONZ 091654Z AUTO 27005KT 10SM CLR 29/21 A2995 RMK AO2

2010/08/09 16:54
KORB 091654Z AUTO 00000KT 10SM CLR 27/19 A2990 RMK AO2

2010/08/09 16:53
KOVL 091653Z AUTO 04003KT 10SM CLR 28/19 A2991 RMK AO2 T02750187

2010/08/09 16:54
KOWA 091654Z AUTO 23005KT 10SM SCT018 27/23 A2993 RMK AO2

2010/08/09 16:53
KPEX 091653Z AUTO 30005KT 10SM CLR 29/20 A2994 RMK AO2 T02910197

2010/08/09 16:53
KPNM 091653Z AUTO 33004KT 10SM SCT011 28/23 A2993 RMK AO2

2010/08/09 16:53
KPQN 091653Z AUTO 11004KT 10SM CLR 29/23 A2994 RMK AO2

2010/08/09 16:52
KPVB 091652Z AUTO 26006KT 10SM BKN012 OVC095 26/22 A2996 RMK AO1 T02600222

2010/08/09 16:53
KPWC 091653Z AUTO 23003KT 10SM CLR 28/19 A2995 RMK AO2

2010/08/09 16:55
KRCM 091655Z AUTO 13003KT 7SM CLR 33/24 A2993 RMK AO2

2010/08/09 16:54
KRFD 091654Z 25009KT 10SM FEW080 SCT150 BKN250 27/21 A2995 RMK AO2 SLP135 T02670206

2010/08/09 16:54
KROS 091654Z AUTO 00000KT 10SM SCT007 27/24 A2993 RMK AO2 T02690235

2010/08/09 16:54
KROX 091654Z AUTO 10006KT 10SM CLR 29/22 A2987 RMK AO2

2010/08/09 16:54
KRRT 091654Z AUTO 06004KT 10SM CLR 26/22 A2988 RMK AO2 TSNO

2010/08/09 16:53
KRZN 091653Z AUTO 00000KT 10SM CLR 27/23 A2993 RMK AO2 T02670225

2010/08/09 16:54
KSAZ 091654Z AUTO 00000KT 10SM CLR 29/18 A2994 RMK AO2

2010/08/09 16:55
KSCF 091655Z AUTO 35007KT 10SM CLR 32/26 A2994 RMK A01

2010/08/09 16:53
KSGS 091653Z AUTO 05004KT 10SM CLR 31/21 A2991 RMK AO2 T03050205

2010/08/09 16:56
KSHV 091656Z VRB03KT 10SM FEW040 SCT300 34/22 A2997 RMK AO2 SLP144 T03440222

2010/08/09 16:55
KSPR 091655Z AUTO 32008KT 10SM 32/25 A2999 RMK A01

2010/08/09 16:55
KSRR 091655Z AUTO 30007KT 10SM FEW120 21/13 A3028 RMK AO2

2010/08/09 16:54
KSYN 091654Z AUTO 00000KT 10SM CLR 30/23 A2990 RMK AO2 T02990231

2010/08/09 16:53
KTEW 091653Z AUTO 22004KT 10SM RA SCT017 SCT030 SCT110 23/21 A2998 RMK AO2

2010/08/09 16:55
KY51 091655Z AUTO 30006KT 10SM SCT016 SCT120 27/23 A2995 RMK AO1 T02700225

2010/08/09 16:56
TJSJ 091656Z 06013KT 10SM FEW025 SCT040 SCT090 32/24 A2996 RMK AO2 RAB11E30 SLP144 VCSH S-SW P0000 T03170244

2010/08/09 16:57
PAAP 091657Z 00000KT 2 1/2SM -DZ BR SCT000 OVC005 12/11 A2999 RMK BR SCT000 NO SPECI

2010/08/09 16:50
PAMX 091650Z 00000KT 7SM -RA SCT038 BKN045 OVC060 11/09 A2988 RMK NOSPECI

2010/08/09 16:56
PATW 091656Z 14005KT 10SM BCFG SCT000 OVC025 08/07 A2969 RMK BCGF ALQDS EPO NOSPECI

2010/08/09 16:49
PAEC 091649Z 00000KT 1/2SM -RA FG OVC004 09/09 A2970 RMK NOSPECI

2010/08/09 16:56
PAFS 091656Z AUTO 01005KT 10SM OVC039 11/09 A2951 RMK AO2 TSNO T01050088 RAE1557 SLP002 $

2010/08/09 16:56
PAGN 091656Z AUTO 00000KT BKN031 BKN044 RMK AO2 PWINO TSNO BKN V SCT SLPNO $

2010/08/09 16:56
PAHC 091656Z AUTO 00000KT 10SM FEW029 SCT075 11/11 A2939 RMK AO2 TSNO T01110105 RAB05E55 P0001 SLP955 $

2010/08/09 16:56
PAIG 091656Z AUTO 22005KT 10SM SCT024 BKN035 12/09 A2955 RMK AO2 PWINO TSNO T01160094 BKN V SCT SLP009 $

2010/08/09 16:56
PAMO 091656Z AUTO 13019G24KT 1SM RA BR OVC003 09/09 A2930 RMK AO2 TSNO T00940094 CIG 001V005 P0002 SLP919 $

2010/08/09 16:56
PAOO 091656Z AUTO 14018KT 3SM -RA BR BKN009 BKN012 OVC018 09/09 A2920 RMK AO2 TSNO T00940094 BKN V OVC P0000 SLP888 $

2010/08/09 16:56
PAPM 091656Z AUTO 18023KT 3SM BR BKN009 OVC080 09/09 A2936 RMK AO2 TSNO T00940088 CIG 004V010 PK WND 18028/1626 SLP945 $

2010/08/09 16:56
PARS 091656Z AUTO 10005KT 10SM SCT011 OVC036 11/10 A2936 RMK AO2 TSNO T01050100 OVC V BKN RAE1557 SLP948 $

2010/08/09 16:56
PARY 091656Z AUTO 05008KT 10SM BKN002 OVC012 11/10 A2949 RMK AO2 PWINO TSNO T01050100 CIG 001V007 SLP990

2010/08/09 16:56
PATQ 091656Z AUTO 07019KT 10SM OVC007 01/00 A2981 RMK AO2 TSNO T00110000 SLP100 $

2010/08/09 16:56
KABQ 091656Z 00000KT 10SM FEW060 SCT140 26/12 A3017 RMK AO2 SLP127 T02560122 $

2010/08/09 16:54
KRIC 091654Z VRB03KT 10SM SCT049 BKN250 32/19 A3002 RMK AO2 SLP169 T03220194

2010/08/09 16:56
KJAX 091656Z 06011KT 7SM RA SCT032TCU SCT200 29/24 A2996 RMK AO2 RAB44 SLP146 TCU OHD P0000 T02940244

2010/08/09 16:56
K14Y 091656Z AUTO 00000KT 10SM CLR 29/17 A2995 RMK AO2 T02860173

2010/08/09 16:55
K1A6 091655Z AUTO 18005KT 10SM SCT050 33/25 A3007 RMK AO2

2010/08/09 16:55
K1P1 091655Z AUTO 31005KT 10SM SCT050 BKN075 29/18 A2994 RMK AO2 T02920177

2010/08/09 16:53
K29G 091653Z AUTO 26004KT 10SM CLR 28/17 A3003 RMK AO2 T02820173 PWINO

2010/08/09 16:55
K46D 091655Z AUTO 20011G16KT 10SM CLR 32/19 A2989 RMK AO2

2010/08/09 16:50
KAEL 091650Z AUTO 22005KT 10SM SCT026 SCT042 28/22 A2993 RMK AO2

2010/08/09 16:55
KAIG 091655Z AUTO 33003KT 10SM CLR 29/22 A2991 RMK AO2

2010/08/09 16:56
KAJO 091656Z AUTO VRB03KT 6SM HZ CLR 20/13 A2993 RMK AO2 T02000133 SLP128 $

2010/08/09 16:53
KAQP 091653Z AUTO 00000KT 10SM CLR 28/23 A2992 RMK AO2

2010/08/09 16:51
KARV 091651Z AUTO 31005KT 10SM SCT024 SCT032 28/21 A2995 RMK AO2 T02790211

2010/08/09 16:53
KBBB 091653Z AUTO 15003KT 10SM CLR 30/22 A2996 RMK AO2

2010/08/09 16:55
KBBF 091655Z AUTO 16008KT 10SM FEW023 FEW029 31/27 A2994 RMK A01

2010/08/09 16:53
KBFW 091653Z AUTO 19006KT 10SM CLR 25/19 A2990 RMK AO2

2010/08/09 16:55
KBQX 091655Z AUTO 00000KT 10SM FEW022 32/26 A2997 RMK A01

2010/08/09 16:50
KBWP 091650Z AUTO 19007KT 10SM CLR 29/17 A2992 RMK AO1 T02940173

2010/08/09 16:56
KCAE 091656Z VRB06KT 9SM FEW048 33/21 A3003 RMK AO2 SLP163 T03330211

2010/08/09 16:52
KCDD 091652Z AUTO 00000KT 10SM CLR 27/23 A2993 RMK AO2

2010/08/09 16:56
KCHS 091656Z 04009KT 10SM FEW025 33/23 A3000 RMK AO2 SLP158 T03280233

2010/08/09 16:55
KCLI 091655Z AUTO 00000KT 10SM SCT020 29/22 A2988 RMK AO2

2010/08/09 16:55
KCMB 091655Z AUTO 29006KT 10SM CLR 32/25 A2999 RMK A01

2010/08/09 16:55
KCMR 091655Z AUTO 16011KT 10SM SCT090 22/06 A3027 RMK AO1

2010/08/09 16:55
KCMY 091655Z AUTO 28004KT 10SM SCT020 28/22 A2992 RMK AO2 T02820217

2010/08/09 16:55
KCRH 091655Z AUTO 00000KT 10SM CLR 31/25 A2999 RMK A01

2010/08/09 16:50
KCVH 091650Z AUTO 00000KT 10SM OVC011 15/12 A2995 RMK AO1

2010/08/09 16:53
KTKC 091653Z AUTO 00000KT 10SM CLR 27/22 A2994 RMK AO2 T02740221

2010/08/09 16:54
KTOB 091654Z AUTO 24004KT 10SM SCT015 28/24 A2995 RMK AO2

2010/08/09 16:53
KTWM 091653Z AUTO 15004KT 10SM CLR 25/21 A2990 RMK AO2

2010/08/09 16:55
KULM 091655Z AUTO 11005KT 10SM CLR 28/23 A2992 RMK AO2

2010/08/09 16:55
KVAF 091655Z AUTO 15004KT 10SM CLR 31/26 A2994 RMK A01

2010/08/09 16:55
KEIR 091655Z AUTO 32007KT 10SM CLR 31/24 A3000 RMK A01

2010/08/09 16:56
KEKQ 091656Z AUTO VRB06KT 10SM FEW033 33/25 A3005 RMK AO2 T03270250 SLP172

2010/08/09 16:53
KELO 091653Z AUTO 24003KT 10SM CLR 26/19 A2991 RMK AO2

2010/08/09 16:55
KEMK 091655Z AUTO 15004KT 10SM CLR 31/25 A2998 RMK A01

2010/08/09 16:52
KETB 091652Z AUTO 23007G17KT 180V270 10SM SCT022 SCT029 27/20 A2991 RMK AO2 T02730203

2010/08/09 16:54
KETH 091654Z AUTO 00000KT 10SM CLR 29/18 A2995 RMK AO2

2010/08/09 16:52
KEVM 091652Z AUTO 13004KT 10SM CLR 26/23 A2991 RMK AO1 P0001

2010/08/09 16:54
KEZS 091654Z AUTO 00000KT 10SM SCT018 BKN026 29/24 A2989 RMK AO2 T02920235

2010/08/09 16:54
KFBL 091654Z AUTO 00000KT 10SM CLR 29/21 A2993 RMK AO2

2010/08/09 16:53
KFFM 091653Z AUTO 21006KT 10SM CLR 28/19 A2990 RMK AO2

2010/08/09 16:54
KFGN 091654Z AUTO 17004KT 10SM CLR 23/20 A2987 RMK AO2

2010/08/09 17:02
KFKA 091702Z AUTO 32005KT 10SM BKN022 BKN026 28/23 A2996 RMK AO2 T02770230

2010/08/09 16:53
KFOZ 091653Z AUTO 20005KT 10SM CLR 29/21 A2993 RMK AO2

2010/08/09 16:59
KFSO 091659Z AUTO 22003KT 10SM BKN070 BKN085 26/21 A2993 RMK AO2

2010/08/09 16:51
KFTG 091651Z 16005G14KT 20SM SCT100 BKN140 27/12 A3014

2010/08/09 16:55
KGBK 091655Z AUTO 00000KT 10SM CLR 34/25 A3000 RMK A01

2010/08/09 16:52
KGDB 091652Z AUTO 03004KT 10SM CLR 29/21 A2993 RMK AO2 T02900213

2010/08/09 16:55
KGGE 091655Z AUTO 08011G15KT 10SM SCT022 SCT031 31/26 A3002 RMK AO2 LTG DSNT E AND SE

2010/08/09 16:53
KGHW 091653Z AUTO 07003KT 10SM CLR 30/16 A2997 RMK AO2

2010/08/09 16:52
KGLW 091652Z AUTO 28004KT 10SM CLR 33/23 A3000 RMK AO2 T03310231

2010/08/09 16:55
KGUL 091655Z AUTO 10SM BKN025 32/25 A2999 RMK A01

2010/08/09 16:54
KGYL 091654Z AUTO 00000KT 10SM CLR 29/21 A2992 RMK AO2 T02930213

2010/08/09 16:52
KHCD 091652Z AUTO 03003KT 10SM CLR 29/21 A2992 RMK AO2 T02910213

2010/08/09 16:54
KHCO 091654Z AUTO 18008KT 10SM CLR 31/19 A2986 RMK AO2

2010/08/09 16:55
KHQI 091655Z AUTO 00000KT 10SM 32/25 A2998 RMK A01

2010/08/09 16:55
KHTO 091655Z 18014KT 7SM SKC 26/23 A3002

2010/08/09 16:51
KHZX 091651Z AUTO 28003KT 10SM CLR 28/20 A2993 RMK AO2

2010/08/09 16:54
KIKW 091654Z AUTO 23007KT 10SM BKN110 26/20 A2990 RMK AO2 T02580203

2010/08/09 16:55
KIPN 091655Z AUTO VRB04G10KT 10SM SCT040 SCT050 BKN060 29/24 A3000 RMK A01

2010/08/09 16:54
KJKJ 091654Z AUTO 22006KT 10SM CLR 29/22 A2989 RMK AO2

2010/08/09 16:54
KJMR 091654Z AUTO 00000KT 10SM CLR 26/22 A2995 RMK AO2

2010/08/09 16:52
KLJF 091652Z AUTO 00000KT 10SM CLR 29/21 A2993 RMK AO2

2010/08/09 16:53
KLVN 091653Z AUTO 09003KT 10SM CLR 29/23 A2992 RMK AO2

2010/08/09 16:53
KLXL 091653Z AUTO 01004KT 10SM CLR 28/18 A2993 RMK AO2

2010/08/09 16:58
KLYV 091658Z AUTO 00000KT 10SM BKN018 27/22 A2992 RMK AO2

2010/08/09 16:56
KM89 091656Z AUTO 20004KT 10SM CLR 37/26 A2996 RMK AO2 T03660261 SLP158 $

2010/08/09 16:55
KMDJ 091655Z AUTO 35012KT 10SM SCT026 SCT032 SCT120 31/26 A3001 RMK A01

2010/08/09 16:55
KMGG 091655Z AUTO 00000KT 10SM CLR 30/23 A2993 RMK AO2 T02970234

2010/08/09 16:55
KMHR 091655Z AUTO 21006KT 10SM CLR 18/12 A2989 RMK AO1

2010/08/09 16:56
PASY 091656Z AUTO 27005KT 3/4SM BR VV001 09/08 A2983 RMK AO2 SLP103 T00890083 TSNO PNO $ 

2010/08/09 16:50
EDHL 091650Z 28006KT 9999 FEW028 BKN050 18/18 Q1016 RMK Y

2010/08/09 16:50
EDLN 091650Z VRB03KT CAVOK 22/11 Q1016 RMK ATIS Y

2010/08/09 16:50
EDLP 091650Z VRB02KT 9999 FEW036 21/12 Q1016 RMK RWY24 TRL60 OK ATIS E

2010/08/09 16:50
EDLW 091650Z 25006KT CAVOK 21/12 Q1016 RMK ATISB

2010/08/09 16:50
EDNY 091650Z 19005KT CAVOK 24/12 Q1016 RMK ATIS A

2010/08/09 16:55
EHKD 091655Z AUTO 23007KT 9999NDV NCD 19/14 Q1015 BLU BLU NOSIG

2010/08/09 16:50
LGAD 091650Z 29004KT CAVOK 28/22 Q1011

2010/08/09 16:50
LGAL 091650Z 02006KT CAVOK 32/21 Q1009

2010/08/09 16:50
LGEL 091650Z 01007KT CAVOK 33/18 Q1007

2010/08/09 16:50
LGIR 091650Z 31013KT 9999 FEW020 28/24 Q1007 NOSIG

2010/08/09 16:50
LGKF 091650Z 33014KT 9999 FEW020 29/19 Q1009

2010/08/09 16:50
LGKL 091650Z 18004KT 9999 FEW030 29/20 Q1008

2010/08/09 16:50
LGKO 091650Z 32009KT CAVOK 29/22 Q1005

2010/08/09 16:50
LGKR 091650Z 28012KT 9999 FEW025 31/17 Q1009 NOSIG

2010/08/09 16:50
LGKV 091650Z 28005KT 9999 FEW030TCU SCT100 30/22 Q1008

2010/08/09 16:50
LGKZ 091650Z 00000KT 9999 SCT070 29/13 Q1013

2010/08/09 16:50
LGLM 091650Z 34004KT CAVOK 30/19 Q1008

2010/08/09 16:50
LGMT 091650Z /////KT CAVOK 34/22 Q1006

2010/08/09 16:50
LGPZ 091650Z 24014KT 9999 FEW030 27/21 Q1010 NOSIG

2010/08/09 16:50
LGRP 091650Z 24012KT 9999 FEW018 29/24 Q1004 NOSIG

2010/08/09 16:50
LGRX 091650Z 24004KT CAVOK 28/21 Q1008 NOSIG BLU

2010/08/09 16:50
LGSA 091650Z 30005KT 9999 FEW020 29/23 Q1009

2010/08/09 16:50
LGSK 091650Z 36004KT CAVOK 30/21 Q1009

2010/08/09 16:50
LGSR 091650Z 33015KT CAVOK 29/21 Q1006 NOSIG

2010/08/09 16:50
LGTS 091650Z 32009KT 9999 FEW030 31/21 Q1009 NOSIG

2010/08/09 16:50
LGZA 091650Z VRB02KT CAVOK 29/22 Q1009

2010/08/09 16:50
LOXT 091650Z 05003KT 50KM SCT060CU 22/14 Q1016 RMK SCT

2010/08/09 17:00
GVBA 091700Z 03010KT 9999 FEW015 30/19 Q1012 NOSIG

2010/08/09 16:53
KNIP 091653Z COR 07008KT 10SM FEW024 BKN034TCU 31/24 A2997 RMK AO2 RAB30E46 SLP144 TCU OHD P0000 T03110244 

2010/08/09 16:54
KMTP 091654Z AUTO 20006KT 27/21 A3002 RMK AO2 SLP164 T02720211 PWINO TSNO 

2010/08/09 16:50
VECC 091650Z 20005KT 2800 HZ FEW020 30/27 Q1001 NOSIG

2010/08/09 16:50
VGZR 091650Z 16003KT 2500 BR SCT012 BKN100 32/29 Q1001 NOSIG

2010/08/09 16:50
LGHI 091650Z 02009KT CAVOK 30/21 Q1006

2010/08/09 16:50
LGKF 091650Z 33014KT 9999 FEW020 29/19 Q1009

2010/08/09 16:50
LGKP 091650Z 32024KT 9999 FEW012 28/26 Q1004

2010/08/09 16:50
LGKZ 091650Z 00000KT 9999 SCT070 29/13 Q1013

2010/08/09 16:50
LGPA 091650Z 01013KT CAVOK 28/20 Q1007

2010/08/09 16:50
LGAL 091650Z 02006KT CAVOK 32/21 Q1009

2010/08/09 16:50
LGEL 091650Z 01007KT CAVOK 33/18 Q1007

2010/08/09 16:50
LGKV 091650Z 28005KT 9999 FEW030TCU SCT100 30/22 Q1008

2010/08/09 16:50
LGMT 091650Z /////KT CAVOK 34/22 Q1006

2010/08/09 16:50
LGPZ 091650Z 24014KT 9999 FEW030 27/21 Q1010 NOSIG

2010/08/09 16:50
LGSK 091650Z 36004KT CAVOK 30/21 Q1009

2010/08/09 16:50
LGSR 091650Z 33015KT CAVOK 29/21 Q1006 NOSIG

2010/08/09 16:50
LGZA 091650Z VRB02KT CAVOK 29/22 Q1009

2010/08/09 16:50
LGLM 091650Z 34004KT CAVOK 30/19 Q1008

2010/08/09 16:50
LGRX 091650Z 24004KT CAVOK 28/21 Q1008 NOSIG

2010/08/09 16:50
LGAD 091650Z 29004KT CAVOK 28/22 Q1011

2010/08/09 16:50
LGAV 091650Z 04010KT 9999 FEW030 30/20 Q1009 NOSIG

2010/08/09 16:50
LGIR 091650Z 31013KT 9999 FEW020 28/24 Q1007 NOSIG

2010/08/09 16:50
LGKL 091650Z 18004KT 9999 FEW030 29/20 Q1008

2010/08/09 16:50
LGKO 091650Z 32009KT CAVOK 29/22 Q1005

2010/08/09 16:50
LGKR 091650Z 28012KT 9999 FEW025 31/17 Q1009 NOSIG

2010/08/09 16:50
LGRP 091650Z 24012KT 9999 FEW018 29/24 Q1004 NOSIG

2010/08/09 16:50
LGSA 091650Z 30005KT 9999 FEW020 29/23 Q1009

2010/08/09 16:50
LGTS 091650Z 32009KT 9999 FEW030 31/21 Q1009 NOSIG

2010/08/09 16:50
LGSM 091650Z 35008KT 290V040 CAVOK 34/20 Q1004

2010/08/09 16:55
EHEH 091655Z AUTO 27002KT 9999NDV SCT280 22/12 Q1015 BLU BLU NOSIG

2010/08/09 16:55
EHKD 091655Z AUTO 23007KT 9999NDV NCD 19/14 Q1015 BLU BLU NOSIG

2010/08/09 17:00
UBBB 091700Z 17006KT CAVOK 31/24 Q1009 NOSIG RMK R88CLRD70

2010/08/09 17:00
OPPS 091700Z SE-04KTS 4000 BR SCT040 BKN100 29/28 Q1002.9

2010/08/09 16:57
KNJM 091657Z AUTO 13006KT 10SM FEW045 SCT065 28/24 A3005 RMK AO2 SLP178 T02830239 

2010/08/09 16:56
KSMP 091656Z AUTO VRB05KT M1/4SM FG VV001 09/09 A2998 RMK AO2 SLP148 T00890089 TSNO $ 

2010/08/09 17:00
DNMM 091700Z VRB02KT 9999 BKN010 26/24 Q1013 NOSIG

2010/08/09 17:00
SAZS 091700Z 00000KT CAVOK 04/M02 Q1024

2010/08/09 17:00
SBBE 091700Z 16007KT 9999 SCT025 FEW030TCU 33/23 Q1011

2010/08/09 17:00
SBBV 091700Z 01002KT 9999 SCT015 BKN080 31/22 Q1013

2010/08/09 17:00
SBCF 091700Z 28007KT CAVOK 26/05 Q1020

2010/08/09 17:00
SBCT 091700Z 07009KT 9999 SCT006 OVC008 12/10 Q1023

2010/08/09 17:00
SBCY 091700Z 05005KT CAVOK 35/06 Q1014

2010/08/09 17:00
SBFI 091700Z 18002KT CAVOK 21/10 Q1019

2010/08/09 17:00
SBFZ 091700Z 11016KT CAVOK 30/19 Q1012

2010/08/09 17:00
SBGL 091700Z 23019KT 9999 SCT020 24/16 Q1020

2010/08/09 17:00
SBSL 091700Z 07003KT 9999 SCT020 32/22 Q1012

2010/08/09 17:00
SBSP 091700Z 20007KT 9999 BKN009 15/12 Q1023

2010/08/09 17:00
SVBC 091700Z 18008KT 9999 -DZ OVC010/CB 28/23 Q1015

2010/08/09 17:00
SVMG 091700Z 18006KT 9999 SCT010CB SCT080 32/19 Q1013 TEMPO

2010/08/09 17:00
SVMI 091700Z 36003KT 9999 FEW016 SCT100 32/26 Q1013 NOSIG

2010/08/09 16:55
KQBL 091655Z AUTO VRB03KT 10SM CLR 34/24 A3001 RMK AO2 SLP162 T03370242

2010/08/09 16:55
KQC3 091655Z AUTO 04008G18KT 9999 -SHRA OVC100 18/16 A3012 RMK AO2 SLP105 T01810157 PNO $

2010/08/09 16:55
KQDP 091655Z AUTO RMK AO2 SLPNO $

2010/08/09 16:55
KQIU 091655Z AUTO 00000KT 9999 FEW016 OVC100 18/15 A3012 RMK AO2 SLP105

2010/08/09 16:55
KQQR 091655Z AUTO 19002KT 9999 FEW050 SCT070 27/20 A2983 RMK AO2 SLP033 T02730204 $

2010/08/09 16:55
KQSR 091655Z 04004KT 9999 -RA FEW010 SCT020 BKN030 OVC050 17/15 A3011 RMK AO2A SLP101 WND DATA/ALSTG ESTMD

2010/08/09 16:54
PGSN 091654Z 11006KT 10SM -RA FEW016 SCT075 OVC090 25/23 A2988 RMK AO2 SLP116 P0004 T02500233

2010/08/09 16:55
PGUA 091655Z AUTO 16003KT 10SM BKN048 BKN200 BKN230 25/ A2989 RMK AO2 DZB1619E1646 CIG 040 RWY24L SLP103 P0000 T0246 VISNO RWY24L $

2010/08/09 16:54
PGUM 091654Z 00000KT 10SM BKN050 25/24 A2989 RMK AO2 SLP114 T02500244

2010/08/09 16:56
PHBK 091656Z AUTO 11004KT 10SM CLR 23/16 A3009 RMK AO2 SLP190 T02330161 TSNO $

2010/08/09 16:55
PHHI 091655Z AUTO 00000KT 10SM CLR 22/18 A3010 RMK AO2 SLP182 T02160182 $

2010/08/09 16:53
PHJR 091653Z 09004KT 10SM CLR 25/16 A3009 RMK AO2 SLP196 T02500156

2010/08/09 16:53
PHKO 091653Z 07003KT 10SM FEW050 23/19 A3002 RMK AO2 SLP167 T02280189 PNO $

2010/08/09 16:54
PHMK 091654Z 06004KT 10SM CLR 24/14 A3009 RMK AO2 SLP190 T02440144

2010/08/09 16:53
PHNL 091653Z 07009KT 10SM FEW032 26/16 A3008 RMK AO2 SLP184 T02560156

2010/08/09 16:54
PHOG 091654Z 05011KT 10SM SCT040 24/17 A3008 RMK AO2 SLP192 T02440167

2010/08/09 16:53
PHTO 091653Z 24006KT 10SM SCT027 BKN043 BKN055 BKN140 21/19 A3010 RMK AO2 RAE13 SLP192 P0002 T02060189 $

2010/08/09 16:50
PTKK 091650Z VRB05KT 15SM FEW014 BKN120 OVC280 25/23 A2983 RMK SLP105 T02470234

2010/08/09 16:55
RJTY 091655Z AUTO 19005KT 9999 BKN050 OVC065 24/23 A3004 RMK AO2 SLP166 T02420228

2010/08/09 16:55
RODN 091655Z 18018G26KT 9999 SCT018 BKN024 28/26 A2972 RMK AO2A PK WND 17029/1559 CIG 024V029 SCT V BKN SLP063 T02790256

2010/08/09 16:54
KWAL 091654Z 17008KT 10SM FEW025 SCT250 29/22 A3004 RMK AO2 SLP171 T02890222 

2010/08/09 16:53
KLOR 091653Z AUTO 08007KT 060V130 10SM CLR 33/22 A2998 RMK AO2 SLP149 T03330222 TSNO PNO $ 

2010/08/09 16:53
KSDM 091653Z 00000KT 10SM CLR 19/12 A2994 RMK AO2 SLP134 T01890122 

2010/08/09 16:58
CWOB 091658Z AUTO ///// 0SM CLR 04/ A2970

2010/08/09 16:59
CYOO 091659Z AUTO 19006KT 5SM HZ CLR 26/21 A2992 RMK SLP131 DENSITY ALT 1800FT

2010/08/09 16:50
HLLB 091650Z 33018KT 9999 SCT020 26/19 Q1013

2010/08/09 16:50
KHMS 091650Z 16005KT 15SM FEW250 24/10 A2981 RMK SLP093 T02390098 RSNK 16/21016 

2010/08/09 17:00
LWSK 091700Z 36012KT 9999 FEW050 28/14 Q1013 NOSIG

2010/08/09 16:50
K3A6 091650Z AUTO 36001KT 24/11 A2991 RMK AO1 SLP141 T02440106 

2010/08/09 16:57
KNXF 091657Z AUTO 27007KT 8SM CLR 20/13 A2994 RMK AO2 SLP222 T02000128 TSNO 

2010/08/09 16:57
PAGH 091657Z AUTO 10009KT 10SM -RA FEW011 BKN055 OVC075 13/12 A2951 RMK AO2 RAE04B25 SLP020 P0000 T01330117

2010/08/09 16:56
PAMB 091656Z AUTO 20015G19KT 1SM BR OVC004 10/10 A2945 RMK AO2 PWINO TSNO T01000100 CIG 003V007 SLP977 $

2010/08/09 16:56
PAOH 091656Z AUTO 00000KT 10SM FEW019 OVC031 14/13 A2997 RMK AO2 TSNO T01380127 SLP150 $

2010/08/09 16:57
PAVA 091657Z AUTO 14014KT 9SM -RA OVC005 09/09 A2925 RMK AO2 RAB1558E11B55 CIG 004V009 SLP906 P0000 T00940094

2010/08/09 16:56
PPIZ 091656Z AUTO 06020G32KT 10SM OVC011 03/01 A2970 RMK AO2 TSNO T00270005 PK WND 07032/1621 SLP060 $

2010/08/09 16:47
KGYR 091647Z VRB04KT 20SM FEW100 BKN150 36/09 A2988

2010/08/09 16:55
KISO 091655Z 05006KT 7SM CLR 32/20 A3004

2010/08/09 16:58
KMEI 091658Z 00000KT 10SM FEW031 32/24 A2999 RMK AO2 SLP150 T03220239

2010/08/09 16:54
KNFG 091654Z VRB03KT 7SM FEW017 19/13 A2993 RMK AO2 SLP134 T01940128 $

2010/08/09 16:51
KOCF 091651Z 09004KT 10SM SCT036 BKN055 31/25 A2994

2010/08/09 16:55
KPAM 091655Z AUTO 07010G15KT 10SM CLR 33/24 A2996 RMK AO2 SLP146 T03270243 $

2010/08/09 16:55
KPSM 091655Z 25006KT 10SM SCT050 BKN200 32/19 A2991 RMK AO2A SLP131 T03190188

2010/08/09 16:55
KSAW 091655Z 33005KT 10SM SCT034 SCT047 29/19 A2986

2010/08/09 16:55
KVAD 091655Z AUTO 05011KT 10SM FEW041 32/22 A2998 RMK AO2 SLP150 T03230224 $

2010/08/09 16:56
KY50 091656Z AUTO 24004KT 10SM BKN014 OVC020 26/23 A2992 RMK AO2 T02610227 SLP121

2010/08/09 16:56
KSPD 091656Z AUTO VRB03KT 29/16 A3004 RMK AO2 SLP097 T02890156 PWINO TSNO

2010/08/09 16:56
KFSD 091656Z 07006KT 10SM FEW022 28/22 A2991 RMK AO2 SLP118 SCT ABV 120 T02780217

2010/08/09 16:54
KWAL 091654Z 17008KT 10SM FEW025 SCT250 29/22 A3004 RMK AO2 SLP171 T02890222

2010/08/09 16:56
KCDJ 091656Z AUTO 16010G15KT 29/24 A2991 RMK AO2 SLP112 T02940239 PWINO TSNO

2010/08/09 16:56
KGNR 091656Z AUTO 32004KT 21/17 A2993 RMK AO1 SLP134 T02110172

2010/08/09 16:56
KP28 091656Z AUTO 16007KT 35/19 A2990 RMK AO2 SLP102 P0096 T03500194 PWINO TSNO

2010/08/09 16:56
KNRS 091656Z 26007KT 10SM BKN017 19/13 A2994 RMK AO2 SLP138 T01890133

2010/08/09 16:56
KNFE 091656Z AUTO 13006KT 2 1/2SM HZ CLR 31/21 A3004 RMK AO2 SLP176 T03060206 $

2010/08/09 16:56
KAQV 091656Z AUTO VRB05KT 10SM CLR 33/23 A2997 RMK AO2 SLP145 T03330228

2010/08/09 16:56
KWMC 091656Z AUTO VRB04KT 10SM CLR 24/04 A2998 RMK AO2 SLP106 T02440044

2010/08/09 16:56
KNGP 091656Z VRB06KT 10SM SCT023 SCT040 32/26 A2994 RMK AO2 SLP139 T03170261 VISNO

2010/08/09 16:56
KGNA 091656Z AUTO 27007KT 19/17 A2988 RMK AO2 SLP115 T01940167 PWINO TSNO

2010/08/09 16:56
KD07 091656Z AUTO 17015G22KT 28/19 A2993 RMK AO2 SLP117 T02830194 PWINO TSNO

2010/08/09 16:55
KCAO 091655Z AUTO VRB03KT 10SM CLR 30/14 A3009 RMK AO2 SLP105 T03000139 TSNO

2010/08/09 16:53
KMSY 091653Z COR 34008KT 10SM SCT060 BKN250 33/26 A2999 RMK AO2 CB DSNT SE SLP159 T03280256

2010/08/09 16:50
KHMS 091650Z 16005KT 15SM FEW250 24/10 A2981 RMK SLP093 T02390098 RSNK 16/21016

2010/08/09 16:50
K3A6 091650Z AUTO 36001KT 24/11 A2991 RMK AO1 SLP141 T02440106

2010/08/09 16:54
KSBN 091654Z 19004KT 10SM BKN040 26/21 A2998 RMK AO2 SLP146 T02560206

2010/08/09 16:56
KINS 091656Z 02003KT 10SM 25/08 A2999 RMK AO2 SLP109 T02500083 $

2010/08/09 16:54
KWAL 091654Z 17008KT 10SM FEW025 SCT250 29/22 A3004 RMK AO2 SLP171 T02890222

2010/08/09 16:54
KMTP 091654Z AUTO 20006KT 27/21 A3002 RMK AO2 SLP164 T02720211 PWINO TSNO

2010/08/09 16:56
KSMP 091656Z AUTO VRB05KT M1/4SM FG VV001 09/09 A2998 RMK AO2 SLP148 T00890089 TSNO $

2010/08/09 16:53
KLOR 091653Z AUTO 08007KT 060V130 10SM CLR 33/22 A2998 RMK AO2 SLP149 T03330222 TSNO PNO $

2010/08/09 16:53
KSDM 091653Z 00000KT 10SM CLR 19/12 A2994 RMK AO2 SLP134 T01890122

2010/08/09 16:54
KWAL 091654Z 17008KT 10SM FEW025 SCT250 29/22 A3004 RMK AO2 SLP171 T02890222

2010/08/09 16:56
KSDF 091656Z 00000KT 8SM FEW035 SCT150 SCT200 34/21 A2999 RMK AO2 SLP147 T03440211

2010/08/09 16:53
K04W 091653Z AUTO 24003KT 10SM CLR 28/24 A2993 RMK AO2 T02820239

2010/08/09 16:55
K21D 091655Z AUTO 00000KT 10SM CLR 28/22 A2992 RMK AO2

2010/08/09 16:56
KART 091656Z AUTO 25008KT 10SM FEW065 27/20 A2994 RMK AO2 SLP132 T02720200

2010/08/09 16:56
KBED 091656Z 23011G16KT 10SM CLR 33/17 A2994 RMK AO2 SLP146 T03330172

2010/08/09 16:54
KBJI 091654Z AUTO 00000KT 10SM CLR 29/18 A2991 RMK AO2

2010/08/09 16:56
KBJJ 091656Z AUTO 23004KT 9SM CLR 28/20 A3004 RMK AO2 SLP166 T02830200

2010/08/09 16:55
KBUU 091655Z AUTO 24007KT 10SM SCT120 27/22 A2993 RMK AO2 T02660218

2010/08/09 16:53
KC29 091653Z AUTO 30008KT 10SM BKN019 BKN027 OVC032 28/21 A2994 RMK AO2 T02770212

2010/08/09 16:56
KCTB 091656Z AUTO 21010KT 10SM CLR 23/04 A2991 RMK AO2 SLP104 T02330044 PWINO

2010/08/09 16:56
KCXY 091656Z 32004KT 8SM CLR 31/18 A3001 RMK AO2 SLP160 T03110183

2010/08/09 16:53
KD39 091653Z AUTO 10004KT 10SM CLR 30/20 A2994 RMK AO2 T03020195

2010/08/09 16:56
KDAY 091656Z 23005KT 10SM FEW110 SCT250 31/18 A3004 RMK AO2 SLP161 T03110183

2010/08/09 16:56
KEED 091656Z AUTO 00000KT 10SM CLR 32/M01 A2988 RMK AO2 SLP084 T03171006 TSNO

2010/08/09 16:56
KELZ 091656Z AUTO 24007KT 10SM FEW080 27/17 A3008 RMK AO2 SLP171 T02670172

2010/08/09 16:56
KGON 091656Z 22007KT 6SM HZ CLR 27/21 A2999 RMK AO2 SLP156 T02720211

2010/08/09 16:55
KHFJ 091655Z AUTO 21008KT 10SM CLR 34/24 A2995 RMK AO1

2010/08/09 16:56
KHND 091656Z 00000KT 10SM CLR 28/09 A2999 RMK AO2 T02830094 SLP105

2010/08/09 16:56
KHPN 091656Z VRB06KT 9SM FEW050 32/17 A2999 RMK AO2 SLP148 T03170172

2010/08/09 16:50
KHUM 091650Z 10010G15KT 10SM SCT020 31/24 A2995

2010/08/09 16:56
KHWV 091656Z AUTO 18010KT 8SM CLR 28/22 A3001 RMK AO2 SLP160 T02830222

2010/08/09 16:56
KHYA 091656Z 23015G21KT 10SM CLR 29/21 A2998 RMK AO2 SLP154 T02890211

2010/08/09 16:56
KISP 091656Z 20008KT 10SM FEW040TCU SCT080 29/20 A2999 RMK AO2 SLP154 TCU NW-N T02890200

2010/08/09 16:56
KITH 091656Z 24007KT 10SM FEW060 29/18 A3003 RMK AO2 T02940177 SLP160

2010/08/09 16:56
KJXN 091656Z 25006KT 5SM -RA BR BKN025 23/21 A3000 RMK AO2 RAB47 SLP153 P0001 T02330211 $

2010/08/09 16:56
KLAS 091656Z 16005KT 10SM CLR 29/09 A2993 RMK AO2 SLP108 T02890094

2010/08/09 16:55
KLCK 091655Z AUTO 22007KT 10SM CLR 31/20 A3003 RMK AO2 T03070199

2010/08/09 16:56
KLRD 091656Z 16007KT 140V200 10SM CLR 34/22 A2996 RMK AO2 T03440222 RAE26 P0000 SLP133

2010/08/09 16:56
KMDT 091656Z 00000KT 8SM FEW045 BKN250 31/21 A3000 RMK AO2 SLP157 T03060206

2010/08/09 16:53
KMSY 091653Z COR 34008KT 10SM SCT060 BKN250 33/26 A2999 RMK AO2 CB DSNT SE SLP159 T03280256

2010/08/09 16:56
KOWB 091656Z 00000KT 7SM CLR 35/22 A2998 RMK AO2 T03500222 SLP146

2010/08/09 16:56
KSBP 091656Z VRB03KT 10SM BKN011 16/12 A2995 RMK AO2 SLP141 T01560117 $

2010/08/09 16:56
KSGH 091656Z VRB03KT 5SM HZ CLR 30/22 A3005 RMK AO2 T03000216 SLP165 $

2010/08/09 16:58
KSGJ 091658Z 09012KT 10SM CLR 31/25 A2997 RMK AO2 SLP148 T03060250

2010/08/09 16:53
KUNI 091653Z AUTO 00000KT 10SM CLR 32/14 A3002 RMK AO2

2010/08/09 16:56
KWJF 091656Z 00000KT 10SM CLR 26/02 A2995 RMK AO2 SLP124 T02560017

2010/08/09 16:55
KY51 091655Z AUTO 30006KT 10SM SCT016 SCT120 27/23 A2995 RMK AO1 T02700225

2010/08/09 16:56
KNFE 091656Z AUTO 13006KT 2 1/2SM HZ CLR 31/21 A3004 RMK AO2 SLP176 T03060206 $

2010/08/09 16:56
KNSE 091656Z 13006KT 9SM SCT030 SCT130 33/24 A2999 RMK AO2 SLP138 T03330239 $

2010/08/09 16:57
PAAP 091657Z 00000KT 2 1/2SM -DZ BR SCT000 OVC005 12/11 A2999 RMK BR SCT000 NO SPECI

2010/08/09 16:50
PAMX 091650Z 00000KT 7SM -RA SCT038 BKN045 OVC060 11/09 A2988 RMK NOSPECI

2010/08/09 16:56
PATW 091656Z 14005KT 10SM BCFG SCT000 OVC025 08/07 A2969 RMK BCGF ALQDS EPO NOSPECI

2010/08/09 16:49
PAEC 091649Z 00000KT 1/2SM -RA FG OVC004 09/09 A2970 RMK NOSPECI

2010/08/09 16:56
PAFS 091656Z AUTO 01005KT 10SM OVC039 11/09 A2951 RMK AO2 TSNO T01050088 RAE1557 SLP002 $

2010/08/09 16:56
PAGN 091656Z AUTO 00000KT BKN031 BKN044 RMK AO2 PWINO TSNO BKN V SCT SLPNO $

2010/08/09 16:54
PGSN 091654Z 11006KT 10SM -RA FEW016 SCT075 OVC090 25/23 A2988 RMK AO2 SLP116 P0004 T02500233

2010/08/09 16:54
PGUM 091654Z 00000KT 10SM BKN050 25/24 A2989 RMK AO2 SLP114 T02500244

2010/08/09 16:50
PTKK 091650Z VRB05KT 15SM FEW014 BKN120 OVC280 25/23 A2983 RMK SLP105 T02470234

2010/08/09 16:56
PMDY 091656Z AUTO 07008KT 10SM CLR 26/21 A3022 RMK AO2 TSNO T02550211 SLP541

2010/08/09 16:55
KFAF 091655Z AUTO 27004KT 10SM FEW210 30/25 A3003 RMK AO2 SLP170 T03020249 $

2010/08/09 16:55
KGTB 091655Z AUTO 23009KT 10SM FEW026 27/20 A2995 RMK AO2 SLP139 T02730201

2010/08/09 16:55
KGUS 091655Z 22006KT 10SM FEW140 30/23 A2998 RMK AO2A CLDS LWR RWY05 SLP146 T03010232

2010/08/09 16:55
KCOF 091655Z 13008KT 10SM CLR 29/24 A2995 RMK AO2A SLP143 T02900241

2010/08/09 16:55
KEND 091655Z 17011KT 10SM FEW200 36/20 A2991 RMK AO2A SLP109 T03560200

2010/08/09 16:55
KMIB 091655Z AUTO 00000KT 10SM CLR 26/19 A2983 RMK AO2 SLP094 T02560189

2010/08/09 16:55
KMMT 091655Z 09007KT 10SM FEW035 33/23 A3004 RMK SLP171

2010/08/09 16:55
KMXF 091655Z AUTO 11007KT 080V140 10SM CLR 35/23 A2998 RMK AO2 SLP152 T03520232

2010/08/09 16:55
KPAM 091655Z AUTO 07010G15KT 10SM CLR 33/24 A2996 RMK AO2 SLP146 T03270243 $

2010/08/09 16:55
KPSM 091655Z 25006KT 10SM SCT050 BKN200 32/19 A2991 RMK AO2A SLP131 T03190188

2010/08/09 16:55
KTCM 091655Z AUTO 22005KT 10SM BKN011 OVC025 15/12 A2998 RMK AO2 CIG 010V015 SLP156 T01450116

2010/08/09 16:55
KVOK 091655Z 25005KT 10SM SCT021 28/24 A2992 RMK AO2A SLP125

2010/08/09 16:56
KNQI 091656Z 12008KT 10SM BKN035 36/24 A2994 RMK AO2 SLP134 T03560244

2010/08/09 16:56
KNXX 091656Z 25005KT 9SM SCT045 31/18 A3003 RMK AO2 SLP171 T03110183 $

2010/08/09 16:56
KNDZ 091656Z AUTO 08004KT 10SM FEW030 34/23 A2999 RMK AO2 SLP138 T03440228 PWINO $

2010/08/09 16:53
KNQX 091653Z 20006KT 3SM +RA SCT018CB BKN025 OVC065 27/24 A2994 RMK AO2 SLP137 CB OHD MOV S T1 SET P0015 T02720244 $

2010/08/09 16:52
KNRB 091652Z 06010KT 10SM BKN030TCU 31/23 A2997 RMK AO2 RAB49E50 SLP149 TCU OHD P0000 T03060233

2010/08/09 16:55
KOZR 091655Z AUTO 06008KT 10SM CLR 33/25 A3000 RMK AO2 SLP154 T03300248 $

2010/08/09 16:55
KSSC 091655Z VRB05KT 10SM SCT039 SCT050 BKN190 33/23 A3003 RMK AO2A SLP166 T03300226 $

2010/08/09 16:56
KNMM 091656Z 09004KT 10SM SCT026 33/24 A2999 RMK AO2 SLP162 T03280239 $

2010/08/09 16:56
KNRS 091656Z 26007KT 10SM BKN017 19/13 A2994 RMK AO2 SLP138 T01890133

2010/08/09 16:56
KPRN 091656Z AUTO 09006KT 10SM CLR 33/23 A3000 RMK AO2 SLP152 T03330233 $

2010/08/09 16:56
KHLR 091656Z AUTO 15007KT 130V200 10SM CLR 34/20 A2998 RMK AO2 SLP140 T03440200 $

2010/08/09 16:56
KNBC 091656Z 03009G15KT 7SM FEW030 SCT200 33/21 A3000 RMK AO2 SLP157 T03280206

2010/08/09 16:56
KAQV 091656Z AUTO VRB05KT 10SM CLR 33/23 A2997 RMK AO2 SLP145 T03330228

2010/08/09 16:56
KNGP 091656Z VRB06KT 10SM SCT023 SCT040 32/26 A2994 RMK AO2 SLP139 T03170261 VISNO

2010/08/09 16:56
K79J 091656Z 13010KT 10SM FEW042 34/23 A2998 RMK AO2 SLP148 T03440228 PNO $

2010/08/09 16:56
KNUW 091656Z 21006KT 5SM BR BKN006 OVC015 14/12 A2997 RMK AO2 SLP152 T01370121 $

2010/08/09 16:56
KNPA 091656Z 12012KT 9SM SCT035 SCT280 32/25 A2998 RMK AO2 SLP152 T03220250

2010/08/09 16:54
KNFG 091654Z VRB03KT 7SM FEW017 19/13 A2993 RMK AO2 SLP134 T01940128 $

2010/08/09 16:54
KNKT 091654Z 12008KT 10SM -RA FEW060 28/23 A3004 RMK AO2 RAB41 SLP171 P0000 T02830233

2010/08/09 16:55
KNKX 091655Z 00000KT 10SM SCT014 19/13 A2994 RMK AO2 SLP133 T01890128

2010/08/09 16:56
KNYG 091656Z 18009KT 9SM FEW050 SCT200 31/22 A3001 RMK AO2 SLP162 T03110222 $

2010/08/09 16:52
KNZY 091652Z 17004KT 10SM BKN017 22/14 A2993 RMK AO2 SLP135 T02170139 $

2010/08/09 16:55
KPAM 091655Z AUTO 07010G15KT 10SM CLR 33/24 A2996 RMK AO2 SLP146 T03270243 $

2010/08/09 16:55
KPOB 091655Z AUTO 00000KT 10SM SCT045 32/24 A3003 RMK AO2 SLP167 T03170235 $

2010/08/09 16:55
KPOE 091655Z AUTO 32003KT 10SM CLR 33/23 A2999 RMK AO2 SLP153 T03280233

2010/08/09 16:55
KPSM 091655Z 25006KT 10SM SCT050 BKN200 32/19 A2991 RMK AO2A SLP131 T03190188

2010/08/09 16:55
KSKA 091655Z AUTO 19008KT 10SM CLR 20/10 A2988 RMK AO2 SLP108 T02040102

2010/08/09 16:55
KSLI 091655Z 00000KT 6SM HZ OVC015 18/14 A2994 RMK AO2A SLP139 T01800140

2010/08/09 16:55
KTCM 091655Z AUTO 22005KT 10SM BKN011 OVC025 15/12 A2998 RMK AO2 CIG 010V015 SLP156 T01450116

2010/08/09 16:56
PAHC 091656Z AUTO 00000KT 10SM FEW029 SCT075 11/11 A2939 RMK AO2 TSNO T01110105 RAB05E55 P0001 SLP955 $

2010/08/09 16:56
PAIG 091656Z AUTO 22005KT 10SM SCT024 BKN035 12/09 A2955 RMK AO2 PWINO TSNO T01160094 BKN V SCT SLP009 $

2010/08/09 16:56
PAMO 091656Z AUTO 13019G24KT 1SM RA BR OVC003 09/09 A2930 RMK AO2 TSNO T00940094 CIG 001V005 P0002 SLP919 $

2010/08/09 16:56
PAOO 091656Z AUTO 14018KT 3SM -RA BR BKN009 BKN012 OVC018 09/09 A2920 RMK AO2 TSNO T00940094 BKN V OVC P0000 SLP888 $

2010/08/09 16:56
PAPM 091656Z AUTO 18023KT 3SM BR BKN009 OVC080 09/09 A2936 RMK AO2 TSNO T00940088 CIG 004V010 PK WND 18028/1626 SLP945 $

2010/08/09 16:56
PARS 091656Z AUTO 10005KT 10SM SCT011 OVC036 11/10 A2936 RMK AO2 TSNO T01050100 OVC V BKN RAE1557 SLP948 $

2010/08/09 16:56
PARY 091656Z AUTO 05008KT 10SM BKN002 OVC012 11/10 A2949 RMK AO2 PWINO TSNO T01050100 CIG 001V007 SLP990

2010/08/09 16:56
PATQ 091656Z AUTO 07019KT 10SM OVC007 01/00 A2981 RMK AO2 TSNO T00110000 SLP100 $

2010/08/09 16:56
K14Y 091656Z AUTO 00000KT 10SM CLR 29/17 A2995 RMK AO2 T02860173

2010/08/09 16:55
K1A6 091655Z AUTO 18005KT 10SM SCT050 33/25 A3007 RMK AO2

2010/08/09 16:55
K1P1 091655Z AUTO 31005KT 10SM SCT050 BKN075 29/18 A2994 RMK AO2 T02920177

2010/08/09 16:55
K46D 091655Z AUTO 20011G16KT 10SM CLR 32/19 A2989 RMK AO2

2010/08/09 16:50
KAEL 091650Z AUTO 22005KT 10SM SCT026 SCT042 28/22 A2993 RMK AO2

2010/08/09 16:55
KAIG 091655Z AUTO 33003KT 10SM CLR 29/22 A2991 RMK AO2

2010/08/09 16:56
KAJO 091656Z AUTO VRB03KT 6SM HZ CLR 20/13 A2993 RMK AO2 T02000133 SLP128 $

2010/08/09 16:53
KAQP 091653Z AUTO 00000KT 10SM CLR 28/23 A2992 RMK AO2

2010/08/09 16:51
KARV 091651Z AUTO 31005KT 10SM SCT024 SCT032 28/21 A2995 RMK AO2 T02790211

2010/08/09 16:53
KBBB 091653Z AUTO 15003KT 10SM CLR 30/22 A2996 RMK AO2

2010/08/09 16:55
KBBF 091655Z AUTO 16008KT 10SM FEW023 FEW029 31/27 A2994 RMK A01

2010/08/09 16:53
KBFW 091653Z AUTO 19006KT 10SM CLR 25/19 A2990 RMK AO2

2010/08/09 16:55
KBQX 091655Z AUTO 00000KT 10SM FEW022 32/26 A2997 RMK A01

2010/08/09 16:50
KBWP 091650Z AUTO 19007KT 10SM CLR 29/17 A2992 RMK AO1 T02940173

2010/08/09 16:52
KCDD 091652Z AUTO 00000KT 10SM CLR 27/23 A2993 RMK AO2

2010/08/09 16:55
KCMB 091655Z AUTO 29006KT 10SM CLR 32/25 A2999 RMK A01

2010/08/09 16:55
KCMR 091655Z AUTO 16011KT 10SM SCT090 22/06 A3027 RMK AO1

2010/08/09 16:55
KCMY 091655Z AUTO 28004KT 10SM SCT020 28/22 A2992 RMK AO2 T02820217

2010/08/09 16:55
KCRH 091655Z AUTO 00000KT 10SM CLR 31/25 A2999 RMK A01

2010/08/09 16:50
KCVH 091650Z AUTO 00000KT 10SM OVC011 15/12 A2995 RMK AO1

2010/08/09 16:56
KDIJ 091656Z AUTO 23008KT 10SM FEW047 SCT100 21/07 A3013 RMK AO2 T02050066 SLP119 $

2010/08/09 16:55
KDLL 091655Z AUTO 26006KT 10SM BKN020 BKN100 26/22 A2993 RMK AO2 T02620215

2010/08/09 16:55
KDLP 091655Z AUTO 06022G29KT 3SM HZ SCT016 SCT049 BKN060 28/25 A2999 RMK A01

2010/08/09 16:56
KDVP 091656Z AUTO 09005KT 10SM SCT019 28/21 A2995 RMK AO2 T02810211

2010/08/09 16:54
KDXX 091654Z AUTO 00000KT 10SM CLR 28/21 A2992 RMK AO2

2010/08/09 16:54
KDYT 091654Z AUTO 05005KT 10SM CLR 23/21 A2991 RMK AO2

2010/08/09 16:55
KEFK 091655Z AUTO 23008KT 10SM SCT040 SCT050 24/17 A2995 RMK AO2

2010/08/09 16:51
KEGV 091651Z AUTO 35007KT 10SM SCT030 28/20 A2993 RMK AO2 T02790196

2010/08/09 16:55
KEHC 091655Z AUTO 00000KT 10SM CLR 31/24 A2999 RMK A01

2010/08/09 16:55
KVBS 091655Z AUTO 00000KT 10SM 31/25 A2998 RMK A01

2010/08/09 16:53
KVES 091653Z AUTO 22004KT 10SM SCT048 30/21 A3002 RMK AO2 T03020207

2010/08/09 16:56
KVVV 091656Z AUTO 00000KT 10SM CLR 28/20 A2992 RMK AO2

2010/08/09 16:49
KVWU 091649Z AUTO 00000KT 10SM CLR 29/21 A2989 RMK AO2

2010/08/09 16:56
KXVG 091656Z AUTO 23003KT 10SM CLR 28/21 A2992 RMK AO2

2010/08/09 16:55
KY63 091655Z AUTO 00000KT 10SM CLR 29/19 A2993 RMK AO2 T02900190

2010/08/09 16:56
PAGN 091656Z AUTO 00000KT BKN031 BKN044 RMK AO2 PWINO TSNO BKN V SCT SLPNO $

2010/08/09 16:56
PATQ 091656Z AUTO 07019KT 10SM OVC007 01/00 A2981 RMK AO2 TSNO T00110000 SLP100 $

2010/08/09 16:55
KMIU 091655Z AUTO 17008KT 10SM SCT022 SCT038 30/26 A2995 RMK A01

2010/08/09 16:51
KMJQ 091651Z AUTO 19004KT 10SM BKN020 BKN024 25/22 A2995 RMK AO2

2010/08/09 16:56
KINS 091656Z 02003KT 10SM 25/08 A2999 RMK AO2 SLP109 T02500083 $

2010/08/09 16:53
KLOR 091653Z AUTO 08007KT 060V130 10SM CLR 33/22 A2998 RMK AO2 SLP149 T03330222 TSNO PNO $

2010/08/09 16:49
KMOX 091649Z AUTO 15003KT 10SM CLR 30/20 A2990 RMK AO2

2010/08/09 16:54
KMVE 091654Z AUTO 00000KT 10SM CLR 29/23 A2991 RMK AO2

2010/08/09 16:53
KMWM 091653Z AUTO 00000KT 10SM SCT026 27/22 A2993 RMK AO2

2010/08/09 16:55
KMWO 091655Z AUTO 23006KT 10SM SCT055 33/20 A3002 RMK AO2

2010/08/09 16:55
KMZG 091655Z AUTO 00000KT FEW025 32/26 A2995 RMK A01

2010/08/09 16:50
KMZH 091650Z AUTO 00000KT 10SM CLR 28/22 A2991 RMK AO2

2010/08/09 16:50
KONA 091650Z AUTO 00000KT 10SM CLR 27/21 A2991 RMK AO2

2010/08/09 16:54
KONZ 091654Z AUTO 27005KT 10SM CLR 29/21 A2995 RMK AO2

2010/08/09 16:54
KORB 091654Z AUTO 00000KT 10SM CLR 27/19 A2990 RMK AO2

2010/08/09 16:53
KOVL 091653Z AUTO 04003KT 10SM CLR 28/19 A2991 RMK AO2 T02750187

2010/08/09 16:54
KOWA 091654Z AUTO 23005KT 10SM SCT018 27/23 A2993 RMK AO2

2010/08/09 16:53
KPEX 091653Z AUTO 30005KT 10SM CLR 29/20 A2994 RMK AO2 T02910197

2010/08/09 16:53
KPNM 091653Z AUTO 33004KT 10SM SCT011 28/23 A2993 RMK AO2

2010/08/09 16:53
KPQN 091653Z AUTO 11004KT 10SM CLR 29/23 A2994 RMK AO2

2010/08/09 16:52
KPVB 091652Z AUTO 26006KT 10SM BKN012 OVC095 26/22 A2996 RMK AO1 T02600222

2010/08/09 16:53
KPWC 091653Z AUTO 23003KT 10SM CLR 28/19 A2995 RMK AO2

2010/08/09 16:55
KRCM 091655Z AUTO 13003KT 7SM CLR 33/24 A2993 RMK AO2

2010/08/09 16:54
KROX 091654Z AUTO 10006KT 10SM CLR 29/22 A2987 RMK AO2

2010/08/09 16:54
KRRT 091654Z AUTO 06004KT 10SM CLR 26/22 A2988 RMK AO2 TSNO

2010/08/09 16:53
KRZN 091653Z AUTO 00000KT 10SM CLR 27/23 A2993 RMK AO2 T02670225

2010/08/09 16:54
KSAZ 091654Z AUTO 00000KT 10SM CLR 29/18 A2994 RMK AO2

2010/08/09 16:53
KSGS 091653Z AUTO 05004KT 10SM CLR 31/21 A2991 RMK AO2 T03050205

2010/08/09 16:55
KSPR 091655Z AUTO 32008KT 10SM 32/25 A2999 RMK A01

2010/08/09 16:55
KSRR 091655Z AUTO 30007KT 10SM FEW120 21/13 A3028 RMK AO2

2010/08/09 16:53
KTEW 091653Z AUTO 22004KT 10SM RA SCT017 SCT030 SCT110 23/21 A2998 RMK AO2

2010/08/09 16:54
KTOB 091654Z AUTO 24004KT 10SM SCT015 28/24 A2995 RMK AO2

2010/08/09 16:53
KTWM 091653Z AUTO 15004KT 10SM CLR 25/21 A2990 RMK AO2

2010/08/09 16:55
KULM 091655Z AUTO 11005KT 10SM CLR 28/23 A2992 RMK AO2

2010/08/09 16:55
KVAF 091655Z AUTO 15004KT 10SM CLR 31/26 A2994 RMK A01

2010/08/09 16:55
KEIR 091655Z AUTO 32007KT 10SM CLR 31/24 A3000 RMK A01

2010/08/09 16:56
KEKQ 091656Z AUTO VRB06KT 10SM FEW033 33/25 A3005 RMK AO2 T03270250 SLP172

2010/08/09 16:53
KELO 091653Z AUTO 24003KT 10SM CLR 26/19 A2991 RMK AO2

2010/08/09 16:55
KEMK 091655Z AUTO 15004KT 10SM CLR 31/25 A2998 RMK A01

2010/08/09 16:52
KETB 091652Z AUTO 23007G17KT 180V270 10SM SCT022 SCT029 27/20 A2991 RMK AO2 T02730203

2010/08/09 16:54
KETH 091654Z AUTO 00000KT 10SM CLR 29/18 A2995 RMK AO2

2010/08/09 16:52
KEVM 091652Z AUTO 13004KT 10SM CLR 26/23 A2991 RMK AO1 P0001

2010/08/09 16:54
KEZS 091654Z AUTO 00000KT 10SM SCT018 BKN026 29/24 A2989 RMK AO2 T02920235

2010/08/09 16:54
KFBL 091654Z AUTO 00000KT 10SM CLR 29/21 A2993 RMK AO2

2010/08/09 16:53
KFFM 091653Z AUTO 21006KT 10SM CLR 28/19 A2990 RMK AO2

2010/08/09 16:54
KFGN 091654Z AUTO 17004KT 10SM CLR 23/20 A2987 RMK AO2

2010/08/09 17:02
KFKA 091702Z AUTO 32005KT 10SM BKN022 BKN026 28/23 A2996 RMK AO2 T02770230

2010/08/09 16:53
KFOZ 091653Z AUTO 20005KT 10SM CLR 29/21 A2993 RMK AO2

2010/08/09 16:59
KFSO 091659Z AUTO 22003KT 10SM BKN070 BKN085 26/21 A2993 RMK AO2

2010/08/09 16:51
KFTG 091651Z 16005G14KT 20SM SCT100 BKN140 27/12 A3014

2010/08/09 16:52
KGDB 091652Z AUTO 03004KT 10SM CLR 29/21 A2993 RMK AO2 T02900213

2010/08/09 16:55
KGGE 091655Z AUTO 08011G15KT 10SM SCT022 SCT031 31/26 A3002 RMK AO2 LTG DSNT E AND SE

2010/08/09 16:53
KGHW 091653Z AUTO 07003KT 10SM CLR 30/16 A2997 RMK AO2

2010/08/09 16:52
KGLW 091652Z AUTO 28004KT 10SM CLR 33/23 A3000 RMK AO2 T03310231

2010/08/09 16:55
KGUL 091655Z AUTO 10SM BKN025 32/25 A2999 RMK A01

2010/08/09 16:54
KGYL 091654Z AUTO 00000KT 10SM CLR 29/21 A2992 RMK AO2 T02930213

2010/08/09 16:52
KHCD 091652Z AUTO 03003KT 10SM CLR 29/21 A2992 RMK AO2 T02910213

2010/08/09 16:54
KHCO 091654Z AUTO 18008KT 10SM CLR 31/19 A2986 RMK AO2

2010/08/09 16:55
KHQI 091655Z AUTO 00000KT 10SM 32/25 A2998 RMK A01

2010/08/09 16:55
KHTO 091655Z 18014KT 7SM SKC 26/23 A3002

2010/08/09 16:51
KHZX 091651Z AUTO 28003KT 10SM CLR 28/20 A2993 RMK AO2

2010/08/09 16:55
KIPN 091655Z AUTO VRB04G10KT 10SM SCT040 SCT050 BKN060 29/24 A3000 RMK A01

2010/08/09 16:54
KJKJ 091654Z AUTO 22006KT 10SM CLR 29/22 A2989 RMK AO2

2010/08/09 16:55
KVAD 091655Z AUTO 05011KT 10SM FEW041 32/22 A2998 RMK AO2 SLP150 T03230224 $

2010/08/09 16:55
KVOK 091655Z 25005KT 10SM SCT021 28/24 A2992 RMK AO2A SLP125

2010/08/09 16:53
KMRT 091653Z AUTO 23007KT 10SM CLR 29/20 A3007 RMK AO2 T02940202

2010/08/09 16:56
KNTU 091656Z 10008KT 10SM SCT030 BKN200 29/23 A3004 RMK AO2 SLP176 T02890228 $

2010/08/09 16:55
KGBK 091655Z AUTO 00000KT 10SM CLR 34/25 A3000 RMK A01

2010/08/09 16:55
KMHR 091655Z AUTO 21006KT 10SM CLR 18/12 A2989 RMK AO1

2010/08/09 16:55
KFTK 091655Z 13004KT 10SM FEW040 SCT090 BKN250 34/22 A2999 RMK AO2A SLP152 T03380222

2010/08/09 16:55
KLSV 091655Z AUTO VRB03KT 10SM CLR 29/10 A2994 RMK AO2 SLP125 T02930098

2010/08/09 16:55
KNBG 091655Z 04006KT 10SM SCT025 BKN100 OVC250 33/24 A2999 RMK AO2 SLP155 T2 SET T03280244 $

2010/08/09 16:56
KNCA 091656Z VRB04KT 10SM SCT030 BKN080 32/23 A3003 RMK AO2 SLP171 T03200228 $

2010/08/09 16:54
KNFG 091654Z VRB03KT 7SM FEW017 19/13 A2993 RMK AO2 SLP134 T01940128 $

2010/08/09 16:54
KNKT 091654Z 12008KT 10SM -RA FEW060 28/23 A3004 RMK AO2 RAB41 SLP171 P0000 T02830233

2010/08/09 16:55
KNKX 091655Z 00000KT 10SM SCT014 19/13 A2994 RMK AO2 SLP133 T01890128

2010/08/09 16:56
KNTU 091656Z 10008KT 10SM SCT030 BKN200 29/23 A3004 RMK AO2 SLP176 T02890228 $

2010/08/09 16:56
KNXP 091656Z 00000KT CLR 28/M01 A2999 RMK AO2 SLP117 T02831011 $

2010/08/09 16:56
KNYG 091656Z 18009KT 9SM FEW050 SCT200 31/22 A3001 RMK AO2 SLP162 T03110222 $

2010/08/09 16:52
KNZY 091652Z 17004KT 10SM BKN017 22/14 A2993 RMK AO2 SLP135 T02170139 $

2010/08/09 16:55
KPOE 091655Z AUTO 32003KT 10SM CLR 33/23 A2999 RMK AO2 SLP153 T03280233

2010/08/09 16:56
PHBK 091656Z AUTO 11004KT 10SM CLR 23/16 A3009 RMK AO2 SLP190 T02330161 TSNO $

2010/08/09 16:53
KNIP 091653Z COR 07008KT 10SM FEW024 BKN034TCU 31/24 A2997 RMK AO2 RAB30E46 SLP144 TCU OHD P0000 T03110244

2010/08/09 16:57
KNJM 091657Z AUTO 13006KT 10SM FEW045 SCT065 28/24 A3005 RMK AO2 SLP178 T02830239

2010/08/09 16:55
PGUA 091655Z AUTO 16003KT 10SM BKN048 BKN200 BKN230 25/ A2989 RMK AO2 DZB1619E1646 CIG 040 RWY24L SLP103 P0000 T0246 VISNO RWY24L $

2010/08/09 16:56
PHBK 091656Z AUTO 11004KT 10SM CLR 23/16 A3009 RMK AO2 SLP190 T02330161 TSNO $

2010/08/09 16:55
PHHI 091655Z AUTO 00000KT 10SM CLR 22/18 A3010 RMK AO2 SLP182 T02160182 $

2010/08/09 16:53
PHNL 091653Z 07009KT 10SM FEW032 26/16 A3008 RMK AO2 SLP184 T02560156

2010/08/09 16:54
KNFG 091654Z VRB03KT 7SM FEW017 19/13 A2993 RMK AO2 SLP134 T01940128 $

2010/08/09 16:55
KPAM 091655Z AUTO 07010G15KT 10SM CLR 33/24 A2996 RMK AO2 SLP146 T03270243 $

2010/08/09 16:55
KPSM 091655Z 25006KT 10SM SCT050 BKN200 32/19 A2991 RMK AO2A SLP131 T03190188

2010/08/09 16:55
KVAD 091655Z AUTO 05011KT 10SM FEW041 32/22 A2998 RMK AO2 SLP150 T03230224 $

2010/08/09 16:57
KNXF 091657Z AUTO 27007KT 8SM CLR 20/13 A2994 RMK AO2 SLP222 T02000128 TSNO

2010/08/09 16:56
KBZN 091656Z 00000KT 10SM BKN100 18/11 A3002 RMK AO2 SLP138 T01830111

2010/08/09 16:55
KDVK 091655Z AUTO 00000KT 10SM CLR 33/21 A3003 RMK AO1

2010/08/09 16:56
KSPD 091656Z AUTO VRB03KT 29/16 A3004 RMK AO2 SLP097 T02890156 PWINO TSNO

2010/08/09 16:56
KFSD 091656Z 07006KT 10SM FEW022 28/22 A2991 RMK AO2 SLP118 SCT ABV 120 T02780217

2010/08/09 16:54
KWAL 091654Z 17008KT 10SM FEW025 SCT250 29/22 A3004 RMK AO2 SLP171 T02890222

2010/08/09 16:56
KCDJ 091656Z AUTO 16010G15KT 29/24 A2991 RMK AO2 SLP112 T02940239 PWINO TSNO

2010/08/09 16:56
KGNR 091656Z AUTO 32004KT 21/17 A2993 RMK AO1 SLP134 T02110172

2010/08/09 16:56
TJSJ 091656Z 06013KT 10SM FEW025 SCT040 SCT090 32/24 A2996 RMK AO2 RAB11E30 SLP144 VCSH S-SW P0000 T03170244

2010/08/09 16:56
KP28 091656Z AUTO 16007KT 35/19 A2990 RMK AO2 SLP102 P0096 T03500194 PWINO TSNO

2010/08/09 16:56
KWMC 091656Z AUTO VRB04KT 10SM CLR 24/04 A2998 RMK AO2 SLP106 T02440044

2010/08/09 16:56
KGNA 091656Z AUTO 27007KT 19/17 A2988 RMK AO2 SLP115 T01940167 PWINO TSNO

2010/08/09 16:56
KD07 091656Z AUTO 17015G22KT 28/19 A2993 RMK AO2 SLP117 T02830194 PWINO TSNO

2010/08/09 16:55
KCAO 091655Z AUTO VRB03KT 10SM CLR 30/14 A3009 RMK AO2 SLP105 T03000139 TSNO

2010/08/09 16:56
KABQ 091656Z 00000KT 10SM FEW060 SCT140 26/12 A3017 RMK AO2 SLP127 T02560122 $

2010/08/09 16:54
KRIC 091654Z VRB03KT 10SM SCT049 BKN250 32/19 A3002 RMK AO2 SLP169 T03220194

2010/08/09 16:56
KJAX 091656Z 06011KT 7SM RA SCT032TCU SCT200 29/24 A2996 RMK AO2 RAB44 SLP146 TCU OHD P0000 T02940244

2010/08/09 16:53
K29G 091653Z AUTO 26004KT 10SM CLR 28/17 A3003 RMK AO2 T02820173 PWINO

2010/08/09 16:56
KCAE 091656Z VRB06KT 9SM FEW048 33/21 A3003 RMK AO2 SLP163 T03330211

2010/08/09 16:56
KCHS 091656Z 04009KT 10SM FEW025 33/23 A3000 RMK AO2 SLP158 T03280233

2010/08/09 16:55
KCLI 091655Z AUTO 00000KT 10SM SCT020 29/22 A2988 RMK AO2

2010/08/09 16:53
KMWT 091653Z AUTO VRB03KT 10SM CLR 33/22 A2998 RMK AO2 SLP136 T03330222 TSNO

2010/08/09 16:54
KRFD 091654Z 25009KT 10SM FEW080 SCT150 BKN250 27/21 A2995 RMK AO2 SLP135 T02670206

2010/08/09 16:54
KROS 091654Z AUTO 00000KT 10SM SCT007 27/24 A2993 RMK AO2 T02690235

2010/08/09 16:55
KSCF 091655Z AUTO 35007KT 10SM CLR 32/26 A2994 RMK A01

2010/08/09 16:56
KSHV 091656Z VRB03KT 10SM FEW040 SCT300 34/22 A2997 RMK AO2 SLP144 T03440222

2010/08/09 16:54
KSYN 091654Z AUTO 00000KT 10SM CLR 30/23 A2990 RMK AO2 T02990231

2010/08/09 16:53
KTKC 091653Z AUTO 00000KT 10SM CLR 27/22 A2994 RMK AO2 T02740221

2010/08/09 16:54
KIKW 091654Z AUTO 23007KT 10SM BKN110 26/20 A2990 RMK AO2 T02580203

2010/08/09 16:58
KLYV 091658Z AUTO 00000KT 10SM BKN018 27/22 A2992 RMK AO2

2010/08/09 16:56
TJSJ 091656Z 06013KT 10SM FEW025 SCT040 SCT090 32/24 A2996 RMK AO2 RAB11E30 SLP144 VCSH S-SW P0000 T03170244

2010/08/09 16:53
PHKO 091653Z 07003KT 10SM FEW050 23/19 A3002 RMK AO2 SLP167 T02280189 PNO $

2010/08/09 16:54
PHOG 091654Z 05011KT 10SM SCT040 24/17 A3008 RMK AO2 SLP192 T02440167

2010/08/09 16:53
PHTO 091653Z 24006KT 10SM SCT027 BKN043 BKN055 BKN140 21/19 A3010 RMK AO2 RAE13 SLP192 P0002 T02060189 $

2010/08/09 16:50
KHMS 091650Z 16005KT 15SM FEW250 24/10 A2981 RMK SLP093 T02390098 RSNK 16/21016

2010/08/09 16:50
K3A6 091650Z AUTO 36001KT 24/11 A2991 RMK AO1 SLP141 T02440106

2010/08/09 16:54
KJMR 091654Z AUTO 00000KT 10SM CLR 26/22 A2995 RMK AO2

2010/08/09 16:52
KLJF 091652Z AUTO 00000KT 10SM CLR 29/21 A2993 RMK AO2

2010/08/09 16:53
KLVN 091653Z AUTO 09003KT 10SM CLR 29/23 A2992 RMK AO2

2010/08/09 16:53
KLXL 091653Z AUTO 01004KT 10SM CLR 28/18 A2993 RMK AO2

2010/08/09 16:56
KM89 091656Z AUTO 20004KT 10SM CLR 37/26 A2996 RMK AO2 T03660261 SLP158 $

2010/08/09 16:55
KMDJ 091655Z AUTO 35012KT 10SM SCT026 SCT032 SCT120 31/26 A3001 RMK A01

2010/08/09 16:55
KMGG 091655Z AUTO 00000KT 10SM CLR 30/23 A2993 RMK AO2 T02970234

2010/08/09 16:55
KNUC 091655Z 36004KT 10SM BKN016 21/13 A2996 RMK SLP143 T02050125

2010/08/09 16:56
KWJF 091656Z 00000KT 10SM CLR 26/02 A2995 RMK AO2 SLP124 T02560017

2010/08/09 16:53
KMSY 091653Z COR 34008KT 10SM SCT060 BKN250 33/26 A2999 RMK AO2 CB DSNT SE SLP159 T03280256

2010/08/09 16:53
PHJR 091653Z 09004KT 10SM CLR 25/16 A3009 RMK AO2 SLP196 T02500156

2010/08/09 16:54
PHMK 091654Z 06004KT 10SM CLR 24/14 A3009 RMK AO2 SLP190 T02440144

2010/08/09 16:56
PAMB 091656Z AUTO 20015G19KT 1SM BR OVC004 10/10 A2945 RMK AO2 PWINO TSNO T01000100 CIG 003V007 SLP977 $

2010/08/09 16:56
PAOH 091656Z AUTO 00000KT 10SM FEW019 OVC031 14/13 A2997 RMK AO2 TSNO T01380127 SLP150 $

2010/08/09 16:56
PPIZ 091656Z AUTO 06020G32KT 10SM OVC011 03/01 A2970 RMK AO2 TSNO T00270005 PK WND 07032/1621 SLP060 $

2010/08/09 16:47
KGYR 091647Z VRB04KT 20SM FEW100 BKN150 36/09 A2988

2010/08/09 16:55
KISO 091655Z 05006KT 7SM CLR 32/20 A3004

2010/08/09 16:58
KMEI 091658Z 00000KT 10SM FEW031 32/24 A2999 RMK AO2 SLP150 T03220239

2010/08/09 16:51
KOCF 091651Z 09004KT 10SM SCT036 BKN055 31/25 A2994

2010/08/09 16:55
KSAW 091655Z 33005KT 10SM SCT034 SCT047 29/19 A2986

2010/08/09 16:56
KY50 091656Z AUTO 24004KT 10SM BKN014 OVC020 26/23 A2992 RMK AO2 T02610227 SLP121

2010/08/09 16:54
KSBN 091654Z 19004KT 10SM BKN040 26/21 A2998 RMK AO2 SLP146 T02560206

2010/08/09 16:54
KWAL 091654Z 17008KT 10SM FEW025 SCT250 29/22 A3004 RMK AO2 SLP171 T02890222

2010/08/09 16:54
KMTP 091654Z AUTO 20006KT 27/21 A3002 RMK AO2 SLP164 T02720211 PWINO TSNO

2010/08/09 16:56
KSMP 091656Z AUTO VRB05KT M1/4SM FG VV001 09/09 A2998 RMK AO2 SLP148 T00890089 TSNO $

2010/08/09 16:53
KSDM 091653Z 00000KT 10SM CLR 19/12 A2994 RMK AO2 SLP134 T01890122

2010/08/09 16:54
KWAL 091654Z 17008KT 10SM FEW025 SCT250 29/22 A3004 RMK AO2 SLP171 T02890222

2010/08/09 17:00
OPPS 091700Z SE-04KTS 4000 BR SCT040 BKN100 29/28 Q1002.9

2010/08/09 16:55
OPSK 091655Z 00000KT 2000 HZ SCT040 SCT100 30/28 Q1000 RH 89

2010/08/09 16:50
EDHL 091650Z 28006KT 9999 FEW028 BKN050 18/18 Q1016 RMK Y

2010/08/09 16:50
EDNY 091650Z 19005KT CAVOK 24/12 Q1016 RMK ATIS A

2010/08/09 16:50
EDXW 091650Z 26006KT 240V300 CAVOK 18/10 Q1015 RMK ATIS INFO Z

2010/08/09 16:50
EDLN 091650Z VRB03KT CAVOK 22/11 Q1016 RMK ATIS Y

2010/08/09 16:50
EDLP 091650Z VRB02KT 9999 FEW036 21/12 Q1016 RMK RWY24 TRL60 OK ATIS E

2010/08/09 16:50
EDLW 091650Z 25006KT CAVOK 21/12 Q1016 RMK ATISB

2010/08/09 16:50
EFIV 091650Z 01011KT 8000 -RA BKN008 OVC020 11/11 Q1012

2010/08/09 16:50
EFKE 091650Z 36011KT 9999 BKN015 16/13 Q1008

2010/08/09 17:00
SBAR 091700Z 15011KT 9999 SCT017 27/21 Q1016

2010/08/09 16:50
LGKP 091650Z 32024KT 9999 FEW012 28/26 Q1004

2010/08/09 16:50
LGKZ 091650Z 00000KT 9999 SCT070 29/13 Q1013

2010/08/09 16:50
LGPZ 091650Z 24014KT 9999 FEW030 27/21 Q1010 NOSIG

2010/08/09 16:50
LGRX 091650Z 24004KT CAVOK 28/21 Q1008 NOSIG

2010/08/09 16:50
LGRX 091650Z 24004KT CAVOK 28/21 Q1008 NOSIG BLU

2010/08/09 16:50
LGSK 091650Z 36004KT CAVOK 30/21 Q1009

2010/08/09 16:50
LGZA 091650Z VRB02KT CAVOK 29/22 Q1009

2010/08/09 16:59
NSTU 091659Z 10015KT 10SM SCT017 BKN040 27/24 A2996 RMK SLP146 T02690242

2010/08/09 17:00
SBLO 091700Z 17003KT CAVOK 28/09 Q1018

2010/08/09 16:50
LGAD 091650Z 29004KT CAVOK 28/22 Q1011

2010/08/09 16:50
LGAL 091650Z 02006KT CAVOK 32/21 Q1009

2010/08/09 16:50
LGAV 091650Z 04010KT 9999 FEW030 30/20 Q1009 NOSIG

2010/08/09 16:50
LGEL 091650Z 01007KT CAVOK 33/18 Q1007

2010/08/09 16:50
LGIR 091650Z 31013KT 9999 FEW020 28/24 Q1007 NOSIG

2010/08/09 16:50
LGKF 091650Z 33014KT 9999 FEW020 29/19 Q1009

2010/08/09 16:50
LGKL 091650Z 18004KT 9999 FEW030 29/20 Q1008

2010/08/09 16:50
LGKO 091650Z 32009KT CAVOK 29/22 Q1005

2010/08/09 16:50
LGKR 091650Z 28012KT 9999 FEW025 31/17 Q1009 NOSIG

2010/08/09 16:50
LGKV 091650Z 28005KT 9999 FEW030TCU SCT100 30/22 Q1008

2010/08/09 16:50
LGLM 091650Z 34004KT CAVOK 30/19 Q1008

2010/08/09 16:50
LGMT 091650Z /////KT CAVOK 34/22 Q1006

2010/08/09 16:50
LGRP 091650Z 24012KT 9999 FEW018 29/24 Q1004 NOSIG

2010/08/09 16:50
LGSA 091650Z 30005KT 9999 FEW020 29/23 Q1009

2010/08/09 16:50
LGSM 091650Z 35008KT 290V040 CAVOK 34/20 Q1004

2010/08/09 16:50
LGSR 091650Z 33015KT CAVOK 29/21 Q1006 NOSIG

2010/08/09 16:50
LGTS 091650Z 32009KT 9999 FEW030 31/21 Q1009 NOSIG

2010/08/09 16:45
MMTJ 091645Z 29003KT 6SM SKC 19/12 A2996 RMK HZY ST W

2010/08/09 16:49
MMHO 091649Z 00000KT 10SM SKC 33/23 A2982 RMK HZY

2010/08/09 16:55
EHAM 091655Z 28004KT 210V320 9999 FEW040 22/12 Q1015 NOSIG

2010/08/09 16:55
EHBK 091655Z AUTO 28004KT 240V330 9999NDV NSC 22/10 Q1016 NOSIG

2010/08/09 16:55
EHGG 091655Z AUTO 28005KT 240V330 9999NDV NCD 21/12 Q1015 NOSIG

2010/08/09 16:55
EHKD 091655Z AUTO 23007KT 9999NDV NCD 19/14 Q1015 BLU BLU NOSIG

2010/08/09 16:55
EHRD 091655Z 19006KT 100V270 9999 FEW045 22/11 Q1015 NOSIG

2010/08/09 16:56
KABH 091656Z AUTO 30006KT 10SM FEW080 SCT100 22/13 A3019 RMK AO2 SLP151 T02170133 $ 

2010/08/09 16:54
KAPN 091654Z 09005KT 10SM FEW005 SCT025 BKN050 23/21 A2992 RMK AO2 RAE17 SLP130 P0008 T02280206 

2010/08/09 16:50
EGDL 091650Z 20009KT 9999 BKN017 19/14 Q1013 NOSIG

2010/08/09 16:45
MMLT 091645Z 06008KT 8SM FEW200 33/24 A2981 RMK 8/001

2010/08/09 16:50
EGAE 091650Z 24011KT 9999 FEW016 SCT024 17/12 Q1007

2010/08/09 16:50
EGNC 091650Z 24012KT 9999 FEW020 SCT030 16/13 Q1008

2010/08/09 16:50
EGNH 091650Z 26006KT 9999 FEW010 SCT025 18/14 Q1010

2010/08/09 16:50
EGNJ 091650Z 22015KT 9999 BKN045 23/14 Q1010

2010/08/09 16:50
EGNR 091650Z 27011KT 210V300 9999 SCT025 21/14 Q1010

2010/08/09 16:50
EGPE 091650Z 34005KT 9999 FEW015 FEW020CB SCT040 18/12 Q1005

2010/08/09 16:50
EGPI 091650Z 21009KT 9999 FEW020 15/12 Q1007

2010/08/09 16:50
EGPN 091650Z 25016KT 9999 FEW020 BKN048 18/13 Q1005

2010/08/09 16:50
EGPA 091650Z 14010KT 9999 FEW004 SCT006 BKN045 15/14 Q1005

2010/08/09 16:50
EGPC 091650Z 12009KT 9999 FEW011 SCT049 15/15 Q1005

2010/08/09 16:50
EGPL 091650Z AUTO 21011KT 9999NDV NCD 16/11 Q1005

2010/08/09 16:50
EGPM 091650Z AUTO 12012KT 9999NDV SCT018/// BKN024/// 14/11 Q1008

2010/08/09 16:50
EGPO 091650Z 20011KT 9999 FEW026 SCT038 16/11 Q1005

2010/08/09 16:55
EHAK 091655Z AUTO 21018KT 180V250 9999NDV FEW009/// 17/15 Q1012

2010/08/09 16:55
EHDV 091655Z AUTO 18017KT 9999NDV 18/16 Q1012

2010/08/09 16:55
EHFD 091655Z AUTO 20023KT 9999NDV FEW010/// BKN012/// BKN014/// 18/15 Q1014

2010/08/09 16:55
EHFZ 091655Z AUTO 19022KT 9999NDV ///////// 17/15 Q1013

2010/08/09 16:55
EHJA 091655Z AUTO 17020KT 9999NDV 18/14 Q1012

2010/08/09 16:55
EHKV 091655Z AUTO 20016KT 9999NDV 18/15 Q1014

2010/08/09 16:55
EHMA 091655Z AUTO 29008KT 9999NDV ///////// 19/13 Q1015

2010/08/09 16:55
EHMG 091655Z AUTO 22017KT 9999NDV 18/15 Q1014

2010/08/09 16:55
EHPG 091655Z AUTO 21014KT 170V270 9999NDV 18/15 Q1014

2010/08/09 16:55
EHQE 091655Z AUTO 21014KT 9999NDV ///////// 18/15 Q1015

2010/08/09 16:55
OPNH 091655Z 36003KT 4000M SCT035 SCT100 29/27 Q1000

2010/08/09 17:00
OPPS 091700Z SE-04KTS 4000 BR SCT040 BKN100 29/28 Q1002.9

2010/08/09 17:00
OPRN 091700Z 31006KT 4000 HZ FEW035 SCT100 29/25 Q1004.0

2010/08/09 16:55
OPSK 091655Z 00000KT 2000 HZ SCT040 SCT100 30/28 Q1000 RH 89

2010/08/09 16:55
HLLT 091655Z HLLT 04008KT CAVOK 28/16 Q1015

2010/08/09 16:50
HLLB 091650Z 33018KT 9999 SCT020 26/19 Q1013

2010/08/09 16:50
LGAL 091650Z 02006KT CAVOK 32/21 Q1009

2010/08/09 16:50
LGEL 091650Z 01007KT CAVOK 33/18 Q1007

2010/08/09 16:50
LGKV 091650Z 28005KT 9999 FEW030TCU SCT100 30/22 Q1008

2010/08/09 16:50
LGMT 091650Z /////KT CAVOK 34/22 Q1006

2010/08/09 16:50
LGPZ 091650Z 24014KT 9999 FEW030 27/21 Q1010 NOSIG

2010/08/09 16:50
LGSK 091650Z 36004KT CAVOK 30/21 Q1009

2010/08/09 16:50
LGSR 091650Z 33015KT CAVOK 29/21 Q1006 NOSIG

2010/08/09 16:50
LGZA 091650Z VRB02KT CAVOK 29/22 Q1009

2010/08/09 17:00
FOOL 091700Z VRB03KT 8000 SCT008 OVC033 24/23 Q1013 NOSIG

2010/08/09 16:51
KP58 091651Z AUTO VRB04KT 24/22 A2990 RMK AO2 SLP115 P0003 T02390217 PWINO TSNO 

2010/08/09 17:00
SGAS 091700Z 17010KT CAVOK 18/09 Q1020

2010/08/09 17:00
SGES 091700Z 13004KT CAVOK 22/13 Q1018

2010/08/09 17:00
SBFL 091700Z 11013KT 9999 FEW025 20/10 Q1022

2010/08/09 17:00
LZKC 091700Z VRB02KT 9999 -SHRA FEW043CB BKN053 22/16 Q1015

2010/08/09 17:00
LZLU 091700Z 22005KT 160V260 9999 FEW043 BKN100 21/17 Q1016

2010/08/09 17:00
LZNI 091700Z 24003KT 9999 FEW045CB 23/14 Q1016

2010/08/09 17:00
LZPE 091700Z 21003KT 9999 FEW040 22/13 Q1016

2010/08/09 16:50
ENAT 091650Z 30009KT 9999 FEW025 BKN046 14/10 Q1014 

2010/08/09 16:55
KCOF 091655Z 13008KT 10SM CLR 29/24 A2995 RMK AO2A SLP143 T02900241

2010/08/09 16:55
KCVS 091655Z 22012KT 10SM SCT150 28/14 A3008 RMK AO2A SLP139 T02810140 $

2010/08/09 16:55
KDMA 091655Z AUTO 00000KT 10SM CLR 31/17 A2999 RMK AO2 SLP085 T03070166 VISNO RWY12 CHINO RWY12 $

2010/08/09 16:55
KEND 091655Z 17011KT 10SM FEW200 36/20 A2991 RMK AO2A SLP109 T03560200

2010/08/09 16:55
KFTK 091655Z 13004KT 10SM FEW040 SCT090 BKN250 34/22 A2999 RMK AO2A SLP152 T03380222

2010/08/09 16:55
KGBN 091655Z VRB04KT 12SM CLR 35/00 A2987 RMK SLP094

2010/08/09 16:55
KHOP 091655Z AUTO 25006KT 10SM FEW036 SCT210 34/24 A2999 RMK AO2 SLP148 T03380239

2010/08/09 16:55
KHRT 091655Z 09009KT 10SM FEW030 SCT250 32/25 A2997 RMK AO2A SLP151 T03250252 $

2010/08/09 16:55
KLSV 091655Z AUTO VRB03KT 10SM CLR 29/10 A2994 RMK AO2 SLP125 T02930098

2010/08/09 16:55
KMCF 091655Z AUTO 06005KT 10SM BKN023 30/26 A2993 RMK AO2 CIG 022V027 SLP135 T02980260

2010/08/09 16:55
KMIB 091655Z AUTO 00000KT 10SM CLR 26/19 A2983 RMK AO2 SLP094 T02560189

2010/08/09 16:55
KMMT 091655Z 09007KT 10SM FEW035 33/23 A3004 RMK SLP171

2010/08/09 16:55
KMXF 091655Z AUTO 11007KT 080V140 10SM CLR 35/23 A2998 RMK AO2 SLP152 T03520232

2010/08/09 16:55
KNBG 091655Z 04006KT 10SM SCT025 BKN100 OVC250 33/24 A2999 RMK AO2 SLP155 T2 SET T03280244 $

2010/08/09 16:56
KNCA 091656Z VRB04KT 10SM SCT030 BKN080 32/23 A3003 RMK AO2 SLP171 T03200228 $

2010/08/09 16:56
KNJK 091656Z VRB03KT 10SM CLR 32/04 A2980 RMK AO2 SLP106 T03220044

2010/08/09 16:56
KNUQ 091656Z AUTO 09004KT 10SM CLR 18/12 A2992 RMK AO2 SLP135 T01780117 TSNO

2010/08/09 16:55
KCVS 091655Z 22012KT 10SM SCT150 28/14 A3008 RMK AO2A SLP139 T02810140 $

2010/08/09 16:55
KDMA 091655Z AUTO 00000KT 10SM CLR 31/17 A2999 RMK AO2 SLP085 T03070166 VISNO RWY12 CHINO RWY12 $

2010/08/09 16:55
KGBN 091655Z VRB04KT 12SM CLR 35/00 A2987 RMK SLP094

2010/08/09 16:55
KHOP 091655Z AUTO 25006KT 10SM FEW036 SCT210 34/24 A2999 RMK AO2 SLP148 T03380239

2010/08/09 16:55
KHRT 091655Z 09009KT 10SM FEW030 SCT250 32/25 A2997 RMK AO2A SLP151 T03250252 $

2010/08/09 16:56
KNJK 091656Z VRB03KT 10SM CLR 32/04 A2980 RMK AO2 SLP106 T03220044

2010/08/09 16:56
KNUQ 091656Z AUTO 09004KT 10SM CLR 18/12 A2992 RMK AO2 SLP135 T01780117 TSNO

2010/08/09 16:56
KSGH 091656Z VRB03KT 5SM HZ CLR 30/22 A3005 RMK AO2 T03000216 SLP165 $

2010/08/09 16:55
KSKF 091655Z 18007KT 10SM FEW020 32/23 A2998 RMK AO2A SLP141 T03200230 $

2010/08/09 16:55
KTBN 091655Z 25004KT 10SM CLR 34/24 A2998 RMK AO2A SLP126 T03380241 $

2010/08/09 16:55
KTTS 091655Z 11009G16KT 080V140 10SM SCT021 BKN090 31/25 A2994 RMK MDT CU ALQDS SLP139 4CU /4/ 1AC /5/

2010/08/09 16:55
KVBG 091655Z VRB03KT 8SM FEW007 BKN010 OVC015 14/12 A2996 RMK AO2 DZE25 SLP136 P0000 T01390122

2010/08/09 16:50
OAKN 091650Z 24009KT 8000 DU FEW150 34/02 Q1004 BLU NOSIG RMK A2966 DA6500

2010/08/09 17:00
ORER 091700Z 27005KT CAVOK 35/M02 Q1002

2010/08/09 16:56
PASY 091656Z AUTO 27005KT 3/4SM BR VV001 09/08 A2983 RMK AO2 SLP103 T00890083 TSNO PNO $

2010/08/09 16:56
PMDY 091656Z AUTO 07008KT 10SM CLR 26/21 A3022 RMK AO2 TSNO T02550211 SLP541

2010/08/09 16:58
KHST 091658Z 14008KT 1 3/4SM R05/5000VP6000FT +RA BR SCT002 OVC010 24/24 A2997 RMK AO2A SLP151

2010/08/09 16:58
CWOB 091658Z AUTO ///// 0SM CLR 04/ A2970

2010/08/09 16:54
CYFC 091654Z AUTO 20011KT 2 1/2SM RA BR BKN009 OVC014 20/19 A2990 RMK SLP125 DENSITY ALT 600FT PCPN 0.5MM PAST HR VIS VRB 1 3/4-3 RVR MISG

2010/08/09 16:55
CYJF 091655Z 00000KT 7SM FEW007 OVC017 RMK SF2SC6

2010/08/09 16:55
CYKJ 091655Z AUTO 11006KT 6SM OVC005 16/15 A2975 RMK SLP089 DENSITY ALT 2300FT

2010/08/09 16:56
CYPR 091656Z AUTO /////KT 6SM BR SCT008 OVC024 13/12 A3001 RMK SLP164 WND MISG

2010/08/09 16:53
EBCV 091653Z AUTO 20004KT 6000 // FEW250 22/12 Q1016 WHT

2010/08/09 16:58
ETAD 091658Z AUTO 24007KT 9999 FEW055 BKN070 23/09 A3002 RMK AO2 SLP160 $

2010/08/09 16:58
KHST 091658Z 14008KT 1 3/4SM R05/5000VP6000FT +RA BR SCT002 OVC010 24/24 A2997 RMK AO2A SLP151

2010/08/09 16:52
RJNH 091652Z 05003KT 020V080 9999 FEW006 BKN040 BKN060 25/23 Q1014 RMK 1CU006 5SC040 6SC060 A2997 1CU006 S

2010/08/09 16:45
RJSM 091645Z 12004KT 1000 R10/P1800N BR FEW000 SCT001 BKN002 23/22 Q1014 RMK 1ST000 3ST001 7ST002 A2995 VIS S-NW 500M

2010/08/09 16:46
RJSM 091646Z 12004KT 0800 R10/1300VP1800D FG SCT000 BKN001 OVC002 23/22 Q1014 RMK 3ST000 5ST001 8ST002 A2995 R1800 VIS S-NW 400M FCST AMD 1621 TEMPO 1721 0300 FG VV000

2010/08/09 16:51
RJSM 091651Z 11005KT 0600 R10/0650VP1800D FG BKN000 OVC001 23/22 Q1014 RMK 5ST000 8ST001 A2995 R1300 VIS SW-NW 400M

2010/08/09 16:56
YBRM 091656Z AUTO 12017G27KT 9999NDV // NCD 19/03 Q1017

2010/08/09 16:54
YSDU 091654Z AUTO 09012KT 9999NDV // SCT028 BKN035 OVC051 10/09 Q1015

2010/08/09 16:58
KHST 091658Z 14008KT 1 3/4SM R05/5000VP6000FT +RA BR SCT002 OVC010 24/24 A2997 RMK AO2A SLP151

2010/08/09 17:00
MZBZ 091700Z 12010KT 9999 BKN026 BKN280 32/26 A2991 NOSIG

2010/08/09 16:56
KNGP 091656Z VRB06KT 10SM SCT023 SCT040 32/26 A2994 RMK AO2 SLP139 T03170261 VISNO

2010/08/09 16:53
KNIP 091653Z COR 07008KT 10SM FEW024 BKN034TCU 31/24 A2997 RMK AO2 RAB30E46 SLP144 TCU OHD P0000 T03110244

2010/08/09 16:56
KNMM 091656Z 09004KT 10SM SCT026 33/24 A2999 RMK AO2 SLP162 T03280239 $

2010/08/09 16:56
KNPA 091656Z 12012KT 9SM SCT035 SCT280 32/25 A2998 RMK AO2 SLP152 T03220250

2010/08/09 16:56
KNQI 091656Z 12008KT 10SM BKN035 36/24 A2994 RMK AO2 SLP134 T03560244

2010/08/09 16:56
KNTU 091656Z 10008KT 10SM SCT030 BKN200 29/23 A3004 RMK AO2 SLP176 T02890228 $

2010/08/09 16:55
KNUC 091655Z 36004KT 10SM BKN016 21/13 A2996 RMK SLP143 T02050125

2010/08/09 16:56
KNUW 091656Z 21006KT 5SM BR BKN006 OVC015 14/12 A2997 RMK AO2 SLP152 T01370121 $

2010/08/09 16:56
KNXP 091656Z 00000KT CLR 28/M01 A2999 RMK AO2 SLP117 T02831011 $

2010/08/09 16:56
KNXX 091656Z 25005KT 9SM SCT045 31/18 A3003 RMK AO2 SLP171 T03110183 $

2010/08/09 16:52
KNZY 091652Z 17004KT 10SM BKN017 22/14 A2993 RMK AO2 SLP135 T02170139 $

2010/08/09 16:56
KSGH 091656Z VRB03KT 5SM HZ CLR 30/22 A3005 RMK AO2 T03000216 SLP165 $

2010/08/09 16:55
KSKF 091655Z 18007KT 10SM FEW020 32/23 A2998 RMK AO2A SLP141 T03200230 $

2010/08/09 16:55
KTBN 091655Z 25004KT 10SM CLR 34/24 A2998 RMK AO2A SLP126 T03380241 $

2010/08/09 16:55
KTTS 091655Z 11009G16KT 080V140 10SM SCT021 BKN090 31/25 A2994 RMK MDT CU ALQDS SLP139 4CU /4/ 1AC /5/

2010/08/09 16:55
KVBG 091655Z VRB03KT 8SM FEW007 BKN010 OVC015 14/12 A2996 RMK AO2 DZE25 SLP136 P0000 T01390122

2010/08/09 16:53
KLAX 091653Z 25007KT 8SM SCT016 18/13 A2994 RMK AO2 SLP135 SCT V BKN T01830128 $ 

2010/08/09 16:55
TXKF 091655Z 18012KT 9999 FEW020 BKN300 30/23 Q1022  

2010/08/09 17:00
TKPK 091700Z 05007KT 9999 FEW018 BKN046 29/25 Q1015

2010/08/09 17:00
MHAM 091700Z 23006KT 9999 FEW026 SCT250 30/26 FEW080

2010/08/09 17:00
MHTR 091700Z 17002KT 9999 FEW026 BKN250 33/26 TCU SE HZ

2010/08/09 17:00
MHTE 091700Z 36006KT 9999 SCT024TCU SCT080 30/24 Q1012 TCU N NE HZ

2010/08/09 17:00
MHYR 091700Z 20004KT 9999 SCT025TCU 28/22 TCU TD HZ

2010/08/09 17:00
MHCA 091700Z 16005KT 9999 SCT028TCU SCT080 29/21 TCU TD

2010/08/09 17:00
MHSR 091700Z 01006KT 9999 SCT025 BKN250 26/19 HZ

2010/08/09 17:00
MHNO 091700Z 01004KT 9999 FEW040 SCT250 29/// HZ

2010/08/09 17:00
MHLE 091700Z 01006KT 9999 SCT024 BKN200 24/16 Q1024

2010/08/09 17:00
MHCH 091700Z 21004KT 9999 SCT032TCU SCT250 32/25 FEW100 TCU E SE

2010/08/09 17:00
GOOY 091700Z 29006KT 250V350 9999 SCT013 BKN230 29/22 Q1011 NOSIG

2010/08/09 16:53
KRYT 091653Z AUTO 34007KT 250V020 10SM CLR 33/16 A3002 RMK AO2 SLP149 T03280161 $ 

2010/08/09 17:00
MDSD 091700Z 17006KT 9999 SCT025 SCT300 32/24 Q1013

2010/08/09 16:49
MMHO 091649Z 00000KT 10SM SKC 33/23 A2982 RMK HZY

2010/08/09 16:45
MMLT 091645Z 06008KT 8SM FEW200 33/24 A2981 RMK 8/001

2010/08/09 16:45
MMTJ 091645Z 29003KT 6SM SKC 19/12 A2996 RMK HZY ST W

2010/08/09 17:00
MNMG 091700Z 12008KT 9999 FEW024TCU SCT070 30/24 Q1011 A2986 TCU/NE/SW

2010/08/09 16:56
MUGM 091656Z 12013KT 9999 FEW025TCU BKN250 31/24 A2995 RMK SLP142 TCU DSNT NW-N T03110244

2010/08/09 16:59
NSTU 091659Z 10015KT 10SM SCT017 BKN040 27/24 A2996 RMK SLP146 T02690242

2010/08/09 16:55
PAED 091655Z AUTO 33008KT 10SM OVC070 13/10 A2962 RMK AO2 SLP030 T01270101

2010/08/09 16:55
PAEI 091655Z AUTO 00000KT 10SM BKN080 BKN095 13/10 A2958 RMK AO2 RAE1601 SLP016 P0000 T01340097 $

2010/08/09 16:55
PAIM 091655Z AUTO 06006KT 10SM OVC075 13/09 A2951 RMK AO1 T01280095

2010/08/09 16:55
PASV 091655Z AUTO 19006KT 10SM OVC037 11/08 A2950 RMK AO1 T01060084

2010/08/09 16:56
PASY 091656Z AUTO 27005KT 3/4SM BR VV001 09/08 A2983 RMK AO2 SLP103 T00890083 TSNO PNO $

2010/08/09 16:55
PATC 091655Z 02012KT 10SM BKN075 13/11 A2933 RMK SLPNO BWC LOW

2010/08/09 16:55
PATL 091655Z AUTO 00000KT 10SM OVC006 11/11 A2950 RMK AO1 T01060106

2010/08/09 16:55
PHHI 091655Z AUTO 00000KT 10SM CLR 22/18 A3010 RMK AO2 SLP182 T02160182 $

2010/08/09 16:53
PTRO 091653Z 20004KT 14SM BKN015CB OVC280 25/24 A2988 RMK CB VC ALQDS

2010/08/09 16:55
RJTY 091655Z AUTO 19005KT 9999 BKN050 OVC065 24/23 A3004 RMK AO2 SLP166 T02420228

2010/08/09 17:00
SVMI 091700Z 36003KT 9999 FEW016 SCT100 32/26 Q1013 NOSIG

2010/08/09 17:00
TVSV 091700Z 15008KT 9999 FEWCB020 SCT023 31/26 Q1014/ CB NW/W

2010/08/09 16:55
KCKN 091655Z AUTO 20011KT 10SM CLR 30/20 A2986 RMK AO2

2010/08/09 17:03
KCFE 091703Z AUTO 00000KT 10SM CLR 30/23 A2993 RMK AO2 T02950227

2010/08/09 16:57
KCQM 091657Z AUTO 00000KT 10SM CLR 27/21 A2992 RMK AO2

2010/08/09 16:55
KDTL 091655Z AUTO 24006KT 10SM CLR 27/16 A2995 RMK AO2

2010/08/09 16:55
KBDH 091655Z AUTO 04003KT 10SM CLR 29/21 A2993 RMK AO2

2010/08/09 16:55
KCBG 091655Z AUTO 00000KT 10SM CLR 28/24 A2992 RMK AO2

2010/08/09 16:57
KADC 091657Z AUTO 30004KT 10SM CLR 28/16 A2994 RMK AO2

2010/08/09 16:55
KHAF 091655Z AUTO 19005KT 5SM BR BKN006 OVC010 13/12 A2995 RMK AO2

2010/08/09 16:55
KCKC 091655Z AUTO 29006KT 10SM CLR 27/16 A2993 RMK AO2

2010/08/09 16:55
KJYG 091655Z AUTO 00000KT 10SM SCT024 29/27 A2993 RMK AO2

2010/08/09 16:56
KCOQ 091656Z AUTO 29004KT 10SM CLR 28/19 A2993 RMK AO2

2010/08/09 16:58
KACQ 091658Z AUTO 00000KT 10SM CLR 27/22 A2995 RMK AO2

2010/08/09 16:55
KRGK 091655Z AUTO 00000KT 10SM CLR 30/23 A2989 RMK AO2

2010/08/09 16:54
KFSE 091654Z AUTO 21008KT 10SM CLR 28/19 A2989 RMK AO2

2010/08/09 16:55
KY70 091655Z AUTO 22006KT 10SM SCT035 SCT070 BKN100 25/23 A2993 RMK AO2 T02500227

2010/08/09 16:50
KUKT 091650Z AUTO 23005KT 10SM SCT043 31/19 A3003 RMK AO1

2010/08/09 16:54
KCDA 091654Z AUTO 00000KT 10SM SCT036 BKN043 OVC095 25/16 A2998 RMK AO2

2010/08/09 17:01
PADM 091701Z AUTO 15017KT 10SM BKN030 OVC037 11/08 A2938 RMK AO2 TSNO T01050083 BKN V SCT RAE1655 P0000 SLP936 $

2010/08/09 16:58
PADU 091658Z 15004KT 8SM -RA BKN015 OVC033 11/09 A2951 RMK AO2 SLP999 VIS LWR NE MH P0000 T01060089

2010/08/09 16:50
PAFK 091650Z 15010KT 15SM FEW010 SCT030 OVC060 14/07 A2957 RMK EST PASS MGNL NOSPECI

2010/08/09 16:57
PAIW 091657Z AUTO 08011KT 10SM FEW006 BKN080 OVC090 13/12 A2935 RMK AO2 SLPNO T01330117

2010/08/09 16:56
PAJZ 091656Z AUTO 18011KT 4SM BR FEW007 SCT024 BKN030 11/10 A2956 RMK AO2 PWINO TSNO T01050100 SLP997 $

2010/08/09 16:56
PAKI 091656Z AUTO 18021KT 5SM +RA BR OVC009 09/09 A2923 RMK AO2 TSNO T00880088 P0000 SLP900 $

2010/08/09 16:56
PALG 091656Z AUTO 00000KT 10SM OVC095 11/10 A2938 RMK AO2 TSNO T01110100 SLP951 $

2010/08/09 16:58
PATE 091658Z AUTO 05013KT 10SM -RA OVC065 12/11 A2932 RMK AO2 SLP939 P0005 T01220111

2010/08/09 16:55
KADM 091655Z 17010KT 10SM SKC 35/24 A2993

2010/08/09 16:55
KAWG 091655Z AUTO 18006KT 10SM CLR 30/22 A2991 RMK AO2

2010/08/09 16:55
KAXA 091655Z AUTO 15007KT 10SM BKN019 27/23 A2991 RMK AO2

2010/08/09 16:55
KBNW 091655Z AUTO 16008KT 10SM SCT022 29/23 A2990 RMK AO2

2010/08/09 16:55
KCAV 091655Z AUTO 12005KT 10SM BKN050 29/23 A2992 RMK AO2

2010/08/09 16:55
KCBF 091655Z AUTO 23003KT 10SM CLR 31/24 A2986 RMK AO2

2010/08/09 16:55
KCKP 091655Z AUTO 11004KT 10SM OVC015 26/22 A2989 RMK AO2

2010/08/09 16:55
KCNC 091655Z AUTO 18005KT 10SM CLR 28/23 A2990 RMK AO2

2010/08/09 16:55
KCNW 091655Z 18005KT 10SM SKC 34/22 A2996

2010/08/09 16:51
KCSG 091651Z COR 13005KT 10SM FEW045 CLR 34/20 A3000 RMK AO2 SLP152 T03390200

2010/08/09 16:55
KCSQ 091655Z AUTO 17009KT 10SM CLR 29/26 A2989 RMK AO2

2010/08/09 16:55
KDEH 091655Z AUTO 02003KT 10SM CLR 28/22 A2996 RMK AO2

2010/08/09 16:55
KDNS 091655Z AUTO 00000KT 10SM SCT018 30/24 A2990 RMK AO2

2010/08/09 16:55
KEBS 091655Z AUTO 15011KT 10SM SCT018 28/22 A2990 RMK AO2

2010/08/09 16:55
KEFT 091655Z AUTO 25013G18KT 10SM OVC016 26/21 A2995 RMK AO2 T02610212

2010/08/09 16:55
KEOK 091655Z AUTO 16008KT 10SM CLR 26/23 A2993 RMK AO2 P0001

2010/08/09 16:55
KFFL 091655Z AUTO 20006KT 10SM CLR 28/25 A2992 RMK AO2

2010/08/09 16:56
KFSD 091656Z 07006KT 10SM FEW022 28/22 A2991 RMK AO2 SLP118 SCT ABV 120 T02780217

2010/08/09 16:55
KFSW 091655Z AUTO 17009KT 10SM CLR 28/22 A2992 RMK AO2

2010/08/09 16:57
KFWS 091657Z 18008KT 20SM FEW045 34/23 A2996

2010/08/09 16:55
KFXY 091655Z AUTO 15006KT 10SM SCT047 27/21 A2993 RMK AO2

2010/08/09 16:55
KGGI 091655Z AUTO 16009KT 10SM CLR 29/23 A2992 RMK AO2

2010/08/09 16:55
KHNR 091655Z AUTO 15006KT 10SM SCT020 29/24 A2990 RMK AO2

2010/08/09 16:50
KHOB 091650Z 16008KT 10SM SKC 27/20 A3008

2010/08/09 16:55
KI75 091655Z AUTO 17009KT 10SM CLR 27/22 A2990 RMK AO2

2010/08/09 16:55
KICL 091655Z AUTO 19010G14KT 7SM CLR 31/25 A2986 RMK AO2

2010/08/09 16:55
KIIB 091655Z AUTO 00000KT 10SM CLR 28/22 A2993 RMK AO1

2010/08/09 16:55
KIKV 091655Z AUTO 15009KT 10SM SCT024 29/23 A2990 RMK AO2

2010/08/09 16:55
KLRJ 091655Z AUTO 04003KT 10SM OVC010 25/22 A2990 RMK AO2

2010/08/09 16:55
K4M9 091655Z AUTO 19003KT 9SM -RA CLR 33/26 A2995 RMK AO2 P0001

2010/08/09 16:55
KBVU 091655Z AUTO 00000KT 10SM CLR 28/07 A2997 RMK AO2

2010/08/09 16:47
KIWA 091647Z VRB03KT 45SM SCT120 36/11 A2992

2010/08/09 16:55
KLNL 091655Z AUTO 35005KT 10SM CLR 27/19 A2995 RMK AO2 T02720187

2010/08/09 16:55
KMAN 091655Z AUTO 23004KT 10SM CLR 24/08 A2988 RMK AO1

2010/08/09 16:55
KMCJ 091655Z AUTO 20005KT 10SM CLR 32/22 A2995 RMK AO1

2010/08/09 16:55
KMDZ 091655Z AUTO 32008KT 10SM SCT022 28/23 A2993 RMK AO2

2010/08/09 16:55
KMRJ 091655Z AUTO 27005KT 10SM OVC015 27/22 A2996 RMK AO2 T02650216

2010/08/09 16:55
KPBH 091655Z AUTO 31005KT 10SM CLR 28/22 A2996 RMK AO2

2010/08/09 16:55
KPCZ 091655Z AUTO 23004KT 10SM OVC025 28/23 A2990 RMK AO2 T02820225

2010/08/09 16:52
KPDC 091652Z AUTO 21003KT 10SM BKN023 BKN090 29/23 A2992 RMK AO2 T02880230

2010/08/09 16:55
KRCX 091655Z AUTO 31006KT 10SM CLR 28/23 A2995 RMK AO2 T02820228

2010/08/09 16:55
KRRL 091655Z AUTO 35007KT 10SM SCT027 28/22 A2992 RMK AO2 T02830220

2010/08/09 16:55
KRYV 091655Z AUTO 23009KT 10SM SCT020 27/22 A2993 RMK AO2

2010/08/09 16:55
KSNC 091655Z AUTO 18007KT 9SM CLR 28/23 A3001 RMK AO2

2010/08/09 16:55
KSTE 091655Z AUTO 22005KT 7SM BKN012 26/23 A2992 RMK AO2

2010/08/09 16:55
KSUW 091655Z AUTO 19004KT 10SM CLR 26/22 A2989 RMK AO2

2010/08/09 16:55
KLDM 091655Z AUTO 24011G18KT 10SM BKN011 BKN016 OVC025 25/22 A2992 RMK AO2

2010/08/09 16:55
KPHN 091655Z AUTO 25004KT 7SM SCT070 27/20 A2994 RMK AO2

2010/08/09 16:55
KRMY 091655Z AUTO 24004KT 5SM RA SCT012 BKN035 OVC049 22/21 A3002 RMK AO2

2010/08/09 16:55
KOSC 091655Z AUTO 06008KT 10SM SCT008 BKN020 24/21 A2991 RMK AO2

2010/08/09 16:53
KTTF 091653Z AUTO 28007KT 10SM CLR 29/21 A2996 RMK AO2

2010/08/09 16:55
KMCD 091655Z AUTO 13004KT 10SM SCT007 24/20 A2990 RMK AO2

2010/08/09 16:56
KFPK 091656Z AUTO 22007KT 4SM RA BKN036 BKN047 OVC065 22/21 A2998 RMK AO2

2010/08/09 16:55
KCVX 091655Z AUTO 09004KT 7SM SCT015 26/21 A2988 RMK AO2

2010/08/09 16:54
KMOP 091654Z AUTO 23005KT 10SM OVC090 25/23 A2991 RMK AO2

2010/08/09 16:54
KFKS 091654Z AUTO 25007KT 10SM SCT013 SCT060 BKN070 25/21 A2989 RMK AO2

2010/08/09 16:54
KCAD 091654Z AUTO 27009G18KT 10SM SCT120 28/21 A2992 RMK AO2

2010/08/09 16:54
KMGN 091654Z AUTO 06007KT 10SM SCT047 25/21 A2988 RMK AO2

2010/08/09 16:55
KSLH 091655Z AUTO 15006KT 10SM CLR 23/22 A2988 RMK AO2

2010/08/09 16:55
KSJX 091655Z AUTO 11005KT 10SM SCT007 26/22 A2987 RMK AO2

2010/08/09 16:55
KHAI 091655Z AUTO 08006KT 7SM -RA SCT040 BKN046 BKN090 22/21 A2999 RMK AO2

2010/08/09 16:56
KLWA 091656Z AUTO 17005KT 10SM SCT095 SCT120 23/22 A2995 RMK AO2

2010/08/09 16:57
KDRM 091657Z AUTO 15004KT 10SM CLR 23/20 A2991 RMK AO2

2010/08/09 16:54
KVLL 091654Z AUTO 23005KT 10SM CLR 27/18 A2998 RMK AO2

2010/08/09 16:54
KGOV 091654Z AUTO 00000KT 4SM BR OVC008 24/22 A2992 RMK AO2

2010/08/09 16:54
KPZQ 091654Z AUTO 17007KT 10SM BKN060 BKN080 BKN100 21/20 A2991 RMK AO2

2010/08/09 16:55
KCFS 091655Z AUTO 20005KT 7SM SCT120 25/22 A2993 RMK AO2

2010/08/09 16:54
KHYX 091654Z AUTO 21010KT 7SM SCT120 25/21 A2993 RMK AO2

2010/08/09 16:55
KOZW 091655Z AUTO 22007KT 10SM CLR 25/20 A2997 RMK AO2

2010/08/09 16:55
KRNP 091655Z AUTO 20005KT 10SM SCT120 25/21 A2994 RMK AO2

2010/08/09 16:55
KDUH 091655Z AUTO 30004KT 10SM CLR 28/19 A2998 RMK AO2

2010/08/09 16:55
KISQ 091655Z AUTO 18005KT 10SM BKN012 26/22 A2988 RMK AO2

2010/08/09 16:55
KJYM 091655Z AUTO 24003KT 10SM SCT095 26/21 A3001 RMK AO2

2010/08/09 17:05
KBAX 091705Z AUTO 21004KT 4SM BR SCT010 SCT018 SCT060 22/21 A2991 RMK AO2

2010/08/09 16:55
KIRS 091655Z AUTO 00000KT 10SM CLR 26/21 A2999 RMK AO2

2010/08/09 16:54
KAMN 091654Z AUTO 20008KT 10SM CLR 26/22 A2992 RMK AO2

2010/08/09 16:55
KACB 091655Z AUTO 18007KT 5SM HZ SCT023 OVC031 29/23 A2986 RMK AO2

2010/08/09 16:54
KRQB 091654Z AUTO 21007KT 10SM SCT060 OVC085 24/21 A2993 RMK AO2

2010/08/09 16:55
KERY 091655Z AUTO 18004KT 10SM BKN020 BKN047 26/22 A2990 RMK AO2

2010/08/09 16:55
KOEB 091655Z AUTO 35003KT 7SM -RA SCT045 24/22 A3001 RMK AO2

2010/08/09 16:56
K4I3 091656Z AUTO 21005KT 10SM CLR 29/20 A3005 RMK AO2

2010/08/09 16:55
KAUM 091655Z AUTO 31005KT 10SM SCT025 SCT038 28/22 A2993 RMK AO2

2010/08/09 16:55
KFFX 091655Z AUTO 23007KT 10SM BKN011 OVC019 25/22 A2992 RMK AO2

2010/08/09 16:54
KCNB 091654Z AUTO 06004KT 10SM CLR 29/21 A2994 RMK AO2 T02870213

2010/08/09 16:55
KLUM 091655Z AUTO 36005KT 7SM OVC011 27/23 A2992 RMK AO2

2010/08/09 16:55
KMPZ 091655Z AUTO 16009KT 10SM CLR 28/21 A2991 RMK AO2

2010/08/09 16:55
KMUT 091655Z AUTO 00000KT 10SM CLR 28/24 A2989 RMK AO2

2010/08/09 16:55
KMXO 091655Z AUTO 33005KT 10SM CLR 27/23 A2992 RMK AO2

2010/08/09 16:55
KOEO 091655Z AUTO 04003KT 10SM CLR 28/23 A2993 RMK AO2

2010/08/09 16:55
KOOA 091655Z AUTO 16008KT 10SM CLR 29/23 A2991 RMK AO2

2010/08/09 16:55
KORC 091655Z AUTO 00000KT 10SM OVC008 25/24 A2992 RMK AO2

2010/08/09 16:55
KPEA 091655Z AUTO 10SM CLR A2991 RMK AO2

2010/08/09 16:55
KRDK 091655Z AUTO 20009KT 10SM 33/26 A2985 RMK AO2

2010/08/09 16:57
KRNH 091657Z AUTO 00000KT 10SM CLR 28/24 A2993 RMK AO2 T02760236

2010/08/09 16:54
KSBN 091654Z 19004KT 10SM BKN040 26/21 A2998 RMK AO2 SLP146 T02560206

2010/08/09 16:55
KSDA 091655Z AUTO 17011KT 10SM CLR 32/26 A2986 RMK AO2

2010/08/09 16:55
KTKV 091655Z AUTO 31007KT 10SM SCT027 29/21 A2993 RMK AO2 T02850210

2010/08/09 16:55
KTNU 091655Z AUTO 16009KT 10SM CLR 30/23 A2991 RMK AO2

2010/08/09 16:55
KTOA 091655Z VRB06KT 4SM BR BKN012 21/14 A2995

2010/08/09 16:55
KTVK 091655Z AUTO 10SM CLR 23/22 A2992 RMK AO2

2010/08/09 16:55
KUNU 091655Z AUTO 22010KT 10SM SCT020 BKN025 BKN031 27/20 A2993 RMK AO2 T02650201

2010/08/09 16:55
KVTI 091655Z AUTO 00000KT 10SM CLR 27/23 A2991 RMK AO2

2010/08/09 16:58
KJXN 091658Z 24006KT 1/4SM -TSRA BR BKN025 23/21 A3000 RMK AO2 TSB58 P0000 $

2010/08/09 16:58
PAGA 091658Z AUTO 12008KT 10SM FEW008 BKN012 OVC055 13/11 A2945 RMK AO2

2010/08/09 16:58
PARS 091658Z AUTO 11004KT 10SM BKN014 OVC036 11/10 A2936 RMK AO2 TSNO BKN V SCT $

2010/08/09 17:00
SBRB 091700Z 18004KT 7000 NSC 37/16 Q1015 

2010/08/09 17:00
SBSJ 091700Z 24013KT 9999 SCT020 19/12 Q1023

2010/08/09 17:00
SBCB 091700Z 26020KT 9999 SCT008 SCT060 25/17 Q1018

2010/08/09 17:00
SBUG 091700Z 08011KT CAVOK 16/05 Q1024 

2010/08/09 17:00
SBSV 091700Z 11007KT 9999 SCT017 26/19 Q1018

2010/08/09 17:00
SBRF 091700Z 18012KT 9999 SCT007 BKN015 BKN070 25/22 Q1015

2010/08/09 17:00
SBMO 091700Z 20004KT 5000 -RA BR SCT006 SCT018 BKN100 22/20 Q1017 

2010/08/09 17:00
SBGO 091700Z 12006KT 9999 FEW022 33/08 Q1018 

2010/08/09 17:00
SBPL 091700Z 11010KT 9999 SCT025 30/14 Q1017

2010/08/09 16:56
KBIH 091656Z AUTO 00000KT 10SM CLR 24/00 A3001 RMK AO2 SLP112 T02390000 TSNO 

2010/08/09 16:59
CZCP 091659Z AUTO 06012KT 1SM CLR 06/ A2982

2010/08/09 16:53
EBCV 091653Z AUTO 20004KT 6000 // FEW250 22/12 Q1016 WHT

2010/08/09 16:45
RJSM 091645Z 12004KT 1000 R10/P1800N BR FEW000 SCT001 BKN002 23/22 Q1014 RMK 1ST000 3ST001 7ST002 A2995 VIS S-NW 500M

2010/08/09 16:52
RJNH 091652Z 05003KT 020V080 9999 FEW006 BKN040 BKN060 25/23 Q1014 RMK 1CU006 5SC040 6SC060 A2997 1CU006 S

2010/08/09 16:51
RJSM 091651Z 11005KT 0600 R10/0650VP1800D FG BKN000 OVC001 23/22 Q1014 RMK 5ST000 8ST001 A2995 R1300 VIS SW-NW 400M

2010/08/09 16:46
RJSM 091646Z 12004KT 0800 R10/1300VP1800D FG SCT000 BKN001 OVC002 23/22 Q1014 RMK 3ST000 5ST001 8ST002 A2995 R1800 VIS S-NW 400M FCST AMD 1621 TEMPO 1721 0300 FG VV000

2010/08/09 16:55
TXKF 091655Z 18012KT 9999 FEW020 BKN300 30/23 Q1022 

2010/08/09 16:58
ETAD 091658Z AUTO 24007KT 9999 FEW055 BKN070 23/09 A3002 RMK AO2 SLP160 $

2010/08/09 16:56
K79J 091656Z 13010KT 10SM FEW042 34/23 A2998 RMK AO2 SLP148 T03440228 PNO $

2010/08/09 16:55
KBIX 091655Z 03008KT 10SM FEW028 SCT130 34/24 A2996 RMK AO2A SLP146 WND DATA ESTMD ALSTG/SLP ESTMD

2010/08/09 16:56
KHLR 091656Z AUTO 15007KT 130V200 10SM CLR 34/20 A2998 RMK AO2 SLP140 T03440200 $

2010/08/09 16:56
KNBC 091656Z 03009G15KT 7SM FEW030 SCT200 33/21 A3000 RMK AO2 SLP157 T03280206

2010/08/09 16:56
KNGP 091656Z VRB06KT 10SM SCT023 SCT040 32/26 A2994 RMK AO2 SLP139 T03170261 VISNO

2010/08/09 16:53
KNIP 091653Z COR 07008KT 10SM FEW024 BKN034TCU 31/24 A2997 RMK AO2 RAB30E46 SLP144 TCU OHD P0000 T03110244

2010/08/09 16:56
KNMM 091656Z 09004KT 10SM SCT026 33/24 A2999 RMK AO2 SLP162 T03280239 $

2010/08/09 16:56
KNPA 091656Z 12012KT 9SM SCT035 SCT280 32/25 A2998 RMK AO2 SLP152 T03220250

2010/08/09 16:56
KNQI 091656Z 12008KT 10SM BKN035 36/24 A2994 RMK AO2 SLP134 T03560244

2010/08/09 16:56
KNRS 091656Z 26007KT 10SM BKN017 19/13 A2994 RMK AO2 SLP138 T01890133

2010/08/09 16:56
KNSE 091656Z 13006KT 9SM SCT030 SCT130 33/24 A2999 RMK AO2 SLP138 T03330239 $

2010/08/09 16:56
KNUW 091656Z 21006KT 5SM BR BKN006 OVC015 14/12 A2997 RMK AO2 SLP152 T01370121 $

2010/08/09 16:56
KNXX 091656Z 25005KT 9SM SCT045 31/18 A3003 RMK AO2 SLP171 T03110183 $

2010/08/09 16:52
KNZY 091652Z 17004KT 10SM BKN017 22/14 A2993 RMK AO2 SLP135 T02170139 $

2010/08/09 17:00
MZBZ 091700Z 12010KT 9999 BKN026 BKN280 32/26 A2991 NOSIG

2010/08/09 16:59
NSTU 091659Z 10015KT 10SM SCT017 BKN040 27/24 A2996 RMK SLP146 T02690242

2010/08/09 16:55
PHSF 091655Z VRB06KT 7SM CLR 13/M06 A3031 RMK SLPNO

2010/08/09 16:51
RJSM 091651Z 11005KT 0600 R10/0650VP1800D FG BKN000 OVC001 23/22 Q1014 RMK 5ST000 8ST001 A2995 R1300 VIS SW-NW 400M

2010/08/09 16:45
RJSM 091645Z 12004KT 1000 R10/P1800N BR FEW000 SCT001 BKN002 23/22 Q1014 RMK 1ST000 3ST001 7ST002 A2995 VIS S-NW 500M

2010/08/09 16:46
RJSM 091646Z 12004KT 0800 R10/1300VP1800D FG SCT000 BKN001 OVC002 23/22 Q1014 RMK 3ST000 5ST001 8ST002 A2995 R1800 VIS S-NW 400M FCST AMD 1621 TEMPO 1721 0300 FG VV000

2010/08/09 17:01
YBRM 091701Z AUTO 12017G27KT 9999NDV // NCD 19/01 Q1017

2010/08/09 17:00
TFFR 091700Z 12008KT 040V160 SCT020 SCT053 30/24 Q1014 TEMPO 4000 SHRA

2010/08/09 17:00
SBCZ 091700Z 21004KT 7000 NSC 33/20 Q1016

2010/08/09 17:00
SBNF 091700Z 10006KT 9999 BKN040 18/13 Q1022

2010/08/09 17:00
SBSN 091700Z 12007KT 9999 FEW023 32/24 Q1012

2010/08/09 17:01
YBRM 091701Z AUTO 12017G27KT 9999NDV // NCD 19/01 Q1017

2010/08/09 16:59
KNGU 091659Z 07006KT 7SM FEW040 BKN250 30/21 A3006 RMK AO2 SLP178 CONTRAILS T03000206 

2010/08/09 17:00
GOOY 091700Z 29006KT 250V350 9999 SCT013 BKN230 29/22 Q1011 NOSIG

2010/08/09 17:00
LUKK 091700Z 34009KT 9999 SCT050CB 26/19 Q1012 26CLRD65 NOSIG

2010/08/09 17:00
DIAP 091700Z 25008KT 220V280 8000 SCT011 BKN080 27/23 Q1013 NOSIG

2010/08/09 16:50
BGBW 091650Z 03004KT 9999 FEW010 SCT015 BKN075 13/09 Q1008 RMK 1ST 3SC 7AC 

2010/08/09 17:00
OPKC 091700Z 27002KT 6000 FEW020 BKN100 27/25 Q.1001 NOSIG

2010/08/09 17:00
UTTT 091700Z 10003MPS 070V140 CAVOK 28/06 Q1006 R08R/CLRD70 TEMPO 03005G10MPS

2010/08/09 16:54
KWAL 091654Z 17008KT 10SM FEW025 SCT250 29/22 A3004 RMK AO2 SLP171 T02890222 

2010/08/09 17:00
LBSF 091700Z 01003MPS 9999 FEW050 24/15 Q1015 NOSIG

2010/08/09 17:00
LBWN 091700Z 34007MPS 9999 SCT050 28/21 Q1010 NOSIG

2010/08/09 17:00
LBBG 091700Z 01006MPS CAVOK 29/21 Q1010 NOSIG

2010/08/09 17:00
LBPD 091700Z 06001MPS 9999 FEW050 SCT100 30/21 Q1011 NOSIG

2010/08/09 17:00
LBGO 091700Z 25002MPS CAVOK 26/23 Q1012 NOSIG

2010/08/09 16:55
KBIX 091655Z 03008KT 10SM FEW028 SCT130 34/24 A2996 RMK AO2A SLP146 WND DATA ESTMD ALSTG/SLP ESTMD

2010/08/09 16:56
KCHS 091656Z 04009KT 10SM FEW025 33/23 A3000 RMK AO2 SLP158 T03280233

2010/08/09 16:55
KCOF 091655Z 13008KT 10SM CLR 29/24 A2995 RMK AO2A SLP143 T02900241

2010/08/09 16:56
KNBC 091656Z 03009G15KT 7SM FEW030 SCT200 33/21 A3000 RMK AO2 SLP157 T03280206

2010/08/09 16:55
KNBG 091655Z 04006KT 10SM SCT025 BKN100 OVC250 33/24 A2999 RMK AO2 SLP155 T2 SET T03280244 $

2010/08/09 16:56
KNCA 091656Z VRB04KT 10SM SCT030 BKN080 32/23 A3003 RMK AO2 SLP171 T03200228 $

2010/08/09 16:56
KNGP 091656Z VRB06KT 10SM SCT023 SCT040 32/26 A2994 RMK AO2 SLP139 T03170261 VISNO

2010/08/09 16:53
KNIP 091653Z COR 07008KT 10SM FEW024 BKN034TCU 31/24 A2997 RMK AO2 RAB30E46 SLP144 TCU OHD P0000 T03110244

2010/08/09 16:57
KNJM 091657Z AUTO 13006KT 10SM FEW045 SCT065 28/24 A3005 RMK AO2 SLP178 T02830239

2010/08/09 16:54
KNKT 091654Z 12008KT 10SM -RA FEW060 28/23 A3004 RMK AO2 RAB41 SLP171 P0000 T02830233

2010/08/09 16:56
KNPA 091656Z 12012KT 9SM SCT035 SCT280 32/25 A2998 RMK AO2 SLP152 T03220250

2010/08/09 16:56
KNTU 091656Z 10008KT 10SM SCT030 BKN200 29/23 A3004 RMK AO2 SLP176 T02890228 $

2010/08/09 16:55
KPAM 091655Z AUTO 07010G15KT 10SM CLR 33/24 A2996 RMK AO2 SLP146 T03270243 $

2010/08/09 17:00
MDSD 091700Z 17006KT 9999 SCT025 SCT300 32/24 Q1013

2010/08/09 16:56
MUGM 091656Z 12013KT 9999 FEW025TCU BKN250 31/24 A2995 RMK SLP142 TCU DSNT NW-N T03110244

2010/08/09 17:00
SAZS 091700Z 00000KT CAVOK 04/M02 Q1024

2010/08/09 17:00
TVSV 091700Z 15008KT 9999 FEWCB020 SCT023 31/26 Q1014/ CB NW/W

2010/08/09 16:55
TXKF 091655Z 18012KT 9999 FEW020 BKN300 30/23 Q1022

2010/08/09 17:00
GQNN 091700Z 26009KT CAVOK 29/19 Q1010 NOSIG

2010/08/09 16:50
HLLB 091650Z 33018KT 9999 SCT020 26/19 Q1013

2010/08/09 17:00
UBBN 091700Z 09014KT 9999 SCT050CB BKN100 30/09 Q1009 R14R/CLRD60 NOSIG RMK G/O QFE682

2010/08/09 16:55
OAHR 091655Z AUTO /////KT //// // ////// 30/M03 Q1009

2010/08/09 16:50
HLLB 091650Z 33018KT 9999 SCT020 26/19 Q1013

2010/08/09 16:50
HLLB 091650Z 33018KT 9999 SCT020 26/19 Q1013

2010/08/09 16:55
EBBL 091655Z 25007KT 9999 SCT060 BKN250 23/11 Q1016 BLU

2010/08/09 16:55
EBFN 091655Z 27009KT 9999 FEW050 BKN220 21/15 Q1015 BLU

2010/08/09 16:55
EBFS 091655Z 21004KT 9999 FEW060 BKN250 22/09 Q1016 BLU

2010/08/09 16:50
EGAE 091650Z 24011KT 9999 FEW016 SCT024 17/12 Q1007

2010/08/09 16:50
EGNC 091650Z 24012KT 9999 FEW020 SCT030 16/13 Q1008

2010/08/09 16:50
EGNH 091650Z 26006KT 9999 FEW010 SCT025 18/14 Q1010

2010/08/09 16:50
EGNJ 091650Z 22015KT 9999 BKN045 23/14 Q1010

2010/08/09 16:50
EGPA 091650Z 14010KT 9999 FEW004 SCT006 BKN045 15/14 Q1005

2010/08/09 16:50
EGPC 091650Z 12009KT 9999 FEW011 SCT049 15/15 Q1005

2010/08/09 16:50
EGPE 091650Z 34005KT 9999 FEW015 FEW020CB SCT040 18/12 Q1005

2010/08/09 16:50
EGPL 091650Z AUTO 21011KT 9999NDV NCD 16/11 Q1005

2010/08/09 16:50
EGPM 091650Z AUTO 12012KT 9999NDV SCT018/// BKN024/// 14/11 Q1008

2010/08/09 16:50
EGPN 091650Z 25016KT 9999 FEW020 BKN048 18/13 Q1005

2010/08/09 16:50
EGPO 091650Z 20011KT 9999 FEW026 SCT038 16/11 Q1005

2010/08/09 16:55
EGVA 091655Z AUTO 22012KT 9999 OVC019 19/15 A2991 RMK AO2 CIG 018V022 SLP128 T01930152 $

2010/08/09 16:50
ENAT 091650Z 30009KT 9999 FEW025 BKN046 14/10 Q1014

2010/08/09 17:00
LBBG 091700Z 01006MPS CAVOK 29/21 Q1010 NOSIG

2010/08/09 17:00
LBGO 091700Z 25002MPS CAVOK 26/23 Q1012 NOSIG

2010/08/09 17:00
LBSF 091700Z 01003MPS 9999 FEW050 24/15 Q1015 NOSIG

2010/08/09 17:00
LBWN 091700Z 34007MPS 9999 SCT050 28/21 Q1010 NOSIG

2010/08/09 16:50
LGBL 091650Z 11005KT CAVOK 31/20 Q1009 NOSIG BLU

2010/08/09 16:50
LGHI 091650Z 02009KT CAVOK 30/21 Q1006

2010/08/09 16:50
LGKP 091650Z 32024KT 9999 FEW012 28/26 Q1004

2010/08/09 16:50
LGLR 091650Z 07007KT 9999 FEW035 32/14 Q1009 NOSIG BLU

2010/08/09 16:50
LGPZ 091650Z 24014KT 9999 FEW030 27/21 Q1010 NOSIG BLU

2010/08/09 16:50
LGSM 091650Z 35008KT 290V040 CAVOK 34/20 Q1004

2010/08/09 16:50
LGSR 091650Z 33015KT CAVOK 29/21 Q1006 NOSIG BLU

2010/08/09 16:50
LGSY 091650Z 31007KT CAVOK 29/22 Q1007 NOSIG BLU

2010/08/09 17:00
LWSK 091700Z 36012KT 9999 FEW050 28/14 Q1013 NOSIG

2010/08/09 16:50
KQEI 091650Z AUTO 23001KT 5SM BR BKN007 23/21 A2998 RMK A02

2010/08/09 16:50
KQEJ 091650Z AUTO 10001KT 3SM BR SCT003 23/21 A2997 RMK A02

2010/08/09 16:50
KQEP 091650Z AUTO 10001KT 4SM BR BKN048 BKN075 25/22 A2987 RMK A02

2010/08/09 16:50
KQEQ 091650Z AUTO 08001KT 4SM BR FEW100 24/22 A2981 RMK A02

2010/08/09 16:50
KQER 091650Z AUTO 00000KT 3SM BR CLR 23/21 A2992 RMK A02

2010/08/09 16:50
KQEW 091650Z AUTO 29003KT 7SM BKN060 BKN095 25/22 A2985 RMK A02

2010/08/09 16:50
KQEX 091650Z AUTO 18001KT 7SM FEW025 BKN033 28/22 A2977 RMK A02

2010/08/09 16:50
KQFB 091650Z AUTO 29005KT 7SM -SHRA OVC018 26/24 A2995 RMK A02

2010/08/09 16:50
KQFU 091650Z AUTO 23001KT 7SM CLR 25/22 A2991 RMK A02

2010/08/09 16:50
KQFW 091650Z AUTO 16001KT 7SM CLR 24/21 A2993 RMK A02

2010/08/09 16:55
KQA4 091655Z AUTO 36014G22KT 7000 HZ CLR 32/M02 A2975 RMK AO2 SLP977 T03191021

2010/08/09 16:55
KQAQ 091655Z 32006KT 6000 DU HZ FEW020 42/06 A2954 RMK DU FEW020 SLP000 PA +472 DA +3590

2010/08/09 16:55
KQDX 091655Z AUTO VRB04KT 9000 36/M02 A2963 RMK AO2 SLP948 T03561016 $

2010/08/09 16:55
KQSD 091655Z 13004KT 9999 SCT040 OVC080 28/07 A2994 RMK AO2A SLP008

2010/08/09 16:55
KQTO 091655Z 30006KT 9999 CLR 38/05 A2951 RMK SLP992

2010/08/09 17:00
SBPK 091700Z 18005KT CAVOK 17/03 Q1025

2010/08/09 16:56
KMEH 091656Z AUTO VRB06KT 10SM FEW085 20/05 A2995 RMK AO2 SLP123 T02000050 TSNO 

2010/08/09 16:56
KAQV 091656Z AUTO VRB05KT 10SM CLR 33/23 A2997 RMK AO2 SLP145 T03330228 

2010/08/09 17:00
GUCY 091700Z 28008KT 9999 BKN015 SCT110 28/25 Q1011

2010/08/09 17:00
VHHH 091700Z 21004KT 170V230 9999 FEW012 30/25 Q1005 NOSIG

2010/08/09 17:00
NWWW 091700Z AUTO 03003KT 9999NDV NCD 16/13 Q1022

2010/08/09 17:00
NWWL 091700Z AUTO 11014KT 090V150 9999NDV BKN024/// BKN029/// OVC034/// 21/17 Q1021

2010/08/09 17:00
NWWM 091700Z AUTO 06005KT 010V110 9999NDV NCD 20/14 Q1023

2010/08/09 17:00
NWWU 091700Z AUTO 10018KT 9999NDV BKN030/// OVC035/// 23/18 Q1021

2010/08/09 17:00
FBSK 091700Z 22006KT CAVOK 16/03 Q1024 NOSIG

2010/08/09 16:55
KDMA 091655Z AUTO 00000KT 10SM CLR 31/17 A2999 RMK AO2 SLP085 T03070166 VISNO RWY12 CHINO RWY12 $

2010/08/09 16:55
KHRT 091655Z 09009KT 10SM FEW030 SCT250 32/25 A2997 RMK AO2A SLP151 T03250252 $

2010/08/09 16:55
KHUA 091655Z 35003KT 7SM SCT060 34/23 A3003

2010/08/09 16:59
KIYK 091659Z 36006KT 20SM SKC 29/ A2992

2010/08/09 16:55
KMCF 091655Z AUTO 06005KT 10SM BKN023 30/26 A2993 RMK AO2 CIG 022V027 SLP135 T02980260

2010/08/09 16:55
KMMT 091655Z 09007KT 10SM FEW035 33/23 A3004 RMK SLP171

2010/08/09 16:55
KMXF 091655Z AUTO 11007KT 080V140 10SM CLR 35/23 A2998 RMK AO2 SLP152 T03520232

2010/08/09 16:55
KNBG 091655Z 04006KT 10SM SCT025 BKN100 OVC250 33/24 A2999 RMK AO2 SLP155 T2 SET T03280244 $

2010/08/09 16:56
KNCA 091656Z VRB04KT 10SM SCT030 BKN080 32/23 A3003 RMK AO2 SLP171 T03200228 $

2010/08/09 16:56
KNMM 091656Z 09004KT 10SM SCT026 33/24 A2999 RMK AO2 SLP162 T03280239 $

2010/08/09 16:56
KNXX 091656Z 25005KT 9SM SCT045 31/18 A3003 RMK AO2 SLP171 T03110183 $

2010/08/09 16:55
KPVU 091655Z 07003KT 15SM FEW090 24/09 A3009

2010/08/09 16:55
KTTS 091655Z 11009G16KT 080V140 10SM SCT021 BKN090 31/25 A2994 RMK MDT CU ALQDS SLP139 4CU /4/ 1AC /5/

2010/08/09 16:55
KCIC 091655Z 30005KT 40SM SKC A2987

2010/08/09 16:45
KMYR 091645Z COR 12010KT 10SM FEW022 SCT030 31/25 A3006

2010/08/09 16:59
KSME 091659Z AUTO 13005KT 10SM 32/23 A3003 RMK AO2

2010/08/09 16:55
KXFL 091655Z 12012KT 10SM SCT019 BKN032 BKN042 31/25 A2996

2010/08/09 17:00
KCRG 091700Z 06011G15KT 10SM FEW020 SCT042 BKN049 31/24 A2997 RMK AO2

2010/08/09 17:00
KHWO 091700Z 18015G20KT 10SM SCT026 SCT031 BKN039 29/23 A2996 RMK AO2

2010/08/09 16:54
KAPN 091654Z 09005KT 10SM FEW005 SCT025 BKN050 23/21 A2992 RMK AO2 RAE17 SLP130 P0008 T02280206

2010/08/09 16:51
KP58 091651Z AUTO VRB04KT 24/22 A2990 RMK AO2 SLP115 P0003 T02390217 PWINO TSNO

2010/08/09 16:53
KLAX 091653Z 25007KT 8SM SCT016 18/13 A2994 RMK AO2 SLP135 SCT V BKN T01830128 $

2010/08/09 16:56
KBIH 091656Z AUTO 00000KT 10SM CLR 24/00 A3001 RMK AO2 SLP112 T02390000 TSNO

2010/08/09 16:54
KWAL 091654Z 17008KT 10SM FEW025 SCT250 29/22 A3004 RMK AO2 SLP171 T02890222

2010/08/09 16:56
KMEH 091656Z AUTO VRB06KT 10SM FEW085 20/05 A2995 RMK AO2 SLP123 T02000050 TSNO

2010/08/09 16:56
KAQV 091656Z AUTO VRB05KT 10SM CLR 33/23 A2997 RMK AO2 SLP145 T03330228

2010/08/09 16:55
KLDM 091655Z AUTO 24011G18KT 10SM BKN011 BKN016 OVC025 25/22 A2992 RMK AO2

2010/08/09 16:55
KPHN 091655Z AUTO 25004KT 7SM SCT070 27/20 A2994 RMK AO2

2010/08/09 16:55
KRMY 091655Z AUTO 24004KT 5SM RA SCT012 BKN035 OVC049 22/21 A3002 RMK AO2

2010/08/09 16:55
KOSC 091655Z AUTO 06008KT 10SM SCT008 BKN020 24/21 A2991 RMK AO2

2010/08/09 16:53
KTTF 091653Z AUTO 28007KT 10SM CLR 29/21 A2996 RMK AO2

2010/08/09 16:55
KMCD 091655Z AUTO 13004KT 10SM SCT007 24/20 A2990 RMK AO2

2010/08/09 16:56
KFPK 091656Z AUTO 22007KT 4SM RA BKN036 BKN047 OVC065 22/21 A2998 RMK AO2

2010/08/09 16:55
KCVX 091655Z AUTO 09004KT 7SM SCT015 26/21 A2988 RMK AO2

2010/08/09 16:54
KMOP 091654Z AUTO 23005KT 10SM OVC090 25/23 A2991 RMK AO2

2010/08/09 16:54
KFKS 091654Z AUTO 25007KT 10SM SCT013 SCT060 BKN070 25/21 A2989 RMK AO2

2010/08/09 16:54
KCAD 091654Z AUTO 27009G18KT 10SM SCT120 28/21 A2992 RMK AO2

2010/08/09 16:54
KMGN 091654Z AUTO 06007KT 10SM SCT047 25/21 A2988 RMK AO2

2010/08/09 16:55
KSLH 091655Z AUTO 15006KT 10SM CLR 23/22 A2988 RMK AO2

2010/08/09 16:55
KSJX 091655Z AUTO 11005KT 10SM SCT007 26/22 A2987 RMK AO2

2010/08/09 16:55
KHAI 091655Z AUTO 08006KT 7SM -RA SCT040 BKN046 BKN090 22/21 A2999 RMK AO2

2010/08/09 16:56
KLWA 091656Z AUTO 17005KT 10SM SCT095 SCT120 23/22 A2995 RMK AO2

2010/08/09 16:57
KDRM 091657Z AUTO 15004KT 10SM CLR 23/20 A2991 RMK AO2

2010/08/09 16:54
KVLL 091654Z AUTO 23005KT 10SM CLR 27/18 A2998 RMK AO2

2010/08/09 16:54
KGOV 091654Z AUTO 00000KT 4SM BR OVC008 24/22 A2992 RMK AO2

2010/08/09 16:54
KPZQ 091654Z AUTO 17007KT 10SM BKN060 BKN080 BKN100 21/20 A2991 RMK AO2

2010/08/09 16:55
KCFS 091655Z AUTO 20005KT 7SM SCT120 25/22 A2993 RMK AO2

2010/08/09 16:54
KHYX 091654Z AUTO 21010KT 7SM SCT120 25/21 A2993 RMK AO2

2010/08/09 16:55
KOZW 091655Z AUTO 22007KT 10SM CLR 25/20 A2997 RMK AO2

2010/08/09 16:55
KRNP 091655Z AUTO 20005KT 10SM SCT120 25/21 A2994 RMK AO2

2010/08/09 16:55
KDUH 091655Z AUTO 30004KT 10SM CLR 28/19 A2998 RMK AO2

2010/08/09 16:55
KISQ 091655Z AUTO 18005KT 10SM BKN012 26/22 A2988 RMK AO2

2010/08/09 16:55
KJYM 091655Z AUTO 24003KT 10SM SCT095 26/21 A3001 RMK AO2

2010/08/09 16:55
KIRS 091655Z AUTO 00000KT 10SM CLR 26/21 A2999 RMK AO2

2010/08/09 16:54
KAMN 091654Z AUTO 20008KT 10SM CLR 26/22 A2992 RMK AO2

2010/08/09 16:55
KACB 091655Z AUTO 18007KT 5SM HZ SCT023 OVC031 29/23 A2986 RMK AO2

2010/08/09 16:54
KRQB 091654Z AUTO 21007KT 10SM SCT060 OVC085 24/21 A2993 RMK AO2

2010/08/09 16:55
KERY 091655Z AUTO 18004KT 10SM BKN020 BKN047 26/22 A2990 RMK AO2

2010/08/09 16:55
KOEB 091655Z AUTO 35003KT 7SM -RA SCT045 24/22 A3001 RMK AO2

2010/08/09 16:56
K4I3 091656Z AUTO 21005KT 10SM CLR 29/20 A3005 RMK AO2

2010/08/09 16:55
KAUM 091655Z AUTO 31005KT 10SM SCT025 SCT038 28/22 A2993 RMK AO2

2010/08/09 16:55
KFFX 091655Z AUTO 23007KT 10SM BKN011 OVC019 25/22 A2992 RMK AO2

2010/08/09 16:54
KCNB 091654Z AUTO 06004KT 10SM CLR 29/21 A2994 RMK AO2 T02870213

2010/08/09 16:55
KCKN 091655Z AUTO 20011KT 10SM CLR 30/20 A2986 RMK AO2

2010/08/09 16:57
KCQM 091657Z AUTO 00000KT 10SM CLR 27/21 A2992 RMK AO2

2010/08/09 16:55
KDTL 091655Z AUTO 24006KT 10SM CLR 27/16 A2995 RMK AO2

2010/08/09 16:55
KBDH 091655Z AUTO 04003KT 10SM CLR 29/21 A2993 RMK AO2

2010/08/09 16:55
KCBG 091655Z AUTO 00000KT 10SM CLR 28/24 A2992 RMK AO2

2010/08/09 16:57
KADC 091657Z AUTO 30004KT 10SM CLR 28/16 A2994 RMK AO2

2010/08/09 16:55
KHAF 091655Z AUTO 19005KT 5SM BR BKN006 OVC010 13/12 A2995 RMK AO2

2010/08/09 16:55
KCKC 091655Z AUTO 29006KT 10SM CLR 27/16 A2993 RMK AO2

2010/08/09 16:55
KJYG 091655Z AUTO 00000KT 10SM SCT024 29/27 A2993 RMK AO2

2010/08/09 16:56
KCOQ 091656Z AUTO 29004KT 10SM CLR 28/19 A2993 RMK AO2

2010/08/09 16:58
KACQ 091658Z AUTO 00000KT 10SM CLR 27/22 A2995 RMK AO2

2010/08/09 16:55
KRGK 091655Z AUTO 00000KT 10SM CLR 30/23 A2989 RMK AO2

2010/08/09 16:54
KFSE 091654Z AUTO 21008KT 10SM CLR 28/19 A2989 RMK AO2

2010/08/09 16:55
KY70 091655Z AUTO 22006KT 10SM SCT035 SCT070 BKN100 25/23 A2993 RMK AO2 T02500227

2010/08/09 16:50
KUKT 091650Z AUTO 23005KT 10SM SCT043 31/19 A3003 RMK AO1

2010/08/09 16:54
KCDA 091654Z AUTO 00000KT 10SM SCT036 BKN043 OVC095 25/16 A2998 RMK AO2

2010/08/09 17:05
KBAX 091705Z AUTO 21004KT 4SM BR SCT010 SCT018 SCT060 22/21 A2991 RMK AO2

2010/08/09 17:03
KCFE 091703Z AUTO 00000KT 10SM CLR 30/23 A2993 RMK AO2 T02950227

2010/08/09 17:00
SBEG 091700Z 25007KT 9999 SCT020 31/23 Q1012

2010/08/09 17:00
SBPK 091700Z 18005KT CAVOK 17/03 Q1025

2010/08/09 17:00
FAVV 091700Z AUTO 23007KT //// // ////// 10/M12 Q1024

2010/08/09 17:00
FAJB 091700Z AUTO 22004KT //// // ////// 09/M10 Q1026

2010/08/09 17:00
FASI 091700Z AUTO 21003KT //// // ////// 10/M10 Q1026

2010/08/09 17:00
FAGC 091700Z AUTO 21013KT //// // ////// 10/M11 Q1025

2010/08/09 17:00
SBTE 091700Z 14010KT 9999 FEW030 36/13 Q1012

2010/08/09 17:00
SBMN 091700Z 15003KT 9999 FEW020 31/23 Q1013

2010/08/09 17:00
SBNT 091700Z 14011KT 9999 SCT027 SCT100 28/22 Q1014

2010/08/09 16:50
EFET 091650Z AUTO 04009KT 360V100 9999 OVC027 14/09 Q1013

2010/08/09 16:50
EFIV 091650Z 01011KT 8000 -RA BKN008 OVC020 11/11 Q1012

2010/08/09 16:50
EFKE 091650Z 36011KT 9999 BKN015 16/13 Q1008

2010/08/09 16:50
EFKI 091650Z AUTO 23003KT //// SKC 23/18 Q1008

2010/08/09 16:50
EFKS 091650Z AUTO 20003KT 9999 FEW045 20/17 Q1007

2010/08/09 16:50
EFKT 091650Z AUTO 02009KT 320V080 9999 OVC016 13/10 Q1011

2010/08/09 17:00
SBPS 091700Z 10013KT 9999 FEW020 24/18 Q1017

2010/08/09 16:55
PTYA 091655Z VRB05KT 12SM SCT016 SCT030 BKN130 OVC300 26/23 A2984 RMK SLP105 T02630234

2010/08/09 16:55
EHAM 091655Z 28004KT 210V320 9999 FEW040 22/12 Q1015 NOSIG

2010/08/09 16:55
EHBK 091655Z AUTO 28004KT 240V330 9999NDV NSC 22/10 Q1016 NOSIG

2010/08/09 16:55
EHGG 091655Z AUTO 28005KT 240V330 9999NDV NCD 21/12 Q1015 NOSIG

2010/08/09 16:55
EHRD 091655Z 19006KT 100V270 9999 FEW045 22/11 Q1015 NOSIG

2010/08/09 17:00
SBOI 091700Z 12006KT 9999 SCT040 35/22 Q1012

2010/08/09 16:58
K0J4 091658Z AUTO 06011KT 10SM SCT038 34/24 RMK AO2 SLPNO T03390239 $

2010/08/09 16:56
KNID 091656Z 22003KT 10SM CLR 27/03 A2993 RMK AO2 SLP115 T02720033 $

2010/08/09 16:55
KCVS 091655Z 22012KT 10SM SCT150 28/14 A3008 RMK AO2A SLP139 T02810140 $

2010/08/09 16:55
KDMA 091655Z AUTO 00000KT 10SM CLR 31/17 A2999 RMK AO2 SLP085 T03070166 VISNO RWY12 CHINO RWY12 $

2010/08/09 16:55
KGBN 091655Z VRB04KT 12SM CLR 35/00 A2987 RMK SLP094

2010/08/09 16:55
KHOP 091655Z AUTO 25006KT 10SM FEW036 SCT210 34/24 A2999 RMK AO2 SLP148 T03380239

2010/08/09 16:55
KHRT 091655Z 09009KT 10SM FEW030 SCT250 32/25 A2997 RMK AO2A SLP151 T03250252 $

2010/08/09 16:56
KNJK 091656Z VRB03KT 10SM CLR 32/04 A2980 RMK AO2 SLP106 T03220044

2010/08/09 16:56
KNUQ 091656Z AUTO 09004KT 10SM CLR 18/12 A2992 RMK AO2 SLP135 T01780117 TSNO

2010/08/09 16:55
KSKF 091655Z 18007KT 10SM FEW020 32/23 A2998 RMK AO2A SLP141 T03200230 $

2010/08/09 16:55
KTBN 091655Z 25004KT 10SM CLR 34/24 A2998 RMK AO2A SLP126 T03380241 $

2010/08/09 16:55
KVBG 091655Z VRB03KT 8SM FEW007 BKN010 OVC015 14/12 A2996 RMK AO2 DZE25 SLP136 P0000 T01390122

2010/08/09 16:56
PASY 091656Z AUTO 27005KT 3/4SM BR VV001 09/08 A2983 RMK AO2 SLP103 T00890083 TSNO PNO $

2010/08/09 16:56
PMDY 091656Z AUTO 07008KT 10SM CLR 26/21 A3022 RMK AO2 TSNO T02550211 SLP541

2010/08/09 16:55
KCOF 091655Z 13008KT 10SM CLR 29/24 A2995 RMK AO2A SLP143 T02900241

2010/08/09 16:55
KCVS 091655Z 22012KT 10SM SCT150 28/14 A3008 RMK AO2A SLP139 T02810140 $

2010/08/09 16:55
KDMA 091655Z AUTO 00000KT 10SM CLR 31/17 A2999 RMK AO2 SLP085 T03070166 VISNO RWY12 CHINO RWY12 $

2010/08/09 16:55
KEND 091655Z 17011KT 10SM FEW200 36/20 A2991 RMK AO2A SLP109 T03560200

2010/08/09 16:55
KFTK 091655Z 13004KT 10SM FEW040 SCT090 BKN250 34/22 A2999 RMK AO2A SLP152 T03380222

2010/08/09 16:55
KGBN 091655Z VRB04KT 12SM CLR 35/00 A2987 RMK SLP094

2010/08/09 16:55
KHOP 091655Z AUTO 25006KT 10SM FEW036 SCT210 34/24 A2999 RMK AO2 SLP148 T03380239

2010/08/09 16:55
KHRT 091655Z 09009KT 10SM FEW030 SCT250 32/25 A2997 RMK AO2A SLP151 T03250252 $

2010/08/09 16:55
KLSV 091655Z AUTO VRB03KT 10SM CLR 29/10 A2994 RMK AO2 SLP125 T02930098

2010/08/09 16:55
KMCF 091655Z AUTO 06005KT 10SM BKN023 30/26 A2993 RMK AO2 CIG 022V027 SLP135 T02980260

2010/08/09 16:55
KMIB 091655Z AUTO 00000KT 10SM CLR 26/19 A2983 RMK AO2 SLP094 T02560189

2010/08/09 16:55
KMMT 091655Z 09007KT 10SM FEW035 33/23 A3004 RMK SLP171

2010/08/09 16:55
KMXF 091655Z AUTO 11007KT 080V140 10SM CLR 35/23 A2998 RMK AO2 SLP152 T03520232

2010/08/09 16:55
KNBG 091655Z 04006KT 10SM SCT025 BKN100 OVC250 33/24 A2999 RMK AO2 SLP155 T2 SET T03280244 $

2010/08/09 16:56
KNCA 091656Z VRB04KT 10SM SCT030 BKN080 32/23 A3003 RMK AO2 SLP171 T03200228 $

2010/08/09 16:56
KNJK 091656Z VRB03KT 10SM CLR 32/04 A2980 RMK AO2 SLP106 T03220044

2010/08/09 16:56
KNUQ 091656Z AUTO 09004KT 10SM CLR 18/12 A2992 RMK AO2 SLP135 T01780117 TSNO

2010/08/09 16:56
KNGP 091656Z VRB06KT 10SM SCT023 SCT040 32/26 A2994 RMK AO2 SLP139 T03170261 VISNO

2010/08/09 16:53
KNIP 091653Z COR 07008KT 10SM FEW024 BKN034TCU 31/24 A2997 RMK AO2 RAB30E46 SLP144 TCU OHD P0000 T03110244

2010/08/09 16:56
KNMM 091656Z 09004KT 10SM SCT026 33/24 A2999 RMK AO2 SLP162 T03280239 $

2010/08/09 16:56
KNPA 091656Z 12012KT 9SM SCT035 SCT280 32/25 A2998 RMK AO2 SLP152 T03220250

2010/08/09 16:56
KNQI 091656Z 12008KT 10SM BKN035 36/24 A2994 RMK AO2 SLP134 T03560244

2010/08/09 16:56
KNTU 091656Z 10008KT 10SM SCT030 BKN200 29/23 A3004 RMK AO2 SLP176 T02890228 $

2010/08/09 16:56
KNUW 091656Z 21006KT 5SM BR BKN006 OVC015 14/12 A2997 RMK AO2 SLP152 T01370121 $

2010/08/09 16:56
KNXP 091656Z 00000KT CLR 28/M01 A2999 RMK AO2 SLP117 T02831011 $

2010/08/09 16:56
KNXX 091656Z 25005KT 9SM SCT045 31/18 A3003 RMK AO2 SLP171 T03110183 $

2010/08/09 16:52
KNZY 091652Z 17004KT 10SM BKN017 22/14 A2993 RMK AO2 SLP135 T02170139 $

2010/08/09 16:55
KSKF 091655Z 18007KT 10SM FEW020 32/23 A2998 RMK AO2A SLP141 T03200230 $

2010/08/09 16:55
KTBN 091655Z 25004KT 10SM CLR 34/24 A2998 RMK AO2A SLP126 T03380241 $

2010/08/09 16:58
KHST 091658Z 14008KT 1 3/4SM R05/5000VP6000FT +RA BR SCT002 OVC010 24/24 A2997 RMK AO2A SLP151

2010/08/09 16:59
KNQX 091659Z 15004KT 8SM -RA SCT020CB SCT030 BKN050 OVC200 28/24 A2994 RMK AO2 CB OHD MOV S T1 SET P0001 $

2010/08/09 16:56
KABH 091656Z AUTO 30006KT 10SM FEW080 SCT100 22/13 A3019 RMK AO2 SLP151 T02170133 $

2010/08/09 16:56
KAQV 091656Z AUTO VRB05KT 10SM CLR 33/23 A2997 RMK AO2 SLP145 T03330228

2010/08/09 17:01
PADM 091701Z AUTO 15017KT 10SM BKN030 OVC037 11/08 A2938 RMK AO2 TSNO T01050083 BKN V SCT RAE1655 P0000 SLP936 $

2010/08/09 17:00
MROC 091700Z 10011KT 9999 FEW040 BKN120 27/20 A3003 NOSIG

2010/08/09 17:00
MRPV 091700Z 10008KT 9999 SCT035 OVC100 25/18 A3001 NOSIG

2010/08/09 17:00
MRLM 091700Z 00000KT 9999 FEW030 BKN130 30/24 A2990 RMK FEW240 RA DST NE

2010/08/09 16:54
KAPN 091654Z 09005KT 10SM FEW005 SCT025 BKN050 23/21 A2992 RMK AO2 RAE17 SLP130 P0008 T02280206

2010/08/09 16:51
KP58 091651Z AUTO VRB04KT 24/22 A2990 RMK AO2 SLP115 P0003 T02390217 PWINO TSNO

2010/08/09 16:53
KLAX 091653Z 25007KT 8SM SCT016 18/13 A2994 RMK AO2 SLP135 SCT V BKN T01830128 $

2010/08/09 16:56
KBIH 091656Z AUTO 00000KT 10SM CLR 24/00 A3001 RMK AO2 SLP112 T02390000 TSNO

2010/08/09 16:54
KWAL 091654Z 17008KT 10SM FEW025 SCT250 29/22 A3004 RMK AO2 SLP171 T02890222

2010/08/09 16:56
KMEH 091656Z AUTO VRB06KT 10SM FEW085 20/05 A2995 RMK AO2 SLP123 T02000050 TSNO

2010/08/09 16:58
PAGA 091658Z AUTO 12008KT 10SM FEW008 BKN012 OVC055 13/11 A2945

2010/08/09 17:01
YBRM 091701Z AUTO 12017G27KT 9999NDV // NCD 19/01 Q1017

2010/08/09 16:50
LTAC 091650Z 03011KT 9999 FEW040 30/09 Q1011 NOSIG

2010/08/09 16:50
LTAF 091650Z /////KT 9999 FEW035 30/22 Q1005 NOSIG

2010/08/09 16:50
LTAI 091650Z 15002KT 9999 FEW030 29/23 Q1005 NOSIG

2010/08/09 16:50
LTBA 091650Z 35015KT 320V020 9999 FEW035 29/23 Q1008 NOSIG

2010/08/09 16:50
LTBJ 091650Z 35018KT CAVOK 32/19 Q1005 NOSIG

2010/08/09 16:50
LTBS 091650Z 20008KT 9999 FEW030 28/24 Q1004 NOSIG

2010/08/09 16:55
K4M9 091655Z AUTO 19003KT 9SM -RA CLR 33/26 A2995 RMK AO2 P0001

2010/08/09 16:55
KBVU 091655Z AUTO 00000KT 10SM CLR 28/07 A2997 RMK AO2

2010/08/09 16:47
KIWA 091647Z VRB03KT 45SM SCT120 36/11 A2992

2010/08/09 16:55
KLNL 091655Z AUTO 35005KT 10SM CLR 27/19 A2995 RMK AO2 T02720187

2010/08/09 16:55
KMAN 091655Z AUTO 23004KT 10SM CLR 24/08 A2988 RMK AO1

2010/08/09 16:55
KMCJ 091655Z AUTO 20005KT 10SM CLR 32/22 A2995 RMK AO1

2010/08/09 16:55
KMDZ 091655Z AUTO 32008KT 10SM SCT022 28/23 A2993 RMK AO2

2010/08/09 16:55
KMRJ 091655Z AUTO 27005KT 10SM OVC015 27/22 A2996 RMK AO2 T02650216

2010/08/09 16:55
KPBH 091655Z AUTO 31005KT 10SM CLR 28/22 A2996 RMK AO2

2010/08/09 16:55
KPCZ 091655Z AUTO 23004KT 10SM OVC025 28/23 A2990 RMK AO2 T02820225

2010/08/09 16:52
KPDC 091652Z AUTO 21003KT 10SM BKN023 BKN090 29/23 A2992 RMK AO2 T02880230

2010/08/09 16:55
KRCX 091655Z AUTO 31006KT 10SM CLR 28/23 A2995 RMK AO2 T02820228

2010/08/09 16:55
KRRL 091655Z AUTO 35007KT 10SM SCT027 28/22 A2992 RMK AO2 T02830220

2010/08/09 16:55
KRYV 091655Z AUTO 23009KT 10SM SCT020 27/22 A2993 RMK AO2

2010/08/09 16:55
KSTE 091655Z AUTO 22005KT 7SM BKN012 26/23 A2992 RMK AO2

2010/08/09 16:55
KSUW 091655Z AUTO 19004KT 10SM CLR 26/22 A2989 RMK AO2

2010/08/09 16:56
KSGH 091656Z VRB03KT 5SM HZ CLR 30/22 A3005 RMK AO2 T03000216 SLP165 $

2010/08/09 16:55
KTTS 091655Z 11009G16KT 080V140 10SM SCT021 BKN090 31/25 A2994 RMK MDT CU ALQDS SLP139 4CU /4/ 1AC /5/

2010/08/09 16:55
KNUC 091655Z 36004KT 10SM BKN016 21/13 A2996 RMK SLP143 T02050125

2010/08/09 16:56
KSGH 091656Z VRB03KT 5SM HZ CLR 30/22 A3005 RMK AO2 T03000216 SLP165 $

2010/08/09 16:55
KTTS 091655Z 11009G16KT 080V140 10SM SCT021 BKN090 31/25 A2994 RMK MDT CU ALQDS SLP139 4CU /4/ 1AC /5/

2010/08/09 16:58
PADU 091658Z 15004KT 8SM -RA BKN015 OVC033 11/09 A2951 RMK AO2 SLP999 VIS LWR NE MH P0000 T01060089

2010/08/09 16:50
PAFK 091650Z 15010KT 15SM FEW010 SCT030 OVC060 14/07 A2957 RMK EST PASS MGNL NOSPECI

2010/08/09 16:57
PAIW 091657Z AUTO 08011KT 10SM FEW006 BKN080 OVC090 13/12 A2935 RMK AO2 SLPNO T01330117

2010/08/09 16:56
PAJZ 091656Z AUTO 18011KT 4SM BR FEW007 SCT024 BKN030 11/10 A2956 RMK AO2 PWINO TSNO T01050100 SLP997 $

2010/08/09 16:56
PAKI 091656Z AUTO 18021KT 5SM +RA BR OVC009 09/09 A2923 RMK AO2 TSNO T00880088 P0000 SLP900 $

2010/08/09 16:56
PALG 091656Z AUTO 00000KT 10SM OVC095 11/10 A2938 RMK AO2 TSNO T01110100 SLP951 $

2010/08/09 16:58
PATE 091658Z AUTO 05013KT 10SM -RA OVC065 12/11 A2932 RMK AO2 SLP939 P0005 T01220111

2010/08/09 16:55
KADM 091655Z 17010KT 10SM SKC 35/24 A2993

2010/08/09 16:55
KAWG 091655Z AUTO 18006KT 10SM CLR 30/22 A2991 RMK AO2

2010/08/09 16:55
KAXA 091655Z AUTO 15007KT 10SM BKN019 27/23 A2991 RMK AO2

2010/08/09 16:55
KBNW 091655Z AUTO 16008KT 10SM SCT022 29/23 A2990 RMK AO2

2010/08/09 16:55
KCAV 091655Z AUTO 12005KT 10SM BKN050 29/23 A2992 RMK AO2

2010/08/09 16:55
KCBF 091655Z AUTO 23003KT 10SM CLR 31/24 A2986 RMK AO2

2010/08/09 16:55
KCNC 091655Z AUTO 18005KT 10SM CLR 28/23 A2990 RMK AO2

2010/08/09 16:55
KCNW 091655Z 18005KT 10SM SKC 34/22 A2996

2010/08/09 16:51
KCSG 091651Z COR 13005KT 10SM FEW045 CLR 34/20 A3000 RMK AO2 SLP152 T03390200

2010/08/09 16:55
KCSQ 091655Z AUTO 17009KT 10SM CLR 29/26 A2989 RMK AO2

2010/08/09 16:55
KDEH 091655Z AUTO 02003KT 10SM CLR 28/22 A2996 RMK AO2

2010/08/09 16:55
KDNS 091655Z AUTO 00000KT 10SM SCT018 30/24 A2990 RMK AO2

2010/08/09 16:55
KEBS 091655Z AUTO 15011KT 10SM SCT018 28/22 A2990 RMK AO2

2010/08/09 16:55
KEFT 091655Z AUTO 25013G18KT 10SM OVC016 26/21 A2995 RMK AO2 T02610212

2010/08/09 16:55
KEOK 091655Z AUTO 16008KT 10SM CLR 26/23 A2993 RMK AO2 P0001

2010/08/09 16:55
KFFL 091655Z AUTO 20006KT 10SM CLR 28/25 A2992 RMK AO2

2010/08/09 16:55
KFSW 091655Z AUTO 17009KT 10SM CLR 28/22 A2992 RMK AO2

2010/08/09 16:57
KFWS 091657Z 18008KT 20SM FEW045 34/23 A2996

2010/08/09 16:55
KFXY 091655Z AUTO 15006KT 10SM SCT047 27/21 A2993 RMK AO2

2010/08/09 16:55
KGGI 091655Z AUTO 16009KT 10SM CLR 29/23 A2992 RMK AO2

2010/08/09 16:55
KHNR 091655Z AUTO 15006KT 10SM SCT020 29/24 A2990 RMK AO2

2010/08/09 16:50
KHOB 091650Z 16008KT 10SM SKC 27/20 A3008

2010/08/09 16:55
KICL 091655Z AUTO 19010G14KT 7SM CLR 31/25 A2986 RMK AO2

2010/08/09 16:55
KIIB 091655Z AUTO 00000KT 10SM CLR 28/22 A2993 RMK AO1

2010/08/09 16:58
KJXN 091658Z 24006KT 1/4SM -TSRA BR BKN025 23/21 A3000 RMK AO2 TSB58 P0000 $

2010/08/09 16:58
PAGA 091658Z AUTO 12008KT 10SM FEW008 BKN012 OVC055 13/11 A2945 RMK AO2

2010/08/09 16:58
PARS 091658Z AUTO 11004KT 10SM BKN014 OVC036 11/10 A2936 RMK AO2 TSNO BKN V SCT $

2010/08/09 17:00
KCRG 091700Z 06011G15KT 10SM FEW020 SCT042 BKN049 31/24 A2997 RMK AO2

2010/08/09 17:00
KHWO 091700Z 18015G20KT 10SM SCT026 SCT031 BKN039 29/23 A2996 RMK AO2

2010/08/09 16:55
KSNC 091655Z AUTO 18007KT 9SM CLR 28/23 A3001 RMK AO2

2010/08/09 16:56
PHNY 091656Z AUTO 00000KT 10SM CLR 22/17 A3013 RMK AO2 TSNO T02160172 SLP182 $

2010/08/09 16:55
KCKP 091655Z AUTO 11004KT 10SM OVC015 26/22 A2989 RMK AO2

2010/08/09 16:56
KFSD 091656Z 07006KT 10SM FEW022 28/22 A2991 RMK AO2 SLP118 SCT ABV 120 T02780217

2010/08/09 16:54
KSBN 091654Z 19004KT 10SM BKN040 26/21 A2998 RMK AO2 SLP146 T02560206

2010/08/09 16:55
KTKV 091655Z AUTO 31007KT 10SM SCT027 29/21 A2993 RMK AO2 T02850210

2010/08/09 16:55
KVTI 091655Z AUTO 00000KT 10SM CLR 27/23 A2991 RMK AO2

2010/08/09 16:56
KCHS 091656Z 04009KT 10SM FEW025 33/23 A3000 RMK AO2 SLP158 T03280233

2010/08/09 16:55
KVBG 091655Z VRB03KT 8SM FEW007 BKN010 OVC015 14/12 A2996 RMK AO2 DZE25 SLP136 P0000 T01390122

2010/08/09 16:53
KRYT 091653Z AUTO 34007KT 250V020 10SM CLR 33/16 A3002 RMK AO2 SLP149 T03280161 $

2010/08/09 16:56
K79J 091656Z 13010KT 10SM FEW042 34/23 A2998 RMK AO2 SLP148 T03440228 PNO $

2010/08/09 16:55
KBIX 091655Z 03008KT 10SM FEW028 SCT130 34/24 A2996 RMK AO2A SLP146 WND DATA ESTMD ALSTG/SLP ESTMD

2010/08/09 16:56
KHLR 091656Z AUTO 15007KT 130V200 10SM CLR 34/20 A2998 RMK AO2 SLP140 T03440200 $

2010/08/09 16:56
KNBC 091656Z 03009G15KT 7SM FEW030 SCT200 33/21 A3000 RMK AO2 SLP157 T03280206

2010/08/09 16:56
KNGP 091656Z VRB06KT 10SM SCT023 SCT040 32/26 A2994 RMK AO2 SLP139 T03170261 VISNO

2010/08/09 16:53
KNIP 091653Z COR 07008KT 10SM FEW024 BKN034TCU 31/24 A2997 RMK AO2 RAB30E46 SLP144 TCU OHD P0000 T03110244

2010/08/09 16:56
KNMM 091656Z 09004KT 10SM SCT026 33/24 A2999 RMK AO2 SLP162 T03280239 $

2010/08/09 16:56
KNPA 091656Z 12012KT 9SM SCT035 SCT280 32/25 A2998 RMK AO2 SLP152 T03220250

2010/08/09 16:56
KNQI 091656Z 12008KT 10SM BKN035 36/24 A2994 RMK AO2 SLP134 T03560244

2010/08/09 16:56
KNRS 091656Z 26007KT 10SM BKN017 19/13 A2994 RMK AO2 SLP138 T01890133

2010/08/09 16:56
KNUW 091656Z 21006KT 5SM BR BKN006 OVC015 14/12 A2997 RMK AO2 SLP152 T01370121 $

2010/08/09 16:56
KNXX 091656Z 25005KT 9SM SCT045 31/18 A3003 RMK AO2 SLP171 T03110183 $

2010/08/09 16:52
KNZY 091652Z 17004KT 10SM BKN017 22/14 A2993 RMK AO2 SLP135 T02170139 $

2010/08/09 16:55
PHSF 091655Z VRB06KT 7SM CLR 13/M06 A3031 RMK SLPNO

2010/08/09 16:59
KNGU 091659Z 07006KT 7SM FEW040 BKN250 30/21 A3006 RMK AO2 SLP178 CONTRAILS T03000206

2010/08/09 16:55
KBIX 091655Z 03008KT 10SM FEW028 SCT130 34/24 A2996 RMK AO2A SLP146 WND DATA ESTMD ALSTG/SLP ESTMD

2010/08/09 16:55
KCOF 091655Z 13008KT 10SM CLR 29/24 A2995 RMK AO2A SLP143 T02900241

2010/08/09 16:56
KNBC 091656Z 03009G15KT 7SM FEW030 SCT200 33/21 A3000 RMK AO2 SLP157 T03280206

2010/08/09 16:55
KNBG 091655Z 04006KT 10SM SCT025 BKN100 OVC250 33/24 A2999 RMK AO2 SLP155 T2 SET T03280244 $

2010/08/09 16:56
KNCA 091656Z VRB04KT 10SM SCT030 BKN080 32/23 A3003 RMK AO2 SLP171 T03200228 $

2010/08/09 16:56
KNGP 091656Z VRB06KT 10SM SCT023 SCT040 32/26 A2994 RMK AO2 SLP139 T03170261 VISNO

2010/08/09 16:53
KNIP 091653Z COR 07008KT 10SM FEW024 BKN034TCU 31/24 A2997 RMK AO2 RAB30E46 SLP144 TCU OHD P0000 T03110244

2010/08/09 16:57
KNJM 091657Z AUTO 13006KT 10SM FEW045 SCT065 28/24 A3005 RMK AO2 SLP178 T02830239

2010/08/09 16:54
KNKT 091654Z 12008KT 10SM -RA FEW060 28/23 A3004 RMK AO2 RAB41 SLP171 P0000 T02830233

2010/08/09 16:56
KNPA 091656Z 12012KT 9SM SCT035 SCT280 32/25 A2998 RMK AO2 SLP152 T03220250

2010/08/09 16:56
KNTU 091656Z 10008KT 10SM SCT030 BKN200 29/23 A3004 RMK AO2 SLP176 T02890228 $

2010/08/09 16:55
KPAM 091655Z AUTO 07010G15KT 10SM CLR 33/24 A2996 RMK AO2 SLP146 T03270243 $

2010/08/09 16:55
KDMA 091655Z AUTO 00000KT 10SM CLR 31/17 A2999 RMK AO2 SLP085 T03070166 VISNO RWY12 CHINO RWY12 $

2010/08/09 16:55
KHRT 091655Z 09009KT 10SM FEW030 SCT250 32/25 A2997 RMK AO2A SLP151 T03250252 $

2010/08/09 16:55
KHUA 091655Z 35003KT 7SM SCT060 34/23 A3003

2010/08/09 16:55
KMCF 091655Z AUTO 06005KT 10SM BKN023 30/26 A2993 RMK AO2 CIG 022V027 SLP135 T02980260

2010/08/09 16:55
KMMT 091655Z 09007KT 10SM FEW035 33/23 A3004 RMK SLP171

2010/08/09 16:55
KMXF 091655Z AUTO 11007KT 080V140 10SM CLR 35/23 A2998 RMK AO2 SLP152 T03520232

2010/08/09 16:55
KNBG 091655Z 04006KT 10SM SCT025 BKN100 OVC250 33/24 A2999 RMK AO2 SLP155 T2 SET T03280244 $

2010/08/09 16:56
KNCA 091656Z VRB04KT 10SM SCT030 BKN080 32/23 A3003 RMK AO2 SLP171 T03200228 $

2010/08/09 16:56
KNMM 091656Z 09004KT 10SM SCT026 33/24 A2999 RMK AO2 SLP162 T03280239 $

2010/08/09 16:56
KNXX 091656Z 25005KT 9SM SCT045 31/18 A3003 RMK AO2 SLP171 T03110183 $

2010/08/09 16:55
KIKV 091655Z AUTO 15009KT 10SM SCT024 29/23 A2990 RMK AO2

2010/08/09 16:55
KLRJ 091655Z AUTO 04003KT 10SM OVC010 25/22 A2990 RMK AO2

2010/08/09 16:55
KLUM 091655Z AUTO 36005KT 7SM OVC011 27/23 A2992 RMK AO2

2010/08/09 16:55
KMPZ 091655Z AUTO 16009KT 10SM CLR 28/21 A2991 RMK AO2

2010/08/09 16:55
KMUT 091655Z AUTO 00000KT 10SM CLR 28/24 A2989 RMK AO2

2010/08/09 16:55
KMXO 091655Z AUTO 33005KT 10SM CLR 27/23 A2992 RMK AO2

2010/08/09 16:55
KOEO 091655Z AUTO 04003KT 10SM CLR 28/23 A2993 RMK AO2

2010/08/09 16:55
KOOA 091655Z AUTO 16008KT 10SM CLR 29/23 A2991 RMK AO2

2010/08/09 16:55
KORC 091655Z AUTO 00000KT 10SM OVC008 25/24 A2992 RMK AO2

2010/08/09 16:55
KPEA 091655Z AUTO 10SM CLR A2991 RMK AO2

2010/08/09 16:55
KRDK 091655Z AUTO 20009KT 10SM 33/26 A2985 RMK AO2

2010/08/09 16:57
KRNH 091657Z AUTO 00000KT 10SM CLR 28/24 A2993 RMK AO2 T02760236

2010/08/09 16:55
KSDA 091655Z AUTO 17011KT 10SM CLR 32/26 A2986 RMK AO2

2010/08/09 16:55
KTNU 091655Z AUTO 16009KT 10SM CLR 30/23 A2991 RMK AO2

2010/08/09 16:55
KTOA 091655Z VRB06KT 4SM BR BKN012 21/14 A2995

2010/08/09 16:55
KTVK 091655Z AUTO 10SM CLR 23/22 A2992 RMK AO2

2010/08/09 16:55
KUNU 091655Z AUTO 22010KT 10SM SCT020 BKN025 BKN031 27/20 A2993 RMK AO2 T02650201

2010/08/09 16:56
KNSE 091656Z 13006KT 9SM SCT030 SCT130 33/24 A2999 RMK AO2 SLP138 T03330239 $

2010/08/09 16:59
KIYK 091659Z 36006KT 20SM SKC 29/ A2992

2010/08/09 16:55
KPVU 091655Z 07003KT 15SM FEW090 24/09 A3009

2010/08/09 16:55
KTTS 091655Z 11009G16KT 080V140 10SM SCT021 BKN090 31/25 A2994 RMK MDT CU ALQDS SLP139 4CU /4/ 1AC /5/

2010/08/09 16:55
KCIC 091655Z 30005KT 40SM SKC A2987

2010/08/09 16:45
KMYR 091645Z COR 12010KT 10SM FEW022 SCT030 31/25 A3006

2010/08/09 16:59
KSME 091659Z AUTO 13005KT 10SM 32/23 A3003 RMK AO2

2010/08/09 16:55
KXFL 091655Z 12012KT 10SM SCT019 BKN032 BKN042 31/25 A2996

2010/08/09 16:50
EETU 091650Z 21008KT 9999 FEW055CB OVC120 22/15 Q1014

2010/08/09 16:50
LTAJ 091650Z 27009KT CAVOK 32/14 Q1006 NOSIG

2010/08/09 16:50
LTAN 091650Z 04004KT CAVOK 33/01 Q1010 NOSIG

2010/08/09 16:50
LTAU 091650Z 01004KT CAVOK 29/02 Q1010 NOSIG

2010/08/09 16:50
LTCC 091650Z 21008KT CAVOK 33/02 Q1005 NOSIG

2010/08/09 16:50
LTCE 091650Z 23006KT 200V270 9999 FEW030 25/M04 Q1015 NOSIG

2010/08/09 16:50
LTCG 091650Z 32003KT 290V060 9999 SCT035 28/23 Q1007 NOSIG

2010/08/09 16:50
LTCI 091650Z 12004KT 9999 FEW040 22/05 Q1015 NOSIG

2010/08/09 16:50
LTFE 091650Z 19007KT CAVOK 30/23 Q1005 NOSIG

2010/08/09 16:50
OAKN 091650Z 24009KT 8000 DU FEW150 34/02 Q1004 BLU NOSIG RMK A2966 DA6500

2010/08/09 17:00
OPKC 091700Z 27002KT 6000 FEW020 BKN100 27/25 Q.1001 NOSIG

2010/08/09 16:55
OPNH 091655Z 36003KT 4000M SCT035 SCT100 29/27 Q1000

2010/08/09 17:00
OPRN 091700Z 31006KT 4000 HZ FEW035 SCT100 29/25 Q1004.0

2010/08/09 17:00
UTTT 091700Z 10003MPS 070V140 CAVOK 28/06 Q1006 R08R/CLRD70 TEMPO 03005G10MPS

2010/08/09 16:55
EBBL 091655Z 25007KT 9999 SCT060 BKN250 23/11 Q1016 BLU

2010/08/09 16:55
EBFN 091655Z 27009KT 9999 FEW050 BKN220 21/15 Q1015 BLU

2010/08/09 16:55
EBFS 091655Z 21004KT 9999 FEW060 BKN250 22/09 Q1016 BLU

2010/08/09 16:50
ENBO 091650Z 02010KT 340V060 9999 FEW012 15/11 Q1011 NOSIG

2010/08/09 16:50
EGOM 091650Z AUTO 25014KT 9999NDV // BKN007/// BKN017/// 14/12 Q1008

2010/08/09 16:50
EGOP 091650Z AUTO 25013KT 2600NDV BR BKN004/// BKN019/// 16/16 Q1012

2010/08/09 16:50
EGOV 091650Z 22010KT 9999 FEW006 SCT028 16/15 Q1010 BLU NOSIG

2010/08/09 16:50
EGXX 091650Z AUTO 22018KT 9999NDV // BKN050/// 23/12 Q1010

2010/08/09 17:00
KNEL 091700Z AUTO VRB06KT 8SM SCT060 33/15 A3000 RMK AO2 SLP159 T03330150 $ 

2010/08/09 17:00
KAST 091700Z AUTO 30005KT 5SM BR SCT007 BKN018 OVC026 14/13 A3001 RMK AO2 

2010/08/09 16:50
LGSR 091650Z 33015KT CAVOK 29/21 Q1006 NOSIG BLU

2010/08/09 16:50
LGPZ 091650Z 24014KT 9999 FEW030 27/21 Q1010 NOSIG BLU

2010/08/09 16:50
LCEN 091650Z 16006KT 9999 FEW025 30/21 Q1005 NOSIG

2010/08/09 16:50
ENAT 091650Z 30009KT 9999 FEW025 BKN046 14/10 Q1014

2010/08/09 16:50
BGBW 091650Z 03004KT 9999 FEW010 SCT015 BKN075 13/09 Q1008 RMK 1ST 3SC 7AC

2010/08/09 16:55
KHUA 091655Z 35003KT 7SM SCT060 34/23 A3003 RMK AO2A SLP157 T03380228 $

2010/08/09 16:55
KLFI 091655Z 12006KT 10SM CLR 29/22 A3004 RMK AO2A SLP175 T02940223

2010/08/09 16:55
KLUF 091655Z VRB05KT 6SM HZ CLR 34/05 A2988 RMK AO2A SLP089 T03400054 $

2010/08/09 16:55
KSVN 091655Z 07010G18KT 12SM FEW041 FEW250 35/23 A2998 RMK SLP155 WND DATA ESTMD ALSTG/SLP ESTMD

2010/08/09 17:00
MHAM 091700Z 23006KT 9999 FEW026 SCT250 30/26 FEW080

2010/08/09 17:00
MHCA 091700Z 16005KT 9999 SCT028TCU SCT080 29/21 TCU TD

2010/08/09 17:00
MHCH 091700Z 21004KT 9999 SCT032TCU SCT250 32/25 FEW100 TCU E SE

2010/08/09 17:00
MHLE 091700Z 01006KT 9999 SCT024 BKN200 24/16 Q1024

2010/08/09 17:00
MHNO 091700Z 01004KT 9999 FEW040 SCT250 29/// HZ

2010/08/09 17:00
MHSR 091700Z 01006KT 9999 SCT025 BKN250 26/19 HZ

2010/08/09 17:00
MHTE 091700Z 36006KT 9999 SCT024TCU SCT080 30/24 Q1012 TCU N NE HZ

2010/08/09 17:00
MHYR 091700Z 20004KT 9999 SCT025TCU 28/22 TCU TD HZ

2010/08/09 16:50
MUCF 091650Z 00000KT 9999 FEW020 BKN080 32/24 Q1015

2010/08/09 16:50
MUCU 091650Z 21006KT 170V260 9999 FEW020 31/23 Q1016

2010/08/09 16:55
MUHA 091655Z 31006KT 5000 -RA SCT007 BKN070 27/24 Q1015

2010/08/09 16:52
MUMZ 091652Z 00000KT 9000 SCT025 31/24 Q1015

2010/08/09 16:55
OAHR 091655Z AUTO /////KT //// // ////// 30/M03 Q1009

2010/08/09 17:00
SBCB 091700Z 26020KT 9999 SCT008 SCT060 25/17 Q1018

2010/08/09 17:00
TFFR 091700Z 12008KT 040V160 SCT020 SCT053 30/24 Q1014 TEMPO 4000 SHRA

2010/08/09 17:00
TKPK 091700Z 05007KT 9999 FEW018 BKN046 29/25 Q1015

2010/08/09 16:55
TXKF 091655Z 18012KT 9999 FEW020 BKN300 30/23 Q1022

2010/08/09 16:50
EGNH 091650Z 26006KT 9999 FEW010 SCT025 18/14 Q1010

2010/08/09 16:50
EGNJ 091650Z 22015KT 9999 BKN045 23/14 Q1010

2010/08/09 16:50
EGPA 091650Z 14010KT 9999 FEW004 SCT006 BKN045 15/14 Q1005

2010/08/09 16:50
EGPC 091650Z 12009KT 9999 FEW011 SCT049 15/15 Q1005

2010/08/09 16:50
EGAE 091650Z 24011KT 9999 FEW016 SCT024 17/12 Q1007

2010/08/09 16:50
EGNC 091650Z 24012KT 9999 FEW020 SCT030 16/13 Q1008

2010/08/09 16:50
EGPC 091650Z 12009KT 9999 FEW011 SCT049 15/15 Q1005

2010/08/09 16:50
EGPE 091650Z 34005KT 9999 FEW015 FEW020CB SCT040 18/12 Q1005

2010/08/09 16:50
EGPL 091650Z AUTO 21011KT 9999NDV NCD 16/11 Q1005

2010/08/09 16:50
EGPM 091650Z AUTO 12012KT 9999NDV SCT018/// BKN024/// 14/11 Q1008

2010/08/09 16:50
EGPN 091650Z 25016KT 9999 FEW020 BKN048 18/13 Q1005

2010/08/09 16:50
EGPO 091650Z 20011KT 9999 FEW026 SCT038 16/11 Q1005

2010/08/09 17:00
LDSP 091700Z 31013KT 280V340 CAVOK 30/11 Q1013 NOSIG 

2010/08/09 17:00
LDPL 091700Z 26007KT 230V300 CAVOK 27/18 Q1014 

2010/08/09 17:00
LDDU 091700Z 29008KT 260V320 CAVOK 25/17 Q1013 NOSIG 

2010/08/09 17:00
LDZA 091700Z 09006KT 060V120 9999 FEW040 25/16 Q1016 NOSIG 

2010/08/09 17:00
LDZD 091700Z 30010KT 9999 FEW050 28/14 Q1014 

2010/08/09 17:00
LDRI 091700Z 34004KT 300V020 9999 FEW050 28/15 Q1014

2010/08/09 17:00
LDOS 091700Z 03008KT 290V090 CAVOK 25/17 Q1016

2010/08/09 17:00
FOON 091700Z 29002KT 9999 OVC015 24/21 Q1015

2010/08/09 17:00
FOOG 091700Z /////KT 9999 SCT006 OVC023 25/21 Q1014

2010/08/09 17:00
LZIB 091700Z 24003KT 9999 FEW030CB BKN110 19/15 Q1017 RETS

2010/08/09 17:00
LZKZ 091700Z 34004KT 9999 FEW040CB FEW040 BKN120 19/14 Q1016

2010/08/09 17:00
LZTT 091700Z 20003KT 170V240 9999 -SHRA FEW006 FEW040CB BKN080 15/14 Q1019

2010/08/09 16:50
EGEC 091650Z AUTO 26006KT 9999NDV // FEW030/// 14/12 Q1008

2010/08/09 16:50
EGPU 091650Z AUTO 23010KT 9999NDV // FEW017/// 14/12 Q1005

2010/08/09 17:00
LHBP 091700Z 30009KT CAVOK 22/14 Q1017 NOSIG

2010/08/09 17:00
LZPP 091700Z 17006KT 140V200 9999 FEW033 22/15 Q1016

2010/08/09 17:00
LZSL 091700Z 25006KT 9999 FEW046 BKN100 22/09 Q1016

2010/08/09 17:00
LZZI 091700Z 12003KT 100V160 CAVOK 19/14 Q1017

2010/08/09 17:00
YAMB 091700Z AUTO 33004KT 5000NDV // SCT023 BKN054 OVC066 14/14 Q1021

2010/08/09 17:00
OPKC 091700Z 27002KT 6000 FEW020 BKN100 27/25 Q.1001 NOSIG

2010/08/09 17:00
DTTB 091700Z 08012KT CAVOK 28/13 Q1016

2010/08/09 17:00
DTTD 091700Z 07010KT CAVOK 33/11 Q1015

2010/08/09 17:00
DTTK 091700Z 06004KT CAVOK 33/06 Q1014

2010/08/09 17:00
DTTL 091700Z 01006KT CAVOK 27/18 Q1015

2010/08/09 17:00
DTTN 091700Z 08010KT 9999 FEW020 SCT200 35/11 Q1014

2010/08/09 17:00
DTTR 091700Z 03008KT 9999 FEW026 39/06 Q1013

2010/08/09 16:58
KJXN 091658Z 24006KT 1/4SM -TSRA BR BKN025 23/21 A3000

2010/08/09 16:58
PAGA 091658Z AUTO 12008KT 10SM FEW008 BKN012 OVC055 13/11 A2945

2010/08/09 17:00
GMAD 091700Z 25012KT 6000 NSC 28/19 Q1012 NOSIG

2010/08/09 17:00
GMFF 091700Z 01009KT 9999 SCT033 FEW040CB BKN100 41/08 Q1014 NOSIG

2010/08/09 17:00
GMME 091700Z 31005KT 240V350 8000 NSC 32/20 Q1011 NOSIG

2010/08/09 17:00
GMMN 091700Z 34011KT CAVOK 36/16 Q1012 NOSIG

2010/08/09 17:00
GMMX 091700Z 34005KT 290V030 6000 SCT033 FEW040CB SCT100 41/12 Q1013 NOSIG

2010/08/09 17:00
GMTT 091700Z 07023KT 9999 FEW016 SCT200 29/18 Q1011 NOSIG

2010/08/09 17:00
GMFF 091700Z 01009KT 9999 SCT033 FEW040CB BKN100 41/08 Q1014 NOSIG

2010/08/09 17:00
GMFK 091700Z 16013KT 9999 TS BKN033 FEW040CB 35/12 Q1020 RESH

2010/08/09 17:00
GMFM 091700Z 33005KT 9999 FEW026 41/11 Q1014

2010/08/09 17:00
GMMC 091700Z 34005KT 6000 NSC 33/19 Q1010

2010/08/09 17:00
GMMZ 091700Z 27016KT 8000 FEW040 33/09 Q1021

2010/08/09 16:50
LSZS 091650Z 22013KT 190V250 9999 FEW090 16/11 Q1020

2010/08/09 16:50
EGAE 091650Z 24011KT 9999 FEW016 SCT024 17/12 Q1007

2010/08/09 16:50
EGDL 091650Z 20009KT 9999 BKN017 19/14 Q1013 WHT NOSIG

2010/08/09 16:50
EGDM 091650Z 22014KT 9999 BKN016 18/14 Q1014 WHT

2010/08/09 16:50
EGNC 091650Z 24012KT 9999 FEW020 SCT030 16/13 Q1008

2010/08/09 16:50
EGNH 091650Z 26006KT 9999 FEW010 SCT025 18/14 Q1010

2010/08/09 16:50
EGNJ 091650Z 22015KT 9999 BKN045 23/14 Q1010

2010/08/09 16:50
EGPA 091650Z 14010KT 9999 FEW004 SCT006 BKN045 15/14 Q1005

2010/08/09 16:50
EGPC 091650Z 12009KT 9999 FEW011 SCT049 15/15 Q1005

2010/08/09 16:50
EGPE 091650Z 34005KT 9999 FEW015 FEW020CB SCT040 18/12 Q1005

2010/08/09 16:50
EGPL 091650Z AUTO 21011KT 9999NDV NCD 16/11 Q1005

2010/08/09 16:50
EGPM 091650Z AUTO 12012KT 9999NDV SCT018/// BKN024/// 14/11 Q1008

2010/08/09 16:50
EGPN 091650Z 25016KT 9999 FEW020 BKN048 18/13 Q1005

2010/08/09 16:50
EGPO 091650Z 20011KT 9999 FEW026 SCT038 16/11 Q1005

2010/08/09 16:50
EGQK 091650Z 29002KT 9999 FEW010 SCT030 17/14 Q1005 BLU NOSIG

2010/08/09 16:50
EGQL 091650Z 26007KT 9999 FEW020 BKN050 18/14 Q1005 BLU NOSIG

2010/08/09 16:50
EGQS 091650Z 32008KT 9999 FEW005 SCT080 15/14 Q1005 BLU NOSIG

2010/08/09 16:50
EGUW 091650Z 23010KT 9999 FEW048 23/08 Q1012 BLU NOSIG

2010/08/09 16:55
EGVA 091655Z AUTO 22012KT 9999 OVC019 19/15 A2991 RMK AO2 CIG 018V022 SLP128 T01930152 $

2010/08/09 16:50
EGXC 091650Z 22011KT 9999 BKN048 BKN120 22/13 Q1010 BLU NOSIG

2010/08/09 16:50
EGXD 091650Z 22005KT 9999 FEW020 BKN036 17/16 Q1009 BLU NOSIG

2010/08/09 16:50
EGXE 091650Z 24009KT 9999 FEW009 BKN050 18/15 Q1009 BLU NOSIG

2010/08/09 16:50
EGXJ 091650Z 22017KT 9999 BKN035 21/12 Q1011 BLU NOSIG

2010/08/09 16:50
EGXW 091650Z 24016KT 9999 FEW034 BKN050 21/13 Q1010 BLU

2010/08/09 16:50
EGYM 091650Z 23016KT CAVOK 24/08 Q1011 BLU NOSIG

2010/08/09 17:00
GGOV 091700Z 24014KT 9999 SCT015TCU FEW020CB 30/23 Q1010 NOSIG

2010/08/09 17:00
OEDF 091700Z 10007KT 6000 SKC 35/25 Q0997 NOSIG

2010/08/09 17:00
OEDR 091700Z 09006KT 4000 HZ SKC 36/29 Q0996 NOSIG

2010/08/09 17:00
OEJN 091700Z 31004KT CAVOK 34/27 Q1000 NOSIG

2010/08/09 17:00
OEMA 091700Z 03006KT 9000 SCT045 SCT100 42/M04 Q1004 NOSIG

2010/08/09 17:00
OERK 091700Z 03010KT 7000 SKC 39/03 Q1003 NOSIG

2010/08/09 16:50
EGDX 091650Z AUTO 26013KT 9999NDV // FEW004/// BKN060/// 18/17 Q1013

2010/08/09 17:00
WSSS 091700Z 14006KT 9999 FEW020 BKN300 28/26 Q1009 NOSIG

2010/08/09 16:50
EGXZ 091650Z AUTO 21008KT 9999NDV SCT041/// BKN050/// 17/16 Q1009 RERA

2010/08/09 16:50
EGXT 091650Z AUTO 22016KT 9999NDV FEW040/// BKN050/// 22/12 Q1011 RERA

2010/08/09 17:00
FLLS 091700Z 11004KT CAVOK 18/10 Q1022

2010/08/09 17:00
FBSK 091700Z 22006KT CAVOK 16/03 Q1024 NOSIG

2010/08/09 17:02
CYFC 091702Z AUTO 20007KT 2 1/2SM +RA BR BKN009 OVC012 20/19 A2990 RMK SLP125 DENSITY ALT 600FT RVR MISG

2010/08/09 16:50
EGDX 091650Z AUTO 26013KT 9999NDV // FEW004/// BKN060/// 18/17 Q1013

2010/08/09 16:50
EGEC 091650Z AUTO 26006KT 9999NDV // FEW030/// 14/12 Q1008

2010/08/09 16:50
EGOM 091650Z AUTO 25014KT 9999NDV // BKN007/// BKN017/// 14/12 Q1008

2010/08/09 16:50
EGOP 091650Z AUTO 25013KT 2600NDV BR BKN004/// BKN019/// 16/16 Q1012

2010/08/09 16:50
EGOV 091650Z 22010KT 9999 FEW006 SCT028 16/15 Q1010 BLU NOSIG

2010/08/09 16:50
EGPU 091650Z AUTO 23010KT 9999NDV // FEW017/// 14/12 Q1005

2010/08/09 16:50
EGXX 091650Z AUTO 22018KT 9999NDV // BKN050/// 23/12 Q1010

2010/08/09 16:50
ENBO 091650Z 02010KT 340V060 9999 FEW012 15/11 Q1011 NOSIG

2010/08/09 17:00
EPGD 091700Z 07004KT 350V130 9999 VCTS SCT036 FEW045CB 21/15 Q1015

2010/08/09 17:00
EPKK 091700Z 19003KT 110V250 9999 FEW043TCU 18/16 Q1016

2010/08/09 17:00
EPKT 091700Z 18003KT 130V230 CAVOK 18/15 Q1016

2010/08/09 17:00
EPPO 091700Z VRB01KT 9999 FEW036CB 19/15 Q1015

2010/08/09 17:00
EPRZ 091700Z VRB02KT 9999 SCT040CB 23/18 Q1016

2010/08/09 17:00
EPWA 091700Z 18004KT CAVOK 24/16 Q1015 NOSIG

2010/08/09 17:00
EPWR 091700Z 26006KT 9999 SCT053TCU 22/16 Q1016

2010/08/09 17:00
LBPD 091700Z 06001MPS 9999 FEW050 SCT100 30/21 Q1011 NOSIG

2010/08/09 17:00
LDDU 091700Z 29008KT 260V320 CAVOK 25/17 Q1013 NOSIG

2010/08/09 17:00
LDPL 091700Z 26007KT 230V300 CAVOK 27/18 Q1014

2010/08/09 17:00
LDRI 091700Z 34004KT 300V020 9999 FEW050 28/15 Q1014

2010/08/09 17:00
LDSP 091700Z 31013KT 280V340 CAVOK 30/11 Q1013 NOSIG

2010/08/09 17:00
LDZA 091700Z 09006KT 060V120 9999 FEW040 25/16 Q1016 NOSIG

2010/08/09 17:00
LDZD 091700Z 30010KT 9999 FEW050 28/14 Q1014

2010/08/09 17:00
LHBP 091700Z 30009KT CAVOK 22/14 Q1017 NOSIG

2010/08/09 17:00
LZIB 091700Z 24003KT 9999 FEW030CB BKN110 19/15 Q1017 RETS

2010/08/09 17:00
LZTT 091700Z 20003KT 170V240 9999 -SHRA FEW006 FEW040CB BKN080 15/14 Q1019

2010/08/09 17:00
PAGH 091700Z AUTO 11013KT 10SM -RA FEW009 OVC055 13/12 A2951 RMK AO2 P0000

2010/08/09 17:00
PASC 091700Z 06020KT 2SM BR OVC003 03/03 A2976 RMK AO2

2010/08/09 16:56
PAVC 091656Z AUTO 20015KT 1SM BR 10/08 A2958 RMK AO2 PWINO TSNO T01000083 P0004 PK WND 22028/1623 SLP016 $

2010/08/09 17:00
MROC 091700Z 10011KT 9999 FEW040 BKN120 27/20 A3003 NOSIG

2010/08/09 17:00
MRPV 091700Z 10008KT 9999 SCT035 OVC100 25/18 A3001 NOSIG

2010/08/09 17:00
MRLM 091700Z 00000KT 9999 FEW030 BKN130 30/24 A2990 RMK FEW240 RA DST NE

2010/08/09 16:50
EGDL 091650Z 20009KT 9999 BKN017 19/14 Q1013 NOSIG

2010/08/09 17:00
SBGR 091700Z 16006KT 7000 SCT013 BKN020 16/13 Q1023

2010/08/09 17:00
MWCR 091700Z 06004KT 9999 FEW018 BKN200 32/24 Q1015 NOSIG

2010/08/09 17:00
MWCB 091700Z 11005KT 9999 FEW016TCU 32/27 Q1015

2010/08/09 16:57
YAMB 091657Z AUTO 33004KT 6000NDV // SCT023 BKN054 OVC062 14/14 Q1021

2010/08/09 17:00
SADF 091700Z 00000KT CAVOK 18/06 Q1024

2010/08/09 17:00
SMJP 091700Z 17003KT 9999 SCT030 FEW035CB 31/23 Q1013 NOSIG

2010/08/09 16:56
PWAK 091656Z 07012KT 10SM FEW023 27/24 A3003 RMK AO2A 

2010/08/09 17:00
SBPB 091700Z 02010KT 9999 FEW020 31/22 Q1011

2010/08/09 17:00
SBMQ 091700Z 08002KT 9999 FEW025 35/25 Q1012

2010/08/09 16:50
LGAL 091650Z 02006KT CAVOK 32/21 Q1009

2010/08/09 16:50
LGEL 091650Z 01007KT CAVOK 33/18 Q1007

2010/08/09 16:50
LGKV 091650Z 28005KT 9999 FEW030TCU SCT100 30/22 Q1008

2010/08/09 16:50
LGMT 091650Z /////KT CAVOK 34/22 Q1006

2010/08/09 16:50
LGPZ 091650Z 24014KT 9999 FEW030 27/21 Q1010 NOSIG

2010/08/09 16:50
LGSK 091650Z 36004KT CAVOK 30/21 Q1009

2010/08/09 16:50
LGSR 091650Z 33015KT CAVOK 29/21 Q1006 NOSIG

2010/08/09 16:50
LGZA 091650Z VRB02KT CAVOK 29/22 Q1009

2010/08/09 17:00
SBTT 091700Z 20004KT 8000 NSC 31/23 Q1015

2010/08/09 16:50
LGAD 091650Z 29004KT CAVOK 28/22 Q1011

2010/08/09 16:50
LGAV 091650Z 04010KT 9999 FEW030 30/20 Q1009 NOSIG

2010/08/09 16:50
LGIR 091650Z 31013KT 9999 FEW020 28/24 Q1007 NOSIG

2010/08/09 16:50
LGKL 091650Z 18004KT 9999 FEW030 29/20 Q1008

2010/08/09 16:50
LGKO 091650Z 32009KT CAVOK 29/22 Q1005

2010/08/09 16:50
LGKR 091650Z 28012KT 9999 FEW025 31/17 Q1009 NOSIG

2010/08/09 16:50
LGRP 091650Z 24012KT 9999 FEW018 29/24 Q1004 NOSIG

2010/08/09 16:50
LGSA 091650Z 30005KT 9999 FEW020 29/23 Q1009

2010/08/09 16:50
LGTS 091650Z 32009KT 9999 FEW030 31/21 Q1009 NOSIG

2010/08/09 16:55
EHEH 091655Z AUTO 27002KT 9999NDV SCT280 22/12 Q1015 BLU BLU NOSIG

2010/08/09 16:55
EHKD 091655Z AUTO 23007KT 9999NDV NCD 19/14 Q1015 BLU BLU NOSIG

2010/08/09 17:00
MZBZ 091700Z 12010KT 9999 BKN026 BKN280 32/26 A2991 Q1013 NOSIG

2010/08/09 16:50
EGYP 091650Z 27032G42KT 7000 -SHRA SCT012 BKN018 BKN040 06/M01 Q0994 GRN TEMPO 3000 SHRASN YLO1

2010/08/09 16:50
LGHI 091650Z 02009KT CAVOK 30/21 Q1006

2010/08/09 16:50
LGKF 091650Z 33014KT 9999 FEW020 29/19 Q1009

2010/08/09 16:50
LGKP 091650Z 32024KT 9999 FEW012 28/26 Q1004

2010/08/09 16:50
LGKZ 091650Z 00000KT 9999 SCT070 29/13 Q1013

2010/08/09 16:50
LGPA 091650Z 01013KT CAVOK 28/20 Q1007

2010/08/09 16:50
LGLM 091650Z 34004KT CAVOK 30/19 Q1008

2010/08/09 17:00
SBRJ 091700Z 21013G23KT 9999 FEW012 BKN025 24/17 Q1019

2010/08/09 17:02
CYFC 091702Z AUTO 20007KT 2 1/2SM +RA BR BKN009 OVC012 20/19 A2990 RMK SLP125 DENSITY ALT 600FT RVR MISG

2010/08/09 17:00
FLLS 091700Z 11004KT CAVOK 18/10 Q1022

2010/08/09 16:50
LGRX 091650Z 24004KT CAVOK 28/21 Q1008 NOSIG

2010/08/09 16:50
EGAE 091650Z 24011KT 9999 FEW016 SCT024 17/12 Q1007

2010/08/09 16:50
EGNC 091650Z 24012KT 9999 FEW020 SCT030 16/13 Q1008

2010/08/09 16:50
EGNH 091650Z 26006KT 9999 FEW010 SCT025 18/14 Q1010

2010/08/09 16:50
EGNJ 091650Z 22015KT 9999 BKN045 23/14 Q1010

2010/08/09 16:50
EGNR 091650Z 27011KT 210V300 9999 SCT025 21/14 Q1010

2010/08/09 16:50
EGPE 091650Z 34005KT 9999 FEW015 FEW020CB SCT040 18/12 Q1005

2010/08/09 16:50
EGPI 091650Z 21009KT 9999 FEW020 15/12 Q1007

2010/08/09 16:50
EGPN 091650Z 25016KT 9999 FEW020 BKN048 18/13 Q1005

2010/08/09 17:00
SBVT 091700Z 17010KT 9000 NSC 31/19 Q1015

2010/08/09 17:00
UBBB 091700Z 17006KT CAVOK 31/24 Q1009 NOSIG RMK R88CLRD70

2010/08/09 16:50
LGSM 091650Z 35008KT 290V040 CAVOK 34/20 Q1004

2010/08/09 16:50
EGPA 091650Z 14010KT 9999 FEW004 SCT006 BKN045 15/14 Q1005

2010/08/09 16:50
EGPC 091650Z 12009KT 9999 FEW011 SCT049 15/15 Q1005

2010/08/09 16:50
EGPL 091650Z AUTO 21011KT 9999NDV NCD 16/11 Q1005

2010/08/09 16:50
EGPM 091650Z AUTO 12012KT 9999NDV SCT018/// BKN024/// 14/11 Q1008

2010/08/09 16:50
EGPO 091650Z 20011KT 9999 FEW026 SCT038 16/11 Q1005

2010/08/09 16:55
OPNH 091655Z 36003KT 4000M SCT035 SCT100 29/27 Q1000

2010/08/09 17:00
OPPS 091700Z SE-04KTS 4000 BR SCT040 BKN100 29/28 Q1002.9

2010/08/09 17:00
OPRN 091700Z 31006KT 4000 HZ FEW035 SCT100 29/25 Q1004.0

2010/08/09 16:55
OPSK 091655Z 00000KT 2000 HZ SCT040 SCT100 30/28 Q1000 RH 89

2010/08/09 16:50
EGDL 091650Z 20009KT 9999 BKN017 19/14 Q1013 NOSIG

2010/08/09 16:50
EGDM 091650Z 22014KT 9999 BKN016 18/14 Q1014

2010/08/09 16:50
EGDY 091650Z 21015KT 9999 FEW010 SCT020 BKN035 19/17 Q1013 NOSIG

2010/08/09 16:50
EGUB 091650Z 21012KT 9999 SCT025 BKN045 20/14 Q1013 BECMG BKN020

2010/08/09 16:50
EGVN 091650Z 22007KT 9999 BKN024 BKN060 19/15 Q1013 NOSIG

2010/08/09 16:50
EGWU 091650Z 24012KT CAVOK 23/12 Q1013 NOSIG

2010/08/09 16:50
EGXC 091650Z 22011KT 9999 BKN048 BKN120 22/13 Q1010 NOSIG

2010/08/09 17:00
SBGR 091700Z 16006KT 7000 SCT013 BKN020 16/13 Q1023

2010/08/09 17:00
SCAR 091700Z 23009KT CAVOK 16/08 Q1017

2010/08/09 17:00
SCDA 091700Z 30007KT 8000 BKN020 15/09 Q1018

2010/08/09 17:00
SCCF 091700Z 25013KT CAVOK 23/M13 Q1025

2010/08/09 17:00
SCFA 091700Z 18009KT 9999 FEW020 BKN200 16/08 Q1017 NOSIG

2010/08/09 17:00
SCIP 091700Z 03009KT 9999 FEW013 SCT025 19/14 Q1024 TEMPO 6000 -SHRA BKN015

2010/08/09 17:00
SCAT 091700Z 34008KT 300V010 9999 SCT026 14/06 Q1020

2010/08/09 17:00
SCSE 091700Z 27008KT 9999 FEW016 OVC018 13/09 Q1019 NEFO PLAYA 2700FT

2010/08/09 17:00
SCER 091700Z 01006KT 7000 NSC 13/12 Q1017 

2010/08/09 17:00
SCVM 091700Z 31007KT 9000 FEW160 13/10 Q1017

2010/08/09 17:00
SCRD 091700Z 32008KT CAVOK 14/10 Q1017

2010/08/09 17:00
SCSN 091700Z 28005KT CAVOK 13/06 Q1017

2010/08/09 17:00
SCEL 091700Z VRB03KT CAVOK 17/00 Q1015 NOSIG

2010/08/09 17:00
SCTB 091700Z 23003KT CAVOK 19/M01 Q1016

2010/08/09 17:00
SCRG 091700Z 00000KT CAVOK 15/05 Q1015

2010/08/09 17:00
SCIC 091700Z 18006KT 9000 BKN200 08/03 Q1015

2010/08/09 17:00
SCCH 091700Z 18007KT CAVOK 11/02 Q1017

2010/08/09 17:00
SCIE 091700Z 19012KT CAVOK 14/02 Q1018

2010/08/09 17:00
SCGE 091700Z 18010KT CAVOK 12/04 Q1019

2010/08/09 16:45
KMYR 091645Z COR 12010KT 10SM FEW022 SCT030 31/25 A3006

2010/08/09 17:00
KAST 091700Z AUTO 30005KT 5SM BR SCT007 BKN018 OVC026 14/13 A3001

2010/08/09 17:00
SCEL 091700Z VRB03KT CAVOK 17/00 Q1015 NOSIG

2010/08/09 17:00
SCIE 091700Z 19012KT CAVOK 14/02 Q1018

2010/08/09 17:00
SCTC 091700Z 21007KT 150V260 CAVOK 13/05 Q1021

2010/08/09 17:00
SCVD 091700Z 20003KT 9999 SCT026 11/07 Q1023 RMK HR81

2010/08/09 17:00
SCJO 091700Z 18010KT 9999 SCT017 12/08 Q1024

2010/08/09 17:00
SCTE 091700Z 17004KT 9999 BKN022 11/09 Q1025 NOSIG

2010/08/09 17:00
SCON 091700Z AUTO 24008KT 9999 ///015 09/06 Q1025

2010/08/09 17:00
SCFT 091700Z VRB03KT 9999 BKN040 11/03 Q1023

2010/08/09 17:00
SCAS 091700Z 24018KT 9999 SCT023 09/04 Q1024

2010/08/09 17:00
SCCY 091700Z 27008KT CAVOK 10/M03 Q1021

2010/08/09 17:00
SCBA 091700Z 30024G35KT 9999 FEW020 SCT030 BKN200 05/M01 Q1018

2010/08/09 17:00
SCCC 091700Z 14005KT CAVOK 09/M05 Q1017

2010/08/09 17:00
SCHR 091700Z 24012KT 9999 FEW040 08/M01 Q1018

2010/08/09 17:00
SCNT 091700Z 29014KT 230V340 9999 SCT015 BKN120 07/M00 Q1010

2010/08/09 17:00
SCCI 091700Z 26030G41KT 9999 SCT013 03/M00 Q1003 NOSIG

2010/08/09 17:00
SCFM 091700Z 24020KT 9999 SCT015 BKN030 03/00 Q1003

2010/08/09 17:00
SCGZ 091700Z 26028G42KT 2500 -SHSN SCT013 BKN030 M00/M00 Q0993

2010/08/09 17:00
SCRM 091700Z 10033G45KT 0500 BLSN OVC004 M11/M12 Q0964 NOSIG

2010/08/09 16:45
KMYR 091645Z COR 12010KT 10SM FEW022 SCT030 31/25 A3006

2010/08/09 17:00
SCAR 091700Z 23009KT CAVOK 16/08 Q1017

2010/08/09 17:00
SCDA 091700Z 30007KT 8000 BKN020 15/09 Q1018

2010/08/09 17:00
SCFA 091700Z 18009KT 9999 FEW020 BKN200 16/08 Q1017 NOSIG

2010/08/09 17:00
SCCF 091700Z 25013KT CAVOK 23/M13 Q1025

2010/08/09 17:00
SCAT 091700Z 34008KT 300V010 9999 SCT026 14/06 Q1020

2010/08/09 17:00
SCIP 091700Z 03009KT 9999 FEW013 SCT025 19/14 Q1024 TEMPO 6000 -SHRA BKN015

2010/08/09 17:00
SCSE 091700Z 27008KT 9999 FEW016 OVC018 13/09 Q1019 NEFO PLAYA 2700FT

2010/08/09 17:00
SCEL 091700Z VRB03KT CAVOK 17/00 Q1015 NOSIG

2010/08/09 17:00
SCIE 091700Z 19012KT CAVOK 14/02 Q1018

2010/08/09 17:00
SCTC 091700Z 21007KT 150V260 CAVOK 13/05 Q1021

2010/08/09 17:00
SCJO 091700Z 18010KT 9999 SCT017 12/08 Q1024

2010/08/09 17:00
SCTE 091700Z 17004KT 9999 BKN022 11/09 Q1025 NOSIG

2010/08/09 17:00
SCBA 091700Z 30024G35KT 9999 FEW020 SCT030 BKN200 05/M01 Q1018

2010/08/09 17:00
SCCI 091700Z 26030G41KT 9999 SCT013 03/M00 Q1003 NOSIG

2010/08/09 17:00
SCNT 091700Z 29014KT 230V340 9999 SCT015 BKN120 07/M00 Q1010

2010/08/09 16:50
LSMA 091650Z AUTO VRB01KT 9999NDV NCD 24/15 Q1016 RMK BLU

2010/08/09 16:50
LSMD 091650Z AUTO VRB01KT 9999NDV NCD 25/13 Q1016 RMK BLU

2010/08/09 16:50
LSME 091650Z AUTO VRB02KT 9999NDV NCD 26/13 Q1016 RMK BLU

2010/08/09 16:50
LSMM 091650Z AUTO 05008KT 020V090 9999NDV FEW060 24/14 Q1016 RMK BLU

2010/08/09 16:50
LSMP 091650Z AUTO 30004KT 270V350 9999NDV NCD 26/13 Q1016 RMK BLU

2010/08/09 17:00
LATI 091700Z 34006KT CAVOK 26/24 Q1012 NOSIG

2010/08/09 17:00
UBBG 091700Z 22005KT 9999 SCT100 26/12 Q1010 NOSIG RMK R12L/CLRD70 

2010/08/09 17:00
KAST 091700Z AUTO 30005KT 5SM BR SCT007 BKN018 OVC026 14/13 A3001

2010/08/09 17:00
TFFF 091700Z 08010KT 030V120 9999 FEW016 SCT025 BKN280 32/25 Q1014 TEMPO -SHRA

2010/08/09 16:47
KIWA 091647Z VRB03KT 45SM SCT120 36/11 A2992

2010/08/09 17:00
SBPP 091700Z 27004KT CAVOK 28/15 Q1019

2010/08/09 16:50
HLLB 091650Z 33018KT 9999 SCT020 26/19 Q1013

2010/08/09 17:00
DTTB 091700Z 08012KT CAVOK 28/13 Q1016

2010/08/09 17:00
DTTD 091700Z 07010KT CAVOK 33/11 Q1015

2010/08/09 17:00
DTTK 091700Z 06004KT CAVOK 33/06 Q1014

2010/08/09 17:00
DTTL 091700Z 01006KT CAVOK 27/18 Q1015

2010/08/09 17:00
DTTN 091700Z 08010KT 9999 FEW020 SCT200 35/11 Q1014

2010/08/09 17:00
DTTR 091700Z 03008KT 9999 FEW026 39/06 Q1013

2010/08/09 16:56
KNFL 091656Z COR 20005KT 10SM FEW070 SCT220 26/06 A2998 RMK AO2 SLP124 T02560061 

2010/08/09 16:55
EBBL 091655Z 25007KT 9999 SCT060 BKN250 23/11 Q1016 BLU

2010/08/09 16:55
EBFN 091655Z 27009KT 9999 FEW050 BKN220 21/15 Q1015 BLU

2010/08/09 16:55
EBFS 091655Z 21004KT 9999 FEW060 BKN250 22/09 Q1016 BLU

2010/08/09 16:50
EDHL 091650Z 28006KT 9999 FEW028 BKN050 18/18 Q1016 RMK Y

2010/08/09 16:55
EHKD 091655Z AUTO 23007KT 9999NDV NCD 19/14 Q1015 BLU BLU NOSIG

2010/08/09 16:55
KQA7 091655Z AUTO 17002KT 8000 DU HZ BKN150 33/M02 A2981 RMK AO2A SLP977 T03321019 $

2010/08/09 16:55
KQTX 091655Z 31003KT 9999 FU FEW000 FEW008 37/M04 A2959 RMK VIS NW 8000 FU FEW000 FEW008 SLP991

2010/08/09 17:00
TFFF 091700Z 08010KT 030V120 9999 FEW016 SCT025 BKN280 32/25 Q1014 TEMPO -SHRA

2010/08/09 16:57
VOBL 091657Z 32005KT 6000 SCT015 SCT080 23/20 Q1013 NOSIG

2010/08/09 17:00
SLLP 091700Z 34005KT 9999 SKC 14/M10 Q1039

2010/08/09 17:00
SLVR 091700Z 15013G23KT 8000 NSC 24/07 Q1019

2010/08/09 17:00
SLCB 091700Z 23005KT 9999 SKC 23/03 Q1026

2010/08/09 17:00
SLTJ 091700Z 26008KT 9999 NSC 16/05 Q1022

2010/08/09 16:50
EGYD 091650Z AUTO 23018KT 9999NDV // SCT036/// BKN070/// 22/13 Q1011

2010/08/09 16:50
EGXG 091650Z AUTO 24012KT 9999NDV -SHRA FEW030/// BKN034/// 20/14 Q1009

2010/08/09 16:50
EGXU 091650Z AUTO 26005KT 9999NDV // FEW018/// BKN026/// 17/16 Q1009

2010/08/09 16:50
ETUO 091650Z AUTO 33004KT 9999NDV // BKN050/// 21/14 Q1016

2010/08/09 16:50
EGOS 091650Z AUTO 27014KT 9999NDV NCD 20/13 Q1010

2010/08/09 17:00
SADF 091700Z 00000KT CAVOK 18/06 Q1024

2010/08/09 17:00
SBAR 091700Z 15011KT 9999 SCT017 27/21 Q1016

2010/08/09 17:00
SBCB 091700Z 26020KT 9999 SCT008 SCT060 25/17 Q1018

2010/08/09 17:00
SBCZ 091700Z 21004KT 7000 NSC 33/20 Q1016

2010/08/09 17:00
SBEG 091700Z 25007KT 9999 SCT020 31/23 Q1012

2010/08/09 17:00
SBFL 091700Z 11013KT 9999 FEW025 20/10 Q1022

2010/08/09 17:00
SBGO 091700Z 12006KT 9999 FEW022 33/08 Q1018

2010/08/09 17:00
SBGR 091700Z 16006KT 7000 SCT013 BKN020 16/13 Q1023

2010/08/09 17:00
SBLO 091700Z 17003KT CAVOK 28/09 Q1018

2010/08/09 17:00
SBMA 091700Z 12008KT 9999 FEW035 39/22 Q1011

2010/08/09 17:00
SBMN 091700Z 15003KT 9999 FEW020 31/23 Q1013

2010/08/09 17:00
SBMO 091700Z 20004KT 5000 -RA BR SCT006 SCT018 BKN100 22/20 Q1017

2010/08/09 17:00
SBMQ 091700Z 08002KT 9999 FEW025 35/25 Q1012

2010/08/09 17:00
SBNT 091700Z 14011KT 9999 SCT027 SCT100 28/22 Q1014

2010/08/09 17:00
SBPA 091700Z 20005KT 9999 SCT030 16/06 Q1025

2010/08/09 17:00
SBPB 091700Z 02010KT 9999 FEW020 31/22 Q1011

2010/08/09 17:00
SBPK 091700Z 18005KT CAVOK 17/03 Q1025

2010/08/09 17:00
SBPL 091700Z 11010KT 9999 SCT025 30/14 Q1017

2010/08/09 17:00
SBRB 091700Z 18004KT 7000 NSC 37/16 Q1015

2010/08/09 17:00
SBRF 091700Z 18012KT 9999 SCT007 BKN015 BKN070 25/22 Q1015

2010/08/09 17:00
SBSJ 091700Z 24013KT 9999 SCT020 19/12 Q1023

2010/08/09 17:00
SBSN 091700Z 12007KT 9999 FEW023 32/24 Q1012

2010/08/09 17:00
SBSV 091700Z 11007KT 9999 SCT017 26/19 Q1018

2010/08/09 17:00
SBTE 091700Z 14010KT 9999 FEW030 36/13 Q1012

2010/08/09 17:00
SBUG 091700Z 08011KT CAVOK 16/05 Q1024

2010/08/09 17:00
SGAS 091700Z 17010KT CAVOK 18/09 Q1020

2010/08/09 17:00
SGES 091700Z 13004KT CAVOK 22/13 Q1018

2010/08/09 17:00
SMJP 091700Z 17003KT 9999 SCT030 FEW035CB 31/23 Q1013 NOSIG

2010/08/09 17:00
SOCA 091700Z 07011KT 9999 FEW023 SCT083 BKN150 31/24 Q1013 NOSIG

2010/08/09 16:45
MMAA 091645Z COR 07006KT 10SM FEW100 BKN300 29/23 A2983 RMK 8/032

2010/08/09 16:45
MMAA 091645Z 07006KT 10SM FEW100 BKN300 29/23 A2983 RMK 8/032

2010/08/09 16:47
MMCB 091647Z 00000KT 7SM BKN015TCU BKN200 25/18 A3011 RMK 8/208 HZY

2010/08/09 16:45
MMOX 091645Z 26004KT 10SM SCT025 BKN200 23/18 A3015 RMK 8/108

2010/08/09 16:45
MMPS 091645Z 00000KT 10SM SCT200 28/22 A3000 RMK 8/001 HZY

2010/08/09 16:45
MMQT 091645Z 01008KT 5SM SCT020 BKN250 22/12 A3028 RMK 8/502 HZY

2010/08/09 16:45
MMTO 091645Z 00000KT 5SM SCT015 BKN070 BKN200 19/11 A3038 RMK 8/132 HZ

2010/08/09 16:45
MMVR 091645Z 00000KT 7SM FEW012 SCT080 BKN120 BKN250 31/26 A2988 RMK 8/178 HZY

2010/08/09 16:45
MMZH 091645Z 17008KT 7SM SCT250 31/24 A2985 RMK 8/002

2010/08/09 17:00
MRLM 091700Z 00000KT 9999 FEW030 BKN130 30/24 A2990 RMK FEW240 RA DST NE

2010/08/09 17:00
MRPV 091700Z 10008KT 9999 SCT035 OVC100 25/18 A3001 NOSIG

2010/08/09 16:55
MUHA 091655Z 31006KT 5000 -RA SCT007 BKN070 27/24 Q1015

2010/08/09 17:00
MZBZ 091700Z 12010KT 9999 BKN026 BKN280 32/26 A2991 NOSIG

2010/08/09 17:00
NTAA 091700Z 14004KT 9999 FEW020 22/16 Q1018 WS ALL RWY NOSIG

2010/08/09 17:00
NWWW 091700Z AUTO 03003KT 9999NDV NCD 16/13 Q1022

2010/08/09 17:00
PKWA 091700Z AUTO 05013KT 10SM CLR 28/23 A2985 RMK AO2 T02760231

2010/08/09 16:55
PTYA 091655Z VRB05KT 12SM SCT016 SCT030 BKN130 OVC300 26/23 A2984 RMK SLP105 T02630234

2010/08/09 16:56
PWAK 091656Z 07012KT 10SM FEW023 27/24 A3003 RMK AO2A

2010/08/09 17:00
SOCA 091700Z 07011KT 9999 FEW023 SCT083 BKN150 31/24 Q1013 NOSIG

2010/08/09 17:00
TFFR 091700Z 12008KT 040V160 SCT020 SCT053 30/24 Q1014 TEMPO 4000 SHRA

2010/08/09 17:00
TKPK 091700Z 05007KT 9999 FEW018 BKN046 29/25 Q1015

2010/08/09 16:55
TXKF 091655Z 18012KT 9999 FEW020 BKN300 30/23 Q1022

2010/08/09 17:00
VHHH 091700Z 21004KT 170V230 9999 FEW012 30/25 Q1005 NOSIG

2010/08/09 17:00
MTPP 091700Z 09012KT 9000 FEW030TCU SCT250 34/22 Q1014 A2995

2010/08/09 17:00
SLLP 091700Z 34005KT 9999 SKC 14/M10 Q1039

2010/08/09 17:00
SLCB 091700Z 23005KT 9999 SKC 23/03 Q1026

2010/08/09 17:00
SLVR 091700Z 15013G23KT 8000 NSC 24/07 Q1019

2010/08/09 17:00
FMMI 091700Z 11006KT 9999 FEW016 BKN020 14/14 Q1026 NOSIG

2010/08/09 16:59
KNGU 091659Z 07006KT 7SM FEW040 BKN250 30/21 A3006 RMK AO2 SLP178 CONTRAILS T03000206

2010/08/09 16:56
KNID 091656Z 22003KT 10SM CLR 27/03 A2993 RMK AO2 SLP115 T02720033 $

2010/08/09 16:56
KNSI 091656Z 02004KT 7SM OVC009 14/13 A2994 RMK AO2 SLP134 T01440128 TSNO

2010/08/09 17:00
MRLM 091700Z 00000KT 9999 FEW030 BKN130 30/24 A2990 RMK FEW240 RA DST NE

2010/08/09 17:00
MRPV 091700Z 10008KT 9999 SCT035 OVC100 25/18 A3001 NOSIG

2010/08/09 16:51
MUCL 091651Z 19007KT 9999 FEW018 BKN070 29/28 Q1016

2010/08/09 16:50
MUCM 091650Z 09006KT 030V150 9000 FEW020 BKN090 30/23 Q1015

2010/08/09 16:50
MUVR 091650Z VRB02KT 9000 SCT018 OVC060 26/23 Q1015

2010/08/09 17:00
MWCR 091700Z 06004KT 9999 FEW018 BKN200 32/24 Q1015 NOSIG

2010/08/09 17:00
MZBZ 091700Z 12010KT 9999 BKN026 BKN280 32/26 A2991 Q1013 NOSIG

2010/08/09 17:00
NTAA 091700Z 14004KT 9999 FEW020 22/16 Q1018 WS ALL RWY NOSIG

2010/08/09 17:00
OEDR 091700Z 09006KT 4000 HZ SKC 36/29 Q0996 NOSIG

2010/08/09 17:00
OEMA 091700Z 03006KT 9000 SCT045 SCT100 42/M04 Q1004 NOSIG

2010/08/09 17:00
OERK 091700Z 03010KT 7000 SKC 39/03 Q1003 NOSIG

2010/08/09 17:00
OLBA 091700Z 30004KT 260V350 9999 BKN027 29/22 Q1007 NOSIG

2010/08/09 16:56
PWAK 091656Z 07012KT 10SM FEW023 27/24 A3003 RMK AO2A

2010/08/09 17:00
RJSM 091700Z 11005KT 0400 R10/0600VP1800D FG VV000 23/22 Q1014 RMK A2995 R1000

2010/08/09 17:00
SADF 091700Z 00000KT CAVOK 18/06 Q1024

2010/08/09 17:00
SCGE 091700Z 18010KT CAVOK 12/04 Q1019

2010/08/09 17:00
SCRD 091700Z 32008KT CAVOK 14/10 Q1017

2010/08/09 16:50
TJPS 091650Z 12010KT 10SM FEW030 FEW060 32/25 A2996 RMK SHRA DSNT N-NW

2010/08/09 17:00
WSSS 091700Z 14006KT 9999 FEW020 BKN300 28/26 Q1009 NOSIG

2010/08/09 17:00
OMAA 091700Z 03007KT CAVOK 36/23 Q0996 A2943 NOSIG

2010/08/09 17:00
OMAD 091700Z 02008KT CAVOK 35/28 Q0997 A2944

2010/08/09 17:00
OMAL 091700Z 11003KT CAVOK 41/11 Q0999 A2950

2010/08/09 17:00
OMDB 091700Z 07004KT 020V110 CAVOK 39/13 Q0997 NOSIG

2010/08/09 17:00
OMDW 091700Z 01005KT CAVOK 35/19 Q0997 NOSIG

2010/08/09 17:00
OMFJ 091700Z 13003KT CAVOK 32/25 Q0998 A2948

2010/08/09 17:00
OMRK 091700Z 26002KT CAVOK 37/20 Q0996 A2942

2010/08/09 17:00
OMSJ 091700Z 08004KT 050V110 CAVOK 35/15 Q0997

2010/08/09 16:45
LHDC 091645Z 28006KT 9999 FEW040TCU 24/16 Q1016 NOSIG

2010/08/09 16:45
LHKE 091645Z 30002MPS CAVOK 24/15 Q1016 NOSIG RMK BLU

2010/08/09 16:45
LHPA 091645Z 27002MPS CAVOK 22/14 Q1018 NOSIG RMK BLU

2010/08/09 16:45
LHPP 091645Z 05005KT CAVOK 24/16 Q1018

2010/08/09 16:45
LHPR 091645Z 25002KT 9999 FEW040TCU 23/15 Q1017

2010/08/09 16:45
LHSM 091645Z 06002KT 9999 FEW034 23/17 Q1018 NOSIG

2010/08/09 16:45
LHSN 091645Z 32001MPS CAVOK 24/16 Q1016 NOSIG RMK BLU

2010/08/09 16:45
LHUD 091645Z 34006KT 9999 FEW046 SCT083 25/18 Q1017

2010/08/09 16:53
KLAX 091653Z 25007KT 8SM SCT016 18/13 A2994 RMK AO2 SLP135 SCT V BKN T01830128 $

2010/08/09 17:00
K3A1 091700Z AUTO 11003KT 10SM CLR 33/23 A3006 RMK AO2 T03280229 TSNO

2010/08/09 16:58
K4A9 091658Z AUTO 27005KT 10SM BKN043 BKN050 33/22 A3003 RMK AO2 T03330221

2010/08/09 16:56
K4I3 091656Z AUTO 21005KT 10SM CLR 29/20 A3005 RMK AO2

2010/08/09 17:00
K4R4 091700Z AUTO 13005KT 7SM SCT028 34/25 A2999 RMK AO2 T03370251

2010/08/09 16:55
KACB 091655Z AUTO 18007KT 5SM HZ SCT023 OVC031 29/23 A2986 RMK AO2

2010/08/09 16:58
KACQ 091658Z AUTO 00000KT 10SM CLR 27/22 A2995 RMK AO2

2010/08/09 16:57
KADC 091657Z AUTO 30004KT 10SM CLR 28/16 A2994 RMK AO2

2010/08/09 16:54
KAMN 091654Z AUTO 20008KT 10SM CLR 26/22 A2992 RMK AO2

2010/08/09 17:00
KASJ 091700Z AUTO 13003KT 10SM CLR 32/20 A3004 RMK AO2

2010/08/09 16:55
KAUM 091655Z AUTO 31005KT 10SM SCT025 SCT038 28/22 A2993 RMK AO2

2010/08/09 17:00
KAVC 091700Z AUTO 07003KT 10SM SCT044 SCT075 SCT090 33/20 A3009 RMK AO2

2010/08/09 17:05
KBAX 091705Z AUTO 21004KT 4SM BR SCT010 SCT018 SCT060 22/21 A2991 RMK AO2

2010/08/09 17:00
KBCB 091700Z AUTO 27004KT 10SM CLR 31/22 A3014 RMK AO2 LTG DSNT SE PWINO

2010/08/09 16:55
KBDH 091655Z AUTO 04003KT 10SM CLR 29/21 A2993 RMK AO2

2010/08/09 17:00
KBIJ 091700Z AUTO 08009KT 10SM SCT050 SCT060 34/23 A2999 RMK AO2

2010/08/09 16:54
KCAD 091654Z AUTO 27009G18KT 10SM SCT120 28/21 A2992 RMK AO2

2010/08/09 16:55
KCBG 091655Z AUTO 00000KT 10SM CLR 28/24 A2992 RMK AO2

2010/08/09 16:54
KCDA 091654Z AUTO 00000KT 10SM SCT036 BKN043 OVC095 25/16 A2998 RMK AO2

2010/08/09 17:03
KCFE 091703Z AUTO 00000KT 10SM CLR 30/23 A2993 RMK AO2 T02950227

2010/08/09 16:55
KCFS 091655Z AUTO 20005KT 7SM SCT120 25/22 A2993 RMK AO2

2010/08/09 16:59
KCJR 091659Z AUTO 18006KT 10SM CLR 32/22 A3001 RMK AO2

2010/08/09 16:55
KCKC 091655Z AUTO 29006KT 10SM CLR 27/16 A2993 RMK AO2

2010/08/09 16:55
KCKN 091655Z AUTO 20011KT 10SM CLR 30/20 A2986 RMK AO2

2010/08/09 16:54
KCNB 091654Z AUTO 06004KT 10SM CLR 29/21 A2994 RMK AO2 T02870213

2010/08/09 16:56
KCOQ 091656Z AUTO 29004KT 10SM CLR 28/19 A2993 RMK AO2

2010/08/09 17:00
KCPK 091700Z AUTO 00000KT 7SM SCT042 SCT050 33/22 A3004 RMK AO2

2010/08/09 16:57
KCQM 091657Z AUTO 00000KT 10SM CLR 27/21 A2992 RMK AO2

2010/08/09 16:55
KCVX 091655Z AUTO 09004KT 7SM SCT015 26/21 A2988 RMK AO2

2010/08/09 17:00
KDPL 091700Z AUTO 10005KT 10SM CLR 32/19 A3004 RMK AO2

2010/08/09 16:59
KDQH 091659Z AUTO 08010KT 10SM SCT049 SCT085 34/19 A2999 RMK AO1

2010/08/09 16:57
KDRM 091657Z AUTO 15004KT 10SM CLR 23/20 A2991 RMK AO2

2010/08/09 16:55
KDTL 091655Z AUTO 24006KT 10SM CLR 27/16 A2995 RMK AO2

2010/08/09 16:55
KDUH 091655Z AUTO 30004KT 10SM CLR 28/19 A2998 RMK AO2

2010/08/09 16:59
KEDE 091659Z AUTO 14009KT 10SM SCT027 SCT034 SCT040 32/23 A3002 RMK AO2

2010/08/09 16:55
KERY 091655Z AUTO 18004KT 10SM BKN020 BKN047 26/22 A2990 RMK AO2

2010/08/09 17:00
KEXX 091700Z AUTO 29003KT 10SM CLR 31/21 A3005 RMK AO2

2010/08/09 16:55
KFFX 091655Z AUTO 23007KT 10SM BKN011 OVC019 25/22 A2992 RMK AO2

2010/08/09 16:54
KFKS 091654Z AUTO 25007KT 10SM SCT013 SCT060 BKN070 25/21 A2989 RMK AO2

2010/08/09 16:56
KFPK 091656Z AUTO 22007KT 4SM RA BKN036 BKN047 OVC065 22/21 A2998 RMK AO2

2010/08/09 17:00
KFQD 091700Z AUTO 00000KT 10SM CLR 32/22 A3007 RMK AO2

2010/08/09 16:54
KFSE 091654Z AUTO 21008KT 10SM CLR 28/19 A2989 RMK AO2

2010/08/09 17:01
KFYJ 091701Z AUTO 13003KT 10SM CLR 33/19 A3005 RMK AO1

2010/08/09 17:00
KGEV 091700Z AUTO 28007KT 10SM SCT041 SCT048 SCT050 28/16 A3019 RMK AO2

2010/08/09 16:54
KGOV 091654Z AUTO 00000KT 4SM BR OVC008 24/22 A2992 RMK AO2

2010/08/09 16:55
KHAF 091655Z AUTO 19005KT 5SM BR BKN006 OVC010 13/12 A2995 RMK AO2

2010/08/09 16:55
KHAI 091655Z AUTO 08006KT 7SM -RA SCT040 BKN046 BKN090 22/21 A2999 RMK AO2

2010/08/09 17:00
KHBI 091700Z AUTO 00000KT 10SM CLR 31/21 A3008 RMK AO2

2010/08/09 17:00
KHLX 091700Z AUTO 22007KT 10SM CLR 30/21 RMK AO2

2010/08/09 16:59
KHRJ 091659Z AUTO 07003KT 10SM SCT038 SCT043 SCT095 32/21 A3004 RMK AO2

2010/08/09 16:54
KHYX 091654Z AUTO 21010KT 7SM SCT120 25/21 A2993 RMK AO2

2010/08/09 16:55
KIRS 091655Z AUTO 00000KT 10SM CLR 26/21 A2999 RMK AO2

2010/08/09 16:55
KISQ 091655Z AUTO 18005KT 10SM BKN012 26/22 A2988 RMK AO2

2010/08/09 16:55
KJYG 091655Z AUTO 00000KT 10SM SCT024 29/27 A2993 RMK AO2

2010/08/09 16:55
KJYM 091655Z AUTO 24003KT 10SM SCT095 26/21 A3001 RMK AO2

2010/08/09 16:55
KLDM 091655Z AUTO 24011G18KT 10SM BKN011 BKN016 OVC025 25/22 A2992 RMK AO2

2010/08/09 16:56
KLWA 091656Z AUTO 17005KT 10SM SCT095 SCT120 23/22 A2995 RMK AO2

2010/08/09 17:00
KLWB 091700Z AUTO 25003KT 10SM CLR 28/17 A3014 RMK AO2

2010/08/09 16:55
KMCD 091655Z AUTO 13004KT 10SM SCT007 24/20 A2990 RMK AO2

2010/08/09 16:54
KMGN 091654Z AUTO 06007KT 10SM SCT047 25/21 A2988 RMK AO2

2010/08/09 16:54
KMOP 091654Z AUTO 23005KT 10SM OVC090 25/23 A2991 RMK AO2

2010/08/09 17:00
KMQI 091700Z AUTO 06006KT 10SM SCT018 29/24 A3006 RMK AO2

2010/08/09 16:45
KMTN 091645Z 13008KT 7SM SCT150 32/24 A3002

2010/08/09 16:55
KOEB 091655Z AUTO 35003KT 7SM -RA SCT045 24/22 A3001 RMK AO2

2010/08/09 17:00
KONX 091700Z AUTO 00000KT 10SM SCT017 29/23 A3006 RMK AO2

2010/08/09 16:55
KOSC 091655Z AUTO 06008KT 10SM SCT008 BKN020 24/21 A2991 RMK AO2

2010/08/09 16:55
KOZW 091655Z AUTO 22007KT 10SM CLR 25/20 A2997 RMK AO2

2010/08/09 16:55
KPHN 091655Z AUTO 25004KT 7SM SCT070 27/20 A2994 RMK AO2

2010/08/09 16:54
KPZQ 091654Z AUTO 17007KT 10SM BKN060 BKN080 BKN100 21/20 A2991 RMK AO2

2010/08/09 16:55
KRGK 091655Z AUTO 00000KT 10SM CLR 30/23 A2989 RMK AO2

2010/08/09 16:55
KRMY 091655Z AUTO 24004KT 5SM RA SCT012 BKN035 OVC049 22/21 A3002 RMK AO2

2010/08/09 16:55
KRNP 091655Z AUTO 20005KT 10SM SCT120 25/21 A2994 RMK AO2

2010/08/09 16:54
KRQB 091654Z AUTO 21007KT 10SM SCT060 OVC085 24/21 A2993 RMK AO2

2010/08/09 17:00
KRUQ 091700Z AUTO 00000KT 10SM CLR 32/19 A3006 RMK AO2

2010/08/09 16:55
KSJX 091655Z AUTO 11005KT 10SM SCT007 26/22 A2987 RMK AO2

2010/08/09 16:55
KSLH 091655Z AUTO 15006KT 10SM CLR 23/22 A2988 RMK AO2

2010/08/09 17:01
KTDF 091701Z AUTO 16005KT 31/20 A3006 RMK AO1

2010/08/09 16:53
KTTF 091653Z AUTO 28007KT 10SM CLR 29/21 A2996 RMK AO2

2010/08/09 17:00
KUKF 091700Z AUTO 14005KT 7SM CLR 33/23 A3009 RMK AO1

2010/08/09 16:50
KUKT 091650Z AUTO 23005KT 10SM SCT043 31/19 A3003 RMK AO1

2010/08/09 16:54
KVLL 091654Z AUTO 23005KT 10SM CLR 27/18 A2998 RMK AO2

2010/08/09 16:55
KY70 091655Z AUTO 22006KT 10SM SCT035 SCT070 BKN100 25/23 A2993 RMK AO2 T02500227

2010/08/09 17:01
PAIK 091701Z AUTO 08009KT 10SM SCT080 OVC100 15/10 A2948 RMK AO2 SLP021 T01500100

2010/08/09 17:01
PAKF 091701Z AUTO 21015G30KT 10SM BKN010 12/08 A2951 RMK AO2 PK WND 19031/1625 SLP085 T01170078

2010/08/09 16:45
CWSK 091645Z AUTO 18005KT 17/15 RMK AO1 T01710151

2010/08/09 17:00
KAST 091700Z AUTO 30005KT 5SM BR SCT007 BKN018 OVC026 14/13 A3001 RMK AO2

2010/08/09 17:00
SGAS 091700Z 17010KT CAVOK 18/09 Q1020

2010/08/09 17:00
SGES 091700Z 13004KT CAVOK 22/13 Q1018

2010/08/09 16:55
EHAK 091655Z AUTO 21018KT 180V250 9999NDV FEW009/// 17/15 Q1012

2010/08/09 16:55
EHDV 091655Z AUTO 18017KT 9999NDV 18/16 Q1012

2010/08/09 16:55
EHFD 091655Z AUTO 20023KT 9999NDV FEW010/// BKN012/// BKN014/// 18/15 Q1014

2010/08/09 16:55
EHFZ 091655Z AUTO 19022KT 9999NDV ///////// 17/15 Q1013

2010/08/09 16:55
EHJA 091655Z AUTO 17020KT 9999NDV 18/14 Q1012

2010/08/09 16:55
EHKV 091655Z AUTO 20016KT 9999NDV 18/15 Q1014

2010/08/09 16:55
EHMA 091655Z AUTO 29008KT 9999NDV ///////// 19/13 Q1015

2010/08/09 16:55
EHMG 091655Z AUTO 22017KT 9999NDV 18/15 Q1014

2010/08/09 16:55
EHPG 091655Z AUTO 21014KT 170V270 9999NDV 18/15 Q1014

2010/08/09 16:55
EHQE 091655Z AUTO 21014KT 9999NDV ///////// 18/15 Q1015

2010/08/09 17:00
KNEL 091700Z AUTO VRB06KT 8SM SCT060 33/15 A3000 RMK AO2 SLP159 T03330150 $

2010/08/09 17:00
SBCG 091700Z VRB08KT 9999 FEW040 31/05 Q1018 

2010/08/09 16:50
OAKN 091650Z 24009KT 8000 DU FEW150 34/02 Q1004 BLU NOSIG RMK A2966 DA6500

2010/08/09 17:00
FOOL 091700Z VRB03KT 8000 SCT008 OVC033 24/23 Q1013 NOSIG

2010/08/09 16:50
MMRX 091650Z 17010KT 8SM BKN025 34/25 A2993 RMK 8/500 HZY

2010/08/09 16:53
MMNL 091653Z 18008KT 12SM SKC 32/23 A2994 RMK ISOL CU

2010/08/09 16:48
MMTC 091648Z 00000KT 15SM SCT200 30/14 A3007 RMK 8/002

2010/08/09 16:55
MMCS 091655Z 20010KT 10SM FEW100 SCT250 31/15 A3008 RMK 8/035

2010/08/09 17:00
SBTF 091700Z 35002KT 9999 SCT020 SCT100 32/25 Q1013

2010/08/09 17:00
SBFL 091700Z 11013KT 9999 FEW025 20/10 Q1022

2010/08/09 17:00
SASJ 091700Z 07008KT 8000 NSC 17/02 Q1021

2010/08/09 17:00
MROC 091700Z 10011KT 9999 FEW040 BKN120 27/20 A3003 NOSIG

2010/08/09 17:00
MRPV 091700Z 10008KT 9999 SCT035 OVC100 25/18 A3001 NOSIG

2010/08/09 17:00
MRLM 091700Z 00000KT 9999 FEW030 BKN130 30/24 A2990 RMK FEW240 RA DST NE

2010/08/09 17:00
MRLB 091700Z 00000KT 9999 FEW030 BKN130 30724 A2990 RMK FEW240 RA DST NE

2010/08/09 17:00
MROC 091700Z 10011KT 9999 FEW040 BKN120 27/20 A3003 NOSIG

2010/08/09 17:00
MRPV 091700Z 10008KT 9999 SCT035 OVC100 25/18 A3001 NOSIG

2010/08/09 17:00
MRLM 091700Z 00000KT 9999 FEW030 BKN130 30/24 A2990 RMK FEW240 RA DST NE

2010/08/09 17:00
MRLB 091700Z 00000KT 9999 FEW030 BKN130 30724 A2990 RMK FEW240 RA DST NE

2010/08/09 17:00
PASC 091700Z 06020KT 2SM BR OVC003 03/03 A2976

2010/08/09 17:00
KNEL 091700Z AUTO VRB06KT 8SM SCT060 33/15 A3000 RMK AO2 SLP159 T03330150 $

2010/08/09 16:55
KHUA 091655Z 35003KT 7SM SCT060 34/23 A3003 RMK AO2A SLP157 T03380228 $

2010/08/09 16:55
KLFI 091655Z 12006KT 10SM CLR 29/22 A3004 RMK AO2A SLP175 T02940223

2010/08/09 16:55
KLUF 091655Z VRB05KT 6SM HZ CLR 34/05 A2988 RMK AO2A SLP089 T03400054 $

2010/08/09 16:55
KSVN 091655Z 07010G18KT 12SM FEW041 FEW250 35/23 A2998 RMK SLP155 WND DATA ESTMD ALSTG/SLP ESTMD

2010/08/09 16:56
KNFL 091656Z COR 20005KT 10SM FEW070 SCT220 26/06 A2998 RMK AO2 SLP124 T02560061

2010/08/09 16:59
KNGU 091659Z 07006KT 7SM FEW040 BKN250 30/21 A3006 RMK AO2 SLP178 CONTRAILS T03000206

2010/08/09 16:56
KNID 091656Z 22003KT 10SM CLR 27/03 A2993 RMK AO2 SLP115 T02720033 $

2010/08/09 16:56
KNSI 091656Z 02004KT 7SM OVC009 14/13 A2994 RMK AO2 SLP134 T01440128 TSNO

2010/08/09 16:56
PWAK 091656Z 07012KT 10SM FEW023 27/24 A3003 RMK AO2A

2010/08/09 17:05
KBAX 091705Z AUTO 21004KT 4SM BR SCT010 SCT018 SCT060 22/21 A2991 RMK AO2

2010/08/09 17:03
KCFE 091703Z AUTO 00000KT 10SM CLR 30/23 A2993 RMK AO2 T02950227

2010/08/09 17:01
KFYJ 091701Z AUTO 13003KT 10SM CLR 33/19 A3005 RMK AO1

2010/08/09 17:01
KTDF 091701Z AUTO 16005KT 31/20 A3006 RMK AO1

2010/08/09 17:01
PAIK 091701Z AUTO 08009KT 10SM SCT080 OVC100 15/10 A2948 RMK AO2 SLP021 T01500100

2010/08/09 17:00
PASC 091700Z 06020KT 2SM BR OVC003 03/03 A2976 RMK AO2

2010/08/09 17:00
SBCJ 091700Z 15008KT CAVOK 32/09 Q1016

2010/08/09 17:00
SBFN 091700Z 10008KT 9999 BKN017 28/23 Q1013

2010/08/09 16:50
BGBW 091650Z 03004KT 9999 FEW010 SCT015 BKN075 13/09 Q1008 RMK 1ST 3SC 7AC 

2010/08/09 17:00
KAST 091700Z AUTO 30005KT 5SM BR SCT007 BKN018 OVC026 14/13 A3001 RMK AO2

2010/08/09 17:00
K3A1 091700Z AUTO 11003KT 10SM CLR 33/23 A3006 RMK AO2 T03280229 TSNO

2010/08/09 16:58
K4A9 091658Z AUTO 27005KT 10SM BKN043 BKN050 33/22 A3003 RMK AO2 T03330221

2010/08/09 16:56
K4I3 091656Z AUTO 21005KT 10SM CLR 29/20 A3005 RMK AO2

2010/08/09 17:00
K4R4 091700Z AUTO 13005KT 7SM SCT028 34/25 A2999 RMK AO2 T03370251

2010/08/09 16:55
KACB 091655Z AUTO 18007KT 5SM HZ SCT023 OVC031 29/23 A2986 RMK AO2

2010/08/09 16:58
KACQ 091658Z AUTO 00000KT 10SM CLR 27/22 A2995 RMK AO2

2010/08/09 16:57
KADC 091657Z AUTO 30004KT 10SM CLR 28/16 A2994 RMK AO2

2010/08/09 16:54
KAMN 091654Z AUTO 20008KT 10SM CLR 26/22 A2992 RMK AO2

2010/08/09 17:00
KASJ 091700Z AUTO 13003KT 10SM CLR 32/20 A3004 RMK AO2

2010/08/09 16:55
KAUM 091655Z AUTO 31005KT 10SM SCT025 SCT038 28/22 A2993 RMK AO2

2010/08/09 17:00
KAVC 091700Z AUTO 07003KT 10SM SCT044 SCT075 SCT090 33/20 A3009 RMK AO2

2010/08/09 17:00
KBCB 091700Z AUTO 27004KT 10SM CLR 31/22 A3014 RMK AO2 LTG DSNT SE PWINO

2010/08/09 16:55
KBDH 091655Z AUTO 04003KT 10SM CLR 29/21 A2993 RMK AO2

2010/08/09 17:00
KBIJ 091700Z AUTO 08009KT 10SM SCT050 SCT060 34/23 A2999 RMK AO2

2010/08/09 16:54
KCAD 091654Z AUTO 27009G18KT 10SM SCT120 28/21 A2992 RMK AO2

2010/08/09 16:55
KCBG 091655Z AUTO 00000KT 10SM CLR 28/24 A2992 RMK AO2

2010/08/09 16:54
KCDA 091654Z AUTO 00000KT 10SM SCT036 BKN043 OVC095 25/16 A2998 RMK AO2

2010/08/09 16:55
KCFS 091655Z AUTO 20005KT 7SM SCT120 25/22 A2993 RMK AO2

2010/08/09 16:59
KCJR 091659Z AUTO 18006KT 10SM CLR 32/22 A3001 RMK AO2

2010/08/09 16:55
KCKC 091655Z AUTO 29006KT 10SM CLR 27/16 A2993 RMK AO2

2010/08/09 16:55
KCKN 091655Z AUTO 20011KT 10SM CLR 30/20 A2986 RMK AO2

2010/08/09 16:54
KCNB 091654Z AUTO 06004KT 10SM CLR 29/21 A2994 RMK AO2 T02870213

2010/08/09 16:56
KCOQ 091656Z AUTO 29004KT 10SM CLR 28/19 A2993 RMK AO2

2010/08/09 17:00
KCPK 091700Z AUTO 00000KT 7SM SCT042 SCT050 33/22 A3004 RMK AO2

2010/08/09 16:57
KCQM 091657Z AUTO 00000KT 10SM CLR 27/21 A2992 RMK AO2

2010/08/09 16:55
KCVX 091655Z AUTO 09004KT 7SM SCT015 26/21 A2988 RMK AO2

2010/08/09 17:00
KDPL 091700Z AUTO 10005KT 10SM CLR 32/19 A3004 RMK AO2

2010/08/09 16:59
KDQH 091659Z AUTO 08010KT 10SM SCT049 SCT085 34/19 A2999 RMK AO1

2010/08/09 16:57
KDRM 091657Z AUTO 15004KT 10SM CLR 23/20 A2991 RMK AO2

2010/08/09 16:55
KDTL 091655Z AUTO 24006KT 10SM CLR 27/16 A2995 RMK AO2

2010/08/09 16:55
KDUH 091655Z AUTO 30004KT 10SM CLR 28/19 A2998 RMK AO2

2010/08/09 16:59
KEDE 091659Z AUTO 14009KT 10SM SCT027 SCT034 SCT040 32/23 A3002 RMK AO2

2010/08/09 16:55
KERY 091655Z AUTO 18004KT 10SM BKN020 BKN047 26/22 A2990 RMK AO2

2010/08/09 17:00
KEXX 091700Z AUTO 29003KT 10SM CLR 31/21 A3005 RMK AO2

2010/08/09 16:55
KFFX 091655Z AUTO 23007KT 10SM BKN011 OVC019 25/22 A2992 RMK AO2

2010/08/09 16:54
KFKS 091654Z AUTO 25007KT 10SM SCT013 SCT060 BKN070 25/21 A2989 RMK AO2

2010/08/09 16:56
KFPK 091656Z AUTO 22007KT 4SM RA BKN036 BKN047 OVC065 22/21 A2998 RMK AO2

2010/08/09 17:00
KFQD 091700Z AUTO 00000KT 10SM CLR 32/22 A3007 RMK AO2

2010/08/09 16:54
KFSE 091654Z AUTO 21008KT 10SM CLR 28/19 A2989 RMK AO2

2010/08/09 17:00
KGEV 091700Z AUTO 28007KT 10SM SCT041 SCT048 SCT050 28/16 A3019 RMK AO2

2010/08/09 16:54
KGOV 091654Z AUTO 00000KT 4SM BR OVC008 24/22 A2992 RMK AO2

2010/08/09 16:55
KHAF 091655Z AUTO 19005KT 5SM BR BKN006 OVC010 13/12 A2995 RMK AO2

2010/08/09 16:55
KHAI 091655Z AUTO 08006KT 7SM -RA SCT040 BKN046 BKN090 22/21 A2999 RMK AO2

2010/08/09 17:00
KHBI 091700Z AUTO 00000KT 10SM CLR 31/21 A3008 RMK AO2

2010/08/09 17:00
KHLX 091700Z AUTO 22007KT 10SM CLR 30/21 RMK AO2

2010/08/09 16:59
KHRJ 091659Z AUTO 07003KT 10SM SCT038 SCT043 SCT095 32/21 A3004 RMK AO2

2010/08/09 16:54
KHYX 091654Z AUTO 21010KT 7SM SCT120 25/21 A2993 RMK AO2

2010/08/09 16:55
KIRS 091655Z AUTO 00000KT 10SM CLR 26/21 A2999 RMK AO2

2010/08/09 16:55
KISQ 091655Z AUTO 18005KT 10SM BKN012 26/22 A2988 RMK AO2

2010/08/09 16:55
KJYG 091655Z AUTO 00000KT 10SM SCT024 29/27 A2993 RMK AO2

2010/08/09 16:55
KJYM 091655Z AUTO 24003KT 10SM SCT095 26/21 A3001 RMK AO2

2010/08/09 16:55
KLDM 091655Z AUTO 24011G18KT 10SM BKN011 BKN016 OVC025 25/22 A2992 RMK AO2

2010/08/09 16:56
KLWA 091656Z AUTO 17005KT 10SM SCT095 SCT120 23/22 A2995 RMK AO2

2010/08/09 17:00
KLWB 091700Z AUTO 25003KT 10SM CLR 28/17 A3014 RMK AO2

2010/08/09 16:55
KMCD 091655Z AUTO 13004KT 10SM SCT007 24/20 A2990 RMK AO2

2010/08/09 16:53
KLAX 091653Z 25007KT 8SM SCT016 18/13 A2994 RMK AO2 SLP135 SCT V BKN T01830128 $

2010/08/09 16:54
KPZQ 091654Z AUTO 17007KT 10SM BKN060 BKN080 BKN100 21/20 A2991 RMK AO2

2010/08/09 16:50
BGBW 091650Z 03004KT 9999 FEW010 SCT015 BKN075 13/09 Q1008 RMK 1ST 3SC 7AC 

2010/08/09 16:54
KMGN 091654Z AUTO 06007KT 10SM SCT047 25/21 A2988 RMK AO2

2010/08/09 16:54
KMOP 091654Z AUTO 23005KT 10SM OVC090 25/23 A2991 RMK AO2

2010/08/09 17:00
KMQI 091700Z AUTO 06006KT 10SM SCT018 29/24 A3006 RMK AO2

2010/08/09 16:45
KMTN 091645Z 13008KT 7SM SCT150 32/24 A3002

2010/08/09 16:55
KOEB 091655Z AUTO 35003KT 7SM -RA SCT045 24/22 A3001 RMK AO2

2010/08/09 17:00
KONX 091700Z AUTO 00000KT 10SM SCT017 29/23 A3006 RMK AO2

2010/08/09 16:55
KOSC 091655Z AUTO 06008KT 10SM SCT008 BKN020 24/21 A2991 RMK AO2

2010/08/09 16:55
KOZW 091655Z AUTO 22007KT 10SM CLR 25/20 A2997 RMK AO2

2010/08/09 16:55
KPHN 091655Z AUTO 25004KT 7SM SCT070 27/20 A2994 RMK AO2

2010/08/09 16:55
KRGK 091655Z AUTO 00000KT 10SM CLR 30/23 A2989 RMK AO2

2010/08/09 16:55
KRMY 091655Z AUTO 24004KT 5SM RA SCT012 BKN035 OVC049 22/21 A3002 RMK AO2

2010/08/09 16:55
KRNP 091655Z AUTO 20005KT 10SM SCT120 25/21 A2994 RMK AO2

2010/08/09 16:54
KRQB 091654Z AUTO 21007KT 10SM SCT060 OVC085 24/21 A2993 RMK AO2

2010/08/09 17:00
KRUQ 091700Z AUTO 00000KT 10SM CLR 32/19 A3006 RMK AO2

2010/08/09 16:55
KSJX 091655Z AUTO 11005KT 10SM SCT007 26/22 A2987 RMK AO2

2010/08/09 16:55
KSLH 091655Z AUTO 15006KT 10SM CLR 23/22 A2988 RMK AO2

2010/08/09 16:53
KTTF 091653Z AUTO 28007KT 10SM CLR 29/21 A2996 RMK AO2

2010/08/09 17:00
KUKF 091700Z AUTO 14005KT 7SM CLR 33/23 A3009 RMK AO1

2010/08/09 16:50
KUKT 091650Z AUTO 23005KT 10SM SCT043 31/19 A3003 RMK AO1

2010/08/09 16:54
KVLL 091654Z AUTO 23005KT 10SM CLR 27/18 A2998 RMK AO2

2010/08/09 16:55
KY70 091655Z AUTO 22006KT 10SM SCT035 SCT070 BKN100 25/23 A2993 RMK AO2 T02500227

2010/08/09 16:50
TJPS 091650Z 12010KT 10SM FEW030 FEW060 32/25 A2996 RMK SHRA DSNT N-NW

2010/08/09 16:55
KNYL 091655Z 00000KT 10SM FEW080 33/02 A2981 RMK AO2 SLP091 T03330022

2010/08/09 17:00
MDPP 091700Z 09015KT 9999 SCT022 32/27 Q1015

2010/08/09 17:00
MDST 091700Z 10009KT 9999 SCT022 31/24 Q1014

2010/08/09 17:00
MDCY 091700Z 03010KT 8000 -TSRA FEW016CB BKN018 28/26 Q1017 CB/S/SE

2010/08/09 17:00
MDPC 091700Z 09005KT 9999 SCT025 SCT300 31/25 Q1013 NOSIG

2010/08/09 17:00
MDJB 091700Z 36006KT 9999 BKN020 SCT300 32/25 Q1013

2010/08/09 17:00
MDLR 091700Z 09015KT 9999 SCT026 32/24 Q1014

2010/08/09 17:00
MDBH 091700Z 13008KT 9999 FEW018CB FEW022 BKN300 33/26 Q1015 CB/SE

2010/08/09 17:00
MDSD 091700Z 17006KT 9999 SCT025 SCT300 32/24 Q1013

2010/08/09 16:50
ENBO 091650Z 02010KT 340V060 9999 FEW012 15/11 Q1011 NOSIG

2010/08/09 16:45
MMAA 091645Z COR 07006KT 10SM FEW100 BKN300 29/23 A2983 RMK 8/032

2010/08/09 16:45
MMAA 091645Z 07006KT 10SM FEW100 BKN300 29/23 A2983 RMK 8/032

2010/08/09 16:45
MMVR 091645Z 00000KT 7SM FEW012 SCT080 BKN120 BKN250 31/26 A2988 RMK 8/178 HZY

2010/08/09 16:45
MMTO 091645Z 00000KT 5SM SCT015 BKN070 BKN200 19/11 A3038 RMK 8/132 HZ

2010/08/09 16:45
MMZH 091645Z 17008KT 7SM SCT250 31/24 A2985 RMK 8/002

2010/08/09 16:50
LSZS 091650Z 22013KT 190V250 9999 FEW090 16/11 Q1020

2010/08/09 16:50
EGDM 091650Z 22014KT 9999 BKN016 18/14 Q1014

2010/08/09 16:50
EGDY 091650Z 21015KT 9999 FEW010 SCT020 BKN035 19/17 Q1013 NOSIG

2010/08/09 16:50
EGOS 091650Z AUTO 27014KT 9999NDV NCD 20/13 Q1010

2010/08/09 16:50
EGOV 091650Z 22010KT 9999 FEW006 SCT028 16/15 Q1010 BLU NOSIG

2010/08/09 16:50
EGPU 091650Z AUTO 23010KT 9999NDV // FEW017/// 14/12 Q1005

2010/08/09 16:45
LHDC 091645Z 28006KT 9999 FEW040TCU 24/16 Q1016 NOSIG

2010/08/09 16:45
LHKE 091645Z 30002MPS CAVOK 24/15 Q1016 NOSIG RMK BLU

2010/08/09 16:45
LHPP 091645Z 05005KT CAVOK 24/16 Q1018

2010/08/09 16:45
LHSN 091645Z 32001MPS CAVOK 24/16 Q1016 NOSIG RMK BLU

2010/08/09 16:45
LHUD 091645Z 34006KT 9999 FEW046 SCT083 25/18 Q1017

2010/08/09 16:47
MMCB 091647Z 00000KT 7SM BKN015TCU BKN200 25/18 A3011 RMK 8/208 HZY

2010/08/09 16:45
MMOX 091645Z 26004KT 10SM SCT025 BKN200 23/18 A3015 RMK 8/108

2010/08/09 16:45
MMPA 091645Z 09007KT 5SM SCT020 BKN250 32/24 A2994 RMK 8/108 HZY

2010/08/09 16:45
MMPS 091645Z 00000KT 10SM SCT200 28/22 A3000 RMK 8/001 HZY

2010/08/09 16:45
MMQT 091645Z 01008KT 5SM SCT020 BKN250 22/12 A3028 RMK 8/502 HZY

2010/08/09 17:00
SBCG 091700Z VRB08KT 9999 FEW040 31/05 Q1018 

2010/08/09 17:00
LEAS 091700Z 06006KT 010V100 9999 SCT016 BKN029 21/17 Q1020 NOSIG

2010/08/09 17:00
LEBB 091700Z 35007KT 310V020 9999 SCT030 BKN045 23/17 Q1020 NOSIG

2010/08/09 17:00
LECO 091700Z 36007KT 310V030 CAVOK 24/17 Q1018

2010/08/09 17:00
LEGE 091700Z VRB06G18KT 1500 TS SHRA FEW018 SCT030CB 21/20 Q1016

2010/08/09 17:00
LEST 091700Z 35011KT 320V030 CAVOK 26/16 Q1018 NOSIG

2010/08/09 17:00
LESO 091700Z 36004KT 300V080 9999 FEW020 BKN040 22/17 Q1020

2010/08/09 17:00
LEVT 091700Z 05012KT 020V090 9999 FEW020 SCT030 22/15 Q1020

2010/08/09 17:00
LERS 091700Z 20005KT 150V250 9999 FEW025TCU 28/18 Q1014

2010/08/09 17:00
LEMH 091700Z 17005KT 140V210 CAVOK 27/18 Q1016

2010/08/09 17:00
LEAM 091700Z 24007KT CAVOK 26/23 Q1014

2010/08/09 17:00
LEGR 091700Z VRB03G13KT 9999 FEW090 38/09 Q1016

2010/08/09 17:00
LERL 091700Z VRB01KT 9999 FEW060TCU 32/10 Q1018

2010/08/09 17:00
TBPB 091700Z 17012KT 9999 FEW014CB SCT036 30/25 Q1014 NOSIG

2010/08/09 17:00
YSTW 091700Z AUTO 20007KT 9999NDV // BKN050 OVC063 12/10 Q1018

2010/08/09 17:00
YSWG 091700Z AUTO 08010KT 9999NDV // SCT040 SCT055 OVC068 11/06 Q1015

2010/08/09 17:00
YTEF 091700Z AUTO 13012KT //// // ////// 10/M06 Q1021

2010/08/09 17:00
YTNK 091700Z AUTO 16012KT 9999NDV // NCD 14/00 Q1016

2010/08/09 17:00
YTRE 091700Z AUTO 03009KT //// // ////// 17/11 Q1019

2010/08/09 17:00
YWGT 091700Z AUTO 17007KT //// // ////// 08/07 Q1016

2010/08/09 17:00
YWHA 091700Z AUTO 23007KT 9999NDV // BKN092 08/08 Q1012

2010/08/09 17:00
YWLM 091700Z AUTO 28002KT 9999NDV // NCD 11/11 Q1018

2010/08/09 17:03
CYSF 091703Z AUTO 08011KT 3SM HZ BKN023 OVC049 17/14 A2977 RMK SLP089 DENSITY ALT 1300FT

2010/08/09 17:03
CYFC 091703Z AUTO 20006KT 3SM +RA BR BKN009 OVC014 20/19 A2990 RMK SLP125 DENSITY ALT 600FT PCPN 0.5MM PAST HR RVR MISG

2010/08/09 17:03
CYKJ 091703Z AUTO 10005KT 6SM -RA OVC007 16/15 A2976 RMK SLP090 DENSITY ALT 2300FT

2010/08/09 17:00
LEMD 091700Z 26005KT 210V310 CAVOK 35/10 Q1016 NOSIG

2010/08/09 17:00
LEBL 091700Z 20006KT 160V250 9999 FEW010 FEW025TCU 27/22 Q1014 NOSIG

2010/08/09 17:00
LEPA 091700Z 23012KT CAVOK 28/19 Q1015 NOSIG

2010/08/09 17:00
LEZL 091700Z 34008KT 290V020 CAVOK 39/11 Q1012 NOSIG

2010/08/09 17:00
LEMG 091700Z 15007KT 110V170 CAVOK 29/19 Q1014 NOSIG

2010/08/09 17:00
LEVC 091700Z 12009KT CAVOK 30/19 Q1013 NOSIG

2010/08/09 17:00
LEAL 091700Z 06007KT 030V100 CAVOK 30/19 Q1014 NOSIG

2010/08/09 17:00
LEIB 091700Z 09007KT 060V120 CAVOK 27/21 Q1014 NOSIG

2010/08/09 17:00
LELC 091700Z 05007KT 010V100 CAVOK 29/15 Q1014 NOSIG

2010/08/09 17:00
LEVX 091700Z 27005KT 250V340 CAVOK 30/16 Q1016

2010/08/09 17:00
GCLP 091700Z 03012KT 360V060 9000 FEW025 SCT030 25/20 Q1013 NOSIG

2010/08/09 17:00
GCXO 091700Z 30007KT 250V330 9000 FEW003 BKN008 20/17 Q1016 NOSIG

2010/08/09 17:00
GCTS 091700Z 09007KT 060V120 9999 FEW020 OVC027 24/18 Q1013 NOSIG

2010/08/09 17:00
GCRR 091700Z 21006KT 180V240 9999 FEW022 28/21 Q1012

2010/08/09 17:00
GCFV 091700Z 15006KT 110V170 7000 FEW020 24/21 Q1012

2010/08/09 17:00
PASC 091700Z 06020KT 2SM BR OVC003 03/03 A2976

2010/08/09 17:00
OPST 091700Z 23004KT 4000 FU FEW040 SCT110 31/23 Q1002 RH66

2010/08/09 17:00
LEAB 091700Z 29004KT 250V320 CAVOK 33/10 Q1018 NOSIG

2010/08/09 17:00
LEBZ 091700Z 16004KT 110V240 CAVOK 37/12 Q1014

2010/08/09 17:00
LELN 091700Z 26013KT 230V290 CAVOK 30/M00 Q1018

2010/08/09 17:00
LESA 091700Z 28004KT 250V330 8000 FEW040 31/16 Q1018

2010/08/09 17:00
LETO 091700Z VRB02KT 9999 FEW050 33/11 Q1016 NOSIG

2010/08/09 17:00
LEVD 091700Z 27015KT 9999 FEW035TCU 31/07 Q1018

2010/08/09 17:00
LEVS 091700Z 24005KT 210V290 9999 FEW050 34/09 Q1017

2010/08/09 17:00
LYBE 091700Z 02004KT CAVOK 26/15 Q1016 NOSIG

2010/08/09 17:00
LYBT 091700Z 34005KT CAVOK 26/16 Q1016 NOSIG

2010/08/09 17:00
LYKV 091700Z 03002KT 9999 SCT047 25/17 Q1016 NOSIG

2010/08/09 17:00
LYNI 091700Z 32011KT CAVOK 25/16 Q1015 NOSIG

2010/08/09 17:00
LYPG 091700Z 20004KT 9999 FEW050 31/17 Q1011 NOSIG

2010/08/09 17:00
LYTV 091700Z VRB02KT CAVOK 30/16 Q1012 NOSIG

2010/08/09 17:00
LYUZ 091700Z 03004KT 360V060 9999 SCT020 19/14 Q1020

2010/08/09 17:00
LYVR 091700Z VRB04KT 9999 FEW040 26/16 Q1016

2010/08/09 17:00
LKKV 091700Z 27004KT CAVOK 18/13 Q1017

2010/08/09 17:00
LKMT 091700Z 14004KT 110V190 CAVOK 20/15 Q1016 NOSIG

2010/08/09 17:00
LKPR 091700Z 26005KT CAVOK 21/13 Q1017 NOSIG

2010/08/09 17:00
LKTB 091700Z 32004KT 9999 FEW044 23/12 Q1016 NOSIG

2010/08/09 17:00
EIDW 091700Z 26012KT 9999 FEW028 18/09 Q1009 NOSIG

2010/08/09 17:00
EINN 091700Z 26012KT 9999 SCT028 17/10 Q1011 NOSIG

2010/08/09 17:00
EICK 091700Z 30011KT 9999 SCT038 SCT250 18/08 Q1011 NOSIG

2010/08/09 17:00
EIKN 091700Z 26017KT 9999 FEW018CB SCT022 BKN060 15/09 Q1009 NOSIG

2010/08/09 17:00
BIAR 091700Z 35013KT CAVOK 15/11 Q1011

2010/08/09 17:00
BIEG 091700Z 36012KT 9999 FEW040 18/12 Q1010

2010/08/09 17:00
BIKF 091700Z 30007KT 9999 BKN007 12/08 Q1013

2010/08/09 17:00
BIRK 091700Z 27006KT 9999 BKN010 12/10 Q1013

2010/08/09 17:00
GCHI 091700Z 02004KT 340V070 9999 FEW018 BKN033 23/18 Q1014

2010/08/09 17:00
GCLA 091700Z 02007KT 340V060 9000 FEW015 BKN020 23/19 Q1014

2010/08/09 17:00
GEML 091700Z 07003KT 020V100 9999 FEW008 27/21 Q1014

2010/08/09 16:50
LGMK 091650Z 36018KT CAVOK 27/19 Q1005

2010/08/09 17:00
LEBA 091700Z 30005KT 240V350 9999 SCT070 39/09 Q1012

2010/08/09 17:00
LEDA 091700Z 25007KT 210V280 9999 FEW020 33/15 Q1014

2010/08/09 17:00
LEJR 091700Z 26008KT 230V330 CAVOK 37/12 Q1012

2010/08/09 17:00
LELL 091700Z 12009KT 090V150 9999 FEW012 27/19 Q1014

2010/08/09 17:00
LEPP 091700Z 34015KT 9999 SCT024 21/16 Q1020

2010/08/09 17:00
LEXJ 091700Z 04006KT 9999 SCT025 SCT048 22/16 Q1020

2010/08/09 17:00
BIKF 091700Z 30007KT 9999 BKN007 12/08 Q1013

2010/08/09 17:00
LUKK 091700Z 34009KT 9999 SCT050CB 26/19 Q1012 26CLRD65 NOSIG

2010/08/09 17:00
UBBB 091700Z 17006KT CAVOK 31/24 Q1009 NOSIG RMK R88CLRD70

2010/08/09 17:00
UHHH 091700Z METAR 13001MPS 9999 -SHRA SCT026CB OVC100 21/21 Q1008 NOSIG

2010/08/09 17:00
UTTT 091700Z 10003MPS 070V140 CAVOK 28/06 Q1006 R08R/CLRD70 TEMPO 03005G10MPS

2010/08/09 16:50
EGOS 091650Z AUTO 27014KT 9999NDV NCD 20/13 Q1010

2010/08/09 16:50
EGXG 091650Z AUTO 24012KT 9999NDV -SHRA FEW030/// BKN034/// 20/14 Q1009

2010/08/09 16:50
EGXT 091650Z AUTO 22016KT 9999NDV FEW040/// BKN050/// 22/12 Q1011 RERA

2010/08/09 16:50
EGXU 091650Z AUTO 26005KT 9999NDV // FEW018/// BKN026/// 17/16 Q1009

2010/08/09 16:50
EGXZ 091650Z AUTO 21008KT 9999NDV SCT041/// BKN050/// 17/16 Q1009 RERA

2010/08/09 16:50
EGYD 091650Z AUTO 23018KT 9999NDV // SCT036/// BKN070/// 22/13 Q1011

2010/08/09 16:50
ETUO 091650Z AUTO 33004KT 9999NDV // BKN050/// 21/14 Q1016

2010/08/09 17:00
LATI 091700Z 34006KT CAVOK 26/24 Q1012 NOSIG

2010/08/09 16:45
LHDC 091645Z 28006KT 9999 FEW040TCU 24/16 Q1016 NOSIG

2010/08/09 16:45
LHKE 091645Z 30002MPS CAVOK 24/15 Q1016 NOSIG RMK BLU

2010/08/09 16:45
LHPA 091645Z 27002MPS CAVOK 22/14 Q1018 NOSIG RMK BLU

2010/08/09 16:45
LHPP 091645Z 05005KT CAVOK 24/16 Q1018

2010/08/09 16:45
LHSN 091645Z 32001MPS CAVOK 24/16 Q1016 NOSIG RMK BLU

2010/08/09 16:45
LHUD 091645Z 34006KT 9999 FEW046 SCT083 25/18 Q1017

2010/08/09 17:00
LKCV 091700Z 32003KT 280V010 9999 FEW037 SCT110 22/14 Q1016 NOSIG RMK BLU+ BLU+

2010/08/09 17:00
LKKV 091700Z 27004KT CAVOK 18/13 Q1017

2010/08/09 17:00
LKMT 091700Z 14004KT 110V190 CAVOK 20/15 Q1016 NOSIG

2010/08/09 17:00
LKPO 091700Z VRB02KT 9999 FEW043 22/15 Q1016 NOSIG RMK BLU+ BLU+

2010/08/09 17:00
LKPR 091700Z 26005KT CAVOK 21/13 Q1017 NOSIG

2010/08/09 17:00
LKTB 091700Z 32004KT 9999 FEW044 23/12 Q1016 NOSIG

2010/08/09 17:00
LYBE 091700Z 02004KT CAVOK 26/15 Q1016 NOSIG

2010/08/09 17:00
LYNI 091700Z 32011KT CAVOK 25/16 Q1015 NOSIG

2010/08/09 17:00
LYPG 091700Z 20004KT 9999 FEW050 31/17 Q1011 NOSIG

2010/08/09 17:00
LYTV 091700Z VRB02KT CAVOK 30/16 Q1012 NOSIG

2010/08/09 17:00
WBGR 091700Z 31002KT 9999 FEW014 BKN150 28/25 Q1010

2010/08/09 17:00
WBGS 091700Z 22002KT 9999 -RA SCT018 OVC150 23/22 Q1011

2010/08/09 17:00
WBGY 091700Z 13001KT 9999 SCT022 SCT150 BKN160 24/22 Q1010

2010/08/09 17:00
WBKL 091700Z 31001KT 9999 SCT010 FEW015CB SCT140 BKN290 28/26 Q1010

2010/08/09 17:00
WBKS 091700Z 16002KT 9999 FEW015 BKN270 26/24 Q1010

2010/08/09 17:00
WBKT 091700Z 25001KT 9999 FEW016 SCT140 BKN280 26/25 Q1009

2010/08/09 17:00
WBKW 091700Z 30003KT 9999 FEW017 BKN140 24/23 Q1011

2010/08/09 17:03
CYKZ 091703Z 24005KT 12SM -RA FEW030 BKN090 OVC120 RMK CU2AC3AS2

2010/08/09 17:00
SUMU 091700Z 25007KT CAVOK 17/01 Q1024 NOSIG

2010/08/09 17:00
SUAA 091700Z 27008KT CAVOK 16/04 Q1024

2010/08/09 17:00
SULS 091700Z 24011KT CAVOK 15/04 Q1024

2010/08/09 17:00
SUCA 091700Z 29009KT CAVOK 16/03 Q1023

2010/08/09 17:00
SUSO 091700Z 12007KT CAVOK 17/02 Q1024

2010/08/09 17:00
SASJ 091700Z 07008KT 8000 NSC 17/02 Q1021

2010/08/09 17:00
SBCG 091700Z VRB08KT 9999 FEW040 31/05 Q1018

2010/08/09 17:00
SBFN 091700Z 10008KT 9999 BKN017 28/23 Q1013

2010/08/09 17:00
SBPP 091700Z 27004KT CAVOK 28/15 Q1019

2010/08/09 17:00
SBRJ 091700Z 21013G23KT 9999 FEW012 BKN025 24/17 Q1019

2010/08/09 17:00
SBTF 091700Z 35002KT 9999 SCT020 SCT100 32/25 Q1013

2010/08/09 17:00
SBTT 091700Z 20004KT 8000 NSC 31/23 Q1015

2010/08/09 17:00
SBVT 091700Z 17010KT 9000 NSC 31/19 Q1015

2010/08/09 17:00
SCAR 091700Z 23009KT CAVOK 16/08 Q1017

2010/08/09 17:00
SCAS 091700Z 24018KT 9999 SCT023 09/04 Q1024

2010/08/09 17:00
SCBA 091700Z 30024G35KT 9999 FEW020 SCT030 BKN200 05/M01 Q1018

2010/08/09 17:00
SCCH 091700Z 18007KT CAVOK 11/02 Q1017

2010/08/09 17:00
SCCI 091700Z 26030G41KT 9999 SCT013 03/M00 Q1003 NOSIG

2010/08/09 17:00
SCDA 091700Z 30007KT 8000 BKN020 15/09 Q1018

2010/08/09 17:00
SCEL 091700Z VRB03KT CAVOK 17/00 Q1015 NOSIG

2010/08/09 17:00
SCFA 091700Z 18009KT 9999 FEW020 BKN200 16/08 Q1017 NOSIG

2010/08/09 17:00
SCGE 091700Z 18010KT CAVOK 12/04 Q1019

2010/08/09 17:00
SCGZ 091700Z 26028G42KT 2500 -SHSN SCT013 BKN030 M00/M00 Q0993

2010/08/09 17:00
SCIE 091700Z 19012KT CAVOK 14/02 Q1018

2010/08/09 17:00
SCNT 091700Z 29014KT 230V340 9999 SCT015 BKN120 07/M00 Q1010

2010/08/09 17:00
SCON 091700Z AUTO 24008KT 9999 ///015 09/06 Q1025

2010/08/09 17:00
SCRD 091700Z 32008KT CAVOK 14/10 Q1017

2010/08/09 17:00
SCSE 091700Z 27008KT 9999 FEW016 OVC018 13/09 Q1019 NEFO PLAYA 2700FT

2010/08/09 17:00
SCTB 091700Z 23003KT CAVOK 19/M01 Q1016

2010/08/09 17:00
SCTE 091700Z 17004KT 9999 BKN022 11/09 Q1025 NOSIG

2010/08/09 17:00
SLCB 091700Z 23005KT 9999 SKC 23/03 Q1026

2010/08/09 17:00
SLLP 091700Z 34005KT 9999 SKC 14/M10 Q1039

2010/08/09 17:00
SLTJ 091700Z 26008KT 9999 NSC 16/05 Q1022

2010/08/09 17:00
SLVR 091700Z 15013G23KT 8000 NSC 24/07 Q1019

2010/08/09 17:00
LEAM 091700Z 24007KT CAVOK 26/23 Q1014

2010/08/09 17:00
LEAS 091700Z 06006KT 010V100 9999 SCT016 BKN029 21/17 Q1020 NOSIG

2010/08/09 17:00
LEBB 091700Z 35007KT 310V020 9999 SCT030 BKN045 23/17 Q1020 NOSIG

2010/08/09 17:00
LEBZ 091700Z 16004KT 110V240 CAVOK 37/12 Q1014

2010/08/09 17:00
LECO 091700Z 36007KT 310V030 CAVOK 24/17 Q1018

2010/08/09 17:00
LEGE 091700Z VRB06G18KT 1500 TS SHRA FEW018 SCT030CB 21/20 Q1016

2010/08/09 17:00
LEGR 091700Z VRB03G13KT 9999 FEW090 38/09 Q1016

2010/08/09 17:00
LELC 091700Z 05007KT 010V100 CAVOK 29/15 Q1014 NOSIG

2010/08/09 17:00
LELN 091700Z 26013KT 230V290 CAVOK 30/M00 Q1018

2010/08/09 17:00
LEMH 091700Z 17005KT 140V210 CAVOK 27/18 Q1016

2010/08/09 17:00
LERS 091700Z 20005KT 150V250 9999 FEW025TCU 28/18 Q1014

2010/08/09 17:00
LESA 091700Z 28004KT 250V330 8000 FEW040 31/16 Q1018

2010/08/09 17:00
LESO 091700Z 36004KT 300V080 9999 FEW020 BKN040 22/17 Q1020

2010/08/09 17:00
LEST 091700Z 35011KT 320V030 CAVOK 26/16 Q1018 NOSIG

2010/08/09 17:00
LEVC 091700Z 12009KT CAVOK 30/19 Q1013 NOSIG

2010/08/09 17:00
LEVS 091700Z 24005KT 210V290 9999 FEW050 34/09 Q1017

2010/08/09 17:00
LEVT 091700Z 05012KT 020V090 9999 FEW020 SCT030 22/15 Q1020

2010/08/09 17:00
LEVX 091700Z 27005KT 250V340 CAVOK 30/16 Q1016

2010/08/09 17:00
LFBC 091700Z AUTO 26007KT 220V300 9999NDV FEW026 OVC039 22/14 Q1019

2010/08/09 17:00
LFBF 091700Z AUTO 29010KT 9999NDV // OVC037 23/17 Q1019

2010/08/09 17:00
LFBG 091700Z AUTO 26014KT 9999NDV NSC 24/14 Q1017

2010/08/09 17:00
LFBM 091700Z AUTO 30010KT 270V340 9999NDV SCT044 25/15 Q1019

2010/08/09 16:50
LGMK 091650Z 36018KT CAVOK 27/19 Q1005

2010/08/09 17:00
LKNA 091700Z 34005KT 310V020 9999 FEW040TCU FEW040 SCT070 21/12 Q1017 NOSIG RMK BLU+ BLU+

2010/08/09 17:00
LKPD 091700Z 27003KT 9999 FEW036 BKN100 21/15 Q1016 NOSIG RMK BLU BLU

2010/08/09 17:00
LROP 091700Z VRB01KT CAVOK 28/20 Q1012 880///95 NOSIG

2010/08/09 17:00
LRSB 091700Z 00000KT 9999 SCT037 SCT083 23/18 Q1016

2010/08/09 17:00
KIXA 091700Z AUTO 10005KT 10SM CLR 32/21 A3002 RMK AO2 T03210208

2010/08/09 17:00
KJES 091700Z AUTO 05009G15KT 10SM CLR 34/25 A2999 RMK AO2 T03410253

2010/08/09 17:00
KJGG 091700Z AUTO 15004KT 10SM CLR 33/17 A3004 RMK AO1

2010/08/09 17:00
KJKA 091700Z AUTO 10010G17KT 10SM CLR 34/27 A2998 RMK AO2 LTG DSNT S T03440266

2010/08/09 17:00
KJNX 091700Z AUTO 00000KT 10SM CLR 31/21 A3003 RMK AO2

2010/08/09 16:55
KJQF 091655Z 00000KT 7SM SCT042 SCT055 34/20 A3005

2010/08/09 16:59
KJYL 091659Z AUTO 09005KT 10SM SCT044 33/24 A3002 RMK AO2 LTG DSNT E

2010/08/09 17:00
KJYO 091700Z AUTO 00000KT 7SM SCT047 33/20 A3002 RMK AO2

2010/08/09 17:00
KLDJ 091700Z AUTO 25006KT 7SM SCT060 SCT070 32/17 A2999 RMK AO2 T03240169

2010/08/09 17:00
KLHZ 091700Z AUTO 00000KT 10SM SCT041 32/21 A3006 RMK AO2 T03200211

2010/08/09 17:00
KLKU 091700Z AUTO 21005KT 10SM SCT044 32/21 A3003 RMK AO2

2010/08/09 17:00
KMGR 091700Z AUTO 05008KT 357V067 10SM SCT047 SCT060 34/20 A3000 RMK AO2

2010/08/09 17:01
KMLJ 091701Z AUTO 00000KT 10SM CLR 32/23 A3003 RMK AO2 LTG DSNT E

2010/08/09 17:01
KMRN 091701Z AUTO 20004KT 10SM CLR 32/21 A3012 RMK AO2

2010/08/09 17:02
KMWK 091702Z AUTO 20005KT 7SM SCT030 31/22 A3008 RMK AO2

2010/08/09 17:01
KPTB 091701Z AUTO 12000KT 10SM SCT050 34/ A3002 RMK AO2

2010/08/09 17:00
KSIF 091700Z AUTO 19003KT 7SM SCT043 32/21 A3005 RMK AO2 T03150213

2010/08/09 17:00
KSUT 091700Z AUTO 09006KT 10SM CLR 28/22 A3003 RMK AO2

2010/08/09 17:01
KTNB 091701Z AUTO 33007KT 10SM CLR 28/16 A3020 RMK AO2

2010/08/09 17:00
KTPF 091700Z AUTO 13003KT 10SM SCT027 BKN035 BKN048 31/26 A2992 RMK AO2

2010/08/09 17:04
KTTA 091704Z AUTO 12003KT 10SM CLR 33/22 A3004 RMK AO2

2010/08/09 17:00
KUNV 091700Z AUTO 34003KT 10SM CLR 29/15 A3005 RMK AO2 T02910151

2010/08/09 16:56
KVDF 091656Z AUTO 06006KT 10SM SCT023 SCT031 SCT100 32/25 A2992 RMK AO2

2010/08/09 16:58
KVUJ 091658Z AUTO 33005KT 10SM SCT048 SCT055 BKN090 33/22 A3004 RMK AO2

2010/08/09 16:55
KVVG 091655Z AUTO 11007KT 30/25 A2994 RMK AO2

2010/08/09 16:59
KW99 091659Z AUTO 32003KT 10SM CLR 32/14 A3003 RMK AO2

2010/08/09 17:00
K1A5 091700Z AUTO 00000KT 10SM CLR 31/18 A3012 RMK AO2 T03050181

2010/08/09 16:59
K3I2 091659Z AUTO 20003KT 7SM CLR 31/19 A3004 RMK AO2

2010/08/09 17:00
K3J7 091700Z AUTO 00000KT 10SM CLR 33/22 A3001 RMK AO2 T03270220

2010/08/09 16:58
K8A0 091658Z AUTO 22004KT 10SM CLR 34/20 A3003 RMK AO2

2010/08/09 17:00
KUXL 091700Z AUTO 28006KT 10SM SCT039 SCT046 35/25 A2998 RMK AO2

2010/08/09 16:58
KACP 091658Z AUTO 27005KT 10SM SCT037 34/24 A2997 RMK AO2

2010/08/09 16:50
KAEG 091650Z 00000KT 10SM FEW120 23/12 A3020

2010/08/09 17:00
KAFP 091700Z AUTO 00000KT 10SM CLR 33/21 A3004 RMK AO2 T03260208

2010/08/09 17:00
KALX 091700Z AUTO 00000KT 10SM CLR 33/23 A3002 RMK AO1

2010/08/09 17:00
KAYS 091700Z AUTO 07013G17KT 10SM SCT090 A2998 RMK AO1

2010/08/09 17:02
KBGE 091702Z AUTO 07014G20KT 10SM CLR 34/20 A2998 RMK AO2

2010/08/09 17:00
KBQK 091700Z AUTO 05009G14KT 030V090 10SM BKN025 BKN038 OVC045 31/26 A2999 RMK AO1 LTG DSNT E T03100261 PNO

2010/08/09 17:00
KCCO 091700Z AUTO 00000KT 10SM CLR 32/24 A3006 RMK AO1

2010/08/09 17:00
KCDH 091700Z AUTO 32003KT 10SM CLR 34/23 A2996 RMK AO2

2010/08/09 16:55
KCLS 091655Z AUTO 20003KT 10SM OVC016 15/12 A3001 RMK AO2

2010/08/09 17:00
KCPC 091700Z AUTO 08005KT 10SM SCT039 32/22 A3002 RMK AO2 T03240216

2010/08/09 17:00
KCTJ 091700Z AUTO 17004KT 10SM SCT042 BKN050 OVC065 32/22 A3007 RMK AO2 T03150223

2010/08/09 17:01
KCWV 091701Z AUTO 07010KT 10SM CLR 34/24 A3000 RMK AO2 T03420240

2010/08/09 16:58
KDBN 091658Z AUTO 04007KT 10SM CLR 33/22 A3000 RMK AO1

2010/08/09 16:58
KDNN 091658Z AUTO 21004KT 10SM CLR 32/22 A3003 RMK AO2

2010/08/09 16:55
KEMV 091655Z AUTO 13003KT 10SM CLR 32/22 A3004 RMK AO2 LTG DSNT SE

2010/08/09 17:00
KEYF 091700Z AUTO 14004KT 10SM CLR 33/21 A3003 RMK AO2 T03270210

2010/08/09 16:57
KEZF 091657Z AUTO 20005KT 10SM CLR 34/24 A2999 RMK AO2 T03380238

2010/08/09 17:00
KF24 091700Z AUTO 00000KT 10SM CLR 35/22 A3001 RMK AO2 T03480218

2010/08/09 17:15
KFDW 091715Z AUTO 34003KT 10SM CLR 33/18 A3005 RMK AO1

2010/08/09 17:00
KFFA 091700Z AUTO 08005KT 10SM CLR 28/24 A3006 RMK AO2 T02840239

2010/08/09 17:00
KFKN 091700Z AUTO 00000KT 10SM CLR 33/21 A3003 RMK AO1

2010/08/09 16:57
KFVX 091657Z AUTO 18005KT 10SM CLR 33/24 A3001 RMK AO2

2010/08/09 17:00
KGAO 091700Z AUTO 01005KT 10SM CLR 33/25 A2999 RMK AO2 LTG DSNT E AND S

2010/08/09 16:55
KGHG 091655Z AUTO 21007KT 360V010 10SM FEW039 SCT100 31/21 A2997 RMK AO2

2010/08/09 17:00
KGWW 091700Z AUTO 00000KT 10SM CLR 32/22 A3004 RMK AO2 T03170220

2010/08/09 17:00
KHDC 091700Z AUTO 02003KT 10SM SCT031 SCT041 OVC050 34/28 A3000 RMK AO2

2010/08/09 17:00
KHNZ 091700Z AUTO 19006KT 10SM SCT045 SCT075 SCT085 32/20 A3004 RMK AO2 T03190200

2010/08/09 16:58
KHOE 091658Z AUTO 09007KT 10SM SCT043 33/22 A2999 RMK AO2 T03290219

2010/08/09 17:00
KHSP 091700Z AUTO 00000KT 7SM SCT026 23/18 A3025 RMK AO2

2010/08/09 17:00
KHWY 091700Z AUTO 17009KT 10SM CLR 33/20 A3000 RMK AO2

2010/08/09 17:00
KIER 091700Z AUTO 00000KT 10SM CLR 36/25 A2997 RMK AO2 PWINO

2010/08/09 17:00
KIPJ 091700Z AUTO 00000KT 10SM SCT041 33/21 A3006 RMK AO2 T03270205

2010/08/09 16:56
PANW 091656Z AUTO 19008KT 7SM OVC005 10/09 A2954 RMK AO2 PWINO TSNO T01000088 CIG 002V007 SLP979 $

2010/08/09 17:00
UTTT 091700Z 10003MPS 070V140 CAVOK 28/06 Q1006 R08R/CLRD70 TEMPO 03005G10MPS

2010/08/09 17:00
LUKK 091700Z 34009KT 9999 SCT050CB 26/19 Q1012 26CLRD65 NOSIG

2010/08/09 17:00
SBKP 091700Z 21006KT 9000 NSC 27/11 Q1020

2010/08/09 17:02
KTQE 091702Z AUTO 35003KT 9SM OVC015 28/24 A2986 RMK AO2

2010/08/09 17:02
KXNA 091702Z 19008KT 10SM CLR 34/21 A3000 RMK AO2

2010/08/09 16:50
ENAT 091650Z 30009KT 9999 FEW025 BKN046 14/10 Q1014 

2010/08/09 17:00
MGHT 091700Z 18006KT 9999 FEW022 BKN200 24/14 QFE 818.2

2010/08/09 17:00
MGPB 091700Z 36006KT 9999 SCT020 SCT200 31/26 Q1012 A29.88

2010/08/09 17:00
MGGT 091700Z 36012KT 9999 SCT017 BKN200 25/18 Q1025 A30.27 TCU SSE PACAYA EN ACTIVIDAD NOSIG

2010/08/09 17:00
MGSJ 091700Z 14006KT 9999 SCT017 BKN200 31/26 Q1013 A29.91

2010/08/09 17:00
MGRT 091700Z 15004KT 9999 FEW018 SCT200 30/23 Q1015 A29.97 SANTA MARIA EN ACTIVIDAD

2010/08/09 17:00
MGQZ 091700Z 04008KT CAVOK 23/13 QFE 768.6 SCT070 BKN200

2010/08/09 17:00
MGCB 091700Z 14004KT 9999 SCT020 SCT200 26/12 QFE 870.8

2010/08/09 17:00
MGZA 091700Z 00000KT 9999 FEW016 BKN200 31/25

2010/08/09 17:00
MGES 091700Z 05004KT 9999 SCT018 BKN200 28/19 QFE 911.5

2010/08/09 17:00
MGMT 091700Z 18006KT CAVOK 33/26 QFE 1008.0 BKN200

2010/08/09 17:00
MGTU 091700Z 27006KT 9999 FEW018 32/24 FEW200

2010/08/09 17:00
SBJP 091700Z 18012KT 9999 FEW012 BKN018 BKN070 27/23 Q1015 

2010/08/09 17:00
DIAP 091700Z 25008KT 220V280 8000 SCT011 BKN080 27/23 Q1013 NOSIG

2010/08/09 17:00
OMAA 091700Z 03007KTCAVOK 36/23 Q0996 A2943 NOSIG

2010/08/09 17:08
OMAD 091708Z 02008KT CAVOK 35/28 Q0997 A2944

2010/08/09 17:00
OMAL 091700Z 11003KT CAVOK 41/11 Q0999 A2950

2010/08/09 17:00
OMDB 091700Z 07004KT 020V110 CAVOK 39/13 Q0997 NOSIG

2010/08/09 17:00
OMDW 091700Z 01005KT CAVOK 35/19 Q0997 NOSIG

2010/08/09 17:00
OMFJ 091700Z 13003KT CAVOK 32/25 Q0998 A2948

2010/08/09 17:00
OMRK 091700Z 26002KT CAVOK 37/20 Q0996 A2942

2010/08/09 17:00
OMSJ 091700Z 08004KT 050V110 CAVOK 35/15 Q0997

2010/08/09 17:00
MGTK 091700Z 06004KT 9999 SCT018 32/25 Q1014 A29.94

2010/08/09 17:00
MGHT 091700Z 18006KT 9999 FEW022 BKN200 24/14 QFE 818.2

2010/08/09 17:00
MGPB 091700Z 36006KT 9999 SCT020 SCT200 31/26 Q1012 A29.88

2010/08/09 17:00
MGGT 091700Z 36012KT 9999 SCT017 BKN200 25/18 Q1025 A30.27 TCU SSE PACAYA EN ACTIVIDAD NOSIG

2010/08/09 17:00
MGSJ 091700Z 14006KT 9999 SCT017 BKN200 31/26 Q1013 A29.91

2010/08/09 17:00
MGRT 091700Z 15004KT 9999 FEW018 SCT200 30/23 Q1015 A29.97 SANTA MARIA EN ACTIVIDAD

2010/08/09 17:00
MGQZ 091700Z 04008KT CAVOK 23/13 QFE 768.6 SCT070 BKN200

2010/08/09 17:00
MGCB 091700Z 14004KT 9999 SCT020 SCT200 26/12 QFE 870.8

2010/08/09 17:00
MGZA 091700Z 00000KT 9999 FEW016 BKN200 31/25

2010/08/09 17:00
MGES 091700Z 05004KT 9999 SCT018 BKN200 28/19 QFE 911.5

2010/08/09 17:00
MGMT 091700Z 18006KT CAVOK 33/26 QFE 1008.0 BKN200

2010/08/09 17:00
MGTU 091700Z 27006KT 9999 FEW018 32/24 FEW200

2010/08/09 17:00
UGTB 091700Z 07006KT 9999 SCT066 SCT100 28/09 Q1013 NOSIG RMK 13CLRD80

2010/08/09 17:00
YAMB 091700Z AUTO 33004KT 5000NDV // SCT023 BKN054 OVC066 14/14 Q1021

2010/08/09 17:00
OPKC 091700Z 27002KT 6000 FEW020 BKN100 27/25 Q.1001 NOSIG

2010/08/09 17:00
LBSF 091700Z 01003MPS 9999 FEW050 24/15 Q1015 NOSIG

2010/08/09 17:00
LBWN 091700Z 34007MPS 9999 SCT050 28/21 Q1010 NOSIG

2010/08/09 17:00
LBBG 091700Z 01006MPS CAVOK 29/21 Q1010 NOSIG

2010/08/09 17:00
LBPD 091700Z 06001MPS 9999 FEW050 SCT100 30/21 Q1011 NOSIG

2010/08/09 17:00
LBGO 091700Z 25002MPS CAVOK 26/23 Q1012 NOSIG

2010/08/09 17:03
CYFC 091703Z AUTO 20006KT 3SM +RA BR BKN009 OVC014 20/19 A2990 RMK SLP125 DENSITY ALT 600FT PCPN 0.5MM PAST HR RVR MISG

2010/08/09 17:00
RJAA 091700Z 17004KT 9999 FEW020 23/22 Q1015 NOSIG

2010/08/09 17:00
RJBB 091700Z 17007KT 140V200 9999 FEW003 BKN020 27/24 Q1013 NOSIG

2010/08/09 17:00
RJCC 091700Z 15005KT 2500 BR FEW001 BKN002 21/20 Q1014

2010/08/09 17:00
RJFS 091700Z 11004KT 9999 FEW035 SCT150 BKN/// 27/24 Q1010

2010/08/09 17:00
RJFF 091700Z 15005KT 9999 FEW025 SCT140 BKN/// 26/23 Q1010

2010/08/09 17:00
RJFR 091700Z 09006KT 9999 FEW010 SCT070 BKN160 27/24 Q1011

2010/08/09 17:00
RJGG 091700Z 13009KT 9999 VCSH FEW010 SCT040 BKN080 26/25 Q1014 NOSIG

2010/08/09 17:00
RJOH 091700Z 17005KT 9999 FEW050 BKN080 27/23 Q1011

2010/08/09 17:00
RJTT 091700Z 18007KT 9999 FEW012 SCT050 BKN070 26/23 Q1015

2010/08/09 17:00
ROAH 091700Z 18028G38KT 9999 -SHRA FEW012 SCT020 FEW025TCU BKN090 28/24 Q1005

2010/08/09 17:00
RJAH 091700Z 20004KT 9999 FEW020 BKN150 24/24 Q1015

2010/08/09 17:00
FBSK 091700Z 22006KT CAVOK 16/03 Q1024 NOSIG

2010/08/09 17:00
FBFT 091700Z VRB02KT CAVOK 22/12 Q1021

2010/08/09 17:00
FBMN 091700Z 16005KT CAVOK 24/03 Q1020

2010/08/09 17:00
FBKE 091700Z 16006KT CAVOK 23/02 Q1020

2010/08/09 17:00
FABL 091700Z 22010KT CAVOK 06/M11 Q1027 NOSIG

2010/08/09 17:00
FACT 091700Z 16003KT 9999 FEW033 10/07 Q1034 NOSIG

2010/08/09 17:00
FAEL 091700Z 24024KT CAVOK 13/01 Q1025

2010/08/09 17:00
FAGG 091700Z 30010KT 9999 BKN040 09/07 Q1031

2010/08/09 17:00
FAJS 091700Z 22015KT CAVOK 09/M10 Q1026 NOSIG

2010/08/09 17:00
FAKN 091700Z 08009KT 8000 NSC 17/13 Q1020 NOSIG

2010/08/09 17:00
FALA 091700Z 20009KT 170V230 CAVOK 11/M10 Q1026 NOSIG

2010/08/09 17:00
FALE 091700Z 33004KT 9999 SCT045 12/10 Q1023 NOSIG

2010/08/09 17:00
FAMM 091700Z 17009KT CAVOK 11/M14 Q1026 NOSIG

2010/08/09 17:00
FAPE 091700Z 25027KT 2800 RA BKN036 10/08 Q1027 BECMG 6000

2010/08/09 17:00
FAPN 091700Z AUTO 21007KT //// // ////// 15/M11 Q1024

2010/08/09 17:00
FAPP 091700Z 18004KT 8000 NSC 20/M00 Q1021 NOSIG

2010/08/09 17:00
FAUP 091700Z 18004KT CAVOK 09/M08 Q1029 NOSIG

2010/08/09 17:00
FYLZ 091700Z AUTO 18017KT //// // ////// 15/02 Q1021

2010/08/09 17:00
FYOJ 091700Z AUTO 11005KT //// // ////// 25/M06 Q1019

2010/08/09 17:00
FYWB 091700Z 31004KT 280V340 4000 VV/// 18/08 Q1014 

2010/08/09 17:00
FYWH 091700Z AUTO 12008KT //// // ////// 14/M05 Q1028

2010/08/09 17:00
FYWW 091700Z 10007KT CAVOK 15/M05 Q1026

2010/08/09 17:00
FBFT 091700Z VRB02KT CAVOK 22/12 Q1021

2010/08/09 17:00
FBKE 091700Z 16006KT CAVOK 23/02 Q1020

2010/08/09 17:00
FBMN 091700Z 16005KT CAVOK 24/03 Q1020

2010/08/09 17:00
FBSK 091700Z 22006KT CAVOK 16/03 Q1024 NOSIG

2010/08/09 17:00
EICK 091700Z 30011KT 9999 SCT038 SCT250 18/08 Q1011 NOSIG

2010/08/09 17:00
EIDW 091700Z 26012KT 9999 FEW028 18/09 Q1009 NOSIG

2010/08/09 17:00
EIKN 091700Z 26017KT 9999 FEW018CB SCT022 BKN060 15/09 Q1009 NOSIG

2010/08/09 17:00
EINN 091700Z 26012KT 9999 SCT028 17/10 Q1011 NOSIG

2010/08/09 17:00
LEAB 091700Z 29004KT 250V320 CAVOK 33/10 Q1018 NOSIG

2010/08/09 17:00
LEAL 091700Z 06007KT 030V100 CAVOK 30/19 Q1014 NOSIG

2010/08/09 17:00
LEBA 091700Z 30005KT 240V350 9999 SCT070 39/09 Q1012

2010/08/09 17:00
LEBL 091700Z 20006KT 160V250 9999 FEW010 FEW025TCU 27/22 Q1014 NOSIG

2010/08/09 17:00
LEIB 091700Z 09007KT 060V120 CAVOK 27/21 Q1014 NOSIG

2010/08/09 17:00
LEMD 091700Z 26005KT 210V310 CAVOK 35/10 Q1016 NOSIG

2010/08/09 17:00
LEMG 091700Z 15007KT 110V170 CAVOK 29/19 Q1014 NOSIG

2010/08/09 17:00
LEPA 091700Z 23012KT CAVOK 28/19 Q1015 NOSIG

2010/08/09 17:00
LEPP 091700Z 34015KT 9999 SCT024 21/16 Q1020

2010/08/09 17:00
LETO 091700Z VRB02KT 9999 FEW050 33/11 Q1016 NOSIG

2010/08/09 17:00
LEVD 091700Z 27015KT 9999 FEW035TCU 31/07 Q1018

2010/08/09 17:00
LEXJ 091700Z 04006KT 9999 SCT025 SCT048 22/16 Q1020

2010/08/09 17:00
LEZL 091700Z 34008KT 290V020 CAVOK 39/11 Q1012 NOSIG

2010/08/09 17:00
LFKS 091700Z AUTO 04001KT 9999NDV NSC 26/18 Q1015

2010/08/09 17:00
LFMI 091700Z AUTO 17012KT 9999NDV NSC 24/20 Q1014

2010/08/09 17:00
LFMO 091700Z AUTO 19007KT 160V220 9999NDV NSC 31/18 Q1013

2010/08/09 17:00
LFOA 091700Z AUTO 31004KT 280V350 9999NDV NSC 27/08 Q1015

2010/08/09 17:00
LFOC 091700Z AUTO VRB04KT 9999NDV NSC 27/08 Q1015

2010/08/09 17:00
LFOE 091700Z AUTO 35008KT 320V020 9999NDV NSC 24/13 Q1016

2010/08/09 17:00
LFPV 091700Z AUTO 30003KT 250V020 9999NDV NSC 26/11 Q1015

2010/08/09 17:00
LFYR 091700Z AUTO 30005KT 240V340 //// // ///////// 28/08 Q1015

2010/08/09 17:00
LRBS 091700Z 04002KT CAVOK 29/20 Q1012 NOSIG

2010/08/09 17:00
LRCK 091700Z 36008KT CAVOK 30/19 Q1011 NOSIG

2010/08/09 17:00
LRTR 091700Z 33004KT CAVOK 26/16 Q1015

2010/08/09 17:00
SAAR 091700Z 05005KT CAVOK 16/03 Q1025

2010/08/09 17:00
SACO 091700Z 05015KT CAVOK 16/02 Q1025

2010/08/09 17:00
SADF 091700Z 00000KT CAVOK 18/06 Q1024

2010/08/09 17:00
SAEZ 091700Z VRB02KT CAVOK 18/05 Q1024

2010/08/09 17:00
SAME 091700Z 14004KT CAVOK 14/M05 Q1021

2010/08/09 17:00
SANT 091700Z 36002KT 6000 BKN100 17/04 Q1022

2010/08/09 17:00
SARE 091700Z 14006KT 9999 FEW025 SCT200 18/05 Q1023

2010/08/09 17:00
SARP 091700Z 11008KT CAVOK 17/08 Q1021

2010/08/09 17:00
SASA 091700Z 05002KT CAVOK 16/02 Q1022

2010/08/09 17:00
SASJ 091700Z 07008KT 8000 NSC 17/02 Q1021

2010/08/09 17:00
SAVC 091700Z 27018G31KT CAVOK 16/M01 Q1015

2010/08/09 17:00
SAWE 091700Z 25030KT 9999 FEW011 04/M02 Q0998

2010/08/09 17:00
SAWG 091700Z 23044G52KT 9999 FEW030 08/01 Q1004

2010/08/09 17:00
SAWH 091700Z 27015KT 2000 SN OVC012 M00/M02 Q0995

2010/08/09 17:00
SAZM 091700Z 29006KT CAVOK 15/04 Q1023

2010/08/09 17:00
SAZN 091700Z 23004KT CAVOK 12/M00 Q1023

2010/08/09 17:00
SAZS 091700Z 00000KT CAVOK 04/M02 Q1024

2010/08/09 17:00
DNIM 091700Z 24003KT 9999 FEW013 FEW020CB 25/23 Q1013

2010/08/09 17:00
DNAA 091700Z 28010KT 9999 SCT012 FEW020CB 23/18 Q1013 NOSIG

2010/08/09 17:00
DNIL 091700Z 29007KT 9999 SCT010 24/22 Q1011

2010/08/09 17:00
GMMH 091700Z 30012KT CAVOK 23/19 Q1012

2010/08/09 17:00
GMML 091700Z 32008KT CAVOK 29/18 Q1012

2010/08/09 17:00
ZBAA 091700Z 06002MPS 2000 BR NSC 26/23 Q1006 NOSIG

2010/08/09 17:00
ZBSJ 091700Z 04001MPS 1300 R33/1300N BR NSC 26/24 Q1006 NOSIG

2010/08/09 17:00
ZBTJ 091700Z 07001MPS 2200 BR NSC 26/24 Q1006 NOSIG

2010/08/09 17:00
ZBYN 091700Z 12002MPS 1800 -RA BR BKN040 23/21 Q1009 NOSIG

2010/08/09 17:00
ZGGG 091700Z 10003MPS CAVOK 30/25 Q1005 NOSIG

2010/08/09 17:00
ZSHC 091700Z 02002MPS CAVOK 29/25 Q1003

2010/08/09 17:00
ZSPD 091700Z 05005MPS 9999 BKN011 28/25 Q1003 NOSIG

2010/08/09 17:00
ZSSS 091700Z 06003MPS 020V090 9999 -SHRA BKN018 29/25 Q1003 NOSIG

2010/08/09 17:00
ZWSH 091700Z 26003MPS 200V290 CAVOK 28/08 Q1010 NOSIG

2010/08/09 17:00
ZWWW 091700Z 26004MPS 220V280 CAVOK 27/08 Q1008 NOSIG

2010/08/09 17:00
ZYTL 091700Z VRB01MPS 6000 BKN040 24/23 Q1007 NOSIG

2010/08/09 17:00
ZYTX 091700Z 00000MPS 9999 OVC030 22/21 Q1007 NOSIG

2010/08/09 16:50
ETUO 091650Z AUTO 33004KT 9999NDV // BKN050/// 21/14 Q1016

2010/08/09 17:00
LFBC 091700Z AUTO 26007KT 220V300 9999NDV FEW026 OVC039 22/14 Q1019

2010/08/09 17:00
LFBF 091700Z AUTO 29010KT 9999NDV // OVC037 23/17 Q1019

2010/08/09 17:00
LFBG 091700Z AUTO 26014KT 9999NDV NSC 24/14 Q1017

2010/08/09 17:00
LFBI 091700Z AUTO 26010KT 230V290 9999NDV NSC 28/12 Q1016

2010/08/09 17:00
LFBM 091700Z AUTO 30010KT 270V340 9999NDV SCT044 25/15 Q1019

2010/08/09 17:00
LFKS 091700Z AUTO 04001KT 9999NDV NSC 26/18 Q1015

2010/08/09 17:00
LFLX 091700Z AUTO 23005KT 9999NDV NSC 27/12 Q1015

2010/08/09 17:00
LFMI 091700Z AUTO 17012KT 9999NDV NSC 24/20 Q1014

2010/08/09 17:00
LFML 091700Z 19010KT 9999 FEW010 SCT140 26/21 Q1014 NOSIG

2010/08/09 17:00
LFMO 091700Z AUTO 19007KT 160V220 9999NDV NSC 31/18 Q1013

2010/08/09 17:00
LFOA 091700Z AUTO 31004KT 280V350 9999NDV NSC 27/08 Q1015

2010/08/09 17:00
LFOC 091700Z AUTO VRB04KT 9999NDV NSC 27/08 Q1015

2010/08/09 17:00
LFOE 091700Z AUTO 35008KT 320V020 9999NDV NSC 24/13 Q1016

2010/08/09 17:00
LFOJ 091700Z AUTO 29005KT 210V340 9999NDV NSC 28/08 Q1015

2010/08/09 17:00
LFPC 091700Z 24004KT 140V270 CAVOK 25/11 Q1015

2010/08/09 17:00
LFPG 091700Z 28004KT 250V310 CAVOK 26/11 Q1015 NOSIG

2010/08/09 17:00
LFPV 091700Z AUTO 30003KT 250V020 9999NDV NSC 26/11 Q1015

2010/08/09 17:00
LFQI 091700Z AUTO 30005KT 270V340 9999NDV NSC 24/12 Q1015

2010/08/09 17:00
LFQQ 091700Z 30005KT 270V330 CAVOK 24/12 Q1015 NOSIG

2010/08/09 17:00
LFSD 091700Z AUTO VRB02KT 9999NDV NSC 26/12 Q1015

2010/08/09 17:00
LFSF 091700Z AUTO VRB02KT 9999NDV NSC 25/09 Q1016

2010/08/09 17:00
LFSI 091700Z AUTO 35005KT 9999NDV NSC 25/11 Q1016

2010/08/09 17:00
LFSO 091700Z AUTO VRB02KT 9999NDV NSC 24/10 Q1016

2010/08/09 17:00
LFSR 091700Z AUTO VRB02KT 9999NDV NSC 25/12 Q1015

2010/08/09 17:00
LFSX 091700Z AUTO 28004KT 250V310 9999NDV NSC 25/10 Q1016

2010/08/09 17:00
LFYR 091700Z AUTO 30005KT 240V340 //// // ///////// 28/08 Q1015

2010/08/09 17:00
SBKP 091700Z 21006KT 9000 NSC 27/11 Q1020

2010/08/09 17:00
ZGKL 091700Z 19001MPS 3000 BR SKC 27/26 Q1005 NOSIG

2010/08/09 17:00
ZGNN 091700Z 23001MPS CAVOK 27/25 Q1005 NOSIG

2010/08/09 17:00
ZGOW 091700Z 22001MPS CAVOK 28/25 Q1005 NOSIG

2010/08/09 17:00
ZGSZ 091700Z VRB01MPS CAVOK 29/24 Q1005 NOSIG

2010/08/09 17:00
ZLXY 091700Z 05005MPS 4500 HZ SCT040CB BKN070 28/22 Q1004 NOSIG

2010/08/09 17:00
ZMUB 091700Z VRB01MPS CAVOK 09/00 Q1008 NOSIG RMK QFE649.9 54

2010/08/09 17:00
ZPPP 091700Z 10002MPS 060V170 9999 FEW026 21/16 Q1017 NOSIG

2010/08/09 17:00
ZSFZ 091700Z VRB01MPS CAVOK 29/23 Q1003 NOSIG

2010/08/09 17:00
ZSNB 091700Z 30003MPS CAVOK 27/26 Q1002 NOSIG

2010/08/09 17:00
ZSQD 091700Z 13003MPS 9999 FEW015 26/23 Q1006 NOSIG

2010/08/09 17:00
ZUUU 091700Z 00000MPS 4000 BR SCT040 27/24 Q1004 NOSIG

2010/08/09 17:00
LFBA 091700Z AUTO 29005KT 250V330 9999NDV SCT040 BKN046 23/16 Q1018

2010/08/09 17:00
LFBE 091700Z AUTO 27009KT 9999NDV BKN035 22/16 Q1018

2010/08/09 17:00
LFGJ 091700Z AUTO 34004KT 300V040 9999NDV NSC 27/10 Q1016

2010/08/09 17:00
LFJR 091700Z AUTO 31007KT 250V360 9999NDV NSC 28/09 Q1015

2010/08/09 17:00
LFMD 091700Z AUTO 18006KT 140V200 9999NDV FEW015 BKN034 OVC041 24/21 Q1015

2010/08/09 17:00
LFMH 091700Z AUTO 34008KT 300V010 9999NDV NSC 28/11 Q1015

2010/08/09 17:00
LFOT 091700Z AUTO VRB04KT 9999NDV NSC 29/09 Q1015

2010/08/09 17:00
LFPN 091700Z AUTO 25004KT 220V290 9999NDV NSC 27/10 Q1015

2010/08/09 17:00
LFRC 091700Z AUTO 23011KT 200V270 9999NDV FEW032 20/12 Q1016

2010/08/09 17:00
LFRG 091700Z AUTO 33004KT 290V010 9999NDV NSC 20/11 Q1017

2010/08/09 17:00
LFRK 091700Z 35007KT 310V030 CAVOK 21/12 Q1016 NOSIG

2010/08/09 16:50
ENSG 091650Z VRB04KT 9999 VCSH FEW025 SCT045 19/13 Q1009

2010/08/09 16:50
ENSS 091650Z 04011KT 2000 FG VV002 09/08 Q1016 

2010/08/09 17:00
LRBS 091700Z 04002KT CAVOK 29/20 Q1012 NOSIG

2010/08/09 17:00
LRCK 091700Z 36008KT CAVOK 30/19 Q1011 NOSIG

2010/08/09 17:00
LROP 091700Z VRB01KT CAVOK 28/20 Q1012 880///95 NOSIG

2010/08/09 17:00
LRSB 091700Z 00000KT 9999 SCT037 SCT083 23/18 Q1016

2010/08/09 17:00
LRTR 091700Z 33004KT CAVOK 26/16 Q1015

2010/08/09 17:00
LFMI 091700Z AUTO 17012KT 9999NDV NSC 24/20 Q1014

2010/08/09 17:00
LFMK 091700Z AUTO 27012KT 230V300 9999NDV FEW049/// BKN110/// OVC170/// //////CB 25/16 Q1017

2010/08/09 17:00
LFRD 091700Z AUTO 36007KT 320V040 9999NDV NSC 21/12 Q1017

2010/08/09 17:00
LFRN 091700Z AUTO 32006KT 260V010 9999NDV NSC 25/09 Q1016

2010/08/09 17:00
LFRO 091700Z AUTO 25010KT 9999NDV OVC026 19/16 Q1017

2010/08/09 17:00
LFRZ 091700Z AUTO 29011KT 260V320 9999NDV NSC 22/12 Q1017

2010/08/09 17:00
LFSB 091700Z 29005KT 240V340 CAVOK 26/10 Q1016 NOSIG

2010/08/09 17:00
LFST 091700Z 35004KT 9999 FEW053 SCT066 25/11 Q1016 NOSIG

2010/08/09 17:00
LFTH 091700Z AUTO 20004KT 160V230 9999NDV BKN012 BKN017 24/21 Q1015

2010/08/09 17:00
LFCR 091700Z AUTO 27013KT 9999NDV BKN045 23/16 Q1019

2010/08/09 17:00
LFJL 091700Z AUTO VRB03KT 9999NDV NSC 24/08 Q1016

2010/08/09 17:00
LFLP 091700Z AUTO 22007KT 170V240 9999NDV NSC 27/12 Q1016

2010/08/09 17:00
LFLS 091700Z AUTO 36007KT 9999NDV NSC 28/14 Q1015

2010/08/09 17:00
LFLY 091700Z AUTO 01006KT 320V100 9999NDV FEW054 29/13 Q1014

2010/08/09 17:00
LFMT 091700Z 20009KT CAVOK 23/19 Q1014 NOSIG

2010/08/09 17:00
LFMU 091700Z AUTO 18013KT 9999NDV NSC 25/18 Q1014

2010/08/09 17:00
LFOB 091700Z AUTO 30005KT 260V040 9999NDV NSC 26/10 Q1015

2010/08/09 17:00
LFOH 091700Z AUTO 35008KT 9999NDV NSC 19/10 Q1016

2010/08/09 17:00
LFOK 091700Z AUTO VRB03KT 9999NDV NSC 25/08 Q1016

2010/08/09 17:00
LFOP 091700Z AUTO 29008KT 260V330 9999NDV NSC 23/13 Q1016

2010/08/09 17:00
LFPB 091700Z AUTO VRB03KT 9999NDV NSC 27/12 Q1015

2010/08/09 17:00
LFSN 091700Z VRB02KT CAVOK 24/11 Q1016 NOSIG

2010/08/09 17:00
LFBD 091700Z 26009KT 9999 FEW026 BKN040 22/13 Q1018 NOSIG

2010/08/09 17:00
LFBH 091700Z AUTO 29016KT 9999NDV NSC 21/12 Q1018

2010/08/09 17:00
LFBI 091700Z AUTO 26010KT 230V290 9999NDV NSC 28/12 Q1016

2010/08/09 17:00
LFBL 091700Z AUTO 26009KT 210V300 9999NDV FEW035 SCT042 23/15 Q1018

2010/08/09 17:00
LFBO 091700Z 29012KT 9999 SCT028 BKN036 23/16 Q1019 NOSIG

2010/08/09 17:00
LFBP 091700Z 23004KT 120V270 9999 FEW016 BKN035 21/18 Q1019 NOSIG

2010/08/09 17:00
LFBT 091700Z 24006KT 190V270 9999 FEW006 BKN023 18/16 Q1020 NOSIG

2010/08/09 17:00
LFBZ 091700Z 32007KT 290V360 9999 FEW018 BKN050 22/17 Q1020 NOSIG

2010/08/09 17:00
LFLB 091700Z AUTO 28005KT 250V340 9999NDV NSC 28/16 Q1014

2010/08/09 17:00
LFLX 091700Z AUTO 23005KT 9999NDV NSC 27/12 Q1015

2010/08/09 17:00
LFML 091700Z 19010KT 9999 FEW010 SCT140 26/21 Q1014 NOSIG

2010/08/09 17:00
LJCE 091700Z AUTO 07005KT 9999NDV NSC 24/16 Q1016

2010/08/09 17:00
LKCV 091700Z 32003KT 280V010 9999 FEW037 SCT110 22/14 Q1016 NOSIG

2010/08/09 17:00
LKKB 091700Z 28007KT CAVOK 22/13 Q1016 NOSIG

2010/08/09 17:00
LKLN 091700Z AUTO 00000KT CAVOK 21/15 Q1017

2010/08/09 17:00
LKNA 091700Z 34005KT 310V020 9999 FEW040TCU FEW040 SCT070 21/12 Q1017 NOSIG

2010/08/09 17:00
LKPD 091700Z 27003KT 9999 FEW036 BKN100 21/15 Q1016 NOSIG

2010/08/09 17:00
LKPO 091700Z VRB02KT 9999 FEW043 22/15 Q1016 NOSIG

2010/08/09 17:00
LFLL 091700Z 04008KT 010V090 CAVOK 28/13 Q1015 NOSIG

2010/08/09 17:00
LFPG 091700Z 28004KT 250V310 CAVOK 26/11 Q1015 NOSIG

2010/08/09 17:00
LFPO 091700Z VRB02KT CAVOK 27/10 Q1015 NOSIG

2010/08/09 17:00
LFQQ 091700Z 30005KT 270V330 CAVOK 24/12 Q1015 NOSIG

2010/08/09 17:00
LFRB 091700Z 23010KT 8000 OVC006 17/16 Q1018

2010/08/09 17:00
LFRS 091700Z 27010KT 240V300 CAVOK 25/12 Q1016 NOSIG

2010/08/09 17:00
LJLJ 091700Z 12006KT 9999 FEW040 23/16 Q1016 NOSIG

2010/08/09 17:00
LJMB 091700Z 11003KT 110V190 9999 FEW030 23/16 Q1017

2010/08/09 17:00
LJPZ 091700Z 26003KT 220V330 CAVOK 28/17 Q1014

2010/08/09 17:00
LEAS 091700Z 06006KT 010V100 9999 SCT016 BKN029 21/17 Q1020 NOSIG

2010/08/09 17:00
LEBB 091700Z 35007KT 310V020 9999 SCT030 BKN045 23/17 Q1020 NOSIG

2010/08/09 17:00
LECO 091700Z 36007KT 310V030 CAVOK 24/17 Q1018

2010/08/09 17:00
LEGE 091700Z VRB06G18KT 1500 TS SHRA FEW018 SCT030CB 21/20 Q1016

2010/08/09 17:00
LEST 091700Z 35011KT 320V030 CAVOK 26/16 Q1018 NOSIG

2010/08/09 17:00
LESO 091700Z 36004KT 300V080 9999 FEW020 BKN040 22/17 Q1020

2010/08/09 17:00
LEVT 091700Z 05012KT 020V090 9999 FEW020 SCT030 22/15 Q1020

2010/08/09 17:00
LERS 091700Z 20005KT 150V250 9999 FEW025TCU 28/18 Q1014

2010/08/09 17:00
LEMH 091700Z 17005KT 140V210 CAVOK 27/18 Q1016

2010/08/09 17:00
LEAM 091700Z 24007KT CAVOK 26/23 Q1014

2010/08/09 17:00
LEGR 091700Z VRB03G13KT 9999 FEW090 38/09 Q1016

2010/08/09 17:00
LERL 091700Z VRB01KT 9999 FEW060TCU 32/10 Q1018

2010/08/09 17:00
OIAW 091700Z 21004KT CAVOK 40/12 Q0996 A2942

2010/08/09 17:00
OIFM 091700Z 05006KT 9999 FEW040 28/M02 Q1015 A2999

2010/08/09 17:00
OIKB 091700Z 11004KT 8000 NSC 33/27 Q0997 A2945

2010/08/09 17:00
OIKK 091700Z 34006KT CAVOK 25/M01 Q1015 A2999

2010/08/09 17:00
OIMM 091700Z 17004KT CAVOK 27/00 Q1013 A2994

2010/08/09 17:00
OISS 091700Z 09004KT CAVOK 31/M04 Q1012 A2988

2010/08/09 17:00
OITT 091700Z 03020KT 9999 FEW040 FEW045CB 28/06 Q1014 A2996

2010/08/09 17:00
OIZH 091700Z 27004KT CAVOK 29/M03 Q1009 A2982

2010/08/09 17:00
LFKB 091700Z 14003KT 9999 FEW025 SCT210 25/20 Q1015 NOSIG

2010/08/09 17:00
LFKC 091700Z 01012KT 9999 FEW018 25/20 Q1016 NOSIG

2010/08/09 17:00
LFKF 091700Z 19004KT 9999 FEW080 SCT150 BKN260 27/14 Q1015 NOSIG

2010/08/09 17:00
LFKJ 091700Z VRB02KT CAVOK 28/15 Q1015 NOSIG

2010/08/09 17:00
LFLC 091700Z 03005KT 360V060 9999 SCT060 SCT083 25/14 Q1016 NOSIG

2010/08/09 17:00
LFMP 091700Z 23003KT 9999 FEW050 FEW060CB BKN150 27/17 Q1015 NOSIG

2010/08/09 17:00
LFMV 091700Z AUTO 23007KT 190V270 9999NDV NSC 30/19 Q1013

2010/08/09 17:00
LFSL 091700Z AUTO 24005KT 190V280 9999NDV NSC 23/15 Q1018

2010/08/09 17:00
LFAQ 091700Z AUTO 29005KT 240V320 9999NDV NSC 24/13 Q1015

2010/08/09 17:00
LFBU 091700Z AUTO 24011KT 9999NDV FEW041 25/14 Q1017

2010/08/09 17:00
LFLN 091700Z AUTO 33007KT 280V020 9999NDV NSC 26/15 Q1016

2010/08/09 17:00
LFPM 091700Z AUTO 00000KT 9999NDV NSC 25/11 Q1015

2010/08/09 17:00
LFRH 091700Z 27015KT CAVOK 20/14 Q1018

2010/08/09 17:00
LFRQ 091700Z AUTO 27009KT 240V300 9999NDV OVC011 18/15 Q1018

2010/08/09 17:00
LFRT 091700Z AUTO 04006KT 010V070 9999NDV SCT046 19/14 Q1017

2010/08/09 17:00
LFSD 091700Z AUTO VRB02KT 9999NDV NSC 26/12 Q1015

2010/08/09 17:00
LFTW 091700Z AUTO 22008KT 180V250 9999NDV NSC 28/18 Q1014

2010/08/09 17:00
LCLK 091700Z 21012KT CAVOK 29/26 Q1004 NOSIG

2010/08/09 17:00
LCPH 091700Z 29011KT 9999 FEW013 29/26 Q1005

2010/08/09 17:00
RKSI 091700Z 06004KT 9999 SCT040 BKN120 28/21 Q1008 NOSIG

2010/08/09 17:00
RKSS 091700Z 11002KT 9999 SCT040 BKN120 26/22 Q1008 NOSIG 

2010/08/09 17:00
RKPC 091700Z 22003KT 6000 -SHRA BKN020 BKN110 28/25 Q1006 NOSIG 

2010/08/09 17:00
RKJB 091700Z AUTO 08005KT3000NDV ///108 27/24 Q1008 

2010/08/09 17:00
RKNY 091700Z AUTO 20003KT3000NDV NCD 23/21 Q1008 

2010/08/09 17:00
LFCR 091700Z AUTO 27013KT 9999NDV BKN045 23/16 Q1019

2010/08/09 17:00
LFJL 091700Z AUTO VRB03KT 9999NDV NSC 24/08 Q1016

2010/08/09 17:00
LFKB 091700Z 14003KT 9999 FEW025 SCT210 25/20 Q1015 NOSIG

2010/08/09 17:00
LFKJ 091700Z VRB02KT CAVOK 28/15 Q1015 NOSIG

2010/08/09 17:00
LFLC 091700Z 03005KT 360V060 9999 SCT060 SCT083 25/14 Q1016 NOSIG

2010/08/09 17:00
LFLN 091700Z AUTO 33007KT 280V020 9999NDV NSC 26/15 Q1016

2010/08/09 17:00
LFLS 091700Z AUTO 36007KT 9999NDV NSC 28/14 Q1015

2010/08/09 17:00
LFLY 091700Z AUTO 01006KT 320V100 9999NDV FEW054 29/13 Q1014

2010/08/09 17:00
LFMK 091700Z AUTO 27012KT 230V300 9999NDV FEW049/// BKN110/// OVC170/// //////CB 25/16 Q1017

2010/08/09 17:00
LFMP 091700Z 23003KT 9999 FEW050 FEW060CB BKN150 27/17 Q1015 NOSIG

2010/08/09 17:00
LFMT 091700Z 20009KT CAVOK 23/19 Q1014 NOSIG

2010/08/09 17:00
LFMU 091700Z AUTO 18013KT 9999NDV NSC 25/18 Q1014

2010/08/09 17:00
LFOB 091700Z AUTO 30005KT 260V040 9999NDV NSC 26/10 Q1015

2010/08/09 17:00
LFOH 091700Z AUTO 35008KT 9999NDV NSC 19/10 Q1016

2010/08/09 17:00
LFOP 091700Z AUTO 29008KT 260V330 9999NDV NSC 23/13 Q1016

2010/08/09 17:00
LFPM 091700Z AUTO 00000KT 9999NDV NSC 25/11 Q1015

2010/08/09 17:00
LFRD 091700Z AUTO 36007KT 320V040 9999NDV NSC 21/12 Q1017

2010/08/09 17:00
LFRH 091700Z 27015KT CAVOK 20/14 Q1018

2010/08/09 17:00
LFRN 091700Z AUTO 32006KT 260V010 9999NDV NSC 25/09 Q1016

2010/08/09 17:00
LFRO 091700Z AUTO 25010KT 9999NDV OVC026 19/16 Q1017

2010/08/09 17:00
LFRQ 091700Z AUTO 27009KT 240V300 9999NDV OVC011 18/15 Q1018

2010/08/09 17:00
LFRT 091700Z AUTO 04006KT 010V070 9999NDV SCT046 19/14 Q1017

2010/08/09 17:00
LFRZ 091700Z AUTO 29011KT 260V320 9999NDV NSC 22/12 Q1017

2010/08/09 17:00
LFSB 091700Z 29005KT 240V340 CAVOK 26/10 Q1016 NOSIG

2010/08/09 17:00
LFST 091700Z 35004KT 9999 FEW053 SCT066 25/11 Q1016 NOSIG

2010/08/09 17:00
LFTH 091700Z AUTO 20004KT 160V230 9999NDV BKN012 BKN017 24/21 Q1015

2010/08/09 17:00
LFTW 091700Z AUTO 22008KT 180V250 9999NDV NSC 28/18 Q1014

2010/08/09 17:00
LFBD 091700Z 26009KT 9999 FEW026 BKN040 22/13 Q1018 NOSIG

2010/08/09 17:00
LFBI 091700Z AUTO 26010KT 230V290 9999NDV NSC 28/12 Q1016

2010/08/09 17:00
LFBL 091700Z AUTO 26009KT 210V300 9999NDV FEW035 SCT042 23/15 Q1018

2010/08/09 17:00
LFBO 091700Z 29012KT 9999 SCT028 BKN036 23/16 Q1019 NOSIG

2010/08/09 17:00
LFBP 091700Z 23004KT 120V270 9999 FEW016 BKN035 21/18 Q1019 NOSIG

2010/08/09 17:00
LFBT 091700Z 24006KT 190V270 9999 FEW006 BKN023 18/16 Q1020 NOSIG

2010/08/09 17:00
LFBZ 091700Z 32007KT 290V360 9999 FEW018 BKN050 22/17 Q1020 NOSIG

2010/08/09 17:00
LFLB 091700Z AUTO 28005KT 250V340 9999NDV NSC 28/16 Q1014

2010/08/09 17:00
LFLL 091700Z 04008KT 010V090 CAVOK 28/13 Q1015 NOSIG

2010/08/09 17:00
LFLX 091700Z AUTO 23005KT 9999NDV NSC 27/12 Q1015

2010/08/09 17:00
LFML 091700Z 19010KT 9999 FEW010 SCT140 26/21 Q1014 NOSIG

2010/08/09 17:00
LFOJ 091700Z AUTO 29005KT 210V340 9999NDV NSC 28/08 Q1015

2010/08/09 17:00
LFPB 091700Z AUTO VRB03KT 9999NDV NSC 27/12 Q1015

2010/08/09 17:00
LFPC 091700Z 24004KT 140V270 CAVOK 25/11 Q1015

2010/08/09 17:00
LFPG 091700Z 28004KT 250V310 CAVOK 26/11 Q1015 NOSIG

2010/08/09 17:00
LFPO 091700Z VRB02KT CAVOK 27/10 Q1015 NOSIG

2010/08/09 17:00
LFQI 091700Z AUTO 30005KT 270V340 9999NDV NSC 24/12 Q1015

2010/08/09 17:00
LFQQ 091700Z 30005KT 270V330 CAVOK 24/12 Q1015 NOSIG

2010/08/09 17:00
LFRB 091700Z 23010KT 8000 OVC006 17/16 Q1018

2010/08/09 17:00
LFRS 091700Z 27010KT 240V300 CAVOK 25/12 Q1016 NOSIG

2010/08/09 17:00
LFSD 091700Z AUTO VRB02KT 9999NDV NSC 26/12 Q1015

2010/08/09 17:00
LFSF 091700Z AUTO VRB02KT 9999NDV NSC 25/09 Q1016

2010/08/09 17:00
LFSI 091700Z AUTO 35005KT 9999NDV NSC 25/11 Q1016

2010/08/09 17:00
LFSN 091700Z VRB02KT CAVOK 24/11 Q1016 NOSIG

2010/08/09 17:00
LFSO 091700Z AUTO VRB02KT 9999NDV NSC 24/10 Q1016

2010/08/09 17:00
LFSR 091700Z AUTO VRB02KT 9999NDV NSC 25/12 Q1015

2010/08/09 17:00
LFSX 091700Z AUTO 28004KT 250V310 9999NDV NSC 25/10 Q1016

2010/08/09 16:56
KHLR 091656Z AUTO 15007KT 130V200 10SM CLR 34/20 A2998 RMK AO2 SLP140 T03440200 $

2010/08/09 16:59
NSTU 091659Z 10015KT 10SM SCT017 BKN040 27/24 A2996 RMK SLP146 T02690242

2010/08/09 16:56
PHNY 091656Z AUTO 00000KT 10SM CLR 22/17 A3013 RMK AO2 TSNO T02160172 SLP182 $

2010/08/09 16:55
PHSF 091655Z VRB06KT 7SM CLR 13/M06 A3031 RMK SLPNO

2010/08/09 16:56
PWAK 091656Z 07012KT 10SM FEW023 27/24 A3003 RMK AO2A

2010/08/09 17:00
RJSM 091700Z 11005KT 0400 R10/0600VP1800D FG VV000 23/22 Q1014 RMK A2995 R1000

2010/08/09 17:00
RJTT 091700Z 18007KT 9999 FEW012 SCT050 BKN070 26/23 Q1015 RMK 1CU012 3SC050 5AC070 A2998

2010/08/09 17:00
KNEL 091700Z AUTO VRB06KT 8SM SCT060 33/15 A3000 RMK AO2 SLP159 T03330150 $

2010/08/09 16:56
KNFL 091656Z COR 20005KT 10SM FEW070 SCT220 26/06 A2998 RMK AO2 SLP124 T02560061

2010/08/09 16:59
KNGU 091659Z 07006KT 7SM FEW040 BKN250 30/21 A3006 RMK AO2 SLP178 CONTRAILS T03000206

2010/08/09 16:56
KNID 091656Z 22003KT 10SM CLR 27/03 A2993 RMK AO2 SLP115 T02720033 $

2010/08/09 16:56
KNSE 091656Z 13006KT 9SM SCT030 SCT130 33/24 A2999 RMK AO2 SLP138 T03330239 $

2010/08/09 16:56
KNSI 091656Z 02004KT 7SM OVC009 14/13 A2994 RMK AO2 SLP134 T01440128 TSNO

2010/08/09 16:55
KNYL 091655Z 00000KT 10SM FEW080 33/02 A2981 RMK AO2 SLP091 T03330022

2010/08/09 16:55
KOSC 091655Z AUTO 06008KT 10SM SCT008 BKN020 24/21 A2991 RMK AO2

2010/08/09 16:55
KRCA 091655Z 16014KT 10SM SCT150 30/17 A2994 RMK AO2A SLP110 T02990174

2010/08/09 16:55
PHSF 091655Z VRB06KT 7SM CLR 13/M06 A3031 RMK SLPNO

2010/08/09 17:00
LFBD 091700Z 26009KT 9999 FEW026 BKN040 22/13 Q1018 NOSIG

2010/08/09 17:00
LFBL 091700Z AUTO 26009KT 210V300 9999NDV FEW035 SCT042 23/15 Q1018

2010/08/09 17:00
LFBO 091700Z 29012KT 9999 SCT028 BKN036 23/16 Q1019 NOSIG

2010/08/09 17:00
LFBP 091700Z 23004KT 120V270 9999 FEW016 BKN035 21/18 Q1019 NOSIG

2010/08/09 17:00
LFBT 091700Z 24006KT 190V270 9999 FEW006 BKN023 18/16 Q1020 NOSIG

2010/08/09 17:00
LFBZ 091700Z 32007KT 290V360 9999 FEW018 BKN050 22/17 Q1020 NOSIG

2010/08/09 17:00
LFCR 091700Z AUTO 27013KT 9999NDV BKN045 23/16 Q1019

2010/08/09 17:00
LFJL 091700Z AUTO VRB03KT 9999NDV NSC 24/08 Q1016

2010/08/09 17:00
LFLB 091700Z AUTO 28005KT 250V340 9999NDV NSC 28/16 Q1014

2010/08/09 17:00
LFLL 091700Z 04008KT 010V090 CAVOK 28/13 Q1015 NOSIG

2010/08/09 17:00
LFLN 091700Z AUTO 33007KT 280V020 9999NDV NSC 26/15 Q1016

2010/08/09 17:00
LFLS 091700Z AUTO 36007KT 9999NDV NSC 28/14 Q1015

2010/08/09 17:00
LFLY 091700Z AUTO 01006KT 320V100 9999NDV FEW054 29/13 Q1014

2010/08/09 17:00
LFMK 091700Z AUTO 27012KT 230V300 9999NDV FEW049/// BKN110/// OVC170/// //////CB 25/16 Q1017

2010/08/09 17:00
LFMT 091700Z 20009KT CAVOK 23/19 Q1014 NOSIG

2010/08/09 17:00
LFMU 091700Z AUTO 18013KT 9999NDV NSC 25/18 Q1014

2010/08/09 17:00
LFOB 091700Z AUTO 30005KT 260V040 9999NDV NSC 26/10 Q1015

2010/08/09 17:00
LFOH 091700Z AUTO 35008KT 9999NDV NSC 19/10 Q1016

2010/08/09 17:00
LFOP 091700Z AUTO 29008KT 260V330 9999NDV NSC 23/13 Q1016

2010/08/09 17:00
LFPB 091700Z AUTO VRB03KT 9999NDV NSC 27/12 Q1015

2010/08/09 17:00
LFPM 091700Z AUTO 00000KT 9999NDV NSC 25/11 Q1015

2010/08/09 17:00
LFPO 091700Z VRB02KT CAVOK 27/10 Q1015 NOSIG

2010/08/09 17:00
LFRB 091700Z 23010KT 8000 OVC006 17/16 Q1018

2010/08/09 17:00
LFRH 091700Z 27015KT CAVOK 20/14 Q1018

2010/08/09 17:00
LFRQ 091700Z AUTO 27009KT 240V300 9999NDV OVC011 18/15 Q1018

2010/08/09 17:00
LFRS 091700Z 27010KT 240V300 CAVOK 25/12 Q1016 NOSIG

2010/08/09 17:00
LFRT 091700Z AUTO 04006KT 010V070 9999NDV SCT046 19/14 Q1017

2010/08/09 17:00
LFSN 091700Z VRB02KT CAVOK 24/11 Q1016 NOSIG

2010/08/09 17:02
CYFC 091702Z AUTO 20007KT 2 1/2SM +RA BR BKN009 OVC012 20/19 A2990 RMK SLP125 DENSITY ALT 600FT RVR MISG

2010/08/09 17:03
CYFC 091703Z AUTO 20006KT 3SM +RA BR BKN009 OVC014 20/19 A2990 RMK SLP125 DENSITY ALT 600FT PCPN 0.5MM PAST HR RVR MISG

2010/08/09 17:03
CYKJ 091703Z AUTO 10005KT 6SM -RA OVC007 16/15 A2976 RMK SLP090 DENSITY ALT 2300FT

2010/08/09 17:03
CYKZ 091703Z 24005KT 12SM -RA FEW030 BKN090 OVC120 RMK CU2AC3AS2

2010/08/09 17:03
CYSF 091703Z AUTO 08011KT 3SM HZ BKN023 OVC049 17/14 A2977 RMK SLP089 DENSITY ALT 1300FT

2010/08/09 17:03
ETAD 091703Z AUTO 21004KT 9999 FEW055 SCT070 22/10 A3002 RMK AO2 SLP160 $

2010/08/09 17:00
ETSH 091700Z 31008KT 9999 FEW028 BKN090 22/14 Q1016 BLU FCST CANCEL

2010/08/09 17:01
KDLF 091701Z AUTO 11011G15KT 10SM BKN024 30/23 A2996 RMK AO2 SLP127

2010/08/09 17:01
KHST 091701Z VRB04KT 1 1/2SM R05/5000VP6000FT +RA BR SCT002 SCT009 OVC013 24/24 A2997 RMK AO2A SLP150

2010/08/09 16:58
KLSV 091658Z AUTO VRB04KT 10SM -DZ CLR 29/10 A2994 RMK AO2 DZB1658 SLP124

2010/08/09 16:59
KNQX 091659Z 15004KT 8SM -RA SCT020CB SCT030 BKN050 OVC200 28/24 A2994 RMK AO2 CB OHD MOV S T1 SET P0001 $

2010/08/09 16:58
PAGA 091658Z AUTO 12008KT 10SM FEW008 BKN012 OVC055 13/11 A2945 RMK AO2

2010/08/09 17:00
PASC 091700Z 06020KT 2SM BR OVC003 03/03 A2976 RMK AO2

2010/08/09 16:59
RODN 091659Z 18017G26KT 9999 -RA BKN018 BKN025 28/26 A2972 RMK AO2A RAB1659 CIG 016V021 BKN018 V SCT SLP064

2010/08/09 17:00
TIST 091700Z 11017G25KT 2 1/2SM +RA BR SCT016 BKN029 BKN040 27/25 A2999 RMK AO2 P0008

2010/08/09 17:01
YBRM 091701Z AUTO 12017G27KT 9999NDV // NCD 19/01 Q1017

2010/08/09 16:50
BGBW 091650Z 03004KT 9999 FEW010 SCT015 BKN075 13/09 Q1008 RMK 1ST 3SC 7AC

2010/08/09 17:00
BIAR 091700Z 35013KT CAVOK 15/11 Q1011

2010/08/09 17:00
BIEG 091700Z 36012KT 9999 FEW040 18/12 Q1010

2010/08/09 17:00
BIKF 091700Z 30007KT 9999 BKN007 12/08 Q1013

2010/08/09 17:00
BIRK 091700Z 27006KT 9999 BKN010 12/10 Q1013

2010/08/09 16:56
K79J 091656Z 13010KT 10SM FEW042 34/23 A2998 RMK AO2 SLP148 T03440228 PNO $

2010/08/09 16:55
KBIX 091655Z 03008KT 10SM FEW028 SCT130 34/24 A2996 RMK AO2A SLP146 WND DATA ESTMD ALSTG/SLP ESTMD

2010/08/09 16:50
KEFD 091650Z 00000KT 10SM BKN020 34/25 A2999

2010/08/09 16:56
KHLR 091656Z AUTO 15007KT 130V200 10SM CLR 34/20 A2998 RMK AO2 SLP140 T03440200 $

2010/08/09 16:47
KIWA 091647Z VRB03KT 45SM SCT120 36/11 A2992

2010/08/09 16:55
KLFI 091655Z 12006KT 10SM CLR 29/22 A3004 RMK AO2A SLP175 T02940223

2010/08/09 16:55
KLUF 091655Z VRB05KT 6SM HZ CLR 34/05 A2988 RMK AO2A SLP089 T03400054 $

2010/08/09 16:56
KNBC 091656Z 03009G15KT 7SM FEW030 SCT200 33/21 A3000 RMK AO2 SLP157 T03280206

2010/08/09 16:57
KNJM 091657Z AUTO 13006KT 10SM FEW045 SCT065 28/24 A3005 RMK AO2 SLP178 T02830239

2010/08/09 16:56
KNRS 091656Z 26007KT 10SM BKN017 19/13 A2994 RMK AO2 SLP138 T01890133

2010/08/09 16:55
KSVN 091655Z 07010G18KT 12SM FEW041 FEW250 35/23 A2998 RMK SLP155 WND DATA ESTMD ALSTG/SLP ESTMD

2010/08/09 16:56
PPIZ 091656Z AUTO 06020G32KT 10SM OVC011 03/01 A2970 RMK AO2 TSNO T00270005 PK WND 07032/1621 SLP060 $

2010/08/09 16:55
KQPD 091655Z AUTO 21003KT 8000 33/01 A2960 RMK AO2 SLP926 T03250010 $

2010/08/09 16:55
KQPV 091655Z AUTO 36003KT 9000 CLR 41/04 A2956 RMK AO2 SLP003 T04120042

2010/08/09 16:55
KQWM 091655Z 34006KT 9999 FEW140 SCT230 43/02 A2947 RMK SLP966 QNH998

2010/08/09 16:55
KQXJ 091655Z 31008KT 3200 DU HZ FEW000 40/M01 A2948 RMK DU FEW000 SLP982 PA+431 DA+3409

2010/08/09 17:00
TNCM 091700Z 10008KT 9999 SCT019 30/25 Q1015

2010/08/09 17:01
KDLF 091701Z AUTO 11011G15KT 10SM BKN024 30/23 A2996 RMK AO2 SLP127

2010/08/09 17:01
KHST 091701Z VRB04KT 1 1/2SM R05/5000VP6000FT +RA BR SCT002 SCT009 OVC013 24/24 A2997 RMK AO2A SLP150

2010/08/09 16:58
KLSV 091658Z AUTO VRB04KT 10SM -DZ CLR 29/10 A2994 RMK AO2 DZB1658 SLP124

2010/08/09 17:00
ZBHH 091700Z 08002MPS CAVOK 14/08 Q1012 NOSIG

2010/08/09 17:00
ZGHA 091700Z 08001MPS 4000 BR SKC 29/28 Q1003 NOSIG

2010/08/09 17:00
ZHCC 091700Z 35002MPS 310V030 4000 BR SCT040 25/24 Q1005 NOSIG

2010/08/09 17:00
ZHHH 091700Z 11003MPS 3500 BR SKC 30/28 Q1003 NOSIG

2010/08/09 17:00
ZJHK 091700Z 13001MPS CAVOK 26/24 Q1004 NOSIG

2010/08/09 17:00
ZJSY 091700Z 34003MPS 320V030 9999 FEW015 26/24 Q1005 NOSIG

2010/08/09 17:00
ZLLL 091700Z 36002MPS CAVOK 16/13 Q1015 NOSIG

2010/08/09 17:00
ZSNJ 091700Z 09004MPS CAVOK 28/24 Q1004 NOSIG

2010/08/09 17:00
ZSOF 091700Z 09002MPS 7000 SKC 27/23 Q1003 NOSIG

2010/08/09 17:00
ZUCK 091700Z VRB01MPS CAVOK 31/22 Q1003 NOSIG

2010/08/09 17:00
ZYCC 091700Z 18002MPS 9999 FEW030 18/17 Q1007 NOSIG

2010/08/09 17:00
ZYHB 091700Z 19002MPS CAVOK 15/14 Q1006 NOSIG

2010/08/09 17:00
TDCF 091700Z 00000KT 9999 SCT020 SCT240 31/24 Q1014

2010/08/09 17:05
CYFC 091705Z AUTO 20008KT 3SM RA BR BKN009 BKN014 20/19 A2990 RMK SLP125 DENSITY ALT 600FT PCPN 0.5MM PAST HR RVR MISG

2010/08/09 17:00
BIAR 091700Z 35013KT CAVOK 15/11 Q1011

2010/08/09 17:00
BIEG 091700Z 36012KT 9999 FEW040 18/12 Q1010

2010/08/09 17:00
BIKF 091700Z 30007KT 9999 BKN007 12/08 Q1013

2010/08/09 17:00
BIRK 091700Z 27006KT 9999 BKN010 12/10 Q1013

2010/08/09 17:00
KNEL 091700Z AUTO VRB06KT 8SM SCT060 33/15 A3000 RMK AO2 SLP159 T03330150 $

2010/08/09 16:56
KNFL 091656Z COR 20005KT 10SM FEW070 SCT220 26/06 A2998 RMK AO2 SLP124 T02560061

2010/08/09 16:55
KNYL 091655Z 00000KT 10SM FEW080 33/02 A2981 RMK AO2 SLP091 T03330022

2010/08/09 16:55
KRCA 091655Z 16014KT 10SM SCT150 30/17 A2994 RMK AO2A SLP110 T02990174

2010/08/09 17:00
LKKV 091700Z 27004KT CAVOK 18/13 Q1017

2010/08/09 17:00
MGHT 091700Z 18006KT 9999 FEW022 BKN200 24/14 QFE 818/2

2010/08/09 17:00
MGPB 091700Z 36006KT 9999 SCT020 SCT200 31/26 Q1012 A29/88

2010/08/09 17:00
MGZA 091700Z 00000KT 9999 FEW016 BKN200 31/25

2010/08/09 17:00
MRLB 091700Z 00000KT 9999 FEW030 BKN130 30724 A2990 RMK FEW240 RA DST NE

2010/08/09 17:00
MTPP 091700Z 09012KT 9000 FEW030TCU SCT250 34/22 Q1014 A2995

2010/08/09 17:00
SCAS 091700Z 24018KT 9999 SCT023 09/04 Q1024

2010/08/09 17:00
SCGZ 091700Z 26028G42KT 2500 -SHSN SCT013 BKN030 M00/M00 Q0993

2010/08/09 17:00
SCNT 091700Z 29014KT 230V340 9999 SCT015 BKN120 07/M00 Q1010

2010/08/09 17:00
SCON 091700Z AUTO 24008KT 9999 ///015 09/06 Q1025

2010/08/09 17:00
SCSE 091700Z 27008KT 9999 FEW016 OVC018 13/09 Q1019 NEFO PLAYA 2700FT

2010/08/09 17:00
SCTB 091700Z 23003KT CAVOK 19/M01 Q1016

2010/08/09 17:00
TAPA 091700Z 09014KT 9999 FEW020TCU SCT060 BKN250 30/25 Q1014 TCU-ENE

2010/08/09 17:00
TBPB 091700Z 17012KT 9999 FEW014CB SCT036 30/25 Q1014 NOSIG

2010/08/09 17:00
TFFF 091700Z 08010KT 030V120 9999 FEW016 SCT025 BKN280 32/25 Q1014 TEMPO -SHRA

2010/08/09 16:55
ETIH 091655Z AUTO 32003KT 9999 FEW080 21/16 A3006 RMK AO2 SLP168 T02150159 $

2010/08/09 17:00
LFBA 091700Z AUTO 29005KT 250V330 9999NDV SCT040 BKN046 23/16 Q1018

2010/08/09 17:00
LFBE 091700Z AUTO 27009KT 9999NDV BKN035 22/16 Q1018

2010/08/09 17:00
LFGJ 091700Z AUTO 34004KT 300V040 9999NDV NSC 27/10 Q1016

2010/08/09 17:00
LFKB 091700Z 14003KT 9999 FEW025 SCT210 25/20 Q1015 NOSIG

2010/08/09 17:00
LFKC 091700Z 01012KT 9999 FEW018 25/20 Q1016 NOSIG

2010/08/09 17:00
LFKF 091700Z 19004KT 9999 FEW080 SCT150 BKN260 27/14 Q1015 NOSIG

2010/08/09 17:00
LFKJ 091700Z VRB02KT CAVOK 28/15 Q1015 NOSIG

2010/08/09 17:00
LFLC 091700Z 03005KT 360V060 9999 SCT060 SCT083 25/14 Q1016 NOSIG

2010/08/09 17:00
LFMD 091700Z AUTO 18006KT 140V200 9999NDV FEW015 BKN034 OVC041 24/21 Q1015

2010/08/09 17:00
LFMH 091700Z AUTO 34008KT 300V010 9999NDV NSC 28/11 Q1015

2010/08/09 17:00
LFMP 091700Z 23003KT 9999 FEW050 FEW060CB BKN150 27/17 Q1015 NOSIG

2010/08/09 17:00
LFOT 091700Z AUTO VRB04KT 9999NDV NSC 29/09 Q1015

2010/08/09 17:00
LFPN 091700Z AUTO 25004KT 220V290 9999NDV NSC 27/10 Q1015

2010/08/09 17:00
LFRC 091700Z AUTO 23011KT 200V270 9999NDV FEW032 20/12 Q1016

2010/08/09 17:00
LFRD 091700Z AUTO 36007KT 320V040 9999NDV NSC 21/12 Q1017

2010/08/09 17:00
LFRK 091700Z 35007KT 310V030 CAVOK 21/12 Q1016 NOSIG

2010/08/09 17:00
LFRN 091700Z AUTO 32006KT 260V010 9999NDV NSC 25/09 Q1016

2010/08/09 17:00
LFRO 091700Z AUTO 25010KT 9999NDV OVC026 19/16 Q1017

2010/08/09 17:00
LFRZ 091700Z AUTO 29011KT 260V320 9999NDV NSC 22/12 Q1017

2010/08/09 17:00
LFSB 091700Z 29005KT 240V340 CAVOK 26/10 Q1016 NOSIG

2010/08/09 17:00
LFSL 091700Z AUTO 24005KT 190V280 9999NDV NSC 23/15 Q1018

2010/08/09 17:00
LFST 091700Z 35004KT 9999 FEW053 SCT066 25/11 Q1016 NOSIG

2010/08/09 17:00
LFTH 091700Z AUTO 20004KT 160V230 9999NDV BKN012 BKN017 24/21 Q1015

2010/08/09 17:00
LFTW 091700Z AUTO 22008KT 180V250 9999NDV NSC 28/18 Q1014

2010/08/09 17:00
GOSM 091700Z 28002KT 9999 SCT020TCU BKN230 34/25 Q1010

2010/08/09 17:00
GOTT 091700Z 30004KT 9999 BKN013 TCU SCT130 31/25 Q1010

2010/08/09 17:00
GOOD 091700Z 28004KT 9999 SCT013 33/27 Q1012

2010/08/09 17:00
GOGS 091700Z 24006KT 9999 SCT015 TCU SCT130 30/26 Q1012

2010/08/09 17:00
GOGG 091700Z 24006KT 9999 BKN016TCU SCT130 30/26 Q1012

2010/08/09 17:00
GOSS 091700Z 32010KT 260V350 9999 FEW016 31/25 Q1010

2010/08/09 17:00
OIAA 091700Z 18004KT CAVOK 37/20 Q0996

2010/08/09 17:00
OIBK 091700Z 32004KT 7000 NSC 33/29 Q0996 A2944

2010/08/09 17:00
OICC 091700Z 00000KT 9999 FEW045 28/M06 Q1011 A2987 863.4

2010/08/09 17:00
OIGG 091700Z 00000KT CAVOK 27/22 Q1009 A2980

2010/08/09 17:00
OIIE 091700Z 06008KT CAVOK 31/02 Q1011 A2985

2010/08/09 17:00
OIYY 091700Z 03004KT CAVOK 31/M05 Q1013 A2993

2010/08/09 17:04
K47A 091704Z AUTO 00000KT 10SM SCT031 SCT037 32/19 A3008 RMK AO2 LTG DSNT NE AND SW

2010/08/09 17:00
KDRI 091700Z AUTO 26004KT 10SM SCT041 33/25 A3000 RMK AO2

2010/08/09 17:00
KI16 091700Z AUTO 29003KT 10SM CLR 30/20 A3005 RMK AO2

2010/08/09 17:01
KIDI 091701Z AUTO 00000KT 10SM CLR 28/16 A3006 RMK AO2

2010/08/09 17:00
KJFZ 091700Z AUTO VRB06KT 10SM CLR 29/20 A3015 RMK

2010/08/09 17:00
KLNP 091700Z AUTO 25006KT 10SM SCT040 29/19 A3017 RMK AO1

2010/08/09 17:02
KMFV 091702Z AUTO 15004KT 10SM BKN040 BKN060 31/24 A3004 RMK AO2

2010/08/09 17:00
KMKJ 091700Z AUTO 27005KT 10SM SCT039 SCT046 29/11 A3020 RMK AO1

2010/08/09 17:00
KMQS 091700Z AUTO 18004KT 7SM SCT035 31/22 A3006 RMK AO2

2010/08/09 17:00
KMTV 091700Z AUTO 20005KT 10SM CLR 33/23 A3007 RMK AO2

2010/08/09 17:00
KOBE 091700Z AUTO 18006KT 10SM SCT055 SCT080 30/23 A2994 RMK AO2

2010/08/09 17:00
KOKV 091700Z AUTO 27005KT 10SM CLR 35/16 A3002 RMK AO2 T03460163

2010/08/09 17:00
KOMH 091700Z AUTO 17007KT 10SM SCT043 SCT050 33/23 A3003 RMK AO2 T03310226

2010/08/09 17:00
KOPN 091700Z AUTO 10007KT 057V117 10SM CLR 34/23 A3005 RMK AO1

2010/08/09 17:00
KPCM 091700Z AUTO 12008KT 10SM SCT024 BKN034 BKN044 32/25 A2994 RMK AO2

2010/08/09 17:02
KPGV 091702Z AUTO 11005KT 10SM CLR 32/20 A3004 RMK AO2 LTG DSNT S

2010/08/09 17:00
KPSK 091700Z AUTO 00000KT 10SM CLR 31/16 A3014 RMK AO2 LTG DSNT S

2010/08/09 17:00
KRCZ 091700Z AUTO 00000KT 10SM CLR 32/22 A3003 RMK AO2 T03210217

2010/08/09 17:03
KRHP 091703Z AUTO 26005KT SCT110 31/22 A3011 RMK AO2 PWINO

2010/08/09 17:00
KRMN 091700Z AUTO 22007KT 10SM SCT044 32/23 A3005 RMK AO2

2010/08/09 17:00
KSFQ 091700Z AUTO 13004KT 10SM SCT043 32/23 A3004 RMK AO2

2010/08/09 17:00
KSHD 091700Z AUTO 25006KT 10SM CLR 32/21 A3006 RMK AO2

2010/08/09 17:00
KSVH 091700Z AUTO 00000KT 10SM SCT033 30/23 A3005 RMK AO2 T02980228

2010/08/09 17:00
KTMA 091700Z AUTO 07007KT 10SM SCT045 32/20 A3000 RMK AO2 T03190198

2010/08/09 17:00
KTVI 091700Z AUTO 08012G15KT 10SM CLR 34/20 A2999 RMK AO2 T03440199

2010/08/09 17:00
KVDI 091700Z AUTO 06013G17KT 10SM SCT043 SCT049 35/22 A3001 RMK AO2

2010/08/09 17:00
KVJI 091700Z AUTO 30004KT 10SM SCT055 31/22 A3013 RMK AO2 TSNO

2010/08/09 17:00
KW22 091700Z AUTO 00000KT 10SM CLR 29/20 A3009 RMK AO2

2010/08/09 17:00
KW45 091700Z AUTO 21007KT 10SM CLR 32/21 A3002 RMK AO2 T03220206

2010/08/09 17:00
KWDR 091700Z AUTO 00000KT 10SM CLR 32/21 A3009 RMK AO1

2010/08/09 16:55
KRHV 091655Z 17011KT 10SM SKC 18/12 A2992

2010/08/09 17:03
KMFI 091703Z AUTO 30004KT 7SM OVC011 27/23 A2993 RMK AO2

2010/08/09 17:04
KOSH 091704Z 25005KT 10SM OVC016 26/22 A2991 RMK AO2

2010/08/09 17:03
PAKV 091703Z AUTO 00000KT 2 1/2SM -RA BR OVC008 12/12 A2946 RMK AO2 P0000 TSNO

2010/08/09 17:00
MNRS 091700Z 06004KT 9999 FEW015CB BKN016 29/26 Q1012 CB/4C

2010/08/09 17:00
MNJG 091700Z 00000KT 9999 CHECK TEXT NEW ENDING ADDED KATLYTAA 

2010/08/09 17:00
MNRS 091700Z 06004KT 9999 FEW015CB BKN016 29/26 Q1012 CB/4C

2010/08/09 17:00
MNJG 091700Z 00000KT 9999 BKN019 24/20 Q1013

2010/08/09 17:00
MNJU 091700Z 06004KT 9999 FEW020 SCT080 29/24 Q1012

2010/08/09 17:00
MNCH 091700Z 00000KT 9999 FEW025 SCT300 31/24 Q1012

2010/08/09 17:00
MNBL 091700Z 08006KT 8000 -TS FEW016CB SCT080 30/27 Q1012 CBRA/W/NW

2010/08/09 17:00
SVMC 091700Z 36003KT 9999 FEW010 CB BKN013 32/27 Q1012

2010/08/09 17:00
SVJC 091700Z 09006KT 9999 SCT040 33/22 Q1010

2010/08/09 17:00
SVSA 091700Z 16007KT 9999 FEW020 34/22 Q1014

2010/08/09 17:00
SVCR 091700Z 00000KT 9999 SCT030 34/24 Q1011

2010/08/09 17:00
SVVG 091700Z 00000KT 9999 SCT020 XX/XX Q1012

2010/08/09 17:00
SVSZ 091700Z 00000KT 9999 BKN012 XX/XX Q1011

2010/08/09 17:00
SVMD 091700Z 22010KT 9999 SCT040 XX/XX Q1020

2010/08/09 17:00
SVPM 091700Z 18015KT 9999 SCT060 XX/XX Q1016

2010/08/09 17:00
SVLF 091700Z 00000KT CAVOK XX/XX Q1012

2010/08/09 17:00
LHBP 091700Z 30009KT CAVOK 22/14 Q1017 NOSIG

2010/08/09 17:00
MNRS 091700Z 06004KT 9999 FEW015CB BKN016 29/26 Q1012 CB/4C

2010/08/09 17:00
MNJG 091700Z 00000KT 9999 CHECK TEXT NEW ENDING ADDED KATLYTAA 

2010/08/09 17:00
UBBN 091700Z 09014KT 9999 SCT050CB BKN100 30/09 Q1009 R14R/CLRD60 NOSIG RMK G/O QFE682

2010/08/09 17:00
FOON 091700Z 29002KT 9999 OVC015 24/21 Q1015

2010/08/09 17:00
FOOG 091700Z /////KT 9999 SCT006 OVC023 25/21 Q1014

2010/08/09 17:00
FLLS 091700Z 11004KT CAVOK 18/10 Q1022

2010/08/09 17:00
FQBR 091700Z 09009KT CAVOK 22/21 Q1016

2010/08/09 17:00
FVHA 091700Z 01004KT 8000 SKC 18/05 Q1023 NOSIG

2010/08/09 16:50
EGEC 091650Z AUTO 26006KT 9999NDV // FEW030/// 14/12 Q1008

2010/08/09 16:50
EGPU 091650Z AUTO 23010KT 9999NDV // FEW017/// 14/12 Q1005

2010/08/09 17:00
NWWW 091700Z AUTO 03003KT 9999NDV NCD 16/13 Q1022

2010/08/09 17:00
SPHO 091700Z VRB03KT CAVOK 21/06 Q1027 RMK PP000

2010/08/09 17:00
SPHY 091700Z 34004KT CAVOK 10/00 Q1026 RMK PP000

2010/08/09 17:00
SPJL 091700Z 03006KT 330V100 CAVOK 15/M11 Q1039 RMK PP000

2010/08/09 17:00
SPME 091700Z 29008KT 9999 FEW020 27/23 Q1014 RMK BIRD HAZARD RWY 32/14 PP000

2010/08/09 17:00
SPTU 091700Z 15005KT 9999 FEW015 32/24 Q1016 RMK PP000

2010/08/09 17:01
KMLJ 091701Z AUTO 00000KT 10SM CLR 32/23 A3003 RMK AO2 LTG DSNT E

2010/08/09 17:01
KMRN 091701Z AUTO 20004KT 10SM CLR 32/21 A3012 RMK AO2

2010/08/09 17:02
KMWK 091702Z AUTO 20005KT 7SM SCT030 31/22 A3008 RMK AO2

2010/08/09 17:01
KPTB 091701Z AUTO 12000KT 10SM SCT050 34/ A3002 RMK AO2

2010/08/09 17:01
KTNB 091701Z AUTO 33007KT 10SM CLR 28/16 A3020 RMK AO2

2010/08/09 17:04
KTTA 091704Z AUTO 12003KT 10SM CLR 33/22 A3004 RMK AO2

2010/08/09 17:02
KBGE 091702Z AUTO 07014G20KT 10SM CLR 34/20 A2998 RMK AO2

2010/08/09 17:01
KCWV 091701Z AUTO 07010KT 10SM CLR 34/24 A3000 RMK AO2 T03420240

2010/08/09 17:15
KFDW 091715Z AUTO 34003KT 10SM CLR 33/18 A3005 RMK AO1

2010/08/09 17:04
K47A 091704Z AUTO 00000KT 10SM SCT031 SCT037 32/19 A3008 RMK AO2 LTG DSNT NE AND SW

2010/08/09 17:01
KIDI 091701Z AUTO 00000KT 10SM CLR 28/16 A3006 RMK AO2

2010/08/09 17:02
KMFV 091702Z AUTO 15004KT 10SM BKN040 BKN060 31/24 A3004 RMK AO2

2010/08/09 17:02
KPGV 091702Z AUTO 11005KT 10SM CLR 32/20 A3004 RMK AO2 LTG DSNT S

2010/08/09 17:03
KRHP 091703Z AUTO 26005KT SCT110 31/22 A3011 RMK AO2 PWINO

2010/08/09 17:00
DIAP 091700Z 25008KT 220V280 8000 SCT011 BKN080 27/23 Q1013 NOSIG

2010/08/09 17:00
DNAA 091700Z 28010KT 9999 SCT012 FEW020CB 23/18 Q1013 NOSIG

2010/08/09 17:00
DNIL 091700Z 29007KT 9999 SCT010 24/22 Q1011

2010/08/09 17:00
DNMM 091700Z VRB02KT 9999 BKN010 26/24 Q1013 NOSIG

2010/08/09 17:00
DXXX 091700Z VRB03KT 8000 SCT011 FEW020CB BKN086 26/23 Q1012 TEMPO TS

2010/08/09 16:56
PWAK 091656Z 07012KT 10SM FEW023 27/24 A3003 RMK AO2A

2010/08/09 17:00
KNEL 091700Z AUTO VRB06KT 8SM SCT060 33/15 A3000 RMK AO2 SLP159 T03330150 $

2010/08/09 16:56
KNFL 091656Z COR 20005KT 10SM FEW070 SCT220 26/06 A2998 RMK AO2 SLP124 T02560061

2010/08/09 16:59
KNGU 091659Z 07006KT 7SM FEW040 BKN250 30/21 A3006 RMK AO2 SLP178 CONTRAILS T03000206

2010/08/09 16:56
KNID 091656Z 22003KT 10SM CLR 27/03 A2993 RMK AO2 SLP115 T02720033 $

2010/08/09 16:56
KNSI 091656Z 02004KT 7SM OVC009 14/13 A2994 RMK AO2 SLP134 T01440128 TSNO

2010/08/09 16:55
KNYL 091655Z 00000KT 10SM FEW080 33/02 A2981 RMK AO2 SLP091 T03330022

2010/08/09 16:55
KRCA 091655Z 16014KT 10SM SCT150 30/17 A2994 RMK AO2A SLP110 T02990174

2010/08/09 16:55
PHSF 091655Z VRB06KT 7SM CLR 13/M06 A3031 RMK SLPNO

2010/08/09 16:56
KHLR 091656Z AUTO 15007KT 130V200 10SM CLR 34/20 A2998 RMK AO2 SLP140 T03440200 $

2010/08/09 16:55
PHSF 091655Z VRB06KT 7SM CLR 13/M06 A3031 RMK SLPNO

2010/08/09 16:56
PWAK 091656Z 07012KT 10SM FEW023 27/24 A3003 RMK AO2A

2010/08/09 16:56
K79J 091656Z 13010KT 10SM FEW042 34/23 A2998 RMK AO2 SLP148 T03440228 PNO $

2010/08/09 16:55
KBIX 091655Z 03008KT 10SM FEW028 SCT130 34/24 A2996 RMK AO2A SLP146 WND DATA ESTMD ALSTG/SLP ESTMD

2010/08/09 16:56
KHLR 091656Z AUTO 15007KT 130V200 10SM CLR 34/20 A2998 RMK AO2 SLP140 T03440200 $

2010/08/09 16:55
KLFI 091655Z 12006KT 10SM CLR 29/22 A3004 RMK AO2A SLP175 T02940223

2010/08/09 16:55
KLUF 091655Z VRB05KT 6SM HZ CLR 34/05 A2988 RMK AO2A SLP089 T03400054 $

2010/08/09 16:56
KNBC 091656Z 03009G15KT 7SM FEW030 SCT200 33/21 A3000 RMK AO2 SLP157 T03280206

2010/08/09 16:57
KNJM 091657Z AUTO 13006KT 10SM FEW045 SCT065 28/24 A3005 RMK AO2 SLP178 T02830239

2010/08/09 16:56
KNRS 091656Z 26007KT 10SM BKN017 19/13 A2994 RMK AO2 SLP138 T01890133

2010/08/09 16:55
KSVN 091655Z 07010G18KT 12SM FEW041 FEW250 35/23 A2998 RMK SLP155 WND DATA ESTMD ALSTG/SLP ESTMD

2010/08/09 17:00
KNEL 091700Z AUTO VRB06KT 8SM SCT060 33/15 A3000 RMK AO2 SLP159 T03330150 $

2010/08/09 16:56
KNFL 091656Z COR 20005KT 10SM FEW070 SCT220 26/06 A2998 RMK AO2 SLP124 T02560061

2010/08/09 16:55
KNYL 091655Z 00000KT 10SM FEW080 33/02 A2981 RMK AO2 SLP091 T03330022

2010/08/09 16:55
KRCA 091655Z 16014KT 10SM SCT150 30/17 A2994 RMK AO2A SLP110 T02990174

2010/08/09 17:01
KDLF 091701Z AUTO 11011G15KT 10SM BKN024 30/23 A2996 RMK AO2 SLP127

2010/08/09 17:01
KHST 091701Z VRB04KT 1 1/2SM R05/5000VP6000FT +RA BR SCT002 SCT009 OVC013 24/24 A2997 RMK AO2A SLP150

2010/08/09 16:58
KLSV 091658Z AUTO VRB04KT 10SM -DZ CLR 29/10 A2994 RMK AO2 DZB1658 SLP124

2010/08/09 16:59
KNQX 091659Z 15004KT 8SM -RA SCT020CB SCT030 BKN050 OVC200 28/24 A2994 RMK AO2 CB OHD MOV S T1 SET P0001 $

2010/08/09 17:00
GBYD 091700Z 27008KT 9999 SCT012 30/23 Q1012

2010/08/09 16:50
LSMA 091650Z AUTO VRB01KT 9999NDV NCD 24/15 Q1016 RMK BLU

2010/08/09 16:50
LSMD 091650Z AUTO VRB01KT 9999NDV NCD 25/13 Q1016 RMK BLU

2010/08/09 16:50
LSME 091650Z AUTO VRB02KT 9999NDV NCD 26/13 Q1016 RMK BLU

2010/08/09 16:50
LSMM 091650Z AUTO 05008KT 020V090 9999NDV FEW060 24/14 Q1016 RMK BLU

2010/08/09 16:50
LSMP 091650Z AUTO 30004KT 270V350 9999NDV NCD 26/13 Q1016 RMK BLU

2010/08/09 17:00
KIXA 091700Z AUTO 10005KT 10SM CLR 32/21 A3002 RMK AO2 T03210208

2010/08/09 17:00
KJES 091700Z AUTO 05009G15KT 10SM CLR 34/25 A2999 RMK AO2 T03410253

2010/08/09 17:00
KJGG 091700Z AUTO 15004KT 10SM CLR 33/17 A3004 RMK AO1

2010/08/09 17:00
KJKA 091700Z AUTO 10010G17KT 10SM CLR 34/27 A2998 RMK AO2 LTG DSNT S T03440266

2010/08/09 16:59
KJYL 091659Z AUTO 09005KT 10SM SCT044 33/24 A3002 RMK AO2 LTG DSNT E

2010/08/09 17:00
KJYO 091700Z AUTO 00000KT 7SM SCT047 33/20 A3002 RMK AO2

2010/08/09 17:00
KLDJ 091700Z AUTO 25006KT 7SM SCT060 SCT070 32/17 A2999 RMK AO2 T03240169

2010/08/09 17:00
KLHZ 091700Z AUTO 00000KT 10SM SCT041 32/21 A3006 RMK AO2 T03200211

2010/08/09 17:00
KLKU 091700Z AUTO 21005KT 10SM SCT044 32/21 A3003 RMK AO2

2010/08/09 17:00
KMGR 091700Z AUTO 05008KT 357V067 10SM SCT047 SCT060 34/20 A3000 RMK AO2

2010/08/09 17:00
KSIF 091700Z AUTO 19003KT 7SM SCT043 32/21 A3005 RMK AO2 T03150213

2010/08/09 17:00
KSUT 091700Z AUTO 09006KT 10SM CLR 28/22 A3003 RMK AO2

2010/08/09 17:00
KTPF 091700Z AUTO 13003KT 10SM SCT027 BKN035 BKN048 31/26 A2992 RMK AO2

2010/08/09 17:00
KUNV 091700Z AUTO 34003KT 10SM CLR 29/15 A3005 RMK AO2 T02910151

2010/08/09 16:56
KVDF 091656Z AUTO 06006KT 10SM SCT023 SCT031 SCT100 32/25 A2992 RMK AO2

2010/08/09 16:58
KVUJ 091658Z AUTO 33005KT 10SM SCT048 SCT055 BKN090 33/22 A3004 RMK AO2

2010/08/09 16:55
KVVG 091655Z AUTO 11007KT 30/25 A2994 RMK AO2

2010/08/09 16:59
KW99 091659Z AUTO 32003KT 10SM CLR 32/14 A3003 RMK AO2

2010/08/09 17:00
K1A5 091700Z AUTO 00000KT 10SM CLR 31/18 A3012 RMK AO2 T03050181

2010/08/09 16:59
K3I2 091659Z AUTO 20003KT 7SM CLR 31/19 A3004 RMK AO2

2010/08/09 17:00
K3J7 091700Z AUTO 00000KT 10SM CLR 33/22 A3001 RMK AO2 T03270220

2010/08/09 16:58
K8A0 091658Z AUTO 22004KT 10SM CLR 34/20 A3003 RMK AO2

2010/08/09 17:00
KUXL 091700Z AUTO 28006KT 10SM SCT039 SCT046 35/25 A2998 RMK AO2

2010/08/09 16:58
KACP 091658Z AUTO 27005KT 10SM SCT037 34/24 A2997 RMK AO2

2010/08/09 16:50
KAEG 091650Z 00000KT 10SM FEW120 23/12 A3020

2010/08/09 17:00
KAFP 091700Z AUTO 00000KT 10SM CLR 33/21 A3004 RMK AO2 T03260208

2010/08/09 17:00
KALX 091700Z AUTO 00000KT 10SM CLR 33/23 A3002 RMK AO1

2010/08/09 17:00
KBQK 091700Z AUTO 05009G14KT 030V090 10SM BKN025 BKN038 OVC045 31/26 A2999 RMK AO1 LTG DSNT E T03100261 PNO

2010/08/09 17:00
KCCO 091700Z AUTO 00000KT 10SM CLR 32/24 A3006 RMK AO1

2010/08/09 17:00
KCDH 091700Z AUTO 32003KT 10SM CLR 34/23 A2996 RMK AO2

2010/08/09 16:55
KCLS 091655Z AUTO 20003KT 10SM OVC016 15/12 A3001 RMK AO2

2010/08/09 17:00
KCPC 091700Z AUTO 08005KT 10SM SCT039 32/22 A3002 RMK AO2 T03240216

2010/08/09 17:00
KCTJ 091700Z AUTO 17004KT 10SM SCT042 BKN050 OVC065 32/22 A3007 RMK AO2 T03150223

2010/08/09 16:58
KDNN 091658Z AUTO 21004KT 10SM CLR 32/22 A3003 RMK AO2

2010/08/09 16:55
KEMV 091655Z AUTO 13003KT 10SM CLR 32/22 A3004 RMK AO2 LTG DSNT SE

2010/08/09 17:00
KEYF 091700Z AUTO 14004KT 10SM CLR 33/21 A3003 RMK AO2 T03270210

2010/08/09 16:57
KEZF 091657Z AUTO 20005KT 10SM CLR 34/24 A2999 RMK AO2 T03380238

2010/08/09 17:00
KF24 091700Z AUTO 00000KT 10SM CLR 35/22 A3001 RMK AO2 T03480218

2010/08/09 17:00
KFFA 091700Z AUTO 08005KT 10SM CLR 28/24 A3006 RMK AO2 T02840239

2010/08/09 17:00
KFKN 091700Z AUTO 00000KT 10SM CLR 33/21 A3003 RMK AO1

2010/08/09 16:57
KFVX 091657Z AUTO 18005KT 10SM CLR 33/24 A3001 RMK AO2

2010/08/09 17:00
KGAO 091700Z AUTO 01005KT 10SM CLR 33/25 A2999 RMK AO2 LTG DSNT E AND S

2010/08/09 16:55
KGHG 091655Z AUTO 21007KT 360V010 10SM FEW039 SCT100 31/21 A2997 RMK AO2

2010/08/09 17:00
KGWW 091700Z AUTO 00000KT 10SM CLR 32/22 A3004 RMK AO2 T03170220

2010/08/09 17:00
KHDC 091700Z AUTO 02003KT 10SM SCT031 SCT041 OVC050 34/28 A3000 RMK AO2

2010/08/09 17:00
KHNZ 091700Z AUTO 19006KT 10SM SCT045 SCT075 SCT085 32/20 A3004 RMK AO2 T03190200

2010/08/09 16:58
KHOE 091658Z AUTO 09007KT 10SM SCT043 33/22 A2999 RMK AO2 T03290219

2010/08/09 17:00
KHSP 091700Z AUTO 00000KT 7SM SCT026 23/18 A3025 RMK AO2

2010/08/09 17:00
KHWY 091700Z AUTO 17009KT 10SM CLR 33/20 A3000 RMK AO2

2010/08/09 17:00
KIER 091700Z AUTO 00000KT 10SM CLR 36/25 A2997 RMK AO2 PWINO

2010/08/09 17:00
KIPJ 091700Z AUTO 00000KT 10SM SCT041 33/21 A3006 RMK AO2 T03270205

2010/08/09 16:50
ENBO 091650Z 02010KT 340V060 9999 FEW012 15/11 Q1011 NOSIG

2010/08/09 17:00
MNPC 091700Z 08010KT 6000 VCRA BKN018TCU 30/26 Q1012 TCURA/W

2010/08/09 17:00
MNRS 091700Z 06004KT 9999 FEW015CB BKN016 29/26 Q1012 CB/4C

2010/08/09 17:00
MNJG 091700Z 00000KT 9999 BKN019 24/20 Q1013

2010/08/09 17:00
MNJU 091700Z 06004KT 9999 FEW020 SCT080 29/24 Q1012

2010/08/09 17:00
MNCH 091700Z 00000KT 9999 FEW025 SCT300 31/24 Q1012

2010/08/09 17:00
MNBL 091700Z 08006KT 8000 -TS FEW016CB SCT080 30/27 Q1012 CBRA/W/NW

2010/08/09 17:00
FOOG 091700Z /////KT 9999 SCT006 OVC023 25/21 Q1014

2010/08/09 17:00
FOOL 091700Z VRB03KT 8000 SCT008 OVC033 24/23 Q1013 NOSIG

2010/08/09 17:00
FOON 091700Z 29002KT 9999 OVC015 24/21 Q1015

2010/08/09 16:50
LSZS 091650Z 22013KT 190V250 9999 FEW090 16/11 Q1020

2010/08/09 16:50
HLLB 091650Z 33018KT 9999 SCT020 26/19 Q1013

2010/08/09 16:55
HLLT 091655Z HLLT 04008KT CAVOK 28/16 Q1015

2010/08/09 17:00
SBPP 091700Z 27004KT CAVOK 28/15 Q1019

2010/08/09 17:00
KJNX 091700Z AUTO 00000KT 10SM CLR 31/21 A3003 RMK AO2

2010/08/09 16:55
KJQF 091655Z 00000KT 7SM SCT042 SCT055 34/20 A3005

2010/08/09 17:00
KAYS 091700Z AUTO 07013G17KT 10SM SCT090 A2998 RMK AO1

2010/08/09 16:58
KDBN 091658Z AUTO 04007KT 10SM CLR 33/22 A3000 RMK AO1

2010/08/09 16:56
PHNY 091656Z AUTO 00000KT 10SM CLR 22/17 A3013 RMK AO2 TSNO T02160172 SLP182 $

2010/08/09 17:02
KTQE 091702Z AUTO 35003KT 9SM OVC015 28/24 A2986 RMK AO2

2010/08/09 17:02
KXNA 091702Z 19008KT 10SM CLR 34/21 A3000 RMK AO2

2010/08/09 17:03
KMFI 091703Z AUTO 30004KT 7SM OVC011 27/23 A2993 RMK AO2

2010/08/09 16:58
PAGA 091658Z AUTO 12008KT 10SM FEW008 BKN012 OVC055 13/11 A2945 RMK AO2

2010/08/09 17:00
PASC 091700Z 06020KT 2SM BR OVC003 03/03 A2976 RMK AO2

2010/08/09 17:00
TIST 091700Z 11017G25KT 2 1/2SM +RA BR SCT016 BKN029 BKN040 27/25 A2999 RMK AO2 P0008

2010/08/09 17:04
KOSH 091704Z 25005KT 10SM OVC016 26/22 A2991 RMK AO2

2010/08/09 17:03
PAKV 091703Z AUTO 00000KT 2 1/2SM -RA BR OVC008 12/12 A2946 RMK AO2 P0000 TSNO

2010/08/09 17:00
MKJS 091700Z 06011KT 9999 FEW024 BKN220 31/24 Q1013

2010/08/09 16:56
PANW 091656Z AUTO 19008KT 7SM OVC005 10/09 A2954 RMK AO2 PWINO TSNO T01000088 CIG 002V007 SLP979 $

2010/08/09 17:00
KDRI 091700Z AUTO 26004KT 10SM SCT041 33/25 A3000 RMK AO2

2010/08/09 17:00
KI16 091700Z AUTO 29003KT 10SM CLR 30/20 A3005 RMK AO2

2010/08/09 17:00
KJFZ 091700Z AUTO VRB06KT 10SM CLR 29/20 A3015 RMK

2010/08/09 17:00
KLNP 091700Z AUTO 25006KT 10SM SCT040 29/19 A3017 RMK AO1

2010/08/09 17:00
KMKJ 091700Z AUTO 27005KT 10SM SCT039 SCT046 29/11 A3020 RMK AO1

2010/08/09 17:00
KMQS 091700Z AUTO 18004KT 7SM SCT035 31/22 A3006 RMK AO2

2010/08/09 17:00
KMTV 091700Z AUTO 20005KT 10SM CLR 33/23 A3007 RMK AO2

2010/08/09 17:00
KOBE 091700Z AUTO 18006KT 10SM SCT055 SCT080 30/23 A2994 RMK AO2

2010/08/09 17:00
KOKV 091700Z AUTO 27005KT 10SM CLR 35/16 A3002 RMK AO2 T03460163

2010/08/09 17:00
KOMH 091700Z AUTO 17007KT 10SM SCT043 SCT050 33/23 A3003 RMK AO2 T03310226

2010/08/09 17:00
KOPN 091700Z AUTO 10007KT 057V117 10SM CLR 34/23 A3005 RMK AO1

2010/08/09 17:00
KPCM 091700Z AUTO 12008KT 10SM SCT024 BKN034 BKN044 32/25 A2994 RMK AO2

2010/08/09 17:00
KPSK 091700Z AUTO 00000KT 10SM CLR 31/16 A3014 RMK AO2 LTG DSNT S

2010/08/09 17:00
KRCZ 091700Z AUTO 00000KT 10SM CLR 32/22 A3003 RMK AO2 T03210217

2010/08/09 17:00
KRMN 091700Z AUTO 22007KT 10SM SCT044 32/23 A3005 RMK AO2

2010/08/09 17:00
KSFQ 091700Z AUTO 13004KT 10SM SCT043 32/23 A3004 RMK AO2

2010/08/09 17:00
KSHD 091700Z AUTO 25006KT 10SM CLR 32/21 A3006 RMK AO2

2010/08/09 17:00
KSVH 091700Z AUTO 00000KT 10SM SCT033 30/23 A3005 RMK AO2 T02980228

2010/08/09 17:00
KTMA 091700Z AUTO 07007KT 10SM SCT045 32/20 A3000 RMK AO2 T03190198

2010/08/09 17:00
KTVI 091700Z AUTO 08012G15KT 10SM CLR 34/20 A2999 RMK AO2 T03440199

2010/08/09 17:00
KVDI 091700Z AUTO 06013G17KT 10SM SCT043 SCT049 35/22 A3001 RMK AO2

2010/08/09 17:00
KVJI 091700Z AUTO 30004KT 10SM SCT055 31/22 A3013 RMK AO2 TSNO

2010/08/09 17:00
KW22 091700Z AUTO 00000KT 10SM CLR 29/20 A3009 RMK AO2

2010/08/09 17:00
KW45 091700Z AUTO 21007KT 10SM CLR 32/21 A3002 RMK AO2 T03220206

2010/08/09 17:00
KWDR 091700Z AUTO 00000KT 10SM CLR 32/21 A3009 RMK AO1

2010/08/09 16:56
KNSE 091656Z 13006KT 9SM SCT030 SCT130 33/24 A2999 RMK AO2 SLP138 T03330239 $

2010/08/09 16:55
KOSC 091655Z AUTO 06008KT 10SM SCT008 BKN020 24/21 A2991 RMK AO2

2010/08/09 16:50
KEFD 091650Z 00000KT 10SM BKN020 34/25 A2999

2010/08/09 16:47
KIWA 091647Z VRB03KT 45SM SCT120 36/11 A2992

2010/08/09 16:56
PPIZ 091656Z AUTO 06020G32KT 10SM OVC011 03/01 A2970 RMK AO2 TSNO T00270005 PK WND 07032/1621 SLP060 $

2010/08/09 16:55
KRHV 091655Z 17011KT 10SM SKC 18/12 A2992

2010/08/09 17:00
HAAB 091700Z 26008KT 9999 BKN025 FEW080 18/13 Q1023

2010/08/09 17:00
HRYR 091700Z 15005KT 9999 SCT030 26/11 Q1018 NOSIG

2010/08/09 17:00
TIST 091700Z 11017G25KT 2 1/2SM +RA BR SCT016 BKN029 BKN040 27/25 A2999 RMK AO2 P0008

2010/08/09 17:00
FALA 091700Z 20009KT 170V230 CAVOK 11/M10 Q1026 NOSIG

2010/08/09 17:00
FBFT 091700Z VRB02KT CAVOK 22/12 Q1021

2010/08/09 17:00
FBKE 091700Z 16006KT CAVOK 23/02 Q1020

2010/08/09 17:00
FBMN 091700Z 16005KT CAVOK 24/03 Q1020

2010/08/09 17:00
FBSK 091700Z 22006KT CAVOK 16/03 Q1024 NOSIG

2010/08/09 17:00
FDMS 091700Z 14008KT 9999 SCT030 15/13 Q1021 NOSIG

2010/08/09 17:00
FYWB 091700Z 31004KT 280V340 4000 VV/// 18/08 Q1014

2010/08/09 17:00
FYWH 091700Z AUTO 12008KT //// // ////// 14/M05 Q1028

2010/08/09 17:00
SBBG 091700Z 14007KT CAVOK 15/04 Q1025

2010/08/09 17:00
MNPC 091700Z 08010KT 6000 VCRA BKN018TCU 30/26 Q1012 TCURA/W

2010/08/09 17:00
MNRS 091700Z 06004KT 9999 FEW015CB BKN016 29/26 Q1012 CB/4C

2010/08/09 17:00
MNJG 091700Z 00000KT 9999 BKN019 24/20 Q1013

2010/08/09 17:00
MNJU 091700Z 06004KT 9999 FEW020 SCT080 29/24 Q1012

2010/08/09 17:00
MNCH 091700Z 00000KT 9999 FEW025 SCT300 31/24 Q1012

2010/08/09 17:00
MNBL 091700Z 08006KT 8000 -TS FEW016CB SCT080 HVH945 091700 FF MMIDZRZX 091655 MHLMZPZX (FPL-SLI675-IS -E145/M-SW/C -MHLM1845 -N0458F360 LMS BRITO UR644 AUR UA552 MTT UJ5 -MMMX0154 MMAA -EET/MMFR0044 REG/XAXLI) 

2010/08/09 17:00
GQNN 091700Z 26009KT CAVOK 29/19 Q1010 NOSIG

2010/08/09 17:00
GCFV 091700Z 15006KT 110V170 7000 FEW020 24/21 Q1012

2010/08/09 17:00
GCHI 091700Z 02004KT 340V070 9999 FEW018 BKN033 23/18 Q1014

2010/08/09 17:00
GCLA 091700Z 02007KT 340V060 9000 FEW015 BKN020 23/19 Q1014

2010/08/09 17:00
GCLP 091700Z 03012KT 360V060 9000 FEW025 SCT030 25/20 Q1013 NOSIG

2010/08/09 17:00
GCRR 091700Z 21006KT 180V240 9999 FEW022 28/21 Q1012

2010/08/09 17:00
GCTS 091700Z 09007KT 060V120 9999 FEW020 OVC027 24/18 Q1013 NOSIG

2010/08/09 17:00
GCXO 091700Z 30007KT 250V330 9000 FEW003 BKN008 20/17 Q1016 NOSIG

2010/08/09 17:00
GEML 091700Z 07003KT 020V100 9999 FEW008 27/21 Q1014

2010/08/09 17:00
GMFF 091700Z 01009KT 9999 SCT033 FEW040CB BKN100 41/08 Q1014 NOSIG

2010/08/09 17:00
GMME 091700Z 31005KT 240V350 8000 NSC 32/20 Q1011 NOSIG

2010/08/09 17:00
GMMN 091700Z 34011KT CAVOK 36/16 Q1012 NOSIG

2010/08/09 17:00
GMMX 091700Z 34005KT 290V030 6000 SCT033 FEW040CB SCT100 41/12 Q1013 NOSIG

2010/08/09 17:00
GMTT 091700Z 07023KT 9999 FEW016 SCT200 29/18 Q1011 NOSIG

2010/08/09 16:53
PABR 091653Z AUTO 07022G27KT 10SM OVC005 01/01 A2989

2010/08/09 16:53
PACD 091653Z COR 11006KT 10SM BKN043 BKN075 12/08 A2951

2010/08/09 16:53
PACD 091653Z 11006KT 10SM BKN043 OVC075 12/08 A2951

2010/08/09 16:55
PAED 091655Z AUTO 33008KT 10SM OVC070 13/10 A2962

2010/08/09 16:55
PAEI 091655Z AUTO 00000KT 10SM BKN080 BKN095 13/10 A2958

2010/08/09 16:53
PAEN 091653Z 04005KT 10SM BKN055 OVC070 14/11 A2961

2010/08/09 16:53
PAFA 091653Z 10006KT 10SM BKN070 BKN095 OVC120 14/11 A2956

2010/08/09 16:56
PAFS 091656Z AUTO 01005KT 10SM OVC039 11/09 A2951

2010/08/09 16:53
PAJN 091653Z 09009KT 10SM FEW011 BKN030 OVC060 13/11 A2997

2010/08/09 16:54
PAKN 091654Z 19006KT 10SM OVC021 11/09 A2952

2010/08/09 16:53
PAKT 091653Z 15005KT 10SM SCT006 BKN017 OVC055 14/12 A3002

2010/08/09 16:53
PANC 091653Z VRB05KT 10SM BKN070 BKN090 BKN200 13/12 A2962

2010/08/09 16:53
PAOM 091653Z 13011KT 10SM FEW013 BKN019 BKN041 12/09 A2931

2010/08/09 16:53
PAOR 091653Z AUTO 00000KT 10SM OVC080 12/10 A2969

2010/08/09 16:53
PAOT 091653Z 09017KT 10SM SCT060 BKN120 16/11 A2942

2010/08/09 16:56
PARY 091656Z AUTO 05008KT 10SM BKN002 OVC012 11/10 A2949

2010/08/09 16:53
PASC 091653Z 06019G25KT 1 1/2SM BR OVC003 03/03 A2976

2010/08/09 16:53
PASI 091653Z 00000KT 10SM SCT006 OVC032 13/12 A2997

2010/08/09 16:56
PATQ 091656Z AUTO 07019KT 10SM OVC007 01/00 A2981

2010/08/09 16:56
PAVD 091656Z 09004KT 1SM SCT001 OVC010 11/09 A2981

2010/08/09 16:56
PAWG 091656Z 01003KT 10SM SCT005 BKN030 OVC050 12/11 A3001

2010/08/09 16:50
PFYU 091650Z 01010KT 10SM BKN050 BKN070 13/ A2958

2010/08/09 17:05
CYFC 091705Z AUTO 20008KT 3SM RA BR BKN009 BKN014 20/19 A2990 RMK SLP125 DENSITY ALT 600FT PCPN 0.5MM PAST HR RVR MISG

2010/08/09 17:00
GOGG 091700Z 24006KT 9999 BKN016TCU SCT130 30/26 Q1012

2010/08/09 17:00
GOGS 091700Z 24006KT 9999 SCT015 TCU SCT130 30/26 Q1012

2010/08/09 17:00
GOOY 091700Z 29006KT 250V350 9999 SCT013 BKN230 29/22 Q1011 NOSIG

2010/08/09 17:00
GOSS 091700Z 32010KT 260V350 9999 FEW016 31/25 Q1010

2010/08/09 17:00
GOTT 091700Z 30004KT 9999 BKN013 TCU SCT130 31/25 Q1010

2010/08/09 17:00
GUCY 091700Z 28008KT 9999 BKN015 SCT110 28/25 Q1011

2010/08/09 17:00
OLBA 091700Z 30004KT 260V350 9999 BKN027 29/22 Q1007 NOSIG

2010/08/09 17:00
OEDF 091700Z 10007KT 6000 SKC 35/25 Q0997 NOSIG

2010/08/09 17:00
OEDR 091700Z 09006KT 4000 HZ SKC 36/29 Q0996 NOSIG

2010/08/09 17:00
OEJN 091700Z 31004KT CAVOK 34/27 Q1000 NOSIG

2010/08/09 17:00
OEMA 091700Z 03006KT 9000 SCT045 SCT100 42/M04 Q1004 NOSIG

2010/08/09 17:00
OERK 091700Z 03010KT 7000 SKC 39/03 Q1003 NOSIG

2010/08/09 17:00
OIAA 091700Z 18004KT CAVOK 37/20 Q0996

2010/08/09 17:00
OIAW 091700Z 21004KT CAVOK 40/12 Q0996 A2942

2010/08/09 17:00
OIBK 091700Z 32004KT 7000 NSC 33/29 Q0996 A2944

2010/08/09 17:00
OICC 091700Z 00000KT 9999 FEW045 28/M06 Q1011 A2987 863.4

2010/08/09 17:00
OIFM 091700Z 05006KT 9999 FEW040 28/M02 Q1015 A2999

2010/08/09 17:00
OIGG 091700Z 00000KT CAVOK 27/22 Q1009 A2980

2010/08/09 17:00
OIKB 091700Z 11004KT 8000 NSC 33/27 Q0997 A2945

2010/08/09 17:00
OIKK 091700Z 34006KT CAVOK 25/M01 Q1015 A2999

2010/08/09 17:00
OIMM 091700Z 17004KT CAVOK 27/00 Q1013 A2994

2010/08/09 17:00
OISS 091700Z 09004KT CAVOK 31/M04 Q1012 A2988

2010/08/09 17:00
OITT 091700Z 03020KT 9999 FEW040 FEW045CB 28/06 Q1014 A2996

2010/08/09 17:00
OIYY 091700Z 03004KT CAVOK 31/M05 Q1013 A2993

2010/08/09 17:00
OIZH 091700Z 27004KT CAVOK 29/M03 Q1009 A2982

2010/08/09 17:00
OKBK 091700Z 16004KT 8000 NSC 39/09 Q0997 NOSIG

2010/08/09 17:00
OSAP 091700Z 27014KT CAVOK 30/13 Q1004

2010/08/09 17:00
OSDI 091700Z 22012KT CAVOK 35/09 Q1006

2010/08/09 17:00
OSLK 091700Z 22004KT 9999 FEW030 28/22 Q1005

2010/08/09 16:59
RODN 091659Z 18017G26KT 9999 -RA BKN018 BKN025 28/26 A2972 RMK AO2A RAB1659 CIG 016V021 BKN018 V SCT SLP064

2010/08/09 17:00
OMAA 091700Z 03007KTCAVOK 36/23 Q0996 A2943 NOSIG

2010/08/09 17:00
OMAA 091700Z 03007KT CAVOK 36/23 Q0996 A2943 NOSIG

2010/08/09 17:00
OMAL 091700Z 11003KT CAVOK 41/11 Q0999 A2950

2010/08/09 17:00
OMDB 091700Z 07004KT 020V110 CAVOK 39/13 Q0997 NOSIG

2010/08/09 17:00
OMFJ 091700Z 13003KT CAVOK 32/25 Q0998 A2948

2010/08/09 17:00
OMRK 091700Z 26002KT CAVOK 37/20 Q0996 A2942

2010/08/09 17:00
OMSJ 091700Z 08004KT 050V110 CAVOK 35/15 Q0997

2010/08/09 17:00
OYAA 091700Z 08005KT 7000 NSC 31/23 Q1002

2010/08/09 17:00
OYHD 091700Z 36010KT 6000 BKN030 34/31 Q1001

2010/08/09 17:00
OYSN 091700Z 21006KT 9999 BKN030 22/13 Q1021

2010/08/09 17:00
OYTZ 091700Z 15003KT 9999 TS FEW025CB SCT030 26/15 Q1008

2010/08/09 16:50
LTAD 091650Z 32012KT CAVOK 32/08 Q1009 NOSIG RMK RWY29 31011KT

2010/08/09 17:08
OMAD 091708Z 02008KT CAVOK 35/28 Q0997 A2944

2010/08/09 17:00
OMAD 091700Z 02008KT CAVOK 35/28 Q0997 A2944

2010/08/09 17:00
SBBE 091700Z 16007KT 9999 SCT025 FEW030TCU 33/23 Q1011

2010/08/09 17:00
SBBR 091700Z 07009KT CAVOK 29/M03 Q1022

2010/08/09 17:00
SBBV 091700Z 01002KT 9999 SCT015 BKN080 31/22 Q1013

2010/08/09 17:00
SBCF 091700Z 28007KT CAVOK 26/05 Q1020

2010/08/09 17:00
SBCG 091700Z VRB08KT 9999 FEW040 31/05 Q1018

2010/08/09 17:00
SBEG 091700Z 25007KT 9999 SCT020 31/23 Q1012

2010/08/09 17:00
SBFI 091700Z 18002KT CAVOK 21/10 Q1019

2010/08/09 17:00
SBFZ 091700Z 11016KT CAVOK 30/19 Q1012

2010/08/09 17:00
SBGL 091700Z 23019KT 9999 SCT020 24/16 Q1020

2010/08/09 17:00
SBGR 091700Z 16006KT 7000 SCT013 BKN020 16/13 Q1023

2010/08/09 17:00
SBKP 091700Z 21006KT 9000 NSC 27/11 Q1020

2010/08/09 17:00
SBNT 091700Z 14011KT 9999 SCT027 SCT100 28/22 Q1014

2010/08/09 17:00
SBPA 091700Z 20005KT 9999 SCT030 16/06 Q1025

2010/08/09 17:00
SBPS 091700Z 10013KT 9999 FEW020 24/18 Q1017

2010/08/09 17:00
SBRF 091700Z 18012KT 9999 SCT007 BKN015 BKN070 25/22 Q1015

2010/08/09 17:00
SBSL 091700Z 07003KT 9999 SCT020 32/22 Q1012

2010/08/09 17:00
SBSN 091700Z 12007KT 9999 FEW023 32/24 Q1012

2010/08/09 17:00
SBSV 091700Z 11007KT 9999 SCT017 26/19 Q1018

2010/08/09 17:00
SBTT 091700Z 20004KT 8000 NSC 31/23 Q1015

2010/08/09 17:00
SBLO 091700Z 17003KT CAVOK 28/09 Q1018

2010/08/09 17:00
SBMA 091700Z 12008KT 9999 FEW035 39/22 Q1011

2010/08/09 17:00
SBMN 091700Z 15003KT 9999 FEW020 31/23 Q1013

2010/08/09 17:00
SBMO 091700Z 20004KT 5000 -RA BR SCT006 SCT018 BKN100 22/20 Q1017

2010/08/09 17:00
SBMQ 091700Z 08002KT 9999 FEW025 35/25 Q1012

2010/08/09 17:00
SBPK 091700Z 18005KT CAVOK 17/03 Q1025

2010/08/09 17:00
SBPP 091700Z 27004KT CAVOK 28/15 Q1019

2010/08/09 17:00
SBRB 091700Z 18004KT 7000 NSC 37/16 Q1015

2010/08/09 17:00
SBRJ 091700Z 21013G23KT 9999 FEW012 BKN025 24/17 Q1019

2010/08/09 17:00
SBSJ 091700Z 24013KT 9999 SCT020 19/12 Q1023

2010/08/09 17:00
SBSP 091700Z 20007KT 9999 BKN009 15/12 Q1023

2010/08/09 17:00
SBTE 091700Z 14010KT 9999 FEW030 36/13 Q1012

2010/08/09 17:00
SBUG 091700Z 08011KT CAVOK 16/05 Q1024

2010/08/09 17:00
SBVT 091700Z 17010KT 9000 NSC 31/19 Q1015

2010/08/09 17:00
SBAR 091700Z 15011KT 9999 SCT017 27/21 Q1016

2010/08/09 17:00
SBCJ 091700Z 15008KT CAVOK 32/09 Q1016

2010/08/09 17:00
SBCT 091700Z 07009KT 9999 SCT006 OVC008 12/10 Q1023

2010/08/09 17:00
SBCY 091700Z 05005KT CAVOK 35/06 Q1014

2010/08/09 17:00
SBCZ 091700Z 21004KT 7000 NSC 33/20 Q1016

2010/08/09 17:00
SBFL 091700Z 11013KT 9999 FEW025 20/10 Q1022

2010/08/09 17:00
SBFN 091700Z 10008KT 9999 BKN017 28/23 Q1013

2010/08/09 17:00
SBGO 091700Z 12006KT 9999 FEW022 33/08 Q1018

2010/08/09 17:00
SBPB 091700Z 02010KT 9999 FEW020 31/22 Q1011

2010/08/09 17:00
SBPL 091700Z 11010KT 9999 SCT025 30/14 Q1017

2010/08/09 17:00
SBTF 091700Z 35002KT 9999 SCT020 SCT100 32/25 Q1013

2010/08/09 16:53
PABI 091653Z 15009G17KT 110V170 10SM FEW090 BKN110 BKN180 14/06 A2962

2010/08/09 16:55
PACZ 091655Z 17007KT 1SM BR -DZ OVC008 09/08 A2920

2010/08/09 16:56
PADK 091656Z 30012KT 8SM OVC030 10/07 A2970

2010/08/09 16:50
PADL 091650Z 18015KT 5SM -RA BR SCT005 OVC012 11/09 A2951

2010/08/09 16:55
PAEH 091655Z AUTO 16022G32KT 130V200 5SM OVC005 08/07

2010/08/09 16:55
PAFB 091655Z 06003KT 13SM VCSH FEW050 BKN070 OVC090 14/10 A2958

2010/08/09 16:55
PAIM 091655Z AUTO 06006KT 10SM OVC075 13/09 A2951

2010/08/09 16:55
PASV 091655Z AUTO 19006KT 10SM OVC037 11/08 A2950

2010/08/09 16:56
PASY 091656Z AUTO 27005KT 3/4SM BR VV001 09/08 A2983

2010/08/09 16:55
PATC 091655Z 02012KT 10SM BKN075 13/11 A2933

2010/08/09 16:55
PATL 091655Z AUTO 00000KT 10SM OVC006 11/11 A2950

2010/08/09 17:00
MBPV 091700Z 14013KT 9999 SCT015 SCT060 32/25 A3000

2010/08/09 16:50
MUCM 091650Z 09006KT 030V150 9000 FEW020 BKN090 30/23 Q1015

2010/08/09 16:50
MUCU 091650Z 21006KT 170V260 9999 FEW020 31/23 Q1016

2010/08/09 16:55
MUHA 091655Z 31006KT 5000 -RA SCT007 BKN070 27/24 Q1015

2010/08/09 16:50
MUVR 091650Z VRB02KT 9000 SCT018 OVC060 26/23 Q1015

2010/08/09 17:00
MWCB 091700Z 11005KT 9999 FEW016TCU 32/27 Q1015

2010/08/09 17:00
MWCR 091700Z 06004KT 9999 FEW018 BKN200 32/24 Q1015 NOSIG

2010/08/09 16:59
MYEG 091659Z AUTO 11008KT 10SM CLR 29/24 A2999 RMK AO2

2010/08/09 17:00
MDLR 091700Z 09015KT 9999 SCT026 32/24 Q1014

2010/08/09 17:00
MDPC 091700Z 09005KT 9999 SCT025 SCT300 31/25 Q1013 NOSIG

2010/08/09 17:00
MDPP 091700Z 09015KT 9999 SCT022 32/27 Q1015

2010/08/09 17:00
MDSD 091700Z 17006KT 9999 SCT025 SCT300 32/24 Q1013

2010/08/09 17:00
MDST 091700Z 10009KT 9999 SCT022 31/24 Q1014

2010/08/09 17:00
MTPP 091700Z 09012KT 9000 FEW030TCU SCT250 34/22 Q1014 A2995

2010/08/09 17:00
MTPP 091700Z 09012KT 9000 FEW030TCU SCT250 34/22 Q1014 A2995

2010/08/09 17:00
TAPA 091700Z 09014KT 9999 FEW020TCU SCT060 BKN250 30/25 Q1014 TCU-ENE

2010/08/09 17:00
TIST 091700Z 11017G25KT 2 1/2SM +RA BR SCT016 BKN029 BKN040 27/25 A2999 RMK AO2 P0008

2010/08/09 16:53
TIST 091653Z 11017G25KT 5SM -RA BR BKN018 BKN029 BKN048 28/26 A3000 RMK AO2 RAB08 SLP158 P0037 T02830261

2010/08/09 16:53
TISX 091653Z 04004KT 9SM -RA SCT018 BKN060 26/24 A2998 RMK AO2 SLP151 T02610239 $

2010/08/09 16:50
TJPS 091650Z 12010KT 10SM FEW030 FEW060 32/25 A2996 RMK SHRA DSNT N-NW

2010/08/09 16:56
TJSJ 091656Z 06013KT 10SM FEW025 SCT040 SCT090 32/24 A2996 RMK AO2 RAB11E30 SLP144 VCSH S-SW P0000 T03170244

2010/08/09 17:00
TKPK 091700Z 05007KT 9999 FEW018 BKN046 29/25 Q1015

2010/08/09 17:00
TUPJ 091700Z 14011KT 9999 VCSH SCT018CB BKN220 31/24 A2999

2010/08/09 17:00
TBPB 091700Z 17012KT 9999 FEW014CB SCT036 30/25 Q1014 NOSIG

2010/08/09 17:00
TFFF 091700Z 08010KT 030V120 9999 FEW016 SCT025 BKN280 32/25 Q1014 TEMPO -SHRA

2010/08/09 17:00
TFFR 091700Z 12008KT 040V160 SCT020 SCT053 30/24 Q1014 TEMPO 4000 SHRA

2010/08/09 17:00
TVSV 091700Z 15008KT 9999 FEWCB020 SCT023 31/26 Q1014/ CB NW/W

2010/08/09 17:00
TVSV 091700Z 15008KT 9999 FEWCB020 SCT023 31/26 Q1014 CB NW/W

2010/08/09 17:00
MGPB 091700Z 36006KT 9999 SCT020 SCT200 31/26 Q1012 A29/88

2010/08/09 17:00
MGPB 091700Z 36006KT 9999 SCT020 SCT200 31/26 Q1012 A29.88

2010/08/09 17:00
MGSJ 091700Z 14006KT 9999 SCT017 BKN200 31/26 Q1013 A29.91

2010/08/09 17:00
MHLC 091700Z 01006KT 9999 SCT024TCU BKN250 31/25 Q1013 A2991NOSIG

2010/08/09 17:00
MHLM 091700Z 21006KT 9999 FEW028 BKN250 32/26 Q1013 A2991 NOSIG

2010/08/09 17:00
MHTG 091700Z 09007KT 9999 SCT028TCU BKN250 26/19 Q1019 A3009 NOSIG

2010/08/09 17:00
MPTO 091700Z 00000KT 8000 -DZ FEW009 SCT016 BKN080 27/25 Q1013 BECMGFM1730 6000 RA RWY DAMP

2010/08/09 17:00
MPTO 091700Z 00000KT 8000 -DZ FEW009 SCT016 BKN080 27/25 Q1013 BECMGFM 1730 6000 RA RWY DAMP

2010/08/09 17:00
MRLB 091700Z 00000KT 9999 FEW030 BKN130 30724 A2990 RMK FEW240 RA DST NE

2010/08/09 17:00
MRLM 091700Z 00000KT 9999 FEW030 BKN130 30/24 A2990 RMK FEW240 RA DST NE

2010/08/09 17:00
MROC 091700Z 10011KT 9999 FEW040 BKN120 27/20 A3003 NOSIG

2010/08/09 17:00
MRPV 091700Z 10008KT 9999 SCT035 OVC100 25/18 A3001 NOSIG

2010/08/09 16:50
MSLP 091650Z 11002KT 9999 FEW027 BKN300 32/24 Q1012 A2989

2010/08/09 16:50
MSSS 091650Z 12003KT 9999 FEW027 BKN300 28/23 Q1016

2010/08/09 16:50
MSSS 091650Z 12003KT 9999 FEW027 BKN300 28/23 Q1016 A3002

2010/08/09 17:00
MZBZ 091700Z 12010KT 9999 BKN026 BKN280 32/26 A2991 Q1013 NOSIG

2010/08/09 17:00
MZBZ 091700Z 12010KT 9999 BKN026 BKN280 32/26 A2991 NOSIG

2010/08/09 16:51
MUCL 091651Z 19007KT 9999 FEW018 BKN070 29/28 Q1016

2010/08/09 16:50
MUCM 091650Z 09006KT 030V150 9000 FEW020 BKN090 30/23 Q1015

2010/08/09 16:50
MUCU 091650Z 21006KT 170V260 9999 FEW020 31/23 Q1016

2010/08/09 16:56
MUGM 091656Z 12013KT 9999 FEW025TCU BKN250 31/24 A2995 RMK SLP142 TCU DSNT NW-N T03110244

2010/08/09 16:55
MUHA 091655Z 31006KT 5000 -RA SCT007 BKN070 27/24 Q1015

2010/08/09 16:52
MUMZ 091652Z 00000KT 9000 SCT025 31/24 Q1015

2010/08/09 16:50
MUVR 091650Z VRB02KT 9000 SCT018 OVC060 26/23 Q1015

2010/08/09 17:00
MGGT 091700Z 36012KT 9999 SCT017 BKN200 25/18 Q1025 A30/27 TCU SSE PACAYA EN ACTIVIDAD NOSIG

2010/08/09 17:00
MGGT 091700Z 36012KT 9999 SCT017 BKN200 25/18 Q1025 A30.27 TCU SSE PACAYA EN ACTIVIDAD NOSIG

2010/08/09 17:00
MGHT 091700Z 18006KT 9999 FEW022 BKN200 24/14 QFE 818/2

2010/08/09 17:00
MGHT 091700Z 18006KT 9999 FEW022 BKN200 24/14 QFE 818.2

2010/08/09 17:00
MHAM 091700Z 23006KT 9999 FEW026 SCT250 30/26 FEW080

2010/08/09 17:00
MHCA 091700Z 16005KT 9999 SCT028TCU SCT080 29/21 TCU TD

2010/08/09 17:00
MHCH 091700Z 21004KT 9999 SCT032TCU SCT250 32/25 FEW100 TCU E SE

2010/08/09 17:00
MHLE 091700Z 01006KT 9999 SCT024 BKN200 24/16 Q1024

2010/08/09 17:00
MHNO 091700Z 01004KT 9999 FEW040 SCT250 29/// HZ

2010/08/09 17:00
MHRO 091700Z 10013KT 9999 FEW026 BKN250 31/25 Q1013 A2991 NOSIG

2010/08/09 17:00
MHSR 091700Z 01006KT 9999 SCT025 BKN250 26/19 HZ

2010/08/09 17:00
MHTE 091700Z 36006KT 9999 SCT024TCU SCT080 30/24 Q1012 TCU N NE HZ

2010/08/09 17:00
MHYR 091700Z 20004KT 9999 SCT025TCU 28/22 TCU TD HZ

2010/08/09 17:00
MNMG 091700Z 12008KT 9999 FEW024TCU SCT070 30/24 Q1011 A2986 TCU/NE/SW

2010/08/09 16:50
MSAC 091650Z 14002KT 9999 FEW037 BKN300 30/23 Q1011

2010/08/09 17:00
TIST 091700Z 11017G25KT 2 1/2SM +RA BR SCT016 BKN029 BKN040 27/25 A2999

2010/08/09 16:53
TIST 091653Z 11017G25KT 5SM -RA BR BKN018 BKN029 BKN048 28/26 A3000

2010/08/09 16:53
TISX 091653Z 04004KT 9SM -RA SCT018 BKN060 26/24 A2998

2010/08/09 16:50
TJPS 091650Z 12010KT 10SM FEW030 FEW060 32/25 A2996

2010/08/09 16:56
TJSJ 091656Z 06013KT 10SM FEW025 SCT040 SCT090 32/24 A2996

2010/08/09 17:00
ZBAA 091700Z 06002MPS 2000 BR NSC 26/23 Q1006 NOSIG

2010/08/09 17:00
ZBTJ 091700Z 07001MPS 2200 BR NSC 26/24 Q1006 NOSIG

2010/08/09 17:00
ZBYN 091700Z 12002MPS 1800 -RA BR BKN040 23/21 Q1009 NOSIG

2010/08/09 17:00
ZGGG 091700Z 10003MPS CAVOK 30/25 Q1005 NOSIG

2010/08/09 17:00
ZGNN 091700Z 23001MPS CAVOK 27/25 Q1005 NOSIG

2010/08/09 17:00
ZGSZ 091700Z VRB01MPS CAVOK 29/24 Q1005 NOSIG

2010/08/09 17:00
ZHHH 091700Z 11003MPS 3500 BR SKC 30/28 Q1003 NOSIG

2010/08/09 17:00
ZLLL 091700Z 36002MPS CAVOK 16/13 Q1015 NOSIG

2010/08/09 17:00
ZMUB 091700Z VRB01MPS CAVOK 09/00 Q1008 NOSIG RMK QFE649.9 54

2010/08/09 17:00
ZPPP 091700Z 10002MPS 060V170 9999 FEW026 21/16 Q1017 NOSIG

2010/08/09 17:00
ZSHC 091700Z 02002MPS CAVOK 29/25 Q1003

2010/08/09 17:00
ZSNJ 091700Z 09004MPS CAVOK 28/24 Q1004 NOSIG

2010/08/09 17:00
ZSOF 091700Z 09002MPS 7000 SKC 27/23 Q1003 NOSIG

2010/08/09 17:00
ZSPD 091700Z 05005MPS 9999 BKN011 28/25 Q1003 NOSIG

2010/08/09 17:00
ZSSS 091700Z 06003MPS 020V090 9999 -SHRA BKN018 29/25 Q1003 NOSIG

2010/08/09 17:00
ZUCK 091700Z VRB01MPS CAVOK 31/22 Q1003 NOSIG

2010/08/09 17:00
ZUUU 091700Z 00000MPS 4000 BR SCT040 27/24 Q1004 NOSIG

2010/08/09 17:00
ZWWW 091700Z 26004MPS 220V280 CAVOK 27/08 Q1008 NOSIG

2010/08/09 17:00
ZYHB 091700Z 19002MPS CAVOK 15/14 Q1006 NOSIG

2010/08/09 17:00
ZYTL 091700Z VRB01MPS 6000 BKN040 24/23 Q1007 NOSIG

2010/08/09 16:59
RODN 091659Z 18017G26KT 9999 -RA BKN018 BKN025 28/26 A2972 RMK AO2A RAB1659 CIG 016V021 BKN018 V SCT SLP064

2010/08/09 17:03
ETAD 091703Z AUTO 21004KT 9999 FEW055 SCT070 22/10 A3002 RMK AO2 SLP160 $

2010/08/09 17:00
EPGD 091700Z 07004KT 350V130 9999 VCTS SCT036 FEW045CB 21/15 Q1015

2010/08/09 17:00
EPKK 091700Z 19003KT 110V250 9999 FEW043TCU 18/16 Q1016

2010/08/09 17:00
EPKT 091700Z 18003KT 130V230 CAVOK 18/15 Q1016

2010/08/09 17:00
EPPO 091700Z VRB01KT 9999 FEW036CB 19/15 Q1015

2010/08/09 17:00
EPRZ 091700Z VRB02KT 9999 SCT040CB 23/18 Q1016

2010/08/09 17:00
EPWA 091700Z 18004KT CAVOK 24/16 Q1015 NOSIG

2010/08/09 17:00
LBBG 091700Z 01006MPS CAVOK 29/21 Q1010 NOSIG

2010/08/09 17:00
LBPD 091700Z 06001MPS 9999 FEW050 SCT100 30/21 Q1011 NOSIG

2010/08/09 17:00
LBSF 091700Z 01003MPS 9999 FEW050 24/15 Q1015 NOSIG

2010/08/09 17:00
LBWN 091700Z 34007MPS 9999 SCT050 28/21 Q1010 NOSIG

2010/08/09 17:00
LHBP 091700Z 30009KT CAVOK 22/14 Q1017 NOSIG

2010/08/09 17:00
LRBS 091700Z 04002KT CAVOK 29/20 Q1012 NOSIG

2010/08/09 17:00
LRCK 091700Z 36008KT CAVOK 30/19 Q1011 NOSIG

2010/08/09 17:00
LROP 091700Z VRB01KT CAVOK 28/20 Q1012 880///95 NOSIG

2010/08/09 17:00
LRTR 091700Z 33004KT CAVOK 26/16 Q1015

2010/08/09 16:53
PHJR 091653Z 09004KT 10SM CLR 25/16 A3009

2010/08/09 16:53
PHKO 091653Z 07003KT 10SM FEW050 23/19 A3002

2010/08/09 16:53
PHLI 091653Z 08012KT 10SM SCT022 BKN036 OVC043 24/21 A3012

2010/08/09 16:53
PHNL 091653Z 07009KT 10SM FEW032 26/16 A3008

2010/08/09 16:54
PHOG 091654Z 05011KT 10SM SCT040 24/17 A3008

2010/08/09 16:53
PHTO 091653Z 24006KT 10SM SCT027 BKN043 BKN055 BKN140 21/19 A3010

2010/08/09 17:00
LATI 091700Z 34006KT CAVOK 26/24 Q1012 NOSIG

2010/08/09 17:00
LDDU 091700Z 29008KT 260V320 CAVOK 25/17 Q1013 NOSIG

2010/08/09 17:00
LDOS 091700Z 03008KT 290V090 CAVOK 25/17 Q1016

2010/08/09 17:00
LDPL 091700Z 26007KT 230V300 CAVOK 27/18 Q1014

2010/08/09 17:00
LDRI 091700Z 34004KT 300V020 9999 FEW050 28/15 Q1014

2010/08/09 17:00
LDSP 091700Z 31013KT 280V340 CAVOK 30/11 Q1013 NOSIG

2010/08/09 17:00
LDZA 091700Z 09006KT 060V120 9999 FEW040 25/16 Q1016 NOSIG

2010/08/09 17:00
LDZD 091700Z 30010KT 9999 FEW050 28/14 Q1014

2010/08/09 17:00
LJLJ 091700Z 12006KT 9999 FEW040 23/16 Q1016 NOSIG

2010/08/09 17:00
LJMB 091700Z 11003KT 110V190 9999 FEW030 23/16 Q1017

2010/08/09 17:00
LJPZ 091700Z 26003KT 220V330 CAVOK 28/17 Q1014

2010/08/09 17:00
LKMT 091700Z 14004KT 110V190 CAVOK 20/15 Q1016 NOSIG

2010/08/09 17:00
LKPR 091700Z 26005KT CAVOK 21/13 Q1017 NOSIG

2010/08/09 17:00
LKTB 091700Z 32004KT 9999 FEW044 23/12 Q1016 NOSIG

2010/08/09 17:00
LQSA 091700Z 33007KT 300V040 9999 FEW050 26/15 Q1017 NOSIG

2010/08/09 17:00
LWOH 091700Z 18001KT 9999 FEW050 26/16 Q1015

2010/08/09 17:00
LWSK 091700Z 36012KT 9999 FEW050 28/14 Q1013 NOSIG

2010/08/09 17:00
LYBE 091700Z 02004KT CAVOK 26/15 Q1016 NOSIG

2010/08/09 17:00
LYNI 091700Z 32011KT CAVOK 25/16 Q1015 NOSIG

2010/08/09 17:00
LYPG 091700Z 20004KT 9999 FEW050 31/17 Q1011 NOSIG

2010/08/09 17:00
LYTV 091700Z VRB02KT CAVOK 30/16 Q1012 NOSIG

2010/08/09 17:00
LZIB 091700Z 24003KT 9999 FEW030CB BKN110 19/15 Q1017 RETS

2010/08/09 17:00
LZKZ 091700Z 34004KT 9999 FEW040CB FEW040 BKN120 19/14 Q1016

2010/08/09 17:00
LZTT 091700Z 20003KT 170V240 9999 -SHRA FEW006 FEW040CB BKN080 15/14 Q1019

2010/08/09 17:00
LFBD 091700Z 26009KT 9999 FEW026 BKN040 22/13 Q1018 NOSIG

2010/08/09 17:00
LFBH 091700Z AUTO 29016KT 9999NDV NSC 21/12 Q1018

2010/08/09 17:00
LFBI 091700Z AUTO 26010KT 230V290 9999NDV NSC 28/12 Q1016

2010/08/09 17:00
LFBO 091700Z 29012KT 9999 SCT028 BKN036 23/16 Q1019 NOSIG

2010/08/09 17:00
LFBP 091700Z 23004KT 120V270 9999 FEW016 BKN035 21/18 Q1019 NOSIG

2010/08/09 17:00
LFBT 091700Z 24006KT 190V270 9999 FEW006 BKN023 18/16 Q1020 NOSIG

2010/08/09 17:00
LFBZ 091700Z 32007KT 290V360 9999 FEW018 BKN050 22/17 Q1020 NOSIG

2010/08/09 17:00
LFGJ 091700Z AUTO 34004KT 300V040 9999NDV NSC 27/10 Q1016

2010/08/09 17:00
LFKB 091700Z 14003KT 9999 FEW025 SCT210 25/20 Q1015 NOSIG

2010/08/09 17:00
LFKC 091700Z 01012KT 9999 FEW018 25/20 Q1016 NOSIG

2010/08/09 17:00
LFKJ 091700Z VRB02KT CAVOK 28/15 Q1015 NOSIG

2010/08/09 17:00
LFLB 091700Z AUTO 28005KT 250V340 9999NDV NSC 28/16 Q1014

2010/08/09 17:00
LFLC 091700Z 03005KT 360V060 9999 SCT060 SCT083 25/14 Q1016 NOSIG

2010/08/09 17:00
LFLL 091700Z 04008KT 010V090 CAVOK 28/13 Q1015 NOSIG

2010/08/09 17:00
LFLS 091700Z AUTO 36007KT 9999NDV NSC 28/14 Q1015

2010/08/09 17:00
LFLY 091700Z AUTO 01006KT 320V100 9999NDV FEW054 29/13 Q1014

2010/08/09 17:00
LFMD 091700Z AUTO 18006KT 140V200 9999NDV FEW015 BKN034 OVC041 24/21 Q1015

2010/08/09 17:00
LFMH 091700Z AUTO 34008KT 300V010 9999NDV NSC 28/11 Q1015

2010/08/09 17:00
LFML 091700Z 19010KT 9999 FEW010 SCT140 26/21 Q1014 NOSIG

2010/08/09 17:00
LFMN 091700Z 19004KT 170V230 9999 FEW015 SCT038 BKN053 25/20 Q1016 NOSIG

2010/08/09 17:00
LFMP 091700Z 23003KT 9999 FEW050 FEW060CB BKN150 27/17 Q1015 NOSIG

2010/08/09 17:00
LFMT 091700Z 20009KT CAVOK 23/19 Q1014 NOSIG

2010/08/09 17:00
LFOB 091700Z AUTO 30005KT 260V040 9999NDV NSC 26/10 Q1015

2010/08/09 17:00
LFOH 091700Z AUTO 35008KT 9999NDV NSC 19/10 Q1016

2010/08/09 17:00
LFOT 091700Z AUTO VRB04KT 9999NDV NSC 29/09 Q1015

2010/08/09 17:00
LFPB 091700Z AUTO VRB03KT 9999NDV NSC 27/12 Q1015

2010/08/09 17:00
LFPG 091700Z 28004KT 250V310 CAVOK 26/11 Q1015 NOSIG

2010/08/09 17:00
LFPN 091700Z AUTO 25004KT 220V290 9999NDV NSC 27/10 Q1015

2010/08/09 17:00
LFPO 091700Z VRB02KT CAVOK 27/10 Q1015 NOSIG

2010/08/09 17:00
LFQQ 091700Z 30005KT 270V330 CAVOK 24/12 Q1015 NOSIG

2010/08/09 17:00
LFRB 091700Z 23010KT 8000 OVC006 17/16 Q1018

2010/08/09 17:00
LFRC 091700Z AUTO 23011KT 200V270 9999NDV FEW032 20/12 Q1016

2010/08/09 17:00
LFRD 091700Z AUTO 36007KT 320V040 9999NDV NSC 21/12 Q1017

2010/08/09 17:00
LFRK 091700Z 35007KT 310V030 CAVOK 21/12 Q1016 NOSIG

2010/08/09 17:00
LFRN 091700Z AUTO 32006KT 260V010 9999NDV NSC 25/09 Q1016

2010/08/09 17:00
LFRO 091700Z AUTO 25010KT 9999NDV OVC026 19/16 Q1017

2010/08/09 17:00
LFRQ 091700Z AUTO 27009KT 240V300 9999NDV OVC011 18/15 Q1018

2010/08/09 17:00
LFRS 091700Z 27010KT 240V300 CAVOK 25/12 Q1016 NOSIG

2010/08/09 17:00
LFRT 091700Z AUTO 04006KT 010V070 9999NDV SCT046 19/14 Q1017

2010/08/09 17:00
LFRZ 091700Z AUTO 29011KT 260V320 9999NDV NSC 22/12 Q1017

2010/08/09 17:00
LFSB 091700Z 29005KT 240V340 CAVOK 26/10 Q1016 NOSIG

2010/08/09 17:00
LFSF 091700Z AUTO VRB02KT 9999NDV NSC 25/09 Q1016

2010/08/09 17:00
LFSN 091700Z VRB02KT CAVOK 24/11 Q1016 NOSIG

2010/08/09 17:00
LFSR 091700Z AUTO VRB02KT 9999NDV NSC 25/12 Q1015

2010/08/09 17:00
LFST 091700Z 35004KT 9999 FEW053 SCT066 25/11 Q1016 NOSIG

2010/08/09 17:00
LFTW 091700Z AUTO 22008KT 180V250 9999NDV NSC 28/18 Q1014

2010/08/09 17:00
LFBA 091700Z AUTO 29005KT 250V330 9999NDV SCT040 BKN046 23/16 Q1018

2010/08/09 17:00
LFBC 091700Z AUTO 26007KT 220V300 9999NDV FEW026 OVC039 22/14 Q1019

2010/08/09 17:00
LFBL 091700Z AUTO 26009KT 210V300 9999NDV FEW035 SCT042 23/15 Q1018

2010/08/09 17:00
LFBM 091700Z AUTO 30010KT 270V340 9999NDV SCT044 25/15 Q1019

2010/08/09 17:00
LFKF 091700Z 19004KT 9999 FEW080 SCT150 BKN260 27/14 Q1015 NOSIG

2010/08/09 17:00
LFOE 091700Z AUTO 35008KT 320V020 9999NDV NSC 24/13 Q1016

2010/08/09 17:00
LFOP 091700Z AUTO 29008KT 260V330 9999NDV NSC 23/13 Q1016

2010/08/09 17:00
LFPB 091700Z AUTO VRB03KT 9999NDV NSC 27/12 Q1015

2010/08/09 17:00
LFPG 091700Z 28004KT 250V310 CAVOK 26/11 Q1015 NOSIG

2010/08/09 17:00
LFPV 091700Z AUTO 30003KT 250V020 9999NDV NSC 26/11 Q1015

2010/08/09 17:00
LFQQ 091700Z 30005KT 270V330 CAVOK 24/12 Q1015 NOSIG

2010/08/09 17:00
LFRH 091700Z 27015KT CAVOK 20/14 Q1018

2010/08/09 17:00
LFSD 091700Z AUTO VRB02KT 9999NDV NSC 26/12 Q1015

2010/08/09 17:00
LFSI 091700Z AUTO 35005KT 9999NDV NSC 25/11 Q1016

2010/08/09 17:00
LFSL 091700Z AUTO 24005KT 190V280 9999NDV NSC 23/15 Q1018

2010/08/09 17:00
LFSO 091700Z AUTO VRB02KT 9999NDV NSC 24/10 Q1016

2010/08/09 17:00
LFSX 091700Z AUTO 28004KT 250V310 9999NDV NSC 25/10 Q1016

2010/08/09 17:00
LFTH 091700Z AUTO 20004KT 160V230 9999NDV BKN012 BKN017 24/21 Q1015

2010/08/09 16:50
LGMK 091650Z 36018KT CAVOK 27/19 Q1005

2010/08/09 17:00
UGTB 091700Z 07006KT 9999 SCT066 SCT100 28/09 Q1013 NOSIG RMK 13CLRD80

2010/08/09 16:54
PGSN 091654Z 11006KT 10SM -RA FEW016 SCT075 OVC090 25/23 A2988

2010/08/09 16:55
PGUA 091655Z AUTO 16003KT 10SM BKN048 BKN200 BKN230 25/ A2989

2010/08/09 16:54
PGUM 091654Z 00000KT 10SM BKN050 25/24 A2989

2010/08/09 17:00
PKWA 091700Z AUTO 05013KT 10SM CLR 28/23 A2985

2010/08/09 16:56
PWAK 091656Z 07012KT 10SM FEW023 27/24 A3003

2010/08/09 17:00
FBSK 091700Z 22006KT CAVOK 16/03 Q1024 NOSIG

2010/08/09 17:00
FBFT 091700Z VRB02KT CAVOK 22/12 Q1021

2010/08/09 17:00
FBMN 091700Z 16005KT CAVOK 24/03 Q1020

2010/08/09 17:00
FBKE 091700Z 16006KT CAVOK 23/02 Q1020

2010/08/09 17:00
UAFM 091700Z 19004MPS CAVOK 25/07 Q1009 NOSIG

2010/08/09 17:00
UDYZ 091700Z 04007G14MPS 9999 SKC 30/09 Q1008 09010070 NOSIG

2010/08/09 17:00
UDSG 091700Z 06008MPS 9999 FEW050 23/10 Q1016 02CLRD70 NOSIG

2010/08/09 17:00
UAAA 091700Z 22005MPS 9999 VCTS SCT050CB BKN100 23/08 Q1009 88CLRD65 TEMPO TS

2010/08/09 17:00
UACC 091700Z 02004MPS CAVOK 13/05 Q1013 040/0070 NOSIG RMK QFE729/0972

2010/08/09 17:00
UARR 091700Z 35002MPS CAVOK 28/03 Q1015 04CLRD70 NOSIG RMK QFE758/1010

2010/08/09 17:00
UATE 091700Z 11005MPS CAVOK 32/07 Q1010 120///70 NOSIG RMK QFE755/1007

2010/08/09 17:00
UATG 091700Z 28003MPS 9999 FEW033CB SCT133 31/10 Q1011 14CLRD70 NOSIG RMK QFE760/1014 

2010/08/09 17:00
UATT 091700Z 06005MPS 6000 FU SKC 28/07 Q1016 31CLRD70 NOSIG RMK QFE742/0989

2010/08/09 17:00
UAUU 091700Z 07004MPS CAVOK 20/03 Q1019 33CLRD70 NOSIG RMK QFE749/0998

2010/08/09 17:00
UTDD 091700Z 10003MPS 9999 FEW200 26/08 Q1005 09CLRD70 NOSIG RMK QFE687/0916

2010/08/09 17:00
UTDL 091700Z 23004MPS 9999 BKN140 29/09 Q1005 NOSIG RMK QFE716 8809//70

2010/08/09 17:00
UTAA 091700Z 00000MPS 9000 SKC 32/03 Q1008 NOSIG

2010/08/09 17:00
UTAK 091700Z 32004MPS 6000 SCT100 30/20 Q1008 NOSIG

2010/08/09 17:00
UTAM 091700Z 30004MPS 6300 SKC 30/08 Q1005 NOSIG

2010/08/09 17:00
UTAT 091700Z 32002MPS P5000 FEW200 28/12 Q1008 NOSIG

2010/08/09 17:00
EICK 091700Z 30011KT 9999 SCT038 SCT250 18/08 Q1011 NOSIG

2010/08/09 17:00
EIDW 091700Z 26012KT 9999 FEW028 18/09 Q1009 NOSIG

2010/08/09 17:00
EIKN 091700Z 26017KT 9999 FEW018CB SCT022 BKN060 15/09 Q1009 NOSIG

2010/08/09 17:00
EINN 091700Z 26012KT 9999 SCT028 17/10 Q1011 NOSIG

2010/08/09 16:55
FJDG 091655Z 15011G18KT 9999 FEW020 FEW080 BKN220 26/23 A2985 RMK SLP105 T02580226

2010/08/09 17:00
FMMI 091700Z 11006KT 9999 FEW016 BKN020 14/14 Q1026 NOSIG

2010/08/09 16:55
KQAE 091655Z 34004KT 6000 DU HZ CLR 40/09 A2954 RMK SLP000

2010/08/09 16:55
KQMG 091655Z AUTO 34005KT 10SM CLR 27/14 A3011 RMK AO2 SLP124 T02730137

2010/08/09 16:55
KQTO 091655Z 30006KT 9999 CLR 38/05 A2951 RMK SLP992

2010/08/09 16:55
KQTU 091655Z 31004KT 9999 CLR 40/03 A2957 RMK SLP996

2010/08/09 16:55
KQTX 091655Z 31003KT 9999 FU FEW000 FEW008 37/M04 A2959 RMK VIS NW 8000 FU FEW000 FEW008 SLP991

2010/08/09 16:55
KQTZ 091655Z VRB03KT 6000 DU HZ CLR 39/06 A2952 RMK PRESRR SLP990 QNH999MB WND DATA ESTMD ALSTG/SLP ESTMD

2010/08/09 16:55
KQXJ 091655Z 31008KT 3200 DU HZ FEW000 40/M01 A2948 RMK DU FEW000 SLP982 PA+431 DA+3409

2010/08/09 17:00
ORER 091700Z 27005KT CAVOK 35/M02 Q1002

2010/08/09 16:55
KQAJ 091655Z 35004KT 9999 FEW160 40/04 A2960 RMK SLP007 WND DATA ESTMD ALSTG/SLP ESTMD

2010/08/09 16:55
KQAQ 091655Z 32006KT 6000 DU HZ FEW020 42/06 A2954 RMK DU FEW020 SLP000 PA +472 DA +3590

2010/08/09 16:55
KQPD 091655Z AUTO 21003KT 8000 33/01 A2960 RMK AO2 SLP926 T03250010 $

2010/08/09 16:55
KQSL 091655Z 31007KT 9999 CLR 40/02 A2957 RMK SLP000 Q1001MB

2010/08/09 16:55
KQTI 091655Z AUTO 30006KT 9999 FEW240 37/03 A2962 RMK AO2 SLP004 T03710029

2010/08/09 16:54
PGSN 091654Z 11006KT 10SM -RA FEW016 SCT075 OVC090 25/23 A2988

2010/08/09 16:54
PGUM 091654Z 00000KT 10SM BKN050 25/24 A2989

2010/08/09 16:50
PKMR 091650Z 06007KT 15SM SCT015 BKN045 BKN110 OVC300 28/25 A2981

2010/08/09 17:00
PKWA 091700Z AUTO 05013KT 10SM CLR 28/23 A2985

2010/08/09 16:50
PTKK 091650Z VRB05KT 15SM FEW014 BKN120 OVC280 25/23 A2983

2010/08/09 16:53
PTKR 091653Z 18005KT 12SM SCT016TCU OVC180 26/25 A2983

2010/08/09 16:53
PTRO 091653Z 20004KT 14SM BKN015CB OVC280 25/24 A2988

2010/08/09 16:50
PTTP 091650Z 06003KT 15SM BKN018TCU OVC300 27/25 A2986

2010/08/09 16:55
PTYA 091655Z VRB05KT 12SM SCT016 SCT030 BKN130 OVC300 26/23 A2984

2010/08/09 16:56
PWAK 091656Z 07012KT 10SM FEW023 27/24 A3003

2010/08/09 17:00
RJAA 091700Z 17004KT 9999 FEW020 23/22 Q1015 NOSIG

2010/08/09 17:00
RJAH 091700Z 20004KT 9999 FEW020 BKN150 24/24 Q1015

2010/08/09 17:00
RJCC 091700Z 15005KT 2500 BR FEW001 BKN002 21/20 Q1014

2010/08/09 17:00
RJTT 091700Z 18007KT 9999 FEW012 SCT050 BKN070 26/23 Q1015 RMK 1CU012 3SC050 5AC070 A2998

2010/08/09 17:00
RJTT 091700Z 18007KT 9999 FEW012 SCT050 BKN070 26/23 Q1015

2010/08/09 16:55
RODN 091655Z 18018G26KT 9999 SCT018 BKN024 28/26 A2972 RMK AO2A PK WND 17029/1559 CIG 024V029 SCT V BKN SLP063 T02790256

2010/08/09 17:00
RJFR 091700Z 09006KT 9999 FEW010 SCT070 BKN160 27/24 Q1011

2010/08/09 16:55
RJTY 091655Z AUTO 19005KT 9999 BKN050 OVC065 24/23 A3004 RMK AO2 SLP166 T02420228

2010/08/09 17:00
RKNY 091700Z AUTO 20003KT3000NDV NCD 23/21 Q1008

2010/08/09 17:00
RKPC 091700Z 22003KT 6000 -SHRA BKN020 BKN110 28/25 Q1006 NOSIG

2010/08/09 17:00
RKSI 091700Z 06004KT 9999 SCT040 BKN120 28/21 Q1008 NOSIG

2010/08/09 17:00
RKSS 091700Z 11002KT 9999 SCT040 BKN120 26/22 Q1008 NOSIG

2010/08/09 17:00
LCLK 091700Z 21012KT CAVOK 29/26 Q1004 NOSIG

2010/08/09 17:00
LCPH 091700Z 29011KT 9999 FEW013 29/26 Q1005

2010/08/09 16:50
ENSG 091650Z VRB04KT 9999 VCSH FEW025 SCT045 19/13 Q1009

2010/08/09 16:50
BGBW 091650Z 03004KT 9999 -RA FEW010 SCT015 BKN075 13/09 Q1008 RMK 1ST 3SC 7AC

2010/08/09 16:50
BGBW 091650Z 03004KT 9999 FEW010 SCT015 BKN075 13/09 Q1008 RMK 1ST 3SC 7AC

2010/08/09 16:50
BGCO 091650Z 34028KT 9999 BLSA FEW210 11/M02 Q1009

2010/08/09 16:50
BGGH 091650Z 20012KT 9999 SCT010 BKN050 13/09 Q1008

2010/08/09 16:50
BGJN 091650Z VRB02KT 9999 SCT100 BKN120 11/02 Q1007

2010/08/09 16:50
BGKK 091650Z 22013KT 9999 FEW100 BKN120 12/M00 Q1009

2010/08/09 16:50
BGSF 091650Z 22003KT 9999 SCT029 BKN045 16/11 Q1008

2010/08/09 16:55
BGTL 091655Z AUTO 25004KT 9999 CLR 05/02 A2988 RMK AO2 SLP122 T00500022

2010/08/09 17:00
BIAR 091700Z 35013KT CAVOK 15/11 Q1011

2010/08/09 17:00
BIEG 091700Z 36012KT 9999 FEW040 18/12 Q1010

2010/08/09 17:00
BIKF 091700Z 30007KT 9999 BKN007 12/08 Q1013

2010/08/09 17:00
BIRK 091700Z 27006KT 9999 BKN010 12/10 Q1013

2010/08/09 17:00
GVAC 091700Z 06009KT 9999 SCT014 28/19 Q1012 NOSIG

2010/08/09 17:00
LPLA 091700Z 05010KT 9999 FEW025 BKN045 24/18 Q1022

2010/08/09 16:55
TXKF 091655Z 18012KT 9999 FEW020 BKN300 30/23 Q1022

2010/08/09 16:54
PGSN 091654Z 11006KT 10SM -RA FEW016 SCT075 OVC090 25/23 A2988 RMK AO2 SLP116 P0004 T02500233

2010/08/09 16:55
PGUA 091655Z AUTO 16003KT 10SM BKN048 BKN200 BKN230 25/ A2989 RMK AO2 DZB1619E1646 CIG 040 RWY24L SLP103 P0000 T0246 VISNO RWY24L $

2010/08/09 16:54
PGUM 091654Z 00000KT 10SM BKN050 25/24 A2989 RMK AO2 SLP114 T02500244

2010/08/09 16:50
PHJH 091650Z 07015KT 15SM FEW035 FEW080 24/17 A3008

2010/08/09 16:53
PHJR 091653Z 09004KT 10SM CLR 25/16 A3009 RMK AO2 SLP196 T02500156

2010/08/09 16:54
PHMK 091654Z 06004KT 10SM CLR 24/14 A3009 RMK AO2 SLP190 T02440144

2010/08/09 16:50
PKMR 091650Z 06007KT 15SM SCT015 BKN045 BKN110 OVC300 28/25 A2981 RMK SLP095 T02760249

2010/08/09 17:00
PKWA 091700Z AUTO 05013KT 10SM CLR 28/23 A2985 RMK AO2 T02760231

2010/08/09 16:56
PMDY 091656Z AUTO 07008KT 10SM CLR 26/21 A3022 RMK AO2 TSNO T02550211 SLP541

2010/08/09 16:50
PTKK 091650Z VRB05KT 15SM FEW014 BKN120 OVC280 25/23 A2983 RMK SLP105 T02470234

2010/08/09 16:53
PTKR 091653Z 18005KT 12SM SCT016TCU OVC180 26/25 A2983 RMK SHRAE35 TCU ALQDS SLP102 T02610246

2010/08/09 16:53
PTRO 091653Z 20004KT 14SM BKN015CB OVC280 25/24 A2988 RMK CB VC ALQDS

2010/08/09 16:50
PTTP 091650Z 06003KT 15SM BKN018TCU OVC300 27/25 A2986 RMK SHRAE25 TCU ALQDS SLP110 T02660251

2010/08/09 16:55
PTYA 091655Z VRB05KT 12SM SCT016 SCT030 BKN130 OVC300 26/23 A2984 RMK SLP105 T02630234

2010/08/09 16:56
PWAK 091656Z 07012KT 10SM FEW023 27/24 A3003 RMK AO2A

2010/08/09 17:00
RPLC 091700Z 00000G20KT 9999 FEW036 BKN100 OVC270 25/24 Q1009 A2982 RMK NOSIG

2010/08/09 17:00
LPLA 091700Z 05010KT 9999 FEW025 BKN045 24/18 Q1022

2010/08/09 17:00
UBBB 091700Z 17006KT CAVOK 31/24 Q1009 NOSIG RMK R88CLRD70

2010/08/09 17:00
UBBG 091700Z 22005KT 9999 SCT100 26/12 Q1010 NOSIG RMK R12L/CLRD70

2010/08/09 17:00
UTTT 091700Z 10003MPS 070V140 CAVOK 28/06 Q1006 R08R/CLRD70 TEMPO 03005G10MPS

2010/08/09 16:56
KABQ 091656Z 00000KT 10SM FEW060 SCT140 26/12 A3017

2010/08/09 16:52
KATL 091652Z 00000KT 10SM SCT048 32/21 A3005

2010/08/09 16:53
KBGR 091653Z 29006KT 10SM SCT035 BKN047 27/18 A2991

2010/08/09 16:53
KBHM 091653Z 11004KT 10SM FEW047 34/21 A3003

2010/08/09 16:53
KBNA 091653Z 25005KT 10SM SCT039 SCT060 BKN200 33/23 A3000

2010/08/09 16:54
KBOS 091654Z 23011KT 10SM FEW050 SCT060 SCT100 32/17 A2994

2010/08/09 16:54
KBWI 091654Z VRB06KT 9SM SCT048 SCT180 BKN250 32/19 A3000

2010/08/09 16:56
KCHS 091656Z 04009KT 10SM FEW025 33/23 A3000

2010/08/09 16:51
KCLE 091651Z 24006KT 10SM BKN250 29/20 A3002

2010/08/09 16:52
KCLT 091652Z 28003KT 10SM SCT040 BKN250 32/21 A3006

2010/08/09 16:52
KCVG 091652Z 26005KT 9SM BKN250 33/18 A3002

2010/08/09 16:53
KDEN 091653Z 27004KT 10SM FEW080 SCT100 BKN140 26/13 A3012

2010/08/09 16:53
KDFW 091653Z 15007KT 10SM CLR 34/22 A2994

2010/08/09 16:53
KDTW 091653Z 26008KT 7SM FEW080 BKN130 OVC220 28/21 A2997

2010/08/09 16:51
KEWR 091651Z 21007G15KT 10SM FEW055 SCT250 34/17 A2999

2010/08/09 16:53
KFLL 091653Z 13013G20KT 10SM FEW033 SCT090 31/24 A2994

2010/08/09 16:52
KIAD 091652Z 20005KT 9SM FEW045 BKN250 32/21 A3001

2010/08/09 16:53
KIAH 091653Z 26004KT 10SM SCT031 BKN250 34/24 A2997

2010/08/09 16:54
KIND 091654Z 22007KT 10SM FEW120 SCT250 33/21 A2997

2010/08/09 16:56
KJAX 091656Z 06011KT 7SM RA SCT032TCU SCT200 29/24 A2996

2010/08/09 16:51
KJFK 091651Z 18009KT 8SM FEW040 SCT250 29/22 A3001

2010/08/09 16:56
KLAS 091656Z 16005KT 10SM CLR 29/09 A2993

2010/08/09 16:51
KLGA 091651Z 23011KT 10SM FEW060 SCT250 33/18 A2998

2010/08/09 16:53
KLIT 091653Z 35004KT 10SM FEW050 BKN250 36/23 A2995

2010/08/09 16:53
KLOU 091653Z 18005KT 10SM CLR 33/21 A2999

2010/08/09 16:53
KMCI 091653Z 17007KT 10SM SCT250 34/23 A2991

2010/08/09 16:53
KMCO 091653Z 10008KT 10SM SCT020 BKN070 BKN250 29/24 A2993

2010/08/09 16:53
KMEM 091653Z 23004KT 10SM FEW040 SCT130 BKN250 34/24 A2997

2010/08/09 16:53
KMIA 091653Z 17010KT 7SM -RA FEW007 BKN015CB BKN040 OVC130 26/24 A2997

2010/08/09 16:53
KMSP 091653Z 00000KT 10SM FEW150 32/21 A2991

2010/08/09 17:00
SCAR 091700Z 23009KT CAVOK 16/08 Q1017

2010/08/09 17:00
SCBA 091700Z 30024G35KT 9999 FEW020 SCT030 BKN200 05/M01 Q1018

2010/08/09 17:00
SCCF 091700Z 25013KT CAVOK 23/M13 Q1025

2010/08/09 17:00
SCCH 091700Z 18007KT CAVOK 11/02 Q1017

2010/08/09 17:00
SCCI 091700Z 26030G41KT 9999 SCT013 03/M00 Q1003 NOSIG

2010/08/09 17:00
SCDA 091700Z 30007KT 8000 BKN020 15/09 Q1018

2010/08/09 17:00
SCEL 091700Z VRB03KT CAVOK 17/00 Q1015 NOSIG

2010/08/09 17:00
SCFA 091700Z 18009KT 9999 FEW020 BKN200 16/08 Q1017 NOSIG

2010/08/09 17:00
SCGE 091700Z 18010KT CAVOK 12/04 Q1019

2010/08/09 17:00
SCIE 091700Z 19012KT CAVOK 14/02 Q1018

2010/08/09 17:00
SCIP 091700Z 03009KT 9999 FEW013 SCT025 19/14 Q1024 TEMPO 6000 -SHRA BKN015

2010/08/09 17:00
SCTE 091700Z 17004KT 9999 BKN022 11/09 Q1025 NOSIG

2010/08/09 17:00
SGAS 091700Z 17010KT CAVOK 18/09 Q1020

2010/08/09 17:00
SGES 091700Z 13004KT CAVOK 22/13 Q1018

2010/08/09 17:00
SLCB 091700Z 23005KT 9999 SKC 23/03 Q1026

2010/08/09 17:00
SLLP 091700Z 34005KT 9999 SKC 14/M10 Q1039

2010/08/09 17:00
SLTJ 091700Z 26008KT 9999 NSC 16/05 Q1022

2010/08/09 17:00
SLVR 091700Z 15013G23KT 8000 NSC 24/07 Q1019

2010/08/09 17:00
SUAA 091700Z 27008KT CAVOK 16/04 Q1024

2010/08/09 17:00
SUCA 091700Z 29009KT CAVOK 16/03 Q1023

2010/08/09 17:00
SULS 091700Z 24011KT CAVOK 15/04 Q1024

2010/08/09 17:00
SUMU 091700Z 25007KT CAVOK 17/01 Q1024 NOSIG

2010/08/09 17:00
SUSO 091700Z 12007KT CAVOK 17/02 Q1024

2010/08/09 17:00
SOCA 091700Z 07011KT 9999 FEW023 SCT083 BKN150 31/24 Q1013 NOSIG

2010/08/09 17:00
SPIM 091700Z 18006KT 6000 FEW013 OVC017 17/12 Q1018 NOSIG RMK BIRD HAZARD RWY 15 PP000

2010/08/09 17:00
SVBC 091700Z 18008KT 9999 -DZ OVC010/CB 28/23 Q1015

2010/08/09 17:00
SVMG 091700Z 18006KT 9999 SCT010CB SCT080 32/19 Q1013 TEMPO

2010/08/09 17:00
SVMI 091700Z 36003KT 9999 FEW016 SCT100 32/26 Q1013 NOSIG

2010/08/09 17:00
SMJP 091700Z 17003KT 9999 SCT030 FEW035CB 31/23 Q1013 NOSIG

2010/08/09 17:00
LEAL 091700Z 06007KT 030V100 CAVOK 30/19 Q1014 NOSIG

2010/08/09 17:00
LEAM 091700Z 24007KT CAVOK 26/23 Q1014

2010/08/09 17:00
LEAS 091700Z 06006KT 010V100 9999 SCT016 BKN029 21/17 Q1020 NOSIG

2010/08/09 17:00
LEBB 091700Z 35007KT 310V020 9999 SCT030 BKN045 23/17 Q1020 NOSIG

2010/08/09 17:00
LEBL 091700Z 20006KT 160V250 9999 FEW010 FEW025TCU 27/22 Q1014 NOSIG

2010/08/09 17:00
LECO 091700Z 36007KT 310V030 CAVOK 24/17 Q1018

2010/08/09 17:00
LEGE 091700Z VRB06G18KT 1500 TS SHRA FEW018 SCT030CB 21/20 Q1016

2010/08/09 17:00
LEGR 091700Z VRB03G13KT 9999 FEW090 38/09 Q1016

2010/08/09 17:00
LEIB 091700Z 09007KT 060V120 CAVOK 27/21 Q1014 NOSIG

2010/08/09 17:00
LEJR 091700Z 26008KT 230V330 CAVOK 37/12 Q1012

2010/08/09 17:00
LELC 091700Z 05007KT 010V100 CAVOK 29/15 Q1014 NOSIG

2010/08/09 17:00
LELL 091700Z 12009KT 090V150 9999 FEW012 27/19 Q1014

2010/08/09 17:00
LEMD 091700Z 26005KT 210V310 CAVOK 35/10 Q1016 NOSIG

2010/08/09 17:00
LEMG 091700Z 15007KT 110V170 CAVOK 29/19 Q1014 NOSIG

2010/08/09 17:00
LEMH 091700Z 17005KT 140V210 CAVOK 27/18 Q1016

2010/08/09 17:00
LEPA 091700Z 23012KT CAVOK 28/19 Q1015 NOSIG

2010/08/09 17:00
LEPP 091700Z 34015KT 9999 SCT024 21/16 Q1020

2010/08/09 17:00
LERS 091700Z 20005KT 150V250 9999 FEW025TCU 28/18 Q1014

2010/08/09 17:00
LESO 091700Z 36004KT 300V080 9999 FEW020 BKN040 22/17 Q1020

2010/08/09 17:00
LEST 091700Z 35011KT 320V030 CAVOK 26/16 Q1018 NOSIG

2010/08/09 17:00
LETO 091700Z VRB02KT 9999 FEW050 33/11 Q1016 NOSIG

2010/08/09 17:00
LEVC 091700Z 12009KT CAVOK 30/19 Q1013 NOSIG

2010/08/09 17:00
LEVD 091700Z 27015KT 9999 FEW035TCU 31/07 Q1018

2010/08/09 17:00
LEVS 091700Z 24005KT 210V290 9999 FEW050 34/09 Q1017

2010/08/09 17:00
LEVT 091700Z 05012KT 020V090 9999 FEW020 SCT030 22/15 Q1020

2010/08/09 17:00
LEVX 091700Z 27005KT 250V340 CAVOK 30/16 Q1016

2010/08/09 17:00
LEXJ 091700Z 04006KT 9999 SCT025 SCT048 22/16 Q1020

2010/08/09 17:00
LEZL 091700Z 34008KT 290V020 CAVOK 39/11 Q1012 NOSIG

2010/08/09 17:00
SCSE 091700Z 27008KT 9999 FEW016 OVC018 13/09 Q1019 NEFO PLAYA 2700FT

2010/08/09 17:00
SCTC 091700Z 21007KT 150V260 CAVOK 13/05 Q1021

2010/08/09 17:00
SCVD 091700Z 20003KT 9999 SCT026 11/07 Q1023 RMK HR81

2010/08/09 17:00
DTMB 091700Z 08006KT CAVOK 29/17 Q1015 NOSIG

2010/08/09 17:00
DTTA 091700Z 03006KT 010V070 9999 FEW033 29/13 Q1015 NOSIG

2010/08/09 17:00
DTTB 091700Z 08012KT CAVOK 28/13 Q1016

2010/08/09 17:00
DTTD 091700Z 07010KT CAVOK 33/11 Q1015

2010/08/09 17:00
DTTG 091700Z 10008KT CAVOK 31/09 Q1014 NOSIG

2010/08/09 17:00
DTTJ 091700Z 10008KT CAVOK 29/22 Q1014 NOSIG

2010/08/09 17:00
DTTK 091700Z 06004KT CAVOK 33/06 Q1014

2010/08/09 17:00
DTTL 091700Z 01006KT CAVOK 27/18 Q1015

2010/08/09 17:00
DTTN 091700Z 08010KT 9999 FEW020 SCT200 35/11 Q1014

2010/08/09 17:00
DTTR 091700Z 03008KT 9999 FEW026 39/06 Q1013

2010/08/09 17:00
DTTR 091700Z 03008KT 9999 FEW026 39/06 Q1013 RMK SIROCCO

2010/08/09 17:00
DTTX 091700Z 08008KT CAVOK 28/18 Q1015 NOSIG

2010/08/09 17:00
DTTZ 091700Z 10010KT CAVOK 36/19 Q1012 NOSIG

2010/08/09 16:53
KMSY 091653Z COR 34008KT 10SM SCT060 BKN250 33/26 A2999

2010/08/09 16:53
KMSY 091653Z 34008KT 10SM SCT060 33/26 A2999

2010/08/09 16:53
KOAK 091653Z 27004KT 10SM OVC012 16/11 A2994

2010/08/09 16:52
KOKC 091652Z 18010KT 10SM CLR 33/22 A2993

2010/08/09 16:53
KONT 091653Z 00000KT 5SM HZ CLR 19/12 A2992

2010/08/09 16:51
KORD 091651Z 23006KT 10SM FEW055 SCT150 BKN200 BKN250 27/22 A2994

2010/08/09 16:51
KORF 091651Z 05006KT 10SM FEW030 30/22 A3004

2010/08/09 16:53
KPBI 091653Z 15010KT 10SM SCT024 SCT085 BKN150 31/24 A2994

2010/08/09 16:54
KPHF 091654Z 09007KT 10SM CLR 32/21 A3004

2010/08/09 16:54
KPHL 091654Z 21009KT 10SM FEW050 SCT250 32/19 A3001

2010/08/09 16:51
KPHX 091651Z 00000KT 10SM FEW150 34/02 A2988

2010/08/09 16:51
KPIT 091651Z 00000KT 10SM FEW140 BKN250 29/15 A3004

2010/08/09 16:51
KRDU 091651Z 08003KT 9SM SCT045 32/21 A3005

2010/08/09 16:51
KSAN 091651Z VRB03KT 10SM OVC017 18/13 A2995

2010/08/09 16:53
KSEA 091653Z 21008KT 10SM BKN007 OVC012 14/12 A2998

2010/08/09 16:56
KSFO 091656Z 17005KT 10SM R28R/6000VP6000FT FEW010 BKN017 17/11 A2993

2010/08/09 16:51
KSTL 091651Z 00000KT 9SM FEW060 SCT130 BKN200 33/24 A2995

2010/08/09 16:51
KTEB 091651Z 21005KT 10SM FEW060 32/17 A2997

2010/08/09 16:53
KTPA 091653Z VRB06KT 8SM SCT025 31/24 A2992

2010/08/09 16:53
KLAX 091653Z 25007KT 8SM SCT016 18/13 A2994

2010/08/09 16:50
EDDS 091650Z 35004KT CAVOK 22/11 Q1016 NOSIG

2010/08/09 16:50
EDMA 091650Z 06004KT 030V110 9999 FEW045 23/13 Q1017

2010/08/09 16:50
EGPK 091650Z 24010KT 9999 SCT025 17/10 Q1008

2010/08/09 16:55
EGUL 091655Z AUTO 24010G19KT 9999 CLR 24/09 A2986 RMK AO2 SLP114 T02440089

2010/08/09 16:55
EGUN 091655Z AUTO 23011KT 9999 CLR 25/09 A2987 RMK AO2 SLP105 T02500088

2010/08/09 16:55
EGVA 091655Z AUTO 22012KT 9999 OVC019 19/15 A2991 RMK AO2 CIG 018V022 SLP128 T01930152 $

2010/08/09 16:55
ETAD 091655Z AUTO 24005KT 9999 FEW055 SCT070 23/09 A3003 RMK AO2 SLP161 T02280088 $

2010/08/09 16:55
ETAR 091655Z AUTO 25004KT 9999 OVC075 23/12 A3002 RMK AO2 DZB1602E1610 SLP161 P0000 T02300124 $

2010/08/09 16:55
KQHT 091655Z VRB03KT 9999 FEW150 24/08 A2984 RMK AO2A SLP065

2010/08/09 16:55
KQIR 091655Z 09006KT 9000 HZ FEW200 35/28 A2946 RMK AO2A SLP975 T03480275

2010/08/09 17:00
LEMO 091700Z 35007KT 320V030 CAVOK 41/15 Q1012 NOSIG

2010/08/09 16:50
LIRN 091650Z 30006KT CAVOK 27/20 Q1014

2010/08/09 16:55
LIYW 091655Z AUTO 24003KT 9999 CLR 28/18 A2996 RMK AO2 DZE1602 SLP142 P0000 T02790184

2010/08/09 17:00
LPLA 091700Z 05010KT 9999 FEW025 BKN045 24/18 Q1022

2010/08/09 16:50
LTAC 091650Z 03011KT 9999 FEW040 30/09 Q1011 NOSIG

2010/08/09 16:55
FJDG 091655Z 15011G18KT 9999 FEW020 FEW080 BKN220 26/23 A2985 RMK SLP105 T02580226

2010/08/09 16:56
PHBK 091656Z AUTO 11004KT 10SM CLR 23/16 A3009 RMK AO2 SLP190 T02330161 TSNO $

2010/08/09 16:55
PHHI 091655Z AUTO 00000KT 10SM CLR 22/18 A3010 RMK AO2 SLP182 T02160182 $

2010/08/09 16:55
PHSF 091655Z VRB06KT 7SM CLR 13/M06 A3031 RMK SLPNO

2010/08/09 17:00
PKWA 091700Z AUTO 05013KT 10SM CLR 28/23 A2985 RMK AO2 T02760231

2010/08/09 16:56
PMDY 091656Z AUTO 07008KT 10SM CLR 26/21 A3022 RMK AO2 TSNO T02550211 SLP541

2010/08/09 16:56
PWAK 091656Z 07012KT 10SM FEW023 27/24 A3003 RMK AO2A

2010/08/09 16:55
RJTY 091655Z AUTO 19005KT 9999 BKN050 OVC065 24/23 A3004 RMK AO2 SLP166 T02420228

2010/08/09 16:55
RKSO 091655Z 07004KT 9999 FEW070 25/25 A2978 RMK AO2A SLP086 T0253 $

2010/08/09 16:55
RODN 091655Z 18018G26KT 9999 SCT018 BKN024 28/26 A2972 RMK AO2A PK WND 17029/1559 CIG 024V029 SCT V BKN SLP063 T02790256

2010/08/09 17:00
OIBB 091700Z 18004KT 7000 SKC 34/29 Q0997 A2944

2010/08/09 17:00
OINZ 091700Z 19004KT CAVOK 28/21 Q1009 A2981

2010/08/09 17:00
OIAA 091700Z 18004KT CAVOK 37/20 Q0996

2010/08/09 17:00
OIBK 091700Z 32004KT 7000 NSC 33/29 Q0996 A2944

2010/08/09 17:00
OICC 091700Z 00000KT 9999 FEW045 28/M06 Q1011 A2987 863.4

2010/08/09 17:00
OIIE 091700Z 06008KT CAVOK 31/02 Q1011 A2985

2010/08/09 17:00
OIYY 091700Z 03004KT CAVOK 31/M05 Q1013 A2993

2010/08/09 17:00
LRBC 091700Z 36008KT CAVOK 24/20 Q1014

2010/08/09 17:00
LRCV 091700Z 30006KT CAVOK 27/18 Q1013

2010/08/09 17:00
LRIA 091700Z 32004KT 280V360 CAVOK 24/20 Q1014

2010/08/09 17:00
LRSV 091700Z 32003KT 9999 -SHRA FEW040CB 21/19 Q1016

2010/08/09 17:00
LRTC 091700Z AUTO 34012KT 9999 NCD 28/21 Q1010

2010/08/09 17:00
HSSS 091700Z 18012KT 2500M SA 38/14 Q1006 NO SIG

2010/08/09 17:00
OOMS 091700Z VRB01KT 8000 NSC 31/27 Q0998 NOSIG

2010/08/09 16:50
OOSA 091650Z 15005KT 6000 SCT012 BKN025 26/23 Q1003 NOSIG RMK05 RH84

2010/08/09 17:00
FYKT 091700Z AUTO 07006KT //// // ////// 13/M09 Q1029

2010/08/09 17:00
FYML 091700Z AUTO 16006KT //// // ////// ///// Q1030

2010/08/09 17:00
LRAR 091700Z 35004KT CAVOK 25/16 Q1016

2010/08/09 17:00
LRBM 091700Z 29004KT 260V320 9999 FEW055 24/16 Q1015

2010/08/09 17:00
LRCL 091700Z 31004KT 9999 FEW050 22/17 Q1016

2010/08/09 17:00
LROD 091700Z 30004KT CAVOK 25/17 Q1016

2010/08/09 17:00
LRSM 091700Z AUTO 29004KT 9999 NCD 24/18 Q1015

2010/08/09 17:00
LRTM 091700Z VRB02KT 9999 FEW050 23/20 Q1015

2010/08/09 16:50
BGAA 091650Z 28003KT 9999 BKN110 10/06 Q1007

2010/08/09 16:50
BGMQ 091650Z VRB05KT 9999 BKN008 BKN032 11/09 Q1008

2010/08/09 16:50
BGQQ 091650Z AUTO 24003KT 9999NDV NCD 08/01 Q1013

2010/08/09 16:50
BGSS 091650Z 14005KT 9999 FEW011 BKN050 12/10 Q1008

2010/08/09 16:50
BGUK 091650Z AUTO 34012KT 0400NDV FG NCD 06/06 Q1008

2010/08/09 16:50
BGUQ 091650Z 33004KT 260V020 9999 FEW200 11/04 Q1006

2010/08/09 17:00
DTKA 091700Z 29004KT CAVOK 30/20 Q1015 NOSIG

2010/08/09 17:00
DTTF 091700Z 09004KT CAVOK 34/11 Q1012 NOSIG

2010/08/09 16:50
EDAC 091650Z 35006KT 320V030 CAVOK 21/14 Q1016

2010/08/09 16:50
EDDE 091650Z 28002KT 9999 FEW048 SCT062 BKN120 21/12 Q1017 NOSIG

2010/08/09 16:50
EDFH 091650Z 28005KT 230V330 9999 FEW046 21/10 Q1017

2010/08/09 16:50
EDGS 091650Z 29003KT 9999 FEW036 19/13 Q1018

2010/08/09 16:50
EDLV 091650Z 23005KT CAVOK 22/14 Q1016

2010/08/09 16:50
EDOP 091650Z 28008KT 250V310 9999 VCSH FEW020 BKN043 20/15 Q1016

2010/08/09 16:50
EDRZ 091650Z VRB03KT CAVOK 24/11 Q1017

2010/08/09 16:50
EDSB 091650Z 32004KT 300V360 CAVOK 25/11 Q1016

2010/08/09 16:50
EDTL 091650Z 34005KT 320V020 CAVOK 24/14 Q1016

2010/08/09 16:50
EETU 091650Z 21008KT 9999 FEW055CB OVC120 22/15 Q1014

2010/08/09 16:50
EFET 091650Z AUTO 04009KT 360V100 9999 OVC027 14/09 Q1013

2010/08/09 16:50
EFHA 091650Z AUTO 19002KT CAVOK 20/17 Q1010

2010/08/09 16:50
EFJO 091650Z 20009KT 160V260 CAVOK 26/15 Q1010

2010/08/09 16:50
EFKA 091650Z AUTO 00000KT 9999 RA BKN047 21/19 Q1008

2010/08/09 16:50
EFKI 091650Z AUTO 23003KT //// SKC 23/18 Q1008

2010/08/09 16:50
EFKS 091650Z AUTO 20003KT 9999 FEW045 20/17 Q1007

2010/08/09 16:50
EFKT 091650Z AUTO 02009KT 320V080 9999 OVC016 13/10 Q1011

2010/08/09 16:50
EFLP 091650Z 19005KT 150V230 9999 FEW035CB SCT060 23/17 Q1012

2010/08/09 16:50
EFMI 091650Z AUTO 20007KT 150V250 9999 FEW042 23/15 Q1011

2010/08/09 16:50
EFSA 091650Z AUTO 19009KT 140V230 CAVOK 24/15 Q1011

2010/08/09 16:50
EFSI 091650Z AUTO 22003KT 9999 FEW033 BKN060 18/18 Q1008

2010/08/09 16:50
EFUT 091650Z AUTO 19006KT 160V230 9999 FEW043 22/15 Q1012

2010/08/09 16:50
EFVR 091650Z AUTO 18006KT 130V230 CAVOK 24/16 Q1010

2010/08/09 16:50
EGCN 091650Z 22015KT 9999 BKN034 22/14 Q1010

2010/08/09 16:50
EGDX 091650Z AUTO 26013KT 9999NDV // FEW004/// BKN060/// 18/17 Q1013

2010/08/09 16:50
EGEC 091650Z AUTO 26006KT 9999NDV // FEW030/// 14/12 Q1008

2010/08/09 16:50
EGHK 091650Z 23010KT 6000 -DZ SCT006 BKN008 19/17 Q1013

2010/08/09 16:50
EGMH 091650Z 21014KT 180V240 9999 FEW039 22/14 Q1014

2010/08/09 16:50
EGNR 091650Z 27011KT 210V300 9999 SCT025 21/14 Q1010

2010/08/09 16:50
EGOM 091650Z AUTO 25014KT 9999NDV // BKN007/// BKN017/// 14/12 Q1008

2010/08/09 16:50
EGOP 091650Z AUTO 25013KT 2600NDV BR BKN004/// BKN019/// 16/16 Q1012

2010/08/09 16:50
EGPI 091650Z 21009KT 9999 FEW020 15/12 Q1007

2010/08/09 16:50
EGTG 091650Z 21008KT 2300 RADZ BR SCT009 BKN015 17/17 Q1013

2010/08/09 16:50
EGUB 091650Z 21012KT 9999 SCT025 BKN045 20/14 Q1013 BECMG BKN020

2010/08/09 16:50
EGUB 091650Z 21012KT 9999 SCT025 BKN045 20/14 Q1013 BLU BECMG BKN020 WHT

2010/08/09 16:50
EGUW 091650Z 23010KT 9999 FEW048 23/08 Q1012 BLU NOSIG

2010/08/09 16:50
EGVN 091650Z 22007KT 9999 BKN024 BKN060 19/15 Q1013 WHT NOSIG

2010/08/09 16:50
EGVN 091650Z 22007KT 9999 BKN024 BKN060 19/15 Q1013 NOSIG

2010/08/09 16:50
EGVO 091650Z 20014KT 9999 SCT024 BKN035 21/14 Q1014 WHT NOSIG

2010/08/09 16:50
EGVP 091650Z 23013KT 9999 BKN018 19/14 Q1014 WHT BECMG BKN014 GRN

2010/08/09 16:50
EGWU 091650Z 24012KT CAVOK 23/12 Q1013 BLU NOSIG

2010/08/09 16:50
EGWU 091650Z 24012KT CAVOK 23/12 Q1013 NOSIG

2010/08/09 16:50
EGXC 091650Z 22011KT 9999 BKN048 BKN120 22/13 Q1010 NOSIG

2010/08/09 16:50
EGXC 091650Z 22011KT 9999 BKN048 BKN120 22/13 Q1010 BLU NOSIG

2010/08/09 16:50
EGXD 091650Z 22005KT 9999 FEW020 BKN036 17/16 Q1009 BLU NOSIG

2010/08/09 16:50
EGXE 091650Z 24009KT 9999 FEW009 BKN050 18/15 Q1009 BLU NOSIG

2010/08/09 16:50
EGXG 091650Z AUTO 24012KT 9999NDV -SHRA FEW030/// BKN034/// 20/14 Q1009

2010/08/09 16:50
EGXJ 091650Z 22017KT 9999 BKN035 21/12 Q1011 BLU NOSIG

2010/08/09 16:50
EGXT 091650Z AUTO 22016KT 9999NDV FEW040/// BKN050/// 22/12 Q1011 RERA

2010/08/09 16:50
EGXU 091650Z AUTO 26005KT 9999NDV // FEW018/// BKN026/// 17/16 Q1009

2010/08/09 16:50
EGXW 091650Z 24016KT 9999 FEW034 BKN050 21/13 Q1010 BLU

2010/08/09 16:50
EGXX 091650Z AUTO 22018KT 9999NDV // BKN050/// 23/12 Q1010

2010/08/09 16:50
EGXZ 091650Z AUTO 21008KT 9999NDV SCT041/// BKN050/// 17/16 Q1009 RERA

2010/08/09 16:50
EGYD 091650Z AUTO 23018KT 9999NDV // SCT036/// BKN070/// 22/13 Q1011

2010/08/09 16:50
EGYM 091650Z 23016KT CAVOK 24/08 Q1011 BLU NOSIG

2010/08/09 16:50
EKGF 091650Z 19022KT 9999 SCT020 17/16 Q1013

2010/08/09 16:50
ENSS 091650Z 04011KT 2000 FG VV002 09/08 Q1016

2010/08/09 17:00
EPWR 091700Z 26006KT 9999 SCT053TCU 22/16 Q1016

2010/08/09 16:50
ESGR 091650Z AUTO 23007KT 4900NDV SCT010/// BKN015/// 17/16 Q1009

2010/08/09 16:50
ESMQ 091650Z 25009KT 9999 FEW030 BKN059 18/15 Q1012

2010/08/09 16:50
ESMT 091650Z 26010KT 9999 FEW025 OVC033 17/13 Q1013

2010/08/09 16:50
ESNG 091650Z 04008KT 360V080 9999 FEW020 BKN032 15/11 Q1012

2010/08/09 16:50
ESNK 091650Z 20003KT 140V230 8000 RA FEW006 BKN013 17/16 Q1008

2010/08/09 16:50
ESNL 091650Z AUTO 03005KT 9999NDV SCT032/// BKN040/// 17/13 Q1010

2010/08/09 16:50
ESNX 091650Z AUTO 02007KT 9999NDV FEW016/// OVC023/// 15/12 Q1011

2010/08/09 16:50
ESNY 091650Z AUTO 34003KT 9999 OVC001 17/17 Q1006

2010/08/09 16:50
ESOE 091650Z 23006KT 9999 -SHRA SCT020 20/18 Q1007 RERA

2010/08/09 16:50
ESSL 091650Z 24009KT 9999 BKN017 18/16 Q1008

2010/08/09 16:50
ESTA 091650Z 25011KT 9999 SCT025 BKN035 17/12 Q1013

2010/08/09 16:50
ESTL 091650Z AUTO 29011KT 9999NDV FEW031/// SCT040/// BKN046/// 17/13 Q1014

2010/08/09 16:50
ESUT 091650Z AUTO 13003KT 9999NDV BKN098/// 18/13 Q1010

2010/08/09 16:55
ETOU 091655Z AUTO 25006KT 9999 CLR 23/12 A3001 RMK AO2 SLP162 T02300120

2010/08/09 16:50
ETUO 091650Z AUTO 33004KT 9999NDV // BKN050/// 21/14 Q1016

2010/08/09 16:50
EVLA 091650Z AUTO 21009KT 9999 SCT018 OVC056 19/16 Q1014

2010/08/09 16:50
EVVA 091650Z AUTO 20010KT 9999 FEW018 OVC029 19/17 Q1012

2010/08/09 16:50
EYKA 091650Z 13003KT 090V180 CAVOK 22/17 Q1016

2010/08/09 16:50
EYPA 091650Z VRB03KT CAVOK 21/16 Q1014

2010/08/09 17:00
FAGC 091700Z AUTO 21013KT //// // ////// 10/M11 Q1025

2010/08/09 17:00
FAJB 091700Z AUTO 22004KT //// // ////// 09/M10 Q1026

2010/08/09 17:00
FAMM 091700Z 17009KT CAVOK 11/M14 Q1026 NOSIG

2010/08/09 17:00
FAPP 091700Z 18004KT 8000 NSC 20/M00 Q1021 NOSIG

2010/08/09 17:00
FASI 091700Z AUTO 21003KT //// // ////// 10/M10 Q1026

2010/08/09 17:00
FAVV 091700Z AUTO 23007KT //// // ////// 10/M12 Q1024

2010/08/09 17:00
FYOJ 091700Z AUTO 11005KT //// // ////// 25/M06 Q1019

2010/08/09 17:00
FYWW 091700Z 10007KT CAVOK 15/M05 Q1026

2010/08/09 17:00
GMAD 091700Z 25012KT 6000 NSC 28/19 Q1012 NOSIG

2010/08/09 17:00
GMFM 091700Z 33005KT 9999 FEW026 41/11 Q1014

2010/08/09 17:00
GMMC 091700Z 34005KT 6000 NSC 33/19 Q1010

2010/08/09 17:00
GMML 091700Z 32008KT CAVOK 29/18 Q1012

2010/08/09 17:00
GMMZ 091700Z 27016KT 8000 FEW040 33/09 Q1021

2010/08/09 16:50
HLLM 091650Z 03008KT 8000 FEW020 27/18 Q1015

2010/08/09 16:55
KEGI 091655Z 07007KT 10SM SCT030 33/24 A2998 RMK AO2A SLP152 T03280237 $

2010/08/09 16:51
KFME 091651Z AUTO 23005KT 10SM CLR 31/20 A3002 RMK AO1

2010/08/09 17:00
LBGO 091700Z 25002MPS CAVOK 26/23 Q1012 NOSIG

2010/08/09 17:00
LEAB 091700Z 29004KT 250V320 CAVOK 33/10 Q1018 NOSIG

2010/08/09 17:00
LEBA 091700Z 30005KT 240V350 9999 SCT070 39/09 Q1012

2010/08/09 17:00
LEBZ 091700Z 16004KT 110V240 CAVOK 37/12 Q1014

2010/08/09 17:00
LELN 091700Z 26013KT 230V290 CAVOK 30/M00 Q1018

2010/08/09 17:00
LESA 091700Z 28004KT 250V330 8000 FEW040 31/16 Q1018

2010/08/09 17:00
LETO 091700Z VRB02KT 9999 FEW050 33/11 Q1016 NOSIG

2010/08/09 17:00
LFBE 091700Z AUTO 27009KT 9999NDV BKN035 22/16 Q1018

2010/08/09 17:00
LFBG 091700Z AUTO 26014KT 9999NDV NSC 24/14 Q1017

2010/08/09 17:00
LFCR 091700Z AUTO 27013KT 9999NDV BKN045 23/16 Q1019

2010/08/09 17:00
LFJL 091700Z AUTO VRB03KT 9999NDV NSC 24/08 Q1016

2010/08/09 17:00
LFLX 091700Z AUTO 23005KT 9999NDV NSC 27/12 Q1015

2010/08/09 17:00
LFMI 091700Z AUTO 17012KT 9999NDV NSC 24/20 Q1014

2010/08/09 17:00
LFMK 091700Z AUTO 27012KT 230V300 9999NDV FEW049/// BKN110/// OVC170/// //////CB 25/16 Q1017

2010/08/09 17:00
LFMO 091700Z AUTO 19007KT 160V220 9999NDV NSC 31/18 Q1013

2010/08/09 17:00
LFMU 091700Z AUTO 18013KT 9999NDV NSC 25/18 Q1014

2010/08/09 17:00
LFMV 091700Z AUTO 23007KT 190V270 9999NDV NSC 30/19 Q1013

2010/08/09 17:00
LFOA 091700Z AUTO 31004KT 280V350 9999NDV NSC 27/08 Q1015

2010/08/09 17:00
LFOJ 091700Z AUTO 29005KT 210V340 9999NDV NSC 28/08 Q1015

2010/08/09 17:00
LFOK 091700Z AUTO VRB03KT 9999NDV NSC 25/08 Q1016

2010/08/09 17:00
LFQI 091700Z AUTO 30005KT 270V340 9999NDV NSC 24/12 Q1015

2010/08/09 16:50
LGHI 091650Z 02009KT CAVOK 30/21 Q1006

2010/08/09 16:50
LGPA 091650Z 01013KT CAVOK 28/20 Q1007

2010/08/09 17:00
LKCV 091700Z 32003KT 280V010 9999 FEW037 SCT110 22/14 Q1016 NOSIG

2010/08/09 17:00
LKCV 091700Z 32003KT 280V010 9999 FEW037 SCT110 22/14 Q1016 NOSIG RMK BLU+ BLU+

2010/08/09 17:00
LKKB 091700Z 28007KT CAVOK 22/13 Q1016 NOSIG

2010/08/09 17:00
LKKV 091700Z 27004KT CAVOK 18/13 Q1017

2010/08/09 17:00
LKLN 091700Z AUTO 00000KT CAVOK 21/15 Q1017

2010/08/09 17:00
LKNA 091700Z 34005KT 310V020 9999 FEW040TCU FEW040 SCT070 21/12 Q1017 NOSIG

2010/08/09 17:00
LKNA 091700Z 34005KT 310V020 9999 FEW040TCU FEW040 SCT070 21/12 Q1017 NOSIG RMK BLU+ BLU+

2010/08/09 17:00
LKPD 091700Z 27003KT 9999 FEW036 BKN100 21/15 Q1016 NOSIG

2010/08/09 17:00
LKPD 091700Z 27003KT 9999 FEW036 BKN100 21/15 Q1016 NOSIG RMK BLU BLU

2010/08/09 17:00
LKPO 091700Z VRB02KT 9999 FEW043 22/15 Q1016 NOSIG

2010/08/09 17:00
LKPO 091700Z VRB02KT 9999 FEW043 22/15 Q1016 NOSIG RMK BLU+ BLU+

2010/08/09 16:50
LLSD 091650Z 32008KT 9999 SCT030 28/23 Q1006

2010/08/09 16:50
LOXT 091650Z 05003KT 50KM SCT060CU 22/14 Q1016 RMK SCT

2010/08/09 16:50
LOXZ 091650Z 05006KT 30KM FEW038CU 22/15 Q1018 NOSIG RMK FEW

2010/08/09 17:00
LQBK 091700Z 09004KT 9999 FEW040 27/17 Q1016 NOSIG

2010/08/09 17:00
LQMO 091700Z 19007KT 150V220 9999 FEW050 32/11 Q1010

2010/08/09 16:50
LTAZ 091650Z 36004KT CAVOK 31/01 Q1010

2010/08/09 16:50
LTBR 091650Z 36009KT 9999 SCT035TCU 29/22 Q1008 NOSIG

2010/08/09 16:50
LTBU 091650Z 01016KT 9999 FEW040 28/19 Q1009

2010/08/09 16:50
LTCF 091650Z 05015KT 9999 FEW040 22/09 Q1018

2010/08/09 16:50
LTFH 091650Z 31005KT 9999 SCT027 28/26 Q1006 NOSIG

2010/08/09 16:50
LTFJ 091650Z 36011KT 9999 SCT035 28/23 Q1008 NOSIG

2010/08/09 17:00
LZKC 091700Z VRB02KT 9999 -SHRA FEW043CB BKN053 22/16 Q1015

2010/08/09 17:00
LZLU 091700Z 22005KT 160V260 9999 FEW043 BKN100 21/17 Q1016

2010/08/09 17:00
LZNI 091700Z 24003KT 9999 FEW045CB 23/14 Q1016

2010/08/09 17:00
LZPE 091700Z 21003KT 9999 FEW040 22/13 Q1016

2010/08/09 17:00
LZPP 091700Z 17006KT 140V200 9999 FEW033 22/15 Q1016

2010/08/09 17:00
LZSL 091700Z 25006KT 9999 FEW046 BKN100 22/09 Q1016

2010/08/09 17:00
LZZI 091700Z 12003KT 100V160 CAVOK 19/14 Q1017

2010/08/09 17:00
UHHH 091700Z 13001MPS 9999 -SHRA SCT026CB OVC100 21/21 Q1008 NOSIG

2010/08/09 17:00
MGTK 091700Z 06004KT 9999 SCT018 32/25 Q1014 A29.94

2010/08/09 17:00
MHTR 091700Z 17002KT 9999 FEW026 BKN250 33/26 TCU SE HZ

2010/08/09 16:50
MSLU 091650Z 00000KT CAVOK 30/25 Q1011

2010/08/09 16:50
MSSA 091650Z 00000KT 9999 FEW037 SCT300 29/21 Q1016

2010/08/09 16:50
MSSM 091650Z 06002KT CAVOK 31/25 Q1011

2010/08/09 16:50
MUCF 091650Z 00000KT 9999 FEW020 BKN080 32/24 Q1015

2010/08/09 16:50
MUHG 091650Z 11008KT 060V190 9999 SCT030 BKN100 33/24 Q1013

2010/08/09 16:55
OAHR 091655Z AUTO /////KT //// // ////// 30/M03 Q1009

2010/08/09 17:00
OIIE 091700Z 06008KT CAVOK 31/02 Q1011 A2985

2010/08/09 17:00
OYDM 091700Z 26005KT 9999 FEW025CB FEW045 18/14 Q////

2010/08/09 17:00
OYRN 091700Z 04004KT 9999 FEW020 28/21 Q1001

2010/08/09 17:00
OYSQ 091700Z 19020G30KT 9999 FEW018 28/23 Q1006

2010/08/09 17:00
OYSY 091700Z 20006KT 9999 FEW039 BKN078 36/10 Q1003

2010/08/09 17:00
RJBB 091700Z 17007KT 140V200 9999 FEW003 BKN020 27/24 Q1013 NOSIG

2010/08/09 17:00
RJFS 091700Z 11004KT 9999 FEW035 SCT150 BKN/// 27/24 Q1010

2010/08/09 17:00
RJGG 091700Z 13009KT 9999 VCSH FEW010 SCT040 BKN080 26/25 Q1014 NOSIG

2010/08/09 16:50
ENSG 091650Z VRB04KT 9999 VCSH FEW025 SCT045 19/13 Q1009

2010/08/09 16:50
ENSS 091650Z 04011KT 2000 FG VV002 09/08 Q1016

2010/08/09 16:55
ETIH 091655Z AUTO 32003KT 9999 FEW080 21/16 A3006 RMK AO2 SLP168 T02150159 $

2010/08/09 17:00
LEGT 091700Z VRB04KT 9999 FEW050 34/13 Q1017

2010/08/09 17:00
LERI 091700Z 04008KT CAVOK 32/19 Q1014 NOSIG

2010/08/09 17:00
LERT 091700Z 29008KT 260V330 CAVOK 31/20 Q1013 NOSIG

2010/08/09 17:00
LFBA 091700Z AUTO 29005KT 250V330 9999NDV SCT040 BKN046 23/16 Q1018

2010/08/09 17:00
LFBE 091700Z AUTO 27009KT 9999NDV BKN035 22/16 Q1018

2010/08/09 17:00
LFBY 091700Z AUTO 31007KT 280V340 9999 // ////// 23/15 Q1019

2010/08/09 17:00
LFGJ 091700Z AUTO 34004KT 300V040 9999NDV NSC 27/10 Q1016

2010/08/09 17:00
LFKC 091700Z 01012KT 9999 FEW018 25/20 Q1016 NOSIG

2010/08/09 17:00
LFKF 091700Z 19004KT 9999 FEW080 SCT150 BKN260 27/14 Q1015 NOSIG

2010/08/09 17:00
LFMC 091700Z 10010KT 070V130 9999 FEW060 SCT200 27/20 Q1015

2010/08/09 17:00
LFMD 091700Z AUTO 18006KT 140V200 9999NDV FEW015 BKN034 OVC041 24/21 Q1015

2010/08/09 17:00
LFMH 091700Z AUTO 34008KT 300V010 9999NDV NSC 28/11 Q1015

2010/08/09 17:00
LFOT 091700Z AUTO VRB04KT 9999NDV NSC 29/09 Q1015

2010/08/09 17:00
LFPN 091700Z AUTO 25004KT 220V290 9999NDV NSC 27/10 Q1015

2010/08/09 17:00
LFRC 091700Z AUTO 23011KT 200V270 9999NDV FEW032 20/12 Q1016

2010/08/09 17:00
LFRJ 091700Z AUTO 23012KT 9999NDV OVC005/// 17/16 Q1018

2010/08/09 17:00
LFRK 091700Z 35007KT 310V030 CAVOK 21/12 Q1016 NOSIG

2010/08/09 17:00
LFRL 091700Z 23008KT 200V260 3000 -DZ BR SCT003 BKN004 17/16 Q1018

2010/08/09 17:00
LFSL 091700Z AUTO 24005KT 190V280 9999NDV NSC 23/15 Q1018

2010/08/09 17:00
LJLJ 091700Z 12006KT 9999 FEW040 23/16 Q1016 NOSIG

2010/08/09 17:00
LJMB 091700Z 11003KT 110V190 9999 FEW030 23/16 Q1017

2010/08/09 17:00
LJPZ 091700Z 26003KT 220V330 CAVOK 28/17 Q1014

2010/08/09 17:00
SADF 091700Z 00000KT CAVOK 18/06 Q1024

2010/08/09 17:00
SCJO 091700Z 18010KT 9999 SCT017 12/08 Q1024

2010/08/09 17:00
UBBN 091700Z 09014KT 9999 SCT050CB BKN100 30/09 Q1009 R14R/CLRD60 NOSIG RMK G/O QFE682

2010/08/09 17:00
WBGB 091700Z 08002KT 9999 FEW016 BKN300 25/24 Q1010

2010/08/09 17:00
WBGR 091700Z 31002KT 9999 FEW014 BKN150 28/25 Q1010

2010/08/09 17:00
WBGS 091700Z 22002KT 9999 -RA SCT018 OVC150 23/22 Q1011

2010/08/09 17:00
WBGY 091700Z 13001KT 9999 SCT022 SCT150 BKN160 24/22 Q1010

2010/08/09 17:00
WBKL 091700Z 31001KT 9999 SCT010 FEW015CB SCT140 BKN290 28/26 Q1010

2010/08/09 17:00
WBKS 091700Z 16002KT 9999 FEW015 BKN270 26/24 Q1010

2010/08/09 17:00
WBKT 091700Z 25001KT 9999 FEW016 SCT140 BKN280 26/25 Q1009

2010/08/09 17:00
WBKW 091700Z 30003KT 9999 FEW017 BKN140 24/23 Q1011

2010/08/09 17:00
YSTW 091700Z AUTO 20007KT 9999NDV // BKN050 OVC063 12/10 Q1018

2010/08/09 17:00
YSWG 091700Z AUTO 08010KT 9999NDV // SCT040 SCT055 OVC068 11/06 Q1015

2010/08/09 17:00
YTEF 091700Z AUTO 13012KT //// // ////// 10/M06 Q1021

2010/08/09 17:00
YTNK 091700Z AUTO 16012KT 9999NDV // NCD 14/00 Q1016

2010/08/09 17:00
YTRE 091700Z AUTO 03009KT //// // ////// 17/11 Q1019

2010/08/09 17:00
YWGT 091700Z AUTO 17007KT //// // ////// 08/07 Q1016

2010/08/09 17:00
YWHA 091700Z AUTO 23007KT 9999NDV // BKN092 08/08 Q1012

2010/08/09 17:00
YWLM 091700Z AUTO 28002KT 9999NDV // NCD 11/11 Q1018

2010/08/09 17:00
ZBHH 091700Z 08002MPS CAVOK 14/08 Q1012 NOSIG

2010/08/09 17:00
ZBSJ 091700Z 04001MPS 1300 R33/1300N BR NSC 26/24 Q1006 NOSIG

2010/08/09 17:00
ZGHA 091700Z 08001MPS 4000 BR SKC 29/28 Q1003 NOSIG

2010/08/09 17:00
ZGKL 091700Z 19001MPS 3000 BR SKC 27/26 Q1005 NOSIG

2010/08/09 17:00
ZGOW 091700Z 22001MPS CAVOK 28/25 Q1005 NOSIG

2010/08/09 17:00
ZJHK 091700Z 13001MPS CAVOK 26/24 Q1004 NOSIG

2010/08/09 17:00
ZLXY 091700Z 05005MPS 4500 HZ SCT040CB BKN070 28/22 Q1004 NOSIG

2010/08/09 17:00
ZSQD 091700Z 13003MPS 9999 FEW015 26/23 Q1006 NOSIG

2010/08/09 17:00
ZWSH 091700Z 26003MPS 200V290 CAVOK 28/08 Q1010 NOSIG

2010/08/09 17:00
ZYCC 091700Z 18002MPS 9999 FEW030 18/17 Q1007 NOSIG

2010/08/09 17:00
ZYTX 091700Z 00000MPS 9999 OVC030 22/21 Q1007 NOSIG

2010/08/09 16:50
BGQQ 091650Z 24003KT 9999 SKC 08/01 Q1013

2010/08/09 16:50
EGHK 091650Z 23010KT 6000 -DZ SCT006 BKN008 19/17 Q1013 TEMPO 4000 BR

2010/08/09 16:51
KABE 091651Z 26007KT 10SM FEW047 31/19 A3001

2010/08/09 16:53
KAGC 091653Z 18005KT 10SM CLR 29/15 A3004

2010/08/09 16:54
KAKR 091654Z AUTO 22006KT 10SM CLR 29/17 A3003

2010/08/09 16:51
KALB 091651Z 23010G16KT 9SM SCT050 SCT110 31/18 A2996

2010/08/09 16:56
KART 091656Z AUTO 25008KT 10SM FEW065 27/20 A2994

2010/08/09 16:54
KAVP 091654Z AUTO 25011G16KT 10SM CLR 32/13 A3001

2010/08/09 16:53
KBAF 091653Z 21008KT 10SM SCT060 33/16 A2996

2010/08/09 16:51
KBDL 091651Z 20008KT 10SM FEW065 SCT100 33/16 A2996

2010/08/09 16:52
KBDR 091652Z 22008KT 9SM CLR 29/19 A2999

2010/08/09 16:56
KBED 091656Z 23011G16KT 10SM CLR 33/17 A2994

2010/08/09 16:54
KBTV 091654Z 20007KT 10SM FEW050 SCT110 27/19 A2992

2010/08/09 16:54
KBUF 091654Z 22013KT 10SM BKN070 OVC130 27/19 A2996

2010/08/09 16:53
KBVY 091653Z 23010G22KT 10SM FEW055 33/17 A2993

2010/08/09 16:56
KCAE 091656Z VRB06KT 9SM FEW048 33/21 A3003

2010/08/09 16:51
KCAK 091651Z 23006KT 8SM SCT250 29/17 A3003

2010/08/09 16:55
KCEF 091655Z AUTO 24005KT 10SM CLR 32/18 A2996

2010/08/09 16:51
KCMH 091651Z 22009KT 10SM BKN200 30/18 A3003

2010/08/09 16:53
KCRQ 091653Z 16003KT 10SM CLR 19/13 A2993

2010/08/09 16:54
KCRW 091654Z 00000KT 6SM HZ FEW040 30/19 A3005

2010/08/09 16:56
KDAY 091656Z 23005KT 10SM FEW110 SCT250 31/18 A3004

2010/08/09 16:55
KDOV 091655Z AUTO VRB05KT 10SM -RA FEW030 30/25 A3001

2010/08/09 16:51
KERI 091651Z 25005KT 8SM FEW070 SCT095 30/19 A2999

2010/08/09 16:53
KEWB 091653Z 21010KT 8SM SCT015 BKN095 30/21 A2998

2010/08/09 16:53
KFVE 091653Z AUTO VRB04KT 9SM BKN024 OVC029 22/16 A2986

2010/08/09 16:56
KGON 091656Z 22007KT 6SM HZ CLR 27/21 A2999

2010/08/09 16:54
KGSO 091654Z 28006KT 10SM FEW048 32/20 A3006

2010/08/09 16:53
KGSP 091653Z 29003KT 10SM CLR 32/22 A3006

2010/08/09 16:56
KHPN 091656Z VRB06KT 9SM FEW050 32/17 A2999

2010/08/09 16:51
KHTS 091651Z 00000KT 8SM CLR 31/20 A3004

2010/08/09 16:53
KHUL 091653Z AUTO 28003KT 10SM FEW018 SCT025 BKN055 22/19 A2987

2010/08/09 16:53
KHVN 091653Z 22007KT 10SM CLR 31/20 A2998

2010/08/09 16:53
KIAG 091653Z 21010KT 10SM BKN075 BKN110 OVC140 27/21 A2995

2010/08/09 16:51
KILG 091651Z 15008KT 9SM SCT038 31/22 A3002

2010/08/09 16:53
KILM 091653Z AUTO 13007KT 10SM SCT027 31/23 A3003

2010/08/09 16:54
KINT 091654Z 28006KT 10SM CLR 31/20 A3007

2010/08/09 16:55
KLSV 091655Z AUTO VRB03KT 10SM CLR 29/10 A2994

2010/08/09 16:53
KLUK 091653Z 18005KT 10SM CLR 32/21 A3001

2010/08/09 16:54
KLWM 091654Z 23009G17KT 190V270 10SM FEW055 SCT070 SCT090 32/17 A2995

2010/08/09 16:56
KMDT 091656Z 00000KT 8SM FEW045 BKN250 31/21 A3000

2010/08/09 16:53
KMSS 091653Z AUTO 27005KT 10SM OVC022 25/20 A2993

2010/08/09 16:54
KORH 091654Z 24010KT 10SM CLR 29/16 A3001

2010/08/09 16:55
KPQI 091655Z AUTO 00000KT 10SM FEW020 BKN029 OVC034 21/17 A2985

2010/08/09 16:55
KPSM 091655Z 25006KT 10SM SCT050 BKN200 32/19 A2991

2010/08/09 16:51
KPVD 091651Z 29007G16KT 10SM SCT045TCU SCT110 SCT300 32/18 A2998

2010/08/09 16:51
KPWM 091651Z 30011KT 10SM FEW050 SCT100 31/18 A2991

2010/08/09 16:54
KRIC 091654Z VRB03KT 10SM SCT049 BKN250 32/19 A3002

2010/08/09 16:54
KROC 091654Z 23007KT 9SM SCT070 SCT130 OVC150 27/21 A2996

2010/08/09 16:54
KSYR 091654Z 26006KT 10SM SCT060 BKN200 30/19 A2995

2010/08/09 16:55
KWRI 091655Z AUTO 25008KT 10SM FEW150 33/19 A2999

2010/08/09 16:53
KAMA 091653Z 19012KT 10SM CLR 31/16 A3003

2010/08/09 16:53
KAUS 091653Z 16009KT 110V190 10SM FEW045 33/21 A2998

2010/08/09 16:53
KBPT 091653Z 27004KT 10SM SCT032 BKN048 32/24 A2997

2010/08/09 17:00
KBQK 091700Z AUTO 05009G14KT 030V090 10SM BKN025 BKN038 OVC045 31/26 A2999

2010/08/09 16:53
KBRO 091653Z 16010KT 10SM BKN034 BKN044 34/24 A2992

2010/08/09 16:53
KBTR 091653Z VRB05KT 10SM SCT030 SCT050 SCT070 33/25 A2998

2010/08/09 16:53
KCHA 091653Z VRB04KT 10SM FEW030 SCT120 29/22 A3003

2010/08/09 16:51
KCRP 091651Z 17006KT 10SM FEW035 SCT044 32/24 A2994

2010/08/09 16:53
KDAL 091653Z 17010KT 10SM FEW042 34/23 A2994

2010/08/09 16:53
KDRT 091653Z AUTO 14011KT 10SM BKN024 30/22 A2995

2010/08/09 16:51
KELP 091651Z 00000KT 10SM FEW060 29/14 A3007

2010/08/09 16:53
KEYW 091653Z 23011KT 10SM -RA SCT023 SCT032 BKN055 28/24 A2994

2010/08/09 16:53
KFPR 091653Z 11009KT 10SM SCT020 BKN080 29/24 A2995

2010/08/09 16:53
KFTW 091653Z 18007KT 150V210 10SM CLR 35/23 A2994

2010/08/09 16:53
KFTY 091653Z 00000KT 7SM CLR 33/21 A3004

2010/08/09 16:53
KFXE 091653Z 14010G16KT 10SM SCT030 31/23 A2994

2010/08/09 16:52
KGLS 091652Z 16008KT 10SM SCT028 33/24 A2999

2010/08/09 16:53
KGPT 091653Z AUTO 04008KT 10SM SCT033 35/25 A2997

2010/08/09 16:53
KHOU 091653Z 16004KT 10SM SCT035 33/22 A2996

2010/08/09 16:52
KHRL 091652Z 15009KT 10SM SCT028 33/23 A2991

2010/08/09 16:53
KHSV 091653Z 00000KT 10SM BKN043TCU BKN110 34/22 A3001

2010/08/09 16:53
KLCH 091653Z 29004KT 10SM SCT036 33/24 A2997

2010/08/09 16:56
KLRD 091656Z 16007KT 140V200 10SM CLR 34/22 A2996

2010/08/09 16:53
KMAF 091653Z 17011G18KT 10SM CLR 32/19 A3002

2010/08/09 16:53
KMFE 091653Z AUTO 15009KT 10SM FEW030 33/24 A2992

2010/08/09 16:53
KMGM 091653Z 08010G14KT 10SM CLR 34/22 A2999

2010/08/09 16:56
KMOB 091656Z VRB05KT 10SM FEW028 SCT200 33/23 A3000

2010/08/09 16:53
KNEW 091653Z 34006KT 10SM SCT020 33/26 A2999

2010/08/09 16:53
KOPF 091653Z 19011KT 8SM -RA SCT016 BKN023 BKN030 26/24 A2997

2010/08/09 16:53
KPDK 091653Z VRB04KT 10SM CLR 34/19 A3006

2010/08/09 16:53
KPIE 091653Z 08005KT 10SM SCT020 31/24 A2993

2010/08/09 16:53
KPNS 091653Z 15008KT 10SM FEW027 32/25 A2999

2010/08/09 16:53
KRSW 091653Z 12008KT 10SM SCT025 SCT060 31/23 A2991

2010/08/09 16:53
KSAT 091653Z 18007KT 10SM FEW035 31/21 A2999

2010/08/09 16:53
KSAV 091653Z 06010G18KT 10SM FEW030 SCT250 34/21 A3000

2010/08/09 16:56
KSHV 091656Z VRB03KT 10SM FEW040 SCT300 34/22 A2997

2010/08/09 16:53
KSSI 091653Z AUTO 04014KT 10SM FEW090 32/24 A2999

2010/08/09 16:53
KTMB 091653Z 15007KT 1 1/4SM +RA BR BKN012 OVC028 24/23 A2997

2010/08/09 16:53
KTUL 091653Z 22005KT 10SM CLR 36/22 A2992

2010/08/09 16:53
KTYS 091653Z 25005KT 9SM FEW036 SCT070 32/23 A3005

2010/08/09 17:05
CZMT 091705Z 32007KT 15SM -SHRA OVC007 RMK SC8

2010/08/09 16:53
KAZO 091653Z 13003KT 3SM RA BR BKN016 OVC070 22/21 A2999

2010/08/09 16:53
KBDE 091653Z AUTO 10003KT 10SM CLR 28/21 A2988

2010/08/09 16:53
KBTL 091653Z 19006KT 3SM RA BR OVC011 22/21 A3001

2010/08/09 16:53
KBTM 091653Z AUTO 00000KT 10SM CLR 14/08 A3004

2010/08/09 16:55
KCIU 091655Z AUTO 19011KT 10SM FEW023 25/19 A2990

2010/08/09 16:53
KCMX 091653Z AUTO 27011KT 10SM 26/19 A2989

2010/08/09 16:54
KCOS 091654Z AUTO 18004KT 10SM FEW100 22/14 A3020

2010/08/09 16:53
KCPR 091653Z 22013G17KT 10SM CLR 28/04 A3006

2010/08/09 16:53
KDET 091653Z 29004KT 9SM CLR 28/19 A2996

2010/08/09 16:55
KDLH 091655Z 00000KT 10SM FEW008 28/19 A2993

2010/08/09 16:54
KDSM 091654Z 17011KT 10SM FEW022 SCT150 BKN250 28/23 A2989

2010/08/09 16:53
KELO 091653Z AUTO 24003KT 10SM CLR 26/19 A2991

2010/08/09 16:53
KFAR 091653Z 20008KT 10SM CLR 29/20 A2989

2010/08/09 16:53
KFNT 091653Z 23006KT 8SM CLR 26/21 A2995

2010/08/09 16:53
KGFK 091653Z 18006KT 10SM CLR 32/19 A2984

2010/08/09 16:53
KGRB 091653Z VRB05KT 9SM FEW021 BKN028 29/23 A2988

2010/08/09 16:53
KGRR 091653Z COR 19007KT 10SM FEW060 SCT100 BKN160 25/22 A2994

2010/08/09 16:53
KGRR 091653Z 19007KT 10SM FEW060 25/22 A2994

2010/08/09 16:53
KICT 091653Z 18009KT 10SM FEW200 SCT250 37/21 A2991

2010/08/09 16:55
KINL 091655Z AUTO 00000KT 10SM CLR 26/20 A2990

2010/08/09 16:52
KISN 091652Z 33005KT 10SM CLR 24/17 A2987

2010/08/09 16:54
KLEX 091654Z 00000KT 10SM CLR 33/17 A3004

2010/08/09 16:53
KMBS 091653Z 21010KT 10SM CLR 26/21 A2992

2010/08/09 16:51
KMDW 091651Z 25003KT 9SM FEW035 SCT075 BKN150 BKN200 28/21 A2994

2010/08/09 16:54
KMKC 091654Z 20007KT 10SM CLR 34/23 A2990

2010/08/09 16:52
KMKE 091652Z 22011KT 10SM SCT019 BKN160 BKN240 27/22 A2992

2010/08/09 16:52
KMLI 091652Z 00000KT 10SM CLR 27/22 A2991

2010/08/09 16:54
KMOT 091654Z 00000KT 10SM CLR 28/18 A2983

2010/08/09 17:00
ZSAM 091700Z 27002MPS CAVOK 29/23 Q1004 NOSIG

2010/08/09 17:02
KVBG 091702Z VRB04KT 10SM FEW007 BKN010 OVC015 14/12 A2996 RMK AO2 VISNO RWY12 $ 

2010/08/09 16:50
KMWA 091650Z 25005KT 15SM SCT037 SCT090 34/22 A2996

2010/08/09 16:52
KOMA 091652Z 22004KT 10SM FEW030 SCT140 SCT250 32/24 A2985

2010/08/09 16:55
KPHN 091655Z AUTO 25004KT 7SM SCT070 27/20 A2994

2010/08/09 16:54
KPIA 091654Z 00000KT 8SM CLR 28/22 A2995

2010/08/09 16:53
KPTK 091653Z 26005KT 10SM SCT130 OVC160 26/20 A2996

2010/08/09 16:53
KPUB 091653Z VRB05KT 10SM CLR 25/14 A3009

2010/08/09 16:55
KSAW 091655Z 33005KT 10SM SCT034 SCT047 29/19 A2986

2010/08/09 16:56
KSDF 091656Z 00000KT 8SM FEW035 SCT150 SCT200 34/21 A2999

2010/08/09 16:52
KSGF 091652Z 21005KT 10SM CLR 33/23 A2998

2010/08/09 16:53
KSTP 091653Z VRB03KT 10SM CLR 30/22 A2991

2010/08/09 16:54
KSUS 091654Z 17003KT 10SM BKN150 33/26 A2992

2010/08/09 16:52
KTOL 091652Z 25003KT 8SM CLR 28/19 A2998

2010/08/09 16:54
KAPN 091654Z 09005KT 10SM FEW005 SCT025 BKN050 23/21 A2992

2010/08/09 16:55
KLFI 091655Z 12006KT 10SM CLR 29/22 A3004 RMK AO2A SLP175 T02940223

2010/08/09 16:59
KNGU 091659Z 07006KT 7SM FEW040 BKN250 30/21 A3006 RMK AO2 SLP178 CONTRAILS T03000206

2010/08/09 16:45
MMVR 091645Z 00000KT 7SM FEW012 SCT080 BKN120 BKN250 31/26 A2988 RMK 8/178 HZY

2010/08/09 17:00
MTPP 091700Z 09012KT 9000 FEW030TCU SCT250 34/22 Q1014 A2995

2010/08/09 17:00
MWCR 091700Z 06004KT 9999 FEW018 BKN200 32/24 Q1015 NOSIG

2010/08/09 17:00
SCAR 091700Z 23009KT CAVOK 16/08 Q1017

2010/08/09 17:00
SCBA 091700Z 30024G35KT 9999 FEW020 SCT030 BKN200 05/M01 Q1018

2010/08/09 17:00
SCDA 091700Z 30007KT 8000 BKN020 15/09 Q1018

2010/08/09 17:00
SCEL 091700Z VRB03KT CAVOK 17/00 Q1015 NOSIG

2010/08/09 17:00
SCFA 091700Z 18009KT 9999 FEW020 BKN200 16/08 Q1017 NOSIG

2010/08/09 17:00
SCIE 091700Z 19012KT CAVOK 14/02 Q1018

2010/08/09 17:00
SCTE 091700Z 17004KT 9999 BKN022 11/09 Q1025 NOSIG

2010/08/09 17:00
TBPB 091700Z 17012KT 9999 FEW014CB SCT036 30/25 Q1014 NOSIG

2010/08/09 17:00
TFFF 091700Z 08010KT 030V120 9999 FEW016 SCT025 BKN280 32/25 Q1014 TEMPO -SHRA

2010/08/09 17:00
TFFR 091700Z 12008KT 040V160 SCT020 SCT053 30/24 Q1014 TEMPO 4000 SHRA

2010/08/09 17:00
TNCM 091700Z 10008KT 9999 SCT019 30/25 Q1015

2010/08/09 16:53
KBFI 091653Z 16004KT 10SM BKN012 OVC017 16/12 A2997

2010/08/09 16:53
KBIL 091653Z 19005KT 10SM FEW100 24/11 A2994

2010/08/09 16:53
KBKE 091653Z AUTO 30005KT 10SM CLR 21/09 A2993

2010/08/09 16:53
KBLI 091653Z 17008KT 10SM FEW007 SCT055 15/12 A2995

2010/08/09 16:53
KBOI 091653Z 01004KT 10SM CLR 24/10 A2988

2010/08/09 16:53
KCLM 091653Z AUTO 33007KT 10SM BKN008 14/12 A2997

2010/08/09 16:56
KCTB 091656Z AUTO 21010KT 10SM CLR 23/04 A2991

2010/08/09 16:56
KDUG 091656Z AUTO 00000KT 10SM CLR 27/17 A3010

2010/08/09 16:53
KFAT 091653Z 18004KT 10SM CLR 23/13 A2989

2010/08/09 16:55
KGDV 091655Z AUTO 04003KT 10SM CLR 27/12 A2989

2010/08/09 16:53
KGEG 091653Z 18007KT 10SM FEW050 SCT080 SCT200 22/10 A2988

2010/08/09 16:53
KGGW 091653Z AUTO 00000KT 10SM CLR 27/11 A2988

2010/08/09 16:53
KGLH 091653Z 32008KT 10SM CLR 36/24 A2995

2010/08/09 16:55
KGPI 091655Z VRB03KT 10SM CLR 21/11 A2990

2010/08/09 16:53
KGTF 091653Z 19007KT 10SM CLR 24/08 A2991

2010/08/09 16:53
KGWO 091653Z AUTO VRB03KT 10SM FEW041 35/24 A2996

2010/08/09 16:53
KHLN 091653Z 00000KT 10SM BKN110 17/09 A2996

2010/08/09 16:53
KHQM 091653Z AUTO 25006KT 7SM OVC004 13/12 A3000

2010/08/09 16:53
KHVR 091653Z AUTO 09004KT 10SM CLR 26/11 A2989

2010/08/09 16:53
KIPL 091653Z AUTO 01004KT 10SM CLR 32/07 A2980

2010/08/09 16:53
KLBB 091653Z 22012KT 10SM FEW180 31/18 A3004

2010/08/09 16:53
KMSO 091653Z 00000KT 10SM CLR 20/09 A2992

2010/08/09 16:52
KMWH 091652Z AUTO 00000KT 10SM CLR 23/12 A2983

2010/08/09 16:56
KNUW 091656Z 21006KT 5SM BR BKN006 OVC015 14/12 A2997

2010/08/09 16:53
KOLF 091653Z AUTO 15003KT 10SM CLR 27/14 A2987

2010/08/09 16:54
KOLM 091654Z 18006KT 10SM BKN011 BKN037 OVC046 15/12 A2998

2010/08/09 16:54
KOLS 091654Z AUTO 00000KT 10SM CLR 27/17 A3008

2010/08/09 16:50
KOLV 091650Z 00000KT 7SM FEW045 FEW120 37/27 A3000

2010/08/09 16:53
KPAE 091653Z AUTO 00000KT 10SM 15/12 A2997

2010/08/09 16:53
KPDX 091653Z 33005KT 10SM BKN024 OVC029 15/10 A3001

2010/08/09 16:53
KPMD 091653Z 02005KT 10SM CLR 26/03 A2996

2010/08/09 16:53
KSDM 091653Z 00000KT 10SM CLR 19/12 A2994

2010/08/09 16:55
KRNO 091655Z 00000KT 10SM FEW090 21/06 A3003

2010/08/09 16:53
KRNT 091653Z 17005KT 9SM OVC014 15/13 A2997

2010/08/09 16:53
KSAC 091653Z 18006KT 10SM CLR 19/13 A2989

2010/08/09 16:55
KSCK 091655Z VRB06KT 10SM CLR 20/13 A2989

2010/08/09 16:53
KSFF 091653Z 00000KT 10SM CLR 22/11 A2987

2010/08/09 16:53
KSJC 091653Z COR VRB05KT 10SM FEW007 17/11 A2992

2010/08/09 16:53
KSJC 091653Z VRB05KT 10SM FEW007 SCT013 17/11 A2992

2010/08/09 16:53
KSLC 091653Z 17017G26KT 10SM FEW080 SCT110 SCT200 26/06 A3002

2010/08/09 16:53
KSMF 091653Z 19004KT 10SM CLR 19/13 A2988

2010/08/09 16:53
KTIW 091653Z 18005KT 10SM SCT009 BKN021 OVC050 14/12 A2998

2010/08/09 16:53
KTUS 091653Z 15003KT 10SM CLR 31/17 A3000

2010/08/09 16:54
KACY 091654Z 20007KT 10SM CLR 33/18 A3003

2010/08/09 16:53
KAUG 091653Z AUTO 32006KT 10SM SCT040 BKN049 27/18 A2993

2010/08/09 16:54
KAVL 091654Z VRB05KT 10SM CLR 31/20 A3013

2010/08/09 16:53
KBGM 091653Z 25010KT 10SM FEW055 29/13 A3006

2010/08/09 16:51
KBKW 091651Z AUTO 22005KT 6SM HZ CLR 27/16 A3014

2010/08/09 16:51
KCON 091651Z AUTO 29008G15KT 10SM SCT055 32/16 A2994

2010/08/09 16:52
KDCA 091652Z 17011KT 8SM SCT055 BKN250 32/20 A3000

2010/08/09 16:51
KEKN 091651Z AUTO VRB03KT 8SM CLR 28/19 A3010

2010/08/09 16:53
KGFL 091653Z AUTO 18008KT 10SM FEW060 30/19 A2994

2010/08/09 16:53
KGSP 091653Z 29003KT 10SM CLR 32/22 A3006

2010/08/09 17:00
KIPJ 091700Z AUTO 00000KT 10SM SCT041 33/21 A3006

2010/08/09 16:54
KIPT 091654Z VRB05KT 10SM CLR 30/14 A3000

2010/08/09 16:54
KLYH 091654Z AUTO 18006KT 10SM SCT038 SCT046 31/22 A3007

2010/08/09 16:53
KMHT 091653Z VRB05KT 10SM SCT060 32/16 A2992

2010/08/09 16:51
KMPV 091651Z AUTO 00000KT 10SM BKN043 BKN050 OVC060 25/17 A3000

2010/08/09 16:51
KNYC 091651Z AUTO 22007KT 180V250 10SM CLR 33/18 A3002

2010/08/09 16:54
KPNE 091654Z VRB06KT 10SM SCT049 BKN060 32/20 A3002

2010/08/09 16:54
KROA 091654Z 00000KT 9SM SCT040 31/21 A3008

2010/08/09 16:53
KSMQ 091653Z AUTO 00000KT 10SM BKN050 32/20 A2998

2010/08/09 16:54
KWAL 091654Z 17008KT 10SM FEW025 SCT250 29/22 A3004

2010/08/09 16:53
KAAF 091653Z AUTO 12008KT 10SM CLR 32/24 A2996

2010/08/09 16:53
KABR 091653Z AUTO 19007KT 10SM CLR 30/19 A2991

2010/08/09 16:51
KACT 091651Z 17011KT 10SM CLR 34/22 A2996

2010/08/09 16:53
KAGS 091653Z 06004KT 9SM CLR 33/22 A3002

2010/08/09 16:51
KAHN 091651Z 31003KT 6SM HZ BKN042 BKN095 33/22 A3006

2010/08/09 16:53
KALI 091653Z AUTO 19006KT 10SM FEW032 SCT044 33/24 A2994

2010/08/09 16:53
KAUS 091653Z 16009KT 110V190 10SM FEW045 33/21 A2998

2010/08/09 17:00
KAYS 091700Z AUTO 07013G17KT 10SM SCT090 A2998

2010/08/09 16:51
KBVE 091651Z AUTO -RA OVC017 26/25 A3000

2010/08/09 16:55
KCAO 091655Z AUTO VRB03KT 10SM CLR 30/14 A3009

2010/08/09 16:53
KCDS 091653Z AUTO 26009KT 10SM CLR 33/21 A2996

2010/08/09 16:53
KCLL 091653Z 18007KT 10SM FEW035 SCT047 33/22 A2998

2010/08/09 16:53
KCNM 091653Z AUTO 14004KT 10SM CLR 27/19 A3003

2010/08/09 16:53
KCOT 091653Z AUTO 00000KT 10SM CLR 32/21 A2995

2010/08/09 16:51
KCSG 091651Z COR 13005KT 10SM FEW045 CLR 34/20 A3000

2010/08/09 16:51
KCSG 091651Z 13005KT 10SM CLR 34/20 A3000

2010/08/09 16:53
KCTY 091653Z AUTO 07004KT 32/23 A2995

2010/08/09 16:53
KDAB 091653Z 10008G16KT 10SM SCT022 SCT110 31/24 A2995

2010/08/09 16:53
KDHT 091653Z AUTO 00000KT 10SM CLR 30/16 A3004

2010/08/09 16:53
KECP 091653Z 06008KT 10SM FEW041 33/23 A2996

2010/08/09 16:53
KELD 091653Z AUTO 33003KT 10SM CLR 33/23 A2997

2010/08/09 16:51
KELP 091651Z 00000KT 10SM FEW060 29/14 A3007

2010/08/09 16:53
KESF 091653Z AUTO 25003KT 10SM CLR 34/23 A2998

2010/08/09 16:53
KFSM 091653Z 00000KT 10SM CLR 35/22 A2995

2010/08/09 16:53
KFYV 091653Z VRB04KT 10SM CLR 33/21 A3000

2010/08/09 16:53
KGAG 091653Z AUTO 19011KT 10SM CLR 34/19 A2994

2010/08/09 16:51
KGDP 091651Z AUTO 24011KT 10SM SCT095 26/14 A3020

2010/08/09 16:53
KHBR 091653Z AUTO 18007G16KT 10SM CLR 36/18 A2993

2010/08/09 16:51
KHDO 091651Z AUTO 16010G14KT 10SM FEW038 32/21 A3000

2010/08/09 16:53
KHOT 091653Z AUTO 17004KT 10SM CLR 35/23 A2998

2010/08/09 16:53
KHRO 091653Z AUTO 00000KT 10SM CLR 33/22 A3001

2010/08/09 16:54
KIPT 091654Z VRB05KT 10SM CLR 30/14 A3000

2010/08/09 17:00
SCAP 091700Z 27008KT 9999 BKN040 11/08 Q1028

2010/08/09 16:54
KJAN 091654Z VRB05KT 10SM SCT039 34/24 A2998

2010/08/09 16:53
KJBR 091653Z AUTO 00000KT 10SM CLR 34/24 A2995

2010/08/09 16:51
KJCT 091651Z AUTO 19007KT 10SM CLR 32/19 A3000

2010/08/09 16:55
KJQF 091655Z 00000KT 7SM SCT042 SCT055 34/20 A3005

2010/08/09 16:53
KLFK 091653Z AUTO 20005KT 10SM SCT037 33/23 A2999

2010/08/09 16:53
KLFT 091653Z 30004KT 10SM FEW050 34/25 A2998

2010/08/09 16:53
KMCN 091653Z 10009KT 9SM CLR 33/21 A3002

2010/08/09 16:58
KMEI 091658Z 00000KT 10SM FEW031 32/24 A2999

2010/08/09 16:53
KMLC 091653Z AUTO 20009G14KT 10SM CLR 35/22 A2996

2010/08/09 16:53
KMLU 091653Z 25004KT 10SM CLR 35/24 A2997

2010/08/09 16:53
KMWL 091653Z AUTO 23009KT 10SM CLR 34/22 A2994

2010/08/09 16:53
KPBF 091653Z AUTO 00000KT 10SM CLR 35/23 A2996

2010/08/09 16:53
KPNC 091653Z AUTO 16003KT 10SM CLR 34/21 A2991

2010/08/09 16:53
KPSX 091653Z AUTO 22010G18KT 10SM CLR 33/25 A2997

2010/08/09 16:53
KPWA 091653Z 17008KT 10SM CLR 34/21 A2993

2010/08/09 16:53
KRMG 091653Z AUTO 12003KT 10SM FEW039 34/22 A3002

2010/08/09 16:53
KRSL 091653Z AUTO 18007KT 10SM CLR 33/20 A2989

2010/08/09 16:56
KSHV 091656Z VRB03KT 10SM FEW040 SCT300 34/22 A2997

2010/08/09 16:52
KSPS 091652Z 24010KT 10SM FEW070 36/19 A2991

2010/08/09 16:53
KTLH 091653Z 06007KT 10SM FEW050 33/20 A2997

2010/08/09 16:53
KTOP 091653Z 19006KT 10SM CLR 37/21 A2987

2010/08/09 16:53
KTRI 091653Z 28005KT 10SM FEW050 SCT150 32/19 A3009

2010/08/09 16:53
KTUP 091653Z 01006KT 10SM FEW027 34/25 A2999

2010/08/09 16:51
KVCT 091651Z 17008KT 10SM SCT041 34/23 A2997

2010/08/09 16:53
KVGT 091653Z 17005KT 10SM CLR 28/09 A2996

2010/08/09 16:58
KVUJ 091658Z AUTO 33005KT 10SM SCT048 SCT055 BKN090 33/22 A3004

2010/08/09 16:53
KAIA 091653Z AUTO 23007KT 10SM CLR 30/11 A3001

2010/08/09 16:54
KALO 091654Z AUTO 12007KT 10SM CLR 28/23 A2991

2010/08/09 16:52
KALS 091652Z AUTO 00000KT 10SM CLR 22/09 A3028

2010/08/09 16:50
KANW 091650Z AUTO 07004KT 10SM CLR 27/20 A2998

2010/08/09 16:53
KBBW 091653Z AUTO 00000KT 8SM -RA SCT041 25/22 A2998

2010/08/09 16:53
KBFF 091653Z AUTO 23015G19KT 10SM CLR 31/13 A3001

2010/08/09 16:50
KBIE 091650Z AUTO 14005KT 10SM CLR 32/23 A2986

2010/08/09 16:52
KBIS 091652Z 19011G15KT 10SM CLR 32/19 A2988

2010/08/09 16:53
KBPI 091653Z AUTO 19007KT 10SM FEW090 20/05 A3018

2010/08/09 16:53
KBRL 091653Z AUTO 17007KT 10SM CLR 27/23 A2992

2010/08/09 16:53
KCAG 091653Z AUTO 00000KT 10SM BKN090 OVC110 17/12 A3023

2010/08/09 16:53
KCGI 091653Z 00000KT 10SM FEW031 33/25 A2995

2010/08/09 16:52
KCID 091652Z 00000KT 10SM CLR 27/21 A2990

2010/08/09 16:55
KCNK 091655Z AUTO VRB04KT 10SM CLR 34/21 A2987

2010/08/09 16:52
KCNU 091652Z AUTO 21009KT 10SM CLR 35/22 A2993

2010/08/09 16:54
KCOU 091654Z 00000KT 10SM CLR 31/25 A2996

2010/08/09 16:53
KCYS 091653Z 19011KT 10SM FEW050 SCT070 BKN100 22/11 A3019

2010/08/09 16:53
KDBQ 091653Z 28009KT 10SM FEW010 25/22 A2995

2010/08/09 16:52
KDDC 091652Z AUTO 15008KT 10SM CLR 34/17 A2994

2010/08/09 16:55
KDVL 091655Z AUTO 20008KT 10SM CLR 29/19 A2985

2010/08/09 16:55
KEAR 091655Z AUTO 09003KT 10SM CLR 27/22 A2996

2010/08/09 16:50
KEHA 091650Z AUTO 24004KT 31/17

2010/08/09 16:54
KEVV 091654Z 00000KT 10SM SCT049 34/21 A2997

2010/08/09 16:53
KFNB 091653Z AUTO 15011KT 10SM CLR 32/24 A2985

2010/08/09 16:56
KFSD 091656Z 07006KT 10SM FEW022 28/22 A2991

2010/08/09 16:54
KFWA 091654Z VRB03KT 9SM FEW040 SCT140 BKN250 30/21 A3000

2010/08/09 16:53
KGCC 091653Z AUTO 00000KT 10SM CLR 27/09 A2998

2010/08/09 16:54
KGCK 091654Z VRB05KT 10SM FEW090 33/16 A2995

2010/08/09 16:53
KGJT 091653Z 00000KT 10SM SCT100 24/11 A3014

2010/08/09 16:53
KGLD 091653Z AUTO 05008KT 10SM CLR 31/19 A3001

2010/08/09 16:55
KGPZ 091655Z AUTO 28003KT 10SM CLR 28/21 A2993

2010/08/09 16:53
KGRI 091653Z 08005KT 10SM CLR 28/21 A2992

2010/08/09 16:55
KHON 091655Z AUTO 12005KT 10SM CLR 29/22 A2990

2010/08/09 16:53
KHSI 091653Z AUTO 07005KT 10SM CLR 28/22 A2992

2010/08/09 16:53
KHTL 091653Z AUTO 26004KT 10SM FEW021 26/21 A2991

2010/08/09 16:53
KIML 091653Z AUTO 06008KT 10SM CLR 26/20 A2999

2010/08/09 16:55
KIRK 091655Z AUTO 14011KT 10SM CLR 26/22 A2993

2010/08/09 16:51
KJAC 091651Z 00000KT 10SM FU SCT065 BKN120 18/08 A3018

2010/08/09 16:53
KJKL 091653Z AUTO VRB03KT 10SM CLR 31/18 A3008

2010/08/09 16:53
KJLN 091653Z 22007KT 10SM CLR 33/24 A2997

2010/08/09 17:00
KJNX 091700Z AUTO 00000KT 10SM CLR 31/21 A3003

2010/08/09 16:53
KLAN 091653Z 21008KT 10SM -RA FEW012 SCT065 OVC120 23/22 A2997

2010/08/09 16:53
KLBF 091653Z AUTO 05006KT 10SM CLR 27/21 A2997

2010/08/09 16:54
KLNK 091654Z 34007KT 10SM CLR 32/24 A2985

2010/08/09 16:53
KLXV 091653Z AUTO VRB04KT 10SM BKN100 17/06 A3041

2010/08/09 16:53
KMCK 091653Z AUTO 04012KT 10SM CLR 31/22 A2995

2010/08/09 16:53
KMCW 091653Z AUTO 16006KT 10SM FEW055 27/22 A2995

2010/08/09 16:52
KMFD 091652Z 23010KT 8SM CLR 29/17 A3005

2010/08/09 16:52
KMHK 091652Z 20007KT 10SM CLR 36/21 A2985

2010/08/09 16:55
KMKG 091655Z 22011KT 10SM FEW011 BKN100 27/23 A2993

2010/08/09 16:53
KMSN 091653Z 30005KT 10SM SCT022 BKN029 26/21 A2993

2010/08/09 16:53
KODX 091653Z AUTO 00000KT 10SM CLR 27/21 A2994

2010/08/09 16:50
KONL 091650Z AUTO 08003KT 10SM SCT011 23/22 A2996

2010/08/09 16:53
KOTM 091653Z AUTO 18008KT 10SM CLR 27/23 A2991

2010/08/09 16:53
KPAH 091653Z 20006KT 10SM FEW033 SCT040 BKN060 33/24 A2995

2010/08/09 16:53
KPKD 091653Z AUTO 26005KT 10SM CLR 29/17 A2994

2010/08/09 16:52
KRAP 091652Z 16011KT 10SM CLR 29/18 A2995

2010/08/09 16:54
KRFD 091654Z 25009KT 10SM FEW080 SCT150 BKN250 27/21 A2995

2010/08/09 16:53
KRIW 091653Z AUTO 10004KT 10SM CLR 23/05 A3007

2010/08/09 16:54
KRST 091654Z 28005KT 10SM SCT016 28/23 A2996

2010/08/09 16:53
KSHR 091653Z AUTO 08005KT 10SM CLR 28/07 A2995

2010/08/09 16:53
KSLN 091653Z 21012KT 10SM CLR 37/21 A2987

2010/08/09 16:52
KSPI 091652Z 24005KT 10SM CLR 31/25 A2994

2010/08/09 16:53
KSTC 091653Z 00000KT 10SM CLR 29/23 A2993

2010/08/09 16:52
KSUX 091652Z 00000KT 10SM OVC011 26/23 A2988

2010/08/09 16:53
KTCS 091653Z AUTO 00000KT 10SM CLR 26/14 A3013

2010/08/09 17:01
KTDF 091701Z AUTO 16005KT 31/20 A3006

2010/08/09 16:55
KUDG 091655Z 12004KT 10SM FEW038 32/23 A3006

2010/08/09 16:54
KUIN 091654Z AUTO 14004KT 10SM CLR 28/22 A2993

2010/08/09 16:53
KVIH 091653Z AUTO 04004KT 10SM CLR 34/25 A2997

2010/08/09 16:52
KVTN 091652Z AUTO 09005KT 10SM CLR 28/19 A2997

2010/08/09 16:51
KYNG 091651Z 21005KT 10SM BKN250 29/16 A3003

2010/08/09 16:54
KSBN 091654Z 19004KT 10SM BKN040 26/21 A2998

2010/08/09 17:00
LPAZ 091700Z 03011KT 9999 SCT018 BKN032 22/17 Q1020

2010/08/09 17:00
LPFL 091700Z 09003KT 020V160 9999 FEW020 24/18 Q1023

2010/08/09 17:00
LPHR 091700Z 05010KT 010V070 9999 FEW016 26/14 Q1021

2010/08/09 17:00
LPLA 091700Z 05010KT 9999 FEW025 BKN045 24/18 Q1022

2010/08/09 17:00
LPPD 091700Z 04011KT 350V070 9999 FEW018 BKN040 23/15 Q1020

2010/08/09 16:55
KAST 091655Z AUTO 29005KT 4SM BR BKN007 BKN012 OVC026 14/13 A3000

2010/08/09 16:54
KBFL 091654Z 24005KT 10SM CLR 24/13 A2988

2010/08/09 16:52
KBLU 091652Z AUTO 17005KT 10SM CLR 19/08 A3010

2010/08/09 16:56
KBZN 091656Z 00000KT 10SM BKN100 18/11 A3002

2010/08/09 16:53
KCNY 091653Z AUTO VRB04KT 10SM CLR 26/10 A3010

2010/08/09 16:52
KCZZ 091652Z AUTO 24006KT 25/M05 A2992

2010/08/09 16:55
KDRA 091655Z AUTO VRB05KT 10SM CLR 27/06 A2999

2010/08/09 16:53
KELY 091653Z AUTO 17009KT 10SM CLR 21/01 A3014

2010/08/09 16:54
KEUG 091654Z 36007KT 9SM OVC009 14/12 A3001

2010/08/09 16:56
KFLG 091656Z VRB06KT 10SM CLR 21/09 A3030

2010/08/09 16:50
KHMS 091650Z 16005KT 15SM FEW250 24/10 A2981

2010/08/09 16:56
KINW 091656Z AUTO 10SM CLR 24/13 A3016

2010/08/09 17:00
KJNX 091700Z AUTO 00000KT 10SM CLR 31/21 A3003

2010/08/09 16:53
KLGB 091653Z 00000KT 6SM HZ OVC016 19/13 A2993

2010/08/09 16:56
KLWS 091656Z 30005KT 10SM CLR 22/11 A2985

2010/08/09 16:53
KMFR 091653Z 28004KT 10SM CLR 21/12 A2993

2010/08/09 16:56
KNUQ 091656Z AUTO 09004KT 10SM CLR 18/12 A2992

2010/08/09 16:54
KOLM 091654Z 18006KT 10SM BKN011 BKN037 OVC046 15/12 A2998

2010/08/09 16:53
KPDT 091653Z 29004KT 10SM CLR 22/05 A2987

2010/08/09 16:53
KPGA 091653Z AUTO 02004KT 10SM CLR 24/12 A3010

2010/08/09 16:53
KPIH 091653Z 00000KT 10SM FEW075 BKN095 21/09 A3002

2010/08/09 16:53
KPUC 091653Z AUTO 16003KT 10SM CLR 21/07 A3018

2010/08/09 16:54
KRBL 091654Z AUTO 00000KT 10SM CLR 24/13 A2988

2010/08/09 16:53
KRDD 091653Z 24005KT 10SM CLR 25/13 A2986

2010/08/09 16:52
KSDB 091652Z AUTO VRB04KT 10SM CLR 22/02 A3006

2010/08/09 16:53
KSHN 091653Z AUTO 23009KT 9SM BKN008 OVC025 14/12 A2996

2010/08/09 16:54
KSJN 091654Z AUTO 00000KT 10SM BKN110 22/12 A3022

2010/08/09 16:53
KSLC 091653Z 17017G26KT 10SM FEW080 SCT110 SCT200 26/06 A3002

2010/08/09 16:51
KSMX 091651Z 00000KT 8SM OVC006 13/11 A2995

2010/08/09 16:50
KSOW 091650Z AUTO 00000KT 10SM BKN090 22/11 A3029

2010/08/09 16:50
KTRK 091650Z 00000KT 10SM FEW002 10/10 A3012

2010/08/09 16:56
KWMC 091656Z AUTO VRB04KT 10SM CLR 24/04 A2998

2010/08/09 16:53
KYKM 091653Z VRB05KT 10SM CLR 23/09 A2984

2010/08/09 16:56
KBIH 091656Z AUTO 00000KT 10SM CLR 24/00 A3001

2010/08/09 16:56
KMEH 091656Z AUTO VRB06KT 10SM FEW085 20/05 A2995

2010/08/09 16:56
KSMP 091656Z AUTO VRB05KT M1/4SM FG VV001 09/09 A2998

2010/08/09 16:51
KABE 091651Z 26007KT 10SM FEW047 31/19 A3001

2010/08/09 16:53
KACK 091653Z 23011KT 10SM FEW002 26/23 A3001

2010/08/09 16:54
KACY 091654Z 20007KT 10SM CLR 33/18 A3003

2010/08/09 16:53
KAGC 091653Z 18005KT 10SM CLR 29/15 A3004

2010/08/09 16:53
KAGS 091653Z 06004KT 9SM CLR 33/22 A3002

2010/08/09 16:54
KAKR 091654Z AUTO 22006KT 10SM CLR 29/17 A3003

2010/08/09 16:51
KALB 091651Z 23010G16KT 9SM SCT050 SCT110 31/18 A2996

2010/08/09 16:56
KAND 091656Z AUTO 22007KT 10SM SCT043 33/21 A3005

2010/08/09 16:53
KAOO 091653Z AUTO 00000KT 10SM CLR 29/15 A3007

2010/08/09 16:56
KART 091656Z AUTO 25008KT 10SM FEW065 27/20 A2994

2010/08/09 16:54
KAVL 091654Z VRB05KT 10SM CLR 31/20 A3013

2010/08/09 16:54
KAVP 091654Z AUTO 25011G16KT 10SM CLR 32/13 A3001

2010/08/09 16:53
KBAF 091653Z 21008KT 10SM SCT060 33/16 A2996

2010/08/09 16:51
KBDL 091651Z 20008KT 10SM FEW065 SCT100 33/16 A2996

2010/08/09 16:52
KBDR 091652Z 22008KT 9SM CLR 29/19 A2999

2010/08/09 16:56
KBED 091656Z 23011G16KT 10SM CLR 33/17 A2994

2010/08/09 16:53
KBFD 091653Z AUTO VRB04KT 10SM FEW095 26/14 A3008

2010/08/09 16:53
KBGM 091653Z 25010KT 10SM FEW055 29/13 A3006

2010/08/09 16:53
KBGR 091653Z 29006KT 10SM SCT035 BKN047 27/18 A2991

2010/08/09 16:53
KBKL 091653Z 31004KT 3SM HZ CLR 29/21 A2998

2010/08/09 16:51
KBKW 091651Z AUTO 22005KT 6SM HZ CLR 27/16 A3014

2010/08/09 16:54
KBOS 091654Z 23011KT 10SM FEW050 SCT060 SCT100 32/17 A2994

2010/08/09 16:54
KBTV 091654Z 20007KT 10SM FEW050 SCT110 27/19 A2992

2010/08/09 16:54
KBUF 091654Z 22013KT 10SM BKN070 OVC130 27/19 A2996

2010/08/09 16:53
KBVY 091653Z 23010G22KT 10SM FEW055 33/17 A2993

2010/08/09 16:54
KBWI 091654Z VRB06KT 9SM SCT048 SCT180 BKN250 32/19 A3000

2010/08/09 16:56
KCAE 091656Z VRB06KT 9SM FEW048 33/21 A3003

2010/08/09 16:51
KCAK 091651Z 23006KT 8SM SCT250 29/17 A3003

2010/08/09 16:54
KCAR 091654Z AUTO 25009KT 10SM FEW020 SCT027 OVC034 22/18 A2987

2010/08/09 16:55
KCEF 091655Z AUTO 24005KT 10SM CLR 32/18 A2996

2010/08/09 16:53
KCHO 091653Z 25008KT 8SM FEW043 32/21 A3003

2010/08/09 16:56
KCHS 091656Z 04009KT 10SM FEW025 33/23 A3000

2010/08/09 16:55
KHIF 091655Z AUTO 16014G22KT 10SM FEW090 24/08 A3006 RMK AO2A MIDFLD WND 18018KT SLP068 T02450078

2010/08/09 17:00
LKKV 091700Z 27004KT CAVOK 18/13 Q1017 RMK REG QNH 1012

2010/08/09 17:00
MGQZ 091700Z 04008KT CAVOK 23/13 QFE 768/6 SCT070 BKN200

2010/08/09 17:00
MGSJ 091700Z 14006KT 9999 SCT017 BKN200 31/26 Q1013 A29/91

2010/08/09 17:00
MKJS 091700Z 06011KT 9999 FEW024 BKN220 31/24 Q1013

2010/08/09 17:00
MNBL 091700Z 08006KT 8000 -TS FEW016CB SCT080 30/27 Q1012 CBRA/W/NW

2010/08/09 17:00
MNCH 091700Z 00000KT 9999 FEW025 SCT300 31/24 Q1012

2010/08/09 17:00
MNJG 091700Z 00000KT 9999 BKN019 24/20 Q1013

2010/08/09 17:00
MNJU 091700Z 06004KT 9999 FEW020 SCT080 29/24 Q1012

2010/08/09 17:00
MNPC 091700Z 08010KT 6000 VCRA BKN018TCU 30/26 Q1012 TCURA/W

2010/08/09 17:00
MNRS 091700Z 06004KT 9999 FEW015CB BKN016 29/26 Q1012 CB/4C

2010/08/09 16:59
MYEG 091659Z AUTO 11008KT 10SM CLR 29/24 A2999 RMK AO2

2010/08/09 17:00
OIAW 091700Z 21004KT CAVOK 40/12 Q0996 A2942

2010/08/09 17:00
OIFM 091700Z 05006KT 9999 FEW040 28/M02 Q1015 A2999

2010/08/09 17:00
OIKB 091700Z 11004KT 8000 NSC 33/27 Q0997 A2945

2010/08/09 17:00
OIKK 091700Z 34006KT CAVOK 25/M01 Q1015 A2999

2010/08/09 17:00
OIMM 091700Z 17004KT CAVOK 27/00 Q1013 A2994

2010/08/09 17:00
OISS 091700Z 09004KT CAVOK 31/M04 Q1012 A2988

2010/08/09 17:00
OITT 091700Z 03020KT 9999 FEW040 FEW045CB 28/06 Q1014 A2996

2010/08/09 17:00
OIZH 091700Z 27004KT CAVOK 29/M03 Q1009 A2982

2010/08/09 17:00
SVJC 091700Z 09006KT 9999 SCT040 33/22 Q1010

2010/08/09 17:00
TDCF 091700Z 00000KT 9999 SCT020 SCT240 31/24 Q1014

2010/08/09 17:00
TNCM 091700Z 10008KT 9999 SCT019 30/25 Q1015

2010/08/09 17:00
UACC 091700Z 02004MPS CAVOK 13/05 Q1013 040/0070 NOSIG RMK QFE729/0972

2010/08/09 17:00
ZBHH 091700Z 08002MPS CAVOK 14/08 Q1012 NOSIG

2010/08/09 17:00
ZHHH 091700Z 11003MPS 3500 BR SKC 30/28 Q1003 NOSIG

2010/08/09 17:00
ZSNJ 091700Z 09004MPS CAVOK 28/24 Q1004 NOSIG

2010/08/09 17:00
ZUCK 091700Z VRB01MPS CAVOK 31/22 Q1003 NOSIG

2010/08/09 17:00
ZWSH 091700Z 26003MPS 200V290 CAVOK 28/08 Q1010 NOSIG

2010/08/09 17:00
RJFF 091700Z 15005KT 9999 FEW025 SCT140 BKN/// 26/23 Q1010

2010/08/09 17:00
RJCC 091700Z 15005KT 2500 BR FEW001 BKN002 21/20 Q1014

2010/08/09 17:00
RJAA 091700Z 17004KT 9999 FEW020 23/22 Q1015 NOSIG

2010/08/09 17:00
RJBB 091700Z 17007KT 140V200 9999 FEW003 BKN020 27/24 Q1013 NOSIG

2010/08/09 17:00
RJTT 091700Z 18007KT 9999 FEW012 SCT050 BKN070 26/23 Q1015

2010/08/09 17:00
RJFF 091700Z 15005KT 9999 FEW025 SCT140 BKN/// 26/23 Q1010

2010/08/09 17:00
RJGG 091700Z 13009KT 9999 VCSH FEW010 SCT040 BKN080 26/25 Q1014 NOSIG

2010/08/09 17:00
RJFR 091700Z 09006KT 9999 FEW010 SCT070 BKN160 27/24 Q1011

2010/08/09 17:00
RJAA 091700Z 17004KT 9999 FEW020 23/22 Q1015 NOSIG

2010/08/09 17:00
RJBB 091700Z 17007KT 140V200 9999 FEW003 BKN020 27/24 Q1013 NOSIG

2010/08/09 17:00
RJTT 091700Z 18007KT 9999 FEW012 SCT050 BKN070 26/23 Q1015

2010/08/09 17:00
RJGG 091700Z 13009KT 9999 VCSH FEW010 SCT040 BKN080 26/25 Q1014 NOSIG

2010/08/09 17:00
RJAA 091700Z 17004KT 9999 FEW020 23/22 Q1015 NOSIG

2010/08/09 17:00
RJBB 091700Z 17007KT 140V200 9999 FEW003 BKN020 27/24 Q1013 NOSIG

2010/08/09 17:00
RJTT 091700Z 18007KT 9999 FEW012 SCT050 BKN070 26/23 Q1015

2010/08/09 17:00
ROAH 091700Z 18028G38KT 9999 -SHRA FEW012 SCT020 FEW025TCU BKN090 28/24 Q1005

2010/08/09 17:00
RJGG 091700Z 13009KT 9999 VCSH FEW010 SCT040 BKN080 26/25 Q1014 NOSIG

2010/08/09 16:53
KCKB 091653Z 18004KT 7SM CLR 29/19 A3007

2010/08/09 16:51
KCLE 091651Z 24006KT 10SM BKN250 29/20 A3002

2010/08/09 16:52
KCLT 091652Z 28003KT 10SM SCT040 BKN250 32/21 A3006

2010/08/09 16:51
KCMH 091651Z 22009KT 10SM BKN200 30/18 A3003

2010/08/09 16:54
KCRW 091654Z 00000KT 6SM HZ FEW040 30/19 A3005

2010/08/09 16:52
KCVG 091652Z 26005KT 9SM BKN250 33/18 A3002

2010/08/09 16:53
KDAN 091653Z AUTO 22005KT 8SM CLR 34/21 A3004

2010/08/09 16:56
KDAY 091656Z 23005KT 10SM FEW110 SCT250 31/18 A3004

2010/08/09 16:52
KDCA 091652Z 17011KT 8SM SCT055 BKN250 32/20 A3000

2010/08/09 16:56
KDUJ 091656Z AUTO 00000KT 10SM CLR 28/16 A3007

2010/08/09 16:54
KECG 091654Z 07006KT 10SM CLR 31/21 A3005

2010/08/09 16:51
KEKN 091651Z AUTO VRB03KT 8SM CLR 28/19 A3010

2010/08/09 16:53
KELM 091653Z VRB06KT 10SM CLR 29/16 A3000

2010/08/09 16:51
KERI 091651Z 25005KT 8SM FEW070 SCT095 30/19 A2999

2010/08/09 16:53
KEWB 091653Z 21010KT 8SM SCT015 BKN095 30/21 A2998

2010/08/09 16:54
KEWN 091654Z 15007KT 10SM FEW021 31/24 A3004

2010/08/09 16:51
KEWR 091651Z 21007G15KT 10SM FEW055 SCT250 34/17 A2999

2010/08/09 16:53
KFAY 091653Z AUTO 08007KT 10SM CLR 34/19 A3003

2010/08/09 16:53
KFLO 091653Z 05006KT 10SM CLR 32/22 A3003

2010/08/09 16:53
KFRG 091653Z 19014KT 9SM CLR 29/23 A3001

2010/08/09 16:53
KFVE 091653Z AUTO VRB04KT 9SM BKN024 OVC029 22/16 A2986

2010/08/09 16:53
KGFL 091653Z AUTO 18008KT 10SM FEW060 30/19 A2994

2010/08/09 16:56
KGON 091656Z 22007KT 6SM HZ CLR 27/21 A2999

2010/08/09 16:54
KGSO 091654Z 28006KT 10SM FEW048 32/20 A3006

2010/08/09 16:53
KGSP 091653Z 29003KT 10SM CLR 32/22 A3006

2010/08/09 16:53
KHFD 091653Z 24007G16KT 10SM CLR 33/14 A2995

2010/08/09 16:53
KHKY 091653Z 00000KT 9SM CLR 31/22 A3007

2010/08/09 16:56
KHPN 091656Z VRB06KT 9SM FEW050 32/17 A2999

2010/08/09 16:51
KHTS 091651Z 00000KT 8SM CLR 31/20 A3004

2010/08/09 16:53
KHVN 091653Z 22007KT 10SM CLR 31/20 A2998

2010/08/09 16:56
KHYA 091656Z 23015G21KT 10SM CLR 29/21 A2998

2010/08/09 16:52
KIAD 091652Z 20005KT 9SM FEW045 BKN250 32/21 A3001

2010/08/09 16:53
KIAG 091653Z 21010KT 10SM BKN075 BKN110 OVC140 27/21 A2995

2010/08/09 16:51
KILG 091651Z 15008KT 9SM SCT038 31/22 A3002

2010/08/09 16:53
KILM 091653Z AUTO 13007KT 10SM SCT027 31/23 A3003

2010/08/09 16:54
KINT 091654Z 28006KT 10SM CLR 31/20 A3007

2010/08/09 16:54
KIPT 091654Z VRB05KT 10SM CLR 30/14 A3000

2010/08/09 16:56
KISP 091656Z 20008KT 10SM FEW040TCU SCT080 29/20 A2999

2010/08/09 16:51
KJFK 091651Z 18009KT 8SM FEW040 SCT250 29/22 A3001

2010/08/09 16:54
KJST 091654Z AUTO 00000KT 10SM CLR 26/12 A3011

2010/08/09 16:55
KLCK 091655Z AUTO 22007KT 10SM CLR 31/20 A3003

2010/08/09 16:53
KLEB 091653Z 25007G14KT 10SM FEW055 30/17 A2994

2010/08/09 16:51
KLGA 091651Z 23011KT 10SM FEW060 SCT250 33/18 A2998

2010/08/09 16:53
KLUK 091653Z 18005KT 10SM CLR 32/21 A3001

2010/08/09 16:54
KLWM 091654Z 23009G17KT 190V270 10SM FEW055 SCT070 SCT090 32/17 A2995

2010/08/09 16:54
KLYH 091654Z AUTO 18006KT 10SM SCT038 SCT046 31/22 A3007

2010/08/09 16:56
KMDT 091656Z 00000KT 8SM FEW045 BKN250 31/21 A3000

2010/08/09 16:52
KMFD 091652Z 23010KT 8SM CLR 29/17 A3005

2010/08/09 16:53
KMGW 091653Z 00000KT 10SM CLR 29/16 A3007

2010/08/09 16:53
KMHT 091653Z VRB05KT 10SM SCT060 32/16 A2992

2010/08/09 16:54
KMIV 091654Z AUTO 20004KT CLR 31/17 A3001

2010/08/09 16:53
KMRB 091653Z 00000KT 8SM CLR 31/17 A3001

2010/08/09 16:53
KMSS 091653Z AUTO 27005KT 10SM OVC022 25/20 A2993

2010/08/09 16:54
KNKT 091654Z 12008KT 10SM -RA FEW060 28/23 A3004

2010/08/09 16:51
KORF 091651Z 05006KT 10SM FEW030 30/22 A3004

2010/08/09 16:54
KORH 091654Z 24010KT 10SM CLR 29/16 A3001

2010/08/09 16:54
KPHF 091654Z 09007KT 10SM CLR 32/21 A3004

2010/08/09 16:54
KPHL 091654Z 21009KT 10SM FEW050 SCT250 32/19 A3001

2010/08/09 16:51
KPIT 091651Z 00000KT 10SM FEW140 BKN250 29/15 A3004

2010/08/09 16:53
KPKB 091653Z 21005KT 7SM CLR 30/18 A3007

2010/08/09 16:53
KPOU 091653Z 22006KT 10SM CLR 32/16 A2997

2010/08/09 16:55
KPQI 091655Z AUTO 00000KT 10SM FEW020 BKN029 OVC034 21/17 A2985

2010/08/09 16:55
KPSM 091655Z 25006KT 10SM SCT050 BKN200 32/19 A2991

2010/08/09 17:00
GOSM 091700Z 28002KT 9999 SCT020TCU BKN230 34/25 Q1010

2010/08/09 17:00
GOTT 091700Z 30004KT 9999 BKN013 TCU SCT130 31/25 Q1010

2010/08/09 17:00
GOOD 091700Z 28004KT 9999 SCT013 33/27 Q1012

2010/08/09 17:00
GOGS 091700Z 24006KT 9999 SCT015 TCU SCT130 30/26 Q1012

2010/08/09 17:00
GOGG 091700Z 24006KT 9999 BKN016TCU SCT130 30/26 Q1012

2010/08/09 17:00
GOSS 091700Z 32010KT 260V350 9999 FEW016 31/25 Q1010

2010/08/09 16:51
KPVD 091651Z 29007G16KT 10SM SCT045TCU SCT110 SCT300 32/18 A2998

2010/08/09 16:51
KPWM 091651Z 30011KT 10SM FEW050 SCT100 31/18 A2991

2010/08/09 16:54
KRDG 091654Z 27006KT 10SM CLR 32/19 A2999

2010/08/09 16:51
KRDU 091651Z 08003KT 9SM SCT045 32/21 A3005

2010/08/09 16:54
KRIC 091654Z VRB03KT 10SM SCT049 BKN250 32/19 A3002

2010/08/09 16:54
KROA 091654Z 00000KT 9SM SCT040 31/21 A3008

2010/08/09 16:54
KROC 091654Z 23007KT 9SM SCT070 SCT130 OVC150 27/21 A2996

2010/08/09 16:53
KRWI 091653Z AUTO VRB03KT 10SM CLR 33/21 A3004

2010/08/09 16:53
KSAV 091653Z 06010G18KT 10SM FEW030 SCT250 34/21 A3000

2010/08/09 16:54
KSBY 091654Z 20005KT 10SM FEW055 31/18 A3002

2010/08/09 16:51
KSLK 091651Z AUTO 23009G16KT 7SM FEW024 BKN039 OVC060 26/19 A2997

2010/08/09 16:54
KSYR 091654Z 26006KT 10SM SCT060 BKN200 30/19 A2995

2010/08/09 16:51
KTEB 091651Z 21005KT 10SM FEW060 32/17 A2997

2010/08/09 16:52
KTOL 091652Z 25003KT 8SM CLR 28/19 A2998

2010/08/09 16:53
KTTN 091653Z 25007KT 220V280 8SM CLR 33/18 A3000

2010/08/09 16:55
KWRI 091655Z AUTO 25008KT 10SM FEW150 33/19 A2999

2010/08/09 16:51
KYNG 091651Z 21005KT 10SM BKN250 29/16 A3003

2010/08/09 16:53
KZZV 091653Z AUTO VRB04KT 10SM CLR 29/18 A3004

2010/08/09 16:45
KMTN 091645Z 13008KT 7SM SCT150 32/24 A3002

2010/08/09 16:52
KABI 091652Z 23008KT 9SM CLR 32/22 A3000

2010/08/09 16:56
KABQ 091656Z 00000KT 10SM FEW060 SCT140 26/12 A3017

2010/08/09 16:53
KABY 091653Z 07007G15KT 10SM FEW050 34/22 A3001

2010/08/09 16:51
KACT 091651Z 17011KT 10SM CLR 34/22 A2996

2010/08/09 16:53
KAEX 091653Z 02004KT 10SM CLR 34/22 A2996

2010/08/09 16:53
KAFW 091653Z 22010G14KT 10SM FEW060 36/22 A2994

2010/08/09 16:51
KAHN 091651Z 31003KT 6SM HZ BKN042 BKN095 33/22 A3006

2010/08/09 16:53
KALI 091653Z AUTO 19006KT 10SM FEW032 SCT044 33/24 A2994

2010/08/09 16:53
KAMA 091653Z 19012KT 10SM CLR 31/16 A3003

2010/08/09 16:53
KANB 091653Z AUTO 09003KT 10SM CLR 33/22 A3003

2010/08/09 16:53
KAPF 091653Z 22009KT 10SM BKN019 28/26 A2992

2010/08/09 16:52
KATL 091652Z 00000KT 10SM SCT048 32/21 A3005

2010/08/09 16:53
KAUS 091653Z 16009KT 110V190 10SM FEW045 33/21 A2998

2010/08/09 16:53
KBFM 091653Z 00000KT 10SM FEW031 32/24 A3000

2010/08/09 16:53
KBHM 091653Z 11004KT 10SM FEW047 34/21 A3003

2010/08/09 16:53
KBNA 091653Z 25005KT 10SM SCT039 SCT060 BKN200 33/23 A3000

2010/08/09 16:53
KBPT 091653Z 27004KT 10SM SCT032 BKN048 32/24 A2997

2010/08/09 17:00
KBQK 091700Z AUTO 05009G14KT 030V090 10SM BKN025 BKN038 OVC045 31/26 A2999

2010/08/09 16:53
KBRO 091653Z 16010KT 10SM BKN034 BKN044 34/24 A2992

2010/08/09 16:53
KBTR 091653Z VRB05KT 10SM SCT030 SCT050 SCT070 33/25 A2998

2010/08/09 16:53
KCEW 091653Z AUTO 07007KT 10SM FEW032 33/25 A2999

2010/08/09 16:53
KCHA 091653Z VRB04KT 10SM FEW030 SCT120 29/22 A3003

2010/08/09 16:53
KCLL 091653Z 18007KT 10SM FEW035 SCT047 33/22 A2998

2010/08/09 16:53
KCNM 091653Z AUTO 14004KT 10SM CLR 27/19 A3003

2010/08/09 16:51
KCRP 091651Z 17006KT 10SM FEW035 SCT044 32/24 A2994

2010/08/09 16:51
KCSG 091651Z COR 13005KT 10SM FEW045 CLR 34/20 A3000

2010/08/09 16:51
KCSG 091651Z 13005KT 10SM CLR 34/20 A3000

2010/08/09 16:53
KCSV 091653Z AUTO 00000KT 10SM SCT036 31/22 A3011

2010/08/09 16:53
KDAB 091653Z 10008G16KT 10SM SCT022 SCT110 31/24 A2995

2010/08/09 16:53
KDAL 091653Z 17010KT 10SM FEW042 34/23 A2994

2010/08/09 16:53
KDFW 091653Z 15007KT 10SM CLR 34/22 A2994

2010/08/09 16:53
KDHN 091653Z 06007KT 10SM CLR 33/23 A3004

2010/08/09 16:55
KDLF 091655Z AUTO 10011G16KT 10SM SCT024 30/23 A2996

2010/08/09 16:53
KDMN 091653Z AUTO 00000KT 10SM CLR 27/12 A3010

2010/08/09 16:51
KELP 091651Z 00000KT 10SM FEW060 29/14 A3007

2010/08/09 16:53
KESF 091653Z AUTO 25003KT 10SM CLR 34/23 A2998

2010/08/09 16:53
KEYW 091653Z 23011KT 10SM -RA SCT023 SCT032 BKN055 28/24 A2994

2010/08/09 16:53
KFLL 091653Z 13013G20KT 10SM FEW033 SCT090 31/24 A2994

2010/08/09 16:53
KFSM 091653Z 00000KT 10SM CLR 35/22 A2995

2010/08/09 16:53
KFTW 091653Z 18007KT 150V210 10SM CLR 35/23 A2994

2010/08/09 16:53
KFTY 091653Z 00000KT 7SM CLR 33/21 A3004

2010/08/09 16:53
KGGG 091653Z 20006KT 10SM CLR 33/22 A2998

2010/08/09 16:52
KGLS 091652Z 16008KT 10SM SCT028 33/24 A2999

2010/08/09 16:53
KGNV 091653Z 06012G17KT 10SM SCT035 BKN047 33/23 A2994

2010/08/09 16:53
KGPT 091653Z AUTO 04008KT 10SM SCT033 35/25 A2997

2010/08/09 16:53
KGUP 091653Z AUTO 00000KT 10SM CLR 22/12 A3026

2010/08/09 16:53
KGWO 091653Z AUTO VRB03KT 10SM FEW041 35/24 A2996

2010/08/09 16:53
KHOT 091653Z AUTO 17004KT 10SM CLR 35/23 A2998

2010/08/09 16:53
KHOU 091653Z 16004KT 10SM SCT035 33/22 A2996

2010/08/09 16:52
KHRL 091652Z 15009KT 10SM SCT028 33/23 A2991

2010/08/09 16:53
KHRO 091653Z AUTO 00000KT 10SM CLR 33/22 A3001

2010/08/09 16:53
KHSV 091653Z 00000KT 10SM BKN043TCU BKN110 34/22 A3001

2010/08/09 16:53
KIAH 091653Z 26004KT 10SM SCT031 BKN250 34/24 A2997

2010/08/09 16:54
KJAN 091654Z VRB05KT 10SM SCT039 34/24 A2998

2010/08/09 16:56
KJAX 091656Z 06011KT 7SM RA SCT032TCU SCT200 29/24 A2996

2010/08/09 16:53
KJBR 091653Z AUTO 00000KT 10SM CLR 34/24 A2995

2010/08/09 16:53
KLBB 091653Z 22012KT 10SM FEW180 31/18 A3004

2010/08/09 16:53
KLCH 091653Z 29004KT 10SM SCT036 33/24 A2997

2010/08/09 16:53
KLFT 091653Z 30004KT 10SM FEW050 34/25 A2998

2010/08/09 16:53
KLIT 091653Z 35004KT 10SM FEW050 BKN250 36/23 A2995

2010/08/09 16:56
KLRD 091656Z 16007KT 140V200 10SM CLR 34/22 A2996

2010/08/09 16:50
KLRU 091650Z AUTO 00000KT 10SM CLR 26/14 A3013

2010/08/09 16:53
KMAF 091653Z 17011G18KT 10SM CLR 32/19 A3002

2010/08/09 17:00
FIMR 091700Z 10018G30KT 9999 SCT018 BKN050 22/13 Q1025

2010/08/09 16:53
KMGM 091653Z COR 08010G14KT 10SM FEW037 34/22 A2999 RMK AO2 SLP150 T03390217 

2010/08/09 16:53
KMCN 091653Z 10009KT 9SM CLR 33/21 A3002

2010/08/09 16:53
KMCO 091653Z 10008KT 10SM SCT020 BKN070 BKN250 29/24 A2993

2010/08/09 16:58
KMEI 091658Z 00000KT 10SM FEW031 32/24 A2999

2010/08/09 16:53
KMEM 091653Z 23004KT 10SM FEW040 SCT130 BKN250 34/24 A2997

2010/08/09 16:53
KMFE 091653Z AUTO 15009KT 10SM FEW030 33/24 A2992

2010/08/09 16:53
KMGM 091653Z 08010G14KT 10SM CLR 34/22 A2999

2010/08/09 16:53
KMIA 091653Z 17010KT 7SM -RA FEW007 BKN015CB BKN040 OVC130 26/24 A2997

2010/08/09 16:53
KMKL 091653Z VRB04KT 10SM CLR 33/26 A2999

2010/08/09 16:53
KMLB 091653Z 10010KT 10SM SCT017CB 29/24 A2994

2010/08/09 16:53
KMLC 091653Z AUTO 20009G14KT 10SM CLR 35/22 A2996

2010/08/09 16:53
KMLU 091653Z 25004KT 10SM CLR 35/24 A2997

2010/08/09 16:56
KMOB 091656Z VRB05KT 10SM FEW028 SCT200 33/23 A3000

2010/08/09 16:53
KMSL 091653Z AUTO 12003KT 10SM CLR 33/24 A3001

2010/08/09 16:53
KMSY 091653Z COR 34008KT 10SM SCT060 BKN250 33/26 A2999

2010/08/09 16:53
KMSY 091653Z 34008KT 10SM SCT060 33/26 A2999

2010/08/09 16:53
KNEW 091653Z 34006KT 10SM SCT020 33/26 A2999

2010/08/09 16:56
KNGP 091656Z VRB06KT 10SM SCT023 SCT040 32/26 A2994

2010/08/09 16:52
KOKC 091652Z 18010KT 10SM CLR 33/22 A2993

2010/08/09 16:53
KPBI 091653Z 15010KT 10SM SCT024 SCT085 BKN150 31/24 A2994

2010/08/09 16:53
KPDK 091653Z VRB04KT 10SM CLR 34/19 A3006

2010/08/09 16:53
KPIE 091653Z 08005KT 10SM SCT020 31/24 A2993

2010/08/09 16:53
KPNS 091653Z 15008KT 10SM FEW027 32/25 A2999

2010/08/09 16:51
KROW 091651Z 00000KT 10SM CLR 26/18 A3006

2010/08/09 16:53
KRSW 091653Z 12008KT 10SM SCT025 SCT060 31/23 A2991

2010/08/09 16:53
KSAT 091653Z 18007KT 10SM FEW035 31/21 A2999

2010/08/09 16:56
KSHV 091656Z VRB03KT 10SM FEW040 SCT300 34/22 A2997

2010/08/09 16:51
KSJT 091651Z 16011G14KT 130V200 10SM FEW046 33/21 A2999

2010/08/09 16:53
KSRQ 091653Z 10008KT 10SM FEW026 BKN033 29/24 A2992

2010/08/09 16:53
KSSI 091653Z AUTO 04014KT 10SM FEW090 32/24 A2999

2010/08/09 16:53
KTCC 091653Z AUTO 16008KT 10SM CLR 30/16 A3003

2010/08/09 16:53
KTCL 091653Z 17009KT 10SM CLR 34/22 A3000

2010/08/09 16:53
KTCS 091653Z AUTO 00000KT 10SM CLR 26/14 A3013

2010/08/09 16:53
KTLH 091653Z 06007KT 10SM FEW050 33/20 A2997

2010/08/09 16:53
KTPA 091653Z VRB06KT 8SM SCT025 31/24 A2992

2010/08/09 16:53
KTRI 091653Z 28005KT 10SM FEW050 SCT150 32/19 A3009

2010/08/09 16:53
KTUL 091653Z 22005KT 10SM CLR 36/22 A2992

2010/08/09 16:53
KTUP 091653Z 01006KT 10SM FEW027 34/25 A2999

2010/08/09 16:53
KTXK 091653Z 21005KT 10SM CLR 34/23 A2997

2010/08/09 16:53
KTYR 091653Z 21009KT 10SM CLR 33/21 A3000

2010/08/09 16:53
KTYS 091653Z 25005KT 9SM FEW036 SCT070 32/23 A3005

2010/08/09 16:51
KVCT 091651Z 17008KT 10SM SCT041 34/23 A2997

2010/08/09 16:53
KVLD 091653Z 04010G16KT 10SM SCT040 33/22 A2998

2010/08/09 16:53
KVRB 091653Z 10009KT 10SM BKN070 29/23 A2994

2010/08/09 17:00
TIST 091700Z 11017G25KT 2 1/2SM +RA BR SCT016 BKN029 BKN040 27/25 A2999

2010/08/09 16:53
TIST 091653Z 11017G25KT 5SM -RA BR BKN018 BKN029 BKN048 28/26 A3000

2010/08/09 16:53
TISX 091653Z 04004KT 9SM -RA SCT018 BKN060 26/24 A2998

2010/08/09 16:50
TJPS 091650Z 12010KT 10SM FEW030 FEW060 32/25 A2996

2010/08/09 16:56
TJSJ 091656Z 06013KT 10SM FEW025 SCT040 SCT090 32/24 A2996

2010/08/09 17:00
TKPK 091700Z 05007KT 9999 FEW018 BKN046 29/25 Q1015

2010/08/09 16:53
KABR 091653Z AUTO 19007KT 10SM CLR 30/19 A2991

2010/08/09 16:50
KALN 091650Z 00000KT 7SM BKN200 33/26 A2995

2010/08/09 16:54
KALO 091654Z AUTO 12007KT 10SM CLR 28/23 A2991

2010/08/09 16:53
KASE 091653Z 33006KT 10SM BKN075 14/08 A3033

2010/08/09 16:53
KATY 091653Z AUTO 15006KT 10SM CLR 30/18 A2994

2010/08/09 16:53
KAXN 091653Z AUTO 27003KT 10SM CLR 29/18 A2996

2010/08/09 16:53
KAZO 091653Z 13003KT 3SM RA BR BKN016 OVC070 22/21 A2999

2010/08/09 16:53
KBDE 091653Z AUTO 10003KT 10SM CLR 28/21 A2988

2010/08/09 16:53
KBFF 091653Z AUTO 23015G19KT 10SM CLR 31/13 A3001

2010/08/09 16:52
KBIS 091652Z 19011G15KT 10SM CLR 32/19 A2988

2010/08/09 16:55
KBKF 091655Z 23006KT 70SM FEW080 SCT140 25/13 A3015

2010/08/09 16:53
KBRL 091653Z AUTO 17007KT 10SM CLR 27/23 A2992

2010/08/09 16:53
KBTL 091653Z 19006KT 3SM RA BR OVC011 22/21 A3001

2010/08/09 16:53
KCGI 091653Z 00000KT 10SM FEW031 33/25 A2995

2010/08/09 16:52
KCID 091652Z 00000KT 10SM CLR 27/21 A2990

2010/08/09 16:55
KCIU 091655Z AUTO 19011KT 10SM FEW023 25/19 A2990

2010/08/09 16:53
KCMI 091653Z 18006KT 10SM CLR 31/24 A2996

2010/08/09 16:53
KCMX 091653Z AUTO 27011KT 10SM 26/19 A2989

2010/08/09 16:54
KCOS 091654Z AUTO 18004KT 10SM FEW100 22/14 A3020

2010/08/09 16:54
KCOU 091654Z 00000KT 10SM CLR 31/25 A2996

2010/08/09 16:53
KCPR 091653Z 22013G17KT 10SM CLR 28/04 A3006

2010/08/09 16:53
KCYS 091653Z 19011KT 10SM FEW050 SCT070 BKN100 22/11 A3019

2010/08/09 16:52
KDDC 091652Z AUTO 15008KT 10SM CLR 34/17 A2994

2010/08/09 16:54
KDEC 091654Z 19006KT 10SM CLR 32/24 A2995

2010/08/09 16:53
KDEN 091653Z 27004KT 10SM FEW080 SCT100 BKN140 26/13 A3012

2010/08/09 16:53
KDET 091653Z 29004KT 9SM CLR 28/19 A2996

2010/08/09 16:55
KDLH 091655Z 00000KT 10SM FEW008 28/19 A2993

2010/08/09 16:54
KDSM 091654Z 17011KT 10SM FEW022 SCT150 BKN250 28/23 A2989

2010/08/09 16:53
KDTW 091653Z 26008KT 7SM FEW080 BKN130 OVC220 28/21 A2997

2010/08/09 16:56
KEAU 091656Z VRB04KT 8SM BKN013 28/23 A2990

2010/08/09 16:53
KEGE 091653Z 00000KT 10SM OVC080 19/08 A3026

2010/08/09 16:53
KELO 091653Z AUTO 24003KT 10SM CLR 26/19 A2991

2010/08/09 17:03
CWSA 091703Z AUTO 15013KT 9SM -RA FEW036 FEW048 FEW070 SCT081 20/17 A3011

2010/08/09 17:00
VTBS 091700Z 07004KT 9000 -RA FEW018CB SCT030 BKN110 25/23 Q1006 RETS CB SE NOSIG

2010/08/09 17:00
VTBD 091700Z 19003KT 9999 FEW020 BKN120 BKN300 25/24 Q1005 NOSIG

2010/08/09 17:00
VTCC 091700Z 00000KT 9999 BKN035 SCT110 27/24 Q1007 A2974

2010/08/09 17:00
VTBU 091700Z 25004KT 9999 FEW020CB SCT120 BKN300 30/27 Q1006 A2973 CB NW LTG

2010/08/09 17:00
VTSS 091700Z 00000KT 9999 SCT020 SCT120 BKN300 25/22 Q1009 A2980

2010/08/09 17:00
VVTS 091700Z 20008KT 9999 FEW017 SCT040 26/24 Q1007 NOSIG

2010/08/09 17:00
VVNB 091700Z 36002KT 7000 NSC 27/26 Q1004 NOSIG

2010/08/09 17:00
VVDN 091700Z 20005KT 8000 FEW010 SCT060 26/24 Q1005 NOSIG

2010/08/09 17:00
VVPB 091700Z VRB03KT 9999 FEW017 SCT060 26/24 Q1004 NOSIG

2010/08/09 16:54
KEVV 091654Z 00000KT 10SM SCT049 34/21 A2997

2010/08/09 16:53
KFAR 091653Z 20008KT 10SM CLR 29/20 A2989

2010/08/09 16:53
KFNT 091653Z 23006KT 8SM CLR 26/21 A2995

2010/08/09 16:56
KFSD 091656Z 07006KT 10SM FEW022 28/22 A2991

2010/08/09 16:54
KFWA 091654Z VRB03KT 9SM FEW040 SCT140 BKN250 30/21 A3000

2010/08/09 16:54
KGCK 091654Z VRB05KT 10SM FEW090 33/16 A2995

2010/08/09 16:53
KGFK 091653Z 18006KT 10SM CLR 32/19 A2984

2010/08/09 16:53
KGJT 091653Z 00000KT 10SM SCT100 24/11 A3014

2010/08/09 16:53
KGRB 091653Z VRB05KT 9SM FEW021 BKN028 29/23 A2988

2010/08/09 16:53
KGRI 091653Z 08005KT 10SM CLR 28/21 A2992

2010/08/09 16:53
KGRR 091653Z COR 19007KT 10SM FEW060 SCT100 BKN160 25/22 A2994

2010/08/09 16:53
KGRR 091653Z 19007KT 10SM FEW060 25/22 A2994

2010/08/09 16:53
KHIB 091653Z AUTO 13004KT 10SM CLR 27/22 A2993

2010/08/09 16:55
KHON 091655Z AUTO 12005KT 10SM CLR 29/22 A2990

2010/08/09 16:53
KHUF 091653Z 26005KT 9SM CLR 32/22 A2997

2010/08/09 16:52
KHUT 091652Z 19006KT 10SM CLR 37/21 A2992

2010/08/09 16:53
KICT 091653Z 18009KT 10SM FEW200 SCT250 37/21 A2991

2010/08/09 16:54
KIND 091654Z 22007KT 10SM FEW120 SCT250 33/21 A2997

2010/08/09 16:55
KINL 091655Z AUTO 00000KT 10SM CLR 26/20 A2990

2010/08/09 16:55
KIRK 091655Z AUTO 14011KT 10SM CLR 26/22 A2993

2010/08/09 16:51
KJAC 091651Z 00000KT 10SM FU SCT065 BKN120 18/08 A3018

2010/08/09 16:53
KJLN 091653Z 22007KT 10SM CLR 33/24 A2997

2010/08/09 16:56
KJMS 091656Z AUTO 19010KT 10SM CLR 31/21 A2989

2010/08/09 16:56
KJXN 091656Z 25006KT 5SM -RA BR BKN025 23/21 A3000

2010/08/09 16:53
KLAN 091653Z 21008KT 10SM -RA FEW012 SCT065 OVC120 23/22 A2997

2010/08/09 16:53
KLAR 091653Z AUTO VRB03KT 10SM FEW120 22/07 A3024

2010/08/09 16:53
KLBF 091653Z AUTO 05006KT 10SM CLR 27/21 A2997

2010/08/09 16:55
KLBL 091655Z 18005KT 10SM CLR 34/17 A2997

2010/08/09 16:54
KLEX 091654Z 00000KT 10SM CLR 33/17 A3004

2010/08/09 16:54
KLNK 091654Z 34007KT 10SM CLR 32/24 A2985

2010/08/09 16:53
KLOU 091653Z 18005KT 10SM CLR 33/21 A2999

2010/08/09 16:53
KLOZ 091653Z AUTO VRB03KT 10SM CLR 31/22 A3006

2010/08/09 16:53
KLSE 091653Z 27004KT 10SM SCT019 BKN090 29/23 A2991

2010/08/09 16:53
KMBS 091653Z 21010KT 10SM CLR 26/21 A2992

2010/08/09 16:53
KMCI 091653Z 17007KT 10SM SCT250 34/23 A2991

2010/08/09 16:51
KMDW 091651Z 25003KT 9SM FEW035 SCT075 BKN150 BKN200 28/21 A2994

2010/08/09 16:52
KMHK 091652Z 20007KT 10SM CLR 36/21 A2985

2010/08/09 16:54
KMKC 091654Z 20007KT 10SM CLR 34/23 A2990

2010/08/09 16:52
KMKE 091652Z 22011KT 10SM SCT019 BKN160 BKN240 27/22 A2992

2010/08/09 16:55
KMKG 091655Z 22011KT 10SM FEW011 BKN100 27/23 A2993

2010/08/09 16:52
KMLI 091652Z 00000KT 10SM CLR 27/22 A2991

2010/08/09 16:54
KMOT 091654Z 00000KT 10SM CLR 28/18 A2983

2010/08/09 16:53
KMSN 091653Z 30005KT 10SM SCT022 BKN029 26/21 A2993

2010/08/09 16:53
KMSP 091653Z 00000KT 10SM FEW150 32/21 A2991

2010/08/09 16:55
KOFF 091655Z AUTO 31005KT 9SM CLR 30/24 A2984

2010/08/09 16:52
KOMA 091652Z 22004KT 10SM FEW030 SCT140 SCT250 32/24 A2985

2010/08/09 16:51
KORD 091651Z 23006KT 10SM FEW055 SCT150 BKN200 BKN250 27/22 A2994

2010/08/09 16:53
KOSH 091653Z 21005KT 10SM BKN014 OVC021 26/22 A2990

2010/08/09 16:53
KOTM 091653Z AUTO 18008KT 10SM CLR 27/23 A2991

2010/08/09 16:56
KOWB 091656Z 00000KT 7SM CLR 35/22 A2998

2010/08/09 16:53
KPAH 091653Z 20006KT 10SM FEW033 SCT040 BKN060 33/24 A2995

2010/08/09 16:54
KPIA 091654Z 00000KT 8SM CLR 28/22 A2995

2010/08/09 16:53
KPIR 091653Z AUTO 16005KT 10SM CLR 28/21 A2991

2010/08/09 16:54
KPLN 091654Z AUTO 16007KT 10SM BKN006 24/22 A2989

2010/08/09 16:53
KPTK 091653Z 26005KT 10SM SCT130 OVC160 26/20 A2996

2010/08/09 16:53
KPUB 091653Z VRB05KT 10SM CLR 25/14 A3009

2010/08/09 16:52
KRAP 091652Z 16011KT 10SM CLR 29/18 A2995

2010/08/09 16:54
KRFD 091654Z 25009KT 10SM FEW080 SCT150 BKN250 27/21 A2995

2010/08/09 16:54
KRKS 091654Z AUTO 00000KT 10SM SCT080 SCT100 22/04 A3019

2010/08/09 16:54
KRST 091654Z 28005KT 10SM SCT016 28/23 A2996

2010/08/09 16:55
KSAW 091655Z 33005KT 10SM SCT034 SCT047 29/19 A2986

2010/08/09 16:56
KSDF 091656Z 00000KT 8SM FEW035 SCT150 SCT200 34/21 A2999

2010/08/09 16:52
KSGF 091652Z 21005KT 10SM CLR 33/23 A2998

2010/08/09 17:00
SACO 091700Z 05015KT CAVOK 16/02 Q1025

2010/08/09 17:00
SARE 091700Z 14006KT 9999 FEW025 SCT200 18/05 Q1023

2010/08/09 17:00
SAVC 091700Z 27018G31KT CAVOK 16/M01 Q1015

2010/08/09 17:00
K0R3 091700Z AUTO 35007KT SCT029 33/26 A2998 RMK AO2 LTG DSNT SE PWINO

2010/08/09 16:55
KBIX 091655Z 03008KT 10SM FEW028 SCT130 34/24 A2996 RMK AO2A SLP146 WND DATA ESTMD ALSTG/SLP ESTMD

2010/08/09 16:50
KEFD 091650Z 00000KT 10SM BKN020 34/25 A2999

2010/08/09 16:55
KLFI 091655Z 12006KT 10SM CLR 29/22 A3004 RMK AO2A SLP175 T02940223

2010/08/09 16:55
KLGC 091655Z AUTO 04007KT 10SM FEW048 34/21 A3002 RMK AO1

2010/08/09 17:00
KLOM 091700Z AUTO 27003KT 10SM SCT048 SCT055 32/19 A3001 RMK AO1 T03170194

2010/08/09 16:55
KLUF 091655Z VRB05KT 6SM HZ CLR 34/05 A2988 RMK AO2A SLP089 T03400054 $

2010/08/09 17:00
KMDQ 091700Z AUTO 00000KT 10SM SCT035 SCT046 SCT050 32/24 A3002 RMK AO2 T03240239

2010/08/09 16:56
KNSE 091656Z 13006KT 9SM SCT030 SCT130 33/24 A2999 RMK AO2 SLP138 T03330239 $

2010/08/09 17:03
KOCW 091703Z AUTO 09005KT 10SM CLR 31/20 A3004 RMK AO2

2010/08/09 17:00
KTBR 091700Z AUTO 05007G15KT 10SM SCT042 34/21 A3001 RMK AO2 LTG DSNT E T03350207

2010/08/09 17:00
KXLL 091700Z AUTO 20007KT 5SM HZ SCT045 SCT055 32/22 A3001 RMK AO2 T03200224

2010/08/09 17:00
KXSA 091700Z AUTO 15004KT 10SM SCT050 BKN090 OVC110 33/19 A3002 RMK AO2

2010/08/09 16:53
PADQ 091653Z 31003KT 10SM FEW002 SCT010 BKN140 11/11 A2964 RMK A02 SLP035 T01110106 TSNO

2010/08/09 16:56
PADT 091656Z 04003KT 20SM BKN020 BKN060 10/09 A2972 RMK NOSPECI

2010/08/09 17:00
KH78 091700Z 01019KT 6SM +RA OVC010 27/25 A3002 RMK SEAS 3-4

2010/08/09 17:00
SPHI 091700Z 21008KT CAVOK 22/14 Q1017 RMK PP000

2010/08/09 17:00
SPIM 091700Z 18006KT 6000 FEW013 OVC017 17/12 Q1018 NOSIG RMK BIRD HAZARD RWY 15 PP000

2010/08/09 17:00
SPQT 091700Z /////KT 8000 FEW020 SCT100 31/23 Q1015 NOSIG RMK BRUMOSO BIRD HAZARD RWY 06/24 PP000

2010/08/09 17:00
SPQU 091700Z 23009KT 160V290 CAVOK 19/M13 Q1028 NOSIG RMK PP000

2010/08/09 17:00
SPRU 091700Z 18010KT CAVOK 18/13 Q1014 RMK BIRD HAZARD RWY20 PP000

2010/08/09 17:00
SPSO 091700Z 27007KT 6000 SCT014 20/14 Q1018 RMK BIRDS HAZARD RWY 22/04 W PP000

2010/08/09 17:00
SPTN 091700Z VRB04KT CAVOK 18/09 Q1014 RMK PP000

2010/08/09 17:00
SPZO 091700Z VRB02KT 9999 SKC 19/M20 Q1033 NOSIG RMK PP000

2010/08/09 17:00
SAZM 091700Z 29006KT CAVOK 15/04 Q1023

2010/08/09 17:00
GMAD 091700Z 25012KT 6000 NSC 28/19 Q1012 NOSIG

2010/08/09 17:00
GMFF 091700Z 01009KT 9999 SCT033 FEW040CB BKN100 41/08 Q1014 NOSIG

2010/08/09 17:00
GMME 091700Z 31005KT 240V350 8000 NSC 32/20 Q1011 NOSIG

2010/08/09 17:00
GMMN 091700Z 34011KT CAVOK 36/16 Q1012 NOSIG

2010/08/09 17:00
GMMX 091700Z 34005KT 290V030 6000 SCT033 FEW040CB SCT100 41/12 Q1013 NOSIG

2010/08/09 17:00
GMTT 091700Z 07023KT 9999 FEW016 SCT200 29/18 Q1011 NOSIG

2010/08/09 17:00
SAWE 091700Z 25030KT 9999 FEW011 04/M02 Q0998

2010/08/09 16:54
KAPN 091654Z 09005KT 10SM FEW005 SCT025 BKN050 23/21 A2992

2010/08/09 16:54
KSBN 091654Z 19004KT 10SM BKN040 26/21 A2998

2010/08/09 16:53
KSDM 091653Z 00000KT 10SM CLR 19/12 A2994

2010/08/09 16:53
KSLN 091653Z 21012KT 10SM CLR 37/21 A2987

2010/08/09 16:52
KSPI 091652Z 24005KT 10SM CLR 31/25 A2994

2010/08/09 16:53
KSTC 091653Z 00000KT 10SM CLR 29/23 A2993

2010/08/09 16:53
KSTJ 091653Z 15009KT 10SM CLR 32/24 A2988

2010/08/09 16:51
KSTL 091651Z 00000KT 9SM FEW060 SCT130 BKN200 33/24 A2995

2010/08/09 16:53
KSTP 091653Z VRB03KT 10SM CLR 30/22 A2991

2010/08/09 16:54
KSUS 091654Z 17003KT 10SM BKN150 33/26 A2992

2010/08/09 16:52
KSUX 091652Z 00000KT 10SM OVC011 26/23 A2988

2010/08/09 16:53
KTVC 091653Z 24004KT 6SM HZ FEW017 SCT027 BKN060 28/22 A2986

2010/08/09 16:54
KUIN 091654Z AUTO 14004KT 10SM CLR 28/22 A2993

2010/08/09 16:53
KWRL 091653Z AUTO 04004KT 10SM CLR 26/07 A2997

2010/08/09 16:53
KYIP 091653Z AUTO 24010KT 10SM CLR 28/20 A2997

2010/08/09 17:00
TIST 091700Z 11017G25KT 2 1/2SM +RA BR SCT016 BKN029 BKN040 27/25 A2999

2010/08/09 17:05
CWCL 091705Z AUTO 36004KT 4SM -RA OVC010 10/08 A2996

2010/08/09 16:58
KLSV 091658Z AUTO VRB04KT 10SM -DZ CLR 29/10 A2994

2010/08/09 17:00
SARF 091700Z 18006KT 9999 SCT018 17/09 Q1022

2010/08/09 17:00
SARI 091700Z 20003KT CAVOK 21/14 Q1021

2010/08/09 16:53
KACV 091653Z AUTO 30004KT 10SM OVC005 12/12 A2995

2010/08/09 16:53
KALW 091653Z 26009G17KT 10SM CLR 23/07 A2987

2010/08/09 16:53
KBFI 091653Z 16004KT 10SM BKN012 OVC017 16/12 A2997

2010/08/09 16:54
KBFL 091654Z 24005KT 10SM CLR 24/13 A2988

2010/08/09 16:53
KBIL 091653Z 19005KT 10SM FEW100 24/11 A2994

2010/08/09 16:53
KBKE 091653Z AUTO 30005KT 10SM CLR 21/09 A2993

2010/08/09 16:53
KBLI 091653Z 17008KT 10SM FEW007 SCT055 15/12 A2995

2010/08/09 16:53
KBOI 091653Z 01004KT 10SM CLR 24/10 A2988

2010/08/09 16:53
KBTM 091653Z AUTO 00000KT 10SM CLR 14/08 A3004

2010/08/09 16:53
KBUR 091653Z 00000KT 10SM CLR 19/12 A2992

2010/08/09 16:53
KBYI 091653Z AUTO 11004KT 10SM BKN100 21/11 A2998

2010/08/09 16:56
KBZN 091656Z 00000KT 10SM BKN100 18/11 A3002

2010/08/09 16:53
KCDC 091653Z AUTO 23005KT 10SM CLR 22/08 A3016

2010/08/09 16:56
KCEC 091656Z AUTO 33004KT 8SM OVC006 13/12 A2996

2010/08/09 16:53
KCLM 091653Z AUTO 33007KT 10SM BKN008 14/12 A2997

2010/08/09 16:56
KCTB 091656Z AUTO 21010KT 10SM CLR 23/04 A2991

2010/08/09 16:56
KEKO 091656Z AUTO VRB03KT 10SM BKN100 24/02 A3002

2010/08/09 16:54
KEUG 091654Z 36007KT 9SM OVC009 14/12 A3001

2010/08/09 16:53
KFAT 091653Z 18004KT 10SM CLR 23/13 A2989

2010/08/09 16:56
KFLG 091656Z VRB06KT 10SM CLR 21/09 A3030

2010/08/09 16:54
KGCN 091654Z 20008G14KT 10SM CLR 21/04 A3026

2010/08/09 16:53
KGEG 091653Z 18007KT 10SM FEW050 SCT080 SCT200 22/10 A2988

2010/08/09 16:53
KGGW 091653Z AUTO 00000KT 10SM CLR 27/11 A2988

2010/08/09 16:53
KGTF 091653Z 19007KT 10SM CLR 24/08 A2991

2010/08/09 16:53
KHLN 091653Z 00000KT 10SM BKN110 17/09 A2996

2010/08/09 16:53
KHQM 091653Z AUTO 25006KT 7SM OVC004 13/12 A3000

2010/08/09 16:53
KIDA 091653Z 21004KT 10SM SCT090 BKN110 OVC150 21/10 A3005

2010/08/09 16:56
KLAS 091656Z 16005KT 10SM CLR 29/09 A2993

2010/08/09 16:53
KLGB 091653Z 00000KT 6SM HZ OVC016 19/13 A2993

2010/08/09 16:53
KLMT 091653Z 00000KT 10SM FEW050 SCT100 19/09 A2998

2010/08/09 16:53
KLVM 091653Z AUTO 27005KT 10SM FEW110 24/09 A2998

2010/08/09 16:53
KMFR 091653Z 28004KT 10SM CLR 21/12 A2993

2010/08/09 16:53
KMLS 091653Z AUTO VRB03KT 10SM CLR 28/09 A2989

2010/08/09 16:54
KMRY 091654Z 28003KT 10SM OVC007 13/11 A2996

2010/08/09 16:53
KMSO 091653Z 00000KT 10SM CLR 20/09 A2992

2010/08/09 16:53
KMYV 091653Z AUTO 20003KT 10SM CLR 20/12 A2988

2010/08/09 16:53
KOAK 091653Z 27004KT 10SM OVC012 16/11 A2994

2010/08/09 16:53
KOGD 091653Z AUTO 17018G23KT 10SM CLR 25/08 A3004

2010/08/09 16:54
KOLM 091654Z 18006KT 10SM BKN011 BKN037 OVC046 15/12 A2998

2010/08/09 16:53
KONT 091653Z 00000KT 5SM HZ CLR 19/12 A2992

2010/08/09 16:55
KOTH 091655Z 03007KT 10SM OVC020 15/11 A3004

2010/08/09 16:53
KPAE 091653Z AUTO 00000KT 10SM 15/12 A2997

2010/08/09 16:53
KPDX 091653Z 33005KT 10SM BKN024 OVC029 15/10 A3001

2010/08/09 16:51
KPHX 091651Z 00000KT 10SM FEW150 34/02 A2988

2010/08/09 16:53
KPIH 091653Z 00000KT 10SM FEW075 BKN095 21/09 A3002

2010/08/09 16:53
KPMD 091653Z 02005KT 10SM CLR 26/03 A2996

2010/08/09 16:53
KPRB 091653Z AUTO 00000KT 10SM OVC007 15/12 A2994

2010/08/09 16:53
KPRC 091653Z 00000KT 10SM SCT110 25/08 A3015

2010/08/09 16:53
KPSP 091653Z 00000KT 10SM CLR 32/03 A2982

2010/08/09 16:54
KRBL 091654Z AUTO 00000KT 10SM CLR 24/13 A2988

2010/08/09 16:53
KRDD 091653Z 24005KT 10SM CLR 25/13 A2986

2010/08/09 16:56
KRDM 091656Z 00000KT 10SM CLR 19/08 A2995

2010/08/09 16:55
KRNO 091655Z 00000KT 10SM FEW090 21/06 A3003

2010/08/09 16:53
KRNT 091653Z 17005KT 9SM OVC014 15/13 A2997

2010/08/09 16:53
KSAC 091653Z 18006KT 10SM CLR 19/13 A2989

2010/08/09 16:51
KSAN 091651Z VRB03KT 10SM OVC017 18/13 A2995

2010/08/09 16:53
KSBA 091653Z 16008KT 10SM FEW001 15/13 A2992

2010/08/09 16:51
KSBD 091651Z 00000KT 7SM SKC 20/11 A2992

2010/08/09 16:56
KSBP 091656Z VRB03KT 10SM BKN011 16/12 A2995

2010/08/09 16:55
KSCK 091655Z VRB06KT 10SM CLR 20/13 A2989

2010/08/09 16:53
KSEA 091653Z 21008KT 10SM BKN007 OVC012 14/12 A2998

2010/08/09 16:53
KSFF 091653Z 00000KT 10SM CLR 22/11 A2987

2010/08/09 16:56
KSFO 091656Z 17005KT 10SM R28R/6000VP6000FT FEW010 BKN017 17/11 A2993

2010/08/09 16:53
KSHR 091653Z AUTO 08005KT 10SM CLR 28/07 A2995

2010/08/09 16:53
KSJC 091653Z COR VRB05KT 10SM FEW007 17/11 A2992

2010/08/09 16:53
KLAX 091653Z 25007KT 8SM SCT016 18/13 A2994

2010/08/09 16:53
KSJC 091653Z VRB05KT 10SM FEW007 SCT013 17/11 A2992

2010/08/09 16:53
KSLC 091653Z 17017G26KT 10SM FEW080 SCT110 SCT200 26/06 A3002

2010/08/09 16:53
KSMF 091653Z 19004KT 10SM CLR 19/13 A2988

2010/08/09 16:51
KSMX 091651Z 00000KT 8SM OVC006 13/11 A2995

2010/08/09 16:53
KSNA 091653Z VRB03KT 6SM HZ BKN015 19/13 A2993

2010/08/09 16:53
KSNS 091653Z 00000KT 10SM OVC011 15/11 A2995

2010/08/09 16:53
KTIW 091653Z 18005KT 10SM SCT009 BKN021 OVC050 14/12 A2998

2010/08/09 16:53
KTUS 091653Z 15003KT 10SM CLR 31/17 A3000

2010/08/09 16:53
KTVL 091653Z AUTO 06003KT 10SM CLR 19/07 A3012

2010/08/09 16:53
KTWF 091653Z 16016KT 10SM CLR 25/07 A2995

2010/08/09 16:56
KUKI 091656Z AUTO 11004KT 10SM CLR 17/12 A2990

2010/08/09 16:53
KYKM 091653Z VRB05KT 10SM CLR 23/09 A2984

2010/08/09 17:05
KNBT 091705Z AUTO 11003KT 2 1/2SM -RA FEW002 27/24 A3004 RMK AO2 P0000 TSNO 

2010/08/09 16:53
PABR 091653Z AUTO 07022G27KT 10SM OVC005 01/01 A2989

2010/08/09 16:53
PABT 091653Z COR 03005KT 10SM FEW011 SCT050 BKN070 13/10 A2957

2010/08/09 16:53
PABT 091653Z 03005KT 10SM FEW011 SCT050 BKN070 13/10 A2957

2010/08/09 16:53
PACV 091653Z 00000KT 10SM FEW016 SCT027 OVC039 13/11 A2983

2010/08/09 16:50
PADL 091650Z 18015KT 5SM -RA BR SCT005 OVC012 11/09 A2951

2010/08/09 16:58
PADU 091658Z 15004KT 8SM -RA BKN015 OVC033 11/09 A2951

2010/08/09 16:53
PAEN 091653Z 04005KT 10SM BKN055 OVC070 14/11 A2961

2010/08/09 16:53
PAGK 091653Z 17014G23KT 10SM FEW060 SCT080 SCT110 SCT140 SCT180 11/07 A2970

2010/08/09 16:53
PAGY 091653Z AUTO 21012KT 10SM BKN050 OVC060 13/11 A2993

2010/08/09 16:53
PAIL 091653Z 13007KT 10SM SCT026 BKN065 12/09 A2956

2010/08/09 16:54
PAKN 091654Z 19006KT 10SM OVC021 11/09 A2952

2010/08/09 16:53
PAKT 091653Z 15005KT 10SM SCT006 BKN017 OVC055 14/12 A3002

2010/08/09 16:53
PASC 091653Z 06019G25KT 1 1/2SM BR OVC003 03/03 A2976

2010/08/09 16:53
PASI 091653Z 00000KT 10SM SCT006 OVC032 13/12 A2997

2010/08/09 16:56
PAUN 091656Z AUTO 09008KT 4SM FEW030 SCT048 BKN050 12/09 A2937

2010/08/09 16:56
PAVD 091656Z 09004KT 1SM SCT001 OVC010 11/09 A2981

2010/08/09 16:50
PHJH 091650Z 07015KT 15SM FEW035 FEW080 24/17 A3008

2010/08/09 16:54
PHMK 091654Z 06004KT 10SM CLR 24/14 A3009

2010/08/09 16:56
PMDY 091656Z AUTO 07008KT 10SM CLR 26/21 A3022

2010/08/09 17:00
TBPB 091700Z 17012KT 9999 FEW014CB SCT036 30/25 Q1014 NOSIG

2010/08/09 16:55
EHJR 091655Z AUTO 19021G23KT //// 17/15 Q1014 W17/S3

2010/08/09 17:00
GCLP 091700Z 03012KT 360V060 9000 FEW025 SCT030 25/20 Q1013 NOSIG

2010/08/09 17:00
GCXO 091700Z 30007KT 250V330 9000 FEW003 BKN008 20/17 Q1016 NOSIG

2010/08/09 17:00
GCTS 091700Z 09007KT 060V120 9999 FEW020 OVC027 24/18 Q1013 NOSIG

2010/08/09 17:00
GCRR 091700Z 21006KT 180V240 9999 FEW022 28/21 Q1012

2010/08/09 17:00
GCFV 091700Z 15006KT 110V170 7000 FEW020 24/21 Q1012

2010/08/09 16:50
LIBF 091650Z 34010KT CAVOK 31/09 Q1013 RMK VIS MIN 9999

2010/08/09 16:50
LIEA 091650Z VRB02KT CAVOK 25/15 Q1016 RMK VIS MIN 9999

2010/08/09 16:55
LIED 091655Z 29004KT CAVOK 30/04 Q1015 RMK BKN BKN070 SCT080 VIS MIN 9999 BLU

2010/08/09 16:50
LIEO 091650Z 08006KT 050V130 9999 FEW050 27/20 Q1015 RMK VIS MIN 9999

2010/08/09 16:50
LIMA 091650Z 21003KT 9999 SCT035 29/15 Q1014 RMK VIS MIN 9999

2010/08/09 16:50
LIQN 091650Z 33005KT 9999 FEW040 30/14 Q1016 RMK VIS MIN 9999

2010/08/09 16:55
LIQW 091655Z 12001KT 9999 FEW030 25/18 Q1016 RMK FEW VIS MIN 9999 BLU

2010/08/09 16:55
LIRE 091655Z 28012KT CAVOK 26/23 Q1015 RMK SKC VIS MIN 9999 WIND THR31 28011KT BLU

2010/08/09 16:55
LIRG 091655Z 24010KT CAVOK 30/14 Q1015 RMK FEW FEW230 MON NE LIB NC VIS MIN 9999 BLU

2010/08/09 16:55
LIRH 091655Z 34005KT CAVOK 31/15 Q1015 RMK SKC MON LIB NC VIS MIN 9999 WIND THR16 33010KT BLU

2010/08/09 16:50
LIRI 091650Z 00000KT CAVOK 28/18 Q1014 RMK VIS MIN 9999

2010/08/09 16:55
LIRL 091655Z 26008KT CAVOK 29/17 Q1015 RMK FEW FEW200 MON LIB NC VIS MIN 9999 BLU

2010/08/09 16:55
LIRM 091655Z 27010KT 9999 FEW040 30/29 Q1016 RMK FEW VIS MIN 9999 WIND THR06 24010KT BLU

2010/08/09 16:55
LIRS 091655Z 24008KT 9999 FEW025 29/11 Q1015 RMK SCT SCT200 VIS MIN 9999 WIND THR21 /////KT BLU

2010/08/09 16:50
LIRU 091650Z 27007KT CAVOK 31/18 Q1014 RMK VIS MIN 9999

2010/08/09 16:55
LIRV 091655Z 24012KT CAVOK 27/12 Q1016 RMK SCT SCT200 MON E SE LIB NC VIS MIN 9999 BLU

2010/08/09 16:55
LIRX 091655Z 36003KT CAVOK 24/18 Q1016 RMK SCT FEW060 SCT200 VIS MIN 9999N VIS MAR 18 KM

2010/08/09 16:50
LIRZ 091650Z 29007KT 9999 FEW035 30/14 Q1014 RMK VIS MIN 9999

2010/08/09 16:55
EHSC 091655Z AUTO 13006G07KT 9999 20/14 Q1015 W///S2

2010/08/09 16:50
LIMG 091650Z 04005KT 9999 BKN030 25/18 Q1015 RMK VIS MIN 9999

2010/08/09 16:55
LIMN 091655Z 27005KT 230V290 CAVOK 27/15 Q1014 RMK FEW FEW200 VIS MIN 9999 BLU

2010/08/09 16:50
LIMP 091650Z 36005KT 330V030 CAVOK 28/17 Q1014 RMK VIS MIN 9999

2010/08/09 16:55
LIMS 091655Z 09004KT 9999 SCT050 28/19 Q1014 RMK SCT VIS MIN 9999 WIND THR30 09004KT BLU

2010/08/09 16:50
LIMZ 091650Z 10003KT 9999 SCT060 27/14 Q1016 RMK VIS MIN 9999

2010/08/09 16:55
LIPA 091655Z 22004KT 9999 FEW040 28/19 Q1014 RMK FEW VIS MIN 9999 A2995 BLU

2010/08/09 16:50
LIPB 091650Z 15009KT CAVOK 29/16 Q1013 RMK MON LIB VIS MIN 9999

2010/08/09 16:55
LIPC 091655Z 14007KT CAVOK 28/17 Q1014 RMK SKC VIS MIN 9999 WIND THR12 12007KT BLU

2010/08/09 16:55
LIPF 091655Z 00000KT 9999 FEW040 29/21 Q1014 RMK SCT SCT240 VIS MIN 9999

2010/08/09 16:45
LIPH 091645Z 19005KT CAVOK 28/20 Q1014 RMK SKC VIS MIN 9999 WIND THR07 /////KT BLU

2010/08/09 16:55
LIPL 091655Z 21002KT 9999 FEW040 30/20 Q1014 RMK FEW VIS MIN 9999 BLK BLU

2010/08/09 16:50
LIPO 091650Z 24004KT 9999 FEW060 28/17 Q1013 RMK VIS MIN 9999

2010/08/09 16:50
LIPQ 091650Z 20005KT CAVOK 27/19 Q1014

2010/08/09 16:45
LIPR 091645Z 09007KT CAVOK 27/21 Q1014 RMK SKC VIS MIN 9999 WIND THR31 10006KT BLU

2010/08/09 16:55
LIPS 091655Z 19005KT CAVOK 28/18 Q1014 RMK SKC VIS MIN 9999 BLU

2010/08/09 16:45
LIPX 091645Z 17002KT 9999 FEW040 30/17 Q1014 RMK FEW VIS MIN 9999 BLU

2010/08/09 16:50
LIPY 091650Z 03006KT CAVOK 26/19 Q1014 RMK VIS MIN 9999

2010/08/09 16:55
LIVC 091655Z 03008KT 0100 FG VV001 13/12 Q1025 RMK MON INVIS VAL INVIS VIS MIN 0100

2010/08/09 17:00
UKON 091700Z 05002MPS CAVOK 33/17 Q1010 05090075 NOSIG

2010/08/09 17:00
UKCM 091700Z 04003MPS CAVOK 32/12 Q1010 02010065 NOSIG

2010/08/09 17:00
UKCW 091700Z 10003MPS CAVOK 29/08 Q1012 0909//70 NOSIG

2010/08/09 17:00
UKLU 091700Z 31005MPS 9999 VCTS SCT043CB SCT043 22/18 Q1016 10090070 TEMPO VRB12MPS -TSRA BKN020CB

2010/08/09 17:00
UKKK 091700Z 31005MPS 9000 FEW033CB BKN100 28/14 Q1014 RETS 26CLRD70 TEMPO VRB12G17MPS 2000 TSRAGR BKN020CB

2010/08/09 17:00
UKKM 091700Z 32005MPS 9999 TS FEW034CB BKN100 25/20 Q1014

2010/08/09 17:00
UKLN 091700Z VRB02MPS 9999 SCT033CB BKN100 24/18 Q1015 3309//70 TEMPO VRB12MPS -TSRA BKN030CB

2010/08/09 17:00
UGSB 091700Z 00000KT P6000 SCT023 BKN070 29/25 Q1006 NOSIG

2010/08/09 16:55
LIMU 091655Z 24010KT 9999 FEW013 25/23 Q1017 RMK BKN QUK 2 QUL 1 S VIS MAR 30 KM VIS MIN 9999

2010/08/09 16:55
LIMY 091655Z /////KT 9999 SCT022 24/16 Q1016 RMK BKN VAL FOSCHIA VIS MIN 9999W

2010/08/09 16:55
LIVD 091655Z 11003KT 9999 FEW030 22/09 Q1018 RMK FEW VIS MIN 9999

2010/08/09 16:55
LIVE 091655Z 00000KT CAVOK 19/07 Q1018 RMK SKC VIS MIN 9999

2010/08/09 16:55
LIVO 091655Z 10003KT 9999 SCT030 21/15 Q1017 RMK SCT VIS MIN 9999

2010/08/09 16:55
LIVR 091655Z 13012KT 9999 BKN010 14/14 Q1023 RMK BKN MON CLD SCT VIS MIN 9999

2010/08/09 16:55
LIVT 091655Z 23002KT CAVOK 26/20 Q1014 RMK SKC QUK 1 QUL 0 VIS MAR 20 KM VIS MIN 9999

2010/08/09 16:55
LIBA 091655Z 12004KT CAVOK 30/19 Q1013 RMK SKC VIS MIN 9999 WIND THR29 12003KT BLU

2010/08/09 16:50
LIBC 091650Z VRB03KT CAVOK 30/15 Q1014 RMK VIS MIN 9999

2010/08/09 16:50
LIBD 091650Z 02005KT 330V050 CAVOK 27/16 Q1013 RMK VIS MIN 9999

2010/08/09 16:50
LIBG 091650Z 01013KT 350V050 CAVOK 30/10 Q1012 RMK VIS MIN 9999

2010/08/09 16:55
LIBN 091655Z 35015KT CAVOK 28/11 Q1013 RMK SKC VIS MIN 9999 WIND THR14 35015KT BLU

2010/08/09 16:50
LIBP 091650Z VRB01KT 9999 SCT080 26/17 Q1014 RMK VIS MIN 9999

2010/08/09 16:45
LIBR 091645Z 32018KT CAVOK 26/22 Q1014 NOSIG RMK SKC VIS MIN 9999 WIND THR13 WIND THR31 30013KT BLU

2010/08/09 16:55
LIBV 091655Z 02012KT CAVOK 28/12 Q1013 RMK SKC VIS MIN 9999 WIND THR14 01011KT BLU

2010/08/09 16:50
LICA 091650Z 27011KT 9999 SCT020 26/20 Q1015 RMK VIS MIN 9999

2010/08/09 16:50
LICC 091650Z 06014KT CAVOK 28/21 Q1013 RMK VIS MIN 9999

2010/08/09 16:50
LICD 091650Z 35007KT CAVOK 26/20 Q1015 RMK VIS MIN 9999

2010/08/09 16:55
LICG 091655Z 36008KT CAVOK 25/23 Q1017 RMK SKC VIS MIN 9999 WIND THR08 ///05KT WIND THR21 36006KT BLU

2010/08/09 16:50
LICJ 091650Z 03010KT CAVOK 27/20 Q1016 RMK VIS MIN 9999

2010/08/09 16:50
LICR 091650Z 35002G15KT 9999 FEW030 27/18 Q1015 RMK VIS MIN 9999

2010/08/09 16:55
LICT 091655Z 33011KT CAVOK 28/22 Q1015 RMK SKC VIS MIN 9999 WIND THR13 32008KT BLU

2010/08/09 16:55
LICZ 091655Z 10013KT CAVOK 29/20 Q1013 RMK SKC VIS MIN 9999 WIND THR28 /////KT BLU

2010/08/09 16:55
EHSA 091655Z AUTO 20010G12KT 9999 18/16 Q1015 W19/S3

2010/08/09 17:00
LEMD 091700Z 26005KT 210V310 CAVOK 35/10 Q1016 NOSIG

2010/08/09 17:00
LEBL 091700Z 20006KT 160V250 9999 FEW010 FEW025TCU 27/22 Q1014 NOSIG

2010/08/09 17:00
LEPA 091700Z 23012KT CAVOK 28/19 Q1015 NOSIG

2010/08/09 17:00
LEZL 091700Z 34008KT 290V020 CAVOK 39/11 Q1012 NOSIG

2010/08/09 17:00
LEMG 091700Z 15007KT 110V170 CAVOK 29/19 Q1014 NOSIG

2010/08/09 17:00
LEVC 091700Z 12009KT CAVOK 30/19 Q1013 NOSIG

2010/08/09 17:00
LEAL 091700Z 06007KT 030V100 CAVOK 30/19 Q1014 NOSIG

2010/08/09 17:00
LEIB 091700Z 09007KT 060V120 CAVOK 27/21 Q1014 NOSIG

2010/08/09 17:00
LELC 091700Z 05007KT 010V100 CAVOK 29/15 Q1014 NOSIG

2010/08/09 17:00
LEVX 091700Z 27005KT 250V340 CAVOK 30/16 Q1016

2010/08/09 17:00
UKBB 091700Z 28003MPS 9999 FEW040CB 28/14 Q1013 88CLRD95 NOSIG

2010/08/09 17:00
UKHH 091700Z 07002MPS CAVOK 33/10 Q1013 080///65 NOSIG

2010/08/09 17:00
UKOO 091700Z 04004MPS 350V080 5000 FU NSC 32/18 Q1011 16090070 NOSIG

2010/08/09 17:00
UKDE 091700Z 05003MPS CAVOK 33/12 Q1011 02CLRD70 NOSIG

2010/08/09 17:00
UKDD 091700Z 08004MPS CAVOK 30/12 Q1012 08090070 NOSIG

2010/08/09 17:00
UKFF 091700Z 06005MPS CAVOK 30/11 Q1010 01010070 NOSIG

2010/08/09 17:00
UKCC 091700Z 05002MPS CAVOK 31/10 Q1012 08090070 NOSIG

2010/08/09 17:00
UKDR 091700Z 14002MPS 9999 FEW033 31/13 Q1012 1809//70 NOSIG

2010/08/09 17:03
KANJ 091703Z AUTO 00000KT 10SM SCT022 BKN030 BKN060 26/20 A2989 RMK AO2 

2010/08/09 17:01
KDLF 091701Z AUTO 11011G15KT 10SM BKN024 30/23 A2996

2010/08/09 16:55
TXKF 091655Z 18012KT 9999 FEW020 BKN300 30/23 Q1022

2010/08/09 17:00
TIST 091700Z 11017G25KT 2 1/2SM +RA BR SCT016 BKN029 BKN040 27/25 A2999

2010/08/09 17:04
KOSH 091704Z 25005KT 10SM OVC016 26/22 A2991

2010/08/09 17:00
CYBB 091700Z 25005KT 15SM FEW100 SCT220 17/08 A2995 RMK AC1CI1 SLP144

2010/08/09 17:00
CYCB 091700Z 05009KT 15SM FEW005 16/13 A2982 RMK SF1 TR SF FU SLP100

2010/08/09 17:00
CYCO 091700Z 06004KT 3SM -DZ BR OVC005 10/10 A2980 RMK FG1ST7 BLN EST SLP091

2010/08/09 17:00
CYFS 091700Z 33011KT 15SM -RA OVC008 16/15 A2965 RMK SF8 CIG RAG SLP046

2010/08/09 17:00
CYGH 091700Z 34002KT 25SM BKN075 14/11 A2977 RMK AC6 SLP084

2010/08/09 17:00
CYGT 091700Z 34008KT 15SM FEW020 17/07 A2991 RMK SC1 SLP132

2010/08/09 17:00
CYHI 091700Z 09007KT 15SM VCSH FEW010 FEW015 BKN020 OVC030 10/08 A2985 RMK SF0SC1SC4ST1 SLP112

2010/08/09 17:00
CYHY 091700Z 16012KT 15SM FEW015 SCT230 19/11 A2967 RMK SC2CI0 SLP050

2010/08/09 17:00
CYJF 091700Z 00000KT 7SM FEW007 OVC017 16/15 A2970 RMK SF2SC6 SLP060

2010/08/09 17:00
CYKD 091700Z 15003KT 10SM OVC013 11/09 A2978 RMK SC8 SLP087

2010/08/09 17:00
CYLC 091700Z 00000KT 15SM SCT015 BKN020 BKN080 15/05 A2977 RMK CU4SC2AC1 SLP084

2010/08/09 17:00
CYLK 091700Z 08007KT 6SM FU BKN080 OVC210 21/14 A2970 RMK AC5CI0 SLP063

2010/08/09 17:00
CYOA 091700Z 10013KT 3SM FU SKC 19/12 A2977 RMK SLP096

2010/08/09 17:00
CYPC 091700Z 03003KT 6SM BR OVC004 08/08 A2981 RMK ST8 SLP095

2010/08/09 17:00
CYRT 091700Z 00000KT 15SM BKN081 16/10 A3004 RMK AC6 SLP174

2010/08/09 17:00
CYTE 091700Z 09002KT 15SM FEW045 BKN097 16/09 A2982 RMK SC2AC5 SLP101

2010/08/09 17:00
CYUT 091700Z 32007KT 45SM SKC 20/05 A2994 RMK SLP139

2010/08/09 17:00
CYVM 091700Z 02008KT 1 1/2SM -DZ BR OVC002 05/05 A2992 RMK FG6ST2 SLP132

2010/08/09 17:00
CYWJ 091700Z 30008KT 40SM FEW015 FEW050 BKN080 BKN120 15/12 A2971 RMK CF1SC2AC3AC1 SLP066

2010/08/09 17:00
CYXN 091700Z 00000KT 15SM BKN050 12/08 A3004 RMK SC7 SLP174

2010/08/09 17:00
CYXP 091700Z 00000KT 12SM -RA FEW003 FEW020 OVC035 09/09 A2983 RMK ST1SC2SC6 CMPTR U/S TEMP DP WND QNH FM AWOS

2010/08/09 17:00
CYAD 091700Z 28012KT 5SM -DZ BKN008 OVC012 10/10 A2978 RMK SF7ST1 SLP094

2010/08/09 17:00
CYAS 091700Z 02018G27KT 10SM BKN006 OVC020 08/06 A2974 RMK ST7SC1 CIG ESTD DUE STG WND SLP078

2010/08/09 17:00
CYBX 091700Z 22014G21KT 2SM BR OVC004 15/14 A2977 RMK FG2SF6 SLP083

2010/08/09 17:00
CYGV 091700Z AUTO 26011G19KT 9SM BKN010 BKN072 19/14 A2975 RMK SLP075

2010/08/09 17:00
CYHA 091700Z 36010KT 15SM MIFG FEW002 FEW007 OVC015 07/06 A2978 RMK SF2SF1SC5 U2A U/S SLP086

2010/08/09 17:00
CYIK 091700Z 34005KT 15SM FEW018 FEW060 BKN130 BKN200 BKN300 12/06 A2987 RMK CU1SC1AC6CI1CC1 SLP116

2010/08/09 17:00
CYKG 091700Z 35015G20KT 15SM BKN015 OVC090 10/07 A2979 RMK SC4AC3 SLP097

2010/08/09 17:00
CYKQ 091700Z 28007KT 15SM FEW028 FEW290 21/14 A2983 RMK CU1CI0 SLP103

2010/08/09 17:00
CYLA 091700Z 02017KT 15SM OVC003 06/05 A2972 RMK ST8 SLP067

2010/08/09 17:00
CYMH 091700Z 21022G28KT 15SM -RA SCT018 BKN071 BKN220 20/15 A2971 RMK CU3AC3CI1 SLP061

2010/08/09 17:00
CYMT 091700Z 27010G15KT 15SM BKN030 21/12 A2986 RMK CU5 SLP117

2010/08/09 17:00
CYMU 091700Z 19007KT 6SM BR FEW004 BKN006 10/10 A2974 RMK SF2SC6 SLP074

2010/08/09 17:00
CYNM 091700Z AUTO 26011KT 250V340 9SM FEW042 FEW062 25/11 A2985 RMK SLP113

2010/08/09 17:00
CYOY 091700Z AUTO 24008KT 180V280 9SM FEW019 FEW030 SCT073 24/17 A2987 RMK SLP117

2010/08/09 17:00
CYPH 091700Z 06009KT 15SM BKN025 BKN230 15/09 A2978 RMK SC6CI1 SLP085

2010/08/09 17:00
CYPX 091700Z 03005KT 15SM BKN035 BKN140 16/07 A2981 RMK SC5AS1 SLP096

2010/08/09 17:00
CYQI 091700Z 18012G21KT 15SM FEW025 BKN100 OVC250 20/16 A3002 RMK SC1AC7CI0 TR SC SLP167

2010/08/09 17:00
CYSK 091700Z 36012KT 15SM FEW005 13/09 A2978 RMK SF2 SLP087

2010/08/09 17:00
CYSL 091700Z 23003KT 15SM OVC038 21/17 A2988 RMK SC8 SLP120

2010/08/09 17:00
CYUY 091700Z 27004KT 15SM FEW045 FEW160 FEW220 25/13 A2991 RMK CF1AC1CI0 SLP131

2010/08/09 17:00
CYWK 091700Z 25010G15KT 15SM VCSH BKN019 BKN030 OVC040 13/10 A2969 RMK CU5SC2SC2 SLP065

2010/08/09 17:00
CYZG 091700Z 00000KT 15SM FEW021 BKN068 BKN230 10/06 A2984 RMK SC2AC3CI1 SLP119

2010/08/09 17:00
CYTH 091700Z CCA 11008G15KT 15SM SCT060 BKN230 20/10 A2990 RMK SC3CI2 TR ACC ASOCTD DIST S SLP130

2010/08/09 17:00
CWRF 091700Z AUTO ///// 17/ A2976

2010/08/09 17:00
CWVD 091700Z AUTO ///// 05/ A2984 RMK SLP139

2010/08/09 17:00
CYCY 091700Z 14007KT 25SM FEW015 FEW070 09/06 A2993 RMK SF0AC1 SLP139

2010/08/09 17:00
CYED 091700Z AUTO 00000KT 9SM CLR 21/11 A2982 RMK SLP098

2010/08/09 17:00
CYEK 091700Z 07004KT 15SM OVC070 12/11 A3003 RMK AS7 SLP168

2010/08/09 17:00
CYIO 091700Z 34002KT 30SM FEW025 FEW075 BKN140 OVC250 11/06 A2990 RMK SC1AC2AS3CI2 SLP129

2010/08/09 17:00
CYLJ 091700Z 00000KT 15SM FEW040 FEW250 23/14 A2980 RMK CU1CI1 SLP094

2010/08/09 17:00
CYLT 091700Z 30006KT 5SM -SN OVC010 M01/M02 A3001 RMK SF8 SLP167

2010/08/09 17:00
CYMJ 091700Z 32002KT 12SM FEW028 FEW280 23/16 A2988 RMK CF1CI0 SLP122

2010/08/09 17:00
CYOD 091700Z 18003KT 15SM FEW090 BKN250 22/15 A2981 RMK AC2CI0 SLP098

2010/08/09 17:00
CYPE 091700Z 19007KT 15SM FEW080 SCT250 18/09 A2977 RMK AC1CI2 SLP085

2010/08/09 17:00
CYQV 091700Z AUTO 31008KT 9SM CLR 23/18 A2982 RMK SLP101

2010/08/09 17:00
CYSF 091700Z AUTO 08011KT 3SM HZ SCT023 OVC049 17/14 A2977 RMK SLP089 DENSITY ALT 1300FT

2010/08/09 17:00
CYSM 091700Z 00000KT 15SM FEW015 FEW110 BKN220 18/14 A2973 RMK CF1AC1CS4 HALO SLP072

2010/08/09 17:00
CYSR 091700Z 15010KT 15SM VCFG FEW020 FEW040 BKN100 10/07 A2986 RMK ST1SC2AS5 VIS N 2 SLP146

2010/08/09 17:00
CYUB 091700Z 16005KT 15SM BKN007 BKN240 10/06 A2980 RMK SC5CI1 SLP091

2010/08/09 17:00
CYUS 091700Z AUTO ///// 9SM CLR 17/ A2993 RMK SLP138

2010/08/09 17:00
CYVT 091700Z 06004KT 15SM FEW005 SCT012 SCT080 BKN220 20/17 A2976 RMK SF2SC2AC1CI1 SLP083

2010/08/09 17:00
CYXH 091700Z 25008KT 30SM FEW048 FEW270 24/11 A2985 RMK CF1CI0 SLP104

2010/08/09 17:00
CYZU 091700Z 00000KT 15SM FEW028 FEW110 SCT250 18/11 A2983 RMK CF1AC1CI1 SLP104

2010/08/09 17:00
CYAY 091700Z AUTO 25017G23KT 9SM SCT030 SCT037 OVC056 21/16 A2979 RMK SLP089 DENSITY ALT 900FT MAX WND 24030KT AT 1622Z

2010/08/09 17:00
CYCX 091700Z 19008KT 10SM -SHRA SCT007 OVC040 20/19 A2990 RMK SF4SC4 DA+1072FT SLP126

2010/08/09 17:00
CYDF 091700Z 23020G30KT 15SM SCT035 BKN110 BKN230 24/16 A2992 RMK SC3AC2CI0 SLP132

2010/08/09 17:00
CYDP 091700Z 09013KT 15SM BKN028 OVC085 14/09 A2955 RMK SC6AC1 SLP008

2010/08/09 17:00
CYGW 091700Z 29007KT 1SM BR OVC003 10/10 A2978 RMK SC8 BLN DSPARD 500FT SLP085

2010/08/09 17:00
CYHH 091700Z 27010KT 10SM -SHRA OVC012 15/12 A2984 RMK SC8 SLP112

2010/08/09 17:00
CYLU 091700Z 01009KT 10SM -RA BKN015 OVC025 14/12 A2958 RMK SF5SC2 SLP021

2010/08/09 17:00
CYSJ 091700Z 20018G29KT 12SM OVC014 20/14 A2995 RMK SC8 SLP142

2010/08/09 17:00
CYTQ 091700Z 03014KT 15SM BKN012 BKN050 BKN070 09/07 A2970 RMK SC6SC1AC1 SLP061

2010/08/09 17:00
CYYG 091700Z 18010KT 15SM -SHRA BKN085 OVC120 22/17 A2998 RMK AC6AC2 PCPN VRY LGT SLP152

2010/08/09 17:00
CYAW 091700Z 18010G15KT 15SM FEW020 SCT250 22/17 A3004 RMK CF1CI2 DA+1057FT SLP175

2010/08/09 17:00
CYBG 091700Z 25008KT 20SM FEW040 SCT120 26/14 A2983 RMK CU2AC1 MDT CU SLP104

2010/08/09 17:00
CYEG 091700Z 16004KT 15SM FEW028 FEW160 BKN260 20/13 A2983 RMK CU1AC1CI1 TR CU+AC SLP103

2010/08/09 17:00
CYFB 091700Z 04007KT 30SM -RA SCT023 OVC056 14/09 A2979 RMK SC4SC4 SLP090

2010/08/09 17:00
CYFC 091700Z AUTO 20008KT 2 1/2SM -RA BR BKN009 OVC012 20/19 A2990 RMK SLP125 DENSITY ALT 600FT PCPN 0.8MM PAST HR VIS VRB 2 1/4-3 RVR MISG

2010/08/09 17:00
CYGL 091700Z 29010KT 15SM -DZ OVC005 11/09 A2981 RMK ST8 -DZ INTMT SLP102

2010/08/09 17:00
CYHZ 091700Z 18018KT 15SM FEW300 24/15 A3003 RMK CI2 SLP170

2010/08/09 17:00
CYJT 091700Z 23014G25KT 15SM SCT050 BKN100 OVC220 20/16 A2997 RMK SC3AC4CI1 SLP150

2010/08/09 17:00
CYMX 091700Z 19006KT 25SM SCT025 25/18 A2992 RMK CU3 SLP132

2010/08/09 17:00
CYOW 091700Z 29003KT 15SM FEW023 FEW050 BKN090 OVC240 25/20 A2993 RMK CU1CU2AC3CI2 SLP134

2010/08/09 17:00
CYQB 091700Z 23009KT 20SM FEW020 SCT250 23/19 A2989 RMK CU2CI0 SLP120

2010/08/09 17:00
CYQG 091700Z 25009KT 6SM HZ SCT170 OVC260 28/21 A2996 RMK AC4CS4 SLP142

2010/08/09 17:00
CYQM 091700Z 16007KT 15SM FEW015 BKN040 OVC100 19/18 A2994 RMK SC2SC5AC2 SLP138

2010/08/09 17:00
CYQQ 091700Z 33005KT 15SM -SHRA SCT050 BKN080 15/11 A2997 RMK SC4AC3 SLP148

2010/08/09 17:00
CYQX 091700Z 21011G17KT 15SM FEW030 BKN094 BKN180 BKN260 22/15 A3000 RMK CF1AC4AS1CS1 SLP161

2010/08/09 17:00
CYQY 091700Z 23011KT 15SM FEW120 BKN210 OVC240 24/14 A3004 RMK AC2CS4CI1 SLP174

2010/08/09 17:00
CYTR 091700Z 21010KT 6SM HZ BKN070 26/17 A2991 RMK AC7 SLP130

2010/08/09 17:00
CYUL 091700Z 26006KT 15SM SCT015 BKN030 BKN210 24/19 A2992 RMK CF4SC1CI1 SLP131

2010/08/09 17:00
CYVR 091700Z 12004KT 15SM BKN016 BKN033 OVC064 16/11 A2995 RMK SC6SC1SC1 SLP142

2010/08/09 17:00
CYWG 091700Z 16006KT 15SM SKC 30/20 A2983 RMK SLP099

2010/08/09 17:00
CYXX 091700Z 23005KT 10SM SCT020 OVC040 16/10 A2995 RMK SC3SC5 CVCTV CLD ASOCTD SLP142

2010/08/09 17:00
CYYC 091700Z 18002KT 40SM FEW044 FEW110 BKN260 20/09 A2987 RMK CU1AC1CI1 ACSL SW SLP114

2010/08/09 17:00
CYYJ 091700Z 11002KT 20SM FEW016 BKN059 OVC220 16/13 A2996 RMK SC1SC6CS2 SLP145

2010/08/09 17:00
CYYQ 091700Z 05009KT 15SM FEW010 14/11 A2999 RMK SC2 SLP158

2010/08/09 17:00
CYYR 091700Z 26016KT 15SM SCT034 BKN051 BKN090 20/13 A2961 RMK CU3SC3AC1 SLP027

2010/08/09 17:00
CYYT 091700Z 25014G20KT 15SM SCT038 SCT160 BKN230 22/15 A3012 RMK SC3AC1CI2 SLP201

2010/08/09 17:00
CYYZ 091700Z 22008KT 10SM BKN075 OVC095 28/22 A2992 RMK AC6AC1 SLP131

2010/08/09 17:00
CYZF 091700Z 15008KT 15SM FEW016 BKN029 BKN210 19/14 A2969 RMK CF1SC5CI0 CIG RAG SLP059

2010/08/09 17:00
CYZV 091700Z 22013KT 30SM FEW060 FEW160 20/16 A2973 RMK CU2AC1 SLP069

2010/08/09 17:00
CYZX 091700Z 21009G16KT 15SM FEW040 OVC092 25/16 A2997 RMK CU1AC8 WNDY HILL 19010KT SLP148

2010/08/09 16:50
LIBF 091650Z 34010KT CAVOK 31/09 Q1013 RMK VIS MIN 9999

2010/08/09 16:50
LIEA 091650Z VRB02KT CAVOK 25/15 Q1016 RMK VIS MIN 9999

2010/08/09 16:55
LIED 091655Z 29004KT CAVOK 30/04 Q1015 RMK BKN BKN070 SCT080 VIS MIN 9999 BLU

2010/08/09 16:50
LIEO 091650Z 08006KT 050V130 9999 FEW050 27/20 Q1015 RMK VIS MIN 9999

2010/08/09 16:50
LIMA 091650Z 21003KT 9999 SCT035 29/15 Q1014 RMK VIS MIN 9999

2010/08/09 16:50
LIQN 091650Z 33005KT 9999 FEW040 30/14 Q1016 RMK VIS MIN 9999

2010/08/09 16:55
LIQW 091655Z 12001KT 9999 FEW030 25/18 Q1016 RMK FEW VIS MIN 9999 BLU

2010/08/09 16:55
LIRE 091655Z 28012KT CAVOK 26/23 Q1015 RMK SKC VIS MIN 9999 WIND THR31 28011KT BLU

2010/08/09 16:55
LIRG 091655Z 24010KT CAVOK 30/14 Q1015 RMK FEW FEW230 MON NE LIB NC VIS MIN 9999 BLU

2010/08/09 16:55
LIRH 091655Z 34005KT CAVOK 31/15 Q1015 RMK SKC MON LIB NC VIS MIN 9999 WIND THR16 33010KT BLU

2010/08/09 16:50
LIRI 091650Z 00000KT CAVOK 28/18 Q1014 RMK VIS MIN 9999

2010/08/09 16:55
LIRL 091655Z 26008KT CAVOK 29/17 Q1015 RMK FEW FEW200 MON LIB NC VIS MIN 9999 BLU

2010/08/09 16:55
LIRM 091655Z 27010KT 9999 FEW040 30/29 Q1016 RMK FEW VIS MIN 9999 WIND THR06 24010KT BLU

2010/08/09 16:55
LIRS 091655Z 24008KT 9999 FEW025 29/11 Q1015 RMK SCT SCT200 VIS MIN 9999 WIND THR21 /////KT BLU

2010/08/09 16:50
LIRU 091650Z 27007KT CAVOK 31/18 Q1014 RMK VIS MIN 9999

2010/08/09 16:55
LIRV 091655Z 24012KT CAVOK 27/12 Q1016 RMK SCT SCT200 MON E SE LIB NC VIS MIN 9999 BLU

2010/08/09 16:55
LIRX 091655Z 36003KT CAVOK 24/18 Q1016 RMK SCT FEW060 SCT200 VIS MIN 9999N VIS MAR 18 KM

2010/08/09 16:50
LIRZ 091650Z 29007KT 9999 FEW035 30/14 Q1014 RMK VIS MIN 9999

2010/08/09 17:00
LPFR 091700Z VRB03KT CAVOK 32/18 Q1013

2010/08/09 17:00
LPMA 091700Z 21008KT 9999 FEW013 24/19 Q1014 RS17006KT 0520006KT 2322007KT

2010/08/09 17:00
LPPR 091700Z 32006KT 290V350 CAVOK 30/15 Q1015

2010/08/09 17:00
LPPS 091700Z 36011KT 9999 SCT015 SCT030 24/19 Q1014

2010/08/09 17:00
LPPT 091700Z 28010KT 240V310 CAVOK 37/12 Q1013 NOSIG

2010/08/09 17:00
CYAZ 091700Z 19003KT 1 1/2SM -DZ BR SCT002 OVC004 13/12 A2997 RMK SF3ST5 SLP150

2010/08/09 17:00
CYBL 091700Z 34006KT 30SM -SHRA FEW015 SCT080 BKN140 13/11 A2997 RMK SF1AC2AC2 SLP147

2010/08/09 17:00
CYBV 091700Z 21006KT 15SM FEW045 BKN280 BKN300 26/19 A2983 RMK SC1CC4CI1 SLP103

2010/08/09 17:00
CYCP 091700Z 00000KT 1SM -RA BR BKN012 OVC050 13/12 A2991 RMK FG4ST2SC2 VIS VLY E 4 SLP132

2010/08/09 17:00
CYCQ 091700Z 20007KT 35SM FEW040 FEW100 FEW200 18/06 A2977 RMK CU1AC1CI0 SLP089

2010/08/09 17:00
CYDB 091700Z 13010KT 25SM FEW055 SCT080 BKN110 11/03 A2976 RMK SC2AC2AC4 SLP095

2010/08/09 17:00
CYDC 091700Z 00000KT 15SM OVC055 14/09 A2990 RMK SC7 SLP120

2010/08/09 17:00
CYDQ 091700Z AUTO 26013KT 9SM CLR 19/05 A2977 RMK SLP086 DENSITY ALT 3200FT MAX WND 24018KT AT 1638Z

2010/08/09 17:00
CYEV 091700Z 20006KT 15SM BKN010 10/08 A2979 RMK SC5 SLP093

2010/08/09 17:00
CYFO 091700Z 10004KT 15SM BKN009 OVC014 19/18 A2978 RMK SC6SC2 SLP087

2010/08/09 17:00
CYHE 091700Z AUTO 28008KT 9SM BKN024 BKN047 OVC052 OVC059 17/14 A2991 RMK SLP130

2010/08/09 17:00
CYIV 091700Z 15006KT 15SM FEW050 SCT100 BKN250 21/13 A2990 RMK SC0AC0CI0 SLP129

2010/08/09 17:00
CYKY 091700Z 00000KT 12SM FEW250 21/15 A2987 RMK CI0 SLP118

2010/08/09 17:00
CYPR 091700Z AUTO /////KT 6SM SCT008 OVC024 13/12 A3001 RMK SLP164 WND MISG

2010/08/09 17:00
CYQD 091700Z 15005KT 15SM FEW007 BKN040 BKN070 21/19 A2979 RMK SF1SC5AC2 SLP090

2010/08/09 17:00
CYQZ 091700Z AUTO 16006KT 9SM OVC071 14/11 A2993 RMK SLP145 DENSITY ALT 2000FT

2010/08/09 17:00
CYRV 091700Z AUTO 23002KT 7SM -RA BKN016 BKN054 OVC079 16/15 A2985 RMK PCPN 1.0MM PAST HR SLP111

2010/08/09 17:00
CYUA 091700Z AUTO 10005KT 9SM OVC007 OVC052 09/ A2976 RMK SLP083

2010/08/09 17:00
CYXC 091700Z 12005KT 25SM FEW050 SCT074 BKN100 BKN260 17/13 A2990 RMK CU2AC2AC1CI2 SLP121

2010/08/09 17:00
CYXE 091700Z 27007KT 15SM SKC 22/17 A2984 RMK SLP108

2010/08/09 17:00
CYXQ 091700Z 00000KT 30SM FEW045 SCT075 BKN100 BKN230 10/08 A2971 RMK SC2AC2AC2CI1 SLP075

2010/08/09 17:00
CYXS 091700Z AUTO 21006KT 180V270 9SM FEW023 BKN066 14/09 A2990 RMK SLP137 DENSITY ALT 2600FT

2010/08/09 17:00
CYZP 091700Z AUTO 26008KT 9SM -RA BKN036 OVC076 15/13 A3002 RMK SLP167

2010/08/09 17:00
CYZT 091700Z 36008KT 20SM FEW036 SCT140 16/10 A3002 RMK SC2AC2 SLP167

2010/08/09 17:00
CYBC 091700Z AUTO 23017G22KT 9SM CLR 21/16 A2976 RMK SLP079

2010/08/09 17:00
CYBN 091700Z AUTO 24008KT 9SM FEW064 28/20 A2992 RMK SLP130

2010/08/09 17:00
CYEL 091700Z 09004KT 10SM FEW015 SCT150 26/16 A2994 RMK CU1AC2 WNDS ESTD/ SLP136

2010/08/09 17:00
CYFR 091700Z 21003KT 15SM FEW020 FEW090 BKN270 18/14 A2970 RMK CF1AC1CI3 180V240 SLP063

2010/08/09 17:00
CYGK 091700Z 17010KT 15SM FEW070 BKN200 24/22 A2993 RMK AC1CC4 SLP136

2010/08/09 17:00
CYGQ 091700Z 24004KT 190V340 15SM FEW110 25/16 A2987 RMK AC1 SLP116

2010/08/09 17:00
CYHM 091700Z 21008KT 15SM FEW024 BKN070 OVC150 27/22 A2995 RMK SC2AC3AS3 SLP141

2010/08/09 17:00
CYKF 091700Z AUTO 20008KT 7SM CLR 25/20 A2996 RMK SLP140 DENSITY ALT 2400FT

2010/08/09 17:00
CYKL 091700Z AUTO 29010KT 250V310 9SM BKN033 BKN057 BKN065 OVC083 14/07 A2958 RMK SLP030

2010/08/09 17:00
CYKZ 091700Z 24005KT 12SM FEW030 BKN090 OVC120 28/20 A2992 RMK CU2AC3AS2 SLP130

2010/08/09 17:00
CYLD 091700Z 00000KT 15SM FEW035 26/14 A2992 RMK CU1 SLP132

2010/08/09 17:00
CYOO 091700Z AUTO 19006KT 150V220 5SM HZ CLR 26/21 A2992 RMK SLP131 DENSITY ALT 1800FT

2010/08/09 17:00
CYPL 091700Z 36002KT 15SM FEW040 FEW250 25/14 A2988 RMK CU1CI0 SLP121

2010/08/09 17:00
CYQA 091700Z AUTO 25003KT 8SM OVC018 25/21 A2993 RMK SLP134 DENSITY ALT 2200FT

2010/08/09 17:00
CYQK 091700Z 00000KT 15SM FEW018 SCT120 25/20 A2990 RMK CF1AC2 SLP124

2010/08/09 17:00
CYRB 091700Z 09005KT 8SM -DZ SCT008 BKN014 OVC080 07/07 A2985 RMK SF3SC3AS2 SLP115

2010/08/09 17:00
CYSB 091700Z 20004KT 15SM FEW036 BKN120 25/17 A2995 RMK CU1AC2 SLP140

2010/08/09 17:00
CYSC 091700Z AUTO 23005KT 9SM FEW020 BKN028 OVC037 23/19 A2993 RMK DENSITY ALT 1800FT

2010/08/09 17:00
CYSN 091700Z 20008KT 10SM BKN084 OVC100 27/21 A2993 RMK AC6AC2 SLP134

2010/08/09 17:00
CYSP 091700Z 23005KT 15SM FEW028 SCT250 23/18 A2990 RMK CF2CI0 SC ASOCT SLP125

2010/08/09 17:00
CYVO 091700Z 32003KT 15SM FEW053 FEW160 SCT270 25/13 A2991 RMK CU1AC1CI1 SLP131

2010/08/09 17:00
CYVQ 091700Z 30002KT 30SM FEW040 BKN090 BKN250 17/12 A2975 RMK SC2AC3CI2 SLP078

2010/08/09 17:00
CYXL 091700Z 20002KT 15SM FEW040 FEW230 25/16 A2989 RMK CF1CI0 SLP124

2010/08/09 17:00
CYXU 091700Z 25006KT 7SM -SHRA SCT022 BKN045 OVC070 26/22 A2997 RMK SF3SC4AC1 TCU ASCTD SLP145

2010/08/09 17:00
CYXZ 091700Z 24004KT 15SM BKN028 23/16 A2990 RMK SC6 SLP129

2010/08/09 17:00
CYYB 091700Z 00000KT 12SM FEW025 BKN200 25/15 A2995 RMK CU2CI3 SLP141

2010/08/09 17:00
CYYH 091700Z 18006KT 15SM FEW090 SCT250 15/09 A2991 RMK AC1CI0 SLP129

2010/08/09 17:00
CYYU 091700Z 30004KT 15SM BKN140 24/16 A2989 RMK AC6 SLP124

2010/08/09 17:00
OYSN 091700Z 21006KT 9999 BKN030 22/13 Q1021

2010/08/09 17:00
CYVV 091700Z CCA 24005KT 4SM SHRA BR OVC015 23/22 A2994 RMK SC8 RETS CB EMBD SLP137

2010/08/09 17:00
TDCF 091700Z 00000KT 9999 SCT020 SCT240 31/24 Q1014

2010/08/09 17:00
CYTH 091700Z CCB 10011KT 15SM BKN062 BKN230 20/10 A2990 RMK SC3CI1 SLP132

2010/08/09 17:00
CYWH 091700Z 23004KT 15SM FEW005 BKN025 BKN060 14/11 A2996 RMK SF1SC6SC2 SLP146

2010/08/09 17:00
CBBC 091700Z AUTO 32002KT 9SM OVC009 OVC020 OVC050 OVC071 A3002

2010/08/09 17:00
CYBD 091700Z 29004KT 15SM FEW020 BKN065TCU BKN100 16/12 A2999 RMK SC1TCU5AC2 TR SC SLP155

2010/08/09 17:00
CYCD 091700Z 00000KT 30SM FEW012 BKN040 BKN160 OVC240 17/12 A2996 RMK SF1SC5AS2CI2 SLP144

2010/08/09 17:00
CYDA 091700Z 00000KT 20SM FEW045 BKN065 BKN240 13/08 A2971 RMK CU1SC5CI1 CU TR SLP070

2010/08/09 17:00
CYGE 091700Z 15005KT 10SM SHRA BKN030 OVC070 15/14 A2988 RMK SC6AC2 SLP119

2010/08/09 17:00
CYKA 091700Z 34003KT 40SM VCSH FEW051 BKN084 OVC220 18/13 A2986 RMK SC2AC5CI1 SLP109

2010/08/09 17:00
CYLW 091700Z AUTO /////KT 21/09 A2984 RMK SLP102 DENSITY ALT 2500FT WND MISG CLD MISG WX MISG VIS MISG ICG MISG

2010/08/09 17:00
CYMA 091700Z 10002KT 20SM FEW045 FEW080 SCT090 BKN250 13/09 A2976 RMK SC1AC1AS2CI2 SLP090

2010/08/09 17:00
CYOC 091700Z 05007KT 30SM FEW006 FEW032 SCT210 12/08 A2971 RMK SF1SC1CI0 SLP071

2010/08/09 17:00
CYPW 091700Z 29008KT 25SM -SHRA FEW008 FEW035 BKN060 OVC080 14/12 A2997 RMK SF1SC1SC5AC2 SLP148

2010/08/09 17:00
CYQH 091700Z 28009KT 30SM SCT035 BKN050 16/09 A2982 RMK SC2SC2 SLP108

2010/08/09 17:00
CYQU 091700Z 27010G15KT 25SM FEW040 FEW090 BKN250 18/06 A2980 RMK CU1AC2CI2 SLP097

2010/08/09 17:00
CYWL 091700Z 00000KT 12SM -RA SCT006 OVC050 10/09 A2996 RMK SF3SC5 SLP148

2010/08/09 17:00
CYXJ 091700Z 26010KT 15SM FEW100 FEW220 17/06 A2977 RMK AC1CI1 SLP087

2010/08/09 17:00
CYXT 091700Z 14002KT 20SM FEW015 SCT035 BKN060 BKN085 14/10 A3001 RMK CF2CU2SC2AC1 SLP167

2010/08/09 17:00
CYXY 091700Z 14014G22KT 40SM FEW028 SCT170 BKN250 13/06 A2983 RMK CU1AC2CI3 SLP116

2010/08/09 17:00
CYYD 091700Z 29006KT 25SM FEW030 BKN060 14/07 A2995 RMK CU2SC3 SLP144

2010/08/09 17:00
CYYE 091700Z 30008KT 7SM -RA OVC012 14/09 A2970 RMK SC8 BR CIG RAG SLP064

2010/08/09 17:00
CYYF 091700Z 36004KT 15SM SCT075 BKN110 BKN240 22/09 A2984 RMK CU3AC2CI0 SLP101

2010/08/09 17:00
CYZW 091700Z 17005KT 30SM FEW040 FEW170 FEW190 BKN250 13/06 A2989 RMK CF1AS2AC1CI1 SLP134

2010/08/09 17:00
CYZY 091700Z AUTO 14007KT 9SM BKN061 16/08 A2984 RMK SLP114 DENSITY ALT 2900FT

2010/08/09 17:00
CZFA 091700Z 00000KT 30SM FEW050 FEW090 BKN240 13/07 A2980 RMK CU1AC1CI4 CU TR SLP107

2010/08/09 17:00
CZMT 091700Z 32004KT 15SM OVC007 14/13 A3002 RMK SC8 SLP167

2010/08/09 17:00
OOMS 091700Z VRB01KT 8000 NSC 31/27 Q0998 NOSIG

2010/08/09 16:50
OOSA 091650Z 15005KT 6000 SCT012 BKN025 26/23 Q1003 NOSIG RMK05 RH84

2010/08/09 17:00
CWEU 091700Z 27012KT 40SM FEW020 FEW035 FEW080 02/00 A3002 RMK SF1SC1AC1 SLP169

2010/08/09 17:00
CWFD 091700Z AUTO 36022G27KT 0SM 06/ RMK ALTM MISG

2010/08/09 17:00
CWKP 091700Z AUTO 09008KT 07/ A2977 RMK SLP106

2010/08/09 17:00
CWRH 091700Z AUTO ///// 04/ A2974 RMK SLP099

2010/08/09 17:00
CWSA 091700Z AUTO 15011KT 9SM FEW048 FEW070 FEW081 SCT098 20/17 A3011 RMK SLP197

2010/08/09 17:00
CWTU 091700Z AUTO 16026KT 10/ A2957 RMK SLP027

2010/08/09 17:00
CWXR 091700Z AUTO 06004KT 08/ A2981 RMK SLP104

2010/08/09 17:00
CWYM 091700Z AUTO 04017G22KT 06/ RMK ALTM MISG SLP111

2010/08/09 17:00
CYPD 091700Z AUTO 18006KT 140V220 9SM CLR 23/13 A3005 RMK SLP177 DENSITY ALT 1200FT MAX WND 18019KT AT 1637Z

2010/08/09 17:00
CZFM 091700Z 15004KT 10SM FEW015 BKN020 12/09 A2978 RMK SC1SC5 SLP088

2010/08/09 17:00
CZFN 091700Z 22006KT 30SM FEW013 SCT040 BKN100 18/13 A2974 RMK SC1SC2AC3 SLP076

2010/08/09 17:00
CZPC 091700Z AUTO 23009KT 9SM CLR 21/10 A2989 RMK SLP108

2010/08/09 17:00
CZUM 091700Z AUTO 25007KT 9SM -RA BKN023 OVC067 OVC089 15/13 A2962 RMK SLP042

2010/08/09 17:00
CWAE 091700Z 18009KT 15SM -RA FEW018 BKN040 OVC074 14/12 A2993 RMK SC2SC5AC1 WND ESTD SLP130

2010/08/09 17:00
CWCA 091700Z 22003KT 15SM OVC016 15/13 A2965 RMK SC8 SLP040

2010/08/09 17:00
CWCL 091700Z AUTO 01003KT 4SM -RA FEW010 OVC017 10/09 A2996 RMK SLP151

2010/08/09 17:00
CWIL 091700Z AUTO 17013KT 17/ A2984 RMK SLP111

2010/08/09 17:00
CWKM 091700Z AUTO 09012KT 09/ A2976 RMK SLP083

2010/08/09 17:00
CWKW 091700Z AUTO 32006KT 09/ A2965 RMK SLP059

2010/08/09 17:00
CWLI 091700Z AUTO 24008KT 08/ A2981 RMK SLP104

2010/08/09 17:00
CWLX 091700Z AUTO 06005KT 17/ A2985 RMK SLP120

2010/08/09 17:00
CWLY 091700Z AUTO 05003KT 9SM FEW032 FEW042 FEW048 FEW082 17/14 A2986 RMK SLP111

2010/08/09 17:00
CWOB 091700Z AUTO ///// 0SM CLR 04/ A2970 RMK SLP092

2010/08/09 17:00
CWPX 091700Z AUTO ///// 14/ A2982 RMK SLP112

2010/08/09 17:00
CWRX 091700Z AUTO 35005KT 14/ A2987

2010/08/09 17:00
CWSW 091700Z 00000KT 20SM FEW050 SCT250 17/11 A2992 RMK CU2CI1 SLP130

2010/08/09 17:00
CWUP 091700Z AUTO 36006KT 03/ A2990 RMK SLP147

2010/08/09 17:00
CWUW 091700Z AUTO ///// 9SM CLR 12/ A2987 RMK SLP140

2010/08/09 17:00
CWVH 091700Z AUTO 15006KT 08/ A2978 RMK SLP100

2010/08/09 17:00
CWYK 091700Z AUTO ///// 10/ A2954 RMK SLP024

2010/08/09 17:00
CWZZ 091700Z AUTO ///// 0SM CLR 07/ A2960 RMK SLP042

2010/08/09 17:00
CZBF 091700Z 22008KT 170V250 12SM BKN030 BKN120 BKN210 23/17 A2984 RMK SC5AC2CI1 SLP105

2010/08/09 17:00
CZCP 091700Z AUTO 06012KT 1SM CLR 06/ A2982 RMK SLP106

2010/08/09 17:00
CZST 091700Z 00000KT 15SM FEW012 FEW018 BKN045 OVC065 14/12 A3000 RMK SC1SC2SC3SC2 SLP161

2010/08/09 16:50
LIMG 091650Z 04005KT 9999 BKN030 25/18 Q1015 RMK VIS MIN 9999

2010/08/09 16:55
LIMN 091655Z 27005KT 230V290 CAVOK 27/15 Q1014 RMK FEW FEW200 VIS MIN 9999 BLU

2010/08/09 16:50
LIMP 091650Z 36005KT 330V030 CAVOK 28/17 Q1014 RMK VIS MIN 9999

2010/08/09 16:55
LIMS 091655Z 09004KT 9999 SCT050 28/19 Q1014 RMK SCT VIS MIN 9999 WIND THR30 09004KT BLU

2010/08/09 16:50
LIMZ 091650Z 10003KT 9999 SCT060 27/14 Q1016 RMK VIS MIN 9999

2010/08/09 16:55
LIPA 091655Z 22004KT 9999 FEW040 28/19 Q1014 RMK FEW VIS MIN 9999 A2995 BLU

2010/08/09 16:50
LIPB 091650Z 15009KT CAVOK 29/16 Q1013 RMK MON LIB VIS MIN 9999

2010/08/09 16:55
LIPC 091655Z 14007KT CAVOK 28/17 Q1014 RMK SKC VIS MIN 9999 WIND THR12 12007KT BLU

2010/08/09 16:55
LIPF 091655Z 00000KT 9999 FEW040 29/21 Q1014 RMK SCT SCT240 VIS MIN 9999

2010/08/09 16:45
LIPH 091645Z 19005KT CAVOK 28/20 Q1014 RMK SKC VIS MIN 9999 WIND THR07 /////KT BLU

2010/08/09 16:55
LIPL 091655Z 21002KT 9999 FEW040 30/20 Q1014 RMK FEW VIS MIN 9999 BLK BLU

2010/08/09 16:50
LIPO 091650Z 24004KT 9999 FEW060 28/17 Q1013 RMK VIS MIN 9999

2010/08/09 16:50
LIPQ 091650Z 20005KT CAVOK 27/19 Q1014

2010/08/09 16:45
LIPR 091645Z 09007KT CAVOK 27/21 Q1014 RMK SKC VIS MIN 9999 WIND THR31 10006KT BLU

2010/08/09 16:55
LIPS 091655Z 19005KT CAVOK 28/18 Q1014 RMK SKC VIS MIN 9999 BLU

2010/08/09 16:45
LIPX 091645Z 17002KT 9999 FEW040 30/17 Q1014 RMK FEW VIS MIN 9999 BLU

2010/08/09 16:50
LIPY 091650Z 03006KT CAVOK 26/19 Q1014 RMK VIS MIN 9999

2010/08/09 16:55
LIVC 091655Z 03008KT 0100 FG VV001 13/12 Q1025 RMK MON INVIS VAL INVIS VIS MIN 0100

2010/08/09 17:00
CYOW 091700Z CCA 29003KT 15SM FEW023 FEW050 BKN090 OVC240 25/20 A2993 RMK CU1CU2AC3CI2 TCU ASOCTD SLP134

2010/08/09 17:00
CYAM 091700Z 17004KT 15SM BKN024 BKN036 26/20 A2989 RMK CU5SC2 SLP122

2010/08/09 17:00
CYFT 091700Z 26006KT 15SM -RA BKN030 OVC075 17/12 A2957 RMK SC6AC1 SLP016

2010/08/09 17:00
CYGP 091700Z 23010G17KT 15SM BKN035 25/16 A2979 RMK CU6 SLP089

2010/08/09 17:00
CYGR 091700Z 20012G18KT 20SM FEW080 BKN120 OVC230 20/16 A2995 RMK AC2AC4CI1 SLP141

2010/08/09 17:00
CYHD 091700Z AUTO 23005KT 9SM FEW021 24/20 A2990 RMK SLP127

2010/08/09 17:00
CYHU 091700Z AUTO 24010KT 9SM BKN019 BKN024 25/21 A2991 RMK SLP129 DENSITY ALT 1200FT RVR MISG

2010/08/09 17:00
CYKO 091700Z 36016KT 15SM FEW019 FEW210 13/08 A2985 RMK CU1CI2 SLP110

2010/08/09 17:00
CYMO 091700Z AUTO 31009KT 9SM FEW065 25/13 A2982 RMK SLP098

2010/08/09 17:00
CYNA 091700Z AUTO 25008KT 9SM FEW034 FEW047 FEW068 FEW081 20/14 A2978 RMK SLP085

2010/08/09 17:00
CYND 091700Z 20006KT 15SM FEW025 BKN250 26/18 A2992 RMK CU2CI2 SLP131

2010/08/09 17:00
CYPQ 091700Z AUTO ///// 7SM FEW034 SCT043 BKN081 BKN099 25/22 A2992 RMK SLP132

2010/08/09 17:00
CYQT 091700Z 23004KT 20SM FEW030 27/20 A2986 RMK CU1 SLP113

2010/08/09 17:00
CYRJ 091700Z 10005KT 20SM BKN030 23/16 A2983 RMK CU5 TCU ASOCTD SLP104

2010/08/09 17:00
CYRL 091700Z 18005KT 15SM FEW025 SCT240 24/17 A2989 RMK CU1CI2 SLP124

2010/08/09 17:00
CYTS 091700Z 27008KT 15SM FEW055 SCT160 28/12 A2988 RMK CU1AC2 SLP121

2010/08/09 17:00
CYTZ 091700Z AUTO 21009KT 9SM FEW091 23/19 A2991 RMK SLP129 DENSITY ALT 1200FT RVR MISG

2010/08/09 17:00
CYVP 091700Z 01011G16KT 15SM FEW020 BKN090 13/08 A2962 RMK SC1AC6 SLP031

2010/08/09 17:00
CYVV 091700Z 24005KT 4SM SHRA BR OVC015 23/22 A2994 RMK SC8 CB EMBD SLP137

2010/08/09 17:00
CYWA 091700Z AUTO 11004KT 9SM CLR 24/19 A2992 RMK SLP133

2010/08/09 17:00
CYXR 091700Z AUTO 08003KT 030V110 9SM FEW013 27/14 A2989 RMK SLP113

2010/08/09 17:00
CYYY 091700Z 24014KT 15SM FEW040TCU BKN280 25/16 A2979 RMK TCU2CI1 SLP088

2010/08/09 17:00
CYZE 091700Z AUTO 22007KT 9SM CLR 25/20 A2992 RMK DENSITY ALT 1900FT

2010/08/09 17:00
CYZR 091700Z AUTO 25006KT 220V290 9SM BKN061 BKN076 28/21 A2993 RMK SLP133 DENSITY ALT 2200FT

2010/08/09 16:55
LIMU 091655Z 24010KT 9999 FEW013 25/23 Q1017 RMK BKN QUK 2 QUL 1 S VIS MAR 30 KM VIS MIN 9999

2010/08/09 16:55
LIMY 091655Z /////KT 9999 SCT022 24/16 Q1016 RMK BKN VAL FOSCHIA VIS MIN 9999W

2010/08/09 16:55
LIVD 091655Z 11003KT 9999 FEW030 22/09 Q1018 RMK FEW VIS MIN 9999

2010/08/09 16:55
LIVE 091655Z 00000KT CAVOK 19/07 Q1018 RMK SKC VIS MIN 9999

2010/08/09 16:55
LIVO 091655Z 10003KT 9999 SCT030 21/15 Q1017 RMK SCT VIS MIN 9999

2010/08/09 16:55
LIVR 091655Z 13012KT 9999 BKN010 14/14 Q1023 RMK BKN MON CLD SCT VIS MIN 9999

2010/08/09 16:55
LIVT 091655Z 23002KT CAVOK 26/20 Q1014 RMK SKC QUK 1 QUL 0 VIS MAR 20 KM VIS MIN 9999

2010/08/09 17:00
CWHN 091700Z AUTO 21002KT 9SM FEW054 FEW069 FEW093 23/11 A2980 RMK SLP095

2010/08/09 17:00
CYBK 091700Z 00000KT 20SM FEW030 16/09 A3000 RMK SC1 SLP160

2010/08/09 17:00
CYBR 091700Z 00000KT 15SM BKN160 BKN250 26/19 A2983 RMK AC6CI0 SLP101

2010/08/09 17:00
CYBU 091700Z AUTO 26004KT 230V290 9SM FEW021 22/17 A2979 RMK SLP090 DENSITY ALT 2400FT

2010/08/09 17:00
CYDN 091700Z AUTO 13006KT 100V170 9SM CLR 29/17 A2978 RMK SLP083 DENSITY ALT 2900FT

2010/08/09 17:00
CYEN 091700Z 34010KT 15SM FEW140 BKN260 28/16 A2985 RMK AC1CI0 SLP104

2010/08/09 17:00
CYET 091700Z AUTO 11005KT 030V140 9SM FEW045 SCT098 17/11 A2982 RMK SLP098

2010/08/09 17:00
CYGX 091700Z 00000KT 15SM SCT080 SCT200 18/08 A2995 RMK AS2CI0 SLP147

2010/08/09 17:00
CYKJ 091700Z AUTO 10007KT 6SM OVC007 16/15 A2976 RMK SLP090 DENSITY ALT 2300FT

2010/08/09 17:00
CYLL 091700Z 17005KT 15SM FEW300 22/17 A2984 RMK CI1 SLP108

2010/08/09 17:00
CYNE 091700Z AUTO 10006KT 9SM FEW037 FEW049 FEW090 24/17 A2983 RMK SLP105

2010/08/09 17:00
CYOJ 091700Z 13007KT 15SM FEW028 FEW100 FEW200 18/11 A2970 RMK CF1AC1CI0 SLP065

2010/08/09 17:00
CYPA 091700Z 24007KT 15SM FEW028 24/16 A2980 RMK CU1 TR CU SLP094

2010/08/09 17:00
CYPG 091700Z 13007KT 100V180 12SM FEW045 FEW160 29/18 A2982 RMK CF1AC1 TR CF SLP098

2010/08/09 17:00
CYPY 091700Z AUTO 00000KT 9SM CLR 20/13 A2973 RMK SLP072

2010/08/09 17:00
CYQF 091700Z 00000KT 15SM FEW025 FEW260 19/13 A2984 RMK CU1CI1 SLP110

2010/08/09 17:00
CYQL 091700Z 25007KT 40SM FEW050 FEW250 22/12 A2985 RMK CU1CI1 SLP104

2010/08/09 17:00
CYQR 091700Z 32005KT 15SM FEW024 22/17 A2988 RMK CF1 SLP119

2010/08/09 17:00
CYQW 091700Z AUTO 22005KT 150V260 9SM CLR 22/16 A2986 RMK SLP113 DENSITY ALT 3000FT

2010/08/09 17:00
CYVC 091700Z 25007KT 15SM FEW020 SCT250 22/16 A2976 RMK CU2CI2 SLP083

2010/08/09 17:00
CYXD 091700Z AUTO 13002KT 9SM FEW079 22/10 A2981 RMK SLP091

2010/08/09 17:00
CYYL 091700Z AUTO 11007KT 9SM OVC043 16/11 A2985 RMK SLP119 DENSITY ALT 1600FT

2010/08/09 17:00
CYYN 091700Z AUTO 30003KT 9SM CLR 22/13 A2990 RMK SLP118

2010/08/09 17:00
CYZH 091700Z AUTO 32005KT 280V010 9SM CLR 18/09 A2981 RMK SLP099

2010/08/09 17:00
CYIK 091700Z CCA 34005KT 15SM FEW018 FEW060 BKN130 BKN200 BKN300 12/06 A2987 RMK CU1SC1AC5CI1CC1 SLP116

2010/08/09 17:00
OIAG 091700Z 00000KT CAVOK 38/14 Q0997 A2946

2010/08/09 17:00
OIAM 091700Z 18006KT CAVOK 36/25 Q0995 A2941

2010/08/09 17:00
OICI 091700Z 28010KT CAVOK 32/M05 Q1011 A2986 862.2

2010/08/09 17:00
OIKQ 091700Z 00000KT 7000 NSC 32/27 Q0996 A2944

2010/08/09 17:00
OINN 091700Z VRB02KT CAVOK 29/22 Q1007 A2976

2010/08/09 17:00
OINR 091700Z VRB02KT 9999 FEW025 29/23 Q1007 A2976

2010/08/09 17:00
OISL 091700Z 00000KT CAVOK 35/M00 Q1002 A2961

2010/08/09 17:00
OISY 091700Z 07012KT CAVOK 30/M01 Q1017 A3005

2010/08/09 16:50
EGDX 091650Z AUTO 26013KT 9999NDV // FEW004/// BKN060/// 18/17 Q1013

2010/08/09 16:50
EGEC 091650Z AUTO 26006KT 9999NDV // FEW030/// 14/12 Q1008

2010/08/09 16:50
EGOM 091650Z AUTO 25014KT 9999NDV // BKN007/// BKN017/// 14/12 Q1008

2010/08/09 16:50
EGOP 091650Z AUTO 25013KT 2600NDV BR BKN004/// BKN019/// 16/16 Q1012

2010/08/09 16:50
EGOS 091650Z AUTO 27014KT 9999NDV NCD 20/13 Q1010

2010/08/09 16:50
EGOV 091650Z 22010KT 9999 FEW006 SCT028 16/15 Q1010 BLU NOSIG

2010/08/09 16:50
EGPU 091650Z AUTO 23010KT 9999NDV // FEW017/// 14/12 Q1005

2010/08/09 16:50
EGXG 091650Z AUTO 24012KT 9999NDV -SHRA FEW030/// BKN034/// 20/14 Q1009

2010/08/09 16:50
EGXT 091650Z AUTO 22016KT 9999NDV FEW040/// BKN050/// 22/12 Q1011 RERA

2010/08/09 16:50
EGXU 091650Z AUTO 26005KT 9999NDV // FEW018/// BKN026/// 17/16 Q1009

2010/08/09 16:50
EGXX 091650Z AUTO 22018KT 9999NDV // BKN050/// 23/12 Q1010

2010/08/09 16:50
EGXZ 091650Z AUTO 21008KT 9999NDV SCT041/// BKN050/// 17/16 Q1009 RERA

2010/08/09 16:50
EGYD 091650Z AUTO 23018KT 9999NDV // SCT036/// BKN070/// 22/13 Q1011

2010/08/09 17:00
EICK 091700Z 30011KT 9999 SCT038 SCT250 18/08 Q1011 NOSIG

2010/08/09 17:00
EIDW 091700Z 26012KT 9999 FEW028 18/09 Q1009 NOSIG

2010/08/09 17:00
EIKN 091700Z 26017KT 9999 FEW018CB SCT022 BKN060 15/09 Q1009 NOSIG

2010/08/09 17:00
EINN 091700Z 26012KT 9999 SCT028 17/10 Q1011 NOSIG

2010/08/09 16:55
KQRY 091655Z AUTO 16003KT 9999 -RA BKN080 BKN095 17/14 A3013 RMK AO2 SLP109 P0006 T01680142 $

2010/08/09 17:01
KHST 091701Z VRB04KT 1 1/2SM R05/5000VP6000FT +RA BR SCT002 SCT009 OVC013 24/24 A2997 RMK AO2A SLP150

2010/08/09 16:59
KNQX 091659Z 15004KT 8SM -RA SCT020CB SCT030 BKN050 OVC200 28/24 A2994 RMK AO2 CB OHD MOV S T1 SET P0001 $

2010/08/09 17:00
TIST 091700Z 11017G25KT 2 1/2SM +RA BR SCT016 BKN029 BKN040 27/25 A2999 RMK AO2 P0008

2010/08/09 17:00
FMEE 091700Z 13014KT 9999 FEW026 21/16 Q1023 NOSIG

2010/08/09 17:00
SEQU 091700Z 15013KT 9999 SCT040 19/02 Q1028 RMK A3038 NOSIG

2010/08/09 17:00
SEGU 091700Z 22007KT 190V270 9999 BKN023 BKN100 26/19 Q1013 NOSIG

2010/08/09 17:00
MGSJ 091700Z 14006KT 9999 SCT017 BKN200 31/26 Q1013 A29/91

2010/08/09 17:00
MKJS 091700Z 06011KT 9999 FEW024 BKN220 31/24 Q1013

2010/08/09 16:55
MMCS 091655Z 20010KT 10SM FEW100 SCT250 31/15 A3008 RMK 8/035

2010/08/09 16:53
MMNL 091653Z 18008KT 12SM SKC 32/23 A2994 RMK ISOL CU

2010/08/09 16:50
MMRX 091650Z 17010KT 8SM BKN025 34/25 A2993 RMK 8/500 HZY

2010/08/09 16:48
MMTC 091648Z 00000KT 15SM SCT200 30/14 A3007 RMK 8/002

2010/08/09 17:00
MRLB 091700Z 00000KT 9999 FEW030 BKN130 30724 A2990 RMK FEW240 RA DST NE

2010/08/09 17:00
MTPP 091700Z 09012KT 9000 FEW030TCU SCT250 34/22 Q1014 A2995

2010/08/09 17:00
MZBZ 091700Z 12010KT 9999 BKN026 BKN280 32/26 A2991 Q1013 NOSIG

2010/08/09 17:00
RJAA 091700Z 17004KT 9999 FEW020 23/22 Q1015 NOSIG RMK 1CU020 A2999

2010/08/09 17:00
RJCC 091700Z 15005KT 2500 BR FEW001 BKN002 21/20 Q1014 RMK 2ST001 7ST002 A2996

2010/08/09 17:00
RJFF 091700Z 15005KT 9999 FEW025 SCT140 BKN/// 26/23 Q1010 RMK 1CU025 3AC140 A2984

2010/08/09 17:00
RJTT 091700Z 18007KT 9999 FEW012 SCT050 BKN070 26/23 Q1015 RMK 1CU012 3SC050 5AC070 A2998

2010/08/09 17:00
RKSS 091700Z 11002KT 9999 SCT040 BKN120 26/22 Q1008 NOSIG

2010/08/09 17:00
ROAH 091700Z 18028G38KT 9999 -SHRA FEW012 SCT020 FEW025TCU BKN090 28/24 Q1005 RMK 2CU012 4CU020 1TCU025 7AC090 A2970 TCU 20KM NE MOV NE

2010/08/09 17:00
TAPA 091700Z 09014KT 9999 FEW020TCU SCT060 BKN250 30/25 Q1014 TCU-ENE

2010/08/09 17:00
TBPB 091700Z 17012KT 9999 FEW014CB SCT036 30/25 Q1014 NOSIG

2010/08/09 17:00
TFFF 091700Z 08010KT 030V120 9999 FEW016 SCT025 BKN280 32/25 Q1014 TEMPO -SHRA

2010/08/09 17:00
TNCM 091700Z 10008KT 9999 SCT019 30/25 Q1015

2010/08/09 17:00
ZGGG 091700Z 10003MPS CAVOK 30/25 Q1005 NOSIG

2010/08/09 17:00
LECV 091700Z 32003KT 9999 FEW045 33/15 Q1020

2010/08/09 17:00
LELO 091700Z 01007KT 300V060 9999 FEW030 25/15 Q1018

2010/08/09 16:55
LIPA 091655Z 22004KT 9999 FEW040 28/19 Q1014 RMK FEW VIS MIN 9999 A2995 BLU

2010/08/09 16:45
LIPR 091645Z 09007KT CAVOK 27/21 Q1014 RMK SKC VIS MIN 9999 WIND THR31 10006KT BLU

2010/08/09 16:50
LIPY 091650Z 03006KT CAVOK 26/19 Q1014 RMK VIS MIN 9999

2010/08/09 17:00
LKKV 091700Z 27004KT CAVOK 18/13 Q1017 RMK REG QNH 1012

2010/08/09 17:00
LKMT 091700Z 14004KT 110V190 CAVOK 20/15 Q1016 NOSIG RMK REG QNH 1012

2010/08/09 17:00
LKPR 091700Z 26005KT CAVOK 21/13 Q1017 NOSIG RMK REG QNH 1012

2010/08/09 17:00
LKTB 091700Z 32004KT 9999 FEW044 23/12 Q1016 NOSIG RMK REG QNH 1012

2010/08/09 17:00
LPAZ 091700Z 03011KT 9999 SCT018 BKN032 22/17 Q1020

2010/08/09 17:00
LPFL 091700Z 09003KT 020V160 9999 FEW020 24/18 Q1023

2010/08/09 17:00
LPHR 091700Z 05010KT 010V070 9999 FEW016 26/14 Q1021

2010/08/09 17:00
LPPD 091700Z 04011KT 350V070 9999 FEW018 BKN040 23/15 Q1020

2010/08/09 17:00
LRAR 091700Z 35004KT CAVOK 25/16 Q1016

2010/08/09 17:00
LRBC 091700Z 36008KT CAVOK 24/20 Q1014

2010/08/09 17:00
LRBM 091700Z 29004KT 260V320 9999 FEW055 24/16 Q1015

2010/08/09 17:00
LRCL 091700Z 31004KT 9999 FEW050 22/17 Q1016

2010/08/09 17:00
LRCV 091700Z 30006KT CAVOK 27/18 Q1013

2010/08/09 17:00
LRIA 091700Z 32004KT 280V360 CAVOK 24/20 Q1014

2010/08/09 17:00
LROD 091700Z 30004KT CAVOK 25/17 Q1016

2010/08/09 17:00
LRSM 091700Z AUTO 29004KT 9999 NCD 24/18 Q1015

2010/08/09 17:00
LRSV 091700Z 32003KT 9999 -SHRA FEW040CB 21/19 Q1016

2010/08/09 17:00
LRTC 091700Z AUTO 34012KT 9999 NCD 28/21 Q1010

2010/08/09 17:00
LRTM 091700Z VRB02KT 9999 FEW050 23/20 Q1015

2010/08/09 17:00
NZAA 091700Z 15005KT CAVOK 06/03 Q1022 NOSIG 

2010/08/09 17:00
NZWN 091700Z 20017KT 9999 SCT036 08/03 Q1023 NOSIG 

2010/08/09 17:00
NZCH 091700Z 27002KT 9999 FEW045 01/M02 Q1023 NOSIG 

2010/08/09 17:07
CYOO 091707Z AUTO 20008KT 160V230 6SM HZ FEW100 26/20 A2992 RMK SLP130 DENSITY ALT 1800FT

2010/08/09 17:00
OIKR 091700Z 36008KT CAVOK 27/04 Q1014 A2997

2010/08/09 17:00
OING 091700Z 22008KT CAVOK 27/16 Q1009 A2981

2010/08/09 17:00
OIZB 091700Z 33018KT CAVOK 37/05 Q1000 A2953

2010/08/09 17:00
OIZI 091700Z 01010KT 8000 NSC 40/M01 Q1001 A2956

2010/08/09 17:00
OITR 091700Z 01004KT 9999 FEW035CB SCT040 24/12 Q1012 A2991

2010/08/09 16:50
LIMG 091650Z 04005KT 9999 BKN030 25/18 Q1015 RMK VIS MIN 9999

2010/08/09 16:55
LIMN 091655Z 27005KT 230V290 CAVOK 27/15 Q1014 RMK FEW FEW200 VIS MIN 9999 BLU

2010/08/09 16:55
LIMS 091655Z 09004KT 9999 SCT050 28/19 Q1014 RMK SCT VIS MIN 9999 WIND THR30 09004KT BLU

2010/08/09 16:50
LIPB 091650Z 15009KT CAVOK 29/16 Q1013 RMK MON LIB VIS MIN 9999

2010/08/09 16:55
LIPC 091655Z 14007KT CAVOK 28/17 Q1014 RMK SKC VIS MIN 9999 WIND THR12 12007KT BLU

2010/08/09 16:55
LIPF 091655Z 00000KT 9999 FEW040 29/21 Q1014 RMK SCT SCT240 VIS MIN 9999

2010/08/09 16:45
LIPH 091645Z 19005KT CAVOK 28/20 Q1014 RMK SKC VIS MIN 9999 WIND THR07 /////KT BLU

2010/08/09 16:55
LIPL 091655Z 21002KT 9999 FEW040 30/20 Q1014 RMK FEW VIS MIN 9999 BLK BLU

2010/08/09 16:55
LIPS 091655Z 19005KT CAVOK 28/18 Q1014 RMK SKC VIS MIN 9999 BLU

2010/08/09 16:45
LIPX 091645Z 17002KT 9999 FEW040 30/17 Q1014 RMK FEW VIS MIN 9999 BLU

2010/08/09 16:55
LIVC 091655Z 03008KT 0100 FG VV001 13/12 Q1025 RMK MON INVIS VAL INVIS VIS MIN 0100

2010/08/09 16:55
LIVD 091655Z 11003KT 9999 FEW030 22/09 Q1018 RMK FEW VIS MIN 9999

2010/08/09 16:55
LIVE 091655Z 00000KT CAVOK 19/07 Q1018 RMK SKC VIS MIN 9999

2010/08/09 16:55
LIVO 091655Z 10003KT 9999 SCT030 21/15 Q1017 RMK SCT VIS MIN 9999

2010/08/09 16:55
LIVT 091655Z 23002KT CAVOK 26/20 Q1014 RMK SKC QUK 1 QUL 0 VIS MAR 20 KM VIS MIN 9999

2010/08/09 16:55
TXKF 091655Z 18012KT 9999 FEW020 BKN300 30/23 Q1022 /

2010/08/09 16:55
LIED 091655Z 29004KT CAVOK 30/04 Q1015 RMK BKN BKN070 SCT080 VIS MIN 9999 BLU

2010/08/09 16:55
LIMU 091655Z 24010KT 9999 FEW013 25/23 Q1017 RMK BKN QUK 2 QUL 1 S VIS MAR 30 KM VIS MIN 9999

2010/08/09 16:55
LIMY 091655Z /////KT 9999 SCT022 24/16 Q1016 RMK BKN VAL FOSCHIA VIS MIN 9999W

2010/08/09 16:55
LIQW 091655Z 12001KT 9999 FEW030 25/18 Q1016 RMK FEW VIS MIN 9999 BLU

2010/08/09 16:55
LIRE 091655Z 28012KT CAVOK 26/23 Q1015 RMK SKC VIS MIN 9999 WIND THR31 28011KT BLU

2010/08/09 16:55
LIRG 091655Z 24010KT CAVOK 30/14 Q1015 RMK FEW FEW230 MON NE LIB NC VIS MIN 9999 BLU

2010/08/09 16:55
LIRH 091655Z 34005KT CAVOK 31/15 Q1015 RMK SKC MON LIB NC VIS MIN 9999 WIND THR16 33010KT BLU

2010/08/09 16:55
LIRL 091655Z 26008KT CAVOK 29/17 Q1015 RMK FEW FEW200 MON LIB NC VIS MIN 9999 BLU

2010/08/09 16:55
LIRS 091655Z 24008KT 9999 FEW025 29/11 Q1015 RMK SCT SCT200 VIS MIN 9999 WIND THR21 /////KT BLU

2010/08/09 16:50
LIRU 091650Z 27007KT CAVOK 31/18 Q1014 RMK VIS MIN 9999

2010/08/09 16:55
LIRV 091655Z 24012KT CAVOK 27/12 Q1016 RMK SCT SCT200 MON E SE LIB NC VIS MIN 9999 BLU

2010/08/09 16:55
LIRX 091655Z 36003KT CAVOK 24/18 Q1016 RMK SCT FEW060 SCT200 VIS MIN 9999N VIS MAR 18 KM

2010/08/09 16:55
LIVR 091655Z 13012KT 9999 BKN010 14/14 Q1023 RMK BKN MON CLD SCT VIS MIN 9999

2010/08/09 17:00
SLCO 091700Z 17006KT 6000 FEW023 33/20 Q1015

2010/08/09 17:00
SLRY 091700Z 16012KT 5000 FU SKC 29/17 Q1019

2010/08/09 17:00
SLRQ 091700Z 12004KT 8000 FEW020 29/20 Q1018

2010/08/09 17:00
SLOR 091700Z 35006KT 9999 SKC 15/M09 Q1037

2010/08/09 17:00
SLRI 091700Z 16008KT 5000 FU SKC 34/17 Q1015

2010/08/09 17:00
SLJO 091700Z 14004KT 7000 SKC 31/15 Q1017

2010/08/09 17:00
SLMG 091700Z 16010KT 7000 SKC 31/15 Q1018

2010/08/09 17:00
SLSA 091700Z 13006KT 7000 SKC 31/15 Q1016

2010/08/09 17:00
SLSU 091700Z 04006KT 9999 SKC 16/08 Q1029

2010/08/09 17:00
SLPO 091700Z 03006KT 9999 SKC 15/M08 Q1039

2010/08/09 17:00
SLVM 091700Z 00000KT 9999 SKC 22/18 Q1018

2010/08/09 17:00
SLTJ 091700Z 26008KT 9999 NSC 16/05 Q1022

2010/08/09 17:00
SLYA 091700Z 00000KT 9999 SKC 22/11 Q1024

2010/08/09 17:00
SLET 091700Z 17015G25KT 9999 NSC 24/06 Q1019

2010/08/09 17:00
SLCP 091700Z 18006KT 6000 SKC 26/12 Q1020

2010/08/09 17:00
SLSI 091700Z 18006KT 9999 SKC 28/15 Q1019

2010/08/09 17:00
SLJE 091700Z 00000KT 8000 SKC 29/14 Q1020

2010/08/09 17:00
SLRB 091700Z 00000KT 7000 SKC 25/17 Q1020

2010/08/09 17:00
SLPS 091700Z 25004KT 7000 SKC 29/12 Q1016

2010/08/09 17:00
SLCA 091700Z 36005KT 9999 SKC 21/06 Q1022

2010/08/09 17:00
LPFR 091700Z VRB03KT CAVOK 32/18 Q1013

2010/08/09 17:00
LPMA 091700Z 21008KT 9999 FEW013 24/19 Q1014 RS17006KT 0520006KT 2322007KT

2010/08/09 17:00
LPPR 091700Z 32006KT 290V350 CAVOK 30/15 Q1015

2010/08/09 17:00
LPPS 091700Z 36011KT 9999 SCT015 SCT030 24/19 Q1014

2010/08/09 17:00
LPPT 091700Z 28010KT 240V310 CAVOK 37/12 Q1013 NOSIG

2010/08/09 17:00
TNCC 091700Z 09013KT 9999 SCT021 31/16 Q1012 NOSIG

2010/08/09 17:00
TNCE 091700Z 07009KT 9999 FEW018 28/24 Q1015

2010/08/09 17:00
TNCB 091700Z 11014KT 9999 FEW019 32/25 Q1012 NOSIG

2010/08/09 16:51
KABE 091651Z 26007KT 10SM FEW047 31/19 A3001

2010/08/09 16:51
KALB 091651Z 23010G16KT 9SM SCT050 SCT110 31/18 A2996

2010/08/09 16:56
KART 091656Z AUTO 25008KT 10SM FEW065 27/20 A2994

2010/08/09 16:54
KAVP 091654Z AUTO 25011G16KT 10SM CLR 32/13 A3001

2010/08/09 16:51
KBDL 091651Z 20008KT 10SM FEW065 SCT100 33/16 A2996

2010/08/09 16:52
KBDR 091652Z 22008KT 9SM CLR 29/19 A2999

2010/08/09 16:54
KBTV 091654Z 20007KT 10SM FEW050 SCT110 27/19 A2992

2010/08/09 16:54
KBUF 091654Z 22013KT 10SM BKN070 OVC130 27/19 A2996

2010/08/09 16:56
KCAE 091656Z VRB06KT 9SM FEW048 33/21 A3003

2010/08/09 16:51
KCAK 091651Z 23006KT 8SM SCT250 29/17 A3003

2010/08/09 16:51
KCMH 091651Z 22009KT 10SM BKN200 30/18 A3003

2010/08/09 16:53
KCRQ 091653Z 16003KT 10SM CLR 19/13 A2993

2010/08/09 16:54
KCRW 091654Z 00000KT 6SM HZ FEW040 30/19 A3005

2010/08/09 16:56
KDAY 091656Z 23005KT 10SM FEW110 SCT250 31/18 A3004

2010/08/09 16:51
KERI 091651Z 25005KT 8SM FEW070 SCT095 30/19 A2999

2010/08/09 16:54
KGSO 091654Z 28006KT 10SM FEW048 32/20 A3006

2010/08/09 16:53
KGSP 091653Z 29003KT 10SM CLR 32/22 A3006

2010/08/09 16:51
KHTS 091651Z 00000KT 8SM CLR 31/20 A3004

2010/08/09 16:53
KHUL 091653Z AUTO 28003KT 10SM FEW018 SCT025 BKN055 22/19 A2987

2010/08/09 16:53
KIAG 091653Z 21010KT 10SM BKN075 BKN110 OVC140 27/21 A2995

2010/08/09 16:51
KILG 091651Z 15008KT 9SM SCT038 31/22 A3002

2010/08/09 16:53
KILM 091653Z AUTO 13007KT 10SM SCT027 31/23 A3003

2010/08/09 16:53
KMSS 091653Z AUTO 27005KT 10SM OVC022 25/20 A2993

2010/08/09 16:54
KORH 091654Z 24010KT 10SM CLR 29/16 A3001

2010/08/09 16:51
KPVD 091651Z 29007G16KT 10SM SCT045TCU SCT110 SCT300 32/18 A2998

2010/08/09 16:51
KPWM 091651Z 30011KT 10SM FEW050 SCT100 31/18 A2991

2010/08/09 16:54
KRIC 091654Z VRB03KT 10SM SCT049 BKN250 32/19 A3002

2010/08/09 16:54
KROC 091654Z 23007KT 9SM SCT070 SCT130 OVC150 27/21 A2996

2010/08/09 16:54
KSYR 091654Z 26006KT 10SM SCT060 BKN200 30/19 A2995

2010/08/09 16:53
KMGM 091653Z COR 08010G14KT 10SM FEW037 34/22 A2999 RMK AO2 SLP150 T03390217

2010/08/09 17:02
KVBG 091702Z VRB04KT 10SM FEW007 BKN010 OVC015 14/12 A2996 RMK AO2 VISNO RWY12 $

2010/08/09 17:05
KNBT 091705Z AUTO 11003KT 2 1/2SM -RA FEW002 27/24 A3004 RMK AO2 P0000 TSNO

2010/08/09 17:03
KANJ 091703Z AUTO 00000KT 10SM SCT022 BKN030 BKN060 26/20 A2989 RMK AO2

2010/08/09 17:06
KDRT 091706Z AUTO 12009KT 10SM SCT024 31/23 A2994 RMK AO2

2010/08/09 17:05
KJXN 091705Z 27007KT 5SM TSRA BR BKN025 BKN050 23/22 A3001 RMK AO2 TSB1658 PRESRR P0002 $

2010/08/09 17:05
KMYF 091705Z 24006KT 10SM SCT015 19/13 A2994 RMK AO2

2010/08/09 17:05
KTMB 091705Z 14005KT 3SM RA BR BKN012 OVC037 25/23 A2996 RMK AO2 P0005

2010/08/09 17:04
PAMB 091704Z AUTO 20014KT 1 1/4SM BR OVC004 10/10 A2946 RMK AO2 PWINO TSNO CIG 003V009 $

2010/08/09 17:06
KLAN 091706Z 20008KT 2SM R28L/4500VP6000FT -RA BR SCT017 BKN070 OVC120 23/22 A2998 RMK AO2 P0005

2010/08/09 17:06
KOLM 091706Z 21005KT 10SM BKN015 OVC046 15/12 A2999 RMK AO2

2010/08/09 17:06
KSMO 091706Z 20006KT 9SM SCT013 18/13 A2994 RMK AO2

2010/08/09 17:15
KCCA 091715Z AUTO 00000KT 8SM CLR 35/26 A2997 RMK AO2

2010/08/09 16:50
KCWF 091650Z 30005KT 10SM SCT036 33/22 A2998

2010/08/09 16:55
KGZL 091655Z AUTO 20010G15KT 170V230 10SM 35/20 A2995 RMK AO2 PWINO

2010/08/09 17:03
K0F2 091703Z AUTO 19007KT 10SM CLR 34/22 A2995 RMK AO2 T03360219

2010/08/09 17:03
K11R 091703Z AUTO 27003KT 10SM SCT035 32/23 A2999 RMK AO2

2010/08/09 17:05
K1H2 091705Z AUTO 21005KT 10SM SCT032 34/25 A2995 RMK AO2 T03350246

2010/08/09 17:05
K3T5 091705Z AUTO 21005KT 10SM SCT035 32/24 A2997 RMK AO2 T03200235

2010/08/09 17:02
KAAA 091702Z AUTO 14005KT 10SM CLR 30/23 A2992 RMK AO2 T03040234

2010/08/09 17:02
KAPY 091702Z AUTO 15006KT 10SM SCT038 33/21 A2993 RMK AO2 T03270211

2010/08/09 17:05
KAQO 091705Z AUTO 20007KT CLR 34/19 A3000 RMK AO2 PWINO

2010/08/09 17:04
KARM 091704Z AUTO 23004KT 10SM BKN033 BKN042 37/23 A2997 RMK AO2 T03690232

2010/08/09 17:07
KASW 091707Z AUTO 16004KT 7SM SCT047 SCT060 29/20 A2998 RMK AO2 T02880199

2010/08/09 17:04
KBBD 091704Z AUTO 20008KT 10SM CLR 33/20 A3000 RMK

2010/08/09 17:01
KBEA 091701Z AUTO 14006KT 10SM SCT038 SCT046 33/24 A2996 RMK AO2 T03260238

2010/08/09 17:05
KERV 091705Z AUTO 19006KT 10SM CLR 31/20 A3002 RMK AO2 T03130197

2010/08/09 17:02
KF05 091702Z AUTO 23014KT CLR 37/16 A2991 RMK AO2 T03680157

2010/08/09 17:04
KFOA 091704Z AUTO 17003KT 10SM CLR 36/26 A2995 RMK AO2

2010/08/09 17:02
KGDJ 091702Z AUTO 18006KT 10SM SCT043 35/22 A2996 RMK AO2 T03510215

2010/08/09 17:05
KGNC 091705Z AUTO 18010KT 10SM OVC090 30/18 A3006 RMK AO2 T03040175

2010/08/09 17:04
KGYB 091704Z AUTO 16005KT 10SM SCT031 32/23 A3002 RMK AO2 T03240225

2010/08/09 17:06
KHQZ 091706Z AUTO 19007KT 10SM CLR 34/22 A2995 RMK AO2

2010/08/09 17:04
KJOT 091704Z AUTO 27003KT 10SM CLR 27/22 A2994 RMK AO2

2010/08/09 17:13
KMNZ 091713Z AUTO 18005KT SCT041 SCT047 34/21 A2998 RMK AO2 PWINO

2010/08/09 16:53
KMYF 091653Z COR 00000KT 10SM SCT015 18/13 A2994 RMK AO2 SLP134 T01830133

2010/08/09 17:05
KORG 091705Z AUTO 00000KT 10SM SCT036 33/24 A2998 RMK AO2

2010/08/09 17:05
KOXI 091705Z AUTO 20004KT 7SM SCT045 SCT050 BKN120 28/22 A2996 RMK AO1 T02750216

2010/08/09 17:00
KOZA 091700Z AUTO 16015G22KT 10SM SCT033 BKN045 32/21 A3004 RMK AO2 T03190206

2010/08/09 17:04
KPPQ 091704Z AUTO 18003KT 7SM HZ CLR 31/24 A2993 RMK AO2

2010/08/09 17:07
KPSN 091707Z AUTO 00000KT 32/23 A3000 RMK AO2 PWINO

2010/08/09 17:13
KPYX 091713Z AUTO 19007KT 10SM CLR 34/15 A2996 RMK AO2

2010/08/09 17:03
KRBO 091703Z AUTO 15006KT 10SM SCT036 SCT042 SCT055 34/24 A2994 RMK AO2

2010/08/09 17:05
KRCR 091705Z AUTO 15004KT 7SM CLR 29/22 A2997 RMK AO2

2010/08/09 17:05
KSFY 091705Z AUTO 33004KT 10SM CLR 26/22 A2992 RMK AO2

2010/08/09 17:04
KTFP 091704Z AUTO 13009KT 10SM SCT028 SCT033 34/25 A2994 RMK AO2

2010/08/09 17:00
NZAA 091700Z 15005KT CAVOK 06/03 Q1022 NOSIG 

2010/08/09 17:00
NZWN 091700Z 20017KT 9999 SCT036 08/03 Q1023 NOSIG 

2010/08/09 17:00
NZCH 091700Z 27002KT 9999 FEW045 01/M02 Q1023 NOSIG 

2010/08/09 17:00
GMFF 091700Z 01009KT 9999 SCT033 FEW040CB BKN100 41/08 Q1014 NOSIG

2010/08/09 17:00
GMFK 091700Z 16013KT 9999 TS BKN033 FEW040CB 35/12 Q1020 RESH

2010/08/09 17:00
GMFM 091700Z 33005KT 9999 FEW026 41/11 Q1014

2010/08/09 17:00
GMMC 091700Z 34005KT 6000 NSC 33/19 Q1010

2010/08/09 17:00
GMMZ 091700Z 27016KT 8000 FEW040 33/09 Q1021

2010/08/09 17:00
GGOV 091700Z 24014KT 9999 SCT015TCU FEW020CB 30/23 Q1010 NOSIG

2010/08/09 17:00
OEDF 091700Z 10007KT 6000 SKC 35/25 Q0997 NOSIG

2010/08/09 17:00
OEDR 091700Z 09006KT 4000 HZ SKC 36/29 Q0996 NOSIG

2010/08/09 17:00
OEJN 091700Z 31004KT CAVOK 34/27 Q1000 NOSIG

2010/08/09 17:00
OEMA 091700Z 03006KT 9000 SCT045 SCT100 42/M04 Q1004 NOSIG

2010/08/09 17:00
OERK 091700Z 03010KT 7000 SKC 39/03 Q1003 NOSIG

2010/08/09 17:00
WSSS 091700Z 14006KT 9999 FEW020 BKN300 28/26 Q1009 NOSIG

2010/08/09 17:00
CWJO 091700Z AUTO 31009KT 26/15 RMK AO1 SLP103 T02550147 58012

2010/08/09 17:00
CWJR 091700Z AUTO 22003KT 20/ RMK AO1 SLP122 T0195 58002

2010/08/09 17:00
CWJW 091700Z AUTO 20003KT 14/10 RMK AO1 SLP114 T01410102 52003

2010/08/09 17:00
CWJX 091700Z AUTO 13003KT 23/13 RMK AO1 SLP109 T02270129 52002

2010/08/09 17:00
CWKH 091700Z AUTO 15/ RMK AO1 T0150

2010/08/09 17:00
CWKX 091700Z AUTO 22004KT 12/06 RMK AO1 SLP158 T01150063 50000

2010/08/09 17:00
CWLC 091700Z AUTO 14007KT 11/ RMK AO1 T0114

2010/08/09 17:00
CWLM 091700Z AUTO 23004KT 13/12 RMK AO1 T01340117

2010/08/09 17:00
CWMM 091700Z AUTO 22001KT 16/13 RMK AO1 SLP144 T01560125 53002

2010/08/09 17:00
CWBO 091700Z AUTO 23005KT 20/15 RMK AO1 SLP104 T01960147 51001

2010/08/09 17:00
CWBS 091700Z AUTO 20010KT 23/ RMK AO1 T0232

2010/08/09 17:00
CWDK 091700Z AUTO 15004KT 21/07 RMK AO1 SLP111 T02100066 51003

2010/08/09 17:00
CWDZ 091700Z AUTO 15003KT 21/14 RMK AO1 SLP091 T02050138 58004

2010/08/09 17:00
CZSP 091700Z AUTO 18005KT 21/15 RMK AO1 SLP146 T02050154 56012

2010/08/09 17:00
CZSP 091700Z AUTO 18005KT 21/15 RMK AO1 SLP146 T02050154 56012

2010/08/09 17:00
CZSP 091700Z AUTO 18005KT 21/15 RMK AO1 SLP146 T02050154 56012

2010/08/09 17:00
CZSP 091700Z AUTO 18005KT 21/15 RMK AO1 SLP146 T02050154 56012

2010/08/09 17:00
CZSP 091700Z AUTO 18005KT 21/15 RMK AO1 SLP146 T02050154 56012

2010/08/09 17:00
FLLS 091700Z 11004KT CAVOK 18/10 Q1022

2010/08/09 17:00
UBBG 091700Z 22005KT 9999 SCT100 26/12 Q1010 NOSIG RMK R12L/CLRD70 

2010/08/09 17:00
CWDV 091700Z AUTO 00027KT 25/17 RMK AO1 SLP119 T02510166 51005

2010/08/09 17:00
CWWB 091700Z AUTO 22004KT 27/20 RMK AO1 SLP129 T02700198 58006

2010/08/09 17:00
CWWB 091700Z AUTO 22004KT 27/20 RMK AO1 SLP129 T02700198 58006

2010/08/09 17:00
CWBE 091700Z AUTO 15004KT 20/18 RMK AO1 SLP143 T01980183 51001

2010/08/09 17:00
CWLS 091700Z AUTO 21006KT 26/20 RMK AO1 SLP136 T02550202 56003

2010/08/09 17:00
CWBE 091700Z AUTO 15004KT 20/18 RMK AO1 SLP143 T01980183 51001

2010/08/09 17:00
CWLS 091700Z AUTO 21006KT 26/20 RMK AO1 SLP136 T02550202 56003

2010/08/09 17:00
CWEB 091700Z AUTO 28002KT 13/13 RMK AO1 SLP155 T01340128 54000

2010/08/09 17:00
CWEL 091700Z AUTO 31015KT 16/13 RMK AO1 PK WND 31017/1658 SLP133 T01590131 53005

2010/08/09 17:00
CWFQ 091700Z AUTO 27003KT 24/20 RMK AO1 2PAST HR M P0001 T02390203 50002

2010/08/09 17:00
CWGB 091700Z AUTO 29013KT 16/12 RMK AO1 SLP143 T01580116 53006

2010/08/09 17:00
CWGL 091700Z AUTO 24003KT 25/23 RMK AO1 SLP138 T02480226 58002

2010/08/09 17:00
CWGM 091700Z AUTO 21013G19KT 20/08 RMK AO1 PK WND 22020/1649 T02040075

2010/08/09 17:00
CWQK 091700Z AUTO 26016KT RMK AO1 PK WND 27018/1640

2010/08/09 17:00
CWSD 091700Z AUTO 21009KT 20/18 RMK AO1 7PAST HR 6013 SLP142 P0003 T01980181 50007

2010/08/09 17:00
CWSK 091700Z AUTO 16004KT 17/15 RMK AO1 5000 SLP128 T01690146 50003

2010/08/09 17:00
CWSL 091700Z AUTO 01001KT 19/15 RMK AO1 SLP105 T01930145 58005

2010/08/09 17:00
CWSP 091700Z AUTO 30014KT 11/11 RMK AO1 SLP144 T01100106 53002

2010/08/09 17:00
CWST 091700Z AUTO 24012KT 25/19 RMK AO1 PK WND 23020/1601 T02530190 50010

2010/08/09 17:00
CWQK 091700Z AUTO 26016KT RMK AO1 PK WND 27018/1640

2010/08/09 17:00
CWSD 091700Z AUTO 21009KT 20/18 RMK AO1 7PAST HR 6013 SLP142 P0003 T01980181 50007

2010/08/09 17:00
CWSK 091700Z AUTO 16004KT 17/15 RMK AO1 5000 SLP128 T01690146 50003

2010/08/09 17:00
CWSL 091700Z AUTO 01001KT 19/15 RMK AO1 SLP105 T01930145 58005

2010/08/09 17:00
CWSP 091700Z AUTO 30014KT 11/11 RMK AO1 SLP144 T01100106 53002

2010/08/09 17:00
CWST 091700Z AUTO 24012KT 25/19 RMK AO1 PK WND 23020/1601 T02530190 50010

2010/08/09 17:00
CWSD 091700Z AUTO 21009KT 20/18 RMK AO1 7PAST HR 6013 SLP142 P0003 T01980181 50007

2010/08/09 17:00
CWSK 091700Z AUTO 16004KT 17/15 RMK AO1 5000 SLP128 T01690146 50003

2010/08/09 17:00
CWSL 091700Z AUTO 01001KT 19/15 RMK AO1 SLP105 T01930145 58005

2010/08/09 17:00
CWSP 091700Z AUTO 30014KT 11/11 RMK AO1 SLP144 T01100106 53002

2010/08/09 17:00
CWST 091700Z AUTO 24012KT 25/19 RMK AO1 PK WND 23020/1601 T02530190 50010

2010/08/09 17:00
CWSD 091700Z AUTO 21009KT 20/18 RMK AO1 7PAST HR 6013 SLP142 P0003 T01980181 50007

2010/08/09 17:00
CWSK 091700Z AUTO 16004KT 17/15 RMK AO1 5000 SLP128 T01690146 50003

2010/08/09 17:00
CWSL 091700Z AUTO 01001KT 19/15 RMK AO1 SLP105 T01930145 58005

2010/08/09 17:00
CWSP 091700Z AUTO 30014KT 11/11 RMK AO1 SLP144 T01100106 53002

2010/08/09 17:00
CWST 091700Z AUTO 24012KT 25/19 RMK AO1 PK WND 23020/1601 T02530190 50010

2010/08/09 17:00
CWST 091700Z AUTO 24012KT 25/19 RMK AO1 PK WND 23020/1601 T02530190 50010

2010/08/09 17:00
CWCT 091700Z AUTO 17007KT 20/13 RMK AO1 SLP110 T01990129 50002

2010/08/09 17:00
CWLB 091700Z AUTO 01001KT 18/13 RMK AO1 SLP098 T01800128 52010

2010/08/09 17:00
CWCT 091700Z AUTO 17007KT 20/13 RMK AO1 SLP110 T01990129 50002

2010/08/09 17:00
CWLB 091700Z AUTO 01001KT 18/13 RMK AO1 SLP098 T01800128 52010

2010/08/09 17:00
CWVT 091700Z AUTO 12004KT 20/17 RMK AO1 1015 SLP093 T02010168 50007

2010/08/09 17:00
CWZW 091700Z AUTO 18006KT 13/06 RMK AO1 SLP134 T01280064 53000

2010/08/09 17:00
CWVT 091700Z AUTO 12004KT 20/17 RMK AO1 1015 SLP093 T02010168 50007

2010/08/09 17:00
CWZW 091700Z AUTO 18006KT 13/06 RMK AO1 SLP134 T01280064 53000

2010/08/09 17:00
CWZW 091700Z AUTO 18006KT 13/06 RMK AO1 SLP134 T01280064 53000

2010/08/09 17:00
CWZW 091700Z AUTO 18006KT 13/06 RMK AO1 SLP134 T01280064 53000

2010/08/09 17:00
CWZW 091700Z AUTO 18006KT 13/06 RMK AO1 SLP134 T01280064 53000

2010/08/09 17:00
CWZW 091700Z AUTO 18006KT 13/06 RMK AO1 SLP134 T01280064 53000

2010/08/09 17:00
CWZW 091700Z AUTO 18006KT 13/06 RMK AO1 SLP134 T01280064 53000

2010/08/09 17:00
CWZW 091700Z AUTO 18006KT 13/06 RMK AO1 SLP134 T01280064 53000

2010/08/09 17:00
CWZW 091700Z AUTO 18006KT 13/06 RMK AO1 SLP134 T01280064 53000

2010/08/09 17:00
CWZW 091700Z AUTO 18006KT 13/06 RMK AO1 SLP134 T01280064 53000

2010/08/09 17:00
CWDC 091700Z AUTO 11003KT 17/16 RMK AO1 6PAST HR 2009 SLP078 P0002 T01680163 50029

2010/08/09 17:00
CWEH 091700Z AUTO 22006KT 22/08 RMK AO1 SLP123 T02240075 52006

2010/08/09 17:00
CWKO 091700Z AUTO 36004KT 24/09 RMK AO1 SLP125 T02360093 53006

2010/08/09 17:00
CWOY 091700Z AUTO 30005KT 21/15 RMK AO1 SLP111 T02120148 52012

2010/08/09 17:00
CWZW 091700Z AUTO 18006KT 13/06 RMK AO1 SLP134 T01280064 53000

2010/08/09 17:00
CWZW 091700Z AUTO 18006KT 13/06 RMK AO1 SLP134 T01280064 53000

2010/08/09 17:00
CWEK 091700Z AUTO 14002KT 11/ RMK AO1 1002 SLP162 T0110 50008

2010/08/09 17:00
CWEQ 091700Z AUTO 27003KT 25/17 RMK AO1 SLP085 T02450169 53001

2010/08/09 17:00
CWLP 091700Z AUTO 29015KT 13/11 RMK AO1 PK WND 29017/1641 SLP165 T01280114 51003

2010/08/09 17:00
CWZG 091700Z AUTO 23005KT 18/07 RMK AO1 SLP106 T01750067 58012

2010/08/09 17:00
CWZW 091700Z AUTO 18006KT 13/06 RMK AO1 SLP134 T01280064 53000

2010/08/09 17:00
CWZW 091700Z AUTO 18006KT 13/06 RMK AO1 SLP134 T01280064 53000

2010/08/09 17:00
CWWE 091700Z AUTO 22007KT 18/16 RMK AO1 SLP169 T01830160 56017

2010/08/09 17:00
CWDM 091700Z AUTO 21012KT 14/12 RMK AO1 PK WND 21019/1606 SLP084 T01420116 56010

2010/08/09 17:00
CWDM 091700Z AUTO 21012KT 14/12 RMK AO1 PK WND 21019/1606 SLP084 T01420116 56010

2010/08/09 17:00
CWEP 091700Z AUTO 19009KT 20/18 RMK AO1 PK WND 18020/1614 SLP154 T02020183 58014

2010/08/09 17:00
CWER 091700Z AUTO 21021KT RMK AO1 PK WND 21025/1655

2010/08/09 17:00
CWBV 091700Z AUTO 17009KT 19/17 RMK AO1 SLP185 T01930171 57020

2010/08/09 17:00
CWRN 091700Z AUTO 19018G24KT 22/12 RMK AO1 PK WND 19024/1656 SLP180 T02230122 57018

2010/08/09 17:00
CWBV 091700Z AUTO 17009KT 19/17 RMK AO1 SLP185 T01930171 57020

2010/08/09 17:00
CWRN 091700Z AUTO 19018G24KT 22/12 RMK AO1 PK WND 19024/1656 SLP180 T02230122 57018

2010/08/09 17:00
CWRN 091700Z AUTO 19018G24KT 22/12 RMK AO1 PK WND 19024/1656 SLP180 T02230122 57018

2010/08/09 17:00
CWRN 091700Z AUTO 19018G24KT 22/12 RMK AO1 PK WND 19024/1656 SLP180 T02230122 57018

2010/08/09 17:00
CTRA 091700Z AUTO 20002KT 25/19 RMK AO1 3004 SLP121 T02490192 50004

2010/08/09 17:00
CXZC 091700Z AUTO 30005KT 26/09 RMK AO1 SLP098 T02550090 57006

2010/08/09 17:00
CXZC 091700Z AUTO 30005KT 26/09 RMK AO1 SLP098 T02550090 57006

2010/08/09 17:00
CWXL 091700Z AUTO 20004KT 23/11 RMK AO1 T02340113

2010/08/09 17:00
CWZA 091700Z AUTO 24004KT 18/14 RMK AO1 SLP135 T01780140 54000

2010/08/09 17:00
CWZO 091700Z AUTO 16002KT RMK AO1 

2010/08/09 17:00
CWZS 091700Z AUTO 23006KT 25/15 RMK AO1 SLP088 T02530152 58016

2010/08/09 17:00
CXKE 091700Z AUTO 23002KT 25/19 RMK AO1 SLP129 T02470191 58007

2010/08/09 17:00
CXBO 091700Z AUTO 23008KT 24/19 RMK AO1 T02380194

2010/08/09 17:00
CXCH 091700Z AUTO 23/16 RMK AO1 T02280163

2010/08/09 17:00
CXCK 091700Z AUTO 12009KT 13/ RMK AO1 T0127

2010/08/09 17:00
CXHA 091700Z AUTO 21008KT 27/21 RMK AO1 SLP131 T02710206 58004

2010/08/09 17:00
CXHF 091700Z AUTO 25/15 RMK AO1 T02540151

2010/08/09 17:00
CXMI 091700Z AUTO 16015KT 18/16 RMK AO1 PK WND 16017/1621 SLP171 T01750158 56020

2010/08/09 17:00
CXMY 091700Z AUTO 23/14 RMK AO1 T02320136

2010/08/09 17:00
CXOX 091700Z AUTO 25004KT 21/16 RMK AO1 SLP080 T02120156 53011

2010/08/09 17:00
CXRH 091700Z AUTO 23014G21KT 21/17 RMK AO1 22 T02140166

2010/08/09 17:00
CXSR 091700Z AUTO 27009KT 14/05 RMK AO1 SLP083 T01440052 53009

2010/08/09 17:00
CXSW 091700Z AUTO 25013G19KT RMK AO1 24 

2010/08/09 17:00
CXTP 091700Z AUTO 22012G22KT 23/15 RMK AO1 PK WND 21024/1645 SLP171 T02290147 56018

2010/08/09 17:00
CXZU 091700Z AUTO 00000KT 19/12 RMK AO1 SLP095 T01880118 52006

2010/08/09 17:00
CXOX 091700Z AUTO 25004KT 21/16 RMK AO1 SLP080 T02120156 53011

2010/08/09 17:00
CXRH 091700Z AUTO 23014G21KT 21/17 RMK AO1 22 T02140166

2010/08/09 17:00
CXSR 091700Z AUTO 27009KT 14/05 RMK AO1 SLP083 T01440052 53009

2010/08/09 17:00
CXSW 091700Z AUTO 25013G19KT RMK AO1 24 

2010/08/09 17:00
CXTP 091700Z AUTO 22012G22KT 23/15 RMK AO1 PK WND 21024/1645 SLP171 T02290147 56018

2010/08/09 17:00
CXZU 091700Z AUTO 00000KT 19/12 RMK AO1 SLP095 T01880118 52006

2010/08/09 17:00
CXZU 091700Z AUTO 00000KT 19/12 RMK AO1 SLP095 T01880118 52006

2010/08/09 17:00
CXZU 091700Z AUTO 00000KT 19/12 RMK AO1 SLP095 T01880118 52006

2010/08/09 17:00
CXZU 091700Z AUTO 00000KT 19/12 RMK AO1 SLP095 T01880118 52006

2010/08/09 17:00
CXZU 091700Z AUTO 00000KT 19/12 RMK AO1 SLP095 T01880118 52006

2010/08/09 17:00
CXZU 091700Z AUTO 00000KT 19/12 RMK AO1 SLP095 T01880118 52006

2010/08/09 17:00
CXZU 091700Z AUTO 00000KT 19/12 RMK AO1 SLP095 T01880118 52006

2010/08/09 17:00
CXZU 091700Z AUTO 00000KT 19/12 RMK AO1 SLP095 T01880118 52006

2010/08/09 17:00
CXZU 091700Z AUTO 00000KT 19/12 RMK AO1 SLP095 T01880118 52006

2010/08/09 17:00
CXZU 091700Z AUTO 00000KT 19/12 RMK AO1 SLP095 T01880118 52006

2010/08/09 17:00
CXZU 091700Z AUTO 00000KT 19/12 RMK AO1 SLP095 T01880118 52006

2010/08/09 17:00
CXZU 091700Z AUTO 00000KT 19/12 RMK AO1 SLP095 T01880118 52006

2010/08/09 17:00
CXZU 091700Z AUTO 00000KT 19/12 RMK AO1 SLP095 T01880118 52006

2010/08/09 17:00
CXZU 091700Z AUTO 00000KT 19/12 RMK AO1 SLP095 T01880118 52006

2010/08/09 17:00
CXZU 091700Z AUTO 00000KT 19/12 RMK AO1 SLP095 T01880118 52006

2010/08/09 17:00
CXLB 091700Z AUTO 20013KT 21/15 RMK AO1 PK WND 20022/1629 SLP167 T02060149 56021

2010/08/09 17:00
CXTD 091700Z AUTO 20012G19KT 22/13 RMK AO1 PK WND 18023/1601 SLP173 T02240131 56019

2010/08/09 17:00
CXTO 091700Z AUTO 27/22 RMK AO1 SLP131 T02720223 57009

2010/08/09 17:00
CXZV 091700Z AUTO 24005KT 20/16 RMK AO1 SLP066 T02010163 58013

2010/08/09 17:00
OPST 091700Z 23004KT 4000 FU FEW040 SCT110 31/23 Q1002 RH66

2010/08/09 17:00
CWTA 091700Z AUTO 25003KT 24/19 RMK AO1 SLP132 T02370193 58007

2010/08/09 17:00
CWUS 091700Z AUTO 04004KT 22/09 RMK AO1 SLP103 T02240091 56007

2010/08/09 17:00
CWUX 091700Z AUTO 30007KT 25/16 RMK AO1 SLP101 T02490157 58010

2010/08/09 17:00
CWVF 091700Z AUTO 32012KT 17/ RMK AO1 T0165

2010/08/09 17:00
CWVI 091700Z AUTO 09003KT 23/11 RMK AO1 SLP092 T02250112 51008

2010/08/09 17:00
CWVU 091700Z AUTO 17013G18KT 19/16 RMK AO1 PK WND 18019/1614 SLP156 T01900162 58009

2010/08/09 17:00
CWVV 091700Z AUTO 08002KT 16/12 RMK AO1 SLP145 T01630124 53007

2010/08/09 17:00
CWWA 091700Z AUTO 00000KT 15/13 RMK AO1 SLP138 T01490127 53002

2010/08/09 17:00
CWWK 091700Z AUTO 22002KT 16/13 RMK AO1 SLP150 T01560126 52003

2010/08/09 17:00
CWXA 091700Z AUTO 26007KT 19/07 RMK AO1 SLP095 T01930072 55006

2010/08/09 17:00
CWUS 091700Z AUTO 04004KT 22/09 RMK AO1 SLP103 T02240091 56007

2010/08/09 17:00
CWUX 091700Z AUTO 30007KT 25/16 RMK AO1 SLP101 T02490157 58010

2010/08/09 17:00
CWVF 091700Z AUTO 32012KT 17/ RMK AO1 T0165

2010/08/09 17:00
CWVI 091700Z AUTO 09003KT 23/11 RMK AO1 SLP092 T02250112 51008

2010/08/09 17:00
CWVU 091700Z AUTO 17013G18KT 19/16 RMK AO1 PK WND 18019/1614 SLP156 T01900162 58009

2010/08/09 17:00
CWVV 091700Z AUTO 08002KT 16/12 RMK AO1 SLP145 T01630124 53007

2010/08/09 17:00
CWWA 091700Z AUTO 00000KT 15/13 RMK AO1 SLP138 T01490127 53002

2010/08/09 17:00
CWWK 091700Z AUTO 22002KT 16/13 RMK AO1 SLP150 T01560126 52003

2010/08/09 17:00
CWXA 091700Z AUTO 26007KT 19/07 RMK AO1 SLP095 T01930072 55006

2010/08/09 17:00
CWNE 091700Z AUTO 21014G20KT 20/18 RMK AO1 PK WND 20020/1655 SLP130 T01970178 57010

2010/08/09 17:00
CWNM 091700Z AUTO 19/18 RMK AO1 SLP106 T01930175 58004

2010/08/09 17:00
CWNP 091700Z AUTO 29003KT 22/17 RMK AO1 SLP097 T02160166 58007

2010/08/09 17:00
CWNQ 091700Z AUTO 26006KT 24/19 RMK AO1 SLP120 T02380187 58010

2010/08/09 17:00
CWOE 091700Z AUTO 15007KT 24/10 RMK AO1 T02370103

2010/08/09 17:00
CWPE 091700Z AUTO 20010G15KT 15/14 RMK AO1 18 6020 SLP140 T01500143 50006

2010/08/09 17:00
CWPR 091700Z AUTO 00000KT 15/ RMK AO1 SLP124 T0152 56009

2010/08/09 17:00
CWPZ 091700Z AUTO 30009KT 14/06 RMK AO1 SLP140 T01420061 51002

2010/08/09 17:00
CWGR 091700Z AUTO 20012G18KT 20/17 RMK AO1 PK WND 17019/1656 SLP138 T01980166 56009

2010/08/09 17:00
CWGT 091700Z AUTO 29010KT 15/11 RMK AO1 SLP141 T01510112 53004

2010/08/09 17:00
CWGW 091700Z AUTO 00000KT 17/13 RMK AO1 SLP120 T01690128 58009

2010/08/09 17:00
CWHL 091700Z AUTO 12003KT 12/ RMK AO1 0002 SLP157 T0118 50024

2010/08/09 17:00
CWHM 091700Z AUTO 24009KT 24/20 RMK AO1 T02440198

2010/08/09 17:00
CWHT 091700Z AUTO 19002KT 12/05 RMK AO1 SLP105 T01170047 50005

2010/08/09 17:00
CWHV 091700Z AUTO 23005KT 24/19 RMK AO1 SLP128 T02350194 58005

2010/08/09 17:00
CWIG 091700Z AUTO 22016KT RMK AO1 PK WND 21023/1621

2010/08/09 17:00
CWIZ 091700Z AUTO 25005KT 24/21 RMK AO1 T02410208

2010/08/09 17:00
CWJC 091700Z AUTO 19/09 RMK AO1 17 3002 SLP139 T01930085

2010/08/09 17:02
KAPY 091702Z AUTO 15006KT 10SM SCT038 33/21 A2993 RMK AO2 T03270211

2010/08/09 17:07
KPSN 091707Z AUTO 00000KT 32/23 A3000 RMK AO2 PWINO

2010/08/09 17:05
KSFY 091705Z AUTO 33004KT 10SM CLR 26/22 A2992 RMK AO2

2010/08/09 17:02
KVBG 091702Z VRB04KT 10SM FEW007 BKN010 OVC015 14/12 A2996 RMK AO2 VISNO RWY12 $

2010/08/09 17:05
KNBT 091705Z AUTO 11003KT 2 1/2SM -RA FEW002 27/24 A3004 RMK AO2 P0000 TSNO

2010/08/09 17:06
KDRT 091706Z AUTO 12009KT 10SM SCT024 31/23 A2994 RMK AO2

2010/08/09 17:03
KANJ 091703Z AUTO 00000KT 10SM SCT022 BKN030 BKN060 26/20 A2989 RMK AO2

2010/08/09 17:06
KLAN 091706Z 20008KT 2SM R28L/4500VP6000FT -RA BR SCT017 BKN070 OVC120 23/22 A2998 RMK AO2 P0005

2010/08/09 17:00
KH78 091700Z 01019KT 6SM +RA OVC010 27/25 A3002 RMK SEAS 3-4

2010/08/09 17:05
KJXN 091705Z 27007KT 5SM TSRA BR BKN025 BKN050 23/22 A3001 RMK AO2 TSB1658 PRESRR P0002 $

2010/08/09 17:05
KMYF 091705Z 24006KT 10SM SCT015 19/13 A2994 RMK AO2

2010/08/09 17:05
KTMB 091705Z 14005KT 3SM RA BR BKN012 OVC037 25/23 A2996 RMK AO2 P0005

2010/08/09 17:04
PAMB 091704Z AUTO 20014KT 1 1/4SM BR OVC004 10/10 A2946 RMK AO2 PWINO TSNO CIG 003V009 $

2010/08/09 17:06
KOLM 091706Z 21005KT 10SM BKN015 OVC046 15/12 A2999 RMK AO2

2010/08/09 17:06
KSMO 091706Z 20006KT 9SM SCT013 18/13 A2994 RMK AO2

2010/08/09 17:00
K0R3 091700Z AUTO 35007KT SCT029 33/26 A2998 RMK AO2 LTG DSNT SE PWINO

2010/08/09 16:50
KEFD 091650Z 00000KT 10SM BKN020 34/25 A2999

2010/08/09 16:55
KLGC 091655Z AUTO 04007KT 10SM FEW048 34/21 A3002 RMK AO1

2010/08/09 17:00
KLOM 091700Z AUTO 27003KT 10SM SCT048 SCT055 32/19 A3001 RMK AO1 T03170194

2010/08/09 17:00
KMDQ 091700Z AUTO 00000KT 10SM SCT035 SCT046 SCT050 32/24 A3002 RMK AO2 T03240239

2010/08/09 16:56
KNSE 091656Z 13006KT 9SM SCT030 SCT130 33/24 A2999 RMK AO2 SLP138 T03330239 $

2010/08/09 17:00
KTBR 091700Z AUTO 05007G15KT 10SM SCT042 34/21 A3001 RMK AO2 LTG DSNT E T03350207

2010/08/09 17:00
KXLL 091700Z AUTO 20007KT 5SM HZ SCT045 SCT055 32/22 A3001 RMK AO2 T03200224

2010/08/09 17:00
KXSA 091700Z AUTO 15004KT 10SM SCT050 BKN090 OVC110 33/19 A3002 RMK AO2

2010/08/09 16:56
PADT 091656Z 04003KT 20SM BKN020 BKN060 10/09 A2972 RMK NOSPECI

2010/08/09 16:50
KCWF 091650Z 30005KT 10SM SCT036 33/22 A2998

2010/08/09 16:55
KGZL 091655Z AUTO 20010G15KT 170V230 10SM 35/20 A2995 RMK AO2 PWINO

2010/08/09 16:53
KMYF 091653Z COR 00000KT 10SM SCT015 18/13 A2994 RMK AO2 SLP134 T01830133

2010/08/09 17:00
KOZA 091700Z AUTO 16015G22KT 10SM SCT033 BKN045 32/21 A3004 RMK AO2 T03190206

2010/08/09 17:03
KOCW 091703Z AUTO 09005KT 10SM CLR 31/20 A3004 RMK AO2

2010/08/09 17:15
KCCA 091715Z AUTO 00000KT 8SM CLR 35/26 A2997 RMK AO2

2010/08/09 17:03
K0F2 091703Z AUTO 19007KT 10SM CLR 34/22 A2995 RMK AO2 T03360219

2010/08/09 17:03
K11R 091703Z AUTO 27003KT 10SM SCT035 32/23 A2999 RMK AO2

2010/08/09 17:05
K1H2 091705Z AUTO 21005KT 10SM SCT032 34/25 A2995 RMK AO2 T03350246

2010/08/09 17:05
K3T5 091705Z AUTO 21005KT 10SM SCT035 32/24 A2997 RMK AO2 T03200235

2010/08/09 17:02
KAAA 091702Z AUTO 14005KT 10SM CLR 30/23 A2992 RMK AO2 T03040234

2010/08/09 17:05
KAQO 091705Z AUTO 20007KT CLR 34/19 A3000 RMK AO2 PWINO

2010/08/09 17:04
KARM 091704Z AUTO 23004KT 10SM BKN033 BKN042 37/23 A2997 RMK AO2 T03690232

2010/08/09 17:07
KASW 091707Z AUTO 16004KT 7SM SCT047 SCT060 29/20 A2998 RMK AO2 T02880199

2010/08/09 17:04
KBBD 091704Z AUTO 20008KT 10SM CLR 33/20 A3000 RMK

2010/08/09 17:01
KBEA 091701Z AUTO 14006KT 10SM SCT038 SCT046 33/24 A2996 RMK AO2 T03260238

2010/08/09 17:05
KERV 091705Z AUTO 19006KT 10SM CLR 31/20 A3002 RMK AO2 T03130197

2010/08/09 17:02
KF05 091702Z AUTO 23014KT CLR 37/16 A2991 RMK AO2 T03680157

2010/08/09 17:04
KFOA 091704Z AUTO 17003KT 10SM CLR 36/26 A2995 RMK AO2

2010/08/09 17:02
KGDJ 091702Z AUTO 18006KT 10SM SCT043 35/22 A2996 RMK AO2 T03510215

2010/08/09 17:05
KGNC 091705Z AUTO 18010KT 10SM OVC090 30/18 A3006 RMK AO2 T03040175

2010/08/09 17:04
KGYB 091704Z AUTO 16005KT 10SM SCT031 32/23 A3002 RMK AO2 T03240225

2010/08/09 17:06
KHQZ 091706Z AUTO 19007KT 10SM CLR 34/22 A2995 RMK AO2

2010/08/09 17:04
KJOT 091704Z AUTO 27003KT 10SM CLR 27/22 A2994 RMK AO2

2010/08/09 17:13
KMNZ 091713Z AUTO 18005KT SCT041 SCT047 34/21 A2998 RMK AO2 PWINO

2010/08/09 17:05
KORG 091705Z AUTO 00000KT 10SM SCT036 33/24 A2998 RMK AO2

2010/08/09 17:05
KOXI 091705Z AUTO 20004KT 7SM SCT045 SCT050 BKN120 28/22 A2996 RMK AO1 T02750216

2010/08/09 17:04
KPPQ 091704Z AUTO 18003KT 7SM HZ CLR 31/24 A2993 RMK AO2

2010/08/09 17:13
KPYX 091713Z AUTO 19007KT 10SM CLR 34/15 A2996 RMK AO2

2010/08/09 17:03
KRBO 091703Z AUTO 15006KT 10SM SCT036 SCT042 SCT055 34/24 A2994 RMK AO2

2010/08/09 17:05
KRCR 091705Z AUTO 15004KT 7SM CLR 29/22 A2997 RMK AO2

2010/08/09 17:04
KTFP 091704Z AUTO 13009KT 10SM SCT028 SCT033 34/25 A2994 RMK AO2

2010/08/09 16:55
KBIX 091655Z 03008KT 10SM FEW028 SCT130 34/24 A2996 RMK AO2A SLP146 WND DATA ESTMD ALSTG/SLP ESTMD

2010/08/09 16:55
KLFI 091655Z 12006KT 10SM CLR 29/22 A3004 RMK AO2A SLP175 T02940223

2010/08/09 16:55
KLUF 091655Z VRB05KT 6SM HZ CLR 34/05 A2988 RMK AO2A SLP089 T03400054 $

2010/08/09 16:55
KLFI 091655Z 12006KT 10SM CLR 29/22 A3004 RMK AO2A SLP175 T02940223

2010/08/09 16:59
KNGU 091659Z 07006KT 7SM FEW040 BKN250 30/21 A3006 RMK AO2 SLP178 CONTRAILS T03000206

2010/08/09 16:55
PHSF 091655Z VRB06KT 7SM CLR 13/M06 A3031 RMK SLPNO

2010/08/09 16:55
KHIF 091655Z AUTO 16014G22KT 10SM FEW090 24/08 A3006 RMK AO2A MIDFLD WND 18018KT SLP068 T02450078

2010/08/09 17:00
HSSS 091700Z 18012KT 2500M SA 38/14 Q1006 NO SIG

2010/08/09 16:53
PADQ 091653Z 31003KT 10SM FEW002 SCT010 BKN140 11/11 A2964 RMK A02 SLP035 T01110106 TSNO

2010/08/09 16:53
KMGM 091653Z COR 08010G14KT 10SM FEW037 34/22 A2999 RMK AO2 SLP150 T03390217

2010/08/09 17:00
GBYD 091700Z 27008KT 9999 SCT012 30/23 Q1012

2010/08/09 17:00
OIBB 091700Z 18004KT 7000 SKC 34/29 Q0997 A2944

2010/08/09 17:00
OIGG 091700Z 0P 980

2010/08/09 17:00
OINZ 091700Z 19004KT CAVOK 28/21 Q1009 A2981

2010/08/09 17:00
OITR 091700Z 01004KT 9999 FEW035CB SCT040 24/12 Q1012 A2991

2010/08/09 16:50
OOSA 091650Z 15005KT 6000 SCT012 BKN025 26/23 Q1003 NOSIG RMK05 RH84

2010/08/09 17:00
OOMS 091700Z VRB01KT 8000 NSC 31/27 Q0998 NOSIG

2010/08/09 17:00
UAAA 091700Z 22005MPS 9999 VCTS SCT050CB BKN100 23/08 Q1009 88CLRD65 TEMPO TS

2010/08/09 17:00
UACC 091700Z 02004MPS CAVOK 13/05 Q1013 040/0070 NOSIG RMK QFE729/0972

2010/08/09 17:00
UARR 091700Z 35002MPS CAVOK 28/03 Q1015 04CLRD70 NOSIG RMK QFE758/1010

2010/08/09 17:00
UATE 091700Z 11005MPS CAVOK 32/07 Q1010 120///70 NOSIG RMK QFE755/1007

2010/08/09 17:00
UATG 091700Z 28003MPS 9999 FEW033CB SCT133 31/10 Q1011 14CLRD70 NOSIG RMK QFE760/1014

2010/08/09 17:00
UATT 091700Z 06005MPS 6000 FU SKC 28/07 Q1016 31CLRD70 NOSIG RMK QFE742/0989

2010/08/09 17:00
UAUU 091700Z 07004MPS CAVOK 20/03 Q1019 33CLRD70 NOSIG RMK QFE749/0998

2010/08/09 17:00
UTDD 091700Z 10003MPS 9999 FEW200 26/08 Q1005 09CLRD70 NOSIG RMK QFE687/0916

2010/08/09 17:00
SLCA 091700Z 36005KT 9999 SKC 21/06 Q1022

2010/08/09 17:00
SLCO 091700Z 17006KT 6000 FEW023 33/20 Q1015

2010/08/09 17:00
SLCP 091700Z 18006KT 6000 SKC 26/12 Q1020

2010/08/09 17:00
SLJE 091700Z 00000KT 8000 SKC 29/14 Q1020

2010/08/09 17:00
SLJO 091700Z 14004KT 7000 SKC 31/15 Q1017

2010/08/09 17:00
SLMG 091700Z 16010KT 7000 SKC 31/15 Q1018

2010/08/09 17:00
SLOR 091700Z 35006KT 9999 SKC 15/M09 Q1037

2010/08/09 17:00
SLPO 091700Z 03006KT 9999 SKC 15/M08 Q1039

2010/08/09 17:00
SLPS 091700Z 25004KT 7000 SKC 29/12 Q1016

2010/08/09 17:00
SLRB 091700Z 00000KT 7000 SKC 25/17 Q1020

2010/08/09 17:00
SLRI 091700Z 16008KT 5000 FU SKC 34/17 Q1015

2010/08/09 17:00
SLRQ 091700Z 12004KT 8000 FEW020 29/20 Q1018

2010/08/09 17:00
SLRY 091700Z 16012KT 5000 FU SKC 29/17 Q1019

2010/08/09 17:00
SLSA 091700Z 13006KT 7000 SKC 31/15 Q1016

2010/08/09 17:00
SLSI 091700Z 18006KT 9999 SKC 28/15 Q1019

2010/08/09 17:00
SLSU 091700Z 04006KT 9999 SKC 16/08 Q1029

2010/08/09 17:00
SLVM 091700Z 00000KT 9999 SKC 22/18 Q1018

2010/08/09 17:00
SLYA 091700Z 00000KT 9999 SKC 22/11 Q1024

2010/08/09 17:00
SBBG 091700Z 14007KT CAVOK 15/04 Q1025

2010/08/09 17:00
MKJS 091700Z 06011KT 9999 FEW024 BKN220 31/24 Q1013

2010/08/09 17:00
TNCM 091700Z 10008KT 9999 SCT019 30/25 Q1015

2010/08/09 17:00
MGSJ 091700Z 14006KT 9999 SCT017 BKN200 31/26 Q1013 A29/91

2010/08/09 17:00
MNPC 091700Z 08010KT 6000 VCRA BKN018TCU 30/26 Q1012 TCURA/W

2010/08/09 17:00
MNPC 091700Z 080HVH936 091700 GG MUHAYMYX MYNNYMYX SBBRYZYX SKZZMAMX SPZZMAMX SUMIYMYX SVZZMAMX TJSJYMYX TNCCYMYX KWBCYMYX KWBCYZYX MDSDYMYX EGZZMCAR 091657 MNMGYMYX SANK31 MNMG 091657Z METAR METAR MNPC 091700Z 08010KT 6000 VCRA BKN018TCU 30/26 Q1012 TCURA/W

2010/08/09 17:00
MNPC 091700Z 08010KT 6000 VCRA BKN018TCU 30/26 Q1012 TCURA/W

2010/08/09 17:00
MNPC 091700Z 080HVH936 091700 GG MUHAYMYX MYNNYMYX SBBRYZYX SKZZMAMX SPZZMAMX SUMIYMYX SVZZMAMX TJSJYMYX TNCCYMYX KWBCYMYX KWBCYZYX MDSDYMYX EGZZMCAR 091657 MNMGYMYX SANK31 MNMG 091657Z METAR METAR MNPC 091700Z 08010KT 6000 VCRA BKN018TCU 30/26 Q1012 TCURA/W

2010/08/09 17:00
TDCF 091700Z 00000KT 9999 SCT020 SCT240 31/24 Q1014

2010/08/09 17:00
ZSAM 091700Z 27002MPS CAVOK 29/23 Q1004 NOSIG

2010/08/09 17:00
CYAW 091700Z 18010G15KT 15SM FEW020 SCT250 22/17 A3004 RMK CF1CI2 DA+1057FT SLP175

2010/08/09 17:00
CYBG 091700Z 25008KT 20SM FEW040 SCT120 26/14 A2983 RMK CU2AC1 MDT CU SLP104

2010/08/09 17:00
CYDQ 091700Z AUTO 26013KT 9SM CLR 19/05 A2977 RMK SLP086 DENSITY ALT 3200FT MAX WND 24018KT AT 1638Z

2010/08/09 17:00
CYEG 091700Z 16004KT 15SM FEW028 FEW160 BKN260 20/13 A2983 RMK CU1AC1CI1 TR CU+AC SLP103

2010/08/09 17:00
CYFB 091700Z 04007KT 30SM -RA SCT023 OVC056 14/09 A2979 RMK SC4SC4 SLP090

2010/08/09 17:00
CYFC 091700Z AUTO 20008KT 2 1/2SM -RA BR BKN009 OVC012 20/19 A2990 RMK SLP125 DENSITY ALT 600FT PCPN 0.8MM PAST HR VIS VRB 2 1/4-3 RVR MISG

2010/08/09 17:00
CYFT 091700Z 26006KT 15SM -RA BKN030 OVC075 17/12 A2957 RMK SC6AC1 SLP016

2010/08/09 17:00
CYGL 091700Z 29010KT 15SM -DZ OVC005 11/09 A2981 RMK ST8 -DZ INTMT SLP102

2010/08/09 17:00
CYHZ 091700Z 18018KT 15SM FEW300 24/15 A3003 RMK CI2 SLP170

2010/08/09 17:00
CYJT 091700Z 23014G25KT 15SM SCT050 BKN100 OVC220 20/16 A2997 RMK SC3AC4CI1 SLP150

2010/08/09 17:00
CYKL 091700Z AUTO 29010KT 250V310 9SM BKN033 BKN057 BKN065 OVC083 14/07 A2958 RMK SLP030

2010/08/09 17:00
CYMH 091700Z 21022G28KT 15SM -RA SCT018 BKN071 BKN220 20/15 A2971 RMK CU3AC3CI1 SLP061

2010/08/09 17:00
CYMX 091700Z 19006KT 25SM SCT025 25/18 A2992 RMK CU3 SLP132

2010/08/09 17:00
CYOW 091700Z 29003KT 15SM FEW023 FEW050 BKN090 OVC240 25/20 A2993 RMK CU1CU2AC3CI2 SLP134

2010/08/09 17:00
CYPL 091700Z 36002KT 15SM FEW040 FEW250 25/14 A2988 RMK CU1CI0 SLP121

2010/08/09 17:00
CYQB 091700Z 23009KT 20SM FEW020 SCT250 23/19 A2989 RMK CU2CI0 SLP120

2010/08/09 17:00
CYQG 091700Z 25009KT 6SM HZ SCT170 OVC260 28/21 A2996 RMK AC4CS4 SLP142

2010/08/09 17:00
CYQM 091700Z 16007KT 15SM FEW015 BKN040 OVC100 19/18 A2994 RMK SC2SC5AC2 SLP138

2010/08/09 17:00
CYQQ 091700Z 33005KT 15SM -SHRA SCT050 BKN080 15/11 A2997 RMK SC4AC3 SLP148

2010/08/09 17:00
CYQX 091700Z 21011G17KT 15SM FEW030 BKN094 BKN180 BKN260 22/15 A3000 RMK CF1AC4AS1CS1 SLP161

2010/08/09 17:00
CYQY 091700Z 23011KT 15SM FEW120 BKN210 OVC240 24/14 A3004 RMK AC2CS4CI1 SLP174

2010/08/09 17:00
CYRB 091700Z 09005KT 8SM -DZ SCT008 BKN014 OVC080 07/07 A2985 RMK SF3SC3AS2 SLP115

2010/08/09 17:00
CYSJ 091700Z 20018G29KT 12SM OVC014 20/14 A2995 RMK SC8 SLP142

2010/08/09 17:00
CYTE 091700Z 09002KT 15SM FEW045 BKN097 16/09 A2982 RMK SC2AC5 SLP101

2010/08/09 17:00
CYTR 091700Z 21010KT 6SM HZ BKN070 26/17 A2991 RMK AC7 SLP130

2010/08/09 17:00
CYUL 091700Z 26006KT 15SM SCT015 BKN030 BKN210 24/19 A2992 RMK CF4SC1CI1 SLP131

2010/08/09 17:00
CYUY 091700Z 27004KT 15SM FEW045 FEW160 FEW220 25/13 A2991 RMK CF1AC1CI0 SLP131

2010/08/09 17:00
CYVP 091700Z 01011G16KT 15SM FEW020 BKN090 13/08 A2962 RMK SC1AC6 SLP031

2010/08/09 17:00
CYVR 091700Z 12004KT 15SM BKN016 BKN033 OVC064 16/11 A2995 RMK SC6SC1SC1 SLP142

2010/08/09 17:00
CYWG 091700Z 16006KT 15SM SKC 30/20 A2983 RMK SLP099

2010/08/09 17:00
CYWK 091700Z 25010G15KT 15SM VCSH BKN019 BKN030 OVC040 13/10 A2969 RMK CU5SC2SC2 SLP065

2010/08/09 17:00
CYXU 091700Z 25006KT 7SM -SHRA SCT022 BKN045 OVC070 26/22 A2997 RMK SF3SC4AC1 TCU ASCTD SLP145

2010/08/09 17:00
CYXX 091700Z 23005KT 10SM SCT020 OVC040 16/10 A2995 RMK SC3SC5 CVCTV CLD ASOCTD SLP142

2010/08/09 17:00
CYXY 091700Z 14014G22KT 40SM FEW028 SCT170 BKN250 13/06 A2983 RMK CU1AC2CI3 SLP116

2010/08/09 17:00
CYYC 091700Z 18002KT 40SM FEW044 FEW110 BKN260 20/09 A2987 RMK CU1AC1CI1 ACSL SW SLP114

2010/08/09 17:00
CYYJ 091700Z 11002KT 20SM FEW016 BKN059 OVC220 16/13 A2996 RMK SC1SC6CS2 SLP145

2010/08/09 17:00
CYYQ 091700Z 05009KT 15SM FEW010 14/11 A2999 RMK SC2 SLP158

2010/08/09 17:00
CYYR 091700Z 26016KT 15SM SCT034 BKN051 BKN090 20/13 A2961 RMK CU3SC3AC1 SLP027

2010/08/09 17:00
CYYT 091700Z 25014G20KT 15SM SCT038 SCT160 BKN230 22/15 A3012 RMK SC3AC1CI2 SLP201

2010/08/09 17:00
CYYZ 091700Z 22008KT 10SM BKN075 OVC095 28/22 A2992 RMK AC6AC1 SLP131

2010/08/09 17:00
CYZF 091700Z 15008KT 15SM FEW016 BKN029 BKN210 19/14 A2969 RMK CF1SC5CI0 CIG RAG SLP059

2010/08/09 17:00
CYOW 091700Z CCA 29003KT 15SM FEW023 FEW050 BKN090 OVC240 25/20 A2993 RMK CU1CU2AC3CI2 TCU ASOCTD SLP134

2010/08/09 17:00
CYZV 091700Z 22013KT 30SM FEW060 FEW160 20/16 A2973 RMK CU2AC1 SLP069

2010/08/09 17:00
CYZX 091700Z 21009G16KT 15SM FEW040 OVC092 25/16 A2997 RMK CU1AC8 WNDY HILL 19010KT SLP148

2010/08/09 17:00
CYZY 091700Z AUTO 14007KT 9SM BKN061 16/08 A2984 RMK SLP114 DENSITY ALT 2900FT

2010/08/09 17:00
CZBF 091700Z 22008KT 170V250 12SM BKN030 BKN120 BKN210 23/17 A2984 RMK SC5AC2CI1 SLP105

2010/08/09 17:00
EPSC 091700Z 01006KT CAVOK 21/16 Q1015

2010/08/09 17:00
UKBB 091700Z 28003MPS 9999 FEW040CB 28/14 Q1013 88CLRD95 NOSIG

2010/08/09 17:00
UKKK 091700Z 31005MPS 9000 FEW033CB BKN100 28/14 Q1014 RETS 26CLRD70 TEMPO VRB12G17MPS 2000 TSRAGR BKN020CB

2010/08/09 17:00
UKOO 091700Z 04004MPS 350V080 5000 FU NSC 32/18 Q1011 16090070 NOSIG

2010/08/09 17:00
LRAR 091700Z 35004KT CAVOK 25/16 Q1016

2010/08/09 17:00
LRTC 091700Z AUTO 34012KT 9999 NCD 28/21 Q1010

2010/08/09 17:00
LRTM 091700Z VRB02KT 9999 FEW050 23/20 Q1015

2010/08/09 17:00
LKMT 091700Z 14004KT 110V190 CAVOK 20/15 Q1016 NOSIG RMK REG QNH 1012

2010/08/09 17:00
LKPR 091700Z 26005KT CAVOK 21/13 Q1017 NOSIG RMK REG QNH 1012

2010/08/09 17:00
LKTB 091700Z 32004KT 9999 FEW044 23/12 Q1016 NOSIG RMK REG QNH 1012

2010/08/09 17:00
LPAZ 091700Z 03011KT 9999 SCT018 BKN032 22/17 Q1020

2010/08/09 17:00
LPFR 091700Z VRB03KT CAVOK 32/18 Q1013

2010/08/09 17:00
LPPD 091700Z 04011KT 350V070 9999 FEW018 BKN040 23/15 Q1020

2010/08/09 17:00
LPPR 091700Z 32006KT 290V350 CAVOK 30/15 Q1015

2010/08/09 17:00
LPPS 091700Z 36011KT 9999 SCT015 SCT030 24/19 Q1014

2010/08/09 17:00
LPPT 091700Z 28010KT 240V310 CAVOK 37/12 Q1013 NOSIG

2010/08/09 17:00
LFVP 091700Z 22014KT CAVOK 20/16 Q1019 NOSIG

2010/08/09 17:00
GQPP 091700Z 31016KT CAVOK 24/19 Q1011 NOSIG

2010/08/09 16:50
LGMK 091650Z 36018KT CAVOK 27/19 Q1007

2010/08/09 17:00
FIMR 091700Z 10018G30KT 9999 SCT018 BKN050 22/13 Q1025

2010/08/09 17:00
FMEE 091700Z 13014KT 9999 FEW026 21/16 Q1023 NOSIG

2010/08/09 16:50
LIBC 091650Z VRB03KT CAVOK 30/15 Q1014 RMK VIS MIN 9999

2010/08/09 16:50
LIBD 091650Z 02005KT 330V050 CAVOK 27/16 Q1013 RMK VIS MIN 9999

2010/08/09 16:50
LIBP 091650Z VRB01KT 9999 SCT080 26/17 Q1014 RMK VIS MIN 9999

2010/08/09 16:50
LICA 091650Z 27011KT 9999 SCT020 26/20 Q1015 RMK VIS MIN 9999

2010/08/09 16:50
LICC 091650Z 06014KT CAVOK 28/21 Q1013 RMK VIS MIN 9999

2010/08/09 16:55
LICG 091655Z 36008KT CAVOK 25/23 Q1017 RMK SKC VIS MIN 9999 WIND THR08 ///05KT WIND THR21 36006KT BLU

2010/08/09 16:50
LICJ 091650Z 03010KT CAVOK 27/20 Q1016 RMK VIS MIN 9999

2010/08/09 16:50
LICR 091650Z 35002G15KT 9999 FEW030 27/18 Q1015 RMK VIS MIN 9999

2010/08/09 16:55
LICT 091655Z 33011KT CAVOK 28/22 Q1015 RMK SKC VIS MIN 9999 WIND THR13 32008KT BLU

2010/08/09 16:50
LIEA 091650Z VRB02KT CAVOK 25/15 Q1016 RMK VIS MIN 9999

2010/08/09 16:50
LIEO 091650Z 08006KT 050V130 9999 FEW050 27/20 Q1015 RMK VIS MIN 9999

2010/08/09 16:50
LIMG 091650Z 04005KT 9999 BKN030 25/18 Q1015 RMK VIS MIN 9999

2010/08/09 16:45
LIBR 091645Z 32018KT CAVOK 26/22 Q1014 NOSIG RMK SKC VIS MIN 9999 WIND THR13 WIND THR31 30013KT BLU

2010/08/09 16:45
LIPH 091645Z 19005KT CAVOK 28/20 Q1014 RMK SKC VIS MIN 9999 WIND THR07 /////KT BLU

2010/08/09 16:45
LIPR 091645Z 09007KT CAVOK 27/21 Q1014 RMK SKC VIS MIN 9999 WIND THR31 10006KT BLU

2010/08/09 16:45
LIPX 091645Z 17002KT 9999 FEW040 30/17 Q1014 RMK FEW VIS MIN 9999 BLU

2010/08/09 16:50
LIPB 091650Z 15009KT CAVOK 29/16 Q1013 RMK MON LIB VIS MIN 9999

2010/08/09 16:50
LIPO 091650Z 24004KT 9999 FEW060 28/17 Q1013 RMK VIS MIN 9999

2010/08/09 16:50
LIPY 091650Z 03006KT CAVOK 26/19 Q1014 RMK VIS MIN 9999

2010/08/09 16:50
LIRZ 091650Z 29007KT 9999 FEW035 30/14 Q1014 RMK VIS MIN 9999

2010/08/09 16:55
LIBA 091655Z 12004KT CAVOK 30/19 Q1013 RMK SKC VIS MIN 9999 WIND THR29 12003KT BLU

2010/08/09 16:50
LIBG 091650Z 01013KT 350V050 CAVOK 30/10 Q1012 RMK VIS MIN 9999

2010/08/09 16:55
LIBN 091655Z 35015KT CAVOK 28/11 Q1013 RMK SKC VIS MIN 9999 WIND THR14 35015KT BLU

2010/08/09 16:55
LIBV 091655Z 02012KT CAVOK 28/12 Q1013 RMK SKC VIS MIN 9999 WIND THR14 01011KT BLU

2010/08/09 16:50
LICD 091650Z 35007KT CAVOK 26/20 Q1015 RMK VIS MIN 9999

2010/08/09 16:55
LICZ 091655Z 10013KT CAVOK 29/20 Q1013 RMK SKC VIS MIN 9999 WIND THR28 /////KT BLU

2010/08/09 16:55
LIED 091655Z 29004KT CAVOK 30/04 Q1015 RMK BKN BKN070 SCT080 VIS MIN 9999 BLU

2010/08/09 16:55
LIMN 091655Z 27005KT 230V290 CAVOK 27/15 Q1014 RMK FEW FEW200 VIS MIN 9999 BLU

2010/08/09 16:55
LIMS 091655Z 09004KT 9999 SCT050 28/19 Q1014 RMK SCT VIS MIN 9999 WIND THR30 09004KT BLU

2010/08/09 16:55
LIMU 091655Z 24010KT 9999 FEW013 25/23 Q1017 RMK BKN QUK 2 QUL 1 S VIS MAR 30 KM VIS MIN 9999

2010/08/09 16:55
LIMY 091655Z /////KT 9999 SCT022 24/16 Q1016 RMK BKN VAL FOSCHIA VIS MIN 9999W

2010/08/09 16:55
LIPA 091655Z 22004KT 9999 FEW040 28/19 Q1014 RMK FEW VIS MIN 9999 A2995 BLU

2010/08/09 16:55
LIPC 091655Z 14007KT CAVOK 28/17 Q1014 RMK SKC VIS MIN 9999 WIND THR12 12007KT BLU

2010/08/09 16:55
LIPF 091655Z 00000KT 9999 FEW040 29/21 Q1014 RMK SCT SCT240 VIS MIN 9999

2010/08/09 16:55
LIPL 091655Z 21002KT 9999 FEW040 30/20 Q1014 RMK FEW VIS MIN 9999 BLK BLU

2010/08/09 16:55
LIPS 091655Z 19005KT CAVOK 28/18 Q1014 RMK SKC VIS MIN 9999 BLU

2010/08/09 16:50
LIQN 091650Z 33005KT 9999 FEW040 30/14 Q1016 RMK VIS MIN 9999

2010/08/09 16:55
LIQW 091655Z 12001KT 9999 FEW030 25/18 Q1016 RMK FEW VIS MIN 9999 BLU

2010/08/09 16:55
LIRE 091655Z 28012KT CAVOK 26/23 Q1015 RMK SKC VIS MIN 9999 WIND THR31 28011KT BLU

2010/08/09 16:55
LIRG 091655Z 24010KT CAVOK 30/14 Q1015 RMK FEW FEW230 MON NE LIB NC VIS MIN 9999 BLU

2010/08/09 16:55
LIRH 091655Z 34005KT CAVOK 31/15 Q1015 RMK SKC MON LIB NC VIS MIN 9999 WIND THR16 33010KT BLU

2010/08/09 16:55
LIRL 091655Z 26008KT CAVOK 29/17 Q1015 RMK FEW FEW200 MON LIB NC VIS MIN 9999 BLU

2010/08/09 16:55
LIRS 091655Z 24008KT 9999 FEW025 29/11 Q1015 RMK SCT SCT200 VIS MIN 9999 WIND THR21 /////KT BLU

2010/08/09 16:50
LIRU 091650Z 27007KT CAVOK 31/18 Q1014 RMK VIS MIN 9999

2010/08/09 16:55
LIRV 091655Z 24012KT CAVOK 27/12 Q1016 RMK SCT SCT200 MON E SE LIB NC VIS MIN 9999 BLU

2010/08/09 16:55
LIRX 091655Z 36003KT CAVOK 24/18 Q1016 RMK SCT FEW060 SCT200 VIS MIN 9999N VIS MAR 18 KM

2010/08/09 16:50
LIRZ 091650Z 29007KT 9999 FEW035 30/14 Q1014 RMK VIS MIN 9999

2010/08/09 16:55
LIVC 091655Z 03008KT 0100 FG VV001 13/12 Q1025 RMK MON INVIS VAL INVIS VIS MIN 0100

2010/08/09 16:55
LIVD 091655Z 11003KT 9999 FEW030 22/09 Q1018 RMK FEW VIS MIN 9999

2010/08/09 16:55
LIVE 091655Z 00000KT CAVOK 19/07 Q1018 RMK SKC VIS MIN 9999

2010/08/09 16:55
LIVO 091655Z 10003KT 9999 SCT030 21/15 Q1017 RMK SCT VIS MIN 9999

2010/08/09 16:55
LIVR 091655Z 13012KT 9999 BKN010 14/14 Q1023 RMK BKN MON CLD SCT VIS MIN 9999

2010/08/09 16:55
LIVT 091655Z 23002KT CAVOK 26/20 Q1014 RMK SKC QUK 1 QUL 0 VIS MAR 20 KM VIS MIN 9999

2010/08/09 16:45
LIPX 091645Z 17002KT 9999 FEW040 30/17 Q1014 RMK FEW VIS MIN 9999 BLU

2010/08/09 17:00
RJAA 091700Z 17004KT 9999 FEW020 23/22 Q1015 NOSIG RMK 1CU020 A2999

2010/08/09 17:00
RJCC 091700Z 15005KT 2500 BR FEW001 BKN002 21/20 Q1014 RMK 2ST001 7ST002 A2996

2010/08/09 16:48
MMTC 091648Z 00000KT 15SM SCT200 30/14 A3007 RMK 8/002

2010/08/09 16:55
MMCS 091655Z 20010KT 10SM FEW100 SCT250 31/15 A3008 RMK 8/035

2010/08/09 16:53
MMNL 091653Z 18008KT 12SM SKC 32/23 A2994 RMK ISOL CU

2010/08/09 16:50
MMRX 091650Z 17010KT 8SM BKN025 34/25 A2993 RMK 8/500 HZY

2010/08/09 17:00
LPAZ 091700Z 03011KT 9999 SCT018 BKN032 22/17 Q1020

2010/08/09 17:00
LPFL 091700Z 09003KT 020V160 9999 FEW020 24/18 Q1023

2010/08/09 17:00
LPFR 091700Z VRB03KT CAVOK 32/18 Q1013

2010/08/09 17:00
LPHR 091700Z 05010KT 010V070 9999 FEW016 26/14 Q1021

2010/08/09 17:00
LPMA 091700Z 21008KT 9999 FEW013 24/19 Q1014 RS17006KT 0520006KT 2322007KT

2010/08/09 17:00
LPPD 091700Z 04011KT 350V070 9999 FEW018 BKN040 23/15 Q1020

2010/08/09 17:00
LPPR 091700Z 32006KT 290V350 CAVOK 30/15 Q1015

2010/08/09 17:00
LPPS 091700Z 36011KT 9999 SCT015 SCT030 24/19 Q1014

2010/08/09 17:00
LPPT 091700Z 28010KT 240V310 CAVOK 37/12 Q1013 NOSIG

2010/08/09 17:00
UAAA 091700Z 22005MPS 9999 VCTS SCT050CB BKN100 23/08 Q1009 88CLRD65 TEMPO TS

2010/08/09 17:00
UACC 091700Z 02004MPS CAVOK 13/05 Q1013 040/0070 NOSIG RMK QFE729/0972

2010/08/09 17:00
UAFM 091700Z 19004MPS CAVOK 25/07 Q1009 NOSIG

2010/08/09 17:00
UARR 091700Z 35002MPS CAVOK 28/03 Q1015 04CLRD70 NOSIG RMK QFE758/1010

2010/08/09 17:00
UATE 091700Z 11005MPS CAVOK 32/07 Q1010 120///70 NOSIG RMK QFE755/1007

2010/08/09 17:00
UATG 091700Z 28003MPS 9999 FEW033CB SCT133 31/10 Q1011 14CLRD70 NOSIG RMK QFE760/1014

2010/08/09 17:00
UATT 091700Z 06005MPS 6000 FU SKC 28/07 Q1016 31CLRD70 NOSIG RMK QFE742/0989

2010/08/09 17:00
UTAA 091700Z 00000MPS 9000 SKC 32/03 Q1008 NOSIG

2010/08/09 17:00
UTAK 091700Z 32004MPS 6000 SCT100 30/20 Q1008 NOSIG

2010/08/09 17:00
UTAT 091700Z 32002MPS P5000 FEW200 28/12 Q1008 NOSIG

2010/08/09 17:00
UTDD 091700Z 10003MPS 9999 FEW200 26/08 Q1005 09CLRD70 NOSIG RMK QFE687/0916

2010/08/09 17:00
UTDL 091700Z 23004MPS 9999 BKN140 29/09 Q1005 NOSIG RMK QFE716 8809//70

2010/08/09 17:00
UTAM 091700Z 30004MPS 6300 SKC 30/08 Q1005 NOSIG

2010/08/09 17:00
SEGU 091700Z 22007KT 190V270 9999 BKN023 BKN100 26/19 Q1013 NOSIG

2010/08/09 17:00
SEQU 091700Z 15013KT 9999 SCT040 19/02 Q1028 RMK A3038 NOSIG

2010/08/09 17:00
SPQT 091700Z /////KT 8000 FEW020 SCT100 31/23 Q1015 NOSIG RMK BRUMOSO BIRD HAZARD RWY 06/24 PP000

2010/08/09 17:00
SPQU 091700Z 23009KT 160V290 CAVOK 19/M13 Q1028 NOSIG RMK PP000

2010/08/09 17:00
SPSO 091700Z 27007KT 6000 SCT014 20/14 Q1018 RMK BIRDS HAZARD RWY 22/04 W PP000

2010/08/09 17:00
SPTN 091700Z VRB04KT CAVOK 18/09 Q1014 RMK PP000

2010/08/09 17:00
SPZO 091700Z VRB02KT 9999 SKC 19/M20 Q1033 NOSIG RMK PP000

2010/08/09 17:00
SVMC 091700Z 36003KT 9999 FEW010 CB BKN013 32/27 Q1012

2010/08/09 16:50
LIBC 091650Z VRB03KT CAVOK 30/15 Q1014 RMK VIS MIN 9999

2010/08/09 16:55
LIBH 091655Z 36014KT CAVOK 33/15 Q1010 RMK SKC QUK 2 QUL 1 E VIS MAR 20 KM VIS MIN 9999

2010/08/09 16:55
LIBV 091655Z 02012KT CAVOK 28/12 Q1013 RMK SKC VIS MIN 9999 WIND THR14 01011KT BLU

2010/08/09 16:55
LIBY 091655Z 01017KT CAVOK 29/07 Q1012 RMK SKC QUK 3 QUL 1 N VIS MAR 20 KM VIS MIN 9999

2010/08/09 16:55
LICF 091655Z 04006KT 9999 FEW035 27/23 Q1015 RMK FEW QUK 2 QUL 0 VIS MAR 18 KM MON LIB NC VIS MIN 9999

2010/08/09 16:55
LICL 091655Z 22005KT CAVOK 25/22 Q1014 RMK SKC QUK 1 QUL 0 VIS MAR 15 KM VIS MIN 9999

2010/08/09 16:50
LIEA 091650Z VRB02KT CAVOK 25/15 Q1016 RMK VIS MIN 9999

2010/08/09 16:55
LIEE 091655Z 09007KT CAVOK 27/17 Q1015 RMK BKN BKN090 VIS MIN 9999 WIND THR14 09006KT BLU

2010/08/09 16:50
LIEO 091650Z 08006KT 050V130 9999 FEW050 27/20 Q1015 RMK VIS MIN 9999

2010/08/09 16:50
LIQN 091650Z 33005KT 9999 FEW040 30/14 Q1016 RMK VIS MIN 9999

2010/08/09 16:55
LIRM 091655Z 27010KT 9999 FEW040 30/29 Q1016 RMK FEW VIS MIN 9999 WIND THR06 24010KT BLU

2010/08/09 16:50
LIRZ 091650Z 29007KT 9999 FEW035 30/14 Q1014 RMK VIS MIN 9999

2010/08/09 17:00
LPFR 091700Z VRB03KT CAVOK 32/18 Q1013

2010/08/09 17:00
LPPR 091700Z 32006KT 290V350 CAVOK 30/15 Q1015

2010/08/09 17:00
LPPS 091700Z 36011KT 9999 SCT015 SCT030 24/19 Q1014

2010/08/09 17:00
LPPT 091700Z 28010KT 240V310 CAVOK 37/12 Q1013 NOSIG

2010/08/09 17:00
SACO 091700Z 05015KT CAVOK 16/02 Q1025

2010/08/09 17:00
SARE 091700Z 14006KT 9999 FEW025 SCT200 18/05 Q1023

2010/08/09 17:00
SAVC 091700Z 27018G31KT CAVOK 16/M01 Q1015

2010/08/09 17:00
SAWE 091700Z 25030KT 9999 FEW011 04/M02 Q0998

2010/08/09 17:00
SAZM 091700Z 29006KT CAVOK 15/04 Q1023

2010/08/09 17:00
SBBG 091700Z 14007KT CAVOK 15/04 Q1025

2010/08/09 17:00
SBJP 091700Z 18012KT 9999 FEW012 BKN018 BKN070 27/23 Q1015

2010/08/09 17:00
SBKP 091700Z 21006KT 9000 NSC 27/11 Q1020

2010/08/09 17:00
SCAP 091700Z 27008KT 9999 BKN040 11/08 Q1028

2010/08/09 17:00
SPHI 091700Z 21008KT CAVOK 22/14 Q1017 RMK PP000

2010/08/09 17:00
SPQT 091700Z /////KT 8000 FEW020 SCT100 31/23 Q1015 NOSIG RMK BRUMOSO BIRD HAZARD RWY 06/24 PP000

2010/08/09 17:00
SPQU 091700Z 23009KT 160V290 CAVOK 19/M13 Q1028 NOSIG RMK PP000

2010/08/09 17:00
SPRU 091700Z 18010KT CAVOK 18/13 Q1014 RMK BIRD HAZARD RWY20 PP000

2010/08/09 17:00
SPSO 091700Z 27007KT 6000 SCT014 20/14 Q1018 RMK BIRDS HAZARD RWY 22/04 W PP000

2010/08/09 17:00
SPTN 091700Z VRB04KT CAVOK 18/09 Q1014 RMK PP000

2010/08/09 17:00
SPZO 091700Z VRB02KT 9999 SKC 19/M20 Q1033 NOSIG RMK PP000

2010/08/09 17:00
SUAA 091700Z 27008KT CAVOK 16/04 Q1024

2010/08/09 17:00
SUCA 091700Z 29009KT CAVOK 16/03 Q1023

2010/08/09 17:00
SULS 091700Z 24011KT CAVOK 15/04 Q1024

2010/08/09 17:00
SUMU 091700Z 25007KT CAVOK 17/01 Q1024 NOSIG

2010/08/09 17:00
SUSO 091700Z 12007KT CAVOK 17/02 Q1024

2010/08/09 17:00
SVCR 091700Z 00000KT 9999 SCT030 34/24 Q1011

2010/08/09 17:00
SVJC 091700Z 09006KT 9999 SCT040 33/22 Q1010

2010/08/09 17:00
SVLF 091700Z 00000KT CAVOK XX/XX Q1012

2010/08/09 17:00
SVMC 091700Z 36003KT 9999 FEW010 CB BKN013 32/27 Q1012

2010/08/09 17:00
SVMD 091700Z 22010KT 9999 SCT040 XX/XX Q1020

2010/08/09 17:00
SVSA 091700Z 16007KT 9999 FEW020 34/22 Q1014

2010/08/09 17:00
UKBB 091700Z 28003MPS 9999 FEW040CB 28/14 Q1013 88CLRD95 NOSIG

2010/08/09 17:00
UKCC 091700Z 05002MPS CAVOK 31/10 Q1012 08090070 NOSIG

2010/08/09 17:00
UKCW 091700Z 10003MPS CAVOK 29/08 Q1012 0909//70 NOSIG

2010/08/09 17:00
UKDD 091700Z 08004MPS CAVOK 30/12 Q1012 08090070 NOSIG

2010/08/09 17:00
UKDE 091700Z 05003MPS CAVOK 33/12 Q1011 02CLRD70 NOSIG

2010/08/09 17:00
UKDR 091700Z 14002MPS 9999 FEW033 31/13 Q1012 1809//70 NOSIG

2010/08/09 17:00
UKFF 091700Z 06005MPS CAVOK 30/11 Q1010 01010070 NOSIG

2010/08/09 17:00
UKHH 091700Z 07002MPS CAVOK 33/10 Q1013 080///65 NOSIG

2010/08/09 17:00
UKKK 091700Z 31005MPS 9000 FEW033CB BKN100 28/14 Q1014 RETS 26CLRD70 TEMPO VRB12G17MPS 2000 TSRAGR BKN020CB

2010/08/09 17:00
UKKM 091700Z 32005MPS 9999 TS FEW034CB BKN100 25/20 Q1014

2010/08/09 17:00
UKLN 091700Z VRB02MPS 9999 SCT033CB BKN100 24/18 Q1015 3309//70 TEMPO VRB12MPS -TSRA BKN030CB

2010/08/09 17:00
UKLU 091700Z 31005MPS 9999 VCTS SCT043CB SCT043 22/18 Q1016 10090070 TEMPO VRB12MPS -TSRA BKN020CB

2010/08/09 17:00
UKON 091700Z 05002MPS CAVOK 33/17 Q1010 05090075 NOSIG

2010/08/09 17:00
UKOO 091700Z 04004MPS 350V080 5000 FU NSC 32/18 Q1011 16090070 NOSIG

2010/08/09 17:00
SVPM 091700Z 18015KT 9999 SCT060 XX/XX Q1016

2010/08/09 17:00
SVSA 091700Z 16007KT 9999 FEW020 34/22 Q1014

2010/08/09 17:00
SVSZ 091700Z 00000KT 9999 BKN012 XX/XX Q1011

2010/08/09 17:00
LERT 091700Z 29008KT 260V330 CAVOK 31/20 Q1013 NOSIG

2010/08/09 16:55
LICZ 091655Z 10013KT CAVOK 29/20 Q1013 RMK SKC VIS MIN 9999 WIND THR28 /////KT BLU

2010/08/09 17:00
CWAE 091700Z 18009KT 15SM -RA FEW018 BKN040 OVC074 14/12 A2993 RMK SC2SC5AC1 WND ESTD SLP130

2010/08/09 17:00
CWCA 091700Z 22003KT 15SM OVC016 15/13 A2965 RMK SC8 SLP040

2010/08/09 17:00
CWCL 091700Z AUTO 01003KT 4SM -RA FEW010 OVC017 10/09 A2996 RMK SLP151

2010/08/09 17:00
CWEU 091700Z 27012KT 40SM FEW020 FEW035 FEW080 02/00 A3002 RMK SF1SC1AC1 SLP169

2010/08/09 17:00
CWFD 091700Z AUTO 36022G27KT 0SM 06/ RMK ALTM MISG

2010/08/09 17:00
CWHN 091700Z AUTO 21002KT 9SM FEW054 FEW069 FEW093 23/11 A2980 RMK SLP095

2010/08/09 17:00
CWIL 091700Z AUTO 17013KT 17/ A2984 RMK SLP111

2010/08/09 17:00
CWKM 091700Z AUTO 09012KT 09/ A2976 RMK SLP083

2010/08/09 17:00
CWKW 091700Z AUTO 32006KT 09/ A2965 RMK SLP059

2010/08/09 17:00
CWLI 091700Z AUTO 24008KT 08/ A2981 RMK SLP104

2010/08/09 17:00
CWLX 091700Z AUTO 06005KT 17/ A2985 RMK SLP120

2010/08/09 17:00
CWLY 091700Z AUTO 05003KT 9SM FEW032 FEW042 FEW048 FEW082 17/14 A2986 RMK SLP111

2010/08/09 17:00
CWOB 091700Z AUTO ///// 0SM CLR 04/ A2970 RMK SLP092

2010/08/09 17:00
CWRH 091700Z AUTO ///// 04/ A2974 RMK SLP099

2010/08/09 17:00
CWRX 091700Z AUTO 35005KT 14/ A2987

2010/08/09 17:00
CWSA 091700Z AUTO 15011KT 9SM FEW048 FEW070 FEW081 SCT098 20/17 A3011 RMK SLP197

2010/08/09 17:00
CWSW 091700Z 00000KT 20SM FEW050 SCT250 17/11 A2992 RMK CU2CI1 SLP130

2010/08/09 17:00
CWTU 091700Z AUTO 16026KT 10/ A2957 RMK SLP027

2010/08/09 17:00
CWUP 091700Z AUTO 36006KT 03/ A2990 RMK SLP147

2010/08/09 17:00
CWUW 091700Z AUTO ///// 9SM CLR 12/ A2987 RMK SLP140

2010/08/09 17:00
CWVD 091700Z AUTO ///// 05/ A2984 RMK SLP139

2010/08/09 17:00
CWVH 091700Z AUTO 15006KT 08/ A2978 RMK SLP100

2010/08/09 17:00
CWXR 091700Z AUTO 06004KT 08/ A2981 RMK SLP104

2010/08/09 17:00
CWYK 091700Z AUTO ///// 10/ A2954 RMK SLP024

2010/08/09 17:00
CWYM 091700Z AUTO 04017G22KT 06/ RMK ALTM MISG SLP111

2010/08/09 17:00
CWZZ 091700Z AUTO ///// 0SM CLR 07/ A2960 RMK SLP042

2010/08/09 17:00
CYAM 091700Z 17004KT 15SM BKN024 BKN036 26/20 A2989 RMK CU5SC2 SLP122

2010/08/09 17:00
CYAS 091700Z 02018G27KT 10SM BKN006 OVC020 08/06 A2974 RMK ST7SC1 CIG ESTD DUE STG WND SLP078

2010/08/09 17:00
CYAY 091700Z AUTO 25017G23KT 9SM SCT030 SCT037 OVC056 21/16 A2979 RMK SLP089 DENSITY ALT 900FT MAX WND 24030KT AT 1622Z

2010/08/09 17:00
CYAZ 091700Z 19003KT 1 1/2SM -DZ BR SCT002 OVC004 13/12 A2997 RMK SF3ST5 SLP150

2010/08/09 17:00
CYBB 091700Z 25005KT 15SM FEW100 SCT220 17/08 A2995 RMK AC1CI1 SLP144

2010/08/09 17:00
CYBC 091700Z AUTO 23017G22KT 9SM CLR 21/16 A2976 RMK SLP079

2010/08/09 17:00
CYBD 091700Z 29004KT 15SM FEW020 BKN065TCU BKN100 16/12 A2999 RMK SC1TCU5AC2 TR SC SLP155

2010/08/09 17:00
CYBK 091700Z 00000KT 20SM FEW030 16/09 A3000 RMK SC1 SLP160

2010/08/09 17:00
CYBL 091700Z 34006KT 30SM -SHRA FEW015 SCT080 BKN140 13/11 A2997 RMK SF1AC2AC2 SLP147

2010/08/09 17:00
CYBN 091700Z AUTO 24008KT 9SM FEW064 28/20 A2992 RMK SLP130

2010/08/09 17:00
CYBR 091700Z 00000KT 15SM BKN160 BKN250 26/19 A2983 RMK AC6CI0 SLP101

2010/08/09 17:00
CYBU 091700Z AUTO 26004KT 230V290 9SM FEW021 22/17 A2979 RMK SLP090 DENSITY ALT 2400FT

2010/08/09 17:00
CYBV 091700Z 21006KT 15SM FEW045 BKN280 BKN300 26/19 A2983 RMK SC1CC4CI1 SLP103

2010/08/09 17:00
CYBX 091700Z 22014G21KT 2SM BR OVC004 15/14 A2977 RMK FG2SF6 SLP083

2010/08/09 17:00
CYCB 091700Z 05009KT 15SM FEW005 16/13 A2982 RMK SF1 TR SF FU SLP100

2010/08/09 17:00
CYCD 091700Z 00000KT 30SM FEW012 BKN040 BKN160 OVC240 17/12 A2996 RMK SF1SC5AS2CI2 SLP144

2010/08/09 17:00
CYCO 091700Z 06004KT 3SM -DZ BR OVC005 10/10 A2980 RMK FG1ST7 BLN EST SLP091

2010/08/09 17:00
CYCP 091700Z 00000KT 1SM -RA BR BKN012 OVC050 13/12 A2991 RMK FG4ST2SC2 VIS VLY E 4 SLP132

2010/08/09 17:00
CYCQ 091700Z 20007KT 35SM FEW040 FEW100 FEW200 18/06 A2977 RMK CU1AC1CI0 SLP089

2010/08/09 17:00
CYCX 091700Z 19008KT 10SM -SHRA SCT007 OVC040 20/19 A2990 RMK SF4SC4 DA+1072FT SLP126

2010/08/09 17:00
CYCY 091700Z 14007KT 25SM FEW015 FEW070 09/06 A2993 RMK SF0AC1 SLP139

2010/08/09 17:00
CYDA 091700Z 00000KT 20SM FEW045 BKN065 BKN240 13/08 A2971 RMK CU1SC5CI1 CU TR SLP070

2010/08/09 17:00
CYDB 091700Z 13010KT 25SM FEW055 SCT080 BKN110 11/03 A2976 RMK SC2AC2AC4 SLP095

2010/08/09 17:00
CYDC 091700Z 00000KT 15SM OVC055 14/09 A2990 RMK SC7 SLP120

2010/08/09 17:00
CYDF 091700Z 23020G30KT 15SM SCT035 BKN110 BKN230 24/16 A2992 RMK SC3AC2CI0 SLP132

2010/08/09 17:00
CYDN 091700Z AUTO 13006KT 100V170 9SM CLR 29/17 A2978 RMK SLP083 DENSITY ALT 2900FT

2010/08/09 17:00
CYDP 091700Z 09013KT 15SM BKN028 OVC085 14/09 A2955 RMK SC6AC1 SLP008

2010/08/09 17:00
CYED 091700Z AUTO 00000KT 9SM CLR 21/11 A2982 RMK SLP098

2010/08/09 17:00
CYEK 091700Z 07004KT 15SM OVC070 12/11 A3003 RMK AS7 SLP168

2010/08/09 17:00
CYEL 091700Z 09004KT 10SM FEW015 SCT150 26/16 A2994 RMK CU1AC2 WNDS ESTD/ SLP136

2010/08/09 17:00
CYEN 091700Z 34010KT 15SM FEW140 BKN260 28/16 A2985 RMK AC1CI0 SLP104

2010/08/09 17:00
CYET 091700Z AUTO 11005KT 030V140 9SM FEW045 SCT098 17/11 A2982 RMK SLP098

2010/08/09 17:00
CYEV 091700Z 20006KT 15SM BKN010 10/08 A2979 RMK SC5 SLP093

2010/08/09 17:00
CYFO 091700Z 10004KT 15SM BKN009 OVC014 19/18 A2978 RMK SC6SC2 SLP087

2010/08/09 17:00
CYFR 091700Z 21003KT 15SM FEW020 FEW090 BKN270 18/14 A2970 RMK CF1AC1CI3 180V240 SLP063

2010/08/09 17:00
CYFS 091700Z 33011KT 15SM -RA OVC008 16/15 A2965 RMK SF8 CIG RAG SLP046

2010/08/09 17:00
CYGE 091700Z 15005KT 10SM SHRA BKN030 OVC070 15/14 A2988 RMK SC6AC2 SLP119

2010/08/09 17:00
CYGH 091700Z 34002KT 25SM BKN075 14/11 A2977 RMK AC6 SLP084

2010/08/09 17:00
CYGK 091700Z 17010KT 15SM FEW070 BKN200 24/22 A2993 RMK AC1CC4 SLP136

2010/08/09 17:00
CYGP 091700Z 23010G17KT 15SM BKN035 25/16 A2979 RMK CU6 SLP089

2010/08/09 17:00
CYGQ 091700Z 24004KT 190V340 15SM FEW110 25/16 A2987 RMK AC1 SLP116

2010/08/09 17:00
CYGR 091700Z 20012G18KT 20SM FEW080 BKN120 OVC230 20/16 A2995 RMK AC2AC4CI1 SLP141

2010/08/09 17:00
CYGT 091700Z 34008KT 15SM FEW020 17/07 A2991 RMK SC1 SLP132

2010/08/09 17:00
CYGV 091700Z AUTO 26011G19KT 9SM BKN010 BKN072 19/14 A2975 RMK SLP075

2010/08/09 17:00
CYGW 091700Z 29007KT 1SM BR OVC003 10/10 A2978 RMK SC8 BLN DSPARD 500FT SLP085

2010/08/09 17:00
CYGX 091700Z 00000KT 15SM SCT080 SCT200 18/08 A2995 RMK AS2CI0 SLP147

2010/08/09 17:00
CYHA 091700Z 36010KT 15SM MIFG FEW002 FEW007 OVC015 07/06 A2978 RMK SF2SF1SC5 U2A U/S SLP086

2010/08/09 17:00
CYHD 091700Z AUTO 23005KT 9SM FEW021 24/20 A2990 RMK SLP127

2010/08/09 17:00
CYHE 091700Z AUTO 28008KT 9SM BKN024 BKN047 OVC052 OVC059 17/14 A2991 RMK SLP130

2010/08/09 17:00
CYHH 091700Z 27010KT 10SM -SHRA OVC012 15/12 A2984 RMK SC8 SLP112

2010/08/09 17:00
CYHI 091700Z 09007KT 15SM VCSH FEW010 FEW015 BKN020 OVC030 10/08 A2985 RMK SF0SC1SC4ST1 SLP112

2010/08/09 17:00
CYHM 091700Z 21008KT 15SM FEW024 BKN070 OVC150 27/22 A2995 RMK SC2AC3AS3 SLP141

2010/08/09 17:00
CYHU 091700Z AUTO 24010KT 9SM BKN019 BKN024 25/21 A2991 RMK SLP129 DENSITY ALT 1200FT RVR MISG

2010/08/09 17:00
CYHY 091700Z 16012KT 15SM FEW015 SCT230 19/11 A2967 RMK SC2CI0 SLP050

2010/08/09 17:00
CYIK 091700Z 34005KT 15SM FEW018 FEW060 BKN130 BKN200 BKN300 12/06 A2987 RMK CU1SC1AC6CI1CC1 SLP116

2010/08/09 17:00
CYIO 091700Z 34002KT 30SM FEW025 FEW075 BKN140 OVC250 11/06 A2990 RMK SC1AC2AS3CI2 SLP129

2010/08/09 17:00
CYIV 091700Z 15006KT 15SM FEW050 SCT100 BKN250 21/13 A2990 RMK SC0AC0CI0 SLP129

2010/08/09 17:00
CYJF 091700Z 00000KT 7SM FEW007 OVC017 16/15 A2970 RMK SF2SC6 SLP060

2010/08/09 17:00
CYKA 091700Z 34003KT 40SM VCSH FEW051 BKN084 OVC220 18/13 A2986 RMK SC2AC5CI1 SLP109

2010/08/09 17:00
CYKD 091700Z 15003KT 10SM OVC013 11/09 A2978 RMK SC8 SLP087

2010/08/09 17:00
CYKF 091700Z AUTO 20008KT 7SM CLR 25/20 A2996 RMK SLP140 DENSITY ALT 2400FT

2010/08/09 17:00
CYKG 091700Z 35015G20KT 15SM BKN015 OVC090 10/07 A2979 RMK SC4AC3 SLP097

2010/08/09 17:00
CYKJ 091700Z AUTO 10007KT 6SM OVC007 16/15 A2976 RMK SLP090 DENSITY ALT 2300FT

2010/08/09 17:00
CYKO 091700Z 36016KT 15SM FEW019 FEW210 13/08 A2985 RMK CU1CI2 SLP110

2010/08/09 17:00
CYKQ 091700Z 28007KT 15SM FEW028 FEW290 21/14 A2983 RMK CU1CI0 SLP103

2010/08/09 17:00
CYKY 091700Z 00000KT 12SM FEW250 21/15 A2987 RMK CI0 SLP118

2010/08/09 17:00
CYKZ 091700Z 24005KT 12SM FEW030 BKN090 OVC120 28/20 A2992 RMK CU2AC3AS2 SLP130

2010/08/09 17:00
CYLD 091700Z 00000KT 15SM FEW035 26/14 A2992 RMK CU1 SLP132

2010/08/09 17:00
CYLJ 091700Z 00000KT 15SM FEW040 FEW250 23/14 A2980 RMK CU1CI1 SLP094

2010/08/09 17:00
CYLK 091700Z 08007KT 6SM FU BKN080 OVC210 21/14 A2970 RMK AC5CI0 SLP063

2010/08/09 17:00
CYLL 091700Z 17005KT 15SM FEW300 22/17 A2984 RMK CI1 SLP108

2010/08/09 17:00
CYLT 091700Z 30006KT 5SM -SN OVC010 M01/M02 A3001 RMK SF8 SLP167

2010/08/09 17:00
CYLU 091700Z 01009KT 10SM -RA BKN015 OVC025 14/12 A2958 RMK SF5SC2 SLP021

2010/08/09 17:00
CYLW 091700Z AUTO /////KT 21/09 A2984 RMK SLP102 DENSITY ALT 2500FT WND MISG CLD MISG WX MISG VIS MISG ICG MISG

2010/08/09 17:00
CYMA 091700Z 10002KT 20SM FEW045 FEW080 SCT090 BKN250 13/09 A2976 RMK SC1AC1AS2CI2 SLP090

2010/08/09 17:00
CYMJ 091700Z 32002KT 12SM FEW028 FEW280 23/16 A2988 RMK CF1CI0 SLP122

2010/08/09 17:00
CYMO 091700Z AUTO 31009KT 9SM FEW065 25/13 A2982 RMK SLP098

2010/08/09 17:00
CYMT 091700Z 27010G15KT 15SM BKN030 21/12 A2986 RMK CU5 SLP117

2010/08/09 17:00
CYMU 091700Z 19007KT 6SM BR FEW004 BKN006 10/10 A2974 RMK SF2SC6 SLP074

2010/08/09 17:00
CYNA 091700Z AUTO 25008KT 9SM FEW034 FEW047 FEW068 FEW081 20/14 A2978 RMK SLP085

2010/08/09 17:00
CYND 091700Z 20006KT 15SM FEW025 BKN250 26/18 A2992 RMK CU2CI2 SLP131

2010/08/09 17:00
CYNE 091700Z AUTO 10006KT 9SM FEW037 FEW049 FEW090 24/17 A2983 RMK SLP105

2010/08/09 17:00
CYNM 091700Z AUTO 26011KT 250V340 9SM FEW042 FEW062 25/11 A2985 RMK SLP113

2010/08/09 17:00
CYOA 091700Z 10013KT 3SM FU SKC 19/12 A2977 RMK SLP096

2010/08/09 17:00
CYOC 091700Z 05007KT 30SM FEW006 FEW032 SCT210 12/08 A2971 RMK SF1SC1CI0 SLP071

2010/08/09 17:00
CYOD 091700Z 18003KT 15SM FEW090 BKN250 22/15 A2981 RMK AC2CI0 SLP098

2010/08/09 17:00
CYOJ 091700Z 13007KT 15SM FEW028 FEW100 FEW200 18/11 A2970 RMK CF1AC1CI0 SLP065

2010/08/09 17:00
CYOY 091700Z AUTO 24008KT 180V280 9SM FEW019 FEW030 SCT073 24/17 A2987 RMK SLP117

2010/08/09 17:00
CYPA 091700Z 24007KT 15SM FEW028 24/16 A2980 RMK CU1 TR CU SLP094

2010/08/09 17:00
CYPC 091700Z 03003KT 6SM BR OVC004 08/08 A2981 RMK ST8 SLP095

2010/08/09 17:00
CYPE 091700Z 19007KT 15SM FEW080 SCT250 18/09 A2977 RMK AC1CI2 SLP085

2010/08/09 17:00
CYPG 091700Z 13007KT 100V180 12SM FEW045 FEW160 29/18 A2982 RMK CF1AC1 TR CF SLP098

2010/08/09 17:00
CYPH 091700Z 06009KT 15SM BKN025 BKN230 15/09 A2978 RMK SC6CI1 SLP085

2010/08/09 17:00
CYPQ 091700Z AUTO ///// 7SM FEW034 SCT043 BKN081 BKN099 25/22 A2992 RMK SLP132

2010/08/09 17:00
CYPR 091700Z AUTO /////KT 6SM SCT008 OVC024 13/12 A3001 RMK SLP164 WND MISG

2010/08/09 17:00
CYPW 091700Z 29008KT 25SM -SHRA FEW008 FEW035 BKN060 OVC080 14/12 A2997 RMK SF1SC1SC5AC2 SLP148

2010/08/09 17:00
CYPX 091700Z 03005KT 15SM BKN035 BKN140 16/07 A2981 RMK SC5AS1 SLP096

2010/08/09 17:00
CYPY 091700Z AUTO 00000KT 9SM CLR 20/13 A2973 RMK SLP072

2010/08/09 17:00
CYQA 091700Z AUTO 25003KT 8SM OVC018 25/21 A2993 RMK SLP134 DENSITY ALT 2200FT

2010/08/09 17:00
CYQD 091700Z 15005KT 15SM FEW007 BKN040 BKN070 21/19 A2979 RMK SF1SC5AC2 SLP090

2010/08/09 17:00
CYQF 091700Z 00000KT 15SM FEW025 FEW260 19/13 A2984 RMK CU1CI1 SLP110

2010/08/09 17:00
CYQH 091700Z 28009KT 30SM SCT035 BKN050 16/09 A2982 RMK SC2SC2 SLP108

2010/08/09 17:00
CYQI 091700Z 18012G21KT 15SM FEW025 BKN100 OVC250 20/16 A3002 RMK SC1AC7CI0 TR SC SLP167

2010/08/09 17:00
CYQK 091700Z 00000KT 15SM FEW018 SCT120 25/20 A2990 RMK CF1AC2 SLP124

2010/08/09 17:00
CYQL 091700Z 25007KT 40SM FEW050 FEW250 22/12 A2985 RMK CU1CI1 SLP104

2010/08/09 17:00
CYQR 091700Z 32005KT 15SM FEW024 22/17 A2988 RMK CF1 SLP119

2010/08/09 17:00
CYQT 091700Z 23004KT 20SM FEW030 27/20 A2986 RMK CU1 SLP113

2010/08/09 17:00
CYQU 091700Z 27010G15KT 25SM FEW040 FEW090 BKN250 18/06 A2980 RMK CU1AC2CI2 SLP097

2010/08/09 17:00
CYQV 091700Z AUTO 31008KT 9SM CLR 23/18 A2982 RMK SLP101

2010/08/09 17:00
CYQW 091700Z AUTO 22005KT 150V260 9SM CLR 22/16 A2986 RMK SLP113 DENSITY ALT 3000FT

2010/08/09 17:00
CYQZ 091700Z AUTO 16006KT 9SM OVC071 14/11 A2993 RMK SLP145 DENSITY ALT 2000FT

2010/08/09 17:00
CYRJ 091700Z 10005KT 20SM BKN030 23/16 A2983 RMK CU5 TCU ASOCTD SLP104

2010/08/09 17:00
CYRL 091700Z 18005KT 15SM FEW025 SCT240 24/17 A2989 RMK CU1CI2 SLP124

2010/08/09 17:00
CYRT 091700Z 00000KT 15SM BKN081 16/10 A3004 RMK AC6 SLP174

2010/08/09 17:00
CYRV 091700Z AUTO 23002KT 7SM -RA BKN016 BKN054 OVC079 16/15 A2985 RMK PCPN 1.0MM PAST HR SLP111

2010/08/09 17:00
CYSB 091700Z 20004KT 15SM FEW036 BKN120 25/17 A2995 RMK CU1AC2 SLP140

2010/08/09 17:00
CYSC 091700Z AUTO 23005KT 9SM FEW020 BKN028 OVC037 23/19 A2993 RMK DENSITY ALT 1800FT

2010/08/09 17:00
CYSF 091700Z AUTO 08011KT 3SM HZ SCT023 OVC049 17/14 A2977 RMK SLP089 DENSITY ALT 1300FT

2010/08/09 17:00
CYSK 091700Z 36012KT 15SM FEW005 13/09 A2978 RMK SF2 SLP087

2010/08/09 17:00
CYSL 091700Z 23003KT 15SM OVC038 21/17 A2988 RMK SC8 SLP120

2010/08/09 17:00
CYSM 091700Z 00000KT 15SM FEW015 FEW110 BKN220 18/14 A2973 RMK CF1AC1CS4 HALO SLP072

2010/08/09 17:00
CYSN 091700Z 20008KT 10SM BKN084 OVC100 27/21 A2993 RMK AC6AC2 SLP134

2010/08/09 17:00
CYSR 091700Z 15010KT 15SM VCFG FEW020 FEW040 BKN100 10/07 A2986 RMK ST1SC2AS5 VIS N 2 SLP146

2010/08/09 17:00
CYTQ 091700Z 03014KT 15SM BKN012 BKN050 BKN070 09/07 A2970 RMK SC6SC1AC1 SLP061

2010/08/09 17:00
CYTS 091700Z 27008KT 15SM FEW055 SCT160 28/12 A2988 RMK CU1AC2 SLP121

2010/08/09 17:00
CYTZ 091700Z AUTO 21009KT 9SM FEW091 23/19 A2991 RMK SLP129 DENSITY ALT 1200FT RVR MISG

2010/08/09 17:00
CYUA 091700Z AUTO 10005KT 9SM OVC007 OVC052 09/ A2976 RMK SLP083

2010/08/09 17:00
CYUB 091700Z 16005KT 15SM BKN007 BKN240 10/06 A2980 RMK SC5CI1 SLP091

2010/08/09 17:00
CYUS 091700Z AUTO ///// 9SM CLR 17/ A2993 RMK SLP138

2010/08/09 17:00
CYUT 091700Z 32007KT 45SM SKC 20/05 A2994 RMK SLP139

2010/08/09 17:00
CYVC 091700Z 25007KT 15SM FEW020 SCT250 22/16 A2976 RMK CU2CI2 SLP083

2010/08/09 17:00
CYVM 091700Z 02008KT 1 1/2SM -DZ BR OVC002 05/05 A2992 RMK FG6ST2 SLP132

2010/08/09 17:00
CYVO 091700Z 32003KT 15SM FEW053 FEW160 SCT270 25/13 A2991 RMK CU1AC1CI1 SLP131

2010/08/09 17:00
CYVQ 091700Z 30002KT 30SM FEW040 BKN090 BKN250 17/12 A2975 RMK SC2AC3CI2 SLP078

2010/08/09 17:00
CYVT 091700Z 06004KT 15SM FEW005 SCT012 SCT080 BKN220 20/17 A2976 RMK SF2SC2AC1CI1 SLP083

2010/08/09 17:00
CYVV 091700Z 24005KT 4SM SHRA BR OVC015 23/22 A2994 RMK SC8 CB EMBD SLP137

2010/08/09 17:00
CYWA 091700Z AUTO 11004KT 9SM CLR 24/19 A2992 RMK SLP133

2010/08/09 17:00
CYWH 091700Z 23004KT 15SM FEW005 BKN025 BKN060 14/11 A2996 RMK SF1SC6SC2 SLP146

2010/08/09 17:00
CYWJ 091700Z 30008KT 40SM FEW015 FEW050 BKN080 BKN120 15/12 A2971 RMK CF1SC2AC3AC1 SLP066

2010/08/09 17:00
CYWL 091700Z 00000KT 12SM -RA SCT006 OVC050 10/09 A2996 RMK SF3SC5 SLP148

2010/08/09 17:00
CYXC 091700Z 12005KT 25SM FEW050 SCT074 BKN100 BKN260 17/13 A2990 RMK CU2AC2AC1CI2 SLP121

2010/08/09 17:00
CYXD 091700Z AUTO 13002KT 9SM FEW079 22/10 A2981 RMK SLP091

2010/08/09 17:00
CYXE 091700Z 27007KT 15SM SKC 22/17 A2984 RMK SLP108

2010/08/09 17:00
CYXH 091700Z 25008KT 30SM FEW048 FEW270 24/11 A2985 RMK CF1CI0 SLP104

2010/08/09 17:00
CYXJ 091700Z 26010KT 15SM FEW100 FEW220 17/06 A2977 RMK AC1CI1 SLP087

2010/08/09 17:00
CYXL 091700Z 20002KT 15SM FEW040 FEW230 25/16 A2989 RMK CF1CI0 SLP124

2010/08/09 17:00
CYXN 091700Z 00000KT 15SM BKN050 12/08 A3004 RMK SC7 SLP174

2010/08/09 17:00
CYXP 091700Z 00000KT 12SM -RA FEW003 FEW020 OVC035 09/09 A2983 RMK ST1SC2SC6 CMPTR U/S TEMP DP WND QNH FM AWOS

2010/08/09 17:00
CYXQ 091700Z 00000KT 30SM FEW045 SCT075 BKN100 BKN230 10/08 A2971 RMK SC2AC2AC2CI1 SLP075

2010/08/09 17:00
CYXR 091700Z AUTO 08003KT 030V110 9SM FEW013 27/14 A2989 RMK SLP113

2010/08/09 17:00
CYXS 091700Z AUTO 21006KT 180V270 9SM FEW023 BKN066 14/09 A2990 RMK SLP137 DENSITY ALT 2600FT

2010/08/09 17:00
CYXT 091700Z 14002KT 20SM FEW015 SCT035 BKN060 BKN085 14/10 A3001 RMK CF2CU2SC2AC1 SLP167

2010/08/09 17:00
CYXZ 091700Z 24004KT 15SM BKN028 23/16 A2990 RMK SC6 SLP129

2010/08/09 17:00
CYYB 091700Z 00000KT 12SM FEW025 BKN200 25/15 A2995 RMK CU2CI3 SLP141

2010/08/09 17:00
CYYD 091700Z 29006KT 25SM FEW030 BKN060 14/07 A2995 RMK CU2SC3 SLP144

2010/08/09 17:00
CYYE 091700Z 30008KT 7SM -RA OVC012 14/09 A2970 RMK SC8 BR CIG RAG SLP064

2010/08/09 17:00
CYYF 091700Z 36004KT 15SM SCT075 BKN110 BKN240 22/09 A2984 RMK CU3AC2CI0 SLP101

2010/08/09 17:00
CYYG 091700Z 18010KT 15SM -SHRA BKN085 OVC120 22/17 A2998 RMK AC6AC2 PCPN VRY LGT SLP152

2010/08/09 17:00
CYIK 091700Z CCA 34005KT 15SM FEW018 FEW060 BKN130 BKN200 BKN300 12/06 A2987 RMK CU1SC1AC5CI1CC1 SLP116

2010/08/09 17:00
CYTH 091700Z CCA 11008G15KT 15SM SCT060 BKN230 20/10 A2990 RMK SC3CI2 TR ACC ASOCTD DIST S SLP130

2010/08/09 17:00
CYTH 091700Z CCB 10011KT 15SM BKN062 BKN230 20/10 A2990 RMK SC3CI1 SLP132

2010/08/09 17:00
CYVV 091700Z CCA 24005KT 4SM SHRA BR OVC015 23/22 A2994 RMK SC8 RETS CB EMBD SLP137

2010/08/09 17:00
CYYH 091700Z 18006KT 15SM FEW090 SCT250 15/09 A2991 RMK AC1CI0 SLP129

2010/08/09 17:00
CYYL 091700Z AUTO 11007KT 9SM OVC043 16/11 A2985 RMK SLP119 DENSITY ALT 1600FT

2010/08/09 17:00
CYYN 091700Z AUTO 30003KT 9SM CLR 22/13 A2990 RMK SLP118

2010/08/09 17:00
CYYU 091700Z 30004KT 15SM BKN140 24/16 A2989 RMK AC6 SLP124

2010/08/09 17:00
CYYY 091700Z 24014KT 15SM FEW040TCU BKN280 25/16 A2979 RMK TCU2CI1 SLP088

2010/08/09 17:00
CYZE 091700Z AUTO 22007KT 9SM CLR 25/20 A2992 RMK DENSITY ALT 1900FT

2010/08/09 17:00
CYZG 091700Z 00000KT 15SM FEW021 BKN068 BKN230 10/06 A2984 RMK SC2AC3CI1 SLP119

2010/08/09 17:00
CYZH 091700Z AUTO 32005KT 280V010 9SM CLR 18/09 A2981 RMK SLP099

2010/08/09 17:00
CYZP 091700Z AUTO 26008KT 9SM -RA BKN036 OVC076 15/13 A3002 RMK SLP167

2010/08/09 17:00
CYZR 091700Z AUTO 25006KT 220V290 9SM BKN061 BKN076 28/21 A2993 RMK SLP133 DENSITY ALT 2200FT

2010/08/09 17:00
CYZT 091700Z 36008KT 20SM FEW036 SCT140 16/10 A3002 RMK SC2AC2 SLP167

2010/08/09 17:00
CYZU 091700Z 00000KT 15SM FEW028 FEW110 SCT250 18/11 A2983 RMK CF1AC1CI1 SLP104

2010/08/09 17:00
CYZW 091700Z 17005KT 30SM FEW040 FEW170 FEW190 BKN250 13/06 A2989 RMK CF1AS2AC1CI1 SLP134

2010/08/09 17:00
CZCP 091700Z AUTO 06012KT 1SM CLR 06/ A2982 RMK SLP106

2010/08/09 17:00
CZFA 091700Z 00000KT 30SM FEW050 FEW090 BKN240 13/07 A2980 RMK CU1AC1CI4 CU TR SLP107

2010/08/09 17:00
CZFM 091700Z 15004KT 10SM FEW015 BKN020 12/09 A2978 RMK SC1SC5 SLP088

2010/08/09 17:00
CZFN 091700Z 22006KT 30SM FEW013 SCT040 BKN100 18/13 A2974 RMK SC1SC2AC3 SLP076

2010/08/09 17:00
CZPC 091700Z AUTO 23009KT 9SM CLR 21/10 A2989 RMK SLP108

2010/08/09 17:00
CZST 091700Z 00000KT 15SM FEW012 FEW018 BKN045 OVC065 14/12 A3000 RMK SC1SC2SC3SC2 SLP161

2010/08/09 17:00
CZUM 091700Z AUTO 25007KT 9SM -RA BKN023 OVC067 OVC089 15/13 A2962 RMK SLP042

2010/08/09 17:00
EPLL 091700Z 35002KT 9999 FEW050CB 20/16 Q1016 RETS

2010/08/09 17:00
FYML 091700Z AUTO 16006KT //// // ////// ///// Q1030

2010/08/09 17:00
LEGT 091700Z VRB04KT 9999 FEW050 34/13 Q1017

2010/08/09 17:00
LERI 091700Z 04008KT CAVOK 32/19 Q1014 NOSIG

2010/08/09 16:50
LIMP 091650Z 36005KT 330V030 CAVOK 28/17 Q1014 RMK VIS MIN 9999

2010/08/09 16:50
LIMZ 091650Z 10003KT 9999 SCT060 27/14 Q1016 RMK VIS MIN 9999

2010/08/09 16:55
LIRM 091655Z 27010KT 9999 FEW040 30/29 Q1016 RMK FEW VIS MIN 9999 WIND THR06 24010KT BLU

2010/08/09 17:00
LKKV 091700Z 27004KT CAVOK 18/13 Q1017 RMK REG QNH 1012

2010/08/09 17:00
MNBL 091700Z 08006KT 8000 -TS FEW016CB SCT080 HVH945 091700 FF MMIDZRZX 091655 MHLMZPZX (FPL-SLI675-IS -E145/M-SW/C -MHLM1845 -N0458F360 LMS BRITO UR644 AUR UA552 MTT UJ5 -MMMX0154 MMAA -EET/MMFR0044 REG/XAXLI)

2010/08/09 17:00
MNBL 091700Z 08006KT 8000 -TS FEW016CB SCT080 30/27 Q1012 CBRA/W/NW

2010/08/09 17:00
MNCH 091700Z 00000KT 9999 FEW025 SCT300 31/24 Q1012

2010/08/09 17:00
MNJG 091700Z 00000KT 9999 BKN019 24/20 Q1013

2010/08/09 17:00
MNJG 091700Z 00000KT 9999 CHECK TEXT NEW ENDING ADDED KATLYTAA

2010/08/09 17:00
MNJU 091700Z 06004KT 9999 FEW020 SCT080 29/24 Q1012

2010/08/09 17:00
MNRS 091700Z 06004KT 9999 FEW015CB BKN016 29/26 Q1012 CB/4C

2010/08/09 17:00
SLET 091700Z 17015G25KT 9999 NSC 24/06 Q1019

2010/08/09 17:00
SVVG 091700Z 00000KT 9999 SCT020 XX/XX Q1012

2010/08/09 17:00
TRPG 091700Z 08010KT 9999 SCT016 SCT040 28/25 Q1016

2010/08/09 17:00
UDYZ 091700Z 04007G14MPS 9999 SKC 30/09 Q1008 09010070 NOSIG

2010/08/09 17:00
PAPO 091700Z 02009KT 10SM CLR 12/09 A2951 RMK ASOS VIA PHONE

2010/08/09 17:00
UAKK 091700Z 01005MPS CAVOK 15/07 Q1011 050///70 NOSIG RMK QFE711/0949

2010/08/09 17:00
TFFF 091700Z 08010KT 030V120 9999 FEW016 SCT025 BKN280 32/25 Q1014 TEMPO -SHRA

2010/08/09 17:00
TTPP 091700Z ///08KT 6000 TS VCSH FEW007 FEW010CB BKN018 31/25 Q1013 NOSIG CB+JP-N'E E SW W'S W

2010/08/09 17:00
UAFO 091700Z 05002MPS 9999 SCT050CB BKN100 24/18 Q1014 NOSIG RMK QFEM681

2010/08/09 17:00
UMGG 091700Z 33006MPS 9999 TS BKN033CB BKN100 28/13 Q1014 R10/CLRD// NOSIG

2010/08/09 17:00
UMMM 091700Z 32003MPS 9999 SCT013 BKN100 20/18 Q1016 R30/290050 NOSIG RMK QFE743

2010/08/09 17:00
UMMS 091700Z 29003MPS 260V330 CAVOK 21/19 Q1016 R31/290060 NOSIG

2010/08/09 16:50
LIBF 091650Z 34010KT CAVOK 31/09 Q1013 RMK VIS MIN 9999

2010/08/09 16:50
LIEA 091650Z VRB02KT CAVOK 25/15 Q1016 RMK VIS MIN 9999

2010/08/09 16:55
LIED 091655Z 29004KT CAVOK 30/04 Q1015 RMK BKN BKN070 SCT080 VIS MIN 9999 BLU

2010/08/09 16:50
LIEO 091650Z 08006KT 050V130 9999 FEW050 27/20 Q1015 RMK VIS MIN 9999

2010/08/09 16:50
LIMA 091650Z 21003KT 9999 SCT035 29/15 Q1014 RMK VIS MIN 9999

2010/08/09 16:50
LIQN 091650Z 33005KT 9999 FEW040 30/14 Q1016 RMK VIS MIN 9999

2010/08/09 16:55
LIQW 091655Z 12001KT 9999 FEW030 25/18 Q1016 RMK FEW VIS MIN 9999 BLU

2010/08/09 16:55
LIRE 091655Z 28012KT CAVOK 26/23 Q1015 RMK SKC VIS MIN 9999 WIND THR31 28011KT BLU

2010/08/09 16:55
LIRG 091655Z 24010KT CAVOK 30/14 Q1015 RMK FEW FEW230 MON NE LIB NC VIS MIN 9999 BLU

2010/08/09 16:55
LIRH 091655Z 34005KT CAVOK 31/15 Q1015 RMK SKC MON LIB NC VIS MIN 9999 WIND THR16 33010KT BLU

2010/08/09 16:50
LIRI 091650Z 00000KT CAVOK 28/18 Q1014 RMK VIS MIN 9999

2010/08/09 16:55
LIRL 091655Z 26008KT CAVOK 29/17 Q1015 RMK FEW FEW200 MON LIB NC VIS MIN 9999 BLU

2010/08/09 16:55
LIRM 091655Z 27010KT 9999 FEW040 30/29 Q1016 RMK FEW VIS MIN 9999 WIND THR06 24010KT BLU

2010/08/09 16:55
LIRS 091655Z 24008KT 9999 FEW025 29/11 Q1015 RMK SCT SCT200 VIS MIN 9999 WIND THR21 /////KT BLU

2010/08/09 16:50
LIRU 091650Z 27007KT CAVOK 31/18 Q1014 RMK VIS MIN 9999

2010/08/09 16:55
LIRV 091655Z 24012KT CAVOK 27/12 Q1016 RMK SCT SCT200 MON E SE LIB NC VIS MIN 9999 BLU

2010/08/09 16:55
LIRX 091655Z 36003KT CAVOK 24/18 Q1016 RMK SCT FEW060 SCT200 VIS MI

2010/08/09 17:00
OMAA 091700Z 03007KT CAVOK 36/23 Q0996 A2943 NOSIG

2010/08/09 17:00
OMAD 091700Z 02008KT CAVOK 35/28 Q0997 A2944

2010/08/09 17:00
OMAL 091700Z 11003KT CAVOK 41/11 Q0999 A2950

2010/08/09 17:00
OMDB 091700Z 07004KT 020V110 CAVOK 39/13 Q0997 NOSIG

2010/08/09 17:00
OMDW 091700Z 01005KT CAVOK 35/19 Q0997 NOSIG

2010/08/09 17:00
OMFJ 091700Z 13003KT CAVOK 32/25 Q0998 A2948

2010/08/09 17:00
OMRK 091700Z 26002KT CAVOK 37/20 Q0996 A2942

2010/08/09 17:00
OMSJ 091700Z 08004KT 050V110 CAVOK 35/15 Q0997

2010/08/09 17:00
OOMS 091700Z VRB01KT 8000 NSC 31/27 Q0998 NOSIG

2010/08/09 17:00
OOSA 091700Z 15005KT 6000 SCT012 BKN025 26/23 Q1003 NOSIG RMK05 RH84

2010/08/09 16:55
LIBA 091655Z 12004KT CAVOK 30/19 Q1013 RMK SKC VIS MIN 9999 WIND THR29 12003KT BLU

2010/08/09 16:50
LIBC 091650Z VRB03KT CAVOK 30/15 Q1014 RMK VIS MIN 9999

2010/08/09 16:50
LIBD 091650Z 02005KT 330V050 CAVOK 27/16 Q1013 RMK VIS MIN 9999

2010/08/09 16:50
LIBG 091650Z 01013KT 350V050 CAVOK 30/10 Q1012 RMK VIS MIN 9999

2010/08/09 16:55
LIBN 091655Z 35015KT CAVOK 28/11 Q1013 RMK SKC VIS MIN 9999 WIND THR14 35015KT BLU

2010/08/09 16:50
LIBP 091650Z VRB01KT 9999 SCT080 26/17 Q1014 RMK VIS MIN 9999

2010/08/09 16:45
LIBR 091645Z 32018KT CAVOK 26/22 Q1014 NOSIG RMK SKC VIS MIN 9999 WIND THR13 WIND THR31 30013KT BLU

2010/08/09 16:55
LIBV 091655Z 02012KT CAVOK 28/12 Q1013 RMK SKC VIS MIN 9999 WIND THR14 01011KT BLU

2010/08/09 16:50
LICA 091650Z 27011KT 9999 SCT020 26/20 Q1015 RMK VIS MIN 9999

2010/08/09 16:50
LICC 091650Z 06014KT CAVOK 28/21 Q1013 RMK VIS MIN 9999

2010/08/09 16:50
LICD 091650Z 35007KT CAVOK 26/20 Q1015 RMK VIS MIN 9999

2010/08/09 16:55
LICG 091655Z 36008KT CAVOK 25/23 Q1017 RMK SKC VIS MIN 9999 WIND THR08 ///05KT WIND THR21 36006KT BLU

2010/08/09 16:50
LICJ 091650Z 03010KT CAVOK 27/20 Q1016 RMK VIS MIN 9999

2010/08/09 16:50
LICR 091650Z 35002G15KT 9999 FEW030 27/18 Q1015 RMK VIS MIN 9999

2010/08/09 16:55
LICT 091655Z 33011KT CAVOK 28/22 Q1015 RMK SKC VIS MIN 9999 WIND THR13 32008KT BLU

2010/08/09 16:55
LICZ 091655Z 10013KT CAVOK 29/20 Q1013 RMK SKC VIS MIN 9999 WIND THR28 /////KT BLU

2010/08/09 17:00
UKBB 091700Z 28003MPS 9999 FEW040CB 28/14 Q1013 88CLRD95 NOSIG

2010/08/09 17:00
UKHH 091700Z 07002MPS CAVOK 33/10 Q1013 080///65 NOSIG

2010/08/09 17:00
UKOO 091700Z 04004MPS 350V080 5000 FU NSC 32/18 Q1011 16090070 NOSIG

2010/08/09 17:00
UKDE 091700Z 05003MPS CAVOK 33/12 Q1011 02CLRD70 NOSIG

2010/08/09 17:00
UKDD 091700Z 08004MPS CAVOK 30/12 Q1012 08090070 NOSIG

2010/08/09 17:00
UKFF 091700Z 06005MPS CAVOK 30/11 Q1010 01010070 NOSIG

2010/08/09 17:00
UKCC 091700Z 05002MPS CAVOK 31/10 Q1012 08090070 NOSIG

2010/08/09 17:00
UKDR 091700Z 14002MPS 9999 FEW033 31/13 Q1012 1809//70 NOSIG

2010/08/09 17:00
DAAG 091700Z 35009KT CAVOK 29/16 Q1014

2010/08/09 17:00
DABB 091700Z 02011KT CAVOK 27/18 Q1015

2010/08/09 17:00
DABC 091700Z 06008KT CAVOK 34/09 Q1018

2010/08/09 17:00
DABS 091700Z 06014KT CAVOK 32/07 Q1019

2010/08/09 17:00
DAON 091700Z 02010KT 9999 FEW026 32/20 Q1014

2010/08/09 17:00
DAOO 091700Z 36014KT CAVOK 28/22 Q1014

2010/08/09 17:00
DAUH 091700Z 04012KT CAVOK 40/12 Q1011

2010/08/09 17:00
DAUZ 091700Z 05012KT 9999 SCT040 38/05 Q1014

2010/08/09 17:00
OIFS 091700Z 00000KT 9999 FEW035 21/M03 Q1020 A3012 795.9

2010/08/09 17:00
OIIP 091700Z 00000KT CAVOK 28/02 Q1013

2010/08/09 17:00
OIMB 091700Z 05012KT CAVOK 27/08 Q1014 A2995

2010/08/09 17:00
OIMS 091700Z 04014KT 9999 FEW035 31/03 Q1013 A2991

2010/08/09 17:00
OIMT 091700Z 01006KT CAVOK 35/M02 Q1006 A2971 924.2

2010/08/09 17:00
OIZJ 091700Z 09016KT 7000 SKC 32/27 Q0998 A2949

2010/08/09 17:03
KANJ 091703Z AUTO 00000KT 10SM SCT022 BKN030 BKN060 26/20 A2989

2010/08/09 17:00
OIBL 091700Z 36004KT 6000 NSC 36/18 Q0997 A2947

2010/08/09 17:00
OIIK 091700Z VRB02KT CAVOK 28/09 Q1014 A2995

2010/08/09 17:00
OIMC 091700Z 00000KT CAVOK 30/12 Q1007 A2975

2010/08/09 17:00
OIMD 091700Z 06012KT CAVOK 30/03 Q1008 A2977

2010/08/09 17:00
OIMQ 091700Z 09008KT CAVOK 31/M01 Q1011 A2987

2010/08/09 17:00
OITM 091700Z 09012KT 9999 FEW040 30/10 Q1012 A2989

2010/08/09 17:00
DAAD 091700Z 00000KT CAVOK 39/20 Q1016

2010/08/09 17:00
DAAE 091700Z 09005KT CAVOK 28/23 Q1013

2010/08/09 17:00
DAAJ 091700Z 04015KT CAVOK 36/03 Q1014

2010/08/09 17:00
DAAP 091700Z 04013KT CAVOK 37/13 Q1012

2010/08/09 17:00
DAAS 091700Z 12005KT CAVOK 33/05 Q1020

2010/08/09 17:00
DAAV 091700Z 00000KT CAVOK 31/21 Q1013

2010/08/09 17:00
DAAY 091700Z 32014KT 9999 FEW030CB BKN033 37/11 Q1020

2010/08/09 17:00
DABT 091700Z 05010KT CAVOK 33/08 Q1019

2010/08/09 17:00
DAFH 091700Z 07012KT CAVOK 36/17 Q1017

2010/08/09 17:00
DAMH 091700Z 06008KT 9999 SCT040 41/19 Q1011

2010/08/09 17:00
DAOB 091700Z 34006KT 9999 FEW020CB 35/10 Q1020

2010/08/09 17:00
DAOI 091700Z 34010KT 9999 FEW040 SCT233 38/14 Q1012

2010/08/09 17:00
DAOR 091700Z 11004KT 8000 SQ FEW030CB SCT033 38/07 Q1017

2010/08/09 17:00
DAOV 091700Z 34010KT CAVOK 37/23 Q1016

2010/08/09 17:00
DATF 091700Z 07016KT CAVOK 39/06 Q1013

2010/08/09 17:00
DAUA 091700Z 03021KT CAVPK 45/// Q1009

2010/08/09 17:00
DAUB 091700Z 15008KT CAVOK 38/13 Q1011

2010/08/09 17:00
DAUE 091700Z 36006KT CAVOK 41/09 Q1014

2010/08/09 17:00
DAUG 091700Z 10008KT CAVOK 38/15 Q1015

2010/08/09 17:00
DAUI 091700Z 08020KT 8000 DRSA NSC 44/06 Q1009

2010/08/09 17:00
DAUK 091700Z 02008KT CAVOK 38/15 Q1013

2010/08/09 17:00
DAUL 091700Z 00000KT 7000 FEW026TCU 37/13 Q1017

2010/08/09 17:00
DAUO 091700Z /////KT CAVOK 38/13 Q1012

2010/08/09 17:00
DAUT 091700Z 08009KT 9000 NSC 44/// Q1010

2010/08/09 17:00
DAUU 091700Z 01012KT CAVOK 41/18 Q1011

2010/08/09 17:00
FBFT 091700Z VRB02KT CAVOK 22/12 Q1021

2010/08/09 17:00
FBKE 091700Z 16006KT CAVOK 23/02 Q1020

2010/08/09 17:00
FBMN 091700Z 16005KT CAVOK 24/03 Q1020

2010/08/09 17:00
FBSK 091700Z 22006KT CAVOK 16/03 Q1024 NOSIG

2010/08/09 17:00
OIII 091700Z 13004KT 9999 FEW040 32/03 Q1013 A2993 878.5

2010/08/09 17:00
TGPY 091700Z 15013KT 9999 -TSRA FEW017 BKN250 SCT///CB 28/25 Q1014 CB-ESE TO SW EXT.OVH. LIGHT.S

2010/08/09 17:07
KHTL 091707Z AUTO 23004KT 10SM BKN021 25/21 A2991 RMK AO2 

2010/08/09 16:45
LHDC 091645Z 28006KT 9999 FEW040TCU 24/16 Q1016 NOSIG

2010/08/09 16:45
LHKE 091645Z 30002MPS CAVOK 24/15 Q1016 NOSIG RMK BLU

2010/08/09 16:45
LHPA 091645Z 27002MPS CAVOK 22/14 Q1018 NOSIG RMK BLU

2010/08/09 16:45
LHPP 091645Z 05005KT CAVOK 24/16 Q1018

2010/08/09 16:45
LHPR 091645Z 25002KT 9999 FEW040TCU 23/15 Q1017

2010/08/09 16:45
LHSM 091645Z 06002KT 9999 FEW034 23/17 Q1018 NOSIG

2010/08/09 16:45
LHSN 091645Z 32001MPS CAVOK 24/16 Q1016 NOSIG RMK BLU

2010/08/09 16:45
LHUD 091645Z 34006KT 9999 FEW046 SCT083 25/18 Q1017

2010/08/09 17:00
LKKV 091700Z 27004KT CAVOK 18/13 Q1017

2010/08/09 17:00
LKMT 091700Z 14004KT 110V190 CAVOK 20/15 Q1016 NOSIG

2010/08/09 17:00
LKPR 091700Z 26005KT CAVOK 21/13 Q1017 NOSIG

2010/08/09 17:00
LKTB 091700Z 32004KT 9999 FEW044 23/12 Q1016 NOSIG

2010/08/09 17:00
SARP 091700Z 11008KT CAVOK 17/08 Q1021

2010/08/09 17:00
SAEZ 091700Z VRB02KT CAVOK 18/05 Q1024

2010/08/09 17:00
VHHH 091700Z 21004KT 170V230 9999 FEW012 30/25 Q1005 NOSIG

2010/08/09 17:00
EIDW 091700Z 26012KT 9999 FEW028 18/09 Q1009 NOSIG

2010/08/09 17:00
EINN 091700Z 26012KT 9999 SCT028 17/10 Q1011 NOSIG

2010/08/09 17:00
EICK 091700Z 30011KT 9999 SCT038 SCT250 18/08 Q1011 NOSIG

2010/08/09 17:00
EIKN 091700Z 26017KT 9999 FEW018CB SCT022 BKN060 15/09 Q1009 NOSIG

2010/08/09 17:00
SBCP 091700Z 16020KT 9999 FEW015 30/15 Q1015

2010/08/09 17:00
MKJP 091700Z 15004KT 9999 FEW023 31/22 Q1013

2010/08/09 17:00
FMMI 091700Z 11006KT 9999 FEW016 BKN020 14/14 Q1026 NOSIG

2010/08/09 16:50
EGOV 091650Z 22010KT 9999 FEW006 SCT028 16/15 Q1010 NOSIG

2010/08/09 16:50
EGXT 091650Z AUTO 22016KT 9999NDV FEW040/// BKN050/// 22/12 Q1011 RERA

2010/08/09 16:53
PADQ 091653Z 31003KT 10SM FEW002 SCT010 BKN140 11/11 A2964

2010/08/09 16:55
KLGC 091655Z AUTO 04007KT 10SM FEW048 34/21 A3002

2010/08/09 17:00
SABE 091700Z 02004KT 5000 HZ NSC 14/10 Q1024

2010/08/09 17:00
KWDR 091700Z AUTO 00000KT 10SM CLR 32/21 A3009

2010/08/09 17:06
KDRT 091706Z AUTO 12009KT 10SM SCT024 31/23 A2994

2010/08/09 17:05
KTMB 091705Z 14005KT 3SM RA BR BKN012 OVC037 25/23 A2996

2010/08/09 16:55
KLGC 091655Z AUTO 04007KT 10SM FEW048 34/21 A3002

2010/08/09 16:53
KMGM 091653Z COR 08010G14KT 10SM FEW037 34/22 A2999

2010/08/09 17:00
KOPN 091700Z AUTO 10007KT 057V117 10SM CLR 34/23 A3005

2010/08/09 17:05
K1H2 091705Z AUTO 21005KT 10SM SCT032 34/25 A2995

2010/08/09 17:02
KAAA 091702Z AUTO 14005KT 10SM CLR 30/23 A2992

2010/08/09 17:04
KFOA 091704Z AUTO 17003KT 10SM CLR 36/26 A2995

2010/08/09 17:04
KJOT 091704Z AUTO 27003KT 10SM CLR 27/22 A2994

2010/08/09 17:04
KPPQ 091704Z AUTO 18003KT 7SM HZ CLR 31/24 A2993

2010/08/09 17:06
KOLM 091706Z 21005KT 10SM BKN015 OVC046 15/12 A2999

2010/08/09 17:03
K11R 091703Z AUTO 27003KT 10SM SCT035 32/23 A2999

2010/08/09 17:07
KHTL 091707Z AUTO 23004KT 10SM BKN021 25/21 A2991

2010/08/09 17:06
KLAN 091706Z 20008KT 2SM R28L/4500VP6000FT -RA BR SCT017 BKN070 OVC120 23/22 A2998

2010/08/09 17:06
KOLM 091706Z 21005KT 10SM BKN015 OVC046 15/12 A2999

2010/08/09 17:07
VOBL 091707Z 32006KT 6000 SCT015 SCT080 23/20 Q1013 NOSIG

2010/08/09 17:00
VTBS 091700Z 07004KT 9000 -RA FEW018CB SCT030 BKN110 25/23 Q1006 RETS CB SE NOSIG

2010/08/09 17:00
VTBD 091700Z 19003KT 9999 FEW020 BKN120 BKN300 25/24 Q1005 NOSIG

2010/08/09 17:00
VTCC 091700Z 00000KT 9999 BKN035 SCT110 27/24 Q1007 A2974

2010/08/09 17:00
VTBU 091700Z 25004KT 9999 FEW020CB SCT120 BKN300 30/27 Q1006 A2973 CB NW LTG

2010/08/09 17:00
VTSS 091700Z 00000KT 9999 SCT020 SCT120 BKN300 25/22 Q1009 A2980

2010/08/09 17:00
VVTS 091700Z 20008KT 9999 FEW017 SCT040 26/24 Q1007 NOSIG

2010/08/09 17:00
VVNB 091700Z 36002KT 7000 NSC 27/26 Q1004 NOSIG

2010/08/09 17:00
VVDN 091700Z 20005KT 8000 FEW010 SCT060 26/24 Q1005 NOSIG

2010/08/09 17:00
UAAA 091700Z 22005MPS 9999 VCTS SCT050CB BKN100 23/08 Q1009 88CLRD65 TEMPO TS

2010/08/09 17:00
UACC 091700Z 02004MPS CAVOK 13/05 Q1013 040/0070 NOSIG RMK QFE729/0972

2010/08/09 17:00
UAFM 091700Z 19004MPS CAVOK 25/07 Q1009 NOSIG

2010/08/09 17:00
UATE 091700Z 11005MPS CAVOK 32/07 Q1010 120///70 NOSIG RMK QFE755/1007

2010/08/09 17:00
UATT 091700Z 06005MPS 6000 FU SKC 28/07 Q1016 31CLRD70 NOSIG RMK QFE742/0989

2010/08/09 17:00
UKBB 091700Z 28003MPS 9999 FEW040CB 28/14 Q1013 88CLRD95 NOSIG

2010/08/09 17:00
UKFF 091700Z 06005MPS CAVOK 30/11 Q1010 01010070 NOSIG

2010/08/09 17:00
UKKK 091700Z 31005MPS 9000 FEW033CB BKN100 28/14 Q1014 RETS 26CLRD70 TEMPO VRB12G17MPS 2000 TSRAGR BKN020CB

2010/08/09 17:00
UKOO 091700Z 04004MPS 350V080 5000 FU NSC 32/18 Q1011 16090070 NOSIG

2010/08/09 17:00
UMGG 091700Z 33006MPS 9999 TS BKN033CB BKN100 28/13 Q1014 R10/D NOSIG

2010/08/09 17:00
UMMM 091700Z 32003MPS 9999 SCT013 BKN100 20/18 Q1016 R30/290050 NOSIG RMK QFE743

2010/08/09 17:00
UMMS 091700Z 29003MPS 260V330 CAVOK 21/19 Q1016 R31/290060 NOSIG

2010/08/09 17:00
URKA 091700Z 04004MPS CAVOK 27/21 Q1007 NOSIG RMK 065

2010/08/09 17:00
URMM 091700Z 08003MPS 9999 SKC 28/11 Q1009 NOSIG RMK / SC070

2010/08/09 17:00
URSS 091700Z 33002MPS 9999 SKC 29/18 Q1005 NOSIG RMK / QFE752 06CLRD70

2010/08/09 17:00
UTAA 091700Z 00000MPS 9000 SKC 32/03 Q1008 NOSIG

2010/08/09 17:00
UTDD 091700Z 10003MPS 9999 FEW200 26/08 Q1005 09CLRD70 NOSIG RMK QFE687/0916

2010/08/09 17:00
UWKD 091700Z 19002MPS CAVOK 29/12 Q1020 NOSIG RMK QFE755/1007 11CLRD70

2010/08/09 17:00
UWOO 091700Z 08004MPS 4400 HZ 25/11 Q1016 08CLRD65 NOSIG RMK QFE752/1002

2010/08/09 17:00
VTBD 091700Z 19003KT 9999 FEW020 BKN120 BKN300 25/24 Q1005 NOSIG

2010/08/09 17:00
CWAE 091700Z 18009KT 15SM -RA FEW018 BKN040 OVC074 14/12 A2993 RMK SC2SC5AC1 WND ESTD SLP130

2010/08/09 17:00
CYBR 091700Z 00000KT 15SM BKN160 BKN250 26/19 A2983 RMK AC6CI0 SLP101

2010/08/09 17:00
CYPC 091700Z 03003KT 6SM BR OVC004 08/08 A2981 RMK ST8 SLP095

2010/08/09 17:00
DAAJ 091700Z 04015KT CAVOK 36/03 Q1014

2010/08/09 17:00
DAAP 091700Z 04013KT CAVOK 37/13 Q1012

2010/08/09 17:00
DAAV 091700Z 00000KT CAVOK 31/21 Q1013

2010/08/09 17:00
DAAY 091700Z 32014KT 9999 FEW030CB BKN033 37/11 Q1020

2010/08/09 17:00
DAOR 091700Z 11004KT 8000 SQ FEW030CB SCT033 38/07 Q1017

2010/08/09 17:00
DAUB 091700Z 15008KT CAVOK 38/13 Q1011

2010/08/09 17:00
DAUE 091700Z 36006KT CAVOK 41/09 Q1014

2010/08/09 16:55
KHIF 091655Z COR 16014G22KT 10SM FEW090 24/08 A3006 RMK AO2A MIDFLD WND 18018KT SLP068 T02450078 COR 1705

2010/08/09 16:55
KNYL 091655Z 00000KT 10SM FEW080 33/02 A2981 RMK AO2 SLP091 T03330022

2010/08/09 16:59
KWRB 091659Z 05007KT 10SM FEW020 34/22 A3002 RMK SLP160

2010/08/09 17:00
SCAP 091700Z 27008KT 9999 BKN040 11/08 Q1028

2010/08/09 17:00
TNCB 091700Z 11014KT 9999 FEW019 32/25 Q1012 NOSIG

2010/08/09 17:00
TNCC 091700Z 09013KT 9999 SCT021 31/16 Q1012 NOSIG

2010/08/09 17:00
TNCE 091700Z 07009KT 9999 FEW018 28/24 Q1015

2010/08/09 17:00
TTPP 091700Z ///08KT 6000 TS VCSH FEW007 FEW010CB BKN018 31/25 Q1013 NOSIG CB/JP-N/E/E/SW/W/S/W

2010/08/09 16:55
TXKF 091655Z 18012KT 9999 FEW020 BKN300 30/23 Q1022 /

2010/08/09 17:00
UAFM 091700Z 19004MPS CAVOK 25/07 Q1009 NOSIG

2010/08/09 17:00
UATT 091700Z 06005MPS 6000 FU SKC 28/07 Q1016 31CLRD70 NOSIG RMK QFE742/0989

2010/08/09 17:00
UUYY 091700Z 20003MPS 7000 SCT066 OVC200 26/21 Q1016 NOSIG 19CLRD61 RMK QFE753/1004

2010/08/09 17:05
KJXN 091705Z 27007KT 5SM TSRA BR BKN025 BKN050 23/22 A3001

2010/08/09 17:06
KLAN 091706Z 20008KT 2SM R28L/4500VP6000FT -RA BR SCT017 BKN070 OVC120 23/22 A2998

2010/08/09 17:00
CYLK 091700Z CCA 08007KT 6SM FU BKN080 OVC210 21/14 A2970 RMK AC5CI0 SLP063

2010/08/09 17:00
UNAA 091700Z VRB02MPS 9999 FEW033 BKN100 15/14 Q1005 NOSIG RMK QFE731 200///65

2010/08/09 17:00
UNBB 091700Z 04003MPS CAVOK 13/09 Q1007 NOSIG RMK QFE733

2010/08/09 17:00
UNEE 091700Z 30003MPS CAVOK 11/09 Q1007 NOSIG RMK QFE733 23CLRD60

2010/08/09 17:00
UNKL 091700Z VRB01MPS 9999 SCT043 BKN240 10/09 Q1006 NOSIG RMK QFE729 29////60

2010/08/09 17:00
UNNT 091700Z VRB01MPS CAVOK 12/10 Q1009 NOSIG RMK QFE747/0996 07090070

2010/08/09 17:00
UNOO 091700Z 35006G09MPS 9999 BKN033 13/10 Q1015 NOSIG 25CLRD06 RMK QFE753

2010/08/09 17:00
UNWW 091700Z 34001MPS 9999 SCT033 BKN130 13/12 Q1007 NOSIG RMK QFE728 19CLRD70

2010/08/09 17:00
USTR 091700Z 00000MPS CAVOK 13/09 Q1021 NOSIG RMK QFE756/1008 21CLRD65 30CLRD65

2010/08/09 17:00
USHH 091700Z 00000MPS CAVOK 11/07 Q1019 NOSIG RMK QFE761 SC06

2010/08/09 16:50
MASA 091650Z 00000KT CAVOK 28/18 Q1009

2010/08/09 16:50
OIYY 091650Z 03004KT CAVOK 31/M05 Q1013 A2993

2010/08/09 17:00
UHHH 091700Z 13001MPS 9999 -SHRA SCT026CB OVC100 21/21 Q1008 NOSIG RMK QFE749/0999 23290045

2010/08/09 17:00
UHMM 091700Z 08001MPS 9999 FEW200 03/03 Q1012 RMK QFE744 88010070

2010/08/09 17:00
UHNN 091700Z 01003MPS 9999 SKC 12/11 Q1015 RMK QFE756

2010/08/09 17:00
UHPP 091700Z 35002MPS 290V360 9999 FEW040 BKN/// 10/07 Q1013 NOSIG RMK QFE756/1008 SC070

2010/08/09 17:00
UHSS 091700Z 35002MPS 2200 -SHRA BR SCT006 OVC015CB 17/17 Q1014 RMK MT OBSC QFE759/1013

2010/08/09 17:00
UHWW 091700Z 18006MPS 150V220 9999 BKN010 OVC030CB 24/22 Q1009 NOSIG RMK QFE756/1008 75CLRD70

2010/08/09 17:00
USPP 091700Z 00000MPS CAVOK 21/13 Q1019 NOSIG 21090060 RMK QFE753/1004

2010/08/09 17:00
UWKD 091700Z 19002MPS CAVOK 29/12 Q1020 NOSIG RMK QFE755/1007 11CLRD70

2010/08/09 17:00
UWKE 091700Z 22002MPS CAVOK 26/11 Q1020 NOSIG RMK QFE748/0997 04090070

2010/08/09 17:00
UWKS 091700Z 00000MPS 2100 FU SCT010 29/14 Q1020 TEMPO 1400 FU RMK QFE750 SC0.60

2010/08/09 17:00
UWLL 091700Z 01003MPS CAVOK 27/12 Q1020 NOSIG RMK QFE752/1003 SC065

2010/08/09 17:00
UWLW 091700Z 02002MPS 8000 FEW200 27/18 Q1019 NOSIG 02CLRD60 RMK QFE758

2010/08/09 17:00
UWOR 091700Z 07005MPS CAVOK 24/04 Q1019 07CLRD65 NOSIG RMK QFE739/0986

2010/08/09 17:00
UWOO 091700Z 08004MPS 4400 HZ 25/11 Q1016 08CLRD65 NOSIG RMK QFE752/1002

2010/08/09 17:00
UWPP 091700Z 08002MPS CAVOK 24/18 Q1018 NOSIG RMK QFE748 11090060

2010/08/09 17:00
UWSS 091700Z 06004MPS CAVOK 29/13 Q1017 NOSIG RMK QFE751 120///60

2010/08/09 17:00
UWWW 091700Z 03004MPS CAVOK 28/03 Q1019 NOSIG RMK QFE751/1002 05CLRD60 15//99//

2010/08/09 17:00
URKA 091700Z 04004MPS CAVOK 27/21 Q1007 NOSIG RMK  065

2010/08/09 17:00
URKK 091700Z 05003MPS CAVOK 29/12 Q1006 NOSIG RMK QFE751 SC070

2010/08/09 17:00
URKM 091700Z 10002MPS CAVOK 30/13 Q1007 RMK QFE737

2010/08/09 17:00
URML 091700Z 13004MPS 9999 FEW100 28/25 Q1010 NOSIG RMK QFE757 / 07

2010/08/09 17:00
URMM 091700Z 08003MPS 9999 SKC 28/11 Q1009 NOSIG RMK / SC070

2010/08/09 17:00
URMN 091700Z 20002MPS 9999 FEW110 29/14 Q1010 NOSIG RMK / QFE721 SC07

2010/08/09 17:00
URMT 091700Z 07005MPS CAVOK 29/04 Q1011 NOSIG RMK QFE718 SC07

2010/08/09 17:00
URRR 091700Z 04004MPS CAVOK 32/09 Q1010 NOSIG RMK SC070

2010/08/09 17:00
URSS 091700Z 33002MPS 9999 SKC 29/18 Q1005 NOSIG RMK / QFE752 06CLRD70

2010/08/09 17:00
URWA 091700Z 13001MPS CAVOK 31/15 Q1011 NOSIG RMK SC07

2010/08/09 17:00
URWW 091700Z 05003MPS CAVOK 30/10 Q1013 NOSIG RMK SC070

2010/08/09 17:00
ULLI 091700Z 29004MPS CAVOK 24/18 Q1013 NOSIG

2010/08/09 17:00
UUDD 091700Z 13004MPS 0800 R14R/0800N R14L/1000N FU VV010 30/13 Q1017 TEMPO 0500

2010/08/09 17:00
UUEE 091700Z 13004MPS 3000 FU SKC 30/11 Q1016 NOSIG

2010/08/09 17:00
UUWW 091700Z 10003MPS 4600 HZ BKN200 31/12 Q1016 24000070 NOSIG

2010/08/09 17:00
TGPY 091700Z 15013KT 9999 -TSRA FEW017 BKN250 SCT///CB 28/25 Q1014 CB-ESE TO SW EXT.OVH. LIGHT.S

2010/08/09 17:00
ULAA 091700Z 21003MPS 180V240 2200 FU NSC 28/22 Q1008 TEMPO 1000 BR RMK QFE755/1007 SC070

2010/08/09 17:00
ULMM 091700Z 01003MPS 320V050 9999 -SHRA OVC009CB 10/08 Q1011 NOSIG RMK QFE751 32290250

2010/08/09 17:00
ULOO 091700Z 22004MPS P6000 BKN070 OVC200 23/16 Q1015 NOSIG RMK QFE757

2010/08/09 17:00
ULWW 091700Z 15002MPS 3600 HZ BKN/// 27/21 Q1016 NOSIG RMK QFE751 15CLRD60

2010/08/09 17:00
UMKK 091700Z 35002MPS 7000 FEW026TCU BKN100 21/18 Q1015 R24/CLRD60 NOSIG RMK QFE760/1013

2010/08/09 17:00
UUOB 091700Z VRB01MPS CAVOK 33/12 Q1014 NOSIG RMK SC065

2010/08/09 17:00
UUOO 091700Z VRB01MPS CAVOK 30/08 Q1014 NOSIG RMK 13090070

2010/08/09 17:00
UWGG 091700Z 00000MPS 2700 FU BKN230 26/17 Q1019 NOSIG 36090070 RMK QFE757

2010/08/09 17:00
URKA 091700Z 04004MPS CAVOK 27/21 Q1007 NOSIG RMK 065

2010/08/09 17:00
URKK 091700Z 05003MPS CAVOK 29/12 Q1006 NOSIG RMK QFE751 SC070

2010/08/09 17:00
URKM 091700Z 10002MPS CAVOK 30/13 Q1007 RMK QFE737

2010/08/09 17:00
URML 091700Z 13004MPS 9999 FEW100 28/25 Q1010 NOSIG RMK QFE757 / 07

2010/08/09 17:00
URMM 091700Z 08003MPS 9999 SKC 28/11 Q1009 NOSIG RMK / SC070

2010/08/09 17:00
URMN 091700Z 20002MPS 9999 FEW110 29/14 Q1010 NOSIG RMK / QFE721 SC07

2010/08/09 17:00
URMT 091700Z 07005MPS CAVOK 29/04 Q1011 NOSIG RMK QFE718 SC07

2010/08/09 17:00
URRR 091700Z 04004MPS CAVOK 32/09 Q1010 NOSIG RMK SC070

2010/08/09 17:00
URSS 091700Z 33002MPS 9999 SKC 29/18 Q1005 NOSIG RMK / QFE752 06CLRD70

2010/08/09 17:00
URWA 091700Z 13001MPS CAVOK 31/15 Q1011 NOSIG RMK SC07

2010/08/09 17:00
URWW 091700Z 05003MPS CAVOK 30/10 Q1013 NOSIG RMK SC070

2010/08/09 17:00
UOII 091700Z 32003MPS P4000 SCT100 BKN200 09/07 Q1008 NOSIG RMK QFE753 30////60

2010/08/09 17:00
UOOO 091700Z 35004G06MPS 9999 BKN014 07/05 Q1009 TEMPO 0500 FG VV002 RMK QFE742 010///60

2010/08/09 17:00
USCM 091700Z 08002MPS 5000 HZ SCT200 20/09 Q1020 NOSIG 01090065 RMK QFE726

2010/08/09 17:00
UEEE 091700Z 00000MPS CAVOK 11/10 Q1009 NOSIG RMK QFE748 2309//60

2010/08/09 17:00
UELL 091700Z 09003MPS 9999 BKN200 14/10 Q1012 NOSIG RMK QFE684 08CLRD70

2010/08/09 17:00
UERP 091700Z 32002MPS P4000 OVC034 08/06 Q1003 NOSIG RMK QFE709 17190260

2010/08/09 17:00
UERR 091700Z VRB01MPS 9999 BKN021CB OVC040 12/12 Q1004 NOSIG RMK QFE721 24290350

2010/08/09 17:00
UEST 091700Z 18003MPS 9999 -RA BKN016 OVC046 11/09 Q1007 NOSIG RMK QFE754

2010/08/09 17:00
UWUU 091700Z 33003MPS CAVOK 24/07 Q1018 82010060 NOSIG RMK QFE753/1004

2010/08/09 17:00
USCC 091700Z VRB01MPS 2500 HZ SCT070 BKN200 17/08 Q1020 NOSIG RMK QFE744 09000070

2010/08/09 17:00
USDD 091700Z 22002MPS 9999 -RA OVC072 14/09 Q1016 NOSIG RMK QFE757/1009

2010/08/09 17:00
USMU 091700Z 32003MPS CAVOK 08/06 Q1015 NOSIG RMK QFE755 27CLRD60

2010/08/09 17:00
USNN 091700Z 33003MPS P6000 OVC066 12/09 Q1015 NOSIG RMK QFE757 SC065

2010/08/09 17:00
USRK 091700Z 31003MPS 6000 SCT050 BKN200 10/06 Q1016 NOSIG RMK QFE756 350///60

2010/08/09 17:00
USRR 091700Z 30003MPS 7000 BKN048 12/08 Q1018 NOSIG RMK QFE758 25////60

2010/08/09 17:00
USSS 091700Z 00000MPS 5000 FU SCT036 OVC200 17/09 Q1020 NOSIG RMK QFE744 260///70

2010/08/09 17:00
UUYH 091700Z 22002MPS CAVOK 21/18 Q1014 NOSIG RMK QFE 748 18CLRD60

2010/08/09 17:00
UUYS 091700Z 24002MPS CAVOK 16/11 Q1011 NOSIG RMK QFE752 14CLRD60

2010/08/09 17:00
UUYY 091700Z 20003MPS 7000 SCT066 OVC200 26/21 Q1016 NOSIG 19CLRD61 RMK QFE753/1004

2010/08/09 17:00
UIAA 091700Z VRB01MPS 9999 SKC 09/09 Q1007 NOSIG RMK QFE697 29190060

2010/08/09 17:00
UIBB 091700Z 00000MPS 5000 FEW040CB SCT100 15/14 Q1003 NOSIG RMK QFE710/0946 30190055

2010/08/09 17:00
UIII 091700Z 11002MPS CAVOK 09/07 Q1004 NOSIG RMK QFE709/0945 30CLRD60

2010/08/09 17:00
UIUU 091700Z 00000MPS 9999 SKC 10/06 Q1006 NOSIG RMK QFE710/0947

2010/08/09 16:53
KMGM 091653Z COR 08010G14KT 10SM FEW037 34/22 A2999

2010/08/09 17:00
TNCM 091700Z 10008KT 9999 SCT019 30/25 Q1015

2010/08/09 17:06
KOLM 091706Z 21005KT 10SM BKN015 OVC046 15/12 A2999

2010/08/09 17:06
KDRT 091706Z AUTO 12009KT 10SM SCT024 31/23 A2994

2010/08/09 17:07
KHTL 091707Z AUTO 23004KT 10SM BKN021 25/21 A2991

2010/08/09 17:06
KLAN 091706Z 20008KT 2SM R28L/4500VP6000FT -RA BR SCT017 BKN070 OVC120 23/22 A2998

2010/08/09 17:07
CZUM 091707Z AUTO 26010KT 9SM OVC023 OVC067 OVC090 15/12 A2962

2010/08/09 17:00
GABS 091700Z 21005KT 180V240 9999 SCT025 29/23 Q1013 NOSIG

2010/08/09 17:00
GGOV 091700Z 24014KT 9999 SCT015TCU FEW020CB 30/23 Q1010 NOSIG

2010/08/09 17:00
GOOY 091700Z 29006KT 250V350 9999 SCT013 BKN230 29/22 Q1011 NOSIG

2010/08/09 17:00
DIAP 091700Z 25008KT 220V280 8000 SCT011 BKN080 27/23 Q1013 NOSIG

2010/08/09 17:00
GQNN 091700Z 26009KT CAVOK 29/19 Q1010 NOSIG

2010/08/09 17:00
GQPP 091700Z 31016KT CAVOK 24/19 Q1011 NOSIG

2010/08/09 17:00
GUCY 091700Z 28008KT 9999 BKN015 SCT110 28/25 Q1011

2010/08/09 17:00
GVAC 091700Z 06009KT 9999 SCT014 28/19 Q1012 NOSIG

2010/08/09 17:00
GBYD 091700Z 27008KT 9999 SCT012 30/23 Q1012

2010/08/09 17:00
GLRB 091700Z 18005KT 9000 -DZ FEW008 BKN015 26/25 Q1012

2010/08/09 16:55
KQAR 091655Z AUTO 00000KT 4SM CLR 36/01 A2956 RMK AO2 SLP947 T03590006 $

2010/08/09 16:55
KQON 091655Z AUTO 32004KT 4700 HZ BKN050 38/04 A2959 RMK AO2 SLP002 T03830040

2010/08/09 16:55
KQVE 091655Z AUTO VRB03KT 9999 -SHRA SCT085 BKN120 26/21 A2982 RMK AO2 LTG DSNT NE SLP037

2010/08/09 16:55
KQXR 091655Z AUTO 33005KT 8000 CLR 41/M05 A2943 RMK AO2 SLP966 T04071048 $

2010/08/09 17:00
OIHH 091700Z 09006KT 9999 FEW040 26/M08 Q1016 A3002

2010/08/09 17:00
FCBB 091700Z 26004KT 250V320 9999 SCT023 OVC026 23/18 Q1014 NOSIG

2010/08/09 17:00
FCPP 091700Z 20004KT 6000 SCT010 OVC026 22/20 Q1013 NOSIG

2010/08/09 17:00
FKYS 091700Z 27007KT 230V300 9999 BKN013 23/19 Q1016 NOSIG

2010/08/09 17:00
FKKR 091700Z 32010KT 9999 BKN020 FEW023CB BKN130 31/21 Q1010 NOSIG

2010/08/09 17:00
FEFF 091700Z 17004KT 9999 FEW040CB SCT300 27/20 Q1010 NOSIG

2010/08/09 17:00
FOOL 091700Z VRB03KT 8000 SCT008 OVC033 24/23 Q1013 NOSIG

2010/08/09 17:00
FOON 091700Z 29002KT 9999 OVC015 24/21 Q1015

2010/08/09 17:00
FOOG 091700Z /////KT 9999 SCT006 OVC023 25/21 Q1014

2010/08/09 17:00
FGSL 091700Z 27004KT 9999 SCT013 BKN100 25/25 Q1012 NOSIG

2010/08/09 17:00
FZAA 091700Z 28008KT 7000 SCT016 OVC020 24/18 Q1014 NOSIG

2010/08/09 17:00
FPST 091700Z 12006KT 9999 FEW020 SCT040 26/21 Q1012 NOSIG

2010/08/09 17:05
CWCL 091705Z AUTO 36004KT 4SM -RA OVC010 10/08 A2996

2010/08/09 17:03
CWSA 091703Z AUTO 15013KT 9SM -RA FEW036 FEW048 FEW070 SCT081 20/17 A3011

2010/08/09 17:05
CYFC 091705Z AUTO 20008KT 3SM RA BR BKN009 BKN014 20/19 A2990 RMK SLP125 DENSITY ALT 600FT PCPN 0.5MM PAST HR RVR MISG

2010/08/09 17:07
ETAD 091707Z AUTO 24006KT 9999 BKN070 22/10 A3002 RMK AO2 SLP160 $

2010/08/09 17:04
KDLF 091704Z AUTO 11010KT 10SM SCT025 30/23 A2996 RMK AO2 SLP127

2010/08/09 17:06
KHST 091706Z 15005KT 2SM R05/5000VP6000FT +RA BR SCT002 OVC011 24/24 A2996 RMK AO2A SLP149

2010/08/09 17:02
KVBG 091702Z VRB04KT 10SM FEW007 BKN010 OVC015 14/12 A2996 RMK AO2 VISNO RWY12 $

2010/08/09 17:03
RKJK 091703Z AUTO 00000KT 9999 -DZ OVC055 29/25 A2979 RMK AO2 DZB1703 SLP087 $

2010/08/09 17:02
RKSO 091702Z 05004KT 6000 R09/1200V1400 BR FEW070 SCT100 25/25 A2978 RMK AO2A SLP086 $

2010/08/09 17:00
GABS 091700Z 21005KT 180V240 9999 SCT025 29/23 Q1013 NOSIG

2010/08/09 17:00
GGOV 091700Z 24014KT 9999 SCT015TCU FEW020CB 30/23 Q1010 NOSIG

2010/08/09 17:00
GOOY 091700Z 29006KT 250V350 9999 SCT013 BKN230 29/22 Q1011 NOSIG

2010/08/09 17:00
DIAP 091700Z 25008KT 220V280 8000 SCT011 BKN080 27/23 Q1013 NOSIG

2010/08/09 17:00
GQNN 091700Z 26009KT CAVOK 29/19 Q1010 NOSIG

2010/08/09 17:00
GQPP 091700Z 31016KT CAVOK 24/19 Q1011 NOSIG

2010/08/09 17:00
GUCY 091700Z 28008KT 9999 BKN015 SCT110 28/25 Q1011

2010/08/09 17:00
GVAC 091700Z 06009KT 9999 SCT014 28/19 Q1012 NOSIG

2010/08/09 17:00
GBYD 091700Z 27008KT 9999 SCT012 30/23 Q1012

2010/08/09 17:00
GLRB 091700Z 18005KT 9000 -DZ FEW008 BKN015 26/25 Q1012

2010/08/09 17:00
TLPL 091700Z 14012KT 9999 BKN014 FEW016CB BKN240 30/25 Q1014 CB/OVH

2010/08/09 17:00
TLPC 091700Z 00000KT 9999 SCT020 SCT090 BKN260 29/26 Q1014

2010/08/09 17:01
CZCP 091701Z AUTO 06012KT 5/8SM CLR 06/ A2982

2010/08/09 17:08
KSXT 091708Z AUTO 00000KT 1SM -RA VV001 16/13 A3000 RMK AO2 VIS 1/4V5 P0000 TSNO 

